sequenceNumber,corporateNumber,process,correct,updateDate,changeDate,name,nameImageId,kind,prefectureName,cityName,streetNumber,addressImageId,prefectureCode,cityCode,postCode,addressOutside,addressOutsideImageId,closeDate,closeCause,successorCorporateNumber,changeCause,assignmentDate,latest,enName,enPrefectureName,enCityName,enAddressOutside,furigana,hihyoji
16,1010001258222,新規,0,2025-09-17,2025-09-17,ＴＰＳ　ＪＡＰＡＮ株式会社,,株式会社,東京都,千代田区,神田佐久間町３丁目２８星野ビル４Ｆ３６号,,13,101,1010025,,,,,,,2025-09-17,1,,,,,ティーピーエスジャパン,0
17,1010001258528,新規,0,2025-09-17,2025-09-17,スマイルモビリティ株式会社,,株式会社,東京都,中央区,築地７丁目１０番２号,,13,102,1040045,,,,,,,2025-09-17,1,,,,,スマイルモビリティ,0
21,1010101016868,新規,0,2025-09-17,2025-09-17,東京水利工学株式会社,,株式会社,東京都,八王子市,東浅川町７５６番地１９,,13,201,1930834,,,,,,,2025-09-17,1,,,,,トウキョウスイリコウガク,0
29,1010401192979,新規,0,2025-09-17,2025-09-17,Ｗｅｓｔｍａｎ株式会社,,株式会社,東京都,港区,南麻布１丁目９番４－３０３号,,13,103,1060047,,,,,,,2025-09-17,1,,,,,ウエストマン,0
30,1010403036011,新規,0,2025-09-17,2025-09-17,日本３Ｄプリント合同会社,,合同会社,東京都,港区,麻布十番３丁目１１番８－６０４号,,13,103,1060045,,,,,,,2025-09-17,1,,,,,ニホンスリーディープリント,0
44,1010901058060,新規,0,2025-09-17,2025-09-17,株式会社ループ,,株式会社,東京都,世田谷区,成城２丁目１９番３号,,13,112,1570066,,,,,,,2025-09-17,1,,,,,ループ,0
59,1011001172017,新規,0,2025-09-17,2025-09-17,株式会社ＡＫ４ＭＳ,,株式会社,東京都,渋谷区,南平台町１１番２１号,,13,113,1500036,,,,,,,2025-09-17,1,,,,,エーケーフォーエムエス,0
60,1011001172330,新規,0,2025-09-17,2025-09-17,株式会社ＳＴ　Ｔｅｃｈ,,株式会社,東京都,渋谷区,富ヶ谷２丁目２６番１６－２０２号アパートメントイナキ,,13,113,1510063,,,,,,,2025-09-17,1,,,,,エスティーテック,0
61,1011001172553,新規,0,2025-09-17,2025-09-17,Ｅｄｇｅｎｅｓｉｓ株式会社,,株式会社,東京都,渋谷区,桜丘町１番１号ＳｈｉｂｕｙａＳａｋｕｒａＳｔａｇｅ１２Ｆ,,13,113,1500031,,,,,,,2025-09-17,1,,,,,エドジェネシス,0
64,1011101113085,新規,0,2025-09-17,2025-09-17,株式会社リトラスト,,株式会社,東京都,新宿区,西新宿６丁目１５番１号ラトゥール新宿５０５,,13,104,1600023,,,,,,,2025-09-17,1,,,,,リトラスト,0
65,1011101113110,新規,0,2025-09-17,2025-09-17,株式会社ＲＩＡＯ,,株式会社,東京都,新宿区,西新宿６丁目１２－１６天空ＭＵＲＡ９０６,,13,104,1600023,,,,,,,2025-09-17,1,,,,,リアオ,0
71,1011503006671,新規,0,2025-09-17,2025-09-17,合同会社夏和,,合同会社,東京都,北区,浮間２丁目５番３－１０５号アトレ浮間舟渡ローレルコート,,13,117,1150051,,,,,,,2025-09-17,1,,,,,ナツワ,0
77,1011701028724,新規,0,2025-09-17,2025-09-17,株式会社旭,,株式会社,東京都,江戸川区,西葛西５丁目８番１－７０１号,,13,123,1340088,,,,,,,2025-09-17,1,,,,,アサヒ,0
84,1012401043583,新規,0,2025-09-17,2025-09-17,株式会社ほんちゃん,,株式会社,東京都,府中市,南町３丁目５３番地の１３,,13,206,1830026,,,,,,,2025-09-17,1,,,,,ホンチャン,0
86,1012805003365,新規,0,2025-09-17,2025-09-17,一般社団法人武蔵村山さくら合奏団,,その他の設立登記法人,東京都,武蔵村山市,大南２丁目１６０番地の５大南嫩マンション２０２号,,13,223,2080013,,,,,,,2025-09-17,1,,,,,ムサシムラヤマガッソウダン,0
93,1020001164766,新規,0,2025-09-17,2025-09-17,株式会社薫,,株式会社,神奈川県,川崎市川崎区,南町２２番地６ライオンズマンション川崎第３－３０１号室,,14,131,2100015,,,,,,,2025-09-17,1,,,,,カオル,0
96,1020003029348,新規,0,2025-09-17,2025-09-17,合同会社ＹＡＭＯＳＡＮ,,合同会社,神奈川県,横浜市神奈川区,金港町５－１４クアドリフォリオ８階,,14,102,2210056,,,,,,,2025-09-17,1,,,,,ヤモサン,0
97,1020003029356,新規,0,2025-09-17,2025-09-17,Ｋ．Ｃ．ＣＯＲＰＯＲＡＴＩＯＮ合同会社,,合同会社,神奈川県,横浜市磯子区,中原１丁目１－３７－５１０１,,14,107,2350036,,,,,,,2025-09-17,1,,,,,ケーシーコーポレーション,0
104,1030001168667,新規,0,2025-09-17,2025-09-17,株式会社ＫＩＲＩＮ　ａｇｅｎｃｙ,,株式会社,埼玉県,上尾市,大字瓦葺１３９９番地５,,11,219,3620022,,,,,,,2025-09-17,1,,,,,キリンエージェンシー,0
105,1030001168675,新規,0,2025-09-17,2025-09-17,一総合株式会社,,株式会社,埼玉県,所沢市,大字下富１１９１番地の３１,,11,208,3590001,,,,,,,2025-09-17,1,,,,,ハジメソウゴウ,0
106,1030001168683,新規,0,2025-09-17,2025-09-17,株式会社アクセリア,,株式会社,埼玉県,三郷市,戸ケ崎３丁目６０４番地７,,11,237,3410044,,,,,,,2025-09-17,1,,,,,アクセリア,0
107,1030001168691,新規,0,2025-09-17,2025-09-17,株式会社昇也,,株式会社,埼玉県,草加市,西町１３９６番地１グリュックＢ－２０１号,,11,221,3400035,,,,,,,2025-09-17,1,,,,,ショウヤ,0
114,1030003027581,新規,0,2025-09-17,2025-09-17,合同会社ＭＥＹＳ,,合同会社,埼玉県,久喜市,西大輪２３２１番地１０,,11,232,3400206,,,,,,,2025-09-17,1,,,,,メイズ,0
115,1030003027623,新規,0,2025-09-17,2025-09-17,合同会社トークウィズ,,合同会社,埼玉県,川越市,新富町１丁目１８番地７Ｒ３Ｋａｗａｇｏｅ５Ｅ,,11,201,3500043,,,,,,,2025-09-17,1,,,,,トークウィズ,0
116,1030003027631,新規,0,2025-09-17,2025-09-17,合同会社ＡＢＥＭ,,合同会社,埼玉県,新座市,栗原６丁目１番３８号サンネスト栗原３０６号室,,11,230,3520035,,,,,,,2025-09-17,1,,,,,エービーイーエム,0
120,1040001140451,新規,0,2025-09-17,2025-09-17,株式会社ＫＣ,,株式会社,千葉県,袖ケ浦市,蔵波２８８８番地５５,,12,229,2990243,,,,,,,2025-09-17,1,,,,,ケーシー,0
127,1060003005758,新規,0,2025-09-17,2025-09-17,７ＳＫＹ　ＢＯＵＥＫＩ合同会社,,合同会社,栃木県,小山市,大字南小林３９２番地２南小林戸建,,09,208,3230057,,,,,,,2025-09-17,1,,,,,セブンスカイボウエキ,0
138,1080105006537,新規,0,2025-09-17,2025-09-17,医療法人社団平令会,,その他の設立登記法人,静岡県,富士宮市,光町１３番１２号,,22,207,4180054,,,,,,,2025-09-17,1,,,,,ヘイレイカイ,0
145,1110001039570,新規,0,2025-09-17,2025-09-17,株式会社ＧＡＵＤＩ,,株式会社,新潟県,南魚沼市,原４３９番地,,15,226,9496755,,,,,,,2025-09-17,1,,,,,ガウディ,0
157,1120001279554,新規,0,2025-09-17,2025-09-17,京六株式会社,,株式会社,大阪府,大阪市西成区,山王２丁目１３番２２号－３０３号,,27,122,5570001,,,,,,,2025-09-17,1,,,,,キョウリョク,0
158,1120001279604,新規,0,2025-09-17,2025-09-17,曜翔株式会社,,株式会社,大阪府,大阪市北区,本庄東２丁目７番１３号グレース梅田東１階,,27,127,5310074,,,,,,,2025-09-17,1,,,,,ヨウショウ,0
159,1120001279620,新規,0,2025-09-17,2025-09-17,盛煌株式会社,,株式会社,大阪府,大阪市東住吉区,湯里５丁目１６番地５号２Ｆ－Ｂ,,27,121,5460013,,,,,,,2025-09-17,1,,,,,セイコウ,0
160,1120001279694,新規,0,2025-09-17,2025-09-17,ダイワテックホールディングス株式会社,,株式会社,大阪府,大阪市東住吉区,住道矢田８丁目１３番２６号,,27,121,5460022,,,,,,,2025-09-17,1,,,,,ダイワテックホールディングス,0
165,1120003030568,新規,0,2025-09-17,2025-09-17,和光科技合同会社,,合同会社,大阪府,大阪市淀川区,木川西１丁目４番１９号ヴィラ木川６０３号,,27,123,5320013,,,,,,,2025-09-17,1,,,,,ワコウカギ,0
166,1120003030650,新規,0,2025-09-17,2025-09-17,Ｐ．Ｊ　Ｍｏｎｇｏｌｉａ　ｇｒｏｕｐ合同会社,,合同会社,大阪府,大阪市西淀川区,大和田４丁目１２番２２号,,27,113,5550032,,,,,,,2025-09-17,1,,,,,ピージェイモンゴリアグループ,0
173,1120101072446,新規,0,2025-09-17,2025-09-17,株式会社リアン・エステート,,株式会社,大阪府,堺市西区,上２０９－１１,,27,144,5938311,,,,,,,2025-09-17,1,,,,,リアンエステート,0
174,1120101072454,新規,0,2025-09-17,2025-09-17,株式会社Ｎくらふと,,株式会社,大阪府,岸和田市,包近町３６４－１,,27,202,5960101,,,,,,,2025-09-17,1,,,,,エヌクラフト,0
188,1130001080531,新規,0,2025-09-17,2025-09-17,株式会社ＮＩＣＥ,,株式会社,京都府,京都市伏見区,竹田七瀬川町２９番地２深草サニーハイツ１２０,,26,109,6128422,,,,,,,2025-09-17,1,,,,,ナイス,0
190,1130003010775,新規,0,2025-09-17,2025-09-17,合同会社ブレッドマニア,,合同会社,京都府,長岡京市,下海印寺方丸３３番地リューライフ西長岡２０８,,26,209,6170845,,,,,,,2025-09-17,1,,,,,ブレッドマニア,0
191,1130003010783,新規,0,2025-09-17,2025-09-17,合同会社結ぎ合い,,合同会社,京都府,京田辺市,薪城ノ内２９番地８,,26,211,6100341,,,,,,,2025-09-17,1,,,,,ツナギアイ,0
204,1140001140037,新規,0,2025-09-17,2025-09-17,西山電気株式会社,,株式会社,兵庫県,養父市,薮崎１０７５番地４,,28,222,6670113,,,,,,,2025-09-17,1,,,,,ニシヤマデンキ,0
205,1140001140053,新規,0,2025-09-17,2025-09-17,小華株式会社,,株式会社,兵庫県,伊丹市,船原１丁目４番１４号エーデルハイム船原４０４号,,28,207,6640896,,,,,,,2025-09-17,1,,,,,ショウカ,0
209,1140005027627,新規,0,2025-09-17,2025-09-17,一般社団法人自立支援協会欅,,その他の設立登記法人,兵庫県,川西市,新田２丁目３番１１号,,28,217,6660125,,,,,,,2025-09-17,1,,,,,ジリツシエンキョウカイケヤキ,0
219,1180001168669,新規,0,2025-09-17,2025-09-17,株式会社シクスル,,株式会社,愛知県,春日井市,上条町１丁目２６８番地２エクセレンス協和３０３,,23,206,4860833,,,,,,,2025-09-17,1,,,,,シクスル,0
234,1200001044248,新規,0,2025-09-17,2025-09-17,株式会社國島,,株式会社,岐阜県,安八郡輪之内町,楡俣新田６８２番地の５,,21,382,5030203,,,,,,,2025-09-17,1,,,,,クニシマ,0
235,1200005013802,新規,0,2025-09-17,2025-09-17,一般社団法人ＮＫ　ａｓｓｉｓｔ,,その他の設立登記法人,岐阜県,瑞穂市,馬場小城町２丁目５３番地２,,21,216,5010205,,,,,,,2025-09-17,1,,,,,エヌケーアシスト,0
239,1240001065505,新規,0,2025-09-17,2025-09-17,株式会社ｗｉｌｌの力,,株式会社,広島県,呉市,広大新開１丁目４番１８号,,34,202,7370141,,,,,,,2025-09-17,1,,,,,ウィルノチカラ,0
240,1240001065513,新規,0,2025-09-17,2025-09-17,株式会社ＨＮＴ,,株式会社,広島県,広島市南区,仁保１丁目１番４１号１Ｆ,,34,103,7340026,,,,,,,2025-09-17,1,,,,,エイチエヌティー,0
243,1240003007406,新規,0,2025-09-17,2025-09-17,納川合同会社,,合同会社,広島県,広島市安佐北区,亀山南５丁目１０番５－２０１号,,34,106,7310232,,,,,,,2025-09-17,1,,,,,ナカガワ,0
245,1250005009028,新規,0,2025-09-17,2025-09-17,一般社団法人ＫＡＦＵＫＡ,,その他の設立登記法人,山口県,山口市,平井８２２－７山大オフィスビル３Ｆ,,35,203,7530831,,,,,,,2025-09-17,1,,,,,カフカ,0
248,1290003017367,新規,0,2025-09-17,2025-09-17,合同会社セキュア,,合同会社,福岡県,朝倉郡筑前町,東小田３２２６－９,,40,447,8380214,,,,,,,2025-09-17,1,,,,,セキュア,0
249,1290003017474,新規,0,2025-09-17,2025-09-17,合同会社ゆまみ,,合同会社,福岡県,福岡市西区,大字金武７８４番１号,,40,135,8190035,,,,,,,2025-09-17,1,,,,,ユマミ,0
253,1320005010259,新規,0,2025-09-17,2025-09-17,一般社団法人癒し工房サナティオ,,その他の設立登記法人,大分県,大分市,かたしま台２丁目１５７５番地の３０,,44,201,8700949,,,,,,,2025-09-17,1,,,,,イヤシコウボウサナティオ,0
256,1330001033584,新規,0,2025-09-17,2025-09-17,株式会社Ｕｐｗｅｌｌ,,株式会社,熊本県,熊本市西区,稗田町３番５２号,,43,103,8600075,,,,,,,2025-09-17,1,,,,,アプウェル,0
261,1350001019722,新規,0,2025-09-17,2025-09-17,株式会社ｓｏｌａｒｅ,,株式会社,宮崎県,都城市,北原町１２－１４,,45,202,8850024,,,,,,,2025-09-17,1,,,,,ソラーレ,0
264,1360001035784,新規,0,2025-09-17,2025-09-17,澄朗株式会社,,株式会社,沖縄県,那覇市,若狭１丁目２１番６号２Ｆ・Ｅ号室,,47,201,9000031,,,,,,,2025-09-17,1,,,,,チョウロウ,0
270,1380001035584,新規,0,2025-09-17,2025-09-17,株式会社エムズボクシングジム,,株式会社,福島県,いわき市,平字田町１９番地の１７,,07,204,9708026,,,,,,,2025-09-17,1,,,,,エムズボクシンングジム,0
271,1380003006138,新規,0,2025-09-17,2025-09-17,ＣＭ　ＷＡＨＬＡ　ＴＲＡＤＩＮＧ合同会社,,合同会社,福島県,耶麻郡西会津町,奥川大字飯里字田尻３３６９番地,,07,405,9694734,,,,,,,2025-09-17,1,,,,,シーエムワハラトレーディング,0
286,1700150132240,新規,0,2025-09-17,2025-09-17,三田五丁目西地区市街地再開発組合,,その他,東京都,港区,三田５丁目１４－１８,,13,103,1080073,,,,,,,2025-09-17,1,,,,,ミタゴチヨウメニシチクシガイチサイカイハツクミアイ,0
297,2010001258634,新規,0,2025-09-17,2025-09-17,ＬａＤｅｎ株式会社,,株式会社,東京都,千代田区,神田佐久間町１丁目１６番地１大橋ビル９階,,13,101,1010025,,,,,,,2025-09-17,1,,,,,ラデン,0
300,2010005040674,新規,0,2025-09-17,2025-09-17,一般社団法人Ｎｙｘ　Ｆｏｕｎｄａｔｉｏｎ,,その他の設立登記法人,東京都,文京区,本郷６丁目２６番１０号本郷ニューハウジング２０２号室,,13,105,1130033,,,,,,,2025-09-17,1,,,,,ニックスファウンデーション,0
302,2010101016867,新規,0,2025-09-17,2025-09-17,株式会社ＴＷＥＮＴＹＯＮＥ,,株式会社,東京都,八王子市,大谷町３２０番地１コリーヌメゾンＡ２０３号,,13,201,1920034,,,,,,,2025-09-17,1,,,,,トゥエンティワン,0
311,2010401193035,新規,0,2025-09-17,2025-09-17,ＪＩＤＡＩ株式会社,,株式会社,東京都,港区,六本木６丁目１０―１六本木ヒルズ森タワー１５階,,13,103,1060032,,,,,,,2025-09-17,1,,,,,ジダイ,0
312,2010401193150,新規,0,2025-09-17,2025-09-17,株式会社ＭＹ　ＰＩＥＣＥ,,株式会社,東京都,港区,六本木３丁目１６番１２号六本木ＫＳビル５Ｆ,,13,103,1060032,,,,,,,2025-09-17,1,,,,,マイピース,0
315,2010405024723,新規,0,2025-09-17,2025-09-17,一般財団法人赤坂クリエイティブ財団,,その他の設立登記法人,東京都,港区,赤坂５丁目３番６号,,13,103,1070052,,,,,,,2025-09-17,1,,,,,アカサカクリエイティブザイダン,0
328,2011001172412,新規,0,2025-09-17,2025-09-17,株式会社Ｒｉｖｅｒｂ,,株式会社,東京都,目黒区,目黒２丁目１０－８第二アトモスフィア青山１０Ｆ,,13,110,1530063,,,,,,,2025-09-17,1,,,,,リバーブ,0
329,2011001172610,新規,0,2025-09-17,2025-09-17,株式会社ＲＣＴ　ＩＮＴＥＲＮＡＴＩＯＮＡＬ,,株式会社,東京都,渋谷区,神山町１８番７－２０９号,,13,113,1500047,,,,,,,2025-09-17,1,,,,,アールシーティーインターナショナル,0
331,2011003022400,新規,0,2025-09-17,2025-09-17,合同会社Ｅｎａ＆ｃｏ,,合同会社,東京都,渋谷区,桜丘町４番２２号日本発明振興会館４階,,13,113,1500031,,,,,,,2025-09-17,1,,,,,エナアンドコー,0
335,2011101113084,新規,0,2025-09-17,2025-09-17,調律株式会社,,株式会社,東京都,新宿区,新宿１丁目７－７新宿内藤ビル４階,,13,104,1600022,,,,,,,2025-09-17,1,,,,,チョウリツ,0
336,2011101113191,新規,0,2025-09-17,2025-09-17,グッドエステート株式会社,,株式会社,東京都,新宿区,西新宿６丁目５番１号,,13,104,1600023,,,,,,,2025-09-17,1,,,,,グッドエステート,0
344,2011603004839,新規,0,2025-09-17,2025-09-17,合同会社リンクバリュー,,合同会社,東京都,練馬区,北町７丁目１６－２１,,13,120,1790081,,,,,,,2025-09-17,1,,,,,リンクバリュー,0
346,2011701028723,新規,0,2025-09-17,2025-09-17,株式会社ＫＡＳＡホールディングス,,株式会社,東京都,江戸川区,南小岩８丁目１４番４－１７０８号,,13,123,1330056,,,,,,,2025-09-17,1,,,,,カーサホールディングス,0
362,2020003029347,新規,0,2025-09-17,2025-09-17,合同会社Ｓ＆Ｒ,,合同会社,神奈川県,川崎市中原区,中丸子１３番地１７ザコスギタワー７０８,,14,133,2110012,,,,,,,2025-09-17,1,,,,,エスアンドアール,0
363,2020003029355,新規,0,2025-09-17,2025-09-17,ＵＰｄ合同会社,,合同会社,神奈川県,横浜市神奈川区,子安通１丁目７６番地,,14,102,2210021,,,,,,,2025-09-17,1,,,,,アップディー,0
364,2021001086264,新規,0,2025-09-17,2025-09-17,Ｚｏｏｋ株式会社,,株式会社,神奈川県,藤沢市,大鋸１００９－１,,14,205,2510002,,,,,,,2025-09-17,1,,,,,ズーケー,0
365,2021001086289,新規,0,2025-09-17,2025-09-17,株式会社ＬＵＣＡ,,株式会社,神奈川県,相模原市緑区,橋本２丁目１６番１６－３１０号,,14,151,2520143,,,,,,,2025-09-17,1,,,,,ルカ,0
373,2030001168476,新規,0,2025-09-17,2025-09-17,株式会社ＪＤｉＴ,,株式会社,埼玉県,上尾市,中分１丁目２２番地４,,11,219,3620067,,,,,,,2025-09-17,1,,,,,ジェイディティ,0
374,2030001168583,新規,0,2025-09-17,2025-09-17,ＴＵＲＯＮ株式会社,,株式会社,埼玉県,新座市,栗原３丁目６番１６号シャトードゥラアール１０１号室,,11,230,3520035,,,,,,,2025-09-17,1,,,,,トゥロン,0
375,2030001168625,新規,0,2025-09-17,2025-09-17,株式会社林商会,,株式会社,埼玉県,八潮市,大字鶴ケ曽根７７４番地９片山荘１０２,,11,234,3400802,,,,,,,2025-09-17,1,,,,,ハヤシショウカイ,0
376,2030001168658,新規,0,2025-09-17,2025-09-17,ベストリンク株式会社,,株式会社,埼玉県,越谷市,赤山本町３番地２４ライオンズグローベル越谷ステーションプラザ１２０１号,,11,222,3430808,,,,,,,2025-09-17,1,,,,,ベストリンク,0
377,2030001168682,新規,0,2025-09-17,2025-09-17,Ｍ＆Ｓラボ株式会社,,株式会社,埼玉県,さいたま市北区,宮原町１丁目１８４番地２３－１－４０８,,11,102,3310812,,,,,,,2025-09-17,1,,,,,エムアンドエスラボ,0
381,2030003027639,新規,0,2025-09-17,2025-09-17,ｄ‐ｔｅａｍ合同会社,,合同会社,埼玉県,春日部市,梅田１丁目１－３０,,11,214,3440052,,,,,,,2025-09-17,1,,,,,ディーチーム,0
383,2040003028487,新規,0,2025-09-17,2025-09-17,合同会社太陽,,合同会社,千葉県,茂原市,本納２０６１番地３,,12,210,2994114,,,,,,,2025-09-17,1,,,,,タイヨウ,0
384,2040003028578,新規,0,2025-09-17,2025-09-17,合同会社ＦａｎＴａｃｔ,,合同会社,千葉県,浦安市,高洲４丁目３番１―１８１１号プラウド新浦安,,12,227,2790023,,,,,,,2025-09-17,1,,,,,ファンタクト,0
387,2050001057248,新規,0,2025-09-17,2025-09-17,株式会社イチムラ,,株式会社,茨城県,つくば市,天久保３丁目１５番４丸三ビル１Ｆ,,08,220,3050005,,,,,,,2025-09-17,1,,,,,イチムラ,0
388,2050001057297,新規,0,2025-09-17,2025-09-17,株式会社ｌｅ・ｌｉｅｎ,,株式会社,茨城県,水戸市,笠原町３１６－２,,08,201,3100852,,,,,,,2025-09-17,1,,,,,ルリアン,0
391,2050003009569,新規,0,2025-09-17,2025-09-17,合同会社嘉成,,合同会社,茨城県,ひたちなか市,大字稲田１０４８番２１１,,08,221,3120061,,,,,,,2025-09-17,1,,,,,カセイ,0
392,2050003009577,新規,0,2025-09-17,2025-09-17,合同会社ＭａｓｔｅｒＰｉｅｃｅ,,合同会社,茨城県,牛久市,田宮２丁目８番地１１,,08,219,3001237,,,,,,,2025-09-17,1,,,,,マスターピース,0
394,2060001038569,新規,0,2025-09-17,2025-09-17,株式会社Ｔｒｕｓｔｆｏｒｄ,,株式会社,栃木県,宇都宮市,二荒町５－７ＭＵＳＡＳＨＩｆｕｔａａｒａｂａｓｅ２０２,,09,201,3200804,,,,,,,2025-09-17,1,,,,,トラストフォード,0
398,2060003005749,新規,0,2025-09-17,2025-09-17,ＢＵＫＨＡＲＩ　ＭＯＴＯＲＳ合同会社,,合同会社,栃木県,下都賀郡野木町,大字佐川野字家山４７２－３、３号室３階,,09,364,3290104,,,,,,,2025-09-17,1,,,,,ブカリモータース,0
405,2080001027149,新規,0,2025-09-17,2025-09-17,株式会社ヤマザキ・エコロジーホールディングス,,株式会社,静岡県,静岡市清水区,蒲原４丁目１８番１８号,,22,103,4213203,,,,,,,2025-09-17,1,,,,,ヤマザキエコロジーホールディングス,0
407,2080101025787,新規,0,2025-09-17,2025-09-17,株式会社静岡昇機,,株式会社,静岡県,富士市,松岡１４６７番地の１５,,22,210,4160909,,,,,,,2025-09-17,1,,,,,シズオカショウキ,0
410,2080401028168,新規,0,2025-09-17,2025-09-17,ベンドセットワーク株式会社,,株式会社,静岡県,浜松市中央区,渡瀬町４０番地の１,,22,138,4350036,,,,,,,2025-09-17,1,,,,,ベンドセットワーク,0
411,2080405007762,新規,0,2025-09-17,2025-09-17,医療法人社団秀愛会,,その他の設立登記法人,静岡県,浜松市中央区,中島１丁目５番１号,,22,138,4300856,,,,,,,2025-09-17,1,,,,,シュウアイカイ,0
414,2100001038960,新規,0,2025-09-17,2025-09-17,株式会社ＹＵＮＯＶＡ,,株式会社,長野県,下高井郡野沢温泉村,大字豊郷９７２６番地,,20,563,3892502,,,,,,,2025-09-17,1,,,,,ユノバ,0
426,2120001279553,新規,0,2025-09-17,2025-09-17,偉翔株式会社,,株式会社,大阪府,大阪市西成区,萩之茶屋２丁目６－４－ニューかめや２０５号室,,27,122,5570004,,,,,,,2025-09-17,1,,,,,イショウ,0
427,2120001279586,新規,0,2025-09-17,2025-09-17,株式会社川原エステート,,株式会社,大阪府,大阪市住吉区,千躰２丁目１番９号,,27,120,5580047,,,,,,,2025-09-17,1,,,,,カワハラエステート,0
428,2120001279710,新規,0,2025-09-17,2025-09-17,株式会社ルーヴル,,株式会社,大阪府,大阪市北区,大深町３番１号グランフロント大阪タワーＢ３５Ｆ,,27,127,5300011,,,,,,,2025-09-17,1,,,,,ルーヴル,0
429,2120001279719,新規,0,2025-09-17,2025-09-17,株式会社古川工務店,,株式会社,大阪府,守口市,梶町３丁目４８－１０,,27,209,5700015,,,,,,,2025-09-17,1,,,,,フルカワコウムテン,0
433,2120003030591,新規,0,2025-09-17,2025-09-17,言普合同会社,,合同会社,大阪府,大阪市東淀川区,下新庄２丁目８－１６セントラル淡路３０３号,,27,114,5330021,,,,,,,2025-09-17,1,,,,,ゲンフ,0
437,2120103006707,新規,0,2025-09-17,2025-09-17,エムズカンパニー合同会社,,合同会社,大阪府,富田林市,寺池台３丁目２１番２７号,,27,214,5840073,,,,,,,2025-09-17,1,,,,,エムズカンパニー,0
451,2130001080522,新規,0,2025-09-17,2025-09-17,蒼パートナーズ株式会社,,株式会社,京都府,京都市上京区,小川通一条下る小川町１９６番地グレーシィ一条５０１,,26,102,6020924,,,,,,,2025-09-17,1,,,,,アオパートナーズ,0
452,2130003010766,新規,0,2025-09-17,2025-09-17,合同会社ＩＲＯ,,合同会社,京都府,京都市山科区,厨子奥長通１１番６,,26,110,6078455,,,,,,,2025-09-17,1,,,,,アイアールオー,0
453,2130003010774,新規,0,2025-09-17,2025-09-17,アツキ着物京都レンタル合同会社,,合同会社,京都府,京都市東山区,祇園町北側３４７－１５５,,26,105,6050073,,,,,,,2025-09-17,1,,,,,アツキキモノキョウトレンタル,0
465,2160001027041,新規,0,2025-09-17,2025-09-17,欧賛株式会社,,株式会社,滋賀県,高島市,安曇川町上古賀１９０８番地２,,25,212,5201201,,,,,,,2025-09-17,1,,,,,オウサン,0
466,2160001027058,新規,0,2025-09-17,2025-09-17,ＦＫ．Ｅ　ｄｅｓｉｇｎ株式会社,,株式会社,滋賀県,長浜市,口分田町４６０番地の４,,25,203,5260014,,,,,,,2025-09-17,1,,,,,エフケーイーデザイン,0
472,2180001168569,新規,0,2025-09-17,2025-09-17,株式会社恒建設備工業,,株式会社,愛知県,知多郡武豊町,字北中根４丁目４５－１１,,23,447,4702385,,,,,,,2025-09-17,1,,,,,コウケンセツビコウギョウ,0
473,2180001168635,新規,0,2025-09-17,2025-09-17,ＳＯＬ　ＢＡＮＫ株式会社,,株式会社,愛知県,名古屋市中区,伊勢山２丁目１３番２０号パークサイド金山５０６号,,23,106,4600026,,,,,,,2025-09-17,1,,,,,ソルバンク,0
478,2180303006724,新規,0,2025-09-17,2025-09-17,合同会社青葉あけぼの通信工業,,合同会社,愛知県,豊橋市,曙町字測点１０３番地の１,00140672,23,201,4418151,,,,,,,2025-09-17,1,,,,,アオバアケボノツウシンコウギョウ,0
481,2190003005174,新規,0,2025-09-17,2025-09-17,合同会社ＡＷＡＮ　ＴＲＡＤＩＮＧ,,合同会社,三重県,三重郡菰野町,大字杉谷字元池形１７０１番１,,24,341,5101326,,,,,,,2025-09-17,1,,,,,アワントレーディング,0
485,2200001044247,新規,0,2025-09-17,2025-09-17,株式会社白惣ＧＲＯＵＰ,,株式会社,岐阜県,関市,下白金２１０番地１,,21,205,5013955,,,,,,,2025-09-17,1,,,,,シロソウグループ,0
487,2200003007037,新規,0,2025-09-17,2025-09-17,ＥＶＥＲＥＳＴ　ＢＲＩＤＧＥ　ＪＡＰＡＮ合同会社,,合同会社,岐阜県,岐阜市,都通３丁目１番地金福来ビル都通２Ｆ,,21,201,5008309,,,,,,,2025-09-17,1,,,,,エベレストブリッジジャパン,0
489,2240001065504,新規,0,2025-09-17,2025-09-17,株式会社ライジングエクスプレス,,株式会社,広島県,広島市南区,東雲３丁目３－２０－３０２,,34,103,7340022,,,,,,,2025-09-17,1,,,,,ライジングエクスプレス,0
491,2240003007405,新規,0,2025-09-17,2025-09-17,大成貿易合同会社,,合同会社,広島県,東広島市,八本松町米満１０２０６番地１３６,,34,212,7390133,,,,,,,2025-09-17,1,,,,,タイセイボウエキ,0
492,2250001021332,新規,0,2025-09-17,2025-09-17,株式会社獺祭ホールディングス,,株式会社,山口県,岩国市,周東町獺越２１６７番地の４,00140667,35,208,7420422,,,,,,,2025-09-17,1,,,,,ダッサイホールディングス,0
501,2290001111410,新規,0,2025-09-17,2025-09-17,プロテクトワン株式会社,,株式会社,福岡県,福岡市西区,小戸４丁目１７番３６,,40,135,8190001,,,,,,,2025-09-17,1,,,,,プロテクトワン,0
502,2290001111419,新規,0,2025-09-17,2025-09-17,株式会社ＫＴエステート,,株式会社,福岡県,福岡市博多区,店屋町８番２７号,,40,132,8120025,,,,,,,2025-09-17,1,,,,,ケーティーエステート,0
504,2290003017366,新規,0,2025-09-17,2025-09-17,合同会社Ｓｏｏｎ,,合同会社,福岡県,福岡市中央区,平和３丁目９番６－２０２号,,40,133,8100016,,,,,,,2025-09-17,1,,,,,スーン,0
507,2310005008872,新規,0,2025-09-17,2025-09-17,九州電気管理技術者長崎協同組合,,その他の設立登記法人,長崎県,大村市,須田ノ木町６９０番地,,42,205,8560047,,,,,,,2025-09-17,1,,,,,,0
513,2330003011216,新規,0,2025-09-17,2025-09-17,合同会社Ｋ＆Ｍ’ｓファクトリー,,合同会社,熊本県,熊本市中央区,出水８丁目７番２５号,,43,101,8620941,,,,,,,2025-09-17,1,,,,,ケイアンドエムズファクトリー,0
517,2350003005026,新規,0,2025-09-17,2025-09-17,合同会社ベリーグッドプラス,,合同会社,宮崎県,延岡市,山下町３丁目４番地４,,45,203,8820055,,,,,,,2025-09-17,1,,,,,ベリーグッドプラス,0
519,2360003015239,新規,0,2025-09-17,2025-09-17,知念合同会社,,合同会社,沖縄県,石垣市,字新川２３２４番地５,,47,207,9070024,,,,,,,2025-09-17,1,,,,,チネン,0
524,2380001035575,新規,0,2025-09-17,2025-09-17,株式会社ななはち,,株式会社,福島県,白河市,八竜神９８－４,,07,205,9610047,,,,,,,2025-09-17,1,,,,,ナナハチ,0
528,2430001095168,新規,0,2025-09-17,2025-09-17,株式会社ＳＥＡ,,株式会社,北海道,室蘭市,絵鞆町２丁目４番６号,,01,205,0510035,,,,,,,2025-09-17,1,,,,,シー,0
529,2470001020898,新規,0,2025-09-17,2025-09-17,株式会社ＳＨＩＮＫＩ,,株式会社,香川県,高松市,城東町２丁目１０番２６号,,37,201,7600036,,,,,,,2025-09-17,1,,,,,シンキ,0
534,2700150132198,新規,0,2025-09-17,2025-09-17,Ａｎ　ｊｉ　Ｘｉｎ　Ｓｈｉ　Ｊｕｅ　ｊｉａ　ｊｕ　ｙｏｎｇ　ｐｉｎ　ｙｏｕ　ｘｉａｎ　ｇｏｎｇ　ｓｉ,,外国会社等,,,,,,,,ｄｉ　ｐｕ　ｊｉｅ　ｄａｏ　３－５　ｔａｎｇ　ｐｕ　ｇｏｎｇ　ｙｅ　ｙｕａｎ　３１３３００　Ｈｕｚｈｏｕ　ａｎｊｉ,,,,,,2025-09-17,1,,,,,アンジーシンシジュエジャジュヨンピンユウシェンゴンシー,0
543,3010001258237,新規,0,2025-09-17,2025-09-17,株式会社クロスリッジ,,株式会社,東京都,中央区,日本橋茅場町１丁目８番１号茅場町一丁目平和ビル８階ＢｃＨ,,13,102,1030025,,,,,,,2025-09-17,1,,,,,クロスリッジ,0
549,3010005040673,新規,0,2025-09-17,2025-09-17,一般社団法人たたら,,その他の設立登記法人,東京都,千代田区,飯田橋４丁目５番１４号,,13,101,1020072,,,,,,,2025-09-17,1,,,,,タタラ,0
550,3010005040681,新規,0,2025-09-17,2025-09-17,一般社団法人デットファンド第一号,,その他の設立登記法人,東京都,千代田区,丸の内１丁目８番２号＿鋼ビルディング１２Ｆ,00140681,13,101,1000005,,,,,,,2025-09-17,1,,,,,デットファンドダイイチゴウ,0
551,3010101016866,新規,0,2025-09-17,2025-09-17,高溢株式会社,,株式会社,東京都,八王子市,大和田町２丁目９番４号クリーンハイツ１０１号室,,13,201,1920045,,,,,,,2025-09-17,1,,,,,タカイチ,0
555,3010401192556,新規,0,2025-09-17,2025-09-17,Ｆ．Ｅ．Ｅ．Ｌ．Ｉｎｖｅｓｔ　Ｇｒｏｕｐ株式会社,,株式会社,東京都,港区,元麻布３丁目１番６号,,13,103,1060046,,,,,,,2025-09-17,1,,,,,フィールインベストグループ,0
556,3010401192845,新規,0,2025-09-17,2025-09-17,Ｆｏｒｅｓｔ　Ａｌｌｉａｎｃｅ株式会社,,株式会社,東京都,港区,白金５丁目１１番１５号,,13,103,1080072,,,,,,,2025-09-17,1,,,,,フォレストアライアンス,0
557,3010401193125,新規,0,2025-09-17,2025-09-17,株式会社ＰＲＩＭＥ　ＩＯ,,株式会社,東京都,港区,浜松町２丁目２番１５号浜松町ダイヤビル２Ｆ,,13,103,1050013,,,,,,,2025-09-17,1,,,,,プライムアイオー,0
561,3010501054664,新規,0,2025-09-17,2025-09-17,株式会社晴花ホールディングス,,株式会社,東京都,台東区,上野３丁目２８番７号,,13,106,1100005,,,,,,,2025-09-17,1,,,,,セイカホールディングス,0
562,3010501054722,新規,0,2025-09-17,2025-09-17,嘉和株式会社,,株式会社,東京都,台東区,上野７丁目３－９アルベルゴ３１７号室,,13,106,1100005,,,,,,,2025-09-17,1,,,,,カワ,0
565,3010901058067,新規,0,2025-09-17,2025-09-17,株式会社ＣＭＣ　ＬＩＶＥ　ＪＡＰＡＮ,,株式会社,東京都,世田谷区,三軒茶屋１丁目３９番１３号,,13,112,1540024,,,,,,,2025-09-17,1,,,,,シーエムシーライブジャパン,0
573,3011001172007,新規,0,2025-09-17,2025-09-17,株式会社ハルニシコーポレーション,,株式会社,東京都,渋谷区,恵比寿南１丁目４番２号紀伊国屋ビル４階,,13,113,1500022,,,,,,,2025-09-17,1,,,,,ハルニシコーポレーション,0
574,3011001172031,新規,0,2025-09-17,2025-09-17,株式会社ｌｕｍｉｎｏｕｓ,,株式会社,東京都,渋谷区,代々木１丁目２番９アーバンパーク代々木５０２号,,13,113,1510053,,,,,,,2025-09-17,1,,,,,ルミナス,0
575,3011001172320,新規,0,2025-09-17,2025-09-17,株式会社コシダカＳＰ,,株式会社,東京都,渋谷区,道玄坂２丁目２５番１２号,,13,113,1500043,,,,,,,2025-09-17,1,,,,,コシダカエスピー,0
579,3011101113109,新規,0,2025-09-17,2025-09-17,ＫＩＫＵＴＯＲＡ　ＳＰＥＣＩＡＬ　ＲＩＳＫＳ株式会社,,株式会社,東京都,新宿区,市谷八幡町１番地新高ビル８０４号室,,13,104,1620844,,,,,,,2025-09-17,1,,,,,キクトラスペシャルリスクス,0
580,3011101113117,新規,0,2025-09-17,2025-09-17,株式会社プランクトン,,株式会社,東京都,新宿区,四谷１丁目７番地,,13,104,1600004,,,,,,,2025-09-17,1,,,,,プランクトン,0
581,3011103016359,新規,0,2025-09-17,2025-09-17,合同会社錦江,,合同会社,東京都,新宿区,大久保１丁目１２－３カーサ第二新宿７０７,,13,104,1690072,,,,,,,2025-09-17,1,,,,,クムガン,0
583,3011201026648,新規,0,2025-09-17,2025-09-17,株式会社ＯＤＯＲＩＪＩ,,株式会社,東京都,中野区,丸山１丁目２４番９号,,13,114,1650021,,,,,,,2025-09-17,1,,,,,オドリジ,0
587,3011503006686,新規,0,2025-09-17,2025-09-17,ダイレクトプロダクト合同会社,,合同会社,東京都,北区,堀船３丁目１３番９,,13,117,1140004,,,,,,,2025-09-17,1,,,,,ダイレクトプロダクト,0
588,3011701028730,新規,0,2025-09-17,2025-09-17,ＣａｎａａｎＪａｐａｎ株式会社,,株式会社,東京都,江戸川区,平井６丁目３０番５号,,13,123,1320035,,,,,,,2025-09-17,1,,,,,カナーンジャパン,0
590,3011803007070,新規,0,2025-09-17,2025-09-17,ＨＡＬＡＬ　ＨＯＬＤＩＮＧ合同会社,,合同会社,東京都,葛飾区,金町５丁目３１番１０号２階,,13,122,1250042,,,,,,,2025-09-17,1,,,,,ハラルホールディング,0
598,3013301054941,新規,0,2025-09-17,2025-09-17,株式会社Ｃｒｅｓｔｉａ,,株式会社,東京都,豊島区,南池袋１丁目１６－１５ダイヤゲート池袋５階,,13,116,1710022,,,,,,,2025-09-17,1,,,,,クレスティア,0
599,3013301054958,新規,0,2025-09-17,2025-09-17,株式会社Ｃｏｅｎｓｅｎ　Ｇｌｏｂａｌ,,株式会社,東京都,豊島区,東池袋５丁目７番３号アゼリア東池袋４０１,,13,116,1700013,,,,,,,2025-09-17,1,,,,,コーエンセングローバル,0
604,3020001164806,新規,0,2025-09-17,2025-09-17,株式会社ミレイＨＤ,,株式会社,神奈川県,横浜市神奈川区,沢渡４５－１ルピナス横浜西口２０３,,14,102,2210844,,,,,,,2025-09-17,1,,,,,,0
606,3020003029057,新規,0,2025-09-17,2025-09-17,フィジータイムジャパン合同会社,,合同会社,神奈川県,横浜市中区,元町４丁目１６８,,14,104,2310861,,,,,,,2025-09-17,1,,,,,フィジータイムジャパン,0
617,3030001168665,新規,0,2025-09-17,2025-09-17,美の森株式会社,,株式会社,埼玉県,川口市,並木３丁目１３番４号５０４,,11,203,3320034,,,,,,,2025-09-17,1,,,,,ビノモリ,0
618,3030001168731,新規,0,2025-09-17,2025-09-17,株式会社リンクシー,,株式会社,埼玉県,さいたま市大宮区,吉敷町３丁目１２０,,11,103,3300843,,,,,,,2025-09-17,1,,,,,リンクシー,0
622,3050001057296,新規,0,2025-09-17,2025-09-17,株式会社黒澤油店,,株式会社,茨城県,日立市,留町２７９８番地１,,08,202,3191231,,,,,,,2025-09-17,1,,,,,クロサワアブラテン,0
626,3050003009576,新規,0,2025-09-17,2025-09-17,ＡＬ　ＨＡＳＳＡＮ　ＴＲＡＤＩＮＧ合同会社,,合同会社,茨城県,筑西市,板橋５３番地１アパートＡ棟１階３号室,,08,227,3080116,,,,,,,2025-09-17,1,,,,,アルハッサントレーディング,0
628,3060001038584,新規,0,2025-09-17,2025-09-17,株式会社ＰＵＺＺＬＥ,,株式会社,栃木県,宇都宮市,新里町乙２９０番地,,09,201,3212118,,,,,,,2025-09-17,1,,,,,パズル,0
631,3060005010374,新規,0,2025-09-17,2025-09-17,一般社団法人コミュニティコネクトラボ,,その他の設立登記法人,栃木県,宇都宮市,西原１丁目３－４ａｒｅｔＮＰＯ法人とちぎユースサポーターズネットワーク内,,09,201,3200862,,,,,,,2025-09-17,1,,,,,コミュニティコネクトラボ,0
638,3080401028167,新規,0,2025-09-17,2025-09-17,株式会社ＯＭＰ,,株式会社,静岡県,掛川市,大坂６６８５番地の８,,22,213,4371421,,,,,,,2025-09-17,1,,,,,オーエムピー,0
640,3100001038943,新規,0,2025-09-17,2025-09-17,株式会社フジ建設,,株式会社,長野県,松本市,清水２丁目６番３０号－３０３,,20,202,3900805,,,,,,,2025-09-17,1,,,,,フジケンセツ,0
641,3100005013389,新規,0,2025-09-17,2025-09-17,一般社団法人高森スポーツネットワーク,,その他の設立登記法人,長野県,下伊那郡高森町,下市田２９６５番地１０,,20,403,3993103,,,,,,,2025-09-17,1,,,,,タカモリスポーツネットワーク,0
655,3120001279552,新規,0,2025-09-17,2025-09-17,全時ＳＣＭ株式会社,,株式会社,大阪府,大阪市西成区,橘１丁目１１－２８オフィスポート橘３０５号室,,27,122,5570051,,,,,,,2025-09-17,1,,,,,オールタイムエスシーエム,0
656,3120001279676,新規,0,2025-09-17,2025-09-17,ノビア国際物流株式会社,,株式会社,大阪府,大阪市福島区,福島２丁目３０番６号メガロコープ福島１２２２室,,27,103,5530003,,,,,,,2025-09-17,1,,,,,ノビアコクサイブツリュウ,0
657,3120001279692,新規,0,2025-09-17,2025-09-17,株式会社三徳,,株式会社,大阪府,大阪市東住吉区,今林４丁目１８番２３号,,27,121,5460001,,,,,,,2025-09-17,1,,,,,サントク,0
658,3120001279742,新規,0,2025-09-17,2025-09-17,三和株式会社,,株式会社,大阪府,大阪市港区,港晴４丁目１４番５号３０１号室,,27,107,5520023,,,,,,,2025-09-17,1,,,,,サンワ,0
663,3120005025143,新規,0,2025-09-17,2025-09-17,一般社団法人ＷＡＹＵ,,その他の設立登記法人,大阪府,大阪市西成区,千本南１丁目１７番９号,,27,122,5570055,,,,,,,2025-09-17,1,,,,,ワユウ,0
669,3120903005857,新規,0,2025-09-17,2025-09-17,ズイアン合同会社,,合同会社,大阪府,摂津市,鳥飼西１丁目３番２５号２Ａ,,27,224,5660072,,,,,,,2025-09-17,1,,,,,ズイアン,0
673,3122001039630,新規,0,2025-09-17,2025-09-17,星と大地株式会社,,株式会社,大阪府,東大阪市,加納７丁目２３番３－１２０７号,,27,227,5780901,,,,,,,2025-09-17,1,,,,,ホシトダイチ,0
677,3130001080538,新規,0,2025-09-17,2025-09-17,ＹａｎｄＹ株式会社,,株式会社,京都府,京都市西京区,桂南巽町１５４番地３ホッホラントビル,,26,111,6158074,,,,,,,2025-09-17,1,,,,,ワイアンドワイ,0
680,3140001140035,新規,0,2025-09-17,2025-09-17,株式会社Ｓｏｕｌ　Ｊｏｕｒｎｅｙ　Ｊａｐａｎ,,株式会社,兵庫県,淡路市,久留麻１８６０番地４０メゾン大池台２０５,,28,226,6562311,,,,,,,2025-09-17,1,,,,,ソウルジャーニージャパン,0
681,3140003022529,新規,0,2025-09-17,2025-09-17,バッテクス商事合同会社,,合同会社,兵庫県,尼崎市,東園田町４丁目９３番地の３－２階,,28,202,6610953,,,,,,,2025-09-17,1,,,,,バッテクスショウジ,0
682,3140003022561,新規,0,2025-09-17,2025-09-17,神潮合同会社,,合同会社,兵庫県,高砂市,阿弥陀町地徳１２４－２６,,28,216,6760828,,,,,,,2025-09-17,1,,,,,カミシオ,0
702,3180001168576,新規,0,2025-09-17,2025-09-17,株式会社Ｄｅｅｋｕ,,株式会社,愛知県,名古屋市瑞穂区,内浜町七番九号,,23,108,4670853,,,,,,,2025-09-17,1,,,,,デエク,0
703,3180001168659,新規,0,2025-09-17,2025-09-17,天夏ライフデザイン株式会社,,株式会社,愛知県,名古屋市名東区,藤巻町１丁目２番地の１４００,,23,115,4650075,,,,,,,2025-09-17,1,,,,,アマナツライフデザイン,0
707,3180003029000,新規,0,2025-09-17,2025-09-17,合同会社ＳＫ　ＩＮＴＥＲＮＡＴＩＯＮＡＬ,,合同会社,愛知県,名古屋市中村区,塩池町２丁目２番３号２階,,23,105,4530032,,,,,,,2025-09-17,1,,,,,エスケーインターナショナル,0
708,3180003029041,新規,0,2025-09-17,2025-09-17,ＡＢＤＵＬ＆ＳＯＮＳ合同会社,,合同会社,愛知県,名古屋市南区,大同町４丁目１番１３号幸吉荘６,,23,112,4570811,,,,,,,2025-09-17,1,,,,,アブドゥルアンドサンズ,0
709,3180303006723,新規,0,2025-09-17,2025-09-17,Ｃｉｒｃｌｅ　Ｓｔｏｎｅ　Ｓｔａｒｓ合同会社,,合同会社,愛知県,豊田市,花園町井田７０番地３,,23,211,4730924,,,,,,,2025-09-17,1,,,,,サークルストーンスターズ,0
710,3190003005173,新規,0,2025-09-17,2025-09-17,合同会社カルム,,合同会社,三重県,津市,久居野口町２５３１番地１,,24,201,5141117,,,,,,,2025-09-17,1,,,,,カルム,0
714,3200001044246,新規,0,2025-09-17,2025-09-17,株式会社ＫＧＩ,,株式会社,岐阜県,本巣市,政田４６５番地,,21,218,5010471,,,,,,,2025-09-17,1,,,,,ケイジイアイ,0
715,3200005013800,新規,0,2025-09-17,2025-09-17,学校法人ＣｏＩＵ,,その他の設立登記法人,岐阜県,飛騨市,古川町金森町１１－１５,,21,217,5094225,,,,,,,2025-09-17,1,,,,,コーアイユー,0
723,3240001065503,新規,0,2025-09-17,2025-09-17,ＭＩＹＡＢＩ株式会社,,株式会社,広島県,広島市西区,南観音３丁目１３番１１号３Ｆ,,34,104,7330035,,,,,,,2025-09-17,1,,,,,ミヤビ,0
739,3290003017365,新規,0,2025-09-17,2025-09-17,合同会社ショベル,,合同会社,福岡県,嘉麻市,上山田１１７１番地５,,40,227,8210012,,,,,,,2025-09-17,1,,,,,ショベル,0
740,3290003017373,新規,0,2025-09-17,2025-09-17,合同会社予祝家族,,合同会社,福岡県,福岡市中央区,鳥飼３丁目９番１－２０５号,,40,133,8100053,,,,,,,2025-09-17,1,,,,,ヨシュクカゾク,0
741,3290003017381,新規,0,2025-09-17,2025-09-17,合同会社Ｋ＆Ｋ,,合同会社,福岡県,福岡市南区,屋形原２丁目１番２１号,,40,134,8111351,,,,,,,2025-09-17,1,,,,,ケイアンドケイ,0
748,3310005008871,新規,0,2025-09-17,2025-09-17,一般社団法人弥栄,,その他の設立登記法人,長崎県,長崎市,古川町６番２７号,,42,201,8500851,,,,,,,2025-09-17,1,,,,,イヤサカ,0
750,3320001021349,新規,0,2025-09-17,2025-09-17,本間建設株式会社,,株式会社,大分県,中津市,大字角木３３８番地４,,44,203,8710091,,,,,,,2025-09-17,1,,,,,ホンマケンセツ,0
768,3380001035574,新規,0,2025-09-17,2025-09-17,Ｈｉｒｏｓｈｉ’ｓ　Ｈｏｎｏｌｉｃｏ株式会社,,株式会社,福島県,福島市,渡利字後田１６番地の２,,07,201,9608141,,,,,,,2025-09-17,1,,,,,ヒロシズホノリコ,0
769,3380001035582,新規,0,2025-09-17,2025-09-17,株式会社郷蔵,,株式会社,福島県,耶麻郡西会津町,野沢字家ノ北丙２０番地,,07,405,9694406,,,,,,,2025-09-17,1,,,,,ゴウクラ,0
771,3400001017173,新規,0,2025-09-17,2025-09-17,ＬＹＶＲＡ株式会社,,株式会社,岩手県,盛岡市,大通３丁目２番２号第６大通ビル２Ｆ,,03,201,0200022,,,,,,,2025-09-17,1,,,,,リヴラ,0
772,3400005008516,新規,0,2025-09-17,2025-09-17,医療法人菅クリニック,,その他の設立登記法人,岩手県,二戸市,石切所字川原３８番地１,,03,213,0286103,,,,,,,2025-09-17,1,,,,,カンクリニック,0
773,3420001019275,新規,0,2025-09-17,2025-09-17,東通白糠風力発電株式会社,,株式会社,青森県,下北郡東通村,大字小田野沢字中川目５５番地３６６,,02,424,0394223,,,,,,,2025-09-17,1,,,,,ヒガシドオリシラヌカフウリョクハツデン,0
774,3420003003186,新規,0,2025-09-17,2025-09-17,ＫＨＡＲＡＬ　ＭＯＴＯＲＳ合同会社,,合同会社,青森県,三沢市,大字三沢字南山４８番地７号南山ハイツＤ号室,,02,207,0330022,,,,,,,2025-09-17,1,,,,,カラルモーターズ,0
775,3430001095200,新規,0,2025-09-17,2025-09-17,株式会社北海道の佐藤商店,,株式会社,北海道,札幌市清田区,真栄一条２丁目２５番２号,,01,110,0040831,,,,,,,2025-09-17,1,,,,,ホッカイドウノサトウショウテン,0
776,3430001095209,新規,0,2025-09-17,2025-09-17,株式会社ＡＯ,,株式会社,北海道,札幌市豊平区,平岸一条１６丁目７番７号ＳＮＯＷＷＨＩＴＥＩＩレジデンス１０３号,00140666,01,105,0620931,,,,,,,2025-09-17,1,,,,,エーオー,0
779,3430003018035,新規,0,2025-09-17,2025-09-17,合同会社ＧＦ,,合同会社,北海道,札幌市東区,丘珠町７１２番１９,,01,103,0070880,,,,,,,2025-09-17,1,,,,,ジーエフ,0
780,3430003018092,新規,0,2025-09-17,2025-09-17,合同会社ＳＴＡＲ　ＶＡＲＭ,,合同会社,北海道,小樽市,松ケ枝２丁目２２番９号,,01,203,0470022,,,,,,,2025-09-17,1,,,,,スターヴァーム,0
785,3470001020897,新規,0,2025-09-17,2025-09-17,株式会社フォブラッド,,株式会社,香川県,高松市,伏石町９５０番地１,,37,201,7618071,,,,,,,2025-09-17,1,,,,,フォブラッド,0
795,3700150132239,新規,0,2025-09-17,2025-09-17,北陸電気工事健康保険組合,,その他,富山県,富山市,小中２６９,,16,201,9398183,,,,,,,2025-09-17,1,,,,,ホクリクデンキコウジケンコウホケンクミアイ,0
813,4010001258252,新規,0,2025-09-17,2025-09-17,ネクサインベスト株式会社,,株式会社,東京都,中央区,銀座１丁目１２番４号Ｎ＆ＥＢＬＤ．６Ｆ,,13,102,1040061,,,,,,,2025-09-17,1,,,,,ネクサインベスト,0
814,4010001258533,新規,0,2025-09-17,2025-09-17,株式会社セレクト,,株式会社,東京都,中央区,銀座１丁目１３番９号,,13,102,1040061,,,,,,,2025-09-17,1,,,,,セレクト,0
816,4010003048742,新規,0,2025-09-17,2025-09-17,合同会社ノワール・キャピタル,,合同会社,東京都,中央区,銀座１丁目１２－４Ｎ＆ＥＢＬＤ．７階,,13,102,1040061,,,,,,,2025-09-17,1,,,,,ノワールキャピタル,0
819,4010005040615,新規,0,2025-09-17,2025-09-17,医療法人社団紀周会,,その他の設立登記法人,東京都,千代田区,麹町３丁目２番５号垣見麹町ビル別館２階,,13,101,1020083,,,,,,,2025-09-17,1,,,,,キシュウカイ,0
820,4010005040672,新規,0,2025-09-17,2025-09-17,ジェイ・シー・エイチ・ツー一般社団法人,,その他の設立登記法人,東京都,千代田区,丸の内１丁目４番１号東京共同会計事務所内,,13,101,1000005,,,,,,,2025-09-17,1,,,,,ジェイシーエイチツー,0
821,4010101016865,新規,0,2025-09-17,2025-09-17,株式会社Ｋｏｗａ,,株式会社,東京都,八王子市,鑓水２丁目２３０４番地３,,13,201,1920375,,,,,,,2025-09-17,1,,,,,コウワ,0
824,4010103002649,新規,0,2025-09-17,2025-09-17,合同会社フローレン,,合同会社,東京都,八王子市,城山手１丁目９番１５号,,13,201,1930825,,,,,,,2025-09-17,1,,,,,フローレン,0
830,4010401193132,新規,0,2025-09-17,2025-09-17,株式会社ＡｖｅｌＲｉｃｈ,,株式会社,東京都,港区,六本木３丁目７番１－２１１３号,,13,103,1060032,,,,,,,2025-09-17,1,,,,,アヴェルリッチ,0
831,4010401193149,新規,0,2025-09-17,2025-09-17,株式会社ＩＧ６,,株式会社,東京都,港区,赤坂９丁目７番２号ミッドタウン・イースト４階,,13,103,1070052,,,,,,,2025-09-17,1,,,,,アイジーシックス,0
832,4010401193207,新規,0,2025-09-17,2025-09-17,株式会社Ｓ＆Ｓ　Ｃｏｒｐｏｒａｔｉｏｎ,,株式会社,東京都,港区,芝浦４丁目１２番３６－１８０７,,13,103,1080023,,,,,,,2025-09-17,1,,,,,エスアンドエスコーポレーション,0
835,4010501054498,新規,0,2025-09-17,2025-09-17,赤い酒株式会社,,株式会社,東京都,台東区,東上野４丁目６番７号,,13,106,1100015,,,,,,,2025-09-17,1,,,,,アカイサケ,0
837,4010601067912,新規,0,2025-09-17,2025-09-17,ＡＩ　ＴＯＫＹＯ株式会社,,株式会社,東京都,江東区,東陽２丁目３番５－６０２号,,13,108,1350016,,,,,,,2025-09-17,1,,,,,エーアイトウキョウ,0
839,4010605004507,新規,0,2025-09-17,2025-09-17,一般財団法人渋澤基金,,その他の設立登記法人,東京都,江東区,塩浜２丁目５番１－１０４号,,13,108,1350043,,,,,,,2025-09-17,1,,,,,シブサワキキン,0
841,4010701048309,新規,0,2025-09-17,2025-09-17,株式会社ＴｏｒｃｈＵｐ,,株式会社,東京都,品川区,西五反田８丁目２―１２アール五反田７Ａ,,13,109,1410031,,,,,,,2025-09-17,1,,,,,トーチアップ,0
842,4010701048317,新規,0,2025-09-17,2025-09-17,株式会社ＣＡＷＡＲＡ,,株式会社,東京都,品川区,東五反田５丁目２２－３３ＴＫ池田山ビル２Ｆ,,13,109,1410022,,,,,,,2025-09-17,1,,,,,カワラ,0
851,4010901058090,新規,0,2025-09-17,2025-09-17,株式会社せらん,,株式会社,東京都,世田谷区,太子堂４丁目２６番１２号５階,,13,112,1540004,,,,,,,2025-09-17,1,,,,,セラン,0
858,4011005011192,新規,0,2025-09-17,2025-09-17,司法書士法人濱野・穴山事務所,,その他の設立登記法人,東京都,渋谷区,円山町５番１８号道玄坂スクエア４０１,,13,113,1500044,,,,,,,2025-09-17,1,,,,,ハマノアナヤマジムショ,0
859,4011101113108,新規,0,2025-09-17,2025-09-17,ｎａｉｌｓ　ＴＯＫＹＯ株式会社,,株式会社,東京都,新宿区,西新宿７丁目１９番１８号セ－ドル新宿ハイツ１０１,,13,104,1600023,,,,,,,2025-09-17,1,,,,,ネイルズトウキョウ,0
862,4011201026630,新規,0,2025-09-17,2025-09-17,株式会社こちょこちょ,,株式会社,東京都,中野区,本町４丁目５番１０－１００４号,,13,114,1640012,,,,,,,2025-09-17,1,,,,,コチョコチョ,0
865,4011301030887,新規,0,2025-09-17,2025-09-17,知識株式会社,,株式会社,東京都,杉並区,天沼３丁目１７番２５号天沼フラッツ１０４,,13,115,1670032,,,,,,,2025-09-17,1,,,,,チシキ,0
867,4011503006669,新規,0,2025-09-17,2025-09-17,合同会社多元現実,,合同会社,東京都,荒川区,西日暮里２丁目３２－１９－２０３号室,,13,118,1160013,,,,,,,2025-09-17,1,,,,,タゲンゲンジツ,0
869,4011703004381,新規,0,2025-09-17,2025-09-17,ＫＹＴ　Ｉｎｔｅｒｎａｔｉｏｎａｌ合同会社,,合同会社,東京都,江戸川区,南小岩２丁目２１番１３号大和マンション２０３,,13,123,1330056,,,,,,,2025-09-17,1,,,,,ケイワイティーインターナショナル,0
872,4011803007078,新規,0,2025-09-17,2025-09-17,合同会社Ｃｒａｆｉａ,,合同会社,東京都,足立区,扇２丁目９－２０－２０９,,13,121,1230873,,,,,,,2025-09-17,1,,,,,クラフィア,0
874,4012401043589,新規,0,2025-09-17,2025-09-17,株式会社ＮＡＮＡＮＡＮＡ,,株式会社,東京都,武蔵野市,吉祥寺本町１丁目２０番１号吉祥寺永谷シティプラザ１００２,,13,203,1800004,,,,,,,2025-09-17,1,,,,,ナナナナ,0
875,4012401043606,新規,0,2025-09-17,2025-09-17,株式会社ＡＭＩＶ,,株式会社,東京都,小金井市,東町４丁目３５番２０号,,13,210,1840011,,,,,,,2025-09-17,1,,,,,アミヴ,0
879,4012801024255,新規,0,2025-09-17,2025-09-17,株式会社彩匠ペイント,,株式会社,東京都,立川市,曙町２丁目２５番３号ＬｉｂｅｒｔｙＡｋｅｂｏｎｏ,00140671,13,202,1900012,,,,,,,2025-09-17,1,,,,,サイショウペイント,0
880,4012803003868,新規,0,2025-09-17,2025-09-17,ＳＥＡＧＵＬＬ合同会社,,合同会社,東京都,昭島市,緑町１丁目１５番１８号,,13,207,1960004,,,,,,,2025-09-17,1,,,,,シーガル,0
883,4013301054949,新規,0,2025-09-17,2025-09-17,株式会社ＬｕＭｅｎｏｕｓ,,株式会社,東京都,豊島区,東池袋３丁目１番１号サンシャイン６０－１２Ｆ,,13,116,1700013,,,,,,,2025-09-17,1,,,,,ルミナス,0
894,4020001164796,新規,0,2025-09-17,2025-09-17,ＫＤ株式会社,,株式会社,神奈川県,横浜市中区,蓬莱町２丁目６番５号アルテビル３０２号室,,14,104,2310048,,,,,,,2025-09-17,1,,,,,ケーディー,0
895,4020001164846,新規,0,2025-09-17,2025-09-17,株式会社ｓｏｒｏｂａｎｎ,,株式会社,神奈川県,横浜市西区,北幸２丁目１０番４８号むつみビル３階,,14,103,2200004,,,,,,,2025-09-17,1,,,,,ソロバン,0
896,4020001164854,新規,0,2025-09-17,2025-09-17,株式会社大明州,,株式会社,神奈川県,横浜市中区,福富町西通３９番地１,,14,104,2310042,,,,,,,2025-09-17,1,,,,,ダイメイシュウ,0
901,4020003029345,新規,0,2025-09-17,2025-09-17,Ｄｉｇｉｍａｔｏ合同会社,,合同会社,神奈川県,横浜市中区,本牧和田３４番１－２１２号,,14,104,2310827,,,,,,,2025-09-17,1,,,,,デジマト,0
905,4021003016531,新規,0,2025-09-17,2025-09-17,ＱＡＳＳＷＡ　ＳＨＯＫＡＩ合同会社,,合同会社,神奈川県,愛甲郡清川村,煤ヶ谷１０６０－１,,14,402,2430112,,,,,,,2025-09-17,1,,,,,カッスワショカイ,0
918,4030001168680,新規,0,2025-09-17,2025-09-17,株式会社志英商事,,株式会社,埼玉県,川口市,西川口１丁目３番１１号ダイトービル１番館２階,,11,203,3320021,,,,,,,2025-09-17,1,,,,,シエショウジ,0
919,4030001168689,新規,0,2025-09-17,2025-09-17,＿勝株式会社,00140673,株式会社,埼玉県,川口市,西川口４丁目１５番４－２号,,11,203,3320021,,,,,,,2025-09-17,1,,,,,キンショウ,0
921,4030003027620,新規,0,2025-09-17,2025-09-17,合同会社Ｌａｓｔ　Ｃｒｏｎｙ,,合同会社,埼玉県,越谷市,大字南荻島４０５４番地１７エスポワール南荻島２０１,,11,222,3430804,,,,,,,2025-09-17,1,,,,,ラストクローニー,0
922,4030005022264,新規,0,2025-09-17,2025-09-17,一般社団法人Ｍｅｄｉｃａｌ　Ｈｅａｒｉｎｇ,,その他の設立登記法人,埼玉県,さいたま市浦和区,北浦和１丁目９番５号,,11,107,3300074,,,,,,,2025-09-17,1,,,,,メディカルヒアリング,0
925,4040001140408,新規,0,2025-09-17,2025-09-17,株式会社椿ハウス,,株式会社,千葉県,柏市,中央２丁目２番１８号ＭＡＫＥＢＬＤＧ３０１,,12,217,2770023,,,,,,,2025-09-17,1,,,,,ツバキハウス,0
926,4040001140457,新規,0,2025-09-17,2025-09-17,ＤＡＨＩＴ株式会社,,株式会社,千葉県,松戸市,大金平４丁目２９７番地の２斉藤荘２０３号室,,12,207,2700006,,,,,,,2025-09-17,1,,,,,ダヒト,0
927,4040001140531,新規,0,2025-09-17,2025-09-17,株式会社ＳＨＯＫＥＮ,,株式会社,千葉県,柏市,布瀬８１番地,,12,217,2701464,,,,,,,2025-09-17,1,,,,,ショウケン,0
933,4040005022874,新規,0,2025-09-17,2025-09-17,一般社団法人全国放課後等デイサービス監視機構,,その他の設立登記法人,千葉県,浦安市,猫実２丁目２１－１リバーリッチ第１川富ビル１Ｆ店舗,,12,227,2790004,,,,,,,2025-09-17,1,,,,,ゼンコクホウカゴトウデイサービスカンシキコウ,0
936,4050003009575,新規,0,2025-09-17,2025-09-17,ＡＬＩ　ＥＮＴＥＲＰＲＩＳＥ合同会社,,合同会社,茨城県,常総市,原宿６７番地９,,08,211,3002702,,,,,,,2025-09-17,1,,,,,アリエンタープライズ,0
940,4050005013690,新規,0,2025-09-17,2025-09-17,一般社団法人狩猟文化研究所,,その他の設立登記法人,茨城県,那珂郡東海村,大字村松２８番地,,08,341,3191112,,,,,,,2025-09-17,1,,,,,シュリョウブンカケンキュウジョ,0
942,4060001038583,新規,0,2025-09-17,2025-09-17,株式会社農園デリ,,株式会社,栃木県,宇都宮市,新里町乙２９０番地,,09,201,3212118,,,,,,,2025-09-17,1,,,,,ノウエンデリ,0
945,4060003005755,新規,0,2025-09-17,2025-09-17,ＲＥＭＩＳＵＳ合同会社,,合同会社,栃木県,さくら市,フィオーレ喜連川５丁目７５番地１３４－１号棟事務所,,09,214,3291417,,,,,,,2025-09-17,1,,,,,リミサス,0
946,4070003006083,新規,0,2025-09-17,2025-09-17,ＢＥＮＡＲＩ合同会社,,合同会社,群馬県,前橋市,朝日町２丁目１０－１９、２階,,10,201,3710014,,,,,,,2025-09-17,1,,,,,ベナリ,0
950,4110001039576,新規,0,2025-09-17,2025-09-17,株式会社ＭＺ　ＴＲＡＤＩＮＧ,,株式会社,新潟県,村上市,佐々木５５６番地１,,15,212,9593121,,,,,,,2025-09-17,1,,,,,エムゼットトレーディング,0
960,4120001279551,新規,0,2025-09-17,2025-09-17,ＲＵＢＹコンサルティング株式会社,,株式会社,大阪府,大阪市住之江区,浜口西１丁目１３－１５カトレアビル２０３号室,,27,125,5590006,,,,,,,2025-09-17,1,,,,,ルビコンサルティング,0
961,4120001279626,新規,0,2025-09-17,2025-09-17,優楽株式会社,,株式会社,大阪府,大阪市天王寺区,伶人町２－３１ＳｔａｒＯｆｆｉｃｅ大阪天王寺北８０６号室,,27,109,5430061,,,,,,,2025-09-17,1,,,,,ユウラク,0
962,4120001279717,新規,0,2025-09-17,2025-09-17,株式会社ＡＮＮＯＮ,,株式会社,大阪府,大阪市北区,中崎２丁目２番１２－１４０３号,,27,127,5300016,,,,,,,2025-09-17,1,,,,,アンノン,0
963,4120001279931,新規,0,2025-09-17,2025-09-17,和悠株式会社,,株式会社,大阪府,大阪市東成区,大今里３丁目８番１０号,,27,115,5370012,,,,,,,2025-09-17,1,,,,,ワユウ,0
965,4120003030573,新規,0,2025-09-17,2025-09-17,スパイシー生ビール屋白条合同会社,,合同会社,大阪府,大阪市西成区,萩之茶屋２丁目６番４号ニューかめや２５８号室,,27,122,5570004,,,,,,,2025-09-17,1,,,,,スパイシーナマビールヤハクジョウ,0
973,4120101072369,新規,0,2025-09-17,2025-09-17,株式会社Ｓ．Ａ．Ｏ,,株式会社,大阪府,和泉市,一条院町１番地の２（２０２）,,27,219,5940054,,,,,,,2025-09-17,1,,,,,エスエーオー,0
974,4120101072451,新規,0,2025-09-17,2025-09-17,八方株式会社,,株式会社,大阪府,堺市西区,鳳北町１０丁６２番地２－１０２号,,27,144,5938328,,,,,,,2025-09-17,1,,,,,ハッポウ,0
976,4120901051530,新規,0,2025-09-17,2025-09-17,株式会社和ごころ,,株式会社,大阪府,箕面市,船場東３丁目２番３５－２４０５号,,27,220,5620035,,,,,,,2025-09-17,1,,,,,ワゴコロ,0
978,4122003003311,新規,0,2025-09-17,2025-09-17,合同会社ＴＡＫＥ‐ＯＦＦ,,合同会社,大阪府,大東市,諸福６丁目３－２１,,27,218,5740044,,,,,,,2025-09-17,1,,,,,テイクオフ,0
989,4130001080363,新規,0,2025-09-17,2025-09-17,子謙株式会社,,株式会社,京都府,京都市左京区,田中樋ノ口町５番地２０２,,26,103,6068222,,,,,,,2025-09-17,1,,,,,コケン,0
991,4130003010780,新規,0,2025-09-17,2025-09-17,合同会社Ａｄｄｉｔｉｏｎ,,合同会社,京都府,京都市伏見区,石田森東町１０番地８,,26,109,6011439,,,,,,,2025-09-17,1,,,,,アディション,0
998,4140001139951,新規,0,2025-09-17,2025-09-17,株式会社Ｍａｋｅｒｓ　ＤＵＯ,,株式会社,兵庫県,芦屋市,公光町１番９号ＬａＳａｎｔｅ芦屋３０２号,,28,206,6590065,,,,,,,2025-09-17,1,,,,,メイカーズデュオ,0
1001,4150001028402,新規,0,2025-09-17,2025-09-17,株式会社吐田郷ファーマーズ,,株式会社,奈良県,御所市,大字豊田８０番地の２,,29,208,6392317,,,,,,,2025-09-17,1,,,,,ハンダゴウファーマーズ,0
1010,4180001167783,新規,0,2025-09-17,2025-09-17,株式会社ＰＨＹＬＩＮＸ,,株式会社,愛知県,名古屋市中村区,名駅４丁目２４－５－４０１,,23,105,4500002,,,,,,,2025-09-17,1,,,,,ファイリンクス,0
1011,4180001168559,新規,0,2025-09-17,2025-09-17,株式会社ＫＡＰＥＮＩＳＨＩ,,株式会社,愛知県,瀬戸市,白山町２丁目１００番地の１,,23,204,4890876,,,,,,,2025-09-17,1,,,,,カペニシ,0
1015,4180003029040,新規,0,2025-09-17,2025-09-17,合同会社陸商事,,合同会社,愛知県,名古屋市東区,徳川２丁目１２番８号（徳川ハイツ３０８号）,,23,102,4610025,,,,,,,2025-09-17,1,,,,,リクショウジ,0
1016,4180301040203,新規,0,2025-09-17,2025-09-17,株式会社ＪＩＥ,,株式会社,愛知県,岡崎市,牧御堂町字水洗３番地５,,23,202,4440205,,,,,,,2025-09-17,1,,,,,ジェイ,0
1020,4200003007035,新規,0,2025-09-17,2025-09-17,合同会社ＪＡＮ商会,,合同会社,岐阜県,可児市,久々利柿下入会字滝ヶ洞３－１８１,,21,214,5090234,,,,,,,2025-09-17,1,,,,,ジャンショウカイ,0
1024,4220001026927,新規,0,2025-09-17,2025-09-17,株式会社金沢北リージョン,,株式会社,石川県,金沢市,香林坊２丁目１番１号クラソ・プレイス香林坊２Ｆコワーキングスクエア金沢香林坊,,17,201,9200961,,,,,,,2025-09-17,1,,,,,カナザワキタリージョン,0
1027,4230001021084,新規,0,2025-09-17,2025-09-17,株式会社ＨＴＣ　Ｔｒａｄｉｎｇ,,株式会社,富山県,射水市,港町１１番３４号,,16,211,9340002,,,,,,,2025-09-17,1,,,,,エイチティーシートレーディング,0
1034,4240001065510,新規,0,2025-09-17,2025-09-17,ＣＨＩＬＬ　ＢＵＲＭＡ株式会社,,株式会社,広島県,福山市,東深津町４丁目１４番７号１０３,,34,207,7210974,,,,,,,2025-09-17,1,,,,,チルビルマ,0
1045,4290003017389,新規,0,2025-09-17,2025-09-17,合同会社小川商店,,合同会社,福岡県,福岡市中央区,赤坂１丁目２－６赤坂パインマンション２階９号,,40,133,8100042,,,,,,,2025-09-17,1,,,,,オガワショウテン,0
1046,4290803005155,新規,0,2025-09-17,2025-09-17,合同会社福和喜,,合同会社,福岡県,北九州市小倉北区,大手町８番８号,,40,106,8030814,,,,,,,2025-09-17,1,,,,,フクワキ,0
1051,4320001021348,新規,0,2025-09-17,2025-09-17,株式会社オーシャン,,株式会社,大分県,別府市,天満町１０番３３号,,44,202,8740906,,,,,,,2025-09-17,1,,,,,オーシャン,0
1055,4340001027657,新規,0,2025-09-17,2025-09-17,株式会社ピコラボ,,株式会社,鹿児島県,鹿児島市,五ヶ別府町３６５５番地２９,,46,201,8910101,,,,,,,2025-09-17,1,,,,,ピコラボ,0
1061,4360003015237,新規,0,2025-09-17,2025-09-17,合同会社Ｖａｒｙ,,合同会社,沖縄県,那覇市,牧志２丁目２２番１０号,,47,201,9000013,,,,,,,2025-09-17,1,,,,,ベアリー,0
1062,4360003015245,新規,0,2025-09-17,2025-09-17,合同会社優美,,合同会社,沖縄県,沖縄市,字登川１７４８番地２,,47,211,9042142,,,,,,,2025-09-17,1,,,,,ユウビ,0
1067,4370001053048,新規,0,2025-09-17,2025-09-17,株式会社ＬＸエンターテインメント,,株式会社,宮城県,気仙沼市,福美町２番３３号,,04,205,9880086,,,,,,,2025-09-17,1,,,,,エルエックスエンターテインメント,0
1073,4400005008515,新規,0,2025-09-17,2025-09-17,一般社団法人グリーンビレッジ,,その他の設立登記法人,岩手県,二戸郡一戸町,高善寺字野田５４番地１８,,03,524,0285311,,,,,,,2025-09-17,1,,,,,グリーンビレッジ,0
1075,4420001019258,新規,0,2025-09-17,2025-09-17,株式会社ａｂｅ,,株式会社,青森県,八戸市,大字三日町３８番地,,02,203,0310032,,,,,,,2025-09-17,1,,,,,アベ,0
1078,4430001095199,新規,0,2025-09-17,2025-09-17,ジャンカーズ株式会社,,株式会社,北海道,札幌市豊平区,平岸四条３丁目４番２８－３０３号,,01,105,0620934,,,,,,,2025-09-17,1,,,,,ジャンカーズ,0
1079,4430001095298,新規,0,2025-09-17,2025-09-17,株式会社ｄｅＬＩＧＨＴ　ＭＥＤＩＡ　ＷＯＲＫＳ,,株式会社,北海道,札幌市北区,北二十五条西１２丁目２番８－８０７号,,01,102,0010025,,,,,,,2025-09-17,1,,,,,デライトメディアワークス,0
1082,4430003018091,新規,0,2025-09-17,2025-09-17,合同会社エムスリープラン,,合同会社,北海道,札幌市中央区,南二条西５丁目３１番１号ＲＭＢｌｄ．７０１,,01,101,0600062,,,,,,,2025-09-17,1,,,,,エムスリープラン,0
1083,4440001009686,新規,0,2025-09-17,2025-09-17,株式会社ＥＬＰロジスティクス,,株式会社,北海道,函館市,西旭岡町１丁目２番地１３,,01,202,0420915,,,,,,,2025-09-17,1,,,,,イーエルピーロジスティクス,0
1086,4470001020896,新規,0,2025-09-17,2025-09-17,株式会社ＭＹＤＯ,,株式会社,香川県,高松市,宮脇町２丁目１０番９３号,,37,201,7600005,,,,,,,2025-09-17,1,,,,,マイド,0
1102,5010003048774,新規,0,2025-09-17,2025-09-17,Ｐｌａｙｒｏｌｌ　Ｊａｐａｎ合同会社,,合同会社,東京都,中央区,日本橋室町１丁目１１番１２号日本橋水野ビル７階,,13,102,1030022,,,,,,,2025-09-17,1,,,,,プレイロールジャパン,0
1110,5010401193032,新規,0,2025-09-17,2025-09-17,ｎｅｘａｎａ株式会社,,株式会社,東京都,港区,南青山３丁目１番３６号青山丸竹ビル６Ｆ,,13,103,1070062,,,,,,,2025-09-17,1,,,,,ネクサナ,0
1114,5010405024712,新規,0,2025-09-17,2025-09-17,一般社団法人Ｎｅｘｔ　Ｇｌｏｂａｌ,,その他の設立登記法人,東京都,港区,北青山２丁目７－２０猪瀬ビル２Ｆ,,13,103,1070061,,,,,,,2025-09-17,1,,,,,ネクストグローバル,0
1118,5010501054720,新規,0,2025-09-17,2025-09-17,＿禾文化株式会社,00140683,株式会社,東京都,台東区,柳橋１丁目２番１２号５階ＡＢＳ・Ａ－１,,13,106,1110052,,,,,,,2025-09-17,1,,,,,ジュンフーブンカ,0
1119,5010501054737,新規,0,2025-09-17,2025-09-17,春華秋実株式会社,,株式会社,東京都,台東区,小島１丁目１－２蒔田ビル２階,,13,106,1110056,,,,,,,2025-09-17,1,,,,,シュンカシュウジツ,0
1126,5010703007914,新規,0,2025-09-17,2025-09-17,合同会社ＬＥＧＡＬ‐ＳＷＡＴ,,合同会社,東京都,品川区,東品川４丁目１２番９－２１１号,,13,109,1400002,,,,,,,2025-09-17,1,,,,,リーガルスワット,0
1144,5011201026646,新規,0,2025-09-17,2025-09-17,株式会社蘇渓,,株式会社,東京都,中野区,中野２丁目１１番４号Ｒｅｎａｉｓｓａ紅葉山５０４号室,,13,114,1640001,,,,,,,2025-09-17,1,,,,,ソケイ,0
1149,5011601028977,新規,0,2025-09-17,2025-09-17,Ｌｏｏｐ　Ｆｕｎ株式会社,,株式会社,東京都,練馬区,春日町６丁目１６番１１フォーチュン光が丘２８６号室,,13,120,1790074,,,,,,,2025-09-17,1,,,,,ループファン,0
1150,5011603004844,新規,0,2025-09-17,2025-09-17,合同会社リミッターカット,,合同会社,東京都,練馬区,関町北１丁目８－１,,13,120,1770051,,,,,,,2025-09-17,1,,,,,リミッターカット,0
1152,5011701028729,新規,0,2025-09-17,2025-09-17,Ｓｕｎ＆Ｋｏａ　Ｒｅａｌｔｙ株式会社,,株式会社,東京都,江戸川区,南篠崎町２丁目２９番１号,,13,123,1330065,,,,,,,2025-09-17,1,,,,,サンアンドコアリアルティ,0
1154,5011801046738,新規,0,2025-09-17,2025-09-17,株式会社ＲＥ　ＣＲＥＡＴＥ,,株式会社,東京都,足立区,大谷田４丁目１番２号６Ｈ,,13,121,1200001,,,,,,,2025-09-17,1,,,,,リクリエイト,0
1155,5011801046762,新規,0,2025-09-17,2025-09-17,株式会社Ｒｅｖｅｒｉｅ,,株式会社,東京都,足立区,千住桜木２丁目９番１３号,,13,121,1200045,,,,,,,2025-09-17,1,,,,,レヴリ,0
1164,5012803003867,新規,0,2025-09-17,2025-09-17,合同会社ＮＹ＆Ｓ,,合同会社,東京都,日野市,東豊田３丁目１８－１,,13,212,1910052,,,,,,,2025-09-17,1,,,,,エヌワイアンドエス,0
1166,5013303007879,新規,0,2025-09-17,2025-09-17,合同会社ＥＭＭＡ　ＧＬＯＷ,,合同会社,東京都,豊島区,東池袋１丁目４４番１０号,,13,116,1700013,,,,,,,2025-09-17,1,,,,,エマグロウ,0
1176,5020001164762,新規,0,2025-09-17,2025-09-17,Ｅ．Ａ．Ａ株式会社,,株式会社,神奈川県,横浜市神奈川区,神大寺４丁目１４番２１号３ユナイト片倉アデリーナ１０１室,,14,102,2210801,,,,,,,2025-09-17,1,,,,,イーエーエー,0
1180,5020003029369,新規,0,2025-09-17,2025-09-17,Ｏｆｆｉｃｅ　ＭＲ合同会社,,合同会社,神奈川県,横浜市金沢区,能見台６丁目１０番地３,,14,108,2360057,,,,,,,2025-09-17,1,,,,,オフィスエムアール,0
1188,5021003016514,新規,0,2025-09-17,2025-09-17,合同会社ＫＭＴ,,合同会社,神奈川県,平塚市,万田３丁目２５－６,,14,203,2540913,,,,,,,2025-09-17,1,,,,,ケーエムティー,0
1189,5021003016522,新規,0,2025-09-17,2025-09-17,ｋｍ合同会社,,合同会社,神奈川県,大和市,中央１丁目３－３，１Ｆ,,14,213,2420021,,,,,,,2025-09-17,1,,,,,ケイエム,0
1194,5030001168696,新規,0,2025-09-17,2025-09-17,株式会社一李蔵,,株式会社,埼玉県,羽生市,大字藤井上組８９９番地１０,,11,216,3480064,,,,,,,2025-09-17,1,,,,,イクラ,0
1197,5030003027628,新規,0,2025-09-17,2025-09-17,サマーツリー合同会社,,合同会社,埼玉県,児玉郡美里町,大字関２０４８番地１０,,11,381,3670102,,,,,,,2025-09-17,1,,,,,サマーツリー,0
1198,5030003027636,新規,0,2025-09-17,2025-09-17,えがお居宅介護支援事業所合同会社,,合同会社,埼玉県,久喜市,鷲宮中央２丁目２番２号,,11,232,3400216,,,,,,,2025-09-17,1,,,,,エガオキョタクカイゴシエンジギョウショ,0
1199,5030003027644,新規,0,2025-09-17,2025-09-17,合同会社アンナドリームホールディングス,,合同会社,埼玉県,三郷市,三郷２丁目１８番地９－１０３,,11,237,3410024,,,,,,,2025-09-17,1,,,,,アンナドリームホールディングス,0
1200,5030003027652,新規,0,2025-09-17,2025-09-17,合同会社Ｒｅｍｏｎｉｔｙ,,合同会社,埼玉県,蓮田市,馬込２丁目１２０番地エクセルメゾン２－１０５号,,11,238,3490114,,,,,,,2025-09-17,1,,,,,リモニティ,0
1203,5040003028518,新規,0,2025-09-17,2025-09-17,合同会社京葉リモデル,,合同会社,千葉県,いすみ市,大原１０２４１番地３,,12,238,2980004,,,,,,,2025-09-17,1,,,,,ケイヨウリモデル,0
1231,5120001279550,新規,0,2025-09-17,2025-09-17,東方純一株式会社,,株式会社,大阪府,大阪市西成区,橘１丁目１１－２８オフィスポート橘４１２号室,,27,122,5570051,,,,,,,2025-09-17,1,,,,,トウホウジュンイチ,0
1232,5120001279625,新規,0,2025-09-17,2025-09-17,日本馨揚株式会社,,株式会社,大阪府,大阪市天王寺区,伶人町２－３１ＳｔａｒＯｆｆｉｃｅ大阪天王寺北５０７号室,,27,109,5430061,,,,,,,2025-09-17,1,,,,,ニッポンケイヨウ,0
1233,5120001279658,新規,0,2025-09-17,2025-09-17,鼎石株式会社,,株式会社,大阪府,大阪市東淀川区,瑞光１丁目５－１８－２０２号,,27,114,5330005,,,,,,,2025-09-17,1,,,,,テイセキ,0
1234,5120001279699,新規,0,2025-09-17,2025-09-17,株式会社ＧＲＩＴ,,株式会社,大阪府,大阪市都島区,善源寺町２丁目２番６－３０３号,,27,102,5340015,,,,,,,2025-09-17,1,,,,,グリット,0
1235,5120001279947,新規,0,2025-09-17,2025-09-17,双翼商事株式会社,,株式会社,大阪府,大阪市東住吉区,南田辺１丁目１番１５号,,27,121,5460033,,,,,,,2025-09-17,1,,,,,ソウヨクショウジ,0
1236,5120001280013,新規,0,2025-09-17,2025-09-17,株式会社Ｔ＆Ｗ　Ｕｎｉｔｙ,,株式会社,大阪府,大阪市住吉区,遠里小野３丁目１番１９－５０６号,,27,120,5580032,,,,,,,2025-09-17,1,,,,,ティーアンドダブリューユニティー,0
1240,5120003030523,新規,0,2025-09-17,2025-09-17,合同会社ＭＩＬＥＮＯＡ,,合同会社,大阪府,大阪市北区,梅田１丁目２番２号大阪駅前第２ビル１２－１２,,27,127,5300001,,,,,,,2025-09-17,1,,,,,ミレノア,0
1243,5120101072426,新規,0,2025-09-17,2025-09-17,株式会社ＺＥＲＯホールディングス,,株式会社,大阪府,松原市,一津屋５丁目６番１１号,,27,217,5800003,,,,,,,2025-09-17,1,,,,,ゼロホールディングス,0
1244,5120101072442,新規,0,2025-09-17,2025-09-17,ＢＡＢＥＬ株式会社,,株式会社,大阪府,岸和田市,尾生町１７１９番地の１,,27,202,5960816,,,,,,,2025-09-17,1,,,,,バベル,0
1245,5120101072450,新規,0,2025-09-17,2025-09-17,福山堂株式会社,,株式会社,大阪府,堺市堺区,大浜南町２－１－２５－２４７,,27,141,5900000,,,,,,,2025-09-17,1,,,,,フクヤマドウ,0
1246,5120101072459,新規,0,2025-09-17,2025-09-17,株式会社ＲＩＢＩＮＡＬ,,株式会社,大阪府,藤井寺市,春日丘１丁目１番２８号,,27,226,5830026,,,,,,,2025-09-17,1,,,,,リビナル,0
1247,5120101072475,新規,0,2025-09-17,2025-09-17,株式会社星はしご,,株式会社,大阪府,堺市南区,茶山台２―２―９―１０９,,27,145,5900100,,,,,,,2025-09-17,1,,,,,ホシハシゴ,0
1249,5120103006712,新規,0,2025-09-17,2025-09-17,ＳＡＩＦトレーディング合同会社,,合同会社,大阪府,河内長野市,緑ケ丘北町４番１８号,,27,216,5860081,,,,,,,2025-09-17,1,,,,,セイフトレーディング,0
1251,5120903005847,新規,0,2025-09-17,2025-09-17,Ｎ．Ｎスタイル合同会社,,合同会社,大阪府,茨木市,西河原北町１３番２２－１０１号,,27,211,5670003,,,,,,,2025-09-17,1,,,,,エヌエヌスタイル,0
1257,5130001080536,新規,0,2025-09-17,2025-09-17,株式会社ＬＭＬ,,株式会社,京都府,京都市上京区,伊勢屋町３９３ギャレビル１階Ｇ号室,,26,102,6020873,,,,,,,2025-09-17,1,,,,,エルエムエル,0
1258,5130001080552,新規,0,2025-09-17,2025-09-17,株式会社ＭＧＭ,,株式会社,京都府,京都市東山区,下河原通八坂鳥居前下る上弁天町４４４番地１,,26,105,6050822,,,,,,,2025-09-17,1,,,,,エムジーエム,0
1261,5130003010771,新規,0,2025-09-17,2025-09-17,合同会社ｎｅｗｂｒｅｅｚｅ,,合同会社,京都府,福知山市,夜久野町直見３１０５,,26,201,6291321,,,,,,,2025-09-17,1,,,,,ニューブリーズ,0
1262,5130003010805,新規,0,2025-09-17,2025-09-17,合同会社市田商店,,合同会社,京都府,京都市中京区,柳馬場通御池上る虎石町５１番地,,26,104,6040955,,,,,,,2025-09-17,1,,,,,イチダショウテン,0
1265,5140001140000,新規,0,2025-09-17,2025-09-17,株式会社めぐみ,,株式会社,兵庫県,神戸市中央区,御幸通４丁目１－１５－２０１,,28,110,6510087,,,,,,,2025-09-17,1,,,,,メグミ,0
1266,5140003022584,新規,0,2025-09-17,2025-09-17,ＭＳ　ＴＲＡＤＩＮＧ合同会社,,合同会社,兵庫県,神戸市東灘区,深江浜町７６番地神戸青果食品商業協同組合会館２０３号,,28,101,6580023,,,,,,,2025-09-17,1,,,,,エムエストレーディング,0
1270,5160003003608,新規,0,2025-09-17,2025-09-17,合同会社ＮＱＴ,,合同会社,滋賀県,彦根市,平田町１５１番地４ＳＫビル２号室,,25,202,5220041,,,,,,,2025-09-17,1,,,,,エヌキューティー,0
1277,5180001168442,新規,0,2025-09-17,2025-09-17,株式会社ナカノ金物,,株式会社,愛知県,豊明市,三崎町中ノ坪９番地１１,,23,229,4701125,,,,,,,2025-09-17,1,,,,,ナカノカナモノ,0
1288,5180003028999,新規,0,2025-09-17,2025-09-17,合同会社イストワール,,合同会社,愛知県,名古屋市中区,栄２丁目２番１号広小路伏見中駒ビル２Ｆ－９,,23,106,4600008,,,,,,,2025-09-17,1,,,,,イストワール,0
1289,5180003029048,新規,0,2025-09-17,2025-09-17,Ｍａｎｏｎ合同会社,,合同会社,愛知県,名古屋市天白区,梅が丘５丁目１７０６番地,,23,116,4680004,,,,,,,2025-09-17,1,,,,,マノン,0
1292,5180301040210,新規,0,2025-09-17,2025-09-17,株式会社ダディー・ドゥ,,株式会社,愛知県,豊橋市,松葉一丁目９６番地サンビル８、２Ｆ右,,23,201,4410000,,,,,,,2025-09-17,1,,,,,ダディードゥ,0
1298,5190003005171,新規,0,2025-09-17,2025-09-17,合同会社つばさ,,合同会社,三重県,伊勢市,楠部町１２８－４,,24,203,5160014,,,,,,,2025-09-17,1,,,,,ツバサ,0
1302,5200003007042,新規,0,2025-09-17,2025-09-17,ＸＴＲＥＭＥ　ＭＯＴＯＲＳ合同会社,,合同会社,岐阜県,中津川市,駒場１６６７番地の９３,,21,206,5080011,,,,,,,2025-09-17,1,,,,,エクストリームモータース,0
1303,5210003001952,新規,0,2025-09-17,2025-09-17,合同会社ｒｏＭＡＮ,,合同会社,福井県,勝山市,昭和町３丁目２番７０号,,18,206,9110802,,,,,,,2025-09-17,1,,,,,ロマン,0
1306,5240001065501,新規,0,2025-09-17,2025-09-17,株式会社Ｇｒｏｗｉｎ,,株式会社,広島県,広島市安佐南区,祇園３丁目２４－２５,,34,105,7310138,,,,,,,2025-09-17,1,,,,,グローイン,0
1310,5240005015989,新規,0,2025-09-17,2025-09-17,医療法人ＮＯＣ,,その他の設立登記法人,広島県,広島市安佐北区,可部南５丁目８番３２－１３号,,34,106,7310223,,,,,,,2025-09-17,1,,,,,エヌオーシー,0
1322,5260005011508,新規,0,2025-09-17,2025-09-17,一般財団法人ネイチャープレナー・ジャパン,,その他の設立登記法人,岡山県,英田郡西粟倉村,大字影石５８０－１,,33,643,7070503,,,,,,,2025-09-17,1,,,,,ネイチャープレナージャパン,0
1327,5290001111498,新規,0,2025-09-17,2025-09-17,株式会社スリー・Ａエステート,,株式会社,福岡県,福岡市南区,野間３丁目１６番２８号,,40,134,8150041,,,,,,,2025-09-17,1,,,,,スリーエーエステート,0
1328,5290003017363,新規,0,2025-09-17,2025-09-17,合同会社馬心,,合同会社,福岡県,福岡市博多区,築港本町１１番４号,,40,132,8120021,,,,,,,2025-09-17,1,,,,,ウマゴコロ,0
1329,5290003017371,新規,0,2025-09-17,2025-09-17,合同会社ＫＣＷ,,合同会社,福岡県,久留米市,東合川新町４－４０,,40,203,8390808,,,,,,,2025-09-17,1,,,,,ケーシーダブリュー,0
1331,5290005019837,新規,0,2025-09-17,2025-09-17,医療法人ＫＤＯＣ,,その他の設立登記法人,福岡県,福岡市南区,大橋２丁目１４－１８ユー大橋１Ｆ,,40,134,8150033,,,,,,,2025-09-17,1,,,,,ケーディーオーシー,0
1336,5290803005154,新規,0,2025-09-17,2025-09-17,豊栄合同会社,,合同会社,福岡県,行橋市,大字吉国字下り畑５９３番地１－Ｂ棟,,40,213,8240066,,,,,,,2025-09-17,1,,,,,トヨサカ,0
1338,5320001021347,新規,0,2025-09-17,2025-09-17,コウセイ株式会社,,株式会社,大分県,佐伯市,大字海崎２５４４番地１,,44,205,8761105,,,,,,,2025-09-17,1,,,,,コウセイ,0
1343,5330001033580,新規,0,2025-09-17,2025-09-17,株式会社ＧＯＭＸ,,株式会社,熊本県,合志市,幾久富１８６６番地１４０１,,43,216,8611112,,,,,,,2025-09-17,1,,,,,ジーオーエムエックス,0
1348,5360005007289,新規,0,2025-09-17,2025-09-17,一般社団法人スマイルベースこどもみらい創造ラボ,,その他の設立登記法人,沖縄県,糸満市,潮崎町３丁目２３－９,,47,210,9010364,,,,,,,2025-09-17,1,,,,,スマイルベースコドモミライソウゾウラボ,0
1355,5380001035572,新規,0,2025-09-17,2025-09-17,株式会社じょーじカンパニー,,株式会社,福島県,いわき市,草木台２丁目１番地２草木台第３ビル１０３号,,07,204,9728301,,,,,,,2025-09-17,1,,,,,ジョージカンパニー,0
1357,5390003002446,新規,0,2025-09-17,2025-09-17,合同会社ＭＯＧＡＭＩＹＡ,,合同会社,山形県,北村山郡大石田町,大字大石田丙１２７番地,,06,341,9994111,,,,,,,2025-09-17,1,,,,,モガミヤ,0
1362,5420003003184,新規,0,2025-09-17,2025-09-17,Ｍａｒｃｅｌ合同会社,,合同会社,青森県,青森市,花園１丁目１８番１５号,,02,201,0300966,,,,,,,2025-09-17,1,,,,,マーセル,0
1365,5430001095207,新規,0,2025-09-17,2025-09-17,株式会社ブルーラーニング,,株式会社,北海道,札幌市中央区,南一条西４丁目日之出ビル９階,,01,101,0600061,,,,,,,2025-09-17,1,,,,,ブルーラーニング,0
1366,5430003018082,新規,0,2025-09-17,2025-09-17,合同会社縁創,,合同会社,北海道,札幌市豊平区,中の島二条４丁目６番１２号,,01,105,0620922,,,,,,,2025-09-17,1,,,,,エンソウ,0
1367,5440001009685,新規,0,2025-09-17,2025-09-17,株式会社美園米工房,,株式会社,北海道,亀田郡七飯町,大川９丁目１番５２号,,01,337,0411122,,,,,,,2025-09-17,1,,,,,ミソノコメコウボウ,0
1368,5440005002802,新規,0,2025-09-17,2025-09-17,一般社団法人奏誠会にじいろクリニック,,その他の設立登記法人,北海道,函館市,本通２丁目５２番１１号,,01,202,0410851,,,,,,,2025-09-17,1,,,,,ソウセイカイニジイロクリニック,0
1371,5470001020895,新規,0,2025-09-17,2025-09-17,株式会社ケアリィ,,株式会社,香川県,高松市,春日町１４５４番地１,,37,201,7610101,,,,,,,2025-09-17,1,,,,,,0
1385,6010001257896,新規,0,2025-09-17,2025-09-17,ＮＥＯＶＡＴＥ株式会社,,株式会社,東京都,千代田区,神田松永町１３Ｖｏｒｔ秋葉原ＩＩ,00140679,13,101,1010023,,,,,,,2025-09-17,1,,,,,ネオベイト,0
1387,6010001258515,新規,0,2025-09-17,2025-09-17,株式会社ＦＭトラスト,,株式会社,東京都,中央区,築地６丁目１５番９号ウィルローズ築地５０１,,13,102,1040045,,,,,,,2025-09-17,1,,,,,エフエムトラスト,0
1388,6010001258523,新規,0,2025-09-17,2025-09-17,ＵＦＬ株式会社,,株式会社,東京都,中央区,銀座１丁目１２番４号Ｎ＆ＥＢＬＤ．７階,,13,102,1040061,,,,,,,2025-09-17,1,,,,,ユーエフエル,0
1391,6010003048740,新規,0,2025-09-17,2025-09-17,ひまわり合同会社,,合同会社,東京都,文京区,本駒込４丁目２９番６－５０１号,,13,105,1130021,,,,,,,2025-09-17,1,,,,,ヒマワリ,0
1410,6010405024703,新規,0,2025-09-17,2025-09-17,一般社団法人ＷＩＳＴＡ　Ｊａｐａｎ,,その他の設立登記法人,東京都,港区,虎ノ門２丁目１番１号,,13,103,1050001,,,,,,,2025-09-17,1,,,,,ウィスタジャパン,0
1411,6010405024777,新規,0,2025-09-17,2025-09-17,ラーゴグランデ特定目的会社,,その他の設立登記法人,東京都,港区,芝浦１丁目１番１号,,13,103,1050023,,,,,,,2025-09-17,1,,,,,ラーゴグランデ,0
1412,6010701048240,新規,0,2025-09-17,2025-09-17,ＯｎｅＣｈｒｏｎｏｓ　Ｍａｒｋｅｔｓ　Ｊａｐａｎ株式会社,,株式会社,東京都,品川区,西五反田１丁目２６番２号五反田サンハイツビル２階,,13,109,1410031,,,,,,,2025-09-17,1,,,,,ワンクロノスマーケッツジャパン,0
1413,6010701048315,新規,0,2025-09-17,2025-09-17,株式会社まるノバス,,株式会社,東京都,品川区,大崎５丁目７番１４号五反田ロイヤルハイツ１０５－１,,13,109,1410032,,,,,,,2025-09-17,1,,,,,マルノバス,0
1415,6010801036608,新規,0,2025-09-17,2025-09-17,チバマリンヨコハマ株式会社,,株式会社,東京都,大田区,大森北３丁目３２番２８号,,13,111,1430016,,,,,,,2025-09-17,1,,,,,チバマリンヨコハマ,0
1418,6010803005544,新規,0,2025-09-17,2025-09-17,Ｄｅｎｉｌｉｓ合同会社,,合同会社,東京都,大田区,大森北３丁目４番４号ＫＴ大森北ビルＢ号室,,13,111,1430016,,,,,,,2025-09-17,1,,,,,デニリス,0
1420,6010901058031,新規,0,2025-09-17,2025-09-17,嶺森株式会社,,株式会社,東京都,世田谷区,三軒茶屋１丁目３２－８プラティーク三軒茶屋３０２,,13,112,1540024,,,,,,,2025-09-17,1,,,,,ミネモリ,0
1422,6010903010270,新規,0,2025-09-17,2025-09-17,合同会社ノゾミチ,,合同会社,東京都,世田谷区,桜新町２丁目１３―４―２０１,,13,112,1540015,,,,,,,2025-09-17,1,,,,,ノゾミチ,0
1426,6011001172061,新規,0,2025-09-17,2025-09-17,株式会社Ｔｏｍｕｎｅ,,株式会社,東京都,渋谷区,円山町５番３号ＭＩＥＵＸ渋谷ビル８階,,13,113,1500044,,,,,,,2025-09-17,1,,,,,トムネ,0
1432,6011101113080,新規,0,2025-09-17,2025-09-17,株式会社新旧,,株式会社,東京都,新宿区,四谷３丁目１０番地２４山田ビル４Ｆ,,13,104,1600004,,,,,,,2025-09-17,1,,,,,シンキュウ,0
1433,6011101113106,新規,0,2025-09-17,2025-09-17,株式会社Ｎｕｖｉａ,,株式会社,東京都,新宿区,西新宿７丁目５番地５号Ｐｌａｚａ西新宿ＵＣＦ４階,,13,104,1600023,,,,,,,2025-09-17,1,,,,,ヌビア,0
1434,6011101113139,新規,0,2025-09-17,2025-09-17,株式会社ＯＮＥ　ＦＯＲ　ＡＬＬ,,株式会社,東京都,新宿区,新宿２丁目８番１号新宿セブンビル２０５号室,,13,104,1600022,,,,,,,2025-09-17,1,,,,,ワンフォーオール,0
1439,6011401027402,新規,0,2025-09-17,2025-09-17,株式会社優和,,株式会社,東京都,板橋区,赤塚新町３丁目２６番１１号,,13,119,1750093,,,,,,,2025-09-17,1,,,,,ユウワ,0
1444,6011701028728,新規,0,2025-09-17,2025-09-17,ＫＩＭ設備株式会社,,株式会社,東京都,江戸川区,松本１丁目１０番３号,,13,123,1330043,,,,,,,2025-09-17,1,,,,,ケーアイエムセツビ,0
1452,6013301054955,新規,0,2025-09-17,2025-09-17,株式会社ＡＫＡＲＩ,,株式会社,東京都,豊島区,千早４丁目２６－２,,13,116,1710044,,,,,,,2025-09-17,1,,,,,アカリ,0
1453,6013301054963,新規,0,2025-09-17,2025-09-17,株式会社ＤＡＩＳＹ　ＱＵＥＥＮ,,株式会社,東京都,豊島区,東池袋２丁目３２番１０号ファーストハウス東池袋２０２号,,13,116,1700013,,,,,,,2025-09-17,1,,,,,デイジークイーン,0
1454,6013301054971,新規,0,2025-09-17,2025-09-17,株式会社Ｐｒｏｓｐｅｒｉａ,,株式会社,東京都,豊島区,巣鴨１丁目１６番２－８０７号,,13,116,1700002,,,,,,,2025-09-17,1,,,,,プロスペリア,0
1460,6020001164761,新規,0,2025-09-17,2025-09-17,ＢＧ株式会社,,株式会社,神奈川県,横浜市鶴見区,生麦１丁目３番１－４０２号,,14,101,2300052,,,,,,,2025-09-17,1,,,,,ビージー,0
1461,6020001164794,新規,0,2025-09-17,2025-09-17,ＳＫＹＡＲＳ株式会社,,株式会社,神奈川県,川崎市宮前区,東有馬３丁目５－４,,14,136,2160002,,,,,,,2025-09-17,1,,,,,スカイアース,0
1462,6020001164811,新規,0,2025-09-17,2025-09-17,株式会社龍樹商事,,株式会社,神奈川県,横浜市南区,八幡町１４番地１０,,14,105,2320037,,,,,,,2025-09-17,1,,,,,タツキショウジ,0
1463,6020001164885,新規,0,2025-09-17,2025-09-17,翔進工務店株式会社,,株式会社,神奈川県,横浜市港南区,上大岡東２丁目１５番１４号,,14,111,2330001,,,,,,,2025-09-17,1,,,,,ショウシンコウムテン,0
1466,6020003029351,新規,0,2025-09-17,2025-09-17,スペースリアライズ合同会社,,合同会社,神奈川県,横浜市都筑区,勝田南１丁目１６番２７号,,14,118,2240036,,,,,,,2025-09-17,1,,,,,スペースリアライズ,0
1472,6021001086252,新規,0,2025-09-17,2025-09-17,株式会社協同開発,,株式会社,神奈川県,横須賀市,野比１丁目１６番１８号,,14,201,2390841,,,,,,,2025-09-17,1,,,,,キョウドウカイハツ,0
1473,6021001086260,新規,0,2025-09-17,2025-09-17,株式会社Ｓｕｎ　Ｈｅａｒｔ,,株式会社,神奈川県,相模原市中央区,矢部１丁目１３番１０号,,14,152,2520232,,,,,,,2025-09-17,1,,,,,サンハート,0
1474,6021005013434,新規,0,2025-09-17,2025-09-17,一般社団法人日本アルコール・嗜癖関連問題学会,,その他の設立登記法人,神奈川県,横須賀市,野比５丁目３番１号独立行政法人国立病院機構久里浜医療センター内,,14,201,2390841,,,,,,,2025-09-17,1,,,,,ニホンアルコールシヘキカンレンモンダイガッカイ,0
1478,6030001168687,新規,0,2025-09-17,2025-09-17,株式会社ハタワ工務店,,株式会社,埼玉県,川口市,桜町５丁目７番１８号,,11,203,3340001,,,,,,,2025-09-17,1,,,,,ハタワコウムテン,0
1479,6030001168712,新規,0,2025-09-17,2025-09-17,株式会社ＰＰＥ,,株式会社,埼玉県,鴻巣市,鎌塚４丁目１０番７号,,11,217,3690112,,,,,,,2025-09-17,1,,,,,ピーピーイー,0
1481,6030003027635,新規,0,2025-09-17,2025-09-17,ＭＭ企画合同会社,,合同会社,埼玉県,上尾市,井戸木２丁目４０番地１７エクセレントコーポ１０１,,11,219,3620071,,,,,,,2025-09-17,1,,,,,エムエムキカク,0
1488,6040001140380,新規,0,2025-09-17,2025-09-17,株式会社いろどり,,株式会社,千葉県,君津市,北子安１丁目６番３５号,,12,225,2991161,,,,,,,2025-09-17,1,,,,,イロドリ,0
1489,6050001057269,新規,0,2025-09-17,2025-09-17,ＮＯＭＡＤＩＸ株式会社,,株式会社,茨城県,稲敷市,浮島字前浦６９７７－１４４－１０号室,,08,229,3000641,,,,,,,2025-09-17,1,,,,,イマディクス,0
1491,6050003009573,新規,0,2025-09-17,2025-09-17,合同会社Ａｍｕｓｅ,,合同会社,茨城県,取手市,西１丁目２３番５号,,08,217,3020025,,,,,,,2025-09-17,1,,,,,アミューズ,0
1495,6060001038573,新規,0,2025-09-17,2025-09-17,ＳＫサービス株式会社,,株式会社,栃木県,宇都宮市,鶴田町１５５９番地２,,09,201,3200851,,,,,,,2025-09-17,1,,,,,エスケイサービス,0
1496,6060001038581,新規,0,2025-09-17,2025-09-17,ＹＵＴＯ　ＴＲＡＤＩＮＧ株式会社,,株式会社,栃木県,下都賀郡野木町,大字友沼字卯ノ木５９６２番地１０,,09,364,3290101,,,,,,,2025-09-17,1,,,,,ユートトレーディング,0
1500,6060003005753,新規,0,2025-09-17,2025-09-17,Ｂ　ＴＲＡＶＥＬ合同会社,,合同会社,栃木県,小山市,城北６丁目１６－２アモーラルＰａｒｔ３－１０２号,,09,208,3230029,,,,,,,2025-09-17,1,,,,,ビートラベル,0
1516,6090003002896,新規,0,2025-09-17,2025-09-17,ｆｏｕｒ　ｆｉｎｅ合同会社,,合同会社,山梨県,富士吉田市,上暮地３丁目１１番１５号,,19,202,4030001,,,,,,,2025-09-17,1,,,,,フォーファイン,0
1519,6100001038949,新規,0,2025-09-17,2025-09-17,株式会社ｏｎｅ,,株式会社,長野県,須坂市,大字小河原１４７３－２,,20,207,3820901,,,,,,,2025-09-17,1,,,,,ワン,0
1527,6110003005888,新規,0,2025-09-17,2025-09-17,合同会社かみま商店,,合同会社,新潟県,南魚沼市,新堀２７０番地,,15,226,9497136,,,,,,,2025-09-17,1,,,,,カミマショウテン,0
1542,6120001279608,新規,0,2025-09-17,2025-09-17,冠丞株式会社,,株式会社,大阪府,大阪市北区,浪花町１３番２５－３０５号,,27,127,5300022,,,,,,,2025-09-17,1,,,,,カンジョウ,0
1543,6120001279731,新規,0,2025-09-17,2025-09-17,Ｎｕｒｓｕｒｅ株式会社,,株式会社,大阪府,大阪市淀川区,東三国５丁目５番２８号デュウェル東三国２０２号室,,27,123,5320002,,,,,,,2025-09-17,1,,,,,ナーシュア,0
1544,6120001279748,新規,0,2025-09-17,2025-09-17,田倉株式会社,,株式会社,大阪府,大阪市此花区,春日出中１丁目９番１３号３０１Ａ,,27,104,5540022,,,,,,,2025-09-17,1,,,,,タクラ,0
1545,6120001279855,新規,0,2025-09-17,2025-09-17,新高発展株式会社,,株式会社,大阪府,大阪市東淀川区,東中島１丁目２０番１２－９２５号,,27,114,5330033,,,,,,,2025-09-17,1,,,,,シンコウハッテン,0
1549,6120003030712,新規,0,2025-09-17,2025-09-17,７７１２合同会社,,合同会社,大阪府,大阪市東成区,大今里西１丁目２７‐２６,,27,115,5370014,,,,,,,2025-09-17,1,,,,,ナナナナイチニ,0
1554,6120101072400,新規,0,2025-09-17,2025-09-17,Ｏｍｕｓｕｂｉ　Ｔｒａｖｅｌ株式会社,,株式会社,大阪府,堺市西区,浜寺石津町西２丁２－１１,,27,144,5928333,,,,,,,2025-09-17,1,,,,,オムスビトラベル,0
1555,6120101072433,新規,0,2025-09-17,2025-09-17,クレバーコル・ジャパン株式会社,,株式会社,大阪府,貝塚市,二色１丁目１番５８号,,27,208,5970091,,,,,,,2025-09-17,1,,,,,クレバーコルジャパン,0
1556,6120101072458,新規,0,2025-09-17,2025-09-17,株式会社ＯＺＰ,,株式会社,大阪府,羽曳野市,島泉６丁目１２番２０号,,27,222,5830881,,,,,,,2025-09-17,1,,,,,オーゼットピー,0
1560,6130003010770,新規,0,2025-09-17,2025-09-17,合同会社ｍｏｔｈｅｒ,,合同会社,京都府,京田辺市,松井ケ丘３丁目１３番地２０,,26,211,6100353,,,,,,,2025-09-17,1,,,,,マザー,0
1561,6140001139925,新規,0,2025-09-17,2025-09-17,株式会社ひよりハウジング,,株式会社,兵庫県,小野市,黒川町８７９番地,,28,218,6751371,,,,,,,2025-09-17,1,,,,,ヒヨリハウジング,0
1563,6140003022583,新規,0,2025-09-17,2025-09-17,ＲＯＹＡＬ　ＭＡＲＫ　ＴＲＡＤＩＮＧ合同会社,,合同会社,兵庫県,神戸市長田区,長者町７番９号親和ハウス１０１号,,28,106,6530866,,,,,,,2025-09-17,1,,,,,ロイヤルマークトレーディング,0
1564,6140003022591,新規,0,2025-09-17,2025-09-17,合同会社ハナミズキ,,合同会社,兵庫県,明石市,鳥羽１４６１番地の６,,28,203,6730003,,,,,,,2025-09-17,1,,,,,ハナミズキ,0
1565,6140005027630,新規,0,2025-09-17,2025-09-17,クレール宝塚ベルエール管理組合法人,,その他の設立登記法人,兵庫県,宝塚市,山本台３丁目１６番１号,,28,214,6650885,,,,,,,2025-09-17,1,,,,,クレールタカラヅカベルエール,0
1573,6170003002302,新規,0,2025-09-17,2025-09-17,合同会社Ｓｍｉｔｈ,,合同会社,和歌山県,和歌山市,新中島７２番地１,,30,201,6410002,,,,,,,2025-09-17,1,,,,,スミス,0
1582,6180001168565,新規,0,2025-09-17,2025-09-17,株式会社フランチャイズナビ,,株式会社,愛知県,豊明市,阿野町林ノ内５９番地３,,23,229,4701141,,,,,,,2025-09-17,1,,,,,フランチャイズナビ,0
1583,6180001168672,新規,0,2025-09-17,2025-09-17,株式会社サランエステート,,株式会社,愛知県,名古屋市東区,芳野３丁目９番３６号エスティメゾン東白壁１００２号,,23,102,4610027,,,,,,,2025-09-17,1,,,,,サランエステート,0
1597,6230005009495,新規,0,2025-09-17,2025-09-17,一般社団法人創樹之森,,その他の設立登記法人,富山県,富山市,元町１丁目１番１８号,,16,201,9300033,,,,,,,2025-09-17,1,,,,,ソウジュノモリ,0
1599,6240001065509,新規,0,2025-09-17,2025-09-17,株式会社リバース,,株式会社,広島県,広島市中区,西白島町１０番７号,,34,101,7300005,,,,,,,2025-09-17,1,,,,,リバース,0
1600,6240005015988,新規,0,2025-09-17,2025-09-17,医療法人修輝会,,その他の設立登記法人,広島県,広島市南区,東雲本町１丁目２番２７号,,34,103,7340023,,,,,,,2025-09-17,1,,,,,シュウキカイ,0
1604,6290001111340,新規,0,2025-09-17,2025-09-17,美留株式会社,,株式会社,福岡県,久留米市,国分町字中ノ田１４２５番地５,,40,203,8390863,,,,,,,2025-09-17,1,,,,,ミリュウ,0
1605,6290001111373,新規,0,2025-09-17,2025-09-17,株式会社ＡＮＧＥＬ,,株式会社,福岡県,福岡市中央区,渡辺通５丁目５番１０－４０１号,,40,133,8100004,,,,,,,2025-09-17,1,,,,,エンジェル,0
1606,6290001111398,新規,0,2025-09-17,2025-09-17,はちひめ舗道株式会社,,株式会社,福岡県,八女市,忠見２５７番地１,,40,210,8340014,,,,,,,2025-09-17,1,,,,,ハチヒメホドウ,0
1608,6290801031845,新規,0,2025-09-17,2025-09-17,株式会社ＷＨＣ,,株式会社,福岡県,北九州市八幡西区,藤原３丁目６番１３号,,40,109,8070873,,,,,,,2025-09-17,1,,,,,ダブリューエイチシー,0
1610,6290805009862,新規,0,2025-09-17,2025-09-17,特定非営利活動法人おかえりなさい,,その他の設立登記法人,福岡県,北九州市門司区,栄町９番１８号,,40,101,8010863,,,,,,,2025-09-17,1,,,,,オカエリナサイ,0
1617,6340001027655,新規,0,2025-09-17,2025-09-17,株式会社川北工業,,株式会社,鹿児島県,鹿児島市,東谷山５丁目１８番１０号,,46,201,8910113,,,,,,,2025-09-17,1,,,,,カワキタコウギョウ,0
1623,6350003005022,新規,0,2025-09-17,2025-09-17,Ｆｕｌｃｒｕｍ　Ｔｅｃｈｎｏｌｏｇｉｅｓ合同会社,,合同会社,宮崎県,宮崎市,大塚町横立１４５３番地６,,45,201,8800951,,,,,,,2025-09-17,1,,,,,フルクラムテクノロジーズ,0
1624,6360003015243,新規,0,2025-09-17,2025-09-17,合同会社ＦＩＮＥ,,合同会社,沖縄県,宜野湾市,真志喜２丁目２８番１１号マッキー８０２Ｘ号,,47,205,9012224,,,,,,,2025-09-17,1,,,,,ファイン,0
1628,6380001035571,新規,0,2025-09-17,2025-09-17,株式会社ＧＲＡＮＤ　ＢＬＵＥ,,株式会社,福島県,大沼郡会津美里町,立石田字北宅地甲６６番地,,07,447,9696411,,,,,,,2025-09-17,1,,,,,グランブルー,0
1629,6400003003532,新規,0,2025-09-17,2025-09-17,合同会社実来,,合同会社,岩手県,陸前高田市,高田町字大隅１０１番地１８,,03,210,0292205,,,,,,,2025-09-17,1,,,,,ミライ,0
1631,6410001014274,新規,0,2025-09-17,2025-09-17,株式会社くまかいじゅう,,株式会社,秋田県,仙北市,角館町田町下丁２５番地,,05,215,0140312,,,,,,,2025-09-17,1,,,,,,0
1641,6500001026517,新規,0,2025-09-17,2025-09-17,ヤマ雅地所株式会社,,株式会社,愛媛県,松山市,北斎院町３２番地１３,,38,201,7918031,,,,,,,2025-09-17,1,,,,,ヤマガジショ,0
1660,7010105002347,新規,0,2025-09-17,2025-09-17,一般社団法人民間救急・高度移動支援推進協議会,,その他の設立登記法人,東京都,八王子市,大楽寺町１９５番地１,,13,201,1930816,,,,,,,2025-09-17,1,,,,,ミンカンキュウキュウコウドイドウシエンスイシンキョウギカイ,0
1667,7010401193014,新規,0,2025-09-17,2025-09-17,株式会社Ｌｕｍｉｅｒｅ　Ｏｎｅ,,株式会社,東京都,港区,南青山２丁目１５－５ＦＡＲＯ青山１Ｆ,,13,103,1070062,,,,,,,2025-09-17,1,,,,,ルミエールワン,0
1669,7010403036030,新規,0,2025-09-17,2025-09-17,ＦＡＮ　ＤＯＳ合同会社,,合同会社,東京都,港区,南青山３丁目１番３６号青山丸竹ビル６Ｆ,,13,103,1070062,,,,,,,2025-09-17,1,,,,,ファンドス,0
1670,7010403036055,新規,0,2025-09-17,2025-09-17,ＤＸアドバイザリー合同会社,,合同会社,東京都,港区,北青山２丁目７―２０猪瀬ビル２Ｆ,,13,103,1070061,,,,,,,2025-09-17,1,,,,,ディーエックスアドバイザリー,0
1673,7010501054710,新規,0,2025-09-17,2025-09-17,株式会社セイリュウ不動産,,株式会社,東京都,台東区,西浅草２丁目２０番４号ヨコヤマビル５０１号室,,13,106,1110035,,,,,,,2025-09-17,1,,,,,セイリュウフドウサン,0
1674,7010501054727,新規,0,2025-09-17,2025-09-17,日本螺旋上昇株式会社,,株式会社,東京都,台東区,台東２丁目２７番３号ＮＳＫビル１０Ｆ,,13,106,1100016,,,,,,,2025-09-17,1,,,,,ニホンラセンジョウショウ,0
1675,7010501054735,新規,0,2025-09-17,2025-09-17,株式会社ＳｕｐｅｒＥａｓｙ,,株式会社,東京都,台東区,根岸１丁目１－３２－１２０１,,13,106,1100003,,,,,,,2025-09-17,1,,,,,スーパーイージー,0
1677,7010503007996,新規,0,2025-09-17,2025-09-17,明佳合同会社,,合同会社,東京都,台東区,元浅草１丁目６番１２号ＧＯＧＯオフィス御徒町７１５号室,,13,106,1110041,,,,,,,2025-09-17,1,,,,,メイカ,0
1683,7010803005543,新規,0,2025-09-17,2025-09-17,百宇合同会社,,合同会社,東京都,大田区,東海３丁目７番３号東海ビル４０４号,,13,111,1430001,,,,,,,2025-09-17,1,,,,,ヒャクウ,0
1685,7010901058063,新規,0,2025-09-17,2025-09-17,株式会社Ａｎｅｌａ,,株式会社,東京都,世田谷区,駒沢４丁目１８番２１号田中ハイツ３０１,,13,112,1540012,,,,,,,2025-09-17,1,,,,,アネラ,0
1686,7010903010237,新規,0,2025-09-17,2025-09-17,合同会社ビアンカサポート,,合同会社,東京都,世田谷区,玉川４丁目１４番１２号,,13,112,1580094,,,,,,,2025-09-17,1,,,,,ビアンカサポート,0
1692,7011001172036,新規,0,2025-09-17,2025-09-17,株式会社ＶＥＲＴＥＸ　ＴＯＫＹＯ,,株式会社,東京都,渋谷区,神南１丁目２０番４号ＶＯＲＴ渋谷ｂｒｉｌｌｅｒ８階,,13,113,1500041,,,,,,,2025-09-17,1,,,,,ヴェルテックストーキョー,0
1699,7011003021991,新規,0,2025-09-17,2025-09-17,合同会社ＨＡＩＹＡ,,合同会社,東京都,渋谷区,円山町５番３号ＭＩＥＵＸ渋谷ビル８階,,13,113,1500044,,,,,,,2025-09-17,1,,,,,ハイヤ,0
1701,7011101113121,新規,0,2025-09-17,2025-09-17,株式会社ＶＡＬＩＮＩＴＹ,,株式会社,東京都,新宿区,西新宿７丁目１６番１号コンシェルジュ高橋６０１,00140669,13,104,1600023,,,,,,,2025-09-17,1,,,,,ヴァリニティ,0
1702,7011101113253,新規,0,2025-09-17,2025-09-17,まるっと人事株式会社,,株式会社,東京都,新宿区,西新宿６丁目１０－１日土地西新宿ビル８階,,13,104,1600023,,,,,,,2025-09-17,1,,,,,マルットジンジ,0
1706,7011201026644,新規,0,2025-09-17,2025-09-17,株式会社ＧＡＴＥ,,株式会社,東京都,中野区,上高田１丁目７番１５号ルーアン２０６,,13,114,1640002,,,,,,,2025-09-17,1,,,,,ゲート,0
1707,7011205002708,新規,0,2025-09-17,2025-09-17,一般社団法人日本国際文化教育交流協会,,その他の設立登記法人,東京都,中野区,東中野４丁目１５番２号,,13,114,1640003,,,,,,,2025-09-17,1,,,,,ニホンコクサイブンカキョウイクコウリュウキョウカイ,0
1710,7011605002670,新規,0,2025-09-17,2025-09-17,特定非営利活動法人中華伝統文化協会,,その他の設立登記法人,東京都,練馬区,豊玉北１丁目９番２－７０４号,,13,120,1760012,,,,,,,2025-09-17,1,,,,,チュウカデントウブンカキョウカイ,0
1712,7011701028727,新規,0,2025-09-17,2025-09-17,株式会社ハローホーム城東,,株式会社,東京都,江戸川区,南小岩７丁目２６番２１号,,13,123,1330056,,,,,,,2025-09-17,1,,,,,ハローホームジョウトウ,0
1713,7011701028735,新規,0,2025-09-17,2025-09-17,株式会社ＥＬＩＸＩＲ,,株式会社,東京都,江戸川区,平井３丁目１９番６号,,13,123,1320035,,,,,,,2025-09-17,1,,,,,エリクサー,0
1715,7011801046678,新規,0,2025-09-17,2025-09-17,ＡＫＡ株式会社,,株式会社,東京都,足立区,西新井本町１丁目２０－６セザール西新井大師１０２,,13,121,1230845,,,,,,,2025-09-17,1,,,,,エーケーエー,0
1716,7011801046736,新規,0,2025-09-17,2025-09-17,良辰株式会社,,株式会社,東京都,葛飾区,金町２丁目２１－５－１１７室,,13,122,1250042,,,,,,,2025-09-17,1,,,,,リョウシン,0
1719,7012401043603,新規,0,2025-09-17,2025-09-17,ｔｏｎａｒｉ株式会社,,株式会社,東京都,三鷹市,下連雀４丁目１４－２０ＰＬＥＮＤＹ三鷹１階,,13,204,1810013,,,,,,,2025-09-17,1,,,,,トナリ,0
1723,7020001164793,新規,0,2025-09-17,2025-09-17,クアンタム投資顧問株式会社,,株式会社,神奈川県,横浜市神奈川区,金港町５－１４クアドリフォリオ８階,,14,102,2210056,,,,,,,2025-09-17,1,,,,,クアンタムトウシコモン,0
1724,7020001164835,新規,0,2025-09-17,2025-09-17,株式会社北埜住設,,株式会社,神奈川県,川崎市高津区,上作延３丁目１９番１２号ジュネスＭＴ２０３,,14,134,2130034,,,,,,,2025-09-17,1,,,,,キタノジュウセツ,0
1727,7020003029350,新規,0,2025-09-17,2025-09-17,合同会社ＩＦＹ,,合同会社,神奈川県,川崎市宮前区,野川本町３丁目２１番１９号,,14,136,2160041,,,,,,,2025-09-17,1,,,,,アイエフワイ,0
1740,7030001168678,新規,0,2025-09-17,2025-09-17,サンブリッジパートナー株式会社,,株式会社,埼玉県,さいたま市見沼区,東大宮５丁目４６番地１６,,11,104,3370051,,,,,,,2025-09-17,1,,,,,サンブリッジパートナー,0
1741,7030001168686,新規,0,2025-09-17,2025-09-17,株式会社滉翔,,株式会社,埼玉県,和光市,下新倉３丁目１７番３６号,,11,229,3510111,,,,,,,2025-09-17,1,,,,,コウショウ,0
1744,7030003027634,新規,0,2025-09-17,2025-09-17,合同会社Ｌｉｂｅｒｔａ,,合同会社,埼玉県,川口市,本町４丁目１－９－１００１,,11,203,3320012,,,,,,,2025-09-17,1,,,,,リベルタ,0
1748,7050001057268,新規,0,2025-09-17,2025-09-17,ＩＭＯＲＡ株式会社,,株式会社,茨城県,稲敷市,浮島字前浦６９７７－１４４－８号室,,08,229,3000641,,,,,,,2025-09-17,1,,,,,イモラ,0
1751,7070003006089,新規,0,2025-09-17,2025-09-17,合同会社ｏｎ,,合同会社,群馬県,みどり市,笠懸町阿佐美１４５２番地２メゾンルミエールＩＩ１０３号室,00140676,10,212,3760100,,,,,,,2025-09-17,1,,,,,オン,0
1753,7080003003556,新規,0,2025-09-17,2025-09-17,ＫＩＳ合同会社,,合同会社,静岡県,静岡市葵区,北安東２丁目１２番８－４号,,22,101,4200881,,,,,,,2025-09-17,1,,,,,ケイアイエス,0
1757,7080101025790,新規,0,2025-09-17,2025-09-17,株式会社ビークリーン,,株式会社,静岡県,沼津市,新沢田町８番２２号,,22,203,4100003,,,,,,,2025-09-17,1,,,,,ビークリーン,0
1761,7080403005350,新規,0,2025-09-17,2025-09-17,合同会社ケノヒ,,合同会社,静岡県,掛川市,秋葉路１６番地の８,,22,213,4360041,,,,,,,2025-09-17,1,,,,,ケノヒ,0
1762,7090005007736,新規,0,2025-09-17,2025-09-17,一般社団法人ｔａｂａｎｏｎｅ,,その他の設立登記法人,山梨県,北都留郡丹波山村,２５６２番地,,19,443,4090300,,,,,,,2025-09-17,1,,,,,タバノネ,0
1767,7110003005887,新規,0,2025-09-17,2025-09-17,合同会社ルーツ,,合同会社,新潟県,長岡市,巻島１丁目２９番地,,15,202,9402005,,,,,,,2025-09-17,1,,,,,ルーツ,0
1774,7120001279268,新規,0,2025-09-17,2025-09-17,株式会社Ｂｒｉｇｈｔ,,株式会社,大阪府,大阪市中央区,南久宝寺町４丁目４－１新御堂ビル５０２－４,,27,128,5410058,,,,,,,2025-09-17,1,,,,,ブライト,0
1775,7120001279664,新規,0,2025-09-17,2025-09-17,ＶＩＭ‐ＡＲＴ　ＩＮＴＥＲＮＡＴＩＯＮＡＬ株式会社,,株式会社,大阪府,大阪市住之江区,中加賀屋３丁目４－２１－２０３号,,27,125,5590017,,,,,,,2025-09-17,1,,,,,ビムアートインターナショナル,0
1776,7120001279680,新規,0,2025-09-17,2025-09-17,一衣帯水株式会社,,株式会社,大阪府,大阪市鶴見区,今津北５丁目１１番２１－２０１号,,27,124,5380041,,,,,,,2025-09-17,1,,,,,イチイタイスイ,0
1777,7120001279887,新規,0,2025-09-17,2025-09-17,株式会社ＲＫＴ　Ｂｕｉｌｄｅｒ　Ｗｏｒｋｓ,,株式会社,大阪府,大阪市淀川区,加島３丁目６番１９号,,27,123,5320031,,,,,,,2025-09-17,1,,,,,アールケーティービルダーワークス,0
1778,7120001279904,新規,0,2025-09-17,2025-09-17,株式会社ＥＴＥＲＮＯ,,株式会社,大阪府,大阪市西区,西本町２丁目１番４１号インテリンクス西本町ビル８０２,,27,106,5500005,,,,,,,2025-09-17,1,,,,,エテルノ,0
1788,7120101072416,新規,0,2025-09-17,2025-09-17,株式会社知,,株式会社,大阪府,堺市南区,釜室１６５番地１,,27,145,5900122,,,,,,,2025-09-17,1,,,,,シル,0
1789,7120101072432,新規,0,2025-09-17,2025-09-17,匯啓株式会社,,株式会社,大阪府,阪南市,貝掛６３番３号シーサイド貝掛Ｂ棟４０９号室,,27,232,5990231,,,,,,,2025-09-17,1,,,,,カイケイ,0
1800,7130003010778,新規,0,2025-09-17,2025-09-17,ＬＯＷＩ合同会社,,合同会社,京都府,京都市左京区,北白川山田町２８番地１,,26,103,6068272,,,,,,,2025-09-17,1,,,,,ロウィ,0
1810,7170001018786,新規,0,2025-09-17,2025-09-17,株式会社幸喜商店,,株式会社,和歌山県,岩出市,金池１６４番地の４,,30,209,6496256,,,,,,,2025-09-17,1,,,,,コウキショウテン,0
1821,7180001168572,新規,0,2025-09-17,2025-09-17,株式会社ＣｒｙｐｔｏＣｌｉｍｂｉｎｇ,,株式会社,愛知県,名古屋市西区,那古野２丁目１０番１８号（ＯＫＢアヴェニール菊井町５０１号）,,23,104,4510042,,,,,,,2025-09-17,1,,,,,クリプトクライミング,0
1822,7180001168639,新規,0,2025-09-17,2025-09-17,株式会社ＡＮＥＳＡ建設,,株式会社,愛知県,瀬戸市,坂上町４３４番地の５,,23,204,4890977,,,,,,,2025-09-17,1,,,,,アネサケンセツ,0
1826,7180003028989,新規,0,2025-09-17,2025-09-17,ＴＨＩＮＨ　ＰＨＡＴ合同会社,,合同会社,愛知県,名古屋市港区,名港１丁目４番２０号橋元ビル２０８号室,,23,111,4550037,,,,,,,2025-09-17,1,,,,,ティンファット,0
1835,7230001021081,新規,0,2025-09-17,2025-09-17,Ｓｏｌａｒｉｓ株式会社,,株式会社,富山県,富山市,湊入船町１３番地１４村松ビル４Ｆ,,16,201,9300805,,,,,,,2025-09-17,1,,,,,ソラリス,0
1839,7240001065482,新規,0,2025-09-17,2025-09-17,株式会社イーフルサポート,,株式会社,広島県,広島市佐伯区,五日市中央６丁目１番６７－６０４号,,34,108,7315128,,,,,,,2025-09-17,1,,,,,イーフルサポート,0
1840,7240005015987,新規,0,2025-09-17,2025-09-17,医療法人寺谷歯科医院,,その他の設立登記法人,広島県,呉市,広大新開１丁目３番２７号,,34,202,7370141,,,,,,,2025-09-17,1,,,,,テラタニシカシカイイン,0
1842,7260001040558,新規,0,2025-09-17,2025-09-17,日本災害救助艇研究所株式会社,,株式会社,岡山県,岡山市北区,奉還町２丁目８番１５号,,33,101,7000026,,,,,,,2025-09-17,1,,,,,ニホンサイガイキュウジョテイケンキュウジョ,0
1847,7260005011522,新規,0,2025-09-17,2025-09-17,一般社団法人おかやま地域未来づくり協議会,,その他の設立登記法人,岡山県,岡山市東区,松新町４３２番地１,,33,103,7048174,,,,,,,2025-09-17,1,,,,,オカヤマチイキミライヅクリキョウギカイ,0
1853,7290001111348,新規,0,2025-09-17,2025-09-17,株式会社九州総建,,株式会社,福岡県,福岡市東区,名子３丁目１１番２４号,,40,131,8130024,,,,,,,2025-09-17,1,,,,,キュウシュウソウケン,0
1854,7290001111356,新規,0,2025-09-17,2025-09-17,株式会社羽野園芸,,株式会社,福岡県,朝倉市,長田４１５番地２,,40,228,8380043,,,,,,,2025-09-17,1,,,,,ハノエンゲイ,0
1855,7290001111372,新規,0,2025-09-17,2025-09-17,ホッタビル株式会社,,株式会社,福岡県,福岡市東区,原田４丁目３０番２７号アンピール箱崎東４１０号室,,40,131,8120063,,,,,,,2025-09-17,1,,,,,ホッタビル,0
1856,7290001111397,新規,0,2025-09-17,2025-09-17,株式会社タビオ,,株式会社,福岡県,福岡市中央区,天神２丁目１１番１号,,40,133,8100001,,,,,,,2025-09-17,1,,,,,タビオ,0
1858,7290003017361,新規,0,2025-09-17,2025-09-17,合同会社ジェイケイ企画,,合同会社,福岡県,筑紫野市,紫１丁目２４番２７号,,40,217,8180061,,,,,,,2025-09-17,1,,,,,ジェイケイキカク,0
1867,7340001027662,新規,0,2025-09-17,2025-09-17,株式会社勇徳エキスプレス,,株式会社,鹿児島県,いちき串木野市,西島平町１４番地,,46,219,8960032,,,,,,,2025-09-17,1,,,,,ユウトクエキスプレス,0
1869,7360001035787,新規,0,2025-09-17,2025-09-17,株式会社エムハウジング,,株式会社,沖縄県,名護市,東江４丁目７番５号２Ｆ,,47,209,9050021,,,,,,,2025-09-17,1,,,,,エムハウジング,0
1872,7380001035579,新規,0,2025-09-17,2025-09-17,株式会社涼加建設工業,,株式会社,福島県,本宮市,本宮字欠下１６番地,,07,214,9691161,,,,,,,2025-09-17,1,,,,,スズカケンセツコウギョウ,0
1874,7410001014273,新規,0,2025-09-17,2025-09-17,株式会社ＫＹＳアセット,,株式会社,秋田県,湯沢市,清水町５丁目２番３６号,,05,207,0120033,,,,,,,2025-09-17,1,,,,,ケイワイエスアセット,0
1875,7420001019271,新規,0,2025-09-17,2025-09-17,株式会社ｉ’ｔ,,株式会社,青森県,八戸市,田向２丁目５番２６号,,02,203,0310011,,,,,,,2025-09-17,1,,,,,イット,0
1880,7430001095205,新規,0,2025-09-17,2025-09-17,株式会社シンシア,,株式会社,北海道,札幌市中央区,南四条西１０丁目１０１０－３サンシャインシティ２１・２２１号室,,01,101,0640804,,,,,,,2025-09-17,1,,,,,シンシア,0
1885,7460103001743,新規,0,2025-09-17,2025-09-17,合同会社Ｓｕｎ　Ｂｒｉｄｇｅ,,合同会社,北海道,帯広市,東四条南２０丁目３番地４,,01,207,0800804,,,,,,,2025-09-17,1,,,,,サンブリッジ,0
1888,7470001020893,新規,0,2025-09-17,2025-09-17,株式会社利華,,株式会社,香川県,高松市,本町９－３白井ビル５０２,,37,201,7600032,,,,,,,2025-09-17,1,,,,,,0
1904,8010001258422,新規,0,2025-09-17,2025-09-17,株式会社アセンディア・パートナーズ,,株式会社,東京都,千代田区,二番町９番３号ＴＨＥ＿ＢＡＳＥ麹町１階,,13,101,1020084,,,,,,,2025-09-17,1,,,,,アセンディアパートナーズ,0
1908,8010003048706,新規,0,2025-09-17,2025-09-17,ＶＡＵＬＴ‐ＣＲＥＷ合同会社,,合同会社,東京都,中央区,銀座１丁目１２番４号Ｎ＆ＥＢＬＤ．７階,,13,102,1040061,,,,,,,2025-09-17,1,,,,,ヴォルトクルー,0
1909,8010003048739,新規,0,2025-09-17,2025-09-17,合同会社バルトロ,,合同会社,東京都,中央区,晴海５丁目４番５－９０３号,,13,102,1040053,,,,,,,2025-09-17,1,,,,,,0
1911,8010005040677,新規,0,2025-09-17,2025-09-17,ＡＭ　ａｌｐｈａ　Ｊａｐａｎ特定目的会社,,その他の設立登記法人,東京都,千代田区,霞が関３丁目２番５号,,13,101,1000013,,,,,,,2025-09-17,1,,,,,エーエムアルファジャパン,0
1915,8010103002653,新規,0,2025-09-17,2025-09-17,合同会社ＪＯＢ,,合同会社,東京都,八王子市,三崎町４番１１号トーネンビル５階,,13,201,1920084,,,,,,,2025-09-17,1,,,,,ジョブ,0
1922,8010405024718,新規,0,2025-09-17,2025-09-17,一般社団法人植物性シリカ普及協会,,その他の設立登記法人,東京都,港区,赤坂２丁目１６番６号,,13,103,1070052,,,,,,,2025-09-17,1,,,,,ショクブツセイシリカフキュウキョウカイ,0
1926,8010501054718,新規,0,2025-09-17,2025-09-17,株式会社ＯＭＬ,,株式会社,東京都,台東区,千束４丁目３３－１４,,13,106,1110031,,,,,,,2025-09-17,1,,,,,オーエムエル,0
1927,8010501054726,新規,0,2025-09-17,2025-09-17,ビーブリッジ株式会社,,株式会社,東京都,台東区,根岸５丁目４番６号,,13,106,1100003,,,,,,,2025-09-17,1,,,,,ビーブリッジ,0
1928,8010503007979,新規,0,2025-09-17,2025-09-17,合同会社Ｓｏｌｕｒａ,,合同会社,東京都,台東区,下谷１丁目４－５瑞橙ビル２Ｆ,,13,106,1100004,,,,,,,2025-09-17,1,,,,,,0
1931,8010701048305,新規,0,2025-09-17,2025-09-17,Ｇ‐ＳｅｌｅＱｔ株式会社,,株式会社,東京都,品川区,荏原１丁目３番２１号,,13,109,1420063,,,,,,,2025-09-17,1,,,,,ジーセレクト,0
1937,8010903010260,新規,0,2025-09-17,2025-09-17,ナンクルナイサ合同会社,,合同会社,東京都,世田谷区,弦巻３丁目９番８号ルミークアン桜新町２０６,,13,112,1540016,,,,,,,2025-09-17,1,,,,,ナンクルナイサ,0
1942,8011001172407,新規,0,2025-09-17,2025-09-17,株式会社ココカラ,,株式会社,東京都,渋谷区,円山町５番３号ＭＩＥＵＸ渋谷ビル８階,,13,113,1500044,,,,,,,2025-09-17,1,,,,,ココカラ,0
1944,8011003022428,新規,0,2025-09-17,2025-09-17,合同会社マーケットデータバンク,,合同会社,東京都,渋谷区,恵比寿西２丁目４番８号ウィンド恵比寿ビル８Ｆ,,13,113,1500021,,,,,,,2025-09-17,1,,,,,マーケットデータバンク,0
1945,8011003022460,新規,0,2025-09-17,2025-09-17,合同会社ＡｃｅｓＬａｂ,,合同会社,東京都,渋谷区,恵比寿西２丁目８番４号ＥＸ恵比寿西ビル５階,,13,113,1500021,,,,,,,2025-09-17,1,,,,,,0
1948,8011101113203,新規,0,2025-09-17,2025-09-17,千味株式会社,,株式会社,東京都,新宿区,上落合１丁目７－１３Ｓｔｅｐｃｌｏｕｄ上落合Ｉ－１０１号室,,13,104,1610034,,,,,,,2025-09-17,1,,,,,センミ,0
1949,8011101113269,新規,0,2025-09-17,2025-09-17,株式会社シュピーレン,,株式会社,東京都,新宿区,西新宿２丁目３番３号ＫＤＤＩアネックスビル１階,,13,104,1600023,,,,,,,2025-09-17,1,,,,,シュピーレン,0
1951,8011103016354,新規,0,2025-09-17,2025-09-17,ＣｏｄｅＬａｂｏ合同会社,,合同会社,東京都,新宿区,西新宿３丁目３番１３号西新宿水間ビル２Ｆ,,13,104,1600023,,,,,,,2025-09-17,1,,,,,コードラボ,0
1952,8011103016362,新規,0,2025-09-17,2025-09-17,合同会社Ｓａｆｉｘ,,合同会社,東京都,新宿区,西新宿３丁目３番１３号西新宿水間ビル６階,,13,104,1600023,,,,,,,2025-09-17,1,,,,,セフィックス,0
1958,8011501032572,新規,0,2025-09-17,2025-09-17,邦和株式会社,,株式会社,東京都,荒川区,南千住８丁目６番３－１６１２号,,13,118,1160003,,,,,,,2025-09-17,1,,,,,ホウワ,0
1961,8011603004841,新規,0,2025-09-17,2025-09-17,合同会社ＳＥＮＡＭＡＬ,,合同会社,東京都,練馬区,氷川台２丁目４番６号ライフピアエスプリ１０１号室,,13,120,1790084,,,,,,,2025-09-17,1,,,,,セナマル,0
1963,8011701028734,新規,0,2025-09-17,2025-09-17,株式会社ＤＵＯ,,株式会社,東京都,江戸川区,平井３丁目１９番６号,,13,123,1320035,,,,,,,2025-09-17,1,,,,,デュオ,0
1971,8013101009793,新規,0,2025-09-17,2025-09-17,株式会社ｍｏ‐ｇｕｚ,,株式会社,東京都,青梅市,勝沼２丁目３２６番地の４,,13,205,1980041,,,,,,,2025-09-17,1,,,,,モーグズ,0
1972,8013101009802,新規,0,2025-09-17,2025-09-17,株式会社会,,株式会社,東京都,あきる野市,留原１５２－１,,13,228,1900152,,,,,,,2025-09-17,1,,,,,カイ,0
1974,8013301054961,新規,0,2025-09-17,2025-09-17,株式会社六創堂,,株式会社,東京都,豊島区,池袋２丁目５０番４号プライムアーバン池袋１３０７号,,13,116,1710014,,,,,,,2025-09-17,1,,,,,ロクソウドウ,0
1975,8013303007868,新規,0,2025-09-17,2025-09-17,ａｔｒｉａｇａｔｅ合同会社,,合同会社,東京都,豊島区,東池袋２丁目６２番８号ＢＩＧオフィスプラザ池袋１２０６,,13,116,1700013,,,,,,,2025-09-17,1,,,,,アトリアゲート,0
1980,8020001164867,新規,0,2025-09-17,2025-09-17,株式会社やひろ,,株式会社,神奈川県,横浜市西区,北幸１丁目１１番１号水信ビル７階,,14,103,2200004,,,,,,,2025-09-17,1,,,,,ヤヒロ,0
1986,8021001086283,新規,0,2025-09-17,2025-09-17,株式会社ＹＭ　Ｐｒｅｓｔｉｇｅ,,株式会社,神奈川県,厚木市,旭町４丁目３番７号,,14,212,2430014,,,,,,,2025-09-17,1,,,,,ワイエムプレステージ,0
1987,8021003016536,新規,0,2025-09-17,2025-09-17,ＳＨＡＮ　ＭＯＴＯＲＳ合同会社,,合同会社,神奈川県,綾瀬市,落合南２丁目２７－２４シティハイムアキヤマ２０１,,14,218,2521115,,,,,,,2025-09-17,1,,,,,シャンモータース,0
1994,8030001168520,新規,0,2025-09-17,2025-09-17,株式会社幸,,株式会社,埼玉県,桶川市,大字坂田１２１４番地の１８７,,11,231,3630008,,,,,,,2025-09-17,1,,,,,サチ,0
1995,8030001168677,新規,0,2025-09-17,2025-09-17,株式会社ルキナス,,株式会社,埼玉県,朝霞市,朝志ケ丘２丁目１２番１６号ＧＡＬＬＡＲＩＡ１０２,,11,227,3510035,,,,,,,2025-09-17,1,,,,,ルキナス,0
1996,8030001168685,新規,0,2025-09-17,2025-09-17,株式会社鈴木工務店,,株式会社,埼玉県,川口市,大字東本郷５４０番地の１３,,11,203,3340063,,,,,,,2025-09-17,1,,,,,スズキコウムテン,0
1998,8030003027600,新規,0,2025-09-17,2025-09-17,にこにこ合同会社,,合同会社,埼玉県,川口市,大字安行領家８８番地の３,,11,203,3340058,,,,,,,2025-09-17,1,,,,,ニコニコ,0
2001,8030005022269,新規,0,2025-09-17,2025-09-17,一般社団法人保護犬猫支援センター,,その他の設立登記法人,埼玉県,久喜市,鷲宮２７４０番地１,,11,232,3400217,,,,,,,2025-09-17,1,,,,,ホゴイヌネコシエンセンター,0
2003,8040001140536,新規,0,2025-09-17,2025-09-17,株式会社衝劇波,,株式会社,千葉県,柏市,中央２丁目１２番２号,,12,217,2770023,,,,,,,2025-09-17,1,,,,,ショウゲキハ,0
2012,8050001057283,新規,0,2025-09-17,2025-09-17,株式会社かしの,,株式会社,茨城県,水戸市,金町２丁目１番１１号,,08,201,3100066,,,,,,,2025-09-17,1,,,,,カシノ,0
2014,8050003009571,新規,0,2025-09-17,2025-09-17,蘭ＡＩ科学技術建築設計合同会社,,合同会社,茨城県,取手市,宮和田５３６番地１６グリーンコーポ藤代１号棟１０７,,08,217,3001514,,,,,,,2025-09-17,1,,,,,ランエイアイカガクギジュツケンチクセッケイ,0
2017,8080103003422,新規,0,2025-09-17,2025-09-17,合同会社Ｄｒｅａｍｓ,,合同会社,静岡県,富士宮市,大岩５８６番地の３,,22,207,4180013,,,,,,,2025-09-17,1,,,,,ドリームス,0
2024,8090005007735,新規,0,2025-09-17,2025-09-17,一般社団法人日本ヨガアーサナスポーツ連盟,,その他の設立登記法人,山梨県,南都留郡山中湖村,平野２９７６番地の４、ハウスＥグリーンタウン５９－２,,19,425,4010502,,,,,,,2025-09-17,1,,,,,ニホンヨガアーサナスポーツレンメイ,0
2032,8110003005886,新規,0,2025-09-17,2025-09-17,合同会社ヨルミナ,,合同会社,新潟県,新潟市西区,松美台８番６９号,,15,107,9502072,,,,,,,2025-09-17,1,,,,,ヨルミナ,0
2044,8120001279556,新規,0,2025-09-17,2025-09-17,泰頂株式会社,,株式会社,大阪府,大阪市淀川区,十三本町１丁目１８－７－６０５,,27,123,5320024,,,,,,,2025-09-17,1,,,,,タイチョウ,0
2048,8120003030529,新規,0,2025-09-17,2025-09-17,合同会社ＨＴ,,合同会社,大阪府,枚方市,東香里元町１４番２５号坂上ハイツ１０６号,,27,210,5730076,,,,,,,2025-09-17,1,,,,,エイチティ,0
2049,8120003030561,新規,0,2025-09-17,2025-09-17,Ｋｎｉｔ　Ｍａｎａｇｅｍｅｎｔ　Ｃｏｎｓｕｌｔｉｎｇ　Ｊａｐａｎ合同会社,,合同会社,大阪府,大阪市西区,江戸堀２丁目１－１、江戸堀センタービル９階,,27,106,5500002,,,,,,,2025-09-17,1,,,,,ニットマネージメントコンサルティングジャパン,0
2050,8120003030685,新規,0,2025-09-17,2025-09-17,合同会社Ｃｒｙｐｔｏ,,合同会社,大阪府,大阪市住吉区,長居４丁目９番２３号,,27,120,5580003,,,,,,,2025-09-17,1,,,,,クリプト,0
2052,8120005025163,新規,0,2025-09-17,2025-09-17,一般社団法人ＩＫＥＺＡＫＩ　ｍｅｄｉｃａｌ,,その他の設立登記法人,大阪府,大阪市北区,本庄東１丁目６番２１号６Ｆ,,27,127,5310074,,,,,,,2025-09-17,1,,,,,イケザキメディカル,0
2056,8120101072407,新規,0,2025-09-17,2025-09-17,三宅西都市開発株式会社,,株式会社,大阪府,松原市,天美南１丁目９８番地の２２,,27,217,5800033,,,,,,,2025-09-17,1,,,,,ミヤケニシトシカイハツ,0
2057,8120101072431,新規,0,2025-09-17,2025-09-17,株式会社ＪｏｂＶｅｒｓ,,株式会社,大阪府,貝塚市,水間２５８番地６サンメディカルビル３階,,27,208,5970104,,,,,,,2025-09-17,1,,,,,ジョブバース,0
2058,8120101072448,新規,0,2025-09-17,2025-09-17,栄志不動産株式会社,,株式会社,大阪府,岸和田市,小松里町４６２番地の７オーブ光学技研事務所２階２号室,,27,202,5960821,,,,,,,2025-09-17,1,,,,,エイシフドウサン,0
2070,8130001080566,新規,0,2025-09-17,2025-09-17,株式会社くらしかむ,,株式会社,京都府,京都市伏見区,西町３９３番地,,26,109,6128354,,,,,,,2025-09-17,1,,,,,クラシカム,0
2073,8130003010760,新規,0,2025-09-17,2025-09-17,合同会社首里の杜,,合同会社,京都府,京都市下京区,東洞院通高辻上る高橋町６１９番地,00140680,26,106,6008096,,,,,,,2025-09-17,1,,,,,シュリノモリ,0
2074,8130003010777,新規,0,2025-09-17,2025-09-17,ＺＥＮＦＩＮＡ合同会社,,合同会社,京都府,京都市左京区,北白川山田町２８番地１,,26,103,6068272,,,,,,,2025-09-17,1,,,,,ゼンフィナ,0
2075,8130003010785,新規,0,2025-09-17,2025-09-17,合同会社ヤマモト,,合同会社,京都府,京都市左京区,下鴨南茶ノ木町４４番地３,,26,103,6060845,,,,,,,2025-09-17,1,,,,,ヤマモト,0
2076,8130005017457,新規,0,2025-09-17,2025-09-17,一般社団法人武信基金,,その他の設立登記法人,京都府,京都市西京区,下津林東芝ノ宮町２４番地,,26,111,6158034,,,,,,,2025-09-17,1,,,,,タケノブキキン,0
2081,8140001140055,新規,0,2025-09-17,2025-09-17,株式会社ＳＨＩＥＬＤ,,株式会社,兵庫県,芦屋市,岩園町１番８号,,28,206,6590013,,,,,,,2025-09-17,1,,,,,シールド,0
2086,8140005027629,新規,0,2025-09-17,2025-09-17,行政書士法人吉村防災システム,,その他の設立登記法人,兵庫県,明石市,魚住町西岡８６９番１号イングランド・リッチ１０３号室,,28,203,6740084,,,,,,,2025-09-17,1,,,,,ヨシムラボウサイシステム,0
2089,8160003003605,新規,0,2025-09-17,2025-09-17,合同会社びわこ,,合同会社,滋賀県,大津市,茶が崎４番１－６２６号,,25,201,5200023,,,,,,,2025-09-17,1,,,,,ビワコ,0
2105,8180003028988,新規,0,2025-09-17,2025-09-17,ＨＩＭ　ＳＴＯＲＥ合同会社,,合同会社,愛知県,名古屋市中区,栄５丁目１８番５号（フィレンツェ栄３０３号）,,23,106,4600008,,,,,,,2025-09-17,1,,,,,ヒムストア,0
2106,8180003028996,新規,0,2025-09-17,2025-09-17,合同会社ＫｙｏＲｅｙｅｓ,,合同会社,愛知県,名古屋市守山区,廿軒家７番１３号,,23,113,4630065,,,,,,,2025-09-17,1,,,,,キョウレイエス,0
2110,8190003005169,新規,0,2025-09-17,2025-09-17,タクミ・ネクサス合同会社,,合同会社,三重県,三重郡川越町,大字豊田一色１７５番地５,,24,344,5108123,,,,,,,2025-09-17,1,,,,,タクミネクサス,0
2116,8200003007023,新規,0,2025-09-17,2025-09-17,Ｓｙｅｄ　ｍｏｔｏｒｓ合同会社,,合同会社,岐阜県,岐阜市,折立長瀬４７９－１８朝霧コーポ１０５号室,,21,201,5011132,,,,,,,2025-09-17,1,,,,,サイヤドモータース,0
2121,8240001065507,新規,0,2025-09-17,2025-09-17,株式会社Ｒｉ‐ｍｅｌ,,株式会社,広島県,廿日市市,宮内１８１８－１,,34,213,7380034,,,,,,,2025-09-17,1,,,,,リメル,0
2125,8240005015986,新規,0,2025-09-17,2025-09-17,医療法人皐薫会,,その他の設立登記法人,広島県,広島市東区,牛田本町６丁目１番２７号６階,,34,102,7320066,,,,,,,2025-09-17,1,,,,,コウクンカイ,0
2126,8250001021335,新規,0,2025-09-17,2025-09-17,のぐるめ興産株式会社,,株式会社,山口県,下関市,幡生宮の下町２８番８号,,35,201,7510829,,,,,,,2025-09-17,1,,,,,ノグルメコウサン,0
2134,8290001111363,新規,0,2025-09-17,2025-09-17,ローレ株式会社,,株式会社,福岡県,大牟田市,大字歴木１８０７番地７９,,40,202,8370924,,,,,,,2025-09-17,1,,,,,ローレ,0
2140,8290003017360,新規,0,2025-09-17,2025-09-17,合同会社Ｈｅａｒｔ　Ｂｅａｔ,,合同会社,福岡県,糟屋郡志免町,南里４丁目５番１０－１０１号,,40,343,8112207,,,,,,,2025-09-17,1,,,,,ハートビート,0
2141,8290003017369,新規,0,2025-09-17,2025-09-17,合同会社セキュリティリンク,,合同会社,福岡県,福岡市早良区,西新５丁目１２－８,,40,137,8140002,,,,,,,2025-09-17,1,,,,,セキュリティリンク,0
2147,8320001021344,新規,0,2025-09-17,2025-09-17,持永不動産鑑定株式会社,,株式会社,大分県,大分市,金池町１丁目６番１号,,44,201,8700026,,,,,,,2025-09-17,1,,,,,モチナガフドウサンカンテイ,0
2159,8350001019732,新規,0,2025-09-17,2025-09-17,株式会社吉野商事,,株式会社,宮崎県,西都市,大字三宅２６４７番地,,45,208,8810005,,,,,,,2025-09-17,1,,,,,ヨシノショウジ,0
2166,8380001035586,新規,0,2025-09-17,2025-09-17,株式会社Ｒｉｖｒａ,,株式会社,福島県,いわき市,小名浜住吉字道下２番地の１道下ハウスＢ,,07,204,9718124,,,,,,,2025-09-17,1,,,,,リヴラ,0
2191,8480003002319,新規,0,2025-09-17,2025-09-17,合同会社むつらぼし,,合同会社,徳島県,板野郡上板町,泉谷字原中筋２９番地１,,36,405,7711310,,,,,,,2025-09-17,1,,,,,,0
2196,8700150132242,新規,0,2025-09-17,2025-09-17,東近江地区土地改良区,,その他,滋賀県,東近江市,八日市緑町２７番１７号,,25,213,5270023,,,,,,,2025-09-17,1,,,,,ヒガシオウミチクトチカイリヨウク,0
2206,9010003047970,新規,0,2025-09-17,2025-09-17,ゴージェット合同会社,,合同会社,東京都,中央区,湊３丁目３番３号エルパティオみなと１Ｆ,,13,102,1040043,,,,,,,2025-09-17,1,,,,,ゴージェット,0
2209,9010005040684,新規,0,2025-09-17,2025-09-17,特定非営利活動法人のびのび,,その他の設立登記法人,東京都,八丈島八丈町,大賀郷２３９７番地,,13,401,1001401,,,,,,,2025-09-17,1,,,,,ノビノビ,0
2210,9010101016869,新規,0,2025-09-17,2025-09-17,明基地所株式会社,,株式会社,東京都,八王子市,八幡町８－４安藤ビル１Ｆ,,13,201,1920053,,,,,,,2025-09-17,1,,,,,メイキヂショ,0
2213,9010401193086,新規,0,2025-09-17,2025-09-17,Ｎｅｘｏｒａ　Ｌｉｖｉｎｇ株式会社,,株式会社,東京都,港区,赤坂２丁目１７番５０号１９１５室,,13,103,1070052,,,,,,,2025-09-17,1,,,,,ネクソラリビング,0
2214,9010401193152,新規,0,2025-09-17,2025-09-17,株式会社Ｄｅｎｔａ　Ｂｒｉｄｇｅ,,株式会社,東京都,港区,芝浦２丁目１４－１３加瀬ビル１６１－４階,,13,103,1080023,,,,,,,2025-09-17,1,,,,,デンタブリッジ,0
2220,9010501054709,新規,0,2025-09-17,2025-09-17,嘉信株式会社,,株式会社,東京都,台東区,上野６丁目７番１６号川久保ビル４１２号室,,13,106,1100005,,,,,,,2025-09-17,1,,,,,,0
2221,9010501054717,新規,0,2025-09-17,2025-09-17,晶の東宝飾株式会社,,株式会社,東京都,台東区,柳橋２丁目１９－１０第二東商センター２号館４２０室,,13,106,1110052,,,,,,,2025-09-17,1,,,,,ショウノアズマホウショク,0
2227,9010601067981,新規,0,2025-09-17,2025-09-17,株式会社ＨＹ,,株式会社,東京都,江東区,亀戸５丁目３２番９号,,13,108,1360071,,,,,,,2025-09-17,1,,,,,エイチワイ,0
2229,9010701048304,新規,0,2025-09-17,2025-09-17,ｍｉｒＡＩｅ株式会社,,株式会社,東京都,品川区,東大井３丁目２０番４号２階,,13,109,1400011,,,,,,,2025-09-17,1,,,,,ミライエ,0
2235,9010901058086,新規,0,2025-09-17,2025-09-17,Ｈｅｒｏ　ｍａｒｋｅｔｉｎｇ株式会社,,株式会社,東京都,世田谷区,上馬１丁目３３番３－１０２号,,13,112,1540011,,,,,,,2025-09-17,1,,,,,ヒーローマーケティング,0
2242,9011001171977,新規,0,2025-09-17,2025-09-17,ＳｗｉｆｔＧｒｏｗｔｈ株式会社,,株式会社,東京都,渋谷区,円山町５番５号Ｎａｖｉ渋谷Ｖ３階,,13,113,1500044,,,,,,,2025-09-17,1,,,,,スイフトグロース,0
2243,9011001172018,新規,0,2025-09-17,2025-09-17,株式会社ＫＥｒａ,,株式会社,東京都,渋谷区,広尾２丁目７番２０号,,13,113,1500012,,,,,,,2025-09-17,1,,,,,ケーエラ,0
2245,9011101113111,新規,0,2025-09-17,2025-09-17,株式会社ＥＭＰＡＴＩＡ,,株式会社,東京都,新宿区,下落合１丁目３番１６－４０４号,,13,104,1610033,,,,,,,2025-09-17,1,,,,,エンパティア,0
2246,9011101113268,新規,0,2025-09-17,2025-09-17,哲晟株式会社,,株式会社,東京都,新宿区,富久町３２－３東新富久町ビル３０７号室,,13,104,1620067,,,,,,,2025-09-17,1,,,,,テッセイ,0
2248,9011103016353,新規,0,2025-09-17,2025-09-17,合同会社ランポ,,合同会社,東京都,新宿区,西新宿６丁目５番１号,,13,104,1600023,,,,,,,2025-09-17,1,,,,,ランポ,0
2249,9011201026601,新規,0,2025-09-17,2025-09-17,株式会社ウサラボ,,株式会社,東京都,中野区,東中野１丁目５６番５号ホシノビル３Ｆ,,13,114,1640003,,,,,,,2025-09-17,1,,,,,ウサラボ,0
2251,9011501032563,新規,0,2025-09-17,2025-09-17,蘭跡株式会社,,株式会社,東京都,北区,西ケ原３丁目５４－８キングビル２０６号,,13,117,1140024,,,,,,,2025-09-17,1,,,,,ランセキ,0
2253,9011601028981,新規,0,2025-09-17,2025-09-17,ＧＣＩ株式会社,,株式会社,東京都,練馬区,春日町６丁目１６番１１フォーチュン光が丘２６２号室,,13,120,1790074,,,,,,,2025-09-17,1,,,,,ジーシーアイ,0
2254,9011603004840,新規,0,2025-09-17,2025-09-17,合同会社ＨＯＳＨＩＮＯ,,合同会社,東京都,練馬区,高野台１丁目３番７－１２０１号,,13,120,1770033,,,,,,,2025-09-17,1,,,,,ホシノ,0
2255,9011701028725,新規,0,2025-09-17,2025-09-17,Ｎｏｖｉｅｎｔ　Ｔｈｅｒａｐｅｕｔｉｘ株式会社,,株式会社,東京都,江戸川区,東小岩６丁目３６番３号,,13,123,1330052,,,,,,,2025-09-17,1,,,,,ノヴィエントセラピューティクス,0
2259,9012701019078,新規,0,2025-09-17,2025-09-17,株式会社榛原工業,,株式会社,東京都,東久留米市,八幡町１丁目７番２３号,,13,222,2030042,,,,,,,2025-09-17,1,,,,,ハイバラコウギョウ,0
2263,9013301054952,新規,0,2025-09-17,2025-09-17,株式会社Ｒｉｄｌｅｙ,,株式会社,東京都,豊島区,東池袋４丁目５番１号エアライズタワー４０１３号,,13,116,1700013,,,,,,,2025-09-17,1,,,,,リドレイ,0
2272,9020001164833,新規,0,2025-09-17,2025-09-17,ＵｎｉＬｉｎｋＯｎｅ株式会社,,株式会社,神奈川県,横浜市中区,桜木町１丁目１番地７ヒューリックみなとみらい１０階,,14,104,2310062,,,,,,,2025-09-17,1,,,,,ユニリンクワン,0
2273,9020001164932,新規,0,2025-09-17,2025-09-17,パラシディウム株式会社,,株式会社,神奈川県,横浜市西区,紅葉ケ丘８番地クオス横濱紅葉坂３１０号,,14,103,2200044,,,,,,,2025-09-17,1,,,,,パラシディウム,0
2275,9020003029365,新規,0,2025-09-17,2025-09-17,合同会社ＮｉｋｏＡｖｅ,,合同会社,神奈川県,川崎市高津区,諏訪２丁目１０番３０号ファミリーコーポ玉川２・２０２,,14,134,2130004,,,,,,,2025-09-17,1,,,,,ニコアベニュー,0
2278,9021001086258,新規,0,2025-09-17,2025-09-17,株式会社Ｓｈｅｒｐａ　Ｄｅｓｉｇｎ,,株式会社,神奈川県,鎌倉市,大船１丁目１２番地１０号湘南第５ビル４階,,14,204,2470056,,,,,,,2025-09-17,1,,,,,シェルパデザイン,0
2279,9021001086282,新規,0,2025-09-17,2025-09-17,株式会社コーストプランホールディングス,,株式会社,神奈川県,藤沢市,南藤沢１０番地１カサベルデ４階,,14,205,2510055,,,,,,,2025-09-17,1,,,,,コーストプランホールディングス,0
2281,9021003016592,新規,0,2025-09-17,2025-09-17,合同会社ハラオチ,,合同会社,神奈川県,逗子市,新宿４丁目１５番１３号９,,14,208,2490007,,,,,,,2025-09-17,1,,,,,ハラオチ,0
2292,9030001168676,新規,0,2025-09-17,2025-09-17,株式会社ＢＬＵＥ　ＡＲＴＳ一級建築士事務所,,株式会社,埼玉県,吉川市,中野２０４番地１,,11,243,3420042,,,,,,,2025-09-17,1,,,,,ブルーアーツイッキュウケンチクシジムショ,0
2297,9030005022268,新規,0,2025-09-17,2025-09-17,一般社団法人ブローディア,,その他の設立登記法人,埼玉県,入間郡毛呂山町,目白台４丁目８番地１４,,11,326,3500439,,,,,,,2025-09-17,1,,,,,ブローディア,0
2299,9040001140519,新規,0,2025-09-17,2025-09-17,株式会社Ａｉｂｒｉｘ,,株式会社,千葉県,八千代市,萱田町８６５番地３０,,12,221,2760044,,,,,,,2025-09-17,1,,,,,アイブリックス,0
2300,9040001140535,新規,0,2025-09-17,2025-09-17,株式会社紅真千,,株式会社,千葉県,船橋市,本町３丁目３１番４号,,12,204,2730005,,,,,,,2025-09-17,1,,,,,ベニマチ,0
2304,9050003009570,新規,0,2025-09-17,2025-09-17,ＡＪ　ＩＭＰＥＸ合同会社,,合同会社,茨城県,小美玉市,世楽４８０番地,,08,236,3113401,,,,,,,2025-09-17,1,,,,,エージェーインペックス,0
2308,9060003005759,新規,0,2025-09-17,2025-09-17,合同会社ＴＤＲ　ＮＩＨＯＮ　ＥＮＴＥＲＰＲＩＳＥＳ,,合同会社,栃木県,佐野市,飛駒町１４５２番地吉岡ハイツ,,09,204,3270231,,,,,,,2025-09-17,1,,,,,ティーディーアールニホンエンタープライセズ,0
2313,9070001043339,新規,0,2025-09-17,2025-09-17,アイズトラスト株式会社,,株式会社,群馬県,高崎市,九蔵町５２－２,,10,202,3700058,,,,,,,2025-09-17,1,,,,,アイズトラスト,0
2315,9080001027150,新規,0,2025-09-17,2025-09-17,株式会社アグロ・ヤマザキホールディングス,,株式会社,静岡県,静岡市清水区,蒲原４丁目１８番１８号,,22,103,4213203,,,,,,,2025-09-17,1,,,,,アグロヤマザキホールディングス,0
2320,9100001038962,新規,0,2025-09-17,2025-09-17,株式会社診察ナビちゃん,,株式会社,長野県,長野市,大字高田北条１１７番地テラハウスＢ,,20,201,3810034,,,,,,,2025-09-17,1,,,,,シンサツナビチャン,0
2322,9110001039571,新規,0,2025-09-17,2025-09-17,株式会社西黒商会,,株式会社,新潟県,新潟市北区,島見町１５６２番地１,,15,101,9503102,,,,,,,2025-09-17,1,,,,,ニシクロショウカイ,0
2330,9120001279506,新規,0,2025-09-17,2025-09-17,隣可株式会社,,株式会社,大阪府,大阪市東住吉区,照ケ丘矢田１丁目１３番７号,,27,121,5460021,,,,,,,2025-09-17,1,,,,,リンカ,0
2331,9120001279555,新規,0,2025-09-17,2025-09-17,明日株式会社,,株式会社,大阪府,大阪市淀川区,十三本町１丁目１８－７－７０１,,27,123,5320024,,,,,,,2025-09-17,1,,,,,アス,0
2332,9120001279704,新規,0,2025-09-17,2025-09-17,澄実株式会社,,株式会社,大阪府,大阪市北区,天神橋２丁目２番２０－２０１号,,27,127,5300041,,,,,,,2025-09-17,1,,,,,スミ,0
2333,9120001279720,新規,0,2025-09-17,2025-09-17,株式会社ＬＩＳＯＬＡ,,株式会社,大阪府,大阪市西区,南堀江３丁目１６－２１－２８０４,,27,106,5500015,,,,,,,2025-09-17,1,,,,,リソラ,0
2334,9120001279729,新規,0,2025-09-17,2025-09-17,株式会社七海冷機,,株式会社,大阪府,大阪市城東区,関目２丁目１５番８－４０５号,,27,118,5360008,,,,,,,2025-09-17,1,,,,,ナナミレイキ,0
2335,9120001279745,新規,0,2025-09-17,2025-09-17,千＿株式会社,00140682,株式会社,大阪府,大阪市此花区,春日出中１丁目９番１３号３０１Ｂ,,27,104,5540022,,,,,,,2025-09-17,1,,,,,センケイ,0
2336,9120001279786,新規,0,2025-09-17,2025-09-17,株式会社コモンパークス,,株式会社,大阪府,大阪市生野区,林寺１丁目１番１０号,,27,116,5440023,,,,,,,2025-09-17,1,,,,,コモンパークス,0
2338,9120003030569,新規,0,2025-09-17,2025-09-17,ＷＨＯＫ合同会社,,合同会社,大阪府,大阪市住吉区,万代東１丁目３番２２号メゾン東和１１０号室,,27,120,5580056,,,,,,,2025-09-17,1,,,,,ウォック,0
2339,9120003030577,新規,0,2025-09-17,2025-09-17,合同会社天泰,,合同会社,大阪府,大阪市港区,南市岡２丁目１１番１６号,,27,107,5520011,,,,,,,2025-09-17,1,,,,,テンタイ,0
2340,9120003030627,新規,0,2025-09-17,2025-09-17,櫻和盛商貿合同会社,,合同会社,大阪府,大阪市東住吉区,鷹合４丁目１２－２－４０５,,27,121,5460014,,,,,,,2025-09-17,1,,,,,サクラワセイショウボウ,0
2350,9120101072447,新規,0,2025-09-17,2025-09-17,株式会社ＶＳ　ＯＳＡＫＡ,,株式会社,大阪府,富田林市,大字彼方３５７番地１,,27,214,5840058,,,,,,,2025-09-17,1,,,,,ヴィエスオオサカ,0
2351,9120101072463,新規,0,2025-09-17,2025-09-17,株式会社オール・リング,,株式会社,大阪府,堺市堺区,栄橋町１丁４番８号高杉ビル４階,,27,141,5900971,,,,,,,2025-09-17,1,,,,,オールリング,0
2354,9120103006709,新規,0,2025-09-17,2025-09-17,合同会社ｍａｒｕ．,,合同会社,大阪府,堺市北区,黒土町２８番地２,,27,146,5918024,,,,,,,2025-09-17,1,,,,,マルドット,0
2355,9120103006717,新規,0,2025-09-17,2025-09-17,合同会社ＡＧＲＩＭＡ,,合同会社,大阪府,大阪狭山市,狭山５丁目２２６０番地の９,,27,231,5890005,,,,,,,2025-09-17,1,,,,,アグリマ,0
2367,9130001080532,新規,0,2025-09-17,2025-09-17,ＯＴＡ株式会社,,株式会社,京都府,京都市南区,久世殿城町５７５番地３向陽グランドハイツ４０６,,26,107,6018205,,,,,,,2025-09-17,1,,,,,オーティーエー,0
2373,9140003022556,新規,0,2025-09-17,2025-09-17,スマートストロベリー合同会社,,合同会社,兵庫県,宝塚市,光ガ丘１丁目６番４４号,,28,214,6650015,,,,,,,2025-09-17,1,,,,,スマートストロベリー,0
2374,9150001028397,新規,0,2025-09-17,2025-09-17,株式会社ａｍｂｉｔｉｏｕｓ,,株式会社,奈良県,橿原市,葛本町１１８番地１５号,,29,205,6340007,,,,,,,2025-09-17,1,,,,,アンビシャス,0
2388,9180001168513,新規,0,2025-09-17,2025-09-17,株式会社ＬＥＧＡＬＩＡ,,株式会社,愛知県,名古屋市守山区,本地が丘９０９番地の１リーフマンショングランディア５０８号,,23,113,4630031,,,,,,,2025-09-17,1,,,,,レガリア,0
2389,9180001168546,新規,0,2025-09-17,2025-09-17,株式会社島田サービス,,株式会社,愛知県,名古屋市中村区,名駅４丁目２４番地５号第２森ビル４０１,,23,105,4500002,,,,,,,2025-09-17,1,,,,,シマダサービス,0
2397,9180003029036,新規,0,2025-09-17,2025-09-17,栄宝合同会社,,合同会社,愛知県,東海市,高横須賀町藪下３４番地の５,,23,222,4770037,,,,,,,2025-09-17,1,,,,,エイホウ,0
2402,9200001044249,新規,0,2025-09-17,2025-09-17,株式会社あさの損保,,株式会社,岐阜県,羽島市,竹鼻町丸の内８丁目６５番地,,21,209,5016244,,,,,,,2025-09-17,1,,,,,アサノソンポ,0
2404,9200003007022,新規,0,2025-09-17,2025-09-17,ＧｉＬＬＡＮｉ　ＭＯＴＯＲＳ合同会社,,合同会社,岐阜県,岐阜市,洞６１７－７ハイツ中村２０３号室,,21,201,5011128,,,,,,,2025-09-17,1,,,,,ギラニモータース,0
2405,9200003007039,新規,0,2025-09-17,2025-09-17,合同会社てつや,,合同会社,岐阜県,岐阜市,芥見南山３丁目６番１２－１号,,21,201,5013133,,,,,,,2025-09-17,1,,,,,テツヤ,0
2408,9210003001957,新規,0,2025-09-17,2025-09-17,合同会社ＴＲＡｄｄ,,合同会社,福井県,敦賀市,奥野２２－１７,,18,202,9140311,,,,,,,2025-09-17,1,,,,,トラッド,0
2416,9240001065506,新規,0,2025-09-17,2025-09-17,株式会社Ｙｕｃｃａ,,株式会社,広島県,広島市西区,井口台１丁目７番２４－３１０号,,34,104,7330844,,,,,,,2025-09-17,1,,,,,ユッカ,0
2419,9260001040564,新規,0,2025-09-17,2025-09-17,株式会社Ｓｅｒｉｃｉａ,,株式会社,岡山県,倉敷市,新田２９６５番地８,,33,202,7100038,,,,,,,2025-09-17,1,,,,,セリシア,0
2424,9290001111370,新規,0,2025-09-17,2025-09-17,株式会社トライアルツアーズ,,株式会社,福岡県,福岡市東区,多の津１丁目１２番２号,,40,131,8130034,,,,,,,2025-09-17,1,,,,,トライアルツアーズ,0
2426,9290003017368,新規,0,2025-09-17,2025-09-17,ＫＲＯＷＮ合同会社,,合同会社,福岡県,福岡市東区,多の津４丁目５番１０号三友国際ビル４０３号室,,40,131,8130034,,,,,,,2025-09-17,1,,,,,クラウン,0
2427,9290003017376,新規,0,2025-09-17,2025-09-17,ガッツ合同会社,,合同会社,福岡県,福岡市中央区,天神２丁目２番１２号Ｔ＆Ｊビルディング７Ｆ,,40,133,8100001,,,,,,,2025-09-17,1,,,,,ガッツ,0
2428,9290005019833,新規,0,2025-09-17,2025-09-17,一般社団法人筑後ＢＭＸ協会,,その他の設立登記法人,福岡県,筑後市,大字久富１３８番地１,,40,211,8330056,,,,,,,2025-09-17,1,,,,,チクゴビーエムエックスキョウカイ,0
2429,9290801031859,新規,0,2025-09-17,2025-09-17,株式会社スマートエックス,,株式会社,福岡県,北九州市小倉北区,魚町３丁目３番１０－１００３号,,40,106,8020006,,,,,,,2025-09-17,1,,,,,スマートエックス,0
2430,9310003005089,新規,0,2025-09-17,2025-09-17,合同会社空と海,,合同会社,長崎県,長崎市,音無町１２－１０,,42,201,8528044,,,,,,,2025-09-17,1,,,,,ソラトウミ,0
2444,9380001035577,新規,0,2025-09-17,2025-09-17,翔遠商事株式会社,,株式会社,福島県,南相馬市,原町区桜井町１丁目２５５番地プレミアム桜井Ｂ棟１０２号室,,07,212,9750032,,,,,,,2025-09-17,1,,,,,ショウエンショウジ,0
2451,9400001017168,新規,0,2025-09-17,2025-09-17,株式会社清水,,株式会社,岩手県,盛岡市,津志田中央１丁目４番８号タウンハウスヨシダＢ棟２０１号室,,03,201,0200838,,,,,,,2025-09-17,1,,,,,シミズ,0
2454,9430001095194,新規,0,2025-09-17,2025-09-17,株式会社Ａｇｇｔｅｃｈ,,株式会社,北海道,札幌市東区,東苗穂七条３丁目１１番３１号,,01,103,0070807,,,,,,,2025-09-17,1,,,,,アグテック,0
2455,9430003018120,新規,0,2025-09-17,2025-09-17,石狩湾新港洋上風力合同会社,,合同会社,北海道,札幌市中央区,大通東１丁目２番地,,01,101,0600041,,,,,,,2025-09-17,1,,,,,イリカリワンシンコウヨウジョウフウリョク,0
2459,9460303000881,新規,0,2025-09-17,2025-09-17,合同会社ｅｎ,,合同会社,北海道,北見市,常盤町３丁目８番８号２Ｆ,,01,208,0900817,,,,,,,2025-09-17,1,,,,,エン,0
2461,9700150004011,新規,0,2025-09-17,2015-10-09,労働保険事務組合　エムケーシー経営者協会,,その他,東京都,中央区,日本橋浜町３丁目１－６,,13,102,1030007,,,,,,,2015-10-09,1,,,,,ロウドウホケンジムクミアイエムケーシーケイエイシヤキヨウカイ,0
2463,9700150132241,新規,0,2025-09-17,2025-09-17,千里津雲台Ａ２３・２４住宅マンション建替組合,,その他,大阪府,吹田市,津雲台３丁目４番Ａ２４－５０６号,,27,205,5650862,,,,,,,2025-09-17,1,,,,,センリツクモダイエーニジユウサンニジユウヨンジユウタクマンシヨンタテカエクミアイ,0
