sequenceNumber,corporateNumber,process,correct,updateDate,changeDate,name,nameImageId,kind,prefectureName,cityName,streetNumber,addressImageId,prefectureCode,cityCode,postCode,addressOutside,addressOutsideImageId,closeDate,closeCause,successorCorporateNumber,changeCause,assignmentDate,latest,enName,enPrefectureName,enCityName,enAddressOutside,furigana,hihyoji
7,1010001246144,新規,0,2024-07-10,2024-07-10,株式会社ｔｅｅ４,,株式会社,東京都,千代田区,飯田橋１丁目８番９号ニューシティハイツ飯田橋７０７,,13,101,1020072,,,,,,,2024-07-10,1,,,,,ティーフォー,0
8,1010001246292,新規,0,2024-07-10,2024-07-10,平和国際交流株式会社,,株式会社,東京都,中央区,日本橋小舟町四丁目９番丸鴻日本橋三越前ビル１階,,13,102,1030024,,,,,,,2024-07-10,1,,,,,ヘイワコクサイコウリュウ,0
9,1010001246375,新規,0,2024-07-10,2024-07-10,株式会社カトウ,,株式会社,東京都,中央区,日本橋兜町１９番８号八重洲ＫＨビル,,13,102,1030026,,,,,,,2024-07-10,1,,,,,カトウ,0
10,1010001246409,新規,0,2024-07-10,2024-07-10,株式会社ＭＩＲＡＩ　ＴＥＣＨ,,株式会社,東京都,千代田区,神田駿河台１丁目５－６－７１３,,13,101,1010062,,,,,,,2024-07-10,1,,,,,ミライテック,0
11,1010001246433,新規,0,2024-07-10,2024-07-10,株式会社ソシオ・イン・トライ,,株式会社,東京都,中央区,京橋１丁目３番２号,,13,102,1040031,,,,,,,2024-07-10,1,,,,,ソシオイントライ,0
12,1010001246474,新規,0,2024-07-10,2024-07-10,フローズンマジック株式会社,,株式会社,東京都,千代田区,九段南１丁目５番６号りそな九段ビル５階ＫＳフロア３３２６,,13,101,1020074,,,,,,,2024-07-10,1,,,,,フローズンマジック,0
13,1010001246499,新規,0,2024-07-10,2024-07-10,株式会社楽暮屋,,株式会社,東京都,中央区,入船１丁目６番３号６０５号室,,13,102,1040042,,,,,,,2024-07-10,1,,,,,ラクヤ,0
29,1010401183565,新規,0,2024-07-10,2024-07-10,株式会社Ｐａｌｅｔｔｅ,,株式会社,東京都,港区,芝２丁目２番１２号浜松町ＰＬＥＸ３階,,13,103,1050014,,,,,,,2024-07-10,1,,,,,パレット,0
30,1010403032968,新規,0,2024-07-10,2024-07-10,クロスローズ合同会社,,合同会社,東京都,港区,赤坂２丁目９番２号ＷＡＹＴＯＷＥＲＳ８Ｆ,,13,103,1070052,,,,,,,2024-07-10,1,,,,,クロスローズ,0
43,1010601065530,新規,0,2024-07-10,2024-07-10,三鈴屋株式会社,,株式会社,東京都,江東区,北砂３丁目３２番１９号,,13,108,1360073,,,,,,,2024-07-10,1,,,,,ミスズヤ,0
47,1010801035218,新規,0,2024-07-10,2024-07-10,Ｎ．Ｃ株式会社,,株式会社,東京都,大田区,西蒲田４丁目２１番１１号西蒲田コーポ１０６,,13,111,1440051,,,,,,,2024-07-10,1,,,,,エヌシー,0
48,1010801035226,新規,0,2024-07-10,2024-07-10,株式会社Ｍｉｒｉｓｙ,,株式会社,東京都,大田区,蒲田５丁目２８番４号ＥＣＳ第２７ビル３階,,13,111,1440052,,,,,,,2024-07-10,1,,,,,ミリシー,0
59,1011001163180,新規,0,2024-07-10,2024-07-10,株式会社プラスタイムズ,,株式会社,東京都,目黒区,目黒２丁目１３番２５号－４０３号,,13,110,1530063,,,,,,,2024-07-10,1,,,,,プラスタイムズ,0
60,1011001163206,新規,0,2024-07-10,2024-07-10,アーチテクノロジーズ株式会社,,株式会社,東京都,渋谷区,道玄坂１丁目１０番８号渋谷道玄坂東急ビル２Ｆ－Ｃ,,13,113,1500043,,,,,,,2024-07-10,1,,,,,アーチテクノロジーズ,0
63,1011005010577,新規,0,2024-07-10,2024-07-10,一般社団法人警備業ＤＸ推進協会,,その他の設立登記法人,東京都,渋谷区,道玄坂１丁目１５－３プリメーラ道玄坂８１０,,13,113,1500043,,,,,,,2024-07-10,1,,,,,ケイビギョウディーエックススイシンキョウカイ,0
69,1011501030896,新規,0,2024-07-10,2024-07-10,株式会社Ｌｕａｎａ,,株式会社,東京都,北区,王子５丁目６－２２サンフレックス１０３,,13,117,1140002,,,,,,,2024-07-10,1,,,,,ルアナ,0
74,1012801023326,新規,0,2024-07-10,2024-07-10,株式会社二建,,株式会社,東京都,昭島市,緑町１丁目１９番１４号,,13,207,1960004,,,,,,,2024-07-10,1,,,,,フタケン,0
79,1021001082685,新規,0,2024-07-10,2024-07-10,ＪｕｍｐＦｉｅｌｄ株式会社,,株式会社,神奈川県,厚木市,温水１６３グラシューズ１０２,,14,212,2430033,,,,,,,2024-07-10,1,,,,,ジャンプフィールド,0
89,1030001161358,新規,0,2024-07-10,2024-07-10,株式会社バディーズ,,株式会社,埼玉県,越谷市,蒲生茜町１９番８－８０２,,11,222,3430843,,,,,,,2024-07-10,1,,,,,バディーズ,0
97,1030003024678,新規,0,2024-07-10,2024-07-10,合同会社Ｆ４０,,合同会社,埼玉県,上尾市,大字原市３２３３－１４,,11,219,3620021,,,,,,,2024-07-10,1,,,,,エフフォーティー,0
103,1040001134511,新規,0,2024-07-10,2024-07-10,アール株式会社,,株式会社,千葉県,市原市,辰巳台東３丁目２１番地６,,12,219,2900003,,,,,,,2024-07-10,1,,,,,アール,0
105,1040003025386,新規,0,2024-07-10,2024-07-10,合同会社ＫＯＮＯＥ,,合同会社,千葉県,千葉市花見川区,千種町１５２番地３,,12,102,2620012,,,,,,,2024-07-10,1,,,,,コノエ,0
106,1040003025394,新規,0,2024-07-10,2024-07-10,合同会社古来堂,,合同会社,千葉県,柏市,戸張１０７９－１クレシア２０３号,,12,217,2770008,,,,,,,2024-07-10,1,,,,,コライドウ,0
110,1050003008522,新規,0,2024-07-10,2024-07-10,合同会社オアシス,,合同会社,茨城県,潮来市,上戸１８２４番地２,,08,223,3112435,,,,,,,2024-07-10,1,,,,,オアシス,0
111,1060001037274,新規,0,2024-07-10,2024-07-10,すがたかたち株式会社,,株式会社,栃木県,宇都宮市,岩曽町１３６５番地１,,09,201,3210973,,,,,,,2024-07-10,1,,,,,スガタカタチ,0
126,1080401027303,新規,0,2024-07-10,2024-07-10,株式会社ＨＯＮＥＹ　ＭＯＮＥＹ,,株式会社,静岡県,浜松市浜名区,貴布祢３００番地の１貴布祢パークホームズ６０１,,22,139,4340038,,,,,,,2024-07-10,1,,,,,ハニーマネー,0
127,1090001018817,新規,0,2024-07-10,2024-07-10,株式会社Ｈ＆Ｙ,,株式会社,山梨県,甲府市,上石田４丁目８番２３号ウイング貢川３０７,,19,201,4000041,,,,,,,2024-07-10,1,,,,,エイチアンドワイ,0
133,1110003005447,新規,0,2024-07-10,2024-07-10,建水舎合同会社,,合同会社,新潟県,新潟市中央区,天神１丁目１プラーカ３、２階、ＨＵＢ、ＳＴＡＴＩＯＮ、ＫＥＮＴＯ内,,15,103,9500917,,,,,,,2024-07-10,1,,,,,ケンスイシャ,0
139,1120001266619,新規,0,2024-07-10,2024-07-10,浮月島株式会社,,株式会社,大阪府,大阪市東住吉区,東田辺３丁目１－１－１Ｆ－Ｊ,,27,121,5460032,,,,,,,2024-07-10,1,,,,,フゲツトウ,0
140,1120001266635,新規,0,2024-07-10,2024-07-10,株式会社ＵＫ,,株式会社,大阪府,大阪市中央区,東心斎橋２丁目２番６号７階,,27,128,5420083,,,,,,,2024-07-10,1,,,,,ユーケー,0
142,1120005024411,新規,0,2024-07-10,2024-07-10,特定非営利活動法人グッドワーク,,その他の設立登記法人,大阪府,守口市,日向町６番２５号,,27,209,5700023,,,,,,,2024-07-10,1,,,,,グッドワーク,0
143,1120101069946,新規,0,2024-07-10,2024-07-10,華視時代株式会社,,株式会社,大阪府,泉南市,信達市場１０４３－１－１０１,,27,228,5900504,,,,,,,2024-07-10,1,,,,,カシジダイ,0
150,1122001038262,新規,0,2024-07-10,2024-07-10,暁迪貿易株式会社,,株式会社,大阪府,東大阪市,吉松２丁目１２－１４ユーケンビルＩＩ４０２号室,00135540,27,227,5770821,,,,,,,2024-07-10,1,,,,,ショウテキボウエキ,0
159,1140001135094,新規,0,2024-07-10,2024-07-10,株式会社Ｌａｎｉ　Ｐｌａｎｎｉｎｇ,,株式会社,兵庫県,伊丹市,野間６丁目１番７－１０３号,,28,207,6640873,,,,,,,2024-07-10,1,,,,,ラニプランニング,0
162,1150005009608,新規,0,2024-07-10,2024-07-10,特定非営利活動法人ｗｅｌｌＭｅ,,その他の設立登記法人,奈良県,磯城郡三宅町,大字伴堂６７６－１,,29,362,6360213,,,,,,,2024-07-10,1,,,,,ウェルミー,0
172,1180003027014,新規,0,2024-07-10,2024-07-10,ＥＬＩＡＳ合同会社,,合同会社,愛知県,名古屋市東区,白壁１丁目５８番地２Ｆ,,23,102,4610011,,,,,,,2024-07-10,1,,,,,エリアス,0
174,1180301038803,新規,0,2024-07-10,2024-07-10,ＷＩＮＧ株式会社,,株式会社,愛知県,豊田市,浄水町伊保原３０５番地,,23,211,4700343,,,,,,,2024-07-10,1,,,,,ウィング,0
181,1210001019827,新規,0,2024-07-10,2024-07-10,ｉｒｏｄｏｒｉ株式会社,,株式会社,福井県,福井市,成和２丁目２０５番地３,,18,201,9188239,,,,,,,2024-07-10,1,,,,,イロドリ,0
183,1220003003786,新規,0,2024-07-10,2024-07-10,合同会社ヒナイヒナイ,,合同会社,石川県,能美市,福島町タ１８番地１,,17,211,9290112,,,,,,,2024-07-10,1,,,,,ヒナイヒナイ,0
184,1230001020436,新規,0,2024-07-10,2024-07-10,株式会社ＧＭコンサルティング,,株式会社,富山県,高岡市,大手町１０番２３号,,16,202,9330039,,,,,,,2024-07-10,1,,,,,ジーエムコンサルティング,0
189,1240001063509,新規,0,2024-07-10,2024-07-10,石松石材株式会社,,株式会社,広島県,呉市,栃原町１８８番地２,,34,202,7370922,,,,,,,2024-07-10,1,,,,,イシマツセキザイ,0
195,1260001039250,新規,0,2024-07-10,2024-07-10,株式会社マルテ,,株式会社,岡山県,岡山市南区,箕島５７４番地２－１,,33,104,7010206,,,,,,,2024-07-10,1,,,,,マルテ,0
196,1260003004814,新規,0,2024-07-10,2024-07-10,合同会社第七機貿,,合同会社,岡山県,岡山市北区,奥田西町１４番２０号奥田西町ハイツ１０５室,,33,101,7000931,,,,,,,2024-07-10,1,,,,,ダイナナキボウ,0
209,1320001020583,新規,0,2024-07-10,2024-07-10,二豊食品株式会社,,株式会社,大分県,杵築市,大字溝井３２２２番地,,44,210,8730025,,,,,,,2024-07-10,1,,,,,ニホウショクヒン,0
214,1360001033929,新規,0,2024-07-10,2024-07-10,株式会社Ｐｕｚｚｌｅ　Ｈｏｕｓｉｎｇ,,株式会社,沖縄県,中頭郡北谷町,字伊平４２１番地７－２０１,,47,326,9040102,,,,,,,2024-07-10,1,,,,,パズルハウジング,0
216,1360003014134,新規,0,2024-07-10,2024-07-10,合同会社ライト,,合同会社,沖縄県,那覇市,字小禄６６１番地７ライオンズ小禄オアシスコート３０５,,47,201,9010152,,,,,,,2024-07-10,1,,,,,ライト,0
217,1360003014142,新規,0,2024-07-10,2024-07-10,合同会社ひかり,,合同会社,沖縄県,那覇市,牧志２丁目１７－２７－４０１,,47,201,9000013,,,,,,,2024-07-10,1,,,,,ヒカリ,0
219,1370003006675,新規,0,2024-07-10,2024-07-10,ＫＭ合同会社,,合同会社,宮城県,仙台市若林区,上飯田２丁目５番５６号ポレール１０２,,04,103,9840838,,,,,,,2024-07-10,1,,,,,ケーエム,0
225,1380003005809,新規,0,2024-07-10,2024-07-10,合同会社Ｐｙｎｔｇｎ,,合同会社,福島県,大沼郡昭和村,大字喰丸字宮前１１７０番地,,07,446,9680212,,,,,,,2024-07-10,1,,,,,ペンターゲン,0
233,1400003003297,新規,0,2024-07-10,2024-07-10,合同会社ぬりしげ,,合同会社,岩手県,滝沢市,鵜飼洞畑５６番地３０,,03,216,0200652,,,,,,,2024-07-10,1,,,,,ヌリシゲ,0
241,1430001092224,新規,0,2024-07-10,2024-07-10,株式会社ＫＳＫ,,株式会社,北海道,札幌市北区,新琴似八条１２丁目７番３号,,01,102,0010908,,,,,,,2024-07-10,1,,,,,ケーエスケー,0
242,1430001092232,新規,0,2024-07-10,2024-07-10,株式会社ＮｔｏＳ,,株式会社,北海道,札幌市中央区,南五条西３丁目Ｎグランデビル１Ｆ,,01,101,0640805,,,,,,,2024-07-10,1,,,,,エヌトゥエス,0
254,1700150126102,新規,0,2024-07-10,2024-06-20,余呉エゴマ生産組合,,その他,滋賀県,長浜市,余呉町下丹生６５５,,25,203,5290514,,,,,,,2024-06-20,1,,,,,ヨゴエゴマセイサンクミアイ,0
255,1700150126440,新規,0,2024-07-10,2024-07-10,上庄大井土地改良区,,その他,福井県,大野市,五條方３８－４６,,18,205,9120421,,,,,,,2024-07-10,1,,,,,カミシヨウオオイトチカイリヨウク,0
260,2010001246399,新規,0,2024-07-10,2024-07-10,Ｂｅａｕｌｉｅｕ　Ｊａｐａｎ株式会社,,株式会社,東京都,千代田区,霞が関３丁目２番６号東京倶楽部ビルディング１１階,,13,101,1000013,,,,,,,2024-07-10,1,,,,,ボーリュージャパン,0
261,2010001246416,新規,0,2024-07-10,2024-07-10,株式会社ｂｕｌｌｍｏｎｋｅｙ,,株式会社,東京都,中央区,築地２丁目１１番４号,,13,102,1040045,,,,,,,2024-07-10,1,,,,,ブルモンキー,0
262,2010001246457,新規,0,2024-07-10,2024-07-10,株式会社ｂｉｙｏｌａｂ,,株式会社,東京都,文京区,小石川５丁目３４－６－１０２,,13,105,1120002,,,,,,,2024-07-10,1,,,,,ビヨラボ,0
263,2010001246481,新規,0,2024-07-10,2024-07-10,株式会社Ｎｕｅ,,株式会社,東京都,千代田区,神田佐久間町３丁目３７番４号２Ｆ,,13,101,1010025,,,,,,,2024-07-10,1,,,,,ヌエ,0
265,2010003044280,新規,0,2024-07-10,2024-07-10,合同会社ＳＡＪＩＭＡコーポレーション,,合同会社,東京都,中央区,銀座７丁目１３－６サガミビル２Ｆ,,13,102,1040061,,,,,,,2024-07-10,1,,,,,サジマコーポレーション,0
266,2010003044297,新規,0,2024-07-10,2024-07-10,ブロックホームズ合同会社,,合同会社,東京都,千代田区,神田小川町３丁目１１番Ｅ／Ｆｒｏｎｔビル６階,,13,101,1010052,,,,,,,2024-07-10,1,,,,,ブロックホームズ,0
279,2010401183630,新規,0,2024-07-10,2024-07-10,Ｓａｔｕｒｎ　Ｉｎｆｉｎｉｔｅ　Ｓｏｌｕｔｉｏｎｓ株式会社,,株式会社,東京都,港区,虎ノ門１丁目１０－５・ＫＤＸ虎ノ門一丁目ビル５Ｆ－１２２,,13,103,1050001,,,,,,,2024-07-10,1,,,,,サターンインフィニットソリューソンズ,0
280,2010403032983,新規,0,2024-07-10,2024-07-10,トリオ合同会社,,合同会社,東京都,港区,北青山１丁目３番１号アールキューブ青山３階,,13,103,1070061,,,,,,,2024-07-10,1,,,,,トリオ,0
287,2010701046248,新規,0,2024-07-10,2024-07-10,株式会社ｉｃｈｉ,,株式会社,東京都,品川区,西五反田７丁目２５－１３セブンスターマンション第三五反田７０３,,13,109,1410031,,,,,,,2024-07-10,1,,,,,イチ,0
288,2010701046256,新規,0,2024-07-10,2024-07-10,株式会社ツキヒロ,,株式会社,東京都,品川区,旗の台２丁目８番３－２０１号旗の台スカイ・マンション,,13,109,1420064,,,,,,,2024-07-10,1,,,,,ツキヒロ,0
289,2010703007248,新規,0,2024-07-10,2024-07-10,合同会社ランダム,,合同会社,東京都,品川区,西五反田８丁目９番１１号ＬａＳａｎｔｅ五反田４０７,,13,109,1410031,,,,,,,2024-07-10,1,,,,,ランダム,0
294,2011003019520,新規,0,2024-07-10,2024-07-10,合同会社ＭＩＮＡＴＯ,,合同会社,東京都,渋谷区,円山町５番５号Ｎａｖｉ渋谷Ｖ３階,00135544,13,113,1500044,,,,,,,2024-07-10,1,,,,,,0
295,2011003019553,新規,0,2024-07-10,2024-07-10,ＫＴＷ合同会社,,合同会社,東京都,目黒区,緑が丘２丁目７番３号,,13,110,1520034,,,,,,,2024-07-10,1,,,,,ケイティーダブル,0
304,2011301029832,新規,0,2024-07-10,2024-07-10,ストーク・コマース株式会社,,株式会社,東京都,杉並区,高円寺北２丁目１４番２４号,,13,115,1660002,,,,,,,2024-07-10,1,,,,,,0
308,2011501030912,新規,0,2024-07-10,2024-07-10,つきよみ株式会社,,株式会社,東京都,荒川区,西尾久４丁目１１－３－８０９,,13,118,1160011,,,,,,,2024-07-10,1,,,,,ツキヨミ,0
315,2012301013982,新規,0,2024-07-10,2024-07-10,株式会社ＹＡＭＡＳＥ,,株式会社,東京都,町田市,原町田６丁目１８番１７号東亜町田ビルＩＩＩ３階,00135529,13,209,1940013,,,,,,,2024-07-10,1,,,,,ヤマセ,0
317,2012701018350,新規,0,2024-07-10,2024-07-10,株式会社Ｒｅｍａｋｅ,,株式会社,東京都,東久留米市,氷川台１丁目１７－４,,13,222,2030004,,,,,,,2024-07-10,1,,,,,リメイク,0
319,2013101009460,新規,0,2024-07-10,2024-07-10,株式会社Ｔ’ｓ　ｖｉｌｌａｇｅ,,株式会社,東京都,青梅市,小曾木４丁目２６０２番地の１２,,13,205,1980003,,,,,,,2024-07-10,1,,,,,,0
327,2020001158247,新規,0,2024-07-10,2024-07-10,株式会社Ｓｔｕｄｉｏ　Ｔｏｋｙｏ,,株式会社,神奈川県,横浜市神奈川区,金港町５－１４クアドリフォリオ８階,,14,102,2210056,,,,,,,2024-07-10,1,,,,,スタジオトーキョー,0
330,2020003026253,新規,0,2024-07-10,2024-07-10,合同会社Ｐｏｌｙｓｉｄｅ,,合同会社,神奈川県,横浜市西区,北幸２丁目１０―４８むつみビル３階,,14,103,2200004,,,,,,,2024-07-10,1,,,,,ポリサイド,0
349,2030001161373,新規,0,2024-07-10,2024-07-10,ＰＭＫ株式会社,,株式会社,埼玉県,飯能市,大字双柳４８２番地１２,,11,209,3570021,,,,,,,2024-07-10,1,,,,,ピーエムケー,0
357,2040001134452,新規,0,2024-07-10,2024-07-10,株式会社ＴｕｎｅＳｃｒｉｐｔ,,株式会社,千葉県,市川市,妙典２丁目１番２４－１０２号,,12,203,2720111,,,,,,,2024-07-10,1,,,,,チューンスクリプト,0
358,2040001134469,新規,0,2024-07-10,2024-07-10,株式会社そよかぜ薬局,,株式会社,千葉県,佐倉市,江原台２丁目３番地２９,,12,212,2850825,,,,,,,2024-07-10,1,,,,,ソヨカゼヤッキョク,0
360,2040005022439,新規,0,2024-07-10,2024-07-10,一般社団法人アートと人々,,その他の設立登記法人,千葉県,市川市,大和田４丁目１６番３号,,12,203,2720025,,,,,,,2024-07-10,1,,,,,アートトヒトビト,0
363,2050003008521,新規,0,2024-07-10,2024-07-10,合同会社ＳｍｉｌｅＦａｍｉｌｙ,,合同会社,茨城県,水戸市,平須町５８７番地の３０,,08,201,3100853,,,,,,,2024-07-10,1,,,,,スマイルファミリー,0
364,2060001037281,新規,0,2024-07-10,2024-07-10,大川不動産株式会社,,株式会社,栃木県,鹿沼市,中粕尾３２８番地１,,09,205,3220422,,,,,,,2024-07-10,1,,,,,オオカワフドウサン,0
365,2060003005146,新規,0,2024-07-10,2024-07-10,合同会社ブルームアセット,,合同会社,栃木県,小山市,駅東通り１丁目２２番１１号ＳＳＫグリーンパーク小山１２０１号,,09,208,3230022,,,,,,,2024-07-10,1,,,,,ブルームアセット,0
380,2100001037616,新規,0,2024-07-10,2024-07-10,モテキヤ株式会社,,株式会社,長野県,佐久市,野沢４６４番地７,,20,217,3850053,,,,,,,2024-07-10,1,,,,,モテキヤ,0
381,2100001037640,新規,0,2024-07-10,2024-07-10,株式会社彩,,株式会社,長野県,北安曇郡松川村,１１５５番地,,20,482,3998501,,,,,,,2024-07-10,1,,,,,イロドリ,0
392,2120001266428,新規,0,2024-07-10,2024-07-10,鈴木商事株式会社,,株式会社,大阪府,大阪市中央区,島之内１丁目１４番３１号,,27,128,5420082,,,,,,,2024-07-10,1,,,,,スズキショウジ,0
393,2120001266659,新規,0,2024-07-10,2024-07-10,ＢＴ株式会社,,株式会社,大阪府,大阪市西淀川区,中島１丁目１８－３１－２Ｃ号室,,27,113,5550041,,,,,,,2024-07-10,1,,,,,ビーティー,0
394,2120001266667,新規,0,2024-07-10,2024-07-10,株式会社僕,,株式会社,大阪府,大阪市西区,新町１丁目１２番１０号,,27,106,5500013,,,,,,,2024-07-10,1,,,,,ボク,0
395,2120001266691,新規,0,2024-07-10,2024-07-10,伯遠文化株式会社,,株式会社,大阪府,大阪市城東区,中央２丁目１１番８号,,27,118,5360005,,,,,,,2024-07-10,1,,,,,ハクエンブンカ,0
397,2120003027002,新規,0,2024-07-10,2024-07-10,合同会社Ｔｈｉｒｄ　Ｄｒｅａｍ,,合同会社,大阪府,大阪市住吉区,山之内３丁目９－２０,,27,120,5580023,,,,,,,2024-07-10,1,,,,,サードドリーム,0
405,2120101069945,新規,0,2024-07-10,2024-07-10,株式会社魁,,株式会社,大阪府,堺市北区,野遠町１０８番地７３,,27,146,5918013,,,,,,,2024-07-10,1,,,,,サキガケ,0
406,2120101069961,新規,0,2024-07-10,2024-07-10,株式会社わらや,,株式会社,大阪府,泉南郡熊取町,つばさが丘北４丁目５番１号,,27,361,5900444,,,,,,,2024-07-10,1,,,,,ワラヤ,0
408,2120901049428,新規,0,2024-07-10,2024-07-10,株式会社八神建設土木工業,,株式会社,大阪府,高槻市,野田東１丁目２５,,27,207,5690014,,,,,,,2024-07-10,1,,,,,ハチガミケンセツドボクコウギョウ,0
409,2120901049452,新規,0,2024-07-10,2024-07-10,ＡＬＬＥＳ‐ＷＯＲＫＳ株式会社,,株式会社,大阪府,茨木市,豊原町１１番１９号,,27,211,5670053,,,,,,,2024-07-10,1,,,,,アレスワークス,0
410,2122001038261,新規,0,2024-07-10,2024-07-10,株式会社Ｍ２,,株式会社,大阪府,東大阪市,新池島町１丁目２番２号,,27,227,5798065,,,,,,,2024-07-10,1,,,,,エムツー,0
411,2122005003757,新規,0,2024-07-10,2024-07-10,一般社団法人Ｍｏｎｏｐｒｏｐｏｓｅ,,その他の設立登記法人,大阪府,大東市,赤井２丁目２番２９号,,27,218,5740046,,,,,,,2024-07-10,1,,,,,モノプロポーズ,0
412,2130001077436,新規,0,2024-07-10,2024-07-10,馬寅株式会社,,株式会社,京都府,京都市右京区,山ノ内北ノ口町１９番地１萬京ビル４０１,,26,108,6150094,,,,,,,2024-07-10,1,,,,,マイン,0
420,2140001135093,新規,0,2024-07-10,2024-07-10,エム・ワイ・ケイ株式会社,,株式会社,兵庫県,赤穂市,東浜町８３番地,,28,212,6780222,,,,,,,2024-07-10,1,,,,,エムワイケイ,0
430,2170003002074,新規,0,2024-07-10,2024-07-10,合同会社ＦＩＬＥＲ,,合同会社,和歌山県,和歌山市,松島４００番地５ベルドール松房ＩＩ１０１号,00135543,30,201,6408304,,,,,,,2024-07-10,1,,,,,フィレール,0
442,2180301038819,新規,0,2024-07-10,2024-07-10,Ｊ　ＴＲＡＤＥＳ株式会社,,株式会社,愛知県,豊川市,国府町鍛治ケ谷７番地の６４,,23,207,4420854,,,,,,,2024-07-10,1,,,,,ジェイトレイズ,0
445,2200003006419,新規,0,2024-07-10,2024-07-10,合同会社あおば,,合同会社,岐阜県,高山市,赤保木町１０９７－１,,21,203,5060045,,,,,,,2024-07-10,1,,,,,アオバ,0
452,2240001063458,新規,0,2024-07-10,2024-07-10,株式会社アクアルーモス,,株式会社,広島県,尾道市,因島重井町４２８番地１１,,34,205,7222102,,,,,,,2024-07-10,1,,,,,アクアルーモス,0
453,2240001063508,新規,0,2024-07-10,2024-07-10,株式会社高岡,00135530,株式会社,広島県,呉市,広文化町１１番７号,,34,202,7370114,,,,,,,2024-07-10,1,,,,,タカオカ,0
458,2250003003535,新規,0,2024-07-10,2024-07-10,合同会社リアン・ココモサ,,合同会社,山口県,下関市,武久町１丁目４６番８号コーポ武久１０２号,,35,201,7510833,,,,,,,2024-07-10,1,,,,,リアンココモサ,0
461,2260003004813,新規,0,2024-07-10,2024-07-10,合同会社ＵＫＡＮ,,合同会社,岡山県,岡山市北区,伊福町３丁目２１－２３ロイヤルガーデン岡山運動公園６０８,,33,101,7000013,,,,,,,2024-07-10,1,,,,,ウカン,0
463,2270001009012,新規,0,2024-07-10,2024-07-10,株式会社田淵工務店,,株式会社,鳥取県,米子市,福万１５０番地,,31,202,6893523,,,,,,,2024-07-10,1,,,,,タブチコウムテン,0
464,2270005005602,新規,0,2024-07-10,2024-07-10,一般社団法人ＥＤＡ,,その他の設立登記法人,鳥取県,境港市,上道町６６番地,,31,204,6840033,,,,,,,2024-07-10,1,,,,,イーディーエー,0
469,2290001106385,新規,0,2024-07-10,2024-07-10,株式会社ルミナス・クリエーションズ,,株式会社,福岡県,福岡市中央区,清川３丁目２１番１０号,,40,133,8100005,,,,,,,2024-07-10,1,,,,,ルミナスクリエーションズ,0
470,2290001106393,新規,0,2024-07-10,2024-07-10,株式会社ｌａ　ｆｅｖｅ,,株式会社,福岡県,小郡市,大保１６２７番地３,,40,216,8380115,,,,,,,2024-07-10,1,,,,,ラフェーヴ,0
471,2290001106410,新規,0,2024-07-10,2024-07-10,株式会社ジオシナジー,,株式会社,福岡県,福岡市東区,馬出６丁目１２番５５号,,40,131,8120054,,,,,,,2024-07-10,1,,,,,ジオシナジー,0
475,2320001020582,新規,0,2024-07-10,2024-07-10,パノラマビジョン株式会社,,株式会社,大分県,大分市,王子南町５番２７号,,44,201,8700007,,,,,,,2024-07-10,1,,,,,パノラマビジョン,0
477,2320003004419,新規,0,2024-07-10,2024-07-10,合同会社オルタナ,,合同会社,大分県,佐伯市,大手町３丁目３番１７号,,44,205,8760831,,,,,,,2024-07-10,1,,,,,オルタナ,0
486,2350001019077,新規,0,2024-07-10,2024-07-10,株式会社Ｇｏｒｉ‐Ｔｅｃ,,株式会社,宮崎県,宮崎市,佐土原町東上那珂１６７８９番地１７,,45,201,8800303,,,,,,,2024-07-10,1,,,,,ゴリテック,0
489,2360003014141,新規,0,2024-07-10,2024-07-10,合同会社ヤエノオキナワ,,合同会社,沖縄県,沖縄市,中央１丁目７番３号,,47,211,9040004,,,,,,,2024-07-10,1,,,,,ヤエノオキナワ,0
490,2370001051499,新規,0,2024-07-10,2024-07-10,株式会社アライブ,,株式会社,宮城県,仙台市泉区,加茂３丁目１０番地の７,,04,105,9813122,,,,,,,2024-07-10,1,,,,,アライブ,0
492,2370003006674,新規,0,2024-07-10,2024-07-10,合同会社鈴木建業,,合同会社,宮城県,仙台市青葉区,中山９丁目７‐１９,,04,101,9810952,,,,,,,2024-07-10,1,,,,,スズキケンギョウ,0
494,2380003005808,新規,0,2024-07-10,2024-07-10,合同会社ＭＯＯＮ,,合同会社,福島県,福島市,太平寺字堰ノ上６９番地の５,,07,201,9608151,,,,,,,2024-07-10,1,,,,,ムーン,0
498,2400001016721,新規,0,2024-07-10,2024-07-10,株式会社Ｌｉｎｏ,,株式会社,岩手県,久慈市,寺里第２８地割１０５番地８,,03,207,0280032,,,,,,,2024-07-10,1,,,,,リノ,0
513,2430001092231,新規,0,2024-07-10,2024-07-10,株式会社裕成建築計画,,株式会社,北海道,札幌市手稲区,前田二条７丁目１番１３号,,01,109,0060812,,,,,,,2024-07-10,1,,,,,ユウセイケンチクケイカク,0
516,2430003016535,新規,0,2024-07-10,2024-07-10,合同会社誠秀,,合同会社,北海道,江別市,野幌松並町１７番地の２,,01,217,0690814,,,,,,,2024-07-10,1,,,,,セイシュウ,0
518,2450001014357,新規,0,2024-07-10,2024-07-10,ファンアライブホールディングス株式会社,,株式会社,北海道,旭川市,末広東二条１丁目１番２０号,,01,204,0718122,,,,,,,2024-07-10,1,,,,,ファンアライブホールディングス,0
526,2500001025745,新規,0,2024-07-10,2024-07-10,株式会社ＲｅｅｅＬ,,株式会社,愛媛県,松山市,千舟町５丁目３番１７号４階,,38,201,7900011,,,,,,,2024-07-10,1,,,,,リール,0
534,3010001246514,新規,0,2024-07-10,2024-07-10,株式会社素正院,,株式会社,東京都,文京区,小石川１丁目４番１－５０７号,,13,105,1120002,,,,,,,2024-07-10,1,,,,,ソセイイン,0
539,3010103002385,新規,0,2024-07-10,2024-07-10,合同会社ＣＬＡＳＳＩＣ,,合同会社,東京都,八王子市,元本郷町１丁目８番１４号,,13,201,1920051,,,,,,,2024-07-10,1,,,,,,0
547,3010401183539,新規,0,2024-07-10,2024-07-10,コーディファイ株式会社,,株式会社,東京都,港区,麻布十番１丁目８番１１号,,13,103,1060045,,,,,,,2024-07-10,1,,,,,コーディファイ,0
548,3010401183571,新規,0,2024-07-10,2024-07-10,株式会社Ｃａｐｉｔａｌ　Ｇｒｏｗｔｈ　Ｓｔｒａｔｅｇｉｅｓ,,株式会社,東京都,港区,南青山２丁目２－１５ＷｉｎＡｏｙａｍａビルＵＣＦ６階,,13,103,1070062,,,,,,,2024-07-10,1,,,,,キャピタルグロースストラテジーズ,0
552,3010403032875,新規,0,2024-07-10,2024-07-10,合同会社Ｂｌａｎｃｈｅ,,合同会社,東京都,港区,高輪２丁目１６－３２,,13,103,1080074,,,,,,,2024-07-10,1,,,,,ブランシュ,0
553,3010405023385,新規,0,2024-07-10,2024-07-10,特定非営利活動法人ＣＯＭＥＤＹ　ＢＯＸ,,その他の設立登記法人,東京都,港区,台場１丁目５番１－５０１号,,13,103,1350091,,,,,,,2024-07-10,1,,,,,コメディーボックス,0
568,3011001163245,新規,0,2024-07-10,2024-07-10,往来株式会社,,株式会社,東京都,渋谷区,道玄坂２丁目１１番１号,,13,113,1500043,,,,,,,2024-07-10,1,,,,,オウライ,0
570,3011003019478,新規,0,2024-07-10,2024-07-10,合同会社Ｒｅ．ＬＩＦＥ,,合同会社,東京都,渋谷区,渋谷２丁目１９－１５宮益坂ビルディング６０９,,13,113,1500002,,,,,,,2024-07-10,1,,,,,リライフ,0
571,3011003019569,新規,0,2024-07-10,2024-07-10,合同会社ツキノキデザイン,,合同会社,東京都,渋谷区,渋谷２丁目１９－１５宮益坂ビルディング６０９,,13,113,1500002,,,,,,,2024-07-10,1,,,,,ツキノキデザイン,0
575,3011101107977,新規,0,2024-07-10,2024-07-10,株式会社Ａｒｃｈ,,株式会社,東京都,新宿区,百人町１丁目１９－１３,,13,104,1690073,,,,,,,2024-07-10,1,,,,,アーチ,0
576,3011103014627,新規,0,2024-07-10,2024-07-10,合同会社ジェイ・ジー・ビー,,合同会社,東京都,新宿区,下宮比町１番４号,,13,104,1620822,,,,,,,2024-07-10,1,,,,,ジェイジービー,0
577,3011201025625,新規,0,2024-07-10,2024-07-10,株式会社ＫＫ,,株式会社,東京都,中野区,白鷺２丁目１３番４‐１０４号,,13,114,1650035,,,,,,,2024-07-10,1,,,,,ケーケー,0
580,3011301029831,新規,0,2024-07-10,2024-07-10,株式会社ワンナップコーポレーション,,株式会社,東京都,杉並区,和田２丁目３７番７－４０６号プラウド杉並和田グランドコート,,13,115,1660012,,,,,,,2024-07-10,1,,,,,,0
586,3011501030903,新規,0,2024-07-10,2024-07-10,株式会社ＧＬＯＢＡＬＷＡＹ,,株式会社,東京都,荒川区,東尾久８丁目４４番１－１０３号ニューハイツＩＩＩ,00135532,13,118,1160012,,,,,,,2024-07-10,1,,,,,グローバルウェイ,0
587,3011501030911,新規,0,2024-07-10,2024-07-10,みの半株式会社,,株式会社,東京都,荒川区,南千住５丁目２番２号,,13,118,1160003,,,,,,,2024-07-10,1,,,,,ミノハン,0
590,3011801044520,新規,0,2024-07-10,2024-07-10,ＫＯＮＳＥＮＳ　ＪＡＰＡＮ株式会社,,株式会社,東京都,足立区,中川４丁目２１－１ジュエリーＩＩＩ・２階,00135534,13,121,1200002,,,,,,,2024-07-10,1,,,,,コンセンスジャパン,0
591,3012401042071,新規,0,2024-07-10,2024-07-10,三杉株式会社,,株式会社,東京都,府中市,武蔵台１丁目８番１７号ドミール武蔵台３０７,,13,206,1830042,,,,,,,2024-07-10,1,,,,,ミスギ,0
605,3020003026467,新規,0,2024-07-10,2024-07-10,ＡｐｐｌｅＲｏｙａｌ合同会社,,合同会社,神奈川県,横浜市緑区,霧が丘４丁目２番地霧が丘グリーンタウン２棟２０３号,,14,113,2260016,,,,,,,2024-07-10,1,,,,,アップルロイヤル,0
615,3021003014718,新規,0,2024-07-10,2024-07-10,合同会社ソレイユエナジー１号,,合同会社,神奈川県,茅ヶ崎市,茅ヶ崎１丁目２番４７号,,14,207,2530041,,,,,,,2024-07-10,1,,,,,ソレイユエナジー,0
616,3021003014750,新規,0,2024-07-10,2024-07-10,合同会社Ｈａｎａ,,合同会社,神奈川県,秦野市,本町３丁目３－１０－１,,14,211,2570035,,,,,,,2024-07-10,1,,,,,ハナ,0
626,3030001161348,新規,0,2024-07-10,2024-07-10,株式会社ファニービービー,,株式会社,埼玉県,戸田市,笹目北町１０番地の１７－７０７号室,,11,224,3350033,,,,,,,2024-07-10,1,,,,,ファニービービー,0
627,3030001161364,新規,0,2024-07-10,2024-07-10,株式会社オジマファーム,,株式会社,埼玉県,比企郡川島町,大字平沼９９９番地,,11,346,3500131,,,,,,,2024-07-10,1,,,,,オジマファーム,0
630,3030003024668,新規,0,2024-07-10,2024-07-10,合同会社ｍａｒ,,合同会社,埼玉県,越谷市,赤山町１丁目５７番地１Ａテック秋山ビル１０１,,11,222,3430807,,,,,,,2024-07-10,1,,,,,マール,0
641,3050001055052,新規,0,2024-07-10,2024-07-10,株式会社明槙,,株式会社,茨城県,つくば市,北条１４２８番地,,08,220,3004231,,,,,,,2024-07-10,1,,,,,メイシン,0
643,3050003008529,新規,0,2024-07-10,2024-07-10,合同会社ＢＲＫ‐Ｂ,,合同会社,茨城県,結城市,大字結城９１３９番地２２,,08,207,3070001,,,,,,,2024-07-10,1,,,,,ビィアールケイビィ,0
650,3080001026380,新規,0,2024-07-10,2024-07-10,中央テックサービス株式会社,,株式会社,静岡県,島田市,金谷根岸町１３５番地の１５エトワール金谷２０２号室,,22,209,4280018,,,,,,,2024-07-10,1,,,,,チュウオウテックサービス,0
653,3080005007625,新規,0,2024-07-10,2024-07-10,すんぷ税理士法人,,その他の設立登記法人,静岡県,静岡市葵区,横内町５７番地,,22,101,4200832,,,,,,,2024-07-10,1,,,,,スンプ,0
665,3100003007640,新規,0,2024-07-10,2024-07-10,アドバンスハクバ合同会社,,合同会社,長野県,北安曇郡白馬村,大字神城２２５２８－１,,20,485,3999211,,,,,,,2024-07-10,1,,,,,アドバンスハクバ,0
678,3120001266526,新規,0,2024-07-10,2024-07-10,株式会社ＫＴＭ,,株式会社,大阪府,大阪市東住吉区,湯里２丁目２１番７号カサ・エルマーナ１０３号室,,27,121,5460013,,,,,,,2024-07-10,1,,,,,ケーティーエム,0
679,3120001266708,新規,0,2024-07-10,2024-07-10,株式会社ＤＡＨＬＩＡ,,株式会社,大阪府,大阪市中央区,東心斎橋２丁目７番５号,,27,128,5420083,,,,,,,2024-07-10,1,,,,,ダリア,0
690,3130005017131,新規,0,2024-07-10,2024-07-10,税理士法人ＯＨＡＮＡ,,その他の設立登記法人,京都府,京都市中京区,柳馬場通御池下る柳八幡町７５番地６,,26,104,6048101,,,,,,,2024-07-10,1,,,,,オハナ,0
695,3140001135084,新規,0,2024-07-10,2024-07-10,株式会社草木譜,,株式会社,兵庫県,神戸市中央区,伊藤町１０６番地１８０３号,,28,110,6500032,,,,,,,2024-07-10,1,,,,,ソウモクフ,0
713,3190001031485,新規,0,2024-07-10,2024-07-10,株式会社伊藤建設工業,,株式会社,三重県,津市,安濃町浄土寺１８番地５１,,24,201,5142307,,,,,,,2024-07-10,1,,,,,イトウケンセツコウギョウ,0
718,3200003006418,新規,0,2024-07-10,2024-07-10,合同会社ごあす,,合同会社,岐阜県,各務原市,那加柄山町１０６番地６４,,21,213,5040005,,,,,,,2024-07-10,1,,,,,ゴアス,0
722,3230001020434,新規,0,2024-07-10,2024-07-10,株式会社志満屋商会,,株式会社,富山県,富山市,三番町４番９号,,16,201,9300059,,,,,,,2024-07-10,1,,,,,シマンヤショウカイ,0
725,3240001063515,新規,0,2024-07-10,2024-07-10,ＳＲアセット株式会社,,株式会社,広島県,広島市中区,堺町２丁目３番１６－３０２号,,34,101,7300853,,,,,,,2024-07-10,1,,,,,エスアールアセット,0
726,3240003006760,新規,0,2024-07-10,2024-07-10,合同会社ＢＥＬＬＥ,,合同会社,広島県,神石郡神石高原町,小畠１７８３番地１ビ・アレイドさんわ２０１,,34,545,7201522,,,,,,,2024-07-10,1,,,,,ベル,0
727,3250001020721,新規,0,2024-07-10,2024-07-10,株式会社ヒロ・コーポレーション,,株式会社,山口県,山口市,湯田温泉３丁目３番８－５０２号,,35,203,7530056,,,,,,,2024-07-10,1,,,,,ヒロコーポレーション,0
730,3260001039208,新規,0,2024-07-10,2024-07-10,株式会社ＭＩＸ・ＵＰ,,株式会社,岡山県,総社市,中央１丁目８番２号アルファスマート総社中央４０３号,,33,208,7191131,,,,,,,2024-07-10,1,,,,,ミックスアップ,0
731,3260001039249,新規,0,2024-07-10,2024-07-10,今平工業株式会社,,株式会社,岡山県,岡山市中区,＿東町１丁目５番１４－２号,00135533,33,102,7038247,,,,,,,2024-07-10,1,,,,,イマヒラコウギョウ,0
747,3320003004418,新規,0,2024-07-10,2024-07-10,アルモンデ合同会社,,合同会社,大分県,日田市,天瀬町塚田７０８番地,,44,204,8770113,,,,,,,2024-07-10,1,,,,,アルモンデ,0
751,3330003010464,新規,0,2024-07-10,2024-07-10,ＡＺＺＵＲＲＯ合同会社,,合同会社,熊本県,合志市,竹迫１８６８番地７,,43,216,8611114,,,,,,,2024-07-10,1,,,,,アズーロ,0
754,3340001026635,新規,0,2024-07-10,2024-07-10,株式会社ＫＤベジフル,,株式会社,鹿児島県,鹿児島市,小原町４４番５号,,46,201,8910111,,,,,,,2024-07-10,1,,,,,ケーディーベジフル,0
758,3360003014116,新規,0,2024-07-10,2024-07-10,合同会社なかやま,,合同会社,沖縄県,島尻郡南風原町,字新川２７２番１,,47,350,9011105,,,,,,,2024-07-10,1,,,,,ナカヤマ,0
760,3370001051498,新規,0,2024-07-10,2024-07-10,株式会社Ｓｉシステム,,株式会社,宮城県,本吉郡南三陸町,志津川字天王前２０４番地１１,,04,606,9860729,,,,,,,2024-07-10,1,,,,,エスアイシステム,0
762,3370003006673,新規,0,2024-07-10,2024-07-10,合同会社工福屋,,合同会社,宮城県,仙台市青葉区,荒巻本沢３丁目１８‐１１ルミネ壱番館２０２,,04,101,9810966,,,,,,,2024-07-10,1,,,,,コウフクヤ,0
769,3410001013865,新規,0,2024-07-10,2024-07-10,株式会社豊島工作所,,株式会社,秋田県,由利本荘市,薬師堂字谷地１１９番地１,,05,210,0150041,,,,,,,2024-07-10,1,,,,,トヨシマコウサクショ,0
770,3420001018764,新規,0,2024-07-10,2024-07-10,白神ツーリズム株式会社,,株式会社,青森県,西津軽郡鰺ヶ沢町,大字一ツ森町字上禿８８－２,,02,321,0382723,,,,,,,2024-07-10,1,,,,,シラカミツーリズム,0
771,3420001018797,新規,0,2024-07-10,2024-07-10,株式会社ＮＡＴＵＲ,,株式会社,青森県,青森市,浪館前田２丁目２２番３２号,,02,201,0380024,,,,,,,2024-07-10,1,,,,,ナチュレ,0
774,3430001092189,新規,0,2024-07-10,2024-07-10,株式会社ＴＡＫＡＳＥ,,株式会社,北海道,札幌市厚別区,青葉町１４丁目５番８号,,01,108,0040021,,,,,,,2024-07-10,1,,,,,タカセ,0
775,3430003016542,新規,0,2024-07-10,2024-07-10,合同会社ワークオンサポート,,合同会社,北海道,札幌市中央区,南三条東３丁目８ラフィネタワー札幌南三条２３０８号室,,01,101,0600053,,,,,,,2024-07-10,1,,,,,ワークオンサポート,0
777,3450003002516,新規,0,2024-07-10,2024-07-10,合同会社ＰＨＡＳＥ‐ＴＷＯ,,合同会社,北海道,旭川市,永山十二条２丁目２－１５,,01,204,0798422,,,,,,,2024-07-10,1,,,,,フェーズトウ,0
782,3500001025736,新規,0,2024-07-10,2024-07-10,株式会社Ｓグループ,,株式会社,愛媛県,宇和島市,丸之内１丁目４番７号,,38,203,7980060,,,,,,,2024-07-10,1,,,,,エスグループ,0
788,4010001246380,新規,0,2024-07-10,2024-07-10,株式会社ＳＥＡ　Ｐｌｕｓ,,株式会社,東京都,千代田区,四番町４－６－５０３,,13,101,1020081,,,,,,,2024-07-10,1,,,,,シープラス,0
789,4010001246513,新規,0,2024-07-10,2024-07-10,株式会社ＶＡＲＩＯＳ　ＩＮＮＯＶＡＴＩＯＮ,,株式会社,東京都,中央区,銀座７丁目１５番８号タウンハイツ銀座４０６,,13,102,1040061,,,,,,,2024-07-10,1,,,,,ヴァリオスイノベーション,0
790,4010001246521,新規,0,2024-07-10,2024-07-10,株式会社ぐるぐる,,株式会社,東京都,中央区,日本橋大伝馬町１３番５号,,13,102,1030011,,,,,,,2024-07-10,1,,,,,グルグル,0
791,4010003044295,新規,0,2024-07-10,2024-07-10,合同会社ＫＮ８１プロジェクト,,合同会社,東京都,千代田区,平河町１丁目６番１５号シルスフィア会計事務所内,,13,101,1020093,,,,,,,2024-07-10,1,,,,,ケーエヌエイトワンプロジェクト,0
802,4010401183562,新規,0,2024-07-10,2024-07-10,アイプラックス株式会社,,株式会社,東京都,港区,虎ノ門５丁目１３－１虎ノ門４０ＭＴビル７Ｆ,,13,103,1050001,,,,,,,2024-07-10,1,,,,,アイプラックス,0
803,4010401183579,新規,0,2024-07-10,2024-07-10,株式会社夜型,,株式会社,東京都,港区,南青山６丁目１４番１１号ＲＯＪＵＭＩＮＡＭＩＡＯＹＡＭＡ３Ａ,,13,103,1070062,,,,,,,2024-07-10,1,,,,,ヨルガタ,0
809,4010701046246,新規,0,2024-07-10,2024-07-10,ベイブリッジ株式会社,,株式会社,東京都,品川区,東品川４丁目５番８－９２９号,,13,109,1400002,,,,,,,2024-07-10,1,,,,,ベイブリッジ,0
816,4010801035215,新規,0,2024-07-10,2024-07-10,株式会社Ｏｎｅ　Ｕｎｉｔｙ,,株式会社,東京都,大田区,大森西５丁目８番１０号,,13,111,1430015,,,,,,,2024-07-10,1,,,,,ワンユニティ,0
825,4011001163244,新規,0,2024-07-10,2024-07-10,株式会社縁,,株式会社,東京都,渋谷区,神宮前３丁目１番１４号ＡＫ神宮前５階,,13,113,1500001,,,,,,,2024-07-10,1,,,,,エン,0
826,4011001163260,新規,0,2024-07-10,2024-07-10,株式会社新時代,,株式会社,東京都,渋谷区,東２丁目２４番３号長嶋ビル４階,,13,113,1500011,,,,,,,2024-07-10,1,,,,,シンジダイ,0
828,4011003019568,新規,0,2024-07-10,2024-07-10,合同会社Ｓａｉｓａｋｅｙ,,合同会社,東京都,渋谷区,道玄坂１丁目１０番８号渋谷道玄坂東急ビル２Ｆ－Ｃ,,13,113,1500043,,,,,,,2024-07-10,1,,,,,サイサキ,0
837,4011103014626,新規,0,2024-07-10,2024-07-10,合同会社ジェイ・ジー・エー,,合同会社,東京都,新宿区,下宮比町１番４号,,13,104,1620822,,,,,,,2024-07-10,1,,,,,ジェイジーエー,0
838,4011103014642,新規,0,2024-07-10,2024-07-10,ちょべりぐ合同会社,,合同会社,東京都,新宿区,西新宿４丁目１７番１０－３１２号,,13,104,1600023,,,,,,,2024-07-10,1,,,,,チョベリグ,0
839,4011105011101,新規,0,2024-07-10,2024-07-10,一般社団法人５７士業の会,,その他の設立登記法人,東京都,新宿区,西新宿１丁目３番３号５階,,13,104,1600023,,,,,,,2024-07-10,1,,,,,ゴーナナシギョウノカイ,0
840,4011203004428,新規,0,2024-07-10,2024-07-10,合同会社ＧＲＯＷ,,合同会社,東京都,中野区,中央２丁目２番３号コーポ渡辺２０３,,13,114,1640011,,,,,,,2024-07-10,1,,,,,グロー,0
841,4011301029830,新規,0,2024-07-10,2024-07-10,株式会社國光外装,,株式会社,東京都,杉並区,本天沼１丁目３番９号１Ｆ,,13,115,1670031,,,,,,,2024-07-10,1,,,,,クニミツガイソウ,0
847,4011503006140,新規,0,2024-07-10,2024-07-10,コスモメディックス合同会社,,合同会社,東京都,北区,上中里１丁目３７番１５号大林フローラ上中里１階,,13,117,1140016,,,,,,,2024-07-10,1,,,,,コスモメディックス,0
851,4011801044528,新規,0,2024-07-10,2024-07-10,株式会社ａｓｓｉｓｔ,,株式会社,東京都,葛飾区,金町５丁目１番１６号,,13,122,1250042,,,,,,,2024-07-10,1,,,,,アシスト,0
854,4012701018349,新規,0,2024-07-10,2024-07-10,株式会社ツミヤマシール,,株式会社,東京都,東村山市,栄町３丁目３７番地４ルフォン久米川武蔵野けやきの杜９１３,,13,213,1890013,,,,,,,2024-07-10,1,,,,,ツミヤマシール,0
855,4012801023315,新規,0,2024-07-10,2024-07-10,住まいル住宅株式会社,,株式会社,東京都,東大和市,仲原４丁目１１番地１１,,13,220,2070016,,,,,,,2024-07-10,1,,,,,スマイルジュウタク,0
857,4012803003447,新規,0,2024-07-10,2024-07-10,合同会社Ｒａｉｓｅ,,合同会社,東京都,昭島市,玉川町１丁目２番１号ロワール東中神６０１,,13,207,1960034,,,,,,,2024-07-10,1,,,,,レイズ,0
858,4013101009459,新規,0,2024-07-10,2024-07-10,株式会社ＫＦＰ,,株式会社,東京都,西多摩郡瑞穂町,箱根ケ崎東松原３４‐２３,,13,303,1901222,,,,,,,2024-07-10,1,,,,,,0
868,4021001082682,新規,0,2024-07-10,2024-07-10,株式会社ＳＵＮＳＨＩＮＥ　ＳＴＥＬＬＡ,,株式会社,神奈川県,高座郡寒川町,小谷２丁目４番２１号,,14,321,2530103,,,,,,,2024-07-10,1,,,,,サンシャインステラ,0
879,4030001161207,新規,0,2024-07-10,2024-07-10,ヴェレクラフト株式会社,,株式会社,埼玉県,所沢市,東狭山ケ丘３丁目６７６番１２号,,11,208,3591106,,,,,,,2024-07-10,1,,,,,ヴェレクラフト,0
881,4030001161297,新規,0,2024-07-10,2024-07-10,株式会社日徹プラント,,株式会社,埼玉県,さいたま市大宮区,桜木町２丁目３番地大宮マルイ７階,,11,103,3300854,,,,,,,2024-07-10,1,,,,,ニッテツプラント,0
882,4030001161388,新規,0,2024-07-10,2024-07-10,Ｍｉｓｉｏｎｅｒｏ株式会社,,株式会社,埼玉県,さいたま市桜区,大字白鍬２０１番地４,,11,106,3380811,,,,,,,2024-07-10,1,,,,,ミッショネロ,0
894,4040001134260,新規,0,2024-07-10,2024-07-10,株式会社エムエスカンパニー,,株式会社,千葉県,船橋市,湊町２丁目５番６号,,12,204,2730011,,,,,,,2024-07-10,1,,,,,エムエスカンパニー,0
895,4040001134401,新規,0,2024-07-10,2024-07-10,株式会社Ａｍｅｌｉｏｒａｔｅ,,株式会社,千葉県,市川市,八幡３丁目４番８号,,12,203,2720021,,,,,,,2024-07-10,1,,,,,アミリオレイト,0
896,4040001134483,新規,0,2024-07-10,2024-07-10,司技建株式会社,,株式会社,千葉県,松戸市,栄町西３丁目１０７８番地,,12,207,2710061,,,,,,,2024-07-10,1,,,,,ツカサギケン,0
900,4040003025383,新規,0,2024-07-10,2024-07-10,ＨＳインベストメント合同会社,,合同会社,千葉県,習志野市,袖ケ浦６丁目２番２８号,,12,216,2750021,,,,,,,2024-07-10,1,,,,,エイチエスインベストメント,0
902,4050001055068,新規,0,2024-07-10,2024-07-10,株式会社鈴木自動車,,株式会社,茨城県,猿島郡境町,６１番地１０,,08,546,3060433,,,,,,,2024-07-10,1,,,,,スズキジドウシャ,0
903,4050001055084,新規,0,2024-07-10,2024-07-10,株式会社フクダ空調,,株式会社,茨城県,日立市,みかの原町１丁目６番２７号,,08,202,3160026,,,,,,,2024-07-10,1,,,,,フクダクウチョウ,0
904,4050001055092,新規,0,2024-07-10,2024-07-10,株式会社慈久庵伊勢又工房,,株式会社,茨城県,常陸太田市,中城町１９９番地の３,,08,212,3130061,,,,,,,2024-07-10,1,,,,,ジキュウアンイセマタコウボウ,0
905,4050003008503,新規,0,2024-07-10,2024-07-10,合同会社ＲＩＴＨＵ　ＩＮＴＥＲＮＡＴＩＯＮＡＬ,,合同会社,茨城県,下妻市,鎌庭３８３番地さくらハイツ２０５,,08,210,3040819,,,,,,,2024-07-10,1,,,,,リツインターナショナル,0
906,4050003008536,新規,0,2024-07-10,2024-07-10,ＳＬＺ合同会社,,合同会社,茨城県,常総市,本石下１９４０番地１,,08,211,3002707,,,,,,,2024-07-10,1,,,,,エスエルゼット,0
919,4090001018814,新規,0,2024-07-10,2024-07-10,春櫻株式会社,,株式会社,山梨県,甲府市,千塚１丁目７番７号望月住宅２号棟,,19,201,4000074,,,,,,,2024-07-10,1,,,,,ハルザクラ,0
925,4110001038561,新規,0,2024-07-10,2024-07-10,株式会社Ｋ‐ｗｏｒｋｓ,,株式会社,新潟県,新潟市北区,浜松東町一丁目２番３３号,,15,101,9500000,,,,,,,2024-07-10,1,,,,,ケーワークス,0
938,4120001266608,新規,0,2024-07-10,2024-07-10,株式会社ふらみんご,,株式会社,大阪府,大阪市都島区,片町２丁目９番２０号,,27,102,5340025,,,,,,,2024-07-10,1,,,,,フラミンゴ,0
939,4120001266698,新規,0,2024-07-10,2024-07-10,株式会社ＨＥＭＤ,,株式会社,大阪府,大阪市中央区,高麗橋４丁目１番１号大阪興銀ビル１０階,,27,128,5410043,,,,,,,2024-07-10,1,,,,,ヘムト,0
940,4120001266707,新規,0,2024-07-10,2024-07-10,株式会社イーロック,,株式会社,大阪府,大阪市西区,新町１丁目２４番８号,,27,106,5500013,,,,,,,2024-07-10,1,,,,,イーロック,0
941,4120001266723,新規,0,2024-07-10,2024-07-10,株式会社やたる,,株式会社,大阪府,大阪市北区,梅田１丁目２番２号大阪駅前第２ビル１２－１２,,27,127,5300001,,,,,,,2024-07-10,1,,,,,ヤタル,0
945,4120003027009,新規,0,2024-07-10,2024-07-10,ＫＫ合同会社,,合同会社,大阪府,大阪市港区,三先２丁目１５番１９号,,27,107,5520016,,,,,,,2024-07-10,1,,,,,ケーケー,0
952,4130001077434,新規,0,2024-07-10,2024-07-10,株式会社ＤｒｅａｍＬｉｎｋｓ,,株式会社,京都府,京都市下京区,七条通油小路東入大黒町２２７番地第２キョートビル４０２,,26,106,6008223,,,,,,,2024-07-10,1,,,,,ドリームリンクス,0
960,4140001134993,新規,0,2024-07-10,2024-07-10,兵庫グループ株式会社,,株式会社,兵庫県,赤穂郡上郡町,上郡１４４９番地１,,28,481,6781231,,,,,,,2024-07-10,1,,,,,ヒョウゴグループ,0
961,4140001135109,新規,0,2024-07-10,2024-07-10,株式会社小西建設,,株式会社,兵庫県,川西市,鼓が滝２丁目１４番６号,,28,217,6660123,,,,,,,2024-07-10,1,,,,,コニシケンセツ,0
963,4140003020795,新規,0,2024-07-10,2024-07-10,ＳＡＧＡＲＭＡＴＨＡ合同会社,,合同会社,兵庫県,神戸市兵庫区,五宮町４－１５,,28,105,6520007,,,,,,,2024-07-10,1,,,,,サガルマータ,0
964,4140005027137,新規,0,2024-07-10,2024-07-10,一般社団法人シン音泉,,その他の設立登記法人,兵庫県,美方郡新温泉町,浜坂２３５３－１新温泉町まち歩き案内所「松籟庵」内,,28,586,6696702,,,,,,,2024-07-10,1,,,,,シンオンセン,0
965,4140005027145,新規,0,2024-07-10,2024-07-10,一般社団法人ドリームモンキーズ,,その他の設立登記法人,兵庫県,姫路市,西庄乙１２６番地,,28,201,6700981,,,,,,,2024-07-10,1,,,,,ドリームモンキーズ,0
968,4150001027420,新規,0,2024-07-10,2024-07-10,プラシード株式会社,,株式会社,奈良県,大和高田市,大中南町５番３５号,,29,202,6350092,,,,,,,2024-07-10,1,,,,,プラシード,0
976,4170003002072,新規,0,2024-07-10,2024-07-10,合同会社ＡＳＳＥＭＢＬＥ,,合同会社,和歌山県,和歌山市,松島３３６番地１カーサソレアード１０２,,30,201,6408304,,,,,,,2024-07-10,1,,,,,アセンブル,0
982,4190001031484,新規,0,2024-07-10,2024-07-10,株式会社ＭＹ　ＡＬＬ,,株式会社,三重県,四日市市,大字茂福３１６番地１,,24,202,5108027,,,,,,,2024-07-10,1,,,,,マイオール,0
986,4200001042661,新規,0,2024-07-10,2024-07-10,株式会社ＴＫＧ,,株式会社,岐阜県,海津市,南濃町庭田２５０番地の７,,21,221,5030408,,,,,,,2024-07-10,1,,,,,ティーケージー,0
992,4230001020433,新規,0,2024-07-10,2024-07-10,株式会社ＩＰＰＯ,,株式会社,富山県,富山市,山室１３０番地１１,,16,201,9398006,,,,,,,2024-07-10,1,,,,,イッポ,0
995,4240001063506,新規,0,2024-07-10,2024-07-10,株式会社エステック,,株式会社,広島県,東広島市,西条町下見４７９番地９－１０５,,34,212,7390044,,,,,,,2024-07-10,1,,,,,エステック,0
1005,4310001019104,新規,0,2024-07-10,2024-07-10,株式会社英,,株式会社,長崎県,壱岐市,芦辺町住吉山信触１２０６－１,00135528,42,210,8115741,,,,,,,2024-07-10,1,,,,,ハナブサ,0
1009,4330001032212,新規,0,2024-07-10,2024-07-10,株式会社さくら空調,,株式会社,熊本県,熊本市北区,清水新地２丁目１８番４５号,,43,105,8618075,,,,,,,2024-07-10,1,,,,,サクラクウチョウ,0
1031,4370001051497,新規,0,2024-07-10,2024-07-10,株式会社ＮＹ‐Ｄメディカル,,株式会社,宮城県,仙台市太白区,西多賀３丁目５番１８号,,04,104,9820034,,,,,,,2024-07-10,1,,,,,エヌワイディーメディカル,0
1032,4370003006672,新規,0,2024-07-10,2024-07-10,合同会社Ｔ‐Ｃｏｎｎｅｃｔ．,,合同会社,宮城県,塩竈市,旭町２２‐１６,,04,203,9850026,,,,,,,2024-07-10,1,,,,,ティーコネクト,0
1052,4440001009463,新規,0,2024-07-10,2024-07-10,株式会社ラクトジオール,,株式会社,北海道,函館市,鍛治１丁目１１番８号,,01,202,0410852,,,,,,,2024-07-10,1,,,,,ラクトジオール,0
1054,4450003002515,新規,0,2024-07-10,2024-07-10,合同会社問寒別あさかぜ商会,,合同会社,北海道,天塩郡幌延町,字問寒別４４５番地７,,01,520,0982943,,,,,,,2024-07-10,1,,,,,トイカンベツアサカゼショウカイ,0
1055,4460001005923,新規,0,2024-07-10,2024-07-10,ミャンマーフロンティア株式会社,,株式会社,北海道,釧路市,双葉町８番１７号,,01,206,0850006,,,,,,,2024-07-10,1,,,,,ミャンマーフロンティア,0
1060,4480001012538,新規,0,2024-07-10,2024-07-10,株式会社サステナブル,,株式会社,徳島県,徳島市,出来島本町３丁目３０番地の１－８０３,,36,201,7700823,,,,,,,2024-07-10,1,,,,,サステナブル,0
1068,4700150126438,新規,0,2024-07-10,2024-07-10,一番町ロイアルハイツマンション建替組合,,その他,東京都,港区,虎ノ門１丁目１－２０虎ノ門実業会館７階　株式会社都市設計連合内,,13,103,1050001,,,,,,,2024-07-10,1,,,,,イチバンチヨウロイアルハイツマンシヨンタテカエクミアイ,0
1078,5010001246363,新規,0,2024-07-10,2024-07-10,あかりキャピタル株式会社,,株式会社,東京都,千代田区,一番町１２番地７,,13,101,1020082,,,,,,,2024-07-10,1,,,,,アカリキャピタル,0
1079,5010001246421,新規,0,2024-07-10,2024-07-10,株式会社都市データリサーチ社,,株式会社,東京都,中央区,東日本橋３丁目３番４号ダイヤモンドビル東日本橋第３・３０１号,,13,102,1030004,,,,,,,2024-07-10,1,,,,,トシデータリサーチシャ,0
1080,5010001246446,新規,0,2024-07-10,2024-07-10,株式会社た喜ち,,株式会社,東京都,文京区,本郷３丁目３１番６号,,13,105,1130033,,,,,,,2024-07-10,1,,,,,タキチ,0
1081,5010001246470,新規,0,2024-07-10,2024-07-10,立久株式会社,,株式会社,東京都,千代田区,神田須田町１丁目１４番１号ヒューリック神田須田町ビル１階,,13,101,1010041,,,,,,,2024-07-10,1,,,,,リック,0
1084,5010005038385,新規,0,2024-07-10,2024-07-10,一般社団法人キックボクシング競技連盟,,その他の設立登記法人,東京都,千代田区,永田町２丁目９番６号,,13,101,1000014,,,,,,,2024-07-10,1,,,,,キックボクシングキョウギレンメイ,0
1095,5010401183438,新規,0,2024-07-10,2024-07-10,株式会社Ｒｅｓｉ　Ｆｏｒ,,株式会社,東京都,港区,高輪３丁目１９番２２号品川タワーレジデンス７０２号室,,13,103,1080074,,,,,,,2024-07-10,1,,,,,レジフォー,0
1096,5010401183611,新規,0,2024-07-10,2024-07-10,マーレ株式会社,,株式会社,東京都,港区,南青山３丁目１番３６号青山丸竹ビル６Ｆ,,13,103,1070062,,,,,,,2024-07-10,1,,,,,マーレ,0
1097,5010401183702,新規,0,2024-07-10,2024-07-10,株式会社アビレックス,,株式会社,東京都,港区,三田４丁目１番２８号,,13,103,1080073,,,,,,,2024-07-10,1,,,,,アビレックス,0
1101,5010403032956,新規,0,2024-07-10,2024-07-10,合同会社グリードアイランド,,合同会社,東京都,港区,南青山３丁目１番３６号青山丸竹ビル６Ｆ,,13,103,1070062,,,,,,,2024-07-10,1,,,,,グリードアイランド,0
1102,5010403032980,新規,0,2024-07-10,2024-07-10,ＫＥＩコンサル合同会社,,合同会社,東京都,港区,港南４丁目６番７－３６０２号,,13,103,1080075,,,,,,,2024-07-10,1,,,,,ケイコンサル,0
1103,5010403032989,新規,0,2024-07-10,2024-07-10,合同会社エグザ,,合同会社,東京都,港区,東新橋２丁目６番７号電光ビル３階,,13,103,1050021,,,,,,,2024-07-10,1,,,,,エグザ,0
1108,5010601065519,新規,0,2024-07-10,2024-07-10,株式会社ちひろ薬局,,株式会社,東京都,江東区,富岡１丁目１０番３－３０５号,,13,108,1350047,,,,,,,2024-07-10,1,,,,,チヒロヤッキョク,0
1109,5010601065527,新規,0,2024-07-10,2024-07-10,株式会社ＫＵＲＵＴＯ,,株式会社,東京都,江東区,青海２丁目５番１０号テレコムセンター東棟１４階,,13,108,1350064,,,,,,,2024-07-10,1,,,,,クルト,0
1111,5010801035206,新規,0,2024-07-10,2024-07-10,株式会社インドラ,,株式会社,東京都,大田区,中馬込３丁目２１番３号,,13,111,1430027,,,,,,,2024-07-10,1,,,,,インドラ,0
1116,5010901055624,新規,0,2024-07-10,2024-07-10,株式会社Ｔａｌｋ　Ｔｏ　Ｍｅ,,株式会社,東京都,世田谷区,玉川３丁目１１－１柳小路東角３階３０５,,13,112,1580094,,,,,,,2024-07-10,1,,,,,トークトゥーミー,0
1128,5011103014625,新規,0,2024-07-10,2024-07-10,合同会社ジェイ・イー・ゼッド,,合同会社,東京都,新宿区,下宮比町１番４号,,13,104,1620822,,,,,,,2024-07-10,1,,,,,ジェイイーゼッド,0
1131,5011303005234,新規,0,2024-07-10,2024-07-10,合同会社Ｋ２,,合同会社,東京都,杉並区,上井草４丁目１６番１７号,,13,115,1670023,,,,,,,2024-07-10,1,,,,,ケイニ,0
1150,5020001158021,新規,0,2024-07-10,2024-07-10,株式会社江戸清ホールディングス,,株式会社,神奈川県,横浜市中区,山下町１９２番地,,14,104,2310023,,,,,,,2024-07-10,1,,,,,エドセイホールディングス,0
1151,5020001158038,新規,0,2024-07-10,2024-07-10,株式会社ｂｉｏｔｏｐ,,株式会社,神奈川県,横浜市戸塚区,品濃町５３５番地２,,14,110,2440801,,,,,,,2024-07-10,1,,,,,ビオトープ,0
1156,5021001082707,新規,0,2024-07-10,2024-07-10,株式会社ｓｔａｒｋ,,株式会社,神奈川県,藤沢市,辻堂太平台１丁目１６番９号ｂｅｌｆｉｏｒｅ湘南１０１,,14,205,2510044,,,,,,,2024-07-10,1,,,,,スターク,0
1157,5021003014757,新規,0,2024-07-10,2024-07-10,ＨＥＡＤ　ＭＵＳＩＣ合同会社,,合同会社,神奈川県,海老名市,中央１丁目１６番３１号Ａ＆ＮＩビル１Ｆ,,14,215,2430432,,,,,,,2024-07-10,1,,,,,ヘッドミュージック,0
1160,5030001161346,新規,0,2024-07-10,2024-07-10,株式会社ＩＴＳＵＫＩ,,株式会社,埼玉県,川越市,幸町４番地１りそなコエドテラス３階,,11,201,3500063,,,,,,,2024-07-10,1,,,,,イツキ,0
1161,5030001161379,新規,0,2024-07-10,2024-07-10,株式会社ＴＡＳＬＩＭＡ　ＩＮ,,株式会社,埼玉県,熊谷市,妻沼小島２７７３番地,,11,202,3600245,,,,,,,2024-07-10,1,,,,,タスリマイン,0
1172,5040001134482,新規,0,2024-07-10,2024-07-10,株式会社Ｔ．Ｔ,,株式会社,千葉県,船橋市,北本町２丁目４０番１－１３１５号,,12,204,2730864,,,,,,,2024-07-10,1,,,,,ティーティー,0
1173,5040001134490,新規,0,2024-07-10,2024-07-10,ワイズファイナンシャルサポート株式会社,,株式会社,千葉県,千葉市中央区,宮崎町７２７番地１１,,12,101,2600805,,,,,,,2024-07-10,1,,,,,ワイズファイナンシャルサポート,0
1174,5040001134499,新規,0,2024-07-10,2024-07-10,株式会社ＢＴＭＣ,,株式会社,千葉県,八千代市,勝田台７丁目１９番地２２,,12,221,2760023,,,,,,,2024-07-10,1,,,,,ビーティーエムシー,0
1177,5050001055050,新規,0,2024-07-10,2024-07-10,レイテック株式会社,,株式会社,茨城県,水戸市,赤塚１丁目１６番地エスコート赤塚ＷＥＳＴ、Ａ２０２,,08,201,3114141,,,,,,,2024-07-10,1,,,,,レイテック,0
1178,5050001055059,新規,0,2024-07-10,2024-07-10,株式会社ファーストクラス,,株式会社,茨城県,取手市,ゆめみ野２丁目２２番１号,,08,217,3020039,,,,,,,2024-07-10,1,,,,,ファーストクラス,0
1179,5050003008527,新規,0,2024-07-10,2024-07-10,じぱんぐ合同会社,,合同会社,茨城県,下妻市,黒駒１１３２番地１,,08,210,3040007,,,,,,,2024-07-10,1,,,,,ジバング,0
1182,5060001037279,新規,0,2024-07-10,2024-07-10,株式会社ウィンクルム,,株式会社,栃木県,足利市,八幡町６００－２４サンクレイドル足利ソプラディア３０５,,09,202,3260824,,,,,,,2024-07-10,1,,,,,ウィンクルム,0
1199,5080403005055,新規,0,2024-07-10,2024-07-10,令和美装合同会社,,合同会社,静岡県,浜松市中央区,富塚町１９３３番地の１佐鳴湖パークタウンサウス１１０２号室,,22,138,4328002,,,,,,,2024-07-10,1,,,,,レイワビソウ,0
1207,5110001038560,新規,0,2024-07-10,2024-07-10,株式会社ＲＫＳ,,株式会社,新潟県,三条市,石上３丁目３３番２１号,,15,204,9550084,,,,,,,2024-07-10,1,,,,,アールケーエス,0
1219,5120001266499,新規,0,2024-07-10,2024-07-10,株式会社アイ工務店ホールディングス,,株式会社,大阪府,大阪市中央区,心斎橋筋１丁目９番１７号エトワール心斎橋,,27,128,5420085,,,,,,,2024-07-10,1,,,,,アイコウムテンホールディングス,0
1220,5120001266648,新規,0,2024-07-10,2024-07-10,株式会社ＵｎｉＣｏｎｎｅｃｔ,,株式会社,大阪府,大阪市中央区,東心斎橋１丁目１２番１０号２１アキコビル４Ｆ,,27,128,5420083,,,,,,,2024-07-10,1,,,,,ユニコネクト,0
1242,5140003020803,新規,0,2024-07-10,2024-07-10,合同会社ＬＵＣＫ,,合同会社,兵庫県,西宮市,上甲子園２丁目１番２５－１１０２号,,28,204,6638114,,,,,,,2024-07-10,1,,,,,ラック,0
1244,5150001027411,新規,0,2024-07-10,2024-07-10,株式会社ＢＡＮＢＩ,,株式会社,奈良県,奈良市,南京終町１丁目１６０番地、３７号,,29,201,6308141,,,,,,,2024-07-10,1,,,,,バンビ,0
1249,5180001162255,新規,0,2024-07-10,2024-07-10,株式会社トーワ綜合システム,,株式会社,愛知県,名古屋市中区,丸の内２丁目１番３７号エスパシオ丸の内８階,,23,106,4600002,,,,,,,2024-07-10,1,,,,,トーワソウゴウシステム,0
1251,5180301038816,新規,0,2024-07-10,2024-07-10,株式会社ひまわり建装,,株式会社,愛知県,豊田市,桝塚東町中郷７６番地１１,,23,211,4701212,,,,,,,2024-07-10,1,,,,,ヒマワリケンソウ,0
1252,5180301038824,新規,0,2024-07-10,2024-07-10,株式会社ライク・ア・マジックアワー,,株式会社,愛知県,西尾市,吉良町上横須賀神ノ木１７番地１,,23,213,4440521,,,,,,,2024-07-10,1,,,,,ライクアマジックアワー,0
1254,5180303006176,新規,0,2024-07-10,2024-07-10,合同会社ＥＸＣＩＶ,,合同会社,愛知県,豊橋市,西岩田１丁目６番地１０,,23,201,4400831,,,,,,,2024-07-10,1,,,,,エクシヴ,0
1263,5230005009397,新規,0,2024-07-10,2024-07-10,一般社団法人ライフサポートまつかぜ,,その他の設立登記法人,富山県,富山市,上飯野新町２丁目８９番地,,16,201,9300825,,,,,,,2024-07-10,1,,,,,ライフサポートマツカゼ,0
1267,5240001063505,新規,0,2024-07-10,2024-07-10,ＡＵＴＯ　ＥＸＰＥＲＴ株式会社,,株式会社,広島県,福山市,南本庄１丁目９－４０ハーモネイト２０１号室,,34,207,7200077,,,,,,,2024-07-10,1,,,,,オートエキスパート,0
1279,5290003015318,新規,0,2024-07-10,2024-07-10,合同会社ＢＵＳ,,合同会社,福岡県,福岡市中央区,高砂１丁目２２番１０－６０１号恵比須ヒルズ,,40,133,8100011,,,,,,,2024-07-10,1,,,,,バス,0
1281,5290803004775,新規,0,2024-07-10,2024-07-10,合同会社ＥＣサポート,,合同会社,福岡県,北九州市八幡西区,別当町８－２１,,40,109,8060062,,,,,,,2024-07-10,1,,,,,イーシーサポート,0
1289,5330003010462,新規,0,2024-07-10,2024-07-10,ＯＦＦＩＣＥ　ＵＴＩＬＩＴＹ合同会社,,合同会社,熊本県,宇城市,松橋町豊福１１３９,,43,213,8690524,,,,,,,2024-07-10,1,,,,,オフィスユーティリティ,0
1291,5340001026641,新規,0,2024-07-10,2024-07-10,株式会社Ｓｉ,,株式会社,鹿児島県,鹿児島市,桜ヶ丘４丁目１８番地７,,46,201,8910175,,,,,,,2024-07-10,1,,,,,シー,0
1297,5350005006242,新規,0,2024-07-10,2024-07-10,一般社団法人もぐらクリエイト,,その他の設立登記法人,宮崎県,都城市,高城町穂満坊２７７１番地,,45,202,8851202,,,,,,,2024-07-10,1,,,,,モグラクリエイト,0
1304,5360005007066,新規,0,2024-07-10,2024-07-10,一般社団法人ちむどんどん,,その他の設立登記法人,沖縄県,うるま市,字昆布１８３２－８２９,,47,213,9042201,,,,,,,2024-07-10,1,,,,,チムドンドン,0
1308,5370001051496,新規,0,2024-07-10,2024-07-10,ＳＯＬ株式会社,,株式会社,宮城県,仙台市青葉区,滝道３２番８号,,04,101,9810951,,,,,,,2024-07-10,1,,,,,ソル,0
1309,5370001051505,新規,0,2024-07-10,2024-07-10,國分工業株式会社,,株式会社,宮城県,黒川郡大和町,吉岡字西下蔵８２番地,,04,421,9813621,,,,,,,2024-07-10,1,,,,,コクブンコウギョウ,0
1310,5370003006671,新規,0,2024-07-10,2024-07-10,ｆａ‐ｙａ合同会社,,合同会社,宮城県,仙台市泉区,南光台６丁目１２‐４２,,04,105,9818003,,,,,,,2024-07-10,1,,,,,ファーヤ,0
1325,5420001018795,新規,0,2024-07-10,2024-07-10,株式会社いちい,,株式会社,青森県,八戸市,大字新井田一丁目２番１９号,,02,203,0310813,,,,,,,2024-07-10,1,,,,,イチイ,0
1330,5430003016532,新規,0,2024-07-10,2024-07-10,ＪＡＤＥ　ＬＥＡＦ合同会社,,合同会社,北海道,札幌市南区,川沿一条２丁目１３番１５号,,01,106,0050801,,,,,,,2024-07-10,1,,,,,ジェイドリーフ,0
1331,5430003016540,新規,0,2024-07-10,2024-07-10,合同会社Ｂｕｄｄｉｅｓ,,合同会社,北海道,札幌市白石区,栄通２０丁目８番１２号アーバンリシェス２０２号室,,01,104,0030021,,,,,,,2024-07-10,1,,,,,バディーズ,0
1332,5460101007570,新規,0,2024-07-10,2024-07-10,ボトルショック株式会社,,株式会社,北海道,帯広市,新町東１２丁目１６番地,,01,207,0800052,,,,,,,2024-07-10,1,,,,,ボトルショック,0
1334,5490001010812,新規,0,2024-07-10,2024-07-10,株式会社アスパス,,株式会社,高知県,高知市,桟橋通１丁目１０番４号,,39,201,7818010,,,,,,,2024-07-10,1,,,,,アスパス,0
1335,5490003001900,新規,0,2024-07-10,2024-07-10,合同会社ウメ,,合同会社,高知県,香南市,夜須町手結山６７７番地２,,39,211,7815622,,,,,,,2024-07-10,1,,,,,ウメ,0
1339,5700150126107,新規,0,2024-07-10,2024-06-20,追子野木地区連絡協議会,,その他,青森県,黒石市,追子野木３丁目１４５－１,,02,204,0360357,,,,,,,2024-06-20,1,,,,,オコノキチクレンラクキヨウギカイ,0
1347,6010001246189,新規,0,2024-07-10,2024-07-10,株式会社ＷＥＬＬＣＯＭＥＴＪＡＰＡＮ,,株式会社,東京都,中央区,日本橋２丁目１番２０号,,13,102,1030027,,,,,,,2024-07-10,1,,,,,ウェルコメットジャパン,0
1350,6010003044285,新規,0,2024-07-10,2024-07-10,Ｍｉｒａｉ　Ｒｅａｌ　Ｖｅｎｔｕｒｅｓ合同会社,,合同会社,東京都,千代田区,神田小川町３丁目１１番Ｅ／Ｆｒｏｎｔビル６階,,13,101,1010052,,,,,,,2024-07-10,1,,,,,ミライリアルベンチャーズ,0
1362,6010401183577,新規,0,2024-07-10,2024-07-10,Ｍ‐ＩＢＣ株式会社,,株式会社,東京都,港区,港南２丁目１６番１号品川イーストワンタワー７階,,13,103,1080075,,,,,,,2024-07-10,1,,,,,エムアイビーシー,0
1372,6010601065526,新規,0,2024-07-10,2024-07-10,株式会社ＨＩＧＨ　ＦＩＶＥ,,株式会社,東京都,墨田区,緑３丁目３番１１号,,13,107,1300021,,,,,,,2024-07-10,1,,,,,ハイファイブ,0
1376,6010901055623,新規,0,2024-07-10,2024-07-10,株式会社ＮＥＥＤＩＳ,,株式会社,東京都,世田谷区,岡本２丁目３５番１―３０２号,,13,112,1570076,,,,,,,2024-07-10,1,,,,,ニーディーズ,0
1381,6011001163110,新規,0,2024-07-10,2024-07-10,株式会社ＮＣ,,株式会社,東京都,渋谷区,渋谷２丁目１９番１５号宮益坂ビルディング６０９,,13,113,1500002,,,,,,,2024-07-10,1,,,,,エヌシー,0
1382,6011001163300,新規,0,2024-07-10,2024-07-10,株式会社Ｍｕｓｉｋ,,株式会社,東京都,渋谷区,渋谷２丁目１９番１５号宮益坂ビルディング６０９,,13,113,1500002,,,,,,,2024-07-10,1,,,,,ムジーク,0
1383,6011001163309,新規,0,2024-07-10,2024-07-10,株式会社シャインコネクション,,株式会社,東京都,渋谷区,道玄坂１丁目１６－６二葉ビル８ｂ,,13,113,1500043,,,,,,,2024-07-10,1,,,,,シャインコネクション,0
1386,6011101108031,新規,0,2024-07-10,2024-07-10,ＲＥＶｏｒｔｅｘ株式会社,,株式会社,東京都,新宿区,西新宿１丁目２６番１号,,13,104,1600023,,,,,,,2024-07-10,1,,,,,リボルテックス,0
1388,6011301029837,新規,0,2024-07-10,2024-07-10,株式会社Ｉｎｆｉｎｉｓ,,株式会社,東京都,杉並区,大宮１丁目４－８第二根岸ハイツ２０５,,13,115,1680061,,,,,,,2024-07-10,1,,,,,インフィニス,0
1390,6011501030900,新規,0,2024-07-10,2024-07-10,Ａｌｌ　ｐｏｉｎｔ　ｈｏｔ株式会社,,株式会社,東京都,荒川区,町屋３丁目２４番２号面川ビル２１６号室,,13,118,1160001,,,,,,,2024-07-10,1,,,,,オールポイントホット,0
1391,6011501030909,新規,0,2024-07-10,2024-07-10,Ｃｏ‐Ｗｉｎｎｅｒ株式会社,,株式会社,東京都,荒川区,町屋３丁目１－１３,,13,118,1160001,,,,,,,2024-07-10,1,,,,,コーウイナー,0
1394,6011801044526,新規,0,2024-07-10,2024-07-10,株式会社ＰｌａｃｅＬａｂ,,株式会社,東京都,葛飾区,東金町１丁目１８－６斉藤ホワイトビル３階,,13,122,1250041,,,,,,,2024-07-10,1,,,,,プレイスラボ,0
1397,6012401042069,新規,0,2024-07-10,2024-07-10,株式会社オールファイ,,株式会社,東京都,府中市,新町１丁目４７番地の２ガーデニア新町Ｋマンション４Ｆ,,13,206,1830052,,,,,,,2024-07-10,1,,,,,オールファイ,0
1398,6012401042077,新規,0,2024-07-10,2024-07-10,株式会社満禄建設,,株式会社,東京都,稲城市,百村１９７－８,,13,225,2060804,,,,,,,2024-07-10,1,,,,,ミロクケンセツ,0
1407,6020001157996,新規,0,2024-07-10,2024-07-10,株式会社ＴＫ,,株式会社,神奈川県,横浜市戸塚区,名瀬町３０６６番地ヴェルデ・シティオ明豊１０２号,,14,110,2450051,,,,,,,2024-07-10,1,,,,,ティーケー,0
1408,6020001158037,新規,0,2024-07-10,2024-07-10,株式会社Ｊｕｗａ,,株式会社,神奈川県,横浜市保土ケ谷区,鎌谷町３２９番地２１,,14,106,2400063,,,,,,,2024-07-10,1,,,,,ジュワ,0
1409,6020001158053,新規,0,2024-07-10,2024-07-10,株式会社Ａ‐ＣＯＮＮＥＸ,,株式会社,神奈川県,横浜市青葉区,つつじが丘１９－１０,,14,117,2270055,,,,,,,2024-07-10,1,,,,,エイコネックス,0
1410,6020001158128,新規,0,2024-07-10,2024-07-10,株式会社ＲＣ,,株式会社,神奈川県,川崎市宮前区,鷺沼４丁目１４番地２－Ａ３０３,,14,136,2160004,,,,,,,2024-07-10,1,,,,,アールシー,0
1414,6021003014748,新規,0,2024-07-10,2024-07-10,ＨＤ　ＭＡＲＴ合同会社,,合同会社,神奈川県,厚木市,戸田１０９６番地シャルマン厚木１０１,,14,212,2430023,,,,,,,2024-07-10,1,,,,,エイチディーマート,0
1415,6021005013145,新規,0,2024-07-10,2024-07-10,特定非営利活動法人赤ちゃん食堂プロジェクトままな,,その他の設立登記法人,神奈川県,高座郡寒川町,倉見５９９番２助産院ｍａｍａｎａ．ｈｏｕｓｅ内,,14,321,2530101,,,,,,,2024-07-10,1,,,,,アカチャンショクドウプロジェクトママナ,0
1428,6030001161337,新規,0,2024-07-10,2024-07-10,株式会社ミーティア・ローレル,,株式会社,埼玉県,川口市,新井町２２番１２号,,11,203,3320005,,,,,,,2024-07-10,1,,,,,ミーティアローレル,0
1429,6030001161345,新規,0,2024-07-10,2024-07-10,株式会社Ｍａｔｃｈ　Ｎｅｓｓ,,株式会社,埼玉県,川口市,大字神戸７８２番地の３,,11,203,3330832,,,,,,,2024-07-10,1,,,,,マッチネス,0
1430,6030001161361,新規,0,2024-07-10,2024-07-10,株式会社エバラ企画,,株式会社,埼玉県,熊谷市,銀座３丁目１０５番地１サーパス熊谷銀座セントマークス８０２,,11,202,3600032,,,,,,,2024-07-10,1,,,,,エバラキカク,0
1433,6030003024681,新規,0,2024-07-10,2024-07-10,合同会社デコラボ,,合同会社,埼玉県,越谷市,大字大泊５２４番地１４,,11,222,3430044,,,,,,,2024-07-10,1,,,,,デコラボ,0
1438,6040001134465,新規,0,2024-07-10,2024-07-10,株式会社聖エステート,,株式会社,千葉県,柏市,柏１丁目５番１７号２階,,12,217,2770005,,,,,,,2024-07-10,1,,,,,ヒジリエステート,0
1443,6050003008526,新規,0,2024-07-10,2024-07-10,Ｄ＆Ｄ　ＥＮＴＥＲＰＲＩＳＥＳ合同会社,,合同会社,茨城県,稲敷郡美浦村,大字信太２８７７番地８,,08,442,3000414,,,,,,,2024-07-10,1,,,,,ディーアンドディーエンタープライゼス,0
1444,6060001037286,新規,0,2024-07-10,2024-07-10,株式会社Ｅｎｅｘｔｅｒ,,株式会社,栃木県,宇都宮市,鶴田町２６０２番地１１,,09,201,3200851,,,,,,,2024-07-10,1,,,,,イーネクスター,0
1448,6060003005126,新規,0,2024-07-10,2024-07-10,合同会社ＣＵＲＩＯＳＩＴＹ,,合同会社,栃木県,日光市,鬼怒川温泉大原７９８－２プリムローズ弐番館２０３,,09,206,3212522,,,,,,,2024-07-10,1,,,,,キュリオシティ,0
1455,6080003003251,新規,0,2024-07-10,2024-07-10,合同会社Ｌａ　Ｖｉｅ,,合同会社,静岡県,静岡市駿河区,西中原１丁目５番１－１０６号,,22,102,4228053,,,,,,,2024-07-10,1,,,,,ラヴィエ,0
1462,6100001037612,新規,0,2024-07-10,2024-07-10,株式会社ヨシエビル,,株式会社,長野県,松本市,鎌田１丁目３番１７号,,20,202,3900837,,,,,,,2024-07-10,1,,,,,ヨシエビル,0
1463,6100001037637,新規,0,2024-07-10,2024-07-10,株式会社プランテーション中野,,株式会社,長野県,中野市,大字金井７７９番地１,,20,211,3830008,,,,,,,2024-07-10,1,,,,,プランテーションナカノ,0
1468,6100003007638,新規,0,2024-07-10,2024-07-10,合同会社デザインコネクト,,合同会社,長野県,諏訪市,大字中洲５６７２番地２,,20,206,3920015,,,,,,,2024-07-10,1,,,,,デザインコネクト,0
1477,6120001266523,新規,0,2024-07-10,2024-07-10,株式会社コンパス,,株式会社,大阪府,大阪市中央区,谷町５丁目５番２号,,27,128,5400012,,,,,,,2024-07-10,1,,,,,コンパス,0
1478,6120001266705,新規,0,2024-07-10,2024-07-10,ホップステップ株式会社,,株式会社,大阪府,大阪市北区,梅田１丁目１番３号大阪駅前第３ビル２９階１－１－１号室,,27,127,5300001,,,,,,,2024-07-10,1,,,,,ホップステップ,0
1481,6120003026999,新規,0,2024-07-10,2024-07-10,フラッシュ合同会社,,合同会社,大阪府,門真市,下馬伏町２６番２号,,27,223,5710009,,,,,,,2024-07-10,1,,,,,フラッシュ,0
1482,6120003027023,新規,0,2024-07-10,2024-07-10,合同会社Ｌｅｖｅｎ,,合同会社,大阪府,大阪市北区,梅田１丁目１‐３大阪駅前第３ビル２９階１‐１‐１号室,,27,127,5300001,,,,,,,2024-07-10,1,,,,,レブン,0
1490,6120103005944,新規,0,2024-07-10,2024-07-10,合同会社あきんど,,合同会社,大阪府,泉佐野市,りんくう往来北５番５号,,27,213,5980048,,,,,,,2024-07-10,1,,,,,アキンド,0
1496,6130005017137,新規,0,2024-07-10,2024-07-10,医療法人よこた歯科クリニック,,その他の設立登記法人,京都府,京都市南区,久世中久世町２丁目１０５番地１コスモプラザ,,26,107,6018213,,,,,,,2024-07-10,1,,,,,ヨコタシカクリニック,0
1503,6140001135049,新規,0,2024-07-10,2024-07-10,株式会社Ｋ‐ｓｐｏｒｔｓ,,株式会社,兵庫県,神戸市中央区,磯辺通１丁目１番１８号カサベラ国際プラザビル７０７号室,,28,110,6510084,,,,,,,2024-07-10,1,,,,,ケースポーツ,0
1506,6150003003310,新規,0,2024-07-10,2024-07-10,合同会社ＢＩＪＯＵ,,合同会社,奈良県,磯城郡田原本町,大字三笠２５４番地の１コスモ２００１－２０３号室,,29,363,6360342,,,,,,,2024-07-10,1,,,,,ビジュー,0
1519,6180301038823,新規,0,2024-07-10,2024-07-10,株式会社栄輝,,株式会社,愛知県,豊田市,保見町東古城１４１番地,,23,211,4700344,,,,,,,2024-07-10,1,,,,,エイキ,0
1520,6190001031474,新規,0,2024-07-10,2024-07-10,美観プロ株式会社,,株式会社,三重県,津市,安濃町内多２９４１番地３,,24,201,5142303,,,,,,,2024-07-10,1,,,,,ビカンプロ,0
1521,6190001031482,新規,0,2024-07-10,2024-07-10,株式会社北村工業,,株式会社,三重県,鈴鹿市,寺家７丁目９番４１号,,24,207,5100254,,,,,,,2024-07-10,1,,,,,キタムラコウギョウ,0
1522,6190003004734,新規,0,2024-07-10,2024-07-10,合同会社Ｖｉｔａ,,合同会社,三重県,松阪市,下村町２５７２番地１,,24,204,5150043,,,,,,,2024-07-10,1,,,,,ヴィータ,0
1525,6230001020431,新規,0,2024-07-10,2024-07-10,株式会社ナカダ経営,,株式会社,富山県,小矢部市,矢水町８５,,16,209,9320121,,,,,,,2024-07-10,1,,,,,ナカダケイエイ,0
1530,6250001020727,新規,0,2024-07-10,2024-07-10,株式会社ＣＲＥＡＴＥ　ＭＡＴＣＨ,,株式会社,山口県,宇部市,大字東須恵７８２－５,,35,202,7590206,,,,,,,2024-07-10,1,,,,,クリエイトマッチ,0
1540,6290801030673,新規,0,2024-07-10,2024-07-10,株式会社ＴＯＫＯ,,株式会社,福岡県,北九州市小倉南区,徳力新町１丁目８番３１号,,40,107,8020979,,,,,,,2024-07-10,1,,,,,トコ,0
1545,6330001032243,新規,0,2024-07-10,2024-07-10,株式会社龍園,,株式会社,熊本県,合志市,竹迫２２５３－２,,43,216,8611114,,,,,,,2024-07-10,1,,,,,リュウエン,0
1550,6350003004701,新規,0,2024-07-10,2024-07-10,合同会社ｙｍラ・クール,,合同会社,宮崎県,宮崎市,大字加江田４４９８番地９,,45,201,8892161,,,,,,,2024-07-10,1,,,,,ワイエムラクール,0
1554,6360003014138,新規,0,2024-07-10,2024-07-10,合同会社Ｅａｓｔ,,合同会社,沖縄県,国頭郡東村,字慶佐次７５８番地１７１,,47,303,9051205,,,,,,,2024-07-10,1,,,,,イースト,0
1555,6370001051504,新規,0,2024-07-10,2024-07-10,株式会社ＡＺＡＮ＆ＣＯ,,株式会社,宮城県,大崎市,田尻八幡字河原目１０２番地,,04,215,9894411,,,,,,,2024-07-10,1,,,,,アザンアンドコ,0
1557,6370003006670,新規,0,2024-07-10,2024-07-10,合同会社スリーサイズ,,合同会社,宮城県,亘理郡亘理町,字東郷１２９番地７,,04,361,9892351,,,,,,,2024-07-10,1,,,,,スリーサイズ,0
1561,6380001034664,新規,0,2024-07-10,2024-07-10,株式会社光輝,,株式会社,福島県,南相馬市,原町区東町２丁目６番地の２,,07,212,9750002,,,,,,,2024-07-10,1,,,,,ミツキ,0
1569,6430001092236,新規,0,2024-07-10,2024-07-10,株式会社ＧＯＳＨＩＫＩ,,株式会社,北海道,札幌市手稲区,前田九条１８丁目１番５号,,01,109,0060819,,,,,,,2024-07-10,1,,,,,ゴシキ,0
1572,6470003002676,新規,0,2024-07-10,2024-07-10,合同会社西口建設,,合同会社,香川県,仲多度郡多度津町,大字南鴨６１０番地,,37,404,7640026,,,,,,,2024-07-10,1,,,,,,0
1582,7010001246361,新規,0,2024-07-10,2024-07-10,株式会社ＳａｋｕｒａＲｉｄｅ,,株式会社,東京都,千代田区,神田和泉町１番地６－１６ヤマトビル４０５,,13,101,1010024,,,,,,,2024-07-10,1,,,,,サクラライド,0
1583,7010001246527,新規,0,2024-07-10,2024-07-10,＿運来株式会社,00135535,株式会社,東京都,文京区,白山１丁目６－４文京ＶＥＮＴＵＲＥＢＡＳＥ２階２１５号室,,13,105,1130001,,,,,,,2024-07-10,1,,,,,カクウンライ,0
1594,7010401183428,新規,0,2024-07-10,2024-07-10,株式会社Ｋｉｔｔｏ,,株式会社,東京都,港区,元麻布３丁目１番－６ＢｌｉｎｋＲｏｐｐｏｎｇｉＢ１,,13,103,1060046,,,,,,,2024-07-10,1,,,,,キット,0
1595,7010401183543,新規,0,2024-07-10,2024-07-10,株式会社Ｂｕｉｌｔｏ,,株式会社,東京都,港区,北青山１丁目３番１号アールキューブ青山３階,,13,103,1070061,,,,,,,2024-07-10,1,,,,,ビルト,0
1596,7010401183576,新規,0,2024-07-10,2024-07-10,万奈斯株式会社,,株式会社,東京都,港区,南青山１丁目２０－２乃木坂ビジネスコート,,13,103,1070062,,,,,,,2024-07-10,1,,,,,マナス,0
1597,7010401183584,新規,0,2024-07-10,2024-07-10,株式会社ＺＩＯＮ．,,株式会社,東京都,港区,南青山３丁目１番３６号青山丸竹ビル６Ｆ,,13,103,1070062,,,,,,,2024-07-10,1,,,,,ザイオン,0
1607,7010601065525,新規,0,2024-07-10,2024-07-10,株式会社スプリット,,株式会社,東京都,江東区,新木場３丁目２番８号,,13,108,1360082,,,,,,,2024-07-10,1,,,,,スプリット,0
1612,7010703007251,新規,0,2024-07-10,2024-07-10,合同会社ＴＡＯ,,合同会社,東京都,品川区,東五反田４丁目１０番１０－１００３号,,13,109,1410022,,,,,,,2024-07-10,1,,,,,,0
1619,7010901055622,新規,0,2024-07-10,2024-07-10,株式会社Ｔｒａｎｓ　Ｍｅｄｉａ,,株式会社,東京都,世田谷区,北烏山９丁目２４－１７－２１０号室,,13,112,1570061,,,,,,,2024-07-10,1,,,,,トランスメディア,0
1628,7011001163340,新規,0,2024-07-10,2024-07-10,株式会社ａｍｅ,,株式会社,東京都,渋谷区,恵比寿１丁目３３番６号ＪＰｎｏｉｅ恵比寿西１階,,13,113,1500013,,,,,,,2024-07-10,1,,,,,アメ,0
1635,7011101107957,新規,0,2024-07-10,2024-07-10,株式会社Ｚｕｇｚｗａｎｇ,,株式会社,東京都,新宿区,西早稲田３丁目２９－６,,13,104,1690051,,,,,,,2024-07-10,1,,,,,ツークツワンク,0
1636,7011101108006,新規,0,2024-07-10,2024-07-10,株式会社栄悟商店,,株式会社,東京都,新宿区,余丁町１３番１６－５１０号,,13,104,1620055,,,,,,,2024-07-10,1,,,,,エゴショウテン,0
1638,7011205002609,新規,0,2024-07-10,2024-07-10,特定非営利活動法人エンジニアインデックス,,その他の設立登記法人,東京都,中野区,中野３丁目８番１３－４０３号,,13,114,1640001,,,,,,,2024-07-10,1,,,,,エンジニアインデックス,0
1641,7011501030908,新規,0,2024-07-10,2024-07-10,株式会社ＨＡＢ,,株式会社,東京都,北区,東十条４丁目６－３菊池ビル２１１号,,13,117,1140001,,,,,,,2024-07-10,1,,,,,エイチエービー,0
1644,7011801044517,新規,0,2024-07-10,2024-07-10,株式会社ＨｅａｒｔＦｕｌｌＨｏｍｅ,,株式会社,東京都,葛飾区,東水元５丁目２５番１４号－１０１,,13,122,1250033,,,,,,,2024-07-10,1,,,,,ハートフルホーム,0
1646,7011803006325,新規,0,2024-07-10,2024-07-10,合同会社ＹＹ,,合同会社,東京都,足立区,東保木間１丁目１８－１４,,13,121,1210063,,,,,,,2024-07-10,1,,,,,ワイワイ,0
1656,7020001158093,新規,0,2024-07-10,2024-07-10,株式会社日貿,,株式会社,神奈川県,横浜市港南区,日限山２丁目１番２２－４１０号,,14,111,2330015,,,,,,,2024-07-10,1,,,,,ニチボウ,0
1669,7021001082696,新規,0,2024-07-10,2024-07-10,株式会社ＩＮＦＩＲｅａｃｈ,,株式会社,神奈川県,海老名市,東柏ケ谷４丁目２１－６,,14,215,2430401,,,,,,,2024-07-10,1,,,,,インフィリーチ,0
1675,7021005013144,新規,0,2024-07-10,2024-07-10,特定非営利活動法人さがみこあら,,その他の設立登記法人,神奈川県,相模原市緑区,名倉４３５０－１,,14,151,2520187,,,,,,,2024-07-10,1,,,,,サガミコアラ,0
1679,7030001161303,新規,0,2024-07-10,2024-07-10,Ｊａｐａｎ　Ｓｔｕｄｉｏ株式会社,,株式会社,埼玉県,戸田市,大字新曽８７８番地の２（ＬＡＶＩＮＧＣＯＵＲＴ戸田３０３号室）,,11,224,3350021,,,,,,,2024-07-10,1,,,,,ジャパンスタジオ,0
1680,7030001161336,新規,0,2024-07-10,2024-07-10,海天国際株式会社,,株式会社,埼玉県,川口市,並木３丁目５番１－４０５号,,11,203,3320034,,,,,,,2024-07-10,1,,,,,カイテンコクサイ,0
1681,7030001161344,新規,0,2024-07-10,2024-07-10,株式会社ＭＶＴ‐ＪＡＰＡＮ,,株式会社,埼玉県,熊谷市,中央３丁目１１５番１号グランドプレステージＤ館１０２号,,11,202,3600018,,,,,,,2024-07-10,1,,,,,エムブイティージャパン,0
1682,7030001161352,新規,0,2024-07-10,2024-07-10,株式会社ＥＮＥＲＧＹ,,株式会社,埼玉県,富士見市,西みずほ台１丁目２２番地１１テルビル１Ｆ,,11,235,3540018,,,,,,,2024-07-10,1,,,,,エナジー,0
1683,7030001161377,新規,0,2024-07-10,2024-07-10,Ｄ．ｔａｉｌ　Ｐｕｐｐｙ　Ｊａｐａｎ株式会社,,株式会社,埼玉県,所沢市,大字北岩岡１１６番地６,,11,208,3590007,,,,,,,2024-07-10,1,,,,,ディーテイルパピージャパン,0
1690,7030003024680,新規,0,2024-07-10,2024-07-10,合同会社フルバックス,,合同会社,埼玉県,川口市,並木２丁目２４番１８－１１０４号オーベル川口並木,,11,203,3320034,,,,,,,2024-07-10,1,,,,,フルバックス,0
1692,7040001134472,新規,0,2024-07-10,2024-07-10,Ｅ‐１株式会社,,株式会社,千葉県,成田市,西三里塚２５６番地６０,,12,211,2860115,,,,,,,2024-07-10,1,,,,,イーワン,0
1693,7040001134506,新規,0,2024-07-10,2024-07-10,株式会社コネクトオーディオ,,株式会社,千葉県,千葉市花見川区,宮野木台４丁目１番３４号,,12,102,2620015,,,,,,,2024-07-10,1,,,,,コネクトオーディオ,0
1694,7040001134514,新規,0,2024-07-10,2024-07-10,株式会社オオナミ商事,,株式会社,千葉県,野田市,上花輪新町１の２ライフピア野田ビル６０４,,12,208,2780034,,,,,,,2024-07-10,1,,,,,オオナミショウジ,0
1695,7040001134530,新規,0,2024-07-10,2024-07-10,株式会社俊エンタープライズ,,株式会社,千葉県,船橋市,本町３丁目５番３１号,,12,204,2730005,,,,,,,2024-07-10,1,,,,,シュンエンタープライズ,0
1699,7040003025281,新規,0,2024-07-10,2024-07-10,合同会社ＵＲプロダクション,,合同会社,千葉県,茂原市,早野２７７６番地５セントラルメゾン茂原１０５,,12,210,2970037,,,,,,,2024-07-10,1,,,,,ユーアールプロダクション,0
1700,7040003025389,新規,0,2024-07-10,2024-07-10,合同会社ゼロスタート,,合同会社,千葉県,東金市,南上宿３２－１レオパレスブラン２０５,,12,213,2830066,,,,,,,2024-07-10,1,,,,,ゼロスタート,0
1708,7060001037277,新規,0,2024-07-10,2024-07-10,株式会社ＯＣＩ,,株式会社,栃木県,宇都宮市,鶴田町２１８５番地１８,,09,201,3200851,,,,,,,2024-07-10,1,,,,,オーシーアイ,0
1716,7100001037644,新規,0,2024-07-10,2024-07-10,株式会社ＲＭＣ,,株式会社,長野県,佐久市,岩村田１２９１番地１,,20,217,3850022,,,,,,,2024-07-10,1,,,,,アールエムシー,0
1717,7100003007637,新規,0,2024-07-10,2024-07-10,合同会社ＰＡＭＯＪＡ,,合同会社,長野県,中野市,大字壁田８６８－１,,20,211,3830061,,,,,,,2024-07-10,1,,,,,パモジャ,0
1718,7110005017113,新規,0,2024-07-10,2024-07-10,一般社団法人とみのなる木を育てる会,,その他の設立登記法人,新潟県,新潟市中央区,女池南２丁目６番３号,,15,103,9500948,,,,,,,2024-07-10,1,,,,,トミノナルキヲソダテルカイ,0
1732,7120001266638,新規,0,2024-07-10,2024-07-10,株式会社浜海,,株式会社,大阪府,大阪市西成区,北津守４丁目４番７５－７３号,,27,122,5570061,,,,,,,2024-07-10,1,,,,,ハマウミ,0
1733,7120001266695,新規,0,2024-07-10,2024-07-10,株式会社ツクリコ,,株式会社,大阪府,大阪市中央区,瓦町３丁目３番１６号,,27,128,5410048,,,,,,,2024-07-10,1,,,,,ツクリコ,0
1739,7120103005935,新規,0,2024-07-10,2024-07-10,合同会社ＹＭＧＣエンターテイメント,,合同会社,大阪府,堺市南区,栂４５８番地,,27,145,5900131,,,,,,,2024-07-10,1,,,,,ワイエムジーシーエンターテイメント,0
1740,7120105009876,新規,0,2024-07-10,2024-07-10,ＮＰＯ法人ブルーウイング,,その他の設立登記法人,大阪府,羽曳野市,恵我之荘３丁目２番１８号,,27,222,5830886,,,,,,,2024-07-10,1,,,,,ブルーウイング,0
1741,7120903005259,新規,0,2024-07-10,2024-07-10,合同会社ＹＡＲＯＨＹＡ,,合同会社,大阪府,高槻市,天神町２丁目２９番１７号,,27,207,5691117,,,,,,,2024-07-10,1,,,,,,0
1756,7140001135072,新規,0,2024-07-10,2024-07-10,株式会社リノスペース,,株式会社,兵庫県,神戸市東灘区,御影山手４丁目２２番１８号２０１号,,28,101,6580065,,,,,,,2024-07-10,1,,,,,リノスペース,0
1772,7180001162237,新規,0,2024-07-10,2024-07-10,ＢＥＡＭ株式会社,,株式会社,愛知県,名古屋市中川区,江松１丁目１８１４番地サンライズ１０２号,,23,110,4540954,,,,,,,2024-07-10,1,,,,,ビーム,0
1773,7180001162253,新規,0,2024-07-10,2024-07-10,ＡＣＣＥＮＴＬＥＥ株式会社,,株式会社,愛知県,名古屋市中区,新栄１丁目２番３１号,,23,106,4600007,,,,,,,2024-07-10,1,,,,,アクセントリー,0
1774,7180001162286,新規,0,2024-07-10,2024-07-10,エムズ株式会社,,株式会社,愛知県,日進市,浅田町上小深田３番地１２６,,23,230,4700124,,,,,,,2024-07-10,1,,,,,エムズ,0
1775,7180001162385,新規,0,2024-07-10,2024-07-10,株式会社ＥＳＴＲＡＤＡ,,株式会社,愛知県,名古屋市熱田区,六野１丁目２番２１号ザ・ライオンズミッドキャピタルタワー１４１０,,23,109,4560023,,,,,,,2024-07-10,1,,,,,エストラーダ,0
1787,7200001042691,新規,0,2024-07-10,2024-07-10,株式会社ｔｉｔａｙｕ,,株式会社,岐阜県,大垣市,三津屋町５丁目１３番地,,21,202,5030012,,,,,,,2024-07-10,1,,,,,チタユ,0
1794,7240003006757,新規,0,2024-07-10,2024-07-10,合同会社Ｏｖｅｒｓｔａｎｄ,,合同会社,広島県,広島市南区,宇品西４丁目４番３６パストラルハイム宇品１２０７号,,34,103,7340014,,,,,,,2024-07-10,1,,,,,オーバースタンド,0
1799,7260001039245,新規,0,2024-07-10,2024-07-10,株式会社まごころ,,株式会社,岡山県,井原市,笹賀町２８番地８,,33,207,7150025,,,,,,,2024-07-10,1,,,,,マゴコロ,0
1811,7300001013831,新規,0,2024-07-10,2024-07-10,株式会社ＨＪ‐ＭＩＮＤ２１,,株式会社,佐賀県,三養基郡みやき町,大字中津隈１４８３番地３,,41,346,8490114,,,,,,,2024-07-10,1,,,,,エイチジェイマインド,0
1814,7320001020586,新規,0,2024-07-10,2024-07-10,株式会社藤原電気,,株式会社,大分県,大分市,大字森３４６番地,,44,201,8700128,,,,,,,2024-07-10,1,,,,,フジワラデンキ,0
1816,7320005010170,新規,0,2024-07-10,2024-07-10,ＮＰＯ法人終活支援ネット,,その他の設立登記法人,大分県,大分市,東浜１丁目４番１２号晃亜ビル２０３,,44,201,8700932,,,,,,,2024-07-10,1,,,,,シュウカツシエンネット,0
1817,7330001032234,新規,0,2024-07-10,2024-07-10,株式会社樹コーポレーション,,株式会社,熊本県,阿蘇郡南阿蘇村,大字河陰５２５４番地,,43,433,8691411,,,,,,,2024-07-10,1,,,,,イツキコーポレーション,0
1829,7360001033923,新規,0,2024-07-10,2024-07-10,株式会社ミヤツカ,,株式会社,沖縄県,宜野湾市,喜友名２丁目９番１５－８０１号,,47,205,9012222,,,,,,,2024-07-10,1,,,,,ミヤツカ,0
1831,7360003014153,新規,0,2024-07-10,2024-07-10,合同会社Ｗｉｚ,,合同会社,沖縄県,島尻郡八重瀬町,字富盛２７６６番地,,47,362,9010402,,,,,,,2024-07-10,1,,,,,ウィズ,0
1835,7370001051494,新規,0,2024-07-10,2024-07-10,鈴木建工株式会社,,株式会社,宮城県,仙台市泉区,天神沢１丁目１６番４５号,,04,105,9813105,,,,,,,2024-07-10,1,,,,,スズキケンコウ,0
1836,7370001051503,新規,0,2024-07-10,2024-07-10,Ｅｂｅｎｅｚｅｒ株式会社,,株式会社,宮城県,宮城郡七ヶ浜町,遠山３丁目２番４７－２号,,04,404,9850823,,,,,,,2024-07-10,1,,,,,エベンエゼル,0
1840,7380005012847,新規,0,2024-07-10,2024-07-10,一般社団法人農林水産振興機構,,その他の設立登記法人,福島県,郡山市,富久山町久保田字乙高７２番地の５,,07,203,9638071,,,,,,,2024-07-10,1,,,,,ノウリンスイサンシンコウキコウ,0
1841,7390001017667,新規,0,2024-07-10,2024-07-10,株式会社佐藤カンパニー,,株式会社,山形県,酒田市,黒森甲１９番地,,06,204,9980111,,,,,,,2024-07-10,1,,,,,サトウカンパニー,0
1842,7390003002262,新規,0,2024-07-10,2024-07-10,長岡農場合同会社,,合同会社,山形県,西置賜郡飯豊町,大字中３９１番地,,06,403,9990601,,,,,,,2024-07-10,1,,,,,ナガオカノウジョウ,0
1846,7400001016725,新規,0,2024-07-10,2024-07-10,株式会社豊竹,,株式会社,岩手県,釜石市,野田町３丁目１１番１５号,,03,211,0260054,,,,,,,2024-07-10,1,,,,,ホウチク,0
1853,7420001018777,新規,0,2024-07-10,2024-07-10,株式会社ＳＡＮＤＷＩＣＨ,,株式会社,青森県,弘前市,大字城東５丁目１３－６、２Ｆ,,02,202,0368095,,,,,,,2024-07-10,1,,,,,サンドウィッチ,0
1867,7430001092235,新規,0,2024-07-10,2024-07-10,ＸＱ株式会社,,株式会社,北海道,札幌市中央区,南九条西３丁目２番１号マジソンハイツ１０１１号室,,01,101,0640809,,,,,,,2024-07-10,1,,,,,エックスキュー,0
1870,7430003016547,新規,0,2024-07-10,2024-07-10,合同会社ＡＧＳ,,合同会社,北海道,苫小牧市,表町１丁目５番１３－１０２号,,01,213,0530022,,,,,,,2024-07-10,1,,,,,エージーエス,0
1884,8010001246526,新規,0,2024-07-10,2024-07-10,株式会社青天,,株式会社,東京都,中央区,銀座１丁目１２－４Ｎ＆ＥＢＬＤ．６Ｆ,,13,102,1040061,,,,,,,2024-07-10,1,,,,,セイテン,0
1887,8010003044283,新規,0,2024-07-10,2024-07-10,合同会社ＳＭＣＵ,,合同会社,東京都,中央区,銀座１丁目２２番１１号銀座大竹ビジデンス２Ｆ,,13,102,1040061,,,,,,,2024-07-10,1,,,,,エスエムシーユー,0
1889,8010005038498,新規,0,2024-07-10,2024-07-10,一般社団法人官民連携事業創生機構,,その他の設立登記法人,東京都,千代田区,平河町１丁目６－１５ＵＳビル８Ｆ,,13,101,1020093,,,,,,,2024-07-10,1,,,,,カンミンレンケイジギョウソウセイキコウ,0
1890,8010005038515,新規,0,2024-07-10,2024-07-10,一般社団法人Ｔａｊｉｍｉ,,その他の設立登記法人,東京都,中央区,京橋２丁目１２番６号ＡＯＪ税理士法人内,,13,102,1040031,,,,,,,2024-07-10,1,,,,,タジミ,0
1891,8010005038523,新規,0,2024-07-10,2024-07-10,一般社団法人ＫＮ８１プロジェクト,,その他の設立登記法人,東京都,千代田区,平河町１丁目６番１５号シルスフィア会計事務所内,,13,101,1020093,,,,,,,2024-07-10,1,,,,,ケーエヌエイトワンプロジェクト,0
1901,8010401183583,新規,0,2024-07-10,2024-07-10,株式会社竹屋ＭＯＲＩ,,株式会社,東京都,港区,新橋４丁目２９番１号プラウド新虎通り４０５,,13,103,1050004,,,,,,,2024-07-10,1,,,,,タケヤモリ,0
1902,8010401183658,新規,0,2024-07-10,2024-07-10,株式会社佐々木開発,,株式会社,東京都,港区,南青山２丁目２番１５号ウィン青山９４２,,13,103,1070062,,,,,,,2024-07-10,1,,,,,ササキカイハツ,0
1903,8010401183724,新規,0,2024-07-10,2024-07-10,株式会社ＲＯＹＡＬＴＹ,,株式会社,東京都,港区,三田５丁目４番４号リッツ三田３Ｆ,,13,103,1080073,,,,,,,2024-07-10,1,,,,,ロイヤルティ,0
1908,8010403032994,新規,0,2024-07-10,2024-07-10,ミハス合同会社,,合同会社,東京都,港区,赤坂４丁目１番３１号,,13,103,1070052,,,,,,,2024-07-10,1,,,,,ミハス,0
1921,8010601065532,新規,0,2024-07-10,2024-07-10,フォームドコンサルティング株式会社,,株式会社,東京都,江東区,亀戸２丁目１７－１５,,13,108,1360071,,,,,,,2024-07-10,1,,,,,フォームドコンサルティング,0
1923,8010701046250,新規,0,2024-07-10,2024-07-10,株式会社ネクサスマーテック,,株式会社,東京都,品川区,北品川５丁目３番１号パークシティ大崎ザタワー６２０号室,,13,109,1410001,,,,,,,2024-07-10,1,,,,,ネクサスマーテック,0
1924,8010701046259,新規,0,2024-07-10,2024-07-10,Ｃｈｏｃｏ　Ｃｒａｆｔ株式会社,,株式会社,東京都,品川区,東中延１丁目４番６号－１２０１号,,13,109,1420052,,,,,,,2024-07-10,1,,,,,チョコクラフト,0
1925,8010703007250,新規,0,2024-07-10,2024-07-10,Ｇｏｏｄ　Ｓｅｅｄ合同会社,,合同会社,東京都,品川区,東五反田４丁目３番１５号ＡＡ,,13,109,1410022,,,,,,,2024-07-10,1,,,,,グッドシード,0
1932,8010903009212,新規,0,2024-07-10,2024-07-10,合同会社ＳＫキャピタル,,合同会社,東京都,世田谷区,等々力４丁目１８番３号,,13,112,1580082,,,,,,,2024-07-10,1,,,,,エスケーキャピタル,0
1940,8011001163265,新規,0,2024-07-10,2024-07-10,株式会社Ｓｕｎｎｙ,,株式会社,東京都,渋谷区,道玄坂１丁目１０番８号渋谷道玄坂東急ビル２Ｆ－Ｃ,,13,113,1500043,,,,,,,2024-07-10,1,,,,,サニー,0
1957,8011201025620,新規,0,2024-07-10,2024-07-10,株式会社エスケー,,株式会社,東京都,中野区,本町２丁目１番３号ＳＴビル,,13,114,1640012,,,,,,,2024-07-10,1,,,,,エスケー,0
1959,8011401026253,新規,0,2024-07-10,2024-07-10,株式会社ＢｙｔｅＴｅｃｈ,,株式会社,東京都,板橋区,本町４１番１－３０６号グローリオ板橋本町,,13,119,1730001,,,,,,,2024-07-10,1,,,,,バイトテック,0
1965,8011801044524,新規,0,2024-07-10,2024-07-10,株式会社サニタスコム,,株式会社,東京都,葛飾区,青戸３丁目１３番２２－５０８号,,13,122,1250062,,,,,,,2024-07-10,1,,,,,サニタスコム,0
1977,8020001158035,新規,0,2024-07-10,2024-07-10,シーサイドエナジー株式会社,,株式会社,神奈川県,横浜市神奈川区,鶴屋町１丁目４１番地２４１６号,,14,102,2210835,,,,,,,2024-07-10,1,,,,,シーサイドエナジー,0
1983,8021001082695,新規,0,2024-07-10,2024-07-10,株式会社ＹＳスポーツエンターテイメント,,株式会社,神奈川県,横須賀市,林１丁目８－３,,14,201,2380315,,,,,,,2024-07-10,1,,,,,ワイエススポーツエンターテイメント,0
1987,8021003014688,新規,0,2024-07-10,2024-07-10,衆水合同会社,,合同会社,神奈川県,相模原市南区,東林間２丁目２１－２３－２０２,,14,153,2520311,,,,,,,2024-07-10,1,,,,,シュウスイ,0
1988,8021005013151,新規,0,2024-07-10,2024-07-10,一般社団法人Ｌｉｎｋｌｏｐ,,その他の設立登記法人,神奈川県,相模原市南区,下溝１０７５番地５,,14,153,2520335,,,,,,,2024-07-10,1,,,,,リンクロップ,0
1992,8030001161335,新規,0,2024-07-10,2024-07-10,株式会社ＣＣＭＡ,,株式会社,埼玉県,入間郡毛呂山町,南台４丁目１８番地３,,11,326,3500464,,,,,,,2024-07-10,1,,,,,シーシーエムエー,0
1993,8030001161343,新規,0,2024-07-10,2024-07-10,株式会社ＳＰＡＲＫ,,株式会社,埼玉県,川越市,霞ケ関北５丁目９番地２０,,11,201,3501109,,,,,,,2024-07-10,1,,,,,スパーク,0
1995,8030003024671,新規,0,2024-07-10,2024-07-10,スマイルギフトプロジェクト合同会社,,合同会社,埼玉県,羽生市,東８丁目５番地１３ホワイトシーザー１０１,,11,216,3480052,,,,,,,2024-07-10,1,,,,,スマイルギフトプロジェクト,0
1996,8030003024688,新規,0,2024-07-10,2024-07-10,合同会社ＨＥＬＤＥＮ,,合同会社,埼玉県,鶴ヶ島市,大字脚折１１４番地５シティホームズ２０３号,,11,241,3502213,,,,,,,2024-07-10,1,,,,,ヘルデン,0
1999,8040001134505,新規,0,2024-07-10,2024-07-10,モリコーポレーション株式会社,,株式会社,千葉県,君津市,南子安３丁目１番２７号,,12,225,2991162,,,,,,,2024-07-10,1,,,,,モリコーポレーション,0
2000,8040003025388,新規,0,2024-07-10,2024-07-10,ＬａｇｏＭｙｓｉＧ　Ｃｏｎｎｅｃｔ合同会社,,合同会社,千葉県,東金市,田間１８４５番地１,,12,213,2830005,,,,,,,2024-07-10,1,,,,,ラーゴミューシグコネクト,0
2010,8060001037284,新規,0,2024-07-10,2024-07-10,株式会社すけっとハウス,,株式会社,栃木県,栃木市,皆川城内町１９７３,,09,203,3280067,,,,,,,2024-07-10,1,,,,,スケットハウス,0
2021,8080001026376,新規,0,2024-07-10,2024-07-10,株式会社仙河屋,,株式会社,静岡県,静岡市清水区,蒲原３丁目１８番２９号,,22,103,4213203,,,,,,,2024-07-10,1,,,,,センカヤ,0
2022,8080003003241,新規,0,2024-07-10,2024-07-10,静香苑合同会社,,合同会社,静岡県,焼津市,小土１２７－７,,22,212,4250086,,,,,,,2024-07-10,1,,,,,,0
2023,8080101024858,新規,0,2024-07-10,2024-07-10,株式会社日東ビル,,株式会社,静岡県,富士市,宮島５６番地,,22,210,4160945,,,,,,,2024-07-10,1,,,,,ニットウビル,0
2026,8090003002597,新規,0,2024-07-10,2024-07-10,合同会社ロゴスリスクアドバイザ,,合同会社,山梨県,甲斐市,中下条８４９－１メゾン長田２－Ａ,,19,210,4000124,,,,,,,2024-07-10,1,,,,,ロゴスリスクアドバイザ,0
2047,8120001266645,新規,0,2024-07-10,2024-07-10,ホライズンインベストメントワークスジャパン株式会社,,株式会社,大阪府,大阪市住之江区,南港北１丁目３１番１７－８０３号,,27,125,5590034,,,,,,,2024-07-10,1,,,,,ホライズンインベストメントワークスジャパン,0
2048,8120001266653,新規,0,2024-07-10,2024-07-10,楽奇株式会社,,株式会社,大阪府,大阪市生野区,勝山北５丁目１９番２１号,,27,116,5440033,,,,,,,2024-07-10,1,,,,,ラクキ,0
2049,8120001266678,新規,0,2024-07-10,2024-07-10,株式会社ハドル,,株式会社,大阪府,大阪市浪速区,元町１丁目９番３号,,27,111,5560016,,,,,,,2024-07-10,1,,,,,ハドル,0
2054,8120003026989,新規,0,2024-07-10,2024-07-10,合同会社スロース,,合同会社,大阪府,大阪市福島区,福島７丁目１８－２０－９０５,,27,103,5530003,,,,,,,2024-07-10,1,,,,,スロース,0
2055,8120003026997,新規,0,2024-07-10,2024-07-10,合同会社やなぎ,,合同会社,大阪府,枚方市,出口２丁目２５－１９,,27,210,5730065,,,,,,,2024-07-10,1,,,,,ヤナギ,0
2060,8120101069923,新規,0,2024-07-10,2024-07-10,株式会社大石通信,,株式会社,大阪府,富田林市,高辺台２丁目３２番５号,,27,214,5840072,,,,,,,2024-07-10,1,,,,,オオイシツウシン,0
2067,8122001038248,新規,0,2024-07-10,2024-07-10,株式会社シュナイダー,,株式会社,大阪府,東大阪市,岸田堂西２丁目８番１２号,,27,227,5770848,,,,,,,2024-07-10,1,,,,,シュナイダー,0
2068,8122003002937,新規,0,2024-07-10,2024-07-10,合同会社ＫＵＳＵＮＯＫＩパートナーズ,,合同会社,大阪府,四條畷市,清滝中町１５番３８号,,27,229,5750061,,,,,,,2024-07-10,1,,,,,クスノキパートナーズ,0
2082,8160001026054,新規,0,2024-07-10,2024-07-10,Ｖｉｅ　Ａｖａｎｃｅ株式会社,,株式会社,滋賀県,大津市,枝３丁目１１番６号,,25,201,5202275,,,,,,,2024-07-10,1,,,,,ビアバンス,0
2083,8160003003233,新規,0,2024-07-10,2024-07-10,合同会社ＮＯＵＳ,,合同会社,滋賀県,蒲生郡竜王町,大字薬師８９５,,25,384,5202551,,,,,,,2024-07-10,1,,,,,ヌース,0
2086,8170003002069,新規,0,2024-07-10,2024-07-10,ＢＫＴ合同会社,,合同会社,和歌山県,和歌山市,朝日１１２９番地,,30,201,6400344,,,,,,,2024-07-10,1,,,,,ビーケーティ,0
2090,8180001162260,新規,0,2024-07-10,2024-07-10,株式会社Ｙ’ｓコンサルティング,,株式会社,愛知県,名古屋市千種区,光が丘１丁目１５番２５号,,23,101,4640006,,,,,,,2024-07-10,1,,,,,ワイズコンサルティング,0
2091,8180001162269,新規,0,2024-07-10,2024-07-10,株式会社名鉄リテールホールディングス,,株式会社,愛知県,名古屋市中村区,名駅１丁目２番４号,,23,105,4500002,,,,,,,2024-07-10,1,,,,,メイテツリテールホールディングス,0
2093,8180301038821,新規,0,2024-07-10,2024-07-10,ＳＵポメロ株式会社,,株式会社,愛知県,豊川市,国府町下河原３２番地の６,,23,207,4420854,,,,,,,2024-07-10,1,,,,,エスユーポメロ,0
2094,8190001031480,新規,0,2024-07-10,2024-07-10,株式会社ＫＦアセットマネジメント,,株式会社,三重県,四日市市,浜一色町１２番２３‐１号,,24,202,5100031,,,,,,,2024-07-10,1,,,,,,0
2097,8200001042674,新規,0,2024-07-10,2024-07-10,株式会社将薬,,株式会社,岐阜県,海津市,海津町札野３０番地１,,21,221,5030643,,,,,,,2024-07-10,1,,,,,ショウヤク,0
2098,8200001042690,新規,0,2024-07-10,2024-07-10,株式会社ＦＵＴＳＵ,,株式会社,岐阜県,土岐市,御幸町１丁目３４番地,,21,212,5095125,,,,,,,2024-07-10,1,,,,,フツウ,0
2109,8240003006756,新規,0,2024-07-10,2024-07-10,合同会社ＶＥＮＵＳ,,合同会社,広島県,三次市,三次町１７９３番地９,,34,209,7280021,,,,,,,2024-07-10,1,,,,,ヴィーナス,0
2114,8250005008931,新規,0,2024-07-10,2024-07-10,企業組合大潮田舎の店,,その他の設立登記法人,山口県,周南市,大字大潮１３８６番地の６,,35,215,7450301,,,,,,,2024-07-10,1,,,,,オオシオイナカノミセ,0
2116,8260001039252,新規,0,2024-07-10,2024-07-10,株式会社カイテック,,株式会社,岡山県,岡山市北区,高松２６１番５,,33,101,7011335,,,,,,,2024-07-10,1,,,,,カイテック,0
2125,8290001106396,新規,0,2024-07-10,2024-07-10,株式会社ＳＡＰ,,株式会社,福岡県,福岡市早良区,梅林７丁目１５番８号,,40,137,8140172,,,,,,,2024-07-10,1,,,,,サップ,0
2126,8290001106470,新規,0,2024-07-10,2024-07-10,株式会社もといのしし,,株式会社,福岡県,福岡市博多区,博多駅前３丁目１８番地８号ブルク博多駅前７階ＡＮＣＨＯＲＡＧＥ博多,,40,132,8120011,,,,,,,2024-07-10,1,,,,,モトイノシシ,0
2140,8330001032233,新規,0,2024-07-10,2024-07-10,株式会社南阿蘇ゴルフリゾート,,株式会社,熊本県,阿蘇郡南阿蘇村,大字河陰５２５４番地,,43,433,8691411,,,,,,,2024-07-10,1,,,,,ミナミアソゴルフリゾート,0
2149,8350003004699,新規,0,2024-07-10,2024-07-10,合同会社Ｓｈｉｎ,,合同会社,宮崎県,都城市,今町７２０９番地３,,45,202,8850064,,,,,,,2024-07-10,1,,,,,シン,0
2150,8360001033914,新規,0,2024-07-10,2024-07-10,株式会社Ｒｉｔａ　Ｂｅｎｅｆｉｔ,,株式会社,沖縄県,浦添市,仲間２丁目４３番６－２号,,47,208,9012103,,,,,,,2024-07-10,1,,,,,リタベネフィット,0
2151,8360001033922,新規,0,2024-07-10,2024-07-10,株式会社Ｒｅｇｉｏｎ,,株式会社,沖縄県,名護市,字宮里１００４番地,,47,209,9050011,,,,,,,2024-07-10,1,,,,,リージョン,0
2159,8370003006669,新規,0,2024-07-10,2024-07-10,合同会社ホビーボックス,,合同会社,宮城県,亘理郡亘理町,字東郷１２９番地７,,04,361,9892351,,,,,,,2024-07-10,1,,,,,ホビーボックス,0
2160,8370003006677,新規,0,2024-07-10,2024-07-10,エピックアグリ合同会社,,合同会社,宮城県,亘理郡亘理町,逢隈十文字字佐渡２７４番地２,00135541,04,361,9892303,,,,,,,2024-07-10,1,,,,,エピックアグリ,0
2163,8380003005810,新規,0,2024-07-10,2024-07-10,まめカンパニー合同会社,,合同会社,福島県,福島市,陣場町７番３０号第五寿ビル３０３,,07,201,9608032,,,,,,,2024-07-10,1,,,,,マメカンパニー,0
2164,8390001017674,新規,0,2024-07-10,2024-07-10,株式会社ワンカップ,,株式会社,山形県,山形市,十日町４丁目３－１８,,06,201,9900031,,,,,,,2024-07-10,1,,,,,ワンカップ,0
2166,8400001016724,新規,0,2024-07-10,2024-07-10,慶聚株式会社,,株式会社,岩手県,盛岡市,清水町１２番４０－２０５号,,03,201,0200875,,,,,,,2024-07-10,1,,,,,ケイシュウ,0
2173,8430001092218,新規,0,2024-07-10,2024-07-10,株式会社ＺＥＮＯＮ　ＡｅｒｏＧｅｎｅｓｉｓ,,株式会社,北海道,札幌市西区,福井３丁目１１－１８,,01,107,0630012,,,,,,,2024-07-10,1,,,,,ゼノンエアロジェネシス,0
2182,8480001012542,新規,0,2024-07-10,2024-07-10,株式会社ムネハル,,株式会社,徳島県,鳴門市,大麻町池谷字柳の本８２番地１,,36,202,7790303,,,,,,,2024-07-10,1,,,,,ムネハル,0
2199,9010001246509,新規,0,2024-07-10,2024-07-10,株式会社ＹＴＦ,,株式会社,東京都,中央区,湊２丁目１１番１－７１１号,,13,102,1040043,,,,,,,2024-07-10,1,,,,,ワイティーエフ,0
2200,9010003044308,新規,0,2024-07-10,2024-07-10,久遠合同会社,,合同会社,東京都,文京区,本駒込５丁目２５番８号,,13,105,1130021,,,,,,,2024-07-10,1,,,,,クオン,0
2205,9010103002388,新規,0,2024-07-10,2024-07-10,合同会社阿部住設,,合同会社,東京都,八王子市,横川町５３８－１－１０２,,13,201,1930823,,,,,,,2024-07-10,1,,,,,,0
2217,9010401183541,新規,0,2024-07-10,2024-07-10,株式会社レネオマネジメント,,株式会社,東京都,港区,東麻布２丁目３３番５号第４松阪ビル７階,,13,103,1060044,,,,,,,2024-07-10,1,,,,,レネオマネジメント,0
2218,9010401183582,新規,0,2024-07-10,2024-07-10,株式会社ＢＡＴＯＮ,,株式会社,東京都,港区,青山１－１－１新青山ビル東館７階,,13,103,1050000,,,,,,,2024-07-10,1,,,,,バトン,0
2219,9010401183723,新規,0,2024-07-10,2024-07-10,源興株式会社,,株式会社,東京都,港区,三田５丁目４番４号リッツ三田２Ｆ,,13,103,1080073,,,,,,,2024-07-10,1,,,,,ゲンコウ,0
2220,9010401183748,新規,0,2024-07-10,2024-07-10,ＡＳＰＩＲＥ　ＴＯＫＹＯ株式会社,,株式会社,東京都,港区,北青山１丁目３番１号,,13,103,1070061,,,,,,,2024-07-10,1,,,,,アスパイアトウキョウ,0
2227,9010601065531,新規,0,2024-07-10,2024-07-10,Ｌａｓｔｉｎｇ株式会社,,株式会社,東京都,江東区,南砂４丁目１０番４号・３０１,,13,108,1360076,,,,,,,2024-07-10,1,,,,,ラスティング,0
2234,9010901055538,新規,0,2024-07-10,2024-07-10,株式会社Ｋｕｕ,,株式会社,東京都,世田谷区,野毛３丁目２１番１８－３１１号,,13,112,1580092,,,,,,,2024-07-10,1,,,,,クウ,0
2235,9010901055620,新規,0,2024-07-10,2024-07-10,ＦｕｔｕｒｅＸ株式会社,,株式会社,東京都,世田谷区,奥沢３丁目３６番１５号,,13,112,1580083,,,,,,,2024-07-10,1,,,,,フューチャーエックス,0
2242,9011001163306,新規,0,2024-07-10,2024-07-10,株式会社ｍｉｍｉｔａｓ,,株式会社,東京都,渋谷区,恵比寿西２丁目４番８号ウィンド恵比寿ビル８Ｆ,,13,113,1500021,,,,,,,2024-07-10,1,,,,,ミミタス,0
2244,9011005010578,新規,0,2024-07-10,2024-07-10,ウィメン・イン・ロー・ジャパン一般社団法人,,その他の設立登記法人,東京都,渋谷区,道玄坂１丁目１０番８号渋谷道玄坂東急ビル２Ｆ－Ｃ,,13,113,1500043,,,,,,,2024-07-10,1,,,,,ウィメンインロージャパン,0
2251,9011301029834,新規,0,2024-07-10,2024-07-10,サンレイ株式会社,,株式会社,東京都,杉並区,梅里２丁目２５－１３高円寺プラザ２１３号室,,13,115,1660011,,,,,,,2024-07-10,1,,,,,サンレイ,0
2252,9011403004438,新規,0,2024-07-10,2024-07-10,Ｈｅａｒｔｆｕｌ合同会社,,合同会社,東京都,板橋区,仲町２７番９号,,13,119,1730022,,,,,,,2024-07-10,1,,,,,ハートフル,0
2255,9011503006144,新規,0,2024-07-10,2024-07-10,合同会社ＭＭＬｐｒｏｍｏｔｉｏｎ,,合同会社,東京都,北区,志茂５丁目６－３－２０３,,13,117,1150042,,,,,,,2024-07-10,1,,,,,エムエムエルプロモーション,0
2257,9011701027438,新規,0,2024-07-10,2024-07-10,騰翔株式会社,,株式会社,東京都,江戸川区,東小岩５丁目１２番７号,,13,123,1330052,,,,,,,2024-07-10,1,,,,,トウショウ,0
2262,9011801044523,新規,0,2024-07-10,2024-07-10,金豊商事株式会社,,株式会社,東京都,葛飾区,四つ木４丁目１３番１６号,,13,122,1240011,,,,,,,2024-07-10,1,,,,,キンホウショウジ,0
2274,9020001158018,新規,0,2024-07-10,2024-07-10,株式会社十クラフト,,株式会社,神奈川県,横浜市港南区,笹下６丁目９番３号メゾン・ド・カルピオンＡ１０１号室,,14,111,2340052,,,,,,,2024-07-10,1,,,,,ジュウクラフト,0
2288,9030001161301,新規,0,2024-07-10,2024-07-10,日昇株式会社,,株式会社,埼玉県,川口市,大字伊刈８７２番地の８,,11,203,3330865,,,,,,,2024-07-10,1,,,,,ニッショウ,0
2289,9030001161334,新規,0,2024-07-10,2024-07-10,株式会社アイエスリフォーム,,株式会社,埼玉県,日高市,大字高萩２６１０番地１,,11,242,3501213,,,,,,,2024-07-10,1,,,,,アイエスリフォーム,0
2290,9030001161367,新規,0,2024-07-10,2024-07-10,株式会社シーベース,,株式会社,埼玉県,さいたま市大宮区,寿能町２丁目９８番地５,,11,103,3300805,,,,,,,2024-07-10,1,,,,,シーベース,0
2306,9040001134487,新規,0,2024-07-10,2024-07-10,株式会社鈴森企画,,株式会社,千葉県,市原市,新生５１９番地,,12,219,2900257,,,,,,,2024-07-10,1,,,,,スズモリキカク,0
2311,9050001055088,新規,0,2024-07-10,2024-07-10,株式会社ＰＲＳ大洗,,株式会社,茨城県,東茨城郡大洗町,磯浜町８２４９番地の１０,,08,309,3111301,,,,,,,2024-07-10,1,,,,,ピーアールエスオオアライ,0
2312,9050003008523,新規,0,2024-07-10,2024-07-10,合同会社Ｋリペア,,合同会社,茨城県,水戸市,東前３丁目４６番地の４,,08,201,3111136,,,,,,,2024-07-10,1,,,,,ケーリペア,0
2319,9060001037275,新規,0,2024-07-10,2024-07-10,株式会社コンサルティン,,株式会社,栃木県,宇都宮市,下田原町２８０２－１３,,09,201,3291115,,,,,,,2024-07-10,1,,,,,コンサルティン,0
2320,9060003005148,新規,0,2024-07-10,2024-07-10,ＳＨＡＨ　ＴＲＡＤＩＮＧ合同会社,,合同会社,栃木県,栃木市,岩舟町新里１３０４番地５２号室,,09,203,3294316,,,,,,,2024-07-10,1,,,,,シャートレーディング,0
2326,9080003003249,新規,0,2024-07-10,2024-07-10,Ｃｈｅｒｉｓｈ合同会社,,合同会社,静岡県,静岡市清水区,天王西８番２号,,22,103,4240016,,,,,,,2024-07-10,1,,,,,チェリッシュ,0
2333,9100001037667,新規,0,2024-07-10,2024-07-10,株式会社森川産業,,株式会社,長野県,千曲市,大字鋳物師屋１５０番地,,20,218,3870015,,,,,,,2024-07-10,1,,,,,モリカワサンギョウ,0
2334,9110003005448,新規,0,2024-07-10,2024-07-10,合同会社ホームクリエイト,,合同会社,新潟県,新潟市中央区,鏡が岡四丁目６番地リトルフォレスト２－Ｄ号,,15,103,9500074,,,,,,,2024-07-10,1,,,,,ホームクリエイト,0
2345,9120001266628,新規,0,2024-07-10,2024-07-10,株式会社ボクテン,,株式会社,大阪府,大阪市西区,靱本町３丁目１０－２４兆豊阿波座ビル,,27,106,5500004,,,,,,,2024-07-10,1,,,,,ボクテン,0
2346,9120001266636,新規,0,2024-07-10,2024-07-10,隆盛株式会社,00135545,株式会社,大阪府,大阪市東成区,東小橋１丁目５－３－８０２,,27,115,5370024,,,,,,,2024-07-10,1,,,,,リュウセイ,0
2347,9120001266685,新規,0,2024-07-10,2024-07-10,株式会社ＷＥＩＬ２ＡＳＨ,,株式会社,大阪府,大阪市中央区,船場中央３丁目３－９船場センタービル９号館Ｂ１２０－Ａ,,27,128,5410055,,,,,,,2024-07-10,1,,,,,ウェイルツーアッシュ,0
2349,9120103005941,新規,0,2024-07-10,2024-07-10,合同会社Ｍ．ｆｅｌｌｏｗ,,合同会社,大阪府,泉佐野市,大宮町１０番５号,,27,213,5980053,,,,,,,2024-07-10,1,,,,,エムフェロー,0
2360,9140003020799,新規,0,2024-07-10,2024-07-10,ＯｌｉｖｅＮ合同会社,,合同会社,兵庫県,芦屋市,岩園町１８番１９号,,28,206,6590013,,,,,,,2024-07-10,1,,,,,オリーブン,0
2365,9160003003232,新規,0,2024-07-10,2024-07-10,ＳＲ　Ａｓｓｉｓｔ合同会社,,合同会社,滋賀県,守山市,勝部１丁目１２番２４号,,25,207,5240041,,,,,,,2024-07-10,1,,,,,エスアールアシスト,0
2372,9180301038812,新規,0,2024-07-10,2024-07-10,Ｓ＆Ｓパートナーズ株式会社,,株式会社,愛知県,豊田市,東山町１丁目１番地８,,23,211,4710014,,,,,,,2024-07-10,1,,,,,エスアンドエスパートナーズ,0
2373,9180301038820,新規,0,2024-07-10,2024-07-10,株式会社ｎａｄｅｎａ,,株式会社,愛知県,安城市,安城町赤塚７４番地,,23,212,4460026,,,,,,,2024-07-10,1,,,,,ナデナ,0
2380,9200003006420,新規,0,2024-07-10,2024-07-10,合同会社シデック,,合同会社,岐阜県,羽島郡岐南町,八剣６丁目３５番地,,21,302,5016012,,,,,,,2024-07-10,1,,,,,シデック,0
2387,9220003003787,新規,0,2024-07-10,2024-07-10,さくらパートナーズ合同会社,,合同会社,石川県,加賀市,日谷町４９の６番地,,17,206,9220824,,,,,,,2024-07-10,1,,,,,サクラパートナーズ,0
2391,9230001020429,新規,0,2024-07-10,2024-07-10,株式会社Ｗｅｌｌｂｅｉｎｇ　ＴＯＹＡＭＡ,,株式会社,富山県,富山市,永楽町２－７,,16,201,9300853,,,,,,,2024-07-10,1,,,,,ウェルビーイングトヤマ,0
2402,9240005015795,新規,0,2024-07-10,2024-07-10,一般社団法人島つむぎ,,その他の設立登記法人,広島県,豊田郡大崎上島町,沖浦６５６番地,,34,431,7250402,,,,,,,2024-07-10,1,,,,,シマツムギ,0
2403,9250001020724,新規,0,2024-07-10,2024-07-10,株式会社新山口企画,,株式会社,山口県,山口市,小郡下郷３１９５番地,,35,203,7540002,,,,,,,2024-07-10,1,,,,,シンヤマグチキカク,0
2404,9250003003529,新規,0,2024-07-10,2024-07-10,合同会社アップライフ,,合同会社,山口県,周南市,清水町７番３６号,,35,215,7450834,,,,,,,2024-07-10,1,,,,,アップライフ,0
2406,9250005008930,新規,0,2024-07-10,2024-07-10,一般社団法人相続あんしんサポート,,その他の設立登記法人,山口県,岩国市,周東町下久原４６０番地１,,35,208,7420417,,,,,,,2024-07-10,1,,,,,ソウゾクアンシンサポート,0
2407,9260001039251,新規,0,2024-07-10,2024-07-10,株式会社ＴＲＥＥ,,株式会社,岡山県,総社市,中央２丁目１１番２７号,,33,208,7191131,,,,,,,2024-07-10,1,,,,,トゥリー,0
2420,9290801030695,新規,0,2024-07-10,2024-07-10,株式会社朝月小春組,,株式会社,福岡県,田川市,大字弓削田１１４０番地１,,40,206,8260041,,,,,,,2024-07-10,1,,,,,アサツキコハルグミ,0
2423,9320001020584,新規,0,2024-07-10,2024-07-10,クロスフォート株式会社,,株式会社,大分県,大分市,ふじが丘山手３丁目１２番１３号,,44,201,8701184,,,,,,,2024-07-10,1,,,,,クロスフォート,0
2435,9360003014143,新規,0,2024-07-10,2024-07-10,ガショー合同会社,,合同会社,沖縄県,宜野湾市,真栄原２丁目１３番１号Ｃ－１号,,47,205,9012215,,,,,,,2024-07-10,1,,,,,ガショー,0
2436,9370001051501,新規,0,2024-07-10,2024-07-10,株式会社ＪＩＮコーポレーション,,株式会社,宮城県,仙台市宮城野区,原町２丁目５番４４号,,04,102,9830841,,,,,,,2024-07-10,1,,,,,ジンコーポレーション,0
2437,9370003006668,新規,0,2024-07-10,2024-07-10,合同会社ＥＮｇａＷＡ,,合同会社,宮城県,伊具郡丸森町,金山字表小路２３番地２,,04,341,9812402,,,,,,,2024-07-10,1,,,,,エンガワ,0
2453,9430001092225,新規,0,2024-07-10,2024-07-10,株式会社ＳｔａｎｄＡｒｔ,,株式会社,北海道,札幌市東区,東苗穂十二条１丁目５番１３号,,01,103,0070812,,,,,,,2024-07-10,1,,,,,スタンドアート,0
2454,9430001092233,新規,0,2024-07-10,2024-07-10,株式会社ストライド,,株式会社,北海道,札幌市豊平区,月寒東一条１０丁目２番１－６０１号,,01,105,0620051,,,,,,,2024-07-10,1,,,,,ストライド,0
2456,9430003016545,新規,0,2024-07-10,2024-07-10,合同会社ＭＯＡ,,合同会社,北海道,札幌市東区,東雁来町３０６番２９,,01,103,0070820,,,,,,,2024-07-10,1,,,,,モア,0
2457,9430003016553,新規,0,2024-07-10,2024-07-10,合同会社ＭＲ．ＰＬＡＮＮＩＮＧ,,合同会社,北海道,室蘭市,高砂町１丁目５１番１０－１０１号,,01,205,0500072,,,,,,,2024-07-10,1,,,,,ミスタープランニング,0
2472,9700150124767,新規,0,2024-07-10,2024-04-10,亀岡平和祭保津川市民花火大会実行委員会,,その他,京都府,亀岡市,安町野々神８産業観光部商工観光課内,,26,206,6210805,,,,,,,2024-04-10,1,,,,,カメオカヘイワサイホヅガワシミンハナビタイカイジツコウイインカイ,0
2473,9700150126441,新規,0,2024-07-10,2024-07-10,明後土地改良区,,その他,福井県,大野市,五條方３８－４６,,18,205,9120421,,,,,,,2024-07-10,1,,,,,ミヨウゴトチカイリヨウク,0
