sequenceNumber,corporateNumber,process,correct,updateDate,changeDate,name,nameImageId,kind,prefectureName,cityName,streetNumber,addressImageId,prefectureCode,cityCode,postCode,addressOutside,addressOutsideImageId,closeDate,closeCause,successorCorporateNumber,changeCause,assignmentDate,latest,enName,enPrefectureName,enCityName,enAddressOutside,furigana,hihyoji
7,1010001241459,新規,0,2024-01-16,2024-01-16,株式会社ＴＩＮＴＥＣ　ＪＡＰＡＮ,,株式会社,東京都,中央区,新川１丁目３番２１号ＢＩＺＳＭＡＲＴ茅場町,,13,102,1040033,,,,,,,2024-01-16,1,,,,,ティンテックジャパン,0
8,1010001241475,新規,0,2024-01-16,2024-01-16,株式会社Ｊｕｍｐ　Ｌｉｇｈｔｉｎｇ,,株式会社,東京都,千代田区,内神田３丁目２番１２－１２０１号,,13,101,1010047,,,,,,,2024-01-16,1,,,,,ジャンプライティング,0
9,1010001241491,新規,0,2024-01-16,2024-01-16,旭森国際株式会社,,株式会社,東京都,千代田区,神田錦町３丁目７番地２東京堂錦町ビルディング７０５,,13,101,1010054,,,,,,,2024-01-16,1,,,,,アサヒモリコクサイ,0
12,1010003042616,新規,0,2024-01-16,2024-01-16,ｂｒａｎｄｅｓｉｇｎ合同会社,,合同会社,東京都,千代田区,九段南４丁目７番１０号九段藤山ビル２階,,13,101,1020074,,,,,,,2024-01-16,1,,,,,ブランデザイン,0
16,1010103002288,新規,0,2024-01-16,2024-01-16,こだわりＭＡＸグローバル合同会社,,合同会社,東京都,八王子市,東浅川町５３０－２羽田第二ビル２０１号,,13,201,1930834,,,,,,,2024-01-16,1,,,,,コダワリマックスグローバル,0
36,1010501051614,新規,0,2024-01-16,2024-01-16,株式会社ＦＧＣカンパニー,,株式会社,東京都,台東区,浅草１丁目１４－１,,13,106,1110032,,,,,,,2024-01-16,1,,,,,エフジーシーカンパニー,0
41,1010701045399,新規,0,2024-01-16,2024-01-16,株式会社Ｍａｊｏｒ　Ｍｅｄｉｃａｌ,,株式会社,東京都,品川区,上大崎３丁目１番２－１４１６号,,13,109,1410021,,,,,,,2024-01-16,1,,,,,メジャーメディカル,0
46,1010901054530,新規,0,2024-01-16,2024-01-16,株式会社ＳＴＡＲＴ,,株式会社,東京都,世田谷区,代沢４丁目３０番１５号パピヨンＩＩ２０２,00133353,13,112,1550032,,,,,,,2024-01-16,1,,,,,スタート,0
47,1010901054539,新規,0,2024-01-16,2024-01-16,東京バルーン倶楽部株式会社,,株式会社,東京都,世田谷区,三宿１丁目１５番２号,,13,112,1540005,,,,,,,2024-01-16,1,,,,,トウキョウバルーンクラブ,0
50,1011001159294,新規,0,2024-01-16,2024-01-16,株式会社ｂｙＳＴＲＡＤ,,株式会社,東京都,渋谷区,広尾１丁目１番３９号,,13,113,1500012,,,,,,,2024-01-16,1,,,,,バイストラッド,0
51,1011001159393,新規,0,2024-01-16,2024-01-16,株式会社Ｐｏｌｙｇｏｎ‐ｊａｍ,,株式会社,東京都,渋谷区,上原２丁目３１番３－５０１号リビオメゾン代々木上原,,13,113,1510064,,,,,,,2024-01-16,1,,,,,ポリゴンジャム,0
57,1011101105768,新規,0,2024-01-16,2024-01-16,ＢＲＩＤＧＥＷＡＹ株式会社,,株式会社,東京都,新宿区,西新宿７丁目２１－９－４０６号室,,13,104,1600023,,,,,,,2024-01-16,1,,,,,ブリッジウェイ,0
58,1011101105801,新規,0,2024-01-16,2024-01-16,株式会社ＲＥＤ　ＢＡＮ,,株式会社,東京都,新宿区,四谷２丁目１１－１１アシストビル９Ｆ,,13,104,1600004,,,,,,,2024-01-16,1,,,,,レッドバン,0
59,1011103013952,新規,0,2024-01-16,2024-01-16,カジマ企画合同会社,,合同会社,東京都,新宿区,西新宿３丁目３番１３号西新宿水間ビル６階,,13,104,1600023,,,,,,,2024-01-16,1,,,,,カジマキカク,0
60,1011105010907,新規,0,2024-01-16,2024-01-16,一般社団法人詐欺被害者支援機構,,その他の設立登記法人,東京都,新宿区,高田馬場１丁目２５番２９号ファザーランド高田馬場１０階,,13,104,1690075,,,,,,,2024-01-16,1,,,,,サギヒガイシャシエンキコウ,0
64,1011303005031,新規,0,2024-01-16,2024-01-16,合同会社ｉｔｏ,,合同会社,東京都,杉並区,阿佐谷南１丁目１６番１１号,,13,115,1660004,,,,,,,2024-01-16,1,,,,,アイティーオー,0
65,1011501030194,新規,0,2024-01-16,2024-01-16,株式会社ＬｅＰｒｉｘ　Ｊａｐａｎ,,株式会社,東京都,荒川区,西日暮里２丁目２６番１０号日暮里ビル８階,,13,118,1160013,,,,,,,2024-01-16,1,,,,,ルプリジャパン,0
67,1011601027454,新規,0,2024-01-16,2024-01-16,株式会社はづきリノベーション,,株式会社,東京都,練馬区,錦１丁目１９番９号,,13,120,1790082,,,,,,,2024-01-16,1,,,,,ハヅキリノベーション,0
72,1011801043607,新規,0,2024-01-16,2024-01-16,株式会社アンリミテッド,,株式会社,東京都,足立区,神明１丁目９番１９号アルカンシェル２０４,,13,121,1210051,,,,,,,2024-01-16,1,,,,,アンリミテッド,0
76,1012303001929,新規,0,2024-01-16,2024-01-16,コンサルティング・オフィス合同会社,,合同会社,東京都,町田市,真光寺１丁目１１番地１,,13,209,1950057,,,,,,,2024-01-16,1,,,,,コンサルティングオフィス,0
82,1012801022906,新規,0,2024-01-16,2024-01-16,株式会社紫季彩,,株式会社,東京都,国分寺市,南町２丁目１番２８号,,13,214,1850021,,,,,,,2024-01-16,1,,,,,シキサイ,0
106,1030001158098,新規,0,2024-01-16,2024-01-16,株式会社マキヤ,,株式会社,埼玉県,蕨市,錦町５丁目１４番２７号,,11,223,3350005,,,,,,,2024-01-16,1,,,,,マキヤ,0
107,1030001158148,新規,0,2024-01-16,2024-01-16,株式会社ＧＭ,,株式会社,埼玉県,熊谷市,冑山１１２番地１、２階６号室,,11,202,3690104,,,,,,,2024-01-16,1,,,,,ジーエム,0
108,1030001158164,新規,0,2024-01-16,2024-01-16,ＡＤＷＡＳアート株式会社,,株式会社,埼玉県,行田市,大字下忍１９０２番地６,,11,206,3610037,,,,,,,2024-01-16,1,,,,,アドワスアート,0
109,1030001158172,新規,0,2024-01-16,2024-01-16,株式会社大,,株式会社,埼玉県,新座市,栗原６丁目５番２６号,,11,230,3520035,,,,,,,2024-01-16,1,,,,,ダイ,0
110,1030001158206,新規,0,2024-01-16,2024-01-16,株式会社ふじみトラベル,,株式会社,埼玉県,富士見市,大字鶴馬３２８６番地１６,,11,235,3540021,,,,,,,2024-01-16,1,,,,,フジミトラベル,0
115,1030003023408,新規,0,2024-01-16,2024-01-16,ＫＹＤステージ合同会社,,合同会社,埼玉県,上尾市,富士見２丁目１番２５号,,11,219,3620041,,,,,,,2024-01-16,1,,,,,ケーワイディーステージ,0
116,1030003023432,新規,0,2024-01-16,2024-01-16,合同会社宙美,,合同会社,埼玉県,深谷市,寿町１２３番地１,,11,218,3660025,,,,,,,2024-01-16,1,,,,,ソラミ,0
123,1040001131756,新規,0,2024-01-16,2024-01-16,株式会社晴内装,,株式会社,千葉県,千葉市稲毛区,園生町１０１５番地５５,,12,103,2630051,,,,,,,2024-01-16,1,,,,,ハルナイソウ,0
127,1040003024116,新規,0,2024-01-16,2024-01-16,合同会社スマイリーハート匠,,合同会社,千葉県,千葉市若葉区,高品町１０６０－４３,,12,104,2640024,,,,,,,2024-01-16,1,,,,,スマイリーハートタクミ,0
128,1040005022241,新規,0,2024-01-16,2024-01-16,医療法人社団小千鳥会,,その他の設立登記法人,千葉県,千葉市緑区,おゆみ野南１丁目１番地１５,,12,105,2660033,,,,,,,2024-01-16,1,,,,,コチドリカイ,0
133,1060001036739,新規,0,2024-01-16,2024-01-16,ドーナツビレッジ株式会社,,株式会社,栃木県,大田原市,須佐木２１５番地５,,09,210,3240212,,,,,,,2024-01-16,1,,,,,ドーナツビレッジ,0
179,1100003007345,新規,0,2024-01-16,2024-01-16,合同会社カド,,合同会社,長野県,小諸市,大字御影新田１８７６番地３,,20,208,3840808,,,,,,,2024-01-16,1,,,,,カド,0
180,1110001038102,新規,0,2024-01-16,2024-01-16,株式会社ＴＡＩＳＨＯホールディングス,,株式会社,新潟県,上越市,大字石沢１４１６番地２０,,15,222,9430872,,,,,,,2024-01-16,1,,,,,タイショウホールディングス,0
192,1120001261231,新規,0,2024-01-16,2024-01-16,株式会社ＳＩＤ,,株式会社,大阪府,大阪市北区,梅田１丁目３－１大阪駅前第１ビル８階５号,,27,127,5300001,,,,,,,2024-01-16,1,,,,,エスアイディー,0
193,1120001261297,新規,0,2024-01-16,2024-01-16,三豊川株式会社,,株式会社,大阪府,大阪市東成区,中道２丁目２４番１８号Ｓｕｎｂｌｄ．２Ｂ号室,,27,115,5370025,,,,,,,2024-01-16,1,,,,,サントヨカワ,0
194,1120001261314,新規,0,2024-01-16,2024-01-16,Ｃｅｌｌ‐Ｍｏｄｕｌｅ株式会社,,株式会社,大阪府,大阪市都島区,中野町４丁目３番６号Ｈ２Ｈ大阪桜之宮邸１Ｄ－３,,27,102,5340027,,,,,,,2024-01-16,1,,,,,セルモジュール,0
195,1120001261363,新規,0,2024-01-16,2024-01-16,株式会社ちかし,,株式会社,大阪府,大阪市旭区,森小路２丁目１８番５号,,27,117,5350013,,,,,,,2024-01-16,1,,,,,チカシ,0
196,1120003025618,新規,0,2024-01-16,2024-01-16,ＩＮ４Ａ合同会社,,合同会社,大阪府,大阪市中央区,徳井町２丁目２番８号アネックス石川６０２,,27,128,5400025,,,,,,,2024-01-16,1,,,,,インフォエー,0
197,1120003025683,新規,0,2024-01-16,2024-01-16,創研堂合同会社,,合同会社,大阪府,大阪市北区,梅田１丁目２番２号大阪駅前第２ビル１２‐１２,,27,127,5300001,,,,,,,2024-01-16,1,,,,,ソウケンドウ,0
199,1120901048629,新規,0,2024-01-16,2024-01-16,株式会社ＹＫｎｏｔ,,株式会社,大阪府,吹田市,垂水町１丁目５３番２４号,,27,205,5640062,,,,,,,2024-01-16,1,,,,,ワイノット,0
202,1130001076125,新規,0,2024-01-16,2024-01-16,株式会社セイルエステート,,株式会社,京都府,京都市中京区,河原町通御池下る下丸屋町４０３番地ＦＩＳビル５０９号室,,26,104,6048006,,,,,,,2024-01-16,1,,,,,セイルエステート,0
207,1140001132967,新規,0,2024-01-16,2024-01-16,株式会社黒組,,株式会社,兵庫県,神戸市東灘区,向洋町中５丁目１番地５２４号棟１１３号,,28,101,6580032,,,,,,,2024-01-16,1,,,,,クログミ,0
208,1140001133008,新規,0,2024-01-16,2024-01-16,株式会社成,,株式会社,兵庫県,西宮市,今津野田町２番２０号,,28,204,6638212,,,,,,,2024-01-16,1,,,,,ナリ,0
214,1140003020030,新規,0,2024-01-16,2024-01-16,ＧＵＴ合同会社,,合同会社,兵庫県,神戸市北区,上津台６丁目２５番２３号,,28,109,6511515,,,,,,,2024-01-16,1,,,,,ジーユーティー,0
230,1180001159552,新規,0,2024-01-16,2024-01-16,くうが株式会社,,株式会社,愛知県,名古屋市中村区,名駅４丁目２４番５号第２森ビル４０１,,23,105,4500002,,,,,,,2024-01-16,1,,,,,クウガ,0
264,1190001031033,新規,0,2024-01-16,2024-01-16,株式会社雄輝設備,,株式会社,三重県,松阪市,上川町２７３９番地２２,,24,204,5150041,,,,,,,2024-01-16,1,,,,,ユウキセツビ,0
277,1230003002135,新規,0,2024-01-16,2024-01-16,合同会社グロリア,,合同会社,富山県,黒部市,生地神区３１３番地１,,16,207,9380061,,,,,,,2024-01-16,1,,,,,グロリア,0
295,1290001104258,新規,0,2024-01-16,2024-01-16,株式会社ＡＲＴＳ,,株式会社,福岡県,八女郡広川町,大字日吉４８３,,40,544,8340111,,,,,,,2024-01-16,1,,,,,,0
296,1290001104365,新規,0,2024-01-16,2024-01-16,株式会社ＷＥＥＤ,,株式会社,福岡県,糟屋郡宇美町,大字井野７７番地１,,40,341,8112104,,,,,,,2024-01-16,1,,,,,ウィード,0
297,1290001104381,新規,0,2024-01-16,2024-01-16,株式会社ミマス,,株式会社,福岡県,糟屋郡篠栗町,大字尾仲１０５番地,,40,342,8112413,,,,,,,2024-01-16,1,,,,,ミマス,0
299,1290003014851,新規,0,2024-01-16,2024-01-16,サクシード合同会社,,合同会社,福岡県,大牟田市,新勝立町４丁目３番地４２,,40,202,8360895,,,,,,,2024-01-16,1,,,,,サクシード,0
301,1290801030216,新規,0,2024-01-16,2024-01-16,株式会社ＴＨＥトラクターズ,,株式会社,福岡県,田川郡大任町,大字大行事３３７４番地,,40,608,8240512,,,,,,,2024-01-16,1,,,,,ザトラクターズ,0
306,1330003010160,新規,0,2024-01-16,2024-01-16,合同会社右田農水産,,合同会社,熊本県,熊本市西区,沖新町４７２５番地,,43,103,8615273,,,,,,,2024-01-16,1,,,,,ミギタノウスイサン,0
311,1360003013615,新規,0,2024-01-16,2024-01-16,合同会社すばる,,合同会社,沖縄県,宮古島市,下地字洲鎌３０９―９―３０３,,47,214,9060303,,,,,,,2024-01-16,1,,,,,スバル,0
325,1420001018551,新規,0,2024-01-16,2024-01-16,株式会社ＥＬＭ商業企画,,株式会社,青森県,五所川原市,大字唐笠柳字藤巻５１７番地１,,02,205,0370004,,,,,,,2024-01-16,1,,,,,エルムショウギョウキカク,0
327,1430001090871,新規,0,2024-01-16,2024-01-16,株式会社いぬ組,,株式会社,北海道,江別市,西野幌１２７番地,,01,217,0690832,,,,,,,2024-01-16,1,,,,,イヌグミ,0
328,1430003015819,新規,0,2024-01-16,2024-01-16,Ｆｅｍｉｌｅｔ合同会社,,合同会社,北海道,札幌市中央区,南八条西１２丁目２番３３－４０３号,,01,101,0640808,,,,,,,2024-01-16,1,,,,,フェミレット,0
345,1500003003171,新規,0,2024-01-16,2024-01-16,合同会社まごころ総合保険代理店,,合同会社,愛媛県,松山市,正円寺３丁目７番２８号,,38,201,7900904,,,,,,,2024-01-16,1,,,,,マゴコロソウゴウホケンダイリテン,0
351,1700150123347,新規,0,2024-01-16,2024-01-16,Ｓｗｉｓｓ　Ａｖｉａｔｉｏｎ　Ｓｏｆｔｗａｒｅ　ＡＧ,,外国会社等,東京都,港区,芝公園３丁目１番１３号アーバン芝公園３階,,13,103,1050011,スイス連邦、４１２３アルシュヴィル、ラーヘンシュトラーセ１８,,,,,,2024-01-16,1,,,,,スイスアビエーシヨンソフトウエアエージー,0
361,2010005037729,新規,0,2024-01-16,2024-01-16,一般社団法人なかま,,その他の設立登記法人,東京都,中央区,新川１丁目２番１２号金山ビル８階,,13,102,1040033,,,,,,,2024-01-16,1,,,,,ナカマ,0
368,2010401179744,新規,0,2024-01-16,2024-01-16,ｅｌｉｔｅ　ｊａｐａｎ株式会社,,株式会社,東京都,港区,南青山４丁目１６－３南青山オークビル１０１,,13,103,1070062,,,,,,,2024-01-16,1,,,,,エリートジャパン,0
369,2010401179769,新規,0,2024-01-16,2024-01-16,ＨＯＴＥＬＡ　ＣＩＴＩＥＳ株式会社,,株式会社,東京都,港区,浜松町２丁目２番１５号浜松町ダイヤビル２Ｆ,,13,103,1050013,,,,,,,2024-01-16,1,,,,,ホテラシティーズ,0
372,2010405022842,新規,0,2024-01-16,2024-01-16,弁護士法人神谷法律事務所,,その他の設立登記法人,東京都,港区,北青山２丁目１１番１５号神谷ビル,,13,103,1070061,,,,,,,2024-01-16,1,,,,,,0
377,2010603010582,新規,0,2024-01-16,2024-01-16,合同会社ＪＪマネジメント,,合同会社,東京都,江東区,豊洲３丁目６番８－３８０１号,,13,108,1350061,,,,,,,2024-01-16,1,,,,,ジェイジェイマネジメント,0
384,2010903008731,新規,0,2024-01-16,2024-01-16,ＫＭＡＰ合同会社,,合同会社,東京都,世田谷区,世田谷１丁目２９番２－３０２号,,13,112,1540017,,,,,,,2024-01-16,1,,,,,ケマプ,0
392,2011001159293,新規,0,2024-01-16,2024-01-16,株式会社ビットハングリー,,株式会社,東京都,渋谷区,渋谷２丁目１９番１５号宮益坂ビルディング６０９,,13,113,1500002,,,,,,,2024-01-16,1,,,,,ビットハングリー,0
397,2011101105775,新規,0,2024-01-16,2024-01-16,株式会社ゲンバアイ,,株式会社,東京都,新宿区,新宿１丁目２６－１２四谷御苑マンション３０１,,13,104,1600022,,,,,,,2024-01-16,1,,,,,ゲンバアイ,0
404,2011401025764,新規,0,2024-01-16,2024-01-16,ＳＣＨＯＢ株式会社,,株式会社,東京都,板橋区,板橋２丁目６３－４グローリア初穂板橋５０１ＥａｓｙＯｆｆｉｃｅ,,13,119,1730004,,,,,,,2024-01-16,1,,,,,シンボ,0
409,2011501030193,新規,0,2024-01-16,2024-01-16,株式会社エムスペースプラン,,株式会社,東京都,北区,浮間２丁目２２番９－４０６号サンライフ浮間,,13,117,1150051,,,,,,,2024-01-16,1,,,,,エムスペースプラン,0
410,2011503005912,新規,0,2024-01-16,2024-01-16,Ａｌｍａｃｅ　Ｃｏｎｓｕｌｔｉｎｇ合同会社,,合同会社,東京都,荒川区,荒川４丁目９番１－８０２号,,13,118,1160002,,,,,,,2024-01-16,1,,,,,アルマスコンサルティング,0
411,2011505002602,新規,0,2024-01-16,2024-01-16,一般社団法人ティーチャーズブレインアカデミー,,その他の設立登記法人,東京都,北区,東田端２丁目８番１５号マンションニュー田端２０７,,13,117,1140013,,,,,,,2024-01-16,1,,,,,ティーチャーズブレインアカデミー,0
413,2011603004186,新規,0,2024-01-16,2024-01-16,ジャパン・インターナショナル合同会社,,合同会社,東京都,練馬区,羽沢１丁目６番１５号,,13,120,1760003,,,,,,,2024-01-16,1,,,,,ジャパンインターナショナル,0
414,2011603004203,新規,0,2024-01-16,2024-01-16,カタパルトスープレックス合同会社,,合同会社,東京都,練馬区,立野町１８－４５アンシャンテ吉祥寺ＡＢ・Ｂ１０３,,13,120,1770054,,,,,,,2024-01-16,1,,,,,カタパルトスープレックス,0
419,2011801043647,新規,0,2024-01-16,2024-01-16,株式会社イシンコーポレーション,,株式会社,東京都,足立区,千住仲町７番地６号デュオメゾン１０４,,13,121,1200036,,,,,,,2024-01-16,1,,,,,イシンコーポレーション,0
422,2011803006040,新規,0,2024-01-16,2024-01-16,ファイブスターマネジメント合同会社,,合同会社,東京都,葛飾区,高砂７丁目１３番３１号,,13,122,1250054,,,,,,,2024-01-16,1,,,,,ファイブスターマネジメント,0
425,2012703002889,新規,0,2024-01-16,2024-01-16,Ｌ・Ｍ・Ｌ合同会社,,合同会社,東京都,清瀬市,下宿２丁目４１２番地２,,13,221,2040001,,,,,,,2024-01-16,1,,,,,エルエムエル,0
426,2012803003283,新規,0,2024-01-16,2024-01-16,合同会社アリアプレゼン,,合同会社,東京都,国分寺市,西恋ヶ窪２丁目２５番地１,,13,214,1850013,,,,,,,2024-01-16,1,,,,,アリアプレゼン,0
427,2013101009329,新規,0,2024-01-16,2024-01-16,株式会社クレバネス,,株式会社,東京都,青梅市,今寺４丁目１７番地の２９,,13,205,1980021,,,,,,,2024-01-16,1,,,,,クレバネス,0
430,2013301051898,新規,0,2024-01-16,2024-01-16,宇動株式会社,,株式会社,東京都,豊島区,東池袋２丁目６２番８号ＢＩＧオフィスプラザ池袋６０２室,,13,116,1700013,,,,,,,2024-01-16,1,,,,,ウドウ,0
436,2020001155302,新規,0,2024-01-16,2024-01-16,株式会社シーキューブ,,株式会社,神奈川県,横浜市港北区,新吉田東５丁目５１番１３号,,14,109,2230058,,,,,,,2024-01-16,1,,,,,シーキューブ,0
441,2021001081199,新規,0,2024-01-16,2024-01-16,株式会社トータル豊夢,,株式会社,神奈川県,伊勢原市,上粕屋２３４９－１,,14,214,2591141,,,,,,,2024-01-16,1,,,,,トータルホーム,0
446,2021003013976,新規,0,2024-01-16,2024-01-16,合同会社ＬＩＮＯＨＡＮＡ,,合同会社,神奈川県,藤沢市,辻堂元町２丁目５番２６号,,14,205,2510043,,,,,,,2024-01-16,1,,,,,リノハナ,0
447,2021003014017,新規,0,2024-01-16,2024-01-16,合同会社オフィスＲ,,合同会社,神奈川県,藤沢市,藤沢１０６１－３望月ビル１Ｆ,,14,205,2510052,,,,,,,2024-01-16,1,,,,,オフィスアール,0
454,2030003023365,新規,0,2024-01-16,2024-01-16,合同会社アルテミュニティ,,合同会社,埼玉県,北葛飾郡松伏町,ゆめみ野１丁目２番１号,,11,465,3430113,,,,,,,2024-01-16,1,,,,,アルテミュニティ,0
455,2030003023398,新規,0,2024-01-16,2024-01-16,ライフドア合同会社,,合同会社,埼玉県,川越市,大字下新河岸２７－３,,11,201,3501136,,,,,,,2024-01-16,1,,,,,ライフドア,0
456,2030003023415,新規,0,2024-01-16,2024-01-16,ＰＲＯＪＥＣＴ　ＳＡＭ合同会社,,合同会社,埼玉県,秩父市,下影森７１７番地１４,,11,207,3691871,,,,,,,2024-01-16,1,,,,,プロジェクトサム,0
457,2030003023431,新規,0,2024-01-16,2024-01-16,合同会社ＲＯＮＤＯ,,合同会社,埼玉県,朝霞市,本町２丁目９番２２号,,11,227,3510011,,,,,,,2024-01-16,1,,,,,ロンド,0
463,2040001131730,新規,0,2024-01-16,2024-01-16,エフファーマシー株式会社,,株式会社,千葉県,千葉市美浜区,浜田１丁目３番地コロンブスシティ３３９号,,12,106,2610025,,,,,,,2024-01-16,1,,,,,エフファーマシー,0
464,2040003024115,新規,0,2024-01-16,2024-01-16,合同会社ＡＣＥ　ＪＡＰＡＮ,,合同会社,千葉県,松戸市,本町１７番地の１１芹澤ビル６Ｆ,,12,207,2710091,,,,,,,2024-01-16,1,,,,,エーシーイージャパン,0
465,2050001054105,新規,0,2024-01-16,2024-01-16,株式会社農研植物病院,,株式会社,茨城県,つくば市,観音台２丁目１番地１８,,08,220,3050856,,,,,,,2024-01-16,1,,,,,ノウケンショクブツビョウイン,0
471,2060001036738,新規,0,2024-01-16,2024-01-16,株式会社寺澤美装,,株式会社,栃木県,宇都宮市,元今泉５丁目５番３号パークフィニ３０２,,09,201,3210954,,,,,,,2024-01-16,1,,,,,テラサワビソウ,0
509,2080405007606,新規,0,2024-01-16,2024-01-16,静岡広域生コンクリート協同組合,,その他の設立登記法人,静岡県,浜松市中央区,薬師町３４６番地,,22,138,4350017,,,,,,,2024-01-16,1,,,,,シズオカコウイキナマコンクリート,0
516,2090003002470,新規,0,2024-01-16,2024-01-16,合同会社ＡＦＣＬ,,合同会社,山梨県,甲州市,勝沼町下岩崎２２７９番地１,,19,213,4091313,,,,,,,2024-01-16,1,,,,,エイエフシイエル,0
521,2110003005264,新規,0,2024-01-16,2024-01-16,合同会社ｅｍｏｔｉｏｎｓ,,合同会社,新潟県,新潟市中央区,女池南３丁目５－１ＳＨＳ鳥屋野店２棟目内,,15,103,9500948,,,,,,,2024-01-16,1,,,,,エモーションズ,0
533,2120001261346,新規,0,2024-01-16,2024-01-16,株式会社グローリット,,株式会社,大阪府,大阪市中央区,難波５丁目１番６０号なんばスカイオ２７Ｆ,,27,128,5420076,,,,,,,2024-01-16,1,,,,,グローリット,0
534,2120001261412,新規,0,2024-01-16,2024-01-16,ＧｏＧｏ株式会社,,株式会社,大阪府,大阪市生野区,巽北１丁目２１番２９－２１６号,,27,116,5440004,,,,,,,2024-01-16,1,,,,,ゴーゴー,0
541,2120901048628,新規,0,2024-01-16,2024-01-16,株式会社Ａｚｕ　ｙｏｕ,,株式会社,大阪府,高槻市,明野町１番５－３０８号,,27,207,5690082,,,,,,,2024-01-16,1,,,,,アズユー,0
543,2122001037734,新規,0,2024-01-16,2024-01-16,株式会社Ｂｕｉｌｄ　Ｕｐ,,株式会社,大阪府,八尾市,中田５丁目２５番地,,27,212,5810014,,,,,,,2024-01-16,1,,,,,ビルドアップ,0
546,2130003009239,新規,0,2024-01-16,2024-01-16,ザ・シックス合同会社,,合同会社,京都府,京都市北区,紫竹下ノ岸町４４番地３,,26,101,6038107,,,,,,,2024-01-16,1,,,,,ザシックス,0
551,2140001132966,新規,0,2024-01-16,2024-01-16,株式会社Ｔｒｉｌｏｇｉｅ,,株式会社,兵庫県,神戸市北区,有馬町１０６８,,28,109,6511401,,,,,,,2024-01-16,1,,,,,トリロジー,0
552,2140001132990,新規,0,2024-01-16,2024-01-16,株式会社ａｔ　ｗｉｌｌ,,株式会社,兵庫県,神戸市垂水区,多聞町８６８番地の１２８４,,28,108,6550001,,,,,,,2024-01-16,1,,,,,アットウイル,0
553,2140001132999,新規,0,2024-01-16,2024-01-16,株式会社ＰＬＵＳ　ＯＮＥ,,株式会社,兵庫県,川西市,小花１丁目９番１－２０４号,,28,217,6660015,,,,,,,2024-01-16,1,,,,,プラスワン,0
556,2140003020054,新規,0,2024-01-16,2024-01-16,合同会社コズミック,,合同会社,兵庫県,姫路市,北今宿２丁目４番１３号,,28,201,6700057,,,,,,,2024-01-16,1,,,,,コズミック,0
557,2140005026909,新規,0,2024-01-16,2024-01-16,一般社団法人日本ネトラバスティ協会,,その他の設立登記法人,兵庫県,神戸市中央区,加納町３丁目１番２５－６０１号,,28,110,6500001,,,,,,,2024-01-16,1,,,,,ニホンネトラバスティキョウカイ,0
558,2150001027001,新規,0,2024-01-16,2024-01-16,株式会社ＴＮＫｓｔｅｅｌ,,株式会社,奈良県,葛城市,弁之庄３６２番地２,,29,211,6392100,,,,,,,2024-01-16,1,,,,,ティーエヌケースチール,0
579,2180001159758,新規,0,2024-01-16,2024-01-16,株式会社ｃａｕｓｅ,,株式会社,愛知県,名古屋市中川区,大当郎２丁目１５０４番地（サンモールＵ２０３号）,,23,110,4540943,,,,,,,2024-01-16,1,,,,,コーズ,0
607,2220003003653,新規,0,2024-01-16,2024-01-16,合同会社Ｎ．Ｏ．,,合同会社,石川県,金沢市,大手町２番２４‐４０１号,,17,201,9200912,,,,,,,2024-01-16,1,,,,,エヌオー,0
618,2260001038656,新規,0,2024-01-16,2024-01-16,アイ・スマイル不動産株式会社,,株式会社,岡山県,加賀郡吉備中央町,吉川４８６０番地の６,,33,681,7161241,,,,,,,2024-01-16,1,,,,,アイスマイルフドウサン,0
622,2290001104380,新規,0,2024-01-16,2024-01-16,株式会社Ｆｉｒｓｔ　Ｆｕｎ,,株式会社,福岡県,福岡市博多区,博多駅前１丁目２３番２号ＰａｒｋＦｒｏｎｔ博多駅前１丁目５Ｆ－Ｂ,,40,132,8120011,,,,,,,2024-01-16,1,,,,,ファーストファン,0
624,2290003014867,新規,0,2024-01-16,2024-01-16,Ｋ’ｓｏｎ企画合同会社,,合同会社,福岡県,福岡市城南区,田島３丁目１０－２４,,40,136,8140113,,,,,,,2024-01-16,1,,,,,ケイズオンキカク,0
625,2290005019261,新規,0,2024-01-16,2024-01-16,一般財団法人九州美術振興財団,,その他の設立登記法人,福岡県,福岡市博多区,店屋町１番３５号博多三井ビルディング２号館３階,,40,132,8120025,,,,,,,2024-01-16,1,,,,,キュウシュウビジュツシンコウザイダン,0
629,2290801030223,新規,0,2024-01-16,2024-01-16,株式会社Ｌｉｖ,,株式会社,福岡県,北九州市小倉南区,守恒本町１丁目１番１０号コムステイ１０６・３０１号,,40,107,8020971,,,,,,,2024-01-16,1,,,,,リブ,0
649,2370001050823,新規,0,2024-01-16,2024-01-16,株式会社ＳＨＩＮＳＥＩ．ＭＹＧ,,株式会社,宮城県,亘理郡亘理町,逢隈神宮寺字袖ケ沢６番地１０,00133352,04,361,9892372,,,,,,,2024-01-16,1,,,,,シンセイエムワイジー,0
659,2400001016523,新規,0,2024-01-16,2024-01-16,株式会社シルバンテック,,株式会社,岩手県,二戸郡一戸町,鳥越字額卸２０番地２,,03,524,0285313,,,,,,,2024-01-16,1,,,,,シルバンテック,0
665,2420001018550,新規,0,2024-01-16,2024-01-16,株式会社岳,,株式会社,青森県,青森市,浪館前田４丁目１５－１９,,02,201,0380024,,,,,,,2024-01-16,1,,,,,ガク,0
666,2430001090870,新規,0,2024-01-16,2024-01-16,株式会社ＳＥ‐ＫＵ,,株式会社,北海道,札幌市東区,北二十四条東３丁目３番２６－１０１号,,01,103,0650024,,,,,,,2024-01-16,1,,,,,セーク,0
667,2430001090879,新規,0,2024-01-16,2024-01-16,株式会社ＡＸＥＲＯ,,株式会社,北海道,札幌市北区,北七条西４丁目１番地１トーカン札幌第一キャステール６０７,,01,102,0600807,,,,,,,2024-01-16,1,,,,,アクセロ,0
671,2430003015850,新規,0,2024-01-16,2024-01-16,合同会社ＡＩＭ,,合同会社,北海道,江別市,野幌東町５番地の３５,,01,217,0690825,,,,,,,2024-01-16,1,,,,,エイム,0
683,2500001025407,新規,0,2024-01-16,2024-01-16,株式会社Ｆｅｌｉｃｅ．,,株式会社,愛媛県,大洲市,阿蔵乙３１１番地８７,,38,207,7950025,,,,,,,2024-01-16,1,,,,,フェリーチェ,0
691,2700150099173,新規,0,2024-01-16,2020-05-29,国際芸術祭ＢＩＷＡＫＯビエンナーレ実行委員会,,その他,滋賀県,近江八幡市,桜宮町２３６,,25,204,5230893,,,,,,,2020-05-29,1,,,,,コクサイゲイジユツサイビワコビエンナーレジツコウイインカイ,0
692,2700150102481,新規,0,2024-01-16,2021-03-24,北陸新幹線早期全線開業実現大阪協議会,,その他,大阪府,大阪市中央区,大手前３丁目２－１２別館４階,,27,128,5400008,,,,,,,2021-03-24,1,,,,,ホクリクシンカンセンソウキゼンセンカイギヨウジツゲンオオサカキヨウギカイ,0
693,2700150123346,新規,0,2024-01-16,2024-01-16,南部達者米生産者部会,,その他,青森県,三戸郡南部町,大字平字広場２８番地１,,02,445,0390503,,,,,,,2024-01-16,1,,,,,ナンブタッシャマイセイサンシャブカイ,0
694,2700150123354,新規,0,2024-01-16,2024-01-16,ＤＵＣＨＥＭ　ＰＡＰＥＲ　ＭＡＮＵＦＡＣＴＵＲＥＲ　ＰＶＴ　ＬＴＤ,,外国会社等,千葉県,八街市,東吉田７２５番地オフィス１５号,,12,230,2891114,スリランカ民主社会主義共和国、コチシカデ、ポルトタ、タッキヤロード、４９－１４,,,,,,2024-01-16,1,,,,,ドウチエムペーパーマニユフアクチヤープライベートリミテツド,0
703,3010001241399,新規,0,2024-01-16,2024-01-16,株式会社ＷｅｅＫ,,株式会社,東京都,文京区,小石川２丁目３番５－２０７号,,13,105,1120002,,,,,,,2024-01-16,1,,,,,ウィーク,0
704,3010001241440,新規,0,2024-01-16,2024-01-16,株式会社ＳＳキャピタルマネジメント,,株式会社,東京都,千代田区,紀尾井町３番８号第２紀尾井町ビル４階,,13,101,1020094,,,,,,,2024-01-16,1,,,,,エスエスキャピタルマネジメント,0
705,3010001241449,新規,0,2024-01-16,2024-01-16,株式会社楽楽,,株式会社,東京都,中央区,新川２丁目７番１３号えちぜん堀ビル１階,,13,102,1040033,,,,,,,2024-01-16,1,,,,,ラクラク,0
706,3010001241498,新規,0,2024-01-16,2024-01-16,グリーン・キャピタル株式会社,,株式会社,東京都,千代田区,神田神保町２丁目１１番１５号,,13,101,1010051,,,,,,,2024-01-16,1,,,,,グリーンキャピタル,0
709,3010005037728,新規,0,2024-01-16,2024-01-16,東京ガス不動産プライベートリート投資法人,,その他の設立登記法人,東京都,千代田区,紀尾井町４番３号,,13,101,1020094,,,,,,,2024-01-16,1,,,,,トウキョウガスフドウサンプライベートリート,0
719,3010401179702,新規,0,2024-01-16,2024-01-16,株式会社ＴＥＮ　Ｔｏｋｙｏ,,株式会社,東京都,港区,白金６丁目３番４号,,13,103,1080072,,,,,,,2024-01-16,1,,,,,テントウキョウ,0
722,3010403031745,新規,0,2024-01-16,2024-01-16,合同会社ＵＬＴＲＡパートナーズ,,合同会社,東京都,港区,芝公園１丁目１番１２号芝公園電気ビルディング８階,,13,103,1050011,,,,,,,2024-01-16,1,,,,,ウルトラパートナーズ,0
723,3010405022841,新規,0,2024-01-16,2024-01-16,清明税理士法人,,その他の設立登記法人,東京都,港区,三田２丁目９番９号ストークハイム三田２０３号,,13,103,1080073,,,,,,,2024-01-16,1,,,,,セイメイ,0
726,3010601064480,新規,0,2024-01-16,2024-01-16,城東平安建設株式会社,,株式会社,東京都,墨田区,江東橋４丁目２９番１３号第２鈴勘ビル４０１,,13,107,1300022,,,,,,,2024-01-16,1,,,,,ジョウトウヘイアンケンセツ,0
734,3010901054520,新規,0,2024-01-16,2024-01-16,ＴＨＩＳＩＳマーケティング株式会社,,株式会社,東京都,世田谷区,上馬１丁目３２番１２号,,13,112,1540011,,,,,,,2024-01-16,1,,,,,ディスイズマーケティング,0
735,3010901054529,新規,0,2024-01-16,2024-01-16,株式会社ＨＲＣ,,株式会社,東京都,世田谷区,祖師谷２丁目５番１１－１０５号,,13,112,1570072,,,,,,,2024-01-16,1,,,,,エイチアールシー,0
743,3011001159284,新規,0,2024-01-16,2024-01-16,ＧＲＥＥＮ　ＧＬＯＢＡＬ株式会社,,株式会社,東京都,渋谷区,神宮前６丁目２３番４号桑野ビル２階,,13,113,1500001,,,,,,,2024-01-16,1,,,,,グリーングローバル,0
744,3011003018265,新規,0,2024-01-16,2024-01-16,合同会社ＬＩ２,,合同会社,東京都,渋谷区,神山町２５番２号１Ｆ,,13,113,1500047,,,,,,,2024-01-16,1,,,,,エルアイツー,0
750,3011201025170,新規,0,2024-01-16,2024-01-16,ＪａｐａｎｅＸ株式会社,,株式会社,東京都,中野区,上高田３丁目２８番２号,,13,114,1640002,,,,,,,2024-01-16,1,,,,,ジャパンエックス,0
754,3011501030184,新規,0,2024-01-16,2024-01-16,嘉合株式会社,,株式会社,東京都,荒川区,東日暮里４丁目３３番１２号,,13,118,1160014,,,,,,,2024-01-16,1,,,,,カゴウ,0
765,3012703002888,新規,0,2024-01-16,2024-01-16,合同会社ＣｈａｎｔｏＢＥ,,合同会社,東京都,東久留米市,本町２丁目６－７ハイヒルズ本町１Ｆ,,13,222,2030053,,,,,,,2024-01-16,1,,,,,チャントゥービー,0
766,3012801022904,新規,0,2024-01-16,2024-01-16,グッドワン不動産管理株式会社,,株式会社,東京都,立川市,砂川町７丁目３２番地の１１,,13,202,1900031,,,,,,,2024-01-16,1,,,,,グッドワンフドウサンカンリ,0
785,3021001081149,新規,0,2024-01-16,2024-01-16,株式会社ＦＮＣ神奈川,,株式会社,神奈川県,相模原市緑区,東橋本１丁目７－１２,,14,151,2520144,,,,,,,2024-01-16,1,,,,,エフエヌシーカナガワ,0
786,3021001081181,新規,0,2024-01-16,2024-01-16,株式会社丸善,,株式会社,神奈川県,秦野市,下大槻３７２番１号,,14,211,2570004,,,,,,,2024-01-16,1,,,,,マルヨシ,0
787,3021001081215,新規,0,2024-01-16,2024-01-16,ＷＥＬＬ　ＳＰＩＣＥ　ＩＮＴＥＲＮＡＴＩＯＮＡＬ株式会社,,株式会社,神奈川県,藤沢市,遠藤５６２８番地,,14,205,2520816,,,,,,,2024-01-16,1,,,,,ウェルスパイスインターナショナル,0
788,3021003014008,新規,0,2024-01-16,2024-01-16,合同会社リップルズ,,合同会社,神奈川県,茅ヶ崎市,円蔵２丁目９－２３小室テラス１０１,,14,207,2530084,,,,,,,2024-01-16,1,,,,,リップルズ,0
789,3021003014016,新規,0,2024-01-16,2024-01-16,合同会社うまいもん製作所,,合同会社,神奈川県,大和市,中央林間４丁目２８－６永屋ビル１階,,14,213,2420007,,,,,,,2024-01-16,1,,,,,ウマイモンセイサクジョ,0
794,3030001157957,新規,0,2024-01-16,2024-01-16,株式会社ぞのペットクリニック,,株式会社,埼玉県,さいたま市緑区,太田窪１丁目２６番１３号パークヒル浦和１Ｆ,,11,109,3360936,,,,,,,2024-01-16,1,,,,,ゾノペットクリニック,0
795,3030001157965,新規,0,2024-01-16,2024-01-16,株式会社魚米国際,,株式会社,埼玉県,北本市,山中１丁目１８２－２,,11,233,3640004,,,,,,,2024-01-16,1,,,,,ユメコクサイ,0
799,3030003023414,新規,0,2024-01-16,2024-01-16,合同会社大伸建材,,合同会社,埼玉県,川口市,前上町２３番１３号,,11,203,3330843,,,,,,,2024-01-16,1,,,,,ダイシンケンザイ,0
800,3030003023422,新規,0,2024-01-16,2024-01-16,ＫＡＩＸＩＮ合同会社,,合同会社,埼玉県,鴻巣市,箕田２３３番地３,,11,217,3650062,,,,,,,2024-01-16,1,,,,,カイシン,0
808,3040001131705,新規,0,2024-01-16,2024-01-16,禾鎰株式会社,,株式会社,千葉県,長生郡長柄町,上野４８１番地２１トリニティ１－４０２号室,,12,426,2970201,,,,,,,2024-01-16,1,,,,,カイツ,0
809,3040001131754,新規,0,2024-01-16,2024-01-16,株式会社オフィスマナクリエイト,,株式会社,千葉県,千葉市中央区,新宿２丁目７番５号ＤＣ．ＦＯＲＴ千葉中央４０１号,,12,101,2600021,,,,,,,2024-01-16,1,,,,,オフィスマナクリエイト,0
818,3060001036737,新規,0,2024-01-16,2024-01-16,株式会社ＩＮＦＩＮＩＴＹ,,株式会社,栃木県,宇都宮市,松田新田町１１１番地４,,09,201,3210407,,,,,,,2024-01-16,1,,,,,インフィニティ,0
875,3110003005263,新規,0,2024-01-16,2024-01-16,合同会社Ｌｉｅｎ　Ｆｏｒｔ,,合同会社,新潟県,新潟市東区,秋葉１丁目３番４号２,,15,102,9500054,,,,,,,2024-01-16,1,,,,,リアンフォール,0
883,3120001261337,新規,0,2024-01-16,2024-01-16,株式会社協和貿易,,株式会社,大阪府,大阪市淀川区,西宮原１丁目６番６０号プラザ新大阪２０２号,,27,123,5320004,,,,,,,2024-01-16,1,,,,,キョウワボウエキ,0
890,3120003025673,新規,0,2024-01-16,2024-01-16,合同会社Ｊａｐａｎ　Ｅｘｐｌｏｒａｔｉｏｎ　Ｔｏｕｒｓ　ＪＩＮ‐仁,,合同会社,大阪府,大阪市北区,堂山町１－５三共梅田ビル７階,,27,127,5300027,,,,,,,2024-01-16,1,,,,,ジャパンエクスプロレイションツアーズジン,0
891,3120101068888,新規,0,2024-01-16,2024-01-16,株式会社葉山工業,,株式会社,大阪府,堺市中区,八田北町６５６番地３パラッツオ・アルモーニア４０５号,,27,142,5998262,,,,,,,2024-01-16,1,,,,,ハヤマコウギョウ,0
896,3120901048627,新規,0,2024-01-16,2024-01-16,株式会社Ｒｙａｎ,,株式会社,大阪府,箕面市,牧落１丁目３番１０号,,27,220,5620004,,,,,,,2024-01-16,1,,,,,ライアン,0
904,3140001132998,新規,0,2024-01-16,2024-01-16,株式会社ワンライズ,,株式会社,兵庫県,西宮市,南甲子園１丁目１９番８号,,28,204,6638153,,,,,,,2024-01-16,1,,,,,ワンライズ,0
912,3150001027009,新規,0,2024-01-16,2024-01-16,株式会社エテルノ,,株式会社,奈良県,桜井市,大字西之宮１５０番地の２８,,29,206,6330066,,,,,,,2024-01-16,1,,,,,エテルノ,0
914,3160001025630,新規,0,2024-01-16,2024-01-16,株式会社８８アニメーション,,株式会社,滋賀県,高島市,今津町下弘部４２番地５４,,25,212,5201612,,,,,,,2024-01-16,1,,,,,ハチハチアニメーション,0
915,3160003003089,新規,0,2024-01-16,2024-01-16,合同会社サニーワークス,,合同会社,滋賀県,高島市,安曇川町常磐木１０６４番地１,,25,212,5201211,,,,,,,2024-01-16,1,,,,,サニーワークス,0
937,3180001159674,新規,0,2024-01-16,2024-01-16,株式会社ＳＴＯＲＹ,,株式会社,愛知県,名古屋市西区,名駅２丁目３４番１７号セントラル名古屋１１０１号,,23,104,4510045,,,,,,,2024-01-16,1,,,,,ストーリー,0
938,3180001159732,新規,0,2024-01-16,2024-01-16,玉康株式会社,,株式会社,愛知県,名古屋市千種区,本山町２丁目６８番地（本山マンション２０３号）,,23,101,4640036,,,,,,,2024-01-16,1,,,,,タマヤス,0
958,3180005020493,新規,0,2024-01-16,2024-01-16,一般社団法人ＭＩＴＥＲＩ　ＮＥＰＡＬ　ＪＡＰＡＮ,,その他の設立登記法人,愛知県,名古屋市中川区,小碓通３丁目３６番地（２Ｆ）,,23,110,4540856,,,,,,,2024-01-16,1,,,,,ミテリネパールジャパン,0
967,3180305009542,新規,0,2024-01-16,2024-01-16,一般社団法人産業研究開発機構,,その他の設立登記法人,愛知県,刈谷市,住吉町３丁目８番地,,23,210,4480852,,,,,,,2024-01-16,1,,,,,サンギョウケンキュウカイハツキコウ,0
973,3200005013560,新規,0,2024-01-16,2024-01-16,特定非営利活動法人じゃあさアカデミー,,その他の設立登記法人,岐阜県,加茂郡七宗町,上麻生２１８６番地３,,21,504,5090401,,,,,,,2024-01-16,1,,,,,ジャアサアカデミー,0
987,3250003003410,新規,0,2024-01-16,2024-01-16,合同会社ＳＰＳ,,合同会社,山口県,光市,大字浅江３０５番地６,,35,210,7430021,,,,,,,2024-01-16,1,,,,,エスピーエス,0
1007,3330003010159,新規,0,2024-01-16,2024-01-16,コレクトフォース合同会社,,合同会社,熊本県,熊本市南区,御幸西１丁目１４番１８号,,43,104,8614171,,,,,,,2024-01-16,1,,,,,コレクトフォース,0
1013,3370001050822,新規,0,2024-01-16,2024-01-16,株式会社リアルボディＲグループ,,株式会社,宮城県,仙台市泉区,泉中央４丁目１１番地の６啓進ビル４Ｆ,,04,105,9813133,,,,,,,2024-01-16,1,,,,,リアルボディアールグループ,0
1026,3410001013700,新規,0,2024-01-16,2024-01-16,エーピーフォーレ株式会社,,株式会社,秋田県,秋田市,向浜１丁目１番５号,,05,201,0101601,,,,,,,2024-01-16,1,,,,,エーピーフォーレ,0
1029,3420003002865,新規,0,2024-01-16,2024-01-16,合同会社ナチュリー栄,,合同会社,青森県,十和田市,大字赤沼字沼袋１７６番２０号,,02,206,0340071,,,,,,,2024-01-16,1,,,,,ナチュリーハル,0
1035,3440003001568,新規,0,2024-01-16,2024-01-16,合同会社マドリングスルー,,合同会社,北海道,二海郡八雲町,出雲町６０番地２０６メゾンみらい出雲２０６号室,,01,346,0493115,,,,,,,2024-01-16,1,,,,,マドリングスルー,0
1037,3450003002425,新規,0,2024-01-16,2024-01-16,合同会社ＧＯＹ,,合同会社,北海道,旭川市,流通団地二条２丁目２１－３,,01,204,0798442,,,,,,,2024-01-16,1,,,,,,0
1046,3500001025406,新規,0,2024-01-16,2024-01-16,株式会社邁進テイスト,,株式会社,愛媛県,新居浜市,中村３丁目７番４６号,,38,205,7920044,,,,,,,2024-01-16,1,,,,,マイシンテイスト,0
1058,3700150120821,新規,0,2024-01-16,2023-12-21,神戸市観光・ホテル旅館協会,,その他,兵庫県,神戸市中央区,御幸通６丁目１番１２号三宮ビル東館９階,,28,110,6510087,,,,,,,2023-12-21,1,,,,,コウベシカンコウホテルリヨカンキヨウカイ,0
1059,3700150123353,新規,0,2024-01-16,2024-01-16,Ｓ．Ｓ．ＬＡＮＫＡ　ＴＲＡＤＩＮＧ　ＣＯＭＰＡＮＹ,,外国会社等,千葉県,八街市,東吉田７２５番地オフィス５号,,12,230,2891114,スリランカ民主社会主義共和国、キャンディ、カトゥガストタ、マダワラロード、３７,,,,,,2024-01-16,1,,,,,エスエスランカトレーデイングカンパニー,0
1064,4010001241423,新規,0,2024-01-16,2024-01-16,株式会社明岸藝術,,株式会社,東京都,千代田区,神田佐久間町３丁目２８番地星野ビル５０５,,13,101,1010025,,,,,,,2024-01-16,1,,,,,メイガンゲイジュツ,0
1065,4010001241448,新規,0,2024-01-16,2024-01-16,株式会社ＡＤＳ,,株式会社,東京都,中央区,日本橋３丁目８番１３号,,13,102,1030027,,,,,,,2024-01-16,1,,,,,エーディーエス,0
1066,4010001241480,新規,0,2024-01-16,2024-01-16,株式会社ハワイステイプロ,,株式会社,東京都,千代田区,神田佐久間町１丁目１３番地,,13,101,1010025,,,,,,,2024-01-16,1,,,,,ハワイステイプロ,0
1070,4010003042654,新規,0,2024-01-16,2024-01-16,合同会社ＡＮＡＬＯＧ　ＸＯ,,合同会社,東京都,中央区,銀座８丁目９番１５号ジュエルボックス銀座１１階,,13,102,1040061,,,,,,,2024-01-16,1,,,,,アナログエクスオー,0
1082,4010401179750,新規,0,2024-01-16,2024-01-16,株式会社Ｊｕｂｉｓｔ,,株式会社,東京都,港区,芝浦１丁目６番４１‐２６０４号,,13,103,1050023,,,,,,,2024-01-16,1,,,,,ジュビスト,0
1083,4010401179767,新規,0,2024-01-16,2024-01-16,ビリオン電機株式会社,,株式会社,東京都,港区,港南２丁目１６番２号太陽生命品川ビル２８Ｆ,,13,103,1080075,,,,,,,2024-01-16,1,,,,,ビリオンデンキ,0
1085,4010403031744,新規,0,2024-01-16,2024-01-16,合同会社いしい,,合同会社,東京都,港区,浜松町１丁目１２番３－６０２号,,13,103,1050013,,,,,,,2024-01-16,1,,,,,イシイ,0
1088,4010503007306,新規,0,2024-01-16,2024-01-16,合同会社マーブル,,合同会社,東京都,台東区,上野６丁目８番１９号,,13,106,1100005,,,,,,,2024-01-16,1,,,,,マーブル,0
1090,4010603010589,新規,0,2024-01-16,2024-01-16,合同会社Ａｔａｒａｘｉａ,,合同会社,東京都,墨田区,亀沢３丁目１３番４号バンデルーチェ北斎通り６０１,,13,107,1300014,,,,,,,2024-01-16,1,,,,,アタラクシア,0
1095,4010701045405,新規,0,2024-01-16,2024-01-16,株式会社ＵｎｉｓｏｎＦｏｏｄｓ,,株式会社,東京都,品川区,東大井３丁目８番１２号ディームス大井町フォレスト３１０,,13,109,1400011,,,,,,,2024-01-16,1,,,,,ユニゾンフーズ,0
1103,4010901054544,新規,0,2024-01-16,2024-01-16,株式会社アッパーライト,,株式会社,東京都,世田谷区,池尻２丁目３７番１２号スカイビュー２４６・５０２,,13,112,1540001,,,,,,,2024-01-16,1,,,,,アッパーライト,0
1111,4011001159291,新規,0,2024-01-16,2024-01-16,株式会社アッテルキャリア,,株式会社,東京都,渋谷区,道玄坂１丁目１０番８号渋谷道玄坂東急ビル２Ｆ－Ｃ,,13,113,1500043,,,,,,,2024-01-16,1,,,,,アッテルキャリア,0
1113,4011003018256,新規,0,2024-01-16,2024-01-16,合同会社ＴＭＦ,,合同会社,東京都,渋谷区,笹塚１丁目５２番地６号千葉ビル１００３,,13,113,1510073,,,,,,,2024-01-16,1,,,,,ティエムエフ,0
1118,4011101105807,新規,0,2024-01-16,2024-01-16,株式会社メディアアディクション,,株式会社,東京都,新宿区,大久保３丁目８番３－３３１６号,,13,104,1690072,,,,,,,2024-01-16,1,,,,,メディアアディクション,0
1121,4011103013933,新規,0,2024-01-16,2024-01-16,合同会社Ｙｓ,,合同会社,東京都,新宿区,新宿１丁目１６番３－１０１号,,13,104,1600022,,,,,,,2024-01-16,1,,,,,ワイズ,0
1122,4011201025178,新規,0,2024-01-16,2024-01-16,ブレスホーム株式会社,,株式会社,東京都,中野区,中野１丁目５４－２,,13,114,1640001,,,,,,,2024-01-16,1,,,,,ブレスホーム,0
1124,4011203004279,新規,0,2024-01-16,2024-01-16,合同会社Ｓｔｕｄｉｏ　Ｔｅｒｒａｎｏｖａ,,合同会社,東京都,中野区,野方２丁目１４－１４,,13,114,1650027,,,,,,,2024-01-16,1,,,,,スタディオテラノヴァ,0
1128,4011501030183,新規,0,2024-01-16,2024-01-16,自然家株式会社,,株式会社,東京都,荒川区,東日暮里４丁目３３番１２号,,13,118,1160014,,,,,,,2024-01-16,1,,,,,シゼンヤ,0
1129,4011503005910,新規,0,2024-01-16,2024-01-16,合同会社Ｍｅｄｉｃａｌ　Ｏｗｌ,,合同会社,東京都,北区,王子本町１丁目３番１－８１２号,,13,117,1140022,,,,,,,2024-01-16,1,,,,,メディカルアウル,0
1131,4011701026923,新規,0,2024-01-16,2024-01-16,株式会社ＦＲＥコーポレーション,,株式会社,東京都,江戸川区,平井１丁目２４－５コーポ小林２０１号室,,13,123,1320035,,,,,,,2024-01-16,1,,,,,エフアールイーコーポレーション,0
1133,4011801043637,新規,0,2024-01-16,2024-01-16,株式会社エスケイ建設,,株式会社,東京都,足立区,辰沼１丁目８番４号１０５,,13,121,1210054,,,,,,,2024-01-16,1,,,,,エスケイケンセツ,0
1134,4011801043645,新規,0,2024-01-16,2024-01-16,株式会社ストーンフリー,,株式会社,東京都,葛飾区,金町５丁目２１番９号,,13,122,1250042,,,,,,,2024-01-16,1,,,,,ストーンフリー,0
1137,4011803006039,新規,0,2024-01-16,2024-01-16,ＭＨ　Ｒｅｔａｉｌ　ａｄｖｉｓｏｒｓ合同会社,,合同会社,東京都,葛飾区,亀有５丁目６番８号,,13,122,1250061,,,,,,,2024-01-16,1,,,,,エムエイチリテイルアドバイザーズ,0
1140,4012801022903,新規,0,2024-01-16,2024-01-16,株式会社ＳＳパートナーズ,,株式会社,東京都,国分寺市,並木町１丁目１９番２号,,13,214,1850005,,,,,,,2024-01-16,1,,,,,エスエスパートナーズ,0
1143,4013301051855,新規,0,2024-01-16,2024-01-16,株式会社ウィン,,株式会社,東京都,豊島区,池袋４丁目１２－２８ビッグストーン３０３,,13,116,1710014,,,,,,,2024-01-16,1,,,,,ウィン,0
1144,4013301051888,新規,0,2024-01-16,2024-01-16,株式会社縁,,株式会社,東京都,豊島区,上池袋４丁目４５番３号,,13,116,1700012,,,,,,,2024-01-16,1,,,,,エニシ,0
1160,4020003025352,新規,0,2024-01-16,2024-01-16,合同会社Ｂｉｇ　ｓｈｉｎｅ,,合同会社,神奈川県,横浜市神奈川区,金港町８―１―９０６,,14,102,2210056,,,,,,,2024-01-16,1,,,,,ビッグシャイン,0
1164,4021001081197,新規,0,2024-01-16,2024-01-16,株式会社ｓｈａｐｅ　ｔｈｅ　ｇｅａｒ,,株式会社,神奈川県,藤沢市,大鋸１０３１番地の１５,,14,205,2510002,,,,,,,2024-01-16,1,,,,,シェイプザギア,0
1167,4021003014015,新規,0,2024-01-16,2024-01-16,ＢＡＳＥ２１合同会社,,合同会社,神奈川県,小田原市,小八幡３丁目１４番４－１号,,14,206,2560815,,,,,,,2024-01-16,1,,,,,ベースニイチ,0
1168,4021003014023,新規,0,2024-01-16,2024-01-16,合同会社Ｌｉｖｅｃａｒｅ,,合同会社,神奈川県,足柄上郡大井町,金子１７２８番地１号,,14,362,2580019,,,,,,,2024-01-16,1,,,,,ライブケア,0
1177,4030003023421,新規,0,2024-01-16,2024-01-16,合同会社パンプキーナ,,合同会社,埼玉県,さいたま市南区,文蔵５丁目１９番５号ＦＬＯＲＩＤＩＡＮ１０１,,11,108,3360025,,,,,,,2024-01-16,1,,,,,パンプキーナ,0
1178,4030005021522,新規,0,2024-01-16,2024-01-16,社会保険労務士法人レインズ,,その他の設立登記法人,埼玉県,志木市,本町４丁目１４番２号,,11,228,3530004,,,,,,,2024-01-16,1,,,,,レインズ,0
1186,4040003024055,新規,0,2024-01-16,2024-01-16,おかわりコロッケ合同会社,,合同会社,千葉県,市川市,南八幡１丁目２２―８,,12,203,2720023,,,,,,,2024-01-16,1,,,,,オカワリコロッケ,0
1187,4040003024121,新規,0,2024-01-16,2024-01-16,ＴＨＡ合同会社,,合同会社,千葉県,流山市,おおたかの森南２丁目２０番地の２,,12,220,2700139,,,,,,,2024-01-16,1,,,,,ティーエイチエー,0
1249,4110005017041,新規,0,2024-01-16,2024-01-16,一般社団法人新潟県運転代行協会,,その他の設立登記法人,新潟県,新発田市,下飯塚１９番地１,,15,206,9592331,,,,,,,2024-01-16,1,,,,,ニイガタケンウンテンダイコウキョウカイ,0
1261,4120001261105,新規,0,2024-01-16,2024-01-16,盛欣株式会社,,株式会社,大阪府,大阪市都島区,片町２丁目５番６－４０９号,,27,102,5340025,,,,,,,2024-01-16,1,,,,,セイキン,0
1262,4120001261261,新規,0,2024-01-16,2024-01-16,Ｓｏｌｉｓ株式会社,,株式会社,大阪府,大阪市中央区,南船場３丁目５番２５号ロワール南船場３Ａ,,27,128,5420081,,,,,,,2024-01-16,1,,,,,ソリス,0
1263,4120001261303,新規,0,2024-01-16,2024-01-16,株式会社ＥＸＴＡＧＥ,,株式会社,大阪府,大阪市北区,曾根崎２丁目５番１０号梅田パシフィックビルディング４０１,,27,127,5300057,,,,,,,2024-01-16,1,,,,,エクステージ,0
1264,4120001261336,新規,0,2024-01-16,2024-01-16,ＡＳＨＩＤＡ‐Ｆａｍｉｌｙ　Ｈｏｌｄｉｎｇｓ株式会社,,株式会社,大阪府,守口市,南寺方東通３丁目９番２１号,,27,209,5700043,,,,,,,2024-01-16,1,,,,,アシダファミリーホールディングス,0
1265,4120001261360,新規,0,2024-01-16,2024-01-16,株式会社１６８,,株式会社,大阪府,大阪市北区,豊崎２丁目４番２４号,,27,127,5310072,,,,,,,2024-01-16,1,,,,,イロハ,0
1266,4120001261369,新規,0,2024-01-16,2024-01-16,株式会社ライトバンクジャパン,,株式会社,大阪府,大阪市北区,大淀南１丁目１１番１６号３Ｆ,,27,127,5310075,,,,,,,2024-01-16,1,,,,,ライトバンクジャパン,0
1267,4120001261419,新規,0,2024-01-16,2024-01-16,株式会社ＬＩＮＫ,,株式会社,大阪府,大阪市生野区,小路３丁目８番１４号,,27,116,5440002,,,,,,,2024-01-16,1,,,,,リンク,0
1268,4120001261427,新規,0,2024-01-16,2024-01-16,株式会社ＣｒｅａｔｅＴｏｍｏｒｒｏｗ,,株式会社,大阪府,枚方市,養父丘２丁目７番７６号,,27,210,5731134,,,,,,,2024-01-16,1,,,,,クリエイトトゥモロー,0
1269,4120001261443,新規,0,2024-01-16,2024-01-16,行星科技株式会社,,株式会社,大阪府,大阪市淀川区,東三国４丁目２１番９号みかげマンション１１号室,,27,123,5320002,,,,,,,2024-01-16,1,,,,,コウセイカギ,0
1271,4120005024094,新規,0,2024-01-16,2024-01-16,一般社団法人こもれびあじゅ,,その他の設立登記法人,大阪府,大阪市西区,南堀江３丁目１１番２２号,,27,106,5500015,,,,,,,2024-01-16,1,,,,,コモレビアジュ,0
1275,4120101068887,新規,0,2024-01-16,2024-01-16,タートル流通株式会社,,株式会社,大阪府,堺市西区,下田町２５番２８－５０１号,,27,144,5938329,,,,,,,2024-01-16,1,,,,,タートルリュウツウ,0
1281,4120901048592,新規,0,2024-01-16,2024-01-16,ブルムウォーク株式会社,,株式会社,大阪府,吹田市,穂波町１５番地１１号Ｌｅｘｅｌｌａ西吹田３０３,,27,205,5640042,,,,,,,2024-01-16,1,,,,,ブルムウォーク,0
1285,4130001076080,新規,0,2024-01-16,2024-01-16,株式会社造園一,,株式会社,京都府,京都市北区,西賀茂蟹ケ坂町２６番地１１,,26,101,6038805,,,,,,,2024-01-16,1,,,,,ゾウエンイチ,0
1294,4140003020044,新規,0,2024-01-16,2024-01-16,合同会社リアンドゥパロンテ,,合同会社,兵庫県,川西市,大和西１丁目５３番地の１２,,28,217,6660112,,,,,,,2024-01-16,1,,,,,リアンドゥパロンテ,0
1296,4140005026907,新規,0,2024-01-16,2024-01-16,一般社団法人アジアの輪,,その他の設立登記法人,兵庫県,神戸市中央区,海岸通６丁目１番１３－９０７号,,28,110,6500024,,,,,,,2024-01-16,1,,,,,アジアノワ,0
1319,4180001159707,新規,0,2024-01-16,2024-01-16,株式会社ＺＥＮ,,株式会社,愛知県,名古屋市西区,見寄町１７２番地第二中沼ビル２０６,,23,104,4520839,,,,,,,2024-01-16,1,,,,,ゼン,0
1320,4180001159715,新規,0,2024-01-16,2024-01-16,株式会社ｍａｓａｙｕｒａ,,株式会社,愛知県,名古屋市中村区,名駅３丁目４番１０号アルティメイト名駅１ｓｔ２階,,23,105,4500002,,,,,,,2024-01-16,1,,,,,マサユラ,0
1321,4180001159731,新規,0,2024-01-16,2024-01-16,岩田株式会社,,株式会社,愛知県,岩倉市,栄町２丁目８０番地セラビル４Ｆ－１,,23,228,4820022,,,,,,,2024-01-16,1,,,,,イワタ,0
1338,4180003026228,新規,0,2024-01-16,2024-01-16,合同会社道標,,合同会社,愛知県,知多郡武豊町,字梨子ノ木３丁目３８番地９,,23,447,4702309,,,,,,,2024-01-16,1,,,,,ミチシルベ,0
1342,4180005020492,新規,0,2024-01-16,2024-01-16,弁護士法人ＡＣＬＯ,,その他の設立登記法人,愛知県,名古屋市西区,城西１丁目１２番１２号パークサイドビル２階,,23,104,4510031,,,,,,,2024-01-16,1,,,,,エーシーエルオー,0
1348,4180301038230,新規,0,2024-01-16,2024-01-16,岡本煉瓦株式会社,00133357,株式会社,愛知県,碧南市,堀方町３丁目３０番地,,23,209,4470046,,,,,,,2024-01-16,1,,,,,オカモトレンガ,0
1357,4190003004554,新規,0,2024-01-16,2024-01-16,合同会社幸杏,,合同会社,三重県,鈴鹿市,郡山町８２０番地の６,,24,207,5100263,,,,,,,2024-01-16,1,,,,,コウア,0
1375,4260001038654,新規,0,2024-01-16,2024-01-16,株式会社１６,,株式会社,岡山県,津山市,平福４３５番地６,,33,203,7080872,,,,,,,2024-01-16,1,,,,,シックスティーン,0
1384,4290001104296,新規,0,2024-01-16,2024-01-16,株式会社アスサーチ,,株式会社,福岡県,福岡市博多区,博多駅南３丁目６番１６号,,40,132,8120016,,,,,,,2024-01-16,1,,,,,アスサーチ,0
1385,4290001104370,新規,0,2024-01-16,2024-01-16,株式会社かっぱ土木,,株式会社,福岡県,久留米市,田主丸町野田７３６番地,,40,203,8391231,,,,,,,2024-01-16,1,,,,,カッパドボク,0
1387,4290003014865,新規,0,2024-01-16,2024-01-16,合同会社まつ,,合同会社,福岡県,福岡市博多区,中洲２丁目４番２０号第２１ポールスタービル２階,,40,132,8100801,,,,,,,2024-01-16,1,,,,,マツ,0
1388,4290801030213,新規,0,2024-01-16,2024-01-16,大有貿易株式会社,,株式会社,福岡県,北九州市小倉南区,吉田にれの木坂２丁目１０番７号,,40,107,8000210,,,,,,,2024-01-16,1,,,,,ダイユウボウエキ,0
1392,4310001018782,新規,0,2024-01-16,2024-01-16,Ｓｍａｓｈ　Ｘ株式会社,,株式会社,長崎県,長崎市,万屋町５番３２－３０２号,,42,201,8500852,,,,,,,2024-01-16,1,,,,,スマッシュエックス,0
1401,4340003004349,新規,0,2024-01-16,2024-01-16,合同会社ＯＷＬ　ＳＴＹＬＥ,,合同会社,鹿児島県,鹿児島市,花野光ヶ丘１丁目８番１７号,,46,201,8911204,,,,,,,2024-01-16,1,,,,,アウルスタイル,0
1402,4350003004546,新規,0,2024-01-16,2024-01-16,合同会社ＦＡＲＭＡＧＩＣ,,合同会社,宮崎県,西都市,大字調殿２４２番地２,,45,208,8810023,,,,,,,2024-01-16,1,,,,,ファーマジック,0
1407,4360005006969,新規,0,2024-01-16,2024-01-16,農事組合法人西平畜産,,その他の設立登記法人,沖縄県,国頭郡本部町,字東１６３番地,,47,308,9050211,,,,,,,2024-01-16,1,,,,,ニシヒラチクサン,0
1410,4370001050821,新規,0,2024-01-16,2024-01-16,株式会社ジャパンエステート,,株式会社,宮城県,仙台市太白区,長町６丁目１３番２－３０４号,,04,104,9820011,,,,,,,2024-01-16,1,,,,,ジャパンエステート,0
1418,4410001013699,新規,0,2024-01-16,2024-01-16,株式会社庭屋あけぼの,,株式会社,秋田県,鹿角市,八幡平字指鳥２２番地,,05,209,0185141,,,,,,,2024-01-16,1,,,,,ニワヤアケボノ,0
1423,4420001018549,新規,0,2024-01-16,2024-01-16,株式会社Ｍ・Ｋ設置工事サービス,,株式会社,青森県,青森市,大字浦町字奥野３３１番地２４メゾネット泰平Ｄ号,,02,201,0300842,,,,,,,2024-01-16,1,,,,,エムケーセッチコウジサービス,0
1426,4430001090852,新規,0,2024-01-16,2024-01-16,サンガ株式会社,,株式会社,北海道,札幌市白石区,平和通１４丁目北１番１２号,,01,104,0030029,,,,,,,2024-01-16,1,,,,,サンガ,0
1427,4430001090869,新規,0,2024-01-16,2024-01-16,株式会社Ｕｋａ,,株式会社,北海道,札幌市豊平区,美園三条４丁目３番１０号日拓ビル６階,,01,105,0620003,,,,,,,2024-01-16,1,,,,,ウカ,0
1429,4430003015832,新規,0,2024-01-16,2024-01-16,合同会社ＡＬＬ　ＲＩＧＨＴ,,合同会社,北海道,札幌市北区,北十四条西３丁目１－１５ゼウスビル１Ｆ,,01,102,0010014,,,,,,,2024-01-16,1,,,,,オールライト,0
1430,4430005014865,新規,0,2024-01-16,2024-01-16,のっぽろ野菜直売所協同組合,,その他の設立登記法人,北海道,江別市,西野幌１０７－１,,01,217,0690832,,,,,,,2024-01-16,1,,,,,ノッポロヤサイチョクバイジョ,0
1433,4450001014198,新規,0,2024-01-16,2024-01-16,株式会社たかすのおむすび,,株式会社,北海道,上川郡鷹栖町,２０線十四号４番地,,01,452,0711260,,,,,,,2024-01-16,1,,,,,,0
1435,4460301005193,新規,0,2024-01-16,2024-01-16,株式会社ＭＦＴ,,株式会社,北海道,北見市,ひかり野２丁目５番地７,,01,208,0900810,,,,,,,2024-01-16,1,,,,,エムエフティー,0
1436,4470003002554,新規,0,2024-01-16,2024-01-16,合同会社ユキノヤＷｏｒｋｓ,,合同会社,香川県,丸亀市,柞原町９７５－１メゾン・サンシャインＡ２０１号,,37,202,7630073,,,,,,,2024-01-16,1,,,,,ユキノヤワークス,0
1444,4500001025405,新規,0,2024-01-16,2024-01-16,株式会社ＫＴＳ,,株式会社,愛媛県,今治市,蒼社町１丁目３番４７号,,38,202,7940058,,,,,,,2024-01-16,1,,,,,ケイティーエス,0
1452,4700150123096,新規,0,2024-01-16,2023-12-26,にきぶ地域づくり会,,その他,愛媛県,西予市,三瓶町二及２－６８３－１,,38,214,7960903,,,,,,,2023-12-26,1,,,,,ニキブチイキヅクリカイ,0
1453,4700150123352,新規,0,2024-01-16,2024-01-16,ＮＥＷ　ＳＡＬＥＥＭ　ＳＴＯＲＥＳ,,外国会社等,千葉県,八街市,東吉田７２５番地オフィス６号,,12,230,2891114,スリランカ民主社会主義共和国、キャンディ、トリンコマリーストリート、３５,,,,,,2024-01-16,1,,,,,ニユーサリームストアーズ,0
1463,5010001241463,新規,0,2024-01-16,2024-01-16,エイチジャパン株式会社,,株式会社,東京都,文京区,小石川２丁目１１番１７号,,13,105,1120002,,,,,,,2024-01-16,1,,,,,エイチジャパン,0
1464,5010001241496,新規,0,2024-01-16,2024-01-16,株式会社Ｃｕｒｅｌｉｔｙ,,株式会社,東京都,中央区,日本橋堀留町１丁目９番１０号,,13,102,1030012,,,,,,,2024-01-16,1,,,,,キュアリティ,0
1465,5010001241505,新規,0,2024-01-16,2024-01-16,準備会社岡常商事株式会社,,株式会社,東京都,中央区,日本橋本町３丁目１番８号,,13,102,1030023,,,,,,,2024-01-16,1,,,,,ジュンビガイシャオカツネショウジ,0
1466,5010005037734,新規,0,2024-01-16,2024-01-16,一般社団法人オルタナ２７,,その他の設立登記法人,東京都,千代田区,丸の内３丁目１番１号東京共同会計事務所内,,13,101,1000005,,,,,,,2024-01-16,1,,,,,オルタナトゥエンティセブン,0
1472,5010401179667,新規,0,2024-01-16,2024-01-16,株式会社ＴＩＯＱＵＥ,,株式会社,東京都,港区,南青山１丁目１２番３号ＬＩＦＯＲＫ南青山ＮｏｒｔｈＢｕｉｌｄｉｎｇ２Ｆ,,13,103,1070062,,,,,,,2024-01-16,1,,,,,ティオーク,0
1473,5010401179782,新規,0,2024-01-16,2024-01-16,株式会社ＳＫ,,株式会社,東京都,港区,六本木７丁目３番８－３０４号,,13,103,1060032,,,,,,,2024-01-16,1,,,,,エスケー,0
1474,5010403031727,新規,0,2024-01-16,2024-01-16,広原蓄電合同会社,,合同会社,東京都,港区,虎ノ門１丁目１０番５号,,13,103,1050001,,,,,,,2024-01-16,1,,,,,ヒロハラチクデン,0
1475,5010501051619,新規,0,2024-01-16,2024-01-16,株式会社尽力社,,株式会社,東京都,台東区,清川２丁目３５－１１ＳＯＬＩＤ南千住２０１,,13,106,1110022,,,,,,,2024-01-16,1,,,,,ジンリキシャ,0
1480,5010701045404,新規,0,2024-01-16,2024-01-16,株式会社ＫａｉｎＣｒａｆｔＳｅｒｖｉｃｅ,,株式会社,東京都,品川区,西品川２丁目２２－１９・田畑方,,13,109,1410033,,,,,,,2024-01-16,1,,,,,カインクラフトサービス,0
1486,5010901054460,新規,0,2024-01-16,2024-01-16,株式会社ＴＥＥＮＳ　ＢＲＡＩＮ,,株式会社,東京都,世田谷区,弦巻１丁目１６番３－４０１号,,13,112,1540016,,,,,,,2024-01-16,1,,,,,ティーンズブレイン,0
1488,5010903008729,新規,0,2024-01-16,2024-01-16,合同会社クロスアニマ,,合同会社,東京都,世田谷区,代沢５丁目３３番２９号月村第２光ビル２０１,,13,112,1550032,,,,,,,2024-01-16,1,,,,,クロスアニマ,0
1491,5011001159381,新規,0,2024-01-16,2024-01-16,株式会社ＳＵＮ‐ＴＲＵＳＴ,,株式会社,東京都,目黒区,中目黒４丁目１３番２１－Ｂ７０８号アーバンハイツ中目黒,,13,110,1530061,,,,,,,2024-01-16,1,,,,,サントラスト,0
1495,5011003018271,新規,0,2024-01-16,2024-01-16,テセラクティ合同会社,,合同会社,東京都,渋谷区,恵比寿西２丁目４番８号ウィンド恵比寿ビル８Ｆ,,13,113,1500021,,,,,,,2024-01-16,1,,,,,テセラクティ,0
1497,5011101105772,新規,0,2024-01-16,2024-01-16,日本森林アセット株式会社,,株式会社,東京都,新宿区,西新宿１丁目２３番７号,,13,104,1600023,,,,,,,2024-01-16,1,,,,,ニホンシンリンアセット,0
1499,5011203004278,新規,0,2024-01-16,2024-01-16,合同会社ＦＩＮＤ　ＶＡＬＵＥ,,合同会社,東京都,中野区,本町５丁目３２－４－２０３,,13,114,1640012,,,,,,,2024-01-16,1,,,,,ファインドバリュー,0
1505,5011601027450,新規,0,2024-01-16,2024-01-16,元宝の富株式会社,,株式会社,東京都,練馬区,練馬４丁目１０番１１号パールシティ豊島園４０７号室,,13,120,1760001,,,,,,,2024-01-16,1,,,,,ゲンポウノトミ,0
1508,5012301013732,新規,0,2024-01-16,2024-01-16,株式会社Ｙ．Ｙ工業,,株式会社,東京都,町田市,上小山田町３０３２番地２７メゾンドフルールＢ－２０２,,13,209,1940201,,,,,,,2024-01-16,1,,,,,ワイワイコウギョウ,0
1509,5012303001925,新規,0,2024-01-16,2024-01-16,合同会社ユニバーサル,,合同会社,東京都,町田市,原町田２丁目２５番１７号,,13,209,1940013,,,,,,,2024-01-16,1,,,,,ユニバーサル,0
1511,5012701018034,新規,0,2024-01-16,2024-01-16,トンボ国際株式会社,,株式会社,東京都,西東京市,芝久保町３丁目８番１３－３０３号,,13,229,1880014,,,,,,,2024-01-16,1,,,,,トンボコクサイ,0
1515,5012801022902,新規,0,2024-01-16,2024-01-16,Ｃｈａｒｉｓ株式会社,,株式会社,東京都,日野市,新井１丁目２４番地の１０,,13,212,1910022,,,,,,,2024-01-16,1,,,,,カリス,0
1517,5013103001297,新規,0,2024-01-16,2024-01-16,平美合同会社,,合同会社,東京都,あきる野市,伊奈４４４番地１,,13,228,1900142,,,,,,,2024-01-16,1,,,,,ナルミ,0
1526,5020001155299,新規,0,2024-01-16,2024-01-16,Ｂｕｏｎａ　Ｖｉｓｔａ　Ｍａｎａｇｅｍｅｎｔ　Ｐａｒｔｎｅｒｓ株式会社,,株式会社,神奈川県,横浜市緑区,長津田３丁目２８番７号,,14,113,2260027,,,,,,,2024-01-16,1,,,,,ブオナビスタマネジメントパートナーズ,0
1527,5020001155308,新規,0,2024-01-16,2024-01-16,ＨＹＵＧＡ　Ｈｏｌｄｉｎｇｓ株式会社,,株式会社,神奈川県,川崎市幸区,南加瀬４丁目１３番９号,,14,132,2120055,,,,,,,2024-01-16,1,,,,,ヒュウガホールディングス,0
1535,5021003014006,新規,0,2024-01-16,2024-01-16,合同会社ＭＡＳＡＴＯＳＨＩ,,合同会社,神奈川県,相模原市南区,双葉２丁目１０番３８－２０７号,,14,153,2520316,,,,,,,2024-01-16,1,,,,,マサトシ,0
1541,5030001158160,新規,0,2024-01-16,2024-01-16,株式会社Ｈ＆Ｑ,,株式会社,埼玉県,さいたま市南区,大字大谷口５４４５番地１１,,11,108,3360042,,,,,,,2024-01-16,1,,,,,エイチアンドキュウ,0
1542,5030001158193,新規,0,2024-01-16,2024-01-16,株式会社Ｑｕｅｅｎｃａ,,株式会社,埼玉県,川口市,芝塚原２丁目４番１２号,,11,203,3330856,,,,,,,2024-01-16,1,,,,,クインカ,0
1545,5030003023420,新規,0,2024-01-16,2024-01-16,明宝合同会社,,合同会社,埼玉県,深谷市,東方３７５０－１ＳＫＭマンション５号館２０１号,,11,218,3660041,,,,,,,2024-01-16,1,,,,,メイホウ,0
1549,5030005021521,新規,0,2024-01-16,2024-01-16,一般社団法人ケア・ライク・ファミリー,,その他の設立登記法人,埼玉県,入間市,高倉５丁目１２番９号,,11,225,3580021,,,,,,,2024-01-16,1,,,,,ケアライクファミリー,0
1555,5040001131554,新規,0,2024-01-16,2024-01-16,株式会社Ｋ＆Ｒ,,株式会社,千葉県,千葉市中央区,栄町５番地３,,12,101,2600016,,,,,,,2024-01-16,1,,,,,ケーアンドアール,0
1556,5040001131736,新規,0,2024-01-16,2024-01-16,株式会社リラホーム,,株式会社,千葉県,成田市,中台４丁目１１番地１８,,12,211,2860015,,,,,,,2024-01-16,1,,,,,リラホーム,0
1557,5040001131760,新規,0,2024-01-16,2024-01-16,株式会社龍商会,,株式会社,千葉県,市原市,磯ケ谷８－１１,,12,219,2900204,,,,,,,2024-01-16,1,,,,,,0
1558,5040001131769,新規,0,2024-01-16,2024-01-16,ＮＥＸＴ　ＩＮＮＯＶＡＴＩＯＮ株式会社,,株式会社,千葉県,市川市,欠真間２丁目１０－３,,12,203,2720142,,,,,,,2024-01-16,1,,,,,ネクストイノベーション,0
1559,5040003024112,新規,0,2024-01-16,2024-01-16,合同会社あなぐま,,合同会社,千葉県,佐倉市,田町１９３番地１,,12,212,2850012,,,,,,,2024-01-16,1,,,,,アナグマ,0
1566,5050005013376,新規,0,2024-01-16,2024-01-16,一般社団法人無機繊維再生協会,,その他の設立登記法人,茨城県,日立市,日高町５丁目８７番地２,,08,202,3191414,,,,,,,2024-01-16,1,,,,,ムキセンイサイセイキョウカイ,0
1569,5060001036735,新規,0,2024-01-16,2024-01-16,ＫＫＣアグリテック株式会社,,株式会社,栃木県,鹿沼市,上日向１９３番地,,09,205,3220076,,,,,,,2024-01-16,1,,,,,ケーケーシーアグリテック,0
1574,5080001026081,新規,0,2024-01-16,2024-01-16,株式会社モアアンド,,株式会社,静岡県,焼津市,中新田１４９番地の２,,22,212,4250068,,,,,,,2024-01-16,1,,,,,モアアンド,0
1620,5080403004940,新規,0,2024-01-16,2024-01-16,合同会社クレアーレ,,合同会社,静岡県,浜松市中央区,安松町６７－８,,22,138,4350034,,,,,,,2024-01-16,1,,,,,クレアーレ,0
1633,5090001018499,新規,0,2024-01-16,2024-01-16,株式会社Ｔ＆Ｋ,,株式会社,山梨県,南都留郡富士河口湖町,勝山１２２５番地,,19,430,4010310,,,,,,,2024-01-16,1,,,,,ティーアンドケー,0
1635,5100001037126,新規,0,2024-01-16,2024-01-16,株式会社クーリアラボ,,株式会社,長野県,伊那市,横山１０９５５番地１,,20,209,3960029,,,,,,,2024-01-16,1,,,,,クーリアラボ,0
1639,5110005017040,新規,0,2024-01-16,2024-01-16,一般社団法人根知未来,,その他の設立登記法人,新潟県,糸魚川市,大字蒲池２１３４番地５,,15,216,9490552,,,,,,,2024-01-16,1,,,,,ネチミライ,0
1645,5120001261104,新規,0,2024-01-16,2024-01-16,樺盛株式会社,,株式会社,大阪府,大阪市鶴見区,鶴見４丁目１番２－２１５号,,27,124,5380053,,,,,,,2024-01-16,1,,,,,カセイ,0
1646,5120001261260,新規,0,2024-01-16,2024-01-16,株式会社Ｂ．ｇｏａｔ,,株式会社,大阪府,大阪市阿倍野区,桃ケ池町２丁目１１－２３－２０３,,27,119,5450012,,,,,,,2024-01-16,1,,,,,ビーゴート,0
1647,5120001261293,新規,0,2024-01-16,2024-01-16,株式会社鐵生,,株式会社,大阪府,大阪市住吉区,東粉浜３丁目９番１９号,,27,120,5580051,,,,,,,2024-01-16,1,,,,,テッショウ,0
1648,5120001261335,新規,0,2024-01-16,2024-01-16,株式会社ｏｖｉ,,株式会社,大阪府,大阪市北区,大淀南３丁目１番８号尼崎ビル２階,,27,127,5310075,,,,,,,2024-01-16,1,,,,,オヴィ,0
1649,5120001261376,新規,0,2024-01-16,2024-01-16,ＳＵＬＳＵＬ株式会社,,株式会社,大阪府,大阪市中央区,本町２丁目３番４号アソルティ本町４階,,27,128,5410053,,,,,,,2024-01-16,1,,,,,スルスル,0
1650,5120001261392,新規,0,2024-01-16,2024-01-16,株式会社Ｄ．Ｋホールディングス,,株式会社,大阪府,大阪市中央区,南船場１丁目３番９号,,27,128,5420081,,,,,,,2024-01-16,1,,,,,ディーケーホールディングス,0
1652,5120003025663,新規,0,2024-01-16,2024-01-16,合同会社さくらＳＯＣ労働衛生コンサルタント・産業医事務所,,合同会社,大阪府,大阪市北区,堂島浜２丁目２番２８号,,27,127,5300004,,,,,,,2024-01-16,1,,,,,サクラエスオーシーロウドウエイセイコンサルタントサンギョウイジムショ,0
1653,5120003025696,新規,0,2024-01-16,2024-01-16,合同会社秀芸舍,,合同会社,大阪府,大阪市住吉区,南住吉２丁目２番２５号クレールド長居２０６号室,,27,120,5580041,,,,,,,2024-01-16,1,,,,,シュウゲイシャ,0
1659,5120901048617,新規,0,2024-01-16,2024-01-16,株式会社ＩＴＣ,,株式会社,大阪府,豊中市,螢池東町３丁目１４番１６号,,27,203,5600032,,,,,,,2024-01-16,1,,,,,アイティシー,0
1660,5120901048633,新規,0,2024-01-16,2024-01-16,株式会社ユニークアップ,,株式会社,大阪府,豊中市,利倉東１丁目１３９番,,27,203,5610846,,,,,,,2024-01-16,1,,,,,ユニークアップ,0
1663,5130001076138,新規,0,2024-01-16,2024-01-16,潤哲株式会社,,株式会社,京都府,京都市東山区,弓矢町５０－１・２０１室,,26,105,6050817,,,,,,,2024-01-16,1,,,,,ジュンテツ,0
1668,5140003020043,新規,0,2024-01-16,2024-01-16,合同会社ジーピー,,合同会社,兵庫県,明石市,本町１丁目２番３３号,,28,203,6730892,,,,,,,2024-01-16,1,,,,,ジーピー,0
1671,5150001027007,新規,0,2024-01-16,2024-01-16,株式会社Ｓｕｎｎｙ　Ｔｒａｃｋ,,株式会社,奈良県,奈良市,中町４０８番地の２４,,29,201,6310052,,,,,,,2024-01-16,1,,,,,サニートラック,0
1688,5180001159730,新規,0,2024-01-16,2024-01-16,株式会社文化ロック,,株式会社,愛知県,名古屋市天白区,大根町３６４番地の３,,23,116,4680024,,,,,,,2024-01-16,1,,,,,ブンカロック,0
1689,5180001159739,新規,0,2024-01-16,2024-01-16,株式会社Ｍｅｔｅｏｒ,,株式会社,愛知県,海部郡蟹江町,富吉３丁目８１番地,,23,425,4970058,,,,,,,2024-01-16,1,,,,,ミーティア,0
1690,5180001159763,新規,0,2024-01-16,2024-01-16,株式会社ＳｈｏｗＲｅｉ,,株式会社,愛知県,名古屋市西区,城西３丁目１０番５号シャトーサイド谷１Ｆ,,23,104,4510031,,,,,,,2024-01-16,1,,,,,ショウレイ,0
1706,5180003026185,新規,0,2024-01-16,2024-01-16,ＮＫＲユニバーサル合同会社,,合同会社,愛知県,名古屋市千種区,日進通１丁目２１番地,,23,101,4640844,,,,,,,2024-01-16,1,,,,,エヌケーアールユニバーサル,0
1707,5180003026193,新規,0,2024-01-16,2024-01-16,合同会社４サンカタンソ,,合同会社,愛知県,名古屋市西区,那古野１丁目１４番１８号,,23,104,4510042,,,,,,,2024-01-16,1,,,,,ヨンサンカタンソ,0
1709,5180005020491,新規,0,2024-01-16,2024-01-16,かなで社会保険労務士法人,,その他の設立登記法人,愛知県,名古屋市東区,代官町３５番１６号第一富士ビル６階Ｃ室,,23,102,4610002,,,,,,,2024-01-16,1,,,,,カナデ,0
1722,5190003004553,新規,0,2024-01-16,2024-01-16,合同会社ＹＮ,,合同会社,三重県,度会郡玉城町,矢野５７９番地２１７,,24,461,5190435,,,,,,,2024-01-16,1,,,,,ワイエヌ,0
1735,5220001025770,新規,0,2024-01-16,2024-01-16,株式会社大福Ｔａｘ,,株式会社,石川県,加賀市,勅使町リ７６番地,,17,206,9220313,,,,,,,2024-01-16,1,,,,,ダイフクタックス,0
1748,5260003004546,新規,0,2024-01-16,2024-01-16,合同会社ｔａｉｖａｓ,,合同会社,岡山県,岡山市南区,福富東２丁目３３番２１号,,33,104,7028033,,,,,,,2024-01-16,1,,,,,タイヴァス,0
1749,5270001008903,新規,0,2024-01-16,2024-01-16,株式会社彩架,,株式会社,鳥取県,鳥取市,上原３６６,,31,201,6801422,,,,,,,2024-01-16,1,,,,,サイカ,0
1768,5340001026220,新規,0,2024-01-16,2024-01-16,株式会社ＴＫＧファーム,,株式会社,鹿児島県,鹿屋市,下祓川町１３４９番地１,,46,203,8930024,,,,,,,2024-01-16,1,,,,,ティーケイジーファーム,0
1774,5380001034244,新規,0,2024-01-16,2024-01-16,株式会社Ｔ‐３,,株式会社,福島県,いわき市,平字月見町３３番地の２デュオヒルズ平月見町２０４,,07,204,9708026,,,,,,,2024-01-16,1,,,,,ティースリー,0
1789,5410001013698,新規,0,2024-01-16,2024-01-16,株式会社Ｋ．藤,,株式会社,秋田県,大仙市,太田町太田字新田街道上８４番地,,05,212,0191613,,,,,,,2024-01-16,1,,,,,ケイドットフジ,0
1792,5430001090884,新規,0,2024-01-16,2024-01-16,株式会社ヒロテック,,株式会社,北海道,苫小牧市,沼ノ端中央６丁目５番７６－１０１,,01,213,0591305,,,,,,,2024-01-16,1,,,,,ヒロテック,0
1799,5480001012355,新規,0,2024-01-16,2024-01-16,株式会社町田潜水,,株式会社,徳島県,徳島市,南昭和町７丁目８番地７８,,36,201,7700944,,,,,,,2024-01-16,1,,,,,マチダセンスイ,0
1818,5700150123310,新規,0,2024-01-16,2024-01-12,日光市介護サービス事業者連絡協議会,,その他,栃木県,日光市,猪倉９１４番地２０,,09,206,3212344,,,,,,,2024-01-12,1,,,,,ニツコウシカイゴサービスジギヨウシヤレンラクキヨウギカイ,0
1819,5700150123351,新規,0,2024-01-16,2024-01-16,ＴＩＴＡＮＩＵＭ　ＴＲＡＤＥＲＳ,,外国会社等,千葉県,八街市,東吉田７２５番地オフィス１３号,,12,230,2891114,スリランカ民主社会主義共和国、バブニヤ、バザールストリート、３７４,,,,,,2024-01-16,1,,,,,チタニウムトレーダーズ,0
1831,6010001241207,新規,0,2024-01-16,2024-01-16,日本中央ハウジング株式会社,,株式会社,東京都,中央区,築地２丁目１５－１５,,13,102,1040045,,,,,,,2024-01-16,1,,,,,ニホンチュウオウハウジング,0
1832,6010001241454,新規,0,2024-01-16,2024-01-16,株式会社レイクウッズガーデン,,株式会社,東京都,千代田区,神田駿河台４丁目６番地,,13,101,1010062,,,,,,,2024-01-16,1,,,,,レイクウッズガーデン,0
1833,6010001241487,新規,0,2024-01-16,2024-01-16,Ｋ．ｓｔｙｌｅ株式会社,,株式会社,東京都,千代田区,神田駿河台１丁目７番地１０,,13,101,1010062,,,,,,,2024-01-16,1,,,,,ケイスタイル,0
1843,6010401179708,新規,0,2024-01-16,2024-01-16,株式会社ポラリス,,株式会社,東京都,港区,南青山２丁目２番１５号ウィン青山９４２,,13,103,1070062,,,,,,,2024-01-16,1,,,,,ポラリス,0
1844,6010401179740,新規,0,2024-01-16,2024-01-16,株式会社ラビーダ,,株式会社,東京都,港区,南麻布４丁目１１番４６－１０２号,,13,103,1060047,,,,,,,2024-01-16,1,,,,,ラビーダ,0
1845,6010401179757,新規,0,2024-01-16,2024-01-16,株式会社マイルストーン,,株式会社,東京都,港区,南青山２丁目２番１５号ＷｉｎＡｏｙａｍａビルＵＣＦ６階,,13,103,1070062,,,,,,,2024-01-16,1,,,,,マイルストーン,0
1849,6010403031726,新規,0,2024-01-16,2024-01-16,伊達蓄電合同会社,,合同会社,東京都,港区,虎ノ門１丁目１０番５号,,13,103,1050001,,,,,,,2024-01-16,1,,,,,ダテチクデン,0
1850,6010403031742,新規,0,2024-01-16,2024-01-16,合同会社Ｒａｔｉｏ　ＰＲＯ,,合同会社,東京都,港区,赤坂６丁目１０番３９－３０９号,,13,103,1070052,,,,,,,2024-01-16,1,,,,,レシオプロ,0
1852,6010405022839,新規,0,2024-01-16,2024-01-16,税理士法人池田秀樹事務所,,その他の設立登記法人,東京都,港区,新橋４丁目３１番６号グランデ新橋ビル３階,,13,103,1050004,,,,,,,2024-01-16,1,,,,,イケダヒデキジムショ,0
1857,6010503007304,新規,0,2024-01-16,2024-01-16,ユニバーサルタカシ合同会社,,合同会社,東京都,台東区,上野３丁目１９番４号清水ビル３Ｆ,,13,106,1100005,,,,,,,2024-01-16,1,,,,,ユニバーサルタカシ,0
1859,6010601064453,新規,0,2024-01-16,2024-01-16,株式会社ロング,,株式会社,東京都,墨田区,立花３丁目５番１５号,,13,107,1310043,,,,,,,2024-01-16,1,,,,,ロング,0
1861,6010801034685,新規,0,2024-01-16,2024-01-16,明生ライジング株式会社,,株式会社,東京都,大田区,東糀谷１丁目６－１６,,13,111,1440033,,,,,,,2024-01-16,1,,,,,アキオライジング,0
1864,6010901054518,新規,0,2024-01-16,2024-01-16,瑞澤株式会社,,株式会社,東京都,世田谷区,代沢２丁目５番４号,,13,112,1550032,,,,,,,2024-01-16,1,,,,,ズイザワ,0
1865,6010901054526,新規,0,2024-01-16,2024-01-16,Ｎ４ＮＪＡＰＡＮ株式会社,,株式会社,東京都,世田谷区,上北沢４丁目３３番２１号,,13,112,1560057,,,,,,,2024-01-16,1,,,,,エヌフォーエヌジャパン,0
1866,6010901054542,新規,0,2024-01-16,2024-01-16,株式会社ＡＣＥ,,株式会社,東京都,世田谷区,池尻２丁目２５番３号,,13,112,1540001,,,,,,,2024-01-16,1,,,,,エース,0
1873,6011001159232,新規,0,2024-01-16,2024-01-16,株式会社社長の右腕,,株式会社,東京都,渋谷区,道玄坂１丁目１０番８号渋谷道玄坂東急ビル２Ｆ－Ｃ,,13,113,1500043,,,,,,,2024-01-16,1,,,,,シャチョウノミギウデ,0
1874,6011001159307,新規,0,2024-01-16,2024-01-16,株式会社Ｓｔｕｄｉｏ　ＭＩＸ,,株式会社,東京都,渋谷区,広尾１丁目１番３９号恵比寿プライムスクエア１３階,,13,113,1500012,,,,,,,2024-01-16,1,,,,,スタジオミックス,0
1875,6011001159331,新規,0,2024-01-16,2024-01-16,株式会社ＳＡＫＥ３,,株式会社,東京都,渋谷区,道玄坂１丁目１０番８号渋谷道玄坂東急ビル２Ｆ－Ｃ,,13,113,1500043,,,,,,,2024-01-16,1,,,,,サケスリー,0
1876,6011001159380,新規,0,2024-01-16,2024-01-16,株式会社ＳＵＰＥＲＮＯＶＡ,,株式会社,東京都,渋谷区,道玄坂１丁目１０番８号渋谷道玄坂東急ビル２Ｆ－Ｃ,,13,113,1500043,,,,,,,2024-01-16,1,,,,,スーパーノヴァ,0
1882,6011101105805,新規,0,2024-01-16,2024-01-16,株式会社Ｎａｔａｍ,,株式会社,東京都,新宿区,西新宿５丁目１０番１４号５階,,13,104,1600023,,,,,,,2024-01-16,1,,,,,ナタム,0
1883,6011101105813,新規,0,2024-01-16,2024-01-16,レザン東京株式会社,,株式会社,東京都,新宿区,百人町１丁目１６番２１号,,13,104,1690073,,,,,,,2024-01-16,1,,,,,レザントウキョウ,0
1887,6011103013956,新規,0,2024-01-16,2024-01-16,合同会社あーつやコンサルティング,,合同会社,東京都,新宿区,原町３丁目３７番地安藤ビル３０１,,13,104,1620053,,,,,,,2024-01-16,1,,,,,アーツヤコンサルティング,0
1888,6011103013964,新規,0,2024-01-16,2024-01-16,合同会社ＮＫ３,,合同会社,東京都,新宿区,西新宿７丁目１０番１号Ｏ－ＧＵＡＲＤＳＨＩＮＪＵＫＵ７階,,13,104,1600023,,,,,,,2024-01-16,1,,,,,エヌケースリー,0
1889,6011201025176,新規,0,2024-01-16,2024-01-16,株式会社アルト,,株式会社,東京都,中野区,鷺宮２丁目１２番６号,,13,114,1650032,,,,,,,2024-01-16,1,,,,,アルト,0
1891,6011401025760,新規,0,2024-01-16,2024-01-16,株式会社Ｃｒｅａｔｅ　Ｎｅｗ　Ｏｎｅ,,株式会社,東京都,板橋区,清水町７４－１パークアクシス板橋本町弐番館６０６号室,,13,119,1740053,,,,,,,2024-01-16,1,,,,,クリエイトニューワン,0
1892,6011403004218,新規,0,2024-01-16,2024-01-16,晴海合同会社,,合同会社,東京都,板橋区,舟渡２丁目２３－７－２０２,,13,119,1740041,,,,,,,2024-01-16,1,,,,,ハルミ,0
1893,6011601027458,新規,0,2024-01-16,2024-01-16,株式会社Ｌｏｒｉｄｇｅ,,株式会社,東京都,練馬区,桜台４丁目１０－１５,,13,120,1760002,,,,,,,2024-01-16,1,,,,,ロリッジ,0
1894,6011801043635,新規,0,2024-01-16,2024-01-16,株式会社グレイスホライゾン,,株式会社,東京都,足立区,花畑８丁目８番２１－１００２,,13,121,1210061,,,,,,,2024-01-16,1,,,,,グレイスホライゾン,0
1900,6012701018033,新規,0,2024-01-16,2024-01-16,株式会社ＵＴＡ,,株式会社,東京都,西東京市,ひばりが丘１丁目１番１－６０１号,,13,229,2020001,,,,,,,2024-01-16,1,,,,,ユーティーエー,0
1903,6012801022901,新規,0,2024-01-16,2024-01-16,株式会社ＴｅｃｈＳｙｎｃ,,株式会社,東京都,国立市,中１丁目９－８第７叶ビル３Ｆ,,13,215,1860004,,,,,,,2024-01-16,1,,,,,テックシンク,0
1915,6020001155307,新規,0,2024-01-16,2024-01-16,株式会社インコネルジャパン,,株式会社,神奈川県,横浜市鶴見区,市場下町１１番３７－２２９号,,14,101,2300024,,,,,,,2024-01-16,1,,,,,インコネルジャパン,0
1918,6020003025318,新規,0,2024-01-16,2024-01-16,佐々木合同会社,,合同会社,神奈川県,川崎市中原区,井田中ノ町８番８－４０９号,,14,133,2110034,,,,,,,2024-01-16,1,,,,,ササキ,0
1919,6020003025359,新規,0,2024-01-16,2024-01-16,合同会社ＲＣＳ,,合同会社,神奈川県,横浜市神奈川区,台町７番地２号４１５号室,,14,102,2210834,,,,,,,2024-01-16,1,,,,,,0
1921,6021001081204,新規,0,2024-01-16,2024-01-16,株式会社ＷＩＮＧ,,株式会社,神奈川県,厚木市,中町２丁目１０番４号ＫＳビル５Ｆ,,14,212,2430018,,,,,,,2024-01-16,1,,,,,ウイング,0
1928,6030001157863,新規,0,2024-01-16,2024-01-16,株式会社ＷＡＫＡＧＥＮ,,株式会社,埼玉県,さいたま市南区,根岸５丁目９－１４－１０６,,11,108,3360024,,,,,,,2024-01-16,1,,,,,ワカゲン,0
1929,6030001158119,新規,0,2024-01-16,2024-01-16,株式会社Ｗｉｎｇ,,株式会社,埼玉県,川口市,大字東本郷１００４－２,,11,203,3340063,,,,,,,2024-01-16,1,,,,,ウイング,0
1930,6030001158127,新規,0,2024-01-16,2024-01-16,株式会社ＢＡＳＥ,,株式会社,埼玉県,三郷市,鷹野３丁目１－１サンライフ鷹野４１０,,11,237,3410035,,,,,,,2024-01-16,1,,,,,ベース,0
1931,6030001158176,新規,0,2024-01-16,2024-01-16,ＲＩＳＥ株式会社,,株式会社,埼玉県,春日部市,豊町２丁目１４番地７・２０１,,11,214,3440066,,,,,,,2024-01-16,1,,,,,ライズ,0
1942,6040001131743,新規,0,2024-01-16,2024-01-16,大成貿易株式会社,,株式会社,千葉県,千葉市若葉区,中野町１４４７番地,,12,104,2650051,,,,,,,2024-01-16,1,,,,,タイセイボウエキ,0
1943,6040001131768,新規,0,2024-01-16,2024-01-16,株式会社りゅう建築設計,,株式会社,千葉県,松戸市,新松戸３丁目３番地の２,,12,207,2700034,,,,,,,2024-01-16,1,,,,,リュウケンチクセッケイ,0
1948,6040003024111,新規,0,2024-01-16,2024-01-16,ＡＤＨＩＫＡＲＩ合同会社,,合同会社,千葉県,船橋市,本中山３丁目１番１号,,12,204,2730035,,,,,,,2024-01-16,1,,,,,アディカリ,0
1952,6060001036734,新規,0,2024-01-16,2024-01-16,ＮＳファーム株式会社,,株式会社,栃木県,小山市,大字中里７５５番地,,09,208,3290227,,,,,,,2024-01-16,1,,,,,エヌエスファーム,0
1999,6100003007349,新規,0,2024-01-16,2024-01-16,川上コンテナベース合同会社,,合同会社,長野県,北佐久郡御代田町,大字御代田３９８９番地７,,20,323,3890206,,,,,,,2024-01-16,1,,,,,カワカミコンテナベース,0
2015,6120001261318,新規,0,2024-01-16,2024-01-16,ＳＬＷＰＮＥＸＴ株式会社,,株式会社,大阪府,大阪市中央区,谷町２丁目１－２２－６０２,,27,128,5400012,,,,,,,2024-01-16,1,,,,,スロープネクスト,0
2016,6120001261359,新規,0,2024-01-16,2024-01-16,和一株式会社,,株式会社,大阪府,大阪市西区,本田３丁目１番１９号,,27,106,5500022,,,,,,,2024-01-16,1,,,,,ワイチ,0
2017,6120001261367,新規,0,2024-01-16,2024-01-16,サンパティオホーム株式会社,,株式会社,大阪府,大阪市北区,天満２丁目１番１０号,,27,127,5300043,,,,,,,2024-01-16,1,,,,,サンパティオホーム,0
2018,6120001261375,新規,0,2024-01-16,2024-01-16,株式会社ゼロヒャク,,株式会社,大阪府,大阪市西区,西本町１丁目１３番３８号西本町新興産ビル７０９号,,27,106,5500005,,,,,,,2024-01-16,1,,,,,ゼロヒャク,0
2019,6120003025670,新規,0,2024-01-16,2024-01-16,ＢＧＭｐｌｕｓ合同会社,,合同会社,大阪府,大阪市西区,立売堀５丁目４番７－１０１号,,27,106,5500012,,,,,,,2024-01-16,1,,,,,ビージーエムプラス,0
2020,6120003025704,新規,0,2024-01-16,2024-01-16,合同会社睦月,,合同会社,大阪府,大阪市中央区,北久宝寺町２丁目５番１‐３０３号,,27,128,5410057,,,,,,,2024-01-16,1,,,,,ムツキ,0
2024,6120101068877,新規,0,2024-01-16,2024-01-16,株式会社明誠工業,,株式会社,大阪府,泉南郡熊取町,七山１丁目６２７番地の１０,,27,361,5900421,,,,,,,2024-01-16,1,,,,,メイセイコウギョウ,0
2028,6120903004996,新規,0,2024-01-16,2024-01-16,合同会社バグースラ・ソリューションズ,,合同会社,大阪府,茨木市,彩都あさぎ１丁目３番－６－１１１８号,,27,211,5670085,,,,,,,2024-01-16,1,,,,,バグースラソリューションズ,0
2034,6130001076137,新規,0,2024-01-16,2024-01-16,賽森株式会社,,株式会社,京都府,京都市左京区,浄土寺上南田町１５－５,,26,103,6068405,,,,,,,2024-01-16,1,,,,,サイセン,0
2040,6140001132954,新規,0,2024-01-16,2024-01-16,株式会社オマエ自動車,,株式会社,兵庫県,宍粟市,波賀町小野３０９番地４,,28,227,6714243,,,,,,,2024-01-16,1,,,,,オマエジドウシャ,0
2061,6180001159721,新規,0,2024-01-16,2024-01-16,Ｒｏｄｉ　Ｔｒａｄｉｎｇ株式会社,,株式会社,愛知県,名古屋市港区,宝神５丁目１０３１番地の１シャトーパルシェ３Ｃ号室,,23,111,4550832,,,,,,,2024-01-16,1,,,,,ロディトレーディング,0
2062,6180001159738,新規,0,2024-01-16,2024-01-16,おむすびや株式会社,,株式会社,愛知県,名古屋市瑞穂区,春山町１７－１１,,23,108,4670024,,,,,,,2024-01-16,1,,,,,オムスビヤ,0
2063,6180001159746,新規,0,2024-01-16,2024-01-16,株式会社エムケーコンサルティング,,株式会社,愛知県,春日井市,高蔵寺町３丁目３番地の１１,,23,206,4870013,,,,,,,2024-01-16,1,,,,,エムケーコンサルティング,0
2064,6180001159762,新規,0,2024-01-16,2024-01-16,株式会社Ｍサポート,,株式会社,愛知県,名古屋市名東区,代万町１丁目６４番地の１,,23,115,4650086,,,,,,,2024-01-16,1,,,,,エムサポート,0
2065,6180001159770,新規,0,2024-01-16,2024-01-16,株式会社三都,,株式会社,愛知県,名古屋市中区,栄５丁目２６番３９号ＧＳ栄ビル３Ｆ,,23,106,4600008,,,,,,,2024-01-16,1,,,,,サント,0
2066,6180001159779,新規,0,2024-01-16,2024-01-16,デジタックス株式会社,,株式会社,愛知県,名古屋市南区,天白町４丁目１５,,23,112,4570803,,,,,,,2024-01-16,1,,,,,デジタックス,0
2067,6180001159787,新規,0,2024-01-16,2024-01-16,ティーアンドティーオリジン株式会社,,株式会社,愛知県,名古屋市中川区,中島新町４丁目２８０４番地,,23,110,4540932,,,,,,,2024-01-16,1,,,,,ティーアンドティーオリジン,0
2086,6180003026218,新規,0,2024-01-16,2024-01-16,合同会社ＮＵＴＴＡＫ,,合同会社,愛知県,名古屋市北区,金城２丁目７番２３号,,23,103,4620847,,,,,,,2024-01-16,1,,,,,ナック,0
2101,6200001042073,新規,0,2024-01-16,2024-01-16,株式会社ＡＲ岐阜,,株式会社,岐阜県,郡上市,美並町白山７１番地１,,21,219,5014106,,,,,,,2024-01-16,1,,,,,エイアールギフ,0
2102,6200003006209,新規,0,2024-01-16,2024-01-16,合同会社パーマン,,合同会社,岐阜県,羽島郡岐南町,若宮地２丁目１６,,21,302,5016005,,,,,,,2024-01-16,1,,,,,パーマン,0
2117,6250001020479,新規,0,2024-01-16,2024-01-16,常翔興業株式会社,,株式会社,山口県,大島郡周防大島町,大字志佐７１１番地,,35,305,7422104,,,,,,,2024-01-16,1,,,,,ジョウショウコウギョウ,0
2135,6290005019258,新規,0,2024-01-16,2024-01-16,医療法人うえだ歯科クリニック,,その他の設立登記法人,福岡県,糟屋郡宇美町,ゆりが丘１丁目４番６号,,40,341,8112108,,,,,,,2024-01-16,1,,,,,ウエダシカクリニック,0
2138,6300003002065,新規,0,2024-01-16,2024-01-16,合同会社金ノ泉,,合同会社,佐賀県,佐賀市,松原２丁目２番１３－１５０２号,,41,201,8400831,,,,,,,2024-01-16,1,,,,,キンノイズミ,0
2140,6310001018797,新規,0,2024-01-16,2024-01-16,和和ビジネス株式会社,,株式会社,長崎県,長崎市,矢上町１４番３９号,,42,201,8510133,,,,,,,2024-01-16,1,,,,,ワワビジネス,0
2143,6320001020232,新規,0,2024-01-16,2024-01-16,株式会社松本盤工,,株式会社,大分県,別府市,大字北石垣１０８６番地の３７,,44,202,8740000,,,,,,,2024-01-16,1,,,,,マツモトバンコウ,0
2150,6370003006448,新規,0,2024-01-16,2024-01-16,合同会社ブルベア,,合同会社,宮城県,富谷市,太子堂１丁目１５番２１号,,04,216,9813303,,,,,,,2024-01-16,1,,,,,ブルベア,0
2152,6380001034243,新規,0,2024-01-16,2024-01-16,株式会社常磐メディカル,,株式会社,福島県,いわき市,常磐下湯長谷町１丁目５４番地,,07,204,9728317,,,,,,,2024-01-16,1,,,,,トキワメディカル,0
2162,6400003003202,新規,0,2024-01-16,2024-01-16,合同会社エイトベル,,合同会社,岩手県,滝沢市,穴口６０番地９９、２ＮＤＳＥＩＹＯ１０５号,,03,216,0200633,,,,,,,2024-01-16,1,,,,,エイトベル,0
2166,6410001013697,新規,0,2024-01-16,2024-01-16,株式会社ＩＴＯＣＣＡ,,株式会社,秋田県,秋田市,河辺畑谷字蟹沢１４２－２５,,05,201,0192612,,,,,,,2024-01-16,1,,,,,イトッカ,0
2191,6700150123350,新規,0,2024-01-16,2024-01-16,ノー・リミット・プライベートカンパニー,,外国会社等,神奈川県,厚木市,三田２９７８番地,,14,212,2430211,ガーナ共和国東部アクアピム南ムニシパルディストリクト、ンサワムシティ、ジャンクロムロード、ンサワムジャンクロム、ＨＨ３０Ａ、ＥＧ－００６－８２６８,,,,,,2024-01-16,1,,,,,ノーリミツトプライベートカンパニー,0
2198,7010001241453,新規,0,2024-01-16,2024-01-16,株式会社ＣｏｎＱ,,株式会社,東京都,中央区,日本橋茅場町１丁目８番１号,,13,102,1030025,,,,,,,2024-01-16,1,,,,,コンク,0
2199,7010001241511,新規,0,2024-01-16,2024-01-16,オクト設立準備株式会社,,株式会社,東京都,千代田区,神田練塀町３００番地,,13,101,1010022,,,,,,,2024-01-16,1,,,,,オクトセツリツジュンビ,0
2203,7010003042635,新規,0,2024-01-16,2024-01-16,５１０ＢＩＺ合同会社,,合同会社,東京都,中央区,銀座７丁目１３番２０号銀座ＴＨビル９階,,13,102,1040061,,,,,,,2024-01-16,1,,,,,ゴーイチマルビズ,0
2204,7010003042643,新規,0,2024-01-16,2024-01-16,合同会社ＯＣＰＦ３号,,合同会社,東京都,中央区,日本橋１丁目４番１号,,13,102,1030027,,,,,,,2024-01-16,1,,,,,オーシーピーエフサンゴウ,0
2205,7010003042651,新規,0,2024-01-16,2024-01-16,ＪＰインベストメント・ジャパンファンド合同会社,,合同会社,東京都,千代田区,大手町２丁目３番１号,,13,101,1000004,,,,,,,2024-01-16,1,,,,,ジェイピーインベストメントジャパンファンド,0
2207,7010103002290,新規,0,2024-01-16,2024-01-16,合同会社Ｅｉｇｈｔ　ｐｒｉｎｃｅ　ｃｏｍｐａｎｙ,,合同会社,東京都,八王子市,大和田町２丁目１０番７号３０８,,13,201,1920045,,,,,,,2024-01-16,1,,,,,エイトプリンスカンパニー,0
2217,7010401179764,新規,0,2024-01-16,2024-01-16,株式会社スマイルリソース,,株式会社,東京都,港区,東麻布２丁目２０番１－１００１号,,13,103,1060044,,,,,,,2024-01-16,1,,,,,,0
2218,7010403031700,新規,0,2024-01-16,2024-01-16,ＰＧＳ２合同会社,,合同会社,東京都,港区,六本木３丁目２番１号六本木グランドタワー,,13,103,1060032,,,,,,,2024-01-16,1,,,,,ピージーエスツー,0
2219,7010403031725,新規,0,2024-01-16,2024-01-16,長野原蓄電合同会社,,合同会社,東京都,港区,虎ノ門１丁目１０番５号,,13,103,1050001,,,,,,,2024-01-16,1,,,,,ナガノハラチクデン,0
2223,7010501051600,新規,0,2024-01-16,2024-01-16,株式会社令櫻,,株式会社,東京都,台東区,浅草橋４丁目２０番２号丸幸第一ビル３階,,13,106,1110053,,,,,,,2024-01-16,1,,,,,レイオウ,0
2225,7010601064452,新規,0,2024-01-16,2024-01-16,株式会社ＲＩＧＯＲＡＴＨ,,株式会社,東京都,墨田区,業平１丁目９番１０号押上スカイビル１Ｆ,,13,107,1300002,,,,,,,2024-01-16,1,,,,,リゴラス,0
2226,7010601064477,新規,0,2024-01-16,2024-01-16,心怡株式会社,,株式会社,東京都,墨田区,文花１丁目３４番１１－２０９号,,13,107,1310044,,,,,,,2024-01-16,1,,,,,シンイ,0
2229,7010701045402,新規,0,2024-01-16,2024-01-16,株式会社松田空調,,株式会社,東京都,品川区,西品川１丁目１１番５号,,13,109,1410033,,,,,,,2024-01-16,1,,,,,マツダクウチョウ,0
2234,7010801034684,新規,0,2024-01-16,2024-01-16,ｐｌｕｓｈｅｌｌ株式会社,,株式会社,東京都,大田区,中央１丁目１６－８シャンポール大森１１９,,13,111,1430024,,,,,,,2024-01-16,1,,,,,プラシェル,0
2236,7010901054525,新規,0,2024-01-16,2024-01-16,株式会社辰希,,株式会社,東京都,世田谷区,南烏山１丁目２４番７号ユエヴィハイツ１０１号室,,13,112,1570062,,,,,,,2024-01-16,1,,,,,タツキ,0
2244,7011001159297,新規,0,2024-01-16,2024-01-16,日本テック株式会社,,株式会社,東京都,渋谷区,代々木１丁目３０－１５天翔代々木ビル４階Ｓ４０２－Ｊ号室,,13,113,1510053,,,,,,,2024-01-16,1,,,,,ニホンテック,0
2245,7011001159306,新規,0,2024-01-16,2024-01-16,株式会社大橋写真機店,,株式会社,東京都,渋谷区,幡ヶ谷２丁目１９－４－５０１,,13,113,1510072,,,,,,,2024-01-16,1,,,,,オオハシシャシンキテン,0
2259,7011101105787,新規,0,2024-01-16,2024-01-16,株式会社ＴＳ,,株式会社,東京都,新宿区,西新宿３丁目３－１３,,13,104,1600023,,,,,,,2024-01-16,1,,,,,ティーエス,0
2264,7011303005026,新規,0,2024-01-16,2024-01-16,合同会社堀越事務所,,合同会社,東京都,杉並区,堀ノ内２丁目１３番１２－７０６号,,13,115,1660013,,,,,,,2024-01-16,1,,,,,ホリコシジムショ,0
2269,7011501030189,新規,0,2024-01-16,2024-01-16,浩金ホールディングス株式会社,,株式会社,東京都,荒川区,町屋６丁目１７番６号,,13,118,1160001,,,,,,,2024-01-16,1,,,,,ヒロカネホールディングス,0
2276,7012401041409,新規,0,2024-01-16,2024-01-16,株式会社サイトＢ,,株式会社,東京都,三鷹市,下連雀２丁目１４番４３号,,13,204,1810013,,,,,,,2024-01-16,1,,,,,サイトビー,0
2290,7020001155223,新規,0,2024-01-16,2024-01-16,株式会社ＴＡＩＳＥＩ,,株式会社,神奈川県,横浜市神奈川区,大口通８番地２うおや内,,14,102,2210002,,,,,,,2024-01-16,1,,,,,タイセイ,0
2291,7020001155289,新規,0,2024-01-16,2024-01-16,カワダ・トータル・アドバイザリー株式会社,,株式会社,神奈川県,横浜市瀬谷区,阿久和東１丁目４番地６,,14,114,2460023,,,,,,,2024-01-16,1,,,,,カワダトータルアドバイザリー,0
2292,7020001155314,新規,0,2024-01-16,2024-01-16,北鼎日本株式会社,,株式会社,神奈川県,横浜市青葉区,あざみ野南４丁目２６－５２,,14,117,2250012,,,,,,,2024-01-16,1,,,,,ホクテイ,0
2297,7020005016256,新規,0,2024-01-16,2024-01-16,医療法人ｉｃｈｉ,,その他の設立登記法人,神奈川県,横浜市中区,常盤町２丁目１１番地１セドル・ブランシュ常盤町３Ｆ－２,,14,104,2310014,,,,,,,2024-01-16,1,,,,,,0
2300,7021003014012,新規,0,2024-01-16,2024-01-16,合同会社舞有建装,,合同会社,神奈川県,海老名市,中央３丁目１番２３－１００４号,,14,215,2430432,,,,,,,2024-01-16,1,,,,,マユケンソウ,0
2302,7030001158167,新規,0,2024-01-16,2024-01-16,株式会社ＣＨＡＭＰ空手道場,,株式会社,埼玉県,戸田市,大字新曽８４９番地の２リュエル戸田１０３号室,,11,224,3350021,,,,,,,2024-01-16,1,,,,,チャンプカラテドウジョウ,0
2307,7030003023419,新規,0,2024-01-16,2024-01-16,合同会社Ｆｉｎｅ,,合同会社,埼玉県,三郷市,中央５丁目１９番地３,,11,237,3410038,,,,,,,2024-01-16,1,,,,,ファイン,0
2312,7040001131742,新規,0,2024-01-16,2024-01-16,株式会社ＸＹＺ,,株式会社,千葉県,白井市,南山２丁目４番７号,,12,232,2701423,,,,,,,2024-01-16,1,,,,,エックスワイゼット,0
2313,7040001131759,新規,0,2024-01-16,2024-01-16,ＬＳ　ＰＲＯＰＥＲＴＹ株式会社,,株式会社,千葉県,流山市,おおたかの森北１丁目８番１号,,12,220,2700119,,,,,,,2024-01-16,1,,,,,エルエスプロパティ,0
2320,7060001036733,新規,0,2024-01-16,2024-01-16,株式会社ティーアールホールディングス,,株式会社,栃木県,小山市,大字萱橋１２４１番地９,,09,208,3230804,,,,,,,2024-01-16,1,,,,,ティーアールホールディングス,0
2372,7100003007348,新規,0,2024-01-16,2024-01-16,ＧＬＯ合同会社,,合同会社,長野県,長野市,大字鶴賀権堂町２２７０番地１ニューパレスアーケード側,,20,201,3800833,,,,,,,2024-01-16,1,,,,,,0
2395,7120001261317,新規,0,2024-01-16,2024-01-16,夢龍株式会社,,株式会社,大阪府,大阪市淀川区,西宮原２丁目６－１６新大阪コーポビアネーズ１１３１号室,,27,123,5320004,,,,,,,2024-01-16,1,,,,,ムリュウ,0
2396,7120001261358,新規,0,2024-01-16,2024-01-16,和馳株式会社,,株式会社,大阪府,大阪市西区,本田３丁目１番１９号,,27,106,5500022,,,,,,,2024-01-16,1,,,,,ワチ,0
2397,7120001261374,新規,0,2024-01-16,2024-01-16,Ｃ．Ｃ株式会社,,株式会社,大阪府,大阪市淀川区,宮原１丁目１番１号新大阪阪急ビル３階,,27,123,5320003,,,,,,,2024-01-16,1,,,,,シードットシー,0
2398,7120001261399,新規,0,2024-01-16,2024-01-16,株式会社スイッチラボ,,株式会社,大阪府,交野市,私部西２丁目１６番１３号,,27,230,5760041,,,,,,,2024-01-16,1,,,,,スイッチラボ,0
2399,7120001261408,新規,0,2024-01-16,2024-01-16,株式会社先花工業,,株式会社,大阪府,大阪市城東区,野江２丁目８番１５号,,27,118,5360006,,,,,,,2024-01-16,1,,,,,サキハナコウギョウ,0
2402,7120003025579,新規,0,2024-01-16,2024-01-16,Ｆｌｏｗ　Ｇｅｎ合同会社,,合同会社,大阪府,大阪市平野区,喜連西５丁目１番１２号,,27,126,5470026,,,,,,,2024-01-16,1,,,,,フロージェン,0
2403,7120003025620,新規,0,2024-01-16,2024-01-16,ＢＡＣＨ　ＮＨＡＴ百日合同会社,,合同会社,大阪府,大阪市天王寺区,味原本町１０－１２－４０２,,27,109,5430022,,,,,,,2024-01-16,1,,,,,バックナットヒャクニチ,0
2404,7120003025637,新規,0,2024-01-16,2024-01-16,ＫＨＡＮ　ＡＮＤ　ＷＡＲＲＡＩＣＨ　ＴＲＡＤＩＮＧ合同会社,,合同会社,大阪府,大阪市東淀川区,大隅１丁目２番１６－２０５号,,27,114,5330015,,,,,,,2024-01-16,1,,,,,カンアンドワライチトレーディング,0
2405,7120003025661,新規,0,2024-01-16,2024-01-16,新芸合同会社,,合同会社,大阪府,大阪市淀川区,宮原２丁目１２番１４号ライオンズマンション新大阪第５・９０３号室,,27,123,5320003,,,,,,,2024-01-16,1,,,,,シンゲイ,0
2408,7120103005621,新規,0,2024-01-16,2024-01-16,ＣＯＣＯ合同会社,,合同会社,大阪府,堺市北区,長曽根町３０８０番地３０ステラ中百舌鳥４０７号,,27,146,5918025,,,,,,,2024-01-16,1,,,,,ココ,0
2410,7120901048615,新規,0,2024-01-16,2024-01-16,株式会社タカデン,,株式会社,大阪府,高槻市,芝生町１丁目９番１２号,,27,207,5690823,,,,,,,2024-01-16,1,,,,,タカデン,0
2411,7120901048623,新規,0,2024-01-16,2024-01-16,株式会社プラティスト,,株式会社,大阪府,高槻市,高槻町８－１４－３０５,,27,207,5690803,,,,,,,2024-01-16,1,,,,,プラティスト,0
2412,7120903004995,新規,0,2024-01-16,2024-01-16,合同会社スリーエス,,合同会社,大阪府,吹田市,江坂町１丁目１３番３８－１３０２号,,27,205,5640063,,,,,,,2024-01-16,1,,,,,スリーエス,0
2415,7122003002772,新規,0,2024-01-16,2024-01-16,ＹＧリサーチ合同会社,,合同会社,大阪府,東大阪市,本庄２丁目４番３８号,,27,227,5780953,,,,,,,2024-01-16,1,,,,,ワイジーリサーチ,0
2424,7140001133002,新規,0,2024-01-16,2024-01-16,株式会社ＤｉａＭｏｎｄ,,株式会社,兵庫県,姫路市,網干区興浜６８９番地９,,28,201,6711241,,,,,,,2024-01-16,1,,,,,ダイヤモンド,0
2428,7140005026895,新規,0,2024-01-16,2024-01-16,社会保険労務士法人ひめじ人事労務コンサルティング,,その他の設立登記法人,兵庫県,姫路市,東辻井３丁目３番１０号ロイヤルステイツ東辻井１０２号室,00133351,28,201,6700084,,,,,,,2024-01-16,1,,,,,ヒメジジンジロウムコンサルティング,0
2429,7170003001971,新規,0,2024-01-16,2024-01-16,合同会社やすい車輌マネジメント,,合同会社,和歌山県,橋本市,高野口町伏原１８９番地の２８,,30,203,6497202,,,,,,,2024-01-16,1,,,,,ヤスイシャリョウマネジメント,0
2453,7180001159753,新規,0,2024-01-16,2024-01-16,株式会社エイチケイ,,株式会社,愛知県,名古屋市中村区,中島町３丁目１１番地東雲ビル４Ａ,,23,105,4530022,,,,,,,2024-01-16,1,,,,,エイチケイ,0
2465,7180003026225,新規,0,2024-01-16,2024-01-16,合同会社クロア,,合同会社,愛知県,知多郡阿久比町,大字卯坂字坂部１８番地,,23,441,4702212,,,,,,,2024-01-16,1,,,,,クロア,0
2480,7190001031028,新規,0,2024-01-16,2024-01-16,株式会社ＧｒａｎｂｌｕｅＬＩＮＫ,,株式会社,三重県,桑名市,大字安永１３０２番地１リベルタＩＩ１０１号,00133366,24,205,5110839,,,,,,,2024-01-16,1,,,,,グランブルーリンク,0
2483,7190005011901,新規,0,2024-01-16,2024-01-16,一般社団法人道,,その他の設立登記法人,三重県,伊賀市,鍛冶屋７２０番地,,24,216,5181143,,,,,,,2024-01-16,1,,,,,ミチ,0
2484,7200001042072,新規,0,2024-01-16,2024-01-16,株式会社リセントプラス,,株式会社,岐阜県,各務原市,那加日新町６丁目２２番地各務原ＭＳトーカイビル,,21,213,5040945,,,,,,,2024-01-16,1,,,,,リセントプラス,0
2486,7200003006208,新規,0,2024-01-16,2024-01-16,合同会社Ｎ＆Ｓエステート,,合同会社,岐阜県,瑞穂市,只越１２１１番地１,,21,216,5010221,,,,,,,2024-01-16,1,,,,,エヌアンドエスエステート,0
2508,7290001104376,新規,0,2024-01-16,2024-01-16,株式会社リバティーインボックス,,株式会社,福岡県,福岡市博多区,博多駅前１丁目２３番２号ＰａｒｋＦｒｏｎｔ博多駅前１丁目５Ｆ－Ｂ,,40,132,8120011,,,,,,,2024-01-16,1,,,,,リバティーインボックス,0
2512,7290005019257,新規,0,2024-01-16,2024-01-16,一般社団法人すまいるサポート,,その他の設立登記法人,福岡県,久留米市,荒木町白口３００１番地２８ツインドリーム荒木８０３号,,40,203,8300062,,,,,,,2024-01-16,1,,,,,スマイルサポート,0
2521,7320001020231,新規,0,2024-01-16,2024-01-16,Ａｎ’ｓカンパニー株式会社,,株式会社,大分県,大分市,大字猪野８１３番地の２０,,44,201,8700134,,,,,,,2024-01-16,1,,,,,アンズカンパニー,0
2537,7370001050827,新規,0,2024-01-16,2024-01-16,株式会社ハヤケン,,株式会社,宮城県,仙台市太白区,四郎丸字浜堀４９－６,,04,104,9811101,,,,,,,2024-01-16,1,,,,,ハヤケン,0
2541,7380001034242,新規,0,2024-01-16,2024-01-16,マルショウ株式会社,,株式会社,福島県,郡山市,香久池２丁目１６番６号アヴェニールＶＩＩ３０１号,00133354,07,203,9638833,,,,,,,2024-01-16,1,,,,,マルショウ,0
2554,7430001090874,新規,0,2024-01-16,2024-01-16,株式会社トップセンス,,株式会社,北海道,札幌市西区,二十四軒四条５丁目１番８号ＳＡＫＵＲＡ－ＫＯＴＯＮＩ,,01,107,0630804,,,,,,,2024-01-16,1,,,,,トップセンス,0
2560,7430003015854,新規,0,2024-01-16,2024-01-16,合同会社ＮＳＮ,,合同会社,北海道,札幌市東区,北二十条東７丁目１番２７号,,01,103,0650020,,,,,,,2024-01-16,1,,,,,エヌエスエヌ,0
2586,7700150122913,新規,0,2024-01-16,2023-12-20,イクシア小岩管理組合,,その他,東京都,江戸川区,東小岩３丁目１９番１７,,13,123,1330052,,,,,,,2023-12-20,1,,,,,イクシアコイワカンリクミアイ,0
2587,7700150123325,新規,0,2024-01-16,2024-01-15,福岡日伊協会,,その他,福岡県,福岡市博多区,博多駅前１丁目３番６号,,40,132,8120011,,,,,,,2024-01-15,1,,,,,フクオカニチイキヨウカイ,0
2600,8010001241519,新規,0,2024-01-16,2024-01-16,ワンドリーム株式会社,,株式会社,東京都,千代田区,岩本町２丁目１９－９ＭＡＲＵＥＩＢＬＤＧ,,13,101,1010032,,,,,,,2024-01-16,1,,,,,ワンドリーム,0
2619,8010401179689,新規,0,2024-01-16,2024-01-16,株式会社ＫＬＥＥ　ＵＰ,,株式会社,東京都,港区,南青山４丁目１７－３３グランカーサ南青山２Ｆ,,13,103,1070062,,,,,,,2024-01-16,1,,,,,クレーアップ,0
2621,8010403031699,新規,0,2024-01-16,2024-01-16,ＡＬＦ合同会社,,合同会社,東京都,港区,南麻布２丁目１番地５号,,13,103,1060047,,,,,,,2024-01-16,1,,,,,エイエルエフ,0
2622,8010403031724,新規,0,2024-01-16,2024-01-16,合同会社Ｌｕｋａ,,合同会社,東京都,港区,赤坂４丁目８番１９号,,13,103,1070052,,,,,,,2024-01-16,1,,,,,ルカ,0
2623,8010503007302,新規,0,2024-01-16,2024-01-16,合同会社ＡＳＡ,,合同会社,東京都,台東区,浅草６丁目１１番４－１００１号,,13,106,1110032,,,,,,,2024-01-16,1,,,,,エーエスエー,0
2625,8010601064484,新規,0,2024-01-16,2024-01-16,株式会社かんだ,,株式会社,東京都,江東区,新大橋１丁目５番４－７１４号,,13,108,1350007,,,,,,,2024-01-16,1,,,,,,0
2631,8010901054490,新規,0,2024-01-16,2024-01-16,株式会社緑川服飾事務所,,株式会社,東京都,世田谷区,新町１丁目３６番９号,,13,112,1540014,,,,,,,2024-01-16,1,,,,,ミドリカワフクショクジムショ,0
2632,8010901054540,新規,0,2024-01-16,2024-01-16,ＧＦ１１株式会社,,株式会社,東京都,世田谷区,大蔵６丁目１４番１２号,,13,112,1570074,,,,,,,2024-01-16,1,,,,,ジーエフイレブン,0
2637,8011001159305,新規,0,2024-01-16,2024-01-16,株式会社八雲商会,,株式会社,東京都,目黒区,八雲５丁目１４番２８号オクダハウス３０１,,13,110,1520023,,,,,,,2024-01-16,1,,,,,ヤクモショウカイ,0
2638,8011001159321,新規,0,2024-01-16,2024-01-16,株式会社日日是好日,,株式会社,東京都,目黒区,東山１丁目２５番１号,,13,110,1530043,,,,,,,2024-01-16,1,,,,,ニチニチコレコウニチ,0
2644,8011101105778,新規,0,2024-01-16,2024-01-16,株式会社地学舎,,株式会社,東京都,新宿区,北新宿４丁目３５番２－１００１号,,13,104,1690074,,,,,,,2024-01-16,1,,,,,チガクシャ,0
2645,8011101105786,新規,0,2024-01-16,2024-01-16,株式会社ＷＯＲＬＤ,,株式会社,東京都,新宿区,西早稲田３丁目５－１３プレール早稲田１０３,,13,104,1690051,,,,,,,2024-01-16,1,,,,,ワールド,0
2646,8011101105803,新規,0,2024-01-16,2024-01-16,株式会社ＤＹＫ,,株式会社,東京都,新宿区,西新宿５丁目１０－４フロンティア１Ｆ,,13,104,1600023,,,,,,,2024-01-16,1,,,,,ディーワイケー,0
2649,8011103013962,新規,0,2024-01-16,2024-01-16,合同会社ＦＢＢＴ,,合同会社,東京都,新宿区,下落合３丁目２２番１４号,,13,104,1610033,,,,,,,2024-01-16,1,,,,,エフビービーティー,0
2650,8011201025158,新規,0,2024-01-16,2024-01-16,Ｆ＆Ｈ株式会社,,株式会社,東京都,中野区,弥生町４丁目１４－７荒木マンション１０２号,,13,114,1640013,,,,,,,2024-01-16,1,,,,,エフアンドエイチ,0
2653,8011603004206,新規,0,2024-01-16,2024-01-16,合同会社スタジオＥＥ,,合同会社,東京都,練馬区,西大泉１丁目３７番１３号第３光和Ａ－２,,13,120,1780065,,,,,,,2024-01-16,1,,,,,スタジオダブルイー,0
2658,8012401041424,新規,0,2024-01-16,2024-01-16,株式会社フェローズ,,株式会社,東京都,調布市,入間町１丁目２７‐１１７,,13,208,1820004,,,,,,,2024-01-16,1,,,,,フェローズ,0
2665,8012801022908,新規,0,2024-01-16,2024-01-16,株式会社ｍｙＢ,,株式会社,東京都,日野市,多摩平２丁目５番地の１－７０９,,13,212,1910062,,,,,,,2024-01-16,1,,,,,マイビー,0
2666,8012803003286,新規,0,2024-01-16,2024-01-16,合同会社カクタスプラス,,合同会社,東京都,立川市,錦町１丁目４番４号サニービル２階ＣＳ－１９４,,13,202,1900022,,,,,,,2024-01-16,1,,,,,カクタスプラス,0
2669,8013301051918,新規,0,2024-01-16,2024-01-16,Ｄｅｌｉｇｈｔ株式会社,,株式会社,東京都,豊島区,東池袋１丁目３４－５いちご東池袋ビル６階,,13,116,1700013,,,,,,,2024-01-16,1,,,,,ディライト,0
2676,8020001155263,新規,0,2024-01-16,2024-01-16,株式会社Ａｔｅｌｉｅｒ５０４,,株式会社,神奈川県,横浜市神奈川区,六角橋６丁目２７番７号エバーグリーンハイツ１０５,,14,102,2210802,,,,,,,2024-01-16,1,,,,,アトリエゴーゼロヨン,0
2677,8020001155305,新規,0,2024-01-16,2024-01-16,ＷｅＷｉｌｌ　Ｈｏｌｄｉｎｇｓ株式会社,,株式会社,神奈川県,横浜市中区,山下町２番地産業貿易センタービル９０５号室,,14,104,2310023,,,,,,,2024-01-16,1,,,,,ウイウィルホールディングス,0
2685,8021001081219,新規,0,2024-01-16,2024-01-16,アドバンス株式会社,,株式会社,神奈川県,平塚市,立野町１０番５号,,14,203,2540046,,,,,,,2024-01-16,1,,,,,アドバンス,0
2686,8021001081227,新規,0,2024-01-16,2024-01-16,株式会社Ｒｅ‐ｔｒｅｓ,,株式会社,神奈川県,海老名市,中新田２丁目２３番５－３０２号,,14,215,2430422,,,,,,,2024-01-16,1,,,,,リトレス,0
2688,8021005012987,新規,0,2024-01-16,2024-01-16,税理士法人シーガル,,その他の設立登記法人,神奈川県,茅ヶ崎市,新栄町７番５号ＣｈｉｇａｓａｋｉＢｉｚ－ｎａｚ３Ｆ,,14,207,2530044,,,,,,,2024-01-16,1,,,,,シーガル,0
2693,8030001158158,新規,0,2024-01-16,2024-01-16,株式会社ＭＣ,,株式会社,埼玉県,久喜市,鷲宮５丁目１３番２５号,,11,232,3400217,,,,,,,2024-01-16,1,,,,,エムシー,0
2694,8030001158174,新規,0,2024-01-16,2024-01-16,ＣＯＵＮＴＥＲ株式会社,,株式会社,埼玉県,越谷市,南越谷１丁目１５－１南越谷ラクーン４Ｆ,,11,222,3430845,,,,,,,2024-01-16,1,,,,,カウンター,0
2695,8030001158208,新規,0,2024-01-16,2024-01-16,株式会社ＭＯＴＯＳＴＲＯＬＥ,,株式会社,埼玉県,蓮田市,上１丁目５番１２号,,11,238,3490122,,,,,,,2024-01-16,1,,,,,モトストロール,0
2708,8040001131774,新規,0,2024-01-16,2024-01-16,株式会社羽ごこち,,株式会社,千葉県,柏市,柏１丁目４－２６第二藤川ビル６Ｆ,,12,217,2770005,,,,,,,2024-01-16,1,,,,,ハネゴコチ,0
2715,8050003008061,新規,0,2024-01-16,2024-01-16,合同会社ＴＨＲ,,合同会社,茨城県,水戸市,姫子１丁目１４３番地の１０プリモＴマンション２０２号,,08,201,3114151,,,,,,,2024-01-16,1,,,,,ティーエイチアール,0
2720,8060001036708,新規,0,2024-01-16,2024-01-16,株式会社新和,,株式会社,栃木県,小山市,東城南３丁目１３番３号ルパーレマンション１０２,,09,208,3230829,,,,,,,2024-01-16,1,,,,,シンワ,0
2721,8060001036740,新規,0,2024-01-16,2024-01-16,株式会社Ｌｅａｆ,,株式会社,栃木県,芳賀郡芳賀町,大字西水沼１８９３番地２,,09,345,3213324,,,,,,,2024-01-16,1,,,,,リーフ,0
2776,8110001038104,新規,0,2024-01-16,2024-01-16,株式会社ＲＧｉＳ,,株式会社,新潟県,上越市,春日新田３丁目７番２６号,,15,222,9420061,,,,,,,2024-01-16,1,,,,,アールジス,0
2777,8110003005259,新規,0,2024-01-16,2024-01-16,Ｓａｔｏｎｏｍｙ合同会社,,合同会社,新潟県,上越市,板倉区高野６０１,,15,222,9440142,,,,,,,2024-01-16,1,,,,,サトノミー,0
2790,8120001260805,新規,0,2024-01-16,2024-01-16,ＮＥＲＩＴＥＳ株式会社,,株式会社,大阪府,大阪市淀川区,宮原１丁目１９番２３号,,27,123,5320003,,,,,,,2024-01-16,1,,,,,ネリテス,0
2791,8120003025710,新規,0,2024-01-16,2024-01-16,合同会社メレフュージ,,合同会社,大阪府,大阪市北区,梅田１丁目１－３大阪駅前第３ビル２９階１－１－１号室,,27,127,5300001,,,,,,,2024-01-16,1,,,,,メレフュージ,0
2802,8120901048630,新規,0,2024-01-16,2024-01-16,株式会社Ｈｏｌｉｄａｙｓ,,株式会社,大阪府,高槻市,南松原町１番３９号,,27,207,5690085,,,,,,,2024-01-16,1,,,,,ホリデイズ,0
2809,8130001076102,新規,0,2024-01-16,2024-01-16,株式会社Ｓｃｏｔｃｈ＆Ｂｒａｎｃｈ,,株式会社,京都府,京都市中京区,御幸町通六角下る伊勢屋町３５４番地１伽羅ビル,,26,104,6048066,,,,,,,2024-01-16,1,,,,,スコッチアンドブランチ,0
2818,8140001132960,新規,0,2024-01-16,2024-01-16,株式会社モリコーポレーション,,株式会社,兵庫県,尼崎市,南武庫之荘７丁目６番１４号,,28,202,6610033,,,,,,,2024-01-16,1,,,,,モリコーポレーション,0
2819,8140001132977,新規,0,2024-01-16,2024-01-16,株式会社サンライク,,株式会社,兵庫県,尼崎市,東園田町３丁目３５番地の２５－２０２,,28,202,6610953,,,,,,,2024-01-16,1,,,,,サンライク,0
2847,8180001159744,新規,0,2024-01-16,2024-01-16,株式会社ＬＲＤ,,株式会社,愛知県,名古屋市東区,葵１丁目２７番１１号,,23,102,4610004,,,,,,,2024-01-16,1,,,,,エルアールディー,0
2872,8190001031035,新規,0,2024-01-16,2024-01-16,株式会社ＬＩＦＩＸ,,株式会社,三重県,桑名市,新西方５丁目９０番地,,24,205,5110863,,,,,,,2024-01-16,1,,,,,,0
2876,8200001042071,新規,0,2024-01-16,2024-01-16,佳慧株式会社,,株式会社,岐阜県,大垣市,林町８丁目１３４９番地の６アロア大垣２０２号室,,21,202,5030015,,,,,,,2024-01-16,1,,,,,カエイ,0
2896,8240003006491,新規,0,2024-01-16,2024-01-16,合同会社にしげ,,合同会社,広島県,世羅郡世羅町,大字青近２２４番地,,34,462,7293306,,,,,,,2024-01-16,1,,,,,ニシゲ,0
2903,8290001104318,新規,0,2024-01-16,2024-01-16,株式会社アリミス,,株式会社,福岡県,福岡市東区,馬出４丁目１番３８号,,40,131,8120054,,,,,,,2024-01-16,1,,,,,アリミス,0
2905,8290003014845,新規,0,2024-01-16,2024-01-16,合同会社バックパス,,合同会社,福岡県,福岡市博多区,住吉３丁目１－１９－９０５号グランドゥール住吉弐番館,,40,132,8120018,,,,,,,2024-01-16,1,,,,,,0
2906,8290003014861,新規,0,2024-01-16,2024-01-16,平和合同会社,,合同会社,福岡県,久留米市,善導寺町与田９１７番地,,40,203,8390823,,,,,,,2024-01-16,1,,,,,ヘイワ,0
2915,8350001018750,新規,0,2024-01-16,2024-01-16,株式会社Ｒａｙｓ,,株式会社,宮崎県,宮崎市,吾妻町１２３番地セントヒルズ宮崎６０６号,,45,201,8800864,,,,,,,2024-01-16,1,,,,,レイズ,0
2916,8370001050818,新規,0,2024-01-16,2024-01-16,Ｇレンタル株式会社,,株式会社,宮城県,黒川郡大和町,杜の丘１丁目１０番地の６,,04,421,9813628,,,,,,,2024-01-16,1,,,,,ジーレンタル,0
2919,8370003006446,新規,0,2024-01-16,2024-01-16,合同会社竹犬ノ傘,,合同会社,宮城県,仙台市宮城野区,大梶１０番９－５０２号室,,04,102,9830835,,,,,,,2024-01-16,1,,,,,タケイヌノカサ,0
2921,8380001034241,新規,0,2024-01-16,2024-01-16,赤間サッシ株式会社,,株式会社,福島県,福島市,笹谷字稲葉２９番地の１９,,07,201,9600241,,,,,,,2024-01-16,1,,,,,アカマサッシ,0
2923,8380003005661,新規,0,2024-01-16,2024-01-16,トータル・Ａ合同会社,,合同会社,福島県,郡山市,並木３丁目４番地の１サンデュエル並木３０９号,,07,203,9638026,,,,,,,2024-01-16,1,,,,,トータルエー,0
2940,8430001090873,新規,0,2024-01-16,2024-01-16,株式会社Ｈａｔｓｕｏｎ,,株式会社,北海道,札幌市中央区,南九条西２０丁目２－４５,,01,101,0640809,,,,,,,2024-01-16,1,,,,,ハツオン,0
2941,8430001090881,新規,0,2024-01-16,2024-01-16,Ｒｏａｄ　Ａｉｒ　Ｉｎｎｏｖａｔｉｏｎ株式会社,,株式会社,北海道,札幌市東区,東雁来町３７５－５０,,01,103,0070820,,,,,,,2024-01-16,1,,,,,ロードエアイノベーション,0
2969,8700150123349,新規,0,2024-01-16,2024-01-16,ＨＡＮ　ＬＡＮＫＡ　ＭＯＴＯＲＳ,,外国会社等,千葉県,山武郡横芝光町,鳥喰新田３６番地４－９,,12,410,2891739,スリランカ民主社会主義共和国、アクラナ、ブルゴハテンナ、３４２／Ｄ,,,,,,2024-01-16,1,,,,,ハンランカモータース,0
2984,9010001241484,新規,0,2024-01-16,2024-01-16,株式会社イエロー,,株式会社,東京都,中央区,銀座７丁目１３番２０号,,13,102,1040061,,,,,,,2024-01-16,1,,,,,イエロー,0
2985,9010001241492,新規,0,2024-01-16,2024-01-16,株式会社弘智,,株式会社,東京都,千代田区,紀尾井町４番１号ニューオータニガーデンコート２８階,,13,101,1020094,,,,,,,2024-01-16,1,,,,,コウチ,0
2986,9010001241518,新規,0,2024-01-16,2024-01-16,ＭＱ　Ｈｏｌｄｉｎｇｓ株式会社,,株式会社,東京都,中央区,銀座４丁目１３番８号岩藤ビル５階,,13,102,1040061,,,,,,,2024-01-16,1,,,,,エムキューホールディングス,0
2988,9010003042658,新規,0,2024-01-16,2024-01-16,合同会社月花舎,,合同会社,東京都,千代田区,神田神保町３丁目５番地,,13,101,1010051,,,,,,,2024-01-16,1,,,,,ゲッカシャ,0
2997,9010401179746,新規,0,2024-01-16,2024-01-16,株式会社ＴＯＮＯ,,株式会社,東京都,港区,赤坂３丁目１１番７号ソシアル赤坂ビル６階,,13,103,1070052,,,,,,,2024-01-16,1,,,,,トノ,0
2998,9010401179779,新規,0,2024-01-16,2024-01-16,株式会社Ｏｒｂｉｔａｌ　Ｌａｓｅｒｓ,,株式会社,東京都,港区,赤坂１丁目８番１号,,13,103,1070052,,,,,,,2024-01-16,1,,,,,オービタルレーザーズ,0
2999,9010403031698,新規,0,2024-01-16,2024-01-16,オーディケア合同会社,,合同会社,東京都,港区,浜松町２丁目２番１５号浜松町ダイヤビル２Ｆ,,13,103,1050013,,,,,,,2024-01-16,1,,,,,オーディケア,0
3000,9010405022836,新規,0,2024-01-16,2024-01-16,一般社団法人ＩｍｐａｃｔＳｈａｒｅ,,その他の設立登記法人,東京都,港区,南青山３丁目１番３６号青山丸竹ビル６Ｆ,,13,103,1070062,,,,,,,2024-01-16,1,,,,,インパクトシェア,0
3002,9010501051607,新規,0,2024-01-16,2024-01-16,Ｆｏｒｃｅ株式会社,,株式会社,東京都,台東区,北上野１丁目１－１４コスモ上野ロイヤルフォルム５０２,,13,106,1100014,,,,,,,2024-01-16,1,,,,,フォース,0
3007,9010701045400,新規,0,2024-01-16,2024-01-16,株式会社ＬＩＴ,,株式会社,東京都,品川区,西五反田１丁目２６番２号五反田サンハイツ９１１,,13,109,1410031,,,,,,,2024-01-16,1,,,,,リット,0
3010,9010801034699,新規,0,2024-01-16,2024-01-16,株式会社ネガティブスプリット,,株式会社,東京都,大田区,西蒲田６丁目１６番３号,,13,111,1440051,,,,,,,2024-01-16,1,,,,,ネガティブスプリット,0
3014,9011001159304,新規,0,2024-01-16,2024-01-16,ＪＡＰＡ株式会社,,株式会社,東京都,渋谷区,神宮前６丁目２３番４号桑野ビル２階,,13,113,1500001,,,,,,,2024-01-16,1,,,,,ジャパ,0
3015,9011001159337,新規,0,2024-01-16,2024-01-16,株式会社ＭＩＹＡＢＩ,,株式会社,東京都,渋谷区,道玄坂１丁目１０番８号渋谷道玄坂東急ビル２Ｆ－Ｃ,,13,113,1500043,,,,,,,2024-01-16,1,,,,,ミヤビ,0
3016,9011003018210,新規,0,2024-01-16,2024-01-16,合同会社ｆｉｒｓｔ,,合同会社,東京都,渋谷区,幡ヶ谷２丁目１６番１７号シャトレーキムラ１０２,,13,113,1510072,,,,,,,2024-01-16,1,,,,,ファースト,0
3018,9011101105802,新規,0,2024-01-16,2024-01-16,優家株式会社,,株式会社,東京都,新宿区,高田馬場４丁目１８－９ハイシティー高田馬場２０１号室,,13,104,1690075,,,,,,,2024-01-16,1,,,,,ユウヤ,0
3019,9011101105810,新規,0,2024-01-16,2024-01-16,株式会社ＤＡＢＢＳＯＮ　ＪＡＰＡＮ,,株式会社,東京都,新宿区,百人町２丁目２２番１６－３０２号,,13,104,1690073,,,,,,,2024-01-16,1,,,,,ダブソンジャパン,0
3029,9011603004205,新規,0,2024-01-16,2024-01-16,合同会社ｒｉｎ,,合同会社,東京都,練馬区,田柄１丁目４番１２号,,13,120,1790073,,,,,,,2024-01-16,1,,,,,リン,0
3030,9011605002561,新規,0,2024-01-16,2024-01-16,一般社団法人矢島ファミリートラスト,,その他の設立登記法人,東京都,練馬区,豊玉北２丁目２０番７号,,13,120,1760012,,,,,,,2024-01-16,1,,,,,ヤジマファミリートラスト,0
3041,9020001155139,新規,0,2024-01-16,2024-01-16,株式会社ＪＮＢ,,株式会社,神奈川県,横浜市泉区,新橋町７３４番地３８,,14,116,2450009,,,,,,,2024-01-16,1,,,,,ジェイエヌビー,0
3042,9020001155279,新規,0,2024-01-16,2024-01-16,株式会社湾岸物流,,株式会社,神奈川県,川崎市川崎区,観音２丁目２１番３－２０１号,,14,131,2100831,,,,,,,2024-01-16,1,,,,,ワンガンブツリュウ,0
3043,9020001155320,新規,0,2024-01-16,2024-01-16,株式会社森本,,株式会社,神奈川県,川崎市川崎区,元木２丁目５番１９号,,14,131,2100021,,,,,,,2024-01-16,1,,,,,モリモト,0
3048,9020003025356,新規,0,2024-01-16,2024-01-16,ＯＣＥＡＮＳ８合同会社,,合同会社,神奈川県,横浜市西区,みなとみらい６丁目３番４－１９０６号,,14,103,2200012,,,,,,,2024-01-16,1,,,,,オーシャンズエイト,0
3051,9021001081201,新規,0,2024-01-16,2024-01-16,株式会社ＬＥＡＰＥＸ,,株式会社,神奈川県,藤沢市,辻堂元町４丁目１６－３６,,14,205,2510043,,,,,,,2024-01-16,1,,,,,リーペックス,0
3052,9021001081218,新規,0,2024-01-16,2024-01-16,三浜企画株式会社,,株式会社,神奈川県,横須賀市,野比１丁目１０番６号,,14,201,2390841,,,,,,,2024-01-16,1,,,,,ミツハマキカク,0
3054,9030001158165,新規,0,2024-01-16,2024-01-16,株式会社ｎｉｇｍａ,,株式会社,埼玉県,さいたま市大宮区,仲町１丁目４１番地１フジビル４階,,11,103,3300845,,,,,,,2024-01-16,1,,,,,ニグマ,0
3070,9040003024091,新規,0,2024-01-16,2024-01-16,合同会社安太郎,,合同会社,千葉県,船橋市,前原東３丁目３１番８号,,12,204,2740824,,,,,,,2024-01-16,1,,,,,ヤスタロウ,0
3071,9040003024100,新規,0,2024-01-16,2024-01-16,ＴＯＬＥＸ合同会社,,合同会社,千葉県,船橋市,高根町２８５１番地１,,12,204,2740817,,,,,,,2024-01-16,1,,,,,トレックス,0
3072,9040003024117,新規,0,2024-01-16,2024-01-16,合同会社ウマルトレーディング,,合同会社,千葉県,東金市,東金１４８１番地１クワイエット東金２０２,,12,213,2830802,,,,,,,2024-01-16,1,,,,,ウマルトレーディング,0
3131,9110001038103,新規,0,2024-01-16,2024-01-16,リノベハウス上越株式会社,,株式会社,新潟県,上越市,大字富岡２２５０番地１,,15,222,9430173,,,,,,,2024-01-16,1,,,,,リノベハウスジョウエツ,0
3132,9110003005258,新規,0,2024-01-16,2024-01-16,合同会社ビジネスファスト,,合同会社,新潟県,新潟市中央区,南出来島１丁目１０番１８号６,,15,103,9500963,,,,,,,2024-01-16,1,,,,,ビジネスファスト,0
3140,9120001261216,新規,0,2024-01-16,2024-01-16,ＳＴＡＲ　ＮＥＴ株式会社,,株式会社,大阪府,大阪市浪速区,下寺２丁目７－２－４０１室,,27,111,5560001,,,,,,,2024-01-16,1,,,,,スターネット,0
3141,9120001261323,新規,0,2024-01-16,2024-01-16,オニック株式会社,,株式会社,大阪府,大阪市北区,大淀中２丁目４番２４－１３０６号,,27,127,5310076,,,,,,,2024-01-16,1,,,,,オニック,0
3142,9120001261348,新規,0,2024-01-16,2024-01-16,株式会社ＳＫＹクリエイト,,株式会社,大阪府,交野市,南星台５丁目６番２１号,,27,230,5760013,,,,,,,2024-01-16,1,,,,,スカイクリエイト,0
3143,9120001261372,新規,0,2024-01-16,2024-01-16,ａｒｕ　ｄｅｓｉｇｎ株式会社,,株式会社,大阪府,大阪市西区,南堀江１丁目１６番２３号ＭＩＲＡＢＥＬＬＮＯＲＴＨ５０１,,27,106,5500015,,,,,,,2024-01-16,1,,,,,アルデザイン,0
3149,9120003025635,新規,0,2024-01-16,2024-01-16,合同会社Ｓｏｌａ,,合同会社,大阪府,大阪市平野区,長吉六反３丁目１４－２７,,27,126,5470012,,,,,,,2024-01-16,1,,,,,ソラ,0
3150,9120003025692,新規,0,2024-01-16,2024-01-16,合同会社ＨＩＲＡＫＡＷＡ,,合同会社,大阪府,大阪市港区,港晴４丁目９番７号,,27,107,5520023,,,,,,,2024-01-16,1,,,,,ヒラカワ,0
3155,9120101068874,新規,0,2024-01-16,2024-01-16,株式会社１ｓｔ,,株式会社,大阪府,堺市中区,深井沢町３２８２番地,,27,142,5998236,,,,,,,2024-01-16,1,,,,,ファースト,0
3156,9120101068882,新規,0,2024-01-16,2024-01-16,ＪＣＴＷ株式会社,,株式会社,大阪府,泉佐野市,長滝９１１番地の１,,27,213,5980034,,,,,,,2024-01-16,1,,,,,ジェイシーティーダブリュ,0
3158,9120903004993,新規,0,2024-01-16,2024-01-16,合同会社クレイン,,合同会社,大阪府,吹田市,江坂町２丁目１番３５－１２０６号,,27,205,5640063,,,,,,,2024-01-16,1,,,,,クレイン,0
3160,9122001037736,新規,0,2024-01-16,2024-01-16,株式会社ｉＱｕｅｓｔ,,株式会社,大阪府,四條畷市,南野６丁目９番２９号,,27,229,5750021,,,,,,,2024-01-16,1,,,,,アイクエスト,0
3166,9130001076142,新規,0,2024-01-16,2024-01-16,株式会社ｎｅｅｄｓ　ｗｉｄｅ,,株式会社,京都府,京都市西京区,大枝西新林町２丁目２番地１６棟２０１号室,,26,111,6101141,,,,,,,2024-01-16,1,,,,,ニーズワイド,0
3168,9140001132976,新規,0,2024-01-16,2024-01-16,株式会社ｓａｐｐｈｉｒｕｓ,,株式会社,兵庫県,尼崎市,塚口本町３丁目２７番２号２Ｆ,,28,202,6610001,,,,,,,2024-01-16,1,,,,,サッピールス,0
3169,9140001132992,新規,0,2024-01-16,2024-01-16,株式会社ｉｒｏｄｏｒｉ,,株式会社,兵庫県,尼崎市,富松町３丁目２０番９号,,28,202,6610003,,,,,,,2024-01-16,1,,,,,イロドリ,0
3172,9140003020048,新規,0,2024-01-16,2024-01-16,合同会社ｎ．,,合同会社,兵庫県,神戸市長田区,池田広町１７番地の３,,28,106,6530814,,,,,,,2024-01-16,1,,,,,エヌドット,0
3175,9150003003167,新規,0,2024-01-16,2024-01-16,合同会社あいむふぁっと,,合同会社,奈良県,北葛城郡広陵町,馬見中２丁目６－６,,29,426,6350832,,,,,,,2024-01-16,1,,,,,アイムファット,0
3220,9180003026215,新規,0,2024-01-16,2024-01-16,ＨＰ８６合同会社,,合同会社,愛知県,あま市,七宝町鯰橋８丁目１５番地１,,23,237,4970015,,,,,,,2024-01-16,1,,,,,エイチピタムサウ,0
3238,9190001031026,新規,0,2024-01-16,2024-01-16,ｉｒｕ株式会社,,株式会社,三重県,亀山市,みどり町２２番地１,,24,210,5190106,,,,,,,2024-01-16,1,,,,,イル,0
3239,9190001031034,新規,0,2024-01-16,2024-01-16,株式会社田端電工,,株式会社,三重県,多気郡明和町,大字佐田９３４番地２０,,24,442,5150331,,,,,,,2024-01-16,1,,,,,タバタデンコウ,0
3253,9220001025775,新規,0,2024-01-16,2024-01-16,株式会社凪紗,,株式会社,石川県,小松市,義仲町２番地,,17,203,9230998,,,,,,,2024-01-16,1,,,,,ナギサ,0
3257,9270005005570,新規,0,2024-01-16,2024-01-16,一般社団法人Ｃｈｅｅｒｆｕｌｌｙ,,その他の設立登記法人,鳥取県,米子市,車尾２丁目２番２５号,,31,202,6830006,,,,,,,2024-01-16,1,,,,,チアフリー,0
3261,9290001104325,新規,0,2024-01-16,2024-01-16,Ｍ・ボックス株式会社,,株式会社,福岡県,福岡市博多区,博多駅前４丁目３３番７－１２０４号,,40,132,8120011,,,,,,,2024-01-16,1,,,,,エムボックス,0
3262,9290001104358,新規,0,2024-01-16,2024-01-16,株式会社バーチャルシティアイランド,,株式会社,福岡県,福岡市南区,向新町１丁目８番４９号ダイアパレスグランデージ大橋南八番館３０４,,40,134,8111345,,,,,,,2024-01-16,1,,,,,バーチャルシティアイランド,0
3263,9290001104374,新規,0,2024-01-16,2024-01-16,株式会社あとむ,,株式会社,福岡県,久留米市,野中町１５１９番地９アルファスマート西国分ＩＩ－８０７号,00133367,40,203,8390862,,,,,,,2024-01-16,1,,,,,アトム,0
3264,9290003014836,新規,0,2024-01-16,2024-01-16,合同会社マイショップ,,合同会社,福岡県,大牟田市,通町１丁目７番地３,,40,202,8360805,,,,,,,2024-01-16,1,,,,,マイショップ,0
3270,9330001031647,新規,0,2024-01-16,2024-01-16,株式会社Ｓｌｏｔｈ,,株式会社,熊本県,宇城市,松橋町曲野３１６５番地１アイアンフラットＩＩＩ２０１,00133368,43,213,8690511,,,,,,,2024-01-16,1,,,,,スロース,0
3272,9330003010161,新規,0,2024-01-16,2024-01-16,ルビーアカウンティングサービス合同会社,,合同会社,熊本県,熊本市南区,元三町１丁目１番５５号,,43,104,8614105,,,,,,,2024-01-16,1,,,,,ルビーアカウンティングサービス,0
3279,9360001033070,新規,0,2024-01-16,2024-01-16,株式会社ＴＳＳ沖縄,,株式会社,沖縄県,島尻郡南風原町,字与那覇１２４番地,,47,350,9011103,,,,,,,2024-01-16,1,,,,,ティーエスエスオキナワ,0
3280,9360003013616,新規,0,2024-01-16,2024-01-16,合同会社アイランドガーデン,,合同会社,沖縄県,石垣市,美崎町７番地７,,47,207,9070012,,,,,,,2024-01-16,1,,,,,アイランドガーデン,0
3283,9370001050825,新規,0,2024-01-16,2024-01-16,株式会社ＡＲＮＥＯ,,株式会社,宮城県,仙台市宮城野区,中野５丁目４番３１号リシェス港２０２,,04,102,9830013,,,,,,,2024-01-16,1,,,,,アルネオ,0
3295,9420001018552,新規,0,2024-01-16,2024-01-16,株式会社オオサトケンチク,,株式会社,青森県,青森市,浪岡大字女鹿沢字平野５番地１２,,02,201,0381331,,,,,,,2024-01-16,1,,,,,オオサトケンチク,0
3299,9430001090872,新規,0,2024-01-16,2024-01-16,株式会社はるつばめ,,株式会社,北海道,札幌市南区,藤野三条４丁目９－８,,01,106,0612283,,,,,,,2024-01-16,1,,,,,ハルツバメ,0
3303,9460101007484,新規,0,2024-01-16,2024-01-16,株式会社Ｄｅｓｉｇｎ　Ｓｅｒｖｉｃｅ,,株式会社,北海道,帯広市,西十九条南３７丁目１‐７,,01,207,0800029,,,,,,,2024-01-16,1,,,,,デザインサービス,0
3307,9470001019983,新規,0,2024-01-16,2024-01-16,四国振興株式会社,,株式会社,香川県,さぬき市,大川町富田東１１５４番地１,,37,206,7610903,,,,,,,2024-01-16,1,,,,,シコクシンコウ,0
3311,9500001025400,新規,0,2024-01-16,2024-01-16,株式会社邁進ホールディングス,,株式会社,愛媛県,新居浜市,中村３丁目７番４６号,,38,205,7920044,,,,,,,2024-01-16,1,,,,,,0
3321,9500003003172,新規,0,2024-01-16,2024-01-16,合同会社天翔,,合同会社,愛媛県,松山市,小坂４丁目６番４２号５０１号,,38,201,7900963,,,,,,,2024-01-16,1,,,,,テンショウ,0
