sequenceNumber,corporateNumber,process,correct,updateDate,changeDate,name,nameImageId,kind,prefectureName,cityName,streetNumber,addressImageId,prefectureCode,cityCode,postCode,addressOutside,addressOutsideImageId,closeDate,closeCause,successorCorporateNumber,changeCause,assignmentDate,latest,enName,enPrefectureName,enCityName,enAddressOutside,furigana,hihyoji
11,1010001222855,新規,0,2021-12-01,2021-12-01,株式会社快適空間,,株式会社,東京都,中央区,銀座１丁目１２番４号Ｎ＆ＥＢＬＤ．７階,,13,102,1040061,,,,,,,2021-12-01,1,,,,,カイテキクウカン,0
12,1010001222896,新規,0,2021-12-01,2021-12-01,株式会社プレアデスコンサルタント,,株式会社,東京都,中央区,日本橋小網町１２番７号,,13,102,1030016,,,,,,,2021-12-01,1,,,,,,0
17,1010005034272,新規,0,2021-12-01,2021-12-01,ＲＢソーラーシリウスホールディングス一般社団法人,,その他の設立登記法人,東京都,中央区,八丁堀４丁目２番１０号ＡＯＪ税理士法人内,,13,102,1040032,,,,,,,2021-12-01,1,,,,,アールビーソーラーシリウスホールディングス,0
18,1010103001819,新規,0,2021-12-01,2021-12-01,合同会社Ｍｉｎ．ｌａｋｅ,,合同会社,東京都,八王子市,小宮町１１９４番地１６号,,13,201,1920031,,,,,,,2021-12-01,1,,,,,ミンレイク,0
29,1010603009279,新規,0,2021-12-01,2021-12-01,合同会社サード,,合同会社,東京都,墨田区,両国３丁目１９番５－９０２号シュタム両国ビル,,13,107,1300026,,,,,,,2021-12-01,1,,,,,サード,0
68,1012305001984,新規,0,2021-12-01,2021-12-01,特定非営利活動法人玉川学園地区まちづくりの会,,その他の設立登記法人,東京都,町田市,玉川学園４丁目４番１９号気付木村,,13,209,1940041,,,,,,,2021-12-01,1,,,,,タマガワガクエンチクマチヅクリノカイ,0
75,1013303005928,新規,0,2021-12-01,2021-12-01,合同会社ビーコン,,合同会社,東京都,豊島区,目白４丁目３１番２２号Ｂ１,,13,116,1710031,,,,,,,2021-12-01,1,,,,,ビーコン,0
78,1020001144124,新規,0,2021-12-01,2021-12-01,株式会社アール・ワン,,株式会社,神奈川県,横浜市神奈川区,神大寺２丁目５番３－１１３号,,14,102,2210801,,,,,,,2021-12-01,1,,,,,アールワン,0
81,1021001074617,新規,0,2021-12-01,2021-12-01,株式会社モアナ,,株式会社,神奈川県,藤沢市,石川１３４番地３－３０１,,14,205,2520815,,,,,,,2021-12-01,1,,,,,モアナ,0
90,1030001145476,新規,0,2021-12-01,2021-12-01,株式会社上野建装,,株式会社,埼玉県,川口市,安行出羽５丁目５番１号Ａ２０５,,11,203,3340052,,,,,,,2021-12-01,1,,,,,ウエノケンソウ,0
91,1030001145591,新規,0,2021-12-01,2021-12-01,Ｒｅｆｉｎｅ株式会社,,株式会社,埼玉県,さいたま市見沼区,東大宮４丁目６５番地１２,,11,104,3370051,,,,,,,2021-12-01,1,,,,,リファイン,0
101,1030003018416,新規,0,2021-12-01,2021-12-01,ＹＡＤ合同会社,,合同会社,埼玉県,さいたま市緑区,道祖土２丁目２３番８号,,11,109,3360907,,,,,,,2021-12-01,1,,,,,ヤド,0
111,1040001121187,新規,0,2021-12-01,2021-12-01,Ｊａｐａｎ　Ｍｏｔｏｒｓ株式会社,,株式会社,千葉県,柏市,泉町６番５５号,,12,217,2770022,,,,,,,2021-12-01,1,,,,,ジャパンモーターズ,0
112,1040001121204,新規,0,2021-12-01,2021-12-01,株式会社グッドネス,,株式会社,千葉県,船橋市,上山町１丁目２２０－８－２０２,,12,204,2730046,,,,,,,2021-12-01,1,,,,,グッドネス,0
114,1040003019033,新規,0,2021-12-01,2021-12-01,合同会社ＰｅａｃｈＳｕｍｍｅｒ,,合同会社,千葉県,船橋市,薬円台２丁目１７番１７号,,12,204,2740077,,,,,,,2021-12-01,1,,,,,,0
119,1050001050229,新規,0,2021-12-01,2021-12-01,株式会社ｔｒａｃｅ,,株式会社,茨城県,水戸市,河和田２丁目２２１１番地１,,08,201,3114152,,,,,,,2021-12-01,1,,,,,トレース,0
122,1060003003885,新規,0,2021-12-01,2021-12-01,井上合同会社,,合同会社,栃木県,宇都宮市,長岡町８５６番地８０,,09,201,3200004,,,,,,,2021-12-01,1,,,,,イノウエ,0
136,1110001036221,新規,0,2021-12-01,2021-12-01,ＭＯＢ　ＳＴＹＬＥ株式会社,,株式会社,新潟県,小千谷市,城内１丁目６番９号,,15,208,9470028,,,,,,,2021-12-01,1,,,,,モブスタイル,0
152,1120001242124,新規,0,2021-12-01,2021-12-01,株式会社サクラクレパスホールディングス,,株式会社,大阪府,大阪市東成区,中道１丁目１０番１７号,,27,115,5370025,,,,,,,2021-12-01,1,,,,,サクラクレパスホールディングス,0
153,1120001242157,新規,0,2021-12-01,2021-12-01,株式会社中山不動産,,株式会社,大阪府,大阪市西区,阿波座１丁目３番１８号エッグビル本町１００１号室,,27,106,5500011,,,,,,,2021-12-01,1,,,,,ナカヤマフドウサン,0
155,1120003020676,新規,0,2021-12-01,2021-12-01,合同会社サバコ,,合同会社,大阪府,大阪市中央区,内本町１丁目２番１３号谷四ばんらいビル,,27,128,5400026,,,,,,,2021-12-01,1,,,,,サバコ,0
156,1120003020684,新規,0,2021-12-01,2021-12-01,合同会社中野さんとこ,,合同会社,大阪府,大阪市北区,中崎３丁目３番６号,,27,127,5300016,,,,,,,2021-12-01,1,,,,,ナカノサントコ,0
157,1120105009485,新規,0,2021-12-01,2021-12-01,一般社団法人Ｒｅｓｔ,,その他の設立登記法人,大阪府,堺市南区,御池台１丁２４番３号,,27,145,5900134,,,,,,,2021-12-01,1,,,,,レスト,0
159,1120901045287,新規,0,2021-12-01,2021-12-01,株式会社ＭＩＫ,,株式会社,大阪府,豊中市,新千里南町２丁目１２－７,,27,203,5600084,,,,,,,2021-12-01,1,,,,,エムアイケー,0
179,1150001025138,新規,0,2021-12-01,2021-12-01,株式会社ボンビット,,株式会社,奈良県,生駒市,真弓２丁目７番６号,,29,209,6300122,,,,,,,2021-12-01,1,,,,,ボンビット,0
190,1160005011018,新規,0,2021-12-01,2021-12-01,一般社団法人和泉学園,,その他の設立登記法人,滋賀県,野洲市,行畑２丁目１８番１０号,,25,210,5202341,,,,,,,2021-12-01,1,,,,,イズミガクエン,0
203,1180301035676,新規,0,2021-12-01,2021-12-01,株式会社ＢＣＮ,,株式会社,愛知県,刈谷市,若松町３丁目９番地ＹＦ・ＢＬＤＧ３階,,23,210,4480858,,,,,,,2021-12-01,1,,,,,ビーシーエヌ,0
204,1180305009271,新規,0,2021-12-01,2021-12-01,一般社団法人きのこ,,その他の設立登記法人,愛知県,安城市,高棚町井荒井２０２番地１,,23,212,4460053,,,,,,,2021-12-01,1,,,,,キノコ,0
206,1200001039470,新規,0,2021-12-01,2021-12-01,インフィニティーグループ株式会社,,株式会社,岐阜県,中津川市,茄子川１５９５番地の３,,21,206,5099132,,,,,,,2021-12-01,1,,,,,インフィニティーグループ,0
224,1290001095588,新規,0,2021-12-01,2021-12-01,株式会社ふくせん,,株式会社,福岡県,福岡市南区,筑紫丘１丁目２３番９―９０５号,,40,134,8150036,,,,,,,2021-12-01,1,,,,,フクセン,0
225,1290001095596,新規,0,2021-12-01,2021-12-01,株式会社リンケージ,,株式会社,福岡県,福岡市中央区,渡辺通５丁目９－２　２０６号,,40,133,8100004,,,,,,,2021-12-01,1,,,,,リンケージ,0
226,1290005018438,新規,0,2021-12-01,2021-12-01,特定非営利活動法人ＥＮＧＡＷＡ　Ｐｒｏｊｅｃｔ,,その他の設立登記法人,福岡県,糸島市,前原西４丁目６番２２号２階,,40,230,8191117,,,,,,,2021-12-01,1,,,,,エンガワプロジェクト,0
231,1310003004222,新規,0,2021-12-01,2021-12-01,合同会社ジモビジョン,,合同会社,長崎県,諫早市,貝津町６０１番地１３,,42,204,8540063,,,,,,,2021-12-01,1,,,,,ジモビジョン,0
252,1370001047886,新規,0,2021-12-01,2021-12-01,株式会社アイ・モビリティー,,株式会社,宮城県,石巻市,湊町３丁目１番４号,,04,202,9860025,,,,,,,2021-12-01,1,,,,,アイモビリティー,0
253,1370003005495,新規,0,2021-12-01,2021-12-01,合同会社ＴＳエンターテインメント,,合同会社,宮城県,仙台市青葉区,一番町１丁目６番２２号８０４,,04,101,9800811,,,,,,,2021-12-01,1,,,,,ティーエスエンターテインメント,0
265,1430001085467,新規,0,2021-12-01,2021-12-01,株式会社ＴＨＥ　ＳＯＵ,,株式会社,北海道,北広島市,稲穂町東１丁目５番地１,,01,234,0611125,,,,,,,2021-12-01,1,,,,,ザソウ,0
299,2010001222870,新規,0,2021-12-01,2021-12-01,啓源顧問株式会社,,株式会社,東京都,千代田区,六番町１５番２号,,13,101,1020085,,,,,,,2021-12-01,1,,,,,ケイゲンコモン,0
301,2010001222887,新規,0,2021-12-01,2021-12-01,株式会社スタジオ２０５プラス,,株式会社,東京都,千代田区,飯田橋４丁目９番１０号,,13,101,1020072,,,,,,,2021-12-01,1,,,,,スタジオニイマルゴプラス,0
302,2010001222929,新規,0,2021-12-01,2021-12-01,エナーストーンテクノロジー株式会社,,株式会社,東京都,中央区,日本橋蛎殻町１丁目１２番７号,,13,102,1030014,,,,,,,2021-12-01,1,,,,,エナーストーンテクノロジー,0
305,2010005034271,新規,0,2021-12-01,2021-12-01,ＲＢソーラーリゲルホールディングス一般社団法人,,その他の設立登記法人,東京都,中央区,八丁堀４丁目２番１０号ＡＯＪ税理士法人内,,13,102,1040032,,,,,,,2021-12-01,1,,,,,アールビーソーラーリゲルホールディングス,0
310,2010401164127,新規,0,2021-12-01,2021-12-01,株式会社ＨＡＰＰＩＮＥＳＳ,,株式会社,東京都,港区,北青山２丁目７番２０号猪瀬ビル２階,,13,103,1070061,,,,,,,2021-12-01,1,,,,,ハピネス,0
311,2010401164143,新規,0,2021-12-01,2021-12-01,株式会社Ｒｅｄｔｅａｍ－ｓｉｘ,,株式会社,東京都,港区,新橋５丁目１２番１１号天翔新橋５丁目８０４号,,13,103,1050004,,,,,,,2021-12-01,1,,,,,レッドチームシックス,0
312,2010405020482,新規,0,2021-12-01,2021-12-01,一般財団法人柳井ファミリー財団,,その他の設立登記法人,東京都,港区,赤坂９丁目７番１号ミッドタウン・タワー,,13,103,1070052,,,,,,,2021-12-01,1,,,,,ヤナイファミリーザイダン,0
319,2010603009278,新規,0,2021-12-01,2021-12-01,ヤネフェス合同会社,,合同会社,東京都,江東区,北砂５丁目１９－３１－６０３,,13,108,1360073,,,,,,,2021-12-01,1,,,,,ヤネフェス,0
326,2010901049901,新規,0,2021-12-01,2021-12-01,株式会社Ｓｕ,,株式会社,東京都,世田谷区,野沢１丁目３５番１２―８０３,,13,112,1540003,,,,,,,2021-12-01,1,,,,,スー,0
328,2011001144196,新規,0,2021-12-01,2021-12-01,株式会社Ｕ－ｔｕｒｎ,,株式会社,東京都,渋谷区,道玄坂１丁目１５番１４号ＳＴ渋谷ビル３Ｆ,,13,113,1500043,,,,,,,2021-12-01,1,,,,,ユーターン,0
329,2011001144312,新規,0,2021-12-01,2021-12-01,株式会社ｅｉｇｈｔ,,株式会社,東京都,目黒区,青葉台４丁目７番３号,,13,110,1530042,,,,,,,2021-12-01,1,,,,,エイト,0
331,2011003013746,新規,0,2021-12-01,2021-12-01,合同会社ＷＯＳ,,合同会社,東京都,目黒区,上目黒１丁目１６番１２号,,13,110,1530051,,,,,,,2021-12-01,1,,,,,ウォス,0
334,2011005009321,新規,0,2021-12-01,2021-12-01,一般社団法人Ａｃｔ　ＵＰ,,その他の設立登記法人,東京都,渋谷区,円山町２３番１３号エムアイビル１０１,,13,113,1500044,,,,,,,2021-12-01,1,,,,,アクトアップ,0
348,2011701024870,新規,0,2021-12-01,2021-12-01,株式会社ＳＴＡＲＫＳ　ｐｒｏｄｕｃｔｉｏｎ,,株式会社,東京都,江戸川区,小松川１丁目２番地３号コーシャタワー小松川２２０３号室,,13,123,1320034,,,,,,,2021-12-01,1,,,,,スタークスプロダクション,0
351,2012701016800,新規,0,2021-12-01,2021-12-01,木村設備株式会社,,株式会社,東京都,東村山市,恩多町１丁目２９番地８,,13,213,1890011,,,,,,,2021-12-01,1,,,,,キムラセツビ,0
360,2020001144115,新規,0,2021-12-01,2021-12-01,株式会社ＷｉｎｄＨｏｌｅ,,株式会社,神奈川県,横浜市中区,扇町２丁目５番１４号,,14,104,2310027,,,,,,,2021-12-01,1,,,,,ウィンドホール,0
361,2020001144131,新規,0,2021-12-01,2021-12-01,株式会社ルピナス,,株式会社,神奈川県,横浜市鶴見区,下野谷町２丁目７８番地７プランソレイユ３０２,,14,101,2300047,,,,,,,2021-12-01,1,,,,,ルピナス,0
365,2020005015287,新規,0,2021-12-01,2021-12-01,医療法人社団仁玄会,,その他の設立登記法人,神奈川県,横浜市青葉区,美しが丘５丁目１番地４９すみれビル２階,,14,117,2250002,,,,,,,2021-12-01,1,,,,,ジンゲンカイ,0
379,2030001145608,新規,0,2021-12-01,2021-12-01,株式会社朝日興業,,株式会社,埼玉県,草加市,両新田東町１１８番地１－２０１号,,11,221,3400026,,,,,,,2021-12-01,1,,,,,,0
398,2040003019032,新規,0,2021-12-01,2021-12-01,合同会社ＫＡＺＵＳＡ　ＢＡＳＥ,,合同会社,千葉県,流山市,おおたかの森北１丁目４番地の１ソライエグラン流山おおたかの森８１５号室,,12,220,2700119,,,,,,,2021-12-01,1,,,,,カズサベース,0
413,2090001017297,新規,0,2021-12-01,2021-12-01,株式会社新イーグル,,株式会社,山梨県,甲斐市,大下条４５０－１,,19,210,4000126,,,,,,,2021-12-01,1,,,,,シンイーグル,0
425,2120001242131,新規,0,2021-12-01,2021-12-01,株式会社隆輝,,株式会社,大阪府,門真市,柳田町５番２４号フレグランス白鳩３０４,,27,223,5710038,,,,,,,2021-12-01,1,,,,,リュウキ,0
426,2120001242156,新規,0,2021-12-01,2021-12-01,株式会社未来,,株式会社,大阪府,大阪市西成区,玉出西２丁目１３番２７号,,27,122,5570045,,,,,,,2021-12-01,1,,,,,ミライ,0
428,2120005022629,新規,0,2021-12-01,2021-12-01,一般社団法人全日本占いカレッジ協会,,その他の設立登記法人,大阪府,大阪市中央区,南船場４丁目１０番５号南船場ＳＯＨＯビル７０２,,27,128,5420081,,,,,,,2021-12-01,1,,,,,ゼンニッポンウラナイカレッジキョウカイ,0
429,2120005022637,新規,0,2021-12-01,2021-12-01,ＮＰＯ法人トントゥとミミの山,,その他の設立登記法人,大阪府,大阪市西区,京町堀１丁目４番２２号肥後橋プラザビル１０階,,27,106,5500003,,,,,,,2021-12-01,1,,,,,トントゥトミミノヤマ,0
432,2120901045286,新規,0,2021-12-01,2021-12-01,株式会社Ａｌｏｃｃｏａ,,株式会社,大阪府,高槻市,古曽部町１丁目１１番１３－１００９号,,27,207,5691115,,,,,,,2021-12-01,1,,,,,アロッコア,0
437,2140001124006,新規,0,2021-12-01,2021-12-01,ＤＭＢ株式会社,,株式会社,兵庫県,西宮市,馬場町３－１９・２Ｆ,,28,204,6620915,,,,,,,2021-12-01,1,,,,,ディーエムビー,0
438,2140001124022,新規,0,2021-12-01,2021-12-01,株式会社ロックナインサービス,,株式会社,兵庫県,尼崎市,西立花町２丁目２０番９号,,28,202,6600054,,,,,,,2021-12-01,1,,,,,ロックナインサービス,0
446,2160001023841,新規,0,2021-12-01,2021-12-01,株式会社ラクエドラゴン,,株式会社,滋賀県,大津市,伊香立下在地町字馬ノ瀬２００８番地,,25,201,5200352,,,,,,,2021-12-01,1,,,,,ラクエドラゴン,0
448,2160005011017,新規,0,2021-12-01,2021-12-01,社会福祉法人絆敬会,,その他の設立登記法人,滋賀県,甲賀市,水口町秋葉４５番地１,,25,209,5280071,,,,,,,2021-12-01,1,,,,,キケイカイ,0
454,2180001148926,新規,0,2021-12-01,2021-12-01,株式会社ＡＸＩＳ,,株式会社,愛知県,名古屋市千種区,内山１丁目５番２８号,,23,101,4640075,,,,,,,2021-12-01,1,,,,,アクシス,0
459,2180003023243,新規,0,2021-12-01,2021-12-01,合同会社叶明,,合同会社,愛知県,知多郡阿久比町,大字福住字高根台３０番地１０,,23,441,4702202,,,,,,,2021-12-01,1,,,,,キョウメイ,0
460,2180005019529,新規,0,2021-12-01,2021-12-01,特定非営利活動法人スポットライト,,その他の設立登記法人,愛知県,大府市,共栄町９丁目１１番地７,,23,223,4740074,,,,,,,2021-12-01,1,,,,,スポットライト,0
464,2190001028895,新規,0,2021-12-01,2021-12-01,株式会社岸江製作所,,株式会社,三重県,津市,庄田町２９１３番地,,24,201,5141255,,,,,,,2021-12-01,1,,,,,キシエセイサクジョ,0
467,2210003001427,新規,0,2021-12-01,2021-12-01,合同会社ＴＡＮＡＫＡ,,合同会社,福井県,小浜市,遠敷１０丁目８０６番地の２,,18,204,9170241,,,,,,,2021-12-01,1,,,,,タナカ,0
469,2240001058994,新規,0,2021-12-01,2021-12-01,株式会社ＢＰＬ,,株式会社,広島県,廿日市市,阿品台１丁目１６番３号,,34,213,7380053,,,,,,,2021-12-01,1,,,,,ビーピーエル,0
470,2250001019277,新規,0,2021-12-01,2021-12-01,株式会社Ｄ・ＰＲＯＧＲＥＳＳ,,株式会社,山口県,山口市,小郡令和１丁目１番１号,,35,203,7540041,,,,,,,2021-12-01,1,,,,,ディープログレス,0
503,2350003003979,新規,0,2021-12-01,2021-12-01,合同会社大雄,,合同会社,宮崎県,児湯郡高鍋町,大字北高鍋１９３８番地５,,45,401,8840002,,,,,,,2021-12-01,1,,,,,ダイユウ,0
518,2450001013540,新規,0,2021-12-01,2021-12-01,ＣＯＤＥ　ＦＯＲＥＳＴＯＲＹ株式会社,,株式会社,北海道,空知郡上富良野町,新町４丁目５番２６号,,01,460,0710554,,,,,,,2021-12-01,1,,,,,コードフォレストリー,0
525,2500003002726,新規,0,2021-12-01,2021-12-01,合同会社あんず,,合同会社,愛媛県,新居浜市,郷１丁目１番３５号,,38,205,7920886,,,,,,,2021-12-01,1,,,,,アンズ,0
553,3010001222886,新規,0,2021-12-01,2021-12-01,ＳＹ興産株式会社,,株式会社,東京都,千代田区,永田町２丁目１２番４号,,13,101,1000014,,,,,,,2021-12-01,1,,,,,エスワイコウサン,0
554,3010001222903,新規,0,2021-12-01,2021-12-01,Ｍｏｏｎ　Ｒａｂｂｉｔ　Ｌａｂｓ株式会社,,株式会社,東京都,中央区,銀座１丁目２２番１１号銀座大竹ビジデンス２階,,13,102,1040061,,,,,,,2021-12-01,1,,,,,ムーンラビットラブズ,0
555,3010001222911,新規,0,2021-12-01,2021-12-01,南風株式会社,,株式会社,東京都,中央区,銀座４丁目１３番８号岩藤ビル５Ｆ,,13,102,1040061,,,,,,,2021-12-01,1,,,,,ミナミカゼ,0
561,3010005034270,新規,0,2021-12-01,2021-12-01,ＲＢソーラーシルマホールディングス一般社団法人,,その他の設立登記法人,東京都,中央区,八丁堀４丁目２番１０号ＡＯＪ税理士法人内,,13,102,1040032,,,,,,,2021-12-01,1,,,,,アールビーソーラーシルマホールディングス,0
562,3010401164142,新規,0,2021-12-01,2021-12-01,ＳＥＶＥＮ　ＳＴＡＲＳ株式会社,,株式会社,東京都,港区,赤坂３丁目１５番１号ＳＩＯＮビル３階Ａ号室,,13,103,1070052,,,,,,,2021-12-01,1,,,,,セブンスターズ,0
565,3010603009277,新規,0,2021-12-01,2021-12-01,合同会社ｒｆ．ｓｔｕｄｉｏ,,合同会社,東京都,江東区,南砂５丁目１９番１７－２０８号,,13,108,1360076,,,,,,,2021-12-01,1,,,,,アールフスタジオ,0
575,3011005009287,新規,0,2021-12-01,2021-12-01,一般社団法人日本有機食品普及協会,,その他の設立登記法人,東京都,目黒区,自由が丘１丁目２８番８号,,13,110,1520035,,,,,,,2021-12-01,1,,,,,ニホンユウキショクヒンフキュウキョウカイ,0
590,3012701016799,新規,0,2021-12-01,2021-12-01,株式会社天嵐園,,株式会社,東京都,小平市,上水南町２丁目１１番１１－２号,,13,211,1870021,,,,,,,2021-12-01,1,,,,,テンランエン,0
593,3013301048349,新規,0,2021-12-01,2021-12-01,宝誠株式会社,,株式会社,東京都,豊島区,巣鴨１丁目１７番３号６０２号室,,13,116,1700002,,,,,,,2021-12-01,1,,,,,ホウセイ,0
603,3020001144139,新規,0,2021-12-01,2021-12-01,株式会社ｃｈａｒｏｏｍ,,株式会社,神奈川県,横浜市都筑区,中川１丁目６番１号,,14,118,2240001,,,,,,,2021-12-01,1,,,,,シャルーム,0
607,3020003020908,新規,0,2021-12-01,2021-12-01,合同会社ＮＵＬＬ．ＴＥＣＨＮＯＬＯＧＹ,,合同会社,神奈川県,川崎市麻生区,細山７丁目２－６コーポＭ２０１,,14,137,2150001,,,,,,,2021-12-01,1,,,,,ナルテクノロジー,0
611,3021003011137,新規,0,2021-12-01,2021-12-01,司ＬＬＣ合同会社,,合同会社,神奈川県,厚木市,泉町１２番７－１１０４号,,14,212,2430013,,,,,,,2021-12-01,1,,,,,ツカサエルエルシー,0
628,3040001121202,新規,0,2021-12-01,2021-12-01,株式会社道産子兄弟社,,株式会社,千葉県,松戸市,本町１４－９泉ビル１Ｆ,,12,207,2710091,,,,,,,2021-12-01,1,,,,,ドサンコキョウダイシャ,0
635,3050001050219,新規,0,2021-12-01,2021-12-01,株式会社ＹｅｌｌｏｗＴｒｅｅ,,株式会社,茨城県,つくば市,学園の森２丁目９番地５１,,08,220,3050816,,,,,,,2021-12-01,1,,,,,イエローツリー,0
646,3080001024608,新規,0,2021-12-01,2021-12-01,株式会社エスアールジー,,株式会社,静岡県,静岡市清水区,横砂西町１２番６０号,,22,103,4240036,,,,,,,2021-12-01,1,,,,,エスアールジー,0
664,3120001242155,新規,0,2021-12-01,2021-12-01,さくら結い株式会社,,株式会社,大阪府,大阪市平野区,長吉長原西２丁目２番２４号１０２号,,27,126,5470015,,,,,,,2021-12-01,1,,,,,サクラユイ,0
665,3120001242163,新規,0,2021-12-01,2021-12-01,株式会社ＧＲＩＴ,,株式会社,大阪府,守口市,南寺方南通３丁目１０番１１号,,27,209,5700044,,,,,,,2021-12-01,1,,,,,グリット,0
668,3120003020690,新規,0,2021-12-01,2021-12-01,ｅＭＡ合同会社,,合同会社,大阪府,大阪市住之江区,南港中３丁目９－２５－９１０,,27,125,5590033,,,,,,,2021-12-01,1,,,,,エマ,0
671,3120901045260,新規,0,2021-12-01,2021-12-01,Ｄｉｆｆｅｒｅｎｃｅ　Ｄｅｓｉｇｎ株式会社,,株式会社,大阪府,吹田市,江坂町５丁目１番４－２０５号,,27,205,5640063,,,,,,,2021-12-01,1,,,,,ディファレンスデザイン,0
697,3180001148925,新規,0,2021-12-01,2021-12-01,株式会社ＬＡＮＤＩＡ,,株式会社,愛知県,名古屋市千種区,内山１丁目５番２８号,,23,101,4640075,,,,,,,2021-12-01,1,,,,,ランディア,0
699,3180003023242,新規,0,2021-12-01,2021-12-01,合同会社赤山商事,,合同会社,愛知県,名古屋市千種区,大島町４丁目１メゾンさくら２０１,,23,101,4640833,,,,,,,2021-12-01,1,,,,,アカヤマショウジ,0
707,3200001039469,新規,0,2021-12-01,2021-12-01,株式会社日比内装,,株式会社,岐阜県,多治見市,大針町４６４番地の３,,21,204,5070062,,,,,,,2021-12-01,1,,,,,ヒビナイソウ,0
708,3200001039477,新規,0,2021-12-01,2021-12-01,ＳＴコレクション株式会社,,株式会社,岐阜県,岐阜市,則武中４丁目１２番５号,,21,201,5020932,,,,,,,2021-12-01,1,,,,,エスティコレクション,0
710,3210001018711,新規,0,2021-12-01,2021-12-01,株式会社さちふるマネジメント,,株式会社,福井県,福井市,下荒井町第１６号１０９番地,,18,201,9188017,,,,,,,2021-12-01,1,,,,,サチフルマネジメント,0
711,3210003001426,新規,0,2021-12-01,2021-12-01,合同会社ベンヌ,,合同会社,福井県,福井市,グリーンハイツ２丁目１２８番地,,18,201,9103604,,,,,,,2021-12-01,1,,,,,ベンヌ,0
713,3230001019121,新規,0,2021-12-01,2021-12-01,東栄株式会社,,株式会社,富山県,富山市,五福１５８５－３荒木ハイツ一階１０１号室,,16,201,9300887,,,,,,,2021-12-01,1,,,,,トウエイ,0
715,3240001058993,新規,0,2021-12-01,2021-12-01,株式会社トウトク,,株式会社,広島県,広島市安芸区,矢野東２丁目３１番６号,,34,107,7360083,,,,,,,2021-12-01,1,,,,,トウトク,0
718,3240003005390,新規,0,2021-12-01,2021-12-01,合同会社ＹＯＵＲＳ広島,,合同会社,広島県,三次市,和知町１７８５番地１,,34,209,7296201,,,,,,,2021-12-01,1,,,,,ユアーズヒロシマ,0
719,3250001019276,新規,0,2021-12-01,2021-12-01,株式会社後藤,,株式会社,山口県,下関市,富任町４丁目１３番２５号,,35,201,7596613,,,,,,,2021-12-01,1,,,,,ゴトウ,0
725,3270003001370,新規,0,2021-12-01,2021-12-01,合同会社いぶき,,合同会社,鳥取県,西伯郡大山町,大山４５番地１１,,31,386,6893318,,,,,,,2021-12-01,1,,,,,イブキ,0
734,3290001095578,新規,0,2021-12-01,2021-12-01,佐々木商事株式会社,,株式会社,福岡県,福岡市東区,香椎照葉４丁目２番５－６１１号,,40,131,8130017,,,,,,,2021-12-01,1,,,,,ササキショウジ,0
739,3290803004001,新規,0,2021-12-01,2021-12-01,合同会社わっしょいＥＸＥＯ,,合同会社,福岡県,北九州市八幡西区,鉄王１丁目１２番２７号,,40,109,8060057,,,,,,,2021-12-01,1,,,,,ワッショイエクシオ,0
740,3290805009493,新規,0,2021-12-01,2021-12-01,一般社団法人アクア,,その他の設立登記法人,福岡県,田川市,平松町３番７４号,,40,206,8260032,,,,,,,2021-12-01,1,,,,,アクア,0
742,3330001029234,新規,0,2021-12-01,2021-12-01,株式会社サンアメニティ,,株式会社,熊本県,水俣市,深川８２７番地３,,43,205,8670015,,,,,,,2021-12-01,1,,,,,サンアメニティ,0
743,3360005006565,新規,0,2021-12-01,2021-12-01,一般社団法人子どもと先生を元氣にする会,,その他の設立登記法人,沖縄県,中頭郡北中城村,字美崎１７０番地１,,47,327,9012321,,,,,,,2021-12-01,1,,,,,コドモトセンセイヲゲンキニスルカイ,0
746,3370001047876,新規,0,2021-12-01,2021-12-01,株式会社ダイスエンジニアリング,,株式会社,宮城県,大崎市,鹿島台広長字内ノ浦２７番地１７,,04,215,9894104,,,,,,,2021-12-01,1,,,,,ダイスエンジニアリング,0
759,3410003003591,新規,0,2021-12-01,2021-12-01,合同会社ＬＩＦＥ,,合同会社,秋田県,秋田市,中通２丁目１－４８仲小路ビル地下１Ｆ,,05,201,0100001,,,,,,,2021-12-01,1,,,,,ライフ,0
775,3500001023839,新規,0,2021-12-01,2021-12-01,ハマホーム株式会社,,株式会社,愛媛県,八幡浜市,１５５０番地,,38,204,7960088,,,,,,,2021-12-01,1,,,,,ハマホーム,0
776,3500003002725,新規,0,2021-12-01,2021-12-01,合同会社マネーテック,,合同会社,愛媛県,伊予市,灘町２６番地シスコ灘町キャッスル４０６号,,38,210,7993114,,,,,,,2021-12-01,1,,,,,マネーテック,0
802,4010001222828,新規,0,2021-12-01,2021-12-01,株式会社アルファ弥生,,株式会社,東京都,中央区,日本橋茅場町１丁目２番１２号－２３号室,,13,102,1030025,,,,,,,2021-12-01,1,,,,,アルファヤヨイ,0
803,4010001222893,新規,0,2021-12-01,2021-12-01,株式会社ｉｉＵ,,株式会社,東京都,中央区,銀座３丁目８番１号,,13,102,1040061,,,,,,,2021-12-01,1,,,,,アイユー,0
804,4010001222910,新規,0,2021-12-01,2021-12-01,青空株式会社,,株式会社,東京都,中央区,銀座４丁目１３番８号岩藤ビル５Ｆ,,13,102,1040061,,,,,,,2021-12-01,1,,,,,アオゾラ,0
810,4010401164018,新規,0,2021-12-01,2021-12-01,株式会社ＬｉｑｕｉＤ,,株式会社,東京都,港区,南麻布５丁目１５番２２号ブリック広尾Ｂ１,,13,103,1060047,,,,,,,2021-12-01,1,,,,,リキッド,0
811,4010401164091,新規,0,2021-12-01,2021-12-01,株式会社アレグレット,,株式会社,東京都,港区,赤坂７丁目４番１８号赤坂プラザ３０５,,13,103,1070052,,,,,,,2021-12-01,1,,,,,アレグレット,0
812,4010401164125,新規,0,2021-12-01,2021-12-01,ＧＣＪＧ１９株式会社,,株式会社,東京都,港区,元赤坂１丁目１番８号株式会社赤坂国際会計内,,13,103,1070051,,,,,,,2021-12-01,1,,,,,ジーシージェイジーナインティーン,0
814,4010403026620,新規,0,2021-12-01,2021-12-01,合同会社ｍａｔｌｉｔｙ,,合同会社,東京都,港区,浜松町２丁目２番１５号浜松町ダイヤビル２階,,13,103,1050013,,,,,,,2021-12-01,1,,,,,マツリティ,0
823,4010801032518,新規,0,2021-12-01,2021-12-01,平林興業株式会社,,株式会社,東京都,大田区,山王４丁目７番１３号,,13,111,1430023,,,,,,,2021-12-01,1,,,,,ヒラバヤシコウギョウ,0
838,4011001144252,新規,0,2021-12-01,2021-12-01,株式会社ダイエットプレミアム,,株式会社,東京都,渋谷区,神宮前６丁目２３番４号桑野ビル２階,,13,113,1500001,,,,,,,2021-12-01,1,,,,,ダイエットプレミアム,0
839,4011001144285,新規,0,2021-12-01,2021-12-01,横浜国際映画祭株式会社,,株式会社,東京都,渋谷区,代官山町２番７号シャトレ代官山５０３,,13,113,1500034,,,,,,,2021-12-01,1,,,,,ヨコハマコクサイエイガサイ,0
840,4011001144310,新規,0,2021-12-01,2021-12-01,ＳＯＨ株式会社,,株式会社,東京都,渋谷区,東２丁目２７番２号ＥＳＴ１０３,,13,113,1500011,,,,,,,2021-12-01,1,,,,,ソー,0
841,4011003013802,新規,0,2021-12-01,2021-12-01,ティーケイゴールドジェム合同会社,,合同会社,東京都,渋谷区,道玄坂１丁目１２番１号渋谷マークシティＷ２２階,,13,113,1500043,,,,,,,2021-12-01,1,,,,,ティーケイゴールドジェム,0
844,4011203003702,新規,0,2021-12-01,2021-12-01,ｅｓｐｉｒｉｔｏ合同会社,,合同会社,東京都,中野区,南台１丁目６－１７,,13,114,1640014,,,,,,,2021-12-01,1,,,,,エスピリト,0
847,4011801016246,新規,0,2021-12-01,2021-12-01,株式会社ロイヤルオート,,株式会社,東京都,葛飾区,東新小岩３丁目１３番２号,,13,122,1240023,,,,,,,2021-12-01,1,,,,,ロイヤルオート,0
848,4011801040015,新規,0,2021-12-01,2021-12-01,株式会社Ｆｒｕｔａ,,株式会社,東京都,葛飾区,金町６丁目７－１４富士ビル１Ｆ,,13,122,1250042,,,,,,,2021-12-01,1,,,,,フルータ,0
854,4013301048356,新規,0,2021-12-01,2021-12-01,たけのこ株式会社,,株式会社,東京都,豊島区,池袋２丁目６２番４号,,13,116,1710014,,,,,,,2021-12-01,1,,,,,タケノコ,0
862,4020001144113,新規,0,2021-12-01,2021-12-01,株式会社不動物流,,株式会社,神奈川県,横浜市旭区,川井本町１０９番地５,,14,112,2410803,,,,,,,2021-12-01,1,,,,,フドウブツリュウ,0
876,4030001145515,新規,0,2021-12-01,2021-12-01,株式会社瀧澤,,株式会社,埼玉県,熊谷市,末広３丁目３番５号,,11,202,3600031,,,,,,,2021-12-01,1,,,,,タキザワ,0
877,4030001145589,新規,0,2021-12-01,2021-12-01,株式会社ＡＲＺＵ,,株式会社,埼玉県,朝霞市,栄町２丁目６番２２号勝美荘１０１号,,11,227,3510012,,,,,,,2021-12-01,1,,,,,アルズ,0
878,4030001145630,新規,0,2021-12-01,2021-12-01,株式会社ＡＲＡＫＡＫＩコーポレーション,,株式会社,埼玉県,加須市,礼羽７０４番地２,,11,210,3470044,,,,,,,2021-12-01,1,,,,,アラカキコーポレーション,0
879,4030001145639,新規,0,2021-12-01,2021-12-01,株式会社ｋｎｏｃｋ,,株式会社,埼玉県,戸田市,本町５丁目１２－２７,,11,224,3350023,,,,,,,2021-12-01,1,,,,,ノック,0
895,4040001121192,新規,0,2021-12-01,2021-12-01,株式会社上広通商,,株式会社,千葉県,柏市,南逆井５丁目１８番１１号,,12,217,2770043,,,,,,,2021-12-01,1,,,,,ジョウコウツウシヨウ,0
898,4040003019039,新規,0,2021-12-01,2021-12-01,ｓａｉ＆ｃｏ合同会社,,合同会社,千葉県,船橋市,前原西４丁目６番３０－１０７号,,12,204,2740825,,,,,,,2021-12-01,1,,,,,サイアンドコー,0
902,4060003003882,新規,0,2021-12-01,2021-12-01,合同会社三毳コンサルティング,,合同会社,栃木県,足利市,福富町１３７６番地６,,09,202,3260331,,,,,,,2021-12-01,1,,,,,ミカモコンサルティング,0
905,4070001038698,新規,0,2021-12-01,2021-12-01,株式会社フリーレイ,,株式会社,群馬県,太田市,岩瀬川町４４５番地１０,,10,205,3730841,,,,,,,2021-12-01,1,,,,,フリーレイ,0
922,4120001242121,新規,0,2021-12-01,2021-12-01,ワイビィーホールディングス株式会社,,株式会社,大阪府,大阪市東成区,中本５丁目２７番１３号,,27,115,5370022,,,,,,,2021-12-01,1,,,,,ワイビィーホールディングス,0
923,4120001242138,新規,0,2021-12-01,2021-12-01,株式会社ＹＳＴ,,株式会社,大阪府,大阪市旭区,高殿６丁目１８番４号,,27,117,5350031,,,,,,,2021-12-01,1,,,,,ワイエスティ,0
924,4120001242170,新規,0,2021-12-01,2021-12-01,ＫＧＡＴ今池株式会社,,株式会社,大阪府,大阪市浪速区,敷津東１丁目２番４７号,,27,111,5560012,,,,,,,2021-12-01,1,,,,,ケージーエーティーイマイケ,0
928,4120901045284,新規,0,2021-12-01,2021-12-01,株式会社エムパックサービス,,株式会社,大阪府,高槻市,柳川町２丁目１７番３０号,,27,207,5690853,,,,,,,2021-12-01,1,,,,,エムパックサービス,0
934,4130001070604,新規,0,2021-12-01,2021-12-01,株式会社心愛,,株式会社,京都府,京都市下京区,松原通高倉西入本燈籠町２１番地２,,26,106,6008086,,,,,,,2021-12-01,1,,,,,シンアイ,0
942,4140001123988,新規,0,2021-12-01,2021-12-01,株式会社メディカルクロス,,株式会社,兵庫県,神戸市中央区,元町通２丁目８番１４－１０５号,,28,110,6500022,,,,,,,2021-12-01,1,,,,,メディカルクロス,0
967,4200001039468,新規,0,2021-12-01,2021-12-01,株式会社岸工業,,株式会社,岐阜県,羽島市,下中町石田９０４番地,,21,209,5016315,,,,,,,2021-12-01,1,,,,,キシコウギョウ,0
972,4220005008616,新規,0,2021-12-01,2021-12-01,一般社団法人きたまえＪＡＰＡＮ,,その他の設立登記法人,石川県,金沢市,諸江町２６０番地１,,17,201,9200014,,,,,,,2021-12-01,1,,,,,キタマエジャパン,0
976,4250003002948,新規,0,2021-12-01,2021-12-01,合同会社ハイタッチ,,合同会社,山口県,下関市,秋根本町２丁目１０番１０号－５０５号,,35,201,7510875,,,,,,,2021-12-01,1,,,,,ハイタッチ,0
988,4290001095536,新規,0,2021-12-01,2021-12-01,株式会社ＯＦＦＳＨＯＲＥ,,株式会社,福岡県,福岡市南区,寺塚１丁目６番５－２０１号,,40,134,8150074,,,,,,,2021-12-01,1,,,,,オフショア,0
1002,4370003005501,新規,0,2021-12-01,2021-12-01,合同会社ＫＳＮＥＴ,,合同会社,宮城県,仙台市青葉区,本町１丁目５番２８号カーニープレイス仙台駅前通６０３号室,,04,101,9800014,,,,,,,2021-12-01,1,,,,,ケーエスネット,0
1004,4380001032372,新規,0,2021-12-01,2021-12-01,信伸林業株式会社,,株式会社,福島県,東白川郡塙町,大字伊香字豊作９５番地２,,07,483,9635342,,,,,,,2021-12-01,1,,,,,シンシンリンギョウ,0
1007,4380003005062,新規,0,2021-12-01,2021-12-01,ａ　ｌｉｔｔｌｅ　ｊｏｙ合同会社,,合同会社,福島県,耶麻郡西会津町,野沢字原町２２１１－１,,07,405,9694406,,,,,,,2021-12-01,1,,,,,アリトルジョイ,0
1013,4430001085472,新規,0,2021-12-01,2021-12-01,株式会社コダイミライ,,株式会社,北海道,札幌市西区,八軒八条東２丁目２番２号,,01,107,0630868,,,,,,,2021-12-01,1,,,,,コダイミライ,0
1015,4450001013539,新規,0,2021-12-01,2021-12-01,ＷＨＩＳＴＥＣＨ株式会社,,株式会社,北海道,空知郡上富良野町,新町４丁目５番２６号,,01,460,0710554,,,,,,,2021-12-01,1,,,,,ウィステック,0
1019,4500001023838,新規,0,2021-12-01,2021-12-01,株式会社高木住宅設備,,株式会社,愛媛県,松山市,天山３丁目７番２５号,,38,201,7900951,,,,,,,2021-12-01,1,,,,,タカギジュウタクセツビ,0
1030,5010001222901,新規,0,2021-12-01,2021-12-01,アサナミ株式会社,,株式会社,東京都,中央区,東日本橋２丁目２７番３号ザパームス日本橋６０１,,13,102,1030004,,,,,,,2021-12-01,1,,,,,アサナミ,0
1047,5010401164132,新規,0,2021-12-01,2021-12-01,株式会社１１２６,,株式会社,東京都,港区,北青山３丁目６番１９号バイナリー北青山５階,,13,103,1070061,,,,,,,2021-12-01,1,,,,,イチイチニロク,0
1048,5010401164165,新規,0,2021-12-01,2021-12-01,株式会社ワイズ,,株式会社,東京都,港区,白金台２丁目１５番１号,,13,103,1080071,,,,,,,2021-12-01,1,,,,,ワイズ,0
1050,5010501048152,新規,0,2021-12-01,2021-12-01,株式会社昌とみ,,株式会社,東京都,台東区,浅草１丁目１番１１号,,13,106,1110032,,,,,,,2021-12-01,1,,,,,マサトミ,0
1053,5010601060296,新規,0,2021-12-01,2021-12-01,株式会社エイト,,株式会社,東京都,江東区,東砂４丁目２２番５号,,13,108,1360074,,,,,,,2021-12-01,1,,,,,エイト,0
1054,5010601060305,新規,0,2021-12-01,2021-12-01,株式会社Ｓｍａｒｔ　Ｉｍａｇｅ　Ｐｒｏｃｅｓｓｉｎｇ,,株式会社,東京都,墨田区,菊川３丁目１３番１１－４０１号町田ビル,,13,107,1300024,,,,,,,2021-12-01,1,,,,,スマートイメージプロセッシング,0
1063,5010905004230,新規,0,2021-12-01,2021-12-01,一般社団法人ＰＩＸ　ＫＩＤＳ,,その他の設立登記法人,東京都,世田谷区,瀬田２丁目２１番１号リムテラス瀬田二丁目１０５号,,13,112,1580095,,,,,,,2021-12-01,1,,,,,ピクスキッズ,0
1081,5011103011226,新規,0,2021-12-01,2021-12-01,エバーテイルズ合同会社,,合同会社,東京都,新宿区,四谷４丁目１８番２号,,13,104,1600004,,,,,,,2021-12-01,1,,,,,エバーテイルズ,0
1087,5011801040014,新規,0,2021-12-01,2021-12-01,株式会社三京,,株式会社,東京都,足立区,西新井栄町２丁目７番１０号オークヒルマンション６０１号,,13,121,1230843,,,,,,,2021-12-01,1,,,,,サンケイ,0
1094,5013301048355,新規,0,2021-12-01,2021-12-01,宸京株式会社,,株式会社,東京都,豊島区,北大塚３丁目２５番１１号,,13,116,1700004,,,,,,,2021-12-01,1,,,,,シンキョウ,0
1096,5013303005924,新規,0,2021-12-01,2021-12-01,ＧＩＡ　ＨＵＮＧ合同会社,,合同会社,東京都,豊島区,巣鴨３丁目３４番１０イーグル巣鴨６０１号,,13,116,1700002,,,,,,,2021-12-01,1,,,,,ジアフン,0
1104,5020001144120,新規,0,2021-12-01,2021-12-01,株式会社エムテックコーポレーション,,株式会社,神奈川県,横浜市泉区,中田南１丁目８番２２号,,14,116,2450014,,,,,,,2021-12-01,1,,,,,エムテックコーポレーション,0
1106,5020003020872,新規,0,2021-12-01,2021-12-01,合同会社福運,,合同会社,神奈川県,横浜市中区,山下町４３７番地１６,,14,104,2310023,,,,,,,2021-12-01,1,,,,,フクウン,0
1111,5021003011143,新規,0,2021-12-01,2021-12-01,合同会社Ｒｅｎｏｖａｔｉｏｎ　Ｌｉｆｅ,,合同会社,神奈川県,相模原市緑区,西橋本１丁目２２番５号明石ビル４０３,,14,151,2520131,,,,,,,2021-12-01,1,,,,,リノベーションライフ,0
1123,5030003018412,新規,0,2021-12-01,2021-12-01,合同会社ｈｅａｌｔｈｙ,,合同会社,埼玉県,川口市,末広１丁目３番８－９０５号パークスクエア,,11,203,3320006,,,,,,,2021-12-01,1,,,,,ヘルシー,0
1131,5040001121167,新規,0,2021-12-01,2021-12-01,大建株式会社,,株式会社,千葉県,市原市,ちはら台東２丁目２０番地２ファミールハイツ７－４０５,,12,219,2900141,,,,,,,2021-12-01,1,,,,,ダイケン,0
1137,5040005021446,新規,0,2021-12-01,2021-12-01,一般社団法人おにた,,その他の設立登記法人,千葉県,松戸市,小金上総町１２番地の１７,,12,207,2700015,,,,,,,2021-12-01,1,,,,,オニタ,0
1139,5050001050217,新規,0,2021-12-01,2021-12-01,株式会社メイト,,株式会社,茨城県,水戸市,見和３丁目１３２０番地の４,,08,201,3100911,,,,,,,2021-12-01,1,,,,,メイト,0
1141,5050003006225,新規,0,2021-12-01,2021-12-01,合同会社ふぁーむぅー,,合同会社,茨城県,久慈郡大子町,大字大子６５５番地６,,08,364,3193526,,,,,,,2021-12-01,1,,,,,ファームゥー,0
1144,5070001038697,新規,0,2021-12-01,2021-12-01,株式会社ＣＯＲＩＣＯ,,株式会社,群馬県,伊勢崎市,連取町１５３１番地１,,10,204,3720812,,,,,,,2021-12-01,1,,,,,コリコ,0
1151,5080403004420,新規,0,2021-12-01,2021-12-01,合同会社ワールドピース,,合同会社,静岡県,磐田市,見付２０９６番地,,22,211,4380086,,,,,,,2021-12-01,1,,,,,ワールドピース,0
1169,5120003020689,新規,0,2021-12-01,2021-12-01,日本ドクターヘルスケア合同会社,,合同会社,大阪府,大阪市淀川区,西中島６丁目３－２４－Ｌ４１８,,27,123,5320011,,,,,,,2021-12-01,1,,,,,ニホンドクターヘルスケア,0
1181,5130001070586,新規,0,2021-12-01,2021-12-01,きばりや株式会社,,株式会社,京都府,京都市下京区,五条通新町東入東錺屋町１８４番地,,26,106,6008107,,,,,,,2021-12-01,1,,,,,キバリヤ,0
1195,5140005025908,新規,0,2021-12-01,2021-12-01,行政書士法人オフィスビッグスマイル,,その他の設立登記法人,兵庫県,明石市,小久保１２０番地の５５サバービアシティ２１．Ｃ－６０２号,,28,203,6730005,,,,,,,2021-12-01,1,,,,,オフィスビッグスマイル,0
1197,5150005009348,新規,0,2021-12-01,2021-12-01,ＳＧ協同組合,,その他の設立登記法人,奈良県,大和高田市,旭南町５番８号,,29,202,6350035,,,,,,,2021-12-01,1,,,,,エスジー,0
1199,5160001023839,新規,0,2021-12-01,2021-12-01,株式会社Ｎｏｎｎｉ,,株式会社,滋賀県,大津市,下阪本３丁目１３番１－１０２号,,25,201,5200105,,,,,,,2021-12-01,1,,,,,ノーニ,0
1211,5180001148881,新規,0,2021-12-01,2021-12-01,株式会社ｍｕｓｂｕｎ,,株式会社,愛知県,名古屋市中村区,平池町グローバルゲート１１階,,23,105,4530872,,,,,,,2021-12-01,1,,,,,ムスブン,0
1215,5180003023240,新規,0,2021-12-01,2021-12-01,合同会社Ｒｉｓｅ,,合同会社,愛知県,丹羽郡扶桑町,大字南山名６６番地１,,23,362,4800105,,,,,,,2021-12-01,1,,,,,ライズ,0
1216,5180003023249,新規,0,2021-12-01,2021-12-01,合同会社ワイズワン新潟長岡,,合同会社,愛知県,名古屋市中区,栄２丁目３番１号名古屋広小路ビルヂング１７階,,23,106,4600008,,,,,,,2021-12-01,1,,,,,ワイズワンニイガタナガオカ,0
1225,5190003003836,新規,0,2021-12-01,2021-12-01,合同会社富士見,,合同会社,三重県,鈴鹿市,岸岡町１７００番地５７,,24,207,5100226,,,,,,,2021-12-01,1,,,,,フジミ,0
1226,5200001039459,新規,0,2021-12-01,2021-12-01,株式会社カワイ総業,,株式会社,岐阜県,大垣市,本今５丁目１０８番地１,,21,202,5030931,,,,,,,2021-12-01,1,,,,,カワイソウギョウ,0
1228,5220005008615,新規,0,2021-12-01,2021-12-01,一般社団法人伝統伝承みらい創造協会,,その他の設立登記法人,石川県,金沢市,涌波１丁目９番１６号,,17,201,9200953,,,,,,,2021-12-01,1,,,,,デントウデンショウミライソウゾウキョウカイ,0
1233,5240001058991,新規,0,2021-12-01,2021-12-01,株式会社ＧＲＯＷ,,株式会社,広島県,広島市安佐北区,三入７丁目７番３９号,,34,106,7310211,,,,,,,2021-12-01,1,,,,,グロウ,0
1238,5260001036260,新規,0,2021-12-01,2021-12-01,株式会社岡山セレマックス,,株式会社,岡山県,岡山市北区,野田２丁目１１－１,,33,101,7000971,,,,,,,2021-12-01,1,,,,,,0
1244,5290001095592,新規,0,2021-12-01,2021-12-01,株式会社ＫＪコンサル,,株式会社,福岡県,福岡市東区,原田１丁目２２番２１号,,40,131,8120063,,,,,,,2021-12-01,1,,,,,ケイジェイコンサル,0
1257,5340001024298,新規,0,2021-12-01,2021-12-01,株式会社ＧｏｏｄＷｏｒｋ　ＢｅｓｔＬｉｆｅ,,株式会社,鹿児島県,鹿児島市,田上台１丁目５番１０号,,46,201,8900036,,,,,,,2021-12-01,1,,,,,グッドワークベストライフ,0
1279,5462505000283,新規,0,2021-12-01,2021-12-01,一般社団法人マグネットプレイス,,その他の設立登記法人,北海道,野付郡別海町,中春別東町６６番地,,01,691,0860651,,,,,,,2021-12-01,1,,,,,マグネットプレイス,0
1283,5480001011555,新規,0,2021-12-01,2021-12-01,株式会社水野商会,,株式会社,徳島県,阿波市,阿波町丸山８４番地２,,36,206,7711703,,,,,,,2021-12-01,1,,,,,ミズノショウカイ,0
1292,5700150103320,新規,0,2021-12-01,2021-05-20,ストックビジネス研究会,,その他,東京都,板橋区,成増５丁目２－８－３０２,,13,119,1750094,,,,,,,2021-05-20,1,,,,,ストツクビジネスケンキユウカイ,0
1293,5700150106042,新規,0,2021-12-01,2021-12-01,ＳＵＭＥＤＨＡ　ＥＬＥＣＴＲＯＮＩＣＳ　ＡＮＤ　ＥＮＴＥＲＰＲＩＳＥＳ,,外国会社等,千葉県,千葉市若葉区,金親町５００番地３ビジネスオフィス２４号,,12,104,2640001,スリランカ民主社会主義共和国、タンブッテガマ、コンウェワ、コロンケラ、４５２Ｇ,,,,,,2021-12-01,1,,,,,スメダエレクトロニクスアンドエンタープライセス,0
1301,6010001222909,新規,0,2021-12-01,2021-12-01,株式会社白樺,,株式会社,東京都,中央区,銀座４丁目１３番８号岩藤ビル５Ｆ,,13,102,1040061,,,,,,,2021-12-01,1,,,,,シラカバ,0
1305,6010005034268,新規,0,2021-12-01,2021-12-01,一般社団法人サステナブルレジリエンス機構,,その他の設立登記法人,東京都,千代田区,麹町２丁目１０番３号,,13,101,1020083,,,,,,,2021-12-01,1,,,,,サステナブルレジリエンスキコウ,0
1316,6010401164065,新規,0,2021-12-01,2021-12-01,株式会社エルモ・ナトゥーラ,,株式会社,東京都,港区,東麻布２丁目１４番２号,,13,103,1060044,,,,,,,2021-12-01,1,,,,,エルモナトゥーラ,0
1317,6010401164123,新規,0,2021-12-01,2021-12-01,株式会社トレモロ,,株式会社,東京都,港区,南青山２丁目２番１５号ＷｉｎＡｏｙａｍａビルＵＣＦ６３５,,13,103,1070062,,,,,,,2021-12-01,1,,,,,トレモロ,0
1318,6010401164131,新規,0,2021-12-01,2021-12-01,株式会社ブンラボ,,株式会社,東京都,港区,北青山３丁目６番７号青山パラシオタワー１１階,,13,103,1070061,,,,,,,2021-12-01,1,,,,,ブンラボ,0
1319,6010401164189,新規,0,2021-12-01,2021-12-01,ＡＩ６Ｈｏｌｄｉｎｇｓ株式会社,,株式会社,東京都,港区,南青山２丁目２９番６－１５０１号,,13,103,1070062,,,,,,,2021-12-01,1,,,,,エーアイシックスホールディングス,0
1324,6010403026627,新規,0,2021-12-01,2021-12-01,合同会社５ＫＥＹ,,合同会社,東京都,港区,海岸２丁目６－３６－３０１,,13,103,1050022,,,,,,,2021-12-01,1,,,,,ファイブキー,0
1326,6010405020470,新規,0,2021-12-01,2021-12-01,一般財団法人日本寄付財団,,その他の設立登記法人,東京都,港区,南青山６丁目６番２０号,,13,103,1070062,,,,,,,2021-12-01,1,,,,,ニッポンキフザイダン,0
1328,6010501048151,新規,0,2021-12-01,2021-12-01,株式会社ＦＯＲＣＬＥ,,株式会社,東京都,台東区,台東１丁目３８番９号,,13,106,1100016,,,,,,,2021-12-01,1,,,,,フォークル,0
1331,6010601060295,新規,0,2021-12-01,2021-12-01,株式会社ＹＭＹＡ,,株式会社,東京都,江東区,豊洲３丁目５番３号,,13,108,1350061,,,,,,,2021-12-01,1,,,,,ワイエムワイエー,0
1332,6010603009274,新規,0,2021-12-01,2021-12-01,ｕ－ｃｈｏｒｄ合同会社,,合同会社,東京都,江東区,毛利２丁目６番１号,,13,108,1350001,,,,,,,2021-12-01,1,,,,,ユーコード,0
1336,6010801032532,新規,0,2021-12-01,2021-12-01,フェルディ株式会社,,株式会社,東京都,大田区,山王１丁目４４番４号ＳＯＰＨＩＡＳ山王３０２,,13,111,1430023,,,,,,,2021-12-01,1,,,,,フェルディ,0
1340,6010901049897,新規,0,2021-12-01,2021-12-01,てごう株式会社,,株式会社,東京都,世田谷区,若林４丁目２５番１４号,,13,112,1540023,,,,,,,2021-12-01,1,,,,,テゴウ,0
1345,6011001144309,新規,0,2021-12-01,2021-12-01,ＥＬＤｏｒａｄｏ株式会社,,株式会社,東京都,渋谷区,代官山町１４番地１１号ホリイビル３階,,13,113,1500034,,,,,,,2021-12-01,1,,,,,エルドラド,0
1347,6011003013800,新規,0,2021-12-01,2021-12-01,合同会社マイスペ,,合同会社,東京都,目黒区,下目黒２丁目６番２号ｌｅｓｅｒｅｎａ３０２号,,13,110,1530064,,,,,,,2021-12-01,1,,,,,マイスペ,0
1353,6011205002460,新規,0,2021-12-01,2021-12-01,一般社団法人アジア法律家ネットワーク‐Ａｓｉａｎ　Ｌａｗｙｅｒｓ　Ｎｅｔｗｏｒｋ,,その他の設立登記法人,東京都,中野区,野方１丁目３０番１７号,,13,114,1650027,,,,,,,2021-12-01,1,,,,,アジアホウリツカネットワークエイジアンロイヤーズネットワーク,0
1357,6011601025569,新規,0,2021-12-01,2021-12-01,株式会社春日和,,株式会社,東京都,練馬区,石神井町３丁目２５番４－６０３号,,13,120,1770041,,,,,,,2021-12-01,1,,,,,ハルビヨリ,0
1361,6012701016796,新規,0,2021-12-01,2021-12-01,株式会社ＭＴＣ,,株式会社,東京都,東久留米市,前沢５丁目９番１４号,,13,222,2030032,,,,,,,2021-12-01,1,,,,,エムティーシー,0
1375,6021001074637,新規,0,2021-12-01,2021-12-01,株式会社デジタル金庫,,株式会社,神奈川県,茅ヶ崎市,香川３丁目１６番３号,,14,207,2530082,,,,,,,2021-12-01,1,,,,,デジタルキンコ,0
1383,6030003018411,新規,0,2021-12-01,2021-12-01,合同会社Ｆｅｌｉｘ,,合同会社,埼玉県,川越市,宮下町１丁目２番地３０,,11,201,3500052,,,,,,,2021-12-01,1,,,,,フェリックス,0
1392,6050001050199,新規,0,2021-12-01,2021-12-01,ＡＬＧＨＡＮＩ　ＴＲＡＤＩＮＧ株式会社,,株式会社,茨城県,筑西市,玉戸１３０９番地５５,,08,227,3080847,,,,,,,2021-12-01,1,,,,,アルガニトレーディング,0
1393,6050003006232,新規,0,2021-12-01,2021-12-01,合同会社Ｒｅ－ＩＳＭ,,合同会社,茨城県,水戸市,元吉田町７５２－１メゾンコーワ１－２０１,,08,201,3100836,,,,,,,2021-12-01,1,,,,,リズム,0
1406,6100001034857,新規,0,2021-12-01,2021-12-01,株式会社リーヴァコンサルティング,,株式会社,長野県,松本市,大字島立８６１－１、ＩＺＵＭＩ２１、３Ｆ,,20,202,3900852,,,,,,,2021-12-01,1,,,,,リーヴァコンサルティング,0
1409,6110003004634,新規,0,2021-12-01,2021-12-01,Ｆｌｉｃｋ合同会社,,合同会社,新潟県,長岡市,青葉台５丁目２２番地３,,15,202,9402145,,,,,,,2021-12-01,1,,,,,フリック,0
1425,6120001242169,新規,0,2021-12-01,2021-12-01,株式会社東筑,,株式会社,大阪府,大阪市北区,天満２丁目１－１２天満橋ＳＥビル４階,,27,127,5300043,,,,,,,2021-12-01,1,,,,,トウチク,0
1439,6130001070619,新規,0,2021-12-01,2021-12-01,株式会社ＡＸＩ’ｓ,,株式会社,京都府,京都市上京区,七本松通下長者町下る三番町２６１番地ヒカハイム１０１,,26,102,6028358,,,,,,,2021-12-01,1,,,,,アクシズ,0
1443,6140005025907,新規,0,2021-12-01,2021-12-01,医療法人社団神燈会,,その他の設立登記法人,兵庫県,神戸市兵庫区,中道通３丁目４番２４号,,28,105,6520801,,,,,,,2021-12-01,1,,,,,シントウカイ,0
1446,6180001148848,新規,0,2021-12-01,2021-12-01,株式会社ＮｅｏＳｔｙｌｅ,,株式会社,愛知県,稲沢市,附島町屋敷８番地１,,23,220,4928442,,,,,,,2021-12-01,1,,,,,ネオスタイル,0
1447,6180001148906,新規,0,2021-12-01,2021-12-01,株式会社ＩＭＹ６１５１,,株式会社,愛知県,名古屋市西区,那古野２丁目２５番１１号,,23,104,4510042,,,,,,,2021-12-01,1,,,,,アイエムワイロクイチゴイチ,0
1448,6180001148914,新規,0,2021-12-01,2021-12-01,株式会社真和,,株式会社,愛知県,海部郡大治町,大字三本木字柳原１１４番地の１グランドヒルズ一番館Ａ２０３号,,23,424,4901142,,,,,,,2021-12-01,1,,,,,シンワ,0
1449,6180001148930,新規,0,2021-12-01,2021-12-01,株式会社ＭＩＹＡＫＡＷＡ,,株式会社,愛知県,名古屋市中区,錦３丁目８番１号ＯＡＳＩＳ錦４階４Ｃ・４Ｄ号室,,23,106,4600003,,,,,,,2021-12-01,1,,,,,ミヤカワ,0
1451,6180301035671,新規,0,2021-12-01,2021-12-01,株式会社ティウス,,株式会社,愛知県,豊田市,乙部ケ丘１丁目１６番地１２,,23,211,4700346,,,,,,,2021-12-01,1,,,,,ティウス,0
1467,6240001058999,新規,0,2021-12-01,2021-12-01,ＴＮビジネスサポート株式会社,,株式会社,広島県,広島市東区,上大須賀町４番２号,,34,102,7320056,,,,,,,2021-12-01,1,,,,,,0
1489,6330003009149,新規,0,2021-12-01,2021-12-01,合同会社シャイン・ビジョン,,合同会社,熊本県,熊本市中央区,帯山４丁目５２番３８号エムビレッジＩＩＩ３０１,00124999,43,101,8620924,,,,,,,2021-12-01,1,,,,,シャインビジョン,0
1512,6430003013413,新規,0,2021-12-01,2021-12-01,１１７３不動産合同会社,,合同会社,北海道,虻田郡倶知安町,字樺山１９２番地２２,,01,400,0440078,,,,,,,2021-12-01,1,,,,,イイナミフドウサン,0
1519,6490003001602,新規,0,2021-12-01,2021-12-01,合同会社なごみ,,合同会社,高知県,安芸郡東洋町,大字甲浦４３番地８,,39,301,7817411,,,,,,,2021-12-01,1,,,,,,0
1530,7010001222890,新規,0,2021-12-01,2021-12-01,株式会社Ｍｏｏｎ　Ｒｉｖｅｒ,,株式会社,東京都,中央区,銀座８丁目７番７号,,13,102,1040061,,,,,,,2021-12-01,1,,,,,ムーンリバー,0
1533,7010003036430,新規,0,2021-12-01,2021-12-01,フリーア合同会社,,合同会社,東京都,中央区,東日本橋２丁目２８番４号日本橋ＣＥＴビル２階,,13,102,1030004,,,,,,,2021-12-01,1,,,,,フリーア,0
1535,7010005034267,新規,0,2021-12-01,2021-12-01,一般社団法人占術心理学会,,その他の設立登記法人,東京都,中央区,日本橋馬喰町１丁目６－１４、５階,,13,102,1030002,,,,,,,2021-12-01,1,,,,,センジュツシンリガッカイ,0
1540,7010401163966,新規,0,2021-12-01,2021-12-01,株式会社Ｍｏｍｏ,,株式会社,東京都,港区,芝大門２丁目８－１５,,13,103,1050012,,,,,,,2021-12-01,1,,,,,モモ,0
1541,7010401164114,新規,0,2021-12-01,2021-12-01,空間工房株式会社,,株式会社,東京都,港区,芝大門２丁目９－８シャンデールビル２－Ｂ,,13,103,1050012,,,,,,,2021-12-01,1,,,,,クウカンコウボウ,0
1542,7010401164130,新規,0,2021-12-01,2021-12-01,株式会社ＡＹホールディングス,,株式会社,東京都,港区,赤坂２丁目８番２号赤坂たん熊ビル３階,,13,103,1070052,,,,,,,2021-12-01,1,,,,,エーワイホールディングス,0
1545,7010405020461,新規,0,2021-12-01,2021-12-01,一般社団法人日本マーケティング・インタビュアー協会,,その他の設立登記法人,東京都,港区,赤坂９丁目６番１１号,,13,103,1070052,,,,,,,2021-12-01,1,,,,,ニホンマーケティングインビュアーキョウカイ,0
1548,7010501048150,新規,0,2021-12-01,2021-12-01,ラミカル・ジャパン株式会社,,株式会社,東京都,台東区,入谷１丁目２１番４号入谷センチュリープラザ２１、２１１号室,,13,106,1100013,,,,,,,2021-12-01,1,,,,,ラミカルジャパン,0
1550,7010601060303,新規,0,2021-12-01,2021-12-01,Ｋアセット株式会社,,株式会社,東京都,江東区,亀戸６丁目３５番１６号,,13,108,1360071,,,,,,,2021-12-01,1,,,,,ケイアセット,0
1557,7010901049905,新規,0,2021-12-01,2021-12-01,株式会社ホットヒーヒージャパン,,株式会社,東京都,世田谷区,宇奈根３丁目１番８号－４,,13,112,1570068,,,,,,,2021-12-01,1,,,,,ホットヒーヒージャパン,0
1568,7011003013782,新規,0,2021-12-01,2021-12-01,ＳＴＵＤＩＯ　Ｘ合同会社,,合同会社,東京都,渋谷区,渋谷２丁目１９―１５宮益坂ビルディング６０９,,13,113,1500002,,,,,,,2021-12-01,1,,,,,スタジオエックス,0
1569,7011003013799,新規,0,2021-12-01,2021-12-01,アミー合同会社,,合同会社,東京都,渋谷区,桜丘町４番１４号,,13,113,1500031,,,,,,,2021-12-01,1,,,,,アミー,0
1572,7011101097083,新規,0,2021-12-01,2021-12-01,ｆｂｃ株式会社,,株式会社,東京都,新宿区,歌舞伎町２丁目１７番４号,,13,104,1600021,,,,,,,2021-12-01,1,,,,,,0
1579,7011303004234,新規,0,2021-12-01,2021-12-01,Ｓ星福Ｘ合同会社,,合同会社,東京都,杉並区,高円寺北２丁目１８番９号ベルテンポ１０３号,,13,115,1660002,,,,,,,2021-12-01,1,,,,,エスホシフクエクス,0
1582,7011405002177,新規,0,2021-12-01,2021-12-01,一般社団法人水と緑と命のネットワーク,,その他の設立登記法人,東京都,板橋区,赤塚新町３丁目１３番１２号,,13,119,1750093,,,,,,,2021-12-01,1,,,,,ミズトミドリトイノチノネットワーク,0
1585,7011701024874,新規,0,2021-12-01,2021-12-01,株式会社ＭＵＤＡＩ,,株式会社,東京都,江戸川区,松江７丁目２番１４号,,13,123,1320025,,,,,,,2021-12-01,1,,,,,ムダイ,0
1594,7013303005930,新規,0,2021-12-01,2021-12-01,合同会社ランプ,,合同会社,東京都,豊島区,目白４丁目３１番２２号Ｂ１,,13,116,1710031,,,,,,,2021-12-01,1,,,,,ランプ,0
1603,7021001074603,新規,0,2021-12-01,2021-12-01,株式会社笑うグループ,,株式会社,神奈川県,平塚市,横内３３６４番地の１８,,14,203,2540002,,,,,,,2021-12-01,1,,,,,ワラウグループ,0
1604,7021001074628,新規,0,2021-12-01,2021-12-01,ＥＲＡＡＲＫ　ＪＡＰＡＮ株式会社,,株式会社,神奈川県,相模原市南区,上鶴間本町６丁目２５番２号オークヒル相模大野２０１,,14,153,2520318,,,,,,,2021-12-01,1,,,,,エラァアークジャパン,0
1610,7021003011141,新規,0,2021-12-01,2021-12-01,合同会社如庵,,合同会社,神奈川県,海老名市,門沢橋３丁目６－２１,,14,215,2430426,,,,,,,2021-12-01,1,,,,,ジョアン,0
1627,7030003018410,新規,0,2021-12-01,2021-12-01,合同会社粟野商店,,合同会社,埼玉県,幸手市,大字幸手３５２４番地４,,11,240,3400113,,,,,,,2021-12-01,1,,,,,アワノショウテン,0
1628,7030003018419,新規,0,2021-12-01,2021-12-01,合同会社アサトラ,,合同会社,埼玉県,富士見市,鶴馬２丁目１４番４３号モンプティシュ１０２,,11,235,3540021,,,,,,,2021-12-01,1,,,,,アサトラ,0
1635,7040001121198,新規,0,2021-12-01,2021-12-01,ＴＯＰ　ＬＩＮＥ株式会社,,株式会社,千葉県,八街市,東吉田５６７－２グリーンハイツ２０３,,12,230,2891114,,,,,,,2021-12-01,1,,,,,トップライン,0
1638,7040003018979,新規,0,2021-12-01,2021-12-01,Ｍａｔｈｅｍａｔｉｃｉａｎ合同会社,,合同会社,千葉県,佐倉市,臼井１５０３番地２,,12,212,2850863,,,,,,,2021-12-01,1,,,,,マセマティシャン,0
1639,7040003019028,新規,0,2021-12-01,2021-12-01,合同会社ＮＴＹ,,合同会社,千葉県,柏市,東２丁目３番３９－３０３号,,12,217,2770014,,,,,,,2021-12-01,1,,,,,エヌティーワイ,0
1641,7050001050223,新規,0,2021-12-01,2021-12-01,株式会社ＹＳＲ,,株式会社,茨城県,つくば市,今泉１３０番地４,,08,220,3050855,,,,,,,2021-12-01,1,,,,,ワイエスアール,0
1646,7050003006231,新規,0,2021-12-01,2021-12-01,合同会社コンボイ,,合同会社,茨城県,神栖市,土合本町１丁目９０８２番１８,,08,232,3140343,,,,,,,2021-12-01,1,,,,,コンボイ,0
1671,7120001242168,新規,0,2021-12-01,2021-12-01,株式会社阿拉丁国際貿易,,株式会社,大阪府,大阪市中央区,北久宝寺町１丁目７番７－１０２号,,27,128,5410057,,,,,,,2021-12-01,1,,,,,アラディンコクサイボウエキ,0
1675,7120003020687,新規,0,2021-12-01,2021-12-01,Ｍｉｎｇｌｅ合同会社,,合同会社,大阪府,大阪市中央区,農人橋２丁目４番１３号,,27,128,5400011,,,,,,,2021-12-01,1,,,,,ミングル,0
1679,7120103004458,新規,0,2021-12-01,2021-12-01,合同会社リアルミー,,合同会社,大阪府,泉南郡岬町,深日２５６９番地の１,,27,366,5990303,,,,,,,2021-12-01,1,,,,,リアルミー,0
1682,7120901045182,新規,0,2021-12-01,2021-12-01,株式会社アシストケア,,株式会社,大阪府,豊中市,庄内西町３丁目１５番２号,,27,203,5610832,,,,,,,2021-12-01,1,,,,,アシストケア,0
1683,7120901045281,新規,0,2021-12-01,2021-12-01,株式会社セブンコーポレーション,,株式会社,大阪府,箕面市,船場東１丁目１０番９号箕面フレールビル１０１号,,27,220,5620035,,,,,,,2021-12-01,1,,,,,セブンコーポレーション,0
1685,7122001035386,新規,0,2021-12-01,2021-12-01,和光住宅株式会社,,株式会社,大阪府,八尾市,東山本新町１丁目１４番１号,,27,212,5810866,,,,,,,2021-12-01,1,,,,,ワコウジュウタク,0
1686,7122001035394,新規,0,2021-12-01,2021-12-01,雄株式会社,,株式会社,大阪府,東大阪市,稲葉３丁目１番３１号,,27,227,5780925,,,,,,,2021-12-01,1,,,,,ユウ,0
1700,7140005025906,新規,0,2021-12-01,2021-12-01,医療法人崇貴会,,その他の設立登記法人,兵庫県,尼崎市,西難波町４丁目５番２６号３階Ｃ区画,,28,202,6600893,,,,,,,2021-12-01,1,,,,,スウキカイ,0
1717,7180001148921,新規,0,2021-12-01,2021-12-01,株式会社ＡＲＳ,,株式会社,愛知県,名古屋市中区,正木２丁目３番５５号プレサンスロジェ金山１２０２号,,23,106,4600024,,,,,,,2021-12-01,1,,,,,アース,0
1730,7200001039465,新規,0,2021-12-01,2021-12-01,株式会社鶏の里ファーム・白鳥,,株式会社,岐阜県,郡上市,白鳥町恩地５６６番地,,21,219,5015115,,,,,,,2021-12-01,1,,,,,トリノサトファームシロトリ,0
1736,7230003001767,新規,0,2021-12-01,2021-12-01,合同会社ＮＡＲｕｍｉ,,合同会社,富山県,富山市,上大久保１７９番地５,,16,201,9392252,,,,,,,2021-12-01,1,,,,,ナルミ,0
1756,7290001095566,新規,0,2021-12-01,2021-12-01,株式会社Ｔｈｅ　Ｕｌｔｉｍａｔｅ　Ｔｒｕｔｈ,,株式会社,福岡県,福岡市博多区,博多駅前３丁目７番３５号博多ハイテックビル５０５号,,40,132,8120011,,,,,,,2021-12-01,1,,,,,ディアルティメットトゥルース,0
1757,7290001095582,新規,0,2021-12-01,2021-12-01,株式会社ＲＯＮ２,,株式会社,福岡県,福岡市中央区,天神２丁目６番３２号ジェムキャッスルサザン通り１階,,40,133,8100001,,,,,,,2021-12-01,1,,,,,ロンツー,0
1780,7360001029698,新規,0,2021-12-01,2021-12-01,株式会社琉球設計,,株式会社,沖縄県,那覇市,おもろまち１丁目１番２５－２２４号,,47,201,9000006,,,,,,,2021-12-01,1,,,,,リュウキュウセッケイ,0
1783,7370001047889,新規,0,2021-12-01,2021-12-01,株式会社シームレスファーマ,,株式会社,宮城県,角田市,角田字牛舘２０番地,,04,208,9811505,,,,,,,2021-12-01,1,,,,,シームレスファーマ,0
1788,7420001017663,新規,0,2021-12-01,2021-12-01,株式会社ＲＥＳＯＬＵＴＩＯＮ,,株式会社,青森県,十和田市,大字相坂字小林２５２番地１,,02,206,0340041,,,,,,,2021-12-01,1,,,,,リソリューション,0
1802,7500001023843,新規,0,2021-12-01,2021-12-01,株式会社家工房なつき,,株式会社,愛媛県,伊予郡砥部町,高尾田６８７番地１８,,38,402,7912101,,,,,,,2021-12-01,1,,,,,イエコウボウナツキ,0
1806,8010003036413,新規,0,2021-12-01,2021-12-01,ＢＰＭ合同会社,,合同会社,東京都,千代田区,神田錦町３丁目２１番地１２２２,,13,101,1010054,,,,,,,2021-12-01,1,,,,,ビーピーエム,0
1808,8010005034266,新規,0,2021-12-01,2021-12-01,弁護士法人オーシャン,,その他の設立登記法人,東京都,中央区,八丁堀２丁目２２番８号内外ビル５階,,13,102,1040032,,,,,,,2021-12-01,1,,,,,オーシャン,0
1809,8010005034274,新規,0,2021-12-01,2021-12-01,一般社団法人サポートホールディングス４２号,,その他の設立登記法人,東京都,千代田区,丸の内３丁目１番１号東京共同会計事務所内,,13,101,1000005,,,,,,,2021-12-01,1,,,,,サポートホールディングスヨンジュウニゴウ,0
1819,8010405020469,新規,0,2021-12-01,2021-12-01,一般社団法人トラノモンＰＥ３ＧＰ,,その他の設立登記法人,東京都,港区,虎ノ門３丁目２２番１０－２０１号,,13,103,1050001,,,,,,,2021-12-01,1,,,,,トラノモンピーイーサンジーピー,0
1822,8010601060302,新規,0,2021-12-01,2021-12-01,株式会社レジーナ,,株式会社,東京都,江東区,亀戸７丁目９番２－８０１号,,13,108,1360071,,,,,,,2021-12-01,1,,,,,レジーナ,0
1827,8010801032530,新規,0,2021-12-01,2021-12-01,株式会社奏,,株式会社,東京都,大田区,大森北４丁目２４番１０－１０２号,,13,111,1430016,,,,,,,2021-12-01,1,,,,,カナデ,0
1830,8010805002901,新規,0,2021-12-01,2021-12-01,一般社団法人国際ポートレート協会,,その他の設立登記法人,東京都,大田区,田園調布２丁目５２番７号Ｂ棟,,13,111,1450071,,,,,,,2021-12-01,1,,,,,コクサイポートレートキョウカイ,0
1836,8011001144281,新規,0,2021-12-01,2021-12-01,株式会社ＣＬＵＴＣＨ,,株式会社,東京都,目黒区,東山１丁目３番６号クレール東山２Ｆ,,13,110,1530043,,,,,,,2021-12-01,1,,,,,クラッチ,0
1837,8011001144298,新規,0,2021-12-01,2021-12-01,株式会社ＧＥＫＩ,,株式会社,東京都,目黒区,目黒２丁目１１番１０－７０３号,,13,110,1530063,,,,,,,2021-12-01,1,,,,,ゲキ,0
1856,8011703003009,新規,0,2021-12-01,2021-12-01,合同会社メロディーレーン,,合同会社,東京都,江戸川区,西小岩２丁目７番８号グランジュール小岩２０１号室,,13,123,1330057,,,,,,,2021-12-01,1,,,,,メロディーレーン,0
1859,8012401038593,新規,0,2021-12-01,2021-12-01,株式会社しばさき彩ケアステーション,,株式会社,東京都,調布市,柴崎１丁目６４－９,,13,208,1820014,,,,,,,2021-12-01,1,,,,,シバサキイロドリケアステーション,0
1872,8021001021959,新規,0,2021-12-01,2021-12-01,三友商事株式会社,,株式会社,神奈川県,伊勢原市,桜台１丁目２９番１２号,,14,214,2591132,,,,,,,2021-12-01,1,,,,,,0
1875,8021001074619,新規,0,2021-12-01,2021-12-01,株式会社アクアトレーディング,,株式会社,神奈川県,厚木市,上荻野１２８９番地１,,14,212,2430201,,,,,,,2021-12-01,1,,,,,アクアトレーディング,0
1876,8021003011140,新規,0,2021-12-01,2021-12-01,合同会社宝来,,合同会社,神奈川県,逗子市,久木４丁目１０番２２号アベニール１０１,,14,208,2490001,,,,,,,2021-12-01,1,,,,,ホウライ,0
1881,8030001145610,新規,0,2021-12-01,2021-12-01,株式会社Ｊ－ＢＯＸ,,株式会社,埼玉県,羽生市,南羽生２丁目１８番地２４,,11,216,3480071,,,,,,,2021-12-01,1,,,,,ジェーボックス,0
1887,8030003018418,新規,0,2021-12-01,2021-12-01,合同会社Ｅｒｉｎ,,合同会社,埼玉県,新座市,片山３丁目１３番１４号,,11,230,3520025,,,,,,,2021-12-01,1,,,,,エリン,0
1892,8040001121197,新規,0,2021-12-01,2021-12-01,株式会社ナカシマ,,株式会社,千葉県,柏市,酒井根６丁目１７番５号,,12,217,2770053,,,,,,,2021-12-01,1,,,,,ナカシマ,0
1899,8060003003887,新規,0,2021-12-01,2021-12-01,合同会社セルフーズ,,合同会社,栃木県,栃木市,大塚町３１５４番地,,09,203,3280007,,,,,,,2021-12-01,1,,,,,セルフーズ,0
1903,8080001024611,新規,0,2021-12-01,2021-12-01,株式会社ＲＥＶＯＸ,,株式会社,静岡県,静岡市清水区,半左衛門新田１３５番地の１,,22,103,4240056,,,,,,,2021-12-01,1,,,,,レボックス,0
1917,8110001036223,新規,0,2021-12-01,2021-12-01,Ｋｏｍａｔｓｕｙａ　Ｓｅｋｉ　Ｏｎｓｅｎ株式会社,,株式会社,新潟県,妙高市,大字関山６０８７番地１８,,15,217,9492235,,,,,,,2021-12-01,1,,,,,コマツヤセキオンセン,0
1932,8120001242101,新規,0,2021-12-01,2021-12-01,株式会社遠太,,株式会社,大阪府,大阪市中央区,高津３丁目８番１９号スター・レジデンス黒門８０２,,27,128,5420072,,,,,,,2021-12-01,1,,,,,エンタ,0
1933,8120001242150,新規,0,2021-12-01,2021-12-01,株式会社ａｖａｎｔｉ,,株式会社,大阪府,大阪市中央区,南久宝寺町１丁目７番１０号,,27,128,5410058,,,,,,,2021-12-01,1,,,,,アバンティ,0
1934,8120001242183,新規,0,2021-12-01,2021-12-01,ミカタコンサルティング株式会社,,株式会社,大阪府,大阪市北区,太融寺町３番２４号,,27,127,5300051,,,,,,,2021-12-01,1,,,,,ミカタコンサルティング,0
1935,8120001242200,新規,0,2021-12-01,2021-12-01,株式会社宝龍商事,,株式会社,大阪府,大阪市天王寺区,生玉町１２番１号,,27,109,5430071,,,,,,,2021-12-01,1,,,,,ホウリュウショウジ,0
1936,8120003020620,新規,0,2021-12-01,2021-12-01,合同会社ハナバタ,,合同会社,大阪府,大阪市中央区,内本町１丁目２番１３号谷四ばんらいビル,,27,128,5400026,,,,,,,2021-12-01,1,,,,,ハナバタ,0
1941,8120901045223,新規,0,2021-12-01,2021-12-01,株式会社Ｒｏｕｔｅ７１７,,株式会社,大阪府,箕面市,森町南１丁目５番２２号,,27,220,5630258,,,,,,,2021-12-01,1,,,,,ルートナナイチナナ,0
1942,8120901045280,新規,0,2021-12-01,2021-12-01,株式会社ｍｏｍｅｎｔ,,株式会社,大阪府,箕面市,西宿２丁目１２番１２－Ａ１２０３号,,27,220,5620034,,,,,,,2021-12-01,1,,,,,モメント,0
1943,8122001035393,新規,0,2021-12-01,2021-12-01,株式会社ＳＤ,,株式会社,大阪府,東大阪市,衣摺６丁目２番７号,,27,227,5770827,,,,,,,2021-12-01,1,,,,,エスディー,0
1948,8140005025905,新規,0,2021-12-01,2021-12-01,医療法人社団きたまちクリニック,,その他の設立登記法人,兵庫県,尼崎市,富松町４丁目８番２８号,,28,202,6610003,,,,,,,2021-12-01,1,,,,,キタマチクリニック,0
1956,8180001148912,新規,0,2021-12-01,2021-12-01,株式会社ＭＯＲＥ　ｉｎｎｏｖａｔｉｏｎ,,株式会社,愛知県,名古屋市中区,丸の内２丁目１２番１３号,,23,106,4600002,,,,,,,2021-12-01,1,,,,,モアイノベーション,0
1957,8180001148929,新規,0,2021-12-01,2021-12-01,株式会社ＷＥ,,株式会社,愛知県,名古屋市昭和区,北山町３丁目３３番地３,,23,107,4660006,,,,,,,2021-12-01,1,,,,,ダブルイー,0
1963,8180003023221,新規,0,2021-12-01,2021-12-01,合同会社Ｃｏｐｒｉｆｅ,,合同会社,愛知県,名古屋市北区,山田町１丁目４－４６五番街ビル６Ｆ,,23,103,4620813,,,,,,,2021-12-01,1,,,,,クープライフ,0
1966,8180301035678,新規,0,2021-12-01,2021-12-01,株式会社ａｔ,,株式会社,愛知県,岡崎市,大門３丁目２０番地１１,,23,202,4442135,,,,,,,2021-12-01,1,,,,,アット,0
1973,8200001039472,新規,0,2021-12-01,2021-12-01,ライフヴィークル株式会社,,株式会社,岐阜県,関市,小瀬１６９０番地２,,21,205,5013265,,,,,,,2021-12-01,1,,,,,ライフヴィークル,0
1975,8240001058997,新規,0,2021-12-01,2021-12-01,株式会社栗川企画,,株式会社,広島県,福山市,川口町３丁目１０番２３－６号,,34,207,7200822,,,,,,,2021-12-01,1,,,,,クリカワキカク,0
1980,8280002012132,新規,0,2021-12-01,2021-12-01,有限会社常盤商事,,有限会社,島根県,出雲市,佐田町一窪田３７１番地,,32,203,6930522,,,,,,,2021-12-01,1,,,,,トキワショウジ,0
1994,8330001029238,新規,0,2021-12-01,2021-12-01,株式会社プライマリー,,株式会社,熊本県,天草市,魚貫町１６３６番地,,43,215,8631721,,,,,,,2021-12-01,1,,,,,プライマリー,0
2001,8360001029697,新規,0,2021-12-01,2021-12-01,株式会社ＳＬＩＮＫＹ,,株式会社,沖縄県,宜野湾市,大謝名３丁目３番７－４０３号Ｓｔａｒｔｈｅｒａ,,47,205,9012225,,,,,,,2021-12-01,1,,,,,スリンキー,0
2002,8360003011604,新規,0,2021-12-01,2021-12-01,合同会社ｗｉｔｈ,,合同会社,沖縄県,島尻郡与那原町,字板良敷１３１０番地の１ＫＫマンション１０１,,47,348,9011301,,,,,,,2021-12-01,1,,,,,ウィズ,0
2015,8460001005630,新規,0,2021-12-01,2021-12-01,株式会社シーワーク,,株式会社,北海道,釧路市,星が浦南３丁目５番１９号,,01,206,0840913,,,,,,,2021-12-01,1,,,,,シーワーク,0
2026,9010001222864,新規,0,2021-12-01,2021-12-01,プロベース株式会社,,株式会社,東京都,中央区,銀座２丁目１３番１１－７０８号,,13,102,1040061,,,,,,,2021-12-01,1,,,,,プロベース,0
2027,9010001222889,新規,0,2021-12-01,2021-12-01,株式会社シミズ,,株式会社,東京都,中央区,銀座６丁目６番１号銀座風月堂ビル５階,,13,102,1040061,,,,,,,2021-12-01,1,,,,,シミズ,0
2028,9010001222914,新規,0,2021-12-01,2021-12-01,株式会社花心,,株式会社,東京都,中央区,日本橋２丁目２－１５テイトビル５Ｆ,,13,102,1030027,,,,,,,2021-12-01,1,,,,,,0
2029,9010001222930,新規,0,2021-12-01,2021-12-01,株式会社Ｂｒｉｇｈｔｅｒ　Ｈｕｒｄｌｅｒ,,株式会社,東京都,中央区,日本橋浜町２丁目２６番８,,13,102,1030007,,,,,,,2021-12-01,1,,,,,ブライターハードラー,0
2032,9010003036429,新規,0,2021-12-01,2021-12-01,ＮＲ合同会社,,合同会社,東京都,中央区,明石町７－２０－５０４,,13,102,1040044,,,,,,,2021-12-01,1,,,,,エヌアール,0
2033,9010003036437,新規,0,2021-12-01,2021-12-01,合同会社サポート４２号,,合同会社,東京都,千代田区,丸の内３丁目１番１号東京共同会計事務所内,,13,101,1000005,,,,,,,2021-12-01,1,,,,,サポートヨンジュウニゴウ,0
2034,9010003036445,新規,0,2021-12-01,2021-12-01,合同会社ｅｍｐｔｙ,,合同会社,東京都,中央区,東日本橋２丁目２８番４号日本橋ＣＥＴビル２階,,13,102,1030004,,,,,,,2021-12-01,1,,,,,エンプティ,0
2036,9010005034273,新規,0,2021-12-01,2021-12-01,ＲＢソーラーオリオンホールディングス一般社団法人,,その他の設立登記法人,東京都,中央区,八丁堀４丁目２番１０号ＡＯＪ税理士法人内,,13,102,1040032,,,,,,,2021-12-01,1,,,,,アールビーソーラーオリオンホールディングス,0
2042,9010401164062,新規,0,2021-12-01,2021-12-01,株式会社ｇａｎａｄｏｒ,,株式会社,東京都,港区,六本木４丁目８番７号六本木嶋田ビル５階,,13,103,1060032,,,,,,,2021-12-01,1,,,,,,0
2043,9010401164070,新規,0,2021-12-01,2021-12-01,株式会社ＧＩＧ－Ａ,,株式会社,東京都,港区,虎ノ門３丁目７－５虎ノ門Ｒｏｏｔｓ２１ビル１階黒鳥社内,,13,103,1050001,,,,,,,2021-12-01,1,,,,,ギガー,0
2044,9010401164129,新規,0,2021-12-01,2021-12-01,株式会社落合宏理デザイン事務所,,株式会社,東京都,港区,南青山５丁目４番３０号,,13,103,1070062,,,,,,,2021-12-01,1,,,,,オチアイヒロミチデザインジムショ,0
2045,9010401164137,新規,0,2021-12-01,2021-12-01,アリス・ジャパン株式会社,,株式会社,東京都,港区,港南２丁目１６番１号品川イーストワンタワー２１階,,13,103,1080075,,,,,,,2021-12-01,1,,,,,アリスジャパン,0
2049,9010503006443,新規,0,2021-12-01,2021-12-01,モメンツ合同会社,,合同会社,東京都,台東区,小島２丁目２０番１１号,,13,106,1110056,,,,,,,2021-12-01,1,,,,,モメンツ,0
2051,9010601060301,新規,0,2021-12-01,2021-12-01,株式会社ＬＩＦＩＸ,,株式会社,東京都,江東区,豊洲３丁目６－８－２１１３,,13,108,1350061,,,,,,,2021-12-01,1,,,,,リフィックス,0
2052,9010701041853,新規,0,2021-12-01,2021-12-01,株式会社食オク,,株式会社,東京都,品川区,大崎１丁目１番１号ル・サンク大崎シティタワー２３０５,,13,109,1410032,,,,,,,2021-12-01,1,,,,,ショクオク,0
2060,9010901049894,新規,0,2021-12-01,2021-12-01,小田製薬株式会社,,株式会社,東京都,世田谷区,世田谷１丁目４１番２号,,13,112,1540017,,,,,,,2021-12-01,1,,,,,,0
2066,9011001144256,新規,0,2021-12-01,2021-12-01,株式会社ＨＩＢＩＫＩ,,株式会社,東京都,目黒区,中目黒３丁目６－３０－６０１号,,13,110,1530061,,,,,,,2021-12-01,1,,,,,ヒビキ,0
2069,9011005009323,新規,0,2021-12-01,2021-12-01,一般社団法人日本バストアップサロン協会,,その他の設立登記法人,東京都,渋谷区,鉢山町１０番１４号,,13,113,1500035,,,,,,,2021-12-01,1,,,,,ニホンバストアップサロンキョウカイ,0
2077,9011203003706,新規,0,2021-12-01,2021-12-01,Ｃｏｕ－ｌｅｕｒ合同会社,,合同会社,東京都,中野区,中央４丁目６番７－７０７号,,13,114,1640011,,,,,,,2021-12-01,1,,,,,クールール,0
2079,9011403003514,新規,0,2021-12-01,2021-12-01,合同会社スレッチ,,合同会社,東京都,板橋区,南常盤台１丁目１１番６号レフア南常盤台１０１号室,,13,119,1740072,,,,,,,2021-12-01,1,,,,,スレッチ,0
2086,9013103001095,新規,0,2021-12-01,2021-12-01,合同会社ＳＭＲ２,,合同会社,東京都,羽村市,羽中１丁目１番６号,,13,227,2050015,,,,,,,2021-12-01,1,,,,,エスエムアールツー,0
2093,9013301048351,新規,0,2021-12-01,2021-12-01,株式会社Ｆｒｅｅｚｅ　Ｍｏｏｎ,,株式会社,東京都,豊島区,東池袋１丁目１７番１１号パークハイツ池袋１１０５号,,13,116,1700013,,,,,,,2021-12-01,1,,,,,フリーズムーン,0
2094,9013303005929,新規,0,2021-12-01,2021-12-01,合同会社チェンジス,,合同会社,東京都,豊島区,目白４丁目３１番２２号Ｂ１,,13,116,1710031,,,,,,,2021-12-01,1,,,,,チェンジス,0
2101,9020001144117,新規,0,2021-12-01,2021-12-01,イッカク・トチモア株式会社,,株式会社,神奈川県,横浜市神奈川区,鶴屋町３丁目３２－１６トリウミビル３Ｆ３０２号室,,14,102,2210835,,,,,,,2021-12-01,1,,,,,イッカクトチモア,0
2102,9020001144125,新規,0,2021-12-01,2021-12-01,株式会社Ｅｍｉｌｉａ,,株式会社,神奈川県,横浜市都筑区,中川中央１丁目３０番１号３Ｆ,,14,118,2240003,,,,,,,2021-12-01,1,,,,,エミリア,0
2103,9020001144141,新規,0,2021-12-01,2021-12-01,株式会社アベシス,,株式会社,神奈川県,横浜市鶴見区,諏訪坂１８－１０,,14,101,2300014,,,,,,,2021-12-01,1,,,,,アベシス,0
2108,9020003020902,新規,0,2021-12-01,2021-12-01,輝合同会社,,合同会社,神奈川県,横浜市港北区,篠原町１５５８－３６,,14,109,2220026,,,,,,,2021-12-01,1,,,,,カガヤク,0
2109,9020003020919,新規,0,2021-12-01,2021-12-01,合同会社アドリーチ,,合同会社,神奈川県,横浜市中区,山下町１０８番地小黒ビル２０３,,14,104,2310023,,,,,,,2021-12-01,1,,,,,アドリーチ,0
2110,9021001074626,新規,0,2021-12-01,2021-12-01,ＧＲＴ株式会社,,株式会社,神奈川県,藤沢市,羽鳥１丁目１番１３号,,14,205,2510056,,,,,,,2021-12-01,1,,,,,ジーアールティー,0
2118,9030001145584,新規,0,2021-12-01,2021-12-01,株式会社Ｊ＆Ｃフードプラス,,株式会社,埼玉県,蕨市,塚越７丁目３３番５号,,11,223,3350002,,,,,,,2021-12-01,1,,,,,ジェーアンドシーフードプラス,0
2119,9030001145592,新規,0,2021-12-01,2021-12-01,ＫＵＢＯＴＡ株式会社,,株式会社,埼玉県,川越市,通町１１番地７サンクレイドル川越３０２号室,,11,201,3500044,,,,,,,2021-12-01,1,,,,,クボタ,0
2120,9030001145618,新規,0,2021-12-01,2021-12-01,株式会社Ｙ’ｓ　ｗｏｒｋｓ,,株式会社,埼玉県,春日部市,武里中野３１０番地８,,11,214,3440026,,,,,,,2021-12-01,1,,,,,ワイズワークス,0
2124,9030003018417,新規,0,2021-12-01,2021-12-01,合同会社絆,,合同会社,埼玉県,草加市,八幡町１２８７番地５Ｐｏｒｔａｓｏｌｅ－２０１号,,11,221,3400006,,,,,,,2021-12-01,1,,,,,キズナ,0
2125,9030005020643,新規,0,2021-12-01,2021-12-01,一般社団法人楓会,,その他の設立登記法人,埼玉県,狭山市,新狭山３丁目１番地１,,11,215,3501331,,,,,,,2021-12-01,1,,,,,カエデカイ,0
2136,9040001121196,新規,0,2021-12-01,2021-12-01,株式会社優品テクノロジー,,株式会社,千葉県,船橋市,海神町南１丁目１６４２ルモン西船橋１０４,,12,204,2730024,,,,,,,2021-12-01,1,,,,,ユウヒンテクノロジー,0
2139,9040003019026,新規,0,2021-12-01,2021-12-01,アカウンティングサービス合同会社,,合同会社,千葉県,松戸市,常盤平双葉町１４番地の５２,,12,207,2702262,,,,,,,2021-12-01,1,,,,,アカウンティングサービス,0
2140,9040003019034,新規,0,2021-12-01,2021-12-01,合同会社Ｋｒトラスト,,合同会社,千葉県,野田市,中野台６７番地の５,,12,208,2780035,,,,,,,2021-12-01,1,,,,,ケーアールトラスト,0
2143,9050001050221,新規,0,2021-12-01,2021-12-01,マルソウ株式会社,,株式会社,茨城県,神栖市,太田１９７８番地３２,,08,232,3140254,,,,,,,2021-12-01,1,,,,,マルソウ,0
2145,9060003003886,新規,0,2021-12-01,2021-12-01,合同会社ミナトヘルスプランニング,,合同会社,栃木県,那須塩原市,北弥六４１６番地５０,,09,213,3293132,,,,,,,2021-12-01,1,,,,,ミナトヘルスプランニング,0
2147,9070001038702,新規,0,2021-12-01,2021-12-01,株式会社ミサリ,,株式会社,群馬県,安中市,中後閑２０３番地,,10,211,3790107,,,,,,,2021-12-01,1,,,,,ミサリ,0
2150,9080101022943,新規,0,2021-12-01,2021-12-01,帝翁メディカルグループ株式会社,,株式会社,静岡県,御殿場市,神馬二丁目３１、３Ｆ,,22,215,4120000,,,,,,,2021-12-01,1,,,,,テイオウメディカルグループ,0
2151,9080105006199,新規,0,2021-12-01,2021-12-01,一般社団法人柴のしっぽ企画,,その他の設立登記法人,静岡県,駿東郡小山町,生土３番地の１,,22,344,4101303,,,,,,,2021-12-01,1,,,,,シバノシッポキカク,0
2170,9120001242174,新規,0,2021-12-01,2021-12-01,ＶＡＮＡＴＡ株式会社,,株式会社,大阪府,大阪市平野区,平野西１丁目６番１８号,,27,126,5470033,,,,,,,2021-12-01,1,,,,,ヴァナタ,0
2171,9120001242182,新規,0,2021-12-01,2021-12-01,株式会社アイキョウ,,株式会社,大阪府,大阪市東住吉区,田辺３丁目７番１６－１４０１号,,27,121,5460031,,,,,,,2021-12-01,1,,,,,アイキョウ,0
2196,9140005025904,新規,0,2021-12-01,2021-12-01,医療法人礼生会,,その他の設立登記法人,兵庫県,神戸市中央区,東川崎町１丁目８番１号プロメナ神戸４階,,28,110,6500044,,,,,,,2021-12-01,1,,,,,レイセイカイ,0
2197,9140005025912,新規,0,2021-12-01,2021-12-01,医療法人勢和会,,その他の設立登記法人,兵庫県,南あわじ市,榎列小榎列３７番地,,28,224,6560425,,,,,,,2021-12-01,1,,,,,セイワカイ,0
2202,9170001016879,新規,0,2021-12-01,2021-12-01,株式会社ａｏ,,株式会社,和歌山県,和歌山市,北ノ新地１丁目９番地,,30,201,6408355,,,,,,,2021-12-01,1,,,,,エーオー,0
2207,9180001148928,新規,0,2021-12-01,2021-12-01,株式会社ＥＸＩＴ,,株式会社,愛知県,春日井市,松河戸町４丁目１６番地１メゾン道風公園１０１号,,23,206,4860932,,,,,,,2021-12-01,1,,,,,エグジット,0
2210,9180003023237,新規,0,2021-12-01,2021-12-01,合資会社エフォール・レーヴ,,合資会社,愛知県,名古屋市中村区,野田町字中深２２番地１,,23,105,4530858,,,,,,,2021-12-01,1,,,,,エフォールレーヴ,0
2214,9180303005182,新規,0,2021-12-01,2021-12-01,予楽合同会社,,合同会社,愛知県,西尾市,八ツ面町八反田２０番地１,,23,213,4450082,,,,,,,2021-12-01,1,,,,,ヨラク,0
2218,9190005011651,新規,0,2021-12-01,2021-12-01,特定非営利活動法人日本福祉支援機構,,その他の設立登記法人,三重県,津市,高茶屋小森上野町字大新田１２９５番地２アンアンＡ棟１Ｃ号,,24,201,5140816,,,,,,,2021-12-01,1,,,,,ニホンフクシシエンキコウ,0
2225,9200005013282,新規,0,2021-12-01,2021-12-01,医療法人令明会,,その他の設立登記法人,岐阜県,岐阜市,前一色西町４番１,,21,201,5008231,,,,,,,2021-12-01,1,,,,,レイメイカイ,0
2231,9240003005385,新規,0,2021-12-01,2021-12-01,ＳＵＧＧＯｉ合同会社,,合同会社,広島県,広島市中区,胡町２番１４号,,34,101,7300021,,,,,,,2021-12-01,1,,,,,スッゴイ,0
2238,9260001036257,新規,0,2021-12-01,2021-12-01,МＩＣツアーコーポレーション株式会社,,株式会社,岡山県,岡山市南区,東畦６５番地７８,,33,104,7010211,,,,,,,2021-12-01,1,,,,,ミックツアーコーポレーション,0
2243,9290005018439,新規,0,2021-12-01,2021-12-01,司法書士法人稲吉・品川合同事務所,,その他の設立登記法人,福岡県,久留米市,城南町１６番地１２,,40,203,8300022,,,,,,,2021-12-01,1,,,,,イナヨシシナガワゴウドウジムショ,0
2249,9310001017607,新規,0,2021-12-01,2021-12-01,株式会社Ｌｉｌｙ不動産,,株式会社,長崎県,佐世保市,吉井町直谷１８番地３２,,42,202,8596305,,,,,,,2021-12-01,1,,,,,リリーフドウサン,0
2250,9310003004223,新規,0,2021-12-01,2021-12-01,合同会社ほほえみ,,合同会社,長崎県,長崎市,宿町６５７番地市営アパート１５棟３０４号,,42,201,8510121,,,,,,,2021-12-01,1,,,,,ホホエミ,0
2253,9330001029237,新規,0,2021-12-01,2021-12-01,株式会社ＳｔａｐｌｅＢｉｏ,,株式会社,熊本県,熊本市中央区,黒髪２丁目３９番１号,,43,101,8600862,,,,,,,2021-12-01,1,,,,,ステープルバイオ,0
2255,9360003011603,新規,0,2021-12-01,2021-12-01,合同会社ナチュラルライフ,,合同会社,沖縄県,豊見城市,字豊見城１３６番地１階,,47,212,9010241,,,,,,,2021-12-01,1,,,,,,0
2256,9370001047887,新規,0,2021-12-01,2021-12-01,株式会社楽日,,株式会社,宮城県,仙台市太白区,向山３丁目２０番１６号,,04,104,9820841,,,,,,,2021-12-01,1,,,,,ガクビ,0
2267,9430005014332,新規,0,2021-12-01,2021-12-01,一般財団法人ＳＱ,,その他の設立登記法人,北海道,札幌市中央区,南一条西１２丁目４番地扶洋第一ビル,,01,101,0600061,,,,,,,2021-12-01,1,,,,,エスキュー,0
2274,9700150106039,新規,0,2021-12-01,2021-12-01,ＣＨＡＴＨＵＭＩＮＩ　ＥＮＴＥＲＰＲＩＳＥＳ,,外国会社等,千葉県,千葉市若葉区,金親町５００番地３ビジネスオフィス２５号,,12,104,2640001,スリランカ民主社会主義共和国、デルゴダ、ゴルンマハラ、１６１－２,,,,,,2021-12-01,1,,,,,チヤトウミニエンタープライセス,0
