sequenceNumber,corporateNumber,process,correct,updateDate,changeDate,name,nameImageId,kind,prefectureName,cityName,streetNumber,addressImageId,prefectureCode,cityCode,postCode,addressOutside,addressOutsideImageId,closeDate,closeCause,successorCorporateNumber,changeCause,assignmentDate,latest,enName,enPrefectureName,enCityName,enAddressOutside,furigana,hihyoji
5,1010001240452,新規,0,2023-12-01,2023-12-01,山佐産業ＣＭ１リース株式会社,,株式会社,東京都,千代田区,丸の内３丁目１番１号東京共同会計事務所内,,13,101,1000005,,,,,,,2023-12-01,1,,,,,ヤマササンギョウシーエムワンリース,0
10,1010401178813,新規,0,2023-12-01,2023-12-01,株式会社ｕｎｅｄｉｔｉｏｎ,,株式会社,東京都,港区,北青山１丁目３番１号アールキューブ青山３階,,13,103,1070061,,,,,,,2023-12-01,1,,,,,アンエディション,0
11,1010401178854,新規,0,2023-12-01,2023-12-01,株式会社スマイルパーム,,株式会社,東京都,港区,北青山２丁目７番１３号プラセオ青山ビル３階,,13,103,1070061,,,,,,,2023-12-01,1,,,,,スマイルパーム,0
13,1010403031474,新規,0,2023-12-01,2023-12-01,Ｃｌｉｆｔｏｎ　Ｈｉｌｌ合同会社,,合同会社,東京都,港区,南青山３丁目１番３６号６Ｆ,,13,103,1070062,,,,,,,2023-12-01,1,,,,,クリフトンヒル,0
14,1010403031482,新規,0,2023-12-01,2023-12-01,合同会社阿賀町バイオマス発電所,,合同会社,東京都,港区,浜松町１丁目１番１０号,,13,103,1050013,,,,,,,2023-12-01,1,,,,,アガマチバイオマスハツデンショ,0
15,1010405022744,新規,0,2023-12-01,2023-12-01,一般社団法人キャリアコーチング協会,,その他の設立登記法人,東京都,港区,虎ノ門４丁目１番１号,,13,103,1050001,,,,,,,2023-12-01,1,,,,,キャリアコーチングキョウカイ,0
17,1010501051440,新規,0,2023-12-01,2023-12-01,株式会社明悦,,株式会社,東京都,台東区,上野６丁目７－１６川久保ビル７０７号,,13,106,1100005,,,,,,,2023-12-01,1,,,,,メイエツ,0
18,1010501051449,新規,0,2023-12-01,2023-12-01,株式会社ＰｒｉｍｅＰｉｃｋｓ　Ｔｏｋｙｏ,,株式会社,東京都,台東区,東上野１丁目１３番２号,,13,106,1100015,,,,,,,2023-12-01,1,,,,,プライムピックストーキョー,0
32,1011001158552,新規,0,2023-12-01,2023-12-01,株式会社Ｓアーク,,株式会社,東京都,目黒区,東山１丁目２２番６号,,13,110,1530043,,,,,,,2023-12-01,1,,,,,エスアーク,0
33,1011001158560,新規,0,2023-12-01,2023-12-01,ＳＭＬ株式会社,,株式会社,東京都,渋谷区,東２丁目２０番１３－２１７号,,13,113,1500011,,,,,,,2023-12-01,1,,,,,エスエムエル,0
35,1011003018028,新規,0,2023-12-01,2023-12-01,合同会社グーチョキパー,,合同会社,東京都,目黒区,上目黒５丁目２４番２号ＴＥＲＲＡＣＥＹ’Ｓ－１０１,,13,110,1530051,,,,,,,2023-12-01,1,,,,,グーチョキパー,0
45,1011501030062,新規,0,2023-12-01,2023-12-01,桃山株式会社,,株式会社,東京都,荒川区,東尾久４丁目２７番８号,,13,118,1160012,,,,,,,2023-12-01,1,,,,,モモヤマ,0
46,1011601027339,新規,0,2023-12-01,2023-12-01,株式会社Ｃａｌｌａ,,株式会社,東京都,練馬区,光が丘３丁目８番１２－６０５号,,13,120,1790072,,,,,,,2023-12-01,1,,,,,カラー,0
50,1011701026819,新規,0,2023-12-01,2023-12-01,株式会社さくらＴＳＹ,,株式会社,東京都,江戸川区,松江５丁目１８番２３－３０１号,,13,123,1320025,,,,,,,2023-12-01,1,,,,,サクラティーエスワイ,0
52,1012301013686,新規,0,2023-12-01,2023-12-01,株式会社Ｔｏｐ　Ｏｎｅ　Ｊａｐａｎ,,株式会社,東京都,町田市,山崎町１０８９－１２,,13,209,1950074,,,,,,,2023-12-01,1,,,,,トップワンジャパン,0
53,1012401041281,新規,0,2023-12-01,2023-12-01,株式会社ヒアーリンク,,株式会社,東京都,三鷹市,下連雀６丁目６番８号,,13,204,1810013,,,,,,,2023-12-01,1,,,,,ヒアーリンク,0
68,1020001154684,新規,0,2023-12-01,2023-12-01,株式会社勇美,,株式会社,神奈川県,横浜市磯子区,久木町六丁目１４番地,,14,107,2350015,,,,,,,2023-12-01,1,,,,,ユウビ,0
69,1020001154692,新規,0,2023-12-01,2023-12-01,ＤＴ　ＧＲＯＵＰ国際貿易株式会社,,株式会社,神奈川県,横浜市鶴見区,梶山１丁目５番７－１０３号,,14,101,2300072,,,,,,,2023-12-01,1,,,,,ディーティーグループコクサイボウエキ,0
70,1020001154718,新規,0,2023-12-01,2023-12-01,Ｃｉｔｙ　Ｌｉｇｈｔｓ株式会社,,株式会社,神奈川県,横浜市港南区,最戸２丁目８番３１－３０９号,,14,111,2330008,,,,,,,2023-12-01,1,,,,,シティライツ,0
73,1020003025082,新規,0,2023-12-01,2023-12-01,ＬＩＳＴ　ＦＡＲＭ合同会社,,合同会社,神奈川県,横浜市中区,尾上町４丁目４７番地,,14,104,2310015,,,,,,,2023-12-01,1,,,,,,0
74,1020003025099,新規,0,2023-12-01,2023-12-01,合同会社横浜ビジネス研究所,,合同会社,神奈川県,横浜市鶴見区,獅子ケ谷１丁目３２番３６号,,14,101,2300073,,,,,,,2023-12-01,1,,,,,ヨコハマビジネスケンキュウジョ,0
75,1021001080854,新規,0,2023-12-01,2023-12-01,株式会社ベルフォーレ,,株式会社,神奈川県,藤沢市,並木台２丁目１９番地の３ヴィシュランティ１０３号,,14,205,2510005,,,,,,,2023-12-01,1,,,,,ベルフォーレ,0
87,1030001157315,新規,0,2023-12-01,2023-12-01,職人メディア株式会社,,株式会社,埼玉県,越谷市,東越谷１丁目５－９,,11,222,3430023,,,,,,,2023-12-01,1,,,,,ショクニンメディア,0
88,1030001157406,新規,0,2023-12-01,2023-12-01,株式会社幸和建装,,株式会社,埼玉県,朝霞市,本町２丁目４番６号トモエレジデンス１０２,,11,227,3510011,,,,,,,2023-12-01,1,,,,,コウワケンソウ,0
89,1030001157447,新規,0,2023-12-01,2023-12-01,株式会社ヘプタグラム,,株式会社,埼玉県,三郷市,彦糸１丁目１８番地２,,11,237,3410001,,,,,,,2023-12-01,1,,,,,ヘプタグラム,0
91,1030003023102,新規,0,2023-12-01,2023-12-01,Ｌｉｔｏｎ合同会社,,合同会社,埼玉県,さいたま市南区,白幡５丁目１６番２２－１００３号,,11,108,3360022,,,,,,,2023-12-01,1,,,,,ライトン,0
95,1040001131178,新規,0,2023-12-01,2023-12-01,株式会社ＥＳＬ,,株式会社,千葉県,千葉市中央区,新宿２丁目７番５号ＤＣ．ＦＯＲＴ千葉中央９０３号,,12,101,2600021,,,,,,,2023-12-01,1,,,,,イーエスエル,0
119,1080405007598,新規,0,2023-12-01,2023-12-01,一般社団法人日本ＷｉｎｇＦｏｉｌ協会,,その他の設立登記法人,静岡県,浜松市西区,舘山寺町２２７７番２号,,22,133,4311209,,,,,,,2023-12-01,1,,,,,ニホンウイングフォイルキョウカイ,0
125,1110001038003,新規,0,2023-12-01,2023-12-01,辰起商事株式会社,,株式会社,新潟県,新潟市西区,五十嵐東１丁目４番７５号,,15,107,9502045,,,,,,,2023-12-01,1,,,,,タツキショウジ,0
126,1110003005224,新規,0,2023-12-01,2023-12-01,ＨＵＭＡＮＩＴＹＤＥＳＩＧＮＬＡＢ合同会社,,合同会社,新潟県,長岡市,渡里町４－１６ＳＴＵＤＩＯ、ＷＡＴＡＲＩＭＡＣＨＩ、４１６、２０１号室,,15,202,9400075,,,,,,,2023-12-01,1,,,,,ヒューマニティデザインラボ,0
137,1120001260282,新規,0,2023-12-01,2023-12-01,正野株式会社,,株式会社,大阪府,大阪市浪速区,下寺３丁目１－１４エクレール夕陽ケ丘５号２１０室,,27,111,5560001,,,,,,,2023-12-01,1,,,,,ショウノ,0
142,1120005024023,新規,0,2023-12-01,2023-12-01,一般社団法人アンリミテッド事業推進協会,,その他の設立登記法人,大阪府,大阪市西区,阿波座１丁目６番１号,,27,106,5500011,,,,,,,2023-12-01,1,,,,,アンリミテッドジギョウスイシンキョウカイ,0
159,1140001132521,新規,0,2023-12-01,2023-12-01,株式会社アシスト,,株式会社,兵庫県,神戸市西区,小山３丁目７番１号,,28,111,6512144,,,,,,,2023-12-01,1,,,,,アシスト,0
162,1150005009525,新規,0,2023-12-01,2023-12-01,特定非営利活動法人子育て家庭保育看護協会,,その他の設立登記法人,奈良県,香芝市,瓦口２０６９番地３スペチアーレ五位堂ＩＩ－Ｑ号室,00132854,29,210,6390225,,,,,,,2023-12-01,1,,,,,コソダテカテイホイクカンゴキョウカイ,0
167,1180001159107,新規,0,2023-12-01,2023-12-01,株式会社後藤,,株式会社,愛知県,津島市,大字津島字北新開１９８番地,,23,208,4960027,,,,,,,2023-12-01,1,,,,,ゴトウ,0
172,1180005020438,新規,0,2023-12-01,2023-12-01,一般社団法人康友会,,その他の設立登記法人,愛知県,名古屋市北区,東味鋺２丁目２３１４番４,,23,103,4620013,,,,,,,2023-12-01,1,,,,,コウユウカイ,0
174,1180301038068,新規,0,2023-12-01,2023-12-01,株式会社喜壬枝,,株式会社,愛知県,豊川市,諏訪４丁目２５７番地,,23,207,4420068,,,,,,,2023-12-01,1,,,,,キミエ,0
177,1180303005917,新規,0,2023-12-01,2023-12-01,合同会社アハマドトレーディング,,合同会社,愛知県,豊田市,扶桑町４丁目５１番地,,23,211,4710009,,,,,,,2023-12-01,1,,,,,アハマドトレーディング,0
185,1240001062477,新規,0,2023-12-01,2023-12-01,株式会社ヨロズ,,株式会社,広島県,安芸郡府中町,瀬戸ハイム３丁目９番地１６号,,34,302,7350011,,,,,,,2023-12-01,1,,,,,ヨロズ,0
186,1240001062485,新規,0,2023-12-01,2023-12-01,来光株式会社,,株式会社,広島県,広島市中区,本川町３丁目１番５号,,34,101,7300802,,,,,,,2023-12-01,1,,,,,ライコウ,0
188,1240003006432,新規,0,2023-12-01,2023-12-01,合同会社未来ＧＡＴＥ,,合同会社,広島県,広島市安佐南区,古市１丁目３０番１０号裕紀マンション１Ｆ,,34,105,7310123,,,,,,,2023-12-01,1,,,,,ミライゲート,0
192,1280002004276,新規,0,2023-12-01,2023-12-01,有限会社アステールおかむら松江,,有限会社,島根県,松江市,堂形町８２７番地２,,32,201,6900851,,,,,,,2023-12-01,1,,,,,アステールオカムラマツエ,0
205,1330001031522,新規,0,2023-12-01,2023-12-01,ＤＲＵＮＫ株式会社,,株式会社,熊本県,熊本市南区,平成２丁目５番１１号ＤＫビル,,43,104,8600833,,,,,,,2023-12-01,1,,,,,ドランク,0
206,1330001031530,新規,0,2023-12-01,2023-12-01,株式会社Ｃａｙｏｎｃｅ,,株式会社,熊本県,熊本市中央区,南熊本４丁目６番１３号,,43,101,8600812,,,,,,,2023-12-01,1,,,,,カヨンセ,0
218,1370001050683,新規,0,2023-12-01,2023-12-01,株式会社四季,,株式会社,宮城県,仙台市青葉区,本町２丁目１０番５号第七太田ビル５Ｆ,,04,101,9800014,,,,,,,2023-12-01,1,,,,,シキ,0
224,1430001090558,新規,0,2023-12-01,2023-12-01,株式会社ＲＳＫＧＯＡＴ,,株式会社,北海道,札幌市中央区,南二条東２丁目７番地１ビルセススクエア大通２階,,01,101,0600052,,,,,,,2023-12-01,1,,,,,ラスクゴウト,0
225,1430003015694,新規,0,2023-12-01,2023-12-01,合同会社ＮＱ,,合同会社,北海道,札幌市豊平区,美園二条８丁目２番２５号,,01,105,0620002,,,,,,,2023-12-01,1,,,,,エヌキュー,0
228,1470001019925,新規,0,2023-12-01,2023-12-01,株式会社ＴＯＲＡＫＵＭＡ企画,,株式会社,香川県,高松市,屋島西町１３７５番地１２,,37,201,7610113,,,,,,,2023-12-01,1,,,,,トラクマキカク,0
229,1490001010642,新規,0,2023-12-01,2023-12-01,国際不動産株式会社,,株式会社,高知県,高知市,大川筋１丁目６番２８号,,39,201,7800052,,,,,,,2023-12-01,1,,,,,,0
231,1700150122489,新規,0,2023-12-01,2023-12-01,ｓｈｅｎｚｈｅｎｓｈｉｊｉｎｇｙｉｋｅｊｉｙｏｕｘｉａｎｇｏｎｇｓｉ,,外国会社等,,,,,,,,ｎａｎｓｈａｎｑｕｔａｏｙｕａｎｊｉｅｄａｏｌｏｎｇｌｉａｎｓｈｅｑｕｌｏｎｇｚｈｕｙｉｌｕ８ｈａｏ　ｘｉｌｉｔｉｙｕｚｈｏｎｇｘｉｎｆｕｓｈｕｌｏｕＢｚｕｏ１４Ｃ　ｓｈｅｎｚｈｅｎｚｈｉ　ｇｕａｎｇｄｏｎｇｓｈｅｎｇ　５１８０００　ＣＮ,,,,,,2023-12-01,1,,,,,シェンジェンシジンイーカージヨウシェンゴンスー,0
232,1700150122497,新規,0,2023-12-01,2023-12-01,ＳｈａｎｇｈａｉＴｕｆａｎｇＫｅｊｉ　ＹｏｕｘｉａｎＧｏｎｇｓｉ,,外国会社等,,,,,,,,Ｎｏ．６１１ＳａｎｍｉｎＲｄＺｈｕａｎｇｈａｎｇＴｏｗｎＦｅｎｇｘｉａｎＤｉｓｔｒｉｃｔＳｈａｎｇｈａｉ　２０１４１５　ＣＮ,,,,,,2023-12-01,1,,,,,シャンハイトファンカギヨウシェンゴンスー,0
237,2010001240427,新規,0,2023-12-01,2023-12-01,カネダホールディングス株式会社,,株式会社,東京都,中央区,日本橋本町１丁目４番１２号,,13,102,1030023,,,,,,,2023-12-01,1,,,,,カネダホールディングス,0
240,2010003042326,新規,0,2023-12-01,2023-12-01,合同会社Ｓｌｉｄｅｒ,,合同会社,東京都,千代田区,神田和泉町１番地６－１６ヤマトビル４０５,,13,101,1010024,,,,,,,2023-12-01,1,,,,,スライダー,0
241,2010003042350,新規,0,2023-12-01,2023-12-01,合同会社ａｆｔｅｒＦＩＴ０６,,合同会社,東京都,千代田区,丸の内１丁目７番１２号サピアタワー１８階,,13,101,1000005,,,,,,,2023-12-01,1,,,,,アフターフィットゼロロク,0
249,2010401178812,新規,0,2023-12-01,2023-12-01,株式会社ＫＴ‐Ｈｏｕｓｅ,,株式会社,東京都,港区,青山二丁目２番１５号ウィン青山９４２,,13,103,1050000,,,,,,,2023-12-01,1,,,,,ケーティーハウス,0
250,2010403031473,新規,0,2023-12-01,2023-12-01,パシフィコ・アグリ笠岡合同会社,,合同会社,東京都,港区,六本木３丁目２番１号六本木グランドタワー,,13,103,1060032,,,,,,,2023-12-01,1,,,,,パシフィコアグリカサオカ,0
255,2010601064218,新規,0,2023-12-01,2023-12-01,ブルーベリーコンサルティング株式会社,,株式会社,東京都,江東区,深川１丁目１番２号,,13,108,1350033,,,,,,,2023-12-01,1,,,,,ブルーベリーコンサルティング,0
256,2010701045209,新規,0,2023-12-01,2023-12-01,株式会社マイスリー,,株式会社,東京都,品川区,東品川４丁目１３番２４－１５０３号,,13,109,1400002,,,,,,,2023-12-01,1,,,,,マイスリー,0
261,2010801034557,新規,0,2023-12-01,2023-12-01,吉晟株式会社,,株式会社,東京都,大田区,東海３丁目７番３号,,13,111,1430001,,,,,,,2023-12-01,1,,,,,キチセイ,0
264,2010805003079,新規,0,2023-12-01,2023-12-01,一般社団法人平多正於舞踊研究所舞踊こまどり会,,その他の設立登記法人,東京都,大田区,上池台２丁目１２番４号,,13,111,1450064,,,,,,,2023-12-01,1,,,,,ヒラタマサオブヨウケンキュウジョブヨウコマドリカイ,0
274,2011101105321,新規,0,2023-12-01,2023-12-01,株式会社ゆめとき,,株式会社,東京都,新宿区,新宿２丁目１４番１３号筒井ビル３０１,,13,104,1600022,,,,,,,2023-12-01,1,,,,,ユメトキ,0
276,2011103013811,新規,0,2023-12-01,2023-12-01,合同会社オフィスシェンロン,,合同会社,東京都,新宿区,新宿４丁目４番１３－１０１号,,13,104,1600022,,,,,,,2023-12-01,1,,,,,オフィスシェンロン,0
278,2011301029221,新規,0,2023-12-01,2023-12-01,ＣＰ　Ｃｏｎｓｕｌｔｉｎｇ株式会社,,株式会社,東京都,杉並区,和田２丁目１５番１９号セザール第二中野富士見町３０１,,13,115,1660012,,,,,,,2023-12-01,1,,,,,シーピーコンサルティング,0
289,2011603004153,新規,0,2023-12-01,2023-12-01,合同会社ＦＣ,,合同会社,東京都,練馬区,桜台６丁目３３番１７号,,13,120,1760002,,,,,,,2023-12-01,1,,,,,エフシー,0
290,2011701026818,新規,0,2023-12-01,2023-12-01,株式会社ＭＡＲＩＣＡ,,株式会社,東京都,江戸川区,平井６丁目５２番１７号,,13,123,1320035,,,,,,,2023-12-01,1,,,,,マリカ,0
291,2011703003666,新規,0,2023-12-01,2023-12-01,合同会社リーフ,,合同会社,東京都,江戸川区,清新町１丁目４番５－１２０３号,,13,123,1340087,,,,,,,2023-12-01,1,,,,,リーフ,0
296,2012301013677,新規,0,2023-12-01,2023-12-01,株式会社モイテック,,株式会社,東京都,町田市,原町田４丁目１１番１３号天野ビル４Ｆ,,13,209,1940013,,,,,,,2023-12-01,1,,,,,,0
298,2012401041280,新規,0,2023-12-01,2023-12-01,株式会社Ａｌｌ‐ｉｎ,,株式会社,東京都,武蔵野市,境南町５丁目１番３号,,13,203,1800023,,,,,,,2023-12-01,1,,,,,オールイン,0
300,2013301051709,新規,0,2023-12-01,2023-12-01,株式会社アルテコーポレーション,,株式会社,東京都,豊島区,長崎５丁目１７番１３号,,13,116,1710051,,,,,,,2023-12-01,1,,,,,アルテコーポレーション,0
306,2020001154717,新規,0,2023-12-01,2023-12-01,スキルブリッジ株式会社,,株式会社,神奈川県,横浜市金沢区,西柴１丁目７番１３号,,14,108,2360017,,,,,,,2023-12-01,1,,,,,スキルブリッジ,0
327,2030001157446,新規,0,2023-12-01,2023-12-01,株式会社エビハラエクステリア,,株式会社,埼玉県,三郷市,市助１０８番地,,11,237,3410033,,,,,,,2023-12-01,1,,,,,エビハラエクステリア,0
328,2030001157462,新規,0,2023-12-01,2023-12-01,ビッグワーク株式会社,,株式会社,埼玉県,本庄市,見福１丁目２番３９号グリーンハイツ２０５,,11,211,3670044,,,,,,,2023-12-01,1,,,,,ビッグワーク,0
329,2030001157470,新規,0,2023-12-01,2023-12-01,竹野食品株式会社,,株式会社,埼玉県,朝霞市,宮戸２丁目１番５０－９号,,11,227,3510031,,,,,,,2023-12-01,1,,,,,タケノショクヒン,0
338,2040001131160,新規,0,2023-12-01,2023-12-01,株式会社ファウンテンビュー・キャピタル,,株式会社,千葉県,船橋市,印内２丁目３番１５号ＴＯＰ西船橋第一１０２,,12,204,2730039,,,,,,,2023-12-01,1,,,,,ファウンテンビューキャピタル,0
339,2040001131193,新規,0,2023-12-01,2023-12-01,株式会社みらい,,株式会社,千葉県,富津市,宝竜寺１５３番地,,12,226,2930052,,,,,,,2023-12-01,1,,,,,ミライ,0
346,2050003007944,新規,0,2023-12-01,2023-12-01,アークトロニクス合同会社,,合同会社,茨城県,つくば市,木俣４４６番地７,,08,220,3002644,,,,,,,2023-12-01,1,,,,,アークトロニクス,0
347,2050003007977,新規,0,2023-12-01,2023-12-01,合同会社ｓｈｉｍａｓｈｏｕ,,合同会社,茨城県,守谷市,けやき台３丁目１２番地４,,08,224,3020128,,,,,,,2023-12-01,1,,,,,シマショウ,0
354,2070005010201,新規,0,2023-12-01,2023-12-01,医療法人Ａ‐ｓｔａｎｄａｒｄ,,その他の設立登記法人,群馬県,太田市,大原町２２１１番地３５,,10,205,3792304,,,,,,,2023-12-01,1,,,,,エースタンダード,0
359,2080401026865,新規,0,2023-12-01,2023-12-01,株式会社ゼロコミット,,株式会社,静岡県,掛川市,薗ケ谷９１７番地の６,,22,213,4360083,,,,,,,2023-12-01,1,,,,,ゼロコミット,0
365,2100001037021,新規,0,2023-12-01,2023-12-01,株式会社リバース,,株式会社,長野県,上水内郡飯綱町,大字古町６８４番地,,20,590,3891221,,,,,,,2023-12-01,1,,,,,リバース,0
372,2110001038002,新規,0,2023-12-01,2023-12-01,株式会社新潟ロードサービス,,株式会社,新潟県,新潟市西区,坂井四丁目３５番１１号,,15,107,9502042,,,,,,,2023-12-01,1,,,,,ニイガタロードサービス,0
385,2120003025385,新規,0,2023-12-01,2023-12-01,合同会社Ｂｏｕｎｃｅ,,合同会社,大阪府,大阪市阿倍野区,相生通２丁目１１‐２‐４０６,,27,119,5450033,,,,,,,2023-12-01,1,,,,,バウンス,0
386,2120003025427,新規,0,2023-12-01,2023-12-01,有容合同会社,,合同会社,大阪府,大阪市平野区,瓜破南１丁目１－３６,,27,126,5470023,,,,,,,2023-12-01,1,,,,,ユウヨウ,0
387,2120005024014,新規,0,2023-12-01,2023-12-01,一般社団法人Ｃｏｃｏｒｏ　Ｂａｓｅ,,その他の設立登記法人,大阪府,大阪市生野区,巽西４丁目６番１１号,00132845,27,116,5440012,,,,,,,2023-12-01,1,,,,,ココロベース,0
397,2130005016943,新規,0,2023-12-01,2023-12-01,一般社団法人京都グローカルスタディ研究所,,その他の設立登記法人,京都府,京都市左京区,下鴨東岸本町３８－１,,26,103,6060854,,,,,,,2023-12-01,1,,,,,キョウトグローカルスタディケンキュウジョ,0
398,2140001132504,新規,0,2023-12-01,2023-12-01,株式会社ポンタ,,株式会社,兵庫県,神戸市兵庫区,下沢通４丁目５番１４－２０１号,,28,105,6520047,,,,,,,2023-12-01,1,,,,,ポンタ,0
401,2150001026911,新規,0,2023-12-01,2023-12-01,大路住研株式会社,,株式会社,奈良県,大和高田市,大字大中３９３番地３,,29,202,6350095,,,,,,,2023-12-01,1,,,,,オオジジュウケン,0
409,2180001159072,新規,0,2023-12-01,2023-12-01,株式会社ＭＡＫＥ　ＯＮＥ,,株式会社,愛知県,知多郡東浦町,大字生路字浜田４８番地の２サニーＮＴ　Ｂ－２０６号,,23,442,4702104,,,,,,,2023-12-01,1,,,,,メイクワン,0
411,2180003026048,新規,0,2023-12-01,2023-12-01,合同会社ブルーバース,,合同会社,愛知県,名古屋市瑞穂区,弥富通二丁目３０セントフィオーレ５０３,,23,108,4670000,,,,,,,2023-12-01,1,,,,,ブルーバース,0
416,2180301038075,新規,0,2023-12-01,2023-12-01,株式会社ダイセイ,,株式会社,愛知県,岡崎市,戸崎町字才苗１７番地１８,,23,202,4440840,,,,,,,2023-12-01,1,,,,,ダイセイ,0
426,2240001062476,新規,0,2023-12-01,2023-12-01,株式会社ｗｉｔｈ,,株式会社,広島県,広島市南区,旭１丁目１番２０号,,34,103,7340036,,,,,,,2023-12-01,1,,,,,ウィズ,0
427,2240001062492,新規,0,2023-12-01,2023-12-01,株式会社小林ファッション,,株式会社,広島県,福山市,神村町１５０３番地１８５,,34,207,7290112,,,,,,,2023-12-01,1,,,,,コバヤシファッション,0
432,2250005008879,新規,0,2023-12-01,2023-12-01,一般社団法人全国産前産後バースケアラー協会,,その他の設立登記法人,山口県,宇部市,あすとぴあ５丁目１０番２５号,,35,202,7550152,,,,,,,2023-12-01,1,,,,,ゼンコクサンゼンサンゴバースケアラーキョウカイ,0
433,2260001000467,新規,0,2023-12-01,2023-12-01,石田産業株式会社,,株式会社,岡山県,岡山市北区,原３２３番地の１,,33,101,7012154,,,,,,,2023-12-01,1,,,,,イシダサンギョウ,0
435,2280003001791,新規,0,2023-12-01,2023-12-01,合同会社共生乃大福,,合同会社,島根県,出雲市,斐川町神氷２４２番地,,32,203,6990613,,,,,,,2023-12-01,1,,,,,キョウセイノタフク,0
441,2290001103886,新規,0,2023-12-01,2023-12-01,ＹＫサポート株式会社,,株式会社,福岡県,福岡市博多区,東那珂２丁目１３－３２,,40,132,8120892,,,,,,,2023-12-01,1,,,,,ワイケイサポート,0
444,2290801030090,新規,0,2023-12-01,2023-12-01,株式会社Ｇｒｏｗ,,株式会社,福岡県,北九州市八幡西区,馬場山西１１番４２号,,40,109,8071132,,,,,,,2023-12-01,1,,,,,グロー,0
460,2360003013523,新規,0,2023-12-01,2023-12-01,合同会社ラピ,,合同会社,沖縄県,沖縄市,桃原２丁目１２番１９号,,47,211,9042164,,,,,,,2023-12-01,1,,,,,ラピ,0
462,2370001050682,新規,0,2023-12-01,2023-12-01,株式会社ＬＯＳ,,株式会社,宮城県,東松島市,矢本字太子前８７番地１,,04,214,9810503,,,,,,,2023-12-01,1,,,,,ランドオブサウンド,0
473,2400001016473,新規,0,2023-12-01,2023-12-01,株式会社フローティングアイランド,,株式会社,岩手県,宮古市,泉町５番１７－３号,,03,202,0270062,,,,,,,2023-12-01,1,,,,,フローティングアイランド,0
478,2400003003180,新規,0,2023-12-01,2023-12-01,合同会社ドローズ,,合同会社,岩手県,花巻市,南万丁目１０８３番地８,,03,205,0250055,,,,,,,2023-12-01,1,,,,,ドローズ,0
479,2410003003865,新規,0,2023-12-01,2023-12-01,合同会社オノゴロ,,合同会社,秋田県,仙北市,田沢湖小松字本町９９番地,,05,215,0141115,,,,,,,2023-12-01,1,,,,,オノゴロ,0
483,2430001090540,新規,0,2023-12-01,2023-12-01,ＳＪ７　ＴＲＡＤＩＮＧ株式会社,,株式会社,北海道,石狩郡当別町,樺戸町１１７番地６８,,01,303,0610218,,,,,,,2023-12-01,1,,,,,エスジェイセブントレーディング,0
484,2430001090557,新規,0,2023-12-01,2023-12-01,株式会社リーガライトエージェント,,株式会社,北海道,札幌市中央区,南一条西９丁目５番地１,,01,101,0600061,,,,,,,2023-12-01,1,,,,,リーガライトエージェント,0
487,2470001019924,新規,0,2023-12-01,2023-12-01,エトス株式会社,,株式会社,香川県,高松市,木太町２４１９－１３ポレスター木太グレイス６０２,,37,201,7600080,,,,,,,2023-12-01,1,,,,,エトス,0
491,2500001025332,新規,0,2023-12-01,2023-12-01,株式会社ＮＤＳホールディングス,,株式会社,愛媛県,松山市,三番町４丁目１２番地１,,38,201,7900003,,,,,,,2023-12-01,1,,,,,エヌディーエスホールディングス,0
495,2700150122488,新規,0,2023-12-01,2023-12-01,ｓｈｅｎｚｈｅｎ　ｘｉｃｈｕａｎｇｚｈｕ　ｔｅｃｈｎｏｌｏｇｙ　ｃｏ．，ｌｔｄ,,外国会社等,,,,,,,,Ｒｏｏｍ　４１６，４ｔｈ　Ｆｌｏｏｒ，Ｂｕｉｌｄｉｎｇ　Ａ，Ｎｏ．４０８８，Ｂａｎｘｕｅｇａｎｇ　Ａｖｅｎｕｅ　Ｘｉａｎｇｊｉａｏｔａｎｇ　Ｃｏｍｍｕｎｉｔｙ，Ｂａｎｔｉａｎ　Ｓｔｒｅｅｔ，Ｌｏｎｇｇａｎｇ　Ｄｉｓｔｒｉｃｔ　Ｓｈｅｎｚｈｅｎ　Ｇｕａｎｇｄｏｎｇ　５１８１２９　ＣＮ,,,,,,2023-12-01,1,,,,,シェンジェンシシーチュァンジュウカージヨウシェンゴンスー,0
496,2700150122496,新規,0,2023-12-01,2023-12-01,Ｓｈａｎｇｈａｉ　Ｑｉａｏｙｕ　Ｉｎｔｅｒｎｅｔ　Ｔｅｃｈｎｏｌｏｇｙ　Ｃｏ．，ＬＴＤ,,外国会社等,,,,,,,,Ｒｏｏｍ５２１Ｂｕｉｌｄｉｎｇ３Ｎｏ．６５０ＪｉｕｆｕＲｏａｄＪｉｕｔｉｎｇＴｏｗｎＳｏｎｇｊｉａｎｇＤｉｓｔｒｉｃｔＳｈａｎｇｈａｉ　２０１６１５　ＣＮ,,,,,,2023-12-01,1,,,,,シャンハイチャオユインターネットテクノロジーカンパニーリミテッド,0
497,2700150122505,新規,0,2023-12-01,2023-12-01,ｈｅ　ｎａｎ　ｓｈｅｎｇ　ｑｉａｏ　ｘｉａ　ｊｉａｎ　ｚｈｕ　ｙｏｕ　ｘｉａｎ　ｇｏｎｇ　ｓｉ,,外国会社等,,,,,,,,ｈｕｉｊｉｑｕｂｉｎｈｅｌｕｂｅｉ，ｘｉｎｇｈｕａｊｉｅｄｏｎｇｗａｎｋｅｍｅｉｊｉｎｇｌｉｎｑｉｃｈｅｎｇ２ｈａｏｌｏｕ２７ｃｅｎｇ２３７６ｈａｏ，ｚｈｅｎｇｚｈｏｕ，ｈｅｎａｎ，４５００００，ＣＮ,,,,,,2023-12-01,1,,,,,ホーァナンシュヨンチヤオシアジエンジュウゴーンチュヨンヨウシエンゴーンスー,0
514,3010001240293,新規,0,2023-12-01,2023-12-01,Ｓａｎｇ　Ｋａ　Ｒａｎｇ株式会社,,株式会社,東京都,千代田区,九段南２丁目２－８松岡九段ビル１０１,,13,101,1020074,,,,,,,2023-12-01,1,,,,,サンカラング,0
515,3010001240467,新規,0,2023-12-01,2023-12-01,株式会社ブリッジフィールド,,株式会社,東京都,中央区,銀座６丁目６番１号銀座風月堂ビル５階,,13,102,1040061,,,,,,,2023-12-01,1,,,,,ブリッジフィールド,0
518,3010005037587,新規,0,2023-12-01,2023-12-01,一般社団法人森林ＣＯ２クレジット協会,,その他の設立登記法人,東京都,中央区,湊３丁目１７番６号和泉ビル３Ｆ,,13,102,1040043,,,,,,,2023-12-01,1,,,,,シンリンシーオーツークレジットキョウカイ,0
527,3010401178811,新規,0,2023-12-01,2023-12-01,株式会社ＲＥＧＥＳ,,株式会社,東京都,港区,東新橋２丁目１８－３ルネパルティーレ汐留,,13,103,1050021,,,,,,,2023-12-01,1,,,,,レジェス,0
528,3010401178828,新規,0,2023-12-01,2023-12-01,株式会社ＩＳ．Ｔ,,株式会社,東京都,港区,芝３丁目３番１２号株式会社ＫＳＣ内,,13,103,1050014,,,,,,,2023-12-01,1,,,,,アイエスティ,0
531,3010403031480,新規,0,2023-12-01,2023-12-01,合同会社Ｔｓｕｂａｓａ,,合同会社,東京都,港区,六本木１丁目９番１０号アークヒルズ仙石山森タワー４０階,,13,103,1060032,,,,,,,2023-12-01,1,,,,,ツバサ,0
532,3010405022742,新規,0,2023-12-01,2023-12-01,一般社団法人ＪＯＣＢ協会,,その他の設立登記法人,東京都,港区,芝５丁目１－１２,,13,103,1080014,,,,,,,2023-12-01,1,,,,,ジェイオーシービーキョウカイ,0
541,3010501051439,新規,0,2023-12-01,2023-12-01,株式会社エイト,,株式会社,東京都,台東区,上野６丁目７番１６号,,13,106,1100005,,,,,,,2023-12-01,1,,,,,エイト,0
543,3010601064217,新規,0,2023-12-01,2023-12-01,東叶株式会社,,株式会社,東京都,江東区,平野１丁目９－１３,,13,108,1350023,,,,,,,2023-12-01,1,,,,,トウヨウ,0
555,3011001158559,新規,0,2023-12-01,2023-12-01,渋谷愛ビジョン株式会社,,株式会社,東京都,渋谷区,南平台町１５番１０号,,13,113,1500036,,,,,,,2023-12-01,1,,,,,シブヤアイビジョン,0
556,3011001158567,新規,0,2023-12-01,2023-12-01,株式会社２．９,,株式会社,東京都,渋谷区,広尾５丁目１４番２号,,13,113,1500012,,,,,,,2023-12-01,1,,,,,ツーポイントナイン,0
557,3011001158575,新規,0,2023-12-01,2023-12-01,株式会社ＫＯＮＮＥＣＴ,,株式会社,東京都,渋谷区,初台２丁目２３番５－１０１号,,13,113,1510061,,,,,,,2023-12-01,1,,,,,コネクト,0
562,3011101105312,新規,0,2023-12-01,2023-12-01,ＩＴＳＵＫＩ株式会社,,株式会社,東京都,新宿区,西新宿７丁目７番２４－１００２号,,13,104,1600023,,,,,,,2023-12-01,1,,,,,イツキ,0
574,3011601027337,新規,0,2023-12-01,2023-12-01,日本聯創株式会社,,株式会社,東京都,練馬区,北町８丁目１２番１６号ボヌール・マ・メゾン２０３号,,13,120,1790081,,,,,,,2023-12-01,1,,,,,ニホンレンソウ,0
575,3011603004152,新規,0,2023-12-01,2023-12-01,Ｐａｒｔｅｎｚａ　Ｊａｐａｎ合同会社,,合同会社,東京都,練馬区,関町南１丁目１２番３－７０３号,,13,120,1770053,,,,,,,2023-12-01,1,,,,,パルテンザジャパン,0
581,3012401041247,新規,0,2023-12-01,2023-12-01,株式会社レアレア,,株式会社,東京都,稲城市,矢野口８６４番地,,13,225,2060812,,,,,,,2023-12-01,1,,,,,レアレア,0
587,3020001154699,新規,0,2023-12-01,2023-12-01,株式会社大島ブランド,,株式会社,神奈川県,横浜市栄区,桂台北１番９号,,14,115,2470031,,,,,,,2023-12-01,1,,,,,オオシマブランド,0
588,3020001154716,新規,0,2023-12-01,2023-12-01,株式会社クレインプラス,,株式会社,神奈川県,横浜市神奈川区,大口通１４０番地２－１階,,14,102,2210002,,,,,,,2023-12-01,1,,,,,クレインプラス,0
603,3021003013851,新規,0,2023-12-01,2023-12-01,合同会社ｍｉｍｉｆｕｋｕ,,合同会社,神奈川県,海老名市,中央１丁目８－３えびすビル松本６０１号室,,14,215,2430432,,,,,,,2023-12-01,1,,,,,ミミフク,0
609,3030001157379,新規,0,2023-12-01,2023-12-01,株式会社テンシールド,,株式会社,埼玉県,草加市,中央２丁目１番２５号,,11,221,3400016,,,,,,,2023-12-01,1,,,,,テンシールド,0
610,3030001157412,新規,0,2023-12-01,2023-12-01,ＲＴＣ株式会社,,株式会社,埼玉県,さいたま市大宮区,桜木町２丁目３番地大宮マルイ７階,,11,103,3300854,,,,,,,2023-12-01,1,,,,,アールティーシー,0
611,3030001157420,新規,0,2023-12-01,2023-12-01,株式会社ＹＨＭ,,株式会社,埼玉県,川口市,芝新町４番１７－６０１号ラックヒル蕨,,11,203,3330851,,,,,,,2023-12-01,1,,,,,ワイエイチエム,0
612,3030001157445,新規,0,2023-12-01,2023-12-01,株式会社ＬｉｓｔｅｒＨｏｍｅ,,株式会社,埼玉県,さいたま市中央区,上峰４丁目９番１号高橋ビル２階,,11,105,3380014,,,,,,,2023-12-01,1,,,,,リスターホーム,0
613,3030001157453,新規,0,2023-12-01,2023-12-01,株式会社ＡＤｂｉｒｔｈ,,株式会社,埼玉県,八潮市,大字古新田９番６号２Ｆ,,11,234,3400823,,,,,,,2023-12-01,1,,,,,アドバース,0
620,3040001131176,新規,0,2023-12-01,2023-12-01,株式会社ｄｏｔｓｌｉｎｅ,,株式会社,千葉県,香取市,野田８８８－４,,12,236,2890314,,,,,,,2023-12-01,1,,,,,ドッツライン,0
623,3040003023842,新規,0,2023-12-01,2023-12-01,合同会社河地,,合同会社,千葉県,市川市,南大野２丁目３番４１号リューズパーク弐番館１１０２号,,12,203,2720804,,,,,,,2023-12-01,1,,,,,カワチ,0
625,3040005022215,新規,0,2023-12-01,2023-12-01,一般社団法人１０ＬｉｖｅｓＭｉｈａｍａＮｅｋｏ,,その他の設立登記法人,千葉県,千葉市花見川区,宮野木台２丁目１０－５７,,12,102,2620015,,,,,,,2023-12-01,1,,,,,テンライブスミハマネコ,0
644,3090001018435,新規,0,2023-12-01,2023-12-01,株式会社ブルーチェア,,株式会社,山梨県,北杜市,小淵沢町上笹尾１６３７‐４５,,19,209,4080041,,,,,,,2023-12-01,1,,,,,ブルーチェア,0
646,3100001037020,新規,0,2023-12-01,2023-12-01,株式会社Ｊ＆Ｔトラベル,,株式会社,長野県,松本市,安曇４２９３番地２,,20,202,3901520,,,,,,,2023-12-01,1,,,,,ジェイアンドティートラベル,0
648,3100003007285,新規,0,2023-12-01,2023-12-01,Ｋａｔａｋｕｒａ合同会社,,合同会社,長野県,岡谷市,長地権現町２丁目１１番１２号,,20,204,3940081,,,,,,,2023-12-01,1,,,,,カタクラ,0
659,3120001260256,新規,0,2023-12-01,2023-12-01,ＴＫＫ株式会社,,株式会社,大阪府,大阪市中央区,松屋町９番２０号ローレルステート松屋町１２０８Ａ,,27,128,5420067,,,,,,,2023-12-01,1,,,,,ティケイケイ,0
660,3120001260272,新規,0,2023-12-01,2023-12-01,株式会社ジオコミュニティ,,株式会社,大阪府,大阪市淀川区,十三東１丁目２０番３－３０２号,,27,123,5320023,,,,,,,2023-12-01,1,,,,,ジオコミュニティ,0
661,3120001260297,新規,0,2023-12-01,2023-12-01,株式会社ＪＡＣＫ,,株式会社,大阪府,大阪市北区,中之島２丁目３番１８号,,27,127,5300005,,,,,,,2023-12-01,1,,,,,ジャック,0
662,3120003025442,新規,0,2023-12-01,2023-12-01,合同会社ズズズ,,合同会社,大阪府,大阪市北区,西天満３丁目６番２２号日宝北大阪屋ビル４Ｆ１号,,27,127,5300047,,,,,,,2023-12-01,1,,,,,ズズズ,0
664,3120101068616,新規,0,2023-12-01,2023-12-01,株式会社松屋,,株式会社,大阪府,藤井寺市,藤井寺２丁目８番４１号,,27,226,5830024,,,,,,,2023-12-01,1,,,,,マツヤ,0
665,3122001037618,新規,0,2023-12-01,2023-12-01,君怡株式会社,,株式会社,大阪府,八尾市,春日町４丁目２番２１号,,27,212,5810061,,,,,,,2023-12-01,1,,,,,クンイ,0
675,3130005016942,新規,0,2023-12-01,2023-12-01,一般社団法人蚕都Ｇｒａｎｔｓ,,その他の設立登記法人,京都府,綾部市,寺町上石１５番地の５,,26,203,6230033,,,,,,,2023-12-01,1,,,,,サントグランツ,0
678,3140001132503,新規,0,2023-12-01,2023-12-01,ＡＵＸ株式会社,,株式会社,兵庫県,宝塚市,野上２丁目４番５－２０５号,,28,214,6650022,,,,,,,2023-12-01,1,,,,,オークス,0
682,3140003019871,新規,0,2023-12-01,2023-12-01,合同会社空と海,,合同会社,兵庫県,神戸市灘区,記田町２丁目１番１８号,,28,102,6570034,,,,,,,2023-12-01,1,,,,,ソラトウミ,0
684,3140005026817,新規,0,2023-12-01,2023-12-01,特定非営利活動法人エコベ,,その他の設立登記法人,兵庫県,明石市,相生町１丁目８番２２号ピュアハイツ中崎６０１号,,28,203,6730882,,,,,,,2023-12-01,1,,,,,エコベ,0
686,3160001025531,新規,0,2023-12-01,2023-12-01,株式会社ウエスト,,株式会社,滋賀県,大津市,本堅田３丁目３０番１５号,,25,201,5200242,,,,,,,2023-12-01,1,,,,,ウエスト,0
698,3180001159121,新規,0,2023-12-01,2023-12-01,株式会社ＥＬＭＩＲＡＩＺ　ＣＲＥＡＴＩＯＮ,,株式会社,愛知県,名古屋市中区,新栄１丁目３５番２号,,23,106,4600007,,,,,,,2023-12-01,1,,,,,エルミライズクリエイション,0
699,3180003026047,新規,0,2023-12-01,2023-12-01,合同会社ロビン,,合同会社,愛知県,名古屋市瑞穂区,弥富通二丁目３０セントフィオーレ５０３,,23,108,4670000,,,,,,,2023-12-01,1,,,,,ロビン,0
700,3180003026063,新規,0,2023-12-01,2023-12-01,合同会社ＳｕｎｎｙＭｏｏｎ,,合同会社,愛知県,稲沢市,田代１丁目１８番１６号,,23,220,4928455,,,,,,,2023-12-01,1,,,,,サニームーン,0
702,3180301038074,新規,0,2023-12-01,2023-12-01,株式会社Ｄａｎｄｅｌｉｏｎ,,株式会社,愛知県,豊橋市,曙町字南松原７７番地３,00132856,23,201,4418151,,,,,,,2023-12-01,1,,,,,ダンデライオン,0
704,3190001030925,新規,0,2023-12-01,2023-12-01,株式会社菅原工業,,株式会社,三重県,津市,河芸町中別保２２３９番地１,,24,201,5100305,,,,,,,2023-12-01,1,,,,,スガワラコウギョウ,0
716,3240001062483,新規,0,2023-12-01,2023-12-01,株式会社カシハラ,,株式会社,広島県,三原市,本郷町善入寺２７２番地,,34,204,7290416,,,,,,,2023-12-01,1,,,,,カシハラ,0
746,3330005010727,新規,0,2023-12-01,2023-12-01,ＮＰＯ法人熊本県ウオーキング協会,,その他の設立登記法人,熊本県,八代市,鏡町宝出１０４５番地３７,,43,202,8694221,,,,,,,2023-12-01,1,,,,,クマモトケンウオーキングキョウカイ,0
774,3470001019923,新規,0,2023-12-01,2023-12-01,株式会社オリビオ,,株式会社,香川県,高松市,林町６番地１５,,37,201,7610301,,,,,,,2023-12-01,1,,,,,オリビオ,0
777,3700150122487,新規,0,2023-12-01,2023-12-01,ｓｈｅｎ　ｚｈｅｎ　ｓｈｉ　ａｉ　ｙｉｎ　ｋｅ　ｋｅ　ｊｉ　ｙｏｕ　ｘｉａｎ　ｇｏｎｇ　ｓｉ,,外国会社等,,,,,,,,ｓｈｅｎ　ｚｈｅｎ　ｓｈｉ　ｆｕ　ｔｉａｎ　ｑｕ　ｙｕａｎ　ｌｉｎｇ　ｊｉｅ　ｄａｏ　ｓｈａｎｇ　ｌｉｎ　ｓｈｅ　ｑｕ　ｂａ　ｇｕａ　ｓａｎ　ｌｕ　８８－８　ｈａｏ　ｑｉｎｇ　ｆｅｎｇ　ｒｏｎｇ　ｓｈｅｎｇ　ｃｈｕａｎｇ　ｔｏｕ　ｄａ　ｓｈａ　２２５Ｃ１０,,,,,,2023-12-01,1,,,,,シェンジェンシーアイインチャオコージーヨウシエンゴンスー,0
778,3700150122495,新規,0,2023-12-01,2023-12-01,ｓｈｅｎｚｈｅｎｓｈｉｊｉａｗａｎｇｈｅｄｉａｎｚｉｓｈａｎｇｗｕ　ｙｏｕｘｉａｎｇｏｎｇｓｉ,,外国会社等,,,,,,,,Ｎｏ２ＲｕｉＨｕａｂｅｉＷｕＸｉａｎｇＮａｎｌｉａｎＣｏｍｍｕｎｉｔｙＬｏｎｇｇａｎｇＳｔｒｅｅｔＬｏｎｇｇａｎｇＤｉｓｔｒｉｃｔＳｈｅｎｚｈｅｎＣｉｔｙ７０１　５１８１１６　ＣＮ,,,,,,2023-12-01,1,,,,,シンセンシカワンヘデンシシャンウヨウシェンゴンスー,0
779,3700150122504,新規,0,2023-12-01,2023-12-01,Ｈｏｎｇｋｏｎｇ　ＪＭＢＯＴ　Ｔｅｃｈｎｏｌｏｇｙ　Ｃｏ．，Ｌｉｍｉｔｅｄ,,外国会社等,,,,,,,,ＲＯＯＭ　５１１，５／Ｆ，ＭＩＮＧ　ＳＡＮＧ　ＩＮＤ　ＢＬＤＧ　１９－２１　ＨＩＮＧ　ＹＩＰ　ＳＴＲＥＥＴ，ＫＬＮ，ＫＷＵＮ　ＴＯＮＧ，９９９０７７，ＨＫ,,,,,,2023-12-01,1,,,,,シアーンガーンジエムゥボートーァコーァジーヨウシエンゴーンスー,0
785,4010001240441,新規,0,2023-12-01,2023-12-01,株式会社ＥＮ,,株式会社,東京都,中央区,日本橋兜町１７－１日本橋ロイヤルプラザ７０６,,13,102,1030026,,,,,,,2023-12-01,1,,,,,エン,0
786,4010001240482,新規,0,2023-12-01,2023-12-01,株式会社戸建分譲総研,,株式会社,東京都,千代田区,麹町３丁目７番２８号,,13,101,1020083,,,,,,,2023-12-01,1,,,,,コダテブンジョウソウケン,0
805,4010703006958,新規,0,2023-12-01,2023-12-01,アクス開発合同会社,,合同会社,東京都,品川区,大崎２丁目９番２－１８０６号,,13,109,1410032,,,,,,,2023-12-01,1,,,,,アクスカイハツ,0
812,4010901054271,新規,0,2023-12-01,2023-12-01,株式会社ＰＲＩＮＣＥＳＳ　ＰＩＫＯ,,株式会社,東京都,世田谷区,太子堂１丁目１２番２７号コンフォートテラス１００５号,,13,112,1540004,,,,,,,2023-12-01,1,,,,,プリンセスピコ,0
813,4010903008622,新規,0,2023-12-01,2023-12-01,合同会社Ｉｍｓｙ,,合同会社,東京都,世田谷区,砧８丁目８－２３渋川ビル２階,,13,112,1570073,,,,,,,2023-12-01,1,,,,,イムズィ,0
819,4011001158533,新規,0,2023-12-01,2023-12-01,株式会社ＨＵＧ＆ＳＨＡＫＥ,,株式会社,東京都,渋谷区,道玄坂１丁目１０番８号渋谷道玄坂東急ビル２Ｆ－Ｃ,,13,113,1500043,,,,,,,2023-12-01,1,,,,,ハグアンドシェイク,0
820,4011001158566,新規,0,2023-12-01,2023-12-01,株式会社Ｂｕｄｄｙ　Ｃｌｏｕｄ,,株式会社,東京都,渋谷区,道玄坂１丁目１０番８号渋谷道玄坂東急ビル２Ｆ－Ｃ,,13,113,1500043,,,,,,,2023-12-01,1,,,,,バディクラウド,0
835,4011601027344,新規,0,2023-12-01,2023-12-01,株式会社Ｌｕｆｆ,,株式会社,東京都,練馬区,関町南３丁目９番２４号グレインルーム２０１,,13,120,1770053,,,,,,,2023-12-01,1,,,,,ラフ,0
837,4011703003672,新規,0,2023-12-01,2023-12-01,合同会社ＴＳＭ,,合同会社,東京都,江戸川区,平井７丁目１１－６ビィラコート平井１０１,,13,123,1320035,,,,,,,2023-12-01,1,,,,,ティーエスエム,0
839,4011801043439,新規,0,2023-12-01,2023-12-01,株式会社ヨツバコンサルティング,,株式会社,東京都,足立区,東綾瀬１丁目２３番３－３０３号,,13,121,1200004,,,,,,,2023-12-01,1,,,,,ヨツバコンサルティング,0
841,4012401041287,新規,0,2023-12-01,2023-12-01,株式会社ライジング,,株式会社,東京都,小金井市,本町５丁目１８番５号,,13,210,1840004,,,,,,,2023-12-01,1,,,,,ライジング,0
842,4012801022795,新規,0,2023-12-01,2023-12-01,株式会社ＳＰＧ,,株式会社,東京都,立川市,西砂町１丁目２６番地の６８,,13,202,1900034,,,,,,,2023-12-01,1,,,,,エスピージー,0
845,4013301051707,新規,0,2023-12-01,2023-12-01,株式会社和信ビジネス,,株式会社,東京都,豊島区,南池袋２丁目８番５号ライオンズマンション南池袋３０４号,,13,116,1710022,,,,,,,2023-12-01,1,,,,,ワシンビジネス,0
852,4020001154608,新規,0,2023-12-01,2023-12-01,ＬａＳＢ　ＴＥＣ株式会社,,株式会社,神奈川県,川崎市中原区,中丸子３６５番地ウエストホーム１０１号室,,14,133,2110012,,,,,,,2023-12-01,1,,,,,ラスブテック,0
853,4020001154715,新規,0,2023-12-01,2023-12-01,株式会社リプラス,,株式会社,神奈川県,横浜市港南区,上永谷２丁目１１番１号いずみプラザ６０３号,,14,111,2330012,,,,,,,2023-12-01,1,,,,,リプラス,0
854,4020003025105,新規,0,2023-12-01,2023-12-01,グランシップ合同会社,,合同会社,神奈川県,横浜市栄区,桂台西１丁目２０番１８号,,14,115,2470035,,,,,,,2023-12-01,1,,,,,グランシップ,0
856,4021001080868,新規,0,2023-12-01,2023-12-01,株式会社伸びる屋ＴＣ神奈川,,株式会社,神奈川県,相模原市南区,相模台１丁目１５番５号,,14,153,2520321,,,,,,,2023-12-01,1,,,,,ノビルヤトーナメントセンターカナガワ,0
868,4030001157361,新規,0,2023-12-01,2023-12-01,株式会社栗橋企画,,株式会社,埼玉県,久喜市,河原代７２６番地,,11,232,3491114,,,,,,,2023-12-01,1,,,,,クリハシキカク,0
869,4030001157394,新規,0,2023-12-01,2023-12-01,株式会社ＧＨ,,株式会社,埼玉県,和光市,南１丁目８番５３号,,11,229,3510104,,,,,,,2023-12-01,1,,,,,ジーエイチ,0
870,4030001157460,新規,0,2023-12-01,2023-12-01,ワク・ワク・ワークス株式会社,,株式会社,埼玉県,狭山市,大字堀兼２５６６番地１２,,11,215,3501312,,,,,,,2023-12-01,1,,,,,ワクワクワークス,0
877,4030003023074,新規,0,2023-12-01,2023-12-01,合同会社山田企画,,合同会社,埼玉県,川口市,南鳩ヶ谷２丁目２４番１７号,,11,203,3340013,,,,,,,2023-12-01,1,,,,,ヤマダキカク,0
878,4030003023090,新規,0,2023-12-01,2023-12-01,Ｃｏｎｇ　ｔｙ　ＴＮＨＨ　ＫＩＴＥＸ合同会社,,合同会社,埼玉県,児玉郡上里町,大字七本木２５３６－１,,11,385,3690306,,,,,,,2023-12-01,1,,,,,コンティーキーテックス,0
879,4030003023099,新規,0,2023-12-01,2023-12-01,長青合同会社,,合同会社,埼玉県,上尾市,大字上野本郷１５４番,,11,219,3620056,,,,,,,2023-12-01,1,,,,,チョウセイ,0
884,4040001131159,新規,0,2023-12-01,2023-12-01,株式会社トータルライフサポート,,株式会社,千葉県,市原市,ちはら台西１丁目２６番地９,,12,219,2900143,,,,,,,2023-12-01,1,,,,,トータルライフサポート,0
888,4040005022214,新規,0,2023-12-01,2023-12-01,社会福祉法人お日さまの会,,その他の設立登記法人,千葉県,野田市,山崎２９４番地４,,12,208,2780022,,,,,,,2023-12-01,1,,,,,オヒサマノカイ,0
890,4050001053897,新規,0,2023-12-01,2023-12-01,Ｄ‐ＦＲＥＥ株式会社,,株式会社,茨城県,つくば市,竹園２丁目１１番地１６高橋ビル２０２,,08,220,3050032,,,,,,,2023-12-01,1,,,,,ディーフリー,0
897,4060003004823,新規,0,2023-12-01,2023-12-01,ＡＤＥＥＬ　ＴＲＡＤＩＮＧ合同会社,,合同会社,栃木県,小山市,若木町１丁目２２番６号ヴィラ安田１０２号,,09,208,3230028,,,,,,,2023-12-01,1,,,,,アディールトレーディング,0
899,4070001041132,新規,0,2023-12-01,2023-12-01,アンナーク株式会社,,株式会社,群馬県,前橋市,広瀬町３丁目５－２０,,10,201,3710812,,,,,,,2023-12-01,1,,,,,,0
901,4080101024374,新規,0,2023-12-01,2023-12-01,Ｄａｙｂｒｅａｋ株式会社,,株式会社,静岡県,沼津市,大岡５００番地の１,,22,203,4100022,,,,,,,2023-12-01,1,,,,,デイブレイク,0
903,4100003007284,新規,0,2023-12-01,2023-12-01,合同会社かわのにし,,合同会社,長野県,諏訪郡富士見町,境字高森８０７５番,,20,362,3990101,,,,,,,2023-12-01,1,,,,,カワノニシ,0
904,4100005013099,新規,0,2023-12-01,2023-12-01,特定非営利活動法人長野市ボクシング協会,,その他の設立登記法人,長野県,長野市,七二会己９５０番地２,,20,201,3813163,,,,,,,2023-12-01,1,,,,,ナガノシボクシングキョウカイ,0
911,4120001260156,新規,0,2023-12-01,2023-12-01,朝暉株式会社,,株式会社,大阪府,大阪市北区,天満３丁目１０－１３三栄ビル２０２号室,,27,127,5300043,,,,,,,2023-12-01,1,,,,,チョウキ,0
912,4120001260263,新規,0,2023-12-01,2023-12-01,フレートマンロジックス株式会社,,株式会社,大阪府,大阪市浪速区,元町１丁目５番７号,,27,111,5560016,,,,,,,2023-12-01,1,,,,,フレートマンロジックス,0
913,4120001260305,新規,0,2023-12-01,2023-12-01,日本江戸川株式会社,,株式会社,大阪府,大阪市西成区,鶴見橋１丁目６番１９－２０１号室,,27,122,5570031,,,,,,,2023-12-01,1,,,,,ニホンエドガワ,0
914,4120001260313,新規,0,2023-12-01,2023-12-01,株式会社ハイランド,,株式会社,大阪府,大阪市浪速区,日本橋５丁目５番２４－３０２号,,27,111,5560005,,,,,,,2023-12-01,1,,,,,ハイランド,0
915,4120001260321,新規,0,2023-12-01,2023-12-01,株式会社ＥＤＥＮ,,株式会社,大阪府,大阪市北区,天神橋２丁目北２番１４号,,27,127,5300041,,,,,,,2023-12-01,1,,,,,エデン,0
918,4120003025433,新規,0,2023-12-01,2023-12-01,Ｓｔｙｌｅ合同会社,,合同会社,大阪府,大阪市鶴見区,安田４丁目８番５９号,,27,124,5380032,,,,,,,2023-12-01,1,,,,,スタイル,0
919,4120003025441,新規,0,2023-12-01,2023-12-01,合同会社ＧＥＡＳＳ,,合同会社,大阪府,大阪市福島区,海老江４丁目１１－２３,,27,103,5530001,,,,,,,2023-12-01,1,,,,,ギアス,0
927,4130001075834,新規,0,2023-12-01,2023-12-01,株式会社ＫＡＩＲＩＫＵ・Ｆ,,株式会社,京都府,京都市中京区,蛸薬師通烏丸西入橋弁慶町２２２番地１０２号室,,26,104,6048151,,,,,,,2023-12-01,1,,,,,カイリクエフ,0
933,4140001132510,新規,0,2023-12-01,2023-12-01,キープフーズ株式会社,,株式会社,兵庫県,神戸市垂水区,小束山５丁目１番地２,,28,108,6550002,,,,,,,2023-12-01,1,,,,,キープフーズ,0
934,4140001132527,新規,0,2023-12-01,2023-12-01,株式会社Ｏｆｆｉｃｅ　Ｓａｐｐｈｉｒｅ　Ｒｕｂｙ,,株式会社,兵庫県,芦屋市,涼風町２番９号,,28,206,6590036,,,,,,,2023-12-01,1,,,,,オフィスサファイアルビイ,0
940,4140005026816,新規,0,2023-12-01,2023-12-01,特定非営利活動法人ウェルネス・ケア,,その他の設立登記法人,兵庫県,宝塚市,仁川高丸２丁目２２番１６号,,28,214,6650063,,,,,,,2023-12-01,1,,,,,ウェルネスケア,0
962,4180001159120,新規,0,2023-12-01,2023-12-01,藤和サービス株式会社,,株式会社,愛知県,名古屋市緑区,漆山５０３番地,,23,114,4580832,,,,,,,2023-12-01,1,,,,,トウワサービス,0
963,4180001159129,新規,0,2023-12-01,2023-12-01,株式会社ＥＶ　Ｃｏｎｎｅｃｔｉｏｎ,,株式会社,愛知県,名古屋市中村区,名駅４丁目２４番５号第２森ビル４０１,,23,105,4500002,,,,,,,2023-12-01,1,,,,,イーブイコネクション,0
964,4180001159145,新規,0,2023-12-01,2023-12-01,株式会社ＶＡＮＴＡＧＧＩＯ,,株式会社,愛知県,名古屋市中村区,椿町１３番１６号サン・オフィス名駅新幹線口２０３号室,,23,105,4530015,,,,,,,2023-12-01,1,,,,,ヴァンタジオ,0
971,4180301038073,新規,0,2023-12-01,2023-12-01,株式会社ＨＩＴＯＴＯＫＩ,,株式会社,愛知県,豊橋市,豊栄町字東２５０番地１,,23,201,4413125,,,,,,,2023-12-01,1,,,,,ヒトトキ,0
973,4190001030924,新規,0,2023-12-01,2023-12-01,株式会社セカンドステージ,,株式会社,三重県,桑名市,大字増田５９５番地,,24,205,5110853,,,,,,,2023-12-01,1,,,,,セカンドステージ,0
977,4200001041936,新規,0,2023-12-01,2023-12-01,株式会社ＫＥＹ‐ＰＬａｙｅｒ,,株式会社,岐阜県,各務原市,入会町４丁目１番地,,21,213,5040833,,,,,,,2023-12-01,1,,,,,キープレーヤー,0
978,4200003006169,新規,0,2023-12-01,2023-12-01,合同会社かなみつ,,合同会社,岐阜県,瑞穂市,田之上３０１番地１,,21,216,5010304,,,,,,,2023-12-01,1,,,,,カナミツ,0
987,4250001020407,新規,0,2023-12-01,2023-12-01,宮本農園株式会社,,株式会社,山口県,大島郡周防大島町,大字西方１９６２番地,,35,305,7422921,,,,,,,2023-12-01,1,,,,,ミヤモトノウエン,0
996,4290001103884,新規,0,2023-12-01,2023-12-01,株式会社ＰＣＴ,,株式会社,福岡県,福岡市博多区,博多駅前１丁目２３番２号ＰａｒｋＦｒｏｎｔ博多駅前１丁目５Ｆ－Ｂ,,40,132,8120011,,,,,,,2023-12-01,1,,,,,ピクト,0
997,4290001103892,新規,0,2023-12-01,2023-12-01,株式会社さくら,,株式会社,福岡県,福岡市城南区,西片江２丁目２３番３号,,40,136,8140141,,,,,,,2023-12-01,1,,,,,サクラ,0
999,4290003014675,新規,0,2023-12-01,2023-12-01,ＷＡＲＩ　ＴＲＡＤＩＮＧ合同会社,,合同会社,福岡県,飯塚市,赤坂８４６番地１１１,,40,205,8200106,,,,,,,2023-12-01,1,,,,,ワリトレーディング,0
1002,4290803004553,新規,0,2023-12-01,2023-12-01,合同会社Ｍ＆Ｍ　ＯＩＬ　ＳＥＲＶＩＣＥ,,合同会社,福岡県,北九州市八幡西区,紅梅２丁目２番１－９０２号,,40,109,8060011,,,,,,,2023-12-01,1,,,,,エムアンドエムオイルサービス,0
1003,4300003002050,新規,0,2023-12-01,2023-12-01,有岡合同会社,,合同会社,佐賀県,佐賀市,駅前中央３丁目４番２号５０１,,41,201,8400801,,,,,,,2023-12-01,1,,,,,アリオカ,0
1005,4310005008730,新規,0,2023-12-01,2023-12-01,特定非営利活動法人長崎海運人材育成協会,,その他の設立登記法人,長崎県,長崎市,浪の平町６６番３号,,42,201,8500936,,,,,,,2023-12-01,1,,,,,ナガサキカイウンジンザイイクセイキョウカイ,0
1007,4320001020168,新規,0,2023-12-01,2023-12-01,株式会社Ｓｏｃｉａｌ　Ｐｌａｎｅｔ,,株式会社,大分県,大分市,王子西町７番華聖ビル１０５,,44,201,8700008,,,,,,,2023-12-01,1,,,,,ソーシャルプラネット,0
1017,4360001032853,新規,0,2023-12-01,2023-12-01,株式会社ユウユウホームオキナワ,,株式会社,沖縄県,中頭郡中城村,字南上原６５２番地７カーサ・ソマヤマ４０１号,,47,328,9012424,,,,,,,2023-12-01,1,,,,,ユウユウホームオキナワ,0
1026,4380002036348,新規,0,2023-12-01,2023-12-01,有限会社福富工業所,,有限会社,福島県,郡山市,鶴見坦２丁目３番１２号,,07,203,9638861,,,,,,,2023-12-01,1,,,,,フクトミコウギョウショ,0
1030,4390001017430,新規,0,2023-12-01,2023-12-01,株式会社川前サステナーズ,,株式会社,山形県,山形市,蔵王温泉９３８番の４,,06,201,9902301,,,,,,,2023-12-01,1,,,,,カワマエサステナーズ,0
1032,4400001016471,新規,0,2023-12-01,2023-12-01,水・木株式会社,,株式会社,岩手県,九戸郡九戸村,大字伊保内第２２地割１１２番地,,03,506,0286502,,,,,,,2023-12-01,1,,,,,ミズキ,0
1039,4430001090522,新規,0,2023-12-01,2023-12-01,株式会社シグナル,,株式会社,北海道,札幌市中央区,南八条西１５丁目１番５－５０３号,,01,101,0640808,,,,,,,2023-12-01,1,,,,,シグナル,0
1044,4500001025330,新規,0,2023-12-01,2023-12-01,株式会社ＹＡＤ,,株式会社,愛媛県,松山市,南江戸３丁目１０番１５号,,38,201,7900062,,,,,,,2023-12-01,1,,,,,ワイエーディ,0
1046,4500003003144,新規,0,2023-12-01,2023-12-01,Ｇｏ　Ｇｏ　Ｇｌａｍｐｉｎｇ合同会社,,合同会社,愛媛県,松山市,泊町９１０番地,,38,201,7918093,,,,,,,2023-12-01,1,,,,,ゴーゴーグランピング,0
1048,4700150122486,新規,0,2023-12-01,2023-12-01,Ｓｈｅｎｚｈｅｎ　Ｑｉｋａｋｏｎｇ　Ｔｅｃｈｎｏｌｏｇｙ　Ｃｏ．，Ｌｔｄ,,外国会社等,,,,,,,,１８０１Ｂ０３，ＹａｏｈｕａｃｈｕａｎｇｊｉａｎＢｕｉｌｄｉｎｇ，Ｎｏ．６０２３ＳｈｅｎｎａｎＡｖｅｎｕｅ，Ｔｉａｎ＆ａｐｏｓ；ａｎＣｏｍｍｕｎｉｔｙ，ＳｈａｔｏｕＳｔｒｅｅｔ，ＦｕｔｉａｎＤｉｓｔｒｉｃｔ，Ｓｈｅｎｚｈｅｎ,,,,,,2023-12-01,1,,,,,シェンジェンチーカーコンコージーヨウシエンゴンスー,0
1049,4700150122494,新規,0,2023-12-01,2023-12-01,ｓｈｅｎｚｈｅｎｓｈｉｈｕａｌａｉｍｅｉｍａｏｙｉ　ｙｏｕｘｉａｎｇｏｎｇｘｉ,,外国会社等,,,,,,,,ｌｕｏｈｕｑｕｎａｎｈｕｊｉｅｄａｏｊｉａｂｉｎｌｕ２００１ｈａｏｙａｎｇｇｕａｎｇｊｉｕｄｉａｎｘｉｅｚｉｌｏｕＢｚｕｏ６ｌｏｕ６１２ｈａｏｓｈｅｎｚｈｅｎ　５１８０００　ＣＮ,,,,,,2023-12-01,1,,,,,シンセンシファライメイマオイヨウシェンゴンスー,0
1050,4700150122503,新規,0,2023-12-01,2023-12-01,Ｙａｎｔａｉ　Ｓｈｅｎｇｙｏｕ　Ｈｏｍｅ　Ｔｅｘｔｉｌｅ　Ｃｏ．，Ｌｔｄ．,,外国会社等,,,,,,,,Ｉｎｓｉｄｅ　ｔｈｅ　ｆａｃｔｏｒｙ　Ｎｏ．３１８－１２，Ｆｕｈａｉ　Ｒｏａｄ，Ｆｕｓｈａｎ　Ｄｉｓｔｒｉｃｔ，Ｙａｎｔａｉ　Ｃｉｔｙ，Ｓｈａｎｄｏｎｇ　Ｐｒｏｖｉｎｃｅ，２６５５００，ＣＮ,,,,,,2023-12-01,1,,,,,イエンタイシュヨンヨウジアヨーンファーンジーピンヨウシエンゴーンスー,0
1053,5010003042348,新規,0,2023-12-01,2023-12-01,別府スパリゾート合同会社,,合同会社,東京都,千代田区,丸の内３丁目１番１号東京共同会計事務所内,,13,101,1000005,,,,,,,2023-12-01,1,,,,,ベップスパリゾート,0
1054,5010005037577,新規,0,2023-12-01,2023-12-01,一般社団法人なごみ,,その他の設立登記法人,東京都,中央区,銀座４丁目１２－２０銀座アポロ昭和館３階,,13,102,1040061,,,,,,,2023-12-01,1,,,,,ナゴミ,0
1064,5010401178834,新規,0,2023-12-01,2023-12-01,ＴＨＥ　ＷＡＹ株式会社,,株式会社,東京都,港区,芝浦３丁目１７番１１号天翔田町ビル３階３０９号室,,13,103,1080023,,,,,,,2023-12-01,1,,,,,ザウェイ,0
1066,5010403031470,新規,0,2023-12-01,2023-12-01,合同会社ゼファー,,合同会社,東京都,港区,南青山２丁目２０番１号平野ビル４０１,,13,103,1070062,,,,,,,2023-12-01,1,,,,,ゼファー,0
1067,5010403031479,新規,0,2023-12-01,2023-12-01,合同会社Ｍｕｒａｓａｋｉ,,合同会社,東京都,港区,六本木１丁目９番１０号アークヒルズ仙石山森タワー４０階,,13,103,1060032,,,,,,,2023-12-01,1,,,,,ムラサキ,0
1071,5010505003475,新規,0,2023-12-01,2023-12-01,一般社団法人ＴＬ人間学実践フォーラム,,その他の設立登記法人,東京都,台東区,雷門２丁目２番５号,,13,106,1110034,,,,,,,2023-12-01,1,,,,,ティーエルニンゲンガクジッセンフォーラム,0
1072,5010601064231,新規,0,2023-12-01,2023-12-01,洋宸株式会社,,株式会社,東京都,墨田区,亀沢４丁目２３番６－３Ｆ,,13,107,1300014,,,,,,,2023-12-01,1,,,,,ヨウシン,0
1088,5011003017967,新規,0,2023-12-01,2023-12-01,ｉｎｚａ合同会社,,合同会社,東京都,渋谷区,道玄坂１丁目１０番８号渋谷道玄坂東急ビル２Ｆ－Ｃ,,13,113,1500043,,,,,,,2023-12-01,1,,,,,インザ,0
1093,5011101105302,新規,0,2023-12-01,2023-12-01,株式会社Ｓｔｕｄｉｏ　Ａ,,株式会社,東京都,新宿区,西新宿６丁目８番１号,,13,104,1600023,,,,,,,2023-12-01,1,,,,,スタジオエー,0
1095,5011103013809,新規,0,2023-12-01,2023-12-01,合同会社即レス秘書軍,,合同会社,東京都,新宿区,北新宿１丁目１３－１９弘林ビル４階,,13,104,1690074,,,,,,,2023-12-01,1,,,,,ソクレスヒショグン,0
1106,5011803005956,新規,0,2023-12-01,2023-12-01,合同会社ヌリタケ,,合同会社,東京都,足立区,加賀１丁目２０－１７,,13,121,1230861,,,,,,,2023-12-01,1,,,,,ヌリタケ,0
1109,5013301051706,新規,0,2023-12-01,2023-12-01,聚鹿顧問株式会社,,株式会社,東京都,豊島区,要町３丁目３７番１号１Ａ,,13,116,1710043,,,,,,,2023-12-01,1,,,,,シュウカコモン,0
1117,5020003025104,新規,0,2023-12-01,2023-12-01,合同会社ＰＯＭＭＥ,,合同会社,神奈川県,川崎市宮前区,けやき平１番３０－１０１号,,14,136,2160023,,,,,,,2023-12-01,1,,,,,ポム,0
1118,5020005016200,新規,0,2023-12-01,2023-12-01,一般社団法人神奈川県エクステリア建設業協会,,その他の設立登記法人,神奈川県,横浜市都筑区,仲町台１丁目１８－８－１０１,,14,118,2240041,,,,,,,2023-12-01,1,,,,,カナガワケンエクステリアケンセツギョウキョウカイ,0
1122,5021001080867,新規,0,2023-12-01,2023-12-01,株式会社友進,,株式会社,神奈川県,綾瀬市,綾西５丁目１１番９－２０２号,,14,218,2521126,,,,,,,2023-12-01,1,,,,,ユウシン,0
1124,5021003013858,新規,0,2023-12-01,2023-12-01,合同会社Ｎｉｃｈｉｙｏ　Ｓｔｕｄｉｏ,,合同会社,神奈川県,厚木市,長谷１２９０番地,,14,212,2430036,,,,,,,2023-12-01,1,,,,,ニチヨースタジオ,0
1134,5030001157385,新規,0,2023-12-01,2023-12-01,株式会社ｂｒｅａ,,株式会社,埼玉県,さいたま市見沼区,東大宮５丁目３５－９オーゼットローヤル２１６,,11,104,3370051,,,,,,,2023-12-01,1,,,,,ブレア,0
1135,5030001157393,新規,0,2023-12-01,2023-12-01,小沢企画株式会社,,株式会社,埼玉県,川越市,大字藤間１１３２－１４,,11,201,3501142,,,,,,,2023-12-01,1,,,,,オザワキカク,0
1136,5030001157443,新規,0,2023-12-01,2023-12-01,株式会社ＡＲＴ　ＷＯＲＫＳ　ＫＯＭＡＣＨＩＤＯＲＩ,,株式会社,埼玉県,鴻巣市,明用１９７番地８,,11,217,3690135,,,,,,,2023-12-01,1,,,,,アートワークスコマチドリ,0
1137,5030001157468,新規,0,2023-12-01,2023-12-01,株式会社大漁,,株式会社,埼玉県,桶川市,北２丁目１４番８号,,11,231,3630011,,,,,,,2023-12-01,1,,,,,タイリョウ,0
1146,5030003023073,新規,0,2023-12-01,2023-12-01,Ｓｅｎｓｅ　Ｌａｂｏ合同会社,,合同会社,埼玉県,さいたま市北区,東大成町１丁目１５５番２号,,11,102,3310814,,,,,,,2023-12-01,1,,,,,センスラボ,0
1147,5030003023098,新規,0,2023-12-01,2023-12-01,ｓｕｎｗｅｓｔ合同会社,,合同会社,埼玉県,川口市,飯塚１丁目１９番１１号,,11,203,3320023,,,,,,,2023-12-01,1,,,,,サンウエスト,0
1148,5030003023107,新規,0,2023-12-01,2023-12-01,ＦＩＴＲＡＳ　ＬＬＣ合同会社,,合同会社,埼玉県,所沢市,くすのき台１丁目１０番７号肥沼ビル３Ｆ,,11,208,3590037,,,,,,,2023-12-01,1,,,,,フィットラスエルエルシー,0
1150,5030005021488,新規,0,2023-12-01,2023-12-01,一般財団法人寺内萬治郎記念財団,,その他の設立登記法人,埼玉県,さいたま市浦和区,上木崎４丁目１０番１９－３０１号,,11,107,3300071,,,,,,,2023-12-01,1,,,,,テラウチマンジロウキネンザイダン,0
1164,5040001131190,新規,0,2023-12-01,2023-12-01,ＤＸＭ国際株式会社,,株式会社,千葉県,印西市,草深字天王脇１１２２番２８,,12,231,2701337,,,,,,,2023-12-01,1,,,,,ディーエックスエムコクサイ,0
1167,5040005022213,新規,0,2023-12-01,2023-12-01,一般社団法人ユニバーサルフライングクラブ,,その他の設立登記法人,千葉県,佐倉市,ユーカリが丘１丁目１８番１６号,,12,212,2850858,,,,,,,2023-12-01,1,,,,,ユニバーサルフライングクラブ,0
1170,5050003007966,新規,0,2023-12-01,2023-12-01,ＡＬ‐ＥＭＡＤ合同会社,,合同会社,茨城県,つくば市,春日４丁目２６－１７パークハイン１０３,,08,220,3050821,,,,,,,2023-12-01,1,,,,,アルエマド,0
1172,5070001041115,新規,0,2023-12-01,2023-12-01,株式会社ハセケン,,株式会社,群馬県,佐波郡玉村町,大字板井１２５３番地,,10,464,3701135,,,,,,,2023-12-01,1,,,,,,0
1173,5070001041131,新規,0,2023-12-01,2023-12-01,株式会社春霞,,株式会社,群馬県,桐生市,相生町２丁目５３６番地の１－３０３号,,10,203,3760011,,,,,,,2023-12-01,1,,,,,シュンカ,0
1176,5070005010198,新規,0,2023-12-01,2023-12-01,特定非営利活動法人ふくしの広報社,,その他の設立登記法人,群馬県,吾妻郡中之条町,大字中之条町８１０番地ミレニアムちぎりいちＢ棟１０５号室,,10,421,3770424,,,,,,,2023-12-01,1,,,,,,0
1178,5080101024373,新規,0,2023-12-01,2023-12-01,きらり今沢株式会社,,株式会社,静岡県,沼津市,大岡１７０５番地の４,,22,203,4100022,,,,,,,2023-12-01,1,,,,,キラリイマザワ,0
1190,5120001260262,新規,0,2023-12-01,2023-12-01,Ｒｉｃｈ　Ｋｉｎｇ株式会社,,株式会社,大阪府,大阪市生野区,巽北１丁目１番１号２Ｆ－Ｆ,00132847,27,116,5440004,,,,,,,2023-12-01,1,,,,,リッチキング,0
1191,5120001260270,新規,0,2023-12-01,2023-12-01,新裕澤株式会社,,株式会社,大阪府,大阪市住吉区,遠里小野６丁目７－２２プレアール遠里小野ＩＩ５０７号室,00132848,27,120,5580032,,,,,,,2023-12-01,1,,,,,シンユウタク,0
1192,5120001260279,新規,0,2023-12-01,2023-12-01,株式会社ＴＳＵＭＩＫＩ,,株式会社,大阪府,大阪市中央区,淡路町１丁目５番１０号ＧＳハイム船場５０１号,,27,128,5410047,,,,,,,2023-12-01,1,,,,,ツミキ,0
1194,5120003025432,新規,0,2023-12-01,2023-12-01,Ｋｏａ合同会社,,合同会社,大阪府,大阪市此花区,春日出北２丁目７番３号,,27,104,5540021,,,,,,,2023-12-01,1,,,,,コア,0
1211,5130001075800,新規,0,2023-12-01,2023-12-01,株式会社ＢｕＺＺ,,株式会社,京都府,八幡市,八幡園内５０番地の２８,,26,210,6148038,,,,,,,2023-12-01,1,,,,,バズ,0
1217,5140001132518,新規,0,2023-12-01,2023-12-01,株式会社真栄,,株式会社,兵庫県,宍粟市,山崎町五十波５７３番地,,28,227,6712515,,,,,,,2023-12-01,1,,,,,シンエイ,0
1220,5140005026815,新規,0,2023-12-01,2023-12-01,一般社団法人紡,,その他の設立登記法人,兵庫県,神戸市中央区,再度筋町２３番６－２０７,,28,110,6500005,,,,,,,2023-12-01,1,,,,,ツムギ,0
1229,5180001159094,新規,0,2023-12-01,2023-12-01,株式会社コムネット,,株式会社,愛知県,名古屋市天白区,中平５丁目８０５番地,,23,116,4680014,,,,,,,2023-12-01,1,,,,,コムネット,0
1230,5180001159136,新規,0,2023-12-01,2023-12-01,Ｌｕｓｔｅｒ株式会社,,株式会社,愛知県,春日井市,追進町３丁目１９番地１,,23,206,4860952,,,,,,,2023-12-01,1,,,,,ラスター,0
1244,5190001030915,新規,0,2023-12-01,2023-12-01,株式会社ユカリア,,株式会社,三重県,四日市市,三重７丁目８９番地,,24,202,5120912,,,,,,,2023-12-01,1,,,,,ユカリア,0
1249,5200003006168,新規,0,2023-12-01,2023-12-01,合同会社Ｆｕｎ　Ｌｉｆｅ,,合同会社,岐阜県,関市,巾３丁目３２０番地１０,,21,205,5013256,,,,,,,2023-12-01,1,,,,,ファンライフ,0
1252,5220001025713,新規,0,2023-12-01,2023-12-01,株式会社加賀麸匠一,,株式会社,石川県,金沢市,駅西新町１丁目２６番２２‐２号,,17,201,9200027,,,,,,,2023-12-01,1,,,,,カガフショウハジメ,0
1256,5230001020127,新規,0,2023-12-01,2023-12-01,株式会社ウィズ,,株式会社,富山県,高岡市,下麻生１０６７番地－２０２号,,16,202,9391272,,,,,,,2023-12-01,1,,,,,ウィズ,0
1259,5230005009348,新規,0,2023-12-01,2023-12-01,弁護士法人鍛治・谷口法律事務所,,その他の設立登記法人,富山県,高岡市,中川本町８番１号,,16,202,9330046,,,,,,,2023-12-01,1,,,,,カジタニグチホウリツジムショ,0
1260,5240001062390,新規,0,2023-12-01,2023-12-01,キャレオスホールディングス株式会社,,株式会社,広島県,福山市,新市町大字戸手１０２番地１,,34,207,7293101,,,,,,,2023-12-01,1,,,,,キャレオスホールディングス,0
1261,5250003003391,新規,0,2023-12-01,2023-12-01,合同会社冒険,,合同会社,山口県,美祢市,秋芳町嘉万２８８７番地,,35,213,7540601,,,,,,,2023-12-01,1,,,,,ボウケン,0
1271,5290001103883,新規,0,2023-12-01,2023-12-01,株式会社スペースハウリング,,株式会社,福岡県,大野城市,横峰２丁目２０番２６号,,40,219,8160973,,,,,,,2023-12-01,1,,,,,,0
1272,5290001103900,新規,0,2023-12-01,2023-12-01,シーザスターズ株式会社,,株式会社,福岡県,春日市,春日２丁目１５８番地,,40,218,8160814,,,,,,,2023-12-01,1,,,,,,0
1277,5290003014666,新規,0,2023-12-01,2023-12-01,合同会社幻,,合同会社,福岡県,福岡市中央区,天神２丁目２番１２号Ｔ＆Ｇビルディング７Ｆ,,40,133,8100001,,,,,,,2023-12-01,1,,,,,マボロシ,0
1283,5320001020167,新規,0,2023-12-01,2023-12-01,大野商店株式会社,,株式会社,大分県,大分市,都町２丁目５番５号巴ビル１階,,44,201,8700034,,,,,,,2023-12-01,1,,,,,オオノショウテン,0
1284,5330001031527,新規,0,2023-12-01,2023-12-01,株式会社虎の巻,,株式会社,熊本県,上益城郡御船町,大字上野１９６２番地,,43,441,8613322,,,,,,,2023-12-01,1,,,,,トラノマキ,0
1288,5350001018670,新規,0,2023-12-01,2023-12-01,藤山産業株式会社,,株式会社,宮崎県,日向市,大字財光寺２１０４番地７,,45,206,8830021,,,,,,,2023-12-01,1,,,,,フジヤマサンギョウ,0
1296,5370003006408,新規,0,2023-12-01,2023-12-01,Ｋａｌａｆｉｎｙａ合同会社,,合同会社,宮城県,仙台市泉区,南光台南２丁目１－３七福ビル２０１,,04,105,9818002,,,,,,,2023-12-01,1,,,,,カラフィーニャ,0
1307,5410001013657,新規,0,2023-12-01,2023-12-01,株式会社９,,株式会社,秋田県,秋田市,山王５丁目１３－３１平成コーポ山王ＩＩ１０１,00132857,05,201,0100951,,,,,,,2023-12-01,1,,,,,ナイン,0
1315,5430001090505,新規,0,2023-12-01,2023-12-01,金石株式会社,,株式会社,北海道,小樽市,松ケ枝２丁目２番５号,,01,203,0470022,,,,,,,2023-12-01,1,,,,,キンイシ,0
1316,5430001090546,新規,0,2023-12-01,2023-12-01,株式会社シェルサポートコンシェル,,株式会社,北海道,札幌市北区,北二十五条西１３丁目２番５号,,01,102,0010025,,,,,,,2023-12-01,1,,,,,シェルサポートコンシェル,0
1317,5430001090562,新規,0,2023-12-01,2023-12-01,株式会社アイリスエイト,,株式会社,北海道,札幌市厚別区,厚別中央三条２丁目９－３－２０２,,01,108,0040053,,,,,,,2023-12-01,1,,,,,アイリスエイト,0
1318,5430003015699,新規,0,2023-12-01,2023-12-01,合同会社エルプエンテ,,合同会社,北海道,岩見沢市,鳩が丘３丁目１番４号,,01,210,0680828,,,,,,,2023-12-01,1,,,,,エルプエンテ,0
1319,5430003015708,新規,0,2023-12-01,2023-12-01,合同会社ＳＷｄｏｎａｔｏｒｅ,,合同会社,北海道,札幌市北区,北二十七条西９丁目２番５－１０１号,,01,102,0010027,,,,,,,2023-12-01,1,,,,,エスダブリュドナトーレ,0
1321,5430005014831,新規,0,2023-12-01,2023-12-01,特定非営利活動法人お助けらっこ,,その他の設立登記法人,北海道,札幌市豊平区,平岸三条８丁目２番１０－８０３号,,01,105,0620933,,,,,,,2023-12-01,1,,,,,オタスケラッコ,0
1322,5460101007471,新規,0,2023-12-01,2023-12-01,株式会社八百万,,株式会社,北海道,帯広市,東六条南７丁目２０,,01,207,0800806,,,,,,,2023-12-01,1,,,,,ヤオヨロズ,0
1323,5480001012306,新規,0,2023-12-01,2023-12-01,株式会社鳴門屋マルシェ,,株式会社,徳島県,鳴門市,撫養町斎田字東発１６番地６,,36,202,7720002,,,,,,,2023-12-01,1,,,,,ナルトヤマルシェ,0
1326,5500003003143,新規,0,2023-12-01,2023-12-01,合同会社ワントライ,,合同会社,愛媛県,松山市,井門町９８９番地１,,38,201,7911114,,,,,,,2023-12-01,1,,,,,ワントライ,0
1328,5700150122485,新規,0,2023-12-01,2023-12-01,上海＿＿実業有限公司,00132743,外国会社等,,,,,,,,中国上海市奉賢区大葉公路６７５８号４幢１層,00132744,,,,,2023-12-01,1,,,,,シャンハイコウセイジツギョウユウゲンコウシ,0
1329,5700150122493,新規,0,2023-12-01,2023-12-01,ｓｈｅｎｚｈｅｎｓｈｉｙｉｎｓｕｄａｄｉａｎｚｉｓｈａｎｇｗｕ　ｙｏｕｘｉａｎｇｏｎｇｓｉ,,外国会社等,,,,,,,,ｓｈｅｎｚｈｅｎｓｈｉｌｕｏｈｕｑｕｃｕｉｚｈｕｊｉｅｄａｏｃｕｉｄａｓｈｅｑｕｃｕｉｚｈｕｌｕ２０５８ｈａｏｄｏｎｇｊｉｎｇｇｅ８１８　５１８０００　ＣＮ,,,,,,2023-12-01,1,,,,,シンセンシインスダデンシシャンウヨウシェンゴンスー,0
1330,5700150122502,新規,0,2023-12-01,2023-12-01,ｓｈｅｎｚｈｅｎｋａｎｇｊｉａｍｅｉｄｉａｎｚｉｙｏｕｘｉａｎｇｏｎｇｓｉ,,外国会社等,,,,,,,,Ｒｏｏｍ　１４Ａ０１，Ｂｕｉｌｄｉｎｇ　Ｂ，Ｋｅｌｕ　Ｂｕｉｌｄｉｎｇ，Ｎｏ．９９　Ｂａｏｓｈｅｎ　Ｒｏａｄ，Ｓｏｎｇｐｉｎｇｓｈａｎ　Ｃｏｍｍｕｎｉｔｙ，Ｘｉｌｉ　Ｓｔｒｅｅｔ，Ｎａｎｓｈａｎ　Ｄｉｓｔｒｉｃｔ，Ｓｈｅｎｚｈｅｎ，Ｇｕａｎｇｄｏｎｇ，５１８０００，ＣＮ,,,,,,2023-12-01,1,,,,,シェンジェンカーンジアメイディエンズーヨウシエンゴーンスー,0
1335,6010001240431,新規,0,2023-12-01,2023-12-01,株式会社Ｋ＆Ｍ　ＡＲＴ,,株式会社,東京都,千代田区,麹町２丁目１０番地３,,13,101,1020083,,,,,,,2023-12-01,1,,,,,ケイアンドエムアート,0
1340,6010003042223,新規,0,2023-12-01,2023-12-01,合同会社ｇｌｏｂａｌｗｏｒｋｓ,,合同会社,東京都,中央区,銀座１丁目１２番４号Ｎ＆ＥＢＬＤ．６Ｆ,,13,102,1040061,,,,,,,2023-12-01,1,,,,,グローバルワークス,0
1341,6010003042272,新規,0,2023-12-01,2023-12-01,ＧＨｐ合同会社,,合同会社,東京都,中央区,日本橋室町１丁目１１番１２号日本橋水野ビル７階,,13,102,1030022,,,,,,,2023-12-01,1,,,,,ジーエイチピー,0
1342,6010003042314,新規,0,2023-12-01,2023-12-01,合同会社飛梅,,合同会社,東京都,千代田区,霞が関３丁目２番５号,,13,101,1000013,,,,,,,2023-12-01,1,,,,,トビウメ,0
1343,6010005037568,新規,0,2023-12-01,2023-12-01,一般社団法人ＡＮＴ,,その他の設立登記法人,東京都,千代田区,神田佐久間町１丁目８番地４アルテール秋葉原７０８,,13,101,1010025,,,,,,,2023-12-01,1,,,,,アント,0
1344,6010005037576,新規,0,2023-12-01,2023-12-01,一般社団法人旅人の会,,その他の設立登記法人,東京都,中央区,銀座４丁目１２－２０銀座アポロ昭和館３階,,13,102,1040061,,,,,,,2023-12-01,1,,,,,タビビトノカイ,0
1347,6010401178627,新規,0,2023-12-01,2023-12-01,株式会社モアナ,,株式会社,東京都,港区,高輪１丁目２３番２３号シティタワー高輪１２１２号,,13,103,1080074,,,,,,,2023-12-01,1,,,,,モアナ,0
1348,6010401178791,新規,0,2023-12-01,2023-12-01,ＤｏｃｔＬｉｎｋ株式会社,,株式会社,東京都,港区,赤坂４丁目８番１９号赤坂フロントタウン３階,,13,103,1070052,,,,,,,2023-12-01,1,,,,,ドクトリンク,0
1349,6010401178825,新規,0,2023-12-01,2023-12-01,株式会社１２３,,株式会社,東京都,港区,白金１丁目２番１号白金ザ・スカイＥ１３０３,,13,103,1080072,,,,,,,2023-12-01,1,,,,,ワンツースリー,0
1350,6010401178833,新規,0,2023-12-01,2023-12-01,株式会社先端技術・半導体開発機構,,株式会社,東京都,港区,虎ノ門３丁目７番４号,,13,103,1050001,,,,,,,2023-12-01,1,,,,,センタンギジュツハンドウタイカイハツキコウ,0
1351,6010401178866,新規,0,2023-12-01,2023-12-01,株式会社ＳＡＮＴＡＭ,,株式会社,東京都,港区,南青山１丁目１番１号新青山ビル西館７階,,13,103,1070062,,,,,,,2023-12-01,1,,,,,サンタム,0
1356,6010403031478,新規,0,2023-12-01,2023-12-01,合同会社Ｕｍｅ,,合同会社,東京都,港区,六本木１丁目９番１０号アークヒルズ仙石山森タワー４０階,,13,103,1060032,,,,,,,2023-12-01,1,,,,,ウメ,0
1357,6010501051452,新規,0,2023-12-01,2023-12-01,株式会社オルド,,株式会社,東京都,台東区,４－３０－６－９０３,,13,106,1100000,,,,,,,2023-12-01,1,,,,,オルド,0
1366,6010903008620,新規,0,2023-12-01,2023-12-01,合同会社Ａ‐ＨＡ企画,,合同会社,東京都,世田谷区,成城５丁目２１番１７号,,13,112,1570066,,,,,,,2023-12-01,1,,,,,エーエイチエーキカク,0
1371,6011001158572,新規,0,2023-12-01,2023-12-01,株式会社ＨＲ,,株式会社,東京都,渋谷区,恵比寿西２丁目８番４号ＥＸ恵比寿西ビル５階,,13,113,1500021,,,,,,,2023-12-01,1,,,,,エイチアール,0
1372,6011001158580,新規,0,2023-12-01,2023-12-01,株式会社ｒｉｔｏｒｉｕｍ,,株式会社,東京都,渋谷区,道玄坂１丁目１０－８渋谷道玄坂東急ビル２Ｆ－Ｃ,,13,113,1500043,,,,,,,2023-12-01,1,,,,,リトリウム,0
1378,6011101105284,新規,0,2023-12-01,2023-12-01,株式会社ＮＥＸＴ　ＪＯＵＲＮＥＹ,,株式会社,東京都,新宿区,西新宿３丁目３番１３号西新宿水間ビル６階,,13,104,1600023,,,,,,,2023-12-01,1,,,,,ネクストジャーニー,0
1379,6011101105292,新規,0,2023-12-01,2023-12-01,Ｇ＆Ｅ株式会社,,株式会社,東京都,新宿区,百人町２丁目２３番２２号ローゼンハイム２０６号室,,13,104,1690073,,,,,,,2023-12-01,1,,,,,ジーアンドイー,0
1387,6011403004184,新規,0,2023-12-01,2023-12-01,ｃｉｒｃｌｅ　ａｎｄ　ｔｒｉａｎｇｌｅ合同会社,,合同会社,東京都,板橋区,板橋２丁目２１－１５－２０１,,13,119,1730004,,,,,,,2023-12-01,1,,,,,サークルアンドトライアングル,0
1393,6011503005867,新規,0,2023-12-01,2023-12-01,合同会社ハーモニック,,合同会社,東京都,荒川区,東日暮里１丁目１番４号９０１,,13,118,1160014,,,,,,,2023-12-01,1,,,,,ハーモニック,0
1397,6012303001908,新規,0,2023-12-01,2023-12-01,ＭＯＫ合同会社,,合同会社,東京都,町田市,矢部町１２番地１６,,13,209,1940214,,,,,,,2023-12-01,1,,,,,エムオーケー,0
1411,6020001154696,新規,0,2023-12-01,2023-12-01,株式会社ウェアリー,,株式会社,神奈川県,横浜市旭区,東希望が丘１７５番地１Ｂ３０８,,14,112,2410826,,,,,,,2023-12-01,1,,,,,ウェアリー,0
1412,6020001154705,新規,0,2023-12-01,2023-12-01,株式会社ラブアースプラネット,,株式会社,神奈川県,川崎市宮前区,土橋２丁目８番地３グランドメゾン鷺沼コート７０１,,14,136,2160005,,,,,,,2023-12-01,1,,,,,ラブアースプラネット,0
1415,6020003025103,新規,0,2023-12-01,2023-12-01,合同会社ゲンダイ,,合同会社,神奈川県,横浜市神奈川区,神之木台２番８号コーポ神之木台１０５号,,14,102,2210011,,,,,,,2023-12-01,1,,,,,ゲンダイ,0
1427,6030001157351,新規,0,2023-12-01,2023-12-01,株式会社フラット不動産,,株式会社,埼玉県,さいたま市大宮区,桜木町４丁目７６番地１大野ビル３Ｆ,,11,103,3300854,,,,,,,2023-12-01,1,,,,,フラットフドウサン,0
1428,6030001157401,新規,0,2023-12-01,2023-12-01,武井興業株式会社,,株式会社,埼玉県,鴻巣市,屈巣２３７７番地,,11,217,3650014,,,,,,,2023-12-01,1,,,,,タケイコウギョウ,0
1429,6030001157442,新規,0,2023-12-01,2023-12-01,未来貿易株式会社,,株式会社,埼玉県,蕨市,中央４丁目２番２号ポプラ第一ビル２Ｂ号室,,11,223,3350004,,,,,,,2023-12-01,1,,,,,ミライボウエキ,0
1430,6030001157450,新規,0,2023-12-01,2023-12-01,株式会社ＦＬＡＧ,,株式会社,埼玉県,幸手市,大字上吉羽７１５－３,,11,240,3400121,,,,,,,2023-12-01,1,,,,,フラッグ,0
1431,6030001157459,新規,0,2023-12-01,2023-12-01,株式会社凌駕,,株式会社,埼玉県,さいたま市岩槻区,大字小溝９７番地９３,,11,110,3390003,,,,,,,2023-12-01,1,,,,,リョウガ,0
1432,6030001157475,新規,0,2023-12-01,2023-12-01,株式会社Ｒ,,株式会社,埼玉県,川口市,新井町９番２０号,,11,203,3320005,,,,,,,2023-12-01,1,,,,,アール,0
1439,6030003023089,新規,0,2023-12-01,2023-12-01,合同会社ヘルシイライフ,,合同会社,埼玉県,川口市,元郷１丁目１番２１－１３０９,,11,203,3320011,,,,,,,2023-12-01,1,,,,,ヘルシイライフ,0
1440,6030003023097,新規,0,2023-12-01,2023-12-01,合同会社ＳＨ９８,,合同会社,埼玉県,本庄市,万年寺３丁目２３番４６号,,11,211,3670064,,,,,,,2023-12-01,1,,,,,エスエイチキュウハチ,0
1441,6030003023106,新規,0,2023-12-01,2023-12-01,合同会社大吉設備,,合同会社,埼玉県,川口市,大字木曽呂２８番地の１７,,11,203,3330831,,,,,,,2023-12-01,1,,,,,ダイキチセツビ,0
1450,6040001131173,新規,0,2023-12-01,2023-12-01,株式会社ＺＥＮ,,株式会社,千葉県,千葉市中央区,本千葉町１３番１号パークホームズ千葉１３１５号,,12,101,2600014,,,,,,,2023-12-01,1,,,,,ゼン,0
1463,6050003007981,新規,0,2023-12-01,2023-12-01,ＡＬＬ　ＷＩＮ合同会社,,合同会社,茨城県,日立市,金沢町２丁目２９－２５スウィートヴィラ１０２号室,,08,202,3160015,,,,,,,2023-12-01,1,,,,,オールウィン,0
1467,6070001041147,新規,0,2023-12-01,2023-12-01,株式会社ＲＹＵＹＯ,,株式会社,群馬県,伊勢崎市,野町３４６番地,,10,204,3792205,,,,,,,2023-12-01,1,,,,,リュウヨウ,0
1472,6080101024372,新規,0,2023-12-01,2023-12-01,佳和株式会社,,株式会社,静岡県,熱海市,下多賀１４８４番地の４１６,,22,205,4130102,,,,,,,2023-12-01,1,,,,,ケイワ,0
1474,6090001018424,新規,0,2023-12-01,2023-12-01,小佐野ａｓＳｅｔ株式会社,,株式会社,山梨県,南都留郡西桂町,小沼２７７７番地２,,19,423,4030022,,,,,,,2023-12-01,1,,,,,オサノアセット,0
1475,6090001018440,新規,0,2023-12-01,2023-12-01,株式会社ＡＫＡＬＡ,,株式会社,山梨県,南都留郡富士河口湖町,船津３１２６番地グランドールガヴァンＡ,,19,430,4010301,,,,,,,2023-12-01,1,,,,,アカラ,0
1487,6120001260261,新規,0,2023-12-01,2023-12-01,ＳｐｅｅｄＳｈｉｎｅ株式会社,,株式会社,大阪府,大阪市生野区,巽西３丁目１９－２３,00132843,27,116,5440012,,,,,,,2023-12-01,1,,,,,スピードシャイン,0
1488,6120001260278,新規,0,2023-12-01,2023-12-01,泊舟堂株式会社,,株式会社,大阪府,大阪市東住吉区,矢田１丁目２６－７ＵＩＩＴビル矢田４０１号室,,27,121,5460023,,,,,,,2023-12-01,1,,,,,ハクシュウドウ,0
1489,6120001260286,新規,0,2023-12-01,2023-12-01,株式会社ＪＡＰＡＮ　ＴＲＹ,,株式会社,大阪府,大阪市北区,西天満４丁目２番５－１００３,,27,127,5300047,,,,,,,2023-12-01,1,,,,,ジャパントライ,0
1490,6120001260294,新規,0,2023-12-01,2023-12-01,大西空調株式会社,,株式会社,大阪府,大阪市此花区,春日出南１丁目４番６号,,27,104,5540023,,,,,,,2023-12-01,1,,,,,オオニシクウチョウ,0
1498,6122001037615,新規,0,2023-12-01,2023-12-01,株式会社野口スマートハウス,,株式会社,大阪府,八尾市,東太子２丁目１番４６号,,27,212,5810062,,,,,,,2023-12-01,1,,,,,ノグチスマートハウス,0
1503,6130001075832,新規,0,2023-12-01,2023-12-01,株式会社ＭＩＲＡＩ,,株式会社,京都府,長岡京市,東神足２丁目１１番８号ジュノア神足２０２,,26,209,6170832,,,,,,,2023-12-01,1,,,,,ミライ,0
1519,6160001025529,新規,0,2023-12-01,2023-12-01,株式会社ＧＫ‐ｃｏｎｎｅｃｔ,,株式会社,滋賀県,大津市,粟津町４番７号石山駅前近江鉄道ビル５階ｂｉｌｌａｇｅＯＴＳＵ１０６号,,25,201,5200832,,,,,,,2023-12-01,1,,,,,ジーケーコネクト,0
1538,6180001159119,新規,0,2023-12-01,2023-12-01,株式会社ＲｉｇｈｔＬａｎｅ,,株式会社,愛知県,名古屋市中区,栄２丁目１５番１６号白川タワービル７Ｆ,,23,106,4600008,,,,,,,2023-12-01,1,,,,,ライトレーン,0
1539,6180001159143,新規,0,2023-12-01,2023-12-01,Ｊａｓｉｏｎ　Ｊａｐａｎ株式会社,,株式会社,愛知県,名古屋市北区,元志賀町１丁目５番地,,23,103,4620044,,,,,,,2023-12-01,1,,,,,ジェイソンジャパン,0
1542,6180003026044,新規,0,2023-12-01,2023-12-01,合同会社ゲットライト,,合同会社,愛知県,名古屋市瑞穂区,弥富通二丁目３０セントフィオーレ５０３,,23,108,4670000,,,,,,,2023-12-01,1,,,,,ゲットライト,0
1546,6180301038071,新規,0,2023-12-01,2023-12-01,株式会社豊橋テストセンター,,株式会社,愛知県,豊橋市,青竹町字青竹５２番地３,,23,201,4418085,,,,,,,2023-12-01,1,,,,,トヨハシテストセンター,0
1549,6180303005920,新規,0,2023-12-01,2023-12-01,合同会社かつら,,合同会社,愛知県,岡崎市,山綱町字中野４７番地,,23,202,4443513,,,,,,,2023-12-01,1,,,,,カツラ,0
1551,6190001030922,新規,0,2023-12-01,2023-12-01,友奎エステート株式会社,,株式会社,三重県,四日市市,北浜田町２番８号Ｙアルモニー３０１,,24,202,5100062,,,,,,,2023-12-01,1,,,,,ユウケイエステート,0
1558,6230001020126,新規,0,2023-12-01,2023-12-01,株式会社貴,,株式会社,富山県,高岡市,五福町５番６号,,16,202,9330906,,,,,,,2023-12-01,1,,,,,タカ,0
1560,6240001062480,新規,0,2023-12-01,2023-12-01,株式会社ＳＡＳＡＢＥ不動産,,株式会社,広島県,三次市,南畑敷町３３５番地６,,34,209,7280017,,,,,,,2023-12-01,1,,,,,ササベフドウサン,0
1561,6240001062489,新規,0,2023-12-01,2023-12-01,株式会社Ｗａｇａｓｈｉ屋,,株式会社,広島県,広島市中区,薬研堀６番１９号筒井ビル３Ｆ,,34,101,7300027,,,,,,,2023-12-01,1,,,,,ワガシヤ,0
1573,6290001103882,新規,0,2023-12-01,2023-12-01,株式会社Ｉｌｌｉｍｉｔｅ,,株式会社,福岡県,那珂川市,道善３丁目７５番地コンダクトレジデンス那珂川１００３号,,40,231,8111254,,,,,,,2023-12-01,1,,,,,イリミテ,0
1579,6290003014673,新規,0,2023-12-01,2023-12-01,ビズメディア合同会社,,合同会社,福岡県,福岡市博多区,博多駅前１丁目５Ｆ－Ｂ,,40,132,8120011,,,,,,,2023-12-01,1,,,,,ビズメディア,0
1583,6300003002049,新規,0,2023-12-01,2023-12-01,合同会社ＷＡＣＴ,,合同会社,佐賀県,佐賀市,堀川町１番３６号,,41,201,8400832,,,,,,,2023-12-01,1,,,,,ワクト,0
1585,6320001020166,新規,0,2023-12-01,2023-12-01,株式会社ｆｉｎｏ．,,株式会社,大分県,大分市,明野北１丁目２２１２番地２,,44,201,8700165,,,,,,,2023-12-01,1,,,,,フィノ,0
1586,6340001026104,新規,0,2023-12-01,2023-12-01,鹿児島ウエックス株式会社,,株式会社,鹿児島県,姶良市,平松３２８８番地,,46,225,8995652,,,,,,,2023-12-01,1,,,,,カゴシマウエックス,0
1594,6390001017429,新規,0,2023-12-01,2023-12-01,株式会社ＣＯＵＲＴＥＳＹ,,株式会社,山形県,山形市,青田南７番８号,,06,201,9902324,,,,,,,2023-12-01,1,,,,,コーテシー,0
1597,6410001013656,新規,0,2023-12-01,2023-12-01,株式会社秋田ロード,,株式会社,秋田県,能代市,河戸川字北西山４８番地１,,05,202,0160171,,,,,,,2023-12-01,1,,,,,アキタロード,0
1598,6420003002838,新規,0,2023-12-01,2023-12-01,合同会社弘前障害福祉研究所,,合同会社,青森県,弘前市,大字松森町１９番地１パストラルハイム弘前８０４号,,02,202,0368184,,,,,,,2023-12-01,1,,,,,ヒロサキショウガイフクシケンキュウショ,0
1603,6430003015707,新規,0,2023-12-01,2023-12-01,北境通旅合同会社,,合同会社,北海道,札幌市北区,北十八条西３丁目２－３６ライフポイント１８Ｃ２０６,,01,102,0010018,,,,,,,2023-12-01,1,,,,,ホッキョウツウリョ,0
1609,6500003003142,新規,0,2023-12-01,2023-12-01,ＨＡＲＥ合同会社,,合同会社,愛媛県,四国中央市,土居町入野５６番地ちかいビル２Ｆ,,38,213,7990712,,,,,,,2023-12-01,1,,,,,ハレ,0
1612,6700150122484,新規,0,2023-12-01,2023-12-01,瀋陽優衣科技有限公司,,外国会社等,,,,,,,,中国遼寧省瀋陽市皇姑区黄河北大街２６２号３００１室Ｄ０９号,,,,,,2023-12-01,1,,,,,シンヨウユウイカギユウゲンコウシ,0
1613,6700150122492,新規,0,2023-12-01,2023-12-01,ｑｉｎｇｄａｏｔａｉｚｅｊｉｎｆａｎｇｓｈａｎｇｍａｏ　ｙｏｕｘｉａｎｇｏｎｇｓｉ,,外国会社等,,,,,,,,ｓｈｉｂｅｉｑｕｃｈｏｎｇｑｉｎｇｎａｎｌｕ５３ｈａｏ－３０４ｑｉｎｇｄａｏｓｈｉｓｈａｎｄｏｎｇｓｈｅｎｇ　２６６０００　ＣＮ,,,,,,2023-12-01,1,,,,,チンタオタイゼジンファンシャンマオヨウシェンゴンスー,0
1614,6700150122501,新規,0,2023-12-01,2023-12-01,Ｓｈｅｎｚｈｅｎｓｈｉ　Ｂｏｍｉｎｇｈａｏ　Ｔｅｃｈｎｏｌｏｇｙ　Ｃｏｍｐａｎｙ　Ｌｉｍｉｔｅｄ,,外国会社等,,,,,,,,Ｎｏ．６０２，３－１，Ｌａｏｗｅｉ，Ｗｅｓｔ　ｏｆ　Ｌｉａｎｈｅ，Ｎａｎｙｕｅ　ｃｏｍｍｕｎｉｔｙ，Ｂａｏｌｏｎｇ　ｓｔｒｅｅｔ，Ｌｏｎｇｇａｎｇ　Ｄｉｓｔｒｉｃｔ，Ｓｈｅｎｚｈｅｎ，Ｇｕａｎｇｄｏｎｇ，５１８０００，ＣＮ,,,,,,2023-12-01,1,,,,,シェンジェンシーボーミーンハオコーァジーヨウシエンゴーンスー,0
1623,7010001240463,新規,0,2023-12-01,2023-12-01,株式会社フィアズ,,株式会社,東京都,千代田区,神田和泉町１番地６－１６ヤマトビル４０５,,13,101,1010024,,,,,,,2023-12-01,1,,,,,フィアズ,0
1624,7010003042338,新規,0,2023-12-01,2023-12-01,合同会社デア,,合同会社,東京都,千代田区,麹町３丁目１０番地１２ザ・パークハウス麹町レジデンス１２０４号,,13,101,1020083,,,,,,,2023-12-01,1,,,,,デア,0
1634,7010403031485,新規,0,2023-12-01,2023-12-01,合同会社ＢＬＵＥ　ＷＥＤＧＥ,,合同会社,東京都,港区,南青山５丁目１７番１２号,,13,103,1070062,,,,,,,2023-12-01,1,,,,,ブルーウェッジ,0
1648,7011001158539,新規,0,2023-12-01,2023-12-01,株式会社てそえる,,株式会社,東京都,渋谷区,恵比寿西２丁目８番４号ＥＸ恵比寿西ビル５Ｆ,,13,113,1500021,,,,,,,2023-12-01,1,,,,,テソエル,0
1657,7011202013245,新規,0,2023-12-01,2023-12-01,白樺商事有限会社,,有限会社,東京都,中野区,弥生町３丁目１３番８号,,13,114,1640013,,,,,,,2023-12-01,1,,,,,シラカバショウジ,0
1675,7013301051704,新規,0,2023-12-01,2023-12-01,よつばアメニティ株式会社,,株式会社,東京都,豊島区,南大塚３丁目４５番７号ラインビル２０３,,13,116,1700005,,,,,,,2023-12-01,1,,,,,ヨツバアメニティ,0
1681,7020001154695,新規,0,2023-12-01,2023-12-01,株式会社同心,,株式会社,神奈川県,川崎市高津区,久地１丁目３２番１９号,,14,134,2130032,,,,,,,2023-12-01,1,,,,,ドウシン,0
1682,7020003025011,新規,0,2023-12-01,2023-12-01,合同会社ＬＩＦＥＩＳ,,合同会社,神奈川県,横浜市西区,北幸２丁目１０番地４８むつみビル３Ｆ,,14,103,2200004,,,,,,,2023-12-01,1,,,,,ライフイズ,0
1683,7020003025093,新規,0,2023-12-01,2023-12-01,合同会社近藤企画,,合同会社,神奈川県,川崎市中原区,中丸子１２４６－１－８０１,,14,133,2110012,,,,,,,2023-12-01,1,,,,,コンドウキカク,0
1684,7020003025102,新規,0,2023-12-01,2023-12-01,合同会社藤本ビル,,合同会社,神奈川県,横浜市西区,南幸２丁目７番９号,,14,103,2200005,,,,,,,2023-12-01,1,,,,,フジモトビル,0
1688,7021001080865,新規,0,2023-12-01,2023-12-01,株式会社ＺＥＲＯ,,株式会社,神奈川県,秦野市,南矢名２丁目２番１１号,,14,211,2570003,,,,,,,2023-12-01,1,,,,,ゼロ,0
1700,7030001157375,新規,0,2023-12-01,2023-12-01,サプラステックサービス株式会社,,株式会社,埼玉県,さいたま市浦和区,常盤７丁目１４番１８号,,11,107,3300061,,,,,,,2023-12-01,1,,,,,サプラステックサービス,0
1701,7030001157441,新規,0,2023-12-01,2023-12-01,本間共同会計株式会社,,株式会社,埼玉県,新座市,新座１丁目１０番７号,,11,230,3520006,,,,,,,2023-12-01,1,,,,,ホンマキョウドウカイケイ,0
1702,7030001157458,新規,0,2023-12-01,2023-12-01,株式会社Ｆｉｒ　Ｔｒｅｅ,,株式会社,埼玉県,久喜市,久喜中央１丁目３番２５号クロスビル１階,,11,232,3460003,,,,,,,2023-12-01,1,,,,,ファーツリー,0
1706,7030003023088,新規,0,2023-12-01,2023-12-01,ＳｙｓｔｅｍＳｕｐｐｏｒｔ合同会社,,合同会社,埼玉県,川口市,南鳩ヶ谷５丁目１３－１１－１階,,11,203,3340013,,,,,,,2023-12-01,1,,,,,システムサポート,0
1707,7030003023105,新規,0,2023-12-01,2023-12-01,Ｐｉ‐３合同会社,,合同会社,埼玉県,所沢市,大字北秋津１０７番地の４,,11,208,3590038,,,,,,,2023-12-01,1,,,,,パイスリー,0
1711,7040001131172,新規,0,2023-12-01,2023-12-01,株式会社ｗｙｖｅｒｎ．,,株式会社,千葉県,市川市,南行徳１丁目５番７号,,12,203,2720138,,,,,,,2023-12-01,1,,,,,ワイバーン,0
1712,7040001131180,新規,0,2023-12-01,2023-12-01,株式会社エンジトライブ,,株式会社,千葉県,船橋市,湊町２丁目１２－２４湊町日本橋ビル６Ｆ,,12,204,2730011,,,,,,,2023-12-01,1,,,,,エンジトライブ,0
1722,7050001053894,新規,0,2023-12-01,2023-12-01,株式会社ＫＫサービス,,株式会社,茨城県,行方市,小幡１６４２番地２,,08,233,3111715,,,,,,,2023-12-01,1,,,,,ケイケイサービス,0
1743,7080101024371,新規,0,2023-12-01,2023-12-01,株式会社ファーストテイク,,株式会社,静岡県,三島市,東本町１丁目２－６英光ビルＩ,00132844,22,206,4110831,,,,,,,2023-12-01,1,,,,,ファーストテイク,0
1748,7100001037017,新規,0,2023-12-01,2023-12-01,株式会社ＭＳオトーズ,,株式会社,長野県,中野市,大字立ケ花２３４番地３,,20,211,3830054,,,,,,,2023-12-01,1,,,,,エムエスオトーズ,0
1756,7120001260269,新規,0,2023-12-01,2023-12-01,銘泉株式会社,,株式会社,大阪府,大阪市住吉区,遠里小野６丁目７－２２プレアール遠里小野ＩＩ１０５号室,00132846,27,120,5580032,,,,,,,2023-12-01,1,,,,,メイセン,0
1757,7120001260293,新規,0,2023-12-01,2023-12-01,株式会社大商事,,株式会社,大阪府,大阪市西区,江之子島１丁目７番３号奥内阿波座駅前ビル１００１号室,,27,106,5500006,,,,,,,2023-12-01,1,,,,,ダイショウジ,0
1758,7120001260302,新規,0,2023-12-01,2023-12-01,株式会社Ｓ　ｐｌｕｓ,,株式会社,大阪府,大阪市東住吉区,駒川１丁目１８番２６号奏住庵１０２号,,27,121,5460043,,,,,,,2023-12-01,1,,,,,エスプラス,0
1759,7120001260327,新規,0,2023-12-01,2023-12-01,株式会社コベイブ,,株式会社,大阪府,大阪市中央区,内本町２丁目３番８号,,27,128,5400026,,,,,,,2023-12-01,1,,,,,コベイブ,0
1760,7120003025430,新規,0,2023-12-01,2023-12-01,興盛商事合同会社,,合同会社,大阪府,大阪市西成区,玉出東１丁目７－２３－２０１室,,27,122,5570043,,,,,,,2023-12-01,1,,,,,コウセイショウジ,0
1761,7120005024018,新規,0,2023-12-01,2023-12-01,一般社団法人パーフェクトスキンスカルプ協会,,その他の設立登記法人,大阪府,大阪市中央区,南船場４丁目１２番９号クレスト心斎橋３０３号,,27,128,5420081,,,,,,,2023-12-01,1,,,,,パーフェクトスキンスカルプキョウカイ,0
1777,7140001132508,新規,0,2023-12-01,2023-12-01,桜Ｒｅｆｏｒｍ株式会社,,株式会社,兵庫県,明石市,魚住町住吉３丁目７４５番地の７５,,28,203,6740083,,,,,,,2023-12-01,1,,,,,サクラリフォーム,0
1778,7140001132524,新規,0,2023-12-01,2023-12-01,株式会社ジョイントスリー,,株式会社,兵庫県,神戸市兵庫区,下沢通８丁目４番４号コスモ神戸上沢駅前５１０,,28,105,6520047,,,,,,,2023-12-01,1,,,,,ジョイントスリー,0
1792,7180001159126,新規,0,2023-12-01,2023-12-01,株式会社ＦＵＭＩＹＡホールディングス,,株式会社,愛知県,名古屋市東区,白壁３丁目２８番１９号,,23,102,4610011,,,,,,,2023-12-01,1,,,,,フミヤホールディングス,0
1793,7180001159142,新規,0,2023-12-01,2023-12-01,株式会社アサラム,,株式会社,愛知県,名古屋市昭和区,宮東町７０番地パークレジデンス名古屋大学前３０１号,,23,107,4660804,,,,,,,2023-12-01,1,,,,,アサラム,0
1794,7180003026019,新規,0,2023-12-01,2023-12-01,ブライトリー合同会社,,合同会社,愛知県,名古屋市名東区,高針１丁目８０５番地の１,,23,115,4650061,,,,,,,2023-12-01,1,,,,,ブライトリー,0
1797,7180301038070,新規,0,2023-12-01,2023-12-01,遼河鯉庵株式会社,,株式会社,愛知県,豊田市,加納町寄元１８番地,,23,211,4700364,,,,,,,2023-12-01,1,,,,,リョウガリアン,0
1801,7190003004510,新規,0,2023-12-01,2023-12-01,ＳＨＩＫＩ合同会社,,合同会社,三重県,四日市市,諏訪栄町１１番５号堀田ビル地下１階,,24,202,5100086,,,,,,,2023-12-01,1,,,,,シキ,0
1805,7220003003632,新規,0,2023-12-01,2023-12-01,合同会社道端印刷,,合同会社,石川県,輪島市,鳳至町上町１４５番地４号,,17,204,9280077,,,,,,,2023-12-01,1,,,,,ミチバタインサツ,0
1810,7240001062488,新規,0,2023-12-01,2023-12-01,株式会社よしかわ,,株式会社,広島県,広島市中区,弥生町６－３ホテルＢＥＮＥビル１０１,,34,101,7300023,,,,,,,2023-12-01,1,,,,,ヨシカワ,0
1814,7260003004511,新規,0,2023-12-01,2023-12-01,合同会社ゆめのくらふと,,合同会社,岡山県,岡山市北区,一宮１７１‐１３,,33,101,7011211,,,,,,,2023-12-01,1,,,,,ユメノクラフト,0
1823,7290801030086,新規,0,2023-12-01,2023-12-01,ＣＤＣ株式会社,,株式会社,福岡県,北九州市八幡西区,浅川２丁目１１番３０号－２０２,,40,109,8070872,,,,,,,2023-12-01,1,,,,,シーディーシー,0
1830,7340001026111,新規,0,2023-12-01,2023-12-01,Ｂｉｚアド株式会社,,株式会社,鹿児島県,鹿児島市,魚見町１０３番４５,,46,201,8910112,,,,,,,2023-12-01,1,,,,,ビズアド,0
1836,7360001032883,新規,0,2023-12-01,2023-12-01,ａｓ　Ｉｔ株式会社,,株式会社,沖縄県,石垣市,字大川２７８番地ＴＡＭＡビルＩＩ２Ｆ２０１号室,00132849,47,207,9070022,,,,,,,2023-12-01,1,,,,,アズイット,0
1849,7430001090528,新規,0,2023-12-01,2023-12-01,株式会社北鉄,,株式会社,北海道,石狩市,花川南三条３丁目１３０番地,,01,235,0613203,,,,,,,2023-12-01,1,,,,,ホクテツ,0
1850,7430001090536,新規,0,2023-12-01,2023-12-01,株式会社ＩＢコンサルティング,,株式会社,北海道,札幌市中央区,円山西町１丁目１番１－１０６号,,01,101,0640944,,,,,,,2023-12-01,1,,,,,アイビーコンサルティング,0
1852,7430003015706,新規,0,2023-12-01,2023-12-01,合同会社ＳＴＲＥＡＭ　ＯＮＥ,,合同会社,北海道,札幌市豊平区,西岡一条７丁目１番１４号,,01,105,0620031,,,,,,,2023-12-01,1,,,,,ストリームワン,0
1853,7430005014838,新規,0,2023-12-01,2023-12-01,一般社団法人こどもＳＯＳ,,その他の設立登記法人,北海道,石狩郡当別町,若葉２２６３番地８,,01,303,0610204,,,,,,,2023-12-01,1,,,,,コドモエスオーエス,0
1860,7470003002519,新規,0,2023-12-01,2023-12-01,合同会社タニ塗装,,合同会社,香川県,高松市,十川東町１４５９番地２２,,37,201,7610434,,,,,,,2023-12-01,1,,,,,タニトソウ,0
1861,7480001012304,新規,0,2023-12-01,2023-12-01,株式会社徳島新聞社,,株式会社,徳島県,徳島市,中徳島町２丁目５番地２,,36,201,7700853,,,,,,,2023-12-01,1,,,,,トクシマシンブンシャ,0
1864,7500005008659,新規,0,2023-12-01,2023-12-01,特定非営利活動法人愛生会,,その他の設立登記法人,愛媛県,松山市,西長戸町３３５－１９,,38,201,7918017,,,,,,,2023-12-01,1,,,,,アイセイカイ,0
1867,7700150122483,新規,0,2023-12-01,2023-12-01,利原有限公司,,外国会社等,,,,,,,,中国香港新界沙田安平街６号新貿中心Ｂ座１２楼６室,,,,,,2023-12-01,1,,,,,リゲンユウゲンコウシ,0
1868,7700150122491,新規,0,2023-12-01,2023-12-01,ＧｕａｎｇｚｈｏｕＸｉａｏｋｅＤｉａｎｚｉＳｈａｎｇｗｕ　ＹｏｕｘｉａｎＧｏｎｇｓｉ,,外国会社等,,,,,,,,Ｔｉａｎｈｅｑｕｃｈｅｂｅｉｄａｇａｎｇｌｕ１８ｈａｏ１００５ＦａｎｇＧｕａｎｇｚｈｏｕｓｈｉ,,,,,,2023-12-01,1,,,,,コウシュウシャオコデンシシャンウヨウシェンゴンスー,0
1869,7700150122500,新規,0,2023-12-01,2023-12-01,ＦＬＯＮＧＯ　ＬＩＭＩＴＥＤ,,外国会社等,,,,,,,,ＲＯＯＭ　Ａ　８／Ｆ　ＫＷＯＫ　ＣＨＥＵＮＧ　ＢＵＩＬＤＩＮＧ　６３５－６３７　ＳＨＡＮＧＨＡＩ　ＳＴＲＥＥＴ　ＭＯＮＧ　ＫＯＫ　ＫＬ　０００００　ＨＫ,,,,,,2023-12-01,1,,,,,フォーラーンヨウシエンゴーンスー,0
1876,8010001240438,新規,0,2023-12-01,2023-12-01,株式会社ＫＯＫＯＲＯ,,株式会社,東京都,中央区,銀座１丁目１２－４Ｎ＆ＥＢＬＤ．７階,,13,102,1040061,,,,,,,2023-12-01,1,,,,,ココロ,0
1877,8010001240487,新規,0,2023-12-01,2023-12-01,株式会社Ｌｉｅｎ　Ｓ　Ｃｏ．,,株式会社,東京都,中央区,築地２丁目１－２秀和築地レジデンス３０５,,13,102,1040045,,,,,,,2023-12-01,1,,,,,リアンエスカンパニー,0
1879,8010003042345,新規,0,2023-12-01,2023-12-01,合同会社ＰＯＲＴＵＳ,,合同会社,東京都,文京区,千石１丁目６番２４－５０１号,,13,105,1120011,,,,,,,2023-12-01,1,,,,,ポータス,0
1886,8010401178823,新規,0,2023-12-01,2023-12-01,ＴＥＰＰＥＮ株式会社,,株式会社,東京都,港区,六本木７丁目７番７号トライセブン六本木８階,,13,103,1060032,,,,,,,2023-12-01,1,,,,,テッペン,0
1887,8010401178856,新規,0,2023-12-01,2023-12-01,株式会社ＴＩＤＥＬＩＮＫ,,株式会社,東京都,港区,赤坂２丁目８番２号エクレシアヒルズ溜池山王３階Ｂ,,13,103,1070052,,,,,,,2023-12-01,1,,,,,タイドリンク,0
1890,8010503007228,新規,0,2023-12-01,2023-12-01,合同会社うぐいすカンパニー,,合同会社,東京都,台東区,根岸４丁目６番２－２０５号ザ・パークハウス根岸,,13,106,1100003,,,,,,,2023-12-01,1,,,,,ウグイスカンパニー,0
1894,8010701045194,新規,0,2023-12-01,2023-12-01,株式会社ＨＥＲＯ’Ｎ,,株式会社,東京都,品川区,西五反田４丁目９番１４号Ｐｏｒｔｏｇｒａｎｄｅかむろ坂１５号室,,13,109,1410031,,,,,,,2023-12-01,1,,,,,ヒーロン,0
1906,8011001158521,新規,0,2023-12-01,2023-12-01,株式会社ＤｅｅｐＭｅｄｉａ　ＡＰ,,株式会社,東京都,渋谷区,広尾５丁目２２番３号広尾西川ビル８Ｆ,,13,113,1500012,,,,,,,2023-12-01,1,,,,,ディープメディアエーピー,0
1907,8011001158570,新規,0,2023-12-01,2023-12-01,Ｃｏｓｍｏｓ　Ｉｎｖｅｓｔｍｅｎｔｓ株式会社,,株式会社,東京都,渋谷区,道玄坂１丁目１０番８号渋谷道玄坂東急ビル２Ｆ－Ｃ,,13,113,1500043,,,,,,,2023-12-01,1,,,,,コスモスインベストメンツ,0
1910,8011005010298,新規,0,2023-12-01,2023-12-01,一般社団法人日本創業経営支援協会,,その他の設立登記法人,東京都,渋谷区,神泉町２０－２１,,13,113,1500045,,,,,,,2023-12-01,1,,,,,ニホンソウギョウケイエイシエンキョウカイ,0
1917,8011103013789,新規,0,2023-12-01,2023-12-01,全＿合同会社,00132842,合同会社,東京都,新宿区,下落合３丁目１番１１号,,13,104,1610033,,,,,,,2023-12-01,1,,,,,ゼンイク,0
1919,8011303004984,新規,0,2023-12-01,2023-12-01,合同会社Ｔｓｕｎａｇｉ,,合同会社,東京都,杉並区,宮前４丁目３０番２号,,13,115,1680081,,,,,,,2023-12-01,1,,,,,ツナギ,0
1926,8012403006301,新規,0,2023-12-01,2023-12-01,合同会社ＪＮ開発,,合同会社,東京都,武蔵野市,吉祥寺本町１丁目１１番３０号,,13,203,1800004,,,,,,,2023-12-01,1,,,,,ジェイエヌカイハツ,0
1927,8012801022783,新規,0,2023-12-01,2023-12-01,株式会社Ｂｏｎｄｅａｒｔ,,株式会社,東京都,国立市,富士見台３丁目３３番地１０Ｋ＆Ｋビル４階,,13,215,1860003,,,,,,,2023-12-01,1,,,,,ボンダート,0
1934,8013303006903,新規,0,2023-12-01,2023-12-01,ａｔｅｌｉｅｒ　Ｓｉｒｉｕｓ合同会社,,合同会社,東京都,豊島区,長崎３丁目１番１５号,,13,116,1710051,,,,,,,2023-12-01,1,,,,,アトリエシリウス,0
1936,8020001154694,新規,0,2023-12-01,2023-12-01,まごねこソリューションズ株式会社,,株式会社,神奈川県,横浜市西区,北幸１丁目１１番１号水信ビル７階,,14,103,2200004,,,,,,,2023-12-01,1,,,,,マゴネコソリューションズ,0
1937,8020001154711,新規,0,2023-12-01,2023-12-01,巨合株式会社,,株式会社,神奈川県,横浜市南区,万世町１丁目１０－２フォーチュンハイツ２０１,,14,105,2320032,,,,,,,2023-12-01,1,,,,,キョワ,0
1939,8020003025101,新規,0,2023-12-01,2023-12-01,合同会社ＫＡＥＹＡ,,合同会社,神奈川県,川崎市宮前区,鷺沼４丁目１０番地３５,,14,136,2160004,,,,,,,2023-12-01,1,,,,,カエヤ,0
1956,8030001157358,新規,0,2023-12-01,2023-12-01,ハンズループ株式会社,,株式会社,埼玉県,さいたま市南区,沼影２丁目３番１－１０２号,,11,108,3360027,,,,,,,2023-12-01,1,,,,,ハンズループ,0
1957,8030001157424,新規,0,2023-12-01,2023-12-01,株式会社茂呂総建,,株式会社,埼玉県,所沢市,大字下富１２０８番地の９５,,11,208,3590001,,,,,,,2023-12-01,1,,,,,モロソウケン,0
1958,8030001157449,新規,0,2023-12-01,2023-12-01,株式会社８ＢＡＬＬＧＡＲＡＧＥ,,株式会社,埼玉県,春日部市,大場１１８６－１コージンビル２０３,,11,214,3440021,,,,,,,2023-12-01,1,,,,,エイトボールガレージ,0
1961,8030003023112,新規,0,2023-12-01,2023-12-01,合同会社Ｋ＆Ｈ,,合同会社,埼玉県,草加市,青柳７丁目６８番１１号,,11,221,3400002,,,,,,,2023-12-01,1,,,,,ケイアンドエイチ,0
1969,8040001131163,新規,0,2023-12-01,2023-12-01,フォーリーフ株式会社,,株式会社,千葉県,千葉市花見川区,朝日ケ丘３丁目１８番３号サンライズヒル朝日ヶ丘Ｃ２１０号,,12,102,2620019,,,,,,,2023-12-01,1,,,,,フォーリーフ,0
1970,8040001131171,新規,0,2023-12-01,2023-12-01,ＳＡＯＲＩ株式会社,,株式会社,千葉県,茂原市,六ツ野２９２７－１,,12,210,2970012,,,,,,,2023-12-01,1,,,,,サオリ,0
1979,8070001041129,新規,0,2023-12-01,2023-12-01,株式会社Ｋ．Ｓ香莉奈,,株式会社,群馬県,太田市,新田大根町３８番地１,,10,205,3700347,,,,,,,2023-12-01,1,,,,,ケイエスカリナ,0
1980,8070001041137,新規,0,2023-12-01,2023-12-01,株式会社ヤマト社中,,株式会社,群馬県,前橋市,城東町４丁目４番８号,,10,201,3710016,,,,,,,2023-12-01,1,,,,,ヤマトシャチュウ,0
1986,8080001026005,新規,0,2023-12-01,2023-12-01,株式会社たち吉静岡,,株式会社,静岡県,静岡市葵区,昭和町６番地の２,,22,101,4200033,,,,,,,2023-12-01,1,,,,,タチキチシズオカ,0
1995,8110001038005,新規,0,2023-12-01,2023-12-01,株式会社ホーミング・スカイ,,株式会社,新潟県,長岡市,川崎２丁目２５７６番地６,,15,202,9400864,,,,,,,2023-12-01,1,,,,,ホーミングスカイ,0
2006,8120001260284,新規,0,2023-12-01,2023-12-01,三君産業株式会社,,株式会社,大阪府,守口市,金下町２丁目３番７－４０７号,,27,209,5700079,,,,,,,2023-12-01,1,,,,,サンクンサンギョウ,0
2007,8120001260342,新規,0,2023-12-01,2023-12-01,株式会社Ｂｅｙｏｎｄ‐Ｓｔａｇｅ,,株式会社,大阪府,大阪市此花区,梅香３丁目１５番１２号,,27,104,5540013,,,,,,,2023-12-01,1,,,,,ビヨンドステージ,0
2011,8120003025396,新規,0,2023-12-01,2023-12-01,英華通商合同会社,,合同会社,大阪府,大阪市西成区,玉出東１丁目７番２３号１０２室,,27,122,5570043,,,,,,,2023-12-01,1,,,,,エイカツウショウ,0
2012,8120003025421,新規,0,2023-12-01,2023-12-01,８６９合同会社,,合同会社,大阪府,大阪市北区,梅田１丁目２番２号大阪駅前第２ビル１２－１２,,27,127,5300001,,,,,,,2023-12-01,1,,,,,ハチロクキュウ,0
2013,8120003025438,新規,0,2023-12-01,2023-12-01,合同会社Ｒアライズ,,合同会社,大阪府,守口市,紅屋１－２１,,27,209,5700000,,,,,,,2023-12-01,1,,,,,アールアライズ,0
2014,8120103005546,新規,0,2023-12-01,2023-12-01,合同会社ＨＩＭＡＷＡＲＩ,,合同会社,大阪府,堺市北区,中村町４５１番地４,,27,146,5918012,,,,,,,2023-12-01,1,,,,,ヒマワリ,0
2015,8120103005554,新規,0,2023-12-01,2023-12-01,Ａｓｉａ　Ｆｏｏｄ　Ｌｉｎｋ合同会社,,合同会社,大阪府,富田林市,寺池台３丁目２４－１５,,27,214,5840073,,,,,,,2023-12-01,1,,,,,アジアフードリンク,0
2016,8120901048416,新規,0,2023-12-01,2023-12-01,Ｉ＆Ｄリサイクル株式会社,,株式会社,大阪府,高槻市,梶原６丁目７－３,,27,207,5690091,,,,,,,2023-12-01,1,,,,,アイアンドディーリサイクル,0
2017,8120905006535,新規,0,2023-12-01,2023-12-01,一般社団法人日本塗装知識普及協会,,その他の設立登記法人,大阪府,吹田市,片山町３丁目２６番５－２号,,27,205,5640082,,,,,,,2023-12-01,1,,,,,ニホントソウチシキフキュウキョウカイ,0
2018,8122001037621,新規,0,2023-12-01,2023-12-01,株式会社フェニックスジャパン,,株式会社,大阪府,東大阪市,上小阪４丁目１４番１５号,,27,227,5770806,,,,,,,2023-12-01,1,,,,,フェニックスジャパン,0
2026,8140001132515,新規,0,2023-12-01,2023-12-01,玉野株式会社,,株式会社,兵庫県,神戸市東灘区,御影石町３丁目１０番１５－１０１号,,28,101,6580045,,,,,,,2023-12-01,1,,,,,,0
2028,8140003019826,新規,0,2023-12-01,2023-12-01,合同会社ＫＧ,,合同会社,兵庫県,明石市,大久保町江井島７０７番地の１－１０３号,,28,203,6740064,,,,,,,2023-12-01,1,,,,,キログラム,0
2031,8140005026820,新規,0,2023-12-01,2023-12-01,一般社団法人ハピークレイジー,,その他の設立登記法人,兵庫県,神戸市須磨区,離宮前町１丁目８番３号,,28,107,6540065,,,,,,,2023-12-01,1,,,,,ハピークレイジー,0
2038,8180001159117,新規,0,2023-12-01,2023-12-01,株式会社ＵＴＵＱＳＩＡ,,株式会社,愛知県,名古屋市東区,東桜１丁目９番１９号成田栄ビル７階,,23,102,4610005,,,,,,,2023-12-01,1,,,,,ウツクシア,0
2039,8180001159125,新規,0,2023-12-01,2023-12-01,株式会社Ｉｒｉｓ　ＭＪ,,株式会社,愛知県,名古屋市東区,泉１丁目７番３４号,,23,102,4610001,,,,,,,2023-12-01,1,,,,,アイリスエムジェイ,0
2043,8180003026059,新規,0,2023-12-01,2023-12-01,合同会社項明水産,,合同会社,愛知県,知多郡阿久比町,大字白沢字池下１５番地５池下テラス２０１号,,23,441,4702201,,,,,,,2023-12-01,1,,,,,コウメイスイサン,0
2044,8180003026067,新規,0,2023-12-01,2023-12-01,合同会社アピコネクスト,,合同会社,愛知県,名古屋市中川区,花池町３丁目１２番地の１エスポワール八田２０３号,,23,110,4540902,,,,,,,2023-12-01,1,,,,,アピコネクスト,0
2054,8210003001727,新規,0,2023-12-01,2023-12-01,合同会社いやしの里いけだ,,合同会社,福井県,今立郡池田町,板垣第５４号２番地１,,18,382,9102527,,,,,,,2023-12-01,1,,,,,イヤシノサトイケダ,0
2061,8240001062479,新規,0,2023-12-01,2023-12-01,株式会社１ＮＡＢＡ,,株式会社,広島県,広島市中区,堀川町３番３号津田文ビル１Ｆ,,34,101,7300033,,,,,,,2023-12-01,1,,,,,イナバ,0
2062,8240001062495,新規,0,2023-12-01,2023-12-01,日興ホールディングス株式会社,,株式会社,広島県,東広島市,西条町寺家３８４７番地の２,,34,212,7390041,,,,,,,2023-12-01,1,,,,,ニッコウホールディングス,0
2065,8240003006434,新規,0,2023-12-01,2023-12-01,合同会社ふぃるどあっぷ事務所,,合同会社,広島県,広島市佐伯区,五日市駅前２丁目１８番２７号,,34,108,7315125,,,,,,,2023-12-01,1,,,,,フィルドアップジムショ,0
2076,8290001103880,新規,0,2023-12-01,2023-12-01,株式会社アトリエケチャップ,,株式会社,福岡県,福岡市東区,香住ヶ丘６丁目２２番２５号,,40,131,8130003,,,,,,,2023-12-01,1,,,,,アトリエケチャップ,0
2078,8290003014671,新規,0,2023-12-01,2023-12-01,合同会社リバウィー,,合同会社,福岡県,久留米市,三潴町西牟田６４４７番地２,,40,203,8300111,,,,,,,2023-12-01,1,,,,,リバウィー,0
2085,8340001026102,新規,0,2023-12-01,2023-12-01,株式会社エヌクリエイト,,株式会社,鹿児島県,曽於市,大隅町中之内２２４番地,,46,217,8998103,,,,,,,2023-12-01,1,,,,,エヌクリエイト,0
2091,8370001050677,新規,0,2023-12-01,2023-12-01,株式会社ＳＣ,,株式会社,宮城県,名取市,手倉田字諏訪３５７番地の２,,04,207,9811231,,,,,,,2023-12-01,1,,,,,エスシー,0
2099,8400003003183,新規,0,2023-12-01,2023-12-01,合同会社水江商事,,合同会社,岩手県,滝沢市,鵜飼大緩３９番地３４号２０２号,,03,216,0200662,,,,,,,2023-12-01,1,,,,,ミズエショウジ,0
2102,8430001090460,新規,0,2023-12-01,2023-12-01,びえい未来まき農場株式会社,,株式会社,北海道,江別市,緑町東３丁目９１番地,,01,217,0670003,,,,,,,2023-12-01,1,,,,,ビエイミライマキノウジョウ,0
2103,8430001090527,新規,0,2023-12-01,2023-12-01,株式会社ウォーク,,株式会社,北海道,石狩市,花川南八条４丁目３６８番地６,,01,235,0613208,,,,,,,2023-12-01,1,,,,,ウォーク,0
2104,8430001090543,新規,0,2023-12-01,2023-12-01,株式会社ＴＬＰ,,株式会社,北海道,札幌市西区,八軒九条東２丁目１番１９号,,01,107,0630869,,,,,,,2023-12-01,1,,,,,ティーエルピー,0
2111,8700150122482,新規,0,2023-12-01,2023-12-01,永康市標榜工貿有限公司,,外国会社等,,,,,,,,中国浙江省金華市永康市芝英鎮遊溪塘村康庄路６８号,,,,,,2023-12-01,1,,,,,エイコウシヒョウボウコウボウユウゲンコウシ,0
2112,8700150122490,新規,0,2023-12-01,2023-12-01,ｃｈａｎｇ　ｎｉｎｇ　ｓｈｉ　ｘｉａｎｇ　ｆｕ　ｋｅ　ｊｉ　ｙｏｕ　ｘｉａｎ　ｇｏｎｇ　ｓｉ,,外国会社等,,,,,,,,Ｃｈａｎｇｎｉｎｇ　Ｃｉｔｙ　Ｎｏ．３６，Ｑｕｎｙｉｎｇ　Ｗｅｓｔ　Ｒｏａｄ　Ｙｉｙａｎｇ　Ｓｔｒｅｅｔ　Ｈｅｎｇｙａｎｇ　Ｈｕｎａｎ　４２１５００　ＣＮ,,,,,,2023-12-01,1,,,,,チャンニンシシァンフゥカージヨウシェンゴンスー,0
2113,8700150122499,新規,0,2023-12-01,2023-12-01,ｊｉｎｊｉａｎｇｔｅｍｏｄｏｕｋｅｊｉｙｏｕｘｉａｎｇｏｎｇｓｉ,,外国会社等,,,,,,,,２＃２８０３，Ｄｉｓｔ．Ａ，Ｊｉｎｊｉａｎｇ　Ｗａｎｄａ　Ｈｕａｆｕ　Ｇｕｉｓｈａｎ　Ｃｏｍｍｕｎｉｔｙ，Ｍｅｉｌｉｎｇ　Ｓｔ．，Ｊｉｎｊｉａｎｇ　Ｑｕａｎｚｈｏｕ，Ｆｕｊｉａｎ,,,,,,2023-12-01,1,,,,,ジンジアーントーァモードウコーァジーヨウシエンゴーンスー,0
2123,9010001240354,新規,0,2023-12-01,2023-12-01,株式会社Ａｌｒｉｃｈｅｓｓｅ,,株式会社,東京都,中央区,銀座１丁目１２番４号Ｎ＆ＥＢＬＤ．６Ｆ,,13,102,1040061,,,,,,,2023-12-01,1,,,,,アルリシェス,0
2124,9010001240453,新規,0,2023-12-01,2023-12-01,山佐産業ＣＭ２リース株式会社,,株式会社,東京都,千代田区,丸の内３丁目１番１号東京共同会計事務所内,,13,101,1000005,,,,,,,2023-12-01,1,,,,,ヤマササンギョウシーエムツーリース,0
2139,9010401178814,新規,0,2023-12-01,2023-12-01,株式会社ＭＯＯＮＧＬＯＷ　Ｃｒｅａｔｉｏｎ,,株式会社,東京都,港区,東麻布１丁目２７番８号関東厨房機器会館５Ｆ,,13,103,1060044,,,,,,,2023-12-01,1,,,,,ムーングロウクリエイション,0
2140,9010401178855,新規,0,2023-12-01,2023-12-01,株式会社ＨＵＧＡ,,株式会社,東京都,港区,赤坂２丁目８番２号エクレシアヒルズ溜池山王３階Ｂ,,13,103,1070052,,,,,,,2023-12-01,1,,,,,ヒューガ,0
2141,9010403031483,新規,0,2023-12-01,2023-12-01,合同会社Ｈ＆Ｓ,,合同会社,東京都,港区,東麻布１丁目７番１号,,13,103,1060044,,,,,,,2023-12-01,1,,,,,エイチアンドエス,0
2142,9010405022745,新規,0,2023-12-01,2023-12-01,一般社団法人Ｍｏｍｉｊｉ　Ｌｏｇｉｓｔｉｃｓ,,その他の設立登記法人,東京都,港区,六本木１丁目９番１０号アークヒルズ仙石山森タワー４０階,,13,103,1060032,,,,,,,2023-12-01,1,,,,,モミジロジスティックス,0
2163,9011001158537,新規,0,2023-12-01,2023-12-01,株式会社Ｎ．Ｄ．Ａ,,株式会社,東京都,渋谷区,東１丁目２番２３号,,13,113,1500011,,,,,,,2023-12-01,1,,,,,エヌディーエー,0
2166,9011005010297,新規,0,2023-12-01,2023-12-01,一般社団法人日本国際教育協力機関,,その他の設立登記法人,東京都,渋谷区,神泉町２０－２１,,13,113,1500045,,,,,,,2023-12-01,1,,,,,ニッポンコクサイキョウイクキョウリョクキカン,0
2169,9011103013805,新規,0,2023-12-01,2023-12-01,合同会社コマースシップ,,合同会社,東京都,新宿区,新宿１丁目３６番２号新宿第七葉山ビル,,13,104,1600022,,,,,,,2023-12-01,1,,,,,コマースシップ,0
2170,9011103013813,新規,0,2023-12-01,2023-12-01,合同会社黒木,,合同会社,東京都,新宿区,原町３丁目２８番２０５,,13,104,1620053,,,,,,,2023-12-01,1,,,,,クロキ,0
2177,9011501030063,新規,0,2023-12-01,2023-12-01,ＳＷＭ株式会社,,株式会社,東京都,北区,浮間１丁目１－１４リムジンビル１３０号,,13,117,1150051,,,,,,,2023-12-01,1,,,,,エスダブルエム,0
2181,9011503005848,新規,0,2023-12-01,2023-12-01,ノーススターシステム合同会社,,合同会社,東京都,北区,赤羽３丁目２６番１８－５０５号モア・クレスト赤羽２番館,,13,117,1150045,,,,,,,2023-12-01,1,,,,,ノーススターシステム,0
2187,9011803005969,新規,0,2023-12-01,2023-12-01,Ｓ＆Ｇフーズ合同会社,,合同会社,東京都,葛飾区,東堀切１丁目１９番６号,,13,122,1240004,,,,,,,2023-12-01,1,,,,,エスアンドジーフーズ,0
2192,9012401041282,新規,0,2023-12-01,2023-12-01,株式会社稲葉グループ,,株式会社,東京都,府中市,府中町２丁目９番地の１プレステージ府中４０２,,13,206,1830055,,,,,,,2023-12-01,1,,,,,イナバグループ,0
2207,9020003025100,新規,0,2023-12-01,2023-12-01,合同会社ＷｅｂＲｅｌａｔｉｏｎｓ,,合同会社,神奈川県,横浜市青葉区,鉄町１０４４番地１,,14,117,2250025,,,,,,,2023-12-01,1,,,,,ウェブリレーションズ,0
2209,9021001080789,新規,0,2023-12-01,2023-12-01,千代田ハウジング株式会社,,株式会社,神奈川県,相模原市中央区,横山３丁目３１番９号,,14,152,2520242,,,,,,,2023-12-01,1,,,,,チヨダハウジング,0
2210,9021001080871,新規,0,2023-12-01,2023-12-01,株式会社エーラインジャポネスポーツ,,株式会社,神奈川県,藤沢市,菖蒲沢６５２番地の４,,14,205,2520823,,,,,,,2023-12-01,1,,,,,エーラインジャポネスポーツ,0
2220,9030001157365,新規,0,2023-12-01,2023-12-01,株式会社ブルーミング,,株式会社,埼玉県,さいたま市大宮区,桜木町２丁目３番地大宮マルイ７階,,11,103,3300854,,,,,,,2023-12-01,1,,,,,ブルーミング,0
2221,9030001157381,新規,0,2023-12-01,2023-12-01,ＬＹ株式会社,,株式会社,埼玉県,川口市,並木２丁目４１番９号九龍ビル２０５室,,11,203,3320034,,,,,,,2023-12-01,1,,,,,エルワイ,0
2222,9030001157431,新規,0,2023-12-01,2023-12-01,株式会社エーロン,,株式会社,埼玉県,川口市,西青木３丁目１３番２２－２号,,11,203,3320035,,,,,,,2023-12-01,1,,,,,エーロン,0
2223,9030001157448,新規,0,2023-12-01,2023-12-01,株式会社彩縁興業,,株式会社,埼玉県,さいたま市南区,南浦和２丁目２８番１３－５１９号,,11,108,3360017,,,,,,,2023-12-01,1,,,,,アヤフチコウギョウ,0
2224,9030001157456,新規,0,2023-12-01,2023-12-01,和光ビルメンテナンス株式会社,,株式会社,埼玉県,和光市,新倉２丁目２５番７号,,11,229,3510115,,,,,,,2023-12-01,1,,,,,ワコウビルメンテナンス,0
2229,9030003023094,新規,0,2023-12-01,2023-12-01,中日橋合同会社,,合同会社,埼玉県,さいたま市南区,文蔵５丁目４－１１メゾンユキ１０２号室,,11,108,3360025,,,,,,,2023-12-01,1,,,,,チュウニバシ,0
2230,9030003023111,新規,0,2023-12-01,2023-12-01,ＳＣＲ合同会社,,合同会社,埼玉県,川口市,芝中田１丁目１１番１２号,,11,203,3330847,,,,,,,2023-12-01,1,,,,,エスシーアール,0
2233,9040001022155,新規,0,2023-12-01,2023-12-01,株式会社島田製作所,,株式会社,千葉県,船橋市,栄町１丁目２５番１号,,12,204,2730018,,,,,,,2023-12-01,1,,,,,シマダセイサクショ,0
2238,9040001131170,新規,0,2023-12-01,2023-12-01,みなとコンサルティング株式会社,,株式会社,千葉県,市川市,行徳駅前２丁目１７番２号Ｔ．ＮＫビル６Ｆ－Ａ,,12,203,2720133,,,,,,,2023-12-01,1,,,,,ミナトコンサルティング,0
2246,9070001041128,新規,0,2023-12-01,2023-12-01,まるほしほーむ株式会社,,株式会社,群馬県,伊勢崎市,寿町１３７番地５,,10,204,3720052,,,,,,,2023-12-01,1,,,,,マルホシホーム,0
2258,9080401026867,新規,0,2023-12-01,2023-12-01,株式会社ｓｈｉ’ｓ,,株式会社,静岡県,掛川市,富部１００９番地,,22,213,4360224,,,,,,,2023-12-01,1,,,,,シーズ,0
2269,9120001260127,新規,0,2023-12-01,2023-12-01,株式会社創建工房,,株式会社,大阪府,大阪市平野区,背戸口５丁目４番地２号,,27,126,5470034,,,,,,,2023-12-01,1,,,,,,0
2270,9120001260291,新規,0,2023-12-01,2023-12-01,株式会社銀河鉄道,,株式会社,大阪府,寝屋川市,堀溝北町７番１０号,,27,215,5720810,,,,,,,2023-12-01,1,,,,,ギンガテツドウ,0
2277,9122001037620,新規,0,2023-12-01,2023-12-01,株式会社ｙ’ｓ,,株式会社,大阪府,東大阪市,高井田西６丁目３番１８号,,27,227,5770067,,,,,,,2023-12-01,1,,,,,ワイズ,0
2290,9180001159108,新規,0,2023-12-01,2023-12-01,株式会社ＫＫＭフューチャー,,株式会社,愛知県,弥富市,荷之上町権七走２６６８番地,,23,235,4980011,,,,,,,2023-12-01,1,,,,,ケーケーエムフューチャー,0
2291,9180001159116,新規,0,2023-12-01,2023-12-01,株式会社ＳＴＫ,,株式会社,愛知県,知多郡武豊町,字楠４丁目１７番地,,23,447,4702358,,,,,,,2023-12-01,1,,,,,エスティーケー,0
2292,9180001159124,新規,0,2023-12-01,2023-12-01,株式会社幸心,,株式会社,愛知県,名古屋市東区,泉１丁目１９－３１,,23,102,4610001,,,,,,,2023-12-01,1,,,,,コウシン,0
2293,9180001159132,新規,0,2023-12-01,2023-12-01,株式会社ＴｒｉＬｉｆｅ,,株式会社,愛知県,名古屋市北区,中味鋺３丁目７２４番地,,23,103,4620015,,,,,,,2023-12-01,1,,,,,トライライフ,0
2296,9180301038069,新規,0,2023-12-01,2023-12-01,Ｄ．コーポレーション株式会社,,株式会社,愛知県,豊田市,東梅坪町６丁目８番地１６,,23,211,4710071,,,,,,,2023-12-01,1,,,,,ディーコーポレーション,0
2298,9180303005918,新規,0,2023-12-01,2023-12-01,Ｔｒｅａｓｕｒｅ　Ｂｏｘ　Ｊａｐａｎ合同会社,,合同会社,愛知県,西尾市,上町薬師前１－１２,,23,213,4450894,,,,,,,2023-12-01,1,,,,,トレジャーボックスジャパン,0
2304,9240001062478,新規,0,2023-12-01,2023-12-01,株式会社Ｆｕｓｉｏｎ,,株式会社,広島県,福山市,神辺町新徳田４１８番地２チャコット１０１,,34,207,7210000,,,,,,,2023-12-01,1,,,,,フュージョン,0
2305,9240001062486,新規,0,2023-12-01,2023-12-01,株式会社ＨＯＶＡ,,株式会社,広島県,広島市中区,流川町５番１２号,,34,101,7300028,,,,,,,2023-12-01,1,,,,,ホバ,0
2306,9240003006433,新規,0,2023-12-01,2023-12-01,ラジーン合同会社,,合同会社,広島県,東広島市,西条町下三永７４４－２－２０３,,34,212,7390023,,,,,,,2023-12-01,1,,,,,ラジーン,0
2307,9260001038518,新規,0,2023-12-01,2023-12-01,海洋商事株式会社,,株式会社,岡山県,新見市,長屋４１４番地１,,33,210,7180014,,,,,,,2023-12-01,1,,,,,カイヨウショウジ,0
2310,9290001103806,新規,0,2023-12-01,2023-12-01,株式会社ＯＴＴＯ,,株式会社,福岡県,福岡市博多区,住吉５丁目１０番１５－５０８号クラリス博多,,40,132,8120018,,,,,,,2023-12-01,1,,,,,オート,0
2311,9290001103871,新規,0,2023-12-01,2023-12-01,天澤株式会社,,株式会社,福岡県,福岡市博多区,美野島３丁目１４番２号ステイツ博多駅南４０２号,,40,132,8120017,,,,,,,2023-12-01,1,,,,,アマザワ,0
2312,9290001103905,新規,0,2023-12-01,2023-12-01,株式会社Ｌａｄｄｅｒ,,株式会社,福岡県,福岡市中央区,輝国２丁目２４番８－２号,,40,133,8100032,,,,,,,2023-12-01,1,,,,,ラダー,0
2315,9290801030084,新規,0,2023-12-01,2023-12-01,株式会社プルメリア,,株式会社,福岡県,北九州市小倉南区,八重洲町１２番１１号,,40,107,8020831,,,,,,,2023-12-01,1,,,,,プルメリア,0
2316,9300001013540,新規,0,2023-12-01,2023-12-01,株式会社Ｇｏｌｄ　Ｂｕｌｌｅ,,株式会社,佐賀県,三養基郡上峰町,大字江迎１６００番地,,41,345,8490121,,,,,,,2023-12-01,1,,,,,ゴルドブレ,0
2317,9300002011758,新規,0,2023-12-01,2023-12-01,有限会社経友会,,有限会社,佐賀県,佐賀市,富士町大字関屋１５３１番地１,,41,201,8400541,,,,,,,2023-12-01,1,,,,,,0
2319,9310003004685,新規,0,2023-12-01,2023-12-01,合同会社東海．ｊｐ,,合同会社,長崎県,大村市,向木場町１４９５番地１,,42,205,8560045,,,,,,,2023-12-01,1,,,,,イーストブルードットジェイピー,0
2321,9330001031523,新規,0,2023-12-01,2023-12-01,Ｍｔ　ｍｅｔａｌ　ｗｏｒｋｓ株式会社,,株式会社,熊本県,球磨郡あさぎり町,免田東１９２２番地の１２６,,43,514,8680408,,,,,,,2023-12-01,1,,,,,エムティメタルワークス,0
2323,9350001018683,新規,0,2023-12-01,2023-12-01,ぐしけん精肉店たかなべ株式会社,,株式会社,宮崎県,児湯郡高鍋町,大字北高鍋９９０番地,,45,401,8840002,,,,,,,2023-12-01,1,,,,,グシケンセイニクテンタカナベ,0
2325,9360003013491,新規,0,2023-12-01,2023-12-01,合同会社Ｓｅｔ,,合同会社,沖縄県,中頭郡中城村,字泊３９５番地２,,47,328,9012402,,,,,,,2023-12-01,1,,,,,セット,0
2335,9430001090534,新規,0,2023-12-01,2023-12-01,株式会社キンジトー,,株式会社,北海道,札幌市北区,北十二条西４丁目１番地１４,,01,102,0010012,,,,,,,2023-12-01,1,,,,,キンジトー,0
2336,9430001090559,新規,0,2023-12-01,2023-12-01,株式会社ＲＳＫＡＧＥＨＡ,,株式会社,北海道,札幌市中央区,南二条東２丁目７番地１ビルセススクエア大通２階,,01,101,0600052,,,,,,,2023-12-01,1,,,,,ラスクアゲハ,0
2340,9470001019926,新規,0,2023-12-01,2023-12-01,暁コンストラクション株式会社,,株式会社,香川県,綾歌郡宇多津町,２６２８番地１４６,,37,386,7690210,,,,,,,2023-12-01,1,,,,,アカツキコンストラクション,0
2345,9700150122498,新規,0,2023-12-01,2023-12-01,ｓｈｅｎｚｈｅｎｙｉｎｄｉｌｉｎｋｅｊｉ　ｙｏｕｘｉａｎｇｏｎｇｓｉ,,外国会社等,,,,,,,,ｂａｏａｎｑｕｘｉｘｉａｎｇｊｉｅｄａｏｂａｏａｎｄａｄａｏ５０１０ｈａｏＢｚｕｏＢｑｕｓｉｃｅｎｇ４０５ＳＨＥＮＺＨＥＮＳＨＩ　５１８０００　ＣＮ,,,,,,2023-12-01,1,,,,,シンセンインディリンカギヨウシェンゴンスー,0
