sequenceNumber,corporateNumber,process,correct,updateDate,changeDate,name,nameImageId,kind,prefectureName,cityName,streetNumber,addressImageId,prefectureCode,cityCode,postCode,addressOutside,addressOutsideImageId,closeDate,closeCause,successorCorporateNumber,changeCause,assignmentDate,latest,enName,enPrefectureName,enCityName,enAddressOutside,furigana,hihyoji
5,1010001225536,新規,0,2022-03-31,2022-03-31,株式会社Ｒｅｄ　Ｆｉｎｂａｃｋ,,株式会社,東京都,千代田区,外神田５丁目１－５,,13,101,1010021,,,,,,,2022-03-31,1,,,,,レッドフィンバック,0
6,1010001225593,新規,0,2022-03-31,2022-03-31,株式会社大城商事,,株式会社,東京都,中央区,晴海２丁目３番２－３９０７号,,13,102,1040053,,,,,,,2022-03-31,1,,,,,オオシロショウジ,0
8,1010003037384,新規,0,2022-03-31,2022-03-31,合同会社ＭＡＭＵＬＩ,,合同会社,東京都,中央区,銀座１丁目１２－４Ｎ＆ＥＢＬＤ．７Ｆ,,13,102,1040061,,,,,,,2022-03-31,1,,,,,マムリ,0
11,1010005034792,新規,0,2022-03-31,2022-03-31,一般社団法人ＣＬＵＢ　ＴＲＩＡＸサポーターズクラブ,,その他の設立登記法人,東京都,千代田区,丸の内２丁目３番１号三菱商事ビルディング内,,13,101,1000005,,,,,,,2022-03-31,1,,,,,クラブトライアックスサポーターズクラブ,0
19,1010401166495,新規,0,2022-03-31,2022-03-31,株式会社モンキーマウンテン,,株式会社,東京都,港区,白金１丁目２５番２０－５０５号,,13,103,1080072,,,,,,,2022-03-31,1,,,,,モンキーマウンテン,0
24,1010405020855,新規,0,2022-03-31,2022-03-31,一般社団法人日本中小企業経営者協会,,その他の設立登記法人,東京都,港区,浜松町２丁目２番１５号浜松町ダイヤビル２Ｆ,,13,103,1050013,,,,,,,2022-03-31,1,,,,,ニホンチュウショウキギョウケイエイシャキョウカイ,0
28,1010501048635,新規,0,2022-03-31,2022-03-31,旌愈株式会社,,株式会社,東京都,台東区,北上野２丁目２５番９号－３０４号室,,13,106,1100014,,,,,,,2022-03-31,1,,,,,セイユ,0
29,1010605004063,新規,0,2022-03-31,2022-03-31,一般社団法人大島二丁目町会,,その他の設立登記法人,東京都,江東区,大島２丁目１５番８号,,13,108,1360072,,,,,,,2022-03-31,1,,,,,オオジマニチョウメチョウカイ,0
31,1010701042438,新規,0,2022-03-31,2022-03-31,株式会社ＳＩＧ,,株式会社,東京都,品川区,西五反田８丁目２－６クリオ五反田１４０８,,13,109,1410031,,,,,,,2022-03-31,1,,,,,エスアイジー,0
42,1011001146615,新規,0,2022-03-31,2022-03-31,株式会社Ｎｉｕ,,株式会社,東京都,渋谷区,渋谷２丁目１９－１５宮益坂ビルディング６０９,,13,113,1500002,,,,,,,2022-03-31,1,,,,,ニウ,0
43,1011001146648,新規,0,2022-03-31,2022-03-31,Ａｃｃｒｉｓｅ株式会社,,株式会社,東京都,渋谷区,神泉町２０－２１クロスシー渋谷神泉ビル,,13,113,1500045,,,,,,,2022-03-31,1,,,,,アクライズ,0
45,1011003014431,新規,0,2022-03-31,2022-03-31,合同会社カモシカ心理コンサルティング,,合同会社,東京都,渋谷区,道玄坂１丁目１０番８号渋谷道玄坂東急ビル２Ｆ－Ｃ,,13,113,1500043,,,,,,,2022-03-31,1,,,,,カモシカシンリコンサルティング,0
51,1011101098335,新規,0,2022-03-31,2022-03-31,ＡＴＰ株式会社,,株式会社,東京都,新宿区,須賀町５番８の１,,13,104,1600018,,,,,,,2022-03-31,1,,,,,エーテーピー,0
52,1011101098376,新規,0,2022-03-31,2022-03-31,株式会社Ｔ’ｓ　ｃｏｒｐｏｒａｔｉｏｎ,,株式会社,東京都,新宿区,中落合２丁目３番４－２０４号,,13,104,1610032,,,,,,,2022-03-31,1,,,,,ティーズコーポレーション,0
60,1011805003160,新規,0,2022-03-31,2022-03-31,医療法人社団ジャスミン,,その他の設立登記法人,東京都,葛飾区,東金町１丁目２１番４号アズマビル２階,,13,122,1250041,,,,,,,2022-03-31,1,,,,,ジャスミン,0
61,1012403005301,新規,0,2022-03-31,2022-03-31,３Ａメディア合同会社,,合同会社,東京都,府中市,北山町３丁目４番地の３,,13,206,1830041,,,,,,,2022-03-31,1,,,,,サンエーメディア,0
66,1020001145857,新規,0,2022-03-31,2022-03-31,株式会社ＳＯ,,株式会社,神奈川県,横浜市神奈川区,菅田町２８４９番地４,,14,102,2210864,,,,,,,2022-03-31,1,,,,,ソウ,0
69,1020005015445,新規,0,2022-03-31,2022-03-31,医療法人三春会,,その他の設立登記法人,神奈川県,川崎市高津区,下作延２丁目４番６号溝口鈴木歯科ビル２階,,14,134,2130033,,,,,,,2022-03-31,1,,,,,ミハルカイ,0
72,1021001075557,新規,0,2022-03-31,2022-03-31,株式会社ＹＴ　ｃａｒｇｏ,,株式会社,神奈川県,相模原市中央区,上溝１３１５－１８,,14,152,2520243,,,,,,,2022-03-31,1,,,,,ワイティーカーゴ,0
74,1021003011527,新規,0,2022-03-31,2022-03-31,合同会社サーカムフレックス,,合同会社,神奈川県,伊勢原市,小稲葉５７２番地の１,,14,214,2591122,,,,,,,2022-03-31,1,,,,,サーカムフレックス,0
81,1030001147506,新規,0,2022-03-31,2022-03-31,株式会社ＫＡＺＵ　Ｃ＆Ｅ,,株式会社,埼玉県,北本市,東間３丁目１８番地５,,11,233,3640007,,,,,,,2022-03-31,1,,,,,カズシーアンドイー,0
96,1040001122805,新規,0,2022-03-31,2022-03-31,ＬＩＦＩＮＤ株式会社,,株式会社,千葉県,松戸市,松戸新田１番地の５,,12,207,2702241,,,,,,,2022-03-31,1,,,,,リファインド,0
101,1040003019768,新規,0,2022-03-31,2022-03-31,Ｈ＆Ｍ合同会社,,合同会社,千葉県,松戸市,新作１３１１番地テラスハウス小川１０６号,,12,207,2710052,,,,,,,2022-03-31,1,,,,,エイチアンドエム,0
102,1040005021549,新規,0,2022-03-31,2022-03-31,社会福祉法人千楽,,その他の設立登記法人,千葉県,浦安市,東野１丁目７番５号,,12,227,2790042,,,,,,,2022-03-31,1,,,,,チラク,0
103,1050001050856,新規,0,2022-03-31,2022-03-31,Ａｎｙｔｈｉｎｇ株式会社,,株式会社,茨城県,水戸市,高田町１７０番地３,,08,201,3190321,,,,,,,2022-03-31,1,,,,,エニシング,0
108,1080101023180,新規,0,2022-03-31,2022-03-31,株式会社富士開発,,株式会社,静岡県,駿東郡小山町,須走３３８番地の４４,,22,344,4101431,,,,,,,2022-03-31,1,,,,,フジカイハツ,0
131,1120001244153,新規,0,2022-03-31,2022-03-31,桜知宴株式会社,,株式会社,大阪府,大阪市生野区,新今里３丁目４番１７号シャトー第４今里１０１Ｂ,,27,116,5440001,,,,,,,2022-03-31,1,,,,,サクラチエン,0
134,1120003021360,新規,0,2022-03-31,2022-03-31,合同会社暮合工房,,合同会社,大阪府,大阪市浪速区,大国２丁目１６番２３－８０８号,,27,111,5560014,,,,,,,2022-03-31,1,,,,,クレアイコウボウ,0
135,1120105009535,新規,0,2022-03-31,2022-03-31,一般社団法人バリュー・リノベーションズ・さの,,その他の設立登記法人,大阪府,泉佐野市,栄町５番２号,,27,213,5980054,,,,,,,2022-03-31,1,,,,,バリューリノベーションズサノ,0
143,1130001071398,新規,0,2022-03-31,2022-03-31,株式会社３Ｒジャパン,,株式会社,京都府,京都市東山区,祇園町南側５７０番地２６１,,26,105,6050074,,,,,,,2022-03-31,1,,,,,スリーアールジャパン,0
144,1130001071423,新規,0,2022-03-31,2022-03-31,索朗商事株式会社,,株式会社,京都府,京都市東山区,今熊野阿弥陀ケ峯町４番地６,,26,105,6050924,,,,,,,2022-03-31,1,,,,,サクロウショウジ,0
145,1130003007846,新規,0,2022-03-31,2022-03-31,合同会社おの瀬,,合同会社,京都府,京都市伏見区,日野岡西町４－７５,,26,109,6011416,,,,,,,2022-03-31,1,,,,,オノセ,0
149,1140001125401,新規,0,2022-03-31,2022-03-31,株式会社ＷＡＫＡ,,株式会社,兵庫県,加古川市,平岡町新在家２丁目２７０番地の１１ラブローテ東加古川２Ｆ,,28,210,6750101,,,,,,,2022-03-31,1,,,,,ワカ,0
157,1150001025419,新規,0,2022-03-31,2022-03-31,株式会社おうち購入研究所,,株式会社,奈良県,橿原市,四条町２０番地の２５,,29,205,6340813,,,,,,,2022-03-31,1,,,,,オウチコウニュウケンキュウショ,0
158,1150001025427,新規,0,2022-03-31,2022-03-31,株式会社旧奈良監獄保存活用ホールディングス,,株式会社,奈良県,奈良市,般若寺町１８番地,,29,201,6308102,,,,,,,2022-03-31,1,,,,,キュウナラカンゴクホゾンカツヨウホールディングス,0
163,1160003002522,新規,0,2022-03-31,2022-03-31,合同会社アライアンス,,合同会社,滋賀県,米原市,宇賀野１４番地３０,,25,214,5210062,,,,,,,2022-03-31,1,,,,,アライアンス,0
178,1180001150593,新規,0,2022-03-31,2022-03-31,ＩＮＣＥＰＴＩＯＮ株式会社,,株式会社,愛知県,名古屋市東区,泉１丁目１３番１号,,23,102,4610001,,,,,,,2022-03-31,1,,,,,インセプション,0
179,1180003023665,新規,0,2022-03-31,2022-03-31,合同会社紫翠,,合同会社,愛知県,北名古屋市,片場六所７３番地２,,23,234,4810002,,,,,,,2022-03-31,1,,,,,シスイ,0
181,1180301036055,新規,0,2022-03-31,2022-03-31,株式会社あえい,,株式会社,愛知県,豊橋市,曙町字南松原１２３番地,00126114,23,201,4418151,,,,,,,2022-03-31,1,,,,,アエイ,0
182,1180305009321,新規,0,2022-03-31,2022-03-31,医療法人もりのこ会,,その他の設立登記法人,愛知県,安城市,箕輪町東山２０７番地１,,23,212,4460051,,,,,,,2022-03-31,1,,,,,モリノコカイ,0
185,1200003005504,新規,0,2022-03-31,2022-03-31,合同会社おくみの空域産業,,合同会社,岐阜県,岐阜市,野一色２丁目５番地１５,,21,201,5008226,,,,,,,2022-03-31,1,,,,,オクミノクウイキサンギョウ,0
189,1210003001485,新規,0,2022-03-31,2022-03-31,合同会社Ｃ‐ＧＢ,,合同会社,福井県,福井市,若杉４丁目１７１６番地,,18,201,9188055,,,,,,,2022-03-31,1,,,,,シージービー,0
201,1240001059515,新規,0,2022-03-31,2022-03-31,株式会社Ｔ‐Ｆａｍｉｌｙ,,株式会社,広島県,広島市佐伯区,観音台３丁目８番３号,,34,108,7315157,,,,,,,2022-03-31,1,,,,,ティーファミリー,0
202,1240001059523,新規,0,2022-03-31,2022-03-31,株式会社Ｓｅｋｉｈｏｕ,,株式会社,広島県,広島市中区,西川口町１８番２４－１０４号,,34,101,7300846,,,,,,,2022-03-31,1,,,,,セキホウ,0
203,1250005008731,新規,0,2022-03-31,2022-03-31,特定非営利活動法人ほうふグローバルネット,,その他の設立登記法人,山口県,防府市,栄町１丁目１番１７号,,35,206,7470035,,,,,,,2022-03-31,1,,,,,ホウフグローバルネット,0
207,1280001008666,新規,0,2022-03-31,2022-03-31,株式会社達磨総業,,株式会社,島根県,益田市,あけぼの東町７番地４,,32,204,6980027,,,,,,,2022-03-31,1,,,,,ダルマソウギョウ,0
210,1290003012335,新規,0,2022-03-31,2022-03-31,合同会社百花,,合同会社,福岡県,福岡市西区,上山門１丁目４番１５号,,40,135,8190054,,,,,,,2022-03-31,1,,,,,ヒャッカ,0
213,1320001018990,新規,0,2022-03-31,2022-03-31,株式会社西日本綜合電算研究所,,株式会社,大分県,別府市,大字北石垣１３６１番地,,44,202,8740000,,,,,,,2022-03-31,1,,,,,ニシニホンソウゴウデンサンケンキュウジョ,0
218,1340003003741,新規,0,2022-03-31,2022-03-31,合同会社キタチク,,合同会社,鹿児島県,薩摩川内市,宮内町１７５８番地イマジンマンション２０１,,46,215,8950065,,,,,,,2022-03-31,1,,,,,キタチク,0
221,1360003011899,新規,0,2022-03-31,2022-03-31,合同会社ＨＡＲＵ．,,合同会社,沖縄県,浦添市,宮城１丁目２５番３号３０２,,47,208,9012126,,,,,,,2022-03-31,1,,,,,ハル,0
237,1390003001939,新規,0,2022-03-31,2022-03-31,合同会社ダンシャク,,合同会社,山形県,東置賜郡川西町,大字時田１３５２番地の１,,06,382,9990144,,,,,,,2022-03-31,1,,,,,ダンシャク,0
247,1430001086309,新規,0,2022-03-31,2022-03-31,株式会社ＹＵＫ　ＦＡＣＴＯＲＹ,,株式会社,北海道,札幌市中央区,南六条西１１丁目１２８４－２７新生第１ビル２０２,,01,101,0640806,,,,,,,2022-03-31,1,,,,,ユクファクトリー,0
250,1430003013764,新規,0,2022-03-31,2022-03-31,合同会社北の地域観光サポート,,合同会社,北海道,札幌市豊平区,月寒西四条５丁目１－１０－２０４,,01,105,0620024,,,,,,,2022-03-31,1,,,,,キタノチイキカンコウサポート,0
251,1430005014422,新規,0,2022-03-31,2022-03-31,室蘭地区木材商工協同組合,,その他の設立登記法人,北海道,伊達市,網代町７６番地,,01,233,0520025,,,,,,,2022-03-31,1,,,,,,0
271,2010001225535,新規,0,2022-03-31,2022-03-31,Ａｎｙｂｏｄｙ株式会社,,株式会社,東京都,中央区,銀座１丁目２２番１１号銀座大竹ビジデンス２階,,13,102,1040061,,,,,,,2022-03-31,1,,,,,エニバディ,0
272,2010003037359,新規,0,2022-03-31,2022-03-31,合同会社フレア,,合同会社,東京都,千代田区,神田三崎町２丁目１６－８,,13,101,1010061,,,,,,,2022-03-31,1,,,,,フレア,0
279,2010401166412,新規,0,2022-03-31,2022-03-31,株式会社ニュートライズ,,株式会社,東京都,港区,赤坂４丁目８番１９号赤坂フロントタウン３階,,13,103,1070052,,,,,,,2022-03-31,1,,,,,ニュートライズ,0
288,2010605004062,新規,0,2022-03-31,2022-03-31,医療法人社団順瑞会,,その他の設立登記法人,東京都,江東区,平野２丁目１１番５号パシフィック第二門前仲町２階,,13,108,1350023,,,,,,,2022-03-31,1,,,,,ジュンズイカイ,0
298,2010901050603,新規,0,2022-03-31,2022-03-31,ＢＰＶ　Ｔｒａｄｉｎｇ株式会社,,株式会社,東京都,世田谷区,野沢２丁目３２－１５Ｏｒｂｉｔ駒沢１０１,,13,112,1540003,,,,,,,2022-03-31,1,,,,,ビーピーブイトレーディング,0
302,2011001146614,新規,0,2022-03-31,2022-03-31,株式会社ＴｅｃＰｏｔａｔｏ,,株式会社,東京都,渋谷区,道玄坂１丁目１０－８渋谷道玄坂東急ビル２Ｆ－Ｃ,,13,113,1500043,,,,,,,2022-03-31,1,,,,,テックポテト,0
303,2011001146639,新規,0,2022-03-31,2022-03-31,アイズマネジメント株式会社,,株式会社,東京都,渋谷区,恵比寿３丁目４６番７号シティハウス広尾南,,13,113,1500013,,,,,,,2022-03-31,1,,,,,アイズマネジメント,0
308,2011101098359,新規,0,2022-03-31,2022-03-31,株式会社Ｇｕｉｌｄ,,株式会社,東京都,新宿区,西新宿７丁目２１番１６号,,13,104,1600023,,,,,,,2022-03-31,1,,,,,ギルド,0
309,2011103011617,新規,0,2022-03-31,2022-03-31,合同会社モアエフ,,合同会社,東京都,新宿区,西新宿３丁目３番１３号西新宿水間ビル６階,,13,104,1600023,,,,,,,2022-03-31,1,,,,,モアエフ,0
310,2011103011625,新規,0,2022-03-31,2022-03-31,合同会社蝦名商会,,合同会社,東京都,新宿区,高田馬場２丁目１９番８号ダイヤモンドビル高田馬場２０６,,13,104,1690075,,,,,,,2022-03-31,1,,,,,エビナショウカイ,0
314,2011301027670,新規,0,2022-03-31,2022-03-31,株式会社アサノダイニング,,株式会社,東京都,杉並区,浜田山３丁目３１番６号フレンドリーＨＡＭＡＤＡＹＡＭＡ２Ｆ,,13,115,1680065,,,,,,,2022-03-31,1,,,,,アサノダイニング,0
315,2011403003611,新規,0,2022-03-31,2022-03-31,合同会社Ｃａｒｐｓ,,合同会社,東京都,板橋区,成増４丁目２５番１６号,,13,119,1750094,,,,,,,2022-03-31,1,,,,,カープス,0
320,2011703003105,新規,0,2022-03-31,2022-03-31,合同会社ギブソン,,合同会社,東京都,江戸川区,興宮町３１番１７号ボナールコートＢ１０１,,13,123,1330042,,,,,,,2022-03-31,1,,,,,ギブソン,0
332,2020003021527,新規,0,2022-03-31,2022-03-31,エムズファクトリー合同会社,,合同会社,神奈川県,横浜市中区,万代町３丁目５番地１０シャロン横浜大通り公園３０６,,14,104,2310031,,,,,,,2022-03-31,1,,,,,エムズファクトリー,0
333,2020005015452,新規,0,2022-03-31,2022-03-31,医療法人新川新横浜クリニック,,その他の設立登記法人,神奈川県,横浜市港北区,新横浜２丁目６番地１３新横浜ステーションビル２Ｆ,,14,109,2220033,,,,,,,2022-03-31,1,,,,,シンカワシンヨコハマクリニック,0
337,2021001075548,新規,0,2022-03-31,2022-03-31,株式会社さとくらし,,株式会社,神奈川県,愛甲郡清川村,宮ヶ瀬９７１－２０,,14,402,2430111,,,,,,,2022-03-31,1,,,,,サトクラシ,0
348,2040001122746,新規,0,2022-03-31,2022-03-31,株式会社ＳＫＹＺ,,株式会社,千葉県,松戸市,和名ケ谷５２４番地の９,,12,207,2702232,,,,,,,2022-03-31,1,,,,,スカイズ,0
353,2040003019791,新規,0,2022-03-31,2022-03-31,宝成合同会社,,合同会社,千葉県,千葉市若葉区,西都賀３丁目３番２１号,,12,104,2640026,,,,,,,2022-03-31,1,,,,,ホウセイ,0
355,2050001050871,新規,0,2022-03-31,2022-03-31,株式会社まゆといと,,株式会社,茨城県,つくば市,吾妻１丁目５－７ダイワロイネットホテルつくばビル２階,,08,220,3050031,,,,,,,2022-03-31,1,,,,,マユトイト,0
357,2050003006459,新規,0,2022-03-31,2022-03-31,合同会社ＨＥＲＡＴＨ　ＡＵＴＯ　ＭＡＲＫ,,合同会社,茨城県,牛久市,刈谷町５丁目１１８番地西刈谷ハイツ１０１号室,,08,219,3001235,,,,,,,2022-03-31,1,,,,,ヘーラットオートマーク,0
361,2060001034683,新規,0,2022-03-31,2022-03-31,株式会社中野工業,,株式会社,栃木県,佐野市,植上町１６５３－４・２Ｆ,,09,204,3270832,,,,,,,2022-03-31,1,,,,,ナカノコウギョウ,0
366,2070001039087,新規,0,2022-03-31,2022-03-31,門倉テクノサポート株式会社,,株式会社,群馬県,前橋市,上小出町３丁目１番地５,,10,201,3710037,,,,,,,2022-03-31,1,,,,,カドクラテクノサポート,0
369,2070003004436,新規,0,2022-03-31,2022-03-31,合同会社ハピネス,,合同会社,群馬県,前橋市,三俣町１丁目５番１４号,,10,201,3710018,,,,,,,2022-03-31,1,,,,,ハピネス,0
371,2080101023171,新規,0,2022-03-31,2022-03-31,株式会社美匠,,株式会社,静岡県,御殿場市,竈５６４番地の２１,,22,215,4120039,,,,,,,2022-03-31,1,,,,,ビショウ,0
395,2120001244648,新規,0,2022-03-31,2022-03-31,株式会社ストライプ,,株式会社,大阪府,大阪市淀川区,宮原１丁目１－１新大阪阪急ビル３Ｆ,,27,123,5320003,,,,,,,2022-03-31,1,,,,,ストライプ,0
396,2120001244771,新規,0,2022-03-31,2022-03-31,株式会社ｏｎｅ・ｕｎｉｖｅｒｓｅ,,株式会社,大阪府,大阪市西区,南堀江４丁目３０番３０－８０２号,,27,106,5500015,,,,,,,2022-03-31,1,,,,,ワンユニバース,0
410,2140003017513,新規,0,2022-03-31,2022-03-31,合同会社Ｌ．Ｉ,,合同会社,兵庫県,姫路市,砥堀１２７３－５,,28,201,6700802,,,,,,,2022-03-31,1,,,,,エルドットアイ,0
414,2160003002521,新規,0,2022-03-31,2022-03-31,合同会社Ｓｙｎｅｒｇｙ,,合同会社,滋賀県,草津市,渋川１丁目５－５,,25,206,5250026,,,,,,,2022-03-31,1,,,,,シナジー,0
415,2160005011066,新規,0,2022-03-31,2022-03-31,一般社団法人ホンミライ,,その他の設立登記法人,滋賀県,大津市,萱野浦２５番２４－２０１号,,25,201,5202143,,,,,,,2022-03-31,1,,,,,ホンミライ,0
420,2180001150551,新規,0,2022-03-31,2022-03-31,Ｎファーマ株式会社,,株式会社,愛知県,名古屋市熱田区,大宝１丁目２番３号ヴェルクレート日比野Ｂ棟２０１,,23,109,4560062,,,,,,,2022-03-31,1,,,,,エヌファーマ,0
422,2180003023664,新規,0,2022-03-31,2022-03-31,合同会社誠大,,合同会社,愛知県,名古屋市港区,浜２丁目１２－２８リビオ・シーフォート２０２,,23,111,4550036,,,,,,,2022-03-31,1,,,,,セイダイ,0
426,2200001039899,新規,0,2022-03-31,2022-03-31,株式会社イタバシ看板,,株式会社,岐阜県,羽島郡岐南町,八剣２丁目７０番地,,21,302,5016012,,,,,,,2022-03-31,1,,,,,イタバシカンバン,0
439,2240001059514,新規,0,2022-03-31,2022-03-31,株式会社Ｂｉｏｌｕｃｅ,,株式会社,広島県,安芸郡府中町,本町４丁目１番１４号,,34,302,7350006,,,,,,,2022-03-31,1,,,,,ビオルーチェ,0
447,2260001036676,新規,0,2022-03-31,2022-03-31,セトウチパッカーズ株式会社,,株式会社,岡山県,倉敷市,笹沖１４１番地５,,33,202,7100834,,,,,,,2022-03-31,1,,,,,セトウチパッカーズ,0
456,2290001096981,新規,0,2022-03-31,2022-03-31,テックワーク株式会社,,株式会社,福岡県,福岡市東区,松崎３丁目２０番３号ジャイロ松崎２０２号,,40,131,8130035,,,,,,,2022-03-31,1,,,,,テックワーク,0
457,2290003012334,新規,0,2022-03-31,2022-03-31,Ｆドリーム合同会社,,合同会社,福岡県,福岡市中央区,大手門２丁目７番１１号ＢＭＳビル６Ｆ,,40,133,8100074,,,,,,,2022-03-31,1,,,,,エフドリーム,0
459,2290801028390,新規,0,2022-03-31,2022-03-31,ＴＯＫ株式会社,,株式会社,福岡県,遠賀郡遠賀町,遠賀川２丁目２番１４号,,40,384,8114307,,,,,,,2022-03-31,1,,,,,トック,0
462,2300001012854,新規,0,2022-03-31,2022-03-31,東方翔和株式会社,,株式会社,佐賀県,鳥栖市,真木町２０５０番地１７‐４０２号,,41,203,8410046,,,,,,,2022-03-31,1,,,,,トウホウショウワ,0
465,2330005010488,新規,0,2022-03-31,2022-03-31,一般社団法人そようよさそうよ,,その他の設立登記法人,熊本県,上益城郡山都町,馬見原２０１番地１,,43,447,8613901,,,,,,,2022-03-31,1,,,,,ソヨウヨサソウヨ,0
475,2370001048363,新規,0,2022-03-31,2022-03-31,株式会社Ｌｉｍ,,株式会社,宮城県,塩竈市,北浜１丁目２番２７号,,04,203,9850003,,,,,,,2022-03-31,1,,,,,リム,0
486,2380005012554,新規,0,2022-03-31,2022-03-31,一般社団法人ＣＡＲＮＩＶＡＬ　ＷＯＲＫＳ,,その他の設立登記法人,福島県,郡山市,字城清水７１番地の２城清水タウンハウス１号,,07,203,9638842,,,,,,,2022-03-31,1,,,,,カーニバルワークス,0
496,2430003013763,新規,0,2022-03-31,2022-03-31,合同会社Ｒｅ．ＡｖｅｎＧｅ,,合同会社,北海道,札幌市豊平区,平岸二条２丁目３－８チェリーコート１０３,,01,105,0620932,,,,,,,2022-03-31,1,,,,,リアベンジ,0
505,2490001010146,新規,0,2022-03-31,2022-03-31,株式会社中谷工業,,株式会社,高知県,高知市,神田２６１６番地６１,,39,201,7808040,,,,,,,2022-03-31,1,,,,,ナカヤコウギョウ,0
506,2500001024086,新規,0,2022-03-31,2022-03-31,株式会社宮内空調,,株式会社,愛媛県,松山市,西長戸町２２２番地２,,38,201,7918017,,,,,,,2022-03-31,1,,,,,ミヤウチクウチョウ,0
507,2500005008473,新規,0,2022-03-31,2022-03-31,一般社団法人Ｂｒａｖｅ　Ｈｅａｒｔ楽団,,その他の設立登記法人,愛媛県,今治市,桜井１丁目５番１１号,,38,202,7991522,,,,,,,2022-03-31,1,,,,,ブレイブハートガクダン,0
508,2700150107571,新規,0,2022-03-31,2022-03-31,安心院地区まちづくり協議会,,その他,大分県,宇佐市,安心院町下毛２１１５,,44,211,8720521,,,,,,,2022-03-31,1,,,,,アジムチクマチヅクリキョウギカイ,0
524,3010001225526,新規,0,2022-03-31,2022-03-31,株式会社ＤＲＡＧＯＮ’Ｓ,,株式会社,東京都,千代田区,神田錦町２丁目７番地２２ワールドビル４階,,13,101,1010054,,,,,,,2022-03-31,1,,,,,ドラゴンズ,0
534,3010401166485,新規,0,2022-03-31,2022-03-31,株式会社ＢＳＭＯホールディングス,,株式会社,東京都,港区,虎ノ門１丁目１７番１号,,13,103,1050001,,,,,,,2022-03-31,1,,,,,ビスモホールディングス,0
535,3010401166493,新規,0,2022-03-31,2022-03-31,株式会社スピーディア,,株式会社,東京都,港区,芝浦３丁目１７番１１号天翔田町ビル９０９号室,,13,103,1080023,,,,,,,2022-03-31,1,,,,,スピーディア,0
538,3010403027322,新規,0,2022-03-31,2022-03-31,合同会社ＡＧＡＩＮ　ＴＯＫＹＯ,,合同会社,東京都,港区,芝４丁目７番１号西山ビル４階,,13,103,1080014,,,,,,,2022-03-31,1,,,,,アゲイントウキョウ,0
539,3010403027363,新規,0,2022-03-31,2022-03-31,ＣｙｒｉｌＶｅｒｓｅ合同会社,,合同会社,東京都,港区,愛宕２丁目５番１号,,13,103,1050002,,,,,,,2022-03-31,1,,,,,セロバース,0
540,3010503006548,新規,0,2022-03-31,2022-03-31,合同会社Ｌｉｌｙ　Ｄｉｎｅｒ,,合同会社,東京都,台東区,上野３丁目３－１０末広町Ｇエストビル２Ｆ,,13,106,1100005,,,,,,,2022-03-31,1,,,,,リリーダイナー,0
553,3011003014438,新規,0,2022-03-31,2022-03-31,ＮＡＳＡＶＥ合同会社,,合同会社,東京都,渋谷区,道玄坂１丁目１０番８号渋谷道玄坂東急ビル２Ｆ－Ｃ,,13,113,1500043,,,,,,,2022-03-31,1,,,,,エヌエーセーブ,0
556,3011101098333,新規,0,2022-03-31,2022-03-31,株式会社Ａｌｂｅｒｉ,,株式会社,東京都,新宿区,歌舞伎町２丁目１０番４号,,13,104,1600021,,,,,,,2022-03-31,1,,,,,アルベリ,0
557,3011101098390,新規,0,2022-03-31,2022-03-31,株式会社ＬＩＯＮ,,株式会社,東京都,新宿区,大久保１丁目１１番２１－２０８号,,13,104,1690072,,,,,,,2022-03-31,1,,,,,ライオン,0
558,3011103011608,新規,0,2022-03-31,2022-03-31,Ｙａｙｏｉ合同会社,,合同会社,東京都,新宿区,西新宿４丁目３２番４号,,13,104,1600023,,,,,,,2022-03-31,1,,,,,ヤヨイ,0
559,3011603003559,新規,0,2022-03-31,2022-03-31,ＧｏｌｄｅｎＥｎｔｒａｎｃｅ合同会社,,合同会社,東京都,練馬区,旭町２丁目２６番３号,,13,120,1790071,,,,,,,2022-03-31,1,,,,,ゴールデンエントランス,0
566,3013301048877,新規,0,2022-03-31,2022-03-31,株式会社くりのべ,,株式会社,東京都,豊島区,南長崎１丁目９番６号アスカルカーサ３０３号,,13,116,1710052,,,,,,,2022-03-31,1,,,,,クリノベ,0
582,3021003011533,新規,0,2022-03-31,2022-03-31,Ｉｎｓｔａｎｔ合同会社,,合同会社,神奈川県,相模原市南区,相模台２丁目１２番１７号,,14,153,2520321,,,,,,,2022-03-31,1,,,,,インスタント,0
589,3030001147479,新規,0,2022-03-31,2022-03-31,株式会社ＳＨ寿架設,,株式会社,埼玉県,坂戸市,大字紺屋３４６番地１Ｆ,,11,239,3500204,,,,,,,2022-03-31,1,,,,,エスエイチコトブキカセツ,0
599,3040001122786,新規,0,2022-03-31,2022-03-31,株式会社オヨカワ設備工業,,株式会社,千葉県,匝瑳市,平木７８８６番地１,,12,235,2892113,,,,,,,2022-03-31,1,,,,,オヨカワセツビコウギョウ,0
606,3040003019766,新規,0,2022-03-31,2022-03-31,合同会社ベストワーカー,,合同会社,千葉県,鎌ケ谷市,鎌ケ谷９丁目１２番８２号,,12,224,2730105,,,,,,,2022-03-31,1,,,,,ベストワーカー,0
611,3050001050870,新規,0,2022-03-31,2022-03-31,株式会社サクラオカ,,株式会社,茨城県,久慈郡大子町,大字小生瀬７９１番地,,08,364,3193512,,,,,,,2022-03-31,1,,,,,サクラオカ,0
616,3050003006458,新規,0,2022-03-31,2022-03-31,ＳＡＨＩＬ　ＡＵＴＯ合同会社,,合同会社,茨城県,下妻市,鎌庭３９８番３,,08,210,3040819,,,,,,,2022-03-31,1,,,,,サヒルオート,0
624,3070001039086,新規,0,2022-03-31,2022-03-31,株式会社ＨＥＡＶＥＮ　ＳＫＹ,,株式会社,群馬県,前橋市,西片貝町５丁目１９番地６ＥＡＳＴＳＴＲＥＥＴ南棟Ｂ号室,,10,201,3710013,,,,,,,2022-03-31,1,,,,,ヘブンスカイ,0
626,3080103002560,新規,0,2022-03-31,2022-03-31,Ｒｅｐａｉｒ工房ＰＨＯｅＮＩＸ合同会社,,合同会社,静岡県,三島市,新谷４８番地の２７,,22,206,4110834,,,,,,,2022-03-31,1,,,,,リペアコウボウフェニックス,0
630,3100001035197,新規,0,2022-03-31,2022-03-31,株式会社信州新緑,,株式会社,長野県,木曽郡大桑村,大字殿６２３番地１,,20,430,3995501,,,,,,,2022-03-31,1,,,,,シンシュウシンリョク,0
631,3100001035206,新規,0,2022-03-31,2022-03-31,株式会社裾花不動産,,株式会社,長野県,長野市,大字小柴見４５７番地２,,20,201,3800942,,,,,,,2022-03-31,1,,,,,スソバナフドウサン,0
632,3100003006477,新規,0,2022-03-31,2022-03-31,合同会社ｓｉｉｔｏｓ,,合同会社,長野県,大町市,美麻３６０６１,,20,212,3999101,,,,,,,2022-03-31,1,,,,,シートス,0
633,3100003006485,新規,0,2022-03-31,2022-03-31,合同会社補聴器のこばやし,,合同会社,長野県,長野市,上松２丁目１８番８号,,20,201,3800802,,,,,,,2022-03-31,1,,,,,ホチョウキノコバヤシ,0
642,3120001244341,新規,0,2022-03-31,2022-03-31,株式会社Ｍｏｔｔｏｄｉｇｉｔａｌ,,株式会社,大阪府,大阪市西区,西本町１丁目４－１オリックス本町ビル,,27,106,5500005,,,,,,,2022-03-31,1,,,,,モットデジタル,0
643,3120001244738,新規,0,2022-03-31,2022-03-31,南堰株式会社,,株式会社,大阪府,大阪市中央区,松屋町９番２０号ローレルステート松屋町３０１Ｂ,,27,128,5420067,,,,,,,2022-03-31,1,,,,,ナンセキ,0
647,3120003021334,新規,0,2022-03-31,2022-03-31,フェデペラ合同会社,,合同会社,大阪府,大阪市淀川区,十三本町１丁目１８－２５ウェルフォート十三本町６０４室,,27,123,5320024,,,,,,,2022-03-31,1,,,,,フェデペラ,0
648,3120003021367,新規,0,2022-03-31,2022-03-31,ＭＯＭＩＪＩ　Ｉｎｔｅｒｎａｔｉｏｎａｌ合同会社,,合同会社,大阪府,大阪市生野区,桃谷３丁目８番８号１Ｆ,,27,116,5440034,,,,,,,2022-03-31,1,,,,,モミジインターナショナル,0
652,3122001035712,新規,0,2022-03-31,2022-03-31,株式会社ＫＥＮＢＩ,,株式会社,大阪府,八尾市,山本町南１丁目１番２５号,,27,212,5810013,,,,,,,2022-03-31,1,,,,,ケンビ,0
653,3122003002306,新規,0,2022-03-31,2022-03-31,合同会社ＮＫＣ,,合同会社,大阪府,東大阪市,日下町３丁目２－３９,,27,227,5798003,,,,,,,2022-03-31,1,,,,,エヌケーシー,0
667,3160005011065,新規,0,2022-03-31,2022-03-31,一般社団法人びわ湖再生塾,,その他の設立登記法人,滋賀県,大津市,堂１丁目１９番１５号,,25,201,5202116,,,,,,,2022-03-31,1,,,,,ビワコサイセイジュク,0
670,3170001017032,新規,0,2022-03-31,2022-03-31,株式会社ミワレイズ,,株式会社,和歌山県,有田市,辻堂１２番地の１,00126113,30,204,6490311,,,,,,,2022-03-31,1,,,,,ミワレイズ,0
680,3180001150567,新規,0,2022-03-31,2022-03-31,株式会社ＥＭＩコーポレーション,,株式会社,愛知県,名古屋市名東区,西山本通２丁目９番地２,,23,115,4650085,,,,,,,2022-03-31,1,,,,,イーエムアイコーポレーション,0
681,3180001150591,新規,0,2022-03-31,2022-03-31,ココロカンパニー株式会社,,株式会社,愛知県,稲沢市,長野２丁目１０番８号,,23,220,4928142,,,,,,,2022-03-31,1,,,,,ココロカンパニー,0
685,3180301036061,新規,0,2022-03-31,2022-03-31,株式会社Ｔ＆Ｋテクノ東日本,,株式会社,愛知県,西尾市,江原町川流１番地,,23,213,4450026,,,,,,,2022-03-31,1,,,,,ティーアンドケイテクノヒガシニホン,0
701,3230001019294,新規,0,2022-03-31,2022-03-31,株式会社ＢＳ　Ｊａｐａｎ,,株式会社,富山県,富山市,荒川２丁目４番３０号,,16,201,9300982,,,,,,,2022-03-31,1,,,,,ビーエスジャパン,0
705,3240003005564,新規,0,2022-03-31,2022-03-31,合同会社昭和ソフトウェア,,合同会社,広島県,呉市,焼山宮ヶ迫２丁目２９番２１号,,34,202,7370908,,,,,,,2022-03-31,1,,,,,ショウワソフトウェア,0
707,3250001019474,新規,0,2022-03-31,2022-03-31,株式会社ＳｈａｒｅＢｒｏｗｓｅ,,株式会社,山口県,宇部市,相生町５－１０・４階,,35,202,7550043,,,,,,,2022-03-31,1,,,,,シェアブラウズ,0
708,3260001036675,新規,0,2022-03-31,2022-03-31,株式会社サンライズ,,株式会社,岡山県,瀬戸内市,長船町服部１１３番地１セレッソ１０２,,33,212,7014276,,,,,,,2022-03-31,1,,,,,サンライズ,0
715,3290001096997,新規,0,2022-03-31,2022-03-31,Ｂｅｖｉｍｏｓ株式会社,,株式会社,福岡県,太宰府市,大佐野３丁目１１－５,,40,221,8180134,,,,,,,2022-03-31,1,,,,,ベビモス,0
723,3370001048370,新規,0,2022-03-31,2022-03-31,株式会社アンマネジメントオフィス,,株式会社,宮城県,仙台市泉区,泉中央３丁目１８番地の６ＤＯＭＵＳ赤坂１０１,,04,105,9813133,,,,,,,2022-03-31,1,,,,,アンマネジメントオフィス,0
749,3490001010145,新規,0,2022-03-31,2022-03-31,株式会社グリーンリーフ,,株式会社,高知県,高知市,本町４丁目１番４８－１００３号,,39,201,7800870,,,,,,,2022-03-31,1,,,,,グリーンリーフ,0
754,3500001024085,新規,0,2022-03-31,2022-03-31,株式会社アロー,,株式会社,愛媛県,新居浜市,萩生６３１番地の１,,38,205,7920050,,,,,,,2022-03-31,1,,,,,アロー,0
757,3700150037033,新規,0,2022-03-31,2015-10-09,釜石商工事務組合,,その他,岩手県,釜石市,中妻町３丁目２－５,,03,211,0260034,,,,,,,2015-10-09,1,,,,,カマイシシヨウコウジムクミアイ,0
758,3700150106770,新規,0,2022-03-31,2022-01-21,Ｊｕｎｋｂａｒ,,その他,東京都,新宿区,西新宿４丁目３２－１１－４０６,,13,104,1600023,,,,,,,2022-01-21,1,,,,,ジヤンクバー,0
766,4010003037365,新規,0,2022-03-31,2022-03-31,和田倉建物管理合同会社,,合同会社,東京都,千代田区,平河町１丁目６番１５号シルスフィア会計事務所内,,13,101,1020093,,,,,,,2022-03-31,1,,,,,ワダクラタテモノカンリ,0
771,4010401166484,新規,0,2022-03-31,2022-03-31,株式会社早蕨,,株式会社,東京都,港区,西新橋１丁目２２番５号新橋ＴＳビル６階,,13,103,1050003,,,,,,,2022-03-31,1,,,,,サワラビ,0
772,4010401166492,新規,0,2022-03-31,2022-03-31,株式会社Ｕｐ　Ｓｔｅａｄｙ,,株式会社,東京都,港区,港南２丁目１６－１品川イーストワンタワー７階,,13,103,1080075,,,,,,,2022-03-31,1,,,,,アップステディ,0
775,4010501048640,新規,0,2022-03-31,2022-03-31,ＯＳＨＩＭＡ大島株式会社,,株式会社,東京都,台東区,上野３丁目１１番５号,,13,106,1100005,,,,,,,2022-03-31,1,,,,,オオシマオオシマ,0
783,4011001146587,新規,0,2022-03-31,2022-03-31,株式会社ＧＡＺＯＮ　ＦＬＯＷＥＲＳ,,株式会社,東京都,渋谷区,富ヶ谷１丁目３３番１４号,,13,113,1510063,,,,,,,2022-03-31,1,,,,,ガゾンフラワーズ,0
788,4011101098332,新規,0,2022-03-31,2022-03-31,株式会社ＹＭ,,株式会社,東京都,新宿区,新宿１丁目３６番２号新宿第七葉山ビル３階,,13,104,1600022,,,,,,,2022-03-31,1,,,,,ワイエム,0
791,4011303004369,新規,0,2022-03-31,2022-03-31,ＫＨＡＴＴＲＩ　ＴＲＡＤＥＲＳ合同会社,,合同会社,東京都,杉並区,天沼１丁目１６番１号西南荘５,,13,115,1670032,,,,,,,2022-03-31,1,,,,,カトリトレーダーズ,0
792,4011401024112,新規,0,2022-03-31,2022-03-31,株式会社優創建,,株式会社,東京都,板橋区,清水町７２番１４号,,13,119,1740053,,,,,,,2022-03-31,1,,,,,ユウソウケン,0
798,4012401039026,新規,0,2022-03-31,2022-03-31,株式会社フロント・ヤード,,株式会社,東京都,三鷹市,下連雀４丁目７番７号,,13,204,1810013,,,,,,,2022-03-31,1,,,,,フロントヤード,0
804,4013301048884,新規,0,2022-03-31,2022-03-31,株式会社ＹＵＭＩＮＥ,,株式会社,東京都,豊島区,雑司が谷３丁目３番２５号,,13,116,1710032,,,,,,,2022-03-31,1,,,,,ユミネ,0
810,4020001145771,新規,0,2022-03-31,2022-03-31,株式会社ＴＩＮ　ｈｏｌｄｉｎｇｓ,,株式会社,神奈川県,横浜市中区,翁町２丁目８－６第二東里ビル４１３号室,,14,104,2310028,,,,,,,2022-03-31,1,,,,,ティーアイエヌホールディングス,0
811,4020001145887,新規,0,2022-03-31,2022-03-31,株式会社Ｓｐａｃｅ　Ｓｅｎｓｉｎｇ,,株式会社,神奈川県,横浜市都筑区,中川３丁目８番２４号,,14,118,2240001,,,,,,,2022-03-31,1,,,,,スペースセンシング,0
816,4020003021525,新規,0,2022-03-31,2022-03-31,アウルリンクス合同会社,,合同会社,神奈川県,川崎市中原区,小杉町１丁目５４７番地８３号スピカ小杉３０４,,14,133,2110063,,,,,,,2022-03-31,1,,,,,アウルリンクス,0
817,4020005015450,新規,0,2022-03-31,2022-03-31,医療法人社団柊季会,,その他の設立登記法人,神奈川県,横浜市港北区,下田町４丁目９番１号１階,,14,109,2230064,,,,,,,2022-03-31,1,,,,,ヒイラギカイ,0
824,4030001147503,新規,0,2022-03-31,2022-03-31,株式会社ディヴァインワーク,,株式会社,埼玉県,戸田市,大字新曽８５２番地ベルハイム戸田３０８号室,,11,224,3350021,,,,,,,2022-03-31,1,,,,,ディヴァインワーク,0
826,4030003019130,新規,0,2022-03-31,2022-03-31,合同会社ＨｏｏｋｅｒＷｒｅｃｋｅｒ,,合同会社,埼玉県,比企郡吉見町,大字長谷１１１４番地８４,,11,347,3550156,,,,,,,2022-03-31,1,,,,,フッカーレッカー,0
836,4070003004434,新規,0,2022-03-31,2022-03-31,合同会社スリード,,合同会社,群馬県,伊勢崎市,連取町１５１５番地３,,10,204,3720812,,,,,,,2022-03-31,1,,,,,スリード,0
849,4110001036532,新規,0,2022-03-31,2022-03-31,株式会社サイトウ内装,,株式会社,新潟県,新潟市江南区,東本町５丁目３番１５号,,15,104,9500126,,,,,,,2022-03-31,1,,,,,サイトウナイソウ,0
875,4122003002305,新規,0,2022-03-31,2022-03-31,合同会社ＡＳＳ,,合同会社,大阪府,東大阪市,稲田新町２丁目３番１８号ハイムフォレスト３０２号室,,27,227,5770004,,,,,,,2022-03-31,1,,,,,エーエスエス,0
883,4130003007835,新規,0,2022-03-31,2022-03-31,合同会社ＨＴＨ,,合同会社,京都府,綴喜郡宇治田原町,大字南小字滝ノ口６７番４,,26,344,6100241,,,,,,,2022-03-31,1,,,,,エッチティエッチ,0
894,4140001125431,新規,0,2022-03-31,2022-03-31,株式会社Ｏｌｉｎｋｓ,,株式会社,兵庫県,西宮市,獅子ケ口町３番２４号,,28,204,6620026,,,,,,,2022-03-31,1,,,,,オーリンクス,0
898,4160001024078,新規,0,2022-03-31,2022-03-31,株式会社ＥＲＵＤＯ,,株式会社,滋賀県,近江八幡市,市井町５１番地１,,25,204,5230851,,,,,,,2022-03-31,1,,,,,エルド,0
900,4170001017031,新規,0,2022-03-31,2022-03-31,加賀エアロシステム株式会社,,株式会社,和歌山県,西牟婁郡白浜町,２９２６番地,,30,401,6492211,,,,,,,2022-03-31,1,,,,,カガエアロシステム,0
902,4180001150541,新規,0,2022-03-31,2022-03-31,ＪＡＣＴ株式会社,,株式会社,愛知県,名古屋市天白区,植田南２丁目９１３番地中央二階,,23,116,4680053,,,,,,,2022-03-31,1,,,,,ジャクト,0
906,4190001029264,新規,0,2022-03-31,2022-03-31,株式会社大組,,株式会社,三重県,松阪市,五反田町３丁目１１４４番地１,,24,204,5150064,,,,,,,2022-03-31,1,,,,,ヒログミ,0
913,4230003001828,新規,0,2022-03-31,2022-03-31,合同会社照,,合同会社,富山県,高岡市,姫野４８７番地１４,,16,202,9340093,,,,,,,2022-03-31,1,,,,,テラス,0
918,4250001019473,新規,0,2022-03-31,2022-03-31,株式会社ＧＴ,,株式会社,山口県,防府市,戎町１丁目７番２５号,,35,206,7470036,,,,,,,2022-03-31,1,,,,,ジーティー,0
923,4260001036674,新規,0,2022-03-31,2022-03-31,株式会社ＡＧ,,株式会社,岡山県,岡山市北区,青江５丁目１－１岡崎ビル１階,,33,101,7000941,,,,,,,2022-03-31,1,,,,,エージー,0
932,4320001018988,新規,0,2022-03-31,2022-03-31,株式会社ＳＯＵ,,株式会社,大分県,由布市,挾間町三船７２６番地５,,44,213,8795515,,,,,,,2022-03-31,1,,,,,ソウ,0
936,4360001030188,新規,0,2022-03-31,2022-03-31,安慶名技建株式会社,,株式会社,沖縄県,沖縄市,照屋１丁目３３番１２号,,47,211,9040011,,,,,,,2022-03-31,1,,,,,アゲナギケン,0
939,4370001048361,新規,0,2022-03-31,2022-03-31,株式会社ｊ．ＰＲＩＤＥ,,株式会社,宮城県,仙台市泉区,高玉町１１番地の１パークシティ泉中央ウエストコート１０３,,04,105,9813116,,,,,,,2022-03-31,1,,,,,ジェイプライド,0
949,4380001032694,新規,0,2022-03-31,2022-03-31,株式会社俊英スクール,,株式会社,福島県,郡山市,開成５丁目６番２号,,07,203,9638851,,,,,,,2022-03-31,1,,,,,シュンエイスクール,0
955,4400003002916,新規,0,2022-03-31,2022-03-31,サーネン合同会社,,合同会社,岩手県,盛岡市,本町通１丁目１０番１０－８０４号,,03,201,0200015,,,,,,,2022-03-31,1,,,,,サーネン,0
956,4400005008226,新規,0,2022-03-31,2022-03-31,特定非営利活動法人ＬＩＮＸ盛岡,,その他の設立登記法人,岩手県,盛岡市,南大通１丁目１０番１９号オーベル河南２階,,03,201,0200874,,,,,,,2022-03-31,1,,,,,リンクスモリオカ,0
969,4430005014428,新規,0,2022-03-31,2022-03-31,特定非営利活動法人シェロクリ,,その他の設立登記法人,北海道,江別市,新栄台１５番地の５,,01,217,0690806,,,,,,,2022-03-31,1,,,,,シェロクリ,0
970,4480001011688,新規,0,2022-03-31,2022-03-31,えがふる株式会社,,株式会社,徳島県,徳島市,北沖洲１丁目１番５０－７０７号,,36,201,7700872,,,,,,,2022-03-31,1,,,,,エガフル,0
971,4490001010144,新規,0,2022-03-31,2022-03-31,株式会社ＭＩＹＡＶＩ,,株式会社,高知県,高知市,朝倉己８１１番地１,,39,201,7808066,,,,,,,2022-03-31,1,,,,,ミヤヴィ,0
990,5010401166450,新規,0,2022-03-31,2022-03-31,ＫＡＹＡ　Ｉｎｖｅｓｔｍｅｎｔ株式会社,,株式会社,東京都,港区,三田１丁目２番１８号ＴＴＤビル,,13,103,1080073,,,,,,,2022-03-31,1,,,,,カヤインヴェストメント,0
991,5010401166483,新規,0,2022-03-31,2022-03-31,株式会社三和,,株式会社,東京都,港区,芝公園３丁目５番１１号グリーンビルＩＩ２Ｆ,00126115,13,103,1050011,,,,,,,2022-03-31,1,,,,,サンワ,0
992,5010401166500,新規,0,2022-03-31,2022-03-31,ＣＹＪ株式会社,,株式会社,東京都,港区,新橋６丁目８－１－２０２,,13,103,1050004,,,,,,,2022-03-31,1,,,,,シーワイジェー,0
1009,5010903007268,新規,0,2022-03-31,2022-03-31,合同会社ことばの,,合同会社,東京都,世田谷区,上祖師谷２丁目１８－３３,,13,112,1570065,,,,,,,2022-03-31,1,,,,,コトバノ,0
1016,5011003014436,新規,0,2022-03-31,2022-03-31,合同会社ＮＥＬＬ,,合同会社,東京都,渋谷区,恵比寿西２丁目１４番７号パークアクシス代官山２０２,,13,113,1500021,,,,,,,2022-03-31,1,,,,,ネル,0
1017,5011005009517,新規,0,2022-03-31,2022-03-31,一般社団法人ワンライフ,,その他の設立登記法人,東京都,渋谷区,恵比寿西２丁目８番１１号グランベル恵比寿ＩＶ７Ｆ,00126111,13,113,1500021,,,,,,,2022-03-31,1,,,,,ワンライフ,0
1018,5011101098331,新規,0,2022-03-31,2022-03-31,株式会社つなぐ,,株式会社,東京都,新宿区,四谷三栄町１１番１９－４０６号,,13,104,1600008,,,,,,,2022-03-31,1,,,,,ツナグ,0
1028,5011503005117,新規,0,2022-03-31,2022-03-31,ＳＵＮ　ＲＡＹＳ合同会社,,合同会社,東京都,北区,中十条４丁目７－８－１０１,,13,117,1140032,,,,,,,2022-03-31,1,,,,,サンレイズ,0
1029,5011603003557,新規,0,2022-03-31,2022-03-31,合同会社Ｇｌｏｒｉｏｕｓ　Ｊｏｕｒｎｅｙ,,合同会社,東京都,練馬区,旭丘１丁目６５－２０ＮＳセントラルハイム５０１号,,13,120,1760005,,,,,,,2022-03-31,1,,,,,グロリアスジャーニー,0
1042,5013301048883,新規,0,2022-03-31,2022-03-31,株式会社ｂｉｚｊｏｙ,,株式会社,東京都,豊島区,池袋２丁目３７番９号,,13,116,1710014,,,,,,,2022-03-31,1,,,,,ビズジョイ,0
1046,5020001145886,新規,0,2022-03-31,2022-03-31,株式会社ＤＯＮＭＡＩ,,株式会社,神奈川県,横浜市港北区,小机町２０１番地４,,14,109,2220036,,,,,,,2022-03-31,1,,,,,ドンマイ,0
1048,5020003021499,新規,0,2022-03-31,2022-03-31,裕川合同会社,,合同会社,神奈川県,横浜市西区,霞ケ丘１０７－３５,,14,103,2200035,,,,,,,2022-03-31,1,,,,,ヒロカワ,0
1054,5021003011531,新規,0,2022-03-31,2022-03-31,Ｂｌｏｏｒｅ合同会社,,合同会社,神奈川県,藤沢市,辻堂東海岸４丁目１－２０プラージュ湘南２０３,,14,205,2510045,,,,,,,2022-03-31,1,,,,,ブルーア,0
1058,5030001147353,新規,0,2022-03-31,2022-03-31,株式会社ＳＩＳＩＮ,,株式会社,埼玉県,草加市,西町４３番地メゾンルーチェ１０５,,11,221,3400035,,,,,,,2022-03-31,1,,,,,シシン,0
1074,5040003019748,新規,0,2022-03-31,2022-03-31,合同会社ｃｏｍ４ｔｉｓ,,合同会社,千葉県,四街道市,栗山３１６‐３８,,12,228,2840027,,,,,,,2022-03-31,1,,,,,コンフォーティス,0
1077,5050001050869,新規,0,2022-03-31,2022-03-31,バンドウ・コーポレーション株式会社,,株式会社,茨城県,坂東市,借宿５４３番地６,,08,228,3060657,,,,,,,2022-03-31,1,,,,,バンドウコーポレーション,0
1079,5050003006464,新規,0,2022-03-31,2022-03-31,合同会社ＨＳＳ　ＥＮＴＥＲＰＲＩＳＥＳ,,合同会社,茨城県,結城市,大字大木１９１７－２アキタ住宅２階北側,,08,207,3070031,,,,,,,2022-03-31,1,,,,,エイチエスエスエンタープライゼス,0
1086,5070001039084,新規,0,2022-03-31,2022-03-31,株式会社ケンシロウ,,株式会社,群馬県,高崎市,連雀町１０４番地,,10,202,3700826,,,,,,,2022-03-31,1,,,,,ケンシロウ,0
1088,5080005007441,新規,0,2022-03-31,2022-03-31,医療法人社団三喜会,,その他の設立登記法人,静岡県,藤枝市,高柳４丁目１０番２４号,,22,214,4260041,,,,,,,2022-03-31,1,,,,,サンキカイ,0
1090,5100001035204,新規,0,2022-03-31,2022-03-31,株式会社宮川オート,,株式会社,長野県,上高井郡高山村,大字高井４７７１番地７,,20,543,3820800,,,,,,,2022-03-31,1,,,,,ミヤガワオート,0
1092,5100003006483,新規,0,2022-03-31,2022-03-31,合同会社ＺＥＮＢＵ　ＡＣＣＯＭ,,合同会社,長野県,北安曇郡白馬村,大字北城みそら野１２７８－１０５,,20,485,3999301,,,,,,,2022-03-31,1,,,,,ゼンブアコム,0
1109,5120001244736,新規,0,2022-03-31,2022-03-31,株式会社ＧＥＮＥＳＩＳ,,株式会社,大阪府,大阪市生野区,巽東１丁目１番５号,00126118,27,116,5440014,,,,,,,2022-03-31,1,,,,,ジェネシス,0
1110,5120001244777,新規,0,2022-03-31,2022-03-31,サンシステム株式会社,,株式会社,大阪府,大阪市淀川区,宮原１丁目１６番２３号,,27,123,5320003,,,,,,,2022-03-31,1,,,,,サンシステム,0
1117,5120101065297,新規,0,2022-03-31,2022-03-31,株式会社Ｌｉｌｉｕｍ．,,株式会社,大阪府,堺市堺区,新町５番３２号新町ビル３０５号,,27,141,5900079,,,,,,,2022-03-31,1,,,,,リリウム,0
1121,5122003002304,新規,0,2022-03-31,2022-03-31,合同会社レイブリック,,合同会社,大阪府,柏原市,国分西２丁目７－３０－２０５ＲＨＹＴＨＭ柏原,,27,221,5820025,,,,,,,2022-03-31,1,,,,,レイブリック,0
1124,5130001071345,新規,0,2022-03-31,2022-03-31,ＤｅＦｉ　Ｉｎｉｔｉａｔｉｖｅ株式会社,,株式会社,京都府,京都市上京区,岡松町２５４番２－３０１号,,26,102,6020032,,,,,,,2022-03-31,1,,,,,ディファイイニシアチブ,0
1138,5140003017510,新規,0,2022-03-31,2022-03-31,合同会社ラックアンドフィールド,,合同会社,兵庫県,明石市,相生町１丁目９番３０－８０４号,,28,203,6730882,,,,,,,2022-03-31,1,,,,,ラックアンドフィールド,0
1140,5150001025423,新規,0,2022-03-31,2022-03-31,オールソープ株式会社,,株式会社,奈良県,宇陀市,榛原萩原２５１３番地,,29,212,6330253,,,,,,,2022-03-31,1,,,,,オールソープ,0
1155,5180001150598,新規,0,2022-03-31,2022-03-31,株式会社のりとも不動産,,株式会社,愛知県,小牧市,光ケ丘６丁目３番地７,,23,219,4850811,,,,,,,2022-03-31,1,,,,,ノリトモフドウサン,0
1163,5180005019699,新規,0,2022-03-31,2022-03-31,Ａｃｔｉｖｅ　Ｓｅａｌ協同組合,,その他の設立登記法人,愛知県,名古屋市瑞穂区,瑞穂通８丁目５番地,,23,108,4670806,,,,,,,2022-03-31,1,,,,,アクティブシール,0
1164,5200001039896,新規,0,2022-03-31,2022-03-31,株式会社岩田建材,,株式会社,岐阜県,揖斐郡池田町,田畑７０８番地の１６,,21,404,5032422,,,,,,,2022-03-31,1,,,,,イワタケンザイ,0
1168,5200003005517,新規,0,2022-03-31,2022-03-31,合同会社スノウ,,合同会社,岐阜県,大垣市,赤坂町３２２４番地３,,21,202,5032213,,,,,,,2022-03-31,1,,,,,スノウ,0
1171,5230003001827,新規,0,2022-03-31,2022-03-31,合同会社スリーケー,,合同会社,富山県,高岡市,小竹３３６番地,,16,202,9330332,,,,,,,2022-03-31,1,,,,,スリーケー,0
1179,5260001036681,新規,0,2022-03-31,2022-03-31,株式会社ＴＯＭＯＨＡＴＳＵ,,株式会社,岡山県,岡山市北区,万成西町４番２１号,,33,101,7000073,,,,,,,2022-03-31,1,,,,,トモハツ,0
1188,5290005018608,新規,0,2022-03-31,2022-03-31,一般財団法人広智奨学会,,その他の設立登記法人,福岡県,福岡市中央区,那の津３丁目１２番２０号,,40,133,8100071,,,,,,,2022-03-31,1,,,,,コウチショウガクカイ,0
1189,5290801028388,新規,0,2022-03-31,2022-03-31,株式会社知成工業,,株式会社,福岡県,北九州市八幡西区,楠橋南１丁目１２－３６,,40,109,8071143,,,,,,,2022-03-31,1,,,,,チセイコウギョウ,0
1192,5320001018987,新規,0,2022-03-31,2022-03-31,株式会社きさらて,,株式会社,大分県,大分市,要町６番５０－１００１号,,44,201,8700831,,,,,,,2022-03-31,1,,,,,キサラテ,0
1196,5350001017656,新規,0,2022-03-31,2022-03-31,株式会社エヌ企画,,株式会社,宮崎県,宮崎市,大字恒久４９５４番地３Ｍ－ｃｉｔｙ恒久７０７号室,,45,201,8800916,,,,,,,2022-03-31,1,,,,,エヌキカク,0
1197,5360001030187,新規,0,2022-03-31,2022-03-31,株式会社おきパラ,,株式会社,沖縄県,国頭郡本部町,字崎本部６６８番地はまの駅７号,,47,308,9050225,,,,,,,2022-03-31,1,,,,,オキパラ,0
1213,5380001032693,新規,0,2022-03-31,2022-03-31,株式会社サーチライズ,,株式会社,福島県,福島市,本町６番５号１１０２号室,,07,201,9608035,,,,,,,2022-03-31,1,,,,,サーチライズ,0
1225,5420001017780,新規,0,2022-03-31,2022-03-31,株式会社ＭｉＭｉｙ　Ｎｏｒｔｈ,,株式会社,青森県,弘前市,大字駅前町９－２０ヒロロ２階,,02,202,0368003,,,,,,,2022-03-31,1,,,,,ミミーノース,0
1232,5460001005674,新規,0,2022-03-31,2022-03-31,株式会社竹田,,株式会社,北海道,釧路郡釧路町,緑３丁目１８番地,,01,661,0882153,,,,,,,2022-03-31,1,,,,,タケダ,0
1234,5460301005052,新規,0,2022-03-31,2022-03-31,株式会社Ｍｋ．Ｒｏｕｎｄ,,株式会社,北海道,北見市,端野町三区４６７番地１４,,01,208,0992103,,,,,,,2022-03-31,1,,,,,エムケイラウンド,0
1235,5470005006429,新規,0,2022-03-31,2022-03-31,特定非営利活動法人さぬき漆保存会,,その他の設立登記法人,香川県,丸亀市,綾歌町岡田上２９２９,,37,202,7612401,,,,,,,2022-03-31,1,,,,,サヌキウルシホゾンカイ,0
1240,5500001024091,新規,0,2022-03-31,2022-03-31,株式会社エヌラボ,,株式会社,愛媛県,松山市,土居田町４５７番地４,,38,201,7900056,,,,,,,2022-03-31,1,,,,,エヌラボ,0
1243,5700150107577,新規,0,2022-03-31,2022-03-31,ＩＳＨＩＮＯＭＡＫＩ　ＳＡＫＥ　ＧＲＩＬＬ　ＰＴＥ．ＬＴＤ．,,外国会社等,東京都,中央区,日本橋２丁目２番３号ＲＩＳＨＥビルＵＣＦ４０２,,13,102,1030027,シンガポール共和国オーチャードロード３９０号パレルネッサンスＢ１－０２号室,,,,,,2022-03-31,1,,,,,イシノマキサケグリルピーテイーイーエルテイーデイー,0
1244,5700150107602,新規,0,2022-03-31,2022-03-31,坂祝町木曽川右岸用水土地改良区,,その他,岐阜県,加茂郡坂祝町,取組４６－１８,,21,501,5050075,,,,,,,2022-03-31,1,,,,,サカホギチヨウキソガワウガンヨウスイトチカイリヨウク,0
1256,6010001225523,新規,0,2022-03-31,2022-03-31,株式会社ステップアップワークス,,株式会社,東京都,千代田区,内神田３丁目４番１４号,,13,101,1010047,,,,,,,2022-03-31,1,,,,,ステップアップワークス,0
1258,6010003037388,新規,0,2022-03-31,2022-03-31,合同会社ＩＫＤ,,合同会社,東京都,文京区,湯島３丁目３５－１１－４Ｄ,,13,105,1130034,,,,,,,2022-03-31,1,,,,,アイケーディー,0
1270,6010901050608,新規,0,2022-03-31,2022-03-31,株式会社ＫＩＤＳ　ＳＮＡＣＫ　ＬＡＢ,,株式会社,東京都,世田谷区,桜新町１丁目８－７リムテラスコート桜新町一丁目１０３号,,13,112,1540015,,,,,,,2022-03-31,1,,,,,キッズスナックラボ,0
1274,6011001146619,新規,0,2022-03-31,2022-03-31,株式会社サイラン,,株式会社,東京都,渋谷区,宇田川町３－７Ｂ１Ｆ,,13,113,1500042,,,,,,,2022-03-31,1,,,,,サイラン,0
1276,6011003014427,新規,0,2022-03-31,2022-03-31,３０００Ｍｉｌｅｓ合同会社,,合同会社,東京都,渋谷区,代々木３丁目５９番１１－６０５号,,13,113,1510053,,,,,,,2022-03-31,1,,,,,サンゼンマイルズ,0
1277,6011003014435,新規,0,2022-03-31,2022-03-31,合同会社ＬＥＯ,,合同会社,東京都,渋谷区,神山町１０番２－５０２号パークハビオ渋谷神山町,,13,113,1500047,,,,,,,2022-03-31,1,,,,,レオ,0
1280,6011103011613,新規,0,2022-03-31,2022-03-31,コドリントン・ジャパン合同会社,,合同会社,東京都,新宿区,西新宿３丁目７番１号新宿パークタワー３０階,,13,104,1600023,,,,,,,2022-03-31,1,,,,,コドリントンジャパン,0
1283,6011603003556,新規,0,2022-03-31,2022-03-31,合同会社Ｇｒｏｗｔｈ＆Ｄｒｅａｍ,,合同会社,東京都,練馬区,南田中１丁目１番１０号,,13,120,1770035,,,,,,,2022-03-31,1,,,,,グロースアンドドリーム,0
1299,6020001145844,新規,0,2022-03-31,2022-03-31,株式会社ＳＦエレテック,,株式会社,神奈川県,横浜市旭区,東希望が丘１９４番地の１４,,14,112,2410826,,,,,,,2022-03-31,1,,,,,エスエフエレテック,0
1300,6020001145885,新規,0,2022-03-31,2022-03-31,株式会社ＮＩＳＨＩＩインテリアエステート,,株式会社,神奈川県,横浜市戸塚区,平戸町３４６－１,,14,110,2440803,,,,,,,2022-03-31,1,,,,,ニシイインテリアエステート,0
1306,6021001075445,新規,0,2022-03-31,2022-03-31,株式会社鎌倉和泉,,株式会社,神奈川県,鎌倉市,七里ガ浜２丁目１５番１６号,,14,204,2480026,,,,,,,2022-03-31,1,,,,,カマクライズミ,0
1307,6021001075528,新規,0,2022-03-31,2022-03-31,株式会社アンサンブル,,株式会社,神奈川県,茅ヶ崎市,高田４丁目１８番１９号,,14,207,2530002,,,,,,,2022-03-31,1,,,,,アンサンブル,0
1311,6021005012469,新規,0,2022-03-31,2022-03-31,一般社団法人日本伝統文化継承会,,その他の設立登記法人,神奈川県,足柄下郡湯河原町,宮上７４２番地の３６フォーシーズンズフォレスト４１５,,14,384,2590314,,,,,,,2022-03-31,1,,,,,ニホンデントウブンカケイショウカイ,0
1325,6050001050868,新規,0,2022-03-31,2022-03-31,萩原ファーム株式会社,,株式会社,茨城県,神栖市,萩原２２３７番地,,08,232,3140122,,,,,,,2022-03-31,1,,,,,ハギワラファーム,0
1343,6110001036530,新規,0,2022-03-31,2022-03-31,株式会社オーグ,,株式会社,新潟県,上越市,本町６丁目１番２３－３０３号マンション高田館,,15,222,9430832,,,,,,,2022-03-31,1,,,,,オーグ,0
1355,6120001244784,新規,0,2022-03-31,2022-03-31,株式会社ＤＪＮ,,株式会社,大阪府,大阪市中央区,東心斎橋１丁目６番２０号,,27,128,5420083,,,,,,,2022-03-31,1,,,,,ディージェーエヌ,0
1360,6120003021380,新規,0,2022-03-31,2022-03-31,合同会社やまねこ,,合同会社,大阪府,大阪市西成区,北津守４丁目８番１６－１０１号,,27,122,5570061,,,,,,,2022-03-31,1,,,,,ヤマネコ,0
1362,6120101065305,新規,0,2022-03-31,2022-03-31,エスポワール株式会社,,株式会社,大阪府,松原市,北新町２丁目５－２３,,27,217,5800025,,,,,,,2022-03-31,1,,,,,エスポワール,0
1369,6130001071443,新規,0,2022-03-31,2022-03-31,株式会社ＪＩＬＩ．ＴＡ,,株式会社,京都府,京都市北区,小山下総町２９番地１５カーサ鞍馬口１Ｆ,,26,101,6038151,,,,,,,2022-03-31,1,,,,,ジリッタ,0
1377,6140003017518,新規,0,2022-03-31,2022-03-31,合同会社Ｃｉｅｌ,,合同会社,兵庫県,神戸市西区,富士見が丘４丁目４－３,,28,111,6512214,,,,,,,2022-03-31,1,,,,,シエル,0
1393,6210001018865,新規,0,2022-03-31,2022-03-31,加藤眼鏡株式会社,,株式会社,福井県,福井市,若杉３丁目１４１０番地,,18,201,9188055,,,,,,,2022-03-31,1,,,,,カトウメガネ,0
1402,6240001059527,新規,0,2022-03-31,2022-03-31,株式会社リズム,,株式会社,広島県,尾道市,平原１丁目１９番３１号,,34,205,7220018,,,,,,,2022-03-31,1,,,,,リズム,0
1413,6260001036680,新規,0,2022-03-31,2022-03-31,エスワール環境株式会社,,株式会社,岡山県,岡山市東区,西大寺上１丁目２番地１９号西大寺上１丁目ＮＳ倉庫１０１,,33,103,7048112,,,,,,,2022-03-31,1,,,,,エスワールカンキョウ,0
1419,6290005018607,新規,0,2022-03-31,2022-03-31,無礙光院,,その他の設立登記法人,福岡県,福岡市南区,鶴田４丁目１２６番地３,,40,134,8111352,,,,,,,2022-03-31,1,,,,,ムゲコウイン,0
1424,6310001017790,新規,0,2022-03-31,2022-03-31,株式会社イソンパートナーズ,,株式会社,長崎県,諫早市,栄田町３５１番地４,,42,204,8540081,,,,,,,2022-03-31,1,,,,,,0
1425,6320001018986,新規,0,2022-03-31,2022-03-31,株式会社フレッシュフーズ・デポ,,株式会社,大分県,大分市,古国府４丁目７番１３号,,44,201,8700844,,,,,,,2022-03-31,1,,,,,フレッシュフーズデポ,0
1426,6320003003763,新規,0,2022-03-31,2022-03-31,合同会社ｗｅｌｌ　ｂｅｉｎｇ,,合同会社,大分県,大分市,大字皆春２８６番地の１０,,44,201,8700131,,,,,,,2022-03-31,1,,,,,ウェルビーイング,0
1427,6340001024603,新規,0,2022-03-31,2022-03-31,株式会社新盛緑建,,株式会社,鹿児島県,鹿児島市,吉野町９５２１番地１,,46,201,8920871,,,,,,,2022-03-31,1,,,,,シンモリリョッケン,0
1429,6340003003745,新規,0,2022-03-31,2022-03-31,Ｋ＆Ｈ合同会社,,合同会社,鹿児島県,鹿児島市,西田３丁目８番２４号サニーサイド２１　１階,,46,201,8900046,,,,,,,2022-03-31,1,,,,,ケーアンドエイチ,0
1445,6410003003630,新規,0,2022-03-31,2022-03-31,合同会社福屋企画,,合同会社,秋田県,横手市,大屋新町字中里８５番地,,05,203,0130051,,,,,,,2022-03-31,1,,,,,フクヤキカク,0
1461,7010003037362,新規,0,2022-03-31,2022-03-31,合同会社板橋本町,,合同会社,東京都,千代田区,麹町５丁目１番地ＮＫ真和ビル９階,,13,101,1020083,,,,,,,2022-03-31,1,,,,,イタバシホンチョウ,0
1463,7010005034779,新規,0,2022-03-31,2022-03-31,一般社団法人柴崎奨学基金,,その他の設立登記法人,東京都,千代田区,岩本町３丁目５－２合人社東京秋葉原ビル７０１,,13,101,1010032,,,,,,,2022-03-31,1,,,,,シバサキショウガクキキン,0
1482,7010901050598,新規,0,2022-03-31,2022-03-31,Ａｎａｎｄｉｓｍ株式会社,,株式会社,東京都,世田谷区,北烏山１丁目３３番１４号,,13,112,1570061,,,,,,,2022-03-31,1,,,,,アナンディズム,0
1483,7010901050607,新規,0,2022-03-31,2022-03-31,株式会社ＫＮＯＮ,,株式会社,東京都,世田谷区,粕谷２丁目１番４－１０１号,,13,112,1570063,,,,,,,2022-03-31,1,,,,,クノン,0
1488,7011001146601,新規,0,2022-03-31,2022-03-31,株式会社Ｒｏｖｅｒ,,株式会社,東京都,渋谷区,松濤１丁目２８番２号,,13,113,1500046,,,,,,,2022-03-31,1,,,,,ローバー,0
1489,7011001146618,新規,0,2022-03-31,2022-03-31,株式会社Ｋｓｙｎｃ,,株式会社,東京都,渋谷区,神宮前６丁目２３番４号桑野ビル２階,,13,113,1500001,,,,,,,2022-03-31,1,,,,,ケーシンク,0
1490,7011001146650,新規,0,2022-03-31,2022-03-31,株式会社Ｌａｕｇｈ　Ｌｉｆｅ,,株式会社,東京都,渋谷区,渋谷３丁目１０番１８号パークハビオ渋谷３０５,,13,113,1500002,,,,,,,2022-03-31,1,,,,,ラフライフ,0
1491,7011003014434,新規,0,2022-03-31,2022-03-31,合同会社Ｄａｉｓｕｋｅ　Ｈａｓｈｉｍｏｔｏ,,合同会社,東京都,渋谷区,渋谷１丁目１５－１２ＬａｉｄｏｕｔＳｈｉｂｕｙａ２０４,,13,113,1500002,,,,,,,2022-03-31,1,,,,,ダイスケハシモト,0
1492,7011101098354,新規,0,2022-03-31,2022-03-31,株式会社パレストン,,株式会社,東京都,新宿区,西新宿３丁目３番１３号西新宿水間ビル６階,,13,104,1600023,,,,,,,2022-03-31,1,,,,,パレストン,0
1493,7011101098362,新規,0,2022-03-31,2022-03-31,株式会社エスプラス,,株式会社,東京都,新宿区,歌舞伎町２丁目２０番５号ソフィア５ビル４階全号室,,13,104,1600021,,,,,,,2022-03-31,1,,,,,エスプラス,0
1496,7011303004358,新規,0,2022-03-31,2022-03-31,合同会社アウル,,合同会社,東京都,杉並区,天沼１丁目６番２４号,,13,115,1670032,,,,,,,2022-03-31,1,,,,,アウル,0
1497,7011501027887,新規,0,2022-03-31,2022-03-31,株式会社ＫＵＲＯ,,株式会社,東京都,北区,赤羽西３丁目３５番４号,,13,117,1150055,,,,,,,2022-03-31,1,,,,,クロ,0
1499,7011603003555,新規,0,2022-03-31,2022-03-31,合同会社ルイ・インテリア,,合同会社,東京都,練馬区,関町南３丁目６番１０号,,13,120,1770053,,,,,,,2022-03-31,1,,,,,ルイインテリア,0
1508,7011801040516,新規,0,2022-03-31,2022-03-31,株式会社ＴＡＭＡＹＡ,,株式会社,東京都,足立区,梅田５丁目１３番１３－３０５号,,13,121,1230851,,,,,,,2022-03-31,1,,,,,タマヤ,0
1512,7012403005304,新規,0,2022-03-31,2022-03-31,ＲＳＴ合同会社,,合同会社,東京都,府中市,南町２丁目５－２６,,13,206,1830026,,,,,,,2022-03-31,1,,,,,アールエスティ,0
1515,7013301048881,新規,0,2022-03-31,2022-03-31,サクセスエッジ株式会社,,株式会社,東京都,豊島区,東池袋１丁目３４番５号いちご東池袋ビル６階,,13,116,1700013,,,,,,,2022-03-31,1,,,,,サクセスエッジ,0
1516,7013303006103,新規,0,2022-03-31,2022-03-31,合同会社マツダ電気,,合同会社,東京都,豊島区,池袋本町２丁目３８番地８号小暮荘２０５号室,,13,116,1700011,,,,,,,2022-03-31,1,,,,,マツダデンキ,0
1523,7020001145884,新規,0,2022-03-31,2022-03-31,株式会社エスシーコーポレーション,,株式会社,神奈川県,川崎市多摩区,菅北浦１丁目２番１３号,,14,135,2140008,,,,,,,2022-03-31,1,,,,,エスシーコーポレーション,0
1525,7020003021522,新規,0,2022-03-31,2022-03-31,合同会社アクトレック,,合同会社,神奈川県,川崎市高津区,梶ケ谷３丁目１番地１ヒルズ梶が谷姿見台７０５,,14,134,2130015,,,,,,,2022-03-31,1,,,,,アクトレック,0
1538,7030001147475,新規,0,2022-03-31,2022-03-31,株式会社一永電気,,株式会社,埼玉県,川越市,大字寺尾７８０番地１５,,11,201,3501141,,,,,,,2022-03-31,1,,,,,イチエイデンキ,0
1556,7040003019787,新規,0,2022-03-31,2022-03-31,エヌ合同会社,,合同会社,千葉県,富里市,日吉台３丁目３５番６号,,12,233,2860201,,,,,,,2022-03-31,1,,,,,エヌ,0
1562,7060001034679,新規,0,2022-03-31,2022-03-31,株式会社忍,,株式会社,栃木県,足利市,下渋垂町１３６９番地,,09,202,3260334,,,,,,,2022-03-31,1,,,,,シノブ,0
1571,7070001039082,新規,0,2022-03-31,2022-03-31,富士油圧精機株式会社,,株式会社,群馬県,前橋市,泉沢町１２５０番地２,,10,201,3792101,,,,,,,2022-03-31,1,,,,,フジユアツセイキ,0
1578,7100003006481,新規,0,2022-03-31,2022-03-31,合同会社さんふらわぁ,,合同会社,長野県,埴科郡坂城町,大字南条４６０５番地２６,,20,521,3890603,,,,,,,2022-03-31,1,,,,,サンフラワァ,0
1596,7120001244635,新規,0,2022-03-31,2022-03-31,株式会社ＲＥＭＡＫＥ,,株式会社,大阪府,大阪市中央区,南船場３丁目１番１０号,,27,128,5420081,,,,,,,2022-03-31,1,,,,,リメイク,0
1597,7120001244775,新規,0,2022-03-31,2022-03-31,株式会社ＥＦＦＯＲＴ,,株式会社,大阪府,大阪市浪速区,元町１丁目４－１,,27,111,5560016,,,,,,,2022-03-31,1,,,,,エフォート,0
1604,7120901045777,新規,0,2022-03-31,2022-03-31,株式会社Ｌｉｌｉ　Ｍｅｒｉｃ,,株式会社,大阪府,池田市,木部町３８１番地の１,,27,204,5630014,,,,,,,2022-03-31,1,,,,,リリメリク,0
1608,7130001071426,新規,0,2022-03-31,2022-03-31,株式会社ＫＪ,,株式会社,京都府,京都市上京区,新町通丸太町上る春帯町３５３番地,,26,102,6028026,,,,,,,2022-03-31,1,,,,,ケイジェイ,0
1610,7130003007832,新規,0,2022-03-31,2022-03-31,合同会社ｍａｄｏｒｏｍｉｓｍ,,合同会社,京都府,京都市中京区,壬生相合町６４－１５垣嵜ビル４０１号室,,26,104,6048812,,,,,,,2022-03-31,1,,,,,マドロミズム,0
1614,7140001125404,新規,0,2022-03-31,2022-03-31,株式会社フロムオリジン,,株式会社,兵庫県,神戸市灘区,福住通６丁目８番６号,,28,102,6570824,,,,,,,2022-03-31,1,,,,,フロムオリジン,0
1625,7180301036058,新規,0,2022-03-31,2022-03-31,ＸＮＯＳ株式会社,,株式会社,愛知県,岡崎市,葵町１番地１７,,23,202,4440913,,,,,,,2022-03-31,1,,,,,クロノス,0
1626,7190001029261,新規,0,2022-03-31,2022-03-31,株式会社スマイル・１,,株式会社,三重県,亀山市,本町２丁目９番９号,,24,210,5190116,,,,,,,2022-03-31,1,,,,,スマイルワン,0
1639,7290001096812,新規,0,2022-03-31,2022-03-31,株式会社マルタカ塗建,,株式会社,福岡県,糟屋郡須惠町,大字上須恵８３２番地２,,40,344,8112100,,,,,,,2022-03-31,1,,,,,マルタカトケン,0
1640,7290001096993,新規,0,2022-03-31,2022-03-31,株式会社ホワスト工業,,株式会社,福岡県,那珂川市,片縄１０丁目１０番地麻原ビル３０１号,,40,231,8111201,,,,,,,2022-03-31,1,,,,,ホワストコウギョウ,0
1645,7290801028394,新規,0,2022-03-31,2022-03-31,ミマモル株式会社,,株式会社,福岡県,北九州市小倉北区,浅野３丁目８番１号アジア太平洋インポートマートビル６Ｆ北九州テレワークセンター,,40,106,8020001,,,,,,,2022-03-31,1,,,,,ミマモル,0
1646,7290803004096,新規,0,2022-03-31,2022-03-31,合同会社ＷｉＮｓ,,合同会社,福岡県,遠賀郡岡垣町,旭台４丁目６番９号,,40,383,8114215,,,,,,,2022-03-31,1,,,,,ウィナース,0
1649,7320003003762,新規,0,2022-03-31,2022-03-31,合同会社ＫＥＹＺ,,合同会社,大分県,大分市,大字津守１５８－１オーセル３－２０１,,44,201,8700945,,,,,,,2022-03-31,1,,,,,キーズ,0
1651,7340001024602,新規,0,2022-03-31,2022-03-31,株式会社エネジオ,,株式会社,鹿児島県,鹿児島市,広木２丁目４５番１２号,,46,201,8900037,,,,,,,2022-03-31,1,,,,,エネジオ,0
1661,7400001015834,新規,0,2022-03-31,2022-03-31,株式会社Ｄ．ｖａ,,株式会社,岩手県,盛岡市,月が丘１丁目１０番８号,,03,201,0200121,,,,,,,2022-03-31,1,,,,,ディーバ,0
1665,7430001086294,新規,0,2022-03-31,2022-03-31,株式会社ｙｓ,,株式会社,北海道,札幌市中央区,南五条西４丁目２番地,,01,101,0640805,,,,,,,2022-03-31,1,,,,,ワイズ,0
1671,7430005014425,新規,0,2022-03-31,2022-03-31,一般社団法人北海道福祉事業会,,その他の設立登記法人,北海道,札幌市豊平区,平岸一条１８丁目１番６号ルワズィール天神山１０７,,01,105,0620931,,,,,,,2022-03-31,1,,,,,ホッカイドウフクシジギョウカイ,0
1674,7460101007172,新規,0,2022-03-31,2022-03-31,株式会社エヌ・エヌ・ワイ,,株式会社,北海道,河東郡士幌町,字上音更２２４番地,,01,632,0801249,,,,,,,2022-03-31,1,,,,,エヌエヌワイ,0
1675,7470003002155,新規,0,2022-03-31,2022-03-31,Ｃａｒメイト合同会社,,合同会社,香川県,三豊市,山本町辻２８５６番地１,00126110,37,208,7680101,,,,,,,2022-03-31,1,,,,,カーメイト,0
1679,7700150010309,新規,0,2022-03-31,2015-10-09,神の家族主イエス・キリスト教会,,その他,東京都,足立区,伊興本町２丁目１－１０,,13,121,1210807,,,,,,,2015-10-09,1,,,,,カミノカゾクシユイエスキリストキヨウカイ,0
1682,7700150107559,新規,0,2022-03-31,2022-03-31,Ｓｅｃｒｅｔｌａｂ　ＳＧ　Ｐｔｅ．Ｌｔｄ．,,外国会社等,,,,,,,,３５１　Ｂｒａｄｄｅｌｌ　Ｒｏａｄ，　＃０５－０２，　５７９７１３　Ｓｉｎｇａｐｏｒｅ,,,,,,2022-03-31,1,,,,,シークレツトラボエスジーピーテイーイーエルテイーデイー,0
1686,8010001225546,新規,0,2022-03-31,2022-03-31,株式会社池田事務所,,株式会社,東京都,千代田区,神田神保町３丁目１番地,,13,101,1010051,,,,,,,2022-03-31,1,,,,,イケダジムショ,0
1687,8010001225570,新規,0,2022-03-31,2022-03-31,ｉＭａｒｔｓ　ＡＩ　Ｔｅｃｈ株式会社,,株式会社,東京都,中央区,銀座１丁目１２番４号Ｎ＆Ｅビル７階,,13,102,1040061,,,,,,,2022-03-31,1,,,,,アイマーツエーアイテック,0
1693,8010005034794,新規,0,2022-03-31,2022-03-31,一般社団法人あかり,,その他の設立登記法人,東京都,千代田区,平河町２丁目４番５号,,13,101,1020093,,,,,,,2022-03-31,1,,,,,アカリ,0
1703,8010401166464,新規,0,2022-03-31,2022-03-31,富士医療産業株式会社,,株式会社,東京都,港区,港南２丁目３－１号,,13,103,1080075,,,,,,,2022-03-31,1,,,,,フジイリョウサンギョウ,0
1704,8010401166489,新規,0,2022-03-31,2022-03-31,株式会社ＳＥＡＳＳ,,株式会社,東京都,港区,三田３丁目４番３号,,13,103,1080073,,,,,,,2022-03-31,1,,,,,シーズ,0
1705,8010401166497,新規,0,2022-03-31,2022-03-31,株式会社びーよん,,株式会社,東京都,港区,南青山１丁目２６番１号寿光ビル７階,,13,103,1070062,,,,,,,2022-03-31,1,,,,,ビーヨン,0
1709,8010501048637,新規,0,2022-03-31,2022-03-31,紫荊吉川株式会社,,株式会社,東京都,台東区,千束２丁目３０－７マンションＫ２,,13,106,1110031,,,,,,,2022-03-31,1,,,,,シキンキツセン,0
1717,8010801032844,新規,0,2022-03-31,2022-03-31,株式会社オルトラ,,株式会社,東京都,大田区,東六郷１丁目４番５号,,13,111,1440046,,,,,,,2022-03-31,1,,,,,オルトラ,0
1720,8011001146591,新規,0,2022-03-31,2022-03-31,ＨＥＬＬＯＷ株式会社,,株式会社,東京都,渋谷区,猿楽町９－８,,13,113,1500033,,,,,,,2022-03-31,1,,,,,ハロー,0
1721,8011001146617,新規,0,2022-03-31,2022-03-31,Ａｉｄ　Ｊａｐａｎ株式会社,,株式会社,東京都,渋谷区,宇田川町１３番８号ちとせ会館２階,,13,113,1500042,,,,,,,2022-03-31,1,,,,,エイドジャパン,0
1725,8011101098353,新規,0,2022-03-31,2022-03-31,株式会社ＣｈａｒｇｅＭｅ,,株式会社,東京都,新宿区,四谷４丁目３２番地,,13,104,1600004,,,,,,,2022-03-31,1,,,,,チャージミー,0
1728,8011103011611,新規,0,2022-03-31,2022-03-31,Ｌ＆Ｒ・ＹＵＹＡ合同会社,,合同会社,東京都,新宿区,大久保２丁目１９番１０号東和ビル２Ａ,,13,104,1690072,,,,,,,2022-03-31,1,,,,,エルアンドアールユーヤ,0
1730,8011301027681,新規,0,2022-03-31,2022-03-31,株式会社アストロ,,株式会社,東京都,杉並区,上井草２丁目３７番１１号,,13,115,1670023,,,,,,,2022-03-31,1,,,,,アストロ,0
1734,8011305002813,新規,0,2022-03-31,2022-03-31,一般社団法人全国自然災害支援協会,,その他の設立登記法人,東京都,杉並区,久我山５丁目２番１０号,,13,115,1680082,,,,,,,2022-03-31,1,,,,,ゼンコクシゼンサイガイシエンキョウカイ,0
1736,8011803005029,新規,0,2022-03-31,2022-03-31,合同会社ｓａｎｅｉｇｅ,,合同会社,東京都,足立区,一ツ家２丁目１８番１４号,,13,121,1210075,,,,,,,2022-03-31,1,,,,,スネジュー,0
1743,8020001145850,新規,0,2022-03-31,2022-03-31,株式会社ＮＩＳＨＩＩ,,株式会社,神奈川県,横浜市南区,永田北１丁目３０－１－１６,,14,105,2320071,,,,,,,2022-03-31,1,,,,,ニシイ,0
1746,8020003021505,新規,0,2022-03-31,2022-03-31,クラシア合同会社,,合同会社,神奈川県,横浜市戸塚区,上柏尾町２８７－３,,14,110,2440811,,,,,,,2022-03-31,1,,,,,クラシア,0
1747,8020005015447,新規,0,2022-03-31,2022-03-31,医療法人社団おおぞら,,その他の設立登記法人,神奈川県,横浜市青葉区,黒須田３３番地５タウンコートあざみ野１Ｆ,,14,117,2250022,,,,,,,2022-03-31,1,,,,,オオゾラ,0
1748,8020005015455,新規,0,2022-03-31,2022-03-31,医療法人謙武会,,その他の設立登記法人,神奈川県,横浜市瀬谷区,中央１番地６第５白鳳ビル２階,,14,114,2460014,,,,,,,2022-03-31,1,,,,,ケンムカイ,0
1757,8030001147458,新規,0,2022-03-31,2022-03-31,株式会社プラスホワイト,,株式会社,埼玉県,所沢市,北原町８６６番地の１１,,11,208,3590004,,,,,,,2022-03-31,1,,,,,プラスホワイト,0
1758,8030001147474,新規,0,2022-03-31,2022-03-31,株式会社ＫＡＪＯＵ,,株式会社,埼玉県,秩父市,野坂町１丁目１５番１１号メゾン野坂Ａ－１０２,,11,207,3680033,,,,,,,2022-03-31,1,,,,,カジョウ,0
1759,8030001147499,新規,0,2022-03-31,2022-03-31,株式会社Ｇ‐ＱＵＥＥＮ,,株式会社,埼玉県,所沢市,小手指南６丁目１４番地の１－１０７－２－１０６,,11,208,3591146,,,,,,,2022-03-31,1,,,,,ジークイーン,0
1764,8030005020776,新規,0,2022-03-31,2022-03-31,医療法人マウス＆ピース,,その他の設立登記法人,埼玉県,上尾市,須ケ谷１丁目１５８番地２,,11,219,3620004,,,,,,,2022-03-31,1,,,,,マウスアンドピース,0
1775,8040003019778,新規,0,2022-03-31,2022-03-31,合同会社ｅ‐ａｓｃｅｎｔ,,合同会社,千葉県,千葉市中央区,院内１丁目１１番７号オリオンハイツ１０１,,12,101,2600018,,,,,,,2022-03-31,1,,,,,イーアセント,0
1776,8040003019786,新規,0,2022-03-31,2022-03-31,合同会社Ｔｒｉｐｏｄ　Ｂｉｓｈｏｐ,,合同会社,千葉県,市川市,鬼高２丁目１４番２７号（ベルデックス市川１０３号）,,12,203,2720015,,,,,,,2022-03-31,1,,,,,トライポッドビショップ,0
1782,8050003006461,新規,0,2022-03-31,2022-03-31,合同会社ＳＨＩＢＡケアファーム,,合同会社,茨城県,結城郡八千代町,大字大渡戸１６６番地２,,08,521,3003515,,,,,,,2022-03-31,1,,,,,シバケアファーム,0
1785,8080001024834,新規,0,2022-03-31,2022-03-31,キャリアサポート株式会社,,株式会社,静岡県,静岡市葵区,大岩３丁目５番１３号,,22,101,4200886,,,,,,,2022-03-31,1,,,,,キャリアサポート,0
1788,8090003002069,新規,0,2022-03-31,2022-03-31,合同会社アクソン,,合同会社,山梨県,山梨市,上石森１４３番地１,,19,205,4050014,,,,,,,2022-03-31,1,,,,,アクソン,0
1794,8110005016774,新規,0,2022-03-31,2022-03-31,医療法人社団わたなべ内科・青山クリニック,,その他の設立登記法人,新潟県,新潟市西区,青山１丁目２番２１号,,15,107,9502002,,,,,,,2022-03-31,1,,,,,ワタナベナイカアオヤマクリニック,0
1804,8120001244709,新規,0,2022-03-31,2022-03-31,株式会社新生,,株式会社,大阪府,大阪市都島区,中野町４丁目８番１２号レジュールアッシュ桜ノ宮リバーコート３０３,,27,102,5340027,,,,,,,2022-03-31,1,,,,,シンセイ,0
1805,8120001244774,新規,0,2022-03-31,2022-03-31,株式会社ウェルス経営,,株式会社,大阪府,大阪市北区,梅田１丁目１１番４号大阪駅前第４ビル９階９２３・１４４９号,,27,127,5300001,,,,,,,2022-03-31,1,,,,,ウェルスケイエイ,0
1810,8120003021354,新規,0,2022-03-31,2022-03-31,合同会社セキグチ商事,,合同会社,大阪府,大阪市東淀川区,西淡路１丁目３番２６号弥生新大阪第一ビル３０４号,,27,114,5330031,,,,,,,2022-03-31,1,,,,,セキグチショウジ,0
1816,8120901045776,新規,0,2022-03-31,2022-03-31,中日本フード関西株式会社,,株式会社,大阪府,池田市,住吉２丁目１４番７号,,27,204,5630033,,,,,,,2022-03-31,1,,,,,ナカニホンフードカンサイ,0
1818,8120903004086,新規,0,2022-03-31,2022-03-31,Ｌｏｗｅｌｌ　Ｊａｐａｎ合同会社,,合同会社,大阪府,吹田市,山田南４５番Ａ－４１７号,,27,205,5650823,,,,,,,2022-03-31,1,,,,,ローウェルジャパン,0
1821,8130001071433,新規,0,2022-03-31,2022-03-31,永華資本株式会社,,株式会社,京都府,京都市南区,西九条南田町６９番地２,,26,107,6018441,,,,,,,2022-03-31,1,,,,,エイカシホン,0
1830,8140001125403,新規,0,2022-03-31,2022-03-31,株式会社Ｓｍａｌｌ　ｉｎｎｏｖａｔｉｏｎ,,株式会社,兵庫県,神戸市須磨区,白川台５丁目６番地の５,,28,107,6540103,,,,,,,2022-03-31,1,,,,,スモールイノベーション,0
1836,8140005026102,新規,0,2022-03-31,2022-03-31,一般社団法人Ｆｉｒｅ　Ｔｉｅｓ,,その他の設立登記法人,兵庫県,神戸市灘区,桜ケ丘町１５－５５－１１７,,28,102,6570021,,,,,,,2022-03-31,1,,,,,ファイヤータイズ,0
1846,8180001150595,新規,0,2022-03-31,2022-03-31,株式会社紋屋,,株式会社,愛知県,知多郡阿久比町,大字椋岡字西畑８１番地,,23,441,4702214,,,,,,,2022-03-31,1,,,,,モンヤ,0
1851,8190001029260,新規,0,2022-03-31,2022-03-31,ＤＩ　ＴＲＡＮＳＰＯＲＴ株式会社,,株式会社,三重県,松阪市,桜町５８１番地４７,,24,204,5150071,,,,,,,2022-03-31,1,,,,,ディーアイトランスポート,0
1867,8240003005568,新規,0,2022-03-31,2022-03-31,合同会社Ｓ＆Ｓ,,合同会社,広島県,廿日市市,大野５７５番地２,,34,213,7390488,,,,,,,2022-03-31,1,,,,,エスアンドエス,0
1875,8290003012320,新規,0,2022-03-31,2022-03-31,合同会社あかり,,合同会社,福岡県,福岡市中央区,地行浜２丁目２番５－１３０２号,,40,133,8100065,,,,,,,2022-03-31,1,,,,,アカリ,0
1884,8330001029576,新規,0,2022-03-31,2022-03-31,株式会社ＩＳＥＹＡ,,株式会社,熊本県,熊本市中央区,新町１丁目８番５－８０５号サーパス新町一丁目,,43,101,8600004,,,,,,,2022-03-31,1,,,,,イセヤ,0
1887,8360003011901,新規,0,2022-03-31,2022-03-31,合同会社ｉｔｅｌｌａ,,合同会社,沖縄県,石垣市,字平得３４６,,47,207,9070003,,,,,,,2022-03-31,1,,,,,イテラ,0
1899,8410001013134,新規,0,2022-03-31,2022-03-31,アール設工株式会社,,株式会社,秋田県,秋田市,土崎港北５丁目１番４９号,,05,201,0110941,,,,,,,2022-03-31,1,,,,,アールセッコウ,0
1908,8480003001808,新規,0,2022-03-31,2022-03-31,合同会社フリック,,合同会社,徳島県,徳島市,末広１丁目４－２０,,36,201,7700866,,,,,,,2022-03-31,1,,,,,フリック,0
1926,9010003037369,新規,0,2022-03-31,2022-03-31,合同会社桜華,,合同会社,東京都,中央区,銀座５丁目４番１５号西五ビル５階,,13,102,1040061,,,,,,,2022-03-31,1,,,,,ハルカ,0
1931,9010405020864,新規,0,2022-03-31,2022-03-31,スマートハイムシティ東松山団地管理組合法人,,その他の設立登記法人,東京都,港区,虎ノ門２丁目１０－４,,13,103,1050001,,,,,,,2022-03-31,1,,,,,スマートハイムシティヒガシマツヤマダンチ,0
1933,9010501048644,新規,0,2022-03-31,2022-03-31,株式会社エイム,,株式会社,東京都,台東区,浅草６丁目２２番１３－８０１号Ｓ－ＲＥＳＩＤＥＮＣＥ浅草,,13,106,1110032,,,,,,,2022-03-31,1,,,,,エイム,0
1944,9010703006169,新規,0,2022-03-31,2022-03-31,ランプライト合同会社,,合同会社,東京都,品川区,平塚２丁目１－１－７０３,,13,109,1420051,,,,,,,2022-03-31,1,,,,,ランプライト,0
1949,9010901050547,新規,0,2022-03-31,2022-03-31,株式会社みどり教室,,株式会社,東京都,世田谷区,中町５丁目２２－６,,13,112,1580091,,,,,,,2022-03-31,1,,,,,ミドリキョウシツ,0
1950,9010901050571,新規,0,2022-03-31,2022-03-31,株式会社シーズコア,,株式会社,東京都,世田谷区,玉堤１丁目２０番１９号,,13,112,1580087,,,,,,,2022-03-31,1,,,,,シーズコア,0
1957,9011001146599,新規,0,2022-03-31,2022-03-31,株式会社久太郎商店,,株式会社,東京都,渋谷区,道玄坂１丁目１０番８号渋谷道玄坂東急ビル２Ｆ－Ｃ,,13,113,1500043,,,,,,,2022-03-31,1,,,,,キュウタロウショウテン,0
1958,9011001146616,新規,0,2022-03-31,2022-03-31,株式会社ＰＬＡＹ　ＬＩＶ．,,株式会社,東京都,渋谷区,道玄坂１丁目１５－３－９０７,,13,113,1500043,,,,,,,2022-03-31,1,,,,,プレイリヴ,0
1959,9011001146632,新規,0,2022-03-31,2022-03-31,株式会社スポットメイク,,株式会社,東京都,渋谷区,宇田川町１３番８号ちとせ会館２Ｆ,,13,113,1500042,,,,,,,2022-03-31,1,,,,,スポットメイク,0
1960,9011003014432,新規,0,2022-03-31,2022-03-31,合同会社ＭＫ,,合同会社,東京都,渋谷区,道玄坂１丁目１０番８号渋谷道玄坂東急ビル２Ｆ－Ｃ,,13,113,1500043,,,,,,,2022-03-31,1,,,,,エムケー,0
1962,9011103011602,新規,0,2022-03-31,2022-03-31,合同会社祐構造設計,,合同会社,東京都,新宿区,西新宿７丁目５番５号Ｐｌａｚａ西新宿ＵＣＦ４０６,,13,104,1600023,,,,,,,2022-03-31,1,,,,,ユウコウゾウセッケイ,0
1966,9011403003613,新規,0,2022-03-31,2022-03-31,プラバース合同会社,,合同会社,東京都,板橋区,南常盤台１丁目１１－６レフア南常盤台１０１号室,,13,119,1740072,,,,,,,2022-03-31,1,,,,,プラバース,0
1968,9011501027885,新規,0,2022-03-31,2022-03-31,株式会社ＳＡＮＫＩ,,株式会社,東京都,北区,豊島３丁目９番１３号,,13,117,1140003,,,,,,,2022-03-31,1,,,,,サンキ,0
1970,9011801040514,新規,0,2022-03-31,2022-03-31,株式会社グリーン,,株式会社,東京都,足立区,東和５丁目１０番３２号ＦＥＲＩＯ１０３,,13,121,1200003,,,,,,,2022-03-31,1,,,,,グリーン,0
1973,9013303006101,新規,0,2022-03-31,2022-03-31,ドーチェスター合同会社,,合同会社,東京都,豊島区,目白４丁目１９番２６号,,13,116,1710031,,,,,,,2022-03-31,1,,,,,ドーチェスター,0
1982,9020001145809,新規,0,2022-03-31,2022-03-31,株式会社ＴＴＲＵＳＴ,,株式会社,神奈川県,横浜市西区,北幸２丁目９番１０号ＨＳビル８階,,14,103,2200004,,,,,,,2022-03-31,1,,,,,ティートラスト,0
1983,9020001145866,新規,0,2022-03-31,2022-03-31,株式会社ＭＯＮＡＣＯ,,株式会社,神奈川県,横浜市青葉区,新石川２丁目６番地１３,,14,117,2250003,,,,,,,2022-03-31,1,,,,,モナコ,0
1984,9020001145882,新規,0,2022-03-31,2022-03-31,ウィンノ株式会社,,株式会社,神奈川県,横浜市港北区,日吉本町６丁目５７番５号,,14,109,2230062,,,,,,,2022-03-31,1,,,,,ウィンノ,0
1991,9021001075558,新規,0,2022-03-31,2022-03-31,株式会社マチハイ,,株式会社,神奈川県,横須賀市,武４丁目３８番１１－１０１号,,14,201,2380313,,,,,,,2022-03-31,1,,,,,マチハイ,0
1996,9030003019118,新規,0,2022-03-31,2022-03-31,ｕｎｉｂａｓ合同会社,,合同会社,埼玉県,川口市,栄町３丁目２番１５号,,11,203,3320017,,,,,,,2022-03-31,1,,,,,ユニバス,0
2002,9040001122806,新規,0,2022-03-31,2022-03-31,ＴＡＫＡ　ＥＮＴＥＲＰＲＩＳＥＳ株式会社,,株式会社,千葉県,柏市,藤ケ谷５６４番地４,,12,217,2770931,,,,,,,2022-03-31,1,,,,,タカエンタープライズ,0
2004,9040005021558,新規,0,2022-03-31,2022-03-31,協同組合シー・エス・コープ,,その他の設立登記法人,千葉県,千葉市花見川区,幕張本郷１丁目１６番３号,,12,102,2620033,,,,,,,2022-03-31,1,,,,,シーエスコープ,0
2006,9050003006452,新規,0,2022-03-31,2022-03-31,銘盛合同会社,,合同会社,茨城県,取手市,東６丁目１５－８,,08,217,3020005,,,,,,,2022-03-31,1,,,,,メイジョウ,0
2007,9050003006460,新規,0,2022-03-31,2022-03-31,合同会社ｖａｐａｕｓ,,合同会社,茨城県,取手市,新取手２丁目２２番１０号,,08,217,3020031,,,,,,,2022-03-31,1,,,,,ヴァパウス,0
2012,9070003004438,新規,0,2022-03-31,2022-03-31,合同会社きたかんコネクト,,合同会社,群馬県,太田市,世良田町１０６９－１アパートメンツ世良田１０４号室,,10,205,3700426,,,,,,,2022-03-31,1,,,,,キタカンコネクト,0
2014,9080001024833,新規,0,2022-03-31,2022-03-31,株式会社Ｃａｃｈｅ’Ｌａｂｏ,,株式会社,静岡県,静岡市葵区,人宿町２丁目１番地９梅屋ビル２Ｆ,,22,101,4200037,,,,,,,2022-03-31,1,,,,,カシェラボ,0
2018,9100001035200,新規,0,2022-03-31,2022-03-31,株式会社ＳＥＫＡＩ　ＭＯＴＯＲＳ,,株式会社,長野県,埴科郡坂城町,大字南条７０１－２－１０１,,20,521,3890603,,,,,,,2022-03-31,1,,,,,セカイモータス,0
2035,9120001244765,新規,0,2022-03-31,2022-03-31,株式会社禄笑,,株式会社,大阪府,大阪市北区,豊崎３丁目１５番５号ＴＫビル２Ｆ,,27,127,5310072,,,,,,,2022-03-31,1,,,,,ロクエ,0
2039,9120003021378,新規,0,2022-03-31,2022-03-31,まるごえん合同会社,,合同会社,大阪府,大阪市北区,大淀南３丁目２番４－２０８号,,27,127,5310075,,,,,,,2022-03-31,1,,,,,マルゴエン,0
2042,9120903004085,新規,0,2022-03-31,2022-03-31,Ｌｉｎｅ　Ｉｎｖｅｓｔｍｅｎｔ合同会社,,合同会社,大阪府,吹田市,山田南４５番Ａ－４１７号,,27,205,5650823,,,,,,,2022-03-31,1,,,,,ラインインベストメント,0
2044,9122001035715,新規,0,2022-03-31,2022-03-31,株式会社ＡｃｃｅＬ,,株式会社,大阪府,四條畷市,楠公１丁目９－１,,27,229,5750023,,,,,,,2022-03-31,1,,,,,アクセル,0
2046,9130001071440,新規,0,2022-03-31,2022-03-31,株式会社Ｍ＆Ｆ保険,,株式会社,京都府,京都市左京区,一乗寺南大丸町５７番地,,26,103,6068186,,,,,,,2022-03-31,1,,,,,エムアンドエフホケン,0
2047,9130005016417,新規,0,2022-03-31,2022-03-31,一般社団法人全日本プロポーカー協会,,その他の設立登記法人,京都府,京都市右京区,西京極浜ノ本町７６番地,,26,108,6150873,,,,,,,2022-03-31,1,,,,,ゼンニッポンプロポーカーキョウカイ,0
2053,9140001125377,新規,0,2022-03-31,2022-03-31,株式会社Ｋ‐ＲｅＳｔａｒｔ,,株式会社,兵庫県,豊岡市,日高町府市場５９６番地２,,28,209,6695322,,,,,,,2022-03-31,1,,,,,ケーリスタート,0
2054,9140001125435,新規,0,2022-03-31,2022-03-31,トモス株式会社,,株式会社,兵庫県,芦屋市,大原町１３番２３号,,28,206,6590092,,,,,,,2022-03-31,1,,,,,トモス,0
2060,9140003017507,新規,0,2022-03-31,2022-03-31,合同会社高虎商会,,合同会社,兵庫県,丹波市,柏原町下小倉３２１番地１５,,28,223,6693305,,,,,,,2022-03-31,1,,,,,タカトラショウカイ,0
2061,9140003017515,新規,0,2022-03-31,2022-03-31,合同会社ＨＯＰＥ,,合同会社,兵庫県,西宮市,六軒町１番４１－１号,,28,204,6620874,,,,,,,2022-03-31,1,,,,,ホープ,0
2065,9160001024081,新規,0,2022-03-31,2022-03-31,株式会社ＶＩＳＩＯＮ８,,株式会社,滋賀県,大津市,北小松５４５番地の４,,25,201,5200501,,,,,,,2022-03-31,1,,,,,ビジョンエイト,0
2074,9180001150603,新規,0,2022-03-31,2022-03-31,株式会社ミナト,,株式会社,愛知県,名古屋市中区,栄３丁目１１－５,,23,106,4600008,,,,,,,2022-03-31,1,,,,,ミナト,0
2078,9180005019695,新規,0,2022-03-31,2022-03-31,一般社団法人ノア,,その他の設立登記法人,愛知県,津島市,唐臼町東田面１７番地３,,23,208,4960026,,,,,,,2022-03-31,1,,,,,ノア,0
2086,9200001039901,新規,0,2022-03-31,2022-03-31,株式会社Ｅａｕ　ｅｔ　ｓｅｌ,,株式会社,岐阜県,岐阜市,宇佐３丁目１８番１５号,,21,201,5008368,,,,,,,2022-03-31,1,,,,,オーエセル,0
2109,9260003003858,新規,0,2022-03-31,2022-03-31,合同会社ＲｅＢｏｒｎ,,合同会社,岡山県,岡山市南区,大福６７９番地３９,,33,104,7010204,,,,,,,2022-03-31,1,,,,,リボーン,0
2114,9290001096983,新規,0,2022-03-31,2022-03-31,メイルピナス株式会社,,株式会社,福岡県,福岡市中央区,舞鶴２丁目８番６号,,40,133,8100073,,,,,,,2022-03-31,1,,,,,メイルピナス,0
2115,9290001096991,新規,0,2022-03-31,2022-03-31,株式会社ＳＯＮＯＤＡ　ＲＯＯＦ,,株式会社,福岡県,糟屋郡須惠町,大字須恵９７２番地１,,40,344,8112100,,,,,,,2022-03-31,1,,,,,ソノダルーフ,0
2117,9290003012336,新規,0,2022-03-31,2022-03-31,合同会社ＩｃｏＲｏ,,合同会社,福岡県,福岡市博多区,東光寺町１丁目２０－１８日下部コーポ３０３,,40,132,8120896,,,,,,,2022-03-31,1,,,,,イコロ,0
2122,9350001017660,新規,0,2022-03-31,2022-03-31,株式会社サンホテル都城,,株式会社,宮崎県,都城市,栄町１９号５番地,,45,202,8850023,,,,,,,2022-03-31,1,,,,,サンホテルミヤコノジョウ,0
2137,9420003002488,新規,0,2022-03-31,2022-03-31,Ｌａｇｕｎｅ合同会社,,合同会社,青森県,五所川原市,金木町朝日山３３５番地１,,02,205,0370202,,,,,,,2022-03-31,1,,,,,ラグーン,0
2139,9430001086301,新規,0,2022-03-31,2022-03-31,颯工業株式会社,,株式会社,北海道,札幌市北区,新琴似三条４丁目７番３０号,,01,102,0010903,,,,,,,2022-03-31,1,,,,,ハヤテコウギョウ,0
2142,9430003013765,新規,0,2022-03-31,2022-03-31,合同会社はらすみＦＰ事務所,,合同会社,北海道,札幌市北区,百合が原９丁目６番１－９０１号,,01,102,0028081,,,,,,,2022-03-31,1,,,,,ハラスミエフピージムショ,0
2149,9490001010148,新規,0,2022-03-31,2022-03-31,株式会社メディカルサポート,,株式会社,高知県,高知市,帯屋町１丁目６番１２号２Ｆ,,39,201,7800841,,,,,,,2022-03-31,1,,,,,メディカルサポート,0
2151,9500003002802,新規,0,2022-03-31,2022-03-31,ＩＭＲＫ合同会社,,合同会社,愛媛県,松山市,正円寺４丁目６番７号,,38,201,7900904,,,,,,,2022-03-31,1,,,,,アイエムアールケイ,0
2152,9700150107557,新規,0,2022-03-31,2022-03-31,ＢｌｕｅＳｎａｐ，Ｉｎｃ．,,外国会社等,,,,,,,,８００　Ｓｏｕｔｈ　Ｓｔｒｅｅｔ　Ｓｕｉｔｅ　６４０　Ｗａｌｔｈａｍ，　ＭＡ　０２４５３，　ＵＳＡ,,,,,,2022-03-31,1,,,,,ブルースナツプインク,0
