sequenceNumber,corporateNumber,process,correct,updateDate,changeDate,name,nameImageId,kind,prefectureName,cityName,streetNumber,addressImageId,prefectureCode,cityCode,postCode,addressOutside,addressOutsideImageId,closeDate,closeCause,successorCorporateNumber,changeCause,assignmentDate,latest,enName,enPrefectureName,enCityName,enAddressOutside,furigana,hihyoji
1,1010001002497,登記記録の閉鎖等,0,2021-10-07,2021-10-01,株式会社国際情報センター,,株式会社,東京都,文京区,湯島３丁目２０番９号ニューハイツ湯島６０５号,,13,105,1130034,,,2021-10-01,清算の結了等,,,2015-10-05,1,,,,,コクサイジョウホウセンター,0
12,1010005023688,登記記録の閉鎖等,0,2021-10-07,2021-09-29,一般社団法人那須寺子,,その他の設立登記法人,東京都,千代田区,一番町９番地８ノザワビルディング６階税理士法人シリウス内,,13,101,1020082,,,2021-09-29,清算の結了等,,,2015-10-05,1,,,,,ナステラコ,0
13,1010101011373,登記記録の閉鎖等,0,2021-10-07,2021-10-04,シェアドリーム株式会社,,株式会社,東京都,八王子市,みなみ野５丁目２番３－５０２号,,13,201,1920916,,,2021-10-04,合併による解散等,9010001185509,令和３年１０月１日東京都品川区西五反田一丁目３１番１号株式会社ＬＩＶＥＲＳＥ（9010001185509）に合併し解散,2015-10-05,1,,,,,シェアドリーム,0
16,1010401037564,登記記録の閉鎖等,0,2021-10-07,2021-10-01,株式会社ＮＴＴファシリティーズＦＭアシスト,,株式会社,東京都,港区,三田３丁目１４番１０号,,13,103,1080073,,,2021-10-01,合併による解散等,3010401005008,令和３年１０月１日東京都港区芝浦三丁目４番１号株式会社ＮＴＴファシリティーズ（3010401005008）に合併し解散,2015-10-05,1,,,,,エヌティティファシリティーズエフエムアシスト,0
21,1010401086462,登記記録の閉鎖等,0,2021-10-07,2021-09-16,ｃｒｍ株式会社,,株式会社,東京都,渋谷区,神宮前６丁目１２番２３号原宿山田ビル３Ｆ,,13,113,1500001,,,2021-09-16,清算の結了等,,,2015-10-05,1,,,,,シーアールエム,0
22,1010401096049,登記記録の閉鎖等,0,2021-10-07,2021-09-24,ＡＢＭ株式会社,,株式会社,東京都,港区,芝浦３丁目１４番１９号大成企業ビル６階,,13,103,1080023,,,2021-09-24,清算の結了等,,,2015-10-05,1,,,,,,0
39,1010802004163,登記記録の閉鎖等,0,2021-10-07,2021-09-30,有限会社キタカ製作所,,有限会社,東京都,大田区,大森西２丁目２２番２１号,,13,111,1430015,,,2021-09-30,清算の結了等,,,2015-10-05,1,,,,,キタカセイサクショ,0
43,1011001110323,登記記録の閉鎖等,0,2021-10-07,2021-09-17,ＪＣ商事株式会社,,株式会社,東京都,目黒区,碑文谷１丁目２６番１８－１１２号,,13,110,1520003,,,2021-09-17,清算の結了等,,,2016-04-08,1,,,,,ジェーシーショウジ,0
66,1011103004836,登記記録の閉鎖等,0,2021-10-07,2021-09-30,合同会社Ｍ．Ｙ．カンパニー,,合同会社,東京都,新宿区,西新宿４丁目２番１５－３１０３号,,13,104,1600023,,,2021-09-30,清算の結了等,,,2015-10-05,1,,,,,エムワイカンパニー,0
78,1011701015697,登記記録の閉鎖等,0,2021-10-07,2021-09-30,プロケア株式会社,,株式会社,東京都,江戸川区,西小岩４丁目２番１５号,,13,123,1330057,,,2021-09-30,清算の結了等,,,2015-10-05,1,,,,,プロケア,0
110,1020003014878,登記記録の閉鎖等,0,2021-10-07,2021-10-01,合同会社アウラナオキ,,合同会社,神奈川県,川崎市幸区,塚越２丁目２５５番地,,14,132,2120024,,,2021-10-01,合併による解散等,4020003015535,令和３年１０月１日神奈川県川崎市幸区塚越二丁目２５５番地合同会社アウラリアルエステート（4020003015535）に合併し解散,2018-09-11,1,,,,,アウラナオキ,0
159,1100002017972,登記記録の閉鎖等,0,2021-10-07,2021-10-01,有限会社珠康建設,,有限会社,長野県,中野市,大字草間１０７１番地４,,20,211,3830053,,,2021-10-01,合併による解散等,4100002018885,令和３年１０月１日長野県中野市大字草間１０７１番地４株式会社ウエルフェア・こだま（4100002018885）に合併し解散,2015-10-05,1,,,,,シュコウケンセツ,0
162,1100002026957,登記記録の閉鎖等,0,2021-10-07,2021-10-01,有限会社山吉藤屋商店,,有限会社,長野県,北安曇郡池田町,大字池田４２０２番地,,20,481,3998601,,,2021-10-01,清算の結了等,,,2015-10-05,1,,,,,ヤマキチフジヤショウテン,0
175,1120001093328,登記記録の閉鎖等,0,2021-10-07,2021-10-01,日本データビジョン株式会社,,株式会社,東京都,港区,西新橋１丁目６番２１号ＮＢＦ虎ノ門ビル８階,,13,103,1050003,,,2021-10-01,合併による解散等,5010401060158,令和３年１０月１日東京都港区西新橋一丁目６番２１号ＮＢＦ虎ノ門ビル８階株式会社インターワークス（5010401060158）に合併し解散,2015-10-05,1,,,,,ニホンデータビジョン,0
238,1180001079552,登記記録の閉鎖等,0,2021-10-07,2021-10-01,株式会社城山住研,,株式会社,愛知県,尾張旭市,東印場町３丁目１番１３,,23,226,4880830,,,2021-10-01,清算の結了等,,,2015-10-05,1,,,,,シロヤマジュウケン,0
239,1180001082861,登記記録の閉鎖等,0,2021-10-07,2021-10-01,株式会社ジャパンパッキング東海,,株式会社,愛知県,一宮市,神山１丁目１４番２４号,,23,203,4910904,,,2021-10-01,合併による解散等,9180005009622,令和３年１０月１日愛知県一宮市神山一丁目１４番２４号西尾張土地建物株式会社（9180005009622）に合併し解散,2015-10-05,1,,,,,ジャパンパッキングトウカイ,0
250,1180002029473,登記記録の閉鎖等,0,2021-10-07,2021-09-30,有限会社リスクファイナンス研究所,,有限会社,愛知県,名古屋市中村区,亀島１丁目１番１号,,23,105,4530013,,,2021-09-30,清算の結了等,,,2015-10-05,1,,,,,リスクファイナンスケンキュウジョ,0
257,1200001011149,登記記録の閉鎖等,0,2021-10-07,2021-10-05,株式会社関谷シャツ,,株式会社,岐阜県,羽島市,福寿町本郷１４８５番地,,21,209,5016254,,,2021-10-05,清算の結了等,,,2015-10-05,1,,,,,セキヤシャツ,0
274,1240002045605,登記記録の閉鎖等,0,2021-10-07,2021-10-04,福山ブラザーミシン販売有限会社,,有限会社,広島県,福山市,新市町大字新市６９１番地の１,,34,207,7293103,,,2021-10-04,清算の結了等,,,2015-10-05,1,,,,,フクヤマブラザーミシンハンバイ,0
284,1290002050352,登記記録の閉鎖等,0,2021-10-07,2021-09-21,有限会社ロコ,,有限会社,福岡県,久留米市,東町３８番地の２５,,40,203,8300032,,,2021-09-21,清算の結了等,,,2015-10-05,1,,,,,ロコ,0
306,1340002011605,登記記録の閉鎖等,0,2021-10-07,2021-09-10,有限会社スリーエス,,有限会社,鹿児島県,鹿児島市,唐湊４丁目２１番１号,,46,201,8900081,,,2021-09-10,合併による解散等,6340001003086,令和３年９月１日鹿児島市唐湊四丁目２１番１号Ｎａｇａｔａ　ａｎｄ　Ｃｏｍｐａｎｙ株式会社（6340001003086）に合併し解散,2015-10-05,1,,,,,,0
323,1380002009166,登記記録の閉鎖等,0,2021-10-07,2021-10-01,株式会社コーフク商事,,株式会社,福島県,郡山市,朝日２丁目１９番１４号,,07,203,9638024,,,2021-10-01,合併による解散等,5380001005749,令和３年１０月１日福島県郡山市中町２番９号株式会社タキタ薬品（5380001005749）に合併し解散,2015-10-05,1,,,,,コーフクショウジ,0
336,1420002010012,登記記録の閉鎖等,0,2021-10-07,2021-10-04,有限会社デマチ,,有限会社,青森県,三戸郡南部町,大字剣吉字大坊８番地の２,,02,445,0390612,,,2021-10-04,清算の結了等,,,2015-10-05,1,,,,,デマチ,0
417,2012401029862,登記記録の閉鎖等,0,2021-10-07,2021-09-29,株式会社ケイ・ブリッジ,,株式会社,東京都,新宿区,百人町１丁目１３番６－１０５号,,13,104,1690073,,,2021-09-29,清算の結了等,,,2015-10-05,1,,,,,ケイブリッジ,0
458,2030002010595,登記記録の閉鎖等,0,2021-10-07,2021-09-22,有限会社野口不動産企画,,有限会社,埼玉県,さいたま市浦和区,岸町２丁目１番２０号ドリームハイツＩＩ１０１号室,00016118,11,107,3300064,,,2021-09-22,清算の結了等,,,2015-10-05,1,,,,,ノグチフドウサンキカク,0
475,2050001030907,登記記録の閉鎖等,0,2021-10-07,2021-09-28,アジアＳ‐ウオーターテクノロジー株式会社,,株式会社,埼玉県,三郷市,彦成４丁目１番２０－６２６号,,11,237,3410003,,,2021-09-28,清算の結了等,,,2015-10-05,1,,,,,アジアエスウオーターテクノロジー,0
503,2110002015116,登記記録の閉鎖等,0,2021-10-07,2021-10-01,有限会社新発田急送,,有限会社,新潟県,新発田市,佐々木１７４番地,,15,206,9570082,,,2021-10-01,清算の結了等,,,2015-10-05,1,,,,,シバタキュウソウ,0
524,2120901030841,登記記録の閉鎖等,0,2021-10-07,2021-10-01,株式会社エルソル,,株式会社,大阪府,高槻市,辻子１丁目２３－３,00033577,27,207,5690036,,,2021-10-01,清算の結了等,,,2015-10-05,1,,,,,エルソル,0
530,2120902014298,登記記録の閉鎖等,0,2021-10-07,2021-10-04,有限会社アスター,,有限会社,大阪府,池田市,城南２丁目３番４号,,27,204,5630025,,,2021-10-04,清算の結了等,,,2015-10-05,1,,,,,アスター,0
548,2130002014297,登記記録の閉鎖等,0,2021-10-07,2021-10-01,有限会社タナカ,,有限会社,京都府,京都市南区,久世築山町４５２番地４,,26,107,6018203,,,2021-10-01,合併による解散等,1130001015009,令和３年１０月１日京都市南区久世築山町４５２番地４株式会社田中印刷（1130001015009）に合併し解散,2015-10-05,1,,,,,タナカ,0
553,2140001011971,登記記録の閉鎖等,0,2021-10-07,2021-09-30,株式会社神戸華聯旅行社,,株式会社,兵庫県,神戸市中央区,下山手通２丁目１２番１１号,,28,110,6500011,,,2021-09-30,清算の結了等,,,2015-10-05,1,,,,,コウベカレンリョコウシャ,0
586,2180002053027,登記記録の閉鎖等,0,2021-10-07,2021-10-01,有限会社山晃組,,有限会社,愛知県,名古屋市中川区,広田町２丁目７９番地,,23,110,4540867,,,2021-10-01,清算の結了等,,,2015-10-05,1,,,,,,0
589,2180301017368,登記記録の閉鎖等,0,2021-10-07,2021-10-01,株式会社デンソーコミュニケーションズ,,株式会社,愛知県,刈谷市,昭和町１丁目１番地,,23,210,4480029,,,2021-10-01,合併による解散等,2011001039512,令和３年１０月１日愛知県刈谷市昭和町一丁目１番地株式会社デンソーソリューション（2011001039512）に合併し解散,2015-10-05,1,,,,,デンソーコミュニケーションズ,0
612,2240002026918,登記記録の閉鎖等,0,2021-10-07,2021-10-04,有限会社美建設計事務所,,有限会社,広島県,広島市安佐南区,西原４丁目２９番３１号,,34,105,7310113,,,2021-10-04,清算の結了等,,,2015-10-05,1,,,,,ビケンセッケイジムショ,0
617,2240002053747,登記記録の閉鎖等,0,2021-10-07,2021-10-01,株式会社三原ホンダ自動車,,株式会社,広島県,三原市,皆実３丁目６番２７号,,34,204,7230052,,,2021-10-01,合併による解散等,4240001038524,令和３年１０月１日広島県尾道市高須町５１２７番地株式会社ホンダカーズ瀬戸内（4240001038524）に合併し解散,2015-10-05,1,,,,,ミハラホンダジドウシャ,0
627,2260001005706,登記記録の閉鎖等,0,2021-10-07,2021-10-05,株式会社富士製作所,,株式会社,岡山県,倉敷市,茶屋町１９５８番地２１フォブール近藤Ａ１０２号室,,33,202,7101101,,,2021-10-05,清算の結了等,,,2015-10-05,1,,,,,フジセイサクショ,0
648,2310001003654,登記記録の閉鎖等,0,2021-10-07,2021-10-01,長崎保険サービス株式会社,,株式会社,長崎県,長崎市,桜馬場１丁目２番４号グリーンビル３０４,,42,201,8500015,,,2021-10-01,合併による解散等,5310002007420,令和３年１０月１日長崎市城山町５番１６号プライム保険サービス株式会社（5310002007420）に合併し解散,2015-10-05,1,,,,,ナガサキホケンサービス,0
656,2340001008519,登記記録の閉鎖等,0,2021-10-07,2021-09-30,株式会社クッキーハルヤ,,株式会社,鹿児島県,薩摩川内市,中郷２丁目１番３号,,46,215,8950072,,,2021-09-30,清算の結了等,,,2015-10-05,1,,,,,クッキーハルヤ,0
657,2340002004814,登記記録の閉鎖等,0,2021-10-07,2021-09-10,有限会社新日本産業,,有限会社,鹿児島県,鹿児島市,唐湊４丁目２１番１号,,46,201,8900081,,,2021-09-10,合併による解散等,6340001003086,令和３年９月１日鹿児島市唐湊四丁目２１番１号Ｎａｇａｔａ　ａｎｄ　Ｃｏｍｐａｎｙ株式会社（6340001003086）に合併し解散,2015-10-05,1,,,,,,0
663,2370002015684,登記記録の閉鎖等,0,2021-10-07,2021-09-29,有限会社メンテナンスカトー,,有限会社,宮城県,仙台市若林区,若林３丁目３番３号,,04,103,9840826,,,2021-09-29,清算の結了等,,,2015-10-05,1,,,,,メンテナンスカトー,0
665,2370502000599,登記記録の閉鎖等,0,2021-10-07,2021-09-28,有限会社関口建設,,有限会社,宮城県,気仙沼市,所沢１６６番地の９,,04,205,9880057,,,2021-09-28,清算の結了等,,,2015-10-05,1,,,,,セキグチケンセツ,0
666,2380001007186,登記記録の閉鎖等,0,2021-10-07,2021-10-01,株式会社パステル,,株式会社,福島県,郡山市,東原１丁目２番地,,07,203,9630552,,,2021-10-01,合併による解散等,1380001025412,令和３年１０月１日福島県郡山市朝日三丁目７番３５号ゼビオ株式会社（1380001025412）に合併し解散,2015-10-05,1,,,,,パステル,0
710,3010003020413,登記記録の閉鎖等,0,2021-10-07,2021-09-29,合同会社ＲＳ指宿,,合同会社,東京都,千代田区,一番町９番地８ノザワビルディング６階税理士法人シリウス内,,13,101,1020082,,,2021-09-29,清算の結了等,,,2015-10-05,1,,,,,アールエスイブスキ,0
715,3010005023001,登記記録の閉鎖等,0,2021-10-07,2021-09-29,一般社団法人ＲＳ指宿,,その他の設立登記法人,東京都,千代田区,一番町９番地８ノザワビルディング６階税理士法人シリウス内,,13,101,1020082,,,2021-09-29,清算の結了等,,,2015-10-05,1,,,,,アールエスイブスキ,0
733,3010901029761,登記記録の閉鎖等,0,2021-10-07,2021-10-01,南海乳業株式会社,,株式会社,東京都,千代田区,神田猿楽町１丁目５番１８号千代田ビル,,13,101,1010064,,,2021-10-01,合併による解散等,1010001211775,令和３年１０月１日東京都千代田区神田猿楽町一丁目５番１８号千代田ビルＵＦＩ　Ｈｏｌｄｉｎｇｓ株式会社（1010001211775）に合併し解散,2015-10-05,1,,,,,ナンカイニュウギョウ,0
738,3011101078459,登記記録の閉鎖等,0,2021-10-07,2021-09-30,株式会社未来ハウス,,株式会社,東京都,新宿区,下落合３丁目１９番１５号,,13,104,1610033,,,2021-09-30,清算の結了等,,,2016-10-14,1,,,,,ミライハウス,0
740,3011202010568,登記記録の閉鎖等,0,2021-10-07,2021-09-30,有限会社尾崎尺八工房,,有限会社,東京都,中野区,上高田２丁目５７番３号,,13,114,1640002,,,2021-09-30,清算の結了等,,,2015-10-05,1,,,,,オザキシャクハチコウボウ,0
772,3020001001686,登記記録の閉鎖等,0,2021-10-07,2021-10-01,松菱サービス株式会社,,株式会社,神奈川県,横浜市瀬谷区,相沢３丁目４０番地の５,,14,114,2460013,,,2021-10-01,合併による解散等,2020001036948,令和３年１０月１日横浜市戸塚区矢部町２９番地横浜メルテック株式会社（2020001036948）に合併し解散,2015-10-05,1,,,,,マツビシサービス,0
775,3020001066705,登記記録の閉鎖等,0,2021-10-07,2021-10-01,東洋精密機工株式会社,,株式会社,神奈川県,川崎市高津区,久本３丁目１６番１０号,,14,134,2130011,,,2021-10-01,合併による解散等,5020001069557,令和３年１０月１日川崎市中原区宮内二丁目２３番１２号株式会社関口製作所（5020001069557）に合併し解散,2015-10-05,1,,,,,トウヨウセイミツキコウ,0
790,3021002017003,登記記録の閉鎖等,0,2021-10-07,2021-10-04,有限会社ベルスターコーポレーション,,有限会社,神奈川県,鎌倉市,台５丁目４番３４ー４０１号,,14,204,2470061,,,2021-10-04,清算の結了等,,,2015-10-05,1,,,,,ベルスターコーポレーション,0
809,3040001001692,登記記録の閉鎖等,0,2021-10-07,2021-09-28,協栄測量設計株式会社,,株式会社,千葉県,千葉市美浜区,幕張西３丁目６番２棟５０４号,,12,106,2610026,,,2021-09-28,清算の結了等,,,2015-10-05,1,,,,,キョウエイソクリョウセッケイ,0
810,3040001035055,登記記録の閉鎖等,0,2021-10-07,2021-09-30,株式会社奥下工務店,,株式会社,千葉県,松戸市,東平賀５６７番地,,12,207,2700003,,,2021-09-30,清算の結了等,,,2015-10-05,1,,,,,,0
815,3040002078144,登記記録の閉鎖等,0,2021-10-07,2021-09-30,有限会社アーキ積算,,有限会社,千葉県,大網白里市,みやこ野２丁目８番地１６,,12,239,2993236,,,2021-09-30,清算の結了等,,,2015-10-05,1,,,,,アーキセキサン,0
826,3080101021348,登記記録の閉鎖等,0,2021-10-07,2021-10-01,株式会社Ｎ　ｄｅｓｉｇｎ,,株式会社,静岡県,沼津市,松長９１４番地の２,,22,203,4100874,,,2021-10-01,合併による解散等,3080102001092,令和３年１０月１日静岡県沼津市西間門１０６番地株式会社Ｏｎｅｓｔｏ　Ｆａｂｂｒｉｃａ（3080102001092）に合併し解散,2019-09-12,1,,,,,エヌデザイン,0
843,3120001019322,登記記録の閉鎖等,0,2021-10-07,2021-10-01,株式会社大阪屋質舗,,株式会社,岐阜県,岐阜市,加納天神町４丁目３９番地,,21,201,5008473,,,2021-10-01,合併による解散等,6120001016713,令和３年１０月１日岐阜市加納天神町四丁目３９番地株式会社アーク・ビジネス（6120001016713）に合併し解散,2015-10-05,1,,,,,オオサカヤシチホ,0
880,3120901035823,登記記録の閉鎖等,0,2021-10-07,2021-10-05,株式会社今西倉庫,,株式会社,大阪府,豊中市,本町１丁目９番１０－８０５号,,27,203,5600021,,,2021-10-05,清算の結了等,,,2015-10-05,1,,,,,イマニシソウコ,0
883,3130001046506,登記記録の閉鎖等,0,2021-10-07,2021-10-01,株式会社織名人,,株式会社,京都府,京都市上京区,五辻通大宮西入五辻町３８番地,00036533,26,102,6028446,,,2021-10-01,合併による解散等,4130001003547,令和３年１０月１日京都市上京区五辻通大宮西入五辻町３９番地株式会社西陣まいづる（4130001003547）に合併し解散,2015-10-05,1,,,,,オリメイジン,0
885,3130001059706,登記記録の閉鎖等,0,2021-10-07,2021-10-01,マクセル株式会社,,株式会社,京都府,乙訓郡大山崎町,字大山崎小字小泉１番地,,26,303,6180071,,,2021-10-01,合併による解散等,9120901001761,令和３年１０月１日京都府乙訓郡大山崎町大山崎小泉１番地マクセルホールディングス株式会社（9120901001761）に合併し解散,2017-05-09,1,,,,,マクセル,0
898,3150001021242,登記記録の閉鎖等,0,2021-10-07,2021-10-01,株式会社Ｃｏｍｍｕｎｉｔｙ　Ｍａｎａｇｅｍｅｎｔ,,株式会社,東京都,品川区,西五反田１丁目３番８号,,13,109,1410031,,,2021-10-01,合併による解散等,4013201016660,令和３年１０月１日東京都品川区西五反田一丁目３番８号ソフィアメディ株式会社（4013201016660）に合併し解散,2017-01-26,1,,,,,コミュニティマネジメント,0
905,3180001037178,登記記録の閉鎖等,0,2021-10-07,2021-10-01,株式会社スペースアップアイチ,,株式会社,愛知県,名古屋市中区,正木４丁目１０番１５号,,23,106,4600024,,,2021-10-01,合併による解散等,2180001037121,令和３年１０月１日名古屋市中区正木四丁目１０番１５号株式会社杉本組（2180001037121）に合併し解散,2015-10-05,1,,,,,スペースアップアイチ,0
906,3180001102262,登記記録の閉鎖等,0,2021-10-07,2021-10-04,中部ホームズ株式会社,,株式会社,愛知県,名古屋市中川区,江松１丁目８０２番地,,23,110,4540954,,,2021-10-04,清算の結了等,,,2015-10-05,1,,,,,チュウブホームズ,0
920,3180003012609,登記記録の閉鎖等,0,2021-10-07,2021-10-01,とりいまつなぐカンパニー合同会社,,合同会社,愛知県,春日井市,八事町１丁目１９０番地３,,23,206,4860836,,,2021-10-01,清算の結了等,,,2015-10-05,1,,,,,トリイマツナグカンパニー,0
924,3180005008687,登記記録の閉鎖等,0,2021-10-07,2021-10-04,特定非営利活動法人ピア・ハウス春日井,,その他の設立登記法人,愛知県,春日井市,大泉寺町大西４６４番地１,,23,206,4860812,,,2021-10-04,清算の結了等,,,2015-10-05,1,,,,,ピアハウスカスガイ,0
932,3200001024454,登記記録の閉鎖等,0,2021-10-07,2021-10-01,アイセル中央システムズ株式会社,,株式会社,岐阜県,中津川市,駒場１６６６番地の３４３７,,21,206,5080011,,,2021-10-01,合併による解散等,4200001023414,令和３年１０月１日岐阜県中津川市駒場１６６６番地の３４３７株式会社中央物産（4200001023414）に合併し解散,2015-10-05,1,,,,,アイセルチュウオウシステムズ,0
948,3260001014945,登記記録の閉鎖等,0,2021-10-07,2021-10-06,三野産業株式会社,,株式会社,岡山県,倉敷市,児島下の町５丁目６番３６号,,33,202,7110906,,,2021-10-06,清算の結了等,,,2015-10-05,1,,,,,ミノサンギョウ,0
978,3340001008518,登記記録の閉鎖等,0,2021-10-07,2021-09-30,株式会社クッキー,,株式会社,鹿児島県,薩摩川内市,中郷２丁目１番３号,,46,215,8950072,,,2021-09-30,清算の結了等,,,2015-10-05,1,,,,,クッキー,0
995,3400001004221,登記記録の閉鎖等,0,2021-10-07,2021-10-06,株式会社ＹＴホーム,,株式会社,岩手県,岩手郡岩手町,大字川口第１２地割１９番地３４,,03,303,0284211,,,2021-10-06,清算の結了等,,,2015-10-05,1,,,,,,0
1009,3480002014179,登記記録の閉鎖等,0,2021-10-07,2021-10-01,有限会社浜邦水産,,有限会社,徳島県,海部郡牟岐町,大字灘字宮田１３９番地,00006063,36,383,7750005,,,2021-10-01,清算の結了等,,,2015-10-05,1,,,,,ハマクニスイサン,0
1013,3500001006983,登記記録の閉鎖等,0,2021-10-07,2021-10-01,株式会社スリートラスト,,株式会社,愛媛県,松山市,三番町５丁目８番地１０,,38,201,7900003,,,2021-10-01,合併による解散等,2500001001795,令和３年１０月１日愛媛県松山市桑原二丁目１１番５号三信電設株式会社（2500001001795）に合併し解散,2015-10-05,1,,,,,スリートラスト,0
1015,3500001022312,登記記録の閉鎖等,0,2021-10-07,2021-10-01,株式会社Ａ２,,株式会社,愛媛県,松山市,余戸南１丁目２２番５０号,,38,201,7900047,,,2021-10-01,合併による解散等,6500001000629,令和３年１０月１日愛媛県松山市余戸南一丁目２０番３３号株式会社ウエストコンサルタント（6500001000629）に合併し解散,2019-10-11,1,,,,,エーツー,0
1039,4010005025590,登記記録の閉鎖等,0,2021-10-07,2021-10-01,一般社団法人賑やかしレジリートブリッジワン,,その他の設立登記法人,東京都,千代田区,霞が関３丁目２番５号,,13,101,1000013,,,2021-10-01,清算の結了等,,,2016-07-26,1,,,,,ニギヤカシレジリートブリッジワン,0
1055,4010601039028,登記記録の閉鎖等,0,2021-10-07,2021-09-22,株式会社アルファ印刷,,株式会社,東京都,江東区,千田２０番２号,,13,108,1350013,,,2021-09-22,清算の結了等,,,2015-10-05,1,,,,,アルファインサツ,0
1092,4011802017945,登記記録の閉鎖等,0,2021-10-07,2021-10-04,福井産業有限会社,,有限会社,東京都,足立区,千住寿町１５番７号,,13,121,1200033,,,2021-10-04,清算の結了等,,,2015-10-05,1,,,,,フクイサンギョウ,0
1127,4030001132430,登記記録の閉鎖等,0,2021-10-07,2021-09-27,株式会社ＯＮＥ　ＥＩＧＨＴ,,株式会社,埼玉県,所沢市,緑町４丁目４１番１０－１０１号リバティハイツ,,11,208,3591111,,,2021-09-27,清算の結了等,,,2019-08-14,1,,,,,ワンエイト,0
1131,4030002045697,登記記録の閉鎖等,0,2021-10-07,2021-09-27,有限会社豊林製作所,,有限会社,埼玉県,草加市,稲荷１丁目６番７号,,11,221,3400003,,,2021-09-27,清算の結了等,,,2015-10-05,1,,,,,ホウリンセイサクショ,0
1154,4070003003601,登記記録の閉鎖等,0,2021-10-07,2021-10-04,合同会社こころ,,合同会社,群馬県,高崎市,柴崎町９４３番地４,,10,202,3700035,,,2021-10-04,清算の結了等,,,2019-11-11,1,,,,,ココロ,0
1164,4100001021980,登記記録の閉鎖等,0,2021-10-07,2021-09-24,株式会社フロンティア・アートテクノロジー,,株式会社,東京都,港区,西新橋３丁目６番１０号マストライフ西新橋ビル３階,,13,103,1050003,,,2021-09-24,清算の結了等,,,2015-10-05,1,,,,,フロンティアアートテクノロジー,0
1181,4110002011963,登記記録の閉鎖等,0,2021-10-07,2021-10-01,有限会社インテリアプレイス,,有限会社,新潟県,新潟市中央区,下大川前通４ノ町２１８５番地,,15,103,9518052,,,2021-10-01,清算の結了等,,,2015-10-05,1,,,,,インテリアプレイス,0
1221,4130001040581,登記記録の閉鎖等,0,2021-10-07,2021-09-30,株式会社袋屋醤油店,,株式会社,京都府,宮津市,字白柏１２３３番地,,26,205,6260011,,,2021-09-30,清算の結了等,,,2015-10-05,1,,,,,フクロヤショウユテン,0
1248,4160005004679,登記記録の閉鎖等,0,2021-10-07,2021-10-05,特定非営利活動法人ハーモニー,,その他の設立登記法人,滋賀県,長浜市,西上坂町５５３番地,,25,203,5260803,,,2021-10-05,清算の結了等,,,2015-10-05,1,,,,,ハーモニー,0
1268,4190002016922,登記記録の閉鎖等,0,2021-10-07,2021-10-06,有限会社中村園,,有限会社,三重県,桑名市,大字福島字立代８５７番地５,,24,205,5110002,,,2021-10-06,清算の結了等,,,2015-10-05,1,,,,,ナカムラエン,0
1276,4210002013066,登記記録の閉鎖等,0,2021-10-07,2021-10-01,有限会社島田製作所,,有限会社,福井県,鯖江市,丸山町１丁目５番４－２号,,18,207,9160019,,,2021-10-01,清算の結了等,,,2015-10-05,1,,,,,シマダセイサクショ,0
1283,4240002052219,登記記録の閉鎖等,0,2021-10-07,2021-09-29,有限会社久保組,,有限会社,広島県,尾道市,御調町市２２０番地の１,,34,205,7220311,,,2021-09-29,清算の結了等,,,2015-10-05,1,,,,,クボグミ,0
1309,4340001018796,登記記録の閉鎖等,0,2021-10-07,2021-09-30,株式会社さくら,,株式会社,鹿児島県,鹿児島市,高麗町４１番１８,,46,201,8900051,,,2021-09-30,清算の結了等,,,2015-10-14,1,,,,,,0
1311,4360002014272,登記記録の閉鎖等,0,2021-10-07,2021-10-01,有限会社ＴＵＧ開発,,有限会社,沖縄県,うるま市,字大田２７４番地６,,47,213,9042224,,,2021-10-01,合併による解散等,1360002015587,令和３年１０月１日沖縄県中頭郡西原町字小那覇４７８番地ＫＩＴＯ株式会社（1360002015587）に合併し解散,2015-10-05,1,,,,,タグカイハツ,0
1323,4400002000078,登記記録の閉鎖等,0,2021-10-07,2021-10-05,有限会社アウトランド,,有限会社,岩手県,盛岡市,永井１７地割４０番地１２,,03,201,0200834,,,2021-10-05,清算の結了等,,,2015-10-05,1,,,,,アウトランド,0
1335,4440001006898,登記記録の閉鎖等,0,2021-10-07,2021-10-04,株式会社マルハニチロ上ノ国海産,,株式会社,北海道,檜山郡上ノ国町,字北村１９７番地,,01,362,0490622,,,2021-10-04,清算の結了等,,,2015-10-05,1,,,,,マルハニチロカミノクニカイサン,0
1367,5010005022777,登記記録の閉鎖等,0,2021-10-07,2021-09-29,一般社団法人ＲＳＡＭ津奈木,,その他の設立登記法人,東京都,千代田区,一番町９番地８ノザワビルディング６階税理士法人シリウス内,,13,101,1020082,,,2021-09-29,清算の結了等,,,2015-10-05,1,,,,,アールエスエーエムツナキ,0
1370,5010005029368,登記記録の閉鎖等,0,2021-10-07,2021-10-01,ＥＳＲ守谷２一般社団法人,,その他の設立登記法人,東京都,中央区,日本橋１丁目４番１号日本橋一丁目ビルディング,,13,102,1030027,,,2021-10-01,清算の結了等,,,2018-11-19,1,,,,,イーエスアールモリヤツー,0
1414,5011801030221,登記記録の閉鎖等,0,2021-10-07,2021-10-05,株式会社日本福道フードシステム,,株式会社,東京都,足立区,扇２丁目２９番１８号,,13,121,1230873,,,2021-10-05,清算の結了等,,,2015-10-05,1,,,,,ニホンフクミチフードシステム,0
1468,5030002011335,登記記録の閉鎖等,0,2021-10-07,2021-09-27,有限会社日の出情報サービス,,有限会社,埼玉県,さいたま市北区,東大成町１丁目４８０番地,,11,102,3310814,,,2021-09-27,清算の結了等,,,2015-10-05,1,,,,,,0
1482,5070001019532,登記記録の閉鎖等,0,2021-10-07,2021-10-01,株式会社セイブ産業,,株式会社,群馬県,太田市,西新町２番地４０,,10,205,3730847,,,2021-10-01,合併による解散等,2070001018677,令和３年１０月１日群馬県太田市西新町１３５番地の３株式会社池田製作所（2070001018677）に合併し解散,2015-10-05,1,,,,,セイブサンギョウ,0
1486,5070002028284,登記記録の閉鎖等,0,2021-10-07,2021-10-01,有限会社エンドー,,有限会社,群馬県,太田市,新田市野井町８５２番地１,,10,205,3700314,,,2021-10-01,合併による解散等,8070002002435,令和３年１０月１日群馬県前橋市端気町３８３番地２株式会社ケイ・アイ・ティー（8070002002435）に合併し解散,2015-10-05,1,,,,,エンドー,0
1501,5120001000899,登記記録の閉鎖等,0,2021-10-07,2021-10-01,浪速金属株式会社,,株式会社,兵庫県,伊丹市,森本８丁目７４番地２,,28,207,6640842,,,2021-10-01,合併による解散等,7140001080104,令和３年１０月１日兵庫県伊丹市森本八丁目７４番地２柳金属産業株式会社（7140001080104）に合併し解散,2015-10-05,1,,,,,ナニワキンゾク,0
1512,5120001213410,登記記録の閉鎖等,0,2021-10-07,2021-10-01,塚口パティオ株式会社,,株式会社,大阪府,大阪市淀川区,塚本２丁目２４番７号,,27,123,5320026,,,2021-10-01,合併による解散等,8120001074271,令和３年１０月１日大阪市西区西本町一丁目２番８号アンダーツリー株式会社（8120001074271）に合併し解散,2018-05-17,1,,,,,ツカグチパティオ,0
1530,5120103004162,登記記録の閉鎖等,0,2021-10-07,2021-10-04,ｒｅ－ｐｌｕｓ合同会社,,合同会社,大阪府,堺市東区,引野町２丁４８番地２,,27,143,5998104,,,2021-10-04,清算の結了等,,,2021-05-10,1,,,,,リプラス,0
1556,5140005023572,登記記録の閉鎖等,0,2021-10-07,2021-10-05,一般社団法人メディカルサポートセンター,,その他の設立登記法人,兵庫県,川西市,栄町３番６号,,28,217,6660033,,,2021-10-05,清算の結了等,,,2017-05-26,1,,,,,メディカルサポートセンター,0
1582,5180002077312,登記記録の閉鎖等,0,2021-10-07,2021-10-04,有限会社バンブー,,有限会社,愛知県,一宮市,時之島字芳原３６番地の２,,23,203,4910002,,,2021-10-04,清算の結了等,,,2015-10-05,1,,,,,バンブー,0
1586,5190002024164,登記記録の閉鎖等,0,2021-10-07,2021-10-05,有限会社三和サービス,,有限会社,三重県,四日市市,楠町小倉１５９１番地,,24,202,5100101,,,2021-10-05,清算の結了等,,,2015-10-05,1,,,,,サンワサービス,0
1644,5380002030564,登記記録の閉鎖等,0,2021-10-07,2021-09-22,有限会社吉田工業所,,有限会社,福島県,双葉郡双葉町,大字渋川字久保Ｉ３番地,,07,546,9791451,,,2021-09-22,清算の結了等,,,2015-10-05,1,,,,,ヨシダコウギョウショ,0
1657,5430001082733,登記記録の閉鎖等,0,2021-10-07,2021-10-01,札幌千歳交通株式会社,,株式会社,北海道,札幌市白石区,南郷通２丁目南８番４号,,01,104,0030022,,,2021-10-01,合併による解散等,4430001015099,令和３年１０月１日札幌市北区新琴似四条十六丁目５番６号北びしハイヤー株式会社（4430001015099）に合併し解散,2020-11-19,1,,,,,サッポロチトセコウツウ,0
1676,5500001003673,登記記録の閉鎖等,0,2021-10-07,2021-10-05,株式会社程野水道工業所,,株式会社,愛媛県,松山市,土居田町５０４番地３,,38,201,7900056,,,2021-10-05,清算の結了等,,,2015-10-05,1,,,,,,0
1681,6010005022776,登記記録の閉鎖等,0,2021-10-07,2021-09-29,一般社団法人ＲＳＡＭ錦,,その他の設立登記法人,東京都,千代田区,一番町９番地８ノザワビルディング６階税理士法人シリウス内,,13,101,1020082,,,2021-09-29,清算の結了等,,,2015-10-05,1,,,,,アールエスエーエムニシキ,0
1704,6010801018201,登記記録の閉鎖等,0,2021-10-07,2021-10-01,株式会社ＡＭＩ,,株式会社,東京都,大田区,池上１丁目２１番１号,,13,111,1460082,,,2021-10-01,清算の結了等,,,2015-10-05,1,,,,,アミ,0
1712,6011001131942,登記記録の閉鎖等,0,2021-10-07,2021-09-17,株式会社きつねや,,株式会社,東京都,渋谷区,千駄ヶ谷５丁目２６番５号代々木シティホームズ１００５,,13,113,1510051,,,2021-09-17,清算の結了等,,,2020-01-23,1,,,,,キツネヤ,0
1768,6021002043871,登記記録の閉鎖等,0,2021-10-07,2021-10-04,有限会社匠興業,,有限会社,神奈川県,座間市,南栗原２丁目１番７９号,,14,216,2520015,,,2021-10-04,清算の結了等,,,2015-10-05,1,,,,,,0
1796,6050001007372,登記記録の閉鎖等,0,2021-10-07,2021-10-01,ビッグオート株式会社,,株式会社,茨城県,ひたちなか市,大字高場２４７７番地４４,,08,221,3120062,,,2021-10-01,合併による解散等,4050001002128,令和３年１０月１日茨城県水戸市元吉田町１９６３番地１５ビッグオート株式会社（4050001002128）に合併し解散,2015-10-05,1,,,,,ビッグオート,0
1807,6070001018129,登記記録の閉鎖等,0,2021-10-07,2021-10-01,新東機械工業株式会社,,株式会社,群馬県,北群馬郡榛東村,大字広馬場４１１番地３,,10,344,3703504,,,2021-10-01,清算の結了等,,,2015-10-05,1,,,,,シントウキカイコウギョウ,0
1811,6080002012955,登記記録の閉鎖等,0,2021-10-07,2021-10-05,有限会社静岡臨床病理,,有限会社,静岡県,静岡市駿河区,下川原５丁目２８番１２号,,22,102,4210113,,,2021-10-05,清算の結了等,,,2015-10-05,1,,,,,シズオカリンショウビョウリ,0
1820,6090001005570,登記記録の閉鎖等,0,2021-10-07,2021-09-30,株式会社甲府印材,,株式会社,山梨県,甲府市,若松町３番６号,,19,201,4000866,,,2021-09-30,清算の結了等,,,2015-10-05,1,,,,,コウフインザイ,0
1823,6100002026894,登記記録の閉鎖等,0,2021-10-07,2021-10-01,有限会社みよしや遠藤商店,,有限会社,長野県,北安曇郡池田町,大字会染９９８７番地,,20,481,3998602,,,2021-10-01,清算の結了等,,,2015-10-05,1,,,,,ミヨシヤエンドウショウテン,0
1827,6110002009080,登記記録の閉鎖等,0,2021-10-07,2021-10-01,株式会社ひと組織研究所,,株式会社,新潟県,新潟市中央区,上大川前通６番町１２０９番地３,,15,103,9518068,,,2021-10-01,清算の結了等,,,2015-10-05,1,,,,,ヒトソシキケンキュウジョ,0
1849,6120101043228,登記記録の閉鎖等,0,2021-10-07,2021-10-01,マックス機械株式会社,,株式会社,大阪府,和泉市,鶴山台１丁目２２番２１号,,27,219,5940013,,,2021-10-01,清算の結了等,,,2015-10-05,1,,,,,マックスキカイ,0
1857,6120901015269,登記記録の閉鎖等,0,2021-10-07,2021-10-04,株式会社ジェイアンドケイ,,株式会社,大阪府,吹田市,五月が丘東６番Ａ－６１０号,,27,205,5650831,,,2021-10-04,清算の結了等,,,2015-10-05,1,,,,,ジェイアンドケイ,0
1893,6180001130830,登記記録の閉鎖等,0,2021-10-07,2021-09-24,株式会社Ｓｔｒａｉｇｈｔ　Ｆｕｔｕｒｅ,,株式会社,愛知県,名古屋市西区,名駅２丁目３４番１７号セントラル名古屋７１１,,23,104,4510045,,,2021-09-24,清算の結了等,,,2018-01-17,1,,,,,ストレイトフューチャー,0
1894,6180001145432,登記記録の閉鎖等,0,2021-10-07,2021-10-01,株式会社新東海流通サービス,,株式会社,愛知県,一宮市,神山１丁目１４番２４号,,23,203,4910904,,,2021-10-01,合併による解散等,9180005009622,令和３年１０月１日愛知県一宮市神山一丁目１４番２４号西尾張土地建物株式会社（9180005009622）に合併し解散,2021-04-09,1,,,,,シントウカイリュウツウサービス,0
1908,6180301013371,登記記録の閉鎖等,0,2021-10-07,2021-10-04,株式会社三河自販,,株式会社,愛知県,岡崎市,中町９丁目３番地８,,23,202,4440015,,,2021-10-04,清算の結了等,,,2015-10-05,1,,,,,ミカワジハン,0
1915,6190001026581,登記記録の閉鎖等,0,2021-10-07,2021-10-05,株式会社ディソナンス,,株式会社,三重県,松阪市,久保町１８５５番地１６０１,,24,204,5150044,,,2021-10-05,清算の結了等,,,2019-07-16,1,,,,,ディソナンス,0
1916,6190002014296,登記記録の閉鎖等,0,2021-10-07,2021-10-05,有限会社初岡工務店,,有限会社,三重県,松阪市,南町１８２番地９,,24,204,5150034,,,2021-10-05,清算の結了等,,,2015-10-05,1,,,,,ハツオカコウムテン,0
1921,6200001023750,登記記録の閉鎖等,0,2021-10-07,2021-10-04,株式会社東栄,,株式会社,岐阜県,恵那市,大井町６６７番地の１９,,21,210,5097201,,,2021-10-04,合併による解散等,9180001022372,令和３年１０月１日名古屋市熱田区桜田町１９番１８号東邦液化ガス株式会社（9180001022372）に合併し解散,2015-10-05,1,,,,,トウエイ,0
1922,6200002022850,登記記録の閉鎖等,0,2021-10-07,2021-10-05,有限会社エポック,,有限会社,岐阜県,瑞浪市,土岐町１０３番地８,,21,208,5096101,,,2021-10-05,清算の結了等,,,2015-10-05,1,,,,,エポック,0
1938,6290001050605,登記記録の閉鎖等,0,2021-10-07,2021-09-14,三井環境開発株式会社,,株式会社,福岡県,三井郡大刀洗町,大字山隈３５０番地の１,,40,503,8301226,,,2021-09-14,清算の結了等,,,2015-10-05,1,,,,,,0
1975,6390002003709,登記記録の閉鎖等,0,2021-10-07,2021-10-01,有限会社アール・ディー企画,,有限会社,山形県,山形市,あこや町２丁目１２番２－２０２号プラザあこや,,06,201,9900025,,,2021-10-01,清算の結了等,,,2015-10-05,1,,,,,アールディーキカク,0
1980,6410002002451,登記記録の閉鎖等,0,2021-10-07,2021-10-01,有限会社瀧ノ頭,,有限会社,秋田県,秋田市,東通仲町６番１６号,,05,201,0100002,,,2021-10-01,清算の結了等,,,2015-10-05,1,,,,,タキノカシラ,0
1985,6430001028025,登記記録の閉鎖等,0,2021-10-07,2021-10-01,ぎょれんマリノサポート株式会社,,株式会社,北海道,札幌市中央区,北三条西７丁目１番地,,01,101,0600003,,,2021-10-01,合併による解散等,2430001022650,令和３年１０月１日札幌市中央区北三条西七丁目１番地ぎょれんマリノサポート株式会社（2430001022650）に合併し解散,2015-10-05,1,,,,,ギョレンマリノサポート,0
1991,6450001007324,登記記録の閉鎖等,0,2021-10-07,2021-10-01,北斗商事株式会社,,株式会社,北海道,名寄市,西五条北１１丁目５８番地２３,,01,221,0960035,,,2021-10-01,合併による解散等,9450001007643,令和３年１０月１日北海道名寄市西五条北十一丁目５８番地２３五十嵐ホールディングス株式会社（9450001007643）に合併し解散,2015-10-05,1,,,,,ホクトショウジ,0
2009,7010001153673,登記記録の閉鎖等,0,2021-10-07,2021-09-30,株式会社オフィス池上,,株式会社,東京都,文京区,白山４丁目１２番６号,,13,105,1120001,,,2021-09-30,清算の結了等,,,2015-10-05,1,,,,,オフィスイケガミ,0
2019,7010005028946,登記記録の閉鎖等,0,2021-10-07,2021-10-01,ＥＳＲ守谷１一般社団法人,,その他の設立登記法人,東京都,中央区,日本橋１丁目４番１号日本橋一丁目ビルディング,,13,102,1030027,,,2021-10-01,清算の結了等,,,2018-08-14,1,,,,,イーエスアールモリヤワン,0
2029,7010601037029,登記記録の閉鎖等,0,2021-10-07,2021-09-22,株式会社ツーピース＆アーキテクト,,株式会社,東京都,江東区,東陽７丁目１番１４号,,13,108,1350016,,,2021-09-22,清算の結了等,,,2015-10-05,1,,,,,ツーピースアンドアーキテクト,0
2039,7010701033877,登記記録の閉鎖等,0,2021-10-07,2021-10-01,ダイヤパック株式会社,,株式会社,東京都,中野区,本町４丁目６番１６号グリーンハイム中野６０１,,13,114,1640012,,,2021-10-01,清算の結了等,,,2017-03-10,1,,,,,ダイヤパック,0
2042,7010702004217,登記記録の閉鎖等,0,2021-10-07,2021-10-04,有限会社新楽飯店,,有限会社,東京都,品川区,小山３丁目６番２５号,,13,109,1420062,,,2021-10-04,清算の結了等,,,2015-10-05,1,,,,,シンラクハンテン,0
2050,7010902013315,登記記録の閉鎖等,0,2021-10-07,2021-09-30,有限会社ブライシュティフト,,有限会社,東京都,世田谷区,赤堤１丁目３５番５号,,13,112,1560044,,,2021-09-30,清算の結了等,,,2015-10-05,1,,,,,ブライシュティフト,0
2053,7011001009956,登記記録の閉鎖等,0,2021-10-07,2021-09-16,株式会社シーエムシー,,株式会社,東京都,渋谷区,渋谷２丁目１２番８号,,13,113,1500002,,,2021-09-16,清算の結了等,,,2015-10-05,1,,,,,シーエムシー,0
2072,7011401017179,登記記録の閉鎖等,0,2021-10-07,2021-10-01,株式会社ＴＲＬ,,株式会社,東京都,板橋区,中丸町１１番２号,,13,119,1730026,,,2021-10-01,清算の結了等,,,2015-10-05,1,,,,,ティーアールエル,0
2087,7013201017185,登記記録の閉鎖等,0,2021-10-07,2021-10-01,株式会社アイ・エム・ジェイ,,株式会社,東京都,港区,三田１丁目４番１号,,13,103,1080073,,,2021-10-01,合併による解散等,7010401001556,令和３年１０月１日東京都港区赤坂一丁目８番１号アクセンチュア株式会社（7010401001556）に合併し解散,2015-10-05,1,,,,,アイエムジェイ,0
2111,7030002119127,登記記録の閉鎖等,0,2021-10-07,2021-10-01,有限会社日本パステル,,有限会社,長野県,上田市,中央４丁目７番１２号,,20,203,3860012,,,2021-10-01,清算の結了等,,,2015-10-05,1,,,,,ニホンパステル,0
2116,7040001060669,登記記録の閉鎖等,0,2021-10-07,2021-10-01,サクラフォーム株式会社,,株式会社,東京都,港区,港南２丁目１６－４品川グランドセントラルタワー１７階,,13,103,1080075,,,2021-10-01,合併による解散等,1010401060112,令和３年１０月１日東京都港区港南２－１６－４品川グランドセントラルタワー１７階株式会社ビッグファイブ（1010401060112）に合併し解散,2015-10-05,1,,,,,サクラフォーム,0
2129,7060001026882,登記記録の閉鎖等,0,2021-10-07,2021-10-04,株式会社イジューク,,株式会社,群馬県,館林市,大谷町１０５４番地２３,,10,207,3740054,,,2021-10-04,清算の結了等,,,2015-10-05,1,,,,,,0
2141,7090005001607,登記記録の閉鎖等,0,2021-10-07,2021-09-30,医療法人社団山燦会,,その他の設立登記法人,山梨県,甲府市,山宮町８８番地の２,,19,201,4000075,,,2021-09-30,清算の結了等,,,2015-10-05,1,,,,,サンサンカイ,0
2147,7110002025548,登記記録の閉鎖等,0,2021-10-07,2021-09-30,有限会社大黒屋,,有限会社,新潟県,中魚沼郡津南町,大字下船渡丁２８７５番地２,,15,482,9498201,,,2021-09-30,清算の結了等,,,2015-10-05,1,,,,,ダイコクヤ,0
2174,7120901028682,登記記録の閉鎖等,0,2021-10-07,2021-10-06,株式会社花あそび,,株式会社,大阪府,箕面市,稲１丁目２番１２号,,27,220,5620015,,,2021-10-06,清算の結了等,,,2015-10-05,1,,,,,,0
2182,7122001020198,登記記録の閉鎖等,0,2021-10-07,2021-10-05,水上建設株式会社,,株式会社,大阪府,八尾市,志紀町南１丁目１３９番地原ビル１０１号,,27,212,5810033,,,2021-10-05,清算の結了等,,,2015-10-05,1,,,,,ミズカミケンセツ,0
2193,7140001115719,登記記録の閉鎖等,0,2021-10-07,2021-10-05,Ｄａｉｓｈｉｎ　Ｐ＆Ｔ株式会社,,株式会社,兵庫県,尼崎市,道意町７丁目６番地,,28,202,6600083,,,2021-10-05,合併による解散等,5120001037611,令和３年１０月１日滋賀県栗東市出庭５７５番地奥村金属株式会社（5120001037611）に合併し解散,2019-12-05,1,,,,,ダイシンピーアンドティー,0
2209,7180001102531,登記記録の閉鎖等,0,2021-10-07,2021-10-01,株式会社ＡＩＣＯＨ,,株式会社,愛知県,名古屋市中区,丸の内２丁目１２番１３号,,23,106,4600002,,,2021-10-01,合併による解散等,1180001041826,令和３年１０月１日名古屋市中区丸の内二丁目１２番１３号株式会社ＡＩＣＯＨ（1180001041826）に合併し解散,2015-10-05,1,,,,,アイコー,0
2211,7180001145431,登記記録の閉鎖等,0,2021-10-07,2021-10-01,新東海物流株式会社,,株式会社,愛知県,一宮市,神山１丁目１４番２４号,,23,203,4910904,,,2021-10-01,合併による解散等,9180005009622,令和３年１０月１日愛知県一宮市神山一丁目１４番２４号西尾張土地建物株式会社（9180005009622）に合併し解散,2021-04-09,1,,,,,シントウカイブツリュウ,0
2222,7180301006119,登記記録の閉鎖等,0,2021-10-07,2021-10-04,株式会社ダイワ,,株式会社,愛知県,豊橋市,向山大池町２番地の９,,23,201,4400862,,,2021-10-04,清算の結了等,,,2015-10-05,1,,,,,ダイワ,0
2223,7180301018262,登記記録の閉鎖等,0,2021-10-07,2021-10-01,株式会社寿陸運,,株式会社,愛知県,豊田市,吉原町平子４３番地,,23,211,4730916,,,2021-10-01,合併による解散等,2180301021931,令和３年１０月１日愛知県豊田市生駒町切戸１７番地１ＴＢロジスティクス株式会社（2180301021931）に合併し解散,2015-10-05,1,,,,,コトブキリクウン,0
2244,7220001017205,登記記録の閉鎖等,0,2021-10-07,2021-10-04,株式会社トリニティー,,株式会社,石川県,金沢市,西都２丁目５０番地,,17,201,9208202,,,2021-10-04,清算の結了等,,,2015-10-05,1,,,,,トリニティー,0
2251,7240001007807,登記記録の閉鎖等,0,2021-10-07,2021-10-05,中音青果株式会社,,株式会社,広島県,広島市西区,高須台１丁目６番９号,,34,104,7330876,,,2021-10-05,清算の結了等,,,2015-10-05,1,,,,,ナカオトセイカ,0
2312,7410001003284,登記記録の閉鎖等,0,2021-10-07,2021-10-05,株式会社モアセレクト,,株式会社,秋田県,秋田市,山王７丁目５番１４号,,05,201,0100951,,,2021-10-05,清算の結了等,,,2015-10-05,1,,,,,モアセレクト,0
2326,7470001003403,登記記録の閉鎖等,0,2021-10-07,2021-10-05,株式会社浜商,,株式会社,香川県,高松市,林町１３１６番地３,,37,201,7610301,,,2021-10-05,清算の結了等,,,2015-10-05,1,,,,,ハマショウ,0
2329,7490002008738,登記記録の閉鎖等,0,2021-10-07,2021-10-06,有限会社第一乳業,,有限会社,高知県,土佐清水市,旭町６番８号,,39,209,7870303,,,2021-10-06,清算の結了等,,,2015-10-05,1,,,,,,0
2362,8010401099004,登記記録の閉鎖等,0,2021-10-07,2021-10-01,株式会社グッドツアー,,株式会社,東京都,港区,港南２丁目１６－４品川グランドセントラルタワー１７階,,13,103,1080075,,,2021-10-01,合併による解散等,1010401060112,令和３年１０月１日東京都港区港南２－１６－４品川グランドセントラルタワー１７階株式会社ビッグファイブ（1010401060112）に合併し解散,2015-10-05,1,,,,,グッドツアー,0
2366,8010501001422,登記記録の閉鎖等,0,2021-10-07,2021-10-01,株式会社ＮＴＴファシリティーズ総合研究所,,株式会社,東京都,港区,芝浦１丁目２番１号,,13,103,1050023,,,2021-10-01,合併による解散等,3010401005008,令和３年１０月１日東京都港区芝浦三丁目４番１号株式会社ＮＴＴファシリティーズ（3010401005008）に合併し解散,2015-10-05,1,,,,,エヌティーティーファシリティーズソウゴウケンキュウジョ,0
2367,8010501006165,登記記録の閉鎖等,0,2021-10-07,2021-09-30,アカサカ包装用品株式会社,,株式会社,東京都,台東区,浅草橋１丁目３１番３号,,13,106,1110053,,,2021-09-30,清算の結了等,,,2015-10-05,1,,,,,アカサカホウソウヨウヒン,0
2368,8010501019927,登記記録の閉鎖等,0,2021-10-07,2021-09-30,インタードッグ株式会社,,株式会社,東京都,台東区,三ノ輪２丁目１５番９号,,13,106,1100011,,,2021-09-30,清算の結了等,,,2015-10-05,1,,,,,,0
2381,8010901004099,登記記録の閉鎖等,0,2021-10-07,2021-09-30,株式会社五健整骨院,,株式会社,東京都,世田谷区,三軒茶屋１丁目６番１号,,13,112,1540024,,,2021-09-30,清算の結了等,,,2015-10-05,1,,,,,ゴケンセイコツイン,0
2382,8010901035739,登記記録の閉鎖等,0,2021-10-07,2021-09-30,セレラグループ株式会社,,株式会社,東京都,世田谷区,代沢４丁目１２番１５号,,13,112,1550032,,,2021-09-30,清算の結了等,,,2015-10-05,1,,,,,セレラグループ,0
2413,8012405001977,登記記録の閉鎖等,0,2021-10-07,2021-09-30,特定非営利活動法人さくら会,,その他の設立登記法人,東京都,小金井市,貫井南町２丁目７番１４号,,13,210,1840014,,,2021-09-30,清算の結了等,,,2015-10-05,1,,,,,サクラカイ,0
2448,8040001055676,登記記録の閉鎖等,0,2021-10-07,2021-09-28,株式会社ケイティテクノ,,株式会社,千葉県,市原市,君塚３丁目６番地４,,12,219,2900051,,,2021-09-28,清算の結了等,,,2015-10-05,1,,,,,ケイティテクノ,0
2461,8070005008198,登記記録の閉鎖等,0,2021-10-07,2021-09-30,特定非営利活動法人桐生おはなしの学校,,その他の設立登記法人,群馬県,桐生市,新宿１丁目４番３３号,,10,203,3760006,,,2021-09-30,清算の結了等,,,2015-10-05,1,,,,,キリュウオハナシノガッコウ,0
2465,8080402009789,登記記録の閉鎖等,0,2021-10-07,2021-10-01,有限会社興陽,,有限会社,静岡県,浜松市西区,雄踏町宇布見６０６６番地,,22,133,4310102,,,2021-10-01,清算の結了等,,,2015-10-05,1,,,,,コウヨウ,0
2479,8120001150312,登記記録の閉鎖等,0,2021-10-07,2021-10-01,株式会社日昭,,株式会社,大阪府,枚方市,宮之阪３丁目１番２２号,,27,210,5730022,,,2021-10-01,合併による解散等,8120001149809,令和３年１０月１日大阪府枚方市宮之阪三丁目１番２１号ＫＣＣＳコネクトエンジニアリング株式会社（8120001149809）に合併し解散,2015-10-05,1,,,,,ニッショウ,0
2480,8120001153802,登記記録の閉鎖等,0,2021-10-07,2021-10-01,株式会社萩山新聞舗,,株式会社,大阪府,枚方市,甲斐田町５番３１号,,27,210,5731167,,,2021-10-01,清算の結了等,,,2015-10-05,1,,,,,ハギヤマシンブンホ,0
2481,8120001174237,登記記録の閉鎖等,0,2021-10-07,2021-10-01,株式会社全国医療教育推進協会,,株式会社,大阪府,大阪市北区,梅田１丁目１１番４－２００号,,27,127,5300001,,,2021-10-01,合併による解散等,1120001037350,令和３年１０月１日大阪市北区梅田一丁目１１番４－２００号株式会社イング（1120001037350）に合併し解散,2015-10-05,1,,,,,ゼンコクイリョウキョウイクスイシンキョウカイ,0
2497,8120901020746,登記記録の閉鎖等,0,2021-10-07,2021-10-05,株式会社トラスト,,株式会社,大阪府,箕面市,小野原東６丁目３４番３号,,27,220,5620031,,,2021-10-05,清算の結了等,,,2015-10-05,1,,,,,トラスト,0
2554,8200002027369,登記記録の閉鎖等,0,2021-10-07,2021-10-01,有限会社益田物産,,有限会社,岐阜県,中津川市,付知町３０９８番地２,,21,206,5080351,,,2021-10-01,合併による解散等,5200001023891,令和３年１０月１日岐阜県中津川市付知町３０９８番地の２株式会社福岡石材採石所（5200001023891）に合併し解散,2015-10-05,1,,,,,マシタブッサン,0
2555,8200003004251,登記記録の閉鎖等,0,2021-10-07,2021-10-04,合同会社アシストレンタカー,,合同会社,岐阜県,美濃市,大矢田１７１５番地１,,21,207,5013771,,,2021-10-04,清算の結了等,,,2018-07-31,1,,,,,アシストレンタカー,0
2557,8210002005019,登記記録の閉鎖等,0,2021-10-07,2021-09-30,有限会社ホクウンサービス,,有限会社,福井県,福井市,問屋町２丁目４番地,,18,201,9188231,,,2021-09-30,清算の結了等,,,2015-10-05,1,,,,,ホクウンサービス,0
2562,8220005008059,登記記録の閉鎖等,0,2021-10-07,2021-10-04,一般社団法人ライフサポート８６,,その他の設立登記法人,石川県,金沢市,西都２丁目５０番地,,17,201,9208202,,,2021-10-04,清算の結了等,,,2016-02-25,1,,,,,ライフサポートハチロク,0
2567,8240002047041,登記記録の閉鎖等,0,2021-10-07,2021-10-04,有限会社プログレス,,有限会社,広島県,府中市,元町４６８番地の４,,34,208,7260003,,,2021-10-04,清算の結了等,,,2015-10-05,1,,,,,プログレス,0
2576,8250002019279,登記記録の閉鎖等,0,2021-10-07,2021-10-04,有限会社ユウテック,,有限会社,山口県,岩国市,由宇町神東６８６番地,,35,208,7401432,,,2021-10-04,清算の結了等,,,2015-10-05,1,,,,,ユウテック,0
2584,8280001008115,登記記録の閉鎖等,0,2021-10-07,2021-10-01,ハゼヤマエネルギー株式会社,,株式会社,島根県,浜田市,浅井町８８６番地３,,32,202,6970022,,,2021-10-01,合併による解散等,5280001004397,令和３年１０月１日島根県浜田市長沢町３１３６番地株式会社ハゼヤマ（5280001004397）に合併し解散,2019-12-18,1,,,,,ハゼヤマエネルギー,0
2585,8280002000368,登記記録の閉鎖等,0,2021-10-07,2021-10-05,有限会社エスアンドエー,,有限会社,島根県,松江市,西川津町６８７番地１１,,32,201,6900823,,,2021-10-05,清算の結了等,,,2015-10-05,1,,,,,エスアンドエー,0
2590,8290002001217,登記記録の閉鎖等,0,2021-10-07,2021-09-21,有限会社アオノ商事,,有限会社,福岡県,福岡市南区,長丘５丁目１１番２０号,,40,134,8150075,,,2021-09-21,清算の結了等,,,2015-10-05,1,,,,,アオノショウジ,0
2610,8340002002829,登記記録の閉鎖等,0,2021-10-07,2021-10-06,鹿児島共栄警備保障有限会社,,有限会社,鹿児島県,鹿児島市,上荒田町１１番４号,,46,201,8900055,,,2021-10-06,清算の結了等,,,2015-10-05,1,,,,,カゴシマキョウエイケイビホショウ,0
2636,8480002004943,登記記録の閉鎖等,0,2021-10-07,2021-10-01,有限会社村田電気商会,,有限会社,徳島県,徳島市,鮎喰町２丁目９７番地の２,,36,201,7700046,,,2021-10-01,清算の結了等,,,2015-10-05,1,,,,,ムラタデンキショウカイ,0
2642,8500001019270,登記記録の閉鎖等,0,2021-10-07,2021-10-01,株式会社中野組,,株式会社,愛媛県,今治市,横田町１丁目４番４２号,,38,202,7940814,,,2021-10-01,合併による解散等,3500001023005,令和３年１０月１日愛媛県今治市横田町一丁目４番４２号Ｂｅ－Ｐａｓ株式会社（3500001023005）に合併し解散,2015-10-05,1,,,,,ナカノグミ,0
2658,9010401040602,登記記録の閉鎖等,0,2021-10-07,2021-10-01,株式会社ＮＴＴファシリティーズ中央,,株式会社,東京都,港区,芝浦３丁目４番１号,,13,103,1080023,,,2021-10-01,合併による解散等,3010401005008,令和３年１０月１日東京都港区芝浦三丁目４番１号株式会社ＮＴＴファシリティーズ（3010401005008）に合併し解散,2015-10-05,1,,,,,エヌティティファシリティーズチュウオウ,0
2663,9010403023233,登記記録の閉鎖等,0,2021-10-07,2021-09-27,合同会社テシオ,,合同会社,東京都,港区,南青山１丁目３番１号,,13,103,1070062,,,2021-09-27,清算の結了等,,,2020-07-07,1,,,,,テシオ,0
2719,9013305002197,登記記録の閉鎖等,0,2021-10-07,2021-10-01,一般社団法人産学金連携推進機構,,その他の設立登記法人,東京都,豊島区,南大塚２丁目４番９－７０２号,,13,116,1700005,,,2021-10-01,清算の結了等,,,2015-10-05,1,,,,,サンガクキンレンケイスイシンキコウ,0
2724,9020001076062,登記記録の閉鎖等,0,2021-10-07,2021-10-01,川崎化成工業株式会社,,株式会社,神奈川県,川崎市幸区,大宮町１３１０番,,14,132,2120014,,,2021-10-01,合併による解散等,4020001142083,令和３年１０月１日川崎市幸区大宮町１３１０番エア・ウォーター・パフォーマンスケミカル株式会社（4020001142083）に合併し解散,2015-10-05,1,,,,,カワサキカセイコウギョウ,0
2731,9020003015530,登記記録の閉鎖等,0,2021-10-07,2021-10-01,合同会社アウラ土地開発,,合同会社,神奈川県,川崎市幸区,塚越２丁目２５５番地,,14,132,2120024,,,2021-10-01,合併による解散等,4020003015535,令和３年１０月１日神奈川県川崎市幸区塚越二丁目２５５番地合同会社アウラリアルエステート（4020003015535）に合併し解散,2019-01-25,1,,,,,アウラトチカイハツ,0
2752,9040001017816,登記記録の閉鎖等,0,2021-10-07,2021-09-29,株式会社ステラ,,株式会社,千葉県,船橋市,前原西２丁目７番６号,,12,204,2740825,,,2021-09-29,清算の結了等,,,2015-10-05,1,,,,,ステラ,0
2770,9070001026707,登記記録の閉鎖等,0,2021-10-07,2021-09-28,ベルトン株式会社,,株式会社,群馬県,安中市,秋間みのりが丘２番地２６,,10,211,3790109,,,2021-09-28,清算の結了等,,,2015-10-05,1,,,,,ベルトン,0
2774,9080401000995,登記記録の閉鎖等,0,2021-10-07,2021-10-01,株式会社太田工事,,株式会社,静岡県,浜松市東区,篠ケ瀬町７４９番地の１,,22,132,4350042,,,2021-10-01,合併による解散等,7080401004008,令和３年１０月１日静岡県浜松市東区丸塚町３４番地浜松ＮＤＳ株式会社（7080401004008）に合併し解散,2015-10-05,1,,,,,オオタコウジ,0
2790,9120001110819,登記記録の閉鎖等,0,2021-10-07,2021-10-01,株式会社タウンライト,,株式会社,大阪府,大阪市西区,西本町１丁目２番８号,,27,106,5500005,,,2021-10-01,合併による解散等,8120001074271,令和３年１０月１日大阪市西区西本町一丁目２番８号アンダーツリー株式会社（8120001074271）に合併し解散,2015-10-05,1,,,,,タウンライト,0
2808,9120901015613,登記記録の閉鎖等,0,2021-10-07,2021-10-04,株式会社ダイツー,,株式会社,大阪府,高槻市,上牧南駅前町１５７番地の１,,27,207,5690004,,,2021-10-04,合併による解散等,7180001096360,令和３年１０月１日愛知県津島市埋田町一丁目８番地株式会社宇佐美鉱油（7180001096360）に合併し解散,2015-10-05,1,,,,,ダイツー,0
2822,9140001028407,登記記録の閉鎖等,0,2021-10-07,2021-10-01,株式会社パインヒルズ,,株式会社,兵庫県,神戸市須磨区,白川台３丁目６０番地の７、２０２－Ｂ号,,28,107,6540103,,,2021-10-01,清算の結了等,,,2015-10-05,1,,,,,パインヒルズ,0
2832,9160001002046,登記記録の閉鎖等,0,2021-10-07,2021-10-04,ヤモチ株式会社,,株式会社,滋賀県,大津市,月輪５丁目２２番１５号,,25,201,5202152,,,2021-10-04,清算の結了等,,,2015-10-05,1,,,,,ヤモチ,0
2856,9180301016578,登記記録の閉鎖等,0,2021-10-07,2021-10-04,株式会社ハルブランド,,株式会社,愛知県,知立市,牛田町湯山１５番地２,,23,225,4720007,,,2021-10-04,合併による解散等,8180301013989,令和３年１０月１日愛知県刈谷市築地町五丁目１７番地５佐々木建設株式会社（8180301013989）に合併し解散,2015-10-05,1,,,,,ハルブランド,0
2868,9200001023418,登記記録の閉鎖等,0,2021-10-07,2021-10-01,中央フロツキー工業株式会社,,株式会社,岐阜県,中津川市,駒場１６６６番地の３４３７,,21,206,5080011,,,2021-10-01,合併による解散等,4200001023414,令和３年１０月１日岐阜県中津川市駒場１６６６番地の３４３７株式会社中央物産（4200001023414）に合併し解散,2015-10-05,1,,,,,チュウオウフロッキーコウギョウ,0
2883,9250002018734,登記記録の閉鎖等,0,2021-10-07,2021-10-05,やまとう産業有限会社,,有限会社,山口県,岩国市,昭和町１丁目１６番２０号,,35,208,7400004,,,2021-10-05,清算の結了等,,,2015-10-05,1,,,,,ヤマトウサンギョウ,0
2894,9290001051344,登記記録の閉鎖等,0,2021-10-07,2021-09-21,株式会社ギャザーコム,,株式会社,福岡県,久留米市,大善寺町藤吉６９８番地１,,40,203,8300076,,,2021-09-21,清算の結了等,,,2015-10-05,1,,,,,ギャザーコム,0
2899,9290005010404,登記記録の閉鎖等,0,2021-10-07,2021-09-29,小郡市建設業協同組合,,その他の設立登記法人,福岡県,小郡市,小板井高見下４６８番地の１１,,40,216,8380143,,,2021-09-29,清算の結了等,,,2015-10-05,1,,,,,オゴオリシケンセツギョウ,0
2961,9480001008358,登記記録の閉鎖等,0,2021-10-07,2021-10-01,株式会社中川会計事務所,,株式会社,徳島県,吉野川市,鴨島町飯尾３１１番地４,,36,205,7760033,,,2021-10-01,清算の結了等,,,2015-10-05,1,,,,,ナカガワカイケイジムショ,0
