sequenceNumber,corporateNumber,process,correct,updateDate,changeDate,name,nameImageId,kind,prefectureName,cityName,streetNumber,addressImageId,prefectureCode,cityCode,postCode,addressOutside,addressOutsideImageId,closeDate,closeCause,successorCorporateNumber,changeCause,assignmentDate,latest,enName,enPrefectureName,enCityName,enAddressOutside,furigana,hihyoji
18,1010405017892,登記記録の閉鎖等,0,2024-10-15,2024-09-18,一般社団法人Ｖｏｉｃｅ　Ｕｐ　Ｊａｐａｎ,,その他の設立登記法人,東京都,港区,浜松町２丁目２番１５号浜松町ダイヤビル２Ｆ,,13,103,1050013,,,2024-09-18,清算の結了等,,,2019-08-23,1,,,,,ボイスアップジャパン,0
24,1010601039625,登記記録の閉鎖等,0,2024-10-15,2024-10-04,株式会社Ｊ．Ｌ商事,,株式会社,千葉県,香取市,桐谷８３５番地の１,,12,236,2890422,,,2024-10-04,清算の結了等,,,2015-10-05,1,,,,,ジェイエルショウジ,0
52,1011701022818,登記記録の閉鎖等,0,2024-10-15,2024-10-08,株式会社おたすけマネジメント,,株式会社,東京都,江戸川区,西小岩１丁目１９番２号,,13,123,1330057,,,2024-10-08,清算の結了等,,,2019-07-24,1,,,,,オタスケマネジメント,0
61,1012702006314,登記記録の閉鎖等,0,2024-10-15,2024-10-03,有限会社エムエスセラミック,,有限会社,東京都,東久留米市,滝山７丁目７番１０,,13,222,2030033,,,2024-10-03,清算の結了等,,,2015-10-05,1,,,,,エムエスセラミック,0
64,1012801021610,登記記録の閉鎖等,0,2024-10-15,2024-09-30,株式会社ＡＲＣかつき,,株式会社,東京都,日野市,神明３丁目１７番地の９,,13,212,1910016,,,2024-09-30,清算の結了等,,,2022-05-27,1,,,,,エーアールシーカツキ,0
66,1013103001227,登記記録の閉鎖等,0,2024-10-15,2024-10-07,合同会社ＬＵＰＥ,,合同会社,東京都,福生市,大字熊川９９０－７ＡｒｋＨｏｕｓｅＦ－１１０号室,,13,218,1970003,,,2024-10-07,清算の結了等,,,2023-05-12,1,,,,,ルーペ,0
72,1020001079329,登記記録の閉鎖等,0,2024-10-15,2024-09-30,株式会社コラボ,,株式会社,神奈川県,川崎市宮前区,宮崎４丁目１番地６１,,14,136,2160033,,,2024-09-30,清算の結了等,,,2015-10-05,1,,,,,コラボ,0
84,1020002081572,登記記録の閉鎖等,0,2024-10-15,2024-10-01,有限会社仁藤製作所,,有限会社,神奈川県,川崎市幸区,小倉５丁目５番３９号,,14,132,2120054,,,2024-10-01,清算の結了等,,,2015-10-05,1,,,,,ニトウセイサクショ,0
86,1020005010685,登記記録の閉鎖等,0,2024-10-15,2024-09-30,特定非営利活動法人クリエーター支援機構,,その他の設立登記法人,神奈川県,横浜市中区,山手町１０９番地山手ビラポルテ２１１号室,,14,104,2310862,,,2024-09-30,清算の結了等,,,2015-10-05,1,,,,,クリエーターシエンキコウ,0
90,1030001052862,登記記録の閉鎖等,0,2024-10-15,2024-10-07,株式会社佐久間不動産鑑定事務所,,株式会社,埼玉県,春日部市,中央３丁目５番地５エンブレム春日部Ｉ－１０１号,00015003,11,214,3440067,,,2024-10-07,清算の結了等,,,2015-10-05,1,,,,,サクマフドウサンカンテイジムショ,0
100,1040001023433,登記記録の閉鎖等,0,2024-10-15,2024-10-04,株式会社クニヨシ,,株式会社,千葉県,船橋市,西船５丁目２１番１５号,,12,204,2730031,,,2024-10-04,清算の結了等,,,2015-10-05,1,,,,,クニヨシ,0
112,1050001019166,登記記録の閉鎖等,0,2024-10-15,2024-08-20,株式会社タテノ書店,,株式会社,茨城県,古河市,諸川２５５７番地,,08,204,3060126,,,2024-08-20,清算の結了等,,,2015-10-05,1,,,,,タテノショテン,0
113,1050001025296,登記記録の閉鎖等,0,2024-10-15,2024-10-03,株式会社太光企画,,株式会社,茨城県,龍ケ崎市,大徳町４０７１番地２,,08,208,3010816,,,2024-10-03,清算の結了等,,,2015-10-05,1,,,,,タイコウキカク,0
114,1050001043208,登記記録の閉鎖等,0,2024-10-15,2024-10-02,株式会社ＥＢＳ,,株式会社,茨城県,石岡市,茨城１丁目１５番１２号,,08,205,3150042,,,2024-10-02,清算の結了等,,,2017-08-07,1,,,,,イービーエス,0
120,1080001003778,登記記録の閉鎖等,0,2024-10-15,2024-10-07,株式会社トモノ商会,,株式会社,静岡県,静岡市葵区,瀬名７丁目２９番２０号,,22,101,4200911,,,2024-10-07,合併による解散等,9030001003544,令和６年１０月１日埼玉県さいたま市大宮区桜木町一丁目１１番地５株式会社サイサン（9030001003544）に合併し解散,2015-10-05,1,,,,,トモノショウカイ,0
123,1080402009944,登記記録の閉鎖等,0,2024-10-15,2024-10-07,有限会社カネみ水産,,有限会社,静岡県,浜松市中央区,舞阪町舞阪４００２番地の３,,22,138,4310211,,,2024-10-07,清算の結了等,,,2015-10-05,1,,,,,カネミスイサン,0
124,1090001001310,登記記録の閉鎖等,0,2024-10-15,2024-10-07,株式会社タケウチエステート,,株式会社,山梨県,甲府市,美咲１丁目１４番１２号,,19,201,4000007,,,2024-10-07,清算の結了等,,,2015-10-05,1,,,,,タケウチエステート,0
133,1110001024341,登記記録の閉鎖等,0,2024-10-15,2024-10-03,株式会社ケイエムピー,,株式会社,新潟県,長岡市,西宮内２丁目１４番地,,15,202,9401162,,,2024-10-03,清算の結了等,,,2015-10-05,1,,,,,ケイエムピー,0
149,1120002026121,登記記録の閉鎖等,0,2024-10-15,2024-10-10,有限会社長栄,,有限会社,大阪府,大阪市淀川区,西宮原３丁目２番２３号,,27,123,5320004,,,2024-10-10,清算の結了等,,,2015-10-05,1,,,,,チョウエイ,0
170,1140001106285,登記記録の閉鎖等,0,2024-10-15,2024-10-09,プロシード株式会社,,株式会社,兵庫県,尼崎市,稲葉荘４丁目１１番２８号,,28,202,6600064,,,2024-10-09,清算の結了等,,,2017-05-29,1,,,,,プロシード,0
178,1160002008842,登記記録の閉鎖等,0,2024-10-15,2024-10-10,有限会社サンムーヴ総合保険,,有限会社,滋賀県,彦根市,開出今町字上流１３６９番４,,25,202,5220056,,,2024-10-10,清算の結了等,,,2015-10-05,1,,,,,サンムーブソウゴウホケン,0
180,1160002014477,登記記録の閉鎖等,0,2024-10-15,2024-10-04,有限会社モンレーブ,,有限会社,滋賀県,守山市,勝部１丁目４番１１号,,25,207,5240041,,,2024-10-04,清算の結了等,,,2015-10-05,1,,,,,モンレーブ,0
184,1180001083075,登記記録の閉鎖等,0,2024-10-15,2024-09-24,中京科学株式会社,,株式会社,愛知県,一宮市,花池４丁目２６番６号,,23,203,4910914,,,2024-09-24,清算の結了等,,,2015-10-05,1,,,,,,0
185,1180001085443,登記記録の閉鎖等,0,2024-10-15,2024-09-30,松原工業株式会社,,株式会社,愛知県,一宮市,緑２丁目４番１９号,,23,203,4910862,,,2024-09-30,清算の結了等,,,2015-10-05,1,,,,,マツバラコウギョウ,0
186,1180001094584,登記記録の閉鎖等,0,2024-10-15,2024-10-03,株式会社知多つばめタクシー,,株式会社,愛知県,東海市,名和町東岨３８番地１,,23,222,4760002,,,2024-10-03,合併による解散等,6180001008408,令和６年１０月１日名古屋市南区阿原町５番地株式会社あんしんネットなごや（6180001008408）に合併し解散,2015-10-05,1,,,,,チタツバメタクシー,0
201,1180002006209,登記記録の閉鎖等,0,2024-10-15,2024-10-01,桑山印刷有限会社,,有限会社,愛知県,名古屋市港区,港楽１丁目２番２号,,23,111,4550014,,,2024-10-01,清算の結了等,,,2015-10-05,1,,,,,クワヤマインサツ,0
207,1180005018119,登記記録の閉鎖等,0,2024-10-15,2024-10-10,一般社団法人愛知ジビエ振興協議会,,その他の設立登記法人,愛知県,名古屋市東区,東桜２丁目１８番３号,,23,102,4610005,,,2024-10-10,清算の結了等,,,2019-01-28,1,,,,,アイチジビエシンコウキョウギカイ,0
211,1210001008326,登記記録の閉鎖等,0,2024-10-15,2024-10-09,北伸インターナショナル株式会社,,株式会社,福井県,鯖江市,神中町２丁目５番２７－１号,,18,207,9160016,,,2024-10-09,清算の結了等,,,2015-10-05,1,,,,,ホクシンインターナショナル,0
216,1240001043122,登記記録の閉鎖等,0,2024-10-15,2024-10-07,株式会社良品住宅,,株式会社,広島県,広島市中区,大手町３丁目１３番１８号,,34,101,7300051,,,2024-10-07,清算の結了等,,,2015-10-05,1,,,,,,0
219,1290001012907,登記記録の閉鎖等,0,2024-10-15,2024-09-03,倉商株式会社,,株式会社,福岡県,福岡市博多区,博多駅南５丁目７番３７号,,40,132,8120016,,,2024-09-03,清算の結了等,,,2015-10-05,1,,,,,クラショウ,0
220,1290001020240,登記記録の閉鎖等,0,2024-10-15,2024-09-06,株式会社クールファミリー,,株式会社,福岡県,福岡市博多区,博多駅東３丁目１番２９号,,40,132,8120013,,,2024-09-06,清算の結了等,,,2015-10-05,1,,,,,クールファミリー,0
224,1290001058165,登記記録の閉鎖等,0,2024-10-15,2024-09-04,株式会社クロス,,株式会社,福岡県,福岡市中央区,赤坂１丁目１４番２２号,,40,133,8100042,,,2024-09-04,清算の結了等,,,2015-10-05,1,,,,,クロス,0
225,1290001065285,登記記録の閉鎖等,0,2024-10-15,2024-09-06,マイマイパック株式会社,,株式会社,福岡県,春日市,若葉台西４丁目１７２番地,,40,218,8160823,,,2024-09-06,清算の結了等,,,2015-10-05,1,,,,,マイマイパック,0
266,1380002006023,登記記録の閉鎖等,0,2024-10-15,2024-09-30,有限会社ハラダ質店,,有限会社,福島県,福島市,北矢野目字原田５５番地の３,,07,201,9600113,,,2024-09-30,清算の結了等,,,2015-10-05,1,,,,,ハラダシチテン,0
267,1380002030262,登記記録の閉鎖等,0,2024-10-15,2024-10-01,有限会社東北テクノサービス,,有限会社,福島県,双葉郡浪江町,大字加倉字下加倉８０番地１６,,07,547,9791536,,,2024-10-01,清算の結了等,,,2015-10-05,1,,,,,トウホクテクノサービス,0
269,1410002012323,登記記録の閉鎖等,0,2024-10-15,2024-10-08,有限会社丸神工業,,有限会社,秋田県,大仙市,長野字神林１０２番地,,05,212,0140207,,,2024-10-08,清算の結了等,,,2015-10-05,1,,,,,マルシンコウギョウ,0
270,1430001012628,登記記録の閉鎖等,0,2024-10-15,2024-10-07,株式会社ニッケン防水工業,,株式会社,北海道,札幌市北区,篠路一条８丁目６番３３号,,01,102,0028021,,,2024-10-07,清算の結了等,,,2015-10-05,1,,,,,ニッケンボウスイコウギョウ,0
280,1490001008802,登記記録の閉鎖等,0,2024-10-15,2024-10-09,株式会社珠出版,,株式会社,高知県,高知市,本町５丁目２番１８号,,39,201,7800870,,,2024-10-09,清算の結了等,,,2017-10-12,1,,,,,タマシュッパン,0
282,2010001033789,登記記録の閉鎖等,0,2024-10-15,2024-10-01,日本ユピカ株式会社,,株式会社,東京都,千代田区,紀尾井町４番１３号,,13,101,1020094,,,2024-10-01,合併による解散等,6010001033620,令和６年１０月１日東京都千代田区内幸町一丁目３番２号株式会社日本ファインケム（6010001033620）に合併し解散,2015-10-05,1,,,,,ニホンユピカ,0
292,2010003034422,登記記録の閉鎖等,0,2024-10-15,2024-09-24,合同会社寝起金増,,合同会社,東京都,中央区,銀座１丁目２２番１１号銀座大竹ビジデンス２階,,13,102,1040061,,,2024-09-24,清算の結了等,,,2021-03-23,1,,,,,ネオキカネゾウ,0
299,2010401166981,登記記録の閉鎖等,0,2024-10-15,2024-10-04,株式会社ＭｅｔａＬａｂ,,株式会社,東京都,港区,芝４丁目１番２８号ＰＭＯ田町ＩＩＩ７Ｆ,00130253,13,103,1080014,,,2024-10-04,合併による解散等,2011001044454,令和６年１０月１日東京都港区芝四丁目１番２８号ＰＭＯ田町ＩＩＩ７Ｆ株式会社Ｄ１‐Ｌａｂ（2011001044454）に合併し解散,2022-04-20,1,,,,,メタラボ,0
307,2010403028420,登記記録の閉鎖等,0,2024-10-15,2024-09-18,Ａｕｄｉｔ　Ｃｏｎｓｕｌｔｉｎｇ　Ｊａｐａｎ合同会社,,合同会社,東京都,港区,浜松町２丁目２番１５号浜松町ダイヤビル２Ｆ,,13,103,1050013,,,2024-09-18,清算の結了等,,,2022-09-07,1,,,,,オーディットコンサルティングジャパン,0
315,2010701028881,登記記録の閉鎖等,0,2024-10-15,2024-10-01,株式会社リバイブ,,株式会社,東京都,品川区,東五反田５丁目２４番１０号,,13,109,1410022,,,2024-10-01,合併による解散等,8010701011279,令和６年１０月１日東京都品川区東五反田五丁目２４番１０号株式会社ベルーフ（8010701011279）に合併し解散,2015-10-05,1,,,,,リバイブ,0
362,2020002026485,登記記録の閉鎖等,0,2024-10-15,2024-09-30,有限会社サイトウ美容院,,有限会社,神奈川県,横浜市神奈川区,反町４丁目３７番地の１３,,14,102,2210825,,,2024-09-30,清算の結了等,,,2015-10-05,1,,,,,サイトウビヨウイン,0
370,2021002005850,登記記録の閉鎖等,0,2024-10-15,2024-10-11,有限会社ヒデダイニング,,有限会社,神奈川県,藤沢市,白旗１丁目１１番２０～２０８号,,14,205,2510051,,,2024-10-11,清算の結了等,,,2015-10-05,1,,,,,ヒデダイニング,0
384,2040001056201,登記記録の閉鎖等,0,2024-10-15,2024-10-03,新日本工建株式会社,,株式会社,千葉県,市原市,八幡１０４９－１８市原八幡パークホームズ５１９,,12,219,2900062,,,2024-10-03,清算の結了等,,,2015-10-05,1,,,,,シンニホンコウケン,0
394,2040005018866,登記記録の閉鎖等,0,2024-10-15,2024-10-07,医療法人社団悠光会,,その他の設立登記法人,千葉県,印西市,戸神５５７番地４,,12,231,2701348,,,2024-10-07,清算の結了等,,,2015-12-18,1,,,,,ユウキカイ,0
409,2080402014588,登記記録の閉鎖等,0,2024-10-15,2024-10-04,有限会社村松篤設計事務所,,有限会社,静岡県,浜松市中央区,富塚町１９３３番地の１,,22,138,4328002,,,2024-10-04,清算の結了等,,,2015-10-05,1,,,,,ムラマツアツシセッケイジムショ,0
413,2100002011867,登記記録の閉鎖等,0,2024-10-15,2024-10-01,有限会社エースライン,,有限会社,長野県,佐久市,八幡５６３番地,,20,217,3842106,,,2024-10-01,合併による解散等,6100001008456,令和６年１０月１日長野県小諸市赤坂二丁目３番１号小諸倉庫株式会社（6100001008456）に合併し解散,2015-10-05,1,,,,,エースライン,0
429,2120101043520,登記記録の閉鎖等,0,2024-10-15,2024-10-07,株式会社ウインズ,,株式会社,大阪府,大阪市住之江区,南港東４丁目５番２３号,,27,125,5590031,,,2024-10-07,清算の結了等,,,2015-10-05,1,,,,,ウインズ,0
452,2150003002605,登記記録の閉鎖等,0,2024-10-15,2024-10-10,合名会社水の星研究所,,合名会社,奈良県,吉野郡東吉野村,大字平野８１１番地の１,,29,453,6332303,,,2024-10-10,清算の結了等,,,2022-01-27,1,,,,,ミズノホシケンキュウショ,0
461,2180001147820,登記記録の閉鎖等,0,2024-10-15,2024-09-30,株式会社ＭＩＲＡＩＥ,,株式会社,愛知県,名古屋市中区,丸の内１丁目１７番１９号キリックス丸の内ビル２Ｆ,,23,106,4600002,,,2024-09-30,清算の結了等,,,2021-09-15,1,,,,,ミライエ,0
467,2180005009686,登記記録の閉鎖等,0,2024-10-15,2024-10-11,一宮市萩原駅前商店街振興組合,,その他の設立登記法人,愛知県,一宮市,萩原町串作１５７０番地２,,23,203,4910376,,,2024-10-11,清算の結了等,,,2015-10-05,1,,,,,イチノミヤシハギワラエキマエ,0
493,2290001095265,登記記録の閉鎖等,0,2024-10-15,2024-09-03,株式会社エスアイソリューション,,株式会社,福岡県,福岡市博多区,博多駅前２丁目１７番１号,,40,132,8120011,,,2024-09-03,清算の結了等,,,2021-11-02,1,,,,,エスアイソリューション,0
494,2290001098706,登記記録の閉鎖等,0,2024-10-15,2024-09-03,株式会社Ａ‐ＬＰＩＮＵＳ,,株式会社,福岡県,大野城市,栄町２丁目５番２４号デイズマンション６０４,,40,219,8160924,,,2024-09-03,清算の結了等,,,2022-08-24,1,,,,,アルピナス,0
500,2290002055334,登記記録の閉鎖等,0,2024-10-15,2024-09-03,有限会社城建設,,有限会社,福岡県,大牟田市,桜町１８７番地,,40,202,8360092,,,2024-09-03,清算の結了等,,,2015-10-05,1,,,,,ジョウケンセツ,0
509,2330003003320,登記記録の閉鎖等,0,2024-10-15,2024-10-04,合資会社福富商会,,合資会社,熊本県,八代市,本町１丁目１番２９号,,43,202,8660861,,,2024-10-04,清算の結了等,,,2015-10-05,1,,,,,フクトミショウカイ,0
520,2380001011097,登記記録の閉鎖等,0,2024-10-15,2024-10-01,ベル日立株式会社,,株式会社,茨城県,日立市,西成沢町１丁目４番３０号,,08,202,3160032,,,2024-10-01,合併による解散等,9380001010051,令和６年１０月１日茨城県土浦市田中一丁目６番１２号ベル守谷株式会社（9380001010051）に合併し解散,2015-10-05,1,,,,,ベルヒタチ,0
527,2430001066326,登記記録の閉鎖等,0,2024-10-15,2024-10-03,Ｃｏｉｎｓ株式会社,,株式会社,北海道,札幌市中央区,南五条西５丁目２１番１号第２旭観光ビル１Ｆ,,01,101,0640805,,,2024-10-03,清算の結了等,,,2015-10-05,1,,,,,コインズ,0
536,2700150065563,登記記録の閉鎖等,0,2024-10-15,2023-03-31,黒沢津土地改良区,,その他,宮崎県,小林市,堤１０８－１,,45,205,8860003,,,2023-03-31,その他の清算の結了等,,,2015-10-09,1,,,,,クロサワツトチカイリヨウク,0
537,2700150065613,登記記録の閉鎖等,0,2024-10-15,2023-03-31,宝光院土地改良区,,その他,宮崎県,小林市,堤１０８－１,,45,205,8860003,,,2023-03-31,その他の清算の結了等,,,2015-10-09,1,,,,,ホウコウイントチカイリヨウク,0
540,3010001098039,登記記録の閉鎖等,0,2024-10-15,2024-10-01,日鉄カーボン株式会社,,株式会社,東京都,中央区,日本橋１丁目１３番１号,,13,102,1030027,,,2024-10-01,合併による解散等,9010001098041,令和６年１０月１日東京都中央区日本橋一丁目１３番１号日鉄ケミカル＆マテリアル株式会社（9010001098041）に合併し解散,2015-10-05,1,,,,,ニッテツカーボン,0
555,3010405015300,登記記録の閉鎖等,0,2024-10-15,2024-09-19,一般社団法人ＯＡＳ,,その他の設立登記法人,東京都,港区,南麻布２丁目９番２３号,,13,103,1060047,,,2024-09-19,清算の結了等,,,2016-11-25,1,,,,,オーエーエス,0
566,3010903006494,登記記録の閉鎖等,0,2024-10-15,2024-10-04,ひろの合同会社,,合同会社,東京都,世田谷区,駒沢４丁目２９番１０－１０２号,,13,112,1540012,,,2024-10-04,清算の結了等,,,2021-04-30,1,,,,,ヒロノ,0
579,3011201024651,登記記録の閉鎖等,0,2024-10-15,2024-10-09,バーチャルＡＩ工房株式会社,,株式会社,東京都,中野区,野方１丁目３５－８小久保ビル１０３,,13,114,1650027,,,2024-10-09,合併による解散等,6130001060181,令和６年１０月１日京都市左京区仁王門通新高倉東入ル北門前町４８９番地３株式会社データグリッド（6130001060181）に合併し解散,2023-05-23,1,,,,,バーチャルエーアイコウボウ,0
580,3011303000204,登記記録の閉鎖等,0,2024-10-15,2024-10-08,合資会社三河屋商店,,合資会社,東京都,杉並区,荻窪５丁目２０番１０号,,13,115,1670051,,,2024-10-08,清算の結了等,,,2015-10-05,1,,,,,ミカワヤショウテン,0
587,3012301012174,登記記録の閉鎖等,0,2024-10-15,2024-10-07,株式会社ＳＯＣ,,株式会社,東京都,町田市,本町田２０８７番地２８,,13,209,1940032,,,2024-10-07,清算の結了等,,,2020-07-01,1,,,,,エスオーシー,0
592,3012801006782,登記記録の閉鎖等,0,2024-10-15,2024-10-07,ケーエム鋼材株式会社,,株式会社,東京都,武蔵村山市,伊奈平２丁目１８番１号,,13,223,2080023,,,2024-10-07,合併による解散等,5470001012496,令和６年９月３０日香川県坂出市川津町字北峯１７８４番地１１創興業株式会社（5470001012496）に合併し解散,2015-10-05,1,,,,,ケーエムコウザイ,0
594,3013301008146,登記記録の閉鎖等,0,2024-10-15,2024-10-01,東京ライニング株式会社,,株式会社,東京都,豊島区,巣鴨１丁目１７番８号,,13,116,1700002,,,2024-10-01,合併による解散等,4013301009721,令和６年１０月１日東京都豊島区巣鴨一丁目１７番１号野崎不動産住宅株式会社（4013301009721）に合併し解散,2015-10-05,1,,,,,トウキョウライニング,0
600,3020001101024,登記記録の閉鎖等,0,2024-10-15,2024-09-27,株式会社川崎,,株式会社,神奈川県,川崎市高津区,新作２丁目１７番１３－３号,,14,134,2130014,,,2024-09-27,清算の結了等,,,2015-10-05,1,,,,,カワサキ,0
608,3020002076629,登記記録の閉鎖等,0,2024-10-15,2024-09-26,有限会社ティーケーイー,,有限会社,神奈川県,横浜市青葉区,松風台１番地７藤和青葉台ホームズ１０１号,,14,117,2270067,,,2024-09-26,清算の結了等,,,2015-10-05,1,,,,,ティーケーイー,0
621,3030001036780,登記記録の閉鎖等,0,2024-10-15,2024-10-10,株式会社ＳＵＭＩＹＯＳＨＩ,,株式会社,埼玉県,三郷市,彦成２丁目１６９番１号,,11,237,3410003,,,2024-10-10,合併による解散等,7012401007962,令和６年１０月１日東京都江東区新砂一丁目６番３５号住吉興業株式会社（7012401007962）に合併し解散,2015-10-05,1,,,,,スミヨシ,0
627,3030002026236,登記記録の閉鎖等,0,2024-10-15,2024-10-09,有限会社花見屋ビル,,有限会社,埼玉県,川口市,芝中田１丁目３３番１４号,,11,203,3330847,,,2024-10-09,清算の結了等,,,2015-10-05,1,,,,,ハナミヤビル,0
643,3040005006787,登記記録の閉鎖等,0,2024-10-15,2024-10-07,特定非営利活動法人白井市ボランティア連絡協議会,,その他の設立登記法人,千葉県,白井市,南山１丁目５番１０棟１０３号,,12,232,2701423,,,2024-10-07,清算の結了等,,,2015-10-05,1,,,,,シロイシボランティアレンラクキョウギカイ,0
645,3050001027150,登記記録の閉鎖等,0,2024-10-15,2024-10-01,株式会社サンスイサポート,,株式会社,茨城県,常総市,水海道宝町２８５０番地,,08,211,3030023,,,2024-10-01,合併による解散等,9050001037755,令和６年１０月１日茨城県つくば市小野崎２５４番地株式会社サンスイホールディングス（9050001037755）に合併し解散,2015-10-05,1,,,,,サンスイサポート,0
646,3050001035161,登記記録の閉鎖等,0,2024-10-15,2024-10-01,株式会社ブレイブ,,株式会社,茨城県,水戸市,千波町１９４９番地１,,08,201,3100851,,,2024-10-01,合併による解散等,2050001006188,令和６年１０月１日茨城県水戸市千波町１９４９番地１株式会社ケイズ（2050001006188）に合併し解散,2015-10-05,1,,,,,ブレイブ,0
647,3050001039906,登記記録の閉鎖等,0,2024-10-15,2024-10-03,株式会社ジェイピーメタル,,株式会社,茨城県,高萩市,大字上手綱１３５７番地１２,,08,214,3180004,,,2024-10-03,清算の結了等,,,2015-10-05,1,,,,,ジェィピーメタル,0
648,3050003008529,登記記録の閉鎖等,0,2024-10-15,2024-10-03,合同会社ＢＲＫ‐Ｂ,,合同会社,茨城県,結城市,大字結城９１３９番地２２,,08,207,3070001,,,2024-10-03,清算の結了等,,,2024-07-10,1,,,,,ビィアールケイビィ,0
654,3070002002976,登記記録の閉鎖等,0,2024-10-15,2024-10-09,有限会社須田総合保険亊務所,,有限会社,群馬県,前橋市,西善町９７５番地５,,10,201,3792131,,,2024-10-09,清算の結了等,,,2015-10-05,1,,,,,スダソウゴウホケンジムショ,0
658,3080002018484,登記記録の閉鎖等,0,2024-10-15,2024-10-04,有限会社ガーデンメンテナンス,,有限会社,静岡県,藤枝市,前島２丁目１８番１号,,22,214,4260067,,,2024-10-04,清算の結了等,,,2015-10-05,1,,,,,ガーデンメンテナンス,0
661,3080405004346,登記記録の閉鎖等,0,2024-10-15,2024-09-30,富士東製茶農業協同組合,,その他の設立登記法人,静岡県,掛川市,東山７３０番地,,22,213,4360001,,,2024-09-30,清算の結了等,,,2015-10-05,1,,,,,フジトウセイチャ,0
663,3090001005268,登記記録の閉鎖等,0,2024-10-15,2024-10-07,株式会社凜,,株式会社,山梨県,甲府市,上石田４丁目１番３２号,,19,201,4000041,,,2024-10-07,清算の結了等,,,2015-10-05,1,,,,,リン,0
668,3100002019307,登記記録の閉鎖等,0,2024-10-15,2024-10-03,内川設備有限会社,,有限会社,長野県,松本市,庄内３丁目６番１号,,20,202,3900828,,,2024-10-03,清算の結了等,,,2015-10-05,1,,,,,ウチカワセツビ,0
670,3110001004119,登記記録の閉鎖等,0,2024-10-15,2024-10-04,株式会社新潟住宅機器サービス,,株式会社,新潟県,新潟市秋葉区,吉岡町８番１４号,,15,105,9560837,,,2024-10-04,清算の結了等,,,2015-10-05,1,,,,,ニイガタジュウタクキキサービス,0
672,3120001118636,登記記録の閉鎖等,0,2024-10-15,2024-10-07,株式会社キャリア・ステーション,,株式会社,大阪府,大阪市中央区,谷町９丁目２番２７号,,27,128,5420012,,,2024-10-07,清算の結了等,,,2015-10-05,1,,,,,キャリアステーション,0
718,3180002025322,登記記録の閉鎖等,0,2024-10-15,2024-09-30,株式会社ウイークデリバリー,,株式会社,愛知県,名古屋市緑区,鳥澄３丁目１３０６番地,,23,114,4580025,,,2024-09-30,清算の結了等,,,2015-10-05,1,,,,,ウイークデリバリー,0
720,3180002042490,登記記録の閉鎖等,0,2024-10-15,2024-09-30,有限会社ユアー,,有限会社,愛知県,小牧市,大字間々原新田字宮前６２９番地の１,,23,219,4850016,,,2024-09-30,合併による解散等,1180001076095,令和６年９月３０日愛知県小牧市大字間々原新田字宮前６２９番地の１ダイサンドット株式会社（1180001076095）に合併し解散,2015-10-05,1,,,,,ユアー,0
724,3180303004149,登記記録の閉鎖等,0,2024-10-15,2024-10-07,合同会社ＬＡＧＯＭ,,合同会社,愛知県,豊田市,越戸町東小笹２０８番地１,,23,211,4700332,,,2024-10-07,清算の結了等,,,2018-08-31,1,,,,,ラゴム,0
725,3190002022533,登記記録の閉鎖等,0,2024-10-15,2024-10-02,有限会社ヤマト電機工業,,有限会社,三重県,四日市市,万古町２－２５－５０６号,,24,202,5100804,,,2024-10-02,清算の結了等,,,2015-10-05,1,,,,,ヤマトデンキコウギョウ,0
733,3240002011984,登記記録の閉鎖等,0,2024-10-15,2024-10-04,有限会社なな川,,有限会社,広島県,広島市中区,立町４番１７号,,34,101,7300032,,,2024-10-04,清算の結了等,,,2015-10-05,1,,,,,ナナカワ,0
738,3240002027907,登記記録の閉鎖等,0,2024-10-15,2024-10-02,有限会社高美,,有限会社,広島県,東広島市,高屋町中島３８１番地２３,,34,212,7392125,,,2024-10-02,清算の結了等,,,2015-10-05,1,,,,,タカミ,0
741,3260001025959,登記記録の閉鎖等,0,2024-10-15,2024-10-01,株式会社森食材,,株式会社,岡山県,備前市,伊部６７３番地２,,33,211,7050001,,,2024-10-01,清算の結了等,,,2015-10-05,1,,,,,モリショクザイ,0
747,3290001062603,登記記録の閉鎖等,0,2024-10-15,2024-09-02,エスト株式会社,,株式会社,福岡県,福岡市東区,社領１丁目９番４号,,40,131,8120068,,,2024-09-02,合併による解散等,6290001020673,令和６年９月１日福岡市東区社領一丁目９番４号株式会社国本工業（6290001020673）に合併し解散,2015-10-05,1,,,,,エスト,0
751,3290001089456,登記記録の閉鎖等,0,2024-10-15,2024-09-03,株式会社みやび産業,,株式会社,福岡県,福岡市早良区,城西２丁目７番１９号,,40,137,8140003,,,2024-09-03,清算の結了等,,,2020-07-10,1,,,,,ミヤビサンギョウ,0
755,3290002000553,登記記録の閉鎖等,0,2024-10-15,2024-09-09,有限会社新緑園,,有限会社,福岡県,福岡市西区,大字小田１６２０番地の４,,40,135,8190203,,,2024-09-09,清算の結了等,,,2015-10-05,1,,,,,シンリョクエン,0
756,3290002015337,登記記録の閉鎖等,0,2024-10-15,2024-09-09,有限会社小松ビル,,有限会社,福岡県,福岡市南区,寺塚１丁目３番７－８０１号,,40,134,8150074,,,2024-09-09,清算の結了等,,,2015-10-05,1,,,,,コマツ,0
771,3340001014763,登記記録の閉鎖等,0,2024-10-15,2024-10-09,株式会社ＭＪＫ,,株式会社,鹿児島県,鹿屋市,西原４丁目１４番４３－１号,,46,203,8930064,,,2024-10-09,清算の結了等,,,2015-10-05,1,,,,,エムジエイケイ,0
775,3350001015711,登記記録の閉鎖等,0,2024-10-15,2024-10-01,株式会社大盛うどん,,株式会社,宮崎県,宮崎市,昭栄町１１９番地,,45,201,8800833,,,2024-10-01,合併による解散等,3350001004516,令和６年１０月１日宮崎市昭栄町１１９番地株式会社ハンク・ディーシー（3350001004516）に合併し解散,2019-03-14,1,,,,,オオモリウドン,0
785,3370301002333,登記記録の閉鎖等,0,2024-10-15,2024-09-27,株式会社ケイズスポーツ,,株式会社,宮城県,東松島市,矢本字河戸３３番地３８,,04,214,9810503,,,2024-09-27,清算の結了等,,,2015-10-05,1,,,,,,0
793,3420002003427,登記記録の閉鎖等,0,2024-10-15,2024-10-07,有限会社中水物流サービス,,有限会社,青森県,青森市,卸町１番１号,,02,201,0300137,,,2024-10-07,合併による解散等,3420001001373,令和６年１０月１日青森市大字新町野字幾田２２番地１中水商事株式会社（3420001001373）に合併し解散,2015-10-05,1,,,,,チュウスイブツリュウサービス,0
799,3700150065612,登記記録の閉鎖等,0,2024-10-15,2023-03-31,保揚枝原土地改良区,,その他,宮崎県,小林市,堤１０８－１,,45,205,8860003,,,2023-03-31,その他の清算の結了等,,,2015-10-09,1,,,,,ホヨウジバルトチカイリヨウク,0
866,4011103012010,登記記録の閉鎖等,0,2024-10-15,2024-10-02,合同会社Ｏｎｅ　Ｅａｒｔｈ　Ｍｏｎｇｏｌｉａ,,合同会社,東京都,新宿区,西新宿６丁目５番１号,,13,104,1600023,,,2024-10-02,清算の結了等,,,2022-07-28,1,,,,,ワンアースモンゴリア,0
883,4012402018664,登記記録の閉鎖等,0,2024-10-15,2024-10-11,有限会社クリーン開発サービス,,有限会社,東京都,三鷹市,上連雀７丁目１２番９号,,13,204,1810012,,,2024-10-11,清算の結了等,,,2015-10-05,1,,,,,クリーンカイハツサービス,0
885,4012805002884,登記記録の閉鎖等,0,2024-10-15,2024-09-30,一般社団法人日中介護支援教育文化協会,,その他の設立登記法人,東京都,昭島市,武蔵野２丁目１番４８－３１３号,,13,207,1960021,,,2024-09-30,清算の結了等,,,2019-10-28,1,,,,,ニッチュウカイゴシエンキョウイクブンカキョウカイ,0
899,4020001077338,登記記録の閉鎖等,0,2024-10-15,2024-09-30,株式会社ベストプラン,,株式会社,神奈川県,横浜市中区,根岸町１丁目２６番２０１号室,,14,104,2310836,,,2024-09-30,清算の結了等,,,2015-10-05,1,,,,,ベストプラン,0
904,4020001125286,登記記録の閉鎖等,0,2024-10-15,2024-09-30,株式会社ｍｙｃｏｍ,,株式会社,神奈川県,横浜市神奈川区,白幡向町２５番３９号,,14,102,2210077,,,2024-09-30,清算の結了等,,,2018-03-02,1,,,,,マイコム,0
905,4020001135590,登記記録の閉鎖等,0,2024-10-15,2024-09-30,サンコーテクノロジー株式会社,,株式会社,神奈川県,横浜市港北区,綱島東５丁目１０番４１号,,14,109,2230052,,,2024-09-30,清算の結了等,,,2020-04-02,1,,,,,サンコーテクノロジー,0
907,4020002045418,登記記録の閉鎖等,0,2024-10-15,2024-09-26,有限会社宮元建築設計室,,有限会社,神奈川県,横浜市中区,本牧三之谷３５番２,,14,104,2310824,,,2024-09-26,清算の結了等,,,2015-10-05,1,,,,,ミヤモトケンチクセッケイシツ,0
914,4021001044154,登記記録の閉鎖等,0,2024-10-15,2024-10-07,株式会社ジャパンワールドビジネス,,株式会社,神奈川県,逗子市,沼間１丁目２５番２－３０５号,,14,208,2490004,,,2024-10-07,清算の結了等,,,2015-10-05,1,,,,,,0
937,4030002097251,登記記録の閉鎖等,0,2024-10-15,2024-10-03,有限会社新井企画,,有限会社,埼玉県,比企郡小川町,東小川６丁目２２番地２,,11,343,3550322,,,2024-10-03,清算の結了等,,,2015-10-05,1,,,,,アライキカク,0
948,4040002099809,登記記録の閉鎖等,0,2024-10-15,2024-10-04,有限会社眞門屋,,有限会社,千葉県,館山市,新宿４４番地,,12,205,2940046,,,2024-10-04,清算の結了等,,,2015-10-05,1,,,,,マカドヤ,0
960,4060002033740,登記記録の閉鎖等,0,2024-10-15,2024-10-09,有限会社出井土木,,有限会社,栃木県,栃木市,都賀町家中３６９９番地,,09,203,3280111,,,2024-10-09,清算の結了等,,,2015-10-05,1,,,,,イデイドボク,0
964,4100001005265,登記記録の閉鎖等,0,2024-10-15,2024-10-04,株式会社環境エンジニア西澤,,株式会社,長野県,長野市,川中島町四ツ屋１０８４番地の２,,20,201,3812231,,,2024-10-04,清算の結了等,,,2015-10-05,1,,,,,カンキョウエンジニアニシザワ,0
977,4120002064044,登記記録の閉鎖等,0,2024-10-15,2024-10-07,有限会社クローバー,,有限会社,大阪府,大阪市住之江区,新北島５丁目１番５０－１０１・１０２,,27,125,5590024,,,2024-10-07,清算の結了等,,,2015-10-05,1,,,,,クローバー,0
983,4120101064341,登記記録の閉鎖等,0,2024-10-15,2024-10-09,Ｐｏｓｉｔｉｖｅ　Ｒｏｕｔｅ株式会社,,株式会社,大阪府,高石市,千代田５丁目１番２号,,27,225,5920005,,,2024-10-09,清算の結了等,,,2021-09-27,1,,,,,ポジティブルート,0
998,4170001009664,登記記録の閉鎖等,0,2024-10-15,2024-10-11,株式会社クリナム,,株式会社,和歌山県,田辺市,高雄２丁目１３番２４号,,30,206,6460028,,,2024-10-11,清算の結了等,,,2015-10-05,1,,,,,クリナム,0
1003,4180001144196,登記記録の閉鎖等,0,2024-10-15,2024-09-30,株式会社ＷＯＲＬＤ　ＳＨＩＰＳ,,株式会社,愛知県,名古屋市西区,城西町２１２番地,,23,104,4520841,,,2024-09-30,清算の結了等,,,2021-01-06,1,,,,,ワールドシップス,0
1008,4180003005181,登記記録の閉鎖等,0,2024-10-15,2024-09-30,合資会社杉下,,合資会社,愛知県,名古屋市中区,金山３丁目１０番６号,,23,106,4600022,,,2024-09-30,清算の結了等,,,2015-10-05,1,,,,,スギシタ,0
1009,4180003024363,登記記録の閉鎖等,0,2024-10-15,2024-08-19,自在快発合同会社,,合同会社,愛知県,長久手市,下川原１番地１３,,23,238,4801137,,,2024-08-19,清算の結了等,,,2022-10-17,1,,,,,ジザイカイハツ,0
1020,4220001020145,登記記録の閉鎖等,0,2024-10-15,2024-10-07,株式会社金沢電力,,株式会社,石川県,金沢市,二口町ニ９５番地１,,17,201,9200051,,,2024-10-07,清算の結了等,,,2015-10-05,1,,,,,カナザワデンリョク,0
1022,4230002001639,登記記録の閉鎖等,0,2024-10-15,2024-10-11,有限会社島一自動車工業,,有限会社,富山県,富山市,住吉２４８番地の１,,16,201,9300144,,,2024-10-11,清算の結了等,,,2015-10-05,1,,,,,シマイチジドウシャコウギョウ,0
1025,4260002008152,登記記録の閉鎖等,0,2024-10-15,2024-09-30,有限会社光保険企画,,有限会社,岡山県,岡山市中区,西川原３６１番地,,33,102,7038258,,,2024-09-30,合併による解散等,8260002001384,令和６年９月３０日岡山市中区西川原３６１番地株式会社エステイト光（8260002001384）に合併し解散,2015-10-05,1,,,,,ヒカリホケンキカク,0
1026,4260002010678,登記記録の閉鎖等,0,2024-10-15,2024-10-08,有限会社ワームス,,有限会社,岡山県,岡山市南区,妹尾２３７３番地２３,,33,104,7010205,,,2024-10-08,清算の結了等,,,2015-10-05,1,,,,,ワームス,0
1036,4290002026878,登記記録の閉鎖等,0,2024-10-15,2024-09-09,有限会社ホテルエリス,,有限会社,福岡県,那珂川市,大字西畑４２３番地３,,40,231,8111246,,,2024-09-09,清算の結了等,,,2015-10-05,1,,,,,ホテルエリス,0
1040,4290805005780,登記記録の閉鎖等,0,2024-10-15,2024-10-03,誓願寺,,その他の設立登記法人,福岡県,鞍手郡小竹町,大字南良津１９０４番地,,40,401,8201106,,,2024-10-03,清算の結了等,,,2015-10-05,1,,,,,セイガンジ,0
1045,4310002018864,登記記録の閉鎖等,0,2024-10-15,2024-10-03,濱口海運有限会社,00096138,有限会社,長崎県,壱岐市,石田町久喜触３６番地,,42,210,8115223,,,2024-10-03,清算の結了等,,,2015-10-05,1,,,,,ハマグチカイウン,0
1062,4380002030111,登記記録の閉鎖等,0,2024-10-15,2024-09-30,有限会社杉本土建,,有限会社,福島県,双葉郡富岡町,大字本岡字新夜ノ森７６番地,,07,543,9791151,,,2024-09-30,清算の結了等,,,2015-10-05,1,,,,,スギモトドケン,0
1072,4470002008321,登記記録の閉鎖等,0,2024-10-15,2024-10-04,有限会社イー・エム・エム,,有限会社,香川県,高松市,新田町乙２５番地５２,,37,201,7610103,,,2024-10-04,清算の結了等,,,2015-10-05,1,,,,,イーエムエム,0
1074,4490002013278,登記記録の閉鎖等,0,2024-10-15,2024-10-09,有限会社中西商店,,有限会社,高知県,安芸郡東洋町,大字河内２４番地２１,,39,301,7817412,,,2024-10-09,清算の結了等,,,2015-10-05,1,,,,,ナカニシショウテン,0
1077,4700150015203,登記記録の閉鎖等,0,2024-10-15,2023-06-20,市原市立姉崎公民館運営委員会,,その他,千葉県,市原市,姉崎２１５０－１,,12,219,2990111,,,2023-06-20,その他の清算の結了等,,,2015-10-09,1,,,,,イチハラシリツアネサキコウミンカンウンエイイインカイ,0
1078,4700150017018,登記記録の閉鎖等,0,2024-10-15,2024-04-12,大宮駅東口大門町２丁目中地区市街地再開発組合,,その他,埼玉県,さいたま市大宮区,大門町２丁目２６,,11,103,3300846,,,2024-04-12,その他の清算の結了等,,,2015-10-09,1,,,,,オオミヤエキヒガシグチダイモンチヨウニチヨウメナカチクシガイチサイカイハツクミアイ,0
1079,4700150019641,登記記録の閉鎖等,0,2024-10-15,2024-07-11,芭蕉の里くろばね物産店,,その他,栃木県,大田原市,前田９２８－１,,09,210,3240234,,,2024-07-11,その他の清算の結了等,,,2015-10-09,1,,,,,バシヨウノサトクロバネブツサンテン,0
1080,4700150065636,登記記録の閉鎖等,0,2024-10-15,2023-03-31,市谷土地改良区,,その他,宮崎県,小林市,堤１０８－１,,45,205,8860003,,,2023-03-31,その他の清算の結了等,,,2015-10-09,1,,,,,イチタニトチカイリヨウク,0
1095,5010003025914,登記記録の閉鎖等,0,2024-10-15,2024-09-19,合同会社ＮＥＳＭＩＳ,,合同会社,東京都,港区,南麻布２丁目１４番２２号,,13,103,1060047,,,2024-09-19,清算の結了等,,,2017-08-17,1,,,,,ネスミス,0
1122,5011001005404,登記記録の閉鎖等,0,2024-10-15,2024-09-24,株式会社ガウディ,,株式会社,東京都,渋谷区,代々木５丁目６１番１号,,13,113,1510053,,,2024-09-24,清算の結了等,,,2015-10-05,1,,,,,ガウディ,0
1126,5011001157831,登記記録の閉鎖等,0,2024-10-15,2024-09-13,株式会社ＣｅｌｌＣｒｅｗｓ,,株式会社,東京都,渋谷区,恵比寿西２丁目１７番８号Ｉ．Ｔ．Ｏ代官山２０３号,,13,113,1500021,,,2024-09-13,清算の結了等,,,2023-10-24,1,,,,,セルクルーズ,0
1139,5011101104254,登記記録の閉鎖等,0,2024-10-15,2024-10-02,ウェブソリューションサービス株式会社,,株式会社,東京都,新宿区,西新宿３丁目３番１３号西新宿水間ビル６階,,13,104,1600023,,,2024-10-02,清算の結了等,,,2023-09-07,1,,,,,ウェブソリューションサービス,0
1146,5011403003014,登記記録の閉鎖等,0,2024-10-15,2024-10-03,合同会社佐一建設,,合同会社,東京都,板橋区,前野町２丁目４５番７号,,13,119,1740063,,,2024-10-03,清算の結了等,,,2020-05-22,1,,,,,サイチケンセツ,0
1162,5013101007321,登記記録の閉鎖等,0,2024-10-15,2024-10-10,株式会社ＤＥＳＡＦＩＯ,,株式会社,東京都,あきる野市,小川７００番地９,,13,228,1970821,,,2024-10-10,清算の結了等,,,2016-05-17,1,,,,,デサフィオ,0
1172,5020001010850,登記記録の閉鎖等,0,2024-10-15,2024-09-30,株式会社アイベックス・マツダ,,株式会社,神奈川県,横浜市青葉区,もえぎ野３番地２６,,14,117,2270044,,,2024-09-30,清算の結了等,,,2015-10-05,1,,,,,アイベックスマツダ,0
1175,5020001097855,登記記録の閉鎖等,0,2024-10-15,2024-09-30,株式会社ＭＭハウジング,,株式会社,神奈川県,横浜市中区,不老町１丁目２番地１,,14,104,2310032,,,2024-09-30,清算の結了等,,,2015-10-05,1,,,,,エムエムハウジング,0
1185,5020002080018,登記記録の閉鎖等,0,2024-10-15,2024-10-01,有限会社サン・イースト・リサーチ,,有限会社,埼玉県,川越市,大字下小坂３２８番２号,,11,201,3500812,,,2024-10-01,合併による解散等,9030001058068,令和６年１０月１日埼玉県川越市下小坂３２８番２号株式会社グリーンサービス（9030001058068）に合併し解散,2015-10-05,1,,,,,サンイーストリサーチ,0
1186,5020002088639,登記記録の閉鎖等,0,2024-10-15,2024-09-30,有限会社川辺工業,,有限会社,神奈川県,川崎市高津区,久地１丁目４番１１号,,14,134,2130032,,,2024-09-30,清算の結了等,,,2015-10-05,1,,,,,カワベコウギョウ,0
1199,5030001055250,登記記録の閉鎖等,0,2024-10-15,2024-10-07,長坂木材銘木興業株式会社,,株式会社,埼玉県,川越市,大字府川１４７番地,,11,201,3500831,,,2024-10-07,清算の結了等,,,2015-10-05,1,,,,,ナガサカモクザイメイボクコウギョウ,0
1212,5040002050084,登記記録の閉鎖等,0,2024-10-15,2024-10-04,有限会社エルテック,,有限会社,千葉県,松戸市,稔台１１２１番の５,,12,207,2702231,,,2024-10-04,清算の結了等,,,2015-10-05,1,,,,,エルテック,0
1214,5040005013708,登記記録の閉鎖等,0,2024-10-15,2024-10-07,昭和電工マテリアルズ労働組合,,その他の設立登記法人,千葉県,柏市,末広町７番３号,,12,217,2770842,,,2024-10-07,清算の結了等,,,2015-10-05,1,,,,,ショウワデンコウマテリアルズ,0
1215,5050001031274,登記記録の閉鎖等,0,2024-10-15,2024-10-01,ベル牛久株式会社,,株式会社,茨城県,牛久市,ひたち野西１丁目２２番地,,08,219,3001206,,,2024-10-01,合併による解散等,9380001010051,令和６年１０月１日茨城県土浦市田中一丁目６番１２号ベル守谷株式会社（9380001010051）に合併し解散,2015-10-05,1,,,,,ベルウシク,0
1225,5070002011604,登記記録の閉鎖等,0,2024-10-15,2024-09-27,有限会社林屋商店,,有限会社,神奈川県,横浜市泉区,領家４丁目１１番地の５,,14,116,2450004,,,2024-09-27,清算の結了等,,,2015-10-05,1,,,,,ハヤシヤショウテン,0
1226,5080001022881,登記記録の閉鎖等,0,2024-10-15,2024-10-07,株式会社エフエムピー,,株式会社,静岡県,静岡市葵区,飯間２０６１番地の１,,22,101,4211224,,,2024-10-07,清算の結了等,,,2019-05-24,1,,,,,エフエムピー,0
1233,5110001031318,登記記録の閉鎖等,0,2024-10-15,2024-10-03,廣川工業株式会社,00105960,株式会社,新潟県,新潟市北区,十二１３８番地,,15,101,9503354,,,2024-10-03,清算の結了等,,,2016-03-04,1,,,,,ヒロカワコウギョウ,0
1245,5120002071155,登記記録の閉鎖等,0,2024-10-15,2024-10-04,有限会社パーシモン,,有限会社,大阪府,大阪市浪速区,元町２丁目６番１３－８０１号,,27,111,5560016,,,2024-10-04,清算の結了等,,,2015-10-05,1,,,,,パーシモン,0
1256,5140001004329,登記記録の閉鎖等,0,2024-10-15,2024-10-07,神戸設備工業株式会社,,株式会社,兵庫県,神戸市灘区,友田町４丁目１番２号,,28,102,6570035,,,2024-10-07,清算の結了等,,,2015-10-05,1,,,,,コウベセツビコウギョウ,0
1263,5140003012569,登記記録の閉鎖等,0,2024-10-15,2024-10-08,合同会社エステートソルテ,,合同会社,兵庫県,芦屋市,前田町７番７号,,28,206,6590071,,,2024-10-08,合併による解散等,7010903003182,令和６年１０月１日東京都世田谷区太子堂五丁目２２番５号合同会社ハセガワコンサルティング（7010903003182）に合併し解散,2017-11-13,1,,,,,エステートソルテ,0
1267,5160001005309,登記記録の閉鎖等,0,2024-10-15,2024-10-10,株式会社アール・エー,,株式会社,滋賀県,甲賀市,土山町大野２６３７番地,,25,209,5280235,,,2024-10-10,清算の結了等,,,2015-10-05,1,,,,,アールエー,0
1270,5170001007576,登記記録の閉鎖等,0,2024-10-15,2024-10-09,株式会社かたやまはうじんぐ,,株式会社,和歌山県,和歌山市,松江北２丁目２－５－４１５,,30,201,6408425,,,2024-10-09,清算の結了等,,,2015-10-05,1,,,,,カタヤマハウジング,0
1274,5180001098292,登記記録の閉鎖等,0,2024-10-15,2024-09-30,シーエステレコム株式会社,,株式会社,愛知県,清須市,西枇杷島町南大和１７５番地,,23,233,4520013,,,2024-09-30,清算の結了等,,,2015-10-05,1,,,,,シーエステレコム,0
1281,5180003025889,登記記録の閉鎖等,0,2024-10-15,2024-09-30,ＭＹＰＣ合同会社,,合同会社,愛知県,北名古屋市,二子２２０番地,,23,234,4810013,,,2024-09-30,清算の結了等,,,2023-10-23,1,,,,,マイピーシー,0
1289,5200001013661,登記記録の閉鎖等,0,2024-10-15,2024-10-08,株式会社三祐,,株式会社,岐阜県,大垣市,林町３丁目１０４番地,,21,202,5030015,,,2024-10-08,清算の結了等,,,2015-10-05,1,,,,,サンユウ,0
1302,5240005015056,登記記録の閉鎖等,0,2024-10-15,2024-10-09,特定非営利活動法人スマートワークラボ,,その他の設立登記法人,広島県,福山市,伏見町４番３３号,,34,207,7200062,,,2024-10-09,清算の結了等,,,2020-07-27,1,,,,,スマートワークラボ,0
1303,5250002009704,登記記録の閉鎖等,0,2024-10-15,2024-10-01,有限会社宗伸,,有限会社,山口県,下関市,椋野町２丁目１２番３７号,,35,201,7510816,,,2024-10-01,合併による解散等,9250003000798,令和６年９月２０日山口県下関市椋野町二丁目１２番３７号合同会社オッキー（9250003000798）に合併し解散,2015-10-05,1,,,,,ソウシン,0
1313,5290001071692,登記記録の閉鎖等,0,2024-10-15,2024-09-05,ハウス創建株式会社,,株式会社,福岡県,糟屋郡志免町,別府北１丁目５番２３号,,40,343,8112233,,,2024-09-05,清算の結了等,,,2015-10-19,1,,,,,ハウスソウケン,0
1314,5290001086451,登記記録の閉鎖等,0,2024-10-15,2024-09-03,株式会社そうざい市場,,株式会社,福岡県,小郡市,松崎７６１番地３,,40,216,8380122,,,2024-09-03,清算の結了等,,,2019-09-10,1,,,,,ソウザイイチバ,0
1322,5290002030037,登記記録の閉鎖等,0,2024-10-15,2024-09-03,有限会社アーチ,,有限会社,福岡県,福岡市南区,桧原７丁目５３番２３号,,40,134,8111355,,,2024-09-03,清算の結了等,,,2015-10-05,1,,,,,アーチ,0
1330,5310001015804,登記記録の閉鎖等,0,2024-10-15,2024-10-02,株式会社ウェーブ,,株式会社,長崎県,佐世保市,小佐々町楠泊６８１番地１,,42,202,8570413,,,2024-10-02,清算の結了等,,,2018-11-02,1,,,,,ウェーブ,0
1337,5360001010932,登記記録の閉鎖等,0,2024-10-15,2024-10-03,ヤマト生コン株式会社,,株式会社,沖縄県,うるま市,字西原６５４番地１,,47,213,9042204,,,2024-10-03,合併による解散等,1360001002124,令和６年１０月１日沖縄県島尻郡八重瀬町字宜次３６３番地１株式会社ヤマト（1360001002124）に合併し解散,2015-10-05,1,,,,,ヤマトナマコン,0
1341,5360003013792,登記記録の閉鎖等,0,2024-10-15,2024-10-09,合同会社ルビー,,合同会社,沖縄県,豊見城市,字饒波１６３番地１メゾンひかり３－２０１号室,,47,212,9010211,,,2024-10-09,清算の結了等,,,2024-03-15,1,,,,,ルビー,0
1347,5370002018040,登記記録の閉鎖等,0,2024-10-15,2024-10-01,有限会社千葉治工建,,有限会社,宮城県,仙台市若林区,荒井７丁目１１番地の１２,,04,103,9840032,,,2024-10-01,清算の結了等,,,2015-10-05,1,,,,,チバハルコウケン,0
1348,5380001010030,登記記録の閉鎖等,0,2024-10-15,2024-10-01,ベル土浦株式会社,,株式会社,茨城県,土浦市,港町１丁目１１番５号,,08,203,3000034,,,2024-10-01,合併による解散等,9380001010051,令和６年１０月１日茨城県土浦市田中一丁目６番１２号ベル守谷株式会社（9380001010051）に合併し解散,2015-10-05,1,,,,,ベルツチウラ,0
1349,5380001025664,登記記録の閉鎖等,0,2024-10-15,2024-10-01,株式会社建商,,株式会社,福島県,いわき市,常磐西郷町銭田１０７番地の１４,,07,204,9728316,,,2024-10-01,清算の結了等,,,2015-10-05,1,,,,,ケンショウ,0
1350,5380002005715,登記記録の閉鎖等,0,2024-10-15,2024-09-30,有限会社元気ネットワーク,,有限会社,福島県,伊達郡川俣町,字舘ノ腰１番地の１,,07,308,9601416,,,2024-09-30,清算の結了等,,,2015-10-05,1,,,,,ゲンキネットワーク,0
1351,5390005000811,登記記録の閉鎖等,0,2024-10-15,2024-10-02,山形グリーン事業協同組合,,その他の設立登記法人,山形県,山形市,大字松原２９４番地の９,,06,201,9902313,,,2024-10-02,清算の結了等,,,2015-10-05,1,,,,,ヤマガタグリーン,0
1354,5430001050624,登記記録の閉鎖等,0,2024-10-15,2024-10-04,株式会社山二わたなべ,,株式会社,北海道,小樽市,稲穂４丁目６番１号,,01,203,0470032,,,2024-10-04,合併による解散等,4440001008762,令和６年１０月１日北海道函館市亀尾町２８番地１函館五稜乃蔵株式会社（4440001008762）に合併し解散,2015-10-05,1,,,,,ヤマニワタナベ,0
1364,5430003001220,登記記録の閉鎖等,0,2024-10-15,2024-10-08,合資会社越山,,合資会社,北海道,札幌市白石区,栄通６丁目１番１１号,,01,104,0030021,,,2024-10-08,清算の結了等,,,2015-10-05,1,,,,,エツザン,0
1366,5440003000915,登記記録の閉鎖等,0,2024-10-15,2024-10-08,合同会社ＮＩＣＥ１９５,,合同会社,北海道,北斗市,七重浜１丁目２番２号,,01,236,0490111,,,2024-10-08,清算の結了等,,,2015-10-05,1,,,,,,0
1372,5470003000739,登記記録の閉鎖等,0,2024-10-15,2024-10-08,合同会社三佳,,合同会社,香川県,小豆郡土庄町,甲６１９０番地６,,37,322,7614101,,,2024-10-08,清算の結了等,,,2015-10-05,1,,,,,サンケイ,0
1376,5700150109516,登記記録の閉鎖等,0,2024-10-15,2024-05-01,Ｒｉｓｉｎｇ　Ｇｅｎｅｒａｔｉｏｎ’ｓ　Ａｃｔ,,その他,大阪府,大阪市浪速区,日本橋東２丁目９－１６オリエンタル日本橋Ｂ１－１　ＳＴＡＲ☆ＪＡＣＫＳオフィス内,,27,111,5560006,,,2024-05-01,その他の清算の結了等,,,2022-06-13,1,,,,,ライジングジエネレーシヨンズアクト,0
1377,5700150110473,登記記録の閉鎖等,0,2024-10-15,2024-05-31,Ｉｎｄｅｐｅｎｄｅｎｔ　Ｍｕｓｉｃ　Ｕｎｉｏｎ　Ｊａｐａｎ,,その他,千葉県,松戸市,六高台３丁目３５－２０６,,12,207,2702203,,,2024-05-31,その他の清算の結了等,,,2022-06-27,1,,,,,インデイペンデントミユージツクユニオンジヤパン,0
1393,6010401082036,登記記録の閉鎖等,0,2024-10-15,2024-10-07,株式会社多賀製作所,,株式会社,神奈川県,足柄上郡松田町,松田惣領１５７７番地,,14,363,2580003,,,2024-10-07,合併による解散等,6021001034104,令和６年１０月１日神奈川県足柄上郡松田町松田惣領１５７７番地株式会社小田原エンジニアリング（6021001034104）に合併し解散,2015-10-05,1,,,,,タガセイサクジョ,0
1396,6010401150791,登記記録の閉鎖等,0,2024-10-15,2024-10-10,東京メディカルテクノロジーズ株式会社,,株式会社,東京都,港区,海岸１丁目１４番１７号ベイサイド竹芝１３０３号,,13,103,1050022,,,2024-10-10,合併による解散等,5180001052563,令和６年１０月１日名古屋市緑区大高町字西正地５番地の１株式会社ＦＡＲ　ＷＥＳＴ（5180001052563）に合併し解散,2020-02-03,1,,,,,トウキョウメディカルテクノロジーズ,0
1400,6010403010696,登記記録の閉鎖等,0,2024-10-15,2024-09-27,Ａｉｒｂｉｑｕｉｔｙ合同会社,,合同会社,神奈川県,横浜市港北区,新横浜３丁目７番１８号日総第１８ビル５１２,,14,109,2220033,,,2024-09-27,清算の結了等,,,2015-10-05,1,,,,,エアビクイティー,0
1407,6010605000999,登記記録の閉鎖等,0,2024-10-15,2024-10-07,メイゾン向島管理組合法人,,その他の設立登記法人,東京都,墨田区,向島２丁目１０番２号,,13,107,1310033,,,2024-10-07,清算の結了等,,,2015-10-05,1,,,,,メイゾンムコウジマ,0
1429,6011101049457,登記記録の閉鎖等,0,2024-10-15,2024-10-02,株式会社Ｍ＆Ｓサービスパートナーズ,,株式会社,東京都,新宿区,戸山１丁目１５番１０号,,13,104,1620052,,,2024-10-02,清算の結了等,,,2015-10-05,1,,,,,エムアンドエスサービスパートナーズ,0
1442,6011802014775,登記記録の閉鎖等,0,2024-10-15,2024-10-08,有限会社セントラルテクノ,,有限会社,東京都,足立区,綾瀬１丁目３８番１８号,,13,121,1200005,,,2024-10-08,清算の結了等,,,2015-10-05,1,,,,,セントラルテクノ,0
1447,6012401025692,登記記録の閉鎖等,0,2024-10-15,2024-10-07,株式会社ＣＰＮ,,株式会社,東京都,江東区,南砂７丁目３番６－６０８号,,13,108,1360076,,,2024-10-07,清算の結了等,,,2015-10-05,1,,,,,,0
1451,6013102006024,登記記録の閉鎖等,0,2024-10-15,2024-10-10,光衛興業有限会社,,有限会社,東京都,青梅市,勝沼２丁目１５１番地,,13,205,1980041,,,2024-10-10,清算の結了等,,,2015-10-05,1,,,,,,0
1455,6020001043123,登記記録の閉鎖等,0,2024-10-15,2024-09-24,株式会社貴賓閣,,株式会社,神奈川県,横浜市南区,永田北３丁目２９番７号,,14,105,2320071,,,2024-09-24,清算の結了等,,,2015-10-05,1,,,,,キヒンカク,0
1461,6020002082475,登記記録の閉鎖等,0,2024-10-15,2024-09-27,あすなろファーマスィー有限会社,,有限会社,神奈川県,川崎市中原区,北谷町６９３番,,14,133,2110015,,,2024-09-27,清算の結了等,,,2015-10-05,1,,,,,アスナロファーマスィー,0
1463,6020002092045,登記記録の閉鎖等,0,2024-10-15,2024-09-30,有限会社小林商会,,有限会社,神奈川県,川崎市多摩区,長尾７丁目７番３号,,14,135,2140023,,,2024-09-30,清算の結了等,,,2015-10-05,1,,,,,,0
1474,6030001045845,登記記録の閉鎖等,0,2024-10-15,2024-10-04,株式会社志賀工務店,,株式会社,埼玉県,新座市,池田４丁目８番３号,,11,230,3520015,,,2024-10-04,清算の結了等,,,2015-10-05,1,,,,,シガコウムテン,0
1478,6030001114369,登記記録の閉鎖等,0,2024-10-15,2024-10-03,エフテック株式会社,,株式会社,埼玉県,さいたま市岩槻区,古ケ場２丁目７番１号,,11,110,3390072,,,2024-10-03,合併による解散等,1011601007902,令和６年１０月１日埼玉県さいたま市岩槻区古ヶ場二丁目７番１号藤工業株式会社（1011601007902）に合併し解散,2016-05-18,1,,,,,エフテック,0
1486,6040001043559,登記記録の閉鎖等,0,2024-10-15,2024-10-07,株式会社平安管設,,株式会社,千葉県,印旛郡栄町,酒直１２６番地,,12,329,2701513,,,2024-10-07,清算の結了等,,,2015-10-05,1,,,,,ヘイアンカンセツ,0
1488,6040001104212,登記記録の閉鎖等,0,2024-10-15,2024-10-04,株式会社ディーガーデン,,株式会社,千葉県,八千代市,八千代台東４丁目８番２４号,,12,221,2760032,,,2024-10-04,清算の結了等,,,2018-04-10,1,,,,,ディーガーデン,0
1495,6050001013528,登記記録の閉鎖等,0,2024-10-15,2024-10-02,株式会社花嫁企画センター,,株式会社,茨城県,結城郡八千代町,大字菅谷６３７番地の１,,08,521,3003572,,,2024-10-02,清算の結了等,,,2015-10-05,1,,,,,ハナヨメキカクセンター,0
1496,6050001042972,登記記録の閉鎖等,0,2024-10-15,2024-10-03,株式会社ＲＹＵＴＥＣ,,株式会社,茨城県,つくば市,みどりの南３９番地１,,08,220,3050884,,,2024-10-03,清算の結了等,,,2017-06-13,1,,,,,リューテック,0
1503,6060001022932,登記記録の閉鎖等,0,2024-10-15,2024-10-07,東日健給食株式会社,,株式会社,栃木県,栃木市,野中町１３５２番地１１,,09,203,3280124,,,2024-10-07,清算の結了等,,,2015-10-05,1,,,,,ヒガシニッケンキュウショク,0
1508,6070005002632,登記記録の閉鎖等,0,2024-10-15,2024-10-09,群高酒販協同組合,,その他の設立登記法人,群馬県,高崎市,問屋町２丁目８番地の６,,10,202,3700006,,,2024-10-09,清算の結了等,,,2015-10-05,1,,,,,グンタカシュハン,0
1555,6140001088734,登記記録の閉鎖等,0,2024-10-15,2024-10-09,ブランクハウス株式会社,,株式会社,兵庫県,芦屋市,春日町１番１号,,28,206,6590021,,,2024-10-09,清算の結了等,,,2015-10-05,1,,,,,ブランクハウス,0
1575,6180001033174,登記記録の閉鎖等,0,2024-10-15,2024-09-30,株式会社ヤスエ,,株式会社,愛知県,名古屋市中村区,若宮町１丁目２番地,,23,105,4530023,,,2024-09-30,清算の結了等,,,2015-10-05,1,,,,,ヤスエ,0
1576,6180001058270,登記記録の閉鎖等,0,2024-10-15,2024-09-30,ツチヤ商運株式会社,,株式会社,愛知県,名古屋市西区,赤城町１５９番地,,23,104,4520813,,,2024-09-30,清算の結了等,,,2015-10-05,1,,,,,ツチヤショウウン,0
1577,6180001092096,登記記録の閉鎖等,0,2024-10-15,2024-10-03,株式会社名鉄知多バス旅行,,株式会社,愛知県,半田市,住吉町２丁目１６３番地の７,,23,205,4750862,,,2024-10-03,合併による解散等,8180001091831,令和６年１０月１日愛知県半田市住吉町二丁目１６３番地の７知多乗合株式会社（8180001091831）に合併し解散,2015-10-05,1,,,,,メイテツチタバスリョコウ,0
1584,6180002065126,登記記録の閉鎖等,0,2024-10-15,2024-09-26,有限会社伊藤商会,,有限会社,愛知県,春日井市,梅ケ坪町１６番地,,23,206,4860856,,,2024-09-26,清算の結了等,,,2015-10-05,1,,,,,イトウショウカイ,0
1590,6180303002983,登記記録の閉鎖等,0,2024-10-15,2024-10-03,合同会社わふう,,合同会社,愛知県,蒲郡市,三谷北通５丁目１７３番地ローズコートＩ１０２,00075322,23,214,4430022,,,2024-10-03,清算の結了等,,,2015-10-05,1,,,,,ワフウ,0
1591,6180303004030,登記記録の閉鎖等,0,2024-10-15,2024-10-07,合同会社ロビンズネスト,,合同会社,愛知県,豊田市,西中山町新左屋敷６９番地,,23,211,4700431,,,2024-10-07,清算の結了等,,,2018-03-15,1,,,,,ロビンズネスト,0
1592,6180305000738,登記記録の閉鎖等,0,2024-10-15,2024-10-07,医療法人平静心会,,その他の設立登記法人,愛知県,岡崎市,北野町字二番訳７５番地１,,23,202,4440951,,,2024-10-07,清算の結了等,,,2015-10-05,1,,,,,ヘイセイシンカイ,0
1593,6190003001517,登記記録の閉鎖等,0,2024-10-15,2024-10-08,合同会社笑,,合同会社,三重県,桑名市,多度町多度１８８番地１,,24,205,5110106,,,2024-10-08,清算の結了等,,,2015-10-05,1,,,,,ショウ,0
1596,6200001036752,登記記録の閉鎖等,0,2024-10-15,2024-09-30,株式会社ＧＥＮＴ,,株式会社,愛知県,小牧市,大字舟津１０４８番地１,,23,219,4850073,,,2024-09-30,清算の結了等,,,2019-10-16,1,,,,,ジェント,0
1600,6200005000556,登記記録の閉鎖等,0,2024-10-15,2024-10-10,金動寺,,その他の設立登記法人,岐阜県,岐阜市,芥見長山１丁目１９７番地,,21,201,5013132,,,2024-10-10,清算の結了等,,,2015-10-05,1,,,,,コンドウジ,0
1602,6220002010309,登記記録の閉鎖等,0,2024-10-15,2024-10-07,有限会社永水,,有限会社,石川県,小松市,本江町ホ１番地,,17,203,9230841,,,2024-10-07,清算の結了等,,,2015-10-05,1,,,,,エイスイ,0
1621,6290001044409,登記記録の閉鎖等,0,2024-10-15,2024-09-02,株式会社ＫＡＢＵ仮設,,株式会社,福岡県,朝倉郡筑前町,当所２００番地３,,40,447,8380803,,,2024-09-02,清算の結了等,,,2015-10-05,1,,,,,カブカセツ,0
1623,6290001075841,登記記録の閉鎖等,0,2024-10-15,2024-09-06,鮨かんび株式会社,,株式会社,福岡県,福岡市博多区,綱場町１番１１号,,40,132,8120024,,,2024-09-06,清算の結了等,,,2016-11-17,1,,,,,スシカンビ,0
1628,6290001088835,登記記録の閉鎖等,0,2024-10-15,2024-09-05,塚田不動産株式会社,,株式会社,福岡県,糟屋郡志免町,王子１丁目１７番２５号,,40,343,8112209,,,2024-09-05,清算の結了等,,,2020-05-26,1,,,,,ツカダフドウサン,0
1650,6310002020653,登記記録の閉鎖等,0,2024-10-15,2024-10-02,有限会社山下組,,有限会社,長崎県,五島市,岐宿町中嶽２３４番地３,,42,211,8530312,,,2024-10-02,清算の結了等,,,2015-10-05,1,,,,,ヤマシタグミ,0
1662,6380002022437,登記記録の閉鎖等,0,2024-10-15,2024-09-30,有限会社いわさ冷熱工業,,有限会社,福島県,いわき市,石森２丁目１９番地の１２,,07,204,9708017,,,2024-09-30,清算の結了等,,,2015-10-05,1,,,,,イワサレイネツコウギョウ,0
1670,6430001055151,登記記録の閉鎖等,0,2024-10-15,2024-10-09,株式会社ナビオン,,株式会社,北海道,札幌市北区,屯田五条１丁目５番２９号,,01,102,0020855,,,2024-10-09,清算の結了等,,,2015-10-05,1,,,,,ナビオン,0
1674,6440002002663,登記記録の閉鎖等,0,2024-10-15,2024-10-08,有限会社タスクフォース,,有限会社,北海道,函館市,本通１丁目１７番２号,,01,202,0410851,,,2024-10-08,清算の結了等,,,2015-10-05,1,,,,,,0
1676,6470003000738,登記記録の閉鎖等,0,2024-10-15,2024-10-08,合同会社五光,,合同会社,香川県,小豆郡土庄町,甲６１９０番地６,,37,322,7614101,,,2024-10-08,清算の結了等,,,2015-10-05,1,,,,,ゴコウ,0
1684,6700150016546,登記記録の閉鎖等,0,2024-10-15,2024-06-28,みのぶうどん生産組合,,その他,山梨県,南巨摩郡身延町,西嶋３８０,,19,365,4093301,,,2024-06-28,その他の清算の結了等,,,2015-10-09,1,,,,,ミノブウドンセイサンクミアイ,0
1685,6700150065592,登記記録の閉鎖等,0,2024-10-15,2023-03-31,長者井堰土地改良区,,その他,宮崎県,小林市,堤１０８－１,,45,205,8860003,,,2023-03-31,その他の清算の結了等,,,2015-10-09,1,,,,,チヨウジヤイセキトチカイリヨウク,0
1686,7010001051786,登記記録の閉鎖等,0,2024-10-15,2024-10-01,日鉄エポキシ製造株式会社,,株式会社,東京都,中央区,日本橋１丁目１３番１号,,13,102,1030027,,,2024-10-01,合併による解散等,9010001098041,令和６年１０月１日東京都中央区日本橋一丁目１３番１号日鉄ケミカル＆マテリアル株式会社（9010001098041）に合併し解散,2015-10-05,1,,,,,ニッテツエポキシセイゾウ,0
1712,7010605002697,登記記録の閉鎖等,0,2024-10-15,2024-10-01,一般社団法人日本メンタルヘルス研究センター,,その他の設立登記法人,東京都,港区,港南２丁目５番４号,,13,103,1080075,,,2024-10-01,清算の結了等,,,2015-10-05,1,,,,,ニホンメンタルヘルスケンキュウセンター,0
1722,7011001067764,登記記録の閉鎖等,0,2024-10-15,2024-10-09,株式会社高橋プランニング,,株式会社,東京都,港区,元麻布３丁目２番１９号,,13,103,1060046,,,2024-10-09,合併による解散等,9010001213707,令和６年１０月１日北海道夕張市沼ノ沢５１０番地１１株式会社ＤＡＤＡＣＡ（9010001213707）に合併し解散,2015-10-05,1,,,,,タカハシプランニング,0
1735,7011101058837,登記記録の閉鎖等,0,2024-10-15,2024-10-08,株式会社キョーシン,,株式会社,東京都,足立区,加平１丁目２－３３－１０３,,13,121,1210055,,,2024-10-08,合併による解散等,4011101081775,令和６年９月２１日東京都新宿区住吉町２番１８－２０４号株式会社オフィスＮＴ（4011101081775）に合併し解散,2015-10-05,1,,,,,,0
1739,7011202012387,登記記録の閉鎖等,0,2024-10-15,2024-10-10,有限会社エムズ,,有限会社,東京都,中野区,野方２丁目５９番４号,,13,114,1650027,,,2024-10-10,清算の結了等,,,2015-10-05,1,,,,,エムズ,0
1744,7011702014395,登記記録の閉鎖等,0,2024-10-15,2024-10-07,有限会社味季,,有限会社,東京都,江戸川区,船堀３丁目１３番１２号,,13,123,1340091,,,2024-10-07,清算の結了等,,,2015-10-05,1,,,,,ミキ,0
1745,7011801001781,登記記録の閉鎖等,0,2024-10-15,2024-10-03,株式会社相模屋本店,,株式会社,東京都,葛飾区,立石７丁目２番２号,,13,122,1240012,,,2024-10-03,清算の結了等,,,2015-10-05,1,,,,,サガミヤホンテン,0
1746,7011801012812,登記記録の閉鎖等,0,2024-10-15,2024-10-07,株式会社山本舞台製作所,,株式会社,東京都,足立区,梅島１丁目３１番１５号,,13,121,1210816,,,2024-10-07,清算の結了等,,,2015-10-05,1,,,,,ヤマモトブタイセイサクジョ,0
1755,7012403003084,登記記録の閉鎖等,0,2024-10-15,2024-10-11,アバロックスジャパン合同会社,,合同会社,東京都,府中市,本町１丁目５番地の７,,13,206,1830027,,,2024-10-11,清算の結了等,,,2017-05-18,1,,,,,アバロックスジャパン,0
1758,7013301009719,登記記録の閉鎖等,0,2024-10-15,2024-10-01,野崎自動車株式会社,,株式会社,東京都,豊島区,巣鴨１丁目１７番８号,,13,116,1700002,,,2024-10-01,合併による解散等,4013301009721,令和６年１０月１日東京都豊島区巣鴨一丁目１７番１号野崎不動産住宅株式会社（4013301009721）に合併し解散,2015-10-05,1,,,,,ノザキジドウシャ,0
1765,7020001060563,登記記録の閉鎖等,0,2024-10-15,2024-09-27,株式会社ウィズ・ソフトウェア,,株式会社,神奈川県,横浜市神奈川区,三ツ沢南町７番５５号,,14,102,2210854,,,2024-09-27,清算の結了等,,,2015-10-05,1,,,,,ウィズソフトウェア,0
1767,7020001076452,登記記録の閉鎖等,0,2024-10-15,2024-10-15,株式会社アヘッド,,株式会社,東京都,武蔵野市,吉祥寺本町２丁目８番４号ｉ－ｏｆｆｉｃｅ吉祥寺,,13,203,1800004,,,2024-10-15,清算の結了等,,,2015-10-05,1,,,,,アヘッド,0
1769,7020001111300,登記記録の閉鎖等,0,2024-10-15,2024-09-30,タムラフードサービス株式会社,,株式会社,神奈川県,横浜市神奈川区,大口通１２４番地２朝日プラザ大口１０５号,,14,102,2210002,,,2024-09-30,清算の結了等,,,2015-10-05,1,,,,,タムラフードサービス,0
1795,7030001097183,登記記録の閉鎖等,0,2024-10-15,2024-10-07,株式会社エムショウテック,,株式会社,埼玉県,草加市,氷川町９４６番地,,11,221,3400034,,,2024-10-07,清算の結了等,,,2015-10-05,1,,,,,エムショウテック,0
1796,7030001103305,登記記録の閉鎖等,0,2024-10-15,2024-10-07,プロスメッド株式会社,,株式会社,埼玉県,さいたま市中央区,大戸１丁目２０番６号,,11,105,3380012,,,2024-10-07,清算の結了等,,,2015-10-05,1,,,,,プロスメッド,0
1797,7030001122560,登記記録の閉鎖等,0,2024-10-15,2024-10-03,プロパティ・ケア・パートナーズ株式会社,,株式会社,埼玉県,さいたま市中央区,新都心１１番地２ランド・アクシス・タワー２９階,,11,105,3300081,,,2024-10-03,合併による解散等,8030001016844,令和６年１０月１日埼玉県さいたま市中央区新都心１１番地２ランド・アクシス・タワー２９階プロパティ・ケア・パートナーズ株式会社（8030001016844）に合併し解散,2017-10-18,1,,,,,プロパティケアパートナーズ,0
1804,7030002054522,登記記録の閉鎖等,0,2024-10-15,2024-10-07,有限会社並木新聞店,,有限会社,埼玉県,上尾市,大字今泉３３４番地２,,11,219,3620047,,,2024-10-07,清算の結了等,,,2015-10-05,1,,,,,ナミキシンブンテン,0
1806,7030003021389,登記記録の閉鎖等,0,2024-10-15,2024-10-03,合同会社梅ノ木システムラボ,,合同会社,埼玉県,新座市,大和田１丁目１５番３号,,11,230,3520004,,,2024-10-03,清算の結了等,,,2023-03-17,1,,,,,ウメノキシステムラボ,0
1812,7040001060454,登記記録の閉鎖等,0,2024-10-15,2024-10-01,株式会社新生,,株式会社,千葉県,茂原市,八幡原２０７番地３,,12,210,2970054,,,2024-10-01,清算の結了等,,,2015-10-05,1,,,,,シンセイ,0
1817,7040002056625,登記記録の閉鎖等,0,2024-10-15,2024-10-04,有限会社横浜インポートサービス,,有限会社,千葉県,成田市,加良部６丁目６番地１（６１０号）,,12,211,2860036,,,2024-10-04,清算の結了等,,,2015-10-05,1,,,,,ヨコハマインポートサービス,0
1818,7040002067077,登記記録の閉鎖等,0,2024-10-15,2024-10-07,有限会社太陽産業,,有限会社,千葉県,木更津市,曽根１６１番地１,,12,206,2920027,,,2024-10-07,清算の結了等,,,2015-10-05,1,,,,,タイヨウサンギョウ,0
1827,7060002034182,登記記録の閉鎖等,0,2024-10-15,2024-10-09,有限会社永幸,,有限会社,栃木県,下都賀郡壬生町,幸町２丁目５番９号,,09,361,3210203,,,2024-10-09,清算の結了等,,,2015-10-05,1,,,,,エイコウ,0
1835,7080401010781,登記記録の閉鎖等,0,2024-10-15,2024-10-07,株式会社松本組,,株式会社,静岡県,浜松市天竜区,二俣町二俣３１８番地の１,,22,140,4313314,,,2024-10-07,清算の結了等,,,2015-10-05,1,,,,,マツモトグミ,0
1843,7100001002549,登記記録の閉鎖等,0,2024-10-15,2024-10-01,長野陸送株式会社,,株式会社,長野県,長野市,日詰１４０１番地,,20,201,3810000,,,2024-10-01,合併による解散等,1100001001291,令和６年１０月１日長野県須坂市井上９２７番地３炭平ロジスティクス株式会社（1100001001291）に合併し解散,2015-10-05,1,,,,,ナガノリクソウ,0
1862,7120101059124,登記記録の閉鎖等,0,2024-10-15,2024-10-07,株式会社アッシュ,,株式会社,大阪府,大阪市中央区,松屋町住吉２－９－３０１,,27,128,5400017,,,2024-10-07,清算の結了等,,,2018-12-05,1,,,,,アッシュ,0
1874,7140001124455,登記記録の閉鎖等,0,2024-10-15,2024-10-08,株式会社トシモス,,株式会社,兵庫県,宝塚市,長尾台１丁目１６番１３号,,28,214,6650807,,,2024-10-08,清算の結了等,,,2022-01-07,1,,,,,トシモス,0
1883,7180001045193,登記記録の閉鎖等,0,2024-10-15,2024-09-30,カー・アンド・サービス株式会社,,株式会社,愛知県,清須市,春日砂賀東１１４番地,,23,233,4520962,,,2024-09-30,清算の結了等,,,2015-10-05,1,,,,,カーアンドサービス,0
1888,7180001138286,登記記録の閉鎖等,0,2024-10-15,2024-09-30,株式会社ジョイオーソ,,株式会社,愛知県,名古屋市天白区,表山１丁目１１２番地山口ビルＢ１Ｆ,,23,116,4680069,,,2024-09-30,清算の結了等,,,2019-10-08,1,,,,,ジョイオーソ,0
1899,7180003016952,登記記録の閉鎖等,0,2024-10-15,2024-09-26,合同会社エムリーズン,,合同会社,愛知県,春日井市,八事町３丁目２２番２号ロシェ１０１,,23,206,4860836,,,2024-09-26,清算の結了等,,,2016-03-09,1,,,,,エムリーズン,0
1902,7180005015309,登記記録の閉鎖等,0,2024-10-15,2024-10-08,特定非営利活動法人若手人材支援ネットワークＳＴＡＮＤＵＰ,,その他の設立登記法人,愛知県,名古屋市中区,錦３丁目４番６号桜通大津第一生命ビルディング１１Ｆ,,23,106,4600003,,,2024-10-08,清算の結了等,,,2015-10-05,1,,,,,ワカテジンザイシエンネットワークスタンドアップ,0
1904,7180302009806,登記記録の閉鎖等,0,2024-10-15,2024-10-04,有限会社マツテック,,有限会社,愛知県,豊橋市,天伯町字竜ケ丘８８番地の５,,23,201,4418122,,,2024-10-04,清算の結了等,,,2015-10-05,1,,,,,マツテック,0
1921,7260001027605,登記記録の閉鎖等,0,2024-10-15,2024-10-01,株式会社クロスアワー,,株式会社,岡山県,岡山市南区,宮浦２７９４番地,,33,104,7028014,,,2024-10-01,合併による解散等,5260001024686,令和６年１０月１日岡山市南区宮浦２７９４番地株式会社アウトサイダー（5260001024686）に合併し解散,2015-10-05,1,,,,,クロスアワー,0
1952,7370001048763,登記記録の閉鎖等,0,2024-10-15,2024-09-27,ライナスフォース株式会社,,株式会社,宮城県,仙台市宮城野区,新田５丁目９番１２号,,04,102,9830038,,,2024-09-27,清算の結了等,,,2022-07-05,1,,,,,ライナスフォース,0
1953,7380001009203,登記記録の閉鎖等,0,2024-10-15,2024-10-01,ベル石岡株式会社,,株式会社,茨城県,石岡市,石岡２丁目１６番地１,,08,205,3150001,,,2024-10-01,合併による解散等,9380001010051,令和６年１０月１日茨城県土浦市田中一丁目６番１２号ベル守谷株式会社（9380001010051）に合併し解散,2015-10-05,1,,,,,ベルイシオカ,0
1955,7380002020951,登記記録の閉鎖等,0,2024-10-15,2024-09-30,有限会社瀬谷精密機械工業,,有限会社,福島県,石川郡石川町,大字中田字八又１９１番地,,07,501,9637803,,,2024-09-30,清算の結了等,,,2015-10-05,1,,,,,セヤセイミツキカイコウギョウ,0
1964,7700150019705,登記記録の閉鎖等,0,2024-10-15,2024-06-25,そば処かみざくら管理組合,,その他,栃木県,塩谷郡塩谷町,大字船生３７３３－１,,09,384,3292441,,,2024-06-25,その他の清算の結了等,,,2015-10-09,1,,,,,ソバドコロカミザクラカンリクミアイ,0
1965,7700150047821,登記記録の閉鎖等,0,2024-10-15,2024-03-09,高島屋南市街地再開発組合,,その他,岐阜県,岐阜市,神田町６丁目７番地２,,21,201,5008833,,,2024-03-09,その他の清算の結了等,,,2015-10-09,1,,,,,タカシマヤミナミシガイチサイカイハツクミアイ,0
1966,7700150065609,登記記録の閉鎖等,0,2024-10-15,2023-03-31,平川土地改良区,,その他,宮崎県,小林市,細野８８３番地１,,45,205,8860004,,,2023-03-31,その他の清算の結了等,,,2015-10-09,1,,,,,ヒラカワトチカイリヨウク,0
1967,7700150105901,登記記録の閉鎖等,0,2024-10-15,2024-06-30,Ｐｅａｃｈｂｏｙｓ,,その他,東京都,多摩市,関戸３丁目２－２２関戸三丁目アパート１－６０３,,13,224,2060011,,,2024-06-30,その他の清算の結了等,,,2021-11-19,1,,,,,ピーチボーイズ,0
1969,8010001087086,登記記録の閉鎖等,0,2024-10-15,2024-09-25,株式会社インスパージャパン,,株式会社,東京都,新宿区,歌舞伎町２丁目３－２１,,13,104,1600021,,,2024-09-25,清算の結了等,,,2015-10-05,1,,,,,インスパージャパン,0
1974,8010001216644,登記記録の閉鎖等,0,2024-10-15,2024-09-30,株式会社ｍｏｔｏ　ｉｎｃｕｂａｔｅ,,株式会社,東京都,中央区,銀座６丁目１０番１号ＧＩＮＺＡＳＩＸ１３Ｆ,,13,102,1040061,,,2024-09-30,合併による解散等,4010001204693,令和６年９月３０日東京都中央区銀座六丁目１０番１号ＧＩＮＺＡＳＩＸ１３ＦＨＩＲＥＤ株式会社（4010001204693）に合併し解散,2021-03-22,1,,,,,モトインキュベイト,0
1978,8010001242789,登記記録の閉鎖等,0,2024-10-15,2024-09-30,ＴＰＣ株式会社,,株式会社,東京都,中央区,勝どき４丁目６－２,,13,102,1040054,,,2024-09-30,合併による解散等,4010701024367,令和６年９月３０日東京都中央区勝どき四丁目６番２号東京石油興業株式会社（4010701024367）に合併し解散,2024-03-05,1,,,,,ティーピーシー,0
2004,8010601046706,登記記録の閉鎖等,0,2024-10-15,2024-10-07,株式会社ユンク,,株式会社,東京都,墨田区,業平５丁目１０番１２号,,13,107,1300002,,,2024-10-07,清算の結了等,,,2015-10-05,1,,,,,ユンク,0
2027,8011102020398,登記記録の閉鎖等,0,2024-10-15,2024-10-02,有限会社ケイ・クリエイティブ,,有限会社,東京都,新宿区,白銀町５番１７号,,13,104,1620816,,,2024-10-02,清算の結了等,,,2015-10-05,1,,,,,ケイクリエイティブ,0
2031,8011105006295,登記記録の閉鎖等,0,2024-10-15,2024-10-02,医療法人社団ＳＫ医新会,,その他の設立登記法人,東京都,新宿区,市谷本村町７番４－９０８号,,13,104,1620845,,,2024-10-02,清算の結了等,,,2015-10-05,1,,,,,エスケーイシンカイ,0
2033,8011301019984,登記記録の閉鎖等,0,2024-10-15,2024-10-08,株式会社サキタケ,,株式会社,東京都,杉並区,上井草１丁目１４番７号,,13,115,1670023,,,2024-10-08,清算の結了等,,,2015-10-05,1,,,,,サキタケ,0
2039,8011701018842,登記記録の閉鎖等,0,2024-10-15,2024-10-08,株式会社ランドスケープ,,株式会社,東京都,江戸川区,松本２丁目３７番２号,,13,123,1330043,,,2024-10-08,清算の結了等,,,2015-10-05,1,,,,,ランドスケープ,0
2044,8011801015293,登記記録の閉鎖等,0,2024-10-15,2024-10-07,オーガニックテーブル株式会社,,株式会社,東京都,足立区,島根２丁目２７番３号,,13,121,1210815,,,2024-10-07,清算の結了等,,,2015-10-05,1,,,,,,0
2048,8011802005640,登記記録の閉鎖等,0,2024-10-15,2024-10-07,有限会社豊宮鋳造所,,有限会社,東京都,葛飾区,西新小岩４丁目８番３号,,13,122,1240025,,,2024-10-07,清算の結了等,,,2015-10-05,1,,,,,,0
2055,8012803003261,登記記録の閉鎖等,0,2024-10-15,2024-10-01,ＬＩＦＡＣＴ合同会社,,合同会社,東京都,昭島市,朝日町２丁目４番１９－３０１号,,13,207,1960025,,,2024-10-01,清算の結了等,,,2023-12-18,1,,,,,リファクト,0
2069,8020001033997,登記記録の閉鎖等,0,2024-10-15,2024-09-30,ビージェービー株式会社,,株式会社,神奈川県,横浜市都筑区,中川中央２丁目５番９号,,14,118,2240003,,,2024-09-30,清算の結了等,,,2015-10-05,1,,,,,ビージェービー,0
2072,8020001093315,登記記録の閉鎖等,0,2024-10-15,2024-09-30,株式会社ワイ・エス・グッド,,株式会社,神奈川県,横浜市神奈川区,千若町２丁目１番地５０,,14,102,2210036,,,2024-09-30,合併による解散等,2020001026239,令和６年９月３０日神奈川県横浜市神奈川区千若町二丁目１番地５０京濱港運株式会社（2020001026239）に合併し解散,2015-10-05,1,,,,,ワイエスグッド,0
2077,8020002006829,登記記録の閉鎖等,0,2024-10-15,2024-09-30,有限会社東山田酒店,,有限会社,神奈川県,横浜市都筑区,東山田２丁目２９番１２号,,14,118,2240023,,,2024-09-30,清算の結了等,,,2015-10-05,1,,,,,ヒガシヤマタサケテン,0
2081,8020002059430,登記記録の閉鎖等,0,2024-10-15,2024-09-30,有限会社米山コーポレーション,,有限会社,神奈川県,横浜市港南区,港南台８丁目３４番４号,,14,111,2340054,,,2024-09-30,清算の結了等,,,2015-10-05,1,,,,,,0
2083,8020003007669,登記記録の閉鎖等,0,2024-10-15,2024-09-30,合同会社ワイズ・ユース,,合同会社,神奈川県,横浜市戸塚区,矢部町６４５番地１１（３階）,,14,110,2440002,,,2024-09-30,清算の結了等,,,2015-10-05,1,,,,,ワイズユース,0
2084,8020003009186,登記記録の閉鎖等,0,2024-10-15,2024-09-30,三樹工業合同会社,,合同会社,神奈川県,川崎市中原区,下小田中２丁目２３番７号,,14,133,2110041,,,2024-09-30,清算の結了等,,,2015-10-05,1,,,,,サンキコウギョウ,0
2109,8040002038044,登記記録の閉鎖等,0,2024-10-15,2024-10-04,有限会社鈴正工務店,,有限会社,千葉県,鎌ケ谷市,軽井沢２０２８番地,,12,224,2730131,,,2024-10-04,清算の結了等,,,2015-10-05,1,,,,,スズショウコウムテン,0
2116,8060001020430,登記記録の閉鎖等,0,2024-10-15,2024-10-09,新建産業株式会社,,株式会社,栃木県,佐野市,越名町１０９５番地３,,09,204,3270822,,,2024-10-09,清算の結了等,,,2015-10-05,1,,,,,シンケンサンギョウ,0
2126,8080003001674,登記記録の閉鎖等,0,2024-10-15,2024-10-07,合同会社山吹,,合同会社,静岡県,藤枝市,岡部町三輪１１２６番地の１６,,22,214,4211132,,,2024-10-07,清算の結了等,,,2015-10-05,1,,,,,ヤマブキ,0
2134,8120001016827,登記記録の閉鎖等,0,2024-10-15,2024-10-07,井手食品株式会社,,株式会社,大阪府,大阪市生野区,生野東３丁目１０番３号,,27,116,5440025,,,2024-10-07,清算の結了等,,,2015-10-05,1,,,,,,0
2135,8120001149222,登記記録の閉鎖等,0,2024-10-15,2024-10-11,株式会社大平商店,,株式会社,大阪府,枚方市,伊加賀南町２番１１号,,27,210,5730053,,,2024-10-11,清算の結了等,,,2015-10-05,1,,,,,オオヒラショウテン,0
2147,8120101020753,登記記録の閉鎖等,0,2024-10-15,2024-10-10,大阪第一トラベル株式会社,,株式会社,大阪府,堺市堺区,神南辺町１丁４５番地の１,,27,141,5900984,,,2024-10-10,清算の結了等,,,2015-10-05,1,,,,,オオサカダイイチトラベル,0
2149,8120101056921,登記記録の閉鎖等,0,2024-10-15,2024-10-10,株式会社ジン・テック,,株式会社,大阪府,堺市西区,鳳東町１丁７０番地１－２階,,27,144,5938324,,,2024-10-10,清算の結了等,,,2017-08-04,1,,,,,,0
2163,8130002024258,登記記録の閉鎖等,0,2024-10-15,2024-10-09,有限会社Ｃ．Ｓ．Ｓ,,有限会社,京都府,京都市北区,紫野中柏野町１２番地１５,,26,101,6038312,,,2024-10-09,清算の結了等,,,2015-10-05,1,,,,,シーエスエス,0
2165,8140001001001,登記記録の閉鎖等,0,2024-10-15,2024-10-07,エスペックテストシステム株式会社,,株式会社,兵庫県,神戸市東灘区,住吉宮町５丁目１０番１８号,,28,101,6580053,,,2024-10-07,合併による解散等,3030001143115,令和６年１０月１日埼玉県戸田市美女木東一丁目２番地の１５エスペックサーマルテックシステム株式会社（3030001143115）に合併し解散,2015-10-05,1,,,,,エスペックテストシステム,0
2167,8140002023052,登記記録の閉鎖等,0,2024-10-15,2024-10-08,有限会社神嘉,,有限会社,兵庫県,神戸市西区,井吹台北町４丁目９番地の１５,,28,111,6512244,,,2024-10-08,清算の結了等,,,2015-10-05,1,,,,,カミヨシ,0
2171,8150005002944,登記記録の閉鎖等,0,2024-10-15,2024-10-10,奈良県内地材製材協同組合,,その他の設立登記法人,奈良県,天理市,西長柄町６７６番地,,29,204,6320063,,,2024-10-10,清算の結了等,,,2015-10-05,1,,,,,ナラケンナイチザイセイザイ,0
2180,8180001116349,登記記録の閉鎖等,0,2024-10-15,2024-09-30,株式会社Ｈ＆Ｎ,,株式会社,愛知県,犬山市,内田東町４番地１２,,23,215,4840071,,,2024-09-30,清算の結了等,,,2015-10-05,1,,,,,エイチアンドエヌ,0
2187,8180002026290,登記記録の閉鎖等,0,2024-10-15,2024-09-26,有限会社日文,,有限会社,愛知県,名古屋市緑区,鳴海町字栢ノ木３番地,,23,114,4580801,,,2024-09-26,清算の結了等,,,2015-10-05,1,,,,,ニチブン,0
2189,8180002065108,登記記録の閉鎖等,0,2024-10-15,2024-09-24,有限会社伊東印刷,,有限会社,愛知県,春日井市,牛山町２１７５番地の４,,23,206,4860901,,,2024-09-24,清算の結了等,,,2015-10-05,1,,,,,,0
2191,8180301008353,登記記録の閉鎖等,0,2024-10-15,2024-10-10,サンエンジニアリングサービス株式会社,,株式会社,愛知県,豊橋市,磯辺下地町字葭山７番地,,23,201,4418144,,,2024-10-10,清算の結了等,,,2015-10-05,1,,,,,サンエンジニアリングサービス,0
2192,8180303005373,登記記録の閉鎖等,0,2024-10-15,2024-10-04,合同会社姫愛,,合同会社,愛知県,西尾市,吉良町荻原一番割８５番地２,,23,213,4440524,,,2024-10-04,清算の結了等,,,2022-06-27,1,,,,,キア,0
2197,8210001010069,登記記録の閉鎖等,0,2024-10-15,2024-10-09,株式会社タシロアソシエイツ,,株式会社,福井県,福井市,加茂河原３丁目４番２３号,,18,201,9188057,,,2024-10-09,清算の結了等,,,2015-10-05,1,,,,,タシロアソシエイツ,0
2204,8240001030989,登記記録の閉鎖等,0,2024-10-15,2024-10-07,株式会社伸和,,株式会社,広島県,福山市,千田町千田２６２６番地１,,34,207,7200017,,,2024-10-07,清算の結了等,,,2015-10-05,1,,,,,シンワ,0
2207,8250002016994,登記記録の閉鎖等,0,2024-10-15,2024-10-08,有限会社松樹園,,有限会社,山口県,光市,大字浅江９２９番地の１３３,,35,210,7430021,,,2024-10-08,清算の結了等,,,2015-10-05,1,,,,,ショウジュエン,0
2209,8250003001211,登記記録の閉鎖等,0,2024-10-15,2024-10-01,合同会社ＮＡＲＲＯＷＳ,,合同会社,山口県,下関市,椋野町２丁目１２番３７号,,35,201,7510816,,,2024-10-01,合併による解散等,9250003000798,令和６年９月２０日山口県下関市椋野町二丁目１２番３７号合同会社オッキー（9250003000798）に合併し解散,2015-10-05,1,,,,,ナローズ,0
2216,8280002006159,登記記録の閉鎖等,0,2024-10-15,2024-10-09,有限会社渡部燃料,,有限会社,島根県,出雲市,今市町１９番地２３,,32,203,6930001,,,2024-10-09,清算の結了等,,,2015-10-05,1,,,,,ワタナベネンリョウ,0
2230,8290002050164,登記記録の閉鎖等,0,2024-10-15,2024-09-03,有限会社村山システムコーポレーション,,有限会社,福岡県,久留米市,野中町９１９番地２,,40,203,8390862,,,2024-09-03,清算の結了等,,,2015-10-05,1,,,,,ムラヤマシステムコーポレーション,0
2237,8310001004143,登記記録の閉鎖等,0,2024-10-15,2024-10-04,株式会社ＢｉＢｉジャパン,,株式会社,長崎県,西彼杵郡時津町,浜田郷６６９番地２８,,42,308,8512102,,,2024-10-04,清算の結了等,,,2015-10-05,1,,,,,ビビジャパン,0
2247,8350001006227,登記記録の閉鎖等,0,2024-10-15,2024-10-07,株式会社レイクランド西郷,,株式会社,宮崎県,東臼杵郡美郷町,西郷田代５８１２番地１,,45,431,8831101,,,2024-10-07,清算の結了等,,,2015-10-05,1,,,,,レイクランドサイゴウ,0
2256,8370802001069,登記記録の閉鎖等,0,2024-10-15,2024-09-13,有限会社邦友工務店,,有限会社,宮城県,岩沼市,寺島字押切１３４番地,,04,211,9892425,,,2024-09-13,清算の結了等,,,2015-10-05,1,,,,,ホウユウコウムテン,0
2263,8430001033659,登記記録の閉鎖等,0,2024-10-15,2024-10-07,株式会社滝川,,株式会社,北海道,北広島市,大曲工業団地２丁目２番地１１,,01,234,0611274,,,2024-10-07,合併による解散等,6430001009883,令和６年１０月１日札幌市白石区東札幌一条四丁目１番３９号株式会社滝川自工（6430001009883）に合併し解散,2015-10-05,1,,,,,タキカワ,0
2268,8450002011802,登記記録の閉鎖等,0,2024-10-15,2024-10-09,有限会社近代塗装,,有限会社,北海道,留萌市,南町４丁目７３番地,,01,212,0770014,,,2024-10-09,清算の結了等,,,2015-10-05,1,,,,,キンダイトソウ,0
2269,8460101000184,登記記録の閉鎖等,0,2024-10-15,2024-10-09,株式会社エリア,,株式会社,北海道,帯広市,西十九条南２丁目２５番４号,,01,207,0802469,,,2024-10-09,清算の結了等,,,2015-10-05,1,,,,,エリア,0
2271,8470002010026,登記記録の閉鎖等,0,2024-10-15,2024-10-08,有限会社富永鉄工所,,有限会社,香川県,高松市,国分寺町国分９４７番地の５,,37,201,7690102,,,2024-10-08,清算の結了等,,,2015-10-05,1,,,,,トミナガテッコウショ,0
2274,8500005005770,登記記録の閉鎖等,0,2024-10-15,2024-09-30,タイガーアスファルト防水工業協同組合,,その他の設立登記法人,愛媛県,四国中央市,三島宮川１丁目８番２５号,,38,213,7990404,,,2024-09-30,清算の結了等,,,2015-10-05,1,,,,,タイガーアスファルトボウスイコウギョウ,0
2277,8700150065582,登記記録の閉鎖等,0,2024-10-15,2023-03-31,巣ノ浦土地改良区,,その他,宮崎県,小林市,堤１０８－１,,45,205,8860003,,,2023-03-31,その他の清算の結了等,,,2015-10-09,1,,,,,スノウラトチカイリヨウク,0
2291,9010401166967,登記記録の閉鎖等,0,2024-10-15,2024-09-18,株式会社ＨａｓｈＢａｎｋ,,株式会社,東京都,港区,芝浦１丁目１番１号,,13,103,1050023,,,2024-09-18,清算の結了等,,,2022-05-16,1,,,,,ハッシュバンク,0
2300,9010501032598,登記記録の閉鎖等,0,2024-10-15,2024-09-27,株式会社ＤＫアブロード,,株式会社,神奈川県,横浜市保土ケ谷区,仏向町１１８０－５４,,14,106,2400044,,,2024-09-27,清算の結了等,,,2015-10-05,1,,,,,ディーケーアブロード,0
2303,9010903001671,登記記録の閉鎖等,0,2024-10-15,2024-10-07,合同会社シェレンバウム,,合同会社,東京都,世田谷区,奥沢３丁目４５番２号,,13,112,1580083,,,2024-10-07,清算の結了等,,,2015-10-05,1,,,,,,0
2318,9011103012286,登記記録の閉鎖等,0,2024-10-15,2024-10-02,合同会社ＰＥＡＣＥ,,合同会社,東京都,新宿区,新宿１丁目１３番１２号ファーストビル５階,,13,104,1600022,,,2024-10-02,清算の結了等,,,2022-10-20,1,,,,,ピース,0
2331,9011801010871,登記記録の閉鎖等,0,2024-10-15,2024-10-07,株式会社日本リリーフサービス,,株式会社,東京都,足立区,綾瀬３丁目１５番１３号,,13,121,1200005,,,2024-10-07,清算の結了等,,,2015-10-05,1,,,,,ニホンリリーフサービス,0
2332,9011801014195,登記記録の閉鎖等,0,2024-10-15,2024-10-04,ビーエス・ライン株式会社,,株式会社,東京都,葛飾区,奥戸２丁目４番１４号,,13,122,1240022,,,2024-10-04,清算の結了等,,,2015-10-05,1,,,,,ビーエスライン,0
2333,9011801017909,登記記録の閉鎖等,0,2024-10-15,2024-10-07,株式会社エコエナジーラボ,,株式会社,東京都,足立区,島根２丁目２７番３号,,13,121,1210815,,,2024-10-07,清算の結了等,,,2015-10-05,1,,,,,エコエナジーラボ,0
2346,9013201015410,登記記録の閉鎖等,0,2024-10-15,2024-10-04,ＺＥＴＡ株式会社,,株式会社,東京都,世田谷区,三軒茶屋２丁目１１番２２号,,13,112,1540024,,,2024-10-04,合併による解散等,3010701018824,令和６年１０月１日東京都世田谷区三軒茶屋二丁目１１番２２号ＺＥＴＡ株式会社（3010701018824）に合併し解散,2015-10-05,1,,,,,ゼータ,0
2347,9013301020517,登記記録の閉鎖等,0,2024-10-15,2024-10-02,株式会社ＳＵＮシステムズ,,株式会社,東京都,豊島区,東池袋１丁目３４番５号いちご東池袋ビル６階,,13,116,1700013,,,2024-10-02,合併による解散等,6013301003086,令和６年１０月１日東京都豊島区東池袋三丁目１３番２号株式会社オルグ（6013301003086）に合併し解散,2015-10-05,1,,,,,サンシステムズ,0
2350,9013301036158,登記記録の閉鎖等,0,2024-10-15,2024-10-02,株式会社ジェネラルラーニングシステムズ,,株式会社,東京都,豊島区,南池袋３丁目１３番７号,,13,116,1710022,,,2024-10-02,清算の結了等,,,2015-10-05,1,,,,,ジェネラルラーニングシステムズ,0
2356,9020001013008,登記記録の閉鎖等,0,2024-10-15,2024-09-27,株式会社敷嶋あられ嵯峨乃家本店,,株式会社,神奈川県,横浜市南区,南吉田町５丁目４５番地,,14,105,2320012,,,2024-09-27,清算の結了等,,,2015-10-05,1,,,,,シキシマアラレサガノヤホンテン,0
2388,9030002023995,登記記録の閉鎖等,0,2024-10-15,2024-10-07,有限会社カピラス,,有限会社,埼玉県,戸田市,本町５丁目１２番３６号１Ｆ,,11,224,3350023,,,2024-10-07,清算の結了等,,,2015-10-05,1,,,,,カピラス,0
2392,9040001087264,登記記録の閉鎖等,0,2024-10-15,2024-10-07,株式会社鮨いく本,,株式会社,千葉県,佐倉市,王子台３丁目１５番地６,,12,212,2850837,,,2024-10-07,清算の結了等,,,2015-10-05,1,,,,,,0
2393,9040003015157,登記記録の閉鎖等,0,2024-10-15,2024-10-07,合同会社オフィスＫ,,合同会社,千葉県,佐倉市,山王２丁目１０番９号,,12,212,2850807,,,2024-10-07,清算の結了等,,,2020-04-06,1,,,,,オフィスケイ,0
2403,9070001006683,登記記録の閉鎖等,0,2024-10-15,2024-10-09,群馬商和株式会社,,株式会社,群馬県,高崎市,問屋町２丁目８番地の６,,10,202,3700006,,,2024-10-09,清算の結了等,,,2015-10-05,1,,,,,グンマショウワ,0
2407,9080101013414,登記記録の閉鎖等,0,2024-10-15,2024-10-08,大富運送株式会社,,株式会社,静岡県,伊東市,玖須美元和田７２７番地の６７２,,22,208,4140045,,,2024-10-08,清算の結了等,,,2015-10-05,1,,,,,オオトミウンソウ,0
2421,9120001163040,登記記録の閉鎖等,0,2024-10-15,2024-10-01,株式会社ＧＡＬＬＥＲＩＡ,,株式会社,愛知県,名古屋市中区,栄１丁目２９番２７号,,23,106,4600008,,,2024-10-01,合併による解散等,7180001113900,令和６年１０月１日名古屋市中区栄一丁目２９番２７号シンクイノベーション株式会社（7180001113900）に合併し解散,2015-10-05,1,,,,,ギャレリア,0
2424,9120001247280,登記記録の閉鎖等,0,2024-10-15,2024-10-09,株式会社ちまた,,株式会社,兵庫県,西宮市,南越木岩町１０番２５号,,28,204,6620075,,,2024-10-09,合併による解散等,9010001213707,令和６年１０月１日北海道夕張市沼ノ沢５１０番地１１株式会社ＤＡＤＡＣＡ（9010001213707）に合併し解散,2022-07-13,1,,,,,チマタ,0
2442,9122001030567,登記記録の閉鎖等,0,2024-10-15,2024-10-07,株式会社Ｒｅウォーク,,株式会社,大阪府,大阪市西区,京町堀１丁目１１番７号,,27,106,5500003,,,2024-10-07,清算の結了等,,,2017-05-09,1,,,,,リウォーク,0
2476,9180002039531,登記記録の閉鎖等,0,2024-10-15,2024-09-24,有限会社ティー・ケー・オー,,有限会社,愛知県,名古屋市北区,東水切町４丁目４８番地,,23,103,4620828,,,2024-09-24,清算の結了等,,,2015-10-05,1,,,,,ティーケーオー,0
2477,9180002092514,登記記録の閉鎖等,0,2024-10-15,2024-09-26,エヌ・ディ・シィ・サービス有限会社,,有限会社,愛知県,あま市,古道与六７３２番地の１９,,23,237,4901201,,,2024-09-26,清算の結了等,,,2015-10-05,1,,,,,エヌディシィサービス,0
2478,9180301031627,登記記録の閉鎖等,0,2024-10-15,2024-10-11,Ｄ４株式会社,,株式会社,愛知県,岡崎市,真伝吉祥１丁目２６番地１,,23,202,4443176,,,2024-10-11,清算の結了等,,,2018-06-22,1,,,,,ディーフォー,0
2480,9200002004540,登記記録の閉鎖等,0,2024-10-15,2024-10-11,有限会社まるふく,,有限会社,岐阜県,岐阜市,戎町１丁目２番地の７,,21,201,5008149,,,2024-10-11,清算の結了等,,,2015-10-05,1,,,,,マルフク,0
2494,9260001021754,登記記録の閉鎖等,0,2024-10-15,2024-10-01,東備バス株式会社,,株式会社,岡山県,瀬戸内市,牛窓町牛窓３９１１番地の３７,,33,212,7014302,,,2024-10-01,合併による解散等,7260001007086,令和６年１０月１日岡山市東区西大寺上一丁目１番５０号両備ホールディングス株式会社（7260001007086）に合併し解散,2015-10-05,1,,,,,トウビバス,0
2497,9270002000112,登記記録の閉鎖等,0,2024-10-15,2024-10-10,有限会社朝倉工務店,,有限会社,鳥取県,鳥取市,大覚寺２６番地１０,,31,201,6800863,,,2024-10-10,清算の結了等,,,2015-10-05,1,,,,,アサクラコウムテン,0
2498,9280002000243,登記記録の閉鎖等,0,2024-10-15,2024-10-11,有限会社井上楽器店,,有限会社,島根県,松江市,殿町３４１番地,,32,201,6900887,,,2024-10-11,清算の結了等,,,2015-10-05,1,,,,,イノウエガッキテン,0
2504,9290001011158,登記記録の閉鎖等,0,2024-10-15,2024-09-04,株式会社朝日建築設計事務所,,株式会社,福岡県,福岡市博多区,寿町２丁目１番９号,,40,132,8120884,,,2024-09-04,清算の結了等,,,2015-10-05,1,,,,,アサヒケンチクセッケイジムショ,0
2517,9300001010678,登記記録の閉鎖等,0,2024-10-15,2024-10-08,株式会社出口工業,,株式会社,佐賀県,藤津郡太良町,大字大浦乙４３１番地,,41,441,8491615,,,2024-10-08,清算の結了等,,,2017-02-20,1,,,,,デグチコウギョウ,0
2530,9350002012149,登記記録の閉鎖等,0,2024-10-15,2024-10-08,有限会社信用不動産,,有限会社,宮崎県,延岡市,緑ケ丘２丁目６番５号,,45,203,8820863,,,2024-10-08,清算の結了等,,,2015-10-05,1,,,,,シンヨウフドウサン,0
2538,9370001012486,登記記録の閉鎖等,0,2024-10-15,2024-09-27,ナイカイフーズ株式会社,,株式会社,宮城県,石巻市,三和町９番７号,,04,202,9862111,,,2024-09-27,清算の結了等,,,2015-10-05,1,,,,,,0
2547,9390002007954,登記記録の閉鎖等,0,2024-10-15,2024-09-27,有限会社マリッヂうえの,,有限会社,山形県,酒田市,大町８番１８号,,06,204,9980859,,,2024-09-27,清算の結了等,,,2015-10-05,1,,,,,マリッヂウエノ,0
2551,9430001037287,登記記録の閉鎖等,0,2024-10-15,2024-10-07,株式会社アズマ厨房,,株式会社,北海道,札幌市豊平区,西岡四条４丁目１１番１３号,,01,105,0620034,,,2024-10-07,清算の結了等,,,2015-10-05,1,,,,,アズマチュウボウ,0
2557,9470001011420,登記記録の閉鎖等,0,2024-10-15,2024-10-08,株式会社タイホー,,株式会社,香川県,東かがわ市,黒羽１７６番地,,37,207,7692905,,,2024-10-08,合併による解散等,9480001003400,令和６年１０月１日徳島県小松島市金磯町８番７９号株式会社ジェイテクトメタルワークス（9480001003400）に合併し解散,2015-10-05,1,,,,,タイホー,0
2570,9700150009489,登記記録の閉鎖等,0,2024-10-15,2024-05-08,人格なき社団　常盤会,,その他,東京都,板橋区,南常盤台１丁目２９－１１,,13,119,1740072,,,2024-05-08,その他の清算の結了等,,,2015-10-09,1,,,,,ジンカクナキシヤダントキワカイ,0
