sequenceNumber,corporateNumber,process,correct,updateDate,changeDate,name,nameImageId,kind,prefectureName,cityName,streetNumber,addressImageId,prefectureCode,cityCode,postCode,addressOutside,addressOutsideImageId,closeDate,closeCause,successorCorporateNumber,changeCause,assignmentDate,latest,enName,enPrefectureName,enCityName,enAddressOutside,furigana,hihyoji
6,1010101003313,登記記録の閉鎖等,0,2025-02-18,2025-02-17,ビクトリープラスチックリサーチ株式会社,,株式会社,東京都,八王子市,左入町４０１番地の１,,13,201,1920012,,,2025-02-17,清算の結了等,,,2015-10-05,1,,,,,ビクトリープラスチックリサーチ,0
14,1010405002861,登記記録の閉鎖等,0,2025-02-18,2025-02-12,特定非営利活動法人食材の寺小屋,,その他の設立登記法人,東京都,千代田区,内幸町２丁目２－１日本プレスセンタービル８４９号室,,13,101,1000011,,,2025-02-12,清算の結了等,,,2015-10-05,1,,,,,ショクザイノテラコヤ,0
15,1010405010253,登記記録の閉鎖等,0,2025-02-18,2025-02-14,マンゴスチン一般社団法人,,その他の設立登記法人,東京都,千代田区,丸の内１丁目４番１号東京共同会計事務所内,,13,101,1000005,,,2025-02-14,清算の結了等,,,2015-10-05,1,,,,,マンゴスチン,0
16,1010405012398,登記記録の閉鎖等,0,2025-02-18,2025-01-30,一般社団法人ＳＨ５５,,その他の設立登記法人,東京都,港区,芝公園１丁目３番１号留園ビル６階,,13,103,1050011,,,2025-01-30,清算の結了等,,,2015-10-05,1,,,,,エスエイチファイブファイブ,0
17,1010405013149,登記記録の閉鎖等,0,2025-02-18,2025-01-30,Ｓｕｎ　Ｓｔａｔｉｏｎ　Ｈｉｋａｒｉ　ＶＩＩ　Ｈｏｌｄｉｎｇｓ一般社団法人,,その他の設立登記法人,東京都,港区,芝公園１丁目３番１号留園ビル６階,,13,103,1050011,,,2025-01-30,清算の結了等,,,2015-10-05,1,,,,,サンステーションヒカリセブンホールディングス,0
28,1011001148529,登記記録の閉鎖等,0,2025-02-18,2025-01-21,株式会社ＣＯ’ＫＹＵ,,株式会社,東京都,渋谷区,恵比寿西１丁目９番６号ＡＳＴＲＥビル３Ｆ,,13,113,1500021,,,2025-01-21,清算の結了等,,,2022-07-11,1,,,,,コキュウ,0
50,1011802017403,登記記録の閉鎖等,0,2025-02-18,2025-02-10,有限会社濱電気,,有限会社,東京都,足立区,入谷３丁目２番８号,,13,121,1210836,,,2025-02-10,清算の結了等,,,2015-10-05,1,,,,,ハマデンキ,0
62,1020001156763,登記記録の閉鎖等,0,2025-02-18,2025-02-03,株式会社順敏,,株式会社,神奈川県,川崎市川崎区,渡田２丁目２０－４－２０３,,14,131,2100837,,,2025-02-03,清算の結了等,,,2024-04-16,1,,,,,ジュンビン,0
109,1090001011391,登記記録の閉鎖等,0,2025-02-18,2025-02-07,アルソア本社株式会社,,株式会社,山梨県,北杜市,小淵沢町２９６１番地,,19,209,4080044,,,2025-02-07,合併による解散等,7090001011799,令和７年２月７日山梨県北杜市小淵沢町１００４５番地１株式会社アルソアアイ惣社（7090001011799）に合併し解散,2015-10-05,1,,,,,アルソアホンシャ,0
116,1120001086018,登記記録の閉鎖等,0,2025-02-18,2025-02-17,株式会社ナカギリコーポレーション,,株式会社,大阪府,大阪市中央区,瓦町３丁目２番１６号,,27,128,5410048,,,2025-02-17,清算の結了等,,,2015-10-05,1,,,,,ナカギリコーポレーション,0
120,1120001163270,登記記録の閉鎖等,0,2025-02-18,2025-02-07,株式会社オータキ,,株式会社,大阪府,枚方市,西禁野２丁目１９番１７号,,27,210,5731192,,,2025-02-07,清算の結了等,,,2015-10-05,1,,,,,,0
141,1130001000877,登記記録の閉鎖等,0,2025-02-18,2025-02-13,三喜工業株式会社,,株式会社,京都府,京都市右京区,西院平町６番地,,26,108,6150022,,,2025-02-13,清算の結了等,,,2015-10-05,1,,,,,サンキコウギョウ,0
154,1180001024087,登記記録の閉鎖等,0,2025-02-18,2025-02-13,ニッケイ株式会社,,株式会社,愛知県,名古屋市天白区,原２丁目３０１番地,,23,116,4680015,,,2025-02-13,清算の結了等,,,2015-10-05,1,,,,,ニッケイ,0
155,1180001057822,登記記録の閉鎖等,0,2025-02-18,2025-02-14,株式会社チャッピー,,株式会社,愛知県,名古屋市中村区,横井１丁目２０７番地,,23,105,4530866,,,2025-02-14,清算の結了等,,,2015-10-05,1,,,,,チャッピー,0
159,1180001115662,登記記録の閉鎖等,0,2025-02-18,2025-02-12,Ｒ＆Ｍ株式会社,,株式会社,愛知県,名古屋市天白区,御幸山５１６番地の１,,23,116,4680075,,,2025-02-12,清算の結了等,,,2015-10-05,1,,,,,アールアンドエム,0
162,1180002082852,登記記録の閉鎖等,0,2025-02-18,2025-02-13,有限会社森エンジニアリング,,有限会社,愛知県,江南市,前飛保町寺町２６８番地,,23,217,4838336,,,2025-02-13,清算の結了等,,,2015-10-05,1,,,,,モリエンジニアリング,0
170,1230005002967,登記記録の閉鎖等,0,2025-02-18,2025-01-21,神明社,,その他の設立登記法人,富山県,富山市,婦中町鶚谷１７５番地,,16,201,9392637,,,2025-01-21,合併による解散等,7230005004677,令和７年１月２１日富山県砺波市安川４２３番地日吉神社（7230005004677）に合併し解散,2015-10-05,1,,,,,シンメイシャ,0
174,1250002004931,登記記録の閉鎖等,0,2025-02-18,2025-02-13,有限会社昌建土木,,有限会社,山口県,宇部市,大字妻崎開作６４１番地の９,,35,202,7590204,,,2025-02-13,清算の結了等,,,2015-10-05,1,,,,,ショウケンドボク,0
177,1260001010970,登記記録の閉鎖等,0,2025-02-18,2025-02-12,株式会社谷文,,株式会社,岡山県,岡山市北区,表町３丁目１９番６号,,33,101,7000822,,,2025-02-12,清算の結了等,,,2015-10-05,1,,,,,タニブン,0
192,1290002007286,登記記録の閉鎖等,0,2025-02-18,2025-02-03,丸文酒販有限会社,,有限会社,福岡県,福岡市城南区,片江３丁目１２番３３号,,40,136,8140142,,,2025-02-03,清算の結了等,,,2015-10-05,1,,,,,,0
231,1440002006017,登記記録の閉鎖等,0,2025-02-18,2025-02-13,有限会社樋口園芸,00090430,有限会社,北海道,函館市,東畑町１３３番地,,01,202,0420903,,,2025-02-13,清算の結了等,,,2015-10-05,1,,,,,ヒグチエンゲイ,0
253,2010401050277,登記記録の閉鎖等,0,2025-02-18,2025-01-27,三建株式会社,,株式会社,東京都,港区,麻布台１丁目９番１２号,,13,103,1060041,,,2025-01-27,清算の結了等,,,2015-10-05,1,,,,,,0
255,2010401141605,登記記録の閉鎖等,0,2025-02-18,2025-02-04,株式会社ホロスパートナーズ,,株式会社,東京都,千代田区,大手町１丁目５番１号大手町ファーストスクエアイーストタワー４階,,13,101,1000004,,,2025-02-04,清算の結了等,,,2018-10-22,1,,,,,ホロスパートナーズ,0
262,2010405011845,登記記録の閉鎖等,0,2025-02-18,2025-01-30,Ｋａｉ　Ｓｏｌａｒ　Ｈｏｌｄｉｎｇｓ一般社団法人,,その他の設立登記法人,東京都,港区,虎ノ門３丁目２２番１０－２０１号,,13,103,1050001,,,2025-01-30,清算の結了等,,,2015-10-05,1,,,,,カイソーラーホールディングス,0
263,2010405013148,登記記録の閉鎖等,0,2025-02-18,2025-01-30,Ｓｕｎ　Ｓｔａｔｉｏｎ　Ｈｉｋａｒｉ　ＶＩ　Ｈｏｌｄｉｎｇｓ一般社団法人,,その他の設立登記法人,東京都,港区,芝公園１丁目３番１号留園ビル６階,,13,103,1050011,,,2025-01-30,清算の結了等,,,2015-10-05,1,,,,,サンステーションヒカリシックスホールディングス,0
282,2010905002146,登記記録の閉鎖等,0,2025-02-18,2025-02-17,特定非営利活動法人住宅ハウスドクター集団,,その他の設立登記法人,東京都,世田谷区,砧８丁目２６番２３号,,13,112,1570073,,,2025-02-17,清算の結了等,,,2015-10-05,1,,,,,ジュウタクハウスドクターシュウダン,0
284,2011001101552,登記記録の閉鎖等,0,2025-02-18,2025-02-07,株式会社ＬＩＢＥＲＴＥＥＮ,,株式会社,東京都,台東区,浅草橋５丁目２番３号鈴和ビル３階－Ｃ,,13,106,1110053,,,2025-02-07,清算の結了等,,,2015-10-05,1,,,,,,0
297,2011105008470,登記記録の閉鎖等,0,2025-02-18,2025-02-07,ＬＲＦ一般社団法人,,その他の設立登記法人,東京都,新宿区,四谷２丁目９番地１５東京ユナイテッド綜合事務所内,,13,104,1600004,,,2025-02-07,清算の結了等,,,2018-08-07,1,,,,,エルアールエフ,0
311,2011602009698,登記記録の閉鎖等,0,2025-02-18,2025-02-04,有限会社みゆき介護センター,,有限会社,東京都,練馬区,貫井１丁目２８番２号,,13,120,1760021,,,2025-02-04,清算の結了等,,,2015-10-05,1,,,,,ミユキカイゴセンター,0
313,2011605002221,登記記録の閉鎖等,0,2025-02-18,2025-02-07,一般社団法人キッズスマイルフォト協会,,その他の設立登記法人,東京都,練馬区,南大泉１丁目２６番２１－２０１号,,13,120,1780064,,,2025-02-07,清算の結了等,,,2019-01-21,1,,,,,キッズスマイルフォトキョウカイ,0
371,2030002006478,登記記録の閉鎖等,0,2025-02-18,2025-02-12,有限会社地盤計画,,有限会社,埼玉県,さいたま市南区,大字大谷口５２４６番地参番館１０４号,,11,108,3360042,,,2025-02-12,清算の結了等,,,2015-10-05,1,,,,,ジバンケイカク,0
378,2040001035080,登記記録の閉鎖等,0,2025-02-18,2025-02-10,恩田産業株式会社,,株式会社,千葉県,松戸市,中和倉１２０番地,,12,207,2700025,,,2025-02-10,清算の結了等,,,2015-10-05,1,,,,,オンダサンギョウ,0
384,2040002066224,登記記録の閉鎖等,0,2025-02-18,2025-02-12,有限会社大淵エンジ,,有限会社,千葉県,木更津市,畑沢南１丁目７番１３号,,12,206,2920826,,,2025-02-12,清算の結了等,,,2015-10-05,1,,,,,オオブチエンジ,0
394,2050005002381,登記記録の閉鎖等,0,2025-02-18,2025-01-28,天理教本嬬島分教会,,その他の設立登記法人,茨城県,東茨城郡大洗町,成田２０８番地の２,,08,309,3111300,,,2025-01-28,合併による解散等,9011805000225,令和７年１月２１日東京都足立区西新井栄町二丁目１７番２０号天理教本梅島分教会（9011805000225）に合併し解散,2015-10-05,1,,,,,,0
400,2060002038782,登記記録の閉鎖等,0,2025-02-18,2025-02-13,有限会社落合電気商工社,,有限会社,栃木県,佐野市,亀井町２６０４番地,,09,204,3270024,,,2025-02-13,清算の結了等,,,2015-10-05,1,,,,,オチアイデンキショウコウシャ,0
403,2070002003018,登記記録の閉鎖等,0,2025-02-18,2025-02-17,セイコー測量有限会社,,有限会社,群馬県,前橋市,下沖町２９４番地,,10,201,3710011,,,2025-02-17,清算の結了等,,,2015-10-05,1,,,,,セイコーソクリョウ,0
414,2100002016081,登記記録の閉鎖等,0,2025-02-18,2025-02-07,株式会社ＩＺ,,株式会社,長野県,上田市,鹿教湯温泉１３８５番地,,20,203,3860323,,,2025-02-07,清算の結了等,,,2015-10-05,1,,,,,アイゼット,0
415,2100002036385,登記記録の閉鎖等,0,2025-02-18,2025-02-07,サンライト電機有限会社,,有限会社,長野県,下伊那郡下條村,睦沢３５１２番地,,20,411,3992101,,,2025-02-07,清算の結了等,,,2015-10-05,1,,,,,サンライトデンキ,0
456,2130001067164,登記記録の閉鎖等,0,2025-02-18,2025-02-10,株式会社ＢＴＢ創薬研究センター,,株式会社,京都府,京都市左京区,聖護院川原町５３メディカルイノベーションセンター４Ｆ,,26,103,6068397,,,2025-02-10,合併による解散等,1130003009958,令和７年１月３１日京都市左京区聖護院川原町５３メディカルイノベーションセンター４Ｆ合同会社ＢＴＢ創薬研究センター（1130003009958）に合併し解散,2020-07-06,1,,,,,ビーティービーソウヤクケンキューセンター,0
463,2140002035508,登記記録の閉鎖等,0,2025-02-18,2025-02-12,有限会社オフィスイシハラ,,有限会社,兵庫県,加古川市,加古川町粟津７５４番地の４,,28,210,6750039,,,2025-02-12,清算の結了等,,,2015-10-05,1,,,,,オフィスイシハラ,0
480,2200001021072,登記記録の閉鎖等,0,2025-02-18,2025-02-17,ミノポッタリー株式会社,,株式会社,岐阜県,多治見市,池田町４丁目９３番地の２,,21,204,5070048,,,2025-02-17,清算の結了等,,,2015-10-05,1,,,,,,0
486,2230005003989,登記記録の閉鎖等,0,2025-02-18,2025-02-14,重願寺,,その他の設立登記法人,富山県,下新川郡入善町,入膳５２２５番地,,16,342,9390626,,,2025-02-14,清算の結了等,,,2015-10-05,1,,,,,ジュウガンジ,0
493,2250005002782,登記記録の閉鎖等,0,2025-02-18,2025-01-17,天理教富伊分教会,,その他の設立登記法人,山口県,美祢市,伊佐町伊佐５６７２番地,,35,213,7592222,,,2025-01-17,合併による解散等,5250005005436,令和７年１月１７日山口県周南市大字四熊１５７７番地天理教富岡分教会（5250005005436）に合併し解散,2015-10-05,1,,,,,テンリキョウトミイブンキョウカイ,0
496,2290001008986,登記記録の閉鎖等,0,2025-02-18,2025-01-20,株式会社シー・アイ・イー,,株式会社,福岡県,福岡市中央区,薬院４丁目１８番３３号,,40,133,8100022,,,2025-01-20,清算の結了等,,,2015-10-05,1,,,,,シーアイイー,0
505,2290801008062,登記記録の閉鎖等,0,2025-02-18,2025-02-10,株式会社ＫＦ・トランスポート,,株式会社,福岡県,北九州市小倉南区,徳吉東２丁目１１番１０号,,40,107,8030277,,,2025-02-10,清算の結了等,,,2015-10-05,1,,,,,ケイエフトランスポート,0
511,2330002030092,登記記録の閉鎖等,0,2025-02-18,2025-02-10,協和化工有限会社,,有限会社,熊本県,人吉市,下薩摩瀬町４５５番地,,43,203,8680014,,,2025-02-10,清算の結了等,,,2015-10-05,1,,,,,キョウワカコウ,0
519,2370003005809,登記記録の閉鎖等,0,2025-02-18,2025-02-06,合同会社ヤスダ安心企画,,合同会社,宮城県,角田市,神次郎字遠見１２２番地,,04,208,9811526,,,2025-02-06,清算の結了等,,,2022-08-25,1,,,,,ヤスダアンシンキカク,0
520,2370003006617,登記記録の閉鎖等,0,2025-02-18,2025-02-12,合同会社Ｒｅ．ＬＩＦＥクリーニング,,合同会社,宮城県,仙台市青葉区,堤町２丁目９番２６号,,04,101,9810912,,,2025-02-12,清算の結了等,,,2024-05-14,1,,,,,リライフクリーニング,0
522,2390001000454,登記記録の閉鎖等,0,2025-02-18,2025-02-13,共立自動車電機株式会社,,株式会社,山形県,山形市,飯田１丁目２番２７号,,06,201,9902332,,,2025-02-13,清算の結了等,,,2015-10-05,1,,,,,キョウリツジドウシャデンキ,0
525,2390001012045,登記記録の閉鎖等,0,2025-02-18,2025-02-13,株式会社紅や,,株式会社,山形県,西村山郡河北町,谷地甲１５４番地,,06,321,9993511,,,2025-02-13,清算の結了等,,,2015-10-05,1,,,,,ベニヤ,0
556,3010001222894,登記記録の閉鎖等,0,2025-02-18,2025-02-06,ＭＣ　ＨＯＵＳＥ　ＩＮＶＥＳＴＭＥＮＴ株式会社,,株式会社,東京都,千代田区,大手町１丁目４番２号,,13,101,1000004,,,2025-02-06,清算の結了等,,,2021-12-02,1,,,,,エムシーハウスインベストメント,0
559,3010001241655,登記記録の閉鎖等,0,2025-02-18,2025-02-07,株式会社ビボス,,株式会社,東京都,台東区,上野２丁目１２番１８号,,13,106,1100005,,,2025-02-07,清算の結了等,,,2024-01-23,1,,,,,ビボス,0
564,3010005026219,登記記録の閉鎖等,0,2025-02-18,2025-02-14,丸の内ホールディング２一般社団法人,,その他の設立登記法人,東京都,千代田区,丸の内１丁目４番１号東京共同会計事務所内,,13,101,1000005,,,2025-02-14,清算の結了等,,,2017-01-05,1,,,,,マルノウチホールディングニ,0
576,3010405011844,登記記録の閉鎖等,0,2025-02-18,2025-01-30,Ｏｉｔａ　Ｓｏｌａｒ　Ｈｏｌｄｉｎｇｓ一般社団法人,,その他の設立登記法人,東京都,港区,芝公園１丁目３番１号留園ビル６階,,13,103,1050011,,,2025-01-30,清算の結了等,,,2015-10-05,1,,,,,オオイタソーラーホールディングス,0
577,3010405022437,登記記録の閉鎖等,0,2025-02-18,2025-01-30,ソーラーマクスウェルホールディングス一般社団法人,,その他の設立登記法人,東京都,港区,西新橋１丁目２番９号メンターキャピタル税理士法人内,,13,103,1050003,,,2025-01-30,清算の結了等,,,2023-08-23,1,,,,,ソーラーマクスウェルホールディングス,0
588,3011001029009,登記記録の閉鎖等,0,2025-02-18,2025-01-21,株式会社ファッションスタッフ,,株式会社,東京都,渋谷区,神宮前４丁目３番１５号,,13,113,1500001,,,2025-01-21,清算の結了等,,,2015-10-05,1,,,,,ファッションスタッフ,0
593,3011001117135,登記記録の閉鎖等,0,2025-02-18,2025-01-15,株式会社エイトセンシズ,,株式会社,東京都,目黒区,青葉台２丁目５番１８号,,13,110,1530042,,,2025-01-15,合併による解散等,3020001094680,令和６年１１月３０日東京都目黒区青葉台二丁目５番１８号株式会社セブンセンシズ（3020001094680）に合併し解散,2017-07-04,1,,,,,エイトセンシズ,0
594,3011001141250,登記記録の閉鎖等,0,2025-02-18,2025-01-20,株式会社揚重本舗,,株式会社,東京都,渋谷区,神宮前６丁目２３番４号桑野ビル２階,,13,113,1500001,,,2025-01-20,清算の結了等,,,2021-06-18,1,,,,,ヨウジュウホンポ,0
598,3011003017044,登記記録の閉鎖等,0,2025-02-18,2025-01-22,合同会社ｔｏｍｏｎｉ,,合同会社,東京都,渋谷区,神泉町１０番１５号,,13,113,1500045,,,2025-01-22,清算の結了等,,,2023-06-26,1,,,,,トモニ,0
617,3011803005058,登記記録の閉鎖等,0,2025-02-18,2025-02-10,Ｇｉｎｐｓｙ合同会社,,合同会社,東京都,足立区,竹の塚１丁目４０番１５号庄栄ビル５Ｆ,,13,121,1210813,,,2025-02-10,清算の結了等,,,2022-04-22,1,,,,,ジンプシー,0
672,3080401011453,登記記録の閉鎖等,0,2025-02-18,2025-02-06,株式会社おひさま,,株式会社,静岡県,浜松市浜名区,三ヶ日町大崎１９０７番地の２１,,22,139,4311403,,,2025-02-06,合併による解散等,8010701037076,令和７年２月１日静岡県浜松市中央区半田山一丁目２０番１号株式会社プレッパーズ（8010701037076）に合併し解散,2015-10-05,1,,,,,オヒサマ,0
705,3130002008422,登記記録の閉鎖等,0,2025-02-18,2025-02-13,有限会社ウエマル産業,,有限会社,京都府,京都市西京区,桂徳大寺北町１２４番地,,26,111,6158301,,,2025-02-13,清算の結了等,,,2015-10-05,1,,,,,ウエマルサンギョウ,0
718,3140005020101,登記記録の閉鎖等,0,2025-02-18,2025-02-14,医療法人社団ひつじ会,,その他の設立登記法人,兵庫県,南あわじ市,福良乙２８０番地,,28,224,6560502,,,2025-02-14,清算の結了等,,,2015-10-05,1,,,,,ヒツジカイ,0
722,3160001020227,登記記録の閉鎖等,0,2025-02-18,2025-02-14,株式会社ＢＯＩＬ,,株式会社,滋賀県,大津市,仰木の里東６丁目８番９号,,25,201,5200248,,,2025-02-14,清算の結了等,,,2017-05-31,1,,,,,ボイル,0
723,3160001026067,登記記録の閉鎖等,0,2025-02-18,2025-02-13,ごとう電気株式会社,,株式会社,滋賀県,高島市,新旭町太田１０４３番地１,,25,212,5201512,,,2025-02-13,清算の結了等,,,2024-07-12,1,,,,,ゴトウデンキ,0
728,3170001014574,登記記録の閉鎖等,0,2025-02-18,2025-02-14,株式会社ステアーズ,,株式会社,和歌山県,和歌山市,つつじが丘１丁目９番地２,,30,201,6400115,,,2025-02-14,清算の結了等,,,2017-01-11,1,,,,,ステアーズ,0
730,3180001074898,登記記録の閉鎖等,0,2025-02-18,2025-02-10,株式会社フラワーグッズアイ,,株式会社,愛知県,名古屋市名東区,名東本町１７０番地ライオンズマンション虹ケ丘１階２０号,,23,115,4650088,,,2025-02-10,清算の結了等,,,2015-10-05,1,,,,,フラワーグッズアイ,0
743,3180002062092,登記記録の閉鎖等,0,2025-02-18,2025-02-10,有限会社オートショップヒサダ,,有限会社,愛知県,日進市,赤池１丁目６０２番地,,23,230,4700125,,,2025-02-10,清算の結了等,,,2015-10-05,1,,,,,オートショップヒサダ,0
744,3180002082512,登記記録の閉鎖等,0,2025-02-18,2025-02-13,有限会社はなや,,有限会社,愛知県,岩倉市,本町上郷３３番地６,,23,228,4820043,,,2025-02-13,清算の結了等,,,2015-10-05,1,,,,,ハナヤ,0
748,3200001022978,登記記録の閉鎖等,0,2025-02-18,2025-02-17,株式会社トライネクスト,,株式会社,岐阜県,土岐市,肥田町浅野１０７８番地の１０２,,21,212,5095114,,,2025-02-17,清算の結了等,,,2015-10-05,1,,,,,,0
760,3260001019168,登記記録の閉鎖等,0,2025-02-18,2025-02-14,白川土木株式会社,,株式会社,岡山県,新見市,正田４１５番地の４,,33,210,7180013,,,2025-02-14,清算の結了等,,,2015-10-05,1,,,,,シラカワドボク,0
763,3280002008028,登記記録の閉鎖等,0,2025-02-18,2025-02-14,島根ヒロケン有限会社,,有限会社,島根県,大田市,大田町大田ロ１１７３番地３,,32,205,6940064,,,2025-02-14,清算の結了等,,,2015-10-05,1,,,,,シマネヒロケン,0
777,3290802001065,登記記録の閉鎖等,0,2025-02-18,2025-02-13,有限会社エフ・ケイ・ケイ,,有限会社,福岡県,北九州市戸畑区,天籟寺２丁目６番３０号,,40,105,8040041,,,2025-02-13,清算の結了等,,,2015-10-05,1,,,,,エフケイケイ,0
802,3430001013574,登記記録の閉鎖等,0,2025-02-18,2025-02-13,株式会社ポーラスターインク,,株式会社,北海道,札幌市豊平区,平岸七条１４丁目３番４３号,,01,105,0620937,,,2025-02-13,清算の結了等,,,2015-10-05,1,,,,,ポーラスターインク,0
820,3700150098439,登記記録の閉鎖等,0,2025-02-18,2024-09-24,徳山駅前地区市街地再開発組合,,その他,山口県,周南市,銀座２丁目２５番地山本ビル２階,,35,215,7450032,,,2024-09-24,その他の清算の結了等,,,2020-03-24,1,,,,,トクヤマエキマエチクシガイチサイカイハツクミアイ,0
839,4010005026218,登記記録の閉鎖等,0,2025-02-18,2025-02-14,丸の内ホールディング１一般社団法人,,その他の設立登記法人,東京都,千代田区,丸の内１丁目４番１号東京共同会計事務所内,,13,101,1000005,,,2025-02-14,清算の結了等,,,2017-01-05,1,,,,,マルノウチホールディングイチ,0
841,4010401150455,登記記録の閉鎖等,0,2025-02-18,2025-02-04,株式会社Ｌａｇ　Ｆａｔ,,株式会社,東京都,中央区,銀座１丁目２２番１１号銀座大竹ビジデンス２階,,13,102,1040061,,,2025-02-04,清算の結了等,,,2020-01-17,1,,,,,ラグファット,0
847,4010405010696,登記記録の閉鎖等,0,2025-02-18,2025-02-14,一般社団法人ＣＲＴ菖蒲,,その他の設立登記法人,東京都,千代田区,丸の内１丁目４番１号東京共同会計事務所内,,13,101,1000005,,,2025-02-14,清算の結了等,,,2015-10-05,1,,,,,シーアールティーショウブ,0
848,4010405015365,登記記録の閉鎖等,0,2025-02-18,2025-01-30,Ｓｕｎ　Ｓｔａｔｉｏｎ　Ｈｉｋａｒｉ　ＸＶ　Ｈｏｌｄｉｎｇｓ一般社団法人,,その他の設立登記法人,東京都,港区,芝公園１丁目３番１号留園ビル６階,,13,103,1050011,,,2025-01-30,清算の結了等,,,2016-12-14,1,,,,,サンステーションヒカリフィフティーンホールディングス,0
849,4010405022436,登記記録の閉鎖等,0,2025-02-18,2025-01-30,ソーラーファラデーホールディングス一般社団法人,,その他の設立登記法人,東京都,港区,西新橋１丁目２番９号メンターキャピタル税理士法人内,,13,103,1050003,,,2025-01-30,清算の結了等,,,2023-08-24,1,,,,,ソーラーファラデーホールディングス,0
879,4011101102457,登記記録の閉鎖等,0,2025-02-18,2025-02-07,株式会社ｕｋｉｙｏ,,株式会社,東京都,新宿区,高田馬場４丁目２８番１９号,,13,104,1690075,,,2025-02-07,清算の結了等,,,2023-04-11,1,,,,,ウキヨ,0
888,4011501025852,登記記録の閉鎖等,0,2025-02-18,2025-02-07,明慧株式会社,,株式会社,東京都,台東区,東上野６丁目１番地１７号中央ビル２０１号,,13,106,1100015,,,2025-02-07,清算の結了等,,,2020-05-27,1,,,,,メイエ,0
892,4011601027848,登記記録の閉鎖等,0,2025-02-18,2025-02-06,ＰＯＴＥＮＴＩＡＬ　ＬＩＮＫ株式会社,,株式会社,東京都,練馬区,西大泉４丁目９番１０号,,13,120,1780065,,,2025-02-06,清算の結了等,,,2024-06-26,1,,,,,ポテンシャルリンク,0
893,4011801033670,登記記録の閉鎖等,0,2025-02-18,2025-02-10,株式会社Ｓ．Ｋ．Ｐ．,,株式会社,東京都,葛飾区,金町４丁目１２番１２号,,13,122,1250042,,,2025-02-10,清算の結了等,,,2017-07-31,1,,,,,,0
912,4020005010740,登記記録の閉鎖等,0,2025-02-18,2025-01-31,一般社団法人老朽化マンション対策支援協会,,その他の設立登記法人,神奈川県,横浜市中区,尾上町５丁目７５番地２,,14,104,2310015,,,2025-01-31,清算の結了等,,,2015-10-05,1,,,,,ロウキュウカマンションタイサクシエンキョウカイ,0
916,4021002044327,登記記録の閉鎖等,0,2025-02-18,2025-02-13,有限会社明宝建工,,有限会社,神奈川県,綾瀬市,寺尾北１丁目１４番１３号,,14,218,2521131,,,2025-02-13,清算の結了等,,,2015-10-05,1,,,,,メイホウケンコウ,0
919,4030001149937,登記記録の閉鎖等,0,2025-02-18,2025-02-12,株式会社網野古着,,株式会社,埼玉県,越谷市,蒲生寿町１８番４９号マルコービル３０１,,11,222,3430836,,,2025-02-12,清算の結了等,,,2022-09-07,1,,,,,アミノフルギ,0
945,4070001038590,登記記録の閉鎖等,0,2025-02-18,2025-02-17,ヘッドメディア株式会社,,株式会社,群馬県,高崎市,棟高町５５７番地,,10,202,3703521,,,2025-02-17,清算の結了等,,,2021-11-02,1,,,,,ヘッドメディア,0
949,4070002027907,登記記録の閉鎖等,0,2025-02-18,2025-01-21,有限会社阿部農機商会,,有限会社,群馬県,邑楽郡大泉町,東小泉２丁目８番２６号,,10,524,3700513,,,2025-01-21,合併による解散等,4070001034292,令和７年１月２１日群馬県邑楽郡大泉町東小泉二丁目１１番２９号株式会社グラッド・リペア（4070001034292）に合併し解散,2015-10-05,1,,,,,アベノウキショウカイ,0
958,4090002007592,登記記録の閉鎖等,0,2025-02-18,2025-02-13,有限会社司堂,,有限会社,山梨県,南アルプス市,藤田字八丁３０８番地,,19,208,4000334,,,2025-02-13,清算の結了等,,,2015-10-05,1,,,,,ツカサドウ,0
971,4120001229333,登記記録の閉鎖等,0,2025-02-18,2025-02-14,華成株式会社,,株式会社,大阪府,大阪市生野区,巽南５丁目１４番１４号ホースハイツ５０２,00119887,27,116,5440015,,,2025-02-14,清算の結了等,,,2020-06-02,1,,,,,カセイ,0
1018,4160001014905,登記記録の閉鎖等,0,2025-02-18,2025-02-17,ＰＲＥＳＴＯＮ株式会社,,株式会社,滋賀県,草津市,大路２丁目１番２７－１００９号,,25,206,5250032,,,2025-02-17,清算の結了等,,,2015-10-05,1,,,,,プレストン,0
1022,4180001061012,登記記録の閉鎖等,0,2025-02-18,2025-02-10,株式会社昇線,,株式会社,愛知県,稲沢市,馬場２丁目３５番地,,23,220,4928348,,,2025-02-10,清算の結了等,,,2015-10-05,1,,,,,ショウライン,0
1023,4180001061895,登記記録の閉鎖等,0,2025-02-18,2025-02-13,株式会社セントラルプランバー,,株式会社,愛知県,名古屋市中村区,則武１丁目２６番２３号,,23,105,4530014,,,2025-02-13,清算の結了等,,,2015-10-05,1,,,,,セントラルプランバー,0
1049,4260002027227,登記記録の閉鎖等,0,2025-02-18,2025-02-14,株式会社シラカワ,,株式会社,岡山県,新見市,正田４１５番地の４,,33,210,7180013,,,2025-02-14,清算の結了等,,,2015-10-05,1,,,,,シラカワ,0
1052,4290001051200,登記記録の閉鎖等,0,2025-02-18,2025-02-03,株式会社ボーネット,,株式会社,福岡県,久留米市,津福本町７７６番地５,,40,203,8300047,,,2025-02-03,清算の結了等,,,2015-10-05,1,,,,,,0
1060,4290801001263,登記記録の閉鎖等,0,2025-02-18,2025-02-10,株式会社ケイエス企画,,株式会社,福岡県,北九州市小倉北区,白銀１丁目８番２６号,,40,106,8020074,,,2025-02-10,清算の結了等,,,2015-10-05,1,,,,,ケイエスキカク,0
1082,4390003002018,登記記録の閉鎖等,0,2025-02-18,2025-02-10,合同会社Ｏｃｅａｎ　Ｂｌｉｚｚａｒｄ,,合同会社,山形県,酒田市,東大町１丁目１６番地の５,,06,204,9980851,,,2025-02-10,清算の結了等,,,2022-11-17,1,,,,,オーシャンブリザード,0
1085,4430001001322,登記記録の閉鎖等,0,2025-02-18,2025-01-21,株式会社ヰセキ北海道,,株式会社,北海道,札幌市手稲区,新発寒五条１丁目５番１号,,01,109,0060805,,,2025-01-21,合併による解散等,4180301012689,令和７年１月１日愛知県安城市和泉町大北６１番地株式会社ヰセキ関西中部（4180301012689）に合併し解散,2015-10-05,1,,,,,イセキホッカイドウ,0
1096,4700150024039,登記記録の閉鎖等,0,2025-02-18,2024-11-12,関西サイエンス・フォーラム,,その他,大阪府,大阪市北区,中之島６丁目２番２７中之島センタービル内関西経済同友会内,,27,127,5300005,,,2024-11-12,その他の清算の結了等,,,2015-10-09,1,,,,,カンサイサイエンスフオーラム,0
1126,5010401109153,登記記録の閉鎖等,0,2025-02-18,2025-01-22,株式会社クラフト,,株式会社,東京都,品川区,西五反田８丁目１番５号,,13,109,1410031,,,2025-01-22,合併による解散等,5010001248525,令和７年１月１日長野県上伊那郡箕輪町大字三日町４８２番地１株式会社キョウデン（5010001248525）に合併し解散,2015-10-05,1,,,,,クラフト,0
1135,5010403021265,登記記録の閉鎖等,0,2025-02-18,2025-01-30,ＤＳ　Ａｏｙａｍａ合同会社,,合同会社,東京都,港区,虎ノ門５丁目１番４号,,13,103,1050001,,,2025-01-30,清算の結了等,,,2019-08-09,1,,,,,ディーエスアオヤマ,0
1141,5010901002873,登記記録の閉鎖等,0,2025-02-18,2025-02-14,株式会社カマタ電化,,株式会社,東京都,世田谷区,用賀３丁目１１番１７号,,13,112,1580097,,,2025-02-14,清算の結了等,,,2015-10-05,1,,,,,カマタデンカ,0
1174,5013201018656,登記記録の閉鎖等,0,2025-02-18,2025-01-27,株式会社ＣＡＲＴＡ　ＳＹＮＣ　ＧＡＭＥＳ,,株式会社,東京都,港区,虎ノ門２丁目６番１号虎ノ門ヒルズステーションタワー３６階,,13,103,1050001,,,2025-01-27,清算の結了等,,,2015-10-05,1,,,,,カルタシンクゲームズ,0
1184,5021001062873,登記記録の閉鎖等,0,2025-02-18,2025-02-14,株式会社ハマネ,,株式会社,神奈川県,横須賀市,野比２丁目１１番１１号,,14,201,2390841,,,2025-02-14,清算の結了等,,,2017-08-18,1,,,,,ハマネ,0
1190,5021002072450,登記記録の閉鎖等,0,2025-02-18,2025-02-10,有限会社パシフィック,,有限会社,神奈川県,横須賀市,佐原１丁目１０番５号,,14,201,2390835,,,2025-02-10,清算の結了等,,,2015-10-05,1,,,,,パシフィック,0
1209,5040002096714,登記記録の閉鎖等,0,2025-02-18,2025-02-12,有限会社居酒屋一代,,有限会社,千葉県,野田市,上花輪６４２番地,,12,208,2780033,,,2025-02-12,清算の結了等,,,2015-10-05,1,,,,,イザカヤイチダイ,0
1212,5050001037742,登記記録の閉鎖等,0,2025-02-18,2025-02-10,株式会社美よしの,,株式会社,茨城県,古河市,本町３丁目３番２６号,,08,204,3060023,,,2025-02-10,清算の結了等,,,2015-10-05,1,,,,,ミヨシノ,0
1220,5070001010623,登記記録の閉鎖等,0,2025-02-18,2025-02-17,株式会社アクロス,,株式会社,群馬県,高崎市,大八木町９１０番地１４ニューパレス光１０１号,,10,202,3700072,,,2025-02-17,清算の結了等,,,2015-10-05,1,,,,,アクロス,0
1228,5080101016156,登記記録の閉鎖等,0,2025-02-18,2025-02-12,クオリ株式会社,,株式会社,静岡県,裾野市,麦塚４９番地の２,,22,220,4101122,,,2025-02-12,清算の結了等,,,2015-10-05,1,,,,,,0
1248,5120001266581,登記記録の閉鎖等,0,2025-02-18,2025-02-14,恒馳立仁株式会社,,株式会社,大阪府,大阪市都島区,中野町４丁目３番６号Ｈ２Ｈ大阪桜之宮邸１Ｄ－３,,27,102,5340027,,,2025-02-14,清算の結了等,,,2024-07-09,1,,,,,コウチタチニ,0
1262,5122001024390,登記記録の閉鎖等,0,2025-02-18,2025-02-17,株式会社中広組,,株式会社,大阪府,東大阪市,弥生町１２番１９号,,27,227,5798026,,,2025-02-17,清算の結了等,,,2015-10-05,1,,,,,ナカヒロクミ,0
1278,5150003002131,登記記録の閉鎖等,0,2025-02-18,2025-02-13,合同会社安本企画,,合同会社,奈良県,葛城市,南今市９０番地２,,29,211,6392151,,,2025-02-13,清算の結了等,,,2020-04-20,1,,,,,ヤスモトキカク,0
1284,5180001070771,登記記録の閉鎖等,0,2025-02-18,2025-02-14,ソフリング株式会社,,株式会社,岐阜県,大垣市,割田１丁目６５６番地,,21,202,5030953,,,2025-02-14,清算の結了等,,,2015-10-05,1,,,,,ソフリング,0
1290,5180002073286,登記記録の閉鎖等,0,2025-02-18,2025-02-12,有限会社アート旭,,有限会社,愛知県,尾張旭市,庄中町２丁目２番地２３,,23,226,4880838,,,2025-02-12,清算の結了等,,,2015-10-05,1,,,,,アートアサヒ,0
1302,5240001022394,登記記録の閉鎖等,0,2025-02-18,2025-01-21,株式会社ヰセキ中四国,,株式会社,広島県,東広島市,西条町御薗宇７２７番地２,,34,212,7390024,,,2025-01-21,合併による解散等,4180301012689,令和７年１月１日愛知県安城市和泉町大北６１番地株式会社ヰセキ関西中部（4180301012689）に合併し解散,2015-10-05,1,,,,,イセキチュウシコク,0
1326,5320002002817,登記記録の閉鎖等,0,2025-02-18,2025-02-17,有限会社是永ビル,,有限会社,大分県,大分市,東春日町２０番１号,,44,201,8700037,,,2025-02-17,清算の結了等,,,2015-10-05,1,,,,,コレナガビル,0
1327,5340001017979,登記記録の閉鎖等,0,2025-02-18,2025-02-14,株式会社鹿児島中央会計事務所,,株式会社,鹿児島県,鹿児島市,荒田１丁目１６番１１号Ｚｅｒｏ荒田２Ｆ,,46,201,8900054,,,2025-02-14,清算の結了等,,,2015-10-05,1,,,,,カゴシマチュウオウカイケイジムショ,0
1337,5360002004966,登記記録の閉鎖等,0,2025-02-18,2025-02-13,有限会社親思会,,有限会社,沖縄県,那覇市,辻２丁目３番３号,00101534,47,201,9000037,,,2025-02-13,清算の結了等,,,2015-10-05,1,,,,,シンシカイ,0
1347,5400001006810,登記記録の閉鎖等,0,2025-02-18,2025-02-06,株式会社Ｍａｍｏ,,株式会社,岩手県,盛岡市,北天昌寺町７番１０号,,03,201,0200136,,,2025-02-06,清算の結了等,,,2015-10-05,1,,,,,マモ,0
1364,6010001166932,登記記録の閉鎖等,0,2025-02-18,2025-01-14,株式会社Ｎ－ＬａＢｏ,,株式会社,東京都,中央区,銀座６丁目１６番３号東京真珠ビル４階,,13,102,1040061,,,2025-01-14,合併による解散等,3010001237389,令和７年１月１日東京都千代田区丸の内二丁目４番１号ＮＬ２株式会社（3010001237389）に合併し解散,2015-10-05,1,,,,,エヌラボ,0
1376,6010401061691,登記記録の閉鎖等,0,2025-02-18,2025-01-31,トリニティ・インベストメント株式会社,,株式会社,東京都,港区,芝浦１丁目９番７号,,13,103,1050023,,,2025-01-31,清算の結了等,,,2015-10-05,1,,,,,トリニティインベストメント,0
1377,6010401101984,登記記録の閉鎖等,0,2025-02-18,2025-02-07,株式会社クルクルエイト,,株式会社,東京都,世田谷区,尾山台３丁目７番１３号,,13,112,1580086,,,2025-02-07,清算の結了等,,,2015-10-05,1,,,,,クルクルエイト,0
1382,6010403028326,登記記録の閉鎖等,0,2025-02-18,2025-01-29,合同会社Ｍ３プロジェクト,,合同会社,東京都,港区,虎ノ門３丁目２２番１０－２０１号,,13,103,1050001,,,2025-01-29,清算の結了等,,,2022-08-22,1,,,,,エムスリープロジェクト,0
1386,6010405014200,登記記録の閉鎖等,0,2025-02-18,2025-01-30,Ｓｕｎ　Ｓｔａｔｉｏｎ　Ｈｉｋａｒｉ　Ｖ　Ｈｏｌｄｉｎｇｓ一般社団法人,,その他の設立登記法人,東京都,港区,虎ノ門３丁目２２番１０－２０１号,,13,103,1050001,,,2025-01-30,清算の結了等,,,2015-10-05,1,,,,,サンステーションヒカリファイブホールディングス,0
1395,6010801004044,登記記録の閉鎖等,0,2025-02-18,2025-02-05,かいてき技術株式会社,,株式会社,東京都,大田区,中馬込２丁目２番１８号,,13,111,1430027,,,2025-02-05,清算の結了等,,,2015-10-05,1,,,,,カイテキギジュツ,0
1427,6020002084356,登記記録の閉鎖等,0,2025-02-18,2025-01-31,有限会社鳥庄,,有限会社,神奈川県,川崎市中原区,木月３丁目９番３６号,,14,133,2110025,,,2025-01-31,清算の結了等,,,2015-10-05,1,,,,,トリショウ,0
1449,6030005013872,登記記録の閉鎖等,0,2025-02-18,2025-01-22,天理教武藏星河分教会,00018678,その他の設立登記法人,埼玉県,行田市,栄町１９番７号,,11,206,3610071,,,2025-01-22,合併による解散等,1030005013860,令和７年１月２２日埼玉県行田市長野三丁目３番１４号天理教武長分教会（1030005013860）に合併し解散,2015-10-05,1,,,,,テンリキョウムサシホシカワブンキョウカイ,0
1450,6040001014295,登記記録の閉鎖等,0,2025-02-18,2025-02-12,株式会社伊藤製作所,,株式会社,千葉県,習志野市,東習志野６丁目１６番２４号,,12,216,2750001,,,2025-02-12,清算の結了等,,,2015-10-05,1,,,,,イトウセイサクショ,0
1464,6050001052055,登記記録の閉鎖等,0,2025-02-18,2025-02-10,南十字星株式会社,,株式会社,茨城県,東茨城郡城里町,大字下赤沢５０４番地,,08,310,3114406,,,2025-02-10,清算の結了等,,,2022-12-06,1,,,,,ミナミジュウジセイ,0
1465,6050002030266,登記記録の閉鎖等,0,2025-02-18,2025-02-06,有限会社エムアンドエム,,有限会社,茨城県,日立市,日高町１丁目２８番１２号,,08,202,3191414,,,2025-02-06,清算の結了等,,,2015-10-05,1,,,,,エムアンドエム,0
1467,6060001036750,登記記録の閉鎖等,0,2025-02-18,2025-02-05,鹿北産業株式会社,,株式会社,栃木県,鹿沼市,茂呂２６０３番地,,09,205,3220026,,,2025-02-05,清算の結了等,,,2024-03-01,1,,,,,,0
1483,6120001082359,登記記録の閉鎖等,0,2025-02-18,2025-02-14,株式会社住友商店,,株式会社,大阪府,大阪市中央区,（大阪市南区日本橋二丁目１０番９号）,,27,128,5390000,,,2025-02-14,清算の結了等,,,2015-10-05,1,,,,,スミトモショウテン,1
1494,6120001244165,登記記録の閉鎖等,0,2025-02-18,2025-02-12,株式会社ＣＩＥＬＯ,,株式会社,大阪府,大阪市中央区,北久宝寺町２丁目６番１０－９０８号,,27,128,5410057,,,2025-02-12,清算の結了等,,,2022-03-04,1,,,,,シエロ,0
1506,6120101047914,登記記録の閉鎖等,0,2025-02-18,2025-02-13,株式会社ナッシュビル,,株式会社,大阪府,堺市堺区,西湊町５丁４番１８号,,27,141,5900835,,,2025-02-13,清算の結了等,,,2015-10-05,1,,,,,ナッシュビル,0
1509,6120901046586,登記記録の閉鎖等,0,2025-02-18,2025-02-12,株式会社Ｂｕｓｉｎｅｓｓ　ｆｏｒ　Ｌｉｆｅ,,株式会社,大阪府,茨木市,五日市２丁目１１－１４－１,,27,211,5670005,,,2025-02-12,清算の結了等,,,2022-10-06,1,,,,,ビジネスフォーライフ,0
1510,6122001001975,登記記録の閉鎖等,0,2025-02-18,2025-02-12,協同金属株式会社,,株式会社,大阪府,東大阪市,今米２丁目６番３４号,,27,227,5780903,,,2025-02-12,清算の結了等,,,2015-10-05,1,,,,,キョウドウキンゾク,0
1519,6140001032361,登記記録の閉鎖等,0,2025-02-18,2025-02-12,株式会社名家華中華,,株式会社,兵庫県,神戸市東灘区,魚崎北町４丁目１５番１４－３０８号,,28,101,6580082,,,2025-02-12,清算の結了等,,,2015-10-05,1,,,,,メイケカチュウカ,0
1534,6180001108694,登記記録の閉鎖等,0,2025-02-18,2025-02-10,株式会社未来学園,,株式会社,愛知県,名古屋市東区,泉１丁目１５－１４アルピニストビル３階,,23,102,4610001,,,2025-02-10,清算の結了等,,,2015-10-05,1,,,,,ミライガクエン,0
1544,6180005001573,登記記録の閉鎖等,0,2025-02-18,2025-01-20,天理教藤宮分教会,,その他の設立登記法人,愛知県,名古屋市北区,福徳町５丁目５３番地の４,,23,103,4620052,,,2025-01-20,合併による解散等,6180005001053,令和７年１月２０日名古屋市西区栄生二丁目１３番１０号天理教栄生分教会（6180005001053）に合併し解散,2015-10-05,1,,,,,テンリキョウフジキュウブンキョウカイ,0
1550,6180302007307,登記記録の閉鎖等,0,2025-02-18,2025-01-06,有限会社ケービーエヌ,,有限会社,東京都,渋谷区,上原１丁目４２番９号,,13,113,1510064,,,2025-01-06,合併による解散等,1040003008358,令和６年１２月３１日東京都渋谷区上原一丁目４２番９号合同会社ＮＳ企画（1040003008358）に合併し解散,2015-10-05,1,,,,,ケービーエヌ,0
1561,6240001059394,登記記録の閉鎖等,0,2025-02-18,2025-01-23,アイプラス調剤薬局株式会社,,株式会社,広島県,福山市,沖野上町２丁目１番１４号山田ビル３０３,,34,207,7200825,,,2025-01-23,合併による解散等,8010001028040,令和７年１月１日東京都千代田区神田練塀町６８番地１ムラタヤビル３階株式会社ユニスマイル（8010001028040）に合併し解散,2022-03-04,1,,,,,アイプラスチョウザイヤッキョク,0
1565,6250002012921,登記記録の閉鎖等,0,2025-02-18,2025-02-03,エルエー京野有限会社,,有限会社,山口県,下関市,上田中町３丁目３番１０－２０８号,,35,201,7500009,,,2025-02-03,清算の結了等,,,2015-10-05,1,,,,,エルエーキョウノ,0
1600,6390001008469,登記記録の閉鎖等,0,2025-02-18,2025-02-14,株式会社アトリエ欅,,株式会社,山形県,山形市,穂積１２４番地１,,06,201,9900001,,,2025-02-14,清算の結了等,,,2015-10-05,1,,,,,アトリエケヤキ,0
1605,6420001002220,登記記録の閉鎖等,0,2025-02-18,2025-02-12,株式会社レディス上野,,株式会社,青森県,青森市,妙見３丁目４番１３号,,02,201,0300121,,,2025-02-12,清算の結了等,,,2015-10-05,1,,,,,レディスウエノ,0
1635,7010005037534,登記記録の閉鎖等,0,2025-02-18,2025-02-13,一般社団法人サターン,,その他の設立登記法人,東京都,千代田区,霞が関３丁目２番５号,,13,101,1000013,,,2025-02-13,清算の結了等,,,2023-11-16,1,,,,,サターン,0
1645,7010403011140,登記記録の閉鎖等,0,2025-02-18,2025-01-30,岩手宮古メガソーラー発電所合同会社,,合同会社,東京都,港区,芝公園１丁目３番１号留園ビル６階,,13,103,1050011,,,2025-01-30,清算の結了等,,,2015-10-05,1,,,,,イワテミヤコメガソーラーハツデンショ,0
1646,7010403030826,登記記録の閉鎖等,0,2025-02-18,2025-01-30,ソーラーマクスウェル合同会社,,合同会社,東京都,港区,西新橋１丁目２番９号メンターキャピタル税理士法人内,,13,103,1050003,,,2025-01-30,清算の結了等,,,2023-08-29,1,,,,,ソーラーマクスウェル,0
1651,7010802015048,登記記録の閉鎖等,0,2025-02-18,2025-02-05,有限会社山本機工,,有限会社,東京都,大田区,東糀谷５丁目１５番１７号,,13,111,1440033,,,2025-02-05,清算の結了等,,,2015-10-05,1,,,,,ヤマモトキコウ,0
1657,7011003011282,登記記録の閉鎖等,0,2025-02-18,2025-01-29,Ｇｌｏｂａｌ　Ｉｎｖｅｓｔｍｅｎｔ　Ｌａｂ株式会社,,株式会社,東京都,港区,虎ノ門４丁目３番１号城山トラストタワー３６階,,13,103,1050001,,,2025-01-29,清算の結了等,,,2020-06-11,1,,,,,グローバルインベストラボ,0
1661,7011101054992,登記記録の閉鎖等,0,2025-02-18,2025-01-07,株式会社ラクーンレント,,株式会社,東京都,千代田区,麹町１丁目４番地,,13,101,1020083,,,2025-01-07,合併による解散等,5010001097798,令和７年１月１日東京都千代田区麹町二丁目４番地１株式会社プレミアライフ（5010001097798）に合併し解散,2015-10-05,1,,,,,ラクーンレント,0
1677,7011801037867,登記記録の閉鎖等,0,2025-02-18,2025-02-10,株式会社Ｔｅａｍ　Ｋ,,株式会社,東京都,葛飾区,高砂１丁目１２番１７号,,13,122,1250054,,,2025-02-10,清算の結了等,,,2020-07-14,1,,,,,チームケー,0
1681,7020001015889,登記記録の閉鎖等,0,2025-02-18,2025-01-31,株式会社フォレスト,,株式会社,神奈川県,横浜市神奈川区,鶴屋町３丁目２９番地１,,14,102,2210835,,,2025-01-31,清算の結了等,,,2015-10-05,1,,,,,フォレスト,0
1689,7021001007397,登記記録の閉鎖等,0,2025-02-18,2025-02-17,株式会社豊玉産業,,株式会社,神奈川県,茅ヶ崎市,芹沢７９９番地,,14,207,2530008,,,2025-02-17,清算の結了等,,,2015-10-05,1,,,,,,0
1699,7021002068422,登記記録の閉鎖等,0,2025-02-18,2025-02-14,有限会社野口商店,,有限会社,神奈川県,逗子市,沼間１丁目１番１５号,,14,208,2490004,,,2025-02-14,清算の結了等,,,2015-10-05,1,,,,,ノグチショウテン,0
1723,7050001010342,登記記録の閉鎖等,0,2025-02-18,2025-01-21,株式会社ヰセキ関東甲信越,,株式会社,茨城県,稲敷郡阿見町,大字阿見４８１８番地,,08,443,3000331,,,2025-01-21,合併による解散等,4180301012689,令和７年１月１日愛知県安城市和泉町大北６１番地株式会社ヰセキ関西中部（4180301012689）に合併し解散,2015-10-05,1,,,,,,0
1725,7050002027278,登記記録の閉鎖等,0,2025-02-18,2025-02-10,有限会社ダイヤモンド,,有限会社,茨城県,神栖市,平泉外十二入会４８番地１,,08,232,3140145,,,2025-02-10,清算の結了等,,,2015-10-05,1,,,,,ダイヤモンド,0
1727,7050003007080,登記記録の閉鎖等,0,2025-02-18,2025-02-10,合同会社Ｎｅｘｔ　Ｃｒｅａｔｉｏｎ,,合同会社,茨城県,つくば市,筑穂２丁目７－１,,08,220,3003257,,,2025-02-10,清算の結了等,,,2022-12-12,1,,,,,ネクストクリエーション,0
1735,7090002012656,登記記録の閉鎖等,0,2025-02-18,2025-02-12,有限会社丸善薬局,,有限会社,山梨県,富士吉田市,下吉田２丁目１番６号,,19,202,4030004,,,2025-02-12,清算の結了等,,,2015-10-05,1,,,,,マルゼンヤッキョク,0
1781,7140005006187,登記記録の閉鎖等,0,2025-02-18,2025-01-27,天理教兵庫大平分教会,,その他の設立登記法人,兵庫県,三木市,自由が丘本町３丁目１６番地,,28,215,6730424,,,2025-01-27,合併による解散等,3140005001126,令和７年１月２７日神戸市北区鈴蘭台東町四丁目９番２２号天理教芦眞分教会（3140005001126）に合併し解散,2015-10-05,1,,,,,テンリキョウヒョウゴタイヘイブンキョウカイ,0
1784,7150002004440,登記記録の閉鎖等,0,2025-02-18,2025-02-14,有限会社マサインターナショナル,,有限会社,奈良県,生駒市,壱分町１８２－２ネオハイツ生駒３１０号,,29,209,6300222,,,2025-02-14,清算の結了等,,,2015-10-05,1,,,,,マサインターナショナル,0
1791,7180001005049,登記記録の閉鎖等,0,2025-02-18,2025-02-12,日本電算株式会社,,株式会社,愛知県,名古屋市中区,錦３丁目１２番１７号,,23,106,4600003,,,2025-02-12,清算の結了等,,,2015-10-05,1,,,,,ニホンデンサン,0
1814,7290001026991,登記記録の閉鎖等,0,2025-02-18,2025-02-03,ＳＱディスカバリー株式会社,,株式会社,福岡県,福岡市東区,多の津５丁目２１番２３号,,40,131,8130034,,,2025-02-03,清算の結了等,,,2015-10-05,1,,,,,エスキューディスカバリー,0
1827,7290801022050,登記記録の閉鎖等,0,2025-02-18,2025-02-10,株式会社ｗｏｎｄｅｒ,,株式会社,福岡県,北九州市八幡西区,則松６丁目３番２２号,,40,109,8070831,,,2025-02-10,清算の結了等,,,2015-12-07,1,,,,,ワンダー,0
1835,7330001010875,登記記録の閉鎖等,0,2025-02-18,2025-01-21,株式会社ヰセキ九州,,株式会社,熊本県,上益城郡益城町,大字平田２５５０番地,,43,443,8612212,,,2025-01-21,合併による解散等,4180301012689,令和７年１月１日愛知県安城市和泉町大北６１番地株式会社ヰセキ関西中部（4180301012689）に合併し解散,2015-10-05,1,,,,,イセキキュウシュウ,0
1837,7330002006484,登記記録の閉鎖等,0,2025-02-18,2025-02-10,有限会社たかはら,,有限会社,熊本県,熊本市南区,田迎４丁目２番３号,,43,104,8620962,,,2025-02-10,清算の結了等,,,2015-10-05,1,,,,,,0
1839,7330002019098,登記記録の閉鎖等,0,2025-02-18,2025-02-10,ＵＫ管財株式会社,,株式会社,熊本県,熊本市北区,植木町亀甲字中原２６９番地,,43,105,8610127,,,2025-02-10,清算の結了等,,,2015-10-05,1,,,,,ユーケイカンザイ,0
1842,7350005004203,登記記録の閉鎖等,0,2025-02-18,2025-01-28,天理教本梅宮分教会,,その他の設立登記法人,宮崎県,日南市,中平野３丁目３番１５号,,45,204,8870016,,,2025-01-28,合併による解散等,9011805000225,令和７年１月２１日東京都足立区西新井栄町二丁目１７番２０号天理教本梅島分教会（9011805000225）に合併し解散,2015-10-05,1,,,,,テンリキョウホンウメミヤブンキョウカイ,0
1849,7370205001956,登記記録の閉鎖等,0,2025-02-18,2025-02-10,一般社団法人Ｈｅａｒｔｓ,,その他の設立登記法人,宮城県,栗原市,築館字上高森４９番地４,,04,213,9872246,,,2025-02-10,清算の結了等,,,2015-10-05,1,,,,,ハーツ,0
1858,7430002059869,登記記録の閉鎖等,0,2025-02-18,2025-02-14,有限会社北永シエル,,有限会社,北海道,苫小牧市,字樽前２２０番地４８,,01,213,0591265,,,2025-02-14,清算の結了等,,,2015-10-05,1,,,,,ホクエイシエル,0
1901,8010403030825,登記記録の閉鎖等,0,2025-02-18,2025-01-30,ソーラーファラデー合同会社,,合同会社,東京都,港区,西新橋１丁目２番９号メンターキャピタル税理士法人内,,13,103,1050003,,,2025-01-30,清算の結了等,,,2023-08-29,1,,,,,ソーラーファラデー,0
1909,8010801018298,登記記録の閉鎖等,0,2025-02-18,2025-01-24,スチューダテック株式会社,,株式会社,東京都,大田区,大森北４丁目１０番８号松本印刷ビル２階,,13,111,1430016,,,2025-01-24,合併による解散等,8180301013543,令和７年１月１日愛知県安城市三河安城町一丁目１０番地１４ワルターエワーグジャパン株式会社（8180301013543）に合併し解散,2015-10-05,1,,,,,スチューダテック,0
1921,8011001018873,登記記録の閉鎖等,0,2025-02-18,2025-01-21,パナールイオン販賣株式会社,,株式会社,東京都,渋谷区,本町６丁目１５番２号,,13,113,1510071,,,2025-01-21,清算の結了等,,,2015-10-05,1,,,,,パナールイオンハンバイ,0
1934,8011101082737,登記記録の閉鎖等,0,2025-02-18,2025-02-12,株式会社ＯＭＯＴＥＮＡＳＨＩ,,株式会社,愛知県,小牧市,小牧４丁目１４６番地,,23,219,4850041,,,2025-02-12,清算の結了等,,,2018-01-04,1,,,,,オモテナシ,0
2016,8110001035605,登記記録の閉鎖等,0,2025-02-18,2025-02-12,株式会社ＡｋｉｋｉｎｎＪＡＰＡＮ,,株式会社,新潟県,新潟市西区,寺尾上１丁目１０番２号第１コーポひまわり１０１,,15,107,9502055,,,2025-02-12,清算の結了等,,,2021-03-10,1,,,,,アキキンジャパン,0
2018,8120001129166,登記記録の閉鎖等,0,2025-02-18,2025-02-17,三吉ホーム株式会社,,株式会社,大阪府,大阪市住吉区,苅田９丁目１５番３９号,,27,120,5580011,,,2025-02-17,清算の結了等,,,2015-10-05,1,,,,,サンキチホーム,0
2049,8120901043251,登記記録の閉鎖等,0,2025-02-18,2025-02-10,株式会社テレネクト,,株式会社,大阪府,箕面市,粟生間谷東６丁目３２番９号,,27,220,5620022,,,2025-02-10,清算の結了等,,,2020-09-29,1,,,,,テレネクト,0
2058,8140001008756,登記記録の閉鎖等,0,2025-02-18,2025-02-04,誠和興産株式会社,,株式会社,兵庫県,神戸市灘区,高徳町６丁目３番５－５０２,,28,102,6570025,,,2025-02-04,清算の結了等,,,2015-10-05,1,,,,,セイワコウサン,0
2066,8140002061259,登記記録の閉鎖等,0,2025-02-18,2025-02-12,有限会社フィッシング山本,,有限会社,兵庫県,加東市,社１５１２番地の３,,28,228,6731431,,,2025-02-12,清算の結了等,,,2015-10-05,1,,,,,フィッシングヤマモト,0
2079,8180302006158,登記記録の閉鎖等,0,2025-02-18,2025-02-12,株式会社アクト電気,,株式会社,愛知県,豊橋市,牟呂市場町１７番地の９,,23,201,4418088,,,2025-02-12,合併による解散等,8010001149464,令和６年１２月３１日東京都港区東新橋一丁目５番２号汐留シティセンター８階ブルースカイ総合開発株式会社（8010001149464）に合併し解散,2015-10-05,1,,,,,アクトデンキ,0
2080,8190002020607,登記記録の閉鎖等,0,2025-02-18,2025-02-14,有限会社翠泉,,有限会社,三重県,四日市市,楠町小倉７８０番地の４,,24,202,5100101,,,2025-02-14,清算の結了等,,,2015-10-05,1,,,,,スイセン,0
2082,8200001037121,登記記録の閉鎖等,0,2025-02-18,2025-02-17,株式会社ＶＥＲＩＴＡＳ,,株式会社,岐阜県,瑞浪市,薬師町２丁目５４番地１,,21,208,5096135,,,2025-02-17,清算の結了等,,,2020-02-04,1,,,,,ヴェリタス,0
2091,8250001012185,登記記録の閉鎖等,0,2025-02-18,2025-02-05,株式会社未友,,株式会社,山口県,岩国市,由宇町港１丁目１０番１５号,,35,208,7401424,,,2025-02-05,合併による解散等,3250001013089,令和７年２月１日山口県岩国市由宇町南沖一丁目１０番２５号株式会社ＵＵライフ（3250001013089）に合併し解散,2015-10-05,1,,,,,ミトモ,0
2092,8250002016508,登記記録の閉鎖等,0,2025-02-18,2025-02-14,アサヒ興産有限会社,,有限会社,山口県,周南市,古泉１丁目１２番７号,,35,215,7460024,,,2025-02-14,清算の結了等,,,2015-10-05,1,,,,,アサヒコウサン,0
2098,8280002001060,登記記録の閉鎖等,0,2025-02-18,2025-02-17,有限会社新興塗装,,有限会社,島根県,松江市,松尾町７２６番地,,32,201,6900043,,,2025-02-17,清算の結了等,,,2015-10-05,1,,,,,シンコウトソウ,0
2099,8280002001630,登記記録の閉鎖等,0,2025-02-18,2025-02-17,株式会社ながさこ,,株式会社,島根県,松江市,学園２丁目３０番２号,,32,201,6900825,,,2025-02-17,清算の結了等,,,2015-10-05,1,,,,,ナガサコ,0
2125,8350001011045,登記記録の閉鎖等,0,2025-02-18,2025-02-14,株式会社日空,,株式会社,宮崎県,宮崎市,東大宮２丁目２７番６８号,,45,201,8800825,,,2025-02-14,清算の結了等,,,2015-10-05,1,,,,,ニックウ,0
2150,8500002003026,登記記録の閉鎖等,0,2025-02-18,2025-01-23,有限会社サンデン,,有限会社,愛媛県,松山市,別府町３７４番地２,,38,201,7918056,,,2025-01-23,合併による解散等,1500002007066,令和６年１２月１日愛媛県松山市南吉田町２７９６番地５株式会社山田工業（1500002007066）に合併し解散,2015-10-05,1,,,,,,0
2151,8500002015673,登記記録の閉鎖等,0,2025-02-18,2025-01-28,住化高純度ガス有限会社,,有限会社,愛媛県,新居浜市,惣開町５番１号,,38,205,7920001,,,2025-01-28,合併による解散等,2010001071327,令和７年１月１日東京都中央区日本橋二丁目７番１号住友化学株式会社（2010001071327）に合併し解散,2015-10-05,1,,,,,スミカコウジュンドガス,0
2152,8500005006414,登記記録の閉鎖等,0,2025-02-18,2025-01-22,天理教伊南分教会,,その他の設立登記法人,愛媛県,宇和島市,津島町脇５２８番地,,38,203,7983355,,,2025-01-22,合併による解散等,7500005006670,令和７年１月２２日愛媛県南宇和郡愛南町一本松３６１５番地１天理教南宇和分教会（7500005006670）に合併し解散,2015-10-05,1,,,,,テンリキョウイナンブンキョウカイ,0
2183,9010501002576,登記記録の閉鎖等,0,2025-02-18,2025-02-06,株式会社加瀬工務店,,株式会社,東京都,台東区,寿２丁目５番１２号,,13,106,1110042,,,2025-02-06,清算の結了等,,,2015-10-05,1,,,,,カセコウムテン,0
2196,9010901047808,登記記録の閉鎖等,0,2025-02-18,2025-01-20,株式会社イトナミ,,株式会社,神奈川県,横浜市中区,南仲通３丁目３５番地横浜エクセレントＩＩＩ,00131530,14,104,2310006,,,2025-01-20,合併による解散等,2020001140618,令和７年１月１９日神奈川県横浜市中区南仲通三丁目３５番地横浜エクセレントＩＩＩＴｉＬ株式会社（2020001140618）に合併し解散,2021-01-13,1,,,,,イトナミ,0
2200,9011001064405,登記記録の閉鎖等,0,2025-02-18,2025-01-20,株式会社ファインズ,,株式会社,東京都,渋谷区,代官山町８－７Ｄａｉｗａ代官山ビル,,13,113,1500034,,,2025-01-20,清算の結了等,,,2015-10-05,1,,,,,ファインズ,0
2214,9011101090813,登記記録の閉鎖等,0,2025-02-18,2025-02-13,株式会社ワイス・ワイス,,株式会社,東京都,新宿区,西新宿３丁目７番１号新宿パークタワー,,13,104,1600023,,,2025-02-13,合併による解散等,4010001168385,令和７年２月１日静岡県浜松市浜名区永島１２９５番地株式会社マルホン（4010001168385）に合併し解散,2020-03-23,1,,,,,ワイスワイス,0
2215,9011102006826,登記記録の閉鎖等,0,2025-02-18,2025-02-07,有限会社すゞしろ,,有限会社,東京都,新宿区,荒木町８番地１根本ビル,,13,104,1600007,,,2025-02-07,清算の結了等,,,2015-10-05,1,,,,,スズシロ,0
2216,9011103013499,登記記録の閉鎖等,0,2025-02-18,2025-02-06,合同会社Ｇｌｉｎｔｓ　Ｊａｐａｎ,,合同会社,東京都,新宿区,西新宿３丁目３番１３号西新宿水間ビル２階,,13,104,1600023,,,2025-02-06,清算の結了等,,,2023-09-20,1,,,,,グリンツジャパン,0
2217,9011202012740,登記記録の閉鎖等,0,2025-02-18,2025-02-10,有限会社エス・アイ・エス,,有限会社,埼玉県,桶川市,上日出谷南３丁目１７番地の６殿山グリーンハイツ２０７号,,11,231,3630020,,,2025-02-10,清算の結了等,,,2015-10-05,1,,,,,エスアイエス,0
2221,9011601000899,登記記録の閉鎖等,0,2025-02-18,2025-02-07,株式会社エイティ,,株式会社,東京都,新宿区,天神町１番地天台ビル,,13,104,1620808,,,2025-02-07,清算の結了等,,,2015-10-05,1,,,,,エイティ,0
2223,9011601027091,登記記録の閉鎖等,0,2025-02-18,2025-01-30,株式会社アサ,,株式会社,東京都,練馬区,桜台１丁目７番７－４２０号,,13,120,1760002,,,2025-01-30,清算の結了等,,,2023-09-04,1,,,,,アサ,0
2244,9020001149438,登記記録の閉鎖等,0,2025-02-18,2025-01-20,ＴｉＬ株式会社,,株式会社,神奈川県,横浜市中区,南仲通３丁目３５番地横浜エクセレントＩＩＩ,00133612,14,104,2310006,,,2025-01-20,合併による解散等,2020001140618,令和７年１月１９日神奈川県横浜市中区南仲通三丁目３５番地横浜エクセレントＩＩＩＴｉＬ株式会社（2020001140618）に合併し解散,2022-12-19,1,,,,,ティル,0
2254,9021002068271,登記記録の閉鎖等,0,2025-02-18,2025-02-14,有限会社逗子医療センター,00013940,有限会社,神奈川県,逗子市,逗子５丁目９番２１号,,14,208,2490006,,,2025-02-14,清算の結了等,,,2015-10-05,1,,,,,ズシイリョウセンター,0
2260,9030001122765,登記記録の閉鎖等,0,2025-02-18,2025-02-10,株式会社ヒトライズ,,株式会社,埼玉県,さいたま市大宮区,桜木町２丁目３番地,,11,103,3300854,,,2025-02-10,清算の結了等,,,2017-11-06,1,,,,,ヒトライズ,0
2269,9030002066326,登記記録の閉鎖等,0,2025-02-18,2025-02-12,有限会社香月国際コンサルティング,,有限会社,埼玉県,新座市,畑中１丁目１１番３－１０１１号,,11,230,3520012,,,2025-02-12,清算の結了等,,,2015-10-05,1,,,,,カツキコクサイコンサルティング,0
2274,9040001029877,登記記録の閉鎖等,0,2025-02-18,2025-02-12,バータートレーディング株式会社,,株式会社,千葉県,浦安市,美浜５丁目９番１００６号,,12,227,2790011,,,2025-02-12,清算の結了等,,,2015-10-05,1,,,,,バータートレーディング,0
2293,9050001009135,登記記録の閉鎖等,0,2025-02-18,2025-02-10,株式会社佐々木建工舎,,株式会社,茨城県,土浦市,小松３丁目２４番１６号,,08,203,3000823,,,2025-02-10,清算の結了等,,,2015-10-05,1,,,,,ササキケンコウシャ,0
2296,9050002001999,登記記録の閉鎖等,0,2025-02-18,2025-02-10,有限会社太平企画設計工務所,,有限会社,茨城県,水戸市,東赤塚２１２４番地,,08,201,3114142,,,2025-02-10,清算の結了等,,,2015-10-05,1,,,,,タイヘイキカクセッケイコウムショ,0
2301,9070002006476,登記記録の閉鎖等,0,2025-02-18,2025-02-14,アドバン電子有限会社,,有限会社,群馬県,前橋市,上細井町１２１７番地,,10,201,3710051,,,2025-02-14,清算の結了等,,,2015-10-05,1,,,,,アドバンデンシ,0
2304,9100001021274,登記記録の閉鎖等,0,2025-02-18,2025-02-10,株式会社タイセイハム,,株式会社,長野県,上伊那郡飯島町,田切１２１２番地３９６,,20,384,3993701,,,2025-02-10,清算の結了等,,,2015-10-05,1,,,,,タイセイハム,0
2321,9120002007139,登記記録の閉鎖等,0,2025-02-18,2025-02-10,中道アドミサービス有限会社,,有限会社,大阪府,大阪市東成区,中道２丁目８番３号,,27,115,5370025,,,2025-02-10,清算の結了等,,,2015-10-05,1,,,,,ナカミチアドミサービス,0
2337,9122003001120,登記記録の閉鎖等,0,2025-02-18,2025-02-12,合同会社杏ベリール,,合同会社,大阪府,大阪市平野区,平野西６丁目５番９－２０４号,,27,126,5470033,,,2025-02-12,清算の結了等,,,2015-10-05,1,,,,,アンベリール,0
2344,9140001074368,登記記録の閉鎖等,0,2025-02-18,2025-02-12,ニシキ建物株式会社,,株式会社,兵庫県,西宮市,甲子園町１５番２号,,28,204,6638152,,,2025-02-12,清算の結了等,,,2015-10-05,1,,,,,ニシキタテモノ,0
2368,9180001106761,登記記録の閉鎖等,0,2025-02-18,2025-02-14,ロイヤルスパイス株式会社,,株式会社,愛知県,尾張旭市,新居町上の田２８８３番地１,,23,226,4880073,,,2025-02-14,清算の結了等,,,2015-10-05,1,,,,,ロイヤルスパイス,0
2377,9180002071162,登記記録の閉鎖等,0,2025-02-18,2025-02-12,株式会社Ｖｏｇｕｅ,,株式会社,愛知県,名古屋市守山区,大森３丁目１９１１番地（ボヌール積和３２Ａ棟２０２号）,,23,113,4630021,,,2025-02-12,清算の結了等,,,2015-10-05,1,,,,,ボーグ,0
2385,9210005008050,登記記録の閉鎖等,0,2025-02-18,2025-02-12,医療法人川口小児科医院,,その他の設立登記法人,福井県,鯖江市,桜町２丁目８番２２号,,18,207,9160027,,,2025-02-12,清算の結了等,,,2015-10-05,1,,,,,カワグチショウニカイイン,0
2390,9240002034071,登記記録の閉鎖等,0,2025-02-18,2025-02-13,有限会社本出重量,,有限会社,広島県,呉市,広町田２丁目６番３３号,,34,202,7370104,,,2025-02-13,清算の結了等,,,2015-10-05,1,,,,,ホンデジュウリョウ,0
2402,9300002000406,登記記録の閉鎖等,0,2025-02-18,2025-02-14,有限会社久米商事,,有限会社,佐賀県,佐賀市,赤松町４番６号,,41,201,8400042,,,2025-02-14,清算の結了等,,,2015-10-05,1,,,,,クメショウジ,0
2421,9430002056518,登記記録の閉鎖等,0,2025-02-18,2025-02-10,有限会社長谷川工務店,,有限会社,北海道,余市郡余市町,黒川町１３丁目４７番地,,01,408,0460003,,,2025-02-10,清算の結了等,,,2015-10-05,1,,,,,ハセガワコウムテン,0
2426,9500005006413,登記記録の閉鎖等,0,2025-02-18,2025-01-22,天理教岩高分教会,,その他の設立登記法人,愛媛県,宇和島市,津島町高田甲７７０番地,,38,203,7983302,,,2025-01-22,合併による解散等,7500005006670,令和７年１月２２日愛媛県南宇和郡愛南町一本松３６１５番地１天理教南宇和分教会（7500005006670）に合併し解散,2015-10-05,1,,,,,テンリキョウイワタカブンキョウカイ,0
2429,9700150103944,登記記録の閉鎖等,0,2025-02-18,2023-04-30,馬場島愛好会,,その他,富山県,中新川郡上市町,伊折１,,16,322,9300437,,,2023-04-30,その他の清算の結了等,,,2021-07-01,1,,,,,バンバジマアイコウカイ,0
