sequenceNumber,corporateNumber,process,correct,updateDate,changeDate,name,nameImageId,kind,prefectureName,cityName,streetNumber,addressImageId,prefectureCode,cityCode,postCode,addressOutside,addressOutsideImageId,closeDate,closeCause,successorCorporateNumber,changeCause,assignmentDate,latest,enName,enPrefectureName,enCityName,enAddressOutside,furigana,hihyoji
11,1010401165051,新規,0,2022-01-21,2022-01-21,株式会社アイシンクＨＤ,,株式会社,東京都,港区,新橋４丁目１９番６号,,13,103,1050004,,,,,,,2022-01-21,1,,,,,アイシンクエイチディー,0
12,1010401165084,新規,0,2022-01-21,2022-01-21,ホライズン１５株式会社,,株式会社,東京都,港区,西新橋２丁目８番６号,,13,103,1050003,,,,,,,2022-01-21,1,,,,,ホライズンフィフティーン,0
13,1010403026937,新規,0,2022-01-21,2022-01-21,レジデンシャル５合同会社,,合同会社,東京都,港区,虎ノ門３丁目２２番１０－２０１号,,13,103,1050001,,,,,,,2022-01-21,1,,,,,レジデンシャルファイブ,0
14,1010405020590,新規,0,2022-01-21,2022-01-21,一般社団法人日本アウフギーサー協会,,その他の設立登記法人,東京都,港区,芝浦１丁目６番４１－１３０６号,,13,103,1050023,,,,,,,2022-01-21,1,,,,,ニホンアウフギーサーキョウカイ,0
18,1010601060449,新規,0,2022-01-21,2022-01-21,株式会社カメヤ不動産,,株式会社,東京都,江東区,亀戸５丁目３７番３号,,13,108,1360071,,,,,,,2022-01-21,1,,,,,カメヤフドウサン,0
19,1010601060523,新規,0,2022-01-21,2022-01-21,株式会社ＡＧＯＯＳＥ　ＤＲＥＡＭ　ＦＡＣＴＯＲＹ,,株式会社,東京都,江東区,北砂４丁目６番２３号,,13,108,1360073,,,,,,,2022-01-21,1,,,,,アグースドリームファクトリー,0
23,1010701042099,新規,0,2022-01-21,2022-01-21,ピースホームタウンプラス株式会社,,株式会社,東京都,品川区,西五反田５丁目２－４レキシントンプラザ西五反田１Ｆ,,13,109,1410031,,,,,,,2022-01-21,1,,,,,ピースホームタウンプラス,0
24,1010703006077,新規,0,2022-01-21,2022-01-21,特建定期合同会社,,合同会社,東京都,品川区,北品川１丁目１番１１号第３小池ビル４階,,13,109,1400001,,,,,,,2022-01-21,1,,,,,トッケンテーキ,0
31,1010901050208,新規,0,2022-01-21,2022-01-21,カフナ株式会社,,株式会社,東京都,世田谷区,下馬２丁目１８－１１－３０６,,13,112,1540002,,,,,,,2022-01-21,1,,,,,カフナ,0
40,1011001145088,新規,0,2022-01-21,2022-01-21,アヴァンツァーレ株式会社,,株式会社,東京都,渋谷区,神宮前６丁目３番９号井門原宿ビル４階,,13,113,1500001,,,,,,,2022-01-21,1,,,,,アヴァンツァーレ,0
41,1011001145220,新規,0,2022-01-21,2022-01-21,株式会社ＰｏｗｅｒＥｘｉｔ,,株式会社,東京都,渋谷区,広尾１丁目１０番５－４０５号,,13,113,1500012,,,,,,,2022-01-21,1,,,,,パワーイグジット,0
42,1011001145229,新規,0,2022-01-21,2022-01-21,株式会社ＭＳ,,株式会社,東京都,渋谷区,本町２丁目１６番５号,,13,113,1510071,,,,,,,2022-01-21,1,,,,,エムエス,0
49,1011101097510,新規,0,2022-01-21,2022-01-21,株式会社ＮＯＷＡＬＩＶＥ,,株式会社,東京都,新宿区,新小川町７番２３号,,13,104,1620814,,,,,,,2022-01-21,1,,,,,ナウアライブ,0
50,1011101097576,新規,0,2022-01-21,2022-01-21,株式会社Ｄｏｔｓ　Ｍａｋｅ　Ｌｉｎｅ,,株式会社,東京都,新宿区,高田馬場３丁目１番５号サンパティオ高田馬場３０９号室,,13,104,1690075,,,,,,,2022-01-21,1,,,,,ドッツメイクライン,0
51,1011101097584,新規,0,2022-01-21,2022-01-21,株式会社大慧コーポレーション,,株式会社,東京都,新宿区,西早稲田３丁目８番１－５２６号,,13,104,1690051,,,,,,,2022-01-21,1,,,,,ダイケイコーポレーション,0
52,1011103011378,新規,0,2022-01-21,2022-01-21,ＳＣＲＩＢＥ合同会社,,合同会社,東京都,新宿区,神楽坂５丁目１番地２号神楽坂ＴＮヒルズ５Ｆ・５０３,,13,104,1620825,,,,,,,2022-01-21,1,,,,,スクリーブ,0
57,1011501027661,新規,0,2022-01-21,2022-01-21,株式会社ＮＵＯＲＥ,,株式会社,東京都,荒川区,西日暮里１丁目５５－３ｔｒｉａｓ１５５・４０３号,,13,118,1160013,,,,,,,2022-01-21,1,,,,,,0
58,1011501027686,新規,0,2022-01-21,2022-01-21,株式会社平成不動産,,株式会社,東京都,荒川区,西尾久１丁目１８番７号,,13,118,1160011,,,,,,,2022-01-21,1,,,,,ヘイセイフドウサン,0
78,1012301012820,新規,0,2022-01-21,2022-01-21,マッチングジャパン株式会社,,株式会社,東京都,町田市,木曽東２丁目１３－１３,,13,209,1940036,,,,,,,2022-01-21,1,,,,,マッチングジャパン,0
87,1013303006001,新規,0,2022-01-21,2022-01-21,Ｔｒａｎ’ｓ　Ｌｅｇａｃｙ合同会社,,合同会社,東京都,豊島区,南池袋１丁目９番１８号１６１号室,,13,116,1710022,,,,,,,2022-01-21,1,,,,,チャンズレガシー,0
128,1020003021180,新規,0,2022-01-21,2022-01-21,合同会社Ｐｒｅｍｉｅｒ　Ｓｔａｇｅ,,合同会社,神奈川県,川崎市宮前区,菅生６丁目３５番４０号ヒルサイドテラス１０１,,14,136,2160015,,,,,,,2022-01-21,1,,,,,プレミアステージ,0
135,1021001075004,新規,0,2022-01-21,2022-01-21,ＣＨＩＮＯ株式会社,,株式会社,神奈川県,横須賀市,上町１丁目１２番地２号加藤店舗,,14,201,2380017,,,,,,,2022-01-21,1,,,,,チノ,0
149,1030001146400,新規,0,2022-01-21,2022-01-21,ＯｕｒＡｒｋ株式会社,,株式会社,埼玉県,川越市,稲荷町１１番地６７,,11,201,3501144,,,,,,,2022-01-21,1,,,,,アワアーク,0
150,1030001146425,新規,0,2022-01-21,2022-01-21,株式会社エスエスアール,,株式会社,埼玉県,さいたま市北区,植竹町１丁目３８６番地,,11,102,3310813,,,,,,,2022-01-21,1,,,,,エスエスアール,0
151,1030001146433,新規,0,2022-01-21,2022-01-21,株式会社ＯＮＥエンジニアリングス,,株式会社,埼玉県,深谷市,萱場２２７番地７,,11,218,3660818,,,,,,,2022-01-21,1,,,,,ワンエンジニアリングス,0
152,1030001146458,新規,0,2022-01-21,2022-01-21,株式会社アトラス,,株式会社,埼玉県,さいたま市見沼区,大字東門前３５９番地２,,11,104,3370016,,,,,,,2022-01-21,1,,,,,アトラス,0
163,1030003018647,新規,0,2022-01-21,2022-01-21,合同会社Ｈ２Ｏ,,合同会社,埼玉県,さいたま市北区,本郷町４４５－２０５号室,,11,102,3310802,,,,,,,2022-01-21,1,,,,,エイチツーオー,0
164,1030003018705,新規,0,2022-01-21,2022-01-21,合同会社ｎ２,,合同会社,埼玉県,富士見市,羽沢１丁目２７番４－４０４号,,11,235,3540033,,,,,,,2022-01-21,1,,,,,エヌツー,0
173,1040003019339,新規,0,2022-01-21,2022-01-21,ｔｈｏｔｈｅｃ合同会社,,合同会社,千葉県,千葉市稲毛区,小仲台２丁目６－１京成稲毛ビル２階ＫＥＩＳＥＩ×ＢＩＺｃｏｍｆｏｒｔ稲毛内,,12,103,2630043,,,,,,,2022-01-21,1,,,,,トーテック,0
220,1080001024700,新規,0,2022-01-21,2022-01-21,株式会社Ｎ・ＭＥ,,株式会社,静岡県,静岡市清水区,西久保１丁目１番３５－５号,,22,103,4240038,,,,,,,2022-01-21,1,,,,,エヌエムイー,0
222,1080401025579,新規,0,2022-01-21,2022-01-21,株式会社ななほう,,株式会社,静岡県,湖西市,風の杜２４番地の６,,22,221,4310432,,,,,,,2022-01-21,1,,,,,ナナホウ,0
223,1080405007425,新規,0,2022-01-21,2022-01-21,税理士法人天野会計事務所,,その他の設立登記法人,静岡県,浜松市中区,高丘東２丁目１９番５０号,,22,131,4338117,,,,,,,2022-01-21,1,,,,,アマノカイケイジムショ,0
243,1120001243329,新規,0,2022-01-21,2022-01-21,株式会社ＤＡチャレンジャーズ,,株式会社,大阪府,大阪市淀川区,三国本町１丁目１５番４－９０２号,,27,123,5320005,,,,,,,2022-01-21,1,,,,,ディーエーチャレンジャーズ,0
248,1120003020908,新規,0,2022-01-21,2022-01-21,合同会社ｅｉＴｏ８,,合同会社,大阪府,枚方市,大垣内町２丁目７番１９号,,27,210,5730027,,,,,,,2022-01-21,1,,,,,エイト,0
249,1120005022729,新規,0,2022-01-21,2022-01-21,医療法人咲栄会,,その他の設立登記法人,大阪府,大阪市北区,梅田１丁目８番１６号,,27,127,5300001,,,,,,,2022-01-21,1,,,,,サクエイカイ,0
257,1120905006260,新規,0,2022-01-21,2022-01-21,医療法人希望会,,その他の設立登記法人,大阪府,豊中市,庄内栄町５丁目５番２６号,,27,203,5610834,,,,,,,2022-01-21,1,,,,,キボウカイ,0
260,1122001035524,新規,0,2022-01-21,2022-01-21,株式会社ｖｉｖｉｄ,,株式会社,大阪府,東大阪市,三ノ瀬１丁目１番３－２０１号,,27,227,5770849,,,,,,,2022-01-21,1,,,,,ビビッド,0
264,1130001070945,新規,0,2022-01-21,2022-01-21,Ｓｏｐｈｉａｐｌｕｓ株式会社,,株式会社,京都府,京都市左京区,吉田橘町３２ｔｏｂｅｒｕ１,,26,103,6068303,,,,,,,2022-01-21,1,,,,,ソフィアプラス,0
265,1130005016366,新規,0,2022-01-21,2022-01-21,医療法人山本歯科口腔外科医院,,その他の設立登記法人,京都府,京都市中京区,新京極通三条下る桜之町４４６番地,,26,104,6048035,,,,,,,2022-01-21,1,,,,,ヤマモトシカコウクウゲカイイン,0
281,1150003002606,新規,0,2022-01-21,2022-01-21,合同会社ネクストステージ,,合同会社,奈良県,北葛城郡王寺町,久度２丁目３番１号リーベル王寺西館１階,,29,425,6360003,,,,,,,2022-01-21,1,,,,,ネクストステージ,0
288,1180001149669,新規,0,2022-01-21,2022-01-21,株式会社ＶＧ,,株式会社,愛知県,清須市,西枇杷島町地領２丁目１４番地４,,23,233,4520008,,,,,,,2022-01-21,1,,,,,ブイジー,0
289,1180001149677,新規,0,2022-01-21,2022-01-21,株式会社ワンダ,,株式会社,愛知県,名古屋市中区,新栄３丁目２０番２７号アクシオス千種３１０３号,,23,106,4600007,,,,,,,2022-01-21,1,,,,,ワンダ,0
292,1180301035866,新規,0,2022-01-21,2022-01-21,株式会社ＰｕｚｚＬｉｎｋ,,株式会社,愛知県,豊田市,小坂本町１丁目５‐５ＹＡＭＡＴＯＢＬＤＧ２Ｆ,,23,211,4710034,,,,,,,2022-01-21,1,,,,,パズリンク,0
327,1290001096149,新規,0,2022-01-21,2022-01-21,株式会社ツナグ,,株式会社,福岡県,福岡市中央区,長浜２丁目５－２２Ｆビル４階,,40,133,8100072,,,,,,,2022-01-21,1,,,,,ツナグ,0
328,1290001096165,新規,0,2022-01-21,2022-01-21,福恒金属株式会社,,株式会社,福岡県,嘉麻市,平山７５３番地６,,40,227,8200506,,,,,,,2022-01-21,1,,,,,フクツネキンゾク,0
348,1290003012054,新規,0,2022-01-21,2022-01-21,合同会社ふじこカンパニー,,合同会社,福岡県,福岡市中央区,薬院２丁目１２番１２‐１１０１号,,40,133,8100022,,,,,,,2022-01-21,1,,,,,フジコカンパニー,0
349,1290003012062,新規,0,2022-01-21,2022-01-21,合同会社Ｌｕｐｉｎｕｓ,,合同会社,福岡県,糸島市,志摩野北３９０８－１,,40,230,8191303,,,,,,,2022-01-21,1,,,,,ルピナス,0
358,1290005018537,新規,0,2022-01-21,2022-01-21,ＮＰＯ法人ＩＭＰ未来共創,,その他の設立登記法人,福岡県,糟屋郡志免町,志免４丁目１４番３２号,,40,343,8112202,,,,,,,2022-01-21,1,,,,,アイエムピィミライキョウソウ,0
364,1310003004263,新規,0,2022-01-21,2022-01-21,合同会社ルビーローズ,,合同会社,長崎県,大村市,西本町７４８番地１１オーガストマンション４０２号,,42,205,8560837,,,,,,,2022-01-21,1,,,,,ルビーローズ,0
367,1330003009211,新規,0,2022-01-21,2022-01-21,合同会社きぼう,,合同会社,熊本県,熊本市北区,山室６丁目９－３０ステップハウスＢ１０５号,,43,105,8600084,,,,,,,2022-01-21,1,,,,,キボウ,0
371,1360003011750,新規,0,2022-01-21,2022-01-21,農地所有適格法人合同会社ペガサス,,合同会社,沖縄県,糸満市,西崎町３丁目２０番地,,47,210,9010306,,,,,,,2022-01-21,1,,,,,ノウチショユウテキカクホウジンペガサス,0
380,1400003002885,新規,0,2022-01-21,2022-01-21,ｌｏｃａｌ　ｈａｃｋ合同会社,,合同会社,岩手県,釜石市,源太沢町１丁目４－１,,03,211,0260042,,,,,,,2022-01-21,1,,,,,ローカルハック,0
397,1490001010097,新規,0,2022-01-21,2022-01-21,株式会社ファーストウィル,,株式会社,高知県,高知市,神田７５９番地１,,39,201,7808040,,,,,,,2022-01-21,1,,,,,ファーストウィル,0
400,1490005006819,新規,0,2022-01-21,2022-01-21,特定非営利活動法人夢来里の風,,その他の設立登記法人,高知県,長岡郡大豊町,大平４５番地１,,39,344,7890169,,,,,,,2022-01-21,1,,,,,ムラザトノカゼ,0
401,1500001023956,新規,0,2022-01-21,2022-01-21,株式会社一葉工業,,株式会社,愛媛県,松山市,東野３丁目１５番２９号,,38,201,7900903,,,,,,,2022-01-21,1,,,,,イチハコウギョウ,0
402,1700150106764,新規,0,2022-01-21,2022-01-21,ＢＲＥＡＴＨ　ＥＮＴＥＲＰＲＩＳＥ,,外国会社等,茨城県,稲敷市,結佐２９５２番地１－３　ユートピアビルディング１１０,,08,229,3000734,スリランカ民主社会主義共和国、ジャフナ、ムールストリート、ナバラロード、１５３－３,,,,,,2022-01-21,1,,,,,ブレスエンタープライズ,0
408,2010001223893,新規,0,2022-01-21,2022-01-21,カリス株式会社,,株式会社,東京都,中央区,日本橋室町４丁目３番９号ＳＢＣ合同会社内,,13,102,1030022,,,,,,,2022-01-21,1,,,,,カリス,0
409,2010003036807,新規,0,2022-01-21,2022-01-21,合同会社Ｐｒｉｏｒｉ,,合同会社,東京都,中央区,銀座１丁目６番１１号土志田ビルディング３Ｆ,,13,102,1040061,,,,,,,2022-01-21,1,,,,,プリオリ,0
411,2010005034486,新規,0,2022-01-21,2022-01-21,一般社団法人つつじエナジー・インフラＨＤ熊本菊池,,その他の設立登記法人,東京都,中央区,日本橋１丁目４番１号,,13,102,1030027,,,,,,,2022-01-21,1,,,,,ツツジエナジーインフラエイチディークマモトキクチ,0
427,2010401164878,新規,0,2022-01-21,2022-01-21,株式会社ＵＥＤＡ,,株式会社,東京都,港区,南青山５丁目４番３５号,,13,103,1070062,,,,,,,2022-01-21,1,,,,,ウエダ,0
428,2010401165042,新規,0,2022-01-21,2022-01-21,株式会社ｋａｉｓｈａ,,株式会社,東京都,港区,南青山２丁目２番１５号,,13,103,1070062,,,,,,,2022-01-21,1,,,,,カイシャ,0
429,2010401165050,新規,0,2022-01-21,2022-01-21,株式会社ブランドジャーナリズム,,株式会社,東京都,港区,東新橋１丁目１０－２－２００２,,13,103,1050021,,,,,,,2022-01-21,1,,,,,ブランドジャーナリズム,0
430,2010401165083,新規,0,2022-01-21,2022-01-21,東京ベイミュージック株式会社,,株式会社,東京都,港区,海岸３丁目２４番１７号,,13,103,1080022,,,,,,,2022-01-21,1,,,,,トウキョウベイミュージック,0
431,2010401165109,新規,0,2022-01-21,2022-01-21,株式会社スタディア,,株式会社,東京都,港区,麻布台１丁目９番１０号飯倉ＩＴビル５階,,13,103,1060041,,,,,,,2022-01-21,1,,,,,スタディア,0
436,2010403026928,新規,0,2022-01-21,2022-01-21,Ｃａｐｅｌｌａ　Ｈｏｔｅｌ　Ｇｒｏｕｐ　Ｍａｎａｇｅｍｅｎｔ　Ｔｏｋｙｏ合同会社,,合同会社,東京都,港区,虎ノ門３丁目２２番１０－２０１号,,13,103,1050001,,,,,,,2022-01-21,1,,,,,カペラホテルグループマネジメントトウキョウ,0
437,2010403026936,新規,0,2022-01-21,2022-01-21,パシフィック３合同会社,,合同会社,東京都,港区,虎ノ門３丁目２２番１０－２０１号,,13,103,1050001,,,,,,,2022-01-21,1,,,,,パシフィックスリー,0
438,2010403026960,新規,0,2022-01-21,2022-01-21,合同会社Ｈａｋｏｎｅ　Ｒｅｓｏｒｔｓ　Ｃａｐｉｔａｌ,,合同会社,東京都,港区,虎ノ門５丁目１番４号,,13,103,1050001,,,,,,,2022-01-21,1,,,,,ハコネリゾーツキャピタル,0
439,2010405020615,新規,0,2022-01-21,2022-01-21,ＡＰＦ２ホールディング一般社団法人,,その他の設立登記法人,東京都,港区,虎ノ門３丁目２２番１０－２０１号,,13,103,1050001,,,,,,,2022-01-21,1,,,,,エーピーエフツーホールディング,0
457,2010901050207,新規,0,2022-01-21,2022-01-21,株式会社マジロク,,株式会社,東京都,世田谷区,砧２丁目６番１２号,,13,112,1570073,,,,,,,2022-01-21,1,,,,,マジロク,0
469,2011001145228,新規,0,2022-01-21,2022-01-21,株式会社ＫＳ,,株式会社,東京都,渋谷区,本町２丁目１６番５号,,13,113,1510071,,,,,,,2022-01-21,1,,,,,ケイエス,0
477,2011105010096,新規,0,2022-01-21,2022-01-21,一般社団法人とまりぎの会,,その他の設立登記法人,東京都,新宿区,新宿２丁目１２番１３号,,13,104,1600022,,,,,,,2022-01-21,1,,,,,トマリギノカイ,0
483,2011501027677,新規,0,2022-01-21,2022-01-21,株式会社アバンティ,,株式会社,東京都,荒川区,西日暮里２丁目２５番１号,,13,118,1160013,,,,,,,2022-01-21,1,,,,,アバンティ,0
496,2011801040231,新規,0,2022-01-21,2022-01-21,株式会社レベックス,,株式会社,東京都,葛飾区,東新小岩１丁目１３－１１,,13,122,1240023,,,,,,,2022-01-21,1,,,,,レベックス,0
500,2012803002681,新規,0,2022-01-21,2022-01-21,合同会社あんへりいと,,合同会社,東京都,東大和市,桜が丘２丁目１４２番地の１２,,13,220,2070022,,,,,,,2022-01-21,1,,,,,アンヘリイト,0
521,2020001144874,新規,0,2022-01-21,2022-01-21,株式会社パークパレス,,株式会社,神奈川県,横浜市港北区,大倉山２丁目１１番６号,,14,109,2220037,,,,,,,2022-01-21,1,,,,,パークパレス,0
562,2030001146465,新規,0,2022-01-21,2022-01-21,昊文株式会社,,株式会社,埼玉県,蕨市,塚越７丁目３番１６号－３０１,,11,223,3350002,,,,,,,2022-01-21,1,,,,,コウブン,0
579,2040001121839,新規,0,2022-01-21,2022-01-21,椎名工業株式会社,,株式会社,千葉県,千葉市中央区,川戸町５１５番地５ハイツカワードＩＩＩ２０２号,00125475,12,101,2600802,,,,,,,2022-01-21,1,,,,,シイナコウギョウ,0
580,2040001121847,新規,0,2022-01-21,2022-01-21,Ｉ　ｏｆｆｉｃｅ株式会社,,株式会社,千葉県,白井市,根１０２９－６６,,12,232,2701431,,,,,,,2022-01-21,1,,,,,アイオフィス,0
581,2040001121855,新規,0,2022-01-21,2022-01-21,塗装屋株式会社,,株式会社,千葉県,鎌ケ谷市,東道野辺７丁目１３番６６号,,12,224,2730115,,,,,,,2022-01-21,1,,,,,トソウヤ,0
586,2040003019338,新規,0,2022-01-21,2022-01-21,４Ｑ合同会社,,合同会社,千葉県,船橋市,前原東１丁目６番１－１０６号,,12,204,2740824,,,,,,,2022-01-21,1,,,,,ヨンキュー,0
592,2050003006327,新規,0,2022-01-21,2022-01-21,合同会社ＳＴＣ,,合同会社,茨城県,坂東市,沓掛１７３９番地４ネオグラス１０３号,,08,228,3060515,,,,,,,2022-01-21,1,,,,,エスティーシー,0
630,2070001038873,新規,0,2022-01-21,2022-01-21,株式会社ティーズカンパニー,,株式会社,群馬県,高崎市,鼻高町３５番地５,,10,202,3700868,,,,,,,2022-01-21,1,,,,,ティーズカンパニー,0
652,2070003004361,新規,0,2022-01-21,2022-01-21,合同会社ＤＬＳ,,合同会社,群馬県,伊勢崎市,西久保町３丁目９８５番地１,,10,204,3792204,,,,,,,2022-01-21,1,,,,,ディーエルエス,0
662,2100001035000,新規,0,2022-01-21,2022-01-21,株式会社ｔｉｅｓ,,株式会社,長野県,北佐久郡御代田町,大字御代田４１０８－２３５６ラ・フォンテ西軽井沢Ａ２０２,,20,323,3890206,,,,,,,2022-01-21,1,,,,,タイズ,0
671,2120001243294,新規,0,2022-01-21,2022-01-21,トライ財務経営コンサルティング株式会社,,株式会社,大阪府,大阪市旭区,新森５丁目１２番６号,,27,117,5350022,,,,,,,2022-01-21,1,,,,,トライザイムケイエイコンサルティング,0
683,2120903004001,新規,0,2022-01-21,2022-01-21,合同会社シティコーポレーション,,合同会社,大阪府,吹田市,豊津町１－１８エクラート江坂ビル５０８,,27,205,5640051,,,,,,,2022-01-21,1,,,,,シティコーポレーション,0
688,2130001070977,新規,0,2022-01-21,2022-01-21,株式会社ＶＡＲＣＯＮ,,株式会社,京都府,京都市左京区,岡崎南御所町９,,26,103,6068334,,,,,,,2022-01-21,1,,,,,ヴァーコン,0
691,2130005016365,新規,0,2022-01-21,2022-01-21,一般社団法人アスカワールド,,その他の設立登記法人,京都府,京都市左京区,鞍馬二ノ瀬町２９番地１,,26,103,6011113,,,,,,,2022-01-21,1,,,,,アスカワールド,0
698,2140001124633,新規,0,2022-01-21,2022-01-21,株式会社ヒカリカンパニー,,株式会社,兵庫県,淡路市,竹谷４６９番地１３,,28,226,6561524,,,,,,,2022-01-21,1,,,,,ヒカリカンパニー,0
700,2140003017249,新規,0,2022-01-21,2022-01-21,合同会社ブルースカイ,,合同会社,兵庫県,神戸市中央区,海岸通２８番地ＢＥＬＩＳＴＡ神戸旧居留地２１０８号,,28,110,6500024,,,,,,,2022-01-21,1,,,,,ブルースカイ,0
701,2140003017257,新規,0,2022-01-21,2022-01-21,エー・アース合同会社,,合同会社,兵庫県,姫路市,大津区天満８８２－５,,28,201,6711143,,,,,,,2022-01-21,1,,,,,エーアース,0
703,2150001025228,新規,0,2022-01-21,2022-01-21,株式会社目取真解体産業,,株式会社,奈良県,橿原市,川西町１４８番地県住Ｂ３－４０４号,,29,205,6340826,,,,,,,2022-01-21,1,,,,,メドルマカイタイサンギョウ,0
706,2170005006940,新規,0,2022-01-21,2022-01-21,医療法人しらい眼科,,その他の設立登記法人,和歌山県,和歌山市,中５７４番地１シャリエ和歌山大学前ヴェリテ４０７号,,30,201,6408451,,,,,,,2022-01-21,1,,,,,シライガンカ,0
713,2180301035865,新規,0,2022-01-21,2022-01-21,Ｎ’ｓイノベーション株式会社,,株式会社,愛知県,豊田市,青木町５丁目２０番地４２,,23,211,4700335,,,,,,,2022-01-21,1,,,,,エヌズイノベーション,0
717,2190001029051,新規,0,2022-01-21,2022-01-21,株式会社ラビットファンサーキット,,株式会社,三重県,四日市市,南いかるが町１番２１号サンライズタウン２０７号,,24,202,5100008,,,,,,,2022-01-21,1,,,,,ラビットファンサーキット,0
724,2210003001451,新規,0,2022-01-21,2022-01-21,なかよし家族合同会社,,合同会社,福井県,福井市,東郷二ケ町第２７号１０番地１,,18,201,9102165,,,,,,,2022-01-21,1,,,,,ナカヨシカゾク,0
728,2240001059233,新規,0,2022-01-21,2022-01-21,株式会社Ｔカンパニー,,株式会社,広島県,広島市東区,東蟹屋町４番２号,,34,102,7320055,,,,,,,2022-01-21,1,,,,,ティーカンパニー,0
737,2250003002990,新規,0,2022-01-21,2022-01-21,合同会社ＦＡＣＥＬＩＦＥ,,合同会社,山口県,下関市,綾羅木本町６丁目２０番地１４アルヴィータ綾羅木１０９号室,,35,201,7510849,,,,,,,2022-01-21,1,,,,,フェイスライフ,0
765,2290001096098,新規,0,2022-01-21,2022-01-21,株式会社ＧＡＫＵＳＥＩ不動産,,株式会社,福岡県,福岡市東区,土井４丁目３－８,,40,131,8130032,,,,,,,2022-01-21,1,,,,,ガクセイフドウサン,0
766,2290001096156,新規,0,2022-01-21,2022-01-21,株式会社オフィスエム,,株式会社,福岡県,福岡市南区,花畑２丁目４番５‐１号,,40,134,8111356,,,,,,,2022-01-21,1,,,,,オフィスエム,0
767,2290001096172,新規,0,2022-01-21,2022-01-21,株式会社渡部設備,,株式会社,福岡県,福岡市南区,筑紫丘１丁目１２番１‐１１０号チサンマンション大橋,,40,134,8150036,,,,,,,2022-01-21,1,,,,,ワタベセツビ,0
776,2290003012053,新規,0,2022-01-21,2022-01-21,ブルー・アンリミテッド合同会社,,合同会社,福岡県,みやま市,瀬高町文廣１５１８番地１,,40,229,8350022,,,,,,,2022-01-21,1,,,,,ブルーアンリミテッド,0
777,2290003012061,新規,0,2022-01-21,2022-01-21,合同会社Ｍｉａ,,合同会社,福岡県,福岡市博多区,上牟田１丁目１４番２３号エルグランド東比恵５０３号,,40,132,8120006,,,,,,,2022-01-21,1,,,,,ミア,0
793,2340001024441,新規,0,2022-01-21,2022-01-21,株式会社ＴＨ,,株式会社,鹿児島県,奄美市,名瀬金久町１４番８,,46,222,8940031,,,,,,,2022-01-21,1,,,,,ティーエイチ,0
796,2360001029926,新規,0,2022-01-21,2022-01-21,株式会社イースト,,株式会社,沖縄県,浦添市,伊祖２丁目２１番１３号コンフォートＥＡＳＴ５階,,47,208,9012132,,,,,,,2022-01-21,1,,,,,イースト,0
799,2370001048108,新規,0,2022-01-21,2022-01-21,ＷＡＹＡ株式会社,,株式会社,宮城県,仙台市青葉区,本町１丁目１３番３２－１１０３号,,04,101,9800014,,,,,,,2022-01-21,1,,,,,ワヤ,0
813,2430001085838,新規,0,2022-01-21,2022-01-21,株式会社ＮＡＣホールディングス,,株式会社,北海道,札幌市東区,北三十七条東７丁目８００番地,,01,103,0070837,,,,,,,2022-01-21,1,,,,,ナックホールディングス,0
814,2430001085854,新規,0,2022-01-21,2022-01-21,株式会社Ａ‐ｌｉｆｅ・パートナーズ,,株式会社,北海道,岩見沢市,三条東９丁目４番地３９,,01,210,0680003,,,,,,,2022-01-21,1,,,,,エーライフパートナーズ,0
826,2700150106771,新規,0,2022-01-21,2022-01-21,ＹＯＫＯＨＡＭＡ　ＭＡＣＨＩＮＥＲＩＥＳ　ＳＵＰＰＬＩＥＲＳ　ＰＲＩＶＡＴＥ　ＬＩＭＩＴＥＤ,,外国会社等,千葉県,八街市,榎戸４１６番地１－２１－６,,12,230,2891106,スリランカ民主社会主義共和国、キャンディ中央州、キャンディ区、ハンデッサ、ハプガハヤタテンナ、２６１,,,,,,2022-01-21,1,,,,,ヨコハママシンナリーズサプライヤーズプライベートリミテツド,0
840,3010005034485,新規,0,2022-01-21,2022-01-21,一般社団法人ＦＳ２,,その他の設立登記法人,東京都,中央区,八丁堀４丁目２番１０号ＡＯＪ税理士法人内,,13,102,1040032,,,,,,,2022-01-21,1,,,,,エフエスツー,0
841,3010005034493,新規,0,2022-01-21,2022-01-21,座間デベロップメント一般社団法人,,その他の設立登記法人,東京都,中央区,日本橋２丁目７番１号,,13,102,1030027,,,,,,,2022-01-21,1,,,,,ザマデベロップメント,0
846,3010401165066,新規,0,2022-01-21,2022-01-21,株式会社Ｒｉｎｔｒａｃｅ,,株式会社,東京都,港区,南青山５丁目１１番１０号Ｂ１Ｆ－Ｒ区画,,13,103,1070062,,,,,,,2022-01-21,1,,,,,リントレイス,0
847,3010401165074,新規,0,2022-01-21,2022-01-21,株式会社ＡＲＫ,,株式会社,東京都,港区,白金台４丁目１５番６号,,13,103,1080071,,,,,,,2022-01-21,1,,,,,アーク,0
848,3010401165108,新規,0,2022-01-21,2022-01-21,株式会社アスパラントグループＳＰＣ１０号,,株式会社,東京都,港区,赤坂２丁目２３番１号,,13,103,1070052,,,,,,,2022-01-21,1,,,,,アスパラントグループエスピーシージュウゴウ,0
849,3010401165116,新規,0,2022-01-21,2022-01-21,株式会社フィールドプレイヤーズ,,株式会社,東京都,港区,南青山２丁目２番１５号ウィン青山９４２,,13,103,1070062,,,,,,,2022-01-21,1,,,,,フィールドプレイヤーズ,0
857,3010701042089,新規,0,2022-01-21,2022-01-21,彩株式会社,,株式会社,東京都,品川区,上大崎３丁目２番１号,,13,109,1410021,,,,,,,2022-01-21,1,,,,,イロドリ,0
858,3010701042097,新規,0,2022-01-21,2022-01-21,ＬＳＳ株式会社,,株式会社,東京都,品川区,南品川４丁目１番１５号,,13,109,1400004,,,,,,,2022-01-21,1,,,,,エルエスエス,0
881,3011005009394,新規,0,2022-01-21,2022-01-21,特定目的会社ＳＣＴ入間,,その他の設立登記法人,東京都,目黒区,洗足２丁目１６番１９号,,13,110,1520012,,,,,,,2022-01-21,1,,,,,エスシーティーイルマ,0
885,3011101097509,新規,0,2022-01-21,2022-01-21,株式会社ＷＩＡＬＩＳ,,株式会社,東京都,新宿区,西新宿３丁目３番１３号西新宿水間ビル６階,,13,104,1600023,,,,,,,2022-01-21,1,,,,,ウィアリス,0
888,3011201023546,新規,0,2022-01-21,2022-01-21,株式会社ＯＲＳＯＫＵ,,株式会社,東京都,中野区,本町４丁目４４－１３西京城西ビル２Ｆ－２０,,13,114,1640012,,,,,,,2022-01-21,1,,,,,オルソク,0
891,3011501027676,新規,0,2022-01-21,2022-01-21,株式会社カミヤ,,株式会社,東京都,荒川区,西日暮里２丁目２番２号,,13,118,1160013,,,,,,,2022-01-21,1,,,,,カミヤ,0
892,3011501027684,新規,0,2022-01-21,2022-01-21,株式会社Ｗｏｒｋｆｉｌｌ,,株式会社,東京都,荒川区,荒川４丁目３７番１号,,13,118,1160002,,,,,,,2022-01-21,1,,,,,ワークフィル,0
903,3011801040222,新規,0,2022-01-21,2022-01-21,センターポイント株式会社,,株式会社,東京都,葛飾区,青戸５丁目１７番８号エンゼルハイム３０２号,,13,122,1250062,,,,,,,2022-01-21,1,,,,,センターポイント,0
955,3020003021179,新規,0,2022-01-21,2022-01-21,ＴＤＫ合同会社,,合同会社,神奈川県,川崎市幸区,小倉３丁目１７番３５号メゾンすとーにぃー２０２,,14,132,2120054,,,,,,,2022-01-21,1,,,,,ティディケー,0
958,3021001075019,新規,0,2022-01-21,2022-01-21,神谷温泉株式会社,,株式会社,神奈川県,足柄下郡湯河原町,宮上７７３－１５１,,14,384,2590314,,,,,,,2022-01-21,1,,,,,カミヤオンセン,0
969,3030001146464,新規,0,2022-01-21,2022-01-21,株式会社アイスクリーム,,株式会社,埼玉県,深谷市,秋元町２２番地１,,11,218,3660053,,,,,,,2022-01-21,1,,,,,アイスクリーム,0
973,3030003018703,新規,0,2022-01-21,2022-01-21,合同会社ＳｎｏｗＣｈｉｌｄ,,合同会社,埼玉県,さいたま市大宮区,下町３丁目７番地１－Ｆ２１０６号,,11,103,3300844,,,,,,,2022-01-21,1,,,,,スノーチャイルド,0
979,3040003019337,新規,0,2022-01-21,2022-01-21,合同会社わかば経営研究所,,合同会社,千葉県,千葉市若葉区,みつわ台２丁目４４番７号,,12,104,2640032,,,,,,,2022-01-21,1,,,,,ワカバケイエイケンキュウショ,0
980,3040003019345,新規,0,2022-01-21,2022-01-21,ＲＯＳＹＫＥＮ　ＴＲＡＤＩＮＧ合同会社,,合同会社,千葉県,野田市,岩名２丁目９番地の１４,,12,208,2780055,,,,,,,2022-01-21,1,,,,,ロージーケントレーディング,0
983,3050001050499,新規,0,2022-01-21,2022-01-21,ＮＯＴＡＴＳＵファシリティーズ株式会社,,株式会社,茨城県,取手市,取手１丁目８番９号能達ビル,,08,217,3020004,,,,,,,2022-01-21,1,,,,,ノータツファシリティーズ,0
1017,3070001038864,新規,0,2022-01-21,2022-01-21,株式会社瀧澤組,,株式会社,群馬県,前橋市,野中町４７番地３,,10,201,3792166,,,,,,,2022-01-21,1,,,,,タキザワグミ,0
1047,3120001243327,新規,0,2022-01-21,2022-01-21,ＬＯＬ株式会社,,株式会社,大阪府,枚方市,楠葉並木２丁目２番２１号,,27,210,5731118,,,,,,,2022-01-21,1,,,,,エルオーエル,0
1048,3120001243368,新規,0,2022-01-21,2022-01-21,株式会社ＮＩＪＩ,,株式会社,大阪府,大阪市東住吉区,今川６丁目４番５号,,27,121,5460003,,,,,,,2022-01-21,1,,,,,ニジ,0
1050,3120005022727,新規,0,2022-01-21,2022-01-21,サノヤス労働組合,,その他の設立登記法人,大阪府,大阪市住之江区,北加賀屋５丁目２番７号,,27,125,5590011,,,,,,,2022-01-21,1,,,,,サノヤス,0
1053,3120101064978,新規,0,2022-01-21,2022-01-21,株式会社ＫＯＪＩＢＯ,,株式会社,大阪府,堺市堺区,高砂町１丁２６番地８,,27,141,5900820,,,,,,,2022-01-21,1,,,,,コジボ,0
1066,3122005003599,新規,0,2022-01-21,2022-01-21,一般社団法人チアファミリー,,その他の設立登記法人,大阪府,柏原市,玉手町２１番１６号,,27,221,5820028,,,,,,,2022-01-21,1,,,,,チアファミリー,0
1070,3130001070968,新規,0,2022-01-21,2022-01-21,東高田株式会社,,株式会社,京都府,京都市西京区,桂艮町１７番地１７,,26,111,6158083,,,,,,,2022-01-21,1,,,,,ヒガシタカダ,0
1076,3140001124640,新規,0,2022-01-21,2022-01-21,株式会社和製堂,,株式会社,兵庫県,神戸市兵庫区,水木通６丁目４番３号,,28,105,6520802,,,,,,,2022-01-21,1,,,,,ワセイドウ,0
1079,3150003002604,新規,0,2022-01-21,2022-01-21,合同会社クオレガーメコーポレーション,,合同会社,奈良県,香芝市,関屋北５丁目３番２７号,,29,210,6390254,,,,,,,2022-01-21,1,,,,,クオレガーメコーポレーション,0
1088,3180001149650,新規,0,2022-01-21,2022-01-21,ミライズコンサルティンググループ株式会社,,株式会社,愛知県,名古屋市中区,栄２丁目５番１３号アイ・エスビル,,23,106,4600008,,,,,,,2022-01-21,1,,,,,ミライズコンサルティンググループ,0
1089,3180001149667,新規,0,2022-01-21,2022-01-21,株式会社ギビングバック,,株式会社,愛知県,名古屋市中村区,横井１丁目６９番地,,23,105,4530866,,,,,,,2022-01-21,1,,,,,ギビングバック,0
1092,3180301035864,新規,0,2022-01-21,2022-01-21,ＤＦＲ国際貿易株式会社,,株式会社,愛知県,豊橋市,東雲町１２８番地２,,23,201,4400051,,,,,,,2022-01-21,1,,,,,,0
1095,3190001029050,新規,0,2022-01-21,2022-01-21,株式会社コインフーズ,,株式会社,三重県,鈴鹿市,岸岡町１７００－１８０,,24,207,5100226,,,,,,,2022-01-21,1,,,,,コインフーズ,0
1100,3210003001450,新規,0,2022-01-21,2022-01-21,ＮＥＸＴＲＡ合同会社,,合同会社,福井県,吉田郡永平寺町,山王１７号４５番地２,,18,322,9101321,,,,,,,2022-01-21,1,,,,,ネクストラ,0
1124,3290001096147,新規,0,2022-01-21,2022-01-21,株式会社スマデリ,,株式会社,福岡県,福岡市中央区,平尾４丁目１２－８サンハイツ山荘２０２号室,,40,133,8100014,,,,,,,2022-01-21,1,,,,,スマデリ,0
1125,3290001096155,新規,0,2022-01-21,2022-01-21,株式会社がんばな,,株式会社,福岡県,大牟田市,諏訪町１丁目１３番地２,,40,202,8360051,,,,,,,2022-01-21,1,,,,,ガンバナ,0
1126,3290001096163,新規,0,2022-01-21,2022-01-21,株式会社ｒｅｐｅａショップ,,株式会社,福岡県,糟屋郡宇美町,障子岳３丁目４‐４,,40,341,8112127,,,,,,,2022-01-21,1,,,,,レペアショップ,0
1143,3290003012044,新規,0,2022-01-21,2022-01-21,Ｓ＆Ｔ合同会社,,合同会社,福岡県,福岡市東区,馬出１丁目１０－１３－３０１,,40,131,8120054,,,,,,,2022-01-21,1,,,,,エスアンドティ,0
1144,3290003012060,新規,0,2022-01-21,2022-01-21,合同会社岩崎工務店,00125479,合同会社,福岡県,福岡市東区,馬出６丁目１４番１２－３０３号,,40,131,8120054,,,,,,,2022-01-21,1,,,,,イワサキコウムテン,0
1157,3330001029374,新規,0,2022-01-21,2022-01-21,Ｓｈｉｒｏ　Ｐｌａｎｎｉｎｇ株式会社,,株式会社,熊本県,山鹿市,鹿央町梅木谷６５７番地１,,43,208,8610574,,,,,,,2022-01-21,1,,,,,シロプランニング,0
1159,3360001029917,新規,0,2022-01-21,2022-01-21,株式会社ＢＥＥＦｓｈｉｎ,,株式会社,沖縄県,那覇市,安謝２丁目３１番２２－３０１号,,47,201,9000003,,,,,,,2022-01-21,1,,,,,ビーフシン,0
1161,3370001048107,新規,0,2022-01-21,2022-01-21,株式会社イズムネット,,株式会社,宮城県,仙台市若林区,表柴田町２６－１－１０２,,04,103,9840055,,,,,,,2022-01-21,1,,,,,イズムネット,0
1173,3400001015739,新規,0,2022-01-21,2022-01-21,株式会社響動舎,,株式会社,岩手県,紫波郡紫波町,平沢字松田７番地３,,03,321,0283308,,,,,,,2022-01-21,1,,,,,キョウドウシャ,0
1181,3430001085829,新規,0,2022-01-21,2022-01-21,ＫＧＥＫコーポレーション株式会社,,株式会社,北海道,札幌市西区,八軒二条東４丁目３番１０号,,01,107,0630862,,,,,,,2022-01-21,1,,,,,ケージーイーケーコーポレーション,0
1182,3430001085837,新規,0,2022-01-21,2022-01-21,株式会社ちとせカンパニー,,株式会社,北海道,千歳市,駒里２２１６－２,,01,224,0660011,,,,,,,2022-01-21,1,,,,,チトセカンパニー,0
1183,3430001085853,新規,0,2022-01-21,2022-01-21,トオダホーム株式会社,,株式会社,北海道,札幌市白石区,東札幌一条５丁目１番１－１０６号,,01,104,0030001,,,,,,,2022-01-21,1,,,,,トオダホーム,0
1192,3430003013556,新規,0,2022-01-21,2022-01-21,合同会社すすきの鮨本店,,合同会社,北海道,札幌市北区,北三十二条西３丁目２番２０号,,01,102,0010032,,,,,,,2022-01-21,1,,,,,ススキノスシホンテン,0
1194,3450001013597,新規,0,2022-01-21,2022-01-21,ヒルマ株式会社,,株式会社,北海道,旭川市,春光台一条１丁目１番２３号,,01,204,0718141,,,,,,,2022-01-21,1,,,,,ヒルマ,0
1202,3700150106481,新規,0,2022-01-21,2022-01-05,立小路集落協定,,その他,山形県,最上郡最上町,大字富澤１８２８－２,,06,362,9996105,,,,,,,2022-01-05,1,,,,,タチコウジシユウラクキヨウテイ,0
1213,4010005034492,新規,0,2022-01-21,2022-01-21,桜信用ホールディングス一般社団法人,,その他の設立登記法人,東京都,千代田区,丸の内３丁目１番１号東京共同会計事務所内,,13,101,1000005,,,,,,,2022-01-21,1,,,,,サクラシンヨウホールディングス,0
1215,4010101015033,新規,0,2022-01-21,2022-01-21,株式会社任ばゐ,,株式会社,東京都,八王子市,東町１０－３ＳＯＨＯプラザ八王子東町１０７,,13,201,1920082,,,,,,,2022-01-21,1,,,,,ニンバイ,0
1218,4010401165024,新規,0,2022-01-21,2022-01-21,Ｏｎｅ　ｌｉｎｅ株式会社,,株式会社,東京都,港区,新橋２丁目５番２号,,13,103,1050004,,,,,,,2022-01-21,1,,,,,ワンライン,0
1219,4010401165081,新規,0,2022-01-21,2022-01-21,株式会社ジーソニック,,株式会社,東京都,港区,麻布十番２丁目９番５号遠上ビル３０１号室,,13,103,1060045,,,,,,,2022-01-21,1,,,,,ジーソニック,0
1222,4010403026546,新規,0,2022-01-21,2022-01-21,合同会社ＤｉａＢａｓｉｃ,,合同会社,東京都,港区,芝４丁目７番６号芝ビルディング７０４,,13,103,1080014,,,,,,,2022-01-21,1,,,,,ディアベーシック,0
1223,4010403026926,新規,0,2022-01-21,2022-01-21,合同会社ＶｅａｒｔｈＬａｂ,,合同会社,東京都,港区,赤坂４丁目８番１９号赤坂フロントタウン３階,,13,103,1070052,,,,,,,2022-01-21,1,,,,,ヴァースラボ,0
1225,4010405020621,新規,0,2022-01-21,2022-01-21,一般社団法人Ｈａｋｏｎｅ　Ｒｅｓｏｒｔｓ,,その他の設立登記法人,東京都,港区,虎ノ門５丁目１番４号,,13,103,1050001,,,,,,,2022-01-21,1,,,,,ハコネリゾーツ,0
1228,4010601060462,新規,0,2022-01-21,2022-01-21,株式会社ＫＯＫＯ　Ｅｎｔｅｒｔａｉｎｍｅｎｔ,,株式会社,東京都,墨田区,石原３丁目２６番５号,,13,107,1300011,,,,,,,2022-01-21,1,,,,,コーコエンターテイメント,0
1229,4010601060553,新規,0,2022-01-21,2022-01-21,七虎商事株式会社,,株式会社,東京都,江東区,東陽３丁目１６－１３－８０２,,13,108,1350016,,,,,,,2022-01-21,1,,,,,ナナコショウジ,0
1234,4010701042088,新規,0,2022-01-21,2022-01-21,Ｒｅｐｏｓ株式会社,,株式会社,東京都,品川区,西品川１丁目１－１住友不動産大崎ガーデンタワー９階トンネル東京,,13,109,1410033,,,,,,,2022-01-21,1,,,,,ルポ,0
1235,4010701042096,新規,0,2022-01-21,2022-01-21,ＯＮＥ株式会社,,株式会社,東京都,品川区,大崎５丁目１番５号,,13,109,1410032,,,,,,,2022-01-21,1,,,,,ワン,0
1260,4011005009393,新規,0,2022-01-21,2022-01-21,一般社団法人おいしい未来研究所,,その他の設立登記法人,東京都,渋谷区,西原３丁目１１番８号,,13,113,1510066,,,,,,,2022-01-21,1,,,,,オイシイミライケンキュウジョ,0
1262,4011101097573,新規,0,2022-01-21,2022-01-21,株式会社ＵＮＩＯＮ　ＴＥＸ,,株式会社,東京都,新宿区,中落合１丁目５番５－６０３号,,13,104,1610032,,,,,,,2022-01-21,1,,,,,ユニオンテックス,0
1266,4011105010103,新規,0,2022-01-21,2022-01-21,一般社団法人創業融資支援協会,,その他の設立登記法人,東京都,新宿区,西新宿３丁目３番１３号西新宿水間ビル６階,,13,104,1600023,,,,,,,2022-01-21,1,,,,,ソウギョウユウシシエンキョウカイ,0
1270,4011401023964,新規,0,2022-01-21,2022-01-21,Ｓｔａｒ株式会社,,株式会社,東京都,板橋区,大谷口北町２５番９号,,13,119,1730031,,,,,,,2022-01-21,1,,,,,スター,0
1271,4011403003543,新規,0,2022-01-21,2022-01-21,楽歩合同会社,,合同会社,東京都,板橋区,小豆沢４丁目１番１２号,,13,119,1740051,,,,,,,2022-01-21,1,,,,,ラクホ,0
1279,4011701024984,新規,0,2022-01-21,2022-01-21,株式会社Ｙｉｎ,,株式会社,東京都,江戸川区,東葛西６丁目１６番１９,,13,123,1340084,,,,,,,2022-01-21,1,,,,,イン,0
1280,4011701024992,新規,0,2022-01-21,2022-01-21,株式会社堀木青果,,株式会社,東京都,江戸川区,下篠崎町１２番３号,,13,123,1330064,,,,,,,2022-01-21,1,,,,,ホリキセイカ,0
1284,4012301012834,新規,0,2022-01-21,2022-01-21,ＴＩＹＡ株式会社,,株式会社,東京都,町田市,根岸町１００８－２０－２Ｂ,,13,209,1940034,,,,,,,2022-01-21,1,,,,,ティヤ,0
1287,4013101008832,新規,0,2022-01-21,2022-01-21,株式会社ＫＴテクノ,,株式会社,東京都,あきる野市,高尾１５８番地１４,,13,228,1900154,,,,,,,2022-01-21,1,,,,,ケイティーテクノ,0
1312,4020001144831,新規,0,2022-01-21,2022-01-21,コーワフードホールディングス株式会社,,株式会社,神奈川県,川崎市幸区,南加瀬３丁目３８番３５号,,14,132,2120055,,,,,,,2022-01-21,1,,,,,コーワフードホールディングス,0
1313,4020001144856,新規,0,2022-01-21,2022-01-21,大田組株式会社,,株式会社,神奈川県,川崎市川崎区,浜町１丁目１１番３号,,14,131,2100851,,,,,,,2022-01-21,1,,,,,オオタグミ,0
1314,4020001144872,新規,0,2022-01-21,2022-01-21,株式会社デジタルイマージョン,,株式会社,神奈川県,川崎市麻生区,王禅寺東５丁目２１番８号,,14,137,2150018,,,,,,,2022-01-21,1,,,,,デジタルイマージョン,0
1315,4020001144897,新規,0,2022-01-21,2022-01-21,株式会社ユニティキャピタル,,株式会社,神奈川県,横浜市中区,山手町１０８番地３,,14,104,2310862,,,,,,,2022-01-21,1,,,,,ユニティキャピタル,0
1342,4020003021178,新規,0,2022-01-21,2022-01-21,合同会社Ｃｏｔｏ－ｒｉｐｅａ,,合同会社,神奈川県,横浜市鶴見区,潮田町３丁目１４７番地１号,,14,101,2300041,,,,,,,2022-01-21,1,,,,,コトリペア,0
1343,4020003021186,新規,0,2022-01-21,2022-01-21,なごやかラッキー合同会社,,合同会社,神奈川県,横浜市港北区,篠原北２丁目１１番１２－１０８号,,14,109,2220021,,,,,,,2022-01-21,1,,,,,ナゴヤカラッキー,0
1347,4021001075018,新規,0,2022-01-21,2022-01-21,株式会社藤浦,,株式会社,神奈川県,藤沢市,石川１丁目２７番９号,,14,205,2520815,,,,,,,2022-01-21,1,,,,,フジウラ,0
1356,4030001146455,新規,0,2022-01-21,2022-01-21,株式会社Ｌａｎｇｕａｇｅ　Ｓａｇｅ,,株式会社,埼玉県,さいたま市見沼区,大字南中丸９６２番地１５,,11,104,3370041,,,,,,,2022-01-21,1,,,,,ラングウィッジセージ,0
1358,4030003018702,新規,0,2022-01-21,2022-01-21,合同会社ライフスタイルインターナショナル,,合同会社,埼玉県,さいたま市浦和区,大字三崎３９９番地１,,11,107,3300041,,,,,,,2022-01-21,1,,,,,ライフスタイルインターナショナル,0
1365,4040003019352,新規,0,2022-01-21,2022-01-21,ＡＭＴＡＬ合同会社,,合同会社,千葉県,鎌ケ谷市,軽井沢２１１０－５１,,12,224,2730131,,,,,,,2022-01-21,1,,,,,アムタル,0
1366,4050001050473,新規,0,2022-01-21,2022-01-21,株式会社シャトー筑波,,株式会社,茨城県,水戸市,元吉田町１１９４番地２６,,08,201,3100836,,,,,,,2022-01-21,1,,,,,シャトーツクバ,0
1367,4050001050498,新規,0,2022-01-21,2022-01-21,株式会社ＨｒｅＳｔＡｇｅ,,株式会社,茨城県,常陸大宮市,小瀬沢４９１番地,,08,225,3192412,,,,,,,2022-01-21,1,,,,,フレステージ,0
1438,4120001243326,新規,0,2022-01-21,2022-01-21,サンカラ株式会社,,株式会社,大阪府,大阪市中央区,谷町６丁目１０番１９－１３０１号,,27,128,5420012,,,,,,,2022-01-21,1,,,,,サンカラ,0
1443,4120101064977,新規,0,2022-01-21,2022-01-21,株式会社Ａｂｙ,,株式会社,大阪府,和泉市,伏屋町４丁目６番３６号,,27,219,5940031,,,,,,,2022-01-21,1,,,,,アビー,0
1448,4120901045474,新規,0,2022-01-21,2022-01-21,株式会社Ｇｅｎｅｒａｌ,,株式会社,大阪府,豊中市,新千里南町２丁目２２－４,,27,203,5600084,,,,,,,2022-01-21,1,,,,,ジェネラル,0
1467,4130001070959,新規,0,2022-01-21,2022-01-21,株式会社ホソヤ・シェーファー・アーキテクツ,,株式会社,京都府,京都市下京区,五条高倉角堺町２１番地Ｊｉｍｕｋｉｎｏ－Ｕｅｄａｂｌｄｇ．６０３,,26,106,6000000,,,,,,,2022-01-21,1,,,,,ホソヤシェーファーアーキテクツ,0
1480,4180003023407,新規,0,2022-01-21,2022-01-21,エカタ合同会社,,合同会社,愛知県,春日井市,牛山町１７００番地５２,,23,206,4860901,,,,,,,2022-01-21,1,,,,,エカタ,0
1517,4290001096088,新規,0,2022-01-21,2022-01-21,株式会社ナンバーエイト,,株式会社,福岡県,太宰府市,大字北谷９３７番地２,,40,221,8180114,,,,,,,2022-01-21,1,,,,,ナンバーエイト,0
1518,4290001096121,新規,0,2022-01-21,2022-01-21,株式会社Ｄｆｉｅｌｄ,,株式会社,福岡県,福岡市博多区,博多駅前３丁目４番２５号,,40,132,8120011,,,,,,,2022-01-21,1,,,,,ディーフィールド,0
1519,4290001096138,新規,0,2022-01-21,2022-01-21,株式会社九州再生医療研究所,,株式会社,福岡県,柳川市,三橋町蒲船津１４０４番地３６号レジェンド筑紫２０１,,40,207,8320827,,,,,,,2022-01-21,1,,,,,キュウシュウサイセイイリョウケンキュウショ,0
1520,4290001096154,新規,0,2022-01-21,2022-01-21,株式会社アスラボＳｍｉｌｅ,,株式会社,福岡県,福岡市西区,横浜３丁目２１番２６号２階,,40,135,8190366,,,,,,,2022-01-21,1,,,,,アスラボスマイル,0
1521,4290001096162,新規,0,2022-01-21,2022-01-21,株式会社ＩＳ設計事務所,,株式会社,福岡県,糸島市,南風台３丁目１１番１０号６号室,,40,230,8191137,,,,,,,2022-01-21,1,,,,,アイエスセッケイジムショ,0
1522,4290001096170,新規,0,2022-01-21,2022-01-21,ナチュラル・エナジー・インベストメント・コンサルタント株式会社,,株式会社,福岡県,福岡市中央区,長浜１丁目２番６－５０５号,,40,133,8100072,,,,,,,2022-01-21,1,,,,,ナチュラルエナジーインベストメントコンサルタント,0
1545,4320003003708,新規,0,2022-01-21,2022-01-21,合同会社みらいａ,,合同会社,大分県,大分市,大字東明野１３７１番地の１３６,,44,201,8700151,,,,,,,2022-01-21,1,,,,,ミライエー,0
1555,4370003005567,新規,0,2022-01-21,2022-01-21,合同会社ＣＯＧＹテック,,合同会社,宮城県,仙台市宮城野区,榴岡３丁目９番１５号,,04,102,9830852,,,,,,,2022-01-21,1,,,,,コギーテック,0
1556,4370005010433,新規,0,2022-01-21,2022-01-21,社会保険労務士法人永松事務所,,その他の設立登記法人,宮城県,仙台市宮城野区,西宮城野１０番２８号柏葉ビル４階,,04,102,9830046,,,,,,,2022-01-21,1,,,,,ナガマツジムショ,0
1559,4400001015746,新規,0,2022-01-21,2022-01-21,高胤ホールディングス株式会社,00125473,株式会社,岩手県,一関市,花泉町永井字三本木７７番地１,,03,209,0293206,,,,,,,2022-01-21,1,,,,,タカタネホールディングス,0
1566,4430001085844,新規,0,2022-01-21,2022-01-21,株式会社トラックサービス函館,,株式会社,北海道,札幌市清田区,清田二条２丁目１６番１号,,01,110,0040842,,,,,,,2022-01-21,1,,,,,トラックサービスハコダテ,0
1567,4430001085860,新規,0,2022-01-21,2022-01-21,株式会社Ｂｉｚナビ,,株式会社,北海道,札幌市中央区,大通西８丁目２番地３９,,01,101,0600042,,,,,,,2022-01-21,1,,,,,ビズナビ,0
1570,4440001009018,新規,0,2022-01-21,2022-01-21,株式会社佐藤工業,,株式会社,北海道,函館市,桔梗町４１６番地３２,,01,202,0410801,,,,,,,2022-01-21,1,,,,,サトウコウギョウ,0
1578,4460101007126,新規,0,2022-01-21,2022-01-21,株式会社ＴＳＶ,,株式会社,北海道,帯広市,白樺十六条東１９丁目１５番地,,01,207,0800050,,,,,,,2022-01-21,1,,,,,ティーテスファー,0
1579,4470003002117,新規,0,2022-01-21,2022-01-21,ＡＬＣ合同会社,,合同会社,香川県,仲多度郡まんのう町,西高篠５０４－１２,,37,406,7660012,,,,,,,2022-01-21,1,,,,,エイエルシィ,0
1580,4480001011630,新規,0,2022-01-21,2022-01-21,株式会社ＳＴＣ,,株式会社,徳島県,徳島市,北矢三町２丁目４番３１－Ｃ－１０３,,36,201,7700006,,,,,,,2022-01-21,1,,,,,エスティーシー,0
1594,5010001224006,新規,0,2022-01-21,2022-01-21,西原商事株式会社,,株式会社,東京都,文京区,大塚２丁目１６－３－４０３,,13,105,1120012,,,,,,,2022-01-21,1,,,,,ニシハラショウジ,0
1598,5010003036795,新規,0,2022-01-21,2022-01-21,合同会社ＢＡＲＲＥＬ,,合同会社,東京都,千代田区,内幸町１丁目３－１幸ビルディング９階,,13,101,1000011,,,,,,,2022-01-21,1,,,,,バレル,0
1599,5010003036812,新規,0,2022-01-21,2022-01-21,合同会社九段北シティグループ,,合同会社,東京都,千代田区,九段北１丁目１０－５サンブリッジ九段ビル１０階,,13,101,1020073,,,,,,,2022-01-21,1,,,,,クダンキタシティグループ,0
1606,5010401165056,新規,0,2022-01-21,2022-01-21,株式会社ダイサンエネルギー１３,,株式会社,東京都,港区,浜松町１丁目２番１２号,,13,103,1050013,,,,,,,2022-01-21,1,,,,,ダイサンエネルギーサーティーン,0
1607,5010401165064,新規,0,2022-01-21,2022-01-21,ＭＣＰ４株式会社,,株式会社,東京都,港区,元赤坂１丁目１番８号株式会社赤坂国際会計内,,13,103,1070051,,,,,,,2022-01-21,1,,,,,エムシーピーフォー,0
1609,5010405020587,新規,0,2022-01-21,2022-01-21,Ｖｅｎｕｓ特定目的会社,,その他の設立登記法人,東京都,港区,虎ノ門５丁目１番４号,,13,103,1050001,,,,,,,2022-01-21,1,,,,,ヴィーナス,0
1615,5010701042104,新規,0,2022-01-21,2022-01-21,株式会社フェアネス,,株式会社,東京都,品川区,西品川１丁目２０番１６－１６０４号,,13,109,1410033,,,,,,,2022-01-21,1,,,,,フェアネス,0
1625,5010903007094,新規,0,2022-01-21,2022-01-21,合同会社アカウンティングクレスト,,合同会社,東京都,世田谷区,北沢１丁目２７番１号－２,,13,112,1550031,,,,,,,2022-01-21,1,,,,,アカウンティングクレスト,0
1629,5011001144986,新規,0,2022-01-21,2022-01-21,株式会社Ｃｉｒｃｌｅｓ　Ａｇａｉｎ,,株式会社,東京都,渋谷区,神宮前６丁目２３－４－２Ｆ,,13,113,1500001,,,,,,,2022-01-21,1,,,,,サークルズアゲイン,0
1630,5011001145175,新規,0,2022-01-21,2022-01-21,株式会社ライクサーチ,,株式会社,東京都,渋谷区,神宮前６丁目２３番４号桑野ビル２階,,13,113,1500001,,,,,,,2022-01-21,1,,,,,ライクサーチ,0
1634,5011101097531,新規,0,2022-01-21,2022-01-21,株式会社ＩＤＣＭ　ＪＡＰＡＮ,,株式会社,東京都,新宿区,西新宿２丁目１番１号新宿三井ビルディング４９階,,13,104,1600023,,,,,,,2022-01-21,1,,,,,アイディーシーエムジャパン,0
1635,5011101097580,新規,0,2022-01-21,2022-01-21,株式会社ＡＯ,,株式会社,東京都,新宿区,歌舞伎町２丁目１０番４号ジェスト２ビル４階,,13,104,1600021,,,,,,,2022-01-21,1,,,,,アオ,0
1640,5011203003734,新規,0,2022-01-21,2022-01-21,合同会社生麦生米生卵,,合同会社,東京都,中野区,野方１丁目５８番１１－５０３号,,13,114,1650027,,,,,,,2022-01-21,1,,,,,ナマムギナマゴメナマタマゴ,0
1652,5011703003052,新規,0,2022-01-21,2022-01-21,龍藤合同会社,,合同会社,東京都,江戸川区,中葛西５丁目４１－１５,,13,123,1340083,,,,,,,2022-01-21,1,,,,,リュウトウ,0
1658,5012305001989,新規,0,2022-01-21,2022-01-21,ＮＰＯ法人ロングタイムレコーダーズ,,その他の設立登記法人,東京都,町田市,原町田４丁目１番３号みすず町田ビル３階,,13,209,1940013,,,,,,,2022-01-21,1,,,,,ロングタイムレコーダーズ,0
1661,5012805003080,新規,0,2022-01-21,2022-01-21,一般社団法人未来への道標,,その他の設立登記法人,東京都,立川市,若葉町２丁目２６番地の５２,,13,202,1900001,,,,,,,2022-01-21,1,,,,,ミライヘノミチシルベ,0
1667,5013303005998,新規,0,2022-01-21,2022-01-21,合同会社ＴＨＲＥＥＥＤＧＥ,,合同会社,東京都,豊島区,池袋本町１丁目７－１池袋本町ビル３０２,,13,116,1700011,,,,,,,2022-01-21,1,,,,,スリーエッジ,0
1668,5013305003298,新規,0,2022-01-21,2022-01-21,人和協同組合,,その他の設立登記法人,東京都,豊島区,南池袋３丁目１８番３５号ＯＫビル６０２,,13,116,1710022,,,,,,,2022-01-21,1,,,,,ジンワ,0
1684,5020001144855,新規,0,2022-01-21,2022-01-21,丸幸商事株式会社,,株式会社,神奈川県,川崎市多摩区,登戸２１９６番地２,,14,135,2140014,,,,,,,2022-01-21,1,,,,,マルコウショウジ,0
1685,5020001144871,新規,0,2022-01-21,2022-01-21,イブ・テイラー・ジャパン株式会社,,株式会社,神奈川県,横浜市神奈川区,子安台１丁目７番１０号,,14,102,2210012,,,,,,,2022-01-21,1,,,,,イブテイラージャパン,0
1704,5020003021177,新規,0,2022-01-21,2022-01-21,合同会社三宅不動産事業横浜,,合同会社,神奈川県,横浜市神奈川区,神大寺２丁目２６番２０号,,14,102,2210801,,,,,,,2022-01-21,1,,,,,ミヤケフドウサンジギョウヨコハマ,0
1711,5021001074992,新規,0,2022-01-21,2022-01-21,ＦＵＪＩ経理コンシェルジュ株式会社,,株式会社,神奈川県,藤沢市,本藤沢６丁目７番６号,,14,205,2510875,,,,,,,2022-01-21,1,,,,,フジケイリコンシェルジュ,0
1712,5021001075017,新規,0,2022-01-21,2022-01-21,はすはな興産株式会社,,株式会社,神奈川県,厚木市,毛利台３丁目９番７号,,14,212,2430037,,,,,,,2022-01-21,1,,,,,ハスハナコウサン,0
1720,5030001146322,新規,0,2022-01-21,2022-01-21,株式会社このはな,,株式会社,埼玉県,さいたま市浦和区,木崎２丁目２３番１０号,,11,107,3300042,,,,,,,2022-01-21,1,,,,,コノハナ,0
1721,5030001146446,新規,0,2022-01-21,2022-01-21,株式会社Ｅｉｄｏｓ,,株式会社,埼玉県,川口市,栄町３丁目４番４－８０１号パークホームズ川口ザレジデンス,,11,203,3320017,,,,,,,2022-01-21,1,,,,,エイドス,0
1722,5030001146470,新規,0,2022-01-21,2022-01-21,株式会社グロウプラス,,株式会社,埼玉県,富士見市,諏訪１丁目１０番２２号,,11,235,3540023,,,,,,,2022-01-21,1,,,,,グロウプラス,0
1725,5030003018701,新規,0,2022-01-21,2022-01-21,合同会社フジホーム,,合同会社,埼玉県,草加市,新栄２丁目１０番地２,,11,221,3400056,,,,,,,2022-01-21,1,,,,,フジホーム,0
1731,5040001121844,新規,0,2022-01-21,2022-01-21,株式会社エムズエンジ,,株式会社,千葉県,茂原市,萱場１８７６番地１２,,12,210,2994111,,,,,,,2022-01-21,1,,,,,エムズエンジ,0
1732,5040001121902,新規,0,2022-01-21,2022-01-21,ＡＰＥＸ株式会社,,株式会社,千葉県,千葉市花見川区,内山町９５－１,,12,102,2620002,,,,,,,2022-01-21,1,,,,,エイペックス,0
1735,5040003019327,新規,0,2022-01-21,2022-01-21,合同会社鷹見,,合同会社,千葉県,我孫子市,柴崎台３丁目９番２８－１０１号,,12,222,2701176,,,,,,,2022-01-21,1,,,,,タカミ,0
1736,5040003019335,新規,0,2022-01-21,2022-01-21,ＲＩＳＴＡ合同会社,,合同会社,千葉県,千葉市緑区,誉田町２丁目２３０７番地２０８、２Ｆ１０１号,,12,105,2660005,,,,,,,2022-01-21,1,,,,,リスタ,0
1737,5040003019351,新規,0,2022-01-21,2022-01-21,ＧＲＯＷ　ＴＲＥＥ合同会社,,合同会社,千葉県,千葉市中央区,市場町４－７,,12,101,2600855,,,,,,,2022-01-21,1,,,,,グローツリー,0
1766,5070001038870,新規,0,2022-01-21,2022-01-21,角屋グリーンエナジー株式会社,,株式会社,群馬県,邑楽郡邑楽町,大字中野４４５７番地５,,10,525,3700603,,,,,,,2022-01-21,1,,,,,カドヤグリーンエナジー,0
1784,5080401025583,新規,0,2022-01-21,2022-01-21,株式会社能匠,,株式会社,静岡県,浜松市北区,引佐町金指１７５６番地,,22,135,4312213,,,,,,,2022-01-21,1,,,,,タカショウ,0
1788,5110003004668,新規,0,2022-01-21,2022-01-21,合同会社ＩＫＡＣＨＩ,,合同会社,新潟県,長岡市,摂田屋５丁目３番１４号,,15,202,9401105,,,,,,,2022-01-21,1,,,,,イカチ,0
1801,5120001243325,新規,0,2022-01-21,2022-01-21,株式会社トラーク,,株式会社,大阪府,大阪市北区,堂島１丁目５番３９号マルタビル４階１号室,,27,127,5300003,,,,,,,2022-01-21,1,,,,,トラーク,0
1804,5120003020912,新規,0,2022-01-21,2022-01-21,雲ゐ合同会社,,合同会社,大阪府,大阪市北区,梅田２丁目２－２ヒルトンプラザウエスト１９階,,27,127,5300001,,,,,,,2022-01-21,1,,,,,クモイ,0
1805,5120003021002,新規,0,2022-01-21,2022-01-21,合同会社ＬＩＯＮ,,合同会社,大阪府,大阪市東成区,中道１丁目１２番１５号１１０３,,27,115,5370025,,,,,,,2022-01-21,1,,,,,リオン,0
1808,5120105009507,新規,0,2022-01-21,2022-01-21,医療法人みやび会,,その他の設立登記法人,大阪府,堺市西区,上７１４番地１朝日医療ビル鳳南３階,,27,144,5938311,,,,,,,2022-01-21,1,,,,,ミヤビカイ,0
1812,5120903003999,新規,0,2022-01-21,2022-01-21,合同会社ひまわり,,合同会社,大阪府,高槻市,東五百住町２丁目２－１３,,27,207,5690811,,,,,,,2022-01-21,1,,,,,ヒマワリ,0
1827,5140001124606,新規,0,2022-01-21,2022-01-21,株式会社悠遠,,株式会社,兵庫県,西宮市,菊谷町１０－３２,,28,204,6620078,,,,,,,2022-01-21,1,,,,,ユウエン,0
1832,5140005025998,新規,0,2022-01-21,2022-01-21,特定非営利活動法人セーフティベース,,その他の設立登記法人,兵庫県,神戸市長田区,腕塚町４丁目２番１－５０２号,,28,106,6530036,,,,,,,2022-01-21,1,,,,,セーフティベース,0
1838,5180001149640,新規,0,2022-01-21,2022-01-21,株式会社こころカラダ最適化,,株式会社,愛知県,江南市,高屋町八幡２９番地１,,23,217,4838063,,,,,,,2022-01-21,1,,,,,ココロカラダサイテキカ,0
1841,5180003023414,新規,0,2022-01-21,2022-01-21,合同会社カンジルマーケティングジャパン,,合同会社,愛知県,あま市,甚目寺乾出６４番地１,,23,237,4901111,,,,,,,2022-01-21,1,,,,,カンジルマーケティングジャパン,0
1845,5180301035854,新規,0,2022-01-21,2022-01-21,株式会社ドゥイットエステートワン,,株式会社,愛知県,安城市,今池町１丁目２０番５号,,23,212,4460071,,,,,,,2022-01-21,1,,,,,ドゥイットエステートワン,0
1850,5190001029049,新規,0,2022-01-21,2022-01-21,エコテックジャパン株式会社,,株式会社,三重県,三重郡菰野町,大字下村１０９３番地,,24,341,5101225,,,,,,,2022-01-21,1,,,,,エコテックジャパン,0
1860,5240001059230,新規,0,2022-01-21,2022-01-21,株式会社ＨＳ,,株式会社,広島県,広島市西区,観音新町４丁目１４番３５号,,34,104,7330036,,,,,,,2022-01-21,1,,,,,エイチエス,0
1861,5240001059239,新規,0,2022-01-21,2022-01-21,株式会社Ｄｉｖｅｒｓｅ,,株式会社,広島県,広島市安佐南区,毘沙門台２丁目４番３号,,34,105,7310152,,,,,,,2022-01-21,1,,,,,ダイバース,0
1864,5240003005439,新規,0,2022-01-21,2022-01-21,合同会社山本内装,,合同会社,広島県,三原市,宮浦５丁目５－４,,34,204,7230051,,,,,,,2022-01-21,1,,,,,ヤマモトナイソウ,0
1865,5240003005471,新規,0,2022-01-21,2022-01-21,ＶＥＬＲＥＡ合同会社,,合同会社,広島県,広島市中区,紙屋町２丁目２－２８,,34,101,7300031,,,,,,,2022-01-21,1,,,,,ベレア,0
1879,5280001008613,新規,0,2022-01-21,2022-01-21,株式会社細見技建,,株式会社,島根県,大田市,大田町大田ロ８３１番地３,,32,205,6940064,,,,,,,2022-01-21,1,,,,,ホソミギケン,0
1892,5290001096120,新規,0,2022-01-21,2022-01-21,ジャパン・トラスティマネジメント株式会社,,株式会社,福岡県,福岡市博多区,青木１丁目１番３８号,,40,132,8120851,,,,,,,2022-01-21,1,,,,,ジャパントラスティマネジメント,0
1893,5290001096161,新規,0,2022-01-21,2022-01-21,ＳＥＶＥＮ・ＨＯＵＳＥ株式会社,,株式会社,福岡県,福岡市早良区,室見１丁目２番３号,,40,137,8140015,,,,,,,2022-01-21,1,,,,,セブンハウス,0
1912,5290805009517,新規,0,2022-01-21,2022-01-21,アネーラ税理士法人,,その他の設立登記法人,福岡県,北九州市若松区,ひびきの１番８号,,40,103,8080135,,,,,,,2022-01-21,1,,,,,アネーラ,0
1918,5320005009958,新規,0,2022-01-21,2022-01-21,一般社団法人三和酒類地域文化振興会,,その他の設立登記法人,大分県,宇佐市,大字山本２２３１番地の１,,44,211,8790467,,,,,,,2022-01-21,1,,,,,サンワシュルイチイキブンカシンコウカイ,0
1919,5330001029380,新規,0,2022-01-21,2022-01-21,トーコープラス株式会社,,株式会社,熊本県,熊本市東区,御領５丁目３番１４号,,43,102,8618035,,,,,,,2022-01-21,1,,,,,トーコープラス,0
1920,5330003009208,新規,0,2022-01-21,2022-01-21,ほしはら誠合同会社,,合同会社,熊本県,球磨郡多良木町,大字久米１９８番地,,43,505,8680503,,,,,,,2022-01-21,1,,,,,ホシハラマコト,0
1926,5350001017549,新規,0,2022-01-21,2022-01-21,株式会社瑠虹,,株式会社,宮崎県,延岡市,伊形町４９３１番地,,45,203,8890503,,,,,,,2022-01-21,1,,,,,リュウコウ,0
1928,5360003011747,新規,0,2022-01-21,2022-01-21,合同会社尽己舎,,合同会社,沖縄県,沖縄市,泡瀬３丁目３１番２１号,,47,211,9042172,,,,,,,2022-01-21,1,,,,,ジンキシャ,0
1929,5370001048105,新規,0,2022-01-21,2022-01-21,株式会社Ｙ－プランニング,,株式会社,宮城県,仙台市宮城野区,五輪２丁目５番３号,,04,102,9830842,,,,,,,2022-01-21,1,,,,,ワイプランニング,0
1934,5380005012527,新規,0,2022-01-21,2022-01-21,東北六県地域商社協同組合,,その他の設立登記法人,福島県,二本松市,安達ケ原５丁目２５４番地１２,,07,210,9640938,,,,,,,2022-01-21,1,,,,,トウホクロッケンチイキショウシャ,0
1940,5400001015745,新規,0,2022-01-21,2022-01-21,あさひクレーン株式会社,,株式会社,岩手県,奥州市,水沢字桜屋敷５３７番地,,03,215,0230865,,,,,,,2022-01-21,1,,,,,アサヒクレーン,0
1944,5420001017715,新規,0,2022-01-21,2022-01-21,株式会社ＨＫＡ,,株式会社,青森県,青森市,古川１丁目１２－２プレミアムポレスターレジデンス３０４号,,02,201,0300862,,,,,,,2022-01-21,1,,,,,エイチケーエー,0
1945,5420003002434,新規,0,2022-01-21,2022-01-21,合同会社イースペース,,合同会社,青森県,弘前市,大字高崎１丁目６番地２パレス１ビル１Ｆ,,02,202,0368091,,,,,,,2022-01-21,1,,,,,イースペース,0
1952,5430001085843,新規,0,2022-01-21,2022-01-21,いすゞモーター北海道株式会社,,株式会社,北海道,札幌市清田区,清田二条２丁目１６番１号,,01,110,0040842,,,,,,,2022-01-21,1,,,,,イスズモーターホッカイドウ,0
1953,5430001085851,新規,0,2022-01-21,2022-01-21,ＦＯＲＭＯ．Ｊ株式会社,,株式会社,北海道,札幌市中央区,南二条西４丁目１０番地１ラージカントリービル７階,,01,101,0600062,,,,,,,2022-01-21,1,,,,,フォルモジェィ,0
1954,5430003013554,新規,0,2022-01-21,2022-01-21,合同会社ダブルコンセプト,,合同会社,北海道,札幌市東区,北八条東１９丁目１番１１号コンフォート８１９Ａ２０１号室,,01,103,0650008,,,,,,,2022-01-21,1,,,,,ダブルコンセプト,0
1960,5470003002116,新規,0,2022-01-21,2022-01-21,合同会社未来創造マネジメント,,合同会社,香川県,高松市,中野町２９－５高松プラザビル３Ｆ,,37,201,7600008,,,,,,,2022-01-21,1,,,,,ミライソウゾウマネジメント,0
1966,5700150106760,新規,0,2022-01-21,2022-01-21,ＡＥＯＮ,,外国会社等,茨城県,稲敷市,結佐２９５２－１－３　ユウトピヤビル１０７号室,,08,229,3000734,スリランカ民主社会主義共和国、西部州、コロンボ市、コロンボ１０、マラダナ、デワナンビヤティッサマーワタ、Ｎｏ．１１３,,,,,,2022-01-21,1,,,,,イーオン,0
1967,5700150106769,新規,0,2022-01-21,2022-01-21,Ｓ－Ｆｉｎｅ　Ｔｒａｄｉｎｇ,,外国会社等,茨城県,稲敷市,結佐２９５２番地１－３　ユートピアビルディング１０８,,08,229,3000734,スリランカ民主社会主義共和国、リーマガハコトゥワ、ブーウェリカダ、１８０－１－３,,,,,,2022-01-21,1,,,,,エスフアイントレーデイング,0
1977,6010001223964,新規,0,2022-01-21,2022-01-21,株式会社グリーンブラザーズ・ジャパン,,株式会社,東京都,千代田区,平河町２丁目６番１号平河町ビル７階,,13,101,1020093,,,,,,,2022-01-21,1,,,,,グリーンブラザーズジャパン,0
1978,6010001224070,新規,0,2022-01-21,2022-01-21,株式会社Ｂｌｏｓｓｏｍ　Ｅｎｅｒｇｙ,,株式会社,東京都,文京区,本郷５丁目２５－１８ハイテク本郷ビル,,13,105,1130033,,,,,,,2022-01-21,1,,,,,ブロッサムエナジー,0
1981,6010003036811,新規,0,2022-01-21,2022-01-21,合同会社由布院ホテルマネジメント,,合同会社,東京都,千代田区,丸の内３丁目１番１号東京共同会計事務所内,,13,101,1000005,,,,,,,2022-01-21,1,,,,,ユフインホテルマネジメント,0
1991,6010401165063,新規,0,2022-01-21,2022-01-21,株式会社ＳｏｌａｘＲｅａｌｔｏｒ,,株式会社,東京都,港区,芝２丁目３０番１５号,,13,103,1050014,,,,,,,2022-01-21,1,,,,,ソラックスリアルター,0
1992,6010401165088,新規,0,2022-01-21,2022-01-21,株式会社１７３,,株式会社,東京都,港区,三田１丁目１１番１８号,,13,103,1080073,,,,,,,2022-01-21,1,,,,,ワンセブンスリー,0
1993,6010401165113,新規,0,2022-01-21,2022-01-21,ＬＵＭＡＸ　ＪＡＰＡＮ株式会社,,株式会社,東京都,港区,三田１丁目２番１８号ＴＴＤビル,,13,103,1080073,,,,,,,2022-01-21,1,,,,,ルーマックスジャパン,0
1996,6010403026932,新規,0,2022-01-21,2022-01-21,合同会社神谷町インベストメント１２号,,合同会社,東京都,港区,虎ノ門５丁目１番４号,,13,103,1050001,,,,,,,2022-01-21,1,,,,,カミヤチョウインベストメントジュウニゴウ,0
1997,6010403026940,新規,0,2022-01-21,2022-01-21,ブレインファイナンシャルアドバイザリー合同会社,,合同会社,東京都,港区,虎ノ門１丁目１６番１６号虎ノ門一丁目МＧビル３階,,13,103,1050001,,,,,,,2022-01-21,1,,,,,ブレインファイナンシャルアドバイザリー,0
1998,6010403026949,新規,0,2022-01-21,2022-01-21,合同会社ＳＴＡＲＴ　ＳＴＵＤＹ,,合同会社,東京都,港区,新橋５丁目３０－７,,13,103,1050004,,,,,,,2022-01-21,1,,,,,スタートスタディ,0
1999,6010405020586,新規,0,2022-01-21,2022-01-21,Ｍｅｒｃｕｒｙ特定目的会社,,その他の設立登記法人,東京都,港区,虎ノ門５丁目１番４号,,13,103,1050001,,,,,,,2022-01-21,1,,,,,マーキュリー,0
2000,6010405020594,新規,0,2022-01-21,2022-01-21,一般社団法人エムケー,,その他の設立登記法人,東京都,港区,虎ノ門３丁目２２番１０－２０１号,,13,103,1050001,,,,,,,2022-01-21,1,,,,,エムケー,0
2004,6010601060551,新規,0,2022-01-21,2022-01-21,ＦＩＮＤ　ＶＡＬＵＥ株式会社,,株式会社,東京都,江東区,有明１丁目１－１７シティタワー有明３１１５号室,,13,108,1350063,,,,,,,2022-01-21,1,,,,,ファインドバリュー,0
2006,6010603009349,新規,0,2022-01-21,2022-01-21,ＭＯＮＫＥＹＯＮＥ　ＭＰ３合同会社,,合同会社,東京都,江東区,大島９丁目１番２４号,,13,108,1360072,,,,,,,2022-01-21,1,,,,,モンキーワンエムピースリー,0
2007,6010701042094,新規,0,2022-01-21,2022-01-21,株式会社ＡＩ　ｔｅｃｈ,,株式会社,東京都,品川区,大崎２丁目９番２－３２１３号,,13,109,1410032,,,,,,,2022-01-21,1,,,,,エーアイテック,0
2024,6011001145232,新規,0,2022-01-21,2022-01-21,株式会社たのしいミュージアム,,株式会社,東京都,渋谷区,富ヶ谷１丁目３０番２４号富ヶ谷マンション２０５,,13,113,1510063,,,,,,,2022-01-21,1,,,,,タノシイミュージアム,0
2028,6011105010101,新規,0,2022-01-21,2022-01-21,一般社団法人親子共育発達さぽーと協会,,その他の設立登記法人,東京都,新宿区,西新宿３丁目３番１３号西新宿水間ビル６階,,13,104,1600023,,,,,,,2022-01-21,1,,,,,オヤコキョウイクハッタツサポートキョウカイ,0
2029,6011203003733,新規,0,2022-01-21,2022-01-21,合同会社モモタロウ,,合同会社,東京都,中野区,本町６丁目２７番８号,,13,114,1640012,,,,,,,2022-01-21,1,,,,,モモタロウ,0
2031,6011301027502,新規,0,2022-01-21,2022-01-21,株式会社ダンビュライト,,株式会社,東京都,杉並区,成田東１丁目３６番３号ダリア新高円寺１０１,,13,115,1660015,,,,,,,2022-01-21,1,,,,,ダンビュライト,0
2036,6011601025684,新規,0,2022-01-21,2022-01-21,株式会社ｏｎｅｗｏｒｌｄ,,株式会社,東京都,練馬区,大泉町２丁目３１番２号,,13,120,1780062,,,,,,,2022-01-21,1,,,,,ワンワールド,0
2047,6011703003051,新規,0,2022-01-21,2022-01-21,合同会社センテンス・エイト,,合同会社,東京都,江戸川区,中葛西８丁目１３番１１号ウェルス中葛西１０４,,13,123,1340083,,,,,,,2022-01-21,1,,,,,,0
2049,6011801040194,新規,0,2022-01-21,2022-01-21,株式会社４ｃｔｉｖｅ,,株式会社,東京都,葛飾区,東新小岩８丁目７番１８－６０６号グランド．オーク,,13,122,1240023,,,,,,,2022-01-21,1,,,,,アクティブ,0
2050,6011801040228,新規,0,2022-01-21,2022-01-21,株式会社ａｎｄ　ｔｏ　ｌｅａｐ,,株式会社,東京都,足立区,千住宮元町１３番１３号,,13,121,1200043,,,,,,,2022-01-21,1,,,,,アンドトゥリープ,0
2051,6012401038769,新規,0,2022-01-21,2022-01-21,株式会社Ｓｐａｒｋｌｅ　ｖｉｓｉｏｎ,,株式会社,東京都,府中市,西府町４丁目１５番地の８,,13,206,1830031,,,,,,,2022-01-21,1,,,,,スパークルヴィジョン,0
2059,6013303006005,新規,0,2022-01-21,2022-01-21,合同会社カムズ,,合同会社,東京都,豊島区,目白４丁目３１番２２号Ｂ１,,13,116,1710031,,,,,,,2022-01-21,1,,,,,カムズ,0
2084,6020001144887,新規,0,2022-01-21,2022-01-21,株式会社Ｔｅｃｈｎｏ　Ｃｌｏｕｄ,,株式会社,神奈川県,横浜市泉区,中田東４丁目５番６号アンシャンテ２０１号,,14,116,2450013,,,,,,,2022-01-21,1,,,,,テクノクラウド,0
2113,6020003021176,新規,0,2022-01-21,2022-01-21,ＭＭｍａｒｔ合同会社,,合同会社,神奈川県,横浜市西区,平沼２丁目１３番９号三木ビル５０２号,,14,103,2200023,,,,,,,2022-01-21,1,,,,,エムエムマート,0
2114,6020003021184,新規,0,2022-01-21,2022-01-21,合同会社ＭＴＫＹ,,合同会社,神奈川県,横浜市保土ケ谷区,権太坂１丁目４５番３３号,,14,106,2400026,,,,,,,2022-01-21,1,,,,,エムティーケーワイ,0
2135,6040001121851,新規,0,2022-01-21,2022-01-21,株式会社ＫＥＮＥＸ二和,,株式会社,千葉県,船橋市,二和東３丁目８番２６号,,12,204,2740805,,,,,,,2022-01-21,1,,,,,ケネックスフタワ,0
2136,6040001121876,新規,0,2022-01-21,2022-01-21,カーテンコール株式会社,,株式会社,千葉県,船橋市,前原西２丁目１４－２津田沼駅前安田ビル別館２階,,12,204,2740825,,,,,,,2022-01-21,1,,,,,カーテンコール,0
2137,6040001121892,新規,0,2022-01-21,2022-01-21,株式会社Ｐｒｉｍｅ　Ｎｕｍｂｅｒ,,株式会社,千葉県,柏市,十余二２４８番地３２８,,12,217,2770872,,,,,,,2022-01-21,1,,,,,プライムナンバー,0
2138,6040001121901,新規,0,2022-01-21,2022-01-21,株式会社ＣｏｓＰｈａｒｍ．,,株式会社,千葉県,船橋市,本町６丁目１８－１９第三山中ビル４０１号室,,12,204,2730005,,,,,,,2022-01-21,1,,,,,コスファム,0
2142,6040003019350,新規,0,2022-01-21,2022-01-21,トヨクニ合同会社,,合同会社,千葉県,船橋市,馬込町９５０番地６６,,12,204,2730851,,,,,,,2022-01-21,1,,,,,トヨクニ,0
2207,6080105006210,新規,0,2022-01-21,2022-01-21,一般社団法人あじろ家守舎,,その他の設立登記法人,静岡県,熱海市,網代１３０番地の１,,22,205,4130103,,,,,,,2022-01-21,1,,,,,アジロヤモリシャ,0
2212,6100003006375,新規,0,2022-01-21,2022-01-21,レーラ企画合同会社,,合同会社,長野県,佐久市,春日３８７３番２,,20,217,3842205,,,,,,,2022-01-21,1,,,,,レーラキカク,0
2232,6120005022724,新規,0,2022-01-21,2022-01-21,医療法人ＳＫＹ,,その他の設立登記法人,大阪府,大阪市西区,西本町１丁目７番１号信濃橋ＦＪビル２階,,27,106,5500005,,,,,,,2022-01-21,1,,,,,スカイ,0
2242,6130001070965,新規,0,2022-01-21,2022-01-21,ファーストアタック株式会社,,株式会社,京都府,京田辺市,大住関屋１３,,26,211,6100343,,,,,,,2022-01-21,1,,,,,ファーストアタック,0
2250,6140003017113,新規,0,2022-01-21,2022-01-21,柳田商会合同会社,,合同会社,兵庫県,神戸市東灘区,本山南町２丁目２－７,,28,101,6580015,,,,,,,2022-01-21,1,,,,,ヤナギダショウカイ,0
2251,6150003002601,新規,0,2022-01-21,2022-01-21,合同会社Ｇｒｏｗ,,合同会社,奈良県,桜井市,大字脇本４２９番地９,,29,206,6330018,,,,,,,2022-01-21,1,,,,,グロウ,0
2259,6180001149615,新規,0,2022-01-21,2022-01-21,株式会社アオイ鋼業,,株式会社,愛知県,あま市,七宝町沖之島深坪９０番地,,23,237,4970001,,,,,,,2022-01-21,1,,,,,アオイコウギョウ,0
2260,6180001149664,新規,0,2022-01-21,2022-01-21,株式会社栄和,,株式会社,愛知県,名古屋市中区,千代田５丁目１５番１０号,,23,106,4600012,,,,,,,2022-01-21,1,,,,,エイワ,0
2265,6180301035861,新規,0,2022-01-21,2022-01-21,誠信メタル株式会社,,株式会社,愛知県,刈谷市,末広町１丁目１５番地１８,,23,210,4480802,,,,,,,2022-01-21,1,,,,,セイシンメタル,0
2271,6200003005433,新規,0,2022-01-21,2022-01-21,Ｄ＆Ａ合同会社,,合同会社,岐阜県,各務原市,蘇原野口町１丁目３２番地１,,21,213,5040854,,,,,,,2022-01-21,1,,,,,ディーアンドエー,0
2277,6240001059238,新規,0,2022-01-21,2022-01-21,株式会社ＨＩＢコンサル,,株式会社,広島県,広島市西区,楠木町４丁目４番２５号,,34,104,7330002,,,,,,,2022-01-21,1,,,,,エイチアイビーコンサル,0
2278,6240003005470,新規,0,2022-01-21,2022-01-21,合同会社Ｋ＆Ｋ　ｅｘｐｒｅｓｓ,,合同会社,広島県,広島市西区,観音新町１丁目２５番１号,,34,104,7330036,,,,,,,2022-01-21,1,,,,,ケイアンドケイエクスプレス,0
2293,6260001036458,新規,0,2022-01-21,2022-01-21,リジョイス株式会社,,株式会社,岡山県,岡山市北区,北長瀬表町２丁目１４番２２－３号,,33,101,7000962,,,,,,,2022-01-21,1,,,,,リジョイス,0
2300,6280001008612,新規,0,2022-01-21,2022-01-21,株式会社クリスタル企画,,株式会社,島根県,松江市,黒田町６１６番地３和田マンション２０１,,32,201,6900876,,,,,,,2022-01-21,1,,,,,クリスタルキカク,0
2310,6290001096160,新規,0,2022-01-21,2022-01-21,株式会社９２０,,株式会社,福岡県,福岡市博多区,博多駅前３丁目２３番２０‐３０９号ウェルブライト博多ステーション,,40,132,8120011,,,,,,,2022-01-21,1,,,,,キュウニゼロ,0
2323,6290003012058,新規,0,2022-01-21,2022-01-21,合同会社永田電工,,合同会社,福岡県,福岡市東区,香椎２丁目２０番３５号,,40,131,8130011,,,,,,,2022-01-21,1,,,,,ナガタデンコウ,0
2328,6290005018540,新規,0,2022-01-21,2022-01-21,一般社団法人福岡中小企業労働保険協会,,その他の設立登記法人,福岡県,福岡市西区,野方２丁目４５番４号,,40,135,8190043,,,,,,,2022-01-21,1,,,,,フクオカチュウショウキギョウロウドウホケンキョウカイ,0
2332,6290805009516,新規,0,2022-01-21,2022-01-21,医療法人松尾ファミリークリニック,,その他の設立登記法人,福岡県,田川市,大字伊田４５４７番９,,40,206,8250002,,,,,,,2022-01-21,1,,,,,マツオファミリークリニック,0
2343,6330003009215,新規,0,2022-01-21,2022-01-21,合同会社光農園,,合同会社,熊本県,山鹿市,久原５７６番地１,,43,208,8610522,,,,,,,2022-01-21,1,,,,,ヒカリノウエン,0
2344,6340003003695,新規,0,2022-01-21,2022-01-21,合同会社クラフィ,,合同会社,鹿児島県,霧島市,国分清水４丁目８番１３号,,46,218,8994304,,,,,,,2022-01-21,1,,,,,クラフィ,0
2349,6360003011746,新規,0,2022-01-21,2022-01-21,合同会社丸徳工業,,合同会社,沖縄県,宮古島市,城辺字福里６３３番地１,,47,214,9060103,,,,,,,2022-01-21,1,,,,,マルトクコウギョウ,0
2350,6360005006587,新規,0,2022-01-21,2022-01-21,社会福祉法人ブーゲンビレア福祉会,,その他の設立登記法人,沖縄県,宮古島市,平良字西里２０２４番地１,,47,214,9060012,,,,,,,2022-01-21,1,,,,,ブーゲンビレアフクシカイ,0
2357,6420001017714,新規,0,2022-01-21,2022-01-21,株式会社一鳴産業,,株式会社,青森県,黒石市,富士見１２３番地,,02,204,0360515,,,,,,,2022-01-21,1,,,,,カズナリサンギョウ,0
2358,6420003002433,新規,0,2022-01-21,2022-01-21,Ｍｏｒｒｉｓ　Ｇｒｏｕｐ合同会社,,合同会社,青森県,上北郡六戸町,小松ケ丘６丁目７７番地３４１Ｎ５４,,02,405,0330074,,,,,,,2022-01-21,1,,,,,モーリスグループ,0
2364,6430001085850,新規,0,2022-01-21,2022-01-21,株式会社ＪＣプランニング,,株式会社,北海道,札幌市西区,西野六条１０丁目２２番１４号,,01,107,0630036,,,,,,,2022-01-21,1,,,,,ジェイシィプランニング,0
2379,6700150106751,新規,0,2022-01-21,2022-01-21,ＲＯＹＡＬ　ＡＵＴＯ　ＷＩＮＧＳ,,外国会社等,千葉県,八街市,東吉田１３４番地９８－Ａ,,12,230,2891114,スリランカ民主社会主義共和国、ホロウポタナ、バブニヤジャンクション、２,,,,,,2022-01-21,1,,,,,ロイヤルオートウイングス,0
2380,6700150106768,新規,0,2022-01-21,2022-01-21,ＥＢＡＮ　ＬＡＮＫＡ　ＥＮＴＥＲＰＲＩＳＥＳ,,外国会社等,茨城県,稲敷市,結佐２９５２番地１－３　ユートピアビルディング１０９,,08,229,3000734,スリランカ民主社会主義共和国、カルムナイ３、コビルロード、９０－２,,,,,,2022-01-21,1,,,,,エバンランカエンタープライゼス,0
2391,7010003036810,新規,0,2022-01-21,2022-01-21,白馬ホールディング合同会社,,合同会社,東京都,千代田区,丸の内３丁目１番１号東京共同会計事務所内,,13,101,1000005,,,,,,,2022-01-21,1,,,,,ハクバホールディング,0
2398,7010401164948,新規,0,2022-01-21,2022-01-21,株式会社ＳＩＳｕ,,株式会社,東京都,港区,東麻布１丁目４番２号,,13,103,1060044,,,,,,,2022-01-21,1,,,,,シス,0
2399,7010401165038,新規,0,2022-01-21,2022-01-21,株式会社ＣＡ　ｐｒｏｄｕｃｅ,,株式会社,東京都,港区,南青山３丁目１８番１９号東亜バッヂビル４Ｆ,,13,103,1070062,,,,,,,2022-01-21,1,,,,,シーエープロデュース,0
2400,7010401165087,新規,0,2022-01-21,2022-01-21,株式会社ジンリョク,,株式会社,東京都,港区,北青山３丁目６－７青山パラシオタワー１１階,,13,103,1070061,,,,,,,2022-01-21,1,,,,,ジンリョク,0
2401,7010403026931,新規,0,2022-01-21,2022-01-21,合同会社神谷町インベストメント１１号,,合同会社,東京都,港区,虎ノ門５丁目１番４号,,13,103,1050001,,,,,,,2022-01-21,1,,,,,カミヤチョウインベストメントジュウイチゴウ,0
2402,7010403026948,新規,0,2022-01-21,2022-01-21,ＫＬＤホールディング合同会社,,合同会社,東京都,港区,元赤坂１丁目１番８号株式会社赤坂国際会計内,,13,103,1070051,,,,,,,2022-01-21,1,,,,,ケイエルディーホールディング,0
2408,7010601060550,新規,0,2022-01-21,2022-01-21,株式会社巴組,,株式会社,東京都,墨田区,太平３丁目１２番９－１０３号,,13,107,1300012,,,,,,,2022-01-21,1,,,,,トモエグミ,0
2440,7011101097562,新規,0,2022-01-21,2022-01-21,Ｐａｎｇｅａ株式会社,,株式会社,東京都,新宿区,百人町２丁目１番４５号赤煉瓦２１４,,13,104,1690073,,,,,,,2022-01-21,1,,,,,パンゲア,0
2442,7011103011380,新規,0,2022-01-21,2022-01-21,合同会社ＣＨ,,合同会社,東京都,新宿区,大久保３丁目８番３号,,13,104,1690072,,,,,,,2022-01-21,1,,,,,ヤッター,0
2443,7011103011389,新規,0,2022-01-21,2022-01-21,合同会社ｐｏｕｐｅｅ　ｐａｒｆａｉｔｅ,,合同会社,東京都,新宿区,新宿６丁目２８番１０号シルバーマンション８０２,,13,104,1600022,,,,,,,2022-01-21,1,,,,,プーペパルフェ,0
2445,7011301027501,新規,0,2022-01-21,2022-01-21,株式会社ｍａｎｄ,,株式会社,東京都,杉並区,西荻北２丁目２番５号,,13,115,1670042,,,,,,,2022-01-21,1,,,,,マンド,0
2459,7012701016894,新規,0,2022-01-21,2022-01-21,株式会社ＨＯＢＡＳＨＩＲＡ　ｗｏｒｋｓ,,株式会社,東京都,小平市,花小金井６丁目２６番３３号ヴィラ花小金井１０１号室,,13,211,1870002,,,,,,,2022-01-21,1,,,,,ホバシラワークス,0
2464,7013303006004,新規,0,2022-01-21,2022-01-21,合同会社リロウ,,合同会社,東京都,豊島区,目白４丁目３１番２２号Ｂ１,,13,116,1710031,,,,,,,2022-01-21,1,,,,,リロウ,0
2478,7020001144837,新規,0,2022-01-21,2022-01-21,株式会社クラウド,,株式会社,神奈川県,横浜市戸塚区,上矢部町２４４３番地７,,14,110,2450053,,,,,,,2022-01-21,1,,,,,クラウド,0
2479,7020001144894,新規,0,2022-01-21,2022-01-21,株式会社ＣＯＣＯ,,株式会社,神奈川県,横浜市旭区,今宿西町４１５番地１,,14,112,2410031,,,,,,,2022-01-21,1,,,,,ココ,0
2522,7030005020694,新規,0,2022-01-21,2022-01-21,特定非営利活動法人あかり,,その他の設立登記法人,埼玉県,鶴ヶ島市,脚折町１丁目３６番１７号,,11,241,3502211,,,,,,,2022-01-21,1,,,,,アカリ,0
2531,7040001121875,新規,0,2022-01-21,2022-01-21,株式会社やすらぎ保険プランナー,,株式会社,千葉県,市原市,五井５９３８番地３,,12,219,2900056,,,,,,,2022-01-21,1,,,,,ヤスラギホケンプランナー,0
2534,7050001050504,新規,0,2022-01-21,2022-01-21,株式会社金子プレス製作所,,株式会社,茨城県,小美玉市,野田７９１番地,,08,236,3113411,,,,,,,2022-01-21,1,,,,,カネコプレスセイサクジョ,0
2564,7060005009941,新規,0,2022-01-21,2022-01-21,一般社団法人睡眠・健康アドバイザー協会,,その他の設立登記法人,栃木県,小山市,駅南町２丁目４番３号,,09,208,3230822,,,,,,,2022-01-21,1,,,,,スイミンケンコウアドバイザーキョウカイ,0
2592,7080401025581,新規,0,2022-01-21,2022-01-21,テクノトレイン株式会社,,株式会社,静岡県,浜松市浜北区,小松６５１番地,,22,136,4340042,,,,,,,2022-01-21,1,,,,,テクノトレイン,0
2607,7120001243307,新規,0,2022-01-21,2022-01-21,株式会社ブレイン,,株式会社,大阪府,大阪市東住吉区,山坂４丁目１番３０号２０６,,27,121,5460035,,,,,,,2022-01-21,1,,,,,ブレイン,0
2608,7120003020976,新規,0,2022-01-21,2022-01-21,華美達合同会社,,合同会社,大阪府,枚方市,渚栄町３６－１１,,27,210,5731172,,,,,,,2022-01-21,1,,,,,カミタ,0
2609,7120003021000,新規,0,2022-01-21,2022-01-21,Ｋプランニング合同会社,,合同会社,大阪府,大阪市天王寺区,堀越町４番２５号,,27,109,5430056,,,,,,,2022-01-21,1,,,,,ケイプランニング,0
2614,7120101064974,新規,0,2022-01-21,2022-01-21,株式会社ＲＡＦ,,株式会社,大阪府,河内長野市,滝畑１７３番地,,27,216,5860072,,,,,,,2022-01-21,1,,,,,アールエーエフ,0
2615,7120101064982,新規,0,2022-01-21,2022-01-21,株式会社ＡｐｌＷｉｚａｒｄ,,株式会社,大阪府,泉南郡熊取町,五門西３丁目６－２６,,27,361,5900415,,,,,,,2022-01-21,1,,,,,アプリウイザード,0
2625,7130003007709,新規,0,2022-01-21,2022-01-21,Ｋｙｏｔｏ　Ｉｎｔｅｒｃｈａｎｇｅ合同会社,,合同会社,京都府,京都市左京区,浄土寺馬場町１－３,,26,103,6068412,,,,,,,2022-01-21,1,,,,,キョウトインターチェンジ,0
2637,7160003002475,新規,0,2022-01-21,2022-01-21,合同会社ｍｅｉｍａ,,合同会社,滋賀県,守山市,千代町１２１,,25,207,5240034,,,,,,,2022-01-21,1,,,,,メイマ,0
2641,7180001149614,新規,0,2022-01-21,2022-01-21,株式会社オリナススタイルホールディングス,,株式会社,愛知県,半田市,昭和町３丁目１番地,,23,205,4750922,,,,,,,2022-01-21,1,,,,,オリナススタイルホールディングス,0
2644,7180003023412,新規,0,2022-01-21,2022-01-21,ＰａｒｔｓＢａｎｋ合同会社,,合同会社,愛知県,名古屋市緑区,鹿山２丁目２７番地小菊荘１号室,,23,114,4580045,,,,,,,2022-01-21,1,,,,,パーツバンク,0
2648,7180303005234,新規,0,2022-01-21,2022-01-21,合同会社ＰＦソフト,,合同会社,愛知県,豊田市,東梅坪町４丁目１２‐１３,,23,211,4710071,,,,,,,2022-01-21,1,,,,,ピーエフソフト,0
2654,7190003003883,新規,0,2022-01-21,2022-01-21,トラストＡ合同会社,,合同会社,三重県,鈴鹿市,白子駅前３３－１１,,24,207,5100241,,,,,,,2022-01-21,1,,,,,トラストエー,0
2691,7290001096127,新規,0,2022-01-21,2022-01-21,株式会社Ｗｅｌｌ‐Ｂｅｉｎｇ,,株式会社,福岡県,太宰府市,通古賀３丁目１３－１３西都ビル５１０,,40,221,8180104,,,,,,,2022-01-21,1,,,,,ウェルビーイング,0
2692,7290001096143,新規,0,2022-01-21,2022-01-21,昇晟株式会社,,株式会社,福岡県,筑後市,大字山ノ井８６２番地２ロイヤルシャトー羽犬塚１０３号,,40,211,8330031,,,,,,,2022-01-21,1,,,,,ショウセイ,0
2693,7290001096168,新規,0,2022-01-21,2022-01-21,ＴＯ株式会社,,株式会社,福岡県,福岡市博多区,博多駅東２丁目１０番１３号,,40,132,8120013,,,,,,,2022-01-21,1,,,,,ティーオー,0
2712,7290003012049,新規,0,2022-01-21,2022-01-21,合同会社大蒼,,合同会社,福岡県,大牟田市,久保田町１丁目１番地４クローバーマンション大牟田駅前７０１号,,40,202,8360045,,,,,,,2022-01-21,1,,,,,ダイソウ,0
2718,7290005018523,新規,0,2022-01-21,2022-01-21,医療法人社団蒼玉会,,その他の設立登記法人,福岡県,福岡市東区,香住ヶ丘６丁目３番６号,,40,131,8130003,,,,,,,2022-01-21,1,,,,,ソウギョクカイ,0
2721,7310001017682,新規,0,2022-01-21,2022-01-21,株式会社キクミミ,,株式会社,長崎県,長崎市,中町４－１１－８０２,,42,201,8500055,,,,,,,2022-01-21,1,,,,,キクミミ,0
2725,7320001018853,新規,0,2022-01-21,2022-01-21,キヨタミートホールディングス株式会社,,株式会社,大分県,大分市,大字大在６番地,,44,201,8700266,,,,,,,2022-01-21,1,,,,,キヨタミートホールディングス,0
2727,7330001029362,新規,0,2022-01-21,2022-01-21,株式会社宇城中村林業,,株式会社,熊本県,宇城市,松橋町内田４３３番地４,,43,213,8690522,,,,,,,2022-01-21,1,,,,,ウキナカムラリンギョウ,0
2728,7340001024445,新規,0,2022-01-21,2022-01-21,株式会社エスカンパニー,,株式会社,鹿児島県,日置市,日吉町日置２２１５番地１,,46,216,8993101,,,,,,,2022-01-21,1,,,,,エスカンパニー,0
2759,7480003001783,新規,0,2022-01-21,2022-01-21,合同会社大進,,合同会社,徳島県,徳島市,富田町１丁目１９番地１,,36,201,7700915,,,,,,,2022-01-21,1,,,,,ダイシン,0
2761,7700150106759,新規,0,2022-01-21,2022-01-21,ＰＡＴＨＵＭ　ＥＮＴＥＲＰＲＩＳＥＳ,,外国会社等,茨城県,稲敷市,結佐２９５２－１－３　ユウトピヤビル１０５号室,,08,229,3000734,スリランカ民主社会主義共和国、カトガストタ、ナワヤラテンナ、デマタゴラ、Ｎｏ．１６／Ｂ／１,,,,,,2022-01-21,1,,,,,パトウムエンタープライズ,0
2771,8010001223913,新規,0,2022-01-21,2022-01-21,株式会社ＴＡＳＵＫＩ,,株式会社,東京都,中央区,日本橋２丁目１５番５号ＰＭＯ日本橋二丁目,,13,102,1030027,,,,,,,2022-01-21,1,,,,,タスキ,0
2772,8010001223954,新規,0,2022-01-21,2022-01-21,株式会社Ｋ－Ｃｏｎｆｉａｎｃｅ,,株式会社,東京都,千代田区,神田錦町３丁目１１番地,,13,101,1010054,,,,,,,2022-01-21,1,,,,,ケイコンフィアンス,0
2773,8010001224028,新規,0,2022-01-21,2022-01-21,ＭＨＤ株式会社,,株式会社,東京都,千代田区,麹町３丁目５番地２,,13,101,1020083,,,,,,,2022-01-21,1,,,,,エムエイチディ,0
2777,8010005034480,新規,0,2022-01-21,2022-01-21,一般社団法人Ｌ＆Ｐ　Ｍｅｄｉｃａｌ,,その他の設立登記法人,東京都,千代田区,三番町７番地４５,,13,101,1020075,,,,,,,2022-01-21,1,,,,,エルアンドピーメディカル,0
2786,8010401165029,新規,0,2022-01-21,2022-01-21,株式会社エンコネ,,株式会社,東京都,港区,南青山２丁目２番１５号,,13,103,1070062,,,,,,,2022-01-21,1,,,,,エンコネ,0
2787,8010401165045,新規,0,2022-01-21,2022-01-21,株式会社オフィス１７,,株式会社,東京都,港区,麻布十番２丁目１２番２－４０２号,,13,103,1060045,,,,,,,2022-01-21,1,,,,,オフィスジュウナナ,0
2788,8010401165061,新規,0,2022-01-21,2022-01-21,株式会社メンテ,,株式会社,東京都,港区,南麻布２丁目９番１７号ＣＩＲＣＬＥ南麻布３０１,,13,103,1060047,,,,,,,2022-01-21,1,,,,,メンテ,0
2789,8010401165086,新規,0,2022-01-21,2022-01-21,ＡＲＴＥ　ＳＯＮＡＴＡ株式会社,,株式会社,東京都,港区,浜松町２丁目２番１５号浜松町ダイヤビル２Ｆ,,13,103,1050013,,,,,,,2022-01-21,1,,,,,アルトソナタ,0
2790,8010401165094,新規,0,2022-01-21,2022-01-21,株式会社ティーエフホールディングス,,株式会社,東京都,港区,東新橋１丁目９番２号汐留住友ビル１６階,,13,103,1050021,,,,,,,2022-01-21,1,,,,,ティーエフホールディングス,0
2791,8010401165103,新規,0,2022-01-21,2022-01-21,ＧＣＪＩ５株式会社,,株式会社,東京都,港区,元赤坂１丁目１番８号株式会社赤坂国際会計内,,13,103,1070051,,,,,,,2022-01-21,1,,,,,ジーシージェイアイファイブ,0
2794,8010405020584,新規,0,2022-01-21,2022-01-21,一般社団法人ＳＰＩＮ,,その他の設立登記法人,東京都,港区,南青山２丁目２番１５号ウィン青山９４２,,13,103,1070062,,,,,,,2022-01-21,1,,,,,スピン,0
2807,8010701042118,新規,0,2022-01-21,2022-01-21,株式会社フラットルール,,株式会社,東京都,品川区,上大崎３丁目１番２号,,13,109,1410021,,,,,,,2022-01-21,1,,,,,フラットルール,0
2817,8010901050192,新規,0,2022-01-21,2022-01-21,株式会社Ｋｉｎｇｓ　ｍａｎ,,株式会社,東京都,世田谷区,弦巻１丁目８番８号メゾンステラマリス２０１,,13,112,1540016,,,,,,,2022-01-21,1,,,,,キングスマン,0
2831,8011101097578,新規,0,2022-01-21,2022-01-21,株式会社セパレートプロ,,株式会社,東京都,新宿区,高田馬場２丁目９番８－１０１号,,13,104,1690075,,,,,,,2022-01-21,1,,,,,セパレートプロ,0
2832,8011103011388,新規,0,2022-01-21,2022-01-21,合同会社ＮＫパートナーズ,,合同会社,東京都,新宿区,西新宿３丁目３－１３,,13,104,1600023,,,,,,,2022-01-21,1,,,,,エヌケイパートナーズ,0
2833,8011103011396,新規,0,2022-01-21,2022-01-21,合同会社ＫＮ２インベスターズ,,合同会社,東京都,新宿区,西新宿８丁目５番１号,,13,104,1600023,,,,,,,2022-01-21,1,,,,,ケーエヌツーインベスターズ,0
2837,8011203003723,新規,0,2022-01-21,2022-01-21,スズタカ合同会社,,合同会社,東京都,中野区,南台４丁目１４番５号,,13,114,1640014,,,,,,,2022-01-21,1,,,,,スズタカ,0
2839,8011401023969,新規,0,2022-01-21,2022-01-21,株式会社匠,,株式会社,東京都,板橋区,徳丸２丁目７番２１号,,13,119,1750083,,,,,,,2022-01-21,1,,,,,タクミ,0
2845,8011701024989,新規,0,2022-01-21,2022-01-21,株式会社ＤＲＡＦＴ　ＣＡＲＧＯ,,株式会社,東京都,江戸川区,瑞江２丁目５番３号,,13,123,1320011,,,,,,,2022-01-21,1,,,,,ドラフトカーゴ,0
2856,8012301012855,新規,0,2022-01-21,2022-01-21,株式会社Ｗｉｌｄ　Ｈｕｎｔ,,株式会社,東京都,町田市,金井５丁目３２番１２号,,13,209,1950072,,,,,,,2022-01-21,1,,,,,ワイルドハント,0
2863,8013301048567,新規,0,2022-01-21,2022-01-21,パズテク株式会社,,株式会社,東京都,豊島区,東池袋３丁目９番１－４０２号,,13,116,1700013,,,,,,,2022-01-21,1,,,,,パズテク,0
2865,8013303006003,新規,0,2022-01-21,2022-01-21,合同会社クロオネ,,合同会社,東京都,豊島区,目白４丁目３１番２２号Ｂ１,,13,116,1710031,,,,,,,2022-01-21,1,,,,,クロオネ,0
2893,8020001144910,新規,0,2022-01-21,2022-01-21,株式会社ＴＴホーム,,株式会社,神奈川県,横浜市旭区,白根４丁目１５番４号,,14,112,2410005,,,,,,,2022-01-21,1,,,,,ティーティーホーム,0
2918,8020003021174,新規,0,2022-01-21,2022-01-21,合同会社あんさんぶる,,合同会社,神奈川県,横浜市青葉区,黒須田３１番地５１,,14,117,2250022,,,,,,,2022-01-21,1,,,,,アンサンブル,0
2932,8030001146443,新規,0,2022-01-21,2022-01-21,株式会社ＴＡＮＮＰＯＰＯ,,株式会社,埼玉県,川口市,栄町１丁目１４－７－１０６,,11,203,3320017,,,,,,,2022-01-21,1,,,,,タンポポ,0
2941,8040001121833,新規,0,2022-01-21,2022-01-21,株式会社Ｏｎｅ　Ｇｅｎｅ,,株式会社,千葉県,市川市,真間２丁目２５番６号,,12,203,2720826,,,,,,,2022-01-21,1,,,,,ワンジェネ,0
2942,8040001121841,新規,0,2022-01-21,2022-01-21,株式会社三吉堂,,株式会社,千葉県,千葉市中央区,富士見１丁目２番３号,,12,101,2600015,,,,,,,2022-01-21,1,,,,,ミヨシドウ,0
2943,8040001121866,新規,0,2022-01-21,2022-01-21,株式会社秀栄サービス,,株式会社,千葉県,浦安市,今川１丁目２番５５号メゾン・クレスタ・浦安２１０号,,12,227,2790022,,,,,,,2022-01-21,1,,,,,シュウエイサービス,0
2944,8040001121882,新規,0,2022-01-21,2022-01-21,Ｗ・システム株式会社,,株式会社,千葉県,船橋市,夏見１丁目９番２１－３０８号,,12,204,2730865,,,,,,,2022-01-21,1,,,,,ダブルシステム,0
2945,8040001121899,新規,0,2022-01-21,2022-01-21,ＮｅｘｔＭｏｖｅ株式会社,,株式会社,千葉県,袖ケ浦市,福王台１丁目１６番地３,,12,229,2990261,,,,,,,2022-01-21,1,,,,,ネクストムーブ,0
2950,8040003019332,新規,0,2022-01-21,2022-01-21,合同会社ＨＡＮＡＷＡ,,合同会社,千葉県,松戸市,栄町４丁目１１５８番地の３,,12,207,2710062,,,,,,,2022-01-21,1,,,,,ハナワ,0
2951,8040003019349,新規,0,2022-01-21,2022-01-21,合同会社シナジスト,,合同会社,千葉県,匝瑳市,中台３６０－６,,12,235,2892153,,,,,,,2022-01-21,1,,,,,シナジスト,0
3000,8080101023059,新規,0,2022-01-21,2022-01-21,株式会社ジオダイニング,,株式会社,静岡県,沼津市,高沢町８番７号高沢パークハウス１０３,,22,203,4100057,,,,,,,2022-01-21,1,,,,,ジオダイニング,0
3002,8080103002498,新規,0,2022-01-21,2022-01-21,合同会社アップスタート,,合同会社,静岡県,沼津市,白銀町８番地の２グランメールコート白銀７０２,,22,203,4100805,,,,,,,2022-01-21,1,,,,,アップスタート,0
3020,8120001243116,新規,0,2022-01-21,2022-01-21,株式会社心也工業,,株式会社,大阪府,大阪市阿倍野区,北畠３丁目１２番４３－１０６号,,27,119,5450035,,,,,,,2022-01-21,1,,,,,シンヤコウギョウ,0
3021,8120001243339,新規,0,2022-01-21,2022-01-21,株式会社ＣＯＬＯＲ　ＰＲＯＭＯＴＩＯＮ,,株式会社,大阪府,大阪市中央区,島之内１丁目２２番２７号,,27,128,5420082,,,,,,,2022-01-21,1,,,,,カラープロモーション,0
3025,8120101064981,新規,0,2022-01-21,2022-01-21,株式会社一ノ瀬工業,,株式会社,大阪府,堺市南区,赤坂台６丁９番８号,,27,145,5900144,,,,,,,2022-01-21,1,,,,,イチノセコウギョウ,0
3032,8122001035526,新規,0,2022-01-21,2022-01-21,株式会社ＹＥＮ　ＭＩＮＨ,,株式会社,大阪府,東大阪市,菱江５丁目１１－１５,,27,227,5780984,,,,,,,2022-01-21,1,,,,,エンミン,0
3041,8140001124578,新規,0,2022-01-21,2022-01-21,株式会社ＡＥＬＬ’Ｎ,,株式会社,兵庫県,芦屋市,川西町４番２２号,,28,206,6590072,,,,,,,2022-01-21,1,,,,,アエル,0
3057,8180001149489,新規,0,2022-01-21,2022-01-21,ソフィー芸術出版株式会社,,株式会社,愛知県,名古屋市東区,泉１丁目２０番１９号,,23,102,4610001,,,,,,,2022-01-21,1,,,,,ソフィーゲイジュツシュッパン,0
3058,8180001149638,新規,0,2022-01-21,2022-01-21,株式会社ＳＫＹホールディングス,,株式会社,愛知県,知多市,八幡字向長曽９８番地,,23,224,4780001,,,,,,,2022-01-21,1,,,,,スカイホールディングス,0
3065,8180303005233,新規,0,2022-01-21,2022-01-21,合同会社アネモス,,合同会社,愛知県,豊橋市,若松町字北ケ谷１５６番地,,23,201,4418123,,,,,,,2022-01-21,1,,,,,アネモス,0
3071,8210001018789,新規,0,2022-01-21,2022-01-21,株式会社サン・ダイヤ,,株式会社,福井県,小浜市,山手３丁目８番２０号,,18,204,9170092,,,,,,,2022-01-21,1,,,,,サンダイヤ,0
3079,8240003005469,新規,0,2022-01-21,2022-01-21,合同会社ｎａｎａｉｒｏ,,合同会社,広島県,福山市,熊野町乙９１２‐２,,34,207,7200411,,,,,,,2022-01-21,1,,,,,ナナイロ,0
3083,8250001019362,新規,0,2022-01-21,2022-01-21,至誠株式会社,,株式会社,山口県,岩国市,牛野谷町３丁目８８番５号,,35,208,7410071,,,,,,,2022-01-21,1,,,,,シセイ,0
3091,8260001036456,新規,0,2022-01-21,2022-01-21,株式会社ＫＯＵＫＩ,,株式会社,岡山県,倉敷市,児島下の町４丁目１０番１８号,,33,202,7110906,,,,,,,2022-01-21,1,,,,,コウキ,0
3107,8290001096126,新規,0,2022-01-21,2022-01-21,モノコトクリエイション株式会社,,株式会社,福岡県,久留米市,六ツ門町２１－１,,40,203,8300031,,,,,,,2022-01-21,1,,,,,モノコトクリエイション,0
3118,8290005018539,新規,0,2022-01-21,2022-01-21,医療法人心晴,,その他の設立登記法人,福岡県,福岡市城南区,南片江２丁目８番６号,,40,136,8140143,,,,,,,2022-01-21,1,,,,,ココハル,0
3120,8290801028195,新規,0,2022-01-21,2022-01-21,ＨＫマネジメント株式会社,,株式会社,福岡県,北九州市小倉北区,米町１丁目２番２２号小倉ＮＳビル４階,,40,106,8020003,,,,,,,2022-01-21,1,,,,,エイチケーマネジメント,0
3121,8290803004038,新規,0,2022-01-21,2022-01-21,合同会社澪組,,合同会社,福岡県,北九州市八幡西区,青山３丁目１２番１７－１０５号,,40,109,8060043,,,,,,,2022-01-21,1,,,,,ミオグミ,0
3127,8320001018852,新規,0,2022-01-21,2022-01-21,株式会社ヴェント,,株式会社,大分県,大分市,大在中央２丁目３番１１号,,44,201,8700251,,,,,,,2022-01-21,1,,,,,ヴェント,0
3128,8330001029378,新規,0,2022-01-21,2022-01-21,株式会社大吉シリーズ,,株式会社,熊本県,熊本市南区,近見２丁目２番２１号,,43,104,8614101,,,,,,,2022-01-21,1,,,,,ダイキチシリーズ,0
3136,8360003011744,新規,0,2022-01-21,2022-01-21,３９Ｓｈｉｓｈａ合同会社,,合同会社,沖縄県,中頭郡北谷町,北谷２丁目１０番地５、２階,,47,326,9040116,,,,,,,2022-01-21,1,,,,,サンキューシーシャ,0
3150,8430001085832,新規,0,2022-01-21,2022-01-21,株式会社ＦＡＲＭコバラ,,株式会社,北海道,虻田郡真狩村,字緑岡１８０番地２,,01,396,0481615,,,,,,,2022-01-21,1,,,,,ファームコバラ,0
3151,8430001085849,新規,0,2022-01-21,2022-01-21,アポロ株式会社,,株式会社,北海道,札幌市中央区,南十条西１丁目１番１－１０１１号,,01,101,0640810,,,,,,,2022-01-21,1,,,,,アポロ,0
3152,8430003013551,新規,0,2022-01-21,2022-01-21,合同会社ひろた動物病院,,合同会社,北海道,札幌市白石区,北郷五条８丁目１０番１号,,01,104,0030835,,,,,,,2022-01-21,1,,,,,ヒロタドウブツビョウイン,0
3154,8450003002172,新規,0,2022-01-21,2022-01-21,合同会社ＭＡＳＡＬＡＢＯ,,合同会社,北海道,旭川市,旭神三条４丁目１０番９号,,01,204,0788373,,,,,,,2022-01-21,1,,,,,マサラボ,0
3161,8500001023958,新規,0,2022-01-21,2022-01-21,株式会社Ｃｕｏｒｅ－Ｏ,,株式会社,愛媛県,松山市,桜ケ丘４番６号,,38,201,7918072,,,,,,,2022-01-21,1,,,,,クオーレオー,0
3163,8700150003245,新規,0,2022-01-21,2015-10-09,総合事務所ブレイン,,その他,東京都,千代田区,神田淡路町２丁目２３－１お茶の水センタービル８階,,13,101,1010063,,,,,,,2015-10-09,1,,,,,ソウゴウジムシヨブレイン,0
3164,8700150106700,新規,0,2022-01-21,2022-01-18,浅口市民生委員児童委員協議会,,その他,岡山県,浅口市,鴨方町鴨方２２４４－２６,,33,216,7190243,,,,,,,2022-01-18,1,,,,,アサクチシミンセイイインジドウイインキヨウギカイ,0
3165,8700150106766,新規,0,2022-01-21,2022-01-21,ＨＡＪＡ　ＭＯＴＯＲＳ,,外国会社等,茨城県,稲敷市,結佐２９５２番地１－３　ユートピアビルディング１１１,,08,229,3000734,スリランカ民主社会主義共和国、ポロンナルワ、クドゥルウェラ、バッティカロアロ－ド、９１９－１,,,,,,2022-01-21,1,,,,,ハジヤモータース,0
3172,9010001223763,新規,0,2022-01-21,2022-01-21,株式会社グレーヌ,,株式会社,東京都,中央区,日本橋３丁目２－１４新槇町ビル別館第一１階,,13,102,1030027,,,,,,,2022-01-21,1,,,,,グレーヌ,0
3179,9010101015037,新規,0,2022-01-21,2022-01-21,株式会社サンユウ,,株式会社,東京都,八王子市,泉町１４９７番地１０,,13,201,1930814,,,,,,,2022-01-21,1,,,,,サンユウ,0
3189,9010401165060,新規,0,2022-01-21,2022-01-21,ＦＮＺ　Ｊａｐａｎ株式会社,,株式会社,東京都,港区,赤坂２丁目１１番７号ＡＴＴ新館１１階Ｍａｚａｒｓ・Ｊａｐａｎ株式会社内,,13,103,1070052,,,,,,,2022-01-21,1,,,,,エフエヌゼットジャパン,0
3190,9010401165069,新規,0,2022-01-21,2022-01-21,株式会社Ｔ３,,株式会社,東京都,港区,六本木４丁目１２番１０号,,13,103,1060032,,,,,,,2022-01-21,1,,,,,ティースリー,0
3191,9010401165085,新規,0,2022-01-21,2022-01-21,株式会社くおる,,株式会社,東京都,港区,南青山１丁目１５番２号越山ビル５階,,13,103,1070062,,,,,,,2022-01-21,1,,,,,クオル,0
3192,9010401165102,新規,0,2022-01-21,2022-01-21,株式会社ｓｅｎｄ,,株式会社,東京都,港区,北青山３丁目７－２ＦＰＧｌｉｎｋｓＯＭＯＴＥＳＡＮＤＯ２－３階,,13,103,1070061,,,,,,,2022-01-21,1,,,,,センド,0
3215,9011101097569,新規,0,2022-01-21,2022-01-21,株式会社ＣＲＥＭＥ,,株式会社,東京都,新宿区,西新宿３丁目３番１３号西新宿水間ビル６階,,13,104,1600023,,,,,,,2022-01-21,1,,,,,クレム,0
3216,9011101097577,新規,0,2022-01-21,2022-01-21,株式会社シェアード・ワールド,,株式会社,東京都,新宿区,歌舞伎町２丁目２３番１２号,,13,104,1600021,,,,,,,2022-01-21,1,,,,,シェアードワールド,0
3218,9011105010098,新規,0,2022-01-21,2022-01-21,一般社団法人Ｚｅｌｏｓ,,その他の設立登記法人,東京都,新宿区,高田馬場４丁目４０－１８－８０１,,13,104,1690075,,,,,,,2022-01-21,1,,,,,ゼーロス,0
3224,9011401023968,新規,0,2022-01-21,2022-01-21,Ｐｒｉｍｅ　Ｐａｒｔｎｅｒｓ株式会社,,株式会社,東京都,板橋区,高島平４丁目２５－１０,,13,119,1750082,,,,,,,2022-01-21,1,,,,,プライムパートナーズ,0
3229,9011503005047,新規,0,2022-01-21,2022-01-21,合同会社トージャンプ,,合同会社,東京都,荒川区,東日暮里６丁目１５－９小磯ビル１０２,,13,118,1160014,,,,,,,2022-01-21,1,,,,,トージャンプ,0
3235,9011701024996,新規,0,2022-01-21,2022-01-21,株式会社匠テクノス,,株式会社,東京都,江戸川区,北葛西２丁目７番１７号,,13,123,1340081,,,,,,,2022-01-21,1,,,,,タクミテクノス,0
3245,9012301012854,新規,0,2022-01-21,2022-01-21,株式会社ＡＴ,,株式会社,東京都,町田市,相原町１３１５番地,,13,209,1940211,,,,,,,2022-01-21,1,,,,,エイティ,0
3246,9012303001632,新規,0,2022-01-21,2022-01-21,合同会社ＤＡＲＭＡＣＩ,,合同会社,東京都,町田市,原町田６丁目１５番１１号,,13,209,1940013,,,,,,,2022-01-21,1,,,,,ダーマチ,0
3251,9012403005203,新規,0,2022-01-21,2022-01-21,合同会社スケット,,合同会社,東京都,調布市,入間町３丁目５番地３６,,13,208,1820004,,,,,,,2022-01-21,1,,,,,スケット,0
3255,9013303006002,新規,0,2022-01-21,2022-01-21,合同会社ウェルファースト,,合同会社,東京都,豊島区,南池袋２丁目１１－１０メイクスデザイン池袋１３０４,,13,116,1710022,,,,,,,2022-01-21,1,,,,,ウェルファースト,0
3278,9020001144868,新規,0,2022-01-21,2022-01-21,エソラ株式会社,,株式会社,神奈川県,横浜市瀬谷区,東野３３番地１３,,14,114,2460012,,,,,,,2022-01-21,1,,,,,エソラ,0
3301,9030001146401,新規,0,2022-01-21,2022-01-21,株式会社オオツカ,,株式会社,埼玉県,三郷市,新和１丁目７１番地,,11,237,3410034,,,,,,,2022-01-21,1,,,,,オオツカ,0
3302,9030001146442,新規,0,2022-01-21,2022-01-21,富達株式会社,,株式会社,埼玉県,さいたま市南区,文蔵３丁目３５番３号,,11,108,3360025,,,,,,,2022-01-21,1,,,,,トミダツ,0
3303,9030001146450,新規,0,2022-01-21,2022-01-21,株式会社勇進工業,,株式会社,埼玉県,上尾市,大字平方３４９９番地４,,11,219,3620059,,,,,,,2022-01-21,1,,,,,ユウシンコウギョウ,0
3304,9030001146459,新規,0,2022-01-21,2022-01-21,株式会社堀之内建設,,株式会社,埼玉県,川口市,柳崎３丁目２５番２６号,,11,203,3330861,,,,,,,2022-01-21,1,,,,,ホリノウチケンセツ,0
3314,9040001121849,新規,0,2022-01-21,2022-01-21,株式会社ザシキコーポレーション,,株式会社,千葉県,千葉市美浜区,中瀬１丁目３番地幕張テクノガーデン,,12,106,2610023,,,,,,,2022-01-21,1,,,,,ザシキコーポレーション,0
3315,9040001121881,新規,0,2022-01-21,2022-01-21,株式会社アイディ制御,,株式会社,千葉県,千葉市若葉区,小倉台２丁目１０３８番地５３,,12,104,2640006,,,,,,,2022-01-21,1,,,,,アイディセイギョ,0
3316,9040001121898,新規,0,2022-01-21,2022-01-21,株式会社関東リアルエステート,,株式会社,千葉県,千葉市稲毛区,稲毛町５丁目６１６－１－３０９,,12,103,2630035,,,,,,,2022-01-21,1,,,,,カントウリアルエステート,0
3326,9060001034504,新規,0,2022-01-21,2022-01-21,株式会社Ｖ２Ｄ,,株式会社,栃木県,宇都宮市,東簗瀬１丁目１０番地４号１０６号室,,09,201,3210925,,,,,,,2022-01-21,1,,,,,ブイツーディー,0
3403,9120001243338,新規,0,2022-01-21,2022-01-21,ｒｉｕｎｉｒｅ株式会社,,株式会社,大阪府,大阪市北区,曾根崎新地１丁目６番１６号メッセージビル２０１号,,27,127,5300002,,,,,,,2022-01-21,1,,,,,リユニア,0
3404,9120001243354,新規,0,2022-01-21,2022-01-21,株式会社ブランドオフィス,,株式会社,大阪府,大阪市北区,梅田１丁目１－３大阪駅前第３ビル２３０７,,27,127,5300001,,,,,,,2022-01-21,1,,,,,ブランドオフィス,0
3413,9120101064980,新規,0,2022-01-21,2022-01-21,株式会社ＧＬプロパティ,,株式会社,大阪府,松原市,天美東６丁目１８番３４号,,27,217,5800032,,,,,,,2022-01-21,1,,,,,ジーエルプロパティ,0
3422,9130001070962,新規,0,2022-01-21,2022-01-21,株式会社ａｒｉｃａ,,株式会社,京都府,京都市右京区,太秦帷子ケ辻町１１番地５３,00125472,26,108,6168151,,,,,,,2022-01-21,1,,,,,アリカ,0
3431,9140001124635,新規,0,2022-01-21,2022-01-21,株式会社うさぎラボ,,株式会社,兵庫県,姫路市,飾磨区山崎２４１番地１,,28,201,6728097,,,,,,,2022-01-21,1,,,,,ウサギラボ,0
3435,9140005026002,新規,0,2022-01-21,2022-01-21,一般社団法人かぶと,,その他の設立登記法人,兵庫県,西宮市,甲子園浜田町１６番２６号,,28,204,6638167,,,,,,,2022-01-21,1,,,,,カブト,0
3443,9180001149653,新規,0,2022-01-21,2022-01-21,アクト株式会社,,株式会社,愛知県,名古屋市名東区,香流３丁目５０９番地（ＫＡＮＡＲＥＢＬＤ．４０３号）,,23,115,4650005,,,,,,,2022-01-21,1,,,,,アクト,0
3444,9180001149678,新規,0,2022-01-21,2022-01-21,三鶴運送株式会社,,株式会社,愛知県,春日井市,ことぶき町１２番地,,23,206,4860831,,,,,,,2022-01-21,1,,,,,ミツルウンソウ,0
3448,9190003003881,新規,0,2022-01-21,2022-01-21,合同会社Ｍｋ　Ｔｒａｆｆｉｃ　Ｌｉｎｅ,,合同会社,三重県,津市,芸濃町椋本３４３５番地４０,,24,201,5142211,,,,,,,2022-01-21,1,,,,,エムケートラフィックライン,0
3450,9210001018771,新規,0,2022-01-21,2022-01-21,株式会社建築工房天藤,,株式会社,福井県,敦賀市,谷口４号４４番地の２,,18,202,9140013,,,,,,,2022-01-21,1,,,,,ケンチクコウボウテンドウ,0
3495,9290001096109,新規,0,2022-01-21,2022-01-21,株式会社ＧＯＮＧＯ　ＴＲＡＤＩＮＧ,,株式会社,福岡県,古賀市,谷山７４２番地１３,,40,223,8113125,,,,,,,2022-01-21,1,,,,,ゴンゴトレーディング,0
3496,9290001096141,新規,0,2022-01-21,2022-01-21,株式会社ＹＡＫＩＮＯ,,株式会社,福岡県,みやま市,瀬高町小田１６２４－１１,,40,229,8350002,,,,,,,2022-01-21,1,,,,,ヤキノ,0
3497,9290001096166,新規,0,2022-01-21,2022-01-21,満天株式会社,,株式会社,福岡県,太宰府市,宰府２丁目４番３３号,,40,221,8180117,,,,,,,2022-01-21,1,,,,,マンテン,0
3498,9290001096190,新規,0,2022-01-21,2022-01-21,三好スマイル株式会社,,株式会社,福岡県,福岡市中央区,天神２丁目１４番２号福岡証券ビル８Ｆ,,40,133,8100001,,,,,,,2022-01-21,1,,,,,ミヨシスマイル,0
3511,9290003012039,新規,0,2022-01-21,2022-01-21,合同会社マカナ,,合同会社,福岡県,古賀市,花見東６丁目２番６－８０１号,,40,223,8113112,,,,,,,2022-01-21,1,,,,,マカナ,0
3512,9290003012047,新規,0,2022-01-21,2022-01-21,合同会社ＴＹ住健,,合同会社,福岡県,糟屋郡志免町,桜丘２丁目２０－９,,40,343,8112201,,,,,,,2022-01-21,1,,,,,ティーワイジュウケン,0
3519,9320003003711,新規,0,2022-01-21,2022-01-21,合同会社Ｆ．Ｔカンパニー,,合同会社,大分県,別府市,大字北石垣１３２２番地の１ベルデュール１０３号,,44,202,8740000,,,,,,,2022-01-21,1,,,,,エフティカンパニー,0
3520,9330001029377,新規,0,2022-01-21,2022-01-21,株式会社イケダファーム,,株式会社,熊本県,宇城市,不知火町亀松３２５番地４,,43,213,8690561,,,,,,,2022-01-21,1,,,,,イケダファーム,0
3523,9340001024443,新規,0,2022-01-21,2022-01-21,ＪＳ総合コンサルタント株式会社,,株式会社,鹿児島県,鹿児島市,下荒田４丁目１４番１３号,,46,201,8900056,,,,,,,2022-01-21,1,,,,,ジェイエスソウゴウコンサルタント,0
3537,9400005008205,新規,0,2022-01-21,2022-01-21,一般社団法人スナフキン・アンサンブル,,その他の設立登記法人,岩手県,陸前高田市,矢作町字諏訪４１番地,,03,210,0292201,,,,,,,2022-01-21,1,,,,,スナフキンアンサンブル,0
3541,9430001085848,新規,0,2022-01-21,2022-01-21,株式会社ＯＵＺＥ,,株式会社,北海道,札幌市中央区,宮ケ丘３丁目３番１号フラット宮ケ丘３０５号,,01,101,0640959,,,,,,,2022-01-21,1,,,,,オウゼ,0
3549,9460001005646,新規,0,2022-01-21,2022-01-21,株式会社風林企画,,株式会社,北海道,釧路市,弥生２丁目１１番１号,,01,206,0850834,,,,,,,2022-01-21,1,,,,,フウリンキカク,0
3551,9460005001550,新規,0,2022-01-21,2022-01-21,一般社団法人釧路市物産協会,,その他の設立登記法人,北海道,釧路市,幸町３丁目３番地釧路市観光国際交流センター内,,01,206,0850017,,,,,,,2022-01-21,1,,,,,クシロシブッサンキョウカイ,0
3560,9500005008450,新規,0,2022-01-21,2022-01-21,一般社団法人ＦＣ　ｍｉｒａｃｌｅ　ｓｍｉｌｅ,,その他の設立登記法人,愛媛県,新居浜市,久保田町２丁目３番５４号,,38,205,7920026,,,,,,,2022-01-21,1,,,,,エフシーミラクルスマイル,0
3561,9700150106699,新規,0,2022-01-21,2022-01-18,千年サンゴと活きるまちづくり協議会,,その他,徳島県,阿南市,領家町野神３１９,,36,204,7740011,,,,,,,2022-01-18,1,,,,,センネンサンゴトイキルマチヅクリキヨウギカイ,0
3562,9700150106757,新規,0,2022-01-21,2022-01-21,ＳＭＡＲＴ　ＷＩＮＧＳ　ＴＲＡＤＩＮＧ,,外国会社等,茨城県,稲敷市,結佐２９５２－１－３　ユウトピヤ１０２号室,,08,229,3000734,スリランカ民主社会主義共和国、ポランナルワ、ナワナガラヤ、Ｎｏ．２３／２,,,,,,2022-01-21,1,,,,,スマートウイングストレーデイング,0
3563,9700150106773,新規,0,2022-01-21,2022-01-21,ＮＡＮＯ　ＴＲＡＤＩＮＧ　ＰＲＩＶＡＴＥ　ＬＩＭＩＴＥＤ,,外国会社等,茨城県,稲敷市,結佐２９５２－１－３　ユウトピヤビル１０６号室,,08,229,3000734,スリランカ民主社会主義共和国、西部州、コロンボ市、カルボビラ、テンパルロードＮｏ．６３／８,,,,,,2022-01-21,1,,,,,ナノトレーデイングプライベートリミテツド,0
