sequenceNumber,corporateNumber,process,correct,updateDate,changeDate,name,nameImageId,kind,prefectureName,cityName,streetNumber,addressImageId,prefectureCode,cityCode,postCode,addressOutside,addressOutsideImageId,closeDate,closeCause,successorCorporateNumber,changeCause,assignmentDate,latest,enName,enPrefectureName,enCityName,enAddressOutside,furigana,hihyoji
16,1010401132027,登記記録の閉鎖等,0,2024-02-19,2024-02-09,大七商興株式会社,,株式会社,東京都,港区,新橋１丁目８番６号,,13,103,1050004,,,2024-02-09,清算の結了等,,,2017-06-13,1,,,,,,0
24,1010601050268,登記記録の閉鎖等,0,2024-02-19,2024-02-15,株式会社ヴァロフジャパン,,株式会社,東京都,新宿区,西新宿３丁目９番７号,,13,104,1600023,,,2024-02-15,清算の結了等,,,2016-08-24,1,,,,,ヴァロフジャパン,0
28,1010705000549,登記記録の閉鎖等,0,2024-02-19,2024-02-13,ダブリュ・ティ・シー武蔵小山マンション管理組合法人,,その他の設立登記法人,東京都,品川区,荏原３丁目７番２号,,13,109,1420063,,,2024-02-13,清算の結了等,,,2015-10-05,1,,,,,ダブリュティシームサシコヤマ,0
42,1011105010007,登記記録の閉鎖等,0,2024-02-19,2024-02-09,一般社団法人ＴＵ０４,,その他の設立登記法人,東京都,新宿区,四谷２丁目９番地１５東京ユナイテッド綜合事務所内,,13,104,1600004,,,2024-02-09,清算の結了等,,,2021-10-12,1,,,,,ティーユーゼロフォー,0
57,1011601005914,登記記録の閉鎖等,0,2024-02-19,2024-02-13,株式会社藤正建設,,株式会社,東京都,練馬区,東大泉７丁目１２番４号,,13,120,1780063,,,2024-02-13,清算の結了等,,,2015-10-05,1,,,,,,0
61,1011602023808,登記記録の閉鎖等,0,2024-02-19,2024-02-13,有限会社エムエムアイネット,,有限会社,東京都,練馬区,中村１丁目１番１４－２０６号,,13,120,1760024,,,2024-02-13,清算の結了等,,,2015-10-05,1,,,,,エムエムアイネット,0
71,1012802001421,登記記録の閉鎖等,0,2024-02-19,2024-02-14,有限会社高砂湯,00059207,有限会社,東京都,立川市,柴崎町２丁目１１番１７号,,13,202,1900023,,,2024-02-14,清算の結了等,,,2015-10-05,1,,,,,タカサゴユ,0
115,1070001025542,登記記録の閉鎖等,0,2024-02-19,2024-02-16,ネオリミックス株式会社,,株式会社,群馬県,前橋市,問屋町２丁目１６番地３,,10,201,3710855,,,2024-02-16,清算の結了等,,,2015-10-05,1,,,,,ネオリミックス,0
123,1080402002940,登記記録の閉鎖等,0,2024-02-19,2024-02-16,有限会社コジマ設計事務所,,有限会社,静岡県,浜松市中央区,石原町６０７番地の１,,22,138,4350033,,,2024-02-16,清算の結了等,,,2015-10-05,1,,,,,コジマセッケイジムショ,0
124,1080402018631,登記記録の閉鎖等,0,2024-02-19,2024-02-15,有限会社小林工務店,,有限会社,静岡県,菊川市,潮海寺５６５番地の３,,22,224,4390005,,,2024-02-15,清算の結了等,,,2015-10-05,1,,,,,コバヤシコウムテン,0
132,1110005009751,登記記録の閉鎖等,0,2024-02-19,2024-02-15,妙高市土地開発公社,,その他の設立登記法人,新潟県,妙高市,栄町５番１号,,15,217,9440044,,,2024-02-15,清算の結了等,,,2015-10-05,1,,,,,ミョウコウシ,0
142,1120001255274,登記記録の閉鎖等,0,2024-02-19,2024-02-09,永升投資株式会社,,株式会社,大阪府,大阪市生野区,生野西４丁目１２－３ハイツ西村２０２号室,,27,116,5440024,,,2024-02-09,清算の結了等,,,2023-05-31,1,,,,,エイショウトウシ,0
148,1120002047547,登記記録の閉鎖等,0,2024-02-19,2024-02-13,有限会社カレラック,,有限会社,大阪府,大阪市北区,芝田２丁目８番１１号,,27,127,5300012,,,2024-02-13,清算の結了等,,,2015-10-05,1,,,,,カレラック,0
154,1120005010675,登記記録の閉鎖等,0,2024-02-19,2024-02-13,特定非営利活動法人クラニオフェイシャルセンター,,その他の設立登記法人,大阪府,大阪狭山市,大野東３７７番地の２近畿大学医学部形成外科学講座内,,27,231,5890014,,,2024-02-13,清算の結了等,,,2015-10-05,1,,,,,クラニオフェイシャルセンター,0
161,1120902005364,登記記録の閉鎖等,0,2024-02-19,2024-02-14,有限会社ウェルケア,,有限会社,大阪府,吹田市,山田西１丁目３７番５号,,27,205,5650824,,,2024-02-14,清算の結了等,,,2015-10-05,1,,,,,ウェルケア,0
172,1140002060630,登記記録の閉鎖等,0,2024-02-19,2024-02-16,有限会社宝田建設,,有限会社,兵庫県,西宮市,池開町１番３５号,,28,204,6638137,,,2024-02-16,清算の結了等,,,2015-10-05,1,,,,,,0
179,1180001068340,登記記録の閉鎖等,0,2024-02-19,2024-02-13,Ａ・Ｋファクトリー株式会社,,株式会社,愛知県,名古屋市緑区,水広１丁目１０１番地,,23,114,4580848,,,2024-02-13,清算の結了等,,,2015-10-05,1,,,,,エーケーファクトリー,0
181,1180001081649,登記記録の閉鎖等,0,2024-02-19,2024-02-13,株式会社ピー・アイ物流企画,,株式会社,愛知県,丹羽郡扶桑町,大字柏森字天神２８７番地２,,23,362,4800103,,,2024-02-13,清算の結了等,,,2015-10-05,1,,,,,ピーアイブツリュウキカク,0
183,1180001110779,登記記録の閉鎖等,0,2024-02-19,2024-02-13,文昭株式会社,,株式会社,愛知県,名古屋市中川区,中須町９９番地,,23,110,4540925,,,2024-02-13,清算の結了等,,,2015-10-05,1,,,,,ブンショウ,0
186,1180001136353,登記記録の閉鎖等,0,2024-02-19,2024-02-14,株式会社満天,,株式会社,愛知県,名古屋市千種区,清住町３丁目６６番地の１,,23,101,4640034,,,2024-02-14,清算の結了等,,,2019-05-09,1,,,,,マンテン,0
191,1180002044299,登記記録の閉鎖等,0,2024-02-19,2024-02-13,有限会社エゴヘアコレクション,,有限会社,愛知県,名古屋市天白区,表山３丁目２４５３番地の１,,23,116,4680069,,,2024-02-13,清算の結了等,,,2015-10-05,1,,,,,エゴヘアコレクション,0
195,1180003011083,登記記録の閉鎖等,0,2024-02-19,2024-02-13,水野印刷合名会社,,合名会社,愛知県,瀬戸市,川西町２丁目１５７番地の２,,23,204,4890926,,,2024-02-13,清算の結了等,,,2015-10-05,1,,,,,ミズノインサツ,0
200,1210001013499,登記記録の閉鎖等,0,2024-02-19,2024-02-15,上本レース株式会社,,株式会社,福井県,鯖江市,東清水町第２号２０番地,,18,207,9161236,,,2024-02-15,清算の結了等,,,2015-10-05,1,,,,,ウエモトレース,0
209,1290001029133,登記記録の閉鎖等,0,2024-02-19,2024-02-13,株式会社ＢＡＲＫ,,株式会社,福岡県,福岡市中央区,天神５丁目１０番１１号,,40,133,8100001,,,2024-02-13,清算の結了等,,,2015-10-05,1,,,,,バルク,0
212,1290001091570,登記記録の閉鎖等,0,2024-02-19,2024-02-14,株式会社ＪＲＭ,,株式会社,福岡県,福岡市中央区,大名２丁目９番２７号野村不動産赤坂センタービル,,40,133,8100041,,,2024-02-14,清算の結了等,,,2021-01-12,1,,,,,ジェイアールエム,0
219,1290003007582,登記記録の閉鎖等,0,2024-02-19,2024-02-13,ＯＳリース合同会社,,合同会社,福岡県,宗像市,自由ヶ丘６丁目２７番地４,,40,220,8114163,,,2024-02-13,清算の結了等,,,2017-10-31,1,,,,,オーエスリース,0
236,1350002005696,登記記録の閉鎖等,0,2024-02-19,2024-02-14,ケア宅・鳥越有限会社,,有限会社,宮崎県,宮崎市,鶴島２丁目２番１７号,,45,201,8800014,,,2024-02-14,清算の結了等,,,2015-10-05,1,,,,,ケアタクトリゴエ,0
239,1370001001868,登記記録の閉鎖等,0,2024-02-19,2024-02-15,株式会社センショウ堂,,株式会社,宮城県,仙台市太白区,鈎取１丁目１１番１８号,,04,104,9820804,,,2024-02-15,清算の結了等,,,2015-10-05,1,,,,,センショウドウ,0
248,1400001007713,登記記録の閉鎖等,0,2024-02-19,2024-02-14,コイルテック株式会社,,株式会社,岩手県,二戸市,仁左平字戸花５３番地,,03,213,0286106,,,2024-02-14,清算の結了等,,,2015-10-05,1,,,,,コイルテック,0
264,2010001140247,登記記録の閉鎖等,0,2024-02-19,2024-02-01,ｅＨａｎｂａｉ株式会社,,株式会社,東京都,新宿区,大京町１４番地５,,13,104,1600015,,,2024-02-01,合併による解散等,5011101042685,令和６年２月１日東京都新宿区大京町１４－５アイコン・ユーロパブ株式会社（5011101042685）に合併し解散,2015-10-05,1,,,,,イーハンバイ,0
295,2011001130080,登記記録の閉鎖等,0,2024-02-19,2024-02-14,株式会社ＭＩＳＡ,,株式会社,東京都,港区,白金４丁目３－１２,,13,103,1080072,,,2024-02-14,清算の結了等,,,2019-09-27,1,,,,,ミサ,0
332,2020002037573,登記記録の閉鎖等,0,2024-02-19,2024-02-14,有限会社神奈川住販,,有限会社,神奈川県,横浜市鶴見区,梶山１丁目１０番１６号,,14,101,2300072,,,2024-02-14,清算の結了等,,,2015-10-05,1,,,,,カナガワジュウハン,0
334,2020002056482,登記記録の閉鎖等,0,2024-02-19,2024-02-15,有限会社夢千里,,有限会社,神奈川県,横浜市神奈川区,片倉１丁目５番１１号,,14,102,2210865,,,2024-02-15,清算の結了等,,,2015-10-05,1,,,,,ユメセンリ,0
338,2020005006773,登記記録の閉鎖等,0,2024-02-19,2024-02-13,特定非営利活動法人ＮＰＯ認知症を考える会,,その他の設立登記法人,神奈川県,横浜市鶴見区,獅子ケ谷１丁目２３番地５号コスモ綱島グランステージ２０６号室,,14,101,2300073,,,2024-02-13,清算の結了等,,,2015-10-05,1,,,,,エヌピーオーニンチショウヲカンガエルカイ,0
355,2040001063635,登記記録の閉鎖等,0,2024-02-19,2024-02-09,成毛工業株式会社,,株式会社,千葉県,香取市,佐原イ３４９２番地の１,,12,236,2870003,,,2024-02-09,清算の結了等,,,2015-10-05,1,,,,,ナルケコウギョウ,0
360,2040003000289,登記記録の閉鎖等,0,2024-02-19,2024-01-25,メダカカレッジ合資会社,,合資会社,千葉県,千葉市若葉区,桜木町５９５番地の４２,,12,104,2640022,,,2024-01-25,登記官による閉鎖,,,2015-10-05,1,,,,,,0
361,2040003018034,登記記録の閉鎖等,0,2024-02-19,2024-02-13,合同会社アモサ,,合同会社,千葉県,大網白里市,大網２７５６番地１４,,12,239,2993251,,,2024-02-13,清算の結了等,,,2021-06-24,1,,,,,アモサ,0
363,2050002028512,登記記録の閉鎖等,0,2024-02-19,2024-01-26,有限会社シーアンドエー,,有限会社,茨城県,潮来市,延方甲１４１２番地,,08,223,3112413,,,2024-01-26,登記官による閉鎖,,,2015-10-05,1,,,,,,0
378,2100002027161,登記記録の閉鎖等,0,2024-02-19,2024-01-25,有限会社ライフコム,,有限会社,長野県,北安曇郡小谷村,大字千国乙６４５番地１,,20,486,3999422,,,2024-01-25,登記官による閉鎖,,,2015-10-05,1,,,,,,0
402,2140001010684,登記記録の閉鎖等,0,2024-02-19,2024-02-15,株式会社フローラルツカサ,,株式会社,兵庫県,神戸市中央区,旗塚通７丁目１番７号旗塚ビル,,28,110,6510068,,,2024-02-15,清算の結了等,,,2015-10-05,1,,,,,フローラルツカサ,0
411,2140002067311,登記記録の閉鎖等,0,2024-02-19,2024-02-13,有限会社兵庫建物,,有限会社,兵庫県,宝塚市,小林１丁目８番２０号,,28,214,6650034,,,2024-02-13,清算の結了等,,,2023-05-15,1,,,,,ヒョウゴタテモノ,0
416,2180001058803,登記記録の閉鎖等,0,2024-02-19,2024-02-14,株式会社オオヤマ,,株式会社,愛知県,名古屋市西区,天塚町３丁目１番地１,,23,104,4510021,,,2024-02-14,清算の結了等,,,2015-10-05,1,,,,,オオヤマ,0
419,2180002041964,登記記録の閉鎖等,0,2024-02-19,2024-02-09,栄光学園有限会社,,有限会社,愛知県,名古屋市千種区,東山通１丁目３５番地,,23,101,4640807,,,2024-02-09,清算の結了等,,,2015-10-05,1,,,,,エイコウガクエン,0
440,2240002047063,登記記録の閉鎖等,0,2024-02-19,2024-02-14,有限会社中塔ガラス建材,,有限会社,広島県,府中市,中須町１１４７番地の２,,34,208,7260012,,,2024-02-14,清算の結了等,,,2024-01-11,1,,,,,ナカトウガラスケンザイ,0
442,2260002010861,登記記録の閉鎖等,0,2024-02-19,2024-02-16,有限会社リトルマーメイドあかえだ,,有限会社,岡山県,岡山市東区,西大寺中野本町１１番２２号,,33,103,7048192,,,2024-02-16,清算の結了等,,,2015-10-05,1,,,,,リトルマーメイドアカエダ,0
483,2420005007384,登記記録の閉鎖等,0,2024-02-19,2024-02-13,特定非営利活動法人住まいづくり学院,,その他の設立登記法人,青森県,八戸市,大字河原木字小田上２６番地１４,,02,203,0391161,,,2024-02-13,清算の結了等,,,2016-01-28,1,,,,,スマイヅクリガクイン,0
498,2500001021703,登記記録の閉鎖等,0,2024-02-19,2024-02-19,株式会社魚新,,株式会社,愛媛県,松山市,三津１丁目３番９号,,38,201,7918061,,,2024-02-19,清算の結了等,,,2018-11-19,1,,,,,ウオシン,0
499,2500002018459,登記記録の閉鎖等,0,2024-02-19,2024-02-16,有限会社末廣運送,,有限会社,愛媛県,今治市,玉川町八幡甲３０７番地４,,38,202,7940114,,,2024-02-16,清算の結了等,,,2015-10-05,1,,,,,スエヒロウンソウ,0
514,3010002012980,登記記録の閉鎖等,0,2024-02-19,2024-02-13,有限会社長崎商会,,有限会社,東京都,千代田区,神田小川町３丁目２番地,,13,101,1010052,,,2024-02-13,清算の結了等,,,2015-10-05,1,,,,,ナガサキショウカイ,0
552,3011601006209,登記記録の閉鎖等,0,2024-02-19,2024-02-13,株式会社ボア,,株式会社,東京都,練馬区,関町南２丁目８番２３号,,13,120,1770053,,,2024-02-13,清算の結了等,,,2015-10-05,1,,,,,ボア,0
553,3011602006141,登記記録の閉鎖等,0,2024-02-19,2024-02-13,有限会社東京資材,,有限会社,東京都,練馬区,豊玉南１丁目１８番７号,,13,120,1760014,,,2024-02-13,清算の結了等,,,2015-10-05,1,,,,,トウキョウシザイ,0
576,3030001141556,登記記録の閉鎖等,0,2024-02-19,2024-02-13,株式会社エムワイ,,株式会社,埼玉県,蓮田市,大字黒浜３１１０番地１,,11,238,3490101,,,2024-02-13,清算の結了等,,,2021-04-06,1,,,,,エムワイ,0
595,3060002000980,登記記録の閉鎖等,0,2024-02-19,2024-02-15,有限会社荒川富士薬品,,有限会社,栃木県,宇都宮市,下荒針町３４６９番地８,,09,201,3210346,,,2024-02-15,清算の結了等,,,2015-10-05,1,,,,,アラカワフジヤクヒン,0
605,3100001015595,登記記録の閉鎖等,0,2024-02-19,2024-02-09,こうめ株式会社,,株式会社,長野県,塩尻市,大字広丘原新田１４７番地６,,20,215,3990706,,,2024-02-09,清算の結了等,,,2015-10-05,1,,,,,コウメ,0
632,3120005006317,登記記録の閉鎖等,0,2024-02-19,2024-02-14,大阪印刷産業協同組合,,その他の設立登記法人,大阪府,大阪市北区,南森町１丁目１番１０号フジビル５,,27,127,5300054,,,2024-02-14,清算の結了等,,,2015-10-05,1,,,,,オオサカインサツサンギョウ,0
641,3122002010417,登記記録の閉鎖等,0,2024-02-19,2024-02-15,有限会社スターズ,,有限会社,大阪府,東大阪市,鴻池元町７番７号プチグレース１Ｆ,,27,227,5780974,,,2024-02-15,清算の結了等,,,2015-10-05,1,,,,,スターズ,0
654,3140005006463,登記記録の閉鎖等,0,2024-02-19,2024-02-16,一般社団法人希望,,その他の設立登記法人,兵庫県,神戸市中央区,多聞通５丁目２番１号,,28,110,6500015,,,2024-02-16,清算の結了等,,,2015-10-05,1,,,,,キボウ,0
672,3180002056689,登記記録の閉鎖等,0,2024-02-19,2024-02-14,有限会社王子,,有限会社,愛知県,名古屋市昭和区,鶴羽町３丁目１８番地,,23,107,4660011,,,2024-02-14,清算の結了等,,,2015-10-05,1,,,,,オウジ,0
674,3180003024653,登記記録の閉鎖等,0,2024-02-19,2024-02-13,サード・ウエイブ合同会社,,合同会社,愛知県,名古屋市熱田区,南一番町７番３５号,,23,109,4560055,,,2024-02-13,清算の結了等,,,2022-12-27,1,,,,,サードウエイブ,0
680,3230002006390,登記記録の閉鎖等,0,2024-02-19,2024-02-15,有限会社小川建材,,有限会社,富山県,富山市,八川１４６番地,,16,201,9398124,,,2024-02-15,清算の結了等,,,2015-10-05,1,,,,,オガワケンザイ,0
705,3290003008298,登記記録の閉鎖等,0,2024-02-19,2024-02-14,合同会社オクトパスカンパニー,,合同会社,福岡県,福岡市東区,西戸崎３丁目４番７５号,,40,131,8110321,,,2024-02-14,清算の結了等,,,2018-08-08,1,,,,,オクトパスカンパニー,0
719,3360005001970,登記記録の閉鎖等,0,2024-02-19,2024-01-12,社団法人沖縄動物福祉協会,,その他の設立登記法人,沖縄県,沖縄市,字与儀１６２１番地,,47,211,9042174,,,2024-01-12,登記官による閉鎖,,,2015-10-05,1,,,,,,0
726,3410002003394,登記記録の閉鎖等,0,2024-02-19,2024-02-14,有限会社ホサカ測量設計,,有限会社,秋田県,秋田市,飯島鼠田１丁目６番２６号,,05,201,0110913,,,2024-02-14,清算の結了等,,,2015-10-05,1,,,,,ホサカソクリョウセッケイ,0
727,3420002000011,登記記録の閉鎖等,0,2024-02-19,2024-02-15,有限会社虹,,有限会社,青森県,青森市,虹ケ丘１丁目１４番地１３,,02,201,0300948,,,2024-02-15,清算の結了等,,,2015-10-05,1,,,,,ニジ,0
741,3460305000340,登記記録の閉鎖等,0,2024-02-19,2024-02-14,宗教法人増進会,,その他の設立登記法人,北海道,常呂郡訓子府町,栄町２５番地,,01,549,0991434,,,2024-02-14,清算の結了等,,,2015-10-05,1,,,,,ゾウシンカイ,0
770,4010501035564,登記記録の閉鎖等,0,2024-02-19,2024-02-16,株式会社ＲＴＳジャパン,,株式会社,東京都,足立区,竹の塚１丁目４０番１５号庄栄ビル５階,,13,121,1210813,,,2024-02-16,清算の結了等,,,2015-10-05,1,,,,,アールテイエスジャパン,0
796,4013202003542,登記記録の閉鎖等,0,2024-02-19,2024-02-13,有限会社スモールタウン,,有限会社,東京都,国立市,東２丁目１６番地の１６,,13,215,1860002,,,2024-02-13,清算の結了等,,,2015-10-05,1,,,,,スモールタウン,0
823,4030002084027,登記記録の閉鎖等,0,2024-02-19,2024-02-08,有限会社ガスデン,,有限会社,埼玉県,北本市,本町８丁目９８番地,,11,233,3640033,,,2024-02-08,清算の結了等,,,2015-10-05,1,,,,,ガスデン,0
841,4080101015183,登記記録の閉鎖等,0,2024-02-19,2024-02-16,株式会社ミツトモ,,株式会社,静岡県,三島市,梅名５１９番地の３,,22,206,4110816,,,2024-02-16,清算の結了等,,,2015-10-05,1,,,,,ミツトモ,0
859,4120902011789,登記記録の閉鎖等,0,2024-02-19,2024-02-14,有限会社ホーム・ハンズ,,有限会社,大阪府,三島郡島本町,東大寺３丁目１５番８号,,27,301,6180002,,,2024-02-14,清算の結了等,,,2015-10-05,1,,,,,ホームハンズ,0
921,4340001011719,登記記録の閉鎖等,0,2024-02-19,2024-02-15,沖田産業株式会社,,株式会社,鹿児島県,出水市,黄金町２番地,,46,208,8990125,,,2024-02-15,清算の結了等,,,2015-10-05,1,,,,,オキタサンギョウ,0
924,4360002017580,登記記録の閉鎖等,0,2024-02-19,2024-01-12,ゆたか運送有限会社,,有限会社,沖縄県,浦添市,字勢理客２４番地,,47,208,9012122,,,2024-01-12,登記官による閉鎖,,,2015-10-05,1,,,,,,0
926,4370002016854,登記記録の閉鎖等,0,2024-02-19,2024-02-15,有限会社ノダヤ,,有限会社,宮城県,仙台市泉区,南光台南１丁目３番１１号,,04,105,9818002,,,2024-02-15,清算の結了等,,,2015-10-05,1,,,,,ノダヤ,0
927,4380002031670,登記記録の閉鎖等,0,2024-02-19,2024-02-13,有限会社清川木材工業,,有限会社,福島県,大沼郡会津美里町,新屋敷字上深田甲１５２８番地２,,07,447,9696402,,,2024-02-13,清算の結了等,,,2015-10-05,1,,,,,キヨカワモクザイコウギョウ,0
937,4440002008860,登記記録の閉鎖等,0,2024-02-19,2024-02-13,有限会社近藤重機,,有限会社,北海道,久遠郡せたな町,北檜山区北檜山１４４番地の２,,01,371,0494501,,,2024-02-13,清算の結了等,,,2015-10-05,1,,,,,コンドウジュウキ,0
957,5010003026301,登記記録の閉鎖等,0,2024-02-19,2024-02-14,合同会社ソリチュード,,合同会社,東京都,千代田区,九段南１丁目５番６号りそな九段ビル５Ｆ、ＫＳフロア,,13,101,1020074,,,2024-02-14,清算の結了等,,,2017-10-24,1,,,,,ソリチュード,0
966,5010401167060,登記記録の閉鎖等,0,2024-02-19,2024-02-13,株式会社東和,,株式会社,千葉県,千葉市花見川区,こてはし台１丁目１－１５,,12,102,2620005,,,2024-02-13,清算の結了等,,,2022-05-02,1,,,,,トウワ,0
992,5010905003422,登記記録の閉鎖等,0,2024-02-19,2024-02-13,一般社団法人Ｃｈａｎｇｅ．ｏｒｇ　Ｊａｐａｎ,,その他の設立登記法人,神奈川県,横浜市中区,長者町２丁目５番５号,,14,104,2310033,,,2024-02-13,清算の結了等,,,2017-07-11,1,,,,,チェンジオーグジャパン,0
994,5011001062619,登記記録の閉鎖等,0,2024-02-19,2024-02-14,株式会社ＰＩＮＫ,,株式会社,東京都,品川区,東五反田２丁目９番５号,,13,109,1410022,,,2024-02-14,清算の結了等,,,2015-10-05,1,,,,,ピンク,0
1015,5011205001414,登記記録の閉鎖等,0,2024-02-19,2024-02-14,特定非営利活動法人ＴＥＡＭ０１,,その他の設立登記法人,東京都,中野区,中野２丁目１３番２６号,,13,114,1640001,,,2024-02-14,清算の結了等,,,2015-10-05,1,,,,,,0
1075,5040003010896,登記記録の閉鎖等,0,2024-02-19,2024-02-09,合同会社Ｆｏｒｃｅ　Ａｌｉｖｅ,,合同会社,千葉県,市川市,平田１丁目１３番１０号,,12,203,2720031,,,2024-02-09,清算の結了等,,,2017-11-28,1,,,,,フォースアライヴ,0
1093,5100002037793,登記記録の閉鎖等,0,2024-02-19,2024-02-09,有限会社グッドフーズ,,有限会社,長野県,飯田市,上郷黒田１６４０番地７,,20,205,3950004,,,2024-02-09,清算の結了等,,,2015-10-05,1,,,,,グッドフーズ,0
1098,5120001156956,登記記録の閉鎖等,0,2024-02-19,2024-02-13,好川建機株式会社,,株式会社,大阪府,守口市,寺方錦通４丁目８番５号,,27,209,5700042,,,2024-02-13,清算の結了等,,,2015-10-05,1,,,,,ヨシカワケンキ,0
1122,5122002015067,登記記録の閉鎖等,0,2024-02-19,2024-02-16,有限会社山本硝子工業所,,有限会社,大阪府,八尾市,小畑町２丁目７８番地,,27,212,5810835,,,2024-02-16,清算の結了等,,,2015-10-05,1,,,,,ヤマモトガラスコウギョウショ,0
1152,5180002062652,登記記録の閉鎖等,0,2024-02-19,2024-02-09,有限会社西塾,,有限会社,愛知県,名古屋市千種区,東山通１丁目３５番地,,23,101,4640807,,,2024-02-09,清算の結了等,,,2015-10-05,1,,,,,ニシジュク,0
1155,5180301011112,登記記録の閉鎖等,0,2024-02-19,2024-02-13,千賀工業株式会社,,株式会社,愛知県,蒲郡市,清田町欠下９４番地１,,23,214,4430002,,,2024-02-13,清算の結了等,,,2015-10-05,1,,,,,センガコウギョウ,0
1170,5260001031600,登記記録の閉鎖等,0,2024-02-19,2024-02-15,株式会社ビッグアイ,,株式会社,岡山県,岡山市東区,百枝月２０９番地３,,33,103,7090613,,,2024-02-15,清算の結了等,,,2018-01-16,1,,,,,ビッグアイ,0
1193,5350002011996,登記記録の閉鎖等,0,2024-02-19,2024-02-08,有限会社県北リサイクルセンター,,有限会社,宮崎県,延岡市,浜砂２丁目１番３４号,,45,203,8820851,,,2024-02-08,清算の結了等,,,2015-10-05,1,,,,,ケンポクリサイクルセンター,0
1197,5370003001573,登記記録の閉鎖等,0,2024-02-19,2024-01-22,合同会社ムゥ,,合同会社,宮城県,仙台市若林区,伊在字南通２４番地の３,,04,103,9840038,,,2024-01-22,登記官による閉鎖,,,2015-10-05,1,,,,,,0
1206,5430001064649,登記記録の閉鎖等,0,2024-02-19,2024-02-14,産忠メンテック株式会社,,株式会社,北海道,札幌市白石区,東札幌一条５丁目６番９号,,01,104,0030001,,,2024-02-14,清算の結了等,,,2015-10-05,1,,,,,サンチュウメンテック,0
1208,5430001080596,登記記録の閉鎖等,0,2024-02-19,2024-02-13,株式会社北亀工務店,,株式会社,北海道,札幌市手稲区,手稲前田５３６番地６０,,01,109,0060829,,,2024-02-13,清算の結了等,,,2020-01-08,1,,,,,キタガメコウムテン,0
1216,5470001006977,登記記録の閉鎖等,0,2024-02-19,2024-02-14,未来造船産業サポートサービス株式会社,,株式会社,徳島県,鳴門市,瀬戸町明神字板屋島６０番地８,,36,202,7710360,,,2024-02-14,合併による解散等,2480001005056,令和６年２月１日徳島県鳴門市鳴門町土佐泊浦字土佐泊２８番地株式会社徳岡造船（2480001005056）に合併し解散,2015-10-05,1,,,,,,0
1289,6013301033348,登記記録の閉鎖等,0,2024-02-19,2024-02-13,宏興株式会社,,株式会社,東京都,中央区,日本橋馬喰町１丁目１２－２タック馬喰町ビル１１３,,13,102,1030002,,,2024-02-13,清算の結了等,,,2015-10-05,1,,,,,コウコウ,0
1296,6021001072888,登記記録の閉鎖等,0,2024-02-19,2024-02-15,株式会社サンビジネス,,株式会社,神奈川県,小田原市,下新田１６７番地の７,,14,206,2500878,,,2024-02-15,清算の結了等,,,2021-05-13,1,,,,,サンビジネス,0
1311,6040001010864,登記記録の閉鎖等,0,2024-02-19,2024-02-13,株式会社長田材木店,,株式会社,千葉県,千葉市若葉区,源町５５４番地６,,12,104,2640037,,,2024-02-13,清算の結了等,,,2015-10-05,1,,,,,ナガタザイモクテン,0
1312,6040002009344,登記記録の閉鎖等,0,2024-02-19,2024-02-14,有限会社花島丸善商店,,有限会社,千葉県,千葉市花見川区,犢橋町１５１８番地の１,,12,102,2620013,,,2024-02-14,清算の結了等,,,2015-10-05,1,,,,,ハナシママルゼンショウテン,0
1321,6060001015977,登記記録の閉鎖等,0,2024-02-19,2024-02-13,株式会社エーエムエル北関東,,株式会社,栃木県,佐野市,田沼町８８７番地１田沼サンパレスＢ１０３,,09,204,3270317,,,2024-02-13,清算の結了等,,,2015-10-05,1,,,,,エーエムエルキタカントウ,0
1331,6080001015307,登記記録の閉鎖等,0,2024-02-19,2024-02-09,三協興業株式会社,,株式会社,静岡県,焼津市,大住８２７番地の３,,22,212,4250072,,,2024-02-09,清算の結了等,,,2015-10-05,1,,,,,サンキョウコウギョウ,0
1360,6120101004907,登記記録の閉鎖等,0,2024-02-19,2024-02-15,武田自転車株式会社,,株式会社,大阪府,堺市堺区,九間町東１丁２番２１号,,27,141,5900934,,,2024-02-15,清算の結了等,,,2015-10-05,1,,,,,タケダジテンシャ,0
1384,6180001083005,登記記録の閉鎖等,0,2024-02-19,2024-02-13,ダイショーニット株式会社,,株式会社,愛知県,一宮市,時之島字堂山５番地,,23,203,4910002,,,2024-02-13,清算の結了等,,,2015-10-05,1,,,,,ダイショーニット,0
1396,6180002058071,登記記録の閉鎖等,0,2024-02-19,2024-02-09,名古屋個別指導学院有限会社,,有限会社,愛知県,名古屋市千種区,東山通１丁目３５番地,,23,101,4640807,,,2024-02-09,清算の結了等,,,2015-10-05,1,,,,,ナゴヤコベツシドウガクイン,0
1399,6180302001292,登記記録の閉鎖等,0,2024-02-19,2024-02-14,有限会社三高研削,,有限会社,愛知県,岡崎市,大平町字新寺２４番地４,,23,202,4440007,,,2024-02-14,清算の結了等,,,2015-10-05,1,,,,,ミタカケンセク,0
1400,6180302003727,登記記録の閉鎖等,0,2024-02-19,2024-02-13,有限会社鳥居石材店,,有限会社,愛知県,岡崎市,上佐々木町字鹿乗６番地４,,23,202,4440936,,,2024-02-13,清算の結了等,,,2015-10-05,1,,,,,トリイセキザイテン,0
1419,6290001070982,登記記録の閉鎖等,0,2024-02-19,2024-02-14,株式会社アクセルワイズ,,株式会社,福岡県,福岡市博多区,上牟田１丁目６番５１号,,40,132,8120006,,,2024-02-14,清算の結了等,,,2015-10-05,1,,,,,アクセルワイズ,0
1433,6340002017861,登記記録の閉鎖等,0,2024-02-19,2024-01-15,有限会社薩摩練り揚げ家,00099633,有限会社,鹿児島県,いちき串木野市,下名１３５３５番地１,,46,219,8960053,,,2024-01-15,登記官による閉鎖,,,2015-10-05,1,,,,,,0
1446,6400001013335,登記記録の閉鎖等,0,2024-02-19,2024-02-15,株式会社タイラ,,株式会社,岩手県,大船渡市,赤崎町字中井５２番地５,,03,203,0220007,,,2024-02-15,清算の結了等,,,2016-08-16,1,,,,,タイラ,0
1476,7010103001854,登記記録の閉鎖等,0,2024-02-19,2024-02-14,Ｕｐｔｏｉｔ合同会社,,合同会社,東京都,八王子市,東浅川町５３０－２,,13,201,1930834,,,2024-02-14,清算の結了等,,,2022-02-02,1,,,,,アップトゥーイット,0
1482,7010403022071,登記記録の閉鎖等,0,2024-02-19,2024-02-14,合同会社ＣｈｏｃｏＱｏｏ,,合同会社,東京都,港区,南青山２丁目２番１５号ウィン青山９４２,,13,103,1070062,,,2024-02-14,清算の結了等,,,2020-01-21,1,,,,,チョコクー,0
1513,7011602002079,登記記録の閉鎖等,0,2024-02-19,2024-02-13,有限会社大野大栄社,,有限会社,東京都,練馬区,田柄４丁目３６番１１号,,13,120,1790073,,,2024-02-13,清算の結了等,,,2015-10-05,1,,,,,オオノダイエイシャ,0
1564,7050005006428,登記記録の閉鎖等,0,2024-02-19,2024-02-14,医療法人社団聖勇会,,その他の設立登記法人,茨城県,行方市,井貝字中原３５３番地２４,,08,233,3113803,,,2024-02-14,清算の結了等,,,2015-10-05,1,,,,,セイユウカイ,0
1574,7070003003978,登記記録の閉鎖等,0,2024-02-19,2024-02-13,ローカルデザイン合同会社,,合同会社,群馬県,前橋市,南町４丁目４５番地６,,10,201,3710805,,,2024-02-13,清算の結了等,,,2021-01-14,1,,,,,ローカルデザイン,0
1583,7100002027693,登記記録の閉鎖等,0,2024-02-19,2024-02-09,有限会社アスクレビオス・スワ,,有限会社,長野県,諏訪市,大字中洲２４５番地１８,,20,206,3920015,,,2024-02-09,清算の結了等,,,2015-10-05,1,,,,,アスクレビオススワ,0
1619,7140001038382,登記記録の閉鎖等,0,2024-02-19,2024-02-13,創芸石材株式会社,,株式会社,兵庫県,たつの市,誉田町福田４９５番地,,28,229,6794132,,,2024-02-13,清算の結了等,,,2015-10-05,1,,,,,ソウゲイセキザイ,0
1634,7180002006401,登記記録の閉鎖等,0,2024-02-19,2024-02-13,有限会社新崎鉄工所,,有限会社,愛知県,名古屋市港区,大手町５丁目３２番地,,23,111,4550046,,,2024-02-13,清算の結了等,,,2015-10-05,1,,,,,シンザキテッコウジョ,0
1638,7180003022967,登記記録の閉鎖等,0,2024-02-19,2024-02-13,合同会社カイゼンバンク,,合同会社,愛知県,名古屋市昭和区,山中町１丁目４１番地ベレオ山中２　１０１号室,,23,107,4660828,,,2024-02-13,清算の結了等,,,2021-09-21,1,,,,,カイゼンバンク,0
1639,7180003023321,登記記録の閉鎖等,0,2024-02-19,2024-02-13,合同会社すくなひこ,,合同会社,愛知県,名古屋市熱田区,六野１丁目３番６号５０１,,23,109,4560023,,,2024-02-13,清算の結了等,,,2021-12-24,1,,,,,スクナヒコ,0
1643,7230001019654,登記記録の閉鎖等,0,2024-02-19,2024-02-15,株式会社ベルメゾン鈴木,,株式会社,富山県,高岡市,姫野１５５番地,,16,202,9340093,,,2024-02-15,清算の結了等,,,2023-01-06,1,,,,,ベルメゾンスズキ,0
1648,7250002012433,登記記録の閉鎖等,0,2024-02-19,2024-02-15,有限会社政翔,,有限会社,山口県,下関市,一の宮学園町８番９号,,35,201,7510807,,,2024-02-15,清算の結了等,,,2015-10-05,1,,,,,マサショウ,0
1649,7260002025376,登記記録の閉鎖等,0,2024-02-19,2024-02-14,有限会社富士商工,,有限会社,岡山県,笠岡市,十一番町６番地の９,,33,205,7140098,,,2024-02-14,清算の結了等,,,2015-10-05,1,,,,,フジショウコウ,0
1659,7290801011144,登記記録の閉鎖等,0,2024-02-19,2024-02-13,地産建設株式会社,,株式会社,福岡県,宗像市,冨地原１８４９番地１,,40,220,8114154,,,2024-02-13,清算の結了等,,,2015-10-05,1,,,,,チサンケンセツ,0
1662,7320002005033,登記記録の閉鎖等,0,2024-02-19,2024-02-14,中村電気有限会社,,有限会社,大分県,大分市,三川下１丁目１番２７号,,44,201,8700142,,,2024-02-14,清算の結了等,,,2015-10-05,1,,,,,,0
1663,7330001007541,登記記録の閉鎖等,0,2024-02-19,2024-02-14,中野ガス設備株式会社,,株式会社,熊本県,熊本市中央区,出水５丁目７番７９号,,43,101,8620941,,,2024-02-14,清算の結了等,,,2015-10-05,1,,,,,ナカノガスセツビ,0
1697,8010001069349,登記記録の閉鎖等,0,2024-02-19,2024-02-08,株式会社ニッポンジーンテク,,株式会社,東京都,千代田区,神田錦町１丁目５番地金剛錦町ビル,,13,101,1010054,,,2024-02-08,合併による解散等,3010001067737,令和６年２月１日東京都千代田区神田錦町一丁目５番地金剛錦町ビル株式会社ニッポンジーン（3010001067737）に合併し解散,2015-10-05,1,,,,,ニッポンジーンテク,0
1701,8010001197736,登記記録の閉鎖等,0,2024-02-19,2024-02-13,株式会社エイ・ヴォーチェ,,株式会社,東京都,中央区,京橋３丁目３番１３号,,13,102,1040031,,,2024-02-13,清算の結了等,,,2019-01-21,1,,,,,エイヴォーチェ,0
1710,8010401121824,登記記録の閉鎖等,0,2024-02-19,2024-02-13,株式会社ＣＡＲＯＬＬ,,株式会社,茨城県,つくば市,中別府５９１番地６５,,08,220,3002667,,,2024-02-13,清算の結了等,,,2015-12-01,1,,,,,キャロル,0
1718,8010701010371,登記記録の閉鎖等,0,2024-02-19,2024-02-14,株式会社渡辺材木店,,株式会社,東京都,大田区,北馬込２丁目４２番７号,,13,111,1430021,,,2024-02-14,清算の結了等,,,2015-10-05,1,,,,,ワタナベザイモクテン,0
1721,8010801019511,登記記録の閉鎖等,0,2024-02-19,2024-02-14,株式会社Ｓ．Ｙサービス,,株式会社,東京都,大田区,西糀谷１丁目２１番１８号,,13,111,1440034,,,2024-02-14,清算の結了等,,,2015-10-05,1,,,,,エスワイサービス,0
1743,8011602000908,登記記録の閉鎖等,0,2024-02-19,2024-02-13,有限会社イトウエステート,,有限会社,東京都,練馬区,石神井町７丁目１番２号,,13,120,1770041,,,2024-02-13,清算の結了等,,,2015-10-05,1,,,,,イトウエステート,0
1745,8011701018529,登記記録の閉鎖等,0,2024-02-19,2024-02-06,株式会社Ｋプラス,,株式会社,東京都,江戸川区,北葛西４丁目４番２－４１０号,,13,123,1340081,,,2024-02-06,清算の結了等,,,2015-10-05,1,,,,,ケープラス,0
1747,8011801009808,登記記録の閉鎖等,0,2024-02-19,2024-02-15,株式会社ちょうちん,,株式会社,東京都,葛飾区,堀切７丁目７番７号ドミシル定菊３０１号,,13,122,1240006,,,2024-02-15,清算の結了等,,,2015-10-05,1,,,,,チョウチン,0
1751,8012301006337,登記記録の閉鎖等,0,2024-02-19,2024-02-15,株式会社スーパ・サイエンス・テクノロジー,,株式会社,東京都,町田市,木曽西１丁目３２番８号,,13,209,1940037,,,2024-02-15,清算の結了等,,,2015-10-05,1,,,,,スーパサイエンステクノロジー,0
1765,8021001001580,登記記録の閉鎖等,0,2024-02-19,2024-02-14,株式会社仲川商事,,株式会社,神奈川県,藤沢市,辻堂新町１丁目８番１５号,,14,205,2510042,,,2024-02-14,清算の結了等,,,2015-10-05,1,,,,,,0
1768,8030001035935,登記記録の閉鎖等,0,2024-02-19,2024-02-13,株式会社カワムラ,,株式会社,埼玉県,草加市,手代１丁目５番１７号,,11,221,3400021,,,2024-02-13,清算の結了等,,,2015-10-05,1,,,,,カワムラ,0
1769,8030001078389,登記記録の閉鎖等,0,2024-02-19,2024-02-08,株式会社ブロードリンク,,株式会社,埼玉県,川口市,幸町１丁目４番１９－４０２号,,11,203,3320016,,,2024-02-08,清算の結了等,,,2015-10-05,1,,,,,ブロードリンク,0
1795,8060002037936,登記記録の閉鎖等,0,2024-02-19,2024-02-15,エーアンドイーカンパニー有限会社,,有限会社,栃木県,足利市,小俣町９３４番地３,,09,202,3260141,,,2024-02-15,清算の結了等,,,2015-10-05,1,,,,,エーアンドイーカンパニー,0
1802,8080101007945,登記記録の閉鎖等,0,2024-02-19,2024-02-16,株式会社ワイズ,,株式会社,静岡県,沼津市,西島町２番３２号,,22,203,4100835,,,2024-02-16,清算の結了等,,,2015-10-05,1,,,,,ワイズ,0
1803,8080401011564,登記記録の閉鎖等,0,2024-02-19,2024-02-16,株式会社ゼロネクスト,,株式会社,静岡県,浜松市中央区,鴨江２丁目３７番３８号,,22,138,4328023,,,2024-02-16,清算の結了等,,,2015-10-05,1,,,,,ゼロネクスト,0
1813,8100003000640,登記記録の閉鎖等,0,2024-02-19,2024-02-09,合資会社木内書店,,合資会社,長野県,佐久市,望月１０１番地３,,20,217,3842202,,,2024-02-09,清算の結了等,,,2015-10-05,1,,,,,キウチショテン,0
1819,8120001178626,登記記録の閉鎖等,0,2024-02-19,2024-02-13,ｓｕｎ－Ｑ株式会社,,株式会社,大阪府,大阪市浪速区,元町１丁目５番７号,,27,111,5560016,,,2024-02-13,清算の結了等,,,2015-10-05,1,,,,,,0
1838,8130001057110,登記記録の閉鎖等,0,2024-02-19,2024-02-16,株式会社京都菓子工房,,株式会社,京都府,京都市伏見区,中島外山町１１０番地,,26,109,6128455,,,2024-02-16,清算の結了等,,,2016-03-29,1,,,,,キョウトカシコウボウ,0
1844,8140001036583,登記記録の閉鎖等,0,2024-02-19,2024-02-15,株式会社サービスショップ三木,,株式会社,兵庫県,三木市,別所町小林６７０番地の１２,,28,215,6730434,,,2024-02-15,清算の結了等,,,2015-10-05,1,,,,,サービスショップミキ,0
1860,8170005004352,登記記録の閉鎖等,0,2024-02-19,2024-02-15,学校法人恵愛学園,,その他の設立登記法人,和歌山県,御坊市,薗３６８番地３,,30,205,6440002,,,2024-02-15,清算の結了等,,,2015-10-05,1,,,,,ケイアイガクエン,0
1862,8180001135679,登記記録の閉鎖等,0,2024-02-19,2024-02-13,株式会社凛,,株式会社,愛知県,小牧市,大字上末１９４番地４,,23,219,4850822,,,2024-02-13,清算の結了等,,,2019-03-06,1,,,,,リン,0
1867,8180002083927,登記記録の閉鎖等,0,2024-02-19,2024-02-13,有限会社豊隆木材センター,,有限会社,愛知県,半田市,有楽町２丁目１０番地,,23,205,4750837,,,2024-02-13,清算の結了等,,,2015-10-05,1,,,,,ホウリュウモクザイセンター,0
1881,8260005007271,登記記録の閉鎖等,0,2024-02-19,2024-02-15,特定非営利活動法人土居の里,,その他の設立登記法人,岡山県,津山市,下高倉西２３７０番地１,,33,203,7081123,,,2024-02-15,清算の結了等,,,2015-10-05,1,,,,,ドイノサト,0
1882,8290001018229,登記記録の閉鎖等,0,2024-02-19,2024-02-13,株式会社ティ・ティ・エス,,株式会社,福岡県,福岡市博多区,博多駅南１丁目８番６号,,40,132,8120016,,,2024-02-13,合併による解散等,3290001005248,令和６年２月１日福岡市早良区百道浜二丁目２番２２号株式会社シティアスコム（3290001005248）に合併し解散,2015-10-05,1,,,,,ティティエス,0
1897,8320003004025,登記記録の閉鎖等,0,2024-02-19,2024-02-14,ジュエルグレー合同会社,,合同会社,大分県,大分市,王子北町２番１４号,,44,201,8700005,,,2024-02-14,清算の結了等,,,2023-02-16,1,,,,,ジュエルグレー,0
1903,8350002001565,登記記録の閉鎖等,0,2024-02-19,2024-02-13,有限会社桑山工務店,,有限会社,宮崎県,宮崎市,恒久南３丁目５番地３,,45,201,8800915,,,2024-02-13,清算の結了等,,,2015-10-05,1,,,,,クワヤマコウムテン,0
1904,8350002007942,登記記録の閉鎖等,0,2024-02-19,2024-02-09,有限会社オフィス現代,,有限会社,宮崎県,宮崎市,橘通西３丁目５番４号,,45,201,8800001,,,2024-02-09,清算の結了等,,,2015-10-05,1,,,,,オフィスゲンダイ,0
1905,8360001026439,登記記録の閉鎖等,0,2024-02-19,2024-02-14,株式会社ＫＵＫＵＮＡ,,株式会社,沖縄県,沖縄市,高原２丁目８－４０－８０３,,47,211,9042171,,,2024-02-14,清算の結了等,,,2019-11-11,1,,,,,ククナ,0
1913,8370103000778,登記記録の閉鎖等,0,2024-02-19,2024-02-16,合同会社黒田総業,,合同会社,宮城県,柴田郡大河原町,字小島２８番地４,,04,321,9891267,,,2024-02-16,清算の結了等,,,2015-10-05,1,,,,,,0
1923,8440002005318,登記記録の閉鎖等,0,2024-02-19,2024-02-14,有限会社レスポワール,,有限会社,北海道,函館市,深堀町１８番３－５０７号,,01,202,0420941,,,2024-02-14,清算の結了等,,,2015-10-05,1,,,,,レスポワール,0
1928,8470002004531,登記記録の閉鎖等,0,2024-02-19,2024-02-13,有限会社ダブルス和田,,有限会社,香川県,高松市,田町１２番地７,,37,201,7600053,,,2024-02-13,清算の結了等,,,2015-10-05,1,,,,,ダブルスワダ,0
1935,9010001173224,登記記録の閉鎖等,0,2024-02-19,2024-02-16,株式会社ＬＥＳＭＯ,,株式会社,岐阜県,多治見市,栄町１丁目５５番１号,,21,204,5070035,,,2024-02-16,清算の結了等,,,2016-01-29,1,,,,,レスモ,0
1984,9011801012430,登記記録の閉鎖等,0,2024-02-19,2024-02-15,株式会社ミヤジ,,株式会社,東京都,足立区,足立４丁目１６番１６号,,13,121,1200015,,,2024-02-15,清算の結了等,,,2015-10-05,1,,,,,ミヤジ,0
1989,9012802001281,登記記録の閉鎖等,0,2024-02-19,2024-02-15,有限会社芹沢硝子店,,有限会社,東京都,立川市,柴崎町２丁目４番１４号,,13,202,1900023,,,2024-02-15,清算の結了等,,,2015-10-05,1,,,,,セリザワガラステン,0
1993,9020001002142,登記記録の閉鎖等,0,2024-02-19,2024-02-14,株式会社すがのや,,株式会社,神奈川県,横浜市緑区,長津田町２１８２番地,,14,113,2260026,,,2024-02-14,清算の結了等,,,2015-10-05,1,,,,,スガノヤ,0
2013,9021001054347,登記記録の閉鎖等,0,2024-02-19,2024-02-15,株式会社サンライズ,,株式会社,神奈川県,相模原市南区,南台３丁目９番２９号,,14,153,2520314,,,2024-02-15,清算の結了等,,,2015-10-05,1,,,,,サンライズ,0
2020,9030001087769,登記記録の閉鎖等,0,2024-02-19,2024-02-13,株式会社藤間鉄工,,株式会社,埼玉県,熊谷市,箱田７丁目９番１９号,,11,202,3600014,,,2024-02-13,清算の結了等,,,2015-10-05,1,,,,,トウマテッコウ,0
2034,9030002099854,登記記録の閉鎖等,0,2024-02-19,2024-02-13,有限会社アンカー,,有限会社,埼玉県,川口市,大字行衛５３８番地の２,,11,203,3330814,,,2024-02-13,清算の結了等,,,2015-10-05,1,,,,,アンカー,0
2053,9070001017318,登記記録の閉鎖等,0,2024-02-19,2024-02-14,株式会社サカベプラテック,,株式会社,群馬県,みどり市,笠懸町鹿２４８２番地,,10,212,3792313,,,2024-02-14,清算の結了等,,,2015-10-05,1,,,,,サカベプラテック,0
2066,9120001055353,登記記録の閉鎖等,0,2024-02-19,2024-02-13,株式会社坂本電機商会,,株式会社,大阪府,大阪市淀川区,塚本５丁目４番１０号,,27,123,5320026,,,2024-02-13,清算の結了等,,,2015-10-05,1,,,,,サカモトデンキショウカイ,0
2067,9120001135287,登記記録の閉鎖等,0,2024-02-19,2024-02-13,コンフォート・デポ株式会社,,株式会社,大阪府,大阪市東淀川区,東中島１丁目１７番５－９０４号,,27,114,5330033,,,2024-02-13,清算の結了等,,,2015-10-05,1,,,,,,0
2078,9122001000297,登記記録の閉鎖等,0,2024-02-19,2024-02-15,石切環境開発株式会社,,株式会社,大阪府,東大阪市,中石切町６丁目１番２７号,,27,227,5798014,,,2024-02-15,清算の結了等,,,2015-10-05,1,,,,,イシキリカンキョウカイハツ,0
2090,9140001001611,登記記録の閉鎖等,0,2024-02-19,2024-02-16,株式会社サントモ,,株式会社,兵庫県,神戸市東灘区,本山中町４丁目８番３号,,28,101,6580016,,,2024-02-16,清算の結了等,,,2015-10-05,1,,,,,サントモ,0
2094,9140002059780,登記記録の閉鎖等,0,2024-02-19,2024-02-13,有限会社東亜物流,,有限会社,大阪府,大阪市北区,西天満５丁目９－１６－６０１,,27,127,5300047,,,2024-02-13,清算の結了等,,,2015-10-05,1,,,,,トウアブツリュウ,0
2105,9180002056997,登記記録の閉鎖等,0,2024-02-19,2024-02-13,有限会社ＭＴＥ,,有限会社,愛知県,名古屋市緑区,桶狭間森前２９０２番地,,23,114,4580910,,,2024-02-13,清算の結了等,,,2015-10-05,1,,,,,エムティーイー,0
2106,9180002068472,登記記録の閉鎖等,0,2024-02-19,2024-02-13,有限会社アスカ電機,,有限会社,愛知県,小牧市,新町１丁目１０６番地,,23,219,4850013,,,2024-02-13,清算の結了等,,,2015-10-05,1,,,,,アスカデンキ,0
2117,9230002007391,登記記録の閉鎖等,0,2024-02-19,2024-02-14,有限会社松岡工業,,有限会社,富山県,富山市,古志町２丁目８６番地,,16,201,9318417,,,2024-02-14,清算の結了等,,,2015-10-05,1,,,,,マツオカコウギョウ,0
2122,9240002044203,登記記録の閉鎖等,0,2024-02-19,2024-02-16,有限会社ウエルネス桧山,,有限会社,広島県,福山市,本庄町中１丁目６番５号,,34,207,7200076,,,2024-02-16,清算の結了等,,,2015-10-05,1,,,,,,0
2123,9240005013320,登記記録の閉鎖等,0,2024-02-19,2024-02-01,特定非営利活動法人ゆうゆう,,その他の設立登記法人,広島県,広島市中区,東白島町１９番９１号,,34,101,7300004,,,2024-02-01,清算の結了等,,,2015-10-05,1,,,,,ユウユウ,0
2140,9330002021093,登記記録の閉鎖等,0,2024-02-19,2024-02-14,有限会社ティーユーシー,,有限会社,熊本県,玉名市,立願寺３５番地１,,43,206,8650061,,,2024-02-14,清算の結了等,,,2015-10-05,1,,,,,ティーユーシー,0
2148,9380001004078,登記記録の閉鎖等,0,2024-02-19,2024-02-14,株式会社アイエスアイ,,株式会社,福島県,福島市,丸子字北下川原１５番地の１１,,07,201,9600111,,,2024-02-14,清算の結了等,,,2015-10-05,1,,,,,アイエスアイ,0
2150,9380002032516,登記記録の閉鎖等,0,2024-02-19,2024-02-13,東会商事有限会社,,有限会社,福島県,大沼郡会津美里町,新屋敷字上深田甲１５２８番地２,,07,447,9696402,,,2024-02-13,清算の結了等,,,2015-10-05,1,,,,,トウカイショウジ,0
2162,9430005006627,登記記録の閉鎖等,0,2024-02-19,2024-02-13,農事組合法人上美唄生産組合,,その他の設立登記法人,北海道,美唄市,字上美唄４０９２番地１,,01,215,0720000,,,2024-02-13,清算の結了等,,,2015-10-05,1,,,,,カミビバイセイサンクミアイ,0
2163,9470002013333,登記記録の閉鎖等,0,2024-02-19,2024-02-15,有限会社まつばや呉服店,,有限会社,香川県,仲多度郡琴平町,榎井１０４番地２,,37,403,7660004,,,2024-02-15,清算の結了等,,,2015-10-05,1,,,,,マツバヤゴフクテン,0
2165,9490002005436,登記記録の閉鎖等,0,2024-02-19,2024-02-14,有限会社友協建物,,有限会社,大阪府,東大阪市,上四条町９番２号,,27,227,5798052,,,2024-02-14,清算の結了等,,,2015-10-05,1,,,,,ユウキョウタテモノ,0
