sequenceNumber,corporateNumber,process,correct,updateDate,changeDate,name,nameImageId,kind,prefectureName,cityName,streetNumber,addressImageId,prefectureCode,cityCode,postCode,addressOutside,addressOutsideImageId,closeDate,closeCause,successorCorporateNumber,changeCause,assignmentDate,latest,enName,enPrefectureName,enCityName,enAddressOutside,furigana,hihyoji
11,1010002015390,登記記録の閉鎖等,0,2023-09-01,2023-08-29,有限会社友愛書房,,有限会社,東京都,千代田区,神田神保町１丁目４４番地２,,13,101,1010051,,,2023-08-29,清算の結了等,,,2015-10-05,1,,,,,ユウアイショボウ,0
12,1010401056548,登記記録の閉鎖等,0,2023-09-01,2023-08-25,ヴァリューズ株式会社,,株式会社,東京都,港区,西新橋１丁目２番９号日比谷セントラルビル,,13,103,1050003,,,2023-08-25,清算の結了等,,,2015-10-05,1,,,,,ヴァリューズ,0
17,1010401158427,登記記録の閉鎖等,0,2023-09-01,2023-08-28,株式会社青山メディカルサポート,,株式会社,東京都,港区,南青山２丁目２番１５号ウイン青山９４２,,13,103,1070062,,,2023-08-28,清算の結了等,,,2021-02-25,1,,,,,アオヤマメディカルサポート,0
27,1010501030700,登記記録の閉鎖等,0,2023-09-01,2023-08-30,シーエル・ジャパン株式会社,,株式会社,東京都,台東区,寿３丁目１９番２号,,13,106,1110042,,,2023-08-30,合併による解散等,6060001014822,令和５年８月１日栃木県小山市大字中久喜１４７５番地１株式会社トキタ・ａｃ（6060001014822）に合併し解散,2015-10-05,1,,,,,シーエルジャパン,0
34,1010902023947,登記記録の閉鎖等,0,2023-09-01,2023-08-29,有限会社アメイジング,,有限会社,東京都,世田谷区,若林３丁目２７番１号,,13,112,1540023,,,2023-08-29,清算の結了等,,,2015-10-05,1,,,,,アメイジング,0
55,1011702011893,登記記録の閉鎖等,0,2023-09-01,2023-08-31,有限会社山口工業,,有限会社,東京都,江戸川区,瑞江１丁目６２番１１号,,13,123,1320011,,,2023-08-31,清算の結了等,,,2015-10-05,1,,,,,ヤマグチコウギョウ,0
65,1020001061229,登記記録の閉鎖等,0,2023-09-01,2023-08-28,Ｌｅ　ｓｏｌｅｉｌ株式会社,,株式会社,神奈川県,横浜市中区,本牧原１－２２－４０３,,14,104,2310821,,,2023-08-28,清算の結了等,,,2015-10-05,1,,,,,ルソレイユ,0
75,1030001055411,登記記録の閉鎖等,0,2023-09-01,2023-07-31,株式会社早川靴店,,株式会社,埼玉県,川越市,仲町１１番地１１エコヴィレッジ川越仲町３０９号室,,11,201,3500065,,,2023-07-31,清算の結了等,,,2015-10-05,1,,,,,ハヤカワクツテン,0
92,1040001117895,登記記録の閉鎖等,0,2023-09-01,2023-08-15,株式会社一,,株式会社,千葉県,八千代市,上高野１３０４番地２２,,12,221,2760022,,,2023-08-15,清算の結了等,,,2021-04-06,1,,,,,イチ,0
111,1100002024341,登記記録の閉鎖等,0,2023-09-01,2023-08-28,有限会社会田醤油釀造店,00069609,有限会社,長野県,松本市,会田３９９６番地,,20,202,3997402,,,2023-08-28,清算の結了等,,,2015-10-05,1,,,,,アイダショウユジョウゾウテン,0
112,1110001005242,登記記録の閉鎖等,0,2023-09-01,2023-08-30,松田電気株式会社,,株式会社,新潟県,新潟市東区,山木戸３丁目１３番１３号,,15,102,9500871,,,2023-08-30,清算の結了等,,,2015-10-05,1,,,,,マツダデンキ,0
114,1120001206558,登記記録の閉鎖等,0,2023-09-01,2023-08-30,株式会社ジパング,,株式会社,大阪府,大阪市西区,西本町１丁目１２番７号,,27,106,5500005,,,2023-08-30,清算の結了等,,,2017-06-27,1,,,,,ジパング,0
126,1120902013012,登記記録の閉鎖等,0,2023-09-01,2023-08-18,有限会社寺子屋コミュニケーション,,有限会社,大阪府,高槻市,高槻町１４番１３号丸西ビル４階,,27,207,5690803,,,2023-08-18,清算の結了等,,,2015-10-05,1,,,,,,0
129,1130001009547,登記記録の閉鎖等,0,2023-09-01,2023-08-16,日昇ライナー株式会社,,株式会社,京都府,京都市東山区,団栗通大和大路西入六軒町２０６番地,,26,105,6050806,,,2023-08-16,清算の結了等,,,2015-10-05,1,,,,,,0
130,1130001026617,登記記録の閉鎖等,0,2023-09-01,2023-08-17,株式会社ＫＳＡシンセリティー,,株式会社,京都府,京都市中京区,壬生高樋町１３番地,00035983,26,104,6048824,,,2023-08-17,清算の結了等,,,2015-10-05,1,,,,,ケーエスエーシンセリティー,0
142,1180001086400,登記記録の閉鎖等,0,2023-09-01,2023-08-29,株式会社三晃,,株式会社,愛知県,稲沢市,駅前１丁目３番２５号,,23,220,4928143,,,2023-08-29,清算の結了等,,,2015-10-05,1,,,,,サンコウ,0
156,1200002002980,登記記録の閉鎖等,0,2023-09-01,2023-08-30,中部カーペットクリーニング有限会社,,有限会社,岐阜県,岐阜市,下鵜飼１６３５番地の１,,21,201,5011172,,,2023-08-30,清算の結了等,,,2015-10-05,1,,,,,チュウブカーペットクリーニング,0
168,1270002006232,登記記録の閉鎖等,0,2023-09-01,2023-08-29,有限会社エコテクノ,,有限会社,鳥取県,米子市,米原７丁目１１番２３号,,31,202,6830804,,,2023-08-29,清算の結了等,,,2015-10-05,1,,,,,エコテクノ,0
180,1320002019294,登記記録の閉鎖等,0,2023-09-01,2023-08-30,有限会社深見縫製,,有限会社,大分県,日田市,大字十二町６８４番地の２,,44,204,8770000,,,2023-08-30,清算の結了等,,,2015-10-05,1,,,,,,0
188,1360002016585,登記記録の閉鎖等,0,2023-09-01,2023-08-29,有限会社中原サプライ,,有限会社,沖縄県,宜野湾市,普天間１丁目１０番１４号,,47,205,9012202,,,2023-08-29,清算の結了等,,,2015-10-05,1,,,,,ナカハラサプライ,0
193,1380002025270,登記記録の閉鎖等,0,2023-09-01,2023-08-30,有限会社錦電気工事,,有限会社,福島県,いわき市,錦町江栗１丁目９１番地の１,,07,204,9748232,,,2023-08-30,清算の結了等,,,2015-10-05,1,,,,,ニシキデンキコウジ,0
196,1400005005218,登記記録の閉鎖等,0,2023-09-01,2023-08-29,一般社団法人オランダ島,,その他の設立登記法人,岩手県,下閉伊郡山田町,豊間根第３地割１６０－４３,,03,482,0281302,,,2023-08-29,清算の結了等,,,2015-10-05,1,,,,,オランダジマ,0
198,1420002006035,登記記録の閉鎖等,0,2023-09-01,2023-08-23,有限会社秋田屋コーポレーション,,有限会社,青森県,八戸市,内丸３丁目３番２１号,,02,203,0310075,,,2023-08-23,清算の結了等,,,2015-10-05,1,,,,,アキタヤコーポレーション,0
214,1470001009934,登記記録の閉鎖等,0,2023-09-01,2023-08-29,三和物流株式会社,,株式会社,香川県,観音寺市,昭和町３丁目３番１５号,,37,205,7680066,,,2023-08-29,清算の結了等,,,2015-10-05,1,,,,,サンワブツリュウ,0
253,2010501031086,登記記録の閉鎖等,0,2023-09-01,2023-08-30,株式会社ａｍｃ・コミュニケーションズ,,株式会社,東京都,台東区,寿３丁目１９番２号,,13,106,1110042,,,2023-08-30,合併による解散等,6060001014822,令和５年８月１日栃木県小山市大字中久喜１４７５番地１株式会社トキタ・ａｃ（6060001014822）に合併し解散,2015-10-05,1,,,,,エーエムシーコミュニケーションズ,0
264,2011102022549,登記記録の閉鎖等,0,2023-09-01,2023-08-30,有限会社カネゴ興産,,有限会社,東京都,新宿区,矢来町８７番地,,13,104,1620805,,,2023-08-30,清算の結了等,,,2015-10-05,1,,,,,カネゴコウサン,0
265,2011103007219,登記記録の閉鎖等,0,2023-09-01,2023-08-31,合同会社Ｓｃｈｎｅｅ,,合同会社,東京都,新宿区,西新宿１丁目２６番２号,,13,104,1600023,,,2023-08-31,合併による解散等,5011103006036,令和５年８月３１日東京都新宿区西新宿一丁目２５番１号合同会社ＨＨＭ（5011103006036）に合併し解散,2017-07-20,1,,,,,シュネー,0
266,2011201023225,登記記録の閉鎖等,0,2023-09-01,2023-08-31,株式会社プラスエスアセットパートナーズ,,株式会社,東京都,中野区,鷺宮６丁目２６番１４号,,13,114,1650032,,,2023-08-31,清算の結了等,,,2021-09-07,1,,,,,プラスエスアセットパートナーズ,0
269,2011301022151,登記記録の閉鎖等,0,2023-09-01,2023-08-31,アクセル通商株式会社,,株式会社,福井県,福井市,豊島１丁目３番１号,,18,201,9100857,,,2023-08-31,清算の結了等,,,2016-04-06,1,,,,,アクセルツウショウ,0
278,2012401021571,登記記録の閉鎖等,0,2023-09-01,2023-08-29,株式会社コメツブ,,株式会社,東京都,国立市,青柳２丁目８番地の４５,,13,215,1860013,,,2023-08-29,清算の結了等,,,2015-10-05,1,,,,,コメツブ,0
279,2012801007856,登記記録の閉鎖等,0,2023-09-01,2023-08-28,株式会社創秀,,株式会社,東京都,東大和市,立野４丁目５０３番地４ラング・マンション玉川上水７０３号,,13,220,2070021,,,2023-08-28,清算の結了等,,,2015-10-05,1,,,,,ソウシュウ,0
287,2020001098451,登記記録の閉鎖等,0,2023-09-01,2023-08-28,株式会社Ｎナビ,,株式会社,神奈川県,横浜市中区,南仲通４丁目４９番地－４Ｆ,,14,104,2310006,,,2023-08-28,清算の結了等,,,2015-10-05,1,,,,,エヌナビ,0
293,2020005014768,登記記録の閉鎖等,0,2023-09-01,2023-08-25,一般社団法人夢ラジオ,,その他の設立登記法人,神奈川県,横浜市金沢区,能見台１丁目３７番地５号,,14,108,2360057,,,2023-08-25,清算の結了等,,,2020-08-21,1,,,,,ユメラジオ,0
294,2021001061952,登記記録の閉鎖等,0,2023-09-01,2023-08-28,プレストフーズ株式会社,,株式会社,東京都,千代田区,岩本町２丁目１０番９号手塚ビル２階,,13,101,1010032,,,2023-08-28,清算の結了等,,,2017-04-26,1,,,,,プレストフーズ,0
295,2021001062884,登記記録の閉鎖等,0,2023-09-01,2023-08-28,株式会社ビッグウェーブ,,株式会社,神奈川県,相模原市緑区,西橋本１丁目１６番３４－４０８号,,14,151,2520131,,,2023-08-28,清算の結了等,,,2017-08-22,1,,,,,ビッグウェーブ,0
301,2021002052554,登記記録の閉鎖等,0,2023-09-01,2023-08-28,有限会社電脳工房,,有限会社,神奈川県,小田原市,東町４丁目９番２６号,,14,206,2500003,,,2023-08-28,清算の結了等,,,2015-10-05,1,,,,,デンノウコウボウ,0
310,2030002038513,登記記録の閉鎖等,0,2023-09-01,2023-08-04,有限会社岩上工務店,,有限会社,埼玉県,白岡市,高岩６４７番地１,,11,246,3490213,,,2023-08-04,清算の結了等,,,2015-10-05,1,,,,,イワガミコウムテン,0
311,2030002082998,登記記録の閉鎖等,0,2023-09-01,2023-08-07,有限会社山本青果,,有限会社,埼玉県,鴻巣市,加美１丁目３番３４号,,11,217,3650078,,,2023-08-07,清算の結了等,,,2015-10-05,1,,,,,ヤマモトセイカ,0
312,2030002111047,登記記録の閉鎖等,0,2023-09-01,2023-08-04,有限会社愛建工業,,有限会社,埼玉県,川口市,大字東内野５３６番地の６,,11,203,3330821,,,2023-08-04,清算の結了等,,,2015-10-05,1,,,,,,0
313,2030003002534,登記記録の閉鎖等,0,2023-09-01,2023-08-04,合資会社ともえや商店,,合資会社,埼玉県,南埼玉郡宮代町,百間２丁目５番５号,,11,442,3450801,,,2023-08-04,清算の結了等,,,2015-10-05,1,,,,,トモエヤショウテン,0
315,2030005015419,登記記録の閉鎖等,0,2023-09-01,2023-08-04,特定非営利活動法人ふぁいぶるクラブおがのむてっぽう,,その他の設立登記法人,埼玉県,秩父郡小鹿野町,飯田２８４４番地,,11,365,3680111,,,2023-08-04,清算の結了等,,,2015-10-05,1,,,,,ファイブルクラブオガノムテッポウ,0
330,2050005002159,登記記録の閉鎖等,0,2023-09-01,2023-08-29,特定非営利活動法人認知症ケア研究所,,その他の設立登記法人,茨城県,水戸市,酒門町４６３７番地２,,08,201,3100841,,,2023-08-29,清算の結了等,,,2015-10-05,1,,,,,ニンチショウケアケンキュウジョ,0
342,2110002023754,登記記録の閉鎖等,0,2023-09-01,2023-08-29,有限会社五十嵐自動車,,有限会社,新潟県,上越市,頸城区森本１３３３番地の１,,15,222,9420223,,,2023-08-29,清算の結了等,,,2015-10-05,1,,,,,イガラシジドウシャ,0
370,2130001034767,登記記録の閉鎖等,0,2023-09-01,2023-08-17,株式会社鶴,,株式会社,京都府,京都市中京区,丸太町通堺町西入鍵屋町６４番地,,26,104,6040801,,,2023-08-17,清算の結了等,,,2015-10-05,1,,,,,ツル,0
389,2180002058546,登記記録の閉鎖等,0,2023-09-01,2023-08-30,有限会社アイマックス東海,,有限会社,三重県,津市,西丸之内８番２０号,,24,201,5140035,,,2023-08-30,清算の結了等,,,2015-10-05,1,,,,,アイマックストウカイ,0
397,2200002014967,登記記録の閉鎖等,0,2023-09-01,2023-08-31,有限会社プランドＣＳＧ,,有限会社,岐阜県,大垣市,郭町東２丁目５３番地,,21,202,5030886,,,2023-08-31,清算の結了等,,,2015-10-05,1,,,,,プランドシーエスジー,0
404,2240002023444,登記記録の閉鎖等,0,2023-09-01,2023-08-31,有限会社ムカイ鶏卵,,有限会社,広島県,広島市西区,横川町２丁目４番１２号,,34,104,7330011,,,2023-08-31,清算の結了等,,,2015-10-05,1,,,,,ムカイケイラン,0
424,2290805006384,登記記録の閉鎖等,0,2023-09-01,2023-08-31,医療法人蛭崎整形外科医院,,その他の設立登記法人,福岡県,行橋市,行事２丁目４番１２号,,40,213,8240001,,,2023-08-31,清算の結了等,,,2015-10-05,1,,,,,エビスザキセイケイゲカイイン,0
433,2360001008698,登記記録の閉鎖等,0,2023-09-01,2023-08-28,株式会社海邦計画,,株式会社,沖縄県,浦添市,伊祖３丁目３番１号,,47,208,9012132,,,2023-08-28,清算の結了等,,,2015-10-05,1,,,,,カイホウケイカク,0
438,2380003002441,登記記録の閉鎖等,0,2023-09-01,2023-08-31,ロングッド工業合同会社,,合同会社,福島県,伊達市,保原町大泉字大塚５８番地１,,07,213,9600634,,,2023-08-31,清算の結了等,,,2015-10-05,1,,,,,ロングッドコウギョウ,0
448,2430002029001,登記記録の閉鎖等,0,2023-09-01,2023-08-18,有限会社富澤商会,,有限会社,北海道,札幌市西区,山の手二条９丁目１番１－１０７号,,01,107,0630002,,,2023-08-18,清算の結了等,,,2015-10-05,1,,,,,トミザワショウカイ,0
450,2430003008061,登記記録の閉鎖等,0,2023-09-01,2023-08-30,株式会社高翔工業,,株式会社,北海道,札幌市東区,北四十八条東２丁目１番１－１０３号,,01,103,0070848,,,2023-08-30,清算の結了等,,,2016-12-07,1,,,,,コウショウコウギョウ,0
453,2450002000678,登記記録の閉鎖等,0,2023-09-01,2023-08-30,伊藤鉄工有限会社,,有限会社,北海道,旭川市,豊岡一条３丁目２番１７号,,01,204,0788231,,,2023-08-30,清算の結了等,,,2015-10-05,1,,,,,イトウテッコウ,0
454,2460101000826,登記記録の閉鎖等,0,2023-09-01,2023-08-31,株式会社大運,,株式会社,北海道,中川郡幕別町,字千住３９７番地３１,,01,643,0890563,,,2023-08-31,合併による解散等,5460101001417,令和５年８月３１日北海道中川郡幕別町字千住３９７番地３１株式会社原田（5460101001417）に合併し解散,2015-10-05,1,,,,,ダイウン,0
469,3010002024084,登記記録の閉鎖等,0,2023-09-01,2023-08-29,有限会社ヒー・アンド・シーアイ,,有限会社,東京都,中央区,築地４丁目２番７号－８０３,,13,102,1040045,,,2023-08-29,清算の結了等,,,2015-10-05,1,,,,,ヒーアンドシーアイ,0
473,3010103001874,登記記録の閉鎖等,0,2023-09-01,2023-08-31,アイダパートナーズ合同会社,,合同会社,東京都,八王子市,明神町４丁目２－１０京王八王子駅前ビル６階,,13,201,1920046,,,2023-08-31,清算の結了等,,,2022-03-10,1,,,,,アイダパートナーズ,0
485,3010601005550,登記記録の閉鎖等,0,2023-09-01,2023-08-30,日本興業株式会社,,株式会社,東京都,江東区,森下２丁目１２番８号,,13,108,1350004,,,2023-08-30,清算の結了等,,,2015-10-05,1,,,,,ニホンコウギョウ,0
486,3010601023833,登記記録の閉鎖等,0,2023-09-01,2023-08-30,インターメディック株式会社,,株式会社,東京都,豊島区,上池袋４丁目１３番５号２Ｆ,,13,116,1700012,,,2023-08-30,清算の結了等,,,2015-10-05,1,,,,,インターメディック,0
513,3011103007746,登記記録の閉鎖等,0,2023-09-01,2023-08-30,合同会社ジェイ・アイ・アイ,,合同会社,東京都,新宿区,下宮比町１番４号,,13,104,1620822,,,2023-08-30,清算の結了等,,,2018-03-09,1,,,,,ジェイアイアイ,0
521,3011502011464,登記記録の閉鎖等,0,2023-09-01,2023-08-25,有限会社室野井デザインラボ,,有限会社,東京都,荒川区,南千住１丁目５７番７号,,13,118,1160003,,,2023-08-25,清算の結了等,,,2015-10-05,1,,,,,ムロノイデザインラボ,0
523,3011601021570,登記記録の閉鎖等,0,2023-09-01,2023-08-30,株式会社ホワイツ,,株式会社,東京都,練馬区,豊玉南２丁目１７番１８号,,13,120,1760014,,,2023-08-30,清算の結了等,,,2017-03-06,1,,,,,ホワイツ,0
530,3012802003044,登記記録の閉鎖等,0,2023-09-01,2023-08-28,有限会社光栄,,有限会社,東京都,昭島市,福島町２丁目３２番１１号,,13,207,1960031,,,2023-08-28,清算の結了等,,,2015-10-05,1,,,,,コウエイ,0
532,3020001024522,登記記録の閉鎖等,0,2023-09-01,2023-08-28,丸中物産株式会社,,株式会社,神奈川県,横浜市神奈川区,山内町１番地,,14,102,2210054,,,2023-08-28,清算の結了等,,,2015-10-05,1,,,,,マルナカブッサン,0
540,3020002063503,登記記録の閉鎖等,0,2023-09-01,2023-08-25,有限会社ホーセープランニング,,有限会社,神奈川県,横浜市金沢区,釜利谷東６丁目１７番１－８１２号,,14,108,2360042,,,2023-08-25,清算の結了等,,,2015-10-05,1,,,,,ホーセープランニング,0
544,3021001001916,登記記録の閉鎖等,0,2023-09-01,2023-08-28,藤長製パン株式会社,,株式会社,神奈川県,藤沢市,本藤沢７丁目１番３号,,14,205,2510875,,,2023-08-28,清算の結了等,,,2015-10-05,1,,,,,フジチョウセイパン,0
555,3030002047819,登記記録の閉鎖等,0,2023-09-01,2023-08-03,有限会社保科商会,,有限会社,埼玉県,八潮市,緑町５丁目２２番地１,,11,234,3400808,,,2023-08-03,清算の結了等,,,2015-10-05,1,,,,,ホシナショウカイ,0
577,3080002013741,登記記録の閉鎖等,0,2023-09-01,2023-08-31,有限会社大雄工業,,有限会社,静岡県,島田市,東町１１０４番地,,22,209,4270011,,,2023-08-31,清算の結了等,,,2015-10-05,1,,,,,ダイユウコウギョウ,0
583,3080402021807,登記記録の閉鎖等,0,2023-09-01,2023-08-31,有限会社前嶋商会,,有限会社,静岡県,袋井市,高尾町９番地の２５,,22,216,4370027,,,2023-08-31,清算の結了等,,,2015-10-05,1,,,,,マエジマショウカイ,0
584,3100002010703,登記記録の閉鎖等,0,2023-09-01,2023-08-28,有限会社佐久しなの,,有限会社,長野県,佐久市,中込２１３９番地,,20,217,3850051,,,2023-08-28,清算の結了等,,,2015-10-05,1,,,,,サクシナノ,0
588,3110005000717,登記記録の閉鎖等,0,2023-09-01,2023-08-30,医療法人社団長谷川こども医院,,その他の設立登記法人,新潟県,新潟市西区,五十嵐１の町６３９３番地１０,,15,107,9502101,,,2023-08-30,清算の結了等,,,2015-10-05,1,,,,,ハセガワコドモイイン,0
591,3120001250513,登記記録の閉鎖等,0,2023-09-01,2023-08-30,株式会社圓縁,,株式会社,大阪府,大阪市淀川区,宮原１丁目１９番２３－９１０号,,27,123,5320003,,,2023-08-30,清算の結了等,,,2022-11-22,1,,,,,エンエン,0
596,3120003020195,登記記録の閉鎖等,0,2023-09-01,2023-08-31,合同会社Ｍａｒｃｄｏｒ,,合同会社,大阪府,大阪市中央区,日本橋２丁目１４番１７号,,27,128,5420073,,,2023-08-31,清算の結了等,,,2021-09-10,1,,,,,マルカドール,0
602,3122001015540,登記記録の閉鎖等,0,2023-09-01,2023-08-30,大京金属株式会社,,株式会社,大阪府,大東市,諸福４丁目５番１７号,,27,218,5740044,,,2023-08-30,清算の結了等,,,2015-10-05,1,,,,,ダイキョウキンゾク,0
607,3130001053444,登記記録の閉鎖等,0,2023-09-01,2023-08-17,株式会社ときわブライダル,,株式会社,京都府,京都市下京区,西木屋町通仏光寺上る市之町２６０番地１０,,26,106,6008018,,,2023-08-17,清算の結了等,,,2015-10-05,1,,,,,トキワブライダル,0
615,3140001067476,登記記録の閉鎖等,0,2023-09-01,2023-08-28,竹川会計株式会社,,株式会社,兵庫県,姫路市,南今宿７番１４号,,28,201,6700054,,,2023-08-28,清算の結了等,,,2015-10-05,1,,,,,タケガワカイケイ,0
622,3140005018814,登記記録の閉鎖等,0,2023-09-01,2023-08-31,特定非営利活動法人宅老所光明の家,,その他の設立登記法人,兵庫県,宝塚市,福井町２６番２７号,,28,214,6650046,,,2023-08-31,清算の結了等,,,2015-10-05,1,,,,,タクロウショコウミョウノイエ,0
629,3180003011172,登記記録の閉鎖等,0,2023-09-01,2023-08-29,藤田鉄工合資会社,,合資会社,愛知県,丹羽郡大口町,外坪４丁目５３番地の１,,23,361,4800125,,,2023-08-29,清算の結了等,,,2015-10-05,1,,,,,フジタテッコウ,0
630,3180005006237,登記記録の閉鎖等,0,2023-09-01,2023-08-29,特定非営利活動法人名古屋青少年活動支援ネット,,その他の設立登記法人,愛知県,名古屋市名東区,大針３丁目３６番地,,23,115,4650064,,,2023-08-29,清算の結了等,,,2015-10-05,1,,,,,ナゴヤセイショウネンカツドウシエンネット,0
631,3180301010116,登記記録の閉鎖等,0,2023-09-01,2023-08-29,カナヤイモノ株式会社,,株式会社,愛知県,豊川市,金屋町７７番地,,23,207,4420053,,,2023-08-29,清算の結了等,,,2015-10-05,1,,,,,カナヤイモノ,0
635,3200001034552,登記記録の閉鎖等,0,2023-09-01,2023-08-31,株式会社住もＮＡＶＩ,,株式会社,岐阜県,岐阜市,長良１８７番地２,,21,201,5020071,,,2023-08-31,清算の結了等,,,2017-10-25,1,,,,,スモナビ,0
654,3290002015972,登記記録の閉鎖等,0,2023-09-01,2023-08-21,有限会社セントラル商会,,有限会社,福岡県,福岡市西区,下山門２丁目２番２２号,,40,135,8190052,,,2023-08-21,清算の結了等,,,2015-10-05,1,,,,,セントラルショウカイ,0
659,3300003001697,登記記録の閉鎖等,0,2023-09-01,2023-08-28,合同会社鹿島音成発電所,,合同会社,佐賀県,鹿島市,大字音成甲１４８０番地１,,41,207,8491323,,,2023-08-28,合併による解散等,6490001004598,令和５年８月１日高知市針木東町２６番５４号株式会社オアシス・イラボレーション（6490001004598）に合併し解散,2021-07-07,1,,,,,カシマオトナリハツデンショ,0
663,3330002029340,登記記録の閉鎖等,0,2023-09-01,2023-08-25,有限会社＿州皮革,00098022,有限会社,熊本県,天草市,楠浦町２６番地の１９,,43,215,8630044,,,2023-08-25,清算の結了等,,,2015-10-05,1,,,,,レイシュウヒカク,0
671,3340003003194,登記記録の閉鎖等,0,2023-09-01,2023-08-31,合同会社ののか２,,合同会社,鹿児島県,鹿児島市,明和２丁目３３番１号,,46,201,8900024,,,2023-08-31,清算の結了等,,,2020-09-28,1,,,,,ノノカツー,0
674,3370005002084,登記記録の閉鎖等,0,2023-09-01,2023-08-29,宮城県エコロード事業協同組合,,その他の設立登記法人,宮城県,仙台市宮城野区,宮城野１丁目２６－１５,,04,102,9830045,,,2023-08-29,清算の結了等,,,2015-10-05,1,,,,,ミヤギケンエコロード,0
694,3462501000272,登記記録の閉鎖等,0,2023-09-01,2023-08-30,株式会社丸伊工務店,,株式会社,北海道,標津郡中標津町,東六条北１丁目５番地２,,01,692,0861046,,,2023-08-30,清算の結了等,,,2015-10-05,1,,,,,マルイコウムテン,0
695,3470002014972,登記記録の閉鎖等,0,2023-09-01,2023-08-30,有限会社新西屋,,有限会社,香川県,坂出市,本町２丁目８番１８号,,37,203,7620044,,,2023-08-30,清算の結了等,,,2015-10-05,1,,,,,シンニシヤ,0
700,3500001018780,登記記録の閉鎖等,0,2023-09-01,2023-08-31,株式会社みかんの島,,株式会社,愛媛県,今治市,関前岡村甲７２８番地６,,38,202,7941101,,,2023-08-31,清算の結了等,,,2015-10-05,1,,,,,ミカンノシマ,0
709,4010002002460,登記記録の閉鎖等,0,2023-09-01,2023-08-28,有限会社山洋社印刷所,,有限会社,東京都,文京区,千石４丁目２番１２号,,13,105,1120011,,,2023-08-28,清算の結了等,,,2015-10-05,1,,,,,サンヨウシャインサツジョ,0
738,4010702003139,登記記録の閉鎖等,0,2023-09-01,2023-08-25,有限会社コーラク,,有限会社,東京都,品川区,南大井６丁目８番１３号,,13,109,1400013,,,2023-08-25,清算の結了等,,,2015-10-05,1,,,,,コーラク,0
753,4011101087483,登記記録の閉鎖等,0,2023-09-01,2023-08-31,株式会社サドハラー,,株式会社,東京都,新宿区,市谷八幡町８番地,,13,104,1620844,,,2023-08-31,清算の結了等,,,2019-04-23,1,,,,,サドハラー,0
804,4050001045135,登記記録の閉鎖等,0,2023-09-01,2023-08-28,ＳＳＫ株式会社,,株式会社,茨城県,つくば市,二の宮２丁目２番地９,,08,220,3050051,,,2023-08-28,清算の結了等,,,2018-11-01,1,,,,,エスエスケイ,0
808,4050002043798,登記記録の閉鎖等,0,2023-09-01,2023-07-24,有限会社日翔運輸,,有限会社,茨城県,筑西市,関本分中４２４番地の３,,08,227,3080125,,,2023-07-24,清算の結了等,,,2015-10-05,1,,,,,,0
812,4080002002272,登記記録の閉鎖等,0,2023-09-01,2023-08-31,有限会社サンセー工業,,有限会社,静岡県,静岡市駿河区,広野３丁目２２番１１号,,22,102,4210121,,,2023-08-31,清算の結了等,,,2015-10-05,1,,,,,サンセーコウギョウ,0
821,4110001029750,登記記録の閉鎖等,0,2023-09-01,2023-08-25,株式会社ユートピアコーポレーション,,株式会社,新潟県,長岡市,緑町１丁目３８番地４１３,,15,202,9402105,,,2023-08-25,清算の結了等,,,2015-10-05,1,,,,,ユートピアコーポレーション,0
824,4120001205532,登記記録の閉鎖等,0,2023-09-01,2023-08-30,株式会社ＫＴＬ,,株式会社,大阪府,大阪市天王寺区,下味原町５番５号,,27,109,5430025,,,2023-08-30,清算の結了等,,,2017-05-17,1,,,,,ケーティーエル,0
827,4120002023652,登記記録の閉鎖等,0,2023-09-01,2023-08-30,有限会社大和田塗装工業所,,有限会社,大阪府,大阪市西淀川区,大和田３丁目９番３号,,27,113,5550032,,,2023-08-30,清算の結了等,,,2015-10-05,1,,,,,オオワダトソウコウギョウショ,0
840,4130005012940,登記記録の閉鎖等,0,2023-09-01,2023-08-10,特定非営利活動法人文化人財カンリ京都,,その他の設立登記法人,京都府,京都市伏見区,中島外山町１１６番地２,,26,109,6128455,,,2023-08-10,清算の結了等,,,2015-10-05,1,,,,,ブンカジンザイカンリキョウト,0
843,4140001039722,登記記録の閉鎖等,0,2023-09-01,2023-08-29,株式会社とみはら,,株式会社,兵庫県,赤穂市,尾崎３１４３番地の３２,,28,212,6780221,,,2023-08-29,清算の結了等,,,2015-10-05,1,,,,,トミハラ,0
849,4140005003823,登記記録の閉鎖等,0,2023-09-01,2023-08-30,特定非営利活動法人マンション長期修繕計画研究所,,その他の設立登記法人,兵庫県,明石市,魚住町中尾１０１１番地の５,,28,203,6740082,,,2023-08-30,清算の結了等,,,2015-10-05,1,,,,,マンションチョウキシュウゼンケイカクケンキュウシヨ,0
860,4180002067487,登記記録の閉鎖等,0,2023-09-01,2023-08-31,有限会社むつみ酒店,,有限会社,愛知県,春日井市,坂下町５丁目１２１５番地の３２０,,23,206,4800305,,,2023-08-31,清算の結了等,,,2015-10-05,1,,,,,ムツミサケテン,0
864,4190002022532,登記記録の閉鎖等,0,2023-09-01,2023-08-30,有限会社山田商店,,有限会社,三重県,四日市市,滝川町８番５号,,24,202,5100034,,,2023-08-30,清算の結了等,,,2015-10-05,1,,,,,ヤマダショウテン,0
871,4220002002101,登記記録の閉鎖等,0,2023-09-01,2023-08-28,加賀商事有限会社,,有限会社,石川県,金沢市,石引４丁目７番１３号,,17,201,9200935,,,2023-08-28,清算の結了等,,,2015-10-05,1,,,,,カガショウジ,0
872,4230001002860,登記記録の閉鎖等,0,2023-09-01,2023-08-31,株式会社ホクリク容器,,株式会社,富山県,富山市,向新庄１２６３番地６,,16,201,9300916,,,2023-08-31,清算の結了等,,,2015-10-05,1,,,,,ホクリクヨウキ,0
923,4450002012845,登記記録の閉鎖等,0,2023-09-01,2023-08-29,有限会社山谷組,,有限会社,北海道,紋別市,大山町２丁目４１番２１号,,01,219,0940021,,,2023-08-29,清算の結了等,,,2015-10-05,1,,,,,ヤマヤグミ,0
939,5010005023858,登記記録の閉鎖等,0,2023-09-01,2023-08-29,一般社団法人新茶自然電力,,その他の設立登記法人,東京都,千代田区,丸の内３丁目１番１号東京共同会計事務所内,,13,101,1000005,,,2023-08-29,清算の結了等,,,2015-10-05,1,,,,,シンチャシゼンデンリョク,0
940,5010005032198,登記記録の閉鎖等,0,2023-09-01,2023-08-29,一般社団法人ビーロットリート,,その他の設立登記法人,東京都,中央区,銀座７丁目２番２２号,,13,102,1040061,,,2023-08-29,清算の結了等,,,2020-08-27,1,,,,,ビーロットリート,0
974,5011201000031,登記記録の閉鎖等,0,2023-09-01,2023-08-30,愛光ハニー食品株式会社,,株式会社,東京都,杉並区,阿佐谷北４丁目２２－９－２０１,,13,115,1660001,,,2023-08-30,清算の結了等,,,2015-10-05,1,,,,,アイコウハニーショクヒン,0
991,5020001109949,登記記録の閉鎖等,0,2023-09-01,2023-08-25,株式会社三方良システム舎,,株式会社,神奈川県,川崎市多摩区,菅６丁目１１番１号,,14,135,2140001,,,2023-08-25,清算の結了等,,,2015-10-05,1,,,,,ミホヨシステムシャ,0
1009,5030001096369,登記記録の閉鎖等,0,2023-09-01,2023-08-01,株式会社ゼットプラント,,株式会社,埼玉県,川口市,東川口２丁目３番６号,,11,203,3330801,,,2023-08-01,合併による解散等,9030001081796,令和５年８月１日埼玉県川口市東川口二丁目３番６号株式会社サンゼット（9030001081796）に合併し解散,2015-10-05,1,,,,,ゼットプラント,0
1021,5040001033800,登記記録の閉鎖等,0,2023-09-01,2023-08-16,Ｙ－プランナーズ株式会社,,株式会社,千葉県,浦安市,明海１丁目３番１－８０４号,,12,227,2790014,,,2023-08-16,清算の結了等,,,2015-10-05,1,,,,,ワイプランナーズ,0
1042,5100001019603,登記記録の閉鎖等,0,2023-09-01,2023-08-28,株式会社太陽設備,,株式会社,長野県,岡谷市,加茂町２丁目７番２５号,,20,204,3940003,,,2023-08-28,清算の結了等,,,2015-10-05,1,,,,,タイヨウセツビ,0
1045,5100002011575,登記記録の閉鎖等,0,2023-09-01,2023-08-28,有限会社アクト,,有限会社,長野県,佐久市,小田井１０７７番地１７,,20,217,3850009,,,2023-08-28,清算の結了等,,,2015-10-05,1,,,,,アクト,0
1071,5120105008500,登記記録の閉鎖等,0,2023-09-01,2023-08-31,特定非営利活動法人楽庭楽園,,その他の設立登記法人,大阪府,堺市南区,庭代台４丁４９番２号,,27,145,5900133,,,2023-08-31,清算の結了等,,,2016-05-16,1,,,,,ラクニワラクエン,0
1079,5130003004807,登記記録の閉鎖等,0,2023-09-01,2023-08-10,合同会社Ｋａｍｅｓｏｎ,,合同会社,京都府,八幡市,八幡園内５０番地の４７,,26,210,6148038,,,2023-08-10,清算の結了等,,,2016-10-13,1,,,,,カメソン,0
1080,5130005013228,登記記録の閉鎖等,0,2023-09-01,2023-08-10,一般社団法人財務コンサルタント協会,,その他の設立登記法人,京都府,京都市南区,東九条上殿田町３１番地１レジディア京都駅前４０２,,26,107,6018002,,,2023-08-10,清算の結了等,,,2015-10-05,1,,,,,ザイムコンサルタントキョウカイ,0
1090,5180001088608,登記記録の閉鎖等,0,2023-09-01,2023-08-28,高槻興産株式会社,,株式会社,愛知県,名古屋市中区,新栄３丁目３１番１０号,,23,106,4600007,,,2023-08-28,清算の結了等,,,2015-10-05,1,,,,,タカツキコウサン,0
1112,5290003008841,登記記録の閉鎖等,0,2023-09-01,2023-08-21,合同会社福宝会,,合同会社,福岡県,福岡市西区,下山門３丁目２２番２１－１号,,40,135,8190052,,,2023-08-21,清算の結了等,,,2019-03-11,1,,,,,フクホウカイ,0
1116,5290801029584,登記記録の閉鎖等,0,2023-09-01,2023-07-31,株式会社寿１,,株式会社,福岡県,北九州市小倉南区,石田南２丁目４番１号,,40,107,8020836,,,2023-07-31,合併による解散等,2290801007683,令和５年７月３１日北九州市小倉北区京町三丁目７番１号ガーデンシティ小倉３０１号Ａｉｍｏｗｌ株式会社（2290801007683）に合併し解散,2023-06-13,1,,,,,コトブキワン,0
1117,5310001003560,登記記録の閉鎖等,0,2023-09-01,2023-08-31,株式会社長崎クロスライブラリー,,株式会社,長崎県,長崎市,栄町３番９号,,42,201,8500875,,,2023-08-31,清算の結了等,,,2015-10-05,1,,,,,ナガサキクロスライブラリー,0
1127,5350001010487,登記記録の閉鎖等,0,2023-09-01,2023-08-23,株式会社祇園橘,,株式会社,宮崎県,宮崎市,清水３丁目７番３９号,,45,201,8800021,,,2023-08-23,清算の結了等,,,2015-10-05,1,,,,,ギオンタチバナ,0
1160,6010001041210,登記記録の閉鎖等,0,2023-09-01,2023-08-28,株式会社銀座ベニヤ,,株式会社,東京都,中央区,銀座８丁目６番７号,,13,102,1040061,,,2023-08-28,清算の結了等,,,2015-10-05,1,,,,,ギンザベニヤ,0
1169,6010001214402,登記記録の閉鎖等,0,2023-09-01,2023-08-29,株式会社Ｄｕｌｌｙ,,株式会社,東京都,千代田区,神田錦町２丁目２番地１,,13,101,1010054,,,2023-08-29,清算の結了等,,,2020-12-14,1,,,,,ダリー,0
1188,6010505001379,登記記録の閉鎖等,0,2023-09-01,2023-08-31,特定非営利活動法人草野球協会,,その他の設立登記法人,東京都,台東区,日本堤２丁目３２番５－２０５号,,13,106,1110021,,,2023-08-31,清算の結了等,,,2015-10-05,1,,,,,,0
1189,6010701038480,登記記録の閉鎖等,0,2023-09-01,2023-08-25,株式会社ＧＷ,,株式会社,東京都,渋谷区,広尾３丁目１番１号４００,,13,113,1500012,,,2023-08-25,清算の結了等,,,2019-11-19,1,,,,,ジーダブリュー,0
1203,6011101098710,登記記録の閉鎖等,0,2023-09-01,2023-08-30,株式会社Ｎａｎｏｆｉｂｅｒ　Ｑｕａｎｔｕｍ　Ｔｅｃｈｎｏｌｏｇｉｅｓ,,株式会社,東京都,新宿区,西早稲田１丁目２２番３号,,13,104,1690051,,,2023-08-30,合併による解散等,5011101103545,令和５年８月２３日東京都新宿区西早稲田一丁目２２番３号株式会社Ｎａｎｏｆｉｂｅｒ　Ｑｕａｎｔｕｍ　Ｔｅｃｈｎｏｌｏｇｉｅｓ（5011101103545）に合併し解散,2022-05-06,1,,,,,ナノファイバークオンタムテクノロジーズ,0
1213,6011601005455,登記記録の閉鎖等,0,2023-09-01,2023-08-29,株式会社ネッツ,,株式会社,東京都,練馬区,石神井台２丁目８番８号,,13,120,1770045,,,2023-08-29,清算の結了等,,,2015-10-05,1,,,,,ネッツ,0
1215,6011603000818,登記記録の閉鎖等,0,2023-09-01,2023-08-29,合同会社オープンデスク,,合同会社,東京都,練馬区,関町南３丁目１１番１６－２４６号,,13,120,1770053,,,2023-08-29,清算の結了等,,,2015-10-05,1,,,,,オープンデスク,0
1229,6020001143138,登記記録の閉鎖等,0,2023-09-01,2023-08-28,株式会社テンジク,,株式会社,神奈川県,川崎市高津区,下作延２丁目２０番５２号スマートコンパクト溝の口１０２号,,14,134,2130033,,,2023-08-28,清算の結了等,,,2021-09-30,1,,,,,テンジク,0
1235,6021001070941,登記記録の閉鎖等,0,2023-09-01,2023-08-28,株式会社ハレ,,株式会社,神奈川県,小田原市,飯田岡５番地の８,,14,206,2500854,,,2023-08-28,清算の結了等,,,2020-09-30,1,,,,,ハレ,0
1253,6030005020043,登記記録の閉鎖等,0,2023-09-01,2023-08-03,一般社団法人コロナ除菌協会,,その他の設立登記法人,埼玉県,川越市,大字古市場４２８番地５（３Ｆ）,,11,201,3500014,,,2023-08-03,清算の結了等,,,2020-08-21,1,,,,,コロナジョキンキョウカイ,0
1275,6050001047278,登記記録の閉鎖等,0,2023-09-01,2023-08-29,株式会社人材定着と品質確保,,株式会社,茨城県,日立市,東金沢町１丁目２３番３０号,,08,202,3160014,,,2023-08-29,清算の結了等,,,2020-03-10,1,,,,,ジンザイテイチャクトヒンシツカクホ,0
1290,6080105005749,登記記録の閉鎖等,0,2023-09-01,2023-08-29,一般財団法人安川信子医学奨励基金,,その他の設立登記法人,静岡県,田方郡函南町,畑５２９番地の１２７,,22,325,4190104,,,2023-08-29,清算の結了等,,,2017-05-10,1,,,,,ヤスカワノブコイガクショウレイキキン,0
1321,6130002024598,登記記録の閉鎖等,0,2023-09-01,2023-08-16,有限会社トレーディングリサーチ,,有限会社,京都府,八幡市,八幡土井３３,,26,210,6148002,,,2023-08-16,清算の結了等,,,2015-10-05,1,,,,,トレーディングリサーチ,0
1324,6140001014459,登記記録の閉鎖等,0,2023-09-01,2023-08-25,株式会社ヤマロク,,株式会社,兵庫県,神戸市兵庫区,中之島１丁目１番１号,,28,105,6520844,,,2023-08-25,清算の結了等,,,2015-10-05,1,,,,,ヤマロク,0
1340,6180002011699,登記記録の閉鎖等,0,2023-09-01,2023-08-25,有限会社杉本サービス,,有限会社,愛知県,名古屋市北区,楠味鋺３丁目２３１２番地,,23,103,4620014,,,2023-08-25,清算の結了等,,,2015-10-05,1,,,,,スギモトサービス,0
1343,6180005013890,登記記録の閉鎖等,0,2023-09-01,2023-08-30,特定非営利活動法人大治福祉向上実践会,,その他の設立登記法人,愛知県,海部郡大治町,大字中島字大門先１３９番地,,23,424,4901145,,,2023-08-30,清算の結了等,,,2015-10-05,1,,,,,オオハルフクシコウジョウジッセンカイ,0
1346,6200001016267,登記記録の閉鎖等,0,2023-09-01,2023-08-30,大和測量設計株式会社,,株式会社,岐阜県,揖斐郡池田町,片山１４９４番地,,21,404,5032428,,,2023-08-30,清算の結了等,,,2015-10-05,1,,,,,ダイワソクリョウセッケイ,0
1348,6200003005029,登記記録の閉鎖等,0,2023-09-01,2023-08-29,合同会社スレッド,,合同会社,岐阜県,瑞浪市,北小田町１丁目２３４番地ハイツ・プロバンス２０５号,,21,208,5096115,,,2023-08-29,清算の結了等,,,2020-12-11,1,,,,,スレッド,0
1351,6240001056227,登記記録の閉鎖等,0,2023-09-01,2023-08-31,株式会社ｍｔ　ｙｏｕ,,株式会社,広島県,広島市中区,幟町１０番１６号,,34,101,7300016,,,2023-08-31,清算の結了等,,,2020-06-10,1,,,,,エムティーユー,0
1353,6240002023985,登記記録の閉鎖等,0,2023-09-01,2023-08-31,有限会社エイブル,,有限会社,広島県,広島市安芸区,畑賀３丁目２９番４号,,34,107,7360088,,,2023-08-31,清算の結了等,,,2015-10-05,1,,,,,エイブル,0
1361,6290001000279,登記記録の閉鎖等,0,2023-09-01,2023-08-18,株式会社松栄生コン販売,,株式会社,福岡県,福岡市西区,周船寺２丁目８番３５号,,40,135,8190373,,,2023-08-18,清算の結了等,,,2015-10-05,1,,,,,ショウエイナマコンハンバイ,0
1368,6290002003545,登記記録の閉鎖等,0,2023-09-01,2023-08-21,有限会社プランニングハウスウイズ,,有限会社,福岡県,福岡市中央区,警固２丁目１６番６－３０２号,,40,133,8100023,,,2023-08-21,清算の結了等,,,2015-10-05,1,,,,,プランニングハウスウイズ,0
1369,6290002026546,登記記録の閉鎖等,0,2023-09-01,2023-08-21,有限会社シノハラ住設サービス,,有限会社,福岡県,福岡市早良区,田村７丁目１０番２０号,,40,137,8140175,,,2023-08-21,清算の結了等,,,2015-10-05,1,,,,,シノハラジュウセツサービス,0
1377,6300001013238,登記記録の閉鎖等,0,2023-09-01,2023-08-30,よしふく水産株式会社,,株式会社,佐賀県,唐津市,浜玉町横田下８６２番地８,,41,202,8495122,,,2023-08-30,清算の結了等,,,2023-03-10,1,,,,,ヨシフクスイサン,0
1388,6350001015700,登記記録の閉鎖等,0,2023-09-01,2023-08-23,株式会社フィースト,,株式会社,宮崎県,児湯郡新富町,大字新田１６４９０番地１,,45,402,8891406,,,2023-08-23,清算の結了等,,,2019-03-07,1,,,,,フィースト,0
1397,6380002024169,登記記録の閉鎖等,0,2023-09-01,2023-08-28,有限会社写空間,,有限会社,福島県,いわき市,内郷御厩町３丁目８１番地,00083902,07,204,9738402,,,2023-08-28,清算の結了等,,,2015-10-05,1,,,,,シャクウカン,0
1400,6390002011117,登記記録の閉鎖等,0,2023-09-01,2023-08-30,有限会社万世商店,,有限会社,山形県,最上郡舟形町,舟形１１３番地,,06,363,9994601,,,2023-08-30,清算の結了等,,,2015-10-05,1,,,,,バンゼイショウテン,0
1404,6430001043296,登記記録の閉鎖等,0,2023-09-01,2023-08-14,株式会社イーアイ保険サービス,,株式会社,北海道,江別市,野幌屯田町３２番地２江陽ビル２階,,01,217,0690803,,,2023-08-14,清算の結了等,,,2015-10-05,1,,,,,イーアイホケンサービス,0
1434,7010005032428,登記記録の閉鎖等,0,2023-09-01,2023-08-29,一般社団法人ビーロットリート２,,その他の設立登記法人,東京都,中央区,銀座７丁目２番２２号,,13,102,1040061,,,2023-08-29,清算の結了等,,,2020-10-16,1,,,,,ビーロットリートツー,0
1436,7010102002267,登記記録の閉鎖等,0,2023-09-01,2023-08-31,有限会社グループ・ワークス,,有限会社,東京都,八王子市,並木町２番９号,,13,201,1930831,,,2023-08-31,清算の結了等,,,2015-10-05,1,,,,,グループワークス,0
1448,7010401166176,登記記録の閉鎖等,0,2023-09-01,2023-08-09,株式会社Ｍ＆Ａカレッジ,,株式会社,東京都,港区,六本木３丁目４－２コープ野村六本木１－３０５号室,,13,103,1060032,,,2023-08-09,清算の結了等,,,2022-03-16,1,,,,,エムアンドエーカレッジ,0
1450,7010403021494,登記記録の閉鎖等,0,2023-09-01,2023-08-18,アジアライフ１合同会社,,合同会社,東京都,港区,虎ノ門３丁目２２番１０－２０１号,,13,103,1050001,,,2023-08-18,清算の結了等,,,2019-09-24,1,,,,,アジアライフワン,0
1453,7010405016377,登記記録の閉鎖等,0,2023-09-01,2023-08-09,一般社団法人ＳＨ０１４,,その他の設立登記法人,東京都,港区,虎ノ門３丁目２２番１０－２０１号,,13,103,1050001,,,2023-08-09,清算の結了等,,,2018-01-19,1,,,,,エスエイチゼロワンフォー,0
1456,7010502014671,登記記録の閉鎖等,0,2023-09-01,2023-08-30,有限会社丸喜截断,,有限会社,東京都,台東区,橋場１丁目３３番２号,,13,106,1110023,,,2023-08-30,清算の結了等,,,2015-10-05,1,,,,,マルキサイダン,0
1458,7010802011848,登記記録の閉鎖等,0,2023-09-01,2023-08-30,有限会社ビーエム商事,,有限会社,東京都,大田区,南蒲田２丁目１３番２号,,13,111,1440035,,,2023-08-30,清算の結了等,,,2015-10-05,1,,,,,ビーエムショウジ,0
1460,7010803003489,登記記録の閉鎖等,0,2023-09-01,2023-08-30,合同会社新装ハウジング,,合同会社,東京都,大田区,大森中２丁目１５番９号フローリッシュＳＩ２０１号室,00120906,13,111,1430014,,,2023-08-30,清算の結了等,,,2020-10-01,1,,,,,,0
1477,7011101046486,登記記録の閉鎖等,0,2023-09-01,2023-08-07,株式会社光成,,株式会社,埼玉県,川越市,岸町１丁目３７番地１１,,11,201,3501131,,,2023-08-07,清算の結了等,,,2015-10-05,1,,,,,コウセイ,0
1501,7012801019293,登記記録の閉鎖等,0,2023-09-01,2023-08-30,Ｋ’ｓ暖ダイニング株式会社,,株式会社,東京都,国立市,石田６６２番地矢川南マンション３０３,,13,215,1860014,,,2023-08-30,清算の結了等,,,2019-03-12,1,,,,,,0
1506,7020001039343,登記記録の閉鎖等,0,2023-09-01,2023-08-28,株式会社リープエムケイ,,株式会社,神奈川県,横浜市都筑区,茅ケ崎中央２０－１２ＰａｓｔａＩＩ２Ｆ,00107649,14,118,2240032,,,2023-08-28,清算の結了等,,,2015-10-05,1,,,,,リープエムケイ,0
1510,7020001136529,登記記録の閉鎖等,0,2023-09-01,2023-08-17,ＡｌｍａｎｄＫ株式会社,,株式会社,神奈川県,川崎市中原区,中丸子１３－１０,,14,133,2110012,,,2023-08-17,清算の結了等,,,2020-06-19,1,,,,,アーマンディック,0
1513,7020003016869,登記記録の閉鎖等,0,2023-09-01,2023-08-28,合同会社今村商会,,合同会社,神奈川県,横浜市戸塚区,俣野町１４０３番地ドリームハイツ１３棟１４０１号,,14,110,2450066,,,2023-08-28,清算の結了等,,,2019-11-01,1,,,,,イマムラショウカイ,0
1514,7020003018592,登記記録の閉鎖等,0,2023-09-01,2023-08-28,合同会社ジングループ,,合同会社,神奈川県,横浜市港北区,高田東２丁目１番３号１Ｆ,,14,109,2230065,,,2023-08-28,清算の結了等,,,2020-10-06,1,,,,,ジングループ,0
1521,7030002080320,登記記録の閉鎖等,0,2023-09-01,2023-08-03,有限会社リジョイス,,有限会社,埼玉県,川越市,大字今福７２８番地３０,,11,201,3501151,,,2023-08-03,清算の結了等,,,2015-10-05,1,,,,,リジョイス,0
1528,7040001070973,登記記録の閉鎖等,0,2023-09-01,2023-08-16,株式会社グッドライフクリエート,,株式会社,千葉県,我孫子市,白山２丁目１８番１７号,,12,222,2701154,,,2023-08-16,清算の結了等,,,2015-10-05,1,,,,,グッドライフクリエート,0
1542,7110001009840,登記記録の閉鎖等,0,2023-09-01,2023-08-28,株式会社Ｇ＆Ｇ,,株式会社,神奈川県,横浜市都筑区,中川１丁目１８－１１皆川ビル１Ｆ,,14,118,2240001,,,2023-08-28,合併による解散等,7110001009345,令和５年８月１日新潟市秋葉区新津４４６２番地３ＢＤコーポレーション株式会社（7110001009345）に合併し解散,2015-10-05,1,,,,,ジーアンドジー,0
1565,7140001125008,登記記録の閉鎖等,0,2023-09-01,2023-08-31,株式会社ウイングウイングワールド,,株式会社,兵庫県,神戸市中央区,元町通５丁目３番４号,,28,110,6500022,,,2023-08-31,清算の結了等,,,2022-02-22,1,,,,,ウイングウイングワールド,0
1570,7140002038076,登記記録の閉鎖等,0,2023-09-01,2023-08-29,有限会社オートテクノセンター,,有限会社,兵庫県,加古郡稲美町,岡字拾七町２６１４番地の８,,28,381,6751113,,,2023-08-29,清算の結了等,,,2015-10-05,1,,,,,オートテクノセンター,0
1579,7180001084332,登記記録の閉鎖等,0,2023-09-01,2023-08-23,株式会社永田企画,,株式会社,愛知県,一宮市,開明字杁西郭５３番地,,23,203,4940001,,,2023-08-23,清算の結了等,,,2015-10-05,1,,,,,ナガタキカク,0
1584,7180002087680,登記記録の閉鎖等,0,2023-09-01,2023-08-29,有限会社コスモ,,有限会社,愛知県,半田市,平地町５丁目５８番地の４,,23,205,4750081,,,2023-08-29,清算の結了等,,,2015-10-05,1,,,,,コスモ,0
1586,7190005011629,登記記録の閉鎖等,0,2023-09-01,2023-08-22,菰野茶屋の上開拓農業協同組合,,その他の設立登記法人,三重県,三重郡菰野町,大字菰野８３４９番地の７,,24,341,5101233,,,2023-08-22,清算の結了等,,,2021-10-14,1,,,,,コモノチャヤノウエカイタク,0
1591,7230001004458,登記記録の閉鎖等,0,2023-09-01,2023-08-31,孝和技建株式会社,,株式会社,富山県,富山市,開１３２番地の５,,16,201,9300944,,,2023-08-31,清算の結了等,,,2015-10-05,1,,,,,コウワギケン,0
1598,7250002012004,登記記録の閉鎖等,0,2023-09-01,2023-08-29,有限会社カラト情報センター,,有限会社,山口県,下関市,彦島西山町４丁目１１番３９号,,35,201,7500093,,,2023-08-29,清算の結了等,,,2015-10-05,1,,,,,カラトジョウホウセンター,0
1614,7360002010863,登記記録の閉鎖等,0,2023-09-01,2023-08-31,有限会社ライフサポートなの花,,有限会社,沖縄県,島尻郡与那原町,字板良敷７２０番地の６,,47,348,9011301,,,2023-08-31,清算の結了等,,,2015-10-05,1,,,,,ライフサポートナノハナ,0
1630,7480001010530,登記記録の閉鎖等,0,2023-09-01,2023-08-31,株式会社マイクロ・ナイトライド,,株式会社,徳島県,鳴門市,瀬戸町明神字板屋島１１５番地の７,,36,202,7710360,,,2023-08-31,清算の結了等,,,2018-11-07,1,,,,,マイクロナイトライド,0
1646,8010002031679,登記記録の閉鎖等,0,2023-09-01,2023-08-28,有限会社エヌエスシー,,有限会社,東京都,千代田区,外神田３丁目１０番８号,,13,101,1010021,,,2023-08-28,清算の結了等,,,2015-10-05,1,,,,,エヌエスシー,0
1662,8010701041739,登記記録の閉鎖等,0,2023-09-01,2023-08-30,株式会社ＡＮＹＴＩＭＥＧＯＬＦ,,株式会社,東京都,品川区,上大崎３丁目１－２－３９１０,,13,109,1410021,,,2023-08-30,清算の結了等,,,2021-11-02,1,,,,,エニタイムゴルフ,0
1673,8011103004185,登記記録の閉鎖等,0,2023-09-01,2023-08-29,エコ・ソート合同会社,,合同会社,東京都,中央区,日本橋蛎殻町１丁目３４番２号,,13,102,1030014,,,2023-08-29,清算の結了等,,,2015-10-05,1,,,,,エコソート,0
1674,8011103006875,登記記録の閉鎖等,0,2023-09-01,2023-08-30,合同会社ＥＳ４５,,合同会社,東京都,新宿区,下宮比町１番４号,,13,104,1620822,,,2023-08-30,清算の結了等,,,2017-03-07,1,,,,,イーエスヨンジュウゴ,0
1693,8020001029822,登記記録の閉鎖等,0,2023-09-01,2023-08-25,株式会社清道建鉄,,株式会社,神奈川県,横浜市瀬谷区,阿久和東４丁目２３番地１２,,14,114,2460023,,,2023-08-25,清算の結了等,,,2015-10-05,1,,,,,,0
1695,8020001079495,登記記録の閉鎖等,0,2023-09-01,2023-08-25,株式会社さわコーポレーション,,株式会社,東京都,中央区,日本橋茅場町２丁目７番２号佑昌ビル,,13,102,1030025,,,2023-08-25,清算の結了等,,,2015-10-05,1,,,,,サワコーポレーション,0
1700,8020001105532,登記記録の閉鎖等,0,2023-09-01,2023-08-28,フジサンライズ株式会社,,株式会社,神奈川県,横浜市保土ケ谷区,新井町３０１番地１,,14,106,2400053,,,2023-08-28,清算の結了等,,,2015-10-05,1,,,,,フジサンライズ,0
1701,8020001129754,登記記録の閉鎖等,0,2023-09-01,2023-08-28,株式会社アセットマネジメント,,株式会社,神奈川県,横浜市中区,尾上町３丁目４３番地,,14,104,2310015,,,2023-08-28,清算の結了等,,,2019-02-05,1,,,,,アセットマネジメント,0
1710,8030001125174,登記記録の閉鎖等,0,2023-09-01,2023-08-04,株式会社ヨーソロー,,株式会社,埼玉県,三郷市,戸ケ崎３丁目２４４番地１８,,11,237,3410044,,,2023-08-04,清算の結了等,,,2018-04-12,1,,,,,ヨーソロー,0
1736,8080002009603,登記記録の閉鎖等,0,2023-09-01,2023-08-31,有限会社割烹若ざわ,,有限会社,静岡県,静岡市清水区,駒越中１丁目１７番３８号,,22,103,4240904,,,2023-08-31,清算の結了等,,,2015-10-05,1,,,,,,0
1742,8100002006036,登記記録の閉鎖等,0,2023-09-01,2023-08-28,有限会社原山建材,,有限会社,長野県,上水内郡信濃町,大字平岡４７６番地１,,20,583,3891315,,,2023-08-28,清算の結了等,,,2015-10-05,1,,,,,ハラヤマケンザイ,0
1744,8100005010596,登記記録の閉鎖等,0,2023-09-01,2023-08-25,特定非営利活動法人グリーンケアーＮＡＧＡＮＯ,,その他の設立登記法人,長野県,長野市,篠ノ井布施高田２７９番地２１,,20,201,3888007,,,2023-08-25,清算の結了等,,,2015-10-05,1,,,,,グリーンケアーナガノ,0
1745,8110001005698,登記記録の閉鎖等,0,2023-09-01,2023-08-31,株式会社ユープラン,,株式会社,新潟県,新潟市中央区,上所３丁目５番１３号,,15,103,9500994,,,2023-08-31,清算の結了等,,,2015-10-05,1,,,,,ユープラン,0
1763,8120002067398,登記記録の閉鎖等,0,2023-09-01,2023-08-31,有限会社ネットファースト,,有限会社,大阪府,大阪市北区,末広町１番１４号,,27,127,5300053,,,2023-08-31,清算の結了等,,,2015-10-05,1,,,,,ネットファースト,0
1788,8140002021238,登記記録の閉鎖等,0,2023-09-01,2023-08-30,有限会社摩耶エレクトロニクス,,有限会社,兵庫県,神戸市兵庫区,石井町１丁目３番１０号,,28,105,6520061,,,2023-08-30,清算の結了等,,,2015-10-05,1,,,,,マヤエレクトロニクス,0
1796,8150005008735,登記記録の閉鎖等,0,2023-09-01,2023-08-31,特定非営利活動法人橿原市手をつなぐ育成会,,その他の設立登記法人,奈良県,橿原市,常盤町３１番４５,,29,205,6340003,,,2023-08-31,清算の結了等,,,2016-06-22,1,,,,,カシハラシテヲツナグイクセイカイ,0
1812,8190002014047,登記記録の閉鎖等,0,2023-09-01,2023-08-29,有限会社大海不動産,,有限会社,三重県,松阪市,駅部田町１７９０番地,,24,204,5150045,,,2023-08-29,清算の結了等,,,2015-10-05,1,,,,,ダイカイフドウサン,0
1822,8240001051077,登記記録の閉鎖等,0,2023-09-01,2023-08-30,株式会社セレモニーサポート,,株式会社,広島県,尾道市,東則末町９番４１号,,34,205,7220023,,,2023-08-30,清算の結了等,,,2017-05-10,1,,,,,セレモニーサポート,0
1825,8260002005600,登記記録の閉鎖等,0,2023-09-01,2023-08-31,有限会社瀬戸大建設,,有限会社,岡山県,岡山市東区,可知５丁目１２９番地の２,,33,103,7048173,,,2023-08-31,清算の結了等,,,2015-10-05,1,,,,,セトヒロケンセツ,0
1855,8390001008046,登記記録の閉鎖等,0,2023-09-01,2023-08-30,株式会社庄内花き市場,,株式会社,山形県,東田川郡三川町,大字押切新田字茨谷地５０番地,,06,426,9971321,,,2023-08-30,清算の結了等,,,2015-10-05,1,,,,,ショウナイカキシジョウ,0
1860,8410002000065,登記記録の閉鎖等,0,2023-09-01,2023-08-25,有限会社アオキゴルフサービス,,有限会社,秋田県,秋田市,川尻若葉町３番１９号,,05,201,0100944,,,2023-08-25,清算の結了等,,,2015-10-05,1,,,,,アオキゴルフサービス,0
1866,8420001009107,登記記録の閉鎖等,0,2023-09-01,2023-08-28,株式会社白石医療器,,株式会社,青森県,弘前市,大字神田５丁目８番地５,,02,202,0368061,,,2023-08-28,合併による解散等,3400001001755,令和５年６月１日岩手県盛岡市愛宕町１５番９号共立医科器械株式会社（3400001001755）に合併し解散,2015-10-05,1,,,,,,0
1870,8430002027882,登記記録の閉鎖等,0,2023-09-01,2023-08-15,有限会社末木設備工事,,有限会社,北海道,札幌市手稲区,曙八条１丁目９番６号,00089349,01,109,0060838,,,2023-08-15,清算の結了等,,,2015-10-05,1,,,,,スエキセツビコウジ,0
1874,8460302003036,登記記録の閉鎖等,0,2023-09-01,2023-08-29,遠軽建物管理有限会社,,有限会社,北海道,紋別郡遠軽町,南町３丁目１４番地５,,01,555,0990414,,,2023-08-29,清算の結了等,,,2015-10-05,1,,,,,エンガルタテモノカンリ,0
1883,9010001137311,登記記録の閉鎖等,0,2023-09-01,2023-08-28,株式会社ｋａｙａ,,株式会社,東京都,中央区,築地６丁目２番１２－４１２号,,13,102,1040045,,,2023-08-28,清算の結了等,,,2015-10-05,1,,,,,カヤ,0
1895,9010405017489,登記記録の閉鎖等,0,2023-09-01,2023-08-09,一般社団法人みさき,,その他の設立登記法人,東京都,港区,虎ノ門３丁目２２番１０－２０１号,,13,103,1050001,,,2023-08-09,清算の結了等,,,2019-02-28,1,,,,,ミサキ,0
1897,9010601017103,登記記録の閉鎖等,0,2023-09-01,2023-08-25,株式会社堀英ニット,,株式会社,東京都,墨田区,石原２丁目６番１０号,,13,107,1300011,,,2023-08-25,清算の結了等,,,2015-10-05,1,,,,,,0
1904,9010901006508,登記記録の閉鎖等,0,2023-09-01,2023-08-28,株式会社セレクト,,株式会社,神奈川県,横浜市旭区,上川井町３５７番地５,,14,112,2410802,,,2023-08-28,清算の結了等,,,2015-10-05,1,,,,,セレクト,0
1906,9010901027660,登記記録の閉鎖等,0,2023-09-01,2023-08-28,株式会社ｃｈｒｏｎｏ　ｓｔｙｌｅ,,株式会社,東京都,新宿区,西新宿７丁目５番９号ファーストリアルタワー新宿２４０３号,,13,104,1600023,,,2023-08-28,清算の結了等,,,2015-10-05,1,,,,,クロノスタイル,0
1918,9011005006403,登記記録の閉鎖等,0,2023-09-01,2023-08-02,一般社団法人Ｒｕｎｗａｙ　ｆｏｒ　Ｈｏｐｅ,,その他の設立登記法人,東京都,港区,新橋２丁目１６番１号ニュー新橋ビル９階,,13,103,1050004,,,2023-08-02,清算の結了等,,,2015-10-05,1,,,,,ランウェイフォーホープ,0
1920,9011101089343,登記記録の閉鎖等,0,2023-09-01,2023-08-31,株式会社ホンムラー,,株式会社,東京都,新宿区,市谷八幡町８番地,,13,104,1620844,,,2023-08-31,清算の結了等,,,2019-10-28,1,,,,,ホンムラー,0
1938,9012701012891,登記記録の閉鎖等,0,2023-09-01,2023-08-03,株式会社ＭＥＴＡ,,株式会社,埼玉県,入間市,大字下藤沢１１１０番地１レーベンハイム７０５,,11,225,3580011,,,2023-08-03,清算の結了等,,,2015-10-05,1,,,,,メタ,0
1947,9020001008668,登記記録の閉鎖等,0,2023-09-01,2023-08-28,株式会社サカイリモデル,,株式会社,神奈川県,横浜市都筑区,すみれが丘１５番地の１,,14,118,2240013,,,2023-08-28,清算の結了等,,,2015-10-05,1,,,,,サカイリモデル,0
1980,9050003001742,登記記録の閉鎖等,0,2023-09-01,2023-08-28,合資会社丸三酒店,,合資会社,茨城県,久慈郡大子町,大字大子６９５番地の５,,08,364,3193526,,,2023-08-28,清算の結了等,,,2015-10-05,1,,,,,マルサンサケテン,0
1988,9090002010889,登記記録の閉鎖等,0,2023-09-01,2023-08-28,有限会社辺見建築,,有限会社,山梨県,山梨市,牧丘町窪平１１２２番地,,19,205,4040013,,,2023-08-28,清算の結了等,,,2015-10-05,1,,,,,ヘンミケンチク,0
2033,9170002006672,登記記録の閉鎖等,0,2023-09-01,2023-08-30,網代海運有限会社,,有限会社,和歌山県,海南市,下津町大崎８２４番地,,30,202,6490112,,,2023-08-30,清算の結了等,,,2015-10-05,1,,,,,アジロカイウン,0
2034,9180001016787,登記記録の閉鎖等,0,2023-09-01,2023-08-28,株式会社サンバースト,,株式会社,愛知県,名古屋市東区,東桜１丁目１０番２９号,,23,102,4610005,,,2023-08-28,清算の結了等,,,2015-10-05,1,,,,,サンバースト,0
2059,9260001009725,登記記録の閉鎖等,0,2023-09-01,2023-08-30,株式会社やすかわでんき,,株式会社,岡山県,岡山市南区,西紅陽台２丁目５８番地４６５,,33,104,7091203,,,2023-08-30,清算の結了等,,,2015-10-05,1,,,,,ヤスカワデンキ,0
2082,9350001012694,登記記録の閉鎖等,0,2023-09-01,2023-08-22,フィナンシャルパートナー株式会社,,株式会社,宮崎県,宮崎市,錦町６番３号６１０,,45,201,8800811,,,2023-08-22,清算の結了等,,,2015-10-05,1,,,,,フィナンシャルパートナー,0
2083,9360001015548,登記記録の閉鎖等,0,2023-09-01,2023-08-31,ＩＳＨＩＫＡＷＡ重機株式会社,,株式会社,沖縄県,島尻郡南風原町,字与那覇５３９番地１コーポサンフレンドＡ２０３,,47,350,9011103,,,2023-08-31,清算の結了等,,,2015-10-05,1,,,,,イシカワジュウキ,0
