sequenceNumber,corporateNumber,process,correct,updateDate,changeDate,name,nameImageId,kind,prefectureName,cityName,streetNumber,addressImageId,prefectureCode,cityCode,postCode,addressOutside,addressOutsideImageId,closeDate,closeCause,successorCorporateNumber,changeCause,assignmentDate,latest,enName,enPrefectureName,enCityName,enAddressOutside,furigana,hihyoji
8,1010001231889,新規,0,2022-12-28,2022-12-28,株式会社トップスター,,株式会社,東京都,千代田区,丸の内１丁目１１番１号パシフィックセンチュリープレイス１３階,,13,101,1000005,,,,,,,2022-12-28,1,,,,,トップスター,0
9,1010001231897,新規,0,2022-12-28,2022-12-28,株式会社Ｃｌｏｕｄ　Ｎａｖｉ,,株式会社,東京都,中央区,日本橋小網町８－２,,13,102,1030016,,,,,,,2022-12-28,1,,,,,クラウドナビ,0
13,1010003039447,新規,0,2022-12-28,2022-12-28,ＧＲＥ　Ｉｎｔｅｒｎａｔｉｏｎａｌ合同会社,,合同会社,東京都,千代田区,富士見１丁目３番１１号富士見デュープレックスＢ’ｓ４Ｆ,,13,101,1020071,,,,,,,2022-12-28,1,,,,,ジーアールイーインターナショナル,0
19,1010101015473,新規,0,2022-12-28,2022-12-28,株式会社ＡＯＬＺＥＲ,,株式会社,東京都,八王子市,追分町５番１２号ひまわりビル１０２号,,13,201,1920056,,,,,,,2022-12-28,1,,,,,オーザー,0
22,1010401171578,新規,0,2022-12-28,2022-12-28,ＩＰｗｅ　Ｊａｐａｎ株式会社,,株式会社,東京都,港区,元麻布３丁目１番６号,,13,103,1060046,,,,,,,2022-12-28,1,,,,,アイピーウィージャパン,0
33,1010403029205,新規,0,2022-12-28,2022-12-28,合同会社帯広キャピタル,,合同会社,東京都,港区,六本木６丁目１０番１号六本木ヒルズ森タワー,,13,103,1060032,,,,,,,2022-12-28,1,,,,,オビヒロキャピタル,0
35,1010405021655,新規,0,2022-12-28,2022-12-28,社会保険労務士法人港国際社会保険労務士事務所,,その他の設立登記法人,東京都,港区,港南２丁目１２番２８－１８０１号室,,13,103,1080075,,,,,,,2022-12-28,1,,,,,ミナトコクサイシャカイホケンロウムシジムショ,0
55,1011001151697,新規,0,2022-12-28,2022-12-28,株式会社オリウム,,株式会社,東京都,渋谷区,猿楽町２８番６号ノイネスト代官山２階,,13,113,1500033,,,,,,,2022-12-28,1,,,,,オリウム,0
62,1011103012541,新規,0,2022-12-28,2022-12-28,合同会社アノアイノ,,合同会社,東京都,新宿区,四谷三栄町２－３プレミスト四谷ソシアコート９０１,,13,104,1600008,,,,,,,2022-12-28,1,,,,,アノアイノ,0
85,1020001149593,新規,0,2022-12-28,2022-12-28,株式会社かがやき住販,,株式会社,神奈川県,横浜市港北区,篠原町１０７４番地１３,,14,109,2220026,,,,,,,2022-12-28,1,,,,,カガヤキジュウハン,0
86,1020001149602,新規,0,2022-12-28,2022-12-28,株式会社アールツーＰｌｕｓＤ建築設計,,株式会社,神奈川県,横浜市泉区,和泉中央北２丁目４０番１８号,,14,116,2450024,,,,,,,2022-12-28,1,,,,,アールツープラスディーケンチクセッケイ,0
87,1020001149610,新規,0,2022-12-28,2022-12-28,ティーオーシャン株式会社,,株式会社,神奈川県,横浜市港北区,下田町６丁目１０番２２号,,14,109,2230064,,,,,,,2022-12-28,1,,,,,ティーオーシャン,0
93,1021001077818,新規,0,2022-12-28,2022-12-28,株式会社ＰＲＩＭＥ　ＰＯＲＴ,,株式会社,神奈川県,小田原市,中町３丁目１０番１１号１０１号室,,14,206,2500005,,,,,,,2022-12-28,1,,,,,プライムポート,0
97,1030001151680,新規,0,2022-12-28,2022-12-28,東和株式会社,,株式会社,埼玉県,戸田市,笹目６丁目８番地の１４,,11,224,3350034,,,,,,,2022-12-28,1,,,,,トウワ,0
98,1030003020834,新規,0,2022-12-28,2022-12-28,合同会社Ｔ．Ｈ．Ｅ　Ｐｒｏｄｕｃｔｉｏｎ,,合同会社,埼玉県,川口市,末広１丁目１６番７－３１１号,,11,203,3320006,,,,,,,2022-12-28,1,,,,,ティーエイチイープロダクション,0
106,1040001126392,新規,0,2022-12-28,2022-12-28,株式会社ＨＵＬＫ　ｓｔｙｌｅ,,株式会社,千葉県,市川市,下貝塚３丁目６番７号,,12,203,2720821,,,,,,,2022-12-28,1,,,,,ハルクスタイル,0
108,1050001052159,新規,0,2022-12-28,2022-12-28,株式会社根本商事,,株式会社,茨城県,土浦市,板谷４丁目６６７番地９５,,08,203,3000007,,,,,,,2022-12-28,1,,,,,ネモトショウジ,0
113,1080001025368,新規,0,2022-12-28,2022-12-28,株式会社ＬｕＭＥＭＥ,,株式会社,静岡県,静岡市駿河区,西中原１丁目５番３２号オフィスシャロー２０４号室,,22,102,4228053,,,,,,,2022-12-28,1,,,,,ルミーム,0
119,1110003004952,新規,0,2022-12-28,2022-12-28,合同会社ＣｏＤｅ‐８,,合同会社,新潟県,上越市,柿崎区百木４２８番地,,15,222,9493241,,,,,,,2022-12-28,1,,,,,コードエイト,0
129,1120001251323,新規,0,2022-12-28,2022-12-28,株式会社ＭＦコーポレーション,,株式会社,大阪府,大阪市中央区,内淡路町１丁目４番１号,,27,128,5400038,,,,,,,2022-12-28,1,,,,,エムエフコーポレーション,0
130,1120001251331,新規,0,2022-12-28,2022-12-28,株式会社ウェブ・アイディア,,株式会社,大阪府,大阪市浪速区,幸町３丁目４番１０号,,27,111,5560021,,,,,,,2022-12-28,1,,,,,ウェブアイディア,0
131,1120001251348,新規,0,2022-12-28,2022-12-28,Ａ　ｇｌｏｂａｌ　ｈａｒｍｏｎｙグループ株式会社,,株式会社,大阪府,大阪市東淀川区,東中島１丁目２０番１２号ユニゾーン新大阪５２４号室,,27,114,5330033,,,,,,,2022-12-28,1,,,,,エーグローバルハーモニーグループ,0
132,1120001251356,新規,0,2022-12-28,2022-12-28,ヤルキジャパン株式会社,,株式会社,大阪府,大阪市鶴見区,今津中２丁目４番２６・２－Ｄ,,27,124,5380042,,,,,,,2022-12-28,1,,,,,ヤルキジャパン,0
133,1120001251372,新規,0,2022-12-28,2022-12-28,株式会社エッジライン,,株式会社,大阪府,大阪市城東区,諏訪２丁目７番１４号,,27,118,5360021,,,,,,,2022-12-28,1,,,,,エッジライン,0
134,1120001251380,新規,0,2022-12-28,2022-12-28,Ｉｒｉｓｓｔｏｒｅ株式会社,,株式会社,大阪府,大阪市中央区,船場中央２丁目１番４号船場センタービル４号館地下一階Ｂ１０８ＲＯＹＡＬＯＦＦＩＣＥ内,,27,128,5410055,,,,,,,2022-12-28,1,,,,,アイリスストア,0
135,1120001251397,新規,0,2022-12-28,2022-12-28,ＯＮＥＮＩＮＥ株式会社,,株式会社,大阪府,大阪市中央区,内平野町１丁目２番４号Ｇ－ＳＴＹＬＥ天満橋１４０２,,27,128,5400037,,,,,,,2022-12-28,1,,,,,ワンナイン,0
136,1120001251422,新規,0,2022-12-28,2022-12-28,株式会社ビーフロア,,株式会社,大阪府,大阪市東成区,神路３丁目４番１９号,,27,115,5370003,,,,,,,2022-12-28,1,,,,,ビーフロア,0
142,1120101066712,新規,0,2022-12-28,2022-12-28,株式会社マルシン自動車,,株式会社,大阪府,堺市中区,新家町５８７番地,,27,142,5998232,,,,,,,2022-12-28,1,,,,,マルシンジドウシャ,0
144,1122001036514,新規,0,2022-12-28,2022-12-28,株式会社ｅｎｊｏｙＦ,,株式会社,大阪府,東大阪市,瓢箪山町２番３号ひょうたんビル２階,,27,227,5798051,,,,,,,2022-12-28,1,,,,,エンジョイエフ,0
145,1122001036539,新規,0,2022-12-28,2022-12-28,株式会社ＬＨ　ｒｅｃｏｖｅｒｙ,,株式会社,大阪府,四條畷市,西中野２丁目１番４７－５０５号,,27,229,5750055,,,,,,,2022-12-28,1,,,,,エルエイチリカバリー,0
147,1130001073361,新規,0,2022-12-28,2022-12-28,ＥｎｇｉｎｅＷｏｒｋｓ株式会社,,株式会社,京都府,京田辺市,宮津佐牙垣内１１８番地,,26,211,6100314,,,,,,,2022-12-28,1,,,,,エンジンワークス,0
151,1140001128560,新規,0,2022-12-28,2022-12-28,株式会社ＴＮコンサルティングサポート,,株式会社,兵庫県,伊丹市,南野北３丁目１番１４－２号,,28,207,6640887,,,,,,,2022-12-28,1,,,,,ティエヌコンサルティングサポート,0
156,1140003018520,新規,0,2022-12-28,2022-12-28,ルチェル合同会社,,合同会社,兵庫県,明石市,西新町２丁目１番６－６０１号,,28,203,6730023,,,,,,,2022-12-28,1,,,,,ルチェル,0
158,1140005026422,新規,0,2022-12-28,2022-12-28,一般社団法人西宮療育協会,,その他の設立登記法人,兵庫県,西宮市,大森町３番３３号,,28,204,6638023,,,,,,,2022-12-28,1,,,,,ニシノミヤリョウイクキョウカイ,0
162,1160001024733,新規,0,2022-12-28,2022-12-28,サンマネジメント株式会社,,株式会社,滋賀県,大津市,唐橋町１０－１３ラ・メール唐橋２０３,,25,201,5200851,,,,,,,2022-12-28,1,,,,,サンマネジメント,0
171,1180001154330,新規,0,2022-12-28,2022-12-28,株式会社山弘創業,,株式会社,愛知県,岩倉市,本町上郷裏１８番地２シャトレーン３０７号,,23,228,4820043,,,,,,,2022-12-28,1,,,,,ヤマコウソウギョウ,0
172,1180001154363,新規,0,2022-12-28,2022-12-28,エステック株式会社,,株式会社,愛知県,名古屋市中川区,野田３丁目２２６番地,,23,110,4540912,,,,,,,2022-12-28,1,,,,,エステック,0
176,1180003024647,新規,0,2022-12-28,2022-12-28,合同会社ＴＥＣ,,合同会社,愛知県,日進市,岩崎町石兼５６番地８０ルミエールヒルズ石兼３０２,,23,230,4700131,,,,,,,2022-12-28,1,,,,,ティーイーシー,0
177,1180003024655,新規,0,2022-12-28,2022-12-28,合同会社ウェルサービス,,合同会社,愛知県,日進市,赤池南２丁目９０６グランコート赤池５０６,,23,230,4700127,,,,,,,2022-12-28,1,,,,,ウェルサービス,0
178,1180003024663,新規,0,2022-12-28,2022-12-28,合同会社ピニョン・テクノロジー,,合同会社,愛知県,名古屋市守山区,翠松園２丁目１６０４番地の１,,23,113,4630010,,,,,,,2022-12-28,1,,,,,ピニョンテクノロジー,0
185,1240001060860,新規,0,2022-12-28,2022-12-28,ネクストグループ株式会社,,株式会社,広島県,福山市,鞆町後地２１７６番地１,,34,207,7200202,,,,,,,2022-12-28,1,,,,,,0
204,1320001019485,新規,0,2022-12-28,2022-12-28,株式会社ＭＭＣ,,株式会社,大分県,大分市,日吉町５番２０号新貝ロイヤルハイツ５０３,,44,201,8700918,,,,,,,2022-12-28,1,,,,,エムエムシー,0
212,1350001018096,新規,0,2022-12-28,2022-12-28,株式会社フォルシティア,,株式会社,宮崎県,都城市,蓑原町２４６３番地４,,45,202,8850095,,,,,,,2022-12-28,1,,,,,フォルシティア,0
213,1350003004251,新規,0,2022-12-28,2022-12-28,合同会社イノセント,,合同会社,宮崎県,宮崎市,松橋１丁目１３番１２号,,45,201,8800013,,,,,,,2022-12-28,1,,,,,イノセント,0
216,1360001031370,新規,0,2022-12-28,2022-12-28,株式会社三色だんご,,株式会社,沖縄県,浦添市,沢岻２丁目１９番１２号,,47,208,9012112,,,,,,,2022-12-28,1,,,,,サンショクダンゴ,0
217,1370001049379,新規,0,2022-12-28,2022-12-28,株式会社大翔工業,,株式会社,宮城県,仙台市太白区,富沢３丁目２５番２３－１０３号,,04,104,9820032,,,,,,,2022-12-28,1,,,,,タイガコウギョウ,0
218,1370001049404,新規,0,2022-12-28,2022-12-28,Ｓｏｕｒ　Ｃｒｅａｍ株式会社,,株式会社,宮城県,仙台市青葉区,子平町４－６エルスタンザ子平町４０１号,,04,101,9810944,,,,,,,2022-12-28,1,,,,,サワークリーム,0
228,1410001013355,新規,0,2022-12-28,2022-12-28,株式会社Ｈｏｌｌｏｗ　ｃｕｂｅ,,株式会社,秋田県,由利本荘市,谷地町９５須田貸家奥棟,,05,210,0150078,,,,,,,2022-12-28,1,,,,,ホロウキューブ,0
229,1420005007831,新規,0,2022-12-28,2022-12-28,特定非営利活動法人青い森の情報技術者育成研究会,,その他の設立登記法人,青森県,八戸市,大字尻内町字中根市１２番地３ＰＬＵＳＴＡＴＥ１０１号,,02,203,0391101,,,,,,,2022-12-28,1,,,,,アオイモリノジョウホウギジュツシャイクセイケンキュウカイ,0
240,1500001024681,新規,0,2022-12-28,2022-12-28,株式会社燧灘建設,,株式会社,愛媛県,今治市,桜井甲１１０２番地３,,38,202,7991524,,,,,,,2022-12-28,1,,,,,ヒウチナダケンセツ,0
241,1700150113521,新規,0,2022-12-28,2022-12-28,Ｓｈｅｎｚｈｅｎ　Ｓｈｉ　Ｗｅｉ　Ｌｉ　Ｙａｎｇ　Ｋｅ　Ｊｉ　Ｙｏｕ　Ｘｉａｎ　Ｇｏｎｇ　Ｓｉ,,外国会社等,,,,,,,,ＬｏｎｇＨｕａ　Ｘｉｎ　Ｑｕ，Ｍｉｎ　Ｚｈｉ　Ｊｉｅ　Ｄａｏ　Ｓｈａ　Ｙｕａｎ　Ｐｕ　Ｃｕｎ　５８　Ｄｏｎｇ　５０４，Ｓｈｅｎｚｈｅｎ　Ｓｈｉ　ＧｕａｎｇＤｏｎｇ，Ｃｈｉｎａ,,,,,,2022-12-28,1,,,,,シンセンシウェイリヤンケジユウゲンコウシ,0
253,2010001231863,新規,0,2022-12-28,2022-12-28,株式会社オレンジ,,株式会社,東京都,千代田区,大手町１丁目７番２号,,13,101,1000004,,,,,,,2022-12-28,1,,,,,オレンジ,0
254,2010001231905,新規,0,2022-12-28,2022-12-28,株式会社ラリュミエール,,株式会社,東京都,中央区,銀座１丁目２２番１１号銀座大竹ビジデンス２階,,13,102,1040061,,,,,,,2022-12-28,1,,,,,ラリュミエール,0
259,2010401171569,新規,0,2022-12-28,2022-12-28,株式会社オシベン,,株式会社,東京都,港区,麻布十番２丁目２０番７号,,13,103,1060045,,,,,,,2022-12-28,1,,,,,オシベン,0
269,2010403029195,新規,0,2022-12-28,2022-12-28,合同会社ＩＴ　Ｓｕｐｐｏｒｔ　Ｏｎｅ,,合同会社,東京都,港区,浜松町２丁目２－１５浜松町ダイヤビル２Ｆ,,13,103,1050013,,,,,,,2022-12-28,1,,,,,アイティサポートワン,0
271,2010501049814,新規,0,2022-12-28,2022-12-28,株式会社Ｖａｍｉｔａａ　Ｄｅｓｉｇｎｓ,,株式会社,東京都,台東区,蔵前４丁目２０番８号,,13,106,1110051,,,,,,,2022-12-28,1,,,,,バミタデザイン,0
272,2010505003370,新規,0,2022-12-28,2022-12-28,一般社団法人マリンクラブ,,その他の設立登記法人,東京都,台東区,上野２丁目１１番１３号センチュリオン池之端ビル８階,,13,106,1100005,,,,,,,2022-12-28,1,,,,,マリンクラブ,0
281,2011001151696,新規,0,2022-12-28,2022-12-28,株式会社万,,株式会社,東京都,渋谷区,東４丁目６番５号,,13,113,1500011,,,,,,,2022-12-28,1,,,,,ヨロズ,0
283,2011101101320,新規,0,2022-12-28,2022-12-28,株式会社ＴＦＫ,,株式会社,東京都,新宿区,神楽坂２丁目５番地２,,13,104,1620825,,,,,,,2022-12-28,1,,,,,ティーエフケー,0
284,2011201024314,新規,0,2022-12-28,2022-12-28,信成株式会社,,株式会社,東京都,中野区,江古田４丁目２５番３号,,13,114,1650022,,,,,,,2022-12-28,1,,,,,シンセイ,0
288,2011501028799,新規,0,2022-12-28,2022-12-28,株式会社大地テック,,株式会社,東京都,北区,滝野川１丁目８番６号,,13,117,1140023,,,,,,,2022-12-28,1,,,,,ダイチテック,0
289,2011601026455,新規,0,2022-12-28,2022-12-28,元豊大同株式会社,,株式会社,東京都,練馬区,関町北５丁目６番７号関町マンション４０１Ｃ,,13,120,1770051,,,,,,,2022-12-28,1,,,,,ゲンホウダイドウ,0
290,2011605002485,新規,0,2022-12-28,2022-12-28,智行寺,,その他の設立登記法人,東京都,練馬区,練馬２丁目１４番１８号,,13,120,1760001,,,,,,,2022-12-28,1,,,,,チギョウジ,0
293,2011801041733,新規,0,2022-12-28,2022-12-28,株式会社グランドブルー,,株式会社,東京都,葛飾区,東金町５丁目２４番４号,,13,122,1250041,,,,,,,2022-12-28,1,,,,,グランドブルー,0
300,2020001149584,新規,0,2022-12-28,2022-12-28,株式会社石心総業,,株式会社,神奈川県,横浜市旭区,鶴ケ峰２丁目４８番地１,,14,112,2410022,,,,,,,2022-12-28,1,,,,,セキシンソウギョウ,0
301,2020001149601,新規,0,2022-12-28,2022-12-28,株式会社ＹＵＩＴＳ,,株式会社,神奈川県,横浜市戸塚区,川上町４９７番地２８－２１２３号室,,14,110,2440805,,,,,,,2022-12-28,1,,,,,,0
302,2020003022938,新規,0,2022-12-28,2022-12-28,合同会社トエル,,合同会社,神奈川県,川崎市幸区,戸手４丁目３番８－１０６号,,14,132,2120005,,,,,,,2022-12-28,1,,,,,トエル,0
305,2021001077800,新規,0,2022-12-28,2022-12-28,株式会社ＷＥＬＬＮＥＳＳ　ＪＡＰＡＮ　ｂｏｄｙ　ｍａｎａｇｅｍｅｎｔ,,株式会社,神奈川県,相模原市南区,相模大野３丁目１７－１９高橋ビル１階,,14,153,2520303,,,,,,,2022-12-28,1,,,,,ウェルネスジャパンボディマネジメント,0
306,2021003012549,新規,0,2022-12-28,2022-12-28,合同会社グッドベターベスト,,合同会社,神奈川県,鎌倉市,大船１２２２－１３,,14,204,2470056,,,,,,,2022-12-28,1,,,,,グッドベターベスト,0
307,2021003012557,新規,0,2022-12-28,2022-12-28,合同会社グリーンパーク,,合同会社,神奈川県,平塚市,桃浜町２６番２６－３０３号グリーンパーク,,14,203,2540815,,,,,,,2022-12-28,1,,,,,グリーンパーク,0
310,2030001151671,新規,0,2022-12-28,2022-12-28,株式会社アイビス,,株式会社,埼玉県,さいたま市西区,大字指扇３３６３－２－１１６,,11,101,3310047,,,,,,,2022-12-28,1,,,,,アイビス,0
328,2040001126383,新規,0,2022-12-28,2022-12-28,株式会社リリィ,,株式会社,千葉県,千葉市稲毛区,轟町１丁目７番１７号,,12,103,2630021,,,,,,,2022-12-28,1,,,,,リリィ,0
329,2040001126391,新規,0,2022-12-28,2022-12-28,トウリセジャパン株式会社,,株式会社,千葉県,千葉市緑区,おゆみ野南６丁目４番地１３,,12,105,2660033,,,,,,,2022-12-28,1,,,,,トウリセジャパン,0
330,2040001126409,新規,0,2022-12-28,2022-12-28,ハウスコネクト株式会社,,株式会社,千葉県,松戸市,中金杉３丁目２３８番地,,12,207,2700007,,,,,,,2022-12-28,1,,,,,ハウスコネクト,0
332,2040003021558,新規,0,2022-12-28,2022-12-28,ＴＡＮ　ＨＯＡＮＧ　ＰＨＡＴ合同会社,,合同会社,千葉県,野田市,山崎１９６８番地の５,,12,208,2780022,,,,,,,2022-12-28,1,,,,,タンホアンファット,0
336,2060001035558,新規,0,2022-12-28,2022-12-28,株式会社Ｅｖｉｄｅｎｃｅ　Ｂａｓｅｄ　Ｆａｒｒｉｅｒｙ,,株式会社,栃木県,宇都宮市,桜２丁目５番４３号サクラアビタシオン２０１,,09,201,3200043,,,,,,,2022-12-28,1,,,,,エビデンスベースドファリアリー,0
343,2080001025359,新規,0,2022-12-28,2022-12-28,株式会社ＴＭホールディングス,,株式会社,静岡県,藤枝市,末広１丁目３番地の４１,,22,214,4260065,,,,,,,2022-12-28,1,,,,,ティーエムホールディングス,0
344,2080003002918,新規,0,2022-12-28,2022-12-28,ＬＥＰ合同会社,,合同会社,静岡県,焼津市,東小川４丁目１４－１,,22,212,4250035,,,,,,,2022-12-28,1,,,,,エルイーピー,0
350,2090001017909,新規,0,2022-12-28,2022-12-28,オートボディハル株式会社,,株式会社,山梨県,富士吉田市,竜ケ丘１丁目９番２１号,,19,202,4030014,,,,,,,2022-12-28,1,,,,,,0
355,2100001035999,新規,0,2022-12-28,2022-12-28,株式会社ＥＬＳ植松,,株式会社,長野県,諏訪郡富士見町,立沢２４６番地２,,20,362,3990212,,,,,,,2022-12-28,1,,,,,イーエルエスウエマツ,0
362,2110003004951,新規,0,2022-12-28,2022-12-28,合同会社ＳＢＨ,,合同会社,新潟県,新潟市中央区,新和１丁目６番２０号,,15,103,9500972,,,,,,,2022-12-28,1,,,,,エスビーエイチ,0
373,2120001251347,新規,0,2022-12-28,2022-12-28,Ｓ＆Ｓ株式会社,,株式会社,大阪府,大阪市生野区,小路東６丁目８番１７号昭和エクセルビュー東大阪１０３－Ｇ２１,,27,116,5440003,,,,,,,2022-12-28,1,,,,,エスアンドエス,0
374,2120001251371,新規,0,2022-12-28,2022-12-28,株式会社ｐｒｉｍａ,,株式会社,大阪府,枚方市,町楠葉１丁目２番１６号,,27,210,5731106,,,,,,,2022-12-28,1,,,,,プリマ,0
375,2120001251396,新規,0,2022-12-28,2022-12-28,ＬＢｒｅｓｔａｕｒａｎｔ株式会社,,株式会社,大阪府,大阪市福島区,吉野３丁目８番３号,,27,103,5530006,,,,,,,2022-12-28,1,,,,,エルビーレストラン,0
376,2120001251405,新規,0,2022-12-28,2022-12-28,ＴＲＹ　ｇｒｏｕｐ株式会社,,株式会社,大阪府,大阪市中央区,内本町２丁目１番１９号,,27,128,5400026,,,,,,,2022-12-28,1,,,,,トライグループ,0
378,2120003023166,新規,0,2022-12-28,2022-12-28,合同会社Ａｓｉａｇｒｏｕｐ,,合同会社,大阪府,大阪市生野区,新今里６丁目５番７号,,27,116,5440001,,,,,,,2022-12-28,1,,,,,アジアグループ,0
380,2120005023370,新規,0,2022-12-28,2022-12-28,一般社団法人ＡＣ,,その他の設立登記法人,大阪府,大阪市北区,中津１丁目１８番９号１０Ｆ,,27,127,5310071,,,,,,,2022-12-28,1,,,,,エーシー,0
381,2120103004999,新規,0,2022-12-28,2022-12-28,ＦＯＲＴＵＮＥ合同会社,,合同会社,大阪府,岸和田市,池尻町９２番１４号,,27,202,5960813,,,,,,,2022-12-28,1,,,,,フォーチュン,0
390,2140001128535,新規,0,2022-12-28,2022-12-28,株式会社ｉｂｉｓ,,株式会社,兵庫県,神戸市垂水区,泉が丘５丁目１２－２５オネスティ３－２０１,,28,108,6550885,,,,,,,2022-12-28,1,,,,,アイビス,0
391,2140001128543,新規,0,2022-12-28,2022-12-28,株式会社チャレンジホールディングス,,株式会社,兵庫県,神戸市須磨区,大田町８丁目２番４号,,28,107,6540024,,,,,,,2022-12-28,1,,,,,チャレンジホールディングス,0
395,2140005026421,新規,0,2022-12-28,2022-12-28,特定非営利活動法人シン‐心,,その他の設立登記法人,兵庫県,神戸市兵庫区,和田崎町３丁目３番５号,,28,105,6520854,,,,,,,2022-12-28,1,,,,,シンシン,0
400,2180001154247,新規,0,2022-12-28,2022-12-28,株式会社ＲＡＬＭＯ,,株式会社,愛知県,江南市,天王町駒野１３７番地,,23,217,4838114,,,,,,,2022-12-28,1,,,,,ラルモ,0
401,2180001154305,新規,0,2022-12-28,2022-12-28,株式会社ｃｙｍａ,,株式会社,愛知県,名古屋市中村区,名駅３丁目２８番１２号,,23,105,4500002,,,,,,,2022-12-28,1,,,,,サイマ,0
402,2180001154313,新規,0,2022-12-28,2022-12-28,株式会社ＨａＬｅ＆ｕｐ．,,株式会社,愛知県,名古屋市西区,幅下２丁目１４番１１号,,23,104,4510041,,,,,,,2022-12-28,1,,,,,ハレアップ,0
403,2180001154321,新規,0,2022-12-28,2022-12-28,Ｃａｍｓａ株式会社,,株式会社,愛知県,名古屋市中区,大須３丁目２番１７号ＨＡＳＥ‐ＢＬＤＧ８・３Ｆ,,23,106,4600011,,,,,,,2022-12-28,1,,,,,カムサ,0
404,2180001154338,新規,0,2022-12-28,2022-12-28,株式会社紡ぎ,,株式会社,愛知県,豊明市,西川町笹原１番地１０,,23,229,4701123,,,,,,,2022-12-28,1,,,,,ツムギ,0
405,2180001154346,新規,0,2022-12-28,2022-12-28,株式会社帝設備,,株式会社,愛知県,名古屋市守山区,川村町１７２番地の２,,23,113,4630097,,,,,,,2022-12-28,1,,,,,ミカドセツビ,0
409,2180003024654,新規,0,2022-12-28,2022-12-28,ＳＰＩＮＮＳ合同会社,,合同会社,愛知県,名古屋市千種区,四谷通１丁目１番地イリヤ本山２０７ＲＥＦＩＮＥ,,23,101,4640819,,,,,,,2022-12-28,1,,,,,スピンズ,0
410,2180303005552,新規,0,2022-12-28,2022-12-28,合同会社ケアユナイト,,合同会社,愛知県,豊橋市,花田町字小松１６１番地三共ビル２０１,,23,201,4418019,,,,,,,2022-12-28,1,,,,,ケアユアナイト,0
415,2200003005783,新規,0,2022-12-28,2022-12-28,合同会社ＡＺＬＡＮトレーディング,,合同会社,岐阜県,安八郡輪之内町,福束新田８９６番地,,21,382,5030211,,,,,,,2022-12-28,1,,,,,アズラントレーディング,0
429,2290005018882,新規,0,2022-12-28,2022-12-28,医療法人あいりお耳鼻科,,その他の設立登記法人,福岡県,糟屋郡宇美町,明神坂２丁目１番２７号,,40,341,8112122,,,,,,,2022-12-28,1,,,,,アイリオジビカ,0
436,2310001018173,新規,0,2022-12-28,2022-12-28,株式会社ＴＲＵＳＴ,,株式会社,長崎県,佐世保市,指方町２２２３番地３テラスコンフォルト１０３,,42,202,8593242,,,,,,,2022-12-28,1,,,,,トラスト,0
439,2320001019484,新規,0,2022-12-28,2022-12-28,株式会社ゆうゆうサービス,,株式会社,大分県,大分市,都町３丁目７番２５号,,44,201,8700034,,,,,,,2022-12-28,1,,,,,ユウユウサービス,0
442,2330001030432,新規,0,2022-12-28,2022-12-28,株式会社アシスト２,,株式会社,熊本県,八代郡氷川町,宮原５６６番地２,,43,468,8694602,,,,,,,2022-12-28,1,,,,,アシストツー,0
443,2330001030440,新規,0,2022-12-28,2022-12-28,ＲＡＤＡ　Ｇｒｅｅｎ株式会社,,株式会社,熊本県,山鹿市,杉７４７－３２,,43,208,8610552,,,,,,,2022-12-28,1,,,,,ラダグリーン,0
444,2330003009648,新規,0,2022-12-28,2022-12-28,合同会社３６９,,合同会社,熊本県,人吉市,瓦屋町１４９８番地５,,43,203,8680025,,,,,,,2022-12-28,1,,,,,ミロク,0
451,2350003004250,新規,0,2022-12-28,2022-12-28,ぷりんまーけっと合同会社,,合同会社,宮崎県,小林市,野尻町紙屋２１６０－２,,45,205,8860211,,,,,,,2022-12-28,1,,,,,プリンマーケット,0
452,2360001031378,新規,0,2022-12-28,2022-12-28,株式会社ちゅらり,,株式会社,沖縄県,沖縄市,高原７丁目２９－３１,,47,211,9042171,,,,,,,2022-12-28,1,,,,,チュラリ,0
455,2370003005932,新規,0,2022-12-28,2022-12-28,合同会社ｅｕｚｅｎ,,合同会社,宮城県,仙台市青葉区,本町１丁目１２－１２ＧＭビルディング,,04,101,9800014,,,,,,,2022-12-28,1,,,,,ユウゼン,0
463,2380001033356,新規,0,2022-12-28,2022-12-28,株式会社ＭＪＫ,,株式会社,福島県,双葉郡広野町,大字下北迫字岩沢３１番地８８－２１５号,,07,541,9790402,,,,,,,2022-12-28,1,,,,,エムジェイケイ,0
469,2400001016102,新規,0,2022-12-28,2022-12-28,株式会社ＲＡＳＩＣ　Ｕ,,株式会社,岩手県,盛岡市,本町通２丁目１番８号,,03,201,0200015,,,,,,,2022-12-28,1,,,,,ラシク,0
470,2410001013354,新規,0,2022-12-28,2022-12-28,株式会社ｓｕｇａｒ,,株式会社,秋田県,秋田市,千秋城下町１番２８号,,05,201,0100873,,,,,,,2022-12-28,1,,,,,シュガー,0
472,2420001018105,新規,0,2022-12-28,2022-12-28,株式会社Ｊ．ＷＯＲＬＤ,,株式会社,青森県,青森市,原別８丁目６番１号,,02,201,0300921,,,,,,,2022-12-28,1,,,,,ジェイワールド,0
480,2430003014588,新規,0,2022-12-28,2022-12-28,高城建装合同会社,,合同会社,北海道,苫小牧市,北栄町２丁目４番３６号,,01,213,0591304,,,,,,,2022-12-28,1,,,,,タカシロケンソウ,0
490,2700150112241,新規,0,2022-12-28,2022-12-28,Ｅｎｇｉｎｅ　Ｌｅａｓｅ　Ｆｉｎａｎｃｅ　Ｃｏｒｐｏｒａｔｉｏｎ,,外国会社等,,,,,,,,Ｂｕｉｌｄｉｎｇ　１５６，Ｓｈａｎｎｏｎ　Ｆｒｅｅ　Ｚｏｎｅ，Ｓｈａｎｎｏｎ，Ｃｏ　Ｃｌａｒｅ，Ｉｒｅｌａｎｄ,,,,,,2022-12-28,1,,,,,エンジンリースフアイナンスコーポレーシヨン,0
491,2700150113520,新規,0,2022-12-28,2022-12-28,ｓｈｅｎｚｈｅｎｓｈｉ　ｂａｏｙｉ　ｋｅｊｉ　ｙｏｕｘｉａｎｇｏｎｇｓｉ,,外国会社等,,,,,,,,Ｎｏｒｔｈ　Ｇａｔｅ　ｏｆ　Ｗｅｓｔ　Ｂｌｏｃｋ（Ｂｕｉｌｄｉｎｇ　４１，Ｍａｊｉａｌｏｎｇ）ｏｆ　Ｈａｉｄａ　Ｃｒｅａｔｉｖｅ　Ｐａｒｋ，８９　Ｄａｘｉｎ　Ｒｏａｄ，Ｍａｊｉａｌｏｎｇ　Ｃｏｍｍｕｎｉｔｙ，Ｎａｎｔｏｕ　Ｓｔｒｅｅｔ，Ｓｈｅｎｚｈｅｎ　Ｇｕａｎｇｄｏｎｇ，Ｃｈｉｎａ,,,,,,2022-12-28,1,,,,,シンセンシバオイケジユウゲンコウシ,0
501,3010001231854,新規,0,2022-12-28,2022-12-28,株式会社シエルエージェンシー,,株式会社,東京都,千代田区,丸の内１丁目６番５号丸の内北口ビルディング,,13,101,1000005,,,,,,,2022-12-28,1,,,,,シエルエージェンシー,0
502,3010001231895,新規,0,2022-12-28,2022-12-28,デジタルミュージックセキュリティーズ株式会社,,株式会社,東京都,千代田区,丸の内２丁目５番１号,,13,101,1000005,,,,,,,2022-12-28,1,,,,,デジタルミュージックセキュリティーズ,0
503,3010001231953,新規,0,2022-12-28,2022-12-28,コスモホールディングス株式会社,,株式会社,東京都,千代田区,丸の内１丁目５番１号,,13,101,1000005,,,,,,,2022-12-28,1,,,,,コスモホールディングス,0
506,3010003039387,新規,0,2022-12-28,2022-12-28,ＳＢＣＬ合同会社,,合同会社,東京都,中央区,日本橋本町１丁目８番８号,,13,102,1030023,,,,,,,2022-12-28,1,,,,,エスビーシーエル,0
531,3010701043665,新規,0,2022-12-28,2022-12-28,株式会社グッドラック,,株式会社,東京都,品川区,東品川３丁目３番３－６０３号,,13,109,1400002,,,,,,,2022-12-28,1,,,,,グッドラック,0
536,3010901052235,新規,0,2022-12-28,2022-12-28,株式会社ＫＢ　ＥＭＰＩＲＥ,,株式会社,東京都,世田谷区,南烏山６丁目４番地８号ジェイプライズビル３０２,,13,112,1570062,,,,,,,2022-12-28,1,,,,,ケービーエンパイア,0
542,3011001151687,新規,0,2022-12-28,2022-12-28,Ｓａｆｅ　Ａｓｓｅｔｓ株式会社,,株式会社,東京都,渋谷区,代々木神園町３番２号,,13,113,1510052,,,,,,,2022-12-28,1,,,,,セーフアセッツ,0
543,3011001151704,新規,0,2022-12-28,2022-12-28,株式会社ステラ,,株式会社,東京都,目黒区,下目黒５丁目３５ー１１ソルージュ下目黒１０２,,13,110,1530064,,,,,,,2022-12-28,1,,,,,ステラ,0
547,3011101101336,新規,0,2022-12-28,2022-12-28,株式会社ソルフィ,,株式会社,東京都,新宿区,西新宿３丁目７番１号新宿パークタワービルＮ棟３０階,,13,104,1600023,,,,,,,2022-12-28,1,,,,,ソルフィ,0
556,3011701025901,新規,0,2022-12-28,2022-12-28,株式会社大谷堂,,株式会社,東京都,江戸川区,平井５丁目２７番地８,,13,123,1320035,,,,,,,2022-12-28,1,,,,,オオタニドウ,0
559,3011801041732,新規,0,2022-12-28,2022-12-28,株式会社フクトミ,,株式会社,東京都,足立区,千住仲町６番１３号,,13,121,1200036,,,,,,,2022-12-28,1,,,,,フクトミ,0
571,3020001149559,新規,0,2022-12-28,2022-12-28,株式会社ＥＸＩＴストラテジー,,株式会社,神奈川県,横浜市中区,桜木町１丁目１０１番地１クロスゲート７階,,14,104,2310062,,,,,,,2022-12-28,1,,,,,イグジットストラテジー,0
572,3020001149583,新規,0,2022-12-28,2022-12-28,株式会社ちゅら美装,,株式会社,神奈川県,川崎市多摩区,堰３丁目１０番９号ルーバーレジデンス１０２,,14,135,2140022,,,,,,,2022-12-28,1,,,,,チュラビソウ,0
573,3020001149591,新規,0,2022-12-28,2022-12-28,株式会社スタジオサイド,,株式会社,神奈川県,横浜市鶴見区,上末吉３丁目９番１８号,,14,101,2300011,,,,,,,2022-12-28,1,,,,,スタジオサイド,0
574,3020001149600,新規,0,2022-12-28,2022-12-28,株式会社Ｏ‐ａｚａｎｓｕ,,株式会社,神奈川県,川崎市宮前区,土橋６丁目２－２５,,14,136,2160005,,,,,,,2022-12-28,1,,,,,オーアザンス,0
581,3021003012556,新規,0,2022-12-28,2022-12-28,合同会社グリーンヒル,,合同会社,神奈川県,平塚市,桃浜町２６番２６－３０３号グリーンパーク,,14,203,2540815,,,,,,,2022-12-28,1,,,,,グリーンヒル,0
585,3030001151605,新規,0,2022-12-28,2022-12-28,メディコムコンサルティング株式会社,,株式会社,埼玉県,川口市,大字木曽呂５００番地９,,11,203,3330831,,,,,,,2022-12-28,1,,,,,メディコムコンサルティング,0
586,3030001151679,新規,0,2022-12-28,2022-12-28,株式会社Ｇｒｏｗ‐ｌｌｅｎｇｅ,,株式会社,埼玉県,さいたま市見沼区,大字大谷１５２８番地２０,,11,104,3370014,,,,,,,2022-12-28,1,,,,,グローレンジ,0
590,3040001126399,新規,0,2022-12-28,2022-12-28,株式会社ヴェクスター,,株式会社,千葉県,印西市,小林大門下３丁目６番地７,,12,231,2701316,,,,,,,2022-12-28,1,,,,,ヴェクスター,0
591,3040001126416,新規,0,2022-12-28,2022-12-28,株式会社ファースト,,株式会社,千葉県,野田市,宮崎１４１番地１６,,12,208,2780005,,,,,,,2022-12-28,1,,,,,ファースト,0
598,3050001052149,新規,0,2022-12-28,2022-12-28,株式会社Ｒｙｕｓｕｋｅ　Ｐｒｏｍｏｔｅｒ,,株式会社,茨城県,土浦市,大岩田２４６５番地６,,08,203,3000835,,,,,,,2022-12-28,1,,,,,リュウスケプロモーター,0
603,3080001025366,新規,0,2022-12-28,2022-12-28,株式会社ＢＯＳＣＯ,,株式会社,静岡県,静岡市清水区,鳥坂９４６,,22,103,4240067,,,,,,,2022-12-28,1,,,,,ボスコ,0
609,3100001035998,新規,0,2022-12-28,2022-12-28,ＤｏｔＴｒｅｅｓ株式会社,,株式会社,長野県,北佐久郡軽井沢町,大字長倉５５２０番地１６,,20,321,3890111,,,,,,,2022-12-28,1,,,,,ドットツリーズ,0
620,3120001251338,新規,0,2022-12-28,2022-12-28,ＬＣＤジャパン株式会社,,株式会社,大阪府,大阪市西区,北堀江１丁目２番２７号,,27,106,5500014,,,,,,,2022-12-28,1,,,,,エルシーディージャパン,0
621,3120001251404,新規,0,2022-12-28,2022-12-28,株式会社ＣＡＲＥ,,株式会社,大阪府,大阪市平野区,西脇１丁目２０－１３,,27,126,5470035,,,,,,,2022-12-28,1,,,,,ケア,0
625,3120003023149,新規,0,2022-12-28,2022-12-28,Ｇｉｖｅ＆Ｈａｐｐｙ合同会社,,合同会社,大阪府,大阪市住吉区,上住吉２丁目１番８号,,27,120,5580046,,,,,,,2022-12-28,1,,,,,ギブアンドハッピー,0
627,3120105009657,新規,0,2022-12-28,2022-12-28,社会福祉法人あすなろ,,その他の設立登記法人,大阪府,羽曳野市,壺井５０８番－１,,27,222,5830844,,,,,,,2022-12-28,1,,,,,アスナロ,0
643,3130003008405,新規,0,2022-12-28,2022-12-28,合同会社ＰＯＭＰＩＥＲＥ,,合同会社,京都府,京都市伏見区,深草西伊達町８７－９２,,26,109,6120876,,,,,,,2022-12-28,1,,,,,ポンピエーレ,0
647,3140001128534,新規,0,2022-12-28,2022-12-28,株式会社みらい宅建,,株式会社,兵庫県,伊丹市,広畑２丁目４６－１－２Ｆ,,28,207,6640014,,,,,,,2022-12-28,1,,,,,ミライタッケン,0
648,3140001128542,新規,0,2022-12-28,2022-12-28,株式会社アーバンカンパニー,,株式会社,兵庫県,西宮市,生瀬武庫川町２番３－１０１２号,,28,204,6691104,,,,,,,2022-12-28,1,,,,,アーバンカンパニー,0
649,3140001128550,新規,0,2022-12-28,2022-12-28,株式会社Ｍｅｄｉｃａｌ　Ｌｏｄｇｅ,,株式会社,兵庫県,神戸市中央区,浪花町５６三井住友銀行神戸本部ビル２階,,28,110,6500035,,,,,,,2022-12-28,1,,,,,メディカルロッジ,0
652,3140005026420,新規,0,2022-12-28,2022-12-28,医療法人社団石川眼科,,その他の設立登記法人,兵庫県,赤穂市,加里屋中洲４丁目３２番地２,,28,212,6780233,,,,,,,2022-12-28,1,,,,,イシカワガンカ,0
655,3160001024731,新規,0,2022-12-28,2022-12-28,株式会社おぼろ,,株式会社,滋賀県,草津市,大路１丁目１３番１１号,,25,206,5250032,,,,,,,2022-12-28,1,,,,,オボロ,0
665,3180001154345,新規,0,2022-12-28,2022-12-28,株式会社ＴＥＲＲＡＮ,,株式会社,愛知県,名古屋市中川区,宮脇町２丁目１００ツインベル１０２号,,23,110,4540842,,,,,,,2022-12-28,1,,,,,テラン,0
666,3180001154361,新規,0,2022-12-28,2022-12-28,株式会社ＧＲＯＷ,,株式会社,愛知県,清須市,西枇杷島町古城２丁目１８番地２,,23,233,4520001,,,,,,,2022-12-28,1,,,,,グロウ,0
675,3240001060859,新規,0,2022-12-28,2022-12-28,株式会社綿の華,,株式会社,広島県,広島市佐伯区,皆賀２丁目８番１５号,,34,108,7315124,,,,,,,2022-12-28,1,,,,,ワタノハナ,0
685,3290001099967,新規,0,2022-12-28,2022-12-28,環九州物流株式会社,,株式会社,福岡県,三井郡大刀洗町,大字高樋２４８１番地,,40,503,8301221,,,,,,,2022-12-28,1,,,,,カンキュウシュウブツリュウ,0
690,3290005018881,新規,0,2022-12-28,2022-12-28,特定非営利活動法人風のカタリバ,,その他の設立登記法人,福岡県,古賀市,青柳２９４１番地,,40,223,8113134,,,,,,,2022-12-28,1,,,,,カゼノカタリバ,0
691,3290805009618,新規,0,2022-12-28,2022-12-28,医療法人皓歯会,,その他の設立登記法人,福岡県,北九州市小倉南区,企救丘２丁目２番３０号,,40,107,8020981,,,,,,,2022-12-28,1,,,,,コウシカイ,0
692,3300001013174,新規,0,2022-12-28,2022-12-28,株式会社ＥＭＡＡＲ　ＴＲＡＤＩＮＧ,,株式会社,佐賀県,小城市,三日月町金田１３０４－１３,,41,208,8450032,,,,,,,2022-12-28,1,,,,,エマートレーディング,0
697,3330003009647,新規,0,2022-12-28,2022-12-28,熊本北部発電合同会社,,合同会社,熊本県,熊本市中央区,中央街４番１０,,43,101,8600802,,,,,,,2022-12-28,1,,,,,クマモトホクブハツデン,0
703,3370003005931,新規,0,2022-12-28,2022-12-28,合同会社コネチヨ,,合同会社,宮城県,仙台市宮城野区,自由ケ丘８番３号,,04,102,9830831,,,,,,,2022-12-28,1,,,,,コネチヨ,0
713,3420001018104,新規,0,2022-12-28,2022-12-28,ＳＡＲＤＡＲ　ＴＲＡＤＥＲＳ株式会社,,株式会社,青森県,十和田市,大字三本木字北平１１０番地５Ｃ－１号,,02,206,0340001,,,,,,,2022-12-28,1,,,,,サルダルトレーダーズ,0
717,3430001088113,新規,0,2022-12-28,2022-12-28,株式会社Ｍｅｒｃｉｆｕｌ,,株式会社,北海道,札幌市中央区,南二条西７丁目１番地５　２・７ビル２階,,01,101,0600062,,,,,,,2022-12-28,1,,,,,マーシフル,0
722,3430003014587,新規,0,2022-12-28,2022-12-28,合同会社ＢｌｕｅＳｋｙ,,合同会社,北海道,札幌市南区,藤野六条４丁目１４番２１号,,01,106,0612286,,,,,,,2022-12-28,1,,,,,ブルースカイ,0
723,3430003014595,新規,0,2022-12-28,2022-12-28,ＥＰＳ合同会社,,合同会社,北海道,札幌市西区,発寒八条１３丁目１４番８号ループ発寒１０５号,,01,107,0630828,,,,,,,2022-12-28,1,,,,,イーピーエス,0
732,3700150047156,新規,0,2022-12-28,2015-10-09,大河内地区まちづくり協議会,,その他,三重県,松阪市,大河内町７９６,,24,204,5151105,,,,,,,2015-10-09,1,,,,,オカワチチクマチヅクリキヨウギカイ,0
737,4010001231861,新規,0,2022-12-28,2022-12-28,株式会社キロロホールディングス,,株式会社,東京都,千代田区,丸の内３丁目１番１号東京共同会計事務所内,,13,101,1000005,,,,,,,2022-12-28,1,,,,,キロロホールディングス,0
738,4010001231878,新規,0,2022-12-28,2022-12-28,ゼロプラクティス株式会社,,株式会社,東京都,千代田区,九段南３丁目８番１３号,,13,101,1020074,,,,,,,2022-12-28,1,,,,,ゼロプラクティス,0
741,4010005036035,新規,0,2022-12-28,2022-12-28,一般社団法人ＴＩＡＭ,,その他の設立登記法人,東京都,中央区,銀座８丁目８番１５号青柳ビル８階,,13,102,1040061,,,,,,,2022-12-28,1,,,,,ティアム,0
742,4010005036051,新規,0,2022-12-28,2022-12-28,技術研究組合最先端半導体技術センター,,その他の設立登記法人,東京都,千代田区,麹町４丁目１,,13,101,1020083,,,,,,,2022-12-28,1,,,,,サイセンタンハンドウタイギジュツセンター,0
773,4011001151686,新規,0,2022-12-28,2022-12-28,株式会社リバーメディカル,,株式会社,東京都,渋谷区,上原２丁目２２番８号,,13,113,1510064,,,,,,,2022-12-28,1,,,,,リバーメディカル,0
774,4011001151694,新規,0,2022-12-28,2022-12-28,ｇａｎｄｅｎ株式会社,,株式会社,東京都,渋谷区,渋谷２丁目１９－１５宮益坂ビルディング６０９,,13,113,1500002,,,,,,,2022-12-28,1,,,,,ガンデン,0
784,4011101101319,新規,0,2022-12-28,2022-12-28,株式会社レイズ,,株式会社,東京都,新宿区,百人町２丁目２２番１２号シェソワ百人町４０５,,13,104,1690073,,,,,,,2022-12-28,1,,,,,レイズ,0
785,4011103012539,新規,0,2022-12-28,2022-12-28,内藤新宿合同会社,,合同会社,東京都,新宿区,新宿５丁目１４－１２天翔オフィス新宿三丁目１０２,,13,104,1600022,,,,,,,2022-12-28,1,,,,,ナイトウシンジュク,0
793,4011501028797,新規,0,2022-12-28,2022-12-28,正居株式会社,,株式会社,東京都,荒川区,西尾久４丁目１４番１１号,,13,118,1160011,,,,,,,2022-12-28,1,,,,,セイキョ,0
800,4011801041731,新規,0,2022-12-28,2022-12-28,ＫＨＹＡＴＳ株式会社,,株式会社,東京都,足立区,梅島３丁目１２番７号,,13,121,1210816,,,,,,,2022-12-28,1,,,,,キャッツ,0
802,4012401040009,新規,0,2022-12-28,2022-12-28,株式会社ファミリーハウス,,株式会社,東京都,調布市,国領町７丁目６０番地１６クレストコート１０１,,13,208,1820022,,,,,,,2022-12-28,1,,,,,ファミリーハウス,0
817,4020001149582,新規,0,2022-12-28,2022-12-28,株式会社ｓａｌａｆｏｒｔ,,株式会社,神奈川県,横浜市西区,北幸２丁目１０番２８号むつみビル３Ｆ,,14,103,2200004,,,,,,,2022-12-28,1,,,,,サラフォート,0
818,4020001149590,新規,0,2022-12-28,2022-12-28,株式会社くらしの相談室,,株式会社,神奈川県,横浜市中区,北仲通３丁目３３関内フューチャーセンター＃１３６,,14,104,2310003,,,,,,,2022-12-28,1,,,,,クラシノソウダンシツ,0
819,4020001149599,新規,0,2022-12-28,2022-12-28,株式会社ＣＡＤＥ,,株式会社,神奈川県,横浜市西区,みなとみらい４丁目４－２横浜ブルーアベニュー１２階,,14,103,2200012,,,,,,,2022-12-28,1,,,,,ケイド,0
820,4020001149608,新規,0,2022-12-28,2022-12-28,株式会社ＮＡＮＯＫＯＲｉｂｅｒｔｙ,,株式会社,神奈川県,横浜市瀬谷区,北町４０番地１５,,14,114,2460002,,,,,,,2022-12-28,1,,,,,ナノコリバティ,0
823,4020003022960,新規,0,2022-12-28,2022-12-28,合同会社ＭＹ　ＳｔｒｅｅＴ,,合同会社,神奈川県,川崎市川崎区,伊勢町１３番１６－４０７号ベルフール川崎大師,,14,131,2100805,,,,,,,2022-12-28,1,,,,,マイストリート,0
824,4020003022977,新規,0,2022-12-28,2022-12-28,トライアード合同会社,,合同会社,神奈川県,横浜市中区,本郷町３丁目１４２－４,,14,104,2310843,,,,,,,2022-12-28,1,,,,,トライアード,0
825,4020003022985,新規,0,2022-12-28,2022-12-28,合同会社Ｙ・Ｎプルデンシャル,,合同会社,神奈川県,横浜市緑区,長津田町２３９０番地,,14,113,2260026,,,,,,,2022-12-28,1,,,,,ワイエヌプルデンシャル,0
828,4021001077749,新規,0,2022-12-28,2022-12-28,ＸＶＡＬＵＥ株式会社,,株式会社,神奈川県,茅ヶ崎市,東海岸北４丁目１１－１０,,14,207,2530053,,,,,,,2022-12-28,1,,,,,クロスバリュー,0
829,4021003012530,新規,0,2022-12-28,2022-12-28,合同会社シンワ流通,,合同会社,神奈川県,藤沢市,亀井野３２３８番地の８,,14,205,2520813,,,,,,,2022-12-28,1,,,,,シンワリュウツウ,0
846,4040001125929,新規,0,2022-12-28,2022-12-28,株式会社ＴＯＵＷＡ,,株式会社,千葉県,市川市,福栄２丁目－１２番－１－３０２号（ホクサンレジデンス行徳）,,12,203,2720137,,,,,,,2022-12-28,1,,,,,トウワ,0
847,4040001126398,新規,0,2022-12-28,2022-12-28,和園株式会社,,株式会社,千葉県,松戸市,根本４６４番地第一京葉ハイツ２０１号室,,12,207,2710077,,,,,,,2022-12-28,1,,,,,ワエン,0
848,4040003021580,新規,0,2022-12-28,2022-12-28,合同会社キャラット,,合同会社,千葉県,八街市,八街ほ６００番地２８,,12,230,2891115,,,,,,,2022-12-28,1,,,,,キャラット,0
849,4050003007125,新規,0,2022-12-28,2022-12-28,合同会社ＦＵＲＵＳＡＴＯ,,合同会社,茨城県,守谷市,松並青葉１丁目１番地５レーベン守谷ＴＨＥＢＲＩＤＧＥ４０２,,08,224,3020132,,,,,,,2022-12-28,1,,,,,フルサト,0
855,4070001039952,新規,0,2022-12-28,2022-12-28,株式会社ＤＵＢＲＩＮＧ　ＤＥＶＩ,,株式会社,群馬県,高崎市,飯塚町１３８１番地２,,10,202,3700069,,,,,,,2022-12-28,1,,,,,ダブリングデヴィ,0
858,4070005010067,新規,0,2022-12-28,2022-12-28,医療法人社団クローブ,,その他の設立登記法人,群馬県,桐生市,広沢町４丁目１９７０番地の１９７,,10,203,3760013,,,,,,,2022-12-28,1,,,,,クローブ,0
860,4080101023715,新規,0,2022-12-28,2022-12-28,株式会社サンコーリープ,,株式会社,静岡県,沼津市,岡宮１３７８番地の２６ルミナーレＩ１０５,00128914,22,203,4100011,,,,,,,2022-12-28,1,,,,,サンコーリープ,0
885,4120001251378,新規,0,2022-12-28,2022-12-28,株式会社よつばメディカル,,株式会社,大阪府,大阪市中央区,森ノ宮中央２丁目７番２０号ユーザック法円坂ビル２０１,,27,128,5400003,,,,,,,2022-12-28,1,,,,,ヨツバメディカル,0
886,4120001251394,新規,0,2022-12-28,2022-12-28,株式会社クオーレテック,,株式会社,大阪府,大阪市北区,中崎２丁目１番４号,,27,127,5300016,,,,,,,2022-12-28,1,,,,,クオーレテック,0
887,4120001251403,新規,0,2022-12-28,2022-12-28,株式会社宏図,,株式会社,大阪府,大阪市港区,市岡元町２丁目６番１１－４０３号,,27,107,5520002,,,,,,,2022-12-28,1,,,,,コウト,0
892,4120003023156,新規,0,2022-12-28,2022-12-28,合同会社Ｄｅａｒｅｓｔ　Ｌｉｆｅ,,合同会社,大阪府,大阪市中央区,松屋町１番１６－１８０４号,,27,128,5420067,,,,,,,2022-12-28,1,,,,,ディアレストライフ,0
893,4120003023164,新規,0,2022-12-28,2022-12-28,合同会社ＷＯＲＬＤ,,合同会社,大阪府,大阪市中央区,宗右衛門町１－１３－２Ｆ,,27,128,5420084,,,,,,,2022-12-28,1,,,,,ワールド,0
897,4120901046919,新規,0,2022-12-28,2022-12-28,株式会社高宮加妃,,株式会社,大阪府,高槻市,芥川町１丁目１０番２３号,,27,207,5691123,,,,,,,2022-12-28,1,,,,,タカミヤカヒ,0
898,4120901046927,新規,0,2022-12-28,2022-12-28,株式会社ＹＵＨＩ,,株式会社,大阪府,高槻市,栄町１丁目２０番２６号,,27,207,5690825,,,,,,,2022-12-28,1,,,,,ユヒ,0
917,4180001154336,新規,0,2022-12-28,2022-12-28,株式会社半田エンジニアリング,,株式会社,愛知県,半田市,青山１丁目１０番地の２セントレ青山１０１,,23,205,4750836,,,,,,,2022-12-28,1,,,,,ハンダエンジニアリング,0
933,4230001019649,新規,0,2022-12-28,2022-12-28,株式会社Ｊａｐａｎｓ,,株式会社,富山県,南砺市,立野原東１５１４番地１８,,16,210,9391835,,,,,,,2022-12-28,1,,,,,ジャパンズ,0
934,4230003001951,新規,0,2022-12-28,2022-12-28,Ｙｏｕｔｈ　ｔｉｍｅ合同会社,,合同会社,富山県,下新川郡入善町,入膳４４７９番地３,,16,342,9390626,,,,,,,2022-12-28,1,,,,,ユースタイム,0
940,4280003001682,新規,0,2022-12-28,2022-12-28,合同会社プラン彩笑,,合同会社,島根県,出雲市,大津新崎町５丁目６０番地,,32,203,6930012,,,,,,,2022-12-28,1,,,,,プランサエ,0
949,4290003013355,新規,0,2022-12-28,2022-12-28,合同会社史,,合同会社,福岡県,糟屋郡粕屋町,大字仲原２５６６番地４,,40,349,8112304,,,,,,,2022-12-28,1,,,,,フミ,0
950,4290005018880,新規,0,2022-12-28,2022-12-28,一般社団法人オープンダイアローグ・アプローチ研究会ＦＬＡＴ,,その他の設立登記法人,福岡県,福岡市博多区,博多駅東２丁目１７－５ＡＲＫビル３Ｆ株式会社ヒューマナイズ内,,40,132,8120013,,,,,,,2022-12-28,1,,,,,オープンダイアローグアプローチケンキュウカイフラット,0
951,4290005018889,新規,0,2022-12-28,2022-12-28,司法書士法人ふくおか法務局前オフィス,,その他の設立登記法人,福岡県,福岡市中央区,舞鶴３丁目６番２３号サンハイツ舞鶴２階,,40,133,8100073,,,,,,,2022-12-28,1,,,,,フクオカホウムキョクマエオフィス,0
954,4290801029148,新規,0,2022-12-28,2022-12-28,株式会社ＹＡＤＡＨ　ＪＡＰＡＮ,,株式会社,福岡県,北九州市小倉北区,堺町２丁目３番３０－３０２号,,40,106,8020005,,,,,,,2022-12-28,1,,,,,ヤダジャパン,0
965,4330001030439,新規,0,2022-12-28,2022-12-28,株式会社ニックインテリアワークス,,株式会社,熊本県,熊本市中央区,水前寺公園２８番２３号,,43,101,8620956,,,,,,,2022-12-28,1,,,,,ニックインテリアワークス,0
974,4360001031384,新規,0,2022-12-28,2022-12-28,ライフマップ株式会社,,株式会社,沖縄県,宜野湾市,字宇地泊１００番地,,47,205,9012227,,,,,,,2022-12-28,1,,,,,ライフマップ,0
977,4370003005914,新規,0,2022-12-28,2022-12-28,合同会社ｎｅｘｔ　ｓｔａｇｅ,,合同会社,宮城県,仙台市太白区,袋原６丁目２０番６０号,,04,104,9811102,,,,,,,2022-12-28,1,,,,,ネクストステージ,0
983,4390005008987,新規,0,2022-12-28,2022-12-28,一般社団法人救急ＪＡＰＡＮ,,その他の設立登記法人,山形県,山形市,青田２丁目２番２２号,,06,201,9902435,,,,,,,2022-12-28,1,,,,,キュウキュウジャパン,0
988,4410003003731,新規,0,2022-12-28,2022-12-28,合同会社遖,,合同会社,秋田県,秋田市,東通６丁目１８番２６号プロス東通１０２号,,05,201,0100003,,,,,,,2022-12-28,1,,,,,アッパレ,0
991,4430001088104,新規,0,2022-12-28,2022-12-28,株式会社ファビティナクス,,株式会社,北海道,札幌市北区,北三十二条西３丁目２番２０号札幌第２ホワイトビル３階,,01,102,0010032,,,,,,,2022-12-28,1,,,,,ファビティナクス,0
1007,5010001231844,新規,0,2022-12-28,2022-12-28,兄弟ＪＡＰＡＮ株式会社,,株式会社,東京都,千代田区,神田小川町３丁目７番５号,,13,101,1010052,,,,,,,2022-12-28,1,,,,,キョウダイジャパン,0
1008,5010001231860,新規,0,2022-12-28,2022-12-28,株式会社レジャーパートナー,,株式会社,東京都,千代田区,丸の内３丁目１番１号東京共同会計事務所内,,13,101,1000005,,,,,,,2022-12-28,1,,,,,レジャーパートナー,0
1009,5010001231885,新規,0,2022-12-28,2022-12-28,株式会社オーディナリー,,株式会社,東京都,中央区,八重洲１丁目４番１６号八重仲ダイニングＢ１,,13,102,1030028,,,,,,,2022-12-28,1,,,,,オーディナリー,0
1012,5010003039451,新規,0,2022-12-28,2022-12-28,合同会社ベトファミリー,,合同会社,東京都,中央区,築地４丁目３番１２－１００６号,,13,102,1040045,,,,,,,2022-12-28,1,,,,,ベトファミリー,0
1026,5010501049803,新規,0,2022-12-28,2022-12-28,火楽株式会社,,株式会社,東京都,台東区,松が谷２丁目１５番８号浅草Ｋ２ビル４０２号室,,13,106,1110036,,,,,,,2022-12-28,1,,,,,ヒラク,0
1033,5010801033556,新規,0,2022-12-28,2022-12-28,株式会社イチステージ,,株式会社,東京都,大田区,蒲田５丁目１９番７号,,13,111,1440052,,,,,,,2022-12-28,1,,,,,イチステージ,0
1035,5010901052233,新規,0,2022-12-28,2022-12-28,株式会社Ｍａｎｉｐ．,,株式会社,東京都,世田谷区,大原１丁目１３－１,,13,112,1560041,,,,,,,2022-12-28,1,,,,,マニップ,0
1036,5010903007813,新規,0,2022-12-28,2022-12-28,ＯＮＥ合同会社,,合同会社,東京都,世田谷区,太子堂４丁目２７－２,,13,112,1540004,,,,,,,2022-12-28,1,,,,,,0
1037,5010903007870,新規,0,2022-12-28,2022-12-28,合同会社ＵＫＵＤＯＳ,,合同会社,東京都,世田谷区,野毛１丁目５番１４号,,13,112,1580092,,,,,,,2022-12-28,1,,,,,ユクドス,0
1042,5011001151685,新規,0,2022-12-28,2022-12-28,アイディール株式会社,,株式会社,東京都,渋谷区,道玄坂１丁目１０番８号渋谷道玄坂東急ビル２Ｆ－Ｃ,,13,113,1500043,,,,,,,2022-12-28,1,,,,,アイディール,0
1046,5011101101318,新規,0,2022-12-28,2022-12-28,株式会社Ｆｏｒｃｅ　Ｃｒｅａｔｅ,,株式会社,東京都,新宿区,西新宿６丁目２５番８－５０５号,,13,104,1600023,,,,,,,2022-12-28,1,,,,,フォースクリエイト,0
1047,5011101101326,新規,0,2022-12-28,2022-12-28,澤亘株式会社,,株式会社,東京都,新宿区,西新宿１丁目２６番２号新宿野村ビル３２階,,13,104,1600023,,,,,,,2022-12-28,1,,,,,サワタリ,0
1048,5011101101334,新規,0,2022-12-28,2022-12-28,株式会社ＮｉＸｉ,,株式会社,東京都,新宿区,新宿１丁目２４番７,,13,104,1600022,,,,,,,2022-12-28,1,,,,,ニクシィ,0
1050,5011203003973,新規,0,2022-12-28,2022-12-28,合同会社カパ,,合同会社,東京都,中野区,東中野４丁目３０番１６－４１４号,,13,114,1640003,,,,,,,2022-12-28,1,,,,,カパ,0
1053,5011503005414,新規,0,2022-12-28,2022-12-28,Ａｄｏｒｕ合同会社,,合同会社,東京都,荒川区,荒川４丁目１６番６号,,13,118,1160002,,,,,,,2022-12-28,1,,,,,アドル,0
1057,5011801041730,新規,0,2022-12-28,2022-12-28,株式会社ＳｔａｒｔＧｅａｒ,,株式会社,東京都,足立区,千住３丁目３５番地５セヴェル千住２０２,,13,121,1200034,,,,,,,2022-12-28,1,,,,,スタートギア,0
1061,5013103001198,新規,0,2022-12-28,2022-12-28,ＭＪ　ＷＯＲＬＤ合同会社,,合同会社,東京都,福生市,大字熊川１１０６番地１シャトル獅子山１０２号室,,13,218,1970003,,,,,,,2022-12-28,1,,,,,エムジェイワールド,0
1065,5020001149573,新規,0,2022-12-28,2022-12-28,メカニコ株式会社,,株式会社,神奈川県,横浜市中区,新山下３丁目３番２２号,,14,104,2310801,,,,,,,2022-12-28,1,,,,,メカニコ,0
1066,5020001149598,新規,0,2022-12-28,2022-12-28,株式会社エッセイ,,株式会社,神奈川県,横浜市磯子区,杉田９丁目２６番１号,,14,107,2350033,,,,,,,2022-12-28,1,,,,,エッセイ,0
1067,5020001149607,新規,0,2022-12-28,2022-12-28,株式会社わんぱら,,株式会社,神奈川県,川崎市高津区,久末５９５番地７,,14,134,2130026,,,,,,,2022-12-28,1,,,,,ワンパラ,0
1076,5021003012554,新規,0,2022-12-28,2022-12-28,合同会社鏡興業,,合同会社,神奈川県,中郡大磯町,国府新宿５７１－３,,14,341,2590112,,,,,,,2022-12-28,1,,,,,カガミコウギョウ,0
1081,5030001151669,新規,0,2022-12-28,2022-12-28,株式会社ＬＩＶ,,株式会社,埼玉県,所沢市,日吉町１０番１８号,,11,208,3591123,,,,,,,2022-12-28,1,,,,,リヴ,0
1082,5030001151677,新規,0,2022-12-28,2022-12-28,株式会社和食革命,,株式会社,埼玉県,ふじみ野市,西鶴ケ岡２丁目１６番２５号,,11,245,3560044,,,,,,,2022-12-28,1,,,,,ワショクカクメイ,0
1090,5040001126389,新規,0,2022-12-28,2022-12-28,株式会社レイズ,,株式会社,千葉県,習志野市,東習志野６丁目１４番７号,,12,216,2750001,,,,,,,2022-12-28,1,,,,,レイズ,0
1091,5040001126397,新規,0,2022-12-28,2022-12-28,基徳株式会社,00128917,株式会社,千葉県,八街市,砂６４３番地２,,12,230,2891121,,,,,,,2022-12-28,1,,,,,モトノリ,0
1096,5050003007099,新規,0,2022-12-28,2022-12-28,ＹＣプランニング合同会社,,合同会社,茨城県,つくば市,寺具１３４８－２６,,08,220,3004201,,,,,,,2022-12-28,1,,,,,ワイシープランニング,0
1128,5120001251360,新規,0,2022-12-28,2022-12-28,株式会社ラッキーフィールド,,株式会社,大阪府,大阪市東成区,大今里南４丁目１６番１７号,,27,115,5370013,,,,,,,2022-12-28,1,,,,,ラッキーフィールド,0
1129,5120001251369,新規,0,2022-12-28,2022-12-28,株式会社ＬＩＴ,,株式会社,大阪府,大阪市城東区,中央２丁目１２番７号２０２号室,,27,118,5360005,,,,,,,2022-12-28,1,,,,,リット,0
1130,5120001251393,新規,0,2022-12-28,2022-12-28,ＫＡＮＳＡＩパウダーコーティングス株式会社,,株式会社,大阪府,大阪市東淀川区,西淡路３丁目１５番２７号,,27,114,5330031,,,,,,,2022-12-28,1,,,,,カンサイパウダーコーティングス,0
1131,5120001251410,新規,0,2022-12-28,2022-12-28,東泰株式会社,,株式会社,大阪府,大阪市中央区,農人橋２丁目１－３１－１００２室,,27,128,5400011,,,,,,,2022-12-28,1,,,,,トウタイ,0
1134,5120103004996,新規,0,2022-12-28,2022-12-28,合同会社アドバンスエクスプレス,,合同会社,大阪府,高石市,羽衣１丁目６－１,,27,225,5920002,,,,,,,2022-12-28,1,,,,,アドバンスエクスプレス,0
1137,5122001036535,新規,0,2022-12-28,2022-12-28,株式会社ＩＲＯテック,,株式会社,大阪府,東大阪市,高井田８番７－４０６号,,27,227,5770053,,,,,,,2022-12-28,1,,,,,アイアールオーテック,0
1141,5130001073358,新規,0,2022-12-28,2022-12-28,株式会社ナキ,,株式会社,京都府,宇治市,木幡平尾２７番地の５５７,,26,204,6110002,,,,,,,2022-12-28,1,,,,,ナキ,0
1155,5180001154285,新規,0,2022-12-28,2022-12-28,株式会社ＫｅｅｐＳｔｅｐ,,株式会社,愛知県,春日井市,乙輪町３丁目４６番地２,,23,206,4860832,,,,,,,2022-12-28,1,,,,,キープステップ,0
1156,5180001154343,新規,0,2022-12-28,2022-12-28,ＡＬＺＥＳＴ株式会社,,株式会社,愛知県,名古屋市北区,喜惣治１丁目４１６番地の２,,23,103,4620065,,,,,,,2022-12-28,1,,,,,アルゼスト,0
1157,5180001154351,新規,0,2022-12-28,2022-12-28,株式会社レネ工業,,株式会社,愛知県,豊明市,沓掛町恵畑９９番,,23,229,4701101,,,,,,,2022-12-28,1,,,,,レネコウギョウ,0
1162,5180005020054,新規,0,2022-12-28,2022-12-28,一般社団法人エターナルスペース,,その他の設立登記法人,愛知県,春日井市,東神明町７０８番地１,,23,206,4870021,,,,,,,2022-12-28,1,,,,,エターナルスペース,0
1163,5180301036943,新規,0,2022-12-28,2022-12-28,株式会社ｆａｖ．ｃ,,株式会社,愛知県,安城市,和泉町大海古６番地１７,,23,212,4441222,,,,,,,2022-12-28,1,,,,,ファブドットシー,0
1164,5180301036951,新規,0,2022-12-28,2022-12-28,株式会社ＵＡｆｏｒｃｅ,,株式会社,愛知県,豊橋市,南小池町７４－１,,23,201,4418044,,,,,,,2022-12-28,1,,,,,ユウエイフォース,0
1165,5190001030056,新規,0,2022-12-28,2022-12-28,株式会社森企画,,株式会社,三重県,鈴鹿市,若松東２丁目２４－２１,,24,207,5100225,,,,,,,2022-12-28,1,,,,,モリキカク,0
1167,5190003004181,新規,0,2022-12-28,2022-12-28,合同会社Ｖｅｎｔｉ,,合同会社,三重県,三重郡朝日町,大字小向７１６番地３,,24,343,5108102,,,,,,,2022-12-28,1,,,,,ヴェンティ,0
1171,5200001040813,新規,0,2022-12-28,2022-12-28,株式会社Ｎｅｒｉｎｅ,,株式会社,岐阜県,岐阜市,宇佐東町１番３号,,21,201,5008366,,,,,,,2022-12-28,1,,,,,ネリネ,0
1188,5290001100014,新規,0,2022-12-28,2022-12-28,株式会社ジェイブリッジ,,株式会社,福岡県,福岡市中央区,天神４丁目１番２３号,,40,133,8100001,,,,,,,2022-12-28,1,,,,,ジェイブリッジ,0
1189,5290001100039,新規,0,2022-12-28,2022-12-28,Ｈ＆Ｓ測量株式会社,,株式会社,福岡県,福岡市中央区,舞鶴３丁目６番２３号サンハイツ舞鶴２階,,40,133,8100073,,,,,,,2022-12-28,1,,,,,エイチアンドエスソクリョウ,0
1190,5290001100047,新規,0,2022-12-28,2022-12-28,株式会社川勝設備,,株式会社,福岡県,福岡市南区,横手南町１７番２７－５０５号,,40,134,8111312,,,,,,,2022-12-28,1,,,,,カワカツセツビ,0
1194,5310003004499,新規,0,2022-12-28,2022-12-28,合同会社みなと林業,,合同会社,長崎県,長崎市,みなと坂２丁目２５―３１,,42,201,8500079,,,,,,,2022-12-28,1,,,,,,0
1195,5320003003979,新規,0,2022-12-28,2022-12-28,合同会社ＡＢＵＮＤＡＮＴ,,合同会社,大分県,大分市,大字宮河内３７６９番地の３２３,,44,201,8700276,,,,,,,2022-12-28,1,,,,,アバンダントゥ,0
1202,5360001031318,新規,0,2022-12-28,2022-12-28,株式会社Ｑｕｉｃｋ＆Ｃｏｏｌ,,株式会社,沖縄県,豊見城市,字豊崎１番地１１７８,,47,212,9010225,,,,,,,2022-12-28,1,,,,,クイックアンドクール,0
1203,5360001031375,新規,0,2022-12-28,2022-12-28,株式会社みたのホールディングス,,株式会社,沖縄県,中頭郡西原町,字小那覇１４０８番地１,,47,329,9030103,,,,,,,2022-12-28,1,,,,,ミタノホールディングス,0
1205,5370001049409,新規,0,2022-12-28,2022-12-28,株式会社ユニテクノ,,株式会社,宮城県,仙台市若林区,なないろの里１丁目１７番地の１,,04,103,9840017,,,,,,,2022-12-28,1,,,,,ユニテクノ,0
1226,5430003014593,新規,0,2022-12-28,2022-12-28,合同会社エムテック,,合同会社,北海道,札幌市中央区,南二条西７丁目１番５号２・７ビル２階,,01,101,0600062,,,,,,,2022-12-28,1,,,,,エムテック,0
1230,5460001005757,新規,0,2022-12-28,2022-12-28,株式会社Ｒｅ’ｌｉ,,株式会社,北海道,釧路市,愛国西３丁目８番２号インテルビル１Ｆ－Ｌ,,01,206,0850057,,,,,,,2022-12-28,1,,,,,リリ,0
1233,5700150113179,新規,0,2022-12-28,2022-12-01,川口市立高等学校後援会,,その他,埼玉県,川口市,上青木３丁目１－４０,,11,203,3330844,,,,,,,2022-12-01,1,,,,,カワグチシリツコウトウガツコウコウエンカイ,0
1234,5700150113526,新規,0,2022-12-28,2022-12-28,Ｂｅｉｊｉｎｇ　Ｊｉａｎ　Ｑｉａｎｇ　Ｇｕａｎ　Ｔｏｎｇ　Ｔｒａｄｉｎｇ　Ｃｏ．，Ｌｔｄ．,,外国会社等,,,,,,,,Ｙａｎｓｈａｎ　Ｙｉｎｇｆｅｎｇ　Ｙｉｌｉ，Ｆａｎｇｓｈａｎ，Ｂｅｉｊｉｎｇ，Ｃｈｉｎａ,,,,,,2022-12-28,1,,,,,ペキンジャンチアングァントントレーディングカンパニーリミテッド,0
1244,6010001231166,新規,0,2022-12-28,2022-12-28,Ｗｏｒｌｄ　Ａｌｌｉａｎｃｅ　ＧＳＡ株式会社,,株式会社,東京都,千代田区,六番町１５番２号,,13,101,1020085,,,,,,,2022-12-28,1,,,,,ワールドアライアンスジーエスエー,0
1245,6010001231884,新規,0,2022-12-28,2022-12-28,株式会社トップイノベーション,,株式会社,東京都,中央区,銀座６丁目１３番１６号ヒューリック銀座ウォールビル７階,,13,102,1040061,,,,,,,2022-12-28,1,,,,,トップイノベーション,0
1246,6010001231901,新規,0,2022-12-28,2022-12-28,株式会社Ｍ２Ｘ,,株式会社,東京都,中央区,晴海２丁目２－４２パークタワー晴海４１１６号,,13,102,1040053,,,,,,,2022-12-28,1,,,,,エムツーエックス,0
1251,6010003039426,新規,0,2022-12-28,2022-12-28,合同会社神田プロモーション,,合同会社,東京都,千代田区,鍛冶町２丁目７番５号日宝神田イーストビル７Ｆ,,13,101,1010044,,,,,,,2022-12-28,1,,,,,カンダプロモーション,0
1261,6010401171540,新規,0,2022-12-28,2022-12-28,ＫＹＯ株式会社,,株式会社,東京都,港区,六本木６丁目１番２０号７階,,13,103,1060032,,,,,,,2022-12-28,1,,,,,キョウ,0
1272,6010403029191,新規,0,2022-12-28,2022-12-28,Ｐｒｅｆａｃｅ　Ｔｅｃｈｎｏｐｒｅｎｅｕｒ　Ｊａｐａｎ合同会社,,合同会社,東京都,港区,南青山１丁目２４－３,,13,103,1070062,,,,,,,2022-12-28,1,,,,,プリフェイステクノプレナージャパン,0
1273,6010403029200,新規,0,2022-12-28,2022-12-28,眠りの森合同会社,,合同会社,東京都,港区,赤坂３丁目１５番５号アーベイン赤坂３０１,,13,103,1070052,,,,,,,2022-12-28,1,,,,,ネムリノモリ,0
1281,6010603009919,新規,0,2022-12-28,2022-12-28,合同会社ＥＶＯＬＶＥ,,合同会社,東京都,江東区,亀戸３丁目２０－６メゾンクレール４０２,,13,108,1360071,,,,,,,2022-12-28,1,,,,,エボルブ,0
1282,6010803004406,新規,0,2022-12-28,2022-12-28,合同会社ＣＯＮＮＥＣＴ　ＵＰ,,合同会社,東京都,大田区,西蒲田６丁目１３番３号,,13,111,1440051,,,,,,,2022-12-28,1,,,,,コネクトアップ,0
1285,6010901052232,新規,0,2022-12-28,2022-12-28,Ａｉｌｏ＆Ｈａｒｒｙ’ｓ株式会社,,株式会社,東京都,世田谷区,野沢４丁目２０番２号Ｂ－１,,13,112,1540003,,,,,,,2022-12-28,1,,,,,アイロアンドハリーズ,0
1296,6011001151692,新規,0,2022-12-28,2022-12-28,株式会社ＣＡＬＡＳ,,株式会社,東京都,渋谷区,宇田川町４－１０ヒルサイドフジ１Ａ,,13,113,1500042,,,,,,,2022-12-28,1,,,,,カラス,0
1300,6011003016002,新規,0,2022-12-28,2022-12-28,合同会社ＧＪＤＣＰ,,合同会社,東京都,渋谷区,広尾１丁目１１番２号嶋本公認会計士事務所気付,,13,113,1500012,,,,,,,2022-12-28,1,,,,,ジージェイディーシーピー,0
1302,6011005009887,新規,0,2022-12-28,2022-12-28,ＴＹ監査法人,,その他の設立登記法人,東京都,渋谷区,代々木２丁目２３番１号ニューステイトメナー１２５５,,13,113,1510053,,,,,,,2022-12-28,1,,,,,ティワイ,0
1307,6011101101250,新規,0,2022-12-28,2022-12-28,株式会社ＲＥＡＬＩＺＥ　ＣＬＯＵＤ,,株式会社,東京都,新宿区,大久保１丁目５番７号プラザ・ドウ・セーヌ２０２,,13,104,1690072,,,,,,,2022-12-28,1,,,,,リアライズクラウド,0
1308,6011103012537,新規,0,2022-12-28,2022-12-28,Ｇ‐ＴＥＣＨ合同会社,,合同会社,東京都,新宿区,北新宿３丁目１１番３号土井アパート１号室,,13,104,1690074,,,,,,,2022-12-28,1,,,,,ジーテック,0
1309,6011105010506,新規,0,2022-12-28,2022-12-28,一般社団法人大猩会,,その他の設立登記法人,東京都,新宿区,大久保２丁目４番地１２号新宿ラムダックスビル８Ｆ,,13,104,1690072,,,,,,,2022-12-28,1,,,,,タイセイカイ,0
1314,6011403003855,新規,0,2022-12-28,2022-12-28,合同会社Ｙ’ｓＣａｓａ,,合同会社,東京都,板橋区,常盤台２丁目２９－１６（奥左）,,13,119,1740071,,,,,,,2022-12-28,1,,,,,ワイズカーサ,0
1315,6011503005405,新規,0,2022-12-28,2022-12-28,ＬＩＭＥＲＥＮＣＥ合同会社,,合同会社,東京都,荒川区,東日暮里６丁目２２－５大和マンション１０１,,13,118,1160014,,,,,,,2022-12-28,1,,,,,リメレンス,0
1317,6011701025907,新規,0,2022-12-28,2022-12-28,株式会社ＲＥＧＵＬＵＳ,,株式会社,東京都,江戸川区,本一色３丁目２６－６,,13,123,1330044,,,,,,,2022-12-28,1,,,,,レグルス,0
1321,6012405004817,新規,0,2022-12-28,2022-12-28,一般社団法人伝統をつなぐ会くるる舎,,その他の設立登記法人,東京都,府中市,宮町１丁目２１番地の２ライオンズタワー府中１０１,,13,206,1830023,,,,,,,2022-12-28,1,,,,,デントウヲツナグカイクルルシャ,0
1335,6020001149556,新規,0,2022-12-28,2022-12-28,株式会社ＨＩＫＡＲＩＫＡ,,株式会社,神奈川県,川崎市多摩区,布田４－６ブロブラン１０３,,14,135,2140011,,,,,,,2022-12-28,1,,,,,ヒカリカ,0
1336,6020001149580,新規,0,2022-12-28,2022-12-28,株式会社Ｒｅｓｔａ,,株式会社,神奈川県,川崎市幸区,中幸町１丁目５０番服部ビル１Ｆ,,14,132,2120012,,,,,,,2022-12-28,1,,,,,レスタ,0
1337,6020001149597,新規,0,2022-12-28,2022-12-28,ディーインク株式会社,,株式会社,神奈川県,川崎市多摩区,登戸３２１６番地１,,14,135,2140014,,,,,,,2022-12-28,1,,,,,ディーインク,0
1338,6020001149606,新規,0,2022-12-28,2022-12-28,株式会社ＳＫＥＴ,,株式会社,神奈川県,横浜市都筑区,荏田東３丁目４番１号,,14,118,2240006,,,,,,,2022-12-28,1,,,,,スケット,0
1340,6020003022983,新規,0,2022-12-28,2022-12-28,ＳｅｃｏｎｄＴｒｅｅ合同会社,,合同会社,神奈川県,横浜市磯子区,滝頭１丁目１－１９－１,,14,107,2350012,,,,,,,2022-12-28,1,,,,,セカンドツリー,0
1341,6020003022991,新規,0,2022-12-28,2022-12-28,ＴＤ　Ｔｒａｃｋｓ合同会社,,合同会社,神奈川県,川崎市川崎区,鋼管通１丁目１６番５号,,14,131,2100852,,,,,,,2022-12-28,1,,,,,ティーディートラックス,0
1342,6020005015787,新規,0,2022-12-28,2022-12-28,司法書士法人こもれび,,その他の設立登記法人,神奈川県,横浜市港南区,上大岡西１丁目６番１号ゆめおおおかオフィスタワー２４階,,14,111,2330002,,,,,,,2022-12-28,1,,,,,コモレビ,0
1344,6021001077796,新規,0,2022-12-28,2022-12-28,株式会社湘南オリーブ園,,株式会社,神奈川県,綾瀬市,深谷上８丁目１３番５号,,14,218,2521108,,,,,,,2022-12-28,1,,,,,ショウナンオリーブエン,0
1345,6021001077813,新規,0,2022-12-28,2022-12-28,株式会社Ａｌｉｖｅ,,株式会社,神奈川県,相模原市南区,上鶴間５丁目９－１０リッツ相模大野２０５,,14,153,2520302,,,,,,,2022-12-28,1,,,,,アライブ,0
1347,6021005012709,新規,0,2022-12-28,2022-12-28,一般社団法人Ｆｉｎ　Ｃｉｔｙ　Ｃｒｅａｔｉｏｎｓ,,その他の設立登記法人,神奈川県,小田原市,池上１５０番地の５,,14,206,2500041,,,,,,,2022-12-28,1,,,,,フィンシティクリエイションズ,0
1353,6030001151651,新規,0,2022-12-28,2022-12-28,永澤商事株式会社,,株式会社,埼玉県,草加市,谷塚町９９４番地６,,11,221,3400023,,,,,,,2022-12-28,1,,,,,ナガサワショウジ,0
1356,6030003020788,新規,0,2022-12-28,2022-12-28,合同会社ｔｅｍｐｏｒａｒｙ,,合同会社,埼玉県,坂戸市,末広町８－３北坂シティドミール４０３,,11,239,3500272,,,,,,,2022-12-28,1,,,,,テンポラリー,0
1361,6040001126388,新規,0,2022-12-28,2022-12-28,株式会社Ｐｈｅｎｉｘ,,株式会社,千葉県,船橋市,二和西４丁目４番３３号,,12,204,2740806,,,,,,,2022-12-28,1,,,,,フェニックス,0
1362,6040001126396,新規,0,2022-12-28,2022-12-28,前田インターナショナル株式会社,,株式会社,千葉県,千葉市花見川区,犢橋町６１番地９,,12,102,2620013,,,,,,,2022-12-28,1,,,,,マエダインターナショナル,0
1372,6050003007115,新規,0,2022-12-28,2022-12-28,合同会社古河トレーディング,,合同会社,茨城県,坂東市,逆井４１１２番地５７,,08,228,3060501,,,,,,,2022-12-28,1,,,,,コガトレーディング,0
1373,6050003007123,新規,0,2022-12-28,2022-12-28,合同会社ＡＲトレーディング,,合同会社,茨城県,土浦市,中村南１丁目２０番１２,,08,203,3000843,,,,,,,2022-12-28,1,,,,,エーアールトレーディング,0
1376,6070001039959,新規,0,2022-12-28,2022-12-28,ＳＨＵＲＩ株式会社,,株式会社,群馬県,高崎市,飯塚町１７１番地６サンテラスウエハラ１号棟１０１号,,10,202,3700069,,,,,,,2022-12-28,1,,,,,シュリ,0
1378,6080401026218,新規,0,2022-12-28,2022-12-28,株式会社ＮＣ,,株式会社,静岡県,浜松市中区,鍛冶町１５番,,22,131,4300933,,,,,,,2022-12-28,1,,,,,エヌシー,0
1395,6120001251368,新規,0,2022-12-28,2022-12-28,ｐｅｇａｓｕｓ　ｍａｎａｇｅｍｅｎｔ株式会社,,株式会社,大阪府,大阪市平野区,瓜破西３丁目１１番４号,,27,126,5470025,,,,,,,2022-12-28,1,,,,,ペガサスマネージメント,0
1396,6120001251376,新規,0,2022-12-28,2022-12-28,株式会社Ｙａｍａｔｏ　ｔｒａｖｅｌ,,株式会社,大阪府,大阪市阿倍野区,文の里１丁目８番１７号,,27,119,5450004,,,,,,,2022-12-28,1,,,,,ヤマトトラベル,0
1397,6120001251392,新規,0,2022-12-28,2022-12-28,ＭａｌｕＫ株式会社,,株式会社,大阪府,大阪市平野区,平野西５丁目３番１０号２０２号室,,27,126,5470033,,,,,,,2022-12-28,1,,,,,マルク,0
1401,6120003023138,新規,0,2022-12-28,2022-12-28,楽康合同会社,,合同会社,大阪府,大阪市阿倍野区,天王寺町南３丁目５番１４,,27,119,5450002,,,,,,,2022-12-28,1,,,,,ラクコウ,0
1402,6120003023146,新規,0,2022-12-28,2022-12-28,合同会社エボルブ,,合同会社,大阪府,大阪市中央区,日本橋２丁目２０－３－１４０４,,27,128,5420073,,,,,,,2022-12-28,1,,,,,エボルブ,0
1403,6120003023162,新規,0,2022-12-28,2022-12-28,合同会社Ｍ・Ａ・Ｄ　ＦＡＭＩＬＹ,,合同会社,大阪府,大阪市生野区,巽中２丁目１番９号,00128922,27,116,5440013,,,,,,,2022-12-28,1,,,,,エムエーディファミリー,0
1413,6120903004435,新規,0,2022-12-28,2022-12-28,合同会社Ｒａｎ．ｕ,,合同会社,大阪府,豊中市,長興寺南１丁目１番４０号アイコート１０１号室,,27,203,5610874,,,,,,,2022-12-28,1,,,,,ランウー,0
1414,6122001036501,新規,0,2022-12-28,2022-12-28,株式会社ＯＭＧ,,株式会社,大阪府,柏原市,国分本町２丁目７－１２,,27,221,5820021,,,,,,,2022-12-28,1,,,,,オーエムジー,0
1420,6130001073332,新規,0,2022-12-28,2022-12-28,日本森栄株式会社,,株式会社,京都府,京都市伏見区,醍醐大高町１４－８,,26,109,6011311,,,,,,,2022-12-28,1,,,,,ニホンシンエイ,0
1421,6130001073365,新規,0,2022-12-28,2022-12-28,株式会社アクロス,,株式会社,京都府,亀岡市,曽我部町南条向山２９番地２８,,26,206,6210022,,,,,,,2022-12-28,1,,,,,アクロス,0
1427,6140001128556,新規,0,2022-12-28,2022-12-28,ＦＮＳホールディングス株式会社,,株式会社,兵庫県,神戸市西区,高塚台３丁目２番地の３２,,28,111,6512271,,,,,,,2022-12-28,1,,,,,エフエヌエスホールディングス,0
1428,6140005026418,新規,0,2022-12-28,2022-12-28,特定非営利活動法人ほーぷ,,その他の設立登記法人,兵庫県,加古川市,加古川町大野８１４番地１の３,,28,210,6750061,,,,,,,2022-12-28,1,,,,,ホープ,0
1430,6150003002849,新規,0,2022-12-28,2022-12-28,ＡｉＴ合同会社,,合同会社,奈良県,高市郡明日香村,大字岡１１５２番地,,29,402,6340111,,,,,,,2022-12-28,1,,,,,エイアイティ,0
1431,6160001024729,新規,0,2022-12-28,2022-12-28,株式会社スエナリ,,株式会社,滋賀県,甲賀市,土山町市場１６４番地１,,25,209,5280233,,,,,,,2022-12-28,1,,,,,スエナリ,0
1439,6180001153880,新規,0,2022-12-28,2022-12-28,株式会社Ｒ＆ｔ,,株式会社,愛知県,犬山市,字稲干場２１番地５,,23,215,4840056,,,,,,,2022-12-28,1,,,,,アールアンドティー,0
1440,6180001154301,新規,0,2022-12-28,2022-12-28,株式会社Ｃｒｏｓｓｏｖｅｒ,,株式会社,愛知県,尾張旭市,東山町２丁目２番地５,,23,226,4880825,,,,,,,2022-12-28,1,,,,,クロスオーバー,0
1441,6180001154318,新規,0,2022-12-28,2022-12-28,株式会社オキテル,,株式会社,愛知県,名古屋市瑞穂区,明前町３番７号,,23,108,4670852,,,,,,,2022-12-28,1,,,,,オキテル,0
1442,6180001154326,新規,0,2022-12-28,2022-12-28,株式会社Ｒａｉｎｂｏｗ　Ｃｈｉｌｄｒｅｎ,,株式会社,愛知県,名古屋市東区,泉１丁目１番３１号,,23,102,4610001,,,,,,,2022-12-28,1,,,,,レインボーチルドレン,0
1446,6180301036942,新規,0,2022-12-28,2022-12-28,株式会社キテン,,株式会社,愛知県,岡崎市,保久町字神水３９番地,,23,202,4443442,,,,,,,2022-12-28,1,,,,,キテン,0
1447,6180303005549,新規,0,2022-12-28,2022-12-28,合同会社タルバラヒ,,合同会社,愛知県,西尾市,吉良町岡山鎧３６番地,,23,213,4440531,,,,,,,2022-12-28,1,,,,,タルバラヒ,0
1450,6190001030055,新規,0,2022-12-28,2022-12-28,株式会社ＮＡＮＳＥＩ,,株式会社,三重県,伊勢市,村松町１３８０番地１１,,24,203,5150507,,,,,,,2022-12-28,1,,,,,ナンセイ,0
1457,6240001060856,新規,0,2022-12-28,2022-12-28,株式会社岩崎会計,,株式会社,広島県,広島市西区,古江西町２番６号,,34,104,7330874,,,,,,,2022-12-28,1,,,,,イワサキカイケイ,0
1458,6240001060864,新規,0,2022-12-28,2022-12-28,株式会社プライオリティ,,株式会社,広島県,広島市西区,横川町３丁目１０番３－３０１号,,34,104,7330011,,,,,,,2022-12-28,1,,,,,プライオリティ,0
1465,6260001037522,新規,0,2022-12-28,2022-12-28,株式会社ＫＥＮＳＨＯ,,株式会社,岡山県,岡山市南区,新保１１１６番地１,,33,104,7000945,,,,,,,2022-12-28,1,,,,,ケンショウ,0
1466,6260003004132,新規,0,2022-12-28,2022-12-28,合同会社ＳＥＥＤ,,合同会社,岡山県,岡山市北区,西古松２２５番地７,,33,101,7000927,,,,,,,2022-12-28,1,,,,,シード,0
1468,6290001100038,新規,0,2022-12-28,2022-12-28,株式会社２３２６,,株式会社,福岡県,福岡市中央区,荒戸２丁目４番１４,,40,133,8100062,,,,,,,2022-12-28,1,,,,,ニサンニロク,0
1469,6290003013353,新規,0,2022-12-28,2022-12-28,親愛合同会社,,合同会社,福岡県,大牟田市,大字吉野１５５１番地２４,,40,202,8370904,,,,,,,2022-12-28,1,,,,,シンアイ,0
1470,6290003013361,新規,0,2022-12-28,2022-12-28,合同会社ライトスリー,,合同会社,福岡県,福岡市東区,香椎駅東４丁目３４番５０号,,40,131,8130012,,,,,,,2022-12-28,1,,,,,ライトスリー,0
1477,6320001019489,新規,0,2022-12-28,2022-12-28,株式会社かんなわファーム,,株式会社,大分県,別府市,大字鉄輪３４５番地の４,,44,202,8740000,,,,,,,2022-12-28,1,,,,,カンナワファーム,0
1478,6330001030437,新規,0,2022-12-28,2022-12-28,株式会社稲田興業,,株式会社,熊本県,玉名市,中１２０８番地３,,43,206,8650064,,,,,,,2022-12-28,1,,,,,イナダコウギョウ,0
1486,6350005006126,新規,0,2022-12-28,2022-12-28,特定非営利活動法人ネクストジェネレーション,,その他の設立登記法人,宮崎県,宮崎市,清武町正手３丁目２２番地６－２０１,,45,201,8891603,,,,,,,2022-12-28,1,,,,,ネクストジェネレーション,0
1491,6370001049408,新規,0,2022-12-28,2022-12-28,株式会社ナナト,,株式会社,宮城県,名取市,ゆりが丘５丁目８番地の６,,04,207,9811245,,,,,,,2022-12-28,1,,,,,ナナト,0
1505,6430001088110,新規,0,2022-12-28,2022-12-28,テンプリンク株式会社,,株式会社,北海道,札幌市清田区,北野七条４丁目９番２５号,,01,110,0040867,,,,,,,2022-12-28,1,,,,,テンプリンク,0
1508,6450001013867,新規,0,2022-12-28,2022-12-28,サンクコントロールズ株式会社,,株式会社,北海道,上川郡東神楽町,ひじり野北一条３丁目１－７－２ＯＣＴＡ２０１,,01,453,0711521,,,,,,,2022-12-28,1,,,,,サンクコントロールズ,0
1511,6480001011959,新規,0,2022-12-28,2022-12-28,株式会社Ｖｅｒｃｈ,,株式会社,徳島県,板野郡上板町,鍛冶屋原字西北原２９番地５,,36,405,7711301,,,,,,,2022-12-28,1,,,,,ベルーチ,0
1517,6700150113525,新規,0,2022-12-28,2022-12-28,ｓｈｅｎｚｈｅｎｓｈｉ　ｊｉｒｅｎ　ｋｅｊｉ　ｙｏｕｘｉａｎｇｏｎｇｓｉ,,外国会社等,,,,,,,,２ｎｄ　ｆｌｏｏｒ，Ｂｕｉｌｄｉｎｇ　３０，Ｉｎｄｕｓｔｒｉａｌ　Ｚｏｎｅ，Ｂａｏｍｉｎ　Ｓｅｃｏｎｄ　Ｒｏａｄ，Ｘｉｘｉａｎｇ　Ｓｔｒｅｅｔ，Ｂａｏ’ａｎ　Ｄｉｓｔｒｉｃｔ，Ｓｈｅｎｚｈｅｎ，Ｃｈｉｎａ,,,,,,2022-12-28,1,,,,,シンセンシジレンケイジユウキョウオンシ,0
1523,7010001231867,新規,0,2022-12-28,2022-12-28,Ｐｌａｙ　Ｔｒａｎｓ株式会社,,株式会社,東京都,千代田区,神田淡路町１丁目９番５号,,13,101,1010063,,,,,,,2022-12-28,1,,,,,プレイトランス,0
1529,7010005036032,新規,0,2022-12-28,2022-12-28,一般社団法人モーターサイクルレーシングプロモーションオブジャパン,,その他の設立登記法人,東京都,文京区,大塚３丁目１９番１０号文京ＫＳビル２Ｆ,,13,105,1120012,,,,,,,2022-12-28,1,,,,,モーターサイクルレーシングプロモーションオブジャパン,0
1534,7010401171564,新規,0,2022-12-28,2022-12-28,株式会社そととまり,,株式会社,東京都,港区,芝５丁目３２番１２号シャーメゾンステージ田町,,13,103,1080014,,,,,,,2022-12-28,1,,,,,ソトトマリ,0
1535,7010401171606,新規,0,2022-12-28,2022-12-28,Ｌｉｍｉｔｅｄ　Ｍｅｍｂｅｒｓ　Ａｓｓｏｃｉａｔｅ株式会社,,株式会社,東京都,港区,麻布十番１丁目３番８号,,13,103,1060045,,,,,,,2022-12-28,1,,,,,リミテッドメンバーズアソシエイト,0
1536,7010401171614,新規,0,2022-12-28,2022-12-28,株式会社ＨＧＴ,,株式会社,東京都,港区,三田２丁目９番１－４０３号,,13,103,1080073,,,,,,,2022-12-28,1,,,,,エイチジーティー,0
1547,7010403029208,新規,0,2022-12-28,2022-12-28,ロキュータス合同会社,,合同会社,東京都,港区,南青山２丁目２番１５号,,13,103,1070062,,,,,,,2022-12-28,1,,,,,ロキュータス,0
1566,7011101101266,新規,0,2022-12-28,2022-12-28,株式会社フィラピーメディカルジャパン,,株式会社,東京都,新宿区,早稲田鶴巻町５２０番地３０１号,,13,104,1620041,,,,,,,2022-12-28,1,,,,,フィラピーメディカルジャパン,0
1567,7011101101274,新規,0,2022-12-28,2022-12-28,株式会社データパレード,,株式会社,東京都,新宿区,高田馬場４丁目３８番１７－２０１号,,13,104,1690075,,,,,,,2022-12-28,1,,,,,データパレード,0
1568,7011101101316,新規,0,2022-12-28,2022-12-28,株式会社ＡｚＬｙ,,株式会社,東京都,新宿区,西新宿７丁目５番９－１７１７号,,13,104,1600023,,,,,,,2022-12-28,1,,,,,アズリー,0
1569,7011101101324,新規,0,2022-12-28,2022-12-28,株式会社Ｄｒｉｖｉｎｇ　Ｐｌａｔｅｓ,,株式会社,東京都,新宿区,西新宿３丁目３番１３号西新宿水間ビル６階,,13,104,1600023,,,,,,,2022-12-28,1,,,,,ドライビングプレイツ,0
1570,7011103012437,新規,0,2022-12-28,2022-12-28,合同会社エスケー,,合同会社,東京都,新宿区,西新宿３丁目５番１２号トーカン新宿第二キャステール３１０号室,,13,104,1600023,,,,,,,2022-12-28,1,,,,,エスケー,0
1571,7011103012536,新規,0,2022-12-28,2022-12-28,合同会社ＯＲＢ,,合同会社,東京都,新宿区,西新宿３丁目３番１３号西新宿水間ビル６階,,13,104,1600023,,,,,,,2022-12-28,1,,,,,オーブ,0
1577,7011603003786,新規,0,2022-12-28,2022-12-28,合同会社ツキノミチカケ,,合同会社,東京都,練馬区,桜台１丁目２６番１８号,,13,120,1760002,,,,,,,2022-12-28,1,,,,,ツキノミチカケ,0
1579,7011801041729,新規,0,2022-12-28,2022-12-28,株式会社良心サービス,,株式会社,東京都,足立区,東和５丁目９番２１－５０３号,,13,121,1200003,,,,,,,2022-12-28,1,,,,,リョウシンサービス,0
1586,7020001149571,新規,0,2022-12-28,2022-12-28,株式会社Ｉｋｏｔａ‐ｓ　ｌｉｖｉｎｇ,,株式会社,神奈川県,川崎市多摩区,宿河原１丁目２８番１号,,14,135,2140021,,,,,,,2022-12-28,1,,,,,イコタスリビング,0
1588,7020005015794,新規,0,2022-12-28,2022-12-28,医療法人仁誠会,,その他の設立登記法人,神奈川県,横浜市港北区,綱島西４丁目８番１８号川野ビル２階,,14,109,2230053,,,,,,,2022-12-28,1,,,,,ジンセイカイ,0
1592,7021001077820,新規,0,2022-12-28,2022-12-28,Ｐｅａｃｅ株式会社,,株式会社,神奈川県,相模原市緑区,東橋本３丁目２番地１号,,14,151,2520144,,,,,,,2022-12-28,1,,,,,ピース,0
1603,7030003020837,新規,0,2022-12-28,2022-12-28,フェズ合同会社,,合同会社,埼玉県,入間郡毛呂山町,大字市場１２８番地１－１０５号,,11,326,3500434,,,,,,,2022-12-28,1,,,,,フェズ,0
1610,7040001126387,新規,0,2022-12-28,2022-12-28,株式会社秀星,,株式会社,千葉県,市原市,根田３丁目２番地２,,12,219,2900024,,,,,,,2022-12-28,1,,,,,シュウセイ,0
1611,7040005021849,新規,0,2022-12-28,2022-12-28,一般社団法人まつどマチづくり会,,その他の設立登記法人,千葉県,松戸市,三矢小台５丁目２３番地の２,,12,207,2710087,,,,,,,2022-12-28,1,,,,,マツドマチヅクリカイ,0
1616,7050001052161,新規,0,2022-12-28,2022-12-28,株式会社ＺＥＲＯ,,株式会社,茨城県,つくば市,中別府５９２番地３８,,08,220,3002667,,,,,,,2022-12-28,1,,,,,ゼロ,0
1635,7120001251359,新規,0,2022-12-28,2022-12-28,株式会社ア・ジット,,株式会社,大阪府,枚方市,東香里南町２１番１号,,27,210,5730074,,,,,,,2022-12-28,1,,,,,アジット,0
1636,7120001251383,新規,0,2022-12-28,2022-12-28,株式会社ＬＬ,,株式会社,大阪府,大阪市生野区,巽西４丁目６番３号,00128918,27,116,5440012,,,,,,,2022-12-28,1,,,,,エルエル,0
1637,7120001251391,新規,0,2022-12-28,2022-12-28,株式会社ＪＨＳ,,株式会社,大阪府,大阪市西区,南堀江３丁目７番１９号,,27,106,5500015,,,,,,,2022-12-28,1,,,,,ジェイエッチエス,0
1638,7120001251400,新規,0,2022-12-28,2022-12-28,怡和商貿株式会社,,株式会社,大阪府,大阪市西区,南堀江４丁目３－１９－４０７,,27,106,5500015,,,,,,,2022-12-28,1,,,,,イワショウボウ,0
1639,7120001251409,新規,0,2022-12-28,2022-12-28,株式会社ＲｓＡ,,株式会社,大阪府,大阪市北区,梅田１丁目２番２号大阪駅前第二ビル１２－１２,,27,127,5300001,,,,,,,2022-12-28,1,,,,,アールエスエー,0
1642,7120003023129,新規,0,2022-12-28,2022-12-28,合同会社ロードバイクレンタルジャパン,,合同会社,大阪府,大阪市都島区,中野町５丁目２番５号,,27,102,5340027,,,,,,,2022-12-28,1,,,,,ロードバイクレンタルジャパン,0
1643,7120003023145,新規,0,2022-12-28,2022-12-28,合同会社ベルフィオーレ,,合同会社,大阪府,大阪市中央区,島之内１丁目４番３０号大宝寺ビル２Ｆ－２,,27,128,5420082,,,,,,,2022-12-28,1,,,,,ベルフィオーレ,0
1644,7120003023153,新規,0,2022-12-28,2022-12-28,合同会社ウェストラック,,合同会社,大阪府,大阪市西区,新町３丁目４番１１号,,27,106,5500013,,,,,,,2022-12-28,1,,,,,ウェストラック,0
1645,7120003023161,新規,0,2022-12-28,2022-12-28,俺の名はＪ合同会社,,合同会社,大阪府,大阪市住之江区,北加賀屋２丁目１２－１１,,27,125,5590011,,,,,,,2022-12-28,1,,,,,オレノナハジェイ,0
1664,7140001128530,新規,0,2022-12-28,2022-12-28,株式会社エクステリア西垣,,株式会社,兵庫県,姫路市,刀出３５９番地,,28,201,6712241,,,,,,,2022-12-28,1,,,,,エクステリアニシガキ,0
1665,7140001128539,新規,0,2022-12-28,2022-12-28,戎コンサルティング株式会社,,株式会社,兵庫県,西宮市,馬場町４番４号いすず西宮ビル３階,,28,204,6620915,,,,,,,2022-12-28,1,,,,,エビスコンサルティング,0
1666,7140001128563,新規,0,2022-12-28,2022-12-28,株式会社ＪＰ　ＴＲＡＤＩＮＧ,,株式会社,兵庫県,神戸市中央区,港島中町３丁目２番地の１ポートアイランド団地６２棟１２０３号,,28,110,6500046,,,,,,,2022-12-28,1,,,,,ジェイピートレーディング,0
1670,7150003002848,新規,0,2022-12-28,2022-12-28,合同会社ハルカ,,合同会社,奈良県,生駒郡三郷町,立野北２丁目２８番２９号,,29,343,6360821,,,,,,,2022-12-28,1,,,,,ハルカ,0
1671,7160001024728,新規,0,2022-12-28,2022-12-28,ＡＳＰＩＲＥ　ＨＤ株式会社,,株式会社,滋賀県,米原市,一色５０番地の３,,25,214,5210031,,,,,,,2022-12-28,1,,,,,アスパイアホールディング,0
1685,7180001154317,新規,0,2022-12-28,2022-12-28,株式会社大藪美装,,株式会社,愛知県,丹羽郡扶桑町,大字柏森字長畑５５５番地,,23,362,4800103,,,,,,,2022-12-28,1,,,,,オオヤブビソウ,0
1689,7180003024658,新規,0,2022-12-28,2022-12-28,Ｍｉｎｔ　Ｌｏｌｌｉｐｏｐ合同会社,,合同会社,愛知県,名古屋市港区,名港１丁目１４番２４号佐藤ビル１階,,23,111,4550037,,,,,,,2022-12-28,1,,,,,ミントロリポップ,0
1690,7180003024666,新規,0,2022-12-28,2022-12-28,合同会社ＢｌｕｅＲｏｓｅ,,合同会社,愛知県,名古屋市中村区,本陣通３丁目５３番地の１,,23,105,4530041,,,,,,,2022-12-28,1,,,,,ブルーローズ,0
1691,7190001030054,新規,0,2022-12-28,2022-12-28,株式会社Ｋプラン,,株式会社,三重県,伊賀市,服部町２丁目６２番地,,24,216,5180007,,,,,,,2022-12-28,1,,,,,ケープラン,0
1695,7200003005779,新規,0,2022-12-28,2022-12-28,合同会社ＧＡ　ＩＮＴＥＲＮＡＴＩＯＮＡＬ,,合同会社,岐阜県,羽島郡岐南町,八剣北３丁目１１４番地エル美幸１０１号室,,21,302,5016011,,,,,,,2022-12-28,1,,,,,ジーエーインターナショナル,0
1703,7250001019900,新規,0,2022-12-28,2022-12-28,レコパンフードビジネス株式会社,,株式会社,山口県,宇部市,中央町２丁目４番２１号,,35,202,7550045,,,,,,,2022-12-28,1,,,,,レコパンフードビジネス,0
1706,7270001008694,新規,0,2022-12-28,2022-12-28,株式会社ＳＳＮ,,株式会社,鳥取県,鳥取市,南安長１丁目１番２号,,31,201,6800914,,,,,,,2022-12-28,1,,,,,エスエスエヌ,0
1711,7290001100045,新規,0,2022-12-28,2022-12-28,株式会社ｕｎｄｅｒｂａｒ,,株式会社,福岡県,福岡市中央区,大名２丁目６－１１,,40,133,8100041,,,,,,,2022-12-28,1,,,,,アンダーバー,0
1714,7290003013352,新規,0,2022-12-28,2022-12-28,合同会社ＨＡＩＮ,,合同会社,福岡県,福岡市博多区,吉塚１丁目１３番１４－２０３号ＳＯＰＨＩＡ２１,,40,132,8120041,,,,,,,2022-12-28,1,,,,,ハイン,0
1715,7290003013360,新規,0,2022-12-28,2022-12-28,合同会社ＡＫ,,合同会社,福岡県,福岡市博多区,諸岡６丁目１２番１７－２０５号サンシャイン諸岡,,40,132,8120894,,,,,,,2022-12-28,1,,,,,エーケイ,0
1717,7290803004294,新規,0,2022-12-28,2022-12-28,合同会社木葉野詩,,合同会社,福岡県,北九州市小倉北区,東篠崎１丁目２－２６－７０２,,40,106,8020072,,,,,,,2022-12-28,1,,,,,コバヤシ,0
1718,7310005008653,新規,0,2022-12-28,2022-12-28,一般社団法人長崎ペンギンの会,,その他の設立登記法人,長崎県,長崎市,坂本１丁目５番２号,,42,201,8528102,,,,,,,2022-12-28,1,,,,,ナガサキペンギンノカイ,0
1719,7320001019488,新規,0,2022-12-28,2022-12-28,株式会社ｗａｃ,,株式会社,大分県,大分市,高城西町３０番２３号,,44,201,8700154,,,,,,,2022-12-28,1,,,,,ワック,0
1724,7330001030436,新規,0,2022-12-28,2022-12-28,株式会社まるひろ,,株式会社,熊本県,熊本市西区,上代２丁目４番２１－１０１号,,43,103,8600068,,,,,,,2022-12-28,1,,,,,マルヒロ,0
1728,7350001018099,新規,0,2022-12-28,2022-12-28,株式会社翁断熱,,株式会社,宮崎県,都城市,乙房町４１９番地４シャトー小松ヶ尾Ａ棟,,45,202,8850112,,,,,,,2022-12-28,1,,,,,オキナダンネツ,0
1730,7360001031373,新規,0,2022-12-28,2022-12-28,株式会社親泊木工,,株式会社,沖縄県,島尻郡南風原町,字津嘉山１５７９番地,,47,350,9011117,,,,,,,2022-12-28,1,,,,,オヤドマリモッコウ,0
1731,7360003012553,新規,0,2022-12-28,2022-12-28,合同会社虹企画,,合同会社,沖縄県,国頭郡恩納村,字名嘉真２２８８－３１４,,47,311,9040401,,,,,,,2022-12-28,1,,,,,ニジキカク,0
1750,7430003014591,新規,0,2022-12-28,2022-12-28,ＳＲＳ合同会社,,合同会社,北海道,札幌市豊平区,美園一条８丁目１番１号ＳＥＭＡＢｌｄｇ２Ｆ－２０５,,01,105,0620001,,,,,,,2022-12-28,1,,,,,エスアールエス,0
1752,7430005014615,新規,0,2022-12-28,2022-12-28,防災連携計画事業協同組合,,その他の設立登記法人,北海道,札幌市白石区,中央一条３丁目１番３３号,,01,104,0030011,,,,,,,2022-12-28,1,,,,,ボウサイレンケイケイカク,0
1753,7450001013866,新規,0,2022-12-28,2022-12-28,株式会社プラスステージ,,株式会社,北海道,旭川市,八条西６丁目１番２号株式会社黒須２階,,01,204,0700058,,,,,,,2022-12-28,1,,,,,プラスステージ,0
1756,7500001024684,新規,0,2022-12-28,2022-12-28,株式会社光明水産,,株式会社,愛媛県,南宇和郡愛南町,久良２０５１番地,,38,506,7984353,,,,,,,2022-12-28,1,,,,,コウメイスイサン,0
1757,7700150113524,新規,0,2022-12-28,2022-12-28,ｗｕｈａｎ　ｘｉｎｌｉｃｈｅｎｇ　ｋｅｊｉ　ｙｏｕｘｉａｎｇｏｎｇｓｉ,,外国会社等,,,,,,,,ｓａｎｙａｎｇｇｕａｎｇｃｈａｎｇＡｄｏｎｇ１１０８ｓｈｉ，ｊｉａｎｇａｎｑｕｓａｎｙａｎｇｌｕ，Ｗｕｈａｎ，Ｈｕｂｅｉ，ＣＨＩＮＡ,,,,,,2022-12-28,1,,,,,ブカンシンリテイケジユウゲンコウシ,0
1767,8010001231833,新規,0,2022-12-28,2022-12-28,Ｍ２Ｏ株式会社,,株式会社,東京都,中央区,銀座１丁目２２－１１－２Ｆ,,13,102,1040061,,,,,,,2022-12-28,1,,,,,エムツーオー,0
1768,8010001231841,新規,0,2022-12-28,2022-12-28,Ｒファクトリー株式会社,,株式会社,東京都,中央区,銀座７丁目７番１５号,,13,102,1040061,,,,,,,2022-12-28,1,,,,,アールファクトリー,0
1769,8010001231882,新規,0,2022-12-28,2022-12-28,株式会社皆嘉,,株式会社,東京都,中央区,銀座１丁目１２番４号Ｎ＆Ｅ－ＢＬＤ．７階,,13,102,1040061,,,,,,,2022-12-28,1,,,,,ミナカ,0
1770,8010001231932,新規,0,2022-12-28,2022-12-28,株式会社大和田商店,,株式会社,東京都,中央区,銀座１丁目１４番５号第二五味ビル５階,,13,102,1040061,,,,,,,2022-12-28,1,,,,,オオワダショウテン,0
1791,8010605004164,新規,0,2022-12-28,2022-12-28,一般社団法人ＰＲＯＬＩＦＥ,,その他の設立登記法人,東京都,江東区,大島７丁目２２番１２号,,13,108,1360072,,,,,,,2022-12-28,1,,,,,プロライフ,0
1797,8011001151690,新規,0,2022-12-28,2022-12-28,株式会社Ｇｒａｎ　ｆｉｔ,,株式会社,東京都,目黒区,自由が丘２丁目１６番１２号ＲＪ３,,13,110,1520035,,,,,,,2022-12-28,1,,,,,グランフィット,0
1799,8011003016009,新規,0,2022-12-28,2022-12-28,合同会社アジャンスマン,,合同会社,東京都,目黒区,中目黒１丁目１―１４,,13,110,1530061,,,,,,,2022-12-28,1,,,,,アジャンスマン,0
1810,8011601026474,新規,0,2022-12-28,2022-12-28,株式会社Ａｔｅｒ,,株式会社,東京都,練馬区,早宮３丁目３２－１６,,13,120,1790085,,,,,,,2022-12-28,1,,,,,アーテル,0
1811,8011603003785,新規,0,2022-12-28,2022-12-28,合同会社グラヴィス,,合同会社,東京都,練馬区,大泉町３丁目２６－１３グリーンビレッジＧ棟１０１,,13,120,1780062,,,,,,,2022-12-28,1,,,,,グラヴィス,0
1813,8011801041728,新規,0,2022-12-28,2022-12-28,堀アルミ工業株式会社,,株式会社,東京都,葛飾区,水元４丁目１７番１０号,,13,122,1250032,,,,,,,2022-12-28,1,,,,,ホリアルミコウギョウ,0
1814,8011801041736,新規,0,2022-12-28,2022-12-28,株式会社ＯＺＺＯ,,株式会社,東京都,足立区,竹の塚６丁目１４番５号２Ｆ,,13,121,1210813,,,,,,,2022-12-28,1,,,,,オッゾ,0
1820,8012401040013,新規,0,2022-12-28,2022-12-28,オーイ株式会社,,株式会社,東京都,三鷹市,牟礼６丁目２３番８－３０８号,,13,204,1810002,,,,,,,2022-12-28,1,,,,,オーイ,0
1828,8013301050119,新規,0,2022-12-28,2022-12-28,株式会社ハルエネ・マーケティング,,株式会社,東京都,豊島区,東池袋１丁目２５番９号,,13,116,1700013,,,,,,,2022-12-28,1,,,,,ハルエネマーケティング,0
1829,8013301050127,新規,0,2022-12-28,2022-12-28,インディペンデント株式会社,,株式会社,東京都,豊島区,東池袋３丁目２２番２１－５１２号,,13,116,1700013,,,,,,,2022-12-28,1,,,,,インディペンデント,0
1835,8020001149570,新規,0,2022-12-28,2022-12-28,株式会社大立,,株式会社,神奈川県,川崎市宮前区,西野川３丁目６番３号,,14,136,2160044,,,,,,,2022-12-28,1,,,,,ダイタツ,0
1837,8020003022973,新規,0,2022-12-28,2022-12-28,ＰＬＡＮ　ＮＥＴ　ＷＥＲＫ合同会社,,合同会社,神奈川県,川崎市麻生区,下麻生２丁目１２番２０号,,14,137,2150022,,,,,,,2022-12-28,1,,,,,プランネットワーク,0
1838,8020003022981,新規,0,2022-12-28,2022-12-28,合同会社ＰＳＹ,,合同会社,神奈川県,横浜市南区,高砂町１丁目３－６ドルフィン吉野町１０１号室,,14,105,2320025,,,,,,,2022-12-28,1,,,,,サイ,0
1841,8021001077828,新規,0,2022-12-28,2022-12-28,ＡＫ株式会社,,株式会社,神奈川県,秦野市,落合９１番地の８,,14,211,2570025,,,,,,,2022-12-28,1,,,,,エーケー,0
1845,8030001151674,新規,0,2022-12-28,2022-12-28,株式会社ＴｅｃｈＲｅｅｄ,,株式会社,埼玉県,春日部市,増富４４９番地３、５－３０４号室,,11,214,3440041,,,,,,,2022-12-28,1,,,,,テックリード,0
1846,8030001151682,新規,0,2022-12-28,2022-12-28,株式会社ＭＯＲＩＮＯＭＩＹＡ,,株式会社,埼玉県,所沢市,大字北秋津７９１番地の３,,11,208,3590038,,,,,,,2022-12-28,1,,,,,モリノミヤ,0
1847,8030001151690,新規,0,2022-12-28,2022-12-28,株式会社ＩＮＦＩＮＩＴＹ,,株式会社,埼玉県,さいたま市大宮区,桜木町１丁目３６６番地９（５０１号）,,11,103,3300854,,,,,,,2022-12-28,1,,,,,インフィニティ,0
1854,8030003020811,新規,0,2022-12-28,2022-12-28,合同会社Ｍ‐ｌｉｇｈｔ,,合同会社,埼玉県,越谷市,レイクタウン８丁目１番地Ｂ－８０９,,11,222,3430828,,,,,,,2022-12-28,1,,,,,エムライト,0
1855,8030003020828,新規,0,2022-12-28,2022-12-28,ＳＴＥＡＲ合同会社,,合同会社,埼玉県,さいたま市大宮区,宮町３丁目１３０番地２,,11,103,3300802,,,,,,,2022-12-28,1,,,,,スティア,0
1856,8030003020836,新規,0,2022-12-28,2022-12-28,ＪＡＳＲＩ合同会社,,合同会社,埼玉県,入間郡三芳町,大字上富６４３－１,,11,324,3540045,,,,,,,2022-12-28,1,,,,,ジャスリ,0
1857,8030003020844,新規,0,2022-12-28,2022-12-28,ＳａｉｗａＴｅｃ．合同会社,,合同会社,埼玉県,越谷市,東越谷４丁目１番地２４,,11,222,3430023,,,,,,,2022-12-28,1,,,,,サイワテック,0
1863,8040001126394,新規,0,2022-12-28,2022-12-28,株式会社ＲＵＦ,,株式会社,千葉県,千葉市若葉区,西都賀１丁目２１番８号,,12,104,2640026,,,,,,,2022-12-28,1,,,,,ルーフ,0
1864,8040001126403,新規,0,2022-12-28,2022-12-28,株式会社ＫＭＲ,,株式会社,千葉県,野田市,木間ケ瀬２４４１－６,,12,208,2700222,,,,,,,2022-12-28,1,,,,,ケイエムアール,0
1884,8100001035985,新規,0,2022-12-28,2022-12-28,藍エビ屋商店株式会社,,株式会社,長野県,岡谷市,川岸中１丁目２３番２６号,,20,204,3940047,,,,,,,2022-12-28,1,,,,,アイエビヤショウテン,0
1908,8120001251358,新規,0,2022-12-28,2022-12-28,株式会社レーベンホーム,,株式会社,大阪府,枚方市,南楠葉２丁目３５番５号,,27,210,5731105,,,,,,,2022-12-28,1,,,,,レーベンホーム,0
1909,8120001251374,新規,0,2022-12-28,2022-12-28,エスティ開発株式会社,,株式会社,大阪府,大阪市西区,九条２丁目１番１０号２Ｆ,,27,106,5500027,,,,,,,2022-12-28,1,,,,,エスティカイハツ,0
1912,8120003023152,新規,0,2022-12-28,2022-12-28,合同会社星乃伸一良商店,,合同会社,大阪府,大阪市住吉区,東粉浜３丁目１２番１８号,,27,120,5580051,,,,,,,2022-12-28,1,,,,,ホシノシンイチロウショウテン,0
1913,8120003023160,新規,0,2022-12-28,2022-12-28,合同会社Ｙｕｋｉ,,合同会社,大阪府,大阪市淀川区,西中島３丁目１５番１５号,,27,123,5320011,,,,,,,2022-12-28,1,,,,,ユキ,0
1916,8120101066730,新規,0,2022-12-28,2022-12-28,株式会社ＤＭＢ,,株式会社,大阪府,和泉市,内田町２丁目１４番５３号,,27,219,5941156,,,,,,,2022-12-28,1,,,,,ディーエムビー,0
1917,8120103005001,新規,0,2022-12-28,2022-12-28,オンリシール合同会社,,合同会社,大阪府,富田林市,桜ケ丘町８番２３号,,27,214,5840084,,,,,,,2022-12-28,1,,,,,オンリシール,0
1925,8130001073363,新規,0,2022-12-28,2022-12-28,株式会社春日,,株式会社,京都府,宇治市,広野町丸山２番地の１,,26,204,6110031,,,,,,,2022-12-28,1,,,,,カスガ,0
1929,8160001024735,新規,0,2022-12-28,2022-12-28,株式会社オカモト,,株式会社,滋賀県,彦根市,外町２６２番地５,,25,202,5220009,,,,,,,2022-12-28,1,,,,,オカモト,0
1935,8180001154200,新規,0,2022-12-28,2022-12-28,株式会社マイヤリングス,,株式会社,愛知県,名古屋市中村区,名駅１丁目１番１号,,23,105,4500002,,,,,,,2022-12-28,1,,,,,マイヤリングス,0
1936,8180001154349,新規,0,2022-12-28,2022-12-28,株式会社Ｓｕｂｔｉｔｌｅ,,株式会社,愛知県,名古屋市千種区,覚王山通８丁目４８番地,,23,101,4640841,,,,,,,2022-12-28,1,,,,,サブタイトル,0
1937,8180001154357,新規,0,2022-12-28,2022-12-28,株式会社セレーノ,,株式会社,愛知県,名古屋市中区,門前町５番９号,,23,106,4600018,,,,,,,2022-12-28,1,,,,,セレーノ,0
1938,8180001154365,新規,0,2022-12-28,2022-12-28,株式会社ジェネビュージャパン,,株式会社,愛知県,瀬戸市,共栄通７丁目１１０番地,,23,204,4890809,,,,,,,2022-12-28,1,,,,,ジェネビュージャパン,0
1943,8180003024640,新規,0,2022-12-28,2022-12-28,ＬＡＸＭＩ合同会社,,合同会社,愛知県,犬山市,大字犬山字西古券６７番地,,23,215,4840085,,,,,,,2022-12-28,1,,,,,ラクシュミ,0
1945,8180301036932,新規,0,2022-12-28,2022-12-28,株式会社丸伍製缶,,株式会社,愛知県,西尾市,中畑町小井戸３６番地１,,23,213,4440303,,,,,,,2022-12-28,1,,,,,マルゴセイカン,0
1947,8190001030053,新規,0,2022-12-28,2022-12-28,チンタイフジキ株式会社,,株式会社,三重県,四日市市,笹川５丁目６１番地,,24,202,5100944,,,,,,,2022-12-28,1,,,,,チンタイフジキ,0
1968,8290001100044,新規,0,2022-12-28,2022-12-28,株式会社福祉自動車販売,,株式会社,福岡県,福岡市東区,塩浜１丁目１５番５号,,40,131,8110203,,,,,,,2022-12-28,1,,,,,フクシジドウシャハンバイ,0
1969,8290003013351,新規,0,2022-12-28,2022-12-28,吉田商事合同会社,,合同会社,福岡県,宗像市,石丸２丁目９番２６－２０３号,,40,220,8114147,,,,,,,2022-12-28,1,,,,,ヨシダショウジ,0
1974,8310005008652,新規,0,2022-12-28,2022-12-28,ＮＰＯ法人島原カーボンニュートラル推進協議会,,その他の設立登記法人,長崎県,島原市,有明町湯江丁２９３２番地,,42,203,8591404,,,,,,,2022-12-28,1,,,,,,0
1982,8330001030435,新規,0,2022-12-28,2022-12-28,株式会社ＦＵＫ,,株式会社,熊本県,上益城郡益城町,大字広崎３４４番地１,,43,443,8612236,,,,,,,2022-12-28,1,,,,,エフユーケー,0
1986,8360003012593,新規,0,2022-12-28,2022-12-28,合同会社ｅｎｃｏｕｎｔｅｒ,,合同会社,沖縄県,豊見城市,字高嶺４４６番地７アルファスマート豊見城９０４号,,47,212,9010213,,,,,,,2022-12-28,1,,,,,エンカウンター,0
1991,8400001016105,新規,0,2022-12-28,2022-12-28,株式会社阿部自然農園,,株式会社,岩手県,奥州市,胆沢若柳字要害３５４番地,,03,215,0230403,,,,,,,2022-12-28,1,,,,,アベシゼンノウエン,0
1995,8430001088109,新規,0,2022-12-28,2022-12-28,株式会社春夏秋冬,,株式会社,北海道,札幌市中央区,北八条西２０丁目２－２０,,01,101,0600008,,,,,,,2022-12-28,1,,,,,シュンカシュウトウ,0
1997,8430003014590,新規,0,2022-12-28,2022-12-28,合同会社グリーンヒルズ,,合同会社,北海道,札幌市豊平区,美園三条８丁目４番１号キャンパスビル３階,,01,105,0620003,,,,,,,2022-12-28,1,,,,,グリーンヒルズ,0
2004,8500001024683,新規,0,2022-12-28,2022-12-28,株式会社伊山水産,,株式会社,愛媛県,宇和島市,津島町北灘乙２０１８番地,,38,203,7983362,,,,,,,2022-12-28,1,,,,,イヤマスイサン,0
2005,8500005008550,新規,0,2022-12-28,2022-12-28,医療法人みやわきこどもクリニック,,その他の設立登記法人,愛媛県,松山市,錦町６番地７ＴＲＥＥビル２階,,38,201,7900877,,,,,,,2022-12-28,1,,,,,ミヤワキコドモクリニック,0
2006,8700150113523,新規,0,2022-12-28,2022-12-28,ｃｈａｎｇｚｈｏｕ　ｇｅｎｍａｉ　ｄｉａｎｚｉｓｈａｎｇｗｕ　ｙｏｕｘｉａｎｇｏｎｇｓｉ,,外国会社等,,,,,,,,ｚｈｏｎｇｈａｉｆｅｎｇｈｕａｎｇｘｉａｎ２１ｄｏｎｇｙｉｄａｎｙｕａｎ３００１，ｄｉａｏｚｈｕａｎｇｊｉｅｄａｏ，ｃｈａｎｇｚｈｏｕ,,,,,,2022-12-28,1,,,,,ジョウシュウゲンマイデンシショウムユウゲンコウシ,0
2011,9010001231931,新規,0,2022-12-28,2022-12-28,株式会社Ｕｂｏｎｇｏ,,株式会社,東京都,千代田区,二番町５番地２５二番町テラス９０３号,,13,101,1020084,,,,,,,2022-12-28,1,,,,,ウボンゴ,0
2027,9010401171372,新規,0,2022-12-28,2022-12-28,ｔｈｅ　Ａｑｕａ株式会社,,株式会社,東京都,港区,高輪２丁目１番９－２０５号,,13,103,1080074,,,,,,,2022-12-28,1,,,,,アクア,0
2028,9010401171604,新規,0,2022-12-28,2022-12-28,株式会社インフルエンサージャパン,,株式会社,東京都,港区,浜松町２丁目２番１５号浜松町ダイヤビル２Ｆ,,13,103,1050013,,,,,,,2022-12-28,1,,,,,インフルエンサージャパン,0
2050,9010903007867,新規,0,2022-12-28,2022-12-28,モダリア合同会社,,合同会社,東京都,世田谷区,等々力８丁目１６番７号４１１,,13,112,1580082,,,,,,,2022-12-28,1,,,,,モダリア,0
2052,9011001151665,新規,0,2022-12-28,2022-12-28,株式会社Ｌ＆Ｍａｋｅ　Ｆａｉｔｈ,,株式会社,東京都,渋谷区,代々木１丁目５４番８号アビエス代々木２Ｆ,,13,113,1510053,,,,,,,2022-12-28,1,,,,,エルアンドメイクフェイス,0
2053,9011001151698,新規,0,2022-12-28,2022-12-28,株式会社ネイサン,,株式会社,東京都,渋谷区,道玄坂１丁目１０番８号渋谷道玄坂東急ビル２Ｆ－Ｃ,,13,113,1500043,,,,,,,2022-12-28,1,,,,,ネイサン,0
2054,9011003015991,新規,0,2022-12-28,2022-12-28,合同会社Ｓ‐ｆｉｅｌｄ,,合同会社,東京都,渋谷区,道玄坂１丁目１０番８号渋谷道玄坂東急ビル２Ｆ－Ｃ,,13,113,1500043,,,,,,,2022-12-28,1,,,,,エスフィールド,0
2065,9011601026465,新規,0,2022-12-28,2022-12-28,Ｎ＆Ｈインベストメントマネジメント株式会社,,株式会社,東京都,練馬区,桜台４丁目１３番３号,,13,120,1760002,,,,,,,2022-12-28,1,,,,,エヌアンドエイチインベストメントマネジメント,0
2066,9011701025895,新規,0,2022-12-28,2022-12-28,株式会社グローバル,,株式会社,東京都,江戸川区,東葛西７丁目１１番８－２０１号メイプルハイム,,13,123,1340084,,,,,,,2022-12-28,1,,,,,グローバル,0
2069,9011801041727,新規,0,2022-12-28,2022-12-28,株式会社セブンヒルズ,,株式会社,東京都,葛飾区,西新小岩５丁目２８番２０号,,13,122,1240025,,,,,,,2022-12-28,1,,,,,セブンヒルズ,0
2084,9020001149454,新規,0,2022-12-28,2022-12-28,株式会社ＯＮＥ　ＰＯＮＥＹ,,株式会社,神奈川県,横浜市磯子区,氷取沢町２０４番地４０Ｋ－２棟５０６号,,14,107,2350043,,,,,,,2022-12-28,1,,,,,ワンポニー,0
2085,9020001149594,新規,0,2022-12-28,2022-12-28,株式会社Ｙ’ｓ,,株式会社,神奈川県,川崎市高津区,新作６丁目７番４１号,,14,134,2130014,,,,,,,2022-12-28,1,,,,,ワイズ,0
2090,9020003022989,新規,0,2022-12-28,2022-12-28,ＴＲＭ合同会社,,合同会社,神奈川県,川崎市多摩区,登戸２４３２－１登戸オフィス０７号室,,14,135,2140014,,,,,,,2022-12-28,1,,,,,ティーアールエム,0
2092,9020005015776,新規,0,2022-12-28,2022-12-28,一般社団法人シニアライフカウンセラー協会,,その他の設立登記法人,神奈川県,横浜市神奈川区,反町２丁目１５－１４ヒルトップ反町２階,,14,102,2210825,,,,,,,2022-12-28,1,,,,,シニアライフカウンセラーキョウカイ,0
2097,9021001077810,新規,0,2022-12-28,2022-12-28,株式会社パークライフ,,株式会社,神奈川県,藤沢市,鵠沼神明５丁目５番１０号鵠ノ杜舎、楓０８,,14,205,2510021,,,,,,,2022-12-28,1,,,,,パークライフ,0
2099,9021003012518,新規,0,2022-12-28,2022-12-28,ムタ合同会社,,合同会社,神奈川県,厚木市,中町１丁目７番地５－９０３,,14,212,2430018,,,,,,,2022-12-28,1,,,,,,0
2103,9030001151649,新規,0,2022-12-28,2022-12-28,景逸株式会社,,株式会社,埼玉県,川口市,西川口３丁目１２番１７号,,11,203,3320021,,,,,,,2022-12-28,1,,,,,ケイイツ,0
2110,9040001126393,新規,0,2022-12-28,2022-12-28,日本達瓦株式会社,,株式会社,千葉県,八千代市,ゆりのき台１丁目２２－１,,12,221,2760042,,,,,,,2022-12-28,1,,,,,ニホンタワカ,0
2111,9040001126402,新規,0,2022-12-28,2022-12-28,株式会社斉藤企業,,株式会社,千葉県,市原市,五井中央西１丁目２３－６ジュリオ斉藤４０２号,,12,219,2900081,,,,,,,2022-12-28,1,,,,,サイトウキギョウ,0
2112,9040001126410,新規,0,2022-12-28,2022-12-28,株式会社福渡,,株式会社,千葉県,富里市,十倉１１８番地９４,,12,233,2860212,,,,,,,2022-12-28,1,,,,,フクワタリ,0
2115,9040005021847,新規,0,2022-12-28,2022-12-28,特定非営利活動法人心,,その他の設立登記法人,千葉県,千葉市緑区,辺田町１９７番地,,12,105,2660007,,,,,,,2022-12-28,1,,,,,ココロ,0
2121,9070001039964,新規,0,2022-12-28,2022-12-28,丸和株式会社,,株式会社,群馬県,前橋市,千代田町５丁目５－２,,10,201,3710022,,,,,,,2022-12-28,1,,,,,マルワ,0
2126,9080105006307,新規,0,2022-12-28,2022-12-28,一般社団法人ジオジャパン,,その他の設立登記法人,静岡県,賀茂郡南伊豆町,下賀茂６４０,,22,304,4150303,,,,,,,2022-12-28,1,,,,,ジオジャパン,0
2129,9090003002217,新規,0,2022-12-28,2022-12-28,モステック合同会社,,合同会社,山梨県,甲斐市,宇津谷１２３７番地,,19,210,4000108,,,,,,,2022-12-28,1,,,,,,0
2150,9120001251332,新規,0,2022-12-28,2022-12-28,株式会社ジョアン,,株式会社,大阪府,大阪市西成区,山王２丁目５－１９－１０１号,,27,122,5570001,,,,,,,2022-12-28,1,,,,,ジョアン,0
2151,9120001251365,新規,0,2022-12-28,2022-12-28,株式会社善信,,株式会社,大阪府,大阪市港区,夕凪１丁目１６－２１第４三先ハウス４０１号室,,27,107,5520004,,,,,,,2022-12-28,1,,,,,ヨシノブ,0
2152,9120001251423,新規,0,2022-12-28,2022-12-28,ａｒｔｂａｓｅ株式会社,,株式会社,大阪府,枚方市,津田西町３丁目６番３１号,,27,210,5730126,,,,,,,2022-12-28,1,,,,,アートベース,0
2158,9120003023143,新規,0,2022-12-28,2022-12-28,ＭＩＤＯＲＩ　ＳＵＮＮＹ合同会社,,合同会社,大阪府,大阪市西淀川区,野里１丁目２８－２１アンバーズ塚本４Ａ,00128916,27,113,5550024,,,,,,,2022-12-28,1,,,,,ミドリサニー,0
2159,9120003023151,新規,0,2022-12-28,2022-12-28,合同会社まいほーむ,,合同会社,大阪府,枚方市,南中振１丁目１２番１５号,,27,210,5730094,,,,,,,2022-12-28,1,,,,,マイホーム,0
2161,9120103005000,新規,0,2022-12-28,2022-12-28,関西医療介護合同会社,,合同会社,大阪府,和泉市,室堂町１１０３番地の２０４,,27,219,5941101,,,,,,,2022-12-28,1,,,,,カンサイイリョウカイゴ,0
2165,9120901046914,新規,0,2022-12-28,2022-12-28,アトラクションビューティー株式会社,,株式会社,大阪府,池田市,石橋２丁目１６番６号モードケイズビル４Ｆ,,27,204,5630032,,,,,,,2022-12-28,1,,,,,アトラクションビューティー,0
2184,9140003018521,新規,0,2022-12-28,2022-12-28,合同会社ａｕｒｏｒｅ,,合同会社,兵庫県,西宮市,江上町２番１２号,,28,204,6620855,,,,,,,2022-12-28,1,,,,,オロール,0
2194,9180001154356,新規,0,2022-12-28,2022-12-28,株式会社Ｍｒｓサーフェイス,,株式会社,愛知県,名古屋市緑区,平子が丘１３２１,,23,114,4580826,,,,,,,2022-12-28,1,,,,,ミスターズサーフェイス,0
2201,9180003024656,新規,0,2022-12-28,2022-12-28,合同会社Ｔｅｎ　ｔｏ　Ｓｅｎ,,合同会社,愛知県,名古屋市中村区,名駅３丁目４－１０アルティメイト名駅１ｓｔ２階,,23,105,4500002,,,,,,,2022-12-28,1,,,,,テントセン,0
2202,9180005020050,新規,0,2022-12-28,2022-12-28,一般社団法人未来創るラボ,,その他の設立登記法人,愛知県,小牧市,大字文津７９０番地１,,23,219,4850827,,,,,,,2022-12-28,1,,,,,ミライツクルラボ,0
2209,9210001019191,新規,0,2022-12-28,2022-12-28,株式会社ｍｏｒｅ,,株式会社,福井県,小浜市,南川町１５番２１号,,18,204,9170075,,,,,,,2022-12-28,1,,,,,モア,0
2210,9230001019652,新規,0,2022-12-28,2022-12-28,フードラフ株式会社,,株式会社,富山県,高岡市,野村２６９番地１,,16,202,9330014,,,,,,,2022-12-28,1,,,,,,0
2212,9240001060861,新規,0,2022-12-28,2022-12-28,株式会社オバケシステム,,株式会社,広島県,広島市中区,流川町１番１６号ウエストウッドビル４階,,34,101,7300028,,,,,,,2022-12-28,1,,,,,オバケシステム,0
2218,9280005007525,新規,0,2022-12-28,2022-12-28,医療法人中村歯科クリニック,,その他の設立登記法人,島根県,大田市,長久町長久イ２８１番地１,,32,205,6940041,,,,,,,2022-12-28,1,,,,,ナカムラシカクリニック,0
2221,9290001100010,新規,0,2022-12-28,2022-12-28,コトコ株式会社,,株式会社,福岡県,福岡市南区,大橋４丁目１番１号メモリープラザ大橋５０３号,,40,134,8150033,,,,,,,2022-12-28,1,,,,,コトコ,0
2222,9290001100027,新規,0,2022-12-28,2022-12-28,株式会社ｍａｎｅｃｔｏ,,株式会社,福岡県,福岡市博多区,博多駅前１丁目２３番１号ＰａｒｋＦｒｏｎｔ博多駅前一丁目５Ｆ－Ｂ,,40,132,8120011,,,,,,,2022-12-28,1,,,,,マネクト,0
2223,9290001100035,新規,0,2022-12-28,2022-12-28,株式会社さぽべん,,株式会社,福岡県,宗像市,陵厳寺４丁目９番１６号,,40,220,8114145,,,,,,,2022-12-28,1,,,,,サポベン,0
2224,9290001100043,新規,0,2022-12-28,2022-12-28,Ｒａａｓ　Ｔｒａｄｉｎｇ株式会社,,株式会社,福岡県,福岡市東区,筥松３丁目９番１５号クローバー筥松２０２号,,40,131,8120061,,,,,,,2022-12-28,1,,,,,ラアストレーディング,0
2230,9310001018183,新規,0,2022-12-28,2022-12-28,株式会社ＷＡＧＡ,,株式会社,長崎県,大村市,竹松本町１０７２番地１,,42,205,8560805,,,,,,,2022-12-28,1,,,,,ワガ,0
2236,9340003004006,新規,0,2022-12-28,2022-12-28,合同会社ジゼル,,合同会社,鹿児島県,鹿児島市,中山町１７８５番地１０,,46,201,8910105,,,,,,,2022-12-28,1,,,,,ジゼル,0
2242,9360001031363,新規,0,2022-12-28,2022-12-28,株式会社ｆｒｅｅｄｏｍ,,株式会社,沖縄県,中頭郡西原町,上原２丁目２３番地の２４（エンリッチハウス３０２号）,,47,329,9030125,,,,,,,2022-12-28,1,,,,,フリーダム,0
2243,9360001031371,新規,0,2022-12-28,2022-12-28,株式会社日豊,,株式会社,沖縄県,那覇市,曙１丁目１４番６号金太郎ヒルズ曙８０３号室,,47,201,9000002,,,,,,,2022-12-28,1,,,,,ニッポウ,0
2246,9370001049405,新規,0,2022-12-28,2022-12-28,株式会社ＥＮＤＬＥＳＳ,,株式会社,宮城県,仙台市青葉区,本町１丁目５番２８号カーニープレイス６０３,,04,101,9800014,,,,,,,2022-12-28,1,,,,,エンドレス,0
2257,9430001088082,新規,0,2022-12-28,2022-12-28,株式会社ヤマケン工業,,株式会社,北海道,札幌市白石区,北郷一条３丁目３番４３－２０６号,,01,104,0030831,,,,,,,2022-12-28,1,,,,,ヤマケンコウギョウ,0
2258,9430001088108,新規,0,2022-12-28,2022-12-28,株式会社アマテック,,株式会社,北海道,札幌市豊平区,西岡二条４丁目１０番１９号,,01,105,0620032,,,,,,,2022-12-28,1,,,,,アマテック,0
2269,9470001019397,新規,0,2022-12-28,2022-12-28,株式会社ＴＭＳ,,株式会社,香川県,高松市,香川町寺井５７７多田ビル１０１号,,37,201,7611702,,,,,,,2022-12-28,1,,,,,ティーエムエス,0
2270,9500001024682,新規,0,2022-12-28,2022-12-28,株式会社ヒロシカンパニー,,株式会社,愛媛県,松山市,道後町２丁目１２番６－２号,,38,201,7900843,,,,,,,2022-12-28,1,,,,,ヒロシカンパニー,0
2271,9700150113522,新規,0,2022-12-28,2022-12-28,ｓｈｅｎｚｈｅｎｓｈｉ　ｍｉｎｇｋａｉ　ｍａｏｙｉ　ｙｏｕｘｉａｎｇｏｎｇｓｉ,,外国会社等,,,,,,,,ｆｕｔｉａｎｑｕｓｈａｔｏｕｊｉｅｄａｏｔｉａｎａｎｓｈｅｑｕｔａｉｒａｎｂａｌｕ１８ｈａｏａｎｈｕａｘｉａｏｑｕ４ｄｏｎｇ７ｃｅｎｇ７Ｑ７，Ｓｈｅｎｚｈｅｎ　Ｇｕａｎｇｄｏｎｇ，Ｃｈｉｎａ,,,,,,2022-12-28,1,,,,,シンセンシメイカイマオイユウゲンコウシ,0
