sequenceNumber,corporateNumber,process,correct,updateDate,changeDate,name,nameImageId,kind,prefectureName,cityName,streetNumber,addressImageId,prefectureCode,cityCode,postCode,addressOutside,addressOutsideImageId,closeDate,closeCause,successorCorporateNumber,changeCause,assignmentDate,latest,enName,enPrefectureName,enCityName,enAddressOutside,furigana,hihyoji
4,1010001241748,新規,0,2024-01-31,2024-01-31,Ｆａｎｓｋｙ株式会社,,株式会社,東京都,中央区,銀座６丁目１３番１６号銀座ＷａｌｌビルＵＣＦ５０１,,13,102,1040061,,,,,,,2024-01-31,1,,,,,ファンスキー,0
7,1010003042780,新規,0,2024-01-31,2024-01-31,合同会社セカンド,,合同会社,東京都,千代田区,内神田３丁目１２－５渡辺住研ビル３階,,13,101,1010047,,,,,,,2024-01-31,1,,,,,セカンド,0
8,1010003042814,新規,0,2024-01-31,2024-01-31,合同会社キキョウ,,合同会社,東京都,千代田区,二番町３番地麹町スクエア株式会社シリウス・アドバイザリー内,,13,101,1020084,,,,,,,2024-01-31,1,,,,,キキョウ,0
9,1010005037820,新規,0,2024-01-31,2024-01-31,ブルースカイパワーグリットホールディングス一般社団法人,,その他の設立登記法人,東京都,中央区,八丁堀４丁目２番１０号ＡＯＪ税理士法人内,,13,102,1040032,,,,,,,2024-01-31,1,,,,,ブルースカイパワーグリットホールディングス,0
15,1010401180001,新規,0,2024-01-31,2024-01-31,プラチナ・パートナーズ株式会社,,株式会社,東京都,港区,白金６丁目１６番２５,,13,103,1080072,,,,,,,2024-01-31,1,,,,,プラチナパートナーズ,0
16,1010401180034,新規,0,2024-01-31,2024-01-31,株式会社ソラトブ,,株式会社,東京都,港区,南青山３丁目８－４０青山センタービル２Ｆ,,13,103,1070062,,,,,,,2024-01-31,1,,,,,ソラトブ,0
17,1010401180042,新規,0,2024-01-31,2024-01-31,株式会社ＨａｒＦｏｒ,,株式会社,東京都,港区,虎ノ門４丁目１番１号,,13,103,1050001,,,,,,,2024-01-31,1,,,,,ハルフォ,0
18,1010401180059,新規,0,2024-01-31,2024-01-31,Ｍｉｍｏ　Ｆｉｎａｎｃｅ株式会社,,株式会社,東京都,港区,東新橋１丁目２番５号,,13,103,1050021,,,,,,,2024-01-31,1,,,,,ミモファイナンス,0
19,1010401180091,新規,0,2024-01-31,2024-01-31,株式会社パレス・キャピタル,,株式会社,東京都,港区,赤坂１丁目１４番５号アークヒルズ・エグゼクティブタワーＳ９０１,,13,103,1070052,,,,,,,2024-01-31,1,,,,,パレスキャピタル,0
20,1010401180158,新規,0,2024-01-31,2024-01-31,ユニックスホールディングス株式会社,,株式会社,東京都,港区,赤坂２丁目２１番２５号,,13,103,1070052,,,,,,,2024-01-31,1,,,,,ユニックスホールディングス,0
22,1010403031805,新規,0,2024-01-31,2024-01-31,Ｇｒａｖｉｓｔａ合同会社,,合同会社,東京都,港区,北青山１丁目３番１号アールキューブ青山３階,,13,103,1070061,,,,,,,2024-01-31,1,,,,,グラビスタ,0
23,1010403031854,新規,0,2024-01-31,2024-01-31,エスエスエイ合同会社,,合同会社,東京都,港区,海岸１丁目２番３号汐留芝離宮ビルディング２１階,,13,103,1050022,,,,,,,2024-01-31,1,,,,,エスエスエイ,0
25,1010405022901,新規,0,2024-01-31,2024-01-31,縁の園一般社団法人,,その他の設立登記法人,東京都,港区,六本木１丁目９番１０号アークヒルズ仙石山森タワー２６０３,,13,103,1060032,,,,,,,2024-01-31,1,,,,,エニシノソノ,0
29,1010501051705,新規,0,2024-01-31,2024-01-31,株式会社夢橋グローバル,,株式会社,東京都,台東区,浅草橋１丁目２１―１光ビル４階,,13,106,1110053,,,,,,,2024-01-31,1,,,,,ユメハシグローバル,0
43,1010801034748,新規,0,2024-01-31,2024-01-31,株式会社春天,,株式会社,東京都,大田区,上池台５丁目３７番２号,,13,111,1450064,,,,,,,2024-01-31,1,,,,,シュンテン,0
47,1010901054621,新規,0,2024-01-31,2024-01-31,株式会社ピンチ,,株式会社,東京都,世田谷区,玉川台２丁目３５番６号,,13,112,1580096,,,,,,,2024-01-31,1,,,,,ピンチ,0
48,1010901054638,新規,0,2024-01-31,2024-01-31,クリア株式会社,,株式会社,東京都,世田谷区,代田１丁目４７番２号,,13,112,1550033,,,,,,,2024-01-31,1,,,,,クリア,0
57,1011001159666,新規,0,2024-01-31,2024-01-31,ＰＳＴメディカル株式会社,,株式会社,東京都,渋谷区,円山町２８番４号大場ビルＡ館４Ｂ号室,,13,113,1500044,,,,,,,2024-01-31,1,,,,,ピーエスティーメディカル,0
58,1011001159708,新規,0,2024-01-31,2024-01-31,株式会社Ｌｅａｐ‐ｉｔ,,株式会社,東京都,渋谷区,神宮前４丁目１７番９号,,13,113,1500001,,,,,,,2024-01-31,1,,,,,リープイット,0
63,1011101106023,新規,0,2024-01-31,2024-01-31,光耀サイバーテック株式会社,,株式会社,東京都,新宿区,西新宿７丁目５番５号Ｐｌａｚａ西新宿ＵＣＦ４階,,13,104,1600023,,,,,,,2024-01-31,1,,,,,コウヨウサイバーテック,0
64,1011101106031,新規,0,2024-01-31,2024-01-31,株式会社デジタルウェルスフィア,,株式会社,東京都,新宿区,西新宿７丁目３番４号,,13,104,1600023,,,,,,,2024-01-31,1,,,,,デジタルウェルスフィア,0
73,1011401025807,新規,0,2024-01-31,2024-01-31,株式会社Ｇａｔａｒｙ,,株式会社,東京都,板橋区,板橋１丁目２２番６－５０２号,,13,119,1730004,,,,,,,2024-01-31,1,,,,,ガタリー,0
74,1011501030244,新規,0,2024-01-31,2024-01-31,株式会社ＰＬＥＤＧＥ,,株式会社,東京都,荒川区,西日暮里２丁目４９番１０－１００１号,,13,118,1160013,,,,,,,2024-01-31,1,,,,,プレッジ,0
75,1011501030269,新規,0,2024-01-31,2024-01-31,メヴィ株式会社,,株式会社,東京都,荒川区,東尾久８丁目４２番１２号,,13,118,1160012,,,,,,,2024-01-31,1,,,,,メヴィ,0
77,1011503005938,新規,0,2024-01-31,2024-01-31,合同会社おおたけ,,合同会社,東京都,北区,志茂４丁目４１番１５号,,13,117,1150042,,,,,,,2024-01-31,1,,,,,オオタケ,0
79,1011603004229,新規,0,2024-01-31,2024-01-31,合同会社ａｍｏｕｒ,,合同会社,東京都,練馬区,大泉学園町５丁目１０番２９－２０８号,,13,120,1780061,,,,,,,2024-01-31,1,,,,,アムール,0
82,1012301013760,新規,0,2024-01-31,2024-01-31,星宇株式会社,,株式会社,東京都,町田市,根岸町１００８番地２０リリーハイツ２－Ｄ,,13,209,1940034,,,,,,,2024-01-31,1,,,,,セイウ,0
89,1013301051981,新規,0,2024-01-31,2024-01-31,株式会社基石,,株式会社,東京都,豊島区,長崎２丁目２９番９号,,13,116,1710051,,,,,,,2024-01-31,1,,,,,キセキ,0
90,1013301051998,新規,0,2024-01-31,2024-01-31,株式会社ＳＨＷＥ　ＮＧＡＲ,,株式会社,東京都,豊島区,北大塚１丁目３－６ＶＩＬＬＡ平木３０１号,,13,116,1700004,,,,,,,2024-01-31,1,,,,,シウェガ,0
102,1020003025446,新規,0,2024-01-31,2024-01-31,合同会社スターク,,合同会社,神奈川県,横浜市港北区,新羽町６４３番１－１０６号,,14,109,2230057,,,,,,,2024-01-31,1,,,,,スターク,0
103,1020003025470,新規,0,2024-01-31,2024-01-31,合同会社Ｆａｃｔｏｒ,,合同会社,神奈川県,横浜市港南区,上大岡東２丁目３１番１４号ベイヒルズ上大岡２０４,,14,111,2330001,,,,,,,2024-01-31,1,,,,,ファクター,0
116,1040001131962,新規,0,2024-01-31,2024-01-31,栄仁興業株式会社,,株式会社,千葉県,市原市,国分寺台中央７丁目１７番地４,,12,219,2900073,,,,,,,2024-01-31,1,,,,,エイジンコウギョウ,0
117,1040001131979,新規,0,2024-01-31,2024-01-31,ナラタモータース株式会社,,株式会社,千葉県,千葉市若葉区,高根町８７８番地６,,12,104,2650061,,,,,,,2024-01-31,1,,,,,ナラタモータース,0
122,1040003024223,新規,0,2024-01-31,2024-01-31,合同会社恵光,,合同会社,千葉県,いすみ市,大野８９４番地,,12,238,2980113,,,,,,,2024-01-31,1,,,,,ケイコウ,0
124,1050003008084,新規,0,2024-01-31,2024-01-31,ＹＵＭＥ　ＨＯＲＩＺＯＮ合同会社,,合同会社,茨城県,稲敷郡阿見町,中央２丁目１２番１１号グレイスハウスＡ１０１,,08,443,3000332,,,,,,,2024-01-31,1,,,,,ユメホライズン,0
128,1070001041341,新規,0,2024-01-31,2024-01-31,株式会社インサイドテール,,株式会社,群馬県,伊勢崎市,宮前町１５１３－１,,10,204,3720026,,,,,,,2024-01-31,1,,,,,インサイドテール,0
132,1080403004944,新規,0,2024-01-31,2024-01-31,合同会社レセット,,合同会社,静岡県,浜松市中央区,半田山４丁目２７番２８号,,22,138,4313125,,,,,,,2024-01-31,1,,,,,レセット,0
144,1120001261727,新規,0,2024-01-31,2024-01-31,株式会社悠依不動産,,株式会社,大阪府,大阪市都島区,都島北通１丁目１１番４－１０２号,,27,102,5340014,,,,,,,2024-01-31,1,,,,,ユウイフドウサン,0
145,1120001261826,新規,0,2024-01-31,2024-01-31,株式会社Ｍ・Ｑ・Ｌ,,株式会社,大阪府,大阪市中央区,心斎橋筋１丁目３番１５号,,27,128,5420085,,,,,,,2024-01-31,1,,,,,エムキューエル,0
146,1120001261834,新規,0,2024-01-31,2024-01-31,株式会社Ｓｏｈ’ｓ　Ｃｏｒｐｏｒａｔｉｏｎ,,株式会社,大阪府,寝屋川市,池の瀬町３番１４号,,27,215,5720012,,,,,,,2024-01-31,1,,,,,ソーズコーポレーション,0
147,1120001261883,新規,0,2024-01-31,2024-01-31,株式会社アドクレヨン,,株式会社,大阪府,大阪市住之江区,北島１丁目２番１－１０１号,,27,125,5590014,,,,,,,2024-01-31,1,,,,,アドクレヨン,0
152,1120003025790,新規,0,2024-01-31,2024-01-31,合同会社ｌｉｎｋ,,合同会社,大阪府,大阪市東淀川区,東中島１丁目１７－５,,27,114,5330033,,,,,,,2024-01-31,1,,,,,リンク,0
153,1120003025808,新規,0,2024-01-31,2024-01-31,合同会社ｍｏｌｅｃｕｌｅ,,合同会社,大阪府,大阪市天王寺区,空清町１番１１号上町ビル２Ｆ,,27,109,5430018,,,,,,,2024-01-31,1,,,,,モレクル,0
154,1120101068964,新規,0,2024-01-31,2024-01-31,株式会社ＮＯＴＧ,,株式会社,大阪府,岸和田市,小松里町２１８０番地エクセレント谷ＩＩ１０３号,00133576,27,202,5960821,,,,,,,2024-01-31,1,,,,,エヌオーティージー,0
155,1120101068989,新規,0,2024-01-31,2024-01-31,株式会社近畿プライムホーム,,株式会社,大阪府,和泉市,王子町６６２番地の４,,27,219,5940004,,,,,,,2024-01-31,1,,,,,キンキプライムホーム,0
159,1120105009824,新規,0,2024-01-31,2024-01-31,医療法人結,,その他の設立登記法人,大阪府,泉佐野市,高松東１丁目７番３１号,,27,213,5980012,,,,,,,2024-01-31,1,,,,,ユイ,0
167,1130002008309,新規,0,2024-01-31,2024-01-31,有限会社芦田工業,00133488,有限会社,京都府,京都市西京区,桂千代原町２６番地,,26,111,6158085,,,,,,,2024-01-31,1,,,,,アシダコウギョウ,0
168,1130003009272,新規,0,2024-01-31,2024-01-31,ＳＵ企画合同会社,,合同会社,京都府,京都市左京区,一乗寺河原田町１９－５,,26,103,6068172,,,,,,,2024-01-31,1,,,,,エスユーキカク,0
175,1140001133156,新規,0,2024-01-31,2024-01-31,株式会社グロツー,,株式会社,兵庫県,尼崎市,長洲西通１丁目３番１４－６０３号,,28,202,6600807,,,,,,,2024-01-31,1,,,,,グロツー,0
178,1160001025665,新規,0,2024-01-31,2024-01-31,プライムエックスジャパン株式会社,,株式会社,滋賀県,長浜市,千草町１２０番地１,,25,203,5260801,,,,,,,2024-01-31,1,,,,,プライムエックスジャパン,0
180,1180001159973,新規,0,2024-01-31,2024-01-31,株式会社ＬＡＢＯＰＴ,,株式会社,愛知県,長久手市,石場１８０５番地,,23,238,4801343,,,,,,,2024-01-31,1,,,,,ラボプト,0
181,1180003026263,新規,0,2024-01-31,2024-01-31,ブラックスワン合同会社,,合同会社,愛知県,名古屋市中村区,並木２丁目２４８番地Ｆａｉｔｈ３Ｂ,,23,105,4530856,,,,,,,2024-01-31,1,,,,,ブラックスワン,0
182,1180003026288,新規,0,2024-01-31,2024-01-31,合同会社ＬＩＦＥＢＡＳＥ,,合同会社,愛知県,一宮市,北方町中島字黒髭８番地２,,23,203,4938003,,,,,,,2024-01-31,1,,,,,ライフベース,0
185,1180301038266,新規,0,2024-01-31,2024-01-31,株式会社水野鐵工所,,株式会社,愛知県,豊橋市,菰口町１丁目３９番地の２,,23,201,4418011,,,,,,,2024-01-31,1,,,,,ミズノテッコウショ,0
186,1180301038274,新規,0,2024-01-31,2024-01-31,株式会社セレステ不動産,,株式会社,愛知県,豊橋市,野依町字東欠４６番地,,23,201,4418124,,,,,,,2024-01-31,1,,,,,セレステフドウサン,0
187,1180301038282,新規,0,2024-01-31,2024-01-31,株式会社ゼンショー電設,,株式会社,愛知県,岡崎市,大平町字出口３２番地,,23,202,4440007,,,,,,,2024-01-31,1,,,,,ゼンショーデンセツ,0
196,1220001025799,新規,0,2024-01-31,2024-01-31,株式会社近代,,株式会社,石川県,金沢市,もりの里１丁目２４０番地グレイティストやまや１０３号,,17,201,9201167,,,,,,,2024-01-31,1,,,,,キンダイ,0
199,1240003006515,新規,0,2024-01-31,2024-01-31,嘉禾合同会社,,合同会社,広島県,福山市,霞町１丁目３－１１－２Ｆ,,34,207,7200812,,,,,,,2024-01-31,1,,,,,ヨシカ,0
212,1290001104506,新規,0,2024-01-31,2024-01-31,エコサービス大牟田・荒尾株式会社,,株式会社,福岡県,大牟田市,小浜町１丁目２番地の１,,40,202,8360034,,,,,,,2024-01-31,1,,,,,エコサービスオオムタアラオ,0
213,1290001104563,新規,0,2024-01-31,2024-01-31,株式会社リットサービス,,株式会社,福岡県,福岡市早良区,次郎丸３丁目９－２５ＳｕｎＭａｒｋ次郎丸２０１号室,,40,137,8140165,,,,,,,2024-01-31,1,,,,,リットサービス,0
216,1290003014918,新規,0,2024-01-31,2024-01-31,合同会社ＭＲ,,合同会社,福岡県,福岡市南区,長丘４丁目９番１３号,,40,134,8150075,,,,,,,2024-01-31,1,,,,,エムアール,0
223,1360001033144,新規,0,2024-01-31,2024-01-31,株式会社関西貿易沖縄,,株式会社,沖縄県,島尻郡八重瀬町,字安里１３５４,,47,362,9010514,,,,,,,2024-01-31,1,,,,,カンサイボウエキオキナワ,0
230,1380003005668,新規,0,2024-01-31,2024-01-31,合同会社ＮＥＸＴ,,合同会社,福島県,会津若松市,門田町大字黒岩字大坪９８番地の２,,07,202,9650825,,,,,,,2024-01-31,1,,,,,ネクスト,0
236,1410003003882,新規,0,2024-01-31,2024-01-31,合同会社アース・スチズン,,合同会社,秋田県,大仙市,四ツ屋字草刈野上川原１１０番地１,,05,212,0140102,,,,,,,2024-01-31,1,,,,,アーススチズン,0
238,1430001090970,新規,0,2024-01-31,2024-01-31,ＯＮＥ　ＷＡＶＥ株式会社,,株式会社,北海道,札幌市中央区,南九条西４丁目６番３号弘成ビル３階,,01,101,0640809,,,,,,,2024-01-31,1,,,,,ワンウェイブ,0
243,1430003015901,新規,0,2024-01-31,2024-01-31,合同会社八つ葉,,合同会社,北海道,札幌市中央区,南六条西２丁目８－７ＴＥＡＤＡ南６条１２０１,,01,101,0640806,,,,,,,2024-01-31,1,,,,,ヤツハ,0
247,1460105002274,新規,0,2024-01-31,2024-01-31,農事組合法人アバンギャルド,,その他の設立登記法人,北海道,帯広市,西十七条南５丁目４－９コーポマイロードＩＩ１０５,00133570,01,207,0800027,,,,,,,2024-01-31,1,,,,,,0
248,1470001020008,新規,0,2024-01-31,2024-01-31,株式会社ＨＩＧＨＢＡＬＬ　ＧＯＬＦ,,株式会社,香川県,三豊市,高瀬町上麻１番地３,,37,208,7670014,,,,,,,2024-01-31,1,,,,,ハイボールゴルフ,0
250,1490003001862,新規,0,2024-01-31,2024-01-31,合同会社ｔｅｔｏｔｅ,,合同会社,高知県,南国市,立田８１３番地６,,39,204,7830091,,,,,,,2024-01-31,1,,,,,テトテ,0
252,1700150123256,新規,0,2024-01-31,2024-01-10,ＳＭＡＫ共創型地域振興協議会,,その他,神奈川県,相模原市緑区,鳥屋２５１番地２,,14,151,2520155,,,,,,,2024-01-10,1,,,,,スマツクキヨウソウガタチイキシンコウキヨウギカイ,0
261,2010001241755,新規,0,2024-01-31,2024-01-31,株式会社ＬＥＡＤＧＬ,,株式会社,東京都,千代田区,二番町５番地２麹町駅プラザ９０１,,13,101,1020084,,,,,,,2024-01-31,1,,,,,リドグル,0
262,2010001241904,新規,0,2024-01-31,2024-01-31,アジアインベストメント株式会社,,株式会社,東京都,千代田区,飯田橋２丁目１７番９－４０１号,,13,101,1020072,,,,,,,2024-01-31,1,,,,,アジアインベストメント,0
263,2010001241912,新規,0,2024-01-31,2024-01-31,株式会社ＡＳＨＩＴＡＭＯ,,株式会社,東京都,千代田区,神田神保町１丁目３５番地１達磨ビル３階,,13,101,1010051,,,,,,,2024-01-31,1,,,,,アシタモ,0
264,2010001241929,新規,0,2024-01-31,2024-01-31,株式会社ＮｏｖａＱｕｉｒｋ,,株式会社,東京都,中央区,銀座１丁目２２番１１号銀座大竹ビジデンス２Ｆ,,13,102,1040061,,,,,,,2024-01-31,1,,,,,ノヴァクワーク,0
265,2010001241953,新規,0,2024-01-31,2024-01-31,株式会社東京ヒトミ,,株式会社,東京都,文京区,本郷４丁目１６番６号,,13,105,1130033,,,,,,,2024-01-31,1,,,,,トウキョウヒトミ,0
268,2010003042805,新規,0,2024-01-31,2024-01-31,合同会社サントム,,合同会社,東京都,中央区,東日本橋２丁目７番１号フロンティア東日本橋２Ｆ,,13,102,1030004,,,,,,,2024-01-31,1,,,,,サントム,0
269,2010103002304,新規,0,2024-01-31,2024-01-31,合同会社Ｎｅｉｇｅ,,合同会社,東京都,八王子市,大和田町３丁目１番８号共立リライアンス八王子ＩＩＡ２１２,00133571,13,201,1920045,,,,,,,2024-01-31,1,,,,,ネージュ,0
279,2010401179752,新規,0,2024-01-31,2024-01-31,株式会社Ａｍｐｈｏｎｙ,,株式会社,東京都,港区,北青山１丁目３番１号アールキューブ青山３階,,13,103,1070061,,,,,,,2024-01-31,1,,,,,アンフォニー,0
280,2010401180058,新規,0,2024-01-31,2024-01-31,Ｍｉｍｏ　Ｔｅｃｈｎｏｌｏｇｙ株式会社,,株式会社,東京都,港区,東新橋１丁目２番５号,,13,103,1050021,,,,,,,2024-01-31,1,,,,,ミモテクノロジー,0
281,2010401180066,新規,0,2024-01-31,2024-01-31,株式会社Ｉｎｔｅｒｖｅｎｔｉｏｎ,,株式会社,東京都,港区,麻布十番２丁目１２番１０号ＴｈｅＪｕｂａｎ６０４,,13,103,1060045,,,,,,,2024-01-31,1,,,,,インターベンション,0
287,2010505003486,新規,0,2024-01-31,2024-01-31,一般社団法人ＺＥＢ推進センター,,その他の設立登記法人,東京都,台東区,台東３丁目８番１０号,,13,106,1100016,,,,,,,2024-01-31,1,,,,,ゼブスイシンセンター,0
300,2010801034747,新規,0,2024-01-31,2024-01-31,株式会社Ｌｅａｐ,,株式会社,東京都,大田区,山王１丁目４番９号須藤ビル３Ｆ,,13,111,1430023,,,,,,,2024-01-31,1,,,,,リープ,0
301,2010803004830,新規,0,2024-01-31,2024-01-31,Ｊａｙ　ｍａｔａ　Ｌａｘｍｉ合同会社,,合同会社,東京都,大田区,新蒲田２丁目２１番７号ハイツ春野２０１,,13,111,1440054,,,,,,,2024-01-31,1,,,,,ジャヤマタラクシュミ,0
309,2011001159673,新規,0,2024-01-31,2024-01-31,株式会社アシスト,,株式会社,東京都,渋谷区,渋谷３丁目１番９号,,13,113,1500002,,,,,,,2024-01-31,1,,,,,,0
310,2011001159681,新規,0,2024-01-31,2024-01-31,株式会社フクロウ,,株式会社,東京都,目黒区,自由が丘２丁目１６番１２号,,13,110,1520035,,,,,,,2024-01-31,1,,,,,フクロウ,0
311,2011001159707,新規,0,2024-01-31,2024-01-31,Ｔｏｋｙｏ‐Ｊ株式会社,,株式会社,東京都,渋谷区,広尾４丁目１番１８－４０５号,,13,113,1500012,,,,,,,2024-01-31,1,,,,,トウキョウジェイ,0
316,2011101106006,新規,0,2024-01-31,2024-01-31,株式会社Ｐｒｅｍｉｕｍ,,株式会社,東京都,新宿区,歌舞伎町２丁目１３番４号第６金嶋本社ビル地下２階,,13,104,1600021,,,,,,,2024-01-31,1,,,,,プレミアム,0
317,2011101106014,新規,0,2024-01-31,2024-01-31,株式会社ＳＵＲＰＡＸ,,株式会社,東京都,新宿区,百人町１丁目２０番１７号星野ビル２０３室,,13,104,1690073,,,,,,,2024-01-31,1,,,,,サーパックス,0
342,2012701018053,新規,0,2024-01-31,2024-01-31,株式会社ＫａｎｏＡｌｉｖｅ,,株式会社,東京都,西東京市,ひばりが丘北３丁目５番６号,,13,229,2020002,,,,,,,2024-01-31,1,,,,,カノアライブ,0
343,2012701018061,新規,0,2024-01-31,2024-01-31,株式会社愛,,株式会社,東京都,東久留米市,前沢１丁目２番７号,,13,222,2030032,,,,,,,2024-01-31,1,,,,,アイ,0
344,2012703002897,新規,0,2024-01-31,2024-01-31,ＣＪＣコネクト合同会社,,合同会社,東京都,西東京市,田無町２丁目２２番９号田無エイトビル１０１号室,,13,229,1880011,,,,,,,2024-01-31,1,,,,,シージェーシーコネクト,0
351,2013301051989,新規,0,2024-01-31,2024-01-31,株式会社ＧＤＴＳ,,株式会社,東京都,豊島区,東池袋１丁目１７番１１号パークハイツ池袋１１０５号,,13,116,1700013,,,,,,,2024-01-31,1,,,,,ジーディーティーエス,0
359,2020001155558,新規,0,2024-01-31,2024-01-31,株式会社ＩＭＣ不動産,,株式会社,神奈川県,横浜市南区,永田山王台１７番３号,,14,105,2320074,,,,,,,2024-01-31,1,,,,,アイエムシーフドウサン,0
360,2020001155590,新規,0,2024-01-31,2024-01-31,株式会社細野木工社,,株式会社,神奈川県,川崎市麻生区,早野１３９－１,,14,137,2150016,,,,,,,2024-01-31,1,,,,,ホソノモッコウシャ,0
392,2040003024222,新規,0,2024-01-31,2024-01-31,合同会社ＵＦＣ,,合同会社,千葉県,市川市,南行徳３丁目１５番２２－１０２号グランド桂,,12,203,2720138,,,,,,,2024-01-31,1,,,,,ユーエフシー,0
398,2050003008109,新規,0,2024-01-31,2024-01-31,合同会社ＮＥＷ　ＬＩＦＥ,,合同会社,茨城県,かすみがうら市,下稲吉１６２５番地１まりも荘２０３,,08,230,3150052,,,,,,,2024-01-31,1,,,,,ニューライフ,0
400,2060005010160,新規,0,2024-01-31,2024-01-31,一般社団法人Ｃａｍｐａｎｙ,,その他の設立登記法人,栃木県,那須塩原市,沓掛１丁目１２番地２Ｒｅ：ｏＳｏｕｔｈ１０２号室,,09,213,3293133,,,,,,,2024-01-31,1,,,,,キャンパニー,0
404,2070005010218,新規,0,2024-01-31,2024-01-31,一般社団法人美泉会,,その他の設立登記法人,群馬県,高崎市,浜尻町２０９番地５,,10,202,3700005,,,,,,,2024-01-31,1,,,,,ビセンカイ,0
409,2080103002974,新規,0,2024-01-31,2024-01-31,合同会社椿,,合同会社,静岡県,賀茂郡南伊豆町,手石１１３６－１５,,22,304,4150153,,,,,,,2024-01-31,1,,,,,ツバキ,0
411,2090003002479,新規,0,2024-01-31,2024-01-31,合同会社おそうじねこちゃん,,合同会社,山梨県,南都留郡富士河口湖町,浅川１７８,,19,430,4010303,,,,,,,2024-01-31,1,,,,,オソウジネコチャン,0
426,2120001261767,新規,0,2024-01-31,2024-01-31,株式会社進藤企画,,株式会社,大阪府,大阪市淀川区,塚本６丁目３－３３ジェイグランシティ塚本４２９,,27,123,5320026,,,,,,,2024-01-31,1,,,,,シンドウキカク,0
427,2120001261783,新規,0,2024-01-31,2024-01-31,誠瀾株式会社,,株式会社,大阪府,大阪市天王寺区,大道３丁目１－２４グランピア寺田町２０１号室,,27,109,5430052,,,,,,,2024-01-31,1,,,,,セイラン,0
428,2120001261791,新規,0,2024-01-31,2024-01-31,株式会社ＷＡＯ,,株式会社,大阪府,大阪市西淀川区,姫島５丁目７番３号,,27,113,5550033,,,,,,,2024-01-31,1,,,,,ワオ,0
429,2120001261858,新規,0,2024-01-31,2024-01-31,株式会社ＲＮ,,株式会社,大阪府,大阪市西区,新町１丁目８番２０号ＫＡＤＯＭＯＲＩビル７階,,27,106,5500013,,,,,,,2024-01-31,1,,,,,アールエヌ,0
430,2120001261882,新規,0,2024-01-31,2024-01-31,株式会社幸結,,株式会社,大阪府,大阪市西区,靱本町１丁目１０番７－３００３号,,27,106,5500004,,,,,,,2024-01-31,1,,,,,サユ,0
434,2120003025807,新規,0,2024-01-31,2024-01-31,合同会社樹,,合同会社,大阪府,大阪市北区,池田町１番２－１２５４号,,27,127,5300033,,,,,,,2024-01-31,1,,,,,バーム,0
438,2120105009823,新規,0,2024-01-31,2024-01-31,特定非営利活動法人まちづくりデザイン研究所,,その他の設立登記法人,大阪府,大阪狭山市,大野台６丁目２１番９号,,27,231,5890023,,,,,,,2024-01-31,1,,,,,マチヅクリデザインケンキュウショ,0
440,2120903005032,新規,0,2024-01-31,2024-01-31,ワイズセミテック合同会社,,合同会社,大阪府,高槻市,高見台１４番３号,,27,207,5691020,,,,,,,2024-01-31,1,,,,,ワイズセミテック,0
444,2140001133155,新規,0,2024-01-31,2024-01-31,株式会社ｈａｏｎ,,株式会社,兵庫県,神戸市東灘区,御影山手５丁目４番３号,,28,101,6580065,,,,,,,2024-01-31,1,,,,,ハオン,0
445,2140001133163,新規,0,2024-01-31,2024-01-31,株式会社ＫＡＮＳＡＩファーム・サービス,,株式会社,兵庫県,加西市,玉野町１１３９番地の１６,,28,220,6790107,,,,,,,2024-01-31,1,,,,,カンサイファームサービス,0
446,2140001133171,新規,0,2024-01-31,2024-01-31,Ｈｙｂｒｉｄ　Ｄｅｓｉｇｎｓ　Ｊａｐａｎ株式会社,,株式会社,兵庫県,神戸市中央区,熊内町６丁目２－５－１０２,,28,110,6510056,,,,,,,2024-01-31,1,,,,,ハイブリッドデザインズジャパン,0
455,2170003001976,新規,0,2024-01-31,2024-01-31,合同会社結,,合同会社,和歌山県,岩出市,南大池６番地の２７,,30,209,6496218,,,,,,,2024-01-31,1,,,,,ユイ,0
464,2180001159980,新規,0,2024-01-31,2024-01-31,株式会社ＡＲＲＩＶＡＬ,,株式会社,愛知県,名古屋市中川区,下之一色町字中ノ切２５－２,,23,110,4540945,,,,,,,2024-01-31,1,,,,,アライバル,0
465,2180001159989,新規,0,2024-01-31,2024-01-31,株式会社明和国際事務所,,株式会社,愛知県,名古屋市中村区,大宮町２丁目７２番地の９,,23,105,4530821,,,,,,,2024-01-31,1,,,,,メイワコクサイジムショ,0
466,2180001159997,新規,0,2024-01-31,2024-01-31,株式会社ハピネス,,株式会社,愛知県,名古屋市守山区,八反１０番３０号,,23,113,4630063,,,,,,,2024-01-31,1,,,,,ハピネス,0
470,2180301038273,新規,0,2024-01-31,2024-01-31,株式会社豊田工業,,株式会社,愛知県,豊橋市,下地町字大圦１１番地ルミナーレＮ１０２号室,,23,201,4400083,,,,,,,2024-01-31,1,,,,,トヨダコウギョウ,0
471,2180301038281,新規,0,2024-01-31,2024-01-31,株式会社ｇｉｆｔｅｄ,,株式会社,愛知県,岡崎市,稲熊町字森下７番地９,,23,202,4440071,,,,,,,2024-01-31,1,,,,,ギフテッド,0
490,2240001062732,新規,0,2024-01-31,2024-01-31,ａｒｉａｎｔ株式会社,,株式会社,広島県,広島市安佐北区,落合南３丁目３６番１８号,,34,106,7391732,,,,,,,2024-01-31,1,,,,,アリアント,0
497,2260003004557,新規,0,2024-01-31,2024-01-31,合同会社ａｃｔ．ＰＬＳ,,合同会社,岡山県,赤磐市,桜が丘西１０丁目１２番３号,,33,213,7090802,,,,,,,2024-01-31,1,,,,,アクトプラス,0
498,2260005011312,新規,0,2024-01-31,2024-01-31,一般社団法人フェリスタ・スポーツクラブ,,その他の設立登記法人,岡山県,総社市,小寺２０６０番地アーバンハウス２０２,,33,208,7191155,,,,,,,2024-01-31,1,,,,,フェリスタスポーツクラブ,0
503,2290001104455,新規,0,2024-01-31,2024-01-31,日新建設株式会社,,株式会社,福岡県,久留米市,西町１１０２番地の１,,40,203,8300038,,,,,,,2024-01-31,1,,,,,ニッシンケンセツ,0
504,2290001104562,新規,0,2024-01-31,2024-01-31,株式会社ＫＥＹＡＫＩ　Ｈｏｂｂｙ,,株式会社,福岡県,久留米市,御井旗崎１丁目１－２０森田ビル３０３号,,40,203,8390841,,,,,,,2024-01-31,1,,,,,ケヤキホビー,0
507,2290803004605,新規,0,2024-01-31,2024-01-31,合同会社ライノホーン,,合同会社,福岡県,北九州市八幡東区,天神町４―１４,,40,108,8050054,,,,,,,2024-01-31,1,,,,,ライノホーン,0
511,2350005006212,新規,0,2024-01-31,2024-01-31,特定非営利活動法人十次のおやつ,,その他の設立登記法人,宮崎県,児湯郡高鍋町,大字高鍋町７０６番地,,45,401,8840001,,,,,,,2024-01-31,1,,,,,ジュウジノオヤツ,0
513,2360003013663,新規,0,2024-01-31,2024-01-31,合同会社ａｉｋネクスト,,合同会社,沖縄県,宜野湾市,大山２丁目３２番地１－４０２号マンションアウトライン,,47,205,9012223,,,,,,,2024-01-31,1,,,,,エーアイケーネクスト,0
516,2380001034271,新規,0,2024-01-31,2024-01-31,かわちネクスト株式会社,,株式会社,福島県,河沼郡柳津町,大字柳津字下平乙２５４番地,,07,423,9697201,,,,,,,2024-01-31,1,,,,,カワチネクスト,0
526,2430001090978,新規,0,2024-01-31,2024-01-31,株式会社ＯＮＴ　ｈｏｌｄｉｎｇｓ,,株式会社,北海道,札幌市白石区,菊水元町六条４丁目１番２８号ラ・ルーナ１０１号,,01,104,0030826,,,,,,,2024-01-31,1,,,,,オーエヌティーホールディングス,0
528,2430003015909,新規,0,2024-01-31,2024-01-31,合同会社Ｅ‐ＵＰ,,合同会社,北海道,札幌市東区,東苗穂十五条１丁目２番３５号,,01,103,0070815,,,,,,,2024-01-31,1,,,,,イーアップ,0
529,2430005014883,新規,0,2024-01-31,2024-01-31,一般社団法人そらとうみと,,その他の設立登記法人,北海道,札幌市中央区,旭ケ丘５丁目１番８号,,01,101,0640941,,,,,,,2024-01-31,1,,,,,ソラトウミト,0
535,2700150119303,新規,0,2024-01-31,2023-08-25,オールネーションズフェローシップ,,その他,愛知県,名古屋市中村区,太閤１丁目４－１０,,23,105,4530801,,,,,,,2023-08-25,1,,,,,オールネーシヨンズフエローシツプ,0
536,2700150123255,新規,0,2024-01-31,2024-01-10,生駒市議会議員共済会,,その他,奈良県,生駒市,東新町８番３８号,,29,209,6300258,,,,,,,2024-01-10,1,,,,,イコマシギカイギインキヨウサイカイ,0
541,3010001241886,新規,0,2024-01-31,2024-01-31,クリタエステート株式会社,,株式会社,東京都,文京区,本駒込６丁目１番９号キャピタルビル３階,,13,105,1130021,,,,,,,2024-01-31,1,,,,,クリタエステート,0
542,3010001241985,新規,0,2024-01-31,2024-01-31,株式会社ｃａｃｔｕｓ　ＴＯＫＹＯ,,株式会社,東京都,中央区,銀座１丁目１２番４号６Ｆ,,13,102,1040061,,,,,,,2024-01-31,1,,,,,カクタストーキョー,0
543,3010003042804,新規,0,2024-01-31,2024-01-31,合同会社サンリッチ,,合同会社,東京都,中央区,東日本橋２丁目７番１号フロンティア東日本橋２Ｆ,,13,102,1030004,,,,,,,2024-01-31,1,,,,,サンリッチ,0
544,3010003042837,新規,0,2024-01-31,2024-01-31,柏ロジインベストメント合同会社,,合同会社,東京都,千代田区,丸の内３丁目１番１号東京共同会計事務所内,,13,101,1000005,,,,,,,2024-01-31,1,,,,,カシワロジインベストメント,0
545,3010005037819,新規,0,2024-01-31,2024-01-31,一般社団法人スイレン,,その他の設立登記法人,東京都,千代田区,二番町３番地麹町スクエア株式会社シリウス・アドバイザリー内,,13,101,1020084,,,,,,,2024-01-31,1,,,,,スイレン,0
546,3010103002303,新規,0,2024-01-31,2024-01-31,合同会社レイスノヴァ,,合同会社,東京都,八王子市,大和田町６丁目７番１６－１４０５号,,13,201,1920045,,,,,,,2024-01-31,1,,,,,,0
551,3010401179982,新規,0,2024-01-31,2024-01-31,株式会社ＣＮパートナーズ,,株式会社,東京都,港区,赤坂２丁目１２番３２－８０４号,,13,103,1070052,,,,,,,2024-01-31,1,,,,,シーエヌパートナーズ,0
556,3010403031828,新規,0,2024-01-31,2024-01-31,合同会社スタート,,合同会社,東京都,港区,海岸３丁目９－４０－１７１２号,,13,103,1080022,,,,,,,2024-01-31,1,,,,,スタート,0
558,3010501051711,新規,0,2024-01-31,2024-01-31,藤盛商事株式会社,,株式会社,東京都,台東区,台東１丁目２４番９号ブライト秋葉原５階,,13,106,1100016,,,,,,,2024-01-31,1,,,,,フジモリショウジ,0
575,3010701045488,新規,0,2024-01-31,2024-01-31,株式会社泰陽パートナーズ,,株式会社,東京都,品川区,小山３丁目１４－２－２９０４,,13,109,1420062,,,,,,,2024-01-31,1,,,,,タイヨウパートナーズ,0
577,3010803004838,新規,0,2024-01-31,2024-01-31,合同会社京也ミア,,合同会社,東京都,大田区,西糀谷１丁目２６番１４号,,13,111,1440034,,,,,,,2024-01-31,1,,,,,キョウヤミア,0
580,3010901054586,新規,0,2024-01-31,2024-01-31,株式会社ＬＩＮＫ,,株式会社,東京都,世田谷区,北沢１丁目４５番７号,,13,112,1550031,,,,,,,2024-01-31,1,,,,,リンク,0
581,3010901054644,新規,0,2024-01-31,2024-01-31,株式会社学び舎トーカ,,株式会社,東京都,世田谷区,中町５丁目３１－１２白井ビル３階,,13,112,1580091,,,,,,,2024-01-31,1,,,,,マナビヤトーカ,0
589,3011001159680,新規,0,2024-01-31,2024-01-31,ＣＯＭＭＯＮＺ株式会社,,株式会社,東京都,渋谷区,渋谷２丁目１６番８号７階,,13,113,1500002,,,,,,,2024-01-31,1,,,,,コモンズ,0
590,3011001159697,新規,0,2024-01-31,2024-01-31,株式会社ＹＳ　Ｃｏｒｐ,,株式会社,東京都,目黒区,大橋１丁目３－６－７０８,,13,110,1530044,,,,,,,2024-01-31,1,,,,,ワイエスコープ,0
591,3011001159706,新規,0,2024-01-31,2024-01-31,Ｗａｖｅ株式会社,,株式会社,東京都,渋谷区,神南１丁目５番４号ロイヤルパレス原宿２０４号室,,13,113,1500041,,,,,,,2024-01-31,1,,,,,ウェーブ,0
592,3011001159739,新規,0,2024-01-31,2024-01-31,株式会社ＳｔａｒＥｘｐｒｅｓｓ,,株式会社,東京都,渋谷区,渋谷２丁目１９－１５宮益坂ビルディング６０９,,13,113,1500002,,,,,,,2024-01-31,1,,,,,スターエクスプレス,0
596,3011101105997,新規,0,2024-01-31,2024-01-31,Ｅｒａ　Ｉｒｅｎｅ株式会社,,株式会社,東京都,新宿区,新宿２丁目１２番１３号新宿アントレサロンビル２階,,13,104,1600022,,,,,,,2024-01-31,1,,,,,エライレーネ,0
602,3011301029369,新規,0,2024-01-31,2024-01-31,株式会社エリヒ,,株式会社,東京都,杉並区,南荻窪１丁目４１番３号,,13,115,1670052,,,,,,,2024-01-31,1,,,,,エリヒ,0
605,3011501030259,新規,0,2024-01-31,2024-01-31,株式会社ｎｉｃｏ,,株式会社,東京都,北区,豊島５丁目５番６－１１４３号,,13,117,1140003,,,,,,,2024-01-31,1,,,,,ニコ,0
613,3011801043720,新規,0,2024-01-31,2024-01-31,株式会社キテン,,株式会社,東京都,葛飾区,新小岩４丁目７番２０－３０５号,,13,122,1240024,,,,,,,2024-01-31,1,,,,,キテン,0
614,3012701018060,新規,0,2024-01-31,2024-01-31,吉澤設備株式会社,,株式会社,東京都,東久留米市,神宝町２丁目８番２７号,,13,222,2030002,,,,,,,2024-01-31,1,,,,,ヨシザワセツビ,0
615,3012801022937,新規,0,2024-01-31,2024-01-31,株式会社ＫＡＫインベスターズ,,株式会社,東京都,国分寺市,東恋ヶ窪２丁目１番地１－９０２,,13,214,1850014,,,,,,,2024-01-31,1,,,,,ケイエイケイインベスターズ,0
619,3013301052004,新規,0,2024-01-31,2024-01-31,株式会社ＣＬ＆ＳＹ,,株式会社,東京都,豊島区,目白２丁目１７番１５－３０４号,,13,116,1710031,,,,,,,2024-01-31,1,,,,,クラシ,0
630,3020001155508,新規,0,2024-01-31,2024-01-31,株式会社朝日,,株式会社,神奈川県,川崎市宮前区,平１丁目７番７号,,14,136,2160022,,,,,,,2024-01-31,1,,,,,アサヒ,0
631,3020001155549,新規,0,2024-01-31,2024-01-31,株式会社ブラックバード,,株式会社,神奈川県,川崎市中原区,上小田中３丁目２番１０号,,14,133,2110053,,,,,,,2024-01-31,1,,,,,ブラックバード,0
632,3020001155557,新規,0,2024-01-31,2024-01-31,株式会社ｓｕｍａｃ,,株式会社,神奈川県,横浜市西区,戸部町４丁目１７１番地２,,14,103,2200042,,,,,,,2024-01-31,1,,,,,スマック,0
633,3020001155565,新規,0,2024-01-31,2024-01-31,株式会社Ｐｌｕｓｉｅ,,株式会社,神奈川県,横浜市中区,蓬莱町２丁目６番地５アルテビル３０２,,14,104,2310048,,,,,,,2024-01-31,1,,,,,プラシエ,0
637,3021001081306,新規,0,2024-01-31,2024-01-31,株式会社ＢａｙＬｉｆｅ．,,株式会社,神奈川県,相模原市中央区,上溝７９６番地３,,14,152,2520243,,,,,,,2024-01-31,1,,,,,ベイライフ,0
661,3040005022264,新規,0,2024-01-31,2024-01-31,一般社団法人いきいきライフ協会ふなばし本町,,その他の設立登記法人,千葉県,船橋市,湊町２丁目１２番２４号船橋湊町日本橋ビル６Ｆ,,12,204,2730011,,,,,,,2024-01-31,1,,,,,イキイキライフキョウカイフナバシホンチョウ,0
670,3080105006394,新規,0,2024-01-31,2024-01-31,特定非営利活動法人子猫園ベルソーデシャトンズ,,その他の設立登記法人,静岡県,富士市,本市場１２８番地の１,,22,210,4160906,,,,,,,2024-01-31,1,,,,,コネコエンベルソーデシャトンズ,0
685,3120001261840,新規,0,2024-01-31,2024-01-31,ＤＴ　Ｓｗｉｓｓ　Ｊａｐａｎ株式会社,,株式会社,大阪府,大阪市中央区,難波５丁目１番６０号なんばスカイオ２７Ｆ,,27,128,5420076,,,,,,,2024-01-31,1,,,,,ディーティースイスジャパン,0
686,3120001261873,新規,0,2024-01-31,2024-01-31,株式会社ＯＮＥ　ＤＲＯＰ,,株式会社,大阪府,大阪市淀川区,東三国４丁目２番４号インザグレイス東三国９０１号,,27,123,5320002,,,,,,,2024-01-31,1,,,,,ワンドロップ,0
688,3120101068979,新規,0,2024-01-31,2024-01-31,株式会社ＳＴＹＬＥ　ＣＨＡＮＧＥ,,株式会社,大阪府,岸和田市,岡山町１６０―２２,,27,202,5960814,,,,,,,2024-01-31,1,,,,,スタイルチェンジ,0
691,3122001037790,新規,0,2024-01-31,2024-01-31,株式会社シルバーハーツ,,株式会社,大阪府,東大阪市,額田町８番３号ビルディング天風,,27,227,5798021,,,,,,,2024-01-31,1,,,,,シルバーハーツ,0
693,3140001133154,新規,0,2024-01-31,2024-01-31,株式会社Ｈｏ‐ｋａｎ,,株式会社,兵庫県,宝塚市,中野町８番８号リリーフ宝塚１０１,00133578,28,214,6650056,,,,,,,2024-01-31,1,,,,,ホーカン,0
707,3180001159963,新規,0,2024-01-31,2024-01-31,藤徳商事株式会社,,株式会社,愛知県,名古屋市千種区,内山１丁目１４番２号,,23,101,4640075,,,,,,,2024-01-31,1,,,,,フジトクショウジ,0
708,3180001159988,新規,0,2024-01-31,2024-01-31,株式会社ＫＡＮＡＤＥ,,株式会社,愛知県,名古屋市中区,丸の内２丁目８番１１号,,23,106,4600002,,,,,,,2024-01-31,1,,,,,カナデ,0
711,3180003026278,新規,0,2024-01-31,2024-01-31,合同会社ジューゴ,,合同会社,愛知県,知多市,日長字今川６０番地,,23,224,4780041,,,,,,,2024-01-31,1,,,,,ジューゴ,0
714,3180301038280,新規,0,2024-01-31,2024-01-31,株式会社メイキョー,,株式会社,愛知県,岡崎市,美合新町１８番地３１,,23,202,4440801,,,,,,,2024-01-31,1,,,,,メイキョー,0
718,3180303005989,新規,0,2024-01-31,2024-01-31,ＺＥＳＴ合同会社,,合同会社,愛知県,刈谷市,司町５丁目１８番地ダイアパレス刈谷司町１０１号,,23,210,4480834,,,,,,,2024-01-31,1,,,,,ゼスト,0
724,3220001025789,新規,0,2024-01-31,2024-01-31,株式会社ＥＬＤ,,株式会社,石川県,金沢市,松村１丁目８３番地１,,17,201,9200348,,,,,,,2024-01-31,1,,,,,エルド,0
734,3290001104561,新規,0,2024-01-31,2024-01-31,三坂不動産株式会社,,株式会社,福岡県,福岡市城南区,七隈４丁目４番２号,,40,136,8140133,,,,,,,2024-01-31,1,,,,,ミサカフドウサン,0
746,3360003013662,新規,0,2024-01-31,2024-01-31,合同会社ＴＩソリューション,,合同会社,沖縄県,宮古島市,伊良部字池間添４９１番地２,,47,214,9060502,,,,,,,2024-01-31,1,,,,,ティーアイソリューション,0
749,3370001050888,新規,0,2024-01-31,2024-01-31,仙台みらい不動産株式会社,,株式会社,宮城県,仙台市太白区,砂押町１７番３０号,,04,104,9820025,,,,,,,2024-01-31,1,,,,,センダイミライフドウサン,0
750,3370003006467,新規,0,2024-01-31,2024-01-31,Ｔ＆Ａ合同会社,,合同会社,宮城県,仙台市泉区,桂２丁目２７番地の１,,04,105,9813134,,,,,,,2024-01-31,1,,,,,ティーアンドエー,0
760,3390001017506,新規,0,2024-01-31,2024-01-31,株式会社ｔｅａｍ．ｒｏｂｏ,,株式会社,山形県,長井市,館町北６‐２７タスビル２階,,06,209,9930011,,,,,,,2024-01-31,1,,,,,チームロボ,0
761,3400001016539,新規,0,2024-01-31,2024-01-31,株式会社まーちゃんファーム,,株式会社,岩手県,陸前高田市,小友町字谷地館９７番地２,,03,210,0292207,,,,,,,2024-01-31,1,,,,,マーチャンファーム,0
767,3410003003880,新規,0,2024-01-31,2024-01-31,ＣＡＭＰＥＲＳ　ＣＯＲＮＥＲ　ＪＡＰＡＮ合同会社,,合同会社,秋田県,秋田市,雄和椿川字地張山６９番地,,05,201,0101211,,,,,,,2024-01-31,1,,,,,キャンパスコーナージャパン,0
769,3430001090969,新規,0,2024-01-31,2024-01-31,株式会社Ｏｆｆｉｃｅ　Ｄａｒｗｉｎ,,株式会社,北海道,札幌市中央区,北二条東３丁目２－２,,01,101,0600032,,,,,,,2024-01-31,1,,,,,オフィスダーウィン,0
770,3430001090977,新規,0,2024-01-31,2024-01-31,株式会社ｋｏｎｏｍｉ,,株式会社,北海道,札幌市北区,あいの里二条１丁目６番２１号,,01,102,0028072,,,,,,,2024-01-31,1,,,,,コノミ,0
772,3430005014882,新規,0,2024-01-31,2024-01-31,一般社団法人オーダーメイドケア協会,,その他の設立登記法人,北海道,札幌市東区,北二十六条東１７丁目２番２号,,01,103,0650026,,,,,,,2024-01-31,1,,,,,オーダーメイドケアキョウカイ,0
782,3500003003178,新規,0,2024-01-31,2024-01-31,ウエカジ合同会社,,合同会社,愛媛県,大洲市,菅田町菅田甲２７２１番地２,,38,207,7950081,,,,,,,2024-01-31,1,,,,,ウエカジ,0
784,3700150123675,新規,0,2024-01-31,2024-01-26,モダンハウス展準備委員会,,その他,東京都,墨田区,千歳２丁目６－９イマケンビル２０１創造系不動産（株）内,00133325,13,107,1300025,,,,,,,2024-01-26,1,,,,,モダンハウステンジユンビイインカイ,0
789,4010001241778,新規,0,2024-01-31,2024-01-31,次世代Ｐｒｉｎｃｅｓｓ株式会社,,株式会社,東京都,中央区,銀座１丁目１２番４号Ｎ＆ＥＢＬＤ．６Ｆ,,13,102,1040061,,,,,,,2024-01-31,1,,,,,ジセダイプリンセス,0
790,4010001241828,新規,0,2024-01-31,2024-01-31,株式会社ＳｍａｒｔＳｈｕｔｔｌｅ,,株式会社,東京都,中央区,日本橋富沢町９番４号,,13,102,1030006,,,,,,,2024-01-31,1,,,,,スマートシャトル,0
791,4010001241885,新規,0,2024-01-31,2024-01-31,株式会社ＫＳ,,株式会社,東京都,大島町,野増字ツワイ７９９－２,,13,361,1000104,,,,,,,2024-01-31,1,,,,,ケイエス,0
792,4010001241902,新規,0,2024-01-31,2024-01-31,株式会社Ｗｋｅｙ,,株式会社,東京都,千代田区,飯田橋１丁目６番８号,,13,101,1020072,,,,,,,2024-01-31,1,,,,,ダブリューキィ,0
793,4010001241910,新規,0,2024-01-31,2024-01-31,株式会社地場総合研究所,,株式会社,東京都,千代田区,神田須田町１丁目２０－１,,13,101,1010041,,,,,,,2024-01-31,1,,,,,ジバソウゴウケンキュウジョ,0
794,4010001241935,新規,0,2024-01-31,2024-01-31,サーベイケーキ株式会社,,株式会社,東京都,中央区,銀座６丁目６番１号,,13,102,1040061,,,,,,,2024-01-31,1,,,,,サーベイケーキ,0
801,4010005037818,新規,0,2024-01-31,2024-01-31,一般社団法人キキョウ,,その他の設立登記法人,東京都,千代田区,二番町３番地麹町スクエア株式会社シリウス・アドバイザリー内,,13,101,1020084,,,,,,,2024-01-31,1,,,,,キキョウ,0
814,4010503007330,新規,0,2024-01-31,2024-01-31,合同会社アクセル,,合同会社,東京都,台東区,上野６丁目８番１９号,,13,106,1100005,,,,,,,2024-01-31,1,,,,,アクセル,0
823,4010601064562,新規,0,2024-01-31,2024-01-31,株式会社丸智,,株式会社,東京都,江東区,猿江２丁目１６番２３－１２１９号,,13,108,1350003,,,,,,,2024-01-31,1,,,,,マルサト,0
839,4010901054643,新規,0,2024-01-31,2024-01-31,ＪＴコンサルティング株式会社,,株式会社,東京都,世田谷区,東玉川２丁目８番５号,,13,112,1580084,,,,,,,2024-01-31,1,,,,,ジェイティーコンサルティング,0
846,4011001159688,新規,0,2024-01-31,2024-01-31,株式会社ウィアラット,,株式会社,東京都,渋谷区,渋谷２丁目１９－１５宮益坂ビルディング６０９,,13,113,1500002,,,,,,,2024-01-31,1,,,,,ウィアラット,0
847,4011001159705,新規,0,2024-01-31,2024-01-31,株式会社Ｄ．Ｒ．Ｊ　ｅｎｔｅｒｔａｉｎｍｅｎｔ,,株式会社,東京都,渋谷区,桜丘町２９番地３１－４０４号,,13,113,1500031,,,,,,,2024-01-31,1,,,,,ディーアールジェイエンターテイメント,0
848,4011003018388,新規,0,2024-01-31,2024-01-31,合同会社Ｇｏｏｄ　Ｖｉｂｅｓ,,合同会社,東京都,渋谷区,道玄坂１丁目１０番８号渋谷道玄坂東急ビル２Ｆ－Ｃ,,13,113,1500043,,,,,,,2024-01-31,1,,,,,グッドバイブス,0
849,4011003018396,新規,0,2024-01-31,2024-01-31,合同会社３９ＷＯＲＫＳ,,合同会社,東京都,目黒区,緑が丘３丁目１１番１３号,,13,110,1520034,,,,,,,2024-01-31,1,,,,,,0
860,4011101105971,新規,0,2024-01-31,2024-01-31,株式会社ＴｗｏＲ,,株式会社,東京都,新宿区,四谷４丁目８番地９ライオンズ四谷タワーゲート２３０４,,13,104,1600004,,,,,,,2024-01-31,1,,,,,トゥーアール,0
861,4011101105996,新規,0,2024-01-31,2024-01-31,株式会社紗礼,,株式会社,東京都,新宿区,筑土八幡町５番８－１０６号,,13,104,1620815,,,,,,,2024-01-31,1,,,,,サレイ,0
862,4011101106020,新規,0,2024-01-31,2024-01-31,株式会社Ｏｆｆｉｃｅ　ＲＥＮ‐ＭＡ,,株式会社,東京都,新宿区,西新宿７丁目７番地３３号新銘ビル２階,,13,104,1600023,,,,,,,2024-01-31,1,,,,,オフィスレンマ,0
879,4011501030266,新規,0,2024-01-31,2024-01-31,永鴻株式会社,,株式会社,東京都,荒川区,南千住２丁目１６番９－３０４号,,13,118,1160003,,,,,,,2024-01-31,1,,,,,ヨンホン,0
885,4011701026972,新規,0,2024-01-31,2024-01-31,株式会社三友社,,株式会社,東京都,江戸川区,西小岩５丁目１２番１６号ＫＵＲＡＳＳＫＯＩＷＡ・２Ｅ,,13,123,1330057,,,,,,,2024-01-31,1,,,,,サンユウシャ,0
893,4013301051987,新規,0,2024-01-31,2024-01-31,株式会社ビジョイント,,株式会社,東京都,豊島区,要町３丁目２番１６号ヴィークコート千川５０４号,,13,116,1710043,,,,,,,2024-01-31,1,,,,,ビジョイント,0
897,4020001155589,新規,0,2024-01-31,2024-01-31,日本バイオテクノ株式会社,,株式会社,神奈川県,横浜市神奈川区,鶴屋町３丁目３２番１４号,,14,102,2210835,,,,,,,2024-01-31,1,,,,,ニホンバイオテクノ,0
898,4020003025419,新規,0,2024-01-31,2024-01-31,合同会社Ｅａｕ　Ｒｏｕｇｅ,,合同会社,神奈川県,横浜市神奈川区,片倉１丁目２７－２０カーサアッカＧ号室,,14,102,2210865,,,,,,,2024-01-31,1,,,,,オールージュ,0
901,4021001081346,新規,0,2024-01-31,2024-01-31,株式会社Ａｌｔｅｒａｔｉｏｎ,,株式会社,神奈川県,横須賀市,走水１丁目２番１２号,,14,201,2390811,,,,,,,2024-01-31,1,,,,,オルタレーション,0
903,4021003014097,新規,0,2024-01-31,2024-01-31,合同会社Ｏｋｉｍｉ商会,,合同会社,神奈川県,厚木市,妻田南２丁目４番３１号末廣荘２０２,,14,212,2430814,,,,,,,2024-01-31,1,,,,,オーキミショウカイ,0
919,4040003024253,新規,0,2024-01-31,2024-01-31,合同会社エスドット,,合同会社,千葉県,流山市,おおたかの森北１丁目１１番地の３ソライエ流山おおたかの森２２４,,12,220,2700119,,,,,,,2024-01-31,1,,,,,エスドット,0
920,4040003024261,新規,0,2024-01-31,2024-01-31,合同会社ＦＩＸＥＲ,,合同会社,千葉県,君津市,内蓑輪１１１番地１１,,12,225,2991176,,,,,,,2024-01-31,1,,,,,フィクサー,0
921,4040005022263,新規,0,2024-01-31,2024-01-31,農事組合法人よくら,,その他の設立登記法人,千葉県,香取市,与倉７８４番地７,,12,236,2870037,,,,,,,2024-01-31,1,,,,,ヨクラ,0
936,4080401026979,新規,0,2024-01-31,2024-01-31,株式会社立花自動車,,株式会社,静岡県,磐田市,一言２６２４番地１,,22,211,4380811,,,,,,,2024-01-31,1,,,,,タチバナジドウシャ,0
941,4100003007375,新規,0,2024-01-31,2024-01-31,ＡＲＡＩ合同会社,,合同会社,長野県,千曲市,大字千本柳２３１番地７,,20,218,3890803,,,,,,,2024-01-31,1,,,,,アライ,0
943,4110001038140,新規,0,2024-01-31,2024-01-31,株式会社コムヴィ,,株式会社,新潟県,長岡市,関原町５丁目１０２ベルファーム事務所,,15,202,9402035,,,,,,,2024-01-31,1,,,,,コムヴィ,0
953,4120001261682,新規,0,2024-01-31,2024-01-31,株式会社ｍｉｌｌｉｏｎｂａｍｂｏｏ,,株式会社,大阪府,大阪市西区,西本町１丁目１３番３９－１３０３号,,27,106,5500005,,,,,,,2024-01-31,1,,,,,ミリオンバンブー,0
954,4120001261848,新規,0,2024-01-31,2024-01-31,雲海国際株式会社,,株式会社,大阪府,大阪市住吉区,長居２丁目１０番３－１０８号,,27,120,5580003,,,,,,,2024-01-31,1,,,,,ウンカイコクサイ,0
955,4120001261864,新規,0,2024-01-31,2024-01-31,株式会社ＲＯＩ　ｓｙｎｅｒｇｙ,,株式会社,大阪府,大阪市中央区,本町４丁目６番５号,,27,128,5410053,,,,,,,2024-01-31,1,,,,,アールオーアイシナジー,0
960,4120003025796,新規,0,2024-01-31,2024-01-31,合同会社ＧＬＯＷ　ＵＰ,,合同会社,大阪府,大阪市淀川区,西中島３丁目１３番５号地下１階,,27,123,5320011,,,,,,,2024-01-31,1,,,,,グローアップ,0
965,4120905006563,新規,0,2024-01-31,2024-01-31,医療法人ＡＳ,,その他の設立登記法人,大阪府,茨木市,舟木町２番４号３階,,27,211,5670828,,,,,,,2024-01-31,1,,,,,エーエス,0
973,4140001133145,新規,0,2024-01-31,2024-01-31,株式会社ＹＤカンパニー,,株式会社,兵庫県,宝塚市,野上１丁目１番８号,,28,214,6650022,,,,,,,2024-01-31,1,,,,,ワイディーカンパニー,0
978,4140003020102,新規,0,2024-01-31,2024-01-31,合同会社天佑,,合同会社,兵庫県,伊丹市,昆陽南１丁目１０番６号,,28,207,6640888,,,,,,,2024-01-31,1,,,,,テンユウ,0
979,4140003020110,新規,0,2024-01-31,2024-01-31,合同会社フェリーチェ,,合同会社,兵庫県,神戸市兵庫区,三川口町１丁目１番２４号甲南ドエル兵庫３０８号,,28,105,6520815,,,,,,,2024-01-31,1,,,,,フェリーチェ,0
981,4140005026923,新規,0,2024-01-31,2024-01-31,一般社団法人虎ジュニアスポーツクラブ,,その他の設立登記法人,兵庫県,三田市,弥生が丘１丁目３－１－１－９０８,,28,219,6691546,,,,,,,2024-01-31,1,,,,,トラジュニアスポーツクラブ,0
987,4170001017989,新規,0,2024-01-31,2024-01-31,株式会社中家工業,,株式会社,和歌山県,御坊市,熊野５２８番地７,,30,205,6440033,,,,,,,2024-01-31,1,,,,,ナカイエコウギョウ,0
1001,4180001159970,新規,0,2024-01-31,2024-01-31,株式会社Ｙｃｒｅａ,,株式会社,愛知県,名古屋市天白区,池見２丁目１０９番地の２,,23,116,4680067,,,,,,,2024-01-31,1,,,,,ワイクレア,0
1009,4180303005988,新規,0,2024-01-31,2024-01-31,合同会社ＤＩＮＵＫＡ　ＥＮＴＥＲＰＲＩＳＥＳ,,合同会社,愛知県,碧南市,福清水町４丁目３０番地福清水町社宅１０７号室,,23,209,4470048,,,,,,,2024-01-31,1,,,,,ディヌーカエンタープライゼス,0
1012,4190001031071,新規,0,2024-01-31,2024-01-31,株式会社ＳＥＮ,,株式会社,三重県,津市,大谷町１０７－２４,,24,201,5140007,,,,,,,2024-01-31,1,,,,,セン,0
1031,4290001104544,新規,0,2024-01-31,2024-01-31,株式会社ＵＮＩＳＥＥＤ,,株式会社,福岡県,福岡市中央区,天神２丁目４番１９号第８ラインビル２Ｆ２号室,,40,133,8100001,,,,,,,2024-01-31,1,,,,,ユニシード,0
1032,4290001104560,新規,0,2024-01-31,2024-01-31,株式会社うた,,株式会社,福岡県,福岡市中央区,荒戸１丁目９番１６号,,40,133,8100062,,,,,,,2024-01-31,1,,,,,ウタ,0
1035,4290003014923,新規,0,2024-01-31,2024-01-31,合同会社ＴＫ,,合同会社,福岡県,大牟田市,新勝立町４丁目８７番地１８,,40,202,8360895,,,,,,,2024-01-31,1,,,,,ティーケー,0
1044,4350003004554,新規,0,2024-01-31,2024-01-31,合同会社Ａ．Ｍ．Ｈ,,合同会社,宮崎県,宮崎市,恒久４丁目１３番５,,45,201,8800913,,,,,,,2024-01-31,1,,,,,エーエムエイチ,0
1051,4370001050879,新規,0,2024-01-31,2024-01-31,株式会社東都会計事務所,,株式会社,宮城県,仙台市宮城野区,鶴ケ谷５丁目１４番地の２,,04,102,9830824,,,,,,,2024-01-31,1,,,,,トウトカイケイジムショ,0
1052,4370001050887,新規,0,2024-01-31,2024-01-31,株式会社遠田衛生,,株式会社,宮城県,遠田郡涌谷町,字今左エ門沖名１４６番地,,04,501,9870133,,,,,,,2024-01-31,1,,,,,トオダエイセイ,0
1055,4370003006466,新規,0,2024-01-31,2024-01-31,Ｒａｄｉ８合同会社,,合同会社,宮城県,仙台市泉区,八乙女中央１丁目６－１５八乙女スクエアビル２階,,04,105,9813135,,,,,,,2024-01-31,1,,,,,ラディエイト,0
1065,4400001016538,新規,0,2024-01-31,2024-01-31,ピクニック株式会社,,株式会社,岩手県,滝沢市,大釜風林４６０番地５２,,03,216,0200757,,,,,,,2024-01-31,1,,,,,ピクニック,0
1073,4430001090976,新規,0,2024-01-31,2024-01-31,株式会社ＦＵＳＨ,,株式会社,北海道,札幌市中央区,南七条西２５丁目３番８号,,01,101,0640807,,,,,,,2024-01-31,1,,,,,フーシュ,0
1074,4430003015907,新規,0,2024-01-31,2024-01-31,合同会社ＮＦＢＨ．,,合同会社,北海道,恵庭市,文京町４丁目３番３号,,01,231,0611425,,,,,,,2024-01-31,1,,,,,エヌエフビーエイチドット,0
1075,4440001009380,新規,0,2024-01-31,2024-01-31,株式会社ｉｌｌｕｒｙ,,株式会社,北海道,函館市,高松町５３３－２０,,01,202,0420952,,,,,,,2024-01-31,1,,,,,イラリー,0
1076,4450001014215,新規,0,2024-01-31,2024-01-31,株式会社ノースホーム,,株式会社,北海道,旭川市,豊岡六条７丁目２番２号,,01,204,0788236,,,,,,,2024-01-31,1,,,,,ノースホーム,0
1084,4700150123674,新規,0,2024-01-31,2024-01-26,東広島市ビジネスサポート協議会,,その他,広島県,東広島市,西条栄町８番２９号,,34,212,7390015,,,,,,,2024-01-26,1,,,,,ヒガシヒロシマシビジネスサポートキヨウギカイ,0
1088,5010001241843,新規,0,2024-01-31,2024-01-31,株式会社Ｔ＆Ｔ　Ｆｏｏｄ　Ｃｏｎｎｅｃｔ,,株式会社,東京都,中央区,東日本橋２丁目１２番８号４階,,13,102,1030004,,,,,,,2024-01-31,1,,,,,ティーアンドティーフードコネクト,0
1089,5010001241901,新規,0,2024-01-31,2024-01-31,株式会社ＥＸＥＲＴＩＯＮ,,株式会社,東京都,中央区,銀座１丁目１２－４Ｎ＆ＥＢＬＤ．７階,,13,102,1040061,,,,,,,2024-01-31,1,,,,,イグザーション,0
1090,5010001241983,新規,0,2024-01-31,2024-01-31,ＳＡＬＯＮＳ株式会社,,株式会社,東京都,中央区,銀座１丁目２２番１１号銀座大竹ビジデンス２Ｆ,,13,102,1040061,,,,,,,2024-01-31,1,,,,,サロンズ,0
1091,5010003042777,新規,0,2024-01-31,2024-01-31,ＬＡＶＯ　Ｈｙｄｒｏｇｅｎ　Ｓｔｏｒａｇｅ　Ｔｅｃｈｎｏｌｏｇｙ合同会社,,合同会社,東京都,千代田区,有楽町１丁目５番２号,,13,101,1000006,,,,,,,2024-01-31,1,,,,,ラボハイドロゲンストレージテクノロジー,0
1092,5010003042810,新規,0,2024-01-31,2024-01-31,合同会社ヒラフ開発,,合同会社,東京都,千代田区,霞が関３丁目２番５号,,13,101,1000013,,,,,,,2024-01-31,1,,,,,ヒラフカイハツ,0
1093,5010003042819,新規,0,2024-01-31,2024-01-31,高城会計事務所合同会社,00133566,合同会社,東京都,中央区,銀座１丁目１２－４Ｎ＆ＥＢＬＤ．７階,,13,102,1040061,,,,,,,2024-01-31,1,,,,,タカギカイケイジムショ,0
1094,5010005037817,新規,0,2024-01-31,2024-01-31,一般社団法人アジサイ,,その他の設立登記法人,東京都,千代田区,二番町３番地麹町スクエア株式会社シリウス・アドバイザリー内,,13,101,1020084,,,,,,,2024-01-31,1,,,,,アジサイ,0
1102,5010401179691,新規,0,2024-01-31,2024-01-31,ＡＩＧＯ株式会社,,株式会社,東京都,港区,新橋２丁目２０－１５新橋駅前ビル１号館５０９－１,,13,103,1050004,,,,,,,2024-01-31,1,,,,,エーアイゴー,0
1103,5010401180006,新規,0,2024-01-31,2024-01-31,Ｖｅｓｉｎｏｖ株式会社,,株式会社,東京都,港区,南青山１丁目２０番１号乃木坂ビジネスコート２０８Ａ,,13,103,1070062,,,,,,,2024-01-31,1,,,,,ベシノフ,0
1110,5010405022897,新規,0,2024-01-31,2024-01-31,一般社団法人キッズインシネマ,,その他の設立登記法人,東京都,港区,白金台５丁目２２番１１号ソフトタウン白金３１２,,13,103,1080071,,,,,,,2024-01-31,1,,,,,キッズインシネマ,0
1124,5010803004828,新規,0,2024-01-31,2024-01-31,合同会社内田事務所,,合同会社,東京都,大田区,南馬込６丁目２６番１号,,13,111,1430025,,,,,,,2024-01-31,1,,,,,ウチダジムショ,0
1127,5010901054634,新規,0,2024-01-31,2024-01-31,ＬＩＶＥ　ＡＬＯＨＡ株式会社,,株式会社,東京都,世田谷区,若林５丁目３３番１０,,13,112,1540023,,,,,,,2024-01-31,1,,,,,リブアロハ,0
1131,5011001159670,新規,0,2024-01-31,2024-01-31,株式会社ＰＬＯＷ,,株式会社,東京都,目黒区,中目黒５丁目２７－１８－４１０,,13,110,1530061,,,,,,,2024-01-31,1,,,,,プラウ,0
1132,5011001159712,新規,0,2024-01-31,2024-01-31,株式会社ＷｏｆＵｓ,,株式会社,東京都,渋谷区,上原３丁目３７番２－１０２号,,13,113,1510064,,,,,,,2024-01-31,1,,,,,ウーフス,0
1134,5011003018387,新規,0,2024-01-31,2024-01-31,ＧＲＯＵＮＤＢＲＥＡＫＥＲＳ合同会社,,合同会社,東京都,目黒区,目黒４丁目１４番３６号,,13,110,1530063,,,,,,,2024-01-31,1,,,,,グラウンドブレイカーズ,0
1145,5011103014047,新規,0,2024-01-31,2024-01-31,合同会社ＴｏＹ,,合同会社,東京都,新宿区,新宿５丁目１８番２０号,,13,104,1600022,,,,,,,2024-01-31,1,,,,,トイ,0
1156,5011401025828,新規,0,2024-01-31,2024-01-31,株式会社ＭＥＪＯＲＡ,,株式会社,東京都,板橋区,舟渡１丁目８番２,,13,119,1740041,,,,,,,2024-01-31,1,,,,,メホラ,0
1158,5011501030257,新規,0,2024-01-31,2024-01-31,株式会社翔宇,,株式会社,東京都,荒川区,町屋３丁目２番１号地下１階Ｂ１０５号室,,13,118,1160001,,,,,,,2024-01-31,1,,,,,ショウウ,0
1159,5011501030265,新規,0,2024-01-31,2024-01-31,森瑞株式会社,,株式会社,東京都,荒川区,荒川３丁目３２－９－３Ａ,,13,118,1160002,,,,,,,2024-01-31,1,,,,,モリミズ,0
1161,5011503005926,新規,0,2024-01-31,2024-01-31,合同会社ＳＰ　ＴＲＡＶＥＬ,,合同会社,東京都,北区,赤羽１丁目５９－９ネスト赤羽Ｅ－６,,13,117,1150045,,,,,,,2024-01-31,1,,,,,エスピトラベル,0
1163,5011801043702,新規,0,2024-01-31,2024-01-31,株式会社ロボットスポーツリーグ,,株式会社,東京都,足立区,千住旭町３８番１号４２３号室,,13,121,1200026,,,,,,,2024-01-31,1,,,,,ロボットスポーツリーグ,0
1168,5013301051986,新規,0,2024-01-31,2024-01-31,株式会社木下商事,,株式会社,東京都,豊島区,千早４丁目４４番８－２０１号,,13,116,1710044,,,,,,,2024-01-31,1,,,,,キノシタショウジ,0
1175,5020001155555,新規,0,2024-01-31,2024-01-31,株式会社ＫＥＮＺＯ,,株式会社,神奈川県,横浜市中区,曙町１丁目９番地セザール横浜関内１１０２号,00133568,14,104,2310057,,,,,,,2024-01-31,1,,,,,ケンゾー,0
1193,5030002000214,新規,0,2024-01-31,2024-01-31,有限会社秋元ホーム,,有限会社,埼玉県,さいたま市南区,内谷２丁目２番９号,,11,108,3360034,,,,,,,2024-01-31,1,,,,,アキモトホーム,0
1203,5040005022262,新規,0,2024-01-31,2024-01-31,一般社団法人コパン,,その他の設立登記法人,千葉県,八千代市,大和田新田４１１番地３６,,12,221,2760046,,,,,,,2024-01-31,1,,,,,コパン,0
1205,5050001054192,新規,0,2024-01-31,2024-01-31,ディスカバリートレーディング株式会社,,株式会社,茨城県,那珂市,戸２７０６,,08,226,3110122,,,,,,,2024-01-31,1,,,,,ディスカバリートレーディング,0
1206,5050003008106,新規,0,2024-01-31,2024-01-31,ＴＩＮＵＫＡ　ＴＲＡＤＥＲＳ合同会社,,合同会社,茨城県,鉾田市,阿玉９６６番地４５,,08,234,3112118,,,,,,,2024-01-31,1,,,,,チヌカトレーダース,0
1207,5050005013384,新規,0,2024-01-31,2024-01-31,一般社団法人Ｌ’ｅｍｐｒｅｉｎｔｅ,,その他の設立登記法人,茨城県,石岡市,国府２丁目４番３号,,08,205,3150014,,,,,,,2024-01-31,1,,,,,ランプランツ,0
1208,5060001036776,新規,0,2024-01-31,2024-01-31,Ｎｏｏｒ　Ｂｕｉｌｄｅｒ株式会社,,株式会社,栃木県,栃木市,大平町北武井１１０９番地１,,09,203,3294412,,,,,,,2024-01-31,1,,,,,ヌールビルダー,0
1210,5060003004888,新規,0,2024-01-31,2024-01-31,大久保建築事務所合同会社,,合同会社,栃木県,那須塩原市,石林８１８－１９,,09,213,3292711,,,,,,,2024-01-31,1,,,,,オオクボケンチクジムショ,0
1213,5070005010223,新規,0,2024-01-31,2024-01-31,一般財団法人新井栄一児童養護自立支援基金,,その他の設立登記法人,群馬県,高崎市,小八木町１５３８番地,,10,202,3700071,,,,,,,2024-01-31,1,,,,,アライエイイチジドウヨウゴジリツシエンキキン,0
1235,5120001261756,新規,0,2024-01-31,2024-01-31,株式会社伴走舎,,株式会社,大阪府,枚方市,東香里３丁目３９番３０号,,27,210,5730075,,,,,,,2024-01-31,1,,,,,バンソウシャ,0
1236,5120001261789,新規,0,2024-01-31,2024-01-31,吉越株式会社,,株式会社,大阪府,大阪市東住吉区,湯里５丁目８－９,,27,121,5460013,,,,,,,2024-01-31,1,,,,,ヨシゴエ,0
1237,5120001261814,新規,0,2024-01-31,2024-01-31,株式会社Ｇｌａｎｓｙ,,株式会社,大阪府,大阪市北区,梅田１丁目１番３号大阪駅前第３ビル２９階１－１－１号室,,27,127,5300001,,,,,,,2024-01-31,1,,,,,グランシー,0
1238,5120001261863,新規,0,2024-01-31,2024-01-31,Ｈ＆Ｃ国際株式会社,,株式会社,大阪府,大阪市淀川区,西宮原３丁目２番１－６１９号新大阪ビジネス第２ニッケンマンション,,27,123,5320004,,,,,,,2024-01-31,1,,,,,エイチアンドシーコクサイ,0
1240,5120003025812,新規,0,2024-01-31,2024-01-31,アリゲータ合同会社,,合同会社,大阪府,大阪市北区,中津１丁目１５番地３７号キタの北ナガヤ１０２,,27,127,5310071,,,,,,,2024-01-31,1,,,,,アリゲータ,0
1245,5120905006562,新規,0,2024-01-31,2024-01-31,特定非営利活動法人ＨＡＬＥ　ＯＮＯ子ども支援プロジェクト,,その他の設立登記法人,大阪府,豊中市,若竹町１丁目１９番２号,,27,203,5610811,,,,,,,2024-01-31,1,,,,,ハレオノコドモシエンプロジェクト,0
1253,5140001133103,新規,0,2024-01-31,2024-01-31,サクティラー株式会社,,株式会社,兵庫県,西宮市,苦楽園一番町８番２５号,,28,204,6620083,,,,,,,2024-01-31,1,,,,,サクティラー,0
1254,5140001133128,新規,0,2024-01-31,2024-01-31,株式会社はる不動産,,株式会社,兵庫県,伊丹市,南町４丁目５番１８号Ｎ’Ｓフラット１階,,28,207,6640854,,,,,,,2024-01-31,1,,,,,ハルフドウサン,0
1259,5140005026930,新規,0,2024-01-31,2024-01-31,一般社団法人１ＰＯＭＥ,,その他の設立登記法人,兵庫県,西宮市,石在町１５－１８、９０７号,,28,204,6620928,,,,,,,2024-01-31,1,,,,,イッポメ,0
1266,5180001159978,新規,0,2024-01-31,2024-01-31,株式会社Ｒｅ‐Ｑｕｅｓｔ,,株式会社,愛知県,半田市,八軒町８８番地の１,,23,205,4750807,,,,,,,2024-01-31,1,,,,,アールイークエスト,0
1267,5180001159986,新規,0,2024-01-31,2024-01-31,株式会社幸進,,株式会社,愛知県,名古屋市緑区,神の倉４丁目３１９番地,,23,114,4580812,,,,,,,2024-01-31,1,,,,,コウシン,0
1275,5180301038279,新規,0,2024-01-31,2024-01-31,ＱＴ株式会社,,株式会社,愛知県,みよし市,明知町小石山１２番地２,,23,236,4700214,,,,,,,2024-01-31,1,,,,,キューティー,0
1280,5180303005987,新規,0,2024-01-31,2024-01-31,合同会社Ｍｉｒａｉｓｔａｒ,,合同会社,愛知県,豊田市,御作町日影山１０３７番地６８,,23,211,4700424,,,,,,,2024-01-31,1,,,,,ミライスター,0
1288,5230001020201,新規,0,2024-01-31,2024-01-31,株式会社Ｙｏｕ＆ｍｏｒｅ,,株式会社,富山県,富山市,根塚町４丁目２番地１３,00133579,16,201,9398204,,,,,,,2024-01-31,1,,,,,ユーモア,0
1301,5290001104386,新規,0,2024-01-31,2024-01-31,株式会社ＪＳＤ　Ａｓｓｅｔ　Ｍａｎａｇｅｍｅｎｔ,,株式会社,福岡県,福岡市早良区,百道浜１丁目２番６－２３０６号百道タワー,,40,137,8140001,,,,,,,2024-01-31,1,,,,,ジェイエスディーアセットマネジメント,0
1305,5290003014922,新規,0,2024-01-31,2024-01-31,ＧｌａｍＥｄｇｅ合同会社,,合同会社,福岡県,福岡市中央区,天神２丁目２－１２Ｔ＆Ｊビルディング７Ｆ,,40,133,8100001,,,,,,,2024-01-31,1,,,,,グラムエッジ,0
1310,5300001013602,新規,0,2024-01-31,2024-01-31,株式会社トータルエースプロ,,株式会社,佐賀県,神埼郡吉野ヶ里町,田手１８１７番地７,,41,327,8420035,,,,,,,2024-01-31,1,,,,,トータルエースプロ,0
1311,5310001018831,新規,0,2024-01-31,2024-01-31,株式会社エンパワープラス,,株式会社,長崎県,長崎市,万才町６番３８－４０３号,,42,201,8500033,,,,,,,2024-01-31,1,,,,,エンパワープラス,0
1321,5360001033140,新規,0,2024-01-31,2024-01-31,株式会社華風,,株式会社,沖縄県,那覇市,牧志２丁目１６－１９－１０１,,47,201,9000013,,,,,,,2024-01-31,1,,,,,カフー,0
1327,5380001034269,新規,0,2024-01-31,2024-01-31,株式会社大英設備,,株式会社,福島県,南相馬市,原町区大木戸字南東方１０３番地の３４,,07,212,9750061,,,,,,,2024-01-31,1,,,,,ダイエイセツビ,0
1336,5400001016537,新規,0,2024-01-31,2024-01-31,みちのく産業株式会社,,株式会社,岩手県,気仙郡住田町,世田米字川口１２番地４,,03,441,0292311,,,,,,,2024-01-31,1,,,,,ミチノクサンギョウ,0
1341,5430001090975,新規,0,2024-01-31,2024-01-31,空庭造園株式会社,,株式会社,北海道,岩見沢市,大和三条４丁目１番地１４,,01,210,0680853,,,,,,,2024-01-31,1,,,,,ソラニワゾウエン,0
1342,5430005014880,新規,0,2024-01-31,2024-01-31,一般社団法人千晴会,,その他の設立登記法人,北海道,室蘭市,中央町３丁目５番１３号ＳＫ室蘭中央ビル５Ｆ,,01,205,0510011,,,,,,,2024-01-31,1,,,,,チセイカイ,0
1352,5700150123715,新規,0,2024-01-31,2024-01-31,新義成実宗　福幸山　救国寺,,その他,東京都,千代田区,富士見１丁目５－３－２０７,,13,101,1020071,,,,,,,2024-01-31,1,,,,,シンギジョウジツシュウフッコウサンキュウコクジ,0
1358,6010001241875,新規,0,2024-01-31,2024-01-31,ＡＳＷＡＯＮ株式会社,,株式会社,東京都,文京区,本郷２丁目２５番１４号,,13,105,1130033,,,,,,,2024-01-31,1,,,,,アズワオン,0
1359,6010001241883,新規,0,2024-01-31,2024-01-31,Ｖｔａｓ　Ｔｅｃｈ株式会社,,株式会社,東京都,中央区,日本橋蛎殻町１丁目８番２－７０４号,,13,102,1030014,,,,,,,2024-01-31,1,,,,,ウィタステック,0
1360,6010001241909,新規,0,2024-01-31,2024-01-31,ＭＴＩ　Ｈｏｌｄｉｎｇ株式会社,,株式会社,東京都,千代田区,大手町１丁目４番２号,,13,101,1000004,,,,,,,2024-01-31,1,,,,,エムティーアイホールディング,0
1361,6010003042743,新規,0,2024-01-31,2024-01-31,合同会社ＵＲＯ,,合同会社,東京都,文京区,本郷２丁目２２番５－６０１号,,13,105,1130033,,,,,,,2024-01-31,1,,,,,ウロ,0
1362,6010003042818,新規,0,2024-01-31,2024-01-31,天満橋１丁目合同会社,,合同会社,東京都,中央区,八丁堀４丁目２番１０号ＡＯＪ税理士法人内,,13,102,1040032,,,,,,,2024-01-31,1,,,,,テンマバシイッチョウメ,0
1370,6010401180054,新規,0,2024-01-31,2024-01-31,ＵＬＭホールディングス株式会社,,株式会社,東京都,港区,南麻布４丁目１１番２号ホーマットバージニア４０５号,,13,103,1060047,,,,,,,2024-01-31,1,,,,,ユーエルエムホールディングス,0
1373,6010405022896,新規,0,2024-01-31,2024-01-31,一般社団法人日介連お一人さま委員会,,その他の設立登記法人,東京都,港区,赤坂３丁目５番５号ストロング赤坂ビル６Ｆ,,13,103,1070052,,,,,,,2024-01-31,1,,,,,ニッカイレンオヒトリサマイインカイ,0
1374,6010501051700,新規,0,2024-01-31,2024-01-31,株式会社Ｍａｒｕ　Ｃｒｅａｔｉｖｅ　Ｇｒｏｕｐ,,株式会社,東京都,台東区,上野６丁目１番６号御徒町グリーンハイツ１００５号,,13,106,1100005,,,,,,,2024-01-31,1,,,,,マルクリエイティブグループ,0
1381,6010601064577,新規,0,2024-01-31,2024-01-31,東京盛思株式会社,,株式会社,東京都,墨田区,横川３丁目６番７号１階Ｂ室,,13,107,1300003,,,,,,,2024-01-31,1,,,,,トウキョウセイシ,0
1389,6010703007038,新規,0,2024-01-31,2024-01-31,合同会社ＢｒａｉｎＡｐｐ,,合同会社,東京都,品川区,東五反田１丁目２４番１０－９０１号,,13,109,1410022,,,,,,,2024-01-31,1,,,,,ブレインアップ,0
1390,6010803004835,新規,0,2024-01-31,2024-01-31,合同会社オン・サイド,,合同会社,東京都,大田区,上池台３丁目１８番８－３０２号,,13,111,1450064,,,,,,,2024-01-31,1,,,,,オンサイド,0
1392,6010901054625,新規,0,2024-01-31,2024-01-31,ニルファール株式会社,,株式会社,東京都,世田谷区,松原６丁目３１番７号,,13,112,1560043,,,,,,,2024-01-31,1,,,,,ニルファール,0
1393,6010903008760,新規,0,2024-01-31,2024-01-31,合同会社ｆｏｇｐａｃｅ,,合同会社,東京都,世田谷区,中町１丁目１７－１４－２０５,,13,112,1580091,,,,,,,2024-01-31,1,,,,,フォグペース,0
1402,6011001159736,新規,0,2024-01-31,2024-01-31,株式会社ＣＲＯＣＫＥＴＴ,,株式会社,東京都,目黒区,上目黒５丁目２８番１１－４０２号,,13,110,1530051,,,,,,,2024-01-31,1,,,,,クロケット,0
1403,6011003018394,新規,0,2024-01-31,2024-01-31,ＢｏＢｏ合同会社,,合同会社,東京都,渋谷区,道玄坂２丁目１８－１１サンモール道玄坂２０６号,,13,113,1500043,,,,,,,2024-01-31,1,,,,,ボボ,0
1404,6011003018411,新規,0,2024-01-31,2024-01-31,合同会社Ｍ‐ＤＡＳＨ,,合同会社,東京都,渋谷区,本町３丁目４３番３号,,13,113,1510071,,,,,,,2024-01-31,1,,,,,エムダッシュ,0
1409,6011101105912,新規,0,2024-01-31,2024-01-31,株式会社ヨーロッパ医科大学事務局,,株式会社,東京都,新宿区,西新宿６丁目５番１号新宿アイランドタワー７階,,13,104,1600023,,,,,,,2024-01-31,1,,,,,ヨーロッパイカダイガクジムキョク,0
1412,6011203004293,新規,0,2024-01-31,2024-01-31,合同会社ＩＧＰ,,合同会社,東京都,中野区,中央４丁目２１番１６号,,13,114,1640011,,,,,,,2024-01-31,1,,,,,アイジーピー,0
1419,6011501030231,新規,0,2024-01-31,2024-01-31,株式会社高野電気,00133572,株式会社,東京都,北区,浮間３丁目３３番２３－１０１号,,13,117,1150051,,,,,,,2024-01-31,1,,,,,タカノデンキ,0
1420,6011501030264,新規,0,2024-01-31,2024-01-31,九河株式会社,,株式会社,東京都,荒川区,町屋３丁目２番１号Ｂ１Ｆ,,13,118,1160001,,,,,,,2024-01-31,1,,,,,クガワ,0
1428,6012401041434,新規,0,2024-01-31,2024-01-31,株式会社Ａｌｐｈａｔｉｑｕｅ,,株式会社,東京都,三鷹市,上連雀１丁目１２‐１７三鷹ビジネスパーク１号館Ｂ１ＦＭｕｓａｓｈｉｎｏＶａｌｌｅｙ,,13,204,1810012,,,,,,,2024-01-31,1,,,,,アルファティーク,0
1442,6020001155579,新規,0,2024-01-31,2024-01-31,富氏商事株式会社,,株式会社,神奈川県,横浜市磯子区,丸山２丁目２１番３号,,14,107,2350011,,,,,,,2024-01-31,1,,,,,トミシショウジ,0
1443,6020001155595,新規,0,2024-01-31,2024-01-31,株式会社スモールライフ,,株式会社,神奈川県,川崎市高津区,新作２丁目１５番１７号,,14,134,2130014,,,,,,,2024-01-31,1,,,,,スモールライフ,0
1467,6040001131982,新規,0,2024-01-31,2024-01-31,株式会社ＵＳ　ｓｔｅｌｌａ,,株式会社,千葉県,木更津市,請西東３丁目１７番地５,,12,206,2920806,,,,,,,2024-01-31,1,,,,,ユーエスステラ,0
1474,6040003024227,新規,0,2024-01-31,2024-01-31,ＰＬＡＳＭＡ合同会社,,合同会社,千葉県,木更津市,江川１３３６番地５,,12,206,2920063,,,,,,,2024-01-31,1,,,,,プラズマ,0
1480,6050005013383,新規,0,2024-01-31,2024-01-31,一般社団法人ワンダフルパートナー,,その他の設立登記法人,茨城県,水戸市,大塚町１８０３番地の３,,08,201,3114143,,,,,,,2024-01-31,1,,,,,ワンダフルパートナー,0
1483,6070001041337,新規,0,2024-01-31,2024-01-31,株式会社サプリ販売,,株式会社,群馬県,高崎市,寺尾町１２８５番地２,,10,202,3700865,,,,,,,2024-01-31,1,,,,,サプリハンバイ,0
1486,6070003005257,新規,0,2024-01-31,2024-01-31,合同会社ＡＲＲＯＷ　ＩＮＴＥＲＮＡＴＩＯＮＡＬ,,合同会社,群馬県,桐生市,境野町１丁目１１３０番地の１,,10,203,3760002,,,,,,,2024-01-31,1,,,,,アローインターナショナル,0
1495,6080401026977,新規,0,2024-01-31,2024-01-31,住まいｃｏｎｎｅｃｔ株式会社,,株式会社,静岡県,浜松市中央区,三方原町１２６５番地の１,,22,138,4338105,,,,,,,2024-01-31,1,,,,,スマイコネクト,0
1500,6100001037174,新規,0,2024-01-31,2024-01-31,株式会社森山農園,,株式会社,長野県,諏訪郡原村,１６１６３番地,,20,363,3910100,,,,,,,2024-01-31,1,,,,,モリヤマノウエン,0
1503,6110003005277,新規,0,2024-01-31,2024-01-31,あおい訪問介護事業所合同会社,,合同会社,新潟県,上越市,春日山町２丁目１番３３号サニービレッジ１－Ａ,,15,222,9430807,,,,,,,2024-01-31,1,,,,,アオイホウモンカイゴジギョウショ,0
1511,6120001261557,新規,0,2024-01-31,2024-01-31,株式会社Ｍｋｉｔ,,株式会社,大阪府,大阪市中央区,内平野町２丁目３番８号ＡＲＴＦＯＲＭ天満橋４０３号,,27,128,5400037,,,,,,,2024-01-31,1,,,,,エムキット,0
1512,6120001261755,新規,0,2024-01-31,2024-01-31,株式会社クリスタル,,株式会社,大阪府,大阪市平野区,長吉長原１丁目１番５３号ツインビル森本２番館３Ｆ,,27,126,5470016,,,,,,,2024-01-31,1,,,,,クリスタル,0
1513,6120001261788,新規,0,2024-01-31,2024-01-31,青山和苑株式会社,,株式会社,大阪府,大阪市天王寺区,空清町４－１１杉野ビル本館１０８号室,,27,109,5430018,,,,,,,2024-01-31,1,,,,,アオヤマワエン,0
1514,6120001261821,新規,0,2024-01-31,2024-01-31,ＨＴ株式会社,,株式会社,大阪府,大阪市生野区,巽北１丁目２１番２９号７１０室,,27,116,5440004,,,,,,,2024-01-31,1,,,,,エイチティー,0
1515,6120001261854,新規,0,2024-01-31,2024-01-31,日本祁飛株式会社,,株式会社,大阪府,大阪市都島区,中野町４丁目３番６号Ｈ２Ｈ大阪桜之宮邸２Ｃ－３,,27,102,5340027,,,,,,,2024-01-31,1,,,,,ニホンキヒ,0
1526,6140001133127,新規,0,2024-01-31,2024-01-31,株式会社ＰＦＯ,,株式会社,兵庫県,伊丹市,北伊丹３丁目１１１番地,,28,207,6640831,,,,,,,2024-01-31,1,,,,,ピーエフオー,0
1528,6150001027047,新規,0,2024-01-31,2024-01-31,アッタナーセイ株式会社,,株式会社,奈良県,奈良市,西大寺東町２丁目１番３１号サンワ西大寺東町ビル３０１号室,,29,201,6310821,,,,,,,2024-01-31,1,,,,,アッタナーセイ,0
1533,6180001014942,新規,0,2024-01-31,2024-01-31,柘植物産株式会社,,株式会社,愛知県,名古屋市南区,鳥栖１丁目１５番１８号,,23,112,4570006,,,,,,,2024-01-31,1,,,,,ツゲブッサン,0
1540,6180001159928,新規,0,2024-01-31,2024-01-31,ちさ社長株式会社,,株式会社,愛知県,丹羽郡大口町,伝右２丁目２８１番地,,23,361,4800126,,,,,,,2024-01-31,1,,,,,チサシャチョウ,0
1541,6180001159960,新規,0,2024-01-31,2024-01-31,株式会社ＪＯＡＨ．,,株式会社,愛知県,名古屋市千種区,小松町７丁目８番地グランドメゾン吹上７０２号,,23,101,4640853,,,,,,,2024-01-31,1,,,,,ジョアドット,0
1542,6180001159985,新規,0,2024-01-31,2024-01-31,株式会社米亜,,株式会社,愛知県,名古屋市中川区,野田３丁目６０番地の４,,23,110,4540912,,,,,,,2024-01-31,1,,,,,ミア,0
1543,6180001159993,新規,0,2024-01-31,2024-01-31,株式会社享工業,,株式会社,愛知県,一宮市,瀬部字久込９番地１,,23,203,4910001,,,,,,,2024-01-31,1,,,,,アキラコウギョウ,0
1548,6180301038278,新規,0,2024-01-31,2024-01-31,株式会社高橋商会,,株式会社,愛知県,西尾市,鳥羽町八反田５２番地,,23,213,4440704,,,,,,,2024-01-31,1,,,,,タカハシショウカイ,0
1549,6180301038286,新規,0,2024-01-31,2024-01-31,株式会社ワールドコインパートナー,,株式会社,愛知県,刈谷市,高須町２丁目１０番地１１アンプルールフェールフォレ２０３号,,23,210,4480812,,,,,,,2024-01-31,1,,,,,ワールドコインパートナー,0
1558,6240001062737,新規,0,2024-01-31,2024-01-31,株式会社ＣＲＥＡＴＥ　ＣＯＮＮＥＣＴ,,株式会社,広島県,広島市中区,舟入本町１番１－３０６号,,34,101,7300843,,,,,,,2024-01-31,1,,,,,クリエイトコネクト,0
1570,6290001104501,新規,0,2024-01-31,2024-01-31,株式会社ＩＮＲＥＶＯ,,株式会社,福岡県,福岡市博多区,中洲４丁目５番６号ゾンク中洲であい橋８Ｆ,,40,132,8100801,,,,,,,2024-01-31,1,,,,,インレボ,0
1579,6320001020265,新規,0,2024-01-31,2024-01-31,株式会社円円,,株式会社,大分県,大分市,舞鶴町３丁目２番１号,,44,201,8700044,,,,,,,2024-01-31,1,,,,,エンエン,0
1586,6360001033131,新規,0,2024-01-31,2024-01-31,株式会社やまもとプロダクション,,株式会社,沖縄県,中頭郡北中城村,字熱田５５１番地Ｔ－１２２,,47,327,9012313,,,,,,,2024-01-31,1,,,,,ヤマモトプロダクション,0
1602,6420003002870,新規,0,2024-01-31,2024-01-31,合同会社エアフォルク,,合同会社,青森県,弘前市,大字城東中央２丁目４番地２ブルーグラス・フォート２０６号,,02,202,0368093,,,,,,,2024-01-31,1,,,,,エアフォルク,0
1604,6430001090974,新規,0,2024-01-31,2024-01-31,株式会社Ｏｒｃｈｉｄ　Ｇｒｏｕｐ,,株式会社,北海道,虻田郡ニセコ町,字東山４６番地１６－２,,01,395,0481521,,,,,,,2024-01-31,1,,,,,オーキッドグループ,0
1615,6700150123706,新規,0,2024-01-31,2024-01-31,Ｌｉｆｅ　Ｓｔｙｌｅ　Ｍｕｌｔｉｐｕｒｐｏｓｅ　Ｃｏｍｐａｎｙ　Ｐｖｔ．Ｌｔｄ．,,外国会社等,東京都,新宿区,新宿７丁目１３番１６号Ｈａｓｅｇａｗａ新宿Ｂｏｘ１０１,,13,104,1600022,ネパール国、ガンダキィ州、カスキィ郡、ポカラレクナツ大都市１４区,,,,,,2024-01-31,1,,,,,ライフスタイルマルチパーパスカンパニープライベートリミテツド,0
1616,6700150123714,新規,0,2024-01-31,2024-01-31,ｄｏｎｇ　ｇｕａｎ　ｓｈｉ　ｊｉｅ　ｐｅｎｇ　ｋｅ　ｊｉ　ｙｏｕ　ｘｉａｎ　ｇｏｎｇ　ｓｉ,,外国会社等,,,,,,,,Ｒｏｏｍ　４０１，Ｂｕｉｌｄｉｎｇ　５，Ｎｏ．８０，Ｘｉａｎｇｆｅｎｇ　Ｓｔｒｅｅｔ，Ｄａｌｉｎｇｓｈａｎ　Ｔｏｗｎ，Ｄｏｎｇｇｕａｎ　Ｃｉｔｙ，Ｇｕａｎｇｄｏｎｇ　Ｐｒｏｖｉｎｃｅ,,,,,,2024-01-31,1,,,,,ドングワンシージエポンコージーヨウシエンゴンスー,0
1621,7010001241718,新規,0,2024-01-31,2024-01-31,ＰＯＷＥＲ　ＯＮ株式会社,,株式会社,東京都,中央区,日本橋１丁目２－１０東洋ビル３０３,,13,102,1030027,,,,,,,2024-01-31,1,,,,,パワーオン,0
1622,7010001241800,新規,0,2024-01-31,2024-01-31,株式会社ＧｌｙＦｅｌｄ,,株式会社,東京都,中央区,銀座１丁目１２番４号Ｎ＆ＥＢＬＤ．６階,,13,102,1040061,,,,,,,2024-01-31,1,,,,,グリフェルト,0
1623,7010001241899,新規,0,2024-01-31,2024-01-31,株式会社優Ｔｉｍｅ,,株式会社,東京都,千代田区,神田佐久間町３丁目２８Ｅ＆Ｔビル３Ｆ,,13,101,1010025,,,,,,,2024-01-31,1,,,,,ユータイム,0
1624,7010001241908,新規,0,2024-01-31,2024-01-31,Ｂｒｉｇｈｔ　Ｔｏｗｎ　Ｉｎｔｅｒｎａｔｉｏｎａｌ　Ｇｒｏｕｐ　Ｊａｐａｎ株式会社,,株式会社,東京都,千代田区,神田佐久間町３丁目２８星野ビル５１２,,13,101,1010025,,,,,,,2024-01-31,1,,,,,ブライトタウンインターナショナルグループジャパン,0
1628,7010003042684,新規,0,2024-01-31,2024-01-31,合同会社輝,,合同会社,東京都,中央区,銀座１丁目１５番７号ＭＡＣ銀座ビル３階,,13,102,1040061,,,,,,,2024-01-31,1,,,,,カガヤキ,0
1629,7010003042791,新規,0,2024-01-31,2024-01-31,合同会社ｐｅｐｉ,,合同会社,東京都,文京区,大塚２丁目６番５号コスモプラザ１０１,00133565,13,105,1120012,,,,,,,2024-01-31,1,,,,,ペピ,0
1630,7010003042817,新規,0,2024-01-31,2024-01-31,ブルースカイパワーグリット合同会社,,合同会社,東京都,中央区,八丁堀４丁目２番１０号ＡＯＪ税理士法人内,,13,102,1040032,,,,,,,2024-01-31,1,,,,,ブルースカイパワーグリット,0
1631,7010003042825,新規,0,2024-01-31,2024-01-31,合同会社ＮＬＰ　ＡＧＥＮＣＹ,,合同会社,東京都,文京区,湯島３丁目２０番９－８０４号,,13,105,1130034,,,,,,,2024-01-31,1,,,,,エヌエルピーエージェンシー,0
1633,7010005037798,新規,0,2024-01-31,2024-01-31,弁理士法人ＩＴＯＨ,,その他の設立登記法人,東京都,千代田区,丸の内２丁目１番１号,,13,101,1000005,,,,,,,2024-01-31,1,,,,,イトウ,0
1634,7010005037807,新規,0,2024-01-31,2024-01-31,一般社団法人電力需給調整力取引所,,その他の設立登記法人,東京都,千代田区,大手町１丁目３番２号,,13,101,1000004,,,,,,,2024-01-31,1,,,,,デンリョクジュキュウチョウセイリョクトリヒキジョ,0
1640,7010401179640,新規,0,2024-01-31,2024-01-31,株式会社ＲｏｏＦａｒｍ,,株式会社,東京都,港区,南青山３丁目１番３６号青山丸竹ビル６Ｆ,,13,103,1070062,,,,,,,2024-01-31,1,,,,,ルーファーム,0
1641,7010401180037,新規,0,2024-01-31,2024-01-31,株式会社ＥＧＯＣＥＮＴＲＩＳＭ,,株式会社,東京都,港区,南麻布１丁目９番４号カーサスプレンディッド南麻布フラット５０２号室,,13,103,1060047,,,,,,,2024-01-31,1,,,,,エゴセントリズム,0
1642,7010401180053,新規,0,2024-01-31,2024-01-31,株式会社ＹＭＣ,,株式会社,東京都,港区,麻布台１丁目６番１３号,,13,103,1060041,,,,,,,2024-01-31,1,,,,,ワイエムシー,0
1647,7010501051699,新規,0,2024-01-31,2024-01-31,栄都グランツ株式会社,,株式会社,東京都,台東区,浅草６丁目４－４,,13,106,1110032,,,,,,,2024-01-31,1,,,,,エイトグランツ,0
1653,7010601064568,新規,0,2024-01-31,2024-01-31,エンブリッヂ株式会社,,株式会社,東京都,墨田区,横網２丁目６番７－８０２号,,13,107,1300015,,,,,,,2024-01-31,1,,,,,エンブリッヂ,0
1660,7010803004834,新規,0,2024-01-31,2024-01-31,カッパツ合同会社,,合同会社,東京都,大田区,東嶺町２９番１４号,,13,111,1450074,,,,,,,2024-01-31,1,,,,,カッパツ,0
1671,7011001159727,新規,0,2024-01-31,2024-01-31,株式会社ＡＮＫＩＭ,,株式会社,東京都,渋谷区,幡ヶ谷１丁目２０番１１号ＡＲＴ－２ビル２階,,13,113,1510072,,,,,,,2024-01-31,1,,,,,アンキム,0
1672,7011001159751,新規,0,2024-01-31,2024-01-31,株式会社ＡＩセキュリティソリューションズ,,株式会社,東京都,渋谷区,渋谷３丁目２７－１５坂上ビル７Ｆ,,13,113,1500002,,,,,,,2024-01-31,1,,,,,エーアイセキュリティソリューションズ,0
1675,7011003018385,新規,0,2024-01-31,2024-01-31,合同会社パーリナクッカ,,合同会社,東京都,渋谷区,道玄坂１丁目１６－６二葉ビル８ｂ,,13,113,1500043,,,,,,,2024-01-31,1,,,,,パーリナクッカ,0
1696,7012703002901,新規,0,2024-01-31,2024-01-31,モアロック合同会社,,合同会社,東京都,小平市,たかの台３８番２号,,13,211,1870024,,,,,,,2024-01-31,1,,,,,モアロック,0
1699,7013103001304,新規,0,2024-01-31,2024-01-31,合同会社ＥＳシステムサービス,,合同会社,東京都,福生市,南田園３丁目１８番地２７,,13,218,1970004,,,,,,,2024-01-31,1,,,,,,0
1700,7013301051984,新規,0,2024-01-31,2024-01-31,株式会社ＳＯＧＩ　ｏｍｎｉｂｕｓ,,株式会社,東京都,豊島区,池袋２丁目３７番２号ＫＤビル２－５０４号室,,13,116,1710014,,,,,,,2024-01-31,1,,,,,ソジオムニバス,0
1701,7013301051992,新規,0,2024-01-31,2024-01-31,橋本屋株式会社,,株式会社,東京都,豊島区,南大塚１丁目２番８号,,13,116,1700005,,,,,,,2024-01-31,1,,,,,ハシモトヤ,0
1710,7020001155512,新規,0,2024-01-31,2024-01-31,フジエ株式会社,,株式会社,神奈川県,横浜市中区,千代崎町４丁目９４番地１４,,14,104,2310864,,,,,,,2024-01-31,1,,,,,フジエ,0
1712,7020005016264,新規,0,2024-01-31,2024-01-31,一般社団法人アートワークス,,その他の設立登記法人,神奈川県,横浜市中区,桜木町１丁目１番７号ヒューリックみなとみらい１０階,,14,104,2310062,,,,,,,2024-01-31,1,,,,,アートワークス,0
1716,7021001081343,新規,0,2024-01-31,2024-01-31,Ａｎｙｚｙｍｅ株式会社,,株式会社,神奈川県,相模原市緑区,西橋本５丁目４－２１さがみはら産業創造センターＳＩＣ１－１２１３,,14,151,2520131,,,,,,,2024-01-31,1,,,,,エニザイム,0
1719,7021003014094,新規,0,2024-01-31,2024-01-31,ＳＡＷＲＡＪ　ＴＲＡＤＩＮＧ合同会社,,合同会社,神奈川県,茅ヶ崎市,芹沢６４６番地７－２,,14,207,2530008,,,,,,,2024-01-31,1,,,,,サウラージトレーディング,0
1732,7040001131981,新規,0,2024-01-31,2024-01-31,株式会社クスリの神楽,,株式会社,千葉県,流山市,西初石３丁目９８番地の３５,,12,220,2700121,,,,,,,2024-01-31,1,,,,,クスリノカグラ,0
1737,7040003024226,新規,0,2024-01-31,2024-01-31,合同会社Ｔ７,,合同会社,千葉県,市川市,南行徳３丁目１番６号,,12,203,2720138,,,,,,,2024-01-31,1,,,,,ティーセブン,0
1743,7080005007588,新規,0,2024-01-31,2024-01-31,一般社団法人グローバルウェルビーイングプロジェクト,,その他の設立登記法人,静岡県,静岡市駿河区,宮竹１丁目１３番２２号,,22,102,4228035,,,,,,,2024-01-31,1,,,,,グローバルウェルビーイングプロジェクト,0
1745,7080101024504,新規,0,2024-01-31,2024-01-31,株式会社根方ベース,,株式会社,静岡県,沼津市,東沢田２６１番地の１,,22,203,4100002,,,,,,,2024-01-31,1,,,,,ネガタベース,0
1748,7100003007380,新規,0,2024-01-31,2024-01-31,合同会社Ｎ　Ｓｔｙｌｅ,,合同会社,長野県,佐久市,蓬田６８４,00133573,20,217,3842107,,,,,,,2024-01-31,1,,,,,エヌスタイル,0
1750,7110001038146,新規,0,2024-01-31,2024-01-31,Ｒ建設工業株式会社,,株式会社,新潟県,新発田市,荒町甲８８６番地１,,15,206,9592311,,,,,,,2024-01-31,1,,,,,アールケンセツコウギョウ,0
1759,7120001261639,新規,0,2024-01-31,2024-01-31,株式会社瀛泰国際貿易,,株式会社,大阪府,大阪市中央区,瓦屋町２丁目１５番３号,,27,128,5420066,,,,,,,2024-01-31,1,,,,,エイタイコクサイボウエキ,0
1760,7120001261721,新規,0,2024-01-31,2024-01-31,株式会社エスクルーコーポレーション,,株式会社,大阪府,大阪市東淀川区,相川２丁目１３番５号,,27,114,5330007,,,,,,,2024-01-31,1,,,,,エスクルーコーポレーション,0
1761,7120001261795,新規,0,2024-01-31,2024-01-31,株式会社コスモ,,株式会社,大阪府,大阪市中央区,東心斎橋１丁目４番１号,,27,128,5420083,,,,,,,2024-01-31,1,,,,,コスモ,0
1762,7120001261804,新規,0,2024-01-31,2024-01-31,宝嘉徳株式会社,,株式会社,大阪府,大阪市大正区,三軒家西３丁目４番１６号中山ビル２０６Ａ,,27,108,5510001,,,,,,,2024-01-31,1,,,,,ホウカトク,0
1763,7120001261812,新規,0,2024-01-31,2024-01-31,株式会社翔ホーム,,株式会社,大阪府,大阪市西淀川区,姫島２丁目４番２７－５０２号,,27,113,5550033,,,,,,,2024-01-31,1,,,,,カケルホーム,0
1764,7120001261820,新規,0,2024-01-31,2024-01-31,利惠株式会社,,株式会社,大阪府,大阪市浪速区,恵美須東１丁目２２－１７ＡＢＳハウス４０１,,27,111,5560002,,,,,,,2024-01-31,1,,,,,リエ,0
1765,7120001261845,新規,0,2024-01-31,2024-01-31,株式会社ＮＥＯ　ＷＯＲＫ’Ｓ,,株式会社,大阪府,大阪市平野区,長吉川辺２丁目北１番１４号２０３,,27,126,5470014,,,,,,,2024-01-31,1,,,,,ネオワークス,0
1768,7120002078000,新規,0,2024-01-31,2024-01-31,有限会社イタヤ住宅,,有限会社,大阪府,守口市,馬場町３丁目１４番６号,,27,209,5700062,,,,,,,2024-01-31,1,,,,,イタヤジュウタク,0
1772,7120101068959,新規,0,2024-01-31,2024-01-31,株式会社円,,株式会社,大阪府,和泉市,府中町１丁目１８番７号,,27,219,5940071,,,,,,,2024-01-31,1,,,,,マドカ,0
1773,7120101068983,新規,0,2024-01-31,2024-01-31,亜端株式会社,,株式会社,大阪府,堺市中区,大野芝町２３２番地２２,,27,142,5998233,,,,,,,2024-01-31,1,,,,,アズイ,0
1784,7140001133126,新規,0,2024-01-31,2024-01-31,株式会社ＳＵＭＡＵ,,株式会社,兵庫県,神戸市東灘区,向洋町中５丁目６番地の１、９２８号,,28,101,6580032,,,,,,,2024-01-31,1,,,,,スマウ,0
1786,7150005009552,新規,0,2024-01-31,2024-01-31,特定非営利活動法人教師応援ネットワーク奈良,,その他の設立登記法人,奈良県,大和高田市,大字出２４８サンコーポ１０３,,29,202,6350043,,,,,,,2024-01-31,1,,,,,キョウシオウエンネットワークナラ,0
1796,7180001159968,新規,0,2024-01-31,2024-01-31,株式会社中留商店,,株式会社,愛知県,津島市,唐臼町油田１２９,,23,208,4960026,,,,,,,2024-01-31,1,,,,,ナカドメショウテン,0
1797,7180001159992,新規,0,2024-01-31,2024-01-31,株式会社ＭＩＮＡＭＩ,,株式会社,愛知県,名古屋市千種区,下方町６丁目３番地の２,,23,101,4640096,,,,,,,2024-01-31,1,,,,,ミナミ,0
1798,7180001160001,新規,0,2024-01-31,2024-01-31,株式会社ＫＣＣ,,株式会社,愛知県,名古屋市中区,錦２丁目１２番３４号２階,,23,106,4600003,,,,,,,2024-01-31,1,,,,,ケイシーシー,0
1802,7180003026299,新規,0,2024-01-31,2024-01-31,メイハツプリンティング合同会社,,合同会社,愛知県,名古屋市中区,丸の内３丁目７番２６号ＡＣＡビル５階,,23,106,4600002,,,,,,,2024-01-31,1,,,,,メイハツプリンティング,0
1806,7180301038269,新規,0,2024-01-31,2024-01-31,株式会社システムサーバーグループ,,株式会社,愛知県,安城市,二本木新町３丁目４番地９,,23,212,4460075,,,,,,,2024-01-31,1,,,,,システムサーバーグループ,0
1807,7180301038277,新規,0,2024-01-31,2024-01-31,株式会社ＨＩＲＡＩＷＡ　ＤＥＮＫＩ,,株式会社,愛知県,西尾市,寄近町城崎７２番地２,,23,213,4450061,,,,,,,2024-01-31,1,,,,,ヒライワデンキ,0
1808,7180301038285,新規,0,2024-01-31,2024-01-31,株式会社縁,,株式会社,愛知県,岡崎市,稲熊町字森下７番地９,,23,202,4440071,,,,,,,2024-01-31,1,,,,,エニシ,0
1833,7290001104541,新規,0,2024-01-31,2024-01-31,株式会社アン,,株式会社,福岡県,福岡市中央区,輝国２丁目１番２４号,,40,133,8100032,,,,,,,2024-01-31,1,,,,,アン,0
1837,7300003002072,新規,0,2024-01-31,2024-01-31,Ｉｎｄｉｃａｔｏｒｓ　ｏｆ　ｆｕｔｕｒｅ合同会社,,合同会社,佐賀県,三養基郡みやき町,大字東尾１１８９番地,,41,346,8490113,,,,,,,2024-01-31,1,,,,,インジゲーターズオブフューチャー,0
1851,7360001033139,新規,0,2024-01-31,2024-01-31,株式会社Ｐｉｎｇｇｕｏ,,株式会社,沖縄県,国頭郡恩納村,字恩納５４５０番地１,,47,311,9040411,,,,,,,2024-01-31,1,,,,,ピンゴゥ,0
1861,7380003005670,新規,0,2024-01-31,2024-01-31,合同会社Ｈｏｌｌｙｈｏｃｋ,,合同会社,福島県,会津若松市,天神町１９番４０号,,07,202,9650832,,,,,,,2024-01-31,1,,,,,ホリホック,0
1868,7430001090940,新規,0,2024-01-31,2024-01-31,株式会社リソネクト,,株式会社,北海道,札幌市西区,西野六条６丁目６番１号,,01,107,0630036,,,,,,,2024-01-31,1,,,,,リソネクト,0
1869,7430001090973,新規,0,2024-01-31,2024-01-31,株式会社まる将,,株式会社,北海道,虻田郡豊浦町,字海岸町１番地３５,,01,571,0495413,,,,,,,2024-01-31,1,,,,,マルショウ,0
1872,7430003015904,新規,0,2024-01-31,2024-01-31,ｔｅｔｏｔｅ合同会社,,合同会社,北海道,札幌市中央区,南五条西１５丁目２－３リズム医大前５０３号室,,01,101,0640805,,,,,,,2024-01-31,1,,,,,テトテ,0
1878,7700150115974,新規,0,2024-01-31,2023-05-10,喜連川観光協会,,その他,栃木県,さくら市,喜連川４３５５,,09,214,3291412,,,,,,,2023-05-10,1,,,,,キツレガワカンコウキヨウカイ,0
1879,7700150122632,新規,0,2024-01-31,2024-01-15,川崎市市制１００周年記念事業・全国都市緑化かわさきフェア実行委員会,,その他,神奈川県,川崎市川崎区,宮本町１番地,,14,131,2100004,,,,,,,2024-01-15,1,,,,,カワサキシシセイヒヤクシユウネンキネンジギヨウゼンコクトシリヨクカカワサキフエアジツコウイインカイ,0
1880,7700150123416,新規,0,2024-01-31,2024-01-19,松伏町地域公共交通活性化協議会,,その他,埼玉県,北葛飾郡松伏町,大字松伏２４２４番地,,11,465,3430111,,,,,,,2024-01-19,1,,,,,マツブシマチチイキコウキヨウコウツウカツセイカキヨウギカイ,0
1881,7700150123705,新規,0,2024-01-31,2024-01-31,ＭＯＤＥＲＮ　ＥＮＴＥＲＰＲＩＳＥＳ,,外国会社等,千葉県,八街市,八街ほ６５６番地６,,12,230,2891115,スリランカ民主社会主義共和国、マッラワピティヤ、ノボダヤマワタ、シルクラムワッタ、７５,,,,,,2024-01-31,1,,,,,モダンエンタープライズ,0
1882,7700150123713,新規,0,2024-01-31,2024-01-31,ＤＨ　ＣＯＭＭＯＤＩＴＩＥＳ　ＣＯＲＰＯＲＡＴＩＯＮ　ＬＩＭＩＴＥＤ,,外国会社等,,,,,,,,Ｕｎｉｔ　１００２，１０／Ｆ．，Ｐｅｒｆｅｃｔ　Ｃｏｍｍｅｒｃｉａｌ　Ｂｕｉｌｄｉｎｇ，２０　Ａｕｓｔｉｎ　Ａｖｅｎｕｅ，Ｔｓｉｍ　Ｓｈａ　Ｔｓｕｉ，Ｋｏｗｌｏｏｎ，Ｈｏｎｇ　Ｋｏｎｇ,,,,,,2024-01-31,1,,,,,ディーエイチコモディティーズコーポレーションリミテッド,0
1885,8010001241840,新規,0,2024-01-31,2024-01-31,株式会社ＵＮＩＣＯＲＮ　ＰｏＰｏ,,株式会社,東京都,中央区,銀座１丁目２－４,,13,102,1040061,,,,,,,2024-01-31,1,,,,,ユニコーンポポ,0
1886,8010001241865,新規,0,2024-01-31,2024-01-31,エフエスシーオージャパン株式会社,,株式会社,東京都,千代田区,大手町１丁目６番１号大手町ビル４階ＦＩＮＯＬＡＢ,,13,101,1000004,,,,,,,2024-01-31,1,,,,,エフエスシーオージャパン,0
1887,8010001241873,新規,0,2024-01-31,2024-01-31,株式会社Ｍａｒｉｎａ＆Ｌｕｃａ,,株式会社,東京都,千代田区,神田須田町１丁目１４－１ヒューリック神田須田町ビル３階,,13,101,1010041,,,,,,,2024-01-31,1,,,,,マリナアンドルカ,0
1888,8010001241915,新規,0,2024-01-31,2024-01-31,ライフビジネスソリューションズ株式会社,,株式会社,東京都,中央区,日本橋箱崎町３５番３号ＢＲＩＣＫＧＡＴＥ日本橋２階,,13,102,1030015,,,,,,,2024-01-31,1,,,,,ライフビジネスソリューションズ,0
1889,8010001241923,新規,0,2024-01-31,2024-01-31,株式会社ｎｅｅｄｏｔｈ,,株式会社,東京都,中央区,銀座１丁目１２－４Ｎ＆ＥＢＬＤ．７階,,13,102,1040061,,,,,,,2024-01-31,1,,,,,ニードス,0
1891,8010003042816,新規,0,2024-01-31,2024-01-31,アバター・キャピタル・パートナーズ合同会社,,合同会社,東京都,千代田区,丸の内２丁目１番１号明治安田生命ビル２１階,,13,101,1000005,,,,,,,2024-01-31,1,,,,,アバターキャピタルパートナーズ,0
1892,8010003042824,新規,0,2024-01-31,2024-01-31,合同会社ハンドウ,,合同会社,東京都,千代田区,神田和泉町１番地６－１６ヤマトビル４０５,,13,101,1010024,,,,,,,2024-01-31,1,,,,,ハンドウ,0
1899,8010401180003,新規,0,2024-01-31,2024-01-31,愛のバクダン株式会社,,株式会社,東京都,港区,西麻布４丁目１１－２８麻布エンパイアマンション５０７,,13,103,1060031,,,,,,,2024-01-31,1,,,,,アイノバクダン,0
1900,8010401180036,新規,0,2024-01-31,2024-01-31,株式会社イノアス,,株式会社,東京都,港区,六本木６丁目１－２０六本木電気ビル７Ｆ,,13,103,1060032,,,,,,,2024-01-31,1,,,,,イノアス,0
1901,8010401180060,新規,0,2024-01-31,2024-01-31,Ｍｉｍｏ　Ｐｏｗｅｒ株式会社,,株式会社,東京都,港区,東新橋１丁目２番５号,,13,103,1050021,,,,,,,2024-01-31,1,,,,,ミモパワー,0
1902,8010403031831,新規,0,2024-01-31,2024-01-31,ＫＧＴ合同会社,,合同会社,東京都,港区,浜松町１丁目１１番１１－９０１号,,13,103,1050013,,,,,,,2024-01-31,1,,,,,ケージーティー,0
1920,8010901054623,新規,0,2024-01-31,2024-01-31,株式会社ＢＲａｎｄ‐Ａ,,株式会社,東京都,世田谷区,駒沢２丁目７番１－２８０６号,,13,112,1540012,,,,,,,2024-01-31,1,,,,,ブランドエー,0
1926,8011001159676,新規,0,2024-01-31,2024-01-31,カレイジ株式会社,,株式会社,東京都,渋谷区,道玄坂２丁目１５番１号ノア道玄坂１１１３,,13,113,1500043,,,,,,,2024-01-31,1,,,,,カレイジ,0
1927,8011001159684,新規,0,2024-01-31,2024-01-31,株式会社Ｃｏｎｎｅｃｔｅｄ　Ｏｎｅ,,株式会社,東京都,渋谷区,千駄ヶ谷５丁目１３－９－３０５,,13,113,1510051,,,,,,,2024-01-31,1,,,,,コネクテッドワン,0
1928,8011001159718,新規,0,2024-01-31,2024-01-31,株式会社ＳＨＩＭＡＤＡ・ＡＮＴＩＱＵＥＳ,,株式会社,東京都,渋谷区,鉢山町７番１５－１０６号,,13,113,1500035,,,,,,,2024-01-31,1,,,,,シマダアンティークス,0
1932,8011101105927,新規,0,2024-01-31,2024-01-31,株式会社ｉＭＡＲＫ,,株式会社,東京都,新宿区,天神町４番地１,,13,104,1620808,,,,,,,2024-01-31,1,,,,,アイマーク,0
1933,8011101106025,新規,0,2024-01-31,2024-01-31,維勝世集團株式会社,,株式会社,東京都,新宿区,中落合３丁目３番１２号シャトール目白１０３,,13,104,1610032,,,,,,,2024-01-31,1,,,,,イショウセイシュウダン,0
1939,8011201025199,新規,0,2024-01-31,2024-01-31,株式会社Ｂｅ　Ｒｅｂｏｒｎ,,株式会社,東京都,中野区,東中野３丁目１番２０号,,13,114,1640003,,,,,,,2024-01-31,1,,,,,ビーリボーン,0
1944,8011301029372,新規,0,2024-01-31,2024-01-31,株式会社ＩＮＣｒｅｄｉｂｌｅ　ＢＲＥＷＥＲＳ,,株式会社,東京都,杉並区,高円寺北２丁目２２番３号第２美々マンション１階Ａ号,,13,115,1660002,,,,,,,2024-01-31,1,,,,,インクレディブルブリュワーズ,0
1957,8012405004939,新規,0,2024-01-31,2024-01-31,一般社団法人ジークスポーツアカデミー,,その他の設立登記法人,東京都,府中市,四谷５丁目８番地の１アルソス・フォンターナ３０７,,13,206,1830035,,,,,,,2024-01-31,1,,,,,ジークスポーツアカデミー,0
1964,8013303006985,新規,0,2024-01-31,2024-01-31,合同会社蘇面,,合同会社,東京都,豊島区,西巣鴨２丁目１７番３号丸山マンション４０１号,,13,116,1700001,,,,,,,2024-01-31,1,,,,,ソメン,0
1972,8020001155552,新規,0,2024-01-31,2024-01-31,作倉工業株式会社,,株式会社,神奈川県,横浜市栄区,小菅ケ谷１丁目２３番２３号ヒルズ本郷台１０１,,14,115,2470007,,,,,,,2024-01-31,1,,,,,サクラコウギョウ,0
1973,8020001155577,新規,0,2024-01-31,2024-01-31,株式会社Ｇ　Ｆｏｒｃｅ　Ｅｎｇｉｎｅｅｒｉｎｇ,,株式会社,神奈川県,川崎市高津区,北見方１丁目１２番１１号,,14,134,2130005,,,,,,,2024-01-31,1,,,,,ジーフォースエンジニアリング,0
1982,8021003014102,新規,0,2024-01-31,2024-01-31,合同会社ｈｉｂｈｉ．,,合同会社,神奈川県,小田原市,栄町２丁目５－３０,,14,206,2500011,,,,,,,2024-01-31,1,,,,,ヒビ,0
2001,8060001036781,新規,0,2024-01-31,2024-01-31,株式会社タカイチ,,株式会社,栃木県,小山市,東城南１丁目１７番地９ＴＳタウンＩＩＡ－３,00133563,09,208,3230829,,,,,,,2024-01-31,1,,,,,タカイチ,0
2005,8070001041335,新規,0,2024-01-31,2024-01-31,株式会社ＯＮＦＬＥＥＫ,,株式会社,群馬県,邑楽郡邑楽町,大字中野５２８２番地３,,10,525,3700603,,,,,,,2024-01-31,1,,,,,オンフリーク,0
2010,8100001037180,新規,0,2024-01-31,2024-01-31,飯綱索道株式会社,,株式会社,長野県,上水内郡飯綱町,大字川上２７５５番地２０９,,20,590,3891226,,,,,,,2024-01-31,1,,,,,イイヅナサクドウ,0
2019,8120001261828,新規,0,2024-01-31,2024-01-31,株式会社Ｌｉｎｋ．ｇｌａｄ,,株式会社,大阪府,大阪市阿倍野区,天王寺町北２丁目３０番１８号阿倍野シティハイツ５０３号,,27,119,5450001,,,,,,,2024-01-31,1,,,,,リンクグラッド,0
2020,8120001261844,新規,0,2024-01-31,2024-01-31,株式会社ＶＯＤＫＡ,,株式会社,大阪府,大阪市淀川区,西中島２丁目１４番１４号ウインズコート西中島６０３,,27,123,5320011,,,,,,,2024-01-31,1,,,,,ウォッカ,0
2021,8120001261860,新規,0,2024-01-31,2024-01-31,安得る株式会社,,株式会社,大阪府,大阪市都島区,中野町４丁目３番６号Ｈ２Ｈ大阪桜之宮邸３Ｂ－４,,27,102,5340027,,,,,,,2024-01-31,1,,,,,アンエル,0
2024,8120003025834,新規,0,2024-01-31,2024-01-31,ネクシア合同会社,,合同会社,大阪府,大阪市阿倍野区,阿倍野筋１丁目１－４３あべのハルカス３１階,,27,119,5450052,,,,,,,2024-01-31,1,,,,,ネクシア,0
2025,8120005024140,新規,0,2024-01-31,2024-01-31,一般社団法人隆起会,,その他の設立登記法人,大阪府,大阪市都島区,毛馬町２丁目１０番３３号,,27,102,5340001,,,,,,,2024-01-31,1,,,,,リュウキカイ,0
2033,8120101068982,新規,0,2024-01-31,2024-01-31,ＫＮ株式会社,,株式会社,大阪府,堺市中区,大野芝町２３２番地２２,,27,142,5998233,,,,,,,2024-01-31,1,,,,,ケーエヌ,0
2034,8120101068990,新規,0,2024-01-31,2024-01-31,株式会社グローリー,,株式会社,大阪府,堺市中区,新家町６８０番地１２,,27,142,5998232,,,,,,,2024-01-31,1,,,,,グローリー,0
2035,8120105009826,新規,0,2024-01-31,2024-01-31,一般社団法人天志会,,その他の設立登記法人,大阪府,堺市西区,草部１９７番地１６,,27,144,5938312,,,,,,,2024-01-31,1,,,,,テンシカイ,0
2039,8122001037786,新規,0,2024-01-31,2024-01-31,株式会社ミノショウ,,株式会社,大阪府,東大阪市,大蓮北３丁目２３番２３号,,27,227,5770826,,,,,,,2024-01-31,1,,,,,ミノショウ,0
2046,8140001133141,新規,0,2024-01-31,2024-01-31,株式会社ＳＰＯＲＴＳ　ＳＱＵＡＲＥ,,株式会社,兵庫県,明石市,大明石町２丁目２－１２,,28,203,6730891,,,,,,,2024-01-31,1,,,,,スポーツスクエア,0
2047,8140001133158,新規,0,2024-01-31,2024-01-31,ＤＡＩＫＩ株式会社,,株式会社,兵庫県,神戸市東灘区,深江浜町６７番地９０１号,,28,101,6580023,,,,,,,2024-01-31,1,,,,,ダイキ,0
2049,8140002071332,新規,0,2024-01-31,2024-01-31,有限会社丸北商店,,有限会社,兵庫県,西宮市,羽衣町１０番５２号,,28,204,6620051,,,,,,,2024-01-31,1,,,,,,0
2050,8150001027045,新規,0,2024-01-31,2024-01-31,エムアイ興産株式会社,,株式会社,奈良県,橿原市,内膳町１丁目１番４４号エムアイビル７Ｆ,,29,205,6340804,,,,,,,2024-01-31,1,,,,,エムアイコウサン,0
2053,8160001025667,新規,0,2024-01-31,2024-01-31,株式会社ＫＯＨ,,株式会社,滋賀県,長浜市,木之本町木之本２００８番地１２,,25,203,5290425,,,,,,,2024-01-31,1,,,,,コウ,0
2059,8180001159967,新規,0,2024-01-31,2024-01-31,株式会社Ｆ‐ａｃｅ,,株式会社,愛知県,名古屋市中区,新栄３丁目１４番６号三旺マンション第２新栄５０５号,,23,106,4600007,,,,,,,2024-01-31,1,,,,,フェイス,0
2060,8180001159975,新規,0,2024-01-31,2024-01-31,カナオホールディングス株式会社,,株式会社,愛知県,尾張旭市,瀬戸川町２丁目１５６番地,,23,226,4880023,,,,,,,2024-01-31,1,,,,,カナオホールディングス,0
2061,8180001159991,新規,0,2024-01-31,2024-01-31,株式会社ＫＯＧ,,株式会社,愛知県,名古屋市守山区,鳥羽見２丁目１６番１３号,,23,113,4630076,,,,,,,2024-01-31,1,,,,,ケーオージー,0
2065,8180301038276,新規,0,2024-01-31,2024-01-31,株式会社岩瀬屋,00133567,株式会社,愛知県,刈谷市,小垣江町御茶屋下４６番地３,,23,210,4480813,,,,,,,2024-01-31,1,,,,,イワセヤ,0
2074,8240001062735,新規,0,2024-01-31,2024-01-31,株式会社Ｆ・ｐｌａｎｎｉｎｇ,,株式会社,広島県,広島市佐伯区,八幡４丁目４番９号,,34,108,7315116,,,,,,,2024-01-31,1,,,,,エフプランニング,0
2080,8260001038717,新規,0,2024-01-31,2024-01-31,ジェス兵庫株式会社,,株式会社,岡山県,岡山市中区,江並１５２番地１４,,33,102,7028004,,,,,,,2024-01-31,1,,,,,ジェスヒョウゴ,0
2084,8290001104549,新規,0,2024-01-31,2024-01-31,ライトアウェイ株式会社,,株式会社,福岡県,福岡市中央区,大名１丁目１番２９号,,40,133,8100041,,,,,,,2024-01-31,1,,,,,ライトアウェイ,0
2085,8290001104557,新規,0,2024-01-31,2024-01-31,株式会社Ｗホールディングス,,株式会社,福岡県,福岡市中央区,港１丁目８番４－１４０１号ラ・メール港,,40,133,8100075,,,,,,,2024-01-31,1,,,,,ダブルホールディングス,0
2086,8290001104565,新規,0,2024-01-31,2024-01-31,株式会社プロジェクトＡＣＥ,,株式会社,福岡県,糟屋郡宇美町,貴船３丁目６番８号,,40,341,8112131,,,,,,,2024-01-31,1,,,,,プロジェクトエース,0
2089,8290003014886,新規,0,2024-01-31,2024-01-31,Ｔ＆Ｄ　Ｇｒｏｕｐ合同会社,,合同会社,福岡県,福岡市東区,松香台２丁目６－１崎村ビル１０５号室,,40,131,8130004,,,,,,,2024-01-31,1,,,,,ティーアンドディーグループ,0
2105,8360001033138,新規,0,2024-01-31,2024-01-31,株式会社ＥｎｃｏｕＲａｇＥ,,株式会社,沖縄県,沖縄市,美原４丁目６－２６,,47,211,9042155,,,,,,,2024-01-31,1,,,,,エンカレッジ,0
2108,8360003013666,新規,0,2024-01-31,2024-01-31,合同会社Ｆｅｌｔ　Ｂｅｅｒ　Ｗｏｒｋｓ,,合同会社,沖縄県,那覇市,牧志３丁目９番１４号,,47,201,9000013,,,,,,,2024-01-31,1,,,,,フェルトビアワークス,0
2119,8400005008387,新規,0,2024-01-31,2024-01-31,農事組合法人しのぎ協同舎,,その他の設立登記法人,岩手県,滝沢市,篠木上綾織９７番地,,03,216,0200722,,,,,,,2024-01-31,1,,,,,シノギキョウドウシャ,0
2120,8410001013720,新規,0,2024-01-31,2024-01-31,株式会社Ｃｈａｇｒｌ,,株式会社,秋田県,秋田市,八橋本町５丁目８番２５号,,05,201,0100973,,,,,,,2024-01-31,1,,,,,チャゴール,0
2124,8430001090923,新規,0,2024-01-31,2024-01-31,株式会社Ｓ．Ａ．ＷＥＬＤ,,株式会社,北海道,室蘭市,八丁平５丁目１番６号,,01,205,0500061,,,,,,,2024-01-31,1,,,,,エスエーウェルド,0
2125,8430001090972,新規,0,2024-01-31,2024-01-31,株式会社ウイングＢ,,株式会社,北海道,小樽市,勝納町９番１号,,01,203,0470005,,,,,,,2024-01-31,1,,,,,ウイングビー,0
2129,8430003015903,新規,0,2024-01-31,2024-01-31,ＵＭＩＸ　ＦＡＲＭ合同会社,,合同会社,北海道,札幌市西区,宮の沢一条５丁目６番３５号,,01,107,0630051,,,,,,,2024-01-31,1,,,,,ウミックスファーム,0
2130,8430003015911,新規,0,2024-01-31,2024-01-31,サコツ・リパブリック合同会社,,合同会社,北海道,札幌市清田区,里塚緑ケ丘１０丁目１２番１２号,,01,110,0040805,,,,,,,2024-01-31,1,,,,,サコツリパブリック,0
2131,8440001004659,新規,0,2024-01-31,2024-01-31,株式会社坂本組,,株式会社,北海道,亀田郡七飯町,字西大沼１６６番地の１５,,01,337,0411355,,,,,,,2024-01-31,1,,,,,サカモトクミ,0
2133,8480003002079,新規,0,2024-01-31,2024-01-31,ＳＨＩＫＯＫＵ遊びイベント企画合同会社,,合同会社,徳島県,三好市,池田町白地本名６１－８,,36,208,7785251,,,,,,,2024-01-31,1,,,,,シコクアソビイベントキカク,0
2135,8500001003150,新規,0,2024-01-31,2024-01-31,西日本壽海運株式会社,,株式会社,愛媛県,松山市,末町乙２６７番地１,,38,201,7910122,,,,,,,2024-01-31,1,,,,,ニシニホンコトブキカイウン,0
2139,8700150122879,新規,0,2024-01-31,2023-12-20,琵琶湖とつながる生きもの田んぼ物語推進協議会,,その他,滋賀県,東近江市,林町６０１,,25,213,5211224,,,,,,,2023-12-20,1,,,,,ビワコトツナガルイキモノタンボモノガタリスイシンキヨウギカイ,0
2140,8700150123704,新規,0,2024-01-31,2024-01-31,諫早市長野土地区画整理組合,,その他,長崎県,諫早市,長野町１０４１番地８,,42,204,8540036,,,,,,,2024-01-31,1,,,,,イサハヤシナガノトチクカクセイリクミアイ,0
2141,8700150123712,新規,0,2024-01-31,2024-01-31,Ｑｉｎｇｄａｏ　Ｘｉｌｉｗｕ　Ｔｒａｄｉｎｇ　Ｃｏ．，Ｌｔｄ,,外国会社等,,,,,,,,Ｕｎｉｔ　６０１，Ｕｎｉｔ　１，Ｎｏ．４５　Ｗｅｎｓｈａｎｇ　Ｒｏａｄ，Ｓｈｉｎａｎ　Ｄｉｓｔｒｉｃｔ，Ｑｉｎｇｄａｏ　Ｃｉｔｙ，Ｓｈａｎｄｏｎｇ　Ｐｒｏｖｉｎｃｅ,,,,,,2024-01-31,1,,,,,チンドウシリウショウボウユウゲンコウシ,0
2151,9010001241930,新規,0,2024-01-31,2024-01-31,株式会社あまてらす,,株式会社,東京都,中央区,銀座１丁目２２番１１号銀座大竹ビジデンス２Ｆ,,13,102,1040061,,,,,,,2024-01-31,1,,,,,アマテラス,0
2154,9010005037821,新規,0,2024-01-31,2024-01-31,一般社団法人天満橋１丁目,,その他の設立登記法人,東京都,中央区,八丁堀４丁目２番１０号ＡＯＪ税理士法人内,,13,102,1040032,,,,,,,2024-01-31,1,,,,,テンマバシイッチョウメ,0
2162,9010401180035,新規,0,2024-01-31,2024-01-31,株式会社ウェルネスシアター,,株式会社,東京都,港区,南青山３丁目１番３６号青山丸竹ビル６Ｆ,,13,103,1070062,,,,,,,2024-01-31,1,,,,,ウェルネスシアター,0
2163,9010401180051,新規,0,2024-01-31,2024-01-31,株式会社マバル,,株式会社,東京都,港区,高輪２丁目１２番６３－３０４号,,13,103,1080074,,,,,,,2024-01-31,1,,,,,マバル,0
2164,9010401180068,新規,0,2024-01-31,2024-01-31,株式会社ビューティーハニー,,株式会社,東京都,港区,白金台５丁目１８番１８号アスタリスク２Ｆ,,13,103,1080071,,,,,,,2024-01-31,1,,,,,ビューティーハニー,0
2167,9010405022902,新規,0,2024-01-31,2024-01-31,税理士法人クリアレスト,,その他の設立登記法人,東京都,港区,芝浦２丁目１４－１８サカイビル５階１８号室,,13,103,1080023,,,,,,,2024-01-31,1,,,,,クリアレスト,0
2174,9010601064574,新規,0,2024-01-31,2024-01-31,株式会社ビジョン・シェルパ,,株式会社,東京都,江東区,三好３丁目３番１６号,,13,108,1350022,,,,,,,2024-01-31,1,,,,,ビジョンシェルパ,0
2180,9010603010618,新規,0,2024-01-31,2024-01-31,合同会社ｓｗｉｎｇ‐ｂｙ,,合同会社,東京都,江東区,白河４丁目９番１３‐２０４号,,13,108,1350021,,,,,,,2024-01-31,1,,,,,スイングバイ,0
2190,9010901054622,新規,0,2024-01-31,2024-01-31,株式会社Ｄｒｉｐ,,株式会社,東京都,世田谷区,玉川台１丁目１４番１２－１０７号,,13,112,1580096,,,,,,,2024-01-31,1,,,,,ドリップ,0
2191,9010901054639,新規,0,2024-01-31,2024-01-31,株式会社Ｒｕｓｓ　Ｌａ　Ｖｉｅ,,株式会社,東京都,世田谷区,三宿２丁目１－１３－３１１,,13,112,1540005,,,,,,,2024-01-31,1,,,,,ラスラヴィ,0
2193,9010903008782,新規,0,2024-01-31,2024-01-31,ＹＨＶＨ合同会社,,合同会社,東京都,世田谷区,奥沢５丁目１－１１メゾンドジョワ２０２,,13,112,1580083,,,,,,,2024-01-31,1,,,,,ワイエイチブイエイチ,0
2197,9011001159650,新規,0,2024-01-31,2024-01-31,株式会社スタブロ,,株式会社,東京都,渋谷区,神宮前６丁目２３番４号桑野ビル２階,,13,113,1500001,,,,,,,2024-01-31,1,,,,,スタブロ,0
2198,9011001159709,新規,0,2024-01-31,2024-01-31,株式会社ＭＵＫＫ企画,,株式会社,東京都,渋谷区,代官山町１７番４－１０２Ｂ,,13,113,1500034,,,,,,,2024-01-31,1,,,,,ムックキカク,0
2199,9011001159733,新規,0,2024-01-31,2024-01-31,株式会社ＫＮラボ,,株式会社,東京都,渋谷区,恵比寿西２丁目４番８号ウィンド恵比寿ビル８Ｆ,,13,113,1500021,,,,,,,2024-01-31,1,,,,,ケイエヌラボ,0
2200,9011003018391,新規,0,2024-01-31,2024-01-31,合同会社オフィスＫ７,,合同会社,東京都,目黒区,八雲４丁目１６番１３号Ｃ１０５,,13,110,1520023,,,,,,,2024-01-31,1,,,,,オフィスケーセブン,0
2218,9011301029371,新規,0,2024-01-31,2024-01-31,株式会社Ｃｏａｃｈ　Ｕｎｉｖｅｒｓｅ,,株式会社,東京都,杉並区,荻窪２丁目４３番１８－１０６号,,13,115,1670051,,,,,,,2024-01-31,1,,,,,コーチユニバース,0
2226,9011501030261,新規,0,2024-01-31,2024-01-31,リビルドＪａｐａｎ株式会社,,株式会社,東京都,荒川区,町屋３丁目１４番１６号,,13,118,1160001,,,,,,,2024-01-31,1,,,,,リビルドジャパン,0
2227,9011503005939,新規,0,2024-01-31,2024-01-31,合同会社オルフィオ,,合同会社,東京都,北区,赤羽北２丁目２２番１０－１０５号,,13,117,1150052,,,,,,,2024-01-31,1,,,,,オルフィオ,0
2231,9011801043715,新規,0,2024-01-31,2024-01-31,ジェイアイコネクト株式会社,,株式会社,東京都,足立区,栗原４丁目４番１０号,,13,121,1230842,,,,,,,2024-01-31,1,,,,,ジェイアイコネクト,0
2243,9020001155592,新規,0,2024-01-31,2024-01-31,株式会社スタートアップ,,株式会社,神奈川県,川崎市幸区,大宮町２８番地２,,14,132,2120014,,,,,,,2024-01-31,1,,,,,スタートアップ,0
2247,9020003025439,新規,0,2024-01-31,2024-01-31,Ｎｅｗ　Ｇｅｎｅｒａｔｉｏｎ合同会社,,合同会社,神奈川県,横浜市鶴見区,仲通３丁目７２－１２ユナイト仲通マリアージュの杜２０１,,14,101,2300042,,,,,,,2024-01-31,1,,,,,ニュージェネレーション,0
2248,9020003025463,新規,0,2024-01-31,2024-01-31,合同会社ＺＥＮＳ,,合同会社,神奈川県,横浜市金沢区,釜利谷東４丁目２５－１０,,14,108,2360042,,,,,,,2024-01-31,1,,,,,ゼンズ,0
2249,9020005016270,新規,0,2024-01-31,2024-01-31,一般社団法人イヌなでホリスティック協会,,その他の設立登記法人,神奈川県,横浜市栄区,笠間３丁目４５番Ｆ－１０２号,,14,115,2470006,,,,,,,2024-01-31,1,,,,,イヌナデホリスティックキョウカイ,0
2255,9021001081333,新規,0,2024-01-31,2024-01-31,株式会社ＴＥＦＵＤＡ,,株式会社,神奈川県,鎌倉市,腰越５丁目５－３１,,14,204,2480033,,,,,,,2024-01-31,1,,,,,テフダ,0
2258,9021003014092,新規,0,2024-01-31,2024-01-31,ＫｉｎＫｉｎ合同会社,,合同会社,神奈川県,藤沢市,鵠沼石上３丁目１－１３ハイリー石上１Ｂ,,14,205,2510025,,,,,,,2024-01-31,1,,,,,キンキン,0
2275,9040001132012,新規,0,2024-01-31,2024-01-31,株式会社秀穂,00133577,株式会社,千葉県,千葉市中央区,中央２丁目７番１号吉田興業第二ビル６Ｆ,,12,101,2600013,,,,,,,2024-01-31,1,,,,,シュウスイ,0
2279,9040003024224,新規,0,2024-01-31,2024-01-31,Ｍ．Ｒ．ＡＵＴＯ　ＢＡＳＥ合同会社,,合同会社,千葉県,千葉市緑区,高田町１６３番地１７,,12,105,2660003,,,,,,,2024-01-31,1,,,,,エムアールオートベース,0
2280,9040005022259,新規,0,2024-01-31,2024-01-31,医療法人社団長生北陵会,,その他の設立登記法人,千葉県,茂原市,茂原５９１番地４号,,12,210,2970026,,,,,,,2024-01-31,1,,,,,チョウセイホクリョウカイ,0
2281,9040005022267,新規,0,2024-01-31,2024-01-31,一般社団法人賢心会,,その他の設立登記法人,千葉県,柏市,柏２丁目５番５号ザ・カシワ拾番２階,,12,217,2770005,,,,,,,2024-01-31,1,,,,,ケンシンカイ,0
2285,9070001041334,新規,0,2024-01-31,2024-01-31,株式会社ヤマザキ設備,,株式会社,群馬県,みどり市,大間々町桐原２９０番地２,,10,212,3760102,,,,,,,2024-01-31,1,,,,,ヤマザキセツビ,0
2300,9100003007379,新規,0,2024-01-31,2024-01-31,合同会社うたまる,,合同会社,長野県,飯田市,中村１１７８番地,,20,205,3950156,,,,,,,2024-01-31,1,,,,,ウタマル,0
2302,9110001038144,新規,0,2024-01-31,2024-01-31,株式会社ブザナラ,,株式会社,新潟県,新潟市西区,大学南１丁目７８０２－１,,15,107,9502111,,,,,,,2024-01-31,1,,,,,ブザナラ,0
2317,9120001261793,新規,0,2024-01-31,2024-01-31,株式会社ライホウエージェンシー,,株式会社,大阪府,大阪市中央区,上本町西１丁目１番９号９０５号室,,27,128,5420062,,,,,,,2024-01-31,1,,,,,ライホウエージェンシー,0
2318,9120001261802,新規,0,2024-01-31,2024-01-31,株式会社キャノンショット,,株式会社,大阪府,大阪市北区,南森町２丁目３番８－１００４号,,27,127,5300054,,,,,,,2024-01-31,1,,,,,キャノンショット,0
2319,9120001261819,新規,0,2024-01-31,2024-01-31,株式会社カナメタ,,株式会社,大阪府,交野市,私部西２丁目１６番１３号,,27,230,5760041,,,,,,,2024-01-31,1,,,,,カナメタ,0
2320,9120001261843,新規,0,2024-01-31,2024-01-31,株式会社ザッピー,,株式会社,大阪府,大阪市淀川区,三津屋北１丁目１番２０号平田産業第２ビル５Ｆ,,27,123,5320032,,,,,,,2024-01-31,1,,,,,ザッピー,0
2322,9120103005652,新規,0,2024-01-31,2024-01-31,Ｓｏｌｅｉｌ合同会社,,合同会社,大阪府,堺市中区,堀上町１００６番地５シャルマン芳春３１０号,,27,142,5998261,,,,,,,2024-01-31,1,,,,,ソレイル,0
2325,9122005003734,新規,0,2024-01-31,2024-01-31,一般社団法人ホームドクター推進機構,,その他の設立登記法人,大阪府,東大阪市,中石切町４丁目６番２９－２０１号,,27,227,5798014,,,,,,,2024-01-31,1,,,,,ホームドクタースイシンキコウ,0
2338,9160001025666,新規,0,2024-01-31,2024-01-31,株式会社ＲＹＵ,,株式会社,滋賀県,長浜市,木之本町木之本２００８番地１２,,25,203,5290425,,,,,,,2024-01-31,1,,,,,リュウ,0
2346,9180001159966,新規,0,2024-01-31,2024-01-31,株式会社Ｈ＆ＳＷａｔｅｒ,,株式会社,愛知県,名古屋市中区,栄３丁目１５番３３号栄ガスビル１３階,,23,106,4600008,,,,,,,2024-01-31,1,,,,,エイチアンドエスウォーター,0
2347,9180001159974,新規,0,2024-01-31,2024-01-31,株式会社Ｆｉｖｅｓｋｉｌｌｓ　Ｓｅｒｖｉｃｅｓ,,株式会社,愛知県,常滑市,北汐見坂３丁目１２５番地,,23,216,4790867,,,,,,,2024-01-31,1,,,,,ファイブスキルズサービシーズ,0
2348,9180001159982,新規,0,2024-01-31,2024-01-31,株式会社ＢＬＯＣＫＳ,,株式会社,愛知県,名古屋市中区,松原３丁目９番１号,,23,106,4600017,,,,,,,2024-01-31,1,,,,,ブロックス,0
2349,9180001159990,新規,0,2024-01-31,2024-01-31,株式会社繕,,株式会社,愛知県,名古屋市西区,中小田井２丁目２１５番地坂井マンション１０２号,,23,104,4520822,,,,,,,2024-01-31,1,,,,,ゼン,0
2350,9180001159999,新規,0,2024-01-31,2024-01-31,株式会社おん,,株式会社,愛知県,名古屋市千種区,井上町９８番地ベレーサ星ヶ丘１５０２号,,23,101,4640026,,,,,,,2024-01-31,1,,,,,オン,0
2353,9180003026231,新規,0,2024-01-31,2024-01-31,日本先端合同会社,,合同会社,愛知県,名古屋市天白区,植田南２丁目２０３番地の１ライオンズマンション植田第２　６０２号,,23,116,4680053,,,,,,,2024-01-31,1,,,,,ニホンセンタン,0
2354,9180003026280,新規,0,2024-01-31,2024-01-31,合同会社ＧＢＴＰ,,合同会社,愛知県,名古屋市中村区,名駅南２丁目７－８ＮＡＧＯＹＡ　ｔｈｅ　ＴＯＷＥＲ　１５０４,,23,105,4500003,,,,,,,2024-01-31,1,,,,,ジービーティーピー,0
2358,9180301038275,新規,0,2024-01-31,2024-01-31,株式会社プラスエフ,,株式会社,愛知県,豊橋市,西幸町字浜池１５６番地６,,23,201,4418113,,,,,,,2024-01-31,1,,,,,プラスエフ,0
2359,9180301038283,新規,0,2024-01-31,2024-01-31,日光株式会社,,株式会社,愛知県,西尾市,宅野島町郷中６７番地３,,23,213,4450042,,,,,,,2024-01-31,1,,,,,ニッコウ,0
2372,9250005008889,新規,0,2024-01-31,2024-01-31,無限責任地福村中間丈負債整理組合,00133462,その他の設立登記法人,山口県,山口市,（旧阿武郡地福村）,,35,203,7530000,,,,,,,2024-01-31,1,,,,,ジフクムラチュウカンジョウ,0
2374,9270003001596,新規,0,2024-01-31,2024-01-31,合同会社クラスト,,合同会社,鳥取県,鳥取市,栄町６０６番地,,31,201,6800831,,,,,,,2024-01-31,1,,,,,クラスト,0
2376,9290001104556,新規,0,2024-01-31,2024-01-31,ＡＭ＆ＢＭコーポレーション株式会社,,株式会社,福岡県,福岡市中央区,大手門１丁目９番１１号,,40,133,8100074,,,,,,,2024-01-31,1,,,,,エーエムアンドビーエムコーポレーション,0
2381,9290003014910,新規,0,2024-01-31,2024-01-31,合同会社ＷＲＭＹ,,合同会社,福岡県,福岡市中央区,春吉３丁目１５番４号,,40,133,8100003,,,,,,,2024-01-31,1,,,,,ルミー,0
2382,9290005019288,新規,0,2024-01-31,2024-01-31,一般社団法人みなくちあきら基金,,その他の設立登記法人,福岡県,福岡市博多区,中呉服町１番２２号,,40,132,8120035,,,,,,,2024-01-31,1,,,,,ミナクチアキラキキン,0
2384,9290801030266,新規,0,2024-01-31,2024-01-31,株式会社下電,,株式会社,福岡県,田川市,大字糒２４０７－２,,40,206,8250005,,,,,,,2024-01-31,1,,,,,シモデン,0
2393,9360003013665,新規,0,2024-01-31,2024-01-31,合同会社プレミアムホームズ,,合同会社,沖縄県,沖縄市,諸見里１丁目１９番５号,,47,211,9040032,,,,,,,2024-01-31,1,,,,,プレミアムホームズ,0
2395,9380001034265,新規,0,2024-01-31,2024-01-31,株式会社ＴＨＥ　Ｆ,,株式会社,福島県,石川郡玉川村,大字四辻新田字村中１３１森の駅ｙｏｄｇｅ,00133564,07,502,9636301,,,,,,,2024-01-31,1,,,,,ザエフ,0
2396,9380001034273,新規,0,2024-01-31,2024-01-31,Ｌｉｔ工業株式会社,,株式会社,福島県,喜多方市,関柴町西勝字宮ノ下１３４２番地,,07,208,9660014,,,,,,,2024-01-31,1,,,,,リットコウギョウ,0
2397,9380003005669,新規,0,2024-01-31,2024-01-31,合同会社Ｗｏｒｌｄ　ｏｆ　Ｌｉｎｋｓ,,合同会社,福島県,会津若松市,門田町大字一ノ堰字村東５７０番地,,07,202,9650844,,,,,,,2024-01-31,1,,,,,ワールドオブリンクス,0
2399,9420001018577,新規,0,2024-01-31,2024-01-31,ＭＬＣソーシャルサポート株式会社,,株式会社,青森県,八戸市,根城１丁目３６番９号,,02,203,0391166,,,,,,,2024-01-31,1,,,,,エムエルシーソーシャルサポート,0
2402,9430001090930,新規,0,2024-01-31,2024-01-31,株式会社キトリ,,株式会社,北海道,札幌市北区,北二十八条西６丁目１番１０号,,01,102,0010028,,,,,,,2024-01-31,1,,,,,キトリ,0
2405,9470001020009,新規,0,2024-01-31,2024-01-31,株式会社Ｇ．Ｂ,,株式会社,香川県,三豊市,高瀬町上麻１番地３,,37,208,7670014,,,,,,,2024-01-31,1,,,,,ジービー,0
2408,9480003002078,新規,0,2024-01-31,2024-01-31,芋色合同会社,,合同会社,徳島県,名西郡石井町,石井字尼寺１３８―８,,36,341,7793235,,,,,,,2024-01-31,1,,,,,イモイロ,0
2409,9500001025441,新規,0,2024-01-31,2024-01-31,ＫＨＶ株式会社,,株式会社,愛媛県,松山市,清住２丁目１１０４番地１３,,38,201,7918055,,,,,,,2024-01-31,1,,,,,ケイエイチブイ,0
