sequenceNumber,corporateNumber,process,correct,updateDate,changeDate,name,nameImageId,kind,prefectureName,cityName,streetNumber,addressImageId,prefectureCode,cityCode,postCode,addressOutside,addressOutsideImageId,closeDate,closeCause,successorCorporateNumber,changeCause,assignmentDate,latest,enName,enPrefectureName,enCityName,enAddressOutside,furigana,hihyoji
10,1010001136576,登記記録の閉鎖等,0,2023-07-31,2023-07-14,株式会社松富士ジェースタイル,,株式会社,東京都,千代田区,内神田２丁目２番５号,,13,101,1010047,,,2023-07-14,合併による解散等,8010001133492,令和５年７月１日東京都千代田区内神田二丁目２番５号株式会社松富士食品（8010001133492）に合併し解散,2015-10-05,1,,,,,マツフジジェースタイル,0
24,1010003030959,登記記録の閉鎖等,0,2023-07-31,2023-07-18,フサキリゾートホテル合同会社,,合同会社,東京都,千代田区,九段南３丁目７番７号成和綜合会計事務所内,,13,101,1020074,,,2023-07-18,清算の結了等,,,2019-10-29,1,,,,,フサキリゾートホテル,0
44,1010802004023,登記記録の閉鎖等,0,2023-07-31,2023-07-26,有限会社共栄精機,,有限会社,東京都,大田区,大森南４丁目１４番１１号,,13,111,1430013,,,2023-07-26,清算の結了等,,,2015-10-05,1,,,,,キョウエイセイキ,0
69,1011502008297,登記記録の閉鎖等,0,2023-07-31,2023-07-03,有限会社幸進ボデー,,有限会社,東京都,荒川区,町屋７丁目４番１号,,13,118,1160001,,,2023-07-03,清算の結了等,,,2015-10-05,1,,,,,コウシンボデー,0
70,1011601001376,登記記録の閉鎖等,0,2023-07-31,2023-07-27,株式会社関越自動車,,株式会社,東京都,練馬区,大泉学園町８丁目３０番１９号,,13,120,1780061,,,2023-07-27,清算の結了等,,,2015-10-05,1,,,,,カンエツジドゥシャ,0
76,1012301011079,登記記録の閉鎖等,0,2023-07-31,2023-07-28,株式会社ユーアンドエー,,株式会社,東京都,町田市,原町田３丁目９番５号,,13,209,1940013,,,2023-07-28,清算の結了等,,,2017-08-09,1,,,,,ユーアンドエー,0
78,1012402011564,登記記録の閉鎖等,0,2023-07-31,2023-07-27,有限会社尖閣湾,,有限会社,東京都,調布市,国領町３丁目８番地１５,,13,208,1820022,,,2023-07-27,清算の結了等,,,2015-10-05,1,,,,,センカクワン,0
81,1012801007262,登記記録の閉鎖等,0,2023-07-31,2023-07-24,株式会社嘉辰,,株式会社,東京都,武蔵村山市,本町４丁目１７番地の１,,13,223,2080004,,,2023-07-24,清算の結了等,,,2015-10-05,1,,,,,カシン,0
88,1020001119068,登記記録の閉鎖等,0,2023-07-31,2023-07-25,神奈川協立情報通信株式会社,,株式会社,神奈川県,横浜市中区,尾上町６丁目８６番１号,,14,104,2310015,,,2023-07-25,合併による解散等,2010401008184,令和５年７月１日東京都港区浜松町一丁目９番１０号協立情報通信株式会社（2010401008184）に合併し解散,2016-12-12,1,,,,,カナガワキョウリツジョウホウツウシン,0
94,1020002068859,登記記録の閉鎖等,0,2023-07-31,2023-07-18,有限会社環境経済研究所,,有限会社,神奈川県,横浜市港北区,大豆戸町５３５番地の５,,14,109,2220032,,,2023-07-18,清算の結了等,,,2015-10-05,1,,,,,カンキョウケイザイケンキュウショ,0
97,1020005013481,登記記録の閉鎖等,0,2023-07-31,2023-07-18,公益財団法人津久井督六記念財団,,その他の設立登記法人,神奈川県,横浜市港南区,上大岡西１丁目６番１号,,14,111,2330002,,,2023-07-18,清算の結了等,,,2018-01-29,1,,,,,ツクイトクロクキネンザイダン,0
109,1030001134033,登記記録の閉鎖等,0,2023-07-31,2023-07-06,リワーク株式会社,,株式会社,埼玉県,川口市,大字安行吉蔵４６９番地の５,,11,203,3340053,,,2023-07-06,清算の結了等,,,2019-12-04,1,,,,,リワーク,0
122,1040002049205,登記記録の閉鎖等,0,2023-07-31,2023-07-04,有限会社八百勝,,有限会社,千葉県,松戸市,河原塚３９９番地,,12,207,2702254,,,2023-07-04,清算の結了等,,,2023-04-18,1,,,,,ヤオカツ,0
126,1050003002772,登記記録の閉鎖等,0,2023-07-31,2023-07-24,合同会社まいんけあ,,合同会社,茨城県,日立市,塙山町２丁目３１番１４号,,08,202,3160011,,,2023-07-24,清算の結了等,,,2015-10-05,1,,,,,マインケア,0
137,1080102014897,登記記録の閉鎖等,0,2023-07-31,2023-07-27,有限会社瓦寅,,有限会社,静岡県,富士市,伝法２４４６番地の２,,22,210,4170061,,,2023-07-27,清算の結了等,,,2015-10-05,1,,,,,カワラトラ,0
144,1110002031535,登記記録の閉鎖等,0,2023-07-31,2023-07-20,有限会社大竹建築,,有限会社,新潟県,見附市,本町２丁目１２番１３号,,15,211,9540053,,,2023-07-20,清算の結了等,,,2015-10-05,1,,,,,オオタケケンチク,0
154,1120002010307,登記記録の閉鎖等,0,2023-07-31,2023-07-24,有限会社マルサイ,,有限会社,大阪府,大阪市東住吉区,今林１丁目２番６８号,,27,121,5460001,,,2023-07-24,清算の結了等,,,2015-10-05,1,,,,,マルサイ,0
164,1120005010634,登記記録の閉鎖等,0,2023-07-31,2023-07-28,一般社団法人コンステレーション,,その他の設立登記法人,大阪府,大阪市中央区,高麗橋４丁目３番７号淀屋橋総合会計内,,27,128,5410043,,,2023-07-28,清算の結了等,,,2015-10-05,1,,,,,コンステレーション,0
170,1122001005568,登記記録の閉鎖等,0,2023-07-31,2023-07-25,株式会社ナンブ,,株式会社,大阪府,東大阪市,若江西新町１丁目１１番３６号,,27,227,5780944,,,2023-07-25,清算の結了等,,,2015-10-05,1,,,,,ナンブ,0
174,1122001025797,登記記録の閉鎖等,0,2023-07-31,2023-07-24,株式会社Ｍｉｘ,,株式会社,大阪府,東大阪市,横小路町６丁目２番３２号,,27,227,5798063,,,2023-07-24,清算の結了等,,,2015-10-05,1,,,,,,0
189,1140002048080,登記記録の閉鎖等,0,2023-07-31,2023-07-20,有限会社かねた前田,,有限会社,兵庫県,姫路市,延末２９５番地姫路中央卸売市場内,,28,201,6700966,,,2023-07-20,清算の結了等,,,2015-10-05,1,,,,,カネタマエダ,0
197,1180001120233,登記記録の閉鎖等,0,2023-07-31,2023-07-24,株式会社エコイズム,,株式会社,愛知県,名古屋市中川区,九重町１０番８号,,23,110,4540808,,,2023-07-24,清算の結了等,,,2015-10-05,1,,,,,エコイズム,0
214,1260001026265,登記記録の閉鎖等,0,2023-07-31,2023-07-25,株式会社天政農園,,株式会社,岡山県,美作市,下庄町７５０番地３,,33,215,7070425,,,2023-07-25,清算の結了等,,,2015-10-05,1,,,,,テンマサノウエン,0
218,1290001046500,登記記録の閉鎖等,0,2023-07-31,2023-07-14,株式会社ミツカンパニー,,株式会社,福岡県,飯塚市,楽市６７９番地１,,40,205,8200074,,,2023-07-14,清算の結了等,,,2015-10-05,1,,,,,,0
261,1470002018356,登記記録の閉鎖等,0,2023-07-31,2023-07-27,有限会社開発水産,,有限会社,香川県,東かがわ市,引田１２１番地１,,37,207,7692901,,,2023-07-27,清算の結了等,,,2015-10-05,1,,,,,カイハツスイサン,0
277,2010003025355,登記記録の閉鎖等,0,2023-07-31,2023-07-14,合同会社ＲＡＦ,,合同会社,東京都,中央区,日本橋２丁目１番１７号丹生ビル２階,,13,102,1030027,,,2023-07-14,清算の結了等,,,2017-05-18,1,,,,,アールエーエフ,0
293,2010405011837,登記記録の閉鎖等,0,2023-07-31,2023-07-05,一般社団法人日本ビオホテル協会,,その他の設立登記法人,東京都,港区,六本木４丁目３番１１－２２３号,,13,103,1060032,,,2023-07-05,清算の結了等,,,2015-10-05,1,,,,,ニホンビオホテルキョウカイ,0
298,2010701033469,登記記録の閉鎖等,0,2023-07-31,2023-07-28,株式会社クリエンス,,株式会社,東京都,台東区,池之端１丁目１番１号池之端ビル７Ｆ,,13,106,1100008,,,2023-07-28,清算の結了等,,,2016-12-19,1,,,,,,0
310,2011101064617,登記記録の閉鎖等,0,2023-07-31,2023-07-07,株式会社ＡＺＴＡＲＴ,,株式会社,東京都,港区,南青山２丁目２番１５号ウィン青山９４２,,13,103,1070062,,,2023-07-07,清算の結了等,,,2015-10-05,1,,,,,アズタルト,0
314,2011103007838,登記記録の閉鎖等,0,2023-07-31,2023-07-27,合同会社カーサ加島２,,合同会社,東京都,新宿区,四谷２丁目９番地１５東京ユナイテッド綜合事務所内,,13,104,1600004,,,2023-07-27,清算の結了等,,,2018-04-18,1,,,,,カーサカシマツー,0
315,2011103007879,登記記録の閉鎖等,0,2023-07-31,2023-07-27,合同会社カーサ日本橋,,合同会社,東京都,新宿区,四谷２丁目９番地１５東京ユナイテッド綜合事務所内,,13,104,1600004,,,2023-07-27,清算の結了等,,,2018-05-11,1,,,,,カーサニッポンバシ,0
320,2011502006119,登記記録の閉鎖等,0,2023-07-31,2023-07-25,有限会社山口紙工所,00055859,有限会社,東京都,北区,浮間４丁目１６番１１号,,13,117,1150051,,,2023-07-25,清算の結了等,,,2015-10-05,1,,,,,,0
335,2020001094839,登記記録の閉鎖等,0,2023-07-31,2023-07-14,株式会社ライズ,,株式会社,神奈川県,横浜市西区,平沼１丁目１４番２０－３１７号,,14,103,2200023,,,2023-07-14,清算の結了等,,,2015-10-05,1,,,,,ライズ,0
345,2021002065829,登記記録の閉鎖等,0,2023-07-31,2023-07-24,有限会社ときわ屋呉服店,,有限会社,神奈川県,横須賀市,久里浜４丁目６番９号,,14,201,2390831,,,2023-07-24,清算の結了等,,,2015-10-05,1,,,,,,0
347,2030001152653,登記記録の閉鎖等,0,2023-07-31,2023-07-03,株式会社Ａｒｃａｎａ　Ｅｄｅｎ,,株式会社,埼玉県,戸田市,本町１丁目１０番１号スエタケビル４０１号室,,11,224,3350023,,,2023-07-03,清算の結了等,,,2023-03-06,1,,,,,アルカナエデン,0
350,2030002042127,登記記録の閉鎖等,0,2023-07-31,2023-07-06,有限会社三和自動車販売,,有限会社,埼玉県,加須市,上崎３４０番地９,,11,210,3470125,,,2023-07-06,清算の結了等,,,2015-10-05,1,,,,,サンワジドウシャハンバイ,0
366,2060001011179,登記記録の閉鎖等,0,2023-07-31,2023-07-12,株式会社日光バイオ環境研究所,,株式会社,栃木県,日光市,山口９６５番地３,,09,206,3212343,,,2023-07-12,清算の結了等,,,2015-10-05,1,,,,,ニッコウバイオカンキョウケンキュウショ,0
391,2120002016253,登記記録の閉鎖等,0,2023-07-31,2023-07-27,オルソサービス有限会社,,有限会社,大阪府,大阪市住之江区,北島３丁目４番２号,,27,125,5590014,,,2023-07-27,清算の結了等,,,2015-10-05,1,,,,,オルソサービス,0
410,2130002028396,登記記録の閉鎖等,0,2023-07-31,2023-07-11,有限会社ハピネス,,有限会社,京都府,船井郡京丹波町,須知新町２４番地,,26,407,6220213,,,2023-07-11,清算の結了等,,,2015-10-05,1,,,,,ハピネス,0
419,2140002021656,登記記録の閉鎖等,0,2023-07-31,2023-07-10,有限会社ミールスペース,,有限会社,兵庫県,神戸市兵庫区,和田宮通５丁目４番２２号,,28,105,6520863,,,2023-07-10,清算の結了等,,,2015-10-05,1,,,,,ミールスペース,0
434,2190001024671,登記記録の閉鎖等,0,2023-07-31,2023-07-18,株式会社ＹＡＳ工業,,株式会社,三重県,津市,芸濃町椋本１７９７番地１,,24,201,5142211,,,2023-07-18,清算の結了等,,,2017-05-23,1,,,,,ヤスコウギョウ,0
438,2240002052245,登記記録の閉鎖等,0,2023-07-31,2023-07-19,有限会社たかば,,有限会社,広島県,尾道市,御調町神１０５番地の２,,34,205,7220341,,,2023-07-19,清算の結了等,,,2015-10-05,1,,,,,タカバ,0
460,2320002002415,登記記録の閉鎖等,0,2023-07-31,2023-07-25,有限会社黒木組,,有限会社,大分県,大分市,大字宮河内４１４０番地,,44,201,8700276,,,2023-07-25,清算の結了等,,,2015-10-05,1,,,,,クロキグミ,0
475,2370201000248,登記記録の閉鎖等,0,2023-07-31,2023-07-20,セイチヨウ工業株式会社,,株式会社,宮城県,大崎市,古川西館３丁目６番８号,,04,215,9896156,,,2023-07-20,清算の結了等,,,2015-10-05,1,,,,,セイチヨウコウギョウ,0
478,2380002003341,登記記録の閉鎖等,0,2023-07-31,2023-07-24,有限会社北信オートサービス,,有限会社,福島県,福島市,南矢野目字徳元田北８番地の１２,,07,201,9600112,,,2023-07-24,清算の結了等,,,2015-10-05,1,,,,,ホクシンオートサービス,0
484,2400605000352,登記記録の閉鎖等,0,2023-07-31,2023-07-11,法華経信行会妙教寺,,その他の設立登記法人,岩手県,胆沢郡金ケ崎町,西根西檀原６０番地の１,,03,381,0294503,,,2023-07-11,清算の結了等,,,2015-10-05,1,,,,,ホケキョウシンギョウカイミョウキョウジ,0
488,2402701000475,登記記録の閉鎖等,0,2023-07-31,2023-06-28,株式会社デザインルーム,,株式会社,岩手県,大船渡市,猪川町字久名畑９８番地５,,03,203,0220004,,,2023-06-28,清算の結了等,,,2015-10-05,1,,,,,デザインルーム,0
492,2420001000509,登記記録の閉鎖等,0,2023-07-31,2023-07-14,株式会社善知鳥エステートエージェンシー,,株式会社,青森県,青森市,安方２丁目７番３６号,,02,201,0300803,,,2023-07-14,清算の結了等,,,2015-10-05,1,,,,,ウトウエステートエージェンシー,0
498,2470002018594,登記記録の閉鎖等,0,2023-07-31,2023-07-25,有限会社プラス,,有限会社,香川県,東かがわ市,落合４９０番地７,,37,207,7692512,,,2023-07-25,清算の結了等,,,2015-10-05,1,,,,,プラス,0
500,2480002003001,登記記録の閉鎖等,0,2023-07-31,2023-07-27,有限会社堤建築設計研究室,,有限会社,徳島県,徳島市,末広２丁目１番１１０号,,36,201,7700866,,,2023-07-27,清算の結了等,,,2015-10-05,1,,,,,ツツミケンチクセッケイケンキュウシツ,0
514,3010002004342,登記記録の閉鎖等,0,2023-07-31,2023-07-14,有限会社トライボ,,有限会社,東京都,文京区,関口１丁目４４番３号,,13,105,1120014,,,2023-07-14,清算の結了等,,,2015-10-05,1,,,,,トライボ,0
516,3010005027860,登記記録の閉鎖等,0,2023-07-31,2023-07-24,オスタラ下落合特定目的会社,,その他の設立登記法人,東京都,千代田区,麹町５丁目１番地ＮＫ真和ビル９階,,13,101,1020083,,,2023-07-24,清算の結了等,,,2017-12-18,1,,,,,オスタラシモオチアイ,0
520,3010401060580,登記記録の閉鎖等,0,2023-07-31,2023-07-07,株式会社キャリア・ビルド・インターナショナル,,株式会社,東京都,港区,港南２丁目１５番１号品川インターシティＡ棟,,13,103,1080075,,,2023-07-07,清算の結了等,,,2015-10-05,1,,,,,キャリアビルドインターナショナル,0
522,3010401076032,登記記録の閉鎖等,0,2023-07-31,2023-07-07,ロベルトカヴァリジャパン株式会社,,株式会社,東京都,港区,東麻布２丁目２３番３号,,13,103,1060044,,,2023-07-07,清算の結了等,,,2015-10-05,1,,,,,ロベルトカヴァリジャパン,0
556,3011003013118,登記記録の閉鎖等,0,2023-07-31,2023-07-21,合同会社ＢＬＵＥ　ＳＴＹＬＵＳ,,合同会社,東京都,渋谷区,神宮前６丁目２３番４号桑野ビル２Ｆ,,13,113,1500001,,,2023-07-21,清算の結了等,,,2021-07-26,1,,,,,ブルースタイラス,0
557,3011101057925,登記記録の閉鎖等,0,2023-07-31,2023-07-28,プレミアムリゾート株式会社,,株式会社,東京都,新宿区,市谷船河原町１番地市ヶ谷エスワンビル４Ｆ,,13,104,1620826,,,2023-07-28,清算の結了等,,,2015-10-05,1,,,,,プレミアムリゾート,0
558,3011101079416,登記記録の閉鎖等,0,2023-07-31,2023-07-27,株式会社ＦＭＷプロモーション,,株式会社,東京都,新宿区,西新宿４丁目１番１０号,,13,104,1600023,,,2023-07-27,清算の結了等,,,2017-01-31,1,,,,,,0
564,3011103007837,登記記録の閉鎖等,0,2023-07-31,2023-07-27,合同会社カーサ加島１,,合同会社,東京都,新宿区,四谷２丁目９番地１５東京ユナイテッド綜合事務所内,,13,104,1600004,,,2023-07-27,清算の結了等,,,2018-04-18,1,,,,,カーサカシマワン,0
575,3011702014267,登記記録の閉鎖等,0,2023-07-31,2023-07-28,有限会社アリエス,,有限会社,東京都,江戸川区,西一之江２丁目１０番３号,,13,123,1320023,,,2023-07-28,清算の結了等,,,2015-10-05,1,,,,,アリエス,0
581,3012801019090,登記記録の閉鎖等,0,2023-07-31,2023-07-24,株式会社Ｅｓｓｅｎｃ’ｚ,,株式会社,東京都,国分寺市,西町４丁目３０番地３５－１０３,,13,214,1850035,,,2023-07-24,清算の結了等,,,2018-11-13,1,,,,,エッセンシーズ,0
598,3021002005008,登記記録の閉鎖等,0,2023-07-31,2023-07-27,森井商事有限会社,,有限会社,神奈川県,藤沢市,本鵠沼１丁目１６番３３号,,14,205,2510028,,,2023-07-27,清算の結了等,,,2015-10-05,1,,,,,モリイショウジ,0
609,3030002034750,登記記録の閉鎖等,0,2023-07-31,2023-07-04,有限会社あっぷる工房,,有限会社,埼玉県,入間市,豊岡５丁目２番３５－４０８号,,11,225,3580003,,,2023-07-04,清算の結了等,,,2015-10-05,1,,,,,アップルコウボウ,0
612,3030002121689,登記記録の閉鎖等,0,2023-07-31,2023-07-05,武峰産業有限会社,,有限会社,埼玉県,秩父市,日野田町１丁目１０番１５号,,11,207,3680034,,,2023-07-05,清算の結了等,,,2015-10-05,1,,,,,ブホウサンギョウ,0
617,3040001027143,登記記録の閉鎖等,0,2023-07-31,2023-07-05,株式会社ナガノ,,株式会社,千葉県,市川市,国府台５丁目７番１３号,,12,203,2720827,,,2023-07-05,清算の結了等,,,2015-10-05,1,,,,,ナガノ,0
640,3060003003719,登記記録の閉鎖等,0,2023-07-31,2023-07-12,合同会社恵比寿屋,,合同会社,栃木県,足利市,福富町１７５３番地４,,09,202,3260331,,,2023-07-12,清算の結了等,,,2021-05-25,1,,,,,エビスヤ,0
642,3070001014080,登記記録の閉鎖等,0,2023-07-31,2023-07-25,群馬装飾株式会社,,株式会社,群馬県,伊勢崎市,境栄２番地の３,,10,204,3700122,,,2023-07-25,清算の結了等,,,2015-10-05,1,,,,,グンマソウショク,0
644,3080001004270,登記記録の閉鎖等,0,2023-07-31,2023-07-26,浜名水産株式会社,,株式会社,静岡県,静岡市葵区,呉服町１丁目２０番地２２１２号,,22,101,4200031,,,2023-07-26,清算の結了等,,,2015-10-05,1,,,,,ハマナスイサン,0
674,3120003008199,登記記録の閉鎖等,0,2023-07-31,2023-07-14,合同会社あいのり,,合同会社,大阪府,守口市,橋波東之町４丁目８番７号,,27,209,5700031,,,2023-07-14,清算の結了等,,,2015-10-05,1,,,,,アイノリ,0
694,3122001033492,登記記録の閉鎖等,0,2023-07-31,2023-07-26,株式会社シンエイ,,株式会社,大阪府,八尾市,北亀井町１丁目２番１６号,,27,212,5810066,,,2023-07-26,清算の結了等,,,2020-03-09,1,,,,,シンエイ,0
698,3130002033404,登記記録の閉鎖等,0,2023-07-31,2023-07-12,有限会社高倉書店,,有限会社,京都府,綾部市,西町三丁目北大坪１９番地,,26,203,6230016,,,2023-07-12,清算の結了等,,,2015-10-05,1,,,,,タカクラショテン,0
704,3140001065570,登記記録の閉鎖等,0,2023-07-31,2023-07-27,株式会社兵庫マリン,,株式会社,兵庫県,姫路市,飾磨区今在家３丁目１０３番地,,28,201,6728079,,,2023-07-27,清算の結了等,,,2015-10-05,1,,,,,ヒョウゴマリン,0
708,3140001111944,登記記録の閉鎖等,0,2023-07-31,2023-07-27,株式会社Ｓｅａ　Ｈｏｒｉｚｏｎ,,株式会社,兵庫県,明石市,本町１丁目４番２６号,,28,203,6730892,,,2023-07-27,清算の結了等,,,2018-11-22,1,,,,,シーホライゾン,0
732,3240002021182,登記記録の閉鎖等,0,2023-07-31,2023-07-24,有限会社サンワコーポレーション,,有限会社,広島県,広島市安佐南区,長束２丁目２０番７－１３０２号,,34,105,7310135,,,2023-07-24,清算の結了等,,,2015-10-05,1,,,,,,0
735,3240003004145,登記記録の閉鎖等,0,2023-07-31,2023-07-24,花尾測量社合同会社,,合同会社,広島県,江田島市,大柿町大君１０６２４番地５７,,34,215,7372212,,,2023-07-24,清算の結了等,,,2019-02-07,1,,,,,ハナオソクリョウシャ,0
755,3350002003335,登記記録の閉鎖等,0,2023-07-31,2023-07-24,有限会社中原設計,,有限会社,宮崎県,宮崎市,和知川原３丁目１０２番地,,45,201,8800023,,,2023-07-24,清算の結了等,,,2015-10-05,1,,,,,ナカハラセッケイ,0
765,3390002015632,登記記録の閉鎖等,0,2023-07-31,2023-07-25,有限会社佐藤工務店,,有限会社,山形県,寒河江市,大字中郷１５７１番地,,06,206,9910065,,,2023-07-25,清算の結了等,,,2015-10-05,1,,,,,サトウコウムテン,0
769,3420001007610,登記記録の閉鎖等,0,2023-07-31,2023-07-18,株式会社ミュー,,株式会社,青森県,八戸市,長根１丁目１７番１２号,,02,203,0310077,,,2023-07-18,清算の結了等,,,2015-10-05,1,,,,,ミュー,0
775,3430005001666,登記記録の閉鎖等,0,2023-07-31,2023-07-04,医療法人社団川村小児科医院,,その他の設立登記法人,北海道,札幌市豊平区,月寒西二条１０丁目２番７５号,,01,105,0620022,,,2023-07-04,清算の結了等,,,2015-10-05,1,,,,,,0
778,4010001051913,登記記録の閉鎖等,0,2023-07-31,2023-07-19,東洋倉庫株式会社,,株式会社,東京都,中央区,銀座４丁目１０番５号,,13,102,1040061,,,2023-07-19,清算の結了等,,,2015-10-05,1,,,,,トウヨウソウコ,0
784,4010001174565,登記記録の閉鎖等,0,2023-07-31,2023-07-28,ブックマーク・エフ株式会社,,株式会社,東京都,台東区,上野７丁目３番９号,,13,106,1100005,,,2023-07-28,清算の結了等,,,2016-03-30,1,,,,,ブックマークエフ,0
800,4010601057260,登記記録の閉鎖等,0,2023-07-31,2023-07-25,株式会社キイロイジュース,,株式会社,東京都,江東区,三好１丁目８番４号ストーク清澄庭園１０３,,13,108,1350022,,,2023-07-25,清算の結了等,,,2020-04-27,1,,,,,キイロイジュース,0
829,4011005009154,登記記録の閉鎖等,0,2023-07-31,2023-07-19,一般社団法人臨床診断医学統合学会,,その他の設立登記法人,東京都,渋谷区,本町３丁目２番９号,,13,113,1510071,,,2023-07-19,清算の結了等,,,2021-08-06,1,,,,,リンショウシンダンイガクトウゴウガッカイ,0
832,4011101094934,登記記録の閉鎖等,0,2023-07-31,2023-07-18,株式会社アイムイン,,株式会社,東京都,豊島区,南大塚３丁目３６番７号南大塚Ｔ＆Ｔビル６Ｆ,,13,116,1700005,,,2023-07-18,清算の結了等,,,2021-04-26,1,,,,,アイムイン,0
834,4011201020451,登記記録の閉鎖等,0,2023-07-31,2023-07-27,韓世株式会社,,株式会社,東京都,中野区,若宮３丁目２８番１２号ワカサコーポ２０２号室,,13,114,1650033,,,2023-07-27,清算の結了等,,,2018-02-15,1,,,,,カンセイ,0
846,4012801009702,登記記録の閉鎖等,0,2023-07-31,2023-07-18,株式会社Ｖ・Ａフロンティア,,株式会社,神奈川県,川崎市宮前区,水沢１丁目１番１号,,14,136,2160012,,,2023-07-18,清算の結了等,,,2015-10-05,1,,,,,ブイエーフロンティア,0
847,4013301010910,登記記録の閉鎖等,0,2023-07-31,2023-07-20,株式会社平野製版,,株式会社,東京都,豊島区,南大塚３丁目２８番１２号,,13,116,1700005,,,2023-07-20,清算の結了等,,,2015-10-05,1,,,,,ヒラノセイハン,0
859,4020002093350,登記記録の閉鎖等,0,2023-07-31,2023-07-14,有限会社三好ガラス,,有限会社,神奈川県,川崎市多摩区,生田１丁目２８番１５号,,14,135,2140038,,,2023-07-14,清算の結了等,,,2015-10-05,1,,,,,ミヨシガラス,0
861,4021001029411,登記記録の閉鎖等,0,2023-07-31,2023-07-20,大谷出版株式会社,,株式会社,神奈川県,大和市,深見台２丁目４番２号,,14,213,2420013,,,2023-07-20,清算の結了等,,,2015-10-05,1,,,,,,0
862,4021001030963,登記記録の閉鎖等,0,2023-07-31,2023-07-14,株式会社グリーズ,,株式会社,神奈川県,横浜市港北区,新横浜３丁目６番地１新横浜ＳＲビル９Ｆ,,14,109,2220033,,,2023-07-14,清算の結了等,,,2015-10-05,1,,,,,グリーズ,0
863,4021002006434,登記記録の閉鎖等,0,2023-07-31,2023-07-24,有限会社アクショントゥールズ,,有限会社,神奈川県,藤沢市,片瀬海岸１丁目９番１３－４１０号,,14,205,2510035,,,2023-07-24,清算の結了等,,,2015-10-05,1,,,,,,0
877,4030002039930,登記記録の閉鎖等,0,2023-07-31,2023-07-06,有限会社森田畳工業所,,有限会社,埼玉県,幸手市,大字惣新田１６番地,,11,240,3400133,,,2023-07-06,清算の結了等,,,2015-10-05,1,,,,,モリタタタミコウギョウショ,0
884,4040001076437,登記記録の閉鎖等,0,2023-07-31,2023-07-04,株式会社メディウムプラス,,株式会社,千葉県,市川市,本北方１丁目５０番５,,12,203,2720816,,,2023-07-04,清算の結了等,,,2015-10-05,1,,,,,メディウムプラス,0
886,4040001089439,登記記録の閉鎖等,0,2023-07-31,2023-07-07,株式会社Ｃｏｎｎｅｃｔｉｏｎ,,株式会社,千葉県,千葉市若葉区,小倉町１７５４番地２,,12,104,2640007,,,2023-07-07,清算の結了等,,,2015-10-05,1,,,,,コネクション,0
887,4040001094406,登記記録の閉鎖等,0,2023-07-31,2023-07-04,株式会社セーフティーパートナーズ,,株式会社,千葉県,千葉市中央区,弁天１丁目２１番３号,,12,101,2600045,,,2023-07-04,清算の結了等,,,2016-03-09,1,,,,,セーフティーパートナーズ,0
892,4040002101342,登記記録の閉鎖等,0,2023-07-31,2023-07-04,有限会社わかしお交通,,有限会社,千葉県,鴨川市,東２２７番地１,,12,223,2992857,,,2023-07-04,清算の結了等,,,2015-10-05,1,,,,,ワカシオコウツウ,0
902,4060001002399,登記記録の閉鎖等,0,2023-07-31,2023-07-12,株式会社スペース・ピア,,株式会社,栃木県,宇都宮市,滝の原１丁目３番５６号,,09,201,3200846,,,2023-07-12,清算の結了等,,,2015-10-05,1,,,,,スペースピア,0
913,4080102002387,登記記録の閉鎖等,0,2023-07-31,2023-07-28,有限会社テスタロツサ,,有限会社,静岡県,沼津市,松長１０６５番地,,22,203,4100874,,,2023-07-28,清算の結了等,,,2015-10-05,1,,,,,テスタロッサ,0
918,4120001209582,登記記録の閉鎖等,0,2023-07-31,2023-07-26,リープホールディングス株式会社,,株式会社,大阪府,大阪市北区,大深町３番１号グランフロント大阪ナレッジキャピタル８階Ｋ８１９,,27,127,5300011,,,2023-07-26,清算の結了等,,,2017-11-21,1,,,,,リープホールディングス,0
931,4120902011186,登記記録の閉鎖等,0,2023-07-31,2023-07-21,有限会社フォルテ,,有限会社,大阪府,高槻市,上土室３丁目１３番３号,,27,207,5691044,,,2023-07-21,清算の結了等,,,2015-10-05,1,,,,,フォルテ,0
939,4130003006440,登記記録の閉鎖等,0,2023-07-31,2023-07-11,合同会社セントラル総研,,合同会社,京都府,京都市下京区,西七条比輪田町５－１アーネスト西大路２Ｆ,,26,106,6008882,,,2023-07-11,清算の結了等,,,2020-03-05,1,,,,,セントラルソウケン,0
940,4130003008305,登記記録の閉鎖等,0,2023-07-31,2023-07-12,合同会社アンパサンド,,合同会社,京都府,京都市下京区,朱雀宝蔵町４４番地協栄ビル２階京都朱雀スタジオ,,26,106,6008846,,,2023-07-12,清算の結了等,,,2022-11-14,1,,,,,アンパサンド,0
948,4140005023111,登記記録の閉鎖等,0,2023-07-31,2023-07-14,特定非営利活動法人コミュニテイカフェ河童のさんぽ道,,その他の設立登記法人,兵庫県,神崎郡福崎町,西田原１０２０番地,,28,443,6792204,,,2023-07-14,清算の結了等,,,2016-08-15,1,,,,,コミュニティカフェカッパノサンポミチ,0
949,4160001011299,登記記録の閉鎖等,0,2023-07-31,2023-07-26,株式会社オウミフードサービス,,株式会社,滋賀県,近江八幡市,大中町５７９番地,,25,204,5230802,,,2023-07-26,清算の結了等,,,2015-10-05,1,,,,,オウミフードサービス,0
961,4190002023530,登記記録の閉鎖等,0,2023-07-31,2023-07-18,有限会社元成,,有限会社,三重県,四日市市,波木南台３丁目１３番地,,24,202,5100963,,,2023-07-18,清算の結了等,,,2015-10-05,1,,,,,,0
962,4200001009693,登記記録の閉鎖等,0,2023-07-31,2023-07-26,桔梗フードサービス株式会社,,株式会社,岐阜県,岐阜市,福光東２丁目３番２６号,,21,201,5020813,,,2023-07-26,清算の結了等,,,2015-10-05,1,,,,,キキョウフードサービス,0
973,4240002053737,登記記録の閉鎖等,0,2023-07-31,2023-07-24,三原葬祭センター有限会社,,有限会社,広島県,三原市,糸崎１丁目５番１２号,,34,204,7290324,,,2023-07-24,清算の結了等,,,2015-10-05,1,,,,,ミハラソウサイセンター,0
984,4290802007838,登記記録の閉鎖等,0,2023-07-31,2023-07-25,有限会社コウタキ,,有限会社,福岡県,北九州市小倉北区,片野１丁目１番５８号,,40,106,8020064,,,2023-07-25,合併による解散等,7290001094196,令和５年７月１日福岡県小郡市小郡２４１３番地の１株式会社パーセントプラス（7290001094196）に合併し解散,2015-10-05,1,,,,,コウタキ,0
986,4310002009500,登記記録の閉鎖等,0,2023-07-31,2023-07-27,有限会社かいだ,,有限会社,長崎県,佐世保市,黒髪町５０番２号,,42,202,8571152,,,2023-07-27,清算の結了等,,,2015-10-05,1,,,,,カイダ,0
999,4380001019691,登記記録の閉鎖等,0,2023-07-31,2023-07-24,株式会社鈴木電気,,株式会社,福島県,郡山市,安積町日出山字大洲河原５５番地２,,07,203,9630101,,,2023-07-24,清算の結了等,,,2015-10-05,1,,,,,スズキデンキ,0
1000,4380001027661,登記記録の閉鎖等,0,2023-07-31,2023-07-24,株式会社東栄プラント,,株式会社,福島県,いわき市,平下荒川字剃町９３番地の２１,,07,204,9708032,,,2023-07-24,清算の結了等,,,2017-01-12,1,,,,,トウエイプラント,0
1017,4490001006992,登記記録の閉鎖等,0,2023-07-31,2023-07-12,株式会社Ｐａｉｎ・Ｓｔｅｐ,,株式会社,高知県,高知市,中万々７０番地２４,,39,201,7800972,,,2023-07-12,清算の結了等,,,2015-10-05,1,,,,,パンステップ,0
1030,5010003024420,登記記録の閉鎖等,0,2023-07-31,2023-07-14,合同会社五条,,合同会社,東京都,千代田区,霞が関３丁目２番５号,,13,101,1000013,,,2023-07-14,清算の結了等,,,2016-11-22,1,,,,,ゴジョウ,0
1034,5010005025219,登記記録の閉鎖等,0,2023-07-31,2023-07-24,オスタラ・ヘルスケア・ワン特定目的会社,,その他の設立登記法人,東京都,千代田区,麹町５丁目１番地ＮＫ真和ビル９階,,13,101,1020083,,,2023-07-24,清算の結了等,,,2016-04-06,1,,,,,オスタラヘルスケアワン,0
1035,5010005029021,登記記録の閉鎖等,0,2023-07-31,2023-07-24,オスタラ君津特定目的会社,,その他の設立登記法人,東京都,千代田区,麹町５丁目１番地ＮＫ真和ビル９階,,13,101,1020083,,,2023-07-24,清算の結了等,,,2018-08-30,1,,,,,オスタラキミツ,0
1050,5010402018667,登記記録の閉鎖等,0,2023-07-31,2023-07-06,有限会社エリア企画,,有限会社,東京都,港区,芝浦３丁目７番１３号,,13,103,1080023,,,2023-07-06,清算の結了等,,,2015-10-05,1,,,,,エリアキカク,0
1062,5010802012311,登記記録の閉鎖等,0,2023-07-31,2023-07-26,有限会社フジレイアウト,,有限会社,東京都,大田区,中馬込１丁目８番２１号,,13,111,1430027,,,2023-07-26,清算の結了等,,,2015-10-05,1,,,,,フジレイアウト,0
1094,5011801036284,登記記録の閉鎖等,0,2023-07-31,2023-07-27,株式会社フロント,,株式会社,東京都,足立区,江北５丁目９番２４号,,13,121,1230872,,,2023-07-27,清算の結了等,,,2019-06-21,1,,,,,フロント,0
1098,5012402018358,登記記録の閉鎖等,0,2023-07-31,2023-07-27,有限会社魚政,,有限会社,東京都,三鷹市,下連雀３丁目２８番１号,,13,204,1810013,,,2023-07-27,清算の結了等,,,2015-10-05,1,,,,,ウオマサ,0
1108,5020001013093,登記記録の閉鎖等,0,2023-07-31,2023-07-18,昇栄株式会社,,株式会社,神奈川県,横浜市西区,伊勢町３丁目１４３番地,,14,103,2200045,,,2023-07-18,清算の結了等,,,2015-10-05,1,,,,,ショウエイ,0
1122,5030001128774,登記記録の閉鎖等,0,2023-07-31,2023-07-05,株式会社Ｋ＆Ｂフレッシュ,,株式会社,埼玉県,川口市,大字安行領家８４０番地－１,,11,203,3340058,,,2023-07-05,清算の結了等,,,2018-12-19,1,,,,,ケーアンドビーフレッシュ,0
1124,5030001144078,登記記録の閉鎖等,0,2023-07-31,2023-06-26,株式会社ルンペン,,株式会社,埼玉県,三郷市,鷹野４丁目３６番地１,,11,237,3410035,,,2023-06-26,清算の結了等,,,2021-09-01,1,,,,,ルンペン,0
1136,5040001028866,登記記録の閉鎖等,0,2023-07-31,2023-07-06,ベイスパ市川ＣＣ株式会社,,株式会社,千葉県,市川市,上妙典１５５４番地,,12,203,2720012,,,2023-07-06,清算の結了等,,,2015-10-05,1,,,,,ベイスパイチカワシーシー,0
1144,5040002101052,登記記録の閉鎖等,0,2023-07-31,2023-07-04,有限会社房総ツーリスト,,有限会社,千葉県,鴨川市,横渚１３３番地,,12,223,2960001,,,2023-07-04,清算の結了等,,,2015-10-05,1,,,,,ボウソウツーリスト,0
1150,5050005002123,登記記録の閉鎖等,0,2023-07-31,2023-07-26,税理士法人しまだ,,その他の設立登記法人,茨城県,水戸市,元吉田町１７４５番地６７,,08,201,3100836,,,2023-07-26,清算の結了等,,,2015-10-05,1,,,,,シマダ,0
1160,5080401018901,登記記録の閉鎖等,0,2023-07-31,2023-07-31,株式会社フレッシュカンパニー,,株式会社,静岡県,浜松市中区,佐鳴台１丁目６番３０号,,22,131,4328021,,,2023-07-31,清算の結了等,,,2015-10-05,1,,,,,フレッシュカンパニー,0
1166,5090002006775,登記記録の閉鎖等,0,2023-07-31,2023-07-25,有限会社ユキ,,有限会社,山梨県,甲府市,千塚１丁目２番６０号,,19,201,4000074,,,2023-07-25,清算の結了等,,,2015-10-05,1,,,,,ユキ,0
1169,5100002004463,登記記録の閉鎖等,0,2023-07-31,2023-07-25,フレッシュ魚一有限会社,,有限会社,長野県,長野市,松代町松代１２２６番地,,20,201,3811231,,,2023-07-25,清算の結了等,,,2015-10-05,1,,,,,フレッシュウオイチ,0
1173,5110001036614,登記記録の閉鎖等,0,2023-07-31,2023-07-20,株式会社ＫＹサービス,,株式会社,新潟県,三条市,南新保２番２１号,,15,204,9550862,,,2023-07-20,清算の結了等,,,2022-04-25,1,,,,,ケイワイサービス,0
1175,5120001069919,登記記録の閉鎖等,0,2023-07-31,2023-07-24,二葉メリヤス興業株式会社,,株式会社,大阪府,大阪市北区,黒崎町３番８号,,27,127,5300023,,,2023-07-24,清算の結了等,,,2015-10-05,1,,,,,フタバメリヤスコウギョウ,0
1177,5120001137089,登記記録の閉鎖等,0,2023-07-31,2023-07-24,株式会社奥村,,株式会社,大阪府,大阪市福島区,海老江１丁目４番３号,,27,103,5530001,,,2023-07-24,清算の結了等,,,2015-10-05,1,,,,,オクムラ,0
1191,5122001032427,登記記録の閉鎖等,0,2023-07-31,2023-07-21,株式会社フジアシスト,,株式会社,大阪府,東大阪市,中野２丁目９番２６号,,27,227,5780913,,,2023-07-21,清算の結了等,,,2019-03-25,1,,,,,フジアシスト,0
1198,5140001048771,登記記録の閉鎖等,0,2023-07-31,2023-07-26,寿商事株式会社,,株式会社,兵庫県,尼崎市,東難波町３丁目８番１０号,,28,202,6600892,,,2023-07-26,清算の結了等,,,2015-10-05,1,,,,,コトブキショウジ,0
1204,5150001001110,登記記録の閉鎖等,0,2023-07-31,2023-07-27,株式会社セイコー高の原,,株式会社,奈良県,奈良市,朱雀５丁目２番地の２平城朱雀第１住宅３９－２０１,,29,201,6310806,,,2023-07-27,清算の結了等,,,2015-10-05,1,,,,,セイコータカノハラ,0
1206,5160001016132,登記記録の閉鎖等,0,2023-07-31,2023-07-26,ディー・ドット農場株式会社,,株式会社,滋賀県,守山市,播磨田町１１８４番地９,,25,207,5240012,,,2023-07-26,清算の結了等,,,2015-10-05,1,,,,,ディードットノウジョウ,0
1214,5180002076735,登記記録の閉鎖等,0,2023-07-31,2023-07-24,有限会社大一ホーム,,有限会社,愛知県,一宮市,大毛字弘法寺１４番地２,,23,203,4910132,,,2023-07-24,清算の結了等,,,2015-10-05,1,,,,,ダイイチホーム,0
1228,5240002001067,登記記録の閉鎖等,0,2023-07-31,2023-07-24,有限会社池田工業,,有限会社,広島県,広島市中区,国泰寺町２丁目４番１２－１３０１号,,34,101,7300042,,,2023-07-24,清算の結了等,,,2015-10-05,1,,,,,イケダコウギョウ,0
1229,5240002011611,登記記録の閉鎖等,0,2023-07-31,2023-07-24,有限会社長尾商店,,有限会社,広島県,広島市東区,牛田中１丁目７番８号,,34,102,7320065,,,2023-07-24,清算の結了等,,,2015-10-05,1,,,,,ナガオショウテン,0
1233,5250002011940,登記記録の閉鎖等,0,2023-07-31,2023-07-10,有限会社コスモポリタン,,有限会社,山口県,下関市,梶栗町５丁目１５番２１号,,35,201,7596614,,,2023-07-10,清算の結了等,,,2015-10-05,1,,,,,コスモポリタン,0
1234,5260002015123,登記記録の閉鎖等,0,2023-07-31,2023-07-25,有限会社はら,,有限会社,岡山県,岡山市南区,迫川１１６６番地の１５,,33,104,7091211,,,2023-07-25,清算の結了等,,,2015-10-05,1,,,,,ハラ,0
1240,5290001068301,登記記録の閉鎖等,0,2023-07-31,2023-07-14,株式会社アーモンド,,株式会社,福岡県,福岡市中央区,警固１丁目１４番１号,,40,133,8100023,,,2023-07-14,清算の結了等,,,2015-10-05,1,,,,,アーモンド,0
1267,5380001018643,登記記録の閉鎖等,0,2023-07-31,2023-07-14,三和建設株式会社,,株式会社,福島県,喜多方市,塩川町字東栄町一丁目７番地の２１,,07,208,9693512,,,2023-07-14,合併による解散等,1380001025271,令和５年７月１日福島県会津若松市幕内南町１３番２８号株式会社イデア（1380001025271）に合併し解散,2015-10-05,1,,,,,サンワケンセツ,0
1268,5380002010450,登記記録の閉鎖等,0,2023-07-31,2023-07-24,有限会社滝田商店,,有限会社,福島県,郡山市,香久池１丁目２１番１号,,07,203,9638833,,,2023-07-24,清算の結了等,,,2015-10-05,1,,,,,タキタショウテン,0
1269,5380005009250,登記記録の閉鎖等,0,2023-07-31,2023-07-24,協同組合喜多方ダイヤスタンプ,,その他の設立登記法人,福島県,喜多方市,字沢ノ免７３３１番地,,07,208,9660827,,,2023-07-24,清算の結了等,,,2015-10-05,1,,,,,キタカタダイヤスタンプ,0
1280,5430001046572,登記記録の閉鎖等,0,2023-07-31,2023-07-20,トリコ商事株式会社,,株式会社,北海道,札幌市中央区,宮の森一条９丁目１番３０－３０１号,,01,101,0640951,,,2023-07-20,清算の結了等,,,2015-10-05,1,,,,,トリコショウジ,0
1284,5450002011342,登記記録の閉鎖等,0,2023-07-31,2023-07-26,有限会社下田モータース,,有限会社,北海道,天塩郡天塩町,海岸通８丁目７７番地の１,,01,487,0983306,,,2023-07-26,清算の結了等,,,2015-10-05,1,,,,,シモダモータース,0
1286,5470002000467,登記記録の閉鎖等,0,2023-07-31,2023-07-26,有限会社山本石材店,,有限会社,香川県,高松市,牟礼町牟礼３０４０番地２,,37,201,7610121,,,2023-07-26,清算の結了等,,,2015-10-05,1,,,,,ヤマモトセキザイテン,0
1302,6010002011435,登記記録の閉鎖等,0,2023-07-31,2023-07-18,有限会社スタジオトラミーケ,,有限会社,東京都,千代田区,六番町４番地１１,,13,101,1020085,,,2023-07-18,清算の結了等,,,2015-10-05,1,,,,,スタジオトラミーケ,0
1318,6010402018906,登記記録の閉鎖等,0,2023-07-31,2023-07-07,有限会社東京グランドホテル,,有限会社,東京都,港区,芝２丁目５番２号,,13,103,1050014,,,2023-07-07,清算の結了等,,,2015-10-05,1,,,,,トウキョウグランドホテル,0
1365,6012402013151,登記記録の閉鎖等,0,2023-07-31,2023-07-28,有限会社岡元建具店,,有限会社,東京都,狛江市,西野川２丁目３７番９号,,13,219,2010001,,,2023-07-28,清算の結了等,,,2015-10-05,1,,,,,,0
1369,6013301001668,登記記録の閉鎖等,0,2023-07-31,2023-07-21,株式会社室山商事,,株式会社,東京都,豊島区,巣鴨４丁目３２番２号,,13,116,1700002,,,2023-07-21,清算の結了等,,,2015-10-05,1,,,,,ムロヤマショウジ,0
1374,6020001066611,登記記録の閉鎖等,0,2023-07-31,2023-07-18,株式会社大栄商会,,株式会社,神奈川県,川崎市高津区,子母口３５７番地,,14,134,2130023,,,2023-07-18,清算の結了等,,,2015-10-05,1,,,,,ダイエイショウカイ,0
1387,6030001091451,登記記録の閉鎖等,0,2023-07-31,2023-06-30,介護タクシー株式会社,,株式会社,埼玉県,秩父郡横瀬町,大字横瀬４５４９番地１,,11,361,3680072,,,2023-06-30,清算の結了等,,,2015-10-05,1,,,,,カイゴタクシー,0
1396,6030002059290,登記記録の閉鎖等,0,2023-07-31,2023-07-06,有限会社ムトウ電設,,有限会社,埼玉県,朝霞市,膝折町１丁目５番１８号,,11,227,3510014,,,2023-07-06,清算の結了等,,,2015-10-05,1,,,,,ムトウデンセツ,0
1397,6030002083530,登記記録の閉鎖等,0,2023-07-31,2023-07-07,有限会社ビック,,有限会社,埼玉県,北本市,深井１丁目７６番地２,,11,233,3640001,,,2023-07-07,清算の結了等,,,2015-10-05,1,,,,,ビック,0
1400,6040001004825,登記記録の閉鎖等,0,2023-07-31,2023-07-05,千葉中央魚類株式会社,,株式会社,千葉県,千葉市美浜区,高浜２丁目２番１号,,12,106,2610003,,,2023-07-05,清算の結了等,,,2015-10-05,1,,,,,チバチュウオウギョルイ,0
1401,6040001007844,登記記録の閉鎖等,0,2023-07-31,2023-07-06,株式会社吉元測量事務所,,株式会社,千葉県,千葉市若葉区,下田町１３６９番地２,,12,104,2650076,,,2023-07-06,清算の結了等,,,2015-10-05,1,,,,,ヨシモトソクリョウジムショ,0
1411,6040005013582,登記記録の閉鎖等,0,2023-07-31,2023-07-05,一般社団法人アフガニスタン文化協会,,その他の設立登記法人,千葉県,四街道市,大日今宿１９０１番地,,12,228,2840001,,,2023-07-05,清算の結了等,,,2015-10-05,1,,,,,アフガニスタンブンカキョウカイ,0
1422,6080001005191,登記記録の閉鎖等,0,2023-07-31,2023-07-28,村井建設株式会社,,株式会社,静岡県,静岡市駿河区,中田本町１９番１０－３０１号,,22,102,4228043,,,2023-07-28,清算の結了等,,,2015-10-05,1,,,,,ムライケンセツ,0
1423,6080101000753,登記記録の閉鎖等,0,2023-07-31,2023-07-28,株式会社シンエイ創建,,株式会社,静岡県,沼津市,大平２８５６番地の２,,22,203,4100821,,,2023-07-28,清算の結了等,,,2015-10-05,1,,,,,シンエイソウケン,0
1428,6080402005823,登記記録の閉鎖等,0,2023-07-31,2023-07-31,有限会社なんでもプラザ,,有限会社,静岡県,浜松市北区,細江町気賀４８５番１ハイツベア細江１０６,,22,135,4311305,,,2023-07-31,清算の結了等,,,2015-10-05,1,,,,,ナンデモプラザ,0
1445,6130001028889,登記記録の閉鎖等,0,2023-07-31,2023-07-10,株式会社樂プランニング,,株式会社,京都府,京都市北区,鷹峯土天井町３８番８,,26,101,6038465,,,2023-07-10,清算の結了等,,,2015-10-05,1,,,,,,0
1448,6130001046890,登記記録の閉鎖等,0,2023-07-31,2023-07-12,株式会社ＣＬＯＶＥＲ　ＴＩＮＴ　ＶＥＩＬ,,株式会社,京都府,京都市下京区,西七条八幡町３２番地２,,26,106,6008888,,,2023-07-12,清算の結了等,,,2015-10-05,1,,,,,クローバーティントベール,0
1469,6170001015974,登記記録の閉鎖等,0,2023-07-31,2023-07-27,株式会社ヒデ・ファクトリー,,株式会社,和歌山県,和歌山市,小倉４１１番地７,,30,201,6496261,,,2023-07-27,清算の結了等,,,2020-03-03,1,,,,,ヒデファクトリー,0
1479,6180302014773,登記記録の閉鎖等,0,2023-07-31,2023-07-19,有限会社大竹製作所,,有限会社,愛知県,豊川市,南大通５丁目５２番地,,23,207,4420889,,,2023-07-19,清算の結了等,,,2015-10-05,1,,,,,オオタケセイサクショ,0
1480,6180302018196,登記記録の閉鎖等,0,2023-07-31,2023-07-21,有限会社工藤設計事務所,,有限会社,愛知県,刈谷市,板倉町３丁目３番地１,,23,210,4480801,,,2023-07-21,清算の結了等,,,2015-10-05,1,,,,,クドウセッケイジムショ,0
1493,6280002003117,登記記録の閉鎖等,0,2023-07-31,2023-07-21,有限会社宍道タクシー,,有限会社,島根県,松江市,宍道町宍道８７２番地,,32,201,6990401,,,2023-07-21,合併による解散等,1270001005029,令和５年６月３０日鳥取県倉吉市巌城９９７番地３流通株式会社（1270001005029）に合併し解散,2015-10-05,1,,,,,シンジタクシー,0
1496,6290001066469,登記記録の閉鎖等,0,2023-07-31,2023-07-14,株式会社ＭＶ－ＬＩＮＥ,,株式会社,福岡県,福岡市博多区,博多駅東１丁目１－３３はかた近代ビル２Ｆ,,40,132,8120013,,,2023-07-14,清算の結了等,,,2015-10-05,1,,,,,エムヴイライン,0
1510,6320001001554,登記記録の閉鎖等,0,2023-07-31,2023-07-27,第一造園土木株式会社,,株式会社,大分県,大分市,三佐３丁目１１番２１号,,44,201,8700108,,,2023-07-27,清算の結了等,,,2015-10-05,1,,,,,,0
1514,6330002024000,登記記録の閉鎖等,0,2023-07-31,2023-07-12,有限会社浦中水産,,有限会社,熊本県,宇城市,不知火町松合２７６９番地の３,,43,213,8693472,,,2023-07-12,清算の結了等,,,2015-10-05,1,,,,,ウラナカスイサン,0
1534,6430001035401,登記記録の閉鎖等,0,2023-07-31,2023-07-19,株式会社ＶＥＲＳＩＯＮ２,,株式会社,北海道,札幌市中央区,南二条西９丁目１番２号サンケン札幌ビル６Ｆ,,01,101,0600062,,,2023-07-19,合併による解散等,6010001018209,令和５年７月１日東京都千代田区麹町一丁目７番２号チエルコミュニケーションブリッジ株式会社（6010001018209）に合併し解散,2015-10-05,1,,,,,バージョンツー,0
1557,7010003037841,登記記録の閉鎖等,0,2023-07-31,2023-07-18,日比谷プライム合同会社,,合同会社,東京都,文京区,湯島１丁目２番１２号８０５,,13,105,1130034,,,2023-07-18,清算の結了等,,,2022-06-07,1,,,,,ヒビヤプライム,0
1558,7010005004889,登記記録の閉鎖等,0,2023-07-31,2023-07-24,特定非営利活動法人環境アリーナ研究機構,,その他の設立登記法人,東京都,中央区,銀座６丁目１３番７号,,13,102,1040061,,,2023-07-24,清算の結了等,,,2015-10-05,1,,,,,カンキョウアリーナケンキュウキコウ,0
1580,7010501024052,登記記録の閉鎖等,0,2023-07-31,2023-07-19,鶴乃家食品工業株式会社,,株式会社,東京都,江戸川区,平井５丁目９番２号タミーズハウス３０１,,13,123,1320035,,,2023-07-19,清算の結了等,,,2015-10-05,1,,,,,ツルノヤショクヒンコウギョウ,0
1596,7011003015044,登記記録の閉鎖等,0,2023-07-31,2023-07-13,合同会社石川,,合同会社,東京都,渋谷区,大山町３番１４－２０４号,,13,113,1510065,,,2023-07-13,清算の結了等,,,2022-07-14,1,,,,,イシカワ,0
1599,7011005007469,登記記録の閉鎖等,0,2023-07-31,2023-07-18,小池税理士法人,,その他の設立登記法人,東京都,渋谷区,代々木２丁目２１番３号太閤コーポ代々木５０１号室,,13,113,1510053,,,2023-07-18,清算の結了等,,,2017-12-18,1,,,,,コイケ,0
1631,7020001032422,登記記録の閉鎖等,0,2023-07-31,2023-07-14,株式会社村上商店,,株式会社,神奈川県,横浜市金沢区,六浦１丁目２１番２５号,,14,108,2360031,,,2023-07-14,清算の結了等,,,2015-10-05,1,,,,,ムラカミショウテン,0
1632,7020001090197,登記記録の閉鎖等,0,2023-07-31,2023-07-14,株式会社東京エコソリューション,,株式会社,神奈川県,横浜市緑区,十日市場町８９５番地５,,14,113,2260025,,,2023-07-14,清算の結了等,,,2015-10-05,1,,,,,トウキョウエコソリューション,0
1652,7021003002215,登記記録の閉鎖等,0,2023-07-31,2023-07-24,合同会社ａ＆ｕｄＩ研究所,,合同会社,神奈川県,藤沢市,鵠沼松が岡２丁目１８番１１号,,14,205,2510038,,,2023-07-24,清算の結了等,,,2015-10-05,1,,,,,,0
1654,7030001022835,登記記録の閉鎖等,0,2023-07-31,2023-07-04,株式会社アーチス技術サービス,,株式会社,埼玉県,所沢市,大字新郷２１２番地,,11,208,3590016,,,2023-07-04,清算の結了等,,,2015-10-05,1,,,,,アーチスギジュツサービス,0
1655,7030001086112,登記記録の閉鎖等,0,2023-07-31,2023-07-04,株式会社花園土地開発,,株式会社,埼玉県,深谷市,小前田３０番地２,,11,218,3691246,,,2023-07-04,清算の結了等,,,2015-10-05,1,,,,,ハナゾノトチカイハツ,0
1673,7040002007132,登記記録の閉鎖等,0,2023-07-31,2023-07-05,有限会社高山メタル,00019746,有限会社,千葉県,千葉市美浜区,真砂２丁目１５番５棟５０２号,,12,106,2610011,,,2023-07-05,清算の結了等,,,2015-10-05,1,,,,,タカヤマメタル,0
1683,7060005006798,登記記録の閉鎖等,0,2023-07-31,2023-07-12,関東開発協同組合,,その他の設立登記法人,栃木県,佐野市,七軒町２１９６番地６,,09,204,3270005,,,2023-07-12,清算の結了等,,,2015-10-05,1,,,,,カントウカイハツ,0
1684,7070001016461,登記記録の閉鎖等,0,2023-07-31,2023-07-26,株式会社パルスン,,株式会社,群馬県,桐生市,相生町５丁目１１８番地の１４,,10,203,3760011,,,2023-07-26,清算の結了等,,,2015-10-05,1,,,,,パルスン,0
1689,7090002014355,登記記録の閉鎖等,0,2023-07-31,2023-07-25,有限会社緑風舎,,有限会社,山梨県,北杜市,長坂町大井ヶ森字畑ヶ原９９４番地５,,19,209,4080032,,,2023-07-25,清算の結了等,,,2015-10-05,1,,,,,リョクフウシャ,0
1702,7120001023048,登記記録の閉鎖等,0,2023-07-31,2023-07-28,株式会社キムタケ,,株式会社,大阪府,大阪市天王寺区,上本町６丁目３番３１－１２１５号,,27,109,5430001,,,2023-07-28,清算の結了等,,,2015-10-05,1,,,,,キムタケ,0
1711,7120003009565,登記記録の閉鎖等,0,2023-07-31,2023-07-24,アキハ合同会社,,合同会社,大阪府,枚方市,楠葉野田１丁目２５番１５号,,27,210,5731103,,,2023-07-24,清算の結了等,,,2015-10-05,1,,,,,アキハ,0
1717,7120901025671,登記記録の閉鎖等,0,2023-07-31,2023-07-20,株式会社誠屋,,株式会社,大阪府,豊中市,浜１丁目２３番４０号第一誠晃荘内,,27,203,5610817,,,2023-07-20,清算の結了等,,,2015-10-05,1,,,,,マコトヤ,0
1725,7130001023063,登記記録の閉鎖等,0,2023-07-31,2023-07-12,株式会社ヨシダ,,株式会社,京都府,京都市中京区,衣棚通夷川上る花立町２６０番地,00035877,26,104,6040003,,,2023-07-12,清算の結了等,,,2015-10-05,1,,,,,ヨシダ,0
1732,7140001106148,登記記録の閉鎖等,0,2023-07-31,2023-07-25,株式会社あすなろエステート,,株式会社,兵庫県,西宮市,櫨塚町３番２５－６０１号,,28,204,6620854,,,2023-07-25,清算の結了等,,,2017-05-19,1,,,,,アスナロエステート,0
1755,7180302025588,登記記録の閉鎖等,0,2023-07-31,2023-07-21,有限会社マルツネ石材,,有限会社,愛知県,豊田市,花沢町波奈地方２１番地２,,23,211,4443231,,,2023-07-21,清算の結了等,,,2015-10-05,1,,,,,マルツネセキザイ,0
1757,7190002000106,登記記録の閉鎖等,0,2023-07-31,2023-07-19,有限会社荒川楽器店,,有限会社,三重県,津市,一身田町３４９番地１１,,24,201,5140114,,,2023-07-19,清算の結了等,,,2015-10-05,1,,,,,,0
1763,7230001012551,登記記録の閉鎖等,0,2023-07-31,2023-07-27,丸高水産株式会社,,株式会社,富山県,射水市,越の潟町１番４９号,,16,211,9340024,,,2023-07-27,清算の結了等,,,2015-10-05,1,,,,,マルタカスイサン,0
1764,7240001023952,登記記録の閉鎖等,0,2023-07-31,2023-07-24,津久田工業株式会社,,株式会社,広島県,山県郡北広島町,南方３７０２番地,,34,369,7311523,,,2023-07-24,清算の結了等,,,2015-10-05,1,,,,,ツクダコウギョウ,0
1782,7310002009043,登記記録の閉鎖等,0,2023-07-31,2023-07-14,旭建設工業有限会社,,有限会社,長崎県,佐世保市,中里町１９１３番地,,42,202,8580904,,,2023-07-14,清算の結了等,,,2015-10-05,1,,,,,アサヒケンセツコウギョウ,0
1796,7370003005309,登記記録の閉鎖等,0,2023-07-31,2023-07-24,ＩＮＦＩＮＩＴＹ農園合同会社,,合同会社,宮城県,仙台市青葉区,支倉町２－５０－８０８,,04,101,9800824,,,2023-07-24,清算の結了等,,,2021-07-20,1,,,,,インフィニティノウエン,0
1797,7380001028228,登記記録の閉鎖等,0,2023-07-31,2023-07-25,株式会社まるこうフーズ,,株式会社,福島県,福島市,鎌田字半在家６番地の１,,07,201,9600102,,,2023-07-25,清算の結了等,,,2017-06-22,1,,,,,マルコウフーズ,0
1813,7440005001307,登記記録の閉鎖等,0,2023-07-31,2023-07-28,北渡島生コンクリート協同組合,,その他の設立登記法人,北海道,北斗市,清水川１４２番地２９,,01,236,0411221,,,2023-07-28,清算の結了等,,,2015-10-05,1,,,,,キタオシマナマコンクリート,0
1843,8010401014813,登記記録の閉鎖等,0,2023-07-31,2023-07-06,株式会社スコープインテグラ,,株式会社,東京都,港区,芝浦４丁目１２番４４号,,13,103,1080023,,,2023-07-06,清算の結了等,,,2015-10-05,1,,,,,スコープインテグラ,0
1897,8011401011718,登記記録の閉鎖等,0,2023-07-31,2023-07-28,早川設計工房株式会社,,株式会社,東京都,板橋区,中台２丁目１５番８号磯崎フラット１０２,,13,119,1740064,,,2023-07-28,清算の結了等,,,2015-10-05,1,,,,,ハヤカワセッケイコウボウ,0
1935,8020003014896,登記記録の閉鎖等,0,2023-07-31,2023-07-14,ＢＩＧ　ＳＥＡ合同会社,,合同会社,神奈川県,川崎市宮前区,菅生５丁目３－２５,,14,136,2160015,,,2023-07-14,清算の結了等,,,2018-09-14,1,,,,,ビッグシー,0
1940,8021002023062,登記記録の閉鎖等,0,2023-07-31,2023-07-24,有限会社新津裕史事務所,,有限会社,神奈川県,相模原市中央区,中央３丁目８番２号,,14,152,2520239,,,2023-07-24,清算の結了等,,,2015-10-05,1,,,,,ニイツユウシジムショ,0
1987,8120001205173,登記記録の閉鎖等,0,2023-07-31,2023-07-28,ウェルタス株式会社,,株式会社,大阪府,枚方市,山之上西町１２番２８号,,27,210,5730048,,,2023-07-28,清算の結了等,,,2017-04-24,1,,,,,ウェルタス,0
1994,8120002012800,登記記録の閉鎖等,0,2023-07-31,2023-07-26,有限会社喜楽亭,,有限会社,大阪府,大阪市天王寺区,上汐４丁目１番３１号,,27,109,5430002,,,2023-07-26,清算の結了等,,,2015-10-05,1,,,,,キラクテイ,0
2013,8140001037004,登記記録の閉鎖等,0,2023-07-31,2023-07-26,アコ・プッペ株式会社,,株式会社,兵庫県,明石市,本町２丁目５番２１号,,28,203,6730892,,,2023-07-26,清算の結了等,,,2015-10-05,1,,,,,アコプッペ,0
2017,8140002023382,登記記録の閉鎖等,0,2023-07-31,2023-07-25,有限会社タツヒロサービス,,有限会社,兵庫県,神戸市北区,南五葉１丁目４番２６号,,28,109,6511132,,,2023-07-25,清算の結了等,,,2015-10-05,1,,,,,タツヒロサービス,0
2032,8180001066585,登記記録の閉鎖等,0,2023-07-31,2023-07-26,株式会社アメニティプロサービス,,株式会社,愛知県,名古屋市守山区,川宮町７２番地の３,,23,113,4630081,,,2023-07-26,清算の結了等,,,2015-10-05,1,,,,,アメニティプロサービス,0
2041,8180301010680,登記記録の閉鎖等,0,2023-07-31,2023-07-27,メディアインメカニカルサービス株式会社,,株式会社,愛知県,豊川市,諏訪西町１丁目１１３番地,,23,207,4420069,,,2023-07-27,清算の結了等,,,2015-10-05,1,,,,,メディアインメカニカルサービス,0
2061,8260001006343,登記記録の閉鎖等,0,2023-07-31,2023-07-21,ナカ電工株式会社,,株式会社,岡山県,岡山市中区,乙多見２３３番地,,33,102,7038228,,,2023-07-21,清算の結了等,,,2015-10-05,1,,,,,ナカデンコウ,0
2080,8300002004457,登記記録の閉鎖等,0,2023-07-31,2023-07-20,有限会社ケイ・コンサルティング,,有限会社,佐賀県,小城市,牛津町牛津８８番地３２,,41,208,8490303,,,2023-07-20,清算の結了等,,,2015-10-05,1,,,,,ケイコンサルティング,0
2081,8310005004107,登記記録の閉鎖等,0,2023-07-31,2023-07-25,一般社団法人島宝,,その他の設立登記法人,長崎県,北松浦郡小値賀町,笛吹郷１４６６番地１,,42,383,8574701,,,2023-07-25,清算の結了等,,,2015-10-05,1,,,,,トウホウ,0
2091,8360001006498,登記記録の閉鎖等,0,2023-07-31,2023-07-27,株式会社立商,,株式会社,沖縄県,島尻郡南風原町,字宮城２３１番地,,47,350,9011102,,,2023-07-27,清算の結了等,,,2015-10-05,1,,,,,,0
2094,8360003012338,登記記録の閉鎖等,0,2023-07-31,2023-07-25,合同会社元,,合同会社,沖縄県,那覇市,松川３丁目１８－３５ＦＬＡＴＳ松川３０１号室,,47,201,9020062,,,2023-07-25,清算の結了等,,,2022-10-07,1,,,,,ゲン,0
2101,8380002035098,登記記録の閉鎖等,0,2023-07-31,2023-07-24,丸石商事有限会社,,有限会社,福島県,喜多方市,豊川町一井字入宇田５５３番地の１,,07,208,9660912,,,2023-07-24,清算の結了等,,,2015-10-05,1,,,,,マルイシショウジ,0
2112,8440005001306,登記記録の閉鎖等,0,2023-07-31,2023-07-28,南北海道生コンクリート協同組合,,その他の設立登記法人,北海道,北斗市,清水川１４２番地２９,,01,236,0411221,,,2023-07-28,清算の結了等,,,2015-10-05,1,,,,,ミナミホッカイドウナマコンクリート,0
2114,8470002004952,登記記録の閉鎖等,0,2023-07-31,2023-07-25,有限会社富永印刷,,有限会社,香川県,高松市,松縄町４５番地１０,,37,201,7600079,,,2023-07-25,清算の結了等,,,2015-10-05,1,,,,,トミナガインサツ,0
2122,9010001017075,登記記録の閉鎖等,0,2023-07-31,2023-07-27,三晃化成株式会社,,株式会社,東京都,千代田区,神田和泉町１番地３,,13,101,1010024,,,2023-07-27,合併による解散等,4010703006553,令和５年７月２２日東京都品川区上大崎三丁目１番１号目黒セントラルスクエア１５階三晃化成ホールディングス合同会社（4010703006553）に合併し解散,2015-10-05,1,,,,,サンコウカセイ,0
2127,9010001193503,登記記録の閉鎖等,0,2023-07-31,2023-07-18,株式会社アレグレ,,株式会社,東京都,千代田区,九段南２丁目３番２７号,,13,101,1020074,,,2023-07-18,清算の結了等,,,2018-07-23,1,,,,,アレグレ,0
2132,9010003026339,登記記録の閉鎖等,0,2023-07-31,2023-07-14,合同会社ストック・ワン,,合同会社,東京都,千代田区,霞が関３丁目２番５号,,13,101,1000013,,,2023-07-14,清算の結了等,,,2017-10-31,1,,,,,ストックワン,0
2136,9010005027260,登記記録の閉鎖等,0,2023-07-31,2023-07-24,オスタラ北大阪特定目的会社,,その他の設立登記法人,東京都,千代田区,麹町５丁目１番地ＮＫ真和ビル９階,,13,101,1020083,,,2023-07-24,清算の結了等,,,2017-08-08,1,,,,,オスタラキタオオサカ,0
2138,9010005035544,登記記録の閉鎖等,0,2023-07-31,2023-07-13,社会保険労務士法人ＩＳＳ,,その他の設立登記法人,東京都,千代田区,岩本町３丁目３番１４号ステラ岩本町４Ｆ,,13,101,1010032,,,2023-07-13,清算の結了等,,,2022-09-14,1,,,,,アイエスエス,0
2148,9010401174086,登記記録の閉鎖等,0,2023-07-31,2023-07-07,株式会社アールマネジメント,,株式会社,東京都,港区,六本木３丁目１３番１４号,,13,103,1060032,,,2023-07-07,清算の結了等,,,2023-05-02,1,,,,,アールマネジメント,0
2152,9010402036467,登記記録の閉鎖等,0,2023-07-31,2023-07-18,有限会社エクスヴィジョンズ,,有限会社,神奈川県,川崎市中原区,上小田中３丁目２９番１－５０１号,,14,133,2110053,,,2023-07-18,清算の結了等,,,2015-10-05,1,,,,,エクスヴィジョンズ,0
2156,9010502006527,登記記録の閉鎖等,0,2023-07-31,2023-07-28,有限会社田口毛糸店,,有限会社,東京都,台東区,台東４丁目２５番９号,,13,106,1100016,,,2023-07-28,清算の結了等,,,2015-10-05,1,,,,,タグチケイトテン,0
2170,9011001116668,登記記録の閉鎖等,0,2023-07-31,2023-07-27,株式会社グッドチョイス,,株式会社,東京都,足立区,神明３丁目２８－１３－１０１,,13,121,1210051,,,2023-07-27,清算の結了等,,,2017-06-06,1,,,,,グッドチョイス,0
2175,9011101021041,登記記録の閉鎖等,0,2023-07-31,2023-07-28,株式会社メディアパオ,,株式会社,東京都,新宿区,住吉町８番２５号,,13,104,1620065,,,2023-07-28,清算の結了等,,,2015-10-05,1,,,,,メディアパオ,0
2181,9011103007864,登記記録の閉鎖等,0,2023-07-31,2023-07-27,合同会社カーサ江坂,,合同会社,東京都,新宿区,四谷２丁目９番地１５東京ユナイテッド綜合事務所内,,13,104,1600004,,,2023-07-27,清算の結了等,,,2018-05-07,1,,,,,カーサエサカ,0
2187,9011402017787,登記記録の閉鎖等,0,2023-07-31,2023-07-27,有限会社すずの木,,有限会社,東京都,板橋区,中丸町１５番１１－２０４号,,13,119,1730026,,,2023-07-27,清算の結了等,,,2015-10-05,1,,,,,スズノキ,0
2188,9011402018447,登記記録の閉鎖等,0,2023-07-31,2023-07-28,有限会社ビーブラント,,有限会社,東京都,板橋区,高島平１丁目３０番１２号ヴェルドミール高島平１０２号室,,13,119,1750082,,,2023-07-28,清算の結了等,,,2015-10-05,1,,,,,,0
2192,9011601004140,登記記録の閉鎖等,0,2023-07-31,2023-07-27,株式会社高山電設,,株式会社,東京都,練馬区,上石神井３丁目５番２５号,,13,120,1770044,,,2023-07-27,清算の結了等,,,2015-10-05,1,,,,,タカヤマデンセツ,0
2199,9012401035235,登記記録の閉鎖等,0,2023-07-31,2023-07-28,多喜株式会社,,株式会社,東京都,台東区,上野３丁目１１番５号,,13,106,1100005,,,2023-07-28,清算の結了等,,,2019-05-14,1,,,,,タキ,0
2204,9013302018287,登記記録の閉鎖等,0,2023-07-31,2023-07-07,有限会社サンク＆サンク,,有限会社,東京都,豊島区,長崎１丁目３番１２号,,13,116,1710051,,,2023-07-07,清算の結了等,,,2015-10-05,1,,,,,サンクアンドサンク,0
2206,9020001017314,登記記録の閉鎖等,0,2023-07-31,2023-07-18,小林エンジニアリング株式会社,,株式会社,神奈川県,横浜市鶴見区,鶴見中央４丁目３５番１３号,,14,101,2300051,,,2023-07-18,清算の結了等,,,2015-10-05,1,,,,,コバヤシエンジニアリング,0
2223,9021003009266,登記記録の閉鎖等,0,2023-07-31,2023-07-24,いこいの森合同会社,,合同会社,神奈川県,小田原市,南町１丁目１番４０号,,14,206,2500013,,,2023-07-24,清算の結了等,,,2020-04-06,1,,,,,イコイノモリ,0
2230,9030002012065,登記記録の閉鎖等,0,2023-07-31,2023-07-06,有限会社ベル,,有限会社,埼玉県,さいたま市南区,沼影１丁目３番９号,,11,108,3360027,,,2023-07-06,清算の結了等,,,2015-10-05,1,,,,,ベル,0
2232,9030002057201,登記記録の閉鎖等,0,2023-07-31,2023-07-05,有限会社能代工業,,有限会社,埼玉県,北足立郡伊奈町,大字小針新宿４６９番地２０,,11,301,3620808,,,2023-07-05,清算の結了等,,,2015-10-05,1,,,,,ノシロコウギョウ,0
2234,9030002087974,登記記録の閉鎖等,0,2023-07-31,2023-07-04,有限会社マサキエンジニアリング,,有限会社,埼玉県,越谷市,大字大里６５１番地１,,11,222,3430031,,,2023-07-04,清算の結了等,,,2015-10-05,1,,,,,マサキエンジニアリング,0
2237,9030002116493,登記記録の閉鎖等,0,2023-07-31,2023-07-14,大里商事有限会社,,有限会社,神奈川県,横浜市神奈川区,六角橋２丁目２６番１０号,,14,102,2210802,,,2023-07-14,清算の結了等,,,2015-10-05,1,,,,,オオサトショウジ,0
2257,9050002036979,登記記録の閉鎖等,0,2023-07-31,2023-07-24,庄屋土地有限会社,,有限会社,茨城県,守谷市,立沢１９０４番地,,08,224,3020118,,,2023-07-24,清算の結了等,,,2015-10-05,1,,,,,ショウヤトチ,0
2267,9080001023926,登記記録の閉鎖等,0,2023-07-31,2023-07-28,セカイヘ株式会社,,株式会社,静岡県,静岡市駿河区,鎌田３０８番地,,22,102,4210133,,,2023-07-28,清算の結了等,,,2021-01-07,1,,,,,セカイヘ,0
2297,9130001014151,登記記録の閉鎖等,0,2023-07-31,2023-07-11,河利産業株式会社,,株式会社,京都府,京都市伏見区,淀美豆町５２３番地,,26,109,6130916,,,2023-07-11,清算の結了等,,,2015-10-05,1,,,,,カワリサンギョウ,0
2325,9180301029497,登記記録の閉鎖等,0,2023-07-31,2023-07-27,株式会社Ｋ’ｓサポート,,株式会社,愛知県,豊橋市,上野町字上野９１番地の３,,23,201,4418157,,,2023-07-27,清算の結了等,,,2016-08-09,1,,,,,ケイズサポート,0
2326,9180301031346,登記記録の閉鎖等,0,2023-07-31,2023-07-27,株式会社アイリンクス,,株式会社,愛知県,豊田市,西中山町十七屋４番地１８４,,23,211,4700431,,,2023-07-27,清算の結了等,,,2018-04-04,1,,,,,アイリンクス,0
2328,9200001015274,登記記録の閉鎖等,0,2023-07-31,2023-07-26,株式会社岐阜徳重屋,,株式会社,岐阜県,安八郡神戸町,大字神戸８６０番地の５,,21,381,5032305,,,2023-07-26,清算の結了等,,,2015-10-05,1,,,,,ギフトクシゲヤ,0
2332,9200005005825,登記記録の閉鎖等,0,2023-07-31,2023-07-28,大野町液化石油ガス協同組合,,その他の設立登記法人,岐阜県,揖斐郡大野町,大字黒野６７８番地の１,,21,403,5010521,,,2023-07-28,清算の結了等,,,2015-10-05,1,,,,,オオノチョウエキカセキユガス,0
2336,9240001006492,登記記録の閉鎖等,0,2023-07-31,2023-07-24,株式会社玉屋,,株式会社,広島県,広島市中区,基町６番２７号アクア広島センター街２Ｆ,,34,101,7300011,,,2023-07-24,清算の結了等,,,2015-10-05,1,,,,,タマヤ,0
2356,9290001094392,登記記録の閉鎖等,0,2023-07-31,2023-07-18,Ｓｔａｍｐ　Ｓｉｇｎ株式会社,,株式会社,福岡県,福岡市中央区,今泉１丁目２番２０－１５０７号,,40,133,8100021,,,2023-07-18,清算の結了等,,,2021-08-27,1,,,,,スタンプサイン,0
2378,9370001010234,登記記録の閉鎖等,0,2023-07-31,2023-07-20,株式会社北栄商事,,株式会社,宮城県,仙台市青葉区,昭和町３番５５号,,04,101,9810913,,,2023-07-20,清算の結了等,,,2023-02-21,1,,,,,ホクエイショウジ,0
2379,9380002002527,登記記録の閉鎖等,0,2023-07-31,2023-07-25,有限会社ドラッグ冨士,,有限会社,福島県,福島市,飯坂町字東堀切１１番地,,07,201,9600201,,,2023-07-25,清算の結了等,,,2015-10-05,1,,,,,ドラッグフジ,0
2380,9380002012245,登記記録の閉鎖等,0,2023-07-31,2023-07-24,増子産業有限会社,,有限会社,福島県,郡山市,湖南町中野字中屋敷５４４８番地,,07,203,9631521,,,2023-07-24,清算の結了等,,,2015-10-05,1,,,,,マシコサンギョウ,0
2385,9400002009759,登記記録の閉鎖等,0,2023-07-31,2023-07-10,有限会社ムーミン企画,,有限会社,岩手県,北上市,常盤台４丁目１番１号,,03,206,0240012,,,2023-07-10,清算の結了等,,,2015-10-05,1,,,,,ムーミンキカク,0
2386,9420001012423,登記記録の閉鎖等,0,2023-07-31,2023-07-18,東栄海事工業株式会社,,株式会社,青森県,むつ市,若松町２番４５号,,02,208,0350063,,,2023-07-18,清算の結了等,,,2015-10-05,1,,,,,トウエイカイジコウギョウ,0
2394,9480001000827,登記記録の閉鎖等,0,2023-07-31,2023-07-31,株式会社四国成研,,株式会社,徳島県,徳島市,応神町吉成字轟５９番地１１,,36,201,7711153,,,2023-07-31,清算の結了等,,,2015-10-05,1,,,,,シコクセイケン,0
