sequenceNumber,corporateNumber,process,correct,updateDate,changeDate,name,nameImageId,kind,prefectureName,cityName,streetNumber,addressImageId,prefectureCode,cityCode,postCode,addressOutside,addressOutsideImageId,closeDate,closeCause,successorCorporateNumber,changeCause,assignmentDate,latest,enName,enPrefectureName,enCityName,enAddressOutside,furigana,hihyoji
4,1010001242812,新規,0,2024-03-12,2024-03-12,株式会社ブルーキャスティング,,株式会社,東京都,千代田区,麹町３丁目２番地１３ＴＨＥ千代田麹町ＴＯＷＥＲ１４０２号,,13,101,1020083,,,,,,,2024-03-12,1,,,,,ブルーキャスティング,0
5,1010001242960,新規,0,2024-03-12,2024-03-12,株式会社ＡｔｏＧ１,,株式会社,東京都,千代田区,丸の内１丁目８番２号,,13,101,1000005,,,,,,,2024-03-12,1,,,,,エートゥージーワン,0
6,1010001243018,新規,0,2024-03-12,2024-03-12,Ｅｍｂｅｄｄｅｄ　Ａｎａｌｙｔｉｃｓ株式会社,,株式会社,東京都,千代田区,大手町１丁目７－２東京サンケイビル２７階,,13,101,1000004,,,,,,,2024-03-12,1,,,,,エンベデッドアナリティクス,0
13,1010003043184,新規,0,2024-03-12,2024-03-12,合同会社ＴＮＳＯＬ,,合同会社,東京都,千代田区,神田和泉町１番地６－１６ヤマトビル４０５,,13,101,1010024,,,,,,,2024-03-12,1,,,,,ティーエヌソリューション,0
16,1010005038001,新規,0,2024-03-12,2024-03-12,一般社団法人再エネ１００宣言ＲＥＡｃｔｉｏｎ協議会,,その他の設立登記法人,東京都,千代田区,麹町４丁目５番２０号ＫＳビル８階,,13,101,1020083,,,,,,,2024-03-12,1,,,,,サイエネヒャクセンゲンアールイーアクションキョウギカイ,0
17,1010005038018,新規,0,2024-03-12,2024-03-12,Ｈｅｒａ特定目的会社,,その他の設立登記法人,東京都,千代田区,霞が関３丁目２番５号,,13,101,1000013,,,,,,,2024-03-12,1,,,,,ヘラ,0
31,1010403032142,新規,0,2024-03-12,2024-03-12,合同会社メディアヒッツ,,合同会社,東京都,港区,浜松町２丁目２番１５号浜松町ダイヤビル２Ｆ,,13,103,1050013,,,,,,,2024-03-12,1,,,,,メディアヒッツ,0
32,1010405023040,新規,0,2024-03-12,2024-03-12,一般財団法人日本プライベートトラスト財団,,その他の設立登記法人,東京都,港区,赤坂９丁目７番２号ミッドタウン・イースト４階,,13,103,1070052,,,,,,,2024-03-12,1,,,,,ニホンプライベートトラストザイダン,0
33,1010405023057,新規,0,2024-03-12,2024-03-12,一般社団法人青年事業支援協会,,その他の設立登記法人,東京都,港区,新橋２丁目２番５号新橋パイオニアビル３・４階,,13,103,1050004,,,,,,,2024-03-12,1,,,,,セイネンジギョウシエンキョウカイ,0
39,1010505003504,新規,0,2024-03-12,2024-03-12,一般社団法人むつ小川原海洋気象観測センター,,その他の設立登記法人,東京都,台東区,浅草橋５丁目２番３号,,13,106,1110053,,,,,,,2024-03-12,1,,,,,ムツオガワラカイヨウキショウカンソクセンター,0
40,1010603010699,新規,0,2024-03-12,2024-03-12,インフォツリービジネスアドバイザリー合同会社,,合同会社,東京都,江東区,豊洲６丁目２－３１,,13,108,1350061,,,,,,,2024-03-12,1,,,,,インフォツリービジネスアドバイザリー,0
42,1010703007083,新規,0,2024-03-12,2024-03-12,合同会社Ａ＆Ｋ,,合同会社,東京都,品川区,大井１丁目２１番６号,,13,109,1400014,,,,,,,2024-03-12,1,,,,,エーアンドケー,0
51,1011001160517,新規,0,2024-03-12,2024-03-12,株式会社Ｌｉｅｎ,,株式会社,東京都,渋谷区,道玄坂１丁目１０番８号渋谷道玄坂東急ビル２Ｆ－Ｃ,,13,113,1500043,,,,,,,2024-03-12,1,,,,,リアン,0
52,1011001160533,新規,0,2024-03-12,2024-03-12,株式会社インテリア藤原,,株式会社,東京都,渋谷区,渋谷２丁目１５番１号,,13,113,1500002,,,,,,,2024-03-12,1,,,,,インテリアフジワラ,0
53,1011001160590,新規,0,2024-03-12,2024-03-12,株式会社ドルフィン,,株式会社,東京都,目黒区,自由が丘３丁目５番１３号,,13,110,1520035,,,,,,,2024-03-12,1,,,,,ドルフィン,0
54,1011003018639,新規,0,2024-03-12,2024-03-12,合同会社ミナテラス,,合同会社,東京都,渋谷区,渋谷２丁目１９－１５宮益坂ビルディング６０９,,13,113,1500002,,,,,,,2024-03-12,1,,,,,ミナテラス,0
55,1011101106510,新規,0,2024-03-12,2024-03-12,株式会社麗楽,,株式会社,東京都,新宿区,高田馬場４丁目１７－１５東陽ビルディング８０７号室,,13,104,1690075,,,,,,,2024-03-12,1,,,,,レイラク,0
56,1011101106519,新規,0,2024-03-12,2024-03-12,株式会社ボイスジャーニー,,株式会社,東京都,新宿区,西新宿３丁目３番１３号西新宿水間ビル６階,,13,104,1600023,,,,,,,2024-03-12,1,,,,,ボイスジャーニー,0
60,1011103014190,新規,0,2024-03-12,2024-03-12,Ａｄａｎｄ合同会社,,合同会社,東京都,新宿区,若宮町１８番地クレセント若宮３０７,,13,104,1620827,,,,,,,2024-03-12,1,,,,,アドアンド,0
66,1011501030392,新規,0,2024-03-12,2024-03-12,株式会社ニューセンスエイジ,,株式会社,東京都,荒川区,荒川３丁目３番７号,,13,118,1160002,,,,,,,2024-03-12,1,,,,,ニューセンスエイジ,0
68,1011605002569,新規,0,2024-03-12,2024-03-12,一般社団法人キレイ科学ラボ,,その他の設立登記法人,東京都,練馬区,豊玉中２丁目１９番６号,,13,120,1760013,,,,,,,2024-03-12,1,,,,,キレイカガクラボ,0
69,1011701027107,新規,0,2024-03-12,2024-03-12,株式会社ネクストワン,,株式会社,東京都,江戸川区,東葛西６丁目１４番３－６０５号,,13,123,1340084,,,,,,,2024-03-12,1,,,,,ネクストワン,0
73,1012401041620,新規,0,2024-03-12,2024-03-12,株式会社ＰＬＡＮＥＴＡＲＹ,,株式会社,東京都,稲城市,平尾３丁目１番地の１平尾住宅３５棟１０９号,,13,225,2060823,,,,,,,2024-03-12,1,,,,,プラネタリー,0
74,1012703002931,新規,0,2024-03-12,2024-03-12,合同会社Ｖｉｇａｙ,,合同会社,東京都,東久留米市,東本町１４番３０号,,13,222,2030014,,,,,,,2024-03-12,1,,,,,ヴィゲイ,0
93,1020003025660,新規,0,2024-03-12,2024-03-12,合同会社やまとき,,合同会社,神奈川県,川崎市幸区,塚越４丁目３３３番９７号,,14,132,2120024,,,,,,,2024-03-12,1,,,,,ヤマトキ,0
94,1020003025685,新規,0,2024-03-12,2024-03-12,合同会社セレナ,,合同会社,神奈川県,横浜市港北区,高田東３丁目２番３号綱島ダイヤモンドパレス２１２号,,14,109,2230065,,,,,,,2024-03-12,1,,,,,セレナ,0
95,1020003025702,新規,0,2024-03-12,2024-03-12,合同会社ラピスラズリ,,合同会社,神奈川県,横浜市中区,打越４２番地１－６０７,,14,104,2310867,,,,,,,2024-03-12,1,,,,,ラピスラズリ,0
97,1021001081679,新規,0,2024-03-12,2024-03-12,株式会社フロイスタインコンサルティング,,株式会社,神奈川県,鎌倉市,稲村ガ崎５丁目３８番１８号,,14,204,2480024,,,,,,,2024-03-12,1,,,,,フロイスタインコンサルティング,0
100,1021003014240,新規,0,2024-03-12,2024-03-12,合同会社つとてプランニング,,合同会社,神奈川県,相模原市南区,上鶴間６丁目２６番１０号,,14,153,2520302,,,,,,,2024-03-12,1,,,,,ツトテプランニング,0
106,1030001159121,新規,0,2024-03-12,2024-03-12,斎藤林業株式会社,,株式会社,埼玉県,秩父市,日野田町２丁目１８番１１号,,11,207,3680034,,,,,,,2024-03-12,1,,,,,サイトウリンギョウ,0
111,1030003023787,新規,0,2024-03-12,2024-03-12,ＫＳＤハウスクリーニング合同会社,,合同会社,埼玉県,朝霞市,幸町２丁目４番３８号メゾンひまわり２０１,,11,227,3510015,,,,,,,2024-03-12,1,,,,,ケーエスディーハウスクリーニング,0
126,1040003024504,新規,0,2024-03-12,2024-03-12,ＹＵＩ合同会社,,合同会社,千葉県,松戸市,小金原３丁目１８番地小金原団地４８棟３０３号,,12,207,2700021,,,,,,,2024-03-12,1,,,,,ユウイ,0
127,1040003024520,新規,0,2024-03-12,2024-03-12,ころまる青果合同会社,,合同会社,千葉県,流山市,平和台２丁目１０番地の２６,,12,220,2700157,,,,,,,2024-03-12,1,,,,,コロマルセイカ,0
129,1040005022316,新規,0,2024-03-12,2024-03-12,ＮＰＯ法人ジセダイ歴史文化継承研究所,,その他の設立登記法人,千葉県,柏市,八幡町３番６４号,,12,217,2770016,,,,,,,2024-03-12,1,,,,,ジセダイレキシブンカケイショウケンキュウジョ,0
132,1050001054436,新規,0,2024-03-12,2024-03-12,ＮＲコーポレーション株式会社,,株式会社,茨城県,潮来市,大生１１７７番地４,,08,223,3112402,,,,,,,2024-03-12,1,,,,,エヌアールコーポレーション,0
155,1110003005315,新規,0,2024-03-12,2024-03-12,合同会社パークエステート,,合同会社,新潟県,新潟市中央区,古町通６番町９６３番地１,,15,103,9518063,,,,,,,2024-03-12,1,,,,,パークエステート,0
170,1120001262989,新規,0,2024-03-12,2024-03-12,株式会社湯山マシナリー,,株式会社,大阪府,大阪市北区,豊崎３丁目１５番５号ＴＫビル２Ｆ,,27,127,5310072,,,,,,,2024-03-12,1,,,,,ユヤママシナリー,0
171,1120001263046,新規,0,2024-03-12,2024-03-12,懿冉昌暉株式会社,,株式会社,大阪府,大阪市住吉区,長居２丁目１０番３－２０６号,,27,120,5580003,,,,,,,2024-03-12,1,,,,,イゼンショウキ,0
172,1120001263062,新規,0,2024-03-12,2024-03-12,株式会社ＳｐｅｅｄＤｅｍｏｎ,,株式会社,大阪府,大阪市淀川区,木川東２丁目１５番１３号マキシム西中島４０２号室,,27,123,5320012,,,,,,,2024-03-12,1,,,,,スピードデモン,0
173,1120001263070,新規,0,2024-03-12,2024-03-12,ロックペイントホールディングス株式会社,,株式会社,大阪府,大阪市西淀川区,姫島３丁目１番４７号,,27,113,5550033,,,,,,,2024-03-12,1,,,,,ロックペイントホールディングス,0
174,1120001263087,新規,0,2024-03-12,2024-03-12,こうや株式会社,,株式会社,大阪府,大阪市都島区,都島本通４丁目２３番２５号レジデンス高野５０１号,,27,102,5340021,,,,,,,2024-03-12,1,,,,,コウヤ,0
177,1120003026137,新規,0,2024-03-12,2024-03-12,オフィスオヌマ合同会社,,合同会社,大阪府,大阪市北区,梅田１丁目２番２号大阪駅前第２ビル１２－１２,,27,127,5300001,,,,,,,2024-03-12,1,,,,,オフィスオヌマ,0
195,1140001133511,新規,0,2024-03-12,2024-03-12,株式会社Ｎ．ｆｉｅｌｄ,,株式会社,兵庫県,南あわじ市,八木立石８０番地１クラール三原Ｂ１０１号,,28,224,6560435,,,,,,,2024-03-12,1,,,,,,0
197,1140003020253,新規,0,2024-03-12,2024-03-12,合同会社エリート,,合同会社,兵庫県,神戸市東灘区,御影本町４丁目７番１５号２階,,28,101,6580046,,,,,,,2024-03-12,1,,,,,エリート,0
199,1150001027134,新規,0,2024-03-12,2024-03-12,株式会社アテンド,,株式会社,奈良県,大和郡山市,矢田山町２８番地１,,29,203,6391055,,,,,,,2024-03-12,1,,,,,アテンド,0
212,1200001042243,新規,0,2024-03-12,2024-03-12,ＭＩＬＫＲＡＦＴ株式会社,,株式会社,岐阜県,加茂郡八百津町,八百津３９１３番地１４,,21,505,5050301,,,,,,,2024-03-12,1,,,,,ミルクラフト,0
242,1290001105017,新規,0,2024-03-12,2024-03-12,株式会社Ｓａｉ,,株式会社,福岡県,古賀市,谷山８３６番地５（フォレストハイム１０１号）,,40,223,8113125,,,,,,,2024-03-12,1,,,,,サイ,0
244,1290003015049,新規,0,2024-03-12,2024-03-12,合同会社Ｆｏｒｔｕｎｅ　ｉｎ,,合同会社,福岡県,福岡市城南区,東油山１丁目２５番８号,,40,136,8140155,,,,,,,2024-03-12,1,,,,,フォーチュンイン,0
247,1290801030380,新規,0,2024-03-12,2024-03-12,株式会社マルト,,株式会社,福岡県,北九州市八幡西区,木屋瀬５丁目５番９号（７号室）,,40,109,8071261,,,,,,,2024-03-12,1,,,,,マルト,0
264,1370001051021,新規,0,2024-03-12,2024-03-12,みらいなすてっぷ株式会社,,株式会社,宮城県,角田市,君萱字女庵６９,,04,208,9811525,,,,,,,2024-03-12,1,,,,,ミライナステップ,0
270,1430001091267,新規,0,2024-03-12,2024-03-12,株式会社カメリア,,株式会社,北海道,札幌市北区,北十九条西６丁目１番２５－３０３号,,01,102,0010019,,,,,,,2024-03-12,1,,,,,カメリア,0
271,1430001091275,新規,0,2024-03-12,2024-03-12,株式会社ＴＳＵＹＯＫＵホールディングス,,株式会社,北海道,札幌市北区,北三十三条西２丁目１－７ＳＡＫＵＲＡ－Ｎ３３ビル,,01,102,0010033,,,,,,,2024-03-12,1,,,,,ツヨクホールディングス,0
272,1430001091283,新規,0,2024-03-12,2024-03-12,株式会社リバー,,株式会社,北海道,江別市,対雁１３１番地の２１,,01,217,0670033,,,,,,,2024-03-12,1,,,,,リバー,0
279,1460101007509,新規,0,2024-03-12,2024-03-12,ＣＨコネクト株式会社,,株式会社,北海道,帯広市,西十六条南３１丁目２番地２八千代ヒルズ２５号,,01,207,0800026,,,,,,,2024-03-12,1,,,,,シーエイチコネクト,0
290,1700150120724,新規,0,2024-03-12,2023-09-26,関東雇用管理協議会,,その他,東京都,墨田区,緑４丁目２４－１９－３０１,,13,107,1300021,,,,,,,2023-09-26,1,,,,,カントウコヨウカンリキヨウギカイ,0
291,1700150123719,新規,0,2024-03-12,2024-03-12,Ｓｈｅｎｚｈｅｎｓｈｉｈａｎｎｕｏｗｅｉｍａｏｙｉｙｏｕｘｉａｎｇｏｎｇｓｉ,,外国会社等,,,,,,,,Ｎｏ．４８９　Ｊｉｈｕａ　Ｒｏａｄ，Ｂａｎｔｉａｎ　Ｃｏｍｍｕｎｉｔｙ，Ｂａｎｔｉａｎ　Ｓｔｒｅｅｔ，Ｌｏｎｇｇａｎｇ　Ｄｉｓｔｒｉｃｔ，Ｓｈｅｎｚｈｅｎ，Ｇｕａｎｇｄｏｎｇ　Ｐｒｏｖｉｎｃｅ,,,,,,2024-03-12,1,,,,,シエンジエンシーハンヌオウエイマオイーヨウシエンゴーンスー,0
292,1700150124254,新規,0,2024-03-12,2024-03-01,労働保険事務組合　経営労務パートナーズ協会,,その他,埼玉県,越谷市,東越谷６丁目２６－８,,11,222,3430023,,,,,,,2024-03-01,1,,,,,ロウドウホケンジムクミアイケイエイロウムパートナーズキヨウカイ,0
293,1700150124403,新規,0,2024-03-12,2024-03-12,ＮＥＷＭＡＮ　ＣＲＥＡＴＩＯＮ　ＮＥＴＷＯＲＫ　ＰＴＥ．ＬＴＤ．,,外国会社等,東京都,板橋区,中丸町１１番２号ワコーレ要町ビル７階,,13,119,1730026,シンガポール共和国１ノースブリッジ・ロード＃１１－０３ハイストリート・センター,,,,,,2024-03-12,1,,,,,ニユーマンクリエイシヨンネツトワークピーテイーイーエルテイーデイー,0
319,2010001242893,新規,0,2024-03-12,2024-03-12,東田不動産販売株式会社,,株式会社,東京都,千代田区,神田錦町３丁目１５番６号名鉄不動産竹橋ビル４階,,13,101,1010054,,,,,,,2024-03-12,1,,,,,トウダフドウサンハンバイ,0
326,2010003043175,新規,0,2024-03-12,2024-03-12,合同会社ＴＥＹＡ,,合同会社,東京都,中央区,勝どき６丁目３番１号,,13,102,1040054,,,,,,,2024-03-12,1,,,,,テヤ,0
335,2010401180958,新規,0,2024-03-12,2024-03-12,ＵＮＩＤＥＳＩＧＮ株式会社,,株式会社,東京都,港区,北青山１丁目３番１号,,13,103,1070061,,,,,,,2024-03-12,1,,,,,ユニデザイン,0
336,2010401180974,新規,0,2024-03-12,2024-03-12,マルホールディングス株式会社,,株式会社,東京都,港区,虎ノ門４丁目１－１神谷町トラストタワー２３Ｆ,,13,103,1050001,,,,,,,2024-03-12,1,,,,,マルホールディングス,0
337,2010401180982,新規,0,2024-03-12,2024-03-12,糸満バース株式会社,,株式会社,東京都,港区,南青山２丁目１４番１３号,,13,103,1070062,,,,,,,2024-03-12,1,,,,,イトマンバース,0
338,2010403032133,新規,0,2024-03-12,2024-03-12,アートウェブ合同会社,,合同会社,東京都,港区,南青山２丁目２番１５号,,13,103,1070062,,,,,,,2024-03-12,1,,,,,アートウェブ,0
339,2010405023031,新規,0,2024-03-12,2024-03-12,一般社団法人ＶＡＬＳ　ＬＵＤＵＳ,,その他の設立登記法人,東京都,港区,芝３丁目３４番１－８０９号,,13,103,1050014,,,,,,,2024-03-12,1,,,,,ヴァルスルーダス,0
347,2010501051910,新規,0,2024-03-12,2024-03-12,株式会社Ｆｌａｗｌｅｓｓ,,株式会社,東京都,台東区,上野５丁目１４番９号,,13,106,1100005,,,,,,,2024-03-12,1,,,,,フローレス,0
349,2010503007365,新規,0,2024-03-12,2024-03-12,薬局オオサカファーマシー合同会社,,合同会社,東京都,台東区,根岸３丁目１４番１３号松本ビル１階,,13,106,1100003,,,,,,,2024-03-12,1,,,,,ヤッキョクオオサカファーマシー,0
350,2010601064795,新規,0,2024-03-12,2024-03-12,株式会社聚量捜索,,株式会社,東京都,墨田区,江東橋４丁目２７番１４号錦糸町楽天地ビル３Ｆ,,13,107,1300022,,,,,,,2024-03-12,1,,,,,ジュリョウソウサク,0
357,2010701045670,新規,0,2024-03-12,2024-03-12,ＴＭＬコンサルタンツ株式会社,,株式会社,東京都,品川区,東品川２丁目２番２５－２２０２号,,13,109,1400002,,,,,,,2024-03-12,1,,,,,ティエムエルコンサルタンツ,0
358,2010701045679,新規,0,2024-03-12,2024-03-12,株式会社ロジレスＬＸ,,株式会社,東京都,品川区,西五反田３丁目１１番６号,,13,109,1410031,,,,,,,2024-03-12,1,,,,,ロジレスエルエックス,0
373,2011001160549,新規,0,2024-03-12,2024-03-12,株式会社フレイヤ,,株式会社,東京都,目黒区,三田２丁目１３番２１号,,13,110,1530062,,,,,,,2024-03-12,1,,,,,フレイヤ,0
379,2011005010411,新規,0,2024-03-12,2024-03-12,医療法人社団陽翔会,,その他の設立登記法人,東京都,目黒区,上目黒２丁目４２番１１号グレイス中目黒１階,,13,110,1530051,,,,,,,2024-03-12,1,,,,,ヨウショウカイ,0
381,2011101106451,新規,0,2024-03-12,2024-03-12,株式会社ここから相談．Ｃｏｍ,,株式会社,東京都,新宿区,高田馬場１丁目３３番６平和相互ビル５０４,,13,104,1690075,,,,,,,2024-03-12,1,,,,,ココカラソウダンドットコム,0
394,2011701027114,新規,0,2024-03-12,2024-03-12,ルルディ株式会社,,株式会社,東京都,江戸川区,南小岩３丁目１番７号,,13,123,1330056,,,,,,,2024-03-12,1,,,,,ルルディ,0
402,2012301013818,新規,0,2024-03-12,2024-03-12,株式会社Ｃｈｅｚ　ｎｏｕｓ,,株式会社,東京都,町田市,原町田６丁目１５番９号シティシャインビル４Ｆ,,13,209,1940013,,,,,,,2024-03-12,1,,,,,シェヌ,0
403,2012801023011,新規,0,2024-03-12,2024-03-12,株式会社Ｓｗａｌ,,株式会社,東京都,国立市,東１丁目１５番１１号４４８ビル３Ｆ,,13,215,1860002,,,,,,,2024-03-12,1,,,,,スヴァル,0
413,2020001156192,新規,0,2024-03-12,2024-03-12,株式会社Ｎ,,株式会社,神奈川県,横浜市港北区,新羽町９６６番地,,14,109,2230057,,,,,,,2024-03-12,1,,,,,エヌ,0
422,2021001081661,新規,0,2024-03-12,2024-03-12,株式会社ＳＴＣホールディングス,,株式会社,神奈川県,厚木市,上依知５８０番地１,,14,212,2430801,,,,,,,2024-03-12,1,,,,,エスティシーホールディングス,0
423,2021001081678,新規,0,2024-03-12,2024-03-12,ＳＡＣ株式会社,,株式会社,神奈川県,藤沢市,石川３丁目１１－７,,14,205,2520815,,,,,,,2024-03-12,1,,,,,エスエーシー,0
430,2030003023794,新規,0,2024-03-12,2024-03-12,合同会社ＦＩＲＳＴＣＲＡＺＹ,,合同会社,埼玉県,さいたま市見沼区,春岡３丁目６番地１,,11,104,3370008,,,,,,,2024-03-12,1,,,,,ファーストクレイジー,0
431,2030005021581,新規,0,2024-03-12,2024-03-12,医療法人社団令成会,,その他の設立登記法人,埼玉県,川口市,幸町１丁目７番１号川口パークタワー２階,,11,203,3320016,,,,,,,2024-03-12,1,,,,,レイセイカイ,0
437,2050001054393,新規,0,2024-03-12,2024-03-12,水戸ひたちなかポスティングサービス株式会社,,株式会社,茨城県,水戸市,見川町２５６３番地の５７８,,08,201,3100913,,,,,,,2024-03-12,1,,,,,ミトヒタチナカポスティングサービス,0
438,2050001054427,新規,0,2024-03-12,2024-03-12,株式会社箕輪ホールディングス,,株式会社,茨城県,鉾田市,鉾田２５番地２,,08,234,3111517,,,,,,,2024-03-12,1,,,,,ミノワホールディングス,0
444,2060003004949,新規,0,2024-03-12,2024-03-12,ＭＩＲＡＩ　ＷＯＲＬＤ合同会社,,合同会社,栃木県,大田原市,若松町４０２番地６０,,09,210,3240054,,,,,,,2024-03-12,1,,,,,ミライワールド,0
453,2080003003148,新規,0,2024-03-12,2024-03-12,合同会社ＫｅｙＬｉｎｋ,,合同会社,静岡県,静岡市葵区,日出町７番地の１レジデンスフローラ３０２,,22,101,4200837,,,,,,,2024-03-12,1,,,,,キーリンク,0
456,2080405007614,新規,0,2024-03-12,2024-03-12,宗教法人日本福音化協会,,その他の設立登記法人,静岡県,浜松市中央区,志都呂町１５６５番地の１,,22,138,4328066,,,,,,,2024-03-12,1,,,,,ニホンフクインカキョウカイ,0
458,2100001037269,新規,0,2024-03-12,2024-03-12,黒姫高原ミルク株式会社,,株式会社,長野県,千曲市,大字上山田１４３１番地,,20,218,3890822,,,,,,,2024-03-12,1,,,,,クロヒメコウゲンミルク,0
459,2100003007443,新規,0,2024-03-12,2024-03-12,星田農設合同会社,,合同会社,長野県,南佐久郡佐久穂町,大字海瀬３８４２－１,,20,309,3840503,,,,,,,2024-03-12,1,,,,,ホシダノウセツ,0
460,2110002001909,新規,0,2024-03-12,2024-03-12,有限会社共栄商事,,有限会社,新潟県,新潟市西区,小針３丁目１８番１０号,,15,107,9502022,,,,,,,2024-03-12,1,,,,,キョウエイショウジ,0
475,2120001262906,新規,0,2024-03-12,2024-03-12,エイティンビーバー株式会社,,株式会社,大阪府,大阪市北区,梅田１丁目２番２号大阪駅前第２ビル１２－１２,,27,127,5300001,,,,,,,2024-03-12,1,,,,,エイティンビーバー,0
476,2120001262939,新規,0,2024-03-12,2024-03-12,株式会社譜源社,,株式会社,大阪府,大阪市福島区,吉野２丁目３番９号プレアデス野田９０１号,,27,103,5530006,,,,,,,2024-03-12,1,,,,,フゲンシャ,0
477,2120001263037,新規,0,2024-03-12,2024-03-12,株式会社ＡＮＤＹ,,株式会社,大阪府,大阪市中央区,高津３丁目１番６－６０４号,,27,128,5420072,,,,,,,2024-03-12,1,,,,,アンドワイ,0
478,2120001263045,新規,0,2024-03-12,2024-03-12,ｓａｎａｄａ株式会社,,株式会社,大阪府,大阪市中央区,谷町７丁目３番４－２１５号Ａ,,27,128,5420012,,,,,,,2024-03-12,1,,,,,サナダ,0
481,2120005024187,新規,0,2024-03-12,2024-03-12,弁理士法人三木特許事務所,,その他の設立登記法人,大阪府,大阪市中央区,久太郎町２丁目３番８－３０３号,,27,128,5410056,,,,,,,2024-03-12,1,,,,,ミキトッキョジムショ,0
484,2120103005717,新規,0,2024-03-12,2024-03-12,合同会社ｓａｋｕｒａブランディング,,合同会社,大阪府,富田林市,桜ケ丘町９番２１号,,27,214,5840084,,,,,,,2024-03-12,1,,,,,サクラブランディング,0
494,2130001076537,新規,0,2024-03-12,2024-03-12,株式会社ＦＥＬＵＣＡ,,株式会社,京都府,京都市伏見区,羽束師菱川町２６２番地２０,,26,109,6128487,,,,,,,2024-03-12,1,,,,,フェルカ,0
495,2130003009370,新規,0,2024-03-12,2024-03-12,ＫＯＨサポート合同会社,,合同会社,京都府,京都市伏見区,深草西伊達町８８－３－４１９,,26,109,6120876,,,,,,,2024-03-12,1,,,,,ケイオーエイチサポート,0
503,2140001133568,新規,0,2024-03-12,2024-03-12,株式会社Ｆｉｒｅ　ｗｏｒｋｓ,,株式会社,兵庫県,神戸市東灘区,岡本１丁目２番３号２階,,28,101,6580072,,,,,,,2024-03-12,1,,,,,ファイヤーワークス,0
504,2140001133626,新規,0,2024-03-12,2024-03-12,株式会社Ｚ’ｓ,,株式会社,兵庫県,豊岡市,城南町１９番１７号,,28,209,6680045,,,,,,,2024-03-12,1,,,,,ジィズ,0
508,2140003020252,新規,0,2024-03-12,2024-03-12,合同会社トーンレノン,,合同会社,兵庫県,神戸市中央区,磯辺通１丁目１番１８号カサベラ国際プラザビル７０７号室,,28,110,6510084,,,,,,,2024-03-12,1,,,,,トーンレノン,0
510,2150001027133,新規,0,2024-03-12,2024-03-12,日本中央商研株式会社,,株式会社,奈良県,橿原市,常盤町５８９番地の１９,,29,205,6340003,,,,,,,2024-03-12,1,,,,,ニッポンチュウオウショウケン,0
512,2150003003198,新規,0,2024-03-12,2024-03-12,合同会社ＡＹＣ,,合同会社,奈良県,奈良市,山陵町２３６番地の１サンプラザ２０４号,,29,201,6310803,,,,,,,2024-03-12,1,,,,,エーワイシー,0
513,2150005009565,新規,0,2024-03-12,2024-03-12,農事組合法人丹生の里,,その他の設立登記法人,奈良県,五條市,丹原町２７７番地１,,29,207,6370052,,,,,,,2024-03-12,1,,,,,ニュウノサト,0
520,2180003026452,新規,0,2024-03-12,2024-03-12,福安康合同会社,,合同会社,愛知県,知多郡武豊町,字鹿ノ子田１丁目６３番地レオパレス鹿ノ子田１－１０２号室,,23,447,4702302,,,,,,,2024-03-12,1,,,,,フクアンカン,0
529,2190005011914,新規,0,2024-03-12,2024-03-12,医療法人慈修会,,その他の設立登記法人,三重県,伊賀市,服部町２丁目９７番地,,24,216,5180007,,,,,,,2024-03-12,1,,,,,ジシュウカイ,0
531,2200001042234,新規,0,2024-03-12,2024-03-12,ヤマノウチ株式会社,,株式会社,岐阜県,不破郡垂井町,表佐１１０７番地の１,,21,361,5032122,,,,,,,2024-03-12,1,,,,,ヤマノウチ,0
532,2200001042242,新規,0,2024-03-12,2024-03-12,株式会社徳商,,株式会社,岐阜県,揖斐郡池田町,田畑１６２番地の１３,,21,404,5032422,,,,,,,2024-03-12,1,,,,,トクショウ,0
538,2230005009367,新規,0,2024-03-12,2024-03-12,一般社団法人ことのは在宅歯科クリニック,,その他の設立登記法人,富山県,富山市,秋吉１９９番５号オアシス秋吉Ｉ１０１号,00134027,16,201,9300953,,,,,,,2024-03-12,1,,,,,コトノハザイタクシカクリニック,0
546,2270001008930,新規,0,2024-03-12,2024-03-12,エクストラクションテクノロジーズジャパン株式会社,,株式会社,鳥取県,東伯郡北栄町,由良宿５９６番地２９,,31,372,6892221,,,,,,,2024-03-12,1,,,,,エクストラクションテクノロジーズジャパン,0
555,2290001105024,新規,0,2024-03-12,2024-03-12,株式会社エフィ,,株式会社,福岡県,福岡市博多区,博多駅南３丁目２１番２１－５０１号Ａｑｕａｍａｍａ博多駅南,,40,132,8120016,,,,,,,2024-03-12,1,,,,,エフィ,0
575,2350001018830,新規,0,2024-03-12,2024-03-12,株式会社ＴＥＲＩＯＳ,,株式会社,宮崎県,宮崎市,橘通東１丁目２番１３号ポレスター大淀河畔１５０１,,45,201,8800805,,,,,,,2024-03-12,1,,,,,テリオス,0
576,2360003013770,新規,0,2024-03-12,2024-03-12,合同会社ＧＤＤ,,合同会社,沖縄県,宮古島市,平良字西里９８４－３平良マンション１０１,,47,214,9060012,,,,,,,2024-03-12,1,,,,,ジーディーディー,0
591,2430001091274,新規,0,2024-03-12,2024-03-12,株式会社ねむろ海陽亭,,株式会社,北海道,札幌市中央区,宮の森三条１０丁目４番５号,,01,101,0640953,,,,,,,2024-03-12,1,,,,,ネムロカイヨウテイ,0
593,2430003016031,新規,0,2024-03-12,2024-03-12,合同会社アポイワークス,,合同会社,北海道,様似郡様似町,栄町２２９番地の５,,01,608,0580023,,,,,,,2024-03-12,1,,,,,アポイワークス,0
594,2430003016048,新規,0,2024-03-12,2024-03-12,合同会社Ｓ．Ｇ,,合同会社,北海道,札幌市西区,西野十条９丁目９番２２号,,01,107,0630040,,,,,,,2024-03-12,1,,,,,エスジー,0
595,2430005014909,新規,0,2024-03-12,2024-03-12,一般社団法人乳酸菌医科学研究所,,その他の設立登記法人,北海道,札幌市東区,北八条東１丁目３番１５－３０２号,,01,103,0600908,,,,,,,2024-03-12,1,,,,,ニュウサンキンイカガクケンキュウジョ,0
597,2460101007508,新規,0,2024-03-12,2024-03-12,株式会社ＺＡＢＩ,,株式会社,北海道,上川郡清水町,御影西一条４丁目２番地４,,01,636,0890351,,,,,,,2024-03-12,1,,,,,ザビ,0
600,2490005005662,新規,0,2024-03-12,2024-03-12,室戸漁業協同組合,,その他の設立登記法人,高知県,室戸市,室津３３６８番地２,,39,202,7817102,,,,,,,2024-03-12,1,,,,,,0
605,2700150091287,新規,0,2024-03-12,2018-10-19,日本細胞外小胞学会,,その他,東京都,新宿区,西新宿６丁目７－１東京医科大学医学総合研究所分子細胞治療研究部門内,,13,104,1600023,,,,,,,2018-10-19,1,,,,,ニホンサイボウガイシヨウホウガツカイ,0
607,2700150123809,新規,0,2024-03-12,2024-03-12,Ｔａｉｔ　Ｔｏｗｅｒｓ　Ｍａｎｕｆａｃｔｕｒｉｎｇ　ＬＬＣ,,外国会社等,,,,,,,,４０１　Ｗｅｓｔ　Ｌｉｎｃｏｌｎ　Ａｖｅ　Ｌｉｔｉｔｚ，ＰＡ　１７５４３，ＵＳＡ,,,,,,2024-03-12,1,,,,,テイトタワーズマニユフアクチヤリングエルエルシー,0
608,2700150124055,新規,0,2024-03-12,2024-03-12,ＪＯＵ　ＹＯＵＮＧ　ＩＮＤＵＳＴＲＩＡＬ　ＣＯ．，ＬＴＤ．,,外国会社等,,,,,,,,Ｎｏ．５００，Ｓｅｃ．１，Ｘｉｎｇｌａｏ　Ｒｄ．，Ｓｈａｌｕｎ　Ｖｉｌ．，Ｔｉａｎｚｈｏｎｇ　Ｔｏｗｎｓｈｉｐ，Ｃｈａｎｇｈｕａ　Ｃｏｕｎｔｙ　Ｔａｉｗａｎ,,,,,,2024-03-12,1,,,,,チヨウヨウコウギヨウコフンユウゲンコウシ,0
614,3010001242810,新規,0,2024-03-12,2024-03-12,日本安全保障サービス株式会社,,株式会社,東京都,千代田区,四番町２番地１２,,13,101,1020081,,,,,,,2024-03-12,1,,,,,ニホンアンゼンホショウサービス,0
615,3010001242918,新規,0,2024-03-12,2024-03-12,株式会社コミカル,,株式会社,東京都,千代田区,丸の内１丁目８番１号,,13,101,1000005,,,,,,,2024-03-12,1,,,,,コミカル,0
616,3010001242926,新規,0,2024-03-12,2024-03-12,株式会社雪見堂,,株式会社,東京都,中央区,銀座３丁目１１番１６号,,13,102,1040061,,,,,,,2024-03-12,1,,,,,ユキミドウ,0
617,3010001242983,新規,0,2024-03-12,2024-03-12,ＭＵＣＣリサイクル関西株式会社,,株式会社,東京都,千代田区,内幸町２丁目１番１号,,13,101,1000011,,,,,,,2024-03-12,1,,,,,エムユーシーシーリサイクルカンサイ,0
619,3010003043174,新規,0,2024-03-12,2024-03-12,合同会社ＨＥ３,,合同会社,東京都,千代田区,一ツ橋２丁目６番３号アクシスインベストメントアドバイザーズ株式会社内,,13,101,1010003,,,,,,,2024-03-12,1,,,,,エイチイースリー,0
620,3010003043182,新規,0,2024-03-12,2024-03-12,ファルファーラロッサ合同会社,,合同会社,東京都,中央区,銀座１丁目２２番１１号銀座大竹ビジデンス２階,,13,102,1040061,,,,,,,2024-03-12,1,,,,,ファルファーラロッサ,0
621,3010101016040,新規,0,2024-03-12,2024-03-12,こえていく株式会社,,株式会社,東京都,八王子市,散田町３丁目２番２０号,,13,201,1930832,,,,,,,2024-03-12,1,,,,,コエテイク,0
631,3010401180965,新規,0,2024-03-12,2024-03-12,株式会社平町,,株式会社,東京都,港区,東麻布２丁目８番１１－２０４号,,13,103,1060044,,,,,,,2024-03-12,1,,,,,タイラマチ,0
633,3010405023047,新規,0,2024-03-12,2024-03-12,一般社団法人会津若松風力開発,,その他の設立登記法人,東京都,港区,虎ノ門３丁目２２番１０－２０１号,,13,103,1050001,,,,,,,2024-03-12,1,,,,,アイヅワカマツフウリョクカイハツ,0
636,3010505003502,新規,0,2024-03-12,2024-03-12,一般社団法人健康医療相談品質向上協会,,その他の設立登記法人,東京都,台東区,上野５丁目６番１０号,,13,106,1100005,,,,,,,2024-03-12,1,,,,,ケンコウイリョウソウダンヒンシツコウジョウキョウカイ,0
639,3010601064778,新規,0,2024-03-12,2024-03-12,昊吉株式会社,,株式会社,東京都,墨田区,東向島２丁目２０－１１向島ダイヤマンション８０５,,13,107,1310032,,,,,,,2024-03-12,1,,,,,コウキ,0
649,3010901054859,新規,0,2024-03-12,2024-03-12,マルトクコンサルティング株式会社,,株式会社,東京都,世田谷区,代田６丁目１８－１３－８,,13,112,1550033,,,,,,,2024-03-12,1,,,,,マルトクコンサルティング,0
656,3011001160507,新規,0,2024-03-12,2024-03-12,株式会社ｍａｌｌｉｋａ,,株式会社,東京都,目黒区,中根１丁目１４番１５号カーザ・エルミタッジオ８０１,,13,110,1520031,,,,,,,2024-03-12,1,,,,,マリカ,0
657,3011001160572,新規,0,2024-03-12,2024-03-12,Ｐｌｕｍｅａ株式会社,,株式会社,東京都,目黒区,中目黒５丁目１０番１４号ＣＯＭＰＯＳＩＴＥ中目黒３０３,,13,110,1530061,,,,,,,2024-03-12,1,,,,,プルメア,0
659,3011003018645,新規,0,2024-03-12,2024-03-12,フロムゼロ合同会社,,合同会社,東京都,渋谷区,恵比寿西２丁目８番４号ＥＸ恵比寿西ビル５階,,13,113,1500021,,,,,,,2024-03-12,1,,,,,フロムゼロ,0
664,3011101106500,新規,0,2024-03-12,2024-03-12,シーパスロボティクス株式会社,,株式会社,東京都,新宿区,市谷柳町１５番地１プラウド市谷柳町１２０３,,13,104,1620061,,,,,,,2024-03-12,1,,,,,シーパスロボティクス,0
665,3011103014189,新規,0,2024-03-12,2024-03-12,ＥＸＯＴＩＣ　ＪＡＰＡＮ合同会社,,合同会社,東京都,新宿区,百人町２丁目１６－５ハッスルマサハウス２０２,,13,104,1690073,,,,,,,2024-03-12,1,,,,,エキゾチックジャパン,0
666,3011103014197,新規,0,2024-03-12,2024-03-12,合同会社ｆｉａｃｔ,,合同会社,東京都,新宿区,西新宿３丁目３－１３西新宿水間ビル２Ｆ,,13,104,1600023,,,,,,,2024-03-12,1,,,,,ファクト,0
668,3011501030424,新規,0,2024-03-12,2024-03-12,株式会社ＨＫＴ,,株式会社,東京都,荒川区,東日暮里２丁目１１番５号,,13,118,1160014,,,,,,,2024-03-12,1,,,,,エイチケーティー,0
673,3011705001824,新規,0,2024-03-12,2024-03-12,医療法人社団薫誠会,,その他の設立登記法人,東京都,江戸川区,東葛西６丁目８番６号,,13,123,1340084,,,,,,,2024-03-12,1,,,,,クンセイカイ,0
675,3011803006122,新規,0,2024-03-12,2024-03-12,ＷＥＤＯＦＹ合同会社,,合同会社,東京都,葛飾区,東立石４丁目３２－９,,13,122,1240013,,,,,,,2024-03-12,1,,,,,ウィドフィ,0
676,3011805003349,新規,0,2024-03-12,2024-03-12,医療法人社団朋友会,,その他の設立登記法人,東京都,足立区,千住１丁目２４番４号広瀬ビル１階,,13,121,1200034,,,,,,,2024-03-12,1,,,,,ホウユウカイ,0
677,3012301013817,新規,0,2024-03-12,2024-03-12,ハッピーライド株式会社,,株式会社,東京都,町田市,木曽東１丁目２４番２１号アルタハウス１０１,,13,209,1940036,,,,,,,2024-03-12,1,,,,,ハッピーライド,0
689,3013301052193,新規,0,2024-03-12,2024-03-12,ＴＲＩＯＭＰＨＡＬ株式会社,,株式会社,東京都,豊島区,南長崎６丁目２２番３号,,13,116,1710052,,,,,,,2024-03-12,1,,,,,トリヨンファル,0
696,3020001156200,新規,0,2024-03-12,2024-03-12,株式会社センタムメディカル,,株式会社,神奈川県,川崎市中原区,下小田中１丁目１０番１７号,,14,133,2110041,,,,,,,2024-03-12,1,,,,,センタムメディカル,0
704,3021001081660,新規,0,2024-03-12,2024-03-12,ホープデザイン株式会社,,株式会社,神奈川県,平塚市,見附町４６番２９号,,14,203,2540045,,,,,,,2024-03-12,1,,,,,ホープデザイン,0
706,3021003014239,新規,0,2024-03-12,2024-03-12,合同会社東洋商事,,合同会社,神奈川県,相模原市南区,鵜野森３丁目２８番６号アーバンハイムＢ２０１,,14,153,2520301,,,,,,,2024-03-12,1,,,,,トウヨウショウジ,0
713,3030001159078,新規,0,2024-03-12,2024-03-12,株式会社ＲｅＢｌｏ,,株式会社,埼玉県,桶川市,東２丁目１４番６号イーストコート桶川１階１号室,,11,231,3630013,,,,,,,2024-03-12,1,,,,,リブロ,0
714,3030001159111,新規,0,2024-03-12,2024-03-12,株式会社アヴィリール,,株式会社,埼玉県,草加市,柿木町１５６０番地７,,11,221,3400001,,,,,,,2024-03-12,1,,,,,アヴィリール,0
715,3030001159152,新規,0,2024-03-12,2024-03-12,ＯＫＤ株式会社,,株式会社,埼玉県,秩父市,下吉田３７８６番地１,,11,207,3691503,,,,,,,2024-03-12,1,,,,,オーケイディー,0
728,3030005021580,新規,0,2024-03-12,2024-03-12,医療法人社団藤廣会,,その他の設立登記法人,埼玉県,川口市,領家１丁目２３番１５号,,11,203,3320004,,,,,,,2024-03-12,1,,,,,トウコウカイ,0
730,3040001132595,新規,0,2024-03-12,2024-03-12,株式会社Ｒｅ　ｉ　Ｓｋｉｎ,,株式会社,千葉県,習志野市,本大久保４丁目１２番３号,,12,216,2750012,,,,,,,2024-03-12,1,,,,,リアイスキン,0
731,3040001132604,新規,0,2024-03-12,2024-03-12,株式会社恒嶺リフォーム,,株式会社,千葉県,松戸市,古ケ崎１８０番地の１０,,12,207,2710068,,,,,,,2024-03-12,1,,,,,コウレイリフォーム,0
737,3050001054426,新規,0,2024-03-12,2024-03-12,株式会社アースコンサル,,株式会社,茨城県,石岡市,三村２５１１－３４,,08,205,3150048,,,,,,,2024-03-12,1,,,,,アースコンサル,0
738,3050001054434,新規,0,2024-03-12,2024-03-12,株式会社桜舞,,株式会社,茨城県,水戸市,住吉町２０番地の１２,,08,201,3100844,,,,,,,2024-03-12,1,,,,,オウマ,0
742,3060003004956,新規,0,2024-03-12,2024-03-12,ＪＴＴ合同会社,,合同会社,栃木県,小山市,大字大行寺１１４８番地１５モンパレス１号館２０２号室,,09,208,3230041,,,,,,,2024-03-12,1,,,,,ジェイティティ,0
762,3100001037268,新規,0,2024-03-12,2024-03-12,株式会社ＮＮＪ,,株式会社,長野県,松本市,浅間温泉３丁目３番１１号パビヨン７２－８０１,,20,202,3900303,,,,,,,2024-03-12,1,,,,,エヌエヌジェイ,0
763,3100003007442,新規,0,2024-03-12,2024-03-12,合同会社ＳＵＰＥＲＶＩＳＩＯＮ９,,合同会社,長野県,北佐久郡立科町,大字芦田八ケ野字女神湖通り１０３２番地,,20,324,3842309,,,,,,,2024-03-12,1,,,,,スーパービジョンナイン,0
779,3120001262995,新規,0,2024-03-12,2024-03-12,テレモバイルコミュニケーションズ株式会社,,株式会社,大阪府,大阪市中央区,博労町４丁目６番１７号２階,,27,128,5410059,,,,,,,2024-03-12,1,,,,,テレモバイルコミュニケーションズ,0
780,3120001263052,新規,0,2024-03-12,2024-03-12,株式会社ＭＡＩＤＯ　ＪＡＰＡＮ,,株式会社,大阪府,大阪市天王寺区,大道１丁目４番１－５０６号,,27,109,5430052,,,,,,,2024-03-12,1,,,,,マイドジャパン,0
781,3120001263060,新規,0,2024-03-12,2024-03-12,株式会社三八七,,株式会社,大阪府,大阪市中央区,島町２丁目１番１号クローバーハイツ天満橋１０１号室,,27,128,5400034,,,,,,,2024-03-12,1,,,,,サンハチナナ,0
782,3120001263085,新規,0,2024-03-12,2024-03-12,株式会社山一企画,,株式会社,大阪府,大阪市淀川区,十三本町１丁目７番１７号ナポレオンプラザビル１階,,27,123,5320024,,,,,,,2024-03-12,1,,,,,ヤマイチキカク,0
785,3120003026119,新規,0,2024-03-12,2024-03-12,Ｆｉｌ‐ｍｏｖｉｅｄ合同会社,,合同会社,大阪府,大阪市北区,梅田１丁目２番２号大阪駅前第２ビル１２‐１２,,27,127,5300001,,,,,,,2024-03-12,1,,,,,フィルムーブド,0
787,3120005024186,新規,0,2024-03-12,2024-03-12,一般社団法人ファイヤーサポート,,その他の設立登記法人,大阪府,大阪市中央区,日本橋１丁目１７番１７号６０４,,27,128,5420073,,,,,,,2024-03-12,1,,,,,ファイヤーサポート,0
792,3130001076511,新規,0,2024-03-12,2024-03-12,株式会社ＳＹＥ,,株式会社,京都府,京都市右京区,西京極大門町１７－４－１０７,,26,108,6150812,,,,,,,2024-03-12,1,,,,,エスワイイー,0
800,3140001133617,新規,0,2024-03-12,2024-03-12,株式会社エコアース,,株式会社,兵庫県,三木市,自由が丘本町２丁目１８９番地,,28,215,6730424,,,,,,,2024-03-12,1,,,,,エコアース,0
801,3140001133625,新規,0,2024-03-12,2024-03-12,ＣＮＤ株式会社,,株式会社,兵庫県,神戸市中央区,栄町通５丁目２番１９号,,28,110,6500023,,,,,,,2024-03-12,1,,,,,シーエヌディー,0
802,3140001133633,新規,0,2024-03-12,2024-03-12,Ｔ・Ｔコネクト株式会社,,株式会社,兵庫県,神戸市中央区,山本通４丁目２２番９－１０６号,,28,110,6500003,,,,,,,2024-03-12,1,,,,,ティーティーコネクト,0
803,3140001133641,新規,0,2024-03-12,2024-03-12,株式会社オレンジエステート,,株式会社,兵庫県,神戸市須磨区,一ノ谷町１丁目１番１１－４０４号,,28,107,6540076,,,,,,,2024-03-12,1,,,,,オレンジエステート,0
805,3140003020243,新規,0,2024-03-12,2024-03-12,合同会社いわき不動産,,合同会社,兵庫県,伊丹市,鈴原町４丁目１５番地４,,28,207,6640882,,,,,,,2024-03-12,1,,,,,イワキフドウサン,0
806,3140003020251,新規,0,2024-03-12,2024-03-12,合同会社Ｃｏ　Ｃｏ,,合同会社,兵庫県,神戸市兵庫区,中道通１丁目３番２９－７０４号,,28,105,6520801,,,,,,,2024-03-12,1,,,,,ココ,0
807,3140005026965,新規,0,2024-03-12,2024-03-12,農事組合法人高室,,その他の設立登記法人,兵庫県,加西市,北条町東高室８３８番地,,28,220,6752321,,,,,,,2024-03-12,1,,,,,コウシツ,0
809,3150003003197,新規,0,2024-03-12,2024-03-12,合同会社ｙｏｒｉｃ．７,,合同会社,奈良県,天理市,櫟本町１４２５－５エクセレントハイツ５０１,,29,204,6320004,,,,,,,2024-03-12,1,,,,,ヨリクナ,0
821,3180003026476,新規,0,2024-03-12,2024-03-12,合同会社空調省エネ研究所,,合同会社,愛知県,名古屋市緑区,鳴丘１丁目３６４番地の１,,23,114,4580005,,,,,,,2024-03-12,1,,,,,クウチョウショウエネケンキュウジョ,0
823,3180005020543,新規,0,2024-03-12,2024-03-12,ＮＰＯ法人ｈｉｎａｔａｂｏｃｃｏ,,その他の設立登記法人,愛知県,一宮市,奥町字神田２４番地１,,23,203,4910201,,,,,,,2024-03-12,1,,,,,ヒナタボッコ,0
829,3190001031147,新規,0,2024-03-12,2024-03-12,日本大麻産業株式会社,,株式会社,三重県,伊勢市,御薗町高向２０１８,,24,203,5160805,,,,,,,2024-03-12,1,,,,,ニホンタイマサンギョウ,0
830,3190003004596,新規,0,2024-03-12,2024-03-12,Ｄｉａｍｏｎｄ　Ｇｒｏｕｐ合同会社,,合同会社,三重県,鈴鹿市,道伯５丁目１２‐１６,,24,207,5130823,,,,,,,2024-03-12,1,,,,,ダイモンドグループ,0
831,3190003004605,新規,0,2024-03-12,2024-03-12,合同会社そらちゃん,,合同会社,三重県,津市,下弁財町津興３０３８番地フラットユヤ２０３,,24,201,5140805,,,,,,,2024-03-12,1,,,,,ソラチャン,0
832,3190005011913,新規,0,2024-03-12,2024-03-12,一般社団法人子どもアドボカシーセンターＭＩＥ,,その他の設立登記法人,三重県,桑名市,大字東方４５４番地第二富士コーポ２６３号,,24,205,5110811,,,,,,,2024-03-12,1,,,,,コドモアドボカシーセンターミエ,0
835,3210001019668,新規,0,2024-03-12,2024-03-12,Ｔ＆Ｔ株式会社,,株式会社,福井県,越前市,粟田部町第２５号１１番地,,18,209,9150242,,,,,,,2024-03-12,1,,,,,ティーアンドティー,0
838,3220003003693,新規,0,2024-03-12,2024-03-12,グリーン環境開発合同会社,,合同会社,石川県,金沢市,彦三町１丁目２‐１アソルティ金沢彦三１Ｆ,,17,201,9200901,,,,,,,2024-03-12,1,,,,,グリーンカンキョウカイハツ,0
844,3240001062913,新規,0,2024-03-12,2024-03-12,Ｕｎｉｓｏｌｏ株式会社,,株式会社,広島県,福山市,入船町２丁目１－２０－８０３,,34,207,7200801,,,,,,,2024-03-12,1,,,,,,0
847,3250001020548,新規,0,2024-03-12,2024-03-12,株式会社ＡＲＣＨ,,株式会社,山口県,下関市,豊前田町２丁目１番１５号ＳＭＡビル３階ＡＲＣＨ豊前田,,35,201,7500018,,,,,,,2024-03-12,1,,,,,アーチ,0
852,3260003004606,新規,0,2024-03-12,2024-03-12,瀬戸内とりはら農園合同会社,,合同会社,岡山県,瀬戸内市,邑久町山田庄１６２番地,,33,212,7014246,,,,,,,2024-03-12,1,,,,,セトウチトリハラノウエン,0
864,3290001105015,新規,0,2024-03-12,2024-03-12,株式会社Ｋ．ｗｉｔｈ,,株式会社,福岡県,糟屋郡須惠町,須恵５５２－８,,40,344,8112100,,,,,,,2024-03-12,1,,,,,ケードットウィズ,0
869,3300005007180,新規,0,2024-03-12,2024-03-12,一般社団法人ペットフィットネス協会,,その他の設立登記法人,佐賀県,唐津市,鏡３７６９番地２２,,41,202,8470022,,,,,,,2024-03-12,1,,,,,ペットフィットネスキョウカイ,0
874,3340003004399,新規,0,2024-03-12,2024-03-12,ＲＥＢＩＲＴＨ　ＮＥＴ　ＳＹＳＴＥＭ合同会社,,合同会社,鹿児島県,鹿屋市,今坂町１２４３１番地３１西原台ハイツ１０２号,,46,203,8930057,,,,,,,2024-03-12,1,,,,,リバースネットシステム,0
878,3360003013786,新規,0,2024-03-12,2024-03-12,Ｔ‐Ｄｅｎ２４合同会社,,合同会社,沖縄県,中頭郡北谷町,北前１丁目２１－１０仲地マンション３０１,,47,326,9040117,,,,,,,2024-03-12,1,,,,,ティーデンニジュウヨン,0
884,3370003006509,新規,0,2024-03-12,2024-03-12,合同会社ココオモ‐ｃｏｎｎｅｃｔ　ｔｉｅｓ,,合同会社,宮城県,仙台市宮城野区,車町１０１番地の１デュオヒルズ仙台ザ・マークス１５０５,,04,102,9830863,,,,,,,2024-03-12,1,,,,,ココオモコネクトタイス,0
887,3380001034353,新規,0,2024-03-12,2024-03-12,フジ空調株式会社,,株式会社,福島県,郡山市,安積町荒井字柴宮山５５番地の５３,,07,203,9630111,,,,,,,2024-03-12,1,,,,,フジクウチョウ,0
900,3430001091281,新規,0,2024-03-12,2024-03-12,株式会社ＴＫ‐Ｓｏｌｕｔｉｏｎ,,株式会社,北海道,札幌市中央区,南十六条西１２丁目３－２１ピオネロ山鼻２０６号室,,01,101,0640916,,,,,,,2024-03-12,1,,,,,ティーケーソリューション,0
903,3430003016039,新規,0,2024-03-12,2024-03-12,合同会社クロスリゾート,,合同会社,北海道,札幌市中央区,南五条西２丁目９番地３,,01,101,0640805,,,,,,,2024-03-12,1,,,,,クロスリゾート,0
904,3430003016047,新規,0,2024-03-12,2024-03-12,合同会社ＫＯＫＯＡＯ,,合同会社,北海道,札幌市中央区,南一条西１６丁目１番地３２３春野ビル３Ｆ,,01,101,0600061,,,,,,,2024-03-12,1,,,,,ココアオ,0
905,3450001014249,新規,0,2024-03-12,2024-03-12,北力キャピタル株式会社,,株式会社,北海道,旭川市,忠和三条５丁目１３番１４号,,01,204,0708043,,,,,,,2024-03-12,1,,,,,キタチカラキャピタル,0
906,3460103001598,新規,0,2024-03-12,2024-03-12,防災通信テック合同会社,,合同会社,北海道,帯広市,西十三条北４丁目１番地２９,,01,207,0800043,,,,,,,2024-03-12,1,,,,,ボウサイツウシンテック,0
908,3470001020071,新規,0,2024-03-12,2024-03-12,カームス株式会社,,株式会社,香川県,仲多度郡まんのう町,造田５３９番地２,,37,406,7660201,,,,,,,2024-03-12,1,,,,,カームス,0
915,3700150124178,新規,0,2024-03-12,2024-03-12,ＣＨＡＮＧＺＨＯＵ　ＤＥＥＰＡＣＫ　ＰＡＣＫＩＮＧ　ＴＥＣＨＮＯＬＯＧＹ　ＣＯ．，ＬＴＤ．,,外国会社等,,,,,,,,Ｗｕｊｉｎｑｕ　Ｈｕｔａｎｚｈｅｎ　ｙａｎｚｈｅｎｇｚｈｏｎｇｌｕ　１６ｈａｏ　Ａ１９０１ｈａｏ　Ｃｈａｎｇｚｈｏｕ　ＪｉａｎｇＳｕ　Ｃｈｉｎａ,,,,,,2024-03-12,1,,,,,ジヨウシユウテイホウホウソウカギユウゲンコウシ,0
921,4010001242867,新規,0,2024-03-12,2024-03-12,株式会社Ｓｔｅｐ,,株式会社,東京都,文京区,千石４丁目２番１６号,,13,105,1120011,,,,,,,2024-03-12,1,,,,,ステップ,0
922,4010001242925,新規,0,2024-03-12,2024-03-12,ＰＬＵＳ．１株式会社,,株式会社,東京都,千代田区,大手町１丁目５番１号大手町ファーストスクエアイーストタワー４階,,13,101,1000004,,,,,,,2024-03-12,1,,,,,プラスワン,0
923,4010001242966,新規,0,2024-03-12,2024-03-12,株式会社九十九観光,,株式会社,東京都,千代田区,鍛冶町２丁目１番１３号東海樓ビル３Ｆ,,13,101,1010044,,,,,,,2024-03-12,1,,,,,ツクモカンコウ,0
947,4010401180980,新規,0,2024-03-12,2024-03-12,株式会社Ｋｒｉｋｏｓ＆Ｃｏｍｐａｎｙ,,株式会社,東京都,港区,白金６丁目１６番１１－５０５号,,13,103,1080072,,,,,,,2024-03-12,1,,,,,クリコスアンドカンパニー,0
948,4010403032148,新規,0,2024-03-12,2024-03-12,ＵＰＳＴＡ　Ｊａｐａｎ合同会社,,合同会社,東京都,港区,北青山１丁目３番１号アールキューブ青山３階,,13,103,1070061,,,,,,,2024-03-12,1,,,,,アプスタジャパン,0
949,4010405023046,新規,0,2024-03-12,2024-03-12,一般社団法人磐梯地域活性化基金,,その他の設立登記法人,東京都,港区,虎ノ門３丁目２２番１０－２０１号,,13,103,1050001,,,,,,,2024-03-12,1,,,,,バンダイチイキカッセイカキキン,0
960,4010601064802,新規,0,2024-03-12,2024-03-12,Ｆｒｏｎｔｉｅｒ　Ｅｓｔａｔｅｓ　Ｊａｐａｎ株式会社,,株式会社,東京都,江東区,有明１丁目４番２０－１１１２号,,13,108,1350063,,,,,,,2024-03-12,1,,,,,フロンティアエステーツジャパン,0
961,4010605004300,新規,0,2024-03-12,2024-03-12,医療法人社団保存会,,その他の設立登記法人,東京都,墨田区,錦糸３丁目２番１号アルカイースト３階,,13,107,1300013,,,,,,,2024-03-12,1,,,,,ホゾンカイ,0
975,4011003018669,新規,0,2024-03-12,2024-03-12,合同会社Ｌｏｕｌｏｕｌｏｕ,,合同会社,東京都,渋谷区,渋谷２丁目１９－１５宮益坂ビルディング６０９,,13,113,1500002,,,,,,,2024-03-12,1,,,,,ルル,0
980,4011103014196,新規,0,2024-03-12,2024-03-12,合同会社ＦＬＬＣ,,合同会社,東京都,新宿区,西新宿３丁目３番１３号西新宿水間ビル６階,,13,104,1600023,,,,,,,2024-03-12,1,,,,,フリーク,0
983,4011201025302,新規,0,2024-03-12,2024-03-12,ＭＥＣ　Ｌａｂｏ株式会社,,株式会社,東京都,中野区,南台４丁目２７番１７号,,13,114,1640014,,,,,,,2024-03-12,1,,,,,メクラボ,0
984,4011201025310,新規,0,2024-03-12,2024-03-12,株式会社美真人材センター,,株式会社,東京都,中野区,野方２丁目３７－１２ライフピアドルフィン１０５室,,13,114,1650027,,,,,,,2024-03-12,1,,,,,ビシンジンザイセンター,0
989,4011501030423,新規,0,2024-03-12,2024-03-12,株式会社ＫＤ,,株式会社,東京都,荒川区,西日暮里２丁目２５番１号ステーションガーデンタワー１階,,13,118,1160013,,,,,,,2024-03-12,1,,,,,ケイディー,0
991,4011601027609,新規,0,2024-03-12,2024-03-12,株式会社Ａｂｏ　Ｐｌａｎｅｔ,,株式会社,東京都,練馬区,北町７丁目１０－２１,,13,120,1790081,,,,,,,2024-03-12,1,,,,,アボプラネット,0
993,4011603004259,新規,0,2024-03-12,2024-03-12,吉田合同会社,00134033,合同会社,東京都,練馬区,石神井町７丁目１３番１４号,,13,120,1770041,,,,,,,2024-03-12,1,,,,,ヨシダ,0
994,4011701027104,新規,0,2024-03-12,2024-03-12,株式会社ｅ‐ＬＩＦＥ,,株式会社,東京都,江戸川区,中葛西３丁目３５番１号ＭＫＴ葛西１０２号室,,13,123,1340083,,,,,,,2024-03-12,1,,,,,イーライフ,0
997,4012301013816,新規,0,2024-03-12,2024-03-12,株式会社ＹＡＭＣＯ,,株式会社,東京都,町田市,玉川学園１丁目１５番２号,,13,209,1940041,,,,,,,2024-03-12,1,,,,,ヤムコ,0
1001,4012403006445,新規,0,2024-03-12,2024-03-12,ユナイテッドコンサルティング合同会社,,合同会社,東京都,狛江市,中和泉５丁目２１番１７号,,13,219,2010012,,,,,,,2024-03-12,1,,,,,ユナイテッドコンサルティング,0
1006,4012801023026,新規,0,2024-03-12,2024-03-12,株式会社クレスタウェイ,,株式会社,東京都,国分寺市,南町３丁目１３番地５国分寺産業ビル４Ｆ,,13,214,1850021,,,,,,,2024-03-12,1,,,,,クレスタウェイ,0
1018,4020003025699,新規,0,2024-03-12,2024-03-12,合同会社オオゾラ・ホールディングス,,合同会社,神奈川県,川崎市麻生区,栗木１丁目１５番４号Ｃ－２,,14,137,2150033,,,,,,,2024-03-12,1,,,,,オオゾラホールディングス,0
1019,4020003025716,新規,0,2024-03-12,2024-03-12,通合合同会社,,合同会社,神奈川県,川崎市多摩区,菅城下６番１０－２０５号ソレイユ稲田堤,,14,135,2140007,,,,,,,2024-03-12,1,,,,,ツウゴウ,0
1021,4021001081692,新規,0,2024-03-12,2024-03-12,株式会社Ｒｅ　ＳＴＹＬＹ,,株式会社,神奈川県,藤沢市,湘南台３丁目８番地の１４,,14,205,2520804,,,,,,,2024-03-12,1,,,,,リスタイリー,0
1029,4030001159143,新規,0,2024-03-12,2024-03-12,株式会社ＳＴＪ　ＴＲＡＤＩＮＧ,,株式会社,埼玉県,飯能市,柳町７番１０号ＫＩＶ商会館飯能Ｆ号室,,11,209,3570035,,,,,,,2024-03-12,1,,,,,エスティージェイトレーディング,0
1038,4040001132537,新規,0,2024-03-12,2024-03-12,ＥＨコンサルティング株式会社,,株式会社,千葉県,柏市,東山１丁目５番２７号,,12,217,2770064,,,,,,,2024-03-12,1,,,,,イーエイチコンサルティング,0
1039,4040001132603,新規,0,2024-03-12,2024-03-12,ＡＺ株式会社,,株式会社,千葉県,市川市,相之川２丁目１５－１６サントミグランドールマンション３０２,,12,203,2720143,,,,,,,2024-03-12,1,,,,,エーゼット,0
1051,4050001054425,新規,0,2024-03-12,2024-03-12,株式会社Ｌｉｅｎ,,株式会社,茨城県,東茨城郡城里町,大字石塚１７３２番地の２,,08,310,3114303,,,,,,,2024-03-12,1,,,,,リアン,0
1052,4050001054433,新規,0,2024-03-12,2024-03-12,株式会社みらい鑑定,,株式会社,茨城県,水戸市,東前３丁目３６番地の３,,08,201,3111136,,,,,,,2024-03-12,1,,,,,ミライカンテイ,0
1056,4050003008189,新規,0,2024-03-12,2024-03-12,ＳＩＢＡ　ＴＲＡＤＩＮＧ合同会社,,合同会社,茨城県,古河市,上辺見６８５番地３プレステージＮＯ３アイダ１０号,,08,204,3060234,,,,,,,2024-03-12,1,,,,,シバトレーディング,0
1065,4080101024580,新規,0,2024-03-12,2024-03-12,ＯＳ工業株式会社,,株式会社,静岡県,沼津市,御幸町１０番２７号,,22,203,4100832,,,,,,,2024-03-12,1,,,,,オーエスコウギョウ,0
1068,4080403004966,新規,0,2024-03-12,2024-03-12,合同会社ＡＫＴ,,合同会社,静岡県,浜松市中央区,広沢３丁目１１番５０６号,,22,138,4328013,,,,,,,2024-03-12,1,,,,,エーケーティー,0
1070,4100001037267,新規,0,2024-03-12,2024-03-12,プログレサス株式会社,,株式会社,長野県,長野市,松代町東条３１４８番地,,20,201,3811221,,,,,,,2024-03-12,1,,,,,プログレサス,0
1071,4100001037275,新規,0,2024-03-12,2024-03-12,株式会社Ｓｉａｙｅｌｌ,,株式会社,長野県,長野市,大字南長野南石堂町１２５２番地９ユニティ石堂６０６号室,,20,201,3800824,,,,,,,2024-03-12,1,,,,,シアエール,0
1090,4120001262895,新規,0,2024-03-12,2024-03-12,プラ研株式会社,,株式会社,大阪府,大阪市北区,天満橋１丁目１－２４天満橋ハイツ１３０,,27,127,5300042,,,,,,,2024-03-12,1,,,,,プラケン,0
1091,4120001263043,新規,0,2024-03-12,2024-03-12,株式会社大阪不動産コンサルティング,,株式会社,大阪府,大阪市北区,万歳町３番３９－１２０６号,,27,127,5300028,,,,,,,2024-03-12,1,,,,,オオサカフドウサンコンサルティング,0
1092,4120001263084,新規,0,2024-03-12,2024-03-12,ＮＸＩ株式会社,,株式会社,大阪府,大阪市中央区,千日前１丁目４番８号千日前Ｍ’ｓビル３階,,27,128,5420074,,,,,,,2024-03-12,1,,,,,エヌエックスアイ,0
1093,4120001263092,新規,0,2024-03-12,2024-03-12,Ｔｈａｔ’ｓ‐ｇｏ株式会社,,株式会社,大阪府,大阪市福島区,鷺洲１丁目９番１８号,,27,103,5530002,,,,,,,2024-03-12,1,,,,,ザッツゴー,0
1100,4120901048840,新規,0,2024-03-12,2024-03-12,Ｖｓｗ株式会社,,株式会社,大阪府,池田市,井口堂１丁目１２番２号,,27,204,5630023,,,,,,,2024-03-12,1,,,,,ブイエスダブリュー,0
1119,4140001133599,新規,0,2024-03-12,2024-03-12,株式会社Ｆｅｓｔ,,株式会社,兵庫県,神戸市中央区,中山手通３丁目１２番５－２０２号,,28,110,6500004,,,,,,,2024-03-12,1,,,,,フェスト,0
1120,4140001133624,新規,0,2024-03-12,2024-03-12,株式会社フロー,,株式会社,兵庫県,神戸市中央区,三宮町１丁目８番１号さんプラザ３階,,28,110,6500021,,,,,,,2024-03-12,1,,,,,フロー,0
1121,4140001133632,新規,0,2024-03-12,2024-03-12,和合洋株式会社,,株式会社,兵庫県,尼崎市,東難波町５丁目１３番１４号,,28,202,6600892,,,,,,,2024-03-12,1,,,,,ワゴウヨウ,0
1122,4140001133640,新規,0,2024-03-12,2024-03-12,ケーワイ電装株式会社,,株式会社,兵庫県,尼崎市,西昆陽１丁目２３番１１－１０５号,,28,202,6610047,,,,,,,2024-03-12,1,,,,,ケーワイデンソウ,0
1124,4140003020259,新規,0,2024-03-12,2024-03-12,合同会社Ｐｅｐａ　Ｗｏｒｌｄ,,合同会社,兵庫県,神戸市北区,君影町１丁目１番１５－１０６号,,28,109,6511122,,,,,,,2024-03-12,1,,,,,ペパワールド,0
1126,4140005026964,新規,0,2024-03-12,2024-03-12,一般社団法人ハートフラワー,,その他の設立登記法人,兵庫県,姫路市,田井台２番地８１,,28,201,6712211,,,,,,,2024-03-12,1,,,,,ハートフラワー,0
1130,4170001018038,新規,0,2024-03-12,2024-03-12,株式会社ｔｒＲ．ｍ　Ｍ．ｔｒＨ,,株式会社,和歌山県,伊都郡かつらぎ町,大字笠田東４３０番地の３,,30,341,6497161,,,,,,,2024-03-12,1,,,,,トルラミマトルハ,0
1136,4180001160516,新規,0,2024-03-12,2024-03-12,株式会社ライズ,,株式会社,愛知県,名古屋市南区,三条２丁目５番１２号,,23,112,4570866,,,,,,,2024-03-12,1,,,,,ライズ,0
1153,4270003001601,新規,0,2024-03-12,2024-03-12,合同会社キツネ出版,,合同会社,鳥取県,倉吉市,上余戸４４９番地１３,,31,203,6820032,,,,,,,2024-03-12,1,,,,,キツネシュッパン,0
1170,4300001013644,新規,0,2024-03-12,2024-03-12,株式会社タカミ,,株式会社,佐賀県,唐津市,東城内２－２７,,41,202,8470016,,,,,,,2024-03-12,1,,,,,,0
1187,4340001026353,新規,0,2024-03-12,2024-03-12,株式会社幸希,,株式会社,鹿児島県,肝属郡肝付町,前田９４４番地,,46,492,8931206,,,,,,,2024-03-12,1,,,,,コウキ,0
1188,4350001018829,新規,0,2024-03-12,2024-03-12,株式会社アーク,,株式会社,宮崎県,児湯郡川南町,大字平田３４０３番地,,45,405,8891302,,,,,,,2024-03-12,1,,,,,アーク,0
1189,4360003013785,新規,0,2024-03-12,2024-03-12,合同会社トンム,,合同会社,沖縄県,名護市,字源河１５５８番地６,,47,209,9051141,,,,,,,2024-03-12,1,,,,,トンム,0
1191,4370001051019,新規,0,2024-03-12,2024-03-12,株式会社ライフコーデ,,株式会社,宮城県,仙台市若林区,五十人町１１６番地の２,,04,103,9840812,,,,,,,2024-03-12,1,,,,,ライフコーデ,0
1192,4370005010755,新規,0,2024-03-12,2024-03-12,一般社団法人ＡＣＴ石巻,,その他の設立登記法人,宮城県,石巻市,北村字小崎一１５番地３,,04,202,9871103,,,,,,,2024-03-12,1,,,,,アクトイシノマキ,0
1194,4400005008399,新規,0,2024-03-12,2024-03-12,一般社団法人全国道路標識・標示業岩手県協会,,その他の設立登記法人,岩手県,盛岡市,松尾町１７番９号岩手県建設会館四階,,03,201,0200873,,,,,,,2024-03-12,1,,,,,ゼンコクドウロヒョウシキヒョウジギョウイワテケンキョウカイ,0
1203,4430001091264,新規,0,2024-03-12,2024-03-12,株式会社ワンアップ,,株式会社,北海道,苫小牧市,沼ノ端中央１丁目１４番１６号,,01,213,0591305,,,,,,,2024-03-12,1,,,,,ワンアップ,0
1204,4430001091272,新規,0,2024-03-12,2024-03-12,トラストリーシング株式会社,,株式会社,北海道,札幌市中央区,南二条西６丁目７番地２アルファスクエア大通,,01,101,0600062,,,,,,,2024-03-12,1,,,,,トラストリーシング,0
1205,4430003016038,新規,0,2024-03-12,2024-03-12,合同会社ＵＴ,,合同会社,北海道,札幌市中央区,南五条西２丁目９番地３,,01,101,0640805,,,,,,,2024-03-12,1,,,,,ユーティー,0
1210,4500001025504,新規,0,2024-03-12,2024-03-12,余戸スポーツプラザ株式会社,,株式会社,愛媛県,松山市,余戸西３丁目８番１８号,,38,201,7900046,,,,,,,2024-03-12,1,,,,,ヨウゴスポーツプラザ,0
1211,4700150003050,新規,0,2024-03-12,2015-10-09,芙蓉ファミリークラブ,,その他,東京都,台東区,西浅草３丁目１７－１浅草ビューホテル２階,,13,106,1110035,,,,,,,2015-10-09,1,,,,,フヨウフアミリークラブ,0
1227,5010001242924,新規,0,2024-03-12,2024-03-12,株式会社Ｉｎｃｕｂａｔｅ　Ｈａｒｂｏｒ,,株式会社,東京都,千代田区,丸の内３丁目３番１号,,13,101,1000005,,,,,,,2024-03-12,1,,,,,インキュベートハーバー,0
1228,5010001242973,新規,0,2024-03-12,2024-03-12,株式会社ＥＸＴＲＥＭＥ,,株式会社,東京都,千代田区,飯田橋１丁目５番７号東専堂ビル３階,,13,101,1020072,,,,,,,2024-03-12,1,,,,,エクストリーム,0
1231,5010003043172,新規,0,2024-03-12,2024-03-12,Ｓｋａｄｉ　Ｊａｐａｎ合同会社,,合同会社,東京都,文京区,本郷５丁目２－５,,13,105,1130033,,,,,,,2024-03-12,1,,,,,スカディジャパン,0
1235,5010101016039,新規,0,2024-03-12,2024-03-12,株式会社ｓｉｉｍｅｅ,,株式会社,東京都,八王子市,みなみ野４丁目２５番１－８０９号,,13,201,1920916,,,,,,,2024-03-12,1,,,,,シーミー,0
1243,5010401180947,新規,0,2024-03-12,2024-03-12,ＷＪ株式会社,,株式会社,東京都,港区,新橋１丁目５番６号銀座第三誠和ビル７階,,13,103,1050004,,,,,,,2024-03-12,1,,,,,ダブルジェイ,0
1244,5010401180955,新規,0,2024-03-12,2024-03-12,株式会社Ｎｅｕｒｏｎ　Ｘ,,株式会社,東京都,港区,北青山１丁目３番１号アールキューブ青山３階,,13,103,1070061,,,,,,,2024-03-12,1,,,,,ニューロンエックス,0
1247,5010405023045,新規,0,2024-03-12,2024-03-12,一般社団法人佐野地域活性化基金,,その他の設立登記法人,東京都,港区,虎ノ門３丁目２２番１０－２０１号,,13,103,1050001,,,,,,,2024-03-12,1,,,,,サノチイキカッセイカキキン,0
1253,5010501051908,新規,0,2024-03-12,2024-03-12,ＪＭ株式会社,,株式会社,東京都,台東区,上野３丁目１６番２号天翔上野末広町ビル６０３,,13,106,1100005,,,,,,,2024-03-12,1,,,,,ジェイエム,0
1255,5010601064792,新規,0,2024-03-12,2024-03-12,ＡＢＡ教室ＨＲＥ株式会社,,株式会社,東京都,江東区,北砂３丁目４番１５－２０７号,,13,108,1360073,,,,,,,2024-03-12,1,,,,,エイビーエイキョウシツエイチアールイー,0
1256,5010605004299,新規,0,2024-03-12,2024-03-12,一般社団法人Ｉｍａｇｅ　Ｎａｔｉｏｎ　Ｇｒｅｅｎ,,その他の設立登記法人,東京都,墨田区,八広５丁目２０－１０,,13,107,1310041,,,,,,,2024-03-12,1,,,,,イマジネーショングリーン,0
1262,5010905004585,新規,0,2024-03-12,2024-03-12,医療法人社団朗桜会,,その他の設立登記法人,東京都,世田谷区,用賀４丁目３番９号ＭＯＲＩＹＡＴＨＲＥＥ２階,,13,112,1580097,,,,,,,2024-03-12,1,,,,,ロウオウカイ,0
1269,5011005010409,新規,0,2024-03-12,2024-03-12,一般社団法人医療情報支援協会,,その他の設立登記法人,東京都,渋谷区,松濤１丁目２８番７号シャトレー松濤２０１号,,13,113,1500046,,,,,,,2024-03-12,1,,,,,イリョウジョウホウシエンキョウカイ,0
1272,5011101106498,新規,0,2024-03-12,2024-03-12,株式会社ａｔ　ｏｎｅ,,株式会社,東京都,新宿区,大久保１丁目１２番３号カーサ第二新宿５０３号室,,13,104,1690072,,,,,,,2024-03-12,1,,,,,アットワン,0
1273,5011101106507,新規,0,2024-03-12,2024-03-12,株式会社ＳＯＦＡ,,株式会社,東京都,新宿区,西新宿３丁目３番１３号西新宿水間ビル６階,,13,104,1600023,,,,,,,2024-03-12,1,,,,,ソファ,0
1275,5011103014179,新規,0,2024-03-12,2024-03-12,合同会社ＳＫＳ,,合同会社,東京都,新宿区,四谷三栄町１２番２０号,,13,104,1600008,,,,,,,2024-03-12,1,,,,,エスケーエス,0
1280,5011501030323,新規,0,2024-03-12,2024-03-12,株式会社三海,,株式会社,東京都,荒川区,西日暮里２丁目５３－５ニューハウス西日暮里４０１号室,,13,118,1160013,,,,,,,2024-03-12,1,,,,,サンカイ,0
1281,5011501030380,新規,0,2024-03-12,2024-03-12,Ｍｅｔｒｅｏｎ株式会社,,株式会社,東京都,北区,浮間１丁目１番１４号リムジンビル３０４,,13,117,1150051,,,,,,,2024-03-12,1,,,,,メトレオン,0
1283,5011503005983,新規,0,2024-03-12,2024-03-12,ユートピア建設合同会社,,合同会社,東京都,北区,王子５丁目１番１号－１３２４号,,13,117,1140002,,,,,,,2024-03-12,1,,,,,ユートピアケンセツ,0
1287,5011705001822,新規,0,2024-03-12,2024-03-12,医療法人社団Ｙｏｕｒｄｅｎｔ,,その他の設立登記法人,東京都,江戸川区,中葛西５丁目３２番５号郡山ビル１０１号室,,13,123,1340083,,,,,,,2024-03-12,1,,,,,ユアデント,0
1292,5011801043900,新規,0,2024-03-12,2024-03-12,株式会社Ｔｏｋｙｏ　Ｋｉｃｋｉｎｇ　Ｓｔａｇｅ,,株式会社,東京都,葛飾区,新小岩２丁目２８－１０ハーモニーテラス新小岩ＩＩＩ１０２,00134028,13,122,1240024,,,,,,,2024-03-12,1,,,,,トウキョウキッキングステージ,0
1295,5012403006452,新規,0,2024-03-12,2024-03-12,合同会社Ｖｅｎｕｓ,,合同会社,東京都,府中市,府中町１丁目６－３倉林ビル１階,,13,206,1830055,,,,,,,2024-03-12,1,,,,,ヴィーナス,0
1301,5013301052191,新規,0,2024-03-12,2024-03-12,株式会社ＡｇｅｎｔＸ,,株式会社,東京都,豊島区,北大塚３丁目３０番８号ロータス北大塚３０１号,00134034,13,116,1700004,,,,,,,2024-03-12,1,,,,,エージェントエックス,0
1302,5013305003579,新規,0,2024-03-12,2024-03-12,一般社団法人広域医福会,,その他の設立登記法人,東京都,豊島区,東池袋３丁目１１番９号,,13,116,1700013,,,,,,,2024-03-12,1,,,,,コウイキイフクカイ,0
1308,5020003025698,新規,0,2024-03-12,2024-03-12,ゴールドランド合同会社,,合同会社,神奈川県,横浜市青葉区,あざみ野２丁目１８番地５４,,14,117,2250011,,,,,,,2024-03-12,1,,,,,ゴールドランド,0
1309,5020003025715,新規,0,2024-03-12,2024-03-12,サニーベールアセット合同会社,,合同会社,神奈川県,横浜市港北区,下田町３丁目１番１２号２０５号室,,14,109,2230064,,,,,,,2024-03-12,1,,,,,サニーベールアセット,0
1310,5021001081667,新規,0,2024-03-12,2024-03-12,株式会社石井総業,,株式会社,神奈川県,高座郡寒川町,倉見９７４番地１,,14,321,2530101,,,,,,,2024-03-12,1,,,,,イシイソウギョウ,0
1314,5021003014245,新規,0,2024-03-12,2024-03-12,ＦＵＲＡＲＴ合同会社,,合同会社,神奈川県,平塚市,黒部丘２８番３２号Ｋハイム３番館２０１号,,14,203,2540821,,,,,,,2024-03-12,1,,,,,ファーアート,0
1315,5021005013039,新規,0,2024-03-12,2024-03-12,ＮＰＯ法人シリウス,,その他の設立登記法人,神奈川県,厚木市,吾妻町１番３－４０１号,,14,212,2430006,,,,,,,2024-03-12,1,,,,,シリウス,0
1331,5030003023759,新規,0,2024-03-12,2024-03-12,Ｍ＆ＫＴ合同会社,,合同会社,埼玉県,比企郡吉見町,大字前河内４４４－１,,11,347,3550135,,,,,,,2024-03-12,1,,,,,エムアンドケイティ,0
1338,5050001054408,新規,0,2024-03-12,2024-03-12,ＮＡＴＵＲＥ株式会社,,株式会社,茨城県,筑西市,幸町１丁目２２番７号,,08,227,3080848,,,,,,,2024-03-12,1,,,,,ナテュール,0
1339,5050001054424,新規,0,2024-03-12,2024-03-12,株式会社福水電気工業,,株式会社,茨城県,神栖市,大野原６丁目１番６５号,,08,232,3140144,,,,,,,2024-03-12,1,,,,,フクミズデンキコウギョウ,0
1340,5050001054432,新規,0,2024-03-12,2024-03-12,株式会社コネクションオート,,株式会社,茨城県,筑西市,下平塚６４４番地８,,08,227,3080066,,,,,,,2024-03-12,1,,,,,コネクションオート,0
1349,5080001026172,新規,0,2024-03-12,2024-03-12,株式会社ＳＪＬインターナショナル,,株式会社,静岡県,静岡市葵区,北１丁目２３番３６号,,22,101,4200961,,,,,,,2024-03-12,1,,,,,エスジェイエルインターナショナル,0
1360,5080403004965,新規,0,2024-03-12,2024-03-12,ＥｔｈｉｃａｌＥｓｔａｔｅｓ合同会社,,合同会社,静岡県,浜松市中央区,中野町７５４番地の４,,22,138,4350004,,,,,,,2024-03-12,1,,,,,エシカルエステイツ,0
1370,5120001263042,新規,0,2024-03-12,2024-03-12,ＭＹ　ＴＲＵＳＴ株式会社,,株式会社,大阪府,大阪市港区,市岡２丁目１３番４６号,,27,107,5520012,,,,,,,2024-03-12,1,,,,,エムワイトラスト,0
1371,5120001263059,新規,0,2024-03-12,2024-03-12,株式会社河部,,株式会社,大阪府,大阪市西区,南堀江３丁目３番９号,,27,106,5500015,,,,,,,2024-03-12,1,,,,,カワベ,0
1372,5120001263075,新規,0,2024-03-12,2024-03-12,ＹＫビルド株式会社,,株式会社,大阪府,大阪市中央区,玉造２丁目１５番３－５０３号,,27,128,5400004,,,,,,,2024-03-12,1,,,,,ワイケービルド,0
1373,5120001263091,新規,0,2024-03-12,2024-03-12,株式会社ゴールドウェル,,株式会社,大阪府,大阪市浪速区,日本橋４丁目９番１６号エステムコート難波ＩＩＩラグース１００３号室,00134026,27,111,5560005,,,,,,,2024-03-12,1,,,,,ゴールドウェル,0
1380,5120901048872,新規,0,2024-03-12,2024-03-12,ゆうあい看護株式会社,,株式会社,大阪府,豊中市,庄内東町４丁目２－２６インフィニティフジ２Ｆ,,27,203,5610831,,,,,,,2024-03-12,1,,,,,ユウアイカンゴ,0
1381,5120901048880,新規,0,2024-03-12,2024-03-12,株式会社オフィスミツホ,,株式会社,大阪府,茨木市,西駅前町４番６１２号,,27,211,5670032,,,,,,,2024-03-12,1,,,,,オフィスミツホ,0
1382,5122001037896,新規,0,2024-03-12,2024-03-12,蘭氏株式会社,,株式会社,大阪府,大東市,御供田１丁目１６－９,,27,218,5740025,,,,,,,2024-03-12,1,,,,,ランシ,0
1383,5122003002824,新規,0,2024-03-12,2024-03-12,合同会社ｗｅｓｔ‐ｏｎｅ,,合同会社,大阪府,八尾市,教興寺４丁目１０９番地,,27,212,5810874,,,,,,,2024-03-12,1,,,,,ウエストワン,0
1386,5130001076518,新規,0,2024-03-12,2024-03-12,株式会社諸橋総建,,株式会社,京都府,城陽市,寺田宮ノ谷２９番地３２６,,26,207,6100121,,,,,,,2024-03-12,1,,,,,モロハシソウケン,0
1387,5130001076534,新規,0,2024-03-12,2024-03-12,株式会社ｂｏｎｄ,,株式会社,京都府,京都市伏見区,淀樋爪町３８２番地１,00134032,26,109,6130901,,,,,,,2024-03-12,1,,,,,ボンド,0
1388,5130001076542,新規,0,2024-03-12,2024-03-12,天一株式会社,,株式会社,京都府,京都市南区,上鳥羽南唐戸町７番地Ｋビル５０５号室,,26,107,6018107,,,,,,,2024-03-12,1,,,,,テンイチ,0
1389,5130001076550,新規,0,2024-03-12,2024-03-12,株式会社マゴコロ,,株式会社,京都府,京都市北区,上賀茂朝露ケ原町１２番地２３アンビエント上賀茂３０８,,26,101,6038035,,,,,,,2024-03-12,1,,,,,マゴコロ,0
1390,5130005017030,新規,0,2024-03-12,2024-03-12,特定非営利活動法人みんなの居場所ウッドワン,,その他の設立登記法人,京都府,京都市中京区,西ノ京西中合町２５番地１,,26,104,6048441,,,,,,,2024-03-12,1,,,,,ミンナノイバショウッドワン,0
1395,5140001133623,新規,0,2024-03-12,2024-03-12,株式会社ＭＵＳＵＢＩ,,株式会社,兵庫県,加古川市,新神野６丁目１９番１５号,,28,210,6750008,,,,,,,2024-03-12,1,,,,,ムスビ,0
1396,5140001133648,新規,0,2024-03-12,2024-03-12,株式会社エムエスカンパニー,,株式会社,兵庫県,姫路市,土山２丁目６－２,,28,201,6700996,,,,,,,2024-03-12,1,,,,,エムエスカンパニー,0
1399,5140005026971,新規,0,2024-03-12,2024-03-12,一般社団法人ビジネスと人権研究所,,その他の設立登記法人,兵庫県,神戸市中央区,江戸町８５－１ベイ・ウィング神戸ビル９階,,28,110,6500033,,,,,,,2024-03-12,1,,,,,ビジネストジンケンケンキュウショ,0
1401,5160001025736,新規,0,2024-03-12,2024-03-12,株式会社万協,,株式会社,滋賀県,大津市,中央２丁目４番２８号錦ビル２０１号室,,25,201,5200043,,,,,,,2024-03-12,1,,,,,バンキョウ,0
1404,5170003001998,新規,0,2024-03-12,2024-03-12,ＳＯＭＭＥ合同会社,,合同会社,和歌山県,和歌山市,北野３３６－２,,30,201,6496331,,,,,,,2024-03-12,1,,,,,ソム,0
1411,5180001160366,新規,0,2024-03-12,2024-03-12,株式会社Ｏｈａｎａ,,株式会社,愛知県,弥富市,五明４丁目９２番地,,23,235,4980014,,,,,,,2024-03-12,1,,,,,オハナ,0
1413,5180303006028,新規,0,2024-03-12,2024-03-12,ＹＡＲＡ　ＴＲＡＤＩＮＧ合同会社,,合同会社,愛知県,岡崎市,岡町字西神馬南側２５番地３８美合アパート２０１,,23,202,4440005,,,,,,,2024-03-12,1,,,,,ヤラトレーディング,0
1414,5190005011911,新規,0,2024-03-12,2024-03-12,医療法人ちば皮フ科耳鼻咽喉科,,その他の設立登記法人,三重県,員弁郡東員町,大字鳥取１２９６番地１,,24,324,5110241,,,,,,,2024-03-12,1,,,,,チバヒフカジビインコウカ,0
1423,5240001062911,新規,0,2024-03-12,2024-03-12,株式会社カネグチ,,株式会社,広島県,三原市,幸崎能地７丁目７番４３号,,34,204,7292252,,,,,,,2024-03-12,1,,,,,カネグチ,0
1431,5250005008901,新規,0,2024-03-12,2024-03-12,社会福祉法人どっか・すっか,,その他の設立登記法人,山口県,下関市,赤間町３番１２号,,35,201,7500007,,,,,,,2024-03-12,1,,,,,ドッカスッカ,0
1439,5290001105021,新規,0,2024-03-12,2024-03-12,株式会社ＡＬＬＩＳＡＥ,,株式会社,福岡県,福岡市博多区,下呉服町４番１３号トーカンマンション呉服町５０１,,40,132,8120034,,,,,,,2024-03-12,1,,,,,アリセ,0
1447,5290801030385,新規,0,2024-03-12,2024-03-12,株式会社ディチョソ,,株式会社,福岡県,北九州市八幡西区,西折尾町１２番１４号,,40,109,8070862,,,,,,,2024-03-12,1,,,,,ディチョソ,0
1452,5320001020340,新規,0,2024-03-12,2024-03-12,株式会社藤森建設,,株式会社,大分県,大分市,日吉町５番２０号新貝ロイヤルハイツ５０１,,44,201,8700918,,,,,,,2024-03-12,1,,,,,フジモリケンセツ,0
1457,5330001031840,新規,0,2024-03-12,2024-03-12,株式会社ｊｏｉｅ．,,株式会社,熊本県,熊本市中央区,出水６丁目６－１９,,43,101,8620941,,,,,,,2024-03-12,1,,,,,ジョアドット,0
1459,5340001026352,新規,0,2024-03-12,2024-03-12,株式会社アニッジ,,株式会社,鹿児島県,鹿児島市,加治屋町４－７　３０３号,,46,201,8920846,,,,,,,2024-03-12,1,,,,,アニッジ,0
1463,5350005006218,新規,0,2024-03-12,2024-03-12,一般社団法人宮崎ひなたサウナ協会,,その他の設立登記法人,宮崎県,日向市,大字日知屋７６６０番地１,,45,206,8830062,,,,,,,2024-03-12,1,,,,,ミヤザキヒナタサウナキョウカイ,0
1467,5360003013784,新規,0,2024-03-12,2024-03-12,ＧＯＬＤＥＮ　ＦＡＲＭＥＲ合同会社,,合同会社,沖縄県,糸満市,西崎町４丁目２２番地６,,47,210,9010306,,,,,,,2024-03-12,1,,,,,ゴールデンファーマー,0
1468,5370001051018,新規,0,2024-03-12,2024-03-12,株式会社オークウッドアソシエイツ,,株式会社,宮城県,仙台市青葉区,柏木２丁目４番２号,,04,101,9810933,,,,,,,2024-03-12,1,,,,,オークウッドアソシエイツ,0
1470,5370003006507,新規,0,2024-03-12,2024-03-12,合同会社ＥＶＯＬＶＥ,,合同会社,宮城県,仙台市泉区,八乙女中央２丁目４番２５号,,04,105,9813135,,,,,,,2024-03-12,1,,,,,エボルベ,0
1489,5430001091271,新規,0,2024-03-12,2024-03-12,株式会社ＥＮＲＥＬＡＴＩＯＮ,,株式会社,北海道,千歳市,緑町１丁目３番３５号,,01,224,0660074,,,,,,,2024-03-12,1,,,,,エンリレーション,0
1490,5430003016020,新規,0,2024-03-12,2024-03-12,合同会社ＲＴＭ,,合同会社,北海道,札幌市中央区,南四条西３丁目３番地１第２Ｇビル４階ハイアート内,,01,101,0640804,,,,,,,2024-03-12,1,,,,,アールティーエム,0
1491,5430003016037,新規,0,2024-03-12,2024-03-12,合同会社ガーデンテラス,,合同会社,北海道,札幌市中央区,南五条西２丁目９番地３,,01,101,0640805,,,,,,,2024-03-12,1,,,,,ガーデンテラス,0
1492,5430003016045,新規,0,2024-03-12,2024-03-12,合同会社市村組,,合同会社,北海道,石狩市,親船東三条１丁目９２番地,,01,235,0613367,,,,,,,2024-03-12,1,,,,,イチムラグミ,0
1493,5430005014914,新規,0,2024-03-12,2024-03-12,医療法人愛おおぐろ眼科,,その他の設立登記法人,北海道,札幌市中央区,大通西１７丁目１－２７札幌メディケアセンタービル桂和３階,,01,101,0600042,,,,,,,2024-03-12,1,,,,,アイオオグロガンカ,0
1494,5460103001596,新規,0,2024-03-12,2024-03-12,合同会社ＥＳＴ,,合同会社,北海道,帯広市,西九条南１４丁目６番サンライフ９１４　１０１号,,01,207,0800019,,,,,,,2024-03-12,1,,,,,イーエスティー,0
1516,6010001242907,新規,0,2024-03-12,2024-03-12,ＪＭＫキャピタル株式会社,,株式会社,東京都,千代田区,一番町２３番地２－６０３号,,13,101,1020082,,,,,,,2024-03-12,1,,,,,ジェイエムケイキャピタル,0
1517,6010001242980,新規,0,2024-03-12,2024-03-12,株式会社コバケン,,株式会社,東京都,中央区,銀座７丁目１３番６号サガミビル２階,,13,102,1040061,,,,,,,2024-03-12,1,,,,,コバケン,0
1526,6010003043064,新規,0,2024-03-12,2024-03-12,ＤｉＬｕｃｃｉａ＆Ｐａｒｔｎｅｒｓ　Ｊａｐａｎ合同会社,,合同会社,東京都,中央区,新川１丁目３－２１ＢＩＺＳＭＡＲＴ茅場町２１６号,,13,102,1040033,,,,,,,2024-03-12,1,,,,,ディルーチアアンドパートナーズジャパン,0
1539,6010401180954,新規,0,2024-03-12,2024-03-12,Ａｄｄ３３株式会社,,株式会社,東京都,港区,虎ノ門１丁目２－１１ザ・パークレックス虎ノ門４階,,13,103,1050001,,,,,,,2024-03-12,1,,,,,アッドサーティースリー,0
1540,6010401180979,新規,0,2024-03-12,2024-03-12,株式会社企業保険パートナーズ,,株式会社,東京都,港区,虎ノ門４丁目３番２０号神谷町ＭＴビル１８階,,13,103,1050001,,,,,,,2024-03-12,1,,,,,キギョウホケンパートナーズ,0
1543,6010403032146,新規,0,2024-03-12,2024-03-12,ＡＴ＆Ｋ　Ｐｒｏｐｅｒｔｙ合同会社,,合同会社,東京都,港区,白金１丁目２番１－Ｅ２９０３号,,13,103,1080072,,,,,,,2024-03-12,1,,,,,エーティーアンドケープロパティ,0
1544,6010405023052,新規,0,2024-03-12,2024-03-12,一般社団法人藤光クリーンエナジー,,その他の設立登記法人,東京都,港区,愛宕１丁目６番８号,,13,103,1050002,,,,,,,2024-03-12,1,,,,,フジコウクリーンエナジー,0
1548,6010605004298,新規,0,2024-03-12,2024-03-12,医療法人社団Ｗｉｎｃｌｓ,,その他の設立登記法人,東京都,墨田区,錦糸２丁目１３番６号春山ビル５階,,13,107,1300013,,,,,,,2024-03-12,1,,,,,ウィンクルス,0
1551,6010701045691,新規,0,2024-03-12,2024-03-12,株式会社ＫＥＮＣＯＰＡ,,株式会社,東京都,品川区,上大崎２丁目１０番３４－３－４０９号,,13,109,1410021,,,,,,,2024-03-12,1,,,,,ケンコパ,0
1554,6010801034842,新規,0,2024-03-12,2024-03-12,北海道イノベーション＆インキュベーション株式会社,,株式会社,東京都,大田区,北馬込２丁目４１番８－３０７号,,13,111,1430021,,,,,,,2024-03-12,1,,,,,,0
1563,6011001160520,新規,0,2024-03-12,2024-03-12,Ｈ‐Ｙ‐ＳＴＵＤＩＯ株式会社,,株式会社,東京都,渋谷区,西原２丁目２５番１３－９０９号,,13,113,1510066,,,,,,,2024-03-12,1,,,,,エイチワイスタジオ,0
1571,6011101106497,新規,0,2024-03-12,2024-03-12,株式会社絆,,株式会社,東京都,新宿区,西新宿３丁目３番１３号西新宿水間ビル２Ｆ,,13,104,1600023,,,,,,,2024-03-12,1,,,,,キズナ,0
1572,6011101106506,新規,0,2024-03-12,2024-03-12,株式会社ワーク,,株式会社,東京都,新宿区,西新宿６丁目５番１号新宿アイランドタワー２階,,13,104,1600023,,,,,,,2024-03-12,1,,,,,ワーク,0
1573,6011105010968,新規,0,2024-03-12,2024-03-12,一般社団法人日中文化展覧協会,,その他の設立登記法人,東京都,新宿区,納戸町２６－８ＡＡＲＯＮビル２０１号,,13,104,1620837,,,,,,,2024-03-12,1,,,,,ニッチュウブンカテンランキョウカイ,0
1576,6011301029465,新規,0,2024-03-12,2024-03-12,株式会社ＳＡＮＩＳＴＡ,,株式会社,東京都,杉並区,久我山５丁目２番７号,,13,115,1680082,,,,,,,2024-03-12,1,,,,,サニスタ,0
1584,6011701027093,新規,0,2024-03-12,2024-03-12,田嶋電設株式会社,,株式会社,東京都,江戸川区,北小岩６丁目４５番１１号,,13,123,1330051,,,,,,,2024-03-12,1,,,,,タジマデンセツ,0
1585,6011705001821,新規,0,2024-03-12,2024-03-12,医療法人社団かなめ,,その他の設立登記法人,東京都,江戸川区,中葛西５丁目２０番１４号水戸ビル１階,,13,123,1340083,,,,,,,2024-03-12,1,,,,,カナメ,0
1587,6011801043899,新規,0,2024-03-12,2024-03-12,株式会社アチーブ,,株式会社,東京都,足立区,扇２丁目１７番２５号シンクス扇１０１,,13,121,1230873,,,,,,,2024-03-12,1,,,,,アチーブ,0
1590,6012401041608,新規,0,2024-03-12,2024-03-12,株式会社２７,,株式会社,東京都,武蔵野市,吉祥寺北町４丁目１番２４－３０４号グローリオ吉祥寺アークスブライトコート,,13,203,1800001,,,,,,,2024-03-12,1,,,,,ニジュウナナ,0
1593,6013303007044,新規,0,2024-03-12,2024-03-12,合同会社シアーピース,,合同会社,東京都,豊島区,雑司が谷２丁目２５－１１雑司が谷ヒルサイドテラス２０２,,13,116,1710032,,,,,,,2024-03-12,1,,,,,シアーピース,0
1598,6020001156189,新規,0,2024-03-12,2024-03-12,株式会社航建設,,株式会社,神奈川県,横浜市西区,浅間町１丁目４番３号,,14,103,2200072,,,,,,,2024-03-12,1,,,,,ワタルケンセツ,0
1599,6020001156197,新規,0,2024-03-12,2024-03-12,株式会社ＯｐｅｎＶｉｓｉｏｎ,,株式会社,神奈川県,横浜市港北区,日吉本町３丁目２９―２２―３１６,,14,109,2230062,,,,,,,2024-03-12,1,,,,,オープンビジョン,0
1601,6020003025706,新規,0,2024-03-12,2024-03-12,合同会社くらふたーず,,合同会社,神奈川県,横浜市神奈川区,新浦島町１丁目１番地１ベイステージ横浜４３２－１０２６号,,14,102,2210031,,,,,,,2024-03-12,1,,,,,クラフターズ,0
1602,6020003025714,新規,0,2024-03-12,2024-03-12,リカレントインスティテュート合同会社,,合同会社,神奈川県,横浜市西区,北軽井沢１番地４５ＭＡＣ北軽井沢コート３０６号,,14,103,2200001,,,,,,,2024-03-12,1,,,,,リカレントインスティテュート,0
1607,6021001081666,新規,0,2024-03-12,2024-03-12,グッドライフデリバリー株式会社,,株式会社,神奈川県,足柄上郡中井町,境１０４番地,,14,361,2590157,,,,,,,2024-03-12,1,,,,,グッドライフデリバリー,0
1608,6021001081682,新規,0,2024-03-12,2024-03-12,株式会社Ｄｉａｒｙｓ,,株式会社,神奈川県,相模原市南区,相模台７丁目５番１１号,,14,153,2520321,,,,,,,2024-03-12,1,,,,,ダイアリーズ,0
1621,6030001159117,新規,0,2024-03-12,2024-03-12,ＡＹＡＢＩ株式会社,,株式会社,埼玉県,さいたま市中央区,上落合８丁目５番１０号,,11,105,3380001,,,,,,,2024-03-12,1,,,,,アヤビ,0
1622,6030001159158,新規,0,2024-03-12,2024-03-12,株式会社リーディング,,株式会社,埼玉県,川越市,諏訪町４番地２２,,11,201,3501147,,,,,,,2024-03-12,1,,,,,リーディング,0
1628,6030003023774,新規,0,2024-03-12,2024-03-12,合同会社きりん,,合同会社,埼玉県,川口市,戸塚南２丁目２５番１６号,,11,203,3330817,,,,,,,2024-03-12,1,,,,,キリン,0
1633,6040001132510,新規,0,2024-03-12,2024-03-12,株式会社海老澤精機エンジニアリング,,株式会社,千葉県,八街市,沖２０９３番地１,,12,230,2891126,,,,,,,2024-03-12,1,,,,,エビサワセイキエンジニアリング,0
1634,6040001132568,新規,0,2024-03-12,2024-03-12,株式会社ａｎｕｅｎｕｅ,,株式会社,千葉県,浦安市,当代島２丁目１５番８－９０２号イニシア浦安,,12,227,2790001,,,,,,,2024-03-12,1,,,,,アーヌエヌエ,0
1635,6040001132601,新規,0,2024-03-12,2024-03-12,株式会社天道家,,株式会社,千葉県,鴨川市,粟斗１０７０,,12,223,2960031,,,,,,,2024-03-12,1,,,,,テンドウヤ,0
1642,6050001054431,新規,0,2024-03-12,2024-03-12,株式会社ビーウォーター,,株式会社,茨城県,ひたちなか市,はしかべ２丁目１６番１９号,,08,221,3120054,,,,,,,2024-03-12,1,,,,,ビーウォーター,0
1644,6050003008187,新規,0,2024-03-12,2024-03-12,合同会社福来,,合同会社,茨城県,鹿嶋市,大字中１７１ビレッジハウス大野８号棟０１０４,,08,222,3112213,,,,,,,2024-03-12,1,,,,,フクラ,0
1646,6060001036899,新規,0,2024-03-12,2024-03-12,株式会社ｌｉｖｅ　ｌｉｋｅ　ｕｓ,,株式会社,栃木県,大田原市,羽田２２７,,09,210,3240002,,,,,,,2024-03-12,1,,,,,リブライクアス,0
1659,6080403004964,新規,0,2024-03-12,2024-03-12,合同会社トト,,合同会社,静岡県,浜松市浜名区,細江町中川７１７２番地の１３９３,,22,139,4311304,,,,,,,2024-03-12,1,,,,,トト,0
1662,6100005013139,新規,0,2024-03-12,2024-03-12,一般社団法人ｋｏｎｓｔ,,その他の設立登記法人,長野県,北佐久郡軽井沢町,大字発地１０６１番地２１,,20,321,3890113,,,,,,,2024-03-12,1,,,,,コンスト,0
1664,6110003005319,新規,0,2024-03-12,2024-03-12,合同会社ｃｏｌｏｒｓ,,合同会社,新潟県,新潟市中央区,大島１１６番地１０,,15,103,9500953,,,,,,,2024-03-12,1,,,,,カラーズ,0
1674,6120001262852,新規,0,2024-03-12,2024-03-12,株式会社グリゴリ,,株式会社,大阪府,大阪市北区,同心２丁目１３番８－４０４号,,27,127,5300035,,,,,,,2024-03-12,1,,,,,グリゴリ,0
1675,6120001262951,新規,0,2024-03-12,2024-03-12,株式会社ＡＫ　Ｐａｒｔｎｅｒｓ,,株式会社,大阪府,大阪市西区,新町１丁目１４番２１－３５０６号,,27,106,5500013,,,,,,,2024-03-12,1,,,,,エーケーパートナーズ,0
1676,6120001263000,新規,0,2024-03-12,2024-03-12,ＨＥＲＯ　ＧＲＯＵＰ　ＨＯＬＤＩＮＧＳ株式会社,,株式会社,大阪府,大阪市北区,堂山町１番５号三共梅田ビル８Ｆ,,27,127,5300027,,,,,,,2024-03-12,1,,,,,ヒーローグループホールディングス,0
1677,6120001263033,新規,0,2024-03-12,2024-03-12,株式会社ＺＥＮ,,株式会社,大阪府,大阪市北区,西天満３丁目４番６－２０１号,,27,127,5300047,,,,,,,2024-03-12,1,,,,,ゼン,0
1678,6120001263066,新規,0,2024-03-12,2024-03-12,株式会社ネオフラット,,株式会社,大阪府,大阪市旭区,大宮１丁目６番３号,,27,117,5350002,,,,,,,2024-03-12,1,,,,,ネオフラット,0
1685,6120101069149,新規,0,2024-03-12,2024-03-12,株式会社Ａｋｙ,,株式会社,大阪府,高石市,高師浜３丁目７番２６号,,27,225,5920004,,,,,,,2024-03-12,1,,,,,アーキー,0
1687,6120103005713,新規,0,2024-03-12,2024-03-12,合同会社ＳＫ金属,,合同会社,大阪府,泉大津市,曽根町２丁目４番２号,,27,206,5950011,,,,,,,2024-03-12,1,,,,,エスケーキンゾク,0
1704,6140001133597,新規,0,2024-03-12,2024-03-12,株式会社成田工業所,,株式会社,兵庫県,尼崎市,南武庫之荘１２丁目３番９号,,28,202,6610033,,,,,,,2024-03-12,1,,,,,ナリタコウギョウショ,0
1705,6140001133630,新規,0,2024-03-12,2024-03-12,株式会社Ｎ２,,株式会社,兵庫県,伊丹市,清水２丁目４番８号,,28,207,6640894,,,,,,,2024-03-12,1,,,,,エヌツー,0
1708,6140005026962,新規,0,2024-03-12,2024-03-12,ＮＰＯ法人Ａ・Ｇ・Ｂ淡路島農癒,,その他の設立登記法人,兵庫県,洲本市,五色町鮎原中邑６２８,,28,205,6561321,,,,,,,2024-03-12,1,,,,,エージービーアワジシマノイル,0
1709,6140005026970,新規,0,2024-03-12,2024-03-12,一般社団法人スポーツハラスメントＺＥＲＯ協会,,その他の設立登記法人,兵庫県,神戸市中央区,江戸町８５－１ベイ・ウィング神戸ビル９階,,28,110,6500033,,,,,,,2024-03-12,1,,,,,スポーツハラスメントゼロキョウカイ,0
1726,6180001160456,新規,0,2024-03-12,2024-03-12,Ｒｅ　ＢＥＬＯ株式会社,,株式会社,愛知県,尾張旭市,吉岡町１丁目６番地１０,,23,226,4880827,,,,,,,2024-03-12,1,,,,,レベロ,0
1727,6180001160497,新規,0,2024-03-12,2024-03-12,永興株式会社,,株式会社,愛知県,名古屋市中区,栄４丁目７番１４号名妓ビル１０２,,23,106,4600008,,,,,,,2024-03-12,1,,,,,エイコウ,0
1728,6180001160522,新規,0,2024-03-12,2024-03-12,株式会社アソビックス,,株式会社,愛知県,海部郡蟹江町,大字蟹江新田字上芝切７１番地,,23,425,4970044,,,,,,,2024-03-12,1,,,,,アソビックス,0
1734,6180303006027,新規,0,2024-03-12,2024-03-12,合同会社笠原経営企画室,,合同会社,愛知県,豊田市,京町３丁目１０３番地３,,23,211,4710063,,,,,,,2024-03-12,1,,,,,カサハラケイエイキカクシツ,0
1736,6200001042239,新規,0,2024-03-12,2024-03-12,Ｌｉｑｕｏｒ’ｓ　ＢＥＥ株式会社,,株式会社,岐阜県,岐阜市,美殿町２１番地の１ホワイトヒルズ２階,,21,201,5008182,,,,,,,2024-03-12,1,,,,,リカーズビー,0
1741,6230003002163,新規,0,2024-03-12,2024-03-12,合同会社中富,,合同会社,富山県,魚津市,並木町２２６－３,,16,204,9370804,,,,,,,2024-03-12,1,,,,,ナカトミ,0
1742,6240001062910,新規,0,2024-03-12,2024-03-12,ＨＫパートナーズ株式会社,,株式会社,広島県,福山市,松浜町３丁目６番１６号,,34,207,7200802,,,,,,,2024-03-12,1,,,,,エイチケイパートナーズ,0
1748,6260001038818,新規,0,2024-03-12,2024-03-12,Ｉ　ｗｏｒｋｓ株式会社,,株式会社,岡山県,岡山市北区,中山下１丁目１１番１５号新田第１ビル４０２,,33,101,7000821,,,,,,,2024-03-12,1,,,,,アイワークス,0
1756,6290005019316,新規,0,2024-03-12,2024-03-12,一般社団法人技創会,,その他の設立登記法人,福岡県,筑紫野市,大字筑紫２３番地１エフケイハイツ２０１号,,40,217,8180025,,,,,,,2024-03-12,1,,,,,ギソウカイ,0
1762,6290803004642,新規,0,2024-03-12,2024-03-12,ＳＲＫ合同会社,,合同会社,福岡県,北九州市若松区,今光１丁目３番４号,,40,103,8080071,,,,,,,2024-03-12,1,,,,,エスアールケー,0
1770,6330001031823,新規,0,2024-03-12,2024-03-12,株式会社Ｌｉｂｒｅ,,株式会社,熊本県,上益城郡御船町,大字陣２０７４番地４４,,43,441,8613201,,,,,,,2024-03-12,1,,,,,リブレ,0
1774,6340005009708,新規,0,2024-03-12,2024-03-12,医療法人情熱,,その他の設立登記法人,鹿児島県,鹿児島市,加治屋町１８番８号大樹生命鹿児島ビル１Ｆ,,46,201,8920846,,,,,,,2024-03-12,1,,,,,ジョウネツ,0
1778,6360001033239,新規,0,2024-03-12,2024-03-12,洋紫荊商事株式会社,,株式会社,沖縄県,那覇市,首里赤平町２丁目１２プラスパーズ１０１号室,,47,201,9030811,,,,,,,2024-03-12,1,,,,,ヨウシケイショウジ,0
1779,6360001033313,新規,0,2024-03-12,2024-03-12,美ら海文化財株式会社,,株式会社,沖縄県,宜野湾市,真志喜３丁目１４番７号２０３,,47,205,9012224,,,,,,,2024-03-12,1,,,,,チュラウミブンカザイ,0
1782,6360003013759,新規,0,2024-03-12,2024-03-12,ＫｕｎｉＤＰＣメディカルサービス合同会社,,合同会社,沖縄県,島尻郡与那原町,字東浜９５番地の７バディーハウス２０４,,47,348,9011304,,,,,,,2024-03-12,1,,,,,クニディーピーシーメディカルサービス,0
1783,6360003013783,新規,0,2024-03-12,2024-03-12,合同会社Ｌｉｎｏ,,合同会社,沖縄県,宜野湾市,志真志３丁目７番３号,,47,205,9012213,,,,,,,2024-03-12,1,,,,,リノ,0
1790,6370001051017,新規,0,2024-03-12,2024-03-12,株式会社Ｒｅｌｉｆｅ,,株式会社,宮城県,仙台市青葉区,上杉２丁目１番１４－６０７号,,04,101,9800011,,,,,,,2024-03-12,1,,,,,リライフ,0
1800,6420003002887,新規,0,2024-03-12,2024-03-12,合同会社ケアナビゲーション,,合同会社,青森県,三戸郡三戸町,大字川守田字橋ノ下１０３番地１０,,02,441,0390141,,,,,,,2024-03-12,1,,,,,,0
1806,6430001091246,新規,0,2024-03-12,2024-03-12,ＮＯＲＴＨ　ＣＬＯＵＤ　ＮＩＮＥ株式会社,,株式会社,北海道,札幌市中央区,南三条西７丁目７番地２８,,01,101,0600063,,,,,,,2024-03-12,1,,,,,ノースクラウドナイン,0
1807,6430001091262,新規,0,2024-03-12,2024-03-12,株式会社ｎｉｋｓ,,株式会社,北海道,札幌市清田区,北野三条５丁目６番８号,,01,110,0040863,,,,,,,2024-03-12,1,,,,,ニックス,0
1808,6430001091279,新規,0,2024-03-12,2024-03-12,ｍａｒｕｕ　ｄｅｓｉｇｎ株式会社,,株式会社,北海道,札幌市豊平区,平岸三条１４丁目１番１１－４０２号,,01,105,0620933,,,,,,,2024-03-12,1,,,,,マルウデザイン,0
1809,6430001091287,新規,0,2024-03-12,2024-03-12,トラストマネジメント株式会社,,株式会社,北海道,札幌市東区,北四十条東５丁目２番８号,,01,103,0070840,,,,,,,2024-03-12,1,,,,,トラストマネジメント,0
1810,6430005014905,新規,0,2024-03-12,2024-03-12,一般社団法人メイクスマイルプロジェクト,,その他の設立登記法人,北海道,札幌市北区,新琴似九条１６丁目１番１５号,,01,102,0010909,,,,,,,2024-03-12,1,,,,,メイクスマイルプロジェクト,0
1811,6430005014913,新規,0,2024-03-12,2024-03-12,医療法人札幌コロンビア内科,,その他の設立登記法人,北海道,札幌市中央区,北一条西３丁目３－２０時計台スクエアビル４階,,01,101,0600001,,,,,,,2024-03-12,1,,,,,サッポロコロンビアナイカ,0
1812,6430005014921,新規,0,2024-03-12,2024-03-12,医療法人徳孔会,,その他の設立登記法人,北海道,札幌市中央区,北一条西３丁目３－３３－４０２,,01,101,0600001,,,,,,,2024-03-12,1,,,,,トクコウカイ,0
1815,6500003003200,新規,0,2024-03-12,2024-03-12,アクション合同会社,,合同会社,愛媛県,松山市,星岡２丁目１９番２２－１号,,38,201,7900922,,,,,,,2024-03-12,1,,,,,アクション,0
1816,6500005008684,新規,0,2024-03-12,2024-03-12,一般財団法人氷見古民家研究会,,その他の設立登記法人,愛媛県,西条市,氷見丙６５８番地,,38,206,7930073,,,,,,,2024-03-12,1,,,,,ヒミコミンカケンキュウカイ,0
1817,6700150123879,新規,0,2024-03-12,2024-03-12,Ｎｏｔｉｏｎ　Ｌａｂｓ，Ｉｎｃ．,,外国会社等,,,,,,,,２３００　Ｈａｒｒｉｓｏｎ　Ｓｔｒｅｅｔ，Ｓａｎ　Ｆｒａｎｃｉｓｃｏ，ＣＡ　９４１１０，ＵＳＡ,,,,,,2024-03-12,1,,,,,ノーシヨンラボズインク,0
1825,7010001242930,新規,0,2024-03-12,2024-03-12,株式会社Ｔｏｋｅｎｚ,,株式会社,東京都,千代田区,有楽町１丁目５番２号東宝日比谷プロムナードビル１１階,,13,101,1000006,,,,,,,2024-03-12,1,,,,,トークンズ,0
1843,7010501051889,新規,0,2024-03-12,2024-03-12,株式会社Ｇｎ,,株式会社,東京都,台東区,上野２丁目７番１３号,,13,106,1100005,,,,,,,2024-03-12,1,,,,,ジーエヌ,0
1844,7010501051914,新規,0,2024-03-12,2024-03-12,株式会社ＢＬＵＥＦＲＯＧ　ＪＡＰＡＮ,,株式会社,東京都,台東区,浅草橋１丁目１３番６号,,13,106,1110053,,,,,,,2024-03-12,1,,,,,ブルーフロッグジャパン,0
1848,7010601064808,新規,0,2024-03-12,2024-03-12,喬木株式会社,,株式会社,東京都,墨田区,向島４丁目１－１－２１０,,13,107,1310033,,,,,,,2024-03-12,1,,,,,キョウボク,0
1850,7010701045682,新規,0,2024-03-12,2024-03-12,ＥＳ‐ＳＴＹＬＥ株式会社,,株式会社,東京都,品川区,戸越６丁目６－１２ケントコート２０５号室,,13,109,1420041,,,,,,,2024-03-12,1,,,,,エススタイル,0
1852,7010803004850,新規,0,2024-03-12,2024-03-12,合同会社ｋｏｍｏｒｅｂｉ,,合同会社,東京都,大田区,蒲田４丁目２４－７－１００１,,13,111,1440052,,,,,,,2024-03-12,1,,,,,コモレビ,0
1853,7010901054855,新規,0,2024-03-12,2024-03-12,株式会社Ｕｎａ．,,株式会社,東京都,世田谷区,代田６丁目１９番１０号フレシール２０６,,13,112,1550033,,,,,,,2024-03-12,1,,,,,ウナ,0
1859,7011001160214,新規,0,2024-03-12,2024-03-12,株式会社ＣＨＡＭＩＬＡ,,株式会社,東京都,渋谷区,千駄ヶ谷１丁目１３－１１－４－８,,13,113,1510051,,,,,,,2024-03-12,1,,,,,チャミラ,0
1860,7011001160486,新規,0,2024-03-12,2024-03-12,株式会社Ｓｈａｒｅ‐Ｍｅ,,株式会社,東京都,渋谷区,恵比寿西２丁目４番８号ウィンド恵比寿ビル８Ｆ,,13,113,1500021,,,,,,,2024-03-12,1,,,,,シェアミー,0
1861,7011001160569,新規,0,2024-03-12,2024-03-12,株式会社マナアンドツリー,,株式会社,東京都,目黒区,平町１丁目２０番１７号平町アビタシオン３０３,,13,110,1520032,,,,,,,2024-03-12,1,,,,,マナアンドツリー,0
1873,7011101106430,新規,0,2024-03-12,2024-03-12,株式会社Ｕｎｌｉｍｉｔｅｄ,,株式会社,東京都,新宿区,百人町１丁目１７番１４号,,13,104,1690073,,,,,,,2024-03-12,1,,,,,アンリミテッド,0
1874,7011101106513,新規,0,2024-03-12,2024-03-12,株式会社ＥＮＫＥＹ,,株式会社,東京都,新宿区,西新宿３丁目３番１３号西新宿水間ビル２Ｆ,,13,104,1600023,,,,,,,2024-03-12,1,,,,,エンキー,0
1877,7011201025299,新規,0,2024-03-12,2024-03-12,株式会社ＥＳＣＡＰＥＣＩＴＹ,,株式会社,東京都,中野区,中央４丁目１番３号ボニータ新中野ビル８階,,13,114,1640011,,,,,,,2024-03-12,1,,,,,エスケープシティ,0
1881,7011501030429,新規,0,2024-03-12,2024-03-12,東澤通商株式会社,,株式会社,東京都,荒川区,町屋３丁目１８番１２号ＮＤビル２０５,,13,118,1160001,,,,,,,2024-03-12,1,,,,,トウサワツウショウ,0
1885,7011603004272,新規,0,2024-03-12,2024-03-12,合同会社ラポル,,合同会社,東京都,練馬区,桜台２丁目５１番１１号,,13,120,1760002,,,,,,,2024-03-12,1,,,,,ラポル,0
1895,7012303001948,新規,0,2024-03-12,2024-03-12,合同会社アローネクストデザイン,,合同会社,東京都,町田市,成瀬８丁目２２番４号,,13,209,1940044,,,,,,,2024-03-12,1,,,,,アローネクストデザイン,0
1897,7012701018131,新規,0,2024-03-12,2024-03-12,株式会社ＳＰＩＣＡ,,株式会社,東京都,小平市,津田町３丁目４番２４号,,13,211,1870025,,,,,,,2024-03-12,1,,,,,スピカ,0
1907,7013303007043,新規,0,2024-03-12,2024-03-12,合同会社ワンダー,,合同会社,東京都,豊島区,池袋２丁目３６－１,,13,116,1710014,,,,,,,2024-03-12,1,,,,,ワンダー,0
1914,7020001156171,新規,0,2024-03-12,2024-03-12,株式会社Ｇｏｏｄ　ｉｎｔｅｒｉｏｒ,,株式会社,神奈川県,横浜市緑区,中山１丁目７番８号,,14,113,2260019,,,,,,,2024-03-12,1,,,,,グッドインテリア,0
1915,7020001156196,新規,0,2024-03-12,2024-03-12,株式会社ＳＨＩＲＯ,,株式会社,神奈川県,横浜市中区,新山下３丁目１５番６－３０１号,,14,104,2310801,,,,,,,2024-03-12,1,,,,,シロ,0
1919,7021001081665,新規,0,2024-03-12,2024-03-12,ＢｏＦＧ株式会社,,株式会社,神奈川県,座間市,広野台１丁目１９番２１号,,14,216,2520012,,,,,,,2024-03-12,1,,,,,ビーオーエフジー,0
1921,7021003014235,新規,0,2024-03-12,2024-03-12,ＢＥ‐ＫＩＮＤ合同会社,,合同会社,神奈川県,大和市,西鶴間１丁目１２番１８号山下荘１０２号,,14,213,2420005,,,,,,,2024-03-12,1,,,,,ビーカインド,0
1927,7030001159149,新規,0,2024-03-12,2024-03-12,株式会社Ｍａｎａｂｅｓｑｕｅ,,株式会社,埼玉県,越谷市,レイクタウン２丁目２４番３号,,11,222,3430828,,,,,,,2024-03-12,1,,,,,マナベスク,0
1933,7030003023798,新規,0,2024-03-12,2024-03-12,合同会社クマ・マンドル,,合同会社,埼玉県,入間市,豊岡１丁目３番２５号半田ビル２階ＫＩＶオフィス入間Ｂ号室,,11,225,3580003,,,,,,,2024-03-12,1,,,,,クママンドル,0
1940,7040001132600,新規,0,2024-03-12,2024-03-12,株式会社アモツキ,,株式会社,千葉県,柏市,東上町２番６マンション久大５０１号,,12,217,2770011,,,,,,,2024-03-12,1,,,,,アモツキ,0
1943,7040003024523,新規,0,2024-03-12,2024-03-12,ＣＨＡＮＧＵ合同会社,,合同会社,千葉県,千葉市若葉区,西都賀３丁目２６番９号ＣＩＴＹ－９－２０１,,12,104,2640026,,,,,,,2024-03-12,1,,,,,チャング,0
1948,7050003008186,新規,0,2024-03-12,2024-03-12,合同会社尚庵,,合同会社,茨城県,笠間市,石井１８０３番地１,,08,216,3091613,,,,,,,2024-03-12,1,,,,,ショウアン,0
1969,7110003005318,新規,0,2024-03-12,2024-03-12,Ｔｈｅ　Ｆｉｎａｎｃｅ　Ｉｎｔｅｒｎａｔｉｏｎａｌ　Ｊａｐａｎ合同会社,,合同会社,新潟県,北蒲原郡聖籠町,大字蓮野６３７９番地,00134029,15,307,9570124,,,,,,,2024-03-12,1,,,,,ザファイナンスインターナショナルジャパン,0
1971,7120001262851,新規,0,2024-03-12,2024-03-12,優不動産管理株式会社,,株式会社,大阪府,大阪市生野区,巽東２丁目５番５－１０２号,,27,116,5440014,,,,,,,2024-03-12,1,,,,,ユウフドウサンカンリ,0
1972,7120001262942,新規,0,2024-03-12,2024-03-12,株式会社オランオラン,,株式会社,大阪府,大阪市阿倍野区,松崎町２丁目１－２８－２Ｆ,,27,119,5450053,,,,,,,2024-03-12,1,,,,,オランオラン,0
1973,7120001263008,新規,0,2024-03-12,2024-03-12,株式会社ＪＡＰＡＮ　ＤＯＴ　ＱＵＥＳＴ,,株式会社,大阪府,大阪市淀川区,塚本４丁目１７－９,,27,123,5320026,,,,,,,2024-03-12,1,,,,,ジャパンドットクエスト,0
1974,7120001263057,新規,0,2024-03-12,2024-03-12,株式会社Ｍｉｓｓｉｏｎ　ｉｎ　Ｍｅ,,株式会社,大阪府,大阪市東淀川区,東中島１丁目１９番４号ルーシッドスクエア新大阪,,27,114,5330033,,,,,,,2024-03-12,1,,,,,ミッションインミー,0
1975,7120001263081,新規,0,2024-03-12,2024-03-12,藤原良久貿易株式会社,,株式会社,大阪府,大阪市港区,港晴３丁目２番６号２０２号室,,27,107,5520023,,,,,,,2024-03-12,1,,,,,フジハラリョウクボウエキ,0
1979,7120003026131,新規,0,2024-03-12,2024-03-12,合同会社ａｇｌａｉｌｌｙｓ,,合同会社,大阪府,大阪市平野区,喜連東５丁目１４番３２－５０３号,,27,126,5470021,,,,,,,2024-03-12,1,,,,,アグライリーズ,0
1984,7120901048854,新規,0,2024-03-12,2024-03-12,株式会社久保山建設,,株式会社,大阪府,高槻市,大冠町１丁目３番５号,,27,207,5690031,,,,,,,2024-03-12,1,,,,,クボヤマケンセツ,0
1985,7120901048879,新規,0,2024-03-12,2024-03-12,シームレスデザイン株式会社,,株式会社,大阪府,高槻市,赤大路町４１－１－８１１,,27,207,5691146,,,,,,,2024-03-12,1,,,,,シームレスデザイン,0
1987,7120905006577,新規,0,2024-03-12,2024-03-12,ＪＲサービック労働組合,,その他の設立登記法人,大阪府,摂津市,鶴野１丁目６－７,,27,224,5660035,,,,,,,2024-03-12,1,,,,,ジェイアールサービック,0
1999,7140001133605,新規,0,2024-03-12,2024-03-12,株式会社ＹＭサービス,,株式会社,兵庫県,丹波篠山市,野中４２７番地１,,28,221,6692452,,,,,,,2024-03-12,1,,,,,ワイエムサービス,0
2004,7140003020264,新規,0,2024-03-12,2024-03-12,あさがお合同会社,,合同会社,兵庫県,高砂市,荒井町千鳥２丁目２０番２９号,,28,216,6760004,,,,,,,2024-03-12,1,,,,,アサガオ,0
2005,7150001027129,新規,0,2024-03-12,2024-03-12,ファイブフィールズ株式会社,,株式会社,奈良県,奈良市,下三条町３４更谷ビル２０３,,29,201,6308236,,,,,,,2024-03-12,1,,,,,ファイブフィールズ,0
2011,7170001018027,新規,0,2024-03-12,2024-03-12,Ｄ．ＬｉＳｈ株式会社,,株式会社,和歌山県,田辺市,天神崎６番２６号小松ビル１Ｆ,,30,206,6460050,,,,,,,2024-03-12,1,,,,,ディーリッシュ,0
2018,7180003026233,新規,0,2024-03-12,2024-03-12,Ｗｉｌｌｈｏｍｅ合同会社,,合同会社,愛知県,尾張旭市,向町４丁目３番地１５,,23,226,4880818,,,,,,,2024-03-12,1,,,,,ウィルホーム,0
2019,7180003026480,新規,0,2024-03-12,2024-03-12,合同会社まこと,,合同会社,愛知県,津島市,宮川町２丁目３６番地２,,23,208,4960853,,,,,,,2024-03-12,1,,,,,マコト,0
2025,7200001042238,新規,0,2024-03-12,2024-03-12,株式会社中島,,株式会社,岐阜県,美濃市,片知１１８８番地１,,21,207,5013781,,,,,,,2024-03-12,1,,,,,ナカシマ,0
2026,7200003006257,新規,0,2024-03-12,2024-03-12,合同会社ＴＯＫＩ　ＤＯＧ,,合同会社,岐阜県,土岐市,鶴里町柿野１８５９番地,,21,212,5095312,,,,,,,2024-03-12,1,,,,,トキドッグ,0
2056,7290005019315,新規,0,2024-03-12,2024-03-12,一般社団法人生命科学生活様式普及協会,,その他の設立登記法人,福岡県,嘉麻市,椎木１３５,,40,227,8200323,,,,,,,2024-03-12,1,,,,,セイメイカガクセイカツヨウシキフキュウキョウカイ,0
2068,7320005010138,新規,0,2024-03-12,2024-03-12,山の手分譲地団地管理組合法人,,その他の設立登記法人,大分県,別府市,大字南立石２２１８番地の３１,,44,202,8740000,,,,,,,2024-03-12,1,,,,,ヤマノテブンジョウチ,0
2070,7330001031839,新規,0,2024-03-12,2024-03-12,株式会社ＭＦＣヒルズ,,株式会社,熊本県,上益城郡益城町,大字惣領９７７番地１シティハイムイースト２０２号,,43,443,8612233,,,,,,,2024-03-12,1,,,,,,0
2074,7340005009707,新規,0,2024-03-12,2024-03-12,医療法人麗和会,,その他の設立登記法人,鹿児島県,鹿児島市,上之園町２１番１２号,,46,201,8900052,,,,,,,2024-03-12,1,,,,,レイワカイ,0
2084,7360003013774,新規,0,2024-03-12,2024-03-12,合同会社晃,,合同会社,沖縄県,宮古島市,城辺字長間１９２３番地１,,47,214,9060105,,,,,,,2024-03-12,1,,,,,ヒカル,0
2085,7360003013782,新規,0,2024-03-12,2024-03-12,農業生産法人合同会社ＡＧ＆Ａ,,合同会社,沖縄県,宮古島市,上野字野原１１０３番地,,47,214,9060201,,,,,,,2024-03-12,1,,,,,ノウギョウセイサンホウジンエイジイアンドエイ,0
2088,7370001051008,新規,0,2024-03-12,2024-03-12,株式会社Ａ＆Ｍオートサービス,,株式会社,宮城県,黒川郡大郷町,東成田字三嶽６５番地の１,,04,422,9813522,,,,,,,2024-03-12,1,,,,,エーアンドエムオートサービス,0
2089,7370003006513,新規,0,2024-03-12,2024-03-12,合同会社Ｍｏｅｔ,,合同会社,宮城県,亘理郡亘理町,逢隈下郡字横捲４番地８,00134035,04,361,9892382,,,,,,,2024-03-12,1,,,,,モエ,0
2090,7370005010752,新規,0,2024-03-12,2024-03-12,医療法人山光会,,その他の設立登記法人,宮城県,仙台市泉区,高森１丁目１番地１９４,,04,105,9813203,,,,,,,2024-03-12,1,,,,,サンコウカイ,0
2096,7420003002886,新規,0,2024-03-12,2024-03-12,オルテック合同会社,,合同会社,青森県,青森市,浪岡大字浪岡字稲村２６２番地３,,02,201,0381311,,,,,,,2024-03-12,1,,,,,オルテック,0
2100,7430001091253,新規,0,2024-03-12,2024-03-12,株式会社エターニア,,株式会社,北海道,札幌市東区,北十七条東１丁目１番２５－８０１号,,01,103,0650017,,,,,,,2024-03-12,1,,,,,エターニア,0
2101,7430001091261,新規,0,2024-03-12,2024-03-12,株式会社スケールフェイス,,株式会社,北海道,札幌市豊平区,美園四条５丁目１番６－２０２号,,01,105,0620004,,,,,,,2024-03-12,1,,,,,スケールフェイス,0
2102,7430001091278,新規,0,2024-03-12,2024-03-12,川田測量株式会社,,株式会社,北海道,石狩市,花畔三条１丁目１３８番地,,01,235,0613283,,,,,,,2024-03-12,1,,,,,カワタソクリョウ,0
2125,8010001242863,新規,0,2024-03-12,2024-03-12,株式会社Ｌｅａｒｎ,,株式会社,東京都,千代田区,丸の内１丁目１１番１号パシフィックセンチュリー丸の内１３Ｆ,,13,101,1000005,,,,,,,2024-03-12,1,,,,,ラォーン,0
2126,8010001242938,新規,0,2024-03-12,2024-03-12,株式会社学檄,,株式会社,東京都,文京区,音羽１丁目３番３－６０１号,,13,105,1120013,,,,,,,2024-03-12,1,,,,,ガクゲキ,0
2127,8010001242954,新規,0,2024-03-12,2024-03-12,株式会社Ｎ３エンターテインメント,,株式会社,東京都,中央区,銀座１丁目１５番４号銀座一丁目ビル１０階,,13,102,1040061,,,,,,,2024-03-12,1,,,,,エヌスリーエンターテインメント,0
2134,8010003043186,新規,0,2024-03-12,2024-03-12,合同会社ジャンダルム,,合同会社,東京都,中央区,日本橋室町１丁目１１番１２号日本橋水野ビル７階,,13,102,1030022,,,,,,,2024-03-12,1,,,,,ジャンダルム,0
2135,8010101016044,新規,0,2024-03-12,2024-03-12,Ｅ‐ＴＲＡＤＥ株式会社,,株式会社,東京都,八王子市,大谷町４１３番地１５,,13,201,1920034,,,,,,,2024-03-12,1,,,,,イートレード,0
2143,8010401180936,新規,0,2024-03-12,2024-03-12,株式会社ＫｅｙｏｃＯｋｙｂａ,,株式会社,東京都,港区,南青山１丁目２６番１号,,13,103,1070062,,,,,,,2024-03-12,1,,,,,キオクオキバ,0
2144,8010401180977,新規,0,2024-03-12,2024-03-12,株式会社マッチ・エステート,,株式会社,東京都,港区,浜松町２丁目７番１５号日本工築２号館８階,,13,103,1050013,,,,,,,2024-03-12,1,,,,,,0
2150,8010501051839,新規,0,2024-03-12,2024-03-12,株式会社Ｖ＆Ｇ,,株式会社,東京都,台東区,小島２丁目１４－６ダイアパレス御徒町第２、３０１－Ｂ,,13,106,1110056,,,,,,,2024-03-12,1,,,,,ブイアンドジー,0
2151,8010501051913,新規,0,2024-03-12,2024-03-12,レッド・キャット・メディア株式会社,,株式会社,東京都,台東区,浅草橋５丁目１番３１号ロッキービルＤＡＯＳＰＡＣＥ３１５号,,13,106,1110053,,,,,,,2024-03-12,1,,,,,レッドキャットメディア,0
2152,8010501051921,新規,0,2024-03-12,2024-03-12,ＳＵＤＨＩＲ　ＣＯＲＰＯＲＡＴＩＯＮ株式会社,,株式会社,東京都,台東区,小島２丁目１８番１５号１Ｆ,,13,106,1110056,,,,,,,2024-03-12,1,,,,,スディアコーポレーション,0
2163,8010905004582,新規,0,2024-03-12,2024-03-12,医療法人社団ありあけ,,その他の設立登記法人,東京都,世田谷区,成城２丁目３６番６号サンクビル１階,,13,112,1570066,,,,,,,2024-03-12,1,,,,,アリアケ,0
2171,8011001160469,新規,0,2024-03-12,2024-03-12,株式会社アージョン,,株式会社,東京都,渋谷区,幡ヶ谷１丁目２番２号京王幡ヶ谷ビル４階,,13,113,1510072,,,,,,,2024-03-12,1,,,,,アージョン,0
2183,8011101106479,新規,0,2024-03-12,2024-03-12,ホリエモンＡＩ学校株式会社,,株式会社,東京都,新宿区,新宿４丁目３番１５号レイフラット新宿Ｂ棟３Ｆ,,13,104,1600022,,,,,,,2024-03-12,1,,,,,ホリエモンエーアイガッコウ,0
2187,8011301029488,新規,0,2024-03-12,2024-03-12,株式会社ｈｙｅｎａ,,株式会社,東京都,杉並区,上荻１丁目４－７流動ビル６Ｆ,,13,115,1670043,,,,,,,2024-03-12,1,,,,,ハイエナ,0
2189,8011501030411,新規,0,2024-03-12,2024-03-12,Ｒ＆Ｓ株式会社,,株式会社,東京都,北区,豊島４丁目１８番７－７１３号,,13,117,1140003,,,,,,,2024-03-12,1,,,,,アールアンドエス,0
2191,8011605002570,新規,0,2024-03-12,2024-03-12,医療法人社団啓有会,,その他の設立登記法人,東京都,練馬区,豊玉北１丁目６番１３号カエサル江古田１０１号室,,13,120,1760012,,,,,,,2024-03-12,1,,,,,ケイユウカイ,0
2193,8012301013820,新規,0,2024-03-12,2024-03-12,ヤマヨ株式会社,,株式会社,東京都,町田市,南つくし野２丁目２９番地６,,13,209,1940002,,,,,,,2024-03-12,1,,,,,ヤマヨ,0
2195,8013105001838,新規,0,2024-03-12,2024-03-12,医療法人社団蒼星会,,その他の設立登記法人,東京都,あきる野市,渕上２６４番地３ＫＩマンション１階Ａ号室,,13,228,1970833,,,,,,,2024-03-12,1,,,,,,0
2200,8020001156187,新規,0,2024-03-12,2024-03-12,株式会社Ｔ＆Ｍ,,株式会社,神奈川県,横浜市磯子区,磯子２丁目２０番５０号,,14,107,2350016,,,,,,,2024-03-12,1,,,,,ティアンドエム,0
2205,8020003025712,新規,0,2024-03-12,2024-03-12,合同会社Ａ＆Ｂ,,合同会社,神奈川県,横浜市鶴見区,鶴見中央１丁目１７－１４シーアイマンション鶴見５１１号室,,14,101,2300051,,,,,,,2024-03-12,1,,,,,エーアンドビー,0
2207,8021001081672,新規,0,2024-03-12,2024-03-12,株式会社Ｈｅａｖｅｎｌｙ,,株式会社,神奈川県,藤沢市,鵠沼海岸１丁目１４番２０号クラーレ鵠沼１０２,,14,205,2510037,,,,,,,2024-03-12,1,,,,,ヘブンリー,0
2208,8021001081680,新規,0,2024-03-12,2024-03-12,株式会社コーストヒルズ,,株式会社,神奈川県,鎌倉市,腰越１丁目１７番１２－２号,,14,204,2480033,,,,,,,2024-03-12,1,,,,,コーストヒルズ,0
2209,8021005013036,新規,0,2024-03-12,2024-03-12,一般社団法人Ｕベース,,その他の設立登記法人,神奈川県,平塚市,片岡３５１番地の７,,14,203,2591213,,,,,,,2024-03-12,1,,,,,ユーベース,0
2216,8030001159131,新規,0,2024-03-12,2024-03-12,株式会社山大,,株式会社,埼玉県,入間郡毛呂山町,大字葛貫５８８番地,,11,326,3500445,,,,,,,2024-03-12,1,,,,,ヤマダイ,0
2223,8030003023806,新規,0,2024-03-12,2024-03-12,ＳＡＲＫＥＲ合同会社,,合同会社,埼玉県,蕨市,北町１丁目２３－２８ルームワンＥ－３Ｃ,,11,223,3350001,,,,,,,2024-03-12,1,,,,,サルカル,0
2241,8040001132599,新規,0,2024-03-12,2024-03-12,株式会社ハルシネーション,,株式会社,千葉県,船橋市,浜町２丁目３－３５－１７０３,,12,204,2730012,,,,,,,2024-03-12,1,,,,,ハルシネーション,0
2250,8040003024522,新規,0,2024-03-12,2024-03-12,キャピタル９９合同会社,,合同会社,千葉県,山武郡九十九里町,真亀３０１８,,12,403,2830114,,,,,,,2024-03-12,1,,,,,キャピタルキュウキュウ,0
2256,8060003004927,新規,0,2024-03-12,2024-03-12,合同会社コア・ベース,,合同会社,栃木県,那須塩原市,下厚崎２６４番地１７５,,09,213,3250025,,,,,,,2024-03-12,1,,,,,コアベース,0
2272,8110003005317,新規,0,2024-03-12,2024-03-12,合同会社ＭＳＴ,,合同会社,新潟県,新潟市東区,向陽２丁目８－１４,,15,102,9500011,,,,,,,2024-03-12,1,,,,,エムエスティー,0
2280,8120001263056,新規,0,2024-03-12,2024-03-12,小川ホールディングス株式会社,,株式会社,大阪府,大阪市中央区,久太郎町２丁目４番１１号クラボウアネックスビル１３階,,27,128,5410056,,,,,,,2024-03-12,1,,,,,オガワホールディングス,0
2281,8120001263064,新規,0,2024-03-12,2024-03-12,立峰金属工芸株式会社,,株式会社,大阪府,大阪市東住吉区,杭全７丁目１３番９号,,27,121,5460002,,,,,,,2024-03-12,1,,,,,リツホウキンゾクコウゲイ,0
2284,8120003026122,新規,0,2024-03-12,2024-03-12,合同会社アベリア訪問看護,,合同会社,大阪府,大阪市東淀川区,豊新２丁目９番２７－４０２号,,27,114,5330014,,,,,,,2024-03-12,1,,,,,アベリアホウモンカンゴ,0
2285,8120003026130,新規,0,2024-03-12,2024-03-12,合同会社ＮＣｆａｃｔｏｒｙ,,合同会社,大阪府,大阪市港区,波除５丁目３番３号,,27,107,5520001,,,,,,,2024-03-12,1,,,,,エヌシーファクトリー,0
2286,8120003026139,新規,0,2024-03-12,2024-03-12,ウィズコスメティクス合同会社,,合同会社,大阪府,大阪市中央区,内久宝寺町４丁目４番３号日宝パールビル,,27,128,5400013,,,,,,,2024-03-12,1,,,,,ウィズコスメティクス,0
2295,8120903005076,新規,0,2024-03-12,2024-03-12,合同会社ナースラボ,,合同会社,大阪府,池田市,井口堂３丁目４番２４‐１０５号,,27,204,5630023,,,,,,,2024-03-12,1,,,,,ナースラボ,0
2296,8122001037893,新規,0,2024-03-12,2024-03-12,アンフィニレーヴ株式会社,,株式会社,大阪府,八尾市,青山町３丁目７－５－１０３,,27,212,5810018,,,,,,,2024-03-12,1,,,,,アンフィニレーヴ,0
2297,8130001076507,新規,0,2024-03-12,2024-03-12,株式会社ＭＵＤＡＮＩ,,株式会社,京都府,京都市下京区,蛭子町１４３番地１,,26,106,6008302,,,,,,,2024-03-12,1,,,,,ムダニ,0
2302,8140001133629,新規,0,2024-03-12,2024-03-12,株式会社サニー不動産鑑定,,株式会社,兵庫県,明石市,大明石町２丁目４番２３号多聞ビル５０８,,28,203,6730891,,,,,,,2024-03-12,1,,,,,サニーフドウサンカンテイ,0
2306,8140003020255,新規,0,2024-03-12,2024-03-12,合同会社ｔｈｅｎ．,,合同会社,兵庫県,豊岡市,上佐野１３９２番地の４,,28,209,6680061,,,,,,,2024-03-12,1,,,,,ゼンドット,0
2307,8140003020263,新規,0,2024-03-12,2024-03-12,合同会社村上,,合同会社,兵庫県,神戸市兵庫区,荒田町４丁目２９番２２－１３０１号,,28,105,6520032,,,,,,,2024-03-12,1,,,,,ムラカミ,0
2309,8140005026969,新規,0,2024-03-12,2024-03-12,一般社団法人アスリートウェルビーイングアソシエーション,,その他の設立登記法人,兵庫県,神戸市中央区,江戸町８５－１ベイ・ウィング神戸ビル９階,,28,110,6500033,,,,,,,2024-03-12,1,,,,,アスリートウェルビーイングアソシエーション,0
2325,8180005020539,新規,0,2024-03-12,2024-03-12,一般財団法人中部エンターテインメント推進協議会,,その他の設立登記法人,愛知県,名古屋市中村区,名駅４丁目５番２８号桜通豊田ビル１０階,,23,105,4500002,,,,,,,2024-03-12,1,,,,,チュウブエンターテインメントスイシンキョウギカイ,0
2327,8200001042245,新規,0,2024-03-12,2024-03-12,株式会社Ｐｉｇｇｙ　Ｂａｎｋ,,株式会社,岐阜県,岐阜市,花園町１６番地エストラ岐阜４０２号,,21,201,5008854,,,,,,,2024-03-12,1,,,,,ピギーバンク,0
2328,8200003006256,新規,0,2024-03-12,2024-03-12,２Ｔ　ＣＯＦＦＥＥ合同会社,,合同会社,岐阜県,岐阜市,金町６丁目１５番地高橋ビル１階,,21,201,5008842,,,,,,,2024-03-12,1,,,,,ニティコーヒ,0
2336,8240001062909,新規,0,2024-03-12,2024-03-12,株式会社りもーじゅ,,株式会社,広島県,広島市中区,西川口町８－９,,34,101,7300846,,,,,,,2024-03-12,1,,,,,リモージュ,0
2353,8290001104978,新規,0,2024-03-12,2024-03-12,電凰株式会社,,株式会社,福岡県,嘉穂郡桂川町,大字土師２８番地２９０,,40,421,8200607,,,,,,,2024-03-12,1,,,,,デンオウ,0
2357,8290003015042,新規,0,2024-03-12,2024-03-12,合同会社Ｅ・Ｓ・Ｌ,,合同会社,福岡県,福岡市中央区,赤坂３丁目８番２６号赤坂エクセル８１４号,,40,133,8100042,,,,,,,2024-03-12,1,,,,,イーエスラボ,0
2369,8310005008743,新規,0,2024-03-12,2024-03-12,一般社団法人新コミュニケーション協会ＪＡＰＡＮ,,その他の設立登記法人,長崎県,長崎市,住吉町１１番１７号,,42,201,8528154,,,,,,,2024-03-12,1,,,,,シンコミュニケーションキョウカイジャパン,0
2372,8320003004306,新規,0,2024-03-12,2024-03-12,合同会社ＡＤＶＡＮＣＥ,,合同会社,大分県,杵築市,大字南杵築１２４１番地４,,44,210,8730002,,,,,,,2024-03-12,1,,,,,アドバンス,0
2380,8350003004567,新規,0,2024-03-12,2024-03-12,にじシステム合同会社,,合同会社,宮崎県,都城市,菓子野町１００８６－１１,,45,202,8850111,,,,,,,2024-03-12,1,,,,,ニジシステム,0
2389,8360001033303,新規,0,2024-03-12,2024-03-12,株式会社くまさん沖縄,,株式会社,沖縄県,浦添市,字港川３９３番地,,47,208,9012134,,,,,,,2024-03-12,1,,,,,クマサンオキナワ,0
2390,8360005006998,新規,0,2024-03-12,2024-03-12,一般社団法人Ｗｉｌｌ　ＧＲＯＵＰ．,,その他の設立登記法人,沖縄県,中頭郡北谷町,字上勢頭７０３－８,,47,326,9040101,,,,,,,2024-03-12,1,,,,,ウィルグループ,0
2407,8430001091228,新規,0,2024-03-12,2024-03-12,北海道自然電力株式会社,,株式会社,北海道,札幌市中央区,北五条西５丁目１番地５,,01,101,0600005,,,,,,,2024-03-12,1,,,,,ホッカイドウシゼンデンリョク,0
2408,8430001091260,新規,0,2024-03-12,2024-03-12,株式会社ＯＮＵ,,株式会社,北海道,札幌市清田区,真栄五条３丁目１１番２２号,,01,110,0040835,,,,,,,2024-03-12,1,,,,,オーエヌユー,0
2409,8430001091269,新規,0,2024-03-12,2024-03-12,株式会社コネクトハーツ,,株式会社,北海道,札幌市手稲区,前田十条１０丁目５番５－２０１号,,01,109,0060820,,,,,,,2024-03-12,1,,,,,コネクトハーツ,0
2412,8430003016050,新規,0,2024-03-12,2024-03-12,合同会社Ｕｎｂｏｕｎｄｅｄ,,合同会社,北海道,札幌市北区,北三十条西４丁目２番２２号,,01,102,0010030,,,,,,,2024-03-12,1,,,,,アンバウンディッド,0
2415,8490005006928,新規,0,2024-03-12,2024-03-12,一般社団法人天王八坂神社崇敬会,,その他の設立登記法人,高知県,吾川郡いの町,天王北３丁目４番地１,,39,386,7812122,,,,,,,2024-03-12,1,,,,,テンノウヤサカスウケイカイ,0
2420,8700150123720,新規,0,2024-03-12,2024-03-12,ＴＡＩＴ　Ｔｅｃｈｎｏｌｏｇｉｅｓ　ＵＫ　Ｌｔｄ,,外国会社等,,,,,,,,９　Ｆａｌｃｏｎ　Ｐａｒｋ，Ｎｅａｓｄｅｎ　Ｌａｎｅ，Ｌｏｎｄｏｎ，ＮＷ１０　１ＲＺ，ＵＫ,,,,,,2024-03-12,1,,,,,テイトテクノロジーズユーケーリミテツド,0
2421,8700150123811,新規,0,2024-03-12,2024-03-12,Ｓｑｕａｒｅｐｏｉｎｔ　Ｓｅｒｖｉｃｅｓ　Ｉｎｔｅｒｎａｔｉｏｎａｌ　Ｌｉｍｉｔｅｄ,,外国会社等,,,,,,,,ＣｉｔｙｐｏｉｎｔＦｌｏｏｒ３５Ｏｎｅ　Ｒｏｐｅｍａｋｅｒ　Ｓｔｒｅｅｔ，Ｌｏｎｄｏｎ　ＥＣ２Ｙ　９ＡＷ,,,,,,2024-03-12,1,,,,,スクエアポイントサービシーズインターナシヨナルリミテツド,0
2422,8700150124116,新規,0,2024-03-12,2024-02-21,ライオンズマンション八木山管理組合,,その他,宮城県,仙台市太白区,八木山本町１丁目５－１,,04,104,9820801,,,,,,,2024-02-21,1,,,,,ライオンズマンシヨンヤギヤマカンリクミアイ,0
2426,9010001242920,新規,0,2024-03-12,2024-03-12,株式会社ＮＥＫＣＯＭ　Ｔｏｋｙｏ,,株式会社,東京都,千代田区,富士見２丁目７番２号,,13,101,1020071,,,,,,,2024-03-12,1,,,,,ネッコムトウキョウ,0
2431,9010003043152,新規,0,2024-03-12,2024-03-12,宏立合同会社,,合同会社,東京都,中央区,新川２丁目２１番１０号,,13,102,1040033,,,,,,,2024-03-12,1,,,,,ホンリー,0
2432,9010003043177,新規,0,2024-03-12,2024-03-12,レバネ合同会社,,合同会社,東京都,千代田区,神田和泉町１番地６－１６ヤマトビル４０５,,13,101,1010024,,,,,,,2024-03-12,1,,,,,レバネ,0
2433,9010003043185,新規,0,2024-03-12,2024-03-12,合同会社ｔａｒｏｃｃｏエステート,,合同会社,東京都,文京区,小石川２丁目１５番８－８０４号,,13,105,1120002,,,,,,,2024-03-12,1,,,,,タロッコエステート,0
2437,9010101016043,新規,0,2024-03-12,2024-03-12,株式会社ＢＯＮＤＳ,,株式会社,東京都,八王子市,川口町１５７４番地１６,,13,201,1930801,,,,,,,2024-03-12,1,,,,,ボンズ,0
2445,9010401180951,新規,0,2024-03-12,2024-03-12,株式会社ｅｓｔｉｅデータ開発,,株式会社,東京都,港区,赤坂９丁目７番２号,,13,103,1070052,,,,,,,2024-03-12,1,,,,,エスティデータカイハツ,0
2446,9010401180976,新規,0,2024-03-12,2024-03-12,開菓株式会社,,株式会社,東京都,港区,北青山３丁目５番１７号Ｒ＆Ｍ２Ｆ,,13,103,1070061,,,,,,,2024-03-12,1,,,,,カイカ,0
2451,9010403032135,新規,0,2024-03-12,2024-03-12,合同会社言通,,合同会社,東京都,港区,南青山２丁目２番１５号,,13,103,1070062,,,,,,,2024-03-12,1,,,,,ゲンツウ,0
2456,9010501051887,新規,0,2024-03-12,2024-03-12,サンヤマト株式会社,,株式会社,東京都,台東区,千束２丁目１８番３号,,13,106,1110031,,,,,,,2024-03-12,1,,,,,サンヤマト,0
2457,9010501051920,新規,0,2024-03-12,2024-03-12,株式会社おしおりーぶ,,株式会社,東京都,台東区,上野桜木２丁目１５番６号あたり３、１Ｆ,,13,106,1100002,,,,,,,2024-03-12,1,,,,,オシオリーブ,0
2459,9010601064797,新規,0,2024-03-12,2024-03-12,株式会社ＴＢコンサルタント,,株式会社,東京都,江東区,東砂２丁目１２番３７－９１４号,,13,108,1360074,,,,,,,2024-03-12,1,,,,,ティービーコンサルタント,0
2461,9010701045680,新規,0,2024-03-12,2024-03-12,株式会社ＢＬＴＰ,,株式会社,東京都,品川区,西五反田７丁目２３番１０－３０１号,,13,109,1410031,,,,,,,2024-03-12,1,,,,,ビーエルティーピー,0
2471,9011001160501,新規,0,2024-03-12,2024-03-12,株式会社Ｗｅｌｌｎｉｚｅ,,株式会社,東京都,渋谷区,代々木５丁目７番５号,,13,113,1510053,,,,,,,2024-03-12,1,,,,,ヴェルナイズ,0
2480,9011101106494,新規,0,2024-03-12,2024-03-12,株式会社ＬｉＬａｂ,,株式会社,東京都,新宿区,西新宿３丁目２－９新宿ワシントンビル本館２Ｆ,,13,104,1600023,,,,,,,2024-03-12,1,,,,,リラボ,0
2482,9011103014183,新規,0,2024-03-12,2024-03-12,合同会社ホウサク,,合同会社,東京都,新宿区,中井２丁目１２番２２号,,13,104,1610035,,,,,,,2024-03-12,1,,,,,ホウサク,0
2483,9011103014191,新規,0,2024-03-12,2024-03-12,Ｌａ　Ｂｒｉｌｌｅｒ合同会社,,合同会社,東京都,新宿区,西新宿３丁目３－１３西新宿水間ビル２Ｆ,,13,104,1600023,,,,,,,2024-03-12,1,,,,,ラブリエ,0
2490,9011303005081,新規,0,2024-03-12,2024-03-12,ＷＩＮＤＬＡＢ合同会社,,合同会社,東京都,杉並区,善福寺２丁目３０番８号ハイツおその井３号棟３２２,,13,115,1670041,,,,,,,2024-03-12,1,,,,,ウインドラボ,0
2493,9011601027587,新規,0,2024-03-12,2024-03-12,阿如汗株式会社,,株式会社,東京都,練馬区,練馬１丁目１－４武内ビル４０２号室,,13,120,1760001,,,,,,,2024-03-12,1,,,,,アルハン,0
2494,9011601027604,新規,0,2024-03-12,2024-03-12,イツキロジスティックス株式会社,,株式会社,東京都,練馬区,大泉町３丁目８番５号,,13,120,1780062,,,,,,,2024-03-12,1,,,,,イツキロジスティックス,0
2495,9011603004270,新規,0,2024-03-12,2024-03-12,合同会社Ｒｉｓｈ,,合同会社,東京都,練馬区,旭町２丁目１７－１４グランバリエ光が丘Ａ１０１,,13,120,1790071,,,,,,,2024-03-12,1,,,,,リッシュ,0
2497,9011701027099,新規,0,2024-03-12,2024-03-12,株式会社高傳,00134024,株式会社,東京都,江戸川区,鹿骨４丁目３０番１８号,,13,123,1330073,,,,,,,2024-03-12,1,,,,,タカデン,0
2498,9011701027108,新規,0,2024-03-12,2024-03-12,株式会社ＯＲＩ,,株式会社,東京都,江戸川区,大杉３丁目１９－４,,13,123,1320022,,,,,,,2024-03-12,1,,,,,オリ,0
2502,9013301052188,新規,0,2024-03-12,2024-03-12,株式会社エスリンク,,株式会社,東京都,豊島区,池袋１丁目１６番１７号カワムラビル３Ｂ,,13,116,1700014,,,,,,,2024-03-12,1,,,,,エスリンク,0
2514,9021001081663,新規,0,2024-03-12,2024-03-12,株式会社山光ホールディングス,,株式会社,神奈川県,厚木市,岡田５丁目１７番１６号,,14,212,2430021,,,,,,,2024-03-12,1,,,,,サンコウホールディングス,0
2530,9030005021575,新規,0,2024-03-12,2024-03-12,一般社団法人あかつき,,その他の設立登記法人,埼玉県,和光市,丸山台１丁目４番４号２Ｆ,,11,229,3510112,,,,,,,2024-03-12,1,,,,,アカツキ,0
2535,9040001132557,新規,0,2024-03-12,2024-03-12,株式会社ＩＫＡソーシャル,,株式会社,千葉県,市川市,市川南１丁目１０番１号,,12,203,2720033,,,,,,,2024-03-12,1,,,,,アイケイエーソーシャル,0
2541,9050001054437,新規,0,2024-03-12,2024-03-12,株式会社ＢＥＹＯＮＤＳＵＳ,,株式会社,茨城県,つくば市,千現１丁目３番地２キャピタルつくば５０３号,,08,220,3050047,,,,,,,2024-03-12,1,,,,,ビヨンサス,0
2543,9050003008184,新規,0,2024-03-12,2024-03-12,合同会社丸久,,合同会社,茨城県,下妻市,平沼２０８,,08,210,3040026,,,,,,,2024-03-12,1,,,,,マルキュウ,0
2573,9100001037270,新規,0,2024-03-12,2024-03-12,株式会社Ｂｒｉｇｈｔ,,株式会社,長野県,上田市,上田原２９８番地,,20,203,3861102,,,,,,,2024-03-12,1,,,,,ブライト,0
2595,9120001262825,新規,0,2024-03-12,2024-03-12,株式会社エイコス,,株式会社,大阪府,大阪市中央区,瓦町４丁目８番５号ＮＫビル,,27,128,5410048,,,,,,,2024-03-12,1,,,,,エイコス,0
2598,9120005024189,新規,0,2024-03-12,2024-03-12,ＮＰＯ法人キミトツクル,,その他の設立登記法人,大阪府,大阪市東成区,大今里１丁目４番２８号,,27,115,5370012,,,,,,,2024-03-12,1,,,,,キミトツクル,0
2600,9120901048877,新規,0,2024-03-12,2024-03-12,１３０Ｒ株式会社,,株式会社,大阪府,吹田市,山田東２丁目１０番８号,,27,205,5650821,,,,,,,2024-03-12,1,,,,,ヒャクサンジュウアール,0
2604,9122003002820,新規,0,2024-03-12,2024-03-12,合同会社ペンギン,,合同会社,大阪府,八尾市,龍華町１丁目４番１－７０２号,,27,212,5810069,,,,,,,2024-03-12,1,,,,,ペンギン,0
2607,9130001076506,新規,0,2024-03-12,2024-03-12,株式会社ＴＲＨ．Ｎ,,株式会社,京都府,京都市下京区,蛭子町１４３番地１,,26,106,6008302,,,,,,,2024-03-12,1,,,,,ティーアールエイチドットエヌ,0
2616,9140003020262,新規,0,2024-03-12,2024-03-12,ＭＡＶ合同会社,,合同会社,兵庫県,神戸市灘区,泉通５丁目３－５,,28,102,6570834,,,,,,,2024-03-12,1,,,,,エムエーブイ,0
2620,9160001025740,新規,0,2024-03-12,2024-03-12,株式会社山本工務店,,株式会社,滋賀県,湖南市,石部西３丁目２番２号,,25,211,5203105,,,,,,,2024-03-12,1,,,,,ヤマモトコウムテン,0
2626,9180005020538,新規,0,2024-03-12,2024-03-12,一般社団法人三好,,その他の設立登記法人,愛知県,名古屋市中区,新栄１丁目２５番３０号ＭＹビル４Ｆ,,23,106,4600007,,,,,,,2024-03-12,1,,,,,ミヨシ,0
2630,9190003004608,新規,0,2024-03-12,2024-03-12,プロテクトＰ合同会社,,合同会社,三重県,四日市市,栄町４番６号,,24,202,5100084,,,,,,,2024-03-12,1,,,,,プロテクトピー,0
2637,9240001062908,新規,0,2024-03-12,2024-03-12,株式会社Ｋ２ｓｉｇｎ,,株式会社,広島県,広島市安佐南区,伴南４丁目７－５,,34,105,7313168,,,,,,,2024-03-12,1,,,,,ケイツーサイン,0
2654,9290005019313,新規,0,2024-03-12,2024-03-12,一般社団法人海外人材育成教育協会,,その他の設立登記法人,福岡県,福岡市博多区,銀天町２丁目２番２１号,,40,132,8120879,,,,,,,2024-03-12,1,,,,,カイガイジンザイイクセイキョウイクキョウカイ,0
2674,9380001034348,新規,0,2024-03-12,2024-03-12,株式会社ＭＡＲ,,株式会社,福島県,郡山市,駅前２丁目３番２号エリート２６地下１階,,07,203,9638002,,,,,,,2024-03-12,1,,,,,エムエーアール,0
2684,9410001013752,新規,0,2024-03-12,2024-03-12,株式会社えん,,株式会社,秋田県,秋田市,大町３丁目２番４７号,,05,201,0100921,,,,,,,2024-03-12,1,,,,,エン,0
2689,9430001091268,新規,0,2024-03-12,2024-03-12,株式会社リジスト,,株式会社,北海道,札幌市北区,北三十七条西６丁目１番２２号,,01,102,0010037,,,,,,,2024-03-12,1,,,,,リジスト,0
2690,9430001091276,新規,0,2024-03-12,2024-03-12,株式会社Ｏｈａｎａ,,株式会社,北海道,札幌市西区,平和三条１０丁目２番１１号,,01,107,0630023,,,,,,,2024-03-12,1,,,,,オハナ,0
