sequenceNumber,corporateNumber,process,correct,updateDate,changeDate,name,nameImageId,kind,prefectureName,cityName,streetNumber,addressImageId,prefectureCode,cityCode,postCode,addressOutside,addressOutsideImageId,closeDate,closeCause,successorCorporateNumber,changeCause,assignmentDate,latest,enName,enPrefectureName,enCityName,enAddressOutside,furigana,hihyoji
4,1010001246136,新規,0,2024-07-03,2024-07-03,ｅｆｆｌｏｓｅｎｓｅ株式会社,,株式会社,東京都,中央区,銀座１丁目１２番４号Ｎ＆ＥＢＬＤ６階,,13,102,1040061,,,,,,,2024-07-03,1,,,,,エフロセンス,0
5,1010001246152,新規,0,2024-07-03,2024-07-03,株式会社ＮＩＲＯ,,株式会社,東京都,千代田区,神田須田町２丁目２５番地ＧＹＢ秋葉原４Ｆ,,13,101,1010041,,,,,,,2024-07-03,1,,,,,ニロ,0
6,1010001246235,新規,0,2024-07-03,2024-07-03,イザワコンサルティング株式会社,,株式会社,東京都,千代田区,九段南１丁目６番５号,,13,101,1020074,,,,,,,2024-07-03,1,,,,,イザワコンサルティング,0
10,1010003044190,新規,0,2024-07-03,2024-07-03,合同会社ＩＹＩ,,合同会社,東京都,中央区,日本橋室町１丁目１１番１２号日本橋水野ビル７階,,13,102,1030022,,,,,,,2024-07-03,1,,,,,イイ,0
11,1010003044208,新規,0,2024-07-03,2024-07-03,ＱａｔａｒＥｎｅｒｇｙ　Ｔｏｋｙｏ合同会社,,合同会社,東京都,千代田区,大手町１丁目９番２号,,13,101,1000004,,,,,,,2024-07-03,1,,,,,カタールエナジートウキョウ,0
16,1010105002278,新規,0,2024-07-03,2024-07-03,税理士法人安田会計事務所,,その他の設立登記法人,東京都,八王子市,めじろ台１丁目９番地１,,13,201,1930833,,,,,,,2024-07-03,1,,,,,ヤスダカイケイジムショ,0
19,1010401183540,新規,0,2024-07-03,2024-07-03,ＳｔａｒＱケア株式会社,,株式会社,東京都,港区,赤坂１丁目８番１号,,13,103,1070052,,,,,,,2024-07-03,1,,,,,スタークケア,0
24,1010403032893,新規,0,2024-07-03,2024-07-03,合同会社Ｍｏｒｉｎｇａ　Ｍｏｚａｍｂｉｑｕｅ,,合同会社,東京都,港区,北青山１丁目３番１号アールキューブ青山３階,,13,103,1070061,,,,,,,2024-07-03,1,,,,,,0
25,1010403032951,新規,0,2024-07-03,2024-07-03,ＤＳ　Ｐｒｅｓｓ合同会社,,合同会社,東京都,港区,南青山３丁目１番３６号青山丸竹ビル６Ｆ,,13,103,1070062,,,,,,,2024-07-03,1,,,,,ディーエスプレス,0
28,1010505003537,新規,0,2024-07-03,2024-07-03,一般社団法人アジアキャンドルプロフェッショナル協会,,その他の設立登記法人,東京都,台東区,清川１丁目２１－５ＷＡＬＬａｐａｒｔｍｅｎｔ４０３,,13,106,1110022,,,,,,,2024-07-03,1,,,,,,0
30,1010601065472,新規,0,2024-07-03,2024-07-03,株式会社ウイバー企画,,株式会社,東京都,江東区,千石１丁目４番１２号,,13,108,1350015,,,,,,,2024-07-03,1,,,,,ウイバーキカク,0
31,1010601065480,新規,0,2024-07-03,2024-07-03,ＴＫＤ分割準備株式会社,,株式会社,東京都,江東区,毛利１丁目１９番１０号,,13,108,1350001,,,,,,,2024-07-03,1,,,,,ティーケイディーブンカツジュンビ,0
32,1010601065489,新規,0,2024-07-03,2024-07-03,株式会社Ｋｒａｙ,,株式会社,東京都,江東区,亀戸１丁目１３番９－７０１号,,13,108,1360071,,,,,,,2024-07-03,1,,,,,クレイ,0
40,1010901055578,新規,0,2024-07-03,2024-07-03,株式会社ＫＡＪＩＹＡ,,株式会社,東京都,世田谷区,砧６丁目１２番５号ＧＡＲＤＥＮＧＲＯＶＥ砧３０１号室,,13,112,1570073,,,,,,,2024-07-03,1,,,,,カジヤ,0
45,1011001163107,新規,0,2024-07-03,2024-07-03,株式会社コンフル,,株式会社,東京都,渋谷区,道玄坂１丁目１０番８号渋谷道玄坂東急ビル２Ｆ‐Ｃ,,13,113,1500043,,,,,,,2024-07-03,1,,,,,コンフル,0
46,1011001163123,新規,0,2024-07-03,2024-07-03,株式会社Ｈａｍａｌ,,株式会社,東京都,渋谷区,円山町１４番３号,,13,113,1500044,,,,,,,2024-07-03,1,,,,,ハマル,0
47,1011001163131,新規,0,2024-07-03,2024-07-03,株式会社Ｈａｍｐｓｔｅａｄ,,株式会社,東京都,渋谷区,南平台町２番６号南平台ヒルス６０４,,13,113,1500036,,,,,,,2024-07-03,1,,,,,ハムステッド,0
48,1011001163148,新規,0,2024-07-03,2024-07-03,株式会社ＤＥＩＧＨＴ　ＰＲＯＤＵＣＴ,,株式会社,東京都,渋谷区,渋谷２丁目１９－１５宮益坂ビルディング６０９,,13,113,1500002,,,,,,,2024-07-03,1,,,,,デイトプロダクト,0
49,1011003019447,新規,0,2024-07-03,2024-07-03,合同会社Ｎｅｘｔ　Ｌｉｆｅ,,合同会社,東京都,渋谷区,神宮前６丁目２３番４号桑野ビル２階,,13,113,1500001,,,,,,,2024-07-03,1,,,,,ネクストライフ,0
50,1011003019513,新規,0,2024-07-03,2024-07-03,カナリア合同会社,,合同会社,東京都,渋谷区,代々木５丁目３５番１２号東急ドエル・プレステージ代々木公園５０１,,13,113,1510053,,,,,,,2024-07-03,1,,,,,カナリア,0
57,1011601027875,新規,0,2024-07-03,2024-07-03,九龍山株式会社,,株式会社,東京都,練馬区,羽沢１丁目１８番１３号,,13,120,1760003,,,,,,,2024-07-03,1,,,,,キュウリュウサン,0
61,1011801044489,新規,0,2024-07-03,2024-07-03,株式会社日進,,株式会社,東京都,足立区,中央本町５丁目６番１号,,13,121,1210011,,,,,,,2024-07-03,1,,,,,ニッシン,0
63,1011803006314,新規,0,2024-07-03,2024-07-03,合同会社翼,,合同会社,東京都,足立区,綾瀬６丁目２－２綾東ヴィレッジ６０１号,,13,121,1200005,,,,,,,2024-07-03,1,,,,,ツバサ,0
66,1012401042040,新規,0,2024-07-03,2024-07-03,株式会社和風堂,,株式会社,東京都,調布市,深大寺元町５丁目１３番地６,,13,208,1820017,,,,,,,2024-07-03,1,,,,,ワフウドウ,0
68,1012403006646,新規,0,2024-07-03,2024-07-03,合同会社Ｓ‐ｒｙｍｋ,,合同会社,東京都,武蔵野市,吉祥寺本町１丁目２０番１号吉祥寺永谷シティプラザ１００２,,13,203,1800004,,,,,,,2024-07-03,1,,,,,エスリンク,0
80,1021001082578,新規,0,2024-07-03,2024-07-03,株式会社リーガルカフェ,,株式会社,神奈川県,座間市,相武台１丁目１０番５号プレアール相武台１０１号,,14,216,2520011,,,,,,,2024-07-03,1,,,,,リーガルカフェ,0
81,1021001082652,新規,0,2024-07-03,2024-07-03,ＩＮＴＥＲＧＲＯＷ株式会社,,株式会社,神奈川県,藤沢市,長後４１８番地の４,,14,205,2520801,,,,,,,2024-07-03,1,,,,,インターグロウ,0
82,1021001082660,新規,0,2024-07-03,2024-07-03,今井建材株式会社,,株式会社,神奈川県,茅ヶ崎市,柳島１６４９番地４７,,14,207,2530064,,,,,,,2024-07-03,1,,,,,イマイケンザイ,0
85,1021003014703,新規,0,2024-07-03,2024-07-03,合同会社Ａｍｂｒｅｌｌａ,,合同会社,神奈川県,小田原市,東町１丁目２４－５,,14,206,2500003,,,,,,,2024-07-03,1,,,,,アンブレラ,0
86,1030001161143,新規,0,2024-07-03,2024-07-03,株式会社ＴＫ　ＳＰＯＲＴＳ,,株式会社,埼玉県,草加市,青柳７丁目１２番１－２号,,11,221,3400002,,,,,,,2024-07-03,1,,,,,ティーケースポーツ,0
87,1030001161218,新規,0,2024-07-03,2024-07-03,株式会社埼玉上尾メディックス,,株式会社,埼玉県,上尾市,柏座１丁目１０番３－５８号,,11,219,3620075,,,,,,,2024-07-03,1,,,,,サイタマアゲオメディックス,0
94,1040001134206,新規,0,2024-07-03,2024-07-03,飛貝株式会社,,株式会社,千葉県,船橋市,駿河台１丁目２０番３号金沐オフィス東船橋１０２号,,12,204,2730862,,,,,,,2024-07-03,1,,,,,ヒカイ,0
95,1040001134296,新規,0,2024-07-03,2024-07-03,株式会社ゼクス,,株式会社,千葉県,館山市,北条１８８２番地７,,12,205,2940045,,,,,,,2024-07-03,1,,,,,ゼクス,0
96,1040001134321,新規,0,2024-07-03,2024-07-03,エスエスデイジー株式会社,,株式会社,千葉県,千葉市緑区,おゆみ野２丁目３５番地１サンマンションアトレおゆみ野７０７号,,12,105,2660031,,,,,,,2024-07-03,1,,,,,エスエスデイジー,0
97,1040001134379,新規,0,2024-07-03,2024-07-03,株式会社吉澤工芸,,株式会社,千葉県,市原市,白金町４丁目２３番地３９－２０１,,12,219,2900059,,,,,,,2024-07-03,1,,,,,ヨシザワコウゲイ,0
104,1050003008514,新規,0,2024-07-03,2024-07-03,合同会社ＢＲＥＷ７,,合同会社,茨城県,つくば市,東光台３丁目１－２,,08,220,3002635,,,,,,,2024-07-03,1,,,,,ブルーセブン,0
106,1080101024856,新規,0,2024-07-03,2024-07-03,ＦＯＲＴＥ　ＵＮＩＯＮ株式会社,,株式会社,静岡県,富士市,久沢２丁目１０番１０号,,22,210,4190202,,,,,,,2024-07-03,1,,,,,フォテユニオン,0
108,1080401027286,新規,0,2024-07-03,2024-07-03,株式会社アエル,,株式会社,静岡県,浜松市浜名区,小松６０４番地の２,,22,139,4340042,,,,,,,2024-07-03,1,,,,,アエル,0
109,1080401027294,新規,0,2024-07-03,2024-07-03,ビーフマルナガ株式会社,,株式会社,静岡県,袋井市,富里１４７２番地,,22,216,4371124,,,,,,,2024-07-03,1,,,,,ビーフマルナガ,0
113,1110003005439,新規,0,2024-07-03,2024-07-03,合同会社ｌｉｔｔｌｅｂｙｌｉｔｔｌｅ,,合同会社,新潟県,上越市,本町３丁目２番２１号,,15,222,9430832,,,,,,,2024-07-03,1,,,,,リトルバイリトル,0
125,1120001266379,新規,0,2024-07-03,2024-07-03,株式会社日本最高食品研究所,,株式会社,大阪府,大阪市北区,天神橋４丁目２番８号アミティエ扇町公園８０３号室,,27,127,5300041,,,,,,,2024-07-03,1,,,,,ニホンサイコウショクヒンケンキュウショ,0
126,1120001266395,新規,0,2024-07-03,2024-07-03,合富株式会社,,株式会社,大阪府,大阪市淀川区,東三国２丁目１１－３０－４０３,,27,123,5320002,,,,,,,2024-07-03,1,,,,,ゴウフ,0
127,1120001266429,新規,0,2024-07-03,2024-07-03,株式会社ＭＮＳ構造設計,,株式会社,大阪府,大阪市北区,天満１丁目１８番４号天満ファーストビル４０２号室,,27,127,5300043,,,,,,,2024-07-03,1,,,,,エムエヌエスコウゾウセッケイ,0
128,1120001266461,新規,0,2024-07-03,2024-07-03,株式会社Ａｒｇｏ．,,株式会社,大阪府,大阪市中央区,心斎橋筋１丁目５番３１号ラシーンビル５階,,27,128,5420085,,,,,,,2024-07-03,1,,,,,アルゴ,0
129,1120001266494,新規,0,2024-07-03,2024-07-03,Ａ‐ＦＲＯＮＴ株式会社,,株式会社,大阪府,大阪市中央区,久太郎町３丁目１,,27,128,5410056,,,,,,,2024-07-03,1,,,,,エーフロント,0
130,1120001266503,新規,0,2024-07-03,2024-07-03,株式会社四ツ葉,,株式会社,大阪府,守口市,大久保町５丁目６４番１７－１０３号,,27,209,5700012,,,,,,,2024-07-03,1,,,,,ヨツバ,0
131,1120001266536,新規,0,2024-07-03,2024-07-03,株式会社ＮＹフーディーズ,,株式会社,大阪府,枚方市,牧野本町１丁目２０－５ＭＵＲＡＫＡＭＩビル２Ｆ,,27,210,5731144,,,,,,,2024-07-03,1,,,,,エヌワイフーディーズ,0
132,1120003026970,新規,0,2024-07-03,2024-07-03,Ｋｉｍｏｎｏ　Ａｖｅｎｕｅ合同会社,,合同会社,大阪府,大阪市中央区,本町橋２－１６,,27,128,5400029,,,,,,,2024-07-03,1,,,,,キモノアベニュー,0
135,1120005024403,新規,0,2024-07-03,2024-07-03,一般財団法人桃谷政次郎記念財団,,その他の設立登記法人,大阪府,大阪市中央区,上町１丁目４番１号,,27,128,5400005,,,,,,,2024-07-03,1,,,,,モモタニマサジロウキネンザイダン,0
143,1120101069913,新規,0,2024-07-03,2024-07-03,株式会社ライトバレー,,株式会社,大阪府,堺市南区,泉田中４２２番地,,27,145,5900126,,,,,,,2024-07-03,1,,,,,ライトバレー,0
147,1120901049420,新規,0,2024-07-03,2024-07-03,株式会社健康創生会,,株式会社,大阪府,池田市,神田３丁目２０番１６号,,27,204,5630043,,,,,,,2024-07-03,1,,,,,ケンコウソウセイカイ,0
156,1130001077379,新規,0,2024-07-03,2024-07-03,株式会社リクロジ,,株式会社,京都府,城陽市,長池河原２３番地サンシード城陽３０５号室,,26,207,6100112,,,,,,,2024-07-03,1,,,,,リクロジ,0
157,1130001077395,新規,0,2024-07-03,2024-07-03,株式会社エフテック,,株式会社,京都府,宇治市,槇島町十一８４番地７,,26,204,6110041,,,,,,,2024-07-03,1,,,,,エフテック,0
158,1130001077412,新規,0,2024-07-03,2024-07-03,Ｏｌｉｖｅ株式会社,,株式会社,京都府,京都市北区,紫野上築山町２９番地４,,26,101,6038221,,,,,,,2024-07-03,1,,,,,オリーブ,0
161,1130003009677,新規,0,2024-07-03,2024-07-03,合同会社ＦＵＪＩＳＡＮ１号,,合同会社,京都府,京都市南区,久世高田町３７３－１－１１８,,26,107,6018211,,,,,,,2024-07-03,1,,,,,フジサンイチゴウ,0
163,1130005017133,新規,0,2024-07-03,2024-07-03,司法書士法人Ｓ‐ｐｌｕｓ,,その他の設立登記法人,京都府,京都市北区,鞍馬口通烏丸東入上御霊上江町２４６番地,,26,101,6038147,,,,,,,2024-07-03,1,,,,,エスプラス,0
168,1140001134988,新規,0,2024-07-03,2024-07-03,株式会社ＢＡデザインオフィス,,株式会社,兵庫県,神戸市中央区,下山手通３丁目１３番２号,,28,110,6500011,,,,,,,2024-07-03,1,,,,,ビーエーデザインオフィス,0
169,1140001134996,新規,0,2024-07-03,2024-07-03,トライトカーゴ株式会社,,株式会社,兵庫県,神戸市長田区,苅藻通６丁目５番１６号,,28,106,6530032,,,,,,,2024-07-03,1,,,,,トライトカーゴ,0
170,1140003020765,新規,0,2024-07-03,2024-07-03,合同会社プラスワン,,合同会社,兵庫県,神戸市中央区,下山手通２丁目１３－３建創ビル８階６,,28,110,6500011,,,,,,,2024-07-03,1,,,,,プラスワン,0
173,1150001027381,新規,0,2024-07-03,2024-07-03,株式会社Ｗｉｌｌｏｗ,,株式会社,奈良県,奈良市,六条２丁目１７番６号,,29,201,6308043,,,,,,,2024-07-03,1,,,,,ウィロウ,0
179,1180001162218,新規,0,2024-07-03,2024-07-03,株式会社ＪＡＭクリエイト,,株式会社,愛知県,名古屋市中区,丸の内２丁目１５番１３号,,23,106,4600002,,,,,,,2024-07-03,1,,,,,ジャムクリエイト,0
180,1180001162234,新規,0,2024-07-03,2024-07-03,結不動産株式会社,,株式会社,愛知県,名古屋市千種区,東山通５丁目６５番地東山ビル３Ｆ,,23,101,4640807,,,,,,,2024-07-03,1,,,,,ユイフドウサン,0
181,1180001162259,新規,0,2024-07-03,2024-07-03,株式会社カワグチフロアー,,株式会社,愛知県,名古屋市北区,上飯田北町３丁目３５番地２,,23,103,4620802,,,,,,,2024-07-03,1,,,,,カワグチフロアー,0
182,1180001162275,新規,0,2024-07-03,2024-07-03,株式会社ＲＩＳＥ　ＷＯＲＫＳ,,株式会社,愛知県,小牧市,中央６丁目８７番地,,23,219,4850029,,,,,,,2024-07-03,1,,,,,ライズワークス,0
186,1180003027022,新規,0,2024-07-03,2024-07-03,合同会社ラ・ジェム,,合同会社,愛知県,瀬戸市,新明町２０番地の２,,23,204,4890849,,,,,,,2024-07-03,1,,,,,ラジェム,0
187,1180005020685,新規,0,2024-07-03,2024-07-03,医療法人Ｍ’ｓ,,その他の設立登記法人,愛知県,名古屋市瑞穂区,牧町２丁目１１番地,,23,108,4670816,,,,,,,2024-07-03,1,,,,,エムズ,0
190,1180303006171,新規,0,2024-07-03,2024-07-03,合同会社くるみん,,合同会社,愛知県,豊橋市,大国町５９番地３ウェステール大国３０２,,23,201,4400884,,,,,,,2024-07-03,1,,,,,クルミン,0
191,1190001031470,新規,0,2024-07-03,2024-07-03,株式会社ＡｉｒＣｏｒｅ,,株式会社,三重県,四日市市,伊坂台２丁目６０番地,,24,202,5128066,,,,,,,2024-07-03,1,,,,,エアコア,0
193,1190003004730,新規,0,2024-07-03,2024-07-03,合同会社ＹＵＫＩ,,合同会社,三重県,津市,半田５００８番地５,,24,201,5140823,,,,,,,2024-07-03,1,,,,,ユウキ,0
197,1200001042656,新規,0,2024-07-03,2024-07-03,株式会社夢創,,株式会社,岐阜県,岐阜市,茜部新所４丁目７８番地,,21,201,5008263,,,,,,,2024-07-03,1,,,,,ムソウ,0
199,1210001019810,新規,0,2024-07-03,2024-07-03,ＨＲＴ株式会社,,株式会社,福井県,坂井市,坂井町下新庄第１６号８番地,,18,210,9190521,,,,,,,2024-07-03,1,,,,,エイチアールティー,0
204,1220001026079,新規,0,2024-07-03,2024-07-03,株式会社ｉｗｏｒｋｓ,,株式会社,石川県,金沢市,三ツ屋町ロ４番地１Ｄ－ＳＴＡＹトロワＢ棟２０３号室,,17,201,9200214,,,,,,,2024-07-03,1,,,,,アイワークス,0
207,1230003002242,新規,0,2024-07-03,2024-07-03,スパイラルアート合同会社,,合同会社,富山県,射水市,三ケ３２７５番地３小杉スタービル２Ｆ,,16,211,9390341,,,,,,,2024-07-03,1,,,,,スパイラルアート,0
210,1240001063459,新規,0,2024-07-03,2024-07-03,株式会社Ｍ．Ｃ．コア,,株式会社,広島県,広島市安佐南区,川内１丁目１９番２７号,,34,105,7310102,,,,,,,2024-07-03,1,,,,,エムシーコア,0
211,1240001063475,新規,0,2024-07-03,2024-07-03,株式会社テルース不動産,,株式会社,広島県,広島市西区,商工センター８丁目１０番１９号,,34,104,7330833,,,,,,,2024-07-03,1,,,,,テルースフドウサン,0
212,1240001063491,新規,0,2024-07-03,2024-07-03,株式会社ＳＡＤＡＭＯＴＯ工業,,株式会社,広島県,広島市安佐北区,可部７丁目１５番１５－５号,,34,106,7310221,,,,,,,2024-07-03,1,,,,,サダモトコウギョウ,0
214,1250001020715,新規,0,2024-07-03,2024-07-03,みはぎの株式会社,,株式会社,山口県,萩市,大字土原３８３番地,,35,204,7580025,,,,,,,2024-07-03,1,,,,,ミハギノ,0
220,1260005011379,新規,0,2024-07-03,2024-07-03,秋山・川西税理士法人,,その他の設立登記法人,岡山県,総社市,中央６丁目７番地１１２,,33,208,7191131,,,,,,,2024-07-03,1,,,,,アキヤマカワニシ,0
225,1290001106304,新規,0,2024-07-03,2024-07-03,株式会社ＲＡＲＣＳ,,株式会社,福岡県,久留米市,津福本町１０５１番地９,,40,203,8300047,,,,,,,2024-07-03,1,,,,,ラークス,0
226,1290001106320,新規,0,2024-07-03,2024-07-03,Ｕ‐電気工業株式会社,,株式会社,福岡県,春日市,塚原台３丁目５６番地５,,40,218,8160841,,,,,,,2024-07-03,1,,,,,ユーデンキコウギョウ,0
227,1290003015511,新規,0,2024-07-03,2024-07-03,合同会社Ｎブランド,,合同会社,福岡県,福津市,八並１６０１番地の１０,,40,224,8113201,,,,,,,2024-07-03,1,,,,,エヌブランド,0
228,1290005019436,新規,0,2024-07-03,2024-07-03,特定非営利活動法人いとしまこども食堂ほっこり,,その他の設立登記法人,福岡県,糸島市,潤１丁目１９番１４号,,40,230,8191105,,,,,,,2024-07-03,1,,,,,イトシマコドモショクドウホッコリ,0
229,1290801030678,新規,0,2024-07-03,2024-07-03,泰成建設株式会社,,株式会社,福岡県,北九州市戸畑区,中原西２丁目１４番１８－３０２号,,40,105,8040011,,,,,,,2024-07-03,1,,,,,タイセイケンセツ,0
230,1300003002144,新規,0,2024-07-03,2024-07-03,合同会社ＫＭＲ,,合同会社,佐賀県,佐賀市,卸本町４番２８－２０３号サーパス鍋島東,,41,201,8490933,,,,,,,2024-07-03,1,,,,,ケイエムアール,0
231,1330001032215,新規,0,2024-07-03,2024-07-03,株式会社Ｍａｒｏｕｔ,,株式会社,熊本県,熊本市中央区,帯山１丁目３１番２０号賢勝ビル１０２,,43,101,8620924,,,,,,,2024-07-03,1,,,,,マロウ,0
232,1340001026612,新規,0,2024-07-03,2024-07-03,株式会社メティス,,株式会社,鹿児島県,鹿児島市,原良１丁目１５番２２号セジュール松窪２号,,46,201,8900026,,,,,,,2024-07-03,1,,,,,メティス,0
234,1340003004533,新規,0,2024-07-03,2024-07-03,合同会社スタジオパーセク,,合同会社,鹿児島県,肝属郡肝付町,後田３２５３番地１,,46,492,8931203,,,,,,,2024-07-03,1,,,,,スタジオパーセク,0
235,1350001019045,新規,0,2024-07-03,2024-07-03,宮崎海岸不動産株式会社,,株式会社,宮崎県,宮崎市,高洲町２４４番地６０,,45,201,8800852,,,,,,,2024-07-03,1,,,,,ミヤザキカイガンフドウサン,0
236,1350003004689,新規,0,2024-07-03,2024-07-03,合同会社ｃｏ‐空,,合同会社,宮崎県,都城市,吉之元町５３１６番地４２,,45,202,8850223,,,,,,,2024-07-03,1,,,,,コクウ,0
239,1360001033887,新規,0,2024-07-03,2024-07-03,株式会社フラットミニマ,,株式会社,沖縄県,国頭郡恩納村,字谷茶１９１９番地１・ＯＩＳＴ　Ｉｎｎｏｖａｔｉｏｎ　Ｉｎｃｕｂａｔｏｒ,,47,311,9040412,,,,,,,2024-07-03,1,,,,,フラットミニマ,0
240,1360001033904,新規,0,2024-07-03,2024-07-03,株式会社ナラティブ,,株式会社,沖縄県,宜野湾市,我如古４丁目２５番２２号,,47,205,9012214,,,,,,,2024-07-03,1,,,,,ナラティブ,0
258,1430001092166,新規,0,2024-07-03,2024-07-03,株式会社ＩＷ‐Ｍ,,株式会社,北海道,札幌市中央区,南十条西１２丁目２番５２号,,01,101,0640810,,,,,,,2024-07-03,1,,,,,アイダブリュウエム,0
259,1430001092174,新規,0,2024-07-03,2024-07-03,株式会社ｉｎＱｌｉｔ,,株式会社,北海道,札幌市中央区,南二条西５丁目２６番地１７アイビル２・５－４０３号,,01,101,0600062,,,,,,,2024-07-03,1,,,,,インクリット,0
260,1430001092182,新規,0,2024-07-03,2024-07-03,株式会社池西重建工業,,株式会社,北海道,札幌市南区,南沢五条２丁目１０番１９号,,01,106,0050825,,,,,,,2024-07-03,1,,,,,イケニシジュウケンコウギョウ,0
261,1430001092190,新規,0,2024-07-03,2024-07-03,株式会社秀英コーポレーション,,株式会社,北海道,札幌市北区,新琴似八条９丁目２番１号,,01,102,0010908,,,,,,,2024-07-03,1,,,,,シュウエイコーポレーション,0
263,1430003016511,新規,0,2024-07-03,2024-07-03,合同会社ＴＭＲ,,合同会社,北海道,札幌市北区,太平三条５丁目４番７号,,01,102,0028003,,,,,,,2024-07-03,1,,,,,ティーエムアール,0
266,1470001020271,新規,0,2024-07-03,2024-07-03,十人十色株式会社,,株式会社,香川県,高松市,牟礼町牟礼３０４２番地４,,37,201,7610121,,,,,,,2024-07-03,1,,,,,ジュウニントイロ,0
267,1480001012532,新規,0,2024-07-03,2024-07-03,株式会社さんさん会計,,株式会社,徳島県,三好郡東みよし町,加茂２４６８番地１,,36,489,7794701,,,,,,,2024-07-03,1,,,,,サンサンカイケイ,0
274,1700150125013,新規,0,2024-07-03,2024-04-22,高野地域協議会,,その他,京都府,舞鶴市,字女布７９１－４０　２Ｆ,,26,202,6240831,,,,,,,2024-04-22,1,,,,,タカノチイキキヨウギカイ,0
276,2010001246218,新規,0,2024-07-03,2024-07-03,株式会社今井商務店,,株式会社,東京都,千代田区,神田須田町２丁目３番地１,,13,101,1010041,,,,,,,2024-07-03,1,,,,,イマイショウムテン,0
283,2010401183507,新規,0,2024-07-03,2024-07-03,ＳＯＲＡ株式会社,,株式会社,東京都,港区,北青山１丁目３番１号アールキューブ青山３階,,13,103,1070061,,,,,,,2024-07-03,1,,,,,ソラ,0
284,2010401183523,新規,0,2024-07-03,2024-07-03,株式会社ＣＬＥＡＲＡＮＣＥ,,株式会社,東京都,港区,北青山３丁目５－２１青山加藤ビル３Ｆ,,13,103,1070061,,,,,,,2024-07-03,1,,,,,クリアランス,0
285,2010401183531,新規,0,2024-07-03,2024-07-03,株式会社ゴールドリバース,,株式会社,東京都,港区,海岸１丁目１３番１５－１３１２号,,13,103,1050022,,,,,,,2024-07-03,1,,,,,ゴールドリバース,0
286,2010401183622,新規,0,2024-07-03,2024-07-03,あたらしいインターネット株式会社,,株式会社,東京都,港区,虎ノ門３－１－１虎ノ門三丁目ビルディング２ＦＱｕｅｓｔ虎ノ門,,13,103,1050000,,,,,,,2024-07-03,1,,,,,アタラシイインターネット,0
291,2010403032950,新規,0,2024-07-03,2024-07-03,晴海Ｙオフィス合同会社,,合同会社,東京都,港区,六本木１丁目６番１号泉ガーデンタワー,,13,103,1060032,,,,,,,2024-07-03,1,,,,,,0
294,2010501052529,新規,0,2024-07-03,2024-07-03,Ｗｌｓｙ　Ｂｉｏｔｅｃｈ株式会社,,株式会社,東京都,台東区,清川１丁目２１－５ＷＡＬＬａｐａｒｔｍｅｎｔ５階大区画号室,,13,106,1110022,,,,,,,2024-07-03,1,,,,,ウィルシーバイオテック,0
296,2010503007506,新規,0,2024-07-03,2024-07-03,合同会社Ｃｈａｌｌｅｎｇｅｒ,,合同会社,東京都,台東区,上野６丁目８番１９号,,13,106,1100005,,,,,,,2024-07-03,1,,,,,チャレンジャー,0
301,2010901055544,新規,0,2024-07-03,2024-07-03,ＳｅｖｅｎｓＲｅａｌＥｓｔａｔｅ株式会社,,株式会社,東京都,世田谷区,赤堤１丁目３３番３号,,13,112,1560044,,,,,,,2024-07-03,1,,,,,セブンスリアルエステート,0
309,2011001163106,新規,0,2024-07-03,2024-07-03,株式会社テスティー,,株式会社,東京都,渋谷区,渋谷３丁目１９番１号,,13,113,1500002,,,,,,,2024-07-03,1,,,,,テスティー,0
310,2011001163130,新規,0,2024-07-03,2024-07-03,株式会社トモス,,株式会社,東京都,渋谷区,桜丘町１４番５号渋谷サニーヒル４０３,,13,113,1500031,,,,,,,2024-07-03,1,,,,,トモス,0
311,2011001163147,新規,0,2024-07-03,2024-07-03,メルクセミコンダクターソリューションズ株式会社,,株式会社,東京都,目黒区,下目黒１丁目８番１号アルコタワー,,13,110,1530064,,,,,,,2024-07-03,1,,,,,メルクセミコンダクターソリューションズ,0
312,2011001163163,新規,0,2024-07-03,2024-07-03,株式会社２Ｍｅｔａｓ,,株式会社,東京都,渋谷区,神宮前６丁目２３番４号桑野ビル２階,,13,113,1500001,,,,,,,2024-07-03,1,,,,,ツーメタズ,0
313,2011003019512,新規,0,2024-07-03,2024-07-03,モントンリーパー合同会社,,合同会社,東京都,目黒区,自由が丘２丁目１６番１２号ＲＪ３,,13,110,1520035,,,,,,,2024-07-03,1,,,,,モントンリーパー,0
322,2011501030879,新規,0,2024-07-03,2024-07-03,株式会社ＮＥＷ　ＮＯＲＭＡＬ,,株式会社,東京都,北区,赤羽１丁目２２番６号,,13,117,1150045,,,,,,,2024-07-03,1,,,,,ニューノーマル,0
323,2011601027866,新規,0,2024-07-03,2024-07-03,ＯｃｅａｎＴｒｅｅ株式会社,,株式会社,東京都,練馬区,関町北５丁目１３－２５・Ｆ室,,13,120,1770051,,,,,,,2024-07-03,1,,,,,オーシャンツリー,0
327,2011801044463,新規,0,2024-07-03,2024-07-03,株式会社Ｈ＆Ｍコンサルティング,,株式会社,東京都,葛飾区,西亀有２丁目３４番９－２０２号,,13,122,1240002,,,,,,,2024-07-03,1,,,,,エイチアンドエムコンサルティング,0
356,2021001082627,新規,0,2024-07-03,2024-07-03,株式会社仲村建設,,株式会社,神奈川県,厚木市,山際７７６番地１フレグランスアキラＩＩ１０３,00135395,14,212,2430803,,,,,,,2024-07-03,1,,,,,ナカムラケンセツ,0
357,2021001082635,新規,0,2024-07-03,2024-07-03,株式会社トラスト,,株式会社,神奈川県,大和市,つきみ野７丁目１９番地１５,,14,213,2420002,,,,,,,2024-07-03,1,,,,,トラスト,0
358,2021001082643,新規,0,2024-07-03,2024-07-03,株式会社ｊｕｐｉｔａｒ,,株式会社,神奈川県,藤沢市,藤が岡２丁目９番１６号,,14,205,2510004,,,,,,,2024-07-03,1,,,,,ジュピター,0
369,2030001161217,新規,0,2024-07-03,2024-07-03,オーセブンホールディングス株式会社,,株式会社,埼玉県,さいたま市中央区,本町西６丁目４番１４号,,11,105,3380004,,,,,,,2024-07-03,1,,,,,オーセブンホールディングス,0
372,2030003024611,新規,0,2024-07-03,2024-07-03,ＵＳＡＭＡ　ＴＲＡＤＩＮＧ合同会社,,合同会社,埼玉県,羽生市,東８丁目９番６号,,11,216,3480052,,,,,,,2024-07-03,1,,,,,ウサマトレーディング,0
377,2040001134205,新規,0,2024-07-03,2024-07-03,貝飛株式会社,,株式会社,千葉県,船橋市,駿河台１丁目２０番３号金沐オフィス東船橋１０６号,,12,204,2730862,,,,,,,2024-07-03,1,,,,,カイヒ,0
378,2040001134329,新規,0,2024-07-03,2024-07-03,株式会社リバコン,,株式会社,千葉県,千葉市美浜区,稲毛海岸１丁目３－５第１ヤマヤスビル２０４,,12,106,2610005,,,,,,,2024-07-03,1,,,,,リバコン,0
379,2040001134386,新規,0,2024-07-03,2024-07-03,株式会社信州開発,,株式会社,千葉県,船橋市,習志野台６丁目１８番２号,,12,204,2740063,,,,,,,2024-07-03,1,,,,,シンシュウカイハツ,0
380,2040003025303,新規,0,2024-07-03,2024-07-03,ＡＺ合同会社,,合同会社,千葉県,千葉市若葉区,桜木北３丁目２１番２０号,,12,104,2640029,,,,,,,2024-07-03,1,,,,,エーゼット,0
388,2060001037249,新規,0,2024-07-03,2024-07-03,株式会社ＡＳＡ　ＤＥ　ＡＮＪＯ,,株式会社,栃木県,小山市,八幡町１丁目６－２２あずまビル２０１,,09,208,3230031,,,,,,,2024-07-03,1,,,,,アザデアンジュ,0
389,2060003005138,新規,0,2024-07-03,2024-07-03,合同会社１ｓｔ００８,,合同会社,栃木県,足利市,葉鹿町１３８８番地１,,09,202,3260143,,,,,,,2024-07-03,1,,,,,ファーストゼロゼロハチ,0
393,2080101024855,新規,0,2024-07-03,2024-07-03,株式会社みらいネットワーク,,株式会社,静岡県,三島市,西若町５番１１号上杉ビル１Ｆ,,22,206,4110038,,,,,,,2024-07-03,1,,,,,ミライネットワーク,0
398,2100001037599,新規,0,2024-07-03,2024-07-03,株式会社Ａｒｔｅｍｉｓ　Ｃｏ,,株式会社,長野県,上田市,中央北３丁目４－４０土屋貸住宅北Ｄ,,20,203,3860011,,,,,,,2024-07-03,1,,,,,アルテミス,0
399,2100001037608,新規,0,2024-07-03,2024-07-03,株式会社レブト,,株式会社,長野県,上高井郡小布施町,大字小布施１４９７番地２,,20,541,3810201,,,,,,,2024-07-03,1,,,,,レブト,0
407,2120001266403,新規,0,2024-07-03,2024-07-03,越洋可信株式会社,,株式会社,大阪府,大阪市生野区,新今里３丁目１０番８号ワコー新今里３０１号室,,27,116,5440001,,,,,,,2024-07-03,1,,,,,コウヨウカシン,0
408,2120001266452,新規,0,2024-07-03,2024-07-03,株式会社ネクストウイング,,株式会社,大阪府,大阪市中央区,南本町４丁目５番７号東亜ビル５階,,27,128,5410054,,,,,,,2024-07-03,1,,,,,ネクストウイング,0
409,2120001266477,新規,0,2024-07-03,2024-07-03,株式会社オフィスラボ,,株式会社,大阪府,大阪市北区,芝田２丁目８－１１共栄ビル３階,,27,127,5300012,,,,,,,2024-07-03,1,,,,,オフィスラボ,0
410,2120001266502,新規,0,2024-07-03,2024-07-03,株式会社Ｓ・Ｓ・Ｉ,,株式会社,大阪府,大阪市天王寺区,生玉寺町４番１０号ルイシャトレ夕陽丘３０４号,,27,109,5430073,,,,,,,2024-07-03,1,,,,,エスエスアイ,0
411,2120003026953,新規,0,2024-07-03,2024-07-03,ＮＥＸＴ　ＶＩＳＩＯＮ合同会社,,合同会社,大阪府,大阪市東住吉区,湯里２丁目１４番３号,,27,121,5460013,,,,,,,2024-07-03,1,,,,,ネクストビジョン,0
412,2120003026961,新規,0,2024-07-03,2024-07-03,Ｃｒｅｙｚｅ　Ｗｏｒｋｓ合同会社,,合同会社,大阪府,大阪市北区,梅田１丁目２番２号大阪駅前第２ビル１２－１２,,27,127,5300001,,,,,,,2024-07-03,1,,,,,クレイズワークス,0
414,2120005024393,新規,0,2024-07-03,2024-07-03,一般社団法人資源回収構築機構,,その他の設立登記法人,大阪府,大阪市西区,新町１丁目６番２３号,,27,106,5500013,,,,,,,2024-07-03,1,,,,,シゲンカイシュウコウチクキコウ,0
416,2120101069912,新規,0,2024-07-03,2024-07-03,株式会社Ｃｅｎｔｒａｌ　Ｗｏｌｆ,,株式会社,大阪府,堺市堺区,柏木町３丁４－３１,,27,141,5900837,,,,,,,2024-07-03,1,,,,,ウルフ,0
422,2130001077345,新規,0,2024-07-03,2024-07-03,京都窄泉工業株式会社,,株式会社,京都府,亀岡市,保津町風呂ノ本１６番地１１,,26,206,6210005,,,,,,,2024-07-03,1,,,,,キョウトサクセンコウギョウ,0
426,2140001134938,新規,0,2024-07-03,2024-07-03,ＭｅｉＬａｂ株式会社,,株式会社,兵庫県,高砂市,阿弥陀町阿弥陀７２１番地の５,,28,216,6760827,,,,,,,2024-07-03,1,,,,,メイラボ,0
429,2140003020748,新規,0,2024-07-03,2024-07-03,合同会社ＦＵＪＩＬＵＸ,,合同会社,兵庫県,尼崎市,杭瀬南新町２丁目５－１－３０２号,,28,202,6600822,,,,,,,2024-07-03,1,,,,,フジラックス,0
431,2150001027397,新規,0,2024-07-03,2024-07-03,株式会社Ｎ‐ＭＡＧＩＣ,,株式会社,奈良県,葛城市,勝根１８４番地５,,29,211,6390275,,,,,,,2024-07-03,1,,,,,エヌマジック,0
441,2180303006170,新規,0,2024-07-03,2024-07-03,Ｋ’Ｓコンサルティング合同会社,,合同会社,愛知県,刈谷市,原崎町３丁目４０７番地１,,23,210,4480039,,,,,,,2024-07-03,1,,,,,ケーズコンサルティング,0
442,2190001031461,新規,0,2024-07-03,2024-07-03,ＢＡＨＡＤＵＲ　ＪＡＰＡＮ　ＴＲＡＤＩＮＧ株式会社,,株式会社,三重県,鈴鹿市,上田町８８１番地の４,,24,207,5130018,,,,,,,2024-07-03,1,,,,,バハドゥールジャパントレーディング,0
450,2220001026078,新規,0,2024-07-03,2024-07-03,株式会社エム・サインオフィス,,株式会社,石川県,河北郡内灘町,白帆台２丁目３３８番地,,17,365,9200269,,,,,,,2024-07-03,1,,,,,エムサインオフィス,0
455,2240001063433,新規,0,2024-07-03,2024-07-03,株式会社ＤｏＴＳ,,株式会社,広島県,広島市中区,白島北町１９番２号,,34,101,7300001,,,,,,,2024-07-03,1,,,,,ドッツ,0
456,2240001063466,新規,0,2024-07-03,2024-07-03,株式会社ｓｐｒｉｎｇ,,株式会社,広島県,広島市安芸区,矢野西３丁目８１番６号,,34,107,7360085,,,,,,,2024-07-03,1,,,,,スプリング,0
457,2240001063474,新規,0,2024-07-03,2024-07-03,トータルヘルスケア株式会社,,株式会社,広島県,広島市佐伯区,八幡３丁目２３番２６号,,34,108,7315116,,,,,,,2024-07-03,1,,,,,トータルヘルスケア,0
465,2260003004805,新規,0,2024-07-03,2024-07-03,ＰＡＬアドバイザリー合同会社,,合同会社,岡山県,岡山市北区,蕃山町３番３０号吉備システム蕃山町ビル６階,,33,101,7000818,,,,,,,2024-07-03,1,,,,,パルアドバイザリー,0
468,2290001106336,新規,0,2024-07-03,2024-07-03,大福商事株式会社,,株式会社,福岡県,福岡市西区,生松台２丁目３９番４号,,40,135,8190044,,,,,,,2024-07-03,1,,,,,ダイフクショウジ,0
473,2290005019435,新規,0,2024-07-03,2024-07-03,一般社団法人吉村ＦＴ,,その他の設立登記法人,福岡県,大野城市,旭ケ丘２丁目１０番１０－２号,,40,219,8160953,,,,,,,2024-07-03,1,,,,,ヨシムラエフティー,0
475,2290801030677,新規,0,2024-07-03,2024-07-03,株式会社フォーティーン,,株式会社,福岡県,北九州市小倉南区,守恒２丁目２番１－２０３号,,40,107,8020972,,,,,,,2024-07-03,1,,,,,フォーティーン,0
478,2310001019089,新規,0,2024-07-03,2024-07-03,株式会社ＮＴＨ,,株式会社,長崎県,長崎市,小ケ倉町３丁目７６番地６８,,42,201,8500961,,,,,,,2024-07-03,1,,,,,エヌティーエイチ,0
480,2330003010449,新規,0,2024-07-03,2024-07-03,合同会社ファームここから,,合同会社,熊本県,菊池市,七城町蘇崎１７４２,,43,210,8611344,,,,,,,2024-07-03,1,,,,,ファームココカラ,0
481,2340001026611,新規,0,2024-07-03,2024-07-03,黒江土木株式会社,,株式会社,鹿児島県,姶良市,加治木町木田４３４０番地２,,46,225,8995241,,,,,,,2024-07-03,1,,,,,クロエドボク,0
487,2360001033886,新規,0,2024-07-03,2024-07-03,株式会社ＳＬＯＷ,,株式会社,沖縄県,中頭郡北谷町,字浜川１３７番地１ＮＡＫＡアパート２０１,,47,326,9040112,,,,,,,2024-07-03,1,,,,,スロー,0
488,2360001033894,新規,0,2024-07-03,2024-07-03,Ｊｉｎ株式会社,,株式会社,沖縄県,中頭郡西原町,棚原１丁目１７番地の１カルマーレ５０１号,,47,329,9030126,,,,,,,2024-07-03,1,,,,,ジン,0
496,2360003014075,新規,0,2024-07-03,2024-07-03,合同会社サンチャイルド,,合同会社,沖縄県,島尻郡八重瀬町,字伊覇８９番地３－３０３,,47,362,9010405,,,,,,,2024-07-03,1,,,,,サンチャイルド,0
497,2360003014125,新規,0,2024-07-03,2024-07-03,合同会社Ｒｅｐｏｎ,,合同会社,沖縄県,宜野湾市,新城１丁目９番３６号Ｃ,,47,205,9012201,,,,,,,2024-07-03,1,,,,,ルポン,0
498,2370003006666,新規,0,2024-07-03,2024-07-03,合同会社ＣＲＡＶＯ,,合同会社,宮城県,名取市,愛の杜２丁目６番地の３,,04,207,9811230,,,,,,,2024-07-03,1,,,,,クラーヴォ,0
502,2380001034643,新規,0,2024-07-03,2024-07-03,株式会社スターイノベーション,,株式会社,福島県,いわき市,常磐水野谷町諏訪ケ崎２０番地の１コンフェッティ１０２,,07,204,9728311,,,,,,,2024-07-03,1,,,,,スターイノベーション,0
505,2380003005799,新規,0,2024-07-03,2024-07-03,合同会社Ｓｅａｍａｎ’ｓ　ｌｉｆｅ,,合同会社,福島県,いわき市,平成２丁目６－４,,07,204,9738412,,,,,,,2024-07-03,1,,,,,シーマンズライフ,0
514,2420001018781,新規,0,2024-07-03,2024-07-03,株式会社華田,,株式会社,青森県,むつ市,小川町２丁目１４番１０号,,02,208,0350071,,,,,,,2024-07-03,1,,,,,ハナダ,0
517,2420005007913,新規,0,2024-07-03,2024-07-03,一般社団法人新渡戸記念館,,その他の設立登記法人,青森県,十和田市,東三番町２２番２２号,,02,206,0340031,,,,,,,2024-07-03,1,,,,,ニトベキネンカン,0
519,2430001092157,新規,0,2024-07-03,2024-07-03,株式会社ｃｏｃｏｒｏｔｏ‐ｄｅｓｉｇｎ,,株式会社,北海道,札幌市手稲区,星置一条１丁目１４番２３号,,01,109,0060851,,,,,,,2024-07-03,1,,,,,ココロトデザイン,0
520,2430001092165,新規,0,2024-07-03,2024-07-03,株式会社ＭＡＲＴ．,,株式会社,北海道,虻田郡倶知安町,北四条東１丁目１番地１６,,01,400,0440004,,,,,,,2024-07-03,1,,,,,マート,0
521,2430001092181,新規,0,2024-07-03,2024-07-03,株式会社Ｔ’ｓマシナリー,,株式会社,北海道,石狩市,緑苑台東三条２丁目１６７番地,,01,235,0613223,,,,,,,2024-07-03,1,,,,,ティーズマシナリー,0
523,2430003016510,新規,0,2024-07-03,2024-07-03,合同会社さいとう測量,,合同会社,北海道,岩見沢市,大和三条９丁目１０番地ルシアンＦ,,01,210,0680853,,,,,,,2024-07-03,1,,,,,サイトウソクリョウ,0
524,2430003016519,新規,0,2024-07-03,2024-07-03,ＩＴリモートサポート札幌合同会社,,合同会社,北海道,札幌市南区,中ノ沢３丁目２番１号,,01,106,0050831,,,,,,,2024-07-03,1,,,,,アイティーリモートサポートサッポロ,0
525,2460305002016,新規,0,2024-07-03,2024-07-03,社会福祉法人湧別福祉会,,その他の設立登記法人,北海道,紋別郡湧別町,東４１番地１,,01,559,0996411,,,,,,北海道紋別郡湧別町東４１番地１社会福祉法人湧別福祉会（2460305000969）と北海道紋別郡湧別町上湧別屯田市街地３３５番地２社会福祉法人上湧別福祉会（4460305000967）の合併により設立,2024-07-03,1,,,,,ユウベツフクシカイ,0
526,2470003002671,新規,0,2024-07-03,2024-07-03,合同会社清水,,合同会社,香川県,丸亀市,中府町４丁目９番２１号,,37,202,7630033,,,,,,,2024-07-03,1,,,,,シミズ,0
532,2700150110682,新規,0,2024-07-03,2022-07-04,ユリシーズ,,その他,千葉県,松戸市,三矢小台３丁目１７－２７,,12,207,2710087,,,,,,,2022-07-04,1,,,,,ユリシーズ,0
537,3010001246134,新規,0,2024-07-03,2024-07-03,ＭＹグローバルマッチ株式会社,,株式会社,東京都,中央区,銀座１丁目２２番１１号銀座大竹ビジデンス２Ｆ,,13,102,1040061,,,,,,,2024-07-03,1,,,,,マイグローバルマッチ,0
538,3010001246175,新規,0,2024-07-03,2024-07-03,株式会社リブレスト,,株式会社,東京都,千代田区,飯田橋４丁目９番５号,,13,101,1020072,,,,,,,2024-07-03,1,,,,,リブレスト,0
539,3010001246191,新規,0,2024-07-03,2024-07-03,日本ヘアカラー薬剤株式会社,,株式会社,東京都,中央区,銀座１丁目１２番４号Ｎ＆ＥＢＬＤ．６Ｆ,,13,102,1040061,,,,,,,2024-07-03,1,,,,,ニホンヘアカラーヤクザイ,0
540,3010001246225,新規,0,2024-07-03,2024-07-03,株式会社サーチハブ,,株式会社,東京都,中央区,新川２丁目２１番１０号リードシー八丁堀ビル,,13,102,1040033,,,,,,,2024-07-03,1,,,,,サーチハブ,0
542,3010003044206,新規,0,2024-07-03,2024-07-03,ｉプロパティ１６合同会社,,合同会社,東京都,千代田区,永田町２丁目１４番２号－３階スリーアイズキャピタル株式会社内,,13,101,1000014,,,,,,,2024-07-03,1,,,,,アイプロパティシックスティーン,0
544,3010401183506,新規,0,2024-07-03,2024-07-03,株式会社ＪＭホスエス,,株式会社,東京都,港区,新橋４丁目２９番１号プラウド新虎通り７０５,,13,103,1050004,,,,,,,2024-07-03,1,,,,,ジェイエムホスエス,0
547,3010405023377,新規,0,2024-07-03,2024-07-03,一般社団法人Ｆ７,,その他の設立登記法人,東京都,港区,虎ノ門５丁目１番４号,,13,103,1050001,,,,,,,2024-07-03,1,,,,,エフセブン,0
549,3010503007505,新規,0,2024-07-03,2024-07-03,合同会社ＢｅＡＬＫ,,合同会社,東京都,台東区,駒形１丁目２番１３号駒形１丁目ビル２階,,13,106,1110043,,,,,,,2024-07-03,1,,,,,ビーアルク,0
551,3010601065487,新規,0,2024-07-03,2024-07-03,株式会社日睿インターナショナル,,株式会社,東京都,江東区,有明１丁目１番１７－１００９号,,13,108,1350063,,,,,,,2024-07-03,1,,,,,ニチエイインターナショナル,0
552,3010603010937,新規,0,2024-07-03,2024-07-03,デラシステムズ合同会社,,合同会社,東京都,江東区,猿江２丁目１６－２３－１２３,,13,108,1350003,,,,,,,2024-07-03,1,,,,,デラシステムズ,0
558,3010901055576,新規,0,2024-07-03,2024-07-03,株式会社ｇｅｎｔｅｎｓ,,株式会社,東京都,世田谷区,桜丘２丁目２９番１１号,,13,112,1560054,,,,,,,2024-07-03,1,,,,,ゲンテンズ,0
561,3011001163055,新規,0,2024-07-03,2024-07-03,株式会社ＶｉＴａ,,株式会社,東京都,渋谷区,道玄坂１丁目１０番８号渋谷道玄坂東急ビル２Ｆ―Ｃ,,13,113,1500043,,,,,,,2024-07-03,1,,,,,ヴィータ,0
562,3011001163162,新規,0,2024-07-03,2024-07-03,株式会社トレアリゼ,,株式会社,東京都,渋谷区,円山町５番５号Ｎａｖｉ渋谷Ｖ３階,,13,113,1500044,,,,,,,2024-07-03,1,,,,,,0
564,3011003019511,新規,0,2024-07-03,2024-07-03,ＵＮＤＥＲＳＴＡＮＤ合同会社,,合同会社,東京都,目黒区,中目黒１丁目３番８号渡辺ビル６階,,13,110,1530061,,,,,,,2024-07-03,1,,,,,アンダースタンド,0
566,3011101107903,新規,0,2024-07-03,2024-07-03,株式会社ニューリリアン,,株式会社,東京都,新宿区,西新宿３丁目３番１３号西新宿水間ビル２Ｆ,,13,104,1600023,,,,,,,2024-07-03,1,,,,,ニューリリアン,0
569,3011401026233,新規,0,2024-07-03,2024-07-03,株式会社ＦＬＥＸＡ,,株式会社,東京都,板橋区,泉町６番１０号,,13,119,1740055,,,,,,,2024-07-03,1,,,,,フレクサ,0
571,3011403004435,新規,0,2024-07-03,2024-07-03,Ｆｕｊｉ　ｖａｃａｔｉｏｎ合同会社,,合同会社,東京都,板橋区,南常盤台１丁目１１－６レフア南常盤台１０１号室,,13,119,1740072,,,,,,,2024-07-03,1,,,,,フジバケーション,0
574,3012401042047,新規,0,2024-07-03,2024-07-03,株式会社ＮＯＲＩＫＥＩ,,株式会社,東京都,府中市,片町２丁目２３番地の１,,13,206,1830021,,,,,,,2024-07-03,1,,,,,ノリケイ,0
575,3012403006644,新規,0,2024-07-03,2024-07-03,ファクトリアル合同会社,,合同会社,東京都,調布市,国領町２丁目１６番地４２号,,13,208,1820022,,,,,,,2024-07-03,1,,,,,ファクトリアル,0
582,3020001157966,新規,0,2024-07-03,2024-07-03,株式会社ｎｅｗｇａｍｅ,,株式会社,神奈川県,横浜市西区,北幸２丁目１０番４８号むつみビル３階,,14,103,2200004,,,,,,,2024-07-03,1,,,,,ニューゲーム,0
586,3021001082626,新規,0,2024-07-03,2024-07-03,株式会社Ｍａｇａｚｚｉｎｏ,,株式会社,神奈川県,平塚市,唐ケ原１１７番地の１グリーンハイツ花水１０３号,,14,203,2540826,,,,,,,2024-07-03,1,,,,,マガジーノ,0
587,3021001082634,新規,0,2024-07-03,2024-07-03,ソエジマ工業株式会社,,株式会社,神奈川県,横須賀市,公郷町５丁目３７番地４６,,14,201,2380022,,,,,,,2024-07-03,1,,,,,ソエジマコウギョウ,0
588,3021001082642,新規,0,2024-07-03,2024-07-03,アクタレント株式会社,,株式会社,神奈川県,小田原市,栄町１丁目１４－２８,,14,206,2500011,,,,,,,2024-07-03,1,,,,,アクタレント,0
589,3021001082659,新規,0,2024-07-03,2024-07-03,パラシュート株式会社,,株式会社,神奈川県,大和市,上草柳９丁目１３番８号,,14,213,2420029,,,,,,,2024-07-03,1,,,,,パラシュート,0
598,3030001161199,新規,0,2024-07-03,2024-07-03,株式会社Ｎａｖｉｇａｔｉｏｎ,,株式会社,埼玉県,所沢市,西所沢１丁目４－１７－２０２,,11,208,3591144,,,,,,,2024-07-03,1,,,,,ナビゲーション,0
599,3030001161208,新規,0,2024-07-03,2024-07-03,株式会社コロ・アンブル,,株式会社,埼玉県,ふじみ野市,鶴ケ岡３丁目１６番１５－２０９号,,11,245,3560045,,,,,,,2024-07-03,1,,,,,コロアンブル,0
600,3030001161257,新規,0,2024-07-03,2024-07-03,株式会社卓星,,株式会社,埼玉県,春日部市,小渕１０５５番地８ガーデンコート春日部２０３,,11,214,3440007,,,,,,,2024-07-03,1,,,,,タクショウ,0
614,3040001134278,新規,0,2024-07-03,2024-07-03,株式会社エミテラス,,株式会社,千葉県,船橋市,飯山満町２丁目６１８番地２Ｌ・Ｍ船橋飯山満台二番館２０４号,,12,204,2740822,,,,,,,2024-07-03,1,,,,,エミテラス,0
619,3040003025310,新規,0,2024-07-03,2024-07-03,合同会社花建商事,,合同会社,千葉県,長生郡白子町,古所５４２１番地４,,12,424,2994212,,,,,,,2024-07-03,1,,,,,ハナケンショウジ,0
623,3060003005137,新規,0,2024-07-03,2024-07-03,合同会社アグリファームツカハラ,,合同会社,栃木県,塩谷郡高根沢町,大字伏久５８８番地２,,09,386,3291203,,,,,,,2024-07-03,1,,,,,アグリファームツカハラ,0
635,3100001037598,新規,0,2024-07-03,2024-07-03,株式会社ＯＭＯＭＯ,,株式会社,長野県,松本市,大字岡田松岡２０４番６号,,20,202,3900312,,,,,,,2024-07-03,1,,,,,オモモ,0
637,3100003007632,新規,0,2024-07-03,2024-07-03,Ｌｙｃｉａ合同会社,,合同会社,長野県,北安曇郡白馬村,大字神城２４１９３番地４７,,20,485,3999211,,,,,,,2024-07-03,1,,,,,リュキア,0
639,3110001038538,新規,0,2024-07-03,2024-07-03,株式会社Ｂａｓｅ,,株式会社,新潟県,柏崎市,城東２丁目１番５０号,,15,205,9450825,,,,,,,2024-07-03,1,,,,,ベース,0
652,3120001266311,新規,0,2024-07-03,2024-07-03,株式会社ヨネムラ,,株式会社,大阪府,大阪市西区,北堀江１丁目１６番２６号,,27,106,5500014,,,,,,,2024-07-03,1,,,,,ヨネムラ,0
653,3120001266419,新規,0,2024-07-03,2024-07-03,Ｋ＆Ｎ株式会社,,株式会社,大阪府,大阪市都島区,都島本通３丁目１４番１０号アルパ山口４０２号,,27,102,5340021,,,,,,,2024-07-03,1,,,,,ケイアンドエヌ,0
654,3120001266435,新規,0,2024-07-03,2024-07-03,株式会社グレートサラマンダー,,株式会社,大阪府,大阪市浪速区,元町２丁目１０番２号,,27,111,5560016,,,,,,,2024-07-03,1,,,,,グレートサラマンダー,0
655,3120001266476,新規,0,2024-07-03,2024-07-03,株式会社ＡＫＩＮＡＩ　ＧＲＯＵＰ,,株式会社,大阪府,大阪市城東区,古市３丁目１番－１３０５号,,27,118,5360001,,,,,,,2024-07-03,1,,,,,アキナイグループ,0
656,3120001266501,新規,0,2024-07-03,2024-07-03,ＶＯＹＡＧＥＲ株式会社,,株式会社,大阪府,大阪市淀川区,西宮原１丁目７番４７号ネオハイツ第２新大阪３０１号室,,27,123,5320004,,,,,,,2024-07-03,1,,,,,ヴォヤジェ,0
662,3120005024401,新規,0,2024-07-03,2024-07-03,一般社団法人人材育成支援協会,,その他の設立登記法人,大阪府,大阪市北区,西天満２丁目２番５号,,27,127,5300047,,,,,,,2024-07-03,1,,,,,ジンザイイクセイシエンキョウカイ,0
666,3120101069894,新規,0,2024-07-03,2024-07-03,株式会社タイシン,,株式会社,大阪府,岸和田市,流木町９６３番地１２,,27,202,5960835,,,,,,,2024-07-03,1,,,,,タイシン,0
667,3120101069903,新規,0,2024-07-03,2024-07-03,株式会社うぃず,,株式会社,大阪府,堺市北区,蔵前町１丁１１番１０－１０６号,,27,146,5918004,,,,,,,2024-07-03,1,,,,,ウィズ,0
671,3120901049402,新規,0,2024-07-03,2024-07-03,株式会社ＥＧＯ,,株式会社,大阪府,豊中市,夕日丘３丁目１２番２４号,,27,203,5610864,,,,,,,2024-07-03,1,,,,,イージーオー,0
680,3130001077360,新規,0,2024-07-03,2024-07-03,バベル株式会社,,株式会社,京都府,京都市下京区,七条通油小路東入大黒町２２７番地第２キョートビル４０２,,26,106,6008223,,,,,,,2024-07-03,1,,,,,バベル,0
681,3130003009667,新規,0,2024-07-03,2024-07-03,合同会社山松農園,,合同会社,京都府,福知山市,大江町千原３４２番地,,26,201,6200351,,,,,,,2024-07-03,1,,,,,ヤママツノウエン,0
685,3140001134978,新規,0,2024-07-03,2024-07-03,株式会社ＤＫＧ,,株式会社,兵庫県,神戸市灘区,篠原台１９番４号,,28,102,6570016,,,,,,,2024-07-03,1,,,,,ディーケージー,0
686,3140001135027,新規,0,2024-07-03,2024-07-03,株式会社ＹＡＲＮ,,株式会社,兵庫県,西宮市,段上町８丁目１２番地６号,,28,204,6638006,,,,,,,2024-07-03,1,,,,,ヤーン,0
689,3140003020763,新規,0,2024-07-03,2024-07-03,合同会社ＡＲＣ,,合同会社,兵庫県,姫路市,青山北３丁目４０番９１号,,28,201,6712221,,,,,,,2024-07-03,1,,,,,アーク,0
693,3150001027388,新規,0,2024-07-03,2024-07-03,株式会社ＰｕｅＯ,,株式会社,奈良県,宇陀市,室生下田口２４９２番地の１,,29,212,6330422,,,,,,,2024-07-03,1,,,,,プエオ,0
694,3150001027396,新規,0,2024-07-03,2024-07-03,株式会社フローレンス・アニーナーシングホーム,,株式会社,奈良県,北葛城郡広陵町,みささぎ台３０番１５号,,29,426,6350835,,,,,,,2024-07-03,1,,,,,フローレンスアニーナーシングホーム,0
695,3160001008552,新規,0,2024-07-03,2024-07-03,株式会社ＡＴテクノ,,株式会社,滋賀県,犬上郡豊郷町,大字八町８０３番地,,25,441,5291162,,,,,,,2024-07-03,1,,,,,,0
712,3180005020683,新規,0,2024-07-03,2024-07-03,医療法人香幸会,,その他の設立登記法人,愛知県,名古屋市緑区,元徳重２丁目１０５番地,,23,114,4580852,,,,,,,2024-07-03,1,,,,,カコウカイ,0
713,3180301038801,新規,0,2024-07-03,2024-07-03,蒼株式会社,,株式会社,愛知県,豊川市,平尾町下藤井３８番地,,23,207,4420863,,,,,,,2024-07-03,1,,,,,アオ,0
715,3190001031460,新規,0,2024-07-03,2024-07-03,株式会社ニッセ,,株式会社,三重県,四日市市,石塚町９番９‐７号ｅａｓｅ１０１,,24,202,5100828,,,,,,,2024-07-03,1,,,,,ニッセ,0
718,3200001042654,新規,0,2024-07-03,2024-07-03,株式会社Ｆａｃｉｌｉｔｙ　Ｐｒｏ,,株式会社,岐阜県,羽島郡岐南町,野中７丁目９５番地,,21,302,5016004,,,,,,,2024-07-03,1,,,,,ファシリティプロ,0
726,3220001026077,新規,0,2024-07-03,2024-07-03,遊Ｈｕｂ株式会社,,株式会社,石川県,金沢市,浅野本町ニ１５０番地,,17,201,9200841,,,,,,,2024-07-03,1,,,,,ユウハブ,0
727,3230001020418,新規,0,2024-07-03,2024-07-03,株式会社美輝,,株式会社,富山県,富山市,丸の内２丁目１番１７号ＶＡＩＬ２０６号室,,16,201,9300085,,,,,,,2024-07-03,1,,,,,ミキ,0
731,3240001063465,新規,0,2024-07-03,2024-07-03,株式会社Ｅｌｌａ,,株式会社,広島県,広島市安佐南区,祇園６丁目８番１０－４０６号,,34,105,7310138,,,,,,,2024-07-03,1,,,,,エラ,0
732,3240001063481,新規,0,2024-07-03,2024-07-03,アイプラス株式会社,,株式会社,広島県,広島市安佐南区,長束４丁目２番５－２号,,34,105,7310135,,,,,,,2024-07-03,1,,,,,アイプラス,0
734,3260001039216,新規,0,2024-07-03,2024-07-03,株式会社Ｋ‐テック,,株式会社,岡山県,倉敷市,中島１２３９番地４,,33,202,7100803,,,,,,,2024-07-03,1,,,,,ケイテック,0
740,3290001106302,新規,0,2024-07-03,2024-07-03,株式会社エヌテクノ,,株式会社,福岡県,福岡市博多区,吉塚本町１３番２７－１４０５号ＲＪＲプレシア吉塚駅前ＩＩ,00135393,40,132,8120046,,,,,,,2024-07-03,1,,,,,エヌテクノ,0
741,3290001106335,新規,0,2024-07-03,2024-07-03,株式会社ネクストパートナー不動産,,株式会社,福岡県,福岡市中央区,渡辺通５丁目２３番８号,,40,133,8100004,,,,,,,2024-07-03,1,,,,,ネクストパートナーフドウサン,0
742,3290003015518,新規,0,2024-07-03,2024-07-03,合同会社大丸,,合同会社,福岡県,福岡市東区,箱崎５丁目１０番１４－４０７号サンシティ箱崎九大前,,40,131,8120053,,,,,,,2024-07-03,1,,,,,オオマル,0
743,3290005019450,新規,0,2024-07-03,2024-07-03,一般社団法人Ｂｌｕｅ,,その他の設立登記法人,福岡県,大川市,大字下林３１０番地３,,40,212,8310002,,,,,,,2024-07-03,1,,,,,ブルー,0
744,3290803004769,新規,0,2024-07-03,2024-07-03,マネーヘルス合同会社,,合同会社,福岡県,北九州市八幡東区,春の町４丁目３番３４号,,40,108,8050050,,,,,,,2024-07-03,1,,,,,マネーヘルス,0
750,3310001019096,新規,0,2024-07-03,2024-07-03,株式会社ワンスアセット,,株式会社,長崎県,諫早市,高来町西尾４３番地,,42,204,8590115,,,,,,,2024-07-03,1,,,,,ワンスアセット,0
751,3310003004815,新規,0,2024-07-03,2024-07-03,合同会社トリップ,,合同会社,長崎県,東彼杵郡波佐見町,折敷瀬郷１９４６番地１３,,42,323,8593701,,,,,,,2024-07-03,1,,,,,トリップ,0
754,3320001020565,新規,0,2024-07-03,2024-07-03,株式会社みんご,,株式会社,大分県,大分市,大字猪野６１３番地の１シェソワゆき２０３,,44,201,8700134,,,,,,,2024-07-03,1,,,,,ミンゴ,0
756,3330001032205,新規,0,2024-07-03,2024-07-03,株式会社ラックプランＨＤ,,株式会社,熊本県,合志市,幾久富１７５８番地７６６,,43,216,8611112,,,,,,,2024-07-03,1,,,,,ラックプランホールディングス,0
766,3370001051473,新規,0,2024-07-03,2024-07-03,株式会社ネルセカンド,,株式会社,宮城県,仙台市宮城野区,榴岡２丁目２番地８号コーポ童子４０２号室,,04,102,9830852,,,,,,,2024-07-03,1,,,,,ネルセカンド,0
772,3380001034642,新規,0,2024-07-03,2024-07-03,株式会社Ａｃｅ　Ｖｅｈｉｃｌｅ,,株式会社,福島県,福島市,飯坂町湯野字平林前２番地の７,,07,201,9600211,,,,,,,2024-07-03,1,,,,,エースヴィークル,0
779,3420001018789,新規,0,2024-07-03,2024-07-03,株式会社アースロード,,株式会社,青森県,十和田市,大字藤島字角倉内沢２２－２,,02,206,0340052,,,,,,,2024-07-03,1,,,,,アースロード,0
782,3430001092148,新規,0,2024-07-03,2024-07-03,株式会社ｆｕｎｃｒａｆｔ,,株式会社,北海道,札幌市東区,丘珠町６７３－１,,01,103,0070880,,,,,,,2024-07-03,1,,,,,ファンクラフト,0
783,3430001092164,新規,0,2024-07-03,2024-07-03,株式会社ＷＥＬＬｙｏｕ,,株式会社,北海道,札幌市中央区,南六条西２５丁目２番１１－５０３号,,01,101,0640806,,,,,,,2024-07-03,1,,,,,ウェルユー,0
784,3430001092197,新規,0,2024-07-03,2024-07-03,エブリィ株式会社,,株式会社,北海道,札幌市北区,新琴似八条１丁目１番２７－２０６号,,01,102,0010908,,,,,,,2024-07-03,1,,,,,エブリィ,0
785,3430001092214,新規,0,2024-07-03,2024-07-03,株式会社カルテット,,株式会社,北海道,札幌市中央区,南五条西１３丁目２番１８－１０５号,,01,101,0640805,,,,,,,2024-07-03,1,,,,,カルテット,0
788,3440001009464,新規,0,2024-07-03,2024-07-03,株式会社ＬＩＮＫ　ｐｌｕｓ,,株式会社,北海道,函館市,北美原２丁目２０番１７号,,01,202,0410807,,,,,,,2024-07-03,1,,,,,リンクプラス,0
791,3470003002670,新規,0,2024-07-03,2024-07-03,合同会社森,,合同会社,香川県,坂出市,文京町１丁目８番２８号,,37,203,7620031,,,,,,,2024-07-03,1,,,,,モリ,0
793,3480001012530,新規,0,2024-07-03,2024-07-03,株式会社ＴＰＣ配送センター,,株式会社,徳島県,板野郡北島町,鯛浜字原３０番地１,,36,402,7710204,,,,,,,2024-07-03,1,,,,,テーピーシーハイソウセンター,0
794,3480005007031,新規,0,2024-07-03,2024-07-03,特定非営利活動法人サラスヴァティー,,その他の設立登記法人,徳島県,鳴門市,北灘町宿毛谷字クロハエ２番地１,,36,202,7710374,,,,,,,2024-07-03,1,,,,,サラスヴァティー,0
803,4010003044097,新規,0,2024-07-03,2024-07-03,ワイアンドワイ合同会社,,合同会社,東京都,文京区,小石川５丁目２８－９,,13,105,1120002,,,,,,,2024-07-03,1,,,,,ワイアンドワイ,0
804,4010003044238,新規,0,2024-07-03,2024-07-03,合同会社ＰＦリゲル,,合同会社,東京都,千代田区,平河町１丁目６番１５号シルスフィア会計事務所内,,13,101,1020093,,,,,,,2024-07-03,1,,,,,ピーエフリゲル,0
810,4010401183554,新規,0,2024-07-03,2024-07-03,ワークキャリア株式会社,,株式会社,東京都,港区,南麻布３丁目２０番１号,,13,103,1060047,,,,,,,2024-07-03,1,,,,,ワークキャリア,0
814,4010403032924,新規,0,2024-07-03,2024-07-03,ＨＡＳＵ合同会社,,合同会社,東京都,港区,芝３丁目３３－１内,,13,103,1050014,,,,,,,2024-07-03,1,,,,,ハスウ,0
815,4010403032932,新規,0,2024-07-03,2024-07-03,合同会社ＫＯＡ１,,合同会社,東京都,港区,赤坂６丁目９番５号,,13,103,1070052,,,,,,,2024-07-03,1,,,,,コアワン,0
817,4010405023376,新規,0,2024-07-03,2024-07-03,大山一般社団法人,,その他の設立登記法人,東京都,港区,北青山１丁目２番３号,,13,103,1070061,,,,,,,2024-07-03,1,,,,,オオヤマ,0
819,4010501052551,新規,0,2024-07-03,2024-07-03,鎧粤国際株式会社,,株式会社,東京都,台東区,上野２丁目１番１０号,,13,106,1100005,,,,,,,2024-07-03,1,,,,,ガイエツコクサイ,0
820,4010601065486,新規,0,2024-07-03,2024-07-03,株式会社ＴＳＵＧＩ,,株式会社,東京都,江東区,東雲１丁目９番３１－２４０８号,,13,108,1350062,,,,,,,2024-07-03,1,,,,,ツギ,0
833,4010903009199,新規,0,2024-07-03,2024-07-03,合同会社ラクーンドッグ,,合同会社,東京都,世田谷区,三軒茶屋１丁目７番７号,,13,112,1540024,,,,,,,2024-07-03,1,,,,,ラクーンドッグ,0
836,4011001162799,新規,0,2024-07-03,2024-07-03,株式会社アークス,,株式会社,東京都,渋谷区,恵比寿３丁目１番８号,,13,113,1500013,,,,,,,2024-07-03,1,,,,,アークス,0
837,4011001163095,新規,0,2024-07-03,2024-07-03,株式会社ＩＮＳＰＩＲＥ　ＶＩＰ　ＣＡＳＩＮＯ　ＣＬＵＢ,,株式会社,東京都,目黒区,中目黒１丁目１番１７号,,13,110,1530061,,,,,,,2024-07-03,1,,,,,インスパイアブイアイピーカジノクラブ,0
838,4011001163120,新規,0,2024-07-03,2024-07-03,マッスルブループリンツ株式会社,,株式会社,東京都,渋谷区,恵比寿西２丁目８番４号ＥＸ恵比寿西ビル５階,,13,113,1500021,,,,,,,2024-07-03,1,,,,,マッスルブループリンツ,0
839,4011001163153,新規,0,2024-07-03,2024-07-03,ｔＲｉ‐ｓｅ株式会社,,株式会社,東京都,渋谷区,道玄坂１丁目１０番８号渋谷道玄坂東急ビル２Ｆ－Ｃ,,13,113,1500043,,,,,,,2024-07-03,1,,,,,トライズ,0
840,4011001163178,新規,0,2024-07-03,2024-07-03,株式会社上村,,株式会社,東京都,渋谷区,桜丘町２９番２７号,,13,113,1500031,,,,,,,2024-07-03,1,,,,,カミムラ,0
843,4011003019477,新規,0,2024-07-03,2024-07-03,合同会社Ｍ　ｓｔｙｌｅ,,合同会社,東京都,渋谷区,松濤２丁目２０‐１ライオンズアイル渋谷松濤５０２,,13,113,1500046,,,,,,,2024-07-03,1,,,,,エムスタイル,0
844,4011003019519,新規,0,2024-07-03,2024-07-03,合同会社パーヴェニュー,,合同会社,東京都,渋谷区,神宮前６丁目２３番４号桑野ビル２階,,13,113,1500001,,,,,,,2024-07-03,1,,,,,,0
851,4011201025599,新規,0,2024-07-03,2024-07-03,株式会社ＭＯＴＯＬＯＧＳ,,株式会社,東京都,中野区,新井４丁目１８－１１－１０１,,13,114,1650026,,,,,,,2024-07-03,1,,,,,モトログス,0
854,4011303005227,新規,0,2024-07-03,2024-07-03,合同会社６００１,,合同会社,東京都,杉並区,高井戸西２丁目１０－９,,13,115,1680071,,,,,,,2024-07-03,1,,,,,ロクセンイチ,0
855,4011401026216,新規,0,2024-07-03,2024-07-03,安可亜財務管理コンサルティング株式会社,,株式会社,東京都,板橋区,西台２丁目２２－１２コルテ西台４０２,,13,119,1750045,,,,,,,2024-07-03,1,,,,,アンカアザイムカンリコンサルティング,0
856,4011401026240,新規,0,2024-07-03,2024-07-03,株式会社Ｆｉｓｈ　Ｅｘｐｏｒｔ,,株式会社,東京都,板橋区,坂下３丁目２０番１号４１９,,13,119,1740043,,,,,,,2024-07-03,1,,,,,フィッシュエクスポート,0
863,4011603004374,新規,0,2024-07-03,2024-07-03,合同会社ハイドワイオン,,合同会社,東京都,練馬区,光が丘５丁目２番４号四季の香弐番街１２０６,,13,120,1790072,,,,,,,2024-07-03,1,,,,,ハイドワイオン,0
864,4011605002590,新規,0,2024-07-03,2024-07-03,労働政策研究・研修機構労働組合,,その他の設立登記法人,東京都,練馬区,上石神井４丁目８番２３号,,13,120,1770044,,,,,,,2024-07-03,1,,,,,,0
865,4011701027426,新規,0,2024-07-03,2024-07-03,株式会社Ｂｅｇｉｎ,,株式会社,東京都,江戸川区,南葛西４丁目１９番１１号フォンテオット３０２,,13,123,1340085,,,,,,,2024-07-03,1,,,,,ビギン,0
867,4011801044478,新規,0,2024-07-03,2024-07-03,株式会社Ｓ・Ｉ,,株式会社,東京都,足立区,六町４丁目８番８号,,13,121,1210073,,,,,,,2024-07-03,1,,,,,エスアイ,0
871,4012403006643,新規,0,2024-07-03,2024-07-03,合同会社ひびの,,合同会社,東京都,武蔵野市,吉祥寺本町２丁目１８番２号,,13,203,1800004,,,,,,,2024-07-03,1,,,,,ヒビノ,0
878,4020001157890,新規,0,2024-07-03,2024-07-03,株式会社サインポスト,,株式会社,神奈川県,横浜市戸塚区,吉田町１３７１－５－３０２,,14,110,2440817,,,,,,,2024-07-03,1,,,,,サインポスト,0
879,4020001157957,新規,0,2024-07-03,2024-07-03,株式会社キョーリツガス,,株式会社,神奈川県,横浜市中区,長者町５丁目４８番地１・ＯＫ長者町ビル５０２,,14,104,2310033,,,,,,,2024-07-03,1,,,,,キョーリツガス,0
880,4020001157965,新規,0,2024-07-03,2024-07-03,株式会社幼児教育研究会,,株式会社,神奈川県,横浜市神奈川区,金港町五丁目１４番地クアドリフォリオ８階,,14,102,2210056,,,,,,,2024-07-03,1,,,,,ヨウジキョウイクケンキュウカイ,0
881,4020003026425,新規,0,2024-07-03,2024-07-03,合同会社淺野屋,,合同会社,神奈川県,横浜市泉区,下和泉４丁目３番３号,,14,116,2450021,,,,,,,2024-07-03,1,,,,,アサノヤ,0
882,4020003026441,新規,0,2024-07-03,2024-07-03,合同会社あいびぃ,,合同会社,神奈川県,横浜市磯子区,洋光台５丁目３番１３号,,14,107,2350045,,,,,,,2024-07-03,1,,,,,アイビィ,0
886,4021001082633,新規,0,2024-07-03,2024-07-03,株式会社Ｈａｐｐｙ　Ｂｅａｒ,,株式会社,神奈川県,伊勢原市,上谷７４０番地,,14,214,2591127,,,,,,,2024-07-03,1,,,,,ハッピーベアー,0
887,4021001082641,新規,0,2024-07-03,2024-07-03,株式会社中田商事,,株式会社,神奈川県,藤沢市,大庭５３３８番地の６,,14,205,2510861,,,,,,,2024-07-03,1,,,,,ナカダショウジ,0
899,4030001161181,新規,0,2024-07-03,2024-07-03,株式会社清野電気,,株式会社,埼玉県,川越市,岸町１丁目１９番地１（ハイマート川越３０５号室）,,11,201,3501131,,,,,,,2024-07-03,1,,,,,セイノデンキ,0
904,4030003024626,新規,0,2024-07-03,2024-07-03,合同会社カリタス,,合同会社,埼玉県,朝霞市,幸町２丁目７番３３号サンシュウ朝霞コーポ１０７,,11,227,3510015,,,,,,,2024-07-03,1,,,,,カリタス,0
905,4030003024650,新規,0,2024-07-03,2024-07-03,合同会社ｎｙｕｎ,,合同会社,埼玉県,上尾市,大字地頭方４７１番地５号,,11,219,3620051,,,,,,,2024-07-03,1,,,,,ニュン,0
908,4030005021753,新規,0,2024-07-03,2024-07-03,土地家屋調査士法人プロコンサル,,その他の設立登記法人,埼玉県,さいたま市浦和区,大東２丁目１２番２６号,,11,107,3300043,,,,,,,2024-07-03,1,,,,,プロコンサル,0
913,4040003025342,新規,0,2024-07-03,2024-07-03,合同会社ｍｉｎｏｒｉ,,合同会社,千葉県,香取郡東庄町,大久保４６９,,12,349,2890633,,,,,,,2024-07-03,1,,,,,ミノリ,0
917,4070001041925,新規,0,2024-07-03,2024-07-03,株式会社ＲＩＳＥ,,株式会社,群馬県,館林市,高根町３１２番地１,,10,207,3740074,,,,,,,2024-07-03,1,,,,,ライズ,0
924,4080401027291,新規,0,2024-07-03,2024-07-03,株式会社明超創生,,株式会社,静岡県,浜松市中央区,葵西４丁目９番１６号,,22,138,4338111,,,,,,,2024-07-03,1,,,,,メイチョウソウセイ,0
925,4080403005048,新規,0,2024-07-03,2024-07-03,はなとりゅう合同会社,,合同会社,静岡県,浜松市浜名区,三ヶ日町只木３２２番地の３４８,,22,139,4311412,,,,,,,2024-07-03,1,,,,,ハナトリュウ,0
932,4100003007631,新規,0,2024-07-03,2024-07-03,合同会社ＡＯＳｔｙｌｅ,,合同会社,長野県,上田市,中央３丁目１６－１２,,20,203,3860012,,,,,,,2024-07-03,1,,,,,アオスタイル,0
934,4110001038537,新規,0,2024-07-03,2024-07-03,株式会社Ｋ‐ｗｏｒｋｓ,,株式会社,新潟県,長岡市,小国町小栗山６６４番地,,15,202,9495341,,,,,,,2024-07-03,1,,,,,ケーワークス,0
952,4120001266401,新規,0,2024-07-03,2024-07-03,株式会社大誠,,株式会社,大阪府,大阪市都島区,都島本通４丁目２番２２号クリスタルグランツ都島本通１１０１,,27,102,5340021,,,,,,,2024-07-03,1,,,,,タイセイ,0
953,4120001266434,新規,0,2024-07-03,2024-07-03,株式会社ＣＯＣＯ　ｅｔ　ａｌ,,株式会社,大阪府,大阪市北区,梅田１丁目２番２号大阪駅前第２ビル１２－１２,,27,127,5300001,,,,,,,2024-07-03,1,,,,,ココエトール,0
954,4120001266442,新規,0,2024-07-03,2024-07-03,株式会社ベアート,,株式会社,大阪府,大阪市中央区,鎗屋町１丁目４番２号名阪第３ビル１階,,27,128,5400027,,,,,,,2024-07-03,1,,,,,ベアート,0
955,4120001266450,新規,0,2024-07-03,2024-07-03,株式会社Ｍ．Ｃ．ＭＳＥＲＶＩＣＥ,,株式会社,大阪府,枚方市,上島東町３番７号,,27,210,5731126,,,,,,,2024-07-03,1,,,,,エムシーエムサービス,0
956,4120001266491,新規,0,2024-07-03,2024-07-03,株式会社ティーケー,,株式会社,大阪府,大阪市生野区,中川西１丁目１１番１６号,,27,116,5440032,,,,,,,2024-07-03,1,,,,,ティーケー,0
962,4120003026877,新規,0,2024-07-03,2024-07-03,Ｃｏｃｏ　Ｗｏｒｋｓ合同会社,,合同会社,大阪府,大阪市北区,梅田１丁目２番２号大阪駅前第２ビル１２－１２,,27,127,5300001,,,,,,,2024-07-03,1,,,,,ココワークス,0
963,4120005024400,新規,0,2024-07-03,2024-07-03,一般社団法人宝寿会,,その他の設立登記法人,大阪府,大阪市北区,梅田３丁目２番２号ＪＰタワー大阪６階,,27,127,5300001,,,,,,,2024-07-03,1,,,,,ホウジュカイ,0
965,4120101069885,新規,0,2024-07-03,2024-07-03,株式会社脇川住設,,株式会社,大阪府,貝塚市,麻生中１５９番地７,,27,208,5970081,,,,,,,2024-07-03,1,,,,,ワキカワジュウセツ,0
966,4120103005921,新規,0,2024-07-03,2024-07-03,モトショップＬｉｖｅｌｙ合同会社,,合同会社,大阪府,富田林市,甲田１丁目９番１３号,,27,214,5840036,,,,,,,2024-07-03,1,,,,,モトショップライブリー,0
973,4130001077376,新規,0,2024-07-03,2024-07-03,株式会社ＢＯＮ　ＭＡＩＳＯＮ,,株式会社,京都府,京都市南区,唐橋経田町２５グローアップ１階１Ａ,,26,107,6018454,,,,,,,2024-07-03,1,,,,,ボンメゾン,0
976,4140001134977,新規,0,2024-07-03,2024-07-03,株式会社Ｍ．Ｓ．Ｐ,,株式会社,兵庫県,神戸市西区,神出町小束野３番地の７６,,28,111,6512304,,,,,,,2024-07-03,1,,,,,エムエスピー,0
977,4140001135001,新規,0,2024-07-03,2024-07-03,株式会社マイポップ,,株式会社,兵庫県,神戸市中央区,磯辺通１丁目１番１８号カサベラ国際プラザビル７０７号室,,28,110,6510084,,,,,,,2024-07-03,1,,,,,マイポップ,0
978,4140001135034,新規,0,2024-07-03,2024-07-03,株式会社アーバンルーフ,,株式会社,兵庫県,尼崎市,若王寺２丁目９番１０号,,28,202,6610974,,,,,,,2024-07-03,1,,,,,アーバンルーフ,0
984,4150001027395,新規,0,2024-07-03,2024-07-03,株式会社ＶＧＡＢ,,株式会社,奈良県,桜井市,朝倉台西５丁目１０９３番地の３０５,,29,206,6330004,,,,,,,2024-07-03,1,,,,,ブイジーエービー,0
985,4150001027404,新規,0,2024-07-03,2024-07-03,株式会社レビュート,,株式会社,奈良県,葛城市,北花内６４２番地１,,29,211,6392113,,,,,,,2024-07-03,1,,,,,レビュート,0
986,4150003003304,新規,0,2024-07-03,2024-07-03,合同会社ジャッカンミギカタアガリ,,合同会社,奈良県,桜井市,大字辻８６番地１号棟２０７号,00135452,29,206,6330083,,,,,,,2024-07-03,1,,,,,ジャッカンミギカタアガリ,0
987,4160001026025,新規,0,2024-07-03,2024-07-03,株式会社エイトシャイン,,株式会社,滋賀県,東近江市,五個荘山本町３７９番地２,,25,213,5291431,,,,,,,2024-07-03,1,,,,,エイトシャイン,0
988,4160001026058,新規,0,2024-07-03,2024-07-03,ＳＡＮＯ株式会社,,株式会社,滋賀県,大津市,粟津町９番５－６０５号,,25,201,5200832,,,,,,,2024-07-03,1,,,,,サノ,0
997,4180005020682,新規,0,2024-07-03,2024-07-03,医療法人仁心会,,その他の設立登記法人,愛知県,名古屋市千種区,今池５丁目３番地２リアライズ今池駅前ビル９階,,23,101,4640850,,,,,,,2024-07-03,1,,,,,ジンシンカイ,0
998,4180301038800,新規,0,2024-07-03,2024-07-03,株式会社Ｗｅｄｎｅｓｄａｙ,,株式会社,愛知県,豊橋市,南大清水町字元町１６３番地の２,,23,201,4418132,,,,,,,2024-07-03,1,,,,,ウェンズデイ,0
999,4180301038809,新規,0,2024-07-03,2024-07-03,エムツーサステナブル株式会社,,株式会社,愛知県,安城市,横山町毛賀知７番地３,,23,212,4460045,,,,,,,2024-07-03,1,,,,,エムツーサステナブル,0
1002,4190001031451,新規,0,2024-07-03,2024-07-03,株式会社宮川のほとり動物病院,,株式会社,三重県,伊勢市,小俣町元町１９７番地,,24,203,5190503,,,,,,,2024-07-03,1,,,,,ミヤガワノホトリドウブツビョウイン,0
1003,4190001031468,新規,0,2024-07-03,2024-07-03,株式会社マエハラ設備,,株式会社,三重県,四日市市,笹川４丁目９３番地１,,24,202,5100944,,,,,,,2024-07-03,1,,,,,マエハラセツビ,0
1011,4210001019816,新規,0,2024-07-03,2024-07-03,株式会社ツ幹,,株式会社,福井県,福井市,八重巻東町１４の９番地,,18,201,9100157,,,,,,,2024-07-03,1,,,,,ツミキ,0
1012,4210005010151,新規,0,2024-07-03,2024-07-03,一般社団法人北陸空き家解決支援協会,,その他の設立登記法人,福井県,福井市,二の宮２丁目２番１０号,,18,201,9100015,,,,,,,2024-07-03,1,,,,,ホクリクアキヤカイケツシエンキョウカイ,0
1014,4220001026068,新規,0,2024-07-03,2024-07-03,株式会社Ａｍｐｌｉｆｙ,,株式会社,石川県,金沢市,入江１丁目５３０番地,,17,201,9218011,,,,,,,2024-07-03,1,,,,,アンプリファイ,0
1030,4240001063456,新規,0,2024-07-03,2024-07-03,株式会社コンサルジョイ,,株式会社,広島県,呉市,吉浦東町４番９－２０２号,,34,202,7370842,,,,,,,2024-07-03,1,,,,,コンサルジョイ,0
1031,4240001063464,新規,0,2024-07-03,2024-07-03,株式会社ｈｉＹｏｒｉ,,株式会社,広島県,広島市中区,江波南２丁目１２番１０－２１７号,,34,101,7300835,,,,,,,2024-07-03,1,,,,,ヒヨリ,0
1042,4290001106276,新規,0,2024-07-03,2024-07-03,あさがお株式会社,,株式会社,福岡県,福岡市南区,柳河内１丁目９番２９号鈴木ビル４０３号,,40,134,8150063,,,,,,,2024-07-03,1,,,,,アサガオ,0
1043,4290001106334,新規,0,2024-07-03,2024-07-03,株式会社エターナルパイン,,株式会社,福岡県,大野城市,乙金東２丁目８－１９,,40,219,8160901,,,,,,,2024-07-03,1,,,,,エターナルパイン,0
1044,4290003015517,新規,0,2024-07-03,2024-07-03,合同会社ＬＴＳ,,合同会社,福岡県,福津市,東福間８丁目３番２０－４０３号,,40,224,8113225,,,,,,,2024-07-03,1,,,,,エルティーエス,0
1045,4290005019433,新規,0,2024-07-03,2024-07-03,一般社団法人ＳＰＯＲＴＳ　ＬＩＮＥ,,その他の設立登記法人,福岡県,福岡市西区,拾六町５丁目９番１８号,,40,135,8190041,,,,,,,2024-07-03,1,,,,,スポーツライン,0
1048,4290801030675,新規,0,2024-07-03,2024-07-03,株式会社ＤＫデザインパース,,株式会社,福岡県,北九州市小倉南区,東貫１丁目４番２３号,,40,107,8000224,,,,,,,2024-07-03,1,,,,,ディーケイデザインパース,0
1053,4310001019087,新規,0,2024-07-03,2024-07-03,株式会社良香,,株式会社,長崎県,西彼杵郡長与町,嬉里郷１１１９番地２,,42,307,8512128,,,,,,,2024-07-03,1,,,,,リョウカ,0
1054,4310001019095,新規,0,2024-07-03,2024-07-03,株式会社Ｓｏｒａ,,株式会社,長崎県,大村市,森園町１４４６番地４オフィスＡＩ２０３号,,42,205,8560815,,,,,,,2024-07-03,1,,,,,ソラ,0
1056,4320001020564,新規,0,2024-07-03,2024-07-03,株式会社オーバーウッド,,株式会社,大分県,佐伯市,弥生大字床木２６７６番地１,,44,205,8760103,,,,,,,2024-07-03,1,,,,,オーバーウッド,0
1057,4330001032229,新規,0,2024-07-03,2024-07-03,株式会社イーコネクト,,株式会社,熊本県,菊池郡菊陽町,武蔵ヶ丘２丁目１１番１２号,,43,404,8691111,,,,,,,2024-07-03,1,,,,,イーコネクト,0
1061,4360003014065,新規,0,2024-07-03,2024-07-03,合同会社ＶＥＧＡ,,合同会社,沖縄県,那覇市,字安謝６１７番地１９２・４０７号,,47,201,9000003,,,,,,,2024-07-03,1,,,,,ベガ,0
1062,4360003014107,新規,0,2024-07-03,2024-07-03,合同会社Ａｕｔｏ　Ｋｅｍｐｓ,,合同会社,沖縄県,沖縄市,八重島２丁目７番５２号,,47,211,9040006,,,,,,,2024-07-03,1,,,,,オートケンプス,0
1063,4360003014115,新規,0,2024-07-03,2024-07-03,合同会社いさみ丸,,合同会社,沖縄県,島尻郡座間味村,字座間味５７番地,,47,354,9013402,,,,,,,2024-07-03,1,,,,,イサミマル,0
1079,4430001092147,新規,0,2024-07-03,2024-07-03,株式会社Ｇ‐Ａｌｉｃｅ,,株式会社,北海道,北広島市,共栄町１丁目１１番地４,,01,234,0611113,,,,,,,2024-07-03,1,,,,,ジーアリス,0
1080,4430001092163,新規,0,2024-07-03,2024-07-03,ｉｎｓｉｇｈｔｓａｌｅｓ株式会社,,株式会社,北海道,札幌市清田区,清田十条３丁目１１番４号,,01,110,0040840,,,,,,,2024-07-03,1,,,,,インサイトセールス,0
1081,4430001092188,新規,0,2024-07-03,2024-07-03,株式会社クリート,,株式会社,北海道,札幌市北区,新琴似十条４丁目１０番１号,,01,102,0010910,,,,,,,2024-07-03,1,,,,,クリート,0
1082,4430001092196,新規,0,2024-07-03,2024-07-03,株式会社ｄｍｂ,,株式会社,北海道,札幌市厚別区,厚別西三条３丁目１番５号,,01,108,0040063,,,,,,,2024-07-03,1,,,,,ディーエムビー,0
1083,4430001092205,新規,0,2024-07-03,2024-07-03,株式会社北海トレーディング,,株式会社,北海道,札幌市中央区,南十七条西１５丁目２番３５号アルペジオ５０１号,,01,101,0640917,,,,,,,2024-07-03,1,,,,,ホッカイトレーディング,0
1086,4480003002157,新規,0,2024-07-03,2024-07-03,さわやかオフィス合同会社,,合同会社,徳島県,徳島市,佐古三番町７番２０号,,36,201,7700023,,,,,,,2024-07-03,1,,,,,サワヤカオフィス,0
1108,5010001246198,新規,0,2024-07-03,2024-07-03,Ｃａｒｅｅｒ　Ｂｌｏｏｍ株式会社,,株式会社,東京都,中央区,月島２丁目１５番１３号,,13,102,1040052,,,,,,,2024-07-03,1,,,,,キャリアブルーム,0
1113,5010003044179,新規,0,2024-07-03,2024-07-03,新医療領域実装研究会合同会社,,合同会社,東京都,千代田区,麹町４丁目５－２０－８ＦＫＳビル,,13,101,1020083,,,,,,,2024-07-03,1,,,,,シンイリョウリョウイキジッソウケンキュウカイ,0
1114,5010003044253,新規,0,2024-07-03,2024-07-03,合同会社ココロム,,合同会社,東京都,千代田区,神田須田町１丁目１５－１－３０３,,13,101,1010041,,,,,,,2024-07-03,1,,,,,ココロム,0
1117,5010101016220,新規,0,2024-07-03,2024-07-03,株式会社友志工業,,株式会社,東京都,八王子市,千人町３丁目１９番２６号ＴＮハウス１０２号,,13,201,1930835,,,,,,,2024-07-03,1,,,,,ユウシコウギョウ,0
1123,5010401183421,新規,0,2024-07-03,2024-07-03,株式会社バイウェル,,株式会社,東京都,港区,南青山３丁目１番３６号青山丸竹ビル６Ｆ,,13,103,1070062,,,,,,,2024-07-03,1,,,,,バイウェル,0
1124,5010401183628,新規,0,2024-07-03,2024-07-03,株式会社ＴＯＥＩ,,株式会社,東京都,港区,芝公園１丁目８－２０Ｈ１Ｏ芝公園１００７,,13,103,1050011,,,,,,,2024-07-03,1,,,,,トーエイ,0
1128,5010503007503,新規,0,2024-07-03,2024-07-03,イーグルライズエナジー合同会社,,合同会社,東京都,台東区,上野３丁目２番１号,,13,106,1100005,,,,,,,2024-07-03,1,,,,,イーグルライズエナジー,0
1132,5010601065452,新規,0,2024-07-03,2024-07-03,株式会社和いわい,,株式会社,東京都,江東区,亀戸２丁目８番１２号コーヅ天神３０５,,13,108,1360071,,,,,,,2024-07-03,1,,,,,ワイワイ,0
1133,5010603010935,新規,0,2024-07-03,2024-07-03,合同会社ゴールデンスリー,,合同会社,東京都,江東区,亀戸７丁目７番３－３０２号,,13,108,1360071,,,,,,,2024-07-03,1,,,,,ゴールデンスリー,0
1143,5011001163136,新規,0,2024-07-03,2024-07-03,植田音楽株式会社,,株式会社,東京都,渋谷区,南平台町１６番２８号Ｄａｉｗａ渋谷スクエア６階,,13,113,1500036,,,,,,,2024-07-03,1,,,,,ウエダオンガク,0
1144,5011003019518,新規,0,2024-07-03,2024-07-03,合同会社ＣＵＢ,,合同会社,東京都,目黒区,中央町２丁目１０－５,,13,110,1520001,,,,,,,2024-07-03,1,,,,,シーユービー,0
1153,5011201025607,新規,0,2024-07-03,2024-07-03,株式会社構造計画研究所ホールディングス,,株式会社,東京都,中野区,本町４丁目３８番１３号日本ホルスタイン会館内,,13,114,1640012,,,,,,,2024-07-03,1,,,,,コウゾウケイカクケンキュウショホールディングス,0
1154,5011301029805,新規,0,2024-07-03,2024-07-03,株式会社ＭＯＯＮ　ＤＲＩＶＥ,,株式会社,東京都,杉並区,成田東３丁目１３番２３号,,13,115,1660015,,,,,,,2024-07-03,1,,,,,ムーンドライブ,0
1158,5011501030876,新規,0,2024-07-03,2024-07-03,株式会社ハロ,,株式会社,東京都,北区,志茂３丁目２０番１５号,,13,117,1150042,,,,,,,2024-07-03,1,,,,,ハロ,0
1160,5011801044485,新規,0,2024-07-03,2024-07-03,和信商貿株式会社,,株式会社,東京都,葛飾区,青戸７丁目２３番１１号,,13,122,1250062,,,,,,,2024-07-03,1,,,,,ワシンショウボウ,0
1161,5011803006310,新規,0,2024-07-03,2024-07-03,合同会社シンシア,,合同会社,東京都,葛飾区,東堀切２丁目１４番１４号,,13,122,1240004,,,,,,,2024-07-03,1,,,,,シンシア,0
1162,5011803006319,新規,0,2024-07-03,2024-07-03,ネクストアセット合同会社,,合同会社,東京都,葛飾区,新宿６丁目６番１－１１６号オーベル金町レジデンス,,13,122,1250051,,,,,,,2024-07-03,1,,,,,ネクストアセット,0
1167,5012401042037,新規,0,2024-07-03,2024-07-03,株式会社ＫＴＧ,,株式会社,東京都,武蔵野市,中町２丁目２１番１５号,,13,203,1800006,,,,,,,2024-07-03,1,,,,,ケイティージー,0
1168,5012401042053,新規,0,2024-07-03,2024-07-03,アイプラス株式会社,,株式会社,東京都,調布市,深大寺北町５丁目２５番地５フォレスト深大寺Ｂ号館２０２,,13,208,1820011,,,,,,,2024-07-03,1,,,,,アイプラス,0
1187,5020001157972,新規,0,2024-07-03,2024-07-03,株式会社Ｓｎｕｇｇｌｅ　Ｄｅｓｉｇｎ,,株式会社,神奈川県,横浜市泉区,上飯田町２０１番地１,,14,116,2450018,,,,,,,2024-07-03,1,,,,,スナグルデザイン,0
1197,5021001082632,新規,0,2024-07-03,2024-07-03,楠岡商事株式会社,,株式会社,神奈川県,平塚市,平塚４丁目２６番５号,,14,203,2540052,,,,,,,2024-07-03,1,,,,,クスオカショウジ,0
1198,5021001082640,新規,0,2024-07-03,2024-07-03,株式会社ＢＥＬＯＷ　ＳＥＡ　ＬＥＶＥＬ,,株式会社,神奈川県,藤沢市,藤沢４丁目７番２号,,14,205,2510052,,,,,,,2024-07-03,1,,,,,ビローシーレベル,0
1199,5021001082649,新規,0,2024-07-03,2024-07-03,株式会社双明建設,,株式会社,神奈川県,相模原市緑区,大島７０３番地１－２０１,,14,151,2520135,,,,,,,2024-07-03,1,,,,,ソウメイケンセツ,0
1200,5021003014716,新規,0,2024-07-03,2024-07-03,Ｎｏｇｅｍｏｒｕ　Ｐｌａｎｎｉｎｇ合同会社,,合同会社,神奈川県,横須賀市,佐原４丁目１７番１１－１０４号,,14,201,2390835,,,,,,,2024-07-03,1,,,,,ノゲモルプランニング,0
1205,5030001161057,新規,0,2024-07-03,2024-07-03,猿田彦工務店株式会社,,株式会社,埼玉県,ふじみ野市,上福岡１丁目１４－５０エチゴヤビル３Ｆ,,11,245,3560004,,,,,,,2024-07-03,1,,,,,サルタヒココウムテン,0
1206,5030001161164,新規,0,2024-07-03,2024-07-03,株式会社ＫＲ計算センター,,株式会社,埼玉県,川越市,大字砂９３４番地１５,,11,201,3501133,,,,,,,2024-07-03,1,,,,,ケーアールケイサンセンター,0
1207,5030001161180,新規,0,2024-07-03,2024-07-03,株式会社トゥルーズインベスト,,株式会社,埼玉県,川越市,大字寺尾１０９９番地１,,11,201,3501141,,,,,,,2024-07-03,1,,,,,トゥルーズインベスト,0
1208,5030001161230,新規,0,2024-07-03,2024-07-03,株式会社あみ建設,,株式会社,埼玉県,ふじみ野市,大井武蔵野１３４４番地３９,,11,245,3560054,,,,,,,2024-07-03,1,,,,,アミケンセツ,0
1209,5030001161271,新規,0,2024-07-03,2024-07-03,株式会社ＡｍｂｅｒＴａｆｆ,,株式会社,埼玉県,草加市,松原１丁目１番６－１４１１号,,11,221,3400041,,,,,,,2024-07-03,1,,,,,アンブルタフ,0
1210,5030001161288,新規,0,2024-07-03,2024-07-03,株式会社ＣＴ　ｐｈａｒｍａｋｏｎ,,株式会社,埼玉県,川口市,西川口１丁目３０番２０－４１５号室,,11,203,3320021,,,,,,,2024-07-03,1,,,,,,0
1215,5030003024617,新規,0,2024-07-03,2024-07-03,合同会社池田興業,,合同会社,埼玉県,川口市,大字石神５９７番地アーベントＢ１０７号,,11,203,3330823,,,,,,,2024-07-03,1,,,,,イケダコウギョウ,0
1219,5040001134318,新規,0,2024-07-03,2024-07-03,株式会社リシェスプロパティ,,株式会社,千葉県,市川市,湊新田６番２２号,,12,203,2720132,,,,,,,2024-07-03,1,,,,,リシェスプロパティ,0
1221,5050001055034,新規,0,2024-07-03,2024-07-03,株式会社アインス,,株式会社,茨城県,石岡市,柿岡１０２９番地２０,,08,205,3150116,,,,,,,2024-07-03,1,,,,,アインス,0
1223,5060001037238,新規,0,2024-07-03,2024-07-03,株式会社ＳＨＡＭＡＳ　ＴＲＡＤＩＮＧ,,株式会社,栃木県,小山市,大字大行寺１１４８－７モンパレス小山第１２号館１０２号室,,09,208,3230041,,,,,,,2024-07-03,1,,,,,シャマストレーディング,0
1233,5070005010297,新規,0,2024-07-03,2024-07-03,司法書士法人茂木事務所,,その他の設立登記法人,群馬県,前橋市,問屋町２丁目１３－２－１－Ｂ号室,,10,201,3710855,,,,,,,2024-07-03,1,,,,,モギジムショ,0
1237,5080101024860,新規,0,2024-07-03,2024-07-03,株式会社Ｄ１,,株式会社,静岡県,沼津市,西椎路７５０番地の１５,,22,203,4100303,,,,,,,2024-07-03,1,,,,,ディーワン,0
1238,5080403005047,新規,0,2024-07-03,2024-07-03,合同会社安心サポート松下,,合同会社,静岡県,浜松市中央区,大瀬町２４５３番地の２,,22,138,4313113,,,,,,,2024-07-03,1,,,,,アンシンサポートマツシタ,0
1239,5100001037596,新規,0,2024-07-03,2024-07-03,アース株式会社,,株式会社,長野県,小諸市,大字耳取５１２番地,,20,208,3840084,,,,,,,2024-07-03,1,,,,,アース,0
1251,5120001266359,新規,0,2024-07-03,2024-07-03,株式会社Ｌａ　ｃａｓａ,,株式会社,大阪府,大阪市中央区,大手前１丁目６番８号,,27,128,5400008,,,,,,,2024-07-03,1,,,,,ラカサ,0
1252,5120001266367,新規,0,2024-07-03,2024-07-03,ＴＨＩＮＫＢＩＴＳ株式会社,,株式会社,大阪府,大阪市北区,梅田１丁目２番２大阪駅前第２ビル１２－１２,,27,127,5300001,,,,,,,2024-07-03,1,,,,,シンクビッツ,0
1253,5120001266433,新規,0,2024-07-03,2024-07-03,株式会社Ｎｅｒｉｎｃｏ,,株式会社,大阪府,大阪市北区,天神橋７丁目１０－５－２０２,,27,127,5310041,,,,,,,2024-07-03,1,,,,,ネリンコ,0
1254,5120001266490,新規,0,2024-07-03,2024-07-03,株式会社延田プライム,,株式会社,大阪府,大阪市中央区,心斎橋筋２丁目１番６号,,27,128,5420085,,,,,,,2024-07-03,1,,,,,ノブタプライム,0
1255,5120001266508,新規,0,2024-07-03,2024-07-03,株式会社前田地所,,株式会社,大阪府,門真市,岸和田３丁目４０番６号,,27,223,5710002,,,,,,,2024-07-03,1,,,,,マエダチショ,0
1256,5120001266516,新規,0,2024-07-03,2024-07-03,株式会社ＥＳＦ,,株式会社,大阪府,大阪市浪速区,難波中１丁目３－１,,27,111,5560011,,,,,,,2024-07-03,1,,,,,イーエスエフ,0
1262,5120003026959,新規,0,2024-07-03,2024-07-03,金屋合同会社,,合同会社,大阪府,大阪市平野区,背戸口１丁目１７－１０－１階,,27,126,5470034,,,,,,,2024-07-03,1,,,,,カネヤ,0
1263,5120003026967,新規,0,2024-07-03,2024-07-03,合同会社Ｅｚ,,合同会社,大阪府,大阪市北区,梅田１丁目１－３大阪駅前第３ビル２９階１－１－１号室,,27,127,5300001,,,,,,,2024-07-03,1,,,,,イージー,0
1267,5120101069918,新規,0,2024-07-03,2024-07-03,株式会社永善,,株式会社,大阪府,岸和田市,積川町１２６番地,,27,202,5960104,,,,,,,2024-07-03,1,,,,,ナガヨシ,0
1268,5120103005929,新規,0,2024-07-03,2024-07-03,合同会社いつまでも,,合同会社,大阪府,堺市堺区,中瓦町２丁３番１４号パーターさかもと銀座ビル３－Ｃ,,27,141,5900077,,,,,,,2024-07-03,1,,,,,イツマデモ,0
1274,5120901049409,新規,0,2024-07-03,2024-07-03,株式会社サンライフ,,株式会社,大阪府,茨木市,真砂１丁目１２番３１号,,27,211,5670851,,,,,,,2024-07-03,1,,,,,サンライフ,0
1280,5140001135000,新規,0,2024-07-03,2024-07-03,ＡＱＵＡＮＴＡ株式会社,,株式会社,兵庫県,神戸市東灘区,鴨子ヶ原２丁目９番５号,,28,101,6580064,,,,,,,2024-07-03,1,,,,,アクアンタ,0
1281,5140001135009,新規,0,2024-07-03,2024-07-03,株式会社コラスケイト３,,株式会社,兵庫県,神戸市中央区,磯辺通３丁目２番１７号ＫＯＷＡワールド三宮ビル,,28,110,6510084,,,,,,,2024-07-03,1,,,,,コラスケイトスリー,0
1282,5140001135017,新規,0,2024-07-03,2024-07-03,株式会社バディ記帳代行,,株式会社,兵庫県,西宮市,津門稲荷町７番１号タートルパレス１階Ａ号室,,28,204,6638247,,,,,,,2024-07-03,1,,,,,バディキチョウダイコウ,0
1283,5140003020778,新規,0,2024-07-03,2024-07-03,合同会社ｔｓｕｎａｇｕ,,合同会社,兵庫県,神戸市垂水区,星陵台４丁目４番２２号,,28,108,6550038,,,,,,,2024-07-03,1,,,,,ツナグ,0
1292,5180001162189,新規,0,2024-07-03,2024-07-03,株式会社鈴木住設,,株式会社,愛知県,名古屋市北区,上飯田北町１丁目１８番地の１,,23,103,4620802,,,,,,,2024-07-03,1,,,,,スズキジュウセツ,0
1293,5180001162263,新規,0,2024-07-03,2024-07-03,株式会社ツインシープ,,株式会社,愛知県,名古屋市緑区,桃山３丁目９０３番地,,23,114,4580002,,,,,,,2024-07-03,1,,,,,ツインシープ,0
1298,5180003026978,新規,0,2024-07-03,2024-07-03,合同会社ＹＵＪＩ２号,,合同会社,愛知県,名古屋市北区,辻本通１丁目５３番地,00135454,23,103,4620861,,,,,,,2024-07-03,1,,,,,ユウジニゴウ,0
1299,5180003027019,新規,0,2024-07-03,2024-07-03,合同会社ＧＥＮＪＩＴＳＵ,,合同会社,愛知県,名古屋市南区,菊住２丁目８番２６号グランティック・ノーブル新瑞橋２０２号,,23,112,4570012,,,,,,,2024-07-03,1,,,,,ゲンジツ,0
1300,5180301038799,新規,0,2024-07-03,2024-07-03,株式会社マニフィックシュヴァル,,株式会社,愛知県,高浜市,二池町１丁目７番地３０,,23,227,4441322,,,,,,,2024-07-03,1,,,,,マニフィックシュヴァル,0
1302,5190001031450,新規,0,2024-07-03,2024-07-03,株式会社Ｒｉｎｋ,,株式会社,三重県,四日市市,日永東３丁目１３番５号,,24,202,5100886,,,,,,,2024-07-03,1,,,,,リンク,0
1303,5190001031459,新規,0,2024-07-03,2024-07-03,ミエソーラーパートナーズ株式会社,,株式会社,三重県,津市,あのつ台１丁目６番５,,24,201,5140131,,,,,,,2024-07-03,1,,,,,,0
1304,5190003004719,新規,0,2024-07-03,2024-07-03,ＡＳＫＵＬ合同会社,,合同会社,三重県,四日市市,諏訪栄町９番５号諏訪ビル２階,,24,202,5100086,,,,,,,2024-07-03,1,,,,,アスクル,0
1306,5200001042669,新規,0,2024-07-03,2024-07-03,株式会社ＳＧ　ｈｅａｌｔｈ　ｐｒｏｍｏｔｉｏｎ,,株式会社,岐阜県,岐阜市,日野東１丁目１２番３０号,,21,201,5008211,,,,,,,2024-07-03,1,,,,,エスジーヘルスプロモーション,0
1314,5230001020416,新規,0,2024-07-03,2024-07-03,株式会社前炉工,,株式会社,富山県,高岡市,笹八口１９９番地１,,16,202,9330307,,,,,,,2024-07-03,1,,,,,マエロコウ,0
1319,5240001063463,新規,0,2024-07-03,2024-07-03,株式会社二井谷,,株式会社,広島県,広島市安佐北区,亀山南２丁目６番１４号,,34,106,7310232,,,,,,,2024-07-03,1,,,,,ニイタニ,0
1323,5240003006742,新規,0,2024-07-03,2024-07-03,くまわ企画合同会社,,合同会社,広島県,広島市中区,河原町１１－１９,,34,101,7300856,,,,,,,2024-07-03,1,,,,,クマワキカク,0
1324,5250003003532,新規,0,2024-07-03,2024-07-03,合同会社ＲＯＯＭ,,合同会社,山口県,山口市,維新公園１丁目４番５号,,35,203,7530815,,,,,,,2024-07-03,1,,,,,ルーム,0
1325,5250005008926,新規,0,2024-07-03,2024-07-03,一般社団法人ＭＡＴＳＵＲＩ,,その他の設立登記法人,山口県,長門市,俵山字森脇５１９０番地９,,35,211,7594211,,,,,,,2024-07-03,1,,,,,マツリ,0
1326,5260001039214,新規,0,2024-07-03,2024-07-03,株式会社たまのユナイテッド,,株式会社,岡山県,玉野市,田井５丁目２８番３０号,,33,204,7060001,,,,,,,2024-07-03,1,,,,,タマノユナイテッド,0
1327,5280001009207,新規,0,2024-07-03,2024-07-03,株式会社ＴＡＩＳＥＮ,,株式会社,島根県,出雲市,渡橋町５０５番地２２,,32,203,6930004,,,,,,,2024-07-03,1,,,,,タイセン,0
1331,5290001106374,新規,0,2024-07-03,2024-07-03,北村製麺株式会社,,株式会社,福岡県,福岡市中央区,笹丘１丁目６番８号,,40,133,8100034,,,,,,,2024-07-03,1,,,,,キタムラセイメン,0
1332,5290003015499,新規,0,2024-07-03,2024-07-03,合同会社福ノ助,,合同会社,福岡県,福岡市東区,筥松２丁目２７－２９－４０１ＷｅＨａｋｏｚａｋｉ,,40,131,8120061,,,,,,,2024-07-03,1,,,,,フクノスケ,0
1333,5290005019432,新規,0,2024-07-03,2024-07-03,一般社団法人福岡ねこＴＮＲ隊ふくにゃん,,その他の設立登記法人,福岡県,古賀市,日吉３丁目２９番７号,,40,223,8113106,,,,,,,2024-07-03,1,,,,,フクオカネコティエヌアールタイフクニャン,0
1334,5290005019440,新規,0,2024-07-03,2024-07-03,医療法人福岡聖友会,,その他の設立登記法人,福岡県,福岡市中央区,地行浜２丁目２－３ヒルトン福岡シーホーク４Ｆ,,40,133,8100065,,,,,,,2024-07-03,1,,,,,フクオカセイユウカイ,0
1335,5290801030666,新規,0,2024-07-03,2024-07-03,株式会社勇映,,株式会社,福岡県,田川郡添田町,大字添田１０９８番地の２３,,40,602,8240602,,,,,,,2024-07-03,1,,,,,ユウエイ,0
1336,5290801030674,新規,0,2024-07-03,2024-07-03,株式会社エムアイエンジニアリング,,株式会社,福岡県,北九州市八幡西区,本城３丁目１番４３－１０１号,,40,109,8070801,,,,,,,2024-07-03,1,,,,,エムアイエンジニアリング,0
1337,5290805009756,新規,0,2024-07-03,2024-07-03,行政書士法人高瀬事務所,00135451,その他の設立登記法人,福岡県,豊前市,大字今市１４４番地１１,,40,214,8280062,,,,,,,2024-07-03,1,,,,,タカセジムショ,0
1339,5310001019094,新規,0,2024-07-03,2024-07-03,株式会社グリーンエイト,,株式会社,長崎県,雲仙市,国見町神代辛９３２番地１,,42,213,8591308,,,,,,,2024-07-03,1,,,,,グリーンエイト,0
1340,5310003004813,新規,0,2024-07-03,2024-07-03,合同会社ｇｏｓｙｏｎｎａ,,合同会社,長崎県,西彼杵郡時津町,左底郷７６７－１１,,42,308,8512106,,,,,,,2024-07-03,1,,,,,ゴションナ,0
1342,5310005008779,新規,0,2024-07-03,2024-07-03,農事組合法人高天,,その他の設立登記法人,長崎県,諫早市,高天町２２４３番地,,42,204,8590303,,,,,,,2024-07-03,1,,,,,コウテン,0
1345,5330001032203,新規,0,2024-07-03,2024-07-03,株式会社錦工業,,株式会社,熊本県,熊本市南区,城南町舞原１５１番地１１,,43,104,8614214,,,,,,,2024-07-03,1,,,,,ニシキコウギョウ,0
1346,5330001032211,新規,0,2024-07-03,2024-07-03,株式会社きりく,,株式会社,熊本県,宇城市,松橋町両仲間１０５７番地１,,43,213,8690533,,,,,,,2024-07-03,1,,,,,キリク,0
1347,5330003010438,新規,0,2024-07-03,2024-07-03,合同会社レガロライフビズ,,合同会社,熊本県,熊本市中央区,帯山５丁目３８番１０号,,43,101,8620924,,,,,,,2024-07-03,1,,,,,レガロライフビズ,0
1350,5340001026625,新規,0,2024-07-03,2024-07-03,Ｙテック株式会社,,株式会社,鹿児島県,鹿児島市,上荒田町３番１号７０２,,46,201,8900055,,,,,,,2024-07-03,1,,,,,ワイテック,0
1353,5350001019033,新規,0,2024-07-03,2024-07-03,大淀開発ホールディングス株式会社,,株式会社,宮崎県,都城市,上長飯町５４２７番地１,,45,202,8850042,,,,,,,2024-07-03,1,,,,,オオヨドカイハツホールディングス,0
1354,5350003004685,新規,0,2024-07-03,2024-07-03,レインボー合同会社,,合同会社,宮崎県,宮崎市,田野町甲５３７１番地１２,,45,201,8891701,,,,,,,2024-07-03,1,,,,,レインボー,0
1356,5360001033900,新規,0,2024-07-03,2024-07-03,株式会社ゼロベース,,株式会社,沖縄県,宜野湾市,我如古２丁目４番１７号－１０２,,47,205,9012214,,,,,,,2024-07-03,1,,,,,ゼロベース,0
1359,5360003014106,新規,0,2024-07-03,2024-07-03,ＩＬＰ合同会社,,合同会社,沖縄県,那覇市,安謝２丁目２８－２５Ｊ－ｒｏｏｍ３０１,,47,201,9000003,,,,,,,2024-07-03,1,,,,,アイエルピー,0
1360,5360003014122,新規,0,2024-07-03,2024-07-03,Ｋｕｒｉｍａ‐Ｂｌｕｅ合同会社,,合同会社,沖縄県,宮古島市,下地字来間３８番地１,,47,214,9060306,,,,,,,2024-07-03,1,,,,,クリマブルー,0
1365,5390001017669,新規,0,2024-07-03,2024-07-03,株式会社システム・カナリ,,株式会社,山形県,山形市,立谷川１丁目９４２番地１３,,06,201,9902251,,,,,,,2024-07-03,1,,,,,システムカナリ,0
1367,5400001016719,新規,0,2024-07-03,2024-07-03,株式会社ＬＳＨ,,株式会社,岩手県,盛岡市,向中野４丁目１２番５号,,03,201,0200851,,,,,,,2024-07-03,1,,,,,ライフサポートホールディングス,0
1372,5420001018787,新規,0,2024-07-03,2024-07-03,株式会社三繋根,,株式会社,青森県,青森市,佃２丁目４番１０号サンハイツ今１０５号,,02,201,0300962,,,,,,,2024-07-03,1,,,,,ミツネ,0
1373,5430001092179,新規,0,2024-07-03,2024-07-03,エスケービル管理株式会社,,株式会社,北海道,札幌市北区,北十四条西４丁目２番１１号,,01,102,0010014,,,,,,,2024-07-03,1,,,,,エスケービルカンリ,0
1374,5430001092204,新規,0,2024-07-03,2024-07-03,株式会社グランキャピタル,,株式会社,北海道,札幌市白石区,本通１７丁目南７番１２－４０５号,,01,104,0030026,,,,,,,2024-07-03,1,,,,,グランキャピタル,0
1376,5430003016516,新規,0,2024-07-03,2024-07-03,合同会社グロウブル,,合同会社,北海道,札幌市豊平区,平岸一条８丁目２番８－２０１号,,01,105,0620931,,,,,,,2024-07-03,1,,,,,グロウブル,0
1377,5450001014354,新規,0,2024-07-03,2024-07-03,株式会社オルカ,,株式会社,北海道,旭川市,永山七条１丁目３番２１号,,01,204,0798417,,,,,,,2024-07-03,1,,,,,オルカ,0
1378,5500001025734,新規,0,2024-07-03,2024-07-03,株式会社ＩＴＯプロジェクト,,株式会社,愛媛県,松山市,天山３丁目５番１８号,,38,201,7900951,,,,,,,2024-07-03,1,,,,,イトープロジェクト,0
1393,6010401183503,新規,0,2024-07-03,2024-07-03,株式会社ワープ,,株式会社,東京都,港区,高輪３丁目６番１１号,,13,103,1080074,,,,,,,2024-07-03,1,,,,,ワープ,0
1394,6010401183511,新規,0,2024-07-03,2024-07-03,株式会社ＭＳＫ,,株式会社,東京都,港区,赤坂７丁目５番１０号,,13,103,1070052,,,,,,,2024-07-03,1,,,,,エムエスケー,0
1395,6010401183544,新規,0,2024-07-03,2024-07-03,株式会社ＫＩＫＡＮ　ｆｌｅｘ,,株式会社,東京都,港区,赤坂８丁目５番３４号,,13,103,1070052,,,,,,,2024-07-03,1,,,,,キカンフレックス,0
1396,6010401183560,新規,0,2024-07-03,2024-07-03,株式会社Ｓｏｒａ７１,,株式会社,東京都,港区,六本木５丁目１１番３１号,,13,103,1060032,,,,,,,2024-07-03,1,,,,,ソラセブンティワン,0
1402,6010601065484,新規,0,2024-07-03,2024-07-03,株式会社インフィニ,,株式会社,東京都,江東区,東陽２丁目５番１３－１０１号,,13,108,1350016,,,,,,,2024-07-03,1,,,,,インフィニ,0
1406,6010603010926,新規,0,2024-07-03,2024-07-03,合同会社Ｌａｆｆｉｎｇ　Ｉｓｌａｎｄｓ,,合同会社,東京都,江東区,亀戸６丁目５５番１８－３０３号,,13,108,1360071,,,,,,,2024-07-03,1,,,,,ラフィングアイランズ,0
1418,6011001163011,新規,0,2024-07-03,2024-07-03,株式会社ＡＬＦＩＮＡ,,株式会社,東京都,渋谷区,恵比寿４丁目２０番３号恵比寿ガーデンプレイスタワー１８階,,13,113,1500013,,,,,,,2024-07-03,1,,,,,アルフィナ,0
1419,6011001163119,新規,0,2024-07-03,2024-07-03,株式会社しのぶ,,株式会社,東京都,渋谷区,恵比寿２丁目９番４号,,13,113,1500013,,,,,,,2024-07-03,1,,,,,シノブ,0
1420,6011001163127,新規,0,2024-07-03,2024-07-03,株式会社ＰＢ　Ｉｎｃ．,,株式会社,東京都,渋谷区,広尾５丁目１４番３号中井ビル２階,,13,113,1500012,,,,,,,2024-07-03,1,,,,,ピービーインク,0
1421,6011001163143,新規,0,2024-07-03,2024-07-03,たべものずかん株式会社,,株式会社,東京都,渋谷区,渋谷２丁目１９－１５宮益坂ビルディング６０９,,13,113,1500002,,,,,,,2024-07-03,1,,,,,タベモノズカン,0
1424,6011003019500,新規,0,2024-07-03,2024-07-03,ＴＫグループ合同会社,,合同会社,東京都,渋谷区,道玄坂１丁目１０番８号渋谷道玄坂東急ビル２Ｆ－Ｃ,,13,113,1500043,,,,,,,2024-07-03,1,,,,,ティーケーグループ,0
1425,6011003019509,新規,0,2024-07-03,2024-07-03,Ｙｕｎｏｓａｔｏ　Ｈｏｌｄｉｎｇｓ合同会社,,合同会社,東京都,渋谷区,恵比寿西１丁目１９番６号ＵＮパークビル５階日本プロパティーズツゥー株式会社内,,13,113,1500021,,,,,,,2024-07-03,1,,,,,ユノサトホールディングス,0
1426,6011003019517,新規,0,2024-07-03,2024-07-03,合同会社ＡＫアセットマネジメント,,合同会社,東京都,目黒区,目黒２丁目８番５－８０１号,,13,110,1530063,,,,,,,2024-07-03,1,,,,,エーケーアセットマネジメント,0
1427,6011003019525,新規,0,2024-07-03,2024-07-03,合同会社ｈａｎｅｕｌ,,合同会社,東京都,渋谷区,渋谷２丁目１９－１５宮益坂ビルディング６０９,,13,113,1500002,,,,,,,2024-07-03,1,,,,,ハヌル,0
1431,6011301029804,新規,0,2024-07-03,2024-07-03,成真株式会社,,株式会社,東京都,杉並区,永福２丁目６番１９号,,13,115,1680064,,,,,,,2024-07-03,1,,,,,セイシン,0
1432,6011303005225,新規,0,2024-07-03,2024-07-03,ＡＭＡＺＩＮＧ　ＷＯＲＬＤ合同会社,,合同会社,東京都,杉並区,上荻３丁目４－１８,,13,115,1670043,,,,,,,2024-07-03,1,,,,,アメージングワールド,0
1433,6011401026239,新規,0,2024-07-03,2024-07-03,Ａｕｔｏｈａｋ株式会社,,株式会社,東京都,板橋区,南常盤台１丁目１１番６号レフア南常盤台１０２号室,,13,119,1740072,,,,,,,2024-07-03,1,,,,,オートハク,0
1436,6011501030875,新規,0,2024-07-03,2024-07-03,株式会社ｂｅｌｉｅｆ,,株式会社,東京都,北区,浮間１丁目５番５号,,13,117,1150051,,,,,,,2024-07-03,1,,,,,ビリーフ,0
1440,6011603004372,新規,0,2024-07-03,2024-07-03,合同会社Ｕｎｉｖａｔｉｏｎ,,合同会社,東京都,練馬区,春日町２丁目１２－３９,,13,120,1790074,,,,,,,2024-07-03,1,,,,,ユニベーション,0
1441,6011701027424,新規,0,2024-07-03,2024-07-03,株式会社日中教育交流センター,,株式会社,東京都,江戸川区,中央３丁目１６番１６号,,13,123,1320021,,,,,,,2024-07-03,1,,,,,ニッチュウキョウイクコウリュウセンター,0
1442,6011701027432,新規,0,2024-07-03,2024-07-03,株式会社アークロジ,,株式会社,東京都,江戸川区,瑞江３丁目１１番８号,,13,123,1320011,,,,,,,2024-07-03,1,,,,,アークロジ,0
1444,6011801044468,新規,0,2024-07-03,2024-07-03,株式会社ＲＩＤＥ　ＡＩＲ,,株式会社,東京都,足立区,梅田１丁目８番１７号ａｌｍｏ,,13,121,1230851,,,,,,,2024-07-03,1,,,,,ライドエア,0
1446,6012301013979,新規,0,2024-07-03,2024-07-03,株式会社アスリートキャリアセンター,,株式会社,東京都,町田市,中町３丁目９番１２－５０９号,,13,209,1940021,,,,,,,2024-07-03,1,,,,,アスリートキャリアセンター,0
1448,6012401042044,新規,0,2024-07-03,2024-07-03,株式会社Ｋ２Ｒ,,株式会社,東京都,稲城市,平尾４丁目６８番地の２,,13,225,2060823,,,,,,,2024-07-03,1,,,,,ケーツーアール,0
1449,6012401042052,新規,0,2024-07-03,2024-07-03,ＮＥＸＴ　ＣＬＡＳＳ株式会社,,株式会社,東京都,小金井市,貫井北町１丁目１３番３号プランドール欅２０２,00135450,13,210,1840015,,,,,,,2024-07-03,1,,,,,ネクストクラス,0
1459,6020001157963,新規,0,2024-07-03,2024-07-03,株式会社ヒロセイオリ,,株式会社,神奈川県,川崎市宮前区,鷺沼４丁目１０番地８ヴィラヴィアン鷺沼１０２,,14,136,2160004,,,,,,,2024-07-03,1,,,,,ヒロセイオリ,0
1475,6030003024599,新規,0,2024-07-03,2024-07-03,合同会社タイ古式マッサージソムチ,,合同会社,埼玉県,羽生市,東１丁目４番１８号,,11,216,3480052,,,,,,,2024-07-03,1,,,,,タイコシキマッサージソムチ,0
1476,6030003024624,新規,0,2024-07-03,2024-07-03,合同会社ｔａｎｏ　ｃｌｕｂ,,合同会社,埼玉県,春日部市,中央１丁目１０番地１２オキナヤビル４階,,11,214,3440067,,,,,,,2024-07-03,1,,,,,タノクラブ,0
1481,6040001134325,新規,0,2024-07-03,2024-07-03,株式会社Ｓｋａｔｅｂｏａｒｄ　Ｒｅｐｕｂｌｉｃ,,株式会社,千葉県,千葉市美浜区,打瀬１丁目５,,12,106,2610013,,,,,,,2024-07-03,1,,,,,スケートボードリパブリック,0
1485,6040005022435,新規,0,2024-07-03,2024-07-03,一般社団法人ＮＯ　ＥＸＣＵＳＥ,,その他の設立登記法人,千葉県,市川市,相之川２丁目１０番３－５０１号（リノア南行徳）,00135394,12,203,2720143,,,,,,,2024-07-03,1,,,,,ノーエクスキューズ,0
1486,6050001055033,新規,0,2024-07-03,2024-07-03,株式会社リフィックス,,株式会社,茨城県,ひたちなか市,大字馬渡２７１４番地４０,,08,221,3120012,,,,,,,2024-07-03,1,,,,,リフィックス,0
1489,6050005013466,新規,0,2024-07-03,2024-07-03,特定非営利活動法人こどもの新しい居場所えーぽいんと,,その他の設立登記法人,茨城県,常陸太田市,春友町５９２,,08,212,3110321,,,,,,,2024-07-03,1,,,,,コドモノアタラシイイバショエーポイント,0
1491,6060001037253,新規,0,2024-07-03,2024-07-03,雀宮苺生産株式会社,,株式会社,栃木県,宇都宮市,羽牛田町２６６番地１,,09,201,3210127,,,,,,,2024-07-03,1,,,,,スズメノミヤイチゴセイサン,0
1496,6070005010296,新規,0,2024-07-03,2024-07-03,農事組合法人北軽井沢有機ファミリィ,,その他の設立登記法人,群馬県,吾妻郡長野原町,大字北軽井沢１３５３番地４４０,,10,424,3771412,,,,,,,2024-07-03,1,,,,,キタカルイザワユウキファミリィ,0
1499,6080005007622,新規,0,2024-07-03,2024-07-03,渚司法書士法人,,その他の設立登記法人,静岡県,静岡市葵区,千代１丁目１４番２５号,,22,101,4211212,,,,,,,2024-07-03,1,,,,,ナギサ,0
1500,6080101024851,新規,0,2024-07-03,2024-07-03,株式会社ふじのさと,,株式会社,静岡県,富士市,鈴川本町８番１４号,,22,210,4170011,,,,,,,2024-07-03,1,,,,,フジノサト,0
1504,6090001018795,新規,0,2024-07-03,2024-07-03,株式会社Ｈｅｒｉｔａｇｅ,,株式会社,山梨県,南都留郡山中湖村,山中３８５番地,,19,425,4010501,,,,,,,2024-07-03,1,,,,,ヘリテージ,0
1506,6100001037604,新規,0,2024-07-03,2024-07-03,旭山株式会社,,株式会社,長野県,北安曇郡白馬村,大字北城５２８０番地,,20,485,3999301,,,,,,,2024-07-03,1,,,,,アサヒヤマ,0
1508,6100005013188,新規,0,2024-07-03,2024-07-03,特定非営利活動法人子どもとメディア信州,,その他の設立登記法人,長野県,上田市,中央２丁目２番１４号,,20,203,3860012,,,,,,,2024-07-03,1,,,,,コドモトメディアシンシュウ,0
1517,6120001266382,新規,0,2024-07-03,2024-07-03,そわか株式会社,,株式会社,大阪府,大阪市城東区,東中浜６丁目９番５号,,27,118,5360023,,,,,,,2024-07-03,1,,,,,ソワカ,0
1518,6120001266440,新規,0,2024-07-03,2024-07-03,株式会社ホッホ,,株式会社,大阪府,大阪市北区,池田町９番９号,,27,127,5300033,,,,,,,2024-07-03,1,,,,,ホッホ,0
1519,6120001266449,新規,0,2024-07-03,2024-07-03,株式会社協縁,,株式会社,大阪府,大阪市西成区,北開２丁目２番１７号ＢＦビル,,27,122,5570021,,,,,,,2024-07-03,1,,,,,キョウエン,0
1520,6120001266465,新規,0,2024-07-03,2024-07-03,株式会社リビングホームズ,,株式会社,大阪府,大阪市北区,長柄中１丁目３番１５号,,27,127,5310062,,,,,,,2024-07-03,1,,,,,リビングホームズ,0
1521,6120001266515,新規,0,2024-07-03,2024-07-03,キャリアトレイル株式会社,,株式会社,大阪府,大阪市北区,豊崎３丁目８番５－６０７号,,27,127,5310072,,,,,,,2024-07-03,1,,,,,キャリアトレイル,0
1523,6120005024398,新規,0,2024-07-03,2024-07-03,一般社団法人ウオーターフォーラム,,その他の設立登記法人,大阪府,大阪市北区,天満橋２丁目２番２３号,,27,127,5300042,,,,,,,2024-07-03,1,,,,,ウオーターフォーラム,0
1525,6120101069883,新規,0,2024-07-03,2024-07-03,早川元国際株式会社,,株式会社,大阪府,堺市西区,鳳北町１０丁６２－２,,27,144,5938328,,,,,,,2024-07-03,1,,,,,ハヤカワモトシコクサイ,0
1526,6120101069917,新規,0,2024-07-03,2024-07-03,株式会社ビルド,,株式会社,大阪府,堺市西区,浜寺諏訪森町中１丁１４０－２,,27,144,5928348,,,,,,,2024-07-03,1,,,,,ビルド,0
1528,6120103005928,新規,0,2024-07-03,2024-07-03,ＬＧＲ合同会社,,合同会社,大阪府,富田林市,津々山台３丁目７番９号,,27,214,5840086,,,,,,,2024-07-03,1,,,,,エルジーアール,0
1538,6130001077416,新規,0,2024-07-03,2024-07-03,株式会社ｐｉｌｉｎａ,,株式会社,京都府,京都市中京区,貝屋町５５８－１高倉ビル２Ｆ,,26,104,6048126,,,,,,,2024-07-03,1,,,,,ピリナ,0
1539,6130001077432,新規,0,2024-07-03,2024-07-03,株式会社ＶＡＣＡＮＣＥＳ,,株式会社,京都府,京都市左京区,吉田上大路町３－２－２階,,26,103,6068312,,,,,,,2024-07-03,1,,,,,バカンス,0
1540,6130003009672,新規,0,2024-07-03,2024-07-03,ＯＮＥ　ＦＬＡＧマネジメント合同会社,,合同会社,京都府,京都市西京区,山田上ノ町２番地５,,26,111,6158274,,,,,,,2024-07-03,1,,,,,ワンフラッグマネジメント,0
1542,6140001134942,新規,0,2024-07-03,2024-07-03,株式会社ＯＨＡＮＡ,,株式会社,兵庫県,伊丹市,荒牧６丁目１０番８号,,28,207,6640001,,,,,,,2024-07-03,1,,,,,オハナ,0
1543,6140001134967,新規,0,2024-07-03,2024-07-03,株式会社ユニパートナーズ,,株式会社,兵庫県,相生市,ひかりが丘１－５,,28,208,6780074,,,,,,,2024-07-03,1,,,,,ユニパートナーズ,0
1544,6140001134991,新規,0,2024-07-03,2024-07-03,ユニゾンエステート株式会社,,株式会社,兵庫県,神戸市長田区,五位ノ池町２丁目１番１１号,,28,106,6530851,,,,,,,2024-07-03,1,,,,,ユニゾンエステート,0
1546,6150001027393,新規,0,2024-07-03,2024-07-03,株式会社Ｍ’ｓ,,株式会社,奈良県,生駒市,桜ケ丘１番２９号,,29,209,6300211,,,,,,,2024-07-03,1,,,,,エムズ,0
1548,6150003003302,新規,0,2024-07-03,2024-07-03,合同会社あしすと,,合同会社,奈良県,生駒市,上町１４３０番地２,,29,209,6300131,,,,,,,2024-07-03,1,,,,,アシスト,0
1558,6180003026977,新規,0,2024-07-03,2024-07-03,合同会社ＹＵＪＩ１号,,合同会社,愛知県,名古屋市北区,辻本通１丁目５３番地,00135453,23,103,4620861,,,,,,,2024-07-03,1,,,,,ユウジイチゴウ,0
1559,6180003027026,新規,0,2024-07-03,2024-07-03,合同会社みあ,,合同会社,愛知県,名古屋市南区,桜台２丁目１番８号,,23,112,4570005,,,,,,,2024-07-03,1,,,,,ミア,0
1561,6180301038807,新規,0,2024-07-03,2024-07-03,株式会社ＰＯＳＴ　ＨＵＭＡＮ,,株式会社,愛知県,豊橋市,上地町１３７番地２炭家ＵＥＧ－Ｋ,,23,201,4400067,,,,,,,2024-07-03,1,,,,,ポストヒューマン,0
1563,6190001031441,新規,0,2024-07-03,2024-07-03,株式会社ネクスト・エンジニアリング,,株式会社,三重県,伊勢市,小俣町相合８８５番地８,,24,203,5190502,,,,,,,2024-07-03,1,,,,,ネクストエンジニアリング,0
1564,6190001031466,新規,0,2024-07-03,2024-07-03,株式会社ＫＦタイヤサービス,,株式会社,三重県,津市,久居野村町３７２番地２３５,,24,201,5141113,,,,,,,2024-07-03,1,,,,,ケーエフタイヤサービス,0
1568,6220001026082,新規,0,2024-07-03,2024-07-03,ＥＫＯＣ株式会社,,株式会社,石川県,金沢市,三池栄町３２３番地,,17,201,9200809,,,,,,,2024-07-03,1,,,,,エコック,0
1573,6240001063462,新規,0,2024-07-03,2024-07-03,株式会社マルタケ,,株式会社,広島県,広島市安佐北区,真亀３丁目２番６号,,34,106,7391741,,,,,,,2024-07-03,1,,,,,マルタケ,0
1574,6240001063479,新規,0,2024-07-03,2024-07-03,株式会社佐川企画,,株式会社,広島県,広島市安佐南区,長束５丁目４番３３－１０１号,,34,105,7310135,,,,,,,2024-07-03,1,,,,,サガワキカク,0
1575,6240001063487,新規,0,2024-07-03,2024-07-03,株式会社イイパパ代行,,株式会社,広島県,広島市中区,八丁堀１番２３号,,34,101,7300013,,,,,,,2024-07-03,1,,,,,イイパパダイコウ,0
1576,6240001063495,新規,0,2024-07-03,2024-07-03,桑原工業株式会社,00135392,株式会社,広島県,尾道市,御調町仁野８５－１,,34,205,7220331,,,,,,,2024-07-03,1,,,,,クワハラコウギョウ,0
1577,6250001020710,新規,0,2024-07-03,2024-07-03,アールアンドジーカッパーマネジメント株式会社,,株式会社,山口県,宇部市,大字船木１４１９番地１３,,35,202,7570216,,,,,,,2024-07-03,1,,,,,アールアンドジーカッパーマネジメント,0
1578,6250003003531,新規,0,2024-07-03,2024-07-03,合同会社ゆうだい,,合同会社,山口県,長門市,油谷向津具下３４７３番地１,,35,211,7594623,,,,,,,2024-07-03,1,,,,,ユウダイ,0
1579,6260001039238,新規,0,2024-07-03,2024-07-03,株式会社有楽ホールディングス,,株式会社,岡山県,岡山市中区,西川原５３番地８,,33,102,7038258,,,,,,,2024-07-03,1,,,,,ユウラクホールディングス,0
1584,6290001106299,新規,0,2024-07-03,2024-07-03,株式会社ＫＫエステート,,株式会社,福岡県,古賀市,中央２丁目６番５２号,,40,223,8113103,,,,,,,2024-07-03,1,,,,,ケイケイエステート,0
1585,6290003015515,新規,0,2024-07-03,2024-07-03,合同会社ＹＧＲＴ,,合同会社,福岡県,福岡市博多区,竹下１丁目５番７－２０２号エヴァンス,,40,132,8120895,,,,,,,2024-07-03,1,,,,,ヨーグルト,0
1588,6290801030681,新規,0,2024-07-03,2024-07-03,株式会社アジアコア,,株式会社,福岡県,北九州市小倉北区,鍛冶町２丁目４番１号,,40,106,8020004,,,,,,,2024-07-03,1,,,,,アジアコア,0
1592,6290805009755,新規,0,2024-07-03,2024-07-03,一般社団法人マイクロブレーディング協会,,その他の設立登記法人,福岡県,北九州市小倉北区,大門２丁目１番１５号３Ｆ,,40,106,8030811,,,,,,,2024-07-03,1,,,,,マイクロブレーディングキョウカイ,0
1593,6300001013816,新規,0,2024-07-03,2024-07-03,株式会社Ｈｉｇｕ,,株式会社,佐賀県,三養基郡上峰町,大字前牟田１７６７番地,,41,345,8490122,,,,,,,2024-07-03,1,,,,,ヒグ,0
1596,6320001020562,新規,0,2024-07-03,2024-07-03,ＭＳ　ＫＨＡＮ　ＴＲＡＤＩＮＧ株式会社,,株式会社,大分県,由布市,挾間町赤野１７１０番地２,,44,213,8795516,,,,,,,2024-07-03,1,,,,,エムエスカーントレーディング,0
1597,6330001032210,新規,0,2024-07-03,2024-07-03,Ｐｌｕｓ　ｔｅｎ株式会社,,株式会社,熊本県,熊本市中央区,上通町１－２５Ｍ´ｓ１（エムズワン）ビル３階,,43,101,8600845,,,,,,,2024-07-03,1,,,,,プラステン,0
1602,6360001033899,新規,0,2024-07-03,2024-07-03,株式会社将大,,株式会社,沖縄県,沖縄市,知花２丁目９番９号,,47,211,9042143,,,,,,,2024-07-03,1,,,,,ショウダイ,0
1605,6360003014105,新規,0,2024-07-03,2024-07-03,合同会社ＧＲＥＥＮＳ,,合同会社,沖縄県,豊見城市,字豊崎１番地３９、１０１,,47,212,9010225,,,,,,,2024-07-03,1,,,,,グリーンズ,0
1606,6360003014113,新規,0,2024-07-03,2024-07-03,合同会社ＳＡＸＳＩＡ,,合同会社,沖縄県,那覇市,字古島５０４番地,,47,201,9020061,,,,,,,2024-07-03,1,,,,,サクシア,0
1613,6390005009075,新規,0,2024-07-03,2024-07-03,一般社団法人ＳｕｋｅｄａｃｈｉＣｒｅａｔｉｖｅ庄内,,その他の設立登記法人,山形県,鶴岡市,城北町３２番１４号,,06,203,9970041,,,,,,,2024-07-03,1,,,,,スケダチクリエイティブショウナイ,0
1620,6430001092161,新規,0,2024-07-03,2024-07-03,株式会社Ｓｔｏｋｅｄ　Ｃａｒｅ,,株式会社,北海道,札幌市南区,藤野四条２丁目３番２０号,,01,106,0612284,,,,,,,2024-07-03,1,,,,,ストークケア,0
1621,6430001092186,新規,0,2024-07-03,2024-07-03,株式会社ステップアップイノベーション,,株式会社,北海道,札幌市東区,北二十三条東１丁目９番６－２０５号,,01,103,0650023,,,,,,,2024-07-03,1,,,,,ステップアップイノベーション,0
1622,6430001092203,新規,0,2024-07-03,2024-07-03,サンスリー株式会社,,株式会社,北海道,札幌市西区,発寒十一条３丁目６番２８号,,01,107,0630831,,,,,,,2024-07-03,1,,,,,サンスリー,0
1624,6460105002294,新規,0,2024-07-03,2024-07-03,特定非営利活動法人北海道メンタルトレーナー協会,,その他の設立登記法人,北海道,帯広市,東一条南３丁目４－１田中ビル３階,,01,207,0800801,,,,,,,2024-07-03,1,,,,,ホッカイドウメンタルトレーナーキョウカイ,0
1626,6490003001899,新規,0,2024-07-03,2024-07-03,レソール合同会社,,合同会社,高知県,高知市,杉井流２１番８号ＣＬＡＳＳＧＲＡＣＡ２０３,,39,201,7800072,,,,,,,2024-07-03,1,,,,,レソール,0
1628,6500001025733,新規,0,2024-07-03,2024-07-03,株式会社マルキン松山,,株式会社,愛媛県,松山市,新浜町１番６号,,38,201,7918083,,,,,,,2024-07-03,1,,,,,マルキンマツヤマ,0
1629,6700150043598,新規,0,2024-07-03,2015-10-09,日本同盟基督教団　知立キリスト教会,,その他,愛知県,知立市,牛田町尼子田８－４,,23,225,4720007,,,,,,,2015-10-09,1,,,,,ニホンドウメイキリストキヨウダンチリユウキリストキヨウカイ,0
1635,7010001246015,新規,0,2024-07-03,2024-07-03,ＳＴＩ株式会社,,株式会社,東京都,中央区,日本橋室町１丁目１１番１２号日本橋水野ビル７階,,13,102,1030022,,,,,,,2024-07-03,1,,,,,エスティーアイ,0
1636,7010001246106,新規,0,2024-07-03,2024-07-03,株式会社Ｉ＆Ｄ研究所,,株式会社,東京都,中央区,築地７丁目８番３－８０２号,,13,102,1040045,,,,,,,2024-07-03,1,,,,,アイアンドディーケンキュウジョ,0
1641,7010003044004,新規,0,2024-07-03,2024-07-03,合同会社オロ,,合同会社,東京都,文京区,白山５丁目１６－６－１１０２,,13,105,1120001,,,,,,,2024-07-03,1,,,,,オロ,0
1642,7010005038490,新規,0,2024-07-03,2024-07-03,一般社団法人マエストロファンディング,,その他の設立登記法人,東京都,千代田区,丸の内３丁目１番１号東京共同会計事務所内,,13,101,1000005,,,,,,,2024-07-03,1,,,,,マエストロファンディング,0
1643,7010103002381,新規,0,2024-07-03,2024-07-03,合同会社ＫＥＹＳＴＯＮＥ,,合同会社,東京都,八王子市,みつい台２丁目１２番８号,,13,201,1920014,,,,,,,2024-07-03,1,,,,,キーストーン,0
1651,7010401183527,新規,0,2024-07-03,2024-07-03,株式会社ＤｅｘＡＩ,,株式会社,東京都,港区,虎ノ門１丁目１７番１号虎ノ門ヒルズビジネスタワー１５階,,13,103,1050001,,,,,,,2024-07-03,1,,,,,デックスエーアイ,0
1652,7010401183535,新規,0,2024-07-03,2024-07-03,株式会社ＭＹメディカル,,株式会社,東京都,港区,麻布台１丁目５番９号,,13,103,1060041,,,,,,,2024-07-03,1,,,,,マイメディカル,0
1661,7010501052540,新規,0,2024-07-03,2024-07-03,株式会社ＡＺＵＳＡ,,株式会社,東京都,台東区,谷中３丁目１８番１０号,,13,106,1100001,,,,,,,2024-07-03,1,,,,,アズサ,0
1662,7010601065467,新規,0,2024-07-03,2024-07-03,丸武ロジスティクス株式会社,,株式会社,東京都,江東区,東陽３丁目１４番３号オーラルレジデンス１０１号,,13,108,1350016,,,,,,,2024-07-03,1,,,,,マルタケロジスティクス,0
1663,7010601065483,新規,0,2024-07-03,2024-07-03,ｃｏｏｌ‐ｊａｐａｎ株式会社,,株式会社,東京都,江東区,猿江１丁目５番１－５０１号,,13,108,1350003,,,,,,,2024-07-03,1,,,,,クールジャパン,0
1668,7010803005007,新規,0,2024-07-03,2024-07-03,２２３合同会社,,合同会社,東京都,大田区,西蒲田１丁目１２番１９号,,13,111,1440051,,,,,,,2024-07-03,1,,,,,ニニサン,0
1676,7011001163051,新規,0,2024-07-03,2024-07-03,株式会社縁,,株式会社,東京都,渋谷区,松濤１丁目２９―２４シティコート松濤３０５,,13,113,1500046,,,,,,,2024-07-03,1,,,,,エン,0
1677,7011001163134,新規,0,2024-07-03,2024-07-03,株式会社ハウスハンティング,,株式会社,東京都,渋谷区,代々木２丁目３７番１５－３１５号,,13,113,1510053,,,,,,,2024-07-03,1,,,,,ハウスハンティング,0
1678,7011003019508,新規,0,2024-07-03,2024-07-03,合同会社Ｅｔｕｄｅ,,合同会社,東京都,目黒区,下目黒２丁目２０番２６号,,13,110,1530064,,,,,,,2024-07-03,1,,,,,エチュード,0
1679,7011003019524,新規,0,2024-07-03,2024-07-03,合同会社ｕｎｖｕｒｎ,,合同会社,東京都,渋谷区,渋谷２丁目１９番１５－６０９号宮益坂ビルディング,,13,113,1500002,,,,,,,2024-07-03,1,,,,,アンバーン,0
1683,7011301029811,新規,0,2024-07-03,2024-07-03,株式会社ｉｓｈｉｋａｋｋｏ,,株式会社,東京都,杉並区,善福寺１丁目１３番２１号,,13,115,1670041,,,,,,,2024-07-03,1,,,,,イシカッコ,0
1684,7011303005224,新規,0,2024-07-03,2024-07-03,クローズ・ＵＦ合同会社,,合同会社,東京都,杉並区,和田１丁目５７番Ｎ－４０３号,,13,115,1660012,,,,,,,2024-07-03,1,,,,,,0
1689,7011801044467,新規,0,2024-07-03,2024-07-03,日本楚氏株式会社,,株式会社,東京都,足立区,梅田１丁目１２番９号コーポバロン１０１号,,13,121,1230851,,,,,,,2024-07-03,1,,,,,ニホンソジ,0
1691,7012401042043,新規,0,2024-07-03,2024-07-03,株式会社エンビジョンナッジ,,株式会社,東京都,三鷹市,中原４丁目２１番２０号,,13,204,1810005,,,,,,,2024-07-03,1,,,,,エンビジョンナッジ,0
1698,7020003026430,新規,0,2024-07-03,2024-07-03,合同会社サイフォン,,合同会社,神奈川県,川崎市川崎区,駅前本町１１番地２川崎フロンティアビル４階,,14,131,2100007,,,,,,,2024-07-03,1,,,,,サイフォン,0
1699,7020003026496,新規,0,2024-07-03,2024-07-03,合同会社ハビック,,合同会社,神奈川県,横浜市西区,戸部本町１５番１４号ＳＲｂｌｄｇ２０１号,,14,103,2200041,,,,,,,2024-07-03,1,,,,,ハビック,0
1705,7021001082639,新規,0,2024-07-03,2024-07-03,株式会社海老原建設,,株式会社,神奈川県,海老名市,上今泉６丁目５７番２１号,,14,215,2430431,,,,,,,2024-07-03,1,,,,,エビハラケンセツ,0
1708,7021003014714,新規,0,2024-07-03,2024-07-03,ＪＹＮ合同会社,,合同会社,神奈川県,茅ヶ崎市,東海岸北３丁目１０番５６－１号,,14,207,2530053,,,,,,,2024-07-03,1,,,,,ジェイワイエヌ,0
1713,7030001161187,新規,0,2024-07-03,2024-07-03,生生株式会社,,株式会社,埼玉県,越谷市,蒲生西町２丁目１１番地２,,11,222,3430835,,,,,,,2024-07-03,1,,,,,イキイキ,0
1714,7030001161229,新規,0,2024-07-03,2024-07-03,株式会社村上建築工舎,,株式会社,埼玉県,所沢市,西新井町１５番１２－７号,,11,208,3590035,,,,,,,2024-07-03,1,,,,,ムラカミケンチクコウシャ,0
1717,7030003024581,新規,0,2024-07-03,2024-07-03,合同会社ＨＯＬＹ,,合同会社,埼玉県,川越市,大字鴨田１０９４番地６,,11,201,3500844,,,,,,,2024-07-03,1,,,,,ホーリー,0
1718,7030003024648,新規,0,2024-07-03,2024-07-03,合同会社グロースバレー,,合同会社,埼玉県,さいたま市桜区,西堀３丁目４番８号,,11,106,3380832,,,,,,,2024-07-03,1,,,,,グロースバレー,0
1726,7040001134299,新規,0,2024-07-03,2024-07-03,石井内装株式会社,,株式会社,千葉県,松戸市,秋山２１６番地の３９,,12,207,2702223,,,,,,,2024-07-03,1,,,,,イシイナイソウ,0
1729,7040003025307,新規,0,2024-07-03,2024-07-03,合同会社Ｒｅ．ｐａｒｄ,,合同会社,千葉県,市川市,若宮１丁目１３番６号,,12,203,2720812,,,,,,,2024-07-03,1,,,,,リパード,0
1734,7060001037236,新規,0,2024-07-03,2024-07-03,株式会社ＹＯＵＮＡＳ　ＴＲＡＤＩＮＧ,,株式会社,栃木県,栃木市,樋ノ口町４４－９,,09,203,3280024,,,,,,,2024-07-03,1,,,,,ユナストレーディング,0
1738,7070001000845,新規,0,2024-07-03,2024-07-03,極東建設株式会社,,株式会社,群馬県,前橋市,古市町１丁目６０番地１,,10,201,3710844,,,,,,,2024-07-03,1,,,,,キョクトウケンセツ,0
1743,7080001026360,新規,0,2024-07-03,2024-07-03,株式会社Ｆａｓｓ,,株式会社,静岡県,藤枝市,青木２丁目１６番２０－２０３号,,22,214,4260037,,,,,,,2024-07-03,1,,,,,ファス,0
1744,7080101024859,新規,0,2024-07-03,2024-07-03,株式会社ＹＫＳ,,株式会社,静岡県,富士市,大淵８１９２番地の５,,22,210,4170801,,,,,,,2024-07-03,1,,,,,ワイケーエス,0
1749,7080401027289,新規,0,2024-07-03,2024-07-03,株式会社クラッチワーカー,,株式会社,静岡県,浜松市中央区,上石田町１７８２番地の１フレーシュコリーヌ２０５,,22,138,4350001,,,,,,,2024-07-03,1,,,,,クラッチワーカー,0
1753,7090005007637,新規,0,2024-07-03,2024-07-03,一般社団法人昭和総合型地域スポーツクラブ・キャメリア,,その他の設立登記法人,山梨県,中巨摩郡昭和町,押越１５００番地１,,19,384,4093864,,,,,,,2024-07-03,1,,,,,ショウワソウゴウガタチイキスポーツクラブキャメリア,0
1754,7100003007629,新規,0,2024-07-03,2024-07-03,合同会社尾張屋,,合同会社,長野県,上田市,上田２０５７－７,,20,203,3860001,,,,,,,2024-07-03,1,,,,,オワリヤ,0
1755,7100003007645,新規,0,2024-07-03,2024-07-03,合同会社ＬｏｃａＬｅａｐ,,合同会社,長野県,茅野市,豊平５０００－１公立諏訪東京理科大学内,,20,214,3910213,,,,,,,2024-07-03,1,,,,,ローカリープ,0
1761,7120001266340,新規,0,2024-07-03,2024-07-03,東洋縫製株式会社,,株式会社,大阪府,門真市,大字三ツ島１５０８番地,,27,223,5710015,,,,,,,2024-07-03,1,,,,,トウヨウホウセイ,0
1762,7120001266357,新規,0,2024-07-03,2024-07-03,未来商事株式会社,,株式会社,大阪府,大阪市西成区,萩之茶屋１丁目１４番２０,,27,122,5570004,,,,,,,2024-07-03,1,,,,,ミライショウジ,0
1763,7120001266365,新規,0,2024-07-03,2024-07-03,ＴＥＮＥＴＳ株式会社,,株式会社,大阪府,大阪市東成区,中道３丁目３番３１－４０１号,,27,115,5370025,,,,,,,2024-07-03,1,,,,,テネッツ,0
1764,7120001266398,新規,0,2024-07-03,2024-07-03,ＪＢＣＴ株式会社,,株式会社,大阪府,大阪市中央区,南本町３丁目３番２５号アーバンライフ御堂筋本町タワー２２０３号室,,27,128,5410054,,,,,,,2024-07-03,1,,,,,ジェイビーシーティー,0
1765,7120001266431,新規,0,2024-07-03,2024-07-03,株式会社ＢＷＢ,,株式会社,大阪府,大阪市西区,土佐堀１丁目６番６号,,27,106,5500001,,,,,,,2024-07-03,1,,,,,ビーダブリュビー,0
1766,7120001266497,新規,0,2024-07-03,2024-07-03,株式会社協和,,株式会社,大阪府,大阪市旭区,大宮２丁目１５番１１号,,27,117,5350002,,,,,,,2024-07-03,1,,,,,キョウワ,0
1770,7120101069916,新規,0,2024-07-03,2024-07-03,株式会社宇都宮工務店,,株式会社,大阪府,泉佐野市,野出町１４番１７号,,27,213,5980041,,,,,,,2024-07-03,1,,,,,ウツノミヤコウムテン,0
1771,7120103005919,新規,0,2024-07-03,2024-07-03,ハヤブサリース合同会社,,合同会社,大阪府,貝塚市,堤３８１－２,,27,208,5970054,,,,,,,2024-07-03,1,,,,,ハヤブサリース,0
1775,7120901049415,新規,0,2024-07-03,2024-07-03,ＢＭＣ株式会社,,株式会社,大阪府,高槻市,京口町９番３号,,27,207,5690072,,,,,,,2024-07-03,1,,,,,ビーエムシー,0
1778,7122001038232,新規,0,2024-07-03,2024-07-03,株式会社やまと,,株式会社,大阪府,八尾市,久宝寺１丁目２番５号,,27,212,5810072,,,,,,,2024-07-03,1,,,,,ヤマト,0
1786,7140001134917,新規,0,2024-07-03,2024-07-03,株式会社エノケン,,株式会社,兵庫県,尼崎市,南塚口町５丁目１４番１９号,,28,202,6610012,,,,,,,2024-07-03,1,,,,,エノケン,0
1788,7140003020768,新規,0,2024-07-03,2024-07-03,せいわ興産合同会社,,合同会社,兵庫県,神戸市灘区,高徳町４丁目４番４号,,28,102,6570025,,,,,,,2024-07-03,1,,,,,セイワコウサン,0
1789,7150001027401,新規,0,2024-07-03,2024-07-03,株式会社Ｎ．ＷＯＲＫＳ,,株式会社,奈良県,生駒郡斑鳩町,法隆寺２丁目１１番２２号,,29,344,6360116,,,,,,,2024-07-03,1,,,,,エヌワークス,0
1797,7180003027025,新規,0,2024-07-03,2024-07-03,合同会社ＭＡＲＫＥＲ,,合同会社,愛知県,名古屋市南区,柴田町３丁目３０番地の１マナブビル２階,,23,112,4570815,,,,,,,2024-07-03,1,,,,,マーカー,0
1800,7180301038797,新規,0,2024-07-03,2024-07-03,Ｎテック株式会社,,株式会社,愛知県,岡崎市,北野町字高塚９番地１０,,23,202,4440951,,,,,,,2024-07-03,1,,,,,エヌテック,0
1804,7190001031457,新規,0,2024-07-03,2024-07-03,ＴＲＹ’Ｓ株式会社,,株式会社,三重県,伊勢市,下野町６５４番地２７５,,24,203,5160003,,,,,,,2024-07-03,1,,,,,トライズ,0
1806,7190005011967,新規,0,2024-07-03,2024-07-03,ミッドランド行政書士法人,,その他の設立登記法人,三重県,四日市市,久保田１丁目６番８号,,24,202,5100821,,,,,,,2024-07-03,1,,,,,ミッドランド,0
1808,7200003006406,新規,0,2024-07-03,2024-07-03,合同会社ＦＬＡＳＨ,,合同会社,岐阜県,可児郡御嵩町,御嵩１１３１番地３,,21,521,5050116,,,,,,,2024-07-03,1,,,,,フラッシュ,0
1812,7220001026073,新規,0,2024-07-03,2024-07-03,株式会社ＳＨＬＩＦＥ,,株式会社,石川県,かほく市,高松サ３２番地４ファルファーラＩＩ２０１,00135397,17,209,9291215,,,,,,,2024-07-03,1,,,,,エスエイチライフ,0
1813,7220001026081,新規,0,2024-07-03,2024-07-03,吉沢海雲株式会社,,株式会社,石川県,小松市,長田町リ７２番地,,17,203,9230034,,,,,,,2024-07-03,1,,,,,ヨシザワカイウン,0
1816,7240001063486,新規,0,2024-07-03,2024-07-03,プロトライアルエンジニアリング株式会社,,株式会社,広島県,広島市安佐南区,長束６丁目９番２６－９０５号,,34,105,7310135,,,,,,,2024-07-03,1,,,,,プロトライアルエンジニアリング,0
1817,7240001063494,新規,0,2024-07-03,2024-07-03,株式会社Ｒｅ　ｃｕｒａｔｏｒｓ,,株式会社,広島県,広島市南区,丹那町２６番１３号,,34,103,7340034,,,,,,,2024-07-03,1,,,,,リキュレイターズ,0
1819,7250001020718,新規,0,2024-07-03,2024-07-03,株式会社テラウッド,,株式会社,山口県,山口市,徳地伊賀地２１１５番地,,35,203,7470232,,,,,,,2024-07-03,1,,,,,テラウッド,0
1824,7270001009008,新規,0,2024-07-03,2024-07-03,株式会社小田,,株式会社,鳥取県,鳥取市,南吉方１丁目８６番地アルビオ・ガーデン南吉方８０４号,,31,201,6800843,,,,,,,2024-07-03,1,,,,,オダ,0
1831,7290001106380,新規,0,2024-07-03,2024-07-03,株式会社岡部屋本店,,株式会社,福岡県,福岡市博多区,住吉５丁目３０番２１号,,40,132,8120018,,,,,,,2024-07-03,1,,,,,オカベヤホンテン,0
1835,7290801030672,新規,0,2024-07-03,2024-07-03,株式会社ＲＹＵ,,株式会社,福岡県,北九州市小倉北区,砂津１丁目５番１２－２０２号,,40,106,8020014,,,,,,,2024-07-03,1,,,,,リュウ,0
1836,7290801030680,新規,0,2024-07-03,2024-07-03,トップボトルジャパン株式会社,,株式会社,福岡県,北九州市小倉北区,米町１丁目１番１号小倉駅前ひびきビル６階,,40,106,8020003,,,,,,,2024-07-03,1,,,,,トップボトルジャパン,0
1837,7310001019092,新規,0,2024-07-03,2024-07-03,株式会社ｃｌｅ　ｗｅｄｄｉｎｇ,,株式会社,長崎県,長崎市,大黒町１４番５号ホテルニュー長崎４Ｆ,,42,201,8500057,,,,,,,2024-07-03,1,,,,,クレウェディング,0
1841,7330003010460,新規,0,2024-07-03,2024-07-03,合同会社キビラー,,合同会社,熊本県,熊本市中央区,花畑町１―１４Ａ＆ＭＨＡＮＡＢＡＴＡ内,,43,101,8600806,,,,,,,2024-07-03,1,,,,,キビラー,0
1842,7340001026607,新規,0,2024-07-03,2024-07-03,株式会社インテリアユウキ,,株式会社,鹿児島県,鹿児島市,原良４丁目７番２２号,,46,201,8900026,,,,,,,2024-07-03,1,,,,,インテリアユウキ,0
1845,7360001033907,新規,0,2024-07-03,2024-07-03,Ｃｈａｔａｎ　Ｂｌｕｅ　Ｏｃｅａｎ　ＰＴ株式会社,,株式会社,沖縄県,沖縄市,園田３丁目２３番１０号,,47,211,9040022,,,,,,,2024-07-03,1,,,,,チャタンブルーオーシャンピーティー,0
1848,7360005007064,新規,0,2024-07-03,2024-07-03,一般社団法人ＢｏｗＬ,,その他の設立登記法人,沖縄県,浦添市,伊祖１丁目５番２号,,47,208,9012132,,,,,,,2024-07-03,1,,,,,ボウル,0
1849,7370001051478,新規,0,2024-07-03,2024-07-03,株式会社Ｎ電通工,,株式会社,宮城県,宮城郡七ヶ浜町,遠山３丁目５番６７号,,04,404,9850823,,,,,,,2024-07-03,1,,,,,エヌデンツウコウ,0
1851,7370003006661,新規,0,2024-07-03,2024-07-03,合同会社仙台響商事,,合同会社,宮城県,仙台市青葉区,小松島３丁目３番８号,,04,101,9810905,,,,,,,2024-07-03,1,,,,,センダイヒビキショウジ,0
1855,7400001016717,新規,0,2024-07-03,2024-07-03,株式会社こくや,,株式会社,岩手県,岩手郡雫石町,沼返９８番地１１,,03,301,0200506,,,,,,,2024-07-03,1,,,,,コクヤ,0
1857,7420003002952,新規,0,2024-07-03,2024-07-03,合同会社ＹＵＭｉＯ,,合同会社,青森県,十和田市,東十二番町１番３号エーデルハイムＡ,,02,206,0340016,,,,,,,2024-07-03,1,,,,,ユミオ,0
1861,7430001092160,新規,0,2024-07-03,2024-07-03,株式会社Ｎａｎａｌａ,,株式会社,北海道,北広島市,輪厚６３２－６０,,01,234,0611264,,,,,,,2024-07-03,1,,,,,ナナラ,0
1862,7430001092169,新規,0,2024-07-03,2024-07-03,株式会社ｌｉｅＮ,,株式会社,北海道,札幌市豊平区,美園三条５丁目１番１５号原ビル１階,,01,105,0620003,,,,,,,2024-07-03,1,,,,,リアン,0
1863,7430001092185,新規,0,2024-07-03,2024-07-03,株式会社九太,,株式会社,北海道,札幌市南区,白川１８１４番地９,,01,106,0612276,,,,,,,2024-07-03,1,,,,,キュウタ,0
1864,7430001092193,新規,0,2024-07-03,2024-07-03,株式会社頼政建築設計室,00135396,株式会社,北海道,札幌市西区,八軒四条東２丁目２番１号,,01,107,0630864,,,,,,,2024-07-03,1,,,,,ヨリマサケンチクセッケイシツ,0
1869,7430003016506,新規,0,2024-07-03,2024-07-03,合同会社ＲＡＮＤ　ＨＯＵＳＥ,,合同会社,北海道,札幌市手稲区,富丘二条４丁目１３番１１号,,01,109,0060012,,,,,,,2024-07-03,1,,,,,ランドハウス,0
1874,7500003003273,新規,0,2024-07-03,2024-07-03,ｔｉｎｙ‐ｆｒｏｎｔ合同会社,,合同会社,愛媛県,松山市,萱町３丁目２番地９ヴァレーレ萱町４０２号,,38,201,7900813,,,,,,,2024-07-03,1,,,,,タイニーフロント,0
1877,7700150126352,新規,0,2024-07-03,2024-07-03,羽島市地域公共交通協議会,,その他,岐阜県,羽島市,竹鼻町５５番地,,21,209,5016241,,,,,,,2024-07-03,1,,,,,ハシマシチイキコウキョウコウツウキョウギカイ,0
1893,8010401183402,新規,0,2024-07-03,2024-07-03,コムス株式会社,,株式会社,東京都,港区,浜松町２丁目２－１５浜松町ダイヤビル２Ｆ,,13,103,1050013,,,,,,,2024-07-03,1,,,,,コムス,0
1894,8010401183410,新規,0,2024-07-03,2024-07-03,株式会社ｎＥＳ,,株式会社,東京都,港区,北青山１丁目３番１号アールキューブ青山３階,,13,103,1070061,,,,,,,2024-07-03,1,,,,,ネッス,0
1895,8010401183501,新規,0,2024-07-03,2024-07-03,華茂株式会社,,株式会社,東京都,港区,西新橋３丁目１４番５号エラスムス虎ノ門３階,,13,103,1050003,,,,,,,2024-07-03,1,,,,,カモ,0
1898,8010403032912,新規,0,2024-07-03,2024-07-03,合同会社Ｃｏｒｚａ,,合同会社,東京都,港区,南青山７丁目１番２１－４１６号,,13,103,1070062,,,,,,,2024-07-03,1,,,,,コルザ,0
1899,8010403032937,新規,0,2024-07-03,2024-07-03,合同会社ネットワークサービスマネージメント,,合同会社,東京都,港区,北青山１丁目３番１号アールキューブ青山３階,,13,103,1070061,,,,,,,2024-07-03,1,,,,,ネットワークサービスマネージメント,0
1900,8010601065466,新規,0,2024-07-03,2024-07-03,株式会社南大門市場,,株式会社,東京都,墨田区,立花３丁目１０番５－１０２号,,13,107,1310043,,,,,,,2024-07-03,1,,,,,ナンダイモンイチバ,0
1901,8010601065490,新規,0,2024-07-03,2024-07-03,株式会社Ｔｓｕｍｕｔｏ,,株式会社,東京都,江東区,豊洲６丁目２－３１ＳＫＹＺ３０１５,,13,108,1350061,,,,,,,2024-07-03,1,,,,,ツムト,0
1906,8010801035194,新規,0,2024-07-03,2024-07-03,株式会社ＢＩＮＡＲＩＳＴＡ,,株式会社,東京都,大田区,下丸子２丁目１３番２－８０８号,,13,111,1460092,,,,,,,2024-07-03,1,,,,,バイナリスタ,0
1907,8010803005006,新規,0,2024-07-03,2024-07-03,ＲＥｉｎｎｏ合同会社,,合同会社,東京都,大田区,南蒲田２丁目９番２号１０１号室,,13,111,1440035,,,,,,,2024-07-03,1,,,,,リノー,0
1910,8011001162928,新規,0,2024-07-03,2024-07-03,株式会社ＡｌｌＢｒａｉｎ,,株式会社,東京都,渋谷区,道玄坂１丁目１０番８号渋谷道玄坂東急ビル２Ｆ－Ｃ,,13,113,1500043,,,,,,,2024-07-03,1,,,,,オールブレイン,0
1911,8011001163083,新規,0,2024-07-03,2024-07-03,株式会社おもいでづくり,,株式会社,東京都,渋谷区,渋谷３丁目２６番１７号ＶＯＲＴ渋谷９階,,13,113,1500002,,,,,,,2024-07-03,1,,,,,オモイデヅクリ,0
1912,8011001163141,新規,0,2024-07-03,2024-07-03,株式会社ウィズラボ,,株式会社,東京都,渋谷区,円山町１５番３号グランエストビル３Ｆ,,13,113,1500044,,,,,,,2024-07-03,1,,,,,ウィズラボ,0
1914,8011003019473,新規,0,2024-07-03,2024-07-03,ＴＫＧ合同会社,,合同会社,東京都,渋谷区,神宮前１丁目２３－８,,13,113,1500001,,,,,,,2024-07-03,1,,,,,ティーケージー,0
1915,8011003019498,新規,0,2024-07-03,2024-07-03,合同会社東京８スカーレット,,合同会社,東京都,目黒区,自由が丘２丁目１６番１２号ＲＪ３,,13,110,1520035,,,,,,,2024-07-03,1,,,,,トウキョウエイトスカーレット,0
1916,8011003019507,新規,0,2024-07-03,2024-07-03,合同会社ＮＡＭＩＵＳＡＧＩ,,合同会社,東京都,渋谷区,渋谷２丁目１９－１５宮益坂ビルディング６０９,,13,113,1500002,,,,,,,2024-07-03,1,,,,,ナミウサギ,0
1920,8011101107956,新規,0,2024-07-03,2024-07-03,Ｃｉｔｙ　Ｂａｓｅ株式会社,,株式会社,東京都,新宿区,西新宿８丁目１１番１０号,,13,104,1600023,,,,,,,2024-07-03,1,,,,,シティベース,0
1921,8011201025604,新規,0,2024-07-03,2024-07-03,ＢｙＢｅａｕｔｙ株式会社,,株式会社,東京都,中野区,東中野１丁目５８番８号パークハビオ東中野１５０２,,13,114,1640003,,,,,,,2024-07-03,1,,,,,バイビューティー,0
1924,8011403004439,新規,0,2024-07-03,2024-07-03,合同会社マクガフィン,,合同会社,東京都,板橋区,赤塚２丁目２３番２４－１０２号,,13,119,1750092,,,,,,,2024-07-03,1,,,,,マクガフィン,0
1929,8011601027869,新規,0,2024-07-03,2024-07-03,株式会社ＬｉｆｅＣａｒｒｙ,,株式会社,東京都,練馬区,南大泉１丁目７－２,,13,120,1780064,,,,,,,2024-07-03,1,,,,,ライフキャリー,0
1930,8011601027877,新規,0,2024-07-03,2024-07-03,シーエンシー・アーキテクト株式会社,,株式会社,東京都,練馬区,栄町１番２－１００４号,,13,120,1760006,,,,,,,2024-07-03,1,,,,,シーエンシーアキテクト,0
1932,8011703003891,新規,0,2024-07-03,2024-07-03,合同会社瑞桜舎,,合同会社,東京都,江戸川区,東小岩６丁目１４番６号,,13,123,1330052,,,,,,,2024-07-03,1,,,,,,0
1941,8012401042034,新規,0,2024-07-03,2024-07-03,ＦＯＣＥ株式会社,,株式会社,東京都,稲城市,大丸８６２－３,,13,225,2060801,,,,,,,2024-07-03,1,,,,,フォーチェ,0
1942,8012401042042,新規,0,2024-07-03,2024-07-03,株式会社ＯＣＥＡＮ,,株式会社,東京都,府中市,小柳町３丁目１６番地の３,,13,206,1830013,,,,,,,2024-07-03,1,,,,,オーシャン,0
1943,8012405005012,新規,0,2024-07-03,2024-07-03,弁護士法人しらと総合法律事務所,,その他の設立登記法人,東京都,調布市,布田５丁目２４番地１アビタシオンヨシノ２０１号室,,13,208,1820024,,,,,,,2024-07-03,1,,,,,シラトソウゴウホウリツジムショ,0
1946,8012703003031,新規,0,2024-07-03,2024-07-03,合同会社プラムコンサルティング,,合同会社,東京都,小平市,仲町１５９番地の６,,13,211,1870042,,,,,,,2024-07-03,1,,,,,プラムコンサルティング,0
1954,8020001157961,新規,0,2024-07-03,2024-07-03,株式会社ＢＬＯＯＭ,,株式会社,神奈川県,川崎市川崎区,渡田向町２９番１５号へーベルメゾン渡田向町２０２,,14,131,2100841,,,,,,,2024-07-03,1,,,,,ブルーム,0
1955,8020001157978,新規,0,2024-07-03,2024-07-03,株式会社Ｒ２Ｒ,,株式会社,神奈川県,川崎市川崎区,大島１丁目２７番６号,,14,131,2100834,,,,,,,2024-07-03,1,,,,,アールトゥアール,0
1960,8021001082662,新規,0,2024-07-03,2024-07-03,ティーマネジメント株式会社,,株式会社,神奈川県,平塚市,南金目８８８番地,,14,203,2591201,,,,,,,2024-07-03,1,,,,,ティーマネジメント,0
1961,8021001082670,新規,0,2024-07-03,2024-07-03,Ｗｉｓｅｐａｒｋ株式会社,,株式会社,神奈川県,茅ヶ崎市,東海岸北４丁目１４番６０号,,14,207,2530053,,,,,,,2024-07-03,1,,,,,ワイズパーク,0
1962,8021003014705,新規,0,2024-07-03,2024-07-03,合同会社バースデー,,合同会社,神奈川県,藤沢市,鵠沼桜が岡４丁目１６－８,00135399,14,205,2510027,,,,,,,2024-07-03,1,,,,,バースデー,0
1963,8021003014721,新規,0,2024-07-03,2024-07-03,合同会社福介,,合同会社,神奈川県,藤沢市,鵠沼神明５丁目７番１２号,00135398,14,205,2510021,,,,,,,2024-07-03,1,,,,,フクスケ,0
1987,8040003025297,新規,0,2024-07-03,2024-07-03,アソートジャパン合同会社,,合同会社,千葉県,千葉市若葉区,千城台東１丁目１９番５号,,12,104,2640002,,,,,,,2024-07-03,1,,,,,アソートジャパン,0
1990,8060001037251,新規,0,2024-07-03,2024-07-03,株式会社レーブ,,株式会社,栃木県,宇都宮市,下岡本町９２３番地,,09,201,3291104,,,,,,,2024-07-03,1,,,,,レーブ,0
1993,8070001041913,新規,0,2024-07-03,2024-07-03,株式会社ＹＳ,,株式会社,群馬県,伊勢崎市,茂呂町２丁目７７５－４,,10,204,3720034,,,,,,,2024-07-03,1,,,,,ワイエス,0
1999,8110003005440,新規,0,2024-07-03,2024-07-03,合同会社ＥＶＯＬＶＥ５,,合同会社,新潟県,新潟市中央区,古町通９番町１４６６番地２ＩＮビル,,15,103,9518063,,,,,,,2024-07-03,1,,,,,イボルブファイブ,0
2012,8120001266141,新規,0,2024-07-03,2024-07-03,株式会社エイト,,株式会社,大阪府,守口市,八雲中町１丁目１６番１７号,,27,209,5700005,,,,,,,2024-07-03,1,,,,,エイト,0
2013,8120001266372,新規,0,2024-07-03,2024-07-03,株式会社荒野小桃花,,株式会社,大阪府,大阪市中央区,南船場２丁目１１番４－３０６号,,27,128,5420081,,,,,,,2024-07-03,1,,,,,コウヤコトウカ,0
2014,8120001266380,新規,0,2024-07-03,2024-07-03,ＦＡＮＣＹ　ＬＡＢ　ＪＰ株式会社,,株式会社,大阪府,大阪市北区,堂山町１５番２３－１００７号,,27,127,5300027,,,,,,,2024-07-03,1,,,,,ファンシーラボジェイピー,0
2015,8120001266389,新規,0,2024-07-03,2024-07-03,清和株式会社,,株式会社,大阪府,大阪市阿倍野区,北畠３丁目４番１２－３０１号,,27,119,5450035,,,,,,,2024-07-03,1,,,,,セイワ,0
2016,8120001266439,新規,0,2024-07-03,2024-07-03,巨利投資株式会社,,株式会社,大阪府,大阪市中央区,南久宝寺町４丁目５番１１号ライオンズマンション御堂本町３０６号室,,27,128,5410058,,,,,,,2024-07-03,1,,,,,キョリトウシ,0
2017,8120001266505,新規,0,2024-07-03,2024-07-03,株式会社リバーライズ,,株式会社,大阪府,大阪市中央区,森ノ宮中央２丁目１３番３５－１１１４号,,27,128,5400003,,,,,,,2024-07-03,1,,,,,リバーライズ,0
2023,8120003026790,新規,0,2024-07-03,2024-07-03,ＳＴＡＲＳ合同会社,,合同会社,大阪府,大阪市此花区,西九条２丁目６番１号ブランパレビル８Ｆ,,27,104,5540012,,,,,,,2024-07-03,1,,,,,スターズ,0
2027,8120101069915,新規,0,2024-07-03,2024-07-03,株式会社アーキテクト,,株式会社,大阪府,堺市南区,別所１５６０－６０,,27,145,5900135,,,,,,,2024-07-03,1,,,,,アーキテクト,0
2031,8120901049406,新規,0,2024-07-03,2024-07-03,株式会社三恵,,株式会社,大阪府,箕面市,箕面３丁目１５番４号,,27,220,5620001,,,,,,,2024-07-03,1,,,,,サンケイ,0
2040,8130001077372,新規,0,2024-07-03,2024-07-03,月御工業株式会社,,株式会社,京都府,福知山市,字前田１６８３番地の１,,26,201,6200867,,,,,,,2024-07-03,1,,,,,ツキミコウギョウ,0
2041,8130001077380,新規,0,2024-07-03,2024-07-03,フルアヘッド株式会社,,株式会社,京都府,京丹後市,弥栄町木橋６１７番地の１,,26,212,6270132,,,,,,,2024-07-03,1,,,,,フルアヘッド,0
2045,8140001134882,新規,0,2024-07-03,2024-07-03,ａ　Ｄｕｃｋ株式会社,,株式会社,兵庫県,南あわじ市,倭文高４９９番地１,,28,224,6560411,,,,,,,2024-07-03,1,,,,,アダック,0
2046,8140001134965,新規,0,2024-07-03,2024-07-03,株式会社統電,,株式会社,兵庫県,尼崎市,立花町３丁目３７番１０－４０７号,,28,202,6610025,,,,,,,2024-07-03,1,,,,,トウデン,0
2051,8150001027400,新規,0,2024-07-03,2024-07-03,株式会社トクナガ,,株式会社,奈良県,大和高田市,大字西坊城１２番地４,,29,202,6350058,,,,,,,2024-07-03,1,,,,,トクナガ,0
2060,8180001162186,新規,0,2024-07-03,2024-07-03,株式会社栄都不動産,,株式会社,愛知県,瀬戸市,北山町１４５番地の３,,23,204,4890984,,,,,,,2024-07-03,1,,,,,エイトフドウサン,0
2061,8180001162228,新規,0,2024-07-03,2024-07-03,株式会社ＢＬＭ,,株式会社,愛知県,名古屋市東区,葵２丁目１３番３号ツインクルガーデン８０２号,,23,102,4610004,,,,,,,2024-07-03,1,,,,,ビーエルエム,0
2062,8180001162236,新規,0,2024-07-03,2024-07-03,株式会社エフ・アシスト,,株式会社,愛知県,海部郡大治町,大字西條字諏訪２０番地の１７,,23,424,4901144,,,,,,,2024-07-03,1,,,,,エフアシスト,0
2065,8180301038796,新規,0,2024-07-03,2024-07-03,ｇｒｅｅｎ　ｓｕｐｐｌｙ　ＳＴＯＮＥ　ＷＯＲＫＳ株式会社,,株式会社,愛知県,額田郡幸田町,大字久保田字上ノ山２７番地７,,23,501,4440102,,,,,,,2024-07-03,1,,,,,グリーンサプライストーンワークス,0
2069,8180303006165,新規,0,2024-07-03,2024-07-03,合同会社ＡＭＳ,,合同会社,愛知県,岡崎市,上地３丁目３９番地１グリーンハイツ上地２０７,,23,202,4440823,,,,,,,2024-07-03,1,,,,,アムズ,0
2073,8220001026072,新規,0,2024-07-03,2024-07-03,株式会社Ｂｅ　ｙｏｕｒｓｅｌｆ,,株式会社,石川県,金沢市,竪町２１番地ムロノコレクションビル３階,,17,201,9200997,,,,,,,2024-07-03,1,,,,,ビーユアセルフ,0
2078,8240001063452,新規,0,2024-07-03,2024-07-03,株式会社ＮＥＯ‐ＧＲＩＴ,,株式会社,広島県,福山市,新市町大字下安井１５１番地１,,34,207,7293105,,,,,,,2024-07-03,1,,,,,ネオグリット,0
2079,8240001063469,新規,0,2024-07-03,2024-07-03,株式会社ウェストアンドフォレスト,,株式会社,広島県,広島市佐伯区,藤の木３丁目２１番６号,,34,108,7315103,,,,,,,2024-07-03,1,,,,,ウェストアンドフォレスト,0
2080,8240001063485,新規,0,2024-07-03,2024-07-03,ＴＨＲＥＥ‐Ｓ株式会社,,株式会社,広島県,広島市中区,銀山町５－１０エンタービル２０１,,34,101,7300022,,,,,,,2024-07-03,1,,,,,スリーエス,0
2081,8240001063493,新規,0,2024-07-03,2024-07-03,株式会社ＳＥＥＤ,,株式会社,広島県,広島市中区,八丁堀１番２３号,,34,101,7300013,,,,,,,2024-07-03,1,,,,,シード,0
2086,8290001106280,新規,0,2024-07-03,2024-07-03,朝日不動産株式会社,,株式会社,福岡県,福岡市南区,井尻２丁目３７番１０－１０３号エクセレント大和,,40,134,8111302,,,,,,,2024-07-03,1,,,,,アサヒフドウサン,0
2087,8290001106322,新規,0,2024-07-03,2024-07-03,株式会社不動産総合研究所,,株式会社,福岡県,福岡市中央区,天神２丁目３番１０号天神パインクレスト７１９号,,40,133,8100001,,,,,,,2024-07-03,1,,,,,フドウサンソウゴウケンキュウショ,0
2088,8290001106347,新規,0,2024-07-03,2024-07-03,Ａ．Ｊ警備保障株式会社,,株式会社,福岡県,小郡市,大保１２１７番地１ディアコーポ大保１０２号,,40,216,8380115,,,,,,,2024-07-03,1,,,,,エージェーケイビホショウ,0
2090,8290003015505,新規,0,2024-07-03,2024-07-03,ぼっちの冒険合同会社,,合同会社,福岡県,福岡市東区,下原４丁目７番９号,,40,131,8130002,,,,,,,2024-07-03,1,,,,,ボッチノボウケン,0
2091,8290003015513,新規,0,2024-07-03,2024-07-03,合同会社ＡＩＭ,,合同会社,福岡県,小郡市,二タ１２９８番地,,40,216,8380100,,,,,,,2024-07-03,1,,,,,エーアイエム,0
2095,8290005019438,新規,0,2024-07-03,2024-07-03,一般社団法人福岡シーサイド未来都市会議所,,その他の設立登記法人,福岡県,福岡市早良区,西新５丁目６番３０－５０２号,,40,137,8140002,,,,,,,2024-07-03,1,,,,,フクオカシーサイドミライトシカイギショ,0
2100,8330001032217,新規,0,2024-07-03,2024-07-03,株式会社富産業,,株式会社,熊本県,熊本市南区,富合町古閑９５５番地１,,43,104,8614157,,,,,,,2024-07-03,1,,,,,トミサンギョウ,0
2107,8360005007063,新規,0,2024-07-03,2024-07-03,一般社団法人ＯＣＦＳ,,その他の設立登記法人,沖縄県,浦添市,牧港２丁目４番１号,,47,208,9012131,,,,,,,2024-07-03,1,,,,,オーシーエフエス,0
2114,8370003006660,新規,0,2024-07-03,2024-07-03,合同会社癒やしの里づくりの会,,合同会社,宮城県,柴田郡川崎町,大字川内字河原前３３番地,,04,324,9891503,,,,,,,2024-07-03,1,,,,,イヤシノサトヅクリノカイ,0
2120,8420001018776,新規,0,2024-07-03,2024-07-03,株式会社ＧＨＩＭＩＲＥ　ＩＮＴＥＲＮＡＴＩＯＮＡＬ,,株式会社,青森県,弘前市,大字駅前１丁目１番地１,,02,202,0368002,,,,,,,2024-07-03,1,,,,,ギミレインターナショナル,0
2121,8420001018784,新規,0,2024-07-03,2024-07-03,コマサフードマネジメント株式会社,,株式会社,青森県,青森市,橋本１丁目１番１３号,,02,201,0300823,,,,,,,2024-07-03,1,,,,,コマサフードマネジメント,0
2125,8430001092151,新規,0,2024-07-03,2024-07-03,株式会社あおいテクノロジー,,株式会社,北海道,札幌市白石区,菊水四条１丁目７番１６号,,01,104,0030804,,,,,,,2024-07-03,1,,,,,アオイテクノロジー,0
2126,8430001092176,新規,0,2024-07-03,2024-07-03,株式会社勇建,,株式会社,北海道,札幌市北区,新川西三条７丁目２番１７号,,01,102,0010933,,,,,,,2024-07-03,1,,,,,ユウケン,0
2127,8430001092184,新規,0,2024-07-03,2024-07-03,奈思株式会社,,株式会社,北海道,札幌市豊平区,中の島一条９丁目４番１４－２０３号,,01,105,0620921,,,,,,,2024-07-03,1,,,,,ナイス,0
2129,8430003016513,新規,0,2024-07-03,2024-07-03,合同会社グロワール,,合同会社,北海道,札幌市白石区,北郷七条８丁目７番７号,,01,104,0030837,,,,,,,2024-07-03,1,,,,,グロワール,0
2130,8430003016521,新規,0,2024-07-03,2024-07-03,合同会社ＮＧＵ,,合同会社,北海道,札幌市中央区,南八条西６丁目２８９番地１９５,,01,101,0640808,,,,,,,2024-07-03,1,,,,,エヌジーユー,0
2131,8450003002511,新規,0,2024-07-03,2024-07-03,合同会社ＫＩＴＡ,,合同会社,北海道,旭川市,二条通７丁目２００４番地の１,,01,204,0700032,,,,,,,2024-07-03,1,,,,,キタ,0
2153,9010401183426,新規,0,2024-07-03,2024-07-03,ニコタスラボ株式会社,,株式会社,東京都,港区,芝公園２丁目１１番２５－６０３号,,13,103,1050011,,,,,,,2024-07-03,1,,,,,ニコタスラボ,0
2156,9010403032911,新規,0,2024-07-03,2024-07-03,合同会社Ｇｏｅｓｕ,,合同会社,東京都,港区,南青山２丁目２番１５号,,13,103,1070062,,,,,,,2024-07-03,1,,,,,ゴエス,0
2157,9010403032936,新規,0,2024-07-03,2024-07-03,京橋企業投資合同会社,,合同会社,東京都,港区,虎ノ門４丁目３番２０号,,13,103,1050001,,,,,,,2024-07-03,1,,,,,キョウバシキギョウトウシ,0
2159,9010501052547,新規,0,2024-07-03,2024-07-03,株式会社菅原弁当,,株式会社,東京都,台東区,台東３丁目２－１１,,13,106,1100016,,,,,,,2024-07-03,1,,,,,スガワラベントウ,0
2160,9010601065465,新規,0,2024-07-03,2024-07-03,株式会社ＣＬＩＮＫ,,株式会社,東京都,江東区,塩浜２丁目５番１－４１８号,,13,108,1350043,,,,,,,2024-07-03,1,,,,,クリンク,0
2161,9010601065481,新規,0,2024-07-03,2024-07-03,株式会社アールゲート,,株式会社,東京都,墨田区,墨田４丁目５番１号,,13,107,1310031,,,,,,,2024-07-03,1,,,,,アールゲート,0
2165,9010801035193,新規,0,2024-07-03,2024-07-03,株式会社Ｂｌｕｅｐｒｉｎｔ　Ｌａｂｏｒａｔｏｒｙ,,株式会社,東京都,大田区,田園調布本町６番１６号,,13,111,1450072,,,,,,,2024-07-03,1,,,,,ブループリントラボラトリー,0
2167,9010901055570,新規,0,2024-07-03,2024-07-03,株式会社繊月,,株式会社,東京都,世田谷区,代田５丁目２９番１１号,,13,112,1550033,,,,,,,2024-07-03,1,,,,,センゲツ,0
2169,9010903009194,新規,0,2024-07-03,2024-07-03,合同会社エックスエクスプレス,,合同会社,東京都,世田谷区,中町３丁目２１番２２号,,13,112,1580091,,,,,,,2024-07-03,1,,,,,エックスエクスプレス,0
2172,9011001163124,新規,0,2024-07-03,2024-07-03,株式会社みぎひだり,,株式会社,東京都,渋谷区,道玄坂１丁目１０番８号渋谷道玄坂東急ビル２Ｆ－Ｃ,,13,113,1500043,,,,,,,2024-07-03,1,,,,,ミギヒダリ,0
2173,9011001163165,新規,0,2024-07-03,2024-07-03,株式会社ＳＯＷ．,,株式会社,東京都,渋谷区,桜丘町２３番１７号シティコート桜丘４０８,,13,113,1500031,,,,,,,2024-07-03,1,,,,,ソウ,0
2174,9011001163173,新規,0,2024-07-03,2024-07-03,株式会社ＤｅｅｐＭｉｎｄ　Ｊａｐａｎ,,株式会社,東京都,渋谷区,鶯谷町１９－３－３１０号フィーノ渋谷,,13,113,1500032,,,,,,,2024-07-03,1,,,,,ディープマインドジャパン,0
2177,9011003019472,新規,0,2024-07-03,2024-07-03,合同会社ＭＥＳＭ,,合同会社,東京都,渋谷区,渋谷２丁目１９番１５,,13,113,1500002,,,,,,,2024-07-03,1,,,,,メズム,0
2178,9011003019506,新規,0,2024-07-03,2024-07-03,合同会社Ｃｏｌｏｓｓｕｓ　Ｐｉｃｔｕｒｅｓ,,合同会社,東京都,渋谷区,渋谷２丁目１９－１５宮益坂ビルディング６０９,,13,113,1500002,,,,,,,2024-07-03,1,,,,,コロッサスピクチャーズ,0
2179,9011003019522,新規,0,2024-07-03,2024-07-03,Ｃｏｎｎｅｃｔ　ｕｐ合同会社,,合同会社,東京都,目黒区,自由が丘２丁目１６番１２号ＲＪ３,,13,110,1520035,,,,,,,2024-07-03,1,,,,,コネクトアップ,0
2181,9011101107914,新規,0,2024-07-03,2024-07-03,ＩＳＫ株式会社,,株式会社,東京都,新宿区,新宿２丁目４番１号,,13,104,1600022,,,,,,,2024-07-03,1,,,,,アイエスケイ,0
2187,9011203004431,新規,0,2024-07-03,2024-07-03,ＫＣＮＹ合同会社,,合同会社,東京都,中野区,上鷺宮１丁目１６番２号,,13,114,1650031,,,,,,,2024-07-03,1,,,,,ケーシーエヌワイ,0
2204,9012401042041,新規,0,2024-07-03,2024-07-03,株式会社ＥＮ,,株式会社,東京都,府中市,府中町１丁目２番地の１ぷらりと京王府中西７階ＫＥＩＯＢＩＺＰＬＡＺＡ,,13,206,1830055,,,,,,,2024-07-03,1,,,,,エン,0
2214,9020001157845,新規,0,2024-07-03,2024-07-03,株式会社ハルク,,株式会社,神奈川県,横浜市緑区,中山１丁目６－１－４０１,,14,113,2260019,,,,,,,2024-07-03,1,,,,,ハルク,0
2215,9020001157853,新規,0,2024-07-03,2024-07-03,ＤＮＡＲＢ株式会社,,株式会社,神奈川県,横浜市青葉区,みたけ台１９番地１―２０１,,14,117,2270047,,,,,,,2024-07-03,1,,,,,ドゥナーブ,0
2220,9020003026412,新規,0,2024-07-03,2024-07-03,合同会社６分の１,,合同会社,神奈川県,横浜市磯子区,洋光台５丁目７番２２－２０１号,,14,107,2350045,,,,,,,2024-07-03,1,,,,,ロクブンノイチ,0
2221,9020003026437,新規,0,2024-07-03,2024-07-03,ライフラバー合同会社,,合同会社,神奈川県,横浜市中区,伊勢佐木町４丁目１１４番地－１０２号,,14,104,2310045,,,,,,,2024-07-03,1,,,,,ライフラバー,0
2229,9021001082629,新規,0,2024-07-03,2024-07-03,株式会社モリワールド,,株式会社,神奈川県,横須賀市,佐野町６丁目２５番地,,14,201,2380052,,,,,,,2024-07-03,1,,,,,モリワールド,0
2230,9021001082637,新規,0,2024-07-03,2024-07-03,うち田工務店株式会社,,株式会社,神奈川県,三浦郡葉山町,長柄１３８０番地,,14,301,2400113,,,,,,,2024-07-03,1,,,,,ウチダコウムテン,0
2231,9021001082645,新規,0,2024-07-03,2024-07-03,株式会社ＴＡＩＹＯ建設,,株式会社,神奈川県,大和市,下鶴間２５７６番地２９,,14,213,2420001,,,,,,,2024-07-03,1,,,,,タイヨウケンセツ,0
2232,9021001082661,新規,0,2024-07-03,2024-07-03,株式会社ヤンモ,,株式会社,神奈川県,平塚市,菫平１１番１３号,,14,203,2540822,,,,,,,2024-07-03,1,,,,,ヤンモ,0
2234,9021003014712,新規,0,2024-07-03,2024-07-03,Ｔコーポレーション合同会社,,合同会社,神奈川県,座間市,相模が丘４丁目６１－８,,14,216,2520001,,,,,,,2024-07-03,1,,,,,ティーコーポレーション,0
2237,9030001161185,新規,0,2024-07-03,2024-07-03,六六商事株式会社,,株式会社,埼玉県,さいたま市大宮区,桜木町１丁目１９５番地１大宮ソラミチＫＯＺエキスパートオフィス大宮,,11,103,3300854,,,,,,,2024-07-03,1,,,,,ロクロクショウジ,0
2239,9030003024621,新規,0,2024-07-03,2024-07-03,Ｊａｐａｎ　Ｓｏｃｉａｌ　Ｆｉｇｈｔｅｒｓ合同会社,,合同会社,埼玉県,新座市,石神１丁目９番１２号,,11,230,3520033,,,,,,,2024-07-03,1,,,,,ジャパンソーシャルファイターズ,0
2242,9040001134297,新規,0,2024-07-03,2024-07-03,株式会社Ｎステップ,,株式会社,千葉県,成田市,土屋１８２７番地１（ジラソール２０３）,,12,211,2860021,,,,,,,2024-07-03,1,,,,,エヌステップ,0
2247,9040003025305,新規,0,2024-07-03,2024-07-03,合同会社たくみ,,合同会社,千葉県,茂原市,下太田３８０番地３,,12,210,2994123,,,,,,,2024-07-03,1,,,,,タクミ,0
2248,9040003025313,新規,0,2024-07-03,2024-07-03,合同会社かご屋,,合同会社,千葉県,柏市,柏１３４８番地の１４,,12,217,2770005,,,,,,,2024-07-03,1,,,,,カゴヤ,0
2253,9070001041937,新規,0,2024-07-03,2024-07-03,マハロフルーツファーム株式会社,,株式会社,群馬県,藤岡市,立石１２１３番地４,,10,209,3750002,,,,,,,2024-07-03,1,,,,,マハロフルーツファーム,0
2262,9080101024857,新規,0,2024-07-03,2024-07-03,株式会社栄製作所,,株式会社,静岡県,沼津市,大諏訪６２４番地,,22,203,4100873,,,,,,,2024-07-03,1,,,,,サカエセイサクショ,0
2267,9110001038524,新規,0,2024-07-03,2024-07-03,株式会社ＣＬＥＡＲＳ,,株式会社,新潟県,新潟市中央区,愛宕３丁目１０番地４,,15,103,9500944,,,,,,,2024-07-03,1,,,,,クリアーズ,0
2273,9120001266339,新規,0,2024-07-03,2024-07-03,大治不動産株式会社,,株式会社,大阪府,大阪市中央区,南船場３丁目１番８号,,27,128,5420081,,,,,,,2024-07-03,1,,,,,タイジフドウサン,0
2274,9120001266388,新規,0,2024-07-03,2024-07-03,明珊株式会社,,株式会社,大阪府,大阪市都島区,中野町４丁目３番６号Ｈ２Ｈ大阪桜之宮邸３Ｂ－２,,27,102,5340027,,,,,,,2024-07-03,1,,,,,メイサン,0
2275,9120001266396,新規,0,2024-07-03,2024-07-03,ＫＥＥＰ　ＤＲＥＡＭＩＮＧ株式会社,,株式会社,大阪府,大阪市天王寺区,伶人町２－３１ＳｔａｒＯｆｆｉｃｅ天王寺北７０２号室,,27,109,5430061,,,,,,,2024-07-03,1,,,,,キープドリーミング,0
2276,9120001266438,新規,0,2024-07-03,2024-07-03,株式会社中谷,,株式会社,大阪府,門真市,江端町３２番７号,,27,223,5710012,,,,,,,2024-07-03,1,,,,,ナカタニ,0
2277,9120001266470,新規,0,2024-07-03,2024-07-03,株式会社プロアスティオ,,株式会社,大阪府,大阪市北区,芝田２丁目１－１８西阪急ビル１Ｆ,,27,127,5300012,,,,,,,2024-07-03,1,,,,,プロアスティオ,0
2278,9120001266520,新規,0,2024-07-03,2024-07-03,株式会社ジョブエル,,株式会社,大阪府,大阪市北区,曾根崎１丁目３番１５号ウエスト梅新ビル６０１,,27,127,5300057,,,,,,,2024-07-03,1,,,,,ジョブエル,0
2280,9120005024395,新規,0,2024-07-03,2024-07-03,一般社団法人凸凹福祉会,,その他の設立登記法人,大阪府,寝屋川市,萱島東２丁目１３番２９号,,27,215,5720824,,,,,,,2024-07-03,1,,,,,デコボコフクシカイ,0
2287,9120901049413,新規,0,2024-07-03,2024-07-03,株式会社Ｍ．ｒｅｓｔ,,株式会社,大阪府,吹田市,岸部中１丁目２４番３３号－２０３,,27,205,5640002,,,,,,,2024-07-03,1,,,,,エムレスト,0
2291,9122001038247,新規,0,2024-07-03,2024-07-03,Ｒｏｓｓｏｌｅａ株式会社,,株式会社,大阪府,東大阪市,花園本町１丁目７－１９,,27,227,5780937,,,,,,,2024-07-03,1,,,,,ロッソレア,0
2295,9130001077413,新規,0,2024-07-03,2024-07-03,株式会社ＴＳＵＣＨＩＴＡＫＡ,,株式会社,京都府,京都市中京区,堀川通六角下る岩上町７４１リライブ堀川１０１,,26,104,6048341,,,,,,,2024-07-03,1,,,,,ツチタカ,0
2296,9130001077421,新規,0,2024-07-03,2024-07-03,株式会社Ｖ　Ｓｐａ,,株式会社,京都府,京都市左京区,下鴨東本町９番地７ＧＡＲＮＥＴＲＥＳＩＤＥＮＣＥ下鴨４０１,,26,103,6060863,,,,,,,2024-07-03,1,,,,,ブイスパ,0
2306,9150001027399,新規,0,2024-07-03,2024-07-03,株式会社エネルーフ,,株式会社,奈良県,北葛城郡上牧町,下牧１丁目１番５０号,,29,424,6390205,,,,,,,2024-07-03,1,,,,,エネルーフ,0
2307,9150003003299,新規,0,2024-07-03,2024-07-03,合同会社旅行企画飛鳥,,合同会社,奈良県,橿原市,縄手町２８番地の３,,29,205,6340073,,,,,,,2024-07-03,1,,,,,リョコウキカクアスカ,0
2308,9160001026037,新規,0,2024-07-03,2024-07-03,株式会社ＺＥＭＮＵＳ,,株式会社,滋賀県,長浜市,平方町１２９５番地アウルコート長浜アクアージェ１４０３号室,,25,203,5260033,,,,,,,2024-07-03,1,,,,,ゼムナス,0
2309,9160001026045,新規,0,2024-07-03,2024-07-03,株式会社ｍａｓｈ,,株式会社,滋賀県,甲賀市,水口町中邸５番３８号,,25,209,5280024,,,,,,,2024-07-03,1,,,,,マッシュ,0
2318,9180001162227,新規,0,2024-07-03,2024-07-03,株式会社デュナミス,,株式会社,愛知県,清須市,西枇杷島町替地２５番地６,,23,233,4520067,,,,,,,2024-07-03,1,,,,,デュナミス,0
2319,9180001162235,新規,0,2024-07-03,2024-07-03,ワントーンデザイン株式会社,,株式会社,愛知県,名古屋市中村区,名駅南１丁目１２番１７号,,23,105,4500003,,,,,,,2024-07-03,1,,,,,ワントーンデザイン,0
2320,9180001162276,新規,0,2024-07-03,2024-07-03,株式会社奥薗工業,,株式会社,愛知県,名古屋市守山区,瀬古１丁目１３２４番地ダイアパレス矢田リバーズガーデン４０２号,,23,113,4630068,,,,,,,2024-07-03,1,,,,,オクゾノコウギョウ,0
2323,9180003027023,新規,0,2024-07-03,2024-07-03,合同会社エスエナジー,,合同会社,愛知県,名古屋市緑区,鏡田８１５番地,,23,114,4580803,,,,,,,2024-07-03,1,,,,,エスエナジー,0
2324,9180005020686,新規,0,2024-07-03,2024-07-03,医療法人千祐会,,その他の設立登記法人,愛知県,東海市,荒尾町山王前１６８番地,,23,222,4760003,,,,,,,2024-07-03,1,,,,,センユウカイ,0
2327,9190001031463,新規,0,2024-07-03,2024-07-03,株式会社和,,株式会社,三重県,桑名市,東矢田町７５番地,,24,205,5110055,,,,,,,2024-07-03,1,,,,,カズ,0
2330,9190003004731,新規,0,2024-07-03,2024-07-03,リユーストラスト合同会社,,合同会社,三重県,松阪市,平成町２番地１２,,24,204,5150824,,,,,,,2024-07-03,1,,,,,リユーストラスト,0
2331,9190005011965,新規,0,2024-07-03,2024-07-03,一般社団法人三重ゼッツベースボールクラブ,,その他の設立登記法人,三重県,津市,安濃町内多２０３９番地５,,24,201,5142303,,,,,,,2024-07-03,1,,,,,ミエゼッツベースボールクラブ,0
2335,9210003001809,新規,0,2024-07-03,2024-07-03,合同会社ＣＯＣＯＲＯＨＯＭＥ,,合同会社,福井県,福井市,問屋町４丁目３１１番地１,,18,201,9188231,,,,,,,2024-07-03,1,,,,,ココロホーム,0
2338,9220003003779,新規,0,2024-07-03,2024-07-03,合同会社以満,,合同会社,石川県,金沢市,東山３丁目１５番７号,,17,201,9200831,,,,,,,2024-07-03,1,,,,,イマ,0
2339,9230001020412,新規,0,2024-07-03,2024-07-03,株式会社ＴＡＫＵ　ＦＡＲＭ,,株式会社,富山県,下新川郡入善町,高畠３５３番地２,,16,342,9390666,,,,,,,2024-07-03,1,,,,,タクファーム,0
2341,9240003006747,新規,0,2024-07-03,2024-07-03,合同会社ＨＫＨ,,合同会社,広島県,広島市安佐南区,山本新町２丁目９番２４号,,34,105,7310139,,,,,,,2024-07-03,1,,,,,エイチケイエイチ,0
2345,9260001039235,新規,0,2024-07-03,2024-07-03,みらいトラスト株式会社,,株式会社,岡山県,岡山市北区,青江５丁目１５番２１－１号,,33,101,7000941,,,,,,,2024-07-03,1,,,,,ミライトラスト,0
2352,9290001106321,新規,0,2024-07-03,2024-07-03,株式会社Ｏｒｉｇａｍｉ,,株式会社,福岡県,福岡市南区,的場２丁目１４番９号,,40,134,8111314,,,,,,,2024-07-03,1,,,,,オリガミ,0
2353,9290001106338,新規,0,2024-07-03,2024-07-03,星株式会社,,株式会社,福岡県,福岡市城南区,別府１丁目１０番３４－２０１号,,40,136,8140104,,,,,,,2024-07-03,1,,,,,ホシ,0
2354,9290801030679,新規,0,2024-07-03,2024-07-03,株式会社テモック,,株式会社,福岡県,北九州市八幡西区,金剛３丁目５番５６号,,40,109,8071263,,,,,,,2024-07-03,1,,,,,テモック,0
2362,9330001032208,新規,0,2024-07-03,2024-07-03,華懋科技株式会社,,株式会社,熊本県,熊本市東区,御領６丁目１番５９号,,43,102,8618035,,,,,,,2024-07-03,1,,,,,カボウカギ,0
2364,9330003010450,新規,0,2024-07-03,2024-07-03,合同会社プレミア,,合同会社,熊本県,合志市,豊岡２０００番地３６２,,43,216,8611115,,,,,,,2024-07-03,1,,,,,プレミア,0
2365,9340003004526,新規,0,2024-07-03,2024-07-03,合同会社ふかや,,合同会社,鹿児島県,鹿児島市,上荒田町５６番１－１０３０号,,46,201,8900055,,,,,,,2024-07-03,1,,,,,フカヤ,0
2367,9340005009754,新規,0,2024-07-03,2024-07-03,特定非営利活動法人里親と犬猫を守る会,,その他の設立登記法人,鹿児島県,南九州市,川辺町上山田３９３４番地,,46,223,8970131,,,,,,,2024-07-03,1,,,,,サトオヤトイヌネコヲマモルカイ,0
2369,9360001033896,新規,0,2024-07-03,2024-07-03,株式会社大嶺住設,,株式会社,沖縄県,豊見城市,字上田４５８番地１,,47,212,9010243,,,,,,,2024-07-03,1,,,,,オオミネジュウセツ,0
2373,9360003014110,新規,0,2024-07-03,2024-07-03,合同会社ＭＡＥＮＴＯ,,合同会社,沖縄県,沖縄市,桃原４丁目１４番６号,,47,211,9042164,,,,,,,2024-07-03,1,,,,,マエント,0
2374,9370001051476,新規,0,2024-07-03,2024-07-03,株式会社リス,,株式会社,宮城県,仙台市若林区,鶴代町５番６８－１号,,04,103,9840001,,,,,,,2024-07-03,1,,,,,リス,0
2375,9370005010817,新規,0,2024-07-03,2024-07-03,一般社団法人ＫＭフライトクラブ,,その他の設立登記法人,宮城県,名取市,大手町５丁目１３番地の７ガーデンコート１０７号,,04,207,9811232,,,,,,,2024-07-03,1,,,,,ケーエムフライトクラブ,0
2390,9420001018783,新規,0,2024-07-03,2024-07-03,株式会社ＫｉｍｏｎｏレンタルＲＩＣＨ,,株式会社,青森県,五所川原市,字中平井町６６番地１,,02,205,0370066,,,,,,,2024-07-03,1,,,,,キモノレンタリッチ,0
2398,9430001092150,新規,0,2024-07-03,2024-07-03,北清環境パートナーズ株式会社,,株式会社,北海道,札幌市東区,北丘珠五条４丁目７３２番地５１,,01,103,0070885,,,,,,,2024-07-03,1,,,,,ホクセイカンキョウパートナーズ,0
2399,9430001092159,新規,0,2024-07-03,2024-07-03,株式会社Ｍｉｎａｔｏｙａ＆Ｃｏ．,,株式会社,北海道,札幌市北区,屯田十条２丁目２番２号,,01,102,0020860,,,,,,,2024-07-03,1,,,,,ミナトヤアンドカンパニー,0
2400,9430001092175,新規,0,2024-07-03,2024-07-03,株式会社キャンバスビューティー,,株式会社,北海道,札幌市厚別区,厚別東五条３丁目２４番地１２１５,,01,108,0040005,,,,,,,2024-07-03,1,,,,,キャンバスビューティー,0
2401,9430001092191,新規,0,2024-07-03,2024-07-03,株式会社ユキデザイン,,株式会社,北海道,虻田郡ニセコ町,字有島８番地６７,,01,395,0481531,,,,,,,2024-07-03,1,,,,,ユキデザイン,0
2405,9430003016504,新規,0,2024-07-03,2024-07-03,ガレージリンク合同会社,,合同会社,北海道,恵庭市,島松寿町２丁目６番地２,,01,231,0611355,,,,,,,2024-07-03,1,,,,,ガレージリンク,0
2407,9460103001634,新規,0,2024-07-03,2024-07-03,合同会社ｓｏｃｉａｌｗｏｒｋＬｂ１,,合同会社,北海道,中川郡本別町,北２丁目１番地１０,,01,646,0893334,,,,,,,2024-07-03,1,,,,,ソーシャルワークラボワン,0
2413,9700150019579,新規,0,2024-07-03,2015-10-09,栃木市国際交流協会,,その他,栃木県,栃木市,入舟町６－８栃木市市民交流センター内,,09,203,3280016,,,,,,,2015-10-09,1,,,,,トチギシコクサイコウリユウキヨウカイ,0
