sequenceNumber,corporateNumber,process,correct,updateDate,changeDate,name,nameImageId,kind,prefectureName,cityName,streetNumber,addressImageId,prefectureCode,cityCode,postCode,addressOutside,addressOutsideImageId,closeDate,closeCause,successorCorporateNumber,changeCause,assignmentDate,latest,enName,enPrefectureName,enCityName,enAddressOutside,furigana,hihyoji
11,1010005030775,登記記録の閉鎖等,0,2022-03-28,2022-03-24,一般社団法人Ｍホテルホールディングス,,その他の設立登記法人,東京都,千代田区,内神田２丁目２番６号５階あすな会計事務所内,,13,101,1010047,,,2022-03-24,清算の結了等,,,2019-09-18,1,,,,,エムホテルホールディングス,0
14,1010401078633,登記記録の閉鎖等,0,2022-03-28,2022-03-18,株式会社ハロー・トーキョー,,株式会社,東京都,港区,芝浦３丁目２番１６号,,13,103,1080023,,,2022-03-18,清算の結了等,,,2015-10-05,1,,,,,ハロートーキョー,0
40,1011001073017,登記記録の閉鎖等,0,2022-03-28,2022-03-15,株式会社ＡＺ,,株式会社,東京都,渋谷区,代々木５丁目５０番１３号,,13,113,1510053,,,2022-03-15,清算の結了等,,,2015-10-05,1,,,,,エーゼット,0
67,1012302008710,登記記録の閉鎖等,0,2022-03-28,2022-03-18,有限会社サワケン設計,,有限会社,東京都,町田市,鶴川２丁目４番地２１,,13,209,1950061,,,2022-03-18,清算の結了等,,,2015-10-05,1,,,,,,0
69,1012401018065,登記記録の閉鎖等,0,2022-03-28,2022-03-24,プレインエンジニアリング株式会社,,株式会社,東京都,国分寺市,東元町２丁目１４番１９号,,13,214,1850022,,,2022-03-24,清算の結了等,,,2015-10-05,1,,,,,プレインエンジニアリング,0
89,1030001106206,登記記録の閉鎖等,0,2022-03-28,2022-03-25,株式会社リバーキャスト,,株式会社,埼玉県,さいたま市南区,白幡４丁目２９－８－４０１,,11,108,3360022,,,2022-03-25,清算の結了等,,,2015-10-05,1,,,,,リバーキャスト,0
93,1030002032847,登記記録の閉鎖等,0,2022-03-28,2022-03-24,有限会社ドレミリサイクル,,有限会社,埼玉県,所沢市,東狭山ケ丘３丁目２８７８番地の２２,,11,208,3591106,,,2022-03-24,清算の結了等,,,2015-10-05,1,,,,,ドレミリサイクル,0
94,1030002059139,登記記録の閉鎖等,0,2022-03-28,2022-03-15,有限会社野崎電気管理,,有限会社,埼玉県,朝霞市,浜崎１丁目７番２６号,,11,227,3510033,,,2022-03-15,清算の結了等,,,2015-10-05,1,,,,,ノザキデンキカンリ,0
120,1080401005837,登記記録の閉鎖等,0,2022-03-28,2022-03-23,株式会社リブライフ,,株式会社,静岡県,浜松市中区,新津町５７４番地,,22,131,4300911,,,2022-03-23,清算の結了等,,,2015-10-05,1,,,,,リブライフ,0
122,1100001025761,登記記録の閉鎖等,0,2022-03-28,2022-03-18,松川樹脂株式会社,,株式会社,長野県,下伊那郡松川町,大島４８８番地５,,20,402,3993304,,,2022-03-18,合併による解散等,2100001022881,令和４年３月１８日長野県下伊那郡阿智村春日１５３３番地１化成工業株式会社（2100001022881）に合併し解散,2015-10-05,1,,,,,マツカワジュシ,0
127,1110002006099,登記記録の閉鎖等,0,2022-03-28,2022-03-23,有限会社マザーグース,,有限会社,新潟県,新潟市中央区,南笹口１丁目１番２４号パストラルハイム駅南１１０８号,,15,103,9500912,,,2022-03-23,清算の結了等,,,2015-10-05,1,,,,,マザーグース,0
128,1110002029802,登記記録の閉鎖等,0,2022-03-28,2022-03-24,有限会社建築工房マルト,,有限会社,新潟県,長岡市,岩田４２３０番地,,15,202,9495415,,,2022-03-24,清算の結了等,,,2015-10-05,1,,,,,,0
129,1110003001636,登記記録の閉鎖等,0,2022-03-28,2022-03-23,丸亀工業合名会社,,合名会社,新潟県,十日町市,田中町西９番地１,,15,210,9480028,,,2022-03-23,清算の結了等,,,2015-10-05,1,,,,,マルカメコウギョウ,0
136,1120001182881,登記記録の閉鎖等,0,2022-03-28,2022-03-25,株式会社イーファシリティ,,株式会社,東京都,千代田区,大手町１丁目５番１号,,13,101,1000004,,,2022-03-25,清算の結了等,,,2015-10-05,1,,,,,イーファシリティ,0
139,1120001215468,登記記録の閉鎖等,0,2022-03-28,2022-03-23,株式会社スクーデリア,,株式会社,大阪府,大阪市北区,西天満２丁目１０番１０号,,27,127,5300047,,,2022-03-23,清算の結了等,,,2018-08-22,1,,,,,スクーデリア,0
140,1120001237108,登記記録の閉鎖等,0,2022-03-28,2022-03-24,ＢｌｕｅＣａｐ株式会社,,株式会社,大阪府,大阪市中央区,東高麗橋１番１２号,,27,128,5400039,,,2022-03-24,清算の結了等,,,2021-04-26,1,,,,,ブルーキャップ,0
171,1140005008635,登記記録の閉鎖等,0,2022-03-28,2022-03-25,真南条上生産森林組合,,その他の設立登記法人,兵庫県,丹波篠山市,真南条上７９９番地,,28,221,6692462,,,2022-03-25,清算の結了等,,,2015-10-05,1,,,,,マナンジョカミ,0
190,1200001018986,登記記録の閉鎖等,0,2022-03-28,2022-03-28,株式会社近江デザインセンター,,株式会社,岐阜県,関市,千疋北２丁目２番６号,,21,205,5013953,,,2022-03-28,清算の結了等,,,2015-10-05,1,,,,,オウミデザインセンター,0
210,1290001051038,登記記録の閉鎖等,0,2022-03-28,2022-03-24,株式会社みのり農産,,株式会社,福岡県,久留米市,諏訪野町２３３３番地,,40,203,8300037,,,2022-03-24,清算の結了等,,,2015-10-05,1,,,,,ミノリノウサン,0
220,1290002025635,登記記録の閉鎖等,0,2022-03-28,2022-03-24,有限会社三島商事,,有限会社,福岡県,福岡市東区,下原１丁目２２番３６号,,40,131,8130002,,,2022-03-24,清算の結了等,,,2015-10-05,1,,,,,ミシマショウジ,0
240,1370602000979,登記記録の閉鎖等,0,2022-03-28,2022-03-23,有限会社杉崎商会,00082876,有限会社,宮城県,多賀城市,大代５丁目９番４９号の２,,04,209,9850832,,,2022-03-23,清算の結了等,,,2015-10-05,1,,,,,スギサキショウカイ,0
244,1420002017552,登記記録の閉鎖等,0,2022-03-28,2022-03-24,有限会社プリズム,,有限会社,青森県,三沢市,岡三沢７丁目３７番地７号,,02,207,0330021,,,2022-03-24,清算の結了等,,,2015-10-05,1,,,,,プリズム,0
248,1430001044919,登記記録の閉鎖等,0,2022-03-28,2022-03-22,株式会社近藤商事,,株式会社,北海道,札幌市中央区,北二条西３丁目１番地,,01,101,0600002,,,2022-03-22,合併による解散等,1430001018204,令和４年３月２１日札幌市中央区北二条西三丁目１番地若草企業株式会社（1430001018204）に合併し解散,2015-10-05,1,,,,,コンドウショウジ,0
327,2013401001464,登記記録の閉鎖等,0,2022-03-28,2022-03-18,西東京タイヤ販売株式会社,,株式会社,東京都,多摩市,豊ヶ丘２丁目１１番地１－４０１,,13,224,2060031,,,2022-03-18,清算の結了等,,,2015-10-05,1,,,,,ニシトウキョウタイヤハンバイ,0
347,2030001134263,登記記録の閉鎖等,0,2022-03-28,2022-03-25,株式会社ＫＮＴ,,株式会社,埼玉県,上尾市,愛宕２丁目６番１０号ソフト９９上尾ビル３０３号室,,11,219,3620034,,,2022-03-25,清算の結了等,,,2019-12-12,1,,,,,ケーエヌティー,0
354,2030002094738,登記記録の閉鎖等,0,2022-03-28,2022-03-23,有限会社大井電気管理事務所,,有限会社,埼玉県,坂戸市,西坂戸１丁目１８番１５号,,11,239,3500247,,,2022-03-23,清算の結了等,,,2015-10-05,1,,,,,オオイデンキカンリジムショ,0
356,2040001005232,登記記録の閉鎖等,0,2022-03-28,2022-03-22,株式会社東京西原屋,,株式会社,千葉県,千葉市中央区,登戸１丁目１３番２１－２０３号,,12,101,2600032,,,2022-03-22,清算の結了等,,,2015-10-05,1,,,,,トウキョウニシバラヤ,0
359,2040002046614,登記記録の閉鎖等,0,2022-03-28,2022-03-22,有限会社鈴木商会,,有限会社,千葉県,松戸市,小金清志町３丁目３６番地の１,,12,207,2700016,,,2022-03-22,清算の結了等,,,2015-10-05,1,,,,,スズキショウカイ,0
360,2040003013225,登記記録の閉鎖等,0,2022-03-28,2022-03-18,合同会社Ｈ２Ｏ,,合同会社,千葉県,印旛郡栄町,安食台３丁目３１番７号,,12,329,2701515,,,2022-03-18,清算の結了等,,,2019-04-11,1,,,,,エイチツーオー,0
379,2110002015289,登記記録の閉鎖等,0,2022-03-28,2022-03-22,有限会社たまや商店,,有限会社,新潟県,新発田市,本町４丁目７番１５号,,15,206,9570054,,,2022-03-22,清算の結了等,,,2015-10-05,1,,,,,タマヤショウテン,0
386,2120001121236,登記記録の閉鎖等,0,2022-03-28,2022-03-22,株式会社扇山,,株式会社,大阪府,大阪市住吉区,帝塚山中２丁目３番１０号,,27,120,5580053,,,2022-03-22,清算の結了等,,,2015-10-05,1,,,,,センザン,0
387,2120001213850,登記記録の閉鎖等,0,2022-03-28,2022-03-23,プロスパー株式会社,,株式会社,大阪府,大阪市大正区,泉尾５丁目８－６,,27,108,5510031,,,2022-03-23,清算の結了等,,,2018-06-06,1,,,,,プロスパー,0
403,2130002022903,登記記録の閉鎖等,0,2022-03-28,2022-03-18,ティティワイ健康体力づくり企画有限会社,,有限会社,京都府,京都市南区,八条坊門町７番地８,,26,107,6018472,,,2022-03-18,清算の結了等,,,2015-10-05,1,,,,,ティティワイケンコウタイリョクヅクリキカク,0
433,2190002011132,登記記録の閉鎖等,0,2022-03-28,2022-03-24,南伊勢産業有限会社,,有限会社,三重県,度会郡南伊勢町,東宮６５番１,,24,472,5161309,,,2022-03-24,清算の結了等,,,2015-10-05,1,,,,,ミナミイセサンギョウ,0
441,2240002022223,登記記録の閉鎖等,0,2022-03-28,2022-03-25,フェローミュージック有限会社,,有限会社,広島県,広島市東区,牛田中１丁目５番１３号,,34,102,7320065,,,2022-03-25,清算の結了等,,,2015-10-05,1,,,,,フェローミュージック,0
461,2340005008548,登記記録の閉鎖等,0,2022-03-28,2022-03-24,一般社団法人未来,,その他の設立登記法人,鹿児島県,鹿屋市,吾平町下名９９８番地１,,46,203,8931102,,,2022-03-24,清算の結了等,,,2016-03-17,1,,,,,ミライ,0
478,2380002022589,登記記録の閉鎖等,0,2022-03-28,2022-03-24,有限会社エス・シー・ワイエンジニアリング,,有限会社,福島県,いわき市,金山町月見台１３３番地の１１,,07,204,9748211,,,2022-03-24,清算の結了等,,,2015-10-05,1,,,,,エスシーワイエンジニアリング,0
504,3010005013811,登記記録の閉鎖等,0,2022-03-28,2022-03-22,一般財団法人親学推進協会,,その他の設立登記法人,東京都,港区,南青山２丁目２番１５号ウィン青山,,13,103,1070062,,,2022-03-22,清算の結了等,,,2015-10-05,1,,,,,,0
507,3010005028017,登記記録の閉鎖等,0,2022-03-28,2022-03-24,特定非営利活動法人富士観光文化研修会,,その他の設立登記法人,東京都,千代田区,麹町５丁目２番地１Ｋ－ＷＩＮＧビル２階,,13,101,1020083,,,2022-03-24,清算の結了等,,,2018-01-25,1,,,,,フジカンコウブンカケンシュウカイ,0
515,3010502009980,登記記録の閉鎖等,0,2022-03-28,2022-03-25,有限会社船曵商事,,有限会社,東京都,台東区,東上野５丁目１０番５号,,13,106,1100015,,,2022-03-25,清算の結了等,,,2015-10-05,1,,,,,フナビキショウジ,0
521,3011001129394,登記記録の閉鎖等,0,2022-03-28,2022-03-15,Ｔｈｅ　ＲＯＯＭ株式会社,,株式会社,東京都,渋谷区,鶯谷町１６番５号,,13,113,1500032,,,2022-03-15,清算の結了等,,,2019-08-09,1,,,,,ザルーム,0
531,3011003012862,登記記録の閉鎖等,0,2022-03-28,2022-03-16,ミコリエ合同会社,,合同会社,東京都,渋谷区,松濤１丁目２８－２,,13,113,1500046,,,2022-03-16,清算の結了等,,,2021-06-14,1,,,,,ミコリエ,0
543,3011801024514,登記記録の閉鎖等,0,2022-03-28,2022-03-25,株式会社菅野コーポレーション,,株式会社,東京都,足立区,千住３丁目４番１２号,,13,121,1200034,,,2022-03-25,清算の結了等,,,2015-10-05,1,,,,,スガノコーポレーション,0
546,3012801007104,登記記録の閉鎖等,0,2022-03-28,2022-03-25,株式会社ティー・オー・エス,,株式会社,埼玉県,久喜市,西大輪２０２０番地３,,11,232,3400206,,,2022-03-25,清算の結了等,,,2015-10-05,1,,,,,ティーオーエス,0
556,3013301030694,登記記録の閉鎖等,0,2022-03-28,2022-03-17,株式会社木之花咲耶姫,,株式会社,東京都,豊島区,目白３丁目２番１４号,,13,116,1710031,,,2022-03-17,清算の結了等,,,2015-10-05,1,,,,,コノハナサクヤヒメ,0
567,3020005003951,登記記録の閉鎖等,0,2022-03-28,2022-03-22,特定非営利活動法人ＷＥ２１ジャパン港南,,その他の設立登記法人,神奈川県,横浜市港南区,日野南１丁目１４番９号,,14,111,2340055,,,2022-03-22,清算の結了等,,,2015-10-05,1,,,,,ウィニジュウイチジャパンコウナン,0
574,3030001037052,登記記録の閉鎖等,0,2022-03-28,2022-03-24,株式会社ミツワ,,株式会社,埼玉県,三郷市,戸ケ崎１丁目７８番地４,,11,237,3410044,,,2022-03-24,清算の結了等,,,2015-10-05,1,,,,,ミツワ,0
575,3030001096890,登記記録の閉鎖等,0,2022-03-28,2022-03-24,ＥＰＳ株式会社,,株式会社,埼玉県,川口市,東領家２丁目１６番２号,,11,203,3320003,,,2022-03-24,清算の結了等,,,2015-10-05,1,,,,,,0
582,3040001080282,登記記録の閉鎖等,0,2022-03-28,2022-03-25,株式会社ＢＡジャパン,,株式会社,東京都,台東区,東上野２丁目１５番９号,,13,106,1100015,,,2022-03-25,清算の結了等,,,2015-10-05,1,,,,,,0
583,3040001088672,登記記録の閉鎖等,0,2022-03-28,2022-03-24,株式会社ちきたく,,株式会社,埼玉県,川口市,上青木３丁目１２番１８号埼玉県産業技術総合センター６階,,11,203,3330844,,,2022-03-24,清算の結了等,,,2015-10-05,1,,,,,チキタク,0
606,3120001043990,登記記録の閉鎖等,0,2022-03-28,2022-03-24,新興印刷株式会社,,株式会社,大阪府,大阪市西区,京町堀２丁目１番２０号,,27,106,5500003,,,2022-03-24,清算の結了等,,,2015-10-05,1,,,,,シンコウインサツ,0
607,3120001089316,登記記録の閉鎖等,0,2022-03-28,2022-03-22,株式会社ボディーアートジャパン,,株式会社,大阪府,大阪市中央区,大手前１丁目７番３１号,,27,128,5400008,,,2022-03-22,清算の結了等,,,2015-10-05,1,,,,,,0
626,3120901032845,登記記録の閉鎖等,0,2022-03-28,2022-03-22,大阪市場警備株式会社,,株式会社,大阪府,茨木市,舟木町１７番２１－１０６号,,27,211,5670828,,,2022-03-22,清算の結了等,,,2015-10-05,1,,,,,オオサカシジョウケイビ,0
627,3120901043041,登記記録の閉鎖等,0,2022-03-28,2022-03-24,株式会社まちづくり池田,,株式会社,大阪府,池田市,石橋３丁目３番１号,,27,204,5630032,,,2022-03-24,清算の結了等,,,2020-08-04,1,,,,,マチヅクリイケダ,0
651,3190002001677,登記記録の閉鎖等,0,2022-03-28,2022-03-25,有限会社ユリイカ,,有限会社,三重県,津市,渋見町６８１番地の２,,24,201,5140063,,,2022-03-25,清算の結了等,,,2015-10-05,1,,,,,,0
653,3190005004099,登記記録の閉鎖等,0,2022-03-28,2022-03-25,なごの浦ニュータウン共用付属施設団地管理組合法人,,その他の設立登記法人,三重県,鈴鹿市,長太新町３丁目２０番１３号,,24,207,5130041,,,2022-03-25,清算の結了等,,,2015-10-05,1,,,,,ナゴノウラニュータウンキョウヨウフゾクシセツ,0
734,4010403017000,登記記録の閉鎖等,0,2022-03-28,2022-03-22,合同会社ＧＷ　ＪＡＰＡＮ,,合同会社,東京都,港区,赤坂３丁目１５番６－５０１号,,13,103,1070052,,,2022-03-22,清算の結了等,,,2017-08-09,1,,,,,ジダブルユジャパン,0
765,4011005003652,登記記録の閉鎖等,0,2022-03-28,2022-03-23,特定非営利活動法人Ｒ水素ネットワーク,,その他の設立登記法人,神奈川県,相模原市緑区,小渕１９３８－２,,14,151,2520184,,,2022-03-23,清算の結了等,,,2015-10-05,1,,,,,アールスイソネットワーク,0
779,4011801025123,登記記録の閉鎖等,0,2022-03-28,2022-03-25,株式会社とき水産,,株式会社,東京都,葛飾区,細田１丁目８番２４号,,13,122,1240021,,,2022-03-25,清算の結了等,,,2015-10-05,1,,,,,,0
794,4021002065777,登記記録の閉鎖等,0,2022-03-28,2022-03-23,東水企業有限会社,,有限会社,神奈川県,横須賀市,金谷３丁目１番１０号,,14,201,2380034,,,2022-03-23,清算の結了等,,,2015-10-05,1,,,,,トウスイキギョウ,0
805,4040001086717,登記記録の閉鎖等,0,2022-03-28,2022-03-24,ヨヅナシステムズ株式会社,,株式会社,神奈川県,川崎市麻生区,下麻生２丁目１２番２５号,,14,137,2150022,,,2022-03-24,清算の結了等,,,2015-10-05,1,,,,,ヨヅナシステムズ,0
815,4060001021449,登記記録の閉鎖等,0,2022-03-28,2022-03-22,株式会社ＡＬＰＨＡ,,株式会社,栃木県,佐野市,大橋町３２３５番地３５,,09,204,3270003,,,2022-03-22,清算の結了等,,,2015-10-05,1,,,,,アルファ,0
821,4080105004876,登記記録の閉鎖等,0,2022-03-28,2022-03-24,特定非営利活動法人ヘキチラボ,,その他の設立登記法人,静岡県,賀茂郡松崎町,松崎字中丁２１１番地,,22,305,4103611,,,2022-03-24,清算の結了等,,,2015-10-05,1,,,,,ヘキチラボ,0
832,4120001015329,登記記録の閉鎖等,0,2022-03-28,2022-03-22,ソリッドオート株式会社,,株式会社,大阪府,大阪市中央区,瓦町１丁目５番８号,,27,128,5410048,,,2022-03-22,清算の結了等,,,2015-10-05,1,,,,,,0
834,4120001051068,登記記録の閉鎖等,0,2022-03-28,2022-03-15,株式会社コムシス,,株式会社,東京都,中央区,京橋１丁目３番２号,,13,102,1040031,,,2022-03-15,清算の結了等,,,2015-10-05,1,,,,,コムシス,0
838,4120001205037,登記記録の閉鎖等,0,2022-03-28,2022-03-22,Ｗｏｒｔｈ　Ｃａｒｅ株式会社,,株式会社,大阪府,大阪市城東区,関目４丁目１０番１－３０１号,,27,118,5360008,,,2022-03-22,清算の結了等,,,2017-04-18,1,,,,,ワースケア,0
862,4120901006501,登記記録の閉鎖等,0,2022-03-28,2022-03-24,サンエス化成工業株式会社,,株式会社,大阪府,吹田市,江坂町１丁目１２番４０号,,27,205,5640063,,,2022-03-24,清算の結了等,,,2015-10-05,1,,,,,サンエスカセイコウギョウ,0
873,4130005010829,登記記録の閉鎖等,0,2022-03-28,2022-03-23,医療法人クリニックサンルイ,,その他の設立登記法人,京都府,京都市左京区,田中大久保町２６番地６,,26,103,6068236,,,2022-03-23,清算の結了等,,,2015-10-05,1,,,,,クリニックサンルイ,0
886,4160001015366,登記記録の閉鎖等,0,2022-03-28,2022-03-24,株式会社太陽通販,,株式会社,滋賀県,守山市,大門町３３０番地,,25,207,5240052,,,2022-03-24,清算の結了等,,,2015-10-05,1,,,,,タイヨウツウハン,0
887,4160001022858,登記記録の閉鎖等,0,2022-03-28,2022-03-23,株式会社マックス,,株式会社,滋賀県,東近江市,東沖野２丁目１番６号,,25,213,5270033,,,2022-03-23,合併による解散等,3160001011044,令和４年３月２３日滋賀県近江八幡市北津田町６５０番地の１株式会社ライフコミュニケーション（3160001011044）に合併し解散,2020-10-29,1,,,,,マックス,0
892,4180001148577,登記記録の閉鎖等,0,2022-03-28,2022-03-22,Ｆｕｎ　ｅｖｅｒｙｄａｙ株式会社,,株式会社,愛知県,名古屋市天白区,土原１丁目２２０番地,,23,116,4680026,,,2022-03-22,清算の結了等,,,2021-11-08,1,,,,,ファンエブリデイ,0
893,4180002070747,登記記録の閉鎖等,0,2022-03-28,2022-03-24,有限会社Ｔｅｔ’ｚ・ｔｅｃｈ,,有限会社,愛知県,春日井市,上田楽町３０１０番地３,,23,206,4860801,,,2022-03-24,清算の結了等,,,2015-10-05,1,,,,,テッツテック,0
896,4180302026275,登記記録の閉鎖等,0,2022-03-28,2022-03-25,谷崎合成有限会社,,有限会社,愛知県,西尾市,新渡場町万日２１番地,,23,213,4450077,,,2022-03-25,清算の結了等,,,2015-10-05,1,,,,,,0
901,4200001018653,登記記録の閉鎖等,0,2022-03-28,2022-03-24,株式会社Ｎ．Ｃ．Ｃ,,株式会社,岐阜県,可児市,緑５丁目６番地,,21,214,5090263,,,2022-03-24,清算の結了等,,,2015-10-05,1,,,,,エヌシーシー,0
915,4240001032403,登記記録の閉鎖等,0,2022-03-28,2022-03-24,株式会社モンデン,,株式会社,広島県,福山市,東深津町１丁目１８番４５号,,34,207,7210974,,,2022-03-24,合併による解散等,8260001015022,令和４年３月２１日岡山県倉敷市笹沖１０５５番地１株式会社モダン・プロ（8260001015022）に合併し解散,2015-10-05,1,,,,,モンデン,0
926,4260002034231,登記記録の閉鎖等,0,2022-03-28,2022-03-23,有限会社ヤマナカプレス,,有限会社,岡山県,真庭郡新庄村,２０５９番地,,33,586,7170201,,,2022-03-23,清算の結了等,,,2015-10-05,1,,,,,ヤマナカプレス,0
928,4280002002293,登記記録の閉鎖等,0,2022-03-28,2022-03-25,有限会社みなり時計店,,有限会社,島根県,松江市,殿町３７０番地,,32,201,6900887,,,2022-03-25,清算の結了等,,,2015-10-05,1,,,,,ミナリトケイテン,0
929,4290001061249,登記記録の閉鎖等,0,2022-03-28,2022-03-24,株式会社日本環境管理,,株式会社,福岡県,福岡市東区,香椎２丁目４４番６３号,,40,131,8130011,,,2022-03-24,清算の結了等,,,2015-10-05,1,,,,,ニホンカンキョウカンリ,0
943,4310002001556,登記記録の閉鎖等,0,2022-03-28,2022-03-28,有限会社久保平石材店,,有限会社,長崎県,西彼杵郡時津町,久留里郷１４９８番地,,42,308,8512107,,,2022-03-28,清算の結了等,,,2015-10-05,1,,,,,クボヒラセキザイテン,0
948,4340003001833,登記記録の閉鎖等,0,2022-03-28,2022-03-24,合同会社ソーシャルベンチャーＳＰＡＣＥ,,合同会社,鹿児島県,肝属郡肝付町,後田９２１６番地,,46,492,8931203,,,2022-03-24,清算の結了等,,,2015-10-05,1,,,,,ソーシャルベンチャースペース,0
950,4350002018200,登記記録の閉鎖等,0,2022-03-28,2022-03-24,有限会社轟木建設,,有限会社,宮崎県,西諸県郡高原町,大字西麓３２４３番地２,,45,361,8894412,,,2022-03-24,清算の結了等,,,2015-10-05,1,,,,,トドロキケンセツ,0
989,5010001164887,登記記録の閉鎖等,0,2022-03-28,2022-03-17,帝都土地株式会社,,株式会社,東京都,千代田区,（東京市麹町区内幸町一丁目５番地兼本ビル）,,13,101,1000000,,,2022-03-17,清算の結了等,,,2016-02-02,1,,,,,テイトトチ,1
1000,5010401118633,登記記録の閉鎖等,0,2022-03-28,2022-03-22,タラソパートナーズ株式会社,,株式会社,東京都,港区,芝公園２丁目９番３号,,13,103,1050011,,,2022-03-22,清算の結了等,,,2015-10-05,1,,,,,タラソパートナーズ,0
1036,5011001098010,登記記録の閉鎖等,0,2022-03-28,2021-12-28,株式会社しあわせな場所,,株式会社,東京都,目黒区,柿の木坂１丁目３１番１４号,,13,110,1520022,,,2021-12-28,清算の結了等,,,2015-10-05,1,,,,,シアワセナバショ,0
1039,5011101071494,登記記録の閉鎖等,0,2022-03-28,2022-03-22,ジャパンドリームエンターテイメント株式会社,,株式会社,東京都,新宿区,市谷八幡町１３番地東京洋服会館９階Ｂ室,,13,104,1620844,,,2022-03-22,清算の結了等,,,2015-10-05,1,,,,,ジャパンドリームエンターテイメント,0
1044,5011102003645,登記記録の閉鎖等,0,2022-03-28,2022-03-22,有限会社協栄商工,,有限会社,東京都,新宿区,百人町２丁目１４番４号,,13,104,1690073,,,2022-03-22,清算の結了等,,,2015-10-05,1,,,,,キョウエイショウコウ,0
1070,5020002094109,登記記録の閉鎖等,0,2022-03-28,2022-03-24,有限会社ＯＫＡＷＡＲＡ,,有限会社,神奈川県,川崎市多摩区,南生田３丁目９番２－１号,,14,135,2140036,,,2022-03-24,清算の結了等,,,2015-10-05,1,,,,,,0
1080,5030003018032,登記記録の閉鎖等,0,2022-03-28,2022-03-10,合同会社孝橋工務店,,合同会社,埼玉県,富士見市,鶴瀬西２丁目７－３－４０１,,11,235,3540026,,,2022-03-10,清算の結了等,,,2021-10-12,1,,,,,タカハシコウムテン,0
1098,5080101022798,登記記録の閉鎖等,0,2022-03-28,2022-03-22,株式会社三恭工務店,,株式会社,静岡県,富士市,青島町１８０番地,,22,210,4170047,,,2022-03-22,清算の結了等,,,2021-10-14,1,,,,,サンキョウコウムテン,0
1157,5180003014000,登記記録の閉鎖等,0,2022-03-28,2022-03-23,合同会社ＲＵＭＡＹ,,合同会社,愛知県,尾張旭市,旭台３丁目１０番地２,,23,226,4880001,,,2022-03-23,清算の結了等,,,2015-10-05,1,,,,,ルメイ,0
1169,5230001010499,登記記録の閉鎖等,0,2022-03-28,2022-03-23,株式会社天華会,,株式会社,富山県,射水市,戸破３６７３番地,,16,211,9390351,,,2022-03-23,清算の結了等,,,2015-10-05,1,,,,,テンカカイ,0
1172,5230002012858,登記記録の閉鎖等,0,2022-03-28,2022-03-23,有限会社小林クリーニング,,有限会社,富山県,氷見市,栄町９番８号,,16,205,9350005,,,2022-03-23,清算の結了等,,,2015-10-05,1,,,,,コバヤシクリーニング,0
1215,5430003004272,登記記録の閉鎖等,0,2022-03-28,2022-03-25,合同会社鮨青山,,合同会社,北海道,札幌市中央区,南五条西６丁目９番地３,,01,101,0640805,,,2022-03-25,清算の結了等,,,2015-10-05,1,,,,,,0
1219,5470002007306,登記記録の閉鎖等,0,2022-03-28,2022-03-24,有限会社吉川水産,,有限会社,香川県,高松市,屋島西町１０２番地１１,,37,201,7610113,,,2022-03-24,清算の結了等,,,2015-10-05,1,,,,,,0
1230,6010003029947,登記記録の閉鎖等,0,2022-03-28,2022-03-15,中目黒プロパティー合同会社,,合同会社,東京都,千代田区,丸の内１丁目１１番１号,,13,101,1000005,,,2022-03-15,清算の結了等,,,2019-05-31,1,,,,,ナカメグロプロパティー,0
1231,6010005011837,登記記録の閉鎖等,0,2022-03-28,2022-03-23,特定非営利活動法人全国保険者機能評価機構,,その他の設立登記法人,東京都,千代田区,永田町２丁目１７番５号－３１６号,,13,101,1000014,,,2022-03-23,清算の結了等,,,2015-10-05,1,,,,,ゼンコクホケンシャキノウヒョウカキコウ,0
1246,6010505001370,登記記録の閉鎖等,0,2022-03-28,2022-03-18,特定非営利活動法人エイ・ディ・アール,,その他の設立登記法人,東京都,台東区,東上野６丁目２７番８号レガートビル１階,,13,106,1100015,,,2022-03-18,清算の結了等,,,2015-10-05,1,,,,,エイディアール,0
1271,6011102013239,登記記録の閉鎖等,0,2022-03-28,2022-03-23,有限会社山本輪業商会,,有限会社,東京都,新宿区,北新宿１丁目１番１７号,,13,104,1690074,,,2022-03-23,清算の結了等,,,2015-10-05,1,,,,,ヤマモトリンギョウショウカイ,0
1289,6011802014263,登記記録の閉鎖等,0,2022-03-28,2022-03-25,有限会社新和装プロモート協会,,有限会社,東京都,足立区,六木４丁目８番３５号,,13,121,1210052,,,2022-03-25,清算の結了等,,,2015-10-05,1,,,,,シンワソウプロモートキョウカイ,0
1300,6020002014065,登記記録の閉鎖等,0,2022-03-28,2022-03-24,有限会社黒沼土木,,有限会社,神奈川県,横浜市青葉区,あざみ野４丁目１３番地６,,14,117,2250011,,,2022-03-24,清算の結了等,,,2015-10-05,1,,,,,クロヌマドボク,0
1320,6050005012294,登記記録の閉鎖等,0,2022-03-28,2022-03-25,一般社団法人境町公共施設管理公社,,その他の設立登記法人,茨城県,猿島郡境町,大字山崎２５８６番地１,,08,546,3060413,,,2022-03-25,清算の結了等,,,2018-03-22,1,,,,,サカイマチコウキョウシセツカンリコウシャ,0
1342,6120001229397,登記記録の閉鎖等,0,2022-03-28,2022-03-23,アールイープロジェクト株式会社,,株式会社,兵庫県,神戸市中央区,御幸通８丁目１番６号,,28,110,6510087,,,2022-03-23,合併による解散等,4120001229399,令和４年３月１日大阪市東淀川区東中島四丁目１１番６号インベストツアー株式会社（4120001229399）に合併し解散,2020-06-03,1,,,,,アールイープロジェクト,0
1353,6120101061725,登記記録の閉鎖等,0,2022-03-28,2022-03-24,株式会社オレンジダイナー,,株式会社,大阪府,貝塚市,二色３丁目７番５号,,27,208,5970091,,,2022-03-24,清算の結了等,,,2020-05-20,1,,,,,オレンジダイナー,0
1355,6120902018510,登記記録の閉鎖等,0,2022-03-28,2022-03-25,有限会社貞廣,,有限会社,大阪府,豊中市,東豊中町４丁目２番３号,,27,203,5600003,,,2022-03-25,清算の結了等,,,2015-10-05,1,,,,,サダヒロ,0
1386,6240002046854,登記記録の閉鎖等,0,2022-03-28,2022-03-24,有限会社桜山駐車場,,有限会社,広島県,府中市,府中町５３６番地,,34,208,7260005,,,2022-03-24,清算の結了等,,,2015-10-05,1,,,,,サクラヤマチュウシャジョウ,0
1392,6260003002788,登記記録の閉鎖等,0,2022-03-28,2022-03-25,天南合同会社,,合同会社,岡山県,倉敷市,玉島乙島７０７０番地７,,33,202,7138103,,,2022-03-25,清算の結了等,,,2019-02-19,1,,,,,テンナ,0
1413,6360002008867,登記記録の閉鎖等,0,2022-03-28,2022-03-22,有限会社旭米穀商事,,有限会社,沖縄県,糸満市,西崎町５丁目６番地２７,,47,210,9010306,,,2022-03-22,清算の結了等,,,2015-10-05,1,,,,,アサヒベイコクショウジ,0
1422,6370602001460,登記記録の閉鎖等,0,2022-03-28,2022-03-22,有限会社二宮塗装店,,有限会社,宮城県,宮城郡七ヶ浜町,汐見台４丁目１番地の５７,,04,404,9850821,,,2022-03-22,清算の結了等,,,2015-10-05,1,,,,,ニノミヤトソウテン,0
1436,6430001081734,登記記録の閉鎖等,0,2022-03-28,2022-03-23,アイ・リクルートメント株式会社,,株式会社,北海道,札幌市南区,川沿十三条２丁目１番４７号,,01,106,0050813,,,2022-03-23,清算の結了等,,,2020-06-18,1,,,,,アイリクルートメント,0
1446,6470001018105,登記記録の閉鎖等,0,2022-03-28,2022-03-25,スカイブループロジェクト株式会社,,株式会社,香川県,高松市,川島東町２９３番地５,,37,201,7610443,,,2022-03-25,清算の結了等,,,2020-07-03,1,,,,,スカイブループロジェクト,0
1460,7010401006621,登記記録の閉鎖等,0,2022-03-28,2022-03-23,株式会社環境空間研究所,,株式会社,東京都,港区,南青山７丁目４番２２号,,13,103,1070062,,,2022-03-23,清算の結了等,,,2015-10-05,1,,,,,カンキョウクウカンケンキュウジョ,0
1489,7011102028054,登記記録の閉鎖等,0,2022-03-28,2022-03-22,有限会社ムトウ,,有限会社,東京都,新宿区,西落合４丁目９－１１西武ＰＳビル７－Ｄ,,13,104,1610031,,,2022-03-22,清算の結了等,,,2015-10-05,1,,,,,ムトウ,0
1494,7011701011344,登記記録の閉鎖等,0,2022-03-28,2022-03-23,株式会社桑川運輸,,株式会社,東京都,江戸川区,東葛西１丁目３６番４号,,13,123,1340084,,,2022-03-23,清算の結了等,,,2015-10-05,1,,,,,クワガワウンユ,0
1502,7011802017802,登記記録の閉鎖等,0,2022-03-28,2022-03-25,有限会社富士商会,,有限会社,東京都,足立区,千住龍田町８番１号,,13,121,1200042,,,2022-03-25,清算の結了等,,,2015-10-05,1,,,,,フジショウカイ,0
1506,7020001058401,登記記録の閉鎖等,0,2022-03-28,2022-03-24,横浜金属工芸株式会社,,株式会社,神奈川県,横浜市鶴見区,東寺尾６丁目１番２９号,,14,101,2300077,,,2022-03-24,清算の結了等,,,2015-10-05,1,,,,,ヨコハマキンゾクコウゲイ,0
1515,7021002046551,登記記録の閉鎖等,0,2022-03-28,2022-03-23,有限会社大東製作所,,有限会社,神奈川県,綾瀬市,深谷南４丁目１６番３号,,14,218,2521106,,,2022-03-23,清算の結了等,,,2015-10-05,1,,,,,ダイトウセイサクショ,0
1537,7080001011370,登記記録の閉鎖等,0,2022-03-28,2022-03-25,日本システムサービス株式会社,,株式会社,静岡県,静岡市駿河区,大和２丁目６番５号,,22,102,4228077,,,2022-03-25,清算の結了等,,,2015-10-05,1,,,,,ニホンシステムサービス,0
1540,7080102002302,登記記録の閉鎖等,0,2022-03-28,2022-03-24,有限会社ツイキ薬局,,有限会社,静岡県,沼津市,神田町３番１号,,22,203,4100042,,,2022-03-24,清算の結了等,,,2015-10-05,1,,,,,ツイキヤッキョク,0
1541,7080402018873,登記記録の閉鎖等,0,2022-03-28,2022-03-24,有限会社杉田設備,,有限会社,静岡県,御前崎市,御前崎４８００番地の５,,22,223,4371621,,,2022-03-24,清算の結了等,,,2015-10-05,1,,,,,スギタセツビ,0
1576,7130002000516,登記記録の閉鎖等,0,2022-03-28,2022-03-24,有限会社京料理花末,,有限会社,京都府,京都市右京区,花園坤南町５番地,,26,108,6168056,,,2022-03-24,清算の結了等,,,2015-10-05,1,,,,,キョウリョウリハナスエ,0
1591,7160005003265,登記記録の閉鎖等,0,2022-03-28,2022-03-25,湖国漁業生産組合,,その他の設立登記法人,滋賀県,長浜市,柿ノ木１０８番地,,25,203,5290131,,,2022-03-25,清算の結了等,,,2015-10-05,1,,,,,ココク,0
1598,7180001131514,登記記録の閉鎖等,0,2022-03-28,2022-03-23,山一ユナイテッドグループ株式会社,,株式会社,愛知県,名古屋市緑区,大根山２丁目１４６番地,,23,114,4598007,,,2022-03-23,合併による解散等,6180001009595,令和４年３月１８日名古屋市緑区大根山二丁目１４６番地株式会社山一ハガネ（6180001009595）に合併し解散,2018-03-16,1,,,,,ヤマイチユナイテッドグループ,0
1606,7190002014618,登記記録の閉鎖等,0,2022-03-28,2022-03-24,有限会社山本綿業,,有限会社,三重県,松阪市,駅部田町２０１番地,,24,204,5150045,,,2022-03-24,清算の結了等,,,2015-10-05,1,,,,,ヤマモトメンギョウ,0
1612,7230001013888,登記記録の閉鎖等,0,2022-03-28,2022-03-24,株式会社アイ・エス・ユー,,株式会社,石川県,鹿島郡中能登町,羽坂五部１４番地,,17,407,9291714,,,2022-03-24,清算の結了等,,,2015-10-05,1,,,,,アイエスユー,0
1613,7230001015942,登記記録の閉鎖等,0,2022-03-28,2022-03-24,ウッドスタジオ株式会社,,株式会社,石川県,鳳珠郡穴水町,字大町二－９－１,,17,461,9270026,,,2022-03-24,清算の結了等,,,2015-10-05,1,,,,,ウッドスタジオ,0
1639,7370002004583,登記記録の閉鎖等,0,2022-03-28,2022-03-22,有限会社鶉橋商事,,有限会社,宮城県,仙台市若林区,沖野７丁目２４番５２号,,04,103,9840831,,,2022-03-22,清算の結了等,,,2015-10-05,1,,,,,ウズラハシショウジ,0
1657,7430001009197,登記記録の閉鎖等,0,2022-03-28,2022-03-22,株式会社ソワンコーポレーション,,株式会社,北海道,札幌市中央区,南一条西１丁目３番地,,01,101,0600061,,,2022-03-22,清算の結了等,,,2015-10-05,1,,,,,ソワンコーポレーション,0
1662,7460001001829,登記記録の閉鎖等,0,2022-03-28,2022-03-24,明治ビル株式会社,,株式会社,北海道,釧路市,愛国西１丁目１６番３号,,01,206,0850057,,,2022-03-24,清算の結了等,,,2015-10-05,1,,,,,メイジビル,0
1665,7480002010034,登記記録の閉鎖等,0,2022-03-28,2022-03-24,有限会社吉野川篠原工務店,,有限会社,徳島県,阿波市,阿波町西原２３６番地,,36,206,7711703,,,2022-03-24,清算の結了等,,,2015-10-05,1,,,,,ヨシノガワシノハラコウムテン,0
1704,8011002001341,登記記録の閉鎖等,0,2022-03-28,2022-03-16,有限会社イー・エイチ・アイ企画,,有限会社,東京都,渋谷区,松濤２丁目５番２４号,,13,113,1500046,,,2022-03-16,清算の結了等,,,2015-10-05,1,,,,,イーエイチアイキカク,0
1715,8011201022312,登記記録の閉鎖等,0,2022-03-28,2022-03-17,株式会社リングスブレイン,,株式会社,東京都,中野区,上高田５丁目２７番８号,,13,114,1640002,,,2022-03-17,清算の結了等,,,2020-08-12,1,,,,,リングスブレイン,0
1740,8020001044301,登記記録の閉鎖等,0,2022-03-28,2022-03-24,株式会社テック,,株式会社,神奈川県,横浜市中区,富士見町１番地１,,14,104,2310037,,,2022-03-24,清算の結了等,,,2015-10-05,1,,,,,テック,0
1744,8020002017883,登記記録の閉鎖等,0,2022-03-28,2022-03-23,有限会社ロング,,有限会社,神奈川県,横浜市西区,中央２丁目４３番２３号,,14,103,2200051,,,2022-03-23,清算の結了等,,,2015-10-05,1,,,,,ロング,0
1771,8040003000424,登記記録の閉鎖等,0,2022-03-28,2022-03-23,合同会社サイバーロック,,合同会社,千葉県,千葉市美浜区,真砂５丁目４４番５号６０３号室,,12,106,2610011,,,2022-03-23,清算の結了等,,,2015-10-05,1,,,,,サイバーロック,0
1794,8120001130917,登記記録の閉鎖等,0,2022-03-28,2022-03-22,ＳＪ企画株式会社,,株式会社,大阪府,大阪市生野区,小路東４丁目３番５号,,27,116,5440003,,,2022-03-22,清算の結了等,,,2015-10-05,1,,,,,エスジェイキカク,0
1813,8120101024903,登記記録の閉鎖等,0,2022-03-28,2022-03-24,株式会社天美住建,,株式会社,大阪府,松原市,天美東７丁目４番７号,,27,217,5800032,,,2022-03-24,清算の結了等,,,2015-10-05,1,,,,,,0
1826,8140002003979,登記記録の閉鎖等,0,2022-03-28,2022-03-23,有限会社リンク,,有限会社,兵庫県,神戸市灘区,船寺通１丁目５番１８号,,28,102,6570842,,,2022-03-23,清算の結了等,,,2015-10-05,1,,,,,リンク,0
1841,8180003011341,登記記録の閉鎖等,0,2022-03-28,2022-03-22,ナカムラトラスト合資会社,,合資会社,愛知県,一宮市,浅井町大日比野字東出１番地の１,,23,203,4910105,,,2022-03-22,清算の結了等,,,2015-10-05,1,,,,,ナカムラトラスト,0
1844,8180301010937,登記記録の閉鎖等,0,2022-03-28,2022-03-22,株式会社蒲サ食品,,株式会社,愛知県,蒲郡市,西浦町川東３１番地,,23,214,4430105,,,2022-03-22,清算の結了等,,,2015-10-05,1,,,,,ガマサショクヒン,0
1849,8210001013666,登記記録の閉鎖等,0,2022-03-28,2022-03-15,株式会社渡邉,,株式会社,福井県,鯖江市,二丁掛町第１５号３番地１,,18,207,9160068,,,2022-03-15,清算の結了等,,,2015-10-05,1,,,,,ワタナベ,0
1850,8230002013911,登記記録の閉鎖等,0,2022-03-28,2022-03-23,有限会社イナダ電機,,有限会社,富山県,射水市,三ケ２０番地,,16,211,9390341,,,2022-03-23,清算の結了等,,,2015-10-05,1,,,,,イナダデンキ,0
1858,8250005006745,登記記録の閉鎖等,0,2022-03-28,2022-03-18,農事組合法人柳井ダイヤモンドローズ,,その他の設立登記法人,山口県,柳井市,余田１４０７番地の３,,35,212,7420034,,,2022-03-18,清算の結了等,,,2015-10-05,1,,,,,ヤナイダイヤモンドローズ,0
1868,8290801000658,登記記録の閉鎖等,0,2022-03-28,2022-03-23,環境金属工業株式会社,,株式会社,福岡県,北九州市小倉北区,片野新町２丁目９番１号,,40,106,8020062,,,2022-03-23,清算の結了等,,,2015-10-05,1,,,,,カンキョウキンゾクコウギョウ,0
1871,8310001003582,登記記録の閉鎖等,0,2022-03-28,2022-03-25,株式会社ソサエティ企画,,株式会社,長崎県,長崎市,金屋町１番７号（ＫＴＮ内）,,42,201,8500037,,,2022-03-25,清算の結了等,,,2015-10-05,1,,,,,ソサエティキカク,0
1873,8320002012144,登記記録の閉鎖等,0,2022-03-28,2022-03-23,有限会社はる不動産,,有限会社,大分県,別府市,中島町２番１１号,,44,202,8740901,,,2022-03-23,清算の結了等,,,2015-10-05,1,,,,,ハルフドウサン,0
1875,8330001008869,登記記録の閉鎖等,0,2022-03-28,2022-03-17,ジーステージ株式会社,,株式会社,熊本県,熊本市中央区,水前寺４丁目２０番２１号,,43,101,8620950,,,2022-03-17,清算の結了等,,,2015-10-05,1,,,,,ジーステージ,0
1879,8330002014131,登記記録の閉鎖等,0,2022-03-28,2022-03-24,有限会社ＮＢＣ,,有限会社,熊本県,熊本市中央区,九品寺２丁目４番２５－５０３号,,43,101,8620976,,,2022-03-24,清算の結了等,,,2015-10-05,1,,,,,エヌビーシー,0
1918,9010001182662,登記記録の閉鎖等,0,2022-03-28,2022-03-25,株式会社Ｓａｖｅｒ　Ｆａｃｔｏｒｙ,,株式会社,岩手県,花巻市,星が丘２丁目９番１８号,,03,205,0250065,,,2022-03-25,清算の結了等,,,2017-04-13,1,,,,,セーバーファクトリー,0
1919,9010002000063,登記記録の閉鎖等,0,2022-03-28,2022-03-23,有限会社青木商会,,有限会社,東京都,文京区,本郷３丁目３９番３号,,13,105,1130033,,,2022-03-23,清算の結了等,,,2015-10-05,1,,,,,アオキショウカイ,0
1923,9010401155607,登記記録の閉鎖等,0,2022-03-28,2022-02-04,ＴＦ株式会社,,株式会社,東京都,港区,六本木７丁目２番２８－６０５号,,13,103,1060032,,,2022-02-04,清算の結了等,,,2020-10-05,1,,,,,ティーエフ,0
1963,9011702011399,登記記録の閉鎖等,0,2022-03-28,2022-03-24,有限会社ミヤバ,,有限会社,東京都,江戸川区,中央３丁目２３番１８号,,13,123,1320021,,,2022-03-24,清算の結了等,,,2015-10-05,1,,,,,ミヤバ,0
1972,9012803002304,登記記録の閉鎖等,0,2022-03-28,2022-03-24,湘通合同会社,,合同会社,東京都,日野市,旭が丘３丁目２番１２号,,13,212,1910065,,,2022-03-24,清算の結了等,,,2020-07-10,1,,,,,ショウツウ,0
2009,9050003002344,登記記録の閉鎖等,0,2022-03-28,2022-03-22,合同会社ＡＴパートナーズ,,合同会社,茨城県,つくば市,東光台４丁目１３番地１,,08,220,3002635,,,2022-03-22,清算の結了等,,,2015-10-05,1,,,,,エイティーパートナーズ,0
2030,9120001199241,登記記録の閉鎖等,0,2022-03-28,2022-03-23,クリエイション株式会社,,株式会社,大阪府,枚方市,長尾谷町２丁目２番地の１９,,27,210,5730164,,,2022-03-23,清算の結了等,,,2016-07-04,1,,,,,クリエイション,0
2039,9120002080499,登記記録の閉鎖等,0,2022-03-28,2022-03-23,有限会社ハセメディカ,,有限会社,大阪府,守口市,南寺方東通４丁目３番１９号,,27,209,5700043,,,2022-03-23,清算の結了等,,,2015-10-05,1,,,,,ハセメディカ,0
2047,9120905004752,登記記録の閉鎖等,0,2022-03-28,2022-03-22,医療法人宇都山医院,,その他の設立登記法人,大阪府,茨木市,星見町１０番３０号,,27,211,5670843,,,2022-03-22,清算の結了等,,,2015-10-05,1,,,,,ウツヤマイイン,0
2049,9130001019753,登記記録の閉鎖等,0,2022-03-28,2022-03-24,株式会社アルファトップインターナショナル,,株式会社,京都府,京都市中京区,御池通神泉苑西入神泉苑町１番地の１１,,26,104,6048371,,,2022-03-24,清算の結了等,,,2015-10-05,1,,,,,アルファトップインターナショナル,0
2064,9180002067103,登記記録の閉鎖等,0,2022-03-28,2022-03-22,有限会社ヒラタ建設,,有限会社,愛知県,春日井市,木附町１３００番地の１３３,,23,206,4870003,,,2022-03-22,清算の結了等,,,2015-10-05,1,,,,,ヒラタケンセツ,0
2094,9310001003350,登記記録の閉鎖等,0,2022-03-28,2022-03-25,長崎県菓子販売株式会社,,株式会社,長崎県,西彼杵郡時津町,日並郷字新開３６０６番地１,,42,308,8512108,,,2022-03-25,清算の結了等,,,2015-10-05,1,,,,,ナガサキケンカシハンバイ,0
2101,9340001010286,登記記録の閉鎖等,0,2022-03-28,2022-03-25,株式会社三起海運,,株式会社,鹿児島県,大島郡和泊町,大字手々知名１５３番地,,46,533,8919111,,,2022-03-25,清算の結了等,,,2015-10-05,1,,,,,サンキカイウン,0
2112,9380002031088,登記記録の閉鎖等,0,2022-03-28,2022-03-22,有限会社荒川建築設計事務所,,有限会社,福島県,会津若松市,中央２丁目１番２８号,,07,202,9650037,,,2022-03-22,清算の結了等,,,2015-10-05,1,,,,,,0
2115,9380005007060,登記記録の閉鎖等,0,2022-03-28,2022-03-24,原町たばこ販売協同組合,,その他の設立登記法人,福島県,南相馬市,原町区旭町４丁目６９番地の７,,07,212,9750004,,,2022-03-24,清算の結了等,,,2015-10-05,1,,,,,ハラマチタバコハンバイ,0
