sequenceNumber,corporateNumber,process,correct,updateDate,changeDate,name,nameImageId,kind,prefectureName,cityName,streetNumber,addressImageId,prefectureCode,cityCode,postCode,addressOutside,addressOutsideImageId,closeDate,closeCause,successorCorporateNumber,changeCause,assignmentDate,latest,enName,enPrefectureName,enCityName,enAddressOutside,furigana,hihyoji
46,1010501012442,登記記録の閉鎖等,0,2025-11-07,2025-10-28,株式会社新川屋,,株式会社,東京都,台東区,鳥越２丁目１４番８号,,13,106,1110054,,,2025-10-28,清算の結了等,,,2015-10-05,1,,,,,シンカワヤ,0
73,1011003020553,登記記録の閉鎖等,0,2025-11-07,2025-10-07,合同会社三八,,合同会社,東京都,渋谷区,東４丁目１２番２号ドメイン広尾８０１,,13,113,1500011,,,2025-10-07,清算の結了等,,,2024-12-10,1,,,,,サンパチ,0
89,1011601014717,登記記録の閉鎖等,0,2025-11-07,2025-10-31,株式会社カノン,,株式会社,東京都,練馬区,東大泉５丁目３７番３号,,13,120,1780063,,,2025-10-31,清算の結了等,,,2015-10-05,1,,,,,カノン,0
94,1011801001341,登記記録の閉鎖等,0,2025-11-07,2025-10-02,京成トラベルサービス株式会社,,株式会社,千葉県,市川市,八幡３丁目３番１号,,12,203,2720021,,,2025-10-02,合併による解散等,3010601026175,令和７年１０月１日千葉県市川市八幡三丁目３番１号株式会社コミュニティー京成（3010601026175）に合併し解散,2015-10-05,1,,,,,ケイセイトラベルサービス,0
103,1013201003158,登記記録の閉鎖等,0,2025-11-07,2025-10-20,株式会社関野製作所,,株式会社,神奈川県,鎌倉市,稲村ガ崎３丁目７番２０号,,14,204,2480024,,,2025-10-20,清算の結了等,,,2015-10-05,1,,,,,,0
105,1013301049530,登記記録の閉鎖等,0,2025-11-07,2025-10-29,東晴株式会社,,株式会社,埼玉県,南埼玉郡宮代町,川端２丁目８－２７－２０３号室,,11,442,3450804,,,2025-10-29,清算の結了等,,,2022-08-22,1,,,,,トウセイ,0
109,1013302010953,登記記録の閉鎖等,0,2025-11-07,2025-10-27,有限会社リビングセンター野瀬,,有限会社,東京都,豊島区,巣鴨４丁目２８番１９号,,13,116,1700002,,,2025-10-27,清算の結了等,,,2015-10-05,1,,,,,リビングセンターノセ,0
110,1013303003997,登記記録の閉鎖等,0,2025-11-07,2025-10-27,合同会社エムカ,,合同会社,東京都,豊島区,目白１丁目３番１７号Ｃ９０１,,13,116,1710031,,,2025-10-27,清算の結了等,,,2018-01-04,1,,,,,エムカ,0
112,1020001088387,登記記録の閉鎖等,0,2025-11-07,2025-10-27,株式会社あさお不動産,,株式会社,神奈川県,横浜市中区,西之谷町９４番地７,,14,104,2310844,,,2025-10-27,清算の結了等,,,2015-10-05,1,,,,,アサオフドウサン,0
114,1020001092001,登記記録の閉鎖等,0,2025-11-07,2025-10-30,株式会社ＲＰＤ,,株式会社,東京都,江東区,北砂２丁目１８－２－７３２,,13,108,1360073,,,2025-10-30,清算の結了等,,,2015-10-05,1,,,,,アールピーディー,0
134,1030001036659,登記記録の閉鎖等,0,2025-11-07,2025-10-29,小松製菓株式会社,,株式会社,埼玉県,三郷市,番匠免１丁目２５２番地,,11,237,3410056,,,2025-10-29,清算の結了等,,,2015-10-05,1,,,,,,0
137,1030001104234,登記記録の閉鎖等,0,2025-11-07,2025-11-05,株式会社アースリング,,株式会社,東京都,杉並区,今川３丁目３番４号,,13,115,1670035,,,2025-11-05,合併による解散等,3011101067593,令和７年１０月１日東京都新宿区若葉１－３株式会社志道館（3011101067593）に合併し解散,2015-10-05,1,,,,,アースリング,0
138,1030001143678,登記記録の閉鎖等,0,2025-11-07,2025-10-03,株式会社Ａｓｕｋａ　Ｆｉｔ,,株式会社,東京都,渋谷区,渋谷２丁目１９－１５宮益坂ビルディング６０９,,13,113,1500002,,,2025-10-03,清算の結了等,,,2021-08-05,1,,,,,アスカフィット,0
164,1040002084706,登記記録の閉鎖等,0,2025-11-07,2025-10-10,有限会社安藤商店,,有限会社,千葉県,旭市,幾世９６２番地,,12,215,2892607,,,2025-10-10,清算の結了等,,,2015-10-05,1,,,,,アンドウショウテン,0
181,1080001009081,登記記録の閉鎖等,0,2025-11-07,2025-11-04,株式会社ふるさと創生会,,株式会社,静岡県,静岡市清水区,鳥坂５７５番地,,22,103,4240067,,,2025-11-04,清算の結了等,,,2015-10-05,1,,,,,フルサトソウセイカイ,0
194,1110005009058,登記記録の閉鎖等,0,2025-11-07,2025-09-29,神明社,,その他の設立登記法人,新潟県,上越市,吉川区坪野内１１７番地,,15,222,9493436,,,2025-09-29,合併による解散等,1110005009090,令和７年９月２９日新潟県上越市吉川区下八幡４４５番地八幡社（1110005009090）に合併し解散,2015-10-05,1,,,,,シンメイシャ,0
213,1140001013746,登記記録の閉鎖等,0,2025-11-07,2025-10-31,中居建設工業株式会社,,株式会社,兵庫県,神戸市兵庫区,松本通７丁目１番３９号,,28,105,6520045,,,2025-10-31,清算の結了等,,,2015-10-05,1,,,,,ナカイケンセツコウギョウ,0
231,1180001125091,登記記録の閉鎖等,0,2025-11-07,2025-10-28,株式会社あずきプランニング,,株式会社,愛知県,名古屋市中川区,吉良町１０番地の８Ｂ－１２０３,,23,110,4540874,,,2025-10-28,清算の結了等,,,2016-10-13,1,,,,,アズキプランニング,0
240,1180002045413,登記記録の閉鎖等,0,2025-11-07,2025-10-29,有限会社幸電社,,有限会社,愛知県,名古屋市緑区,清水山２丁目１３０１番地,,23,114,4598009,,,2025-10-29,清算の結了等,,,2015-10-05,1,,,,,コウデンシャ,0
248,1180302012914,登記記録の閉鎖等,0,2025-11-07,2025-11-04,有限会社太田石油店,,有限会社,愛知県,豊川市,八幡町下天王３９番地,,23,207,4420857,,,2025-11-04,清算の結了等,,,2015-10-05,1,,,,,オオタセキユテン,0
250,1200001003930,登記記録の閉鎖等,0,2025-11-07,2025-10-31,浪速製菓株式会社,,株式会社,岐阜県,岐阜市,神明町１丁目８番地,,21,201,5008848,,,2025-10-31,清算の結了等,,,2015-10-05,1,,,,,ナニワセイカ,0
254,1200002019901,登記記録の閉鎖等,0,2025-11-07,2025-11-04,有限会社安藤製菓,,有限会社,岐阜県,多治見市,宮前町２丁目４３番地,,21,204,5070025,,,2025-11-04,清算の結了等,,,2015-10-05,1,,,,,アンドウセイカ,0
263,1240001052890,登記記録の閉鎖等,0,2025-11-07,2025-11-04,株式会社９０４,,株式会社,広島県,呉市,中央３丁目１２番１９－２０１号,,34,202,7370051,,,2025-11-04,清算の結了等,,,2018-06-07,1,,,,,キュウマルヨン,0
270,1260001025440,登記記録の閉鎖等,0,2025-11-07,2025-10-30,ＲＫＹ株式会社,,株式会社,岡山県,岡山市北区,十日市東町４番１７号,,33,101,7000854,,,2025-10-30,清算の結了等,,,2015-10-05,1,,,,,アールケーワイ,0
272,1260003004789,登記記録の閉鎖等,0,2025-11-07,2025-11-04,ＴＨＴ鍛工合同会社,,合同会社,岡山県,美作市,英田青野１１０９番１,,33,215,7012623,,,2025-11-04,清算の結了等,,,2024-06-13,1,,,,,ティーエイチティータンコウ,0
273,1260005002997,登記記録の閉鎖等,0,2025-11-07,2025-10-01,医療法人三祥会,,その他の設立登記法人,岡山県,岡山市北区,大元駅前３番５７号,,33,101,7000923,,,2025-10-01,合併による解散等,8260005003592,令和７年１０月１日岡山県倉敷市幸町２番３０号社会医療法人創和会（8260005003592）に合併し解散,2015-10-05,1,,,,,サンショウカイ,0
277,1290001030099,登記記録の閉鎖等,0,2025-11-07,2025-10-14,株式会社ヘイワコンサル,,株式会社,福岡県,福岡市東区,水谷１丁目１５番３７－２０２号,,40,131,8130041,,,2025-10-14,清算の結了等,,,2015-10-05,1,,,,,ヘイワコンサル,0
289,1310003004503,登記記録の閉鎖等,0,2025-11-07,2025-10-24,信達合同会社,,合同会社,長崎県,長崎市,界１丁目１番２号,,42,201,8510122,,,2025-10-24,清算の結了等,,,2023-01-11,1,,,,,シンタツ,0
292,1330001002993,登記記録の閉鎖等,0,2025-11-07,2025-10-29,株式会社中小企業経営サービス,,株式会社,熊本県,熊本市中央区,水前寺６丁目３３番６号朝日ビル１Ｆ,,43,101,8620950,,,2025-10-29,清算の結了等,,,2015-10-05,1,,,,,チュウショウキギョウケイエイサービス,0
294,1330002020573,登記記録の閉鎖等,0,2025-11-07,2025-10-31,有限会社清和の里,,有限会社,熊本県,上益城郡山都町,大平４８４番地１,,43,447,8613811,,,2025-10-31,清算の結了等,,,2015-10-05,1,,,,,セイワノサト,0
303,1360002001934,登記記録の閉鎖等,0,2025-11-07,2025-10-01,有限会社三光食品,,有限会社,沖縄県,那覇市,識名３丁目１０番１号,,47,201,9020078,,,2025-10-01,合併による解散等,4360002003390,令和７年１０月１日沖縄県那覇市識名三丁目１０番１号株式会社日天商事（4360002003390）に合併し解散,2015-10-05,1,,,,,サンコウショクヒン,0
306,1370001045642,登記記録の閉鎖等,0,2025-11-07,2025-10-24,千乃株式会社,,株式会社,宮城県,仙台市青葉区,広瀬町４番８－８０６号,,04,101,9800873,,,2025-10-24,清算の結了等,,,2020-04-10,1,,,,,センノ,0
310,1380005009642,登記記録の閉鎖等,0,2025-11-07,2025-10-28,神習教泉講社,,その他の設立登記法人,福島県,喜多方市,岩月町喜多方字稲村１７０番地,,07,208,9660004,,,2025-10-28,清算の結了等,,,2015-10-05,1,,,,,シンシュウキョウイズミコウシャ,0
313,1400002011615,登記記録の閉鎖等,0,2025-11-07,2025-10-31,有限会社佐藤鈑金製作所,,有限会社,岩手県,釜石市,大渡町１丁目３番９号,,03,211,0260025,,,2025-10-31,清算の結了等,,,2015-10-05,1,,,,,サトウバンキンセイサクショ,0
319,1430002058323,登記記録の閉鎖等,0,2025-11-07,2025-10-29,有限会社カツヤオート,,有限会社,北海道,苫小牧市,新開町２丁目４番８号,,01,213,0530052,,,2025-10-29,清算の結了等,,,2015-10-05,1,,,,,カツヤオート,0
325,1460102007714,登記記録の閉鎖等,0,2025-11-07,2025-10-31,有限会社ＧｅｔＷｅｌｌ,,有限会社,北海道,中川郡幕別町,札内北栄町２番地１３,,01,643,0890537,,,2025-10-31,清算の結了等,,,2015-10-05,1,,,,,ゲットウェル,0
330,1500001014088,登記記録の閉鎖等,0,2025-11-07,2025-11-06,株式会社サイバースペース,,株式会社,愛媛県,松山市,北立花町８番地１ｏｆｆｉｃｅ藤崎１０１,,38,201,7900867,,,2025-11-06,清算の結了等,,,2015-10-05,1,,,,,サイバースペース,0
353,2010401178960,登記記録の閉鎖等,0,2025-11-07,2025-10-01,株式会社ＢＦ‐１,,株式会社,東京都,調布市,小島町１丁目３２番地２,,13,208,1820026,,,2025-10-01,合併による解散等,1010401178961,令和７年１０月１日東京都調布市小島町一丁目３２番地２株式会社ビィ・フォアード（1010401178961）に合併し解散,2023-12-07,1,,,,,ビーエフワン,0
389,2011102008993,登記記録の閉鎖等,0,2025-11-07,2025-10-03,有限会社ジーイーエヌ,,有限会社,東京都,新宿区,高田馬場１丁目３３番１３号千年ビル６０３号,,13,104,1690075,,,2025-10-03,清算の結了等,,,2015-10-05,1,,,,,ジーイーエヌ,0
398,2011801018995,登記記録の閉鎖等,0,2025-11-07,2025-10-27,株式会社わくい,,株式会社,東京都,葛飾区,青戸３丁目２１番５号,,13,122,1250062,,,2025-10-27,清算の結了等,,,2015-10-05,1,,,,,ワクイ,0
404,2012402011530,登記記録の閉鎖等,0,2025-11-07,2025-11-04,有限会社セイカコーポレーション,,有限会社,東京都,多摩市,東寺方１丁目２番地３,,13,224,2060003,,,2025-11-04,合併による解散等,6012401007971,令和７年１１月１日東京都多摩市東寺方一丁目２番地３株式会社セイカ（6012401007971）に合併し解散,2015-10-05,1,,,,,セイカコーポレーション,0
407,2012802003004,登記記録の閉鎖等,0,2025-11-07,2025-10-28,有限会社國里,,有限会社,東京都,昭島市,玉川町１丁目７番２－３１４号,,13,207,1960034,,,2025-10-28,清算の結了等,,,2015-10-05,1,,,,,クニサト,0
411,2013401006876,登記記録の閉鎖等,0,2025-11-07,2025-10-29,株式会社ｌｕｎａ　ｅｍｏｔｉｏｎ,,株式会社,東京都,日野市,富士町１番地の３１ビバヒルズ７３３,,13,212,1910064,,,2025-10-29,清算の結了等,,,2015-10-05,1,,,,,ルナエモーション,0
428,2030001011470,登記記録の閉鎖等,0,2025-11-07,2025-10-29,株式会社田中リフォーム,,株式会社,埼玉県,さいたま市浦和区,常盤１０丁目５番１１号,,11,107,3300061,,,2025-10-29,清算の結了等,,,2015-10-05,1,,,,,タナカリフォーム,0
447,2040002022755,登記記録の閉鎖等,0,2025-11-07,2025-10-09,有限会社島田工業,,有限会社,千葉県,船橋市,南三咲３丁目３０番２棟２１７号,,12,204,2740813,,,2025-10-09,清算の結了等,,,2015-10-05,1,,,,,,0
448,2040002072750,登記記録の閉鎖等,0,2025-11-07,2025-10-07,有限会社神崎自動車,,有限会社,千葉県,市原市,五井東１丁目１７番地５,,12,219,2900055,,,2025-10-07,清算の結了等,,,2015-10-05,1,,,,,カンザキジドウシャ,0
449,2040002099422,登記記録の閉鎖等,0,2025-11-07,2025-10-10,マイソル株式会社,,株式会社,千葉県,館山市,佐野２０７５番地の１,,12,205,2940225,,,2025-10-10,清算の結了等,,,2015-10-05,1,,,,,マイソル,0
455,2060001030699,登記記録の閉鎖等,0,2025-11-07,2025-11-04,株式会社ミライ工房,,株式会社,栃木県,小山市,西城南３丁目１５番地５清風館１０３,,09,208,3230820,,,2025-11-04,清算の結了等,,,2018-07-09,1,,,,,ミライコウボウ,0
457,2060002001880,登記記録の閉鎖等,0,2025-11-07,2025-11-04,有限会社エスエス創造研究所,00024225,有限会社,栃木県,宇都宮市,さつき２丁目７番１５号,,09,201,3210141,,,2025-11-04,清算の結了等,,,2015-10-05,1,,,,,エスエスソウゾウケンキュウジョ,0
485,2120001271741,登記記録の閉鎖等,0,2025-11-07,2025-11-04,株式会社Ｒｉｎｋａ,,株式会社,大阪府,大阪市中央区,東心斎橋２丁目３番１３号日宝スターライトビル６階１,,27,128,5420083,,,2025-11-04,清算の結了等,,,2025-01-08,1,,,,,リンカ,0
496,2120102002509,登記記録の閉鎖等,0,2025-11-07,2025-10-28,有限会社スエヒロ,,有限会社,大阪府,堺市堺区,北三国ヶ丘町８丁２番１５号,,27,141,5900021,,,2025-10-28,清算の結了等,,,2015-10-05,1,,,,,スエヒロ,0
515,2140001120153,登記記録の閉鎖等,0,2025-11-07,2025-10-31,株式会社エルユーエスソリューションズ,,株式会社,兵庫県,神戸市東灘区,本山南町８丁目６番２６号,,28,101,6580015,,,2025-10-31,清算の結了等,,,2021-01-18,1,,,,,エルユーエスソリューションズ,0
523,2160001006144,登記記録の閉鎖等,0,2025-11-07,2025-11-04,Ｌ・ボーン株式会社,,株式会社,滋賀県,甲賀市,信楽町長野１１９７番地２,,25,209,5291851,,,2025-11-04,清算の結了等,,,2015-10-05,1,,,,,エルボーン,0
546,2180302004043,登記記録の閉鎖等,0,2025-11-07,2025-11-05,有限会社マネジメントホーム,,有限会社,愛知県,岡崎市,上和田町字城前４８番地１１,,23,202,4440201,,,2025-11-05,清算の結了等,,,2015-10-05,1,,,,,マネジメントホーム,0
552,2210001019207,登記記録の閉鎖等,0,2025-11-07,2025-11-04,株式会社Ｓ．Ｉ．Ｃ．Ｋ,,株式会社,福井県,敦賀市,木崎３号１１番地の２クリアスプリング中央２番館２０１号室,,18,202,9140814,,,2025-11-04,清算の結了等,,,2023-01-13,1,,,,,シック,0
561,2250002012842,登記記録の閉鎖等,0,2025-11-07,2025-11-04,有限会社オフィスアーレックス,,有限会社,山口県,下関市,宝町３７番地１３号,,35,201,7510822,,,2025-11-04,清算の結了等,,,2015-10-05,1,,,,,オフィスアーレックス,0
575,2290001085530,登記記録の閉鎖等,0,2025-11-07,2025-10-17,株式会社マスタリー,,株式会社,福岡県,古賀市,花見南１丁目３番３号（コーポサンライズ１０３号）,,40,223,8113111,,,2025-10-17,清算の結了等,,,2019-06-11,1,,,,,マスタリー,0
579,2290005006078,登記記録の閉鎖等,0,2025-11-07,2025-09-16,天理教宇美分教会,,その他の設立登記法人,福岡県,糟屋郡宇美町,明神坂１丁目１７番２３号,,40,341,8112122,,,2025-09-16,合併による解散等,2290005006474,令和７年９月１６日福岡県筑紫野市二日市中央五丁目９番１号天理教筑中分教会（2290005006474）に合併し解散,2015-10-05,1,,,,,,0
585,2290802006429,登記記録の閉鎖等,0,2025-11-07,2025-11-05,有限会社明生システム,,有限会社,福岡県,北九州市小倉北区,大手町１２番５－５０４号,,40,106,8030814,,,2025-11-05,清算の結了等,,,2015-10-05,1,,,,,,0
586,2300002004396,登記記録の閉鎖等,0,2025-11-07,2025-11-05,有限会社丸忠,,有限会社,佐賀県,小城市,小城町２８９番地４,,41,208,8450001,,,2025-11-05,清算の結了等,,,2015-10-05,1,,,,,マルチュウ,0
597,2330002003073,登記記録の閉鎖等,0,2025-11-07,2025-10-31,有限会社熊測,,有限会社,熊本県,熊本市中央区,帯山４丁目２０番３号,,43,101,8620924,,,2025-10-31,清算の結了等,,,2015-10-05,1,,,,,クマソク,0
616,2390002011723,登記記録の閉鎖等,0,2025-11-07,2025-11-04,有限会社マツヤ,,有限会社,山形県,村山市,楯岡十日町４番３８号,,06,208,9950017,,,2025-11-04,清算の結了等,,,2015-10-05,1,,,,,マツヤ,0
620,2400502000315,登記記録の閉鎖等,0,2025-11-07,2025-10-30,有限会社ササキ企画,,有限会社,岩手県,一関市,新大町８９番地,,03,209,0210883,,,2025-10-30,清算の結了等,,,2015-10-05,1,,,,,ササキキカク,0
621,2420001002488,登記記録の閉鎖等,0,2025-11-07,2025-10-30,株式会社ケイ・エイチ・ピー,,株式会社,青森県,青森市,大字新城字平岡１０９番地２,,02,201,0380042,,,2025-10-30,清算の結了等,,,2015-10-05,1,,,,,ケイエイチピー,0
642,2500001010383,登記記録の閉鎖等,0,2025-11-07,2025-10-07,株式会社アイデム四国,,株式会社,愛媛県,新居浜市,坂井町３丁目１３番４３号,,38,205,7920812,,,2025-10-07,合併による解散等,1011101001562,令和７年９月１日東京都新宿区新宿一丁目４番１０号株式会社アイデム（1011101001562）に合併し解散,2015-10-05,1,,,,,,0
671,3010501033825,登記記録の閉鎖等,0,2025-11-07,2025-10-30,ルートロニックジャパン株式会社,,株式会社,東京都,品川区,東品川２丁目３番１４号,,13,109,1400002,,,2025-10-30,清算の結了等,,,2015-10-05,1,,,,,ルートロニックジャパン,0
684,3011001060021,登記記録の閉鎖等,0,2025-11-07,2025-10-30,株式会社新音,,株式会社,群馬県,佐波郡玉村町,大字角淵５２１７番地,,10,464,3701100,,,2025-10-30,清算の結了等,,,2015-10-05,1,,,,,シンオン,0
697,3011601014772,登記記録の閉鎖等,0,2025-11-07,2025-10-31,シーケーエス株式会社,,株式会社,東京都,練馬区,北町３丁目１０番１７号,,13,120,1790081,,,2025-10-31,清算の結了等,,,2015-10-05,1,,,,,シーケーエス,0
704,3012402016958,登記記録の閉鎖等,0,2025-11-07,2025-11-04,株式会社スタンド・バイ・ミー,,株式会社,東京都,武蔵野市,吉祥寺南町２丁目６番１０号,,13,203,1800003,,,2025-11-04,合併による解散等,9012401016771,令和７年１１月１日東京都武蔵野市吉祥寺南町二丁目６番１０号株式会社アベカンパニー（9012401016771）に合併し解散,2015-10-05,1,,,,,スタンドバイミー,0
729,3030001063949,登記記録の閉鎖等,0,2025-11-07,2025-10-30,後藤金属株式会社,,株式会社,埼玉県,越谷市,七左町４丁目４番,,11,222,3430851,,,2025-10-30,清算の結了等,,,2015-10-05,1,,,,,ゴトウキンゾク,0
738,3030003002070,登記記録の閉鎖等,0,2025-11-07,2025-10-30,合同会社昭和鉄工,,合同会社,埼玉県,八潮市,大字木曽根６９３番地３,,11,234,3400813,,,2025-10-30,清算の結了等,,,2015-10-05,1,,,,,ショウワテッコウ,0
743,3040001031624,登記記録の閉鎖等,0,2025-11-07,2025-10-10,株式会社ブラス,,株式会社,千葉県,市川市,柏井町２丁目７８１番３号,,12,203,2720802,,,2025-10-10,清算の結了等,,,2015-10-05,1,,,,,ブラス,0
749,3040002087120,登記記録の閉鎖等,0,2025-11-07,2025-10-08,有限会社藤喜,,有限会社,千葉県,香取市,北３丁目１１番地２２,,12,236,2870002,,,2025-10-08,清算の結了等,,,2015-10-05,1,,,,,フジキ,0
755,3060001015633,登記記録の閉鎖等,0,2025-11-07,2025-11-04,株式会社クラスター,,株式会社,栃木県,小山市,大字喜沢１２５８番地,,09,208,3230014,,,2025-11-04,清算の結了等,,,2015-10-05,1,,,,,クラスター,0
768,3100002027136,登記記録の閉鎖等,0,2025-11-07,2025-11-05,有限会社アルプスジム,,有限会社,長野県,北安曇郡白馬村,大字北城８９８９番地２,,20,485,3999301,,,2025-11-05,清算の結了等,,,2015-10-05,1,,,,,アルプスジム,0
785,3120001201152,登記記録の閉鎖等,0,2025-11-07,2025-09-30,株式会社ＥＱＵＡＴＩＯＮ　ＨＯＬＤＩＮＧＳ,,株式会社,大阪府,大阪市淀川区,塚本４丁目１２番１８号,,27,123,5320026,,,2025-09-30,合併による解散等,9120001184243,令和７年９月３０日大阪市北区豊崎三丁目１９番３号株式会社ＥＱＵＡＴＩＯＮ（9120001184243）と合併し解散,2016-10-11,1,,,,,イクエーションホールディングス,0
800,3120005005509,登記記録の閉鎖等,0,2025-11-07,2025-11-04,医療法人博勇会,,その他の設立登記法人,大阪府,大阪市都島区,大東町２丁目２１番１２号,,27,102,5340002,,,2025-11-04,清算の結了等,,,2015-10-05,1,,,,,ハクユウカイ,0
803,3120101059276,登記記録の閉鎖等,0,2025-11-07,2025-10-31,株式会社堺建設,,株式会社,大阪府,堺市堺区,百舌鳥夕雲町２丁４１１番地２,,27,141,5900802,,,2025-10-31,清算の結了等,,,2019-01-16,1,,,,,サカイケンセツ,0
811,3122002016926,登記記録の閉鎖等,0,2025-11-07,2025-10-27,有限会社地王,,有限会社,大阪府,八尾市,太子堂２丁目１番４６号八光第１ビル２０５号,,27,212,5810063,,,2025-10-27,清算の結了等,,,2015-10-05,1,,,,,チオウ,0
817,3130002015138,登記記録の閉鎖等,0,2025-11-07,2025-11-04,有限会社森宮物産,,有限会社,京都府,京都市伏見区,久我森の宮町９番地の１３,,26,109,6128495,,,2025-11-04,清算の結了等,,,2015-10-05,1,,,,,モリミヤブッサン,0
818,3140001016508,登記記録の閉鎖等,0,2025-11-07,2025-10-31,株式会社トーホービルサービス,,株式会社,兵庫県,神戸市長田区,神楽町３丁目７番２号,,28,106,6530836,,,2025-10-31,清算の結了等,,,2015-10-05,1,,,,,トーホービルサービス,0
825,3150002010913,登記記録の閉鎖等,0,2025-11-07,2025-11-04,有限会社久保服飾,,有限会社,奈良県,北葛城郡広陵町,馬見北７丁目４番１－７号,,29,426,6350831,,,2025-11-04,清算の結了等,,,2015-10-05,1,,,,,クボフクショク,0
830,3170002003675,登記記録の閉鎖等,0,2025-11-07,2025-11-06,有限会社みなみ洋品店,,有限会社,和歌山県,和歌山市,友田町５丁目４６番地近鉄百貨店和歌山店,,30,201,6408342,,,2025-11-06,清算の結了等,,,2015-10-05,1,,,,,ミナミヨウヒンテン,0
846,3180302020980,登記記録の閉鎖等,0,2025-11-07,2025-11-04,有限会社長谷部プランニング,,有限会社,愛知県,安城市,桜井町印内南分６１番地,,23,212,4441154,,,2025-11-04,清算の結了等,,,2015-10-05,1,,,,,ハセベプランニング,0
861,3260002032293,登記記録の閉鎖等,0,2025-11-07,2025-10-31,有限会社山本工作所,,有限会社,岡山県,備前市,伊里中４２２番地の４,,33,211,7050023,,,2025-10-31,清算の結了等,,,2015-10-05,1,,,,,ヤマモトコウサクショ,0
872,3290002049252,登記記録の閉鎖等,0,2025-11-07,2025-09-19,有限会社鈴屋,,有限会社,福岡県,久留米市,東町３４番地の７０,,40,203,8300032,,,2025-09-19,清算の結了等,,,2015-10-05,1,,,,,スズヤ,0
914,3460001000256,登記記録の閉鎖等,0,2025-11-07,2025-10-29,カネキタ北釧水産株式会社,,株式会社,北海道,釧路市,星が浦南２丁目６番１０号,,01,206,0840913,,,2025-10-29,清算の結了等,,,2015-10-05,1,,,,,カネキタホクセンスイサン,0
917,3460102000048,登記記録の閉鎖等,0,2025-11-07,2025-10-31,有限会社アースプラン,,有限会社,北海道,帯広市,東四条南１４丁目１９番地,,01,207,0800804,,,2025-10-31,清算の結了等,,,2015-10-05,1,,,,,アースプラン,0
918,3460102000163,登記記録の閉鎖等,0,2025-11-07,2025-10-31,有限会社テキサスライスミル,,有限会社,北海道,帯広市,西二十条南２丁目２２番地の７,,01,207,0802470,,,2025-10-31,合併による解散等,6460101001036,令和７年１０月３１日北海道帯広市西二十条南二丁目２２番地の７株式会社テキサス（6460101001036）に合併し解散,2015-10-05,1,,,,,テキサスライスミル,0
919,3470001003786,登記記録の閉鎖等,0,2025-11-07,2025-11-04,株式会社マツオカ企画,,株式会社,香川県,高松市,浜ノ町５４番１８号,,37,201,7600011,,,2025-11-04,清算の結了等,,,2015-10-05,1,,,,,マツオカキカク,0
921,3470002001954,登記記録の閉鎖等,0,2025-11-07,2025-11-04,有限会社カツガオート,,有限会社,香川県,高松市,香西南町５１０番地６,,37,201,7618014,,,2025-11-04,清算の結了等,,,2015-10-05,1,,,,,カツガオート,0
922,3470002009576,登記記録の閉鎖等,0,2025-11-07,2025-11-04,有限会社みどり商事,,有限会社,香川県,高松市,香川町浅野２７２番地,,37,201,7611703,,,2025-11-04,清算の結了等,,,2015-10-05,1,,,,,ミドリショウジ,0
954,4010405022865,登記記録の閉鎖等,0,2025-11-07,2025-10-08,一般社団法人ノース,,その他の設立登記法人,東京都,港区,虎ノ門３丁目８番８号ＮＴＴ虎ノ門ビル６階,,13,103,1050001,,,2025-10-08,清算の結了等,,,2024-01-11,1,,,,,ノース,0
964,4010801016818,登記記録の閉鎖等,0,2025-11-07,2025-10-28,株式会社ビューティアンドサポート,,株式会社,東京都,大田区,南馬込４丁目３番１１号,,13,111,1430025,,,2025-10-28,清算の結了等,,,2015-10-05,1,,,,,ビューティアンドサポート,0
967,4010901023838,登記記録の閉鎖等,0,2025-11-07,2025-11-05,株式会社ウィルロード,,株式会社,東京都,世田谷区,南烏山２丁目３１番３１－２１１号,,13,112,1570062,,,2025-11-05,清算の結了等,,,2015-10-05,1,,,,,ウィルロード,0
974,4011001119436,登記記録の閉鎖等,0,2025-11-07,2025-10-31,株式会社レモネード・レモニカ,,株式会社,石川県,金沢市,森山１丁目２番２３号,,17,201,9200843,,,2025-10-31,合併による解散等,7010701024323,令和７年１０月１日東京都港区東新橋一丁目９番１号株式会社Ｓｗｅｅｔ　Ｐｉｘｅｌｓ（7010701024323）に合併し解散,2017-11-30,1,,,,,レモネードレモニカ,0
978,4011003019568,登記記録の閉鎖等,0,2025-11-07,2025-10-06,合同会社Ｓａｉｓａｋｅｙ,,合同会社,東京都,渋谷区,道玄坂１丁目１０番８号渋谷道玄坂東急ビル２Ｆ－Ｃ,,13,113,1500043,,,2025-10-06,清算の結了等,,,2024-07-10,1,,,,,サイサキ,0
988,4011403002727,登記記録の閉鎖等,0,2025-11-07,2025-10-31,田中合同会社,,合同会社,東京都,板橋区,成増３丁目３６番２２－１１０１号,,13,119,1750094,,,2025-10-31,清算の結了等,,,2019-06-19,1,,,,,タナカ,0
990,4011503006198,登記記録の閉鎖等,0,2025-11-07,2025-10-28,合同会社Ｔｕｎｅ　Ｓｙｓｔｅｍｓ,,合同会社,東京都,北区,志茂１丁目３番１０号,,13,117,1150042,,,2025-10-28,清算の結了等,,,2024-08-30,1,,,,,チューンシステムズ,0
1004,4012701012434,登記記録の閉鎖等,0,2025-11-07,2025-10-31,株式会社みゆき亭,,株式会社,東京都,小平市,御幸町１３１番５号,,13,211,1870012,,,2025-10-31,清算の結了等,,,2015-10-05,1,,,,,ミユキテイ,0
1013,4020001150490,登記記録の閉鎖等,0,2025-11-07,2025-10-30,株式会社エヌジーエンジニアリング,,株式会社,神奈川県,川崎市幸区,中幸町１丁目５５番地１１,,14,132,2120012,,,2025-10-30,清算の結了等,,,2023-03-06,1,,,,,エヌジーエンジニアリング,0
1016,4020003027687,登記記録の閉鎖等,0,2025-11-07,2025-10-27,合同会社ミラエイト,,合同会社,神奈川県,横浜市中区,千代崎町２丁目７１－７ヴェレーナグラン山手３０２,,14,104,2310864,,,2025-10-27,清算の結了等,,,2025-01-22,1,,,,,ミラエイト,0
1021,4030001053239,登記記録の閉鎖等,0,2025-11-07,2025-10-30,マイプレイスビルド株式会社,,株式会社,埼玉県,越谷市,大沢３丁目２０番１７号,,11,222,3430025,,,2025-10-30,清算の結了等,,,2015-10-05,1,,,,,マイプレイスビルド,0
1024,4030001074284,登記記録の閉鎖等,0,2025-11-07,2025-10-29,株式会社改良園,,株式会社,埼玉県,川口市,大字神戸１２３番地,,11,203,3330832,,,2025-10-29,清算の結了等,,,2015-10-05,1,,,,,カイリョウエン,0
1045,4060002014807,登記記録の閉鎖等,0,2025-11-07,2025-11-04,有限会社カネダ産業,,有限会社,栃木県,日光市,丹勢６３１番地１０,,09,206,3211449,,,2025-11-04,清算の結了等,,,2015-10-05,1,,,,,カネダサンギョウ,0
1055,4100002008432,登記記録の閉鎖等,0,2025-11-07,2025-10-31,有限会社清水ダイカスト工場,,有限会社,長野県,須坂市,大字塩野字浦欠１１４３番地２２,,20,207,3820000,,,2025-10-31,清算の結了等,,,2015-10-05,1,,,,,シミズダイカストコウジョウ,0
1059,4110005005491,登記記録の閉鎖等,0,2025-11-07,2025-10-01,医療法人恵愛会,,その他の設立登記法人,新潟県,三条市,大島５１０３番地,,15,204,9550094,,,2025-10-01,合併による解散等,3110005011210,令和７年１０月１日新潟県長岡市深沢町２３００番地社会医療法人崇徳会（3110005011210）に合併し解散,2015-10-05,1,,,,,ケイアイカイ,0
1075,4120101032950,登記記録の閉鎖等,0,2025-11-07,2025-10-31,株式会社中龍,,株式会社,大阪府,藤井寺市,藤井寺２丁目８番１５号,,27,226,5830024,,,2025-10-31,清算の結了等,,,2015-10-05,1,,,,,チュウリュウ,0
1080,4120901009264,登記記録の閉鎖等,0,2025-11-07,2025-10-31,紀予電機株式会社,,株式会社,大阪府,守口市,八雲中町３丁目１３番３６－７０４号,,27,209,5700005,,,2025-10-31,清算の結了等,,,2015-10-05,1,,,,,キヨデンキ,0
1092,4140001046652,登記記録の閉鎖等,0,2025-11-07,2025-10-30,株式会社光建設,,株式会社,兵庫県,養父市,十二所５５１番地２,,28,222,6670102,,,2025-10-30,清算の結了等,,,2015-10-05,1,,,,,ヒカリケンセツ,0
1103,4150001019426,登記記録の閉鎖等,0,2025-11-07,2025-11-06,株式会社一笑,,株式会社,奈良県,香芝市,良福寺６０番地５,,29,210,6390235,,,2025-11-06,清算の結了等,,,2015-10-05,1,,,,,イッショウ,0
1109,4160001020936,登記記録の閉鎖等,0,2025-11-07,2025-11-05,株式会社トラスト不動産,,株式会社,滋賀県,栗東市,小柿５丁目１１番３－１２号,,25,208,5203024,,,2025-11-05,清算の結了等,,,2018-05-21,1,,,,,トラストフドウサン,0
1111,4160002008402,登記記録の閉鎖等,0,2025-11-07,2025-11-04,有限会社中川セ材,,有限会社,滋賀県,彦根市,彦富町１２０８番地,,25,202,5211114,,,2025-11-04,清算の結了等,,,2015-10-05,1,,,,,,0
1133,4180302014288,登記記録の閉鎖等,0,2025-11-07,2025-11-04,有限会社渡辺木管製作所,,有限会社,愛知県,豊川市,為当町尻無２１番地,,23,207,4420845,,,2025-11-04,清算の結了等,,,2015-10-05,1,,,,,ワタナベモッカンセイサクショ,0
1135,4180303003158,登記記録の閉鎖等,0,2025-11-07,2025-10-24,合同会社ＥＶＥＲＧＲＥＥＮ,,合同会社,愛知県,岡崎市,大和町字家下２５番地８アヴァンセＭ４０１,,23,202,4440931,,,2025-10-24,清算の結了等,,,2015-10-05,1,,,,,エバーグリーン,0
1139,4190001013879,登記記録の閉鎖等,0,2025-11-07,2025-10-30,中京ベース株式会社,,株式会社,三重県,桑名市,大字小貝須字二番割１０５０番地８,,24,205,5110841,,,2025-10-30,清算の結了等,,,2015-10-05,1,,,,,チュウキョウベース,0
1152,4240003004598,登記記録の閉鎖等,0,2025-11-07,2025-11-04,合同会社ニヘイ,,合同会社,広島県,広島市南区,西蟹屋３丁目１８番３－１１０２号,,34,103,7320804,,,2025-11-04,清算の結了等,,,2020-03-12,1,,,,,ニヘイ,0
1157,4260002020495,登記記録の閉鎖等,0,2025-11-07,2025-11-04,有限会社花美工房,,有限会社,岡山県,倉敷市,玉島長尾２３４番地の２,,33,202,7100251,,,2025-11-04,清算の結了等,,,2015-10-05,1,,,,,ハナミコウボウ,0
1165,4290801023167,登記記録の閉鎖等,0,2025-11-07,2025-11-05,ＵｎｉｒＴｅｃｈｎｉｃａ株式会社,,株式会社,福岡県,北九州市小倉北区,井堀３丁目１６番１３号,,40,106,8030835,,,2025-11-05,清算の結了等,,,2017-01-10,1,,,,,ユニールテクニカ,0
1167,4290802024899,登記記録の閉鎖等,0,2025-11-07,2025-11-04,有限会社田川化工,,有限会社,福岡県,田川郡香春町,大字鏡山５４３番地の８,,40,601,8221402,,,2025-11-04,清算の結了等,,,2015-10-05,1,,,,,タガワカコウ,0
1168,4300001012084,登記記録の閉鎖等,0,2025-11-07,2025-11-04,株式会社くすきの杜,,株式会社,佐賀県,伊万里市,立花町３５２０番地６,,41,205,8480027,,,2025-11-04,合併による解散等,6300001005499,令和７年１１月１日佐賀県伊万里市立花町３５２０番地６株式会社回生薬局（6300001005499）に合併し解散,2020-06-02,1,,,,,クスキノモリ,0
1176,4360002002161,登記記録の閉鎖等,0,2025-11-07,2025-10-01,有限会社昇栄産業,,有限会社,沖縄県,那覇市,字仲井真３７９番地の２,,47,201,9020074,,,2025-10-01,合併による解散等,8360001001037,令和７年１０月１日沖縄県那覇市字仲井真３７９番地２しらゆり産業株式会社（8360001001037）に合併し解散,2015-10-05,1,,,,,ショウエイサンギョウ,0
1183,4380001003828,登記記録の閉鎖等,0,2025-11-07,2025-10-29,株式会社デクリエ,,株式会社,福島県,福島市,庄野字柿場１番地の１,,07,201,9602153,,,2025-10-29,清算の結了等,,,2015-10-05,1,,,,,デクリエ,0
1185,4390002013296,登記記録の閉鎖等,0,2025-11-07,2025-11-04,有限会社日の出,,有限会社,山形県,米沢市,東大通３丁目６番１２号,,06,202,9920024,,,2025-11-04,清算の結了等,,,2015-10-05,1,,,,,ヒノデ,0
1197,4430001004085,登記記録の閉鎖等,0,2025-11-07,2025-10-31,株式会社上山駐車場,,株式会社,北海道,札幌市中央区,北三条西２丁目１番地,,01,101,0600003,,,2025-10-31,清算の結了等,,,2015-10-05,1,,,,,カミヤマチュウシャジョウ,0
1199,4430001064410,登記記録の閉鎖等,0,2025-11-07,2025-10-31,株式会社ミナミ,,株式会社,北海道,苫小牧市,見山町２丁目２番３号,,01,213,0530855,,,2025-10-31,清算の結了等,,,2015-10-05,1,,,,,ミナミ,0
1206,4460002002639,登記記録の閉鎖等,0,2025-11-07,2025-10-31,有限会社北島漁業,,有限会社,北海道,釧路市,千代ノ浦１番２５号,,01,206,0850823,,,2025-10-31,清算の結了等,,,2015-10-05,1,,,,,キタジマギョギョウ,0
1212,4500002002080,登記記録の閉鎖等,0,2025-11-07,2025-11-06,有限会社カネキヨ食品,,有限会社,愛媛県,松山市,衣山５丁目３１番地２９,,38,201,7918025,,,2025-11-06,清算の結了等,,,2015-10-05,1,,,,,カネキヨショクヒン,0
1233,5010101008630,登記記録の閉鎖等,0,2025-11-07,2025-11-04,株式会社Ｍ’ｓ,,株式会社,東京都,府中市,分梅町１丁目３２番１号永井ビル,,13,206,1830033,,,2025-11-04,合併による解散等,1012401033551,令和７年１１月１日東京都府中市分梅町一丁目３２番地の１株式会社源（1012401033551）に合併し解散,2015-10-05,1,,,,,エムズ,0
1236,5010401132188,登記記録の閉鎖等,0,2025-11-07,2025-10-17,株式会社ＡＣＣ,,株式会社,東京都,港区,港南１丁目６番３１号,,13,103,1080075,,,2025-10-17,清算の結了等,,,2017-06-23,1,,,,,エーシーシー,0
1251,5010801005357,登記記録の閉鎖等,0,2025-11-07,2025-10-28,株式会社システムデザイン研究所,,株式会社,東京都,大田区,西蒲田８丁目２４番７号,,13,111,1440051,,,2025-10-28,清算の結了等,,,2015-10-05,1,,,,,システムデザインケンキュウジョ,0
1272,5011002006046,登記記録の閉鎖等,0,2025-11-07,2025-10-31,有限会社建築事務所冬工房,,有限会社,東京都,世田谷区,北烏山８丁目１０番５号第１北烏山ヒミコマンション５０２,,13,112,1570061,,,2025-10-31,清算の結了等,,,2015-10-05,1,,,,,ケンチクジムショフユコウボウ,0
1291,5011601020018,登記記録の閉鎖等,0,2025-11-07,2025-10-31,株式会社グローバルアシスト,,株式会社,東京都,練馬区,桜台５丁目１番２号,,13,120,1760002,,,2025-10-31,清算の結了等,,,2015-10-05,1,,,,,グローバルアシスト,0
1316,5021001080017,登記記録の閉鎖等,0,2025-11-07,2025-10-31,株式会社ＢＯＳＣＯ　ＬＩＢＲＯ,,株式会社,大阪府,大阪市西淀川区,姫島３丁目１４番８－１１号,,27,113,5550033,,,2025-10-31,清算の結了等,,,2023-08-25,1,,,,,ボスコリブロ,0
1319,5021003006168,登記記録の閉鎖等,0,2025-11-07,2025-10-16,合同会社ＺＡＰＰＹ,,合同会社,神奈川県,逗子市,小坪６丁目７番地２０－１号,,14,208,2490008,,,2025-10-16,清算の結了等,,,2016-08-29,1,,,,,ザッピー,0
1340,5030005019029,登記記録の閉鎖等,0,2025-11-07,2025-10-31,匠Ｌｉｆｅｗｏｒｋ協同組合,,その他の設立登記法人,埼玉県,さいたま市南区,辻８丁目１８,,11,108,3360026,,,2025-10-31,清算の結了等,,,2018-05-23,1,,,,,タクミライフワーク,0
1347,5040003013197,登記記録の閉鎖等,0,2025-11-07,2025-10-09,ノビオコンサルティング合同会社,,合同会社,千葉県,千葉市花見川区,作新台２丁目４－１９,,12,102,2620045,,,2025-10-09,清算の結了等,,,2019-04-08,1,,,,,ノビオコンサルティング,0
1351,5050001005229,登記記録の閉鎖等,0,2025-11-07,2025-10-01,日産プリンス茨城販売株式会社,00021916,株式会社,茨城県,水戸市,千波町１９４９番地１,,08,201,3100851,,,2025-10-01,合併による解散等,9050001000291,令和７年１０月１日茨城県水戸市千波町１９４９番地１茨城日産自動車株式会社（9050001000291）に合併し解散,2015-10-05,1,,,,,ニッサンプリンスイバラキハンバイ,0
1358,5060001034862,登記記録の閉鎖等,0,2025-11-07,2025-11-05,株式会社ＴＡＬＰＡ　ＪＡＰＡＮ,,株式会社,栃木県,宇都宮市,西川田町２７２番地１,,09,201,3210151,,,2025-11-05,清算の結了等,,,2022-05-11,1,,,,,タルパジャパン,0
1368,5080102018036,登記記録の閉鎖等,0,2025-11-07,2025-11-04,有限会社魚源,,有限会社,静岡県,熱海市,昭和町１８番１０号,,22,205,4130022,,,2025-11-04,清算の結了等,,,2015-10-05,1,,,,,ウオゲン,0
1372,5100002029733,登記記録の閉鎖等,0,2025-11-07,2025-11-04,有限会社上原ふとん店,,有限会社,長野県,茅野市,ちの１１１８番地,,20,214,3910001,,,2025-11-04,清算の結了等,,,2015-10-05,1,,,,,ウエハラフトンテン,0
1379,5120001256839,登記記録の閉鎖等,0,2025-11-07,2025-10-21,強盛株式会社,,株式会社,大阪府,大阪市東淀川区,西淡路１丁目１４－３０プレアール東淀川３０３号室,,27,114,5330031,,,2025-10-21,清算の結了等,,,2023-08-01,1,,,,,キョウセイ,0
1390,5120005010218,登記記録の閉鎖等,0,2025-11-07,2025-10-01,医療法人小室歯科難波診療所,,その他の設立登記法人,大阪府,大阪市中央区,難波４丁目１番１５号近鉄難波ビル３階,,27,128,5420076,,,2025-10-01,合併による解散等,4120005005111,令和７年１０月１日大阪市天王寺区悲田院町１０番４８号天王寺ステーションビルディング６階医療法人小室会（4120005005111）に合併し解散,2015-10-05,1,,,,,,0
1396,5120102005780,登記記録の閉鎖等,0,2025-11-07,2025-11-04,有限会社タカハタデンキ,,有限会社,大阪府,堺市西区,北条町１丁８番１０号,,27,144,5938302,,,2025-11-04,合併による解散等,4120001113017,令和７年１０月２８日大阪市淀川区宮原一丁目１番１号新大阪阪急ビル３階株式会社エクスト（4120001113017）に合併し解散,2015-10-05,1,,,,,タカハタデンキ,0
1434,5150005007343,登記記録の閉鎖等,0,2025-11-07,2025-11-04,財団法人天河文化財団,,その他の設立登記法人,奈良県,吉野郡天川村,大字坪内１３番地,,29,446,6380321,,,2025-11-04,清算の結了等,,,2015-10-05,1,,,,,テンカワブンカザイダン,0
1443,5180001080283,登記記録の閉鎖等,0,2025-11-07,2025-10-28,夢屋工房Ｌ＆Ｌ株式会社,,株式会社,愛知県,瀬戸市,みずの坂５丁目１１２番地,,23,204,4890909,,,2025-10-28,清算の結了等,,,2015-10-05,1,,,,,ユメヤコウボウエルアンドエル,0
1454,5180301000536,登記記録の閉鎖等,0,2025-11-07,2025-11-05,株式会社オン・アンド・オン,,株式会社,愛知県,岡崎市,若松東２丁目７番地１０,,23,202,4440822,,,2025-11-05,清算の結了等,,,2015-10-05,1,,,,,オンアンドオン,0
1459,5180303001400,登記記録の閉鎖等,0,2025-11-07,2025-10-31,合名会社サカキバラ,,合名会社,愛知県,豊橋市,広小路１丁目２１番地,,23,201,4400881,,,2025-10-31,清算の結了等,,,2015-10-05,1,,,,,サカキバラ,0
1460,5180303005293,登記記録の閉鎖等,0,2025-11-07,2025-10-27,合資会社山脇崇成堂薬局,,合資会社,愛知県,高浜市,青木町４丁目７番地４４,,23,227,4441325,,,2025-10-27,清算の結了等,,,2022-04-15,1,,,,,ヤマワキスウセイドウヤッキョク,0
1475,5240005004653,登記記録の閉鎖等,0,2025-11-07,2025-10-01,広島県北部乾繭農業協同組合連合会,,その他の設立登記法人,広島県,三次市,十日市東３丁目１番１号,,34,209,7280013,,,2025-10-01,合併による解散等,3240005015553,令和７年１０月１日広島県東広島市西条栄町１０番３５号ひろしま農業協同組合（3240005015553）に権利義務を承継し解散,2015-10-05,1,,,,,ヒロシマケンホクブカンケン,0
1503,5290002039895,登記記録の閉鎖等,0,2025-11-07,2025-10-03,有限会社博多サービス,,有限会社,福岡県,大野城市,仲畑２丁目４番３８号,,40,219,8160921,,,2025-10-03,清算の結了等,,,2015-10-05,1,,,,,,0
1504,5290002055620,登記記録の閉鎖等,0,2025-11-07,2025-10-09,有限会社ＭＩＴ,,有限会社,福岡県,大牟田市,大字手鎌６６７－５,,40,202,8360004,,,2025-10-09,清算の結了等,,,2015-10-05,1,,,,,エムアイティ,0
1508,5290801006063,登記記録の閉鎖等,0,2025-11-07,2025-11-05,農協牛乳販売株式会社,,株式会社,福岡県,北九州市戸畑区,中原東２丁目９番１号,,40,105,8040012,,,2025-11-05,清算の結了等,,,2015-10-05,1,,,,,ノウキョウギュウニュウハンバイ,0
1512,5300005005703,登記記録の閉鎖等,0,2025-11-07,2025-10-06,天理教豊若分教会,,その他の設立登記法人,佐賀県,唐津市,厳木町本山５１０番地,,41,202,8493133,,,2025-10-06,合併による解散等,5320005007722,令和７年１０月３日大分県中津市大字下池永５１９番地天理教中津大教会（5320005007722）に合併し解散,2015-10-05,1,,,,,テンリキョウトヨワカブンキョウカイ,0
1522,5360001011105,登記記録の閉鎖等,0,2025-11-07,2025-10-01,株式会社アシスト開発,,株式会社,沖縄県,浦添市,牧港５丁目６番３号４Ｂ－３号,,47,208,9012131,,,2025-10-01,合併による解散等,4360001011659,令和７年１０月１日沖縄県浦添市牧港五丁目６番３号４Ｂ－３号株式会社プロスコーポレーション（4360001011659）に合併し解散,2015-10-05,1,,,,,アシストカイハツ,0
1526,5370201002217,登記記録の閉鎖等,0,2025-11-07,2025-10-28,株式会社小畑商店,,株式会社,宮城県,大崎市,鹿島台木間塚字後迫２番地の１１,,04,215,9894102,,,2025-10-28,清算の結了等,,,2015-10-05,1,,,,,オバタショウテン,0
1530,5400002004284,登記記録の閉鎖等,0,2025-11-07,2025-10-31,有限会社スタープロ,,有限会社,岩手県,盛岡市,芋田字上武道１７０番地５,,03,201,0284131,,,2025-10-31,清算の結了等,,,2015-10-05,1,,,,,スタープロ,0
1546,5500001025783,登記記録の閉鎖等,0,2025-11-07,2025-11-04,株式会社Ｌａｎｃｅ,,株式会社,愛媛県,松山市,和泉北１丁目１番３号－１０７,,38,201,7900038,,,2025-11-04,清算の結了等,,,2024-08-01,1,,,,,ランス,0
1550,5500005003471,登記記録の閉鎖等,0,2025-11-07,2025-10-07,天理教矢野崎分教会,,その他の設立登記法人,愛媛県,八幡浜市,向灘２２５番地の１０,00008481,38,204,7960001,,,2025-10-07,合併による解散等,3500005003473,令和７年１０月７日愛媛県八幡浜市字新地３７５番地天理教西宇和分教会（3500005003473）に合併し解散,2015-10-05,1,,,,,テンリキョウヤノザキブンキョウカイ,0
1555,6010001132983,登記記録の閉鎖等,0,2025-11-07,2025-10-28,株式会社ナイン企画,,株式会社,東京都,中央区,新川１丁目２８番４－９０７号,,13,102,1040033,,,2025-10-28,清算の結了等,,,2015-10-05,1,,,,,ナインキカク,0
1569,6010401050158,登記記録の閉鎖等,0,2025-11-07,2025-11-04,株式会社ライフシステム,,株式会社,東京都,港区,六本木５丁目５番１４号,,13,103,1060032,,,2025-11-04,合併による解散等,7010802020584,令和７年１０月２３日東京都中央区月島一丁目５番１－２５１０号株式会社金星観光（7010802020584）に合併し解散,2015-10-05,1,,,,,,0
1581,6010501051667,登記記録の閉鎖等,0,2025-11-07,2025-10-27,株式会社五香堂,,株式会社,東京都,台東区,浅草５丁目４１番７－５０１号,,13,106,1110032,,,2025-10-27,清算の結了等,,,2024-01-24,1,,,,,,0
1588,6010801003491,登記記録の閉鎖等,0,2025-11-07,2025-10-23,株式会社京浜プランテック,,株式会社,東京都,大田区,大森北３丁目２４番２７号,,13,111,1430016,,,2025-10-23,清算の結了等,,,2015-10-05,1,,,,,ケイヒンプランテック,0
1592,6010805002374,登記記録の閉鎖等,0,2025-11-07,2025-10-28,税理士法人益子会計,,その他の設立登記法人,東京都,大田区,山王２丁目５番１３号大森北口ビル５階,,13,111,1430023,,,2025-10-28,清算の結了等,,,2016-07-07,1,,,,,マシコカイケイ,0
1597,6011001146577,登記記録の閉鎖等,0,2025-11-07,2025-10-07,株式会社ＳｔａｒＣｌｉｅｎｔ,,株式会社,東京都,渋谷区,神宮前６丁目２３番４号桑野ビル２階,,13,113,1500001,,,2025-10-07,清算の結了等,,,2022-03-29,1,,,,,スタークライアント,0
1608,6011102021951,登記記録の閉鎖等,0,2025-11-07,2025-10-06,有限会社宍倉敏明事務所,,有限会社,東京都,新宿区,富久町８番１６号,,13,104,1620067,,,2025-10-06,清算の結了等,,,2015-10-05,1,,,,,シシクラトシアキジムショ,0
1609,6011301018278,登記記録の閉鎖等,0,2025-11-07,2025-10-29,株式会社メディコム,,株式会社,東京都,大田区,西蒲田７丁目５番１１号ツユキビル４階,,13,111,1440051,,,2025-10-29,清算の結了等,,,2015-10-05,1,,,,,メディコム,0
1613,6011501007469,登記記録の閉鎖等,0,2025-11-07,2025-11-05,高間自動車株式会社,00055650,株式会社,東京都,荒川区,南千住７丁目２４番２４号南千住スカイハイツ３１３号室,,13,118,1160003,,,2025-11-05,清算の結了等,,,2015-10-05,1,,,,,タカマジドウシャ,0
1628,6012403007012,登記記録の閉鎖等,0,2025-11-07,2025-10-28,合同会社さんぽ,,合同会社,東京都,多摩市,和田４２５－１６,,13,224,2060001,,,2025-10-28,清算の結了等,,,2025-03-10,1,,,,,サンポ,0
1631,6013201012278,登記記録の閉鎖等,0,2025-11-07,2025-10-07,株式会社ＦＯＣ,,株式会社,東京都,渋谷区,広尾１丁目１番３９号恵比寿スクエアタワー２０Ｆ,,13,113,1500012,,,2025-10-07,合併による解散等,9011001043532,令和７年１０月１日東京都渋谷区広尾一丁目１番３９号恵比寿プライムスクェアタワー株式会社ＪＳＤＳＳ（9011001043532）に合併し解散,2015-10-05,1,,,,,エフオーシー,0
1653,6030001018116,登記記録の閉鎖等,0,2025-11-07,2025-10-30,株式会社日機送,,株式会社,埼玉県,さいたま市岩槻区,古ケ場２丁目１０番地１５,,11,110,3390072,,,2025-10-30,清算の結了等,,,2015-10-05,1,,,,,ニッキソウ,0
1672,6040001095451,登記記録の閉鎖等,0,2025-11-07,2025-10-06,株式会社東横インベストメント,,株式会社,東京都,目黒区,鷹番２丁目１５番２２号,,13,110,1520004,,,2025-10-06,清算の結了等,,,2016-05-31,1,,,,,トウヨコインベストメント,0
1686,6050002003965,登記記録の閉鎖等,0,2025-11-07,2025-10-31,有限会社内原タクシー,,有限会社,茨城県,水戸市,内原１丁目１０番地,,08,201,3190317,,,2025-10-31,清算の結了等,,,2015-10-05,1,,,,,ウチハラタクシー,0
1690,6060001025852,登記記録の閉鎖等,0,2025-11-07,2025-10-22,株式会社カワセミ,,株式会社,東京都,千代田区,丸の内３丁目４番１号新国際ビル４階,,13,101,1000005,,,2025-10-22,清算の結了等,,,2015-10-05,1,,,,,カワセミ,0
1697,6070005000933,登記記録の閉鎖等,0,2025-11-07,2025-10-01,群馬県牛乳販売農業協同組合連合会,,その他の設立登記法人,群馬県,前橋市,二之宮町１４４８番地,,10,201,3792117,,,2025-10-01,合併による解散等,5070005010116,令和７年１０月１日群馬県前橋市二之宮町１４４８番地ぐんま酪農業協同組合（5070005010116）に権利義務を承継し解散,2015-10-05,1,,,,,グンマケンギュウニュウハンバイ,0
1700,6080002009745,登記記録の閉鎖等,0,2025-11-07,2025-11-04,有限会社グリーンエネック,,有限会社,静岡県,静岡市清水区,梅ヶ谷２９１番地の１６,,22,103,4240001,,,2025-11-04,清算の結了等,,,2015-10-05,1,,,,,グリーンエネック,0
1715,6100002030533,登記記録の閉鎖等,0,2025-11-07,2025-11-05,有限会社マドヤ,,有限会社,長野県,茅野市,ちの２３０番地１,,20,214,3910001,,,2025-11-05,清算の結了等,,,2015-10-05,1,,,,,マドヤ,0
1718,6120001141081,登記記録の閉鎖等,0,2025-11-07,2025-11-04,株式会社ファイブエスコーポレーション,,株式会社,大阪府,大阪市北区,堂山町４番１５号,,27,127,5300027,,,2025-11-04,合併による解散等,2120001135104,令和７年１１月１日大阪市北区堂山町４番１５号株式会社ジャパンフーズコーポレーション（2120001135104）に合併し解散,2015-10-05,1,,,,,ファイブエスコーポレーション,0
1735,6140001005061,登記記録の閉鎖等,0,2025-11-07,2025-10-31,田中産業株式会社,,株式会社,兵庫県,神戸市西区,玉津町今津４１９番地の４,,28,111,6512128,,,2025-10-31,清算の結了等,,,2015-10-05,1,,,,,,0
1749,6150002004144,登記記録の閉鎖等,0,2025-11-07,2025-11-05,有限会社トレーネ,,有限会社,奈良県,生駒市,青山台３４２番地の３１,,29,209,6300239,,,2025-11-05,清算の結了等,,,2015-10-05,1,,,,,トレーネ,0
1750,6150005007994,登記記録の閉鎖等,0,2025-11-07,2025-11-05,一般社団法人奈良腎疾患研究会,,その他の設立登記法人,奈良県,北葛城郡河合町,高塚台１丁目１１番地７,,29,427,6360071,,,2025-11-05,清算の結了等,,,2015-10-05,1,,,,,ナラジンシッカンケンキュウカイ,0
1757,6180001023745,登記記録の閉鎖等,0,2025-11-07,2025-10-28,株式会社スパイス,,株式会社,愛知県,名古屋市天白区,鴻の巣１丁目１３１８番地,,23,116,4680003,,,2025-10-28,清算の結了等,,,2015-10-05,1,,,,,スパイス,0
1760,6180001125558,登記記録の閉鎖等,0,2025-11-07,2025-10-29,アイワドー株式会社,,株式会社,愛知県,大府市,東新町５丁目３４番地,,23,223,4740073,,,2025-10-29,清算の結了等,,,2016-11-17,1,,,,,アイワドー,0
1817,6350002002549,登記記録の閉鎖等,0,2025-11-07,2025-10-31,有限会社セレクト商事,,有限会社,宮崎県,宮崎市,青島西１丁目７番地３,,45,201,8892163,,,2025-10-31,清算の結了等,,,2015-10-05,1,,,,,セレクトショウジ,0
1821,6370001001905,登記記録の閉鎖等,0,2025-11-07,2025-10-24,大和恵商事株式会社,,株式会社,宮城県,仙台市太白区,東中田６丁目３番３０号,,04,104,9811107,,,2025-10-24,清算の結了等,,,2015-10-05,1,,,,,タイワケイショウジ,0
1823,6370001019286,登記記録の閉鎖等,0,2025-11-07,2025-10-27,株式会社ワールドリーヴ,,株式会社,宮城県,仙台市青葉区,国分町２丁目２番７号,,04,101,9800803,,,2025-10-27,清算の結了等,,,2015-10-05,1,,,,,ワールドリーヴ,0
1828,6420003002771,登記記録の閉鎖等,0,2025-11-07,2025-10-28,合同会社サトウゴト,,合同会社,青森県,八戸市,根城４丁目２１番１２号,,02,203,0391166,,,2025-10-28,清算の結了等,,,2023-08-10,1,,,,,サトウゴト,0
1838,6460305000949,登記記録の閉鎖等,0,2025-11-07,2025-11-05,医療法人社団平間医院,,その他の設立登記法人,北海道,網走郡美幌町,字東一条北３丁目４番地,,01,543,0920051,,,2025-11-05,清算の結了等,,,2015-10-05,1,,,,,ヒラマイイン,0
1844,6500001020057,登記記録の閉鎖等,0,2025-11-07,2025-11-06,株式会社愛媛東建ジオテック,,株式会社,愛媛県,松山市,和泉北２丁目１２番２１号,,38,201,7900038,,,2025-11-06,清算の結了等,,,2016-08-30,1,,,,,エヒメトウケンジオテック,0
1849,7010001093556,登記記録の閉鎖等,0,2025-11-07,2025-10-29,吉本企画株式会社,,株式会社,東京都,文京区,小石川１丁目９番１４－１２０１号,,13,105,1120002,,,2025-10-29,清算の結了等,,,2015-10-05,1,,,,,ヨシモトキカク,0
1851,7010001129442,登記記録の閉鎖等,0,2025-11-07,2025-10-28,株式会社クリムゾン,,株式会社,東京都,中央区,銀座１丁目２７番８号セントラルビル７０３号,,13,102,1040061,,,2025-10-28,清算の結了等,,,2015-10-05,1,,,,,クリムゾン,0
1866,7010401141294,登記記録の閉鎖等,0,2025-11-07,2025-10-23,株式会社Ｓｅｃｒｅｔ,,株式会社,東京都,台東区,根岸１丁目１番１４号,,13,106,1100003,,,2025-10-23,合併による解散等,3010401108165,令和７年１０月１日東京都台東区根岸一丁目１番１４号株式会社ゼータ（3010401108165）に合併し解散,2018-10-10,1,,,,,シークレット,0
1870,7010402021990,登記記録の閉鎖等,0,2025-11-07,2025-10-09,有限会社高野都市研究室,,有限会社,東京都,港区,赤坂３丁目１１番３号,,13,103,1070052,,,2025-10-09,清算の結了等,,,2015-10-05,1,,,,,タカノトシケンキュウシツ,0
1871,7010402028920,登記記録の閉鎖等,0,2025-11-07,2025-10-24,有限会社ＩＩＤｊ情報デザインアソシエイツ,,有限会社,東京都,中央区,日本橋堀留町１丁目２番９号,,13,102,1030012,,,2025-10-24,清算の結了等,,,2015-10-05,1,,,,,アイアイディージェージョウホウデザインアソシエイツ,0
1875,7010603004704,登記記録の閉鎖等,0,2025-11-07,2025-10-20,ヒューレット・パッカード合同会社,,合同会社,東京都,港区,港南１丁目２番７０号品川シーズンテラス,,13,103,1080075,,,2025-10-20,合併による解散等,8010601047191,令和７年１０月１７日東京都港区港南一丁目２番７０号品川シーズンテラス株式会社日本ＨＰ（8010601047191）に合併し解散,2015-10-05,1,,,,,ヒューレットパッカード,0
1892,7011001120746,登記記録の閉鎖等,0,2025-11-07,2025-10-02,株式会社グラント・アライアンスパートナー,,株式会社,東京都,港区,芝４丁目７番７号ビラ・アペックス田町７階,,13,103,1080014,,,2025-10-02,清算の結了等,,,2018-02-20,1,,,,,グラントアライアンスパートナー,0
1916,7011802003174,登記記録の閉鎖等,0,2025-11-07,2025-10-28,有限会社サカエ理容所,,有限会社,東京都,葛飾区,堀切４丁目７番１９号,,13,122,1240006,,,2025-10-28,清算の結了等,,,2015-10-05,1,,,,,サカエリヨウショ,0
1917,7011805000706,登記記録の閉鎖等,0,2025-11-07,2025-10-07,医療法人社団五十鈴会,,その他の設立登記法人,東京都,葛飾区,西新小岩４丁目３９番２０号,,13,122,1240025,,,2025-10-07,合併による解散等,7180005002380,令和７年１０月１日名古屋市中区新栄一丁目３２番２２号医療法人勝又（7180005002380）に合併し解散,2015-10-05,1,,,,,イスズカイ,0
1929,7020001032521,登記記録の閉鎖等,0,2025-11-07,2025-10-30,株式会社インプレス,,株式会社,神奈川県,横浜市港北区,篠原東１丁目５番２６号,,14,109,2220022,,,2025-10-30,清算の結了等,,,2015-10-05,1,,,,,インプレス,0
1953,7030002008668,登記記録の閉鎖等,0,2025-11-07,2025-10-31,有限会社高砂,00016062,有限会社,埼玉県,さいたま市大宮区,桜木町４丁目２８１番地,,11,103,3300854,,,2025-10-31,清算の結了等,,,2015-10-05,1,,,,,タカサゴ,0
1955,7030002046040,登記記録の閉鎖等,0,2025-11-07,2025-10-27,有限会社森酒店,,有限会社,埼玉県,草加市,金明町７８１番地,,11,221,3400052,,,2025-10-27,清算の結了等,,,2015-10-05,1,,,,,モリサケテン,0
1959,7040001109409,登記記録の閉鎖等,0,2025-11-07,2025-10-09,株式会社印刷カンパニー,,株式会社,千葉県,君津市,大和田２丁目５番地１２,,12,225,2991146,,,2025-10-09,清算の結了等,,,2019-06-04,1,,,,,インサツカンパニー,0
1963,7040002010458,登記記録の閉鎖等,0,2025-11-07,2025-10-09,有限会社ホープ食品,,有限会社,千葉県,千葉市中央区,末広４丁目１０番２号,,12,101,2600843,,,2025-10-09,清算の結了等,,,2015-10-05,1,,,,,ホープショクヒン,0
1965,7050001034580,登記記録の閉鎖等,0,2025-11-07,2025-10-31,株式会社チェリーピース,,株式会社,茨城県,石岡市,南台２丁目３１番１１号,,08,205,3150035,,,2025-10-31,清算の結了等,,,2015-10-05,1,,,,,チェリーピース,0
1972,7080001002700,登記記録の閉鎖等,0,2025-11-07,2025-11-04,静岡学校用品販売株式会社,,株式会社,静岡県,静岡市葵区,末広町１番地の４,,22,101,4200004,,,2025-11-04,清算の結了等,,,2015-10-05,1,,,,,シズオカガッコウヨウヒンハンバイ,0
1973,7080001011032,登記記録の閉鎖等,0,2025-11-07,2025-11-04,株式会社ＵＲ都市企画,,株式会社,静岡県,静岡市葵区,追手町１０番１０８号,,22,101,4200853,,,2025-11-04,清算の結了等,,,2015-10-05,1,,,,,ユーアールトシキカク,0
1976,7080003002640,登記記録の閉鎖等,0,2025-11-07,2025-11-06,合同会社山幸園,,合同会社,岡山県,勝田郡勝央町,黒坂２８７番地２,,33,622,7094323,,,2025-11-06,清算の結了等,,,2021-09-13,1,,,,,サンコウエン,0
1978,7080101025683,登記記録の閉鎖等,0,2025-11-07,2025-11-04,三大ハウス株式会社,,株式会社,静岡県,富士宮市,阿幸地町４１０番地,,22,207,4180078,,,2025-11-04,清算の結了等,,,2025-08-07,1,,,,,サンダイハウス,0
1988,7120001253685,登記記録の閉鎖等,0,2025-11-07,2025-11-04,株式会社Ａｍｉｇｏ,,株式会社,大阪府,大阪市中央区,東心斎橋２丁目５番２１号,,27,128,5420083,,,2025-11-04,清算の結了等,,,2023-04-04,1,,,,,アミーゴ,0
1996,7120002001283,登記記録の閉鎖等,0,2025-11-07,2025-11-04,有限会社ツルミ興産,,有限会社,大阪府,大阪市鶴見区,鶴見４丁目１６番３９号,,27,124,5380053,,,2025-11-04,合併による解散等,1120001002065,令和７年１１月１日大阪市鶴見区鶴見四丁目１６番３９号株式会社ダイコウ（1120001002065）に合併し解散,2015-10-05,1,,,,,ツルミコウサン,0
2036,7180001141843,登記記録の閉鎖等,0,2025-11-07,2025-10-29,株式会社ＬＩＳＩＡ,,株式会社,愛知県,名古屋市中村区,名駅４丁目２４番５号第２森ビル４０１,,23,105,4500002,,,2025-10-29,清算の結了等,,,2020-07-08,1,,,,,リシア,0
2052,7190002009857,登記記録の閉鎖等,0,2025-11-07,2025-10-30,有限会社村木産業,,有限会社,三重県,伊勢市,一之木１丁目１３番１１号,,24,203,5160071,,,2025-10-30,清算の結了等,,,2015-10-05,1,,,,,ムラキサンギョウ,0
2055,7200001038401,登記記録の閉鎖等,0,2025-11-07,2025-11-04,株式会社レンタルハンディマン,,株式会社,岐阜県,各務原市,鵜沼各務原町６丁目１３６番地３,,21,213,5090141,,,2025-11-04,清算の結了等,,,2021-03-11,1,,,,,レンタルハンディマン,0
2065,7270002007497,登記記録の閉鎖等,0,2025-11-07,2025-11-05,有限会社米子機械,,有限会社,鳥取県,米子市,石井６９３番地５,,31,202,6830021,,,2025-11-05,清算の結了等,,,2015-10-05,1,,,,,ヨナゴキカイ,0
2068,7280001004825,登記記録の閉鎖等,0,2025-11-07,2025-11-04,株式会社つかだ,,株式会社,島根県,邑智郡邑南町,矢上４２番地,,32,449,6960103,,,2025-11-04,清算の結了等,,,2015-10-05,1,,,,,ツカダ,0
2104,7370001017025,登記記録の閉鎖等,0,2025-11-07,2025-10-30,株式会社友愛,,株式会社,岩手県,北上市,町分２地割１２５番の１,,03,206,0240082,,,2025-10-30,清算の結了等,,,2015-10-05,1,,,,,ユウアイ,0
2112,7420001006534,登記記録の閉鎖等,0,2025-11-07,2025-10-28,株式会社フジタ企画,,株式会社,青森県,八戸市,大字六日町２３番地,,02,203,0310033,,,2025-10-28,清算の結了等,,,2015-10-05,1,,,,,フジタキカク,0
2124,7460102001819,登記記録の閉鎖等,0,2025-11-07,2025-11-04,有限会社高建,00091217,有限会社,北海道,河東郡音更町,駒場平和台７番地１７,,01,631,0800563,,,2025-11-04,清算の結了等,,,2015-10-05,1,,,,,,0
2139,8010001244744,登記記録の閉鎖等,0,2025-11-07,2025-10-29,株式会社ＡＫＩＴＡ,,株式会社,東京都,中央区,銀座７丁目１５番８号タウンハイツ銀座４０６,,13,102,1040061,,,2025-10-29,清算の結了等,,,2024-05-14,1,,,,,アキタ,0
2150,8010401097809,登記記録の閉鎖等,0,2025-11-07,2025-10-23,株式会社ＨＯＬｉＣ,,株式会社,東京都,台東区,根岸１丁目１番１４号,,13,106,1100003,,,2025-10-23,合併による解散等,9010401095596,令和７年１０月１日東京都台東区根岸一丁目１番１４号株式会社イプシロン（9010401095596）に合併し解散,2015-10-05,1,,,,,ホリック,0
2166,8010701045070,登記記録の閉鎖等,0,2025-11-07,2025-10-14,株式会社ＵＮＴＯＬＤ　ＪＡＰＡＮ,,株式会社,東京都,品川区,上大崎３丁目１番１号,,13,109,1410021,,,2025-10-14,合併による解散等,1010901048111,令和７年９月３０日東京都品川区上大崎三丁目１番１号株式会社ＴＡＮＧＬＥ（1010901048111）に合併し解散,2023-10-31,1,,,,,アントールドジヤパン,0
2172,8010803004081,登記記録の閉鎖等,0,2025-11-07,2025-10-28,Ｐｒｉｍｅ　Ｒｅｓｉｄｅｎｔｉａｌ合同会社,,合同会社,東京都,大田区,下丸子２丁目１８－５－１０６,,13,111,1460092,,,2025-10-28,清算の結了等,,,2022-03-03,1,,,,,プライムレジデンシャル,0
2175,8010902025169,登記記録の閉鎖等,0,2025-11-07,2025-11-05,有限会社ＤＫビジネス,,有限会社,東京都,世田谷区,桜上水２丁目１８番５号,,13,112,1560045,,,2025-11-05,清算の結了等,,,2015-10-05,1,,,,,ディーケービジネス,0
2183,8011001143705,登記記録の閉鎖等,0,2025-11-07,2025-10-06,Ａｍａｔｏ株式会社,,株式会社,東京都,渋谷区,幡ヶ谷２丁目２１－１４０１号,,13,113,1510072,,,2025-10-06,清算の結了等,,,2021-11-01,1,,,,,アマト,0
2200,8011601025212,登記記録の閉鎖等,0,2025-11-07,2025-10-31,バックオフィス株式会社,,株式会社,東京都,練馬区,南大泉１丁目４７番３２号,,13,120,1780064,,,2025-10-31,清算の結了等,,,2021-07-06,1,,,,,バックオフィス,0
2207,8011803002810,登記記録の閉鎖等,0,2025-11-07,2025-10-28,ＷＩＳＥ企画合同会社,,合同会社,東京都,足立区,東和１丁目３番１８号グリーンランドビル１Ｆ,,13,121,1200003,,,2025-10-28,清算の結了等,,,2017-03-08,1,,,,,ワイズキカク,0
2215,8012802002867,登記記録の閉鎖等,0,2025-11-07,2025-10-29,有限会社大矢工芸,,有限会社,東京都,昭島市,美堀町２丁目９番４号,,13,207,1960001,,,2025-10-29,清算の結了等,,,2015-10-05,1,,,,,オオヤコウゲイ,0
2220,8020001121934,登記記録の閉鎖等,0,2025-11-07,2025-10-30,株式会社ブラザー,,株式会社,神奈川県,横浜市旭区,市沢町２１４番地,,14,112,2410014,,,2025-10-30,清算の結了等,,,2017-06-21,1,,,,,ブラザー,0
2229,8021001017890,登記記録の閉鎖等,0,2025-11-07,2025-10-29,サイトピース株式会社,,株式会社,東京都,町田市,相原町１１５２番地４号,,13,209,1940211,,,2025-10-29,清算の結了等,,,2015-10-05,1,,,,,サイトピース,0
2234,8030001043574,登記記録の閉鎖等,0,2025-11-07,2025-10-29,株式会社Ｒｉｄｅ,,株式会社,東京都,日野市,万願寺６丁目３０番１３号,,13,212,1910024,,,2025-10-29,清算の結了等,,,2015-10-05,1,,,,,ライド,0
2238,8030001116842,登記記録の閉鎖等,0,2025-11-07,2025-10-30,藤巻工商株式会社,,株式会社,埼玉県,川口市,芝中田２丁目１５番７号,,11,203,3330847,,,2025-10-30,清算の結了等,,,2016-10-25,1,,,,,,0
2250,8030002099418,登記記録の閉鎖等,0,2025-11-07,2025-10-30,有限会社武南企画,,有限会社,埼玉県,川口市,南鳩ヶ谷６丁目７番８号,,11,203,3340013,,,2025-10-30,清算の結了等,,,2015-10-05,1,,,,,ブナンキカク,0
2261,8050001034448,登記記録の閉鎖等,0,2025-11-07,2025-10-31,旭イーエム株式会社,,株式会社,茨城県,つくば市,沼崎２４７３番地,,08,220,3002631,,,2025-10-31,清算の結了等,,,2015-10-05,1,,,,,アサヒイーエム,0
2267,8060001000226,登記記録の閉鎖等,0,2025-11-07,2025-10-03,株式会社愛全重車輌,,株式会社,埼玉県,さいたま市桜区,山久保１丁目８番１５号,,11,106,3380821,,,2025-10-03,合併による解散等,3030001002072,令和７年１０月１日埼玉県さいたま市桜区山久保一丁目８番１５号北関東ＴＣＭ株式会社（3030001002072）と合併し解散,2015-10-05,1,,,,,アイゼンジュウシャリョウ,0
2272,8070005002317,登記記録の閉鎖等,0,2025-11-07,2025-10-01,医療法人社団醫光会,,その他の設立登記法人,群馬県,高崎市,矢島町４４９番地２,,10,202,3700016,,,2025-10-01,合併による解散等,7070005005023,令和７年１０月１日群馬県みどり市笠懸町阿左美１１５５番地医療法人社団三思会（7070005005023）に合併し解散,2015-10-05,1,,,,,イコウカイ,0
2274,8080001014785,登記記録の閉鎖等,0,2025-11-07,2025-11-04,株式会社共栄産業,,株式会社,静岡県,焼津市,五ケ堀之内５７９番地の２,,22,212,4250077,,,2025-11-04,清算の結了等,,,2015-10-05,1,,,,,,0
2280,8080102012622,登記記録の閉鎖等,0,2025-11-07,2025-11-05,有限会社神山設備設計,,有限会社,静岡県,駿東郡長泉町,中土狩９０４番地の１５,,22,342,4110942,,,2025-11-05,清算の結了等,,,2015-10-05,1,,,,,カミヤマセツビセッケイ,0
2281,8080102014478,登記記録の閉鎖等,0,2025-11-07,2025-11-04,有限会社テクニカ,,有限会社,静岡県,富士市,三ツ沢６３１番地の１６,,22,210,4170855,,,2025-11-04,清算の結了等,,,2015-10-05,1,,,,,テクニカ,0
2286,8100002003140,登記記録の閉鎖等,0,2025-11-07,2025-10-31,有限会社長測技術,,有限会社,長野県,長野市,合戦場２丁目１３７番地４,,20,201,3888008,,,2025-10-31,清算の結了等,,,2015-10-05,1,,,,,チョウソクギジュツ,0
2289,8110002007000,登記記録の閉鎖等,0,2025-11-07,2025-10-28,有限会社嘉屋,,有限会社,新潟県,新潟市西区,青山新町９番地１４,,15,107,9502006,,,2025-10-28,清算の結了等,,,2015-10-05,1,,,,,ヨシヤ,0
2291,8120001111231,登記記録の閉鎖等,0,2025-11-07,2025-11-04,株式会社ジー・エス・フーズ,,株式会社,大阪府,大阪市中央区,玉造１丁目６－２７－２Ｆ,,27,128,5400004,,,2025-11-04,合併による解散等,9120001111230,令和７年１１月１日大阪市中央区玉造一丁目６－２７－２Ｆ株式会社サン・プライド（9120001111230）に合併し解散,2015-10-05,1,,,,,ジーエスフーズ,0
2297,8120001262280,登記記録の閉鎖等,0,2025-11-07,2025-10-21,創未来株式会社,,株式会社,大阪府,大阪市東住吉区,湯里４丁目７－１９－１０１,,27,121,5460013,,,2025-10-21,清算の結了等,,,2024-02-19,1,,,,,ソウミライ,0
2318,8122001006849,登記記録の閉鎖等,0,2025-11-07,2025-09-22,ピーアンドエー株式会社,,株式会社,大阪府,東大阪市,衣摺１丁目５番２７号,00034322,27,227,5770827,,,2025-09-22,合併による解散等,2122001005906,令和７年９月２１日大阪府東大阪市衣摺一丁目５番２７号株式会社ハギハラ（2122001005906）に合併し解散,2015-10-05,1,,,,,ピーアンドエー,0
2347,8180001086014,登記記録の閉鎖等,0,2025-11-07,2025-11-04,日軽稲沢株式会社,,株式会社,愛知県,稲沢市,小池１丁目１１番１号,,23,220,4928144,,,2025-11-04,合併による解散等,2010701007662,令和７年１０月１日東京都港区新橋一丁目１番１３号日本軽金属株式会社（2010701007662）に合併し解散,2015-10-05,1,,,,,ニッケイイナザワ,0
2348,8180001088654,登記記録の閉鎖等,0,2025-11-07,2025-10-31,株式会社日本環境取引機構,,株式会社,愛知県,名古屋市東区,出来町２丁目８番８号,,23,102,4610032,,,2025-10-31,清算の結了等,,,2015-10-05,1,,,,,ニホンカンキョウトリヒキキコウ,0
2368,8190002010269,登記記録の閉鎖等,0,2025-11-07,2025-10-30,有限会社ミセ,,有限会社,三重県,伊勢市,楠部町乙１７１番地２,,24,203,5160014,,,2025-10-30,清算の結了等,,,2015-10-05,1,,,,,ミセ,0
2384,8260002001921,登記記録の閉鎖等,0,2025-11-07,2025-11-06,有限会社大久保,,有限会社,岡山県,岡山市北区,野田屋町１丁目７番１８号,,33,101,7000815,,,2025-11-06,清算の結了等,,,2015-10-05,1,,,,,,0
2385,8260003002076,登記記録の閉鎖等,0,2025-11-07,2025-10-31,合同会社ＬｅＣｏｅｕｒ,,合同会社,岡山県,岡山市北区,南中央町１０番１５－３０２号,,33,101,7000837,,,2025-10-31,清算の結了等,,,2016-09-16,1,,,,,ルクール,0
2389,8280002000806,登記記録の閉鎖等,0,2025-11-07,2025-11-04,有限会社コスモヘルス,,有限会社,島根県,松江市,東出雲町今宮４００番地,,32,201,6990107,,,2025-11-04,清算の結了等,,,2015-10-05,1,,,,,,0
2390,8290001012909,登記記録の閉鎖等,0,2025-11-07,2025-10-14,株式会社クロダ,,株式会社,福岡県,福岡市博多区,東那珂２丁目４番４１号,,40,132,8120892,,,2025-10-14,清算の結了等,,,2015-10-05,1,,,,,クロダ,0
2397,8290002048258,登記記録の閉鎖等,0,2025-11-07,2025-10-16,有限会社未来ファーム久留米,,有限会社,福岡県,久留米市,本町１３番地２６－５０１号,,40,203,8300044,,,2025-10-16,清算の結了等,,,2015-10-05,1,,,,,ミライファームクルメ,0
2417,8340002004370,登記記録の閉鎖等,0,2025-11-07,2025-10-30,有限会社佐藤新聞舗,,有限会社,鹿児島県,鹿児島市,清和４丁目４番４１号,,46,201,8910109,,,2025-10-30,清算の結了等,,,2015-10-05,1,,,,,サトウシンブンホ,0
2420,8350002010574,登記記録の閉鎖等,0,2025-11-07,2025-10-31,有限会社コウノ・エンジニアズ,,有限会社,宮崎県,日向市,美々津町４２６５番地２,,45,206,8891111,,,2025-10-31,清算の結了等,,,2015-10-05,1,,,,,コウノエンジニアズ,0
2430,8380001025827,登記記録の閉鎖等,0,2025-11-07,2025-10-30,ネクサス株式会社,,株式会社,福島県,東白川郡棚倉町,大字逆川字逆川７番地１,,07,481,9636103,,,2025-10-30,清算の結了等,,,2015-10-05,1,,,,,ネクサス,0
2431,8380001029885,登記記録の閉鎖等,0,2025-11-07,2025-11-04,株式会社あきたや,,株式会社,福島県,福島市,五月町３番１１号,,07,201,9608061,,,2025-11-04,清算の結了等,,,2019-03-29,1,,,,,アキタヤ,0
2440,8400001015247,登記記録の閉鎖等,0,2025-11-07,2025-10-30,株式会社ＧＬジャパン,,株式会社,岩手県,一関市,大東町摺沢字間明田２７番地１,,03,209,0290523,,,2025-10-30,清算の結了等,,,2020-12-23,1,,,,,ジーエルジャパン,0
2455,8430005004441,登記記録の閉鎖等,0,2025-11-07,2025-11-04,特定非営利活動法人明生会,,その他の設立登記法人,北海道,札幌市東区,北三十八条東１４丁目４番１９号,,01,103,0070838,,,2025-11-04,清算の結了等,,,2015-10-05,1,,,,,ミョウジョウカイ,0
2458,8440001006762,登記記録の閉鎖等,0,2025-11-07,2025-11-05,株式会社又井商店,,株式会社,北海道,函館市,弁天町１６番１２号,,01,202,0400051,,,2025-11-05,清算の結了等,,,2015-10-05,1,,,,,マタイショウテン,0
2461,8460001004079,登記記録の閉鎖等,0,2025-11-07,2025-10-31,大豊創設株式会社,,株式会社,北海道,釧路市,愛国東４丁目３５番５号,,01,206,0850058,,,2025-10-31,清算の結了等,,,2015-10-05,1,,,,,タイホウソウセツ,0
2462,8460002000093,登記記録の閉鎖等,0,2025-11-07,2025-10-31,有限会社芦花,00090965,有限会社,北海道,釧路市,浦見７丁目２番８号,,01,206,0850835,,,2025-10-31,清算の結了等,,,2015-10-05,1,,,,,ロカ,0
2466,8480001008532,登記記録の閉鎖等,0,2025-11-07,2025-11-04,株式会社真昌,,株式会社,滋賀県,大津市,千町２丁目１９番７号,,25,201,5200863,,,2025-11-04,清算の結了等,,,2015-10-05,1,,,,,シンショウ,0
2471,8500003001796,登記記録の閉鎖等,0,2025-11-07,2025-11-06,合同会社オリーブハウス,,合同会社,愛媛県,松山市,保免西２丁目３番１０号プレアール保免西２０５号,,38,201,7900043,,,2025-11-06,清算の結了等,,,2016-05-27,1,,,,,オリーブハウス,0
2476,9010003039687,登記記録の閉鎖等,0,2025-11-07,2025-10-20,ＹＧＫＮ合同会社,,合同会社,東京都,千代田区,神田和泉町一丁目６番１６号ヤマトビル４０５,,13,101,1010024,,,2025-10-20,清算の結了等,,,2023-02-01,1,,,,,ワイジーケーエヌ,0
2477,9010005028127,登記記録の閉鎖等,0,2025-11-07,2025-11-04,一般社団法人本町投資研究会,,その他の設立登記法人,東京都,中央区,新川１丁目１７番１８号,,13,102,1040033,,,2025-11-04,清算の結了等,,,2018-02-16,1,,,,,ホンマチトウシケンキュウカイ,0
2484,9010403020841,登記記録の閉鎖等,0,2025-11-07,2025-10-28,合同会社Ｍｏｎｏｃｈｒｏｍｅ,,合同会社,愛知県,名古屋市中区,新栄１丁目２８－２１プロシード新栄３０３,,23,106,4600007,,,2025-10-28,清算の結了等,,,2019-06-10,1,,,,,モノクローム,0
2493,9010701017696,登記記録の閉鎖等,0,2025-11-07,2025-10-06,株式会社シーピーデザインコンサルティング,,株式会社,東京都,新宿区,市谷加賀町１丁目１番１号,,13,104,1620062,,,2025-10-06,清算の結了等,,,2015-10-05,1,,,,,シーピーデザインコンサルティング,0
2494,9010801010163,登記記録の閉鎖等,0,2025-11-07,2025-10-28,株式会社平山部品工業,,株式会社,東京都,大田区,下丸子３丁目２８番１４号,,13,111,1460092,,,2025-10-28,清算の結了等,,,2015-10-05,1,,,,,ヒラヤマブヒンコウギョウ,0
2527,9011501030872,登記記録の閉鎖等,0,2025-11-07,2025-11-04,ＪＵＮＴＯＳ株式会社,,株式会社,東京都,荒川区,東日暮里５丁目１５番１１－１００４号,,13,118,1160014,,,2025-11-04,清算の結了等,,,2024-07-04,1,,,,,ジュントス,0
2550,9020003021058,登記記録の閉鎖等,0,2025-11-07,2025-10-17,けんちくん合同会社,,合同会社,神奈川県,相模原市中央区,相模原５丁目９番６号１階,,14,152,2520231,,,2025-10-17,清算の結了等,,,2022-01-06,1,,,,,ケンチクン,0
2572,9030003020777,登記記録の閉鎖等,0,2025-11-07,2025-10-29,ケアサービスリリィ合同会社,,合同会社,埼玉県,新座市,馬場２丁目３番１４号,,11,230,3520016,,,2025-10-29,清算の結了等,,,2022-12-19,1,,,,,ケアサービスリリィ,0
2582,9040002049503,登記記録の閉鎖等,0,2025-11-07,2025-10-07,有限会社善家エンジニアリング,,有限会社,千葉県,松戸市,下矢切２１番地１３,,12,207,2710096,,,2025-10-07,清算の結了等,,,2015-10-05,1,,,,,ゼンケエンジニアリング,0
2583,9040002052812,登記記録の閉鎖等,0,2025-11-07,2025-10-08,有限会社セレクトエース,,有限会社,千葉県,松戸市,根本３９３番地の８,,12,207,2710077,,,2025-10-08,清算の結了等,,,2015-10-05,1,,,,,セレクトエース,0
2585,9040002071143,登記記録の閉鎖等,0,2025-11-07,2025-11-06,有限会社三星商店,,有限会社,千葉県,富津市,大堀１５５６番地の１,,12,226,2930001,,,2025-11-06,清算の結了等,,,2015-10-05,1,,,,,ミツボシショウテン,0
2592,9050001027772,登記記録の閉鎖等,0,2025-11-07,2025-10-31,谷口工業株式会社,,株式会社,茨城県,守谷市,松並１３９１番地の２５,,08,224,3020108,,,2025-10-31,清算の結了等,,,2015-10-05,1,,,,,タニグチコウギョウ,0
2608,9070001034148,登記記録の閉鎖等,0,2025-11-07,2025-10-31,株式会社雷,,株式会社,群馬県,伊勢崎市,田中島町９３番地１,,10,204,3720802,,,2025-10-31,清算の結了等,,,2017-11-17,1,,,,,ライ,0
2610,9080001010073,登記記録の閉鎖等,0,2025-11-07,2025-11-04,マルミフーズ株式会社,,株式会社,静岡県,静岡市駿河区,南町１１番１号,,22,102,4228067,,,2025-11-04,清算の結了等,,,2015-10-05,1,,,,,マルミフーズ,0
2613,9080001013943,登記記録の閉鎖等,0,2025-11-07,2025-11-04,株式会社グリーンズ,,株式会社,静岡県,榛原郡吉田町,神戸３９６４番地の１,,22,424,4210304,,,2025-11-04,清算の結了等,,,2015-10-05,1,,,,,グリーンズ,0
2615,9080101000255,登記記録の閉鎖等,0,2025-11-07,2025-11-05,株式会社エコー商会,,株式会社,静岡県,沼津市,高島本町８番４号,,22,203,4100055,,,2025-11-05,清算の結了等,,,2015-10-05,1,,,,,エコーショウカイ,0
2623,9100002022429,登記記録の閉鎖等,0,2025-11-07,2025-11-04,有限会社中部商販,,有限会社,長野県,松本市,波田６４６３番地１５,,20,202,3901401,,,2025-11-04,清算の結了等,,,2015-10-05,1,,,,,チュウブショウハン,0
2640,9120901025307,登記記録の閉鎖等,0,2025-11-07,2025-10-22,株式会社ハラダ,,株式会社,大阪府,豊中市,島江町２丁目１５番１３号,,27,203,5610826,,,2025-10-22,清算の結了等,,,2015-10-05,1,,,,,ハラダ,0
2642,9120902013806,登記記録の閉鎖等,0,2025-11-07,2025-10-21,有限会社小倉屋松源,,有限会社,大阪府,茨木市,春日４丁目２番２８号,,27,211,5670031,,,2025-10-21,清算の結了等,,,2015-10-05,1,,,,,オグラヤマツゲン,0
2643,9120903000753,登記記録の閉鎖等,0,2025-11-07,2025-10-20,ＣｕＣａ合同会社,,合同会社,大阪府,高槻市,八丁西町４番２６号,,27,207,5690095,,,2025-10-20,清算の結了等,,,2015-10-05,1,,,,,キュカ,0
2657,9140002025576,登記記録の閉鎖等,0,2025-11-07,2025-10-31,有限会社コーアイ,,有限会社,兵庫県,神戸市北区,藤原台北町３丁目１６番１７号,,28,109,6511301,,,2025-10-31,清算の結了等,,,2015-10-05,1,,,,,コーアイ,0
2660,9150001023381,登記記録の閉鎖等,0,2025-11-07,2025-10-28,株式会社ＫＮＯコンサルタント,,株式会社,奈良県,奈良市,六条西４丁目１番１１号,,29,201,6308044,,,2025-10-28,清算の結了等,,,2019-11-13,1,,,,,ケーエヌオーコンサルタント,0
2661,9150002006360,登記記録の閉鎖等,0,2025-11-07,2025-11-06,有限会社太素臨床研究所,,有限会社,奈良県,生駒郡三郷町,城山台１丁目３番４号,,29,343,6360824,,,2025-11-06,清算の結了等,,,2015-10-05,1,,,,,タイソリンショウケンキュウショ,0
2668,9170002011821,登記記録の閉鎖等,0,2025-11-07,2025-11-05,有限会社古座川開発,,有限会社,和歌山県,東牟婁郡古座川町,下露３３６番地,,30,424,6494562,,,2025-11-05,清算の結了等,,,2015-10-05,1,,,,,コザガワカイハツ,0
2671,9180001058160,登記記録の閉鎖等,0,2025-11-07,2025-11-05,株式会社大輝,,株式会社,岐阜県,各務原市,鵜沼各務原町３丁目４８番地,,21,213,5090141,,,2025-11-05,清算の結了等,,,2015-10-05,1,,,,,タイキ,0
2689,9210001014036,登記記録の閉鎖等,0,2025-11-07,2025-11-05,株式会社松風,,株式会社,福井県,小浜市,小浜白鬚５５番地の１,,18,204,9170069,,,2025-11-05,清算の結了等,,,2015-10-05,1,,,,,マツカゼ,0
2696,9240001053139,登記記録の閉鎖等,0,2025-11-07,2025-10-31,株式会社ＴＫＧサポート,,株式会社,広島県,東広島市,高屋町中島２５４番地２,,34,212,7392125,,,2025-10-31,清算の結了等,,,2018-08-08,1,,,,,ティーケージーサポート,0
2697,9250001003720,登記記録の閉鎖等,0,2025-11-07,2025-11-04,株式会社ライフレッシュ,,株式会社,山口県,宇部市,寿町１丁目６番２７号寿町マンション１００１号,,35,202,7550032,,,2025-11-04,清算の結了等,,,2015-10-05,1,,,,,ライフレッシュ,0
2699,9260001001995,登記記録の閉鎖等,0,2025-11-07,2025-11-04,株式会社吉備鋼業,,株式会社,岡山県,岡山市東区,目黒町２２２番地の３,,33,103,7048171,,,2025-11-04,清算の結了等,,,2015-10-05,1,,,,,キビコウギョウ,0
2713,9290002048380,登記記録の閉鎖等,0,2025-11-07,2025-10-09,有限会社飯田商店,,有限会社,福岡県,久留米市,合川町１０３７番地,,40,203,8390861,,,2025-10-09,清算の結了等,,,2015-10-05,1,,,,,イイダショウテン,0
2719,9290802002108,登記記録の閉鎖等,0,2025-11-07,2025-11-05,有限会社グローバルバイブス,,有限会社,福岡県,北九州市小倉北区,魚町１丁目１番８号ＫＲＩＳＳビルＢ１Ｆ,,40,106,8020006,,,2025-11-05,清算の結了等,,,2015-10-05,1,,,,,,0
2721,9290802009747,登記記録の閉鎖等,0,2025-11-07,2025-10-08,有限会社日新,,有限会社,福岡県,福岡市中央区,長浜２丁目４番１０５号,,40,133,8100072,,,2025-10-08,清算の結了等,,,2015-10-05,1,,,,,ニッシン,0
2734,9340005007329,登記記録の閉鎖等,0,2025-11-07,2025-10-30,サンキョーミート労働組合,,その他の設立登記法人,鹿児島県,志布志市,有明町野井倉６９６５番地,,46,221,8997402,,,2025-10-30,清算の結了等,,,2015-10-05,1,,,,,サンキョーミート,0
2744,9370103000001,登記記録の閉鎖等,0,2025-11-07,2025-10-22,合資会社太田屋百貨店,,合資会社,宮城県,柴田郡大河原町,大谷字町向１０３番地,,04,321,9891201,,,2025-10-22,清算の結了等,,,2015-10-05,1,,,,,オオタヤヒャッカテン,0
2748,9380002006032,登記記録の閉鎖等,0,2025-11-07,2025-10-30,有限会社Ｒ－ｋｅｎ,,有限会社,福島県,福島市,御山字上原２番地の９,,07,201,9608252,,,2025-10-30,清算の結了等,,,2015-10-05,1,,,,,アールケン,0
