sequenceNumber,corporateNumber,process,correct,updateDate,changeDate,name,nameImageId,kind,prefectureName,cityName,streetNumber,addressImageId,prefectureCode,cityCode,postCode,addressOutside,addressOutsideImageId,closeDate,closeCause,successorCorporateNumber,changeCause,assignmentDate,latest,enName,enPrefectureName,enCityName,enAddressOutside,furigana,hihyoji
21,1010405001459,登記記録の閉鎖等,0,2025-03-03,2025-01-16,天理教本芝港分教会,,その他の設立登記法人,東京都,港区,白金１丁目１５番２７号,,13,103,1080072,,,2025-01-16,合併による解散等,8010405001452,令和７年１月１６日東京都港区高輪一丁目２２番１７号天理教本芝大教会（8010405001452）に合併し解散,2015-10-05,1,,,,,テンリキョウホンシバコウブンキョウカイ,0
58,1013303005507,登記記録の閉鎖等,0,2025-03-03,2025-02-20,合同会社Ｌｕａｎａ,,合同会社,東京都,豊島区,巣鴨１丁目１３番３号,,13,116,1700002,,,2025-02-20,清算の結了等,,,2021-01-25,1,,,,,ルアナ,0
59,1020001021868,登記記録の閉鎖等,0,2025-03-03,2025-02-18,株式会社ミツミ商事,,株式会社,神奈川県,横浜市港北区,綱島西３丁目１番１８号,,14,109,2230053,,,2025-02-18,清算の結了等,,,2015-10-05,1,,,,,ミツミショウジ,0
61,1020001112618,登記記録の閉鎖等,0,2025-03-03,2025-02-18,株式会社エム・アイ・ケイ,,株式会社,神奈川県,横浜市磯子区,杉田坪呑３番２－２０１号,,14,107,2350034,,,2025-02-18,清算の結了等,,,2015-10-05,1,,,,,エムアイケイ,0
67,1020002095639,登記記録の閉鎖等,0,2025-03-03,2025-02-19,有限会社い津美,,有限会社,神奈川県,川崎市川崎区,本町１丁目８番地１７,,14,131,2100001,,,2025-02-19,清算の結了等,,,2015-10-05,1,,,,,イツミ,0
81,1040002025164,登記記録の閉鎖等,0,2025-03-03,2025-02-25,有限会社ベルメゾン,,有限会社,千葉県,船橋市,前原東３丁目２４番７号,,12,204,2740824,,,2025-02-25,清算の結了等,,,2015-10-05,1,,,,,ベルメゾン,0
83,1050001035980,登記記録の閉鎖等,0,2025-03-03,2025-02-21,株式会社あまだいるフーズ,,株式会社,茨城県,つくば市,筑穂１丁目１３番地２,,08,220,3003257,,,2025-02-21,清算の結了等,,,2015-10-05,1,,,,,アマダイルフーズ,0
101,1120001138347,登記記録の閉鎖等,0,2025-03-03,2025-02-25,株式会社日祥,,株式会社,大阪府,大阪市福島区,野田２丁目１３番２３号山源ハイツ２０１号,,27,103,5530005,,,2025-02-25,清算の結了等,,,2015-10-05,1,,,,,ニッショウ,0
113,1120101035171,登記記録の閉鎖等,0,2025-03-03,2025-02-27,スリーナイン株式会社,,株式会社,大阪府,河内長野市,清見台５丁目１２番１７号,,27,216,5860043,,,2025-02-27,清算の結了等,,,2015-10-05,1,,,,,スリーナイン,0
137,1180003020076,登記記録の閉鎖等,0,2025-03-03,2025-02-21,合同会社あいか,,合同会社,愛知県,名古屋市北区,如意５丁目２２６番地,,23,103,4620007,,,2025-02-21,清算の結了等,,,2019-06-11,1,,,,,アイカ,0
143,1180302003814,登記記録の閉鎖等,0,2025-03-03,2025-02-26,有限会社畔柳電機,00074891,有限会社,愛知県,岡崎市,大門５丁目１２番地２,,23,202,4442135,,,2025-02-26,清算の結了等,,,2015-10-05,1,,,,,クロヤナギデンキ,0
146,1180303003912,登記記録の閉鎖等,0,2025-03-03,2025-02-25,合同会社ＣＡＮＤＩＣＥ,,合同会社,愛知県,豊田市,五ケ丘４丁目４番地４３,,23,211,4710814,,,2025-02-25,清算の結了等,,,2017-09-08,1,,,,,キャンディス,0
149,1200001031683,登記記録の閉鎖等,0,2025-03-03,2025-02-26,株式会社尾口新聞店,,株式会社,岐阜県,各務原市,鵜沼東町６丁目７９番地１プラザかとう１Ｆ,,21,213,5090126,,,2025-02-26,清算の結了等,,,2015-10-05,1,,,,,オグチシンブンテン,0
163,1290001063207,登記記録の閉鎖等,0,2025-03-03,2025-02-20,ビー・ケア株式会社,,株式会社,福岡県,福岡市西区,田尻２丁目１１番１９号,,40,135,8190383,,,2025-02-20,清算の結了等,,,2015-10-05,1,,,,,ビーケア,0
168,1330002027560,登記記録の閉鎖等,0,2025-03-03,2025-02-25,有限会社ダイエイ,,有限会社,熊本県,熊本市南区,近見８丁目１番１号,,43,104,8614101,,,2025-02-25,清算の結了等,,,2015-10-05,1,,,,,ダイエイ,0
171,1350005000562,登記記録の閉鎖等,0,2025-03-03,2025-01-31,社会福祉法人玉扇会,,その他の設立登記法人,宮崎県,宮崎市,大字塩路字江良ノ上２７８３番地３２,,45,201,8800122,,,2025-01-31,合併による解散等,3350005006285,令和７年１月３１日宮崎県東諸県郡国富町大字三名字初田２６２１番地５社会福祉法人エデンの園（6350005001333）と合併して宮崎県東諸県郡国富町大字三名２６２１番地５社会福祉法人ＭＡＧ（3350005006285）を設立し解散,2015-10-05,1,,,,,ギョクセンカイ,0
174,1380001023705,登記記録の閉鎖等,0,2025-03-03,2025-02-20,佐藤石材興業株式会社,,株式会社,福島県,相馬市,立谷字北向７９番地の１,,07,209,9792531,,,2025-02-20,清算の結了等,,,2015-10-05,1,,,,,サトウセキザイコウギョウ,0
212,2010501034502,登記記録の閉鎖等,0,2025-03-03,2025-02-25,株式会社山森,,株式会社,東京都,台東区,浅草１丁目３３番５号,,13,106,1110032,,,2025-02-25,清算の結了等,,,2015-10-05,1,,,,,,0
214,2010502007234,登記記録の閉鎖等,0,2025-03-03,2025-02-25,有限会社堤製作所,,有限会社,東京都,台東区,寿１丁目６番８号,,13,106,1110042,,,2025-02-25,清算の結了等,,,2015-10-05,1,,,,,ツツミセイサクショ,0
225,2010702008503,登記記録の閉鎖等,0,2025-03-03,2025-02-13,有限会社山崎酒店,,有限会社,東京都,品川区,西大井４丁目１５番５号,,13,109,1400015,,,2025-02-13,清算の結了等,,,2015-10-05,1,,,,,ヤマザキサケテン,0
230,2011001121063,登記記録の閉鎖等,0,2025-03-03,2025-02-26,ＤａｐｐＦａｃｅ株式会社,,株式会社,愛知県,岡崎市,赤渋町字落２７番７号,,23,202,4440241,,,2025-02-26,清算の結了等,,,2018-03-08,1,,,,,ダップフェイス,0
245,2011103005230,登記記録の閉鎖等,0,2025-03-03,2025-02-21,合同会社フォルノ,,合同会社,東京都,新宿区,新宿５丁目１０番１０号海老沢ビル２０２,,13,104,1600022,,,2025-02-21,清算の結了等,,,2015-10-05,1,,,,,フォルノ,0
248,2011301020717,登記記録の閉鎖等,0,2025-03-03,2025-02-27,株式会社国土エステイト,,株式会社,東京都,杉並区,高井戸東２丁目２６番１号,,13,115,1680072,,,2025-02-27,清算の結了等,,,2015-10-05,1,,,,,コクドエステイト,0
249,2011401007234,登記記録の閉鎖等,0,2025-03-03,2025-02-25,株式会社板橋金型製作所,,株式会社,東京都,板橋区,富士見町９番１６号,,13,119,1740062,,,2025-02-25,清算の結了等,,,2015-10-05,1,,,,,イタバシカナガタセイサクショ,0
253,2011502000360,登記記録の閉鎖等,0,2025-03-03,2025-02-27,有限会社アミー,,有限会社,東京都,北区,中十条３丁目３６番１６号ソシアルシティ中十条５階Ａ号,,13,117,1140032,,,2025-02-27,清算の結了等,,,2015-10-05,1,,,,,アミー,0
267,2020001093080,登記記録の閉鎖等,0,2025-03-03,2025-02-17,株式会社魚河岸,,株式会社,神奈川県,横浜市港南区,上大岡西２丁目３番６号,,14,111,2330002,,,2025-02-17,清算の結了等,,,2015-10-05,1,,,,,ウオガシ,0
272,2020001144412,登記記録の閉鎖等,0,2025-03-03,2025-02-17,株式会社シーフラット,,株式会社,神奈川県,横浜市神奈川区,菅田町２９３２,,14,102,2210864,,,2025-02-17,清算の結了等,,,2021-12-20,1,,,,,シーフラット,0
278,2020002000143,登記記録の閉鎖等,0,2025-03-03,2025-02-13,有限会社垣内動物病院,,有限会社,神奈川県,横浜市栄区,笠間４丁目１１番１号,,14,115,2470006,,,2025-02-13,清算の結了等,,,2015-10-05,1,,,,,カキウチドウブツビョウイン,0
295,2030002121509,登記記録の閉鎖等,0,2025-03-03,2025-02-26,有限会社大忠建設,,有限会社,埼玉県,秩父市,大野原２３０１番地１１,,11,207,3680005,,,2025-02-26,清算の結了等,,,2015-10-05,1,,,,,ダイチュウケンセツ,0
313,2080402006503,登記記録の閉鎖等,0,2025-03-03,2025-02-19,有限会社浜名湖洋蘭園,,有限会社,静岡県,浜松市中央区,湖東町６０８９番地,,22,138,4311103,,,2025-02-19,清算の結了等,,,2015-10-05,1,,,,,ハマナコヨウランエン,0
317,2090003001357,登記記録の閉鎖等,0,2025-03-03,2025-02-27,Ｌｙｓ　ｂｌａｎｃ合同会社,,合同会社,山梨県,甲府市,富竹２丁目８番９号,,19,201,4000049,,,2025-02-27,清算の結了等,,,2017-11-27,1,,,,,リブロン,0
352,2180001025621,登記記録の閉鎖等,0,2025-03-03,2025-02-27,株式会社サンワ珈琲商会,,株式会社,愛知県,名古屋市西区,上名古屋３丁目１２番２１号,,23,104,4510025,,,2025-02-27,清算の結了等,,,2015-10-05,1,,,,,サンワコーヒーショウカイ,0
354,2180001139000,登記記録の閉鎖等,0,2025-03-03,2025-02-25,システムハイテック株式会社,,株式会社,愛知県,北名古屋市,井瀬木１１１１番地３,,23,234,4810014,,,2025-02-25,清算の結了等,,,2019-11-29,1,,,,,システムハイテック,0
362,2180303005635,登記記録の閉鎖等,0,2025-03-03,2025-02-25,Ｔ．Ｕ合同会社,,合同会社,愛知県,岡崎市,井田新町１番地２,,23,202,4440069,,,2025-02-25,清算の結了等,,,2023-03-06,1,,,,,ティーユー,0
377,2250002019912,登記記録の閉鎖等,0,2025-03-03,2025-02-27,有限会社柳井グリーン観光開発,,有限会社,山口県,柳井市,柳井４７０８番地の３,,35,212,7420021,,,2025-02-27,清算の結了等,,,2015-10-05,1,,,,,,0
381,2260003003451,登記記録の閉鎖等,0,2025-03-03,2025-02-21,合同会社Ｓｏｌｅ,,合同会社,岡山県,岡山市南区,泉田４丁目１８番３４号,,33,104,7000944,,,2025-02-21,清算の結了等,,,2021-02-10,1,,,,,ソレ,0
390,2290002038157,登記記録の閉鎖等,0,2025-03-03,2025-02-20,有限会社海原組,,有限会社,福岡県,福津市,津屋崎５丁目１９番２２号,,40,224,8113304,,,2025-02-20,清算の結了等,,,2015-10-05,1,,,,,カイバラグミ,0
391,2290002050599,登記記録の閉鎖等,0,2025-03-03,2025-02-17,有限会社みやせ調剤薬局,,有限会社,福岡県,久留米市,宮ノ陣５丁目９番２６号,,40,203,8390801,,,2025-02-17,清算の結了等,,,2015-10-05,1,,,,,ミヤセチョウザイヤッキョク,0
395,2320001006581,登記記録の閉鎖等,0,2025-03-03,2025-02-28,株式会社ぼんつるみ,,株式会社,大分県,別府市,上田の湯町１６番９号,,44,202,8740908,,,2025-02-28,清算の結了等,,,2015-10-05,1,,,,,ボンツルミ,0
398,2320002021349,登記記録の閉鎖等,0,2025-03-03,2025-02-27,有限会社末広瓦工事店,,有限会社,大分県,中津市,耶馬溪町大字川原口１０６１番地,,44,203,8710414,,,2025-02-27,清算の結了等,,,2015-10-05,1,,,,,,0
405,2360005003423,登記記録の閉鎖等,0,2025-03-03,2025-02-28,農事組合法人上島農園組合,,その他の設立登記法人,沖縄県,国頭郡宜野座村,字惣慶１４８９番地の１０,,47,313,9041303,,,2025-02-28,清算の結了等,,,2015-10-05,1,,,,,ウエシマノウエンクミアイ,0
411,2380002001873,登記記録の閉鎖等,0,2025-03-03,2025-02-18,有限会社鈴藤商店,,有限会社,福島県,福島市,飯坂町湯野字橋本１６番地,,07,201,9600211,,,2025-02-18,清算の結了等,,,2015-10-05,1,,,,,スズトウショウテン,0
414,2400003002686,登記記録の閉鎖等,0,2025-03-03,2025-02-17,ホープアシスト合同会社,,合同会社,岩手県,盛岡市,緑が丘４丁目１６番５２号,,03,201,0200117,,,2025-02-17,清算の結了等,,,2020-10-23,1,,,,,ホープアシスト,0
433,3010003024868,登記記録の閉鎖等,0,2025-03-03,2025-02-25,合同会社ヘルスケアサポートアライアンス,,合同会社,千葉県,市原市,辰巳台西３丁目１番１号,,12,219,2900004,,,2025-02-25,清算の結了等,,,2017-02-21,1,,,,,ヘルスケアサポートアライアンス,0
438,3010103000488,登記記録の閉鎖等,0,2025-03-03,2025-02-06,エープランニング合同会社,,合同会社,東京都,八王子市,旭町１番１８号,,13,201,1920083,,,2025-02-06,清算の結了等,,,2015-10-05,1,,,,,エープランニング,0
454,3010601014080,登記記録の閉鎖等,0,2025-03-03,2025-02-26,株式会社ニュールック・エイ,,株式会社,東京都,墨田区,八広６丁目１０番７号山口方,,13,107,1310041,,,2025-02-26,清算の結了等,,,2015-10-05,1,,,,,ニュールックエイ,0
461,3010903004820,登記記録の閉鎖等,0,2025-03-03,2025-02-18,ＭＳパートナーズ合同会社,,合同会社,東京都,世田谷区,宇奈根２丁目１０番１７号,,13,112,1570068,,,2025-02-18,清算の結了等,,,2019-02-25,1,,,,,エムエスパートナーズ,0
467,3011003009842,登記記録の閉鎖等,0,2025-03-03,2025-02-25,日本ナノ・イオン生活ホールディング合同会社,,合同会社,東京都,渋谷区,恵比寿２丁目２８番１１号,,13,113,1500013,,,2025-02-25,合併による解散等,8011003009838,令和６年１２月３１日大分県別府市上人仲町９番２４号ハイエネルギー技術ＩＰホールディング合同会社（8011003009838）に合併し解散,2019-04-09,1,,,,,ニホンナノイオンセイカツホールディング,0
489,3011603003963,登記記録の閉鎖等,0,2025-03-03,2025-02-25,合同会社ＩＳＳＫ,,合同会社,東京都,練馬区,石神井台４丁目１０－６,,13,120,1770045,,,2025-02-25,清算の結了等,,,2023-06-16,1,,,,,アイエスエスケー,0
498,3020001011248,登記記録の閉鎖等,0,2025-03-03,2025-02-18,株式会社京光園,,株式会社,神奈川県,横浜市青葉区,元石川町４１４６番地,,14,117,2250004,,,2025-02-18,清算の結了等,,,2015-10-05,1,,,,,キョウコウエン,0
501,3020001032129,登記記録の閉鎖等,0,2025-03-03,2025-02-17,株式会社ノムラ,,株式会社,神奈川県,横浜市西区,中央２丁目２３番１号,,14,103,2200051,,,2025-02-17,清算の結了等,,,2015-10-05,1,,,,,ノムラ,0
504,3020001103482,登記記録の閉鎖等,0,2025-03-03,2025-02-18,株式会社協和石油,,株式会社,神奈川県,横浜市南区,吉野町４丁目２０番地２０１号,,14,105,2320014,,,2025-02-18,清算の結了等,,,2015-10-05,1,,,,,キョウワセキユ,0
510,3020002070672,登記記録の閉鎖等,0,2025-03-03,2025-02-19,有限会社いずみ教育プランニング,,有限会社,神奈川県,横浜市神奈川区,泉町２番地６,,14,102,2210842,,,2025-02-19,清算の結了等,,,2015-10-05,1,,,,,イズミキョウイクプランニング,0
511,3020003014059,登記記録の閉鎖等,0,2025-03-03,2025-02-17,ＯＨＡＧＩ　ＰＲＥＳＩＤＥＮＴ合同会社,,合同会社,神奈川県,横浜市港北区,高田西３丁目２番１２号,,14,109,2230066,,,2025-02-17,清算の結了等,,,2018-03-14,1,,,,,オハギプレジデント,0
516,3021001072222,登記記録の閉鎖等,0,2025-03-03,2025-02-27,システム・サポート株式会社,,株式会社,神奈川県,海老名市,国分南３丁目１番３４号２０２０ビル,,14,215,2430405,,,2025-02-27,清算の結了等,,,2021-03-03,1,,,,,システムサポート,0
518,3030001031501,登記記録の閉鎖等,0,2025-03-03,2025-02-26,株式会社ならや,,株式会社,埼玉県,幸手市,中３丁目１番５号,,11,240,3400115,,,2025-02-26,清算の結了等,,,2015-10-05,1,,,,,ナラヤ,0
543,3050001005602,登記記録の閉鎖等,0,2025-03-03,2025-02-26,株式会社モリシマ,,株式会社,茨城県,水戸市,城東１丁目５番４７号,,08,201,3100012,,,2025-02-26,清算の結了等,,,2015-10-05,1,,,,,モリシマ,0
546,3050003004321,登記記録の閉鎖等,0,2025-03-03,2025-02-25,合同会社明源,,合同会社,茨城県,東茨城郡大洗町,和銅７番地の５－Ｂ,,08,309,3111304,,,2025-02-25,清算の結了等,,,2018-08-10,1,,,,,メイゲン,0
570,3120001252542,登記記録の閉鎖等,0,2025-03-03,2025-02-28,ＴＧＳ株式会社,,株式会社,大阪府,大阪市平野区,加美鞍作１丁目７番３９号,,27,126,5470004,,,2025-02-28,清算の結了等,,,2023-02-15,1,,,,,ティージーエス,0
588,3140001073375,登記記録の閉鎖等,0,2025-03-03,2025-02-26,株式会社サーバイテック・ファイア・ソリューションズ・ジャパン,,株式会社,兵庫県,西宮市,今津西浜町二丁目６３番地,,28,204,6638225,,,2025-02-26,清算の結了等,,,2015-10-05,1,,,,,サーバイテックファイアソリューションズジャパン,0
589,3140001114410,登記記録の閉鎖等,0,2025-03-03,2025-02-27,株式会社アイル,,株式会社,大阪府,大阪市北区,野崎町６番８号,,27,127,5300055,,,2025-02-27,清算の結了等,,,2019-07-31,1,,,,,アイル,0
593,3150001025672,登記記録の閉鎖等,0,2025-03-03,2025-02-28,株式会社大和路のくらし,,株式会社,奈良県,橿原市,土橋町１９１番地の３,,29,205,6340844,,,2025-02-28,清算の結了等,,,2022-07-07,1,,,,,ヤマトジノクラシ,0
595,3150005007378,登記記録の閉鎖等,0,2025-03-03,2025-02-27,光徳寺,00044077,その他の設立登記法人,奈良県,吉野郡黒滝村,大字中戸７７９番地,,29,444,6380221,,,2025-02-27,清算の結了等,,,2015-10-05,1,,,,,,0
608,3180003023713,登記記録の閉鎖等,0,2025-03-03,2025-02-27,合同会社ＮｅｗＦａｃｅ,,合同会社,愛知県,名古屋市昭和区,川原通４丁目９番地川原ハイツ２Ｂ号,,23,107,4660853,,,2025-02-27,清算の結了等,,,2022-04-21,1,,,,,ニューフェイス,0
623,3260002005398,登記記録の閉鎖等,0,2025-03-03,2025-02-25,有限会社住工房,,有限会社,岡山県,岡山市中区,倉田４８８番地の４,,33,102,7038265,,,2025-02-25,清算の結了等,,,2015-10-05,1,,,,,スマイコウボウ,0
628,3290003009131,登記記録の閉鎖等,0,2025-03-03,2025-02-19,調査ラボ福岡合同会社,,合同会社,福岡県,福岡市西区,内浜２丁目２３番１号,,40,135,8190005,,,2025-02-19,清算の結了等,,,2019-06-21,1,,,,,チョウサラボ,0
633,3300001005304,登記記録の閉鎖等,0,2025-03-03,2025-02-27,Ｗ・Ｐ・Ａ株式会社,,株式会社,佐賀県,武雄市,武雄町大字富岡９５５２番地３５,,41,206,8430024,,,2025-02-27,清算の結了等,,,2015-10-05,1,,,,,ダブリューピーエー,0
639,3330001030200,登記記録の閉鎖等,0,2025-03-03,2025-02-25,プロテクト・ユア・スマイル株式会社,,株式会社,熊本県,八代市,郡築一番町２番地７,,43,202,8660024,,,2025-02-25,清算の結了等,,,2022-10-17,1,,,,,プロテクトユアスマイル,0
641,3330002000920,登記記録の閉鎖等,0,2025-03-03,2025-02-25,有限会社伊吹商会,,有限会社,熊本県,熊本市東区,長嶺南８丁目５番３号,,43,102,8618039,,,2025-02-25,清算の結了等,,,2015-10-05,1,,,,,イブキショウカイ,0
653,3430001072711,登記記録の閉鎖等,0,2025-03-03,2025-02-26,株式会社ＨＪＣ,,株式会社,北海道,札幌市東区,北丘珠六条４丁目２番１０号,,01,103,0070886,,,2025-02-26,清算の結了等,,,2016-11-14,1,,,,,エイチジェイシー,0
667,4010001195834,登記記録の閉鎖等,0,2025-03-03,2025-02-06,旭ハウス工業株式会社,,株式会社,愛知県,名古屋市中村区,名駅５丁目５番２２号,,23,105,4500002,,,2025-02-06,合併による解散等,2010001244337,令和７年２月１日名古屋市中村区名駅五丁目５番２２号旭ハウス工業株式会社（2010001244337）に合併し解散,2018-10-25,1,,,,,アサヒハウスコウギョウ,0
674,4010002011577,登記記録の閉鎖等,0,2025-03-03,2025-02-14,有限会社砂場,,有限会社,東京都,千代田区,神田多町２丁目４番地２,,13,101,1010046,,,2025-02-14,清算の結了等,,,2015-10-05,1,,,,,スナバ,0
693,4010703002180,登記記録の閉鎖等,0,2025-03-03,2025-02-13,わくわくジャパン合同会社,,合同会社,東京都,品川区,西大井５丁目１７番２１－２０４号,,13,109,1400015,,,2025-02-13,清算の結了等,,,2015-10-05,1,,,,,ワクワクジャパン,0
696,4010902004374,登記記録の閉鎖等,0,2025-03-03,2025-02-26,有限会社河野,,有限会社,東京都,世田谷区,代沢５丁目３３番９号,,13,112,1550032,,,2025-02-26,清算の結了等,,,2015-10-05,1,,,,,コウノ,0
699,4011001120096,登記記録の閉鎖等,0,2025-03-03,2025-02-25,ＴＯ　ＳＥＳＳＩＯＮ株式会社,,株式会社,東京都,台東区,台東２丁目１３－１２－１０１,,13,106,1100016,,,2025-02-25,清算の結了等,,,2018-01-16,1,,,,,トゥセッション,0
703,4011003009841,登記記録の閉鎖等,0,2025-03-03,2025-02-25,国際ナノ・イオン生活ホールディング合同会社,,合同会社,東京都,渋谷区,恵比寿２丁目２８番１１号,,13,113,1500013,,,2025-02-25,合併による解散等,8011003009838,令和６年１２月３１日大分県別府市上人仲町９番２４号ハイエネルギー技術ＩＰホールディング合同会社（8011003009838）に合併し解散,2019-04-09,1,,,,,コクサイナノイオンセイカツホールディング,0
707,4011101000925,登記記録の閉鎖等,0,2025-03-03,2025-02-25,株式会社アド・ストーク,,株式会社,埼玉県,朝霞市,本町２丁目１番７号,,11,227,3510011,,,2025-02-25,清算の結了等,,,2015-10-05,1,,,,,アドストーク,0
723,4011601017097,登記記録の閉鎖等,0,2025-03-03,2025-02-26,株式会社ストライド,,株式会社,東京都,練馬区,中村南１丁目１４番２号,,13,120,1760025,,,2025-02-26,清算の結了等,,,2015-10-05,1,,,,,ストライド,0
733,4020001133446,登記記録の閉鎖等,0,2025-03-03,2025-02-12,株式会社トラストアート,,株式会社,神奈川県,横浜市神奈川区,松見町４丁目９４４番地１３松見台ハイツ１０７,,14,102,2210005,,,2025-02-12,清算の結了等,,,2019-11-01,1,,,,,トラストアート,0
734,4020001136894,登記記録の閉鎖等,0,2025-03-03,2025-02-14,株式会社恒吉,,株式会社,神奈川県,横浜市中区,元浜町３丁目２３番地,,14,104,2310004,,,2025-02-14,清算の結了等,,,2020-07-20,1,,,,,コウキチ,0
739,4020002019413,登記記録の閉鎖等,0,2025-03-03,2025-02-26,有限会社永谷モータース,,有限会社,神奈川県,横浜市港南区,日限山１丁目５８番１４号,,14,111,2330015,,,2025-02-26,清算の結了等,,,2015-10-05,1,,,,,ナガヤモータース,0
742,4020003005288,登記記録の閉鎖等,0,2025-03-03,2025-02-18,合同会社ありがとう,,合同会社,神奈川県,横浜市中区,本郷町３丁目２９３番地,,14,104,2310843,,,2025-02-18,清算の結了等,,,2015-10-05,1,,,,,アリガトウ,0
749,4021003007415,登記記録の閉鎖等,0,2025-03-03,2025-02-20,合同会社ＮＥＸＴ,,合同会社,神奈川県,大和市,中央林間８丁目１７番１５号,,14,213,2420007,,,2025-02-20,清算の結了等,,,2018-04-10,1,,,,,ネクスト,0
754,4030001062529,登記記録の閉鎖等,0,2025-03-03,2025-02-25,ワイズクリエイト株式会社,,株式会社,埼玉県,熊谷市,樋春２０７４－１１５,00120057,11,202,3600112,,,2025-02-25,清算の結了等,,,2015-10-05,1,,,,,ワイズクリエイト,0
771,4040005005318,登記記録の閉鎖等,0,2025-03-03,2025-02-21,医療法人社団大塚医院,,その他の設立登記法人,千葉県,松戸市,日暮５丁目２１０番地,,12,207,2702253,,,2025-02-21,清算の結了等,,,2015-10-05,1,,,,,オオツカイイン,0
774,4060001028709,登記記録の閉鎖等,0,2025-03-03,2025-02-27,株式会社ナガタ縫製,,株式会社,栃木県,足利市,大月町４５９番地１,,09,202,3260005,,,2025-02-27,清算の結了等,,,2016-10-13,1,,,,,ナガタホウセイ,0
778,4080002012271,登記記録の閉鎖等,0,2025-03-03,2025-02-27,有限会社村上サービス,,有限会社,静岡県,静岡市清水区,御門台１０番４８号,,22,103,4240878,,,2025-02-27,清算の結了等,,,2015-10-05,1,,,,,ムラカミサービス,0
780,4080403002193,登記記録の閉鎖等,0,2025-03-03,2025-02-20,合資会社芦田商店,00068543,合資会社,静岡県,浜松市浜名区,細江町気賀９７１番地,,22,139,4311305,,,2025-02-20,清算の結了等,,,2015-10-05,1,,,,,アシダショウテン,0
791,4120001001915,登記記録の閉鎖等,0,2025-03-03,2025-02-21,株式会社勝光社,,株式会社,大阪府,大阪市鶴見区,放出東１丁目８番１６号,,27,124,5380044,,,2025-02-21,合併による解散等,3020001074914,令和７年１月１日川崎市川崎区桜本二丁目４４番１号理研アルマイト工業株式会社（3020001074914）に合併し解散,2015-10-05,1,,,,,ショウコウシャ,0
792,4120001046753,登記記録の閉鎖等,0,2025-03-03,2025-02-26,Ｃｏあきないラボ株式会社,,株式会社,大阪府,大阪市西区,九条２丁目３番１８号,,27,106,5500027,,,2025-02-26,合併による解散等,2120001044916,令和７年２月２６日大阪市西区九条二丁目３番１８号大進産業株式会社（2120001044916）に合併し解散,2015-10-05,1,,,,,コアキナイラボ,0
805,4120901009710,登記記録の閉鎖等,0,2025-03-03,2025-02-25,大洋精機株式会社,,株式会社,大阪府,摂津市,東一津屋１０番２２号,,27,224,5660074,,,2025-02-25,清算の結了等,,,2015-10-05,1,,,,,タイヨウセイキ,0
807,4120901043511,登記記録の閉鎖等,0,2025-03-03,2025-02-21,株式会社挑戦社,,株式会社,大阪府,豊中市,中桜塚２丁目２２番３２号,,27,203,5610881,,,2025-02-21,清算の結了等,,,2020-11-20,1,,,,,,0
811,4140001107306,登記記録の閉鎖等,0,2025-03-03,2025-02-10,株式会社新神戸ランドリー,,株式会社,兵庫県,加東市,高岡５８３番地,,28,228,6790222,,,2025-02-10,合併による解散等,2120902014901,令和７年１月２１日大阪府池田市神田二丁目１５番２号株式会社西洋舎阪神（2120902014901）に合併し解散,2017-08-25,1,,,,,シンコウベランドリー,0
817,4170001005894,登記記録の閉鎖等,0,2025-03-03,2025-02-28,ナカノ食糧株式会社,,株式会社,和歌山県,海南市,下津町上１４８番地,,30,202,6490164,,,2025-02-28,清算の結了等,,,2015-10-05,1,,,,,ナカノショクリョウ,0
827,4180003005223,登記記録の閉鎖等,0,2025-03-03,2025-02-26,合資会社祖父江硝子店,,合資会社,愛知県,名古屋市中区,新栄２丁目４４番１２号,,23,106,4600007,,,2025-02-26,清算の結了等,,,2015-10-05,1,,,,,ソブエガラステン,0
828,4180003019743,登記記録の閉鎖等,0,2025-03-03,2025-02-27,合同会社やっぱすし,,合同会社,愛知県,名古屋市緑区,篭山３丁目２０１番地,,23,114,4580007,,,2025-02-27,清算の結了等,,,2019-03-06,1,,,,,ヤッパスシ,0
836,4190002011626,登記記録の閉鎖等,0,2025-03-03,2025-02-28,有限会社萬陽,,有限会社,三重県,志摩市,阿児町鵜方１２２４番地５,,24,215,5170501,,,2025-02-28,清算の結了等,,,2015-10-05,1,,,,,バンヨウ,0
844,4220002010921,登記記録の閉鎖等,0,2025-03-03,2025-02-19,有限会社トップス,,有限会社,石川県,小松市,八里台２４番地５,,17,203,9230056,,,2025-02-19,清算の結了等,,,2015-10-05,1,,,,,トップス,0
849,4240002025496,登記記録の閉鎖等,0,2025-03-03,2025-02-28,有限会社コーポ網文,,有限会社,広島県,広島市安佐南区,緑井４丁目２４番２７－２号,,34,105,7310103,,,2025-02-28,清算の結了等,,,2015-10-05,1,,,,,コーポアミブン,0
861,4290002014734,登記記録の閉鎖等,0,2025-03-03,2025-02-21,有限会社加島屋本店,,有限会社,福岡県,福岡市博多区,須崎町１番４号,,40,132,8120028,,,2025-02-21,清算の結了等,,,2015-10-05,1,,,,,カシマヤホンテン,0
865,4300003001804,登記記録の閉鎖等,0,2025-03-03,2025-02-27,合同会社吉博,,合同会社,佐賀県,西松浦郡有田町,原明乙２６５番地,,41,401,8494176,,,2025-02-27,清算の結了等,,,2022-03-07,1,,,,,ヨシヒロ,0
874,4370002014965,登記記録の閉鎖等,0,2025-03-03,2025-02-25,有限会社ゴトウファシリティーズ,,有限会社,宮城県,仙台市泉区,黒松１丁目２６番２３号,,04,105,9818006,,,2025-02-25,清算の結了等,,,2015-10-05,1,,,,,ゴトウファシリティーズ,0
880,4400602000659,登記記録の閉鎖等,0,2025-03-03,2025-02-14,有限会社丸正鋳造所,,有限会社,岩手県,奥州市,水沢羽田町駅前２丁目３６番地,,03,215,0230104,,,2025-02-14,清算の結了等,,,2015-10-05,1,,,,,マルショウチュウゾウジョ,0
896,5010001245299,登記記録の閉鎖等,0,2025-03-03,2025-02-14,Ａ．Ｐ．ホールディングス株式会社,,株式会社,東京都,千代田区,霞が関３丁目２番５号,,13,101,1000013,,,2025-02-14,清算の結了等,,,2024-05-30,1,,,,,エイピーホールディングス,0
917,5011001155199,登記記録の閉鎖等,0,2025-03-03,2025-02-03,ＴＡＡＬ　Ｔｅｃｈ株式会社,,株式会社,東京都,渋谷区,代々木２丁目２３番１号,,13,113,1510053,,,2025-02-03,清算の結了等,,,2023-07-03,1,,,,,タールテック,0
921,5011003009840,登記記録の閉鎖等,0,2025-03-03,2025-02-25,日本ナノ・イオン・エネルギー工業技術ホールディング合同会社,,合同会社,東京都,渋谷区,恵比寿２丁目２８番１１号,,13,113,1500013,,,2025-02-25,合併による解散等,8011003009838,令和６年１２月３１日大分県別府市上人仲町９番２４号ハイエネルギー技術ＩＰホールディング合同会社（8011003009838）に合併し解散,2019-04-09,1,,,,,ニホンナノイオンエネルギーコウギョウギジュツホールディング,0
929,5011201020673,登記記録の閉鎖等,0,2025-03-03,2025-02-27,株式会社Ｒｉｎｇｓ,,株式会社,東京都,杉並区,高円寺南２丁目５０－１３仲澤ビル２Ｆ,,13,115,1660003,,,2025-02-27,清算の結了等,,,2018-06-07,1,,,,,リングス,0
930,5011301014617,登記記録の閉鎖等,0,2025-03-03,2025-02-25,株式会社雅庵,,株式会社,東京都,杉並区,高井戸東３丁目３２番２４号,,13,115,1680072,,,2025-02-25,清算の結了等,,,2015-10-05,1,,,,,,0
941,5012303001256,登記記録の閉鎖等,0,2025-03-03,2025-02-27,Ｍ＆Ｊ商会合同会社,,合同会社,東京都,町田市,鶴川３丁目１５番１１号,,13,209,1950061,,,2025-02-27,清算の結了等,,,2019-04-15,1,,,,,エムアンドジェイショウカイ,0
945,5013101008988,登記記録の閉鎖等,0,2025-03-03,2025-02-20,株式会社Ｎｅｏ　Ｄｒｉｖｅ,,株式会社,東京都,あきる野市,雨間４０１番地３０,,13,228,1970825,,,2025-02-20,清算の結了等,,,2022-08-08,1,,,,,ネオドライブ,0
957,5020001125178,登記記録の閉鎖等,0,2025-03-03,2025-02-17,日本ルミノ株式会社,,株式会社,神奈川県,川崎市高津区,向ケ丘１５５番地２,,14,134,2130035,,,2025-02-17,清算の結了等,,,2018-02-19,1,,,,,ニホンルミノ,0
958,5020001139104,登記記録の閉鎖等,0,2025-03-03,2025-02-20,株式会社ＬＤＣ,,株式会社,神奈川県,川崎市高津区,北見方１丁目１番１６－１号,,14,134,2130005,,,2025-02-20,清算の結了等,,,2020-12-18,1,,,,,エルディーシー,0
960,5020002004034,登記記録の閉鎖等,0,2025-03-03,2025-02-26,有限会社かぶとや,,有限会社,神奈川県,横浜市緑区,十日市場町８２７番地４,,14,113,2260025,,,2025-02-26,清算の結了等,,,2015-10-05,1,,,,,カブトヤ,0
961,5020002070002,登記記録の閉鎖等,0,2025-03-03,2025-02-19,有限会社ゴーツゥー,,有限会社,神奈川県,横浜市戸塚区,下倉田町１１４１番地,,14,110,2440815,,,2025-02-19,清算の結了等,,,2015-10-05,1,,,,,ゴーツゥー,0
992,5070005007054,登記記録の閉鎖等,0,2025-03-03,2025-02-28,農事組合法人たくみの里組合,,その他の設立登記法人,群馬県,利根郡みなかみ町,須川３２３番地の２,,10,449,3791418,,,2025-02-28,清算の結了等,,,2015-10-05,1,,,,,タクミノサトクミアイ,0
994,5080402018933,登記記録の閉鎖等,0,2025-03-03,2025-02-28,有限会社和宏商業,,有限会社,静岡県,御前崎市,佐倉３１３０番地の４,,22,223,4371604,,,2025-02-28,清算の結了等,,,2015-10-05,1,,,,,ワコウショウギョウ,0
996,5100001037828,登記記録の閉鎖等,0,2025-03-03,2025-02-25,メディスタ株式会社,,株式会社,長野県,長野市,大字南長野西後町１５９７番地１長野表参道ビル４階,,20,201,3800845,,,2025-02-25,清算の結了等,,,2024-09-06,1,,,,,メディスタ,0
999,5110002022398,登記記録の閉鎖等,0,2025-03-03,2025-02-27,有限会社オオサカヤ直江津店,,有限会社,新潟県,上越市,安江１丁目３番３号,,15,222,9420041,,,2025-02-27,清算の結了等,,,2015-10-05,1,,,,,オオサカヤナオエツテン,0
1012,5120002031646,登記記録の閉鎖等,0,2025-03-03,2025-02-25,有限会社テック日研,,有限会社,大阪府,大阪市北区,天神橋１丁目１８番１１号,,27,127,5300041,,,2025-02-25,清算の結了等,,,2015-10-05,1,,,,,テックニッケン,0
1018,5122003001314,登記記録の閉鎖等,0,2025-03-03,2025-02-28,合同会社和,,合同会社,大阪府,東大阪市,横小路町５丁目７番１８号,,27,227,5798063,,,2025-02-28,清算の結了等,,,2017-02-27,1,,,,,,0
1029,5170005002607,登記記録の閉鎖等,0,2025-03-03,2025-02-07,日本イエスキリスト教団湯浅教会,,その他の設立登記法人,和歌山県,有田郡湯浅町,大字湯浅１３７１番地の７,,30,361,6430004,,,2025-02-07,合併による解散等,4170005003713,令和７年２月７日和歌山県西牟婁郡すさみ町周参見４１３５番地日本イエス・キリスト教団すさみ教会（4170005003713）に合併し解散,2015-10-05,1,,,,,ニホンイエスキリストキョウダンユアサキョウカイ,0
1033,5180001145581,登記記録の閉鎖等,0,2025-03-03,2025-02-26,株式会社ＴＩＣ,,株式会社,愛知県,知多市,梅が丘１丁目２２７番地,,23,224,4780016,,,2025-02-26,清算の結了等,,,2021-04-07,1,,,,,ティーアイシー,0
1038,5180002032440,登記記録の閉鎖等,0,2025-03-03,2025-02-25,有限会社バナナレコード,,有限会社,愛知県,名古屋市千種区,東山元町２丁目５６番地の１,,23,101,4640804,,,2025-02-25,清算の結了等,,,2015-10-05,1,,,,,バナナレコード,0
1044,5190002011435,登記記録の閉鎖等,0,2025-03-03,2025-02-28,有限会社珠光,,有限会社,三重県,志摩市,阿児町鵜方１２２６番地８,,24,215,5170501,,,2025-02-28,清算の結了等,,,2015-10-05,1,,,,,ジュコウ,0
1047,5220002007421,登記記録の閉鎖等,0,2025-03-03,2025-02-25,有限会社ガルバコーポレーション,,有限会社,石川県,金沢市,上荒屋１丁目４０６番地,,17,201,9218065,,,2025-02-25,清算の結了等,,,2015-10-05,1,,,,,ガルバコーポレーション,0
1048,5220002014855,登記記録の閉鎖等,0,2025-03-03,2025-02-26,志賀電子有限会社,,有限会社,石川県,羽咋郡志賀町,高浜町クの２７番地３,,17,384,9250141,,,2025-02-26,清算の結了等,,,2015-10-05,1,,,,,シカデンシ,0
1056,5290001001237,登記記録の閉鎖等,0,2025-03-03,2025-02-19,株式会社コトインターナシヨナル,,株式会社,福岡県,福岡市南区,屋形原３丁目２０番５号,,40,134,8111351,,,2025-02-19,清算の結了等,,,2015-10-05,1,,,,,コトインターナショナル,0
1078,5370001050176,登記記録の閉鎖等,0,2025-03-03,2025-02-25,株式会社まるにしサポート,,株式会社,宮城県,気仙沼市,西八幡町２０番地５,,04,205,9880817,,,2025-02-25,清算の結了等,,,2023-07-13,1,,,,,マルニシサポート,0
1084,5400001005127,登記記録の閉鎖等,0,2025-03-03,2025-02-17,はつらつ農場株式会社,,株式会社,岩手県,盛岡市,湯沢１０地割７３番地４,,03,201,0200842,,,2025-02-17,清算の結了等,,,2015-10-05,1,,,,,ハツラツノウジョウ,0
1089,5430005002365,登記記録の閉鎖等,0,2025-03-03,2025-02-27,札幌賃貸建物経営者協同組合,,その他の設立登記法人,北海道,札幌市中央区,北四条西４丁目１番地,,01,101,0600004,,,2025-02-27,清算の結了等,,,2015-10-05,1,,,,,サッポロチンタイタテモノケイエイシャ,0
1091,5450002002449,登記記録の閉鎖等,0,2025-03-03,2025-02-27,有限会社佐々木保険事務所,,有限会社,北海道,旭川市,神居四条１４丁目１番１５号,,01,204,0708014,,,2025-02-27,清算の結了等,,,2015-10-05,1,,,,,ササキホケンジムショ,0
1109,6010501004492,登記記録の閉鎖等,0,2025-03-03,2025-02-25,株式会社コモンエンタープライズ,,株式会社,東京都,台東区,東上野１丁目２５番１２号,,13,106,1100015,,,2025-02-25,清算の結了等,,,2015-10-05,1,,,,,,0
1112,6010601056285,登記記録の閉鎖等,0,2025-03-03,2025-02-14,滝沁株式会社,,株式会社,東京都,中央区,新川２丁目２１－１５ニューハイツ２０４,,13,102,1040033,,,2025-02-14,清算の結了等,,,2019-10-16,1,,,,,ロウシン,0
1118,6010905001565,登記記録の閉鎖等,0,2025-03-03,2025-02-19,特定非営利活動法人セプネア,,その他の設立登記法人,東京都,台東区,東上野４丁目１番４号,,13,106,1100015,,,2025-02-19,清算の結了等,,,2015-10-05,1,,,,,セプネア,0
1124,6011003010541,登記記録の閉鎖等,0,2025-03-03,2025-02-28,ＨＡＹＡＳＨＩＹＡ合同会社,,合同会社,東京都,八王子市,大和田町７丁目１－５－５１６号,,13,201,1920045,,,2025-02-28,清算の結了等,,,2019-11-18,1,,,,,,0
1139,6011501023235,登記記録の閉鎖等,0,2025-03-03,2025-02-20,株式会社日本もったいない研究所,,株式会社,東京都,北区,田端６丁目３－１８ビラカミムラ４０１,,13,117,1140014,,,2025-02-20,清算の結了等,,,2017-12-06,1,,,,,ニホンモッタイナイケンキュウジョ,0
1141,6011503002732,登記記録の閉鎖等,0,2025-03-03,2025-02-27,ＳＨＩＮＳＥＮＧＵＭＩ合同会社,,合同会社,東京都,北区,上十条５丁目４７番２号ガーデンヒルズ池田山１０１号,,13,117,1140034,,,2025-02-27,清算の結了等,,,2015-10-05,1,,,,,シンセングミ,0
1149,6012301012304,登記記録の閉鎖等,0,2025-03-03,2025-02-27,マイティホーミーズ株式会社,,株式会社,東京都,町田市,原町田６丁目１８－２ビラ・アペックス町田４Ｆ,,13,209,1940013,,,2025-02-27,清算の結了等,,,2020-10-12,1,,,,,マイティホーミーズ,0
1156,6020001149218,登記記録の閉鎖等,0,2025-03-03,2025-02-26,株式会社縁周,,株式会社,神奈川県,川崎市川崎区,桜本１丁目１１番１９号,,14,131,2100833,,,2025-02-26,清算の結了等,,,2022-12-05,1,,,,,エンシュウ,0
1166,6021001060406,登記記録の閉鎖等,0,2025-03-03,2025-02-12,株式会社ＳＵＮ　ＧＯ,,株式会社,東京都,港区,白金６丁目１６番２５－２８０５号,,13,103,1080072,,,2025-02-12,清算の結了等,,,2016-10-06,1,,,,,サンゴ,0
1169,6030001016268,登記記録の閉鎖等,0,2025-03-03,2025-02-26,株式会社ＷＡＶＥ,,株式会社,埼玉県,さいたま市見沼区,大和田町１丁目１７３８番地５－４０８号,,11,104,3370053,,,2025-02-26,清算の結了等,,,2015-10-05,1,,,,,ウェイブ,0
1183,6040001028519,登記記録の閉鎖等,0,2025-03-03,2025-02-18,株式会社一夢庵,,株式会社,千葉県,市川市,福栄３丁目７番２７号,,12,203,2720137,,,2025-02-18,清算の結了等,,,2015-10-05,1,,,,,イチムアン,0
1191,6050002002505,登記記録の閉鎖等,0,2025-03-03,2025-02-26,日本テレシステム有限会社,,有限会社,茨城県,水戸市,酒門町１９５９番地の２８,,08,201,3100841,,,2025-02-26,清算の結了等,,,2015-10-05,1,,,,,ニホンテレシステム,0
1193,6050002012586,登記記録の閉鎖等,0,2025-03-03,2025-02-21,有限会社大竹自動車,,有限会社,茨城県,稲敷郡阿見町,大字小池６１２番地１,,08,443,3001157,,,2025-02-21,清算の結了等,,,2015-10-05,1,,,,,オオタケジドウシャ,0
1206,6120001109401,登記記録の閉鎖等,0,2025-03-03,2025-02-27,シアトルズコーヒージャパン株式会社,,株式会社,大阪府,大阪市浪速区,桜川４丁目１番７号,,27,111,5560022,,,2025-02-27,清算の結了等,,,2015-10-05,1,,,,,シアトルズコーヒージャパン,0
1211,6120001255749,登記記録の閉鎖等,0,2025-03-03,2025-02-27,ＥＤＲＵＭＳ株式会社,,株式会社,大阪府,大阪市大正区,三軒家西３丁目４番１６号中山ビル４０８Ａ,,27,108,5510001,,,2025-02-27,清算の結了等,,,2023-06-16,1,,,,,エドラムス,0
1217,6120002065123,登記記録の閉鎖等,0,2025-03-03,2025-02-26,株式会社丸長石材,,株式会社,兵庫県,芦屋市,船戸町５番２－８０１号,,28,206,6590093,,,2025-02-26,清算の結了等,,,2015-10-05,1,,,,,マルチョウセキザイ,0
1219,6120005020232,登記記録の閉鎖等,0,2025-03-03,2025-02-27,特定非営利活動法人ＫＡＴＺＯＣ,,その他の設立登記法人,兵庫県,神戸市灘区,大石東町５丁目２番５号２階,,28,102,6570043,,,2025-02-27,清算の結了等,,,2018-06-15,1,,,,,カゾック,0
1222,6120102001606,登記記録の閉鎖等,0,2025-03-03,2025-02-26,岸和田運輸商事有限会社,,有限会社,大阪府,堺市中区,土師町１丁１５番１３号,,27,142,5998238,,,2025-02-26,清算の結了等,,,2015-10-05,1,,,,,キシワダウンユショウジ,0
1225,6120103005721,登記記録の閉鎖等,0,2025-03-03,2025-02-26,アップアイ合同会社,,合同会社,大阪府,阪南市,尾崎町８丁目１１番９－６号,,27,232,5990201,,,2025-02-26,清算の結了等,,,2024-03-18,1,UPEYE Inc.,Osaka,"8-11-9-6,Ozaki, Hannan shi",,アップアイ,0
1227,6120901047659,登記記録の閉鎖等,0,2025-03-03,2025-02-21,株式会社Ａｐｌｕｍ,,株式会社,大阪府,茨木市,平田台１番９号,,27,211,5670849,,,2025-02-21,清算の結了等,,,2023-06-12,1,,,,,エイプラム,0
1229,6122001036690,登記記録の閉鎖等,0,2025-03-03,2025-02-25,株式会社ＢＬＥＳＳＩＮＧ,,株式会社,大阪府,岸和田市,天神山町２丁目１１番１２号,,27,202,5960834,,,2025-02-25,清算の結了等,,,2023-02-08,1,,,,,ブレッシング,0
1250,6180002066628,登記記録の閉鎖等,0,2025-03-03,2025-02-03,有限会社中部モーターランド,,有限会社,愛知県,名古屋市東区,泉１丁目１８番３号,,23,102,4610001,,,2025-02-03,合併による解散等,6180001075027,令和７年２月２日名古屋市東区泉一丁目１８番３号株式会社ミスター（6180001075027）に合併し解散,2015-10-05,1,,,,,チュウブモーターランド,0
1255,6190002011434,登記記録の閉鎖等,0,2025-03-03,2025-02-28,志摩シティビル有限会社,,有限会社,三重県,志摩市,阿児町鵜方１２２４番地３,,24,215,5170501,,,2025-02-28,清算の結了等,,,2015-10-05,1,,,,,シマシテイビルイ,0
1261,6210001008164,登記記録の閉鎖等,0,2025-03-03,2025-02-26,株式会社モバイルパーク,,株式会社,福井県,福井市,福１丁目１７１０番地,,18,201,9188027,,,2025-02-26,清算の結了等,,,2015-10-05,1,,,,,モバイルパーク,0
1264,6210002014203,登記記録の閉鎖等,0,2025-03-03,2025-02-26,有限会社ホテルニューまつや,,有限会社,大阪府,河内長野市,美加の台５丁目２７番１０号,,27,216,5860044,,,2025-02-26,清算の結了等,,,2015-10-05,1,,,,,ホテルニューマツヤ,0
1295,6320005002367,登記記録の閉鎖等,0,2025-03-03,2025-02-28,特定非営利活動法人アジア文化交流センター,,その他の設立登記法人,大分県,大分市,豊町１丁目１番３２号,,44,201,8700042,,,2025-02-28,清算の結了等,,,2015-10-05,1,,,,,アジアブンカコウリュウセンター,0
1298,6350005001333,登記記録の閉鎖等,0,2025-03-03,2025-01-31,社会福祉法人エデンの園,,その他の設立登記法人,宮崎県,東諸県郡国富町,大字三名字初田２６２１番地５,,45,382,8801114,,,2025-01-31,合併による解散等,3350005006285,令和７年１月３１日宮崎市大字塩路字江良ノ上２７８３番地３２社会福祉法人玉扇会（1350005000562）と合併して宮崎県東諸県郡国富町大字三名２６２１番地５社会福祉法人ＭＡＧ（3350005006285）を設立し解散,2015-10-05,1,,,,,エデンノソノ,0
1303,6370001049936,登記記録の閉鎖等,0,2025-03-03,2025-02-26,株式会社ＡＩ設計,,株式会社,宮城県,岩沼市,たけくま１丁目９－１７－１０３,,04,211,9892459,,,2025-02-26,清算の結了等,,,2023-05-10,1,,,,,エーアイセッケイ,0
1316,6410002010982,登記記録の閉鎖等,0,2025-03-03,2025-02-26,有限会社エーケー柏,,有限会社,秋田県,能代市,字東大瀬５０番地１,,05,202,0160839,,,2025-02-26,清算の結了等,,,2015-10-05,1,,,,,エーケーーカシワ,0
1335,7010001124939,登記記録の閉鎖等,0,2025-03-03,2025-02-14,ＩＴｔｅｃｈ－Ｊａｐａｎ株式会社,,株式会社,東京都,文京区,千駄木３丁目１６番１２号,,13,105,1130022,,,2025-02-14,清算の結了等,,,2015-10-05,1,,,,,アイティーテックジャパン,0
1342,7010401173478,登記記録の閉鎖等,0,2025-03-03,2025-02-25,タコテック株式会社,,株式会社,愛知県,名古屋市南区,豊２丁目２２－５,,23,112,4570863,,,2025-02-25,清算の結了等,,,2023-04-05,1,,,,,タコテック,0
1373,7011001127386,登記記録の閉鎖等,0,2025-03-03,2025-02-03,情報技術サービス株式会社,,株式会社,東京都,渋谷区,桜丘町２２番１４号Ｎ．Ｅ．Ｓ．ビルＳ棟Ｂ２,,13,113,1500031,,,2025-02-03,合併による解散等,9010001116570,令和７年２月１日東京都渋谷区桜丘町２２番１４号フューチャー・アンティークス株式会社（9010001116570）に合併し解散,2019-04-05,1,,,,,ジョウホウギジュツサービス,0
1377,7011003009839,登記記録の閉鎖等,0,2025-03-03,2025-02-25,国際ナノ・イオン・エネルギー工業技術ホールディング合同会社,,合同会社,東京都,渋谷区,恵比寿２丁目２８番１１号,,13,113,1500013,,,2025-02-25,合併による解散等,8011003009838,令和６年１２月３１日大分県別府市上人仲町９番２４号ハイエネルギー技術ＩＰホールディング合同会社（8011003009838）に合併し解散,2019-04-09,1,,,,,コクサイナノイオンエネルギーコウギョウギジュツホールディング,0
1378,7011003010763,登記記録の閉鎖等,0,2025-03-03,2025-02-25,日本高度エネルギー加工ホールディング合同会社,,合同会社,東京都,渋谷区,恵比寿２丁目２８番１１号,,13,113,1500013,,,2025-02-25,合併による解散等,8011003009838,令和６年１２月３１日大分県別府市上人仲町９番２４号ハイエネルギー技術ＩＰホールディング合同会社（8011003009838）に合併し解散,2020-01-22,1,,,,,ニホンコウドエネルギーカコウホールディング,0
1400,7012805003244,登記記録の閉鎖等,0,2025-03-03,2025-02-13,一般社団法人竹村,,その他の設立登記法人,東京都,国分寺市,南町１丁目１１番１０号,,13,214,1850021,,,2025-02-13,清算の結了等,,,2023-12-06,1,,,,,タケムラ,0
1407,7020001108627,登記記録の閉鎖等,0,2025-03-03,2025-02-17,株式会社友凛企画,,株式会社,神奈川県,川崎市幸区,南加瀬２丁目３６番１３号,,14,132,2120055,,,2025-02-17,清算の結了等,,,2015-10-05,1,,,,,ユウリンキカク,0
1408,7020001110483,登記記録の閉鎖等,0,2025-03-03,2025-02-27,チュートリアルパートナーズ株式会社,,株式会社,東京都,町田市,玉川学園７丁目４－６ＪＴＹビル２Ｆ,,13,209,1940041,,,2025-02-27,清算の結了等,,,2015-10-05,1,,,,,チュートリアルパートナーズ,0
1415,7020002067780,登記記録の閉鎖等,0,2025-03-03,2025-02-19,有限会社武内工業,,有限会社,神奈川県,横浜市旭区,上白根町７７４番地１６４,,14,112,2410001,,,2025-02-19,清算の結了等,,,2015-10-05,1,,,,,タケウチコウギョウ,0
1425,7030001131347,登記記録の閉鎖等,0,2025-03-03,2025-02-26,株式会社ネクストステージ,,株式会社,埼玉県,加須市,今鉾１２６番地５,,11,210,3470024,,,2025-02-26,合併による解散等,3010001154106,令和６年１２月３１日東京都港区東新橋一丁目５番２号汐留シティセンター８階ブルースカイソーラー株式会社（3010001154106）に合併し解散,2019-06-07,1,,,,,ネクストステージ,0
1456,7080005000460,登記記録の閉鎖等,0,2025-03-03,2025-02-12,天理教靜鷹分教会,00067633,その他の設立登記法人,静岡県,静岡市駿河区,大和１丁目２番２号,,22,102,4228077,,,2025-02-12,合併による解散等,9120105001088,令和７年２月７日大阪府堺市堺区向陵中町三丁１番１号天理教堺大教会（9120105001088）に合併し解散,2015-10-05,1,,,,,テンリキョウシズタカブンキョウカイ,0
1492,7180001074498,登記記録の閉鎖等,0,2025-03-03,2025-02-03,株式会社中部ミスターバイク,,株式会社,愛知県,名古屋市東区,泉１丁目１８番３号,,23,102,4610001,,,2025-02-03,合併による解散等,6180001075027,令和７年２月２日名古屋市東区泉一丁目１８番３号株式会社ミスター（6180001075027）に合併し解散,2015-10-05,1,,,,,チュウブミスターバイク,0
1505,7180301019327,登記記録の閉鎖等,0,2025-03-03,2025-02-28,まるい青果株式会社,,株式会社,愛知県,豊田市,高崎町兼近７０番地,,23,211,4710048,,,2025-02-28,清算の結了等,,,2015-10-05,1,,,,,,0
1515,7240001059567,登記記録の閉鎖等,0,2025-03-03,2025-02-13,株式会社ＡＣＮ中四国,,株式会社,広島県,広島市南区,松原町２番６２号,,34,103,7320822,,,2025-02-13,合併による解散等,4120001244902,令和７年２月１日大阪市北区梅田三丁目２番２号ＪＰタワー大阪１４階株式会社ＡＣＮ近畿（4120001244902）に合併し解散,2022-04-07,1,,,,,エーシーエヌチュウシコク,0
1517,7260001009710,登記記録の閉鎖等,0,2025-03-03,2025-02-28,株式会社竹内商会,,株式会社,岡山県,岡山市東区,可知５丁目１４番地５１,,33,103,7048173,,,2025-02-28,清算の結了等,,,2015-10-05,1,,,,,タケウチショウカイ,0
1520,7270001003794,登記記録の閉鎖等,0,2025-03-03,2025-02-27,新興水産株式会社,,株式会社,鳥取県,境港市,朝日町２０番地,,31,204,6840013,,,2025-02-27,清算の結了等,,,2015-10-05,1,,,,,シンコウスイサン,0
1522,7280002005558,登記記録の閉鎖等,0,2025-03-03,2025-02-28,島菱運輸株式会社,,株式会社,島根県,出雲市,神門町８４０番地,,32,203,6930034,,,2025-02-28,清算の結了等,,,2015-10-05,1,,,,,シマリョウウンユ,0
1528,7290001058787,登記記録の閉鎖等,0,2025-03-03,2025-02-19,株式会社クーネル,,株式会社,福岡県,福岡市早良区,南庄２丁目８番８－１０１号,,40,137,8140031,,,2025-02-19,清算の結了等,,,2015-10-05,1,,,,,クーネル,0
1550,7330003003480,登記記録の閉鎖等,0,2025-03-03,2025-02-04,合資会社村上商店,,合資会社,熊本県,八代市,鏡町鏡５１８番地,,43,202,8694203,,,2025-02-04,清算の結了等,,,2015-10-05,1,,,,,,0
1551,7350002008009,登記記録の閉鎖等,0,2025-03-03,2025-02-28,有限会社メテオエム,,有限会社,宮崎県,宮崎市,大字本郷北方２４９８番地８,,45,201,8800925,,,2025-02-28,清算の結了等,,,2015-10-05,1,,,,,メテオエム,0
1552,7350003004675,登記記録の閉鎖等,0,2025-03-03,2025-02-27,合同会社ＰＳＭＣ,,合同会社,宮崎県,延岡市,野地町４丁目３５３６番地１スピリットクロキ１０２,,45,203,8820802,,,2025-02-27,清算の結了等,,,2024-06-17,1,,,,,ピーエスエムシー,0
1563,7450005002493,登記記録の閉鎖等,0,2025-03-03,2025-02-26,特定非営利活動法人風連まちづくり観光,,その他の設立登記法人,北海道,名寄市,風連町仲町６８番地,,01,221,0980506,,,2025-02-26,清算の結了等,,,2015-10-05,1,,,,,フウレンマチヅクリカンコウ,0
1581,8010001199658,登記記録の閉鎖等,0,2025-03-03,2025-02-14,Ｓｉｓｅｎｓｅ　Ｊａｐａｎ株式会社,,株式会社,東京都,千代田区,大手町１丁目５番１号大手町ファーストスクエアイーストタワー４階,,13,101,1000004,,,2025-02-14,清算の結了等,,,2019-04-03,1,,,,,サイセンスジャパン,0
1583,8010003034821,登記記録の閉鎖等,0,2025-03-03,2024-12-20,スパルタンジャパン合同会社,,合同会社,東京都,渋谷区,恵比寿１丁目５番７号,,13,113,1500013,,,2024-12-20,清算の結了等,,,2021-05-13,1,,,,,スパルタンジャパン,0
1585,8010401018392,登記記録の閉鎖等,0,2025-03-03,2025-02-28,株式会社テイジー・エム,,株式会社,東京都,港区,新橋６丁目２番９号,,13,103,1050004,,,2025-02-28,清算の結了等,,,2015-10-05,1,,,,,テイジーエム,0
1610,8010701033760,登記記録の閉鎖等,0,2025-03-03,2025-02-13,株式会社キュア,,株式会社,東京都,品川区,上大崎３丁目８番４号サウンドプルーフ目黒白金台４０１,,13,109,1410021,,,2025-02-13,清算の結了等,,,2017-02-17,1,,,,,キュア,0
1611,8010702007202,登記記録の閉鎖等,0,2025-03-03,2025-02-13,有限会社双葉鮨,,有限会社,東京都,品川区,南品川２丁目８番１５号,,13,109,1400004,,,2025-02-13,清算の結了等,,,2015-10-05,1,,,,,フタバズシ,0
1632,8011501000182,登記記録の閉鎖等,0,2025-03-03,2025-02-26,株式会社あんず館,,株式会社,東京都,北区,上中里１丁目４６番１６号,,13,117,1140016,,,2025-02-26,清算の結了等,,,2015-10-05,1,,,,,アンズカン,0
1634,8011505002200,登記記録の閉鎖等,0,2025-03-03,2025-02-27,一般社団法人こすも,,その他の設立登記法人,東京都,北区,中十条３丁目３３番９－４０３号ゼファー中十条アクタージュ,,13,117,1140032,,,2025-02-27,清算の結了等,,,2018-12-19,1,,,,,コスモ,0
1636,8011702013529,登記記録の閉鎖等,0,2025-03-03,2025-02-25,有限会社スレッド,,有限会社,東京都,江戸川区,平井６丁目５４番５号,,13,123,1320035,,,2025-02-25,清算の結了等,,,2015-10-05,1,,,,,,0
1643,8013201006583,登記記録の閉鎖等,0,2025-03-03,2025-02-04,株式会社産和リース,,株式会社,東京都,目黒区,中目黒４丁目１４番８号,,13,110,1530061,,,2025-02-04,清算の結了等,,,2015-10-05,1,,,,,サンワリース,0
1645,8020001030086,登記記録の閉鎖等,0,2025-03-03,2025-02-18,東電機株式会社,,株式会社,神奈川県,横浜市都筑区,川和町６５９番地,,14,118,2240057,,,2025-02-18,清算の結了等,,,2015-10-05,1,,,,,アズマデンキ,0
1653,8020002061799,登記記録の閉鎖等,0,2025-03-03,2025-02-18,有限会社エドゥー,,有限会社,神奈川県,横浜市港北区,大倉山４丁目３４番３－４１２号,,14,109,2220037,,,2025-02-18,清算の結了等,,,2015-10-05,1,,,,,エドゥー,0
1654,8020002094601,登記記録の閉鎖等,0,2025-03-03,2025-02-18,有限会社田沢工務店,,有限会社,神奈川県,川崎市麻生区,東百合丘４丁目３番１２号,,14,137,2150012,,,2025-02-18,清算の結了等,,,2015-10-05,1,,,,,タザワコウムテン,0
1681,8070002000505,登記記録の閉鎖等,0,2025-03-03,2025-02-28,有限会社石川農機商会,,有限会社,群馬県,前橋市,鼻毛石町１７７番地３,,10,201,3710244,,,2025-02-28,清算の結了等,,,2015-10-05,1,,,,,イシカワノウキショウカイ,0
1689,8100001037833,登記記録の閉鎖等,0,2025-03-03,2025-02-25,Ｎ・Ｆｏｒｃｅ株式会社,,株式会社,長野県,松本市,野溝西１丁目６番２９号のみぞビル２階,,20,202,3990006,,,2025-02-25,清算の結了等,,,2024-09-06,1,,,,,エヌフォース,0
1691,8110005012237,登記記録の閉鎖等,0,2025-03-03,2025-02-27,医療法人社団玉木整形外科クリニック,,その他の設立登記法人,新潟県,長岡市,緑町１丁目１３２番地２,,15,202,9402105,,,2025-02-27,清算の結了等,,,2015-10-05,1,,,,,タマキセイケイゲカクリニック,0
1698,8120003011446,登記記録の閉鎖等,0,2025-03-03,2025-02-25,合同会社ＢＢＢ,,合同会社,大阪府,門真市,中町７番１７－１号,,27,223,5710055,,,2025-02-25,清算の結了等,,,2016-03-03,1,,,,,ビービービー,0
1703,8130001048035,登記記録の閉鎖等,0,2025-03-03,2025-02-28,株式会社ネクサス,,株式会社,京都府,京都市中京区,堺町通御池下る丸木材木町６７１番地エクレーヌ御池４０５,,26,104,6048106,,,2025-02-28,清算の結了等,,,2015-10-05,1,,,,,ネクサス,0
1705,8140001048579,登記記録の閉鎖等,0,2025-03-03,2025-02-21,グリーンシステム株式会社,,株式会社,兵庫県,尼崎市,大西町１丁目２番２０号,,28,202,6610023,,,2025-02-21,清算の結了等,,,2015-10-05,1,,,,,グリーンシステム,0
1719,8180002015095,登記記録の閉鎖等,0,2025-03-03,2025-02-21,有限会社山田熔接工業,,有限会社,愛知県,名古屋市南区,岩戸町１７番１８号,,23,112,4570015,,,2025-02-21,清算の結了等,,,2015-10-05,1,,,,,ヤマダヨウセツコウギョウ,0
1729,8240001036078,登記記録の閉鎖等,0,2025-03-03,2025-02-28,株式会社スマイルサポート,,株式会社,広島県,福山市,明王台５丁目６番１３号,,34,207,7200834,,,2025-02-28,清算の結了等,,,2015-10-05,1,,,,,スマイルサポート,0
1751,8330002016400,登記記録の閉鎖等,0,2025-03-03,2025-02-25,有限会社古荘工務店,,有限会社,熊本県,菊池郡菊陽町,大字原水２７６９番地２,,43,404,8691102,,,2025-02-25,清算の結了等,,,2015-10-05,1,,,,,フルショウコウムテン,0
1753,8330003002473,登記記録の閉鎖等,0,2025-03-03,2025-02-25,合資会社今村海苔店,,合資会社,熊本県,玉名市,岱明町中土８０５番地,,43,206,8690223,,,2025-02-25,清算の結了等,,,2015-10-05,1,,,,,イマムラノリテン,0
1762,8350002010855,登記記録の閉鎖等,0,2025-03-03,2025-02-27,有限会社ビバン,,有限会社,宮崎県,日向市,大字財光寺３５８１番地,,45,206,8830021,,,2025-02-27,清算の結了等,,,2015-10-05,1,,,,,ビバン,0
1763,8350003004674,登記記録の閉鎖等,0,2025-03-03,2025-02-27,合同会社ＲＥＤＨＡＷＫ,,合同会社,宮崎県,延岡市,野地町４丁目３５３６番地１スピリットクロキ１０２,,45,203,8820802,,,2025-02-27,清算の結了等,,,2024-06-18,1,,,,,レッドホーク,0
1795,9010001241484,登記記録の閉鎖等,0,2025-03-03,2025-01-27,株式会社イエロー,,株式会社,東京都,中央区,銀座７丁目１３番２０号,,13,102,1040061,,,2025-01-27,清算の結了等,,,2024-01-16,1,,,,,イエロー,0
1807,9010501026179,登記記録の閉鎖等,0,2025-03-03,2025-02-25,ＷＡＳＰ株式会社,,株式会社,東京都,台東区,台東２丁目３１番８号,,13,106,1100016,,,2025-02-25,清算の結了等,,,2015-10-05,1,,,,,ワスプ,0
1808,9010501052679,登記記録の閉鎖等,0,2025-03-03,2025-02-21,東京怡和株式会社,,株式会社,東京都,台東区,千束３丁目２１－１２－２０１号室,,13,106,1110031,,,2025-02-21,清算の結了等,,,2024-07-30,1,,,,,トウキョウイワ,0
1818,9011003009837,登記記録の閉鎖等,0,2025-03-03,2025-02-25,国際高度エネルギー加工ホールディング合同会社,,合同会社,東京都,渋谷区,恵比寿２丁目２８番１１号,,13,113,1500013,,,2025-02-25,合併による解散等,8011003009838,令和６年１２月３１日大分県別府市上人仲町９番２４号ハイエネルギー技術ＩＰホールディング合同会社（8011003009838）に合併し解散,2019-04-09,1,,,,,コクサイコウドエネルギーカコウホールディング,0
1827,9011402003597,登記記録の閉鎖等,0,2025-03-03,2025-02-25,有限会社サエス,,有限会社,東京都,板橋区,高島平４丁目１１番６号,,13,119,1750082,,,2025-02-25,清算の結了等,,,2015-10-05,1,,,,,サエス,0
1834,9013301013999,登記記録の閉鎖等,0,2025-03-03,2025-02-26,朝富士産業株式会社,,株式会社,埼玉県,上尾市,大字上２０４番地１９,,11,219,3620001,,,2025-02-26,清算の結了等,,,2015-10-05,1,,,,,アサフジサンギョウ,0
1840,9020001040043,登記記録の閉鎖等,0,2025-03-03,2025-02-13,株式会社ティ・エム・コラボレーション,,株式会社,神奈川県,横浜市保土ケ谷区,保土ケ谷町１丁目８４番地,,14,106,2400021,,,2025-02-13,清算の結了等,,,2015-10-05,1,,,,,ティエムコラボレーション,0
1853,9020002087166,登記記録の閉鎖等,0,2025-03-03,2025-02-19,有限会社ナカジマ,,有限会社,神奈川県,川崎市宮前区,土橋１丁目３番地２６,,14,136,2160005,,,2025-02-19,清算の結了等,,,2015-10-05,1,,,,,ナカジマ,0
1912,9150005005590,登記記録の閉鎖等,0,2025-03-03,2025-02-27,特定非営利活動法人住民の力,,その他の設立登記法人,奈良県,高市郡高取町,大字下土佐４２４－１,,29,401,6350153,,,2025-02-27,清算の結了等,,,2015-10-05,1,,,,,ジュウミンノチカラ,0
1916,9170005004509,登記記録の閉鎖等,0,2025-03-03,2025-02-07,日本イエス・キリスト教団由良教会,,その他の設立登記法人,和歌山県,日高郡由良町,大字里２００番地,,30,383,6491111,,,2025-02-07,合併による解散等,4170005003713,令和７年２月７日和歌山県西牟婁郡すさみ町周参見４１３５番地日本イエス・キリスト教団すさみ教会（4170005003713）に合併し解散,2015-10-05,1,,,,,ニホンイエスキリストキョウダンユラキョウカイ,0
1917,9170005005713,登記記録の閉鎖等,0,2025-03-03,2025-02-07,日本イエス・キリスト教団串本教会,,その他の設立登記法人,和歌山県,東牟婁郡串本町,串本１４１０番地の６,,30,428,6493503,,,2025-02-07,合併による解散等,4170005003713,令和７年２月７日和歌山県西牟婁郡すさみ町周参見４１３５番地日本イエス・キリスト教団すさみ教会（4170005003713）に合併し解散,2015-10-05,1,,,,,ニホンイエスキリストキョウダンクシモトキョウカイ,0
1919,9180001035176,登記記録の閉鎖等,0,2025-03-03,2025-02-26,加藤ビル株式会社,,株式会社,愛知県,名古屋市中区,新栄町３丁目１３番地,,23,106,4600004,,,2025-02-26,清算の結了等,,,2015-10-05,1,,,,,カトウビル,0
1932,9190001027676,登記記録の閉鎖等,0,2025-03-03,2025-02-28,株式会社ＩＫＩＬ,,株式会社,三重県,伊勢市,御薗町上條１６３番地,,24,203,5160806,,,2025-02-28,清算の結了等,,,2020-10-01,1,,,,,イキル,0
1978,9430001043260,登記記録の閉鎖等,0,2025-03-03,2025-02-27,ホープ宅建株式会社,,株式会社,北海道,江別市,大麻ひかり町４８番地の１２,,01,217,0690847,,,2025-02-27,清算の結了等,,,2015-10-05,1,,,,,ホープタッケン,0
1984,9470002012806,登記記録の閉鎖等,0,2025-03-03,2025-02-27,有限会社大西大助商店,,有限会社,香川県,善通寺市,生野本町２丁目１８番４号,,37,204,7650014,,,2025-02-27,清算の結了等,,,2015-10-05,1,,,,,オオニシオオスケショウテン,0
1988,9500001020137,登記記録の閉鎖等,0,2025-03-03,2025-02-26,株式会社重一建設,,株式会社,愛媛県,西条市,大町１２７４番地４,,38,206,7930030,,,2025-02-26,清算の結了等,,,2016-10-13,1,,,,,シゲイチケンセツ,0
