sequenceNumber,corporateNumber,process,correct,updateDate,changeDate,name,nameImageId,kind,prefectureName,cityName,streetNumber,addressImageId,prefectureCode,cityCode,postCode,addressOutside,addressOutsideImageId,closeDate,closeCause,successorCorporateNumber,changeCause,assignmentDate,latest,enName,enPrefectureName,enCityName,enAddressOutside,furigana,hihyoji
5,1010001250204,新規,0,2024-11-28,2024-11-28,ブイアールコネクト株式会社,,株式会社,東京都,千代田区,富士見１丁目３番１１号富士見デュープレックスＢ’Ｓ４階,,13,101,1020071,,,,,,,2024-11-28,1,,,,,ブイアールコネクト,0
6,1010001250286,新規,0,2024-11-28,2024-11-28,金次郎アフリカ株式会社,,株式会社,東京都,千代田区,二番町１番２号番町ハイム１２０号,,13,101,1020084,,,,,,,2024-11-28,1,,,,,キンジロウアフリカ,0
8,1010003045643,新規,0,2024-11-28,2024-11-28,アメジストフォー合同会社,,合同会社,東京都,中央区,日本橋１丁目４番１号日本橋一丁目ビルディング,,13,102,1030027,,,,,,,2024-11-28,1,,,,,アメジストフォー,0
16,1010401186659,新規,0,2024-11-28,2024-11-28,株式会社ＩＺＥ,,株式会社,東京都,港区,芝浦３丁目１７番１１号,,13,103,1080023,,,,,,,2024-11-28,1,,,,,アイズ,0
17,1010401186667,新規,0,2024-11-28,2024-11-28,株式会社セブンクリエイティブ,,株式会社,東京都,港区,南青山３丁目１番３６号青山丸竹ビル６Ｆ,,13,103,1070062,,,,,,,2024-11-28,1,,,,,セブンクリエイティブ,0
18,1010401186683,新規,0,2024-11-28,2024-11-28,株式会社スリムスタイル,,株式会社,東京都,港区,南麻布５丁目１５番２０号南麻布フラワーマンション７０１,,13,103,1060047,,,,,,,2024-11-28,1,,,,,スリムスタイル,0
19,1010401186691,新規,0,2024-11-28,2024-11-28,おがわ院長株式会社,,株式会社,東京都,港区,虎ノ門３丁目１５番５号アルトヴィラ虎ノ門１１０１号,,13,103,1050001,,,,,,,2024-11-28,1,,,,,オガワインチョウ,0
20,1010401186725,新規,0,2024-11-28,2024-11-28,Ｂｅｙｏｎｄ　Ｐｌａｎｎｉｎｇ株式会社,,株式会社,東京都,港区,北青山２丁目７番２６号Ｌａｎｄｗｏｒｋ青山ビル２ＦＣＲＯＳＳＣＯＯＰ青山,,13,103,1070061,,,,,,,2024-11-28,1,,,,,ビヨンドプランニング,0
22,1010403033891,新規,0,2024-11-28,2024-11-28,合同会社Ｋ‐ｓｔａｒｔ,,合同会社,東京都,港区,白金３丁目７－２１ヴォーヌング白金３０２,,13,103,1080072,,,,,,,2024-11-28,1,,,,,ケースタート,0
23,1010403033900,新規,0,2024-11-28,2024-11-28,アイアンブリッジ合同会社,,合同会社,東京都,港区,六本木１丁目９番１０号アークヒルズ仙石山森タワー４０階,,13,103,1060032,,,,,,,2024-11-28,1,,,,,アイアンブリッジ,0
29,1010601066363,新規,0,2024-11-28,2024-11-28,ＭＯＮＤ株式会社,,株式会社,東京都,江東区,有明３丁目７－２６有明フロンティアビルＢ棟９階,,13,108,1350063,,,,,,,2024-11-28,1,,,,,モンド,0
33,1010803005177,新規,0,2024-11-28,2024-11-28,合同会社ＨＡＣＨＩ,,合同会社,東京都,大田区,久が原３丁目２番１１号,,13,111,1460085,,,,,,,2024-11-28,1,,,,,ハチ,0
42,1011003020470,新規,0,2024-11-28,2024-11-28,Ｎａｔｉｏｎａｌ　Ｂｒａｉｎｓ合同会社,,合同会社,東京都,渋谷区,道玄坂１丁目１０番８号渋谷道玄坂東急ビル２Ｆ‐Ｃ,,13,113,1500043,,,,,,,2024-11-28,1,,,,,ナショナルブレインズ,0
43,1011005010759,新規,0,2024-11-28,2024-11-28,一般社団法人日本障害インクルーシブビジネス推進協会,,その他の設立登記法人,東京都,渋谷区,東１丁目２０－６ハイム常磐松３Ｃ,,13,113,1500011,,,,,,,2024-11-28,1,,,,,ニホンショウガイインクルーシブビジネススイシンキョウカイ,0
48,1011101109728,新規,0,2024-11-28,2024-11-28,株式会社ａｉｍ‐ｆｏｒ,,株式会社,東京都,新宿区,西新宿３丁目３番１３号西新宿水間ビル２Ｆ,,13,104,1600023,,,,,,,2024-11-28,1,,,,,エイムフォー,0
49,1011103015214,新規,0,2024-11-28,2024-11-28,合同会社アオＢＵＺＺ,,合同会社,東京都,新宿区,新宿５丁目１８番１０号メイクスデザイン新宿６０７,,13,104,1600022,,,,,,,2024-11-28,1,,,,,アオバズ,0
50,1011401026581,新規,0,2024-11-28,2024-11-28,株式会社エースナンバー,,株式会社,東京都,板橋区,赤塚６丁目４－１０ソラトハウス１０１,,13,119,1750092,,,,,,,2024-11-28,1,,,,,エースナンバー,0
56,1011703004046,新規,0,2024-11-28,2024-11-28,方円合同会社,,合同会社,東京都,江戸川区,南小岩６丁目２０－１９サンガーデン１０１,,13,123,1330056,,,,,,,2024-11-28,1,,,,,ホウエン,0
62,1020001160278,新規,0,2024-11-28,2024-11-28,株式会社Ｈｏｔｅｌ　ＧＧ,,株式会社,神奈川県,横浜市中区,太田町５丁目６９－７０１,,14,104,2310011,,,,,,,2024-11-28,1,,,,,ホテルジージー,0
69,1021001083849,新規,0,2024-11-28,2024-11-28,株式会社ｏｕｉｏｕｉ,,株式会社,神奈川県,伊勢原市,歌川２丁目３番地の１,,14,214,2591128,,,,,,,2024-11-28,1,,,,,ウィウィ,0
70,1021001083857,新規,0,2024-11-28,2024-11-28,株式会社Ｈｉｇｈ‐Ｅｎｄ,,株式会社,神奈川県,相模原市南区,相模大野２丁目１５番５－１０４号,,14,153,2520303,,,,,,,2024-11-28,1,,,,,ハイエンド,0
74,1030001163635,新規,0,2024-11-28,2024-11-28,株式会社Ｚｅｒｏ,,株式会社,埼玉県,さいたま市南区,沼影１丁目１１番２号Ｃ－１０１２,,11,108,3360027,,,,,,,2024-11-28,1,,,,,ゼロ,0
75,1030001163684,新規,0,2024-11-28,2024-11-28,株式会社ＹＯ．Ｔｅｃ,,株式会社,埼玉県,戸田市,本町５丁目６－１６タカパーク３０７,,11,224,3350023,,,,,,,2024-11-28,1,,,,,ワイオーテック,0
77,1030003025569,新規,0,2024-11-28,2024-11-28,ＳＴＲＳ合同会社,,合同会社,埼玉県,さいたま市大宮区,桜木町２丁目９０２番地１９１２号室,,11,103,3300854,,,,,,,2024-11-28,1,,,,,エスティーアールエス,0
78,1030003025577,新規,0,2024-11-28,2024-11-28,合同会社ｃｆｊａｐａｎ,,合同会社,埼玉県,本庄市,朝日町２丁目１２－１９,,11,211,3670026,,,,,,,2024-11-28,1,,,,,シーエフジャパン,0
88,1040001136342,新規,0,2024-11-28,2024-11-28,株式会社Ｍｏｏｎ,,株式会社,千葉県,香取市,佐原イ３５０１番,,12,236,2870003,,,,,,,2024-11-28,1,,,,,ムーン,0
89,1040001136367,新規,0,2024-11-28,2024-11-28,株式会社コミー,,株式会社,千葉県,佐倉市,臼井１８００番地１４７,,12,212,2850863,,,,,,,2024-11-28,1,,,,,コミー,0
95,1050001055789,新規,0,2024-11-28,2024-11-28,カイゴプラットフォーム株式会社,,株式会社,茨城県,つくば市,みどりの東３５番地１２,,08,220,3050883,,,,,,,2024-11-28,1,,,,,カイゴプラットフォーム,0
98,1050003008844,新規,0,2024-11-28,2024-11-28,ＡＵＴＯＭＡＲＴ　ＪＡＰＡＮ合同会社,,合同会社,茨城県,鹿嶋市,大字小山字東坪１６２番地１,,08,222,3112222,,,,,,,2024-11-28,1,,,,,オートマートジャパン,0
100,1060001037679,新規,0,2024-11-28,2024-11-28,株式会社ＡＳＫエステート,,株式会社,栃木県,宇都宮市,柳田町１３８６番地２,,09,201,3210902,,,,,,,2024-11-28,1,,,,,アスクエステート,0
101,1060001037687,新規,0,2024-11-28,2024-11-28,株式会社ウェネト,,株式会社,栃木県,足利市,緑町２丁目１９番地２,,09,202,3260816,,,,,,,2024-11-28,1,,,,,ウェネト,0
103,1070001042406,新規,0,2024-11-28,2024-11-28,株式会社Ｋメディアワークス,,株式会社,群馬県,伊勢崎市,日乃出町１７番地,,10,204,3720022,,,,,,,2024-11-28,1,,,,,ケーメディアワークス,0
104,1070003005682,新規,0,2024-11-28,2024-11-28,小泉合同会社,,合同会社,群馬県,富岡市,富岡８９１,,10,210,3702316,,,,,,,2024-11-28,1,,,,,コイズミ,0
106,1080101025160,新規,0,2024-11-28,2024-11-28,株式会社中央,,株式会社,静岡県,沼津市,岡宮１１９６番地の２,,22,203,4100011,,,,,,,2024-11-28,1,,,,,チュウオウ,0
108,1090001019022,新規,0,2024-11-28,2024-11-28,株式会社リトビラ,,株式会社,山梨県,甲府市,国母６丁目２番３号,,19,201,4000043,,,,,,,2024-11-28,1,,,,,リトビラ,0
114,1110003005587,新規,0,2024-11-28,2024-11-28,合同会社ぽこり,,合同会社,新潟県,新潟市西区,内野町９７８番地１４,,15,107,9502112,,,,,,,2024-11-28,1,,,,,ポコリ,0
118,1120001270513,新規,0,2024-11-28,2024-11-28,天栄株式会社,,株式会社,大阪府,大阪市西成区,天神ノ森１丁目４番２－２０２号,,27,122,5570013,,,,,,,2024-11-28,1,,,,,テンエイ,0
119,1120001270595,新規,0,2024-11-28,2024-11-28,天＿福晟株式会社,00137164,株式会社,大阪府,大阪市東成区,深江北３丁目４番２１号エクラ深江橋３０２Ｂ,,27,115,5370001,,,,,,,2024-11-28,1,,,,,テンクフクセイ,0
120,1120001270612,新規,0,2024-11-28,2024-11-28,株式会社ブルー・オーシャン,,株式会社,大阪府,大阪市東成区,大今里２丁目１５番２１号,,27,115,5370012,,,,,,,2024-11-28,1,,,,,ブルーオーシャン,0
121,1120001270678,新規,0,2024-11-28,2024-11-28,株式会社光ホールディングス,,株式会社,大阪府,大阪市城東区,東中浜７丁目４番３６号,,27,118,5360023,,,,,,,2024-11-28,1,,,,,ヒカリホールディングス,0
123,1120003027977,新規,0,2024-11-28,2024-11-28,合同会社Ｓｈｏｖｅｌ,,合同会社,大阪府,大阪市西区,新町１丁目２４番８－１０Ｆ,,27,106,5500013,,,,,,,2024-11-28,1,,,,,シャベル,0
124,1120003028075,新規,0,2024-11-28,2024-11-28,合同会社ＢＡＮＨ　ＸＥＯ,,合同会社,大阪府,大阪市西成区,天神ノ森１丁目１８番１１号,,27,122,5570013,,,,,,,2024-11-28,1,,,,,バンセオ,0
126,1120901050089,新規,0,2024-11-28,2024-11-28,株式会社ヴィオラベジーズ,,株式会社,大阪府,吹田市,藤が丘町１８－４,,27,205,5640081,,,,,,,2024-11-28,1,,,,,ヴィオラベジーズ,0
128,1122003003041,新規,0,2024-11-28,2024-11-28,ＤＱＶ合同会社,,合同会社,大阪府,東大阪市,水走１丁目３－４５、２０３室,,27,227,5780921,,,,,,,2024-11-28,1,,,,,ディーキューブイ,0
133,1140001136472,新規,0,2024-11-28,2024-11-28,株式会社オーシャレスト,,株式会社,兵庫県,西宮市,甲子園口６丁目１０番１５－４０１号,,28,204,6638113,,,,,,,2024-11-28,1,,,,,オーシャレスト,0
142,1180001164288,新規,0,2024-11-28,2024-11-28,株式会社ＳＨＡＲＭＡ,,株式会社,愛知県,名古屋市緑区,大高町字鶴田１０４番地,,23,114,4598001,,,,,,,2024-11-28,1,,,,,シャルマ,0
143,1180001164338,新規,0,2024-11-28,2024-11-28,株式会社Ｏｖｅｒ　Ｔｈｅ　Ｔｏｐ,,株式会社,愛知県,名古屋市東区,東桜２丁目１１番２０号,,23,102,4610005,,,,,,,2024-11-28,1,,,,,オーバーザトップ,0
144,1180001164346,新規,0,2024-11-28,2024-11-28,株式会社ＦＫテクニカ,,株式会社,愛知県,名古屋市西区,見寄町１８６番地,,23,104,4520839,,,,,,,2024-11-28,1,,,,,エフケイテクニカ,0
145,1180001164379,新規,0,2024-11-28,2024-11-28,エムズマネジメント株式会社,,株式会社,愛知県,名古屋市西区,山木１丁目１２１番地,,23,104,4520833,,,,,,,2024-11-28,1,,,,,エムズマネジメント,0
151,1180301039272,新規,0,2024-11-28,2024-11-28,株式会社ＩＳｅｅ,,株式会社,愛知県,豊田市,高崎町神明前１０番地７,,23,211,4710048,,,,,,,2024-11-28,1,,,,,アイシー,0
156,1190001031834,新規,0,2024-11-28,2024-11-28,ＳＥＩＫＯＵ　ＴＥＣＨ株式会社,,株式会社,三重県,伊賀市,千歳７０３番地の４,,24,216,5180002,,,,,,,2024-11-28,1,,,,,セイコウテック,0
160,1200003006601,新規,0,2024-11-28,2024-11-28,合同会社ベッツフォレスト,,合同会社,岐阜県,郡上市,八幡町有坂２２８番地２,,21,219,5014235,,,,,,,2024-11-28,1,,,,,ベッツフォレスト,0
162,1210001019983,新規,0,2024-11-28,2024-11-28,株式会社ネクスト,,株式会社,福井県,福井市,大宮１丁目６番２０号,,18,201,9100016,,,,,,,2024-11-28,1,,,,,ネクスト,0
167,1240001064176,新規,0,2024-11-28,2024-11-28,株式会社Ｒｅｖｅｒｂｅｒａｔｅ,,株式会社,広島県,広島市中区,中町４番６－３０４号,,34,101,7300037,,,,,,,2024-11-28,1,,,,,レヴァーベイト,0
170,1290001108151,新規,0,2024-11-28,2024-11-28,ＯＨ工業株式会社,,株式会社,福岡県,福岡市博多区,祇園町１－２０,,40,132,8120038,,,,,,,2024-11-28,1,,,,,オーエイチコウギョウ,0
173,1290003016105,新規,0,2024-11-28,2024-11-28,合同会社Ｓｔｙｌｅ　Ｐｌｕｓ　Ｊａｐａｎ,,合同会社,福岡県,春日市,星見ヶ丘５丁目４３番地,,40,218,8160849,,,,,,,2024-11-28,1,,,,,スタイルプラスジャパン,0
176,1290801031073,新規,0,2024-11-28,2024-11-28,株式会社大耕,,株式会社,福岡県,遠賀郡芦屋町,大字山鹿３５番地８、４号棟２０４号,,40,381,8070141,,,,,,,2024-11-28,1,,,,,ダイコウ,0
177,1290803004903,新規,0,2024-11-28,2024-11-28,合同会社大総健,,合同会社,福岡県,北九州市八幡西区,塔野１丁目１４－１４,,40,109,8070085,,,,,,,2024-11-28,1,,,,,ダイソウケン,0
182,1320001020831,新規,0,2024-11-28,2024-11-28,株式会社三水,,株式会社,大分県,日田市,田島１丁目１３番１４号,,44,204,8770025,,,,,,,2024-11-28,1,,,,,サンスイ,0
183,1320005010201,新規,0,2024-11-28,2024-11-28,医療法人支生会,,その他の設立登記法人,大分県,大分市,大字中戸次５９２７－３サンレークビル２Ｆ,,44,201,8797761,,,,,,,2024-11-28,1,,,,,シセイカイ,0
186,1340001026959,新規,0,2024-11-28,2024-11-28,アイケン工業株式会社,,株式会社,鹿児島県,鹿児島市,田上５丁目４０番３号,,46,201,8900034,,,,,,,2024-11-28,1,,,,,アイケンコウギョウ,0
189,1360001034480,新規,0,2024-11-28,2024-11-28,株式会社ヤマト不動産,,株式会社,沖縄県,那覇市,泉崎１丁目１０番１６号－２０１号,,47,201,9000021,,,,,,,2024-11-28,1,,,,,ヤマトフドウサン,0
195,1430001093156,新規,0,2024-11-28,2024-11-28,フルステート株式会社,,株式会社,北海道,札幌市東区,北三十六条東２５丁目１番２５号,,01,103,0070836,,,,,,,2024-11-28,1,,,,,フルステート,0
200,1450003002559,新規,0,2024-11-28,2024-11-28,合同会社アサーティブパートナーズ,,合同会社,北海道,旭川市,神楽六条１０丁目４番１２号,,01,204,0708006,,,,,,,2024-11-28,1,,,,,アサーティブパートナーズ,0
202,1470003002755,新規,0,2024-11-28,2024-11-28,ＳＲＴＡ合同会社,,合同会社,香川県,高松市,番町２丁目８の２５番町ハイム４０２,,37,201,7600017,,,,,,,2024-11-28,1,,,,,,0
216,2010001250104,新規,0,2024-11-28,2024-11-28,株式会社Ｘ‐Ｈｕｂ,,株式会社,東京都,千代田区,東神田２丁目８番１号,,13,101,1010031,,,,,,,2024-11-28,1,,,,,クロスハブ,0
217,2010001250269,新規,0,2024-11-28,2024-11-28,株式会社Ｌｙｃｋａｆｉｋａ,,株式会社,東京都,中央区,銀座７丁目１３番２０号銀座ＴＨビル９階,,13,102,1040061,,,,,,,2024-11-28,1,,,,,リュッカフィーカ,0
218,2010001250293,新規,0,2024-11-28,2024-11-28,株式会社Ｆａｎｔａ　Ｉｎｖｅｓｔｍｅｎｔ　Ａｄｖｉｓｏｒｓ,,株式会社,東京都,千代田区,有楽町１丁目２番２号,,13,101,1000006,,,,,,,2024-11-28,1,,,,,ファンタインベストメントアドバイザーズ,0
219,2010001250327,新規,0,2024-11-28,2024-11-28,ＨＲ　ＧＥＮＥＳＩＳ株式会社,,株式会社,東京都,千代田区,丸の内１丁目８番３号丸の内トラストタワー本館２０階,,13,101,1000005,,,,,,,2024-11-28,1,,,,,エイチアールジェネシス,0
224,2010003045626,新規,0,2024-11-28,2024-11-28,リーン合同会社,,合同会社,東京都,中央区,築地１丁目４－１１,,13,102,1040045,,,,,,,2024-11-28,1,,,,,リーン,0
225,2010003045642,新規,0,2024-11-28,2024-11-28,ガーネットフォー合同会社,,合同会社,東京都,中央区,日本橋１丁目４番１号日本橋一丁目ビルディング,,13,102,1030027,,,,,,,2024-11-28,1,,,,,ガーネットフォー,0
233,2010401186674,新規,0,2024-11-28,2024-11-28,ＮＯＶＡ　ＳＴＯＲＩＡ株式会社,,株式会社,東京都,港区,麻布十番１丁目５番１０号,,13,103,1060045,,,,,,,2024-11-28,1,,,,,ノバストリア,0
234,2010401186708,新規,0,2024-11-28,2024-11-28,株式会社産業強靭化総研,,株式会社,東京都,港区,六本木６丁目本木ヒルズ森タワーＳｉｇｎａｔｕｒｅ六本木ヒルズ森タワー,,13,103,1060032,,,,,,,2024-11-28,1,,,,,サンギョウキョウジンカソウケン,0
235,2010401186724,新規,0,2024-11-28,2024-11-28,吉哲株式会社,00137161,株式会社,東京都,港区,西麻布３丁目５－５Ｄグランセ西麻布ハイバリー２０１,,13,103,1060031,,,,,,,2024-11-28,1,,,,,ヨシテツ,0
238,2010403033899,新規,0,2024-11-28,2024-11-28,合同会社ｓｅｃｃｅｎｙ,,合同会社,東京都,港区,芝４丁目４番４号６０１,,13,103,1080014,,,,,,,2024-11-28,1,,,,,セキセニー,0
239,2010403033908,新規,0,2024-11-28,2024-11-28,トラスト・インベストメンツ合同会社,,合同会社,東京都,港区,元麻布３丁目１番６号,,13,103,1060046,,,,,,,2024-11-28,1,,,,,トラストインベストメンツ,0
242,2010501053270,新規,0,2024-11-28,2024-11-28,恒隆集団株式会社,,株式会社,東京都,台東区,上野５丁目７番７号公徳堂ビル２０１号室,,13,106,1100005,,,,,,,2024-11-28,1,,,,,ハンルンシュウダン,0
252,2010803005176,新規,0,2024-11-28,2024-11-28,合同会社ＯＮＥ　ＰＵＮＣＨ,,合同会社,東京都,大田区,大森東２丁目３０番２号,,13,111,1430012,,,,,,,2024-11-28,1,,,,,ワンパンチ,0
254,2011001166026,新規,0,2024-11-28,2024-11-28,株式会社ＭＯＳＡＩＣ　ＮＡＲＭ,,株式会社,東京都,渋谷区,宇田川町３７番１６号レジディア渋谷６０４,,13,113,1500042,,,,,,,2024-11-28,1,,,,,モザイクナーム,0
255,2011001166249,新規,0,2024-11-28,2024-11-28,株式会社コポレ,,株式会社,東京都,渋谷区,道玄坂１丁目１０番８号渋谷道玄坂東急ビル２Ｆ‐Ｃ,,13,113,1500043,,,,,,,2024-11-28,1,,,,,コポレ,0
256,2011003020503,新規,0,2024-11-28,2024-11-28,Ｉｎｔｅｒ　Ａｌｉａ　Ｎｅｘｕｓ合同会社,,合同会社,東京都,渋谷区,恵比寿西２丁目４番８号ウィンド恵比寿ビル８Ｆ,,13,113,1500021,,,,,,,2024-11-28,1,,,,,インターアリアネクサス,0
258,2011005010790,新規,0,2024-11-28,2024-11-28,一般社団法人リージョナルエコシステムデザイン,,その他の設立登記法人,東京都,渋谷区,恵比寿４丁目２０番３号恵比寿ガーデンプレイスタワー１８階,,13,113,1500013,,,,,,,2024-11-28,1,,,,,リージョナルエコシステムデザイン,0
262,2011101109553,新規,0,2024-11-28,2024-11-28,哲躍株式会社,,株式会社,東京都,新宿区,山吹町３３７－５都住創山吹町ビル６０４Ｋ,,13,104,1620801,,,,,,,2024-11-28,1,,,,,テツヤク,0
263,2011101109727,新規,0,2024-11-28,2024-11-28,美秀株式会社,,株式会社,東京都,新宿区,西新宿３丁目３番１３号西新宿水間ビル６Ｆ,,13,104,1600023,,,,,,,2024-11-28,1,,,,,ビシュウ,0
264,2011101109743,新規,0,2024-11-28,2024-11-28,株式会社ｕｎ．ｓ,,株式会社,東京都,新宿区,百人町１丁目５－４東都ビル４０３,,13,104,1690073,,,,,,,2024-11-28,1,,,,,アンズ,0
269,2011201025956,新規,0,2024-11-28,2024-11-28,勝田商店株式会社,,株式会社,東京都,中野区,中野５丁目５２番１５号中野ブロードウェイＢ１,,13,114,1640001,,,,,,,2024-11-28,1,,,,,カツタショウテン,0
274,2011501031398,新規,0,2024-11-28,2024-11-28,大伸産業株式会社,,株式会社,東京都,荒川区,東尾久５丁目３９番１号,,13,118,1160012,,,,,,,2024-11-28,1,,,,,ダイシンサンギョウ,0
275,2011501031415,新規,0,2024-11-28,2024-11-28,株式会社ムラックス,,株式会社,東京都,荒川区,東日暮里６丁目３９－２グランセピア日暮里４０２,,13,118,1160014,,,,,,,2024-11-28,1,,,,,ムラックス,0
277,2011503006316,新規,0,2024-11-28,2024-11-28,合同会社リバーサイド,,合同会社,東京都,北区,赤羽台１丁目６番１３－４１８号,,13,117,1150053,,,,,,,2024-11-28,1,,,,,リバーサイド,0
278,2011603004533,新規,0,2024-11-28,2024-11-28,合同会社アドラビ,,合同会社,東京都,練馬区,南大泉１丁目２６番３号,,13,120,1780064,,,,,,,2024-11-28,1,,,,,アドラビ,0
285,2013303007411,新規,0,2024-11-28,2024-11-28,合同会社うにラボ,,合同会社,東京都,豊島区,池袋２丁目５４番５－９０６号,,13,116,1710014,,,,,,,2024-11-28,1,,,,,ウニラボ,0
294,2020001160302,新規,0,2024-11-28,2024-11-28,株式会社エムエスアイ,,株式会社,神奈川県,横浜市南区,吉野町１丁目３番地１４エルズ阪東橋公園６０１,,14,105,2320014,,,,,,,2024-11-28,1,,,,,エムエスアイ,0
310,2030001163626,新規,0,2024-11-28,2024-11-28,株式会社平和,,株式会社,埼玉県,所沢市,東所沢３丁目３番地の１０コーポ東所沢２０２,,11,208,3590021,,,,,,,2024-11-28,1,,,,,ヘイワ,0
311,2030001163650,新規,0,2024-11-28,2024-11-28,株式会社Ｋ．ｓｙｓｔｅｍ,,株式会社,埼玉県,春日部市,南中曽根７２３番地３,,11,214,3440048,,,,,,,2024-11-28,1,,,,,ケイシステム,0
312,2030001163659,新規,0,2024-11-28,2024-11-28,株式会社応援,,株式会社,埼玉県,深谷市,蓮沼３６８番地１,,11,218,3660015,,,,,,,2024-11-28,1,,,,,オウエン,0
315,2030003025576,新規,0,2024-11-28,2024-11-28,合同会社ＭＳＩ総合研究所,,合同会社,埼玉県,草加市,花栗４丁目２０－１８－３１６,,11,221,3400044,,,,,,,2024-11-28,1,,,,,エムエスアイソウゴウケンキュウジョ,0
320,2040001136325,新規,0,2024-11-28,2024-11-28,株式会社賢誠,,株式会社,千葉県,松戸市,西馬橋蔵元町１２８番地の４,,12,207,2710046,,,,,,,2024-11-28,1,,,,,ケンセイ,0
321,2040001136358,新規,0,2024-11-28,2024-11-28,グローバルオートモーティブ株式会社,,株式会社,千葉県,袖ケ浦市,蔵波２９０３番地１３７,,12,229,2990243,,,,,,,2024-11-28,1,,,,,グローバルオートモーティブ,0
327,2040003026276,新規,0,2024-11-28,2024-11-28,まるしん合同会社,,合同会社,千葉県,千葉市若葉区,若松町２０７２－７９,,12,104,2640021,,,,,,,2024-11-28,1,,,,,マルシン,0
330,2050001055788,新規,0,2024-11-28,2024-11-28,株式会社エヌティム,,株式会社,茨城県,つくば市,学園の森１丁目１４番地９３,,08,220,3050816,,,,,,,2024-11-28,1,,,,,エヌティム,0
332,2050003008752,新規,0,2024-11-28,2024-11-28,Ａｄａｒｃｈｅ合同会社,,合同会社,茨城県,水戸市,東台１丁目４番１４号,,08,201,3100818,,,,,,,2024-11-28,1,,,,,アダーチェ,0
337,2060001037686,新規,0,2024-11-28,2024-11-28,株式会社ＰａｙＦＩＲＳＴ,,株式会社,栃木県,宇都宮市,一条１丁目４番１７号,,09,201,3200821,,,,,,,2024-11-28,1,,,,,ペイファースト,0
344,2090001019021,新規,0,2024-11-28,2024-11-28,パラスダイヤモンド株式会社,,株式会社,山梨県,甲府市,幸町１３番１１号,,19,201,4000857,,,,,,,2024-11-28,1,,,,,パラスダイヤモンド,0
347,2090003002685,新規,0,2024-11-28,2024-11-28,マルチグローバル人事合同会社,,合同会社,山梨県,甲府市,高室町５７３リニア甲府内,,19,201,4000057,,,,,,,2024-11-28,1,,,,,マルチグローバルジンジ,0
349,2100003007889,新規,0,2024-11-28,2024-11-28,ＪＸＪ合同会社,,合同会社,長野県,北安曇郡白馬村,大字北城５８２３番地１太洋白馬ハイツ２２３号室,,20,485,3999301,,,,,,,2024-11-28,1,,,,,ジェーエックスジェー,0
361,2120001270504,新規,0,2024-11-28,2024-11-28,株式会社ＣＯＳＭＯＳ,,株式会社,大阪府,大阪市生野区,巽南５丁目７－２６巽南メディカルゾーン２Ｆ,,27,116,5440015,,,,,,,2024-11-28,1,,,,,コスモス,0
362,2120001270594,新規,0,2024-11-28,2024-11-28,張氏株式会社,,株式会社,大阪府,大阪市中央区,松屋町９番２０号ローレルステート松屋町９０３Ｂ,,27,128,5420067,,,,,,,2024-11-28,1,,,,,チョウシ,0
363,2120001270628,新規,0,2024-11-28,2024-11-28,騰輝株式会社,,株式会社,大阪府,大阪市生野区,中川東１丁目４番２４号,,27,116,5440006,,,,,,,2024-11-28,1,,,,,トウキ,0
364,2120001270636,新規,0,2024-11-28,2024-11-28,株式会社カーファイナンシャル,,株式会社,大阪府,大阪市北区,梅田１丁目１番３号大阪駅前第３ビル２９階１－１－１号室,,27,127,5300001,,,,,,,2024-11-28,1,,,,,カーファイナンシャル,0
365,2120001270693,新規,0,2024-11-28,2024-11-28,エクソプラス株式会社,,株式会社,大阪府,大阪市阿倍野区,阪南町１丁目２７番１８号昭栄マンション１Ｆ,,27,119,5450021,,,,,,,2024-11-28,1,,,,,エクソプラス,0
374,2120901050088,新規,0,2024-11-28,2024-11-28,株式会社Ｇｔｏｐｉａ,,株式会社,大阪府,茨木市,奈良町１５番２５号ノースウィング３１７号,,27,211,5670874,,,,,,,2024-11-28,1,,,,,ジートピア,0
380,2130001078450,新規,0,2024-11-28,2024-11-28,株式会社ＭＵＴＯ,,株式会社,京都府,京都市左京区,一乗寺樋ノ口町１４番地,,26,103,6068167,,,,,,,2024-11-28,1,,,,,ムトウ,0
381,2130001078459,新規,0,2024-11-28,2024-11-28,ｃｏｔｏ株式会社,,株式会社,京都府,長岡京市,東神足２丁目１１番４号,,26,209,6170832,,,,,,,2024-11-28,1,,,,,コト,0
385,2150001027711,新規,0,2024-11-28,2024-11-28,株式会社さんちゅう,,株式会社,奈良県,五條市,なつみ台１丁目２０番地の４,,29,207,6370078,,,,,,,2024-11-28,1,,,,,サンチュウ,0
393,2180001164188,新規,0,2024-11-28,2024-11-28,株式会社ＩＭＰＲＥＳＳ,,株式会社,愛知県,名古屋市中村区,横前町６６－１グランドール横前３０２,,23,105,4530864,,,,,,,2024-11-28,1,,,,,インプレス,0
394,2180001164295,新規,0,2024-11-28,2024-11-28,株式会社アメランキエル,,株式会社,愛知県,あま市,七宝町安松１丁目５１番地,,23,237,4970011,,,,,,,2024-11-28,1,,,,,アメランキエル,0
396,2180301039271,新規,0,2024-11-28,2024-11-28,Ｔｏｐａｚ　Ｍａｎａｇｅｍｅｎｔ株式会社,,株式会社,愛知県,安城市,二本木町東切替５,,23,212,4460054,,,,,,,2024-11-28,1,,,,,トパーズマネジメント,0
399,2200003006600,新規,0,2024-11-28,2024-11-28,ｅｓｑｕｉｓｓｅ合同会社,,合同会社,岐阜県,可児市,若葉台３丁目１９８番地,,21,214,5090258,,,,,,,2024-11-28,1,,,,,エスキース,0
401,2210001019982,新規,0,2024-11-28,2024-11-28,株式会社チズ,,株式会社,福井県,福井市,文京７丁目２３番３１号,,18,201,9100017,,,,,,,2024-11-28,1,,,,,チズ,0
403,2220003003901,新規,0,2024-11-28,2024-11-28,合同会社ナナセンイチ,,合同会社,石川県,野々市市,押野１丁目１１０番地８,,17,212,9218802,,,,,,,2024-11-28,1,,,,,ナナセンイチ,0
406,2240001064167,新規,0,2024-11-28,2024-11-28,株式会社ＳＴ,,株式会社,広島県,福山市,沖野上町３丁目１２番１７号,,34,207,7200825,,,,,,,2024-11-28,1,,,,,エスティー,0
407,2240001064175,新規,0,2024-11-28,2024-11-28,株式会社瑛理,,株式会社,広島県,広島市中区,東千田町１丁目１番５５号,,34,101,7300053,,,,,,,2024-11-28,1,,,,,エイリ,0
416,2290001108076,新規,0,2024-11-28,2024-11-28,株式会社米倉運送,,株式会社,福岡県,大野城市,仲畑４丁目６番３７号,,40,219,8160921,,,,,,,2024-11-28,1,,,,,ヨネクラウンソウ,0
417,2290001108134,新規,0,2024-11-28,2024-11-28,エントロピーインベストメント株式会社,,株式会社,福岡県,福岡市南区,井尻５丁目６－２４ひとえハイツ２０１号,,40,134,8111302,,,,,,,2024-11-28,1,,,,,エントロピーインベストメント,0
418,2290001108142,新規,0,2024-11-28,2024-11-28,株式会社フェイスパル,,株式会社,福岡県,福岡市博多区,西月隈２丁目４番３３号,,40,132,8120857,,,,,,,2024-11-28,1,,,,,フェイスパル,0
423,2330001032692,新規,0,2024-11-28,2024-11-28,株式会社ケアライフしもかわ,,株式会社,熊本県,熊本市中央区,九品寺３丁目１６番６１号,,43,101,8620976,,,,,,,2024-11-28,1,,,,,ケアライフシモカワ,0
424,2330003010663,新規,0,2024-11-28,2024-11-28,合同会社Ｎｅｏ　Ｖａｌｕｅ,,合同会社,熊本県,玉名郡南関町,大字高久野６２６番地,,43,367,8610833,,,,,,,2024-11-28,1,,,,,ネオバリュー,0
430,2360005007135,新規,0,2024-11-28,2024-11-28,一般社団法人日本文化産業協会,,その他の設立登記法人,沖縄県,那覇市,久茂地２丁目２番２号タイムスビル２階,,47,201,9000015,,,,,,,2024-11-28,1,,,,,ニホンブンカサンギョウキョウカイ,0
442,2430001093147,新規,0,2024-11-28,2024-11-28,雪国観光株式会社,,株式会社,北海道,札幌市南区,藤野三条９丁目１１－１３サンピアＦＵＪＩＮＯ１０１号,,01,106,0612283,,,,,,,2024-11-28,1,,,,,ユキグニカンコウ,0
446,2470003002762,新規,0,2024-11-28,2024-11-28,合同会社四国補装具製作オルソｎｉｋｏ,,合同会社,香川県,木田郡三木町,大字井戸２６０６－１０,,37,341,7610823,,,,,,,2024-11-28,1,,,,,シコクホソウグセイサクオルソニコ,0
451,3010001250268,新規,0,2024-11-28,2024-11-28,株式会社よつば,,株式会社,東京都,文京区,後楽１丁目１番５号後楽園サイドビル５Ｆ,,13,105,1120004,,,,,,,2024-11-28,1,,,,,ヨツバ,0
452,3010001250276,新規,0,2024-11-28,2024-11-28,株式会社クローバー８１,,株式会社,東京都,中央区,銀座１丁目１２番４号Ｎ＆Ｅ・ＢＬＤ．７階,,13,102,1040061,,,,,,,2024-11-28,1,,,,,クローバーハチイチ,0
453,3010001250292,新規,0,2024-11-28,2024-11-28,株式会社ＫＩＮＵＪＯ　ＨＤ,,株式会社,東京都,千代田区,六番町７－１１,,13,101,1020085,,,,,,,2024-11-28,1,,,,,キヌージョホールディングス,0
454,3010003045641,新規,0,2024-11-28,2024-11-28,トルマリンスリー合同会社,,合同会社,東京都,中央区,日本橋１丁目４番１号日本橋一丁目ビルディング,,13,102,1030027,,,,,,,2024-11-28,1,,,,,トルマリンスリー,0
459,3010005039187,新規,0,2024-11-28,2024-11-28,一般財団法人ゆめいく,,その他の設立登記法人,東京都,中央区,日本橋浜町２丁目６０番３号,,13,102,1030007,,,,,,,2024-11-28,1,,,,,ユメイク,0
465,3010401186723,新規,0,2024-11-28,2024-11-28,株式会社グラビアアイドル,,株式会社,東京都,港区,六本木３丁目１番３０号Ａ・Ｂビル６階,,13,103,1060032,,,,,,,2024-11-28,1,,,,,グラビアアイドル,0
470,3010403033898,新規,0,2024-11-28,2024-11-28,合同会社Ｑｕｅｓｔ,,合同会社,東京都,港区,北青山１丁目３番１号アールキューブ青山３階,,13,103,1070061,,,,,,,2024-11-28,1,,,,,クエスト,0
471,3010403033907,新規,0,2024-11-28,2024-11-28,合同会社レジデンスアセットソリューション２号,,合同会社,東京都,港区,港南２丁目１５番３号,,13,103,1080075,,,,,,,2024-11-28,1,,,,,レジデンスアセットソリューションニゴウ,0
472,3010405023823,新規,0,2024-11-28,2024-11-28,厚木上依知一般社団法人,,その他の設立登記法人,東京都,港区,元赤坂１丁目１番８号株式会社赤坂国際会計内,,13,103,1070051,,,,,,,2024-11-28,1,,,,,アツギカミエチ,0
479,3010601066361,新規,0,2024-11-28,2024-11-28,Ｊａｓｋｙ株式会社,,株式会社,東京都,江東区,豊洲３丁目６番５号,,13,108,1350061,,,,,,,2024-11-28,1,,,,,ジャスキー,0
484,3010703007478,新規,0,2024-11-28,2024-11-28,ＤＡＨＥ合同会社,,合同会社,東京都,品川区,東五反田１丁目８－１１,,13,109,1410022,,,,,,,2024-11-28,1,,,,,ディーエーエイチイー,0
491,3011001166000,新規,0,2024-11-28,2024-11-28,株式会社Ｂｅ　ｔｈｅ　Ｓｔａｎｄ,,株式会社,東京都,渋谷区,桜丘町２３番１７号シティーコート桜丘内４０８,,13,113,1500031,,,,,,,2024-11-28,1,,,,,ビーザスタンド,0
492,3011001166157,新規,0,2024-11-28,2024-11-28,株式会社Ｆｌａｔｔｏ,,株式会社,東京都,渋谷区,道玄坂１丁目１０番８号渋谷道玄坂東急ビル２Ｆ－Ｃ,,13,113,1500043,,,,,,,2024-11-28,1,,,,,フラット,0
493,3011001166207,新規,0,2024-11-28,2024-11-28,株式会社ｆｅｍｔ,,株式会社,東京都,渋谷区,道玄坂１丁目１０番８号渋谷道玄坂東急ビル２Ｆ－Ｃ,,13,113,1500043,,,,,,,2024-11-28,1,,,,,フェムト,0
494,3011001166231,新規,0,2024-11-28,2024-11-28,株式会社ＲＩＮＳＯＦＴ,,株式会社,東京都,渋谷区,渋谷２丁目１９‐１５宮益坂ビルディング６０９,,13,113,1500002,,,,,,,2024-11-28,1,,,,,リンソフト,0
495,3011001166248,新規,0,2024-11-28,2024-11-28,株式会社ｐｏ４ｔｉｖｅ,,株式会社,東京都,渋谷区,道玄坂１丁目１０番８号渋谷道玄坂東急ビル２階－Ｃ,,13,113,1500043,,,,,,,2024-11-28,1,,,,,ポジティブ,0
496,3011001166256,新規,0,2024-11-28,2024-11-28,テルモパートナーズ株式会社,,株式会社,東京都,渋谷区,幡ヶ谷２丁目４４番１号,,13,113,1510072,,,,,,,2024-11-28,1,,,,,テルモパートナーズ,0
508,3011101109742,新規,0,2024-11-28,2024-11-28,株式会社Ｄｕｂｓｈｏｔ,,株式会社,東京都,新宿区,百人町２丁目２６－１６－３１０,,13,104,1690073,,,,,,,2024-11-28,1,,,,,ダブショット,0
511,3011201025955,新規,0,2024-11-28,2024-11-28,株式会社ＵＲＫ,,株式会社,東京都,中野区,南台２丁目３２番２号,,13,114,1640014,,,,,,,2024-11-28,1,,,,,ユーアールケー,0
513,3011303005351,新規,0,2024-11-28,2024-11-28,ＮＯＺＯＭＩ合同会社,,合同会社,東京都,杉並区,松庵３丁目２６番６号,,13,115,1670054,,,,,,,2024-11-28,1,,,,,ノゾミ,0
516,3011501031414,新規,0,2024-11-28,2024-11-28,株式会社リーバリー,,株式会社,東京都,北区,赤羽１丁目７－９赤羽第一葉山ビル４Ｆ,,13,117,1150045,,,,,,,2024-11-28,1,,,,,リーバリー,0
517,3011601028244,新規,0,2024-11-28,2024-11-28,株式会社ギブス,,株式会社,東京都,練馬区,関町北５丁目８番２８号,,13,120,1770051,,,,,,,2024-11-28,1,,,,,ギブス,0
518,3011603004524,新規,0,2024-11-28,2024-11-28,合同会社ミルククラウン,,合同会社,東京都,練馬区,練馬１丁目２０－８日建練馬ビル２Ｆ,,13,120,1760001,,,,,,,2024-11-28,1,,,,,,0
519,3011603004532,新規,0,2024-11-28,2024-11-28,合同会社Ｔ＆Ｔ,,合同会社,東京都,練馬区,高松６丁目３８番１２号,,13,120,1790075,,,,,,,2024-11-28,1,,,,,ティアンドティ,0
525,3013303007410,新規,0,2024-11-28,2024-11-28,合同会社ＡＣＳ,,合同会社,東京都,豊島区,南大塚１丁目５５番２号ハーモニーレジデンス山手大塚ザ・ガーデン２０４号,,13,116,1700005,,,,,,,2024-11-28,1,,,,,エーシーエス,0
530,3020001160318,新規,0,2024-11-28,2024-11-28,株式会社Ｓｔｅｌｌａ　Ｃｒｅａｔｉｏｎ,,株式会社,神奈川県,川崎市多摩区,宿河原５丁目２５番２３号宿河原ベルデ２０５,,14,135,2140021,,,,,,,2024-11-28,1,,,,,ステラクリエーション,0
539,3021001083871,新規,0,2024-11-28,2024-11-28,株式会社六車,,株式会社,神奈川県,小田原市,成田５４番地の８,,14,206,2500862,,,,,,,2024-11-28,1,,,,,ムグルマ,0
541,3021003015286,新規,0,2024-11-28,2024-11-28,合同会社フクサン,,合同会社,神奈川県,横須賀市,神明町１番地５２,,14,201,2390832,,,,,,,2024-11-28,1,,,,,フクサン,0
554,3030001163633,新規,0,2024-11-28,2024-11-28,株式会社円谷電工,,株式会社,埼玉県,朝霞市,溝沼６丁目１２番１０－５号,,11,227,3510023,,,,,,,2024-11-28,1,,,,,ツムラヤデンコウ,0
555,3030001163666,新規,0,2024-11-28,2024-11-28,株式会社アセンティア,,株式会社,埼玉県,さいたま市中央区,円阿弥２丁目８番４号フレシールＤ１０３号,,11,105,3380007,,,,,,,2024-11-28,1,,,,,アセンティア,0
558,3030003025526,新規,0,2024-11-28,2024-11-28,合同会社Ｖｅｎｕｅ　Ｕｐ,,合同会社,埼玉県,朝霞市,岡２丁目１１番９－１１３号,,11,227,3510007,,,,,,,2024-11-28,1,,,,,ヴェニューアップ,0
564,3040005022578,新規,0,2024-11-28,2024-11-28,ウィルレグルス税理士法人,,その他の設立登記法人,千葉県,鎌ケ谷市,南初富６丁目４番２６号,,12,224,2730123,,,,,,,2024-11-28,1,,,,,ウィルレグルス,0
566,3050001055795,新規,0,2024-11-28,2024-11-28,株式会社伊吹電機,,株式会社,茨城県,日立市,日高町１丁目８番１７号クレールひたか２０１号室,,08,202,3191414,,,,,,,2024-11-28,1,,,,,イブキデンキ,0
567,3050003008842,新規,0,2024-11-28,2024-11-28,合同会社Ｏｎｅ　Ｄｒａｗ,,合同会社,茨城県,潮来市,宮前１丁目１１番地８,,08,223,3112412,,,,,,,2024-11-28,1,,,,,ワンドロー,0
568,3050005013527,新規,0,2024-11-28,2024-11-28,一般社団法人小美玉市小川郷土振興会,,その他の設立登記法人,茨城県,小美玉市,小川１４９１番地,,08,236,3113423,,,,,,,2024-11-28,1,,,,,オミタマシオガワキョウドシンコウカイ,0
572,3080101025159,新規,0,2024-11-28,2024-11-28,株式会社プレリュード,,株式会社,静岡県,沼津市,本白銀町４８８番地の２５,,22,203,4100867,,,,,,,2024-11-28,1,,,,,プレリュード,0
575,3080401027598,新規,0,2024-11-28,2024-11-28,株式会社千晴,,株式会社,静岡県,浜松市中央区,三方原町１６６７番地の１,,22,138,4338105,,,,,,,2024-11-28,1,,,,,チハル,0
582,3100001038068,新規,0,2024-11-28,2024-11-28,株式会社橘内佐久農場,,株式会社,長野県,南佐久郡佐久穂町,大字高野町４６３番地５,,20,309,3840613,,,,,,,2024-11-28,1,,,,,キツナイサクノウジョウ,0
589,3120001270577,新規,0,2024-11-28,2024-11-28,ＳＴ　Ｗｅｌｌｎｅｓｓ株式会社,,株式会社,大阪府,大阪市北区,大深町６番３８号グラングリーン大阪北館ＪＡＭＢＡＳＥ９階ＪＡＭ－ＳＴＵＤＩＯ９１５号室,,27,127,5300011,,,,,,,2024-11-28,1,,,,,エスティーウェルネス,0
590,3120001270593,新規,0,2024-11-28,2024-11-28,良順達株式会社,,株式会社,大阪府,大阪市大正区,三軒家西３丁目４番１６号中山ビル１００３,,27,108,5510001,,,,,,,2024-11-28,1,,,,,リョウジュンタツ,0
591,3120001270651,新規,0,2024-11-28,2024-11-28,山川株式会社,,株式会社,大阪府,大阪市港区,池島３丁目１０－１１船田マンション５０１号室,,27,107,5520015,,,,,,,2024-11-28,1,,,,,ヤマカワ,0
596,3120003028065,新規,0,2024-11-28,2024-11-28,オンタイム合同会社,,合同会社,大阪府,大阪市西区,新町３丁目１番１７－１５１６号,,27,106,5500013,,,,,,,2024-11-28,1,,,,,オンタイム,0
597,3120003028073,新規,0,2024-11-28,2024-11-28,合同会社井上企画,,合同会社,大阪府,大阪市中央区,松屋町１０番５－９０１号,,27,128,5420067,,,,,,,2024-11-28,1,,,,,イノウエキカク,0
601,3120903005428,新規,0,2024-11-28,2024-11-28,Ｃｏｃｏｒｕ合同会社,,合同会社,大阪府,箕面市,半町２丁目１５－２９,,27,220,5620044,,,,,,,2024-11-28,1,,,,,ココル,0
605,3130001078441,新規,0,2024-11-28,2024-11-28,株式会社マチム不動産,,株式会社,京都府,亀岡市,北河原町１丁目５番２８－４０１号,,26,206,6210802,,,,,,,2024-11-28,1,,,,,マチムフドウサン,0
606,3130001078458,新規,0,2024-11-28,2024-11-28,株式会社ＣｒｏｗｎＨｏｒｓｅ,,株式会社,京都府,京都市山科区,音羽草田町４番地ハイネスクラウズ山科音羽６０５,,26,110,6078061,,,,,,,2024-11-28,1,,,,,クラウンホース,0
607,3130003010039,新規,0,2024-11-28,2024-11-28,井上製パン合同会社,,合同会社,京都府,京都市東山区,七条通本町西入日吉町２２１番地,,26,105,6050993,,,,,,,2024-11-28,1,,,,,イノウエセイパン,0
609,3140001136561,新規,0,2024-11-28,2024-11-28,ＳＯＴＴＡＫＵ株式会社,,株式会社,兵庫県,尼崎市,戸ノ内町３丁目１番１６号,,28,202,6610961,,,,,,,2024-11-28,1,,,,,ソッタク,0
620,3180001164212,新規,0,2024-11-28,2024-11-28,株式会社タイセイ,,株式会社,愛知県,名古屋市西区,赤城町１３８番地,,23,104,4520813,,,,,,,2024-11-28,1,,,,,タイセイ,0
621,3180001164336,新規,0,2024-11-28,2024-11-28,株式会社タムル,,株式会社,愛知県,半田市,亀崎北浦町３丁目１３番地ロイヤルコート半田２－６０９,,23,205,4750027,,,,,,,2024-11-28,1,,,,,タムル,0
624,3180301039279,新規,0,2024-11-28,2024-11-28,株式会社セカンドライフ,,株式会社,愛知県,豊橋市,牛川通２丁目９番地４４,,23,201,4400011,,,,,,,2024-11-28,1,,,,,セカンドライフ,0
625,3190001031840,新規,0,2024-11-28,2024-11-28,株式会社菊鉄,,株式会社,三重県,松阪市,中町１８６２番地４,,24,204,5150083,,,,,,,2024-11-28,1,,,,,キクテツ,0
631,3240001064174,新規,0,2024-11-28,2024-11-28,株式会社由健,,株式会社,広島県,福山市,新涯町６丁目６－４,,34,207,7210955,,,,,,,2024-11-28,1,,,,,ユウケン,0
636,3260001039678,新規,0,2024-11-28,2024-11-28,株式会社ＬＡＮＡＳＰＡ,,株式会社,岡山県,岡山市北区,辰巳１４番地１１３,,33,101,7000976,,,,,,,2024-11-28,1,,,,,ラナスパ,0
637,3280001009299,新規,0,2024-11-28,2024-11-28,横田興業株式会社,,株式会社,島根県,益田市,中島町イ８１８番地１,,32,204,6980043,,,,,,,2024-11-28,1,,,,,ヨコタコウギョウ,0
642,3290001108133,新規,0,2024-11-28,2024-11-28,株式会社とまり木,,株式会社,福岡県,久留米市,西町７４３番地３,,40,203,8300038,,,,,,,2024-11-28,1,,,,,トマリギ,0
646,3290003016128,新規,0,2024-11-28,2024-11-28,合同会社ボヌールアミ,,合同会社,福岡県,糟屋郡粕屋町,大字仲原２９５４番地１ユースパラシオン４０５号,,40,349,8112304,,,,,,,2024-11-28,1,,,,,ボヌールアミ,0
648,3290801031071,新規,0,2024-11-28,2024-11-28,エコネクサスホールディングス株式会社,,株式会社,福岡県,北九州市門司区,松原２丁目３番８号,,40,101,8000064,,,,,,,2024-11-28,1,,,,,エコネクサスホールディングス,0
655,3330001032683,新規,0,2024-11-28,2024-11-28,株式会社カサブランカ,,株式会社,熊本県,阿蘇市,乙姫１６１番地２,,43,214,8692226,,,,,,,2024-11-28,1,,,,,カサブランカ,0
656,3330001032691,新規,0,2024-11-28,2024-11-28,株式会社グリーンファーム,,株式会社,熊本県,玉名郡南関町,大字小原５６２番地,,43,367,8610811,,,,,,,2024-11-28,1,,,,,グリーンファーム,0
657,3330001032700,新規,0,2024-11-28,2024-11-28,株式会社ｄｅｃ,,株式会社,熊本県,熊本市中央区,花畑町１番１４号Ａ＆Ｍ　ＨＡＮＡＢＡＴＡ３０１号,,43,101,8600806,,,,,,,2024-11-28,1,,,,,デック,0
660,3360001034479,新規,0,2024-11-28,2024-11-28,株式会社ＥＮカレッジ,,株式会社,沖縄県,沖縄市,胡屋２丁目１１番２０号,,47,211,9040021,,,,,,,2024-11-28,1,,,,,エンカレッジ,0
666,3400001016869,新規,0,2024-11-28,2024-11-28,株式会社萌佳,,株式会社,岩手県,盛岡市,東松園３丁目２４－１５,,03,201,0200106,,,,,,,2024-11-28,1,,,,,モカ,0
673,3470003002761,新規,0,2024-11-28,2024-11-28,合同会社ＳＴＡＲ　ＰＲＯＪＥＣＴ　ＬＩＮＫＳ,,合同会社,香川県,丸亀市,大手町３丁目８番８号,,37,202,7630034,,,,,,,2024-11-28,1,,,,,,0
674,3490005006965,新規,0,2024-11-28,2024-11-28,一般社団法人いざなぎ流伝承研究会,,その他の設立登記法人,高知県,高知市,はりまや町１丁目７番７号,,39,201,7800822,,,,,,,2024-11-28,1,,,,,イザナギリュウデンショウケンキュウカイ,0
686,4010001250259,新規,0,2024-11-28,2024-11-28,株式会社Ｓｔｕｄｉｏ　ＣＡＮＰｉｉ,,株式会社,東京都,千代田区,神田佐久間町３丁目２１番地７,,13,101,1010025,,,,,,,2024-11-28,1,,,,,スタジオキャンピー,0
689,4010003045624,新規,0,2024-11-28,2024-11-28,ＭＴＲＣ合同会社,,合同会社,東京都,千代田区,神田淡路町２丁目１０１番地ワテラスタワーレジデンス３５１４,,13,101,1010063,,,,,,,2024-11-28,1,,,,,エムティーアールシー,0
690,4010003045640,新規,0,2024-11-28,2024-11-28,サファイアスリー合同会社,,合同会社,東京都,中央区,日本橋１丁目４番１号日本橋一丁目ビルディング,,13,102,1030027,,,,,,,2024-11-28,1,,,,,サファイアスリー,0
691,4010003045649,新規,0,2024-11-28,2024-11-28,合同会社ＭａＣｏＴｏ,,合同会社,東京都,中央区,銀座１丁目２２番１１号,,13,102,1040061,,,,,,,2024-11-28,1,,,,,マコト,0
694,4010005039194,新規,0,2024-11-28,2024-11-28,福岡東開発特定目的会社,,その他の設立登記法人,東京都,千代田区,飯田橋４丁目７番１号結和税理士法人内,,13,101,1020072,,,,,,,2024-11-28,1,,,,,フクオカヒガシカイハツ,0
700,4010401186680,新規,0,2024-11-28,2024-11-28,８１株式会社,,株式会社,東京都,港区,赤坂３丁目４番４号専修赤坂ビル２階,,13,103,1070052,,,,,,,2024-11-28,1,,,,,エイティワン,0
705,4010403033872,新規,0,2024-11-28,2024-11-28,合同会社他生の縁,,合同会社,東京都,港区,三田５丁目９番１４－２０３号,,13,103,1080073,,,,,,,2024-11-28,1,,,,,タショウノエン,0
706,4010405023780,新規,0,2024-11-28,2024-11-28,一般社団法人サステナブル・ジャパンコンソーシアム,,その他の設立登記法人,東京都,港区,新橋１丁目１２番９号,,13,103,1050004,,,,,,,2024-11-28,1,,,,,サステナブルジャパンコンソーシアム,0
707,4010405023797,新規,0,2024-11-28,2024-11-28,フロウション社会保険労務士法人,,その他の設立登記法人,東京都,港区,白金３丁目１番１０号,,13,103,1080072,,,,,,,2024-11-28,1,,,,,フロウション,0
709,4010601066360,新規,0,2024-11-28,2024-11-28,ｉｎｒｏｏｍ株式会社,,株式会社,東京都,江東区,豊洲５丁目６番２９－１８１２号,,13,108,1350061,,,,,,,2024-11-28,1,,,,,インルーム,0
711,4010603011232,新規,0,2024-11-28,2024-11-28,合同会社ミナミオカ,,合同会社,東京都,墨田区,向島１丁目２１番５号,,13,107,1310033,,,,,,,2024-11-28,1,,,,,ミナミオカ,0
716,4010703007477,新規,0,2024-11-28,2024-11-28,合同会社ａｋｎ,,合同会社,東京都,品川区,上大崎３丁目１番３０－１７０１号,,13,109,1410021,,,,,,,2024-11-28,1,,,,,アックン,0
718,4010805003143,新規,0,2024-11-28,2024-11-28,一般社団法人ドイツ時計協会,,その他の設立登記法人,東京都,大田区,羽田空港１丁目１番４号,,13,111,1440041,,,,,,,2024-11-28,1,,,,,ドイツトケイキョウカイ,0
719,4010901056400,新規,0,2024-11-28,2024-11-28,好蒔＿株式会社,00137162,株式会社,東京都,世田谷区,北沢５丁目１３番２号,,13,112,1550031,,,,,,,2024-11-28,1,,,,,コウジコウ,0
724,4011001166032,新規,0,2024-11-28,2024-11-28,ＥＣｔｒａｄｅ株式会社,,株式会社,東京都,渋谷区,富ヶ谷１丁目１４番１４号スタンフォードアネックスビル４Ｆ,,13,113,1510063,,,,,,,2024-11-28,1,,,,,イーシートレード,0
725,4011001166131,新規,0,2024-11-28,2024-11-28,株式会社アダム,,株式会社,東京都,渋谷区,桜丘町２３番１７号,,13,113,1500031,,,,,,,2024-11-28,1,,,,,アダム,0
727,4011003020451,新規,0,2024-11-28,2024-11-28,Ｏｐｅｎｔｏ　Ｊａｐａｎ合同会社,,合同会社,東京都,渋谷区,道玄坂１丁目１０番８号渋谷道玄坂東急ビル２Ｆ－Ｃ,,13,113,1500043,,,,,,,2024-11-28,1,,,,,オープントゥージャパン,0
731,4011101109717,新規,0,2024-11-28,2024-11-28,株式会社円祇寵,,株式会社,東京都,新宿区,西落合２丁目２３番１号Ｋｏｌｅｔ０２号室,,13,104,1610031,,,,,,,2024-11-28,1,,,,,エンキル,0
740,4011303005350,新規,0,2024-11-28,2024-11-28,和奏合同会社,,合同会社,東京都,杉並区,久我山３丁目２４番２７号,,13,115,1680082,,,,,,,2024-11-28,1,,,,,ワカナ,0
741,4011401026604,新規,0,2024-11-28,2024-11-28,ワックスベリー株式会社,,株式会社,東京都,板橋区,大和町２３番３号９階,,13,119,1730012,,,,,,,2024-11-28,1,,,,,ワックスベリー,0
744,4011601028243,新規,0,2024-11-28,2024-11-28,株式会社ＴＪ設計,,株式会社,東京都,練馬区,関町北５丁目８番２８号,,13,120,1770051,,,,,,,2024-11-28,1,,,,,ティージェイセッケイ,0
745,4011801045237,新規,0,2024-11-28,2024-11-28,花の耳株式会社,,株式会社,東京都,葛飾区,東金町１丁目２６番１号二宮ビル３階,,13,122,1250041,,,,,,,2024-11-28,1,,,,,ハナノミミ,0
751,4012403006858,新規,0,2024-11-28,2024-11-28,合同会社ＭＩＣＨＩＭＡＲＵ,,合同会社,東京都,調布市,富士見町３丁目９番地の１２,,13,208,1820033,,,,,,,2024-11-28,1,,,,,ミチマル,0
757,4020001160358,新規,0,2024-11-28,2024-11-28,株式会社ＳＡＮＤＭＯＮ,,株式会社,神奈川県,横浜市西区,みなとみらい３丁目７番１号オーシャンゲートみなとみらい８階,,14,103,2200012,,,,,,,2024-11-28,1,,,,,サンドモン,0
758,4020003027316,新規,0,2024-11-28,2024-11-28,合同会社Ｂｏｎｄ,,合同会社,神奈川県,横浜市西区,北幸１丁目１７－１０・７Ｆ,,14,103,2200004,,,,,,,2024-11-28,1,,,,,ボンド,0
782,4030001163640,新規,0,2024-11-28,2024-11-28,株式会社Ｆ’ｓ　ＣＲＡＦＴ,,株式会社,埼玉県,川口市,大字安行原１２０３番地の１５,,11,203,3340057,,,,,,,2024-11-28,1,,,,,エフズクラフト,0
783,4030001163657,新規,0,2024-11-28,2024-11-28,株式会社桜田コーポレーション,,株式会社,埼玉県,草加市,稲荷３丁目１９番６号,,11,221,3400003,,,,,,,2024-11-28,1,,,,,サクラダコーポレーション,0
784,4030001163673,新規,0,2024-11-28,2024-11-28,株式会社ＳＫＹ,,株式会社,埼玉県,久喜市,下早見１１８０番地６,,11,232,3460022,,,,,,,2024-11-28,1,,,,,エスケイワイ,0
788,4030003025566,新規,0,2024-11-28,2024-11-28,合同会社ＴＹＭ,,合同会社,埼玉県,さいたま市桜区,大字白鍬１２８番地５,,11,106,3380811,,,,,,,2024-11-28,1,,,,,ティーワイエム,0
789,4030003025574,新規,0,2024-11-28,2024-11-28,合同会社ＧｒｅｅｎＧｏｌｄ,,合同会社,埼玉県,さいたま市浦和区,岸町７丁目４番５－３０５号,,11,107,3300064,,,,,,,2024-11-28,1,,,,,グリーンゴールド,0
790,4030003025582,新規,0,2024-11-28,2024-11-28,合同会社ドージエ,,合同会社,埼玉県,さいたま市西区,大字指扇３２８８番地５,,11,101,3310047,,,,,,,2024-11-28,1,,,,,ドージエ,0
791,4030003025590,新規,0,2024-11-28,2024-11-28,合同会社仙台五橋,,合同会社,埼玉県,所沢市,大字上安松１８７－１２－２０２,,11,208,3590025,,,,,,,2024-11-28,1,,,,,センダイイツツバシ,0
800,4040005022577,新規,0,2024-11-28,2024-11-28,特定非営利活動法人ＴＩＪ思徳会,,その他の設立登記法人,千葉県,市川市,鬼越１丁目２４番２３号,,12,203,2720022,,,,,,,2024-11-28,1,,,,,ティーアイジェーシトクカイ,0
802,4050001055778,新規,0,2024-11-28,2024-11-28,株式会社あらがお,,株式会社,茨城県,土浦市,桜町１丁目１２番１５号ハートランドつちうら５Ｆ,,08,203,3000037,,,,,,,2024-11-28,1,,,,,アラガオ,0
803,4050001055786,新規,0,2024-11-28,2024-11-28,株式会社杉並ＥＢ,,株式会社,茨城県,石岡市,杉並４丁目３番１７号,,08,205,3150027,,,,,,,2024-11-28,1,,,,,スギナミイービー,0
804,4050001055794,新規,0,2024-11-28,2024-11-28,株式会社ｓｍａｒｔｐｌｕｓ水戸,,株式会社,茨城県,水戸市,元吉田町８４９番地１第２川上ビル１－ａ,,08,201,3100836,,,,,,,2024-11-28,1,,,,,スマートプラスミト,0
805,4050003008833,新規,0,2024-11-28,2024-11-28,ＳＵＦＩ　ＭＯＴＯＲＳ合同会社,,合同会社,茨城県,筑西市,辻１８６３番地１７,,08,227,3080103,,,,,,,2024-11-28,1,,,,,スフィモーター,0
810,4060001037684,新規,0,2024-11-28,2024-11-28,株式会社伊藤造園,,株式会社,栃木県,大田原市,浅香３丁目２番１８号,,09,210,3240043,,,,,,,2024-11-28,1,,,,,イトウゾウエン,0
813,4080001026628,新規,0,2024-11-28,2024-11-28,株式会社ＢＡＳＨＩＲ＆ＳＯＮＳ,,株式会社,静岡県,静岡市清水区,草薙３丁目８番６号メゾン２１・２０３号,,22,103,4240886,,,,,,,2024-11-28,1,,,,,バシールアンドサンズ,0
814,4080101025158,新規,0,2024-11-28,2024-11-28,株式会社Ｓｉｄｅｎ,,株式会社,静岡県,三島市,寿町３番１６号,,22,206,4110039,,,,,,,2024-11-28,1,,,,,シーデン,0
815,4080101025166,新規,0,2024-11-28,2024-11-28,株式会社ＨＩＢＡＲＩ,,株式会社,静岡県,沼津市,高島町１５番５号,,22,203,4100056,,,,,,,2024-11-28,1,,,,,ヒバリ,0
818,4080401027597,新規,0,2024-11-28,2024-11-28,ＥＸＡＴＡ株式会社,,株式会社,静岡県,浜松市中央区,高林５丁目６番５号,,22,138,4300907,,,,,,,2024-11-28,1,,,,,エザータ,0
824,4100001038067,新規,0,2024-11-28,2024-11-28,株式会社Ｒｅ‐ｆ,,株式会社,長野県,北安曇郡白馬村,大字北城８２９番地８３,,20,485,3999301,,,,,,,2024-11-28,1,,,,,アールエフ,0
825,4100001038075,新規,0,2024-11-28,2024-11-28,株式会社双葉,,株式会社,長野県,長野市,大字南長野西後町１５５５番地クレスビル２階,,20,201,3800845,,,,,,,2024-11-28,1,,,,,フタバ,0
836,4120001270576,新規,0,2024-11-28,2024-11-28,株式会社ＮＥＸＴ　ＧＲＯＵＰ,,株式会社,大阪府,大阪市北区,国分寺２丁目１番１４号アコム天六ビル,,27,127,5310064,,,,,,,2024-11-28,1,,,,,ネクストグループ,0
837,4120001270592,新規,0,2024-11-28,2024-11-28,大福客株式会社,,株式会社,大阪府,大阪市都島区,中野町４丁目３番６号Ｈ２Ｈ大阪桜之宮邸１Ｂ－２,,27,102,5340027,,,,,,,2024-11-28,1,,,,,ダイフクキャク,0
838,4120001270601,新規,0,2024-11-28,2024-11-28,紅灯籠服飾株式会社,,株式会社,大阪府,大阪市住之江区,御崎１丁目１１番１９－２１３号,,27,125,5590013,,,,,,,2024-11-28,1,,,,,コウトウロウフクショク,0
839,4120001270650,新規,0,2024-11-28,2024-11-28,匯海株式会社,00137163,株式会社,大阪府,大阪市天王寺区,空清町４－１１－２０８室,,27,109,5430018,,,,,,,2024-11-28,1,,,,,エウミ,0
840,4120001270659,新規,0,2024-11-28,2024-11-28,大竜株式会社,,株式会社,大阪府,大阪市中央区,森ノ宮中央１丁目２５番１６号１１Ｆ,,27,128,5400003,,,,,,,2024-11-28,1,,,,,オオリュウ,0
841,4120001270675,新規,0,2024-11-28,2024-11-28,株式会社オッズコンサルタント,,株式会社,大阪府,大阪市天王寺区,上汐４丁目４番２３号,,27,109,5430002,,,,,,,2024-11-28,1,,,,,オッズコンサルタント,0
842,4120001270700,新規,0,2024-11-28,2024-11-28,＿佳株式会社,00137165,株式会社,大阪府,大阪市東住吉区,矢田１丁目２０番１７号２Ｆ－Ｊ号室,,27,121,5460023,,,,,,,2024-11-28,1,,,,,セイカ,0
849,4120003028072,新規,0,2024-11-28,2024-11-28,櫻井商店合同会社,,合同会社,大阪府,大阪市住吉区,墨江１丁目９番４号,,27,120,5580043,,,,,,,2024-11-28,1,,,,,サクライショウテン,0
850,4120101070661,新規,0,2024-11-28,2024-11-28,株式会社ＲＥＭ,,株式会社,大阪府,堺市東区,大美野１１５番地４,,27,143,5998126,,,,,,,2024-11-28,1,,,,,アールイーエム,0
851,4120903005427,新規,0,2024-11-28,2024-11-28,Ｌｕｍｉｅｒｅ合同会社,,合同会社,大阪府,吹田市,古江台２丁目５－５－１,,27,205,5650874,,,,,,,2024-11-28,1,,,,,リュミエール,0
852,4122001038689,新規,0,2024-11-28,2024-11-28,Ｓｙｓｔｅｍ　ｄｉｒｅｃｔｉｏｎ株式会社,,株式会社,大阪府,八尾市,八尾木北６丁目１９番地デュアル八尾高安１０５号,,27,212,5810016,,,,,,,2024-11-28,1,,,,,システムディレクション,0
854,4130001078449,新規,0,2024-11-28,2024-11-28,株式会社俣野工務店,,株式会社,京都府,八幡市,上津屋南村７番地２,,26,210,6148182,,,,,,,2024-11-28,1,,,,,マタノコウムテン,0
855,4130001078465,新規,0,2024-11-28,2024-11-28,株式会社ＡＮＶＩＬ,,株式会社,京都府,京都市南区,上鳥羽高畠町５１番地１３,,26,107,6018101,,,,,,,2024-11-28,1,,,,,アンヴィル,0
858,4140001136511,新規,0,2024-11-28,2024-11-28,株式会社グローサー,,株式会社,兵庫県,伊丹市,口酒井２丁目６番２１号,,28,207,6640844,,,,,,,2024-11-28,1,,,,,グローサー,0
877,4190001031823,新規,0,2024-11-28,2024-11-28,株式会社Ｆａｍｉｌｙ　Ｔｉｅｓ,,株式会社,三重県,津市,安濃町野口５８４番地１,,24,201,5142321,,,,,,,2024-11-28,1,,,,,ファミリータイズ,0
881,4220001026357,新規,0,2024-11-28,2024-11-28,株式会社ＴＡＧＰＰＩ,,株式会社,石川県,金沢市,堀川新町５番１号,,17,201,9200849,,,,,,,2024-11-28,1,,,,,タグッピ,0
882,4220003003899,新規,0,2024-11-28,2024-11-28,合同会社ＷｈｉｔｅＣａｎｖａｓ,,合同会社,石川県,金沢市,此花町５番地６号ライフ金沢第１ビル６０１Ａ,,17,201,9200852,,,,,,,2024-11-28,1,,,,,ホワイトキャンバス,0
889,4260005011426,新規,0,2024-11-28,2024-11-28,ＮＰＯ法人視覚障害者ヒューマンガイドテクニック・インストラクター協会,,その他の設立登記法人,岡山県,倉敷市,茶屋町早沖４２９番地１０アウローラＡ１０３,,33,202,7101102,,,,,,,2024-11-28,1,,,,,シカクショウガイシャヒューマンガイドテクニックインストラクターキョウカイ,0
894,4290001108140,新規,0,2024-11-28,2024-11-28,株式会社とし建設,,株式会社,福岡県,福岡市博多区,吉塚３丁目１７番１７号,,40,132,8120041,,,,,,,2024-11-28,1,,,,,トシケンセツ,0
900,4330001032674,新規,0,2024-11-28,2024-11-28,株式会社７６２７７,,株式会社,熊本県,熊本市西区,春日１丁目８番２９号ＬＡＭＯＮＴＥＩＩ４Ｆ,00137158,43,103,8600047,,,,,,,2024-11-28,1,,,,,ナナロクニーナナ,0
901,4330001032690,新規,0,2024-11-28,2024-11-28,株式会社Ａ・Ｋ,,株式会社,熊本県,熊本市中央区,九品寺５丁目５番１２号,,43,101,8620976,,,,,,,2024-11-28,1,,,,,エーケー,0
904,4340001026964,新規,0,2024-11-28,2024-11-28,株式会社Ｃａｌｍ　Ｆｉｌｍ,,株式会社,鹿児島県,霧島市,霧島大窪３８４番地６,,46,218,8994203,,,,,,,2024-11-28,1,,,,,カームフィルム,0
905,4340005009791,新規,0,2024-11-28,2024-11-28,一般社団法人ワン,,その他の設立登記法人,鹿児島県,鹿児島市,犬迫町７２８８,,46,201,8911205,,,,,,,2024-11-28,1,,,,,ワン,0
906,4350005006268,新規,0,2024-11-28,2024-11-28,特定非営利活動法人国際こども支援団体,,その他の設立登記法人,宮崎県,延岡市,萩町５６番地３０Ｂ,,45,203,8820052,,,,,,,2024-11-28,1,,,,,コクサイコドモシエンダンタイ,0
907,4360001034461,新規,0,2024-11-28,2024-11-28,Ｙ‐ＳＴＡＧＥ株式会社,,株式会社,沖縄県,宜野湾市,長田４丁目１７－２５,,47,205,9012212,,,,,,,2024-11-28,1,,,,,ワイステージ,0
915,4410005006609,新規,0,2024-11-28,2024-11-28,農事組合法人ファーム横沢東,,その他の設立登記法人,秋田県,大仙市,太田町横沢字堤東５２番地１,,05,212,0191601,,,,,,,2024-11-28,1,,,,,ファームヨコサワヒガシ,0
916,4420001018937,新規,0,2024-11-28,2024-11-28,株式会社サンキューファーム,,株式会社,青森県,五所川原市,金木町川倉宇田野１５５番地５,,02,205,0370201,,,,,,,2024-11-28,1,,,,,サンキューファーム,0
920,4430001093153,新規,0,2024-11-28,2024-11-28,株式会社ＹＵＳＨＩＮ,,株式会社,北海道,札幌市北区,屯田五条８丁目７番１１号,,01,102,0020855,,,,,,,2024-11-28,1,,,,,ユーシン,0
921,4430001093161,新規,0,2024-11-28,2024-11-28,株式会社Ｆ８,,株式会社,北海道,札幌市豊平区,西岡三条４丁目１－１２,,01,105,0620033,,,,,,,2024-11-28,1,,,,,エフエイト,0
925,4470001020475,新規,0,2024-11-28,2024-11-28,株式会社ＳＨＯＤＥＮ,,株式会社,香川県,三豊市,三野町吉津乙２３２４番地１,,37,208,7670033,,,,,,,2024-11-28,1,,,,,ショウデン,0
940,5010001250241,新規,0,2024-11-28,2024-11-28,アンフィトリテ株式会社,,株式会社,東京都,中央区,銀座１丁目１２番４号Ｎ＆ＥＢＬＤ．６Ｆ,,13,102,1040061,,,,,,,2024-11-28,1,,,,,アンフィトリテ,0
941,5010001250258,新規,0,2024-11-28,2024-11-28,株式会社Ｈｙｄｒａ　Ｔｅｃｈ　Ｓｏｌｕｔｉｏｎｓ,,株式会社,東京都,千代田区,有楽町１丁目１３番２号第一生命日比谷ファースト１８階,,13,101,1000006,,,,,,,2024-11-28,1,,,,,ハイドラテックソリューションズ,0
942,5010001250274,新規,0,2024-11-28,2024-11-28,ＳＰＲ　ＶＣ株式会社,,株式会社,東京都,千代田区,内神田１丁目３番６号,,13,101,1010047,,,,,,,2024-11-28,1,,,,,エスピーアールブイシー,0
943,5010001250308,新規,0,2024-11-28,2024-11-28,ＭＩホールディングス株式会社,,株式会社,東京都,千代田区,一番町５番地アトラスビル,,13,101,1020082,,,,,,,2024-11-28,1,,,,,エムアイホールディングス,0
949,5010401186382,新規,0,2024-11-28,2024-11-28,ＶＡＮ　ＬＵＣＫ　ＪＡＰＡＮ株式会社,,株式会社,東京都,港区,東麻布１丁目３番７－７０２号,,13,103,1060044,,,,,,,2024-11-28,1,,,,,ヴァンラックジャパン,0
950,5010401186556,新規,0,2024-11-28,2024-11-28,パワープール株式会社,,株式会社,東京都,港区,芝４丁目９－３芝石井ビル４Ｆ,,13,103,1080014,,,,,,,2024-11-28,1,,,,,パワープール,0
952,5010403033871,新規,0,2024-11-28,2024-11-28,合同会社いろどり,,合同会社,東京都,港区,南青山３丁目１番３６号青山丸竹ビル６Ｆ,,13,103,1070062,,,,,,,2024-11-28,1,,,,,イロドリ,0
953,5010403033888,新規,0,2024-11-28,2024-11-28,合同会社ａｎｄ,,合同会社,東京都,港区,芝５丁目１５番４号フォーラム三田６Ｆ,,13,103,1080014,,,,,,,2024-11-28,1,,,,,アンド,0
954,5010403033896,新規,0,2024-11-28,2024-11-28,ＴＫ　Ｊａｐａｎ合同会社,,合同会社,東京都,港区,高輪４丁目１８番９－２０３号,,13,103,1080074,,,,,,,2024-11-28,1,,,,,ティーケージャパン,0
955,5010403033905,新規,0,2024-11-28,2024-11-28,合同会社ドットコム,,合同会社,東京都,港区,三田３丁目３番１０－６０１号,,13,103,1080073,,,,,,,2024-11-28,1,,,,,ドットコム,0
957,5010501053268,新規,0,2024-11-28,2024-11-28,株式会社Ｋ‐ＭＩＲＡＩＺ,,株式会社,東京都,台東区,根岸３丁目２番１２－５０１号,,13,106,1100003,,,,,,,2024-11-28,1,,,,,ケーミライズ,0
958,5010501053276,新規,0,2024-11-28,2024-11-28,株式会社ＲＣ,,株式会社,東京都,台東区,柳橋１丁目３番３号,,13,106,1110052,,,,,,,2024-11-28,1,,,,,アールシー,0
968,5010901056408,新規,0,2024-11-28,2024-11-28,長尾興産株式会社,,株式会社,東京都,世田谷区,砧２丁目１４番１２号,,13,112,1570073,,,,,,,2024-11-28,1,,,,,ナガオコウサン,0
972,5011001166048,新規,0,2024-11-28,2024-11-28,株式会社れーヴ,00137170,株式会社,東京都,渋谷区,恵比寿西２丁目８番４号ＥＸ恵比寿西ビル５階,,13,113,1500021,,,,,,,2024-11-28,1,,,,,レーヴ,0
973,5011003020517,新規,0,2024-11-28,2024-11-28,合同会社Ｐｒｏｂｉｔａｓ,,合同会社,東京都,目黒区,五本木１丁目９番３－２１２号エクセル祐天寺,,13,110,1530053,,,,,,,2024-11-28,1,,,,,プロビタス,0
976,5011101109690,新規,0,2024-11-28,2024-11-28,日橋株式会社,,株式会社,東京都,新宿区,百人町２丁目２２－１６,,13,104,1690073,,,,,,,2024-11-28,1,,,,,ニッキョウ,0
981,5011401026611,新規,0,2024-11-28,2024-11-28,株式会社ＩＣＨＩＭＡＲＵプロモーション,,株式会社,東京都,板橋区,徳丸７丁目１０番１５号,,13,119,1750083,,,,,,,2024-11-28,1,,,,,イチマルプロモーション,0
984,5011503006313,新規,0,2024-11-28,2024-11-28,ダブル合同会社,,合同会社,東京都,北区,赤羽１丁目７番９号赤羽第一葉山ビル４Ｆ,,13,117,1150045,,,,,,,2024-11-28,1,,,,,ダブル,0
992,5011801045228,新規,0,2024-11-28,2024-11-28,Ｃａｆｆｌｉｎ株式会社,,株式会社,東京都,足立区,栗原３丁目２６番１号２Ｆ,,13,121,1230842,,,,,,,2024-11-28,1,,,,,カフリン,0
997,5013303007417,新規,0,2024-11-28,2024-11-28,合同会社アルグストラ,,合同会社,東京都,豊島区,南大塚１丁目２５番５号,,13,116,1700005,,,,,,,2024-11-28,1,,,,,アルグストラ,0
1001,5020001160241,新規,0,2024-11-28,2024-11-28,株式会社石野興業,,株式会社,神奈川県,川崎市宮前区,神木本町１丁目１１番７号,,14,136,2160031,,,,,,,2024-11-28,1,,,,,イシノコウギョウ,0
1008,5021001083820,新規,0,2024-11-28,2024-11-28,株式会社ノウメン,,株式会社,神奈川県,大和市,鶴間２丁目８番２１号シティテラス南林間２１９,,14,213,2420004,,,,,,,2024-11-28,1,,,,,ノウメン,0
1009,5021001083878,新規,0,2024-11-28,2024-11-28,株式会社オモンパカール,,株式会社,神奈川県,秦野市,曽屋５８５２－２－１１０３,,14,211,2570031,,,,,,,2024-11-28,1,,,,,オモンパカール,0
1012,5021003015276,新規,0,2024-11-28,2024-11-28,合同会社ＣＡＳＡ　ＯＶＥＳＴ,,合同会社,神奈川県,相模原市緑区,日連１５３４番地,,14,151,2520185,,,,,,,2024-11-28,1,,,,,カーサオーヴェスト,0
1013,5021003015284,新規,0,2024-11-28,2024-11-28,祥和貿易合同会社,,合同会社,神奈川県,厚木市,上荻野１４４４番地１,,14,212,2430201,,,,,,,2024-11-28,1,,,,,ショウワボウエキ,0
1014,5021003015292,新規,0,2024-11-28,2024-11-28,合同会社ＲａＫｕＤａ,,合同会社,神奈川県,座間市,さがみ野２丁目１１－１１,,14,216,2520005,,,,,,,2024-11-28,1,,,,,ラクダ,0
1017,5030001163664,新規,0,2024-11-28,2024-11-28,株式会社ひだまりライフデザイン,,株式会社,埼玉県,日高市,大字高萩７５６－５,,11,242,3501213,,,,,,,2024-11-28,1,,,,,ヒダマリライフデザイン,0
1019,5030003025565,新規,0,2024-11-28,2024-11-28,合同会社モップス,,合同会社,埼玉県,さいたま市大宮区,三橋２丁目７３６番地８,,11,103,3300856,,,,,,,2024-11-28,1,,,,,モップス,0
1023,5040001136339,新規,0,2024-11-28,2024-11-28,ＢＩＮＩＳＡ株式会社,,株式会社,千葉県,船橋市,みやぎ台３丁目４番２７号,,12,204,2740804,,,,,,,2024-11-28,1,,,,,ビニサ,0
1032,5040003026224,新規,0,2024-11-28,2024-11-28,合同会社Ｇｏ‐ｂｅｔｗｅｅｎ,,合同会社,千葉県,我孫子市,天王台１丁目６番地１３,,12,222,2701143,,,,,,,2024-11-28,1,,,,,ゴービトウィーン,0
1040,5050001055793,新規,0,2024-11-28,2024-11-28,株式会社ＰＩＣＳ,,株式会社,茨城県,日立市,幸町１丁目２２番６－５０８号,,08,202,3170073,,,,,,,2024-11-28,1,,,,,ピックス,0
1041,5050003008840,新規,0,2024-11-28,2024-11-28,土浦れんこん物語合同会社,,合同会社,茨城県,土浦市,城北町７番３号,,08,203,3000042,,,,,,,2024-11-28,1,,,,,ツチウラレンコンモノガタリ,0
1044,5060001037683,新規,0,2024-11-28,2024-11-28,ＲＹＯＫＫＥＮ株式会社,,株式会社,栃木県,芳賀郡益子町,大字益子２２５４番地１,,09,342,3214217,,,,,,,2024-11-28,1,,,,,リョッケン,0
1046,5070003005679,新規,0,2024-11-28,2024-11-28,ニッポンケンキ合同会社,,合同会社,群馬県,沼田市,白沢町上古語父９,,10,206,3780126,,,,,,,2024-11-28,1,,,,,ニッポンケンキ,0
1049,5080101025157,新規,0,2024-11-28,2024-11-28,株式会社ＺｅＮａ,,株式会社,静岡県,富士宮市,淀師１８１６番地の６４,,22,207,4180051,,,,,,,2024-11-28,1,,,,,ゼナ,0
1050,5080103003202,新規,0,2024-11-28,2024-11-28,ビットインベスト合同会社,,合同会社,静岡県,熱海市,上多賀１０６５番地８９０熱海自然郷玄岳台一次９４２,,22,205,4130101,,,,,,,2024-11-28,1,,,,,ビットインベスト,0
1055,5110001038874,新規,0,2024-11-28,2024-11-28,株式会社セイビア,,株式会社,新潟県,新潟市南区,大通黄金７丁目３番地１０,,15,106,9501203,,,,,,,2024-11-28,1,,,,,セイピア,0
1059,5120001270633,新規,0,2024-11-28,2024-11-28,如野株式会社,,株式会社,大阪府,大阪市西成区,北津守１丁目１－２０,,27,122,5570061,,,,,,,2024-11-28,1,,,,,ユノ,0
1060,5120001270708,新規,0,2024-11-28,2024-11-28,Ｎｅｕｔｒａｌ株式会社,,株式会社,大阪府,大阪市福島区,福島５丁目１番１号４階,,27,103,5530003,,,,,,,2024-11-28,1,,,,,ニュートラル,0
1061,5120001270724,新規,0,2024-11-28,2024-11-28,株式会社Ｒ‐ＧＲＯＵＰ,,株式会社,大阪府,大阪市中央区,南船場１丁目１６番２３－４０７号,,27,128,5420081,,,,,,,2024-11-28,1,,,,,アールグループ,0
1064,5120003028047,新規,0,2024-11-28,2024-11-28,合同会社野上鍼灸院,,合同会社,大阪府,大阪市西区,江戸堀１丁目１１番１２号,,27,106,5500002,,,,,,,2024-11-28,1,,,,,ノガミシンキュウイン,0
1065,5120003028063,新規,0,2024-11-28,2024-11-28,ＤＫ６８合同会社,,合同会社,大阪府,大阪市平野区,加美鞍作１丁目１０－５,,27,126,5470004,,,,,,,2024-11-28,1,,,,,ディケーロクハチ,0
1066,5120003028071,新規,0,2024-11-28,2024-11-28,Ｋａｙｏｈｉ合同会社,,合同会社,大阪府,大阪市淀川区,西中島５丁目１４－１０,,27,123,5320011,,,,,,,2024-11-28,1,,,,,カヨイ,0
1070,5120101070660,新規,0,2024-11-28,2024-11-28,株式会社１００１,,株式会社,大阪府,堺市中区,陶器北１６２９－２,,27,142,5998242,,,,,,,2024-11-28,1,,,,,イチゼロゼロイチ,0
1072,5120105009936,新規,0,2024-11-28,2024-11-28,一般社団法人南大阪メディカル協議会,,その他の設立登記法人,大阪府,和泉市,府中町８丁目６番３０号,,27,219,5940071,,,,,,,2024-11-28,1,,,,,ミナミオオサカメディカルキョウギカイ,0
1079,5130003010037,新規,0,2024-11-28,2024-11-28,合同会社ジョブサポートターコイズ,,合同会社,京都府,京都市下京区,朱雀宝蔵町４４番地協栄ビル２階京都朱雀スタジオ,,26,106,6008846,,,,,,,2024-11-28,1,,,,,クラウドサポートターコイズ,0
1083,5140001136568,新規,0,2024-11-28,2024-11-28,株式会社ＧＥＡＲ．,,株式会社,兵庫県,神戸市中央区,加納町６丁目６番３号,,28,110,6500001,,,,,,,2024-11-28,1,,,,,ギア,0
1085,5140003021363,新規,0,2024-11-28,2024-11-28,合同会社はじまり,,合同会社,兵庫県,神戸市北区,鈴蘭台東町９丁目３－２０,,28,109,6511112,,,,,,,2024-11-28,1,,,,,ハジマリ,0
1086,5140003021371,新規,0,2024-11-28,2024-11-28,合同会社オブリゲーション,,合同会社,兵庫県,加古川市,尾上町口里２１０番地の８,,28,210,6750022,,,,,,,2024-11-28,1,,,,,オブリゲーション,0
1099,5220001026356,新規,0,2024-11-28,2024-11-28,株式会社大川電気商会,,株式会社,石川県,小松市,木場町め１９番地,,17,203,9230311,,,,,,,2024-11-28,1,,,,,オオカワデンキショウカイ,0
1100,5220003003898,新規,0,2024-11-28,2024-11-28,合同会社羽咋中間処理施設,,合同会社,石川県,羽咋郡宝達志水町,向瀬タ１５番地１,,17,386,9291401,,,,,,,2024-11-28,1,,,,,ハクイチュウカンショリシセツ,0
1103,5240001064172,新規,0,2024-11-28,2024-11-28,株式会社ファースト,,株式会社,広島県,広島市中区,大手町１丁目４番１４号大手町上田ビル３階Ｄ室,,34,101,7300051,,,,,,,2024-11-28,1,,,,,ファースト,0
1106,5240003006957,新規,0,2024-11-28,2024-11-28,ａｎｃｒｅ合同会社,,合同会社,広島県,広島市中区,猫屋町３番１１－２０１号,,34,101,7300852,,,,,,,2024-11-28,1,,,,,アンクル,0
1107,5260005011425,新規,0,2024-11-28,2024-11-28,ホークメゾン岡山管理組合法人,,その他の設立登記法人,岡山県,岡山市北区,東古松４丁目３番１０号,,33,101,7000921,,,,,,,2024-11-28,1,,,,,ホークメゾンオカヤマ,0
1111,5290001108115,新規,0,2024-11-28,2024-11-28,曼尼爵顧問株式会社,,株式会社,福岡県,福岡市中央区,渡辺通５丁目１４番１２号南天神ビル３Ｆ,,40,133,8100004,,,,,,,2024-11-28,1,,,,,マンニージュエコンサルティング,0
1112,5290001108123,新規,0,2024-11-28,2024-11-28,株式会社平尾商店,,株式会社,福岡県,福岡市南区,高宮１丁目１４－１７,,40,134,8150083,,,,,,,2024-11-28,1,,,,,ヒラオショウテン,0
1113,5290001108156,新規,0,2024-11-28,2024-11-28,株式会社マッシュアップクリエイト,,株式会社,福岡県,福岡市博多区,中洲５丁目３番－８アクア博多５階,,40,132,8100801,,,,,,,2024-11-28,1,,,,,マッシュアップクリエイト,0
1116,5290003016084,新規,0,2024-11-28,2024-11-28,合同会社アプロディーテ,,合同会社,福岡県,春日市,岡本２丁目１１レジデンス春日１０３,,40,218,8160861,,,,,,,2024-11-28,1,,,,,アプロディーテ,0
1119,5290005019564,新規,0,2024-11-28,2024-11-28,一般社団法人地域開発防災研究会,,その他の設立登記法人,福岡県,福岡市中央区,舞鶴１丁目４番７号,,40,133,8100073,,,,,,,2024-11-28,1,,,,,チイキカイハツボウサイケンキュウカイ,0
1120,5320001020828,新規,0,2024-11-28,2024-11-28,ワンテクト株式会社,,株式会社,大分県,大分市,花高松２丁目１０番１７号,,44,201,8700915,,,,,,,2024-11-28,1,,,,,ワンテクト,0
1130,5340003004678,新規,0,2024-11-28,2024-11-28,合同会社心楽動,,合同会社,鹿児島県,鹿児島市,春山町１１５１番地８,,46,201,8992704,,,,,,,2024-11-28,1,,,,,シンラクドウ,0
1133,5360003014485,新規,0,2024-11-28,2024-11-28,合同会社ＧＡ企画設計,,合同会社,沖縄県,沖縄市,知花１丁目２６番５号,,47,211,9042143,,,,,,,2024-11-28,1,,,,,ジーエーキカクセッケイ,0
1138,5380001034946,新規,0,2024-11-28,2024-11-28,株式会社ラフテル,,株式会社,福島県,福島市,渡利字西ノ内２５番地の２４・１Ｆ,,07,201,9608141,,,,,,,2024-11-28,1,,,,,ラフテル,0
1140,5380005012898,新規,0,2024-11-28,2024-11-28,税理士法人鈴木・古市会計,,その他の設立登記法人,福島県,須賀川市,北上町１４４番地,,07,207,9620864,,,,,,,2024-11-28,1,,,,,スズキフルイチカイケイ,0
1144,5410003004010,新規,0,2024-11-28,2024-11-28,合同会社ＮＯＴＥ,,合同会社,秋田県,秋田市,濁川字後田６４番地８,,05,201,0100821,,,,,,,2024-11-28,1,,,,,ノート,0
1150,5500001026014,新規,0,2024-11-28,2024-11-28,株式会社美咲会,,株式会社,愛媛県,松山市,道後湯之町１５番２号,,38,201,7900842,,,,,,,2024-11-28,1,,,,,ミサキカイ,0
1157,6010001250232,新規,0,2024-11-28,2024-11-28,株式会社Ｒ＆Ｃ,,株式会社,東京都,文京区,関口２丁目４－２４－５０５,,13,105,1120014,,,,,,,2024-11-28,1,,,,,アールアンドシー,0
1158,6010001250240,新規,0,2024-11-28,2024-11-28,ヘスティア株式会社,,株式会社,東京都,中央区,銀座１丁目１２番４号Ｎ＆ＥＢＬＤ．６Ｆ,,13,102,1040061,,,,,,,2024-11-28,1,,,,,ヘスティア,0
1159,6010001250257,新規,0,2024-11-28,2024-11-28,株式会社ビジョンジャパン,,株式会社,東京都,千代田区,神田佐久間町２丁目２２番地,,13,101,1010025,,,,,,,2024-11-28,1,,,,,ビジョンジャパン,0
1164,6010101016418,新規,0,2024-11-28,2024-11-28,クラシア株式会社,,株式会社,東京都,八王子市,椚田町５６７番地２３,,13,201,1930942,,,,,,,2024-11-28,1,,,,,クラシア,0
1165,6010101016426,新規,0,2024-11-28,2024-11-28,株式会社ウィッシュブレース,,株式会社,東京都,八王子市,楢原町１０４７番地９,,13,201,1930803,,,,,,,2024-11-28,1,,,,,ウィッシュブレース,0
1168,6010403033796,新規,0,2024-11-28,2024-11-28,合同会社Ｄｅｘ,,合同会社,東京都,港区,浜松町２丁目２番１５号浜松町ダイヤビル２Ｆ,,13,103,1050013,,,,,,,2024-11-28,1,,,,,ディーイーエックス,0
1171,6010501053259,新規,0,2024-11-28,2024-11-28,一様株式会社,,株式会社,東京都,台東区,台東２丁目３１－１０第２掛川ビル１２１号室,,13,106,1100016,,,,,,,2024-11-28,1,,,,,イチヨウ,0
1172,6010501053267,新規,0,2024-11-28,2024-11-28,ＪＥＤＩ　Ｃｉｔｙ株式会社,,株式会社,東京都,台東区,蔵前１丁目３番１８号,,13,106,1110051,,,,,,,2024-11-28,1,,,,,ジェダイシティ,0
1177,6010703007475,新規,0,2024-11-28,2024-11-28,ウィロー合同会社,,合同会社,東京都,品川区,上大崎３丁目１番１号目黒セントラルスクエア１５階,,13,109,1410021,,,,,,,2024-11-28,1,,,,,ウィロー,0
1179,6010803005180,新規,0,2024-11-28,2024-11-28,ａｎｄ　ＳＵＧＡＲ合同会社,,合同会社,東京都,大田区,矢口１丁目１１番６号,,13,111,1460093,,,,,,,2024-11-28,1,,,,,アンドシュガー,0
1182,6010901056423,新規,0,2024-11-28,2024-11-28,株式会社ＴＨ,,株式会社,東京都,世田谷区,北沢３丁目３番３号パークアベニュー３Ｆ,,13,112,1550031,,,,,,,2024-11-28,1,,,,,ティーエイチ,0
1185,6010903009528,新規,0,2024-11-28,2024-11-28,合同会社ユーエステート,,合同会社,東京都,世田谷区,三軒茶屋１丁目３０番５号,,13,112,1540024,,,,,,,2024-11-28,1,,,,,ユーエステート,0
1187,6011001166253,新規,0,2024-11-28,2024-11-28,株式会社ｉｐｏｃａ　ｃｒｅａｔｉｏｎ,,株式会社,東京都,渋谷区,神宮前１丁目５番８号,,13,113,1500001,,,,,,,2024-11-28,1,,,,,イポカクリエイション,0
1189,6011003020490,新規,0,2024-11-28,2024-11-28,サイバーアセット合同会社,,合同会社,東京都,渋谷区,神宮前６丁目２３番４号桑野ビル２階,,13,113,1500001,,,,,,,2024-11-28,1,,,,,サイバーアセット,0
1194,6011103015226,新規,0,2024-11-28,2024-11-28,リモートオフィス合同会社,,合同会社,東京都,新宿区,西新宿２丁目１番１号新宿三井ビル１１階,,13,104,1600023,,,,,,,2024-11-28,1,,,,,リモートオフィス,0
1195,6011103015234,新規,0,2024-11-28,2024-11-28,合同会社ウェルスベース,,合同会社,東京都,新宿区,西新宿３丁目３番１３号西新宿水間ビル６階,,13,104,1600023,,,,,,,2024-11-28,1,,,,,ウェルスベース,0
1208,6012703003140,新規,0,2024-11-28,2024-11-28,Ａ＆Ｍアセット合同会社,,合同会社,東京都,東久留米市,柳窪５丁目６番３号,,13,222,2030044,,,,,,,2024-11-28,1,,,,,エーアンドエムアセット,0
1211,6013301053362,新規,0,2024-11-28,2024-11-28,グランブルー株式会社,,株式会社,東京都,豊島区,西池袋３丁目２１番１３－１３０３号,,13,116,1710021,,,,,,,2024-11-28,1,,,,,グランブルー,0
1212,6013301053404,新規,0,2024-11-28,2024-11-28,株式会社ＡＲＣＡＮＡ　ＬＡＣＲＩＭＡ,,株式会社,東京都,豊島区,西池袋１丁目２９番３号ロイヤル西池袋ビル５Ｆ,,13,116,1710021,,,,,,,2024-11-28,1,,,,,アルカナラクリマ,0
1214,6013303007416,新規,0,2024-11-28,2024-11-28,合同会社Ｋａｗａｍｏｔｏ,,合同会社,東京都,豊島区,駒込１丁目３０番１３号ＫｅｙａｋｉＨｏｕｓｅ１０２号室,,13,116,1700003,,,,,,,2024-11-28,1,,,,,カワモト,0
1231,6021001083869,新規,0,2024-11-28,2024-11-28,ＡＬＬＯＹ　ＴＨＥＲＡＰＥＵＴＩＣＳ株式会社,,株式会社,神奈川県,藤沢市,村岡東２丁目２６番地の１,,14,205,2510012,,,,,,,2024-11-28,1,,,,,アロイセラピューティクス,0
1232,6021003015275,新規,0,2024-11-28,2024-11-28,合同会社ＣＲＣ,,合同会社,神奈川県,平塚市,東八幡４丁目６番６－３号,,14,203,2540016,,,,,,,2024-11-28,1,,,,,シーアールシー,0
1233,6021003015291,新規,0,2024-11-28,2024-11-28,合同会社Ｃ＆Ｆｕｔｕｒｅ,,合同会社,神奈川県,横須賀市,船越町５丁目１８番地,,14,201,2370076,,,,,,,2024-11-28,1,,,,,シーアンドフューチャー,0
1238,6030001163630,新規,0,2024-11-28,2024-11-28,株式会社アクティブ,,株式会社,埼玉県,東松山市,松本町１丁目３番８号,,11,212,3550014,,,,,,,2024-11-28,1,,,,,アクティブ,0
1239,6030001163663,新規,0,2024-11-28,2024-11-28,千益株式会社,,株式会社,埼玉県,狭山市,祇園２－４狭山ニューシティビル３２５号室,,11,215,3501307,,,,,,,2024-11-28,1,,,,,センエキ,0
1242,6030003025572,新規,0,2024-11-28,2024-11-28,合同会社ＢＵＹａＬＯＴ,,合同会社,埼玉県,比企郡ときがわ町,大字本郷２０４番地８,,11,349,3550353,,,,,,,2024-11-28,1,,,,,バイアロット,0
1246,6040003026272,新規,0,2024-11-28,2024-11-28,合同会社千寿丸,,合同会社,千葉県,習志野市,屋敷２丁目１１番８号,,12,216,2750004,,,,,,,2024-11-28,1,,,,,センジュマル,0
1248,6050001055768,新規,0,2024-11-28,2024-11-28,ＮＯＭＩＮＩ　ＪＡＰＡＮ株式会社,,株式会社,茨城県,結城郡八千代町,大字新井１４１番地３－Ａ,,08,521,3003519,,,,,,,2024-11-28,1,,,,,ノミニジャパン,0
1249,6050001055776,新規,0,2024-11-28,2024-11-28,日本導電繊維株式会社,,株式会社,茨城県,つくば市,千現２丁目１番６,,08,220,3050047,,,,,,,2024-11-28,1,,,,,ニホンドウデンセンイ,0
1250,6050001055792,新規,0,2024-11-28,2024-11-28,株式会社シュリカ,,株式会社,茨城県,ひたちなか市,春日町１番３８号,,08,221,3120048,,,,,,,2024-11-28,1,,,,,シュリカ,0
1251,6050003008848,新規,0,2024-11-28,2024-11-28,ＳｎｕｇＳｐｏｔ合同会社,,合同会社,茨城県,常総市,水海道山田町１０７６－２－１０３号室,,08,211,3030031,,,,,,,2024-11-28,1,,,,,スナグスポット,0
1252,6060001037682,新規,0,2024-11-28,2024-11-28,株式会社ＴＯＡ,,株式会社,栃木県,小山市,大字間々田１７１４番地６,,09,208,3290205,,,,,,,2024-11-28,1,,,,,トア,0
1257,6080002018845,新規,0,2024-11-28,2024-11-28,有限会社テイスト,,有限会社,静岡県,静岡市葵区,駿府町１番３４号,,22,101,4200856,,,,,,,2024-11-28,1,,,,,テイスト,0
1261,6080101025156,新規,0,2024-11-28,2024-11-28,天野電気株式会社,,株式会社,静岡県,富士市,大淵３１２３番地の５１,,22,210,4170801,,,,,,,2024-11-28,1,,,,,アマノデンキ,0
1267,6100003007893,新規,0,2024-11-28,2024-11-28,Ｈｏｕｓｅ　ｏｆ　Ｈｕｎｇ合同会社,,合同会社,長野県,北安曇郡白馬村,大字北城８３６番地１３４,,20,485,3999301,,,,,,,2024-11-28,1,,,,,ハウスオブハング,0
1277,6120001270459,新規,0,2024-11-28,2024-11-28,株式会社ＪＴＷ,,株式会社,大阪府,大阪市西淀川区,佃３丁目１４番８号,,27,113,5550001,,,,,,,2024-11-28,1,,,,,ジェイティーダブリュー,0
1278,6120001270681,新規,0,2024-11-28,2024-11-28,株式会社匠建築設計工房,,株式会社,大阪府,大阪市西淀川区,佃１丁目１番７５,,27,113,5550001,,,,,,,2024-11-28,1,,,,,ショウケンチクセッケイコウボウ,0
1286,6122001038687,新規,0,2024-11-28,2024-11-28,信維電子科技日本株式会社,,株式会社,大阪府,東大阪市,今米２丁目８番１９号,,27,227,5780903,,,,,,,2024-11-28,1,,,,,シンウェイデンシカギニホン,0
1287,6122001038695,新規,0,2024-11-28,2024-11-28,ミサクラ工房株式会社,,株式会社,大阪府,四條畷市,岡山５丁目２番１７号,,27,229,5750002,,,,,,,2024-11-28,1,,,,,ミサクラコウボウ,0
1289,6130003010044,新規,0,2024-11-28,2024-11-28,合同会社グッドワーク,,合同会社,京都府,向日市,上植野町馬立１２,,26,208,6170006,,,,,,,2024-11-28,1,,,,,グッドワーク,0
1295,6160001026378,新規,0,2024-11-28,2024-11-28,株式会社サンスポット,,株式会社,滋賀県,高島市,安曇川町末広４丁目１７－２,,25,212,5201214,,,,,,,2024-11-28,1,,,,,サンスポット,0
1297,6170001018390,新規,0,2024-11-28,2024-11-28,米田酒造株式会社,,株式会社,和歌山県,紀の川市,貴志川町神戸７６０番地,,30,208,6400413,,,,,,,2024-11-28,1,,,,,,0
1302,6180001164341,新規,0,2024-11-28,2024-11-28,尾張屋不動産株式会社,,株式会社,愛知県,瀬戸市,鐘場町１３４番地の１,,23,204,4890845,,,,,,,2024-11-28,1,,,,,オワリヤフドウサン,0
1303,6180001164358,新規,0,2024-11-28,2024-11-28,株式会社ＳＯＡＲｓ,,株式会社,愛知県,江南市,古知野町牧森２１６番地１・２Ａ,,23,217,4838278,,,,,,,2024-11-28,1,,,,,ソアーズ,0
1312,6190001031821,新規,0,2024-11-28,2024-11-28,株式会社関西キヤピタルコントロールシステム,,株式会社,三重県,四日市市,富田３丁目１７番３号,,24,202,5108014,,,,,,,2024-11-28,1,,,,,カンサイキヤピタルコントロールシステム,0
1318,6200001043187,新規,0,2024-11-28,2024-11-28,株式会社玉利オフィス,,株式会社,岐阜県,各務原市,那加東那加町４番地,,21,213,5040953,,,,,,,2024-11-28,1,,,,,タマリオフィス,0
1325,6230001020638,新規,0,2024-11-28,2024-11-28,株式会社アスコかがやきホールディングス,,株式会社,富山県,中新川郡立山町,米沢３５９番地,,16,323,9303265,,,,,,,2024-11-28,1,,,,,アスコカガヤキホールディングス,0
1326,6240001064171,新規,0,2024-11-28,2024-11-28,株式会社トレファーボ,,株式会社,広島県,福山市,西町３丁目１３番１号,,34,207,7200067,,,,,,,2024-11-28,1,,,,,トレファーボ,0
1329,6260001039675,新規,0,2024-11-28,2024-11-28,株式会社Ｂ．Ｏ．Ｋ,,株式会社,岡山県,倉敷市,酒津２６２８番地２,,33,202,7100801,,,,,,,2024-11-28,1,,,,,ビーオーケー,0
1335,6290001108122,新規,0,2024-11-28,2024-11-28,ＮＩＤＯ株式会社,,株式会社,福岡県,福岡市中央区,高砂１丁目２１－７－２０２,,40,133,8100011,,,,,,,2024-11-28,1,,,,,ニド,0
1336,6290001108130,新規,0,2024-11-28,2024-11-28,ＭＩＤＬＡＮＤ株式会社,,株式会社,福岡県,久留米市,中央町１番地１－１５０８号,,40,203,8300023,,,,,,,2024-11-28,1,,,,,ミッドランド,0
1341,6310003004903,新規,0,2024-11-28,2024-11-28,Ｆｉｒｓｔ‐Ｔ３合同会社,,合同会社,長崎県,島原市,秩父が浦町丁３５２５番地３０,,42,203,8550864,,,,,,,2024-11-28,1,,,,,ファーストティスリー,0
1343,6320003004522,新規,0,2024-11-28,2024-11-28,合同会社キゼン,,合同会社,大分県,大分市,花津留２丁目１３番８号セジュール梅の杜Ｉ１０１,00137166,44,201,8700933,,,,,,,2024-11-28,1,,,,,キゼン,0
1344,6330001032689,新規,0,2024-11-28,2024-11-28,株式会社龍宝グループ,,株式会社,熊本県,山鹿市,鹿央町北谷３４１番地３,,43,208,8610571,,,,,,,2024-11-28,1,,,,,リュウホウグループ,0
1350,6370001051982,新規,0,2024-11-28,2024-11-28,株式会社山園,,株式会社,宮城県,大崎市,古川東町３－１,,04,215,9896166,,,,,,,2024-11-28,1,,,,,ヤマゾノ,0
1364,6430001093151,新規,0,2024-11-28,2024-11-28,ＫＥＹ　ＰＥＲＳＯＮ株式会社,,株式会社,北海道,札幌市豊平区,平岸六条１７丁目１－８７Ａ棟,,01,105,0620936,,,,,,,2024-11-28,1,,,,,キーパーソン,0
1367,6430003017026,新規,0,2024-11-28,2024-11-28,合同会社みかん,,合同会社,北海道,札幌市北区,北三十四条西３丁目３番３号,,01,102,0010034,,,,,,,2024-11-28,1,,,,,ミカン,0
1383,7010001250231,新規,0,2024-11-28,2024-11-28,株式会社セッダーＤＸ,,株式会社,東京都,千代田区,岩本町２丁目１２－７東京リアル岩本町ビル４階,,13,101,1010032,,,,,,,2024-11-28,1,,,,,セッダーディエクス,0
1384,7010001250280,新規,0,2024-11-28,2024-11-28,Ａｕｒｅｌｉａ株式会社,,株式会社,東京都,文京区,音羽１丁目２３番１２号第一晃和堂ビル４２２号室,,13,105,1120013,,,,,,,2024-11-28,1,,,,,オーレリア,0
1388,7010005039191,新規,0,2024-11-28,2024-11-28,一般社団法人地域に音楽を,,その他の設立登記法人,東京都,中央区,日本橋人形町２丁目３２番１１号早佑ビル４Ｆ,,13,102,1030013,,,,,,,2024-11-28,1,,,,,チイキニオンガクヲ,0
1389,7010005039200,新規,0,2024-11-28,2024-11-28,セントアンドリュース一般社団法人,,その他の設立登記法人,東京都,中央区,日本橋１丁目４番１号,,13,102,1030027,,,,,,,2024-11-28,1,,,,,セントアンドリュース,0
1398,7010401186637,新規,0,2024-11-28,2024-11-28,株式会社ＦＲＥＥＴ,,株式会社,東京都,港区,南青山３丁目１番３６号青山丸竹ビル６Ｆ,,13,103,1070062,,,,,,,2024-11-28,1,,,,,フリート,0
1401,7010405023852,新規,0,2024-11-28,2024-11-28,塩浜特定目的会社,,その他の設立登記法人,東京都,港区,元赤坂１丁目１番８号株式会社赤坂国際会計内,,13,103,1070051,,,,,,,2024-11-28,1,,,,,シオハマ,0
1405,7010601066366,新規,0,2024-11-28,2024-11-28,株式会社虹色ファンタジー,,株式会社,東京都,江東区,亀戸１丁目４０番６－３０１号,,13,108,1360071,,,,,,,2024-11-28,1,,,,,ニジイロファンタジー,0
1413,7011001166013,新規,0,2024-11-28,2024-11-28,株式会社東京ハレ,,株式会社,東京都,渋谷区,上原２丁目３３番９号,,13,113,1510064,,,,,,,2024-11-28,1,,,,,ハレ,0
1414,7011001166054,新規,0,2024-11-28,2024-11-28,株式会社ながのみえ,,株式会社,東京都,目黒区,東山３丁目７－１１大橋会館Ｄ１５,,13,110,1530043,,,,,,,2024-11-28,1,,,,,,0
1415,7011001166062,新規,0,2024-11-28,2024-11-28,ティルウェイ株式会社,,株式会社,東京都,渋谷区,富ヶ谷１丁目１４番１４号３Ｆ・４Ｆ,,13,113,1510063,,,,,,,2024-11-28,1,,,,,ティルウェイ,0
1419,7011103015233,新規,0,2024-11-28,2024-11-28,合同会社スマイル管理,,合同会社,東京都,新宿区,大久保１丁目１番３３号,,13,104,1690072,,,,,,,2024-11-28,1,,,,,スマイルカンリ,0
1425,7011203004540,新規,0,2024-11-28,2024-11-28,ブリリアント・エナジー合同会社,,合同会社,東京都,中野区,中央５丁目２３番１０－３０１号,,13,114,1640011,,,,,,,2024-11-28,1,,,,,ブリリアントエナジー,0
1426,7011401026601,新規,0,2024-11-28,2024-11-28,七海株式会社,,株式会社,東京都,板橋区,小茂根１丁目２５番１６号,,13,119,1730037,,,,,,,2024-11-28,1,,,,,ナナミ,0
1428,7011801045234,新規,0,2024-11-28,2024-11-28,株式会社フィールドジャパン,,株式会社,東京都,葛飾区,水元５丁目２番７号,,13,122,1250032,,,,,,,2024-11-28,1,,,,,フィールドジャパン,0
1439,7012403006855,新規,0,2024-11-28,2024-11-28,合同会社Ｓａｐｔｅ,,合同会社,東京都,武蔵野市,吉祥寺北町１丁目１‐１桜井ビル２階,,13,203,1800001,,,,,,,2024-11-28,1,,,,,シャプテ,0
1443,7013301053378,新規,0,2024-11-28,2024-11-28,華鵬弘株式会社,,株式会社,東京都,豊島区,西巣鴨２丁目６－１２－５０５号室,,13,116,1700001,,,,,,,2024-11-28,1,,,,,カホウコウ,0
1458,7021001083868,新規,0,2024-11-28,2024-11-28,株式会社ＲＥＶ,,株式会社,神奈川県,中郡大磯町,国府新宿７９－１－２０２号,,14,341,2590112,,,,,,,2024-11-28,1,,,,,レブ,0
1459,7021003015290,新規,0,2024-11-28,2024-11-28,合同会社クリエイトエム,,合同会社,神奈川県,平塚市,札場町２１番１２号,,14,203,2540802,,,,,,,2024-11-28,1,,,,,クリエイトエム,0
1469,7030001163646,新規,0,2024-11-28,2024-11-28,カラ株式会社,,株式会社,埼玉県,越谷市,大字袋山４１２番地１只見ハイツ２０７,,11,222,3430032,,,,,,,2024-11-28,1,,,,,カラ,0
1470,7030001163662,新規,0,2024-11-28,2024-11-28,株式会社かけい,,株式会社,埼玉県,川越市,小仙波町１丁目２１番４号,,11,201,3500036,,,,,,,2024-11-28,1,,,,,カケイ,0
1471,7030001163695,新規,0,2024-11-28,2024-11-28,アリン埼玉株式会社,,株式会社,埼玉県,さいたま市大宮区,大成町１丁目２４６番地,,11,103,3300852,,,,,,,2024-11-28,1,,,,,アリンサイタマ,0
1475,7030003025563,新規,0,2024-11-28,2024-11-28,合同会社ＣＲＯＳＳ,,合同会社,埼玉県,飯能市,大字双柳５９０番地４,,11,209,3570021,,,,,,,2024-11-28,1,,,,,クロス,0
1483,7040001136361,新規,0,2024-11-28,2024-11-28,株式会社ＯＮＥ　ＭＯ,,株式会社,千葉県,松戸市,馬橋２２７６番地の１,,12,207,2710051,,,,,,,2024-11-28,1,,,,,ワンモ,0
1494,7050001055759,新規,0,2024-11-28,2024-11-28,株式会社ａｖｅｃ　ｔｏｉ,,株式会社,茨城県,守谷市,百合ケ丘２丁目２７１７番地の３４,,08,224,3020110,,,,,,,2024-11-28,1,,,,,アベックトイ,0
1495,7050001055783,新規,0,2024-11-28,2024-11-28,株式会社カルチウインド,,株式会社,茨城県,つくばみらい市,東楢戸８７２番地７,,08,235,3002416,,,,,,,2024-11-28,1,,,,,カルチウインド,0
1496,7050001055791,新規,0,2024-11-28,2024-11-28,＿勝産業株式会社,00137160,株式会社,茨城県,筑西市,旭ヶ丘字旭ケ丘２８９４番地３,,08,227,3080836,,,,,,,2024-11-28,1,,,,,キンショウサンギョウ,0
1503,7070003005677,新規,0,2024-11-28,2024-11-28,ＰＮａｕｔｏ合同会社,,合同会社,群馬県,北群馬郡吉岡町,大字下野田８９４番地,,10,345,3703608,,,,,,,2024-11-28,1,,,,,ペンオート,0
1507,7090003002680,新規,0,2024-11-28,2024-11-28,合同会社Ｌａｕｇｈｔｅｒ,,合同会社,山梨県,甲斐市,島上条２１６７－８,,19,210,4000123,,,,,,,2024-11-28,1,,,,,ラフター,0
1517,7120001270581,新規,0,2024-11-28,2024-11-28,株式会社心道,,株式会社,大阪府,寝屋川市,打上宮前町５番４－６０５号,,27,215,5720862,,,,,,,2024-11-28,1,,,,,シンミチ,0
1518,7120001270656,新規,0,2024-11-28,2024-11-28,株式会社Ｅｌ　Ｄｏｒａｄｏ,,株式会社,大阪府,大阪市北区,梅田１丁目１番３号大阪駅前第３ビル２９階１－１－１号室,,27,127,5300001,,,,,,,2024-11-28,1,,,,,エルドラド,0
1524,7120901050100,新規,0,2024-11-28,2024-11-28,株式会社メルシーＭＡＩＳＯＮ,,株式会社,大阪府,茨木市,東太田１丁目２番９号の２０,,27,211,5670012,,,,,,,2024-11-28,1,,,,,メルシーメゾン,0
1526,7122001038694,新規,0,2024-11-28,2024-11-28,株式会社Ｙシステム,,株式会社,大阪府,東大阪市,七軒家７番１４号,,27,227,5770005,,,,,,,2024-11-28,1,,,,,ワイシステム,0
1530,7130001078396,新規,0,2024-11-28,2024-11-28,エコービュー株式会社,,株式会社,京都府,京都市中京区,元本能寺町３８２番地,,26,104,6048244,,,,,,,2024-11-28,1,,,,,エコービュー,0
1531,7130003010019,新規,0,2024-11-28,2024-11-28,合同会社ｍｙ　ｚｏｏ,,合同会社,京都府,京都市下京区,七条通油小路東入大黒町２２７番地第２キョートビル４０２,,26,106,6008223,,,,,,,2024-11-28,1,,,,,マイズー,0
1539,7160001026377,新規,0,2024-11-28,2024-11-28,ＫＫＣ株式会社,,株式会社,滋賀県,湖南市,中央５丁目４５番地,,25,211,5203234,,,,,,,2024-11-28,1,,,,,ケーケーシー,0
1543,7180001164332,新規,0,2024-11-28,2024-11-28,ＭＹＢコーポレーション株式会社,,株式会社,愛知県,春日井市,下原町１７７８－１,,23,206,4860819,,,,,,,2024-11-28,1,,,,,エムワイビイコーポレーション,0
1544,7180001164340,新規,0,2024-11-28,2024-11-28,株式会社ぐっとくるサポート,,株式会社,愛知県,名古屋市中区,金山２丁目１３番１２号廣目屋ビル２Ｆ,,23,106,4600022,,,,,,,2024-11-28,1,,,,,グットクルサポート,0
1549,7200005013689,新規,0,2024-11-28,2024-11-28,一般社団法人中津川モスク,,その他の設立登記法人,岐阜県,中津川市,坂下７４７番地１０,,21,206,5099232,,,,,,,2024-11-28,1,,,,,ナカツガワモスク,0
1554,7240001064170,新規,0,2024-11-28,2024-11-28,羽山不動産レジデンシャルサービス株式会社,,株式会社,広島県,広島市南区,向洋新町２丁目１６番３０号,,34,103,7340055,,,,,,,2024-11-28,1,,,,,ハヤマフドウサンレジデンシャルサービス,0
1559,7290001108071,新規,0,2024-11-28,2024-11-28,株式会社ＪＬ,,株式会社,福岡県,福岡市東区,松田３丁目１２番５号４０８室,,40,131,8120064,,,,,,,2024-11-28,1,,,,,ジェーエル,0
1561,7290003016099,新規,0,2024-11-28,2024-11-28,合同会社エコマックス,,合同会社,福岡県,福岡市東区,香椎台１丁目１４番１６号,,40,131,8130014,,,,,,,2024-11-28,1,,,,,エコマックス,0
1562,7290801031076,新規,0,2024-11-28,2024-11-28,株式会社オレンジ電設,,株式会社,福岡県,中間市,長津１丁目１番２３号,,40,215,8090036,,,,,,,2024-11-28,1,,,,,オレンジデンセツ,0
1563,7310001019340,新規,0,2024-11-28,2024-11-28,株式会社ＣＫデザイン一級建築士事務所,,株式会社,長崎県,長崎市,大橋町５番２５号中田ビル１階,,42,201,8528134,,,,,,,2024-11-28,1,,,,,シーケーデザインイッキュウケンチクシジムショ,0
1568,7330001032688,新規,0,2024-11-28,2024-11-28,Ｍ．Ｉ．ｆｏｏｄ’ｚ株式会社,,株式会社,熊本県,熊本市東区,戸島西１丁目２９番３２－９０６号,,43,102,8618043,,,,,,,2024-11-28,1,,,,,エムアイフーズ,0
1569,7330001032696,新規,0,2024-11-28,2024-11-28,株式会社ヒカリ,,株式会社,熊本県,菊池郡菊陽町,大字津久礼字石坂２２０５－２,,43,404,8691101,,,,,,,2024-11-28,1,,,,,ヒカリ,0
1575,7370001051981,新規,0,2024-11-28,2024-11-28,ＪＡＰＡＮ　Ｃｒｅａｔｅ株式会社,,株式会社,宮城県,仙台市若林区,南小泉２丁目４番２２号,,04,103,9840827,,,,,,,2024-11-28,1,,,,,ジャパンクリエイト,0
1576,7370003006843,新規,0,2024-11-28,2024-11-28,合同会社ヌマタ板金工業,,合同会社,宮城県,仙台市太白区,八木山南１丁目８番地の２ハイネス八木山Ｂ－１０６,,04,104,9820807,,,,,,,2024-11-28,1,,,,,ヌマタバンキンコウギョウ,0
1589,7430001093150,新規,0,2024-11-28,2024-11-28,株式会社いとより不動産,,株式会社,北海道,札幌市厚別区,厚別西一条４丁目５番６号,,01,108,0040061,,,,,,,2024-11-28,1,,,,,イトヨリフドウサン,0
1600,7700150127986,新規,0,2024-11-28,2024-11-28,ＡＤＶＥＮＴＵＲＥ　ＨＯＬＤＩＮＧＳ　ＬＩＭＩＴＥＤ,,外国会社等,,,,,,,,ニュージーランド　ギズボーン　ワイヌイビーチ　ワイレレロード５４,,,,,,2024-11-28,1,,,,,アドベンチヤーホールデイングスリミテツド,0
1607,8010001250156,新規,0,2024-11-28,2024-11-28,フォーティオテック株式会社,,株式会社,東京都,千代田区,六番町１５番地２号,,13,101,1020085,,,,,,,2024-11-28,1,,,,,フォーティオテック,0
1608,8010001250239,新規,0,2024-11-28,2024-11-28,ヘリオス株式会社,,株式会社,東京都,中央区,銀座１丁目１２番４号Ｎ＆ＥＢＬＤ．６Ｆ,,13,102,1040061,,,,,,,2024-11-28,1,,,,,ヘリオス,0
1609,8010001250255,新規,0,2024-11-28,2024-11-28,Ｓｙｎ‐Ｒｅｓｉｌｉｅｎｔ株式会社,,株式会社,東京都,千代田区,永田町２丁目１７番１７号ＡＩＯＳ永田町,,13,101,1000014,,,,,,,2024-11-28,1,,,,,シンレジリエント,0
1610,8010001250263,新規,0,2024-11-28,2024-11-28,ＥＫＣアドバンスド・エレクトロニクス２ジャパン株式会社,,株式会社,東京都,千代田区,永田町２丁目１１番１号,,13,101,1000014,,,,,,,2024-11-28,1,,,,,イーケーシーアドバンスドエレクトロニクスツージャパン,0
1611,8010001250288,新規,0,2024-11-28,2024-11-28,株式会社ありがとう,,株式会社,東京都,文京区,小石川１丁目８番６号アルシオン文京小石川１２０３号,,13,105,1120002,,,,,,,2024-11-28,1,,,,,アリガトウ,0
1614,8010005039190,新規,0,2024-11-28,2024-11-28,一般社団法人Ｈｅａｌｔｈ　Ｒｉｇｈｔ　Ｌａｂ,,その他の設立登記法人,東京都,文京区,千石１丁目６番１６号,,13,105,1120011,,,,,,,2024-11-28,1,,,,,ヘルスライトラボ,0
1619,8010401186677,新規,0,2024-11-28,2024-11-28,株式会社Ｄｉｇｉｔ．ｉｎｋ　Ｊａｐａｎ,,株式会社,東京都,港区,虎ノ門１丁目１番２１号新虎ノ門実業会館５階,,13,103,1050001,,,,,,,2024-11-28,1,,,,,デジットインクジャパン,0
1620,8010401186719,新規,0,2024-11-28,2024-11-28,株式会社Ｒａｂｂｉｔｌｙ,,株式会社,東京都,港区,新橋１丁目１８－２１第一日比谷ビル７０３,,13,103,1050004,,,,,,,2024-11-28,1,,,,,ラビットリー,0
1622,8010405023785,新規,0,2024-11-28,2024-11-28,一般社団法人ＴＳＭ　ＳＨＤ４,,その他の設立登記法人,東京都,港区,元赤坂１丁目１番７号,,13,103,1070051,,,,,,,2024-11-28,1,,,,,ティーエスエムエスエイチディーヨン,0
1623,8010405023835,新規,0,2024-11-28,2024-11-28,一般社団法人アイアンブリッジ,,その他の設立登記法人,東京都,港区,六本木１丁目９番１０号アークヒルズ仙石山森タワー４０階,,13,103,1060032,,,,,,,2024-11-28,1,,,,,アイアンブリッジ,0
1625,8010501053273,新規,0,2024-11-28,2024-11-28,株式会社思川,,株式会社,東京都,台東区,台東３丁目１７－９ビアン御徒町８０５室,,13,106,1100016,,,,,,,2024-11-28,1,,,,,シセン,0
1629,8010703007473,新規,0,2024-11-28,2024-11-28,Ｍｏｍｏインターナショナル合同会社,,合同会社,東京都,品川区,大井１丁目２１番２号豊強ビル７階７０３号室,,13,109,1400014,,,,,,,2024-11-28,1,,,,,モモインターナショナル,0
1631,8010803005179,新規,0,2024-11-28,2024-11-28,合同会社エリセイラ,,合同会社,東京都,大田区,南馬込５丁目１１番１号ＴＯＫＹＯＳＨＡＲＥ西馬込１０５,,13,111,1430025,,,,,,,2024-11-28,1,,,,,エリセイラ,0
1635,8011001166053,新規,0,2024-11-28,2024-11-28,株式会社Ｃｏｆｆｅｕｉｌｌｅ,,株式会社,東京都,渋谷区,円山町５番５号,,13,113,1500044,,,,,,,2024-11-28,1,,,,,コフィーユ,0
1636,8011001166061,新規,0,2024-11-28,2024-11-28,琥珀バイオテクノロジーＣＸ２４株式会社,,株式会社,東京都,渋谷区,代々木１丁目３０番１４号,,13,113,1510053,,,,,,,2024-11-28,1,,,,,コハクバイオテクノロジーシーエックスニジュウヨン,0
1637,8011001166227,新規,0,2024-11-28,2024-11-28,株式会社東京鰻次郎,,株式会社,東京都,渋谷区,千駄ヶ谷３丁目５番１１号ＳＳＫビル１Ｆ,,13,113,1510051,,,,,,,2024-11-28,1,,,,,トウキョウマンジロウ,0
1638,8011001166251,新規,0,2024-11-28,2024-11-28,なんとかなれ株式会社,,株式会社,東京都,目黒区,柿の木坂１丁目２番７号,,13,110,1520022,,,,,,,2024-11-28,1,,,,,ナントカナレ,0
1645,8011405002366,新規,0,2024-11-28,2024-11-28,特定非営利活動法人知る・語る・考える・おとな舎,,その他の設立登記法人,東京都,板橋区,前野町２丁目１６番１－２０８号,,13,119,1740063,,,,,,,2024-11-28,1,,,,,シルカタルカンガエルオトナシャ,0
1649,8011503006310,新規,0,2024-11-28,2024-11-28,合同会社チョイス,,合同会社,東京都,北区,赤羽南１丁目５番７号,,13,117,1150044,,,,,,,2024-11-28,1,,,,,チョイス,0
1650,8011701027851,新規,0,2024-11-28,2024-11-28,康美株式会社,,株式会社,東京都,江戸川区,南小岩３丁目１－１４プランドールＭ１１９室,,13,123,1330056,,,,,,,2024-11-28,1,,,,,コウミ,0
1655,8012403006854,新規,0,2024-11-28,2024-11-28,合同会社イワオ企画,,合同会社,東京都,多摩市,唐木田１丁目４６番地の６,,13,224,2060035,,,,,,,2024-11-28,1,,,,,イワオキカク,0
1659,8013301053435,新規,0,2024-11-28,2024-11-28,株式会社Ａａｌ　ｉｚｚ　ｗｅｌｌ,,株式会社,東京都,豊島区,目白５丁目２９－８フルージュ目白２０１,,13,116,1710031,,,,,,,2024-11-28,1,,,,,オールイズウエル,0
1675,8021002074270,新規,0,2024-11-28,2024-11-28,有限会社いずや木工製作所,,有限会社,神奈川県,小田原市,早川３丁目２２番地の８,,14,206,2500021,,,,,,,2024-11-28,1,,,,,イズヤモッコウセイサクショ,0
1676,8021003015273,新規,0,2024-11-28,2024-11-28,ＳＨＡＮ　ＴＲＡＤＩＮＧ合同会社,,合同会社,神奈川県,厚木市,上荻野７５１－２,,14,212,2430201,,,,,,,2024-11-28,1,,,,,シャントレーディング,0
1685,8030001163637,新規,0,2024-11-28,2024-11-28,ＫＡＦＵＵ株式会社,,株式会社,埼玉県,越谷市,南町１丁目２１番５号,,11,222,3430832,,,,,,,2024-11-28,1,,,,,カフー,0
1686,8030001163645,新規,0,2024-11-28,2024-11-28,株式会社マミヤハウジング,,株式会社,埼玉県,さいたま市西区,プラザ１０５番６号,,11,101,3310063,,,,,,,2024-11-28,1,,,,,マミヤハウジング,0
1687,8030001163653,新規,0,2024-11-28,2024-11-28,株式会社ｔｅｍ　ｔｈｉｉ,,株式会社,埼玉県,越谷市,大字平方１２８５番地２,,11,222,3430002,,,,,,,2024-11-28,1,,,,,テムティー,0
1694,8030005021948,新規,0,2024-11-28,2024-11-28,ＮＰＯ法人プロギングクラブ,,その他の設立登記法人,埼玉県,三郷市,早稲田８丁目３０番地５,,11,237,3410018,,,,,,,2024-11-28,1,,,,,プロギングクラブ,0
1697,8040001136328,新規,0,2024-11-28,2024-11-28,株式会社ＶＡＲＩＡ．,,株式会社,千葉県,匝瑳市,上谷中１８４２番地１７,,12,235,2892114,,,,,,,2024-11-28,1,,,,,ヴァリアー,0
1698,8040001136336,新規,0,2024-11-28,2024-11-28,ボーソン株式会社,,株式会社,千葉県,千葉市緑区,あすみが丘４丁目５番地１９,,12,105,2670066,,,,,,,2024-11-28,1,,,,,ボーソン,0
1699,8040001136344,新規,0,2024-11-28,2024-11-28,株式会社Ｉ　ｒｕｓｈ,,株式会社,千葉県,浦安市,明海３丁目２－７－１０４海園の街,,12,227,2790014,,,,,,,2024-11-28,1,,,,,アイラッシュ,0
1700,8040001136360,新規,0,2024-11-28,2024-11-28,ＳＣテック株式会社,,株式会社,千葉県,野田市,山崎２０５６番地の１０,,12,208,2780022,,,,,,,2024-11-28,1,,,,,エスシーテック,0
1705,8050001055774,新規,0,2024-11-28,2024-11-28,ウェルユー・フード株式会社,,株式会社,茨城県,土浦市,東真鍋町１番８号,,08,203,3000052,,,,,,,2024-11-28,1,,,,,ウェルユーフード,0
1706,8050001055790,新規,0,2024-11-28,2024-11-28,株式会社百式ファーム,,株式会社,茨城県,取手市,東４丁目４番２４号,,08,217,3020005,,,,,,,2024-11-28,1,,,,,ヒャクシキファーム,0
1716,8080101025162,新規,0,2024-11-28,2024-11-28,株式会社駿東ドリームビレッジ,,株式会社,静岡県,駿東郡清水町,堂庭８９番地の５,,22,341,4110903,,,,,,,2024-11-28,1,,,,,スントウドリームビレッジ,0
1719,8080403005143,新規,0,2024-11-28,2024-11-28,Ｃｉ　ｉｒｏ合同会社,,合同会社,静岡県,菊川市,下平川５１６８－１,,22,224,4371514,,,,,,,2024-11-28,1,,,,,チイロ,0
1723,8090001019024,新規,0,2024-11-28,2024-11-28,株式会社ＢＥＬＬＥＤＩＴＥ,,株式会社,山梨県,南都留郡富士河口湖町,船津３１０９番地メゾンフジＢ２０４,,19,430,4010301,,,,,,,2024-11-28,1,,,,,ベルディーテ,0
1731,8120001270572,新規,0,2024-11-28,2024-11-28,寰宇株式会社,,株式会社,大阪府,大阪市中央区,南本町３丁目３番２２号ＷＥＡＶＥＨＯＮＭＡＣＨＩ３０２号,,27,128,5410054,,,,,,,2024-11-28,1,,,,,カンウ,0
1732,8120001270580,新規,0,2024-11-28,2024-11-28,Ｔａｋａｈｉｋｏ株式会社,,株式会社,大阪府,大阪市北区,本庄西１丁目１番７号シティタワー梅田東１９０２号,,27,127,5310073,,,,,,,2024-11-28,1,,,,,タカヒコ,0
1733,8120001270639,新規,0,2024-11-28,2024-11-28,株式会社ＦＩＥＬＤ　ＮＩＮＥ,,株式会社,大阪府,大阪市西区,阿波座１丁目１２番１７号１３階,,27,106,5500011,,,,,,,2024-11-28,1,,,,,フィールドナイン,0
1734,8120001270647,新規,0,2024-11-28,2024-11-28,ＹＣ未来株式会社,,株式会社,大阪府,大阪市中央区,島之内１丁目２２番２３号堺筋山忠ビル３階３０２,,27,128,5420082,,,,,,,2024-11-28,1,,,,,ワイシーミライ,0
1739,8120003028060,新規,0,2024-11-28,2024-11-28,合同会社ＶＥＲＴＥＸ,,合同会社,大阪府,大阪市北区,梅田１丁目１－３大阪駅前第３ビル２９階１－１－１号室,,27,127,5300001,,,,,,,2024-11-28,1,,,,,バーテックス,0
1746,8120103006164,新規,0,2024-11-28,2024-11-28,合同会社いちご,,合同会社,大阪府,富田林市,錦織北３丁目５－７,,27,214,5840066,,,,,,,2024-11-28,1,,,,,イチゴ,0
1747,8120901050090,新規,0,2024-11-28,2024-11-28,株式会社ＮＤＹ,,株式会社,大阪府,豊中市,中桜塚１丁目１６番１５号,,27,203,5610881,,,,,,,2024-11-28,1,,,,,エヌディーワイ,0
1755,8140001136557,新規,0,2024-11-28,2024-11-28,株式会社ＧＯ　ＥＩＧＨＴ,,株式会社,兵庫県,神戸市東灘区,御影塚町２丁目２５番２３－４０１号,,28,101,6580044,,,,,,,2024-11-28,1,,,,,ゴーエイト,0
1771,8180001164331,新規,0,2024-11-28,2024-11-28,株式会社百鬼,,株式会社,愛知県,一宮市,妙興寺１丁目６番２８号－１０４,,23,203,4910921,,,,,,,2024-11-28,1,,,,,ナキリ,0
1772,8180001164348,新規,0,2024-11-28,2024-11-28,株式会社竹内興業,,株式会社,愛知県,知多郡武豊町,大字冨貴字市場８１番地１サンライズＩＩ１０１号,00137159,23,447,4702531,,,,,,,2024-11-28,1,,,,,タケウチコウギョウ,0
1773,8180001164372,新規,0,2024-11-28,2024-11-28,山崎ホールディングス株式会社,,株式会社,愛知県,名古屋市南区,丹後通１丁目１番地の１０,,23,112,4570801,,,,,,,2024-11-28,1,,,,,ヤマザキホールディングス,0
1777,8180301039274,新規,0,2024-11-28,2024-11-28,株式会社マーズトレーディング,,株式会社,愛知県,碧南市,石橋町５丁目９０番地,,23,209,4470858,,,,,,,2024-11-28,1,,,,,マーズトレーディング,0
1789,8290001107840,新規,0,2024-11-28,2024-11-28,株式会社ＡＩ　ＮＡＴＩＯＮ,,株式会社,福岡県,福岡市中央区,荒戸２丁目４－２０－８０２,,40,133,8100062,,,,,,,2024-11-28,1,,,,,エーアイネイション,0
1790,8290001108095,新規,0,2024-11-28,2024-11-28,株式会社富澤工業,,株式会社,福岡県,嘉穂郡桂川町,大字土師３７５２番地１,,40,421,8200607,,,,,,,2024-11-28,1,,,,,トミザワコウギョウ,0
1791,8290001108129,新規,0,2024-11-28,2024-11-28,株式会社益田屋建設,,株式会社,福岡県,柳川市,中町１５番地３,,40,207,8320012,,,,,,,2024-11-28,1,,,,,マスダヤケンセツ,0
1794,8290003016115,新規,0,2024-11-28,2024-11-28,合同会社ｔｉｎｏ,,合同会社,福岡県,福岡市中央区,天神３丁目６番１６号,,40,133,8100001,,,,,,,2024-11-28,1,,,,,ティノ,0
1795,8290003016123,新規,0,2024-11-28,2024-11-28,合同会社アイク,,合同会社,福岡県,福岡市東区,箱崎３丁目２１番４－１０２号,,40,131,8120053,,,,,,,2024-11-28,1,,,,,アイク,0
1796,8310001019331,新規,0,2024-11-28,2024-11-28,Ｅｎａｇｉｃ株式会社,,株式会社,長崎県,長崎市,油屋町１－１　１Ｆ,,42,201,8500832,,,,,,,2024-11-28,1,,,,,エナジック,0
1811,8360001034490,新規,0,2024-11-28,2024-11-28,株式会社もちもちメディカル,,株式会社,沖縄県,浦添市,字経塚４８７番地８,,47,208,9012111,,,,,,,2024-11-28,1,,,,,モチモチメディカル,0
1831,8400003003349,新規,0,2024-11-28,2024-11-28,合同会社Ｔｓｅｎｓｅ,,合同会社,岩手県,遠野市,穀町３番２号,,03,208,0280516,,,,,,,2024-11-28,1,,,,,ティーセンス,0
1832,8410003004008,新規,0,2024-11-28,2024-11-28,合同会社キンギョ,,合同会社,秋田県,大仙市,大曲丸の内町６番４号,,05,212,0140026,,,,,,,2024-11-28,1,,,,,キンギョ,0
1835,8430001093158,新規,0,2024-11-28,2024-11-28,株式会社ＷＪクリエイティブ,,株式会社,北海道,札幌市西区,発寒九条１３丁目１１－１３,,01,107,0630829,,,,,,,2024-11-28,1,,,,,ダブルジェイクリエイティブ,0
1837,8462501001019,新規,0,2024-11-28,2024-11-28,株式会社ＵＢＵＮＤ,,株式会社,北海道,標津郡中標津町,西八条南１１丁目１番地９,,01,692,0861108,,,,,,,2024-11-28,1,,,,,ウブンド,0
1848,9010001250106,新規,0,2024-11-28,2024-11-28,ＡＺＡＩＮＯ株式会社,,株式会社,東京都,千代田区,丸の内３丁目２番３号丸の内二重橋ビル２階,,13,101,1000005,,,,,,,2024-11-28,1,,,,,アザイノ,0
1849,9010001250155,新規,0,2024-11-28,2024-11-28,株式会社アダプトレンド,,株式会社,東京都,中央区,銀座７丁目１３番６号サガミビル２階,,13,102,1040061,,,,,,,2024-11-28,1,,,,,アダプトレンド,0
1850,9010001250287,新規,0,2024-11-28,2024-11-28,スターアカウンティングパートナーズ株式会社,,株式会社,東京都,中央区,銀座１丁目１２番４号Ｎ＆ＥＢＬＤ．６Ｆ,,13,102,1040061,,,,,,,2024-11-28,1,,,,,スターアカウティングパートナーズ,0
1861,9010401186684,新規,0,2024-11-28,2024-11-28,株式会社Ｃ　ＡＮＤ,,株式会社,東京都,港区,南青山５丁目１２番２４－６０６号,,13,103,1070062,,,,,,,2024-11-28,1,,,,,シーアンド,0
1862,9010401186692,新規,0,2024-11-28,2024-11-28,カントビホールディングス株式会社,,株式会社,東京都,港区,西新橋２丁目８番６号,,13,103,1050003,,,,,,,2024-11-28,1,,,,,カントビホールディングス,0
1865,9010405023784,新規,0,2024-11-28,2024-11-28,一般社団法人ＴＳＭ　ＳＨＤ３,,その他の設立登記法人,東京都,港区,元赤坂１丁目１番７号,,13,103,1070051,,,,,,,2024-11-28,1,,,,,ティーエスエムエスエイチディーサン,0
1867,9010501053272,新規,0,2024-11-28,2024-11-28,株式会社住建建設,,株式会社,東京都,台東区,東上野３丁目２８番４－７０５号,,13,106,1100015,,,,,,,2024-11-28,1,,,,,ジュウケンケンセツ,0
1870,9010601066372,新規,0,2024-11-28,2024-11-28,株式会社Ｔ’ｓトラスト,,株式会社,東京都,江東区,東雲１丁目９番３２－２７０７号,,13,108,1350062,,,,,,,2024-11-28,1,,,,,ティーズトラスト,0
1875,9010701046893,新規,0,2024-11-28,2024-11-28,株式会社ＯＲＡＮＳ,,株式会社,東京都,品川区,上大崎３丁目１番２号,,13,109,1410021,,,,,,,2024-11-28,1,,,,,オランス,0
1882,9011001166011,新規,0,2024-11-28,2024-11-28,株式会社ｆｅｅｌ,,株式会社,東京都,渋谷区,本町１丁目５０－１１,,13,113,1510071,,,,,,,2024-11-28,1,,,,,フィール,0
1883,9011001166052,新規,0,2024-11-28,2024-11-28,Ｌｕｎａｂｌｕ株式会社,,株式会社,東京都,渋谷区,神南１丁目１１－４ＦＰＧリンクス神南５階,,13,113,1500041,,,,,,,2024-11-28,1,,,,,ルナブル,0
1884,9011001166176,新規,0,2024-11-28,2024-11-28,株式会社ＰＥＡＣＨＥＳ　ＧＲＯＵＰ　ＪＡＰＡＮ,,株式会社,東京都,渋谷区,東２丁目１７番９号ＪＰ－ＢＡＳＥ渋谷１階,,13,113,1500011,,,,,,,2024-11-28,1,,,,,ピーチーズグループジャパン,0
1885,9011001166226,新規,0,2024-11-28,2024-11-28,株式会社Ｆａｍｉｔｉｅ’ｓＣｏｒｐｏｒａｔｉｏｎ,,株式会社,東京都,目黒区,柿の木坂１丁目１番１４号,,13,110,1520022,,,,,,,2024-11-28,1,,,,,ファミタイズコーポレーション,0
1893,9011101109761,新規,0,2024-11-28,2024-11-28,三澤株式会社,,株式会社,東京都,新宿区,新宿１丁目２４番７号７１６室,,13,104,1600022,,,,,,,2024-11-28,1,,,,,ミサワ,0
1894,9011103015231,新規,0,2024-11-28,2024-11-28,オクトピクス合同会社,,合同会社,東京都,新宿区,西新宿３丁目３番１３号西新宿水間ビル２Ｆ,,13,104,1600023,,,,,,,2024-11-28,1,,,,,オクトピクス,0
1897,9011501031417,新規,0,2024-11-28,2024-11-28,株式会社ＧＭ,,株式会社,東京都,北区,赤羽１丁目７番９号赤羽第一葉山ビル４Ｆ,,13,117,1150045,,,,,,,2024-11-28,1,,,,,ジーエム,0
1898,9011601028239,新規,0,2024-11-28,2024-11-28,株式会社ＣＨＵＪＯ,,株式会社,東京都,練馬区,東大泉３丁目４０番２号,,13,120,1780063,,,,,,,2024-11-28,1,,,,,チュウジョ,0
1899,9011701027867,新規,0,2024-11-28,2024-11-28,金輝株式会社,,株式会社,東京都,江戸川区,南小岩３丁目１－１４－１１３号室,,13,123,1330056,,,,,,,2024-11-28,1,,,,,キンキ,0
1901,9012401042520,新規,0,2024-11-28,2024-11-28,ゲートミドルウェア株式会社,,株式会社,東京都,府中市,府中町１丁目２９番地の９－２階,,13,206,1830055,,,,,,,2024-11-28,1,,,,,ゲートミドルウェア,0
1907,9013303007405,新規,0,2024-11-28,2024-11-28,和一合同会社,,合同会社,東京都,豊島区,東池袋４丁目３番１５－７０３号,,13,116,1700013,,,,,,,2024-11-28,1,,,,,ワイチ,0
1913,9020003027336,新規,0,2024-11-28,2024-11-28,合同会社ＡｏｂａＴｒｅｅ,,合同会社,神奈川県,横浜市青葉区,寺家町５２２寺屋ふるさと村,,14,117,2270031,,,,,,,2024-11-28,1,,,,,アオバツリー,0
1924,9030001163628,新規,0,2024-11-28,2024-11-28,株式会社ドリーム企画,,株式会社,埼玉県,富士見市,水谷東３丁目４７番２２号,,11,235,3540013,,,,,,,2024-11-28,1,,,,,ドリームキカク,0
1925,9030001163652,新規,0,2024-11-28,2024-11-28,株式会社Ｔｗｏ　Ｈｅａｒｔｓ,,株式会社,埼玉県,入間市,久保稲荷１丁目８番地１,,11,225,3580024,,,,,,,2024-11-28,1,,,,,ツーハーツ,0
1926,9030001163660,新規,0,2024-11-28,2024-11-28,株式会社ｉＮＥＫＯ,,株式会社,埼玉県,和光市,新倉１丁目４番１８号マインハイム和光２０２,,11,229,3510115,,,,,,,2024-11-28,1,,,,,アイネコ,0
1933,9030003025578,新規,0,2024-11-28,2024-11-28,Ｐ・Ｎ・Ｙ合同会社,,合同会社,埼玉県,川口市,南町２丁目８番２１号福美荘２０１号室,,11,203,3320026,,,,,,,2024-11-28,1,,,,,ピーエヌワイ,0
1938,9040001136343,新規,0,2024-11-28,2024-11-28,大日中国物産株式会社,,株式会社,千葉県,四街道市,大日３２５番地８・２階,,12,228,2840001,,,,,,,2024-11-28,1,,,,,ダイニチチュウゴクブッサン,0
1942,9040003026278,新規,0,2024-11-28,2024-11-28,合同会社立花土建,,合同会社,千葉県,香取市,返田５６４番地１,,12,236,2870027,,,,,,,2024-11-28,1,,,,,タチバナドケン,0
1949,9050001055765,新規,0,2024-11-28,2024-11-28,株式会社ＨＩＫＡＲＩ,,株式会社,茨城県,土浦市,天川１丁目２２－５,,08,203,3000818,,,,,,,2024-11-28,1,,,,,ヒカリ,0
1950,9050001055773,新規,0,2024-11-28,2024-11-28,株式会社ハンムラ青果,,株式会社,茨城県,猿島郡境町,大字山崎３２９番地１,,08,546,3060413,,,,,,,2024-11-28,1,,,,,ハンムラセイカ,0
1951,9050001055798,新規,0,2024-11-28,2024-11-28,株式会社ｌｉｌｌｙ,,株式会社,茨城県,つくば市,竹園１丁目５－３エスペリアつくば竹園９０１,,08,220,3050032,,,,,,,2024-11-28,1,,,,,リリィ,0
1953,9050003008829,新規,0,2024-11-28,2024-11-28,Ｑａｉｓｅｒ　Ｔｒａｄｉｎｇ合同会社,,合同会社,茨城県,坂東市,幸田字南開１９１６番１,,08,228,3060606,,,,,,,2024-11-28,1,,,,,カイザルトレーディング,0
1954,9050003008845,新規,0,2024-11-28,2024-11-28,合同会社ＫＡＯＢＩ,,合同会社,茨城県,古河市,横山町１丁目１３番１５号,,08,204,3060022,,,,,,,2024-11-28,1,,,,,カオビ,0
1960,9070003005675,新規,0,2024-11-28,2024-11-28,合同会社サムライ武警,,合同会社,群馬県,前橋市,本町１丁目１３番１４号第一太陽ビル１Ｆ南,,10,201,3710023,,,,,,,2024-11-28,1,,,,,サムライブケイ,0
1962,9080101025161,新規,0,2024-11-28,2024-11-28,株式会社富士ドリームビレッジ,,株式会社,静岡県,富士市,伝法２４５０番地の１５,,22,210,4170061,,,,,,,2024-11-28,1,,,,,フジドリームビレッジ,0
1972,9100003007890,新規,0,2024-11-28,2024-11-28,合同会社寿ぎ商店,,合同会社,長野県,松本市,梓川梓１１３３番地１,,20,202,3901702,,,,,,,2024-11-28,1,,,,,コトホギショウテン,0
1974,9110003005588,新規,0,2024-11-28,2024-11-28,合同会社ＲＩＳＥ,,合同会社,新潟県,新潟市北区,早通北２丁目６番５号１,,15,101,9503376,,,,,,,2024-11-28,1,,,,,ライズ,0
1986,9120001270398,新規,0,2024-11-28,2024-11-28,株式会社Ｅｎｇｉｎｅ,,株式会社,大阪府,交野市,倉治５丁目１３番２９号,,27,230,5760051,,,,,,,2024-11-28,1,,,,,エンジン,0
1987,9120001270530,新規,0,2024-11-28,2024-11-28,株式会社ＧＹＷ,,株式会社,大阪府,大阪市西成区,天下茶屋北１丁目２番２５号,,27,122,5570003,,,,,,,2024-11-28,1,,,,,ジーワイダブリュ,0
1988,9120001270571,新規,0,2024-11-28,2024-11-28,風林火山株式会社,,株式会社,大阪府,大阪市東淀川区,瑞光１丁目５番１８号,,27,114,5330005,,,,,,,2024-11-28,1,,,,,フウリンカザン,0
1989,9120001270613,新規,0,2024-11-28,2024-11-28,はなまる株式会社,,株式会社,大阪府,大阪市都島区,東野田町５丁目１５番３号,,27,102,5340024,,,,,,,2024-11-28,1,,,,,ハナマル,0
1990,9120001270654,新規,0,2024-11-28,2024-11-28,株式会社三興不動産,,株式会社,大阪府,大阪市北区,堂島２丁目１番２５－１０２号,,27,127,5300003,,,,,,,2024-11-28,1,,,,,サンコウフドウサン,0
1991,9120001270704,新規,0,2024-11-28,2024-11-28,馭徳能源株式会社,,株式会社,大阪府,大阪市西成区,萩之茶屋２丁目８－３－３１１号室,,27,122,5570004,,,,,,,2024-11-28,1,,,,,ギョトクノウゲン,0
1994,9120003028051,新規,0,2024-11-28,2024-11-28,合同会社Ａ．Ｃｏｎｎｅｃｔｉｏｎｓ,,合同会社,大阪府,大阪市住之江区,東加賀屋４丁目４番７号,,27,125,5590012,,,,,,,2024-11-28,1,,,,,エーコネクションズ,0
1996,9120101070673,新規,0,2024-11-28,2024-11-28,星輝国際株式会社,,株式会社,大阪府,堺市堺区,南半町東１丁２番２０号,,27,141,5900966,,,,,,,2024-11-28,1,,,,,セイキコクサイ,0
2002,9130003010041,新規,0,2024-11-28,2024-11-28,クリサンティモ合同会社,,合同会社,京都府,京都市左京区,南禅寺草川町３８番地１マジェス京都岡崎３０１号室,,26,103,6068437,,,,,,,2024-11-28,1,,,,,クリサンティモ,0
2005,9140001136572,新規,0,2024-11-28,2024-11-28,白井工業株式会社,,株式会社,兵庫県,姫路市,継３３２番地１,,28,201,6728004,,,,,,,2024-11-28,1,,,,,シライコウギョウ,0
2007,9140005027289,新規,0,2024-11-28,2024-11-28,一般社団法人ハリマフットボール協会,,その他の設立登記法人,兵庫県,加古川市,加古川町北在家２７２３番地センタービル２階,,28,210,6750031,,,,,,,2024-11-28,1,,,,,ハリマフットボールキョウカイ,0
2009,9150003003423,新規,0,2024-11-28,2024-11-28,合同会社てち,,合同会社,奈良県,宇陀市,室生１１４４,,29,212,6330421,,,,,,,2024-11-28,1,,,,,テチ,0
2010,9160001026375,新規,0,2024-11-28,2024-11-28,株式会社七福建工,,株式会社,滋賀県,野洲市,妙光寺２２０番地１,,25,210,5202332,,,,,,,2024-11-28,1,,,,,シチフクケンコウ,0
2012,9170001018396,新規,0,2024-11-28,2024-11-28,株式会社ＮＥＸＴ　ＰＬＡＮ,,株式会社,和歌山県,御坊市,藤田町吉田３３６番地３,,30,205,6491342,,,,,,,2024-11-28,1,,,,,ネクストプラン,0
2015,9180001164347,新規,0,2024-11-28,2024-11-28,株式会社ワンモア,,株式会社,愛知県,名古屋市中川区,宮脇町１丁目１８番地,,23,110,4540842,,,,,,,2024-11-28,1,,,,,ワンモア,0
2024,9180301039273,新規,0,2024-11-28,2024-11-28,株式会社ローブソリューション,,株式会社,愛知県,岡崎市,羽根町字池下５４番地３,,23,202,4440813,,,,,,,2024-11-28,1,,,,,ローブソリューション,0
2025,9180303006354,新規,0,2024-11-28,2024-11-28,合同会社Ｃａｌｍ,,合同会社,愛知県,岡崎市,小美町字久後畑２６番地,,23,202,4440003,,,,,,,2024-11-28,1,,,,,カーム,0
2027,9210001019984,新規,0,2024-11-28,2024-11-28,株式会社デバイスリンク,,株式会社,福井県,福井市,成和２丁目１１１８番地２,,18,201,9188239,,,,,,,2024-11-28,1,,,,,デバイスリンク,0
2028,9220001026360,新規,0,2024-11-28,2024-11-28,株式会社中の,,株式会社,石川県,白山市,田中町１０１番地,,17,210,9240801,,,,,,,2024-11-28,1,,,,,ナカノ,0
2034,9240005015861,新規,0,2024-11-28,2024-11-28,弁護士法人晴星法律事務所,,その他の設立登記法人,広島県,広島市中区,上八丁堀７番７Ｈ＆Ａ八丁堀ビル３０１号室,,34,101,7300012,,,,,,,2024-11-28,1,,,,,ハレボシホウリツジムショ,0
2038,9270003001687,新規,0,2024-11-28,2024-11-28,日本海エナジー合同会社,,合同会社,鳥取県,鳥取市,吉成２丁目１４番２１号,,31,201,6800864,,,,,,,2024-11-28,1,,,,,ニホンカイエナジー,0
2046,9290003016130,新規,0,2024-11-28,2024-11-28,合同会社コネクトライフ不動産,,合同会社,福岡県,糸島市,福吉２丁目１５番１１号,,40,230,8191643,,,,,,,2024-11-28,1,,,,,コネクトライフフドウサン,0
2047,9290801031074,新規,0,2024-11-28,2024-11-28,ＫＯＹＯ　ｉｎｃ．株式会社,,株式会社,福岡県,北九州市門司区,大里東４丁目７番２４号,,40,101,8000022,,,,,,,2024-11-28,1,,,,,コウヨウインク,0
2050,9310001019339,新規,0,2024-11-28,2024-11-28,株式会社ＲＥＦＵＳＥＣＡＲＥ,,株式会社,長崎県,佐世保市,木風町１４６９番地７,,42,202,8571166,,,,,,,2024-11-28,1,,,,,リフューズケア,0
2054,9320001020816,新規,0,2024-11-28,2024-11-28,アポロ商事株式会社,,株式会社,大分県,別府市,亀川四の湯町７番１８号,,44,202,8740025,,,,,,,2024-11-28,1,,,,,,0
2055,9320001020832,新規,0,2024-11-28,2024-11-28,株式会社ＫＵＵＳＯＯＦＩＬＭ,,株式会社,大分県,大分市,中春日町１２番３０号エクセル中春日ビル３０６,,44,201,8700039,,,,,,,2024-11-28,1,,,,,クウソウフィルム,0
2057,9330001032694,新規,0,2024-11-28,2024-11-28,天草ＢＳ企画株式会社,,株式会社,熊本県,熊本市中央区,中央街４－１０,,43,101,8600802,,,,,,,2024-11-28,1,,,,,アマクサビーエスキカク,0
2075,9430001093149,新規,0,2024-11-28,2024-11-28,株式会社ジョイコースター,,株式会社,北海道,江別市,大麻北町５２３番地の１１５,,01,217,0690861,,,,,,,2024-11-28,1,,,,,ジョイコースター,0
2076,9430001093157,新規,0,2024-11-28,2024-11-28,株式会社Ｄｅｇｒｏｗｔｈ　Ｊａｐａｎ,,株式会社,北海道,札幌市東区,北七条東５丁目８番地３９クリーンリバーフィネス札幌イーストスクエア９０１号,,01,103,0600907,,,,,,,2024-11-28,1,,,,,デグロースジャパン,0
