sequenceNumber,corporateNumber,process,correct,updateDate,changeDate,name,nameImageId,kind,prefectureName,cityName,streetNumber,addressImageId,prefectureCode,cityCode,postCode,addressOutside,addressOutsideImageId,closeDate,closeCause,successorCorporateNumber,changeCause,assignmentDate,latest,enName,enPrefectureName,enCityName,enAddressOutside,furigana,hihyoji
6,1010001245897,新規,0,2024-06-20,2024-06-20,株式会社ハンドオフ,,株式会社,東京都,中央区,銀座１丁目１２番４号Ｎ＆Ｅ．ＢＬＤ．７階,,13,102,1040061,,,,,,,2024-06-20,1,,,,,ハンドオフ,0
7,1010001245914,新規,0,2024-06-20,2024-06-20,株式会社ＮＯＹＡＭＡ,,株式会社,東京都,中央区,日本橋小舟町８－１３天翔オフィス４０５,,13,102,1030024,,,,,,,2024-06-20,1,,,,,ノヤマ,0
8,1010001245955,新規,0,2024-06-20,2024-06-20,株式会社恒業,,株式会社,東京都,中央区,月島１丁目５番１－４６０９号,,13,102,1040052,,,,,,,2024-06-20,1,,,,,コウギョウ,0
9,1010001245963,新規,0,2024-06-20,2024-06-20,株式会社Ｉｚｔｅｃｈ,,株式会社,東京都,中央区,銀座１丁目１２－４Ｎ＆ＥＢＬＤ．７階,,13,102,1040061,,,,,,,2024-06-20,1,,,,,イズテック,0
23,1010403032860,新規,0,2024-06-20,2024-06-20,合同会社玄海インドカーウエスト,,合同会社,東京都,港区,虎ノ門５丁目１番４号,,13,103,1050001,,,,,,,2024-06-20,1,,,,,ゲンカイインドカーウエスト,0
24,1010405023321,新規,0,2024-06-20,2024-06-20,一般社団法人マーチングデザイン青,,その他の設立登記法人,東京都,港区,北青山１丁目３番１号アールキューブ青山３階,,13,103,1070061,,,,,,,2024-06-20,1,,,,,マーチングデザインアオ,0
28,1010703007232,新規,0,2024-06-20,2024-06-20,合同会社なかむら,,合同会社,東京都,品川区,西五反田３丁目７番６号レジディアタワー目黒不動前２０１４,,13,109,1410031,,,,,,,2024-06-20,1,,,,,,0
30,1010801035168,新規,0,2024-06-20,2024-06-20,株式会社ＭＹトレーディング,,株式会社,東京都,大田区,大森西５丁目２９－１０メゾントレーズ１１０３,,13,111,1430015,,,,,,,2024-06-20,1,,,,,エムワイトレーディング,0
34,1011001162793,新規,0,2024-06-20,2024-06-20,株式会社ｅｓ,,株式会社,東京都,渋谷区,神宮前６丁目２３番４号桑野ビル２階,,13,113,1500001,,,,,,,2024-06-20,1,,,,,エス,0
35,1011001162810,新規,0,2024-06-20,2024-06-20,株式会社ｄｉｖキャリア,,株式会社,東京都,渋谷区,円山町１９番１号渋谷プライムプラザ１２階,,13,113,1500044,,,,,,,2024-06-20,1,,,,,ディブキャリア,0
36,1011001162827,新規,0,2024-06-20,2024-06-20,株式会社クローバー,,株式会社,東京都,渋谷区,東３丁目１７番１７号メルベイユ恵比寿６０２,,13,113,1500011,,,,,,,2024-06-20,1,,,,,クローバー,0
39,1011003019397,新規,0,2024-06-20,2024-06-20,合同会社宮月,,合同会社,東京都,渋谷区,渋谷２丁目１９－１５宮益坂ビルディング６０９,,13,113,1500002,,,,,,,2024-06-20,1,,,,,キョウゲツ,0
40,1011003019406,新規,0,2024-06-20,2024-06-20,ｏｍｕｓｕｂｉ．合同会社,,合同会社,東京都,渋谷区,道玄坂１丁目１０番８号渋谷道玄坂東急ビル２Ｆ－Ｃ,,13,113,1500043,,,,,,,2024-06-20,1,,,,,オムスビドット,0
43,1011101107764,新規,0,2024-06-20,2024-06-20,株式会社ａｄｓｏｕｒｃｅ,,株式会社,東京都,新宿区,西新宿３丁目３番１３号西新宿水間ビル６階,,13,104,1600023,,,,,,,2024-06-20,1,,,,,アドソース,0
44,1011103014587,新規,0,2024-06-20,2024-06-20,合同会社ＭａｄｅＭｏ,,合同会社,東京都,新宿区,西新宿３丁目３番１３号西新宿水間ビル２Ｆ,,13,104,1600023,,,,,,,2024-06-20,1,,,,,マデモ,0
51,1011703003881,新規,0,2024-06-20,2024-06-20,合同会社ＭＮＧ経営研究所,,合同会社,東京都,江戸川区,東小岩６丁目３０番６－２０４号ライオンズガーデン小岩,,13,123,1330052,,,,,,,2024-06-20,1,,,,,エムエヌジーケイエイケンキュウジョ,0
53,1011801044407,新規,0,2024-06-20,2024-06-20,株式会社ＺＥＲＯ,,株式会社,東京都,足立区,六町４丁目８番８号,,13,121,1210073,,,,,,,2024-06-20,1,,,,,ゼロ,0
70,1020001157786,新規,0,2024-06-20,2024-06-20,ＭＳビューティーサポート株式会社,,株式会社,神奈川県,横浜市中区,北方町１丁目２３番地１,,14,104,2310865,,,,,,,2024-06-20,1,,,,,エムエスビューティーサポート,0
71,1020001157852,新規,0,2024-06-20,2024-06-20,グラレディースタイル株式会社,,株式会社,神奈川県,横浜市戸塚区,東俣野町１０３１番地８,,14,110,2450065,,,,,,,2024-06-20,1,,,,,グラレディースタイル,0
72,1020001157869,新規,0,2024-06-20,2024-06-20,株式会社ビルドアップ,,株式会社,神奈川県,横浜市旭区,四季美台３８番地２７,,14,112,2410025,,,,,,,2024-06-20,1,,,,,ビルドアップ,0
73,1020003026394,新規,0,2024-06-20,2024-06-20,ＫＯＮＵ合同会社,,合同会社,神奈川県,横浜市栄区,小菅ケ谷１丁目５番２－１３２６号,,14,115,2470007,,,,,,,2024-06-20,1,,,,,コンユウ,0
77,1021001082529,新規,0,2024-06-20,2024-06-20,アトラクトリンク株式会社,,株式会社,神奈川県,厚木市,上荻野８２５番地７,,14,212,2430201,,,,,,,2024-06-20,1,,,,,アトラクトリンク,0
81,1030001160962,新規,0,2024-06-20,2024-06-20,株式会社ＡＳＡＨ,,株式会社,埼玉県,所沢市,東町１１－１グラシスタワー所沢５０６,,11,208,3591116,,,,,,,2024-06-20,1,,,,,アサ,0
82,1030001161011,新規,0,2024-06-20,2024-06-20,株式会社萌生堂,,株式会社,埼玉県,坂戸市,南町８－１０ヴァンテアンビル２０２号室,,11,239,3500233,,,,,,,2024-06-20,1,,,,,ホウセイドウ,0
83,1030001161036,新規,0,2024-06-20,2024-06-20,ともてらす株式会社,,株式会社,埼玉県,川口市,元郷２丁目２番６－３１５号,,11,203,3320011,,,,,,,2024-06-20,1,,,,,トモテラス,0
84,1030001161052,新規,0,2024-06-20,2024-06-20,株式会社グランワイズオペレーション熊谷駅前,,株式会社,埼玉県,熊谷市,桜木町１丁目７７番地,,11,202,3600036,,,,,,,2024-06-20,1,,,,,グランワイズオペレーションクマガヤエキマエ,0
94,1040001134123,新規,0,2024-06-20,2024-06-20,株式会社ＳＮＰＬ,,株式会社,千葉県,佐倉市,下志津１０２９番地６,,12,212,2850841,,,,,,,2024-06-20,1,,,,,サンプラ,0
95,1040001134131,新規,0,2024-06-20,2024-06-20,株式会社生姜工房,,株式会社,千葉県,成田市,飯仲４５番地,,12,211,2860046,,,,,,,2024-06-20,1,,,,,ショウガコウボウ,0
101,1060003005122,新規,0,2024-06-20,2024-06-20,ショウウン合同会社,,合同会社,栃木県,宇都宮市,松風台１２００番３５号,,09,201,3210413,,,,,,,2024-06-20,1,,,,,ショウウン,0
106,1070003005468,新規,0,2024-06-20,2024-06-20,合同会社清水動物病院,,合同会社,群馬県,邑楽郡明和町,南大島７２番地３,,10,522,3700701,,,,,,,2024-06-20,1,,,,,シミズドウブツビョウイン,0
108,1080003003231,新規,0,2024-06-20,2024-06-20,合同会社Ｎｏ．１０,,合同会社,静岡県,藤枝市,田沼１丁目２４番８号２階,,22,214,4260061,,,,,,,2024-06-20,1,,,,,ナンバーテン,0
137,1120001265777,新規,0,2024-06-20,2024-06-20,株式会社ミヤギ商会,,株式会社,大阪府,大阪市中央区,平野町３丁目１番２号,,27,128,5410046,,,,,,,2024-06-20,1,,,,,ミヤギショウカイ,0
138,1120001266008,新規,0,2024-06-20,2024-06-20,星澄株式会社,,株式会社,大阪府,大阪市中央区,千日前１丁目５－１９寿楽ビル１００４号室,,27,128,5420074,,,,,,,2024-06-20,1,,,,,ホズミ,0
139,1120001266073,新規,0,2024-06-20,2024-06-20,大道株式会社,,株式会社,大阪府,守口市,藤田町５丁目３５番１－３０３号,,27,209,5700014,,,,,,,2024-06-20,1,,,,,オオミチ,0
140,1120001266123,新規,0,2024-06-20,2024-06-20,進階株式会社,,株式会社,大阪府,大阪市東住吉区,田辺４丁目１９番５－４０２号,,27,121,5460031,,,,,,,2024-06-20,1,,,,,シンカイ,0
141,1120001266131,新規,0,2024-06-20,2024-06-20,ニューワールド株式会社,,株式会社,大阪府,大阪市生野区,巽中２丁目１３番１５号タツミビル西２０１,00135250,27,116,5440013,,,,,,,2024-06-20,1,,,,,ニューワールド,0
146,1120101069814,新規,0,2024-06-20,2024-06-20,株式会社ＨＡＮＩＦ　ＤＡＤ　ＴＲＡＤＩＮＧ,,株式会社,大阪府,和泉市,浦田町２３３番地の１－３０３号,,27,219,5941103,,,,,,,2024-06-20,1,,,,,ハニフダードトレーディング,0
149,1120903005231,新規,0,2024-06-20,2024-06-20,合同会社ウィステリアゲート,,合同会社,大阪府,箕面市,粟生外院３丁目３番７号,,27,220,5620025,,,,,,,2024-06-20,1,,,,,ウィステリアゲート,0
154,1122003002910,新規,0,2024-06-20,2024-06-20,ＨＳＮ合同会社,,合同会社,大阪府,東大阪市,長瀬町１丁目４番１６号,,27,227,5770832,,,,,,,2024-06-20,1,,,,,エイチエスエヌ,0
155,1122003002919,新規,0,2024-06-20,2024-06-20,阪神貿易合同会社,,合同会社,大阪府,八尾市,竹渕西２丁目１７０,,27,212,5810051,,,,,,,2024-06-20,1,,,,,ハンシンボウエキ,0
159,1130003009644,新規,0,2024-06-20,2024-06-20,学びの架け橋合同会社,,合同会社,京都府,八幡市,男山吉井３番地７ＭＡＹＵＭＩハイツ１番館６号室,,26,210,6148363,,,,,,,2024-06-20,1,,,,,マナビノカケハシ,0
164,1180001162102,新規,0,2024-06-20,2024-06-20,株式会社ＲｅＳＴＯＮＥ,,株式会社,愛知県,名古屋市中村区,名駅４丁目２４番５号第２森ビル４０１,,23,105,4500002,,,,,,,2024-06-20,1,,,,,リストーン,0
167,1180003026973,新規,0,2024-06-20,2024-06-20,合同会社ＬＡＮＫＡＮ,,合同会社,愛知県,名古屋市西区,大金町３丁目５８メゾンドＭ３Ｂ,,23,104,4510082,,,,,,,2024-06-20,1,,,,,ランカン,0
184,1290001106221,新規,0,2024-06-20,2024-06-20,株式会社ＫｏＹｏＲｉ,,株式会社,福岡県,福岡市博多区,半道橋１丁目５番３２－１１０１号,,40,132,8120897,,,,,,,2024-06-20,1,,,,,コヨリ,0
186,1290003015453,新規,0,2024-06-20,2024-06-20,合同会社ふくろう,,合同会社,福岡県,大牟田市,西浜田町３番地６,,40,202,8360027,,,,,,,2024-06-20,1,,,,,フクロウ,0
187,1290003015486,新規,0,2024-06-20,2024-06-20,合同会社クインテット,,合同会社,福岡県,久留米市,長門石２丁目１０番１１－４号,,40,203,8300027,,,,,,,2024-06-20,1,,,,,クインテット,0
190,1290801030653,新規,0,2024-06-20,2024-06-20,株式会社スポーツドック,,株式会社,福岡県,北九州市小倉北区,京町３丁目７番１－２００７号,,40,106,8020002,,,,,,,2024-06-20,1,,,,,スポーツドック,0
194,1310003004809,新規,0,2024-06-20,2024-06-20,ひまり合同会社,,合同会社,長崎県,東彼杵郡東彼杵町,蔵本郷１８１７番地１,,42,321,8593808,,,,,,,2024-06-20,1,,,,,ヒマリ,0
196,1330003010433,新規,0,2024-06-20,2024-06-20,合同会社ＬＯＯＰＦＸ,,合同会社,熊本県,熊本市西区,出町７－３１,,43,103,8600074,,,,,,,2024-06-20,1,,,,,ループエフエックス,0
200,1350001019020,新規,0,2024-06-20,2024-06-20,株式会社Ｍ　ｓｅｌｅｃｔ,,株式会社,宮崎県,宮崎市,大字細江４２４７番地５,,45,201,8802116,,,,,,,2024-06-20,1,,,,,エムセレクト,0
201,1350003004680,新規,0,2024-06-20,2024-06-20,合同会社おおひら商店,,合同会社,宮崎県,日南市,南郷町中村乙７１０１番地３３９,,45,204,8893204,,,,,,,2024-06-20,1,,,,,オオヒラショウテン,0
214,1430001092075,新規,0,2024-06-20,2024-06-20,株式会社ＨＬワークス,,株式会社,北海道,札幌市中央区,大通西２５丁目１番２号,,01,101,0640820,,,,,,,2024-06-20,1,,,,,エイチエルワークス,0
217,1462501001000,新規,0,2024-06-20,2024-06-20,ＫＩＹＯＨＡＲＡ　ＦＡＲＭ株式会社,,株式会社,北海道,標津郡中標津町,字武佐二十線１１４番地３,,01,692,0861271,,,,,,,2024-06-20,1,,,,,キヨハラファーム,0
218,1480003002151,新規,0,2024-06-20,2024-06-20,合同会社Ｂａｓｅ．Ｒ,,合同会社,徳島県,徳島市,上八万町西山２６６番地,,36,201,7708041,,,,,,,2024-06-20,1,,,,,ベースアール,0
221,1500001025705,新規,0,2024-06-20,2024-06-20,Ｈｉｋａｒｉ．Ｉｎｔｅｒｎａｔｉｏｎａｌ株式会社,,株式会社,愛媛県,今治市,砂場町２丁目１番３６号,,38,202,7940001,,,,,,,2024-06-20,1,,,,,ヒカリインターナショナル,0
224,1700150126077,新規,0,2024-06-20,2024-06-20,Ａｌｉｂａｂａ．ｃｏｍ　Ｓｉｎｇａｐｏｒｅ　Ｅ－Ｃｏｍｍｅｒｃｅ　Ｐｒｉｖａｔｅ　Ｌｉｍｉｔｅｄ,,外国会社等,,,,,,,,５１　Ｂｒａｓ　Ｂａｓａｈ　Ｒｏａｄ，Ｌａｚａｄａ　Ｏｎｅ　＃０１－２１，Ｓｉｎｇａｐｏｒｅ　１８９５５４,,,,,,2024-06-20,1,,,,,アリババドツトコムシンガポールイーコマースプライベートリミテツド,0
236,2010001245938,新規,0,2024-06-20,2024-06-20,株式会社ＬＡＭＡＴ,,株式会社,東京都,中央区,日本橋箱崎町３０番１号Ａ．ｉ．ＮｉｈｏｍｂａｓｈｉＥＡＳＴ１Ｆ,,13,102,1030015,,,,,,,2024-06-20,1,,,,,ラマット,0
239,2010003044041,新規,0,2024-06-20,2024-06-20,合同会社Ｌｉｎｏ　Ｍｏａｎａ,,合同会社,東京都,中央区,銀座７丁目１５番８号タウンハイツ銀座４０６,,13,102,1040061,,,,,,,2024-06-20,1,,,,,リノモアナ,0
240,2010003044082,新規,0,2024-06-20,2024-06-20,合同会社ＷｈｉｔｅＣｒａｆｔ,,合同会社,東京都,中央区,日本橋中洲１番９－２０７号,,13,102,1030008,,,,,,,2024-06-20,1,,,,,ホワイトクラフト,0
241,2010003044099,新規,0,2024-06-20,2024-06-20,カナタ・ジャパン合同会社,,合同会社,東京都,千代田区,丸の内２丁目１番１号明治生命館７階ディーエルエイ・パイパー東京パートナーシップ外国法共同事業法律事務所内,,13,101,1000005,,,,,,,2024-06-20,1,,,,,カナタジャパン,0
247,2010401183110,新規,0,2024-06-20,2024-06-20,株式会社トラスト,,株式会社,東京都,港区,南青山３丁目１－３６青山丸竹ビル６Ｆ,,13,103,1070062,,,,,,,2024-06-20,1,,,,,トラスト,0
248,2010401183176,新規,0,2024-06-20,2024-06-20,エンタープレイ株式会社,,株式会社,東京都,港区,赤坂４丁目８番１９号赤坂フロントタウン３階,,13,103,1070052,,,,,,,2024-06-20,1,,,,,エンタープレイ,0
249,2010401183201,新規,0,2024-06-20,2024-06-20,株式会社ライズ,,株式会社,東京都,港区,北青山１丁目３番１号アールキューブ青山３階,,13,103,1070061,,,,,,,2024-06-20,1,,,,,ライズ,0
251,2010405023329,新規,0,2024-06-20,2024-06-20,一般社団法人上善,,その他の設立登記法人,東京都,港区,港南２丁目５番３号,,13,103,1080075,,,,,,,2024-06-20,1,,,,,ジョウゼン,0
254,2010701046157,新規,0,2024-06-20,2024-06-20,Ｄｅｆｙ株式会社,,株式会社,東京都,品川区,東五反田５丁目２４番９号吉田ビル６Ｆ,,13,109,1410022,,,,,,,2024-06-20,1,,,,,デファイ,0
260,2010901055494,新規,0,2024-06-20,2024-06-20,株式会社ＯＫＮ,,株式会社,東京都,世田谷区,上北沢５丁目４１番４－３０６号,,13,112,1560057,,,,,,,2024-06-20,1,,,,,オーケーエヌ,0
261,2010903009168,新規,0,2024-06-20,2024-06-20,合同会社ＴｒｅｖｏｒＦｒａｎｋ,,合同会社,東京都,世田谷区,北沢２丁目１２,,13,112,1550031,,,,,,,2024-06-20,1,,,,,トレバーフランク,0
267,2011001162834,新規,0,2024-06-20,2024-06-20,株式会社クッキー工場,,株式会社,東京都,渋谷区,渋谷２丁目１９―１５宮益坂ビルディング６０９,,13,113,1500002,,,,,,,2024-06-20,1,,,,,クッキーコウジョウ,0
268,2011001162850,新規,0,2024-06-20,2024-06-20,株式会社Ｏ．Ｍ．Ｄ,,株式会社,東京都,渋谷区,松濤１丁目２６－２第３３イチオクビル２Ｆ,,13,113,1500046,,,,,,,2024-06-20,1,,,,,オーエムディー,0
269,2011003019396,新規,0,2024-06-20,2024-06-20,１０１ＬＡＢＯＦＦＩＣＥ合同会社,,合同会社,東京都,渋谷区,東３丁目６番４号,,13,113,1500011,,,,,,,2024-06-20,1,,,,,ワンオーワンラボオフィス,0
274,2011103014586,新規,0,2024-06-20,2024-06-20,Ｄｒｅａｍ　Ａｗａｙ合同会社,,合同会社,東京都,新宿区,矢来町７５ファン神楽坂２０３,,13,104,1620805,,,,,,,2024-06-20,1,,,,,ドリームアウェイ,0
275,2011105011061,新規,0,2024-06-20,2024-06-20,一般社団法人Ｓｈｉｎｅ　Ｓｅｅｄｓ　Ｌａｂ,,その他の設立登記法人,東京都,新宿区,市谷台町９番５号ドルチェ曙橋２０３,,13,104,1620066,,,,,,,2024-06-20,1,,,,,シャインシーズラボ,0
280,2011303005212,新規,0,2024-06-20,2024-06-20,ＳＷＡＳＨ合同会社,,合同会社,東京都,杉並区,高円寺南２丁目１０番１２号佐藤方,,13,115,1660003,,,,,,,2024-06-20,1,,,,,スウォッシュ,0
283,2011501030838,新規,0,2024-06-20,2024-06-20,トーヨーラド株式会社,,株式会社,東京都,北区,田端新町３丁目１６番６－８０４号,,13,117,1140012,,,,,,,2024-06-20,1,,,,,トーヨーラド,0
285,2011503006118,新規,0,2024-06-20,2024-06-20,ＦｉｎＴｒｕｓｔ　Ｐａｒｔｎｅｒｓ合同会社,,合同会社,東京都,北区,堀船１丁目１９番４号,,13,117,1140004,,,,,,,2024-06-20,1,,,,,フィントラストパートナーズ,0
291,2011601027833,新規,0,2024-06-20,2024-06-20,株式会社ＫＵＳＵＤＡＭＡ,,株式会社,東京都,練馬区,関町北２丁目２７番１３号,,13,120,1770051,,,,,,,2024-06-20,1,,,,,クスダマ,0
292,2011601027841,新規,0,2024-06-20,2024-06-20,心越文化観光発展株式会社,,株式会社,東京都,練馬区,関町北５丁目６番７号関町マンション４０１Ｂ,,13,120,1770051,,,,,,,2024-06-20,1,,,,,シンエツブンカカンコウハッテン,0
298,2011703003880,新規,0,2024-06-20,2024-06-20,Ｂｏｍ　Ｂｉ‐Ｍａｒｎ合同会社,,合同会社,東京都,江戸川区,西瑞江３丁目３－１２４メモリーズハウス１０２号,,13,123,1320015,,,,,,,2024-06-20,1,,,,,ボンビーマン,0
303,2012301013966,新規,0,2024-06-20,2024-06-20,株式会社蘭丸運送,,株式会社,東京都,町田市,山崎町２１３０番地山崎団地５－２－３０２,,13,209,1950074,,,,,,,2024-06-20,1,,,,,ランマルウンソウ,0
305,2012401042007,新規,0,2024-06-20,2024-06-20,ＭＩＫＩＭＡＩ株式会社,,株式会社,東京都,調布市,東つつじケ丘１丁目１２－６荻野荘２０３号室,,13,208,1820005,,,,,,,2024-06-20,1,,,,,ミキマイ,0
308,2013101009444,新規,0,2024-06-20,2024-06-20,株式会社ケイ・プラス,,株式会社,東京都,青梅市,今井２丁目１１１７番地の９,,13,205,1980023,,,,,,,2024-06-20,1,,,,,ケイプラス,0
318,2020001157769,新規,0,2024-06-20,2024-06-20,ＮＫＳ株式会社,,株式会社,神奈川県,川崎市宮前区,南平台１４番１０－３１０号,,14,136,2160024,,,,,,,2024-06-20,1,,,,,エヌケイエス,0
319,2020001157777,新規,0,2024-06-20,2024-06-20,ＭＥＡＮＩＮＧ株式会社,,株式会社,神奈川県,横浜市港北区,仲手原２丁目２７番２５－２号,,14,109,2220023,,,,,,,2024-06-20,1,,,,,ミーニング,0
320,2020001157876,新規,0,2024-06-20,2024-06-20,株式会社ｍａｒｕｈａｃｈｉ,,株式会社,神奈川県,横浜市都筑区,東山田１丁目３０番８号テラスＫ１０２,,14,118,2240023,,,,,,,2024-06-20,1,,,,,マルハチ,0
324,2020003026352,新規,0,2024-06-20,2024-06-20,合同会社ホープス,,合同会社,神奈川県,横浜市瀬谷区,阿久和東１丁目５２番地８,,14,114,2460023,,,,,,,2024-06-20,1,,,,,ホープス,0
325,2020003026369,新規,0,2024-06-20,2024-06-20,合同会社ＡＥＯＮ,,合同会社,神奈川県,川崎市麻生区,上麻生３丁目２２番６－３１５号,,14,137,2150021,,,,,,,2024-06-20,1,,,,,エーオン,0
326,2020003026402,新規,0,2024-06-20,2024-06-20,合同会社アンナサービス,,合同会社,神奈川県,横浜市西区,南幸２丁目１０番１５－５０６号,,14,103,2200005,,,,,,,2024-06-20,1,,,,,アンナサービス,0
332,2030001160879,新規,0,2024-06-20,2024-06-20,株式会社Ａｕｔｏ　Ｒｅｌｉｅｆ,,株式会社,埼玉県,北葛飾郡松伏町,大字築比地３３０番地２９,,11,465,3430102,,,,,,,2024-06-20,1,,,,,オートリリーフ,0
333,2030001161027,新規,0,2024-06-20,2024-06-20,株式会社コーズ,,株式会社,埼玉県,川口市,芝２丁目９番３－５号１Ｆ,,11,203,3330866,,,,,,,2024-06-20,1,,,,,コーズ,0
334,2030001161051,新規,0,2024-06-20,2024-06-20,株式会社グランワイズオペレーション越谷,,株式会社,埼玉県,越谷市,越ヶ谷２丁目２番２５号,,11,222,3430813,,,,,,,2024-06-20,1,,,,,グランワイズオペレーションコシガヤ,0
339,2030003024495,新規,0,2024-06-20,2024-06-20,合同会社ａｍｕ　ｃｏｍｐａｎｙ,,合同会社,埼玉県,蓮田市,西新宿３丁目７９番地１,,11,238,3490141,,,,,,,2024-06-20,1,,,,,アムカンパニー,0
340,2030003024537,新規,0,2024-06-20,2024-06-20,合同会社Ｂｕｒｇｕｙ,,合同会社,埼玉県,さいたま市浦和区,上木崎１丁目３－２１－７０２,,11,107,3300071,,,,,,,2024-06-20,1,,,,,バーガイ,0
346,2040001134130,新規,0,2024-06-20,2024-06-20,株式会社柊水,,株式会社,千葉県,市原市,青柳２０４０番地１５,,12,219,2990102,,,,,,,2024-06-20,1,,,,,シュウスイ,0
355,2050001054971,新規,0,2024-06-20,2024-06-20,株式会社加藤製作所,,株式会社,茨城県,東茨城郡茨城町,大字宮ヶ崎１９４６番地２,,08,302,3113136,,,,,,,2024-06-20,1,,,,,カトウセイサクショ,0
359,2060001037224,新規,0,2024-06-20,2024-06-20,株式会社共進商事,,株式会社,栃木県,宇都宮市,下荒針町３８６８番地１４,,09,201,3210346,,,,,,,2024-06-20,1,,,,,キョウシンショウジ,0
363,2070001041877,新規,0,2024-06-20,2024-06-20,株式会社Ａ‐Ｓｔｙｌｅ,,株式会社,群馬県,伊勢崎市,羽黒町２８番地２,,10,204,3720844,,,,,,,2024-06-20,1,,,,,エースタイル,0
364,2070003005467,新規,0,2024-06-20,2024-06-20,旭東合同会社,,合同会社,群馬県,太田市,熊野町６番地１,,10,205,3730025,,,,,,,2024-06-20,1,,,,,キョクトウ,0
365,2070005010291,新規,0,2024-06-20,2024-06-20,一般社団法人コード・フォー・グンマ,,その他の設立登記法人,群馬県,前橋市,千代田町２丁目２番１１ＧＳレジデンス２Ｆ,,10,201,3710022,,,,,,,2024-06-20,1,,,,,イッパンシャダンコードフォーグンマ,0
371,2110001038497,新規,0,2024-06-20,2024-06-20,ＡＩＪ株式会社,,株式会社,新潟県,新発田市,向中条３９９番地２,,15,206,9592426,,,,,,,2024-06-20,1,,,,,エイアイジェイ,0
377,2120001266031,新規,0,2024-06-20,2024-06-20,聖陽商事株式会社,,株式会社,大阪府,大阪市中央区,北久宝寺町１丁目３番１－１２０５号,,27,128,5410057,,,,,,,2024-06-20,1,,,,,セイヨウショウジ,0
378,2120001266072,新規,0,2024-06-20,2024-06-20,株式会社イロラボ,,株式会社,大阪府,大阪市住吉区,杉本３丁目３番１３８号,,27,120,5580022,,,,,,,2024-06-20,1,,,,,イロラボ,0
379,2120001266080,新規,0,2024-06-20,2024-06-20,株式会社ＣＡＮＴＡＬＯＯＰ,,株式会社,大阪府,大阪市東淀川区,豊新４丁目３番６－４０７号,,27,114,5330014,,,,,,,2024-06-20,1,,,,,カンタループ,0
380,2120001266089,新規,0,2024-06-20,2024-06-20,佳芝商事株式会社,,株式会社,大阪府,大阪市中央区,北久宝寺町１丁目５番６－２１７号,,27,128,5410057,,,,,,,2024-06-20,1,,,,,カシバショウジ,0
382,2120003026879,新規,0,2024-06-20,2024-06-20,合同会社ときつかぜ,,合同会社,大阪府,大阪市鶴見区,今津中３丁目２番３６号レーゼンハイム２－３０１,,27,124,5380042,,,,,,,2024-06-20,1,,,,,トキツカゼ,0
383,2120003026895,新規,0,2024-06-20,2024-06-20,Ａｉｌｅｓ合同会社,,合同会社,大阪府,大阪市西淀川区,御幣島１丁目４番１号８０７,,27,113,5550012,,,,,,,2024-06-20,1,,,,,エール,0
386,2120101069771,新規,0,2024-06-20,2024-06-20,株式会社煕祐,,株式会社,大阪府,泉佐野市,湊３丁目５２０番地２０,,27,213,5980063,,,,,,,2024-06-20,1,,,,,キユウ,0
387,2120101069821,新規,0,2024-06-20,2024-06-20,株式会社ＢｒｏｗｎＰａｇｏｄａ,,株式会社,大阪府,堺市中区,土塔町２０７０番地１８,,27,142,5998234,,,,,,,2024-06-20,1,,,,,ブラウンパゴダ,0
390,2120901049329,新規,0,2024-06-20,2024-06-20,株式会社カンファーエステート,,株式会社,大阪府,箕面市,百楽荘４丁目２番２７号,,27,220,5620042,,,,,,,2024-06-20,1,,,,,カンファーエステート,0
391,2122001038212,新規,0,2024-06-20,2024-06-20,ソウルメイトパートナーズ株式会社,,株式会社,大阪府,東大阪市,島之内１丁目６番７号,,27,227,5780981,,,,,,,2024-06-20,1,,,,,ソウルメイトパートナーズ,0
392,2122003002918,新規,0,2024-06-20,2024-06-20,天吉貿易合同会社,,合同会社,大阪府,八尾市,竹渕西２丁目１７１,,27,212,5810051,,,,,,,2024-06-20,1,,,,,テンキチボウエキ,0
402,2160001026019,新規,0,2024-06-20,2024-06-20,株式会社近江クリエイト,,株式会社,滋賀県,近江八幡市,出町６８９シュエット１０３,,25,204,5230892,,,,,,,2024-06-20,1,,,,,オウミクリエイト,0
406,2180001162051,新規,0,2024-06-20,2024-06-20,アイハンズディテイリング株式会社,,株式会社,愛知県,北名古屋市,九之坪宮浦２９番地２ロイヤルパーク西春７０３,,23,234,4810041,,,,,,,2024-06-20,1,,,,,アイハンズディテイリング,0
409,2180003026948,新規,0,2024-06-20,2024-06-20,合同会社ＫＩＭＯＮＯ　ＨＩＹＯＲＩ,,合同会社,愛知県,名古屋市中区,錦３丁目２番２５号サンシャイン錦５０２号室,,23,106,4600003,,,,,,,2024-06-20,1,,,,,キモノヒヨリ,0
410,2180003026972,新規,0,2024-06-20,2024-06-20,ｔｈｅｔａ合同会社,,合同会社,愛知県,名古屋市中村区,名駅４丁目２４番５号第２森ビル４０１,,23,105,4500002,,,,,,,2024-06-20,1,,,,,シータ,0
416,2190003004721,新規,0,2024-06-20,2024-06-20,合同会社三二三,,合同会社,三重県,津市,美里町桂畑２９５番地,,24,201,5142115,,,,,,,2024-06-20,1,,,,,サンニイサン,0
422,2220001026061,新規,0,2024-06-20,2024-06-20,株式会社ドラゴンワン,,株式会社,石川県,金沢市,観音堂町ロ５９番地１,,17,201,9200352,,,,,,,2024-06-20,1,,,,,ドラゴンワン,0
427,2240001063409,新規,0,2024-06-20,2024-06-20,株式会社Ｆｏｏｄ　ｓｔａｒ,,株式会社,広島県,広島市中区,東平塚町１番１１－２０１号,,34,101,7300025,,,,,,,2024-06-20,1,,,,,フードスター,0
431,2290001106204,新規,0,2024-06-20,2024-06-20,株式会社Ｓａｐファクトリー,,株式会社,福岡県,福岡市中央区,赤坂３丁目４番３７号,,40,133,8100042,,,,,,,2024-06-20,1,,,,,エスエーピーファクトリー,0
432,2290001106220,新規,0,2024-06-20,2024-06-20,株式会社麻林,,株式会社,福岡県,福岡市中央区,西中洲３－２６アスコットテラス４Ａ,,40,133,8100002,,,,,,,2024-06-20,1,,,,,アサバヤシ,0
433,2290001106253,新規,0,2024-06-20,2024-06-20,株式会社優木,,株式会社,福岡県,大牟田市,南船津町４丁目７番地１１,,40,202,8360075,,,,,,,2024-06-20,1,,,,,ユウキ,0
442,2340001026586,新規,0,2024-06-20,2024-06-20,友信商事株式会社,,株式会社,鹿児島県,鹿屋市,輝北町市成３３１３番地,,46,203,8998511,,,,,,,2024-06-20,1,,,,,ユウシンショウジ,0
461,2420001018765,新規,0,2024-06-20,2024-06-20,株式会社吉田商事,,株式会社,青森県,上北郡横浜町,字中椛名木５９－８５,,02,406,0394100,,,,,,,2024-06-20,1,,,,,ヨシダショウジ,0
464,2430001092082,新規,0,2024-06-20,2024-06-20,株式会社ＷＨＥＲＥＶＥＲ,,株式会社,北海道,札幌市白石区,北郷五条１０丁目４番１８号,,01,104,0030835,,,,,,,2024-06-20,1,,,,,ウェアレバー,0
466,2430003016477,新規,0,2024-06-20,2024-06-20,合同会社ライフ・エイド,,合同会社,北海道,札幌市白石区,南郷通１丁目北７番２０－８０１号,,01,104,0030023,,,,,,,2024-06-20,1,,,,,ライフエイド,0
470,2450001014349,新規,0,2024-06-20,2024-06-20,株式会社ＣＴＳ,,株式会社,北海道,旭川市,末広二条１１丁目２５０２－６０,,01,204,0718132,,,,,,,2024-06-20,1,,,,,,0
474,2480001012515,新規,0,2024-06-20,2024-06-20,株式会社アシスト,,株式会社,徳島県,徳島市,北田宮４丁目６番４４号,,36,201,7700003,,,,,,,2024-06-20,1,,,,,アシスト,0
475,2480003002142,新規,0,2024-06-20,2024-06-20,合同会社南実,,合同会社,徳島県,小松島市,横須町８番１号,,36,203,7730006,,,,,,,2024-06-20,1,,,,,ミナミ,0
477,2500001025704,新規,0,2024-06-20,2024-06-20,新工業株式会社,,株式会社,愛媛県,松山市,北条９７６番地２,,38,201,7992431,,,,,,,2024-06-20,1,,,,,アラタコウギョウ,0
480,2700150031508,新規,0,2024-06-20,2015-10-09,東近江国際交流協会,,その他,滋賀県,東近江市,八日市金屋２丁目６－２５,,25,213,5270028,,,,,,,2015-10-09,1,,,,,ヒガシオウミコクサイコウリユウキヨウカイ,0
481,2700150058674,新規,0,2024-06-20,2015-10-09,ペシャワール会,,その他,福岡県,福岡市中央区,春吉１丁目１６－８－６０１,,40,133,8100003,,,,,,,2015-10-09,1,,,,,ペシヤワールカイ,0
483,2700150126076,新規,0,2024-06-20,2024-06-20,ＡＬＩＢＡＢＡ．ＣＯＭ（ＥＵＲＯＰＥ）ＬＩＭＩＴＥＤ,,外国会社等,,,,,,,,８ｔｈ　Ｆｌｏｏｒ　Ｍｉｌｌｂａｎｋ　Ｔｏｗｅｒ，２１－２４　Ｍｉｌｌｂａｎｋ，Ｌｏｎｄｏｎ，Ｅｎｇｌａｎｄ，ＳＷ１Ｐ　４ＱＰ,,,,,,2024-06-20,1,,,,,アリババドツトコムヨーロツパリミテツド,0
484,2700150126092,新規,0,2024-06-20,2024-06-20,坂手自治会,,その他,香川県,小豆郡小豆島町,坂手甲１８３４番地６,,37,324,7614425,,,,,,,2024-06-20,1,,,,,サカテジチカイ,0
498,3010001245714,新規,0,2024-06-20,2024-06-20,清川株式会社,,株式会社,東京都,中央区,日本橋堀留町１丁目３番１６号ＪＳＢレンタルオフィス日本橋７０２,,13,102,1030012,,,,,,,2024-06-20,1,,,,,キヨカワ,0
499,3010001245912,新規,0,2024-06-20,2024-06-20,株式会社ベーターサイト,,株式会社,東京都,中央区,日本橋室町１丁目１１番１２号日本橋水野ビル７階,,13,102,1030022,,,,,,,2024-06-20,1,,,,,ベーターサイト,0
502,3010003044107,新規,0,2024-06-20,2024-06-20,合同会社Ｔ＆Ｃ,,合同会社,東京都,文京区,根津２丁目３２番５号２階,,13,105,1130031,,,,,,,2024-06-20,1,,,,,ティーアンドシー,0
518,3010401183167,新規,0,2024-06-20,2024-06-20,株式会社ＵＦエステート,,株式会社,東京都,港区,六本木６丁目８－２９－５０３,,13,103,1060032,,,,,,,2024-06-20,1,,,,,ユーエフエステート,0
519,3010401183183,新規,0,2024-06-20,2024-06-20,はるやん株式会社,,株式会社,東京都,港区,芝１丁目２番１－３００７号,,13,103,1050014,,,,,,,2024-06-20,1,,,,,ハルヤン,0
520,3010401183225,新規,0,2024-06-20,2024-06-20,株式会社アーバンフライ,,株式会社,東京都,港区,赤坂６丁目１０番３９号,,13,103,1070052,,,,,,,2024-06-20,1,,,,,アーバンフライ,0
521,3010401183332,新規,0,2024-06-20,2024-06-20,株式会社ｏｏ食堂,,株式会社,東京都,港区,虎ノ門１－１０－５ＫＤＸ虎ノ門一丁目ビル,,13,103,1050000,,,,,,,2024-06-20,1,,,,,マルマルショクドウ,0
522,3010403032842,新規,0,2024-06-20,2024-06-20,ベルニ合同会社,,合同会社,東京都,港区,麻布十番２丁目１８番２－１００１号,,13,103,1060045,,,,,,,2024-06-20,1,,,,,ベルニ,0
523,3010701046156,新規,0,2024-06-20,2024-06-20,株式会社Ｍｅ‐ｒａｗ,,株式会社,東京都,品川区,東品川４丁目１１番３６－１１１０号,,13,109,1400002,,,,,,,2024-06-20,1,,,,,メロウ,0
525,3010703007230,新規,0,2024-06-20,2024-06-20,合同会社美美,,合同会社,東京都,品川区,東五反田１丁目２０－１４第３６東京ビル２Ｆ,,13,109,1410022,,,,,,,2024-06-20,1,,,,,ビビ,0
528,3010901055510,新規,0,2024-06-20,2024-06-20,株式会社ウィロウ,,株式会社,東京都,世田谷区,深沢２丁目１番２号,,13,112,1580081,,,,,,,2024-06-20,1,,,,,ウィロウ,0
534,3011001162528,新規,0,2024-06-20,2024-06-20,株式会社ＹＣＯ,,株式会社,東京都,渋谷区,西原３丁目１７番４号,,13,113,1510066,,,,,,,2024-06-20,1,,,,,ワイシーオー,0
535,3011001162809,新規,0,2024-06-20,2024-06-20,株式会社ＧＪ,,株式会社,東京都,渋谷区,神宮前５丁目４７番８－２０１号,,13,113,1500001,,,,,,,2024-06-20,1,,,,,ジージェイ,0
536,3011003019412,新規,0,2024-06-20,2024-06-20,ＫＴＳ合同会社,,合同会社,東京都,目黒区,鷹番１丁目１－５－４Ｆ,,13,110,1520004,,,,,,,2024-06-20,1,,,,,ケイティエス,0
537,3011003019420,新規,0,2024-06-20,2024-06-20,合同会社ａ‐ｔｉｍｅ,,合同会社,東京都,渋谷区,神泉町１０番１５号アネックス神泉３０１,,13,113,1500045,,,,,,,2024-06-20,1,,,,,エータイム,0
542,3011101107746,新規,0,2024-06-20,2024-06-20,株式会社ポラグレス,,株式会社,東京都,新宿区,西新宿１丁目２６－２新宿野村ビル３２階,,13,104,1600023,,,,,,,2024-06-20,1,,,,,ポラグレス,0
543,3011101107762,新規,0,2024-06-20,2024-06-20,株式会社ＴａｌｅｎｔｉＵｓ,,株式会社,東京都,新宿区,西新宿６丁目５番１号新宿アイランドタワー２階,,13,104,1600023,,,,,,,2024-06-20,1,,,,,タレンティアス,0
544,3011101107770,新規,0,2024-06-20,2024-06-20,株式会社Ｐｏｒｔａｌ　Ｌａｂ,,株式会社,東京都,新宿区,新宿２丁目１５番２号岩本和裁ビル３階,,13,104,1600022,,,,,,,2024-06-20,1,,,,,ポータルラボ,0
546,3011103014528,新規,0,2024-06-20,2024-06-20,合同会社コンパス,,合同会社,東京都,新宿区,大京町２５番地菊地マンション２０２,,13,104,1600015,,,,,,,2024-06-20,1,,,,,コンパス,0
547,3011103014552,新規,0,2024-06-20,2024-06-20,合同会社しきいち,,合同会社,東京都,新宿区,高田馬場２丁目１７番３号東京三協信用金庫本店ビル６Ｆ,,13,104,1690075,,,,,,,2024-06-20,1,,,,,シキイチ,0
548,3011103014560,新規,0,2024-06-20,2024-06-20,合同会社ＴＯＲＡＭＮ,,合同会社,東京都,新宿区,西新宿３丁目３番１３号西新宿水間ビル２Ｆ,,13,104,1600023,,,,,,,2024-06-20,1,,,,,トラムン,0
549,3011303005211,新規,0,2024-06-20,2024-06-20,合同会社Ｋ‐Ｉコンサルティング,,合同会社,東京都,杉並区,井草２丁目３０－２６,,13,115,1670021,,,,,,,2024-06-20,1,,,,,ケーアイコンサルティング,0
564,3011803006287,新規,0,2024-06-20,2024-06-20,生内組合同会社,,合同会社,東京都,足立区,保木間５丁目１４番１５－２０３号石井第２レジデンス,,13,121,1210064,,,,,,,2024-06-20,1,,,,,ショウナイグミ,0
565,3011803006295,新規,0,2024-06-20,2024-06-20,合同会社ＹＲ商事,,合同会社,東京都,足立区,南花畑５丁目１番５－１１８号,,13,121,1210062,,,,,,,2024-06-20,1,,,,,ワイアルショウジ,0
566,3012301013965,新規,0,2024-06-20,2024-06-20,Ｋａｓｅｉ株式会社,,株式会社,東京都,町田市,金井３丁目４４番地２,,13,209,1950072,,,,,,,2024-06-20,1,,,,,カセイ,0
570,3012801023266,新規,0,2024-06-20,2024-06-20,株式会社涼翔,,株式会社,東京都,東大和市,高木３丁目２８０番地の８,,13,220,2070005,,,,,,,2024-06-20,1,,,,,スズショウ,0
571,3013103001349,新規,0,2024-06-20,2024-06-20,ＹＡ‐ＭＡＮ合同会社,,合同会社,東京都,福生市,大字福生２４０４番地１武蔵野ハイツ１‐２０３号室,,13,218,1970011,,,,,,,2024-06-20,1,,,,,,0
573,3013301052697,新規,0,2024-06-20,2024-06-20,株式会社プランギグローバルソリューション,,株式会社,東京都,豊島区,南池袋２丁目４７番７－２０４号,,13,116,1710022,,,,,,,2024-06-20,1,,,,,プランギグローバルソリューション,0
574,3013303007170,新規,0,2024-06-20,2024-06-20,合同会社トップアルファ,,合同会社,東京都,豊島区,千早４丁目４３番４号ウェルスクエアイズム千川１０３号,,13,116,1710044,,,,,,,2024-06-20,1,,,,,トップアルファ,0
582,3020001157776,新規,0,2024-06-20,2024-06-20,株式会社Ｅｎｃｈａ,,株式会社,神奈川県,横浜市都筑区,南山田２丁目２８－８０,,14,118,2240029,,,,,,,2024-06-20,1,,,,,エンチャ,0
584,3020003026368,新規,0,2024-06-20,2024-06-20,ＳＨＲＥＥ　ＭＡＵＬＡ　ＫＡＬＩＫＡ合同会社,,合同会社,神奈川県,横浜市港北区,篠原北１丁目１４番３号菊和ハイツ１０３,,14,109,2220021,,,,,,,2024-06-20,1,,,,,スリマウラカリカ,0
588,3021001082535,新規,0,2024-06-20,2024-06-20,Ｃｏｏｐｅｒ技研投資株式会社,,株式会社,神奈川県,相模原市中央区,共和２丁目１７番７号メゾン・ド・プレーヌ４０６号室,,14,152,2520234,,,,,,,2024-06-20,1,,,,,クーパーギケントウシ,0
593,3030001161018,新規,0,2024-06-20,2024-06-20,Ｓｈｉｎ・Ａ株式会社,,株式会社,埼玉県,入間郡越生町,大字津久根２０７,,11,327,3500405,,,,,,,2024-06-20,1,,,,,シンエイ,0
594,3030001161026,新規,0,2024-06-20,2024-06-20,株式会社ＫＡＮＥＲＩ,,株式会社,埼玉県,川口市,西青木１丁目２２番９号,,11,203,3320035,,,,,,,2024-06-20,1,,,,,カネリ,0
595,3030001161034,新規,0,2024-06-20,2024-06-20,株式会社さいたまプロパティーズ,,株式会社,埼玉県,さいたま市浦和区,常盤９丁目２３番５－２０１号,,11,107,3300061,,,,,,,2024-06-20,1,,,,,サイタマプロパティーズ,0
604,3030003024560,新規,0,2024-06-20,2024-06-20,合同会社灯設計,,合同会社,埼玉県,入間市,宮寺２２７４番地,,11,225,3580014,,,,,,,2024-06-20,1,,,,,トモスセッケイ,0
607,3040001134154,新規,0,2024-06-20,2024-06-20,株式会社ＤＡＩ,,株式会社,千葉県,東金市,川場４８番地７,,12,213,2830064,,,,,,,2024-06-20,1,,,,,ダイ,0
608,3040001134162,新規,0,2024-06-20,2024-06-20,株式会社ｍｉｎｅ,,株式会社,千葉県,富里市,久能２３８番地１５１,,12,233,2860203,,,,,,,2024-06-20,1,,,,,マイン,0
615,3050005013460,新規,0,2024-06-20,2024-06-20,一般社団法人茨城県ゴルフ協会,,その他の設立登記法人,茨城県,水戸市,西原１丁目１番３６－１号,,08,201,3100044,,,,,,,2024-06-20,1,,,,,イバラキケンゴルフキョウカイ,0
618,3060001037215,新規,0,2024-06-20,2024-06-20,ＢＬＵＥ　ＯＮ　ＴＲＡＤＩＮＧ株式会社,,株式会社,栃木県,日光市,矢野口６３９番地１６０,,09,206,3212356,,,,,,,2024-06-20,1,,,,,ブルーオントレーディング,0
622,3070001041876,新規,0,2024-06-20,2024-06-20,株式会社Ａｕｔｏ　Ｍ’ｓ,,株式会社,群馬県,伊勢崎市,茂呂町２丁目６５６番地１,,10,204,3720034,,,,,,,2024-06-20,1,,,,,オートエムズ,0
623,3070001041884,新規,0,2024-06-20,2024-06-20,ＬＥＢＡＮＯＮ　ＴＲＡＤＩＮＧ株式会社,,株式会社,群馬県,邑楽郡板倉町,大字西岡７４６番地３,,10,521,3740107,,,,,,,2024-06-20,1,,,,,レバノントレーディング,0
624,3070005010290,新規,0,2024-06-20,2024-06-20,一般社団法人松井田キリスト集会,,その他の設立登記法人,群馬県,安中市,松井田町松井田字塔の上３０８番３,,10,211,3790222,,,,,,,2024-06-20,1,,,,,マツイダキリストシュウカイ,0
629,3100003007616,新規,0,2024-06-20,2024-06-20,合同会社松本防水,,合同会社,長野県,長野市,大字安茂里２１４１番地３,,20,201,3800941,,,,,,,2024-06-20,1,,,,,マツモトボウスイ,0
642,3120001265998,新規,0,2024-06-20,2024-06-20,山川株式会社,,株式会社,大阪府,大阪市中央区,瓦屋町２丁目１５番１号４Ｆ,,27,128,5420066,,,,,,,2024-06-20,1,,,,,ヤマカワ,0
643,3120001266030,新規,0,2024-06-20,2024-06-20,株式会社ノーコンプレインツ,,株式会社,大阪府,大阪市東成区,玉津１丁目３番２１－３０４号,,27,115,5370023,,,,,,,2024-06-20,1,,,,,ノーコンプレインツ,0
644,3120001266088,新規,0,2024-06-20,2024-06-20,ＫＹＭ機械商事株式会社,,株式会社,大阪府,大阪市港区,夕凪２丁目１８番６４－２０１号,,27,107,5520004,,,,,,,2024-06-20,1,,,,,ケーワイエムキカイショウジ,0
645,3120001266105,新規,0,2024-06-20,2024-06-20,株式会社ＫＫＳホールディングス,,株式会社,大阪府,大阪市西淀川区,歌島２丁目１番１２号,,27,113,5550021,,,,,,,2024-06-20,1,,,,,ケイケイエスホールディングス,0
650,3120901049352,新規,0,2024-06-20,2024-06-20,ＫＵＵプランニング株式会社,,株式会社,大阪府,豊中市,西泉丘３丁目２番５号,,27,203,5610862,,,,,,,2024-06-20,1,,,,,クープランニング,0
654,3122003002917,新規,0,2024-06-20,2024-06-20,合同会社ＨＡＥＬ,,合同会社,大阪府,八尾市,萱振町２丁目９３番地の１ディアコート萱振２０３号,,27,212,5810834,,,,,,,2024-06-20,1,,,,,ハエル,0
671,3150001027363,新規,0,2024-06-20,2024-06-20,株式会社ファイン,,株式会社,奈良県,生駒市,あすか野南１丁目６番１８号,,29,209,6300133,,,,,,,2024-06-20,1,,,,,ファイン,0
675,3160005011305,新規,0,2024-06-20,2024-06-20,一般社団法人ｃｒｏｓｓ　Ｔｉｇｅｒ,,その他の設立登記法人,滋賀県,長浜市,北船町６番８号,,25,203,5260057,,,,,,,2024-06-20,1,,,,,クロスタイガー,0
676,3170001018195,新規,0,2024-06-20,2024-06-20,株式会社ＧＴ,,株式会社,和歌山県,有田郡広川町,大字上津木２１９８番地,,30,362,6430052,,,,,,,2024-06-20,1,,,,,ジーティー,0
684,3180001161952,新規,0,2024-06-20,2024-06-20,株式会社ＮＥＯＢＬＵＥ,,株式会社,愛知県,名古屋市千種区,猫洞通５丁目１９番,,23,101,4640032,,,,,,,2024-06-20,1,,,,,ネオブルー,0
685,3180001162067,新規,0,2024-06-20,2024-06-20,株式会社ＲＳＳ,,株式会社,愛知県,大府市,柊山町７丁目１３５番地,,23,223,4740053,,,,,,,2024-06-20,1,,,,,アールエスエス,0
696,3190001031428,新規,0,2024-06-20,2024-06-20,株式会社ビオ土木,,株式会社,三重県,津市,木造町９７５番地１,,24,201,5141115,,,,,,,2024-06-20,1,,,,,ビオドボク,0
699,3190005011962,新規,0,2024-06-20,2024-06-20,社会福祉法人エンジョイ福祉会,,その他の設立登記法人,三重県,亀山市,能褒野町字能褒野４６番２,,24,210,5190212,,,,,,,2024-06-20,1,,,,,エンジョイフクシカイ,0
705,3220005008864,新規,0,2024-06-20,2024-06-20,一般社団法人はくい市観光協会,,その他の設立登記法人,石川県,羽咋市,旭町ア２００番地,,17,207,9250034,,,,,,,2024-06-20,1,,,,,ハクイシカンコウキョウカイ,0
710,3240001063408,新規,0,2024-06-20,2024-06-20,株式会社アルシオン,,株式会社,広島県,福山市,多治米町１丁目１１番５－４１４号,,34,207,7200824,,,,,,,2024-06-20,1,,,,,アルシオン,0
712,3240003006728,新規,0,2024-06-20,2024-06-20,合同会社ＢＴＣ,,合同会社,広島県,福山市,千田町大字千田３３４０番地５７,,34,207,7200013,,,,,,,2024-06-20,1,,,,,ビーティーシー,0
715,3280001009200,新規,0,2024-06-20,2024-06-20,ＡＭＡ　Ｗｈｉｓｋｅｙ＆Ｃｏ．株式会社,,株式会社,島根県,隠岐郡海士町,大字海士１８３９番地３,,32,525,6840403,,,,,,,2024-06-20,1,,,,,アマウイスキーアンドコー,0
718,3280003001857,新規,0,2024-06-20,2024-06-20,合同会社ｅｔｔｏ,,合同会社,島根県,松江市,東津田町１３７９番地３,,32,201,6900011,,,,,,,2024-06-20,1,,,,,エット,0
731,3300001013802,新規,0,2024-06-20,2024-06-20,株式会社ＦＩＲＥ,,株式会社,佐賀県,武雄市,武雄町大字永島１５６５３番地７,,41,206,8430021,,,,,,,2024-06-20,1,,,,,ファイア,0
736,3320001020540,新規,0,2024-06-20,2024-06-20,産地とつなぐ株式会社,,株式会社,大分県,由布市,挾間町高崎２７５番地１,,44,213,8795513,,,,,,,2024-06-20,1,,,,,サンチトツナグ,0
738,3330003010431,新規,0,2024-06-20,2024-06-20,ＬＤＢ合同会社,,合同会社,熊本県,宇城市,松橋町西下郷１２３９番地１,,43,213,8690534,,,,,,,2024-06-20,1,,,,,エルディービー,0
744,3360003014082,新規,0,2024-06-20,2024-06-20,ＪＭＳ合同会社,,合同会社,沖縄県,沖縄市,比屋根２丁目９番地４０号,,47,211,9042173,,,,,,,2024-06-20,1,,,,,ジェームズ,0
753,3410005006592,新規,0,2024-06-20,2024-06-20,一般社団法人秋田県の地域医療を守る病院の会,,その他の設立登記法人,秋田県,秋田市,広面字蓮沼４４－２,,05,201,0100041,,,,,,,2024-06-20,1,,,,,アキタケンノチイキイリョウヲマモルビョウインノカイ,0
763,3430001092081,新規,0,2024-06-20,2024-06-20,株式会社泰永,,株式会社,北海道,札幌市北区,西茨戸四条１丁目３番１８号,,01,102,0028034,,,,,,,2024-06-20,1,,,,,ヤスナガ,0
768,3460101007564,新規,0,2024-06-20,2024-06-20,株式会社ｅ‐Ｃｏｍｂｕ,,株式会社,北海道,広尾郡広尾町,丸山通南１丁目１０番地ＭモールＤ号室,,01,642,0892628,,,,,,,2024-06-20,1,,,,,イーコンブ,0
769,3462501000999,新規,0,2024-06-20,2024-06-20,株式会社魚柴,,株式会社,北海道,標津郡標津町,南八条東１丁目１－３,,01,693,0861658,,,,,,,2024-06-20,1,,,,,,0
777,3700150125829,新規,0,2024-06-20,2024-06-10,西原村総合型クラブ　カラスポ,,その他,熊本県,阿蘇郡西原村,大字小森３１６１,,43,432,8612402,,,,,,,2024-06-10,1,,,,,ニシハラムラソウゴウガタクラブカラスポ,0
778,3700150126075,新規,0,2024-06-20,2024-06-20,Ｍｅｇａ　Ｌｉｍｉｔｅｄ,,外国会社等,,,,,,,,Ｌｅｖｅｌ　２１，Ｈｕａｗｅｉ　Ｃｅｎｔｒｅ，１２０　Ａｌｂｅｒｔ　Ｓｔｒｅｅｔ，Ａｕｃｋｌａｎｄ，Ｎｅｗ　Ｚｅａｌａｎｄ,,,,,,2024-06-20,1,,,,,メガリミテツド,0
779,3700150126083,新規,0,2024-06-20,2024-06-20,亡岡義矩相続財産法人,,その他,兵庫県,明石市,大久保町西島９４１－１,,28,203,6740065,,,,,,,2024-06-20,1,,,,,ボウオカヨシノリソウゾクザイサンホウジン,0
788,4010003044106,新規,0,2024-06-20,2024-06-20,合同会社フェニックス,,合同会社,東京都,中央区,銀座１丁目２２番１１号銀座大竹ビジデンス２Ｆ,,13,102,1040061,,,,,,,2024-06-20,1,,,,,フェニックス,0
795,4010401183166,新規,0,2024-06-20,2024-06-20,Ｓｕｇ　Ｌｉｆｅ株式会社,,株式会社,東京都,港区,南青山３丁目１番３６号青山丸竹ビル６Ｆ,,13,103,1070062,,,,,,,2024-06-20,1,,,,,サグライフ,0
796,4010401183273,新規,0,2024-06-20,2024-06-20,ｊａｙｌｉｆｅ株式会社,,株式会社,東京都,港区,高輪２丁目１３番１号高輪２１３１ビルＢＩＺｃｉｒｃｌｅ品川泉岳寺１３号室,,13,103,1080074,,,,,,,2024-06-20,1,,,,,ジェイライフ,0
799,4010403032841,新規,0,2024-06-20,2024-06-20,合同会社永谷アセットカンパニー,,合同会社,東京都,港区,三田２丁目８番１７号,,13,103,1080073,,,,,,,2024-06-20,1,,,,,ナガタニアセットカンパニー,0
800,4010405023319,新規,0,2024-06-20,2024-06-20,一般社団法人世界音育協会,,その他の設立登記法人,東京都,港区,新橋２丁目１２番１号,,13,103,1050004,,,,,,,2024-06-20,1,,,,,セカイオンイクキョウカイ,0
801,4010501052477,新規,0,2024-06-20,2024-06-20,株式会社盛和,,株式会社,東京都,台東区,浅草６丁目２番５号アール・ケープラザ浅草８０４,,13,106,1110032,,,,,,,2024-06-20,1,,,,,セイワ,0
812,4010803004993,新規,0,2024-06-20,2024-06-20,合同会社ポイント,,合同会社,東京都,大田区,矢口１丁目２３番１８号,,13,111,1460093,,,,,,,2024-06-20,1,,,,,ポイント,0
816,4010903009174,新規,0,2024-06-20,2024-06-20,合同会社ＳＫＯ,,合同会社,東京都,世田谷区,下馬２丁目１９番１２号竹見コーポ１０１,,13,112,1540002,,,,,,,2024-06-20,1,,,,,エスケーオー,0
825,4011303005210,新規,0,2024-06-20,2024-06-20,合同会社もみじ,,合同会社,東京都,杉並区,方南１丁目５２番３３号プラウド杉並方南町４１３,,13,115,1680062,,,,,,,2024-06-20,1,,,,,モミジ,0
828,4011503006116,新規,0,2024-06-20,2024-06-20,東京うきま風車合同会社,,合同会社,東京都,北区,浮間５丁目１５番２２－２０３号,,13,117,1150051,,,,,,,2024-06-20,1,,,,,トウキョウウキマフウシャ,0
834,4011703003879,新規,0,2024-06-20,2024-06-20,佐藤合同会社,,合同会社,東京都,江戸川区,春江町２丁目５０番１５－８０１号プレシス瑞江,,13,123,1320003,,,,,,,2024-06-20,1,,,,,サトウ,0
837,4011801044395,新規,0,2024-06-20,2024-06-20,株式会社ＦＩＭＡＲ　ＪＡＰＡＮ,,株式会社,東京都,足立区,柳原２丁目４０番３号,,13,121,1200022,,,,,,,2024-06-20,1,,,,,フィマールジャパン,0
838,4011801044404,新規,0,2024-06-20,2024-06-20,Ａ２Ｄ株式会社,,株式会社,東京都,足立区,梅島３丁目３３番６号エンブレム西新井２Ｆ,,13,121,1210816,,,,,,,2024-06-20,1,,,,,エートゥーディー,0
842,4012801023265,新規,0,2024-06-20,2024-06-20,株式会社ＲＯＫＡＴＡ,,株式会社,東京都,昭島市,拝島町４丁目１６番３８号,,13,207,1960002,,,,,,,2024-06-20,1,,,,,ロカタ,0
845,4013103001348,新規,0,2024-06-20,2024-06-20,ＭＡＧ合同会社,,合同会社,東京都,福生市,大字福生８８７番地２山上ビル３０３号,,13,218,1970011,,,,,,,2024-06-20,1,,,,,,0
848,4013305003613,新規,0,2024-06-20,2024-06-20,一般社団法人ベスト・アシスト,,その他の設立登記法人,東京都,豊島区,池袋３丁目３０番２１号マルモビル１階,,13,116,1710014,,,,,,,2024-06-20,1,,,,,ベストアシスト,0
852,4020001157775,新規,0,2024-06-20,2024-06-20,東京ライブレイン株式会社,,株式会社,神奈川県,川崎市川崎区,小川町１６－１７－５０２,,14,131,2100023,,,,,,,2024-06-20,1,,,,,トウキョウライブレイン,0
853,4020001157783,新規,0,2024-06-20,2024-06-20,株式会社ＢＡＣＫＬＡＳＨ,,株式会社,神奈川県,横浜市戸塚区,汲沢４丁目３０番３７号,,14,110,2450061,,,,,,,2024-06-20,1,,,,,バックラッシ,0
858,4020003026359,新規,0,2024-06-20,2024-06-20,合同会社ＬＧＳカブラギ,,合同会社,神奈川県,横浜市青葉区,市ケ尾町６４７番地５,,14,117,2250024,,,,,,,2024-06-20,1,,,,,エルジーエスカブラギ,0
859,4020003026367,新規,0,2024-06-20,2024-06-20,合同会社ジーステージ,,合同会社,神奈川県,横浜市神奈川区,神大寺１丁目２２番３０号ジュネスハイツ２０２号,,14,102,2210801,,,,,,,2024-06-20,1,,,,,ジーステージ,0
860,4021001082534,新規,0,2024-06-20,2024-06-20,ＮＡＶＥＥＤ　ＴＲＡＤＩＮＧ株式会社,,株式会社,神奈川県,相模原市南区,双葉１丁目１１番１９号,,14,153,2520316,,,,,,,2024-06-20,1,,,,,ナビードトレーディング,0
861,4021001082542,新規,0,2024-06-20,2024-06-20,株式会社エスタス・Ｉ,,株式会社,神奈川県,座間市,栗原中央１丁目２５番６－２号,,14,216,2520014,,,,,,,2024-06-20,1,,,,,エスタスアイ,0
865,4030001161017,新規,0,2024-06-20,2024-06-20,株式会社ＡＪ　ＴＲＡＤＩＮＧ,,株式会社,埼玉県,熊谷市,飯塚８８７番地１,,11,202,3600231,,,,,,,2024-06-20,1,,,,,エージェートレーディング,0
866,4030001161025,新規,0,2024-06-20,2024-06-20,株式会社ＡＤＤＥＶＡ,,株式会社,埼玉県,志木市,本町４丁目１１番８号,,11,228,3530004,,,,,,,2024-06-20,1,,,,,アデバ,0
867,4030001161033,新規,0,2024-06-20,2024-06-20,株式会社明希,,株式会社,埼玉県,さいたま市大宮区,上小町５８７番地４,,11,103,3300855,,,,,,,2024-06-20,1,,,,,メイキ,0
868,4030001161041,新規,0,2024-06-20,2024-06-20,株式会社ＢＬＵＥ　ＳＫＹ,,株式会社,埼玉県,白岡市,白岡１１９８番地１,,11,246,3490218,,,,,,,2024-06-20,1,,,,,ブルースカイ,0
872,4030003024535,新規,0,2024-06-20,2024-06-20,スリバーコンサルティング合同会社,,合同会社,埼玉県,さいたま市浦和区,岸町２丁目３番１３－１号Ｄｕｐｌｅｘ岸Ａ１,,11,107,3300064,,,,,,,2024-06-20,1,,,,,スリバーコンサルティング,0
873,4030003024551,新規,0,2024-06-20,2024-06-20,合同会社若葉,,合同会社,埼玉県,朝霞市,根岸台５丁目６番３０－１０７号,,11,227,3510005,,,,,,,2024-06-20,1,,,,,ワカバ,0
880,4050001054953,新規,0,2024-06-20,2024-06-20,株式会社Ｓｏｃｉａｌ　ｓｅｒｖｉｃｅ,,株式会社,茨城県,水戸市,中央２丁目８番８号アシスト第２ビル７Ｆ,,08,201,3100805,,,,,,,2024-06-20,1,,,,,ソーシャルサービス,0
882,4070001041883,新規,0,2024-06-20,2024-06-20,株式会社ＧＴＮ,,株式会社,群馬県,館林市,大谷町８９６－３鈴木コーポＡ１０３号室,,10,207,3740054,,,,,,,2024-06-20,1,,,,,ジーティーエヌ,0
901,4120001265948,新規,0,2024-06-20,2024-06-20,大熊座株式会社,,株式会社,大阪府,大阪市西成区,天下茶屋１丁目２８番１６号－３０６室,,27,122,5570014,,,,,,,2024-06-20,1,,,,,オオグマザ,0
902,4120001265980,新規,0,2024-06-20,2024-06-20,光義株式会社,,株式会社,大阪府,大阪市西区,西本町１丁目１１番１１－１００６号,,27,106,5500005,,,,,,,2024-06-20,1,,,,,ミツヨシ,0
903,4120001266095,新規,0,2024-06-20,2024-06-20,株式会社ｅｎｍｕｓｕｂｉ,,株式会社,大阪府,大阪市西区,北堀江１丁目６－３きんき四ツ橋ビル６０１,,27,106,5500014,,,,,,,2024-06-20,1,,,,,エンムスビ,0
905,4120003026893,新規,0,2024-06-20,2024-06-20,合同会社Ｍａｎｉｚｅｒ．Ｊ,,合同会社,大阪府,大阪市北区,曾根崎新地１丁目１番１１号北陽ビル２Ｆ,,27,127,5300002,,,,,,,2024-06-20,1,,,,,マナイザージェイ,0
912,4120101069811,新規,0,2024-06-20,2024-06-20,株式会社わくあす,,株式会社,大阪府,泉南郡熊取町,つばさが丘西１丁目５番１号,,27,361,5900443,,,,,,,2024-06-20,1,,,,,ワクアス,0
913,4120901049351,新規,0,2024-06-20,2024-06-20,株式会社リターンレーン,,株式会社,大阪府,池田市,建石町８番３３号,,27,204,5630053,,,,,,,2024-06-20,1,,,,,リターンレーン,0
921,4140001134845,新規,0,2024-06-20,2024-06-20,エス・エヌ・シー株式会社,,株式会社,兵庫県,明石市,本町１丁目２２－３３興生ビル４Ｆ,,28,203,6730892,,,,,,,2024-06-20,1,,,,,エスエヌシー,0
928,4170001018194,新規,0,2024-06-20,2024-06-20,東霖株式会社,,株式会社,和歌山県,和歌山市,中之島２３１９スタープラザビル３Ｆ－Ａ,,30,201,6408392,,,,,,,2024-06-20,1,,,,,トウリン,0
929,4180001161951,新規,0,2024-06-20,2024-06-20,株式会社布袋,,株式会社,愛知県,名古屋市千種区,猫洞通５丁目１９番,,23,101,4640032,,,,,,,2024-06-20,1,,,,,ホテイ,0
930,4180001162066,新規,0,2024-06-20,2024-06-20,株式会社ＵＮＩＴＥＤ　ＳＴＹＬＥ　ＷＥＡＬＴＨ　ＭＡＮＡＧＥＭＥＮＴ,,株式会社,愛知県,名古屋市中区,栄３丁目２８番３６号アサヒドーカメラビル２Ｆ,,23,106,4600008,,,,,,,2024-06-20,1,,,,,ユナイテッドスタイルウェルスマネジメント,0
934,4180003026946,新規,0,2024-06-20,2024-06-20,ＳＥＷＡ合同会社,,合同会社,愛知県,名古屋市西区,新道１丁目３－３１－２０７,,23,104,4510043,,,,,,,2024-06-20,1,,,,,セワ,0
935,4180003026970,新規,0,2024-06-20,2024-06-20,合同会社ユキ,,合同会社,愛知県,常滑市,新開町２丁目１６６番地神尾ビル３Ｆ,,23,216,4790837,,,,,,,2024-06-20,1,,,,,ユキ,0
951,4250001020695,新規,0,2024-06-20,2024-06-20,ブライト株式会社,,株式会社,山口県,下関市,大字田倉１番地１３,,35,201,7510883,,,,,,,2024-06-20,1,,,,,ブライト,0
953,4250003003517,新規,0,2024-06-20,2024-06-20,合同会社オオタコーポレーション,,合同会社,山口県,下松市,潮音町１丁目１４－１８ウィルコートＢ１０３,,35,207,7440074,,,,,,,2024-06-20,1,,,,,オオタコーポレーション,0
954,4260001039198,新規,0,2024-06-20,2024-06-20,株式会社再輝フーズ,,株式会社,岡山県,岡山市南区,西紅陽台１丁目５８番地６２７,,33,104,7091203,,,,,,,2024-06-20,1,,,,,サイキフーズ,0
958,4260003004794,新規,0,2024-06-20,2024-06-20,ノブテック合同会社,,合同会社,岡山県,真庭市,蒜山別所４０５番地１,,33,214,7170515,,,,,,,2024-06-20,1,,,,,ノブテック,0
966,4290001106219,新規,0,2024-06-20,2024-06-20,株式会社Ｂｏａｒ,,株式会社,福岡県,福岡市城南区,友丘５丁目９番８－３号,,40,136,8140112,,,,,,,2024-06-20,1,,,,,ボア,0
967,4290001106243,新規,0,2024-06-20,2024-06-20,株式会社ＩＣＨＩ,,株式会社,福岡県,福岡市東区,多の津４丁目１１番１号Ｂ棟,,40,131,8130034,,,,,,,2024-06-20,1,,,,,イチ,0
968,4290001106268,新規,0,2024-06-20,2024-06-20,株式会社ラフリー,,株式会社,福岡県,福岡市中央区,薬院２丁目８―５,,40,133,8100022,,,,,,,2024-06-20,1,,,,,ラフリー,0
972,4290801030642,新規,0,2024-06-20,2024-06-20,株式会社ＣＦＣ,,株式会社,福岡県,北九州市小倉北区,魚町２丁目３番１１号１Ｆ,,40,106,8020006,,,,,,,2024-06-20,1,,,,,シーエフシー,0
975,4300001013801,新規,0,2024-06-20,2024-06-20,株式会社ＢＡＳＥ,,株式会社,佐賀県,佐賀市,高木瀬町大字長瀬３０１番地２６,,41,201,8490917,,,,,,,2024-06-20,1,,,,,ベース,0
981,4330001032187,新規,0,2024-06-20,2024-06-20,株式会社旺昇,,株式会社,熊本県,熊本市北区,植木町滴水７２番１,,43,105,8610133,,,,,,,2024-06-20,1,,,,,オウショウ,0
990,4350003004678,新規,0,2024-06-20,2024-06-20,合同会社宮崎ファミリー警備,,合同会社,宮崎県,日南市,上平野町１丁目２番地２２メゾン和１０１号,,45,204,8870022,,,,,,,2024-06-20,1,,,,,ミヤザキファミリーケイビ,0
995,4380001034625,新規,0,2024-06-20,2024-06-20,ｐｏｔｉｔｔｏ株式会社,,株式会社,福島県,福島市,五老内町９番４号フェニックスビル２Ｆ,,07,201,9608111,,,,,,,2024-06-20,1,,,,,ポッチット,0
1001,4390003002257,新規,0,2024-06-20,2024-06-20,合同会社ＮＡＫＡＪＩＭＡ　ＥＳサポート,,合同会社,山形県,新庄市,大字泉田字村東２２９番地,,06,205,9995103,,,,,,,2024-06-20,1,,,,,ナカジマイーエスサポート,0
1003,4400001016694,新規,0,2024-06-20,2024-06-20,株式会社ひろの佐々木ファーム,,株式会社,岩手県,九戸郡洋野町,帯島第１地割１２５番地７,,03,507,0288804,,,,,,,2024-06-20,1,,,,,ヒロノササキファーム,0
1017,4430001092064,新規,0,2024-06-20,2024-06-20,株式会社カリスマスピリッツ,,株式会社,北海道,札幌市中央区,宮ケ丘１丁目１番４５号,,01,101,0640959,,,,,,,2024-06-20,1,,,,,カリスマスピリッツ,0
1024,4470001020252,新規,0,2024-06-20,2024-06-20,西日本興産株式会社,,株式会社,香川県,三豊市,豊中町下高野２７５６番地１,,37,208,7691508,,,,,,,2024-06-20,1,,,,,ニシニホンコウサン,0
1025,4480003002149,新規,0,2024-06-20,2024-06-20,合同会社ソーイング相和,,合同会社,徳島県,板野郡板野町,下庄字古杉１２番地５,,36,404,7790118,,,,,,,2024-06-20,1,,,,,ソーイングアイワ,0
1029,4700150126025,新規,0,2024-06-20,2024-06-19,日本地理的表示協議会,,その他,東京都,北区,西ケ原３丁目１－１２,,13,117,1140024,,,,,,,2024-06-19,1,,,,,ニホンチリテキヒヨウジキヨウギカイ,0
1030,4700150126074,新規,0,2024-06-20,2024-06-20,稲川地産発展集団有限公司,,外国会社等,大阪府,大阪市北区,西天満４丁目１４－３,,27,127,5300047,２６Ｆ，Ｐｒｏｓｐｅｒｉｔｙ　Ｔｏｗｅｒ，３９　Ｑｕｅｅｎ’ｓ　Ｒｏａｄ　Ｃｅｎｔｒａｌ，Ｃｅｎｔｒａｌ，Ｈｏｎｇ　Ｋｏｎｇ,,,,,,2024-06-20,1,,,,,イナガワチサンハツテンシユウダンユウゲンコウジ,0
1037,5010001245852,新規,0,2024-06-20,2024-06-20,高徳株式会社,,株式会社,東京都,文京区,本郷１丁目２５番９号,,13,105,1130033,,,,,,,2024-06-20,1,,,,,コウトク,0
1038,5010001245885,新規,0,2024-06-20,2024-06-20,株式会社エム,,株式会社,東京都,千代田区,神田佐久間町４丁目１６番地４プレミスト千代田神田佐久間町９０４号,,13,101,1010025,,,,,,,2024-06-20,1,,,,,エム,0
1039,5010001245935,新規,0,2024-06-20,2024-06-20,ＢＬＩＳＳ　ＲＯＯＭ株式会社,,株式会社,東京都,文京区,本郷３丁目４番５－６０６号,,13,105,1130033,,,,,,,2024-06-20,1,,,,,ブリスルーム,0
1042,5010003044088,新規,0,2024-06-20,2024-06-20,合同会社ＧＭ２,,合同会社,東京都,中央区,銀座１丁目１２－４Ｎ＆ＥＢＬＤ７階,,13,102,1040061,,,,,,,2024-06-20,1,,,,,ジーエムツー,0
1048,5010401183223,新規,0,2024-06-20,2024-06-20,株式会社ＡＢＣ,,株式会社,東京都,港区,南青山１丁目１４番４号,,13,103,1070062,,,,,,,2024-06-20,1,,,,,エービーシー,0
1057,5010403032840,新規,0,2024-06-20,2024-06-20,合同会社永谷泰商事,,合同会社,東京都,港区,三田２丁目８番１７号,,13,103,1080073,,,,,,,2024-06-20,1,,,,,ナガタニタイショウジ,0
1058,5010403032857,新規,0,2024-06-20,2024-06-20,セントラルレジ合同会社,,合同会社,東京都,港区,虎ノ門２丁目６番１号虎ノ門ヒルズステーションタワー,,13,103,1050001,,,,,,,2024-06-20,1,,,,,セントラルレジ,0
1059,5010403032865,新規,0,2024-06-20,2024-06-20,合同会社Ａｒｃ　Ｌａｂ,,合同会社,東京都,港区,南青山３丁目１番３６号青山丸竹ビル６Ｆ,,13,103,1070062,,,,,,,2024-06-20,1,,,,,アークラボ,0
1060,5010405023326,新規,0,2024-06-20,2024-06-20,一般社団法人備災アウトドア協会,,その他の設立登記法人,東京都,港区,芝公園１丁目７番１７号ＴＨＩＮＸ大門,,13,103,1050011,,,,,,,2024-06-20,1,,,,,ビサイアウトドアキョウカイ,0
1069,5010801035164,新規,0,2024-06-20,2024-06-20,佐々木株式会社,,株式会社,東京都,大田区,西糀谷１丁目９番１６－３０２号,,13,111,1440034,,,,,,,2024-06-20,1,,,,,ササキ,0
1071,5010903009173,新規,0,2024-06-20,2024-06-20,合同会社ＪＥＴ,,合同会社,東京都,世田谷区,野沢３丁目２３番１５号,,13,112,1540003,,,,,,,2024-06-20,1,,,,,ジェット,0
1074,5011001162724,新規,0,2024-06-20,2024-06-20,ＯＨＡＮＡ株式会社,,株式会社,東京都,渋谷区,代々木２丁目３３番１６号－３０２,,13,113,1510053,,,,,,,2024-06-20,1,,,,,オハナ,0
1075,5011001162798,新規,0,2024-06-20,2024-06-20,株式会社ＩＣＨＩＫＡＳＡ,,株式会社,東京都,渋谷区,渋谷２丁目１９－１５宮益坂ビルディング６０９,,13,113,1500002,,,,,,,2024-06-20,1,,,,,イチカサ,0
1076,5011001162823,新規,0,2024-06-20,2024-06-20,株式会社キャメル,,株式会社,東京都,目黒区,東山１丁目１７番９号ＬＥＧＡＬＡＮＤＮＡＫＡＭＥＧＵＲＯ－２０３,,13,110,1530043,,,,,,,2024-06-20,1,,,,,キャラメル,0
1081,5011101107769,新規,0,2024-06-20,2024-06-20,株式会社禅,,株式会社,東京都,新宿区,西新宿２丁目６番１号新宿住友ビル４５階,,13,104,1600023,,,,,,,2024-06-20,1,,,,,ゼン,0
1085,5011603004365,新規,0,2024-06-20,2024-06-20,合同会社ＲＭＴａｘ,,合同会社,東京都,練馬区,中村北１丁目２０番１４号－９０３,,13,120,1760023,,,,,,,2024-06-20,1,,,,,アールエムタックス,0
1091,5011801044394,新規,0,2024-06-20,2024-06-20,恒健株式会社,,株式会社,東京都,葛飾区,新小岩３丁目２９－７ＫＡＫＵＲＥＯＦＦＩＣＥ新小岩２０３号室,,13,122,1240024,,,,,,,2024-06-20,1,,,,,コウケン,0
1092,5011801044403,新規,0,2024-06-20,2024-06-20,株式会社亜美,,株式会社,東京都,葛飾区,東堀切１丁目１７番２号,,13,122,1240004,,,,,,,2024-06-20,1,,,,,アミ,0
1093,5011801044411,新規,0,2024-06-20,2024-06-20,株式会社パージェンシー,,株式会社,東京都,足立区,千住１丁目４－１東京芸術センター１１階１１０１号室,,13,121,1200034,,,,,,,2024-06-20,1,,,,,パージェンシー,0
1102,5020001157766,新規,0,2024-06-20,2024-06-20,株式会社Ｅｎｅｒｇｙ　Ｓｔａｂｉｌｉｚｅ　Ｔｅｃｈｎｏｌｏｇｉｅｓ,,株式会社,神奈川県,横浜市鶴見区,平安町１丁目５７番地１パームツリーハウス２０３,,14,101,2300031,,,,,,,2024-06-20,1,,,,,エナジースタビライズテクノロジーズ,0
1103,5020001157790,新規,0,2024-06-20,2024-06-20,株式会社キャリアアーク,,株式会社,神奈川県,横浜市西区,楠町一丁目３番ＢＬＡ横浜西口７Ｆ,,14,103,2200003,,,,,,,2024-06-20,1,,,,,キャリアアーク,0
1107,5020003026358,新規,0,2024-06-20,2024-06-20,合同会社コード,,合同会社,神奈川県,横浜市旭区,川井本町４４番地２４,,14,112,2410803,,,,,,,2024-06-20,1,,,,,コード,0
1108,5020003026366,新規,0,2024-06-20,2024-06-20,両神総合商社合同会社,,合同会社,神奈川県,川崎市多摩区,中野島３丁目１３－１３アピエレガーデン３０５,,14,135,2140012,,,,,,,2024-06-20,1,,,,,リョウシンソウゴウショウシャ,0
1109,5021001082541,新規,0,2024-06-20,2024-06-20,株式会社ＭＯＮＤＥＬＯ,,株式会社,神奈川県,相模原市南区,上鶴間本町７丁目１２番２６号,,14,153,2520318,,,,,,,2024-06-20,1,,,,,モンデーロ,0
1114,5030001161016,新規,0,2024-06-20,2024-06-20,ＫＫＩサンパワー株式会社,,株式会社,埼玉県,戸田市,大字新曽８４５－１０１,,11,224,3350021,,,,,,,2024-06-20,1,,,,,ケーケーアイサンパワー,0
1115,5030001161024,新規,0,2024-06-20,2024-06-20,株式会社良時代,,株式会社,埼玉県,春日部市,中央１丁目１０番１２翁屋ビル２階Ｄ室,,11,214,3440067,,,,,,,2024-06-20,1,,,,,イイジダイ,0
1122,5040001134144,新規,0,2024-06-20,2024-06-20,株式会社ミハル,,株式会社,千葉県,千葉市若葉区,都賀１丁目１９番１３号,,12,104,2640025,,,,,,,2024-06-20,1,,,,,ミハル,0
1123,5040001134152,新規,0,2024-06-20,2024-06-20,株式会社古川電装,,株式会社,千葉県,山武市,松尾町谷津２３６番地,,12,237,2891503,,,,,,,2024-06-20,1,,,,,フルカワデンソウ,0
1124,5040001134160,新規,0,2024-06-20,2024-06-20,国際聯邦株式会社,,株式会社,千葉県,八街市,文違１６１番地１１７,,12,230,2891104,,,,,,,2024-06-20,1,,,,,コクサイレンポウ,0
1144,5070003005464,新規,0,2024-06-20,2024-06-20,ケアアドバイスナビゲート合同会社,,合同会社,群馬県,太田市,南ヶ丘町１２９６番地７,,10,205,3700415,,,,,,,2024-06-20,1,,,,,ケアアドバイスナビゲート,0
1145,5070003005472,新規,0,2024-06-20,2024-06-20,ＢＡＢＡ　ＦＡＲＩＤ　ＴＲＡＤＩＮＧ合同会社,,合同会社,群馬県,前橋市,亀泉町３６１番地１ハイツ赤坂２０５号,,10,201,3710004,,,,,,,2024-06-20,1,,,,,ババファリドトレーディング,0
1146,5080003003236,新規,0,2024-06-20,2024-06-20,ａｔｔｒａｃｔｉｖｅ合同会社,,合同会社,静岡県,静岡市葵区,古庄４丁目１６番７－２０９号,,22,101,4200812,,,,,,,2024-06-20,1,,,,,アトラクティブ,0
1163,5120001265773,新規,0,2024-06-20,2024-06-20,株式会社キューアス,,株式会社,大阪府,大阪市中央区,平野町３丁目１番２号,,27,128,5410046,,,,,,,2024-06-20,1,,,,,キューアス,0
1164,5120001265906,新規,0,2024-06-20,2024-06-20,株式会社アイ検査システムズ,,株式会社,大阪府,大阪市北区,梅田１丁目１１－４－９２３－１７０６,,27,127,5300001,,,,,,,2024-06-20,1,,,,,アイケンサシステムズ,0
1165,5120001266078,新規,0,2024-06-20,2024-06-20,株式会社トライロ,,株式会社,大阪府,大阪市北区,天神橋２丁目２番９号５階,,27,127,5300041,,,,,,,2024-06-20,1,,,,,トライロ,0
1166,5120001266103,新規,0,2024-06-20,2024-06-20,株式会社ひだまり,,株式会社,大阪府,大阪市東成区,大今里２丁目１７－１０プレジデント今里１００６号,,27,115,5370012,,,,,,,2024-06-20,1,,,,,ヒダマリ,0
1167,5120003026884,新規,0,2024-06-20,2024-06-20,合同会社ＴＳＮ,,合同会社,大阪府,大阪市淀川区,十三東１丁目２０番３－１２０４号,,27,123,5320023,,,,,,,2024-06-20,1,,,,,ティーエスエヌ,0
1168,5120005024382,新規,0,2024-06-20,2024-06-20,一般社団法人大阪カラーズ,,その他の設立登記法人,大阪府,大阪市此花区,伝法６丁目２－２９ＡＬＯＨＡＮＡ,,27,104,5540002,,,,,,,2024-06-20,1,,,,,オオサカカラーズ,0
1170,5120103005904,新規,0,2024-06-20,2024-06-20,合同会社Ｒ．Ｉ．Ｒ,,合同会社,大阪府,堺市堺区,松屋町１丁１７番地８,,27,141,5900903,,,,,,,2024-06-20,1,,,,,,0
1174,5120901049350,新規,0,2024-06-20,2024-06-20,株式会社ＥＣネクサス,,株式会社,大阪府,箕面市,稲５丁目７番５９号,,27,220,5620015,,,,,,,2024-06-20,1,,,,,イーシーネクサス,0
1180,5120905006620,新規,0,2024-06-20,2024-06-20,一般社団法人こども未来支援ゆめハグ,,その他の設立登記法人,大阪府,吹田市,岸部南２丁目２１番２９号,,27,205,5640011,,,,,,,2024-06-20,1,,,,,コドモミライシエンユメハグ,0
1182,5122005003754,新規,0,2024-06-20,2024-06-20,特定非営利活動法人命の輝き共生の森計画推進協議会,,その他の設立登記法人,大阪府,八尾市,山本町３丁目６番５号,,27,212,5810867,,,,,,,2024-06-20,1,,,,,イノチノカガヤキキョウセイノモリケイカクスイシンキョウギカイ,0
1185,5130003009640,新規,0,2024-06-20,2024-06-20,リーベック合同会社,,合同会社,京都府,向日市,物集女町南条９番地の６,,26,208,6170001,,,,,,,2024-06-20,1,,,,,リーベック,0
1187,5140001134852,新規,0,2024-06-20,2024-06-20,株式会社轍,,株式会社,兵庫県,明石市,魚住町住吉１丁目７－１４カーサベルデ１０３,,28,203,6740083,,,,,,,2024-06-20,1,,,,,ワダチ,0
1188,5140001134877,新規,0,2024-06-20,2024-06-20,株式会社アクアット,,株式会社,兵庫県,尼崎市,南武庫之荘２丁目２２番３０号,,28,202,6610033,,,,,,,2024-06-20,1,,,,,アクアット,0
1189,5140003020729,新規,0,2024-06-20,2024-06-20,合同会社Ｈａ．Ｓｕ．Ａ,,合同会社,兵庫県,たつの市,御津町岩見１４７－１,,28,229,6711331,,,,,,,2024-06-20,1,,,,,ハスア,0
1199,5180003026920,新規,0,2024-06-20,2024-06-20,合同会社ｄｘｇａｔｅ,,合同会社,愛知県,名古屋市緑区,滝ノ水４丁目４１２番地の１,,23,114,4580021,,,,,,,2024-06-20,1,,,,,ディーエックスゲート,0
1210,5240001063414,新規,0,2024-06-20,2024-06-20,株式会社ＭＫ不動産,,株式会社,広島県,広島市安佐南区,東野１丁目１５番１５－３号,,34,105,7310111,,,,,,,2024-06-20,1,,,,,エムケーフドウサン,0
1213,5250003003524,新規,0,2024-06-20,2024-06-20,合同会社ＷＡＬＬ,,合同会社,山口県,下関市,豊浦町大字川棚１５０９番地１市営二の浜住宅ＩＩＩ１０７号,00135240,35,201,7596301,,,,,,,2024-06-20,1,,,,,ウォール,0
1220,5290001106192,新規,0,2024-06-20,2024-06-20,株式会社ＰＦＣ,,株式会社,福岡県,福岡市中央区,小笹１丁目２２番２５号,,40,133,8100033,,,,,,,2024-06-20,1,,,,,ピーエフシー,0
1222,5290803004759,新規,0,2024-06-20,2024-06-20,合同会社ＡＳＡＨＩ,,合同会社,福岡県,田川市,大字弓削田１４９２番１４,,40,206,8260041,,,,,,,2024-06-20,1,,,,,アサヒ,0
1223,5300001013800,新規,0,2024-06-20,2024-06-20,株式会社スリーポンズ,,株式会社,佐賀県,佐賀市,嘉瀬町大字扇町２４６９番地５,,41,201,8400862,,,,,,,2024-06-20,1,,,,,スリーポンズ,0
1237,5350003004677,新規,0,2024-06-20,2024-06-20,Ｏ．Ｇ　ＭＥＳＫＡＮＡ　ＧＲＯＵＰ合同会社,,合同会社,宮崎県,宮崎市,清武町加納４丁目２１番地１０１号,,45,201,8891607,,,,,,,2024-06-20,1,,,,,オージーメスカナグループ,0
1239,5370001051430,新規,0,2024-06-20,2024-06-20,株式会社ＪＢＰ,,株式会社,宮城県,大崎市,三本木南谷地字要害３４６番地の５,,04,215,9896322,,,,,,,2024-06-20,1,,,,,ジェービーピー,0
1251,5410003003945,新規,0,2024-06-20,2024-06-20,合同会社コウ,,合同会社,秋田県,北秋田市,元町１１番１号,,05,213,0183325,,,,,,,2024-06-20,1,,,,,コウ,0
1261,5700150125595,新規,0,2024-06-20,2024-05-28,熊本県冷水魚養殖漁業組合,,その他,熊本県,熊本市東区,新生２丁目６番１２号,,43,102,8620908,,,,,,,2024-05-28,1,,,,,クマモトケンレイスイギヨヨウシヨクギヨギヨウクミアイ,0
1262,5700150126073,新規,0,2024-06-20,2024-06-20,Ｎｏｚａｗａ　Ｈｏｍｅｓ　Ｌｉｍｉｔｅｄ,,外国会社等,長野県,下高井郡野沢温泉村,大字豊郷４８５１－１,,20,563,3892502,１７／Ｆ　ＬＫＦ　２９　２９　ＷＹＮＤＨＡＭ　ＳＴＲＥＥＴ　ＣＥＮＴＲＡＬ　ＨＯＮＧ　ＫＯＮＧ,,,,,,2024-06-20,1,,,,,ノザワホームズリミテツド,0
1268,6010001245752,新規,0,2024-06-20,2024-06-20,株式会社フューチャー・パートナーズ,,株式会社,東京都,千代田区,有楽町２丁目１０番１号,,13,101,1000006,,,,,,,2024-06-20,1,,,,,フューチャーパートナーズ,0
1269,6010001245959,新規,0,2024-06-20,2024-06-20,誠基株式会社,,株式会社,東京都,中央区,日本橋兜町五丁目１番,,13,102,1030026,,,,,,,2024-06-20,1,,,,,セイキ,0
1272,6010003044070,新規,0,2024-06-20,2024-06-20,所沢インベストメント合同会社,,合同会社,東京都,中央区,京橋２丁目１２番６号ＡＯＪ税理士法人内,,13,102,1040031,,,,,,,2024-06-20,1,,,,,トコロザワインベストメント,0
1273,6010003044095,新規,0,2024-06-20,2024-06-20,内田アカウンティング合同会社,,合同会社,東京都,文京区,千石３丁目１０－５－１０８,,13,105,1120011,,,,,,,2024-06-20,1,,,,,ウチダアカウンティング,0
1282,6010401183206,新規,0,2024-06-20,2024-06-20,株式会社ＤＲＵＳＴ,,株式会社,東京都,港区,港南３丁目７番１６号,,13,103,1080075,,,,,,,2024-06-20,1,,,,,,0
1283,6010405023325,新規,0,2024-06-20,2024-06-20,一般財団法人ＳＤＧｓシンビジョン,,その他の設立登記法人,東京都,港区,赤坂３丁目１１番１４号,,13,103,1070052,,,,,,,2024-06-20,1,,,,,エスディージーズシンビジョン,0
1287,6010501052483,新規,0,2024-06-20,2024-06-20,Ｏｎｃｅ　ｕｐｏｎ　ａ　ｐｌａｃｅ株式会社,,株式会社,東京都,台東区,上野桜木１丁目１０－１９－９０１,,13,106,1100002,,,,,,,2024-06-20,1,,,,,ワンスアポンアプレイス,0
1288,6010601065410,新規,0,2024-06-20,2024-06-20,ＢｉｎｇｏＫｉ株式会社,,株式会社,東京都,江東区,北砂３丁目２８番１号不動コーポ１０８号室,,13,108,1360073,,,,,,,2024-06-20,1,,,,,ビンゴキー,0
1303,6011001162772,新規,0,2024-06-20,2024-06-20,株式会社ＢＯＳＣＯ　ＳＰＡＣＥ,,株式会社,東京都,目黒区,碑文谷３丁目９番４号,,13,110,1520003,,,,,,,2024-06-20,1,,,,,ボスコスペース,0
1304,6011001162789,新規,0,2024-06-20,2024-06-20,株式会社ＯｎｅＧｏ,,株式会社,東京都,渋谷区,渋谷２丁目１９－１５宮益坂ビルディング６０９,,13,113,1500002,,,,,,,2024-06-20,1,,,,,ワンゴー,0
1305,6011001162797,新規,0,2024-06-20,2024-06-20,株式会社Ｚ‐ＬＩＶＥＳ,,株式会社,東京都,目黒区,下目黒１丁目１番１４号コノトラビル７Ｆ,,13,110,1530064,,,,,,,2024-06-20,1,,,,,ゼットライブス,0
1309,6011101107611,新規,0,2024-06-20,2024-06-20,健愛コーポレーション株式会社,,株式会社,東京都,新宿区,西新宿８丁目１１番１０号３階,,13,104,1600023,,,,,,,2024-06-20,1,,,,,ケンアイコーポレーション,0
1310,6011101107743,新規,0,2024-06-20,2024-06-20,株式会社新日本都市再開発,,株式会社,東京都,新宿区,西新宿７丁目１８番１２号,,13,104,1600023,,,,,,,2024-06-20,1,,,,,シンニホントシサイカイハツ,0
1314,6011203004418,新規,0,2024-06-20,2024-06-20,合同会社Ｓｕｎｎｙｆａｍｉｌｙ,,合同会社,東京都,中野区,松が丘２丁目８番３号プチハイツナカムラ２０５,,13,114,1650024,,,,,,,2024-06-20,1,,,,,サニーファミリー,0
1315,6011301029770,新規,0,2024-06-20,2024-06-20,ＪＡＰＡＮ　ＩＮＴＥＲＮＡＴＩＯＮＡＬ　ＴＲＡＤＩＮＧ株式会社,,株式会社,東京都,杉並区,高円寺南１丁目２１－１６,,13,115,1660003,,,,,,,2024-06-20,1,,,,,ジャパンインターナショナルトレイディング,0
1316,6011303005209,新規,0,2024-06-20,2024-06-20,和パートナー合同会社,,合同会社,東京都,杉並区,高井戸東１丁目３１番２－２１１号,,13,115,1680072,,,,,,,2024-06-20,1,,,,,ナゴミパートナー,0
1319,6011501030834,新規,0,2024-06-20,2024-06-20,株式会社エテルナ,,株式会社,東京都,荒川区,南千住１丁目４５番８－１０３号Ｂ,,13,118,1160003,,,,,,,2024-06-20,1,,,,,エテルナ,0
1322,6011703003877,新規,0,2024-06-20,2024-06-20,ＢＢＣ合同会社,,合同会社,東京都,江戸川区,西小岩１丁目２０－１８・２階,,13,123,1330057,,,,,,,2024-06-20,1,,,,,ビービーシー,0
1324,6011805003379,新規,0,2024-06-20,2024-06-20,一般社団法人ＪＨＳ日本高校教育振興協会,,その他の設立登記法人,東京都,足立区,弘道２丁目２３番２号グリーンパーク第４五反野１０１号,,13,121,1200013,,,,,,,2024-06-20,1,,,,,ジェイエイチエスニホンコウコウキョウイクシンコウキョウカイ,0
1328,6012401042011,新規,0,2024-06-20,2024-06-20,ＭＺＴ株式会社,,株式会社,東京都,稲城市,東長沼１３５０－１７,,13,225,2060802,,,,,,,2024-06-20,1,,,,,エムゼットティー,0
1329,6012801023271,新規,0,2024-06-20,2024-06-20,アプライドインフラレッドテクノロジー株式会社,,株式会社,東京都,武蔵村山市,学園４丁目２１番地の１７,,13,223,2080011,,,,,,,2024-06-20,1,,,,,アプライドインフラレッドテクノロジー,0
1341,6020001157864,新規,0,2024-06-20,2024-06-20,株式会社Ｍａｎａ,,株式会社,神奈川県,川崎市川崎区,小田３丁目１６－９グレイシス川崎３０２,,14,131,2100846,,,,,,,2024-06-20,1,,,,,マナ,0
1345,6020003026365,新規,0,2024-06-20,2024-06-20,合同会社たまみ,,合同会社,神奈川県,川崎市麻生区,王禅寺西３丁目４０番２１号,,14,137,2150017,,,,,,,2024-06-20,1,,,,,タマミ,0
1346,6020003026407,新規,0,2024-06-20,2024-06-20,合同会社ＥＳＴＡ,,合同会社,神奈川県,横浜市保土ケ谷区,峰岡町２丁目２８８番地ティ・アイ・ハイム２０２号室,,14,106,2400064,,,,,,,2024-06-20,1,,,,,エスタ,0
1348,6021001082532,新規,0,2024-06-20,2024-06-20,Ｓｔｒａｔ　ｐａｒｔｎｅｒｓ株式会社,,株式会社,神奈川県,相模原市緑区,橋本３丁目２７番６号,,14,151,2520143,,,,,,,2024-06-20,1,,,,,ストラットパートナーズ,0
1356,6040001134127,新規,0,2024-06-20,2024-06-20,ＵＮＩＴＥＤ　ＭＯＴＯＲＳ株式会社,,株式会社,千葉県,印西市,師戸２５０６番５,,12,231,2701615,,,,,,,2024-06-20,1,,,,,ユナイテッドモータース,0
1357,6040001134143,新規,0,2024-06-20,2024-06-20,株式会社ＵＷｉｌ,,株式会社,千葉県,千葉市花見川区,幕張本郷２丁目３６－３－１０２,,12,102,2620033,,,,,,,2024-06-20,1,,,,,ウィル,0
1358,6040001134168,新規,0,2024-06-20,2024-06-20,株式会社アソビ・インターナショナル・コンサルティング,,株式会社,千葉県,東金市,田間１２８７番地４ダイアパレス東金ＩＩＩ１００２,00135249,12,213,2830005,,,,,,,2024-06-20,1,,,,,アソビインターナショナルコンサルティング,0
1366,6070001041873,新規,0,2024-06-20,2024-06-20,ＪＳＥ株式会社,,株式会社,群馬県,太田市,由良町９６６番地１,,10,205,3730036,,,,,,,2024-06-20,1,,,,,ジェイエスイー,0
1367,6070001041881,新規,0,2024-06-20,2024-06-20,株式会社ＷＩＮＳ　ＴＨＲＥＥ,,株式会社,群馬県,高崎市,上並榎町３１５番地１ハックベリー２０３,,10,202,3700801,,,,,,,2024-06-20,1,,,,,ウィンズスリー,0
1375,6110001038502,新規,0,2024-06-20,2024-06-20,アグリＳＳ株式会社,,株式会社,新潟県,阿賀野市,庄ケ宮２８０番地１,,15,223,9592046,,,,,,,2024-06-20,1,,,,,アグリエスエス,0
1394,6120001265913,新規,0,2024-06-20,2024-06-20,エム・アイ・プラン株式会社,,株式会社,大阪府,大阪市住吉区,我孫子３丁目１３番５号,,27,120,5580014,,,,,,,2024-06-20,1,,,,,エムアイプラン,0
1395,6120001266036,新規,0,2024-06-20,2024-06-20,株式会社ｍｅｒａｙ,,株式会社,大阪府,枚方市,出口５丁目７０番１号,,27,210,5730065,,,,,,,2024-06-20,1,,,,,ミレイ,0
1396,6120001266093,新規,0,2024-06-20,2024-06-20,株式会社ｂｉｅｎ,,株式会社,大阪府,大阪市西区,北堀江１丁目６－３きんき四ツ橋ビル６０１,,27,106,5500014,,,,,,,2024-06-20,1,,,,,ビアン,0
1398,6120003026867,新規,0,2024-06-20,2024-06-20,合同会社Ｌｉｆｅ　Ｇｏｅｓ　Ｏｎ,,合同会社,大阪府,大阪市北区,梅田１丁目２番２号大阪駅前第２ビル１２‐１２,,27,127,5300001,,,,,,,2024-06-20,1,,,,,ライフゴーズオン,0
1399,6120003026891,新規,0,2024-06-20,2024-06-20,Ｃｔｒｌ　Ｖスタジオ合同会社,,合同会社,大阪府,大阪市都島区,片町２丁目５－６,,27,102,5340025,,,,,,,2024-06-20,1,,,,,コントロールブイスタジオ,0
1401,6120101069818,新規,0,2024-06-20,2024-06-20,株式会社Ｄｉｇｉｐｒｏｐ,,株式会社,大阪府,河内長野市,荘園町２８番９号,,27,216,5860093,,,,,,,2024-06-20,1,,,,,デジプロップ,0
1403,6120103005903,新規,0,2024-06-20,2024-06-20,合同会社Ｏｎｅ　Ｈｅａｒｔ,,合同会社,大阪府,堺市中区,土塔町２３２４番地５,,27,142,5998234,,,,,,,2024-06-20,1,,,,,ワンハート,0
1406,6122001038209,新規,0,2024-06-20,2024-06-20,株式会社Ａｓｓｉｓｔ・Ｏｎｅ,,株式会社,大阪府,八尾市,東山本町６丁目９番１５号,,27,212,5810847,,,,,,,2024-06-20,1,,,,,アシストワン,0
1410,6130001077325,新規,0,2024-06-20,2024-06-20,Ｇｏ＆Ｇｏ株式会社,,株式会社,京都府,木津川市,州見台６丁目１番地９３,,26,214,6190216,,,,,,,2024-06-20,1,,,,,ゴーアンドゴー,0
1421,6180001162048,新規,0,2024-06-20,2024-06-20,株式会社ＬＯＮＥ　ＴＲＡＤＩＮＧ,,株式会社,愛知県,愛西市,新右エ門新田町郷東４２番地２,,23,232,4960934,,,,,,,2024-06-20,1,,,,,ローントレーディング,0
1422,6180001162056,新規,0,2024-06-20,2024-06-20,株式会社新正興業,,株式会社,愛知県,春日井市,東神明町２丁目２番地６,,23,206,4870021,,,,,,,2024-06-20,1,,,,,シンセイコウギョウ,0
1427,6180303006159,新規,0,2024-06-20,2024-06-20,合同会社ｒｅｌａｔｉｖｅ,,合同会社,愛知県,新城市,城北３丁目１番地１０,,23,221,4411371,,,,,,,2024-06-20,1,,,,,リラティブ,0
1445,6240001063405,新規,0,2024-06-20,2024-06-20,隆浩産業株式会社,,株式会社,広島県,広島市安佐南区,伴北６丁目９８０９番地,,34,105,7313163,,,,,,,2024-06-20,1,,,,,タカヒロサンギョウ,0
1450,6250003003523,新規,0,2024-06-20,2024-06-20,合同会社ガネーシャ,,合同会社,山口県,下関市,豊浦町大字川棚１５０９番地１市営二の浜住宅ＩＩＩ１０７号,00135241,35,201,7596301,,,,,,,2024-06-20,1,,,,,ガネーシャ,0
1456,6290001106134,新規,0,2024-06-20,2024-06-20,株式会社キタオカ,,株式会社,福岡県,久留米市,寺町３－２シティマンション久留米５－１１０１号,,40,203,8300014,,,,,,,2024-06-20,1,,,,,キタオカ,0
1457,6290001106200,新規,0,2024-06-20,2024-06-20,株式会社ＨＥＲＣＵＬＥＳ,,株式会社,福岡県,福岡市中央区,舞鶴１丁目８番３０号１Ｆ－Ｄ,,40,133,8100073,,,,,,,2024-06-20,1,,,,,ヘラクレス,0
1458,6290001106217,新規,0,2024-06-20,2024-06-20,ハジメホールディングス株式会社,,株式会社,福岡県,那珂川市,今光２丁目２００番地,,40,231,8111211,,,,,,,2024-06-20,1,,,,,ハジメホールディングス,0
1460,6290801030657,新規,0,2024-06-20,2024-06-20,株式会社井上技建,,株式会社,福岡県,田川郡福智町,金田９６８番地４,,40,610,8221201,,,,,,,2024-06-20,1,,,,,イノウエギケン,0
1464,6330003010429,新規,0,2024-06-20,2024-06-20,合同会社ＳＡＫＵＲＡ,,合同会社,熊本県,熊本市西区,松尾１丁目３番１２号,,43,103,8615280,,,,,,,2024-06-20,1,,,,,サクラ,0
1466,6350001019024,新規,0,2024-06-20,2024-06-20,株式会社クリエイトオブマインド,,株式会社,宮崎県,東臼杵郡門川町,大字門川尾末８２５７番地２,,45,421,8890611,,,,,,,2024-06-20,1,,,,,クリエイトオブマインド,0
1467,6350003004676,新規,0,2024-06-20,2024-06-20,合同会社Ｋ３,,合同会社,宮崎県,宮崎市,大島町原ノ前１４４５番地１７リバーサイド大島３　３０５号,,45,201,8800824,,,,,,,2024-06-20,1,,,,,,0
1481,6380003005787,新規,0,2024-06-20,2024-06-20,ラッキービィーナス合同会社,,合同会社,福島県,白河市,大工町３８番地,,07,205,9610936,,,,,,,2024-06-20,1,,,,,ラッキービィーナス,0
1504,6700150117674,新規,0,2024-06-20,2023-06-23,王子放課後児童クラブ,,その他,和歌山県,新宮市,田鶴原町２丁目１０－１,,30,207,6470031,,,,,,,2023-06-23,1,,,,,オウジホウカゴジドウクラブ,0
1505,6700150126072,新規,0,2024-06-20,2024-06-20,ＪＡＰＡＮ　ＭＯＵＮＴＡＩＮ　ＩＮＶＥＳＴＭＥＮＴＳ　Ｉ　Ｌｉｍｉｔｅｄ,00135205,外国会社等,長野県,下高井郡野沢温泉村,大字豊郷９６７８－１,,20,563,3892502,１７／Ｆ　ＬＫＦ　２９　２９　ＷＹＮＤＨＡＭ　ＳＴＲＥＥＴ　ＣＥＮＴＲＡＬ　ＨＯＮＧ　ＫＯＮＧ,,,,,,2024-06-20,1,,,,,ジヤパンマウンテンインベストメンツワンリミテツド,0
1506,6700150126080,新規,0,2024-06-20,2024-06-20,神戸南十日市町自治会,,その他,三重県,鈴鹿市,神戸２丁目９番９号,,24,207,5130801,,,,,,,2024-06-20,1,,,,,カンベミナミトオカイチマチジチカイ,0
1510,7010001245941,新規,0,2024-06-20,2024-06-20,株式会社ｌｕｍｉｐｏｒｔ,,株式会社,東京都,中央区,銀座１丁目１２－４Ｎ＆Ｅ－ＢＬＤ．７階,,13,102,1040061,,,,,,,2024-06-20,1,,,,,ルミポート,0
1514,7010003044086,新規,0,2024-06-20,2024-06-20,合同会社Ｇｒａｎｄ　Ｇａｔｅ　Ｈａｋｏｎｅ,,合同会社,東京都,千代田区,麹町４丁目８番地１ＴＨＥ－ＭＯＣＫ－ＵＰ３１１,,13,101,1020083,,,,,,,2024-06-20,1,,,,,グランドゲートハコネ,0
1527,7010401183196,新規,0,2024-06-20,2024-06-20,株式会社国土開発機構,,株式会社,東京都,港区,虎ノ門５丁目１１番１５号,,13,103,1050001,,,,,,,2024-06-20,1,,,,,コクドカイハツキコウ,0
1528,7010401183205,新規,0,2024-06-20,2024-06-20,株式会社ＢＬＯＯＭ　ＥＶＥＲ,,株式会社,東京都,港区,北青山１丁目３番１号アールキューブ青山３階,,13,103,1070061,,,,,,,2024-06-20,1,,,,,ブルームエバー,0
1529,7010401183304,新規,0,2024-06-20,2024-06-20,株式会社新海ドリンクス,,株式会社,東京都,港区,芝大門２丁目１－２山口ビル６階,,13,103,1050012,,,,,,,2024-06-20,1,,,,,シンカイドリンクス,0
1530,7010403032839,新規,0,2024-06-20,2024-06-20,合同会社永谷栄商事,,合同会社,東京都,港区,高輪４丁目２４番５５号,,13,103,1080074,,,,,,,2024-06-20,1,,,,,ナガタニエイショウジ,0
1536,7010503007492,新規,0,2024-06-20,2024-06-20,エムエス幕張合同会社,,合同会社,東京都,台東区,今戸１丁目６－２５－１０１,,13,106,1110024,,,,,,,2024-06-20,1,,,,,エムエスマクハリ,0
1540,7010701046160,新規,0,2024-06-20,2024-06-20,株式会社ＨＲＩｎｆｉｎｉｔｙ,,株式会社,東京都,品川区,西五反田５丁目２３番３号ＢＬＯＣＫＳ目黒不動前,,13,109,1410031,,,,,,,2024-06-20,1,,,,,エイチアールインフィニティー,0
1542,7010901055498,新規,0,2024-06-20,2024-06-20,賢治株式会社,,株式会社,東京都,世田谷区,喜多見９丁目８番８号中原ビル３０１,,13,112,1570067,,,,,,,2024-06-20,1,,,,,ケンジ,0
1549,7011003019383,新規,0,2024-06-20,2024-06-20,合同会社天使館,,合同会社,東京都,渋谷区,道玄坂１丁目１０番８号渋谷道玄坂東急ビル２Ｆ－Ｃ,,13,113,1500043,,,,,,,2024-06-20,1,,,,,テンシカン,0
1553,7011303005208,新規,0,2024-06-20,2024-06-20,合同会社ＴＯＲＡインターナショナル,,合同会社,東京都,杉並区,和泉３丁目４９番５号,,13,115,1680063,,,,,,,2024-06-20,1,,,,,トラインターナショナル,0
1558,7011601027837,新規,0,2024-06-20,2024-06-20,天元科技株式会社,,株式会社,東京都,練馬区,旭丘１丁目８番１－４１２号,,13,120,1760005,,,,,,,2024-06-20,1,,,,,テンゲンカギ,0
1562,7011803006300,新規,0,2024-06-20,2024-06-20,ＭＡＣ　ＩＮＴＥＲＩＯＲＳ合同会社,,合同会社,東京都,葛飾区,堀切６丁目２９番１４号,,13,122,1240006,,,,,,,2024-06-20,1,,,,,マックインテリアズ,0
1564,7012801023270,新規,0,2024-06-20,2024-06-20,３Ｂｒｉｄｇｅ株式会社,,株式会社,東京都,国分寺市,本多１丁目６－３梅田ビル２階Ｂ号室,,13,214,1850011,,,,,,,2024-06-20,1,,,,,スリーブリッジ,0
1565,7013301052702,新規,0,2024-06-20,2024-06-20,ＣａｍＲｏｖｅｒ株式会社,,株式会社,東京都,豊島区,北大塚１丁目１９番１２号コルティス大塚６Ｆ－２２,,13,116,1700004,,,,,,,2024-06-20,1,,,,,カムローヴァー,0
1569,7020001157764,新規,0,2024-06-20,2024-06-20,ＨＡＰＰＹ‐ＶＮ株式会社,,株式会社,神奈川県,川崎市幸区,小倉３丁目２５番１９号,,14,132,2120054,,,,,,,2024-06-20,1,,,,,ハッピーブイエヌ,0
1570,7020001157863,新規,0,2024-06-20,2024-06-20,株式会社Ｎ‐ＢＡＳＥ,,株式会社,神奈川県,横浜市青葉区,もみの木台２５番地４７,,14,117,2250026,,,,,,,2024-06-20,1,,,,,エヌベース,0
1575,7020003026356,新規,0,2024-06-20,2024-06-20,ＧＸ　ＳＣＲＵＭ合同会社,,合同会社,神奈川県,横浜市中区,滝之上６番地１－１０７号,,14,104,2310837,,,,,,,2024-06-20,1,,,,,ジーエックススクラム,0
1576,7020003026372,新規,0,2024-06-20,2024-06-20,合同会社創,,合同会社,神奈川県,横浜市青葉区,すすき野２丁目８－６－１０４,,14,117,2250021,,,,,,,2024-06-20,1,,,,,ツクル,0
1580,7021003014648,新規,0,2024-06-20,2024-06-20,合同会社琉球,,合同会社,神奈川県,大和市,桜森２丁目２３番１号桜森中央マンション３０２,,14,213,2420028,,,,,,,2024-06-20,1,,,,,リュウキュウ,0
1591,7030001160998,新規,0,2024-06-20,2024-06-20,株式会社ＴＨＸ,,株式会社,埼玉県,さいたま市大宮区,桜木町２丁目３番地大宮マルイ７階,,11,103,3300854,,,,,,,2024-06-20,1,,,,,ティーエイチエックス,0
1594,7030003024540,新規,0,2024-06-20,2024-06-20,山口創建合同会社,,合同会社,埼玉県,坂戸市,泉町２丁目１６番地８フローレス富士見２０８号室,,11,239,3500231,,,,,,,2024-06-20,1,,,,,ヤマグチソウケン,0
1595,7030003024557,新規,0,2024-06-20,2024-06-20,合同会社ＳＵＧＡＲ,,合同会社,埼玉県,春日部市,小渕９９６番地７－１０１,,11,214,3440007,,,,,,,2024-06-20,1,,,,,シュガー,0
1602,7040001134167,新規,0,2024-06-20,2024-06-20,株式会社テキパキ,,株式会社,千葉県,船橋市,東船橋６丁目１１－５８,,12,204,2730002,,,,,,,2024-06-20,1,,,,,テキパキ,0
1604,7040003025240,新規,0,2024-06-20,2024-06-20,ＤＩＲＥＣＴ　ＦＡＣＴＯＲＹ合同会社,,合同会社,千葉県,船橋市,上山町３丁目５１６番地１９,,12,204,2730046,,,,,,,2024-06-20,1,,,,,ダイレクトファクトリー,0
1605,7040003025249,新規,0,2024-06-20,2024-06-20,ＪＡＣ合同会社,,合同会社,千葉県,千葉市中央区,要町３－９－１３０６,,12,101,2600017,,,,,,,2024-06-20,1,,,,,ジェシー,0
1622,7080401027248,新規,0,2024-06-20,2024-06-20,アイラ株式会社,,株式会社,静岡県,周智郡森町,城下３１９番地の１,,22,461,4370211,,,,,,,2024-06-20,1,,,,,アイラ,0
1634,7120001266043,新規,0,2024-06-20,2024-06-20,恒信株式会社,,株式会社,大阪府,大阪市東淀川区,東中島１丁目１７番１号ステュディオ新大阪２３８号室,,27,114,5330033,,,,,,,2024-06-20,1,,,,,コウシン,0
1635,7120001266068,新規,0,2024-06-20,2024-06-20,株式会社ＥＣＯ　ＧＲＯＵＰ,,株式会社,大阪府,大阪市大正区,鶴町１丁目８番１５号,,27,108,5510023,,,,,,,2024-06-20,1,,,,,エコーグループ,0
1636,7120001266092,新規,0,2024-06-20,2024-06-20,株式会社ＯＲＥＣ,,株式会社,大阪府,大阪市中央区,瓦町４丁目６番８－２８０１号,,27,128,5410048,,,,,,,2024-06-20,1,,,,,オレック,0
1638,7120003026874,新規,0,2024-06-20,2024-06-20,Ｃａｌｘ　Ｍａｒｉａｅ合同会社,,合同会社,大阪府,大阪市住吉区,我孫子５丁目１番１３号,,27,120,5580014,,,,,,,2024-06-20,1,,,,,カルクスマリアエ,0
1643,7120101069800,新規,0,2024-06-20,2024-06-20,阪陽国際株式会社,,株式会社,大阪府,泉北郡忠岡町,北出２丁目５－７北出倉庫ＴＨ１０２号室,,27,341,5950803,,,,,,,2024-06-20,1,,,,,ハンヨウコクサイ,0
1645,7120901049349,新規,0,2024-06-20,2024-06-20,株式会社クリエイトＮＥＸＴ,,株式会社,大阪府,茨木市,南春日丘５丁目３番４４号の２,,27,211,5670046,,,,,,,2024-06-20,1,,,,,クリエイトネクスト,0
1648,7120905006619,新規,0,2024-06-20,2024-06-20,社会保険労務士法人中小企業人材育成協会,,その他の設立登記法人,大阪府,豊中市,新千里東町１丁目１番２号,,27,203,5600082,,,,,,,2024-06-20,1,,,,,チュウショウキギョウジンザイイクセイキョウカイ,0
1651,7122001038208,新規,0,2024-06-20,2024-06-20,はれのひ株式会社,,株式会社,大阪府,東大阪市,菱江１丁目５番２１号,,27,227,5780984,,,,,,,2024-06-20,1,,,,,ハレノヒ,0
1655,7130001077324,新規,0,2024-06-20,2024-06-20,株式会社想結び,,株式会社,京都府,京都市下京区,中堂寺南町１３４番地ＡＳＴＥＭビル８階,,26,106,6008813,,,,,,,2024-06-20,1,,,,,オムスビ,0
1668,7140005027118,新規,0,2024-06-20,2024-06-20,特定非営利活動法人Ｎａｎｎｙ,,その他の設立登記法人,兵庫県,宝塚市,すみれガ丘２丁目１番１－９１２号,,28,214,6650847,,,,,,,2024-06-20,1,,,,,ナニー,0
1672,7160001026014,新規,0,2024-06-20,2024-06-20,株式会社ＳＡＬＭＯＮ　ＧＡＲＡＧＥ,,株式会社,滋賀県,愛知郡愛荘町,沓掛６３３番地,,25,425,5291315,,,,,,,2024-06-20,1,,,,,サーモンガレッジ,0
1678,7180001162047,新規,0,2024-06-20,2024-06-20,株式会社鈴防水,,株式会社,愛知県,愛知郡東郷町,大字春木字中屋敷１１４８番地,,23,302,4700162,,,,,,,2024-06-20,1,,,,,スズボウスイ,0
1679,7180001162055,新規,0,2024-06-20,2024-06-20,オーセンティックケア株式会社,,株式会社,愛知県,名古屋市守山区,下志段味３丁目２００１番地,,23,113,4630003,,,,,,,2024-06-20,1,,,,,オーセンティックケア,0
1680,7180001162071,新規,0,2024-06-20,2024-06-20,かしわ商事株式会社,,株式会社,愛知県,名古屋市中区,錦１丁目１７番１３号,,23,106,4600003,,,,,,,2024-06-20,1,,,,,カシワショウジ,0
1682,7180003026951,新規,0,2024-06-20,2024-06-20,合同会社ほのぼーの,,合同会社,愛知県,名古屋市東区,東桜１丁目４番２９号,,23,102,4610005,,,,,,,2024-06-20,1,,,,,ホノボーノ,0
1694,7240001063412,新規,0,2024-06-20,2024-06-20,株式会社オフィスキテン,,株式会社,広島県,広島市中区,幟町１番７号タツクマンション幟町６０１,,34,101,7300016,,,,,,,2024-06-20,1,,,,,オフィスキテン,0
1709,7290003015480,新規,0,2024-06-20,2024-06-20,ＳｈａｒｅＥｓｔａｔｅＤＡＯ合同会社,,合同会社,福岡県,福岡市東区,大岳３丁目４－２５－１０２,,40,131,8110322,,,,,,,2024-06-20,1,,,,,シェアエステートダオ,0
1711,7290005019430,新規,0,2024-06-20,2024-06-20,一般社団法人太宰府あんしんの家,,その他の設立登記法人,福岡県,太宰府市,青山１丁目７番１号,,40,221,8180121,,,,,,,2024-06-20,1,,,,,ダザイフアンシンノイエ,0
1712,7290803004757,新規,0,2024-06-20,2024-06-20,合同会社トウキン,,合同会社,福岡県,北九州市若松区,響町１丁目８６番５号,,40,103,8080021,,,,,,,2024-06-20,1,,,,,トウキン,0
1713,7290805009754,新規,0,2024-06-20,2024-06-20,一般社団法人福岡県高齢者福祉協会,,その他の設立登記法人,福岡県,直方市,大字上境２０１８番地３,,40,204,8220006,,,,,,,2024-06-20,1,,,,,フクオカケンコウレイシャフクシキョウカイ,0
1716,7320003004397,新規,0,2024-06-20,2024-06-20,ビーベック合同会社,,合同会社,大分県,国東市,国東町安国寺２４７８番地,,44,214,8730504,,,,,,,2024-06-20,1,,,,,ビーベック,0
1723,7340003004511,新規,0,2024-06-20,2024-06-20,合同会社ＹＩＴ,,合同会社,鹿児島県,鹿児島市,西陵５丁目１６番１０号,,46,201,8900032,,,,,,,2024-06-20,1,,,,,ワイアイティー,0
1725,7350001019023,新規,0,2024-06-20,2024-06-20,アズライト株式会社,,株式会社,宮崎県,宮崎市,霧島５丁目５３番地３,,45,201,8800032,,,,,,,2024-06-20,1,,,,,,0
1731,7360001033840,新規,0,2024-06-20,2024-06-20,株式会社けあんちゅ,,株式会社,沖縄県,浦添市,宮城２丁目４１－８,,47,208,9012126,,,,,,,2024-06-20,1,,,,,ケアンチュ,0
1735,7370001051437,新規,0,2024-06-20,2024-06-20,株式会社伊織工業,,株式会社,宮城県,仙台市宮城野区,自由ケ丘１３番２５号,,04,102,9830831,,,,,,,2024-06-20,1,,,,,イオリコウギョウ,0
1742,7420001018769,新規,0,2024-06-20,2024-06-20,株式会社おおわにシャモロックファーム,,株式会社,青森県,南津軽郡大鰐町,大字早瀬野字小金沢２０４番地１,,02,362,0380222,,,,,,,2024-06-20,1,,,,,オオワニシャモロックファーム,0
1746,7430003016480,新規,0,2024-06-20,2024-06-20,合同会社二世古Ｋｏｎ,,合同会社,北海道,余市郡仁木町,北町３丁目６７,,01,407,0482405,,,,,,,2024-06-20,1,,,,,ニセココン,0
1749,7450003002504,新規,0,2024-06-20,2024-06-20,ＣＭＡコンサル合同会社,,合同会社,北海道,上川郡東神楽町,南一条西３丁目１番１３号,,01,453,0711501,,,,,,,2024-06-20,1,,,,,シーエムエーコンサル,0
1754,7700150126071,新規,0,2024-06-20,2024-06-20,Ｗ　ＳＴＵＤＩＯ　ＣＯＭＰＡＮＹ　ＬＩＭＩＴＥＤ,,外国会社等,,,,,,,,Ｕｎｉｔ　７１５，７／Ｆ．Ｋｗｏｎｇ　Ｓａｎｇ　Ｈｏｎｇ　Ｃｅｎｔｒｅ，１５１　Ｈｏｉ　Ｂｕｎ　Ｒｏａｄ，Ｋｗｕｎ　Ｔｏｎｇ，Ｋｏｗｌｏｏｎ，Ｈｏｎｇ　Ｋｏｎｇ,,,,,,2024-06-20,1,,,,,ダブリユーステユーデイオカンパニーリミテツド,0
1763,8010001245593,新規,0,2024-06-20,2024-06-20,ロジカスジャパン株式会社,,株式会社,東京都,千代田区,丸の内１丁目１１番１号,,13,101,1000005,,,,,,,2024-06-20,1,,,,,ロジカスジャパン,0
1764,8010001245627,新規,0,2024-06-20,2024-06-20,海晟日本株式会社,,株式会社,東京都,千代田区,丸の内３丁目２番２号丸の内二重橋ビル２階,,13,101,1000005,,,,,,,2024-06-20,1,,,,,カイセイニホン,0
1765,8010001245940,新規,0,2024-06-20,2024-06-20,株式会社リベルテサイド,,株式会社,東京都,中央区,晴海３丁目６番８号１５０３,,13,102,1040053,,,,,,,2024-06-20,1,,,,,リベルテサイド,0
1766,8010001245965,新規,0,2024-06-20,2024-06-20,株式会社ｗａｖｅ,,株式会社,東京都,中央区,銀座１丁目１２－４Ｎ＆ＥＢＬＤ．７階,,13,102,1040061,,,,,,,2024-06-20,1,,,,,ウェーブ,0
1770,8010003044093,新規,0,2024-06-20,2024-06-20,合同会社ｃｉｒｃｌｅ,,合同会社,東京都,千代田区,神田佐久間町３丁目２１番地５ＣＫ３２１５－ＮＯＲＴＨ２０２号,,13,101,1010025,,,,,,,2024-06-20,1,,,,,サークル,0
1772,8010401183113,新規,0,2024-06-20,2024-06-20,ｆｉｉｌｔｅｒ株式会社,,株式会社,東京都,港区,六本木３丁目１３－１２エルサビル３０５,,13,103,1060032,,,,,,,2024-06-20,1,,,,,フィルター,0
1773,8010401183187,新規,0,2024-06-20,2024-06-20,ＬＩＮＫＥＲ株式会社,,株式会社,東京都,港区,西新橋２丁目１８番１号弁護士ビル２号館２０５号,,13,103,1050003,,,,,,,2024-06-20,1,,,,,リンカー,0
1777,8010405023356,新規,0,2024-06-20,2024-06-20,一般社団法人玄海インドカーウエスト,,その他の設立登記法人,東京都,港区,虎ノ門５丁目１番４号,,13,103,1050001,,,,,,,2024-06-20,1,,,,,ゲンカイインドカーウエスト,0
1780,8010501052481,新規,0,2024-06-20,2024-06-20,株式会社ＦｉｒｓｔＳｔｅｐ,,株式会社,東京都,台東区,東上野２丁目１２番９号マスダビル２Ｆ,,13,106,1100015,,,,,,,2024-06-20,1,,,,,ファーストステップ,0
1781,8010503007491,新規,0,2024-06-20,2024-06-20,合同会社光ＣＲＯＳＳＬＩＮＫ,,合同会社,東京都,台東区,東上野５丁目２２番７号クレイン上野ハイツ３０１,,13,106,1100015,,,,,,,2024-06-20,1,,,,,ヒカルクロスリンク,0
1783,8010801035161,新規,0,2024-06-20,2024-06-20,株式会社ＣＨＥＥＲＦＵＬ,,株式会社,東京都,大田区,大森北１丁目８番１０号陳ビル１階,,13,111,1430016,,,,,,,2024-06-20,1,,,,,チアフル,0
1784,8010803004998,新規,0,2024-06-20,2024-06-20,合同会社バックライト,,合同会社,東京都,大田区,田園調布５丁目４５－２アナシエ田園調布１０１,,13,111,1450071,,,,,,,2024-06-20,1,,,,,バックライト,0
1790,8011001162787,新規,0,2024-06-20,2024-06-20,ＫＲＥＣＯ株式会社,,株式会社,東京都,渋谷区,神宮前６丁目２３番４号桑野ビル２階,,13,113,1500001,,,,,,,2024-06-20,1,,,,,クレコ,0
1791,8011001162829,新規,0,2024-06-20,2024-06-20,株式会社ＴｏｐＴｉｅｒ,,株式会社,東京都,渋谷区,神宮前６丁目２３番４号桑野ビル２階,,13,113,1500001,,,,,,,2024-06-20,1,,,,,トップティア,0
1797,8011101107758,新規,0,2024-06-20,2024-06-20,東陸株式会社,,株式会社,東京都,新宿区,高田馬場３丁目２番１４号天翔高田馬場ビル５階５０９号室,,13,104,1690075,,,,,,,2024-06-20,1,,,,,トウリク,0
1804,8011501030832,新規,0,2024-06-20,2024-06-20,株式会社しろくまパートナーズ,,株式会社,東京都,北区,田端１丁目２８－１３－２０１,,13,117,1140014,,,,,,,2024-06-20,1,,,,,シロクマパートナーズ,0
1810,8011703003875,新規,0,2024-06-20,2024-06-20,合同会社ＡＲＩＣＡ,,合同会社,東京都,江戸川区,北小岩１丁目１０番７号石川ハイツ３０１号,,13,123,1330051,,,,,,,2024-06-20,1,,,,,アリカ,0
1813,8011801044400,新規,0,2024-06-20,2024-06-20,株式会社共吉インターナショナル,,株式会社,東京都,足立区,大谷田１丁目１番６－９０５号,,13,121,1200001,,,,,,,2024-06-20,1,,,,,キョウキチインターナショナル,0
1814,8011803006299,新規,0,2024-06-20,2024-06-20,合同会社伊藤直希,,合同会社,東京都,足立区,東和３丁目５番６号アーク東和２０６,,13,121,1200003,,,,,,,2024-06-20,1,,,,,イトウナオキ,0
1819,8012403006631,新規,0,2024-06-20,2024-06-20,合同会社総研,,合同会社,東京都,武蔵野市,吉祥寺南町２丁目２５番１０号,,13,203,1800003,,,,,,,2024-06-20,1,,,,,ソウケン,0
1830,8020001157763,新規,0,2024-06-20,2024-06-20,株式会社カイトレ,,株式会社,神奈川県,横浜市中区,本牧原３１番８号,,14,104,2310821,,,,,,,2024-06-20,1,,,,,カイトレ,0
1831,8020001157796,新規,0,2024-06-20,2024-06-20,株式会社Ｒｉｄｇｅｌｉｎｅ,,株式会社,神奈川県,横浜市青葉区,藤が丘２丁目１番地７,,14,117,2270043,,,,,,,2024-06-20,1,,,,,リッジライン,0
1832,8020001157854,新規,0,2024-06-20,2024-06-20,株式会社ごらくば,,株式会社,神奈川県,横浜市西区,北幸２丁目１０番４８号むつみビル３階,,14,103,2200004,,,,,,,2024-06-20,1,,,,,ゴラクバ,0
1838,8020003026355,新規,0,2024-06-20,2024-06-20,ケアフル合同会社,,合同会社,神奈川県,川崎市高津区,溝口３丁目２３番７号,,14,134,2130001,,,,,,,2024-06-20,1,,,,,ケアフル,0
1839,8020003026363,新規,0,2024-06-20,2024-06-20,合同会社Ｕｎｉｔｙｔｅｃ,,合同会社,神奈川県,横浜市港南区,下永谷２丁目２８－１１センチュリー横浜港南１０５,,14,111,2330016,,,,,,,2024-06-20,1,,,,,ユニティテック,0
1840,8020003026371,新規,0,2024-06-20,2024-06-20,合同会社こもと,,合同会社,神奈川県,川崎市多摩区,南生田２丁目２８番４８号,,14,135,2140036,,,,,,,2024-06-20,1,,,,,コモト,0
1841,8020003026396,新規,0,2024-06-20,2024-06-20,合同会社ＫＰ　ＤＥＳＩＧＮ,,合同会社,神奈川県,横浜市南区,東蒔田町１２番地６メゾンドｊａｊａ２０３,,14,105,2320045,,,,,,,2024-06-20,1,,,,,ケーピーデザイン,0
1844,8021001082555,新規,0,2024-06-20,2024-06-20,株式会社湘南ロコモケア,,株式会社,神奈川県,藤沢市,辻堂１丁目１番１６号エイトピュア辻堂４０１号,,14,205,2510047,,,,,,,2024-06-20,1,,,,,ショウナンロコモケア,0
1863,8040001134117,新規,0,2024-06-20,2024-06-20,株式会社ランドボーダー,,株式会社,千葉県,市原市,菊間２９６２番地３,,12,219,2900007,,,,,,,2024-06-20,1,,,,,ランドボーダー,0
1864,8040001134158,新規,0,2024-06-20,2024-06-20,株式会社スマイルトランスポートサービス,,株式会社,千葉県,千葉市花見川区,幕張本郷１丁目２番２４号幕張本郷相葉ビル５階,,12,102,2620033,,,,,,,2024-06-20,1,,,,,スマイルトランスポートサービス,0
1867,8040003025256,新規,0,2024-06-20,2024-06-20,合同会社モカハウス,,合同会社,千葉県,白井市,桜台４丁目４番２２号,,12,232,2701412,,,,,,,2024-06-20,1,,,,,モカハウス,0
1877,8050003008458,新規,0,2024-06-20,2024-06-20,ＹＯＳＨＩＭＡ　ＬＡＮＫＡ合同会社,,合同会社,茨城県,筑西市,鷺島７７番地２（Ａ、Ｂ）,,08,227,3004532,,,,,,,2024-06-20,1,,,,,ヨシマランカ,0
1881,8080003003233,新規,0,2024-06-20,2024-06-20,合同会社エターナルエイト,,合同会社,静岡県,静岡市清水区,草薙１３１０番地の２めぞん一刻２０１,,22,103,4240886,,,,,,,2024-06-20,1,,,,,エターナルエイト,0
1888,8090003002589,新規,0,2024-06-20,2024-06-20,合同会社ｏｎｅ　ｆｏｒ　ａｌｌ,,合同会社,山梨県,南アルプス市,小笠原８６６番地２,,19,208,4000306,,,,,,,2024-06-20,1,,,,,ワンフォーオール,0
1889,8100005013186,新規,0,2024-06-20,2024-06-20,一般財団法人信州人参振興協会,,その他の設立登記法人,長野県,佐久市,東立科１９０５番地佐久リゾートマンション２１０,,20,217,3850063,,,,,,,2024-06-20,1,,,,,シンシュウニンジンシンコウキョウカイ,0
1890,8110001038500,新規,0,2024-06-20,2024-06-20,Ａｌｗａｙｓ株式会社,,株式会社,新潟県,新潟市江南区,小杉４丁目５番３８号,,15,104,9500203,,,,,,,2024-06-20,1,,,,,オルウェイズ,0
1896,8120001265531,新規,0,2024-06-20,2024-06-20,株式会社ＲｙｕＹａｎｏ,,株式会社,大阪府,大阪市天王寺区,勝山３丁目１２番１１号,,27,109,5430043,,,,,,,2024-06-20,1,,,,,リュウヤノ,0
1897,8120001266050,新規,0,2024-06-20,2024-06-20,株式会社Ｓｍｉｌｅ,,株式会社,大阪府,大阪市東淀川区,東中島１丁目１７番５号ステュディオ新大阪７４９号室,,27,114,5330033,,,,,,,2024-06-20,1,,,,,スマイル,0
1903,8120101069808,新規,0,2024-06-20,2024-06-20,トップワールド株式会社,,株式会社,大阪府,貝塚市,脇浜３丁目９番２１－５０４号,,27,208,5970073,,,,,,,2024-06-20,1,,,,,トップワールド,0
1908,8122001038198,新規,0,2024-06-20,2024-06-20,絢アセットマネジメント株式会社,,株式会社,大阪府,東大阪市,宝持３丁目２番７号,,27,227,5770805,,,,,,,2024-06-20,1,,,,,アヤアセットマネジメント,0
1909,8122003002920,新規,0,2024-06-20,2024-06-20,矢田商事合同会社,,合同会社,大阪府,八尾市,竹渕西２丁目１６９,,27,212,5810051,,,,,,,2024-06-20,1,,,,,ヤダショウジ,0
1910,8130001077240,新規,0,2024-06-20,2024-06-20,株式会社光栄,,株式会社,京都府,南丹市,八木町西田南條６５番地,,26,213,6290134,,,,,,,2024-06-20,1,,,,,コウエイ,0
1911,8130005017119,新規,0,2024-06-20,2024-06-20,一般社団法人Ｔｏｍｏｒｒｏｗ　Ｎｅｖｅｒ　Ｋｎｏｗｓ,,その他の設立登記法人,京都府,京都市下京区,朱雀宝蔵町３４番地,,26,106,6008846,,,,,,,2024-06-20,1,,,,,トゥモローネバーノウズ,0
1918,8140003020734,新規,0,2024-06-20,2024-06-20,ＬＡＴＥ合同会社,,合同会社,兵庫県,神戸市長田区,蓮宮通２丁目６番地の１クラヴィーア１０２号,,28,106,6530831,,,,,,,2024-06-20,1,,,,,ラテ,0
1920,8150001027359,新規,0,2024-06-20,2024-06-20,株式会社ネクスター,,株式会社,奈良県,香芝市,磯壁４丁目１８６番地１３,,29,210,6390236,,,,,,,2024-06-20,1,,,,,ネクスター,0
1921,8160001026021,新規,0,2024-06-20,2024-06-20,株式会社Ｂｌｕｅ　Ｇｉａｎｔ,,株式会社,滋賀県,大津市,打出浜３番５０号パールハイツ打出浜７０１号,,25,201,5200806,,,,,,,2024-06-20,1,,,,,ブルージャイアント,0
1925,8190001031423,新規,0,2024-06-20,2024-06-20,日本技検株式会社,,株式会社,三重県,松阪市,嬉野一志町３１２番地の１１４,,24,204,5152305,,,,,,,2024-06-20,1,,,,,ニホンギケン,0
1928,8240001063411,新規,0,2024-06-20,2024-06-20,株式会社ＩＮＦＩＮＩＴＹ,,株式会社,広島県,広島市安佐南区,西原４丁目３８－２９－１,,34,105,7310113,,,,,,,2024-06-20,1,,,,,インフィニティ,0
1933,8270003001639,新規,0,2024-06-20,2024-06-20,合同会社ＬＩＦＥ‐ＲＡＹＯＵＴ,,合同会社,鳥取県,鳥取市,青谷町河原３７９－１,,31,201,6890515,,,,,,,2024-06-20,1,,,,,ライフレイアウト,0
1937,8290001106149,新規,0,2024-06-20,2024-06-20,ＤＨインターナショナル福岡株式会社,,株式会社,福岡県,福岡市博多区,住吉５丁目１番３号椿乃華ビル２Ｆ,,40,132,8120018,,,,,,,2024-06-20,1,,,,,ディーエイチインターナショナルフクオカ,0
1938,8290001106215,新規,0,2024-06-20,2024-06-20,千家株式会社,,株式会社,福岡県,福岡市博多区,博多駅南３丁目２番３号ｉｂｂＦｅｌｉｘ１０１号,,40,132,8120016,,,,,,,2024-06-20,1,,,,,センケ,0
1941,8290003015463,新規,0,2024-06-20,2024-06-20,Ｏｎｅ’ｓ　Ｄｅｓｉｇｎ合同会社,,合同会社,福岡県,福岡市南区,多賀１丁目１８－１３,,40,134,8150072,,,,,,,2024-06-20,1,,,,,ワンズデザイン,0
1950,8310001019075,新規,0,2024-06-20,2024-06-20,株式会社長崎國見測量設計,,株式会社,長崎県,松浦市,志佐町浦免１４７７－１プランドール１０１,,42,208,8594501,,,,,,,2024-06-20,1,,,,,,0
1952,8310005008776,新規,0,2024-06-20,2024-06-20,特定非営利活動法人波佐見自立支援センタープラスエイト,,その他の設立登記法人,長崎県,東彼杵郡波佐見町,湯無田郷８８０番地,,42,323,8593702,,,,,,,2024-06-20,1,,,,,ハサミジリツシエンセンタープラスエイト,0
1954,8330001032183,新規,0,2024-06-20,2024-06-20,株式会社ＧＯＯＤ　ＭＯＴＯＲＣＹＣＬＥＳ,,株式会社,熊本県,熊本市南区,島町３丁目５番１号,,43,104,8614133,,,,,,,2024-06-20,1,,,,,グッドモーターサイクルス,0
1958,8340003004510,新規,0,2024-06-20,2024-06-20,合同会社スマイル未来,,合同会社,鹿児島県,霧島市,国分中央２丁目３番２９号,,46,218,8994332,,,,,,,2024-06-20,1,,,,,スマイルミライ,0
1960,8350003004666,新規,0,2024-06-20,2024-06-20,合同会社流星街,,合同会社,宮崎県,日南市,大堂津２丁目１９番７号,,45,204,8893141,,,,,,,2024-06-20,1,,,,,リュウセイガイ,0
1963,8370001051436,新規,0,2024-06-20,2024-06-20,伸利精密株式会社,,株式会社,宮城県,富谷市,あけの平３丁目１１番地９,,04,216,9813361,,,,,,,2024-06-20,1,,,,,シンリセイミツ,0
1971,8420003002943,新規,0,2024-06-20,2024-06-20,小田桐錦石研究所合同会社,,合同会社,青森県,青森市,西滝３丁目１９番２７号,,02,201,0380014,,,,,,,2024-06-20,1,,,,,オダギリニシキイシケンキュウショ,0
1982,8470003002666,新規,0,2024-06-20,2024-06-20,合同会社小路,,合同会社,香川県,東かがわ市,三本松２０５番地４,,37,207,7692601,,,,,,,2024-06-20,1,,,,,ショウジ,0
1984,8480001012518,新規,0,2024-06-20,2024-06-20,株式会社新居潜水工業,,株式会社,徳島県,板野郡藍住町,富吉字地神４１番地１１,,36,403,7711232,,,,,,,2024-06-20,1,,,,,ニイセンスイコウギョウ,0
1985,8700150126070,新規,0,2024-06-20,2024-06-20,Ｈｏｎｄａ　Ｔｒａｄｉｎｇ　Ｃａｎａｄａ　Ｉｎｃ．,,外国会社等,,,,,,,,４７００　Ｉｎｄｕｓｔｒｉａｌ　Ｐａｒｋｗａｙ　ＰＯ　Ｂｏｘ　６０００，Ａｌｌｉｓｔｏｎ，ＯＮ　Ｌ９Ｒ１Ａ２，Ｃａｎａｄａ,,,,,,2024-06-20,1,,,,,ホンダトレーデイングカナダインク,0
1986,8700150126079,新規,0,2024-06-20,2024-06-20,山東省港口集団有限公司　日本駐在員事務所,,外国会社等,大阪府,大阪市大正区,平尾４丁目１１番７,,27,108,5510012,山東省青島市市北区港＿路７号山東港口大厦,00135193,,,,,2024-06-20,1,,,,,サンドウシヨウミナトクチシユウダンユウゲンコウシニホンチユウザイインジムシヨ,0
1987,8700150126087,新規,0,2024-06-20,2024-06-20,Ｍ　ＢＲＯＴＨＥＲ　ＭＡＲＫＡＴＩＮＧ　ＰＴＹ　ＬＴＤ,,外国会社等,神奈川県,伊勢原市,高森１０９０－１高森サンハイツ１０３号室,,14,214,2591114,レソト王国，１００，マセル，インダストリアルエリアマセル，ルーム１ザクラビルディング，モショエショロード,,,,,,2024-06-20,1,,,,,エムブラザーマーキングピーテイーワイリミテツド,0
1995,9010001245460,新規,0,2024-06-20,2024-06-20,ＡＰリノベーションズ株式会社,,株式会社,東京都,千代田区,神田須田町２丁目１９番３０号ライダーズビル,,13,101,1010041,,,,,,,2024-06-20,1,,,,,エーピーリノベーションズ,0
1996,9010001245956,新規,0,2024-06-20,2024-06-20,ＺＯ　Ｈｙｄｒｏｇｅｎ　Ｔｅｃｈ株式会社,,株式会社,東京都,中央区,銀座５丁目１２番６号ＣＵＲＡＧＩＮＺＡ９階,,13,102,1040061,,,,,,,2024-06-20,1,,,,,ゾウハイドロゲンテック,0
1998,9010005038431,新規,0,2024-06-20,2024-06-20,一般社団法人あかつき,,その他の設立登記法人,東京都,千代田区,霞が関３丁目２番５号,,13,101,1000013,,,,,,,2024-06-20,1,,,,,アカツキ,0
2005,9010401183178,新規,0,2024-06-20,2024-06-20,株式会社プラントベースコンサルティングジャパン,,株式会社,東京都,港区,西麻布２丁目２５番２６号リクレイシア西麻布１番館７０３,,13,103,1060031,,,,,,,2024-06-20,1,,,,,プラントベースコンサルティングジャパン,0
2006,9010401183194,新規,0,2024-06-20,2024-06-20,Ｎａｖｉｘ株式会社,,株式会社,東京都,港区,浜松町２丁目２番１５号浜松町ダイヤビル２Ｆ,,13,103,1050013,,,,,,,2024-06-20,1,,,,,ナビックス,0
2007,9010403032820,新規,0,2024-06-20,2024-06-20,ＲＳ　Ｐａｒｔｎｅｒｓ合同会社,,合同会社,東京都,港区,北青山１丁目３番１号アールキューブ青山３階,,13,103,1070061,,,,,,,2024-06-20,1,,,,,アールエスパートナーズ,0
2008,9010403032837,新規,0,2024-06-20,2024-06-20,合同会社大場,,合同会社,東京都,港区,三田２丁目２－１－１０３,,13,103,1080073,,,,,,,2024-06-20,1,,,,,オオバ,0
2009,9010501052480,新規,0,2024-06-20,2024-06-20,株式会社安澤,,株式会社,東京都,台東区,上野５丁目１９番６号１Ｆ,,13,106,1100005,,,,,,,2024-06-20,1,,,,,ヤスザワ,0
2012,9010701046159,新規,0,2024-06-20,2024-06-20,Ｂｒｅａｋ　ｉｔ株式会社,,株式会社,東京都,品川区,南品川３丁目６番２５－２０７号,,13,109,1400004,,,,,,,2024-06-20,1,,,,,ブレイキッド,0
2014,9010903009161,新規,0,2024-06-20,2024-06-20,合同会社淡島湯,,合同会社,東京都,世田谷区,三軒茶屋２丁目１３番２０号グランドメゾン三軒茶屋５０５,,13,112,1540024,,,,,,,2024-06-20,1,,,,,アワシマユ,0
2018,9011001162737,新規,0,2024-06-20,2024-06-20,株式会社ＮＥＲＡＬＩＢＥ,,株式会社,東京都,渋谷区,道玄坂１丁目１０－８渋谷道玄坂東急ビル２Ｆ－Ｃ,,13,113,1500043,,,,,,,2024-06-20,1,,,,,ネラリバ,0
2019,9011001162794,新規,0,2024-06-20,2024-06-20,株式会社アカシア,,株式会社,東京都,渋谷区,恵比寿西２丁目４番８号ウィンド恵比寿ビル８Ｆ,,13,113,1500021,,,,,,,2024-06-20,1,,,,,アカシア,0
2020,9011001162803,新規,0,2024-06-20,2024-06-20,株式会社ａｌｏｎｇ,,株式会社,東京都,渋谷区,道玄坂１丁目１０番８号渋谷道玄坂東急ビル２Ｆ－Ｃ,,13,113,1500043,,,,,,,2024-06-20,1,,,,,アロング,0
2026,9011101107699,新規,0,2024-06-20,2024-06-20,株式会社ＣＵＲＩＸ　Ｃｏｍｐａｎｙ,,株式会社,東京都,新宿区,若葉３丁目２ライトコート四谷４０４,,13,104,1600011,,,,,,,2024-06-20,1,,,,,クリックスカンパニー,0
2028,9011201025553,新規,0,2024-06-20,2024-06-20,株式会社ＳＯＥＮ,,株式会社,東京都,中野区,南台３丁目２９番１１号,,13,114,1640014,,,,,,,2024-06-20,1,,,,,ソウエン,0
2035,9011801044408,新規,0,2024-06-20,2024-06-20,株式会社リメイクスマイル,,株式会社,東京都,足立区,花畑４丁目１９番１１－１０８号,,13,121,1210061,,,,,,,2024-06-20,1,,,,,リメイクスマイル,0
2036,9011801044416,新規,0,2024-06-20,2024-06-20,株式会社アダチｌａｂｏ,,株式会社,東京都,足立区,柳原１丁目３２番２号,,13,121,1200022,,,,,,,2024-06-20,1,,,,,アダチラボ,0
2038,9011803006298,新規,0,2024-06-20,2024-06-20,合同会社ｋｏｈａｋｕ,,合同会社,東京都,足立区,中央本町４丁目１番３号ライオンズマンション梅島中央公園３０７,,13,121,1210011,,,,,,,2024-06-20,1,,,,,コハク,0
2040,9012401042009,新規,0,2024-06-20,2024-06-20,株式会社Ｗｉｔｈｎｅｘｔ,,株式会社,東京都,調布市,下石原３丁目４７番地６,,13,208,1820034,,,,,,,2024-06-20,1,,,,,ウィズネクスト,0
2044,9020001157762,新規,0,2024-06-20,2024-06-20,株式会社ＡｍａＫ,,株式会社,神奈川県,横浜市栄区,本郷台４丁目２７番地２１号,,14,115,2470008,,,,,,,2024-06-20,1,,,,,エイマック,0
2045,9020001157795,新規,0,2024-06-20,2024-06-20,ＷＨＤ株式会社,,株式会社,神奈川県,横浜市港北区,新横浜１丁目１９番３号アドホックビル４Ｆ－Ｄ,,14,109,2220033,,,,,,,2024-06-20,1,,,,,ダブリューホールディングス,0
2048,9020003026354,新規,0,2024-06-20,2024-06-20,ネクシング合同会社,,合同会社,神奈川県,川崎市多摩区,中野島５丁目２番２号,,14,135,2140012,,,,,,,2024-06-20,1,,,,,ネクシング,0
2049,9020003026362,新規,0,2024-06-20,2024-06-20,ＪＯＰＥＦＩＣ合同会社,,合同会社,神奈川県,川崎市高津区,久本１丁目６番８号,,14,134,2130011,,,,,,,2024-06-20,1,,,,,ジョペフィック,0
2050,9020003026370,新規,0,2024-06-20,2024-06-20,合同会社月夜述研究所,,合同会社,神奈川県,横浜市西区,浅間町１丁目４番３号ウィザードビル４０２,,14,103,2200072,,,,,,,2024-06-20,1,,,,,ツキヨノケンキュウジョ,0
2068,9030003024539,新規,0,2024-06-20,2024-06-20,合同会社Ｓｈｉｎｙ,,合同会社,埼玉県,日高市,大字南平沢８７５番地２,,11,242,3501206,,,,,,,2024-06-20,1,,,,,シャイニー,0
2071,9040001134140,新規,0,2024-06-20,2024-06-20,アートグリーン株式会社,,株式会社,千葉県,長生郡白子町,剃金２７３０番地７,,12,424,2994203,,,,,,,2024-06-20,1,,,,,アートグリーン,0
2072,9040001134157,新規,0,2024-06-20,2024-06-20,株式会社レアスリー,,株式会社,千葉県,木更津市,清見台２丁目６番６号,,12,206,2920045,,,,,,,2024-06-20,1,,,,,レアスリー,0
2075,9040003025255,新規,0,2024-06-20,2024-06-20,合同会社ＬＡＮＤＳ,,合同会社,千葉県,野田市,清水公園東２丁目３２―２５,,12,208,2780047,,,,,,,2024-06-20,1,,,,,ランズ,0
2083,9070001041887,新規,0,2024-06-20,2024-06-20,ＩＶＹ　Ｈａｉｒ株式会社,,株式会社,群馬県,高崎市,石原町３２６３番地１,,10,202,3700864,,,,,,,2024-06-20,1,,,,,アイヴィーヘアー,0
2085,9070003005469,新規,0,2024-06-20,2024-06-20,ＡＧＳ　Ｉｎｔｅｒｎａｔｉｏｎａｌ合同会社,,合同会社,群馬県,太田市,東本町２８－８－２Ｆ,,10,205,3730026,,,,,,,2024-06-20,1,,,,,エイジーエスインターナショナル,0
2086,9070005010293,新規,0,2024-06-20,2024-06-20,一般社団法人関東福祉サポート,,その他の設立登記法人,群馬県,太田市,飯塚町９４２番地３４,,10,205,3730817,,,,,,,2024-06-20,1,,,,,カントウフクシサポート,0
2087,9080001026350,新規,0,2024-06-20,2024-06-20,株式会社スタジオ蒼晶,,株式会社,静岡県,焼津市,上新田１０５９番地の９,,22,212,4210206,,,,,,,2024-06-20,1,,,,,スタジオソウアキ,0
2088,9080003003232,新規,0,2024-06-20,2024-06-20,葵合同会社,,合同会社,静岡県,静岡市葵区,栄町２番地５アークビルディング５０２,,22,101,4200859,,,,,,,2024-06-20,1,,,,,,0
2096,9090001018768,新規,0,2024-06-20,2024-06-20,エムオート株式会社,,株式会社,山梨県,中央市,極楽寺１２９０番地１,,19,214,4093811,,,,,,,2024-06-20,1,,,,,エムオート,0
2098,9090003002588,新規,0,2024-06-20,2024-06-20,合同会社トリックテーラー,,合同会社,山梨県,甲府市,貢川本町１３－１サンライト南西１－Ｅ,,19,201,4000048,,,,,,,2024-06-20,1,,,,,トリックテーラー,0
2107,9120001266017,新規,0,2024-06-20,2024-06-20,株式会社コレスタジオ,,株式会社,大阪府,大阪市北区,芝田２丁目８－１１共栄ビル３階,,27,127,5300012,,,,,,,2024-06-20,1,,,,,コレスタジオ,0
2108,9120001266033,新規,0,2024-06-20,2024-06-20,株式会社ｏｒｄｅｒ,,株式会社,大阪府,大阪市天王寺区,城南寺町２－２５,,27,109,5430017,,,,,,,2024-06-20,1,,,,,オーダー,0
2109,9120001266066,新規,0,2024-06-20,2024-06-20,株式会社フェルナ,,株式会社,大阪府,大阪市北区,曾根崎新地１丁目２番１０号,,27,127,5300002,,,,,,,2024-06-20,1,,,,,フェルナ,0
2110,9120001266116,新規,0,2024-06-20,2024-06-20,成安株式会社,,株式会社,大阪府,大阪市中央区,本町３丁目３－９－９Ｆ,,27,128,5410053,,,,,,,2024-06-20,1,,,,,セイアン,0
2111,9120003026889,新規,0,2024-06-20,2024-06-20,合同会社海州商事,,合同会社,大阪府,大阪市浪速区,桜川２丁目１２番１７－１００１号,,27,111,5560022,,,,,,,2024-06-20,1,,,,,カイシュウショウジ,0
2112,9120101069807,新規,0,2024-06-20,2024-06-20,ワークスイノベーション株式会社,,株式会社,大阪府,和泉市,池上町１丁目４番２４号,,27,219,5940083,,,,,,,2024-06-20,1,,,,,ワークスイノベーション,0
2115,9120901049347,新規,0,2024-06-20,2024-06-20,株式会社アイサイト,,株式会社,大阪府,高槻市,弥生が丘町２６番１２号,,27,207,5691021,,,,,,,2024-06-20,1,,,,,アイサイト,0
2131,9180001162053,新規,0,2024-06-20,2024-06-20,株式会社ＬＳＴハウジング,,株式会社,愛知県,名古屋市東区,泉１丁目７番３４号荘苑泉２Ａ,,23,102,4610001,,,,,,,2024-06-20,1,,,,,エルエスティハウジング,0
2139,9200003006395,新規,0,2024-06-20,2024-06-20,合同会社ワールドセレクト,,合同会社,岐阜県,各務原市,上中屋町５丁目８７番地,,21,213,5040926,,,,,,,2024-06-20,1,,,,,ワールドセレクト,0
2141,9210001019794,新規,0,2024-06-20,2024-06-20,株式会社Ｐｈｕｑｕｅｅ,,株式会社,福井県,福井市,江守中１丁目１１１の２,,18,201,9188025,,,,,,,2024-06-20,1,,,,,フクウィー,0
2146,9230003002235,新規,0,2024-06-20,2024-06-20,合同会社ミライのタネ,,合同会社,富山県,富山市,諏訪川原１丁目１０番１９号,,16,201,9300088,,,,,,,2024-06-20,1,,,,,ミライノタネ,0
2149,9240001063410,新規,0,2024-06-20,2024-06-20,ＳＡＲＹ株式会社,,株式会社,広島県,広島市佐伯区,屋代２丁目１９番１３号,,34,108,7315146,,,,,,,2024-06-20,1,,,,,サリー,0
2162,9290001106197,新規,0,2024-06-20,2024-06-20,株式会社ＩＭＡ,,株式会社,福岡県,古賀市,久保４６０番地１,,40,223,8113115,,,,,,,2024-06-20,1,,,,,アイエムエー,0
2163,9290001106222,新規,0,2024-06-20,2024-06-20,株式会社ファースト,,株式会社,福岡県,福岡市博多区,竹丘町２丁目５番１０号柿原ビル２０２号,,40,132,8120878,,,,,,,2024-06-20,1,,,,,ファースト,0
2164,9290001106263,新規,0,2024-06-20,2024-06-20,華泉株式会社,,株式会社,福岡県,福岡市東区,松香台２丁目６－１崎村ビル３０３号,,40,131,8130004,,,,,,,2024-06-20,1,,,,,ハナイズミ,0
2165,9290003015487,新規,0,2024-06-20,2024-06-20,合同会社ＥＮＴＥＲ,,合同会社,福岡県,福岡市早良区,城西１丁目１－３１－４０３,,40,137,8140003,,,,,,,2024-06-20,1,,,,,エンター,0
2173,9350001019021,新規,0,2024-06-20,2024-06-20,株式会社サンセイテクノ,,株式会社,宮崎県,宮崎市,大字本郷北方２５３８番地１５,,45,201,8800925,,,,,,,2024-06-20,1,,,,,サンセイテクノ,0
2180,9360001033839,新規,0,2024-06-20,2024-06-20,株式会社長濱工業,,株式会社,沖縄県,うるま市,字喜屋武３１８番地８,,47,213,9042225,,,,,,,2024-06-20,1,,,,,ナガハマコウギョウ,0
2200,9430001092084,新規,0,2024-06-20,2024-06-20,株式会社イチナホーム,,株式会社,北海道,札幌市南区,澄川六条１１丁目１８番３１号,,01,106,0050006,,,,,,,2024-06-20,1,,,,,イチナホーム,0
2202,9430003016479,新規,0,2024-06-20,2024-06-20,ソフトウェア開発炎上ノ消防隊合同会社,,合同会社,北海道,札幌市中央区,南五条西１５丁目２－３リズム医大前５０３号室,,01,101,0640805,,,,,,,2024-06-20,1,,,,,ソフトウェアカイハツエンジョウノショウボウタイ,0
2205,9460301005230,新規,0,2024-06-20,2024-06-20,株式会社Ｌｉｌｙ　ｍａｙ,,株式会社,北海道,網走市,字豊郷１３１,,01,211,0993118,,,,,,,2024-06-20,1,,,,,リリーメイ,0
2207,9470001020264,新規,0,2024-06-20,2024-06-20,株式会社スターコレクト,,株式会社,香川県,坂出市,久米町２丁目１２番３９号,,37,203,7620003,,,,,,,2024-06-20,1,,,,,スターコレクト,0
2208,9490001010800,新規,0,2024-06-20,2024-06-20,株式会社すがや,,株式会社,高知県,高知市,長浜５７６５番地,,39,201,7810270,,,,,,,2024-06-20,1,,,,,スガヤ,0
2210,9500001025706,新規,0,2024-06-20,2024-06-20,株式会社ＧＲＯＷＵＰ,,株式会社,愛媛県,松山市,森松町５９２－１０,,38,201,7911113,,,,,,,2024-06-20,1,,,,,グローアップ,0
2211,9700150126078,新規,0,2024-06-20,2024-06-20,Ｅｎｖｙｃｕｂｅ　Ｃｏ．，Ｌｔｄ．,,外国会社等,,,,,,,,１３－１８，Ｓｏｎｇｄｏｇｗａｈａｋ－ｒｏ，１６ｂｅｏｎ－ｇｉｌ，Ｙｅｏｎｓｕ－ｇｕ，Ｉｎｃｈｅｏｎ，Ｒｅｐｕｂｌｉｃ　ｏｆ　Ｋｏｒｅａ,,,,,,2024-06-20,1,,,,,エンビーキユウブ,0
2212,9700150126086,新規,0,2024-06-20,2024-06-20,内山区,,その他,長野県,北安曇郡白馬村,大字神城４５１５－１,,20,485,3999211,,,,,,,2024-06-20,1,,,,,ウチヤマク,0
2213,9700150126094,新規,0,2024-06-20,2024-06-20,亡竹中泰弘　相続財産法人,,その他,広島県,呉市,中央１丁目６番９号センタービル呉駅前４階　あかつき総合法律事務所,,34,202,7370051,,,,,,,2024-06-20,1,,,,,ボウタケナカヤスヒロソウゾクザイサンホウジン,0
