sequenceNumber,corporateNumber,process,correct,updateDate,changeDate,name,nameImageId,kind,prefectureName,cityName,streetNumber,addressImageId,prefectureCode,cityCode,postCode,addressOutside,addressOutsideImageId,closeDate,closeCause,successorCorporateNumber,changeCause,assignmentDate,latest,enName,enPrefectureName,enCityName,enAddressOutside,furigana,hihyoji
22,1010401172493,登記記録の閉鎖等,0,2025-03-11,2025-03-05,株式会社桃と花と咲と,,株式会社,東京都,港区,赤坂４丁目３番３号,,13,103,1070052,,,2025-03-05,合併による解散等,1010501039436,令和７年２月１日東京都中央区日本橋室町一丁目１１番２号株式会社Ａｒｒｉｖａｌ（1010501039436）に合併し解散,2023-02-15,1,,,,,モモトハナトサキト,0
23,1010401174705,登記記録の閉鎖等,0,2025-03-11,2025-02-20,株式会社ＭＯＲＥ,,株式会社,東京都,港区,新橋３丁目２番３号千代川ビル５階,,13,103,1050004,,,2025-02-20,清算の結了等,,,2023-05-31,1,,,,,モア,0
28,1010402025956,登記記録の閉鎖等,0,2025-03-11,2025-02-19,有限会社ワイツープロジェクト,,有限会社,東京都,港区,芝４丁目１６番２－１００５号,,13,103,1080014,,,2025-02-19,清算の結了等,,,2015-10-05,1,,,,,ワイツープロジェクト,0
42,1010703003875,登記記録の閉鎖等,0,2025-03-11,2025-02-25,合同会社シロクロ,,合同会社,東京都,品川区,大井５丁目２０番７号,,13,109,1400014,,,2025-02-25,清算の結了等,,,2017-10-17,1,,,,,シロクロ,0
82,1020001131989,登記記録の閉鎖等,0,2025-03-11,2025-03-06,株式会社ピエゾ,,株式会社,山梨県,南都留郡山中湖村,山中２７４－１西区７－９５,,19,425,4010501,,,2025-03-06,清算の結了等,,,2019-07-12,1,,,,,ピエゾ,0
95,1030001029555,登記記録の閉鎖等,0,2025-03-11,2025-02-26,株式会社アイモファーマシー,,株式会社,埼玉県,所沢市,緑町３丁目２９番１７号,,11,208,3591111,,,2025-02-26,清算の結了等,,,2015-10-05,1,,,,,アイモファーマシー,0
97,1030001061491,登記記録の閉鎖等,0,2025-03-11,2025-02-26,株式会社大鳳建設,,株式会社,埼玉県,児玉郡神川町,大字熊野堂７１番地８,,11,383,3670243,,,2025-02-26,清算の結了等,,,2024-06-17,1,,,,,タイホウケンセツ,0
110,1040003013564,登記記録の閉鎖等,0,2025-03-11,2025-03-03,合同会社ＲｕｎｗａｙＢｌｕｅ,,合同会社,千葉県,袖ケ浦市,上宮田７４８番地２,,12,229,2990222,,,2025-03-03,清算の結了等,,,2019-06-21,1,,,,,ランウェイブルー,0
117,1070001037901,登記記録の閉鎖等,0,2025-03-11,2025-03-07,ｆ．ｃｒｉｓｅ株式会社,,株式会社,群馬県,高崎市,和田町５－１アーティス高崎１０２号,,10,202,3700847,,,2025-03-07,清算の結了等,,,2021-04-08,1,,,,,エフシーライズ,0
128,1100002026783,登記記録の閉鎖等,0,2025-03-11,2025-03-03,有限会社ブラン．エ．ヴエール,,有限会社,長野県,北安曇郡白馬村,大字北城３５４４番地１,,20,485,3999301,,,2025-03-03,清算の結了等,,,2015-10-05,1,,,,,ブランエヴエール,0
130,1110001019515,登記記録の閉鎖等,0,2025-03-11,2025-03-05,リフレ上越山里振興株式会社,,株式会社,新潟県,上越市,大字皆口６０１番地,,15,222,9491738,,,2025-03-05,清算の結了等,,,2015-10-05,1,,,,,リフレジョウエツヤマザトシンコウ,0
132,1120001118539,登記記録の閉鎖等,0,2025-03-11,2025-03-07,サンエイト株式会社,,株式会社,大阪府,大阪市浪速区,元町２丁目３番８号,,27,111,5560016,,,2025-03-07,清算の結了等,,,2015-10-05,1,,,,,サンエイト,0
134,1120001230888,登記記録の閉鎖等,0,2025-03-11,2025-03-05,株式会社エムイーロッソ,,株式会社,大阪府,大阪市中央区,島之内１丁目２２番２０号,,27,128,5420082,,,2025-03-05,清算の結了等,,,2020-08-12,1,,,,,エムイーロッソ,0
141,1120003013746,登記記録の閉鎖等,0,2025-03-11,2025-03-04,合同会社バッカス,,合同会社,大阪府,寝屋川市,日之出町６番１３号ソーズプレイス３０５,,27,215,5720835,,,2025-03-04,清算の結了等,,,2018-01-10,1,,,,,バッカス,0
142,1120003018489,登記記録の閉鎖等,0,2025-03-11,2025-03-07,合同会社森ノ宮のふくし,,合同会社,大阪府,大阪市東成区,中本４丁目１番８号,,27,115,5370022,,,2025-03-07,清算の結了等,,,2020-12-14,1,,,,,モリノミヤノフクシ,0
148,1120102022235,登記記録の閉鎖等,0,2025-03-11,2025-03-03,有限会社フェイス,,有限会社,大阪府,岸和田市,土生町３３３番地の３１,,27,202,5960825,,,2025-03-03,清算の結了等,,,2015-10-05,1,,,,,フェイス,0
154,1130001070409,登記記録の閉鎖等,0,2025-03-11,2025-03-10,株式会社ＳＥＶＥＮ　ＣＯＬＯＲＳ,,株式会社,京都府,京都市中京区,河原町通三条下る２丁目東入北車屋町２７１番地３アセンドビル２階,,26,104,6048021,,,2025-03-10,清算の結了等,,,2021-10-28,1,,,,,セブンカラーズ,0
166,1160005000895,登記記録の閉鎖等,0,2025-03-11,2025-02-12,東方寺,,その他の設立登記法人,滋賀県,大津市,大石富川１丁目５番４１号,,25,201,5202265,,,2025-02-12,合併による解散等,1160005000623,令和７年２月１２日滋賀県大津市大石富川一丁目１２番４号往生寺（1160005000623）に合併し解散,2015-10-05,1,,,,,トウホウジ,0
174,1180001103279,登記記録の閉鎖等,0,2025-03-11,2025-03-05,株式会社ＪＯＵＰＳ,,株式会社,愛知県,尾張旭市,東山町１丁目１番地１６,,23,226,4880825,,,2025-03-05,清算の結了等,,,2015-10-05,1,,,,,ジョープス,0
176,1180001131486,登記記録の閉鎖等,0,2025-03-11,2025-03-05,知財ケア株式会社,,株式会社,愛知県,名古屋市天白区,中平３丁目２７０２番地グランドールＳ２０３号,,23,116,4680014,,,2025-03-05,清算の結了等,,,2018-03-07,1,,,,,チザイケア,0
179,1180002040356,登記記録の閉鎖等,0,2025-03-11,2025-03-03,有限会社杉浦建具製作所,,有限会社,愛知県,清須市,清洲１５２９番地ノ１,,23,233,4520942,,,2025-03-03,清算の結了等,,,2015-10-05,1,,,,,スギウラタテグセイサクショ,0
184,1180301039033,登記記録の閉鎖等,0,2025-03-11,2025-02-19,日本洋瓦株式会社,,株式会社,愛知県,碧南市,松江町１丁目１番地,,23,209,4470868,,,2025-02-19,清算の結了等,,,2024-10-03,1,,,,,,0
201,1260002023773,登記記録の閉鎖等,0,2025-03-11,2025-03-06,有限会社妹尾工務店,,有限会社,岡山県,総社市,真壁１５２番地２,,33,208,7191134,,,2025-03-06,清算の結了等,,,2015-10-05,1,,,,,セノオコウムテン,0
212,1290002034611,登記記録の閉鎖等,0,2025-03-11,2025-03-03,有限会社塩入工務店,,有限会社,福岡県,福津市,花見が丘２丁目２番１号,,40,224,8113214,,,2025-03-03,清算の結了等,,,2015-10-05,1,,,,,シオイリコウムテン,0
224,1330002002349,登記記録の閉鎖等,0,2025-03-11,2025-03-03,有限会社河上コーポレーション,,有限会社,熊本県,熊本市中央区,本荘５丁目７番５号,,43,101,8600811,,,2025-03-03,清算の結了等,,,2015-10-05,1,,,,,カワカミコーポレーション,0
228,1360001008880,登記記録の閉鎖等,0,2025-03-11,2025-03-10,株式会社セトラス・クリエーション,,株式会社,沖縄県,浦添市,安波茶３丁目３７番１号メゾン伊波１０１,,47,208,9012114,,,2025-03-10,清算の結了等,,,2015-10-05,1,,,,,セトラスクリエーション,0
229,1360001024250,登記記録の閉鎖等,0,2025-03-11,2025-02-28,株式会社パイプマン沖縄,,株式会社,沖縄県,豊見城市,字与根２１２番地１７,,47,212,9010224,,,2025-02-28,清算の結了等,,,2018-07-19,1,,,,,パイプマンオキナワ,0
268,2010003016627,登記記録の閉鎖等,0,2025-03-11,2025-02-25,エヌビービーラインバレーリース合同会社,,合同会社,東京都,中央区,日本橋浜町３丁目３番２号,,13,102,1030007,,,2025-02-25,清算の結了等,,,2015-10-05,1,,,,,エヌビービーラインバレーリース,0
281,2010603009666,登記記録の閉鎖等,0,2025-03-11,2025-03-06,志成知能合同会社,,合同会社,東京都,江東区,東砂４丁目２４番地３－８０８号,,13,108,1360074,,,2025-03-06,清算の結了等,,,2022-08-03,1,,,,,シセイチノウ,0
310,2011401023198,登記記録の閉鎖等,0,2025-03-11,2025-03-04,株式会社ラパン,,株式会社,東京都,板橋区,中丸町１３番１－１０１号,,13,119,1730026,,,2025-03-04,清算の結了等,,,2021-03-02,1,,,,,ラパン,0
312,2011601016984,登記記録の閉鎖等,0,2025-03-11,2025-03-04,株式会社住まいのスミシン,,株式会社,東京都,練馬区,東大泉５丁目４１番１３号,,13,120,1780063,,,2025-03-04,清算の結了等,,,2015-10-05,1,,,,,スマイノスミシン,0
316,2011701000509,登記記録の閉鎖等,0,2025-03-11,2025-02-21,株式会社イスズ,,株式会社,東京都,江戸川区,篠崎町６丁目６番１５号,,13,123,1330061,,,2025-02-21,清算の結了等,,,2015-10-05,1,,,,,イスズ,0
332,2020001100167,登記記録の閉鎖等,0,2025-03-11,2025-03-03,メディギア・インターナショナル株式会社,,株式会社,東京都,世田谷区,奥沢７丁目４６－１６,,13,112,1580083,,,2025-03-03,清算の結了等,,,2015-10-05,1,,,,,メディギアインターナショナル,0
345,2030001085580,登記記録の閉鎖等,0,2025-03-11,2025-03-06,株式会社ペリカンドウ,,株式会社,埼玉県,行田市,長野１丁目１番１号,,11,206,3610023,,,2025-03-06,合併による解散等,3180001128943,令和７年２月２８日名古屋市中区錦二丁目３番１６号八木兵コーポレーション株式会社（3180001128943）に合併し解散,2015-10-05,1,,,,,ペリカンドウ,0
352,2030003024603,登記記録の閉鎖等,0,2025-03-11,2025-03-04,リプレイフィジオセラピー合同会社,,合同会社,埼玉県,和光市,西大和団地４－５－５０８,,11,229,3510105,,,2025-03-04,清算の結了等,,,2024-07-04,1,,,,,リプレイフィジオセラピー,0
354,2040001038216,登記記録の閉鎖等,0,2025-03-11,2025-03-03,株式会社タマイ企画,,株式会社,千葉県,流山市,南流山１丁目１４番地の８,,12,220,2700163,,,2025-03-03,清算の結了等,,,2015-10-05,1,,,,,タマイキカク,0
366,2080002012224,登記記録の閉鎖等,0,2025-03-11,2025-03-07,有限会社ふたば,,有限会社,静岡県,静岡市清水区,追分２丁目８番５号,,22,103,4240841,,,2025-03-07,合併による解散等,9080401015432,令和７年３月１日静岡県掛川市中央高町５４番地株式会社健康第一調剤薬局（9080401015432）に合併し解散,2015-10-05,1,,,,,フタバ,0
368,2080401001364,登記記録の閉鎖等,0,2025-03-11,2025-03-10,株式会社カワベ,,株式会社,静岡県,浜松市中央区,有玉西町２４１１番地の１,,22,138,4313123,,,2025-03-10,清算の結了等,,,2015-10-05,1,,,,,カワベ,0
383,2120001137216,登記記録の閉鎖等,0,2025-03-11,2025-03-06,Ｍ．Ｉ．Ａ．都市開発株式会社,,株式会社,大阪府,大阪市西区,靱本町１丁目１８番８号,,27,106,5500004,,,2025-03-06,清算の結了等,,,2015-10-05,1,,,,,エムアイエートシカイハツ,0
384,2120001252675,登記記録の閉鎖等,0,2025-03-11,2025-03-06,株式会社Ａｆｉｏ,,株式会社,大阪府,守口市,大日東町２３番１号,,27,209,5700016,,,2025-03-06,清算の結了等,,,2023-02-22,1,,,,,アフィオ,0
388,2120002019066,登記記録の閉鎖等,0,2025-03-11,2025-03-06,原田祥雲舎印刷有限会社,,有限会社,大阪府,大阪市福島区,大開１丁目１８番４号,,27,103,5530007,,,2025-03-06,清算の結了等,,,2015-10-05,1,,,,,ハラダショウウンシャインサツ,0
393,2130001021154,登記記録の閉鎖等,0,2025-03-11,2025-03-10,株式会社新樹苑,,株式会社,京都府,京都市北区,等持院東町１５番地の４,,26,101,6038343,,,2025-03-10,清算の結了等,,,2015-10-05,1,,,,,シンジュエン,0
395,2130001074169,登記記録の閉鎖等,0,2025-03-11,2025-03-07,株式会社東栄不動産,,株式会社,京都府,京都市右京区,西院西矢掛町１８番地,,26,108,6150025,,,2025-03-07,合併による解散等,2120001182708,令和７年２月２８日大阪市中央区本町四丁目８番１号ＳＤ本町ビル７０２号株式会社ファルコン（2120001182708）に合併し解散,2023-04-21,1,,,,,トウエイフドウサン,0
408,2140002059597,登記記録の閉鎖等,0,2025-03-11,2025-03-03,有限会社泉バレエ団バレエ教室,,有限会社,兵庫県,宝塚市,南口２丁目３番３５－５０３号,,28,214,6650011,,,2025-03-03,清算の結了等,,,2015-10-05,1,,,,,イズミバレエダンバレエキョウシツ,0
415,2180001162051,登記記録の閉鎖等,0,2025-03-11,2025-03-05,アイハンズディテイリング株式会社,,株式会社,愛知県,北名古屋市,九之坪宮浦２９番地２ロイヤルパーク西春７０３,,23,234,4810041,,,2025-03-05,清算の結了等,,,2024-06-20,1,,,,,アイハンズディテイリング,0
426,2180301006354,登記記録の閉鎖等,0,2025-03-11,2025-02-28,東部自動車販売株式会社,,株式会社,愛知県,豊橋市,東脇３丁目３番地の１２,,23,201,4418083,,,2025-02-28,合併による解散等,1180301006355,令和７年２月２８日愛知県豊橋市大井町４５番地の２東部モーター株式会社（1180301006355）に合併し解散,2015-10-05,1,,,,,トウブジドウシャハンバイ,0
434,2200005002622,登記記録の閉鎖等,0,2025-03-11,2025-03-07,特定非営利活動法人岐阜県環境新工法研究会,,その他の設立登記法人,岐阜県,岐阜市,雛倉７９４番地の１,,21,201,5011181,,,2025-03-07,清算の結了等,,,2015-10-05,1,,,,,ギフケンカンキョウシンコウホウケンキュウカイ,0
437,2220001022060,登記記録の閉鎖等,0,2025-03-11,2025-03-05,株式会社ファーム菜四季,,株式会社,石川県,金沢市,西念４丁目７番１号,,17,201,9200024,,,2025-03-05,清算の結了等,,,2018-01-10,1,,,,,ファームサイシキ,0
440,2230002013462,登記記録の閉鎖等,0,2025-03-11,2025-03-06,有限会社エヌケーテクノ,,有限会社,富山県,高岡市,野村１５８９番地の３,,16,202,9330014,,,2025-03-06,清算の結了等,,,2015-10-05,1,,,,,エヌケーテクノ,0
441,2240001008157,登記記録の閉鎖等,0,2025-03-11,2025-03-07,日本パイプ株式会社,,株式会社,広島県,広島市安佐南区,山本２丁目９番９号,,34,105,7310137,,,2025-03-07,合併による解散等,1010001036925,令和７年２月２１日東京都中央区八丁堀四丁目５番８号イシグロ株式会社（1010001036925）に合併し解散,2015-10-05,1,,,,,ニホンパイプ,0
464,2320002009625,登記記録の閉鎖等,0,2025-03-11,2025-03-10,有限会社白光堂印房,,有限会社,大分県,大分市,府内町３丁目５番３号,,44,201,8700021,,,2025-03-10,清算の結了等,,,2015-10-05,1,,,,,,0
466,2320005004945,登記記録の閉鎖等,0,2025-03-11,2025-02-14,天理教中山香分教会,,その他の設立登記法人,大分県,杵築市,山香町大字内河野２６７９番地の４,,44,210,8791311,,,2025-02-14,合併による解散等,8490005004428,令和７年２月１２日高知県香美市土佐山田町平山字岡田丸１７４８番ロ地天理教繁藤大教会（8490005004428）に合併し解散,2015-10-05,1,,,,,,0
484,2430001047053,登記記録の閉鎖等,0,2025-03-11,2025-02-19,丸安商事株式会社,,株式会社,北海道,三笠市,唐松町２丁目３０４番地,,01,222,0682135,,,2025-02-19,清算の結了等,,,2015-10-05,1,,,,,,0
486,2430002015075,登記記録の閉鎖等,0,2025-03-11,2025-03-04,有限会社日乗,,有限会社,北海道,札幌市豊平区,豊平四条３丁目２番１号,,01,105,0620904,,,2025-03-04,清算の結了等,,,2015-10-05,1,,,,,ニチジョウ,0
493,2430005013365,登記記録の閉鎖等,0,2025-03-11,2025-03-06,一般社団法人障がい者総合支援協会,,その他の設立登記法人,北海道,札幌市中央区,南二条東２丁目８－１大都ビル７Ｆ,,01,101,0600052,,,2025-03-06,清算の結了等,,,2018-04-05,1,,,,,ショウガイシャソウゴウシエンキョウカイ,0
504,2500002021660,登記記録の閉鎖等,0,2025-03-11,2025-03-06,有限会社スズキ,,有限会社,愛媛県,四国中央市,金田町半田甲１４０番地１,,38,213,7990122,,,2025-03-06,清算の結了等,,,2015-10-05,1,,,,,スズキ,0
513,3010001137275,登記記録の閉鎖等,0,2025-03-11,2025-02-25,サンデイ株式会社,,株式会社,東京都,中央区,築地６丁目４番７号ロスマリンビル１Ｆ,,13,102,1040045,,,2025-02-25,清算の結了等,,,2015-10-05,1,,,,,サンデイ,0
517,3010001162406,登記記録の閉鎖等,0,2025-03-11,2025-02-25,ワールドエイジングケア株式会社,,株式会社,東京都,中央区,日本橋堀留町１丁目４－１６ピーコス日本橋ビル８階,,13,102,1030012,,,2025-02-25,清算の結了等,,,2015-10-05,1,,,,,ワールドエイジングケア,0
530,3010401124294,登記記録の閉鎖等,0,2025-03-11,2025-01-09,株式会社ポケラボ,,株式会社,東京都,港区,六本木６丁目１１番１号,,13,103,1060032,,,2025-01-09,合併による解散等,3010401110443,令和７年１月１日東京都港区六本木六丁目１１番１号株式会社ＷＦＳ（3010401110443）に合併し解散,2016-04-22,1,,,,,ポケラボ,0
531,3010401166568,登記記録の閉鎖等,0,2025-03-11,2025-03-06,ＰＣＴホールディングス株式会社,,株式会社,東京都,港区,元赤坂１丁目１番８号株式会社赤坂国際会計内,,13,103,1070051,,,2025-03-06,合併による解散等,1070001016459,令和７年３月１日群馬県桐生市新里町新川４２５番地９パワーコントロールテクニック株式会社（1070001016459）に合併し解散,2022-04-05,1,,,,,ピーシーティーホールディングス,0
543,3010701022082,登記記録の閉鎖等,0,2025-03-11,2025-02-13,株式会社昭和アルミ缶リサイクリングセンター,,株式会社,東京都,文京区,後楽１丁目４番２５号,,13,105,1120004,,,2025-02-13,合併による解散等,4010001018482,令和７年１月３１日東京都文京区後楽一丁目４番２５号アルテミラ・テクノソリューションズ株式会社（4010001018482）に合併し解散,2015-10-05,1,,,,,ショウワアルミカンリサイクリングセンター,0
547,3010702000509,登記記録の閉鎖等,0,2025-03-11,2025-02-28,有限会社アルト工業,,有限会社,東京都,品川区,荏原４丁目１７番１７号,,13,109,1420063,,,2025-02-28,清算の結了等,,,2015-10-05,1,,,,,アルトコウギョウ,0
567,3011201025658,登記記録の閉鎖等,0,2025-03-11,2025-03-10,株式会社Ｒ＆Ｋ,,株式会社,東京都,中野区,弥生町５丁目２３番７－３１６号,,13,114,1640013,,,2025-03-10,清算の結了等,,,2024-07-25,1,,,,,アールアンドケー,0
568,3011301026928,登記記録の閉鎖等,0,2025-03-11,2025-03-07,尾瀬高原リゾート株式会社,,株式会社,東京都,中野区,中央１丁目３５番１号毛利ビル２階,,13,114,1640011,,,2025-03-07,清算の結了等,,,2021-06-15,1,,,,,オゼコウゲンリゾート,0
570,3011401010427,登記記録の閉鎖等,0,2025-03-11,2025-03-03,株式会社アルトレード,,株式会社,東京都,板橋区,板橋１丁目５番１２号,,13,119,1730004,,,2025-03-03,清算の結了等,,,2015-10-05,1,,,,,,0
621,3030001093830,登記記録の閉鎖等,0,2025-03-11,2025-02-13,株式会社クラフトマンスタジオ,,株式会社,埼玉県,所沢市,小手指町１丁目１３番地３－１０１,,11,208,3591141,,,2025-02-13,合併による解散等,8030001025762,令和７年２月１日埼玉県所沢市大字松郷３４２番地の６株式会社べネック（8030001025762）に合併し解散,2015-10-05,1,,,,,クラフトマンスタジオ,0
637,3050001026540,登記記録の閉鎖等,0,2025-03-11,2025-03-04,竹沢木材株式会社,,株式会社,茨城県,常陸太田市,宮本町３３６番地５,,08,212,3130006,,,2025-03-04,清算の結了等,,,2015-10-05,1,,,,,タケザワモクザイ,0
646,3080101023922,登記記録の閉鎖等,0,2025-03-11,2025-03-03,株式会社アセットシード５ｔｈ,,株式会社,静岡県,駿東郡長泉町,東野１４３番地の１９,,22,342,4110931,,,2025-03-03,合併による解散等,3080101009533,令和７年３月１日静岡県富士市五貫島６２４番地株式会社フジマシン（3080101009533）に合併し解散,2023-04-20,1,,,,,アセットシードフィフス,0
647,3080102008096,登記記録の閉鎖等,0,2025-03-11,2025-03-04,有限会社エルク,,有限会社,静岡県,伊豆の国市,田京４５番地２,,22,225,4102315,,,2025-03-04,清算の結了等,,,2015-10-05,1,,,,,エルク,0
676,3130001006402,登記記録の閉鎖等,0,2025-03-11,2025-03-10,株式会社越野美整工芸,,株式会社,京都府,京都市左京区,八瀬近衛町３５４番地の３,,26,103,6011253,,,2025-03-10,清算の結了等,,,2015-10-05,1,,,,,コシノビセイコウゲイ,0
690,3180001017106,登記記録の閉鎖等,0,2025-03-11,2025-03-04,株式会社セントラルパークアネックス,,株式会社,愛知県,名古屋市東区,泉１丁目２３番３６号,,23,102,4610001,,,2025-03-04,清算の結了等,,,2015-10-05,1,,,,,セントラルパークアネックス,0
698,3180002026147,登記記録の閉鎖等,0,2025-03-11,2025-03-05,有限会社ドゥカンパニィ,,有限会社,愛知県,名古屋市緑区,有松町大字桶狭間字愛宕西２３番第３４５番地,,23,114,4580916,,,2025-03-05,清算の結了等,,,2015-10-05,1,,,,,ドゥカンパニィ,0
709,3220001026003,登記記録の閉鎖等,0,2025-03-11,2025-02-17,大洋繊維工業株式会社,,株式会社,石川県,加賀市,大聖寺観音町１０番地,,17,206,9220046,,,2025-02-17,清算の結了等,,,2024-05-31,1,,,,,,0
712,3240001031100,登記記録の閉鎖等,0,2025-03-11,2025-02-27,瀬戸内海建設工業株式会社,,株式会社,広島県,福山市,御幸町大字中津原１７４７番地の１,,34,207,7200004,,,2025-02-27,清算の結了等,,,2023-08-25,1,,,,,,0
736,3300005005085,登記記録の閉鎖等,0,2025-03-11,2025-02-19,天理教唐津港分教会,,その他の設立登記法人,佐賀県,唐津市,西唐津３丁目６８６８番地２,,41,202,8470875,,,2025-02-19,合併による解散等,5290005012676,令和７年２月１０日福岡県大牟田市松原町１番地の１天理教九筑分教会（5290005012676）に合併し解散,2015-10-05,1,,,,,テンリキョウカラツコウブンキョウカイ,0
741,3320002013527,登記記録の閉鎖等,0,2025-03-11,2025-03-10,有限会社安部青果,,有限会社,大分県,別府市,大字野田２４５番地の３,,44,202,8740016,,,2025-03-10,清算の結了等,,,2015-10-05,1,,,,,,0
761,3430001012642,登記記録の閉鎖等,0,2025-03-11,2025-03-07,株式会社日宣,,株式会社,北海道,札幌市白石区,菊水元町六条３丁目４番１３号,,01,104,0030826,,,2025-03-07,清算の結了等,,,2015-10-05,1,,,,,ニッセン,0
777,3500003002618,登記記録の閉鎖等,0,2025-03-11,2025-03-07,ＢＯＬＤ合同会社,,合同会社,愛媛県,松山市,桑原７丁目６番３１号ＤｏｌｃｅＶｉｔａ・Ａ－６号,,38,201,7900911,,,2025-03-07,清算の結了等,,,2021-04-28,1,,,,,ボールド,0
807,4010601029565,登記記録の閉鎖等,0,2025-03-11,2025-03-07,茶処たちばな株式会社,,株式会社,東京都,墨田区,京島３丁目２３番８号,,13,107,1310046,,,2025-03-07,清算の結了等,,,2015-10-05,1,,,,,,0
815,4010903005586,登記記録の閉鎖等,0,2025-03-11,2025-03-06,合同会社エンドオブオーシャン,,合同会社,東京都,世田谷区,代沢２丁目３４番１８号,,13,112,1550032,,,2025-03-06,清算の結了等,,,2020-03-19,1,,,,,エンドオブオーシャン,0
821,4011001153311,登記記録の閉鎖等,0,2025-03-11,2025-03-05,東駿交通株式会社,,株式会社,東京都,江戸川区,北葛西５丁目８番１１号,,13,123,1340081,,,2025-03-05,清算の結了等,,,2023-03-23,1,,,,,トウシュンコウツウ,0
833,4011202007241,登記記録の閉鎖等,0,2025-03-11,2025-03-07,有限会社クリエートニイチ,,有限会社,東京都,中野区,中野５丁目２４番１６－３０５号,,13,114,1640001,,,2025-03-07,清算の結了等,,,2015-10-05,1,,,,,クリエートニイチ,0
839,4011702008573,登記記録の閉鎖等,0,2025-03-11,2025-03-05,有限会社ナカハラ,,有限会社,東京都,江戸川区,東小松川１丁目１２番１０号,,13,123,1320033,,,2025-03-05,清算の結了等,,,2015-10-05,1,,,,,ナカハラ,0
847,4020001078220,登記記録の閉鎖等,0,2025-03-11,2025-03-03,株式会社串善,,株式会社,神奈川県,川崎市中原区,新丸子東１丁目９８３番地６,,14,133,2110004,,,2025-03-03,清算の結了等,,,2015-10-05,1,,,,,クシゼン,0
848,4020001094944,登記記録の閉鎖等,0,2025-03-11,2025-03-07,株式会社ドライブネクスト,,株式会社,東京都,渋谷区,神宮前６丁目２３番４号,,13,113,1500001,,,2025-03-07,清算の結了等,,,2015-10-05,1,,,,,ドライブネクスト,0
851,4020001145739,登記記録の閉鎖等,0,2025-03-11,2025-03-03,Ｏｒｉｅｎｔ　Ｉｎｄｕｓｔｒｉｅｓ株式会社,,株式会社,神奈川県,横浜市戸塚区,汲沢２丁目１４番１５号,,14,110,2450061,,,2025-03-03,清算の結了等,,,2022-03-23,1,,,,,オリエントインダストリーズ,0
867,4030001075167,登記記録の閉鎖等,0,2025-03-11,2025-03-06,株式会社佐藤薬品販売,,株式会社,埼玉県,川口市,長蔵３丁目１番３７号,,11,203,3330807,,,2025-03-06,合併による解散等,5190001026302,令和７年３月１日三重県津市西丸之内３６番２５号株式会社メディカル一光（5190001026302）に合併し解散,2015-10-05,1,,,,,サトウヤクヒンハンバイ,0
878,4050001044632,登記記録の閉鎖等,0,2025-03-11,2025-02-28,株式会社パイプマン水戸,,株式会社,茨城県,水戸市,東野町字東割２６４番地１,,08,201,3100846,,,2025-02-28,清算の結了等,,,2018-07-02,1,,,,,パイプマンミト,0
887,4070002028574,登記記録の閉鎖等,0,2025-03-11,2025-03-07,オフィス企画有限会社,,有限会社,群馬県,太田市,飯塚町６１２番地４,,10,205,3730817,,,2025-03-07,清算の結了等,,,2015-10-05,1,,,,,オフィスキカク,0
898,4120001188975,登記記録の閉鎖等,0,2025-03-11,2025-03-05,株式会社ｓｈｙｆＴ,,株式会社,大阪府,大阪市都島区,東野田町２丁目９－１３松和京橋第一ビル７Ｆ,,27,102,5340024,,,2025-03-05,清算の結了等,,,2015-10-05,1,,,,,シフト,0
901,4120001242278,登記記録の閉鎖等,0,2025-03-11,2025-03-06,株式会社ＣｏｎｎｅｃＴｒｕｓｔ,,株式会社,大阪府,枚方市,楠葉並木１丁目３８－１１なみきビル３０１,,27,210,5731118,,,2025-03-06,清算の結了等,,,2021-12-06,1,,,,,コネクトラスト,0
918,4130001045564,登記記録の閉鎖等,0,2025-03-11,2025-03-10,株式会社エスト北山,,株式会社,京都府,京都市伏見区,竹田浄菩提院町１３３番地,,26,109,6128445,,,2025-03-10,清算の結了等,,,2015-10-05,1,,,,,エストキタヤマ,0
930,4180001001777,登記記録の閉鎖等,0,2025-03-11,2025-03-04,株式会社オリエント貿易,,株式会社,愛知県,名古屋市名東区,高針４丁目１００４番地,,23,115,4650061,,,2025-03-04,清算の結了等,,,2015-10-05,1,,,,,オリエントボウエキ,0
941,4180302009395,登記記録の閉鎖等,0,2025-03-11,2025-03-03,有限会社ファーストカンパニー,,有限会社,愛知県,豊橋市,つつじが丘２丁目６番地７,,23,201,4400858,,,2025-03-03,合併による解散等,4180301006121,令和７年３月１日愛知県豊橋市つつじが丘二丁目６番地７株式会社大和商会（4180301006121）に合併し解散,2015-10-05,1,,,,,ファーストカンパニー,0
955,4230002012891,登記記録の閉鎖等,0,2025-03-11,2025-03-05,有限会社サノ縫製,,有限会社,富山県,氷見市,島尾１４７番地,,16,205,9350032,,,2025-03-05,清算の結了等,,,2015-10-05,1,,,,,サノホウセイ,0
964,4260002018374,登記記録の閉鎖等,0,2025-03-11,2025-03-07,有限会社坂本金型設計事務所,,有限会社,岡山県,倉敷市,青江９０５番地３,,33,202,7100064,,,2025-03-07,清算の結了等,,,2015-10-05,1,,,,,サカモトカナガタセッケイジムショ,0
967,4270001006098,登記記録の閉鎖等,0,2025-03-11,2025-03-10,株式会社西尾商会,,株式会社,鳥取県,鳥取市,河原町稲常８１２番地,,31,201,6801203,,,2025-03-10,清算の結了等,,,2015-10-05,1,,,,,ニシオショウカイ,0
982,4290802000941,登記記録の閉鎖等,0,2025-03-11,2025-03-04,有限会社エーシーハウジング,,有限会社,福岡県,北九州市小倉北区,木町３丁目２番２５号,,40,106,8030851,,,2025-03-04,清算の結了等,,,2015-10-05,1,,,,,,0
983,4290805007637,登記記録の閉鎖等,0,2025-03-11,2025-02-14,天理教豊ノ里分教会,,その他の設立登記法人,福岡県,田川郡香春町,大字中津原２７８４番地の３,,40,601,8221405,,,2025-02-14,合併による解散等,1290805004430,令和７年２月１４日北九州市八幡西区光明二丁目２番３４号天理教豊筑分教会（1290805004430）に合併し解散,2015-10-05,1,,,,,,0
985,4320001004914,登記記録の閉鎖等,0,2025-03-11,2025-03-10,株式会社東大在,,株式会社,大分県,大分市,大字永興１５５７番地,,44,201,8700883,,,2025-03-10,清算の結了等,,,2015-10-05,1,,,,,ヒガシオオザイ,0
987,4320002000383,登記記録の閉鎖等,0,2025-03-11,2025-02-28,有限会社大分ワンコインズ,,有限会社,大分県,大分市,志手２組,,44,201,,,,2025-02-28,清算の結了等,,,2015-10-05,1,,,,,オオイタワンコインズ,1
1005,4420002016469,登記記録の閉鎖等,0,2025-03-11,2025-03-05,有限会社小原化粧品店,,有限会社,青森県,十和田市,稲生町１５番１１号,,02,206,0340011,,,2025-03-05,清算の結了等,,,2015-10-05,1,,,,,オバラケショウヒンテン,0
1009,4430001084152,登記記録の閉鎖等,0,2025-03-11,2025-03-10,株式会社ヨシテツ,,株式会社,北海道,札幌市北区,屯田六条５丁目５番２号,,01,102,0020856,,,2025-03-10,清算の結了等,,,2021-05-26,1,,,,,ヨシテツ,0
1015,4430002014752,登記記録の閉鎖等,0,2025-03-11,2025-03-03,有限会社成田板金工業所,,有限会社,北海道,札幌市東区,北十六条東５丁目１０番地,,01,103,0650016,,,2025-03-03,清算の結了等,,,2015-10-05,1,,,,,ナリタバンキンコウギョウショ,0
1016,4430003005123,登記記録の閉鎖等,0,2025-03-11,2025-03-10,株式会社ウェストインダストリーズ,,株式会社,北海道,札幌市東区,中沼町５６－１５,,01,103,0070890,,,2025-03-10,清算の結了等,,,2015-10-05,1,,,,,ウェストインダストリーズ,0
1018,4462501000643,登記記録の閉鎖等,0,2025-03-11,2025-03-06,株式会社光進コントラ,,株式会社,北海道,野付郡別海町,泉川７８番地１８,,01,691,0882578,,,2025-03-06,清算の結了等,,,2015-10-05,1,,,,,コウシンコントラ,0
1028,5010001083369,登記記録の閉鎖等,0,2025-03-11,2025-02-25,株式会社ＩＰＰＯホールディングス,,株式会社,東京都,中央区,明石町５番１２－９１０,,13,102,1040044,,,2025-02-25,清算の結了等,,,2015-10-05,1,,,,,イッポホールディングス,0
1050,5010401150132,登記記録の閉鎖等,0,2025-03-11,2025-03-04,株式会社Ｐａｃｉｆｉｃ　Ｓｔａｇｅ,,株式会社,東京都,港区,新橋１丁目５番５号,,13,103,1050004,,,2025-03-04,合併による解散等,7030001041769,令和７年２月２８日埼玉県上尾市富士見二丁目１番２５号株式会社フレンドステージ（7030001041769）に合併し解散,2019-12-26,1,,,,,パシフィックステージ,0
1098,5020001004860,登記記録の閉鎖等,0,2025-03-11,2025-03-03,株式会社オークス,,株式会社,神奈川県,横浜市旭区,中希望が丘９９番地３,,14,112,2410825,,,2025-03-03,清算の結了等,,,2015-10-05,1,,,,,オークス,0
1108,5020002069234,登記記録の閉鎖等,0,2025-03-11,2025-02-28,有限会社プラスト,,有限会社,神奈川県,横浜市西区,みなとみらい４丁目４－２横浜ブルーアベニュー１２階,,14,103,2200012,,,2025-02-28,清算の結了等,,,2015-10-05,1,,,,,プラスト,0
1118,5021002012142,登記記録の閉鎖等,0,2025-03-11,2025-03-10,有限会社丸栄工業所,,有限会社,神奈川県,茅ヶ崎市,松尾６番３５号,,14,207,2530065,,,2025-03-10,清算の結了等,,,2015-10-05,1,,,,,マルエイコウギョウショ,0
1121,5030001114626,登記記録の閉鎖等,0,2025-03-11,2025-03-06,株式会社心体科学研究所,,株式会社,香川県,仲多度郡まんのう町,吉野下７２６番地１,,37,406,7660022,,,2025-03-06,清算の結了等,,,2016-06-09,1,,,,,シンタイカガクケンキュウジョ,0
1125,5030002034344,登記記録の閉鎖等,0,2025-03-11,2025-03-06,有限会社別府建築構造設計事務所,,有限会社,埼玉県,狭山市,大字上奥富７５番地の６アリュージュ新狭山１０３,,11,215,3501333,,,2025-03-06,清算の結了等,,,2015-10-05,1,,,,,ベップケンチクコウゾウセッケイジムショ,0
1137,5040001060571,登記記録の閉鎖等,0,2025-03-11,2025-03-03,株式会社ＤＴファミリアライズ,,株式会社,千葉県,佐倉市,ユーカリが丘４丁目１スカイプラザユーカリが丘サウスタワー２００８,,12,212,2850858,,,2025-03-03,清算の結了等,,,2015-10-05,1,,,,,,0
1146,5060002031826,登記記録の閉鎖等,0,2025-03-11,2025-03-04,株式会社加登屋,,株式会社,栃木県,栃木市,沼和田町１６番１５号,,09,203,3280042,,,2025-03-04,清算の結了等,,,2015-10-05,1,,,,,カトヤ,0
1160,5120001119054,登記記録の閉鎖等,0,2025-03-11,2025-03-07,ジオラマジャパン株式会社,,株式会社,大阪府,大阪市中央区,船越町１丁目６番６号レナ天満橋８階,,27,128,5400036,,,2025-03-07,清算の結了等,,,2015-10-05,1,,,,,ジオラマジャパン,0
1186,5130001028312,登記記録の閉鎖等,0,2025-03-11,2025-03-06,株式会社舘匠,,株式会社,京都府,京都市伏見区,毛利町１０１番地,,26,109,6128373,,,2025-03-06,清算の結了等,,,2015-10-05,1,,,,,タテショウ,0
1195,5140002045066,登記記録の閉鎖等,0,2025-03-11,2025-02-28,有限会社タバタ,,有限会社,兵庫県,尼崎市,武庫町１丁目５０－６－２０１,,28,202,6610044,,,2025-02-28,清算の結了等,,,2015-10-05,1,,,,,タバタ,0
1196,5150001014533,登記記録の閉鎖等,0,2025-03-11,2025-03-07,株式会社セフティライフ,,株式会社,奈良県,北葛城郡広陵町,馬見南４丁目１番１９号,,29,426,6350833,,,2025-03-07,合併による解散等,3120001098135,令和７年３月１日大阪市中央区南本町一丁目４番１０号株式会社ベック（3120001098135）に合併し解散,2015-10-05,1,,,,,セフティライフ,0
1212,5180002020296,登記記録の閉鎖等,0,2025-03-11,2025-03-03,有限会社三機ファイナンス,,有限会社,愛知県,名古屋市熱田区,白鳥２丁目８番２４号,,23,109,4560035,,,2025-03-03,合併による解散等,7180001140390,令和７年３月１日名古屋市熱田区白鳥二丁目８番２４号株式会社三機ホールディングス（7180001140390）に合併し解散,2015-10-05,1,,,,,サンキファイナンス,0
1215,5180002072817,登記記録の閉鎖等,0,2025-03-11,2025-03-06,有限会社創デザインスタジオ,,有限会社,愛知県,名古屋市北区,六が池町５０番地の１,,23,103,4620002,,,2025-03-06,清算の結了等,,,2015-10-05,1,,,,,ソウデザインスタジオ,0
1249,5290005006819,登記記録の閉鎖等,0,2025-03-11,2025-02-13,天理教南京往分教会,,その他の設立登記法人,福岡県,春日市,桜ヶ丘５丁目６４番地,,40,218,8160872,,,2025-02-13,合併による解散等,1120005000494,令和７年２月１２日大阪市阿倍野区昭和町四丁目７番１４号天理教南大教会（1120005000494）に合併し解散,2015-10-05,1,,,,,テンリキョウミナミケイオウブンキョウカイ,0
1269,5400001009334,登記記録の閉鎖等,0,2025-03-11,2025-02-26,株式会社たろうの浜小屋,,株式会社,岩手県,宮古市,田老字小林９９番地２,,03,202,0270351,,,2025-02-26,清算の結了等,,,2015-10-05,1,,,,,タロウノハマゴヤ,0
1273,5420002016880,登記記録の閉鎖等,0,2025-03-11,2025-03-07,十和田食菌有限会社,,有限会社,青森県,十和田市,大字三本木字西金崎１３３番地,,02,206,0340001,,,2025-03-07,清算の結了等,,,2015-10-05,1,,,,,トワダショクキン,0
1274,5430001085109,登記記録の閉鎖等,0,2025-03-11,2025-03-05,ＦＵＪＩ工業株式会社,,株式会社,北海道,札幌市東区,東苗穂八条１丁目１５番９、１５番１０,,01,103,0070808,,,2025-03-05,清算の結了等,,,2021-10-07,1,,,,,フジコウギョウ,0
1280,5470001005434,登記記録の閉鎖等,0,2025-03-11,2025-03-06,株式会社若松薬品,,株式会社,香川県,高松市,国分寺町新名５４０番地２,,37,201,7690104,,,2025-03-06,合併による解散等,5190001026302,令和７年３月１日三重県津市西丸之内３６番２５号株式会社メディカル一光（5190001026302）に合併し解散,2015-10-05,1,,,,,ワカマツヤクヒン,0
1281,5500001002618,登記記録の閉鎖等,0,2025-03-11,2025-03-07,株式会社高橋ビル,,株式会社,愛媛県,松山市,三番町３丁目６番地８,,38,201,7900003,,,2025-03-07,清算の結了等,,,2015-10-05,1,,,,,タカハシビル,0
1304,6010401068927,登記記録の閉鎖等,0,2025-03-11,2025-03-07,オー・シー・アール株式会社,,株式会社,東京都,港区,浜松町２丁目４番１号,,13,103,1050013,,,2025-03-07,清算の結了等,,,2015-10-05,1,,,,,オーシーアール,0
1318,6010601014053,登記記録の閉鎖等,0,2025-03-11,2025-03-05,ニッポンブレーキシュー株式会社,,株式会社,東京都,墨田区,本所４丁目１４番３号,,13,107,1300004,,,2025-03-05,清算の結了等,,,2015-10-05,1,,,,,ニッポンブレーキシュー,0
1320,6010705002722,登記記録の閉鎖等,0,2025-03-11,2025-02-20,一般社団法人ソウルカラーセラピー協会,,その他の設立登記法人,東京都,港区,北青山１丁目３番１号アールキューブ青山３階,,13,103,1070061,,,2025-02-20,清算の結了等,,,2018-01-22,1,,,,,ソウルカラーセラピーキョウカイ,0
1357,6020001000545,登記記録の閉鎖等,0,2025-03-11,2025-03-03,株式会社エリカスクール,,株式会社,神奈川県,横浜市泉区,中田南１丁目１７番２号,,14,116,2450014,,,2025-03-03,清算の結了等,,,2015-10-05,1,,,,,エリカスクール,0
1370,6020002063434,登記記録の閉鎖等,0,2025-03-11,2025-02-28,有限会社ソメス,,有限会社,神奈川県,横浜市青葉区,鴨志田町５２６番地２,,14,117,2270033,,,2025-02-28,清算の結了等,,,2015-10-05,1,,,,,ソメス,0
1399,6080101009687,登記記録の閉鎖等,0,2025-03-11,2025-03-05,株式会社増田鋳造所,,株式会社,静岡県,富士市,久沢９８４番地,,22,210,4190202,,,2025-03-05,清算の結了等,,,2015-10-05,1,,,,,マスダチュウゾウジョ,0
1400,6080102003623,登記記録の閉鎖等,0,2025-03-11,2025-03-05,有限会社保竹ビル,,有限会社,静岡県,沼津市,新宿町２番地の１７,,22,203,4100048,,,2025-03-05,清算の結了等,,,2015-10-05,1,,,,,ヤスタケビル,0
1415,6120002006457,登記記録の閉鎖等,0,2025-03-11,2025-03-05,有限会社アップスタート,,有限会社,大阪府,大阪市東住吉区,南田辺３丁目４番７－５０１号,,27,121,5460033,,,2025-03-05,清算の結了等,,,2015-10-05,1,,,,,アップスタート,0
1423,6120101070569,登記記録の閉鎖等,0,2025-03-11,2025-02-18,株式会社吉田,,株式会社,大阪府,富田林市,本町１８番１９号,,27,214,5840093,,,2025-02-18,清算の結了等,,,2024-11-22,1,,,,,,0
1465,6180003019956,登記記録の閉鎖等,0,2025-03-11,2025-03-05,合同会社神田メンテナンス,,合同会社,愛知県,名古屋市緑区,鳴海町字母呂後１４３番地２,,23,114,4580801,,,2025-03-05,清算の結了等,,,2019-05-09,1,,,,,カンダメンテナンス,0
1466,6180003027579,登記記録の閉鎖等,0,2025-03-11,2025-03-03,合同会社縁光,,合同会社,愛知県,愛西市,立田町船頭平２１０番地,,23,232,4960946,,,2025-03-03,清算の結了等,,,2024-11-07,1,,,,,エンコウ,0
1487,6260005005319,登記記録の閉鎖等,0,2025-03-11,2025-02-14,天理教五十飛島分教会,,その他の設立登記法人,岡山県,笠岡市,飛島５４０９番地,,33,205,7140302,,,2025-02-14,合併による解散等,2260005005322,令和７年２月１４日岡山県笠岡市六島５６３０番地天理教六島分教会（2260005005322）に合併し解散,2015-10-05,1,,,,,,0
1490,6290001040705,登記記録の閉鎖等,0,2025-03-11,2025-02-07,株式会社サン住宅,,株式会社,福岡県,大野城市,仲畑４丁目２２番１８号,,40,219,8160921,,,2025-02-07,清算の結了等,,,2024-06-05,1,,,,,,0
1503,6320001009390,登記記録の閉鎖等,0,2025-03-11,2025-03-10,株式会社大分山水,,株式会社,大分県,佐伯市,中村東町２番１号センタービル４０３号,,44,205,8760853,,,2025-03-10,清算の結了等,,,2015-10-05,1,,,,,オオイタサンスイ,0
1504,6320002004960,登記記録の閉鎖等,0,2025-03-11,2025-03-07,有限会社中小路電装,,有限会社,大分県,大分市,新春日町２丁目３番６号,,44,201,8700818,,,2025-03-07,清算の結了等,,,2015-10-05,1,,,,,ナカコウジデンソウ,0
1505,6320003001791,登記記録の閉鎖等,0,2025-03-11,2025-03-07,合同会社髪塾,,合同会社,大分県,中津市,中殿町３丁目１１番地６,,44,203,8710030,,,2025-03-07,合併による解散等,9290802022510,令和７年３月１日福岡県行橋市中央二丁目３番７号株式会社ＺＥＲＯ　ＰＬＵＳ（9290802022510）に合併し解散,2015-10-05,1,,,,,,0
1527,6410001008656,登記記録の閉鎖等,0,2025-03-11,2025-02-13,デイサービスふるさと株式会社,,株式会社,秋田県,仙北市,田沢湖角館東前郷字杉林１７１番地３,,05,215,0141116,,,2025-02-13,合併による解散等,5400001004558,令和７年２月１日岩手県岩手郡雫石町柿木５番地４株式会社航和（5400001004558）に合併し解散,2015-10-05,1,,,,,デイサービスフルサト,0
1529,6420001013622,登記記録の閉鎖等,0,2025-03-11,2025-03-06,株式会社仲村工業,,株式会社,青森県,下北郡東通村,大字尻労字天神林４４番地３,,02,424,0350112,,,2025-03-06,清算の結了等,,,2015-10-05,1,,,,,ナカムラコウギョウ,0
1544,6470002018962,登記記録の閉鎖等,0,2025-03-11,2025-03-06,有限会社柴田水産,,有限会社,香川県,小豆郡小豆島町,蒲生甲１９１２番地１,,37,324,7614302,,,2025-03-06,清算の結了等,,,2015-10-05,1,,,,,シバタスイサン,0
1603,7011001060372,登記記録の閉鎖等,0,2025-03-11,2025-02-12,株式会社フォーヴァル,,株式会社,東京都,渋谷区,広尾１丁目７番２９号－２０１,,13,113,1500012,,,2025-02-12,清算の結了等,,,2015-10-05,1,,,,,フォーヴァル,0
1637,7020001128311,登記記録の閉鎖等,0,2025-03-11,2025-03-03,株式会社ラフビー,,株式会社,神奈川県,川崎市川崎区,小田３丁目１３番１９号,,14,131,2100846,,,2025-03-03,清算の結了等,,,2018-10-12,1,,,,,ラフビー,0
1642,7020002039945,登記記録の閉鎖等,0,2025-03-11,2025-02-28,有限会社布川瓦工業所,,有限会社,神奈川県,横浜市鶴見区,鶴見中央１丁目２６番２号,,14,101,2300051,,,2025-02-28,清算の結了等,,,2015-10-05,1,,,,,フカワカワラコウギョウショ,0
1654,7030001095930,登記記録の閉鎖等,0,2025-03-11,2025-03-06,株式会社アイプラス,,株式会社,埼玉県,川越市,大字古谷上６０８３－７Ｄ１－３０６,,11,201,3500001,,,2025-03-06,清算の結了等,,,2015-10-05,1,,,,,アイプラス,0
1660,7040001052014,登記記録の閉鎖等,0,2025-03-11,2025-02-26,千葉緑化土木株式会社,,株式会社,千葉県,君津市,貞元９１５番地,,12,225,2991133,,,2025-02-26,清算の結了等,,,2024-05-24,1,,,,,チバリョクカドボク,0
1682,7080102000545,登記記録の閉鎖等,0,2025-03-11,2025-03-03,有限会社エスオービル,,有限会社,静岡県,沼津市,大手町４丁目５番１８号,,22,203,4100801,,,2025-03-03,合併による解散等,7080102002896,令和７年３月１日静岡県沼津市大手町四丁目５番１８号株式会社八億（7080102002896）に合併し解散,2015-10-05,1,,,,,エスオービル,0
1684,7080401005823,登記記録の閉鎖等,0,2025-03-11,2025-03-07,株式会社ヤギモク,,株式会社,静岡県,静岡市葵区,神明町７１番地,,22,101,4200009,,,2025-03-07,合併による解散等,1080401005812,令和７年３月１日静岡県浜松市中央区飯田町８番地林工住宅株式会社（1080401005812）に合併し解散,2015-10-05,1,,,,,ヤギモク,0
1689,7100002027256,登記記録の閉鎖等,0,2025-03-11,2025-03-03,有限会社蘭工業,,有限会社,長野県,木曽郡南木曽町,吾妻４００６番地１８,,20,423,3995302,,,2025-03-03,清算の結了等,,,2015-10-05,1,,,,,アララギコウギョウ,0
1716,7130001061014,登記記録の閉鎖等,0,2025-03-11,2025-03-07,ファンテーブルジャパン株式会社,,株式会社,京都府,京都市中京区,蛸薬師通烏丸西入ル橋弁慶町２２２番地京都いのべーしょんオフィス,,26,104,6040000,,,2025-03-07,清算の結了等,,,2017-11-29,1,,,,,,0
1734,7180001148112,登記記録の閉鎖等,0,2025-03-11,2025-03-06,株式会社グッティジャパン,,株式会社,愛知県,名古屋市中区,栄１丁目６番１５号グランドメゾン御園座タワー３２０２号,,23,106,4600008,,,2025-03-06,清算の結了等,,,2021-10-04,1,,,,,グッティジャパン,0
1738,7180003017868,登記記録の閉鎖等,0,2025-03-11,2025-03-04,聚興合同会社,,合同会社,愛知県,知多郡美浜町,新浦戸１丁目１２番地１７,,23,446,4702411,,,2025-03-04,清算の結了等,,,2017-04-14,1,,,,,シュウコウ,0
1744,7200005011957,登記記録の閉鎖等,0,2025-03-11,2025-02-28,税理士法人栗本会計事務所,,その他の設立登記法人,岐阜県,岐阜市,鷺山２５６２番地１,,21,201,5020851,,,2025-02-28,清算の結了等,,,2015-10-05,1,,,,,クリモトカイケイジムショ,0
1758,7260002018198,登記記録の閉鎖等,0,2025-03-11,2025-03-06,有限会社小林,,有限会社,岡山県,倉敷市,真備町服部４４３番地,,33,202,7101302,,,2025-03-06,清算の結了等,,,2015-10-05,1,,,,,,0
1759,7260005007090,登記記録の閉鎖等,0,2025-03-11,2025-02-13,天理教御代繁分教会,,その他の設立登記法人,岡山県,津山市,新野東１３６４番地の１,,33,203,7081205,,,2025-02-13,合併による解散等,2140005001390,令和７年２月１２日神戸市中央区旗塚通七丁目１番１３号天理教御空分教会（2140005001390）に合併し解散,2015-10-05,1,,,,,テンリキョウミヨシゲブンキョウカイ,0
1763,7290001097067,登記記録の閉鎖等,0,2025-03-11,2025-02-13,株式会社ＡＣＮ九州,,株式会社,福岡県,福岡市中央区,天神１丁目１番１号,,40,133,8100001,,,2025-02-13,合併による解散等,4120001244902,令和７年２月１日大阪市北区梅田三丁目２番２号ＪＰタワー大阪１４階株式会社ＡＣＮ近畿（4120001244902）に合併し解散,2022-04-06,1,,,,,エーシーエヌキュウシュウ,0
1765,7290801012695,登記記録の閉鎖等,0,2025-03-11,2025-03-05,株式会社クリエイティブ・サン,,株式会社,福岡県,遠賀郡岡垣町,東高陽１丁目８番７号,,40,383,8114225,,,2025-03-05,清算の結了等,,,2015-10-05,1,,,,,クリエイティブサン,0
1771,7320001017913,登記記録の閉鎖等,0,2025-03-11,2025-03-10,株式会社大起,,株式会社,大分県,大分市,城崎町２丁目１番９号城崎ＭＫビル２０１号,,44,201,8700045,,,2025-03-10,清算の結了等,,,2020-09-15,1,,,,,ダイキ,0
1782,7340005006258,登記記録の閉鎖等,0,2025-03-11,2025-03-06,ＮＰＯ法人大きな森,,その他の設立登記法人,鹿児島県,鹿児島市,真砂町６９番１１号（グランローズマリー４Ｆ）,,46,201,8900066,,,2025-03-06,清算の結了等,,,2015-10-05,1,,,,,オオキナモリ,0
1814,7470003002270,登記記録の閉鎖等,0,2025-03-11,2025-03-05,合同会社ライズ,,合同会社,香川県,三豊市,高瀬町下勝間字加茂２７９６番地１,,37,208,7670011,,,2025-03-05,清算の結了等,,,2022-10-11,1,,,,,ライズ,0
1826,8010001127338,登記記録の閉鎖等,0,2025-03-11,2025-02-25,ユナイテッドウィングス株式会社,,株式会社,東京都,中央区,銀座１丁目６番１号,,13,102,1040061,,,2025-02-25,清算の結了等,,,2015-10-05,1,,,,,ユナイテッドウィングス,0
1830,8010001183397,登記記録の閉鎖等,0,2025-03-11,2025-02-25,株式会社ユーアンドアイ,,株式会社,東京都,中央区,佃１丁目１１番６－１６０９号,,13,102,1040051,,,2025-02-25,清算の結了等,,,2017-05-12,1,,,,,ユーアンドアイ,0
1835,8010003016613,登記記録の閉鎖等,0,2025-03-11,2025-02-25,エヌビービーソリタリースナイプ合同会社,,合同会社,東京都,中央区,日本橋浜町３丁目３番２号,,13,102,1030007,,,2025-02-25,清算の結了等,,,2015-10-05,1,,,,,エヌビービーソリタリースナイプ,0
1854,8010601033480,登記記録の閉鎖等,0,2025-03-11,2025-03-07,株式会社アートレクト,,株式会社,東京都,江東区,南砂６丁目１１番１７号,,13,108,1360076,,,2025-03-07,清算の結了等,,,2015-10-05,1,,,,,,0
1882,8011201019655,登記記録の閉鎖等,0,2025-03-11,2025-03-07,株式会社ディレクトール,,株式会社,神奈川県,大和市,深見３３４５番地,,14,213,2420011,,,2025-03-07,清算の結了等,,,2017-02-01,1,,,,,,0
1890,8012402016763,登記記録の閉鎖等,0,2025-03-11,2025-03-07,有限会社こもん,,有限会社,東京都,武蔵野市,西久保１丁目６番１６号,,13,203,1800013,,,2025-03-07,清算の結了等,,,2015-10-05,1,,,,,,0
1898,8020001104261,登記記録の閉鎖等,0,2025-03-11,2025-03-03,株式会社ＧｉｇａＴｅｒａ　Ｊａｐａｎ,,株式会社,神奈川県,横浜市中区,山吹町１番地３,,14,104,2310038,,,2025-03-03,合併による解散等,7020001036893,令和７年３月１日横浜市中区山吹町１番地３株式会社ケイエムダブリュジャパン（7020001036893）に合併し解散,2015-10-05,1,,,,,ギガテラジャパン,0
1910,8020003015903,登記記録の閉鎖等,0,2025-03-11,2025-02-28,合同会社Ｓｐｅｃｔｒｕｍａｇｉｃｓ,,合同会社,神奈川県,川崎市中原区,苅宿２番１１号,,14,133,2110022,,,2025-02-28,清算の結了等,,,2019-04-11,1,,,,,スペクトラマジックス,0
1932,8030002125553,削除,,2025-03-11,,,,,,,,,,,,,,,,,,,,,,,,,
1937,8040002069485,登記記録の閉鎖等,0,2025-03-11,2025-03-03,有限会社東照,,有限会社,千葉県,君津市,大和田３丁目２番地６,,12,225,2991146,,,2025-03-03,清算の結了等,,,2015-10-05,1,,,,,トウショウ,0
1962,8090001007879,登記記録の閉鎖等,0,2025-03-11,2025-03-05,株式会社大月園,,株式会社,山梨県,大月市,御太刀２丁目７番１０号,,19,206,4010012,,,2025-03-05,清算の結了等,,,2015-10-05,1,,,,,オオツキエン,0
1971,8120001072201,登記記録の閉鎖等,0,2025-03-11,2025-03-10,ローヤルオーシャン株式会社,,株式会社,大阪府,大阪市北区,天神橋１丁目１８番１１－９０２号,,27,127,5300041,,,2025-03-10,清算の結了等,,,2015-10-05,1,,,,,ローヤルオーシャン,0
1977,8120003018045,登記記録の閉鎖等,0,2025-03-11,2025-03-07,合同会社森ノ宮のかいご,,合同会社,大阪府,大阪市東成区,中本４丁目１番８号,,27,115,5370022,,,2025-03-07,清算の結了等,,,2020-09-08,1,,,,,モリノミヤノカイゴ,0
1991,8130002030504,登記記録の閉鎖等,0,2025-03-11,2025-03-07,有限会社八幡コンタクトレンズ,,有限会社,京都府,八幡市,八幡旦所８番地の１,,26,210,6148015,,,2025-03-07,清算の結了等,,,2015-10-05,1,,,,,ヤワタコンタクトレンズ,0
2003,8180001089173,登記記録の閉鎖等,0,2025-03-11,2025-03-07,株式会社ＬＯＨＡＳ,,株式会社,沖縄県,那覇市,おもろまち３丁目７番８号,,47,201,9000006,,,2025-03-07,清算の結了等,,,2015-10-05,1,,,,,ロハス,0
2013,8180002048780,登記記録の閉鎖等,0,2025-03-11,2025-03-04,有限会社ハイパー・ケィアンドエス,,有限会社,愛知県,名古屋市中村区,千原町８番１３号,,23,105,4530011,,,2025-03-04,清算の結了等,,,2015-10-05,1,,,,,ハイパーケィアンドエス,0
2032,8230002013903,登記記録の閉鎖等,0,2025-03-11,2025-03-05,有限会社射水建装,,有限会社,富山県,射水市,南太閤山４丁目４９番地,,16,211,9390364,,,2025-03-05,清算の結了等,,,2015-10-05,1,,,,,イミズケンソウ,0
2050,8300002001512,登記記録の閉鎖等,0,2025-03-11,2025-03-07,有限会社ミユキ興産,,有限会社,佐賀県,佐賀市,田代１丁目５番２号,,41,201,8400051,,,2025-03-07,清算の結了等,,,2015-10-05,1,,,,,ミユキコウサン,0
2051,8310001004523,登記記録の閉鎖等,0,2025-03-11,2025-03-06,株式会社ＨｉＴ,,株式会社,長崎県,長崎市,浜町８番３４号,,42,201,8500853,,,2025-03-06,清算の結了等,,,2015-10-05,1,,,,,ヒット,0
2055,8310001015603,登記記録の閉鎖等,0,2025-03-11,2025-03-04,株式会社紅栄社,,株式会社,長崎県,長崎市,三川町１２２１番地１３,,42,201,8528121,,,2025-03-04,合併による解散等,3310001015541,令和７年２月１日長崎市三川町１２２１番地１３株式会社水産未来研究所（3310001015541）に合併し解散,2018-06-13,1,,,,,コウエイシャ,0
2065,8350002002745,登記記録の閉鎖等,0,2025-03-11,2025-03-05,有限会社タイヤショップきのした,,有限会社,宮崎県,宮崎市,大字田吉９５４番地１２,,45,201,8800911,,,2025-03-05,清算の結了等,,,2015-10-05,1,,,,,タイヤショップキノシタ,0
2078,8430001076947,登記記録の閉鎖等,0,2025-03-11,2025-03-10,株式会社トランスワン,,株式会社,北海道,札幌市中央区,南一条西５丁目１６番地プレジデント松井ビル１００　７０１Ａ,,01,101,0600061,,,2025-03-10,清算の結了等,,,2018-07-05,1,,,,,トランスワン,0
2082,8430002014526,登記記録の閉鎖等,0,2025-03-11,2025-03-03,有限会社中原商店,,有限会社,北海道,札幌市中央区,大通西２１丁目３番１－８０３号,,01,101,0640820,,,2025-03-03,清算の結了等,,,2015-10-05,1,,,,,ナカハラショウテン,0
2093,8490001005529,登記記録の閉鎖等,0,2025-03-11,2025-03-10,池川林材株式会社,,株式会社,高知県,吾川郡仁淀川町,土居甲７６７番地１,,39,387,7811606,,,2025-03-10,清算の結了等,,,2015-10-05,1,,,,,イケガワリンザイ,0
2118,9010002047880,登記記録の閉鎖等,0,2025-03-11,2025-01-23,有限会社ラ・ホーマ,,有限会社,東京都,中央区,日本橋本町２丁目４番１２号,,13,102,1030023,,,2025-01-23,合併による解散等,3010001096835,令和６年９月３０日東京都中央区日本橋本町二丁目４番１２号ホスピタリティマネジメント株式会社（3010001096835）に合併し解散,2015-10-05,1,,,,,ラホーマ,0
2131,9010401029174,登記記録の閉鎖等,0,2025-03-11,2025-02-12,村山貿易株式会社,,株式会社,東京都,渋谷区,松濤２丁目１１番１号,,13,113,1500046,,,2025-02-12,清算の結了等,,,2015-10-05,1,,,,,ムラヤマボウエキ,0
2152,9011205002359,登記記録の閉鎖等,0,2025-03-11,2025-03-03,一般社団法人あきんど部,,その他の設立登記法人,東京都,板橋区,中板橋２５－１２,,13,119,1730016,,,2025-03-03,清算の結了等,,,2019-12-12,1,,,,,アキンドブ,0
2172,9013103001038,登記記録の閉鎖等,0,2025-03-11,2025-03-06,合同会社イズミオート,,合同会社,東京都,青梅市,新町５丁目５１番２０号,,13,205,1980024,,,2025-03-06,清算の結了等,,,2021-05-17,1,,,,,イズミオート,0
2174,9013301045332,商号の登記の抹消,0,2025-03-11,2025-01-17,株式会社ＲＥｓｔａ,,株式会社,東京都,千代田区,霞が関３丁目３番２号,,13,101,1000013,,,,,,,2020-03-10,0,,,,,リスタ,0
2189,9020002024598,登記記録の閉鎖等,0,2025-03-11,2025-03-03,有限会社ハラフローリスト,,有限会社,神奈川県,横浜市戸塚区,平戸１丁目２番１－１０６号,,14,110,2440802,,,2025-03-03,清算の結了等,,,2015-10-05,1,,,,,ハラフローリスト,0
2213,9050001014614,登記記録の閉鎖等,0,2025-03-11,2025-02-19,株式会社関根建設,,株式会社,茨城県,猿島郡境町,４５９番地,,08,546,3060433,,,2025-02-19,清算の結了等,,,2024-09-12,1,,,,,セキネケンセツ,0
2214,9050001021412,登記記録の閉鎖等,0,2025-03-11,2025-02-25,ヨシキリ株式会社,,株式会社,東京都,千代田区,丸の内３丁目４番１号新国際ビル４階,,13,101,1000005,,,2025-02-25,清算の結了等,,,2015-10-05,1,,,,,ヨシキリ,0
2221,9060001009150,登記記録の閉鎖等,0,2025-03-11,2025-02-18,栃木産業株式会社,,株式会社,栃木県,宇都宮市,明保野町６番３５号,,09,201,3200845,,,2025-02-18,清算の結了等,,,2024-06-13,1,,,,,トチギサンギョウ,0
2224,9070001007343,登記記録の閉鎖等,0,2025-03-11,2025-03-07,須永建設株式会社,,株式会社,群馬県,高崎市,倉賀野町５２番地,,10,202,3701201,,,2025-03-07,清算の結了等,,,2015-10-05,1,,,,,スナガケンセツ,0
2226,9070001026649,登記記録の閉鎖等,0,2025-03-11,2025-03-07,株式会社カグオカ,,株式会社,群馬県,渋川市,渋川３７８７番地４,,10,208,3770008,,,2025-03-07,清算の結了等,,,2015-10-05,1,,,,,カグオカ,0
2232,9080101017761,登記記録の閉鎖等,0,2025-03-11,2025-03-04,株式会社焼肉松玄,,株式会社,静岡県,三島市,萩３５９番地の１太陽ビル１階,,22,206,4110045,,,2025-03-04,清算の結了等,,,2015-10-05,1,,,,,ヤキニクマツゲン,0
2235,9090001014180,登記記録の閉鎖等,0,2025-03-11,2025-03-05,株式会社Ｓ＆Ｎ,,株式会社,山梨県,笛吹市,春日居町鎮目２０－１シェソワ甲斐の杜４０８,,19,211,4060015,,,2025-03-05,清算の結了等,,,2015-10-05,1,,,,,エスアンドエヌ,0
2242,9110005013028,登記記録の閉鎖等,0,2025-03-11,2025-03-05,特定非営利活動法人アルカディア文化芸術振興協会,,その他の設立登記法人,新潟県,見附市,新町２丁目６番３８号,,15,211,9540057,,,2025-03-05,清算の結了等,,,2015-10-05,1,,,,,アルカディアブンカゲイジュツシンコウキョウカイ,0
2246,9120001128968,登記記録の閉鎖等,0,2025-03-11,2025-03-07,株式会社ジャスタック,,株式会社,大阪府,大阪市中央区,船越町１丁目６番６号,,27,128,5400036,,,2025-03-07,清算の結了等,,,2015-10-05,1,,,,,ジャスタック,0
2270,9120901035371,登記記録の閉鎖等,0,2025-03-11,2025-03-03,株式会社和生貿易,,株式会社,大阪府,和泉市,和気町１丁目２５２番地２,,27,219,5940073,,,2025-03-03,清算の結了等,,,2015-10-05,1,,,,,ワショウボウエキ,0
2282,9140001083872,登記記録の閉鎖等,0,2025-03-11,2025-03-06,株式会社アサヒトレーデイング,,株式会社,滋賀県,大津市,中央１丁目５番２３号,,25,201,5200043,,,2025-03-06,清算の結了等,,,2015-10-05,1,,,,,アサヒトレーディング,0
2288,9140002025428,登記記録の閉鎖等,0,2025-03-11,2025-03-05,有限会社大和産業,,有限会社,兵庫県,神戸市西区,春日台８丁目８番地の８,,28,111,6512276,,,2025-03-05,清算の結了等,,,2015-10-05,1,,,,,ダイワサンギョウ,0
2291,9140005011128,登記記録の閉鎖等,0,2025-03-11,2025-02-17,天理教玉廣分教会,00042262,その他の設立登記法人,兵庫県,尼崎市,東塚口町１丁目１２番１４号,,28,202,6610011,,,2025-02-17,合併による解散等,6120005000300,令和７年２月１４日大阪市天王寺区真田山町３番１５号天理教玉江分教会（6120005000300）に合併し解散,2015-10-05,1,,,,,テンリキョウタマヒロブンキョウカイ,0
2296,9160002012713,登記記録の閉鎖等,0,2025-03-11,2025-03-06,有限会社滋賀中央パック,,有限会社,滋賀県,栗東市,出庭字中の町５７６番地,,25,208,5203041,,,2025-03-06,合併による解散等,7200001020805,令和７年３月１日岐阜県可児市大森字奥洞９８９番地１中部興産株式会社（7200001020805）に合併し解散,2015-10-05,1,,,,,,0
2300,9170001006921,登記記録の閉鎖等,0,2025-03-11,2025-03-10,株式会社ＢＩＦＬＯＮＳ,,株式会社,和歌山県,和歌山市,関戸３丁目７番２号,,30,201,6410035,,,2025-03-10,清算の結了等,,,2015-10-05,1,,,,,ビフロンス,0
2311,9180002094056,削除,,2025-03-11,,,,,,,,,,,,,,,,,,,,,,,,,
2312,9180003010846,登記記録の閉鎖等,0,2025-03-11,2025-03-03,合資会社丸加製型所,,合資会社,愛知県,瀬戸市,東拝戸町６２番地,,23,204,4890027,,,2025-03-03,清算の結了等,,,2015-10-05,1,,,,,マルカセイケイジョ,0
2314,9180005000795,登記記録の閉鎖等,0,2025-03-11,2025-02-12,天理教大六分教会,,その他の設立登記法人,愛知県,名古屋市千種区,今池南２番６号,,23,101,4640851,,,2025-02-12,合併による解散等,4080405005426,令和７年１月３１日静岡県磐田市富士見町一丁目４番２天理教中泉分教会（4080405005426）に合併し解散,2015-10-05,1,,,,,テンリキョウダイロップンキョウカイ,0
2320,9200003005959,登記記録の閉鎖等,0,2025-03-11,2025-03-04,合同会社家和,,合同会社,岐阜県,大垣市,綾野６丁目１７９番地１,,21,202,5030984,,,2025-03-04,清算の結了等,,,2023-05-18,1,,,,,カワ,0
2339,9290001061062,登記記録の閉鎖等,0,2025-03-11,2025-03-07,株式会社未来サポート,,株式会社,佐賀県,鹿島市,大字高津原４２８２番地２,,41,207,8491311,,,2025-03-07,清算の結了等,,,2015-10-05,1,,,,,ミライサポート,0
2370,9380001022617,登記記録の閉鎖等,0,2025-03-11,2025-03-03,株式会社食菜工房,,株式会社,福島県,郡山市,並木１丁目１２番１３,,07,203,9638026,,,2025-03-03,合併による解散等,9380001018012,令和７年３月１日福島県郡山市並木一丁目１２番地の１３株式会社マルズ（9380001018012）に合併し解散,2015-10-05,1,,,,,ショクサイコウボウ,0
2374,9390005000799,登記記録の閉鎖等,0,2025-03-11,2025-03-04,山形家具協同組合,,その他の設立登記法人,山形県,山形市,藤沢川６７－１,,06,201,9902377,,,2025-03-04,清算の結了等,,,2015-10-05,1,,,,,ヤマガタカグ,0
2375,9400001008695,登記記録の閉鎖等,0,2025-03-11,2025-02-25,株式会社丸華,,株式会社,岩手県,紫波郡矢巾町,大字高田第１３地割２３５番地１２,,03,322,0283601,,,2025-02-25,清算の結了等,,,2015-10-05,1,,,,,マルハナ,0
2392,9470001001223,登記記録の閉鎖等,0,2025-03-11,2025-03-07,株式会社キヌガワ高松,,株式会社,香川県,高松市,飯田町５３８番地５,,37,201,7618033,,,2025-03-07,合併による解散等,6140001012875,令和７年３月１日神戸市兵庫区塚本通六丁目２番１６号株式会社キヌガワ神戸（6140001012875）に合併し解散,2015-10-05,1,,,,,キヌガワタカマツ,0
2399,9500002006127,登記記録の閉鎖等,0,2025-03-11,2025-03-07,有限会社松山義塾,,有限会社,愛媛県,松山市,井門町５３番地,,38,201,7911114,,,2025-03-07,清算の結了等,,,2015-10-05,1,,,,,マツヤマギジュク,0
