sequenceNumber,corporateNumber,process,correct,updateDate,changeDate,name,nameImageId,kind,prefectureName,cityName,streetNumber,addressImageId,prefectureCode,cityCode,postCode,addressOutside,addressOutsideImageId,closeDate,closeCause,successorCorporateNumber,changeCause,assignmentDate,latest,enName,enPrefectureName,enCityName,enAddressOutside,furigana,hihyoji
8,1010001233266,新規,0,2023-03-01,2023-03-01,株式会社Ｚｅｒｏ　Ｇａｍｉｎｇ,,株式会社,東京都,千代田区,永田町２丁目１１番１号山王パークタワー３階,,13,101,1000014,,,,,,,2023-03-01,1,,,,,ゼロゲーミング,0
9,1010001233316,新規,0,2023-03-01,2023-03-01,株式会社ＥＲＴＯ,,株式会社,東京都,文京区,千石４丁目９番１１号,,13,105,1120011,,,,,,,2023-03-01,1,,,,,エラト,0
10,1010001233340,新規,0,2023-03-01,2023-03-01,ワダツミキャピタルＯｎｅ株式会社,,株式会社,東京都,千代田区,大手町２丁目６番４号常盤橋タワー２５階,,13,101,1000004,,,,,,,2023-03-01,1,,,,,ワダツミキャピタルワン,0
13,1010005036285,新規,0,2023-03-01,2023-03-01,社会保険労務士法人日本橋兜町事務所,,その他の設立登記法人,東京都,中央区,日本橋浜町２丁目２５番１－２０２号,,13,102,1030007,,,,,,,2023-03-01,1,,,,,ニホンバシカブトチョウジムショ,0
14,1010005036293,新規,0,2023-03-01,2023-03-01,社会保険労務士法人クラウドパートナーズ,,その他の設立登記法人,東京都,千代田区,丸の内１丁目６番５号丸の内北口ビル９階,,13,101,1000005,,,,,,,2023-03-01,1,,,,,クラウドパートナーズ,0
15,1010005036302,新規,0,2023-03-01,2023-03-01,名古屋ロジスティクス一般社団法人,,その他の設立登記法人,東京都,中央区,日本橋１丁目４番１号日本橋一丁目ビルディング,,13,102,1030027,,,,,,,2023-03-01,1,,,,,ナゴヤロジスティクス,0
17,1010105002204,新規,0,2023-03-01,2023-03-01,特定非営利活動法人里親ひろばほいっぷ,,その他の設立登記法人,東京都,八王子市,子安町１丁目９番１７号,,13,201,1920904,,,,,,,2023-03-01,1,,,,,サトオヤヒロバホイップ,0
31,1010503006905,新規,0,2023-03-01,2023-03-01,合同会社Ｍｏｏｎ,,合同会社,東京都,台東区,上野６丁目８番１９号,,13,106,1100005,,,,,,,2023-03-01,1,,,,,ムーン,0
39,1011001152753,新規,0,2023-03-01,2023-03-01,株式会社ＵＰＲＯ,,株式会社,東京都,渋谷区,千駄ヶ谷１丁目９－１１,,13,113,1510051,,,,,,,2023-03-01,1,,,,,ウプロ,0
48,1011301028496,新規,0,2023-03-01,2023-03-01,株式会社ｓｔｕｄｉｏ　ｉｔｏ,,株式会社,東京都,杉並区,上荻２丁目３７番１０号ティサージュ荻窪１１０３,,13,115,1670043,,,,,,,2023-03-01,1,,,,,スタジオイトウ,0
49,1011303004669,新規,0,2023-03-01,2023-03-01,合同会社Ｏｆｆｉｃｅ‐Ｔ,,合同会社,東京都,杉並区,上井草３丁目２４番地２９号,,13,115,1670023,,,,,,,2023-03-01,1,,,,,オフィスーティー,0
55,1012403005846,新規,0,2023-03-01,2023-03-01,合同会社メディグリッシュ,,合同会社,東京都,武蔵野市,吉祥寺本町３丁目４番,,13,203,1800004,,,,,,,2023-03-01,1,,,,,メディグリッシュ,0
68,1020001150428,新規,0,2023-03-01,2023-03-01,Ｔｈｅ　Ｔｕｒｎ株式会社,,株式会社,神奈川県,横浜市旭区,今宿２丁目５７－１２,,14,112,2410817,,,,,,,2023-03-01,1,,,,,ザターン,0
69,1020001150452,新規,0,2023-03-01,2023-03-01,株式会社Ｕｎｌｉｍｉｔｅｄ,,株式会社,神奈川県,川崎市中原区,新城３丁目８－１オリオンビル３階,,14,133,2110044,,,,,,,2023-03-01,1,,,,,アンリミテッド,0
72,1020003023409,新規,0,2023-03-01,2023-03-01,合同会社Ｎｅｘｔ　Ｄｏｏｒ,,合同会社,神奈川県,横浜市中区,長者町２丁目６－１０レア横濱関内弐番館７０３,,14,104,2310033,,,,,,,2023-03-01,1,,,,,ネクストドア,0
76,1030001152596,新規,0,2023-03-01,2023-03-01,株式会社リベアティ,,株式会社,埼玉県,川口市,弥平４丁目１番１７号５０１号室,,11,203,3320002,,,,,,,2023-03-01,1,,,,,リベアティ,0
77,1030001152605,新規,0,2023-03-01,2023-03-01,株式会社ＨＵＤＤＬＥ,,株式会社,埼玉県,さいたま市浦和区,本太５丁目３３番３号,,11,107,3300052,,,,,,,2023-03-01,1,,,,,ハドル,0
80,1030003021270,新規,0,2023-03-01,2023-03-01,アドオフィス合同会社,,合同会社,埼玉県,所沢市,南住吉一丁目１４番,,11,208,3591125,,,,,,,2023-03-01,1,,,,,アドオフィス,0
84,1040001127234,新規,0,2023-03-01,2023-03-01,株式会社ＡｎｄＭｅ,,株式会社,千葉県,流山市,おおたかの森南２丁目３９番地の２８,,12,220,2700139,,,,,,,2023-03-01,1,,,,,アンドミー,0
85,1040001127259,新規,0,2023-03-01,2023-03-01,Ａａａｎｄ株式会社,,株式会社,千葉県,千葉市中央区,中央３丁目４番８号コーノスビル５階,,12,101,2600013,,,,,,,2023-03-01,1,,,,,エーアンド,0
86,1040001127267,新規,0,2023-03-01,2023-03-01,株式会社サーマル電工,,株式会社,千葉県,船橋市,市場４丁目１番１棟７０６号,,12,204,2730001,,,,,,,2023-03-01,1,,,,,サーマルデンコウ,0
90,1050001052456,新規,0,2023-03-01,2023-03-01,国土総運株式会社,,株式会社,茨城県,小美玉市,中台８３７番地２０,,08,236,3190116,,,,,,,2023-03-01,1,,,,,コクドソウウン,0
94,1080001025483,新規,0,2023-03-01,2023-03-01,ＮＳＣ株式会社,,株式会社,静岡県,静岡市駿河区,小黒３丁目１番１号,,22,102,4228072,,,,,,,2023-03-01,1,,,,,エヌエスシー,0
106,1110003004993,新規,0,2023-03-01,2023-03-01,サトラボ合同会社,,合同会社,新潟県,長岡市,西津町２１９５－６ヴィレッタ希望が丘Ｄ,,15,202,9402126,,,,,,,2023-03-01,1,,,,,サトラボ,0
114,1120001252726,新規,0,2023-03-01,2023-03-01,君潤株式会社,,株式会社,大阪府,大阪市東成区,玉津１丁目１番２２号（１階）,,27,115,5370023,,,,,,,2023-03-01,1,,,,,クンジュン,0
115,1120001252759,新規,0,2023-03-01,2023-03-01,株式会社Ｃｏｈ,,株式会社,大阪府,大阪市城東区,東中浜６丁目６番１９号,,27,118,5360023,,,,,,,2023-03-01,1,,,,,コウ,0
116,1120001252783,新規,0,2023-03-01,2023-03-01,株式会社ＳＵＭ,,株式会社,大阪府,大阪市天王寺区,細工谷１丁目３番２５－１４０１号,,27,109,5430032,,,,,,,2023-03-01,1,,,,,エスユーエム,0
117,1120001252800,新規,0,2023-03-01,2023-03-01,トモニキッチン株式会社,,株式会社,大阪府,大阪市中央区,南本町１丁目４番１０号ストークビル７階,,27,128,5410054,,,,,,,2023-03-01,1,,,,,トモニキッチン,0
118,1120001252809,新規,0,2023-03-01,2023-03-01,株式会社中尾万屋商会,,株式会社,大阪府,大阪市中央区,難波２丁目５番１号,,27,128,5420076,,,,,,,2023-03-01,1,,,,,ナカオヨロズヤショウカイ,0
119,1120001252841,新規,0,2023-03-01,2023-03-01,株式会社ｍａｋｅ,,株式会社,大阪府,大阪市東成区,中本３丁目１０番６号,,27,115,5370022,,,,,,,2023-03-01,1,,,,,メイク,0
125,1122001036729,新規,0,2023-03-01,2023-03-01,株式会社興盛,,株式会社,大阪府,東大阪市,稲田新町１丁目５番１８－３０５号,,27,227,5770004,,,,,,,2023-03-01,1,,,,,キョウセイ,0
130,1140001129212,新規,0,2023-03-01,2023-03-01,株式会社ＭＡＲＵ,,株式会社,兵庫県,西宮市,羽衣町２番１１－２０１号,,28,204,6620051,,,,,,,2023-03-01,1,,,,,マル,0
131,1140001129245,新規,0,2023-03-01,2023-03-01,株式会社大貴工業,,株式会社,兵庫県,神戸市西区,神出町池田２５３番地,,28,111,6512333,,,,,,,2023-03-01,1,,,,,ダイキコウギョウ,0
132,1140001129253,新規,0,2023-03-01,2023-03-01,株式会社スターリット,,株式会社,兵庫県,神戸市北区,有野町唐櫃１番地の３３,,28,109,6511331,,,,,,,2023-03-01,1,,,,,スターリット,0
138,1140003018776,新規,0,2023-03-01,2023-03-01,合同会社日英語学院,,合同会社,兵庫県,神戸市長田区,山下町１丁目１番１１号,,28,106,6530852,,,,,,,2023-03-01,1,,,,,ニチエイゴガクイン,0
154,1180001155130,新規,0,2023-03-01,2023-03-01,テイーケイ物流株式会社,,株式会社,愛知県,犬山市,大字羽黒字下大日２０番地,,23,215,4840894,,,,,,,2023-03-01,1,,,,,テイーケイブツリュウ,0
157,1180003024878,新規,0,2023-03-01,2023-03-01,Ｐｉｘｅｌ　Ｎｏｔｅｓ合同会社,,合同会社,愛知県,名古屋市南区,呼続町字西桜１５番地の４,,23,112,4570000,,,,,,,2023-03-01,1,,,,,ピクセルノーツ,0
160,1180303005628,新規,0,2023-03-01,2023-03-01,ＮＥＣＥｓｔｙｌｅ合同会社,,合同会社,愛知県,刈谷市,一里山町北本山８７番地３,,23,210,4480002,,,,,,,2023-03-01,1,,,,,ネセスタイル,0
165,1200003005867,新規,0,2023-03-01,2023-03-01,合同会社ファンプレイス,,合同会社,岐阜県,土岐市,泉町河合７６９番地の１,,21,212,5095101,,,,,,,2023-03-01,1,,,,,ファンプレイス,0
179,1290001100645,新規,0,2023-03-01,2023-03-01,ウィステリア株式会社,,株式会社,福岡県,飯塚市,花瀬２４番地,,40,205,8200045,,,,,,,2023-03-01,1,,,,,ウィステリア,0
180,1290001100678,新規,0,2023-03-01,2023-03-01,株式会社夢空,,株式会社,福岡県,古賀市,青柳１０５８番地２,,40,223,8113134,,,,,,,2023-03-01,1,,,,,ムゾラ,0
181,1290001100686,新規,0,2023-03-01,2023-03-01,株式会社ＡＮＴＬＵＣＫ,,株式会社,福岡県,福岡市中央区,天神４丁目６－２８天神ファーストビル７階,,40,133,8100001,,,,,,,2023-03-01,1,,,,,アントラック,0
188,1320001019592,新規,0,2023-03-01,2023-03-01,株式会社ＡＵＲＯＲＡ　ＪＡＰＡＮ,,株式会社,大分県,別府市,田の湯町３番７号４階,,44,202,8740909,,,,,,,2023-03-01,1,,,,,オーロラジャパン,0
191,1330001030631,新規,0,2023-03-01,2023-03-01,株式会社ＴＭトータルエージェンシー,,株式会社,熊本県,熊本市東区,花立３丁目２０番９号,,43,102,8612118,,,,,,,2023-03-01,1,,,,,ティエムトータルエージェンシー,0
199,1340001025399,新規,0,2023-03-01,2023-03-01,株式会社勇騎弥クレーン,,株式会社,鹿児島県,鹿児島市,上福元町５９１１番地２,,46,201,8910116,,,,,,,2023-03-01,1,,,,,ユキヤクレーン,0
202,1360001031602,新規,0,2023-03-01,2023-03-01,シーセイ株式会社,,株式会社,沖縄県,那覇市,字小禄８８４番地１２,,47,201,9010152,,,,,,,2023-03-01,1,,,,,シーセイ,0
207,1370001049643,新規,0,2023-03-01,2023-03-01,株式会社金盛商事,,株式会社,宮城県,仙台市泉区,住吉台東３丁目１９番地の６,,04,105,9813222,,,,,,,2023-03-01,1,,,,,カナモリショウジ,0
237,1430003014770,新規,0,2023-03-01,2023-03-01,合同会社キングトータルアシスト,,合同会社,北海道,札幌市北区,新琴似五条７丁目１番２２号,,01,102,0010905,,,,,,,2023-03-01,1,,,,,キングトータルアシスト,0
240,1460301005130,新規,0,2023-03-01,2023-03-01,株式会社ケーシーユナイテッド,,株式会社,北海道,北見市,卸町１丁目５番地１,,01,208,0900056,,,,,,,2023-03-01,1,,,,,ケーシーユナイテッド,0
242,1500001024780,新規,0,2023-03-01,2023-03-01,株式会社敬翔,,株式会社,愛媛県,松山市,山越１丁目１番４号,,38,201,7918013,,,,,,,2023-03-01,1,,,,,ケイショウ,0
244,1700150114552,新規,0,2023-03-01,2023-03-01,Ｓｈａｎｇｈａｉ　Ｇｕｌａｉ　Ｉｎｔｅｒｎａｔｉｏｎａｌ　Ｔｒａｄｅ　ＣＯ　Ｌｔｄ,,外国会社等,,,,,,,,中国上海市奉賢区奉城鎮二橋村７４８号３幢１９２室,00129564,,,,,2023-03-01,1,,,,,シヤンハイコライコクサイボウエキユウゲンコウシ,0
253,2010001233315,新規,0,2023-03-01,2023-03-01,おいちょ株式会社,,株式会社,東京都,中央区,日本橋人形町２丁目２５－５,,13,102,1030013,,,,,,,2023-03-01,1,,,,,オイチョ,0
263,2010003039909,新規,0,2023-03-01,2023-03-01,合同会社アイランドシップ５号,,合同会社,東京都,中央区,八丁堀４丁目２番１０号ＡＯＪ税理士法人内,,13,102,1040032,,,,,,,2023-03-01,1,,,,,アイランドシップゴゴウ,0
264,2010003039917,新規,0,2023-03-01,2023-03-01,合同会社ＫＬＦ３,,合同会社,東京都,千代田区,内幸町２丁目１番６号,,13,101,1000011,,,,,,,2023-03-01,1,,,,,ケイエルエフスリー,0
267,2010005036292,新規,0,2023-03-01,2023-03-01,木曽岬一般社団法人,,その他の設立登記法人,東京都,中央区,日本橋１丁目４番１号日本橋一丁目ビルディング,,13,102,1030027,,,,,,,2023-03-01,1,,,,,キソサキ,0
268,2010005036301,新規,0,2023-03-01,2023-03-01,チューリップ一般社団法人,,その他の設立登記法人,東京都,千代田区,丸の内３丁目１番１号,,13,101,1000005,,,,,,,2023-03-01,1,,,,,チューリップ,0
275,2010401172716,新規,0,2023-03-01,2023-03-01,ＢＢＢ株式会社株式会社,,株式会社,東京都,港区,南麻布５丁目４番２号オパス有栖川レジデンス４１１,,13,103,1060047,,,,,,,2023-03-01,1,,,,,トリプルビー,0
276,2010401172757,新規,0,2023-03-01,2023-03-01,株式会社Ｍｉｒｏ,,株式会社,東京都,港区,赤坂６丁目６番２５－６０４号,,13,103,1070052,,,,,,,2023-03-01,1,,,,,ミロ,0
284,2010901052599,新規,0,2023-03-01,2023-03-01,株式会社ＤＯＸＸ,,株式会社,東京都,世田谷区,桜上水３丁目５－１６,,13,112,1560045,,,,,,,2023-03-01,1,,,,,ドックス,0
285,2010901052616,新規,0,2023-03-01,2023-03-01,ＥＸｃｅｌｓｉｏｒ　Ｅｎｇｉｎｅｅｒｉｎｇ株式会社,,株式会社,東京都,世田谷区,砧３丁目２５－１８,,13,112,1570073,,,,,,,2023-03-01,1,,,,,エクセルシャーエンジニアリング,0
286,2010901052632,新規,0,2023-03-01,2023-03-01,ＬＤＣ株式会社,,株式会社,東京都,世田谷区,南烏山６丁目１６－１１スカイコート千歳烏山ＩＩ２階２０２号室,00129567,13,112,1570062,,,,,,,2023-03-01,1,,,,,エルディーシー,0
291,2011001152620,新規,0,2023-03-01,2023-03-01,株式会社ＦＩＮＡ．,,株式会社,東京都,渋谷区,東３丁目２１番７号,,13,113,1500011,,,,,,,2023-03-01,1,,,,,フィーナ,0
292,2011001152769,新規,0,2023-03-01,2023-03-01,株式会社ＧＬＯＷ,,株式会社,東京都,渋谷区,神宮前６丁目２３番４号桑野ビル２階,,13,113,1500001,,,,,,,2023-03-01,1,,,,,グロー,0
293,2011001152819,新規,0,2023-03-01,2023-03-01,株式会社サクセスボンド,,株式会社,東京都,渋谷区,神宮前４丁目１６番１２号,,13,113,1500001,,,,,,,2023-03-01,1,,,,,サクセスボンド,0
294,2011001152827,新規,0,2023-03-01,2023-03-01,株式会社ＫＶＥＬＬ,,株式会社,東京都,渋谷区,渋谷２丁目１９番１５－６０９号宮益坂ビルディング,,13,113,1500002,,,,,,,2023-03-01,1,,,,,クヴェル,0
304,2011203004017,新規,0,2023-03-01,2023-03-01,合同会社ｍａｒｕ太,,合同会社,東京都,中野区,中野３丁目７番１３号１０１,,13,114,1640001,,,,,,,2023-03-01,1,,,,,マルタ,0
306,2011303004684,新規,0,2023-03-01,2023-03-01,合同会社ａｇａｉｎ,,合同会社,東京都,杉並区,下高井戸１丁目１７番２１－１０８号ジェノヴィア桜上水スカイガーデン,,13,115,1680073,,,,,,,2023-03-01,1,,,,,アゲイン,0
338,2020003023399,新規,0,2023-03-01,2023-03-01,合同会社フジタカ,,合同会社,神奈川県,横浜市旭区,都岡町７６番地８ロジュマンＩＩ１０１,00129571,14,112,2410805,,,,,,,2023-03-01,1,,,,,フジタカ,0
340,2020005015857,新規,0,2023-03-01,2023-03-01,一般社団法人歯縁会,,その他の設立登記法人,神奈川県,川崎市高津区,北見方２丁目１６番１号高津ゆうあいメディカルモール３Ｆ,,14,134,2130005,,,,,,,2023-03-01,1,,,,,シエンカイ,0
343,2030001152604,新規,0,2023-03-01,2023-03-01,株式会社エース,,株式会社,埼玉県,加須市,東栄１丁目１４番４０号,,11,210,3470064,,,,,,,2023-03-01,1,,,,,エース,0
354,2040003022052,新規,0,2023-03-01,2023-03-01,ＫＩＮＧ合同会社,,合同会社,千葉県,松戸市,新松戸４丁目６番地直井第三ビル２Ｆ,,12,207,2700034,,,,,,,2023-03-01,1,,,,,キン,0
355,2040003022060,新規,0,2023-03-01,2023-03-01,合同会社ひろ勝,,合同会社,千葉県,千葉市美浜区,高浜２丁目２番１号,,12,106,2610003,,,,,,,2023-03-01,1,,,,,ヒロカツ,0
356,2040003022069,新規,0,2023-03-01,2023-03-01,合同会社ｕｎｈａｓｈ,,合同会社,千葉県,山武郡九十九里町,片貝１６１９,,12,403,2830104,,,,,,,2023-03-01,1,,,,,アンハッシュ,0
360,2050001052455,新規,0,2023-03-01,2023-03-01,株式会社ＪＪ,,株式会社,茨城県,常総市,上蛇町１４９６番地１号,,08,211,3002502,,,,,,,2023-03-01,1,,,,,ジェイジェイ,0
365,2050003007275,新規,0,2023-03-01,2023-03-01,貴喜商会合同会社,,合同会社,茨城県,東茨城郡茨城町,大字鳥羽田１２１７番地,,08,302,3113142,,,,,,,2023-03-01,1,,,,,タケシショウカイ,0
366,2050005013214,新規,0,2023-03-01,2023-03-01,特定非営利活動法人オーファンデバイス研究開発,,その他の設立登記法人,茨城県,日立市,中成沢町４丁目１２番１号,,08,202,3160033,,,,,,,2023-03-01,1,,,,,オーファンデバイスケンキュウカイハツ,0
368,2060003004445,新規,0,2023-03-01,2023-03-01,合同会社ｌｏｃｕｓ,,合同会社,栃木県,宇都宮市,曲師町５番１号,,09,201,3200803,,,,,,,2023-03-01,1,,,,,ルークス,0
388,2120001252642,新規,0,2023-03-01,2023-03-01,株式会社印,,株式会社,大阪府,大阪市中央区,天満橋京町１番２２号日宝天満橋ビル３階４号,,27,128,5400032,,,,,,,2023-03-01,1,,,,,シルシ,0
389,2120001252766,新規,0,2023-03-01,2023-03-01,株式会社ＮＡＫＡＭＡグループ,,株式会社,大阪府,大阪市西区,江戸堀２丁目１番１号江戸堀センタービル１５階,,27,106,5500002,,,,,,,2023-03-01,1,,,,,ナカマグループ,0
390,2120001252774,新規,0,2023-03-01,2023-03-01,株式会社ＣＭＣ,,株式会社,大阪府,大阪市中央区,南船場１丁目４番１４－２０１号,,27,128,5420081,,,,,,,2023-03-01,1,,,,,シーエムシー,0
391,2120001252816,新規,0,2023-03-01,2023-03-01,株式会社教育テック総研,,株式会社,大阪府,大阪市阿倍野区,丸山通１丁目３番６１号,,27,119,5450042,,,,,,,2023-03-01,1,,,,,キョウイクテックソウケン,0
392,2120001252840,新規,0,2023-03-01,2023-03-01,株式会社カタスト,,株式会社,大阪府,大阪市中央区,南本町２丁目６番５号ファースト船場３０１号室,,27,128,5410054,,,,,,,2023-03-01,1,,,,,カタスト,0
399,2120103005097,新規,0,2023-03-01,2023-03-01,合同会社Ｌｅａｖｅｓ,,合同会社,大阪府,羽曳野市,羽曳が丘９丁目１番７号,,27,222,5830864,,,,,,,2023-03-01,1,,,,,リーブス,0
406,2130001073757,新規,0,2023-03-01,2023-03-01,株式会社インテリアオフィス匠,,株式会社,京都府,京都市中京区,聚楽廻東町２７番地１６,,26,104,6048404,,,,,,,2023-03-01,1,,,,,インテリアオフィスタクミ,0
410,2140003018759,新規,0,2023-03-01,2023-03-01,合同会社シロクマ相談室,,合同会社,兵庫県,宝塚市,花屋敷つつじガ丘９番２５号,,28,214,6650803,,,,,,,2023-03-01,1,,,,,シロクマソウダンシツ,0
418,2170005006998,新規,0,2023-03-01,2023-03-01,一般社団法人ｔｏｄｄｌｅわかやま,,その他の設立登記法人,和歌山県,和歌山市,新中島１３３番地６,,30,201,6410002,,,,,,,2023-03-01,1,,,,,タドルワカヤマ,0
422,2180001155121,新規,0,2023-03-01,2023-03-01,株式会社エムズ不動産,,株式会社,愛知県,名古屋市千種区,新西２丁目１４番２７号,,23,101,4640003,,,,,,,2023-03-01,1,,,,,エムズフドウサン,0
425,2180003024885,新規,0,2023-03-01,2023-03-01,合同会社アミューズメント新進サービス,,合同会社,愛知県,江南市,前飛保町栄４５プロスパー４５,,23,217,4838341,,,,,,,2023-03-01,1,,,,,アミューズメントシンシンサービス,0
426,2180301037135,新規,0,2023-03-01,2023-03-01,株式会社タイヤガレージＡ＆Ｎ,,株式会社,愛知県,豊橋市,小浜町７番地１,,23,201,4418067,,,,,,,2023-03-01,1,,,,,タイヤガレージエーアンドエヌ,0
428,2190001030190,新規,0,2023-03-01,2023-03-01,株式会社ＯＫ　ＶＡＬＵＥ,,株式会社,三重県,津市,久居新町６５９－３,,24,201,5141118,,,,,,,2023-03-01,1,,,,,オーケーバリュー,0
440,2260001037674,新規,0,2023-03-01,2023-03-01,株式会社オールインオート,,株式会社,岡山県,総社市,福井１８３番地４,,33,208,7191115,,,,,,,2023-03-01,1,,,,,オールインオート,0
443,2270003001495,新規,0,2023-03-01,2023-03-01,合同会社Ｅａｔ　Ｉｔｏ,,合同会社,鳥取県,鳥取市,新品治町８番地１３,,31,201,6800812,,,,,,,2023-03-01,1,,,,,イートイトウ,0
467,2340003004061,新規,0,2023-03-01,2023-03-01,ＡＳＯＶ合同会社,,合同会社,鹿児島県,鹿児島市,小山田町３５１２番地１,,46,201,8911231,,,,,,,2023-03-01,1,,,,,アソブ,0
474,2370001049642,新規,0,2023-03-01,2023-03-01,株式会社レック,,株式会社,宮城県,仙台市宮城野区,鶴ケ谷東１丁目９番２９号ＡＰＴルーエＩ－１０３,,04,102,9830826,,,,,,,2023-03-01,1,,,,,レック,0
476,2370003006014,新規,0,2023-03-01,2023-03-01,タイニスト合同会社,,合同会社,宮城県,仙台市若林区,河原町２丁目６番３２号,,04,103,9840816,,,,,,,2023-03-01,1,,,,,タイニスト,0
494,2430001088510,新規,0,2023-03-01,2023-03-01,株式会社コネクトツーワン,,株式会社,北海道,札幌市中央区,南十一条西２１丁目２番３３号,,01,101,0640811,,,,,,,2023-03-01,1,,,,,コネクトツーワン,0
498,2430003014778,新規,0,2023-03-01,2023-03-01,合同会社ｍｏｏｒｍ,,合同会社,北海道,千歳市,花園７丁目１２番１０－２０３号プルミエール花園,,01,224,0660028,,,,,,,2023-03-01,1,,,,,マーム,0
502,2450001013912,新規,0,2023-03-01,2023-03-01,株式会社なにわ屋ファーム下川,,株式会社,北海道,上川郡下川町,上名寄２０８０番地,,01,468,0981216,,,,,,,2023-03-01,1,,,,,ナニワヤファームシモカワ,0
507,2700150114551,新規,0,2023-03-01,2023-03-01,ＨＯＮＧＫＯＮＧ　ＯＮＥ－ＡＬＬ　ＣＯ．，ＬＩＭＩＴＥＤ,,外国会社等,,,,,,,,ＵＮＩＴ　１４０６Ｂ　１４／Ｆ　ＴＨＥ　ＢＥＬＧＩＡＮ　ＢＡＮＫ　ＢＬＤＧ　ＮＯＳ　７２１－７２５　ＮＡＴＨＡＮ　ＲＤ　ＫＬ　ＨＯＮＧＫＯＮＧ,,,,,,2023-03-01,1,,,,,ホンコンワンオールカンパニーリミテツド,0
510,3010001233025,新規,0,2023-03-01,2023-03-01,誠ホールディングス株式会社,,株式会社,東京都,中央区,日本橋兜町１７番１号,,13,102,1030026,,,,,,,2023-03-01,1,,,,,マコトホールディングス,0
511,3010001233339,新規,0,2023-03-01,2023-03-01,株式会社サードライン,,株式会社,東京都,中央区,日本橋浜町２丁目５５番１号１Ｆ,,13,102,1030007,,,,,,,2023-03-01,1,,,,,サードライン,0
512,3010001233363,新規,0,2023-03-01,2023-03-01,株式会社アイ・リーダージャパン,,株式会社,東京都,中央区,日本橋堀留町１丁目９番１０号日本橋ライフサイエンスビルディング７・６階・Ｃ－１３室,,13,102,1030012,,,,,,,2023-03-01,1,,,,,アイリーダージャパン,0
515,3010003039924,新規,0,2023-03-01,2023-03-01,合同会社カーチスファンド６号,,合同会社,東京都,千代田区,六番町２番地８番町Ｍビル３Ｆ,,13,101,1020085,,,,,,,2023-03-01,1,,,,,カーチスファンドロクゴウ,0
516,3010005036300,新規,0,2023-03-01,2023-03-01,一般社団法人夢前ソーラーホールディングス,,その他の設立登記法人,東京都,千代田区,有楽町１丁目２番２号クリフィックス税理士法人内,,13,101,1000006,,,,,,,2023-03-01,1,,,,,ユメサキソーラーホールディングス,0
523,3010401172707,新規,0,2023-03-01,2023-03-01,株式会社ＺＩＺＯ,,株式会社,東京都,港区,芝浦４丁目２１番１－３８０６号,,13,103,1080023,,,,,,,2023-03-01,1,,,,,ジゾー,0
524,3010401172764,新規,0,2023-03-01,2023-03-01,ポンテヌオーヴォ株式会社,,株式会社,東京都,港区,六本木７丁目２番２９号,,13,103,1060032,,,,,,,2023-03-01,1,,,,,ポンテヌオーヴォ,0
525,3010401172780,新規,0,2023-03-01,2023-03-01,株式会社サイジニアアドバンスド研究所,,株式会社,東京都,港区,浜松町１丁目２２番５号,,13,103,1050013,,,,,,,2023-03-01,1,,,,,サイジニアアドバンスドケンキュウジョ,0
528,3010403029632,新規,0,2023-03-01,2023-03-01,ハンファソリューションジャパン合同会社,,合同会社,東京都,港区,芝４丁目１０番１号,,13,103,1080014,,,,,,,2023-03-01,1,,,,,ハンファソリューションジャパン,0
541,3010901052623,新規,0,2023-03-01,2023-03-01,ＮｉｓＭ株式会社,,株式会社,東京都,世田谷区,上北沢５丁目５０－１１－１０７,,13,112,1560057,,,,,,,2023-03-01,1,,,,,ニズム,0
545,3011001152776,新規,0,2023-03-01,2023-03-01,株式会社ＪＲＣバックオフィス,,株式会社,東京都,渋谷区,恵比寿南２丁目８番１２号,,13,113,1500022,,,,,,,2023-03-01,1,,,,,ジェイアールシーバックオフィス,0
546,3011001152875,新規,0,2023-03-01,2023-03-01,株式会社ＴＯＳＡＮＫＡ,,株式会社,東京都,目黒区,自由が丘３丁目１７番２０号５０１,,13,110,1520035,,,,,,,2023-03-01,1,,,,,トサンカ,0
553,3011101101947,新規,0,2023-03-01,2023-03-01,ＮｉｈｏｎｇｏｎｏｍｏｒｉＸ株式会社,,株式会社,東京都,新宿区,西新宿３丁目７－２１陽輪台１１０２号,,13,104,1600023,,,,,,,2023-03-01,1,,,,,ニホンゴノモリエックス,0
554,3011101101971,新規,0,2023-03-01,2023-03-01,株式会社ＭＡＫＩＳＨＩＭＡ,,株式会社,東京都,新宿区,余丁町７番３号牧島ビル２０１,,13,104,1620055,,,,,,,2023-03-01,1,,,,,マキシマ,0
555,3011101101988,新規,0,2023-03-01,2023-03-01,株式会社トレンドマーケティング,,株式会社,東京都,新宿区,西新宿３丁目３番１３号西新宿水間ビル６階,,13,104,1600023,,,,,,,2023-03-01,1,,,,,トレンドマーケティング,0
557,3011103012746,新規,0,2023-03-01,2023-03-01,合同会社ナカジマ,,合同会社,東京都,新宿区,神楽坂５丁目２０番地５神楽坂アインスタワー２６０１号,,13,104,1620825,,,,,,,2023-03-01,1,,,,,ナカジマ,0
558,3011303004683,新規,0,2023-03-01,2023-03-01,ＨＫＪコンサルティング合同会社,,合同会社,東京都,杉並区,高円寺南５丁目６－７,,13,115,1660003,,,,,,,2023-03-01,1,,,,,エイチケイジェイコンサルティング,0
562,3011503005481,新規,0,2023-03-01,2023-03-01,合同会社文源,,合同会社,東京都,荒川区,西日暮里１丁目４７－１４,,13,118,1160013,,,,,,,2023-03-01,1,,,,,フミゲン,0
567,3011701026040,新規,0,2023-03-01,2023-03-01,株式会社ＮＥＸＴ　ＨＯＰＥ,,株式会社,東京都,江戸川区,松島３丁目１５番１６号,,13,123,1320031,,,,,,,2023-03-01,1,,,,,ネクストホープ,0
568,3011703003351,新規,0,2023-03-01,2023-03-01,合同会社ＴＥＲＡ,,合同会社,東京都,江戸川区,中央４丁目１５―３プレミスト新小岩親水公園３０９,,13,123,1320021,,,,,,,2023-03-01,1,,,,,テラ,0
582,3013301050379,新規,0,2023-03-01,2023-03-01,ＭａｘＬｅａｄ　Ｊａｐａｎ株式会社,,株式会社,東京都,豊島区,東池袋４丁目８番１号エイチエックスビル,,13,116,1700013,,,,,,,2023-03-01,1,,,,,マックスレードジャパン,0
583,3013303006511,新規,0,2023-03-01,2023-03-01,合同会社メディケアル,,合同会社,東京都,豊島区,池袋３丁目３４－７ビジネスパーク池袋２Ｆ,,13,116,1710014,,,,,,,2023-03-01,1,,,,,メディケアル,0
589,3020001150392,新規,0,2023-03-01,2023-03-01,株式会社ＳＨＩＮＹ,,株式会社,神奈川県,川崎市中原区,田尻町４７番地１１,,14,133,2110014,,,,,,,2023-03-01,1,,,,,シャイニー,0
590,3020001150401,新規,0,2023-03-01,2023-03-01,株式会社横浜内燃機,,株式会社,神奈川県,横浜市中区,本牧大里町三番４８－２号,,14,104,2310823,,,,,,,2023-03-01,1,,,,,ヨコハマナイネンキ,0
591,3020001150426,新規,0,2023-03-01,2023-03-01,株式会社ＲＥＩ,,株式会社,神奈川県,川崎市高津区,二子６丁目８番１号,,14,134,2130002,,,,,,,2023-03-01,1,,,,,レイ,0
592,3020001150434,新規,0,2023-03-01,2023-03-01,株式会社ＣＨＡＩＮＯＮ,,株式会社,神奈川県,横浜市緑区,寺山町５４１番地２４,,14,113,2260013,,,,,,,2023-03-01,1,,,,,シェノン,0
597,3020003023415,新規,0,2023-03-01,2023-03-01,合同会社無心,,合同会社,神奈川県,川崎市幸区,南幸町２丁目５８番地３０２号室,,14,132,2120016,,,,,,,2023-03-01,1,,,,,ムシン,0
603,3030001152520,新規,0,2023-03-01,2023-03-01,ＳＴＡＲＴ　ＵＰ　ＪＡＰＡＮ　ＣＯＮＳＵＬＴＩＮＧ株式会社,,株式会社,埼玉県,さいたま市南区,南浦和２丁目２７番４号,,11,108,3360017,,,,,,,2023-03-01,1,,,,,スタートアップジャパンコンサルティング,0
604,3030001152586,新規,0,2023-03-01,2023-03-01,株式会社アイビー,,株式会社,埼玉県,上尾市,上平中央３丁目２５番地５,,11,219,3620008,,,,,,,2023-03-01,1,,,,,アイビー,0
607,3030003021277,新規,0,2023-03-01,2023-03-01,合同会社Ｍａｓｔｅｒ　Ｃｒｅｗ,,合同会社,埼玉県,川越市,大字下松原６２９－８,,11,201,3501153,,,,,,,2023-03-01,1,,,,,マスタークルー,0
613,3040001127240,新規,0,2023-03-01,2023-03-01,株式会社ＴＲＡＮＳＩＡ,,株式会社,千葉県,市原市,五井５７９１番地１－２０２,,12,219,2900056,,,,,,,2023-03-01,1,,,,,トランシア,0
614,3040001127257,新規,0,2023-03-01,2023-03-01,株式会社成田空港送迎駐車場,,株式会社,千葉県,成田市,取香２６３－１,,12,211,2860106,,,,,,,2023-03-01,1,,,,,ナリタクウコウソウゲイチュウシャジョウ,0
617,3040003021986,新規,0,2023-03-01,2023-03-01,合同会社Ｗａｒｍ　Ｓｔａｒ,,合同会社,千葉県,千葉市若葉区,多部田町７５５－３３,,12,104,2650066,,,,,,,2023-03-01,1,,,,,ウォームスター,0
618,3040003022051,新規,0,2023-03-01,2023-03-01,ＳＵＭＩＴＨ　ＴＲＡＤＥＲＳ合同会社,,合同会社,千葉県,山武郡芝山町,新井田字屋敷下６４６番１－Ｄ－７,,12,409,2891625,,,,,,,2023-03-01,1,,,,,スミットトレーダース,0
625,3070001040168,新規,0,2023-03-01,2023-03-01,株式会社Ｇマーケット,,株式会社,群馬県,桐生市,浜松町１丁目７番３８号,,10,203,3760007,,,,,,,2023-03-01,1,,,,,ジーマーケット,0
632,3100001036179,新規,0,2023-03-01,2023-03-01,株式会社イーアドバンス,,株式会社,長野県,佐久市,御馬寄１１３２,,20,217,3842103,,,,,,,2023-03-01,1,,,,,イーアドバンス,0
642,3120001252716,新規,0,2023-03-01,2023-03-01,宝盛株式会社,,株式会社,大阪府,大阪市北区,大淀南２丁目６番１６号藤本ビル３０３号,,27,127,5310075,,,,,,,2023-03-01,1,,,,,ホウセイ,0
643,3120001252732,新規,0,2023-03-01,2023-03-01,東邦株式会社,,株式会社,大阪府,大阪市北区,大淀南２丁目６番１６号藤本ビル３０２号,,27,127,5310075,,,,,,,2023-03-01,1,,,,,トウホウ,0
644,3120001252773,新規,0,2023-03-01,2023-03-01,安新株式会社,,株式会社,大阪府,大阪市西区,江之子島１丁目７番３号奥内阿波座駅前ビル８１０号室,,27,106,5500006,,,,,,,2023-03-01,1,,,,,アンシン,0
662,3140001129243,新規,0,2023-03-01,2023-03-01,株式会社ＮＥＯ‐ＴＥＣ,,株式会社,兵庫県,姫路市,広畑区正門通４丁目４番地５ロワイヤル広畑５０３号,,28,201,6711116,,,,,,,2023-03-01,1,,,,,ネオテック,0
665,3160001024855,新規,0,2023-03-01,2023-03-01,株式会社識,,株式会社,滋賀県,甲賀市,甲南町希望ケ丘３丁目２７－５,,25,209,5203333,,,,,,,2023-03-01,1,,,,,シキ,0
668,3160005011164,新規,0,2023-03-01,2023-03-01,医療法人加楓,,その他の設立登記法人,滋賀県,草津市,野路１丁目１４番３８－２０４号,,25,206,5250059,,,,,,,2023-03-01,1,,,,,カフウ,0
670,3170001017486,新規,0,2023-03-01,2023-03-01,株式会社ＫＮＭ,,株式会社,和歌山県,和歌山市,楠見中７１番地９、３階,,30,201,6408463,,,,,,,2023-03-01,1,,,,,ケイエヌエム,0
672,3180001155112,新規,0,2023-03-01,2023-03-01,株式会社ＮｅｘｔＡｂｉｌｉｔｙ,,株式会社,愛知県,名古屋市東区,泉２丁目１１番４号－３０３,,23,102,4610001,,,,,,,2023-03-01,1,,,,,ネクストアビリティー,0
673,3180001155120,新規,0,2023-03-01,2023-03-01,株式会社彩り,,株式会社,愛知県,名古屋市守山区,小幡２丁目２番２号,,23,113,4630011,,,,,,,2023-03-01,1,,,,,イロドリ,0
677,3180003024868,新規,0,2023-03-01,2023-03-01,合同会社ａｌｂａ,,合同会社,愛知県,名古屋市東区,葵３丁目９番８号１３０３号室,,23,102,4610004,,,,,,,2023-03-01,1,,,,,アルバ,0
679,3180301037126,新規,0,2023-03-01,2023-03-01,株式会社よろずやわんだふる,,株式会社,愛知県,豊川市,御油町美世賜４０,,23,207,4410211,,,,,,,2023-03-01,1,,,,,ヨロズヤワンダフル,0
680,3200001040996,新規,0,2023-03-01,2023-03-01,株式会社英和工業,,株式会社,岐阜県,岐阜市,野一色５丁目１０番１６号,,21,201,5008226,,,,,,,2023-03-01,1,,,,,エイワコウギョウ,0
681,3200003005849,新規,0,2023-03-01,2023-03-01,イミー合同会社,,合同会社,岐阜県,瑞浪市,宮前町１番地１３,,21,208,5096128,,,,,,,2023-03-01,1,,,,,イミー,0
682,3200003005873,新規,0,2023-03-01,2023-03-01,合同会社八広電装,,合同会社,岐阜県,揖斐郡大野町,大字黒野１３０番地５,,21,403,5010521,,,,,,,2023-03-01,1,,,,,ハッコウデンソウ,0
702,3290003013587,新規,0,2023-03-01,2023-03-01,ＤＡＮＧ　ＬＩＮＨ合同会社,,合同会社,福岡県,福岡市南区,南大橋１丁目２－２０ピュア大橋弐番館１０２号,,40,134,8150034,,,,,,,2023-03-01,1,,,,,ダンリン,0
704,3290801029297,新規,0,2023-03-01,2023-03-01,イーテックマネジメント株式会社,,株式会社,福岡県,北九州市若松区,赤岩町２番２号,,40,103,8080075,,,,,,,2023-03-01,1,,,,,イーテックマネジメント,0
718,3340003004060,新規,0,2023-03-01,2023-03-01,ＳＡＣＬＡＢ合同会社,,合同会社,鹿児島県,薩摩川内市,樋脇町塔之原３８９６番地１,,46,215,8951202,,,,,,,2023-03-01,1,,,,,サックラボ,0
720,3360001031609,新規,0,2023-03-01,2023-03-01,株式会社ｌｉｎｅ‐ｕｐ,,株式会社,沖縄県,那覇市,銘苅１丁目９番１２号Ｎ’ｓ銘苅３０１,,47,201,9000004,,,,,,,2023-03-01,1,,,,,ラインアップ,0
726,3370003006013,新規,0,2023-03-01,2023-03-01,合同会社ｋｉｒａｒｉ,,合同会社,宮城県,仙台市宮城野区,萩野町３丁目４番１１号,,04,102,9830043,,,,,,,2023-03-01,1,,,,,キラリ,0
736,3430001088518,新規,0,2023-03-01,2023-03-01,株式会社Ｒａｉｆｕｋｕ,,株式会社,北海道,札幌市中央区,宮の森二条６丁目３番１号,,01,101,0640952,,,,,,,2023-03-01,1,,,,,ライフク,0
740,3430003014760,新規,0,2023-03-01,2023-03-01,合同会社Ｔ＆Ｙ０６,,合同会社,北海道,札幌市東区,北三十五条東１５丁目１番２０号エメラルド３５－１階,,01,103,0070835,,,,,,,2023-03-01,1,,,,,ティーアンドワイゼロロク,0
744,3450005004361,新規,0,2023-03-01,2023-03-01,一般社団法人ＮＯＬＩＭＩＴ旭川,,その他の設立登記法人,北海道,旭川市,一条通４丁目７４番地ビジネスコートＡ２０１号室,,01,204,0700031,,,,,,,2023-03-01,1,,,,,ノーリミットアサヒカワ,0
750,3470003002357,新規,0,2023-03-01,2023-03-01,合同会社ＹＯＦＦＥＥ,,合同会社,香川県,高松市,室新町１０４０番地１,,37,201,7618062,,,,,,,2023-03-01,1,,,,,ヨーヒー,0
753,3500001024779,新規,0,2023-03-01,2023-03-01,株式会社伸昇,,株式会社,愛媛県,宇和島市,宮下甲１４９８番地５５,,38,203,7980085,,,,,,,2023-03-01,1,,,,,,0
755,3700150114550,新規,0,2023-03-01,2023-03-01,Ｃｕｂｉｃ　Ｇａｍｅｓ　ＬＴＤ,,外国会社等,,,,,,,,Ｇｅｏｒｇｉｏｕ　Ｇｒｉｖａ　Ｄｉｇｅｎｉ　１１３，Ａｓｔｒｏｍｅｒｉｔｉｓ　２７２２　Ｎｉｃｏｓｉａ　Ｃｙｐｒｕｓ,,,,,,2023-03-01,1,,,,,キユービツクゲームズリミテツド,0
759,4010001233305,新規,0,2023-03-01,2023-03-01,株式会社アミュウ,,株式会社,東京都,千代田区,六番町６番４号,,13,101,1020085,,,,,,,2023-03-01,1,,,,,アミュウ,0
760,4010001233338,新規,0,2023-03-01,2023-03-01,株式会社Ｉｓａｍｏｇｕ　Ｊａｐａｎ,,株式会社,東京都,千代田区,神田鍛冶町３丁目４番地,,13,101,1010045,,,,,,,2023-03-01,1,,,,,イサモグジャパン,0
761,4010001233354,新規,0,2023-03-01,2023-03-01,株式会社よもぎちゃん,,株式会社,東京都,中央区,銀座１丁目１２番４号Ｎ＆Ｅ．ＢＬＤ．６Ｆ,,13,102,1040061,,,,,,,2023-03-01,1,,,,,ヨモギチャン,0
762,4010003039923,新規,0,2023-03-01,2023-03-01,ＮＳコンサルティング合同会社,,合同会社,東京都,中央区,銀座１丁目２２番１１号銀座大竹ビジデンス２Ｆ,,13,102,1040061,,,,,,,2023-03-01,1,,,,,エヌエスコンサルティング,0
763,4010003039931,新規,0,2023-03-01,2023-03-01,マックディインキュベート合同会社,,合同会社,東京都,中央区,銀座１丁目１２－４Ｎ＆Ｅ．ＢＬＤ．６Ｆ,,13,102,1040061,,,,,,,2023-03-01,1,,,,,マックディインキュベート,0
764,4010005036299,新規,0,2023-03-01,2023-03-01,一般社団法人備前ソーラーホールディングス,,その他の設立登記法人,東京都,千代田区,有楽町１丁目２番２号クリフィックス税理士法人内,,13,101,1000006,,,,,,,2023-03-01,1,,,,,ビゼンソーラーホールディングス,0
774,4010403029607,新規,0,2023-03-01,2023-03-01,ウィンズ合同会社,,合同会社,東京都,港区,西新橋３丁目２３－６,,13,103,1050003,,,,,,,2023-03-01,1,,,,,ウィンズ,0
775,4010403029623,新規,0,2023-03-01,2023-03-01,ＩＰ　Ｄｅｖｅｌｏｐｍｅｎｔ合同会社,,合同会社,東京都,港区,西新橋３丁目５番２号,,13,103,1050003,,,,,,,2023-03-01,1,,,,,アイピーディベロップメント,0
776,4010405021867,新規,0,2023-03-01,2023-03-01,一般社団法人ＩＰ　Ｓｏｌｕｔｉｏｎ,,その他の設立登記法人,東京都,港区,西新橋３丁目５番２号,,13,103,1050003,,,,,,,2023-03-01,1,,,,,アイピーソリューション,0
786,4010903008003,新規,0,2023-03-01,2023-03-01,合同会社ベルエキップ,,合同会社,東京都,世田谷区,太子堂５丁目３５番７号,,13,112,1540004,,,,,,,2023-03-01,1,,,,,ベルエキップ,0
792,4011001152791,新規,0,2023-03-01,2023-03-01,株式会社ＮｉｎｅＧａｔｅｓ,,株式会社,東京都,渋谷区,神泉町１０番１５号,,13,113,1500045,,,,,,,2023-03-01,1,,,,,ナインゲーツ,0
798,4011101101979,新規,0,2023-03-01,2023-03-01,株式会社ＳＴＡＹ,,株式会社,東京都,新宿区,歌舞伎町２丁目８－２パレドール歌舞伎町８０２号室,,13,104,1600021,,,,,,,2023-03-01,1,,,,,スター,0
801,4011103012753,新規,0,2023-03-01,2023-03-01,合同会社クローバー,,合同会社,東京都,新宿区,西新宿４丁目１６番６号マルブン西新宿４０６,,13,104,1600023,,,,,,,2023-03-01,1,,,,,クローバー,0
813,4011501029003,新規,0,2023-03-01,2023-03-01,東茂産業株式会社,,株式会社,東京都,荒川区,西日暮里２丁目１１番２号,,13,118,1160013,,,,,,,2023-03-01,1,,,,,トウモサンギョウ,0
817,4012801022168,新規,0,2023-03-01,2023-03-01,吉株式会社,,株式会社,東京都,立川市,錦町１丁目５番３４号,,13,202,1900022,,,,,,,2023-03-01,1,,,,,ヨシ,0
820,4013301050378,新規,0,2023-03-01,2023-03-01,ＮｅｏＢｙｔｅ株式会社,,株式会社,東京都,豊島区,池袋３丁目３９番２号,,13,116,1710014,,,,,,,2023-03-01,1,,,,,ネオバイト,0
825,4020001150425,新規,0,2023-03-01,2023-03-01,株式会社関建,,株式会社,神奈川県,横浜市保土ケ谷区,仏向西２０番１８号,,14,106,2400046,,,,,,,2023-03-01,1,,,,,セキケン,0
827,4020003023414,新規,0,2023-03-01,2023-03-01,ＴＢ合同会社,,合同会社,神奈川県,川崎市高津区,千年９３８番地川田荘２０２号室,,14,134,2130022,,,,,,,2023-03-01,1,,,,,ティービー,0
832,4030001152602,新規,0,2023-03-01,2023-03-01,諾達株式会社,,株式会社,埼玉県,朝霞市,朝志ケ丘１丁目２番１－９０２号,,11,227,3510035,,,,,,,2023-03-01,1,,,,,ダクタツ,0
835,4030003021276,新規,0,2023-03-01,2023-03-01,合同会社ＣＨＯＰＣＨＯＰ,,合同会社,埼玉県,富士見市,西みずほ台１丁目２０－８ＡＧプラザビル７階,,11,235,3540018,,,,,,,2023-03-01,1,,,,,チョップチョップ,0
836,4040001127231,新規,0,2023-03-01,2023-03-01,東土国際株式会社,,株式会社,千葉県,船橋市,印内２丁目３番１５号ＴＯＰ西船橋第一２０６,,12,204,2730039,,,,,,,2023-03-01,1,,,,,トウドコクサイ,0
837,4040001127256,新規,0,2023-03-01,2023-03-01,株式会社拓味,,株式会社,千葉県,浦安市,当代島１丁目２８番２５号,,12,227,2790001,,,,,,,2023-03-01,1,,,,,タクミ,0
838,4040003022059,新規,0,2023-03-01,2023-03-01,合同会社英人,,合同会社,千葉県,市原市,西広４丁目１番地９号,,12,219,2900022,,,,,,,2023-03-01,1,,,,,ヒデト,0
839,4040003022067,新規,0,2023-03-01,2023-03-01,ＳＡＴ　ＩＮＴＥＲＮＡＴＩＯＮＡＬ合同会社,,合同会社,千葉県,山武郡芝山町,新井田字屋敷下６４６番１Ｄ－１,,12,409,2891625,,,,,,,2023-03-01,1,,,,,エスエーティーインターナショナル,0
850,4060003004443,新規,0,2023-03-01,2023-03-01,合同会社ニコリ,,合同会社,栃木県,宇都宮市,戸祭台２７－１,,09,201,3200017,,,,,,,2023-03-01,1,,,,,ニコリ,0
851,4070001040167,新規,0,2023-03-01,2023-03-01,株式会社トレスティーポ,,株式会社,群馬県,伊勢崎市,連取町２３６３番地３３,,10,204,3720812,,,,,,,2023-03-01,1,,,,,トレスティーポ,0
854,4080001025472,新規,0,2023-03-01,2023-03-01,株式会社ＴＦＯＲＵ,,株式会社,静岡県,静岡市葵区,羽鳥２丁目１７番１０号,,22,101,4211215,,,,,,,2023-03-01,1,,,,,ティフォル,0
855,4080001025480,新規,0,2023-03-01,2023-03-01,市川達雄不動産管理株式会社,,株式会社,静岡県,静岡市葵区,瀬名３丁目１６番１号,,22,101,4200911,,,,,,,2023-03-01,1,,,,,イチカワタツオフドウサンカンリ,0
869,4120001252780,新規,0,2023-03-01,2023-03-01,株式会社Ｂ．Ｔ．Ｓ,,株式会社,大阪府,大阪市中央区,宗右衛門町２番３号美松ビル２Ｆ－Ｆ号室,,27,128,5420084,,,,,,,2023-03-01,1,,,,,ビーティーエス,0
878,4120005023492,新規,0,2023-03-01,2023-03-01,一般社団法人ＩＳＦＡ,,その他の設立登記法人,大阪府,大阪市中央区,徳井町１丁目４番３号,,27,128,5400025,,,,,,,2023-03-01,1,,,,,アイエスエフエー,0
881,4130001073747,新規,0,2023-03-01,2023-03-01,株式会社ＰＲＯＵＤ　ＬＡＢＯ,,株式会社,京都府,京都市下京区,七条通油小路東入大黒町２２７番地第２キョートビル４０２,,26,106,6008223,,,,,,,2023-03-01,1,,,,,プラウドラボ,0
882,4130003008552,新規,0,2023-03-01,2023-03-01,合同会社ネクストグロース,,合同会社,京都府,京都市西京区,下津林番条９６,,26,111,6158056,,,,,,,2023-03-01,1,,,,,ネクストグロース,0
885,4140001129250,新規,0,2023-03-01,2023-03-01,株式会社ＴＡＲＯＳＵＮ,,株式会社,兵庫県,伊丹市,中野西１丁目４６番地カームライフ中野１０６号,,28,207,6640023,,,,,,,2023-03-01,1,,,,,タロサン,0
892,4180001155128,新規,0,2023-03-01,2023-03-01,楽しい場所づくり株式会社,,株式会社,愛知県,日進市,藤島町相山５１番地１,,23,230,4700102,,,,,,,2023-03-01,1,,,,,タノシイバショヅクリ,0
893,4180001155136,新規,0,2023-03-01,2023-03-01,株式会社Ｋａｎｅｋｏ,,株式会社,愛知県,名古屋市南区,北頭町２丁目１２番地の６,,23,112,4570827,,,,,,,2023-03-01,1,,,,,カネコ,0
896,4180305009450,新規,0,2023-03-01,2023-03-01,一般社団法人愛知県建築物解体工事業協会,,その他の設立登記法人,愛知県,蒲郡市,三谷北通４丁目５３番地,,23,214,4430022,,,,,,,2023-03-01,1,,,,,アイチケンケンチクブツカイタイコウジギョウキョウカイ,0
899,4190001030189,新規,0,2023-03-01,2023-03-01,株式会社ｄＬａｂ,,株式会社,三重県,津市,河辺町３５４１番地４,,24,201,5140065,,,,,,,2023-03-01,1,,,,,ディーラボ,0
901,4200003005864,新規,0,2023-03-01,2023-03-01,みのかもエネルギーデザイン合同会社,,合同会社,岐阜県,美濃加茂市,太田町２６８９番地３０,,21,211,5050041,,,,,,,2023-03-01,1,,,,,ミノカモエネルギーデザイン,0
909,4290001019288,新規,0,2023-03-01,2023-03-01,株式会社エスエイチエンタープライズ,,株式会社,福岡県,福岡市博多区,住吉４丁目１番５号,,40,132,8120018,,,,,,,2023-03-01,1,,,,,エスエイチエンタープライズ,0
912,4290003013586,新規,0,2023-03-01,2023-03-01,合同会社ワープスピード,,合同会社,福岡県,糟屋郡志免町,田富３丁目７‐６プロムナード・セリーヌ参番館２０３,,40,343,8112204,,,,,,,2023-03-01,1,,,,,ワープスピード,0
920,4340005009560,新規,0,2023-03-01,2023-03-01,一般社団法人ｍｕｋｕ,,その他の設立登記法人,鹿児島県,いちき串木野市,北浜町２９番地,,46,219,8960041,,,,,,,2023-03-01,1,,,,,ムク,0
927,4360001031632,新規,0,2023-03-01,2023-03-01,愛光進株式会社,,株式会社,沖縄県,糸満市,字糸満１９５７番地１０２号室,,47,210,9010361,,,,,,,2023-03-01,1,,,,,アイコウシン,0
929,4360003012762,新規,0,2023-03-01,2023-03-01,合同会社伸和メンテナンス,,合同会社,沖縄県,那覇市,識名３丁目７番５号レジデンスフェリーチェ３０２,,47,201,9020078,,,,,,,2023-03-01,1,,,,,シンワメンテナンス,0
935,4370003006004,新規,0,2023-03-01,2023-03-01,ＬＩＦＥ　Ｃｏｎｎｅｃｔ合同会社,,合同会社,宮城県,石巻市,中里４丁目３番１号,,04,202,9860815,,,,,,,2023-03-01,1,,,,,ライフコネクト,0
936,4370005010598,新規,0,2023-03-01,2023-03-01,一般社団法人アイル,,その他の設立登記法人,宮城県,名取市,美田園８丁目５番地の６,,04,207,9811217,,,,,,,2023-03-01,1,,,,,アイル,0
945,4380001033511,新規,0,2023-03-01,2023-03-01,株式会社三浦建築,,株式会社,福島県,伊達郡川俣町,飯坂字上中居３１番地の６,,07,308,9601401,,,,,,,2023-03-01,1,,,,,ミウラケンチク,0
957,4460101007340,新規,0,2023-03-01,2023-03-01,株式会社ＲｅＤｅＣ,,株式会社,北海道,帯広市,西十五条南１丁目２番地２,,01,207,0800025,,,,,,,2023-03-01,1,,,,,リデック,0
977,5010001233320,新規,0,2023-03-01,2023-03-01,株式会社ＦＡＣＴＯ,,株式会社,東京都,千代田区,九段南１丁目５番６号りそな九段ビル５階ＫＳフロア,,13,101,1020074,,,,,,,2023-03-01,1,,,,,ファクト,0
978,5010001233353,新規,0,2023-03-01,2023-03-01,Ｇ＆Ｋ株式会社,,株式会社,東京都,中央区,銀座１丁目１２番４号Ｎ＆ＥＢＬＤ．６Ｆ,,13,102,1040061,,,,,,,2023-03-01,1,,,,,ジーアンドケイ,0
980,5010003039906,新規,0,2023-03-01,2023-03-01,合同会社ＤＨ有明プロジェクト,,合同会社,東京都,千代田区,内神田２丁目２番６号５階あすな会計事務所内,,13,101,1010047,,,,,,,2023-03-01,1,,,,,ディーエイチアリアケプロジェクト,0
1010,5010903008002,新規,0,2023-03-01,2023-03-01,合同会社フロンティア・アイランド,,合同会社,東京都,世田谷区,上北沢３丁目３３番１７号フェリース上北沢２０２,,13,112,1560057,,,,,,,2023-03-01,1,,,,,フロンティアアイランド,0
1013,5011001152790,新規,0,2023-03-01,2023-03-01,株式会社ウーキーアーム,,株式会社,東京都,目黒区,碑文谷２丁目９番１５－３０９号ソアラノーム碑文谷,,13,110,1520003,,,,,,,2023-03-01,1,,,,,ウーキーアーム,0
1014,5011001152816,新規,0,2023-03-01,2023-03-01,株式会社ケーダッシュスポーツ,,株式会社,東京都,渋谷区,代々木２丁目１０番４号,,13,113,1510053,,,,,,,2023-03-01,1,,,,,ケーダッシュスポーツ,0
1015,5011001152832,新規,0,2023-03-01,2023-03-01,Ｎｅｓｔ　Ｓｔｕｄｉｏ株式会社,,株式会社,東京都,目黒区,洗足２丁目１７番２８－５０３号,,13,110,1520012,,,,,,,2023-03-01,1,,,,,ネストスタジオ,0
1016,5011001152873,新規,0,2023-03-01,2023-03-01,株式会社Ｎｅｒｈｏｌ,,株式会社,東京都,渋谷区,笹塚３丁目９番１０号ＴＷＩＺＡ１０１,,13,113,1510073,,,,,,,2023-03-01,1,,,,,ネルホル,0
1029,5011301028501,新規,0,2023-03-01,2023-03-01,株式会社ＮＯＶＡ　ＬＡＢ,,株式会社,東京都,杉並区,井草３丁目２３番２－１０１号,,13,115,1670021,,,,,,,2023-03-01,1,,,,,ノバラボ,0
1033,5011801042002,新規,0,2023-03-01,2023-03-01,株式会社一和グループ,,株式会社,東京都,足立区,中川２丁目１３－２ジョイル亀有４０１,,13,121,1200002,,,,,,,2023-03-01,1,,,,,イチワグループ,0
1036,5012703002647,新規,0,2023-03-01,2023-03-01,ＩＴＳ合同会社,,合同会社,東京都,東村山市,本町２丁目２４番２１－４０２号,,13,213,1890014,,,,,,,2023-03-01,1,,,,,アイティーエス,0
1043,5020001150432,新規,0,2023-03-01,2023-03-01,ハレニエンターテインメント株式会社,,株式会社,神奈川県,横浜市港北区,新横浜２丁目３番地１２新横浜スクエアビル１８階,,14,109,2220033,,,,,,,2023-03-01,1,,,,,ハレニエンターテインメント,0
1050,5020003023405,新規,0,2023-03-01,2023-03-01,アンドアイ合同会社,,合同会社,神奈川県,川崎市中原区,小杉町１丁目５２６番地７－４０３号,,14,133,2110063,,,,,,,2023-03-01,1,,,,,アンドアイ,0
1054,5021001078317,新規,0,2023-03-01,2023-03-01,株式会社Ｇｏｏｄｓｈｉｔ,,株式会社,神奈川県,藤沢市,南藤沢８番３号プレジデント藤沢２０５,,14,205,2510055,,,,,,,2023-03-01,1,,,,,グッドシット,0
1062,5021003012810,新規,0,2023-03-01,2023-03-01,合同会社Ｍａｅｄａ　Ｆａｍｉｌｙ　Ｏｆｆｉｃｅ,,合同会社,神奈川県,鎌倉市,材木座５丁目１０番２９号,,14,204,2480013,,,,,,,2023-03-01,1,,,,,マエダファミリーオフィス,0
1063,5021003012819,新規,0,2023-03-01,2023-03-01,合同会社ｎｏｋｉｓｈｉｔａ,,合同会社,神奈川県,鎌倉市,山ノ内３０９番地９号,,14,204,2470062,,,,,,,2023-03-01,1,,,,,ノキシタ,0
1068,5030001152551,新規,0,2023-03-01,2023-03-01,株式会社ＲＧ,,株式会社,埼玉県,草加市,北谷３丁目２８－２９,,11,221,3400046,,,,,,,2023-03-01,1,,,,,アールジー,0
1069,5030001152592,新規,0,2023-03-01,2023-03-01,株式会社Ａ’ｓ,,株式会社,埼玉県,川越市,岸町１丁目２５番地１４２,,11,201,3501131,,,,,,,2023-03-01,1,,,,,エース,0
1070,5030001152601,新規,0,2023-03-01,2023-03-01,株式会社アサタツ,,株式会社,埼玉県,川口市,中青木５丁目２番３２－２０２号デュオ川口青木公園,,11,203,3320032,,,,,,,2023-03-01,1,,,,,アサタツ,0
1071,5030001152618,新規,0,2023-03-01,2023-03-01,株式会社Ｍｅｉｒ,,株式会社,埼玉県,所沢市,大字北秋津８７６番地の３所沢コーポラスＨ－３０５,,11,208,3590038,,,,,,,2023-03-01,1,,,,,メア,0
1073,5030003021234,新規,0,2023-03-01,2023-03-01,Ｃａｒｎｉｖａｌ合同会社,,合同会社,埼玉県,比企郡嵐山町,大字菅谷３７４番地２中島アパート１０３,,11,342,3550221,,,,,,,2023-03-01,1,,,,,カーニバル,0
1074,5030003021275,新規,0,2023-03-01,2023-03-01,合同会社石田設備,,合同会社,埼玉県,川口市,長蔵１丁目１７番４号グランドグレース２０４,,11,203,3330807,,,,,,,2023-03-01,1,,,,,イシダセツビ,0
1076,5040001127230,新規,0,2023-03-01,2023-03-01,株式会社リーフ測量設計,,株式会社,千葉県,船橋市,南三咲１丁目２１番１４号ハイツグリーンヒルＢ棟１０３,,12,204,2740813,,,,,,,2023-03-01,1,,,,,リーフソクリョウセッケイ,0
1077,5040001127247,新規,0,2023-03-01,2023-03-01,サステナぶる株式会社,,株式会社,千葉県,木更津市,請西南４丁目３３番地５Ｎ,,12,206,2920807,,,,,,,2023-03-01,1,,,,,サステナブル,0
1078,5040001127255,新規,0,2023-03-01,2023-03-01,ＥＭＡ株式会社,,株式会社,千葉県,浦安市,当代島２丁目６番４９号,,12,227,2790001,,,,,,,2023-03-01,1,,,,,エマ,0
1080,5040003022025,新規,0,2023-03-01,2023-03-01,合同会社レイン,,合同会社,千葉県,千葉市中央区,富士見２丁目２１－９しんなかビル７Ｆ,,12,101,2600015,,,,,,,2023-03-01,1,,,,,レイン,0
1081,5040003022058,新規,0,2023-03-01,2023-03-01,リノーヴ合同会社,,合同会社,千葉県,千葉市稲毛区,山王町１７９－２,,12,103,2630002,,,,,,,2023-03-01,1,,,,,リノーヴ,0
1086,5050003007280,新規,0,2023-03-01,2023-03-01,合同会社湯田,,合同会社,茨城県,つくば市,高見原４丁目５番地１,,08,220,3001252,,,,,,,2023-03-01,1,,,,,ユダ,0
1115,5130005016692,新規,0,2023-03-01,2023-03-01,一般社団法人日本農業,,その他の設立登記法人,京都府,亀岡市,亀岡駅北１丁目８番地２,,26,206,6210807,,,,,,,2023-03-01,1,,,,,ニホンノウギョウ,0
1138,5180001155102,新規,0,2023-03-01,2023-03-01,株式会社繋,00129566,株式会社,愛知県,名古屋市港区,川間町１丁目１９９番地,,23,111,4550076,,,,,,,2023-03-01,1,,,,,ツナグ,0
1139,5180001155119,新規,0,2023-03-01,2023-03-01,株式会社ＫＥＹ,,株式会社,愛知県,名古屋市中川区,吉津１丁目２１０９番地,,23,110,4540981,,,,,,,2023-03-01,1,,,,,キー,0
1140,5180001155127,新規,0,2023-03-01,2023-03-01,株式会社アーフト,,株式会社,愛知県,名古屋市南区,呼続２丁目１５番１２号,,23,112,4570014,,,,,,,2023-03-01,1,,,,,アーフト,0
1143,5180301037140,新規,0,2023-03-01,2023-03-01,株式会社エンコーポレーション,,株式会社,愛知県,豊田市,山之手４丁目１１４番地ＩＮＴＥＲＣＩＴＹＹＡＭＡＮＯＴＥ３０２号,,23,211,4710833,,,,,,,2023-03-01,1,,,,,エンコーポレーション,0
1152,5200001041010,新規,0,2023-03-01,2023-03-01,ＡＲＭＡ株式会社,,株式会社,岐阜県,各務原市,鵜沼各務原町７丁目６４番地,,21,213,5090141,,,,,,,2023-03-01,1,,,,,アルマ,0
1153,5200005013451,新規,0,2023-03-01,2023-03-01,弁護士法人シティサンライズ法律事務所,,その他の設立登記法人,岐阜県,岐阜市,端詰町１２番地,,21,201,5008811,,,,,,,2023-03-01,1,,,,,シティサンライズホウリツジムショ,0
1156,5220001025291,新規,0,2023-03-01,2023-03-01,ＢＭＪヤグラダ株式会社,,株式会社,石川県,金沢市,此花町５番６号,,17,201,9200852,,,,,,,2023-03-01,1,,,,,ビーエムジェイヤグラダ,0
1175,5250005008802,新規,0,2023-03-01,2023-03-01,一般社団法人せとうち・エコアイランド八島,,その他の設立登記法人,山口県,山口市,朝田山口県流通センター８４１－９,,35,203,7530872,,,,,,,2023-03-01,1,,,,,セトウチエコアイランドヤシマ,0
1179,5260001037688,新規,0,2023-03-01,2023-03-01,株式会社せとうちグリーンメンテナンス,,株式会社,岡山県,玉野市,梶岡１１２８番地,,33,204,7060311,,,,,,,2023-03-01,1,,,,,セトウチグリーンメンテナンス,0
1181,5260003004216,新規,0,2023-03-01,2023-03-01,合同会社ＫＣカンパニー,,合同会社,岡山県,倉敷市,白楽町６９９番地３,,33,202,7100824,,,,,,,2023-03-01,1,,,,,ケーシーカンパニー,0
1186,5290001100617,新規,0,2023-03-01,2023-03-01,株式会社グッドラック,,株式会社,福岡県,福岡市早良区,西新２丁目６番１１号,,40,137,8140002,,,,,,,2023-03-01,1,,,,,グッドラック,0
1202,5380001033510,新規,0,2023-03-01,2023-03-01,株式会社ＴＴＳＥ,,株式会社,福島県,福島市,松川町金沢字堀切１番地１６,,07,201,9601246,,,,,,,2023-03-01,1,,,,,ティーティーエスイー,0
1210,5420001018168,新規,0,2023-03-01,2023-03-01,株式会社エアタイト,,株式会社,青森県,青森市,浪岡大字女鹿沢字東花岡２１番地１３,,02,201,0381331,,,,,,,2023-03-01,1,,,,,エアタイト,0
1214,5430001088508,新規,0,2023-03-01,2023-03-01,株式会社Ｌｉｔａ　Ｐｌａｃｅ,,株式会社,北海道,札幌市北区,北二十九条西４丁目２番１号,,01,102,0010029,,,,,,,2023-03-01,1,,,,,リタプレイス,0
1220,5470003002355,新規,0,2023-03-01,2023-03-01,合同会社金盛,,合同会社,香川県,丸亀市,津森町１１９１番地３５－２０１,,37,202,7630052,,,,,,,2023-03-01,1,,,,,キンセイ,0
1221,5480003001942,新規,0,2023-03-01,2023-03-01,那賀川建材合同会社,,合同会社,徳島県,阿南市,那賀川町黒地５３１番地１,,36,204,7791121,,,,,,,2023-03-01,1,,,,,ナカガワケンザイ,0
1224,5700150112478,新規,0,2023-03-01,2022-11-01,月をノミマショウ,,その他,東京都,小金井市,東町５丁目１２－１９コートハウス小金井Ａ－２,,13,210,1840011,,,,,,,2022-11-01,1,,,,,ツキヲノミマシヨウ,0
1225,5700150114549,新規,0,2023-03-01,2023-03-01,Ｂｒｏｗａｖｅ　Ｃｏｒｐｏｒａｔｉｏｎ,,外国会社等,,,,,,,,Ｈｓｉｎｃｈｕ　Ｓｃｉｅｎｃｅ　Ｐａｒｔ，Ｈｓｉｎｃｈｕ　Ｃｉｔｙ，Ｔａｉｗａｎ,,,,,,2023-03-01,1,,,,,ブローウエーブコーポレーシヨン,0
1234,6010001233336,新規,0,2023-03-01,2023-03-01,ＡＢＣＤ株式会社,,株式会社,東京都,中央区,銀座１丁目２２番１１号銀座大竹ビジデンス２Ｆ,,13,102,1040061,,,,,,,2023-03-01,1,,,,,エービーシーディー,0
1235,6010001233352,新規,0,2023-03-01,2023-03-01,株式会社Ｕ,,株式会社,東京都,千代田区,麹町１丁目４番４号,,13,101,1020083,,,,,,,2023-03-01,1,,,,,ユー,0
1238,6010005036297,新規,0,2023-03-01,2023-03-01,一般社団法人ＰＶエコ,,その他の設立登記法人,東京都,千代田区,平河町１丁目３番１３号平河町フロントビル７階株式会社シリウス・アドバイザリー内,,13,101,1020093,,,,,,,2023-03-01,1,,,,,ピーブイエコ,0
1242,6010401172761,新規,0,2023-03-01,2023-03-01,株式会社Ｓａｇｅ　Ｃｏｓｍｅｔｉｃｓ　Ｊａｐａｎ,,株式会社,東京都,港区,赤坂８丁目３番７号,,13,103,1070052,,,,,,,2023-03-01,1,,,,,セイジコスメティックジャパン,0
1243,6010401172803,新規,0,2023-03-01,2023-03-01,ＤＡＶＩＮＣＩＮＥＳＳ株式会社,,株式会社,東京都,港区,白金台４丁目２番７号,,13,103,1080071,,,,,,,2023-03-01,1,,,,,ダヴィンチネス,0
1245,6010405021881,新規,0,2023-03-01,2023-03-01,一般社団法人兵庫夢前ソーラー,,その他の設立登記法人,東京都,港区,六本木３丁目２番１号六本木グランドタワー,,13,103,1060032,,,,,,,2023-03-01,1,,,,,ヒョウゴユメサキソーラー,0
1250,6010701043893,新規,0,2023-03-01,2023-03-01,株式会社Ｒｏｖｙ,,株式会社,東京都,品川区,上大崎２丁目１５番１９号,,13,109,1410021,,,,,,,2023-03-01,1,,,,,ロビー,0
1254,6010901052595,新規,0,2023-03-01,2023-03-01,ＢｌｕｅＦｌａｍｅ株式会社,,株式会社,東京都,世田谷区,太子堂４丁目２０番２号,,13,112,1540004,,,,,,,2023-03-01,1,,,,,ブルーフレーム,0
1264,6011001152716,新規,0,2023-03-01,2023-03-01,株式会社ＵＬＴＬＡＢＯ,,株式会社,東京都,渋谷区,代々木２丁目２１－３－２０１,,13,113,1510053,,,,,,,2023-03-01,1,,,,,ウルトラボ,0
1274,6011101101960,新規,0,2023-03-01,2023-03-01,株式会社Ｋ‐Ｂｉｇ　Ｓｔａｒ,,株式会社,東京都,新宿区,大久保１丁目１２番１０号,,13,104,1690072,,,,,,,2023-03-01,1,,,,,ケイビッグスター,0
1275,6011101101977,新規,0,2023-03-01,2023-03-01,株式会社ＣＬＡＰ,,株式会社,東京都,新宿区,新宿１丁目３６番２号新宿第七葉山ビル３Ｆ,,13,104,1600022,,,,,,,2023-03-01,1,,,,,クラップ,0
1278,6011201024450,新規,0,2023-03-01,2023-03-01,株式会社マイスターＫＥＮＺＯ,,株式会社,東京都,中野区,野方１丁目２９－５－６０８,,13,114,1650027,,,,,,,2023-03-01,1,,,,,マイスターケンゾー,0
1281,6011203004013,新規,0,2023-03-01,2023-03-01,合同会社サラサ,,合同会社,東京都,中野区,中野５丁目６７番７号プラザ中野８０１,,13,114,1640001,,,,,,,2023-03-01,1,,,,,サラサ,0
1283,6011301028483,新規,0,2023-03-01,2023-03-01,ＭａｓｕＬｉｎｋ株式会社,,株式会社,東京都,杉並区,松庵２丁目８－１８－２０１,,13,115,1670054,,,,,,,2023-03-01,1,,,,,マスリンク,0
1287,6011701026038,新規,0,2023-03-01,2023-03-01,株式会社京コミュニケーションズ,,株式会社,東京都,江戸川区,東葛西７丁目１１番８－２０１号メイプルハイム,,13,123,1340084,,,,,,,2023-03-01,1,,,,,キョウコミュニケーションズ,0
1288,6011703003398,新規,0,2023-03-01,2023-03-01,スクウェアジェイ合同会社,,合同会社,東京都,江戸川区,南小岩４丁目９番１２号,,13,123,1330056,,,,,,,2023-03-01,1,,,,,,0
1290,6012301013327,新規,0,2023-03-01,2023-03-01,株式会社ネオウェル,,株式会社,東京都,町田市,鶴川３丁目１９番地３５,,13,209,1950061,,,,,,,2023-03-01,1,,,,,ネオウェル,0
1292,6012703002646,新規,0,2023-03-01,2023-03-01,合同会社Ｈｏｕｓｅ　Ｒｅｆｒｅｓｈ,,合同会社,東京都,西東京市,住吉町６丁目８番２４号,,13,229,2020005,,,,,,,2023-03-01,1,,,,,ハウスリフレッシュ,0
1298,6013301050376,新規,0,2023-03-01,2023-03-01,株式会社ハマー,,株式会社,東京都,豊島区,池袋２丁目１２－１３十二ビル地下１階,,13,116,1710014,,,,,,,2023-03-01,1,,,,,ハマー,0
1301,6020001150407,新規,0,2023-03-01,2023-03-01,株式会社横浜イベントサービス,,株式会社,神奈川県,横浜市西区,浅間町１丁目１３番地８－１Ｆ,,14,103,2200072,,,,,,,2023-03-01,1,,,,,ヨコハマイベントサービス,0
1302,6020001150415,新規,0,2023-03-01,2023-03-01,株式会社レアホープ,,株式会社,神奈川県,川崎市高津区,溝口６丁目２２番１０－２０５号,,14,134,2130001,,,,,,,2023-03-01,1,,,,,レアホープ,0
1312,6030001152591,新規,0,2023-03-01,2023-03-01,株式会社岡田モータース,,株式会社,埼玉県,深谷市,藤野木１０２番地２,,11,218,3660014,,,,,,,2023-03-01,1,,,,,オカダモータース,0
1313,6030001152600,新規,0,2023-03-01,2023-03-01,光川株式会社,,株式会社,埼玉県,比企郡ときがわ町,大字玉川１１７７番地２０８号室,,11,349,3550342,,,,,,,2023-03-01,1,,,,,コウセン,0
1317,6040001127238,新規,0,2023-03-01,2023-03-01,株式会社ａｌｃ．ｓ,,株式会社,千葉県,松戸市,小金原５丁目１３番地の２７,,12,207,2700021,,,,,,,2023-03-01,1,,,,,アルクス,0
1318,6040001127246,新規,0,2023-03-01,2023-03-01,千葉スズキホールディングス株式会社,,株式会社,千葉県,千葉市美浜区,新港１７３番地,,12,106,2610002,,,,,,,2023-03-01,1,,,,,チバスズキホールディングス,0
1320,6040003022040,新規,0,2023-03-01,2023-03-01,合同会社Ｔ‐Ｂｅａｒ,,合同会社,千葉県,柏市,つくしが丘１丁目１３－２,,12,217,2770072,,,,,,,2023-03-01,1,,,,,ティーベアー,0
1321,6040003022049,新規,0,2023-03-01,2023-03-01,福川合同会社,,合同会社,千葉県,船橋市,東中山１丁目５番１３－７号,,12,204,2730036,,,,,,,2023-03-01,1,,,,,フクカワ,0
1326,6060003004441,新規,0,2023-03-01,2023-03-01,Ｗａｋａｓｈｉｎｏ合同会社,,合同会社,栃木県,足利市,若草町４番地６２,,09,202,3260024,,,,,,,2023-03-01,1,,,,,ワカシノ,0
1329,6070001040173,新規,0,2023-03-01,2023-03-01,Ｏｋａｇｕｃｈｉ　Ｄｅｎｔａｌ　Ｔｅｃｈｎｉｑｕｅｓ株式会社,,株式会社,群馬県,高崎市,柴崎町１６７６番地１,,10,202,3700035,,,,,,,2023-03-01,1,,,,,オカグチデンタルテクニックス,0
1330,6070003004837,新規,0,2023-03-01,2023-03-01,Ｈ＆Ａ合同会社,,合同会社,群馬県,伊勢崎市,上諏訪町１２２６－１,,10,204,3720021,,,,,,,2023-03-01,1,,,,,エイチアンドエー,0
1333,6080101023812,新規,0,2023-03-01,2023-03-01,株式会社Ｔｅｎｎ．,,株式会社,静岡県,伊豆市,修善寺１１３１番地の１,,22,222,4102416,,,,,,,2023-03-01,1,,,,,テン,0
1351,6120001252787,新規,0,2023-03-01,2023-03-01,株式会社ＹＳＮ,,株式会社,大阪府,大阪市中央区,淡路町３丁目６番３号Ｂ１Ｆ,,27,128,5410047,,,,,,,2023-03-01,1,,,,,ワイエスエヌ,0
1352,6120001252829,新規,0,2023-03-01,2023-03-01,ユータスグループ株式会社,,株式会社,大阪府,大阪市淀川区,東三国４丁目１１－４新大阪明成ビル７Ｆ,,27,123,5320002,,,,,,,2023-03-01,1,,,,,ユータスグループ,0
1374,6140001129249,新規,0,2023-03-01,2023-03-01,株式会社Ａ　ｔｏ　Ｚ,,株式会社,兵庫県,神戸市灘区,船寺通１丁目８番１６号,,28,102,6570842,,,,,,,2023-03-01,1,,,,,エイトゥーズィ,0
1375,6140003018755,新規,0,2023-03-01,2023-03-01,ハラスメントソリューション合同会社,,合同会社,兵庫県,三田市,下内神５１５番地３８,,28,219,6691333,,,,,,,2023-03-01,1,,,,,ハラスメントソリューション,0
1376,6150001026197,新規,0,2023-03-01,2023-03-01,株式会社ＭＡＳＴＥＲ　ＭＩＮＤ,,株式会社,奈良県,生駒市,小平尾町３０番１１,,29,209,6300226,,,,,,,2023-03-01,1,,,,,マスターマインド,0
1377,6160003002807,新規,0,2023-03-01,2023-03-01,合同会社きんせい,,合同会社,滋賀県,守山市,水保町２８９２番地２の１２０１号,,25,207,5240102,,,,,,,2023-03-01,1,,,,,キンセイ,0
1388,6180001155118,新規,0,2023-03-01,2023-03-01,株式会社ＬＵＣＡ,,株式会社,愛知県,名古屋市東区,東桜２丁目３番４号日中交流会館２階,,23,102,4610005,,,,,,,2023-03-01,1,,,,,ルカ,0
1389,6180001155126,新規,0,2023-03-01,2023-03-01,株式会社ＳＡＮＧ,,株式会社,愛知県,大府市,横根町平子１８９番地の１,,23,223,4740011,,,,,,,2023-03-01,1,,,,,サング,0
1397,6180301037131,新規,0,2023-03-01,2023-03-01,３６９ｎｅｘｔサービス株式会社,,株式会社,愛知県,みよし市,三好町上７６番地７アーバンポイント三好ＩＩ６０７号,00129568,23,236,4700224,,,,,,,2023-03-01,1,,,,,ミロクネクストサービス,0
1403,6220001025290,新規,0,2023-03-01,2023-03-01,株式会社地球市民雑貨店,,株式会社,石川県,金沢市,長町３丁目２‐３１,,17,201,9200865,,,,,,,2023-03-01,1,,,,,チキュウシミンザッカテン,0
1416,6260001037687,新規,0,2023-03-01,2023-03-01,せとうちロジスティクス株式会社,,株式会社,岡山県,岡山市中区,倉益２１４番地１,,33,102,7038263,,,,,,,2023-03-01,1,,,,,セトウチロジスティクス,0
1423,6300003001942,新規,0,2023-03-01,2023-03-01,合同会社たら海苔生産事業所,,合同会社,佐賀県,藤津郡太良町,大字糸岐１５５８番地１０,,41,441,8491603,,,,,,,2023-03-01,1,,,,,タラノリセイサンジギョウショ,0
1429,6320003004035,新規,0,2023-03-01,2023-03-01,合同会社オーシャンテック,,合同会社,大分県,大分市,大字荏隈１８４９番地の７９,,44,201,8700889,,,,,,,2023-03-01,1,,,,,オーシャンテック,0
1430,6330001030635,新規,0,2023-03-01,2023-03-01,株式会社ミライキッズｄｅえがお,,株式会社,熊本県,熊本市東区,東町４丁目１０番１号,,43,102,8620901,,,,,,,2023-03-01,1,,,,,ミライキッズデエガオ,0
1434,6360003012760,新規,0,2023-03-01,2023-03-01,合同会社ふうがあべーす,,合同会社,沖縄県,石垣市,字大川２０８番地,,47,207,9070022,,,,,,,2023-03-01,1,,,,,フウガアベース,0
1448,6420001018167,新規,0,2023-03-01,2023-03-01,株式会社ヒッポファイ,,株式会社,青森県,八戸市,大字鮫町字古馬屋２３番地５９０,,02,203,0310841,,,,,,,2023-03-01,1,,,,,ヒッポファイ,0
1449,6420003002672,新規,0,2023-03-01,2023-03-01,合同会社ＡｄｖａｎｃｅｄＷｏｒｋｓ,,合同会社,青森県,八戸市,大字新井田字石動木平４４番地４１ハイカムールＳＴ秀３０６号室,,02,203,0310813,,,,,,,2023-03-01,1,,,,,アドバンスワークス,0
1453,6430001088515,新規,0,2023-03-01,2023-03-01,株式会社札幌中央塗研,,株式会社,北海道,札幌市南区,南沢二条３丁目１５番５１号,,01,106,0050822,,,,,,,2023-03-01,1,,,,,サッポロチュウオウトケン,0
1456,6430003014766,新規,0,2023-03-01,2023-03-01,ヒダカシーサイドファーム合同会社,,合同会社,北海道,浦河郡浦河町,字東栄６０１番地の１,,01,607,0593461,,,,,,,2023-03-01,1,,,,,ヒダカシーサイドファーム,0
1457,6430003014774,新規,0,2023-03-01,2023-03-01,合同会社倭の社,,合同会社,北海道,札幌市中央区,南十一条西２０丁目２番１２号,,01,101,0640811,,,,,,,2023-03-01,1,,,,,ワノシャ,0
1463,6500001024776,新規,0,2023-03-01,2023-03-01,株式会社ＨＩＫＡＲＩエステート,,株式会社,愛媛県,松山市,保免西１丁目８番１２号,,38,201,7900043,,,,,,,2023-03-01,1,,,,,ヒカリエステート,0
1464,6500003002986,新規,0,2023-03-01,2023-03-01,ＳＭＨ合同会社,,合同会社,愛媛県,松山市,御幸２丁目８番１０号,,38,201,7900824,,,,,,,2023-03-01,1,,,,,エスエムエイチ,0
1465,6700150114548,新規,0,2023-03-01,2023-03-01,ｉＬａｎｄ６　ＬＬＣ,,外国会社等,,,,,,,,１２０９　Ｏｒａｎｇｅ　Ｓｔ，Ｗｉｌｍｉｎｇｔｏｎ，Ｄｅｌａｗａｒｅ　１９８０１－１１９６　ＵＳＡ,,,,,,2023-03-01,1,,,,,アイランドシツクスエルエルシー,0
1475,7010001233343,新規,0,2023-03-01,2023-03-01,株式会社ＧｒｅｅｎＧｒａｓｓ　ＯＮＥ,,株式会社,東京都,千代田区,丸の内１丁目１１番１号,,13,101,1000005,,,,,,,2023-03-01,1,,,,,グリーングラスワン,0
1480,7010003039796,新規,0,2023-03-01,2023-03-01,合同会社ＡＣＥ,,合同会社,東京都,千代田区,外神田６丁目６－２シュロス５０２,,13,101,1010021,,,,,,,2023-03-01,1,,,,,エース,0
1482,7010005036296,新規,0,2023-03-01,2023-03-01,一般社団法人クリーンパワー,,その他の設立登記法人,東京都,千代田区,平河町１丁目３番１３号平河町フロントビル７階株式会社シリウス・アドバイザリー内,,13,101,1020093,,,,,,,2023-03-01,1,,,,,クリーンパワー,0
1487,7010401172645,新規,0,2023-03-01,2023-03-01,株式会社Ａｓｉａ　Ｃｏｎｃｉｅｒｇｅ,,株式会社,東京都,港区,元麻布３丁目１番６号,,13,103,1060046,,,,,,,2023-03-01,1,,,,,アジアコンシェルジュ,0
1488,7010401172744,新規,0,2023-03-01,2023-03-01,株式会社イーセブンス,,株式会社,東京都,港区,赤坂４丁目９番２５号新東洋赤坂ビル１０Ｆ,,13,103,1070052,,,,,,,2023-03-01,1,,,,,イーセブンス,0
1489,7010401172760,新規,0,2023-03-01,2023-03-01,株式会社ａｄｖａｎｃｅ,,株式会社,東京都,港区,東麻布２丁目１７番８号フェリーチェ東麻布１０１,,13,103,1060044,,,,,,,2023-03-01,1,,,,,アドバンス,0
1492,7010403029629,新規,0,2023-03-01,2023-03-01,合同会社廣光,,合同会社,東京都,港区,新橋５丁目８番７号,,13,103,1050004,,,,,,,2023-03-01,1,,,,,ヒロミツ,0
1494,7010405021880,新規,0,2023-03-01,2023-03-01,一般社団法人岡山備前ソーラー,,その他の設立登記法人,東京都,港区,六本木３丁目２番１号六本木グランドタワー,,13,103,1060032,,,,,,,2023-03-01,1,,,,,オカヤマビゼンソーラー,0
1507,7011001152789,新規,0,2023-03-01,2023-03-01,ｐｌａｙｃｅ株式会社,,株式会社,東京都,渋谷区,代々木２丁目９番５号－５Ｆ,,13,113,1510053,,,,,,,2023-03-01,1,,,,,プレイス,0
1508,7011001152855,新規,0,2023-03-01,2023-03-01,株式会社ＰＫＢ,,株式会社,東京都,渋谷区,神宮前６丁目２３番４号桑野ビル２階,,13,113,1500001,,,,,,,2023-03-01,1,,,,,ピーカブー,0
1511,7011005009960,新規,0,2023-03-01,2023-03-01,一般社団法人日本最適化栄養食協会,,その他の設立登記法人,東京都,渋谷区,千駄ヶ谷３丁目５０番１１号,,13,113,1510051,,,,,,,2023-03-01,1,,,,,ニホンサイテキカエイヨウショクキョウカイ,0
1512,7011101102000,新規,0,2023-03-01,2023-03-01,株式会社ＬＺＺ　Ｇｒｏｕｐ　Ｈｏｌｄｉｎｇ,,株式会社,東京都,新宿区,西早稲田３丁目３１－１１ニューライフ西早稲田５Ｆ,,13,104,1690051,,,,,,,2023-03-01,1,,,,,エルゼットゼットグループホールディング,0
1515,7011501029000,新規,0,2023-03-01,2023-03-01,コマイヌ株式会社,,株式会社,東京都,北区,田端３丁目９番４号,,13,117,1140014,,,,,,,2023-03-01,1,,,,,コマイヌ,0
1516,7011503005494,新規,0,2023-03-01,2023-03-01,合同会社ＳＴＭ,,合同会社,東京都,北区,豊島７丁目７番１－１０１号,,13,117,1140003,,,,,,,2023-03-01,1,,,,,エスティーエム,0
1517,7011601026616,新規,0,2023-03-01,2023-03-01,株式会社ＥＹＥＣＡＲＥ　ＰＬＡＮＮＩＮＧ,,株式会社,東京都,練馬区,豊玉北１丁目１３番１３号,,13,120,1760012,,,,,,,2023-03-01,1,,,,,アイケアプランニング,0
1528,7020001150439,新規,0,2023-03-01,2023-03-01,株式会社ライフウォーム,,株式会社,神奈川県,横浜市瀬谷区,本郷３丁目２８番地３第２メゾンモリヤ１０５号室,,14,114,2460015,,,,,,,2023-03-01,1,,,,,ライフウォーム,0
1529,7020003023403,新規,0,2023-03-01,2023-03-01,ＤＨ　Ｐｒｏｄｕｃｔｓ合同会社,,合同会社,神奈川県,横浜市中区,矢口台５８番地メゾンロータスＩＩ１０１,00129572,14,104,2310831,,,,,,,2023-03-01,1,,,,,ディーエイチプロダクト,0
1530,7020003023411,新規,0,2023-03-01,2023-03-01,合同会社重吉,,合同会社,神奈川県,川崎市川崎区,伊勢町１３番１０－１０１号,,14,131,2100805,,,,,,,2023-03-01,1,,,,,シゲキチ,0
1538,7030001152582,新規,0,2023-03-01,2023-03-01,株式会社ボルト,,株式会社,埼玉県,鶴ヶ島市,大字上広谷７０３番地１２,,11,241,3502203,,,,,,,2023-03-01,1,,,,,ボルト,0
1539,7030001152590,新規,0,2023-03-01,2023-03-01,ゴールドアイ株式会社,,株式会社,埼玉県,川口市,大字安行領家１８８７番地の９,,11,203,3340058,,,,,,,2023-03-01,1,,,,,ゴールドアイ,0
1540,7030001152599,新規,0,2023-03-01,2023-03-01,花子株式会社,,株式会社,埼玉県,川口市,中青木４丁目１８－１６ＭＳファミリーマンション４０３室,,11,203,3320032,,,,,,,2023-03-01,1,,,,,ハナコ,0
1544,7030003021265,新規,0,2023-03-01,2023-03-01,武蔵野テクノス防災合同会社,,合同会社,埼玉県,入間郡三芳町,大字竹間沢６９４番地１,,11,324,3540043,,,,,,,2023-03-01,1,,,,,ムサシノテクノスボウサイ,0
1548,7040001127212,新規,0,2023-03-01,2023-03-01,株式会社Ｌａｘｉ,,株式会社,千葉県,柏市,中原２丁目１２番３７号－１０３,,12,217,2770085,,,,,,,2023-03-01,1,,,,,ラクシィ,0
1549,7040001127220,新規,0,2023-03-01,2023-03-01,株式会社Ｊ,,株式会社,千葉県,浦安市,明海２丁目６番６号,,12,227,2790014,,,,,,,2023-03-01,1,,,,,ジェイ,0
1550,7040001127229,新規,0,2023-03-01,2023-03-01,株式会社ライフ,,株式会社,千葉県,山武郡横芝光町,篠本４５８０番地,,12,410,2891701,,,,,,,2023-03-01,1,,,,,ライフ,0
1551,7040001127237,新規,0,2023-03-01,2023-03-01,倉持工業株式会社,,株式会社,千葉県,野田市,今上１８２番地,,12,208,2780025,,,,,,,2023-03-01,1,,,,,クラモチコウギョウ,0
1552,7040001127253,新規,0,2023-03-01,2023-03-01,株式会社Ｅｎｄｌｅｓｓ　Ｗｉｎｄ,,株式会社,千葉県,松戸市,二ツ木１３５７番地の１,,12,207,2700027,,,,,,,2023-03-01,1,,,,,エンドレスウィンド,0
1555,7040003022015,新規,0,2023-03-01,2023-03-01,合同会社まきゅう,,合同会社,千葉県,市川市,田尻４丁目２番１４－８０５号,,12,203,2720014,,,,,,,2023-03-01,1,,,,,マキュウ,0
1556,7040003022056,新規,0,2023-03-01,2023-03-01,合同会社ＳＥＮＵＭＩ　ＡＵＴＯＭＯＢＩＬＥ,,合同会社,千葉県,柏市,藤ケ谷２１５番地６,,12,217,2770931,,,,,,,2023-03-01,1,,,,,セヌミオートモバイル,0
1558,7050001052459,新規,0,2023-03-01,2023-03-01,株式会社たいよう,,株式会社,茨城県,神栖市,神栖４丁目９番１号パレス神栖４０１,,08,232,3140143,,,,,,,2023-03-01,1,,,,,タイヨウ,0
1571,7100001022448,新規,0,2023-03-01,2023-03-01,佐々木水引工業株式会社,,株式会社,長野県,飯田市,松尾代田１８６０番地１,,20,205,3950812,,,,,,,2023-03-01,1,,,,,ササキミズヒキコウギョウ,0
1572,7100001036183,新規,0,2023-03-01,2023-03-01,株式会社ｔｏｒｉｔｏｋｅ,,株式会社,長野県,松本市,寿北６丁目１１－１淵庵村Ｗベース０２,,20,202,3990011,,,,,,,2023-03-01,1,,,,,トリトケ,0
1574,7110001037321,新規,0,2023-03-01,2023-03-01,株式会社ＳＡＤＯ　ＬＡＮＤ,,株式会社,新潟県,佐渡市,中興乙４０１番地１,,15,224,9521211,,,,,,,2023-03-01,1,,,,,サドランド,0
1584,7120001252786,新規,0,2023-03-01,2023-03-01,ＴＫアトラクティング株式会社,,株式会社,大阪府,大阪市東成区,神路２丁目９番１４号,,27,115,5370003,,,,,,,2023-03-01,1,,,,,ティーケーアトラクティング,0
1589,7120003023483,新規,0,2023-03-01,2023-03-01,合同会社ウィンテックプロダクツ,,合同会社,大阪府,門真市,四宮１丁目２－１０,,27,223,5710017,,,,,,,2023-03-01,1,,,,,ウィンテックプロダクツ,0
1596,7130001073744,新規,0,2023-03-01,2023-03-01,株式会社敬寂,,株式会社,京都府,京都市伏見区,淀木津町２５４番地ディオ・フェルティ淀リヴィエール６０５号,,26,109,6130911,,,,,,,2023-03-01,1,,,,,ケイジャク,0
1601,7140001129248,新規,0,2023-03-01,2023-03-01,オタフクズ株式会社,,株式会社,兵庫県,西宮市,笠屋町２０番１４－３０５号,,28,204,6638136,,,,,,,2023-03-01,1,,,,,オタフクズ,0
1602,7140005026482,新規,0,2023-03-01,2023-03-01,一般社団法人ハタラキ,,その他の設立登記法人,兵庫県,姫路市,三左衛門堀西の町２１番地２０１,,28,201,6700940,,,,,,,2023-03-01,1,,,,,ハタラキ,0
1609,7170001017490,新規,0,2023-03-01,2023-03-01,株式会社ＮＡＮＫＩＣＲＥＡＴＥ,,株式会社,和歌山県,東牟婁郡那智勝浦町,大字勝浦９５２,,30,421,6495334,,,,,,,2023-03-01,1,,,,,ナンキクリエイト,0
1613,7180001155125,新規,0,2023-03-01,2023-03-01,株式会社ＬＩＮＫ　ＬＩＮＸ,,株式会社,愛知県,名古屋市西区,枇杷島１丁目６番５５号ＬＯＱＵＡＴ２０１号,,23,104,4510053,,,,,,,2023-03-01,1,,,,,リンクリンクス,0
1622,7220003003459,新規,0,2023-03-01,2023-03-01,合同会社ふぁいん,,合同会社,石川県,小松市,打越町丙１０６番地３,,17,203,9230831,,,,,,,2023-03-01,1,,,,,ファイン,0
1628,7240001061135,新規,0,2023-03-01,2023-03-01,株式会社吉輝,,株式会社,広島県,呉市,安浦町三津口亀戸３２０－７,,34,202,7370000,,,,,,,2023-03-01,1,,,,,ヨシキ,0
1633,7260001037678,新規,0,2023-03-01,2023-03-01,株式会社もみじ,,株式会社,岡山県,岡山市東区,瀬戸町下４８５番地１,,33,103,7090856,,,,,,,2023-03-01,1,,,,,モミジ,0
1643,7290003013583,新規,0,2023-03-01,2023-03-01,合同会社Ｓｈｉｎ,,合同会社,福岡県,糟屋郡粕屋町,大字江辻９１０番地１,,40,349,8112313,,,,,,,2023-03-01,1,,,,,シン,0
1644,7290803004352,新規,0,2023-03-01,2023-03-01,ＪｕｎＺｈｅ合同会社,,合同会社,福岡県,田川郡添田町,大字添田２２１２番地,,40,602,8240602,,,,,,,2023-03-01,1,,,,,ジュンズゥ,0
1647,7310001018284,新規,0,2023-03-01,2023-03-01,株式会社ＣａｒＳｈｏｐ,,株式会社,長崎県,大村市,富の原２丁目５４２番地２,,42,205,8560806,,,,,,,2023-03-01,1,,,,,カーショップ,0
1649,7320001019595,新規,0,2023-03-01,2023-03-01,株式会社愛津電気工事,,株式会社,大分県,大分市,山津町１丁目３番９号,,44,201,8700136,,,,,,,2023-03-01,1,,,,,アイシンデンキコウジ,0
1651,7330001030634,新規,0,2023-03-01,2023-03-01,株式会社ＫＧＣ,,株式会社,熊本県,熊本市中央区,花畑町１１番２８号８Ｆ,,43,101,8600806,,,,,,,2023-03-01,1,,,,,ケイジーシー,0
1661,7360001031621,新規,0,2023-03-01,2023-03-01,株式会社ドリームＡｎｅｓ,,株式会社,沖縄県,中頭郡西原町,字我謝７２１番地チェルシーテラス１０２,,47,329,9030112,,,,,,,2023-03-01,1,,,,,ドリームアネス,0
1669,7380001033509,新規,0,2023-03-01,2023-03-01,株式会社ＨＫ企画,,株式会社,福島県,いわき市,内郷御厩町４丁目７３番地ＴＳ中央マンション２０１,00129570,07,204,9738402,,,,,,,2023-03-01,1,,,,,エッチケーキカク,0
1671,7380003005398,新規,0,2023-03-01,2023-03-01,合同会社スマイルスマイル,,合同会社,福島県,伊達市,宮前２番地２,,07,213,9600413,,,,,,,2023-03-01,1,,,,,スマイルスマイル,0
1674,7380005012681,新規,0,2023-03-01,2023-03-01,一般社団法人おひさま保育園,,その他の設立登記法人,福島県,喜多方市,東桜ガ丘２丁目４０番地,,07,208,9660007,,,,,,,2023-03-01,1,,,,,オヒサマホイクエン,0
1681,7420001018166,新規,0,2023-03-01,2023-03-01,株式会社Ｍ．ｓＬＩＦＥ,,株式会社,青森県,北津軽郡鶴田町,大字鶴田字生松４８番地７,,02,384,0383503,,,,,,,2023-03-01,1,,,,,エムスライフ,0
1686,7430001088514,新規,0,2023-03-01,2023-03-01,空間ＤＥＶＩＣＥ株式会社,,株式会社,北海道,札幌市北区,北三十五条西７丁目１番２０－１０６号,,01,102,0010035,,,,,,,2023-03-01,1,,,,,クウカンデバイス,0
1690,7440003001515,新規,0,2023-03-01,2023-03-01,合同会社ＰｌｕｓｅｎＮａ,,合同会社,北海道,函館市,陣川２丁目２番２号,,01,202,0410837,,,,,,,2023-03-01,1,,,,,,0
1698,8010005036295,新規,0,2023-03-01,2023-03-01,一般社団法人エナジーパーク,,その他の設立登記法人,東京都,千代田区,平河町１丁目３番１３号平河町フロントビル７階株式会社シリウス・アドバイザリー内,,13,101,1020093,,,,,,,2023-03-01,1,,,,,エナジーパーク,0
1711,8010405021847,新規,0,2023-03-01,2023-03-01,一般社団法人Ｉ　ＬＯＶＥ　ＢＡＢＹ,,その他の設立登記法人,東京都,港区,赤坂２丁目２１番４号天翔オフィス赤坂ＡＮＮＥＸ２０４－Ａ,,13,103,1070052,,,,,,,2023-03-01,1,,,,,アイラブベイビー,0
1718,8011001152838,新規,0,2023-03-01,2023-03-01,エリン株式会社,,株式会社,東京都,渋谷区,道玄坂１丁目１０番８号渋谷道玄坂東急ビル２Ｆ－Ｃ,,13,113,1500043,,,,,,,2023-03-01,1,,,,,エリン,0
1719,8011001152870,新規,0,2023-03-01,2023-03-01,ａｐｐａｒｅ株式会社,,株式会社,東京都,渋谷区,神宮前５丁目４６番１号,,13,113,1500001,,,,,,,2023-03-01,1,,,,,アッパレ,0
1720,8011003016355,新規,0,2023-03-01,2023-03-01,ＥｘｃｅｌＲｅｄｓｔｏｎｅ　Ｊａｐａｎ合同会社,,合同会社,東京都,渋谷区,恵比寿４丁目３番５号７０４号室アークアウトソーシング株式会社内,,13,113,1500013,,,,,,,2023-03-01,1,,,,,エクセルレッドストーンジャパン,0
1733,8012701017504,新規,0,2023-03-01,2023-03-01,株式会社Ｌａｇｏｏｎ,,株式会社,東京都,西東京市,ひばりが丘１丁目１－１アリエビル１階,,13,229,2020001,,,,,,,2023-03-01,1,,,,,ラグーン,0
1736,8012703002644,新規,0,2023-03-01,2023-03-01,合同会社ＵＮＤＥＲＷＯＯＤ　Ｗａｌｋｅｒｓ,,合同会社,東京都,小平市,花小金井南町１丁目１５番２９号,,13,211,1870003,,,,,,,2023-03-01,1,,,,,アンダーウッドウォーカー,0
1737,8013303006515,新規,0,2023-03-01,2023-03-01,合同会社ＣＯＮＮＥＣＴ,,合同会社,東京都,豊島区,東池袋１丁目１７番１１号パークハイツ池袋１１０５号,,13,116,1700013,,,,,,,2023-03-01,1,,,,,コネクト,0
1744,8020001150438,新規,0,2023-03-01,2023-03-01,ＴＺ　Ａｕｔｏ　Ｐａｒｔｓ株式会社,,株式会社,神奈川県,横浜市旭区,上白根２丁目６６番１２号２階,,14,112,2410002,,,,,,,2023-03-01,1,,,,,ティーゼットオートパーツ,0
1751,8030001152598,新規,0,2023-03-01,2023-03-01,株式会社なごみ,,株式会社,埼玉県,越谷市,大字弥十郎３１４番地１,,11,222,3430047,,,,,,,2023-03-01,1,,,,,ナゴミ,0
1756,8040001127153,新規,0,2023-03-01,2023-03-01,株式会社真和運輸,,株式会社,千葉県,千葉市若葉区,加曽利町７１６番地４第一中嶋ハイツ２０１号,,12,104,2640017,,,,,,,2023-03-01,1,,,,,シンワウンユ,0
1757,8040001127228,新規,0,2023-03-01,2023-03-01,株式会社六華インベストメント,,株式会社,千葉県,柏市,大島田４２３番地１,,12,217,2770922,,,,,,,2023-03-01,1,,,,,ロッカインベストメント,0
1758,8040001127236,新規,0,2023-03-01,2023-03-01,株式会社ぐれいとふる,,株式会社,千葉県,船橋市,金杉９丁目１７番２７リーブル金杉３０２号,,12,204,2730853,,,,,,,2023-03-01,1,,,,,グレイトフル,0
1759,8040001127252,新規,0,2023-03-01,2023-03-01,シティレブン株式会社,,株式会社,千葉県,船橋市,小室町３０６３番地,,12,204,2701471,,,,,,,2023-03-01,1,,,,,シティレブン,0
1760,8040001127269,新規,0,2023-03-01,2023-03-01,株式会社ＰＲＩＭＥ　ＬＩＮＥ,,株式会社,千葉県,八千代市,大和田新田１０７７番地１７１,,12,221,2760046,,,,,,,2023-03-01,1,,,,,プライムライン,0
1761,8040003022039,新規,0,2023-03-01,2023-03-01,Ｃｈｌｏｅ　ｄｉｒｅｃｔｏｒｓ　ｃｏｍｐａｎｙ　ｒｅｍｏｎ合同会社,,合同会社,千葉県,松戸市,小金きよしケ丘４丁目９番地の３４,,12,207,2700013,,,,,,,2023-03-01,1,,,,,クロエディレクターズカンパニーレモン,0
1762,8040003022055,新規,0,2023-03-01,2023-03-01,ＤＮ　ＦＯＯＤＳ合同会社,,合同会社,千葉県,市原市,姉崎西１丁目１１番地２１,,12,219,2990119,,,,,,,2023-03-01,1,,,,,ディーエヌフーズ,0
1763,8040003022063,新規,0,2023-03-01,2023-03-01,ＬＯＴＵＳ合同会社,,合同会社,千葉県,市川市,市川南２丁目９番２０号（ベラドーモＡ１０２号）,,12,203,2720033,,,,,,,2023-03-01,1,,,,,ロータス,0
1767,8050001052433,新規,0,2023-03-01,2023-03-01,株式会社ＴＯＰＬＩＧＨＴ,,株式会社,茨城県,土浦市,富士崎１丁目１４番１９号ＮＡＣ土浦ビル４階,,08,203,3000813,,,,,,,2023-03-01,1,,,,,トップライト,0
1770,8060001035734,新規,0,2023-03-01,2023-03-01,株式会社郡司農園,,株式会社,栃木県,大田原市,佐良土２０３９番地,,09,210,3240404,,,,,,,2023-03-01,1,,,,,グンジノウエン,0
1774,8080103002754,新規,0,2023-03-01,2023-03-01,合同会社未来志向Ｌａｂｏ,,合同会社,静岡県,富士市,下横割１７７番地の２２,,22,210,4160943,,,,,,,2023-03-01,1,,,,,ミライシコウラボ,0
1782,8110001037320,新規,0,2023-03-01,2023-03-01,株式会社Ｎｅｕｆ,,株式会社,新潟県,長岡市,中沢３丁目３５５番地６,,15,202,9400853,,,,,,,2023-03-01,1,,,,,ヌフ,0
1789,8120001252777,新規,0,2023-03-01,2023-03-01,康発株式会社,,株式会社,大阪府,大阪市都島区,御幸町１丁目５－２６朝日プラザ都島２－６０３号,,27,102,5340012,,,,,,,2023-03-01,1,,,,,コウハツ,0
1793,8120003023516,新規,0,2023-03-01,2023-03-01,ルソン合同会社,,合同会社,大阪府,大阪市東住吉区,南田辺１丁目８－４３－３０２号室,,27,121,5460033,,,,,,,2023-03-01,1,,,,,ルソン,0
1799,8120903004516,新規,0,2023-03-01,2023-03-01,ＫａｍｉｎｏＫａ合同会社,,合同会社,大阪府,箕面市,牧落１丁目１３番３号,,27,220,5620004,,,,,,,2023-03-01,1,,,,,カミノカ,0
1800,8120905006436,新規,0,2023-03-01,2023-03-01,特定非営利活動法人ＩＣＴサロン,,その他の設立登記法人,大阪府,吹田市,山手町３丁目１５番Ｂ－１１８号,,27,205,5640073,,,,,,,2023-03-01,1,,,,,アイシーティーサロン,0
1803,8130001073751,新規,0,2023-03-01,2023-03-01,同瀛株式会社,,株式会社,京都府,京都市北区,大北山原谷乾町４７－１０－２０７,,26,101,6038487,,,,,,,2023-03-01,1,,,,,ドウエイ,0
1805,8130003008549,新規,0,2023-03-01,2023-03-01,合同会社関西移動研究所,,合同会社,京都府,宇治市,宇治蔭山３０番地の１パデシオン宇治小倉７０３号,,26,204,6110021,,,,,,,2023-03-01,1,,,,,カンサイイドウケンキュウショ,0
1811,8140003018778,新規,0,2023-03-01,2023-03-01,ｂｌｕｅ　ｐｉｘｅｌ合同会社,,合同会社,兵庫県,西宮市,中須佐町３番１４－４０５号,,28,204,6620851,,,,,,,2023-03-01,1,,,,,ブルーピクセル,0
1819,8180001155116,新規,0,2023-03-01,2023-03-01,ＧｒａｎＶｉｌｌｅ株式会社,,株式会社,愛知県,名古屋市中区,丸の内３丁目１９番１号ライオン中駒ビル９０２,,23,106,4600002,,,,,,,2023-03-01,1,,,,,グランビル,0
1822,8180003024896,新規,0,2023-03-01,2023-03-01,桃源合同会社,,合同会社,愛知県,名古屋市東区,白壁３丁目１１番１５号１０３室,,23,102,4610011,,,,,,,2023-03-01,1,,,,,トウゲン,0
1825,8180301037138,新規,0,2023-03-01,2023-03-01,株式会社ヒロ,,株式会社,愛知県,豊川市,篠束町大堀１６４番地６,,23,207,4410102,,,,,,,2023-03-01,1,,,,,ヒロ,0
1827,8200001041008,新規,0,2023-03-01,2023-03-01,株式会社幸大,,株式会社,岐阜県,岐阜市,東鶉７丁目１１９番地１,,21,201,5008281,,,,,,,2023-03-01,1,,,,,コウダイ,0
1835,8240005015524,新規,0,2023-03-01,2023-03-01,医療法人社団青楓会,,その他の設立登記法人,広島県,広島市中区,宝町５番９号ウイング宝町ファイブ１階,,34,101,7300044,,,,,,,2023-03-01,1,,,,,セイフウカイ,0
1842,8290001100622,新規,0,2023-03-01,2023-03-01,株式会社富盛,,株式会社,福岡県,飯塚市,筑穂元吉５６０番地３７,,40,205,8200705,,,,,,,2023-03-01,1,,,,,トミモリ,0
1855,8360003012759,新規,0,2023-03-01,2023-03-01,ワークスサービスセンター合同会社,,合同会社,沖縄県,豊見城市,字座安２０８番２,,47,212,9010221,,,,,,,2023-03-01,1,,,,,ワークスサービスセンター,0
1878,8500001024782,新規,0,2023-03-01,2023-03-01,株式会社Ｔｏｐ　Ｒｕｎｎｅｒ,,株式会社,愛媛県,松山市,鷹子町９９６番地８,,38,201,7900925,,,,,,,2023-03-01,1,,,,,トップランナー,0
1879,8700150109827,新規,0,2023-03-01,2022-06-16,東宇治スポーツクラブ,,その他,京都府,宇治市,五ケ庄新開１３－７,,26,204,6110011,,,,,,,2022-06-16,1,,,,,ヒガシウジスポーツクラブ,0
1885,9010001233341,新規,0,2023-03-01,2023-03-01,株式会社ＨＯＤ,,株式会社,東京都,中央区,銀座１丁目２２番１１号銀座大竹ビジデンス２Ｆ,,13,102,1040061,,,,,,,2023-03-01,1,,,,,ホド,0
1886,9010001233358,新規,0,2023-03-01,2023-03-01,Ｎｏｒｔｈ　Ｌｉｇｈｔ株式会社,,株式会社,東京都,千代田区,神田神保町１丁目５２番１０号レオマックビルＩＩ２Ｆ,00129565,13,101,1010051,,,,,,,2023-03-01,1,,,,,ノースライト,0
1888,9010005036294,新規,0,2023-03-01,2023-03-01,一般社団法人ＫＬＦ３,,その他の設立登記法人,東京都,千代田区,内幸町２丁目１番６号,,13,101,1000011,,,,,,,2023-03-01,1,,,,,ケイエルエフスリー,0
1891,9010401172767,新規,0,2023-03-01,2023-03-01,株式会社ＰＣＧ,,株式会社,東京都,港区,赤坂６丁目４番１８号,,13,103,1070052,,,,,,,2023-03-01,1,,,,,ピーシージー,0
1892,9010403029619,新規,0,2023-03-01,2023-03-01,合同会社ＭａｒｕＭｏｔｏ,,合同会社,東京都,港区,浜松町２丁目２番１５号浜松町ダイヤビル２Ｆ,,13,103,1050013,,,,,,,2023-03-01,1,,,,,マルモト,0
1893,9010501050047,新規,0,2023-03-01,2023-03-01,株式会社ＣＣ商事,,株式会社,東京都,台東区,入谷２丁目８番２号,,13,106,1100013,,,,,,,2023-03-01,1,,,,,シーシーショウジ,0
1901,9010901052626,新規,0,2023-03-01,2023-03-01,株式会社シーエイト,,株式会社,東京都,世田谷区,用賀２丁目３３番１０号,,13,112,1580097,,,,,,,2023-03-01,1,,,,,シーエイト,0
1903,9011001152820,新規,0,2023-03-01,2023-03-01,ブリコラージュ株式会社,,株式会社,東京都,渋谷区,上原１丁目３－９,,13,113,1510064,,,,,,,2023-03-01,1,,,,,ブリコラージュ,0
1904,9011001152837,新規,0,2023-03-01,2023-03-01,ｃａｃａｎａｉ株式会社,,株式会社,東京都,渋谷区,道玄坂１丁目１０番８号渋谷道玄坂東急ビル２Ｆ－Ｃ,,13,113,1500043,,,,,,,2023-03-01,1,,,,,カカナイ,0
1915,9011101101982,新規,0,2023-03-01,2023-03-01,オンリード株式会社,,株式会社,東京都,新宿区,西新宿３丁目３番１３号西新宿水間ビル６階,,13,104,1600023,,,,,,,2023-03-01,1,,,,,オンリード,0
1917,9011201024448,新規,0,2023-03-01,2023-03-01,明杰株式会社,,株式会社,東京都,中野区,江古田４丁目２５番３号,,13,114,1650022,,,,,,,2023-03-01,1,,,,,メイケツ,0
1925,9012403005847,新規,0,2023-03-01,2023-03-01,合同会社東,,合同会社,東京都,多摩市,貝取１７６０番地の８,,13,224,2060012,,,,,,,2023-03-01,1,,,,,アズマ,0
1931,9013303006514,新規,0,2023-03-01,2023-03-01,合同会社きずなグループ和,,合同会社,東京都,豊島区,東池袋２丁目６２番８号ＢＩＧオフィスプラザ池袋１１Ｆ－１１０２,,13,116,1700013,,,,,,,2023-03-01,1,,,,,キズナグループナゴミ,0
1947,9030001152589,新規,0,2023-03-01,2023-03-01,株式会社村田解体,,株式会社,埼玉県,川口市,在家町１６番３２号,,11,203,3330863,,,,,,,2023-03-01,1,,,,,ムラタカイタイ,0
1948,9030001152606,新規,0,2023-03-01,2023-03-01,株式会社和浦酒場,,株式会社,埼玉県,さいたま市浦和区,仲町２丁目１７－５,,11,107,3300062,,,,,,,2023-03-01,1,,,,,ワウラサカバ,0
1950,9030003021263,新規,0,2023-03-01,2023-03-01,ＡＫＩＨＩＫＯ　ＮＫ合同会社,,合同会社,埼玉県,坂戸市,南町３４番７号ＫＩＶオフィス南町Ｅ号室,,11,239,3500233,,,,,,,2023-03-01,1,,,,,アキヒコエヌケイ,0
1951,9030003021271,新規,0,2023-03-01,2023-03-01,植療食学合同会社,,合同会社,埼玉県,越谷市,七佐町一丁目１４番１,,11,222,3430000,,,,,,,2023-03-01,1,,,,,ショクリョウショクガク,0
1956,9040001127227,新規,0,2023-03-01,2023-03-01,株式会社六華インシュアランス,,株式会社,千葉県,柏市,大島田４２３番地１,,12,217,2770922,,,,,,,2023-03-01,1,,,,,ロッカインシュアランス,0
1957,9040001127235,新規,0,2023-03-01,2023-03-01,株式会社ウェルシーフォレスト,,株式会社,千葉県,習志野市,本大久保１丁目１３番２７号,,12,216,2750012,,,,,,,2023-03-01,1,,,,,ウェルシーフォレスト,0
1958,9040001127251,新規,0,2023-03-01,2023-03-01,株式会社ＨＡＣＳ,,株式会社,千葉県,千葉市中央区,生実町１９７９番地８,,12,101,2600813,,,,,,,2023-03-01,1,,,,,エイチエーシーエス,0
1959,9040003022062,新規,0,2023-03-01,2023-03-01,ＫＨＡＮ　ＴＲＡＤＩＮＧ合同会社,,合同会社,千葉県,山武市,実門２１１番地１,,12,237,2891221,,,,,,,2023-03-01,1,,,,,カーントレーディング,0
1960,9040003022070,新規,0,2023-03-01,2023-03-01,合同会社エクセレント,,合同会社,千葉県,野田市,目吹１３２９番地の８１,,12,208,2780001,,,,,,,2023-03-01,1,,,,,エクセレント,0
1962,9050003007277,新規,0,2023-03-01,2023-03-01,合同会社グラスマウンテン,,合同会社,茨城県,笠間市,上郷９５０番地,,08,216,3190201,,,,,,,2023-03-01,1,,,,,グラスマウンテン,0
1981,9120001252710,新規,0,2023-03-01,2023-03-01,恒泉貿易株式会社,,株式会社,大阪府,大阪市城東区,鴫野西１丁目１３番７－３０１号,,27,118,5360014,,,,,,,2023-03-01,1,,,,,コウセンボウエキ,0
1982,9120001252784,新規,0,2023-03-01,2023-03-01,株式会社ＴＯＭＯＳＨ,,株式会社,大阪府,大阪市都島区,都島本通３丁目２７番１５号,,27,102,5340021,,,,,,,2023-03-01,1,,,,,トモシュ,0
1983,9120001252818,新規,0,2023-03-01,2023-03-01,未来森林株式会社,,株式会社,大阪府,大阪市淀川区,西宮原３丁目３番１号ビジネス第二ニッケンマンション６２０号室,,27,123,5320004,,,,,,,2023-03-01,1,,,,,ミライシンリン,0
1996,9130001073742,新規,0,2023-03-01,2023-03-01,株式会社ＡＭＫ,,株式会社,京都府,向日市,寺戸町八ノ坪１６１番地,,26,208,6170002,,,,,,,2023-03-01,1,,,,,エーエムケー,0
2011,9180001155131,新規,0,2023-03-01,2023-03-01,株式会社ＳＤＲ　ＪＡＰＡＮ,,株式会社,愛知県,名古屋市東区,徳川１丁目９０１番地サンエース徳川ビル８Ｆ８０４（ｋｅｎｃｈｉｋｕｍａｌｌ内）,,23,102,4610025,,,,,,,2023-03-01,1,,,,,エスディーアールジャパン,0
2016,9180003024895,新規,0,2023-03-01,2023-03-01,合同会社ＴＭ,,合同会社,愛知県,名古屋市緑区,鳴海町字丸内１７番地,,23,114,4580801,,,,,,,2023-03-01,1,,,,,ティーエム,0
2019,9200001040999,新規,0,2023-03-01,2023-03-01,覚建築株式会社,,株式会社,岐阜県,羽島市,竹鼻町狐穴１８５１番地５,,21,209,5016232,,,,,,,2023-03-01,1,,,,,サトルケンチク,0
2023,9200003005868,新規,0,2023-03-01,2023-03-01,合同会社ＳＣＸ,,合同会社,岐阜県,美濃加茂市,加茂川町１丁目４－２９サンワビル３Ｆ,,21,211,5050044,,,,,,,2023-03-01,1,,,,,エスシーエックス,0
2041,9290001100654,新規,0,2023-03-01,2023-03-01,福岡緑舎株式会社,,株式会社,福岡県,福岡市中央区,大濠２丁目１３番３８号９０１,,40,133,8100052,,,,,,,2023-03-01,1,,,,,フクオカリョクシャ,0
2045,9290801029317,新規,0,2023-03-01,2023-03-01,剛建株式会社,,株式会社,福岡県,北九州市門司区,大里新町９番１－３０３号,,40,101,8000057,,,,,,,2023-03-01,1,,,,,ゴウケン,0
2046,9300005007126,新規,0,2023-03-01,2023-03-01,一般社団法人Ｘ‐ＢＯＲＤＥＲ,,その他の設立登記法人,佐賀県,鳥栖市,儀徳町２２７６番地６,,41,203,8410066,,,,,,,2023-03-01,1,,,,,クロスボーダー,0
2056,9330001030632,新規,0,2023-03-01,2023-03-01,株式会社ＳＨＩＫＵＭＩ,,株式会社,熊本県,上益城郡嘉島町,大字鯰２８１０－２,,43,442,8613101,,,,,,,2023-03-01,1,,,,,シクミ,0
2064,9360001031628,新規,0,2023-03-01,2023-03-01,株式会社ノーイ,,株式会社,沖縄県,宮古島市,平良字東仲宗根７６５番地１、２０４,,47,214,9060007,,,,,,,2023-03-01,1,,,,,ノーイ,0
2070,9370001049644,新規,0,2023-03-01,2023-03-01,株式会社インクリーズ,,株式会社,宮城県,仙台市泉区,高森５丁目９番地の１３,,04,105,9813203,,,,,,,2023-03-01,1,,,,,インクリーズ,0
2071,9400001016161,新規,0,2023-03-01,2023-03-01,株式会社ほまれナーシング,,株式会社,岩手県,盛岡市,中堤町３０番４２号,,03,201,0200131,,,,,,,2023-03-01,1,,,,,ホマレナーシング,0
2080,9480005006944,新規,0,2023-03-01,2023-03-01,一般社団法人稀月,,その他の設立登記法人,徳島県,徳島市,下助任町１丁目３４番地１,,36,201,7700805,,,,,,,2023-03-01,1,,,,,キズキ,0
2081,9700150114553,新規,0,2023-03-01,2023-03-01,西オーストラリア州政府,,外国会社等,東京都,千代田区,内幸町１丁目１－１帝国ホテルタワー１４階,,13,101,1000011,Ｌｅｖｅｌ　１１，１　Ｗｉｌｌｉａｍ　ＳｔｒｅｅｔＰＥＲＴＨ　ＷＡ　６０００Ａｕｓｔｒａｌｉａ,,,,,,2023-03-01,1,,,,,ニシオーストラリアシユウセイフ,0
