sequenceNumber,corporateNumber,process,correct,updateDate,changeDate,name,nameImageId,kind,prefectureName,cityName,streetNumber,addressImageId,prefectureCode,cityCode,postCode,addressOutside,addressOutsideImageId,closeDate,closeCause,successorCorporateNumber,changeCause,assignmentDate,latest,enName,enPrefectureName,enCityName,enAddressOutside,furigana,hihyoji
6,1010001128912,登記記録の閉鎖等,0,2024-05-10,2024-04-24,株式会社ＨＹＳＹＳＴＥＭ,,株式会社,東京都,中央区,勝どき２丁目１８番１号テイジン黎明スカイレジテル１１０４号,,13,102,1040054,,,2024-04-24,清算の結了等,,,2015-10-05,1,,,,,,0
31,1010005034248,登記記録の閉鎖等,0,2024-05-10,2024-05-07,ＲＢソーラーハートホールディングス一般社団法人,,その他の設立登記法人,東京都,中央区,八丁堀４丁目２番１０号ＡＯＪ税理士法人内,,13,102,1040032,,,2024-05-07,清算の結了等,,,2021-11-24,1,,,,,アールビーソーラーハートホールディングス,0
54,1010603007935,登記記録の閉鎖等,0,2024-05-10,2024-05-01,鐘ヶ淵工房合同会社,,合同会社,東京都,墨田区,墨田３丁目４３番５－４０２号,,13,107,1310031,,,2024-05-01,清算の結了等,,,2019-08-05,1,,,,,カネガフチコウボウ,0
65,1010901002737,登記記録の閉鎖等,0,2024-05-10,2024-04-30,株式会社ガスショップ堀口,,株式会社,東京都,世田谷区,深沢５丁目６番１５号,,13,112,1580081,,,2024-04-30,清算の結了等,,,2015-10-05,1,,,,,ガスショップホリグチ,0
75,1011001005011,登記記録の閉鎖等,0,2024-05-10,2024-04-18,株式会社オスカー商事,,株式会社,東京都,港区,赤坂４丁目１５番１号赤坂ガーデンシティ１６階,,13,103,1070052,,,2024-04-18,清算の結了等,,,2015-10-05,1,,,,,オスカーショウジ,0
81,1011002002767,登記記録の閉鎖等,0,2024-05-10,2024-04-18,有限会社オフィスケイユナイテッド,,有限会社,東京都,渋谷区,東１丁目２０番２号,,13,113,1500011,,,2024-04-18,清算の結了等,,,2015-10-05,1,,,,,オフィスケイユナイテッド,0
98,1011403002903,登記記録の閉鎖等,0,2024-05-10,2024-05-02,合同会社Ｔｏｗａ　Ｅｘｐｒｅｓｓ,,合同会社,東京都,足立区,千住１丁目４番１号東京芸術センター１０階,,13,121,1200034,,,2024-05-02,清算の結了等,,,2020-01-29,1,,,,,トウワエクスプレス,0
99,1011501022571,登記記録の閉鎖等,0,2024-05-10,2024-04-18,株式会社ディーオーシャン,,株式会社,東京都,港区,虎ノ門１丁目１６番地６号虎ノ門ＲＡＰＯ－ＴＯビルＵＣＦ７Ｆ,,13,103,1050001,,,2024-04-18,清算の結了等,,,2017-04-25,1,,,,,ディーオーシャン,0
106,1011801038631,登記記録の閉鎖等,0,2024-05-10,2024-05-02,株式会社ラッキークローバー,,株式会社,東京都,台東区,上野６丁目８番１９号,,13,106,1100005,,,2024-05-02,清算の結了等,,,2021-01-13,1,,,,,ラッキークローバー,0
144,1030001038135,登記記録の閉鎖等,0,2024-05-10,2024-05-02,株式会社コスメ・プランニング,,株式会社,埼玉県,草加市,高砂２丁目１７番１２－７０７号,,11,221,3400015,,,2024-05-02,清算の結了等,,,2015-10-05,1,,,,,コスメプランニング,0
149,1030001079856,登記記録の閉鎖等,0,2024-05-10,2024-05-01,ベンチマークジャパン株式会社,,株式会社,埼玉県,川口市,末広１丁目１０番２０号,,11,203,3320006,,,2024-05-01,清算の結了等,,,2015-10-05,1,,,,,ベンチマークジャパン,0
159,1030003018993,登記記録の閉鎖等,0,2024-05-10,2024-05-02,合同会社ＫＫＳ,,合同会社,埼玉県,鶴ヶ島市,大字上広谷６０３番地２６,,11,241,3502203,,,2024-05-02,清算の結了等,,,2022-03-09,1,,,,,ケイケイエス,0
164,1040001027376,登記記録の閉鎖等,0,2024-05-10,2024-04-26,株式会社ビッグワン,,株式会社,千葉県,市川市,八幡３丁目１番７号,,12,203,2720021,,,2024-04-26,清算の結了等,,,2015-10-05,1,,,,,ビッグワン,0
165,1040001067125,登記記録の閉鎖等,0,2024-05-10,2024-04-24,加藤鋼板株式会社,,株式会社,千葉県,柏市,藤ケ谷５４４番８号,,12,217,2770931,,,2024-04-24,清算の結了等,,,2015-10-05,1,,,,,カトウコウハン,0
180,1070001001089,登記記録の閉鎖等,0,2024-05-10,2024-05-07,株式会社クリーンアップ,,株式会社,群馬県,前橋市,駒形町１１８３番地,,10,201,3792122,,,2024-05-07,清算の結了等,,,2015-10-05,1,,,,,クリーンアップ,0
230,1130001028943,登記記録の閉鎖等,0,2024-05-10,2024-05-01,株式会社國枝商店,,株式会社,京都府,京都市中京区,河原町通二条下る一之船入町５３８番地,,26,104,6040924,,,2024-05-01,合併による解散等,1130001023052,令和６年５月１日京都市中京区河原町通二条下る一之船入町５３８番地株式会社よーじや（1130001023052）に合併し解散,2015-10-05,1,,,,,クニエダショウテン,0
242,1140005021456,登記記録の閉鎖等,0,2024-05-10,2024-05-09,特定非営利活動法人エコキャッププラス,,その他の設立登記法人,兵庫県,高砂市,中筋５丁目２０番２４号,,28,216,6760812,,,2024-05-09,清算の結了等,,,2015-10-05,1,,,,,エコキャッププラス,0
261,1180302013417,登記記録の閉鎖等,0,2024-05-10,2024-04-30,有限会社セーヌ,,有限会社,愛知県,豊川市,豊川町波通１２番地１,,23,207,4420033,,,2024-04-30,清算の結了等,,,2015-10-05,1,,,,,セーヌ,0
271,1230001019247,登記記録の閉鎖等,0,2024-05-10,2024-05-01,株式会社Ｍドラッグ,,株式会社,富山県,富山市,五福２５８２番地４,,16,201,9300887,,,2024-05-01,合併による解散等,1230001016491,令和６年５月１日富山市五福２５８２番地４株式会社それいゆ（1230001016491）に合併し解散,2022-02-24,1,,,,,エムドラッグ,0
272,1230005003288,登記記録の閉鎖等,0,2024-05-10,2024-05-02,如来寺,,その他の設立登記法人,富山県,中新川郡立山町,松倉３３番地,,16,323,9303237,,,2024-05-02,清算の結了等,,,2015-10-05,1,,,,,ニョライジ,0
275,1250001003835,登記記録の閉鎖等,0,2024-05-10,2024-05-07,西部エンジニアリング株式会社,,株式会社,山口県,山陽小野田市,大字西沖５番地,,35,216,7560885,,,2024-05-07,合併による解散等,8010001067484,令和６年４月１日東京都千代田区神田美土代町７番地西部石油株式会社（8010001067484）に合併し解散,2015-10-05,1,,,,,セイブエンジニアリング,0
284,1270002007981,登記記録の閉鎖等,0,2024-05-10,2024-05-08,有限会社ミナト配送,,有限会社,鳥取県,境港市,上道町２３０３番地,,31,204,6840033,,,2024-05-08,清算の結了等,,,2015-10-05,1,,,,,,0
291,1290801005663,登記記録の閉鎖等,0,2024-05-10,2024-05-01,株式会社宝樹設計室,,株式会社,福岡県,北九州市門司区,上馬寄３丁目１０番１９号,,40,101,8000042,,,2024-05-01,清算の結了等,,,2015-10-05,1,,,,,ホウジュセッケイシツ,0
301,1310001001238,登記記録の閉鎖等,0,2024-05-10,2024-05-07,東洋防災工業株式会社,,株式会社,長崎県,長崎市,網場町５２２番地,,42,201,8510123,,,2024-05-07,清算の結了等,,,2015-10-05,1,,,,,トウヨウボウサイコウギョウ,0
306,1330002025787,登記記録の閉鎖等,0,2024-05-10,2024-05-08,有限会社ケミカル機工,,有限会社,熊本県,八代市,海士江町２２４２番地の１,,43,202,8660893,,,2024-05-08,清算の結了等,,,2015-10-05,1,,,,,ケミカルキコウ,0
311,1340002000681,登記記録の閉鎖等,0,2024-05-10,2024-04-25,有限会社弥生石材,,有限会社,鹿児島県,日置市,伊集院町野田２３８０番地１,,46,216,8992442,,,2024-04-25,清算の結了等,,,2015-10-05,1,,,,,ヤヨイセキザイ,0
320,1380002031731,登記記録の閉鎖等,0,2024-05-10,2024-05-02,有限会社黒田配管工業所,,有限会社,福島県,会津若松市,東年貢１丁目９番３３号,,07,202,9650839,,,2024-05-02,清算の結了等,,,2015-10-05,1,,,,,,0
324,1400502001628,登記記録の閉鎖等,0,2024-05-10,2024-04-25,有限会社ＫＥＮ,,有限会社,岩手県,一関市,赤荻字月町１８番地,,03,209,0210041,,,2024-04-25,清算の結了等,,,2015-10-05,1,,,,,ケン,0
332,1460102005998,登記記録の閉鎖等,0,2024-05-10,2024-05-01,有限会社Ｔ・Ｔ・Ｋ,,有限会社,北海道,河東郡鹿追町,西町３丁目３番地,,01,634,0810213,,,2024-05-01,合併による解散等,1460101003177,令和６年５月１日北海道河東郡鹿追町西町三丁目３番地株式会社道栄運輸（1460101003177）に合併し解散,2015-10-05,1,,,,,ティーティーケー,0
347,2010001126444,登記記録の閉鎖等,0,2024-05-10,2024-05-02,株式会社ＲＯＣＫ　ＷＡＴＥＲ　ＪＡＰＡＮ,,株式会社,東京都,中央区,日本橋室町１丁目１１番１４号,,13,102,1030022,,,2024-05-02,合併による解散等,9010603008991,令和６年５月１日東京都江東区東陽一丁目１２番７号合同会社いささか商店（9010603008991）に合併し解散,2015-10-05,1,,,,,ロックウォータージャパン,0
349,2010001139917,登記記録の閉鎖等,0,2024-05-10,2024-04-25,ファンビルド株式会社,,株式会社,東京都,中央区,勝どき１丁目８番１号,,13,102,1040054,,,2024-04-25,清算の結了等,,,2015-10-05,1,,,,,ファンビルド,0
391,2010901010417,登記記録の閉鎖等,0,2024-05-10,2024-04-22,株式会社ファッションエース,,株式会社,東京都,目黒区,八雲２丁目１０番１１号,,13,110,1520023,,,2024-04-22,清算の結了等,,,2015-10-05,1,,,,,ファッションエース,0
392,2010901024268,登記記録の閉鎖等,0,2024-05-10,2024-04-30,株式会社フナバシ,,株式会社,東京都,世田谷区,船橋１丁目１５番１６号,,13,112,1560055,,,2024-04-30,清算の結了等,,,2015-10-05,1,,,,,フナバシ,0
397,2010901032056,登記記録の閉鎖等,0,2024-05-10,2024-04-22,株式会社グランドサイドイノベーション,,株式会社,東京都,品川区,大崎５丁目７番１４号五反田ロイヤルハイツ１０４号室,,13,109,1410032,,,2024-04-22,清算の結了等,,,2015-10-05,1,,,,,,0
419,2011102014703,登記記録の閉鎖等,0,2024-05-10,2024-04-26,有限会社イマジン二十一,,有限会社,東京都,新宿区,百人町３丁目１番４－３０２号,,13,104,1690073,,,2024-04-26,清算の結了等,,,2015-10-05,1,,,,,イマジンニジュウイチ,0
422,2011301019544,登記記録の閉鎖等,0,2024-05-10,2024-04-26,株式会社グレニール,,株式会社,東京都,杉並区,荻窪１丁目５６番３４号,,13,115,1670051,,,2024-04-26,清算の結了等,,,2015-10-05,1,,,,,グレニール,0
442,2012401001648,登記記録の閉鎖等,0,2024-05-10,2024-05-01,ミドリ安全府中株式会社,,株式会社,東京都,府中市,新町１丁目５２番地の１,,13,206,1830052,,,2024-05-01,清算の結了等,,,2015-10-05,1,,,,,ミドリアンゼンフチュウ,0
460,2020002088674,登記記録の閉鎖等,0,2024-05-10,2024-04-30,有限会社カミーノ,,有限会社,神奈川県,川崎市高津区,下作延４丁目２７番５号,,14,134,2130033,,,2024-04-30,清算の結了等,,,2015-10-05,1,,,,,カミーノ,0
463,2020005011047,登記記録の閉鎖等,0,2024-05-10,2024-04-26,一般社団法人ＪＡＣ新鋭の匠,,その他の設立登記法人,神奈川県,横浜市中区,花咲町２丁目６６,,14,104,2310063,,,2024-04-26,清算の結了等,,,2015-10-05,1,,,,,ジャックシンエイノタクミ,0
464,2021001005538,登記記録の閉鎖等,0,2024-05-10,2024-04-26,株式会社湘南総合企画,,株式会社,神奈川県,綾瀬市,上土棚中６丁目１番５号,,14,218,2521113,,,2024-04-26,清算の結了等,,,2015-10-05,1,,,,,ショウナンソウゴウキカク,0
466,2021001071019,登記記録の閉鎖等,0,2024-05-10,2024-05-07,ＡＫｃｏｎｓｕｌｔｉｎｇ株式会社,,株式会社,神奈川県,大和市,つきみ野２丁目２番地２３号進せい館２０２号,,14,213,2420002,,,2024-05-07,清算の結了等,,,2020-10-12,1,,,,,エーケーコンサルティング,0
468,2021002024743,登記記録の閉鎖等,0,2024-05-10,2024-05-08,有限会社宗孝工業,,有限会社,神奈川県,相模原市中央区,水郷田名２丁目１７番３２号,,14,152,2520246,,,2024-05-08,清算の結了等,,,2015-10-05,1,,,,,ソウコウコウギョウ,0
495,2030003019388,登記記録の閉鎖等,0,2024-05-10,2024-05-01,合同会社天佑,,合同会社,埼玉県,川口市,芝中田１丁目２３番１３号クリアハウス川口２０２号室,,11,203,3330847,,,2024-05-01,清算の結了等,,,2022-05-11,1,,,,,テンユウ,0
507,2040002018349,登記記録の閉鎖等,0,2024-05-10,2024-04-24,有限会社三協ドライセンター,,有限会社,千葉県,習志野市,東習志野２丁目２０番２号,,12,216,2750001,,,2024-04-24,清算の結了等,,,2015-10-05,1,,,,,サンキョウドライセンター,0
533,2080401022591,登記記録の閉鎖等,0,2024-05-10,2024-05-08,孫の手サービス株式会社,,株式会社,静岡県,浜松市中央区,渡瀬町２９番地の４,,22,138,4350036,,,2024-05-08,清算の結了等,,,2017-12-06,1,,,,,マゴノテサービス,0
540,2100005001205,登記記録の閉鎖等,0,2024-05-10,2024-04-22,若穂有線放送電話農業協同組合,,その他の設立登記法人,長野県,長野市,若穂綿内７７３０番地,,20,201,3810101,,,2024-04-22,清算の結了等,,,2015-10-05,1,,,,,ワカホユウセンホウソウデンワ,0
559,2120002014554,登記記録の閉鎖等,0,2024-05-10,2024-05-08,有限会社遠藤モータープール,,有限会社,大阪府,大阪市大正区,三軒家西２丁目１番２３号,,27,108,5510001,,,2024-05-08,清算の結了等,,,2015-10-05,1,,,,,エンドウモータープール,0
573,2130001006460,登記記録の閉鎖等,0,2024-05-10,2024-05-08,株式会社ザコトラ商店,,株式会社,京都府,京都市左京区,仁王門通新麩屋町西入大菊町１０２番地,,26,103,6068376,,,2024-05-08,清算の結了等,,,2015-10-05,1,,,,,ザコトラショウテン,0
583,2140001089125,登記記録の閉鎖等,0,2024-05-10,2024-05-07,サンフォレスト株式会社,,株式会社,兵庫県,神戸市中央区,北長狭通５丁目５番１８号,,28,110,6500012,,,2024-05-07,清算の結了等,,,2015-10-05,1,,,,,サンフォレスト,0
594,2180001066830,登記記録の閉鎖等,0,2024-05-10,2024-04-30,工藤建設株式会社,,株式会社,愛知県,日進市,藤島町前田１５２番地１,,23,230,4700102,,,2024-04-30,清算の結了等,,,2015-10-05,1,,,,,クドウケンセツ,0
616,2190001025034,登記記録の閉鎖等,0,2024-05-10,2024-05-07,井上食料品株式会社,,株式会社,三重県,桑名市,今中町３２番地,,24,205,5110018,,,2024-05-07,清算の結了等,,,2017-11-20,1,,,,,イノウエショクリョウヒン,0
630,2240002008263,登記記録の閉鎖等,0,2024-05-10,2024-05-01,有限会社神和熱処理,,有限会社,広島県,広島市安佐北区,小河原町長崎２０９番の１,,34,106,7391754,,,2024-05-01,合併による解散等,8240001032770,令和６年５月１日広島県福山市箕島町６２８０番地１福山熱煉工業株式会社（8240001032770）に合併し解散,2015-10-05,1,,,,,シンワネツショリ,0
649,2290002009983,登記記録の閉鎖等,0,2024-05-10,2024-04-12,有限会社オーアールエヌ,,有限会社,福岡県,福岡市中央区,天神５丁目５番８号,,40,133,8100001,,,2024-04-12,清算の結了等,,,2015-10-05,1,,,,,オーアールエヌ,0
650,2290002012228,登記記録の閉鎖等,0,2024-05-10,2024-05-01,有限会社西日本トラベル予約センター,,有限会社,福岡県,福岡市西区,福重５丁目９－８,,40,135,8190022,,,2024-05-01,清算の結了等,,,2015-10-05,1,,,,,ニシニホントラベルヨヤクセンター,0
657,2300001012474,登記記録の閉鎖等,0,2024-05-10,2024-05-07,株式会社萬屋亀助,,株式会社,佐賀県,唐津市,材木町２０８１番地１,,41,202,8470061,,,2024-05-07,清算の結了等,,,2021-05-11,1,,,,,ヨロズヤキスケ,0
668,2340002007899,登記記録の閉鎖等,0,2024-05-10,2024-05-01,有限会社東畳商店,,有限会社,鹿児島県,鹿児島市,上荒田町７番２号,,46,201,8900055,,,2024-05-01,清算の結了等,,,2015-10-05,1,,,,,ヒガシタタミショウテン,0
696,2430005011831,登記記録の閉鎖等,0,2024-05-10,2024-04-30,特定非営利活動法人アラジン,,その他の設立登記法人,北海道,札幌市中央区,南四条西１０丁目１００４－５,,01,101,0640804,,,2024-04-30,清算の結了等,,,2015-10-05,1,,,,,アラジン,0
698,2450002000158,登記記録の閉鎖等,0,2024-05-10,2024-05-02,有限会社安保建設,,有限会社,北海道,上川郡当麻町,三条西４丁目１５番８号,,01,454,0781303,,,2024-05-02,清算の結了等,,,2015-10-05,1,,,,,アンポケンセツ,0
758,3010701027148,登記記録の閉鎖等,0,2024-05-10,2024-04-24,株式会社ＬＦＳ,,株式会社,東京都,品川区,東五反田１丁目１２番１３号３Ｆ,,13,109,1410022,,,2024-04-24,清算の結了等,,,2015-10-05,1,,,,,エルエフエス,0
787,3011102009669,登記記録の閉鎖等,0,2024-05-10,2024-04-30,有限会社梅寿司,,有限会社,東京都,新宿区,荒木町１番地２２四谷マンション５０２号室,,13,104,1600007,,,2024-04-30,清算の結了等,,,2015-10-05,1,,,,,ウメスシ,0
801,3012801009950,登記記録の閉鎖等,0,2024-05-10,2024-04-30,株式会社昭島,,株式会社,東京都,昭島市,福島町３丁目１番２号,,13,207,1960031,,,2024-04-30,清算の結了等,,,2015-10-05,1,,,,,アキシマ,0
804,3013301019787,登記記録の閉鎖等,0,2024-05-10,2024-04-26,ディーディーエヌ株式会社,,株式会社,東京都,豊島区,南大塚３丁目３０番３号,,13,116,1700005,,,2024-04-26,清算の結了等,,,2015-10-05,1,,,,,,0
839,3030001121533,登記記録の閉鎖等,0,2024-05-10,2024-04-25,植物工場光源・栽培研究株式会社,,株式会社,埼玉県,秩父市,みどりが丘７０番地,,11,207,3680067,,,2024-04-25,清算の結了等,,,2017-08-02,1,,,,,ショクブツコウジョウコウゲンサイバイケンキュウ,0
848,3030003019148,登記記録の閉鎖等,0,2024-05-10,2024-05-07,合同会社ＹＵＭＥ,,合同会社,埼玉県,春日部市,上蛭田４５２番地６,,11,214,3440046,,,2024-05-07,清算の結了等,,,2022-04-06,1,,,,,ユメ,0
851,3030005015970,登記記録の閉鎖等,0,2024-05-10,2024-05-01,税理士法人東武会計センター,,その他の設立登記法人,埼玉県,草加市,谷塚１丁目２番４３－２０５号,,11,221,3400028,,,2024-05-01,清算の結了等,,,2015-10-05,1,,,,,トウブカイケイセンター,0
872,3060001014189,登記記録の閉鎖等,0,2024-05-10,2024-05-02,株式会社セントラルガスセンター,,株式会社,栃木県,小山市,花垣町２丁目１１番２２号,,09,208,3230027,,,2024-05-02,合併による解散等,3030001007690,令和６年４月１日埼玉県さいたま市中央区大字下落合１０７１番地２株式会社ホームエネルギー首都圏（3030001007690）に合併し解散,2015-10-05,1,,,,,セントラルガスセンター,0
876,3060003002497,登記記録の閉鎖等,0,2024-05-10,2024-04-30,合同会社ワイズベリー,,合同会社,栃木県,真岡市,西田井３０４７番地２,,09,209,3214301,,,2024-04-30,清算の結了等,,,2017-02-22,1,,,,,ワイズベリー,0
877,3070001003273,登記記録の閉鎖等,0,2024-05-10,2024-05-02,株式会社トータルライフネット,,株式会社,群馬県,前橋市,大友町１丁目３番地の１４,,10,201,3710847,,,2024-05-02,合併による解散等,6010901035567,令和６年４月１日東京都世田谷区砧二丁目４番３号株式会社ひまわりコーポレーション（6010901035567）に合併し解散,2015-10-05,1,,,,,トータルライフネット,0
882,3080001020714,登記記録の閉鎖等,0,2024-05-10,2024-05-01,株式会社ＣＳＤ,,株式会社,静岡県,静岡市清水区,新富町１２番１５号,,22,103,4240833,,,2024-05-01,清算の結了等,,,2016-01-21,1,,,,,シーエスディー,0
919,3120101054756,登記記録の閉鎖等,0,2024-05-10,2024-04-30,株式会社ひらき,,株式会社,大阪府,堺市堺区,海山町５丁１８４番地２,,27,141,5900982,,,2024-04-30,清算の結了等,,,2016-05-11,1,,,,,ヒラキ,0
923,3120902008935,登記記録の閉鎖等,0,2024-05-10,2024-05-07,トモエ金物有限会社,,有限会社,大阪府,摂津市,鳥飼上２丁目２番２８号,,27,224,5660062,,,2024-05-07,清算の結了等,,,2015-10-05,1,,,,,トモエカナモノ,0
938,3140002031935,登記記録の閉鎖等,0,2024-05-10,2024-05-08,有限会社龍野食糧,,有限会社,兵庫県,たつの市,龍野町富永２００番地の２,,28,229,6794167,,,2024-05-08,清算の結了等,,,2015-10-05,1,,,,,タツノショクリョウ,0
939,3140002042395,登記記録の閉鎖等,0,2024-05-10,2024-05-07,有限会社フジカワ,,有限会社,兵庫県,尼崎市,長洲西通１丁目１番２２号,,28,202,6600807,,,2024-05-07,清算の結了等,,,2015-10-05,1,,,,,フジカワ,0
956,3180003010026,登記記録の閉鎖等,0,2024-05-10,2024-04-30,合資会社三昇製菓,,合資会社,愛知県,春日井市,桃山町３１４０番地の３,,23,206,4860802,,,2024-04-30,清算の結了等,,,2015-10-05,1,,,,,サンショウセイカ,0
966,3190002009398,登記記録の閉鎖等,0,2024-05-10,2024-05-02,日宝産業有限会社,,有限会社,三重県,伊勢市,一之木２丁目１２番１０号,,24,203,5160071,,,2024-05-02,清算の結了等,,,2015-10-05,1,,,,,ニッポウサンギョウ,0
989,3260002010407,登記記録の閉鎖等,0,2024-05-10,2024-04-30,有限会社ユアサ冷暖房,,有限会社,岡山県,岡山市中区,福泊４９番地の４,,33,102,7038262,,,2024-04-30,清算の結了等,,,2015-10-05,1,,,,,ユアサレイダンボウ,0
990,3260002016734,登記記録の閉鎖等,0,2024-05-10,2024-04-26,有限会社栄善工業,,有限会社,岡山県,倉敷市,真備町妹１４１１番地,,33,202,7101303,,,2024-04-26,清算の結了等,,,2015-10-05,1,,,,,エイゼンコウギョウ,0
991,3270002006890,登記記録の閉鎖等,0,2024-05-10,2024-05-02,有限会社不動産センター・マルダイ,,有限会社,鳥取県,米子市,西福原２丁目５番２号,,31,202,6830805,,,2024-05-02,清算の結了等,,,2015-10-05,1,,,,,フドウサンセンターマルダイ,0
996,3290003014387,登記記録の閉鎖等,0,2024-05-10,2024-04-11,合同会社ＧＡＬＥ　ＳＭＩＬＥ,,合同会社,福岡県,福岡市博多区,東那珂３丁目１１番３９－４０５号エクレール博多南ＩＩ,00132016,40,132,8120892,,,2024-04-11,清算の結了等,,,2023-09-25,1,,,,,ゲイルスマイル,0
1000,3300002000130,登記記録の閉鎖等,0,2024-05-10,2024-05-09,有限会社大塚石材,,有限会社,佐賀県,佐賀市,久保泉町大字下和泉５９１番地,,41,201,8490903,,,2024-05-09,清算の結了等,,,2015-10-05,1,,,,,オオツカセキザイ,0
1008,3330005009455,登記記録の閉鎖等,0,2024-05-10,2024-05-08,一般社団法人日本よもぎ協会,,その他の設立登記法人,熊本県,熊本市北区,植木町豊田８１４番地１,,43,105,8610106,,,2024-05-08,清算の結了等,,,2016-04-20,1,,,,,ニホンヨモギキョウカイ,0
1018,3370002020659,登記記録の閉鎖等,0,2024-05-10,2024-04-30,有限会社和賀整備,,有限会社,宮城県,黒川郡大衡村,駒場字彦右衛門橋１６９番地,,04,424,9813604,,,2024-04-30,清算の結了等,,,2015-10-05,1,,,,,ワガセイビ,0
1036,3430001072042,登記記録の閉鎖等,0,2024-05-10,2024-05-09,株式会社ＳＮＭ,,株式会社,北海道,室蘭市,中島町３丁目３７番１４号,,01,205,0500074,,,2024-05-09,清算の結了等,,,2016-07-28,1,,,,,エスエヌエム,0
1043,3450002007243,登記記録の閉鎖等,0,2024-05-10,2024-05-07,有限会社ぞう,,有限会社,北海道,旭川市,末広一条１３丁目２番１０号,,01,204,0718131,,,2024-05-07,清算の結了等,,,2015-10-05,1,,,,,ゾウ,0
1046,3480002001763,登記記録の閉鎖等,0,2024-05-10,2024-05-08,近藤食品有限会社,,有限会社,徳島県,徳島市,福島１丁目７番１号,,36,201,7700868,,,2024-05-08,清算の結了等,,,2015-10-05,1,,,,,コンドウショクヒン,0
1053,4010001081621,登記記録の閉鎖等,0,2024-05-10,2024-05-01,株式会社ギフティッド,,株式会社,埼玉県,志木市,本町３丁目１３番３６号,,11,228,3530004,,,2024-05-01,清算の結了等,,,2015-10-05,1,,,,,ギフティッド,0
1054,4010001102583,登記記録の閉鎖等,0,2024-05-10,2024-04-23,ＤＬＡ　Ｐｉｐｅｒ　Ｊａｐａｎ　Ｓｅｒｖｉｃｅｓ株式会社,,株式会社,東京都,千代田区,丸の内２丁目１番１号明治生命館,,13,101,1000005,,,2024-04-23,清算の結了等,,,2015-10-05,1,,,,,ディーエルエイパイパージャパンサービシーズ,0
1120,4011101031912,登記記録の閉鎖等,0,2024-05-10,2024-05-01,ファーストビルマネージメント株式会社,,株式会社,東京都,江東区,豊洲４丁目１０番４－９２５号,,13,108,1350061,,,2024-05-01,清算の結了等,,,2015-10-05,1,,,,,ファーストビルマネージメント,0
1129,4011402018939,登記記録の閉鎖等,0,2024-05-10,2024-04-30,有限会社ミユキ電設工業,,有限会社,東京都,板橋区,赤塚４丁目３９番１７号アネックスＤＳ１０２,00066448,13,119,1750092,,,2024-04-30,清算の結了等,,,2015-10-05,1,,,,,,0
1130,4011502004129,登記記録の閉鎖等,0,2024-05-10,2024-05-08,有限会社道学草舎,,有限会社,東京都,北区,田端新町３丁目２９番１２号,,13,117,1140012,,,2024-05-08,合併による解散等,3011501019789,令和６年４月３０日東京都江東区豊洲六丁目２番２９号株式会社ｐｌａｉｚｅ（3011501019789）に合併し解散,2015-10-05,1,,,,,ドウガクソウシャ,0
1144,4013301019786,登記記録の閉鎖等,0,2024-05-10,2024-04-26,株式会社ミリオン,,株式会社,東京都,豊島区,南大塚３丁目３０番３号,,13,116,1700005,,,2024-04-26,清算の結了等,,,2015-10-05,1,,,,,,0
1145,4013301029892,登記記録の閉鎖等,0,2024-05-10,2024-04-26,ＤＤＮソリューション株式会社,,株式会社,東京都,豊島区,南大塚３丁目３０番３号,,13,116,1700005,,,2024-04-26,清算の結了等,,,2015-10-05,1,,,,,,0
1146,4020001074590,登記記録の閉鎖等,0,2024-05-10,2024-04-30,マルヤス食器株式会社,,株式会社,神奈川県,川崎市川崎区,東田町１０番地１１,,14,131,2100005,,,2024-04-30,清算の結了等,,,2015-10-05,1,,,,,マルヤスショッキ,0
1154,4020003021756,登記記録の閉鎖等,0,2024-05-10,2024-05-01,合同会社アイデアル,,合同会社,神奈川県,横浜市鶴見区,鶴見中央１丁目２１番１１号ニックハイム鶴見渡辺ビル第１－９０４,,14,101,2300051,,,2024-05-01,清算の結了等,,,2022-05-11,1,,,,,アイデアル,0
1159,4021001080232,登記記録の閉鎖等,0,2024-05-10,2024-04-30,株式会社ＢＬＵＥ　ＯＣＥＡＮ,,株式会社,神奈川県,横須賀市,ハイランド５丁目３番８号,,14,201,2390833,,,2024-04-30,清算の結了等,,,2023-09-19,1,,,,,ブルーオーシャン,0
1164,4030001026938,登記記録の閉鎖等,0,2024-05-10,2024-05-02,株式会社サイキョウ,,株式会社,埼玉県,入間市,大字上藤沢６３７番地１,,11,225,3580013,,,2024-05-02,清算の結了等,,,2015-10-05,1,,,,,サイキョウ,0
1166,4030001049014,登記記録の閉鎖等,0,2024-05-10,2024-05-02,Ｔｏｍｏ株式会社,,株式会社,埼玉県,朝霞市,溝沼６丁目５番１３－５０２号,,11,227,3510023,,,2024-05-02,清算の結了等,,,2015-10-05,1,,,,,,0
1167,4030001096270,登記記録の閉鎖等,0,2024-05-10,2024-05-01,株式会社Ｄｉｃｃ,,株式会社,埼玉県,川越市,大字的場１１１８番地６,,11,201,3501101,,,2024-05-01,清算の結了等,,,2015-10-05,1,,,,,ディック,0
1171,4030001111517,登記記録の閉鎖等,0,2024-05-10,2024-05-01,オリーブライフ株式会社,,株式会社,埼玉県,さいたま市中央区,新都心１１番地２ランド・アクシス・タワー１３階,,11,105,3300081,,,2024-05-01,合併による解散等,7030001008396,令和６年５月１日埼玉県さいたま市中央区新都心１１番地２ランド・アクシス・タワー２９階メディカル・ケア・サービス株式会社（7030001008396）に合併し解散,2015-11-25,1,,,,,オリーブライフ,0
1180,4030002070646,登記記録の閉鎖等,0,2024-05-10,2024-04-26,有限会社千葉電気商会,,有限会社,埼玉県,南埼玉郡宮代町,大字国納２５６番地５,,11,442,3450834,,,2024-04-26,清算の結了等,,,2015-10-05,1,,,,,チバデンキショウカイ,0
1182,4030003013199,登記記録の閉鎖等,0,2024-05-10,2024-05-02,Ａｃｆ．ｆａｒｍ合同会社,,合同会社,埼玉県,比企郡鳩山町,大字奥田２８７番地１,,11,348,3500301,,,2024-05-02,清算の結了等,,,2019-03-06,1,,,,,エーシーエフファーム,0
1203,4050002012381,登記記録の閉鎖等,0,2024-05-10,2024-05-02,有限会社柳屋茶舗,,有限会社,茨城県,土浦市,大町９番１号,,08,203,3000038,,,2024-05-02,清算の結了等,,,2015-10-05,1,,,,,ヤナギヤチャホ,0
1204,4060001006078,登記記録の閉鎖等,0,2024-05-10,2024-05-01,長尾レース株式会社,,株式会社,栃木県,さくら市,氏家３５１９番地４４,,09,214,3291311,,,2024-05-01,清算の結了等,,,2015-10-05,1,,,,,ナガオレース,0
1208,4080002015183,登記記録の閉鎖等,0,2024-05-10,2024-05-01,有限会社大昌,,有限会社,静岡県,牧之原市,静波２３０３番地の１,,22,226,4210422,,,2024-05-01,清算の結了等,,,2015-10-05,1,,,,,ダイショウ,0
1217,4090001002982,登記記録の閉鎖等,0,2024-05-10,2024-05-07,星野工業株式会社,,株式会社,山梨県,中央市,極楽寺９９０番地,,19,214,4093811,,,2024-05-07,清算の結了等,,,2015-10-05,1,,,,,ホシノコウギョウ,0
1218,4090001010960,登記記録の閉鎖等,0,2024-05-10,2024-05-02,株式会社マウント富士運搬,,株式会社,山梨県,富士吉田市,上吉田７丁目１３番１５号,,19,202,4030005,,,2024-05-02,清算の結了等,,,2015-10-05,1,,,,,マウントフジウンパン,0
1244,4120002000156,登記記録の閉鎖等,0,2024-05-10,2024-05-07,有限会社エス、ティ、トーア,,有限会社,大阪府,大阪市旭区,森小路２丁目１４番１９号,,27,117,5350013,,,2024-05-07,清算の結了等,,,2015-10-05,1,,,,,エスティトーア,0
1257,4122001036734,登記記録の閉鎖等,0,2024-05-10,2024-05-02,株式会社ヒトテマ,,株式会社,大阪府,八尾市,南木の本９丁目１２１番３号,,27,212,5810042,,,2024-05-02,清算の結了等,,,2023-03-02,1,,,,,ヒトテマ,0
1266,4130003003611,登記記録の閉鎖等,0,2024-05-10,2024-05-08,合同会社竹安,,合同会社,京都府,京都市左京区,下鴨松ノ木町４番地９,,26,103,6060816,,,2024-05-08,清算の結了等,,,2015-10-05,1,,,,,タケヤス,0
1272,4150003001893,登記記録の閉鎖等,0,2024-05-10,2024-05-08,ライトビーム合同会社,,合同会社,奈良県,奈良市,学園緑ヶ丘１丁目７番１号,,29,201,6310026,,,2024-05-08,清算の結了等,,,2019-02-18,1,,,,,ライトビーム,0
1283,4180003020932,登記記録の閉鎖等,0,2024-05-10,2024-04-25,合同会社ツクリエ,,合同会社,愛知県,名古屋市名東区,高間町４４９番地の４,,23,115,4650081,,,2024-04-25,清算の結了等,,,2020-03-10,1,,,,,ツクリエ,0
1287,4180301016302,登記記録の閉鎖等,0,2024-05-10,2024-05-01,株式会社大島鉄工,,株式会社,愛知県,安城市,二本木新町１丁目２番地２,,23,212,4460075,,,2024-05-01,清算の結了等,,,2015-10-05,1,,,,,オオシマテッコウ,0
1291,4190002005636,登記記録の閉鎖等,0,2024-05-10,2024-05-02,有限会社イーストアンドウエスト,,有限会社,三重県,北牟婁郡紀北町,東長島３４７７番地,,24,543,5193204,,,2024-05-02,清算の結了等,,,2015-10-05,1,,,,,イーストアンドウエスト,0
1292,4200001004050,登記記録の閉鎖等,0,2024-05-10,2024-05-08,日信産業株式会社,,株式会社,岐阜県,岐阜市,西改田村前３番１,,21,201,5011166,,,2024-05-08,清算の結了等,,,2015-10-05,1,,,,,ニッシンサンギョウ,0
1293,4210001009313,登記記録の閉鎖等,0,2024-05-10,2024-05-07,株式会社プラスエフ,,株式会社,福井県,福井市,三ツ屋１丁目６１７番地,,18,201,9100038,,,2024-05-07,清算の結了等,,,2015-10-05,1,,,,,プラスエフ,0
1296,4210002011615,登記記録の閉鎖等,0,2024-05-10,2024-05-08,有限会社クリエイト,,有限会社,福井県,越前市,大虫町第７８号７番地,,18,209,9150885,,,2024-05-08,清算の結了等,,,2015-10-05,1,,,,,クリエイト,0
1301,4240002000961,登記記録の閉鎖等,0,2024-05-10,2024-05-08,有限会社アルファータッチ,,有限会社,広島県,広島市南区,宇品海岸２丁目１番２４－３号,,34,103,7340011,,,2024-05-08,清算の結了等,,,2015-10-05,1,,,,,アルファータッチ,0
1320,4290002048253,登記記録の閉鎖等,0,2024-05-10,2024-04-11,有限会社ダイワ薬品,,有限会社,福岡県,久留米市,青峰２丁目１８番５号,,40,203,8390853,,,2024-04-11,清算の結了等,,,2015-10-05,1,,,,,ダイワヤクヒン,0
1331,4320003003682,登記記録の閉鎖等,0,2024-05-10,2024-05-02,合同会社ライズ,,合同会社,東京都,台東区,上野６丁目８番１９号,,13,106,1100005,,,2024-05-02,清算の結了等,,,2021-12-28,1,,,,,ライズ,0
1337,4330002019761,登記記録の閉鎖等,0,2024-05-10,2024-05-07,有限会社塚本建設,,有限会社,熊本県,上益城郡甲佐町,大字早川１７１１番地,,43,444,8613241,,,2024-05-07,清算の結了等,,,2015-10-05,1,,,,,ツカモトケンセツ,0
1338,4330003007625,登記記録の閉鎖等,0,2024-05-10,2024-05-07,合同会社西輝ベース工業,,合同会社,熊本県,玉名市,大倉１３２６番地１,,43,206,8650023,,,2024-05-07,清算の結了等,,,2018-09-06,1,,,,,セイキベースコウギョウ,0
1356,4370302001622,登記記録の閉鎖等,0,2024-05-10,2024-04-26,有限会社津野ファーム,,有限会社,宮城県,東松島市,大塩字角柄５８番地,,04,214,9810505,,,2024-04-26,清算の結了等,,,2015-10-05,1,,,,,ツノファーム,0
1365,4400602001608,登記記録の閉鎖等,0,2024-05-10,2024-04-25,有限会社信スパイラル,,有限会社,岩手県,奥州市,江刺南大通り７番３０号,,03,215,0231112,,,2024-04-25,清算の結了等,,,2015-10-05,1,,,,,マコトスパイラル,0
1379,4450002007746,登記記録の閉鎖等,0,2024-05-10,2024-05-07,有限会社北井ビジネス,,有限会社,北海道,雨竜郡沼田町,旭町２丁目２番１９号,,01,438,0782201,,,2024-05-07,清算の結了等,,,2015-10-05,1,,,,,,0
1382,4490002002181,登記記録の閉鎖等,0,2024-05-10,2024-05-08,有限会社阪口建設,,有限会社,高知県,高知市,葛島４丁目１１番２号,,39,201,7818121,,,2024-05-08,清算の結了等,,,2015-10-05,1,,,,,サカグチケンセツ,0
1392,5010001098185,登記記録の閉鎖等,0,2024-05-10,2024-04-24,株式会社イン・ソリューションズ,,株式会社,東京都,文京区,本郷１丁目１４番６号,,13,105,1130033,,,2024-04-24,清算の結了等,,,2015-10-05,1,,,,,インソリューションズ,0
1409,5010005034070,登記記録の閉鎖等,0,2024-05-10,2024-05-09,一般社団法人ＤＳＢ－８,,その他の設立登記法人,東京都,千代田区,丸の内３丁目１番１号東京共同会計事務所内,,13,101,1000005,,,2024-05-09,清算の結了等,,,2021-10-13,1,,,,,ディーエスビーエイト,0
1428,5010701017287,登記記録の閉鎖等,0,2024-05-10,2024-04-22,株式会社ビバック,,株式会社,東京都,品川区,旗の台２丁目１番６号ｆｆｆビル３Ｆ,,13,109,1420064,,,2024-04-22,清算の結了等,,,2015-10-05,1,"VivaC Co., Ltd.",Tokyo,"3F fff Bldg., 2-1-6 Hatanodai, Shinagawa-ku",,,0
1432,5010901028893,登記記録の閉鎖等,0,2024-05-10,2024-04-30,株式会社メディカルオピニオン,,株式会社,東京都,杉並区,高井戸西２丁目６番６号,,13,115,1680071,,,2024-04-30,清算の結了等,,,2015-10-05,1,,,,,メディカルオピニオン,0
1455,5011105006760,登記記録の閉鎖等,0,2024-05-10,2024-05-08,一般社団法人芦屋ホールディングス,,その他の設立登記法人,東京都,千代田区,大手町２丁目２番２号アーバンネット大手町ビル,,13,101,1000004,,,2024-05-08,清算の結了等,,,2015-10-05,1,,,,,アシヤホールディングス,0
1473,5013201010299,登記記録の閉鎖等,0,2024-05-10,2024-04-22,株式会社寺島鑑定システム,,株式会社,東京都,目黒区,鷹番３丁目４番１８号八木ビル２階,,13,110,1520004,,,2024-04-22,清算の結了等,,,2015-10-05,1,,,,,テラシマカンテイシステム,0
1483,5020001135623,登記記録の閉鎖等,0,2024-05-10,2024-04-26,株式会社ニッコ,,株式会社,神奈川県,川崎市川崎区,駅前本町１８番１号メルスサイトー７０２,,14,131,2100007,,,2024-04-26,清算の結了等,,,2020-04-03,1,,,,,ニッコ,0
1486,5020002028215,登記記録の閉鎖等,0,2024-05-10,2024-04-26,有限会社丸柳商店,,有限会社,神奈川県,横浜市神奈川区,山内町１番地の１,,14,102,2210054,,,2024-04-26,清算の結了等,,,2015-10-05,1,,,,,マルヤナギショウテン,0
1521,5040002030573,登記記録の閉鎖等,0,2024-05-10,2024-04-24,有限会社ライン,,有限会社,千葉県,佐倉市,青菅字新山９７０番地２,,12,212,2850852,,,2024-04-24,清算の結了等,,,2015-10-05,1,,,,,ライン,0
1523,5040002067624,登記記録の閉鎖等,0,2024-05-10,2024-04-24,有限会社フジサワ,,有限会社,千葉県,木更津市,清見台２丁目１番９号,,12,206,2920045,,,2024-04-24,清算の結了等,,,2015-10-05,1,,,,,フジサワ,0
1538,5070001006076,登記記録の閉鎖等,0,2024-05-10,2024-05-07,旭産業株式会社,,株式会社,群馬県,高崎市,倉賀野町２８８７番地２,,10,202,3701201,,,2024-05-07,清算の結了等,,,2015-10-05,1,,,,,アサヒサンギョウ,0
1568,5120005018640,登記記録の閉鎖等,0,2024-05-10,2024-05-02,行政書士法人富士,,その他の設立登記法人,大阪府,大阪市中央区,宗右衛門町１番３号,,27,128,5420084,,,2024-05-02,清算の結了等,,,2016-04-20,1,,,,,フジ,0
1582,5140001033939,登記記録の閉鎖等,0,2024-05-10,2024-05-09,株式会社健環,,株式会社,兵庫県,神戸市中央区,多聞通３丁目３番１６号甲南第一ビル３１２,,28,110,6500015,,,2024-05-09,清算の結了等,,,2015-10-05,1,,,,,ケンカン,0
1583,5140001076847,登記記録の閉鎖等,0,2024-05-10,2024-05-01,パワーサプライ株式会社,,株式会社,兵庫県,小野市,匠台２３番地,,28,218,6751322,,,2024-05-01,合併による解散等,7140001077356,令和６年５月１日兵庫県加西市朝妻町１０４４番地モリマーメディカル株式会社（7140001077356）に合併し解散,2015-10-05,1,,,,,パワーサプライ,0
1591,5150003002065,登記記録の閉鎖等,0,2024-05-10,2024-05-08,合同会社Ｈｏｔ　Ｄｉｎｅｒ,,合同会社,奈良県,香芝市,旭ケ丘５丁目１９番地１２,,29,210,6390266,,,2024-05-08,清算の結了等,,,2020-01-08,1,,,,,ホットダイナー,0
1619,5270002000685,登記記録の閉鎖等,0,2024-05-10,2024-05-07,有限会社こまやビル,,有限会社,鳥取県,鳥取市,末広温泉町１５１番地,,31,201,6800833,,,2024-05-07,清算の結了等,,,2015-10-05,1,,,,,コマヤビル,0
1679,6010001193101,登記記録の閉鎖等,0,2024-05-10,2024-04-24,株式会社タスカル２４,,株式会社,東京都,中央区,日本橋本石町４丁目５番１８号,,13,102,1030021,,,2024-04-24,清算の結了等,,,2018-07-05,1,,,,,タスカルニジュウヨン,0
1688,6010102002045,登記記録の閉鎖等,0,2024-05-10,2024-05-08,錦せい商事有限会社,,有限会社,東京都,八王子市,明神町２丁目２１番１３号,,13,201,1920046,,,2024-05-08,清算の結了等,,,2015-10-05,1,,,,,キンセイショウジ,0
1715,6010801008177,登記記録の閉鎖等,0,2024-05-10,2024-04-24,東清株式会社,,株式会社,東京都,大田区,大森北１丁目１番５号,,13,111,1430016,,,2024-04-24,清算の結了等,,,2015-10-05,1,,,,,トウセイ,0
1720,6010902009974,登記記録の閉鎖等,0,2024-05-10,2024-04-30,有限会社ティ・エイ・シー濱田建築設計事務所,,有限会社,東京都,世田谷区,桜３丁目１０番８号,,13,112,1560053,,,2024-04-30,清算の結了等,,,2015-10-05,1,,,,,ティエイシーハマダケンチクセッケイジムショ,0
1735,6011101041827,登記記録の閉鎖等,0,2024-05-10,2024-04-17,株式会社オーシャンウェルフェア,,株式会社,東京都,港区,六本木３丁目１６番１３号－１０１０,,13,103,1060032,,,2024-04-17,清算の結了等,,,2015-10-05,1,,,,,オーシャンウェルフェア,0
1740,6011201020821,登記記録の閉鎖等,0,2024-05-10,2024-05-02,株式会社スリーエー,,株式会社,東京都,北区,王子５丁目１番２－１６０７号,,13,117,1140002,,,2024-05-02,清算の結了等,,,2018-08-23,1,,,,,スリーエー,0
1743,6011301027196,登記記録の閉鎖等,0,2024-05-10,2024-05-02,株式会社ｔｅｃ,,株式会社,東京都,杉並区,梅里２丁目２４番１２号ツカダビル５０１,,13,115,1660011,,,2024-05-02,清算の結了等,,,2021-09-29,1,,,,,テック,0
1744,6011302004327,登記記録の閉鎖等,0,2024-05-10,2024-05-07,有限会社ジェイ・エム,,有限会社,東京都,杉並区,下井草３丁目２９番１０号,,13,115,1670022,,,2024-05-07,清算の結了等,,,2015-10-05,1,,,,,,0
1745,6011401001101,登記記録の閉鎖等,0,2024-05-10,2024-05-01,株式会社大下商会,,株式会社,東京都,板橋区,向原２丁目３２番１０号,,13,119,1730036,,,2024-05-01,清算の結了等,,,2015-10-05,1,,,,,オオシタショウカイ,0
1753,6011802005948,登記記録の閉鎖等,0,2024-05-10,2024-05-02,有限会社ニシノ,,有限会社,東京都,葛飾区,西新小岩４丁目２７番３号,,13,122,1240025,,,2024-05-02,清算の結了等,,,2015-10-05,1,,,,,ニシノ,0
1773,6020003021754,登記記録の閉鎖等,0,2024-05-10,2024-05-01,合同会社ＩＮＳＰＩＲＥ,,合同会社,神奈川県,横浜市港北区,菊名５丁目１番６号アイビービル４０２号,,14,109,2220011,,,2024-05-01,清算の結了等,,,2022-05-11,1,,,,,インスパイア,0
1800,6030002039771,登記記録の閉鎖等,0,2024-05-10,2024-05-02,有限会社ビューティショップおちあい,,有限会社,埼玉県,幸手市,中４丁目１５番２５号,,11,240,3400115,,,2024-05-02,清算の結了等,,,2015-10-05,1,,,,,ビューティショップオチアイ,0
1814,6040002019797,登記記録の閉鎖等,0,2024-05-10,2024-04-26,有限会社三元商工,,有限会社,千葉県,習志野市,実籾２丁目４０番１－８０８号,,12,216,2750002,,,2024-04-26,清算の結了等,,,2015-10-05,1,,,,,ミツモトショウコウ,0
1823,6050001029078,登記記録の閉鎖等,0,2024-05-10,2024-05-02,株式会社ＧｒｉｄＭＲＰ,,株式会社,茨城県,取手市,市之代５１６番地,,08,217,3020037,,,2024-05-02,清算の結了等,,,2015-10-05,1,,,,,,0
1834,6070001002999,登記記録の閉鎖等,0,2024-05-10,2024-05-02,株式会社前橋文化映画劇場,,株式会社,群馬県,前橋市,表町２丁目１０番２１号,,10,201,3710024,,,2024-05-02,合併による解散等,5030001084976,令和６年３月３１日埼玉県熊谷市宮町一丁目８９番地鷹の羽興業株式会社（5030001084976）に合併し解散,2015-10-05,1,,,,,マエバシブンカエイガゲキジョウ,0
1841,6080401025483,登記記録の閉鎖等,0,2024-05-10,2024-05-09,株式会社オカド,,株式会社,静岡県,磐田市,豊田３５０番地２,,22,211,4380808,,,2024-05-09,清算の結了等,,,2021-11-15,1,,,,,オカド,0
1859,6120002015053,登記記録の閉鎖等,0,2024-05-10,2024-05-01,有限会社ヘアーズチップトップ,,有限会社,大阪府,大阪市大正区,小林東３丁目２３番２６号,,27,108,5510011,,,2024-05-01,清算の結了等,,,2015-10-05,1,,,,,ヘアーズチップトップ,0
1868,6122001024877,登記記録の閉鎖等,0,2024-05-10,2024-05-01,株式会社ＵＥＤＡｍｏｎｄｏ,,株式会社,大阪府,八尾市,西高安町２丁目８番地,,27,212,5810852,,,2024-05-01,合併による解散等,4122001017825,令和６年５月１日大阪府八尾市西高安町二丁目８番地株式会社ＦＡＭＩＧＬＩＡｍｏｎｄｏ（4122001017825）に合併し解散,2015-10-05,1,,,,,ウエダモンド,0
1871,6130001040852,登記記録の閉鎖等,0,2024-05-10,2024-04-30,株式会社京都北Ｐ＆Ｍ,,株式会社,京都府,与謝郡伊根町,字津母５７１番地,,26,463,6260412,,,2024-04-30,合併による解散等,8130001040776,令和６年４月３０日京都府与謝郡伊根町字津母５７０番地株式会社油屋（8130001040776）に合併し解散,2015-10-05,1,,,,,キョウトキタピーアンドエム,0
1897,6180003020204,登記記録の閉鎖等,0,2024-05-10,2024-04-23,リペスタキッチン合同会社,,合同会社,愛知県,尾張旭市,東大久手町１丁目１６番地１３,,23,226,4880003,,,2024-04-23,合併による解散等,3180003016056,令和６年４月２３日愛知県尾張旭市渋川町二丁目１２番地３合同会社リペスタ（3180003016056）に合併し解散,2019-07-24,1,,,,,リペスタキッチン,0
1913,6240001039099,登記記録の閉鎖等,0,2024-05-10,2024-05-07,株式会社王庫,,株式会社,広島県,尾道市,東尾道１３番２,,34,205,7220051,,,2024-05-07,清算の結了等,,,2015-10-05,1,,,,,オウクラ,0
1923,6250003003102,登記記録の閉鎖等,0,2024-05-10,2024-05-07,島のみかん合同会社,,合同会社,山口県,大島郡周防大島町,大字西安下庄１０２４－２,,35,305,7422806,,,2024-05-07,清算の結了等,,,2022-06-21,1,,,,,シマノミカン,0
1928,6260003003010,登記記録の閉鎖等,0,2024-05-10,2024-04-26,合同会社ｇｋ,,合同会社,岡山県,岡山市東区,金田７８１番地１３,,33,103,7048196,,,2024-04-26,清算の結了等,,,2019-11-21,1,,,,,ジーケー,0
1946,6310001018525,登記記録の閉鎖等,0,2024-05-10,2024-05-01,株式会社Ｎ‐ｃｕｂｅ,,株式会社,長崎県,長崎市,矢の平１丁目９番１９号,,42,201,8500811,,,2024-05-01,清算の結了等,,,2023-07-24,1,,,,,エヌキューブ,0
1955,6370005003988,登記記録の閉鎖等,0,2024-05-10,2024-05-09,一般社団法人Ｌｕｏｍｉｎｅｎ,,その他の設立登記法人,宮城県,仙台市太白区,若葉町２８番１０号,,04,104,9820822,,,2024-05-09,清算の結了等,,,2015-10-05,1,,,,,ルオミネン,0
1960,6380002003800,登記記録の閉鎖等,0,2024-05-10,2024-05-01,有限会社やまきち角屋,,有限会社,福島県,福島市,大明神７番地,,07,201,9608023,,,2024-05-01,清算の結了等,,,2015-10-05,1,,,,,ヤマキチカドヤ,0
1988,6700150011068,登記記録の閉鎖等,0,2024-05-10,2023-10-16,ＢＷＩ　ＣＯＭＰＡＮＹ　ＬＩＭＩＴＥＤ,,外国会社等,東京都,八王子市,明神町３丁目２０番６号,,13,201,1920046,中華人民共和国香港湾仔告士打道３９号ハーコートハウス１０階、１００５－０６号室,,2023-10-16,その他の清算の結了等,,,2015-10-09,1,,,,,ビーダブリユーアイカンパニーリミテツド,0
1991,7010001115954,登記記録の閉鎖等,0,2024-05-10,2024-04-23,株式会社ＭＨコーポレーション,,株式会社,東京都,中央区,銀座６丁目８番１号,,13,102,1040061,,,2024-04-23,清算の結了等,,,2015-10-05,1,,,,,エムエイチコーポレーション,0
2001,7010002039509,登記記録の閉鎖等,0,2024-05-10,2024-04-25,有限会社ケーリンク,,有限会社,東京都,千代田区,内神田２丁目６番地９号翔和鎌倉橋ビル８Ｆ,,13,101,1010047,,,2024-04-25,清算の結了等,,,2015-10-05,1,,,,,ケーリンク,0
2008,7010401070733,登記記録の閉鎖等,0,2024-05-10,2024-05-02,キャリアエデュケーション株式会社,,株式会社,東京都,新宿区,新宿７丁目１２番１号新宿平和ビル１階,,13,104,1600022,,,2024-05-02,合併による解散等,7011003005276,令和６年４月３０日東京都中央区日本橋室町一丁目１３番１号ＤＫノア４階株式会社サイブリッジ（7011003005276）に合併し解散,2015-10-05,1,,,,,キャリアエデュケーション,0
2036,7010905004336,登記記録の閉鎖等,0,2024-05-10,2024-04-30,特定非営利活動法人ほうりつ・ふくしサポートセンター,,その他の設立登記法人,東京都,世田谷区,太子堂５丁目１６番９号太子堂壱番館１階,,13,112,1540004,,,2024-04-30,清算の結了等,,,2022-07-06,1,,,,,ホウリツフクシサポートセンター,0
2044,7011003011893,登記記録の閉鎖等,0,2024-05-10,2024-04-18,合同会社オデッセイ,,合同会社,東京都,渋谷区,本町５丁目３９番１号ルミエール本町３０１,,13,113,1510071,,,2024-04-18,清算の結了等,,,2020-11-24,1,,,,,オデッセイ,0
2049,7011101042460,登記記録の閉鎖等,0,2024-05-10,2024-04-18,株式会社小林小屋,,株式会社,東京都,渋谷区,代々木２丁目２３番１号,,13,113,1510053,,,2024-04-18,清算の結了等,,,2015-10-05,1,,,,,コバヤシゴヤ,0
2061,7011301002314,登記記録の閉鎖等,0,2024-05-10,2024-04-26,康紀貿易株式会社,,株式会社,東京都,杉並区,上荻１丁目２２番８－５０５号,,13,115,1670043,,,2024-04-26,清算の結了等,,,2015-10-05,1,,,,,コウキボウエキ,0
2079,7013202012887,登記記録の閉鎖等,0,2024-05-10,2024-04-22,有限会社エス・イー・ケー,,有限会社,東京都,目黒区,中町２丁目５０番１０号,,13,110,1530065,,,2024-04-22,清算の結了等,,,2015-10-05,1,,,,,エスイーケー,0
2084,7020001118254,登記記録の閉鎖等,0,2024-05-10,2024-05-08,株式会社ユーロテクノサービス,,株式会社,神奈川県,横浜市港北区,新羽町２８６番地１,,14,109,2230057,,,2024-05-08,合併による解散等,5010401081542,令和６年４月１日東京都中央区日本橋室町四丁目１番２１号株式会社ユーロテクノ（5010401081542）に合併し解散,2016-10-18,1,,,,,ユーロテクノサービス,0
2091,7020002066188,登記記録の閉鎖等,0,2024-05-10,2024-04-26,有限会社山田アプリケーション,,有限会社,神奈川県,横浜市港北区,新吉田町２０１番地,,14,109,2230056,,,2024-04-26,清算の結了等,,,2015-10-05,1,,,,,ヤマダアプリケーション,0
2097,7021002020119,登記記録の閉鎖等,0,2024-05-10,2024-05-07,有限会社コトブキ電子,,有限会社,神奈川県,相模原市中央区,田名５８１８番地,,14,152,2520244,,,2024-05-07,清算の結了等,,,2015-10-05,1,,,,,コトブキデンシ,0
2100,7030001044490,登記記録の閉鎖等,0,2024-05-10,2024-04-30,株式会社ボウンディア,,株式会社,東京都,豊島区,巣鴨３丁目２３－３ハウス桃李６０１,,13,116,1700002,,,2024-04-30,清算の結了等,,,2015-10-05,1,,,,,ボウンディア,0
2101,7030001046909,登記記録の閉鎖等,0,2024-05-10,2024-05-01,株式会社和光塗装工業所,,株式会社,埼玉県,朝霞市,大字台３２１－１,,11,227,3510003,,,2024-05-01,合併による解散等,3030001055269,令和６年５月１日埼玉県川越市大字寺山１６７番地株式会社トップ工業（3030001055269）に合併し解散,2015-10-05,1,,,,,ワコウトソウコウギョウショ,0
2123,7040001036512,登記記録の閉鎖等,0,2024-05-10,2024-04-26,株式会社日章電気工事,,株式会社,千葉県,松戸市,日暮７丁目４４０番地,,12,207,2702253,,,2024-04-26,清算の結了等,,,2015-10-05,1,,,,,ニッショウデンキコウジ,0
2128,7040002039316,登記記録の閉鎖等,0,2024-05-10,2024-04-26,有限会社エアーズロック,,有限会社,千葉県,市川市,中国分３丁目１４番１５号,,12,203,2720835,,,2024-04-26,清算の結了等,,,2015-10-05,1,,,,,エアーズロック,0
2130,7040002054711,登記記録の閉鎖等,0,2024-05-10,2024-04-26,有限会社アバサキ工務店,,有限会社,千葉県,成田市,芝１９２１番地,,12,211,2860822,,,2024-04-26,清算の結了等,,,2015-10-05,1,,,,,アバサキコウムテン,0
2151,7060002017823,登記記録の閉鎖等,0,2024-05-10,2024-04-30,有限会社エイシン,,有限会社,栃木県,真岡市,反町５３番地,,09,209,3214515,,,2024-04-30,清算の結了等,,,2015-10-05,1,,,,,エイシン,0
2157,7070002012633,登記記録の閉鎖等,0,2024-05-10,2024-05-08,有限会社横山創建,,有限会社,群馬県,高崎市,鼻高町５６番地２１,,10,202,3700868,,,2024-05-08,清算の結了等,,,2015-10-05,1,,,,,ヨコヤマソウケン,0
2168,7110001014295,登記記録の閉鎖等,0,2024-05-10,2024-05-08,株式会社尽誠工業,,株式会社,新潟県,三条市,須頃３丁目８５番地,,15,204,9550092,,,2024-05-08,合併による解散等,4110001003318,令和６年４月１日新潟市中央区下所島二丁目１７番３号株式会社千代田設備（4110001003318）に合併し解散,2015-10-05,1,,,,,ジンセイコウギョウ,0
2169,7110001028147,登記記録の閉鎖等,0,2024-05-10,2024-05-02,株式会社やまぼうし,,株式会社,新潟県,新潟市秋葉区,中沢町８番７号,,15,105,9560831,,,2024-05-02,清算の結了等,,,2015-10-05,1,,,,,ヤマボウシ,0
2194,7120005005505,登記記録の閉鎖等,0,2024-05-10,2024-05-08,医療法人花園橋村医院,,その他の設立登記法人,大阪府,大阪市西成区,花園北２丁目１５番２９号,,27,122,5570016,,,2024-05-08,清算の結了等,,,2015-10-05,1,,,,,ハナゾノハシムライイン,0
2224,7140002032319,登記記録の閉鎖等,0,2024-05-10,2024-05-08,有限会社山本工業,,有限会社,兵庫県,揖保郡太子町,東南１２８番地の１２,,28,464,6711523,,,2024-05-08,清算の結了等,,,2015-10-05,1,,,,,ヤマモトコウギョウ,0
2263,7260002019114,登記記録の閉鎖等,0,2024-05-10,2024-04-26,有限会社瀬戸内マコマ,,有限会社,岡山県,倉敷市,田ノ上７４７番地の１５,,33,202,7100831,,,2024-04-26,清算の結了等,,,2015-10-05,1,,,,,セトウチマコマ,0
2265,7260003001533,登記記録の閉鎖等,0,2024-05-10,2024-05-09,合同会社ＭＭＳ,,合同会社,広島県,福山市,北本庄４丁目７番１８－４号,,34,207,7200074,,,2024-05-09,清算の結了等,,,2015-10-05,1,,,,,エムエムエス,0
2277,7290802020887,登記記録の閉鎖等,0,2024-05-10,2024-04-26,有限会社インテリアもりふじ,,有限会社,福岡県,鞍手郡小竹町,大字御徳１６７番地の２２４,,40,401,8201101,,,2024-04-26,清算の結了等,,,2015-10-05,1,,,,,インテリアモリフジ,0
2312,7460303000652,登記記録の閉鎖等,0,2024-05-10,2024-05-08,Ｋａ’ｍｕｉ合同会社,,合同会社,北海道,北見市,川東８５番地３,,01,208,0900807,,,2024-05-08,清算の結了等,,,2019-04-11,1,,,,,カムイ,0
2315,7480002001900,登記記録の閉鎖等,0,2024-05-10,2024-05-08,有限会社佐々木酒店,,有限会社,徳島県,徳島市,城東町２丁目１番３２号,,36,201,7700862,,,2024-05-08,清算の結了等,,,2015-10-05,1,,,,,ササキサケテン,0
2325,8010001186714,登記記録の閉鎖等,0,2024-05-10,2024-04-15,株式会社アダプトネットワークス,,株式会社,東京都,千代田区,麹町５丁目７番地２ＭＦＰＲ麹町ビル７Ｆ,,13,101,1020083,,,2024-04-15,合併による解散等,4010001117846,令和６年４月１日東京都千代田区麹町五丁目７番地２ＭＦＰＲ麹町ビル７Ｆ株式会社インフキュリオン（4010001117846）に合併し解散,2017-10-06,1,,,,,アダプトネットワークス,0
2330,8010005030711,登記記録の閉鎖等,0,2024-05-10,2024-05-09,ＡＭ　ａｌｐｈａ特定目的会社,,その他の設立登記法人,東京都,千代田区,丸の内３丁目１番１号東京共同会計事務所内,,13,101,1000005,,,2024-05-09,清算の結了等,,,2019-09-04,1,,,,,エーエムアルファ,0
2337,8010401099466,登記記録の閉鎖等,0,2024-05-10,2024-05-07,株式会社オクティア,,株式会社,東京都,港区,虎ノ門３丁目２２番１１号豊澄ビル４階,,13,103,1050001,,,2024-05-07,合併による解散等,3120003025970,令和６年４月２８日大阪市西淀川区歌島二丁目９番１７号豊澄ホールディングス合同会社（3120003025970）に合併し解散,2015-10-05,1,,,,,オクティア,0
2340,8010401149907,登記記録の閉鎖等,0,2024-05-10,2024-04-17,株式会社ＷＯＥＣＪａｐａｎ,,株式会社,東京都,港区,新橋２丁目４番５号不二ビルディング新橋７階,,13,103,1050004,,,2024-04-17,清算の結了等,,,2019-12-17,1,,,,,ウォエックジャパン,0
2346,8010501007527,登記記録の閉鎖等,0,2024-05-10,2024-05-02,株式会社イーエスエス,,株式会社,東京都,足立区,伊興本町１丁目１６番１５号,,13,121,1210807,,,2024-05-02,清算の結了等,,,2015-10-05,1,,,,,イーエスエス,0
2350,8010602029759,登記記録の閉鎖等,0,2024-05-10,2024-05-07,有限会社フィットコーポレーション,,有限会社,東京都,江東区,南砂２丁目３番５－１２１０号,,13,108,1360076,,,2024-05-07,清算の結了等,,,2015-10-05,1,,,,,フィットコーポレーション,0
2367,8011001151187,登記記録の閉鎖等,0,2024-05-10,2024-04-18,株式会社ｍｏｓｈｍｅｌ,,株式会社,東京都,渋谷区,神宮前６丁目２３番４号桑野ビル２階,,13,113,1500001,,,2024-04-18,清算の結了等,,,2022-11-29,1,,,,,モシュメル,0
2371,8011003006323,登記記録の閉鎖等,0,2024-05-10,2024-04-25,ＬＳ千葉成田合同会社,,合同会社,東京都,千代田区,丸の内１丁目８番２号,,13,101,1000005,,,2024-04-25,清算の結了等,,,2015-10-28,1,,,,,エルエスチバナリタ,0
2373,8011101076103,登記記録の閉鎖等,0,2024-05-10,2024-05-01,株式会社申和,,株式会社,東京都,新宿区,新宿１丁目３５番地３,,13,104,1600022,,,2024-05-01,清算の結了等,,,2016-02-23,1,,,,,シンワ,0
2382,8011401021551,登記記録の閉鎖等,0,2024-05-10,2024-04-19,株式会社ＤＥＩＮ,,株式会社,東京都,渋谷区,神宮前６丁目２３番４号桑野ビル２階,,13,113,1500001,,,2024-04-19,清算の結了等,,,2019-01-08,1,,,,,,0
2385,8011501011650,登記記録の閉鎖等,0,2024-05-10,2024-04-30,株式会社ぬりえ美術館,,株式会社,東京都,荒川区,町屋４丁目１１番８号,,13,118,1160001,,,2024-04-30,清算の結了等,,,2015-10-05,1,,,,,ヌリエビジュツカン,0
2390,8011501024751,登記記録の閉鎖等,0,2024-05-10,2024-05-07,株式会社アルファディ,,株式会社,東京都,文京区,湯島３丁目４５番１０号ＴＳ池之端ビル地下１階,,13,105,1130034,,,2024-05-07,清算の結了等,,,2019-05-14,1,,,,,アルファデイ,0
2421,8021001076904,登記記録の閉鎖等,0,2024-05-10,2024-05-07,株式会社ＨＹ．ｌｉｎｋｓ,,株式会社,神奈川県,伊勢原市,伊勢原２丁目５番３９号ＵＮＯイダビル３０１号,,14,214,2591131,,,2024-05-07,清算の結了等,,,2022-09-07,1,,,,,エイチワイリンクス,0
2424,8030001137624,登記記録の閉鎖等,0,2024-05-10,2024-04-30,株式会社クリエコ,,株式会社,群馬県,高崎市,中泉町１０６番地５,,10,202,3703524,,,2024-04-30,清算の結了等,,,2020-08-11,1,,,,,クリエコ,0
2438,8030003012866,登記記録の閉鎖等,0,2024-05-10,2024-05-01,メンズマルシェ合同会社,,合同会社,埼玉県,上尾市,大字小泉８番地５２リモージュ三井２０１,,11,219,3620063,,,2024-05-01,清算の結了等,,,2018-12-28,1,,,,,メンズマルシェ,0
2441,8040001047566,登記記録の閉鎖等,0,2024-05-10,2024-04-25,大林建設株式会社,,株式会社,千葉県,八街市,大木６７４番地１６４,,12,230,2891111,,,2024-04-25,清算の結了等,,,2015-10-05,1,,,,,オオバヤシケンセツ,0
2442,8040001051816,登記記録の閉鎖等,0,2024-05-10,2024-04-25,三明産業株式会社,,株式会社,千葉県,君津市,北子安１丁目１１番５号,,12,225,2991161,,,2024-04-25,清算の結了等,,,2015-10-05,1,,,,,サンメイサンギョウ,0
2467,8080001020305,登記記録の閉鎖等,0,2024-05-10,2024-05-01,Ｄ＆Ｄデザインワークス株式会社,,株式会社,静岡県,静岡市駿河区,宮竹１丁目１２番８号,,22,102,4228035,,,2024-05-01,合併による解散等,8080001010157,令和６年５月１日静岡市駿河区西脇１１番地の１アクセスプラン株式会社（8080001010157）に合併し解散,2015-10-05,1,,,,,ディーアンドディーデザインワークス,0
2470,8100001024393,登記記録の閉鎖等,0,2024-05-10,2024-04-22,株式会社光学材料研究所,,株式会社,長野県,上田市,蒼久保１３５４番地,,20,203,3860155,,,2024-04-22,清算の結了等,,,2015-10-05,1,,,,,コウガクザイリョウケンキュウジョ,0
2475,8120001018328,登記記録の閉鎖等,0,2024-05-10,2024-05-08,株式会社中川庄商店,,株式会社,大阪府,大阪市生野区,勝山南１丁目１７番３１号,,27,116,5440021,,,2024-05-08,清算の結了等,,,2015-10-05,1,,,,,ナカガワショウショウテン,0
2486,8120003021560,登記記録の閉鎖等,0,2024-05-10,2024-05-08,合同会社ＡＬＯＨＡ,,合同会社,大阪府,大阪市阿倍野区,阿倍野筋５丁目１０番１６号,,27,119,5450052,,,2024-05-08,清算の結了等,,,2022-04-25,1,,,,,アロハ,0
2491,8120005022615,登記記録の閉鎖等,0,2024-05-10,2024-05-09,一般社団法人恩送り推進会,,その他の設立登記法人,大阪府,大阪市中央区,谷町２丁目５番５号,,27,128,5400012,,,2024-05-09,清算の結了等,,,2021-11-17,1,,,,,オンオクリスイシンカイ,0
2521,8160002008803,登記記録の閉鎖等,0,2024-05-10,2024-05-02,有限会社テクノウェーブ,,有限会社,滋賀県,彦根市,須越町４８２番地,,25,202,5220058,,,2024-05-02,清算の結了等,,,2015-10-05,1,,,,,テクノウェーブ,0
2522,8170001016475,登記記録の閉鎖等,0,2024-05-10,2024-05-08,株式会社ＭＯＯ,,株式会社,和歌山県,和歌山市,冬野６８３番地６,,30,201,6400332,,,2024-05-08,清算の結了等,,,2021-03-19,1,,,,,モー,0
2550,8210001009417,登記記録の閉鎖等,0,2024-05-10,2024-05-08,メガネバンク株式会社,,株式会社,福井県,福井市,西開発１丁目２３１０番地,,18,201,9100843,,,2024-05-08,清算の結了等,,,2015-10-05,1,,,,,メガネバンク,0
2557,8240001035253,登記記録の閉鎖等,0,2024-05-10,2024-05-07,株式会社こころ,,株式会社,広島県,福山市,今津町４丁目１番２９号,,34,207,7290111,,,2024-05-07,清算の結了等,,,2015-10-05,1,,,,,ココロ,0
2561,8250002011921,登記記録の閉鎖等,0,2024-05-10,2024-05-02,有限会社沼谷研磨,,有限会社,山口県,下関市,員光町４丁目８番６号,,35,201,7520903,,,2024-05-02,清算の結了等,,,2015-10-05,1,,,,,ヌマタニケンマ,0
2592,8370302000694,登記記録の閉鎖等,0,2024-05-10,2024-04-26,有限会社加藤教材社,,有限会社,宮城県,石巻市,前谷地字黒沢前４４番地の１,,04,202,9871101,,,2024-04-26,清算の結了等,,,2015-10-05,1,,,,,カトウキョウザイシャ,0
2602,8420001007085,登記記録の閉鎖等,0,2024-05-10,2024-04-30,ミドリ安全青森株式会社,,株式会社,青森県,八戸市,類家４丁目１０番１５号,,02,203,0310001,,,2024-04-30,清算の結了等,,,2015-10-05,1,,,,,ミドリアンゼンアオモリ,0
2604,8430001045927,登記記録の閉鎖等,0,2024-05-10,2024-05-01,株式会社ＥＳプロテック,,株式会社,北海道,札幌市中央区,南二条西１０丁目１番地４第二サントービル７階,,01,101,0600062,,,2024-05-01,清算の結了等,,,2015-10-05,1,,,,,イーエスプロテック,0
2610,8430002042114,登記記録の閉鎖等,0,2024-05-10,2024-05-01,有限会社北海美装,,有限会社,北海道,札幌市北区,北四十条西５丁目５番３５－１００５号,,01,102,0010040,,,2024-05-01,清算の結了等,,,2015-10-05,1,,,,,ホッカイビソウ,0
2614,8460105002160,登記記録の閉鎖等,0,2024-05-10,2024-05-08,一般社団法人ＨＯＰＥ,,その他の設立登記法人,北海道,帯広市,東三条南１０丁目１５番地,,01,207,0800803,,,2024-05-08,清算の結了等,,,2018-08-29,1,,,,,ホープ,0
2617,8500002016184,登記記録の閉鎖等,0,2024-05-10,2024-05-07,有限会社国田組,,有限会社,愛媛県,新居浜市,中村松木２丁目７番５２号,,38,205,7920041,,,2024-05-07,清算の結了等,,,2015-10-05,1,,,,,クニタグミ,0
2639,9010001203550,登記記録の閉鎖等,0,2024-05-10,2024-04-23,株式会社ルネサンスパートナーズ,,株式会社,東京都,中央区,日本橋小網町十一丁目５番リードシー日本橋小網町ビル８階,,13,102,1030016,,,2024-04-23,清算の結了等,,,2019-08-28,1,,,,,ルネサンスパートナーズ,0
2652,9010401027351,登記記録の閉鎖等,0,2024-05-10,2024-04-17,ボイックス株式会社,,株式会社,東京都,港区,芝大門１丁目１０番５号シバ・パークビル３Ｆ,,13,103,1050012,,,2024-04-17,清算の結了等,,,2015-10-05,1,,,,,ボイックス,0
2658,9010401166827,登記記録の閉鎖等,0,2024-05-10,2024-04-17,株式会社ＴＥＲＡＸＩＡ,,株式会社,東京都,港区,浜松町２丁目２番１５号浜松町ダイヤビル２Ｆ,,13,103,1050013,,,2024-04-17,清算の結了等,,,2022-04-15,1,,,,,テラシア,0
2663,9010501008235,登記記録の閉鎖等,0,2024-05-10,2024-05-01,ケイアイ情報システム株式会社,,株式会社,東京都,台東区,池之端１丁目４番２６号,,13,106,1100008,,,2024-05-01,合併による解散等,1010501016022,令和６年５月１日東京都台東区池之端一丁目４番２６号クミアイ化学工業株式会社（1010501016022）に合併し解散,2015-10-05,1,,,,,ケイアイジョウホウシステム,0
2683,9010901028799,登記記録の閉鎖等,0,2024-05-10,2024-04-30,株式会社浜野邦彦広告事務所,,株式会社,東京都,世田谷区,用賀４丁目１８番７号,,13,112,1580097,,,2024-04-30,清算の結了等,,,2015-10-05,1,,,,,ハマノクニヒココウコクジムショ,0
2696,9011001153975,登記記録の閉鎖等,0,2024-05-10,2024-04-30,株式会社Ｓｔｏｎｅｚ,,株式会社,東京都,世田谷区,深沢６丁目１番１２号,,13,112,1580081,,,2024-04-30,清算の結了等,,,2023-04-25,1,,,,,ストーンズ,0
2702,9011002023822,登記記録の閉鎖等,0,2024-05-10,2024-04-18,有限会社五百十,,有限会社,東京都,渋谷区,神泉町１３番１号,,13,113,1500045,,,2024-04-18,清算の結了等,,,2015-10-05,1,,,,,ゴヒャクジュウ,0
2710,9011101094293,登記記録の閉鎖等,0,2024-05-10,2024-04-30,株式会社マスターリンクｓｅｃｏｎｄ,,株式会社,東京都,新宿区,西新宿３丁目３番１３号西新宿水間ビル６階,,13,104,1600023,,,2024-04-30,清算の結了等,,,2021-03-04,1,,,,,マスターリンクセカンド,0
2711,9011102025842,登記記録の閉鎖等,0,2024-05-10,2024-05-09,有限会社テクニカル・ドゥ,,有限会社,東京都,新宿区,歌舞伎町２丁目４５番５号新宿永谷ビル,,13,104,1600021,,,2024-05-09,清算の結了等,,,2015-10-05,1,,,,,テクニカルドゥ,0
2733,9012701011266,登記記録の閉鎖等,0,2024-05-10,2024-05-01,デルマヤ物産株式会社,,株式会社,東京都,西東京市,新町３丁目９番１号,,13,229,2020023,,,2024-05-01,清算の結了等,,,2015-10-05,1,,,,,デルマヤブッサン,0
2734,9012702013815,登記記録の閉鎖等,0,2024-05-10,2024-05-07,有限会社市瀬工業,,有限会社,東京都,西東京市,富士町２丁目６番２５号,,13,229,2020014,,,2024-05-07,清算の結了等,,,2015-10-05,1,,,,,イチセコウギョウ,0
2738,9012802000837,登記記録の閉鎖等,0,2024-05-10,2024-04-26,有限会社高洋舎,,有限会社,東京都,立川市,高松町１丁目１４番１号,,13,202,1900011,,,2024-04-26,清算の結了等,,,2015-10-05,1,,,,,コウヨウシャ,0
2750,9020002013130,登記記録の閉鎖等,0,2024-05-10,2024-05-01,有限会社湯浅工務店,,有限会社,神奈川県,横浜市戸塚区,舞岡町３３８０番地,,14,110,2440813,,,2024-05-01,清算の結了等,,,2015-10-05,1,,,,,,0
2752,9020002082869,登記記録の閉鎖等,0,2024-05-10,2024-05-01,有限会社猪狩設備,,有限会社,神奈川県,川崎市中原区,井田杉山町７番４１号,,14,133,2110036,,,2024-05-01,清算の結了等,,,2015-10-05,1,,,,,イカリセツビ,0
2753,9020002085228,登記記録の閉鎖等,0,2024-05-10,2024-04-26,有限会社丸真,,有限会社,神奈川県,川崎市中原区,苅宿５０番１４号,,14,133,2110022,,,2024-04-26,清算の結了等,,,2015-10-05,1,,,,,マルシン,0
2755,9021001059577,登記記録の閉鎖等,0,2024-05-10,2024-05-08,ナカヤマエステート株式会社,,株式会社,神奈川県,足柄下郡湯河原町,中央１丁目１６２７番地１５Ｂ１１１３号,,14,384,2590301,,,2024-05-08,清算の結了等,,,2016-06-23,1,,,,,ナカヤマエステート,0
2763,9021002024241,登記記録の閉鎖等,0,2024-05-10,2024-05-07,有限会社マグネティックスクエア,,有限会社,神奈川県,相模原市南区,古淵３丁目３番５号１０２号,,14,153,2520344,,,2024-05-07,合併による解散等,4310001015318,令和６年４月１日長崎県佐世保市有福町２０３－１オーシャンソリューションテクノロジー株式会社（4310001015318）に合併し解散,2015-10-05,1,,,,,マグネティックスクエア,0
2769,9030001076482,登記記録の閉鎖等,0,2024-05-10,2024-05-02,株式会社ナカムラ,,株式会社,埼玉県,川口市,江戸１丁目１５番３０号,,11,203,3340074,,,2024-05-02,清算の結了等,,,2015-10-05,1,,,,,ナカムラ,0
2780,9030002003114,登記記録の閉鎖等,0,2024-05-10,2024-05-02,有限会社大堀企画,,有限会社,埼玉県,さいたま市見沼区,大和田町２丁目２６８番地の１,,11,104,3370053,,,2024-05-02,清算の結了等,,,2015-10-05,1,,,,,オオホリキカク,0
2782,9030002029869,登記記録の閉鎖等,0,2024-05-10,2024-04-30,有限会社セイコウインテリヤ,,有限会社,埼玉県,所沢市,美原町４丁目２９７５番地の１３,,11,208,3590045,,,2024-04-30,清算の結了等,,,2015-10-05,1,,,,,セイコウインテリヤ,0
2784,9030002046146,登記記録の閉鎖等,0,2024-05-10,2024-05-02,有限会社山村鍛工所,,有限会社,埼玉県,草加市,青柳２丁目１８番７号,,11,221,3400002,,,2024-05-02,清算の結了等,,,2015-10-05,1,,,,,ヤマムラタンコウショ,0
2786,9030002066689,登記記録の閉鎖等,0,2024-05-10,2024-05-01,有限会社アンジュ,,有限会社,埼玉県,志木市,本町５丁目１８番８号,,11,228,3530004,,,2024-05-01,清算の結了等,,,2015-10-05,1,,,,,アンジュ,0
2788,9030002113342,登記記録の閉鎖等,0,2024-05-10,2024-05-01,有限会社三光商会,,有限会社,埼玉県,熊谷市,末広３丁目１番３６号,,11,202,3600031,,,2024-05-01,清算の結了等,,,2015-10-05,1,,,,,サンコウショウカイ,0
2792,9030003017823,登記記録の閉鎖等,0,2024-05-10,2024-05-01,合同会社ＩＮＳ,,合同会社,埼玉県,さいたま市大宮区,桜木町２丁目３番地大宮マルイ７階,,11,103,3300854,,,2024-05-01,清算の結了等,,,2021-08-26,1,,,,,インス,0
2794,9040001034514,登記記録の閉鎖等,0,2024-05-10,2024-04-26,株式会社ドリームワークス,,株式会社,千葉県,浦安市,高洲６丁目１番３－９０４号,,12,227,2790023,,,2024-04-26,清算の結了等,,,2015-10-05,1,,,,,ドリームワークス,0
2796,9040001051600,登記記録の閉鎖等,0,2024-05-10,2024-04-26,株式会社イシカワ,,株式会社,千葉県,君津市,人見１２９４番地の１１,,12,225,2991147,,,2024-04-26,清算の結了等,,,2015-10-05,1,,,,,イシカワ,0
2810,9040002083915,登記記録の閉鎖等,0,2024-05-10,2024-04-25,有限会社東京キャリアサービス,,有限会社,千葉県,匝瑳市,八日市場ニの３９３番地,,12,235,2892142,,,2024-04-25,清算の結了等,,,2015-10-05,1,,,,,トウキョウキャリアサービス,0
2818,9040005015650,登記記録の閉鎖等,0,2024-05-10,2024-04-24,一般社団法人鴨川青年会議所,,その他の設立登記法人,千葉県,鴨川市,太海字冨士山１６２番地８,,12,223,2992862,,,2024-04-24,清算の結了等,,,2015-10-05,1,,,,,カモガワセイネンカイギショ,0
2841,9120001062399,登記記録の閉鎖等,0,2024-05-10,2024-05-02,川文商事株式会社,,株式会社,大阪府,大阪市北区,堂山町１５番４－９０８号,,27,127,5300027,,,2024-05-02,清算の結了等,,,2015-10-05,1,,,,,カワブンショウジ,0
2851,9120002029158,登記記録の閉鎖等,0,2024-05-10,2024-05-02,有限会社アルファ建築設備事務所,,有限会社,大阪府,大阪市北区,中崎西３丁目２番１７号,,27,127,5300015,,,2024-05-02,清算の結了等,,,2015-10-05,1,,,,,アルファケンチクセツビジムショ,0
2865,9130002025123,登記記録の閉鎖等,0,2024-05-10,2024-05-08,有限会社経営計画研究所,,有限会社,京都府,向日市,上植野町下川原２１番地の６,,26,208,6170006,,,2024-05-08,清算の結了等,,,2015-10-05,1,,,,,ケイエイケイカクケンキュウショ,0
2868,9130005013232,登記記録の閉鎖等,0,2024-05-10,2024-05-07,特定非営利活動法人こころの森,,その他の設立登記法人,京都府,京丹後市,網野町下岡１０１８番地,,26,212,6293102,,,2024-05-07,清算の結了等,,,2015-10-05,1,,,,,ココロノモリ,0
2869,9140001038208,登記記録の閉鎖等,0,2024-05-10,2024-05-07,株式会社Ｕ．Ｔ．Ａ,,株式会社,兵庫県,神戸市中央区,中山手通１丁目１３番１４号マザーズ北野坂１Ｆ,,28,110,6500004,,,2024-05-07,清算の結了等,,,2015-10-05,1,,,,,,0
2891,9180002086961,登記記録の閉鎖等,0,2024-05-10,2024-04-30,有限会社Ｋ．Ｏ．Ｓ,,有限会社,愛知県,知多郡武豊町,字平井５丁目１５０番地,,23,447,4702380,,,2024-04-30,清算の結了等,,,2015-10-05,1,,,,,ケイオーエス,0
2892,9180003021331,登記記録の閉鎖等,0,2024-05-10,2024-04-25,合同会社アリア・アート,,合同会社,愛知県,名古屋市緑区,鳴海町字杜若４番地宝マンション野並７０１号,,23,114,4580801,,,2024-04-25,清算の結了等,,,2020-06-30,1,,,,,アリアアート,0
2914,9260001017018,登記記録の閉鎖等,0,2024-05-10,2024-04-26,株式会社池田商店,,株式会社,岡山県,倉敷市,児島下の町１０丁目３番３３号,,33,202,7110906,,,2024-04-26,清算の結了等,,,2015-10-05,1,,,,,イケダショウテン,0
2937,9340001002382,登記記録の閉鎖等,0,2024-05-10,2024-05-08,株式会社禅相互経営,,株式会社,鹿児島県,鹿児島市,上之園町７番１６号,,46,201,8900052,,,2024-05-08,清算の結了等,,,2015-10-05,1,,,,,ゼンソウゴケイエイ,0
2938,9340001014568,登記記録の閉鎖等,0,2024-05-10,2024-05-08,株式会社コウセイコーポレーション,,株式会社,鹿児島県,鹿屋市,串良町有里２４３６番地２,,46,203,8931602,,,2024-05-08,清算の結了等,,,2015-10-05,1,,,,,,0
2951,9360005001957,登記記録の閉鎖等,0,2024-05-10,2024-05-02,沖縄県サッシ商工組合,,その他の設立登記法人,沖縄県,中頭郡西原町,字小那覇１５６５番地（株式会社名護鉄工所）内,,47,329,9030103,,,2024-05-02,清算の結了等,,,2015-10-05,1,,,,,オキナワケンサッシ,0
2964,9410001009627,登記記録の閉鎖等,0,2024-05-10,2024-04-25,株式会社トールポピー,,株式会社,秋田県,秋田市,大町５丁目１番２３号２ＢＯＸビル２階,,05,201,0100921,,,2024-04-25,清算の結了等,,,2015-10-05,1,,,,,トールポピー,0
2968,9420002014121,登記記録の閉鎖等,0,2024-05-10,2024-04-30,有限会社藤田板金工業,,有限会社,青森県,弘前市,大字浜の町東３丁目３番地１,,02,202,0368323,,,2024-04-30,清算の結了等,,,2015-10-05,1,,,,,フジタバンキンコウギョウ,0
2975,9430002031479,登記記録の閉鎖等,0,2024-05-10,2024-05-02,有限会社ヨシミクリエイト,,有限会社,北海道,札幌市北区,北二十七条西２丁目１番２５―５０１号,,01,102,0010027,,,2024-05-02,清算の結了等,,,2015-10-05,1,,,,,ヨシミクリエイト,0
2986,9500003001878,登記記録の閉鎖等,0,2024-05-10,2024-05-08,アイリビング合同会社,,合同会社,愛媛県,四国中央市,妻鳥町２９３７番地２,,38,213,7990113,,,2024-05-08,清算の結了等,,,2017-01-11,1,,,,,アイリビング,0
