sequenceNumber,corporateNumber,process,correct,updateDate,changeDate,name,nameImageId,kind,prefectureName,cityName,streetNumber,addressImageId,prefectureCode,cityCode,postCode,addressOutside,addressOutsideImageId,closeDate,closeCause,successorCorporateNumber,changeCause,assignmentDate,latest,enName,enPrefectureName,enCityName,enAddressOutside,furigana,hihyoji
149,1010001262050,新規,0,2026-01-29,2026-01-29,株式会社ライフサービス,,株式会社,東京都,中央区,銀座１丁目１２－１２番４号,,13,102,1040061,,,,,,,2026-01-29,1,,,,,ライフサービス,0
150,1010001262307,新規,0,2026-01-29,2026-01-29,奇美食品ジャパン株式会社,,株式会社,東京都,千代田区,内幸町１丁目３番１号幸ビルディング９階２０２号室,,13,101,1000011,,,,,,,2026-01-29,1,,,,,チーメイショクヒンジャパン,0
151,1010001262389,新規,0,2026-01-29,2026-01-29,株式会社Ｋｅｉｂｕｎｄｏ,,株式会社,東京都,千代田区,神田神保町１丁目１番地,,13,101,1010051,,,,,,,2026-01-29,1,,,,,ケイブンドウ,0
169,1010003049883,新規,0,2026-01-29,2026-01-29,合同会社Ｆｏｒｗａｒｄ　Ｌｉｎｋ,,合同会社,東京都,中央区,銀座６丁目２番３号,,13,102,1040061,,,,,,,2026-01-29,1,,,,,フォワードリンク,0
170,1010003050049,新規,0,2026-01-29,2026-01-29,フォーチューンクッキー合同会社,,合同会社,東京都,中央区,勝どき４丁目６番２－２７２０号,,13,102,1040054,,,,,,,2026-01-29,1,,,,,フォーチューンンクッキー,0
171,1010003050065,新規,0,2026-01-29,2026-01-29,合同会社喜屋武商店,,合同会社,東京都,文京区,本郷３丁目４番７号１００３,,13,105,1130033,,,,,,,2026-01-29,1,,,,,キャンショウテン,0
172,1010003050197,新規,0,2026-01-29,2026-01-29,ＦＣＳ　ＬＶ‐６合同会社,,合同会社,東京都,中央区,銀座６丁目１０番１号,,13,102,1040061,,,,,,,2026-01-29,1,,,,,エフシーエスエルブイシックス,0
190,1010005041302,新規,0,2026-01-29,2026-01-29,一般社団法人ハウス５３,,その他の設立登記法人,東京都,千代田区,丸の内１丁目４番１号東京共同会計事務所内,,13,101,1000005,,,,,,,2026-01-29,1,,,,,ハウスゴジュウサン,0
354,1010401195924,新規,0,2026-01-29,2026-01-29,株式会社Ｏｔｏｖｉｅ,,株式会社,東京都,港区,南青山３丁目１番３６号青山丸竹ビル６Ｆ,,13,103,1070062,,,,,,,2026-01-29,1,,,,,オトヴィー,0
373,1010601068616,新規,0,2026-01-29,2026-01-29,株式会社聰嫂甜品,,株式会社,東京都,江東区,東陽１丁目１６－８ＭＥＬＤＩＡビル２Ｆ,,13,108,1350016,,,,,,,2026-01-29,1,,,,,ソウサオテンピン,0
376,1010701048947,新規,0,2026-01-29,2026-01-29,株式会社ＹＡＳＵＲＡＧＵ,,株式会社,東京都,品川区,西大井４丁目２１－６－２０７,,13,109,1400015,,,,,,,2026-01-29,1,,,,,ヤスラグ,0
393,1011001175011,新規,0,2026-01-29,2026-01-29,株式会社ＡＫデザインスタジオ,,株式会社,東京都,渋谷区,神宮前６丁目２３番４号桑野ビル２階,,13,113,1500001,,,,,,,2026-01-29,1,,,,,エーケーデザインスタジオ,0
394,1011001175044,新規,0,2026-01-29,2026-01-29,株式会社ＧＤ,,株式会社,東京都,渋谷区,代々木１丁目２６－５ＬＡＰＩＳ代々木２０１,,13,113,1510053,,,,,,,2026-01-29,1,,,,,ジーディー,0
395,1011001175184,新規,0,2026-01-29,2026-01-29,株式会社トガリズム,,株式会社,東京都,目黒区,自由が丘２丁目１６番１２号ＲＪ３,,13,110,1520035,,,,,,,2026-01-29,1,,,,,トガリズム,0
401,1011101114562,新規,0,2026-01-29,2026-01-29,株式会社ＣＴＱ,,株式会社,東京都,新宿区,西新宿３丁目３番１３号,,13,104,1600023,,,,,,,2026-01-29,1,,,,,シーティーキュー,0
402,1011103016930,新規,0,2026-01-29,2026-01-29,合同会社ＹＫＣ＆Ｃｏ．,,合同会社,東京都,新宿区,西新宿３丁目３番１３号西新宿水間ビル２Ｆ,,13,104,1600023,,,,,,,2026-01-29,1,,,,,ワイケイシーアンドコー,0
438,1012303002274,新規,0,2026-01-29,2026-01-29,合同会社ブルーグラス,,合同会社,東京都,町田市,南つくし野１丁目１１番地１９,,13,209,1940002,,,,,,,2026-01-29,1,,,,,ブルーグラス,0
440,1012801024506,新規,0,2026-01-29,2026-01-29,株式会社アールコーポレーション,,株式会社,東京都,国分寺市,南町１丁目１４番７号プラウド国分寺３１１,,13,214,1850021,,,,,,,2026-01-29,1,,,,,アールコーポレーション,0
447,1013301055652,新規,0,2026-01-29,2026-01-29,株式会社ＨＮＢホールディングス,,株式会社,東京都,豊島区,西池袋４丁目１９番１４号第二吉野荘,,13,116,1710021,,,,,,,2026-01-29,1,,,,,エイチエヌビーホールディングス,0
448,1013301055669,新規,0,2026-01-29,2026-01-29,イトＣＨＡＮ株式会社,,株式会社,東京都,豊島区,東池袋５丁目４５番６－７０３号,,13,116,1700013,,,,,,,2026-01-29,1,,,,,イトチャン,0
452,1020001166606,新規,0,2026-01-29,2026-01-29,株式会社ＳＥＬＮ,,株式会社,神奈川県,川崎市麻生区,白山４丁目１番３－２０６号,,14,137,2150014,,,,,,,2026-01-29,1,,,,,セレン,0
453,1020001166894,新規,0,2026-01-29,2026-01-29,株式会社Ｈｅａｒｔｆｕｌ　Ｓｔａｙ,,株式会社,神奈川県,横浜市中区,本牧間門４３番４号,,14,104,2310825,,,,,,,2026-01-29,1,,,,,ハートフルステイ,0
454,1020001166911,新規,0,2026-01-29,2026-01-29,株式会社ＳＩＮＣ　ｅｎｖｉｓｉｏｎ,,株式会社,神奈川県,川崎市川崎区,殿町２丁目１５番９号,,14,131,2100821,,,,,,,2026-01-29,1,,,,,シンクエンヴィジョン,0
457,1021003017061,新規,0,2026-01-29,2026-01-29,合同会社財務経営ブレイン,,合同会社,神奈川県,藤沢市,辻堂西海岸３丁目１番１２～３０４号,,14,205,2510046,,,,,,,2026-01-29,1,,,,,ザイムケイエイブレイン,0
561,1030001170706,新規,0,2026-01-29,2026-01-29,マサコンサル株式会社,,株式会社,埼玉県,東松山市,大字石橋１４７３－５,,11,212,3550072,,,,,,,2026-01-29,1,,,,,マサコンサル,0
586,1030003028472,新規,0,2026-01-29,2026-01-29,Ｙｕｍｅ　Ｔｏｄａ合同会社,,合同会社,埼玉県,蓮田市,東２丁目７番７号,,11,238,3490111,,,,,,,2026-01-29,1,,,,,ユメトダ,0
587,1030003028530,新規,0,2026-01-29,2026-01-29,合同会社アセント,,合同会社,埼玉県,坂戸市,伊豆の山町１０－６－３０６,,11,239,3500275,,,,,,,2026-01-29,1,,,,,アセント,0
593,1030005022399,新規,0,2026-01-29,2026-01-29,一般社団法人ＭＳＴアカデミー,,その他の設立登記法人,埼玉県,さいたま市中央区,本町西６丁目３－９－９０２,,11,105,3380004,,,,,,,2026-01-29,1,,,,,エムエスティアカデミー,0
597,1040001142258,新規,0,2026-01-29,2026-01-29,ラウ・ククナ株式会社,,株式会社,千葉県,香取郡神崎町,高谷３１４番地,,12,342,2890201,,,,,,,2026-01-29,1,,,,,ラウククナ,0
598,1040001142274,新規,0,2026-01-29,2026-01-29,株式会社寿防水,,株式会社,千葉県,千葉市稲毛区,宮野木町１８０９番地５７,,12,103,2630054,,,,,,,2026-01-29,1,,,,,コトブキボウスイ,0
605,1050001057901,新規,0,2026-01-29,2026-01-29,株式会社Ｇｅｎｅｒａｉｄ,,株式会社,茨城県,つくば市,並木２丁目６番地１,,08,220,3050044,,,,,,,2026-01-29,1,,,,,ジェネレイド,0
613,1080101026051,新規,0,2026-01-29,2026-01-29,ａｔｅｌｉｅｒ　ＫＩＮＡＲＩ株式会社,,株式会社,静岡県,富士市,伝法１５７２番地の４,,22,210,4170061,,,,,,,2026-01-29,1,,,,,アトリエキナリ,0
615,1080401028409,新規,0,2026-01-29,2026-01-29,ＢＥＬＴＥＸ株式会社,,株式会社,静岡県,浜松市中央区,常盤町１３２番地の１５,,22,138,4300917,,,,,,,2026-01-29,1,,,,,ベルテックス,0
622,1100003008590,新規,0,2026-01-29,2026-01-29,Ｄａｉｆｕｋｕ　Ａｓｓｅｔ　Ｍａｎａｇｅｍｅｎｔ合同会社,,合同会社,長野県,上田市,神畑乙９５番地４,,20,203,3861108,,,,,,,2026-01-29,1,,,,,ダイフクアセットマネジメント,0
626,1110001039868,新規,0,2026-01-29,2026-01-29,株式会社ＪＰＮＸ,,株式会社,新潟県,村上市,藤沢２３６番地３,,15,212,9593131,,,,,,,2026-01-29,1,,,,,ジェーピーエヌエックス,0
636,1120001283754,新規,0,2026-01-29,2026-01-29,株式会社ひなた,,株式会社,大阪府,門真市,江端町６番２５号,,27,223,5710012,,,,,,,2026-01-29,1,,,,,ヒナタ,0
640,1120003031797,新規,0,2026-01-29,2026-01-29,弘潤貿易合同会社,,合同会社,大阪府,大阪市中央区,南船場１丁目３－１４ストークビル南船場８０６号室,,27,128,5420081,,,,,,,2026-01-29,1,,,,,コウジュンボウエキ,0
646,1120901052151,新規,0,2026-01-29,2026-01-29,地創株式会社,,株式会社,大阪府,吹田市,垂水町３丁目７番３４号（４０４）,,27,205,5640062,,,,,,,2026-01-29,1,,,,,チソウ,0
649,1122005003873,新規,0,2026-01-29,2026-01-29,医療法人心耀会,,その他の設立登記法人,大阪府,東大阪市,小若江２丁目９番３３号アバハイム西村２号,,27,227,5770818,,,,,,,2026-01-29,1,,,,,シンヨウカイ,0
654,1130001081505,新規,0,2026-01-29,2026-01-29,株式会社カラビナコンサルティング,,株式会社,京都府,京都市中京区,三条通油小路東入塩屋町５４番地母の木ビル２階,,26,104,6048247,,,,,,,2026-01-29,1,,,,,カラビナコンサルティング,0
655,1130001081513,新規,0,2026-01-29,2026-01-29,株式会社ノーコードソリューションズ,,株式会社,京都府,京都市下京区,小稲荷町８５－２Ｇｒａｎｄ－Ｋ京都駅前ビル２０１,,26,106,6008208,,,,,,,2026-01-29,1,,,,,ノーコードソリューションズ,0
662,1140001141472,新規,0,2026-01-29,2026-01-29,株式会社ＴＯＰＹ　ＷＯＲＫＳ,,株式会社,兵庫県,西宮市,上甲東園５丁目３番１０号,,28,204,6620813,,,,,,,2026-01-29,1,,,,,トピーワークス,0
672,1180001170435,新規,0,2026-01-29,2026-01-29,株式会社ＥｎＣｏｎｎｅｃｔｉｏｎ,,株式会社,愛知県,名古屋市中区,千代田３丁目１８－６アイビル４階,,23,106,4600012,,,,,,,2026-01-29,1,,,,,エンコネクション,0
673,1180001170468,新規,0,2026-01-29,2026-01-29,株式会社エスリー,,株式会社,愛知県,知多市,新刀池２丁目２７番地,,23,224,4780069,,,,,,,2026-01-29,1,,,,,エスリー,0
682,1180003029539,新規,0,2026-01-29,2026-01-29,合同会社貴子ドリーム,,合同会社,愛知県,小牧市,東２丁目５１８番地,,23,219,4850831,,,,,,,2026-01-29,1,,,,,タカコドリーム,0
683,1180003029704,新規,0,2026-01-29,2026-01-29,合同会社ずっっと,,合同会社,愛知県,一宮市,明地字庵寺前８５番地２,,23,203,4940012,,,,,,,2026-01-29,1,,,,,ズッット,0
690,1190005012112,新規,0,2026-01-29,2026-01-29,特定非営利活動法人嬉野アスレティッククラブ,,その他の設立登記法人,三重県,松阪市,嬉野中川新町３丁目５５番地１,,24,204,5152325,,,,,,,2026-01-29,1,,,,,ウレシノアスレティッククラブ,0
782,1260003005498,新規,0,2026-01-29,2026-01-29,合同会社武愛双,,合同会社,岡山県,倉敷市,玉島乙島３１５番地,,33,202,7138103,,,,,,,2026-01-29,1,,,,,ブアイソウ,0
786,1290001112970,新規,0,2026-01-29,2026-01-29,株式会社ファレノハウジング,,株式会社,福岡県,福岡市南区,老司１丁目３４番９号,,40,134,8111346,,,,,,,2026-01-29,1,,,,,ファレノハウジング,0
788,1290801032204,新規,0,2026-01-29,2026-01-29,Ｔソリューションズ株式会社,,株式会社,福岡県,北九州市八幡西区,光貞台３丁目８番１２号,,40,109,8070805,,,,,,,2026-01-29,1,,,,,ティソリューションズ,0
789,1290801032212,新規,0,2026-01-29,2026-01-29,株式会社湯野建工,,株式会社,福岡県,北九州市八幡東区,山路松尾町３番１０号,,40,108,8050033,,,,,,,2026-01-29,1,,,,,ユノケンコウ,0
790,1290801032220,新規,0,2026-01-29,2026-01-29,株式会社Ｂｅｓｔ　Ｐｌａｃｅ,,株式会社,福岡県,北九州市小倉南区,長尾２丁目３番７－２０２号,,40,107,8030274,,,,,,,2026-01-29,1,,,,,ベストプレイス,0
791,1290803005265,新規,0,2026-01-29,2026-01-29,新山クリエイト合同会社,,合同会社,福岡県,北九州市小倉北区,金田１丁目５番２ＷＩＮ小倉６０２,,40,106,8030816,,,,,,,2026-01-29,1,,,,,ニイヤマクリエイト,0
800,1330001033956,新規,0,2026-01-29,2026-01-29,株式会社ｙｏｔｔｅ,,株式会社,熊本県,熊本市東区,八反田２丁目９番２４号,,43,102,8618034,,,,,,,2026-01-29,1,,,,,ヨッテ,0
805,1360001036304,新規,0,2026-01-29,2026-01-29,株式会社雄浩Ｃｒｅｓｔ,,株式会社,沖縄県,島尻郡久米島町,字比嘉４８番地,,47,361,9013108,,,,,,,2026-01-29,1,,,,,ユウコウクレスト,0
812,1390001018225,新規,0,2026-01-29,2026-01-29,株式会社ＹＭＣ,,株式会社,山形県,山形市,大字十文字字天神東７７０番地,,06,201,9902211,,,,,,,2026-01-29,1,,,,,ワイエムシー,0
814,1430001096150,新規,0,2026-01-29,2026-01-29,株式会社ヒカリサポートシステムズ,,株式会社,北海道,札幌市豊平区,美園六条５丁目３番１－９０５号,,01,105,0620006,,,,,,,2026-01-29,1,,,,,ヒカリサポートシステムズ,0
825,1490001011269,新規,0,2026-01-29,2026-01-29,スガキク企画株式会社,,株式会社,高知県,高知市,鴨部３丁目８番４号,,39,201,7808052,,,,,,,2026-01-29,1,,,,,スガキクキカク,0
828,1700150134220,新規,0,2026-01-29,2026-01-29,Ｒａｎｅａｓｙ　Ｌｉｍｉｔｅｄ,,外国会社等,,,,,,,,ＲＯＯＭ　５０３１，５／Ｆ　ＹＡＵ　ＬＥＥ　ＣＥＮＴＲＥ　ＮＯ　４５　ＨＯＩ　ＹＵＥＮ　ＲＯＡＤ　ＫＷＵＮ　ＴＯＮＧ　ＨＫ,,,,,,2026-01-29,1,,,,,ラネイシーリミテッド,0
993,2010003050147,新規,0,2026-01-29,2026-01-29,Ｋ　Ｐｈａｒｍａ　Ｃｏｎｓｕｌｔｉｎｇ合同会社,,合同会社,東京都,中央区,晴海２丁目３番３０－６０８号,,13,102,1040053,,,,,,,2026-01-29,1,,,,,ケーファーマコンサルティング,0
994,2010003050213,新規,0,2026-01-29,2026-01-29,ＢＲ　ＮＡＫＡＮＯ合同会社,,合同会社,東京都,千代田区,丸の内１丁目４番１号東京共同会計事務所内,,13,101,1000005,,,,,,,2026-01-29,1,,,,,ビーアールナカノ,0
1015,2010005041301,新規,0,2026-01-29,2026-01-29,一般社団法人ＤＭＲＥ１ＬＲ,,その他の設立登記法人,東京都,千代田区,丸の内１丁目４番１号東京共同会計事務所内,,13,101,1000005,,,,,,,2026-01-29,1,,,,,ディーエムアールイーワンエルアール,0
1203,2010401195989,新規,0,2026-01-29,2026-01-29,Ｌｕｋｅ株式会社,,株式会社,東京都,港区,北青山１丁目３番１号アールキューブ青山３階,,13,103,1070061,,,,,,,2026-01-29,1,,,,,ルーク,0
1222,2010503008157,新規,0,2026-01-29,2026-01-29,合同会社ＯＮＥ　ＨＥＡＬＴＨ,,合同会社,東京都,台東区,三筋２丁目１７番２号ＯＮＥＬＯＶＥビル２階,,13,106,1110055,,,,,,,2026-01-29,1,,,,,ワンヘルス,0
1232,2010701048946,新規,0,2026-01-29,2026-01-29,豊結株式会社,,株式会社,東京都,品川区,東大井１丁目１１－２５クレストタワー品川シーサイド１６１２,,13,109,1400011,,,,,,,2026-01-29,1,,,,,ホウユウ,0
1241,2011001174978,新規,0,2026-01-29,2026-01-29,株式会社ＥＩ　Ｌｏｔｕｓ　Ｃｏｍｐａｎｙ,,株式会社,東京都,渋谷区,円山町５番３号ＭＩＥＵＸ渋谷ビル８階,,13,113,1500044,,,,,,,2026-01-29,1,,,,,イーアイロータスカンパニー,0
1242,2011001175043,新規,0,2026-01-29,2026-01-29,Ｍｅｇｕｒｉ　Ｗｏｒｋｓ株式会社,,株式会社,東京都,目黒区,目黒本町５丁目１１－１９,,13,110,1520002,,,,,,,2026-01-29,1,,,,,メグリワークス,0
1243,2011001175200,新規,0,2026-01-29,2026-01-29,株式会社ＯＮＥ　Ｐｈｙｓｉｃａｌ,,株式会社,東京都,目黒区,鷹番３丁目１１番６号本多ビル１階,,13,110,1520004,,,,,,,2026-01-29,1,,,,,ワンフィジカル,0
1244,2011003023489,新規,0,2026-01-29,2026-01-29,ｃｏｃｏｏｎ　ｒｅｃｏｒｄｓ合同会社,,合同会社,東京都,目黒区,自由が丘２丁目１６番１２号ＲＪ３,,13,110,1520035,,,,,,,2026-01-29,1,,,,,コクーンレコーズ,0
1248,2011101114520,新規,0,2026-01-29,2026-01-29,スピーチリンク株式会社,,株式会社,東京都,新宿区,西新宿３丁目３番１３号西新宿水間ビル６階,,13,104,1600023,,,,,,,2026-01-29,1,,,,,スピーチリンク,0
1249,2011101114561,新規,0,2026-01-29,2026-01-29,株式会社ジョーレックス,,株式会社,東京都,新宿区,四谷三栄町１２番４３号,,13,104,1600008,,,,,,,2026-01-29,1,,,,,ジョーレックス,0
1267,2011501033056,新規,0,2026-01-29,2026-01-29,Ｐｏｗｅｒ　ＡＩ株式会社,,株式会社,東京都,荒川区,東日暮里６丁目４６番１７号ＴＳビル２Ｆ,,13,118,1160014,,,,,,,2026-01-29,1,,,,,パワーエーアイ,0
1274,2012401044077,新規,0,2026-01-29,2026-01-29,ＬＥＮＺ株式会社,,株式会社,東京都,調布市,入間町１丁目１０―２８,,13,208,1820004,,,,,,,2026-01-29,1,,,,,レンズ,0
1276,2012801024505,新規,0,2026-01-29,2026-01-29,株式会社エスコーポレーション,,株式会社,東京都,国分寺市,南町１丁目１４番７号プラウド国分寺３１１,,13,214,1850021,,,,,,,2026-01-29,1,,,,,エスコーポレーション,0
1281,2013305003821,新規,0,2026-01-29,2026-01-29,Ｐｌｅａｓｅ　Ｍｒ．Ｍａｖｅｒｉｃｋ一般社団法人,,その他の設立登記法人,東京都,豊島区,東池袋２丁目６２番８号ＢＩＧオフィスプラザ池袋１２０６,,13,116,1700013,,,,,,,2026-01-29,1,,,,,プリーズミスターマーベリック,0
1286,2020001166910,新規,0,2026-01-29,2026-01-29,株式会社ノード,,株式会社,神奈川県,横浜市旭区,中希望が丘１００番地１３希望が丘センタービル５０１,,14,112,2410825,,,,,,,2026-01-29,1,,,,,ノード,0
1290,2020003030263,新規,0,2026-01-29,2026-01-29,合同会社朱鷺企画,,合同会社,神奈川県,横浜市鶴見区,馬場７丁目２８番１５‐１号,,14,101,2300076,,,,,,,2026-01-29,1,,,,,トキキカク,0
1293,2021001087361,新規,0,2026-01-29,2026-01-29,水瀬総業株式会社,,株式会社,神奈川県,綾瀬市,吉岡東３丁目４番６号,,14,218,2521125,,,,,,,2026-01-29,1,,,,,ミナセソウギョウ,0
1294,2021001087378,新規,0,2026-01-29,2026-01-29,Ｈ＆ＭＳ株式会社,,株式会社,神奈川県,大和市,中央林間５丁目３－４－４,,14,213,2420007,,,,,,,2026-01-29,1,,,,,エイチアンドエムエス,0
1296,2021003017069,新規,0,2026-01-29,2026-01-29,合同会社さつえい日和,,合同会社,神奈川県,鎌倉市,植木６６番地１コープ鎌倉２０５号,,14,204,2470073,,,,,,,2026-01-29,1,,,,,サツエイビヨリ,0
1396,2030001170746,新規,0,2026-01-29,2026-01-29,株式会社ＦＴＨ　ＤＥＳＩＧＮ,,株式会社,埼玉県,川口市,前川３丁目４５番１０号,,11,203,3330842,,,,,,,2026-01-29,1,,,,,エフティーエイチデザイン,0
1397,2030001170754,新規,0,2026-01-29,2026-01-29,株式会社ＯＮＥ‐ＧＲＡＩＮ,,株式会社,埼玉県,幸手市,大字上高野１９８４番地３,,11,240,3400155,,,,,,,2026-01-29,1,,,,,ワングレイン,0
1398,2030001170762,新規,0,2026-01-29,2026-01-29,株式会社１７ｃｏｍｐａｎｙ,,株式会社,埼玉県,富士見市,ふじみ野西１丁目１７番地８－２０８,,11,235,3540035,,,,,,,2026-01-29,1,,,,,イチナナカンパニー,0
1399,2030001170770,新規,0,2026-01-29,2026-01-29,株式会社ＲＥＦＯＬＭＯ,,株式会社,埼玉県,加須市,陽光台２丁目８４３－１５４,,11,210,3491204,,,,,,,2026-01-29,1,,,,,レフォルモ,0
1425,2030003028488,新規,0,2026-01-29,2026-01-29,地球ＫＳ合資会社,,合資会社,埼玉県,春日部市,八丁目１３９６番１,,11,214,3440006,,,,,,,2026-01-29,1,,,,,,0
1437,2040003029295,新規,0,2026-01-29,2026-01-29,合同会社ＬＡＬＯ　ＣＯＬＬＥＣＴＩＯＮ,,合同会社,千葉県,成田市,本城８３－１２,,12,211,2860114,,,,,,,2026-01-29,1,,,,,ラロコレクション,0
1438,2040003029337,新規,0,2026-01-29,2026-01-29,三橋アセットマネジメント合同会社,,合同会社,千葉県,習志野市,津田沼６丁目１１番８－１号,,12,216,2750016,,,,,,,2026-01-29,1,,,,,ミツハシアセットマネジメント,0
1439,2040003029378,新規,0,2026-01-29,2026-01-29,ＳｔｅｌｌａｒＸ　Ｖｅｎｔｕｒｅｓ合同会社,,合同会社,千葉県,柏市,大津ケ丘４丁目５－１６大津ケ丘第５住宅２,,12,217,2770921,,,,,,,2026-01-29,1,,,,,ステラーエックスヴェンチャーズ,0
1440,2040005023008,新規,0,2026-01-29,2026-01-29,一般社団法人テラ・インコグニタ,,その他の設立登記法人,千葉県,我孫子市,柴崎１１２６番地の８,,12,222,2701177,,,,,,,2026-01-29,1,,,,,テラインコグニタ,0
1442,2050003009890,新規,0,2026-01-29,2026-01-29,合同会社伸武電設,,合同会社,茨城県,かすみがうら市,高倉５４７番地３,,08,230,3150077,,,,,,,2026-01-29,1,,,,,シンブデンセツ,0
1448,2070001043774,新規,0,2026-01-29,2026-01-29,佐々木モータース株式会社,,株式会社,群馬県,前橋市,粕川町深津１５４０番地１７,,10,201,3710215,,,,,,,2026-01-29,1,,,,,ササキモータース,0
1452,2080401028408,新規,0,2026-01-29,2026-01-29,株式会社塗匠ヤマダ,,株式会社,静岡県,浜松市中央区,渡瀬町１７７―２,,22,138,4350036,,,,,,,2026-01-29,1,,,,,ヌリショウヤマダ,0
1459,2110001039867,新規,0,2026-01-29,2026-01-29,株式会社はれるや,,株式会社,新潟県,加茂市,大字後須田４４４番地,,15,209,9591303,,,,,,,2026-01-29,1,,,,,ハレルヤ,0
1467,2120001283761,新規,0,2026-01-29,2026-01-29,株式会社ｓｏｂｅｒ,,株式会社,大阪府,大阪市西区,新町１丁目５番７－２０２号,,27,106,5500013,,,,,,,2026-01-29,1,,,,,ソバー,0
1468,2120001283786,新規,0,2026-01-29,2026-01-29,株式会社ＰＡＴＯＮＧ,,株式会社,大阪府,大阪市淀川区,東三国５丁目３番１５－１３０２号,,27,123,5320002,,,,,,,2026-01-29,1,,,,,パトン,0
1469,2120001283836,新規,0,2026-01-29,2026-01-29,三和株式会社,,株式会社,大阪府,大阪市中央区,博労町４丁目５番６号野上ビル３０１号室,,27,128,5410059,,,,,,,2026-01-29,1,,,,,サンワ,0
1470,2120003031796,新規,0,2026-01-29,2026-01-29,Ｎ・Ｓ合同会社,,合同会社,大阪府,大阪市住吉区,長居１丁目９番１号,,27,120,5580003,,,,,,,2026-01-29,1,,,,,エヌエス,0
1479,2122001040069,新規,0,2026-01-29,2026-01-29,株式会社ＲＥＳＯＲＴ　ＧＲＯＵＰ,,株式会社,大阪府,東大阪市,小若江４丁目１０番１６号,,27,227,5770818,,,,,,,2026-01-29,1,,,,,リゾートグループ,0
1483,2130001081487,新規,0,2026-01-29,2026-01-29,株式会社イーク,,株式会社,京都府,京都市伏見区,下鳥羽北ノ口町５１番地,,26,109,6128392,,,,,,,2026-01-29,1,,,,,イーク,0
1484,2130001081512,新規,0,2026-01-29,2026-01-29,株式会社ＥＳＳＥＮＣＥ　ＥＮ,,株式会社,京都府,京都市下京区,室町通綾小路西入ル鶏鉾町５０１,,26,106,6000000,,,,,,,2026-01-29,1,,,,,エッセンスエン,0
1485,2130003011120,新規,0,2026-01-29,2026-01-29,合同会社Ｆ‐Ｓｔｙｌｅ,,合同会社,京都府,京都市北区,衣笠赤阪町１番地３７７,,26,101,6038486,,,,,,,2026-01-29,1,,,,,エフスタイル,0
1490,2140001141513,新規,0,2026-01-29,2026-01-29,株式会社ＳＴＬＬ,,株式会社,兵庫県,神戸市須磨区,車字梨川７５４番地の１ガーデンコート車Ｄ棟２０２号室,,28,107,6540111,,,,,,,2026-01-29,1,,,,,エスティーエルエル,0
1494,2140003023148,新規,0,2026-01-29,2026-01-29,合同会社Ｍ・Ｉテック,,合同会社,兵庫県,加古郡稲美町,国岡３丁目１番地の３１,,28,381,6751115,,,,,,,2026-01-29,1,,,,,エムアイテック,0
1495,2140005027782,新規,0,2026-01-29,2026-01-29,油化事業協同組合,,その他の設立登記法人,兵庫県,川西市,久代１丁目１０－１,,28,217,6660024,,,,,,,2026-01-29,1,,,,,ユカ,0
1508,2180001170442,新規,0,2026-01-29,2026-01-29,藤商店株式会社,,株式会社,愛知県,名古屋市北区,辻町８丁目５８－１,,23,103,4620032,,,,,,,2026-01-29,1,,,,,フジショウテン,0
1509,2180001170450,新規,0,2026-01-29,2026-01-29,エイトフォー株式会社,,株式会社,愛知県,名古屋市中区,丸の内３丁目１７番２９号５Ｆ,,23,106,4600002,,,,,,,2026-01-29,1,,,,,エイトフォー,0
1513,2180003029686,新規,0,2026-01-29,2026-01-29,合同会社想いのかけら,,合同会社,愛知県,半田市,青山４丁目１７－１,,23,205,4750836,,,,,,,2026-01-29,1,,,,,オモイノカケラ,0
1514,2180003029703,新規,0,2026-01-29,2026-01-29,合同会社マイネット,,合同会社,愛知県,春日井市,桃山町２丁目１８５－３,,23,206,4860802,,,,,,,2026-01-29,1,,,,,マイネット,0
1518,2210001020478,新規,0,2026-01-29,2026-01-29,株式会社不動産プラス,,株式会社,福井県,福井市,下森田藤巻町１０の１番地,,18,201,9100145,,,,,,,2026-01-29,1,,,,,フドウサンプラス,0
1589,2220001027142,新規,0,2026-01-29,2026-01-29,ことの葉株式会社,,株式会社,石川県,野々市市,中林１丁目６６番地,,17,212,9218834,,,,,,,2026-01-29,1,,,,,コトノハ,0
1619,2290001112953,新規,0,2026-01-29,2026-01-29,株式会社ちゃまりんぐペコ,,株式会社,福岡県,福岡市早良区,百道２丁目９番６号,,40,137,8140006,,,,,,,2026-01-29,1,,,,,チャマリングペコ,0
1626,2290801032211,新規,0,2026-01-29,2026-01-29,株式会社もみの木,,株式会社,福岡県,北九州市小倉北区,東篠崎１丁目２番２８－５０３号,,40,106,8020072,,,,,,,2026-01-29,1,,,,,モミノキ,0
1630,2300003002408,新規,0,2026-01-29,2026-01-29,３０２合同会社,,合同会社,佐賀県,鳥栖市,弥生が丘２丁目１５０番地６１,,41,203,8410005,,,,,,,2026-01-29,1,,,,,,0
1635,2320003004889,新規,0,2026-01-29,2026-01-29,サイエスク合同会社,,合同会社,大分県,大分市,明野高尾３丁目７番地の５,,44,201,8700162,,,,,,,2026-01-29,1,,,,,サイエスク,0
1644,2360003015585,新規,0,2026-01-29,2026-01-29,合同会社ウミッチョ,,合同会社,沖縄県,那覇市,曙３丁目１３－１０,,47,201,9000002,,,,,,,2026-01-29,1,,,,,ウミッチョ,0
1646,2370003007458,新規,0,2026-01-29,2026-01-29,合同会社フォーキッズ,,合同会社,宮城県,仙台市宮城野区,岩切字若宮前１７番２,,04,102,9830821,,,,,,,2026-01-29,1,,,,,フォーキッズ,0
1661,2700150016327,新規,0,2026-01-29,2015-10-09,北杜市農業再生協議会,,その他,山梨県,北杜市,明野町上手５２１９－１,,19,209,4080204,,,,,,,2015-10-09,1,,,,,ホクトシノウギヨウサイセイキヨウギカイ,0
1662,2700150134203,新規,0,2026-01-29,2026-01-29,Ｇｕａｎｇ　Ｚｈｏｕ　Ｊｉａ　Ｙｉ　Ｒｉ　Ｙｏｎｇ　Ｐｉｎ　Ｙｏｕ　Ｘｉａｎ　Ｇｏｎｇ　Ｓｉ,,外国会社等,,,,,,,,２Ｆ，Ｎｏ．８３６　Ｃｏｎｇｃｈｅｎｇ　Ａｖｅｎｕｅ，Ｃｈｅｎｊｉａｏ　Ｓｔｒｅｅｔ，Ｃｏｎｇｈｕａ　Ｄｉｓｔｒｉｃｔ，Ｇｕａｎｇｚｈｏｕ　５１０９００　ＣＮ,,,,,,2026-01-29,1,,,,,グゥアンゾウジャイルイヨンピンユウゲンコウシ,0
1663,2700150134211,新規,0,2026-01-29,2026-01-29,Ｋａｅｄｅ　Ｐｒｉｍｅ　Ｌｉｍｉｔｅｄ,,外国会社等,,,,,,,,４０／Ｆ　Ｌｅｅ　Ｇａｒｄｅｎ　Ｏｎｅ　３３　Ｈｙｓａｎ　Ａｖｅｎｕｅ　Ｃａｕｓｅｗａｙ　Ｂａｙ　ＨＫ,,,,,,2026-01-29,1,,,,,カエデプライムリミテツド,0
1802,3010001262255,新規,0,2026-01-29,2026-01-29,株式会社ユウレカベース,,株式会社,東京都,中央区,日本橋室町１丁目１１番１２号日本橋水野ビル７階,,13,102,1030022,,,,,,,2026-01-29,1,,,,,ユウレカベース,0
1803,3010001262362,新規,0,2026-01-29,2026-01-29,株式会社ＢＲＯＷＮ　ＣＯＷ　ＣＡＦＥ,,株式会社,東京都,中央区,築地１丁目５番１号,,13,102,1040045,,,,,,,2026-01-29,1,,,,,ブラウンカウカフェ,0
1823,3010003050212,新規,0,2026-01-29,2026-01-29,合同会社ＪＲＰＦ尼崎,,合同会社,東京都,千代田区,丸の内１丁目４番１号東京共同会計事務所内,,13,101,1000005,,,,,,,2026-01-29,1,,,,,ジェイアールピーエフアマガサキ,0
1840,3010005041291,新規,0,2026-01-29,2026-01-29,一般社団法人金融業務モデリング研究会,,その他の設立登記法人,東京都,中央区,銀座１丁目２２番１１号銀座大竹ビジデンス２Ｆ,,13,102,1040061,,,,,,,2026-01-29,1,,,,,キンユウギョウムモデリングケンキュウウカイ,0
1841,3010005041300,新規,0,2026-01-29,2026-01-29,ＤＲＦ３号一般社団法人,,その他の設立登記法人,東京都,千代田区,丸の内１丁目４番１号東京共同会計事務所内,,13,101,1000005,,,,,,,2026-01-29,1,,,,,ディーアールエフサンゴウ,0
2019,3010401195988,新規,0,2026-01-29,2026-01-29,株式会社ＡＩ導入研究所,,株式会社,東京都,港区,赤坂９丁目６－３０,,13,103,1070052,,,,,,,2026-01-29,1,,,,,エーアイドウニュウケンキュウジョ,0
2020,3010401196111,新規,0,2026-01-29,2026-01-29,ＭＰ‐２６０２株式会社,,株式会社,東京都,港区,虎ノ門２丁目６番１号,,13,103,1050001,,,,,,,2026-01-29,1,,,,,エムピーニロクゼロニ,0
2021,3010401196136,新規,0,2026-01-29,2026-01-29,ＣｏＶａｎｃｅＷｏｒｋｓ株式会社,,株式会社,東京都,港区,港南２丁目１６番４号品川グランドセントラルタワー８階,,13,103,1080075,,,,,,,2026-01-29,1,,,,,コヴァンスワークス,0
2022,3010401196193,新規,0,2026-01-29,2026-01-29,ベッカーロボティックジャパン株式会社,,株式会社,東京都,港区,南青山１丁目１番１号新青山ビル東館７階,,13,103,1070062,,,,,,,2026-01-29,1,,,,,ベッカーロボティックジャパン,0
2028,3010403037189,新規,0,2026-01-29,2026-01-29,合同会社ＴａｋｅＤ　Ｌａｂｓ,,合同会社,東京都,港区,芝浦４丁目１６番１４－２９０５号,,13,103,1080023,,,,,,,2026-01-29,1,,,,,テイクディーラボズ,0
2047,3010503008164,新規,0,2026-01-29,2026-01-29,合同会社プレジーヌ,,合同会社,東京都,台東区,上野７丁目８番１５－１００３号,,13,106,1100005,,,,,,,2026-01-29,1,,,,,プレジーヌ,0
2051,3010703008096,新規,0,2026-01-29,2026-01-29,合同会社Ｍ．Ｙ．Ｐ,,合同会社,東京都,品川区,東大井５丁目２３－１６,,13,109,1400011,,,,,,,2026-01-29,1,,,,,エムワイピー,0
2054,3010803005704,新規,0,2026-01-29,2026-01-29,合同会社Ｅｔｕｄｉａ,,合同会社,東京都,大田区,西糀谷４丁目６番２号レガーロ・ノンノＩＩ４０１,00142379,13,111,1440034,,,,,,,2026-01-29,1,,,,,エチューディア,0
2056,3010901058868,新規,0,2026-01-29,2026-01-29,ＮＩＴＡ株式会社,,株式会社,東京都,世田谷区,新町３丁目２６番８号エヌクオーレ３０１,,13,112,1540014,,,,,,,2026-01-29,1,,,,,ニータ,0
2059,3010903010587,新規,0,2026-01-29,2026-01-29,合同会社イケヤ・コンサルティング,,合同会社,東京都,世田谷区,用賀３丁目８―２１,,13,112,1580097,,,,,,,2026-01-29,1,,,,,イケヤコンサルティング,0
2066,3011001175240,新規,0,2026-01-29,2026-01-29,株式会社ＴＯＩ,,株式会社,東京都,渋谷区,神宮前４丁目１番１９号ＪＫビル１０１,,13,113,1500001,,,,,,,2026-01-29,1,,,,,トイ,0
2067,3011003023372,新規,0,2026-01-29,2026-01-29,合同会社ＭｉｇｈｔｙＬｉｏｎｓＦＣ,,合同会社,東京都,渋谷区,道玄坂１丁目１０番８号渋谷道玄坂東急ビル２Ｆ－Ｃ,,13,113,1500043,,,,,,,2026-01-29,1,,,,,マイティーライオンズエフシー,0
2068,3011003023430,新規,0,2026-01-29,2026-01-29,合同会社ニラネット,,合同会社,東京都,渋谷区,恵比寿４丁目２０番３号恵比寿ガーデンプレイスタワー１８階,,13,113,1500013,,,,,,,2026-01-29,1,,,,,ニラネット,0
2073,3011101114569,新規,0,2026-01-29,2026-01-29,ＡＩＸ　Ｃａｐｉｔａｌ株式会社,,株式会社,東京都,新宿区,市谷左内町５番地ＬＯＷＰビル,,13,104,1620846,,,,,,,2026-01-29,1,,,,,アックスキャピタル,0
2104,3011601029341,新規,0,2026-01-29,2026-01-29,株式会社Ｈ．Ｂｒａｖｅ,,株式会社,東京都,練馬区,旭丘１丁目５３番１２号,,13,120,1760005,,,,,,,2026-01-29,1,,,,,アッシュブラーヴ,0
2111,3012401044076,新規,0,2026-01-29,2026-01-29,株式会社ベース,,株式会社,東京都,多摩市,落合１丁目８－１,,13,224,2060033,,,,,,,2026-01-29,1,,,,,ベース,0
2112,3012403007592,新規,0,2026-01-29,2026-01-29,合同会社宮内商店,,合同会社,東京都,府中市,清水が丘２丁目４１－２,,13,206,1830015,,,,,,,2026-01-29,1,,,,,ミヤウチショウテン,0
2120,3013301055659,新規,0,2026-01-29,2026-01-29,カンマク株式会社,,株式会社,東京都,豊島区,東池袋２丁目６０番２号池袋パークハイツ２階Ｂ－０１号室,,13,116,1700013,,,,,,,2026-01-29,1,,,,,カンマク,0
2124,3020001166876,新規,0,2026-01-29,2026-01-29,ＲｅｌａｔｉｏｎＴｗｉｎ株式会社,,株式会社,神奈川県,川崎市麻生区,高石５丁目２１番３－５号,,14,137,2150003,,,,,,,2026-01-29,1,,,,,リレーションツイン,0
2127,3020003030238,新規,0,2026-01-29,2026-01-29,欣彬合同会社,,合同会社,神奈川県,横浜市南区,白妙町５丁目６５番地３シティコープ横浜阪東橋５０２号,,14,105,2320023,,,,,,,2026-01-29,1,,,,,キンアキ,0
2128,3020003030254,新規,0,2026-01-29,2026-01-29,Ｂｌｕｅ　Ｒｉｂｂｏｎ　Ｓｔｒａｔｅｇｙ合同会社,,合同会社,神奈川県,横浜市戸塚区,柏尾町１１１９番地７１,,14,110,2440812,,,,,,,2026-01-29,1,,,,,ブルーリボンストラテジー,0
2218,3030001170720,新規,0,2026-01-29,2026-01-29,株式会社ルキリマ,,株式会社,埼玉県,鴻巣市,天神３丁目１０番２８号,,11,217,3650036,,,,,,,2026-01-29,1,,,,,ルキリマ,0
2268,3040001142272,新規,0,2026-01-29,2026-01-29,株式会社コネクト・ハーツ,,株式会社,千葉県,鎌ケ谷市,中央２丁目１６番２５号,,12,224,2730124,,,,,,,2026-01-29,1,,,,,コネクトハーツ,0
2269,3040001142280,新規,0,2026-01-29,2026-01-29,株式会社Ｄｅａｒ　Ｐａｒｔｎｅｒｓ,,株式会社,千葉県,市川市,市川南３丁目３番１７号,,12,203,2720033,,,,,,,2026-01-29,1,,,,,ディアーパートナーズ,0
2276,3040003029393,新規,0,2026-01-29,2026-01-29,エグザム・カレッジ合同会社,,合同会社,千葉県,柏市,若柴１７８番地４柏の葉キャンパス１４８街区１パークシティ柏の葉キャンパスザ・ゲートタワーウェスト３階Ｖ１６１,,12,217,2770871,,,,,,,2026-01-29,1,,,,,エグザムカレッジ,0
2278,3050003009907,新規,0,2026-01-29,2026-01-29,ステイトリィ合同会社,,合同会社,茨城県,日立市,西成沢町１丁目３１番１号,,08,202,3160032,,,,,,,2026-01-29,1,,,,,ステイトリィ,0
2282,3080401028407,新規,0,2026-01-29,2026-01-29,株式会社ＨＡＭＡＭＡＴＳＵ　ＳＡＮＤＣＲＥＳＴ,,株式会社,静岡県,浜松市中央区,和田町７０８番地の１,,22,138,4350016,,,,,,,2026-01-29,1,,,,,ハママツサンドクレスト,0
2286,3100001039297,新規,0,2026-01-29,2026-01-29,ＳＰＨホールディングス株式会社,,株式会社,長野県,塩尻市,大字広丘原新田２２４番地４４,,20,215,3990706,,,,,,,2026-01-29,1,,,,,エスピーエイチホールディングス,0
2287,3100001039306,新規,0,2026-01-29,2026-01-29,株式会社エンジョイライフ,,株式会社,長野県,岡谷市,長地鎮２丁目６番５号,,20,204,3940087,,,,,,,2026-01-29,1,,,,,エンジョイライフ,0
2290,3110003006055,新規,0,2026-01-29,2026-01-29,Ｔｒｉｐ　Ｈｏｕｓｅ合同会社,,合同会社,新潟県,柏崎市,大字石曽根５５８９番地,,15,205,9451436,,,,,,,2026-01-29,1,,,,,トリップハウス,0
2298,3120001283637,新規,0,2026-01-29,2026-01-29,Ｂｅｙｏｎｄ　Ｍ＆Ｃ株式会社,,株式会社,大阪府,大阪市北区,堂島浜２丁目２番２８号堂島アクシスビル４階ＳＹＮＴＨ,,27,127,5300004,,,,,,,2026-01-29,1,,,,,ビヨンドエムアンドシー,0
2299,3120001283785,新規,0,2026-01-29,2026-01-29,株式会社Ｈａｊｉｍｅ　Ｒｅａｌ　Ｅｓｔａｔｅ,,株式会社,大阪府,大阪市北区,西天満４丁目５－７三旺ビル５０１,,27,127,5300047,,,,,,,2026-01-29,1,,,,,ハジメリアルエステート,0
2303,3120003031787,新規,0,2026-01-29,2026-01-29,合同会社善ケア,,合同会社,大阪府,大阪市西区,南堀江２丁目１３番２号ドエル南堀江１番館７０３,,27,106,5500015,,,,,,,2026-01-29,1,,,,,ゼンケア,0
2304,3120003031804,新規,0,2026-01-29,2026-01-29,合同会社ＰＯＯＬ　ＢＯＸ,,合同会社,大阪府,大阪市北区,梅田１丁目２番２号大阪駅前第２ビル１２－１２,,27,127,5300001,,,,,,,2026-01-29,1,,,,,プールボックス,0
2308,3122001040118,新規,0,2026-01-29,2026-01-29,株式会社Ｔｏｙｎｅｘ,,株式会社,大阪府,八尾市,西木の本３丁目１１８番地,,27,212,5810045,,,,,,,2026-01-29,1,,,,,トイネックス,0
2312,3130001081486,新規,0,2026-01-29,2026-01-29,株式会社銀閣荘,,株式会社,京都府,京都市左京区,銀閣寺町１０８番地５,,26,103,6068402,,,,,,,2026-01-29,1,,,,,ギンカクソウ,0
2313,3130001081503,新規,0,2026-01-29,2026-01-29,ｘＫｙｏｔｏ株式会社,,株式会社,京都府,京都市下京区,七条通油小路東入大黒町２２７番地第２キョートビル４０２,,26,106,6008223,,,,,,,2026-01-29,1,,,,,クロスキョート,0
2315,3130005017577,新規,0,2026-01-29,2026-01-29,一般社団法人歴史と伝統文化フォーラム,,その他の設立登記法人,京都府,長岡京市,今里北ノ町３番地の１１,,26,209,6170814,,,,,,,2026-01-29,1,,,,,レキシトデントウブンカフォーラム,0
2322,3140003023155,新規,0,2026-01-29,2026-01-29,合同会社めぐみ,,合同会社,兵庫県,神戸市長田区,神楽町６丁目７番６号,,28,106,6530836,,,,,,,2026-01-29,1,,,,,メグミ,0
2325,3160003003717,新規,0,2026-01-29,2026-01-29,合同会社ＭＡＲＧＥ．,,合同会社,滋賀県,草津市,西矢倉２丁目１番５－１０１号セレンディピティ矢倉,,25,206,5250052,,,,,,,2026-01-29,1,,,,,マージ,0
2326,3170001018963,新規,0,2026-01-29,2026-01-29,株式会社新未,,株式会社,和歌山県,和歌山市,有本５２６番地６,,30,201,6408390,,,,,,,2026-01-29,1,,,,,シンライ,0
2334,3180001170474,新規,0,2026-01-29,2026-01-29,株式会社Ｒｅｂｏｏｔ,,株式会社,愛知県,名古屋市昭和区,小坂町１丁目１２番地３,,23,107,4660021,,,,,,,2026-01-29,1,,,,,リブート,0
2345,3190001032863,新規,0,2026-01-29,2026-01-29,株式会社Ｓｍｉｌｅ　Ａｇａｉｎ,,株式会社,三重県,津市,河辺町３５８４番地１３,,24,201,5140065,,,,,,,2026-01-29,1,,,,,スマイルアゲイン,0
2346,3190003005330,新規,0,2026-01-29,2026-01-29,ウェルビーネクスト合同会社,,合同会社,三重県,桑名市,大字額田２０２５番地４,,24,205,5110911,,,,,,,2026-01-29,1,,,,,ウェルビーネクスト,0
2415,3250001021488,新規,0,2026-01-29,2026-01-29,株式会社ｅｌｅｍｅｎｔ　ｐｌｕｓ,,株式会社,山口県,周南市,松保町２‐８グランドパレス速玉１１０１,,35,215,7450847,,,,,,,2026-01-29,1,,,,,エレメントプラス,0
2419,3260001040941,新規,0,2026-01-29,2026-01-29,株式会社みなと,,株式会社,岡山県,岡山市北区,奉還町２丁目１番２７号ＴｈｅＭＯＤＥＲＮ６０５,,33,101,7000026,,,,,,,2026-01-29,1,,,,,ミナト,0
2425,3290001112944,新規,0,2026-01-29,2026-01-29,ＢＤＪ株式会社,,株式会社,福岡県,久留米市,長門石２丁目９番２８号,,40,203,8300027,,,,,,,2026-01-29,1,,,,,ビーディジェイ,0
2429,3290003017976,新規,0,2026-01-29,2026-01-29,合同会社フレッシュチャンスキャリア,,合同会社,福岡県,福岡市城南区,梅林２丁目２３番９号,,40,136,8140144,,,,,,,2026-01-29,1,,,,,フレッシュチャンスキャリア,0
2432,3310005008888,新規,0,2026-01-29,2026-01-29,一般社団法人Ｐｏｎｔｅ　Ｒｏｄａ　Ｎａｇａｓａｋｉ,,その他の設立登記法人,長崎県,長崎市,滑石２丁目２８番２３号,,42,201,8528061,,,,,,,2026-01-29,1,,,,,ポンテローダナガサキ,0
2436,3340001027939,新規,0,2026-01-29,2026-01-29,丸平電子科技株式会社,,株式会社,鹿児島県,鹿児島市,紫原３丁目２９番１０号,,46,201,8900082,,,,,,,2026-01-29,1,,,,,マルヒラデンシカギ,0
2442,3370001053420,新規,0,2026-01-29,2026-01-29,株式会社なとりす,,株式会社,宮城県,登米市,東和町米谷字新細待井４１番地１０,,04,212,9870902,,,,,,,2026-01-29,1,,,,,ナトリス,0
2446,3430001096149,新規,0,2026-01-29,2026-01-29,好明日株式会社,,株式会社,北海道,札幌市南区,藤野三条１丁目２番１０号,,01,106,0612283,,,,,,,2026-01-29,1,,,,,ハウアス,0
2449,3430003018522,新規,0,2026-01-29,2026-01-29,合同会社ＣＯＭＨ,,合同会社,北海道,札幌市中央区,北五条西２７丁目１番２０‐２０２号,,01,101,0640825,,,,,,,2026-01-29,1,,,,,コム,0
2450,3430003018539,新規,0,2026-01-29,2026-01-29,合同会社ゼロワンラボ,,合同会社,北海道,江別市,大麻晴美町４番地の９,,01,217,0690866,,,,,,,2026-01-29,1,,,,,ゼロワンラボ,0
2456,3700150134210,新規,0,2026-01-29,2026-01-29,Ｗｅｌｌｓｐｒｉｎｇ　Ｉｎｖｅｓｔｍｅｎｔ　Ｈｏｌｄｉｎｇｓ　Ｌｉｍｉｔｅｄ,,外国会社等,,,,,,,,１４ｔｈ　Ｆｌｏｏｒ　Ｓａｎｄｏｚ　Ｃｅｎｔｒｅ　１７８－１８２　Ｔｅｘａｃｏ　Ｒｏａｄ　Ｔｓｕｅｎ　Ｗａｎ　Ｈｏｎｇ　Ｋｏｎｇ,,,,,,2026-01-29,1,,,,,ウエルスプリングインベストメントホールデイングスリミテツド,0
2610,4010001262188,新規,0,2026-01-29,2026-01-29,株式会社Ｓａｌｏｎ　ｄｅ　Ｍ,,株式会社,東京都,文京区,湯島３丁目３８番１５号伸協ビルＢ１,,13,105,1130034,,,,,,,2026-01-29,1,,,,,サロンドエム,0
2611,4010001262353,新規,0,2026-01-29,2026-01-29,ＴｅｃｈＣｏｍｐｉｌｅｒ株式会社,,株式会社,東京都,中央区,日本橋兜町１７番２号兜町第６葉山ビル４Ｆ,,13,102,1030026,,,,,,,2026-01-29,1,,,,,テックコンパイラー,0
2612,4010001262361,新規,0,2026-01-29,2026-01-29,株式会社ＯＭＳ,,株式会社,東京都,中央区,日本橋大伝馬町１３番１０－１００５号,,13,102,1030011,,,,,,,2026-01-29,1,,,,,オーエムエス,0
2613,4010001262378,新規,0,2026-01-29,2026-01-29,株式会社ＴＲＵＳＴ,,株式会社,東京都,千代田区,内神田１丁目１１番１１号藤井第一ビル２階,,13,101,1010047,,,,,,,2026-01-29,1,,,,,トラスト,0
2635,4010003050211,新規,0,2026-01-29,2026-01-29,ＤＲＦ３号合同会社,,合同会社,東京都,千代田区,丸の内１丁目４番１号東京共同会計事務所内,,13,101,1000005,,,,,,,2026-01-29,1,,,,,ディーアールエフサンゴウ,0
2652,4010005041299,新規,0,2026-01-29,2026-01-29,ＢＲ　ＮＡＫＡＮＯ一般社団法人,,その他の設立登記法人,東京都,千代田区,丸の内１丁目４番１号東京共同会計事務所内,,13,101,1000005,,,,,,,2026-01-29,1,,,,,ビーアールナカノ,0
2827,4010401196093,新規,0,2026-01-29,2026-01-29,株式会社ワンダートゥデイ,,株式会社,東京都,港区,南青山３丁目１番３６号青山丸竹ビル６Ｆ,,13,103,1070062,,,,,,,2026-01-29,1,,,,,ワンダートゥデイ,0
2828,4010401196102,新規,0,2026-01-29,2026-01-29,株式会社ＴＷＯ　ＬＡＺＹ,,株式会社,東京都,港区,白金台３丁目２番１０号白金台ビル６階,,13,103,1080071,,,,,,,2026-01-29,1,,,,,トゥーレイジー,0
2829,4010401196110,新規,0,2026-01-29,2026-01-29,ＭＰ‐２６０１株式会社,,株式会社,東京都,港区,虎ノ門２丁目６番１号,,13,103,1050001,,,,,,,2026-01-29,1,,,,,エムピーニロクゼロイチ,0
2830,4010401196168,新規,0,2026-01-29,2026-01-29,株式会社ＫＵＲＡＵＤ,,株式会社,東京都,港区,南青山３丁目１番３６号,,13,103,1070062,,,,,,,2026-01-29,1,,,,,クラウド,0
2839,4010403036958,新規,0,2026-01-29,2026-01-29,チーズアンドカンパニー合同会社,,合同会社,東京都,港区,北青山１丁目３－３三橋ビル３階,,13,103,1070061,,,,,,,2026-01-29,1,,,,,チーズアンドカンパニー,0
2840,4010403037171,新規,0,2026-01-29,2026-01-29,Ｌｉｆｅ　Ｄｅｓｉｇｎ　Ｌａｂｏｒａｔｏｒｙ合同会社,,合同会社,東京都,港区,南青山３丁目１番３６号青山丸竹ビル６Ｆ,,13,103,1070062,,,,,,,2026-01-29,1,,,,,ライフデザインラボラトリー,0
2859,4010601068646,新規,0,2026-01-29,2026-01-29,株式会社東スポリユース,,株式会社,東京都,江東区,越中島２丁目１番３０号６Ｆ,,13,108,1350044,,,,,,,2026-01-29,1,,,,,トウスポリユース,0
2864,4010801037005,新規,0,2026-01-29,2026-01-29,株式会社ＹＫマネジメントパートナーズ,,株式会社,東京都,大田区,萩中２丁目１番４号丸栄ビルＥＡＳＴ３０２,,13,111,1440047,,,,,,,2026-01-29,1,,,,,ワイケイマネジメントパートナーズ,0
2877,4011001174935,新規,0,2026-01-29,2026-01-29,株式会社桜和,,株式会社,東京都,渋谷区,円山町５番５号Ｎａｖｉ渋谷Ｖ３階,00142378,13,113,1500044,,,,,,,2026-01-29,1,,,,,サクラワ,0
2878,4011001174984,新規,0,2026-01-29,2026-01-29,株式会社ウェブアカ,,株式会社,東京都,渋谷区,広尾１丁目２番地１号ヒカリビル４階,,13,113,1500012,,,,,,,2026-01-29,1,,,,,ウェブアカ,0
2879,4011001175058,新規,0,2026-01-29,2026-01-29,株式会社ペトログ,,株式会社,東京都,渋谷区,円山町５番３号ＭＩＥＵＸ渋谷ビル８階,,13,113,1500044,,,,,,,2026-01-29,1,,,,,ペトログ,0
2880,4011001175157,新規,0,2026-01-29,2026-01-29,株式会社レオ,,株式会社,東京都,渋谷区,円山町５番３号ＭＩＥＵＸ渋谷ビル８階,,13,113,1500044,,,,,,,2026-01-29,1,,,,,レオ,0
2881,4011001175289,新規,0,2026-01-29,2026-01-29,株式会社Ｌ．Ａ．Ｐ,,株式会社,東京都,渋谷区,桜丘町３番１－１９１４号ブランズ渋谷桜丘,,13,113,1500031,,,,,,,2026-01-29,1,,,,,エルエーピー,0
2882,4011003023396,新規,0,2026-01-29,2026-01-29,合同会社リュミエール,,合同会社,東京都,目黒区,青葉台２丁目５番１８－１０１号,,13,110,1530042,,,,,,,2026-01-29,1,,,,,リュミエール,0
2883,4011003023446,新規,0,2026-01-29,2026-01-29,合同会社ｋｕｕ,,合同会社,東京都,目黒区,下目黒１丁目１番１４号コノトラビル７Ｆ,,13,110,1530064,,,,,,,2026-01-29,1,,,,,クウ,0
2890,4011101114576,新規,0,2026-01-29,2026-01-29,株式会社ＳＣＩ‐ＯＮ,,株式会社,東京都,新宿区,新宿１丁目３６－２新宿第七葉山ビル３Ｆ,,13,104,1600022,,,,,,,2026-01-29,1,,,,,サイオン,0
2893,4011201026928,新規,0,2026-01-29,2026-01-29,株式会社ナカナカ,,株式会社,東京都,中野区,東中野３丁目１６－１２,,13,114,1640003,,,,,,,2026-01-29,1,,,,,ナカナカ,0
2926,4011401027759,新規,0,2026-01-29,2026-01-29,株式会社ＣＩＥＬＯ　ＪＰ,,株式会社,東京都,板橋区,小茂根４丁目８番３－１０５号,,13,119,1730037,,,,,,,2026-01-29,1,,,,,シエロジェイピー,0
2927,4011501033013,新規,0,2026-01-29,2026-01-29,株式会社ＴａＬｉ,,株式会社,東京都,荒川区,南千住４丁目７－３ロイヤルパークスタワー南千住２２０９,,13,118,1160003,,,,,,,2026-01-29,1,,,,,タリ,0
2928,4011503006850,新規,0,2026-01-29,2026-01-29,合同会社大地,,合同会社,東京都,北区,王子２丁目２１番７－３０４号フラットミワ,,13,117,1140002,,,,,,,2026-01-29,1,,,,,ダイチ,0
2930,4011601029340,新規,0,2026-01-29,2026-01-29,株式会社Ｈｏｒｉｚｏｎ　Ｌｅｔｔｅｒｓ,,株式会社,東京都,練馬区,桜台５丁目１１番２２号ｖｉｔａｐａｓｓｏ楓の樹１１号室,,13,120,1760002,,,,,,,2026-01-29,1,,,,,ホライゾンレターズ,0
2934,4011803007301,新規,0,2026-01-29,2026-01-29,エムディエム合同会社,,合同会社,東京都,葛飾区,堀切３丁目１４番５－１２０４号,,13,122,1240006,,,,,,,2026-01-29,1,,,,,エムディエム,0
2940,4012801024503,新規,0,2026-01-29,2026-01-29,株式会社３７,,株式会社,東京都,東大和市,桜が丘４丁目２８８番地の１５,,13,220,2070022,,,,,,,2026-01-29,1,,,,,サンナナ,0
2949,4020001166702,新規,0,2026-01-29,2026-01-29,株式会社ＬＡＮＤＲＯＯＴＳ,,株式会社,神奈川県,川崎市中原区,今井南町３２―１９―２１１号室,,14,133,2110064,,,,,,,2026-01-29,1,,,,,ランドルーツ,0
2950,4020001166900,新規,0,2026-01-29,2026-01-29,株式会社なごみホールディングス,,株式会社,神奈川県,横浜市都筑区,茅ケ崎東１丁目１番６‐９１１号,,14,118,2240033,,,,,,,2026-01-29,1,,,,,ナゴミホールディングス,0
2969,4021003017067,新規,0,2026-01-29,2026-01-29,合同会社湘南,,合同会社,神奈川県,小田原市,城山１丁目８番５－９０２号ロイヤルテラス小田原城山,,14,206,2500045,,,,,,,2026-01-29,1,,,,,ショウナン,0
3063,4030001170728,新規,0,2026-01-29,2026-01-29,タンブルウィード株式会社,,株式会社,埼玉県,越谷市,伊原１丁目４番４３号,,11,222,3430831,,,,,,,2026-01-29,1,,,,,タンブルウィード,0
3064,4030001170744,新規,0,2026-01-29,2026-01-29,株式会社アイエイト,,株式会社,埼玉県,狭山市,大字水野６３９－３－３０３,,11,215,3501317,,,,,,,2026-01-29,1,,,,,アイエイト,0
3065,4030001170793,新規,0,2026-01-29,2026-01-29,株式会社Ｉ＆Ｈ,,株式会社,埼玉県,さいたま市大宮区,天沼町１丁目３４０番地１,,11,103,3300834,,,,,,,2026-01-29,1,,,,,アイアンドエイチ,0
3097,4030003028536,新規,0,2026-01-29,2026-01-29,合同会社リアル開発,,合同会社,埼玉県,さいたま市西区,大字島根２２８－２,,11,101,3310054,,,,,,,2026-01-29,1,,,,,リアルカイハツ,0
3109,4040001142172,新規,0,2026-01-29,2026-01-29,株式会社Ｕ‐ＬＩＦＥ,,株式会社,千葉県,船橋市,前原西１丁目２２番１６号ハシモトビル２０２,,12,204,2740825,,,,,,,2026-01-29,1,,,,,ユーライフ,0
3110,4040001142247,新規,0,2026-01-29,2026-01-29,ＲＳ　ＣＯＭＰＡＮＹ株式会社,,株式会社,千葉県,松戸市,古ケ崎１９２番地の６,,12,207,2710068,,,,,,,2026-01-29,1,,,,,アールエスカンパニー,0
3111,4040001142255,新規,0,2026-01-29,2026-01-29,ＥＩＳＨＩＮ建設株式会社,,株式会社,千葉県,船橋市,三山９丁目４０－１４,,12,204,2740072,,,,,,,2026-01-29,1,,,,,エイシンケンセツ,0
3113,4040005023014,新規,0,2026-01-29,2026-01-29,あかり相続手続行政書士法人,,その他の設立登記法人,千葉県,千葉市中央区,中央４丁目９－８エムズビル２０１,,12,101,2600013,,,,,,,2026-01-29,1,,,,,アカリソウゾクテツヅキ,0
3114,4040005023022,新規,0,2026-01-29,2026-01-29,一般社団法人継和企画,,その他の設立登記法人,千葉県,船橋市,芝山４丁目１４番１３号,,12,204,2740816,,,,,,,2026-01-29,1,,,,,ケイワキカク,0
3118,4050003009897,新規,0,2026-01-29,2026-01-29,介護タクシーすまいりゅう合同会社,,合同会社,茨城県,龍ケ崎市,平台１丁目１２番地２３,,08,208,3010003,,,,,,,2026-01-29,1,,,,,カイゴタクシースマイリュウ,0
3119,4050003009906,新規,0,2026-01-29,2026-01-29,合同会社正野輔装蹄所,,合同会社,茨城県,龍ケ崎市,松ケ丘１丁目２４番地８,,08,208,3010853,,,,,,,2026-01-29,1,,,,,マサノタスクソウテイジョ,0
3129,4060003005937,新規,0,2026-01-29,2026-01-29,合同会社メモリリンクス,,合同会社,栃木県,栃木市,梅沢町２６番地,,09,203,3280204,,,,,,,2026-01-29,1,,,,,メモリリンクス,0
3134,4080005007756,新規,0,2026-01-29,2026-01-29,一般財団法人浮月内匠寮,,その他の設立登記法人,静岡県,静岡市葵区,紺屋町１１－１,,22,101,4200852,,,,,,,2026-01-29,1,,,,,フゲツタクミリョウ,0
3136,4080103003517,新規,0,2026-01-29,2026-01-29,合同会社はつね,,合同会社,静岡県,三島市,初音台１３番地の１０,,22,206,4110018,,,,,,,2026-01-29,1,,,,,ハツネ,0
3137,4080401028389,新規,0,2026-01-29,2026-01-29,株式会社ｍｕｔｅｋｉ,,株式会社,静岡県,浜松市中央区,入野町１６１０８－４,,22,138,4328061,,,,,,,2026-01-29,1,,,,,ムテキ,0
3139,4080405007793,新規,0,2026-01-29,2026-01-29,一般社団法人けいちゃん・Ｐａｗ,,その他の設立登記法人,静岡県,磐田市,下大之郷９３５番地３,,22,211,4380052,,,,,,,2026-01-29,1,,,,,ケイチャンパウ,0
3152,4120001283611,新規,0,2026-01-29,2026-01-29,株式会社十二行,,株式会社,大阪府,大阪市港区,弁天３丁目１番２１号フローレンス弁天６０１号室,,27,107,5520007,,,,,,,2026-01-29,1,,,,,ジュウニコウ,0
3153,4120001283743,新規,0,2026-01-29,2026-01-29,株式会社ＡＫＴ,,株式会社,大阪府,大阪市生野区,生野東４丁目１０番１０号,,27,116,5440025,,,,,,,2026-01-29,1,,,,,アクト,0
3154,4120001283776,新規,0,2026-01-29,2026-01-29,株式会社タバナ医療輸送,,株式会社,大阪府,門真市,桑才新町５番３号,,27,223,5710043,,,,,,,2026-01-29,1,,,,,タバナイリョウユソウ,0
3155,4120001283784,新規,0,2026-01-29,2026-01-29,株式会社大博,,株式会社,大阪府,大阪市天王寺区,大道２丁目１番２３－１階,,27,109,5430052,,,,,,,2026-01-29,1,,,,,ダイハク,0
3156,4120001283801,新規,0,2026-01-29,2026-01-29,株式会社ＦＫリース,,株式会社,大阪府,大阪市西区,新町１丁目３３番１号,,27,106,5500013,,,,,,,2026-01-29,1,,,,,エフケーリース,0
3165,4120901052149,新規,0,2026-01-29,2026-01-29,株式会社吉翔,,株式会社,大阪府,豊中市,玉井町２丁目１２番５６号,,27,203,5600026,,,,,,,2026-01-29,1,,,,,ヨシショウ,0
3166,4120903006053,新規,0,2026-01-29,2026-01-29,合同会社ＹＡＭＡＴＯ　ＷＯＲＫＳ,,合同会社,大阪府,池田市,神田２丁目４番６号アムールヴィルヌーブ４０１,,27,204,5630043,,,,,,,2026-01-29,1,,,,,ヤマトワークス,0
3167,4120905006844,新規,0,2026-01-29,2026-01-29,一般社団法人とよのとどろみ,,その他の設立登記法人,大阪府,豊能郡豊能町,切畑４５９番地,,27,321,5630213,,,,,,,2026-01-29,1,,,,,トヨノトドロミ,0
3168,4122003003443,新規,0,2026-01-29,2026-01-29,合同会社Ｓ＆Ｓライフプラス,,合同会社,大阪府,東大阪市,俊徳町４丁目１０番６号ヴィクトリアコート長瀬ＲＯＯＭ１,,27,227,5770831,,,,,,,2026-01-29,1,,,,,エスアンドエスライフプラス,0
3171,4130001081469,新規,0,2026-01-29,2026-01-29,ファントリアホールディングス株式会社,,株式会社,京都府,宇治市,大久保町北ノ山９６番地の１,,26,204,6110033,,,,,,,2026-01-29,1,,,,,ファントリアホールディングス,0
3172,4130001081493,新規,0,2026-01-29,2026-01-29,株式会社ｍｏＡ,,株式会社,京都府,京都市右京区,西院乾町７１番地,,26,108,6150061,,,,,,,2026-01-29,1,,,,,モア,0
3173,4130001081510,新規,0,2026-01-29,2026-01-29,株式会社英海,,株式会社,京都府,京都市西京区,嵐山宮ノ前町１３２番地,,26,111,6160023,,,,,,,2026-01-29,1,,,,,エイカイ,0
3181,4140001141511,新規,0,2026-01-29,2026-01-29,株式会社ＳＨＩＮＥＩ,,株式会社,兵庫県,神戸市兵庫区,荒田町３丁目７４－３０,,28,105,6520032,,,,,,,2026-01-29,1,,,,,シンエイ,0
3182,4140003023146,新規,0,2026-01-29,2026-01-29,ウェルリビングエステート合同会社,,合同会社,兵庫県,宝塚市,山手台東３丁目１６番２号,,28,214,6650887,,,,,,,2026-01-29,1,,,,,ウェルリビングエステート,0
3188,4180001170440,新規,0,2026-01-29,2026-01-29,株式会社Ｄｏｅｒ’ｓ,,株式会社,愛知県,名古屋市中村区,名駅南１丁目１４番２４号七福神ビル４Ｆ,,23,105,4500003,,,,,,,2026-01-29,1,,,,,ドアーズ,0
3189,4180001170457,新規,0,2026-01-29,2026-01-29,Ａ．ｉワークス株式会社,,株式会社,愛知県,名古屋市西区,上小田井２丁目３４１番地,,23,104,4520821,,,,,,,2026-01-29,1,,,,,エーアイワークス,0
3190,4180001170465,新規,0,2026-01-29,2026-01-29,株式会社Ｒ‐ｉｎｇ,,株式会社,愛知県,名古屋市東区,泉１丁目１番１０号,,23,102,4610001,,,,,,,2026-01-29,1,,,,,リング,0
3191,4180001170473,新規,0,2026-01-29,2026-01-29,ミールトレーディング株式会社,,株式会社,愛知県,春日井市,藤山台３丁目１番地７藤山団地３０５号棟５０２号室,,23,206,4870035,,,,,,,2026-01-29,1,,,,,ミールトレーディング,0
3193,4180005021409,新規,0,2026-01-29,2026-01-29,一般社団法人ＮｉＥＷ　Ａｌｌｉａｎｃｅ,,その他の設立登記法人,愛知県,名古屋市中区,金山１丁目１８番３号スギクリニックモール金山４階,,23,106,4600022,,,,,,,2026-01-29,1,,,,,ニューアライアンス,0
3194,4180301011815,新規,0,2026-01-29,2026-01-29,株式会社アイイーメカトロニクス,,株式会社,愛知県,豊川市,白鳥町野口前９番地の５,,23,207,4420848,,,,,,,2026-01-29,1,,,,,アイイーメカトロニクス,0
3197,4200001044658,新規,0,2026-01-29,2026-01-29,新生山本メタル株式会社,,株式会社,岐阜県,岐阜市,高田３丁目１０番１７号,,21,201,5008224,,,,,,,2026-01-29,1,,,,,シンセイヤマモトメタル,0
3277,4240001066095,新規,0,2026-01-29,2026-01-29,ＴＯＵ　ＰＲＯＪＥＣＴ株式会社,,株式会社,広島県,福山市,神辺町大字新道上３０番地４アルファスマート神辺１１０１,,34,207,7202107,,,,,,,2026-01-29,1,,,,,トウプロジェクト,0
3289,4290001112935,新規,0,2026-01-29,2026-01-29,馳津株式会社,,株式会社,福岡県,福岡市博多区,比恵町４番２５－２０３号,,40,132,8120014,,,,,,,2026-01-29,1,,,,,チジン,0
3292,4290005019986,新規,0,2026-01-29,2026-01-29,一般社団法人未来医療会,,その他の設立登記法人,福岡県,福岡市城南区,長尾５丁目３１番２５号２Ｆ,,40,136,8140123,,,,,,,2026-01-29,1,,,,,ミライイリョウカイ,0
3293,4290801032218,新規,0,2026-01-29,2026-01-29,いつでもナース株式会社,,株式会社,福岡県,行橋市,行事１丁目１６番３３号,,40,213,8240001,,,,,,,2026-01-29,1,,,,,イツデモナース,0
3300,4320001021554,新規,0,2026-01-29,2026-01-29,株式会社参五,,株式会社,大分県,大分市,大字横尾３９３４番地の８,,44,201,8700126,,,,,,,2026-01-29,1,,,,,サンゴ,0
3304,4340001027938,新規,0,2026-01-29,2026-01-29,株式会社ＲＹ空調,,株式会社,鹿児島県,鹿児島市,郡山町１３２１番地１,,46,201,8911105,,,,,,,2026-01-29,1,,,,,アールワイクウチョウ,0
3305,4340003005082,新規,0,2026-01-29,2026-01-29,ＪＪｐａｌｅｔｔｅ合同会社,,合同会社,鹿児島県,鹿児島市,明和１丁目６１番１１－２号,,46,201,8900024,,,,,,,2026-01-29,1,,,,,ジェイジェイパレット,0
3307,4350003005131,新規,0,2026-01-29,2026-01-29,合同会社結,,合同会社,宮崎県,都城市,志比田町５７４６番地１０,,45,202,8850093,,,,,,,2026-01-29,1,,,,,ムスビ,0
3317,4420005008001,新規,0,2026-01-29,2026-01-29,特定非営利活動法人全国地域創成協同組合,,その他の設立登記法人,青森県,三沢市,桜町２丁目８番２０号,,02,207,0330031,,,,,,,2026-01-29,1,,,,,ゼンコクチイキソウセイキョウドウクミアイ,0
3320,4430001096131,新規,0,2026-01-29,2026-01-29,株式会社常見技建,,株式会社,北海道,札幌市南区,藤野五条８丁目２１番２２号,,01,106,0612285,,,,,,,2026-01-29,1,,,,,ツネミギケン,0
3321,4430003018538,新規,0,2026-01-29,2026-01-29,合同会社ＢＡＲＢＩＥＲ,,合同会社,北海道,札幌市北区,北二十五条西１８丁目３番１３号,,01,102,0010025,,,,,,,2026-01-29,1,,,,,バルビエ,0
3326,4700150134218,新規,0,2026-01-29,2026-01-29,ＦＵＫＵ　ＡＳＩＡ　ＤＥＶＥＬＯＰＭＥＮＴ　ＬＩＭＩＴＥＤ,,外国会社等,,,,,,,,Ｒｉｔｅｒ　Ｈｏｕｓｅ，Ｗｉｃｋｈａｍｓ　Ｃａｙ　Ｉ，Ｒｏａｄ　Ｔｏｗｎ，Ｔｏｒｔｏｌａ　ＶＧ１１１０，Ｂｒｉｔｉｓｈ　Ｖｉｒｇｉｎ　Ｉｓｌａｎｄｓ,,,,,,2026-01-29,1,,,,,フクアジアデベロツプメントリミテツド,0
3515,5010001262369,新規,0,2026-01-29,2026-01-29,Ｌ．Ａ．Ｂ．Ｇｏｌｆ　Ｄｉｓｔｒｉｂｕｔｉｏｎ　Ｊａｐａｎ株式会社,,株式会社,東京都,千代田区,丸の内１丁目８番２号鉄鋼ビルディング４階,,13,101,1000005,,,,,,,2026-01-29,1,,,,,エルエービーゴルフディストリビューションジャパン,0
3699,5010401196142,新規,0,2026-01-29,2026-01-29,株式会社あわひ,,株式会社,東京都,港区,北青山２丁目１２番４号坂本ビル３階,,13,103,1070061,,,,,,,2026-01-29,1,,,,,アワイ,0
3732,5010601068637,新規,0,2026-01-29,2026-01-29,セレストキャピタル株式会社,,株式会社,東京都,江東区,常盤１丁目７番９号,,13,108,1350006,,,,,,,2026-01-29,1,,,,,セレストキャピタル,0
3750,5011003023362,新規,0,2026-01-29,2026-01-29,合同会社ＳＯＲＡ１０Ｏｆｆｉｃｅ,,合同会社,東京都,渋谷区,道玄坂１丁目１０番８号渋谷道玄坂東急ビル２Ｆ－Ｃ,,13,113,1500043,,,,,,,2026-01-29,1,,,,,ソラトオフィス,0
3751,5011003023445,新規,0,2026-01-29,2026-01-29,合同会社Ｖｅｒｔｅｘ,,合同会社,東京都,渋谷区,東２丁目２４番３号長嶋ビル５Ｆ,,13,113,1500011,,,,,,,2026-01-29,1,,,,,ヴァーテックス,0
3753,5011101114575,新規,0,2026-01-29,2026-01-29,株式会社Ｌｉｆｔ,,株式会社,東京都,新宿区,大久保１丁目１６番２５号,,13,104,1690072,,,,,,,2026-01-29,1,,,,,リフト,0
3754,5011103017025,新規,0,2026-01-29,2026-01-29,合同会社長友グループファンド,,合同会社,東京都,新宿区,新宿１丁目５番３号シスナ・パートナーズ会計事務所内,,13,104,1600022,,,,,,,2026-01-29,1,,,,,チョウユウグループファンド,0
3757,5011201026927,新規,0,2026-01-29,2026-01-29,株式会社マルシン,,株式会社,東京都,中野区,中野５丁目６７番７号プラザ中野８０１,,13,114,1640001,,,,,,,2026-01-29,1,,,,,マルシン,0
3758,5011203004939,新規,0,2026-01-29,2026-01-29,合同会社三徳,,合同会社,東京都,中野区,中央４丁目４１番６号,,13,114,1640011,,,,,,,2026-01-29,1,,,,,サントク,0
3787,5011701029124,新規,0,2026-01-29,2026-01-29,株式会社Ｔｏｕｒ‐ｎｉｎｇ　Ｊａｐａｎｅｓｅ,,株式会社,東京都,江戸川区,西小岩５丁目１４番１３号Ｓ・ＦＩＲＳＴ４０２,,13,123,1330057,,,,,,,2026-01-29,1,,,,,ターニングジャパンニーズ,0
3792,5012401044066,新規,0,2026-01-29,2026-01-29,ＣＬＵＴＣＨ　Ｎｅｘｕｓ株式会社,,株式会社,東京都,府中市,幸町３丁目５番地の８西東京国際イノベーション共創拠点２階,,13,206,1830054,,,,,,,2026-01-29,1,,,,,クラッチネクサス,0
3806,5020001166858,新規,0,2026-01-29,2026-01-29,株式会社石峰オフィス,,株式会社,神奈川県,横浜市西区,浅間町１丁目４番３号ウィザードビル４０２,,14,103,2200072,,,,,,,2026-01-29,1,,,,,イシミネオフィス,0
3807,5020001166916,新規,0,2026-01-29,2026-01-29,株式会社ＳＥＡＳＯＮＳ,,株式会社,神奈川県,川崎市多摩区,登戸２４６５番地,,14,135,2140014,,,,,,,2026-01-29,1,,,,,,0
3813,5020003030260,新規,0,2026-01-29,2026-01-29,ＲｅＬＩＦＥ合同会社,,合同会社,神奈川県,横浜市戸塚区,上倉田町１３３５番地２富岡ハイツ１０２号,,14,110,2440816,,,,,,,2026-01-29,1,,,,,リライフ,0
3819,5021001087375,新規,0,2026-01-29,2026-01-29,株式会社Ｏｎｅ　Ｌｉｆｅ　Ｔｏ　Ｌｉｖｅ,,株式会社,神奈川県,鎌倉市,材木座５丁目１５番１２号,,14,204,2480013,,,,,,,2026-01-29,1,,,,,ワンライフトゥーリブ,0
3826,5021003017041,新規,0,2026-01-29,2026-01-29,合同会社ＨＥＲＯ,,合同会社,神奈川県,厚木市,中町４丁目１４番１３号オーエヌビル４階Ａ号室,,14,212,2430018,,,,,,,2026-01-29,1,,,,,ヒーロー,0
3827,5021003017058,新規,0,2026-01-29,2026-01-29,合同会社フォートアップ,,合同会社,神奈川県,鎌倉市,笛田４丁目２０番５号,,14,204,2480027,,,,,,,2026-01-29,1,,,,,フォートアップ,0
3922,5030001170743,新規,0,2026-01-29,2026-01-29,株式会社Ｕ‐ＷＯＲＫＳ,,株式会社,埼玉県,さいたま市桜区,西堀１０丁目２番１８号ｍａｉｓｏｎ・ｄｅ・ｃａｌｍｅ２０２,,11,106,3380832,,,,,,,2026-01-29,1,,,,,ユーワークス,0
3955,5030003028485,新規,0,2026-01-29,2026-01-29,ＢＯＮＤ　ｃｒｅａｔｉｏｎ合同会社,,合同会社,埼玉県,幸手市,香日向１丁目１４－１４,,11,240,3400164,,,,,,,2026-01-29,1,,,,,ボンドクリエーション,0
3972,5040003029383,新規,0,2026-01-29,2026-01-29,合同会社ＫＡＺＺ　Ｃｏｒｐｏｒａｔｉｏｎ,,合同会社,千葉県,松戸市,八ケ崎３丁目６９番地の２９,,12,207,2700023,,,,,,,2026-01-29,1,,,,,カズコーポレーション,0
3974,5050001057889,新規,0,2026-01-29,2026-01-29,株式会社Ｅｍｐｏｗｅｒｍｅｎｔ　Ａｇｒｉ,,株式会社,茨城県,東茨城郡茨城町,大字宮ヶ崎１３０３番地,,08,302,3113136,,,,,,,2026-01-29,1,,,,,エンパワーメントアグリ,0
3991,5080403005435,新規,0,2026-01-29,2026-01-29,合同会社Ｌｕｃｋ‐Ｎｏｔｅ,,合同会社,静岡県,浜松市中央区,上西町４７番地５,,22,138,4350048,,,,,,,2026-01-29,1,,,,,ラックノート,0
3992,5080405007792,新規,0,2026-01-29,2026-01-29,一般社団法人いちにのさん,,その他の設立登記法人,静岡県,浜松市中央区,蜆塚４丁目２１番７号,,22,138,4328018,,,,,,,2026-01-29,1,,,,,イチニノサン,0
3996,5100001039304,新規,0,2026-01-29,2026-01-29,Ｓｉｌｅｎｔ　Ｃｏａｓｔ　Ａｓｓｅｔ株式会社,,株式会社,長野県,松本市,城東１丁目１番２号,,20,202,3900807,,,,,,,2026-01-29,1,,,,,サイレントコーストアセット,0
4002,5120001283742,新規,0,2026-01-29,2026-01-29,株式会社ＹＳＫ,,株式会社,大阪府,大阪市浪速区,大国２丁目５番２０－８０２号,,27,111,5560014,,,,,,,2026-01-29,1,,,,,ワイエスケー,0
4003,5120001283759,新規,0,2026-01-29,2026-01-29,株式会社マインド,,株式会社,大阪府,大阪市北区,豊崎５丁目４番１８－７０１号,,27,127,5310072,,,,,,,2026-01-29,1,,,,,マインド,0
4008,5120905006843,新規,0,2026-01-29,2026-01-29,医療法人Ｏｌｉｖｅ　ｄｅｎｔａｌ,,その他の設立登記法人,大阪府,高槻市,宮田町２丁目４０番１０号たかつき宮田町ビルＩＩ３階,00142369,27,207,5691142,,,,,,,2026-01-29,1,,,,,オリーブデンタル,0
4010,5122001040140,新規,0,2026-01-29,2026-01-29,株式会社Ｋ‐ファクトリー,,株式会社,大阪府,東大阪市,足代１丁目１１番１８－１００３号,,27,227,5770841,,,,,,,2026-01-29,1,,,,,ケーファクトリー,0
4011,5122003003442,新規,0,2026-01-29,2026-01-29,ジブンデザイン合同会社,,合同会社,大阪府,東大阪市,高井田中５丁目７番８号コムズシティ高井田４０１,,27,227,5770065,,,,,,,2026-01-29,1,,,,,ジブンデザイン,0
4013,5130001081492,新規,0,2026-01-29,2026-01-29,株式会社キャリアＬａｂ．,,株式会社,京都府,南丹市,日吉町畑郷露越３７番地,,26,213,6290313,,,,,,,2026-01-29,1,,,,,キャリアラボ,0
4015,5130003011118,新規,0,2026-01-29,2026-01-29,合同会社ＫＴＭ,,合同会社,京都府,京田辺市,三山木中央４丁目６番地３ゲマインシャフト１Ｆ,,26,211,6100313,,,,,,,2026-01-29,1,,,,,ケーティーエム,0
4022,5140001141519,新規,0,2026-01-29,2026-01-29,株式会社ＡＫサービス,,株式会社,兵庫県,神戸市垂水区,青山台５丁目５番８－５０２号,,28,108,6550873,,,,,,,2026-01-29,1,,,,,エーケーサービス,0
4023,5140001141527,新規,0,2026-01-29,2026-01-29,株式会社優宝,,株式会社,兵庫県,宝塚市,中山五月台４丁目１０番１２号,,28,214,6650871,,,,,,,2026-01-29,1,,,,,ユウト,0
4029,5160001027385,新規,0,2026-01-29,2026-01-29,株式会社里中建設,,株式会社,滋賀県,野洲市,井口５７２番地,,25,210,5202414,,,,,,,2026-01-29,1,,,,,サトナカケンセツ,0
4030,5170005007184,新規,0,2026-01-29,2026-01-29,医療法人ポラリス,,その他の設立登記法人,和歌山県,和歌山市,和佐関戸２４４番地４,,30,201,6496322,,,,,,,2026-01-29,1,,,,,ポラリス,0
4040,5180001170316,新規,0,2026-01-29,2026-01-29,株式会社ＨＴＭコンサルティング,,株式会社,愛知県,名古屋市東区,泉１丁目１０番２３号グランドメゾン泉１３０７号,,23,102,4610001,,,,,,,2026-01-29,1,,,,,エイチティーエムコンサルティング,0
4041,5180001170464,新規,0,2026-01-29,2026-01-29,株式会社リベラルパス,,株式会社,愛知県,名古屋市港区,川園２丁目１０４番地,,23,111,4550856,,,,,,,2026-01-29,1,,,,,リベラルパス,0
4048,5180003029700,新規,0,2026-01-29,2026-01-29,合同会社Ｓｏｌｕｎｅ,,合同会社,愛知県,名古屋市中区,丸の内２丁目１６番８－１００１号,,23,106,4600002,,,,,,,2026-01-29,1,,,,,ソルン,0
4049,5190001032861,新規,0,2026-01-29,2026-01-29,株式会社三輝,,株式会社,三重県,四日市市,松本３丁目１６番１１号マリアーブルＢ－２０２,,24,202,5100836,,,,,,,2026-01-29,1,,,,,サンキ,0
4051,5210001020475,新規,0,2026-01-29,2026-01-29,株式会社ＥＳＮＯＤＥ,,株式会社,福井県,鯖江市,当田町第９号３番地３,,18,207,9160065,,,,,,,2026-01-29,1,,,,,エスノード,0
4115,5240001066094,新規,0,2026-01-29,2026-01-29,株式会社ＨＥｉ,,株式会社,広島県,広島市東区,牛田南１丁目８番１５－２０３号,,34,102,7320064,,,,,,,2026-01-29,1,,,,,ヘイ,0
4129,5290001112876,新規,0,2026-01-29,2026-01-29,株式会社ＳＯＲＡＮ,,株式会社,福岡県,福岡市南区,高宮１丁目１番２３号ＣＩＤＮＡＬＴＨＥＰＬＡＣＥ６０３,,40,134,8150083,,,,,,,2026-01-29,1,,,,,ソラン,0
4130,5290001112975,新規,0,2026-01-29,2026-01-29,株式会社ＥＬＥ　ＷＯＲＫＳ,,株式会社,福岡県,福岡市西区,今宿１丁目１番３１号西原ビル１０１,,40,135,8190167,,,,,,,2026-01-29,1,,,,,エレワークス,0
4131,5290001112991,新規,0,2026-01-29,2026-01-29,ＧＯＲＩＬＬＡ　Ｄｅｘ．株式会社,,株式会社,福岡県,福岡市中央区,警固３丁目６番クラシオン桜坂１階,,40,133,8100023,,,,,,,2026-01-29,1,,,,,ゴリラデックス,0
4134,5290003017974,新規,0,2026-01-29,2026-01-29,Ｇ＆Ａ合同会社,,合同会社,福岡県,福岡市博多区,吉塚２丁目１－６－１１０１,,40,132,8120041,,,,,,,2026-01-29,1,,,,,ジーアンドエー,0
4135,5290003017982,新規,0,2026-01-29,2026-01-29,合同会社Ｒｉｔｚ,,合同会社,福岡県,福岡市東区,大字上和白１３３６番地１の１－７０７号,,40,131,8110216,,,,,,,2026-01-29,1,,,,,リッツ,0
4136,5290003017990,新規,0,2026-01-29,2026-01-29,合同会社星和リユース,,合同会社,福岡県,福岡市博多区,西春町１丁目２番９－１０４号サニーコート,,40,132,8120873,,,,,,,2026-01-29,1,,,,,,0
4137,5290801032209,新規,0,2026-01-29,2026-01-29,株式会社春光,,株式会社,福岡県,北九州市門司区,清滝１丁目２番２９号１００２号室,,40,101,8010833,,,,,,,2026-01-29,1,,,,,シュンコウ,0
4141,5330003011411,新規,0,2026-01-29,2026-01-29,合同会社トラスト,,合同会社,熊本県,熊本市中央区,国府４丁目５番５－４０１号,,43,101,8620949,,,,,,,2026-01-29,1,,,,,トラスト,0
4143,5330005011021,新規,0,2026-01-29,2026-01-29,一般社団法人エデュスポ菊池,,その他の設立登記法人,熊本県,菊池市,七城町流川２６６番地１,,43,210,8611367,,,,,,,2026-01-29,1,,,,,エデュスポキクチ,0
4144,5340001027929,新規,0,2026-01-29,2026-01-29,協和工業株式会社,,株式会社,鹿児島県,鹿児島市,天保山町１８番２３号,,46,201,8900061,,,,,,,2026-01-29,1,,,,,キョウワコウギョウ,0
4145,5340001027937,新規,0,2026-01-29,2026-01-29,株式会社ナカムラＧファーム,,株式会社,鹿児島県,南九州市,知覧町塩屋２８４７１番地,,46,223,8910911,,,,,,,2026-01-29,1,,,,,ナカムラジーファーム,0
4146,5340003005081,新規,0,2026-01-29,2026-01-29,ＥＭＭＡＡＵＲＡ合同会社,,合同会社,鹿児島県,指宿市,西方２３６８番地５,,46,210,8910311,,,,,,,2026-01-29,1,,,,,エマオーラ,0
4147,5350001019917,新規,0,2026-01-29,2026-01-29,つちっこ株式会社,,株式会社,宮崎県,都城市,菓子野町１１６７２番地１０,,45,202,8850111,,,,,,,2026-01-29,1,,,,,ツチッコ,0
4149,5360001036309,新規,0,2026-01-29,2026-01-29,Ｏｃａｎ株式会社,,株式会社,沖縄県,南城市,知念字知名６１８番地,,47,215,9011503,,,,,,,2026-01-29,1,,,,,オーキャン,0
4153,5370001053435,新規,0,2026-01-29,2026-01-29,株式会社ＡＶＩＮＥ,,株式会社,宮城県,柴田郡川崎町,支倉台１丁目２番６,,04,324,9891506,,,,,,,2026-01-29,1,,,,,アーバイン,0
4161,5380001035837,新規,0,2026-01-29,2026-01-29,株式会社郡山スクールランチパートナーズ,,株式会社,福島県,郡山市,石渕町１番９号,,07,203,9638814,,,,,,,2026-01-29,1,,,,,コオリヤマスクールランチパートナーズ,0
4170,5430001096147,新規,0,2026-01-29,2026-01-29,株式会社琢美,,株式会社,北海道,札幌市中央区,南二条西５丁目３１－１ＲＭＢｌｄ．７０１,,01,101,0600062,,,,,,,2026-01-29,1,,,,,タクミ,0
4171,5430001096155,新規,0,2026-01-29,2026-01-29,株式会社ｌｅａｐａｒｄ,,株式会社,北海道,札幌市北区,北三十二条西４丁目２番８号,,01,102,0010032,,,,,,,2026-01-29,1,,,,,リーパード,0
4179,5700150134209,新規,0,2026-01-29,2026-01-29,Ａｍａｚｏｎ　Ａｓｉａ－Ｐａｃｉｆｉｃ　Ｈｏｌｄｉｎｇｓ　Ｐｒｉｖａｔｅ　Ｌｉｍｉｔｅｄ,,外国会社等,,,,,,,,１，１７－００，Ｒｏｂｉｎｓｏｎ　Ｒｏａｄ，ＡＩＡ　Ｔｏｗｅｒ，０４８５４２，Ｓｉｎｇａｐｏｒｅ,,,,,,2026-01-29,1,,,,,アマゾンアジアパシフイツクホールデイングスプライベートリミテツド,0
4180,5700150134217,新規,0,2026-01-29,2026-01-29,Ｑｕｂｅ　Ｒｅｓｅａｒｃｈ　＆　Ｔｅｃｈｎｏｌｏｇｉｅｓ　Ｓｅｒｖｉｃｅｓ　ＵＫ　Ｌｉｍｉｔｅｄ,,外国会社等,東京都,江東区,豊洲６丁目２番１２号,,13,108,1350061,９　Ｂｒｅｓｓｅｎｄｅｎ　Ｐｌａｃｅ，Ｌｏｎｄｏｎ，Ｕｎｉｔｅｄ　Ｋｉｎｇｄｏｍ，ＳＷ１Ｅ　５ＢＹ,,,,,,2026-01-29,1,,,,,キユーブリサーチアンドテクノロジーズサービシーズユーケーリミテツド,0
4325,6010001262038,新規,0,2026-01-29,2026-01-29,株式会社エフィニティメディカル,,株式会社,東京都,中央区,銀座１丁目１２－４Ｎ＆ＥＢＬＤ．７階,,13,102,1040061,,,,,,,2026-01-29,1,,,,,エフィニティメディカル,0
4348,6010003049879,新規,0,2026-01-29,2026-01-29,合同会社メルギブソン,,合同会社,東京都,中央区,銀座５丁目１５番地１号南海東京ビルディングＢ１階,,13,102,1040061,,,,,,,2026-01-29,1,,,,,メルギソン,0
4349,6010003050168,新規,0,2026-01-29,2026-01-29,ＡＦ２１合同会社,,合同会社,東京都,中央区,日本橋１丁目４番１号,,13,102,1030027,,,,,,,2026-01-29,1,,,,,エーエフトゥエンティーワン,0
4367,6010005041272,新規,0,2026-01-29,2026-01-29,特定非営利活動法人千石ひろば実行委員会,,その他の設立登記法人,東京都,文京区,千石４丁目５番２号水野マンション１０１号室,,13,105,1120011,,,,,,,2026-01-29,1,,,,,センゴクヒロバジッコウイインカイ,0
4368,6010005041297,新規,0,2026-01-29,2026-01-29,一般社団法人ＲＩＣＰＪ３,,その他の設立登記法人,東京都,千代田区,霞が関３丁目２番５号,,13,101,1000013,,,,,,,2026-01-29,1,,,,,アールアイシーピージェースリー,0
4547,6010401196125,新規,0,2026-01-29,2026-01-29,株式会社ベルヴィーハワイ,,株式会社,東京都,港区,南青山２丁目２番１５号ウィン青山９４２,,13,103,1070062,,,,,,,2026-01-29,1,,,,,ベルヴィーハワイ,0
4548,6010401196166,新規,0,2026-01-29,2026-01-29,株式会社Ｓｅｖｅｎ　Ｌｏｃｋ,,株式会社,東京都,港区,南青山２丁目２４番５号直井ビル,,13,103,1070062,,,,,,,2026-01-29,1,,,,,セブンロック,0
4571,6010505003680,新規,0,2026-01-29,2026-01-29,一般社団法人中国鉱業大学日本校友会,,その他の設立登記法人,東京都,台東区,浅草橋４丁目１０番８号ＴＦＡビル４階,,13,106,1110053,,,,,,,2026-01-29,1,,,,,チュウゴクコウギョウダイガクニホンコウユウカイ,0
4574,6010601068652,新規,0,2026-01-29,2026-01-29,株式会社佐野屋門,,株式会社,東京都,墨田区,業平２丁目１７番９号,,13,107,1300002,,,,,,,2026-01-29,1,,,,,サノヤモン,0
4577,6010701048959,新規,0,2026-01-29,2026-01-29,株式会社Ｇａｕｄｉ,,株式会社,東京都,品川区,北品川３丁目１１番１３－３０１号,,13,109,1400001,,,,,,,2026-01-29,1,,,,,ガウディ,0
4589,6011001174512,新規,0,2026-01-29,2026-01-29,株式会社Ｕカンパニー,,株式会社,東京都,渋谷区,神泉町１１番５－１００１号,,13,113,1500045,,,,,,,2026-01-29,1,,,,,ユーカンパニー,0
4590,6011001174966,新規,0,2026-01-29,2026-01-29,ＬｖｉａＣｏｎｓｕｌｔｉｎｇ株式会社,,株式会社,東京都,渋谷区,千駄ヶ谷３丁目５４－２Ｅｓ原宿ビル３階,,13,113,1510051,,,,,,,2026-01-29,1,,,,,エルビアコンサルティング,0
4591,6011001174982,新規,0,2026-01-29,2026-01-29,株式会社ライ・コンサルティング,,株式会社,東京都,渋谷区,道玄坂１丁目１５－３－１００８,,13,113,1500043,,,,,,,2026-01-29,1,,,,,ライコンサルティング,0
4592,6011001175048,新規,0,2026-01-29,2026-01-29,ＵｎｉＳｏｌａｒａ株式会社,,株式会社,東京都,渋谷区,道玄坂１丁目１０番８号渋谷道玄坂東急ビル２Ｆ－Ｃ,,13,113,1500043,,,,,,,2026-01-29,1,,,,,ユニソララ,0
4593,6011001175171,新規,0,2026-01-29,2026-01-29,コントラスト株式会社,,株式会社,東京都,渋谷区,神南１丁目３番１号６階Ｂａｒｂｉｚｏｎ６４,,13,113,1500041,,,,,,,2026-01-29,1,,,,,コントラスト,0
4594,6011001175279,新規,0,2026-01-29,2026-01-29,株式会社ＧＡＭＥ　ＷＩＮＤ,,株式会社,東京都,渋谷区,道玄坂１丁目１０番８号渋谷道玄坂東急ビル２Ｆ－Ｃ,,13,113,1500043,,,,,,,2026-01-29,1,,,,,ゲームウィンド,0
4596,6011005011331,新規,0,2026-01-29,2026-01-29,一般社団法人ＭＭてぃーだ,,その他の設立登記法人,東京都,目黒区,上目黒３丁目２７番１５号,,13,110,1530051,,,,,,,2026-01-29,1,,,,,エムエムティーダ,0
4601,6011101114574,新規,0,2026-01-29,2026-01-29,株式会社Ｎ　ｐｌｕｓ,,株式会社,東京都,新宿区,新宿４丁目４番１号,,13,104,1600022,,,,,,,2026-01-29,1,,,,,エヌプラス,0
4605,6011103017008,新規,0,2026-01-29,2026-01-29,合同会社Ｌｉａｎ,,合同会社,東京都,新宿区,西新宿３丁目３番１３号西新宿水間ビル２Ｆ,,13,104,1600023,,,,,,,2026-01-29,1,,,,,リアン,0
4606,6011201026926,新規,0,2026-01-29,2026-01-29,株式会社はまゆうオフィス,,株式会社,東京都,中野区,本町３丁目４番３号,,13,114,1640012,,,,,,,2026-01-29,1,,,,,ハマユウオフィス,0
4643,6011701029123,新規,0,2026-01-29,2026-01-29,株式会社Ｇｒｅｅｎ　Ｂｉｏ　Ｍａｔｅｒｉａｌｓ,,株式会社,東京都,江戸川区,北葛西１丁目２２番５号,,13,123,1340081,,,,,,,2026-01-29,1,,,,,グリーンバイオマテリアルズ,0
4651,6012401044065,新規,0,2026-01-29,2026-01-29,ほっとまる株式会社,,株式会社,東京都,狛江市,中和泉１丁目１２番３号,,13,219,2010012,,,,,,,2026-01-29,1,,,,,ホットマル,0
4652,6012401044073,新規,0,2026-01-29,2026-01-29,株式会社リードフォーラム,,株式会社,東京都,調布市,多摩川１丁目１８番地１２,,13,208,1820025,,,,,,,2026-01-29,1,,,,,リードフォーラム,0
4670,6021003017065,新規,0,2026-01-29,2026-01-29,合同会社ＺＡＰＰＹ,,合同会社,神奈川県,逗子市,小坪６丁目７番地２０－１号,,14,208,2490008,,,,,,,2026-01-29,1,,,,,ザッピー,0
4756,6030001170775,新規,0,2026-01-29,2026-01-29,株式会社アサヒＨＤ,,株式会社,埼玉県,北足立郡伊奈町,大字小室５２２６番地,,11,301,3620806,,,,,,,2026-01-29,1,,,,,アサヒホールディングス,0
4787,6030003028534,新規,0,2026-01-29,2026-01-29,合同会社ＬＩＥＲＩＡ,,合同会社,埼玉県,越谷市,赤山町４丁目９番１号Ｄ－３１２,,11,222,3430807,,,,,,,2026-01-29,1,,,,,リエリア,0
4788,6030003028550,新規,0,2026-01-29,2026-01-29,合同会社Ｂ‐Ｂｌｉｓｓ,,合同会社,埼玉県,草加市,長栄１丁目６７８番地５,,11,221,3400051,,,,,,,2026-01-29,1,,,,,ビーブリス,0
4801,6040003029341,新規,0,2026-01-29,2026-01-29,合同会社八百平,,合同会社,千葉県,東金市,東金１１９８,,12,213,2830802,,,,,,,2026-01-29,1,,,,,ヤオヘイ,0
4802,6040003029366,新規,0,2026-01-29,2026-01-29,合同会社リラアセット,,合同会社,千葉県,松戸市,新松戸５丁目８４－２,,12,207,2700034,,,,,,,2026-01-29,1,,,,,リラアセット,0
4803,6040003029374,新規,0,2026-01-29,2026-01-29,ＫｅｉＯｆｆｉｃｅ合同会社,,合同会社,千葉県,松戸市,千駄堀７９２番地の１ファミール松戸２１世紀の森２０７号,,12,207,2702252,,,,,,,2026-01-29,1,,,,,ケイオフィス,0
4819,6080403005434,新規,0,2026-01-29,2026-01-29,合同会社Ｍ＆Ｍホールディングス,,合同会社,静岡県,掛川市,上西郷２７６５番地の１,,22,213,4360342,,,,,,,2026-01-29,1,,,,,エムアンドエムホールディングス,0
4822,6100001039303,新規,0,2026-01-29,2026-01-29,ながのアセットマネジメント株式会社,,株式会社,長野県,長野市,大字北堀３１５番地８,,20,201,3810005,,,,,,,2026-01-29,1,,,,,ナガノアセットマネジメント,0
4840,6120001283709,新規,0,2026-01-29,2026-01-29,株式会社ソーシャルシフト,,株式会社,大阪府,大阪市中央区,東心斎橋１丁目３番３－６０６号,,27,128,5420083,,,,,,,2026-01-29,1,,,,,ソーシャルシフト,0
4841,6120001283733,新規,0,2026-01-29,2026-01-29,株式会社ＵＲＯＣＯ,,株式会社,大阪府,大阪市中央区,淡路町３丁目３番２号,,27,128,5410047,,,,,,,2026-01-29,1,,,,,ウロコ,0
4842,6120001283758,新規,0,2026-01-29,2026-01-29,三錦株式会社,,株式会社,大阪府,大阪市福島区,鷺洲３丁目６番１０－３１０９号,,27,103,5530002,,,,,,,2026-01-29,1,,,,,サンキン,0
4843,6120001283766,新規,0,2026-01-29,2026-01-29,株式会社ＡＩＭ　ＬＩＮＫ,,株式会社,大阪府,大阪市淀川区,加島１丁目５８－９－８１０,,27,123,5320031,,,,,,,2026-01-29,1,,,,,エイムリンク,0
4844,6120001283774,新規,0,2026-01-29,2026-01-29,株式会社メルザ,,株式会社,大阪府,大阪市中央区,南船場１丁目４番１６号,,27,128,5420081,,,,,,,2026-01-29,1,,,,,メルザ,0
4853,6120905006842,新規,0,2026-01-29,2026-01-29,医療法人健由会,,その他の設立登記法人,大阪府,吹田市,山田南３０番２０号サンライズカーサ１０１,,27,205,5650823,,,,,,,2026-01-29,1,,,,,ケンユウカイ,0
4856,6122001040131,新規,0,2026-01-29,2026-01-29,株式会社榊堂,,株式会社,大阪府,東大阪市,神田町２０番１６号瓢箪山クリニックビル２階,,27,227,5798058,,,,,,,2026-01-29,1,,,,,サカキドウ,0
4859,6130001081351,新規,0,2026-01-29,2026-01-29,株式会社ＰｕｒｅＳ,,株式会社,京都府,京都市右京区,西院西高田町１８番地１ワイメア松原４０２号,,26,108,6150032,,,,,,,2026-01-29,1,,,,,ピュアエス,0
4860,6130001081509,新規,0,2026-01-29,2026-01-29,Ｗｏ．ｏＷ　Ｔｒａｖｅｌ株式会社,,株式会社,京都府,京都市下京区,七条通油小路東入大黒町２２７第二キョートビル４０２,,26,106,6008223,,,,,,,2026-01-29,1,,,,,ウートラベル,0
4867,6150001028697,新規,0,2026-01-29,2026-01-29,飛鳥まほろば工房株式会社,,株式会社,奈良県,高市郡明日香村,大字阪田３２３番地,,29,402,6340122,,,,,,,2026-01-29,1,,,,,アスカマホロバコウボウ,0
4868,6150003003822,新規,0,2026-01-29,2026-01-29,合同会社東山住まい所,,合同会社,奈良県,吉野郡吉野町,大字楢井２７０,,29,441,6393445,,,,,,,2026-01-29,1,,,,,ヒガシヤマスマイドコロ,0
4884,6180001170439,新規,0,2026-01-29,2026-01-29,おかだ家不動産株式会社,,株式会社,愛知県,名古屋市瑞穂区,関取町６７番地の１,,23,108,4670058,,,,,,,2026-01-29,1,,,,,オカダヤフドウサン,0
4885,6180001170455,新規,0,2026-01-29,2026-01-29,株式会社東宝ハウス名古屋中央,,株式会社,愛知県,名古屋市中区,栄３丁目１５番２７号,,23,106,4600008,,,,,,,2026-01-29,1,,,,,トウホウハウスナゴヤチュウオウ,0
4889,6180003029699,新規,0,2026-01-29,2026-01-29,ＶＬＵＣＫ　ＷＯＲＫＳ合同会社,,合同会社,愛知県,名古屋市中村区,名駅３丁目４－１０アルティメイト名駅１ｓｔ２階,,23,105,4500002,,,,,,,2026-01-29,1,,,,,ブラックワークス,0
5000,6290003017981,新規,0,2026-01-29,2026-01-29,ＦＰ　Ｇｌｏｂａｌ　Ｊａｐａｎ合同会社,,合同会社,福岡県,久留米市,天神町１番地１米城ビル９階,,40,203,8300033,,,,,,,2026-01-29,1,,,,,エフピーグローバルジャパン,0
5006,6290005019968,新規,0,2026-01-29,2026-01-29,ＬＩＦＥ行政書士法人,,その他の設立登記法人,福岡県,久留米市,城南町１２‐２６ブランシェ城南２階Ａ号室,,40,203,8300022,,,,,,,2026-01-29,1,,,,,ライフ,0
5008,6290801032208,新規,0,2026-01-29,2026-01-29,ＭＬＥ　ＧＲＯＵＰ　ＪＡＰＡＮ株式会社,,株式会社,福岡県,北九州市門司区,新門司１丁目７番１号,,40,101,8000115,,,,,,,2026-01-29,1,,,,,エムエルイーグループジャパン,0
5019,6330001033951,新規,0,2026-01-29,2026-01-29,株式会社ウチシバ,,株式会社,熊本県,八代市,川田町西５０５,,43,202,8694616,,,,,,,2026-01-29,1,,,,,ウチシバ,0
5022,6340001027936,新規,0,2026-01-29,2026-01-29,あいたるふぁーむ株式会社,,株式会社,鹿児島県,南九州市,頴娃町別府９９１４番地,,46,223,8910704,,,,,,,2026-01-29,1,,,,,アイタルファーム,0
5026,6360001036308,新規,0,2026-01-29,2026-01-29,ＫＩＺＵＮＡ電工株式会社,,株式会社,沖縄県,南城市,佐敷字津波古３９番地,,47,215,9011414,,,,,,,2026-01-29,1,,,,,キズナデンコウ,0
5027,6360005007362,新規,0,2026-01-29,2026-01-29,沖縄県イベント事業協同組合,,その他の設立登記法人,沖縄県,沖縄市,胡屋１丁目８番１２号,,47,211,9040021,,,,,,,2026-01-29,1,,,,,オキナワケンイベントジギョウ,0
5030,6370001053426,新規,0,2026-01-29,2026-01-29,株式会社Ｃｈｅｅｅｚｅ,,株式会社,宮城県,仙台市青葉区,花京院２丁目１番６１号オークツリー仙台１階,,04,101,9800013,,,,,,,2026-01-29,1,,,,,チーズ,0
5031,6370001053434,新規,0,2026-01-29,2026-01-29,株式会社フォライズンプラス,,株式会社,宮城県,仙台市泉区,向陽台３丁目２７番１２号,,04,105,9813102,,,,,,,2026-01-29,1,,,,,フォライズンプラス,0
5037,6380005013061,新規,0,2026-01-29,2026-01-29,石川地方再生資源協同組合,,その他の設立登記法人,福島県,石川郡石川町,字松木下１２６番地,,07,501,9637854,,,,,,,2026-01-29,1,,,,,イシカワチホウサイセイシゲン,0
5043,6430001096138,新規,0,2026-01-29,2026-01-29,株式会社Ｒｉｎ‐ｄｏ,,株式会社,北海道,滝川市,黄金町東２丁目１５番２７号,,01,225,0730012,,,,,,,2026-01-29,1,,,,,リンドウ,0
5047,6700150134208,新規,0,2026-01-29,2026-01-29,Ｋｉｎｇｓｂｒｉｄｇｅ　ＬＬＣ,,外国会社等,,,,,,,,Ｅｕｒｏ　Ｈｏｕｓｅ，Ｒｉｃｈｍｏｎｄ　Ｈｉｌｌ　Ｒｏａｄ，Ｋｉｎｇｓｔｏｗｎ,,,,,,2026-01-29,1,,,,,キングスブリツジエルエルシー,0
5048,6700150134216,新規,0,2026-01-29,2026-01-29,ＳＡＯＭＡＩＴＲＡＤＩＮＧ　ＣＯＭＰＡＮＹ　ＬＩＭＩＴＥＤ,,外国会社等,東京都,港区,赤坂２丁目２３－１アークヒルズフロントタワーＩｎＣｏｎｔｒｏｌ内,,13,103,1070052,ベトナム社会主義共和国、ハイ・フォン市、ヴィン・バオ区、タン・リエン・コミューン、タン・リエン・インダストリアル・パーク、ロットＣＮ１０,,,,,,2026-01-29,1,,,,,サオマイトレーデイングカンパニーリミテツド,0
5193,7010001262045,新規,0,2026-01-29,2026-01-29,株式会社ＨＥＮＲＹ’Ｓ,,株式会社,東京都,千代田区,麹町４丁目５番地２０ＫＳビル８階,,13,101,1020083,,,,,,,2026-01-29,1,,,,,ヘンリーズ,0
5194,7010001262318,新規,0,2026-01-29,2026-01-29,ルートＹＫ株式会社,,株式会社,東京都,千代田区,神田小川町２丁目４番地１４フィールドクレストビル８階,,13,101,1010052,,,,,,,2026-01-29,1,,,,,ルートワイケイ,0
5214,7010003050150,新規,0,2026-01-29,2026-01-29,Ｂａｓａｌｔ　Ｄｅｖｅｌｏｐｍｅｎｔ合同会社,,合同会社,東京都,中央区,日本橋室町４丁目３番９号,,13,102,1030022,,,,,,,2026-01-29,1,,,,,バサルトデベロップメント,0
5215,7010003050183,新規,0,2026-01-29,2026-01-29,Ｏｃｅａｎ　Ｓｔｒａｔｅｇｙ合同会社,,合同会社,東京都,千代田区,丸の内１丁目８－３丸の内トラストタワー本館２０階,,13,101,1000005,,,,,,,2026-01-29,1,,,,,オーシャンストラテジー,0
5398,7010401196149,新規,0,2026-01-29,2026-01-29,泉のおと株式会社,,株式会社,東京都,港区,六本木３丁目５番８－３０８号,,13,103,1060032,,,,,,,2026-01-29,1,,,,,イズミノオト,0
5421,7010405025279,新規,0,2026-01-29,2026-01-29,一般社団法人ジーシーピー４ツー,,その他の設立登記法人,東京都,港区,元赤坂１丁目１番７－１２０９号株式会社赤坂国際会計内,,13,103,1070051,,,,,,,2026-01-29,1,,,,,ジーシーピーフォーツー,0
5428,7010601068651,新規,0,2026-01-29,2026-01-29,株式会社ＹＮＣＬ,,株式会社,東京都,墨田区,両国１丁目８－８ベンキョウドービル８Ｆ,,13,107,1300026,,,,,,,2026-01-29,1,,,,,ワイエヌシーエル,0
5431,7010901058864,新規,0,2026-01-29,2026-01-29,株式会社敬京,,株式会社,東京都,世田谷区,北沢４丁目２６番２１号,,13,112,1550031,,,,,,,2026-01-29,1,,,,,ケイキョウ,0
5432,7010901058872,新規,0,2026-01-29,2026-01-29,株式会社越智ＣＲＥＡＴＩＶＥ　ＷＯＲＫＳ,,株式会社,東京都,世田谷区,中町２丁目３５番１３－３０１号,,13,112,1580091,,,,,,,2026-01-29,1,,,,,オチクリエイティブワークス,0
5449,7011001174973,新規,0,2026-01-29,2026-01-29,株式会社Ｍｏｏｖｆｒｅｅ,,株式会社,東京都,渋谷区,道玄坂１丁目１０番８号渋谷道玄坂東急ビル２Ｆ－Ｃ,,13,113,1500043,,,,,,,2026-01-29,1,,,,,ムーフリー,0
5450,7011001175261,新規,0,2026-01-29,2026-01-29,株式会社Ｊ‐ＧＲＯＯＶＥ,,株式会社,東京都,渋谷区,広尾１丁目２番地１号ヒカリビル４階,,13,113,1500012,,,,,,,2026-01-29,1,,,,,ジェイグルーヴ,0
5451,7011003023377,新規,0,2026-01-29,2026-01-29,合同会社グッドホース,,合同会社,東京都,渋谷区,神南１丁目１１－４ＦＰＧリンクス神南５階,,13,113,1500041,,,,,,,2026-01-29,1,,,,,グッドホース,0
5458,7011101114615,新規,0,2026-01-29,2026-01-29,株式会社ＦＲ０Ｍ　ＣＲＥＡＴＥ,,株式会社,東京都,新宿区,西新宿３丁目２番９号新宿ワシントンホテルビル本館２Ｆ,,13,104,1600023,,,,,,,2026-01-29,1,,,,,フロムクリエイト,0
5488,7012401044072,新規,0,2026-01-29,2026-01-29,株式会社エスキューブ,,株式会社,東京都,府中市,西府町２丁目６番地の１４,,13,206,1830031,,,,,,,2026-01-29,1,,,,,エスキューブ,0
5495,7013301055663,新規,0,2026-01-29,2026-01-29,株式会社Ｓａｖｏｕｒ,,株式会社,東京都,豊島区,北大塚３丁目８－３－６０６,,13,116,1700004,,,,,,,2026-01-29,1,,,,,セイヴァー,0
5602,7030001170741,新規,0,2026-01-29,2026-01-29,株式会社Ｙｏｓｈｉｍｉ,,株式会社,埼玉県,草加市,中根２丁目５番１２号パンセＩ－１０１号,00142368,11,221,3400005,,,,,,,2026-01-29,1,,,,,ヨシミ,0
5644,7030005022402,新規,0,2026-01-29,2026-01-29,あさひ弁護士法人,,その他の設立登記法人,埼玉県,さいたま市岩槻区,本町３丁目７－１２－１,,11,110,3390057,,,,,,,2026-01-29,1,,,,,アサヒ,0
5648,7040001142260,新規,0,2026-01-29,2026-01-29,ニャーロック・ＨＯＭＥ’Ｓ株式会社,,株式会社,千葉県,浦安市,今川１丁目２番２６号２階ＴＴＳハウス,,12,227,2790022,,,,,,,2026-01-29,1,,,,,ニャーロックホームズ,0
5652,7040003029381,新規,0,2026-01-29,2026-01-29,合同会社ＴＫＧ,,合同会社,千葉県,市川市,湊新田３－１８－１０１,,12,203,2720132,,,,,,,2026-01-29,1,,,,,ティーケージー,0
5659,7050003009903,新規,0,2026-01-29,2026-01-29,合同会社クラフト,,合同会社,茨城県,ひたちなか市,青葉町１１－１－５０３,,08,221,3120056,,,,,,,2026-01-29,1,,,,,クラフト,0
5660,7060001038960,新規,0,2026-01-29,2026-01-29,エクスプログ株式会社,,株式会社,栃木県,小山市,大字松沼１０８０番地１,,09,208,3230007,,,,,,,2026-01-29,1,,,,,エクスプログ,0
5663,7070003006279,新規,0,2026-01-29,2026-01-29,合同会社ＩＴ’Ｓ　ＤＲＥＡＭ,,合同会社,群馬県,前橋市,上小出町２丁目４１番地２２,,10,201,3710037,,,,,,,2026-01-29,1,,,,,イッツドリーム,0
5664,7090003002978,新規,0,2026-01-29,2026-01-29,合同会社ＵＮＥＤＩＴＥＤ,,合同会社,山梨県,甲府市,北口３丁目８番２４号,,19,201,4000024,,,,,,,2026-01-29,1,,,,,アンエディテッド,0
5682,7120001283732,新規,0,2026-01-29,2026-01-29,株式会社ことはり,,株式会社,大阪府,大阪市生野区,巽南５丁目１４番２７号,00142370,27,116,5440015,,,,,,,2026-01-29,1,,,,,コトハリ,0
5683,7120001283757,新規,0,2026-01-29,2026-01-29,清和テクノ株式会社,,株式会社,大阪府,大阪市東成区,深江北３丁目１９番８号,,27,115,5370001,,,,,,,2026-01-29,1,,,,,セイワテクノ,0
5684,7120001283765,新規,0,2026-01-29,2026-01-29,ＰＩＣＡ　ＢＩＲＤ株式会社,,株式会社,大阪府,大阪市北区,梅田１丁目１番３号大阪駅前第３ビル２５階,,27,127,5300001,,,,,,,2026-01-29,1,,,,,ピカバード,0
5689,7120003031767,新規,0,2026-01-29,2026-01-29,合同会社ＲＥ・ＳＰＡＣＥＷＯＲＫＳ,,合同会社,大阪府,大阪市淀川区,十三元今里１丁目９番２３号,,27,123,5320028,,,,,,,2026-01-29,1,,,,,リスペースワーク,0
5693,7120903006050,新規,0,2026-01-29,2026-01-29,合同会社Ｌｏｓｔ＆Ｆｉｎｄｉｎｇｓ,,合同会社,大阪府,高槻市,日吉台五番町８－１１,,27,207,5691022,,,,,,,2026-01-29,1,,,,,ロストアンドファインディングス,0
5696,7122001040122,新規,0,2026-01-29,2026-01-29,株式会社蕩,,株式会社,大阪府,東大阪市,小阪２丁目２番１４号－３０２号,,27,227,5770801,,,,,,,2026-01-29,1,,,,,トロ,0
5701,7130001081490,新規,0,2026-01-29,2026-01-29,株式会社Ｆｉｒｅｄ　Ｕｐ,,株式会社,京都府,京都市西京区,桂木ノ下町１番地２６クレセント桂３０２,,26,111,6158072,,,,,,,2026-01-29,1,,,,,ファイアードアップ,0
5704,7130003011124,新規,0,2026-01-29,2026-01-29,バリューアセット合同会社,,合同会社,京都府,京都市北区,小山西元町３８番地,,26,101,6038113,,,,,,,2026-01-29,1,,,,,バリューアセット,0
5708,7140001141509,新規,0,2026-01-29,2026-01-29,ＬＥＴＴ株式会社,,株式会社,兵庫県,神戸市中央区,浪花町５６起業プラザひょうご内,,28,110,6500035,,,,,,,2026-01-29,1,,,,,レット,0
5710,7150001028696,新規,0,2026-01-29,2026-01-29,株式会社ｈｉｇｈ　ｆｉｅｌｄ鉄工,,株式会社,奈良県,大和高田市,大字藤森２０４番地１,,29,202,6350004,,,,,,,2026-01-29,1,,,,,ハイフィールドテッコウ,0
5713,7160001027383,新規,0,2026-01-29,2026-01-29,株式会社レガシアス,,株式会社,滋賀県,大津市,一里山５丁目３２番５号,,25,201,5202153,,,,,,,2026-01-29,1,,,,,レガシアス,0
5740,7180003029707,新規,0,2026-01-29,2026-01-29,合同会社ＫＢ一宮,,合同会社,愛知県,名古屋市中区,錦３丁目６番２９号,,23,106,4600003,,,,,,,2026-01-29,1,,,,,ケイビーイチノミヤ,0
5839,7290001112718,新規,0,2026-01-29,2026-01-29,株式会社Ｍｏｍｅｎｔｏｒｙ,,株式会社,福岡県,福岡市中央区,天神１丁目１１番１号ＯＮＥＦＵＫＵＯＫＡＢＬＤＧ．７階,,40,133,8100001,,,,,,,2026-01-29,1,,,,,モメントリー,0
5840,7290001112924,新規,0,2026-01-29,2026-01-29,株式会社ＫＡＮＯＵ,,株式会社,福岡県,福岡市早良区,野芥３丁目１４番２号,,40,137,8140171,,,,,,,2026-01-29,1,,,,,カノウ,0
5844,7290801032198,新規,0,2026-01-29,2026-01-29,ＪＵＭホールディングス株式会社,,株式会社,福岡県,北九州市小倉北区,中井５丁目７番２９号,,40,106,8030836,,,,,,,2026-01-29,1,,,,,ジャムホールディングス,0
5845,7290801032215,新規,0,2026-01-29,2026-01-29,株式会社山口農園,,株式会社,福岡県,豊前市,大字山内４１０番地２,,40,214,8280071,,,,,,,2026-01-29,1,,,,,ヤマグチノウエン,0
5846,7310001019935,新規,0,2026-01-29,2026-01-29,株式会社ＮＲＫ,,株式会社,長崎県,長崎市,三ツ山町１３１番地１,,42,201,8528142,,,,,,,2026-01-29,1,,,,,エヌアールケー,0
5847,7310003005173,新規,0,2026-01-29,2026-01-29,合同会社Ｔｉｍｅ　Ｔｏ　Ｂａｔｏｎ,,合同会社,長崎県,大村市,東大村２丁目１１１２番地１７０,,42,205,8560032,,,,,,,2026-01-29,1,,,,,タイムトゥバトン,0
5854,7340001027935,新規,0,2026-01-29,2026-01-29,ＴＡＮｉｉＴＯ　ＷＯＲＫＳ株式会社,,株式会社,鹿児島県,鹿児島市,山田町１７０５番地６号,,46,201,8910104,,,,,,,2026-01-29,1,,,,,タニトワークス,0
5856,7350001019915,新規,0,2026-01-29,2026-01-29,株式会社ＤＡＩＮＩＣＨＩ　ＣＲＥＡＴＥ,,株式会社,宮崎県,宮崎市,大和町１６９番地５,,45,201,8800878,,,,,,,2026-01-29,1,,,,,ダイニチクリエイト,0
5860,7360001036307,新規,0,2026-01-29,2026-01-29,株式会社仲程防災,,株式会社,沖縄県,浦添市,内間５丁目１番１８－５０３号,,47,208,9012121,,,,,,,2026-01-29,1,,,,,ナカホドボウサイ,0
5863,7360005007361,新規,0,2026-01-29,2026-01-29,一般社団法人比嘉門中,,その他の設立登記法人,沖縄県,糸満市,字糸満４８９番地,,47,210,9010361,,,,,,,2026-01-29,1,,,,,ヒガムンチュウ,0
5864,7370001053425,新規,0,2026-01-29,2026-01-29,株式会社ＪＴＣ,,株式会社,宮城県,塩竈市,芦畔町２番１９－１１号,00142371,04,203,9850012,,,,,,,2026-01-29,1,,,,,ジェーティーシー,0
5865,7370001053433,新規,0,2026-01-29,2026-01-29,株式会社山法師,,株式会社,宮城県,塩竈市,青葉ケ丘３番１１号,,04,203,9850082,,,,,,,2026-01-29,1,,,,,ヤマボウシ,0
5866,7370003007453,新規,0,2026-01-29,2026-01-29,合同会社こばやし,,合同会社,宮城県,黒川郡大和町,吉岡まほろば２丁目３０番地の７,,04,421,9813632,,,,,,,2026-01-29,1,,,,,コバヤシ,0
5869,7400001017302,新規,0,2026-01-29,2026-01-29,株式会社ＡｃｅＷｒｅｃｋｅｒ,,株式会社,岩手県,盛岡市,津志田南３丁目１番１３号グレイス１０２号,,03,201,0200839,,,,,,,2026-01-29,1,,,,,エースレッカー,0
5873,7430001096137,新規,0,2026-01-29,2026-01-29,株式会社Ｊ‐Ｉｍｐｒｏはせがわ産業医オフィス,,株式会社,北海道,札幌市西区,発寒六条８丁目１番１５号,,01,107,0630826,,,,,,,2026-01-29,1,,,,,ジェイインプロハセガワサンギョウイオフィス,0
5874,7430001096145,新規,0,2026-01-29,2026-01-29,株式会社ＪＩＧＹＯＵ,,株式会社,北海道,札幌市中央区,北四条西４丁目１－７ＭＭＳ札幌駅前ビル１階,,01,101,0600004,,,,,,,2026-01-29,1,,,,,ジギョウ,0
5876,7430003018527,新規,0,2026-01-29,2026-01-29,合同会社リノケア,,合同会社,北海道,札幌市東区,伏古十三条５丁目４－１８－１０１,,01,103,0070873,,,,,,,2026-01-29,1,,,,,リノケア,0
5878,7430005015398,新規,0,2026-01-29,2026-01-29,一般社団法人優和会,,その他の設立登記法人,北海道,札幌市中央区,南八条西１８丁目３番１８号飯村ビル２階,,01,101,0640808,,,,,,,2026-01-29,1,,,,,ユウワカイ,0
5882,7700150134207,新規,0,2026-01-29,2026-01-29,Ｅａｔａｌｙ　Ｓ．ｐ．Ａ．,,外国会社等,,,,,,,,Ｖｉａ　Ｎｉｚｚａ　２２４，１０１００　Ｔｏｒｉｎｏ（ＴＯ），Ｉｔａｌｙ,,,,,,2026-01-29,1,,,,,イータリーエスピーエー,0
5883,7700150134215,新規,0,2026-01-29,2026-01-29,Ｍｏｎｅｙ　Ｆｏｒｗａｒｄ　Ｉｎｄｉａ　Ｐｖｔ　Ｌｔｄ,,外国会社等,,,,,,,,Ｎｏ．１００１＆１００４，Ｔｏｗｅｒ　Ｂ，１０ｔｈ　Ｆｌｏｏｒ，Ｗｏｒｌｄ　Ｔｒａｄｅ　Ｃｅｎｔｅｒ，５／１４２，Ｒａｊｉｖ　Ｇａｎｄｈｉ　Ｓａｌａ,,,,,,2026-01-29,1,,,,,マネーフオワードインデイアプライベートリミテツド,0
5884,7700150134223,新規,0,2026-01-29,2026-01-29,トーマツ健康保険組合,,その他,東京都,渋谷区,千駄ヶ谷５丁目２１－１４,,13,113,1510051,,,,,,,2026-01-29,1,,,,,トーマツケンコウホケンクミアイ,0
6048,8010001262374,新規,0,2026-01-29,2026-01-29,株式会社ｉｎｓｐｉｒｅｗｏｒｋｓ,,株式会社,東京都,中央区,銀座１丁目１２番４号Ｎ＆ＥＢＬＤ．６Ｆ,,13,102,1040061,,,,,,,2026-01-29,1,,,,,インスパイアワークス,0
6085,8010005041295,新規,0,2026-01-29,2026-01-29,一般財団法人三誠,,その他の設立登記法人,東京都,中央区,新川１丁目８番８号,,13,102,1040033,,,,,,,2026-01-29,1,,,,,サンセイ,0
6263,8010401195967,新規,0,2026-01-29,2026-01-29,株式会社レンテンマルク,,株式会社,東京都,港区,北青山１丁目３－３三橋ビル３階,,13,103,1070061,,,,,,,2026-01-29,1,,,,,レンテンマルク,0
6297,8010601068642,新規,0,2026-01-29,2026-01-29,株式会社しまえもん,,株式会社,東京都,江東区,木場５丁目１－７－１０１号,,13,108,1350042,,,,,,,2026-01-29,1,,,,,シマエモン,0
6302,8010901058772,新規,0,2026-01-29,2026-01-29,株式会社ｓｉａｍｏ,,株式会社,東京都,世田谷区,深沢６丁目２２番４号,,13,112,1580081,,,,,,,2026-01-29,1,,,,,シアモ,0
6310,8011001175013,新規,0,2026-01-29,2026-01-29,ＡｄＡＩｖｅ株式会社,,株式会社,東京都,渋谷区,広尾３丁目４番１号１－２０２号室,,13,113,1500012,,,,,,,2026-01-29,1,,,,,アダイブ,0
6311,8011001175236,新規,0,2026-01-29,2026-01-29,創作未来株式会社,,株式会社,東京都,渋谷区,神南１丁目１１番４号ＦＰＧリンクス神南５階,,13,113,1500041,,,,,,,2026-01-29,1,,,,,ソウサクミライ,0
6312,8011001175285,新規,0,2026-01-29,2026-01-29,株式会社Ａｌｕｍｉａ,,株式会社,東京都,渋谷区,千駄ヶ谷３丁目７－１３原宿東急アパートメント３０８,,13,113,1510051,,,,,,,2026-01-29,1,,,,,アルミア,0
6313,8011003023277,新規,0,2026-01-29,2026-01-29,合同会社ＣＡＮＡＲＹ,,合同会社,東京都,渋谷区,代々木５丁目２９番８－６０１号,,13,113,1510053,,,,,,,2026-01-29,1,,,,,キャナリー,0
6315,8011101114556,新規,0,2026-01-29,2026-01-29,株式会社菊,,株式会社,東京都,新宿区,高田馬場１丁目１０番２２号プロヴァンス高田馬場２０２,,13,104,1690075,,,,,,,2026-01-29,1,,,,,キク,0
6316,8011101114580,新規,0,2026-01-29,2026-01-29,ＲＩＺＡＰエージェンシー株式会社,,株式会社,東京都,新宿区,西新宿８丁目１７番１号,,13,104,1600023,,,,,,,2026-01-29,1,,,,,ライザップエージェンシー,0
6342,8011501033050,新規,0,2026-01-29,2026-01-29,基膳株式会社,,株式会社,東京都,荒川区,東日暮里５丁目７番３－６０２号,,13,118,1160014,,,,,,,2026-01-29,1,,,,,キゼン,0
6344,8011601029337,新規,0,2026-01-29,2026-01-29,高夏商株式会社,,株式会社,東京都,練馬区,豊玉中２丁目５番７号,,13,120,1760013,,,,,,,2026-01-29,1,,,,,コウカショウ,0
6345,8011601029345,新規,0,2026-01-29,2026-01-29,株式会社ｎｅｋｏｐａｎｃｈｉ,,株式会社,東京都,練馬区,中村南３丁目２５－２,,13,120,1760025,,,,,,,2026-01-29,1,,,,,ネコパンチ,0
6346,8011801047386,新規,0,2026-01-29,2026-01-29,株式会社マーケバディ,,株式会社,東京都,葛飾区,柴又７丁目７番２５号,,13,122,1250052,,,,,,,2026-01-29,1,,,,,マーケバディ,0
6350,8012701019293,新規,0,2026-01-29,2026-01-29,株式会社ＢＮトラスト,,株式会社,東京都,小平市,学園東町１丁目１４番５号,,13,211,1870043,,,,,,,2026-01-29,1,,,,,ビーエヌトラスト,0
6351,8012801024508,新規,0,2026-01-29,2026-01-29,株式会社仲間工業,,株式会社,東京都,国分寺市,本多３丁目１２番７号,,13,214,1850011,,,,,,,2026-01-29,1,,,,,ナカマコウギョウ,0
6359,8013303008073,新規,0,2026-01-29,2026-01-29,合同会社ＡＰアセット,,合同会社,東京都,豊島区,要町１丁目４９番１４号,,13,116,1710043,,,,,,,2026-01-29,1,,,,,エーピーアセット,0
6361,8020001166830,新規,0,2026-01-29,2026-01-29,株式会社Ｓｅｎｓｅ　ｏｆ　ｂｅａｕｔｙ,,株式会社,神奈川県,横浜市青葉区,黒須田２７番地１ドレッセあざみ野ガーデンシエスタ４０１,,14,117,2250022,,,,,,,2026-01-29,1,,,,,,0
6362,8020001166913,新規,0,2026-01-29,2026-01-29,株式会社ＭＣＴ　Ｃａｐｉｔａｌ,,株式会社,神奈川県,川崎市宮前区,宮崎１丁目６番地５パークハウス宮崎台シンフォニーテラス６０９,,14,136,2160033,,,,,,,2026-01-29,1,,,,,エムシーティーキャピタル,0
6367,8021001087372,新規,0,2026-01-29,2026-01-29,株式会社ユーカリ,,株式会社,神奈川県,小田原市,栢山５８５番地の１,,14,206,2500852,,,,,,,2026-01-29,1,,,,,ユーカリ,0
6368,8021001087380,新規,0,2026-01-29,2026-01-29,株式会社ＨＲＤ＆Ｃ,,株式会社,神奈川県,茅ヶ崎市,東海岸北２丁目４－１７へーベルメゾン東海岸１０１,,14,207,2530053,,,,,,,2026-01-29,1,,,,,エイチアールディーアンドシー,0
6373,8021003017088,新規,0,2026-01-29,2026-01-29,Ｕｐａｒｋ合同会社,,合同会社,神奈川県,厚木市,旭町３丁目２０―１９,,14,212,2430014,,,,,,,2026-01-29,1,,,,,ユーパーク,0
6375,8021005013523,新規,0,2026-01-29,2026-01-29,医療法人社団一彩会,,その他の設立登記法人,神奈川県,横須賀市,鴨居２丁目６番１号,,14,201,2390813,,,,,,,2026-01-29,1,,,,,イッサイカイ,0
6505,8030003028490,新規,0,2026-01-29,2026-01-29,ＨＳアセットマネジメント合同会社,,合同会社,埼玉県,南埼玉郡宮代町,笠原２丁目２－７－１０６号,,11,442,3450822,,,,,,,2026-01-29,1,,,,,,0
6506,8030003028516,新規,0,2026-01-29,2026-01-29,デジタルアセットマネジメント合同会社,,合同会社,埼玉県,川越市,脇田町１５－１８－３０１,,11,201,3501122,,,,,,,2026-01-29,1,,,,,デジタルアセットマネジメント,0
6507,8030003028540,新規,0,2026-01-29,2026-01-29,栄行商事合同会社,,合同会社,埼玉県,さいたま市西区,大字飯田新田２８９－６,,11,101,3310068,,,,,,,2026-01-29,1,,,,,エイコウショウジ,0
6519,8040001058638,新規,0,2026-01-29,2026-01-29,株式会社エルディー,,株式会社,千葉県,山武市,森６７７番地,,12,237,2891214,,,,,,,2026-01-29,1,,,,,エルディー,0
6523,8040001142268,新規,0,2026-01-29,2026-01-29,アグリップキトウ株式会社,,株式会社,千葉県,長生郡長生村,入山津１１番地２,,12,423,2994321,,,,,,,2026-01-29,1,,,,,アグリップキトウ,0
6527,8040003029372,新規,0,2026-01-29,2026-01-29,合同会社ヘアーサロンサセ,,合同会社,千葉県,東金市,関内３６６,,12,213,2830014,,,,,,,2026-01-29,1,,,,,ヘアーサロンサセ,0
6536,8060003005941,新規,0,2026-01-29,2026-01-29,山保合同会社,,合同会社,栃木県,芳賀郡市貝町,大字赤羽１９０２番地２,,09,344,3213426,,,,,,,2026-01-29,1,,,,,サンポ,0
6543,8080001027399,新規,0,2026-01-29,2026-01-29,株式会社エイゾン,,株式会社,静岡県,静岡市駿河区,大谷８３１番地の３,,22,102,4228017,,,,,,,2026-01-29,1,,,,,エイゾン,0
6547,8100001039301,新規,0,2026-01-29,2026-01-29,株式会社丸六,,株式会社,長野県,松本市,大字島立字花見６９６－６,,20,202,3900852,,,,,,,2026-01-29,1,,,,,マルロク,0
6558,8120001283764,新規,0,2026-01-29,2026-01-29,株式会社ＡＵＴＨＥＮＴ,,株式会社,大阪府,大阪市北区,梅田１丁目２番２号大阪駅前第２ビル１２－１２,,27,127,5300001,,,,,,,2026-01-29,1,,,,,オーセント,0
6559,8120001283772,新規,0,2026-01-29,2026-01-29,株式会社Ｄｅａｌ　Ｄｅｎ,,株式会社,大阪府,大阪市浪速区,日本橋西１丁目５番５号みずほビル３Ｆ,,27,111,5560004,,,,,,,2026-01-29,1,,,,,ディールデン,0
6563,8120003031758,新規,0,2026-01-29,2026-01-29,合同会社ＬｏｄｇｉＢａｓｅ,,合同会社,大阪府,大阪市北区,中津３丁目７‐３０,,27,127,5310071,,,,,,,2026-01-29,1,,,,,ロッジベース,0
6570,8120901052153,新規,0,2026-01-29,2026-01-29,株式会社ＷｅＤｒａｆｔ,,株式会社,大阪府,吹田市,千里山虹が丘９番１－４０４号,,27,205,5650846,,,,,,,2026-01-29,1,,,,,ウィードラフト,0
6579,8140001141524,新規,0,2026-01-29,2026-01-29,株式会社日本橋,,株式会社,兵庫県,宝塚市,川面字長尾山１５番３２７,,28,214,6650848,,,,,,,2026-01-29,1,,,,,ニホンバシ,0
6580,8140001141532,新規,0,2026-01-29,2026-01-29,株式会社三八,,株式会社,兵庫県,尼崎市,開明町１丁目３５番地の１,,28,202,6600862,,,,,,,2026-01-29,1,,,,,サンパチ,0
6581,8140003023150,新規,0,2026-01-29,2026-01-29,合同会社碧,,合同会社,兵庫県,たつの市,揖西町土師１４６番地３５,,28,229,6794017,,,,,,,2026-01-29,1,,,,,アオ,0
6582,8150003003812,新規,0,2026-01-29,2026-01-29,合同会社ＦｌｏｗｅｒＳｔｙｌｅ,,合同会社,奈良県,磯城郡三宅町,大字石見４８８番地の３,,29,362,6360212,,,,,,,2026-01-29,1,,,,,フラワースタイル,0
6592,8180001170461,新規,0,2026-01-29,2026-01-29,株式会社ＡＵＮ,,株式会社,愛知県,名古屋市中川区,万場５丁目１７０１番地の１,,23,110,4540997,,,,,,,2026-01-29,1,,,,,アウン,0
6596,8180005021413,新規,0,2026-01-29,2026-01-29,一般社団法人全国婚活事業者支援機構,,その他の設立登記法人,愛知県,名古屋市東区,古出来２丁目５番１０号,,23,102,4610049,,,,,,,2026-01-29,1,,,,,ゼンコクコンカツジギョウシャシエンキコウ,0
6598,8180301040637,新規,0,2026-01-29,2026-01-29,株式会社ＦＤ,,株式会社,愛知県,刈谷市,一里山町中本山６７番地１０,,23,210,4480002,,,,,,,2026-01-29,1,,,,,エフディー,0
6601,8200001044662,新規,0,2026-01-29,2026-01-29,株式会社ＴＲＵＳＴ　ＬＯＧＩ,,株式会社,岐阜県,岐阜市,日置江５５１番地３,,21,201,5016133,,,,,,,2026-01-29,1,,,,,トラストロジ,0
6687,8290801032214,新規,0,2026-01-29,2026-01-29,株式会社新栄,,株式会社,福岡県,北九州市八幡西区,養福寺町５番５号,,40,109,8060065,,,,,,,2026-01-29,1,,,,,シンエイ,0
6690,8320001021559,新規,0,2026-01-29,2026-01-29,ラヴィエステート株式会社,,株式会社,大分県,中津市,大字牛神３６２番地１,,44,203,8710015,,,,,,,2026-01-29,1,,,,,ラヴィエステート,0
6692,8330001033958,新規,0,2026-01-29,2026-01-29,沃徳華工業株式会社,,株式会社,熊本県,熊本市中央区,新市街１番２８号ＴＨＥ・ＰＬＡＣＥ花畑ビル６Ｆ,,43,101,8600803,,,,,,,2026-01-29,1,,,,,ヨクトクカコウギョウ,0
6698,8360001036314,新規,0,2026-01-29,2026-01-29,コアクルーズ株式会社,,株式会社,沖縄県,石垣市,字登野城６２９番地８,,47,207,9070004,,,,,,,2026-01-29,1,,,,,コアクルーズ,0
6700,8370001053424,新規,0,2026-01-29,2026-01-29,株式会社珠寿屋,,株式会社,宮城県,宮城郡七ヶ浜町,東宮浜字御林７番地の２０５,,04,404,9850804,,,,,,,2026-01-29,1,,,,,スズヤ,0
6704,8420001019403,新規,0,2026-01-29,2026-01-29,株式会社鋼建工業,,株式会社,青森県,八戸市,根城３丁目２１番９号,,02,203,0391166,,,,,,,2026-01-29,1,,,,,,0
6709,8450001014847,新規,0,2026-01-29,2026-01-29,株式会社安保左官,,株式会社,北海道,旭川市,豊岡十一条１０丁目７番５号,,01,204,0788241,,,,,,,2026-01-29,1,,,,,アンボサカン,0
6712,8450005004472,新規,0,2026-01-29,2026-01-29,医療法人社団いち和会,,その他の設立登記法人,北海道,上川郡比布町,中町２丁目１番２８号,,01,455,0780343,,,,,,,2026-01-29,1,,,,,イチワカイ,0
6714,8470001021073,新規,0,2026-01-29,2026-01-29,トチラボ株式会社,,株式会社,香川県,高松市,三谷町３０９５番地１,,37,201,7610450,,,,,,,2026-01-29,1,,,,,トチラボ,0
6716,8700150134214,新規,0,2026-01-29,2026-01-29,Ｊ－Ｓｏｌａｒ　Ｃｏ．，Ｌｔｄ．,,外国会社等,,,,,,,,３４９　ＳＪ　Ｉｎｆｉｎｉｔｅ　Ｏｎｅ　Ｂｕｓｉｎｅｓｓ　Ｃｏｍｐｌｅｘ，Ｕｎｉｔ　０１－０３，１０ｔｈ　Ｆｌｏｏｒ，Ｖｉｂｈａｖａｄｉ　Ｒａｎｇｓｉｔ,,,,,,2026-01-29,1,,,,,ジエイソーラーカンパニーリミテツド,0
6717,8700150134222,新規,0,2026-01-29,2026-01-29,中原区,,その他,福岡県,朝倉市,中原２０４番地１,,40,228,8380056,,,,,,,2026-01-29,1,,,,,ナカバルク,0
6877,9010001261689,新規,0,2026-01-29,2026-01-29,ａｍｅｙｅ株式会社,,株式会社,東京都,中央区,銀座６丁目１３番９号ｂｉｚｃｕｂｅ,,13,102,1040061,,,,,,,2026-01-29,1,,,,,アムアイ,0
6878,9010001262076,新規,0,2026-01-29,2026-01-29,株式会社ＲｅＭｕｅ,,株式会社,東京都,千代田区,丸の内１丁目８番３号丸の内トラストタワー本館２０階,,13,101,1000005,,,,,,,2026-01-29,1,,,,,リミュウ,0
6879,9010001262299,新規,0,2026-01-29,2026-01-29,ＩｎｔｅｌｌｉｇｅｎｔＣｒｏｓｓ　Ｊａｐａｎ証券設立準備株式会社,,株式会社,東京都,千代田区,麹町３丁目５番地４麹町インテリジェントビルＢ－１,,13,101,1020083,,,,,,,2026-01-29,1,,,,,インテリジェントクロスジャパンショウケンセツリツジュンビ,0
6880,9010001262398,新規,0,2026-01-29,2026-01-29,株式会社ヤスダス,,株式会社,東京都,中央区,勝どき１丁目８番１－１６１０号,,13,102,1040054,,,,,,,2026-01-29,1,,,,,ヤスダス,0
6898,9010003050181,新規,0,2026-01-29,2026-01-29,全薬管理合同会社,,合同会社,東京都,文京区,大塚５丁目６番１５号,,13,105,1120012,,,,,,,2026-01-29,1,,,,,ゼンヤクカンリ,0
6899,9010003050198,新規,0,2026-01-29,2026-01-29,ＦＣＳ　ＬＶ‐７合同会社,,合同会社,東京都,中央区,銀座６丁目１０番１号,,13,102,1040061,,,,,,,2026-01-29,1,,,,,エフシーエスエルブイセブン,0
6920,9010005041294,新規,0,2026-01-29,2026-01-29,千葉北ファシリティ一般社団法人,,その他の設立登記法人,東京都,中央区,日本橋１丁目４番１号日本橋一丁目ビルディング,,13,102,1030027,,,,,,,2026-01-29,1,,,,,チバキタファシリティ,0
7073,9010401195941,新規,0,2026-01-29,2026-01-29,株式会社コレクトエビデンス,,株式会社,東京都,港区,西新橋３丁目２３番６号第一白川ビル２階Ｅ号室,,13,103,1050003,,,,,,,2026-01-29,1,,,,,コレクトエビデンス,0
7104,9010405025293,新規,0,2026-01-29,2026-01-29,クローバー特定目的会社,,その他の設立登記法人,東京都,港区,六本木１丁目６番１号泉ガーデンタワー,,13,103,1060032,,,,,,,2026-01-29,1,,,,,クローバー,0
7113,9010601068641,新規,0,2026-01-29,2026-01-29,Ｙ’ｓ保険サービス株式会社,,株式会社,東京都,江東区,亀戸６丁目６番９－３０３号,,13,108,1360071,,,,,,,2026-01-29,1,,,,,ワイズホケンサービス,0
7137,9011003023367,新規,0,2026-01-29,2026-01-29,合同会社Ｎｅｗ　Ｍｅｓｓａｇｅ,,合同会社,東京都,渋谷区,神南１丁目１１－４ＦＰＧリンクス神南５階,,13,113,1500041,,,,,,,2026-01-29,1,,,,,ニューメッセージ,0
7138,9011003023400,新規,0,2026-01-29,2026-01-29,合同会社Ｒ＆Ｔ,,合同会社,東京都,渋谷区,神南１丁目１１番４号ＦＰＧリンクス神南５階,,13,113,1500041,,,,,,,2026-01-29,1,,,,,,0
7139,9011003023441,新規,0,2026-01-29,2026-01-29,合同会社ＦＩＶＥＲ,,合同会社,東京都,渋谷区,道玄坂１丁目１０番８号渋谷道玄坂東急ビル２Ｆ－Ｃ,,13,113,1500043,,,,,,,2026-01-29,1,,,,,ファイブアール,0
7148,9011101114563,新規,0,2026-01-29,2026-01-29,株式会社ＩＮＴＥ　Ｌｉｎｋｓ,,株式会社,東京都,新宿区,西新宿３丁目３番１３号西新宿水間ビル２Ｆ,,13,104,1600023,,,,,,,2026-01-29,1,,,,,インテリンクス,0
7149,9011101114654,新規,0,2026-01-29,2026-01-29,株式会社ＢＯＧＯ,,株式会社,東京都,新宿区,大久保２丁目２５番２号４Ｆ,,13,104,1690072,,,,,,,2026-01-29,1,,,,,ボゴ,0
7150,9011103016972,新規,0,2026-01-29,2026-01-29,グロウス・マーク合同会社,,合同会社,東京都,新宿区,河田町１０番１３号アトラス新宿河田町ヒルズ３０６,,13,104,1620054,,,,,,,2026-01-29,1,,,,,グロウスマーク,0
7182,9012401044062,新規,0,2026-01-29,2026-01-29,泉和リアルティ株式会社,,株式会社,東京都,府中市,若松町４丁目３６番地の６,,13,206,1830005,,,,,,,2026-01-29,1,,,,,センワリアルティ,0
7184,9012403007579,新規,0,2026-01-29,2026-01-29,合同会社ＧＴ,,合同会社,東京都,武蔵野市,吉祥寺本町２丁目２－１０吉田ビルＢ１,,13,203,1800004,,,,,,,2026-01-29,1,,,,,,0
7188,9013301055661,新規,0,2026-01-29,2026-01-29,ＣｏｃｏＰｒｉ株式会社,,株式会社,東京都,豊島区,南池袋１丁目２１－５第７野萩ビルＢ１Ｆ,,13,116,1710022,,,,,,,2026-01-29,1,,,,,ココプリ,0
7189,9013301055678,新規,0,2026-01-29,2026-01-29,株式会社エコログプロパン,,株式会社,東京都,豊島区,西池袋１丁目４番１０号,,13,116,1710021,,,,,,,2026-01-29,1,,,,,エコログプロパン,0
7193,9020001166920,新規,0,2026-01-29,2026-01-29,アカラマネジメント株式会社,,株式会社,神奈川県,横浜市港北区,綱島西１丁目１４番５号２０２Ｍ,,14,109,2230053,,,,,,,2026-01-29,1,,,,,アカラマネジメント,0
7290,9030001170748,新規,0,2026-01-29,2026-01-29,ＭＫリンクス株式会社,,株式会社,埼玉県,草加市,新栄１丁目４７番地２,,11,221,3400056,,,,,,,2026-01-29,1,,,,,エムケイリンクス,0
7320,9030003028515,新規,0,2026-01-29,2026-01-29,合同会社蕎麦処いいむろ,,合同会社,埼玉県,八潮市,大字八條２４８５番地６,,11,234,3400801,,,,,,,2026-01-29,1,,,,,ソバドコロイイムロ,0
7321,9030003028531,新規,0,2026-01-29,2026-01-29,合同会社さんぽあん,,合同会社,埼玉県,坂戸市,大字堀込５４番地２１,,11,239,3500263,,,,,,,2026-01-29,1,,,,,サンポアン,0
7322,9030003028548,新規,0,2026-01-29,2026-01-29,ＨＫＴアセット戦略合同会社,,合同会社,埼玉県,所沢市,北野南１丁目１４番地の７,,11,208,3591156,,,,,,,2026-01-29,1,,,,,エイチケイティーアセットセンリャク,0
7333,9040001142275,新規,0,2026-01-29,2026-01-29,株式会社アートプランニング,,株式会社,千葉県,習志野市,東習志野５丁目１９番１５号,,12,216,2750001,,,,,,,2026-01-29,1,,,,,アートプランニング,0
7334,9050001057927,新規,0,2026-01-29,2026-01-29,Ｔ‐ＳＴＹＬＥ株式会社,,株式会社,茨城県,北茨城市,中郷町小野矢指２４１番地１０,,08,215,3191555,,,,,,,2026-01-29,1,,,,,ティースタイル,0
7337,9060001038967,新規,0,2026-01-29,2026-01-29,株式会社実保存修復技術,,株式会社,栃木県,宇都宮市,塙田５丁目１番１３号ライオンズマンション八幡山公園５０３号室,,09,201,3200027,,,,,,,2026-01-29,1,,,,,ミノリホゾンシュウフクギジュツ,0
7340,9100001039291,新規,0,2026-01-29,2026-01-29,株式会社ａｎｙ,,株式会社,長野県,小諸市,八幡１６８５－１１,,20,208,3840000,,,,,,,2026-01-29,1,,,,,エニー,0
7353,9120001283722,新規,0,2026-01-29,2026-01-29,株式会社シロ,,株式会社,大阪府,大阪市北区,梅田１丁目２－２－１階１２号,,27,127,5300001,,,,,,,2026-01-29,1,,,,,シロ,0
7354,9120001283739,新規,0,2026-01-29,2026-01-29,ＣＯＣＯ株式会社,,株式会社,大阪府,大阪市北区,梅田１丁目１３番１号大阪梅田ツインタワーズ・サウス１５０９,,27,127,5300001,,,,,,,2026-01-29,1,,,,,ココ,0
7355,9120001283747,新規,0,2026-01-29,2026-01-29,株式会社マッツ,,株式会社,大阪府,大阪市北区,梅田１丁目２番２号大阪駅前第２ビル１２－１２,,27,127,5300001,,,,,,,2026-01-29,1,,,,,マッツ,0
7356,9120001283755,新規,0,2026-01-29,2026-01-29,株式会社セルレバ,,株式会社,大阪府,大阪市中央区,南船場３丁目２番２２号おおきに南船場ビル２０５号室,,27,128,5420081,,,,,,,2026-01-29,1,,,,,セルレバ,0
7357,9120001283763,新規,0,2026-01-29,2026-01-29,宙ワークス株式会社,,株式会社,大阪府,大阪市北区,梅田１丁目２番２号大阪駅前第２ビル１２－１２,,27,127,5300001,,,,,,,2026-01-29,1,,,,,ソラワークス,0
7358,9120001283788,新規,0,2026-01-29,2026-01-29,株式会社ＲＥｓｕｐｐｏｒｔ,,株式会社,大阪府,大阪市北区,梅田１丁目２番２号大阪駅前第２ビル１２－１２,,27,127,5300001,,,,,,,2026-01-29,1,,,,,アールイーサポート,0
7359,9120001283821,新規,0,2026-01-29,2026-01-29,双峰株式会社,,株式会社,大阪府,大阪市阿倍野区,王子町１丁目４‐２５‐３０３,,27,119,5450023,,,,,,,2026-01-29,1,,,,,ソウホウ,0
7365,9120901052160,新規,0,2026-01-29,2026-01-29,音色株式会社,,株式会社,大阪府,豊中市,大黒町２丁目４－１,,27,203,5610827,,,,,,,2026-01-29,1,,,,,ネイロ,0
7368,9122005003874,新規,0,2026-01-29,2026-01-29,医療法人誠煌会,,その他の設立登記法人,大阪府,東大阪市,金岡１丁目１４番５号,,27,227,5770823,,,,,,,2026-01-29,1,,,,,セイコウカイ,0
7371,9130001081497,新規,0,2026-01-29,2026-01-29,森のくまさん株式会社,,株式会社,京都府,向日市,物集女町燈篭前２番地の３アンビエント東向日ベルクール４１５号,,26,208,6170001,,,,,,,2026-01-29,1,,,,,モリノクマサン,0
7372,9130001081514,新規,0,2026-01-29,2026-01-29,ＫＳＲ株式会社,,株式会社,京都府,京都市北区,等持院西町５番地７,,26,101,6038354,,,,,,,2026-01-29,1,,,,,ケイエスアール,0
7377,9140001141523,新規,0,2026-01-29,2026-01-29,株式会社大栄,,株式会社,兵庫県,赤穂市,上仮屋北８番地７,,28,212,6780237,,,,,,,2026-01-29,1,,,,,オオエイ,0
7380,9150005009757,新規,0,2026-01-29,2026-01-29,医療法人ＡＡＡ,,その他の設立登記法人,奈良県,香芝市,今泉４６４－１ＳＨＯＷＡビル１０６号,,29,210,6390264,,,,,,,2026-01-29,1,,,,,エーエーエー,0
7388,9180001170460,新規,0,2026-01-29,2026-01-29,株式会社オルゴー,,株式会社,愛知県,名古屋市中川区,打出２丁目２８２アルハンブラ２０１号,,23,110,4540926,,,,,,,2026-01-29,1,,,,,オルゴー,0
7389,9180001170469,新規,0,2026-01-29,2026-01-29,ＦＫｅｓｔａｔｅ株式会社,,株式会社,愛知県,名古屋市港区,宝神３丁目１０１６番地,,23,111,4550832,,,,,,,2026-01-29,1,,,,,エフケーエステイト,0
7396,9180003029688,新規,0,2026-01-29,2026-01-29,ＬＵＣＣＡ合同会社,,合同会社,愛知県,名古屋市中村区,名駅４丁目２４番５号第２森ビル４０１,,23,105,4500002,,,,,,,2026-01-29,1,,,,,ルッカ,0
7397,9180003029696,新規,0,2026-01-29,2026-01-29,マミーファクトリー合同会社,,合同会社,愛知県,名古屋市瑞穂区,岳見町６丁目２２番地の８,,23,108,4670043,,,,,,,2026-01-29,1,,,,,マミーファクトリー,0
7398,9180003029705,新規,0,2026-01-29,2026-01-29,合同会社ＴＭ,,合同会社,愛知県,名古屋市北区,川中町７番１９号,,23,103,4620022,,,,,,,2026-01-29,1,,,,,ティーエム,0
7407,9200001044661,新規,0,2026-01-29,2026-01-29,株式会社Ｇｒｏｗ,,株式会社,岐阜県,美濃加茂市,西町３丁目２８５番地１,,21,211,5050046,,,,,,,2026-01-29,1,,,,,グロー,0
7468,9240001066082,新規,0,2026-01-29,2026-01-29,株式会社ｃｏｄｅ,,株式会社,広島県,広島市西区,己斐本町１丁目１４番７－１７０１号,,34,104,7330812,,,,,,,2026-01-29,1,,,,,コード,0
7482,9290001112848,新規,0,2026-01-29,2026-01-29,株式会社つくし企画,,株式会社,福岡県,太宰府市,朱雀４丁目５番８号１０３号室,,40,221,8180103,,,,,,,2026-01-29,1,,,,,ツクシキカク,0
7487,9290003017979,新規,0,2026-01-29,2026-01-29,合同会社ｔｕｒｔｌｅ,,合同会社,福岡県,福岡市中央区,平和５丁目２番２０号,,40,133,8100016,,,,,,,2026-01-29,1,,,,,タートル,0
7489,9300001014489,新規,0,2026-01-29,2026-01-29,ＤＥＸＴＥＲ　ＴＲＡＤＩＮＧ株式会社,,株式会社,佐賀県,鳥栖市,村田町２－１,,41,203,8410072,,,,,,,2026-01-29,1,,,,,デクスタートレーディング,0
7497,9330001033957,新規,0,2026-01-29,2026-01-29,株式会社クランエイト,,株式会社,熊本県,熊本市中央区,大江１丁目１０番３３－１２０３号アルフィーネ大江コンフォート,,43,101,8620971,,,,,,,2026-01-29,1,,,,,クランエイト,0
7503,9360003015587,新規,0,2026-01-29,2026-01-29,合同会社プランドール,,合同会社,沖縄県,那覇市,字真地２６番地６プランドール真地３０６,,47,201,9020072,,,,,,,2026-01-29,1,,,,,プランドール,0
7508,9390001018234,新規,0,2026-01-29,2026-01-29,株式会社お直しジョージ,,株式会社,山形県,西村山郡河北町,西里１６１９,,06,321,9993533,,,,,,,2026-01-29,1,,,,,オナオシジョージ,0
7510,9420001019402,新規,0,2026-01-29,2026-01-29,株式会社青竜,,株式会社,青森県,十和田市,大字三本木字里ノ沢１番地５５９,,02,206,0340001,,,,,,,2026-01-29,1,,,,,セイリュウ,0
7511,9430001096135,新規,0,2026-01-29,2026-01-29,株式会社ティープロモーション,,株式会社,北海道,札幌市中央区,南七条西４丁目４２４番地１２すすきのプラザビル１００６号室,,01,101,0640807,,,,,,,2026-01-29,1,,,,,ティープロモーション,0
7512,9430001096143,新規,0,2026-01-29,2026-01-29,株式会社ともしび,,株式会社,北海道,札幌市豊平区,平岸四条５丁目１番２－３０５号,,01,105,0620934,,,,,,,2026-01-29,1,,,,,トモシビ,0
7521,9700150134205,新規,0,2026-01-29,2026-01-29,Ａｂｕｔａ　Ｐｒｉｍｅ　Ｌｉｍｉｔｅｄ,,外国会社等,,,,,,,,４０／Ｆ　Ｌｅｅ　Ｇａｒｄｅｎ　Ｏｎｅ，３３　Ｈｙｓａｎ　Ａｖｅｎｕｅ，Ｃａｕｓｅｗａｙ　Ｂａｙ，Ｈｏｎｇ　Ｋｏｎｇ,,,,,,2026-01-29,1,,,,,アブタプライムリミテツド,0
7522,9700150134213,新規,0,2026-01-29,2026-01-29,Ｅｉｇｈｔ　Ｒｏａｄｓ　Ｉｎｖｅｓｔｍｅｎｔｓ,,外国会社等,,,,,,,,Ｐｅｍｂｒｏｋｅ　Ｈａｌｌ，４２　Ｃｒｏｗ　Ｌａｎｅ，Ｐｅｍｂｒｏｋｅ　ＨＭ　１９，Ｂｅｒｍｕｄａ,,,,,,2026-01-29,1,,,,,エイトローズインベストメンツ,0
7523,9700150134221,新規,0,2026-01-29,2026-01-29,Ｓｈｅｎｚｈｅｎｓｈｉ　ｚｈｉｘｉｎｇｋａｉｔｕｏ　ｋｅｊｉｙｏｕｘｉａｎｇｏｎｇｓｉ,,外国会社等,,,,,,,,Ｒｏｏｍ　Ｃ１４０５，Ｂｌｏｃｋ　Ｃ，Ｚｈａｎｔａｏ　Ｔｅｃｈｎｏｌｏｇｙ　Ｂｕｉｌｄｉｎｇ，Ｉｎｔｅｒｓｅｃｔｉｏｎ　ｏｆ　Ｍｉｎｚｈｉ　Ａｖｅｎｕｅ　ａｎｄ　Ｇｏｎｇｙｅ　Ｅａｓｔ　Ｒｏａｄ，Ｘｉｎｎｉｕ　Ｃｏｍｍｕｎｉｔｙ，Ｍｉｎｚｈｉ　Ｓｕｂｄｉｓｔｒｉｃｔ，Ｌｏｎｇｈｕａ　Ｄｉｓｔｒｉｃｔ，Ｓｈｅｎｚｈｅｎ，Ｃｈｉｎａ,,,,,,2026-01-29,1,,,,,シンセンシジーシンカイトゥオカギョウユウゲンコウス,0
