sequenceNumber,corporateNumber,process,correct,updateDate,changeDate,name,nameImageId,kind,prefectureName,cityName,streetNumber,addressImageId,prefectureCode,cityCode,postCode,addressOutside,addressOutsideImageId,closeDate,closeCause,successorCorporateNumber,changeCause,assignmentDate,latest,enName,enPrefectureName,enCityName,enAddressOutside,furigana,hihyoji
8,1010001227350,新規,0,2022-06-13,2022-06-13,コミュニティパートナー株式会社,,株式会社,東京都,千代田区,六番町１－１,,13,101,1020085,,,,,,,2022-06-13,1,,,,,コミュニティーパートナー,0
23,1010401167881,新規,0,2022-06-13,2022-06-13,ＬＳ‐Ａｖｉａｔｉｏｎ第４５号株式会社,,株式会社,東京都,港区,六本木１丁目６番１号,,13,103,1060032,,,,,,,2022-06-13,1,,,,,エルエスアビエーションダイヨンジュウゴゴウ,0
30,1010601061315,新規,0,2022-06-13,2022-06-13,株式会社ｍ’ｓｈｏｍｅ,,株式会社,東京都,江東区,木場５丁目５番地１２号ＪＵビル２階,,13,108,1350042,,,,,,,2022-06-13,1,,,,,エムズホーム,0
31,1010701042784,新規,0,2022-06-13,2022-06-13,株式会社エスブルーム・リアルド,,株式会社,東京都,品川区,戸越３丁目５番１号,,13,109,1420041,,,,,,,2022-06-13,1,,,,,エスブルームリアルド,0
32,1010701042801,新規,0,2022-06-13,2022-06-13,株式会社ＫＤ,,株式会社,東京都,品川区,東五反田２丁目１０番１号,,13,109,1410022,,,,,,,2022-06-13,1,,,,,ケーディー,0
35,1010901051024,新規,0,2022-06-13,2022-06-13,芋川パーソネルリンク株式会社,,株式会社,東京都,世田谷区,松原１丁目５１番４号,,13,112,1560043,,,,,,,2022-06-13,1,,,,,イモカワパーソネルリンク,0
44,1011001147984,新規,0,2022-06-13,2022-06-13,株式会社ＣＲＯＰＲＯ,,株式会社,東京都,目黒区,下目黒３丁目１４－３,,13,110,1530064,,,,,,,2022-06-13,1,,,,,クロプロ,0
45,1011001148000,新規,0,2022-06-13,2022-06-13,株式会社アビュータスヒルズ,,株式会社,東京都,目黒区,柿の木坂３丁目８番７号,,13,110,1520022,,,,,,,2022-06-13,1,,,,,アビュータスヒルズ,0
52,1011101099201,新規,0,2022-06-13,2022-06-13,株式会社トランザック,,株式会社,東京都,新宿区,西新宿３丁目３番１３号西新宿水間ビル６階,,13,104,1600023,,,,,,,2022-06-13,1,,,,,トランザック,0
56,1011103011799,新規,0,2022-06-13,2022-06-13,合同会社ＦｏｒＢＥＩＮＧ,,合同会社,東京都,新宿区,若葉１丁目２２番地ローヤル若葉２０７,,13,104,1600011,,,,,,,2022-06-13,1,,,,,フォービーイング,0
59,1011601026010,新規,0,2022-06-13,2022-06-13,株式会社糸吉,00126856,株式会社,東京都,練馬区,下石神井６丁目１０番１０号,,13,120,1770042,,,,,,,2022-06-13,1,,,,,イトキチ,0
70,1012401039292,新規,0,2022-06-13,2022-06-13,株式会社ＶＥＲＳＥ,,株式会社,東京都,狛江市,岩戸南４丁目２１番２号,,13,219,2010005,,,,,,,2022-06-13,1,,,,,ヴァース,0
75,1013101008942,新規,0,2022-06-13,2022-06-13,株式会社Ｃｈｅｒｒｙ　Ｃｏｒｐｏｒａｔｉｏｎ,,株式会社,東京都,羽村市,小作台１丁目２番地１２第３丸八ビル１０４号室,,13,227,2050001,,,,,,,2022-06-13,1,,,,,,0
79,1013303006190,新規,0,2022-06-13,2022-06-13,合同会社竹蔵,,合同会社,東京都,豊島区,南大塚１丁目１０番６－４１２号,,13,116,1700005,,,,,,,2022-06-13,1,,,,,タケゾウ,0
83,1020001146748,新規,0,2022-06-13,2022-06-13,株式会社扇,,株式会社,神奈川県,横浜市都筑区,大熊町１０５０番地１,,14,118,2240042,,,,,,,2022-06-13,1,,,,,オウギ,0
84,1020001146839,新規,0,2022-06-13,2022-06-13,ＲＵＩＤＯ貿易株式会社,,株式会社,神奈川県,横浜市中区,桜木町１丁目１０１－１クロスゲート７Ｆ,,14,104,2310062,,,,,,,2022-06-13,1,,,,,ルイドボウエキ,0
91,1020005015560,新規,0,2022-06-13,2022-06-13,岡野相続税理士法人,,その他の設立登記法人,神奈川県,横浜市港北区,新横浜３丁目７番地１８日総第１８ビル９Ｆ,,14,109,2220033,,,,,,,2022-06-13,1,,,,,オカノソウゾク,0
101,1030001148628,新規,0,2022-06-13,2022-06-13,株式会社ホカゾノ,,株式会社,埼玉県,川口市,西川口１丁目１８番１２ＹＰビル３Ｆ,,11,203,3320021,,,,,,,2022-06-13,1,,,,,ホカゾノ,0
102,1030001148652,新規,0,2022-06-13,2022-06-13,株式会社アルヨ,,株式会社,埼玉県,志木市,幸町１丁目４番１６号第二アビタシオン浅倉３００７,,11,228,3530005,,,,,,,2022-06-13,1,,,,,アルヨ,0
115,1040001123794,新規,0,2022-06-13,2022-06-13,株式会社まつかわ,,株式会社,千葉県,柏市,つくしが丘５丁目２番４号,,12,217,2770072,,,,,,,2022-06-13,1,,,,,マツカワ,0
116,1040001123803,新規,0,2022-06-13,2022-06-13,飯塚興業株式会社,,株式会社,千葉県,市川市,曽谷１丁目２４番７号,,12,203,2720832,,,,,,,2022-06-13,1,,,,,イイヅカコウギョウ,0
118,1040003020214,新規,0,2022-06-13,2022-06-13,ビサル合同会社,,合同会社,千葉県,八千代市,ゆりのき台２丁目６番地４シティハイツ君塚１０１号,,12,221,2760042,,,,,,,2022-06-13,1,,,,,ビサル,0
119,1040003020230,新規,0,2022-06-13,2022-06-13,合同会社ＢＯＮＤ,,合同会社,千葉県,市川市,市川２丁目３２番３号トノックスビル４０２,,12,203,2720034,,,,,,,2022-06-13,1,,,,,ボンド,0
126,1050001051219,新規,0,2022-06-13,2022-06-13,株式会社鮪屋,,株式会社,茨城県,神栖市,大野原３丁目１０番２１号,,08,232,3140144,,,,,,,2022-06-13,1,,,,,マグロヤ,0
130,1060001034973,新規,0,2022-06-13,2022-06-13,ＰｏｌｅＰｏｌｅメディファ株式会社,,株式会社,栃木県,宇都宮市,上戸祭町２９９３番地２,,09,201,3200051,,,,,,,2022-06-13,1,,,,,ポレポレメディファ,0
134,1080001025013,新規,0,2022-06-13,2022-06-13,株式会社グリーングラス,,株式会社,静岡県,静岡市葵区,相生町３番１１号,,22,101,4200838,,,,,,,2022-06-13,1,,,,,グリーングラス,0
138,1080103002604,新規,0,2022-06-13,2022-06-13,合同会社ｋａｚｒｅｅ,,合同会社,静岡県,熱海市,水口町１２－８,,22,205,4130016,,,,,,,2022-06-13,1,,,,,カズリー,0
142,1090001017612,新規,0,2022-06-13,2022-06-13,株式会社ｋｉｋｏｒｉｃｏ,,株式会社,山梨県,北杜市,小淵沢町１００６０番地８８０,,19,209,4080044,,,,,,,2022-06-13,1,,,,,キコリコ,0
151,1110001036741,新規,0,2022-06-13,2022-06-13,にしたか不動産株式会社,,株式会社,新潟県,見附市,今町５丁目３１番２４－９号,,15,211,9540111,,,,,,,2022-06-13,1,,,,,ニシタカフドウサン,0
162,1120001246562,新規,0,2022-06-13,2022-06-13,株式会社祝日麦酒,,株式会社,大阪府,大阪市鶴見区,放出東１丁目１８番２８号,,27,124,5380044,,,,,,,2022-06-13,1,,,,,シュクジツバクシュ,0
163,1120001246570,新規,0,2022-06-13,2022-06-13,金奇株式会社,,株式会社,大阪府,門真市,千石東町２番４１－２１号,,27,223,5710013,,,,,,,2022-06-13,1,,,,,キンキ,0
171,1120901046087,新規,0,2022-06-13,2022-06-13,株式会社ＳａＵ,,株式会社,大阪府,箕面市,彩都粟生南７丁目６番４号,,27,220,5620028,,,,,,,2022-06-13,1,,,,,エスエーユー,0
185,1140001126283,新規,0,2022-06-13,2022-06-13,株式会社カミツレ,,株式会社,兵庫県,神戸市中央区,海岸通４丁目４－３ワコーレ海岸通Ｉ．Ｃ１Ｆ,,28,110,6500024,,,,,,,2022-06-13,1,,,,,カミツレ,0
187,1140003017786,新規,0,2022-06-13,2022-06-13,合資会社松波商事,,合資会社,兵庫県,神戸市中央区,熊内町４丁目２番１７号,,28,110,6510056,,,,,,,2022-06-13,1,,,,,マツナミショウジ,0
193,1160001024279,新規,0,2022-06-13,2022-06-13,株式会社スマイル,,株式会社,滋賀県,大津市,本堅田５丁目６番３７号蔵所ハイツ２０２号室,,25,201,5200242,,,,,,,2022-06-13,1,,,,,スマイル,0
203,1180001151674,新規,0,2022-06-13,2022-06-13,株式会社Ａｎａｎｄａ,,株式会社,愛知県,名古屋市名東区,引山３丁目１１１番地,,23,115,4650002,,,,,,,2022-06-13,1,,,,,アナンダ,0
204,1180001151682,新規,0,2022-06-13,2022-06-13,株式会社３ＸＬ,,株式会社,愛知県,一宮市,深坪町１５－１,,23,203,4910908,,,,,,,2022-06-13,1,,,,,スリーエックスエル,0
210,1180005019802,新規,0,2022-06-13,2022-06-13,社会保険労務士法人チームケイツ,,その他の設立登記法人,愛知県,名古屋市中区,丸の内３丁目７番２６号,,23,106,4600002,,,,,,,2022-06-13,1,,,,,チームケイツ,0
215,1200001040172,新規,0,2022-06-13,2022-06-13,株式会社こころ家,,株式会社,岐阜県,大垣市,大池町１３番地２７,,21,202,5030863,,,,,,,2022-06-13,1,,,,,ココロヤ,0
218,1220001024900,新規,0,2022-06-13,2022-06-13,景永医療福祉株式会社,,株式会社,石川県,金沢市,松村５丁目２７３番地６,,17,201,9200348,,,,,,,2022-06-13,1,,,,,ケイエイイリョウフクシ,0
230,1240001059928,新規,0,2022-06-13,2022-06-13,株式会社トキヨシ,,株式会社,広島県,広島市中区,江波東１丁目１２番１５号,,34,101,7300832,,,,,,,2022-06-13,1,,,,,,0
236,1260001036933,新規,0,2022-06-13,2022-06-13,株式会社鈴空,,株式会社,岡山県,岡山市北区,西崎１丁目３－１６スカイパレス西崎３０５号室,,33,101,7000055,,,,,,,2022-06-13,1,,,,,リンク,0
239,1270001008551,新規,0,2022-06-13,2022-06-13,株式会社ＫＪ,,株式会社,鳥取県,八頭郡八頭町,土師百井１５番地３,,31,329,6800455,,,,,,,2022-06-13,1,,,,,ケージェー,0
251,1290001097857,新規,0,2022-06-13,2022-06-13,株式会社ツナグ,,株式会社,福岡県,春日市,平田台２丁目４０番地,,40,218,8160812,,,,,,,2022-06-13,1,,,,,ツナグ,0
252,1290001097881,新規,0,2022-06-13,2022-06-13,株式会社ｍｆ　ｓｐａｃｅ,,株式会社,福岡県,福岡市中央区,薬院４丁目１３番６２号,,40,133,8100022,,,,,,,2022-06-13,1,,,,,エムエフスペース,0
262,1330001029822,新規,0,2022-06-13,2022-06-13,株式会社しゃりんかん,,株式会社,熊本県,熊本市南区,田井島２丁目１０番７号,,43,104,8620965,,,,,,,2022-06-13,1,,,,,シャリンカン,0
266,1340001024806,新規,0,2022-06-13,2022-06-13,株式会社ヴォラーレ,,株式会社,鹿児島県,姶良市,脇元９２６番地２,,46,225,8995651,,,,,,,2022-06-13,1,,,,,ヴォラーレ,0
272,1360001030538,新規,0,2022-06-13,2022-06-13,創造事業株式会社,,株式会社,沖縄県,沖縄市,古謝２丁目１８番１４号,,47,211,9042161,,,,,,,2022-06-13,1,,,,,ソウゾウジギョウ,0
289,1390003001963,新規,0,2022-06-13,2022-06-13,合同会社ＴＭＥ,,合同会社,山形県,米沢市,春日３丁目２番５５号クオーレ春日１０１号室,,06,202,9920044,,,,,,,2022-06-13,1,,,,,ティーエムイー,0
304,1430001086820,新規,0,2022-06-13,2022-06-13,株式会社タクミ住建,,株式会社,北海道,札幌市東区,北四十九条東５丁目２番３５号,,01,103,0070849,,,,,,,2022-06-13,1,,,,,タクミジュウケン,0
305,1430001086829,新規,0,2022-06-13,2022-06-13,株式会社タカハシ,,株式会社,北海道,札幌市南区,中ノ沢４丁目３番１５号,,01,106,0050831,,,,,,,2022-06-13,1,,,,,タカハシ,0
307,1430003013987,新規,0,2022-06-13,2022-06-13,マエダリフォーム合同会社,,合同会社,北海道,余市郡仁木町,北町１丁目３２－１７,,01,407,0482405,,,,,,,2022-06-13,1,,,,,マエダリフォーム,0
310,1470001019116,新規,0,2022-06-13,2022-06-13,株式会社空間芸術,,株式会社,香川県,高松市,鍛冶屋町１番地１１－３Ｆ,,37,201,7600028,,,,,,,2022-06-13,1,,,,,クウカンゲイジュツ,0
313,1480001011765,新規,0,2022-06-13,2022-06-13,株式会社コーンズ,,株式会社,徳島県,徳島市,南田宮１丁目５番３０－１１０７号,,36,201,7700004,,,,,,,2022-06-13,1,,,,,コーンズ,0
315,1500001024269,新規,0,2022-06-13,2022-06-13,株式会社Ｉｎｓｉｇｈｔ,,株式会社,愛媛県,西条市,古川乙１４８番地１,,38,206,7930045,,,,,,,2022-06-13,1,,,,,インサイト,0
319,1700150109478,新規,0,2022-06-13,2022-06-13,ＧＡＭＰＯＬＡ　ＭＯＴＯＲＳ＆ＡＳＦ　ＧＲＯＵＰ　ＣＡＲ　ＲＥＮＴ,,外国会社等,千葉県,東金市,東金４０５－１アイケイハイムＢ２０１,,12,213,2830802,スリランカ民主社会主義共和国、アッダライシェナイ－０５、Ｎｏ．０５メインロード,,,,,,2022-06-13,1,,,,,ガンポーラモータースアンドエーエスエフグループカーレント,0
329,2010003037870,新規,0,2022-06-13,2022-06-13,ｓｌｉｄｉｃｔ合同会社,,合同会社,東京都,中央区,銀座１丁目２２番１１号銀座大竹ビジデンス２階,,13,102,1040061,,,,,,,2022-06-13,1,,,,,スライディクト,0
330,2010005035121,新規,0,2022-06-13,2022-06-13,神楽坂４７特定目的会社,,その他の設立登記法人,東京都,千代田区,丸の内１丁目８番２号鉄鋼ビルディング４階,,13,101,1000005,,,,,,,2022-06-13,1,,,,,カグラザカフォーティーセブン,0
347,2010403027793,新規,0,2022-06-13,2022-06-13,合同会社コトリセラミックス,,合同会社,東京都,港区,新橋６丁目５番４号ＤＩＫマンション新橋２０２号室,,13,103,1050004,,,,,,,2022-06-13,1,,,,,コトリセラミックス,0
348,2010501048956,新規,0,2022-06-13,2022-06-13,株式会社ビーコン,,株式会社,東京都,台東区,蔵前４丁目２０番９号,,13,106,1110051,,,,,,,2022-06-13,1,,,,,ビーコン,0
352,2010601061306,新規,0,2022-06-13,2022-06-13,株式会社Ｔａｒｏ’ｓ,,株式会社,東京都,江東区,豊洲４丁目１１番３５－９０７号,,13,108,1350061,,,,,,,2022-06-13,1,,,,,タローズ,0
353,2010601061322,新規,0,2022-06-13,2022-06-13,株式会社Ｐ．Ｔ．Ａ．Ａ．,,株式会社,東京都,墨田区,太平４丁目９番１３－４０１号カスタード第一ビル,,13,107,1300012,,,,,,,2022-06-13,1,,,,,ピーティエイエイ,0
357,2010701042800,新規,0,2022-06-13,2022-06-13,株式会社ＮＯＬＡＨ,,株式会社,東京都,品川区,西五反田３丁目１３番８－８０５号,,13,109,1410031,,,,,,,2022-06-13,1,,,,,ノラ,0
364,2011001147802,新規,0,2022-06-13,2022-06-13,ＺＥＮＳＥ株式会社,,株式会社,東京都,渋谷区,幡ヶ谷３丁目８０番１５号,,13,113,1510072,,,,,,,2022-06-13,1,,,,,ゼンス,0
365,2011001147901,新規,0,2022-06-13,2022-06-13,株式会社ＬＩＶＥＸＩＡ,,株式会社,東京都,渋谷区,道玄坂１丁目１０番８号渋谷道玄坂東急ビル２Ｆ－Ｃ,,13,113,1500043,,,,,,,2022-06-13,1,,,,,リブシア,0
366,2011001147934,新規,0,2022-06-13,2022-06-13,株式会社ＡＣＵＭＥＮ　ＴＯＫＹＯ,,株式会社,東京都,渋谷区,神宮前５丁目１２番１号,,13,113,1500001,,,,,,,2022-06-13,1,,,,,アクメントウキョウ,0
370,2011003014819,新規,0,2022-06-13,2022-06-13,合同会社はじめの一歩,,合同会社,東京都,渋谷区,道玄坂１丁目１０番８号渋谷道玄坂東急ビル２Ｆ－Ｃ,,13,113,1500043,,,,,,,2022-06-13,1,,,,,ハジメノイッポ,0
372,2011101099191,新規,0,2022-06-13,2022-06-13,株式会社ｃＭｃｃ,,株式会社,東京都,新宿区,西新宿３丁目３番１３号西新宿水間ビル６階,,13,104,1600023,,,,,,,2022-06-13,1,,,,,シーエムシーシー,0
374,2011103011848,新規,0,2022-06-13,2022-06-13,合同会社荏原,,合同会社,東京都,新宿区,若宮町１７番地,,13,104,1620827,,,,,,,2022-06-13,1,,,,,エバラ,0
381,2011701025373,新規,0,2022-06-13,2022-06-13,株式会社ＡＬＰＨＡ　ＢＯＸ,,株式会社,東京都,江戸川区,鹿骨４丁目２５番１７－１１０号,,13,123,1330073,,,,,,,2022-06-13,1,,,,,アルファボックス,0
390,2012401039275,新規,0,2022-06-13,2022-06-13,媛株式会社,,株式会社,東京都,調布市,調布ケ丘３丁目５０－２コヴェントリーヒルズ３０５,,13,208,1820021,,,,,,,2022-06-13,1,,,,,エン,0
399,2020001146862,新規,0,2022-06-13,2022-06-13,株式会社英美,,株式会社,神奈川県,横浜市瀬谷区,阿久和南２丁目１９番地１０,,14,114,2460026,,,,,,,2022-06-13,1,,,,,ヒデミ,0
413,2030001148726,新規,0,2022-06-13,2022-06-13,ＮＥＳＴｏ株式会社,,株式会社,埼玉県,比企郡小川町,大字大塚７番地４,,11,343,3550328,,,,,,,2022-06-13,1,,,,,ネスト,0
424,2040001123769,新規,0,2022-06-13,2022-06-13,美昊ワールド株式会社,,株式会社,千葉県,白井市,桜台４丁目１１番１１号,,12,232,2701412,,,,,,,2022-06-13,1,,,,,ミコウワールド,0
426,2040003020213,新規,0,2022-06-13,2022-06-13,ヒマワリトレーディング合同会社,,合同会社,千葉県,柏市,高田１０９０番地１５,,12,217,2770861,,,,,,,2022-06-13,1,,,,,ヒマワリトレーディング,0
435,2060001034964,新規,0,2022-06-13,2022-06-13,株式会社菱田建設,,株式会社,栃木県,宇都宮市,一条２丁目７番１号,,09,201,3200821,,,,,,,2022-06-13,1,,,,,ヒシダケンセツ,0
436,2060001034972,新規,0,2022-06-13,2022-06-13,株式会社結人園,,株式会社,栃木県,宇都宮市,緑５丁目８番２４号,,09,201,3210165,,,,,,,2022-06-13,1,,,,,ユイビトエン,0
439,2070001039327,新規,0,2022-06-13,2022-06-13,株式会社ティエムエフ,,株式会社,群馬県,高崎市,上豊岡町５６９－２８,,10,202,3700871,,,,,,,2022-06-13,1,,,,,ティエムエフ,0
441,2070003004510,新規,0,2022-06-13,2022-06-13,合同会社Ｓｐｈｅｎｅビジネスサービス,,合同会社,群馬県,太田市,尾島町１２０番地１,,10,205,3700401,,,,,,,2022-06-13,1,,,,,スフェーンビジネスサービス,0
444,2080001025012,新規,0,2022-06-13,2022-06-13,株式会社ＥＸＴ３５,,株式会社,静岡県,静岡市清水区,楠４２２番地の２,,22,103,4240881,,,,,,,2022-06-13,1,,,,,エクステリアサコ,0
445,2080003002819,新規,0,2022-06-13,2022-06-13,合同会社アンドティーカンパニー,,合同会社,静岡県,島田市,相賀２９番地の３,,22,209,4270033,,,,,,,2022-06-13,1,,,,,アンドティーカンパニー,0
462,2120001246487,新規,0,2022-06-13,2022-06-13,昆兪文化交流株式会社,,株式会社,大阪府,大阪市平野区,瓜破２丁目１－５０アビタシオン２３,,27,126,5470024,,,,,,,2022-06-13,1,,,,,コンユブンカコウリュウ,0
463,2120001246586,新規,0,2022-06-13,2022-06-13,ファブラス株式会社,,株式会社,大阪府,大阪市平野区,喜連３丁目７番２９号,,27,126,5470027,,,,,,,2022-06-13,1,,,,,ファブラス,0
475,2120101065746,新規,0,2022-06-13,2022-06-13,イエロースマイル株式会社,,株式会社,大阪府,堺市美原区,菅生６６４番地１,,27,147,5870041,,,,,,,2022-06-13,1,,,,,イエロースマイル,0
477,2120901046078,新規,0,2022-06-13,2022-06-13,株式会社ｆｅｌｉｃｅｓ,,株式会社,大阪府,高槻市,寿町３丁目３２番１２号,,27,207,5690826,,,,,,,2022-06-13,1,,,,,フェリセス,0
486,2140001126308,新規,0,2022-06-13,2022-06-13,株式会社センス,,株式会社,兵庫県,加古郡稲美町,国岡４丁目８５番地,,28,381,6751115,,,,,,,2022-06-13,1,,,,,センス,0
487,2140001126340,新規,0,2022-06-13,2022-06-13,徳宇産業株式会社,,株式会社,兵庫県,神戸市兵庫区,吉田町３丁目７番２９号,,28,105,6520872,,,,,,,2022-06-13,1,,,,,トクウサンギョウ,0
490,2150005009400,新規,0,2022-06-13,2022-06-13,一般社団法人リアン,,その他の設立登記法人,奈良県,大和高田市,旭北町９番１２号ロワール旭Ａ２０２号,,29,202,6350036,,,,,,,2022-06-13,1,,,,,リアン,0
491,2160001024278,新規,0,2022-06-13,2022-06-13,Ｋａｎｔａ株式会社,,株式会社,滋賀県,大津市,大萱４丁目５番２４号,,25,201,5202144,,,,,,,2022-06-13,1,,,,,カンタ,0
500,2180001151698,新規,0,2022-06-13,2022-06-13,株式会社ＨＥＡＲＴ　ＯＦ　ＧＯＬＤ,,株式会社,愛知県,名古屋市中村区,中村町１丁目６６番地,,23,105,4530053,,,,,,,2022-06-13,1,,,,,ハートオブゴールド,0
508,2230001019403,新規,0,2022-06-13,2022-06-13,照笑株式会社,,株式会社,富山県,富山市,向川原町２番２３－８０４号ダイアパレス雪見橋,,16,201,9300041,,,,,,,2022-06-13,1,,,,,テルエ,0
519,2260001036924,新規,0,2022-06-13,2022-06-13,株式会社インパクト,,株式会社,岡山県,岡山市北区,平野７６５番地８,,33,101,7010151,,,,,,,2022-06-13,1,,,,,インパクト,0
520,2260001036940,新規,0,2022-06-13,2022-06-13,ＵＮＬＩＭＩＴＥＤ株式会社,,株式会社,岡山県,岡山市北区,東古松３丁目１２番６号６０１,,33,101,7000921,,,,,,,2022-06-13,1,,,,,アンリミテッド,0
527,2290001097880,新規,0,2022-06-13,2022-06-13,Ｔｉａｐ株式会社,,株式会社,福岡県,福岡市中央区,警固２丁目１２番１９号,,40,133,8100023,,,,,,,2022-06-13,1,,,,,タイアップ,0
530,2290003012615,新規,0,2022-06-13,2022-06-13,順昌合同会社,,合同会社,福岡県,福岡市中央区,鳥飼２丁目８番３－４０３号,,40,133,8100053,,,,,,,2022-06-13,1,,,,,ジュンショウ,0
534,2290803004142,新規,0,2022-06-13,2022-06-13,合同会社Ａｍｉｗｚ,,合同会社,福岡県,田川郡川崎町,大字川崎１０６１－２Ｔ．Ｉビル３０１,,40,605,8270003,,,,,,,2022-06-13,1,,,,,アミゥズ,0
543,2330001029821,新規,0,2022-06-13,2022-06-13,株式会社守島塗装,,株式会社,熊本県,上益城郡益城町,大字安永４３４番地３,,43,443,8612231,,,,,,,2022-06-13,1,,,,,モリシマトソウ,0
545,2340001024805,新規,0,2022-06-13,2022-06-13,株式会社ＳＡＮ構造設計,,株式会社,鹿児島県,鹿児島市,荒田２丁目２６番１３号２Ｆ,,46,201,8900054,,,,,,,2022-06-13,1,,,,,サンコウゾウセッケイ,0
547,2340003003823,新規,0,2022-06-13,2022-06-13,葵ワークス合同会社,,合同会社,鹿児島県,枕崎市,折口町１２４番地,,46,204,8980003,,,,,,,2022-06-13,1,,,,,アオイワークス,0
552,2370003005734,新規,0,2022-06-13,2022-06-13,合同会社ＺＡＨＥＥＲ　ＴＲＡＤＩＮＧ,,合同会社,宮城県,亘理郡亘理町,荒浜字新御狩屋８１番地１,,04,361,9892311,,,,,,,2022-06-13,1,,,,,ザヒールトレーディング,0
567,2430001086811,新規,0,2022-06-13,2022-06-13,株式会社オドエコー,,株式会社,北海道,札幌市中央区,南二十条西１２丁目２－４１アイム札幌山鼻パークサイト７０２号室,,01,101,0640920,,,,,,,2022-06-13,1,,,,,オドエコー,0
578,2500001024268,新規,0,2022-06-13,2022-06-13,株式会社栄建設,,株式会社,愛媛県,松山市,北土居５丁目３番６８号,,38,201,7911104,,,,,,,2022-06-13,1,,,,,サカエケンセツ,0
579,2500001024276,新規,0,2022-06-13,2022-06-13,株式会社ＬＩＶＩＣ,,株式会社,愛媛県,松山市,平和通３丁目２－１６ドミール・マイアミ１Ｆ,,38,201,7900807,,,,,,,2022-06-13,1,,,,,リヴィック,0
582,2700150109519,新規,0,2022-06-13,2022-06-13,サンユクタトレーディングプライベートリミテド,,外国会社等,東京都,八王子市,子安町２丁目１３－６、１３,,13,201,1920904,ネパール連邦民主共和国ラリットプール行政部チャサル－９,,,,,,2022-06-13,1,,,,,サンユクタトレーデイングプライベートリミテド,0
583,2700150109527,新規,0,2022-06-13,2022-06-13,Ｚ　Ｊ　ＭＯＴＯＲＳ　ＰＲＩＶＡＴＥ　ＬＩＭＩＴＥＤ,,外国会社等,千葉県,千葉市若葉区,高根町９５７番地１ファアズビルディングオフィス３号,,12,104,2650061,スリランカ民主社会主義共和国、コロンボ６、マイニングプレイスウェラワッタ、１０９－１６,,,,,,2022-06-13,1,,,,,ズイージエイモータースプライベイトリミテツド,0
591,3010001227233,新規,0,2022-06-13,2022-06-13,株式会社ｃｏｍｖｅｙ,,株式会社,東京都,中央区,八重洲１丁目５番２０号東京建物さくら通りビル,,13,102,1030028,,,,,,,2022-06-13,1,,,,,コンベイ,0
592,3010001227274,新規,0,2022-06-13,2022-06-13,ミガルー株式会社,,株式会社,東京都,中央区,日本橋人形町２丁目７番２号,,13,102,1030013,,,,,,,2022-06-13,1,,,,,ミガルー,0
612,3010401167888,新規,0,2022-06-13,2022-06-13,株式会社コネクタブルー,,株式会社,東京都,港区,北青山３丁目６番７号青山パラシオタワー１１階,,13,103,1070061,,,,,,,2022-06-13,1,,,,,コネクタブルー,0
616,3010403027834,新規,0,2022-06-13,2022-06-13,合同会社Ｔ‐Ｙ,,合同会社,東京都,港区,南青山２丁目２番１５号,,13,103,1070062,,,,,,,2022-06-13,1,,,,,ティーワイ,0
617,3010405021100,新規,0,2022-06-13,2022-06-13,一般社団法人賃住アセットマネジメント,,その他の設立登記法人,東京都,港区,虎ノ門３丁目２２番１０－２０１号,,13,103,1050001,,,,,,,2022-06-13,1,,,,,チンジュウアセットマネジメント,0
620,3010501048963,新規,0,2022-06-13,2022-06-13,株式会社創研美社,,株式会社,東京都,台東区,駒形２丁目６番４号,,13,106,1110043,,,,,,,2022-06-13,1,,,,,ソウケンビシャ,0
634,3010803004185,新規,0,2022-06-13,2022-06-13,Ｒ１合同会社,,合同会社,東京都,大田区,山王２丁目７番２２号,,13,111,1430023,,,,,,,2022-06-13,1,,,,,アールワン,0
635,3010803004202,新規,0,2022-06-13,2022-06-13,合同会社石倉通商,,合同会社,東京都,大田区,南馬込５丁目５－１１,,13,111,1430025,,,,,,,2022-06-13,1,,,,,イシクラツウショウ,0
639,3010901051014,新規,0,2022-06-13,2022-06-13,株式会社ＲｅｄＯｒｃａ,,株式会社,東京都,世田谷区,宇奈根２丁目１９番１８号,,13,112,1570068,,,,,,,2022-06-13,1,,,,,レッドオルカ,0
641,3010903007443,新規,0,2022-06-13,2022-06-13,合同会社ＦＵＫＵＦＵＫＵ‐ＹＡ,,合同会社,東京都,世田谷区,深沢２丁目１７番２０号,,13,112,1580081,,,,,,,2022-06-13,1,,,,,フクフクヤ,0
646,3011001147958,新規,0,2022-06-13,2022-06-13,ＲＢＫＪ株式会社,,株式会社,東京都,渋谷区,元代々木町３０番１３号,,13,113,1510062,,,,,,,2022-06-13,1,,,,,アールビーケイジェイ,0
647,3011001147974,新規,0,2022-06-13,2022-06-13,ＮＯＡＨ　ＮＡＭＥ株式会社,,株式会社,東京都,目黒区,原町２丁目１５－１６,,13,110,1520011,,,,,,,2022-06-13,1,,,,,ノアネーム,0
648,3011001148007,新規,0,2022-06-13,2022-06-13,株式会社Ｅｗｉｇｅｒ　Ｆｌｕｓｓ,,株式会社,東京都,目黒区,下目黒３丁目３番４号,,13,110,1530064,,,,,,,2022-06-13,1,,,,,エーヴィガーフルス,0
650,3011003014842,新規,0,2022-06-13,2022-06-13,Ｓｍｉｌｅｙ　Ｆａｃｅ合同会社,,合同会社,東京都,渋谷区,千駄ヶ谷３丁目１６番１７－４０１号,,13,113,1510051,,,,,,,2022-06-13,1,,,,,スマイリーフェイス,0
654,3011101099208,新規,0,2022-06-13,2022-06-13,株式会社レ・フィーユ,,株式会社,東京都,新宿区,四谷１丁目８番８号佐伯千成ビル５階,,13,104,1600004,,,,,,,2022-06-13,1,,,,,レフィーユ,0
659,3011701025380,新規,0,2022-06-13,2022-06-13,株式会社インテリアヒグチ,,株式会社,東京都,江戸川区,北小岩７丁目１番１３号グレース横山１０１号,,13,123,1330051,,,,,,,2022-06-13,1,,,,,インテリアヒグチ,0
662,3012701017104,新規,0,2022-06-13,2022-06-13,龍建築株式会社,,株式会社,東京都,東村山市,恩多町５丁目４５番地１,,13,213,1890011,,,,,,,2022-06-13,1,,,,,リュウケンチク,0
664,3013101008940,新規,0,2022-06-13,2022-06-13,株式会社渡部,,株式会社,東京都,あきる野市,秋留１丁目５番地１日神パレステージあきる野南７０３号,,13,228,1970828,,,,,,,2022-06-13,1,,,,,ワタベ,0
668,3020001146853,新規,0,2022-06-13,2022-06-13,未来建匠株式会社,,株式会社,神奈川県,横浜市瀬谷区,相沢５丁目７８－２,,14,114,2460013,,,,,,,2022-06-13,1,,,,,ミライケンショウ,0
674,3020003021889,新規,0,2022-06-13,2022-06-13,合同会社Ｂａｒｒａｃｕｄａ　Ｓｙｓｔｅｍｓ,,合同会社,神奈川県,横浜市青葉区,松風台２５－９,,14,117,2270067,,,,,,,2022-06-13,1,,,,,バラクーダシステムズ,0
675,3020005015559,新規,0,2022-06-13,2022-06-13,司法書士法人グランツ,,その他の設立登記法人,神奈川県,川崎市中原区,新丸子東２丁目９０７番地,,14,133,2110004,,,,,,,2022-06-13,1,,,,,グランツ,0
683,3021003011814,新規,0,2022-06-13,2022-06-13,合同会社ＲＳ,,合同会社,神奈川県,海老名市,扇町１４番４－５１０号,,14,215,2430436,,,,,,,2022-06-13,1,,,,,ライズ,0
689,3030001148642,新規,0,2022-06-13,2022-06-13,株式会社オールブルー,,株式会社,埼玉県,蕨市,中央３丁目１９番２０号１１０５号,,11,223,3350004,,,,,,,2022-06-13,1,,,,,オールブルー,0
702,3040001123801,新規,0,2022-06-13,2022-06-13,株式会社Ｆｕｔａｂａ,,株式会社,千葉県,市川市,曽谷８丁目３番１４号,,12,203,2720832,,,,,,,2022-06-13,1,,,,,フタバ,0
703,3040001123826,新規,0,2022-06-13,2022-06-13,来人株式会社,,株式会社,千葉県,浦安市,東野３丁目１９番５号,,12,227,2790042,,,,,,,2022-06-13,1,,,,,クルト,0
710,3050005013089,新規,0,2022-06-13,2022-06-13,一般社団法人ｉＮＧＬＯＳ　ｓｐｏｒｔｓ,,その他の設立登記法人,茨城県,日立市,滑川本町２丁目３番４号,,08,202,3170051,,,,,,,2022-06-13,1,,,,,イングロススポーツ,0
711,3060001034963,新規,0,2022-06-13,2022-06-13,株式会社Ｓｐａｃｅ＆Ｃｏ,,株式会社,栃木県,足利市,梁田町５３番地１,,09,202,3260321,,,,,,,2022-06-13,1,,,,,スペースアンドコー,0
715,3080001025011,新規,0,2022-06-13,2022-06-13,株式会社ハヒフヘ舗,,株式会社,静岡県,静岡市葵区,七間町１６番地の８,,22,101,4200035,,,,,,,2022-06-13,1,,,,,ハヒフヘホ,0
718,3080003002818,新規,0,2022-06-13,2022-06-13,ＰＡＢＯＬＡ合同会社,,合同会社,静岡県,静岡市葵区,吉野町４－７,,22,101,4200046,,,,,,,2022-06-13,1,,,,,パボラ,0
719,3080101023352,新規,0,2022-06-13,2022-06-13,株式会社自然健康研究所,,株式会社,静岡県,伊豆の国市,韮山多田６０７番地,,22,225,4102133,,,,,,,2022-06-13,1,,,,,シゼンケンコウケンキュウショ,0
721,3080401025874,新規,0,2022-06-13,2022-06-13,ＬｉｉｉＭ株式会社,,株式会社,静岡県,浜松市東区,篠ケ瀬町７４６モデルナＩＩ２０２,00126854,22,132,4350042,,,,,,,2022-06-13,1,,,,,リム,0
727,3100001035429,新規,0,2022-06-13,2022-06-13,株式会社マーブル,,株式会社,長野県,飯田市,鼎下山２３８番地,,20,205,3950803,,,,,,,2022-06-13,1,,,,,マーブル,0
730,3100003006568,新規,0,2022-06-13,2022-06-13,合同会社ＣＯＣＯＯＮ,,合同会社,長野県,東御市,田中１７８－２,,20,219,3890516,,,,,,,2022-06-13,1,,,,,コクーン,0
748,3120001246569,新規,0,2022-06-13,2022-06-13,株式会社ＡｒｉＡ,,株式会社,大阪府,大阪市都島区,東野田町２丁目２番３号５Ｂ,,27,102,5340024,,,,,,,2022-06-13,1,,,,,アリア,0
754,3120003021870,新規,0,2022-06-13,2022-06-13,合同会社Ｙテック,,合同会社,大阪府,大阪市淀川区,加島４丁目１６番４６－６号,,27,123,5320031,,,,,,,2022-06-13,1,,,,,ワイテック,0
756,3120005022990,新規,0,2022-06-13,2022-06-13,一般社団法人美骨小顔協会,,その他の設立登記法人,大阪府,大阪市西区,北堀江１丁目２２番４号１００１,,27,106,5500014,,,,,,,2022-06-13,1,,,,,ビコツコガオキョウカイ,0
762,3120101065729,新規,0,2022-06-13,2022-06-13,株式会社野邉ソリューションズ,,株式会社,大阪府,富田林市,不動ケ丘町８番３５号,,27,214,5840064,,,,,,,2022-06-13,1,,,,,ノベソリューションズ,0
763,3120101065745,新規,0,2022-06-13,2022-06-13,株式会社Ｊｉ．ｙｏｕ,,株式会社,大阪府,和泉市,伏屋町３丁目７番３１号,,27,219,5940031,,,,,,,2022-06-13,1,,,,,ジユウ,0
770,3120901046085,新規,0,2022-06-13,2022-06-13,コアラ土地建物株式会社,,株式会社,大阪府,吹田市,五月が丘東８番Ｃ－２０７号,,27,205,5650831,,,,,,,2022-06-13,1,,,,,コアラトチタテモノ,0
778,3130001071941,新規,0,2022-06-13,2022-06-13,株式会社ワンダーソリューションズ,,株式会社,京都府,京都市右京区,西院北井御料町２６番地,,26,108,6150063,,,,,,,2022-06-13,1,,,,,ワンダーソリューションズ,0
779,3130003008000,新規,0,2022-06-13,2022-06-13,合同会社０４０,,合同会社,京都府,京都市西京区,川島莚田町９－３ＴａｕＴ阪急洛西口内,,26,111,6158105,,,,,,,2022-06-13,1,,,,,ゼロヨンゼロ,0
781,3140001126348,新規,0,2022-06-13,2022-06-13,株式会社ＲＹＫコーポレーション,,株式会社,兵庫県,西宮市,神園町２番６８号,,28,204,6620027,,,,,,,2022-06-13,1,,,,,アールワイケーコーポレーション,0
795,3180001151680,新規,0,2022-06-13,2022-06-13,株式会社石橋工務店,,株式会社,愛知県,知多郡美浜町,北方５丁目１０５番地,,23,446,4702403,,,,,,,2022-06-13,1,,,,,イシバシコウムテン,0
801,3190001029505,新規,0,2022-06-13,2022-06-13,株式会社アーススマート,,株式会社,三重県,四日市市,西新地１０番１号,,24,202,5100087,,,,,,,2022-06-13,1,,,,,アーススマート,0
802,3190003004010,新規,0,2022-06-13,2022-06-13,合同会社エーデラ,,合同会社,三重県,鈴鹿市,東玉垣町字門田５００番１６８,,24,207,5130814,,,,,,,2022-06-13,1,,,,,エーデラ,0
817,3240001059918,新規,0,2022-06-13,2022-06-13,株式会社トンネ,,株式会社,広島県,広島市東区,牛田早稲田１丁目８番１号,,34,102,7320062,,,,,,,2022-06-13,1,,,,,トンネ,0
833,3290003012614,新規,0,2022-06-13,2022-06-13,合同会社シチリアーナ,,合同会社,福岡県,大牟田市,大字手鎌４６６番地６,,40,202,8360004,,,,,,,2022-06-13,1,,,,,シチリアーナ,0
844,3310001017901,新規,0,2022-06-13,2022-06-13,株式会社ゆきのうら,,株式会社,長崎県,西海市,大瀬戸町雪浦下釜郷５０４番地,,42,212,8572328,,,,,,,2022-06-13,1,,,,,ユキノウラ,0
848,3330001029820,新規,0,2022-06-13,2022-06-13,株式会社せかいはことば,,株式会社,熊本県,熊本市中央区,帯山６丁目７番１１８号,,43,101,8620924,,,,,,,2022-06-13,1,,,,,セカイハコトバ,0
849,3330001029829,新規,0,2022-06-13,2022-06-13,株式会社りらいふ,,株式会社,熊本県,熊本市中央区,水前寺５丁目１３番１号,,43,101,8620950,,,,,,,2022-06-13,1,,,,,リライフ,0
853,3340001024804,新規,0,2022-06-13,2022-06-13,株式会社野口,,株式会社,鹿児島県,鹿児島市,小野４丁目１１番２２号,,46,201,8900021,,,,,,,2022-06-13,1,,,,,ノグチ,0
854,3340003003822,新規,0,2022-06-13,2022-06-13,ユニバース合同会社,,合同会社,鹿児島県,鹿児島市,小原町１８番１７号加根利アパート２０１号,,46,201,8910111,,,,,,,2022-06-13,1,,,,,ユニバース,0
867,3400001015912,新規,0,2022-06-13,2022-06-13,株式会社寿縁,,株式会社,岩手県,盛岡市,永井１０地割２１６－３第二コーポ東建５号室,,03,201,0200834,,,,,,,2022-06-13,1,,,,,ジュエン,0
878,3430001086793,新規,0,2022-06-13,2022-06-13,株式会社ＴＷＳ,,株式会社,北海道,札幌市中央区,南二十条西１２丁目２－２０－４２４,,01,101,0640920,,,,,,,2022-06-13,1,,,,,ティーダブリューエス,0
879,3430001086843,新規,0,2022-06-13,2022-06-13,株式会社コージーカンパニー,,株式会社,北海道,江別市,美原２２５番地,,01,217,0670056,,,,,,,2022-06-13,1,,,,,コージーカンパニー,0
884,3450001013721,新規,0,2022-06-13,2022-06-13,株式会社ＭＡＧＮＩＦＩＣＯ,,株式会社,北海道,旭川市,東光十六条６丁目４番７号,,01,204,0788356,,,,,,,2022-06-13,1,,,,,マニフィコ,0
886,3460305001982,新規,0,2022-06-13,2022-06-13,一般社団法人ウイメンズ・きたみ,,その他の設立登記法人,北海道,北見市,とん田東町５８１番地７プレオ１－Ａ号,,01,208,0900833,,,,,,,2022-06-13,1,,,,,ウイメンズキタミ,0
887,3470001019114,新規,0,2022-06-13,2022-06-13,株式会社古里,,株式会社,香川県,善通寺市,弘田町２８５番地４,,37,204,7650071,,,,,,,2022-06-13,1,,,,,フルサト,0
896,3700150109534,新規,0,2022-06-13,2022-06-13,ＣＨＡＭＯ　ＥＮＴＥＲＰＲＩＳＥＳ,,外国会社等,群馬県,藤岡市,浄法寺４２２－１,,10,209,3701406,スリランカ民主社会主義共和国、クルネガラ、カウダワスタ、ボガハワスタ、５０,,,,,,2022-06-13,1,,,,,チヤモエンタープライズ,0
904,4010001227232,新規,0,2022-06-13,2022-06-13,Ａｓｉａ　Ｈｅａｌｔｈｃａｒｅ　Ａｄｖｉｓｏｒｙ株式会社,,株式会社,東京都,中央区,勝どき２丁目８番１２号東京ビュック中銀１２３３号室,,13,102,1040054,,,,,,,2022-06-13,1,,,,,アジアヘルスケアアドバイザリー,0
905,4010001227273,新規,0,2022-06-13,2022-06-13,株式会社ニューロパンセ,,株式会社,東京都,文京区,湯島４丁目９番４号,,13,105,1130034,,,,,,,2022-06-13,1,,,,,ニューロパンセ,0
906,4010001227331,新規,0,2022-06-13,2022-06-13,株式会社ビッグアイ,,株式会社,東京都,中央区,銀座２丁目１３番２０号東武ハイライン銀座二丁目ビル２０２,,13,102,1040061,,,,,,,2022-06-13,1,,,,,ビッグアイ,0
916,4010401167879,新規,0,2022-06-13,2022-06-13,株式会社はちみり,,株式会社,東京都,港区,南青山３丁目１５番９号ＭＩＮＯＷＡ表参道３Ｆ,,13,103,1070062,,,,,,,2022-06-13,1,,,,,ハチミリ,0
917,4010401167887,新規,0,2022-06-13,2022-06-13,株式会社Ｄｅｔｏｎａ,,株式会社,東京都,港区,元麻布３丁目３番９号,,13,103,1060046,,,,,,,2022-06-13,1,,,,,デトナ,0
923,4010503006613,新規,0,2022-06-13,2022-06-13,合同会社ｉ‐ＬＣ,,合同会社,東京都,台東区,台東１丁目９－６山田ビル１Ｆ号,,13,106,1100016,,,,,,,2022-06-13,1,,,,,アイエルシー,0
935,4010903007434,新規,0,2022-06-13,2022-06-13,合同会社瀧下,,合同会社,東京都,世田谷区,奥沢６丁目２番１９号,,13,112,1580083,,,,,,,2022-06-13,1,,,,,タキシタ,0
936,4010903007442,新規,0,2022-06-13,2022-06-13,合同会社ｆａｓｋ,,合同会社,東京都,世田谷区,玉川３丁目２０番２号マノア玉川第３ビル５０１号室,,13,112,1580094,,,,,,,2022-06-13,1,,,,,ファスク,0
944,4011001147890,新規,0,2022-06-13,2022-06-13,Ｃｏｌｌｅｃｔｏｒｓ　Ｍａｒｋｅｔ株式会社,,株式会社,東京都,目黒区,中根１丁目２番１０－１１０４号,,13,110,1520031,,,,,,,2022-06-13,1,,,,,コレクターズマーケット,0
945,4011001147981,新規,0,2022-06-13,2022-06-13,株式会社ＨａｎｄＭａｄｅＥｎｇｉｎｅ,,株式会社,東京都,渋谷区,円山町５番５号Ｎａｖｉ渋谷Ｖ３階,00126848,13,113,1500044,,,,,,,2022-06-13,1,,,,,ハンドメイドエンジン,0
946,4011001147998,新規,0,2022-06-13,2022-06-13,シリウス・ジャポン株式会社,,株式会社,東京都,渋谷区,富ヶ谷１丁目３７番１５号,,13,113,1510063,,,,,,,2022-06-13,1,,,,,シリウスジャポン,0
947,4011001148071,新規,0,2022-06-13,2022-06-13,株式会社シンカホリック,,株式会社,東京都,渋谷区,道玄坂１丁目１０番８号渋谷道玄坂東急ビル２Ｆ－Ｃ,,13,113,1500043,,,,,,,2022-06-13,1,,,,,シンカホリック,0
954,4011101099198,新規,0,2022-06-13,2022-06-13,株式会社Ａｎ３ｒｄ,,株式会社,東京都,新宿区,新宿２丁目１２番１３号,,13,104,1600022,,,,,,,2022-06-13,1,,,,,アンサァド,0
955,4011101099207,新規,0,2022-06-13,2022-06-13,株式会社Ｈ＆Ｃｂａｓｅ,,株式会社,東京都,新宿区,高田馬場３丁目２番１４号天翔高田馬場ビル３階３１８号室,,13,104,1690075,,,,,,,2022-06-13,1,,,,,エイチアンドシーベース,0
961,4011305002825,新規,0,2022-06-13,2022-06-13,一般社団法人ブライダルヨガ協会,,その他の設立登記法人,東京都,杉並区,桃井３丁目１０－１ロイヤルパークス荻窪７０８,,13,115,1670034,,,,,,,2022-06-13,1,,,,,ブライダルヨガキョウカイ,0
962,4011501028129,新規,0,2022-06-13,2022-06-13,ユスフ・イノベーション株式会社,,株式会社,東京都,北区,東十条３丁目４番３号,,13,117,1140001,,,,,,,2022-06-13,1,,,,,ユスフイノベーション,0
965,4011803005123,新規,0,2022-06-13,2022-06-13,ＤｙＣＥ合同会社,,合同会社,東京都,足立区,中川２丁目１－１６,,13,121,1200002,,,,,,,2022-06-13,1,,,,,ダイス,0
967,4012301013015,新規,0,2022-06-13,2022-06-13,株式会社ＭＡＲＵ　ＬＩＶＥ,,株式会社,東京都,町田市,森野１丁目３６－２セレステ町田１階,,13,209,1940022,,,,,,,2022-06-13,1,,,,,マルライブ,0
975,4020001146828,新規,0,2022-06-13,2022-06-13,株式会社ＰａＬ,,株式会社,神奈川県,川崎市川崎区,駅前本町１１番地２フロンティアビル４階,,14,131,2100007,,,,,,,2022-06-13,1,,,,,パル,0
976,4020001146844,新規,0,2022-06-13,2022-06-13,Ｇｕｎｚ　Ａｒｃｈｉｔｅｃｔ＆Ｅｎｇｉｎｅｅｒｉｎｇ株式会社,,株式会社,神奈川県,横浜市都筑区,茅ケ崎中央２４－１－３階１０７号,,14,118,2240032,,,,,,,2022-06-13,1,,,,,ガンズアーキテクトアンドエンジニアリング,0
981,4020003021905,新規,0,2022-06-13,2022-06-13,合同会社Ａｃｒｏ,,合同会社,神奈川県,川崎市幸区,北加瀬３丁目１５－２０アエロコート元住吉２階,,14,132,2120057,,,,,,,2022-06-13,1,,,,,アクロ,0
992,4030001148625,新規,0,2022-06-13,2022-06-13,株式会社Ｌｅａｐ,,株式会社,埼玉県,越谷市,大字平方１２８５番地２,,11,222,3430002,,,,,,,2022-06-13,1,,,,,リープ,0
993,4030001148633,新規,0,2022-06-13,2022-06-13,株式会社誠,,株式会社,埼玉県,三郷市,上彦名５３９番地３,,11,237,3410004,,,,,,,2022-06-13,1,,,,,マコト,0
994,4030001148641,新規,0,2022-06-13,2022-06-13,株式会社ジーマ,,株式会社,埼玉県,さいたま市岩槻区,仲町１丁目１７番２８号,,11,110,3390054,,,,,,,2022-06-13,1,,,,,ジーマ,0
996,4030003019584,新規,0,2022-06-13,2022-06-13,昭誠合同会社,,合同会社,埼玉県,熊谷市,弥藤吾１６０－６三合ビル１０２号室,,11,202,3600203,,,,,,,2022-06-13,1,,,,,ショウセイ,0
1000,4040001123825,新規,0,2022-06-13,2022-06-13,株式会社Ｇ・Ｓ販売,,株式会社,千葉県,柏市,増尾６丁目２番１－２０９号,,12,217,2770033,,,,,,,2022-06-13,1,,,,,ジーエスハンバイ,0
1008,4050001051216,新規,0,2022-06-13,2022-06-13,株式会社東慶,,株式会社,茨城県,つくば市,境田１６６番地９,,08,220,3050867,,,,,,,2022-06-13,1,,,,,トウケイ,0
1016,4070005010001,新規,0,2022-06-13,2022-06-13,特定非営利活動法人地域価値プラス,,その他の設立登記法人,群馬県,渋川市,伊香保町湯中子４６５番地７,,10,208,3770101,,,,,,,2022-06-13,1,,,,,,0
1017,4080001025010,新規,0,2022-06-13,2022-06-13,株式会社ハットリホーム,,株式会社,静岡県,静岡市駿河区,小黒１丁目９番１０号島崎第２ビル１Ｆ,,22,102,4228072,,,,,,,2022-06-13,1,,,,,ハットリホーム,0
1018,4080003002817,新規,0,2022-06-13,2022-06-13,合同会社アマルガム,,合同会社,静岡県,静岡市清水区,下野東１番８８号,,22,103,4240028,,,,,,,2022-06-13,1,,,,,アマルガム,0
1019,4080401025873,新規,0,2022-06-13,2022-06-13,株式会社ＳＴＡＭ,,株式会社,静岡県,掛川市,国安２４番地の２１,,22,213,4371413,,,,,,,2022-06-13,1,,,,,エスティエイエム,0
1022,4100001035428,新規,0,2022-06-13,2022-06-13,株式会社奄美創建,,株式会社,長野県,諏訪市,元町１７番１０号,,20,206,3920006,,,,,,,2022-06-13,1,,,,,アマミソウケン,0
1025,4100003006575,新規,0,2022-06-13,2022-06-13,合同会社楓,,合同会社,長野県,伊那市,御園１２２２番地１,,20,209,3960022,,,,,,,2022-06-13,1,,,,,カエデ,0
1040,4120101065736,新規,0,2022-06-13,2022-06-13,株式会社グロリアス,,株式会社,大阪府,泉南市,信達六尾７８７番地の２,,27,228,5900515,,,,,,,2022-06-13,1,,,,,グロリアス,0
1041,4120103004733,新規,0,2022-06-13,2022-06-13,合同会社Ｃａｌｍｅ,,合同会社,大阪府,泉南郡田尻町,吉見９８８番地,,27,362,5980092,,,,,,,2022-06-13,1,,,,,カルム,0
1042,4120901046076,新規,0,2022-06-13,2022-06-13,株式会社ＮＡＴ,,株式会社,大阪府,吹田市,千里山西５丁目３７番１６号,,27,205,5650851,,,,,,,2022-06-13,1,,,,,ナット,0
1043,4120901046092,新規,0,2022-06-13,2022-06-13,株式会社上村機工,,株式会社,大阪府,豊中市,東泉丘２丁目１５番１８－２０１号,,27,203,5610861,,,,,,,2022-06-13,1,,,,,ウエムラキコウ,0
1045,4122001035942,新規,0,2022-06-13,2022-06-13,株式会社スナグル,,株式会社,大阪府,東大阪市,長堂１丁目８番３７号ヴェル・ノール布施３階ＲｅｑｒｅｅＶｅｌｌｅｎｏｒｄ,,27,227,5770056,,,,,,,2022-06-13,1,,,,,スナグル,0
1046,4122001035959,新規,0,2022-06-13,2022-06-13,恒安電子株式会社,,株式会社,大阪府,八尾市,老原６丁目６０番地４２,,27,212,5810092,,,,,,,2022-06-13,1,,,,,コウアンデンシ,0
1060,4160001024276,新規,0,2022-06-13,2022-06-13,株式会社ビワトレーディング,,株式会社,滋賀県,草津市,野村２丁目１２番２４号,,25,206,5250027,,,,,,,2022-06-13,1,,,,,ビワトレーディング,0
1065,4170001017155,新規,0,2022-06-13,2022-06-13,Ｍｓ株式会社,,株式会社,和歌山県,岩出市,根来１６０３－２,,30,209,6496202,,,,,,,2022-06-13,1,,,,,エムズ,0
1070,4180001151705,新規,0,2022-06-13,2022-06-13,株式会社ウェルシアス,,株式会社,愛知県,名古屋市千種区,茶屋が坂１丁目２２番１２号,,23,101,4640092,,,,,,,2022-06-13,1,,,,,ウェルシアス,0
1074,4180003023919,新規,0,2022-06-13,2022-06-13,合同会社ＢＯＤＹ　ＴＨＥＲＡＰＹ,,合同会社,愛知県,名古屋市東区,東桜１丁目１０番地２９号パークサイドビル栄４階,,23,102,4610005,,,,,,,2022-06-13,1,,,,,ボディセラピー,0
1075,4180003023927,新規,0,2022-06-13,2022-06-13,合同会社フクロウの木,,合同会社,愛知県,半田市,宮本町６丁目２０７－６,,23,205,4750925,,,,,,,2022-06-13,1,,,,,フクロウノキ,0
1079,4180301036325,新規,0,2022-06-13,2022-06-13,株式会社リファーム岡崎,,株式会社,愛知県,岡崎市,稲熊町字１丁目１５２番地,,23,202,4440071,,,,,,,2022-06-13,1,,,,,リファームオカザキ,0
1107,4240001059925,新規,0,2022-06-13,2022-06-13,株式会社ロバプラス,,株式会社,広島県,広島市西区,己斐大迫３丁目２７番１－３１３号,,34,104,7330816,,,,,,,2022-06-13,1,,,,,ロバプラス,0
1108,4240001059933,新規,0,2022-06-13,2022-06-13,株式会社Ｗｉｓｅ　ｗｏｒｌｄ,,株式会社,広島県,広島市安佐南区,相田１丁目１０番２４－１０－１０５号,,34,105,7310141,,,,,,,2022-06-13,1,,,,,ウィズワールド,0
1118,4290001097755,新規,0,2022-06-13,2022-06-13,株式会社ＧＬＵＣＫ,,株式会社,福岡県,福岡市博多区,千代２丁目２２番８号一豊ビル２Ｆ,,40,132,8120044,,,,,,,2022-06-13,1,,,,,グルック,0
1119,4290001097821,新規,0,2022-06-13,2022-06-13,株式会社伊藤左官工業,,株式会社,福岡県,筑紫野市,大字大石７０６番地９,,40,217,8180006,,,,,,,2022-06-13,1,,,,,イトウサカンコウギョウ,0
1126,4290801028620,新規,0,2022-06-13,2022-06-13,株式会社ＴＳＣ,,株式会社,福岡県,直方市,大字頓野３５９１番地４１,,40,204,8220002,,,,,,,2022-06-13,1,,,,,ティーエスシー,0
1132,4330001029811,新規,0,2022-06-13,2022-06-13,株式会社ラシカランカ,,株式会社,熊本県,熊本市中央区,壺川２丁目４番２３号,,43,101,8600076,,,,,,,2022-06-13,1,,,,,ラシカランカ,0
1133,4330003009407,新規,0,2022-06-13,2022-06-13,合同会社ワンオピ,,合同会社,熊本県,熊本市東区,八反田３丁目１８番８号,,43,102,8618034,,,,,,,2022-06-13,1,,,,,ワンオピ,0
1134,4340001024803,新規,0,2022-06-13,2022-06-13,Ｒａｍｒｉ株式会社,,株式会社,鹿児島県,鹿児島市,西佐多町５７－１,,46,201,8911301,,,,,,,2022-06-13,1,,,,,ラムリ,0
1139,4360005006663,新規,0,2022-06-13,2022-06-13,一般社団法人ステップ,,その他の設立登記法人,沖縄県,宜野湾市,野嵩２丁目２７番１０号,,47,205,9012203,,,,,,,2022-06-13,1,,,,,ステップ,0
1162,4440003001468,新規,0,2022-06-13,2022-06-13,合同会社アットワーク,,合同会社,北海道,函館市,船見町７番１８号,,01,202,0400055,,,,,,,2022-06-13,1,,,,,アットワーク,0
1165,4470001019113,新規,0,2022-06-13,2022-06-13,株式会社Ｓｔｒｉｎｇ,,株式会社,香川県,丸亀市,三条町６５６番地１３,,37,202,7630094,,,,,,,2022-06-13,1,,,,,ストリング,0
1167,4500001024274,新規,0,2022-06-13,2022-06-13,株式会社最高美,,株式会社,愛媛県,伊予市,宮下１８０３番地,,38,210,7993102,,,,,,,2022-06-13,1,,,,,サイコウビ,0
1185,5010001227264,新規,0,2022-06-13,2022-06-13,栄徳国際株式会社,,株式会社,東京都,千代田区,丸の内１丁目１１番１号パシフィックセンチュリープレイス丸の内１３階,,13,101,1000005,,,,,,,2022-06-13,1,,,,,エイトクコクサイ,0
1187,5010003037868,新規,0,2022-06-13,2022-06-13,合同会社ワンホトン,,合同会社,東京都,文京区,大塚４丁目８－２,,13,105,1120012,,,,,,,2022-06-13,1,,,,,ワンホトン,0
1190,5010005035127,新規,0,2022-06-13,2022-06-13,一般社団法人日本ガチャガチャ協会,,その他の設立登記法人,東京都,中央区,銀座１丁目２０番９号岡崎ビル,,13,102,1040061,,,,,,,2022-06-13,1,,,,,ニホンガチャガチャキョウカイ,0
1193,5010103001939,新規,0,2022-06-13,2022-06-13,Ｐｒｏｏｆ　Ｔｅｃｈ　Ｌａｂｏ合同会社,,合同会社,東京都,八王子市,堀之内３丁目２３番地１－１－５１７,,13,201,1920355,,,,,,,2022-06-13,1,,,,,プルーフテックラボ,0
1203,5010405021040,新規,0,2022-06-13,2022-06-13,ＮＰＯ法人結び手,,その他の設立登記法人,東京都,港区,南青山２丁目２番１５号ＷＩＮ青山５３１,,13,103,1070062,,,,,,,2022-06-13,1,,,,,ムスビテ,0
1204,5010405021065,新規,0,2022-06-13,2022-06-13,一般財団法人ソーシャルアクション財団,,その他の設立登記法人,東京都,港区,麻布十番２丁目１３番５号,,13,103,1060045,,,,,,,2022-06-13,1,,,,,ソーシャルアクションザイダン,0
1206,5010501048953,新規,0,2022-06-13,2022-06-13,Ｆｉｇｍｅｎｔ株式会社,,株式会社,東京都,台東区,浅草５丁目４１番５号高田ビル１Ｆ,,13,106,1110032,,,,,,,2022-06-13,1,,,,,フィグメント,0
1212,5010605004092,新規,0,2022-06-13,2022-06-13,リタクラウド行政書士法人,,その他の設立登記法人,東京都,江東区,北砂６丁目３番５号,,13,108,1360073,,,,,,,2022-06-13,1,,,,,リタクラウド,0
1214,5010801033036,新規,0,2022-06-13,2022-06-13,株式会社エス・オー・リアルアドバイザー,,株式会社,東京都,大田区,西六郷４丁目１２番３号,,13,111,1440056,,,,,,,2022-06-13,1,,,,,エスオーリアルアドバイザー,0
1225,5011001147980,新規,0,2022-06-13,2022-06-13,中康国際経済技術株式会社,,株式会社,東京都,渋谷区,富ヶ谷１丁目１４番１４号４階,,13,113,1510063,,,,,,,2022-06-13,1,,,,,チュウコウコクサイケイザイギジュツ,0
1226,5011001148013,新規,0,2022-06-13,2022-06-13,株式会社ＲＩＴＯＰＩＡ,,株式会社,東京都,渋谷区,渋谷２丁目１９－１５宮益坂ビルディング６０９,,13,113,1500002,,,,,,,2022-06-13,1,,,,,ライトピア,0
1233,5011101099189,新規,0,2022-06-13,2022-06-13,アプシィレコード株式会社,,株式会社,東京都,新宿区,富久町８番２１号,,13,104,1620067,,,,,,,2022-06-13,1,,,,,アプシィレコード,0
1234,5011101099214,新規,0,2022-06-13,2022-06-13,ＵＮＰＬＡＮ株式会社,,株式会社,東京都,新宿区,新宿１丁目３６番２号新宿第七葉山ビル３階,,13,104,1600022,,,,,,,2022-06-13,1,,,,,アンプラン,0
1235,5011101099222,新規,0,2022-06-13,2022-06-13,株式会社コアアイランド,,株式会社,東京都,新宿区,新宿５丁目１８番２０号ルックハイツ新宿８０３号,,13,104,1600022,,,,,,,2022-06-13,1,,,,,コアアイランド,0
1240,5011103011845,新規,0,2022-06-13,2022-06-13,泓景合同会社,,合同会社,東京都,新宿区,榎町３４－３榎町ビル５階,,13,104,1620806,,,,,,,2022-06-13,1,,,,,オウケイ,0
1241,5011105010283,新規,0,2022-06-13,2022-06-13,一般社団法人学童ナビ研究所,,その他の設立登記法人,東京都,新宿区,四谷１丁目２番地サンパウロビル６階,,13,104,1600004,,,,,,,2022-06-13,1,,,,,ガクドウナビケンキュウジョ,0
1246,5011501028128,新規,0,2022-06-13,2022-06-13,株式会社木蘭泉,,株式会社,東京都,北区,東十条２丁目１５番１２－６０２号Ｂ室,,13,117,1140001,,,,,,,2022-06-13,1,,,,,モクランセン,0
1251,5011803005122,新規,0,2022-06-13,2022-06-13,合同会社Ｍｒ．ｆｏｏｄｓ,,合同会社,東京都,足立区,伊興１丁目２番８号,,13,121,1210823,,,,,,,2022-06-13,1,,,,,ミスターフーズ,0
1258,5013101008939,新規,0,2022-06-13,2022-06-13,株式会社新栄,,株式会社,東京都,西多摩郡瑞穂町,大字殿ケ谷８３４番地１７,,13,303,1901212,,,,,,,2022-06-13,1,,,,,シンエイ,0
1263,5020001146785,新規,0,2022-06-13,2022-06-13,Ｈ　ＨＯＬＤＩＮＧＳ株式会社,,株式会社,神奈川県,横浜市中区,万代町２丁目４番地１,,14,104,2310031,,,,,,,2022-06-13,1,,,,,エイチホールディングス,0
1264,5020001146884,新規,0,2022-06-13,2022-06-13,三栄株式会社,,株式会社,神奈川県,横浜市中区,伊勢佐木町２丁目６６番地満利屋ビル,,14,104,2310045,,,,,,,2022-06-13,1,,,,,サンエイ,0
1265,5020001146892,新規,0,2022-06-13,2022-06-13,株式会社バジソフト,,株式会社,神奈川県,川崎市多摩区,寺尾台２丁目８番地１,,14,135,2140005,,,,,,,2022-06-13,1,,,,,バジソフト,0
1266,5020001146901,新規,0,2022-06-13,2022-06-13,株式会社阿比留庭園,,株式会社,神奈川県,横浜市旭区,今宿東町５６３番地８,,14,112,2410032,,,,,,,2022-06-13,1,,,,,アビルテイエン,0
1269,5020003021920,新規,0,2022-06-13,2022-06-13,合同会社土屋土地開発,,合同会社,神奈川県,横浜市磯子区,中原２丁目１２番５号,,14,107,2350036,,,,,,,2022-06-13,1,,,,,ツチヤトチカイハツ,0
1276,5021001076221,新規,0,2022-06-13,2022-06-13,株式会社ＡＬＯＨＡ,,株式会社,神奈川県,愛甲郡愛川町,中津２９５番地の３,,14,401,2430303,,,,,,,2022-06-13,1,,,,,アロハ,0
1278,5021003011820,新規,0,2022-06-13,2022-06-13,シグゼン合同会社,,合同会社,神奈川県,大和市,つきみ野６丁目４番地３,,14,213,2420002,,,,,,,2022-06-13,1,,,,,シグゼン,0
1284,5030001148624,新規,0,2022-06-13,2022-06-13,株式会社Ｍｉｕｒａ　Ｌｉｖｉｎｇ,,株式会社,埼玉県,蕨市,塚越７丁目３０番５号－１Ｆ,,11,223,3350002,,,,,,,2022-06-13,1,,,,,ミウラリビング,0
1285,5030001148649,新規,0,2022-06-13,2022-06-13,株式会社シンコウテック,,株式会社,埼玉県,さいたま市見沼区,大字小深作７３６番地２,,11,104,3370005,,,,,,,2022-06-13,1,,,,,シンコウテック,0
1286,5030001148657,新規,0,2022-06-13,2022-06-13,株式会社ビーナイス,,株式会社,埼玉県,秩父市,上町２丁目１９番１９号,,11,207,3680035,,,,,,,2022-06-13,1,,,,,ビーナイス,0
1294,5040001123824,新規,0,2022-06-13,2022-06-13,株式会社アバンス,,株式会社,千葉県,千葉市若葉区,若松町２１１３番地４７,,12,104,2640021,,,,,,,2022-06-13,1,,,,,アバンス,0
1303,5060003004104,新規,0,2022-06-13,2022-06-13,合同会社ＩＣＨＩ５,,合同会社,栃木県,宇都宮市,西川田本町２丁目６番１８号,,09,201,3210158,,,,,,,2022-06-13,1,,,,,イチゴ,0
1315,5090001017600,新規,0,2022-06-13,2022-06-13,株式会社番頭さん,,株式会社,山梨県,南都留郡富士河口湖町,本栖２１８番地１０６,,19,430,4010337,,,,,,,2022-06-13,1,,,,,バントウサン,0
1316,5090005007498,新規,0,2022-06-13,2022-06-13,一般社団法人Ｏｔｓｕｋｉ　Ｏｕｔｉｎｇ　Ｓｔｙｌｅ,,その他の設立登記法人,山梨県,大月市,富浜町鳥沢７０６番地２,,19,206,4090502,,,,,,,2022-06-13,1,,,,,オオツキアウティングスタイル,0
1318,5100001035410,新規,0,2022-06-13,2022-06-13,株式会社みらい葬祭,,株式会社,長野県,安曇野市,明科中川手１４７番地３,,20,220,3997102,,,,,,,2022-06-13,1,,,,,ミライソウサイ,0
1321,5100003006574,新規,0,2022-06-13,2022-06-13,合同会社城英総建,,合同会社,長野県,下伊那郡松川町,元大島３３４４番地３,,20,402,3993303,,,,,,,2022-06-13,1,,,,,ジョウエイソウケン,0
1323,5100005012884,新規,0,2022-06-13,2022-06-13,一般社団法人ＯＮＥ‐ＰＡＲＫ,,その他の設立登記法人,長野県,松本市,城東１丁目３番２２号花里ビル北,,20,202,3900807,,,,,,,2022-06-13,1,,,,,ワンパーク,0
1330,5120001246575,新規,0,2022-06-13,2022-06-13,株式会社ＫＡＮＡＬＬ　ＧＲＯＵＰ,,株式会社,大阪府,大阪市浪速区,戎本町１丁目９番２１号,,27,111,5560013,,,,,,,2022-06-13,1,,,,,カンオールグループ,0
1335,5120003021869,新規,0,2022-06-13,2022-06-13,合同会社いさらみず,,合同会社,大阪府,枚方市,楠葉花園町５番地２－１００３号,,27,210,5731121,,,,,,,2022-06-13,1,,,,,イサラミズ,0
1338,5120005022989,新規,0,2022-06-13,2022-06-13,一般社団法人関西花火連合協会,,その他の設立登記法人,大阪府,大阪市西成区,松２丁目３番２９号,,27,122,5570034,,,,,,,2022-06-13,1,,,,,カンサイハナビレンゴウキョウカイ,0
1343,5120101065743,新規,0,2022-06-13,2022-06-13,株式会社ＨＡＴＣＨ,,株式会社,大阪府,高石市,西取石７丁目１番４０号,,27,225,5920012,,,,,,,2022-06-13,1,,,,,ハッチ,0
1345,5120103004732,新規,0,2022-06-13,2022-06-13,小山管財合同会社,,合同会社,大阪府,堺市南区,新檜尾台４丁４番１１号,,27,145,5900143,,,,,,,2022-06-13,1,,,,,コヤマカンザイ,0
1352,5122001035909,新規,0,2022-06-13,2022-06-13,株式会社ＫＯＵＫＥＮ,,株式会社,大阪府,東大阪市,御厨中１丁目９番４号,,27,227,5770035,,,,,,,2022-06-13,1,,,,,コウケン,0
1362,5140001126313,新規,0,2022-06-13,2022-06-13,株式会社ＰＯＬＡＲＩＳ　ＣＯＮＳＵＬＴＩＮＧ,,株式会社,兵庫県,神戸市垂水区,日向１丁目５－１－１１０１,,28,108,6550893,,,,,,,2022-06-13,1,,,,,ポラリスコンサルティング,0
1363,5140001126338,新規,0,2022-06-13,2022-06-13,Ａｒｔ　ｓｅｎｃｅ株式会社,,株式会社,兵庫県,朝来市,山東町矢名瀬町７５２番地１,,28,225,6695103,,,,,,,2022-06-13,1,,,,,アートセンス,0
1364,5140001126346,新規,0,2022-06-13,2022-06-13,株式会社クロクマ,,株式会社,兵庫県,神戸市長田区,長者町１５番１７号,,28,106,6530866,,,,,,,2022-06-13,1,,,,,クロクマ,0
1369,5170001017154,新規,0,2022-06-13,2022-06-13,株式会社カトテック,,株式会社,和歌山県,和歌山市,梶取２９８－５,,30,201,6408411,,,,,,,2022-06-13,1,,,,,カトテック,0
1388,5200001040160,新規,0,2022-06-13,2022-06-13,株式会社親生コンストラクション,,株式会社,岐阜県,岐阜市,村山１７８５番地１,,21,201,5011107,,,,,,,2022-06-13,1,,,,,シンセイコンストラクション,0
1389,5200001040177,新規,0,2022-06-13,2022-06-13,株式会社Ｌａｒｉｒｅ,,株式会社,岐阜県,岐阜市,北鶉１丁目６２番地１,,21,201,5008287,,,,,,,2022-06-13,1,,,,,ラリール,0
1393,5200005013352,新規,0,2022-06-13,2022-06-13,特定非営利活動法人エワル,,その他の設立登記法人,岐阜県,岐阜市,領下１５５番地１,,21,201,5008241,,,,,,,2022-06-13,1,,,,,エワル,0
1398,5220005008680,新規,0,2022-06-13,2022-06-13,一般社団法人ＳＣＲＩＰＴ　ＰＬＵＳ,,その他の設立登記法人,石川県,小松市,龍助町４７番地４,,17,203,9230926,,,,,,,2022-06-13,1,,,,,スクリプトプラス,0
1406,5240001059924,新規,0,2022-06-13,2022-06-13,株式会社Ｇａｒｄｅｎ　Ｓａｌｏｎ　Ｔｏｓｈｉ,,株式会社,広島県,廿日市市,友田９７０番地,,34,213,7380203,,,,,,,2022-06-13,1,,,,,ガーデンサロントシ,0
1407,5240001059932,新規,0,2022-06-13,2022-06-13,株式会社キャストクリエイション,,株式会社,広島県,広島市安佐南区,緑井１丁目１０番７号大須加ビル２Ｆ,,34,105,7310103,,,,,,,2022-06-13,1,,,,,キャストクリエイション,0
1408,5240001059949,新規,0,2022-06-13,2022-06-13,株式会社ＩＮＮＯＶＡＴＥ　ＷＩＴＨ,,株式会社,広島県,広島市中区,小網町７番８－９０３号,,34,101,7300855,,,,,,,2022-06-13,1,,,,,イノベートウィズ,0
1416,5260001036954,新規,0,2022-06-13,2022-06-13,株式会社ＢＡＮＮＡ不動産,,株式会社,岡山県,岡山市中区,東山２丁目１番１１号,,33,102,7038281,,,,,,,2022-06-13,1,,,,,バンナフドウサン,0
1422,5290001097878,新規,0,2022-06-13,2022-06-13,株式会社スパイラ,,株式会社,福岡県,福岡市博多区,綱場町３番１７号,,40,132,8120024,,,,,,,2022-06-13,1,,,,,スパイラ,0
1426,5290801028628,新規,0,2022-06-13,2022-06-13,株式会社ＦＬＥＸ　ＨＯＵＳＥ,,株式会社,福岡県,北九州市小倉北区,船場町７－１７ビバライフ船場３０４,,40,106,8020007,,,,,,,2022-06-13,1,,,,,フレックスハウス,0
1436,5330001029810,新規,0,2022-06-13,2022-06-13,オーヘン工業株式会社,,株式会社,熊本県,熊本市中央区,安政町４番１４号,,43,101,8600801,,,,,,,2022-06-13,1,,,,,オーヘンコウギョウ,0
1437,5330001029819,新規,0,2022-06-13,2022-06-13,カタース株式会社,,株式会社,熊本県,熊本市南区,田井島２丁目５番２５号,,43,104,8620965,,,,,,,2022-06-13,1,,,,,カタース,0
1438,5330001029827,新規,0,2022-06-13,2022-06-13,株式会社ナノリンク,,株式会社,熊本県,熊本市北区,清水東町２番５号１Ｆ,,43,105,8618065,,,,,,,2022-06-13,1,,,,,ナノリンク,0
1439,5330001029835,新規,0,2022-06-13,2022-06-13,株式会社おもしろい人生にしちゃいましょ研究所,,株式会社,熊本県,熊本市中央区,下通１丁目１２―２７ＣＯＲＥ２１下通ビル５Ｆ,,43,101,8600807,,,,,,,2022-06-13,1,,,,,オモシロイジンセイニシチャイマショケンキュウジョ,0
1440,5330003009406,新規,0,2022-06-13,2022-06-13,合同会社白馬急便,,合同会社,熊本県,人吉市,東間上町２８１９番地２,,43,203,8680043,,,,,,,2022-06-13,1,,,,,ハクバキュウビン,0
1441,5330003009414,新規,0,2022-06-13,2022-06-13,合同会社サニー設計,,合同会社,熊本県,八代市,高下西町９３２番地１,,43,202,8660072,,,,,,,2022-06-13,1,,,,,サニーセッケイ,0
1442,5340001024802,新規,0,2022-06-13,2022-06-13,株式会社ＴＥＲＵ,,株式会社,鹿児島県,大島郡和泊町,大字和泊１４７番地６,,46,533,8919112,,,,,,,2022-06-13,1,,,,,テル,0
1444,5340003003829,新規,0,2022-06-13,2022-06-13,ＺＥＮＪＯＹ合同会社,,合同会社,鹿児島県,霧島市,国分新町９３３番地１６,,46,218,8994351,,,,,,,2022-06-13,1,,,,,ゼンジョイ,0
1449,5370001048658,新規,0,2022-06-13,2022-06-13,イーデックス株式会社,,株式会社,宮城県,仙台市若林区,新寺２丁目２番３５号本田ビル２階,,04,103,9840051,,,,,,,2022-06-13,1,,,,,イーデックス,0
1452,5380001032891,新規,0,2022-06-13,2022-06-13,株式会社ＬＥＡＰ　ＩＮＮＯＶＡＴＩＯＮ,,株式会社,福島県,郡山市,日和田町字向山１６番地の４サンヒルズＳ２０３号,,07,203,9630534,,,,,,,2022-06-13,1,,,,,リープイノベーション,0
1458,5390003001968,新規,0,2022-06-13,2022-06-13,仲野果樹園合同会社,,合同会社,山形県,東根市,中島通り１丁目３７号,,06,211,9993742,,,,,,,2022-06-13,1,,,,,ナカノカジュエン,0
1460,5400001015910,新規,0,2022-06-13,2022-06-13,Ａｕｓｔｉｎ株式会社,,株式会社,岩手県,盛岡市,中央通１丁目７番３５号,,03,201,0200021,,,,,,,2022-06-13,1,,,,,オースティン,0
1464,5410001013211,新規,0,2022-06-13,2022-06-13,株式会社タカハシ建築舎,,株式会社,秋田県,大仙市,清水字金鐙４５５番地,,05,212,0140204,,,,,,,2022-06-13,1,,,,,タカハシケンチクシャ,0
1468,5430001086775,新規,0,2022-06-13,2022-06-13,株式会社とまと家,,株式会社,北海道,夕張郡栗山町,字南学田１６１－８,,01,429,0680357,,,,,,,2022-06-13,1,,,,,トマトカ,0
1469,5430001086783,新規,0,2022-06-13,2022-06-13,株式会社アスカル,,株式会社,北海道,恵庭市,島松仲町１丁目１２番２０号,,01,231,0611352,,,,,,,2022-06-13,1,,,,,アスカル,0
1470,5430001086809,新規,0,2022-06-13,2022-06-13,片桐工業株式会社,,株式会社,北海道,札幌市北区,太平五条５丁目３番３０号,,01,102,0028005,,,,,,,2022-06-13,1,,,,,カタギリコウギョウ,0
1473,5430003014008,新規,0,2022-06-13,2022-06-13,合同会社大和魂,,合同会社,北海道,千歳市,みどり台北３丁目７番１０号,,01,224,0660083,,,,,,,2022-06-13,1,,,,,ヤマトダマシイ,0
1474,5430005014476,新規,0,2022-06-13,2022-06-13,一般社団法人シータヒーリング普及協会シータラボ,,その他の設立登記法人,北海道,札幌市北区,北三十五条西４丁目２番２１－４０２号,,01,102,0010035,,,,,,,2022-06-13,1,,,,,シータヒーリングフキュウキョウカイシータラボ,0
1478,5500003002847,新規,0,2022-06-13,2022-06-13,合同会社日なたすまいる交通,,合同会社,愛媛県,松山市,余戸南３丁目６番１４号,,38,201,7900047,,,,,,,2022-06-13,1,,,,,ヒナタスマイルコウツウ,0
1491,6010001227271,新規,0,2022-06-13,2022-06-13,株式会社アーキテクトコンサルタント,,株式会社,東京都,中央区,銀座７丁目１５番１８号銀ビル３階,,13,102,1040061,,,,,,,2022-06-13,1,,,,,アーキテクトコンサルタント,0
1494,6010003037801,新規,0,2022-06-13,2022-06-13,ＨＡＣＫ合同会社,,合同会社,東京都,文京区,小石川３丁目６番１４号,,13,105,1120002,,,,,,,2022-06-13,1,,,,,ハック,0
1508,6010403027856,新規,0,2022-06-13,2022-06-13,ＲＪＮ合同会社,,合同会社,東京都,港区,白金６丁目１６番２５ー２８０２号,,13,103,1080072,,,,,,,2022-06-13,1,,,,,アールジェーエヌ,0
1510,6010405021072,新規,0,2022-06-13,2022-06-13,ＥＳＲ３２・１一般社団法人,,その他の設立登記法人,東京都,港区,浜松町１丁目２０番１０号ライオネス浜松町５０６号室,,13,103,1050013,,,,,,,2022-06-13,1,,,,,イーエスアールサンジュウニイチ,0
1517,6010501048952,新規,0,2022-06-13,2022-06-13,株式会社Ｌｉｍ,,株式会社,東京都,台東区,東上野４丁目１２番１号,,13,106,1100015,,,,,,,2022-06-13,1,,,,,リム,0
1520,6010601061319,新規,0,2022-06-13,2022-06-13,ＶＯＩＤ株式会社,,株式会社,東京都,墨田区,緑１丁目２４－１２ＯＦＦＩＮ７０１,,13,107,1300021,,,,,,,2022-06-13,1,,,,,ボイド,0
1521,6010605004091,新規,0,2022-06-13,2022-06-13,社会保険労務士法人宮内惠子マネジメントオフィス,,その他の設立登記法人,東京都,墨田区,江東橋４丁目２９番１６号プラザ錦糸町ビル６ＳＮ号室,,13,107,1300022,,,,,,,2022-06-13,1,,,,,ミヤウチケイコマネジメントオフィス,0
1527,6010801033019,新規,0,2022-06-13,2022-06-13,株式会社ＧＷ,,株式会社,東京都,大田区,東糀谷４丁目９番５号,,13,111,1440033,,,,,,,2022-06-13,1,,,,,ジーダブリュー,0
1539,6011001147880,新規,0,2022-06-13,2022-06-13,株式会社ｏｒｄｅｒ．５,,株式会社,東京都,渋谷区,渋谷２丁目１９－１５宮益坂ビルディング６０９,,13,113,1500002,,,,,,,2022-06-13,1,,,,,オーダーファイブ,0
1540,6011001147988,新規,0,2022-06-13,2022-06-13,Ｌａｚｙ　Ｇｏｌｆ　Ｊａｐａｎ株式会社,,株式会社,東京都,渋谷区,渋谷２丁目１２番１２号,,13,113,1500002,,,,,,,2022-06-13,1,,,,,レイジーゴルフジャパン,0
1550,6011101099171,新規,0,2022-06-13,2022-06-13,ＮＭ株式会社,,株式会社,東京都,新宿区,中落合３丁目１番１９号ＧＳハイム目白３０２,,13,104,1610032,,,,,,,2022-06-13,1,,,,,エヌエム,0
1551,6011101099221,新規,0,2022-06-13,2022-06-13,株式会社セカンドライズ,,株式会社,東京都,新宿区,荒木町２２番地４８,,13,104,1600007,,,,,,,2022-06-13,1,,,,,セカンドライズ,0
1561,6011701025378,新規,0,2022-06-13,2022-06-13,株式会社中川コンサルティングオフィス,,株式会社,東京都,江戸川区,松江７丁目１０番１６号,,13,123,1320025,,,,,,,2022-06-13,1,,,,,ナカガワコンサルティングオフィス,0
1576,6020001146842,新規,0,2022-06-13,2022-06-13,株式会社東京ｒｅｌｉａｂｌｅ,,株式会社,神奈川県,川崎市高津区,千年１１３５－１Ｆ２号室,,14,134,2130022,,,,,,,2022-06-13,1,,,,,トウキョウリライアブル,0
1584,6021001076195,新規,0,2022-06-13,2022-06-13,株式会社湘南フェリックス,,株式会社,神奈川県,藤沢市,川名１丁目２番１２号ストンフィールド川名２０１,,14,205,2510015,,,,,,,2022-06-13,1,,,,,,0
1598,6030003019582,新規,0,2022-06-13,2022-06-13,合同会社Ｇｒａｖｉｔｙ,,合同会社,埼玉県,入間郡三芳町,大字竹間沢５９５番地３,,11,324,3540043,,,,,,,2022-06-13,1,,,,,グラヴィティ,0
1603,6040001123798,新規,0,2022-06-13,2022-06-13,中川貿易株式会社,,株式会社,千葉県,船橋市,湊町２丁目２－６ミナトビル４Ｆ４０２,,12,204,2730011,,,,,,,2022-06-13,1,,,,,ナカガワボウエキ,0
1607,6040003020218,新規,0,2022-06-13,2022-06-13,ＳＡＭＵＤＵ　ＩＮＴＥＲＮＡＴＩＯＮＡＬ合同会社,,合同会社,千葉県,印西市,浦部字普請場７６４番１－Ａ,,12,231,2701367,,,,,,,2022-06-13,1,,,,,サムドゥインターナショナル,0
1618,6050001051206,新規,0,2022-06-13,2022-06-13,株式会社エナジ,,株式会社,茨城県,土浦市,烏山４丁目１９９２番地２,,08,203,3000836,,,,,,,2022-06-13,1,,,,,エナジ,0
1624,6060003004103,新規,0,2022-06-13,2022-06-13,合同会社ＧＲＥＥＮ　ＳＩＧＮＡＬ,,合同会社,栃木県,佐野市,若松町８５,,09,204,3270846,,,,,,,2022-06-13,1,,,,,グリーンシグナル,0
1625,6070001039323,新規,0,2022-06-13,2022-06-13,株式会社東京情報通信アート,,株式会社,群馬県,前橋市,山王町１丁目１番地３コモンヒロセ２－７号室,,10,201,3792123,,,,,,,2022-06-13,1,,,,,トウキョウジョウホウツウシンアート,0
1628,6080001025009,新規,0,2022-06-13,2022-06-13,株式会社ベイサイドメモリアル,,株式会社,静岡県,静岡市清水区,折戸３丁目３番９号,,22,103,4240902,,,,,,,2022-06-13,1,,,,,ベイサイドメモリアル,0
1633,6110001036729,新規,0,2022-06-13,2022-06-13,株式会社ＦＵＧＡ新潟,,株式会社,新潟県,新潟市中央区,天神１丁目１２番地７,,15,103,9500917,,,,,,,2022-06-13,1,,,,,フウガニイガタ,0
1654,6120001246418,新規,0,2022-06-13,2022-06-13,ｎｏｍａ．株式会社,,株式会社,大阪府,大阪市西区,新町１丁目２番１３号,,27,106,5500013,,,,,,,2022-06-13,1,,,,,ノマドット,0
1655,6120001246558,新規,0,2022-06-13,2022-06-13,潤喜路株式会社,,株式会社,大阪府,大阪市西成区,橘１丁目３番６号,,27,122,5570051,,,,,,,2022-06-13,1,,,,,ジュンキロ,0
1656,6120001246590,新規,0,2022-06-13,2022-06-13,株式会社ライフアンドパワー,,株式会社,大阪府,大阪市生野区,勝山南３丁目８番２５号,,27,116,5440021,,,,,,,2022-06-13,1,,,,,ライフアンドパワー,0
1657,6120003021868,新規,0,2022-06-13,2022-06-13,スプラウツ合同会社,,合同会社,大阪府,大阪市阿倍野区,阿倍野筋１丁目７－２０－２１０１,,27,119,5450052,,,,,,,2022-06-13,1,,,,,スプラウツ,0
1660,6120101065742,新規,0,2022-06-13,2022-06-13,株式会社オートリンク,,株式会社,大阪府,岸和田市,山直中町３５３－２,,27,202,5960102,,,,,,,2022-06-13,1,,,,,オートリンク,0
1663,6120901046108,新規,0,2022-06-13,2022-06-13,ＡＰＯ　ｔｅｃｈ株式会社,,株式会社,大阪府,吹田市,江坂町１丁目１４番２０号－８０８号,,27,205,5640063,,,,,,,2022-06-13,1,,,,,アポテック,0
1664,6120903004187,新規,0,2022-06-13,2022-06-13,合同会社ＨＭＡ,,合同会社,大阪府,豊中市,庄内東町２丁目２番地２３号２Ｆ－Ｂ,,27,203,5610831,,,,,,,2022-06-13,1,,,,,エイチエムエー,0
1665,6122001035957,新規,0,2022-06-13,2022-06-13,株式会社ＪＯＳＨＯ,,株式会社,大阪府,東大阪市,若江東町４丁目５番１２号,,27,227,5780935,,,,,,,2022-06-13,1,,,,,ジョウショウ,0
1706,6240001059923,新規,0,2022-06-13,2022-06-13,株式会社エスポワール,,株式会社,広島県,広島市中区,小町１番１号木村ビル４階,,34,101,7300041,,,,,,,2022-06-13,1,,,,,エスポワール,0
1708,6240003005652,新規,0,2022-06-13,2022-06-13,破天荒ＧＰ合同会社,,合同会社,広島県,広島市西区,三滝本町２丁目１４番－３８－５－３０３号,,34,104,7330802,,,,,,,2022-06-13,1,,,,,ハテンコウジーピー,0
1712,6260001036929,新規,0,2022-06-13,2022-06-13,株式会社おざき,,株式会社,岡山県,岡山市南区,福島２丁目１番２４号,,33,104,7028044,,,,,,,2022-06-13,1,,,,,オザキ,0
1713,6260001036953,新規,0,2022-06-13,2022-06-13,株式会社翔湊,,株式会社,岡山県,岡山市北区,宿本町４番３１－１号,,33,101,7000002,,,,,,,2022-06-13,1,,,,,カナタ,0
1714,6260003003943,新規,0,2022-06-13,2022-06-13,合同会社Ｆｒｉｅｎｄｓ　Ｐｌｕｓ,,合同会社,岡山県,倉敷市,連島中央３丁目２番２７号,,33,202,7128014,,,,,,,2022-06-13,1,,,,,,0
1723,6290005018722,新規,0,2022-06-13,2022-06-13,医療法人ウィズアイエヌジー,,その他の設立登記法人,福岡県,大野城市,瓦田１丁目１４－６,,40,219,8160932,,,,,,,2022-06-13,1,,,,,ウィズアイエヌジー,0
1725,6290803004139,新規,0,2022-06-13,2022-06-13,合同会社香香,,合同会社,福岡県,北九州市小倉北区,清水５丁目１番１－１１０２号,,40,106,8030841,,,,,,,2022-06-13,1,,,,,シャンシャン,0
1731,6330001029818,新規,0,2022-06-13,2022-06-13,株式会社ＭＲ　ＣＯＭＰＡＮＹ,,株式会社,熊本県,菊池市,豊間１４２４番地,,43,210,8611684,,,,,,,2022-06-13,1,,,,,エムアールカンパニー,0
1737,6340001024801,新規,0,2022-06-13,2022-06-13,株式会社ＫＡＷＡＳＥＩ,,株式会社,鹿児島県,鹿児島市,油須木町５０５番地１,,46,201,8911104,,,,,,,2022-06-13,1,,,,,カワセイ,0
1739,6350001017804,新規,0,2022-06-13,2022-06-13,株式会社シタヤテック,,株式会社,宮崎県,宮崎市,高岡町花見５３７２番地１,,45,201,8802211,,,,,,,2022-06-13,1,,,,,シタヤテック,0
1742,6350003004098,新規,0,2022-06-13,2022-06-13,合同会社アヤオーガニックワークス,,合同会社,宮崎県,東諸県郡綾町,大字北俣二本松２７１０番地,,45,383,8801302,,,,,,,2022-06-13,1,,,,,アヤオーガニックワークス,0
1745,6370001048649,新規,0,2022-06-13,2022-06-13,株式会社ＡＳ設計,,株式会社,宮城県,仙台市太白区,大野田４丁目２１番地の５レガシー齋藤６０７,,04,104,9820014,,,,,,,2022-06-13,1,,,,,エーエスセッケイ,0
1752,6380001032890,新規,0,2022-06-13,2022-06-13,株式会社小野,,株式会社,福島県,伊達市,保原町字柏町３４番地,,07,213,9600651,,,,,,,2022-06-13,1,,,,,オノ,0
1754,6390001016926,新規,0,2022-06-13,2022-06-13,株式会社サァンクファル,,株式会社,山形県,天童市,北久野本２丁目２番４６号,,06,210,9940011,,,,,,,2022-06-13,1,,,,,サァンクファル,0
1760,6410001013210,新規,0,2022-06-13,2022-06-13,株式会社ＰＥＣ,,株式会社,秋田県,にかほ市,象潟町字上狐森１６５,,05,214,0180103,,,,,,,2022-06-13,1,,,,,ピーイーシー,0
1767,6430001086808,新規,0,2022-06-13,2022-06-13,株式会社アイワイセレモニー,,株式会社,北海道,札幌市白石区,本通４丁目南１０番１０号,,01,104,0030026,,,,,,,2022-06-13,1,,,,,アイワイセレモニー,0
1771,6430003013999,新規,0,2022-06-13,2022-06-13,Ｓｕｚｕｍｅ　Ｓｔｕｄｉｏｓ合同会社,,合同会社,北海道,札幌市東区,北二十八条東６丁目３番２０号,,01,103,0650028,,,,,,,2022-06-13,1,,,,,スズメスタジオ,0
1774,6450003002216,新規,0,2022-06-13,2022-06-13,合同会社エコリンク,,合同会社,北海道,旭川市,神居八条４丁目２番１号,,01,204,0708018,,,,,,,2022-06-13,1,,,,,,0
1795,7010001227254,新規,0,2022-06-13,2022-06-13,株式会社サラ・ギャラリー,,株式会社,東京都,千代田区,西神田３丁目５－３－２６０５,,13,101,1010065,,,,,,,2022-06-13,1,,,,,サラギャラリー,0
1796,7010001227329,新規,0,2022-06-13,2022-06-13,新産業創生株式会社,,株式会社,東京都,中央区,日本橋２丁目８番６号,,13,102,1030027,,,,,,,2022-06-13,1,,,,,シンサンギョウソウセイ,0
1816,7010401167876,新規,0,2022-06-13,2022-06-13,株式会社ＡＩ,,株式会社,東京都,港区,六本木１丁目９番１８－１８０２号,,13,103,1060032,,,,,,,2022-06-13,1,,,,,エーアイ,0
1826,7010501048968,新規,0,2022-06-13,2022-06-13,株式会社チェレステ,,株式会社,東京都,台東区,三筋２丁目２３番４号,,13,106,1110055,,,,,,,2022-06-13,1,,,,,チェレステ,0
1831,7010601061318,新規,0,2022-06-13,2022-06-13,株式会社ＳＡＭＵＥＬ,,株式会社,東京都,墨田区,緑２丁目１４番８号赤坂ビル１階,,13,107,1300021,,,,,,,2022-06-13,1,,,,,サミュエル,0
1833,7010701042779,新規,0,2022-06-13,2022-06-13,株式会社ＡＤＡＩＭ,,株式会社,東京都,品川区,西五反田３丁目７－３プレール目黒リバーサイド８０２,,13,109,1410031,,,,,,,2022-06-13,1,,,,,アダイム,0
1834,7010701042795,新規,0,2022-06-13,2022-06-13,株式会社ＳＴ　Ｔｏｏｌｓ,,株式会社,東京都,品川区,西五反田２丁目１３番８－３０８号,,13,109,1410031,,,,,,,2022-06-13,1,,,,,エスティーツールズ,0
1835,7010701042804,新規,0,2022-06-13,2022-06-13,カスタマーファースト株式会社,,株式会社,東京都,品川区,東品川１丁目３９番２号ニューライフ品川２０７号室,,13,109,1400002,,,,,,,2022-06-13,1,,,,,カスタマーファースト,0
1841,7010901051010,新規,0,2022-06-13,2022-06-13,株式会社エッジパートナーズ,,株式会社,東京都,世田谷区,粕谷１丁目１６番１４号,,13,112,1570063,,,,,,,2022-06-13,1,,,,,エッジパートナーズ,0
1847,7011001147954,新規,0,2022-06-13,2022-06-13,株式会社Ａｄｉｍ,,株式会社,東京都,渋谷区,神宮前６丁目２３番４号桑野ビル２階,,13,113,1500001,,,,,,,2022-06-13,1,,,,,アディム,0
1848,7011001147995,新規,0,2022-06-13,2022-06-13,株式会社ｍｉｒｏｋｕ,,株式会社,東京都,渋谷区,神宮前６丁目２３番４号桑野ビル２階,,13,113,1500001,,,,,,,2022-06-13,1,,,,,ミロク,0
1849,7011001148011,新規,0,2022-06-13,2022-06-13,株式会社ライフロー,,株式会社,東京都,渋谷区,桜丘町１５番８号,,13,113,1500031,,,,,,,2022-06-13,1,,,,,ライフロー,0
1850,7011001148036,新規,0,2022-06-13,2022-06-13,株式会社ＥＫＡＭ,,株式会社,東京都,渋谷区,神宮前６丁目２３番４号桑野ビル２Ｆ,,13,113,1500001,,,,,,,2022-06-13,1,,,,,エーカム,0
1854,7011101099187,新規,0,2022-06-13,2022-06-13,株式会社ゴルフナビ,,株式会社,東京都,新宿区,西新宿３丁目１３番１１号,,13,104,1600023,,,,,,,2022-06-13,1,,,,,ゴルフナビ,0
1856,7011103011851,新規,0,2022-06-13,2022-06-13,応用演出合同会社,,合同会社,東京都,新宿区,中落合２丁目１２番２６,,13,104,1610032,,,,,,,2022-06-13,1,,,,,オウヨウエンシュツ,0
1860,7011303004440,新規,0,2022-06-13,2022-06-13,合同会社Ｍ‐Ｓ,,合同会社,東京都,杉並区,天沼３丁目３０番８号,,13,115,1670032,,,,,,,2022-06-13,1,,,,,エムエス,0
1862,7011501028126,新規,0,2022-06-13,2022-06-13,恒興国際グループ株式会社,,株式会社,東京都,北区,田端１丁目５番４号トリニティ田端ビル６０１号室,,13,117,1140014,,,,,,,2022-06-13,1,,,,,コウコウコクサイグループ,0
1868,7012701017100,新規,0,2022-06-13,2022-06-13,株式会社インテクト,,株式会社,東京都,東久留米市,弥生１丁目６番２３号,,13,222,2030034,,,,,,,2022-06-13,1,,,,,インテクト,0
1880,7020001146825,新規,0,2022-06-13,2022-06-13,株式会社東勝,,株式会社,神奈川県,横浜市中区,曙町３丁目４４,,14,104,2310057,,,,,,,2022-06-13,1,,,,,トウショウ,0
1886,7021001076104,新規,0,2022-06-13,2022-06-13,株式会社池島土木,,株式会社,神奈川県,綾瀬市,上土棚南５丁目６番６４号,,14,218,2521114,,,,,,,2022-06-13,1,,,,,イケジマドボク,0
1888,7021003011819,新規,0,2022-06-13,2022-06-13,シオンリンゴ合同会社,,合同会社,神奈川県,相模原市中央区,中央６丁目５番９号,,14,152,2520239,,,,,,,2022-06-13,1,,,,,シオンリンゴ,0
1895,7030001148622,新規,0,2022-06-13,2022-06-13,株式会社セカンドエル,,株式会社,埼玉県,和光市,下新倉４丁目７番４１号,,11,229,3510111,,,,,,,2022-06-13,1,,,,,セカンドエル,0
1896,7030001148630,新規,0,2022-06-13,2022-06-13,コスモトレーディング株式会社,,株式会社,埼玉県,八潮市,緑町２丁目２０番地１ルミナス八潮６１４号室,,11,234,3400808,,,,,,,2022-06-13,1,,,,,コスモトレーディング,0
1905,7040001123814,新規,0,2022-06-13,2022-06-13,株式会社習志野電気工業,,株式会社,千葉県,習志野市,谷津２丁目１８番４６号,,12,216,2750026,,,,,,,2022-06-13,1,,,,,ナラシノデンキコウギョウ,0
1908,7040003020200,新規,0,2022-06-13,2022-06-13,合同会社Ｒｅ．Ｌｉｆｅ,,合同会社,千葉県,千葉市緑区,高田町１０６３番地７,,12,105,2660003,,,,,,,2022-06-13,1,,,,,リライフ,0
1914,7060001034968,新規,0,2022-06-13,2022-06-13,グローデシステム株式会社,,株式会社,栃木県,栃木市,都賀町家中１８６４番地,,09,203,3280111,,,,,,,2022-06-13,1,,,,,グローデシステム,0
1922,7070003004514,新規,0,2022-06-13,2022-06-13,合同会社カナール,,合同会社,群馬県,前橋市,朝倉町４丁目２番地２,,10,201,3710811,,,,,,,2022-06-13,1,,,,,カナール,0
1925,7080001025008,新規,0,2022-06-13,2022-06-13,株式会社及川建築板金,,株式会社,静岡県,藤枝市,緑町２丁目１番地の２２グレイスリー緑町３０７,,22,214,4260027,,,,,,,2022-06-13,1,,,,,オイカワケンチクバンキン,0
1926,7080001025016,新規,0,2022-06-13,2022-06-13,株式会社エスケーズ,,株式会社,静岡県,静岡市駿河区,丸子芹が谷町６番５－１号,,22,102,4210104,,,,,,,2022-06-13,1,,,,,エスケーズ,0
1933,7090001017607,新規,0,2022-06-13,2022-06-13,株式会社ドドウ,,株式会社,山梨県,韮崎市,藤井町駒井２０７０番地,,19,207,4070001,,,,,,,2022-06-13,1,,,,,ドドウ,0
1936,7100001035409,新規,0,2022-06-13,2022-06-13,株式会社ＪＩＮ　ｍｉｒａｉｓａｉホールディングス,,株式会社,長野県,安曇野市,明科中川手１４７番地３,,20,220,3997102,,,,,,,2022-06-13,1,,,,,ジンミライサイホールディングス,0
1938,7110001036728,新規,0,2022-06-13,2022-06-13,株式会社ブランド・ファクトリー,,株式会社,新潟県,南魚沼市,浦佐２７８番地２,,15,226,9497302,,,,,,,2022-06-13,1,,,,,ブランドファクトリー,0
1950,7120001246359,新規,0,2022-06-13,2022-06-13,株式会社シナジーグローバル東海,,株式会社,大阪府,大阪市淀川区,西中島６丁目１番３号,,27,123,5320011,,,,,,,2022-06-13,1,,,,,シナジーグローバルトウカイ,0
1951,7120003021867,新規,0,2022-06-13,2022-06-13,合同会社ＴＴホールディングス,,合同会社,大阪府,大阪市北区,梅田１丁目２－２大阪駅前第２ビル２階５－６号室,,27,127,5300001,,,,,,,2022-06-13,1,,,,,ティーティホールディングス,0
1952,7120003021875,新規,0,2022-06-13,2022-06-13,ＨＯＲＩＺＯＮＴＥ合同会社,,合同会社,大阪府,大阪市阿倍野区,天王寺町北３丁目１８番３４－１４０６号,,27,119,5450001,,,,,,,2022-06-13,1,,,,,オリソンテ,0
1955,7120101065725,新規,0,2022-06-13,2022-06-13,株式会社アイズコネクション,,株式会社,大阪府,貝塚市,堀１丁目９番８－６０６号,,27,208,5970015,,,,,,,2022-06-13,1,,,,,アイズコネクション,0
1956,7120101065733,新規,0,2022-06-13,2022-06-13,株式会社マイロード,,株式会社,大阪府,岸和田市,下松町８９９番地の１,,27,202,5960823,,,,,,,2022-06-13,1,,,,,マイロード,0
1962,7120901046081,新規,0,2022-06-13,2022-06-13,株式会社２ｎｄＧＲＯＵＰ,,株式会社,大阪府,豊中市,西泉丘１丁目１５番１－１０３号,,27,203,5610862,,,,,,,2022-06-13,1,,,,,セカンドグループ,0
1963,7120901046098,新規,0,2022-06-13,2022-06-13,株式会社ｔｕｃｕｒｕ,,株式会社,大阪府,吹田市,江坂町５丁目１４番５－５０４号,,27,205,5640063,,,,,,,2022-06-13,1,,,,,ツクル,0
1965,7120903004186,新規,0,2022-06-13,2022-06-13,シマテック合同会社,,合同会社,大阪府,吹田市,岸部北２丁目２７番９号,,27,205,5640001,,,,,,,2022-06-13,1,,,,,シマテック,0
1967,7122001035948,新規,0,2022-06-13,2022-06-13,＿琳商事株式会社,00126845,株式会社,大阪府,柏原市,法善寺３丁目４１９番６－２０２号,,27,221,5820005,,,,,,,2022-06-13,1,,,,,ギョクリンショウジ,0
1968,7122001035956,新規,0,2022-06-13,2022-06-13,株式会社ａｃｔ,,株式会社,大阪府,東大阪市,吉田本町３丁目３番３３－４０１号,,27,227,5780982,,,,,,,2022-06-13,1,,,,,アクト,0
1970,7130001071913,新規,0,2022-06-13,2022-06-13,サンウェイブ株式会社,,株式会社,京都府,久世郡久御山町,中島沖ノ内６９番地４,,26,322,6130041,,,,,,,2022-06-13,1,,,,,サンウェイブ,0
1972,7130003007980,新規,0,2022-06-13,2022-06-13,合同会社就労サポート洛陽,,合同会社,京都府,京都市南区,唐橋平垣町６８－６番地,,26,107,6018469,,,,,,,2022-06-13,1,,,,,シュウロウサポートラクヨウ,0
1973,7130005016501,新規,0,2022-06-13,2022-06-13,一般社団法人６２３伝達研究所,,その他の設立登記法人,京都府,京都市上京区,下立売通千本西入稲葉町４６１番地２Ｌｏｆｔｙ４６－２０８,,26,102,6028352,,,,,,,2022-06-13,1,,,,,ムツミデンタツケンキュウジョ,0
1985,7140001126311,新規,0,2022-06-13,2022-06-13,株式会社ＥＮＶＥＲＭＩＴ,,株式会社,兵庫県,神戸市東灘区,住吉山手８丁目２１番地１１号,,28,101,6580063,,,,,,,2022-06-13,1,,,,,エンヴァミット,0
1990,7160001024273,新規,0,2022-06-13,2022-06-13,株式会社Ｓｐｉｎｗｅｌｌ,,株式会社,滋賀県,草津市,東草津２丁目７番７号,,25,206,5250033,,,,,,,2022-06-13,1,,,,,スピンウェル,0
1991,7170001017152,新規,0,2022-06-13,2022-06-13,株式会社ケイエスメディカル,,株式会社,和歌山県,海南市,黒江９１５番地,,30,202,6420011,,,,,,,2022-06-13,1,,,,,ケイエスメディカル,0
1996,7180001151677,新規,0,2022-06-13,2022-06-13,株式会社もののふ,,株式会社,愛知県,名古屋市天白区,野並３丁目１９７番地スライブ野並１Ｆ,,23,116,4680045,,,,,,,2022-06-13,1,,,,,モノノフ,0
1997,7180001151685,新規,0,2022-06-13,2022-06-13,株式会社アニゲームズ,,株式会社,愛知県,清須市,清洲１８２９番地１４,,23,233,4520942,,,,,,,2022-06-13,1,,,,,アニゲームズ,0
2010,7200001040150,新規,0,2022-06-13,2022-06-13,株式会社ＮＯＶＡＩＬ,,株式会社,岐阜県,岐阜市,茜部本郷３丁目７４番地,,21,201,5008262,,,,,,,2022-06-13,1,,,,,ノヴァイル,0
2011,7200001040159,新規,0,2022-06-13,2022-06-13,株式会社チューヤリテール,,株式会社,岐阜県,瑞穂市,田之上１４７番地１０,,21,216,5010304,,,,,,,2022-06-13,1,,,,,チューヤリテール,0
2016,7220001024903,新規,0,2022-06-13,2022-06-13,株式会社Ｒｅｖｏ,,株式会社,石川県,金沢市,北安江４丁目８番２９号１０２,,17,201,9200022,,,,,,,2022-06-13,1,,,,,レボ,0
2019,7240001059914,新規,0,2022-06-13,2022-06-13,株式会社阿部レンタル,,株式会社,広島県,広島市西区,古江東町１６番１０号,,34,104,7330872,,,,,,,2022-06-13,1,,,,,アベレンタル,0
2024,7260001036952,新規,0,2022-06-13,2022-06-13,株式会社みやび,,株式会社,岡山県,岡山市北区,神田町１丁目１０番１４号（１０１）,,33,101,7000935,,,,,,,2022-06-13,1,,,,,ミヤビ,0
2025,7260003003942,新規,0,2022-06-13,2022-06-13,合同会社Ｗｙ’ｓ,,合同会社,岡山県,岡山市北区,田中１５５番地１０２シャンポールながせＥ棟１０１,,33,101,7000951,,,,,,,2022-06-13,1,,,,,ワイズ,0
2027,7270001008554,新規,0,2022-06-13,2022-06-13,株式会社日出嶋モータース,,株式会社,鳥取県,鳥取市,津ノ井６１０番地,,31,201,6891102,,,,,,,2022-06-13,1,,,,,ヒデシマモータース,0
2030,7290001097876,新規,0,2022-06-13,2022-06-13,株式会社ＮＩＣＯ　ＰＬＡＮＮＩＮＧ,,株式会社,福岡県,久留米市,高良内町２８９６番地２１,,40,203,8390852,,,,,,,2022-06-13,1,,,,,ニコプランニング,0
2035,7290003012610,新規,0,2022-06-13,2022-06-13,ＴＡＩＧＥＩ　ＳＴＵＤＩＯ合同会社,,合同会社,福岡県,福岡市中央区,大名２丁目６番１１号,,40,133,8100041,,,,,,,2022-06-13,1,,,,,タイゲイスタジオ,0
2037,7290801028618,新規,0,2022-06-13,2022-06-13,株式会社オーテック,,株式会社,福岡県,北九州市八幡西区,大平２丁目２番１４号（２０３）,,40,109,8070083,,,,,,,2022-06-13,1,,,,,オーテック,0
2038,7290801028626,新規,0,2022-06-13,2022-06-13,株式会社山田屋笑店,,株式会社,福岡県,北九州市戸畑区,沖台１丁目１番１１号,,40,105,8040064,,,,,,,2022-06-13,1,,,,,ヤマダヤショウテン,0
2039,7300001012965,新規,0,2022-06-13,2022-06-13,Ｓａｍｕｒａｉ株式会社,,株式会社,佐賀県,佐賀市,諸富町大堂１４４７番地２,,41,201,8490000,,,,,,,2022-06-13,1,,,,,サムライ,0
2043,7320001019133,新規,0,2022-06-13,2022-06-13,ティーケイメタル株式会社,,株式会社,大分県,大分市,高城南町６番１６号,,44,201,8700155,,,,,,,2022-06-13,1,,,,,ティーケイメタル,0
2047,7330001029767,新規,0,2022-06-13,2022-06-13,株式会社Ｇｒａｖｉｔｙ　Ｃｒａｆｔ,,株式会社,熊本県,熊本市中央区,黒髪５丁目２４番２２号第一有村ハイツ１０５,,43,101,8600862,,,,,,,2022-06-13,1,,,,,グラビティクラフト,0
2062,7360001030524,新規,0,2022-06-13,2022-06-13,ミラクル株式会社,,株式会社,沖縄県,中頭郡北谷町,字宮城１－１,,47,326,9040113,,,,,,,2022-06-13,1,,,,,ミラクル,0
2063,7360003012066,新規,0,2022-06-13,2022-06-13,合同会社結コーポレーション,,合同会社,沖縄県,宮古島市,平良字池間６１番地,,47,214,9060421,,,,,,,2022-06-13,1,,,,,ユイコーポレーション,0
2075,7390003001966,新規,0,2022-06-13,2022-06-13,合同会社ＨＵＢ　ＦＵＳＥ,,合同会社,山形県,鶴岡市,上畑町二丁目４番地,,06,203,9970032,,,,,,,2022-06-13,1,,,,,ハブフューズ,0
2088,8010001227328,新規,0,2022-06-13,2022-06-13,新産業育成株式会社,,株式会社,東京都,中央区,日本橋２丁目８番６号,,13,102,1030027,,,,,,,2022-06-13,1,,,,,シンサンギョウイクセイ,0
2104,8010403027771,新規,0,2022-06-13,2022-06-13,合同会社操觚社,,合同会社,東京都,港区,白金４丁目６－６,,13,103,1080072,,,,,,,2022-06-13,1,,,,,ソウコシャ,0
2108,8010501048942,新規,0,2022-06-13,2022-06-13,株式会社ａｍｐｆｙ,,株式会社,東京都,台東区,小島２丁目２０番１１号,,13,106,1110056,,,,,,,2022-06-13,1,,,,,アンプファイ,0
2109,8010501048950,新規,0,2022-06-13,2022-06-13,株式会社ノカト,,株式会社,東京都,台東区,浅草４丁目１０番５号,,13,106,1110032,,,,,,,2022-06-13,1,,,,,ノカト,0
2115,8010601061325,新規,0,2022-06-13,2022-06-13,株式会社Ｂｅｌａｎｄａ,,株式会社,東京都,墨田区,太平２丁目５番４号サンライズビル２Ｆ,,13,107,1300012,,,,,,,2022-06-13,1,,,,,ベランダ,0
2121,8010903007439,新規,0,2022-06-13,2022-06-13,合同会社Ｐｕｒｐｌｅ,,合同会社,東京都,世田谷区,瀬田１丁目５番１７号,,13,112,1580095,,,,,,,2022-06-13,1,,,,,パープル,0
2137,8011101099129,新規,0,2022-06-13,2022-06-13,株式会社インテリアサイエンス,,株式会社,東京都,新宿区,中井１丁目１３番１８号,,13,104,1610035,,,,,,,2022-06-13,1,,,,,インテリアサイエンス,0
2143,8011601026029,新規,0,2022-06-13,2022-06-13,ＬＯＧマーケティング株式会社,,株式会社,東京都,練馬区,上石神井４丁目１６番１６号,,13,120,1770044,,,,,,,2022-06-13,1,,,,,ログマーケティング,0
2147,8011703003165,新規,0,2022-06-13,2022-06-13,合同会社Ｉｏｒｉさ藤,,合同会社,東京都,江戸川区,西葛西５丁目１番３－２０２号,,13,123,1340088,,,,,,,2022-06-13,1,,,,,イオリサトウ,0
2151,8012405004749,新規,0,2022-06-13,2022-06-13,一般社団法人だいち,,その他の設立登記法人,東京都,調布市,仙川町３丁目１２番地３７,,13,208,1820002,,,,,,,2022-06-13,1,,,,,ダイチ,0
2160,8020001146881,新規,0,2022-06-13,2022-06-13,株式会社トーウェイ・イノベーション,,株式会社,神奈川県,川崎市麻生区,岡上２丁目１０番２０号,,14,137,2150027,,,,,,,2022-06-13,1,,,,,トーウェイイノベーション,0
2164,8021003011818,新規,0,2022-06-13,2022-06-13,あつぎ創建合同会社,,合同会社,神奈川県,厚木市,三田２５７９－１,,14,212,2430211,,,,,,,2022-06-13,1,,,,,アツギソウケン,0
2179,8040001123788,新規,0,2022-06-13,2022-06-13,株式会社ＴＮＨ,,株式会社,千葉県,鎌ケ谷市,北中沢３丁目５番２０号,,12,224,2730111,,,,,,,2022-06-13,1,,,,,ティーエヌエイチ,0
2180,8040001123796,新規,0,2022-06-13,2022-06-13,グローアップ株式会社,,株式会社,千葉県,松戸市,五香８丁目２８番地の２５,,12,207,2702213,,,,,,,2022-06-13,1,,,,,グローアップ,0
2181,8040001123805,新規,0,2022-06-13,2022-06-13,株式会社Ｐ４Ｗ,,株式会社,千葉県,千葉市若葉区,加曽利町９２４－１,,12,104,2640017,,,,,,,2022-06-13,1,,,,,ピーフォーダブリュー,0
2185,8040003020224,新規,0,2022-06-13,2022-06-13,合同会社ケアプラン未来,,合同会社,千葉県,匝瑳市,上谷中２００５番地１,,12,235,2892114,,,,,,,2022-06-13,1,,,,,ケアプランミライ,0
2186,8040003020232,新規,0,2022-06-13,2022-06-13,合同会社ハローパディ,,合同会社,千葉県,柏市,花野井６１４番地２,,12,217,2770812,,,,,,,2022-06-13,1,,,,,ハローパディ,0
2200,8050003006585,新規,0,2022-06-13,2022-06-13,合同会社ＩＫＥＨＡＲＵ,,合同会社,茨城県,つくば市,みどりの中央４７－１７,,08,220,3050882,,,,,,,2022-06-13,1,,,,,イケハル,0
2202,8060001034967,新規,0,2022-06-13,2022-06-13,株式会社ライズ,,株式会社,栃木県,宇都宮市,西川田町９６４番地１７,,09,201,3210151,,,,,,,2022-06-13,1,,,,,ライズ,0
2204,8080001025007,新規,0,2022-06-13,2022-06-13,株式会社鳳桜社,,株式会社,静岡県,静岡市清水区,辻１丁目２番１－２２０６号,00126847,22,103,4240806,,,,,,,2022-06-13,1,,,,,ホウオウシャ,0
2216,8110005016816,新規,0,2022-06-13,2022-06-13,特定非営利活動法人新潟自立支援センター,,その他の設立登記法人,新潟県,三条市,塚野目１丁目１番３８号,,15,204,9550055,,,,,,,2022-06-13,1,,,,,ニイガタジリツシエンセンター,0
2222,8120001246606,新規,0,2022-06-13,2022-06-13,株式会社ＥＡＣＨ,,株式会社,大阪府,大阪市住吉区,苅田３丁目４番３０号,,27,120,5580011,,,,,,,2022-06-13,1,,,,,イーチ,0
2226,8120003021866,新規,0,2022-06-13,2022-06-13,桜の＿合同会社,00126855,合同会社,大阪府,大阪市淀川区,西中島３丁目１番１２－３０３号,,27,123,5320011,,,,,,,2022-06-13,1,,,,,サクラノテイ,0
2232,8120901046089,新規,0,2022-06-13,2022-06-13,株式会社オーズディー,,株式会社,大阪府,池田市,石橋１丁目２１－２３－１０２,,27,204,5630032,,,,,,,2022-06-13,1,,,,,オーズディー,0
2233,8120901046106,新規,0,2022-06-13,2022-06-13,株式会社Ｍｕｋｋｕｅｔ,,株式会社,大阪府,豊中市,上新田１丁目１２番１０号,,27,203,5600085,,,,,,,2022-06-13,1,,,,,ミュケット,0
2238,8122001035955,新規,0,2022-06-13,2022-06-13,株式会社ｓｕｃｃｅｓｓ,,株式会社,大阪府,東大阪市,加納８丁目３１番１７号,,27,227,5780901,,,,,,,2022-06-13,1,,,,,サクセス,0
2246,8140001126327,新規,0,2022-06-13,2022-06-13,ＭＩＫＡＫＯＫＡＮＯＵ株式会社,,株式会社,兵庫県,芦屋市,大原町５－３洲崎ビル３階,,28,206,6590092,,,,,,,2022-06-13,1,,,,,ミカコカノウ,0
2248,8170001017127,新規,0,2022-06-13,2022-06-13,ＳＳＫＹ株式会社,,株式会社,和歌山県,岩出市,安上５２３番地の５４,,30,209,6496252,,,,,,,2022-06-13,1,,,,,ツーエスケーワイ,0
2257,8180001151701,新規,0,2022-06-13,2022-06-13,株式会社Ｎランド商会,,株式会社,愛知県,名古屋市中川区,供米田３丁目７０６番地（悠和苑６０３号）,,23,110,4540984,,,,,,,2022-06-13,1,,,,,エヌランドショウカイ,0
2264,8180003023923,新規,0,2022-06-13,2022-06-13,合同会社ひらめき１００,,合同会社,愛知県,津島市,舟戸町４０番地１,,23,208,4960843,,,,,,,2022-06-13,1,,,,,ヒラメキヒャク,0
2276,8220001024902,新規,0,2022-06-13,2022-06-13,株式会社ＲＥＬＡＹ,,株式会社,石川県,金沢市,元町１丁目１６番１０号,,17,201,9200842,,,,,,,2022-06-13,1,,,,,リレー,0
2285,8260001036927,新規,0,2022-06-13,2022-06-13,株式会社Ｇｃｕｂｅ,,株式会社,岡山県,岡山市北区,中仙道２丁目３３番１号,,33,101,7000964,,,,,,,2022-06-13,1,,,,,ジーキューブ,0
2286,8260001036935,新規,0,2022-06-13,2022-06-13,ＳＨＡＲＥＬＥＳ株式会社,,株式会社,岡山県,岡山市北区,京橋南町６番２８号,,33,101,7000832,,,,,,,2022-06-13,1,,,,,シェアル,0
2287,8270001008553,新規,0,2022-06-13,2022-06-13,株式会社フリークス,,株式会社,鳥取県,境港市,外江町２０１５番４,,31,204,6840071,,,,,,,2022-06-13,1,,,,,フリークス,0
2294,8290001097883,新規,0,2022-06-13,2022-06-13,株式会社カイザー工業,,株式会社,福岡県,柳川市,佃町１８２８番地１５,,40,207,8320051,,,,,,,2022-06-13,1,,,,,カイザーコウギョウ,0
2296,8290005018720,新規,0,2022-06-13,2022-06-13,アップスマイル税理士法人,,その他の設立登記法人,福岡県,福岡市中央区,天神１丁目２番４号,,40,133,8100001,,,,,,,2022-06-13,1,,,,,アップスマイル,0
2299,8300001012964,新規,0,2022-06-13,2022-06-13,株式会社エムズ,,株式会社,佐賀県,杵島郡江北町,大字佐留志２３６５番地,,41,424,8490502,,,,,,,2022-06-13,1,,,,,エムズ,0
2303,8340001024808,新規,0,2022-06-13,2022-06-13,大直設計株式会社,,株式会社,鹿児島県,鹿児島市,西伊敷２丁目２番３号,,46,201,8900002,,,,,,,2022-06-13,1,,,,,ダイナオセッケイ,0
2318,8410001013209,新規,0,2022-06-13,2022-06-13,株式会社アルバライズ,,株式会社,秋田県,雄勝郡羽後町,野中字野中７８番地,,05,463,0121125,,,,,,,2022-06-13,1,,,,,アルバライズ,0
2341,8500001024270,新規,0,2022-06-13,2022-06-13,株式会社とうざわ,,株式会社,愛媛県,四国中央市,三島中央３丁目８番６号,,38,213,7990405,,,,,,,2022-06-13,1,,,,,トウザワ,0
2361,9010001227153,新規,0,2022-06-13,2022-06-13,株式会社Ｍ．Ｉ．Ｏ　ｌａｂｏ,,株式会社,東京都,中央区,新富１丁目１３番２１号,,13,102,1040041,,,,,,,2022-06-13,1,,,,,エムアイオーラボ,0
2362,9010001227260,新規,0,2022-06-13,2022-06-13,株式会社ＴＳＫ,,株式会社,東京都,文京区,小石川１丁目２７番１３号,,13,105,1120002,,,,,,,2022-06-13,1,,,,,ティーエスケイ,0
2363,9010001227269,新規,0,2022-06-13,2022-06-13,株式会社Ｔｅｒｒａ　Ｃｏｍｍｕｎｉｃａｔｉｏｎｓ,,株式会社,東京都,中央区,銀座１丁目１２番４号Ｎ＆ＥＢＬＤ．６Ｆ,,13,102,1040061,,,,,,,2022-06-13,1,,,,,テラコミュニケーションズ,0
2364,9010001227302,新規,0,2022-06-13,2022-06-13,ＪＰｃｈａｉｎ株式会社,,株式会社,東京都,中央区,銀座７丁目１５番８号タウンハイツ銀座４０６,,13,102,1040061,,,,,,,2022-06-13,1,,,,,ジェーピーチェーン,0
2374,9010401167882,新規,0,2022-06-13,2022-06-13,ＬＳ‐Ａｖｉａｔｉｏｎ第４４号株式会社,,株式会社,東京都,港区,六本木１丁目６番１号,,13,103,1060032,,,,,,,2022-06-13,1,,,,,エルエスアビエーションダイヨンジュウヨンゴウ,0
2379,9010403027804,新規,0,2022-06-13,2022-06-13,ＥＳＲ３２合同会社,,合同会社,東京都,港区,浜松町１丁目２０番１０号ライオネス浜松町５０６号室,,13,103,1050013,,,,,,,2022-06-13,1,,,,,イーエスアールサンジュウニ,0
2380,9010403027829,新規,0,2022-06-13,2022-06-13,合同会社ブライアント,,合同会社,東京都,港区,浜松町２丁目２番１５号浜松町ダイヤビル２Ｆ,,13,103,1050013,,,,,,,2022-06-13,1,,,,,ブライアント,0
2381,9010403027861,新規,0,2022-06-13,2022-06-13,合同会社ＣＪ１,,合同会社,東京都,港区,虎ノ門３丁目２２番１０－２０１号,,13,103,1050001,,,,,,,2022-06-13,1,,,,,シージェイワン,0
2382,9010405021094,新規,0,2022-06-13,2022-06-13,一般社団法人Ｆｌｙｉｎｇ　Ｃｒａｎｅ１,,その他の設立登記法人,東京都,港区,赤坂２丁目１０番５号税理士法人赤坂国際会計事務所内,,13,103,1070052,,,,,,,2022-06-13,1,,,,,フライングクレーンワン,0
2391,9010801032991,新規,0,2022-06-13,2022-06-13,株式会社ＬＡＰ,,株式会社,東京都,大田区,大森北６丁目２８番６号ヴィラあさひ７０２,,13,111,1430016,,,,,,,2022-06-13,1,,,,,ラップ,0
2409,9011101099094,新規,0,2022-06-13,2022-06-13,株式会社ＰＩＣＫＬＥＳ,,株式会社,東京都,新宿区,舟町３番９号,,13,104,1600006,,,,,,,2022-06-13,1,,,,,ピクルス,0
2410,9011101099169,新規,0,2022-06-13,2022-06-13,株式会社Ｊｕｉｎ　Ｔｒｅｎｔｅ　Ａｍｉ,,株式会社,東京都,新宿区,大京町２６番地５１,,13,104,1600015,,,,,,,2022-06-13,1,,,,,ジュアントラントアミ,0
2411,9011101099210,新規,0,2022-06-13,2022-06-13,株式会社ゴーナナ,,株式会社,東京都,新宿区,新宿６丁目７番２２号エルプリメント新宿１５１,,13,104,1600022,,,,,,,2022-06-13,1,,,,,ゴーナナ,0
2415,9011501028124,新規,0,2022-06-13,2022-06-13,株式会社ＴＳＵＲＵマネジメント,,株式会社,東京都,北区,豊島８丁目２７番１８－１０５号,,13,117,1140003,,,,,,,2022-06-13,1,,,,,ツルマネジメント,0
2418,9011703003164,新規,0,2022-06-13,2022-06-13,水の谷のアトリエ合同会社,,合同会社,東京都,江戸川区,宇喜田町１６７,,13,123,1340082,,,,,,,2022-06-13,1,,,,,,0
2422,9011803005119,新規,0,2022-06-13,2022-06-13,合同会社スマトラグループ,,合同会社,東京都,葛飾区,西新小岩４丁目９―４ＬＩＮＫＳＨＩＮＫＯＩＷＡ１０２,,13,122,1240025,,,,,,,2022-06-13,1,,,,,グループスマトラ,0
2424,9013101008943,新規,0,2022-06-13,2022-06-13,株式会社空と雲,,株式会社,東京都,福生市,大字福生１０４６番地１,,13,218,1970011,,,,,,,2022-06-13,1,,,,,ソラトクモ,0
2444,9021003011809,新規,0,2022-06-13,2022-06-13,合同会社未来開発総合研究所,,合同会社,神奈川県,藤沢市,善行２丁目２３番地の７,,14,205,2510871,,,,,,,2022-06-13,1,,,,,ミライカイハツソウゴウケンキュウジョ,0
2452,9030001148604,新規,0,2022-06-13,2022-06-13,株式会社ワイズ,,株式会社,埼玉県,さいたま市岩槻区,仲町１丁目１番２６号,,11,110,3390054,,,,,,,2022-06-13,1,,,,,ワイズ,0
2453,9030001148629,新規,0,2022-06-13,2022-06-13,天壱株式会社,,株式会社,埼玉県,本庄市,寿３丁目２－１,,11,211,3670023,,,,,,,2022-06-13,1,,,,,テンイチ,0
2454,9030001148645,新規,0,2022-06-13,2022-06-13,株式会社ＪＩＪ,,株式会社,埼玉県,さいたま市北区,日進町１丁目４５０番地１グランドールラシン５０１,,11,102,3310823,,,,,,,2022-06-13,1,,,,,ジェイアイジェイ,0
2455,9030001148653,新規,0,2022-06-13,2022-06-13,株式会社リアン,,株式会社,埼玉県,越谷市,千間台西１丁目４番地３イクステンドビル６Ｆ,,11,222,3430041,,,,,,,2022-06-13,1,,,,,リアン,0
2461,9040001123779,新規,0,2022-06-13,2022-06-13,株式会社天幸,,株式会社,千葉県,船橋市,本中山１丁目１９番１３号メゾンド・ブラン本中山１１１号,,12,204,2730035,,,,,,,2022-06-13,1,,,,,アマユキ,0
2462,9040001123787,新規,0,2022-06-13,2022-06-13,ＭＬアセットストラテジー株式会社,,株式会社,千葉県,千葉市美浜区,磯辺７丁目１２番１１号,,12,106,2610012,,,,,,,2022-06-13,1,,,,,エムエルアセットストラテジー,0
2466,9040003020223,新規,0,2022-06-13,2022-06-13,合同会社あいだ農園,,合同会社,千葉県,館山市,洲宮１０８３番地の２,,12,205,2940223,,,,,,,2022-06-13,1,,,,,アイダノウエン,0
2467,9040003020231,新規,0,2022-06-13,2022-06-13,ＳＨＡＭＳ　ＡＵＴＯＤＥＡＬＳ合同会社,,合同会社,千葉県,山武市,椎崎１４３８番地５１,,12,237,2891205,,,,,,,2022-06-13,1,,,,,シャムスオートディールズ,0
2481,9080101023355,新規,0,2022-06-13,2022-06-13,株式会社悠翔,,株式会社,静岡県,沼津市,北高島町４－３６,,22,203,4100054,,,,,,,2022-06-13,1,,,,,ユウショウ,0
2486,9080401025885,新規,0,2022-06-13,2022-06-13,株式会社佐藤建具家具店,,株式会社,静岡県,浜松市中区,下池川町１３番１６号,,22,131,4300905,,,,,,,2022-06-13,1,,,,,サトウタテグカグテン,0
2505,9120001246563,新規,0,2022-06-13,2022-06-13,株式会社ライフコネクト,,株式会社,大阪府,大阪市淀川区,十三東３丁目１４番２０号ディナスティ十三東７０５,,27,123,5320023,,,,,,,2022-06-13,1,,,,,ライフコネクト,0
2506,9120001246588,新規,0,2022-06-13,2022-06-13,株式会社鍵のありか,,株式会社,大阪府,大阪市北区,中崎西１丁目７番９号,,27,127,5300015,,,,,,,2022-06-13,1,,,,,カギノアリカ,0
2507,9120001246596,新規,0,2022-06-13,2022-06-13,株式会社プライムホールディングス,,株式会社,大阪府,門真市,上野口町５２番４５号,,27,223,5710070,,,,,,,2022-06-13,1,,,,,プライムホールディングス,0
2508,9120001246621,新規,0,2022-06-13,2022-06-13,株式会社トリニティボイス,,株式会社,大阪府,大阪市中央区,南船場４丁目１０番５号南船場ＳＯＨＯビル７０２,,27,128,5420081,,,,,,,2022-06-13,1,,,,,トリニティボイス,0
2511,9120003021865,新規,0,2022-06-13,2022-06-13,ＯｆｆｉｃｅＫ合同会社,,合同会社,大阪府,大阪市福島区,玉川１丁目１－７,,27,103,5530004,,,,,,,2022-06-13,1,,,,,オフィスケー,0
2513,9120101065731,新規,0,2022-06-13,2022-06-13,株式会社きたの屋,,株式会社,大阪府,堺市堺区,楠町１丁２番１７号,,27,141,5900836,,,,,,,2022-06-13,1,,,,,キタノヤ,0
2514,9120101065748,新規,0,2022-06-13,2022-06-13,株式会社モサ,,株式会社,大阪府,堺市東区,高松１０９番地４,,27,143,5998121,,,,,,,2022-06-13,1,,,,,モサ,0
2519,9120901046063,新規,0,2022-06-13,2022-06-13,株式会社Ｅｎｔｒｅｅ,,株式会社,大阪府,池田市,旭丘２丁目１３番２８号,,27,204,5630022,,,,,,,2022-06-13,1,,,,,エンツリー,0
2520,9120901046105,新規,0,2022-06-13,2022-06-13,株式会社ＫＡＰＰＡ‐ＡＩＲ,,株式会社,大阪府,茨木市,東太田１丁目３番６３９号,,27,211,5670012,,,,,,,2022-06-13,1,,,,,カッパエア,0
2522,9120903004184,新規,0,2022-06-13,2022-06-13,合同会社リール,,合同会社,大阪府,茨木市,駅前３丁目６番２号ＢＯＸＦＩＶＥ５階,,27,211,5670888,,,,,,,2022-06-13,1,,,,,リール,0
2526,9122001035946,新規,0,2022-06-13,2022-06-13,伯楽株式会社,,株式会社,大阪府,東大阪市,高井田１番１０号,,27,227,5770053,,,,,,,2022-06-13,1,,,,,ハクラク,0
2529,9140001126210,新規,0,2022-06-13,2022-06-13,株式会社ＴＡＲＹ’Ｓ,,株式会社,兵庫県,宝塚市,寿町５番１８号,,28,214,6650865,,,,,,,2022-06-13,1,,,,,タリーズ,0
2532,9140003017787,新規,0,2022-06-13,2022-06-13,合同会社茉莉果,,合同会社,兵庫県,神戸市須磨区,中落合１丁目２番２５１－８０６号,,28,107,6540154,,,,,,,2022-06-13,1,,,,,マリカ,0
2555,9180001151700,新規,0,2022-06-13,2022-06-13,株式会社ナデヤル,,株式会社,愛知県,名古屋市中区,丸の内２丁目１７番１３号ＮＫ丸の内ビル２Ｆ,,23,106,4600002,,,,,,,2022-06-13,1,,,,,ナデヤル,0
2565,9180301036329,新規,0,2022-06-13,2022-06-13,スプラウトエステート株式会社,,株式会社,愛知県,西尾市,熊味町南十五夜５６番地４,,23,213,4450071,,,,,,,2022-06-13,1,,,,,スプラウトエステート,0
2570,9200001040173,新規,0,2022-06-13,2022-06-13,株式会社オートスタイルプラス,,株式会社,岐阜県,羽島郡岐南町,伏屋６丁目４４番地,,21,302,5016006,,,,,,,2022-06-13,1,,,,,オートスタイルプラス,0
2576,9230003001864,新規,0,2022-06-13,2022-06-13,器さろん恵合同会社,,合同会社,富山県,富山市,秋吉１５８番地５,,16,201,9300953,,,,,,,2022-06-13,1,,,,,ウツワサロンケイ,0
2584,9240003005658,新規,0,2022-06-13,2022-06-13,合同会社よくする,,合同会社,広島県,広島市中区,幟町８番５号,,34,101,7300016,,,,,,,2022-06-13,1,,,,,ヨクスル,0
2591,9260001036926,新規,0,2022-06-13,2022-06-13,株式会社エムズグリーン,,株式会社,岡山県,岡山市中区,倉田６５８番地６２,,33,102,7038265,,,,,,,2022-06-13,1,,,,,エムズグリーン,0
2592,9260003003940,新規,0,2022-06-13,2022-06-13,合同会社ＣＯＣＯ,,合同会社,岡山県,岡山市北区,岡南町２丁目２番１４号,,33,101,7000866,,,,,,,2022-06-13,1,,,,,ココ,0
2593,9270001008552,新規,0,2022-06-13,2022-06-13,ｏｆｆｉｃｅ竜ＲＹＵ株式会社,,株式会社,鳥取県,鳥取市,末広温泉町２２２番地,,31,201,6800833,,,,,,,2022-06-13,1,,,,,,0
2597,9290001097750,新規,0,2022-06-13,2022-06-13,ＮＤＫ株式会社,,株式会社,福岡県,八女市,黒土２３２番地３,,40,210,8340002,,,,,,,2022-06-13,1,,,,,エヌディーケー,0
2611,9340001024807,新規,0,2022-06-13,2022-06-13,株式会社ＬＡ‐ＺＯ,,株式会社,鹿児島県,姶良市,西餅田３８９２番地１,,46,225,8995431,,,,,,,2022-06-13,1,,,,,ラーソ,0
2633,9430001086821,新規,0,2022-06-13,2022-06-13,アイ・リンク・ロジスティクス株式会社,,株式会社,北海道,札幌市東区,北十四条東１６丁目２番２６号,,01,103,0650014,,,,,,,2022-06-13,1,,,,,アイリンクロジスティクス,0
2635,9430003013988,新規,0,2022-06-13,2022-06-13,合同会社ミライ,,合同会社,北海道,札幌市西区,発寒五条８丁目２番２５－１５０６号,,01,107,0630825,,,,,,,2022-06-13,1,,,,,ミライ,0
2639,9500001024278,新規,0,2022-06-13,2022-06-13,株式会社マスクル,,株式会社,愛媛県,松山市,余戸南１丁目９番６号,,38,201,7900047,,,,,,,2022-06-13,1,,,,,マスクル,0
2641,9500005008500,新規,0,2022-06-13,2022-06-13,一般社団法人地域課題解決研究所,,その他の設立登記法人,愛媛県,松山市,祓川１丁目４番１５号,,38,201,7918066,,,,,,,2022-06-13,1,,,,,チイキカダイカイケツケンキュウジョ,0
2647,9700150109520,新規,0,2022-06-13,2022-06-13,Ｗａｌｉ　Ｓｉｋａｎｄｅｒ　Ｔｒａｄｉｎｇ　ｃｏ．Ｌ．Ｔ．Ｄ,,外国会社等,福島県,須賀川市,大桑原字弥次郎内２番地１,,07,207,9620056,アフガニスタンカブールモスクプルーイーキシトオポジットサライイサハールグルセカンドフロアルームナンバー１－２,,,,,,2022-06-13,1,,,,,ワリシカンダールトレーデイングシイオーエルテイデイ,0
2648,9700150109537,新規,0,2022-06-13,2022-06-13,ＳＡＮＪＡＹＡ　ＬＡＬＩ　ＰＶＴ　ＬＴＤ,,外国会社等,群馬県,藤岡市,浄法寺４２２－１,,10,209,3701406,スリランカ民主社会主義共和国、バラッラ、ダラダガマ、コスワッタ,,,,,,2022-06-13,1,,,,,サンジヤヤラリプライベートリミテツド,0
