sequenceNumber,corporateNumber,process,correct,updateDate,changeDate,name,nameImageId,kind,prefectureName,cityName,streetNumber,addressImageId,prefectureCode,cityCode,postCode,addressOutside,addressOutsideImageId,closeDate,closeCause,successorCorporateNumber,changeCause,assignmentDate,latest,enName,enPrefectureName,enCityName,enAddressOutside,furigana,hihyoji
6,1010001252530,新規,0,2025-02-25,2025-02-25,ＨＢ株式会社,,株式会社,東京都,千代田区,丸の内２丁目６番１号,,13,101,1000005,,,,,,,2025-02-25,1,,,,,エイチビー,0
10,1010401188325,新規,0,2025-02-25,2025-02-25,株式会社ＳＡＫＥＭＯＮ,,株式会社,東京都,港区,虎ノ門１丁目１６番６号虎ノ門ＲＡＰＯ－ＴＯビルＵＣＦ７０３,,13,103,1050001,,,,,,,2025-02-25,1,,,,,サケモン,0
13,1010501053701,新規,0,2025-02-25,2025-02-25,株式会社風香,,株式会社,東京都,台東区,清川２丁目３３番６ー５０３号,,13,106,1110022,,,,,,,2025-02-25,1,,,,,フウカ,0
15,1010601066826,新規,0,2025-02-25,2025-02-25,合衆株式会社,,株式会社,東京都,江東区,亀戸３丁目６２番１０号ＳＡＮビル４０１号室,,13,108,1360071,,,,,,,2025-02-25,1,,,,,ガッシュウ,0
18,1010603011400,新規,0,2025-02-25,2025-02-25,合同会社Ｇｌａｄｉａｔｏｒ,,合同会社,東京都,墨田区,業平４丁目６番１５－３０３号,,13,107,1300002,,,,,,,2025-02-25,1,,,,,グラディエイター,0
22,1010801035861,新規,0,2025-02-25,2025-02-25,東京卓茵株式会社,,株式会社,東京都,大田区,東海３丁目７番３号東海ビル４１５室,,13,111,1430001,,,,,,,2025-02-25,1,,,,,トウキョウタクイン,0
26,1010903009730,新規,0,2025-02-25,2025-02-25,合同会社ＲＡ　Ｓｔｒａｔｅｇｏｓ,,合同会社,東京都,世田谷区,砧４丁目１８番２０号クラリティア世田谷砧１０４号室,,13,112,1570073,,,,,,,2025-02-25,1,,,,,アールエーストラテゴス,0
29,1011001167891,新規,0,2025-02-25,2025-02-25,株式会社ＴＯＣＣＡ,,株式会社,東京都,渋谷区,東３丁目１７番１４号クリスティエビス６階,,13,113,1500011,,,,,,,2025-02-25,1,,,,,トッカ,0
30,1011001167974,新規,0,2025-02-25,2025-02-25,株式会社ＵＮＤＥＲ　ＬＯＶＥＲＳ,,株式会社,東京都,渋谷区,神南１丁目１１番４号ＦＰＧリンクス神南５階,,13,113,1500041,,,,,,,2025-02-25,1,,,,,アンダーラバーズ,0
36,1011103015536,新規,0,2025-02-25,2025-02-25,ＨｅｌｉｘＨａｒｍｏｎｉａ合同会社,,合同会社,東京都,新宿区,市谷田町２丁目３８番３号シティ市ヶ谷２０５号,,13,104,1620843,,,,,,,2025-02-25,1,,,,,ヘリックスハーモニア,0
37,1011103015552,新規,0,2025-02-25,2025-02-25,合同会社ａｍｉｔｉｅ,,合同会社,東京都,新宿区,新宿５丁目４－１－２０７,,13,104,1600022,,,,,,,2025-02-25,1,,,,,アミティエ,0
46,1011703004137,新規,0,2025-02-25,2025-02-25,合同会社ＺＯＳＭＡ,,合同会社,東京都,江戸川区,西一之江３丁目３６番８号ドミールアリス４０２,,13,123,1320023,,,,,,,2025-02-25,1,,,,,ゾスマ,0
55,1012701018723,新規,0,2025-02-25,2025-02-25,株式会社モンペリエ,,株式会社,東京都,西東京市,富士町６丁目８番１４号,,13,229,2020014,,,,,,,2025-02-25,1,,,,,モンペリエ,0
64,1020003027847,新規,0,2025-02-25,2025-02-25,合同会社ミアスイ,,合同会社,神奈川県,横浜市磯子区,原町９番１９号,,14,107,2350008,,,,,,,2025-02-25,1,,,,,ミアスイ,0
65,1020003027896,新規,0,2025-02-25,2025-02-25,合同会社サザナ,,合同会社,神奈川県,横浜市戸塚区,俣野町１４０３番地,,14,110,2450066,,,,,,,2025-02-25,1,,,,,サザナ,0
68,1021005013281,新規,0,2025-02-25,2025-02-25,一般社団法人鎌倉朗読協会,,その他の設立登記法人,神奈川県,鎌倉市,常盤１０２２番地２フォレスト鎌倉２０１,,14,204,2480022,,,,,,,2025-02-25,1,,,,,カマクラロウドクキョウカイ,0
71,1030001165004,新規,0,2025-02-25,2025-02-25,株式会社きずな,,株式会社,埼玉県,八潮市,大字垳５３１番地４４,,11,234,3400824,,,,,,,2025-02-25,1,,,,,キズナ,0
79,1050005013553,新規,0,2025-02-25,2025-02-25,農事組合法人ＴＤ２,,その他の設立登記法人,茨城県,土浦市,田中３丁目１－６メゾン・ド・桜３０２,,08,203,3000048,,,,,,,2025-02-25,1,,,,,ティディニ,0
80,1070001042645,新規,0,2025-02-25,2025-02-25,株式会社Ｓｍｉｌｅ　Ｃｏｒｐｏｒａｔｉｏｎ,,株式会社,群馬県,渋川市,行幸田２４２番地１,,10,208,3770006,,,,,,,2025-02-25,1,,,,,スマイルコーポレーション,0
81,1070001042653,新規,0,2025-02-25,2025-02-25,株式会社ＧＵＮＳＡＮ,,株式会社,群馬県,前橋市,西片貝町５丁目４番地３９,,10,201,3710013,,,,,,,2025-02-25,1,,,,,グンサン,0
85,1090001019154,新規,0,2025-02-25,2025-02-25,株式会社ＭｉＣＳ,,株式会社,山梨県,甲府市,飯田５丁目１４番１４号,,19,201,4000035,,,,,,,2025-02-25,1,,,,,ミックス,0
88,1100003007989,新規,0,2025-02-25,2025-02-25,合同会社ＧＲＡＣＨＩ,,合同会社,長野県,安曇野市,穂高５８８７－１ベラヴィータ穂高２階Ｂ,,20,220,3998303,,,,,,,2025-02-25,1,,,,,グラッチ,0
91,1110001039067,新規,0,2025-02-25,2025-02-25,株式会社愛車ドラッグ,,株式会社,新潟県,新潟市北区,新崎２９３番地２６,,15,101,9503134,,,,,,,2025-02-25,1,,,,,アイシャドラッグ,0
102,1120001273177,新規,0,2025-02-25,2025-02-25,Ｃｏｎｎｅｃｔ不動産株式会社,,株式会社,大阪府,大阪市中央区,本町４丁目５番１５号本町ＯＳビル４０５号,,27,128,5410053,,,,,,,2025-02-25,1,,,,,コネクトフドウサン,0
103,1120001273193,新規,0,2025-02-25,2025-02-25,株式会社Ｓ．Ｋ．Ｃ,,株式会社,大阪府,寝屋川市,上神田２丁目６番９号,,27,215,5720052,,,,,,,2025-02-25,1,,,,,エスケーシー,0
110,1120101071118,新規,0,2025-02-25,2025-02-25,株式会社和泉商会,,株式会社,大阪府,阪南市,石田６３３番地の７三和マンションＡ,,27,232,5990221,,,,,,,2025-02-25,1,,,,,イズミショウカイ,0
113,1120901050493,新規,0,2025-02-25,2025-02-25,株式会社ストラリフォーム,,株式会社,大阪府,豊中市,豊南町東２丁目５番１１号,,27,203,5610814,,,,,,,2025-02-25,1,,,,,ストラリフォーム,0
118,1130001079053,新規,0,2025-02-25,2025-02-25,株式会社Ｙｏｕ,,株式会社,京都府,京都市中京区,三条通烏丸西入御倉町８５番地１烏丸ビル５階,,26,104,6048166,,,,,,,2025-02-25,1,,,,,ユウ,0
120,1140003021680,新規,0,2025-02-25,2025-02-25,合同会社神戸ガネーシャ,,合同会社,兵庫県,神戸市須磨区,大池町５丁目１８番７号ウイングゲート須磨鷹取１４０８号室,,28,107,6540026,,,,,,,2025-02-25,1,,,,,コウベガネーシャ,0
121,1140003021697,新規,0,2025-02-25,2025-02-25,Ｋ．ｗ．ｈｏｕｓｅ合同会社,,合同会社,兵庫県,神戸市須磨区,白川台２丁目３９番地の１４,,28,107,6540103,,,,,,,2025-02-25,1,,,,,ケイダブリューハウス,0
122,1150001027893,新規,0,2025-02-25,2025-02-25,正大株式会社,,株式会社,奈良県,奈良市,大保町４６６番地の１,,29,201,6301236,,,,,,,2025-02-25,1,,,,,セイダイ,0
126,1170001018503,新規,0,2025-02-25,2025-02-25,株式会社客殿,,株式会社,和歌山県,伊都郡かつらぎ町,大字上天野１６０番地,,30,341,6497141,,,,,,,2025-02-25,1,,,,,キャクデン,0
135,1180001165575,新規,0,2025-02-25,2025-02-25,株式会社ｏｏｈ‐ｌａｌａ,,株式会社,愛知県,名古屋市名東区,赤松台２１７番地の７,,23,115,4650016,,,,,,,2025-02-25,1,,,,,ウーララ,0
136,1180001165583,新規,0,2025-02-25,2025-02-25,株式会社マルツカ,,株式会社,愛知県,津島市,江東町３丁目１５３番地５,,23,208,4960855,,,,,,,2025-02-25,1,,,,,マルツカ,0
149,1230001020758,新規,0,2025-02-25,2025-02-25,槌音株式会社,,株式会社,富山県,富山市,藤木５番地１,,16,201,9300936,,,,,,,2025-02-25,1,,,,,ツチオト,0
152,1260003005069,新規,0,2025-02-25,2025-02-25,合同会社アガスティア,,合同会社,岡山県,倉敷市,東富井１１３６番地の３,,33,202,7100847,,,,,,,2025-02-25,1,,,,,アガスティア,0
162,1290001109067,新規,0,2025-02-25,2025-02-25,株式会社ライフ,,株式会社,福岡県,福岡市中央区,天神４丁目６番２８号天神ファーストビル７階,,40,133,8100001,,,,,,,2025-02-25,1,,,,,ライフ,0
163,1290001109083,新規,0,2025-02-25,2025-02-25,株式会社Ｒｅ．Ｄ,,株式会社,福岡県,福岡市博多区,住吉３丁目１１番８号,,40,132,8120018,,,,,,,2025-02-25,1,,,,,レッド,0
171,1350001019409,新規,0,2025-02-25,2025-02-25,株式会社ジービープラス,,株式会社,宮崎県,延岡市,妙見町３８７８番地１７８,,45,203,8890515,,,,,,,2025-02-25,1,,,,,ジービープラス,0
174,1360003014720,新規,0,2025-02-25,2025-02-25,合同会社凌空企画,,合同会社,沖縄県,那覇市,古島１丁目４番地６,,47,201,9020061,,,,,,,2025-02-25,1,,,,,リクキカク,0
177,1390001017887,新規,0,2025-02-25,2025-02-25,株式会社ＲＩＫＫＯ,,株式会社,山形県,山形市,七日町２丁目７番４６―１７０８号デュオヒルズ山形七日町タワー,,06,201,9900042,,,,,,,2025-02-25,1,,,,,リッコウ,0
178,1410001014072,新規,0,2025-02-25,2025-02-25,株式会社本戸鈑金,,株式会社,秋田県,横手市,婦気大堤字街道下２７番地１５,,05,203,0130063,,,,,,,2025-02-25,1,,,,,,0
184,1430001093759,新規,0,2025-02-25,2025-02-25,株式会社みらいサポート,,株式会社,北海道,石狩市,花川北二条５丁目６１番地,,01,235,0613212,,,,,,,2025-02-25,1,,,,,ミライサポート,0
187,1430003017303,新規,0,2025-02-25,2025-02-25,倉林アセット合同会社,,合同会社,北海道,札幌市中央区,南五条西１５丁目２－３－５０３,,01,101,0640805,,,,,,,2025-02-25,1,,,,,クラバヤシアセット,0
192,1500003003444,新規,0,2025-02-25,2025-02-25,合同会社Ｓａｔ　Ｃｒｅｓｔ,,合同会社,愛媛県,松山市,湯の山東５丁目２番地１１,,38,201,7910120,,,,,,,2025-02-25,1,,,,,サトクレスト,0
196,2010001252414,新規,0,2025-02-25,2025-02-25,パピラブ株式会社,,株式会社,東京都,中央区,銀座１丁目２２番１１号,,13,102,1040061,,,,,,,2025-02-25,1,,,,,パピラブ,0
197,2010005039634,新規,0,2025-02-25,2025-02-25,一般社団法人ＫＲＴＳ１,,その他の設立登記法人,東京都,千代田区,内幸町２丁目１番６号,,13,101,1000011,,,,,,,2025-02-25,1,,,,,ケイアールティーエスワン,0
203,2010501053667,新規,0,2025-02-25,2025-02-25,ＳＵＰＬＩＳＳ　ＪＡＰＡＮ株式会社,,株式会社,東京都,台東区,東上野３丁目３６番１０号５０２,,13,106,1100015,,,,,,,2025-02-25,1,,,,,サプリスジャパン,0
204,2010601066833,新規,0,2025-02-25,2025-02-25,株式会社ケイプレシジョン,,株式会社,東京都,墨田区,押上３丁目５７番１３号,,13,107,1310045,,,,,,,2025-02-25,1,,,,,ケイプレシジョン,0
211,2010901056856,新規,0,2025-02-25,2025-02-25,日本晋泰株式会社,,株式会社,東京都,世田谷区,上野毛３丁目１４番１２号,,13,112,1580093,,,,,,,2025-02-25,1,,,,,ニホンシンタイ,0
212,2010901056864,新規,0,2025-02-25,2025-02-25,Ａｓｔｅｌｌａ　Ｇｌｏｂａｌ株式会社,,株式会社,東京都,世田谷区,赤堤２丁目５１番４号,,13,112,1560044,,,,,,,2025-02-25,1,,,,,アステラグローバル,0
213,2010905004737,新規,0,2025-02-25,2025-02-25,一般社団法人Ｈ＆Ｓ　Ｉｎｓｔｉｔｕｔｅ,,その他の設立登記法人,東京都,世田谷区,下馬２丁目１２番１３号,,13,112,1540002,,,,,,,2025-02-25,1,,,,,エイチアンドエスインスティテュート,0
219,2011001167908,新規,0,2025-02-25,2025-02-25,株式会社ＧＡＴＥ,,株式会社,東京都,渋谷区,渋谷３丁目１２番２４号３０１号室,,13,113,1500002,,,,,,,2025-02-25,1,,,,,ゲート,0
220,2011001167924,新規,0,2025-02-25,2025-02-25,Ｓｈｅｌｌｆｉｓｈ株式会社,,株式会社,東京都,渋谷区,恵比寿南１丁目１９番７号,,13,113,1500022,,,,,,,2025-02-25,1,,,,,シェルフィッシュ,0
221,2011001167973,新規,0,2025-02-25,2025-02-25,株式会社ＧｅｎＣｒａｆｔ,,株式会社,東京都,渋谷区,渋谷３丁目２５番１０号,,13,113,1500002,,,,,,,2025-02-25,1,,,,,ジェンクラフト,0
222,2011001167981,新規,0,2025-02-25,2025-02-25,Ｑｌｕｅｓ株式会社,,株式会社,東京都,目黒区,上目黒２丁目９番３５号,,13,110,1530051,,,,,,,2025-02-25,1,,,,,クルーズ,0
223,2011005010873,新規,0,2025-02-25,2025-02-25,一般社団法人トラスト＆セーフティ協会,,その他の設立登記法人,東京都,渋谷区,円山町５番５号Ｎａｖｉ渋谷Ｖ３階,,13,113,1500044,,,,,,,2025-02-25,1,,,,,トラストアンドセーフティキョウカイ,0
231,2011301030377,新規,0,2025-02-25,2025-02-25,ビサイズ株式会社,,株式会社,東京都,杉並区,阿佐谷南１丁目７番１７号,,13,115,1660004,,,,,,,2025-02-25,1,,,,,ビサイズ,0
232,2011501031737,新規,0,2025-02-25,2025-02-25,来伊斌日本株式会社,00138106,株式会社,東京都,荒川区,西日暮里２丁目２６番１０号９階,,13,118,1160013,,,,,,,2025-02-25,1,,,,,ライブンニホン,0
233,2011501031753,新規,0,2025-02-25,2025-02-25,株式会社ヴィレッジパートナーズ,,株式会社,東京都,荒川区,町屋１丁目３番１２号２０７号室,,13,118,1160001,,,,,,,2025-02-25,1,,,,,ヴィレッジパートナーズ,0
235,2011703004136,新規,0,2025-02-25,2025-02-25,長恒合同会社,,合同会社,東京都,江戸川区,東小岩６丁目１７－３－２ｆ,,13,123,1330052,,,,,,,2025-02-25,1,,,,,チョウコウ,0
247,2012403006950,新規,0,2025-02-25,2025-02-25,合同会社ＡＬＶ　Ｊａｐａｎ,,合同会社,東京都,調布市,小島町２丁目１８‐３‐４０３号室,,13,208,1820026,,,,,,,2025-02-25,1,,,,,アルフジャパン,0
250,2012701018722,新規,0,2025-02-25,2025-02-25,株式会社京舞,,株式会社,東京都,西東京市,中町５丁目１４番８号,,13,229,2020013,,,,,,,2025-02-25,1,,,,,キョウブ,0
261,2013301053804,新規,0,2025-02-25,2025-02-25,ＤＯＲＡＹＡＫＩ　ＭＡＮＧＡ株式会社,,株式会社,東京都,豊島区,大塚三丁目３６番７号南大塚Ｔ＆Ｔビル２階,,13,116,1700000,,,,,,,2025-02-25,1,,,,,ドラヤキマンガ,0
263,2020003027862,新規,0,2025-02-25,2025-02-25,合同会社Ｅｌｅｍｅｎｔａｌ　Ｆｒｏｇｓ,,合同会社,神奈川県,川崎市高津区,上作延２丁目１４番７－１０２号ベルドゥムール溝の口森林公園,,14,134,2130034,,,,,,,2025-02-25,1,,,,,エレメンタルフロッグス,0
274,2030001165003,新規,0,2025-02-25,2025-02-25,株式会社Ｃ．ＲＫホールディングス,,株式会社,埼玉県,さいたま市中央区,上落合７丁目６番１８号,,11,105,3380001,,,,,,,2025-02-25,1,,,,,シーアールケーホールディングス,0
275,2030005022051,新規,0,2025-02-25,2025-02-25,特定非営利活動法人ＫＩＭＭＩＴ,,その他の設立登記法人,埼玉県,飯能市,美杉台４丁目２２番地８,,11,209,3570041,,,,,,,2025-02-25,1,,,,,キミット,0
278,2040001137538,新規,0,2025-02-25,2025-02-25,株式会社金御福祉,,株式会社,千葉県,千葉市花見川区,大日町１３４９番地１－Ｃ,,12,102,2620004,,,,,,,2025-02-25,1,,,,,キンゴフクシ,0
279,2040003026945,新規,0,2025-02-25,2025-02-25,合同会社Ｓａｖｅ　Ｐｏｉｎｔ,,合同会社,千葉県,千葉市緑区,おゆみ野南６丁目３４番地１３,,12,105,2660033,,,,,,,2025-02-25,1,,,,,セーブポイント,0
280,2050001056217,新規,0,2025-02-25,2025-02-25,株式会社つくば山麓ファーム,,株式会社,茨城県,つくば市,臼井１０６１番地,,08,220,3004211,,,,,,,2025-02-25,1,,,,,ツクバサンロクファーム,0
283,2050005013552,新規,0,2025-02-25,2025-02-25,農事組合法人ＴＤ１,,その他の設立登記法人,茨城県,土浦市,田中３丁目１－６メゾン・ド・桜３０２,,08,203,3000048,,,,,,,2025-02-25,1,,,,,ティディイチ,0
284,2060001037942,新規,0,2025-02-25,2025-02-25,株式会社レギュサーチ,,株式会社,栃木県,宇都宮市,石井町２２７５番地９,,09,201,3210912,,,,,,,2025-02-25,1,,,,,レギュサーチ,0
285,2060003005427,新規,0,2025-02-25,2025-02-25,ベリーコネクト合同会社,,合同会社,栃木県,真岡市,東光寺２丁目３番地６,,09,209,3214309,,,,,,,2025-02-25,1,,,,,ベリーコネクト,0
287,2070001042652,新規,0,2025-02-25,2025-02-25,さくら物産株式会社,,株式会社,群馬県,高崎市,柳川町６９番地２,,10,202,3700815,,,,,,,2025-02-25,1,,,,,サクラブッサン,0
293,2090001019153,新規,0,2025-02-25,2025-02-25,甲陽堂株式会社,,株式会社,山梨県,甲府市,丸の内２丁目２番１号ＣＲＯＳＳ５００・１Ｆ,,19,201,4000031,,,,,,,2025-02-25,1,,,,,コウヨウドウ,0
295,2090003002751,新規,0,2025-02-25,2025-02-25,合同会社フューチャー,,合同会社,山梨県,大月市,富浜町宮谷８５５番地,,19,206,4090501,,,,,,,2025-02-25,1,,,,,フューチャー,0
298,2100001038317,新規,0,2025-02-25,2025-02-25,株式会社軽井沢グリーンガーデン,,株式会社,長野県,北佐久郡軽井沢町,大字発地１１３０番地１６７,,20,321,3890113,,,,,,,2025-02-25,1,,,,,カルイザワグリーンガーデン,0
301,2110001039058,新規,0,2025-02-25,2025-02-25,株式会社岡田電気,,株式会社,新潟県,新潟市秋葉区,山谷町３丁目２０番１２号,,15,105,9560024,,,,,,,2025-02-25,1,,,,,オカダデンキ,0
309,2120001272970,新規,0,2025-02-25,2025-02-25,ＤＲ　Ｔｅｃｈ株式会社,,株式会社,大阪府,大阪市大正区,平尾４丁目１１番７号共栄ビル３０１号,,27,108,5510012,,,,,,,2025-02-25,1,,,,,ディーアールテック,0
310,2120001273060,新規,0,2025-02-25,2025-02-25,株式会社Ａｒｉｓｅ,,株式会社,大阪府,大阪市西区,靱本町１丁目１５－１０森田ビル５０８,,27,106,5500004,,,,,,,2025-02-25,1,,,,,アライズ,0
311,2120001273143,新規,0,2025-02-25,2025-02-25,朝霖株式会社,,株式会社,大阪府,大阪市城東区,新喜多東２丁目８番２３号ＭｉｘＰａｃｅ２０１号室,,27,118,5360017,,,,,,,2025-02-25,1,,,,,チョウリン,0
315,2120003028652,新規,0,2025-02-25,2025-02-25,合同会社Ｓｈｉｇｌａｒｅ,,合同会社,大阪府,大阪市中央区,南本町２丁目４番１６号本町デビスビル７階,,27,128,5410054,,,,,,,2025-02-25,1,,,,,シグレア,0
316,2120005024807,新規,0,2025-02-25,2025-02-25,未来社会保険労務士法人,,その他の設立登記法人,大阪府,大阪市中央区,島之内１丁目１３番３号－３０１号,,27,128,5420082,,,,,,,2025-02-25,1,,,,,ミライ,0
320,2120101071117,新規,0,2025-02-25,2025-02-25,株式会社ｚｕｍａｉｃａ,,株式会社,大阪府,富田林市,小金台４丁目１３番１４号,,27,214,5840083,,,,,,,2025-02-25,1,,,,,ズマイカ,0
321,2120103006285,新規,0,2025-02-25,2025-02-25,セレオナエージェンシー合同会社,,合同会社,大阪府,堺市中区,陶器北９９８番地６,,27,142,5998242,,,,,,,2025-02-25,1,,,,,セレオナエージェンシー,0
324,2130003010213,新規,0,2025-02-25,2025-02-25,合同会社ｒｅｓｐａｗｎ,,合同会社,京都府,京都市北区,上賀茂葵之森町７番地４,,26,101,6038034,,,,,,,2025-02-25,1,,,,,リスポーン,0
327,2130005017297,新規,0,2025-02-25,2025-02-25,一般社団法人ジーシー・リターンズ,,その他の設立登記法人,京都府,京都市東山区,東大路松原上る星野町９２,,26,105,6050000,,,,,,,2025-02-25,1,,,,,ジーシーリターンズ,0
338,2150003003504,新規,0,2025-02-25,2025-02-25,合同会社心蓮,,合同会社,奈良県,奈良市,三条町４７５番地松田ビル二階ＹＡＭＡＴＯＢＡＳＥ,,29,201,6308244,,,,,,,2025-02-25,1,,,,,シンレン,0
346,2180001165590,新規,0,2025-02-25,2025-02-25,株式会社尾崎工務店,00138121,株式会社,愛知県,名古屋市名東区,藤森１丁目９８番地,,23,115,4650026,,,,,,,2025-02-25,1,,,,,オザキコウムテン,0
350,2210005010186,新規,0,2025-02-25,2025-02-25,一般社団法人ＫＩＣＳ,,その他の設立登記法人,福井県,勝山市,元町１丁目１８番１９号,,18,206,9110804,,,,,,,2025-02-25,1,,,,,キックス,0
357,2260003005076,新規,0,2025-02-25,2025-02-25,合同会社Ｍｕｎｅ,,合同会社,岡山県,岡山市南区,福富西１丁目１４番４３－４号,,33,104,7028031,,,,,,,2025-02-25,1,,,,,ミューン,0
371,2290001109082,新規,0,2025-02-25,2025-02-25,フルートス株式会社,,株式会社,福岡県,福岡市博多区,麦野６丁目１０番４－４０６号,,40,132,8120882,,,,,,,2025-02-25,1,,,,,フルートス,0
377,2330001032908,新規,0,2025-02-25,2025-02-25,誠工社ホールディングス株式会社,,株式会社,熊本県,山鹿市,中８２８番地１,,43,208,8610531,,,,,,,2025-02-25,1,,,,,セイコウシャホールディングス,0
382,2330005010876,新規,0,2025-02-25,2025-02-25,山都町観光振興協同組合,,その他の設立登記法人,熊本県,上益城郡山都町,浜町５４番地,,43,447,8613518,,,,,,,2025-02-25,1,,,,,ヤマトチョウカンコウシンコウ,0
385,2360001034810,新規,0,2025-02-25,2025-02-25,沖縄恩納建設株式会社,,株式会社,沖縄県,国頭郡恩納村,字仲泊１３５４－１０－Ｃ棟,,47,311,9040415,,,,,,,2025-02-25,1,,,,,オキナワオンナケンセツ,0
391,2370001052282,新規,0,2025-02-25,2025-02-25,株式会社ＫＵＲＡ．ＰＲＯ,,株式会社,宮城県,仙台市青葉区,五橋２丁目１０－６－６０６,,04,101,9800022,,,,,,,2025-02-25,1,,,,,クラプロ,0
393,2380001035121,新規,0,2025-02-25,2025-02-25,株式会社ＴＡＫＩ　ＦＡＲＭ,,株式会社,福島県,西白河郡西郷村,大字羽太字狸屋敷２９番地３,,07,461,9618001,,,,,,,2025-02-25,1,,,,,タキファーム,0
404,2460003001039,新規,0,2025-02-25,2025-02-25,合同会社ヒバリ,,合同会社,北海道,釧路市,光陽町１８番７号,,01,206,0850051,,,,,,,2025-02-25,1,,,,,ヒバリ,0
408,2490003001985,新規,0,2025-02-25,2025-02-25,合同会社ＣＲＯＳＳ　ＬＩＦＥ,,合同会社,高知県,土佐市,用石５５番地の１,,39,205,7811152,,,,,,,2025-02-25,1,,,,,クロスライフ,0
425,3010003046524,新規,0,2025-02-25,2025-02-25,たから合同会社,,合同会社,東京都,千代田区,神田須田町１丁目７番地８ＶＯＲＴ秋葉原ＩＶ２Ｆ,00138110,13,101,1010041,,,,,,,2025-02-25,1,,,,,タカラ,0
441,3010601066709,新規,0,2025-02-25,2025-02-25,株式会社紀の源,,株式会社,東京都,江東区,南砂７丁目５番２１ー１１０３号,,13,108,1360076,,,,,,,2025-02-25,1,,,,,キノゲン,0
442,3010601066816,新規,0,2025-02-25,2025-02-25,株式会社ＹＵＴＡＫＡ　ＦＬＯＷＥＲ,,株式会社,東京都,江東区,潮見１丁目２９番１５号潮見一丁目アパート３０１２,,13,108,1350052,,,,,,,2025-02-25,1,,,,,ユタカフラワー,0
443,3010603011398,新規,0,2025-02-25,2025-02-25,宝盛祥商業貿易合同会社,,合同会社,東京都,江東区,亀戸９丁目３４番１－８０５号,,13,108,1360071,,,,,,,2025-02-25,1,,,,,タカラセイショウショウギョウボウエキ,0
456,3011001167915,新規,0,2025-02-25,2025-02-25,株式会社Ｔ＆Ｍエステート,,株式会社,東京都,目黒区,中根１丁目３番３号,,13,110,1520031,,,,,,,2025-02-25,1,,,,,ティーアンドエムエステート,0
457,3011001167956,新規,0,2025-02-25,2025-02-25,ＬＥＩＣＨＩ　ＪＡＰＡＮ株式会社,,株式会社,東京都,渋谷区,恵比寿３丁目４６番７－９０１号,,13,113,1500013,,,,,,,2025-02-25,1,,,,,レイチージャパン,0
458,3011001167997,新規,0,2025-02-25,2025-02-25,株式会社ＭＴＴ,,株式会社,東京都,渋谷区,代々木２丁目２３番１号９４０号,,13,113,1510053,,,,,,,2025-02-25,1,,,,,エムティーティー,0
460,3011003021054,新規,0,2025-02-25,2025-02-25,合同会社Ｍａｎｎａｍ,,合同会社,東京都,渋谷区,本町５丁目１０番８号フジコーポ１０１,,13,113,1510071,,,,,,,2025-02-25,1,,,,,マンナム,0
461,3011003021070,新規,0,2025-02-25,2025-02-25,合同会社ＮＡＲＥＡＩ,,合同会社,東京都,渋谷区,渋谷２丁目１９－１５宮益坂ビルディング６０９,,13,113,1500002,,,,,,,2025-02-25,1,,,,,ナレアイ,0
465,3011103015575,新規,0,2025-02-25,2025-02-25,合同会社ＭＴＫ,,合同会社,東京都,新宿区,新宿７丁目１２番１号新宿平和ビル１階,,13,104,1600022,,,,,,,2025-02-25,1,,,,,エムティーケー,0
466,3011301030376,新規,0,2025-02-25,2025-02-25,株式会社ＭＩＲＯＫＵ,,株式会社,東京都,杉並区,高円寺南３丁目３３番３号,,13,115,1660003,,,,,,,2025-02-25,1,,,,,ミロク,0
467,3011303005426,新規,0,2025-02-25,2025-02-25,合同会社ＨＡＩ　ＮＡＭ,,合同会社,東京都,杉並区,阿佐谷南３丁目４７番２０号細野壮Ｄ,,13,115,1660004,,,,,,,2025-02-25,1,,,,,ハイナム,0
471,3011501031744,新規,0,2025-02-25,2025-02-25,Ｂｏｎｏｓ‐ＲＶ株式会社,,株式会社,東京都,荒川区,西尾久７丁目４１－１４マスダ荘２０２,,13,118,1160011,,,,,,,2025-02-25,1,,,,,ボノスアールブイ,0
476,3011803006691,新規,0,2025-02-25,2025-02-25,合同会社Ｅｓｃｏｒｔ,,合同会社,東京都,足立区,新田３丁目３６－３１－５１３,,13,121,1230865,,,,,,,2025-02-25,1,,,,,エスコート,0
477,3012401042807,新規,0,2025-02-25,2025-02-25,株式会社ｈｏｍｅｙ,,株式会社,東京都,武蔵野市,御殿山２丁目２１番２１号,,13,203,1800005,,,,,,,2025-02-25,1,,,,,ホーミー,0
480,3012701018721,新規,0,2025-02-25,2025-02-25,株式会社ＮＮＫＲ,,株式会社,東京都,小平市,学園東町１丁目２番７号,,13,211,1870043,,,,,,,2025-02-25,1,,,,,エヌエヌケイアール,0
487,3020001161530,新規,0,2025-02-25,2025-02-25,株式会社ＳＫクリーン,,株式会社,神奈川県,横浜市中区,住吉町２丁目２４番地２,,14,104,2310013,,,,,,,2025-02-25,1,,,,,エスケークリーン,0
488,3020001161571,新規,0,2025-02-25,2025-02-25,株式会社ＡＩコンサルタント,,株式会社,神奈川県,横浜市南区,永田東２丁目２番１６－４号,,14,105,2320072,,,,,,,2025-02-25,1,,,,,エーアイコンサルタント,0
491,3021001084523,新規,0,2025-02-25,2025-02-25,株式会社イーエスエス,,株式会社,神奈川県,小田原市,南鴨宮３丁目４９番１５号カミイビル２０１,,14,206,2500875,,,,,,,2025-02-25,1,,,,,イーエスエス,0
495,3021002074283,新規,0,2025-02-25,2025-02-25,宝建設有限会社,,有限会社,神奈川県,横須賀市,日の出町１丁目２番地,,14,201,2380006,,,,,,,2025-02-25,1,,,,,タカラケンセツ,0
503,3030001164961,新規,0,2025-02-25,2025-02-25,一源ジャパン株式会社,,株式会社,埼玉県,朝霞市,根岸台１丁目６番５号,,11,227,3510005,,,,,,,2025-02-25,1,,,,,,0
504,3030001165002,新規,0,2025-02-25,2025-02-25,株式会社貴恵総業,,株式会社,埼玉県,児玉郡神川町,大字新宿２４６番地１,,11,383,3670235,,,,,,,2025-02-25,1,,,,,タカケイソウギョウ,0
505,3030001165010,新規,0,2025-02-25,2025-02-25,株式会社ＭＲＳ,,株式会社,埼玉県,春日部市,中央５丁目４番地７,,11,214,3440067,,,,,,,2025-02-25,1,,,,,エムアールエス,0
512,3050001056232,新規,0,2025-02-25,2025-02-25,株式会社ＳＯ,,株式会社,茨城県,水戸市,元吉田町１０７番地の２,,08,201,3100836,,,,,,,2025-02-25,1,,,,,エスオー,0
517,3050005013551,新規,0,2025-02-25,2025-02-25,農事組合法人土の子,,その他の設立登記法人,茨城県,土浦市,田中３丁目１－６メゾン・ド・桜３０２,,08,203,3000048,,,,,,,2025-02-25,1,,,,,ツチノコ,0
519,3070005010357,新規,0,2025-02-25,2025-02-25,ＮＰＯ法人いせさき地域ねこ連絡会ねこまる,,その他の設立登記法人,群馬県,伊勢崎市,日乃出町３３２番地１７,,10,204,3720022,,,,,,,2025-02-25,1,,,,,イセサキチイキネコレンラクカイネコマル,0
520,3080001026769,新規,0,2025-02-25,2025-02-25,株式会社Ｄａｈｌｉａ,,株式会社,静岡県,静岡市葵区,安西５丁目１３プチリヴェール３０２,,22,101,4200011,,,,,,,2025-02-25,1,,,,,ダリア,0
522,3080101025332,新規,0,2025-02-25,2025-02-25,株式会社Ｔ．Ｙ．ｗｏｒｋｓ,,株式会社,静岡県,沼津市,下香貫前角９４２番地の２２,,22,203,4100822,,,,,,,2025-02-25,1,,,,,ティーワイワークス,0
527,3100001038299,新規,0,2025-02-25,2025-02-25,Ｍｅｔｒｏｐｌａｎｎｉｎｇ　ＪＰ株式会社,,株式会社,長野県,北佐久郡軽井沢町,大字発地８８４番地５八風の郷芝桜通りＫ－２２,,20,321,3890113,,,,,,,2025-02-25,1,,,,,メトロプランニングジャパン,0
539,3120001273019,新規,0,2025-02-25,2025-02-25,株式会社ＴＡ‐ＢＯ,,株式会社,大阪府,枚方市,北片鉾町１０番９号,,27,210,5731158,,,,,,,2025-02-25,1,,,,,ターボ,0
540,3120001273126,新規,0,2025-02-25,2025-02-25,奕忱株式会社,,株式会社,大阪府,大阪市大正区,三軒家西３丁目４番１６号中山ビル４０３Ｃ,,27,108,5510001,,,,,,,2025-02-25,1,,,,,エキシン,0
541,3120001273167,新規,0,2025-02-25,2025-02-25,株式会社イナエ,,株式会社,大阪府,守口市,菊水通４丁目２１番２号,,27,209,5700032,,,,,,,2025-02-25,1,,,,,イナエ,0
545,3120101071116,新規,0,2025-02-25,2025-02-25,松本電工株式会社,,株式会社,大阪府,堺市北区,百舌鳥西之町２丁２７１番地１０２号室,,27,146,5918033,,,,,,,2025-02-25,1,,,,,マツモトデンコウ,0
546,3120101071132,新規,0,2025-02-25,2025-02-25,株式会社ｅｎ　ｄｅｓｉｇｎ,,株式会社,大阪府,和泉市,箕形町３丁目８番６号,,27,219,5940042,,,,,,,2025-02-25,1,,,,,エンデザイン,0
548,3130001079051,新規,0,2025-02-25,2025-02-25,株式会社屋根,,株式会社,京都府,京都市中京区,西ノ京塚本町１２番地３,,26,104,6048474,,,,,,,2025-02-25,1,,,,,ヤネ,0
552,3140001137485,新規,0,2025-02-25,2025-02-25,卓越国際株式会社,,株式会社,兵庫県,神戸市兵庫区,西仲町１－６,,28,105,6520835,,,,,,,2025-02-25,1,,,,,,0
553,3140001137519,新規,0,2025-02-25,2025-02-25,株式会社ニンベンラボ,,株式会社,兵庫県,神戸市灘区,曾和町１丁目２番４号,,28,102,6570063,,,,,,,2025-02-25,1,,,,,ニンベンラボ,0
554,3140001137535,新規,0,2025-02-25,2025-02-25,海都商事株式会社,,株式会社,兵庫県,神戸市中央区,相生町４丁目２番３３号３０３,,28,110,6500025,,,,,,,2025-02-25,1,,,,,カイトショウジ,0
557,3140003021695,新規,0,2025-02-25,2025-02-25,合同会社Ｊｉｕ,,合同会社,兵庫県,伊丹市,宮ノ前１丁目２番２４号,,28,207,6640895,,,,,,,2025-02-25,1,,,,,ジウ,0
559,3150001027883,新規,0,2025-02-25,2025-02-25,株式会社ＡＭＣ,,株式会社,奈良県,奈良市,四条大路１丁目１０番２２号２階,,29,201,6308014,,,,,,,2025-02-25,1,,,,,エーエムシー,0
560,3150001027891,新規,0,2025-02-25,2025-02-25,株式会社Ｎｏ．０００,,株式会社,奈良県,北葛城郡広陵町,馬見北４丁目３番８号,,29,426,6350831,,,,,,,2025-02-25,1,,,,,ナンバーゼロゼロゼロ,0
561,3150001027900,新規,0,2025-02-25,2025-02-25,株式会社リアクティブケア,,株式会社,奈良県,橿原市,曽我町３３６番地の５,,29,205,6340831,,,,,,,2025-02-25,1,,,,,リアクティブケア,0
573,3180003028027,新規,0,2025-02-25,2025-02-25,ＹｕｎＳＵＮ合同会社,,合同会社,愛知県,一宮市,奥町字芝原３４番地サニーコートＡ１０２号,,23,203,4910201,,,,,,,2025-02-25,1,,,,,ユンサン,0
574,3180003028035,新規,0,2025-02-25,2025-02-25,合同会社豊龍,,合同会社,愛知県,名古屋市中区,大須２丁目２０番２８号,,23,106,4600011,,,,,,,2025-02-25,1,,,,,ホウリュウ,0
575,3180003028043,新規,0,2025-02-25,2025-02-25,合同会社相・愛,,合同会社,愛知県,春日井市,宮町字宮町１１０番地７,,23,206,4860904,,,,,,,2025-02-25,1,,,,,アイアイ,0
578,3190001032021,新規,0,2025-02-25,2025-02-25,ＴＲＵＳＴＹ株式会社,,株式会社,三重県,桑名市,大字江場５６８番地,,24,205,5110836,,,,,,,2025-02-25,1,,,,,トラスティ,0
581,3200001043462,新規,0,2025-02-25,2025-02-25,株式会社ＡＧ　ＬＡＢＯ,,株式会社,岐阜県,下呂市,夏焼２７３３番地,,21,220,5092421,,,,,,,2025-02-25,1,,,,,エージーラボ,0
582,3230001020756,新規,0,2025-02-25,2025-02-25,株式会社日産レンタカー富山,,株式会社,富山県,富山市,西新庄１１番４６号,,16,201,9300981,,,,,,,2025-02-25,1,,,,,ニッサンレンタカートヤマ,0
584,3260001039926,新規,0,2025-02-25,2025-02-25,武田製材株式会社,,株式会社,岡山県,井原市,高屋町８９５番地,,33,207,7150024,,,,,,,2025-02-25,1,,,,,タケダセイザイ,0
585,3260001039934,新規,0,2025-02-25,2025-02-25,株式会社大日工業,,株式会社,岡山県,岡山市南区,築港新町２丁目１１番２７－２号,,33,104,7028056,,,,,,,2025-02-25,1,,,,,ダイニチコウギョウ,0
586,3280001009357,新規,0,2025-02-25,2025-02-25,株式会社ＳＴＳ,,株式会社,島根県,松江市,伊勢宮町５２７番地３ＤＡＮＤＡＮビル１０３号,,32,201,6900006,,,,,,,2025-02-25,1,,,,,エスティエス,0
590,3290001109073,新規,0,2025-02-25,2025-02-25,株式会社Ｆ３,,株式会社,福岡県,飯塚市,立岩９６４－３５－６０１,,40,205,8200003,,,,,,,2025-02-25,1,,,,,エフスリー,0
594,3290003016458,新規,0,2025-02-25,2025-02-25,ＮＡＤＥＷ　ＩＮＴＥＲＮＡＴＩＯＮＡＬ合同会社,,合同会社,福岡県,朝倉市,杷木久喜宮１８５９川崎屋アパート３０２号室,,40,228,8381514,,,,,,,2025-02-25,1,,,,,ナデウインターナショナル,0
599,3290801031286,新規,0,2025-02-25,2025-02-25,株式会社ｅｎｅｒｇｙコーポレーション,,株式会社,福岡県,京都郡苅田町,大字新津７０３番地１,,40,621,8000344,,,,,,,2025-02-25,1,,,,,エナジーコーポレーション,0
602,3330003010860,新規,0,2025-02-25,2025-02-25,合同会社ひまわりエステートプランニング,,合同会社,熊本県,熊本市北区,龍田７丁目２３番１号－２０１,,43,105,8618006,,,,,,,2025-02-25,1,,,,,ヒマワリエステートプランニング,0
604,3330005010875,新規,0,2025-02-25,2025-02-25,一般社団法人日本精神,,その他の設立登記法人,熊本県,菊池市,泗水町永４１１４番地２パストーン桜山Ａ１０２,,43,210,8611204,,,,,,,2025-02-25,1,,,,,ニホンセイシン,0
611,3370003006946,新規,0,2025-02-25,2025-02-25,合同会社ａｔイノベーション,,合同会社,宮城県,仙台市青葉区,花京院１丁目２番１５号仙台ソララプラザ３階ＳＰＡＣＥＳ仙台,,04,101,9800013,,,,,,,2025-02-25,1,,,,,アットイノベーション,0
612,3380001035120,新規,0,2025-02-25,2025-02-25,株式会社ＲＤ,,株式会社,福島県,福島市,渡利字大久保７７番地の１西棟,,07,201,9608141,,,,,,,2025-02-25,1,,,,,アールディー,0
626,3480003002240,新規,0,2025-02-25,2025-02-25,合同会社ａｉｋｏｕ００３,,合同会社,徳島県,名西郡石井町,石井字石井５１２番地１アネシス東屋３０７号室,,36,341,7793233,,,,,,,2025-02-25,1,,,,,アイコウゼロゼロスリー,0
636,4010001252569,新規,0,2025-02-25,2025-02-25,ヤマト科学商事株式会社,,株式会社,東京都,中央区,日本橋本町２丁目２番２号,,13,102,1030023,,,,,,,2025-02-25,1,,,,,ヤマトカガクショウジ,0
637,4010003046498,新規,0,2025-02-25,2025-02-25,合同会社ＳＦインベストメント,,合同会社,東京都,中央区,京橋２丁目１２番６号ＡＯＪ税理士法人内,,13,102,1040031,,,,,,,2025-02-25,1,,,,,エスエフインベストメント,0
638,4010003046507,新規,0,2025-02-25,2025-02-25,クレジット・ギャランティ１２号合同会社,,合同会社,東京都,千代田区,内神田１丁目３番７号４０１あすな会計事務所内,,13,101,1010047,,,,,,,2025-02-25,1,,,,,クレジットギャランティジュウニゴウ,0
639,4010005039624,新規,0,2025-02-25,2025-02-25,一般社団法人Ｍｉｘ　Ｓａｎｄ　Ｈａｋａｔａ　Ｅａｓｔ,,その他の設立登記法人,東京都,千代田区,霞が関３丁目２番５号,,13,101,1000013,,,,,,,2025-02-25,1,,,,,ミックスサンドハカタイースト,0
640,4010005039632,新規,0,2025-02-25,2025-02-25,一般社団法人ＤＬＳプロジェクト,,その他の設立登記法人,東京都,中央区,銀座４丁目６番１号三幸アセットマネジメント株式会社内,,13,102,1040061,,,,,,,2025-02-25,1,,,,,ディーエルエスプロジェクト,0
655,4010601012380,新規,0,2025-02-25,2025-02-25,大都建材株式会社,,株式会社,東京都,墨田区,京島３丁目１０番１号,,13,107,1310046,,,,,,,2025-02-25,1,,,,,ダイトケンザイ,0
663,4010901056870,新規,0,2025-02-25,2025-02-25,株式会社サニーデイワークス,,株式会社,東京都,世田谷区,北沢２丁目１番１６号アーバニティ下北沢３階,,13,112,1550031,,,,,,,2025-02-25,1,,,,,サニーデイワークス,0
666,4011001167971,新規,0,2025-02-25,2025-02-25,株式会社ＩＭＡＧＩＮＩＡ　ＬＡＢＯ,,株式会社,東京都,目黒区,青葉台２丁目２１番１３－８０３号トーア青葉台マンション,,13,110,1530042,,,,,,,2025-02-25,1,,,,,イマジニアラボ,0
668,4011003021037,新規,0,2025-02-25,2025-02-25,合同会社ＦＬＡＴ,,合同会社,東京都,渋谷区,神南１丁目１１－４ＦＰＧリンクス神南５階,,13,113,1500041,,,,,,,2025-02-25,1,,,,,フラット,0
669,4011003021045,新規,0,2025-02-25,2025-02-25,合同会社シモメ,,合同会社,東京都,目黒区,下目黒２丁目１６番１２－４０２号ジェイパーク目黒ＩＶ,00138113,13,110,1530064,,,,,,,2025-02-25,1,,,,,シモメ,0
673,4011101110749,新規,0,2025-02-25,2025-02-25,株式会社ＲＥＩＢ,,株式会社,東京都,新宿区,西新宿３丁目３番１３号西新宿水間ビル６階,,13,104,1600023,,,,,,,2025-02-25,1,,,,,アールイーアイビー,0
674,4011103015566,新規,0,2025-02-25,2025-02-25,合同会社ＧｉｆｕＴｏ　Ａｎｎｅｘ,,合同会社,東京都,新宿区,西新宿３丁目３番１３号西新宿水間ビル２Ｆ,,13,104,1600023,,,,,,,2025-02-25,1,,,,,ギフトアネックス,0
677,4011305003030,新規,0,2025-02-25,2025-02-25,一般社団法人尼子記念医学健康情報研究所,,その他の設立登記法人,東京都,杉並区,高井戸東２丁目５番１８号,,13,115,1680072,,,,,,,2025-02-25,1,,,,,アマコキネンイガクケンコウジョウホウケンキュウショ,0
679,4011401026851,新規,0,2025-02-25,2025-02-25,株式会社ＧＲＭ,,株式会社,東京都,板橋区,前野町１丁目４４番１２号,,13,119,1740063,,,,,,,2025-02-25,1,,,,,ジーアールエム,0
686,4011801045674,新規,0,2025-02-25,2025-02-25,ｗｉｔｈ　Ｒｅｓｏｒｔ株式会社,,株式会社,東京都,葛飾区,堀切５丁目３１番８号,,13,122,1240006,,,,,,,2025-02-25,1,,,,,ウィズリゾート,0
688,4011803006699,新規,0,2025-02-25,2025-02-25,ＡＴＧ　ＮＩＰＰＯＮ合同会社,,合同会社,東京都,足立区,入谷８丁目１５番２９号,,13,121,1210836,,,,,,,2025-02-25,1,,,,,エーティージーニッポン,0
690,4012701018712,新規,0,2025-02-25,2025-02-25,青嵐スカイヒル株式会社,,株式会社,東京都,清瀬市,旭が丘６丁目９３４番地１,,13,221,2040002,,,,,,,2025-02-25,1,,,,,セイランスカイヒル,0
693,4013301053819,新規,0,2025-02-25,2025-02-25,ＷＨアート株式会社,,株式会社,東京都,豊島区,西池袋４丁目１９番４号フェニックス池袋３０２号室,,13,116,1710021,,,,,,,2025-02-25,1,,,,,ダブリューエイチアート,0
697,4020001161455,新規,0,2025-02-25,2025-02-25,株式会社ＣＭＴ,,株式会社,神奈川県,横浜市港北区,篠原北１丁目３番４２号,,14,109,2220021,,,,,,,2025-02-25,1,,,,,,0
710,4030001164952,新規,0,2025-02-25,2025-02-25,ｈｏｒｕｈｏｒｕ株式会社,,株式会社,埼玉県,鴻巣市,天神１丁目１０番地－６１号１０２室,,11,217,3650036,,,,,,,2025-02-25,1,,,,,ホルホル,0
711,4030001164985,新規,0,2025-02-25,2025-02-25,株式会社トレジャー,,株式会社,埼玉県,久喜市,野久喜５４９番地１ローヤルシティ２２５,,11,232,3460002,,,,,,,2025-02-25,1,,,,,トレジャー,0
712,4030001165018,新規,0,2025-02-25,2025-02-25,株式会社ＢＰＯサービス,,株式会社,埼玉県,川口市,幸町１丁目３番３１号ライオンズシティ川口２１１,,11,203,3320016,,,,,,,2025-02-25,1,,,,,ビーピーオーサービス,0
713,4030003026201,新規,0,2025-02-25,2025-02-25,合同会社ＴＺＭ,,合同会社,埼玉県,新座市,西堀２丁目８番１４号,,11,230,3520031,,,,,,,2025-02-25,1,,,,,ティーゼットエム,0
730,4060001037932,新規,0,2025-02-25,2025-02-25,株式会社すこやかＲＡＲＡ,,株式会社,栃木県,佐野市,新吉水町３４４番地,,09,204,3270314,,,,,,,2025-02-25,1,,,,,スコヤカララ,0
731,4060001037940,新規,0,2025-02-25,2025-02-25,株式会社シーエムシー,,株式会社,栃木県,栃木市,大森町４３６番地４,,09,203,3280133,,,,,,,2025-02-25,1,,,,,シーエムシー,0
733,4070001042650,新規,0,2025-02-25,2025-02-25,株式会社恭月,,株式会社,群馬県,北群馬郡榛東村,大字山子田１０１７番地５,,10,344,3703502,,,,,,,2025-02-25,1,,,,,キョウヅキ,0
737,4080001026768,新規,0,2025-02-25,2025-02-25,株式会社ＲＥＶＯＬＶＥＲ,,株式会社,静岡県,静岡市清水区,八木間町１８５３番地,,22,103,4240212,,,,,,,2025-02-25,1,,,,,リボルバー,0
738,4080005007673,新規,0,2025-02-25,2025-02-25,一般社団法人志太榛原医療連携ネットワーク,,その他の設立登記法人,静岡県,藤枝市,駿河台４丁目１番１１号,,22,214,4260077,,,,,,,2025-02-25,1,,,,,シダハイバライリョウレンケイネットワーク,0
746,4120001273125,新規,0,2025-02-25,2025-02-25,簡乾株式会社,,株式会社,大阪府,大阪市大正区,三軒家西３丁目４番１６号中山ビル２１６Ｂ,,27,108,5510001,,,,,,,2025-02-25,1,,,,,カンケン,0
751,4120101071131,新規,0,2025-02-25,2025-02-25,株式会社ｍｏｒｅ,,株式会社,大阪府,河内長野市,木戸３丁目２番１５号,,27,216,5860001,,,,,,,2025-02-25,1,,,,,モア,0
765,4140001137526,新規,0,2025-02-25,2025-02-25,ユワイト株式会社,,株式会社,兵庫県,明石市,大久保町谷八木１１９１番地の１４３,,28,203,6740062,,,,,,,2025-02-25,1,,,,,ユワイト,0
769,4150001027890,新規,0,2025-02-25,2025-02-25,株式会社高田商事,,株式会社,奈良県,大和高田市,三和町１３番４３号,,29,202,6350014,,,,,,,2025-02-25,1,,,,,タカダショウジ,0
775,4180001165556,新規,0,2025-02-25,2025-02-25,永進サポート株式会社,,株式会社,愛知県,半田市,北二ツ坂町３丁目７番地の２２,,23,205,4750927,,,,,,,2025-02-25,1,,,,,エイシンサポート,0
776,4180001165572,新規,0,2025-02-25,2025-02-25,株式会社ＲＲＢ,,株式会社,愛知県,西春日井郡豊山町,大字豊場字八反１２１番地１,,23,342,4800202,,,,,,,2025-02-25,1,,,,,ラポールリブランディング,0
779,4180003028034,新規,0,2025-02-25,2025-02-25,合同会社アンヴェイル,,合同会社,愛知県,名古屋市中村区,名駅３丁目４－１０アルティメイト名駅１ｓｔ２階,,23,105,4500002,,,,,,,2025-02-25,1,,,,,アンヴェイル,0
781,4180301039550,新規,0,2025-02-25,2025-02-25,株式会社天野屋,,株式会社,愛知県,安城市,今本町２丁目１番１６号,,23,212,4460008,,,,,,,2025-02-25,1,,,,,アマノヤ,0
789,4210001020071,新規,0,2025-02-25,2025-02-25,株式会社ＦＩＲＳＴ,,株式会社,福井県,福井市,高柳３丁目３８０２番地ラ・プラージュ２０７,,18,201,9100837,,,,,,,2025-02-25,1,,,,,ファースト,0
807,4290001109072,新規,0,2025-02-25,2025-02-25,株式会社成峰,,株式会社,福岡県,福岡市中央区,六本松３丁目１６番６２号,,40,133,8100044,,,,,,,2025-02-25,1,,,,,セイホウ,0
808,4290001109080,新規,0,2025-02-25,2025-02-25,株式会社ランアセット不動産,,株式会社,福岡県,福岡市中央区,清川３丁目２６番１９－３０６号,,40,133,8100005,,,,,,,2025-02-25,1,,,,,ランアセットフドウサン,0
812,4290003016449,新規,0,2025-02-25,2025-02-25,ＭＩＮＨ　ＫＨＡＮＧ合同会社,,合同会社,福岡県,糟屋郡須惠町,大字新原２９１番地３レオネクストアーバン須恵中央１０８号,,40,344,8112111,,,,,,,2025-02-25,1,,,,,ミンカン,0
816,4320001020960,新規,0,2025-02-25,2025-02-25,株式会社エヌプラス,,株式会社,大分県,大分市,大字皆春２９７番地の５,,44,201,8700131,,,,,,,2025-02-25,1,,,,,エヌプラス,0
821,4340001027137,新規,0,2025-02-25,2025-02-25,株式会社上村製茶,,株式会社,鹿児島県,霧島市,牧園町万膳１５３８番地２６,,46,218,8996501,,,,,,,2025-02-25,1,,,,,カミムラセイチャ,0
835,4480001012752,新規,0,2025-02-25,2025-02-25,エムケイアドバンス株式会社,,株式会社,徳島県,徳島市,東沖洲１丁目１番地４,,36,201,7700873,,,,,,,2025-02-25,1,,,,,エムケイアドバンス,0
842,5010001252444,新規,0,2025-02-25,2025-02-25,株式会社リゾートファイナンス,,株式会社,東京都,千代田区,外神田３丁目１２番８号住友不動産秋葉原ビル,,13,101,1010021,,,,,,,2025-02-25,1,,,,,リゾートファイナンス,0
856,5010603011405,新規,0,2025-02-25,2025-02-25,ウィッシュボーンオフィス合同会社,,合同会社,東京都,墨田区,千歳１丁目４番５－９０２号,,13,107,1300025,,,,,,,2025-02-25,1,,,,,ウィッシュボーンオフィス,0
863,5010801035866,新規,0,2025-02-25,2025-02-25,株式会社Ｔｗｉｎｋｌｅ　Ｓｔａｒｓ,,株式会社,東京都,大田区,蒲田本町１丁目９－１－２１３,,13,111,1440053,,,,,,,2025-02-25,1,,,,,トゥインクルスターズ,0
864,5010805003159,新規,0,2025-02-25,2025-02-25,一般社団法人ラフィレ,,その他の設立登記法人,東京都,大田区,蒲田４丁目１９番５－８０４号,,13,111,1440052,,,,,,,2025-02-25,1,,,,,ラフィレ,0
874,5011001167970,新規,0,2025-02-25,2025-02-25,株式会社Ｂｅ　Ｃｕｒｉｏｕｓ,,株式会社,東京都,目黒区,下目黒３丁目４番１６号,,13,110,1530064,,,,,,,2025-02-25,1,,,,,ビーキュリアス,0
875,5011001167987,新規,0,2025-02-25,2025-02-25,株式会社ＡＬＥＳＴ,,株式会社,東京都,渋谷区,道玄坂１丁目１８番８号道玄坂プラザ仁科屋ビル７０１,,13,113,1500043,,,,,,,2025-02-25,1,,,,,アレスト,0
876,5011003020970,新規,0,2025-02-25,2025-02-25,セラーズクラブ合同会社,,合同会社,東京都,渋谷区,恵比寿南３丁目１番２４－６０１号,,13,113,1500022,,,,,,,2025-02-25,1,,,,,セラーズクラブ,0
877,5011003021036,新規,0,2025-02-25,2025-02-25,Ｃｏｉｑｉ．Ｃｒｅａｔｉｖｅ合同会社,,合同会社,東京都,渋谷区,渋谷２丁目１９－１５宮益坂ビルディング６０９,,13,113,1500002,,,,,,,2025-02-25,1,,,,,コイキクリエイティブ,0
878,5011005010862,新規,0,2025-02-25,2025-02-25,一般社団法人くにこだフットボール,,その他の設立登記法人,東京都,渋谷区,道玄坂１丁目１６番６号二葉ビル８ｂ,,13,113,1500043,,,,,,,2025-02-25,1,,,,,クニコダフットボール,0
883,5011101110764,新規,0,2025-02-25,2025-02-25,ロトルート株式会社,,株式会社,東京都,新宿区,西新宿３丁目３番１３号西新宿水間ビル６階,,13,104,1600023,,,,,,,2025-02-25,1,,,,,ロトルート,0
885,5011103015581,新規,0,2025-02-25,2025-02-25,合同会社ＭＣＡ総合研究所,,合同会社,東京都,新宿区,中落合４丁目２７番１６号,,13,104,1610032,,,,,,,2025-02-25,1,,,,,エムシーエーソウゴウケンキュウジョ,0
895,5011703004133,新規,0,2025-02-25,2025-02-25,京葉製作所合同会社,,合同会社,東京都,江戸川区,鹿骨２丁目６番６号,,13,123,1330073,,,,,,,2025-02-25,1,,,,,ケイヨウセイサクショ,0
896,5011703004141,新規,0,2025-02-25,2025-02-25,合同会社Ｎａｍａｓｔｅ　Ｊａｐａｎ,,合同会社,東京都,江戸川区,下篠崎町１番２３号,,13,123,1330064,,,,,,,2025-02-25,1,,,,,ナマステジャパン,0
897,5011803006698,新規,0,2025-02-25,2025-02-25,合同会社Ｋプラス,,合同会社,東京都,葛飾区,東水元６丁目２番４号,,13,122,1250033,,,,,,,2025-02-25,1,,,,,ケイプラス,0
902,5012703003208,新規,0,2025-02-25,2025-02-25,アトマリア合同会社,,合同会社,東京都,西東京市,緑町３丁目７番１３号,,13,229,1880002,,,,,,,2025-02-25,1,,,,,アトマリア,0
909,5020001161561,新規,0,2025-02-25,2025-02-25,株式会社プラス,,株式会社,神奈川県,横浜市西区,浅間町１丁目４番３号,,14,103,2200072,,,,,,,2025-02-25,1,,,,,プラス,0
910,5020001161603,新規,0,2025-02-25,2025-02-25,株式会社Ｒｅ‐ＴＲ３,,株式会社,神奈川県,横浜市港北区,菊名６丁目２１番７－４０３Ｂ号,,14,109,2220011,,,,,,,2025-02-25,1,,,,,リトラスリー,0
913,5021001084513,新規,0,2025-02-25,2025-02-25,ＨＣＦ株式会社,,株式会社,神奈川県,秦野市,南矢名２２２３番地の４東海ビル２０８Ａ,,14,211,2570003,,,,,,,2025-02-25,1,,,,,エイチシーエフ,0
914,5021001084538,新規,0,2025-02-25,2025-02-25,株式会社セイオウホールディングス,,株式会社,神奈川県,横須賀市,根岸町３丁目１５番３４号,,14,201,2390807,,,,,,,2025-02-25,1,,,,,セイオウホールディングス,0
916,5021003015607,新規,0,2025-02-25,2025-02-25,石山設備合同会社,,合同会社,神奈川県,高座郡寒川町,大曲２丁目１２番１４－３号,,14,321,2530113,,,,,,,2025-02-25,1,,,,,イシヤマセツビ,0
917,5021003015623,新規,0,2025-02-25,2025-02-25,合同会社バリューアップ,,合同会社,神奈川県,大和市,桜森２丁目２６番２６号クレストＭ桜森１０２,,14,213,2420028,,,,,,,2025-02-25,1,,,,,バリューアップ,0
918,5021003015631,新規,0,2025-02-25,2025-02-25,江之浦果樹園ｍａｒｕｅｓｕ合同会社,,合同会社,神奈川県,小田原市,江之浦３８２―２２,,14,206,2500025,,,,,,,2025-02-25,1,,,,,エノウラカジュエンマルエス,0
924,5030001164976,新規,0,2025-02-25,2025-02-25,和家株式会社,,株式会社,埼玉県,川口市,芝下２丁目８番地１６号,,11,203,3330848,,,,,,,2025-02-25,1,,,,,ナゴミヤ,0
925,5030001165009,新規,0,2025-02-25,2025-02-25,株式会社松原鍼灸マッサージ,,株式会社,埼玉県,志木市,館２丁目１番７－６０３号,,11,228,3530006,,,,,,,2025-02-25,1,,,,,マツバラシンキュウマッサージ,0
926,5030001165025,新規,0,2025-02-25,2025-02-25,株式会社ワンステップ不動産,,株式会社,埼玉県,久喜市,久喜東３丁目１６番１２号,,11,232,3460016,,,,,,,2025-02-25,1,,,,,ワンステップフドウサン,0
932,5030003026200,新規,0,2025-02-25,2025-02-25,合同会社リベルテ,,合同会社,埼玉県,鴻巣市,小松４丁目１０番４号,,11,217,3650041,,,,,,,2025-02-25,1,,,,,リベルテ,0
934,5040001137535,新規,0,2025-02-25,2025-02-25,株式会社Ｈ‐ｖａｌｕｅ,,株式会社,千葉県,松戸市,五香西３丁目１６番地の９,,12,207,2702218,,,,,,,2025-02-25,1,,,,,エイチバリュー,0
937,5050001056214,新規,0,2025-02-25,2025-02-25,株式会社ホームセイバー,,株式会社,茨城県,かすみがうら市,稲吉東５丁目２０番２３号,,08,230,3150053,,,,,,,2025-02-25,1,,,,,ホームセイバー,0
939,5050005013566,新規,0,2025-02-25,2025-02-25,特定非営利活動法人みんなでまちづくり,,その他の設立登記法人,茨城県,結城市,大字結城１３６３７番地,,08,207,3070001,,,,,,,2025-02-25,1,,,,,ミンナデマチヅクリ,0
940,5060003005440,新規,0,2025-02-25,2025-02-25,合同会社福寿の手,,合同会社,栃木県,宇都宮市,峰３丁目３１番地４８ドリームシティヒロ３０７,,09,201,3210942,,,,,,,2025-02-25,1,,,,,フクジュノテ,0
946,5080001026767,新規,0,2025-02-25,2025-02-25,株式会社グランベース,,株式会社,静岡県,静岡市葵区,新間１０８９番地７４０,,22,101,4211201,,,,,,,2025-02-25,1,,,,,グランベース,0
948,5080101025322,新規,0,2025-02-25,2025-02-25,株式会社ＪＳＦＣ,,株式会社,静岡県,富士市,大淵２４１０番地の１,,22,210,4170801,,,,,,,2025-02-25,1,,,,,ジェイエスエフシー,0
949,5080101025330,新規,0,2025-02-25,2025-02-25,株式会社ＣＯＬＣＨＥ,,株式会社,静岡県,伊東市,吉田７３０番地の１,,22,208,4140051,,,,,,,2025-02-25,1,,,,,コルチェ,0
950,5080105006459,新規,0,2025-02-25,2025-02-25,特定非営利活動法人ふじこども支援スポット,,その他の設立登記法人,静岡県,富士市,中里８１－２,,22,210,4170826,,,,,,,2025-02-25,1,,,,,,0
952,5080401005247,新規,0,2025-02-25,2025-02-25,丸和株式会社,,株式会社,静岡県,浜松市中央区,卸本町８９番地,,22,138,4328055,,,,,,,2025-02-25,1,,,,,マルワ,0
955,5080401027745,新規,0,2025-02-25,2025-02-25,Ｃｒｏｓｓ　Ｆｉｅｌｄ株式会社,,株式会社,静岡県,浜松市浜名区,高畑１６２番地の１,,22,139,4340034,,,,,,,2025-02-25,1,,,,,クロスフィールド,0
975,5120001273124,新規,0,2025-02-25,2025-02-25,健案株式会社,00138111,株式会社,大阪府,大阪市東成区,深江北３丁目４番２１号エクラ深江橋１０７Ｂ,,27,115,5370001,,,,,,,2025-02-25,1,,,,,ケンアン,0
983,5120101071130,新規,0,2025-02-25,2025-02-25,株式会社リトト,,株式会社,大阪府,堺市堺区,北瓦町１丁４番１６－１４０３号,,27,141,5900076,,,,,,,2025-02-25,1,,,,,リトト,0
984,5120103006290,新規,0,2025-02-25,2025-02-25,Ｔ＆Ｔ　ＩＮＦＩＮＩＴＹ合同会社,,合同会社,大阪府,富田林市,錦織東１丁目６番５号－１０６号室,,27,214,5840069,,,,,,,2025-02-25,1,,,,,ティーアンドティーインフィニティ,0
985,5122003003129,新規,0,2025-02-25,2025-02-25,合同会社Ｃｈｅｅｒｓ＆Ｃｏ．,,合同会社,大阪府,東大阪市,小阪２丁目９番２号ＣＴビュー小阪６０５号,,27,227,5770801,,,,,,,2025-02-25,1,,,,,チアーズアンドカンパニー,0
989,5130001079058,新規,0,2025-02-25,2025-02-25,Ａｌａｄｄｉｎ　Ｓｅｃｕｒｉｔｙ株式会社,,株式会社,京都府,京都市上京区,油小路中立売西入ル甲斐守町９７番地西陣産業創造會舘,,26,102,6020000,,,,,,,2025-02-25,1,,,,,アラジンセキュリティ,0
992,5140003021693,新規,0,2025-02-25,2025-02-25,合同会社さくら,,合同会社,兵庫県,西脇市,和田町５６４番地の４５２,,28,213,6770052,,,,,,,2025-02-25,1,,,,,,0
995,5170005007135,新規,0,2025-02-25,2025-02-25,一般社団法人廣浦マーケティング経営研究所,,その他の設立登記法人,和歌山県,橋本市,橋谷９３１番地,,30,203,6480095,,,,,,,2025-02-25,1,,,,,ヒロウラマーケティングケイエイケンキュウショ,0
1004,5180003028025,新規,0,2025-02-25,2025-02-25,社台電力合同会社,,合同会社,愛知県,名古屋市名東区,社台２丁目１７６番地の１,,23,115,4650092,,,,,,,2025-02-25,1,,,,,ヤシロダイデンリョク,0
1005,5180003028033,新規,0,2025-02-25,2025-02-25,ＴＡＭＡＮＧ合同会社,,合同会社,愛知県,春日井市,高蔵寺町北１丁目１７９ＫＥＤビル１Ｆ,,23,206,4870016,,,,,,,2025-02-25,1,,,,,タマン,0
1006,5180003028041,新規,0,2025-02-25,2025-02-25,合同会社ＲＥＶＯＬＴ,,合同会社,愛知県,名古屋市昭和区,荒田町３丁目２１番地の２,,23,107,4660844,,,,,,,2025-02-25,1,,,,,リボルト,0
1009,5180305009664,新規,0,2025-02-25,2025-02-25,農事組合法人ダイヤモンドファーム,,その他の設立登記法人,愛知県,豊橋市,内張町２－３－１１６オフィス重本Ａ室,,23,201,4418147,,,,,,,2025-02-25,1,,,,,ダイヤモンドファーム,0
1011,5200001043460,新規,0,2025-02-25,2025-02-25,株式会社新清工業,,株式会社,岐阜県,高山市,新宮町３５９６番地２,,21,203,5060035,,,,,,,2025-02-25,1,,,,,シンセイコウギョウ,0
1016,5210001020070,新規,0,2025-02-25,2025-02-25,株式会社ＥＳＴＥＬＬＥ,,株式会社,福井県,福井市,高柳３丁目３８０２番地ラ・プラージュ２０７,,18,201,9100837,,,,,,,2025-02-25,1,,,,,エステル,0
1021,5240001064560,新規,0,2025-02-25,2025-02-25,株式会社優建,,株式会社,広島県,東広島市,西条町田口１０３８９番地２６,,34,212,7390036,,,,,,,2025-02-25,1,,,,,ユウケン,0
1024,5250001021016,新規,0,2025-02-25,2025-02-25,株式会社ＧＡＢＢＩＡＮＯ　ＶＩＬＬＡ,,株式会社,山口県,下関市,豊北町大字神田３５０２番地１,,35,201,7595331,,,,,,,2025-02-25,1,,,,,ガッビアーノヴィラ,0
1026,5280003001921,新規,0,2025-02-25,2025-02-25,ハウスサービススマイル合同会社,,合同会社,島根県,松江市,竹矢町１８３９番地２,,32,201,6900023,,,,,,,2025-02-25,1,,,,,ハウスサービススマイル,0
1036,5290001108932,新規,0,2025-02-25,2025-02-25,株式会社２０ｓｔａｒｚ,,株式会社,福岡県,福岡市西区,今宿３丁目２番４６－２０３号,,40,135,8190167,,,,,,,2025-02-25,1,,,,,トゥエンティースターズ,0
1037,5290001109047,新規,0,2025-02-25,2025-02-25,株式会社クーリア,,株式会社,福岡県,久留米市,国分町１１５６番地３ベスタ久留米国分２０６号,,40,203,8390863,,,,,,,2025-02-25,1,,,,,クーリア,0
1047,5360001034816,新規,0,2025-02-25,2025-02-25,株式会社ソリーゾ沖縄,,株式会社,沖縄県,浦添市,宮城５丁目１１番６号,,47,208,9012126,,,,,,,2025-02-25,1,,,,,ソリーゾオキナワ,0
1049,5370001052296,新規,0,2025-02-25,2025-02-25,株式会社イースリー,,株式会社,宮城県,仙台市青葉区,木町通２丁目６番８－２０２号,,04,101,9800801,,,,,,,2025-02-25,1,,,,,イースリー,0
1050,5370003006944,新規,0,2025-02-25,2025-02-25,合同会社ランス,,合同会社,宮城県,仙台市青葉区,一番町１丁目１７－２４,,04,101,9800811,,,,,,,2025-02-25,1,,,,,ランス,0
1057,5400005008472,新規,0,2025-02-25,2025-02-25,医療法人拓帆会,,その他の設立登記法人,岩手県,盛岡市,月が丘２丁目２番６０号,,03,201,0200121,,,,,,,2025-02-25,1,,,,,タクホカイ,0
1062,5430001093763,新規,0,2025-02-25,2025-02-25,Ｃｈｅｎ　Ｅｎｔｅｒｐｒｉｓｅｓ株式会社,,株式会社,北海道,札幌市中央区,北五条西１１丁目１５番地４,,01,101,0600005,,,,,,,2025-02-25,1,,,,,チェンエンタープライジズ,0
1067,5480005007062,新規,0,2025-02-25,2025-02-25,四国油脂事業協同組合,,その他の設立登記法人,徳島県,徳島市,不動本町３丁目１７０４番地の１,,36,201,7700063,,,,,,,2025-02-25,1,,,,,シコクユシ,0
1068,5490001010977,新規,0,2025-02-25,2025-02-25,株式会社宝企画,,株式会社,高知県,高知市,八反町１丁目４番３４号,,39,201,7800912,,,,,,,2025-02-25,1,,,,,タカラキカク,0
1073,5500005008768,新規,0,2025-02-25,2025-02-25,企業組合たにすじよりみち,,その他の設立登記法人,愛媛県,西予市,野村町鳥鹿野５９８番地,,38,214,7971107,,,,,,,2025-02-25,1,,,,,タニスジヨリミチ,0
1080,6010001252542,新規,0,2025-02-25,2025-02-25,株式会社Ｐｏｔｅｎｔ,,株式会社,東京都,中央区,銀座１丁目１２－４Ｎ＆ＥＢＬＤ７階,,13,102,1040061,,,,,,,2025-02-25,1,,,,,ポテント,0
1081,6010003046521,新規,0,2025-02-25,2025-02-25,エリカ１２合同会社,,合同会社,東京都,千代田区,丸の内１丁目４番１号東京共同会計事務所内,,13,101,1000005,,,,,,,2025-02-25,1,,,,,エリカトゥエルブ,0
1087,6010005039622,新規,0,2025-02-25,2025-02-25,一般社団法人亜洲口腔発展協会,,その他の設立登記法人,東京都,中央区,銀座６丁目１３番１６号銀座ＷａｌｌビルＵＣＦ５階,,13,102,1040061,,,,,,,2025-02-25,1,,,,,アジアコウクウハッテンキョウカイ,0
1097,6010405024075,新規,0,2025-02-25,2025-02-25,社会保険労務士法人ＡＳＣＯＰＥ,,その他の設立登記法人,東京都,港区,三田１丁目４番２８号三田国際ビル２６階,,13,103,1080073,,,,,,,2025-02-25,1,,,,,アスコープ,0
1106,6010901056869,新規,0,2025-02-25,2025-02-25,株式会社を,,株式会社,東京都,世田谷区,北沢４丁目２７番６号パークブリッジ下北沢３０１,,13,112,1550031,,,,,,,2025-02-25,1,,,,,ヲ,0
1107,6010901056877,新規,0,2025-02-25,2025-02-25,宮谷コンサルティング株式会社,,株式会社,東京都,世田谷区,奥沢２丁目３７番１６号メゾン自由が丘１０３号室,,13,112,1580083,,,,,,,2025-02-25,1,,,,,ミヤタニコンサルティング,0
1113,6011001167805,新規,0,2025-02-25,2025-02-25,株式会社ｎｕｒｉ,,株式会社,東京都,渋谷区,代々木３丁目４１番５号,,13,113,1510053,,,,,,,2025-02-25,1,,,,,ヌリ,0
1114,6011001167904,新規,0,2025-02-25,2025-02-25,株式会社ＨＯＮＥＹ,,株式会社,東京都,渋谷区,神宮前６丁目７番８号ネスト原宿パートＶＩ３Ｂ号室,00138114,13,113,1500001,,,,,,,2025-02-25,1,,,,,ハニー,0
1115,6011001167920,新規,0,2025-02-25,2025-02-25,株式会社ＩＮＣ,,株式会社,東京都,渋谷区,道玄坂２丁目６番１１号鳥升ビル５階,,13,113,1500043,,,,,,,2025-02-25,1,,,,,アイエヌシ,0
1116,6011001167986,新規,0,2025-02-25,2025-02-25,株式会社ＴＫＤＭＣＲ,,株式会社,東京都,渋谷区,渋谷２丁目１９‐１５宮益坂ビルディング６０９,,13,113,1500002,,,,,,,2025-02-25,1,,,,,ティーケーディーエムシーアール,0
1118,6011003021035,新規,0,2025-02-25,2025-02-25,合同会社Ｌｏｎｇ　Ｔｉｍｅ　Ｃｈａｒｔｅｒ,,合同会社,東京都,目黒区,南３丁目１２－１９東栄コーポ２０３,,13,110,1520013,,,,,,,2025-02-25,1,,,,,ロングタイムチャーター,0
1121,6011101110747,新規,0,2025-02-25,2025-02-25,株式会社Ａｉｍｉｎｇ,,株式会社,東京都,新宿区,市谷薬王寺町１０番１５号,,13,104,1620063,,,,,,,2025-02-25,1,,,,,エイミング,0
1122,6011101110755,新規,0,2025-02-25,2025-02-25,株式会社ＭＳ　ＩＮＴＥＲＮＡＴＩＯＮＡＬ,,株式会社,東京都,新宿区,百人町１丁目８番１１号オリエンタルビル３階３０１号室,,13,104,1690073,,,,,,,2025-02-25,1,,,,,エムエスインターナショナル,0
1123,6011101110763,新規,0,2025-02-25,2025-02-25,株式会社ＣＳ　Ｌｉｎｋ,,株式会社,東京都,新宿区,河田町６－３０ヴィラメール古角Ｂ２０２,,13,104,1620054,,,,,,,2025-02-25,1,,,,,シーエスリンク,0
1125,6011103015580,新規,0,2025-02-25,2025-02-25,合同会社ルリアン,,合同会社,東京都,新宿区,神楽坂５丁目２６番地,,13,104,1620825,,,,,,,2025-02-25,1,,,,,ルリアン,0
1126,6011203004616,新規,0,2025-02-25,2025-02-25,ＦｒｅｅｄｏｍＥＫ合同会社,,合同会社,東京都,中野区,野方４丁目１１番１１号マナーハウスＫＩＩ１０２,00138105,13,114,1650027,,,,,,,2025-02-25,1,,,,,フリーダムイーケー,0
1129,6011503006436,新規,0,2025-02-25,2025-02-25,ＭＯＮ　ｈｏｕｓｅ合同会社,,合同会社,東京都,北区,堀船３丁目２６番８号,,13,117,1140004,,,,,,,2025-02-25,1,,,,,モンハウス,0
1130,6011703004140,新規,0,2025-02-25,2025-02-25,合同会社ＴｉＭＯＳＰＡ,,合同会社,東京都,江戸川区,南篠崎町５丁目１１―１,,13,123,1330065,,,,,,,2025-02-25,1,,,,,ティモスパ,0
1133,6011801045672,新規,0,2025-02-25,2025-02-25,株式会社ＵＵ‐ＢＥＳＴ,,株式会社,東京都,足立区,宮城１丁目１４－１７,,13,121,1200047,,,,,,,2025-02-25,1,,,,,ユーベスト,0
1134,6011801045680,新規,0,2025-02-25,2025-02-25,株式会社大福美創,,株式会社,東京都,葛飾区,水元４丁目８番１６号,,13,122,1250032,,,,,,,2025-02-25,1,,,,,ダイフクビソウ,0
1135,6011803006697,新規,0,2025-02-25,2025-02-25,ＦＬＹＩＮＧ　ＭＯＬＥ合同会社,,合同会社,東京都,葛飾区,西水元６丁目６番１０号宇田川運輸ビル２Ｆ,,13,122,1250031,,,,,,,2025-02-25,1,,,,,フライングモール,0
1138,6012301014275,新規,0,2025-02-25,2025-02-25,株式会社ＳａｉｔｏＡｕｔｏＷｏｒｋｓ,,株式会社,東京都,町田市,金森１丁目３１番６号,,13,209,1940012,,,,,,,2025-02-25,1,,,,,サイトウオートワークス,0
1140,6012703003207,新規,0,2025-02-25,2025-02-25,合同会社ＹＭ．ＲＯＳＥ,,合同会社,東京都,西東京市,南町５丁目９番１５－５号,,13,229,1880012,,,,,,,2025-02-25,1,,,,,ワイエムローズ,0
1141,6012801023767,新規,0,2025-02-25,2025-02-25,ＵＰ‐ＦＩＥＬＤ株式会社,,株式会社,東京都,日野市,多摩平７丁目１９番地の１５,,13,212,1910062,,,,,,,2025-02-25,1,,,,,アップフィールド,0
1142,6013105001864,新規,0,2025-02-25,2025-02-25,社会保険労務士法人池谷事務所,,その他の設立登記法人,東京都,福生市,武蔵野台２丁目３３番地４９,,13,218,1970013,,,,,,,2025-02-25,1,,,,,イケヤジムショ,0
1147,6020001161503,新規,0,2025-02-25,2025-02-25,株式会社Ｎ’ｓｋ,,株式会社,神奈川県,横浜市港南区,芹が谷３丁目８番１１号,,14,111,2330006,,,,,,,2025-02-25,1,,,,,エヌズケー,0
1148,6020001161544,新規,0,2025-02-25,2025-02-25,株式会社ＹＥＮＡ,,株式会社,神奈川県,横浜市緑区,寺山町１０７番地７ハルオ中山ビル２０２,,14,113,2260013,,,,,,,2025-02-25,1,,,,,イイナ,0
1149,6020001161569,新規,0,2025-02-25,2025-02-25,株式会社ＮＪＭ３,,株式会社,神奈川県,横浜市西区,南幸１丁目１番１号,,14,103,2200005,,,,,,,2025-02-25,1,,,,,エヌジェイエムスリー,0
1151,6020003027850,新規,0,2025-02-25,2025-02-25,アッペンダウン合同会社,,合同会社,神奈川県,川崎市中原区,下小田中６丁目３３番１０号ジャベル２０１,,14,133,2110041,,,,,,,2025-02-25,1,,,,,アッペンダウン,0
1159,6021001084529,新規,0,2025-02-25,2025-02-25,つばき建設株式会社,,株式会社,神奈川県,海老名市,東柏ケ谷５丁目１４番１１,,14,215,2430401,,,,,,,2025-02-25,1,,,,,ツバキケンセツ,0
1161,6021003015622,新規,0,2025-02-25,2025-02-25,合同会社ＮＭＴ,,合同会社,神奈川県,藤沢市,並木台２丁目６番地の１８,,14,205,2510005,,,,,,,2025-02-25,1,,,,,エヌエムティー,0
1167,6030001165024,新規,0,2025-02-25,2025-02-25,株式会社イカクホシ,,株式会社,埼玉県,川口市,幸町２丁目６番１２－９０１号,,11,203,3320016,,,,,,,2025-02-25,1,,,,,イカクホシ,0
1169,6030003026166,新規,0,2025-02-25,2025-02-25,京龍合同会社,,合同会社,埼玉県,川口市,元郷５丁目３－１５の２０２,,11,203,3320011,,,,,,,2025-02-25,1,,,,,キョウリュウ,0
1170,6030003026199,新規,0,2025-02-25,2025-02-25,合同会社サイバ,,合同会社,埼玉県,さいたま市緑区,原山２丁目１０番４－１号,,11,109,3360931,,,,,,,2025-02-25,1,,,,,サイバ,0
1180,6050001056196,新規,0,2025-02-25,2025-02-25,株式会社結工業,,株式会社,茨城県,鹿嶋市,大字長栖１８７９番地６０,,08,222,3140022,,,,,,,2025-02-25,1,,,,,ユイコウギョウ,0
1184,6060001037947,新規,0,2025-02-25,2025-02-25,株式会社フォルテ,,株式会社,栃木県,小山市,大字間々田１５８番地１サクラガーデン１階,,09,208,3290205,,,,,,,2025-02-25,1,,,,,フォルテ,0
1186,6070001042649,新規,0,2025-02-25,2025-02-25,群峰貿易株式会社,,株式会社,群馬県,高崎市,京目町４５５－１１,,10,202,3700011,,,,,,,2025-02-25,1,,,,,グンポウボウエキ,0
1189,6080001026766,新規,0,2025-02-25,2025-02-25,株式会社Ｗｅｌｌ　Ｂｒｉｄｇｅ,,株式会社,静岡県,焼津市,栄町４丁目２番５号,,22,212,4250027,,,,,,,2025-02-25,1,,,,,ウェルブリッジ,0
1196,6080401027760,新規,0,2025-02-25,2025-02-25,浜液ホールディングス株式会社,,株式会社,静岡県,浜松市中央区,米津町１１９０番地,,22,138,4328056,,,,,,,2025-02-25,1,,,,,ハマエキホールディングス,0
1200,6100001038305,新規,0,2025-02-25,2025-02-25,株式会社Ｍｉｒａｇｅ　Ｄｅｓｉｇｎ,,株式会社,長野県,長野市,大字若槻団地４番地４３,,20,201,3810051,,,,,,,2025-02-25,1,,,,,ミラージュデザイン,0
1201,6100001038313,新規,0,2025-02-25,2025-02-25,ＴＨＩＢＵＬＩＮＧ株式会社,,株式会社,長野県,北佐久郡軽井沢町,大字追分１５３２－６０,,20,321,3890115,,,,,,,2025-02-25,1,,,,,シブリング,0
1203,6100005013295,新規,0,2025-02-25,2025-02-25,一般社団法人アルプス雪崩研究所,,その他の設立登記法人,長野県,東筑摩郡生坂村,５８９４番地,,20,448,3997201,,,,,,,2025-02-25,1,,,,,アルプスナダレケンキュウショ,0
1207,6120001023949,新規,0,2025-02-25,2025-02-25,株式会社千州産業,,株式会社,大阪府,大阪市天王寺区,清水谷町１７番２６号,,27,109,5430011,,,,,,,2025-02-25,1,,,,,センシュウサンギョウ,0
1213,6120001273131,新規,0,2025-02-25,2025-02-25,株式会社ＰＩＥＲ　ＧＯＬＤ,,株式会社,大阪府,大阪市中央区,南本町２丁目５番１３号ブランズタワー２７０８号室,,27,128,5410054,,,,,,,2025-02-25,1,,,,,ピアゴールド,0
1218,6120101071121,新規,0,2025-02-25,2025-02-25,ネクスライズ株式会社,,株式会社,大阪府,松原市,天美南２丁目１３１番地の１７,,27,217,5800033,,,,,,,2025-02-25,1,,,,,ネクスライズ,0
1219,6120903005540,新規,0,2025-02-25,2025-02-25,合同会社織都,,合同会社,大阪府,豊中市,庄内東町２丁目１‐４庄内駅前庁舎２階,,27,203,5610831,,,,,,,2025-02-25,1,,,,,オルト,0
1220,6120905006693,新規,0,2025-02-25,2025-02-25,一般社団法人アート書道協会,,その他の設立登記法人,大阪府,箕面市,白島３丁目６番３号１０５,,27,220,5620012,,,,,,,2025-02-25,1,,,,,アートショドウキョウカイ,0
1221,6122001038927,新規,0,2025-02-25,2025-02-25,株式会社ＥＲＨ,,株式会社,大阪府,東大阪市,荒川２丁目５番１３号,,27,227,5770843,,,,,,,2025-02-25,1,,,,,イーアールーエイチ,0
1224,6130001078983,新規,0,2025-02-25,2025-02-25,Ｃｒｕｎｃｈｂｏｘ　Ｃｏｎｓｕｌｔｉｎｇ株式会社,,株式会社,京都府,京都市下京区,五条通油小路西入ル北側小泉町１１３－１パティオ林４０２号室,,26,106,6000000,,,,,,,2025-02-25,1,,,,,クランチボックスコンサルティング,0
1225,6130001079049,新規,0,2025-02-25,2025-02-25,ＯＥＳ　Ｈｏｌｄｉｎｇｓ株式会社,,株式会社,京都府,京都市下京区,七条御所ノ内中町６４番地１,,26,106,6008862,,,,,,,2025-02-25,1,,,,,オーイーエスホールディングス,0
1232,6140003021668,新規,0,2025-02-25,2025-02-25,合同会社山ノ端社,,合同会社,兵庫県,神戸市垂水区,塩屋町４丁目１８番４号,,28,108,6550872,,,,,,,2025-02-25,1,,,,,ヤマノハシャ,0
1234,6150001027897,新規,0,2025-02-25,2025-02-25,株式会社大奈,,株式会社,奈良県,北葛城郡河合町,高塚台１丁目２０番地１２,00138112,29,427,6360071,,,,,,,2025-02-25,1,,,,,ダイナ,0
1236,6150003003509,新規,0,2025-02-25,2025-02-25,合同会社ユリイカ,,合同会社,奈良県,奈良市,百楽園５丁目１４番１―２１１号,,29,201,6310024,,,,,,,2025-02-25,1,,,,,ユリイカ,0
1243,6180001165579,新規,0,2025-02-25,2025-02-25,株式会社アトリエキャット,,株式会社,愛知県,丹羽郡扶桑町,大字柏森字天神３０１番地１,,23,362,4800103,,,,,,,2025-02-25,1,,,,,アトリエキャット,0
1245,6180003028040,新規,0,2025-02-25,2025-02-25,合同会社ＬａＬａ,,合同会社,愛知県,名古屋市中村区,名駅４丁目２４番５号第２森ビル４０１,,23,105,4500002,,,,,,,2025-02-25,1,,,,,ララ,0
1249,6180301039549,新規,0,2025-02-25,2025-02-25,セルエイド株式会社,,株式会社,愛知県,安城市,住吉町５丁目２７番地３,,23,212,4460072,,,,,,,2025-02-25,1,,,,,セルエイド,0
1250,6180305009663,新規,0,2025-02-25,2025-02-25,農事組合法人ヤナギサワ,,その他の設立登記法人,愛知県,豊橋市,内張町２－３－１１６オフィス重本Ｃ室,,23,201,4418147,,,,,,,2025-02-25,1,,,,,ヤナギサワ,0
1258,6240001064568,新規,0,2025-02-25,2025-02-25,株式会社マテリアル,,株式会社,広島県,尾道市,高須町一丁目４７５０番地６,,34,205,7290141,,,,,,,2025-02-25,1,,,,,,0
1265,6260003005072,新規,0,2025-02-25,2025-02-25,合同会社コウノ,,合同会社,岡山県,岡山市中区,江崎１６５番１１,,33,102,7028005,,,,,,,2025-02-25,1,,,,,コウノ,0
1273,6290003016447,新規,0,2025-02-25,2025-02-25,合同会社レモン,,合同会社,福岡県,福岡市中央区,天神２丁目２番１２号Ｔ＆Ｊビルディング７Ｆ,,40,133,8100001,,,,,,,2025-02-25,1,,,,,レモン,0
1275,6320001020959,新規,0,2025-02-25,2025-02-25,株式会社脇屋商会,,株式会社,大分県,別府市,大字鶴見１３１１番地の１,,44,202,8740840,,,,,,,2025-02-25,1,,,,,ワキヤショウカイ,0
1276,6330001032912,新規,0,2025-02-25,2025-02-25,株式会社ＡｎｄＤａｉｓｙ,,株式会社,熊本県,熊本市東区,長嶺西３丁目２番５９号,,43,102,8618037,,,,,,,2025-02-25,1,,,,,アンドデイジー,0
1279,6360001034807,新規,0,2025-02-25,2025-02-25,株式会社なかぐすく未来,,株式会社,沖縄県,中頭郡中城村,字添石６９番地１,,47,328,9012404,,,,,,,2025-02-25,1,,,,,ナカグスクミライ,0
1280,6360001034815,新規,0,2025-02-25,2025-02-25,株式会社普賢,,株式会社,沖縄県,沖縄市,美原１丁目５番１号,,47,211,9042155,,,,,,,2025-02-25,1,,,,,フゲン,0
1287,6380003005969,新規,0,2025-02-25,2025-02-25,合同会社すえひろがり,,合同会社,福島県,須賀川市,並木町２８３番地５,,07,207,9620836,,,,,,,2025-02-25,1,,,,,スエヒロガリ,0
1291,6430001093746,新規,0,2025-02-25,2025-02-25,株式会社クラシテク,,株式会社,北海道,札幌市中央区,南二条西５丁目３１番１号ＲＭＢｌｄ．７０１,,01,101,0600062,,,,,,,2025-02-25,1,,,,,クラシテク,0
1292,6430001093754,新規,0,2025-02-25,2025-02-25,株式会社外来種防除円卓会議,,株式会社,北海道,札幌市中央区,北一条東１１丁目２２番地,,01,101,0600031,,,,,,,2025-02-25,1,,,,,ガイライシュボウジョエンタクカイギ,0
1293,6430001093762,新規,0,2025-02-25,2025-02-25,株式会社ＯＩＣ,,株式会社,北海道,札幌市中央区,南一条西７丁目１番地１ビルヂングフクダ５階,,01,101,0600061,,,,,,,2025-02-25,1,,,,,オーアイシー,0
1297,6430003017307,新規,0,2025-02-25,2025-02-25,合同会社スリーアールプラス,,合同会社,北海道,札幌市手稲区,西宮の沢二条４丁目１６番６号,,01,109,0060002,,,,,,,2025-02-25,1,,,,,スリーアールプラス,0
1298,6470003002817,新規,0,2025-02-25,2025-02-25,Ｇｒａｄａｔｉｏｎ　ｌｉｎＧ合同会社,,合同会社,香川県,高松市,屋島西町２２９３番地１シーサイドハイツ屋島４０３,,37,201,7610113,,,,,,,2025-02-25,1,,,,,グラデーションリング,0
1309,7010001252376,新規,0,2025-02-25,2025-02-25,株式会社ＬｅａｐＩｎｓｉｇｈｔ,,株式会社,東京都,千代田区,神田和泉町１－６－１６ヤマトビル４０５,,13,101,1010024,,,,,,,2025-02-25,1,,,,,リープインサイト,0
1312,7010003046512,新規,0,2025-02-25,2025-02-25,千葉タ合同会社,,合同会社,東京都,千代田区,丸の内１丁目４番１号東京共同会計事務所内,,13,101,1000005,,,,,,,2025-02-25,1,,,,,チバタ,0
1313,7010003046520,新規,0,2025-02-25,2025-02-25,ＳＨグリーンオーシャン仙台合同会社,,合同会社,東京都,千代田区,丸の内１丁目４番１号東京共同会計事務所内,,13,101,1000005,,,,,,,2025-02-25,1,,,,,エスエイチグリーンオーシャンセンダイ,0
1314,7010003046529,新規,0,2025-02-25,2025-02-25,ＮＲ　ＧＣＲＥＩＴ　ＪＰ合同会社,,合同会社,東京都,千代田区,丸の内２丁目３番２号郵船ビルアルタードムス・ジャパン株式会社内,,13,101,1000005,,,,,,,2025-02-25,1,,,,,エヌアールジーシーアールイーアイティージェーピー,0
1316,7010005039621,新規,0,2025-02-25,2025-02-25,一般社団法人防災事業者１００社会,,その他の設立登記法人,東京都,千代田区,麹町１丁目３番２３号,,13,101,1020083,,,,,,,2025-02-25,1,,,,,ボウサイジギョウシャヒャクシャカイ,0
1330,7010403034455,新規,0,2025-02-25,2025-02-25,ＹＨコーポレーション合同会社,,合同会社,東京都,港区,赤坂２丁目２１番１２号江沢ビル６階,,13,103,1070052,,,,,,,2025-02-25,1,,,,,ワイエイチコーポレーション,0
1336,7010501053687,新規,0,2025-02-25,2025-02-25,ミツワグローバル株式会社,,株式会社,東京都,台東区,松が谷１丁目５－６,,13,106,1110036,,,,,,,2025-02-25,1,,,,,ミツワグローバル,0
1339,7010901056876,新規,0,2025-02-25,2025-02-25,株式会社キリシマ,,株式会社,東京都,世田谷区,代沢３丁目１９番１０号代沢ヒルズ１０２,,13,112,1550032,,,,,,,2025-02-25,1,,,,,キリシマ,0
1347,7011001167960,新規,0,2025-02-25,2025-02-25,佐藤生醫株式会社,,株式会社,東京都,渋谷区,神宮前６丁目２３番４号,,13,113,1500001,,,,,,,2025-02-25,1,,,,,サトウバイオ,0
1348,7011003021034,新規,0,2025-02-25,2025-02-25,ＫＣ　Ｓｏｕｎｄ　Ｌｉｎｋｓ合同会社,,合同会社,東京都,渋谷区,渋谷２丁目１９－１５宮益坂ビルディング６０９,,13,113,1500002,,,,,,,2025-02-25,1,,,,,ケーシーサウンドリンクス,0
1349,7011003021067,新規,0,2025-02-25,2025-02-25,Ｋ１１１合同会社,,合同会社,東京都,目黒区,青葉台１丁目２９番６－２０８号,,13,110,1530042,,,,,,,2025-02-25,1,,,,,ケイイチイチイチ,0
1354,7011101110746,新規,0,2025-02-25,2025-02-25,コネクシー株式会社,,株式会社,東京都,新宿区,西新宿２丁目６番１号新宿住友ビル１８階,,13,104,1600023,,,,,,,2025-02-25,1,,,,,コネクシー,0
1355,7011103015571,新規,0,2025-02-25,2025-02-25,合同会社八百心,,合同会社,東京都,新宿区,荒木町１８番地,,13,104,1600007,,,,,,,2025-02-25,1,,,,,ヤオシン,0
1359,7011401026849,新規,0,2025-02-25,2025-02-25,株式会社トータルウイスキー,,株式会社,東京都,板橋区,稲荷台１６－９ペガサス稲荷台５０１号室,,13,119,1730002,,,,,,,2025-02-25,1,,,,,トータルウイスキー,0
1363,7011501031740,新規,0,2025-02-25,2025-02-25,株式会社Ｓｕｌｕｎａ,,株式会社,東京都,北区,王子１丁目２２番７－５０２号トーア飛鳥山マンション,,13,117,1140002,,,,,,,2025-02-25,1,,,,,サルナ,0
1375,7012305002119,新規,0,2025-02-25,2025-02-25,ＮＰＯ法人多摩モノレールとまちづくり,,その他の設立登記法人,東京都,町田市,中町１丁目２５番９号,,13,209,1940021,,,,,,,2025-02-25,1,,,,,タマモノレールトマチヅクリ,0
1378,7012403006987,新規,0,2025-02-25,2025-02-25,Ｍａｒｕ合同会社,,合同会社,東京都,三鷹市,大沢６丁目３番５号,,13,204,1810015,,,,,,,2025-02-25,1,,,,,マル,0
1380,7012801023766,新規,0,2025-02-25,2025-02-25,株式会社ＯＫコンサルティング,,株式会社,東京都,国立市,谷保７２０８番地の１７,,13,215,1860011,,,,,,,2025-02-25,1,,,,,オーケーコンサルティング,0
1392,7020001161452,新規,0,2025-02-25,2025-02-25,株式会社ＳＰＥ,,株式会社,神奈川県,横浜市戸塚区,深谷町５７５番地８,,14,110,2450067,,,,,,,2025-02-25,1,,,,,エスピーイー,0
1393,7020001161568,新規,0,2025-02-25,2025-02-25,株式会社ＮＪＭ２,,株式会社,神奈川県,横浜市西区,南幸１丁目１番１号,,14,103,2200005,,,,,,,2025-02-25,1,,,,,エヌジェイエムツー,0
1394,7020003027899,新規,0,2025-02-25,2025-02-25,合同会社和華,,合同会社,神奈川県,横浜市旭区,川井本町９７番地３０,,14,112,2410803,,,,,,,2025-02-25,1,,,,,ワカ,0
1399,7021001084528,新規,0,2025-02-25,2025-02-25,株式会社ＮＨＣホールディングス,,株式会社,神奈川県,大和市,大和南２丁目２番６号,,14,213,2420016,,,,,,,2025-02-25,1,,,,,エヌエイチシーホールディングス,0
1408,7030001164990,新規,0,2025-02-25,2025-02-25,株式会社Ｍｏｌａｇ,,株式会社,埼玉県,川口市,西川口１丁目３０番２０ＴＢＳ企画ビル２１０号室,,11,203,3320021,,,,,,,2025-02-25,1,,,,,モラグ,0
1414,7030003026198,新規,0,2025-02-25,2025-02-25,Ｊｏｌｉｅ　ｏｎｌｉｎｅ　ｓｈｏｐ合同会社,,合同会社,埼玉県,北本市,西高尾６丁目１３２番地,,11,233,3640035,,,,,,,2025-02-25,1,,,,,ジョリーオンラインショップ,0
1419,7040001137517,新規,0,2025-02-25,2025-02-25,株式会社アシストプランニング,,株式会社,千葉県,市川市,市川１丁目３番６号サンライズ市川６０２,,12,203,2720034,,,,,,,2025-02-25,1,,,,,アシストプランニング,0
1420,7040001137541,新規,0,2025-02-25,2025-02-25,株式会社パワーワークス,,株式会社,千葉県,四街道市,めいわ２丁目１６番２８号,,12,228,2840043,,,,,,,2025-02-25,1,,,,,パワーワークス,0
1425,7060001037938,新規,0,2025-02-25,2025-02-25,サンフラワー株式会社,,株式会社,栃木県,宇都宮市,江野町６番１５号大立ビル２０２,,09,201,3200802,,,,,,,2025-02-25,1,,,,,サンフラワー,0
1426,7060003005430,新規,0,2025-02-25,2025-02-25,合同会社どもん,,合同会社,栃木県,宇都宮市,駅前通り１丁目４番６号,,09,201,3210964,,,,,,,2025-02-25,1,,,,,ドモン,0
1429,7070001042656,新規,0,2025-02-25,2025-02-25,創電工業株式会社,,株式会社,群馬県,佐波郡玉村町,大字八幡原１５７０番地６,,10,464,3701125,,,,,,,2025-02-25,1,,,,,,0
1430,7070002013763,新規,0,2025-02-25,2025-02-25,有限会社群馬火工製造所,,有限会社,群馬県,高崎市,菅谷町９３１番地,,10,202,3703522,,,,,,,2025-02-25,1,,,,,グンマカコウセイゾウジョ,0
1431,7080001026765,新規,0,2025-02-25,2025-02-25,Ｆｕｒｅｌｏ株式会社,,株式会社,静岡県,焼津市,栄町４丁目２番５号,,22,212,4250027,,,,,,,2025-02-25,1,,,,,フリロ,0
1436,7080101025320,新規,0,2025-02-25,2025-02-25,アルム海外人材株式会社,,株式会社,静岡県,三島市,寿町５番１０号,,22,206,4110039,,,,,,,2025-02-25,1,,,,,アルムカイガイジンザイ,0
1438,7080103003258,新規,0,2025-02-25,2025-02-25,合同会社Ｕ,,合同会社,静岡県,富士市,中野５２６番地の１,,22,210,4170809,,,,,,,2025-02-25,1,,,,,ユー,0
1443,7100003007950,新規,0,2025-02-25,2025-02-25,合同会社山渡,,合同会社,長野県,北佐久郡軽井沢町,大字茂沢５０５－７８オナーズヒル軽井沢Ｆ－２１,,20,321,3890114,,,,,,,2025-02-25,1,,,,,ヤマト,0
1445,7120001053202,新規,0,2025-02-25,2025-02-25,淀川可鍛鋳鉄株式会社,,株式会社,大阪府,大阪市東淀川区,上新庄３丁目１９番５７号,,27,114,5330006,,,,,,,2025-02-25,1,,,,,ヨドガワカタンチュウテツ,0
1460,7120001272990,新規,0,2025-02-25,2025-02-25,株式会社ＰＩＰ,,株式会社,大阪府,大阪市北区,豊崎３丁目１５番５号ＴＫビル２Ｆ,,27,127,5310072,,,,,,,2025-02-25,1,,,,,ピーアイピー,0
1461,7120001273155,新規,0,2025-02-25,2025-02-25,関西三石株式会社,,株式会社,大阪府,大阪市淀川区,木川西１丁目４－１９ヴィラ木川１０２号室,,27,123,5320013,,,,,,,2025-02-25,1,,,,,カンサイサンゴク,0
1463,7120101071120,新規,0,2025-02-25,2025-02-25,株式会社心希,,株式会社,大阪府,岸和田市,流木町１４３番地の６,,27,202,5960835,,,,,,,2025-02-25,1,,,,,シンキ,0
1464,7120103006289,新規,0,2025-02-25,2025-02-25,合同会社暁アキラ,,合同会社,大阪府,堺市西区,上野芝向ヶ丘町４丁７番１３号,,27,144,5938303,,,,,,,2025-02-25,1,,,,,アカツキアキラ,0
1468,7120905006692,新規,0,2025-02-25,2025-02-25,一般社団法人まんまみーや,,その他の設立登記法人,大阪府,摂津市,鳥飼和道１丁目１０番４号,,27,224,5660073,,,,,,,2025-02-25,1,,,,,マンマミーヤ,0
1470,7122001038918,新規,0,2025-02-25,2025-02-25,株式会社Ｈｙｕｇａ,,株式会社,大阪府,東大阪市,六万寺町３丁目８番９号,,27,227,5798061,,,,,,,2025-02-25,1,,,,,ヒューガ,0
1471,7122001038926,新規,0,2025-02-25,2025-02-25,株式会社ＪＳＣ,,株式会社,大阪府,東大阪市,三島３丁目８番７号,,27,227,5780966,,,,,,,2025-02-25,1,,,,,ジェイエスシー,0
1473,7130001079048,新規,0,2025-02-25,2025-02-25,株式会社Ｍｏｌｌｙ．Ｊ．Ｓｔｕｄｉｏ,,株式会社,京都府,京都市下京区,玉津島町２９４－４１２,,26,106,6008427,,,,,,,2025-02-25,1,,,,,モーリージェイスタジオ,0
1484,7140003021700,新規,0,2025-02-25,2025-02-25,ＡＢＣマッチ合同会社,,合同会社,兵庫県,神戸市東灘区,御影山手１丁目２番２２－５０２号,,28,101,6580065,,,,,,,2025-02-25,1,,,,,エービーシーマッチ,0
1485,7140003021709,新規,0,2025-02-25,2025-02-25,ＦＯＲＴＥ合同会社,,合同会社,兵庫県,神戸市長田区,大谷町３丁目１－３９,,28,106,6530838,,,,,,,2025-02-25,1,,,,,フォルテ,0
1491,7160001026567,新規,0,2025-02-25,2025-02-25,株式会社ベルナス,,株式会社,滋賀県,彦根市,南川瀬町１６４３番地１,,25,202,5220222,,,,,,,2025-02-25,1,,,,,ベルナス,0
1495,7180001165578,新規,0,2025-02-25,2025-02-25,通達株式会社,,株式会社,愛知県,名古屋市港区,川間町３丁目７番地,,23,111,4550076,,,,,,,2025-02-25,1,,,,,ツウタツ,0
1496,7180001165586,新規,0,2025-02-25,2025-02-25,株式会社Ｕｔａｍａｒｏ,,株式会社,愛知県,名古屋市守山区,小幡南１丁目９番６８号（パークシティ・エムズガーデンＡ棟４１０号）,,23,113,4630048,,,,,,,2025-02-25,1,,,,,ウタマロ,0
1498,7180005020960,新規,0,2025-02-25,2025-02-25,一般社団法人セントバーナード,,その他の設立登記法人,愛知県,名古屋市東区,筒井町４丁目１番地ＭＨ筒井町３０１号室,,23,102,4610003,,,,,,,2025-02-25,1,,,,,セントバーナード,0
1499,7180301039531,新規,0,2025-02-25,2025-02-25,株式会社カワビット,,株式会社,愛知県,豊橋市,南牛川１丁目１－７,,23,201,4400014,,,,,,,2025-02-25,1,,,,,カワビット,0
1500,7180301039548,新規,0,2025-02-25,2025-02-25,株式会社ハル企画,,株式会社,愛知県,岡崎市,竜泉寺町字黒土１７番地,,23,202,4443524,,,,,,,2025-02-25,1,,,,,ハルキカク,0
1501,7180302007652,新規,0,2025-02-25,2025-02-25,有限会社三園荒物店,,有限会社,愛知県,豊橋市,鍛冶町１００番地,,23,201,4400802,,,,,,,2025-02-25,1,,,,,サンエンアラモノテン,0
1503,7180303006463,新規,0,2025-02-25,2025-02-25,合同会社ウソツカナイ,,合同会社,愛知県,豊橋市,柱二番町１４６番地,,23,201,4418053,,,,,,,2025-02-25,1,,,,,ウソツカナイ,0
1504,7180305009662,新規,0,2025-02-25,2025-02-25,農事組合法人川崎農産,,その他の設立登記法人,愛知県,豊橋市,内張町２－３－１１６オフィス重本Ｄ室,,23,201,4418147,,,,,,,2025-02-25,1,,,,,カワサキノウサン,0
1505,7190001032026,新規,0,2025-02-25,2025-02-25,株式会社ＯＯ‐ＴＥＣ,,株式会社,三重県,北牟婁郡紀北町,古里１１６４番地１,,24,543,5193209,,,,,,,2025-02-25,1,,,,,オオテック,0
1507,7200001043459,新規,0,2025-02-25,2025-02-25,株式会社ＯＣＴＯ,,株式会社,岐阜県,本巣郡北方町,朝日町５丁目１２番地,,21,421,5010424,,,,,,,2025-02-25,1,,,,,オクト,0
1509,7210001020069,新規,0,2025-02-25,2025-02-25,Ｍ＆Ｆ株式会社,,株式会社,福井県,福井市,下中町第６号４３番地,,18,201,9188211,,,,,,,2025-02-25,1,,,,,エムアンドエフ,0
1516,7240001064559,新規,0,2025-02-25,2025-02-25,株式会社コワリキ工業,,株式会社,広島県,呉市,安浦町三津口６丁目１１番３９号,,34,202,7372502,,,,,,,2025-02-25,1,,,,,コワリキコウギョウ,0
1517,7240003007078,新規,0,2025-02-25,2025-02-25,合同会社ＬＡＩＳＥ,,合同会社,広島県,広島市東区,上温品４丁目２５番１３号,,34,102,7320032,,,,,,,2025-02-25,1,,,,,レイズ,0
1521,7260003005071,新規,0,2025-02-25,2025-02-25,合同会社ファースト,,合同会社,岡山県,岡山市中区,江崎１６５番１１,,33,102,7028005,,,,,,,2025-02-25,1,,,,,ファースト,0
1530,7290001109037,新規,0,2025-02-25,2025-02-25,株式会社Ｓｗｅｅｔ,,株式会社,福岡県,福岡市中央区,荒戸１丁目１５番７－３０２号ルエメゾンロワールＩＩＩ２号館,00138118,40,133,8100062,,,,,,,2025-02-25,1,,,,,スウィート,0
1531,7290001109086,新規,0,2025-02-25,2025-02-25,クローバー観光株式会社,,株式会社,福岡県,福岡市中央区,今泉２丁目３番３０号,,40,133,8100021,,,,,,,2025-02-25,1,,,,,クローバーカンコウ,0
1535,7290005019661,新規,0,2025-02-25,2025-02-25,ＮＰＯ法人糸島子ども応援団,,その他の設立登記法人,福岡県,糸島市,池田１番地,,40,230,8191103,,,,,,,2025-02-25,1,,,,,イトシマコドモオウエンダン,0
1536,7320001020958,新規,0,2025-02-25,2025-02-25,株式会社吉田設備工業,,株式会社,大分県,中津市,大字北原５８７番地,,44,203,8790113,,,,,,,2025-02-25,1,,,,,ヨシダセツビコウギョウ,0
1541,7350003004849,新規,0,2025-02-25,2025-02-25,合同会社エネルギア美々津サービス,,合同会社,宮崎県,日向市,美々津町１２８１番９号,,45,206,8891111,,,,,,,2025-02-25,1,,,,,エネルギアミミツサービス,0
1545,7370003006950,新規,0,2025-02-25,2025-02-25,合同会社ストーンウォール,,合同会社,宮城県,仙台市若林区,五橋３丁目１番３―６０５号,,04,103,9840022,,,,,,,2025-02-25,1,,,,,ストーンウォール,0
1550,7430001093737,新規,0,2025-02-25,2025-02-25,数の星環保株式会社,,株式会社,北海道,小樽市,朝里川温泉２丁目６８６番地,,01,203,0470154,,,,,,,2025-02-25,1,,,,,カズノホシカンポ,0
1551,7430001093753,新規,0,2025-02-25,2025-02-25,デルタクエスト株式会社,,株式会社,北海道,札幌市中央区,南五条西１５丁目２番３号リズム医大前５０３号室,,01,101,0640805,,,,,,,2025-02-25,1,,,,,デルタクエスト,0
1552,7430001093761,新規,0,2025-02-25,2025-02-25,株式会社ククナコーポレーション,,株式会社,北海道,札幌市中央区,南八条西６丁目７番２４号アン・セリジェ壱番館１Ｆ,,01,101,0640808,,,,,,,2025-02-25,1,,,,,ククナコーポレーション,0
1555,7440001009568,新規,0,2025-02-25,2025-02-25,株式会社ＮＴＳ,,株式会社,北海道,函館市,美原３丁目５３番４７号西浦ビル,,01,202,0410806,,,,,,,2025-02-25,1,,,,,,0
1557,7450001014542,新規,0,2025-02-25,2025-02-25,株式会社鉢呂農園,,株式会社,北海道,旭川市,東鷹栖六線二十一号４１６２番地の１,,01,204,0718156,,,,,,,2025-02-25,1,,,,,ハチロノウエン,0
1567,8010001252474,新規,0,2025-02-25,2025-02-25,リープフォワード株式会社,,株式会社,東京都,中央区,築地２丁目１番１４号トミービル４階,,13,102,1040045,,,,,,,2025-02-25,1,,,,,リープフォワード,0
1568,8010001252549,新規,0,2025-02-25,2025-02-25,ＥＰＬＧ株式会社,,株式会社,東京都,千代田区,内神田１丁目３番６号クラッシィハウス大手町ザ・スイート１００２号,,13,101,1010047,,,,,,,2025-02-25,1,,,,,イーピーエルジー,0
1569,8010001252557,新規,0,2025-02-25,2025-02-25,ルミネクス株式会社,,株式会社,東京都,中央区,日本橋箱崎町３２－７ＤＨビル２Ｂ,,13,102,1030015,,,,,,,2025-02-25,1,,,,,ルミネクス,0
1570,8010002014048,新規,0,2025-02-25,2025-02-25,有限会社フォルスコーポレーション,,有限会社,東京都,千代田区,平河町１丁目５番７号,,13,101,1020093,,,,,,,2025-02-25,1,,,,,フォルスコーポレーション,0
1571,8010003046429,新規,0,2025-02-25,2025-02-25,ハマチトロバ合同会社,,合同会社,東京都,中央区,日本橋浜町３丁目４０番３－４０３号,,13,102,1030007,,,,,,,2025-02-25,1,,,,,ハマチトロバ,0
1572,8010003046511,新規,0,2025-02-25,2025-02-25,合同会社ＭＲＦ２,,合同会社,東京都,千代田区,丸の内１丁目４番１号東京共同会計事務所内,,13,101,1000005,,,,,,,2025-02-25,1,,,,,エムアールエフツー,0
1578,8010401188203,新規,0,2025-02-25,2025-02-25,株式会社仁リアルティ,,株式会社,東京都,港区,南麻布３丁目１７番９号,,13,103,1060047,,,,,,,2025-02-25,1,,,,,ジンリアルティ,0
1579,8010401188401,新規,0,2025-02-25,2025-02-25,株式会社ＲｅｎｅｗＧｌｏｂｅ,,株式会社,東京都,港区,六本木３丁目１６番１９－３０２号,,13,103,1060032,,,,,,,2025-02-25,1,,,,,リニューグローブ,0
1585,8010501053629,新規,0,2025-02-25,2025-02-25,株式会社ＲｅＧｒｅｅ,,株式会社,東京都,台東区,上野３丁目１６番２号天翔オフィス上野末広町２１３号室,,13,106,1100005,,,,,,,2025-02-25,1,,,,,リグリー,0
1592,8010903009732,新規,0,2025-02-25,2025-02-25,合同会社ＮＯＩ,,合同会社,東京都,世田谷区,若林５丁目１７－３－４０２,,13,112,1540023,,,,,,,2025-02-25,1,,,,,ノイ,0
1601,8011003021033,新規,0,2025-02-25,2025-02-25,合同会社ＧＯＡＲＴ,,合同会社,東京都,渋谷区,道玄坂１丁目１０番８号渋谷道玄坂東急ビル２Ｆ－Ｃ,,13,113,1500043,,,,,,,2025-02-25,1,,,,,ゴート,0
1605,8011201026148,新規,0,2025-02-25,2025-02-25,株式会社Ａｃｔ　ｆｏｒ,,株式会社,東京都,中野区,弥生町４丁目３６番６号,,13,114,1640013,,,,,,,2025-02-25,1,,,,,アクトフォー,0
1606,8011501031748,新規,0,2025-02-25,2025-02-25,通源日本株式会社,,株式会社,東京都,荒川区,町屋３丁目１－１３－３０１,,13,118,1160001,,,,,,,2025-02-25,1,,,,,ツウゲンニホン,0
1609,8011701028081,新規,0,2025-02-25,2025-02-25,株式会社ＭＩＭＵ,,株式会社,東京都,江戸川区,南小岩７丁目１６番１２号,,13,123,1330056,,,,,,,2025-02-25,1,,,,,ミム,0
1610,8011703004139,新規,0,2025-02-25,2025-02-25,書弘堂合同会社,,合同会社,東京都,江戸川区,西葛西５丁目７番６号－４０３,,13,123,1340088,,,,,,,2025-02-25,1,,,,,ショコウドウ,0
1618,8011803006695,新規,0,2025-02-25,2025-02-25,合同会社小さな天気の会社,,合同会社,東京都,葛飾区,東四つ木４丁目３８番６号パルティータ四つ木１０４,,13,122,1240014,,,,,,,2025-02-25,1,,,,,チイサナテンキノカイシャ,0
1624,8012405005078,新規,0,2025-02-25,2025-02-25,エスビーエス土地家屋調査士法人,,その他の設立登記法人,東京都,小金井市,本町５丁目１６番１４号第一葵コーポ１０６号室,,13,210,1840004,,,,,,,2025-02-25,1,,,,,エスビーエス,0
1626,8012801023765,新規,0,2025-02-25,2025-02-25,オフィスマルキ株式会社,,株式会社,東京都,立川市,錦町５丁目１５番８号,,13,202,1900022,,,,,,,2025-02-25,1,,,,,,0
1632,8020001161542,新規,0,2025-02-25,2025-02-25,株式会社ダナカ,,株式会社,神奈川県,横浜市青葉区,あざみ野１丁目２２番地２９,,14,117,2250011,,,,,,,2025-02-25,1,,,,,ダナカ,0
1634,8020003027873,新規,0,2025-02-25,2025-02-25,合同会社Ｔ’ｓ１８,,合同会社,神奈川県,川崎市麻生区,王禅寺東６丁目８番２１号,,14,137,2150018,,,,,,,2025-02-25,1,,,,,ティーズエイティーン,0
1639,8021001084527,新規,0,2025-02-25,2025-02-25,株式会社ガーデン遊,,株式会社,神奈川県,茅ヶ崎市,高田４丁目６番４５－１号,,14,207,2530002,,,,,,,2025-02-25,1,,,,,ガーデンユウ,0
1643,8021003015620,新規,0,2025-02-25,2025-02-25,合同会社塗装倶楽部,,合同会社,神奈川県,相模原市中央区,陽光台１丁目１１番４号,,14,152,2520226,,,,,,,2025-02-25,1,,,,,トソウクラブ,0
1649,8030001164825,新規,0,2025-02-25,2025-02-25,星空株式会社,,株式会社,埼玉県,草加市,瀬崎３丁目３２番１２号－４０３号室,,11,221,3400022,,,,,,,2025-02-25,1,,,,,ホシゾラ,0
1650,8030001164973,新規,0,2025-02-25,2025-02-25,株式会社ｍｏｓｕｍｉ,,株式会社,埼玉県,上尾市,大字西門前３１６番地８,,11,219,3620005,,,,,,,2025-02-25,1,,,,,モスミ,0
1651,8030001165006,新規,0,2025-02-25,2025-02-25,さつき不動産管理株式会社,,株式会社,埼玉県,草加市,手代３丁目１１番４号,,11,221,3400021,,,,,,,2025-02-25,1,,,,,サツキフドウサンカンリ,0
1652,8030001165014,新規,0,2025-02-25,2025-02-25,ＣＬＯＶＥＲ　ＧＡＴＥ株式会社,,株式会社,埼玉県,草加市,新栄１丁目４６番地１,,11,221,3400056,,,,,,,2025-02-25,1,,,,,クローバーゲート,0
1653,8030001165022,新規,0,2025-02-25,2025-02-25,株式会社Ｌｙｒａ,,株式会社,埼玉県,八潮市,大字南川崎４８番地３,,11,234,3400814,,,,,,,2025-02-25,1,,,,,ライラ,0
1654,8030001165030,新規,0,2025-02-25,2025-02-25,梓総業株式会社,,株式会社,埼玉県,さいたま市桜区,西堀５丁目８番５－３０１,,11,106,3380832,,,,,,,2025-02-25,1,,,,,アズサソウギョウ,0
1662,8030003026180,新規,0,2025-02-25,2025-02-25,３８合同会社,,合同会社,埼玉県,北葛飾郡松伏町,大字金杉１０２３－１,,11,465,3430103,,,,,,,2025-02-25,1,,,,,サンハチ,0
1667,8040001137532,新規,0,2025-02-25,2025-02-25,上総ライフサポートセンター株式会社,,株式会社,千葉県,木更津市,桜井新町４丁目１番地６,,12,206,2920823,,,,,,,2025-02-25,1,,,,,カズサライフサポートセンター,0
1669,8050001056203,新規,0,2025-02-25,2025-02-25,株式会社イシカワ商運,,株式会社,茨城県,古河市,大山２７８番地８,,08,204,3060052,,,,,,,2025-02-25,1,,,,,イシカワショウウン,0
1670,8050003009051,新規,0,2025-02-25,2025-02-25,合同会社ファイブソリューション,,合同会社,茨城県,水戸市,城南３丁目１０番１７,,08,201,3100803,,,,,,,2025-02-25,1,,,,,ファイブソリューション,0
1673,8060001037945,新規,0,2025-02-25,2025-02-25,株式会社３Ｒ,,株式会社,栃木県,小山市,西城南４丁目３番地１ピーチプラザ２０５,,09,208,3230820,,,,,,,2025-02-25,1,,,,,スリーアール,0
1676,8070001042647,新規,0,2025-02-25,2025-02-25,株式会社しごと創造ラボ,,株式会社,群馬県,桐生市,境野町３丁目２１２５番地１,,10,203,3760002,,,,,,,2025-02-25,1,,,,,シゴトソウゾウラボ,0
1677,8070003005800,新規,0,2025-02-25,2025-02-25,合同会社増渕工業,,合同会社,群馬県,前橋市,三俣町３丁目１０番地１０,,10,201,3710018,,,,,,,2025-02-25,1,,,,,マスブチコウギョウ,0
1680,8080001026764,新規,0,2025-02-25,2025-02-25,株式会社Ｌｉｎｋ　Ｒｅｈａ,,株式会社,静岡県,静岡市葵区,伝馬町一丁目２番地ホテルシティオ３階,,22,101,4200858,,,,,,,2025-02-25,1,,,,,リンクリハ,0
1688,8120001273096,新規,0,2025-02-25,2025-02-25,株式会社ソニア,,株式会社,大阪府,大阪市浪速区,難波中３丁目１８－４,,27,111,5560011,,,,,,,2025-02-25,1,,,,,ソニア,0
1689,8120001273154,新規,0,2025-02-25,2025-02-25,ＳＣ行株式会社,,株式会社,大阪府,大阪市住吉区,墨江２丁目５番５３号５０２号室,,27,120,5580043,,,,,,,2025-02-25,1,,,,,エスシーギョウ,0
1690,8120001273170,新規,0,2025-02-25,2025-02-25,匯盛東株式会社,,株式会社,大阪府,大阪市淀川区,東三国６丁目２３番１７号２０３号,,27,123,5320002,,,,,,,2025-02-25,1,,,,,カイセイトウ,0
1696,8120003028705,新規,0,2025-02-25,2025-02-25,合同会社ＡＡＲＩＶ,,合同会社,大阪府,大阪市中央区,博労町３丁目４番９号,,27,128,5410059,,,,,,,2025-02-25,1,,,,,アリブ,0
1697,8120101071128,新規,0,2025-02-25,2025-02-25,よつ葉設計株式会社,,株式会社,大阪府,堺市北区,船堂町１丁８番２５号,,27,146,5918003,,,,,,,2025-02-25,1,,,,,ヨツバセッケイ,0
1699,8120103006288,新規,0,2025-02-25,2025-02-25,合同会社Ｕｌｌｒ,,合同会社,大阪府,貝塚市,半田１丁目１６番３６号,,27,208,5970033,,,,,,,2025-02-25,1,,,,,ウル,0
1702,8120901050479,新規,0,2025-02-25,2025-02-25,株式会社大誠,,株式会社,大阪府,摂津市,別府２丁目１番２０－５０３号,,27,224,5660046,,,,,,,2025-02-25,1,,,,,タイセイ,0
1704,8122001038917,新規,0,2025-02-25,2025-02-25,株式会社みつば,,株式会社,大阪府,八尾市,八尾木北１丁目９９番地の８,,27,212,5810016,,,,,,,2025-02-25,1,,,,,ミツバ,0
1709,8140003021550,新規,0,2025-02-25,2025-02-25,合同会社ＴＷＯＮｉＮＥ,,合同会社,兵庫県,神戸市中央区,中山手通１丁目２２－１０象ビルヂング６Ｆ,,28,110,6500004,,,,,,,2025-02-25,1,,,,,,0
1712,8150001027895,新規,0,2025-02-25,2025-02-25,株式会社未来堂,,株式会社,奈良県,橿原市,新口町１７８番地の３サントノーレ２０７号,,29,205,6340802,,,,,,,2025-02-25,1,,,,,ミライドウ,0
1715,8180001027199,新規,0,2025-02-25,2025-02-25,丸重製菓株式会社,,株式会社,愛知県,名古屋市西区,万代町１丁目２２番地,,23,104,4510074,,,,,,,2025-02-25,1,,,,,マルジュウセイカ,0
1718,8180001165569,新規,0,2025-02-25,2025-02-25,株式会社であい,,株式会社,愛知県,名古屋市東区,相生町３６番地４ｄｉｘ・９・７ビル２Ｃ号室,,23,102,4610012,,,,,,,2025-02-25,1,,,,,デアイ,0
1720,8180003028039,新規,0,2025-02-25,2025-02-25,合同会社ｔｏｎａｒｉ,,合同会社,愛知県,名古屋市名東区,一社３丁目１番地,,23,115,4650093,,,,,,,2025-02-25,1,,,,,トナリ,0
1723,8180301039547,新規,0,2025-02-25,2025-02-25,株式会社エイチ・エス・ケー,,株式会社,愛知県,刈谷市,板倉町１丁目１０番地,,23,210,4480801,,,,,,,2025-02-25,1,,,,,エイチエスケー,0
1725,8190001032025,新規,0,2025-02-25,2025-02-25,株式会社ｔｏｒｉｋｏ,,株式会社,三重県,津市,藤方１７１９‐１,,24,201,5140815,,,,,,,2025-02-25,1,,,,,トリコ,0
1730,8210001020068,新規,0,2025-02-25,2025-02-25,株式会社山職,,株式会社,福井県,越前市,片屋町４８号１９番地,,18,209,9150893,,,,,,,2025-02-25,1,,,,,ヤマショク,0
1732,8250001021013,新規,0,2025-02-25,2025-02-25,得冨測量設計株式会社,,株式会社,山口県,山口市,大内長野１４６３番地３,,35,203,7530211,,,,,,,2025-02-25,1,,,,,トクドミソクリョウセッケイ,0
1734,8260003005070,新規,0,2025-02-25,2025-02-25,合同会社ＳＴＡＲＴ,,合同会社,岡山県,笠岡市,北木島町８６９９番地１,,33,205,7140301,,,,,,,2025-02-25,1,,,,,スタート,0
1738,8290001109069,新規,0,2025-02-25,2025-02-25,ＡＬＬ‐ｉｎ株式会社,,株式会社,福岡県,福岡市博多区,博多駅前１丁目２３－２号ＰａｒｋＦｒｏｎｔ博多駅前１丁目５Ｆ－Ｂ,,40,132,8120011,,,,,,,2025-02-25,1,,,,,オールイン,0
1739,8290001109077,新規,0,2025-02-25,2025-02-25,株式会社Ｊ‐ＤＡＹＢＵＳ,,株式会社,福岡県,福岡市博多区,比恵町１－１８東カン福岡第２キャステール２０６号室,,40,132,8120014,,,,,,,2025-02-25,1,,,,,ジェーデーバス,0
1747,8330003010798,新規,0,2025-02-25,2025-02-25,Ｗｅｓｔ　Ｐｅｔ　Ｃｌｉｎｉｃ合同会社,,合同会社,熊本県,熊本市南区,城南町千町２３５７番地１３,,43,104,8614235,,,,,,,2025-02-25,1,,,,,ウエストペットクリニック,0
1749,8350001019410,新規,0,2025-02-25,2025-02-25,株式会社未来ハウス,,株式会社,宮崎県,日向市,亀崎東４丁目４７番地オーシャンビューＶ８０１号,00138119,45,206,8830067,,,,,,,2025-02-25,1,,,,,ミライハウス,0
1753,8370001052269,新規,0,2025-02-25,2025-02-25,匠サーマル株式会社,,株式会社,宮城県,仙台市青葉区,宮町３丁目４番１０－２号,,04,101,9800004,,,,,,,2025-02-25,1,,,,,タクミサーマル,0
1754,8370001052277,新規,0,2025-02-25,2025-02-25,株式会社トラスティレンタカー宮城,,株式会社,宮城県,仙台市若林区,井土字宅地２２,,04,103,9840842,,,,,,,2025-02-25,1,,,,,トラスティレンタカーミヤギ,0
1755,8370001052285,新規,0,2025-02-25,2025-02-25,ＡＣＴ　ＧＲＡＣＥ株式会社,,株式会社,宮城県,仙台市青葉区,水の森３丁目１２番２１号,,04,101,9810962,,,,,,,2025-02-25,1,,,,,アクトグレイス,0
1756,8370001052293,新規,0,2025-02-25,2025-02-25,株式会社共生建設,,株式会社,宮城県,名取市,相互台１丁目２３番地の７,,04,207,9811246,,,,,,,2025-02-25,1,,,,,キョウセイケンセツ,0
1762,8380003005967,新規,0,2025-02-25,2025-02-25,合同会社Ｓｅｔｔｌｅｒ　ｓｔｕｄｉｏ,,合同会社,福島県,大沼郡会津美里町,松岸字道中田１６８番地,,07,447,9696252,,,,,,,2025-02-25,1,,,,,セトラースタジオ,0
1764,8420001019031,新規,0,2025-02-25,2025-02-25,株式会社ＹＯＫＵＮＡＬＵ,,株式会社,青森県,八戸市,城下４丁目９－２城下館々２Ｆ,,02,203,0310072,,,,,,,2025-02-25,1,,,,,ヨクナル,0
1772,8430005015158,新規,0,2025-02-25,2025-02-25,一般社団法人馬主活動支援協会,,その他の設立登記法人,北海道,札幌市中央区,南五条西１５丁目２番３号リズム医大前５０３号室,,01,101,0640805,,,,,,,2025-02-25,1,,,,,ウマヌシカツドウシエンキョウカイ,0
1776,8450001014541,新規,0,2025-02-25,2025-02-25,株式会社高畠農場,,株式会社,北海道,旭川市,東鷹栖十一線十九号４０８９番地５,,01,204,0718161,,,,,,,2025-02-25,1,,,,,タカバタケノウジョウ,0
1777,8460301005280,新規,0,2025-02-25,2025-02-25,株式会社シロマ,,株式会社,北海道,斜里郡小清水町,南町２丁目２番２２号,,01,547,0993642,,,,,,,2025-02-25,1,,,,,シロマ,0
1778,8490001010974,新規,0,2025-02-25,2025-02-25,株式会社久保商会,,株式会社,高知県,南国市,陣山５４９番地１１,,39,204,7830028,,,,,,,2025-02-25,1,,,,,クボショウカイ,0
1789,9010003046519,新規,0,2025-02-25,2025-02-25,ヘルスケアプロパティーズＩＩ合同会社,,合同会社,東京都,千代田区,丸の内１丁目４番１号東京共同会計事務所内,,13,101,1000005,,,,,,,2025-02-25,1,,,,,ヘルスケアプロパティーズツー,0
1811,9010405024080,新規,0,2025-02-25,2025-02-25,ＭＦ４ＪＰＮ５特定目的会社,,その他の設立登記法人,東京都,港区,虎ノ門３丁目２２番１０－２０１号,,13,103,1050001,,,,,,,2025-02-25,1,,,,,エムエフフォージェイピーエヌファイブ,0
1812,9010501053677,新規,0,2025-02-25,2025-02-25,及享株式会社,,株式会社,東京都,台東区,台東４丁目２２－９楊ビル３０１,,13,106,1100016,,,,,,,2025-02-25,1,,,,,キョウコウ,0
1815,9010601066810,新規,0,2025-02-25,2025-02-25,株式会社ＳＳＳ,,株式会社,東京都,墨田区,江東橋３丁目７番１０号桂昇錦糸町ビル９階,,13,107,1300022,,,,,,,2025-02-25,1,,,,,トリプルエス,0
1816,9010601066819,新規,0,2025-02-25,2025-02-25,株式会社キミノイズム,,株式会社,東京都,墨田区,両国３丁目２４番５号,,13,107,1300026,,,,,,,2025-02-25,1,,,,,キミノイズム,0
1818,9010603011401,新規,0,2025-02-25,2025-02-25,ＴｒｅｅＦｏｒｅｓｔ合同会社,,合同会社,東京都,江東区,亀戸９丁目１０番１－８２８号,,13,108,1360071,,,,,,,2025-02-25,1,,,,,ツリーフォレスト,0
1823,9010903009731,新規,0,2025-02-25,2025-02-25,ステップライフ合同会社,,合同会社,東京都,世田谷区,深沢１丁目３９番１７号,,13,112,1580081,,,,,,,2025-02-25,1,,,,,ステップライフ,0
1827,9011001167389,新規,0,2025-02-25,2025-02-25,株式会社ＰＬＯＶＥＲ,,株式会社,東京都,渋谷区,上原３丁目２５‐１４‐２０１,,13,113,1510064,,,,,,,2025-02-25,1,,,,,プロバー,0
1828,9011001167802,新規,0,2025-02-25,2025-02-25,株式会社ｂｌａｎｋ,,株式会社,東京都,渋谷区,神南１丁目１１－４ＦＰＧリンクス神南５階,,13,113,1500041,,,,,,,2025-02-25,1,,,,,ブランク,0
1829,9011001167901,新規,0,2025-02-25,2025-02-25,株式会社Ｈａａｖｅ,,株式会社,東京都,渋谷区,恵比寿西２丁目８番４号ＥＸ恵比寿西ビル５階,,13,113,1500021,,,,,,,2025-02-25,1,,,,,ハァヴェ,0
1831,9011003021032,新規,0,2025-02-25,2025-02-25,合同会社アイデアブリュワリー,,合同会社,東京都,渋谷区,恵比寿西２丁目８番４号ＥＸ恵比寿西ビル５階,,13,113,1500021,,,,,,,2025-02-25,1,,,,,アイデアブリュワリー,0
1832,9011003021049,新規,0,2025-02-25,2025-02-25,樹氷アステリズム合同会社,,合同会社,東京都,渋谷区,恵比寿南３丁目１番１号,,13,113,1500022,,,,,,,2025-02-25,1,,,,,ジュヒョウアステリズム,0
1833,9011003021073,新規,0,2025-02-25,2025-02-25,テトラユナイテッド合同会社,,合同会社,東京都,目黒区,三田２丁目３番２２号ＩｖｏｒｙＨｏｕｓｅＥｂｉｓｕ３０１,,13,110,1530062,,,,,,,2025-02-25,1,,,,,テトラユナイテッド,0
1834,9011003021081,新規,0,2025-02-25,2025-02-25,合同会社Ｐｏｉｎｔ　Ｎｅｍｏ,,合同会社,東京都,目黒区,緑が丘２丁目３番１１号右,,13,110,1520034,,,,,,,2025-02-25,1,,,,,ポイントネモ,0
1835,9011101110562,新規,0,2025-02-25,2025-02-25,株式会社大出総研,,株式会社,東京都,新宿区,西新宿３丁目３番１３号西新宿水間ビル２Ｆ,,13,104,1600023,,,,,,,2025-02-25,1,,,,,オオイデソウケン,0
1836,9011101110711,新規,0,2025-02-25,2025-02-25,北瀬株式会社,,株式会社,東京都,新宿区,西新宿３丁目３番１３号西新宿水間ビル２Ｆ,,13,104,1600023,,,,,,,2025-02-25,1,,,,,キタセ,0
1845,9011501031755,新規,0,2025-02-25,2025-02-25,株式会社ＦＯＣＵＳ,,株式会社,東京都,荒川区,西日暮里６丁目４０番地４,,13,118,1160013,,,,,,,2025-02-25,1,,,,,フォーカス,0
1848,9011703004138,新規,0,2025-02-25,2025-02-25,ＪＭＳ合同会社,,合同会社,東京都,江戸川区,北小岩４丁目２６－５北小岩ハイム２０５号室,,13,123,1330051,,,,,,,2025-02-25,1,,,,,ジェイエムエス,0
1849,9011801045686,新規,0,2025-02-25,2025-02-25,株式会社わぬ,,株式会社,東京都,足立区,西新井栄町１丁目１９番３９－５０１号ザ・ステージオパークフロントタワー,,13,121,1230843,,,,,,,2025-02-25,1,,,,,ワヌ,0
1850,9011803006703,新規,0,2025-02-25,2025-02-25,合同会社ｈａｒ’ｅ,,合同会社,東京都,足立区,梅田８丁目１４番２－１３９号,,13,121,1230851,,,,,,,2025-02-25,1,,,,,ハレ,0
1853,9020001161582,新規,0,2025-02-25,2025-02-25,株式会社ＣＯＭＥＴＣＯＭＥＴ,,株式会社,神奈川県,川崎市幸区,中幸町３丁目３１番２号ＤＡＩＫＹＯＫＥＮＫＩ．ＫＡＷＡＳＡＫＩ．ＢＬＤＧ９－０６,,14,132,2120012,,,,,,,2025-02-25,1,,,,,コメットコメット,0
1854,9020001161599,新規,0,2025-02-25,2025-02-25,株式会社ｍａｋｋＡＲＴｍａｋｉｉｒｏ,,株式会社,神奈川県,横浜市南区,高根町２丁目１２番地７公園通り弐番館３０８号,,14,105,2320022,,,,,,,2025-02-25,1,,,,,マッカートマッキーロ,0
1858,9021001084518,新規,0,2025-02-25,2025-02-25,株式会社羽床総本店,,株式会社,神奈川県,横須賀市,久里浜５丁目９番７－１００２号,,14,201,2390831,,,,,,,2025-02-25,1,,,,,ハユカソウホンテン,0
1862,9021003015628,新規,0,2025-02-25,2025-02-25,全日本合同会社,,合同会社,神奈川県,相模原市中央区,上溝５丁目８番３３号,,14,152,2520243,,,,,,,2025-02-25,1,,,,,ゼンニホン,0
1868,9030001165005,新規,0,2025-02-25,2025-02-25,株式会社スリーピース,,株式会社,埼玉県,所沢市,東住吉１４番３号,,11,208,3591124,,,,,,,2025-02-25,1,,,,,スリーピース,0
1869,9030001165021,新規,0,2025-02-25,2025-02-25,株式会社ランドドア,,株式会社,埼玉県,川越市,むさし野１６番３９・２階,,11,201,3501170,,,,,,,2025-02-25,1,,,,,ランドドア,0
1878,9030003026147,新規,0,2025-02-25,2025-02-25,Ｔ＆Ｍ合同会社,,合同会社,埼玉県,さいたま市浦和区,上木崎１丁目６番１０－９０４号,,11,107,3300071,,,,,,,2025-02-25,1,,,,,ティーアンドエム,0
1879,9030003026196,新規,0,2025-02-25,2025-02-25,合同会社日本食糧安全保障創生ファンド,,合同会社,埼玉県,さいたま市浦和区,東高砂町１７番１２号,,11,107,3300055,,,,,,,2025-02-25,1,,,,,ニホンショクリョウアンゼンホショウソウセイファンド,0
1880,9040003026955,新規,0,2025-02-25,2025-02-25,カレイドメディア合同会社,,合同会社,千葉県,市川市,市川１丁目２６番１２号,,12,203,2720034,,,,,,,2025-02-25,1,,,,,カレイドメディア,0
1883,9050001056210,新規,0,2025-02-25,2025-02-25,Ｓｕｐｅｒ５株式会社,,株式会社,茨城県,笠間市,旭町２８－２,,08,216,3091717,,,,,,,2025-02-25,1,,,,,スーパーファイブ,0
1888,9050003009050,新規,0,2025-02-25,2025-02-25,合同会社上,,合同会社,茨城県,水戸市,袴塚３丁目７番２８号,,08,201,3100055,,,,,,,2025-02-25,1,,,,,ウエ,0
1890,9050005013554,新規,0,2025-02-25,2025-02-25,農事組合法人ＴＤ３,,その他の設立登記法人,茨城県,土浦市,田中３丁目１－６メゾン・ド・桜３０２,,08,203,3000048,,,,,,,2025-02-25,1,,,,,ティディサン,0
1898,9070001042654,新規,0,2025-02-25,2025-02-25,株式会社福籠,,株式会社,群馬県,高崎市,石原町１７９８番地４,,10,202,3700864,,,,,,,2025-02-25,1,,,,,フクロウ,0
1900,9070003005799,新規,0,2025-02-25,2025-02-25,ｔｒｅｅｖｉｌｌａｇｅ合同会社,,合同会社,群馬県,北群馬郡吉岡町,大字北下５２２番地１,,10,345,3703605,,,,,,,2025-02-25,1,,,,,ツリーヴィレッジ,0
1903,9080101025327,新規,0,2025-02-25,2025-02-25,ｈｉ‐ｇｒｏｏｖｅ　ｍｉｌｌｉｎｇ　ｃｅｎｔｅｒ株式会社,,株式会社,静岡県,三島市,大宮町２丁目９番２１号クレイドルＩ－２０２,00138120,22,206,4110035,,,,,,,2025-02-25,1,,,,,ハイグルーブミリングセンター,0
1914,9100001038319,新規,0,2025-02-25,2025-02-25,株式会社Ｒｅｇｅｎｂｏｇｅｎ,,株式会社,長野県,松本市,神田３丁目４番１７号,,20,202,3900822,,,,,,,2025-02-25,1,,,,,レーゲンボーゲン,0
1917,9100003007998,新規,0,2025-02-25,2025-02-25,合同会社探究ＢＡＳＥ,,合同会社,長野県,飯田市,下久堅南原１１５０番地,,20,205,3992607,,,,,,,2025-02-25,1,,,,,タンキュウベース,0
1930,9120001273087,新規,0,2025-02-25,2025-02-25,株式会社ＧＡＨＧＡ,,株式会社,大阪府,大阪市東成区,東今里２丁目８－２７－２０５ハイツ東今里,,27,115,5370011,,,,,,,2025-02-25,1,,,,,ガーガ,0
1931,9120001273120,新規,0,2025-02-25,2025-02-25,株式会社いえサポ,,株式会社,大阪府,大阪市阿倍野区,阿倍野筋１丁目１番４３号あべのハルカス３１階,,27,119,5450052,,,,,,,2025-02-25,1,,,,,イエサポ,0
1934,9120003028704,新規,0,2025-02-25,2025-02-25,Ｌｕｃｋｙ　Ｆｉｎｄ合同会社,,合同会社,大阪府,大阪市福島区,福島７丁目１５－１－１９０１,,27,103,5530003,,,,,,,2025-02-25,1,,,,,ラッキーファインド,0
1940,9120005024809,新規,0,2025-02-25,2025-02-25,一般社団法人両国人権福祉交流センター,,その他の設立登記法人,大阪府,大阪市旭区,清水５丁目６番２８号,,27,117,5350021,,,,,,,2025-02-25,1,,,,,リョウゴクジンケンフクシコウリュウセンター,0
1949,9122001038924,新規,0,2025-02-25,2025-02-25,株式会社Ｋ．Ｋ　ＡＵＴＯ,,株式会社,大阪府,東大阪市,横小路町２丁目５番５号,,27,227,5798063,,,,,,,2025-02-25,1,,,,,ケーケーオート,0
1950,9130003010223,新規,0,2025-02-25,2025-02-25,合同会社ｏｗｌｗａｙｓ,,合同会社,京都府,京都市西京区,大原野上里紅葉町３番地６,,26,111,6101124,,,,,,,2025-02-25,1,,,,,オウルウェイズ,0
1951,9140001137430,新規,0,2025-02-25,2025-02-25,株式会社ユウシン,,株式会社,兵庫県,伊丹市,大野１丁目５３サンクレストビルＢ号,,28,207,6640003,,,,,,,2025-02-25,1,,,,,ユウシン,0
1953,9140003021698,新規,0,2025-02-25,2025-02-25,合同会社Ａｍｂｉｏ,,合同会社,兵庫県,西脇市,西脇１８５番地の３,,28,213,6770015,,,,,,,2025-02-25,1,,,,,アンビオ,0
1956,9150003003506,新規,0,2025-02-25,2025-02-25,合同会社楠田造園,,合同会社,奈良県,生駒市,俵口町４０３番地２,,29,209,6300243,,,,,,,2025-02-25,1,,,,,クスダゾウエン,0
1957,9170001018504,新規,0,2025-02-25,2025-02-25,株式会社ＨａｐｐｉＮｅｓｔ　Ｈｏｍｅ,,株式会社,和歌山県,橋本市,あやの台２丁目４４番地の２,,30,203,6480019,,,,,,,2025-02-25,1,,,,,ハピネストホーム,0
1972,9210001020067,新規,0,2025-02-25,2025-02-25,株式会社Ｋ＆Ａ,,株式会社,福井県,敦賀市,中央町１丁目４番３１号,,18,202,9140811,,,,,,,2025-02-25,1,,,,,ケーアンドエー,0
1977,9240001064573,新規,0,2025-02-25,2025-02-25,株式会社ＮＳシステム,,株式会社,広島県,広島市西区,大宮２丁目１２番７号和広ビル３０３号室,,34,104,7330007,,,,,,,2025-02-25,1,,,,,エヌエスシステム,0
1998,9290801031297,新規,0,2025-02-25,2025-02-25,ＯＮＯ株式会社,,株式会社,福岡県,京都郡苅田町,大字提３７７６番地,,40,621,8000364,,,,,,,2025-02-25,1,,,,,オーエヌオー,0
2000,9320001020956,新規,0,2025-02-25,2025-02-25,株式会社アーバンエステート大分,,株式会社,大分県,大分市,金池南１丁目１１番３号,,44,201,8700839,,,,,,,2025-02-25,1,,,,,アーバンエステートオオイタ,0
2008,9370003006949,新規,0,2025-02-25,2025-02-25,合同会社ｇｅｎｅｓｉｓ　ｆａｒｍ,,合同会社,宮城県,仙台市泉区,泉中央３丁目８－５泉中央ＳＴビル４０２号,,04,105,9813133,,,,,,,2025-02-25,1,,,,,ジェネシスファーム,0
2011,9390003002351,新規,0,2025-02-25,2025-02-25,合同会社シリウス,,合同会社,山形県,飽海郡遊佐町,遊佐字上曽根田１０８番地,,06,461,9998301,,,,,,,2025-02-25,1,,,,,シリウス,0
2016,9430001093735,新規,0,2025-02-25,2025-02-25,株式会社ｃａｒａｔ６３４．Ｊａｐａｎ,,株式会社,北海道,札幌市中央区,南八条西３丁目１０番地１０,,01,101,0640808,,,,,,,2025-02-25,1,,,,,カラットムサシジャパン,0
2017,9430001093751,新規,0,2025-02-25,2025-02-25,２Ｃ株式会社,,株式会社,北海道,札幌市中央区,南二条西５丁目３１ー１ＲＭ　Ｂｌｄ．７０１,,01,101,0600062,,,,,,,2025-02-25,1,,,,,トゥーシー,0
2022,9430003017312,新規,0,2025-02-25,2025-02-25,センフィヨ合同会社,,合同会社,北海道,札幌市中央区,北九条西１９丁目３５番４６－１０５号,,01,101,0600009,,,,,,,2025-02-25,1,,,,,センフィヨ,0
2026,9470001020594,新規,0,2025-02-25,2025-02-25,ＳＪ．ＴＲＵＳＴ株式会社,,株式会社,香川県,丸亀市,港町３０７番地１６,,37,202,7630042,,,,,,,2025-02-25,1,,,,,エスジェイトラスト,0
2027,9470003002814,新規,0,2025-02-25,2025-02-25,雪蓮合同会社,,合同会社,香川県,三豊市,豊中町下高野１１４０番地１,,37,208,7691508,,,,,,,2025-02-25,1,,,,,ユキハス,0
2029,9490001010973,新規,0,2025-02-25,2025-02-25,株式会社おるき,,株式会社,高知県,安芸郡芸西村,西分甲２６５４番地１,,39,307,7815703,,,,,,,2025-02-25,1,,,,,オルキ,0
