sequenceNumber,corporateNumber,process,correct,updateDate,changeDate,name,nameImageId,kind,prefectureName,cityName,streetNumber,addressImageId,prefectureCode,cityCode,postCode,addressOutside,addressOutsideImageId,closeDate,closeCause,successorCorporateNumber,changeCause,assignmentDate,latest,enName,enPrefectureName,enCityName,enAddressOutside,furigana,hihyoji
1,1010001011366,登記記録の閉鎖等,0,2022-10-19,2022-10-07,株式会社梅もと,,株式会社,東京都,中央区,明石町８番１号,,13,102,1040044,,,2022-10-07,合併による解散等,4010001063000,令和４年１０月１日東京都中央区明石町８番１号株式会社ちよだ鮨（4010001063000）に合併し解散,2015-10-05,1,,,,,ウメモト,0
13,1010002004550,登記記録の閉鎖等,0,2022-10-19,2022-10-12,有限会社西沢ビル,,有限会社,東京都,文京区,本郷２丁目１６番１０号,,13,105,1130033,,,2022-10-12,清算の結了等,,,2015-10-05,1,,,,,ニシザワビル,0
16,1010102000771,登記記録の閉鎖等,0,2022-10-19,2022-10-13,有限会社市野製餡所,,有限会社,東京都,八王子市,横川町１０３番地,,13,201,1930823,,,2022-10-13,清算の結了等,,,2015-10-05,1,,,,,イチノセイアンショ,0
17,1010401027887,登記記録の閉鎖等,0,2022-10-19,2022-09-30,株式会社牧野式典サービスセンター,,株式会社,東京都,港区,高輪１丁目２０番１０号,,13,103,1080074,,,2022-09-30,清算の結了等,,,2015-10-05,1,,,,,,0
22,1010401138866,登記記録の閉鎖等,0,2022-10-19,2022-09-30,株式会社キャリアマネジメントスクール,,株式会社,東京都,港区,高輪３丁目２５番２２号,,13,103,1080074,,,2022-09-30,清算の結了等,,,2018-06-08,1,,,,,キャリアマネジメントスクール,0
28,1010403010321,登記記録の閉鎖等,0,2022-10-19,2022-09-30,アラベスク・エス合同会社,,合同会社,東京都,港区,虎ノ門３丁目２２番１０－２０１号,,13,103,1050001,,,2022-09-30,清算の結了等,,,2015-10-05,1,,,,,アラベスクエス,0
34,1010503004669,登記記録の閉鎖等,0,2022-10-19,2022-10-18,合同会社ハルク,,合同会社,東京都,台東区,千束４丁目２８番５号,,13,106,1110031,,,2022-10-18,清算の結了等,,,2016-04-25,1,,,,,ハルク,0
72,1011501009767,登記記録の閉鎖等,0,2022-10-19,2022-10-12,株式会社アイシム,,株式会社,東京都,荒川区,西尾久４丁目１２番１１－１４６号,,13,118,1160011,,,2022-10-12,清算の結了等,,,2015-10-05,1,,,,,アイシム,0
73,1011502000816,登記記録の閉鎖等,0,2022-10-19,2022-10-12,有限会社エーディーシー,,有限会社,東京都,北区,東十条４丁目４番１８－２０２号,,13,117,1140001,,,2022-10-12,清算の結了等,,,2015-10-05,1,,,,,エーディーシー,0
81,1012701009276,登記記録の閉鎖等,0,2022-10-19,2022-10-14,株式会社レンタル三ツ木,,株式会社,東京都,東村山市,野口町４丁目１６番地４６,,13,213,1890022,,,2022-10-14,清算の結了等,,,2015-10-05,1,,,,,レンタルミツギ,0
85,1020001004625,登記記録の閉鎖等,0,2022-10-19,2022-10-11,ワールドデンタル株式会社,,株式会社,神奈川県,横浜市港南区,上大岡西３丁目１４番３号,,14,111,2330002,,,2022-10-11,清算の結了等,,,2015-10-05,1,,,,,ワールドデンタル,0
101,1020002083049,登記記録の閉鎖等,0,2022-10-19,2022-10-07,有限会社ケルプ,,有限会社,神奈川県,川崎市中原区,上小田中２丁目２５番１１号,,14,133,2110053,,,2022-10-07,清算の結了等,,,2015-10-05,1,,,,,ケルプ,0
107,1020003011834,登記記録の閉鎖等,0,2022-10-19,2022-09-30,合同会社こまおか,,合同会社,東京都,港区,芝２丁目３０番３号,,13,103,1050014,,,2022-09-30,清算の結了等,,,2016-09-26,1,,,,,コマオカ,0
110,1021002026682,登記記録の閉鎖等,0,2022-10-19,2022-10-07,ジーアイエスエス有限会社,,有限会社,神奈川県,相模原市南区,上鶴間本町２丁目４番２４号,,14,153,2520318,,,2022-10-07,清算の結了等,,,2015-10-05,1,,,,,ジーアイエスエス,0
111,1021002027805,登記記録の閉鎖等,0,2022-10-19,2022-10-14,有限会社テクノピア,,有限会社,神奈川県,相模原市中央区,田名塩田１丁目１４番７号,,14,152,2520245,,,2022-10-14,清算の結了等,,,2015-10-05,1,,,,,テクノピア,0
124,1040002072289,登記記録の閉鎖等,0,2022-10-19,2022-10-05,泉住宅有限会社,,有限会社,千葉県,市原市,五井２２３７番地の８,,12,219,2900056,,,2022-10-05,清算の結了等,,,2015-10-05,1,,,,,,0
144,1080102014154,登記記録の閉鎖等,0,2022-10-19,2022-10-17,有限会社白井薬局,,有限会社,静岡県,富士市,吉原５丁目１番１７号,,22,210,4170051,,,2022-10-17,清算の結了等,,,2015-10-05,1,,,,,シライヤッキョク,0
161,1120001246521,登記記録の閉鎖等,0,2022-10-19,2022-10-06,上六商工株式会社,,株式会社,大阪府,大阪市天王寺区,上本町５丁目２番地の６,,27,109,5430001,,,2022-10-06,清算の結了等,,,2022-06-10,1,,,,,,0
180,1130001065342,登記記録の閉鎖等,0,2022-10-19,2022-10-11,株式会社ＮＥＳＴ,,株式会社,京都府,京都市伏見区,深草綿森町１６番地１,,26,109,6120022,,,2022-10-11,清算の結了等,,,2019-09-25,1,,,,,ネスト,0
186,1140001015255,登記記録の閉鎖等,0,2022-10-19,2022-10-07,株式会社中野工務店,,株式会社,兵庫県,神戸市北区,淡河町野瀬３５０番地,,28,109,6511623,,,2022-10-07,清算の結了等,,,2015-10-05,1,,,,,ナカノコウムテン,0
190,1140002022168,登記記録の閉鎖等,0,2022-10-19,2022-10-17,有限会社フレックス,,有限会社,兵庫県,神戸市灘区,篠原中町１丁目４番１０号,,28,102,6570066,,,2022-10-17,清算の結了等,,,2015-10-05,1,,,,,フレックス,0
198,1180001025283,登記記録の閉鎖等,0,2022-10-19,2022-10-12,クマザワ装備株式会社,,株式会社,愛知県,尾張旭市,印場元町４丁目１番地１９,,23,226,4880840,,,2022-10-12,清算の結了等,,,2015-10-05,1,,,,,クマザワソウビ,0
211,1180001125711,登記記録の閉鎖等,0,2022-10-19,2022-10-11,株式会社パティスリーシフクノキ,,株式会社,愛知県,小牧市,応時３丁目１０８番地２,,23,219,4850832,,,2022-10-11,清算の結了等,,,2016-11-30,1,,,,,パティスリーシフクノキ,0
217,1180003009714,登記記録の閉鎖等,0,2022-10-19,2022-10-12,合同会社アイズ,,合同会社,愛知県,名古屋市南区,駈上１丁目１３番１１号,,23,112,4570007,,,2022-10-12,合併による解散等,4180003009430,令和４年１０月１２日名古屋市南区駈上一丁目１３番１１号合同会社ウイット（4180003009430）に合併し解散,2015-10-05,1,,,,,アイズ,0
221,1200003003029,登記記録の閉鎖等,0,2022-10-19,2022-10-17,高橋商店合同会社,,合同会社,岐阜県,岐阜市,折立５４６番地２,,21,201,5011132,,,2022-10-17,清算の結了等,,,2015-10-05,1,,,,,タカハシショウテン,0
227,1240001043551,登記記録の閉鎖等,0,2022-10-19,2022-10-18,株式会社オリーブ,,株式会社,広島県,広島市南区,似島町字家下６０５番地の１,,34,103,7340017,,,2022-10-18,清算の結了等,,,2015-10-05,1,,,,,オリーブ,0
228,1240001052346,登記記録の閉鎖等,0,2022-10-19,2022-10-17,株式会社アシストメンテナンス,,株式会社,広島県,広島市西区,南観音２丁目２番５－１０２号,,34,104,7330035,,,2022-10-17,清算の結了等,,,2018-02-07,1,,,,,アシストメンテナンス,0
235,1260001011696,登記記録の閉鎖等,0,2022-10-19,2022-10-17,株式会社エコおかやま,,株式会社,岡山県,岡山市北区,大内田１３６７番地１,,33,101,7010165,,,2022-10-17,清算の結了等,,,2015-10-05,1,,,,,エコオカヤマ,0
238,1270002004772,登記記録の閉鎖等,0,2022-10-19,2022-10-17,有限会社丸善,,有限会社,鳥取県,鳥取市,用瀬町鷹狩１９０番地２,,31,201,6891213,,,2022-10-17,清算の結了等,,,2015-10-05,1,,,,,マルゼン,0
249,1330002002357,登記記録の閉鎖等,0,2022-10-19,2022-10-13,有限会社川上土木開発,,有限会社,熊本県,熊本市南区,八幡７丁目５番４１号,,43,104,8614113,,,2022-10-13,清算の結了等,,,2015-10-05,1,,,,,カワカミドボクカイハツ,0
255,1370001015983,登記記録の閉鎖等,0,2022-10-19,2022-09-21,株式会社藤嶋建設,,株式会社,宮城県,仙台市若林区,かすみ町１６番１１号,,04,103,9840822,,,2022-09-21,清算の結了等,,,2015-10-05,1,,,,,,0
269,1400001004090,登記記録の閉鎖等,0,2022-10-19,2022-10-17,株式会社ＳＵＮＳＵＮ企画,,株式会社,岩手県,盛岡市,中央通１丁目７番１６号,,03,201,0200021,,,2022-10-17,清算の結了等,,,2015-10-05,1,,,,,サンサンキカク,0
270,1400001009156,登記記録の閉鎖等,0,2022-10-19,2022-10-17,株式会社工藤工務店,,株式会社,岩手県,二戸市,堀野字東側２１番地,,03,213,0286105,,,2022-10-17,清算の結了等,,,2015-10-05,1,,,,,クドウコウムテン,0
273,1400502000431,登記記録の閉鎖等,0,2022-10-19,2022-10-14,有限会社第一興業,,有限会社,岩手県,一関市,蘭梅町９番１２号,,03,209,0210014,,,2022-10-14,清算の結了等,,,2015-10-05,1,,,,,ダイイチコウギョウ,0
274,1410001006169,登記記録の閉鎖等,0,2022-10-19,2022-10-14,株式会社ユキザワ,,株式会社,秋田県,大館市,雪沢字鯰沢４０番地,,05,204,0170021,,,2022-10-14,合併による解散等,2380001016848,令和４年１０月１日福島県双葉郡富岡町大字小良ヶ浜字松葉原４７番地太平洋ブリーディング株式会社（2380001016848）に合併し解散,2015-10-05,1,,,,,ユキザワ,0
275,1410001007373,登記記録の閉鎖等,0,2022-10-19,2022-10-14,島英商事株式会社,,株式会社,秋田県,秋田市,外旭川字神田７９１番地１９,,05,201,0100802,,,2022-10-14,清算の結了等,,,2015-10-05,1,,,,,シマエイショウジ,0
277,1430001018419,登記記録の閉鎖等,0,2022-10-19,2022-10-07,株式会社陸王,,株式会社,北海道,札幌市中央区,南二十一条西１１丁目１番１号,,01,101,0640921,,,2022-10-07,清算の結了等,,,2022-06-07,1,,,,,リクオウ,0
301,2010002005408,登記記録の閉鎖等,0,2022-10-19,2022-10-07,有限会社ベーカークラスティー,,有限会社,東京都,文京区,千駄木５丁目５０番１号,,13,105,1130022,,,2022-10-07,清算の結了等,,,2015-10-05,1,,,,,ベーカークラスティー,0
302,2010002034729,登記記録の閉鎖等,0,2022-10-19,2022-10-11,キャナル・インベストメント有限会社,,有限会社,東京都,千代田区,神田神保町１丁目１１番地さくら綜合事務所内,,13,101,1010051,,,2022-10-11,清算の結了等,,,2015-10-05,1,,,,,キャナルインベストメント,0
304,2010003028325,登記記録の閉鎖等,0,2022-10-19,2022-10-11,合同会社堀インベストメント,,合同会社,東京都,文京区,湯島３丁目２８－１８アドホームズキュービック２０４,,13,105,1130034,,,2022-10-11,清算の結了等,,,2018-10-02,1,,,,,ホリインベストメント,0
311,2010401164011,登記記録の閉鎖等,0,2022-10-19,2022-09-30,ＨＹ株式会社,,株式会社,東京都,港区,浜松町２丁目２番１５号浜松町ダイヤビル２階,,13,103,1050013,,,2022-09-30,清算の結了等,,,2021-11-25,1,,,,,エイチワイ,0
312,2010403027190,登記記録の閉鎖等,0,2022-10-19,2022-09-30,ＮＳ－１合同会社,,合同会社,東京都,港区,南麻布５丁目２番５号ザ・ハウス南麻布１０１号室,,13,103,1060047,,,2022-09-30,合併による解散等,8010601011899,令和４年９月３０日東京都港区虎ノ門四丁目１番３４号株式会社古知（8010601011899）に合併し解散,2022-03-04,1,,,,,エヌエスワン,0
314,2010502011087,登記記録の閉鎖等,0,2022-10-19,2022-10-17,有限会社三善,,有限会社,東京都,台東区,浅草４丁目４３番６号,,13,106,1110032,,,2022-10-17,清算の結了等,,,2015-10-05,1,,,,,ミツゼン,0
316,2010601035482,登記記録の閉鎖等,0,2022-10-19,2022-10-13,株式会社ワンノート,,株式会社,東京都,江東区,東砂７丁目１９番３２－２０１号,,13,108,1360074,,,2022-10-13,清算の結了等,,,2015-10-05,1,,,,,ワンノート,0
330,2011001102344,登記記録の閉鎖等,0,2022-10-19,2022-09-30,ＭＭ株式会社,,株式会社,東京都,港区,南麻布４丁目１１番２１号,,13,103,1060047,,,2022-09-30,清算の結了等,,,2015-10-05,1,,,,,エムエム,0
332,2011001119891,登記記録の閉鎖等,0,2022-10-19,2022-10-05,株式会社Ｐｒｏｐａｇａｔｉｏｎ,,株式会社,東京都,渋谷区,道玄坂２丁目１０番１２号新大宗ビル３号館５３１号,,13,113,1500043,,,2022-10-05,清算の結了等,,,2017-12-25,1,,,,,プロパゲーション,0
337,2011003009406,登記記録の閉鎖等,0,2022-10-19,2022-10-07,合同会社Ｍｉａｕｌｅｒ　Ｍｅｗ,,合同会社,東京都,渋谷区,渋谷２丁目７番１３号ネオメット青山３階,,13,113,1500002,,,2022-10-07,清算の結了等,,,2018-11-27,1,,,,,ミオレミュー,0
338,2011003009760,登記記録の閉鎖等,0,2022-10-19,2022-10-06,合同会社セイムズラボ,,合同会社,東京都,目黒区,南３丁目１２番７－２０５号メインステージ目黒南,,13,110,1520013,,,2022-10-06,清算の結了等,,,2019-03-13,1,,,,,セイムズラボ,0
339,2011005009016,登記記録の閉鎖等,0,2022-10-19,2022-10-07,一般社団法人信源水素バイオテック研究センター,,その他の設立登記法人,東京都,渋谷区,神宮前５丁目１８番１３号１Ｆ,,13,113,1500001,,,2022-10-07,清算の結了等,,,2021-04-26,1,,,,,シンゲンスイソバイオテックケンキュウセンター,0
346,2011301017440,登記記録の閉鎖等,0,2022-10-19,2022-10-14,株式会社海のしずく,,株式会社,東京都,練馬区,上石神井４丁目５番１号,,13,120,1770044,,,2022-10-14,清算の結了等,,,2015-10-05,1,,,,,ウミノシズク,0
362,2020001001316,登記記録の閉鎖等,0,2022-10-19,2022-10-11,九十九里商事株式会社,,株式会社,神奈川県,横浜市瀬谷区,橋戸２丁目２６番地の１４,,14,114,2460037,,,2022-10-11,清算の結了等,,,2015-10-05,1,,,,,ツクモショウジ,0
371,2020002025462,登記記録の閉鎖等,0,2022-10-19,2022-10-12,有限会社荒木材木店,,有限会社,神奈川県,横浜市神奈川区,大口仲町１４番地の３,,14,102,2210003,,,2022-10-12,清算の結了等,,,2015-10-05,1,,,,,アラキザイモクテン,0
372,2020002035255,登記記録の閉鎖等,0,2022-10-19,2022-10-11,有限会社博善,,有限会社,神奈川県,横浜市港北区,新吉田東８丁目４０番２６号,,14,109,2230058,,,2022-10-11,清算の結了等,,,2015-10-05,1,,,,,,0
374,2020002076497,登記記録の閉鎖等,0,2022-10-19,2022-10-11,有限会社ヨコイホーム,,有限会社,神奈川県,横浜市旭区,白根７丁目１８番１５号,,14,112,2410005,,,2022-10-11,清算の結了等,,,2015-10-05,1,,,,,ヨコイホーム,0
414,2050001038297,登記記録の閉鎖等,0,2022-10-19,2022-10-11,万屋太郎株式会社,,株式会社,茨城県,水戸市,田野町１０４５番地の１,,08,201,3100901,,,2022-10-11,清算の結了等,,,2015-10-05,1,,,,,,0
415,2050002032200,登記記録の閉鎖等,0,2022-10-19,2022-10-11,藤田運送有限会社,,有限会社,茨城県,高萩市,大字高戸２１８番地の１,,08,214,3180002,,,2022-10-11,清算の結了等,,,2015-10-05,1,,,,,フジタウンソウ,0
417,2060002006509,登記記録の閉鎖等,0,2022-10-19,2022-10-12,有限会社栃木県総合教育研究所,,有限会社,栃木県,宇都宮市,花園町１３番１４号,,09,201,3200843,,,2022-10-12,清算の結了等,,,2015-10-05,1,,,,,トチギケンソウゴウキョウイクケンキュウジョ,0
420,2070001006723,登記記録の閉鎖等,0,2022-10-19,2022-10-11,群馬ビルメンテナンス株式会社,,株式会社,群馬県,高崎市,昭和町３９番地,,10,202,3700068,,,2022-10-11,清算の結了等,,,2015-10-05,1,,,,,グンマビルメンテナンス,0
428,2110002015660,登記記録の閉鎖等,0,2022-10-19,2022-10-17,有限会社渡辺サッシ工業,,有限会社,新潟県,新発田市,乙次４３６番地の１,,15,206,9592323,,,2022-10-17,清算の結了等,,,2015-10-05,1,,,,,ワタナベサッシコウギョウ,0
464,2140001017275,登記記録の閉鎖等,0,2022-10-19,2022-10-11,株式会社板宿マル井,,株式会社,兵庫県,神戸市須磨区,前池町２丁目２番２号,,28,107,6540011,,,2022-10-11,清算の結了等,,,2015-10-05,1,,,,,イタヤドマルイ,0
478,2180001081953,登記記録の閉鎖等,0,2022-10-19,2022-10-11,浅井瓦興業株式会社,,株式会社,愛知県,一宮市,神山３丁目８番１号,,23,203,4910904,,,2022-10-11,清算の結了等,,,2015-10-05,1,,,,,アサイカワラコウギョウ,0
486,2180301028118,登記記録の閉鎖等,0,2022-10-19,2022-10-11,株式会社エフォート,,株式会社,愛知県,豊川市,金屋町３９番地１,,23,207,4420053,,,2022-10-11,清算の結了等,,,2015-10-05,1,,,,,エフォート,0
487,2180301033035,登記記録の閉鎖等,0,2022-10-19,2022-10-11,株式会社伊奈建築設計,,株式会社,愛知県,田原市,大久保町門前７７番地１,,23,231,4413426,,,2022-10-11,清算の結了等,,,2019-10-10,1,,,,,イナケンチクセッケイ,0
498,2240002037147,登記記録の閉鎖等,0,2022-10-19,2022-10-17,有限会社ナカタニ,,有限会社,広島県,廿日市市,峠１１１番地の３,,34,213,7380202,,,2022-10-17,清算の結了等,,,2015-10-05,1,,,,,ナカタニ,0
504,2280002008887,登記記録の閉鎖等,0,2022-10-19,2022-10-17,有限会社サングリーン開発,,有限会社,島根県,浜田市,旭町丸原７０番地１,,32,202,6970426,,,2022-10-17,清算の結了等,,,2015-10-05,1,,,,,サングリーンカイハツ,0
508,2290005015285,登記記録の閉鎖等,0,2022-10-19,2022-10-18,一般財団法人加布里末松政右衛門ふれ愛基金,,その他の設立登記法人,福岡県,糸島市,篠原西３丁目８番２１号,,40,230,8191129,,,2022-10-18,清算の結了等,,,2015-10-05,1,,,,,カフリスエマツマサエモンフレアイキキン,0
509,2290802015272,登記記録の閉鎖等,0,2022-10-19,2022-10-17,有限会社平成自動車整備,,有限会社,福岡県,北九州市八幡西区,夕原町３番４４号,,40,109,8070813,,,2022-10-17,清算の結了等,,,2015-10-05,1,,,,,,0
512,2320003002125,登記記録の閉鎖等,0,2022-10-19,2022-10-14,合同会社アシスト,,合同会社,大分県,大分市,高松１丁目２番４号平野ビル１０１号,,44,201,8700917,,,2022-10-14,清算の結了等,,,2015-10-05,1,,,,,,0
527,2370001012451,登記記録の閉鎖等,0,2022-10-19,2022-10-11,株式会社ザ・ホームの会,,株式会社,宮城県,仙台市青葉区,上杉２丁目１番１４号,,04,101,9800011,,,2022-10-11,清算の結了等,,,2015-10-05,1,,,,,ザホームノカイ,0
533,2380002007433,登記記録の閉鎖等,0,2022-10-19,2022-10-11,有限会社暁設計企画,,有限会社,福島県,郡山市,芳賀１丁目７番４３号,,07,203,9638813,,,2022-10-11,清算の結了等,,,2015-10-05,1,,,,,アカツキセッケイキカク,0
541,2420002001448,登記記録の閉鎖等,0,2022-10-19,2022-10-14,有限会社神商店,,有限会社,青森県,青森市,旭町２丁目５番３０号,,02,201,0300851,,,2022-10-14,清算の結了等,,,2015-10-05,1,,,,,ジンショウテン,0
552,2430002014052,登記記録の閉鎖等,0,2022-10-19,2022-10-06,有限会社トミケン,,有限会社,北海道,札幌市南区,南沢三条１丁目４番１０号,,01,106,0050823,,,2022-10-06,清算の結了等,,,2015-10-05,1,,,,,トミケン,0
556,2480002008743,登記記録の閉鎖等,0,2022-10-19,2022-10-17,有限会社楽一,,有限会社,徳島県,徳島市,伊賀町３丁目２番地の２,,36,201,7700926,,,2022-10-17,清算の結了等,,,2015-10-05,1,,,,,ラクイチ,0
559,3010001119100,登記記録の閉鎖等,0,2022-10-19,2022-10-13,株式会社アスティ,,株式会社,岩手県,盛岡市,神明町４番２０号,,03,201,0200884,,,2022-10-13,合併による解散等,3400001008593,令和４年１０月１日岩手県盛岡市緑が丘四丁目１番５０号株式会社アスティＬＱ（3400001008593）に合併し解散,2015-10-05,1,,,,,アスティ,0
602,3011002005537,登記記録の閉鎖等,0,2022-10-19,2022-10-05,有限会社静岡園,,有限会社,東京都,渋谷区,宇田川町２７番６号,,13,113,1500042,,,2022-10-05,清算の結了等,,,2015-10-05,1,,,,,シズオカエン,0
605,3011003000553,登記記録の閉鎖等,0,2022-10-19,2022-10-05,合資会社米山電気工業所,,合資会社,東京都,渋谷区,幡ヶ谷２丁目２０番１０号,,13,113,1510072,,,2022-10-05,清算の結了等,,,2015-10-05,1,,,,,ヨネヤマデンキコウギョウショ,0
609,3011005009015,登記記録の閉鎖等,0,2022-10-19,2022-10-07,一般社団法人日中新産業連盟,,その他の設立登記法人,東京都,渋谷区,神宮前５丁目１８番１３号１Ｆ,,13,113,1500001,,,2022-10-07,清算の結了等,,,2021-04-26,1,,,,,ニッチュウシンサンギョウレンメイ,0
627,3011505001355,登記記録の閉鎖等,0,2022-10-19,2022-10-12,一般社団法人ＣＬＰ１号,,その他の設立登記法人,東京都,北区,赤羽南１丁目４番１２号ジュヒロプラザ赤羽８０７,,13,117,1150044,,,2022-10-12,清算の結了等,,,2015-10-05,1,,,,,シーエルピーイチゴウ,0
630,3011603002569,登記記録の閉鎖等,0,2022-10-19,2022-10-13,エッジフォール合同会社,,合同会社,東京都,練馬区,桜台２丁目５５番１３号エーデル桜台Ａ号室,,13,120,1760002,,,2022-10-13,清算の結了等,,,2019-03-11,1,,,,,エッジフォール,0
639,3013205000265,登記記録の閉鎖等,0,2022-10-19,2022-10-06,医療法人社団市川診療所,,その他の設立登記法人,東京都,目黒区,鷹番２丁目５番２号２階,,13,110,1520004,,,2022-10-06,清算の結了等,,,2015-10-05,1,,,,,イチカワシンリョウショ,0
642,3020001012782,登記記録の閉鎖等,0,2022-10-19,2022-10-07,株式会社金港美装,,株式会社,神奈川県,横浜市南区,山王町２丁目１６ライオンズマンション吉野町第５－１０５号,,14,105,2320013,,,2022-10-07,清算の結了等,,,2015-10-05,1,,,,,キンコウビソウ,0
678,3070001013108,登記記録の閉鎖等,0,2022-10-19,2022-10-13,井田印刷株式会社,,株式会社,群馬県,伊勢崎市,田中町３６番地１,,10,204,3720814,,,2022-10-13,清算の結了等,,,2015-10-05,1,,,,,イダインサツ,0
687,3080402007269,登記記録の閉鎖等,0,2022-10-19,2022-10-18,有限会社豊隆製作所,,有限会社,静岡県,浜松市中区,西丘町８１２番地,,22,131,4338116,,,2022-10-18,清算の結了等,,,2015-10-05,1,,,,,,0
690,3110001016709,登記記録の閉鎖等,0,2022-10-19,2022-10-17,株式会社さくらバス,,株式会社,新潟県,燕市,小池字上通４８５２番地２,,15,213,9591276,,,2022-10-17,清算の結了等,,,2015-10-05,1,,,,,サクラバス,0
711,3120102023776,登記記録の閉鎖等,0,2022-10-19,2022-10-14,有限会社長利,,有限会社,大阪府,泉佐野市,高松西１丁目２０５４番地の２,,27,213,5980016,,,2022-10-14,清算の結了等,,,2015-10-05,1,,,,,ナガリ,0
714,3120902018026,登記記録の閉鎖等,0,2022-10-19,2022-10-07,ジョーシン酒販株式会社,,株式会社,大阪府,大阪市浪速区,難波中３丁目１番１５号ジョーシンなんばビル,,27,111,5560011,,,2022-10-07,合併による解散等,9120001038564,令和４年１０月１日大阪市浪速区日本橋西一丁目６番５号上新電機株式会社（9120001038564）に合併し解散,2015-10-05,1,,,,,ジョーシンシュハン,0
715,3120902020411,登記記録の閉鎖等,0,2022-10-19,2022-10-18,有限会社ビッグスピリット,,有限会社,大阪府,豊中市,豊南町南２丁目６番１３号,,27,203,5610815,,,2022-10-18,清算の結了等,,,2015-10-05,1,,,,,ビッグスピリット,0
729,3130005015960,登記記録の閉鎖等,0,2022-10-19,2022-10-11,一般社団法人山エネ,,その他の設立登記法人,京都府,京都市左京区,岩倉花園町２９７番地１３,,26,103,6060024,,,2022-10-11,清算の結了等,,,2020-08-18,1,,,,,ヤマエネ,0
762,3180005008943,登記記録の閉鎖等,0,2022-10-19,2022-10-14,旭機械工業協同組合,,その他の設立登記法人,愛知県,尾張旭市,旭前町新田洞５０５０番地株式会社エーオー内,,23,226,4880852,,,2022-10-14,清算の結了等,,,2015-10-05,1,,,,,アサヒキカイコウギョウ,0
764,3180301025007,登記記録の閉鎖等,0,2022-10-19,2022-10-13,株式会社ＭＡＤＯＫＡ,,株式会社,愛知県,岡崎市,美合町字本郷４８番地,,23,202,4440802,,,2022-10-13,清算の結了等,,,2015-10-05,1,,,,,マドカ,0
778,3220003001004,登記記録の閉鎖等,0,2022-10-19,2022-10-17,レインボーキャンドル合同会社,,合同会社,石川県,金沢市,桂町イ３７－１,,17,201,9200334,,,2022-10-17,清算の結了等,,,2015-10-05,1,,,,,レインボーキャンドル,0
779,3220005003601,登記記録の閉鎖等,0,2022-10-19,2022-10-14,名正寺,,その他の設立登記法人,石川県,能美市,上開発町イ９６番地,,17,211,9231231,,,2022-10-14,清算の結了等,,,2015-10-05,1,,,,,ミョウショウジ,0
787,3270001004243,登記記録の閉鎖等,0,2022-10-19,2022-10-14,株式会社フレール,,株式会社,島根県,安来市,伯太町東母里４６８番地,,32,206,6920207,,,2022-10-14,合併による解散等,8270001005765,令和４年１０月１日鳥取県西伯郡伯耆町金屋谷２番地１株式会社桝水リゾート（8270001005765）に合併し解散,2015-10-05,1,,,,,フレール,0
802,3330003003831,登記記録の閉鎖等,0,2022-10-19,2022-10-13,合同会社美容室ハート２,,合同会社,熊本県,熊本市北区,大窪２丁目２番２８号,,43,105,8600083,,,2022-10-13,清算の結了等,,,2015-10-05,1,,,,,ビヨウシツハート,0
826,3430001044512,登記記録の閉鎖等,0,2022-10-19,2022-09-30,株式会社ＦＪＫＣ,,株式会社,北海道,千歳市,高台６丁目２番４号,,01,224,0660035,,,2022-09-30,清算の結了等,,,2015-10-05,1,,,,,エフジェイケーシー,0
829,3430002002205,登記記録の閉鎖等,0,2022-10-19,2022-10-06,有限会社イワサキ,,有限会社,北海道,札幌市西区,西野八条４丁目１９－６,,01,107,0630038,,,2022-10-06,清算の結了等,,,2015-10-05,1,,,,,イワサキ,0
837,3480001007357,登記記録の閉鎖等,0,2022-10-19,2022-10-17,株式会社徳島グリーン化学,,株式会社,徳島県,美馬郡つるぎ町,貞光字宮内１８０番地,,36,468,7794103,,,2022-10-17,清算の結了等,,,2015-10-05,1,,,,,トクシマグリーンカガク,0
848,4010001102360,登記記録の閉鎖等,0,2022-10-19,2022-10-12,ゴールドクレストメディック株式会社,,株式会社,東京都,文京区,本郷５丁目２３番１３号,,13,105,1130033,,,2022-10-12,清算の結了等,,,2015-10-05,1,,,,,ゴールドクレストメディック,0
855,4010001153115,登記記録の閉鎖等,0,2022-10-19,2022-10-07,株式会社ＫＥＩＥＮ,,株式会社,東京都,渋谷区,神宮前４丁目３１番１１号コスモ原宿ビル８０１号,,13,113,1500001,,,2022-10-07,清算の結了等,,,2015-10-05,1,,,,,ケイエン,0
860,4010002006445,登記記録の閉鎖等,0,2022-10-19,2022-10-11,有限会社ライス,,有限会社,東京都,文京区,小石川１丁目１６番４号,,13,105,1120002,,,2022-10-11,清算の結了等,,,2015-10-05,1,,,,,ライス,0
861,4010002037928,登記記録の閉鎖等,0,2022-10-19,2022-10-11,有限会社パークビュー・インベストメント,,有限会社,東京都,千代田区,神田神保町１丁目１１番地三井生命神保町ビル１１階さくら綜合事務所内,,13,101,1010051,,,2022-10-11,清算の結了等,,,2015-10-05,1,,,,,パークビューインベストメント,0
868,4010005034179,登記記録の閉鎖等,0,2022-10-19,2022-10-03,一般社団法人現代文明研究所,,その他の設立登記法人,兵庫県,宝塚市,武庫山２丁目１７番１２号,,28,214,6650005,,,2022-10-03,清算の結了等,,,2021-11-08,1,,,,,ゲンダイブンメイケンキュウショ,0
876,4010401139688,登記記録の閉鎖等,0,2022-10-19,2022-09-30,ＲＥＰＬグループ株式会社,,株式会社,東京都,港区,赤坂１丁目８番１号,,13,103,1070052,,,2022-09-30,清算の結了等,,,2018-07-19,1,,,,,アールイーピーエルグループ,0
877,4010401141710,登記記録の閉鎖等,0,2022-10-19,2022-10-18,株式会社Ｊ．Ｋ,,株式会社,東京都,港区,東麻布２丁目９番６号パシフィックハウス麻布台Ｅ１０１,,13,103,1060044,,,2022-10-18,清算の結了等,,,2018-11-01,1,,,,,ジェーケー,0
884,4010601003826,登記記録の閉鎖等,0,2022-10-19,2022-10-13,東静ポリマー株式会社,,株式会社,東京都,江東区,扇橋１丁目１６番１－１２０２号,,13,108,1350011,,,2022-10-13,清算の結了等,,,2015-10-05,1,,,,,トウセイポリマー,0
889,4010802001026,登記記録の閉鎖等,0,2022-10-19,2022-10-06,有限会社池上いとうスタジオ,,有限会社,東京都,大田区,池上３丁目２５番１４号,,13,111,1460082,,,2022-10-06,清算の結了等,,,2015-10-05,1,,,,,イケガミイトウスタジオ,0
891,4010803002799,登記記録の閉鎖等,0,2022-10-19,2022-10-11,合同会社堀ファンド,,合同会社,東京都,大田区,南六郷３丁目１４－１－１０１,,13,111,1440045,,,2022-10-11,清算の結了等,,,2018-09-27,1,,,,,ホリファンド,0
898,4011001071802,登記記録の閉鎖等,0,2022-10-19,2022-10-04,株式会社Ｑｏｎｃｅｐｔ,,株式会社,東京都,渋谷区,渋谷２丁目１９番１５号,,13,113,1500002,,,2022-10-04,合併による解散等,1010001200514,令和４年１０月１日東京都渋谷区渋谷二丁目１９番１５号株式会社ＱｏｎｃｅｐｔＳＴＬ（1010001200514）に合併し解散,2015-10-05,1,,,,,コンセプト,0
911,4011002002954,登記記録の閉鎖等,0,2022-10-19,2022-10-05,有限会社カザリ,,有限会社,東京都,渋谷区,千駄ヶ谷５丁目２番２号,,13,113,1510051,,,2022-10-05,清算の結了等,,,2015-10-05,1,,,,,カザリ,0
925,4011202005690,登記記録の閉鎖等,0,2022-10-19,2022-10-11,有限会社丸十富樫ベーカリー,,有限会社,東京都,中野区,松が丘１丁目２番２０号,,13,114,1650024,,,2022-10-11,清算の結了等,,,2015-10-05,1,,,,,マルジュウトガシベーカリー,0
934,4011805002894,登記記録の閉鎖等,0,2022-10-19,2022-10-12,特定非営利活動法人ソノ・エデュケーション,,その他の設立登記法人,東京都,足立区,綾瀬５丁目１４番６号,,13,121,1200005,,,2022-10-12,清算の結了等,,,2019-07-31,1,,,,,ソノエデュケーション,0
941,4020001093797,登記記録の閉鎖等,0,2022-10-19,2022-10-11,タナカプランニング株式会社,,株式会社,神奈川県,横浜市緑区,十日市場町８８９番地５,,14,113,2260025,,,2022-10-11,清算の結了等,,,2015-10-05,1,,,,,タナカプランニング,0
963,4030001036243,登記記録の閉鎖等,0,2022-10-19,2022-10-05,南埼液化ガス株式会社,,株式会社,埼玉県,八潮市,大字大曽根１１５１番１,,11,234,3400834,,,2022-10-05,清算の結了等,,,2015-10-05,1,,,,,ナンサイエキカガス,0
964,4030001047661,登記記録の閉鎖等,0,2022-10-19,2022-10-07,株式会社ファブアングル,,株式会社,埼玉県,富士見市,鶴瀬西２丁目１５番２１号,,11,235,3540026,,,2022-10-07,清算の結了等,,,2015-10-05,1,,,,,ファブアングル,0
970,4030002105749,登記記録の閉鎖等,0,2022-10-19,2022-10-06,有限会社新堀工業所,,有限会社,埼玉県,川口市,上青木５丁目２３番１８号,,11,203,3330844,,,2022-10-06,清算の結了等,,,2015-10-05,1,,,,,ニイボリコウギョウショ,0
977,4040001119617,登記記録の閉鎖等,0,2022-10-19,2022-10-11,株式会社ＨＭマーケティング,,株式会社,宮城県,仙台市青葉区,本町１丁目５番２８号カーニープレイス仙台駅前通６０３号室,,04,101,9800014,,,2022-10-11,清算の結了等,,,2021-08-05,1,,,,,エイチエムマーケティング,0
1009,4120001152527,登記記録の閉鎖等,0,2022-10-19,2022-10-14,株式会社ファミリーライフ,,株式会社,大阪府,枚方市,大垣内町２丁目８番２７号,,27,210,5730027,,,2022-10-14,清算の結了等,,,2015-10-05,1,,,,,ファミリーライフ,0
1012,4120002066115,登記記録の閉鎖等,0,2022-10-19,2022-10-17,有限会社アイ・オー・ユー,,有限会社,大阪府,箕面市,桜ケ丘３丁目１１番４１号,,27,220,5620046,,,2022-10-17,清算の結了等,,,2015-10-05,1,,,,,アイオーユー,0
1019,4120902009809,登記記録の閉鎖等,0,2022-10-19,2022-10-18,有限会社岡崎電創,,有限会社,大阪府,高槻市,南平台４丁目１５番１９号,,27,207,5691042,,,2022-10-18,清算の結了等,,,2015-10-05,1,,,,,オカザキデンソウ,0
1023,4130001035301,登記記録の閉鎖等,0,2022-10-19,2022-10-13,リールクリエイト株式会社,,株式会社,京都府,京都市北区,小山西元町４７番地２,,26,101,6038113,,,2022-10-13,清算の結了等,,,2015-10-05,1,,,,,リールクリエイト,0
1024,4130001036984,登記記録の閉鎖等,0,2022-10-19,2022-10-06,豊測量株式会社,,株式会社,京都府,相楽郡精華町,大字南稲八妻小字堂垣内２２番地,,26,366,6190243,,,2022-10-06,清算の結了等,,,2015-10-05,1,,,,,ユタカソクリョウ,0
1026,4130001050498,登記記録の閉鎖等,0,2022-10-19,2022-10-11,株式会社創建開発,,株式会社,京都府,京都市伏見区,中島河原田町１２３番地の２４,,26,109,6128469,,,2022-10-11,清算の結了等,,,2015-10-05,1,,,,,ソウケンカイハツ,0
1045,4170002003567,登記記録の閉鎖等,0,2022-10-19,2022-10-17,有限会社マルジョー,,有限会社,和歌山県,和歌山市,岡山丁３０番地,,30,201,6408145,,,2022-10-17,清算の結了等,,,2015-10-05,1,,,,,,0
1047,4170002006990,登記記録の閉鎖等,0,2022-10-19,2022-10-17,有限会社紀州なっぱファーム,,有限会社,和歌山県,有田郡広川町,大字上中野５３２番地,,30,362,6430064,,,2022-10-17,清算の結了等,,,2015-10-05,1,,,,,,0
1048,4180001050683,登記記録の閉鎖等,0,2022-10-19,2022-10-12,宝金属工業株式会社,,株式会社,愛知県,名古屋市南区,要町５丁目８０番地,,23,112,4570802,,,2022-10-12,清算の結了等,,,2022-05-19,1,,,,,タカラキンゾクコウギョウ,0
1051,4180002002618,登記記録の閉鎖等,0,2022-10-19,2022-10-11,有限会社アイコー測量設計,,有限会社,愛知県,名古屋市名東区,香坂１３０９番地,,23,115,4650007,,,2022-10-11,清算の結了等,,,2015-10-05,1,,,,,アイコーソクリョウセッケイ,0
1057,4180301014776,登記記録の閉鎖等,0,2022-10-19,2022-10-14,太陽ＧＳＣ建設株式会社,,株式会社,愛知県,知立市,西町宮腰６４番地,,23,225,4720023,,,2022-10-14,合併による解散等,4180001068305,令和４年１０月１日名古屋市中村区名駅一丁目１番１号ＪＰタワー名古屋１５Ｆフィリックス株式会社（4180001068305）に合併し解散,2015-10-05,1,,,,,タイヨウジーエスシーケンセツ,0
1058,4180302009115,登記記録の閉鎖等,0,2022-10-19,2022-10-11,有限会社野口組,,有限会社,愛知県,豊橋市,山田一番町１４９番地の１,,23,201,4418102,,,2022-10-11,清算の結了等,,,2015-10-05,1,,,,,ノグチグミ,0
1071,4240002041270,登記記録の閉鎖等,0,2022-10-19,2022-10-17,有限会社ストアーかしはら,,有限会社,広島県,福山市,川口町３丁目２５番５－１０１号,,34,207,7200822,,,2022-10-17,清算の結了等,,,2015-10-05,1,,,,,ストアーカシハラ,0
1074,4260001015199,登記記録の閉鎖等,0,2022-10-19,2022-10-18,株式会社リビング阿部,,株式会社,岡山県,倉敷市,連島町西之浦３０２番地の１,,33,202,7128001,,,2022-10-18,清算の結了等,,,2015-10-05,1,,,,,リビングアベ,0
1085,4290005017107,登記記録の閉鎖等,0,2022-10-19,2022-10-18,一般社団法人常照会,,その他の設立登記法人,福岡県,三井郡大刀洗町,大字山隈１３１３番地６,,40,503,8301226,,,2022-10-18,清算の結了等,,,2018-12-19,1,,,,,ジョウショウカイ,0
1092,4330002026238,登記記録の閉鎖等,0,2022-10-19,2022-10-11,有限会社はらだ調剤薬局,,有限会社,熊本県,八代市,大村町８６６番地６,,43,202,8660895,,,2022-10-11,清算の結了等,,,2015-10-05,1,,,,,ハラダチョウザイヤッキョク,0
1096,4350002007112,登記記録の閉鎖等,0,2022-10-19,2022-10-13,山廣有限会社,,有限会社,宮崎県,宮崎市,東大宮１丁目１０番２７号,,45,201,8800825,,,2022-10-13,清算の結了等,,,2015-10-05,1,,,,,,0
1101,4370001003291,登記記録の閉鎖等,0,2022-10-19,2022-10-11,株式会社仙都計器,,株式会社,宮城県,仙台市若林区,蒲町３４番１４号,,04,103,9840037,,,2022-10-11,清算の結了等,,,2015-10-05,1,,,,,セントケイキ,0
1102,4370002020468,登記記録の閉鎖等,0,2022-10-19,2022-10-06,有限会社チーム,,有限会社,宮城県,黒川郡大和町,吉岡南１丁目１０番地の４,,04,421,9813626,,,2022-10-06,清算の結了等,,,2015-10-05,1,,,,,チーム,0
1104,4370205001777,登記記録の閉鎖等,0,2022-10-19,2022-10-11,特定非営利活動法人クリーンせみね,,その他の設立登記法人,宮城県,栗原市,瀬峰下田９８番地４,,04,213,9894521,,,2022-10-11,清算の結了等,,,2015-10-05,1,,,,,,0
1109,4400002009417,登記記録の閉鎖等,0,2022-10-19,2022-10-12,有限会社鈴賢商事,,有限会社,岩手県,北上市,青柳町２丁目１番２７号,,03,206,0240031,,,2022-10-12,清算の結了等,,,2015-10-05,1,,,,,スズケンショウジ,0
1111,4420001008475,登記記録の閉鎖等,0,2022-10-19,2022-10-14,イワキフーズ株式会社,,株式会社,青森県,西津軽郡鰺ヶ沢町,大字建石町字島田１４２番地３,,02,321,0382702,,,2022-10-14,合併による解散等,5020001002864,令和４年１０月１日東京都大田区大森北二丁目４番１８号コスモ食品株式会社（5020001002864）に合併し解散,2015-10-05,1,,,,,イワキフーズ,0
1112,4420001010555,登記記録の閉鎖等,0,2022-10-19,2022-10-14,津軽和漢堂株式会社,,株式会社,青森県,弘前市,大字藤野２丁目３番地１,,02,202,0368326,,,2022-10-14,合併による解散等,5020001002864,令和４年１０月１日東京都大田区大森北二丁目４番１８号コスモ食品株式会社（5020001002864）に合併し解散,2015-10-05,1,,,,,ツガルワカンドウ,0
1135,5010001004283,登記記録の閉鎖等,0,2022-10-19,2022-10-11,綜合紙工株式会社,,株式会社,東京都,文京区,白山２丁目１２番１１号,,13,105,1120001,,,2022-10-11,合併による解散等,5010001002576,令和４年９月３０日東京都文京区白山二丁目１２番１１号小泉製本株式会社（5010001002576）に合併し解散,2015-10-05,1,,,,,ソウゴウシコウ,0
1136,5010001080317,登記記録の閉鎖等,0,2022-10-19,2022-10-17,アイエイ・コーポレーション株式会社,,株式会社,東京都,板橋区,南常盤台１丁目１１番６号,,13,119,1740072,,,2022-10-17,清算の結了等,,,2015-10-05,1,,,,,,0
1142,5010001219229,登記記録の閉鎖等,0,2022-10-19,2022-10-11,リンクステック株式会社,,株式会社,東京都,中央区,京橋２丁目１４番１号,,13,102,1040031,,,2022-10-11,合併による解散等,6010001207471,令和４年１０月１日東京都中央区京橋二丁目１４番１号リンクステック株式会社（6010001207471）に合併し解散,2021-06-30,1,,,,,リンクステック,0
1145,5010002034841,登記記録の閉鎖等,0,2022-10-19,2022-10-11,有限会社銀座開運社,,有限会社,東京都,中央区,銀座７丁目７番７号,,13,102,1040061,,,2022-10-11,清算の結了等,,,2015-10-05,1,,,,,ギンザカイウンシャ,0
1146,5010002049410,登記記録の閉鎖等,0,2022-10-19,2022-10-12,有限会社Ｇｌｏｂｉｚ　Ｌｉｖｅ　Ｓｔａｆｆｉｎｇ,,有限会社,東京都,中央区,銀座３丁目１４番１３号第一厚生館ビル５Ｆ,,13,102,1040061,,,2022-10-12,清算の結了等,,,2015-10-05,1,,,,,グローヴィズライブスタッフィング,0
1147,5010003016285,登記記録の閉鎖等,0,2022-10-19,2022-10-14,Ｓｉｌｖｅｒ　Ｐｅａｋ　Ｓｙｓｔｅｍｓ合同会社,,合同会社,東京都,港区,赤坂２丁目２３番１号アークヒルズ・フロントタワーＲｏＰ８０６号室,,13,103,1070052,,,2022-10-14,清算の結了等,,,2015-10-05,1,,,,,シルバーピークシステムズ,0
1168,5010801019290,登記記録の閉鎖等,0,2022-10-19,2022-10-14,株式会社ＬＡＸＭＩ　ＥＮＴＥＲＰＲＩＳＥ,,株式会社,東京都,新宿区,百人町１丁目６番１１号,,13,104,1690073,,,2022-10-14,清算の結了等,,,2015-10-05,1,,,,,ラクシミエンタープライズ,0
1173,5010902014488,登記記録の閉鎖等,0,2022-10-19,2022-10-17,有限会社マルゼン文具,,有限会社,東京都,世田谷区,用賀４丁目１４番２４号,,13,112,1580097,,,2022-10-17,清算の結了等,,,2015-10-05,1,,,,,,0
1176,5011001062271,登記記録の閉鎖等,0,2022-10-19,2022-10-05,株式会社にろ,,株式会社,東京都,渋谷区,代官山町７番８号,,13,113,1500034,,,2022-10-05,清算の結了等,,,2015-10-05,1,,,,,ニロ,0
1200,5011601016189,登記記録の閉鎖等,0,2022-10-19,2022-10-13,株式会社Ｂ－ｂｒａｎｄ,,株式会社,東京都,練馬区,貫井１丁目７番３０号,,13,120,1760021,,,2022-10-13,清算の結了等,,,2015-10-05,1,,,,,ビーブランド,0
1204,5011802014891,登記記録の閉鎖等,0,2022-10-19,2022-10-05,有限会社ソフトン,,有限会社,東京都,足立区,千住４丁目９番１号,,13,121,1200034,,,2022-10-05,清算の結了等,,,2015-10-05,1,,,,,ソフトン,0
1259,5030005016364,登記記録の閉鎖等,0,2022-10-19,2022-10-06,特定非営利活動法人美男美女の会,,その他の設立登記法人,埼玉県,上尾市,大字領家１１３６番地７,,11,219,3620066,,,2022-10-06,清算の結了等,,,2015-10-05,1,,,,,ビナンビジョノカイ,0
1264,5040001067121,登記記録の閉鎖等,0,2022-10-19,2022-09-29,鹿島興業株式会社,,株式会社,千葉県,柏市,大島田５６番地３,,12,217,2770922,,,2022-09-29,清算の結了等,,,2015-10-05,1,,,,,カシマコウギョウ,0
1270,5040002053211,登記記録の閉鎖等,0,2022-10-19,2022-10-07,有限会社まつどがくえん,,有限会社,千葉県,松戸市,上本郷３６０２番地,,12,207,2710064,,,2022-10-07,清算の結了等,,,2015-10-05,1,,,,,マツドガクエン,0
1277,5050001012332,登記記録の閉鎖等,0,2022-10-19,2022-10-13,株式会社トランシス関東,,株式会社,茨城県,小美玉市,堅倉１５８３番１４号,,08,236,3190106,,,2022-10-13,合併による解散等,9430001043673,令和４年１０月１日北海道千歳市泉沢１００７番地１８４株式会社トランシス（9430001043673）に合併し解散,2015-10-05,1,,,,,トランシスカントウ,0
1280,5050002003710,登記記録の閉鎖等,0,2022-10-19,2022-10-11,有限会社真田工務店,,有限会社,茨城県,東茨城郡茨城町,大字下石崎２４８０番地,,08,302,3113125,,,2022-10-11,清算の結了等,,,2015-10-05,1,,,,,,0
1289,5060002037212,登記記録の閉鎖等,0,2022-10-19,2022-10-11,フジケミカル有限会社,,有限会社,栃木県,足利市,大月町２２４番地２,,09,202,3260005,,,2022-10-11,清算の結了等,,,2015-10-05,1,,,,,,0
1290,5070001027527,登記記録の閉鎖等,0,2022-10-19,2022-10-11,株式会社ホシノ電工,,株式会社,群馬県,前橋市,粕川町女渕７３０番地１,,10,201,3710214,,,2022-10-11,清算の結了等,,,2015-10-05,1,,,,,ホシノデンコウ,0
1293,5070005004670,登記記録の閉鎖等,0,2022-10-19,2022-10-13,医療法人華陀の会,,その他の設立登記法人,群馬県,伊勢崎市,連取町１７８１番地６,,10,204,3720812,,,2022-10-13,清算の結了等,,,2015-10-05,1,,,,,カダノカイ,0
1296,5100001001809,登記記録の閉鎖等,0,2022-10-19,2022-10-17,株式会社ダイユー,,株式会社,長野県,長野市,松代町豊栄６４１４番地５,,20,201,3811222,,,2022-10-17,清算の結了等,,,2015-10-05,1,,,,,ダイユー,0
1300,5110002004850,登記記録の閉鎖等,0,2022-10-19,2022-10-17,有限会社新潟テント商会,,有限会社,新潟県,新潟市東区,豊２丁目３番３号,,15,102,9500812,,,2022-10-17,清算の結了等,,,2015-10-05,1,,,,,ニイガタテントショウカイ,0
1324,5120003018056,登記記録の閉鎖等,0,2022-10-19,2022-10-12,アースキッズアカデミー合同会社,,合同会社,大阪府,大阪市北区,西天満６丁目７番２号,,27,127,5300047,,,2022-10-12,清算の結了等,,,2020-09-08,1,,,,,アースキッズアカデミー,0
1326,5120101047114,登記記録の閉鎖等,0,2022-10-19,2022-10-17,株式会社泉大津チャペルスイート,,株式会社,大阪府,大阪市天王寺区,上本町８丁目６番２６号,,27,109,5430001,,,2022-10-17,清算の結了等,,,2015-10-05,1,,,,,イズミオオツチャペルスイート,0
1338,5122001029373,登記記録の閉鎖等,0,2022-10-19,2022-10-11,株式会社三優開発研究所,,株式会社,大阪府,大東市,錦町７－２５パティオ太田１０１,,27,218,5740002,,,2022-10-11,清算の結了等,,,2016-03-08,1,,,,,サンユウカイハツケンキュウショウ,0
1352,5140001063226,登記記録の閉鎖等,0,2022-10-19,2022-10-13,大阪いづみ運輸株式会社,,株式会社,兵庫県,姫路市,白浜町宇佐崎南２丁目２２番地,,28,201,6728022,,,2022-10-13,清算の結了等,,,2015-10-05,1,,,,,オオサカイヅミウンユ,0
1358,5140001092489,登記記録の閉鎖等,0,2022-10-19,2022-10-14,菊川グループ株式会社,,株式会社,兵庫県,高砂市,阿弥陀町魚橋１２４６番地１,,28,216,6760822,,,2022-10-14,清算の結了等,,,2015-10-05,1,,,,,,0
1370,5180001068584,登記記録の閉鎖等,0,2022-10-19,2022-10-13,株式会社ライテック研究所,,株式会社,愛知県,尾張旭市,桜ケ丘町１丁目２４３番地,,23,226,4880859,,,2022-10-13,清算の結了等,,,2015-10-05,1,,,,,ライテックケンキュウジョ,0
1377,5180002091214,登記記録の閉鎖等,0,2022-10-19,2022-10-13,有限会社岩本興業,,有限会社,愛知県,海部郡蟹江町,大字今字道下２７番地６,,23,425,4970032,,,2022-10-13,清算の結了等,,,2015-10-05,1,,,,,イワモトコウギョウ,0
1390,5200001034261,登記記録の閉鎖等,0,2022-10-19,2022-10-19,株式会社わこ,,株式会社,岐阜県,安八郡輪之内町,南波５０５番地１,,21,382,5030231,,,2022-10-19,清算の結了等,,,2017-07-25,1,,,,,ワコ,0
1392,5220002016091,登記記録の閉鎖等,0,2022-10-19,2022-10-14,三邦住宅商事有限会社,,有限会社,石川県,珠洲市,宝立町春日野２字１２９番地,,17,205,9271221,,,2022-10-14,清算の結了等,,,2015-10-05,1,,,,,サンポウジュウタクショウジ,0
1400,5270003000759,登記記録の閉鎖等,0,2022-10-19,2022-10-17,合同会社ケースリーエム,,合同会社,鳥取県,境港市,竹内団地２５９番地２,,31,204,6840046,,,2022-10-17,清算の結了等,,,2015-10-05,1,,,,,ケースリーエム,0
1414,5300001003322,登記記録の閉鎖等,0,2022-10-19,2022-10-11,株式会社九州コーユー,,株式会社,佐賀県,小城市,三日月町金田８１３番地,,41,208,8450032,,,2022-10-11,合併による解散等,1120001079599,令和４年１０月１日大阪市中央区南本町一丁目６番２０号株式会社コーユービジネス（1120001079599）に合併し解散,2015-10-05,1,,,,,キュウシュウコーユー,0
1429,5370402002214,登記記録の閉鎖等,0,2022-10-19,2022-10-07,有限会社森田モータース,,有限会社,宮城県,登米市,迫町佐沼字錦１２６番地の２,,04,212,9870511,,,2022-10-07,清算の結了等,,,2015-10-05,1,,,,,モリタモータース,0
1434,5380002020763,登記記録の閉鎖等,0,2022-10-19,2022-10-11,有限会社兼子工務店,,有限会社,福島県,岩瀬郡天栄村,大字白子字中屋敷４７番地,,07,344,9620511,,,2022-10-11,清算の結了等,,,2015-10-05,1,,,,,カネココウムテン,0
1456,6010001103860,登記記録の閉鎖等,0,2022-10-19,2022-10-12,株式会社寺田国際事務所,,株式会社,東京都,文京区,目白台２丁目５番１５－２０４号,,13,105,1120015,,,2022-10-12,清算の結了等,,,2015-10-05,1,,,,,テラダコクサイジムショ,0
1457,6010001106789,登記記録の閉鎖等,0,2022-10-19,2022-10-12,株式会社山田知財再生,,株式会社,東京都,千代田区,丸の内３丁目１番１号国際ビル６階,,13,101,1000005,,,2022-10-12,合併による解散等,7020001036084,令和４年１０月１日横浜市西区北幸一丁目１１番１５号横浜ＳＴビル１５階株式会社山田資産コンサル（7020001036084）に合併し解散,2015-10-05,1,,,,,ヤマダチザイサイセイ,0
1459,6010001188893,登記記録の閉鎖等,0,2022-10-19,2022-10-11,株式会社ＲＶＮＡ,,株式会社,東京都,文京区,本郷２丁目３５番１０号,,13,105,1130033,,,2022-10-11,清算の結了等,,,2018-01-19,1,,,,,ラヴァナ,0
1470,6010102007647,登記記録の閉鎖等,0,2022-10-19,2022-10-13,有限会社総合インテリアことぶき,,有限会社,東京都,八王子市,中野町２５４２番地の１２,,13,201,1920015,,,2022-10-13,清算の結了等,,,2015-10-05,1,,,,,ソウゴウインテリアコトブキ,0
1491,6010703006196,登記記録の閉鎖等,0,2022-10-19,2022-10-13,合同会社ＬＡＣＴ,,合同会社,東京都,品川区,北品川１丁目２４番４号ディライトフルーＩＩ３０１,00126340,13,109,1400001,,,2022-10-13,清算の結了等,,,2022-04-20,1,,,,,ラクト,0
1500,6011001045201,登記記録の閉鎖等,0,2022-10-19,2022-10-05,株式会社ユマコシノアソシエイツ,,株式会社,東京都,渋谷区,千駄ヶ谷３丁目４番９号,,13,113,1510051,,,2022-10-05,清算の結了等,,,2015-10-05,1,,,,,,0
1509,6011001136751,登記記録の閉鎖等,0,2022-10-19,2022-10-03,株式会社ブルースターバーガージャパン,,株式会社,東京都,渋谷区,恵比寿南１丁目１１番２号ＤＩＮＩＮＧＩＮＮＯＶＡＴＩＯＮＢＬＤＧ．,,13,113,1500022,,,2022-10-03,合併による解散等,5011001127371,令和４年１０月１日東京都渋谷区東三丁目１２番１３号ベリータ６階株式会社焼肉ライク（5011001127371）に合併し解散,2020-11-11,1,,,,,ブルースターバーガージャパン,0
1519,6011101052989,登記記録の閉鎖等,0,2022-10-19,2022-10-13,Ｍｉｋａｔｕｓ株式会社,,株式会社,東京都,中央区,日本橋馬喰町２丁目１番３号,,13,102,1030002,,,2022-10-13,合併による解散等,7010401100770,令和４年９月３０日東京都品川区大崎一丁目２番２号フリー株式会社（7010401100770）に合併し解散,2015-10-05,1,,,,,ミカタス,0
1540,6012402000331,登記記録の閉鎖等,0,2022-10-19,2022-10-13,有限会社稲垣不動産,,有限会社,東京都,府中市,美好町３丁目１２番地２,,13,206,1830045,,,2022-10-13,清算の結了等,,,2015-10-05,1,,,,,イナガキフドウサン,0
1558,6020003011862,登記記録の閉鎖等,0,2022-10-19,2022-10-07,合同会社ヒカルコーポレーション,,合同会社,神奈川県,横浜市中区,不老町１丁目２番地１,,14,104,2310032,,,2022-10-07,清算の結了等,,,2016-10-04,1,,,,,ヒカルコーポレーション,0
1561,6021002057748,登記記録の閉鎖等,0,2022-10-19,2022-10-14,有限会社小島理容所,,有限会社,神奈川県,平塚市,浅間町２番１５号,,14,203,2540041,,,2022-10-14,清算の結了等,,,2015-10-05,1,,,,,コジマリヨウショ,0
1570,6030002037866,登記記録の閉鎖等,0,2022-10-19,2022-10-07,有限会社魚庄まつむら,,有限会社,埼玉県,久喜市,本町７丁目７番１９号,,11,232,3460005,,,2022-10-07,清算の結了等,,,2015-10-05,1,,,,,ウオショウマツムラ,0
1580,6050001038863,登記記録の閉鎖等,0,2022-10-19,2022-10-13,株式会社サイオクス,,株式会社,茨城県,日立市,砂沢町８８０番地,,08,202,3191418,,,2022-10-13,合併による解散等,2010001071327,令和４年１０月１日東京都中央区日本橋二丁目７番１号住友化学株式会社（2010001071327）に合併し解散,2015-10-05,1,,,,,サイオクス,0
1586,6060001023996,登記記録の閉鎖等,0,2022-10-19,2022-10-12,株式会社中一,,株式会社,栃木県,大田原市,市野沢１１５６番地５,,09,210,3240006,,,2022-10-12,清算の結了等,,,2015-10-05,1,,,,,ナカイチ,0
1604,6120001150446,登記記録の閉鎖等,0,2022-10-19,2022-10-07,東大阪綜合開発株式会社,,株式会社,大阪府,枚方市,長尾家具町２丁目１２番１号,,27,210,5730102,,,2022-10-07,清算の結了等,,,2022-07-21,1,,,,,,0
1606,6120001184989,登記記録の閉鎖等,0,2022-10-19,2022-10-11,日本第一ペット株式会社,,株式会社,東京都,千代田区,九段北１丁目２－６－５０３,,13,101,1020073,,,2022-10-11,清算の結了等,,,2015-10-05,1,,,,,ニホンダイイチペット,0
1637,6180001141943,登記記録の閉鎖等,0,2022-10-19,2022-10-12,株式会社Ｗｉｎｎｉｎｇ　ｈｏｒｓｅ,,株式会社,愛知県,名古屋市東区,泉３丁目１１番２２号８０１,,23,102,4610001,,,2022-10-12,清算の結了等,,,2020-07-08,1,,,,,ウィニングホース,0
1641,6180002024354,登記記録の閉鎖等,0,2022-10-19,2022-10-11,有限会社原特,,有限会社,愛知県,清須市,助七１丁目７８番地２,,23,233,4520903,,,2022-10-11,清算の結了等,,,2015-10-05,1,,,,,ハラトク,0
1642,6180002072618,登記記録の閉鎖等,0,2022-10-19,2022-10-11,有限会社小川ガーデン,,有限会社,愛知県,尾張旭市,城山町三ツ池６２１０番地の２,,23,226,4880881,,,2022-10-11,清算の結了等,,,2015-10-05,1,,,,,オガワガーデン,0
1643,6180002092946,登記記録の閉鎖等,0,2022-10-19,2022-10-11,有限会社サカイホーム,,有限会社,愛知県,あま市,篠田棚田１番地の８,,23,237,4901211,,,2022-10-11,清算の結了等,,,2015-10-05,1,,,,,サカイホーム,0
1645,6180301011350,登記記録の閉鎖等,0,2022-10-19,2022-10-11,丸友漁網製造株式会社,,株式会社,愛知県,蒲郡市,金平町長田８番地,,23,214,4430102,,,2022-10-11,清算の結了等,,,2015-10-05,1,,,,,マルトモギョモウセイゾウ,0
1660,6290003009715,登記記録の閉鎖等,0,2022-10-19,2022-10-12,帆足企画合同会社,,合同会社,福岡県,福岡市早良区,西新１丁目１１番１１－１０１号,,40,137,8140002,,,2022-10-12,清算の結了等,,,2020-01-28,1,,,,,ホアシキカク,0
1664,6290802014626,登記記録の閉鎖等,0,2022-10-19,2022-10-14,有限会社田口電気商会,,有限会社,福岡県,北九州市八幡西区,馬場山緑３番２８号,,40,109,8071133,,,2022-10-14,清算の結了等,,,2015-10-05,1,,,,,タグチデンキショウカイ,0
1685,6380002021950,登記記録の閉鎖等,0,2022-10-19,2022-10-11,有限会社アングル・プランニング・スペース,,有限会社,福島県,いわき市,久之浜町西１丁目３番地の７,,07,204,9790334,,,2022-10-11,清算の結了等,,,2015-10-05,1,,,,,アングルプランニングスペース,0
1694,6400503000104,登記記録の閉鎖等,0,2022-10-19,2022-10-14,合同会社石井商店,,合同会社,岩手県,一関市,千厩町千厩字町１５３番地の２,00085949,03,209,0290803,,,2022-10-14,清算の結了等,,,2015-10-05,1,,,,,,0
1695,6420001009050,登記記録の閉鎖等,0,2022-10-19,2022-10-14,コスモ食品研究株式会社,,株式会社,青森県,弘前市,大字藤野２丁目３番１,,02,202,0368326,,,2022-10-14,合併による解散等,5020001002864,令和４年１０月１日東京都大田区大森北二丁目４番１８号コスモ食品株式会社（5020001002864）に合併し解散,2015-10-05,1,,,,,コスモショクヒンケンキュウ,0
1699,6430002023727,登記記録の閉鎖等,0,2022-10-19,2022-09-28,有限会社北日本制御,,有限会社,北海道,札幌市東区,伏古七条２丁目５番１２号,,01,103,0070867,,,2022-09-28,清算の結了等,,,2015-10-05,1,,,,,キタニホンセイギョ,0
1710,7010001120954,登記記録の閉鎖等,0,2022-10-19,2022-10-12,匠技研システム株式会社,,株式会社,東京都,中央区,日本橋室町１丁目１３番地１号ＤＫノア４Ｆ,,13,102,1030022,,,2022-10-12,清算の結了等,,,2015-10-05,1,,,,,タクミギケンシステム,0
1712,7010001191979,登記記録の閉鎖等,0,2022-10-19,2022-10-11,倍愛名医堂ヘルスケア株式会社,,株式会社,東京都,中央区,銀座７丁目１３番６号サガミビル２階,,13,102,1040061,,,2022-10-11,清算の結了等,,,2018-05-22,1,,,,,ビーアイメイイドウヘルスケア,0
1719,7010002024139,登記記録の閉鎖等,0,2022-10-19,2022-10-12,有限会社ビストロ・トカチ,,有限会社,東京都,中央区,日本橋浜町２丁目３６番３号,,13,102,1030007,,,2022-10-12,清算の結了等,,,2015-10-05,1,,,,,,0
1720,7010003022067,登記記録の閉鎖等,0,2022-10-19,2022-10-11,合同会社パワーインベストメント,,合同会社,東京都,文京区,湯島３丁目２８－１８アドホームズキュービック２０４,,13,105,1130034,,,2022-10-11,清算の結了等,,,2015-10-05,1,,,,,パワーインベストメント,0
1729,7010401104937,登記記録の閉鎖等,0,2022-10-19,2022-10-13,株式会社ＳＳＢＣ,,株式会社,東京都,千代田区,丸の内３丁目１番１号,,13,101,1000005,,,2022-10-13,合併による解散等,9040001013807,令和４年１０月１日千葉市美浜区中瀬二丁目６番地１ｉビジネスパートナーズ株式会社（9040001013807）に合併し解散,2015-10-05,1,,,,,エスエスビーシー,0
1733,7010405019941,登記記録の閉鎖等,0,2022-10-19,2022-09-30,一般社団法人ＳＨ０４６,,その他の設立登記法人,東京都,港区,虎ノ門３丁目２２番１０－２０１号,,13,103,1050001,,,2022-09-30,清算の結了等,,,2021-06-28,1,,,,,エスエイチゼロフォーシックス,0
1737,7010601035916,登記記録の閉鎖等,0,2022-10-19,2022-10-13,株式会社スタディ・レボリューション,,株式会社,東京都,墨田区,両国４丁目２－７ラウンドビル２階,,13,107,1300026,,,2022-10-13,清算の結了等,,,2015-10-05,1,,,,,スタディレボリューション,0
1738,7010601040115,登記記録の閉鎖等,0,2022-10-19,2022-10-06,株式会社八智,,株式会社,東京都,江東区,猿江２丁目１６番２３－４１２号,,13,108,1350003,,,2022-10-06,清算の結了等,,,2015-10-05,1,,,,,ヤチ,0
1779,7011802028659,登記記録の閉鎖等,0,2022-10-19,2022-10-13,佐藤興業有限会社,,有限会社,東京都,足立区,千住関屋町８番１２号,,13,121,1200024,,,2022-10-13,清算の結了等,,,2015-10-05,1,,,,,サトウコウギョウ,0
1784,7012702001615,登記記録の閉鎖等,0,2022-10-19,2022-10-17,富士バルブ工業有限会社,,有限会社,東京都,小平市,花小金井南町２丁目１８番３－５０１号,,13,211,1870003,,,2022-10-17,清算の結了等,,,2015-10-05,1,,,,,フジバルブコウギョウ,0
1801,7021001030713,登記記録の閉鎖等,0,2022-10-19,2022-10-13,株式会社豊長鈑金工業所,,株式会社,神奈川県,綾瀬市,早川字上原２６０５番地４８号,,14,218,2521123,,,2022-10-13,清算の結了等,,,2015-10-05,1,,,,,,0
1823,7060001004244,登記記録の閉鎖等,0,2022-10-19,2022-10-11,株式会社丸藤タイル,,株式会社,栃木県,宇都宮市,鶴田町１６２６番地５,,09,201,3200851,,,2022-10-11,清算の結了等,,,2015-10-05,1,,,,,,0
1825,7060002014812,登記記録の閉鎖等,0,2022-10-19,2022-10-12,関東精機有限会社,,有限会社,栃木県,日光市,木和田島１６９８番地３,,09,206,3212345,,,2022-10-12,清算の結了等,,,2015-10-05,1,,,,,カントウセイキ,0
1826,7060002027293,登記記録の閉鎖等,0,2022-10-19,2022-10-11,有限会社矢板観光バス,,有限会社,栃木県,矢板市,境林６２６番地１,,09,211,3292143,,,2022-10-11,清算の結了等,,,2015-10-05,1,,,,,ヤイタカンコウバス,0
1833,7080102008670,登記記録の閉鎖等,0,2022-10-19,2022-10-17,有限会社三田米店,,有限会社,静岡県,伊豆市,青羽根６０番地の４,,22,222,4103213,,,2022-10-17,清算の結了等,,,2015-10-05,1,,,,,ミタコメテン,0
1843,7110001033907,登記記録の閉鎖等,0,2022-10-19,2022-10-17,株式会社一陽来福,,株式会社,新潟県,三条市,東三条１丁目２番１２号,,15,204,9550047,,,2022-10-17,清算の結了等,,,2019-04-01,1,,,,,イチヨウライフク,0
1851,7120001232680,登記記録の閉鎖等,0,2022-10-19,2022-10-06,株式会社りおん,,株式会社,大阪府,大阪市西成区,花園北１丁目１０－３,,27,122,5570016,,,2022-10-06,清算の結了等,,,2020-10-22,1,,,,,リオン,0
1868,7122001019752,登記記録の閉鎖等,0,2022-10-19,2022-10-06,阪奈建設株式会社,,株式会社,大阪府,八尾市,南小阪合町１丁目１番１１号,,27,212,5810019,,,2022-10-06,清算の結了等,,,2015-10-05,1,,,,,,0
1870,7130001004526,登記記録の閉鎖等,0,2022-10-19,2022-10-11,加藤林産株式会社,,株式会社,京都府,京都市北区,中川北山町１６５番地,,26,101,6010122,,,2022-10-11,清算の結了等,,,2015-10-05,1,,,,,カトウリンサン,0
1878,7130002030769,登記記録の閉鎖等,0,2022-10-19,2022-10-11,有限会社つぇんてぃわんもりしま,,有限会社,京都府,城陽市,富野南清水６１－６（４Ｆ５０８号室）,,26,207,6100111,,,2022-10-11,清算の結了等,,,2015-10-05,1,,,,,,0
1892,7150002005042,登記記録の閉鎖等,0,2022-10-19,2022-10-17,有限会社鈴木敏夫商事,,有限会社,奈良県,大和郡山市,北郡山町１３７番地,,29,203,6391160,,,2022-10-17,清算の結了等,,,2015-10-05,1,,,,,スズキトシオショウジ,0
1899,7180001062908,登記記録の閉鎖等,0,2022-10-19,2022-10-12,藤通商株式会社,,株式会社,愛知県,名古屋市昭和区,山手通３丁目４番地の１（バンベールグラン山手２番館２０３号室）,,23,107,4660815,,,2022-10-12,清算の結了等,,,2015-10-05,1,,,,,フジツウショウ,0
1903,7180001119377,登記記録の閉鎖等,0,2022-10-19,2022-10-12,株式会社ヤナギ,,株式会社,愛知県,名古屋市瑞穂区,柳ケ枝町３丁目４番地,,23,108,4670825,,,2022-10-12,清算の結了等,,,2015-10-05,1,,,,,ヤナギ,0
1917,7200002014780,登記記録の閉鎖等,0,2022-10-19,2022-10-18,有限会社嘉里,,有限会社,岐阜県,海津市,南濃町安江２３１４番地の５２,,21,221,5030531,,,2022-10-18,清算の結了等,,,2015-10-05,1,,,,,ヨシサト,0
1919,7220001015134,登記記録の閉鎖等,0,2022-10-19,2022-10-14,株式会社アッティーヴォ,,株式会社,石川県,金沢市,駅西新町３丁目３番２６号,,17,201,9200027,,,2022-10-14,清算の結了等,,,2015-10-05,1,,,,,アッティーヴォ,0
1922,7230001014762,登記記録の閉鎖等,0,2022-10-19,2022-10-17,株式会社読売新聞富山崇合サービス,,株式会社,富山県,高岡市,問屋町３６番地,,16,202,9330804,,,2022-10-17,清算の結了等,,,2015-10-05,1,,,,,ヨミウリシンブントヤマソウゴウサービス,0
1924,7240001053776,登記記録の閉鎖等,0,2022-10-19,2022-10-17,株式会社新道,,株式会社,広島県,安芸郡府中町,八幡３丁目１２番６号,,34,302,7350012,,,2022-10-17,清算の結了等,,,2019-01-08,1,,,,,シンドウ,0
1931,7290001012959,登記記録の閉鎖等,0,2022-10-19,2022-10-12,株式会社華フードシステムズ,,株式会社,福岡県,福岡市中央区,大名２丁目１０－４－Ｄ－７１１,,40,133,8100041,,,2022-10-12,清算の結了等,,,2015-10-05,1,,,,,ハナフードシステムズ,0
1952,7370002017602,登記記録の閉鎖等,0,2022-10-19,2022-10-11,こころ有限会社,,有限会社,宮城県,仙台市宮城野区,白鳥１丁目１番１０号,,04,102,9830006,,,2022-10-11,清算の結了等,,,2015-10-05,1,,,,,ココロ,0
1953,7370301001505,登記記録の閉鎖等,0,2022-10-19,2022-10-07,株式会社マリンカンパニー,,株式会社,宮城県,石巻市,大瓜字前田２５４番地,,04,202,9860005,,,2022-10-07,清算の結了等,,,2015-10-05,1,,,,,マリンカンパニー,0
1956,7380003004598,登記記録の閉鎖等,0,2022-10-19,2022-10-11,合同会社コンテック,,合同会社,福島県,二本松市,平石高田２丁目４０番地１,,07,210,9640981,,,2022-10-11,清算の結了等,,,2020-01-21,1,,,,,コンテック,0
1959,7400002012608,登記記録の閉鎖等,0,2022-10-19,2022-10-14,有限会社県北安田保険,,有限会社,岩手県,九戸郡軽米町,大字晴山第２６地割３３番地２,,03,501,0286221,,,2022-10-14,清算の結了等,,,2015-10-05,1,,,,,ケンポクヤスダホケン,0
1977,8010001093662,登記記録の閉鎖等,0,2022-10-19,2022-10-11,株式会社リトルランド,,株式会社,神奈川県,川崎市川崎区,駅前本町２２番地２,,14,131,2100007,,,2022-10-11,合併による解散等,8020001073184,令和４年１０月１日川崎市川崎区駅前本町２２番地２株式会社城南進学研究社（8020001073184）に合併し解散,2015-10-05,1,,,,,リトルランド,0
1982,8010001199930,登記記録の閉鎖等,0,2022-10-19,2022-10-11,株式会社Ｘｉｍｅｎｓｉｏｎ　Ｒｅｓｅａｒｃｈ,,株式会社,東京都,文京区,本郷２丁目３５番１０号本郷瀬川ビル４Ｆ,,13,105,1130033,,,2022-10-11,清算の結了等,,,2019-04-10,1,,,,,ザイメンションリサーチ,0
1986,8010002018833,登記記録の閉鎖等,0,2022-10-19,2022-10-11,有限会社神田ケイエム商会,,有限会社,神奈川県,三浦郡葉山町,一色１４９２番地,,14,301,2400111,,,2022-10-11,清算の結了等,,,2015-10-05,1,,,,,カンダケイエムショウカイ,0
1987,8010003021836,登記記録の閉鎖等,0,2022-10-19,2022-10-11,合同会社日本活性化プロジェクト,,合同会社,東京都,文京区,湯島３丁目２８番１８号アドホームズ２０４号室,,13,105,1130034,,,2022-10-11,清算の結了等,,,2015-10-05,1,,,,,ニホンカッセイカプロジェクト,0
2005,8010502005901,登記記録の閉鎖等,0,2022-10-19,2022-10-18,有限会社末広丸大食料品店,,有限会社,東京都,台東区,小島１丁目５番３号,,13,106,1110056,,,2022-10-18,清算の結了等,,,2015-10-05,1,,,,,スエヒロマルダイショクリョウヒンテン,0
2022,8010902014163,登記記録の閉鎖等,0,2022-10-19,2022-10-13,有限会社まさかね図案舎,,有限会社,東京都,世田谷区,宮坂１丁目４１番２４－１０１号,,13,112,1560051,,,2022-10-13,清算の結了等,,,2015-10-05,1,,,,,マサカネズアンシャ,0
2023,8010902026159,登記記録の閉鎖等,0,2022-10-19,2022-10-07,有限会社ココナッツカンパニー,,有限会社,東京都,渋谷区,神宮前２丁目４番１８号リッツ外苑,,13,113,1500001,,,2022-10-07,清算の結了等,,,2015-10-05,1,,,,,ココナッツカンパニー,0
2049,8011502004182,登記記録の閉鎖等,0,2022-10-19,2022-10-13,有限会社トウリ,,有限会社,群馬県,甘楽郡下仁田町,大字下仁田４０５番地３,,10,382,3702601,,,2022-10-13,清算の結了等,,,2015-10-05,1,,,,,トウリ,0
2061,8020001083159,登記記録の閉鎖等,0,2022-10-19,2022-10-11,株式会社イーパス,,株式会社,神奈川県,横浜市中区,本牧和田３３番８－５０６号,,14,104,2310827,,,2022-10-11,清算の結了等,,,2015-10-05,1,,,,,イーパス,0
2067,8020002028253,登記記録の閉鎖等,0,2022-10-19,2022-10-07,三好商事有限会社,,有限会社,神奈川県,横浜市神奈川区,神奈川２丁目１番地９号,,14,102,2210045,,,2022-10-07,清算の結了等,,,2015-10-05,1,,,,,ミヨシショウジ,0
2077,8021001070683,登記記録の閉鎖等,0,2022-10-19,2022-10-05,株式会社ＣＣＣ,,株式会社,東京都,渋谷区,神宮前６丁目２３番４号,,13,113,1500001,,,2022-10-05,清算の結了等,,,2020-08-26,1,,,,,シーシーシー,0
2081,8021002056673,登記記録の閉鎖等,0,2022-10-19,2022-10-14,有限会社荒井塗装店,,有限会社,神奈川県,平塚市,纒６５３番地の３,,14,203,2540901,,,2022-10-14,清算の結了等,,,2015-10-05,1,,,,,アライトソウテン,0
2093,8030003007742,登記記録の閉鎖等,0,2022-10-19,2022-10-05,合同会社ＪＮＧ,,合同会社,埼玉県,さいたま市北区,東大成町１丁目６５１番地１３,,11,102,3310814,,,2022-10-05,清算の結了等,,,2015-10-05,1,,,,,ジェイエヌジー,0
2107,8050003006032,登記記録の閉鎖等,0,2022-10-19,2022-10-11,マイクロイメージング合同会社,,合同会社,茨城県,つくば市,東２丁目２２番地１,,08,220,3050046,,,2022-10-11,清算の結了等,,,2021-08-17,1,,,,,マイクロイメージング,0
2112,8070001028670,登記記録の閉鎖等,0,2022-10-19,2022-10-11,株式会社エターナルズ,,株式会社,群馬県,館林市,青柳町３８６番地の１,,10,207,3740035,,,2022-10-11,清算の結了等,,,2015-10-05,1,,,,,エターナルズ,0
2114,8080002015592,登記記録の閉鎖等,0,2022-10-19,2022-10-17,有限会社イデア,,有限会社,静岡県,焼津市,三和１４６７番地,,22,212,4250064,,,2022-10-17,清算の結了等,,,2015-10-05,1,,,,,イデア,0
2120,8090001014826,登記記録の閉鎖等,0,2022-10-19,2022-10-13,株式会社ドームファーム北杜,,株式会社,山梨県,北杜市,白州町白須５６８１番地１,,19,209,4080315,,,2022-10-13,清算の結了等,,,2016-10-28,1,,,,,ドームファームホクト,0
2144,8120101039629,登記記録の閉鎖等,0,2022-10-19,2022-10-17,株式会社近畿エンタープライズ,,株式会社,大阪府,泉佐野市,湊３丁目３番１６号,,27,213,5980063,,,2022-10-17,清算の結了等,,,2015-10-05,1,,,,,キンキエンタープライズ,0
2181,8240001000892,登記記録の閉鎖等,0,2022-10-19,2022-10-17,株式会社インテリアいまだ,,株式会社,広島県,広島市東区,山根町２８番３－９号,,34,102,7320048,,,2022-10-17,清算の結了等,,,2015-10-05,1,,,,,インテリアイマダ,0
2204,8330001007318,登記記録の閉鎖等,0,2022-10-19,2022-10-14,株式会社ＮＳ経コン,,株式会社,熊本県,熊本市中央区,上水前寺１丁目４番２０号,,43,101,8620951,,,2022-10-14,清算の結了等,,,2015-10-05,1,,,,,エヌエスケイコン,0
2210,8330005009896,登記記録の閉鎖等,0,2022-10-19,2022-10-13,一般社団法人ぽらンダ,,その他の設立登記法人,熊本県,上益城郡益城町,大字宮園６４１番地７,,43,443,8612241,,,2022-10-13,清算の結了等,,,2018-08-07,1,,,,,ポランダ,0
2232,8430001083563,登記記録の閉鎖等,0,2022-10-19,2022-10-07,株式会社プロローグ,,株式会社,北海道,札幌市中央区,南一条西１６丁目１番地３２３,,01,101,0600061,,,2022-10-07,清算の結了等,,,2021-03-09,1,,,,,プロローグ,0
2254,9010401007007,登記記録の閉鎖等,0,2022-10-19,2022-09-29,海外ウラン資源開発株式会社,,株式会社,東京都,港区,芝公園２丁目６番１５号,,13,103,1050011,,,2022-09-29,清算の結了等,,,2015-10-05,1,,,,,カイガイウランシゲンカイハツ,0
2256,9010401058652,登記記録の閉鎖等,0,2022-10-19,2022-10-12,日本イージェイケイ株式会社,,株式会社,東京都,千代田区,神田錦町１丁目２３番地宗保第二ビル,,13,101,1010054,,,2022-10-12,清算の結了等,,,2015-10-05,1,,,,,ニホンイージェイケイ,0
2259,9010401146647,登記記録の閉鎖等,0,2022-10-19,2022-09-30,ｎａｖｙ株式会社,,株式会社,東京都,港区,虎ノ門１丁目２３番１号,,13,103,1050001,,,2022-09-30,清算の結了等,,,2019-07-05,1,,,,,ネイビー,0
2267,9010503004686,登記記録の閉鎖等,0,2022-10-19,2022-10-18,合同会社バグース,,合同会社,東京都,台東区,元浅草１丁目６番１２号ＧＯＧＯオフィス御徒町,,13,106,1110041,,,2022-10-18,清算の結了等,,,2016-05-26,1,,,,,バグース,0
2268,9010601015503,登記記録の閉鎖等,0,2022-10-19,2022-10-13,株式会社丸興旭屋,,株式会社,東京都,墨田区,向島５丁目２９番３号,,13,107,1310033,,,2022-10-13,清算の結了等,,,2015-10-05,1,,,,,マルコウアサヒヤ,0
2278,9010902015103,登記記録の閉鎖等,0,2022-10-19,2022-10-17,有限会社明正ビル,,有限会社,東京都,世田谷区,下馬５丁目３番６号,,13,112,1540002,,,2022-10-17,清算の結了等,,,2015-10-05,1,,,,,,0
2282,9011001064801,登記記録の閉鎖等,0,2022-10-19,2022-10-07,株式会社ＩＴＣ,,株式会社,東京都,渋谷区,鶯谷町１９－１２ＴＹＭコート３階,,13,113,1500032,,,2022-10-07,清算の結了等,,,2015-10-05,1,,,,,,0
2286,9011001132327,登記記録の閉鎖等,0,2022-10-19,2022-10-07,株式会社ＹＯＵＮＧ　ＴＯＫＹＯ,,株式会社,東京都,渋谷区,桜丘町１０番４号,,13,113,1500031,,,2022-10-07,清算の結了等,,,2020-02-17,1,,,,,ヤングトウキョウ,0
2307,9011203003375,登記記録の閉鎖等,0,2022-10-19,2022-10-12,合同会社ＧＥＮ,,合同会社,東京都,中野区,若宮２丁目９－２,,13,114,1650033,,,2022-10-12,清算の結了等,,,2020-08-25,1,,,,,ゲン,0
2309,9011501011154,登記記録の閉鎖等,0,2022-10-19,2022-10-12,株式会社さくら商事,,株式会社,東京都,北区,滝野川７丁目１０番５号エイトイング板橋,,13,117,1140023,,,2022-10-12,清算の結了等,,,2015-10-05,1,,,,,サクラショウジ,0
2318,9013303005895,登記記録の閉鎖等,0,2022-10-19,2022-10-11,ＪＰ　Ｐｉｓｅｎテクノロジー合同会社,,合同会社,東京都,豊島区,東池袋３丁目２０－９宏和ビル,,13,116,1700013,,,2022-10-11,清算の結了等,,,2021-11-10,1,,,,,ジェイピーピーセンテクノロジー,0
2319,9020001038475,登記記録の閉鎖等,0,2022-10-19,2022-10-11,フィードフォアード株式会社,,株式会社,神奈川県,横浜市緑区,北八朔町１９３１番地１７,,14,113,2260021,,,2022-10-11,清算の結了等,,,2015-10-05,1,,,,,フィードフォアード,0
2333,9021001026313,登記記録の閉鎖等,0,2022-10-19,2022-10-13,サンクスモータース株式会社,,株式会社,神奈川県,座間市,相模が丘１丁目１７番４６号,,14,216,2520001,,,2022-10-13,清算の結了等,,,2015-10-05,1,,,,,,0
2359,9050001043935,登記記録の閉鎖等,0,2022-10-19,2022-10-11,株式会社新生企画,,株式会社,茨城県,稲敷郡美浦村,大字土屋３１２６番地３６６,,08,442,3000426,,,2022-10-11,清算の結了等,,,2018-01-25,1,,,,,シンセイキカク,0
2362,9060001006503,登記記録の閉鎖等,0,2022-10-19,2022-10-11,株式会社シンク・エナジー,,株式会社,栃木県,宇都宮市,戸祭町２７７０番地１,,09,201,3200053,,,2022-10-11,清算の結了等,,,2015-10-05,1,,,,,シンクエナジー,0
2363,9060002030808,登記記録の閉鎖等,0,2022-10-19,2022-10-11,有限会社エム・アール企画,,有限会社,栃木県,下野市,小金井２丁目１１番地２,,09,216,3290414,,,2022-10-11,清算の結了等,,,2015-10-05,1,,,,,エムアールキカク,0
2365,9090001001162,登記記録の閉鎖等,0,2022-10-19,2022-10-13,株式会社杉山工務所,,株式会社,山梨県,甲府市,南口町７番２０号,,19,201,4000863,,,2022-10-13,清算の結了等,,,2015-10-05,1,,,,,スギヤマコウムショ,0
2372,9110001019012,登記記録の閉鎖等,0,2022-10-19,2022-10-17,株式会社コスモスコーポレーション,,株式会社,新潟県,上越市,北城町３丁目４番５号,,15,222,9430824,,,2022-10-17,清算の結了等,,,2015-10-05,1,,,,,コスモスコーポレーション,0
2376,9120001054867,登記記録の閉鎖等,0,2022-10-19,2022-10-06,協和住研株式会社,,株式会社,大阪府,大阪市淀川区,西中島６丁目７番３－５０２号,,27,123,5320011,,,2022-10-06,清算の結了等,,,2022-06-15,1,,,,,,0
2381,9120001195100,登記記録の閉鎖等,0,2022-10-19,2022-10-07,株式会社Ｋｅｎｅｓエネルギーサービス,,株式会社,大阪府,大阪市北区,中之島２丁目３番１８号,,27,127,5300005,,,2022-10-07,合併による解散等,3120001059632,令和４年１０月１日大阪市北区中之島三丁目６番１６号関西電力株式会社（3120001059632）に合併し解散,2015-12-15,1,,,,,ケネスエネルギーサービス,0
2389,9120003008061,登記記録の閉鎖等,0,2022-10-19,2022-09-30,パシフィック・エクイティ・インベストメント合同会社,,合同会社,東京都,港区,西麻布４丁目１番１号麻布霞町マンション３０６号室,,13,103,1060031,,,2022-09-30,合併による解散等,8010601011899,令和４年９月３０日東京都港区虎ノ門四丁目１番３４号株式会社古知（8010601011899）に合併し解散,2015-10-05,1,,,,,パシフィックエクイティインベストメント,0
2445,9180005017823,登記記録の閉鎖等,0,2022-10-19,2022-10-13,一般社団法人日本文化レクリエーション協会,,その他の設立登記法人,愛知県,名古屋市千種区,千種通７丁目２５番１号サンライズ千種５０２,,23,101,4640855,,,2022-10-13,清算の結了等,,,2018-05-21,1,,,,,ニホンブンカレクリエーションキョウカイ,0
2452,9190005005711,登記記録の閉鎖等,0,2022-10-19,2022-10-07,協同組合上野専門店会,,その他の設立登記法人,三重県,伊賀市,上野東町２９５７番地,,24,216,5180861,,,2022-10-07,清算の結了等,,,2015-10-05,1,,,,,ウエノセンモンテンカイ,0
2470,9290002002255,登記記録の閉鎖等,0,2022-10-19,2022-10-11,有限会社サム企画,,有限会社,福岡県,福岡市南区,西長住３丁目３９番１１号,,40,134,8111361,,,2022-10-11,清算の結了等,,,2015-10-05,1,,,,,サムキカク,0
2493,9380001027632,登記記録の閉鎖等,0,2022-10-19,2022-10-11,株式会社アテンティブ,,株式会社,福島県,郡山市,島２丁目３１番１１号,,07,203,9638034,,,2022-10-11,清算の結了等,,,2017-01-04,1,,,,,アテンティブ,0
2497,9400001004315,登記記録の閉鎖等,0,2022-10-19,2022-10-17,株式会社真カンパニー,,株式会社,岩手県,盛岡市,中央通１丁目７番１６号,,03,201,0200021,,,2022-10-17,清算の結了等,,,2015-10-05,1,,,,,シンカンパニー,0
2499,9400002012449,登記記録の閉鎖等,0,2022-10-19,2022-10-17,有限会社樋口産業,00085687,有限会社,岩手県,二戸市,浄法寺町岩渕３８番地２,,03,213,0286847,,,2022-10-17,清算の結了等,,,2015-10-05,1,,,,,ヒグチサンギョウ,0
2513,9490002009321,登記記録の閉鎖等,0,2022-10-19,2022-10-12,有限会社伸和興業,,有限会社,高知県,幡多郡三原村,大字柚ノ木７１２番地１,,39,427,7870801,,,2022-10-12,清算の結了等,,,2015-10-05,1,,,,,シンワコウギョウ,0
