sequenceNumber,corporateNumber,process,correct,updateDate,changeDate,name,nameImageId,kind,prefectureName,cityName,streetNumber,addressImageId,prefectureCode,cityCode,postCode,addressOutside,addressOutsideImageId,closeDate,closeCause,successorCorporateNumber,changeCause,assignmentDate,latest,enName,enPrefectureName,enCityName,enAddressOutside,furigana,hihyoji
15,1010003038424,新規,0,2022-08-18,2022-08-18,エステートテック合同会社,,合同会社,東京都,文京区,本郷１丁目２１番７－８０４号,,13,105,1130033,,,,,,,2022-08-18,1,,,,,エステートテック,0
17,1010101015275,新規,0,2022-08-18,2022-08-18,株式会社ピクシスホールディングス,,株式会社,東京都,八王子市,高倉町２９番地１０第三エステート吉武１０３号,,13,201,1920033,,,,,,,2022-08-18,1,,,,,ピクシスホールディングス,0
29,1010401169184,新規,0,2022-08-18,2022-08-18,株式会社イチページ,,株式会社,東京都,港区,六本木４丁目１１番１１号ＧＭビル２階,,13,103,1060032,,,,,,,2022-08-18,1,,,,,イチページ,0
30,1010401169192,新規,0,2022-08-18,2022-08-18,株式会社Ｃｕｌｔｕｒｅ　Ｔｒａｄｉｎｇｓ,,株式会社,東京都,港区,浜松町２丁目２番１５号浜松町ダイヤビル２Ｆ,,13,103,1050013,,,,,,,2022-08-18,1,,,,,カルチャートレーディングス,0
40,1010601061686,新規,0,2022-08-18,2022-08-18,株式会社Ｐａｎｄａ　Ｋｉｄｓ,,株式会社,東京都,墨田区,押上１丁目１５番２号,,13,107,1310045,,,,,,,2022-08-18,1,,,,,パンダキッズ,0
56,1011101099911,新規,0,2022-08-18,2022-08-18,株式会社Ａｍｅｓａｎｋｏｈ,,株式会社,東京都,新宿区,西新宿７丁目７番１９セントラルレジデンス新宿シティタワー１００３号,,13,104,1600023,,,,,,,2022-08-18,1,,,,,アメサンコウ,0
58,1011301028034,新規,0,2022-08-18,2022-08-18,株式会社ＬＩＤＡＳ,,株式会社,東京都,杉並区,高円寺南４丁目１８番３０号,,13,115,1660003,,,,,,,2022-08-18,1,,,,,リーダス,0
64,1011703003221,新規,0,2022-08-18,2022-08-18,合同会社トレセン東京,,合同会社,東京都,江戸川区,東小岩４丁目２０－３キャッスル小岩２０２,,13,123,1330052,,,,,,,2022-08-18,1,,,,,トレセントウキョウ,0
67,1011803005225,新規,0,2022-08-18,2022-08-18,Ａｆｔｅｒ　Ｈｏｕｒｓ　Ｃｒｅａｔｉｖｅ合同会社,,合同会社,東京都,葛飾区,西新小岩１丁目７番９－１２０１号,,13,122,1240025,,,,,,,2022-08-18,1,,,,,アフターアワーズクリエイティブ,0
71,1012401039549,新規,0,2022-08-18,2022-08-18,相澤庭苑工房株式会社,,株式会社,東京都,多摩市,関戸５丁目３５番地の１,,13,224,2060011,,,,,,,2022-08-18,1,,,,,アイザワテイエンコウボウ,0
72,1012403005549,新規,0,2022-08-18,2022-08-18,合同会社ＫＡＲＡカモン,,合同会社,東京都,三鷹市,下連雀３丁目３１番１０号,,13,204,1810013,,,,,,,2022-08-18,1,,,,,カラカモン,0
76,1013301049514,新規,0,2022-08-18,2022-08-18,モーメント株式会社,,株式会社,東京都,豊島区,高田３丁目３番２２－３０５号,,13,116,1710033,,,,,,,2022-08-18,1,,,,,モーメント,0
77,1013301049522,新規,0,2022-08-18,2022-08-18,株式会社Ａｄｅｌｌｅｃｉａ,,株式会社,東京都,豊島区,長崎４丁目３３番１３号,,13,116,1710051,,,,,,,2022-08-18,1,,,,,アデルシア,0
82,1020001147746,新規,0,2022-08-18,2022-08-18,株式会社ＲＥ’ｃｒｅａｔｉｏｎ,,株式会社,神奈川県,川崎市多摩区,登戸１８４２番地Ｍ’ｓｃｏｒｅ１Ｆ,,14,135,2140014,,,,,,,2022-08-18,1,,,,,,0
83,1020001147795,新規,0,2022-08-18,2022-08-18,株式会社アルゴ．オーブ,,株式会社,神奈川県,川崎市多摩区,三田１丁目２８－２ライブリー三田１０７,,14,135,2140034,,,,,,,2022-08-18,1,,,,,アルゴオーブ,0
87,1020003022253,新規,0,2022-08-18,2022-08-18,合同会社幸和,,合同会社,神奈川県,川崎市中原区,新丸子町７１２番地１５,,14,133,2110005,,,,,,,2022-08-18,1,,,,,コウワ,0
99,1030001149659,新規,0,2022-08-18,2022-08-18,株式会社孝輝工業,,株式会社,埼玉県,さいたま市見沼区,東大宮６丁目４９番地１５シティヒルコート２０４号,,11,104,3370051,,,,,,,2022-08-18,1,,,,,コウキコウギョウ,0
100,1030001149717,新規,0,2022-08-18,2022-08-18,株式会社スマイル,,株式会社,埼玉県,新座市,新座３丁目２番１６号,,11,230,3520006,,,,,,,2022-08-18,1,,,,,スマイル,0
101,1030001149725,新規,0,2022-08-18,2022-08-18,株式会社七美,,株式会社,埼玉県,越谷市,神明町２丁目３９７番地３－１０９号,,11,222,3430805,,,,,,,2022-08-18,1,,,,,ナナミ,0
105,1030003020009,新規,0,2022-08-18,2022-08-18,ｔａｋｅｍｉ合同会社,,合同会社,埼玉県,さいたま市浦和区,大原１丁目８番２号,,11,107,3300046,,,,,,,2022-08-18,1,,,,,タケミ,0
111,1040001124743,新規,0,2022-08-18,2022-08-18,株式会社ｎｅｅｚ,,株式会社,千葉県,千葉市中央区,星久喜町６７１番地１４,,12,101,2600808,,,,,,,2022-08-18,1,,,,,ニーズ,0
118,1040003020602,新規,0,2022-08-18,2022-08-18,イマン・トレーディング合同会社,,合同会社,千葉県,木更津市,畔戸２１２番地１,,12,206,2920005,,,,,,,2022-08-18,1,,,,,イマントレーディング,0
119,1040003020651,新規,0,2022-08-18,2022-08-18,デジタルコンディション合同会社,,合同会社,千葉県,市川市,妙典１丁目６番７－１０２号,,12,203,2720111,,,,,,,2022-08-18,1,,,,,デジタルコンディション,0
121,1050001051565,新規,0,2022-08-18,2022-08-18,ＹＨ興行株式会社,,株式会社,茨城県,つくば市,今鹿島６１４１番地,,08,220,3002641,,,,,,,2022-08-18,1,,,,,ワイエイチコウギョウ,0
125,1060001035195,新規,0,2022-08-18,2022-08-18,株式会社エヌアシスト,,株式会社,栃木県,芳賀郡益子町,大字益子４０６１番地,,09,342,3214217,,,,,,,2022-08-18,1,,,,,エヌアシスト,0
127,1060005010005,新規,0,2022-08-18,2022-08-18,一般社団法人青空プロジェクトＴＨＥ　ＤＡＹ,,その他の設立登記法人,栃木県,那須塩原市,中塩原５６９番地,,09,213,3292924,,,,,,,2022-08-18,1,,,,,アオゾラプロジェクトザデイ,0
129,1080005007478,新規,0,2022-08-18,2022-08-18,一般社団法人しずおかＢｕｋａｔｓｕＤＯクラス,,その他の設立登記法人,静岡県,静岡市駿河区,小鹿３丁目８番１１号,,22,102,4228021,,,,,,,2022-08-18,1,,,,,シズオカブカツドウクラス,0
142,1120001248253,新規,0,2022-08-18,2022-08-18,川崎商事株式会社,,株式会社,大阪府,大阪市中央区,瓦町４丁目３番１４号御堂アーバンライフ８０２号,,27,128,5410048,,,,,,,2022-08-18,1,,,,,カワサキショウジ,0
143,1120005023140,新規,0,2022-08-18,2022-08-18,一般社団法人日本障害者雇用担当者協議会,,その他の設立登記法人,大阪府,大阪市淀川区,西宮原１丁目８番３３号日宝新大阪第２ビル４０８号,,27,123,5320004,,,,,,,2022-08-18,1,,,,,ニホンショウガイシャコヨウタントウシャキョウギカイ,0
148,1122001036175,新規,0,2022-08-18,2022-08-18,株式会社タイコー・エンジニアリング,,株式会社,大阪府,東大阪市,日下町５丁目７－１４,,27,227,5798003,,,,,,,2022-08-18,1,,,,,タイコーエンジニアリング,0
154,1130001072421,新規,0,2022-08-18,2022-08-18,株式会社ケントモ,,株式会社,京都府,京都市北区,小山中溝町３３,,26,101,6038156,,,,,,,2022-08-18,1,,,,,ケントモ,0
155,1130001072454,新規,0,2022-08-18,2022-08-18,株式会社ＭＡＲ‐Ｚ,,株式会社,京都府,京都市中京区,西ノ京右馬寮町１１－３６,,26,104,6048492,,,,,,,2022-08-18,1,,,,,マーズ,0
159,1140001127059,新規,0,2022-08-18,2022-08-18,株式会社ワイズ,,株式会社,兵庫県,神戸市灘区,中原通１丁目６番７号,,28,102,6570825,,,,,,,2022-08-18,1,,,,,ワイズ,0
166,1160001024460,新規,0,2022-08-18,2022-08-18,株式会社ＴＲＹＪＡＰＡＮ,,株式会社,滋賀県,東近江市,大森町１３５２番地,,25,213,5270063,,,,,,,2022-08-18,1,,,,,トライジャパン,0
172,1180001152648,新規,0,2022-08-18,2022-08-18,株式会社ＡＲＯＭＡ３６０ＪＡＰＡＮ,,株式会社,愛知県,小牧市,常普請１丁目１３６番地１,,23,219,4850044,,,,,,,2022-08-18,1,,,,,アロマスリーシックスティージャパン,0
173,1180001152697,新規,0,2022-08-18,2022-08-18,株式会社アールプランニング,,株式会社,愛知県,岩倉市,東町掛目１９６番地１,,23,228,4820041,,,,,,,2022-08-18,1,,,,,アールプランニング,0
181,1230001019486,新規,0,2022-08-18,2022-08-18,株式会社ＥＮＩＸＩＡＳ,,株式会社,富山県,富山市,上飯野３０番地１５,,16,201,9300827,,,,,,,2022-08-18,1,,,,,エニシアス,0
202,1290805009578,新規,0,2022-08-18,2022-08-18,一般社団法人キャリアＣｏＣｏ,,その他の設立登記法人,福岡県,北九州市八幡西区,鳴水町１番１号,,40,109,8060052,,,,,,,2022-08-18,1,,,,,キャリアココ,0
203,1320001019279,新規,0,2022-08-18,2022-08-18,株式会社衞藤農園,,株式会社,大分県,由布市,庄内町柿原３８６番地,,44,213,8795421,,,,,,,2022-08-18,1,,,,,エトウノウエン,0
220,1490001010254,新規,0,2022-08-18,2022-08-18,株式会社ＫｏＫｏｒｏ,,株式会社,高知県,土佐市,新居１５１番地,,39,205,7811154,,,,,,,2022-08-18,1,,,,,ココロ,0
240,2010003038373,新規,0,2022-08-18,2022-08-18,ＦＯＸＲＯＳＥ‐ＴＲＡＤＩＮＧ合同会社,,合同会社,東京都,中央区,銀座１丁目１２番４号６Ｆ,,13,102,1040061,,,,,,,2022-08-18,1,,,,,フォックスローズトレーディング,0
245,2010105002178,新規,0,2022-08-18,2022-08-18,一般社団法人有形文化財登録推進協会ＡＲＫＳ,,その他の設立登記法人,東京都,八王子市,初沢町１３８９番地４２,,13,201,1930845,,,,,,,2022-08-18,1,,,,,ユウケイブンカザイトウロクスイシンキョウカイアークス,0
251,2010405021308,新規,0,2022-08-18,2022-08-18,参政党,,その他の設立登記法人,東京都,港区,麻布台２丁目２－１２三貴ビル３階,,13,103,1060041,,,,,,,2022-08-18,1,,,,,サンセイトウ,0
253,2010601061685,新規,0,2022-08-18,2022-08-18,株式会社ＣＣＲ,,株式会社,東京都,墨田区,石原４丁目２２番４号,,13,107,1300011,,,,,,,2022-08-18,1,,,,,シーシーアール,0
254,2010601061702,新規,0,2022-08-18,2022-08-18,立波株式会社,,株式会社,東京都,墨田区,向島４丁目３番８号グレイス向島２０１Ｃ号室,,13,107,1310033,,,,,,,2022-08-18,1,,,,,タツナミ,0
265,2011001149278,新規,0,2022-08-18,2022-08-18,三宝土地建物株式会社,,株式会社,東京都,渋谷区,渋谷１丁目７番８号,,13,113,1500002,,,,,,,2022-08-18,1,,,,,,0
267,2011101099828,新規,0,2022-08-18,2022-08-18,株式会社メディアの未来,,株式会社,東京都,新宿区,市谷砂土原町３丁目４－１いづみハイツ市ヶ谷６０１,,13,104,1620842,,,,,,,2022-08-18,1,,,,,メディアノミライ,0
274,2011701025530,新規,0,2022-08-18,2022-08-18,株式会社政青商事,,株式会社,東京都,江戸川区,中葛西４丁目８－１５宇喜田カメリア４０８号室,,13,123,1340083,,,,,,,2022-08-18,1,,,,,セイショウショウジ,0
275,2011705001742,新規,0,2022-08-18,2022-08-18,一般社団法人ケアラーパートナー木の根っこ,,その他の設立登記法人,東京都,江戸川区,中央２丁目４番１８,,13,123,1320021,,,,,,,2022-08-18,1,,,,,ケアラーパートナーキノネッコ,0
281,2012403005548,新規,0,2022-08-18,2022-08-18,合同会社メタメタ建築計画,,合同会社,東京都,三鷹市,井の頭１丁目７－４０,,13,204,1810001,,,,,,,2022-08-18,1,,,,,メタメタケンチクケイカク,0
282,2012801021790,新規,0,2022-08-18,2022-08-18,株式会社多摩スポーツクラブ,,株式会社,東京都,立川市,泉町５００番４アリーナ立川立飛,,13,202,1900015,,,,,,,2022-08-18,1,,,,,タマスポーツクラブ,0
285,2013301049521,新規,0,2022-08-18,2022-08-18,株式会社中興,,株式会社,東京都,豊島区,池袋４丁目２９番１１号トウセン池袋ビル６０９室,,13,116,1710014,,,,,,,2022-08-18,1,,,,,チュウコウ,0
286,2013301049538,新規,0,2022-08-18,2022-08-18,株式会社Ｌ＆Ｈ．ｃｏ,,株式会社,東京都,豊島区,池袋４丁目３６番１７号ＡＳＳ第３ビル８階,,13,116,1710014,,,,,,,2022-08-18,1,,,,,エルアンドエイチドットシーオー,0
288,2013303006264,新規,0,2022-08-18,2022-08-18,合同会社Ｒ,,合同会社,東京都,豊島区,千早２丁目８番１６号,,13,116,1710044,,,,,,,2022-08-18,1,,,,,アール,0
292,2020001147704,新規,0,2022-08-18,2022-08-18,株式会社Ｏ２,,株式会社,神奈川県,川崎市麻生区,片平１丁目１８番２０－３号,,14,137,2150023,,,,,,,2022-08-18,1,,,,,オーツー,0
293,2020001147794,新規,0,2022-08-18,2022-08-18,株式会社久保エンジニアリング,,株式会社,神奈川県,川崎市多摩区,菅野戸呂１１番３７号パレドール稲田堤３－４０５,,14,135,2140002,,,,,,,2022-08-18,1,,,,,クボエンジニアリング,0
294,2020001147828,新規,0,2022-08-18,2022-08-18,株式会社ラフィーネ,,株式会社,神奈川県,川崎市宮前区,有馬４丁目８番１８号,,14,136,2160003,,,,,,,2022-08-18,1,,,,,ラフィーネ,0
295,2020001147844,新規,0,2022-08-18,2022-08-18,株式会社Ｓｅｎｓｅ,,株式会社,神奈川県,横浜市中区,桜木町１丁目１番７号ヒューリックみなとみらい１０階,,14,104,2310062,,,,,,,2022-08-18,1,,,,,センス,0
297,2020003022252,新規,0,2022-08-18,2022-08-18,リセンス合同会社,,合同会社,神奈川県,横浜市西区,高島２丁目１１番２号スカイメナー横浜５１９,,14,103,2200011,,,,,,,2022-08-18,1,,,,,リセンス,0
303,2021003012037,新規,0,2022-08-18,2022-08-18,合同会社Ｋスピリット,,合同会社,神奈川県,相模原市中央区,向陽町２番１０号,,14,152,2520214,,,,,,,2022-08-18,1,,,,,ケースピリット,0
306,2030001149732,新規,0,2022-08-18,2022-08-18,株式会社花道,,株式会社,埼玉県,三郷市,采女１丁目８０番地２美田ビル２Ｆ,,11,237,3410011,,,,,,,2022-08-18,1,,,,,ハナミチ,0
310,2030003020016,新規,0,2022-08-18,2022-08-18,ＳＭＩＬＥＹＯＧＡ合同会社,,合同会社,埼玉県,ふじみ野市,上福岡３丁目１０番３号,,11,245,3560004,,,,,,,2022-08-18,1,,,,,スマイルヨガ,0
311,2030003020032,新規,0,2022-08-18,2022-08-18,合同会社スピカ,,合同会社,埼玉県,川口市,戸塚２丁目２０－１－３０５ロイヤルメゾンＩ,00127559,11,203,3330811,,,,,,,2022-08-18,1,,,,,スピカ,0
316,2040003020659,新規,0,2022-08-18,2022-08-18,むかえだ産業合同会社,,合同会社,千葉県,市原市,迎田４３,,12,219,2990116,,,,,,,2022-08-18,1,,,,,ムカエダサンギョウ,0
320,2050001051531,新規,0,2022-08-18,2022-08-18,株式会社上野保温工業,,株式会社,茨城県,古河市,東間中橋４４３番地,,08,204,3060107,,,,,,,2022-08-18,1,,,,,ウエノホオンコウギョウ,0
321,2050005013123,新規,0,2022-08-18,2022-08-18,特定非営利活動法人ジョインアス,,その他の設立登記法人,茨城県,稲敷郡阿見町,大字実穀１２６９番地２０,,08,443,3001153,,,,,,,2022-08-18,1,,,,,ジョインアス,0
322,2070001039541,新規,0,2022-08-18,2022-08-18,株式会社安建,,株式会社,群馬県,太田市,吉沢町１０５８番地５,,10,205,3730019,,,,,,,2022-08-18,1,,,,,アンケン,0
323,2070003004592,新規,0,2022-08-18,2022-08-18,合同会社ＯＭＥＧＡ　Ｍｅｂｉｕｓ．ｐｒｏｄｕｃｔｉｏｎ,,合同会社,群馬県,桐生市,新宿３丁目１１番２２号,,10,203,3760006,,,,,,,2022-08-18,1,,,,,オメガメビウスプロダクション,0
345,2120001248153,新規,0,2022-08-18,2022-08-18,株式会社玄竜会,,株式会社,大阪府,大阪市東住吉区,湯里２丁目１６番３号,,27,121,5460013,,,,,,,2022-08-18,1,,,,,ゲンリュウカイ,0
346,2120001248228,新規,0,2022-08-18,2022-08-18,株式会社サードパーティースタジオ,,株式会社,大阪府,大阪市中央区,谷町２丁目８番１号,,27,128,5400012,,,,,,,2022-08-18,1,,,,,サードパーティースタジオ,0
347,2120001248269,新規,0,2022-08-18,2022-08-18,株式会社極致,,株式会社,大阪府,大阪市浪速区,元町１丁目１１番１０－６０４号,,27,111,5560016,,,,,,,2022-08-18,1,,,,,キョクチ,0
350,2120003022309,新規,0,2022-08-18,2022-08-18,ＲＡＩ　ＧＲＯＵＰ合同会社,,合同会社,大阪府,大阪市淀川区,塚本５丁目７番３－２０３号,,27,123,5320026,,,,,,,2022-08-18,1,,,,,ライグループ,0
352,2120101066100,新規,0,2022-08-18,2022-08-18,株式会社貴山建設,,株式会社,大阪府,富田林市,錦織北２丁目６番１３－１０１号,,27,214,5840066,,,,,,,2022-08-18,1,,,,,タカヤマケンセツ,0
356,2130001072404,新規,0,2022-08-18,2022-08-18,株式会社日勝,,株式会社,京都府,京都市東山区,祇園町南側５７０－７１和晃ビル１Ｆ－２,,26,105,6050074,,,,,,,2022-08-18,1,,,,,ニッショウ,0
357,2130001072478,新規,0,2022-08-18,2022-08-18,株式会社幸和,,株式会社,京都府,京都市西京区,大原野西境谷町２丁目９番地１６棟５０２号,,26,111,6101146,,,,,,,2022-08-18,1,,,,,コウワ,0
360,2130003008141,新規,0,2022-08-18,2022-08-18,ＮＡＴ合同会社,,合同会社,京都府,京都市伏見区,醍醐和泉町１２番地３,,26,109,6011351,,,,,,,2022-08-18,1,,,,,エヌエーティー,0
372,2180001152655,新規,0,2022-08-18,2022-08-18,マレビズ株式会社,,株式会社,愛知県,名古屋市名東区,八前３丁目１０３番地,,23,115,4650018,,,,,,,2022-08-18,1,,,,,マレビス,0
382,2210003001550,新規,0,2022-08-18,2022-08-18,合同会社ｔａｋｉ,,合同会社,福井県,福井市,東森田２丁目１６４１番地,,18,201,9100138,,,,,,,2022-08-18,1,,,,,タキ,0
384,2240001060240,新規,0,2022-08-18,2022-08-18,ジャラックス株式会社,,株式会社,広島県,広島市安芸区,矢野東２丁目３０番１０－５号,,34,107,7360083,,,,,,,2022-08-18,1,,,,,ジャラックス,0
385,2240003005755,新規,0,2022-08-18,2022-08-18,英合同会社,,合同会社,広島県,福山市,日吉台１丁目７番１５号,,34,207,7210972,,,,,,,2022-08-18,1,,,,,ハナブサ,0
387,2260001037154,新規,0,2022-08-18,2022-08-18,ＱｕａｎｇＨｏｏｆ　Ｍｏｂｉｌｅ株式会社,,株式会社,岡山県,総社市,上原７０番地ビレッジハウス４‐１０６,,33,208,7191143,,,,,,,2022-08-18,1,,,,,クアンホッフモバイル,0
406,2290001098565,新規,0,2022-08-18,2022-08-18,株式会社ＯｐｅｎＳｋｙ,,株式会社,福岡県,久留米市,上津町２１９２番地４２３,,40,203,8300052,,,,,,,2022-08-18,1,,,,,オープンスカイ,0
407,2290001098573,新規,0,2022-08-18,2022-08-18,ｄｃｎ株式会社,,株式会社,福岡県,福岡市城南区,樋井川２丁目２番５号第一吉浦ビル６０３,,40,136,8140153,,,,,,,2022-08-18,1,,,,,ディーシーエヌ,0
414,2340005009488,新規,0,2022-08-18,2022-08-18,一般社団法人星塚寺院,,その他の設立登記法人,鹿児島県,鹿屋市,旭原町２５３８番地９,,46,203,8930022,,,,,,,2022-08-18,1,,,,,ホシヅカジイン,0
415,2360001030859,新規,0,2022-08-18,2022-08-18,株式会社ＳＫＫ,,株式会社,沖縄県,沖縄市,比屋根３丁目１１番２１－２０３号,,47,211,9042173,,,,,,,2022-08-18,1,,,,,エスケーケー,0
424,2430001087322,新規,0,2022-08-18,2022-08-18,株式会社ｅｍｏｋｉｔａ,,株式会社,北海道,札幌市北区,新川二条１丁目２－４７－５０２,,01,102,0010922,,,,,,,2022-08-18,1,,,,,エモキタ,0
428,2430005014529,新規,0,2022-08-18,2022-08-18,特定非営利活動法人Ｇｙｍｎｅｘ,,その他の設立登記法人,北海道,北広島市,新富町西２丁目４番地１,,01,234,0611127,,,,,,,2022-08-18,1,,,,,ジムネクス,0
431,2440005002730,新規,0,2022-08-18,2022-08-18,特定非営利活動法人寿都観光クラブ,,その他の設立登記法人,北海道,寿都郡寿都町,字大磯町１２８番地６,,01,392,0480404,,,,,,,2022-08-18,1,,,,,スッツカンコウクラブ,0
456,3010105002177,新規,0,2022-08-18,2022-08-18,一般社団法人Ｆｏｒｗａｒｄ,,その他の設立登記法人,東京都,八王子市,上柚木３丁目５番地４－２０７,,13,201,1920373,,,,,,,2022-08-18,1,,,,,フォワード,0
463,3010401169182,新規,0,2022-08-18,2022-08-18,ｔｈｒｅｅ‐ｔｅｎ株式会社,,株式会社,東京都,港区,三田５丁目３番８－２０９号,,13,103,1080073,,,,,,,2022-08-18,1,,,,,スリーテン,0
464,3010401169199,新規,0,2022-08-18,2022-08-18,株式会社ドリームウェイ,,株式会社,東京都,港区,南青山５丁目９番６号,,13,103,1070062,,,,,,,2022-08-18,1,,,,,ドリームウェイ,0
465,3010401169216,新規,0,2022-08-18,2022-08-18,株式会社六本木青野総本舗,,株式会社,東京都,港区,六本木３丁目１５番２１号,,13,103,1060032,,,,,,,2022-08-18,1,,,,,ロッポンギアオノソウホンポ,0
469,3010405021298,新規,0,2022-08-18,2022-08-18,ＪＮ一般社団法人,,その他の設立登記法人,東京都,港区,六本木１丁目９番１０号アークヒルズ仙石山森タワー４０階,,13,103,1060032,,,,,,,2022-08-18,1,,,,,ジェイエヌ,0
471,3010601061692,新規,0,2022-08-18,2022-08-18,田中株式会社,,株式会社,東京都,江東区,亀戸７丁目４１番１１－４０２号,,13,108,1360071,,,,,,,2022-08-18,1,,,,,タナカ,0
472,3010603009665,新規,0,2022-08-18,2022-08-18,ケイスクワッド合同会社,,合同会社,東京都,墨田区,石原１丁目２３－２コンポステラ飯塚１１０２,,13,107,1300011,,,,,,,2022-08-18,1,,,,,ケイスクワッド,0
473,3010701043087,新規,0,2022-08-18,2022-08-18,株式会社ＣＬＯＵＤ　ＢＡＮＫ,,株式会社,東京都,品川区,北品川１丁目８番１１号Ｄａｉｗａ品川Ｎｏｒｔｈビル５Ｆ,,13,109,1400001,,,,,,,2022-08-18,1,,,,,クラウドバンク,0
478,3010901051427,新規,0,2022-08-18,2022-08-18,株式会社ＦＪ,,株式会社,東京都,世田谷区,野毛２丁目２０番２３－３１２号,,13,112,1580092,,,,,,,2022-08-18,1,,,,,エフジェイ,0
479,3010901051451,新規,0,2022-08-18,2022-08-18,ラクスベア株式会社,,株式会社,東京都,世田谷区,池尻２丁目２番１３号サンパレス池尻マンション１０１,,13,112,1540001,,,,,,,2022-08-18,1,,,,,ラクスベア,0
490,3011101099827,新規,0,2022-08-18,2022-08-18,株式会社仕事の未来,,株式会社,東京都,新宿区,市谷砂土原町３丁目４－１いづみハイツ市ヶ谷６０１,,13,104,1620842,,,,,,,2022-08-18,1,,,,,シゴトノミライ,0
497,3011401024484,新規,0,2022-08-18,2022-08-18,株式会社ヤマシン工務店,,株式会社,東京都,板橋区,高島平１丁目４１番６号サンセイル西台６０８,,13,119,1750082,,,,,,,2022-08-18,1,,,,,ヤマシンコウムテン,0
500,3011501028402,新規,0,2022-08-18,2022-08-18,ＡＣＳホールディングス株式会社,,株式会社,東京都,北区,赤羽北３丁目２６番１－１６０６号,,13,117,1150052,,,,,,,2022-08-18,1,,,,,エーシーエスホールディングス,0
502,3011601026181,新規,0,2022-08-18,2022-08-18,株式会社マツナミホールディングス,,株式会社,東京都,練馬区,羽沢１丁目７番７号第二ゼネラルビル２階,,13,120,1760003,,,,,,,2022-08-18,1,,,,,マツナミホールディングス,0
503,3011603003682,新規,0,2022-08-18,2022-08-18,合同会社ＳＯＵＢＩ,,合同会社,東京都,練馬区,大泉学園町４丁目２０－３６,,13,120,1780061,,,,,,,2022-08-18,1,,,,,ソウビ,0
507,3012703002517,新規,0,2022-08-18,2022-08-18,ノングソフト合同会社,,合同会社,東京都,小平市,回田町２４２－５５,,13,211,1870013,,,,,,,2022-08-18,1,,,,,ノングソフト,0
517,3020001147793,新規,0,2022-08-18,2022-08-18,林技研株式会社,,株式会社,神奈川県,川崎市麻生区,栗木台５丁目１－２スカイグリーン１０５,,14,137,2150032,,,,,,,2022-08-18,1,,,,,ハヤシギケン,0
518,3020001147810,新規,0,2022-08-18,2022-08-18,コンチネンタル・オートノモス・モビリティー・ジャパン株式会社,,株式会社,神奈川県,横浜市神奈川区,新浦島一丁目１番地３２,,14,102,2210000,,,,,,,2022-08-18,1,,,,,コンチネンタルオートノモスモビリティージャパン,0
519,3020001147827,新規,0,2022-08-18,2022-08-18,株式会社ＴＨＰ　ｗｏｒｋｓ,,株式会社,神奈川県,横浜市港北区,新横浜１丁目２番１号Ｂ１０３,,14,109,2220033,,,,,,,2022-08-18,1,,,,,ティーエイチピーワークス,0
520,3020001147835,新規,0,2022-08-18,2022-08-18,株式会社ＡＺＵＫＩ,,株式会社,神奈川県,横浜市青葉区,美しが丘１丁目１３番地４やよいビル１０３,,14,117,2250002,,,,,,,2022-08-18,1,,,,,アズキ,0
524,3020003022243,新規,0,2022-08-18,2022-08-18,東京中央合同会社,,合同会社,神奈川県,川崎市中原区,市ノ坪１９６－８,,14,133,2110016,,,,,,,2022-08-18,1,,,,,トウキョウチュウオウ,0
525,3020003022251,新規,0,2022-08-18,2022-08-18,ｃｏ‐Ｌｉｎｋ合同会社,,合同会社,神奈川県,横浜市緑区,鴨居１丁目１６番２－１０１号,,14,113,2260003,,,,,,,2022-08-18,1,,,,,コリンク,0
532,3030003020015,新規,0,2022-08-18,2022-08-18,合同会社８３,,合同会社,埼玉県,さいたま市大宮区,桜木町２丁目３番地大宮マルイ７階,,11,103,3300854,,,,,,,2022-08-18,1,,,,,ハチサン,0
541,3040003020641,新規,0,2022-08-18,2022-08-18,ＢＡＵ合同会社,,合同会社,千葉県,成田市,本城３２番地１５５パークハイツ本城台Ａ棟１階１０２号室,,12,211,2860114,,,,,,,2022-08-18,1,,,,,ビーエーユー,0
544,3070001039557,新規,0,2022-08-18,2022-08-18,株式会社オリエンタルホーム,,株式会社,群馬県,利根郡昭和村,大字川額７０番地１,,10,448,3791205,,,,,,,2022-08-18,1,,,,,オリエンタルホーム,0
545,3070003004591,新規,0,2022-08-18,2022-08-18,Ｇｏｌｄ　Ｋｎｉｇｈｔ合同会社,,合同会社,群馬県,高崎市,柴崎町１２８３番地４,,10,202,3700035,,,,,,,2022-08-18,1,,,,,ゴールドナイト,0
559,3120001248078,新規,0,2022-08-18,2022-08-18,ＬＵＣＫＬＡＮＤＩＮＧ株式会社,,株式会社,大阪府,大阪市住吉区,遠里小野３丁目３－２５ロイヤル遠里小野３０２号,,27,120,5580032,,,,,,,2022-08-18,1,,,,,ラックランディング,0
561,3120003022308,新規,0,2022-08-18,2022-08-18,合同会社Ｌｉｂｅｒｔａ,,合同会社,大阪府,大阪市東住吉区,杭全７丁目６－１４,,27,121,5460002,,,,,,,2022-08-18,1,,,,,リベルタ,0
564,3120005023147,新規,0,2022-08-18,2022-08-18,一般社団法人愛光,,その他の設立登記法人,大阪府,枚方市,甲斐田新町１９番４号,,27,210,5731163,,,,,,,2022-08-18,1,,,,,アイコウ,0
570,3130001072444,新規,0,2022-08-18,2022-08-18,株式会社ＩＮＣＯＰ,,株式会社,京都府,京都市右京区,花園土堂町７番地３０,,26,108,6168025,,,,,,,2022-08-18,1,,,,,インコップ,0
571,3130001072469,新規,0,2022-08-18,2022-08-18,インテック株式会社,,株式会社,京都府,長岡京市,友岡２丁目３番１－３０４号,,26,209,6170843,,,,,,,2022-08-18,1,,,,,インテック,0
572,3130001072477,新規,0,2022-08-18,2022-08-18,株式会社最中屋,,株式会社,京都府,京都市中京区,壬生檜町６番地ＳＴハウス２Ｆ,,26,104,6048844,,,,,,,2022-08-18,1,,,,,モナカヤ,0
585,3180001152596,新規,0,2022-08-18,2022-08-18,デラックスジャパン株式会社,,株式会社,愛知県,清須市,西枇杷島町城並２丁目１７番地１２,,23,233,4520011,,,,,,,2022-08-18,1,,,,,デラックスジャパン,0
592,3230003001903,新規,0,2022-08-18,2022-08-18,ＮＥＩＧＨＢＯＲ合同会社,,合同会社,富山県,富山市,下飯野１７１番地２,,16,201,9318443,,,,,,,2022-08-18,1,,,,,ネイバー,0
593,3250003003138,新規,0,2022-08-18,2022-08-18,合同会社Ｙ，ｍａｎａｇｅ,,合同会社,山口県,周南市,新宿通６丁目８番５号,,35,215,7450056,,,,,,,2022-08-18,1,,,,,ワイマネージ,0
601,3290001098630,新規,0,2022-08-18,2022-08-18,株式会社はるまの湯,,株式会社,福岡県,久留米市,西町９３３番地２,,40,203,8300038,,,,,,,2022-08-18,1,,,,,ハルマノユ,0
602,3290001098655,新規,0,2022-08-18,2022-08-18,株式会社Ｄｙｅｉｎｇ,,株式会社,福岡県,福岡市早良区,原４丁目２５番１９－２０１号,,40,137,8140022,,,,,,,2022-08-18,1,,,,,ダイニング,0
605,3290003012770,新規,0,2022-08-18,2022-08-18,合同会社ＭＵＫＵ,,合同会社,福岡県,福岡市中央区,薬院２丁目４番５号９Ｆ,,40,133,8100022,,,,,,,2022-08-18,1,,,,,ムク,0
606,3290003012845,新規,0,2022-08-18,2022-08-18,ＵＲＵＵ不動産合同会社,,合同会社,福岡県,糸島市,潤３丁目２８番８号,,40,230,8191105,,,,,,,2022-08-18,1,,,,,ウルウフドウサン,0
607,3290003012853,新規,0,2022-08-18,2022-08-18,合同会社イグナイター,,合同会社,福岡県,福岡市中央区,大名１丁目７－３－９０６,,40,133,8100041,,,,,,,2022-08-18,1,,,,,イグナイター,0
612,3330001030035,新規,0,2022-08-18,2022-08-18,株式会社ＢＥＡＲ　ＨＯＵＳＥ,,株式会社,熊本県,熊本市中央区,水前寺３丁目１番１号,,43,101,8620950,,,,,,,2022-08-18,1,,,,,,0
619,3370005010517,新規,0,2022-08-18,2022-08-18,ｔｅｔｏｔｅ行政書士法人,,その他の設立登記法人,宮城県,仙台市青葉区,花京院２丁目１－６１オークツリー仙台４０６号,,04,101,9800013,,,,,,,2022-08-18,1,,,,,テトテ,0
620,3370005010525,新規,0,2022-08-18,2022-08-18,税理士法人日創パートナーズ,,その他の設立登記法人,宮城県,仙台市泉区,泉中央３丁目１８番地の６ＤＯＭＵＳ赤坂１０１,,04,105,9813133,,,,,,,2022-08-18,1,,,,,ニッソウパートナーズ,0
636,3450001013779,新規,0,2022-08-18,2022-08-18,株式会社アヴニール,,株式会社,北海道,旭川市,東光八条５丁目４番１０号,,01,204,0788348,,,,,,,2022-08-18,1,,,,,アヴニール,0
664,4010401169041,新規,0,2022-08-18,2022-08-18,株式会社ヒロインターナショナル,,株式会社,東京都,港区,南青山２丁目３番３号パークコート青山ザタワー１９０１,,13,103,1070062,,,,,,,2022-08-18,1,,,,,ヒロインターナショナル,0
669,4010601061700,新規,0,2022-08-18,2022-08-18,株式会社本田ニット,,株式会社,東京都,墨田区,本所３丁目２４番６号,,13,107,1300004,,,,,,,2022-08-18,1,,,,,ホンダニット,0
671,4010603009697,新規,0,2022-08-18,2022-08-18,合同会社花桃エステート,,合同会社,東京都,江東区,冬木２１番２３号－１０３号,,13,108,1350041,,,,,,,2022-08-18,1,,,,,ハナモモエステート,0
673,4010701043086,新規,0,2022-08-18,2022-08-18,株式会社ＳＴＡＲ　ｉｎｖｅｓｔｍｅｎｔ　ｈｏｌｄｉｎｇｓ,,株式会社,東京都,品川区,東五反田５丁目１７番１７号,,13,109,1410022,,,,,,,2022-08-18,1,,,,,スターインベストメントホールディングス,0
679,4011001148971,新規,0,2022-08-18,2022-08-18,株式会社アンセムホールディングス,,株式会社,東京都,渋谷区,道玄坂２丁目１１番１号,,13,113,1500043,,,,,,,2022-08-18,1,,,,,アンセムホールディングス,0
680,4011003015229,新規,0,2022-08-18,2022-08-18,合同会社ＧＥＮＫＩ　ＰＲＯＤＵＣＴＩＯＮ,,合同会社,東京都,渋谷区,渋谷３丁目１０番１８－９０６号パークハビオ渋谷,,13,113,1500002,,,,,,,2022-08-18,1,,,,,ゲンキプロダクション,0
687,4011603003681,新規,0,2022-08-18,2022-08-18,合同会社Ｋパートナーズ,,合同会社,東京都,練馬区,中村３丁目２６番１１号,,13,120,1760024,,,,,,,2022-08-18,1,,,,,ケーパートナーズ,0
689,4011801041161,新規,0,2022-08-18,2022-08-18,株式会社ブリリアンス,,株式会社,東京都,足立区,千住元町４番９号,,13,121,1200041,,,,,,,2022-08-18,1,,,,,ブリリアンス,0
698,4013301049503,新規,0,2022-08-18,2022-08-18,ミッドフィールダージャパン株式会社,,株式会社,東京都,豊島区,東池袋１丁目３３－４,,13,116,1700013,,,,,,,2022-08-18,1,,,,,ミッドフィールダージャパン,0
703,4020001147784,新規,0,2022-08-18,2022-08-18,株式会社ジェイトック,,株式会社,神奈川県,横浜市旭区,南本宿町８９番６３,,14,112,2410833,,,,,,,2022-08-18,1,,,,,ジェイトック,0
704,4020001147859,新規,0,2022-08-18,2022-08-18,株式会社ジェミニプロパティーズ,,株式会社,神奈川県,横浜市中区,山手町１４３番地６,,14,104,2310862,,,,,,,2022-08-18,1,,,,,ジェミニプロパティーズ,0
706,4020003022250,新規,0,2022-08-18,2022-08-18,合同会社Ｅｎｓｏ　Ｓｐｏｒｔｓ　Ｊａｐａｎ,,合同会社,神奈川県,横浜市港北区,新横浜２丁目１２番地１２新横浜ＩＫビル,,14,109,2220033,,,,,,,2022-08-18,1,,,,,エンソウスポーツジャパン,0
707,4020003022259,新規,0,2022-08-18,2022-08-18,合同会社ダブルＲ,,合同会社,神奈川県,横浜市瀬谷区,相沢６丁目３７番地５,,14,114,2460013,,,,,,,2022-08-18,1,,,,,ダブルアール,0
709,4021001076767,新規,0,2022-08-18,2022-08-18,株式会社Ｓｉｍｐｌｙ　Ｇｒｅｅｎ,,株式会社,神奈川県,鎌倉市,御成町十一丁目２番地ヤノヤビル２Ｆ,,14,204,2480012,,,,,,,2022-08-18,1,,,,,シンプリーグリーン,0
710,4021001076817,新規,0,2022-08-18,2022-08-18,株式会社セカンド．,,株式会社,神奈川県,厚木市,中町２丁目７番１１号オーイズミダイニング６０３号室,,14,212,2430018,,,,,,,2022-08-18,1,,,,,セカンドット,0
720,4030003020022,新規,0,2022-08-18,2022-08-18,ディジマーコンサルティング合同会社,,合同会社,埼玉県,ふじみ野市,ふじみ野１丁目４番２０－１００６号,,11,245,3560050,,,,,,,2022-08-18,1,,,,,ディジマーコンサルティング,0
722,4040001124732,新規,0,2022-08-18,2022-08-18,株式会社勝豊,,株式会社,千葉県,山武郡芝山町,高田１２３８－１０,,12,409,2891623,,,,,,,2022-08-18,1,,,,,ショウホウ,0
723,4040001124740,新規,0,2022-08-18,2022-08-18,株式会社３Ｗ,,株式会社,千葉県,浦安市,日の出７丁目７－１６,,12,227,2790013,,,,,,,2022-08-18,1,,,,,スリーダブリュー,0
727,4040003020640,新規,0,2022-08-18,2022-08-18,ＭＩＮＡ合同会社,,合同会社,千葉県,八千代市,村上１８９１番地１４メゾン秀和１０２,,12,221,2760028,,,,,,,2022-08-18,1,,,,,ミナ,0
728,4040003020657,新規,0,2022-08-18,2022-08-18,Ｓｅｔｈ　Ｃｅｙｌｏｎ合同会社,,合同会社,千葉県,八千代市,米本１０９９番地１,,12,221,2760015,,,,,,,2022-08-18,1,,,,,セスセイロン,0
731,4070001039556,新規,0,2022-08-18,2022-08-18,国康工業株式会社,,株式会社,群馬県,伊勢崎市,国定町１丁目１５７６番地２５,,10,204,3792221,,,,,,,2022-08-18,1,,,,,クニヤスコウギョウ,0
732,4080101023483,新規,0,2022-08-18,2022-08-18,株式会社フジヤマロガー,,株式会社,静岡県,富士宮市,大中里４５８,,22,207,4180044,,,,,,,2022-08-18,1,,,,,フジヤマロガー,0
741,4120001248168,新規,0,2022-08-18,2022-08-18,益高株式会社,,株式会社,大阪府,大阪市天王寺区,空清町４－１１杉野ビル本館１１０号室,,27,109,5430018,,,,,,,2022-08-18,1,,,,,エキコウ,0
742,4120001248234,新規,0,2022-08-18,2022-08-18,中橋貿易株式会社,,株式会社,大阪府,大阪市東成区,東小橋１丁目１７－３１グランドハイツ東小橋２０６号室,,27,115,5370024,,,,,,,2022-08-18,1,,,,,ナカハシボウエキ,0
745,4120905006365,新規,0,2022-08-18,2022-08-18,一般社団法人ヒアリングマーク推進協会ＲＡＤＹＯＮＥ,,その他の設立登記法人,大阪府,豊中市,豊南町西４丁目２６番１の３号,,27,203,5610816,,,,,,,2022-08-18,1,,,,,ヒアリングマークスイシンキョウカイレディワン,0
749,4130001072468,新規,0,2022-08-18,2022-08-18,株式会社エムズドリームカンパニー,,株式会社,京都府,京都市左京区,下鴨東梅ノ木町１０番地,,26,103,6060852,,,,,,,2022-08-18,1,,,,,エムズドリームカンパニー,0
750,4130001072476,新規,0,2022-08-18,2022-08-18,株式会社ジャンピング,,株式会社,京都府,宇治市,槇島町中川原９４番地２００号,,26,204,6110041,,,,,,,2022-08-18,1,,,,,ジャンピング,0
763,4160003002651,新規,0,2022-08-18,2022-08-18,合同会社福龍,,合同会社,滋賀県,大津市,下阪本５丁目３番地１０,,25,201,5200105,,,,,,,2022-08-18,1,,,,,フクリュウ,0
770,4180003024157,新規,0,2022-08-18,2022-08-18,合同会社トゥキ,,合同会社,愛知県,名古屋市西区,那古野２丁目４番８号,,23,104,4510042,,,,,,,2022-08-18,1,,,,,トゥキ,0
782,4250001019713,新規,0,2022-08-18,2022-08-18,株式会社皆笑ホールディングス,,株式会社,山口県,山口市,小郡令和１丁目１番１号,,35,203,7540041,,,,,,,2022-08-18,1,,,,,カイショウホールディングス,0
798,4310001017999,新規,0,2022-08-18,2022-08-18,株式会社ＡｒｔＢＢ,,株式会社,長崎県,大村市,東野岳町１０８８,,42,205,8560002,,,,,,,2022-08-18,1,,,,,アートビービー,0
802,4330001030034,新規,0,2022-08-18,2022-08-18,グローバル・ツリーオブライト株式会社,,株式会社,熊本県,阿蘇郡南阿蘇村,大字下野４７７番地１,,43,433,8691402,,,,,,,2022-08-18,1,,,,,グローバルツリーオブライト,0
803,4340001024976,新規,0,2022-08-18,2022-08-18,森下電気株式会社,,株式会社,鹿児島県,奄美市,名瀬大字名瀬勝１６８５番地,,46,222,8940775,,,,,,,2022-08-18,1,,,,,モリシタデンキ,0
811,4360001030849,新規,0,2022-08-18,2022-08-18,株式会社ＩＫＩ,,株式会社,沖縄県,沖縄市,園田１丁目８－２６,,47,211,9040022,,,,,,,2022-08-18,1,,,,,アイケイアイ,0
812,4360001030857,新規,0,2022-08-18,2022-08-18,株式会社隆豊,,株式会社,沖縄県,うるま市,字赤道５０２番地６６－１０４号,,47,213,9042245,,,,,,,2022-08-18,1,,,,,リュウホウ,0
813,4370001048956,新規,0,2022-08-18,2022-08-18,株式会社ＷＴＲ,,株式会社,宮城県,仙台市宮城野区,二十人町３０８番地の６クレアホームズ榴ヶ岡公園テラス５０５,,04,102,9830862,,,,,,,2022-08-18,1,,,,,ダブリューティーアール,0
830,4500003002880,新規,0,2022-08-18,2022-08-18,合同会社トレゾールモト,,合同会社,愛媛県,松山市,三津１丁目１０番１号,,38,201,7918061,,,,,,,2022-08-18,1,,,,,トレゾールモト,0
862,5010401169197,新規,0,2022-08-18,2022-08-18,株式会社ラッテラス,,株式会社,東京都,港区,赤坂９丁目７－７パークレジデンスザリッツカ－ルトン２７０５号室,,13,103,1070052,,,,,,,2022-08-18,1,,,,,ラッテラス,0
867,5010501049258,新規,0,2022-08-18,2022-08-18,アイ・カフェ株式会社,,株式会社,東京都,台東区,上野２丁目１１番１３号,,13,106,1100005,,,,,,,2022-08-18,1,,,,,アイカフェ,0
874,5010601061708,新規,0,2022-08-18,2022-08-18,株式会社ＳＨＥＲＹＬＬ,,株式会社,東京都,墨田区,江東橋１丁目７番１２－３０１号ＳＫＹＷＥＳＴ,,13,107,1300022,,,,,,,2022-08-18,1,,,,,シェリル,0
876,5010603009688,新規,0,2022-08-18,2022-08-18,ａｓｂ合同会社,,合同会社,東京都,江東区,亀戸７丁目６２番１６－８０３号,,13,108,1360071,,,,,,,2022-08-18,1,,,,,エーエスビー,0
878,5010701043085,新規,0,2022-08-18,2022-08-18,株式会社ふぐの串田,,株式会社,東京都,品川区,西大井１丁目８番１５号,,13,109,1400015,,,,,,,2022-08-18,1,,,,,フグノクシダ,0
879,5010703006362,新規,0,2022-08-18,2022-08-18,日本オフィスビル合同会社,,合同会社,東京都,品川区,上大崎３丁目１番１号目黒セントラルスクエア１５階,,13,109,1410021,,,,,,,2022-08-18,1,,,,,ニホンオフィスビル,0
893,5011001149267,新規,0,2022-08-18,2022-08-18,株式会社リトリートラボ,,株式会社,東京都,渋谷区,桜丘町２２番１９号,,13,113,1500031,,,,,,,2022-08-18,1,,,,,リトリートラボ,0
894,5011001149275,新規,0,2022-08-18,2022-08-18,株式会社Ｃ３,,株式会社,東京都,渋谷区,神宮前６丁目２５番２号７０５号室,,13,113,1500001,,,,,,,2022-08-18,1,,,,,シースリー,0
895,5011003015038,新規,0,2022-08-18,2022-08-18,合同会社ＹＯＨ・ＷＬＹＳ　Ｃｏａｃｈｉｎｇ,,合同会社,東京都,渋谷区,神山町１－８田崎ビルＡ,,13,113,1500047,,,,,,,2022-08-18,1,,,,,ヨウウォリスコーチング,0
896,5011003015228,新規,0,2022-08-18,2022-08-18,合同会社Ｇｏｏｄ　Ｌｉｎｋ,,合同会社,東京都,渋谷区,円山町５番５号Ｎａｖｉ渋谷Ｖ３階,,13,113,1500044,,,,,,,2022-08-18,1,,,,,,0
902,5011101099908,新規,0,2022-08-18,2022-08-18,株式会社Ｌｉｂｒｅ,,株式会社,東京都,新宿区,舟町１３番地四谷アパートメントＥ０７,,13,104,1600006,,,,,,,2022-08-18,1,,,,,リーブル,0
903,5011205002503,新規,0,2022-08-18,2022-08-18,一般社団法人テスラ・オーナーズ・クラブ・ジャパン,,その他の設立登記法人,東京都,中野区,上鷺宮３丁目１６番９号オーエスビル,,13,114,1650031,,,,,,,2022-08-18,1,,,,,テスラオーナーズクラブジャパン,0
905,5011403003740,新規,0,2022-08-18,2022-08-18,青藤合同会社,,合同会社,東京都,板橋区,赤塚４丁目３４－３,,13,119,1750092,,,,,,,2022-08-18,1,,,,,アオフジ,0
913,5011703003234,新規,0,2022-08-18,2022-08-18,ＤＴ合同会社,,合同会社,東京都,江戸川区,一之江３丁目１２番１２号,,13,123,1320024,,,,,,,2022-08-18,1,,,,,ディーティー,0
923,5013301049519,新規,0,2022-08-18,2022-08-18,株式会社ＡＥＬＬ,,株式会社,東京都,豊島区,南大塚２丁目３８番１号リードシー大塚ビル８階,,13,116,1700005,,,,,,,2022-08-18,1,,,,,アエル,0
930,5020001147635,新規,0,2022-08-18,2022-08-18,株式会社Ｆｉｓｔ,,株式会社,神奈川県,横浜市港北区,日吉６丁目８番６－１０２号,,14,109,2230061,,,,,,,2022-08-18,1,,,,,フィスト,0
931,5020001147825,新規,0,2022-08-18,2022-08-18,株式会社実り,,株式会社,神奈川県,横浜市磯子区,杉田６丁目８番４号,,14,107,2350033,,,,,,,2022-08-18,1,,,,,ミノリ,0
934,5020003022241,新規,0,2022-08-18,2022-08-18,ＳＲＺ　Ｊａｐａｎ合同会社,,合同会社,神奈川県,横浜市西区,戸部町７丁目２２０番地,,14,103,2200042,,,,,,,2022-08-18,1,,,,,エスアールゼットジャパン,0
938,5021003012050,新規,0,2022-08-18,2022-08-18,合同会社シェ・リエ,,合同会社,神奈川県,鎌倉市,西鎌倉１丁目９番１７号,,14,204,2480035,,,,,,,2022-08-18,1,,,,,,0
945,5030001149390,新規,0,2022-08-18,2022-08-18,川口精研株式会社,,株式会社,埼玉県,川口市,坂下町４丁目９番４号,,11,203,3340003,,,,,,,2022-08-18,1,,,,,カワグチセイケン,0
946,5030001149473,新規,0,2022-08-18,2022-08-18,株式会社ピリナ,,株式会社,埼玉県,春日部市,中央１丁目４８番地９サンライズビル春日部３階,,11,214,3440067,,,,,,,2022-08-18,1,,,,,ピリナ,0
947,5030001149713,新規,0,2022-08-18,2022-08-18,株式会社飛翔,,株式会社,埼玉県,川口市,芝西２丁目９－１６アベニール桜２０２,,11,203,3330855,,,,,,,2022-08-18,1,,,,,ヒショウ,0
948,5030001149721,新規,0,2022-08-18,2022-08-18,株式会社ｎｉｎｅ‐ｔａｉｎ,,株式会社,埼玉県,春日部市,大枝８９番地武里第二団地３街区３２棟１０８号,,11,214,3440023,,,,,,,2022-08-18,1,,,,,ナインテイン,0
955,5030003020021,新規,0,2022-08-18,2022-08-18,ＦＲＥＥＡＳＥ合同会社,,合同会社,埼玉県,さいたま市大宮区,桜木町１丁目３７８,,11,103,3300854,,,,,,,2022-08-18,1,,,,,フリーズ,0
957,5030005020969,新規,0,2022-08-18,2022-08-18,特定非営利活動法人こころ星,,その他の設立登記法人,埼玉県,東松山市,山崎町１０番地６,,11,212,3550033,,,,,,,2022-08-18,1,,,,,ココロボシ,0
962,5040001124731,新規,0,2022-08-18,2022-08-18,Ｈｕｙｅｎ　Ｈｉｅｎ株式会社,,株式会社,千葉県,鎌ケ谷市,東道野辺６丁目３番２３号,,12,224,2730115,,,,,,,2022-08-18,1,,,,,フエンヒエン,0
966,5040003020607,新規,0,2022-08-18,2022-08-18,合同会社晋章さくら,,合同会社,千葉県,市原市,飯沼５０１番地５,,12,219,2900037,,,,,,,2022-08-18,1,,,,,シンショウサクラ,0
967,5040005021702,新規,0,2022-08-18,2022-08-18,一般社団法人地域未来研究所,,その他の設立登記法人,千葉県,佐倉市,八幡台２丁目８番４号,,12,212,2850867,,,,,,,2022-08-18,1,,,,,チイキミライケンキュウジョ,0
975,5070001039555,新規,0,2022-08-18,2022-08-18,株式会社スマイルロードアシスト,,株式会社,群馬県,伊勢崎市,新栄町３９５５番地９,,10,204,3720038,,,,,,,2022-08-18,1,,,,,スマイルロードアシスト,0
981,5110003004841,新規,0,2022-08-18,2022-08-18,合同会社ＡＴＲＹＺ,,合同会社,新潟県,南魚沼市,滝谷１２９８番地,,15,226,9496555,,,,,,,2022-08-18,1,,,,,アトライズ,0
992,5120001248167,新規,0,2022-08-18,2022-08-18,卓越株式会社,,株式会社,大阪府,大阪市天王寺区,空清町４－１１杉野ビル本館１０９号室,,27,109,5430018,,,,,,,2022-08-18,1,,,,,タクエツ,0
993,5120001248274,新規,0,2022-08-18,2022-08-18,株式会社シュプリード,,株式会社,大阪府,大阪市北区,芝田２丁目８－１１,,27,127,5300012,,,,,,,2022-08-18,1,,,,,シュプリード,0
1004,5130001072475,新規,0,2022-08-18,2022-08-18,株式会社Ｎｅｘｔ　Ｃｌｉｅｎｔ,,株式会社,京都府,京都市伏見区,深草大亀谷大山町２１番地１,,26,109,6120847,,,,,,,2022-08-18,1,,,,,ネクストクライアント,0
1011,5140001127138,新規,0,2022-08-18,2022-08-18,日本神田マリン株式会社,,株式会社,兵庫県,三田市,つつじが丘北３丁目２－１０,,28,219,6691348,,,,,,,2022-08-18,1,,,,,ニホンカンダマリン,0
1021,5180001152628,新規,0,2022-08-18,2022-08-18,株式会社まねき経営,,株式会社,愛知県,名古屋市中区,上前津２丁目１番１１号上前津光菱ビル５Ｂ号,,23,106,4600013,,,,,,,2022-08-18,1,,,,,マネキケイエイ,0
1022,5180001152652,新規,0,2022-08-18,2022-08-18,株式会社ＥＣＯＤＡ,,株式会社,愛知県,名古屋市中区,新栄２丁目１３番１９号,,23,106,4600007,,,,,,,2022-08-18,1,,,,,エコダ,0
1023,5180001152677,新規,0,2022-08-18,2022-08-18,株式会社ＯＫＡＭＵＲＡ,,株式会社,愛知県,名古屋市天白区,平針南１丁目１７０１番地,,23,116,4680020,,,,,,,2022-08-18,1,,,,,オカムラ,0
1024,5180001152685,新規,0,2022-08-18,2022-08-18,株式会社栞‐ｓＨｉｏＮ,,株式会社,愛知県,名古屋市中区,丸の内２丁目１８番５号サンマルノウチビル３０１,,23,106,4600002,,,,,,,2022-08-18,1,,,,,シオン,0
1029,5180005019889,新規,0,2022-08-18,2022-08-18,一般社団法人Ｂｉｒｔｈ,,その他の設立登記法人,愛知県,名古屋市千種区,豊年町２番５号,,23,101,4640076,,,,,,,2022-08-18,1,,,,,バース,0
1044,5270003001435,新規,0,2022-08-18,2022-08-18,合同会社ＭＴ,,合同会社,鳥取県,鳥取市,安長３４８番地,,31,201,6800913,,,,,,,2022-08-18,1,,,,,,0
1054,5290001098653,新規,0,2022-08-18,2022-08-18,壬甲株式会社,,株式会社,福岡県,福岡市博多区,吉塚７丁目２番２７－３０１号,,40,132,8120041,,,,,,,2022-08-18,1,,,,,ニンコウ,0
1060,5330003009488,新規,0,2022-08-18,2022-08-18,合同会社松下,,合同会社,熊本県,熊本市中央区,黒髪４丁目４０５番地,,43,101,8600862,,,,,,,2022-08-18,1,,,,,マツシタ,0
1064,5360001030815,新規,0,2022-08-18,2022-08-18,黎明株式会社,,株式会社,沖縄県,那覇市,字天久１１９６番地１２藤浦通関ビル３階Ｓｅａｓｉｄｅ　Ｏｆｆｉｃｅ３２０号室,,47,201,9000005,,,,,,,2022-08-18,1,,,,,レイメイ,0
1078,5470003002231,新規,0,2022-08-18,2022-08-18,合同会社ゆえん,,合同会社,香川県,高松市,今里町２丁目１４番地２０,,37,201,7600078,,,,,,,2022-08-18,1,,,,,ユエン,0
1079,5480001011828,新規,0,2022-08-18,2022-08-18,株式会社Ｐｏｐｐｙ,,株式会社,徳島県,徳島市,国府町日開８７０番地１,,36,201,7793117,,,,,,,2022-08-18,1,,,,,ポピー,0
1090,6010001228914,新規,0,2022-08-18,2022-08-18,株式会社ざんまいネット,,株式会社,東京都,中央区,築地４丁目７番５号,,13,102,1040045,,,,,,,2022-08-18,1,,,,,ザンマイネット,0
1102,6010501049265,新規,0,2022-08-18,2022-08-18,株式会社アイホーム,,株式会社,東京都,台東区,浅草５丁目４９－９,,13,106,1110032,,,,,,,2022-08-18,1,,,,,アイホーム,0
1104,6010601061698,新規,0,2022-08-18,2022-08-18,株式会社ｐｅａｃｅ　ｏｆ　ｃａｋｅ,,株式会社,東京都,江東区,豊洲２丁目５番１－４０１２号,,13,108,1350061,,,,,,,2022-08-18,1,,,,,ピースオブケイク,0
1106,6010603009695,新規,0,2022-08-18,2022-08-18,Ａｍａｚｉｎｇ合同会社,,合同会社,東京都,江東区,有明３丁目７－２６，有明フロンティアビルＢ棟，９階,,13,108,1350063,,,,,,,2022-08-18,1,,,,,アメイジング,0
1115,6010901051449,新規,0,2022-08-18,2022-08-18,株式会社Ａｎｇｅｌｆｉｓｈ,,株式会社,東京都,世田谷区,代田２丁目１番１８号第１０ＭＩヴィラ代田１０１,,13,112,1550033,,,,,,,2022-08-18,1,,,,,エンジェルフィッシュ,0
1116,6010901051457,新規,0,2022-08-18,2022-08-18,株式会社ベターミー,,株式会社,東京都,世田谷区,船橋７丁目７番１号ヘリオス相互世田谷１０１,,13,112,1560055,,,,,,,2022-08-18,1,,,,,ベターミー,0
1121,6011001149258,新規,0,2022-08-18,2022-08-18,ｆｉｔ　ｃｏｍｐａｎｙ株式会社,,株式会社,東京都,渋谷区,広尾５丁目４番１２号大成鋼機ビル４階,,13,113,1500012,,,,,,,2022-08-18,1,,,,,フィットカンパニー,0
1122,6011001149266,新規,0,2022-08-18,2022-08-18,株式会社ｍｉｋｉ,,株式会社,東京都,渋谷区,代々木１丁目４番３－１０３号レグノ・コラージュ,,13,113,1510053,,,,,,,2022-08-18,1,,,,,ミキ,0
1123,6011003015219,新規,0,2022-08-18,2022-08-18,エイジング・テクノロジー合同会社,,合同会社,東京都,渋谷区,千駄ヶ谷３丁目３０番９号,,13,113,1510051,,,,,,,2022-08-18,1,,,,,エイジングテクノロジー,0
1131,6011501028390,新規,0,2022-08-18,2022-08-18,ＳＴＡ株式会社,,株式会社,東京都,北区,志茂２丁目３２番１２－６０４号,,13,117,1150042,,,,,,,2022-08-18,1,,,,,エスティーエー,0
1148,6020001147725,新規,0,2022-08-18,2022-08-18,株式会社モルゲングリーン,,株式会社,神奈川県,川崎市宮前区,潮見台８番１０－９１３号,,14,136,2160013,,,,,,,2022-08-18,1,,,,,モルゲングリーン,0
1149,6020001147766,新規,0,2022-08-18,2022-08-18,ＹＵＩ株式会社,,株式会社,神奈川県,横浜市中区,桜木町１丁目１０１番地１クロスゲート７階,,14,104,2310062,,,,,,,2022-08-18,1,,,,,ユイ,0
1150,6020001147857,新規,0,2022-08-18,2022-08-18,株式会社ヴァンダライズ,,株式会社,神奈川県,横浜市神奈川区,西神奈川１丁目４番地７コーポ・タニ１０２,,14,102,2210822,,,,,,,2022-08-18,1,,,,,ヴァンダライズ,0
1155,6020003022240,新規,0,2022-08-18,2022-08-18,合同会社ＳＫＷ,,合同会社,神奈川県,横浜市港南区,東永谷３丁目５２番２３号セントバレーＢ棟２０１,,14,111,2330011,,,,,,,2022-08-18,1,,,,,エスケーダブル,0
1156,6020003022257,新規,0,2022-08-18,2022-08-18,良＿合同会社,00127558,合同会社,神奈川県,川崎市川崎区,南町１１－１－１０１サングリーン川崎,,14,131,2100015,,,,,,,2022-08-18,1,,,,,リョウキン,0
1157,6020003022265,新規,0,2022-08-18,2022-08-18,合同会社亀田リサーチ,,合同会社,神奈川県,横浜市中区,野毛町４丁目１７３－２－８０７,,14,104,2310064,,,,,,,2022-08-18,1,,,,,カメダリサーチ,0
1160,6021001076773,新規,0,2022-08-18,2022-08-18,小川町管財株式会社,,株式会社,神奈川県,横須賀市,若松町２丁目３３番地３サンハロー横須賀中央駅前１０９,,14,201,2380007,,,,,,,2022-08-18,1,,,,,オガワチョウカンザイ,0
1161,6021001076798,新規,0,2022-08-18,2022-08-18,株式会社Ｃａｒｉｂ,,株式会社,神奈川県,愛甲郡愛川町,中津２３２１番地の６,,14,401,2430303,,,,,,,2022-08-18,1,,,,,カリブ,0
1162,6021001076807,新規,0,2022-08-18,2022-08-18,株式会社共同興業,,株式会社,神奈川県,相模原市南区,新磯野１０３番地,,14,153,2520325,,,,,,,2022-08-18,1,,,,,キョウドウコウギョウ,0
1169,6030001149670,新規,0,2022-08-18,2022-08-18,株式会社ＵＥＲＵ,,株式会社,埼玉県,さいたま市大宮区,大成町３丁目５４８番地２富士幸ビル１階,,11,103,3300852,,,,,,,2022-08-18,1,,,,,ウエル,0
1170,6030001149712,新規,0,2022-08-18,2022-08-18,株式会社鈴木コンサルティング,,株式会社,埼玉県,蕨市,塚越７丁目６番１４号,,11,223,3350002,,,,,,,2022-08-18,1,,,,,スズキコンサルティング,0
1171,6030001149720,新規,0,2022-08-18,2022-08-18,株式会社アコルデ,,株式会社,埼玉県,三郷市,彦川戸１丁目２７８番地１５,,11,237,3410005,,,,,,,2022-08-18,1,,,,,アコルデ,0
1172,6030001149729,新規,0,2022-08-18,2022-08-18,株式会社山根空調設備,,株式会社,埼玉県,川越市,新富町２丁目２９番地９（ヴェルドミール新富９０１号室）,,11,201,3500043,,,,,,,2022-08-18,1,,,,,ヤマネクウチョウセツビ,0
1177,6030003020004,新規,0,2022-08-18,2022-08-18,ＡＢＬＡＺＥ合同会社,,合同会社,埼玉県,蕨市,南町２丁目１番３号（グレースランド・ワラビ１０２号室）,,11,223,3350003,,,,,,,2022-08-18,1,,,,,アブレイズ,0
1178,6030003020012,新規,0,2022-08-18,2022-08-18,偉業合同会社,,合同会社,埼玉県,三郷市,彦倉１丁目３１番地フルール三郷Ｂ２,,11,237,3410053,,,,,,,2022-08-18,1,,,,,イギョウ,0
1189,6040001124648,新規,0,2022-08-18,2022-08-18,株式会社Ｏｆｆｉｃｅ　Ａ　Ｏｎｅ,,株式会社,千葉県,山武市,松尾町大堤１５６番地２,,12,237,2891527,,,,,,,2022-08-18,1,,,,,オフィスエーワン,0
1190,6040001124730,新規,0,2022-08-18,2022-08-18,株式会社日本東光貿易,,株式会社,千葉県,八千代市,米本２４３６－５３－Ｂ棟,,12,221,2760015,,,,,,,2022-08-18,1,,,,,ニホントウコウボウエキ,0
1195,6040003020580,新規,0,2022-08-18,2022-08-18,印西トレーディング合同会社,,合同会社,千葉県,印西市,木下１５２１－２７－１０１,,12,231,2701326,,,,,,,2022-08-18,1,,,,,インザイトレーディング,0
1196,6040003020639,新規,0,2022-08-18,2022-08-18,ＨＭＭＫ合同会社,,合同会社,千葉県,鴨川市,横渚１３２番地１大悟ビル１Ｆ,,12,223,2960001,,,,,,,2022-08-18,1,,,,,エイチエムエムケイ,0
1200,6060001035182,新規,0,2022-08-18,2022-08-18,株式会社東昭こすも,,株式会社,栃木県,河内郡上三川町,大字多功１９２８番地１,,09,301,3290524,,,,,,,2022-08-18,1,,,,,トウショウコスモ,0
1207,6080003002856,新規,0,2022-08-18,2022-08-18,合同会社プレザント,,合同会社,静岡県,静岡市葵区,伝馬町１５－１１－４０１,,22,101,4200858,,,,,,,2022-08-18,1,,,,,プレザント,0
1216,6100001035632,新規,0,2022-08-18,2022-08-18,株式会社Ａ＆ＵＮ,,株式会社,長野県,長野市,箱清水２丁目１０番１３号,,20,201,3800801,,,,,,,2022-08-18,1,,,,,エーアンドアン,0
1226,6120001247878,新規,0,2022-08-18,2022-08-18,壹漆玖株式会社,00127556,株式会社,大阪府,大阪市東成区,深江北３丁目４番２１号エクラ深江橋２０３Ｂ,,27,115,5370001,,,,,,,2022-08-18,1,,,,,インシツキュウ,0
1227,6120001248166,新規,0,2022-08-18,2022-08-18,悠博株式会社,,株式会社,大阪府,大阪市天王寺区,空清町４－１１杉野ビル本館１０７号室,,27,109,5430018,,,,,,,2022-08-18,1,,,,,ユウハク,0
1238,6130001072474,新規,0,2022-08-18,2022-08-18,株式会社ＳＵＮ,,株式会社,京都府,京都市南区,西九条院町１６番地アルスールイン京都１Ｆ,,26,107,6018412,,,,,,,2022-08-18,1,,,,,サン,0
1241,6130003008138,新規,0,2022-08-18,2022-08-18,合同会社Ｄ＆Ｉ,,合同会社,京都府,京都市下京区,七条御所ノ内中町５１,,26,106,6008862,,,,,,,2022-08-18,1,,,,,デイアンドアイ,0
1256,6180001152610,新規,0,2022-08-18,2022-08-18,ＳｋｉＬＬ　ｕｐ　Ｉｎｄｉａ．株式会社,,株式会社,愛知県,名古屋市中区,丸の内２丁目７番２４号ＫＳ名古屋ビル５０１号,,23,106,4600002,,,,,,,2022-08-18,1,,,,,スキルアップインディア,0
1257,6180001152651,新規,0,2022-08-18,2022-08-18,株式会社ＤＪＩＮ　Ｔｅｃｈ　Ｓｏｌｕｔｉｏｎｓ,,株式会社,愛知県,名古屋市中区,栄３丁目２－３名古屋日興證券ビル４階,,23,106,4600008,,,,,,,2022-08-18,1,,,,,ジンテックソリューションズ,0
1258,6180001152676,新規,0,2022-08-18,2022-08-18,株式会社パル・ボヌール,,株式会社,愛知県,名古屋市中村区,羽衣町３７番地（リリーローサ１０６号）,,23,105,4530026,,,,,,,2022-08-18,1,,,,,パルボヌール,0
1261,6180003024171,新規,0,2022-08-18,2022-08-18,ＢＳＢインターナショナル合同会社,,合同会社,愛知県,名古屋市瑞穂区,市丘町２丁目２３番地－２０５号,,23,108,4670063,,,,,,,2022-08-18,1,,,,,ビーエスビーインターナショナル,0
1272,6240005015435,新規,0,2022-08-18,2022-08-18,一般社団法人シニア安心生活支援センター,,その他の設立登記法人,広島県,広島市西区,己斐上１丁目４番１０－２０２号,,34,104,7330815,,,,,,,2022-08-18,1,,,,,シニアアンシンセイカツシエンセンター,0
1287,6320003003879,新規,0,2022-08-18,2022-08-18,ビストロデリバリーサービス合同会社,,合同会社,大分県,宇佐市,大字佐々礼１６６０番地の３,,44,211,8720016,,,,,,,2022-08-18,1,,,,,ビストロデリバリーサービス,0
1304,6430001048295,新規,0,2022-08-18,2022-08-18,株式会社斎藤鉄工所,,株式会社,北海道,滝川市,幸町３丁目４番３０号,,01,225,0730043,,,,,,,2022-08-18,1,,,,,,0
1306,6430003014196,新規,0,2022-08-18,2022-08-18,合同会社ａｎｉｃｏ,,合同会社,北海道,室蘭市,高砂町３丁目１番８号,,01,205,0500072,,,,,,,2022-08-18,1,,,,,アニコ,0
1311,6470005006460,新規,0,2022-08-18,2022-08-18,特定非営利活動法人光かがやく絵顔の種,,その他の設立登記法人,香川県,丸亀市,飯野町東分１２８１番地１,,37,202,7630085,,,,,,,2022-08-18,1,,,,,ヒカリカガヤクエガオノタネ,0
1312,6480001011827,新規,0,2022-08-18,2022-08-18,株式会社ＴｉｍｅＭａｒｋｅｔ,,株式会社,徳島県,徳島市,北田宮３丁目７番３７－２４号,,36,201,7700003,,,,,,,2022-08-18,1,,,,,タイムマーケット,0
1333,7010001228806,新規,0,2022-08-18,2022-08-18,Ｆｏｕｒ　Ｓｅａｓｏｎｓ株式会社,,株式会社,東京都,千代田区,外神田６丁目１番５号岩上ビル４階,,13,101,1010021,,,,,,,2022-08-18,1,,,,,フォーシーズンズ,0
1337,7010005035414,新規,0,2022-08-18,2022-08-18,一般社団法人ヘルスケアイノベーション協会,,その他の設立登記法人,東京都,文京区,本郷１丁目３０番２７－１２１１号,,13,105,1130033,,,,,,,2022-08-18,1,,,,,ヘルスケアイノベーションキョウカイ,0
1338,7010101015294,新規,0,2022-08-18,2022-08-18,株式会社ｖｉｔａｍｉｎｅ,,株式会社,東京都,八王子市,子安町４丁目１番１１－１０１号,,13,201,1920904,,,,,,,2022-08-18,1,,,,,ビタミン,0
1348,7010401169187,新規,0,2022-08-18,2022-08-18,ホライズン１７株式会社,,株式会社,東京都,港区,西新橋２丁目８番６号,,13,103,1050003,,,,,,,2022-08-18,1,,,,,ホライズンセブンティーン,0
1351,7010403028300,新規,0,2022-08-18,2022-08-18,ザファンド合同会社,,合同会社,東京都,港区,浜松町２丁目２番１５号浜松町ダイヤビル２Ｆ,,13,103,1050013,,,,,,,2022-08-18,1,,,,,ザファンド,0
1379,7011203003897,新規,0,2022-08-18,2022-08-18,合同会社ＬＥＯ,,合同会社,東京都,中野区,弥生町１丁目４６番２号,,13,114,1640013,,,,,,,2022-08-18,1,,,,,レオ,0
1382,7011301028037,新規,0,2022-08-18,2022-08-18,株式会社ＵＴＯＰＩＡ,,株式会社,東京都,杉並区,西荻北２丁目１１－７浅野ビル,,13,115,1670042,,,,,,,2022-08-18,1,,,,,ユートピア,0
1383,7011303004498,新規,0,2022-08-18,2022-08-18,合同会社モラウ,,合同会社,東京都,杉並区,西荻北２丁目６番８号コンフォートＮ１０１,,13,115,1670042,,,,,,,2022-08-18,1,,,,,モラウ,0
1387,7011401024480,新規,0,2022-08-18,2022-08-18,Ｌ．Ｆｏｒｗａｒｄ株式会社,,株式会社,東京都,板橋区,成増２丁目１９－２,,13,119,1750094,,,,,,,2022-08-18,1,,,,,エルフォワード,0
1393,7011701025542,新規,0,2022-08-18,2022-08-18,ベイズ株式会社,,株式会社,東京都,江戸川区,南篠崎町５丁目９番２３号,,13,123,1330065,,,,,,,2022-08-18,1,,,,,ベイズ,0
1415,7021001076814,新規,0,2022-08-18,2022-08-18,株式会社ＡＲ　ＪＡＰＡＮ,,株式会社,神奈川県,相模原市南区,磯部１０４番地１０,,14,153,2520327,,,,,,,2022-08-18,1,,,,,エーアールジャパン,0
1420,7030001149595,新規,0,2022-08-18,2022-08-18,Ｒｉｏグループ株式会社,,株式会社,埼玉県,越谷市,蒲生南町１９番７４号,,11,222,3430833,,,,,,,2022-08-18,1,,,,,リオグループ,0
1421,7030001149736,新規,0,2022-08-18,2022-08-18,株式会社ＭＲＭデザイン,,株式会社,埼玉県,さいたま市南区,大字太田窪２３８６番地５,,11,108,3360015,,,,,,,2022-08-18,1,,,,,エムアールエムデザイン,0
1422,7030003020003,新規,0,2022-08-18,2022-08-18,ＢＷＣ合同会社,,合同会社,埼玉県,飯能市,大字双柳８７番５６号,,11,209,3570021,,,,,,,2022-08-18,1,,,,,ビーダブリューシー,0
1423,7030003020011,新規,0,2022-08-18,2022-08-18,必達合同会社,,合同会社,埼玉県,三郷市,彦倉１丁目３１番地フルール三郷Ａ－１,,11,237,3410053,,,,,,,2022-08-18,1,,,,,ヒッタツ,0
1433,7040005021700,新規,0,2022-08-18,2022-08-18,一般社団法人保育栄養安全衛生協会,,その他の設立登記法人,千葉県,船橋市,本町６丁目４番２３号ケイウッドビル３階,,12,204,2730005,,,,,,,2022-08-18,1,,,,,ホイクエイヨウアンゼンエイセイキョウカイ,0
1444,7060003004192,新規,0,2022-08-18,2022-08-18,合同会社人見ソーラーセルパワー,,合同会社,栃木県,矢板市,乙畑１３９３番地１００,,09,211,3291574,,,,,,,2022-08-18,1,,,,,ヒトミソーラーセルパワー,0
1447,7080003002855,新規,0,2022-08-18,2022-08-18,合同会社いしのま,,合同会社,静岡県,静岡市駿河区,南八幡町１２番２９号,,22,102,4228074,,,,,,,2022-08-18,1,,,,,イシノマ,0
1458,7120001248272,新規,0,2022-08-18,2022-08-18,株式会社ａｎｄＣｏ,,株式会社,大阪府,大阪市福島区,鷺洲５丁目１２番１－９０１号,,27,103,5530002,,,,,,,2022-08-18,1,,,,,アンドコー,0
1461,7120003022270,新規,0,2022-08-18,2022-08-18,ミライワン合同会社,,合同会社,大阪府,大阪市大正区,小林東３丁目１２番２７号,,27,108,5510011,,,,,,,2022-08-18,1,,,,,ミライワン,0
1467,7120103004821,新規,0,2022-08-18,2022-08-18,合同会社アパスル,,合同会社,大阪府,堺市西区,鳳中町８丁２６５番地５,,27,144,5938327,,,,,,,2022-08-18,1,,,,,アパスル,0
1473,7130001072465,新規,0,2022-08-18,2022-08-18,ＲＡＹ株式会社,,株式会社,京都府,京都市伏見区,深草下川原町５１番６号安田マンション２階２０１号室,,26,109,6128401,,,,,,,2022-08-18,1,,,,,ライ,0
1478,7140001127136,新規,0,2022-08-18,2022-08-18,株式会社Ａ＆Ｋ,,株式会社,兵庫県,三木市,緑が丘町三丁目１５番地の９,,28,215,6730400,,,,,,,2022-08-18,1,,,,,エーアンドケー,0
1480,7140005026292,新規,0,2022-08-18,2022-08-18,特定非営利活動法人スポーツクラブ２１富士,,その他の設立登記法人,兵庫県,三田市,ゆりのき台３丁目２５番地２１,,28,219,6691324,,,,,,,2022-08-18,1,,,,,スポーツクラブニジュウイチフジ,0
1485,7180001152634,新規,0,2022-08-18,2022-08-18,ＳＫＹ‐ＡＵＴＯ　ＰＲＯ株式会社,,株式会社,愛知県,常滑市,苅屋字柳田１７番地の１,,23,216,4790805,,,,,,,2022-08-18,1,,,,,スカイオートプロ,0
1486,7180001152650,新規,0,2022-08-18,2022-08-18,株式会社共立テック,,株式会社,愛知県,名古屋市緑区,池上台１丁目２０９番地,,23,114,4580044,,,,,,,2022-08-18,1,,,,,キョウリツテック,0
1487,7180001152667,新規,0,2022-08-18,2022-08-18,株式会社ＨＹＲ＆Ｋ,,株式会社,愛知県,一宮市,木曽川町里小牧字笹原９０番地１,,23,203,4930005,,,,,,,2022-08-18,1,,,,,エイチワイアールアンドケイ,0
1488,7180001152675,新規,0,2022-08-18,2022-08-18,株式会社ＴＲＯＮ,,株式会社,愛知県,名古屋市西区,名西２丁目３２－２３,,23,104,4510064,,,,,,,2022-08-18,1,,,,,トロン,0
1489,7180001152691,新規,0,2022-08-18,2022-08-18,株式会社中部ワンダー,,株式会社,愛知県,清須市,一場御園８６０番地１５,,23,233,4520931,,,,,,,2022-08-18,1,,,,,チュウブワンダー,0
1490,7180003024105,新規,0,2022-08-18,2022-08-18,ＳＨＵＮ＆ｓｏｎｓ合同会社,,合同会社,愛知県,名古屋市瑞穂区,神前町２丁目２４番地,,23,108,4670832,,,,,,,2022-08-18,1,,,,,シュンアンドサンズ,0
1495,7230001019489,新規,0,2022-08-18,2022-08-18,テクノエンジニアリング株式会社,,株式会社,富山県,氷見市,柳田１４５９番地１０５号,,16,205,9350031,,,,,,,2022-08-18,1,,,,,テクノエンジニアリング,0
1497,7240001060236,新規,0,2022-08-18,2022-08-18,株式会社ミカミ設備,,株式会社,広島県,広島市西区,庚午南１丁目３２番３４－９０１号,,34,104,7330823,,,,,,,2022-08-18,1,,,,,ミカミセツビ,0
1501,7250001019685,新規,0,2022-08-18,2022-08-18,株式会社ココチＬａｂ,,株式会社,山口県,宇部市,大字東岐波５４９７番地１シャーメゾン東陽Ｂ棟２０２号,,35,202,7550241,,,,,,,2022-08-18,1,,,,,ココチラボ,0
1502,7250005008767,新規,0,2022-08-18,2022-08-18,一般社団法人やまぐちグローバルサポートアソシエーション,,その他の設立登記法人,山口県,下関市,武久町１丁目１８番２３号,,35,201,7510833,,,,,,,2022-08-18,1,,,,,ヤマグチグローバルサポートアソシエーション,0
1510,7290001098651,新規,0,2022-08-18,2022-08-18,株式会社といろ,,株式会社,福岡県,福岡市博多区,博多駅前４丁目２３番４号アーバンクルーザー博多駅前３０３号室,,40,132,8120011,,,,,,,2022-08-18,1,,,,,トイロ,0
1511,7290003012858,新規,0,2022-08-18,2022-08-18,合同会社ＳＭＡＲＴ,,合同会社,福岡県,福岡市中央区,天神２丁目３－１０天神パインクレスト７１９号,,40,133,8100001,,,,,,,2022-08-18,1,,,,,スマート,0
1512,7290005018779,新規,0,2022-08-18,2022-08-18,一般社団法人Ａｒｔ＆Ｌｉｆｅ,,その他の設立登記法人,福岡県,福岡市中央区,大手門３丁目１番１７号,,40,133,8100074,,,,,,,2022-08-18,1,,,,,アートアンドライフ,0
1517,7300001013030,新規,0,2022-08-18,2022-08-18,株式会社馬神,,株式会社,佐賀県,神埼市,千代田町下板２９５番地１,,41,210,8420068,,,,,,,2022-08-18,1,,,,,マガミ,0
1549,8010001228904,新規,0,2022-08-18,2022-08-18,株式会社Ｂａｃｋｒｅｓｔ,,株式会社,東京都,千代田区,九段南１丁目５番６号りそな九段ビル５階ＫＳフロア,,13,101,1020074,,,,,,,2022-08-18,1,,,,,バックレスト,0
1558,8010005035413,新規,0,2022-08-18,2022-08-18,弁理士法人海田国際特許事務所,,その他の設立登記法人,東京都,千代田区,神田神保町３丁目２９番地帝国書院ビル５階,,13,101,1010051,,,,,,,2022-08-18,1,,,,,カイタコクサイトッキョジムショ,0
1563,8010401169203,新規,0,2022-08-18,2022-08-18,Ａｔｈｅｎｅ　Ｊａｐａｎ　Ｅｍｐｌｏｙｅｅ　Ｓｅｒｖｉｃｅｓ株式会社,,株式会社,東京都,港区,虎ノ門２丁目１０番４号オークラプレステージタワー,,13,103,1050001,,,,,,,2022-08-18,1,,,,,アテーネージャパンエンプロイーサービシーズ,0
1566,8010405021228,新規,0,2022-08-18,2022-08-18,一般財団法人さち風会,,その他の設立登記法人,東京都,港区,赤坂２丁目１０番１０号,,13,103,1070052,,,,,,,2022-08-18,1,,,,,サチカゼカイ,0
1568,8010501049263,新規,0,2022-08-18,2022-08-18,株式会社佳星ジュエリー,,株式会社,東京都,台東区,台東４丁目７－９深律ビル３０１号,,13,106,1100016,,,,,,,2022-08-18,1,,,,,カセイジュエリー,0
1569,8010503006691,新規,0,2022-08-18,2022-08-18,Ｂａｙａｎｉ合同会社,,合同会社,東京都,台東区,下谷２丁目１３－１０－２０２,,13,106,1100004,,,,,,,2022-08-18,1,,,,,バヤニー,0
1573,8010601061696,新規,0,2022-08-18,2022-08-18,ｎａＬＩＮＫ株式会社,,株式会社,東京都,江東区,有明１丁目４番２０－２００５号,,13,108,1350063,,,,,,,2022-08-18,1,,,,,エヌエーリンク,0
1579,8010701043082,新規,0,2022-08-18,2022-08-18,株式会社ＳＵＮＳＨＩＮＥ,,株式会社,東京都,品川区,八潮５丁目１２番６９－１４１１号,,13,109,1400003,,,,,,,2022-08-18,1,,,,,サンシャイン,0
1584,8010901051447,新規,0,2022-08-18,2022-08-18,株式会社Ｓｗｉｎｇ‐ｂｙ．ＹＫ,,株式会社,東京都,世田谷区,松原３丁目４１番２０－５０４号,,13,112,1560043,,,,,,,2022-08-18,1,,,,,スウィングバイドットワイケイ,0
1595,8011001149264,新規,0,2022-08-18,2022-08-18,ＤＭ株式会社,,株式会社,東京都,渋谷区,恵比寿西１丁目３３番６号ＪＰｎｏｉｅ恵比寿西１Ｆ,,13,113,1500021,,,,,,,2022-08-18,1,,,,,ディーエム,0
1608,8011301028036,新規,0,2022-08-18,2022-08-18,株式会社ＬＩＶＥＲＴＡ,,株式会社,東京都,杉並区,西荻北２丁目１１－７浅野ビル,,13,115,1670042,,,,,,,2022-08-18,1,,,,,リヴェルタ,0
1609,8011303004497,新規,0,2022-08-18,2022-08-18,合同会社ログコーポレーション,,合同会社,東京都,杉並区,和泉２丁目１３番９号,,13,115,1680063,,,,,,,2022-08-18,1,,,,,ログコーポレーション,0
1620,8013301049516,新規,0,2022-08-18,2022-08-18,株式会社徳宏,,株式会社,東京都,豊島区,高田３丁目３番２２－３０４号,,13,116,1710033,,,,,,,2022-08-18,1,,,,,トクヒロ,0
1632,8021001076739,新規,0,2022-08-18,2022-08-18,株式会社プリート,,株式会社,神奈川県,足柄上郡大井町,上大井３２３番地の１,,14,362,2580016,,,,,,,2022-08-18,1,,,,,プリート,0
1633,8021001076788,新規,0,2022-08-18,2022-08-18,株式会社Ｃｏｍｆｉｓ,,株式会社,神奈川県,相模原市南区,若松６丁目１２番８号,,14,153,2520334,,,,,,,2022-08-18,1,,,,,コムフィス,0
1634,8021001076813,新規,0,2022-08-18,2022-08-18,株式会社ＡＣＭ,,株式会社,神奈川県,大和市,中央林間５丁目１７番２０号,,14,213,2420007,,,,,,,2022-08-18,1,,,,,エーシーエム,0
1641,8030001149652,新規,0,2022-08-18,2022-08-18,株式会社あるかでぃあ,,株式会社,埼玉県,さいたま市見沼区,染谷３丁目２７４番１,,11,104,3370026,,,,,,,2022-08-18,1,,,,,アルカディア,0
1642,8030001149702,新規,0,2022-08-18,2022-08-18,株式会社スピカ,,株式会社,埼玉県,さいたま市南区,南本町２丁目２２番２号,,11,108,3360018,,,,,,,2022-08-18,1,,,,,スピカ,0
1643,8030001149735,新規,0,2022-08-18,2022-08-18,株式会社ＡＨＩＬ　ＴＲＡＤＩＮＧ,,株式会社,埼玉県,加須市,上崎６７２番地６,,11,210,3470125,,,,,,,2022-08-18,1,,,,,アヘルトレーディング,0
1645,8030003020010,新規,0,2022-08-18,2022-08-18,永通合同会社,,合同会社,埼玉県,三郷市,彦倉１丁目３１番地フルール三郷Ａ２,,11,237,3410053,,,,,,,2022-08-18,1,,,,,エイツウ,0
1648,8040001124621,新規,0,2022-08-18,2022-08-18,株式会社タケシ商事,,株式会社,千葉県,船橋市,金杉台２丁目２番地９棟４０１,,12,204,2730852,,,,,,,2022-08-18,1,,,,,タケシショウジ,0
1649,8040001124720,新規,0,2022-08-18,2022-08-18,瓦斯奥山株式会社,,株式会社,千葉県,市川市,柏井町２丁目７６０番地１４,,12,203,2720802,,,,,,,2022-08-18,1,,,,,ガスオクヤマ,0
1650,8040001124729,新規,0,2022-08-18,2022-08-18,株式会社池田興業,,株式会社,千葉県,船橋市,咲が丘２丁目２７番１０号,,12,204,2740807,,,,,,,2022-08-18,1,,,,,イケダコウギョウ,0
1653,8040003020645,新規,0,2022-08-18,2022-08-18,合同会社ｈａｍｉｎｏａ,,合同会社,千葉県,船橋市,二和西５丁目１６番４号,,12,204,2740806,,,,,,,2022-08-18,1,,,,,ハミノア,0
1654,8040003020653,新規,0,2022-08-18,2022-08-18,平＿合同会社,00127561,合同会社,千葉県,船橋市,栄町１丁目９番１－３０２号,,12,204,2730018,,,,,,,2022-08-18,1,,,,,ヒラコウ,0
1664,8100001035630,新規,0,2022-08-18,2022-08-18,アップル不動産株式会社,,株式会社,長野県,飯田市,座光寺４５９６番地１,,20,205,3950001,,,,,,,2022-08-18,1,,,,,アップルフドウサン,0
1671,8120001248271,新規,0,2022-08-18,2022-08-18,株式会社Ｗｉｓｔｅｒｉｏｕｓ,,株式会社,大阪府,大阪市西区,靱本町２丁目９番１号ライオンズマンション靱公園２０３,,27,106,5500004,,,,,,,2022-08-18,1,,,,,ウィステリアス,0
1674,8120003022311,新規,0,2022-08-18,2022-08-18,日誠エネルギー開発合同会社,,合同会社,大阪府,大阪市中央区,高津１丁目９番１０－４０１号,,27,128,5420072,,,,,,,2022-08-18,1,,,,,ニッセイエネルギーカイハツ,0
1683,8130001072472,新規,0,2022-08-18,2022-08-18,株式会社Ｐｓｙｃｈｏｎｏｉｄ,,株式会社,京都府,宇治市,羽拍子町３６－２コロニアル宇治４０３,,26,204,6110027,,,,,,,2022-08-18,1,,,,,サイコノイド,0
1684,8130001072480,新規,0,2022-08-18,2022-08-18,器約株式会社,,株式会社,京都府,京都市北区,大北山原谷乾町４７番地１０－２０５室,,26,101,6038487,,,,,,,2022-08-18,1,,,,,キヤク,0
1692,8140001127143,新規,0,2022-08-18,2022-08-18,ＫＢＩアセットコンサルティング株式会社,,株式会社,兵庫県,神戸市須磨区,離宮前町１丁目４番４号,,28,107,6540065,,,,,,,2022-08-18,1,,,,,ケイビーアイアセットコンサルティング,0
1701,8180001152658,新規,0,2022-08-18,2022-08-18,株式会社ＣＢ,,株式会社,愛知県,名古屋市東区,代官町３４番１２号ＪＢビル７階南号室,,23,102,4610002,,,,,,,2022-08-18,1,,,,,シービー,0
1702,8180001152666,新規,0,2022-08-18,2022-08-18,株式会社総合建築,,株式会社,愛知県,名古屋市港区,東茶屋１丁目７１６番地,,23,111,4550851,,,,,,,2022-08-18,1,,,,,ソウゴウケンチク,0
1714,8230001019488,新規,0,2022-08-18,2022-08-18,株式会社安心のライフプランナー,,株式会社,富山県,高岡市,常国２８９番地１１,,16,202,9391251,,,,,,,2022-08-18,1,,,,,アンシンノライフプランナー,0
1727,8290001098642,新規,0,2022-08-18,2022-08-18,株式会社ピスタ,,株式会社,福岡県,福岡市博多区,博多駅前３丁目７番３５号博多ハイテックビル５０５,,40,132,8120011,,,,,,,2022-08-18,1,,,,,ピスタ,0
1756,8430005014531,新規,0,2022-08-18,2022-08-18,特定非営利活動法人きたのわ,,その他の設立登記法人,北海道,札幌市南区,石山１０３８番地１０,,01,106,0050849,,,,,,,2022-08-18,1,,,,,キタノワ,0
1760,8470003002229,新規,0,2022-08-18,2022-08-18,合同会社ＢＡＯ　ＮＧＯＣ,,合同会社,香川県,高松市,田町７－３－１階,,37,201,7600053,,,,,,,2022-08-18,1,,,,,バオゴック,0
1761,8480001011825,新規,0,2022-08-18,2022-08-18,株式会社ＥＸ　ＹＯＵ,,株式会社,徳島県,徳島市,多家良町上宝８２番地７,,36,201,7714264,,,,,,,2022-08-18,1,,,,,エクステリアユー,0
1775,9010001228936,新規,0,2022-08-18,2022-08-18,ＴＯＷＡオアシス株式会社,,株式会社,東京都,中央区,銀座１丁目１２番４号Ｎ＆Ｅ、ＢＬＤ．７階,,13,102,1040061,,,,,,,2022-08-18,1,,,,,トーワオアシス,0
1786,9010401168600,新規,0,2022-08-18,2022-08-18,株式会社アジャイルテクノロジー,,株式会社,東京都,港区,赤坂８丁目４－１４青山タワープレイス８Ｆ,,13,103,1070052,,,,,,,2022-08-18,1,,,,,アジャイルテクノロジー,0
1787,9010401168889,新規,0,2022-08-18,2022-08-18,日台産業研究所株式会社,,株式会社,東京都,港区,三田１丁目２番１８号ＴＴＤビル,,13,103,1080073,,,,,,,2022-08-18,1,,,,,ニッタイサンギョウケンキュウジョ,0
1788,9010401169045,新規,0,2022-08-18,2022-08-18,Ｅ‐ＴＨＲＥＥ株式会社,,株式会社,東京都,港区,西麻布３丁目１９番３号西麻布フラッツ２０１,,13,103,1060031,,,,,,,2022-08-18,1,,,,,イースリー,0
1789,9010401169193,新規,0,2022-08-18,2022-08-18,株式会社アスパイアグローバル,,株式会社,東京都,港区,西新橋１丁目２番９号日比谷セントラルビル１４階,,13,103,1050003,,,,,,,2022-08-18,1,,,,,アスパイアグローバル,0
1791,9010403028307,新規,0,2022-08-18,2022-08-18,合同会社フュージオ,,合同会社,東京都,港区,南青山３丁目１番３６号青山丸竹ビル６Ｆ,,13,103,1070062,,,,,,,2022-08-18,1,,,,,フュージオ,0
1795,9010601061687,新規,0,2022-08-18,2022-08-18,株式会社イグレット,,株式会社,東京都,江東区,有明３丁目７－１１有明パークビル２０Ｆ,,13,108,1350063,,,,,,,2022-08-18,1,,,,,イグレット,0
1796,9010601061704,新規,0,2022-08-18,2022-08-18,五州株式会社,,株式会社,東京都,墨田区,向島４丁目３番８号グレイス向島２０１Ｄ号室,,13,107,1310033,,,,,,,2022-08-18,1,,,,,ゴシュウ,0
1809,9011003015224,新規,0,2022-08-18,2022-08-18,ｒｅｍｕｌａ合同会社,,合同会社,東京都,渋谷区,渋谷２丁目１９－１５宮益坂ビルディング６０９,,13,113,1500002,,,,,,,2022-08-18,1,,,,,リミューラ,0
1812,9011301028035,新規,0,2022-08-18,2022-08-18,株式会社アベコマーシャルジャパン,,株式会社,東京都,杉並区,堀ノ内３丁目３１番１１号,,13,115,1660013,,,,,,,2022-08-18,1,,,,,アベコマーシャルジャパン,0
1813,9011301028043,新規,0,2022-08-18,2022-08-18,株式会社Ａｄｖｅｎｔ,,株式会社,東京都,杉並区,下高井戸４丁目４番１号,,13,115,1680073,,,,,,,2022-08-18,1,,,,,アドベント,0
1817,9011401024479,新規,0,2022-08-18,2022-08-18,株式会社Ｒｕｎ　Ｂｌｕｅ,,株式会社,東京都,板橋区,本町２９番１０号板橋アルプスマンション１０４,,13,119,1730001,,,,,,,2022-08-18,1,,,,,ランブルー,0
1820,9012405004772,新規,0,2022-08-18,2022-08-18,ＮＰＯ法人しゃべくりシネマ,,その他の設立登記法人,東京都,三鷹市,新川１丁目１３番１１号,,13,204,1810004,,,,,,,2022-08-18,1,,,,,シャベクリシネマ,0
1830,9020001147846,新規,0,2022-08-18,2022-08-18,株式会社サトショー,,株式会社,神奈川県,横浜市港南区,東永谷１丁目３４番１６号,,14,111,2330011,,,,,,,2022-08-18,1,,,,,サトショー,0
1831,9020001147854,新規,0,2022-08-18,2022-08-18,株式会社ＫＳＪカンパニー,,株式会社,神奈川県,横浜市中区,福富町東通３８番地２,,14,104,2310044,,,,,,,2022-08-18,1,,,,,ケーエスジェーカンパニー,0
1835,9020005015628,新規,0,2022-08-18,2022-08-18,一般社団法人日本飲食協会,,その他の設立登記法人,神奈川県,川崎市川崎区,小川町７番地４アービラ川崎１１０５,,14,131,2100023,,,,,,,2022-08-18,1,,,,,ニホンインショク,0
1841,9030001149718,新規,0,2022-08-18,2022-08-18,株式会社ｇａｒａｇｅ　Ａ．Ｃ．Ｅ,,株式会社,埼玉県,草加市,柿木町２０５番地８,,11,221,3400001,,,,,,,2022-08-18,1,,,,,ガレージエース,0
1842,9030001149726,新規,0,2022-08-18,2022-08-18,株式会社ＮＩＣＯ,,株式会社,埼玉県,越谷市,神明町２丁目３９７番地３－２０５号,,11,222,3430805,,,,,,,2022-08-18,1,,,,,ニコ,0
1843,9030001149742,新規,0,2022-08-18,2022-08-18,株式会社ＫＥＮＮＩＮ,,株式会社,埼玉県,さいたま市岩槻区,大字笹久保新田７７０番地１,,11,110,3390035,,,,,,,2022-08-18,1,,,,,ケンニン,0
1858,9040001124736,新規,0,2022-08-18,2022-08-18,Ｏ２コミュニケーションズ株式会社,,株式会社,千葉県,千葉市中央区,中央４丁目１０番８－８０５号,,12,101,2600013,,,,,,,2022-08-18,1,,,,,オーツーコミュニケーションズ,0
1865,9050001051558,新規,0,2022-08-18,2022-08-18,ＤＲＯＮＥ　ＶＩＳＡ株式会社,,株式会社,茨城県,常総市,水海道橋本町３６１０番地１６,,08,211,3030003,,,,,,,2022-08-18,1,,,,,ドローンビザ,0
1867,9050003006782,新規,0,2022-08-18,2022-08-18,合同会社Ｋｊ　ｉｎｔｅｒｎａｔｉｏｎａｌ,,合同会社,茨城県,筑西市,海老ヶ島７６２番地１,,08,227,3004517,,,,,,,2022-08-18,1,,,,,ケイジェイインターナショナル,0
1868,9050005013125,新規,0,2022-08-18,2022-08-18,エッペンドルフ・ハイマック・テクノロジーズ労働組合,,その他の設立登記法人,茨城県,ひたちなか市,大字武田１０６０番地,,08,221,3120025,,,,,,,2022-08-18,1,,,,,エッペンドルフハイマックテクノロジーズ,0
1872,9070001039543,新規,0,2022-08-18,2022-08-18,株式会社ｄＰ,,株式会社,群馬県,邑楽郡邑楽町,大字中野４９２３番地２,,10,525,3700603,,,,,,,2022-08-18,1,,,,,ディーピー,0
1878,9090003002150,新規,0,2022-08-18,2022-08-18,ゆいと合同会社,,合同会社,山梨県,甲府市,上今井町６７１番地４,,19,201,4000845,,,,,,,2022-08-18,1,,,,,,0
1891,9120001248254,新規,0,2022-08-18,2022-08-18,Ｋｙｏ‐ｔｅａ株式会社,,株式会社,大阪府,大阪市淀川区,西中島３丁目１３－１４タカミビル４０５室,,27,123,5320011,,,,,,,2022-08-18,1,,,,,キョーティー,0
1892,9120001248270,新規,0,2022-08-18,2022-08-18,株式会社ウェブラボ,,株式会社,大阪府,大阪市北区,菅原町１０番３３号ＡＬＩＣＥ－ＴＨＥＡＴＥＲＳＨＩＰ２０１号室,,27,127,5300046,,,,,,,2022-08-18,1,,,,,ウェブラボ,0
1894,9120003022310,新規,0,2022-08-18,2022-08-18,ＡＳＡＨＩ合同会社,,合同会社,大阪府,大阪市西成区,旭１丁目４－２０,,27,122,5570032,,,,,,,2022-08-18,1,,,,,アサヒ,0
1895,9120005023141,新規,0,2022-08-18,2022-08-18,一般社団法人日本モンゴルスポーツ交流協会,,その他の設立登記法人,大阪府,大阪市北区,南森町１丁目４番１１号,,27,127,5300054,,,,,,,2022-08-18,1,,,,,ニホンモンゴルスポーツコウリョウキョウカイ,0
1901,9120901046377,新規,0,2022-08-18,2022-08-18,株式会社エヌマネジメント,,株式会社,大阪府,豊中市,新千里南町３丁目１番１―３１４号,,27,203,5600084,,,,,,,2022-08-18,1,,,,,エヌマネジメント,0
1917,9140001127142,新規,0,2022-08-18,2022-08-18,株式会社赤鹿ホールディングス,,株式会社,兵庫県,姫路市,辻井１丁目１番２３号,00127557,28,201,6700083,,,,,,,2022-08-18,1,,,,,アカシカホールディングス,0
1926,9180001152657,新規,0,2022-08-18,2022-08-18,ＴＡＫＡ建株式会社,,株式会社,愛知県,名古屋市港区,名港２丁目２番１８号,,23,111,4550037,,,,,,,2022-08-18,1,,,,,タカケン,0
1927,9180001152681,新規,0,2022-08-18,2022-08-18,株式会社オールドトール,,株式会社,愛知県,名古屋市名東区,勢子坊１丁目１２１６番地の１,,23,115,4650055,,,,,,,2022-08-18,1,,,,,オールドトール,0
1930,9180003024160,新規,0,2022-08-18,2022-08-18,ＳＨＥＮ　ＬＡＮＫＡ　ＩＮＴＥＲＮＡＴＩＯＮＡＬ合同会社,,合同会社,愛知県,名古屋市北区,上飯田北町４丁目７５番地の４上飯田第２団地２棟６０５号,,23,103,4620802,,,,,,,2022-08-18,1,,,,,シェンランカインターナショナル,0
1931,9180003024177,新規,0,2022-08-18,2022-08-18,合同会社スクエア,,合同会社,愛知県,名古屋市中区,錦３丁目１３番１３号アロン錦Ａビル４階全号室,,23,106,4600003,,,,,,,2022-08-18,1,,,,,スクエア,0
1960,9290001098641,新規,0,2022-08-18,2022-08-18,株式会社さかなし薬局,,株式会社,福岡県,福岡市中央区,清川１丁目５番１３－１７０１号,,40,133,8100005,,,,,,,2022-08-18,1,,,,,サカナシヤッキョク,0
1963,9290003012848,新規,0,2022-08-18,2022-08-18,合同会社エトワール高橋,,合同会社,福岡県,福岡市南区,柏原４丁目１４番２１号,,40,134,8111353,,,,,,,2022-08-18,1,,,,,エトワールタカハシ,0
1964,9290005018777,新規,0,2022-08-18,2022-08-18,一般社団法人アクティブウーマン,,その他の設立登記法人,福岡県,福岡市西区,今宿青木１１１４番地２８Ｂ１,,40,135,8190162,,,,,,,2022-08-18,1,,,,,アクティブウーマン,0
1972,9350001017909,新規,0,2022-08-18,2022-08-18,株式会社ＭＢＫ,,株式会社,宮崎県,都城市,今町８４９６番地１,,45,202,8850064,,,,,,,2022-08-18,1,,,,,エムビーケー,0
1973,9360001030852,新規,0,2022-08-18,2022-08-18,株式会社農研,,株式会社,沖縄県,宜野湾市,真志喜２丁目６－１７,,47,205,9012224,,,,,,,2022-08-18,1,,,,,ノウケン,0
1975,9360003012246,新規,0,2022-08-18,2022-08-18,合同会社Ａ．Ｓ　Ｇｒｏｕｐ,,合同会社,沖縄県,那覇市,具志１丁目１３番１６号ブロードビーン１－Ａ号室,,47,201,9010146,,,,,,,2022-08-18,1,,,,,エーエスグループ,0
1976,9360003012254,新規,0,2022-08-18,2022-08-18,合同会社城間クリーン,,合同会社,沖縄県,南城市,大里字仲間７３２番地１,,47,215,9011206,,,,,,,2022-08-18,1,,,,,シロマクリーン,0
1985,9380001033044,新規,0,2022-08-18,2022-08-18,池田建設株式会社,,株式会社,福島県,いわき市,小名浜下神白字綱取１７５番地の１１,,07,204,9700316,,,,,,,2022-08-18,1,,,,,イケダケンセツ,0
1989,9420003002562,新規,0,2022-08-18,2022-08-18,ノースアグリ合同会社,,合同会社,青森県,弘前市,大字川合字下川原５５－１,,02,202,0368114,,,,,,,2022-08-18,1,,,,,ノースアグリ,0
