sequenceNumber,corporateNumber,process,correct,updateDate,changeDate,name,nameImageId,kind,prefectureName,cityName,streetNumber,addressImageId,prefectureCode,cityCode,postCode,addressOutside,addressOutsideImageId,closeDate,closeCause,successorCorporateNumber,changeCause,assignmentDate,latest,enName,enPrefectureName,enCityName,enAddressOutside,furigana,hihyoji
1,1010001011721,登記記録の閉鎖等,0,2022-12-13,2022-12-08,エー・アンド・エー株式会社,,株式会社,東京都,千代田区,西神田３丁目３番５号,,13,101,1010065,,,2022-12-08,清算の結了等,,,2015-10-05,1,,,,,エアンドエ,0
4,1010001101241,登記記録の閉鎖等,0,2022-12-13,2022-12-12,株式会社ファーストキャビン,,株式会社,東京都,千代田区,紀尾井町３番６号,,13,101,1020094,,,2022-12-12,清算の結了等,,,2015-10-05,1,,,,,ファーストキャビン,0
10,1010001160279,登記記録の閉鎖等,0,2022-12-13,2022-12-05,ニュートンアドバイザーズ株式会社,,株式会社,東京都,港区,新橋１丁目１番１３号アーバンネット内幸町ビル３階,,13,103,1050004,,,2022-12-05,清算の結了等,,,2015-10-05,1,,,,,ニュートンアドバイザーズ,0
11,1010001182694,登記記録の閉鎖等,0,2022-12-13,2022-12-08,Ｂｌｉｂｅｅ　Ｊａｐａｎ株式会社,,株式会社,東京都,千代田区,丸の内１丁目８番３号丸の内トラストタワー本館２０階,,13,101,1000005,,,2022-12-08,清算の結了等,,,2017-04-11,1,,,,,ビリビージャパン,0
12,1010001206247,登記記録の閉鎖等,0,2022-12-13,2022-12-05,株式会社ユニーク,,株式会社,東京都,千代田区,九段南１丁目５番６号りそな九段ビル５Ｆ,,13,101,1020074,,,2022-12-05,清算の結了等,,,2019-12-20,1,,,,,ユニーク,0
34,1010501004811,登記記録の閉鎖等,0,2022-12-13,2022-12-09,株式会社三啓社,,株式会社,東京都,台東区,東上野１丁目７番８号,,13,106,1100015,,,2022-12-09,清算の結了等,,,2015-10-05,1,,,,,サンケイシャ,0
35,1010501031285,登記記録の閉鎖等,0,2022-12-13,2022-12-08,Ｌ＆Ｐ　ＮＥＴＷＯＲＫ株式会社,,株式会社,東京都,台東区,千束１丁目３番４－１０１号,,13,106,1110031,,,2022-12-08,清算の結了等,,,2015-10-05,1,,,,,エルアンドピーネットワーク,0
39,1010503005667,登記記録の閉鎖等,0,2022-12-13,2022-12-12,東京屋不動産合同会社,,合同会社,東京都,台東区,上野７丁目４－３,,13,106,1100005,,,2022-12-12,清算の結了等,,,2019-08-05,1,,,,,トウキョウヤフドウサン,0
41,1010601040095,登記記録の閉鎖等,0,2022-12-13,2022-12-06,Ｉｎｔｅｇｒａｌ　Ｓｙｓｔｅｍｓ　Ｊａｐａｎ株式会社,,株式会社,東京都,江東区,有明３丁目７番２６号,,13,108,1350063,,,2022-12-06,清算の結了等,,,2015-10-05,1,,,,,インテグラルシステムズジャパン,0
52,1010901006993,登記記録の閉鎖等,0,2022-12-13,2022-12-06,株式会社タイム・バリュー,,株式会社,東京都,世田谷区,新町３丁目１３番１３号,,13,112,1540014,,,2022-12-06,合併による解散等,1010902012850,令和４年１１月３０日東京都世田谷区新町三丁目１３番１３号株式会社フォーレスト・ヒル（1010902012850）に合併し解散,2015-10-05,1,,,,,タイムバリュー,0
58,1010905000134,登記記録の閉鎖等,0,2022-12-13,2022-12-08,カトリックケベック外国宣教会,,その他の設立登記法人,東京都,世田谷区,赤堤３丁目２０番１号,,13,112,1560044,,,2022-12-08,清算の結了等,,,2015-10-05,1,,,,,カトリックケベックガイコクセンキョウカイ,0
59,1011001036304,登記記録の閉鎖等,0,2022-12-13,2022-12-09,株式会社エンジョイ・スポーツ,,株式会社,東京都,新宿区,霞ヶ丘町４番２号,,13,104,1600013,,,2022-12-09,清算の結了等,,,2015-10-05,1,,,,,エンジョイスポーツ,0
72,1011105003621,登記記録の閉鎖等,0,2022-12-13,2022-11-30,ＴＦＳ行政書士法人,,その他の設立登記法人,東京都,新宿区,四谷３丁目１１番地,,13,104,1600004,,,2022-11-30,清算の結了等,,,2015-10-05,1,,,,,ティーエフエス,0
92,1020001121701,登記記録の閉鎖等,0,2022-12-13,2022-12-06,ウッドファイバー株式会社,,株式会社,神奈川県,横浜市鶴見区,鶴見中央４丁目３３番１号,,14,101,2300051,,,2022-12-06,合併による解散等,1020001089889,令和４年１２月１日横浜市鶴見区鶴見中央四丁目３３番１号スマートパワー株式会社（1020001089889）に合併し解散,2017-06-13,1,,,,,ウッドファイバー,0
121,1040003016609,登記記録の閉鎖等,0,2022-12-13,2022-12-07,合同会社リライズ,,合同会社,千葉県,松戸市,横須賀２丁目２番４号篠原コーポ２０２号室,,12,207,2700031,,,2022-12-07,清算の結了等,,,2020-12-15,1,,,,,リライズ,0
122,1040005002169,登記記録の閉鎖等,0,2022-12-13,2022-12-08,特定非営利活動法人敬心会,,その他の設立登記法人,千葉県,千葉市中央区,矢作町４０９番地１２,,12,101,2600851,,,2022-12-08,清算の結了等,,,2015-10-05,1,,,,,ケイシンカイ,0
132,1080402021668,登記記録の閉鎖等,0,2022-12-13,2022-12-08,中部ロジスティクス有限会社,,有限会社,静岡県,袋井市,広岡１６０１番地の１,,22,216,4370021,,,2022-12-08,清算の結了等,,,2015-10-05,1,,,,,チュウブロジスティクス,0
133,1080403000092,登記記録の閉鎖等,0,2022-12-13,2022-12-12,合資会社加藤商会,,合資会社,静岡県,浜松市中区,尾張町１２５番地の１３,,22,131,4300949,,,2022-12-12,清算の結了等,,,2015-10-05,1,,,,,カトウショウカイ,0
138,1100002003221,登記記録の閉鎖等,0,2022-12-13,2022-12-08,有限会社鶴田建設,,有限会社,長野県,長野市,伺去２５番地,,20,201,3810063,,,2022-12-08,清算の結了等,,,2015-10-05,1,,,,,ツルタケンセツ,0
139,1100005011618,登記記録の閉鎖等,0,2022-12-13,2022-12-08,母さんの玉手箱本舗企業組合,,その他の設立登記法人,長野県,長野市,信州新町新町１２１番地１,,20,201,3812405,,,2022-12-08,清算の結了等,,,2015-10-05,1,,,,,カアサンノタマテバコホンポ,0
157,1120002051425,登記記録の閉鎖等,0,2022-12-13,2022-12-09,有限会社エフワンサイクル,,有限会社,大阪府,大阪市北区,大淀中２丁目１１番１６号,,27,127,5310076,,,2022-12-09,清算の結了等,,,2015-10-05,1,,,,,エフワンサイクル,0
176,1140001008572,登記記録の閉鎖等,0,2022-12-13,2022-12-09,シンワエイジエンシー株式会社,,株式会社,兵庫県,神戸市中央区,伊藤町１１９番地三井生命神戸三宮ビル,,28,110,6500032,,,2022-12-09,清算の結了等,,,2015-10-05,1,,,,,シンワエイジエンシー,0
193,1180001112759,登記記録の閉鎖等,0,2022-12-13,2022-12-09,東海ブロードバンドサービス株式会社,,株式会社,静岡県,榛原郡川根本町,地名２５９－９,,22,429,4280305,,,2022-12-09,清算の結了等,,,2015-10-05,1,,,,,トウカイブロードバンドサービス,0
194,1180001132690,登記記録の閉鎖等,0,2022-12-13,2022-12-09,サロン・ド・ベリル株式会社,,株式会社,愛知県,名古屋市中村区,太閤２丁目１１番２号の１,,23,105,4530801,,,2022-12-09,清算の結了等,,,2018-06-18,1,,,,,サロンドベリル,0
195,1180002009293,登記記録の閉鎖等,0,2022-12-13,2022-12-08,有限会社エムジー・スプラウト,,有限会社,愛知県,豊明市,二村台４丁目１７番地３,,23,229,4701131,,,2022-12-08,清算の結了等,,,2015-10-05,1,,,,,エムジースプラウト,0
207,1200002008937,登記記録の閉鎖等,0,2022-12-13,2022-12-12,有限会社アミカル柳津,,有限会社,岐阜県,岐阜市,柳津町本郷２丁目１番地の５,,21,201,5016104,,,2022-12-12,清算の結了等,,,2015-10-05,1,,,,,アミカルヤナイヅ,0
208,1200003000694,登記記録の閉鎖等,0,2022-12-13,2022-12-12,富士鶴合資会社,,合資会社,岐阜県,岐阜市,長良古津８７番地,,21,201,5020011,,,2022-12-12,清算の結了等,,,2015-10-05,1,,,,,フジツル,0
216,1240002006053,登記記録の閉鎖等,0,2022-12-13,2022-12-09,有限会社ゴトウ,,有限会社,広島県,広島市佐伯区,八幡東２丁目１９番２１－１号,,34,108,7315115,,,2022-12-09,清算の結了等,,,2015-10-05,1,,,,,ゴトウ,0
222,1260001033641,登記記録の閉鎖等,0,2022-12-13,2022-12-07,株式会社エスコートＫＢ,,株式会社,岡山県,岡山市中区,福泊２７番地４,,33,102,7038262,,,2022-12-07,清算の結了等,,,2019-10-11,1,,,,,,0
226,1260002030539,登記記録の閉鎖等,0,2022-12-13,2022-12-09,有限会社太鴻金型,,有限会社,岡山県,勝田郡勝央町,黒土３９６番地,,33,622,7094312,,,2022-12-09,清算の結了等,,,2015-10-05,1,,,,,タイコウカナガタ,0
238,1330002015111,登記記録の閉鎖等,0,2022-12-13,2022-12-08,有限会社ビクトリアアウトソーシング,,有限会社,熊本県,熊本市中央区,大江本町７番地９,,43,101,8620973,,,2022-12-08,清算の結了等,,,2015-10-05,1,,,,,ビクトリアアウトソーシング,0
239,1340001005376,登記記録の閉鎖等,0,2022-12-13,2022-12-12,日本セキュリティーシステム株式会社,,株式会社,鹿児島県,鹿児島市,武岡２丁目１３番地１６,,46,201,8900031,,,2022-12-12,清算の結了等,,,2015-10-05,1,,,,,ニホンセキュリティーシステム,0
254,1380005011334,登記記録の閉鎖等,0,2022-12-13,2022-12-07,特定非営利活動法人コミュニティ再生復興南相馬,,その他の設立登記法人,福島県,南相馬市,原町区栄町２丁目１２番地,,07,212,9750003,,,2022-12-07,清算の結了等,,,2015-10-05,1,,,,,コミュニティサイセイフッコウミナミソウマ,0
263,1430002044802,登記記録の閉鎖等,0,2022-12-13,2022-12-06,有限会社シスコ,,有限会社,北海道,北広島市,西の里東１丁目３番地１０,,01,234,0611105,,,2022-12-06,清算の結了等,,,2015-10-05,1,,,,,シスコ,0
264,1460101005181,登記記録の閉鎖等,0,2022-12-13,2022-12-08,株式会社カーシェルター十勝,,株式会社,北海道,帯広市,西二十三条北１丁目１８番地２７,,01,207,0802463,,,2022-12-08,清算の結了等,,,2015-10-05,1,,,,,カーシェルタートカチ,0
278,2010401058527,登記記録の閉鎖等,0,2022-12-13,2022-12-05,御津風力発電株式会社,,株式会社,東京都,港区,新橋２丁目１６番１号ニュー新橋ビル６０１－Ａ,,13,103,1050004,,,2022-12-05,清算の結了等,,,2015-10-05,1,,,,,,0
279,2010401076859,登記記録の閉鎖等,0,2022-12-13,2022-12-05,株式会社メロディーコミュニケーション,,株式会社,東京都,港区,高輪２丁目１２番５５号,,13,103,1080074,,,2022-12-05,清算の結了等,,,2015-10-05,1,,,,,メロディーコミュニケーション,0
280,2010401078847,登記記録の閉鎖等,0,2022-12-13,2022-12-09,株式会社ガラパゴス,,株式会社,東京都,世田谷区,下馬２丁目２１番２７ガーデンヴィラ三軒茶屋７０１号,,13,112,1540002,,,2022-12-09,清算の結了等,,,2015-10-05,1,,,,,ガラパゴス,0
292,2010601002350,登記記録の閉鎖等,0,2022-12-13,2022-12-01,三陽機材株式会社,,株式会社,東京都,江東区,亀戸７丁目１１番１７号,,13,108,1360071,,,2022-12-01,合併による解散等,6010601021479,令和４年１２月１日東京都江東区佐賀一丁目３番２号山利商事株式会社（6010601021479）に合併し解散,2015-10-05,1,,,,,サンヨウキザイ,0
293,2010601046050,登記記録の閉鎖等,0,2022-12-13,2022-12-07,株式会社西住レジデンス,,株式会社,東京都,墨田区,千歳３丁目１７番２２－７０１号,,13,107,1300025,,,2022-12-07,清算の結了等,,,2015-10-05,1,,,,,ニシズミレジデンス,0
301,2011001072959,登記記録の閉鎖等,0,2022-12-13,2022-12-08,株式会社ファースト・コミュニティ,,株式会社,東京都,渋谷区,代々木４丁目３１番６号,,13,113,1510053,,,2022-12-08,清算の結了等,,,2015-10-05,1,,,,,ファーストコミュニティ,0
306,2011003005520,登記記録の閉鎖等,0,2022-12-13,2022-12-09,プラウド・インテンシブ・ネオ合同会社,,合同会社,東京都,渋谷区,代官山町２０番９号,,13,113,1500034,,,2022-12-09,清算の結了等,,,2015-10-05,1,,,,,プラウドインテンシブネオ,0
308,2011003011403,登記記録の閉鎖等,0,2022-12-13,2022-12-07,さんくうかん合同会社,,合同会社,東京都,渋谷区,渋谷１丁目１２－２クロスオフィス渋谷３Ｆ,,13,113,1500002,,,2022-12-07,清算の結了等,,,2020-07-10,1,,,,,サンクウカン,0
325,2011601013701,登記記録の閉鎖等,0,2022-12-13,2022-12-05,株式会社ＦＩＴ,,株式会社,東京都,練馬区,東大泉１丁目３３番６号大泉セントラルビル３０１,,13,120,1780063,,,2022-12-05,清算の結了等,,,2015-10-05,1,,,,,フィット,0
339,2020001057655,登記記録の閉鎖等,0,2022-12-13,2022-12-09,マルカ・エンジニアリング株式会社,,株式会社,神奈川県,横浜市戸塚区,汲沢７丁目４番５号,00009634,14,110,2450061,,,2022-12-09,清算の結了等,,,2015-10-05,1,,,,,マルカエンジニアリング,0
344,2020002033242,登記記録の閉鎖等,0,2022-12-13,2022-12-07,有限会社共和工業,,有限会社,神奈川県,横浜市港北区,樽町４丁目１４番１９号,,14,109,2220001,,,2022-12-07,清算の結了等,,,2015-10-05,1,,,,,,0
346,2020002048182,登記記録の閉鎖等,0,2022-12-13,2022-12-08,有限会社秋山靴店,,有限会社,神奈川県,横浜市港南区,芹が谷５丁目１０番８号,,14,111,2330006,,,2022-12-08,清算の結了等,,,2015-10-05,1,,,,,アキヤマクツテン,0
348,2020003021832,登記記録の閉鎖等,0,2022-12-13,2022-12-08,ｃａｌｖｅｒｏ合同会社,,合同会社,神奈川県,横浜市神奈川区,西神奈川１丁目８－１１テラスエトワール４階（３０５）,,14,102,2210822,,,2022-12-08,清算の結了等,,,2022-05-30,1,,,,,カルベロ,0
368,2050001027234,登記記録の閉鎖等,0,2022-12-13,2022-12-09,株式会社タケシ石材,,株式会社,茨城県,水戸市,堀町１１５７番地６１,,08,201,3100903,,,2022-12-09,清算の結了等,,,2015-10-05,1,,,,,タケシセキザイ,0
371,2050005006572,登記記録の閉鎖等,0,2022-12-13,2022-12-08,特定非営利活動法人鹿嶋子育てグループ２００５,,その他の設立登記法人,茨城県,鹿嶋市,大字宮中４５２６番地５,,08,222,3140031,,,2022-12-08,清算の結了等,,,2015-10-05,1,,,,,カシマコソダテグループニセンゴ,0
373,2060001028421,登記記録の閉鎖等,0,2022-12-13,2022-12-08,Ｅｒｎｅｓｔ株式会社,,株式会社,東京都,新宿区,新宿２丁目２番１０号,,13,104,1600022,,,2022-12-08,清算の結了等,,,2016-07-11,1,,,,,エルネスト,0
398,2120001055021,登記記録の閉鎖等,0,2022-12-13,2022-12-09,株式会社グレイ,,株式会社,大阪府,高槻市,城西町３番２７号,,27,207,5690065,,,2022-12-09,清算の結了等,,,2015-10-05,1,,,,,グレイ,0
409,2120002007335,登記記録の閉鎖等,0,2022-12-13,2022-12-08,有限会社ポップコーン,,有限会社,大阪府,大阪市東成区,深江北１丁目３番４号,,27,115,5370001,,,2022-12-08,清算の結了等,,,2015-10-05,1,,,,,ポップコーン,0
418,2120102000421,登記記録の閉鎖等,0,2022-12-13,2022-12-12,有限会社印刷のタケモト,,有限会社,大阪府,堺市中区,辻之１１１１番地の２,00032641,27,142,5998245,,,2022-12-12,清算の結了等,,,2015-10-05,1,,,,,インサツノタケモト,0
428,2130001022318,登記記録の閉鎖等,0,2022-12-13,2022-12-06,福寿染工株式会社,,株式会社,京都府,京都市中京区,大宮通三条上る姉大宮町西側８０,,26,104,6048327,,,2022-12-06,清算の結了等,,,2015-10-05,1,,,,,フクジュセンコウ,0
436,2140001007326,登記記録の閉鎖等,0,2022-12-13,2022-11-30,クロダ・オプトニクス株式会社,,株式会社,兵庫県,神戸市中央区,海岸通４丁目１番７号,,28,110,6500024,,,2022-11-30,清算の結了等,,,2015-10-05,1,,,,,クロダオプトニクス,0
452,2180002084402,登記記録の閉鎖等,0,2022-12-13,2022-12-08,有限会社アドバンスハウス,,有限会社,愛知県,知多郡阿久比町,大字草木字栄１３番地,,23,441,4702211,,,2022-12-08,清算の結了等,,,2015-10-05,1,,,,,アドバンスハウス,0
465,2200002025881,登記記録の閉鎖等,0,2022-12-13,2022-12-09,有限会社藤井美術民藝館,,有限会社,岐阜県,高山市,上三之町６９番地,,21,203,5060846,,,2022-12-09,清算の結了等,,,2015-10-05,1,,,,,フジイビジュツミンゲイカン,0
469,2220005007272,登記記録の閉鎖等,0,2022-12-13,2022-12-09,一般社団法人地域スポーツシステム研究所,,その他の設立登記法人,石川県,金沢市,中村町２６番４３号ＶＩＤＡ金沢２階,,17,201,9218022,,,2022-12-09,清算の結了等,,,2015-10-05,1,,,,,チイキスポーツシステムケンキュウジョ,0
488,2290801007436,登記記録の閉鎖等,0,2022-12-13,2022-12-12,株式会社フードトピック,,株式会社,福岡県,北九州市小倉南区,徳力７丁目１６番２１号,,40,107,8020974,,,2022-12-12,清算の結了等,,,2015-10-05,1,,,,,フードトピック,0
507,2390002008356,登記記録の閉鎖等,0,2022-12-13,2022-11-30,有限会社カトウ,,有限会社,山形県,東田川郡庄内町,余目字梵天塚６８番地,,06,428,9997781,,,2022-11-30,清算の結了等,,,2015-10-05,1,,,,,カトウ,0
519,2470005002884,登記記録の閉鎖等,0,2022-12-13,2022-12-08,企業組合新店,,その他の設立登記法人,香川県,善通寺市,金蔵寺町８１４番地４,,37,204,7650031,,,2022-12-08,清算の結了等,,,2015-10-05,1,,,,,シンミセ,0
540,3010401113727,登記記録の閉鎖等,0,2022-12-13,2022-12-05,株式会社ピッコミックス,,株式会社,東京都,港区,六本木７丁目７番７号,,13,103,1060032,,,2022-12-05,合併による解散等,3011001070185,令和４年１２月１日東京都港区六本木七丁目７番７号株式会社カカオピッコマ（3011001070185）に合併し解散,2015-10-05,1,,,,,ピッコミックス,0
541,3010401140168,登記記録の閉鎖等,0,2022-12-13,2022-12-05,株式会社ｔｕｎｅｆａｎ,,株式会社,東京都,港区,六本木６丁目１１番１号,,13,103,1060032,,,2022-12-05,清算の結了等,,,2018-08-09,1,,,,,チューンファン,0
548,3010601036001,登記記録の閉鎖等,0,2022-12-13,2022-12-01,株式会社アメニティ・サポート,,株式会社,東京都,江東区,東砂５丁目１４番１９号,,13,108,1360074,,,2022-12-01,合併による解散等,7010601029240,令和４年１２月１日東京都江東区東砂五丁目１４番１９号株式会社ライコム・コーポレーション（7010601029240）に合併し解散,2015-10-05,1,,,,,アメニティサポート,0
591,3011703000910,登記記録の閉鎖等,0,2022-12-13,2022-12-09,合同会社ロングブレス,,合同会社,東京都,江戸川区,東小岩３丁目７番１８号,,13,123,1330052,,,2022-12-09,清算の結了等,,,2015-10-05,1,,,,,ロングブレス,0
601,3013202006141,登記記録の閉鎖等,0,2022-12-13,2022-12-09,有限会社三河屋酒店,,有限会社,東京都,目黒区,鷹番３丁目６番２１号,,13,110,1520004,,,2022-12-09,清算の結了等,,,2015-10-05,1,,,,,ミカワヤサケテン,0
610,3020002000415,登記記録の閉鎖等,0,2022-12-13,2022-12-08,有限会社総合工芸,,有限会社,神奈川県,横浜市栄区,桂台南１丁目２２番１１号,,14,115,2470033,,,2022-12-08,清算の結了等,,,2015-10-05,1,,,,,ソウゴウコウゲイ,0
616,3021001074714,登記記録の閉鎖等,0,2022-12-13,2022-12-02,新和開発エンジニアリング株式会社,,株式会社,神奈川県,横須賀市,西浦賀町５丁目３９番地,,14,201,2390824,,,2022-12-02,清算の結了等,,,2021-12-14,1,,,,,,0
621,3030001056481,登記記録の閉鎖等,0,2022-12-13,2022-12-07,ヤガタ鉄工株式会社,,株式会社,埼玉県,入間郡三芳町,大字竹間沢３５７番地７,,11,324,3540043,,,2022-12-07,清算の結了等,,,2015-10-05,1,,,,,ヤガタテッコウ,0
630,3040001028109,登記記録の閉鎖等,0,2022-12-13,2022-12-05,株式会社こがね,,株式会社,千葉県,鎌ケ谷市,道野辺中央２丁目７番８号,,12,224,2730113,,,2022-12-05,清算の結了等,,,2015-10-05,1,,,,,コガネ,0
642,3060002040515,登記記録の閉鎖等,0,2022-12-13,2022-12-06,有限会社勝栄電気,,有限会社,栃木県,佐野市,栃本町９７７番地,,09,204,3270312,,,2022-12-06,清算の結了等,,,2015-10-05,1,,,,,ショウエイデンキ,0
646,3080402019693,登記記録の閉鎖等,0,2022-12-13,2022-12-08,有限会社センター薬局,,有限会社,静岡県,磐田市,大久保５４４番地１３,,22,211,4380002,,,2022-12-08,合併による解散等,7430001069398,令和４年１２月１日札幌市白石区東札幌五条二丁目４番３０号株式会社アインファーマシーズ（7430001069398）に合併し解散,2015-10-05,1,,,,,センターヤッキョク,0
677,3120005020796,登記記録の閉鎖等,0,2022-12-13,2022-12-12,税理士法人クオーレ,,その他の設立登記法人,大阪府,大阪市中央区,南船場１丁目１１番９号長堀八千代ビル７階,,27,128,5420081,,,2022-12-12,清算の結了等,,,2019-04-03,1,,,,,クオーレ,0
713,3200002027076,登記記録の閉鎖等,0,2022-12-13,2022-12-09,有限会社渡辺章酒店,,有限会社,岐阜県,飛騨市,古川町向町１丁目８番２３号,,21,217,5094241,,,2022-12-09,清算の結了等,,,2015-10-05,1,,,,,ワタナベアキラサケテン,0
728,3240003003840,登記記録の閉鎖等,0,2022-12-13,2022-12-12,ＵＬＡＮＴＥＣ合同会社,,合同会社,広島県,廿日市市,津田４８３６番地９,,34,213,7380222,,,2022-12-12,清算の結了等,,,2018-03-16,1,,,,,ユーランテック,0
737,3280002012137,登記記録の閉鎖等,0,2022-12-13,2022-12-05,丸勝物産有限会社,,有限会社,島根県,出雲市,東林木町３５３番地,,32,203,6930074,,,2022-12-05,清算の結了等,,,2022-10-12,1,,,,,マルショウブッサン,0
782,4010001089714,登記記録の閉鎖等,0,2022-12-13,2022-12-12,株式会社ネスト,,株式会社,東京都,千代田区,神田和泉町１番地２の２,,13,101,1010024,,,2022-12-12,清算の結了等,,,2015-10-05,1,,,,,ネスト,0
786,4010003026013,登記記録の閉鎖等,0,2022-12-13,2022-12-09,合同会社クレシェンド・アセット,,合同会社,東京都,中央区,新川２丁目８番２号,,13,102,1040033,,,2022-12-09,合併による解散等,4013303003870,令和４年１２月１日東京都豊島区池袋３－３４－７ビジネスパーク池袋２階合同会社シンフォニア（4013303003870）に合併し解散,2017-09-06,1,,,,,クレシェンドアセット,0
797,4010402024014,登記記録の閉鎖等,0,2022-12-13,2022-12-05,有限会社コンティエメール,,有限会社,東京都,港区,白金３丁目１７番１９号,,13,103,1080072,,,2022-12-05,清算の結了等,,,2015-10-05,1,,,,,コンティエメール,0
800,4010502010500,登記記録の閉鎖等,0,2022-12-13,2022-12-09,有限会社松本南勢堂,,有限会社,東京都,台東区,清川１丁目３５番４号,,13,106,1110022,,,2022-12-09,清算の結了等,,,2015-10-05,1,,,,,マツモトナンセイドウ,0
826,4011003002375,登記記録の閉鎖等,0,2022-12-13,2022-12-09,合同会社ＶＴＦＡマンサーナ,,合同会社,東京都,渋谷区,代官山町２０番９号,,13,113,1500034,,,2022-12-09,清算の結了等,,,2015-10-05,1,,,,,ヴイティーエフエーマンサーナ,0
846,4012402020769,登記記録の閉鎖等,0,2022-12-13,2022-12-05,ツインスイフト有限会社,,有限会社,東京都,武蔵野市,西久保３丁目２番１－７０５号,,13,203,1800013,,,2022-12-05,清算の結了等,,,2015-10-05,1,,,,,ツインスイフト,0
864,4020002083070,登記記録の閉鎖等,0,2022-12-13,2022-12-12,有限会社ケーティーエス,,有限会社,神奈川県,川崎市中原区,小杉町２丁目１９９番地,,14,133,2110063,,,2022-12-12,清算の結了等,,,2015-10-05,1,,,,,ケーティーエス,0
874,4030002012920,登記記録の閉鎖等,0,2022-12-13,2022-12-09,有限会社マル星,,有限会社,埼玉県,さいたま市大宮区,堀の内町３丁目３１７番地３,,11,103,3300804,,,2022-12-09,清算の結了等,,,2015-10-05,1,,,,,マルセイ,0
876,4030002055028,登記記録の閉鎖等,0,2022-12-13,2022-12-07,有限会社矢武機工,,有限会社,埼玉県,上尾市,大字向山５９４番地７,,11,219,3620045,,,2022-12-07,清算の結了等,,,2015-10-05,1,,,,,ヤタケキコウ,0
883,4040001103406,登記記録の閉鎖等,0,2022-12-13,2022-12-07,株式会社ｍＵｎｉＳｍ,,株式会社,千葉県,八千代市,緑が丘１丁目２番地２－１４１７,,12,221,2760049,,,2022-12-07,清算の結了等,,,2018-02-06,1,,,,,ミューニズム,0
887,4040005019045,登記記録の閉鎖等,0,2022-12-13,2022-12-05,特定非営利活動法人はちみつ,,その他の設立登記法人,千葉県,四街道市,亀崎２７２番地,,12,228,2840011,,,2022-12-05,清算の結了等,,,2016-04-22,1,,,,,ハチミツ,0
898,4100002013614,登記記録の閉鎖等,0,2022-12-13,2022-12-08,有限会社イガワ,,有限会社,長野県,上田市,住吉５７９番地１２,,20,203,3860002,,,2022-12-08,清算の結了等,,,2015-10-05,1,,,,,イガワ,0
905,4120001063872,登記記録の閉鎖等,0,2022-12-13,2022-12-12,コスモシステム株式会社,,株式会社,大阪府,大阪市北区,野崎町６番１号,,27,127,5300055,,,2022-12-12,清算の結了等,,,2015-10-05,1,,,,,コスモシステム,0
911,4120001142338,登記記録の閉鎖等,0,2022-12-13,2022-12-12,帝国商事株式会社,,株式会社,大阪府,大阪市中央区,船越町１丁目５番２号ＰＣＡビル,,27,128,5400036,,,2022-12-12,清算の結了等,,,2015-10-05,1,,,,,テイコクショウジ,0
952,4160001014129,登記記録の閉鎖等,0,2022-12-13,2022-12-08,株式会社アール・シー総研,,株式会社,滋賀県,彦根市,河原２丁目２番３７号,,25,202,5220083,,,2022-12-08,清算の結了等,,,2015-10-05,1,,,,,アールシーソウケン,0
964,4200005009351,登記記録の閉鎖等,0,2022-12-13,2022-12-12,鶴岡寒天企業組合,,その他の設立登記法人,岐阜県,恵那市,山岡町下手向６２３番地の３,,21,210,5097607,,,2022-12-12,清算の結了等,,,2015-10-05,1,,,,,,0
974,4250001004608,登記記録の閉鎖等,0,2022-12-13,2022-12-08,株式会社スーパーネット東京,,株式会社,山口県,宇部市,大字今富２５番地１,,35,202,7570212,,,2022-12-08,清算の結了等,,,2015-10-05,1,,,,,,0
984,4290001008927,登記記録の閉鎖等,0,2022-12-13,2022-12-09,東亜興産株式会社,,株式会社,福岡県,福岡市中央区,警固２丁目１１番６号,,40,133,8100023,,,2022-12-09,清算の結了等,,,2015-10-05,1,,,,,トウアコウサン,0
993,4290801005520,登記記録の閉鎖等,0,2022-12-13,2022-12-09,株式会社ガーディアン,,株式会社,福岡県,北九州市門司区,東港町１番３２－１４０５号,,40,101,8010853,,,2022-12-09,清算の結了等,,,2015-10-05,1,,,,,ガーディアン,0
1000,4340003003458,登記記録の閉鎖等,0,2022-12-13,2022-12-08,合同会社屋久島エネルギーＬＡＢＯ,,合同会社,鹿児島県,熊毛郡屋久島町,平内字樋之口６２２番地３,00123290,46,505,8914406,,,2022-12-08,清算の結了等,,,2021-06-08,1,,,,,ヤクシマエネルギーラボ,0
1003,4350002003474,登記記録の閉鎖等,0,2022-12-13,2022-12-09,有限会社西村医機,,有限会社,宮崎県,宮崎市,前原町１番地２,,45,201,8800863,,,2022-12-09,清算の結了等,,,2015-10-05,1,,,,,ニシムライキ,0
1036,5010401161278,登記記録の閉鎖等,0,2022-12-13,2022-12-08,株式会社ｍｉｋｏｔｏ,,株式会社,東京都,港区,元赤坂１丁目５番５号,,13,103,1070051,,,2022-12-08,合併による解散等,4010401004280,令和４年１２月１日東京都港区元赤坂一丁目５番５号株式会社エイブル（4010401004280）に合併し解散,2021-07-02,1,,,,,ミコト,0
1051,5010702000127,登記記録の閉鎖等,0,2022-12-13,2022-12-12,アイビーマンション有限会社,,有限会社,東京都,品川区,旗の台６丁目１６番１４号,,13,109,1420064,,,2022-12-12,清算の結了等,,,2015-10-05,1,,,,,アイビーマンション,0
1061,5010901030222,登記記録の閉鎖等,0,2022-12-13,2022-12-07,明星株式会社,,株式会社,東京都,豊島区,池袋２丁目３９番１２号日神ディュオステージ１００２号室,,13,116,1710014,,,2022-12-07,清算の結了等,,,2015-10-05,1,,,,,メイセイ,0
1069,5011001138146,登記記録の閉鎖等,0,2022-12-13,2022-12-09,Ｗｉｎｎｎｙ株式会社,,株式会社,東京都,渋谷区,幡ヶ谷３丁目３９番１２号渋谷ウェストビル１階,,13,113,1510072,,,2022-12-09,清算の結了等,,,2021-01-25,1,,,,,ウィニー,0
1076,5011103010847,登記記録の閉鎖等,0,2022-12-13,2022-12-09,合同会社プーリー,,合同会社,東京都,新宿区,新宿１丁目３６番２号,,13,104,1600022,,,2022-12-09,清算の結了等,,,2021-07-07,1,,,,,プーリー,0
1101,5020002036878,登記記録の閉鎖等,0,2022-12-13,2022-12-05,有限会社阿部電機,,有限会社,神奈川県,横浜市鶴見区,馬場４丁目３５番９号,,14,101,2300076,,,2022-12-05,清算の結了等,,,2015-10-05,1,,,,,アベデンキ,0
1119,5040003001020,登記記録の閉鎖等,0,2022-12-13,2022-12-06,Ｍｉｒａｃｌｅ　Ｏｎ　Ｔｈｅ　Ｆｕｔｕｒｅ合同会社,,合同会社,千葉県,船橋市,薬円台５丁目１６番１７号,,12,204,2740077,,,2022-12-06,清算の結了等,,,2015-10-05,1,,,,,ミラクルオンザフューチャー,0
1122,5050002014600,登記記録の閉鎖等,0,2022-12-13,2022-12-08,有限会社成巨,,有限会社,茨城県,土浦市,桜町２丁目４番１１号,,08,203,3000037,,,2022-12-08,清算の結了等,,,2015-10-05,1,,,,,セイキョ,0
1123,5060001014229,登記記録の閉鎖等,0,2022-12-13,2022-12-05,小林住宅株式会社,,株式会社,栃木県,小山市,花垣町１丁目１６番２４号,,09,208,3230027,,,2022-12-05,清算の結了等,,,2015-10-05,1,,,,,コバヤシジュウタク,0
1124,5060001020524,登記記録の閉鎖等,0,2022-12-13,2022-12-06,特殊機工株式会社,,株式会社,栃木県,佐野市,茂呂山町７番地の１９,,09,204,3270826,,,2022-12-06,清算の結了等,,,2015-10-05,1,,,,,トクシュキコウ,0
1127,5060002011720,登記記録の閉鎖等,0,2022-12-13,2022-12-06,有限会社花宝館,,有限会社,栃木県,河内郡上三川町,大字上蒲生４番地,,09,301,3290617,,,2022-12-06,清算の結了等,,,2015-10-05,1,,,,,カホウカン,0
1129,5070002011091,登記記録の閉鎖等,0,2022-12-13,2022-12-08,有限会社電産,,有限会社,群馬県,高崎市,柴崎町６２２番地１６,,10,202,3700035,,,2022-12-08,清算の結了等,,,2015-10-05,1,,,,,デンサン,0
1130,5080001003089,登記記録の閉鎖等,0,2022-12-13,2022-12-08,株式会社大成住宅,,株式会社,静岡県,静岡市葵区,南安倍１丁目３番１０号,,22,101,4200054,,,2022-12-08,合併による解散等,9180001003141,令和４年１２月１日名古屋市名東区一社三丁目７番地株式会社ユニホー（9180001003141）に合併し解散,2015-10-05,1,,,,,タイセイジュウタク,0
1168,5140001095558,登記記録の閉鎖等,0,2022-12-13,2022-12-01,ＡＷＳホールディングス株式会社,,株式会社,兵庫県,神戸市中央区,海岸通８番,,28,110,6500024,,,2022-12-01,合併による解散等,9140001024182,令和４年１２月１日神戸市中央区海岸通８番株式会社アートワークスタジオ（9140001024182）に合併し解散,2015-10-05,1,,,,,エーダブリューエスホールディングス,0
1169,5140001101431,登記記録の閉鎖等,0,2022-12-13,2022-12-05,ハッピーサポート株式会社,,株式会社,兵庫県,尼崎市,神田南通２丁目３６番地,,28,202,6600885,,,2022-12-05,清算の結了等,,,2016-03-22,1,,,,,ハッピーサポート,0
1182,5180002046548,登記記録の閉鎖等,0,2022-12-13,2022-12-06,有限会社馬見塚工務店,,有限会社,愛知県,名古屋市緑区,大清水西１３３番地,,23,114,4580806,,,2022-12-06,清算の結了等,,,2015-10-05,1,,,,,マミヅカコウムテン,0
1187,5180302000493,登記記録の閉鎖等,0,2022-12-13,2022-12-08,有限会社エムジーストーク,,有限会社,愛知県,豊明市,二村台４丁目１７番地３,,23,229,4701131,,,2022-12-08,清算の結了等,,,2015-10-05,1,,,,,エムジーストーク,0
1222,5290802004124,登記記録の閉鎖等,0,2022-12-13,2022-12-12,有限会社千代丸造園,,有限会社,福岡県,北九州市小倉南区,沼本町２丁目９番２２号,,40,107,8000208,,,2022-12-12,清算の結了等,,,2015-10-05,1,,,,,チヨマルゾウエン,0
1227,5310001015705,登記記録の閉鎖等,0,2022-12-13,2022-12-12,株式会社Ｖｅｎｕｓ,,株式会社,長崎県,島原市,城内３丁目１２７２番地１,,42,203,8550036,,,2022-12-12,清算の結了等,,,2018-08-10,1,,,,,ベニス,0
1231,5320002004680,登記記録の閉鎖等,0,2022-12-13,2022-12-12,有限会社ハートリアルティ,,有限会社,大分県,大分市,舞鶴町２丁目２番２６号,,44,201,8700044,,,2022-12-12,清算の結了等,,,2015-10-05,1,,,,,ハートリアルティ,0
1236,5350002015436,登記記録の閉鎖等,0,2022-12-13,2022-12-07,有限会社龍虎建設,,有限会社,宮崎県,北諸県郡三股町,大字蓼池５５８６番地,,45,341,8891914,,,2022-12-07,清算の結了等,,,2015-10-05,1,,,,,リュウコケンセツ,0
1249,5400002013293,登記記録の閉鎖等,0,2022-12-13,2022-12-08,有限会社クリーニングイルカ,,有限会社,岩手県,久慈市,長内町第３０地割９番地１,,03,207,0280041,,,2022-12-08,清算の結了等,,,2015-10-05,1,,,,,クリーニングイルカ,0
1281,6010401115142,登記記録の閉鎖等,0,2022-12-13,2022-12-05,株式会社ソリッド,,株式会社,東京都,港区,虎ノ門２丁目１０番１号,,13,103,1050001,,,2022-12-05,清算の結了等,,,2015-10-05,1,,,,,ソリッド,0
1301,6011001044566,登記記録の閉鎖等,0,2022-12-13,2022-12-09,株式会社霞水会国際総合研究所,,株式会社,東京都,渋谷区,上原２丁目４６番９号,,13,113,1510064,,,2022-12-09,清算の結了等,,,2015-10-05,1,,,,,カスイカイコクサイソウゴウケンキュウジョ,0
1319,6013101005605,登記記録の閉鎖等,0,2022-12-13,2022-12-07,エムズプラン株式会社,,株式会社,東京都,福生市,大字熊川４４４番地１グランツ拝島セントラルステージ６０３号,,13,218,1970003,,,2022-12-07,合併による解散等,5012801007390,令和４年１２月１日東京都国分寺市光町一丁目３８番地７、１９９１ｋｕｎｉｔａｃｈｉ４－ａパワーエイチ株式会社（5012801007390）に合併し解散,2015-10-05,1,,,,,エムズプラン,0
1334,6021001025029,登記記録の閉鎖等,0,2022-12-13,2022-12-08,株式会社岡本舗装,,株式会社,神奈川県,大和市,福田７丁目１２番地の１６,,14,213,2420024,,,2022-12-08,清算の結了等,,,2015-10-05,1,,,,,オカモトホソウ,0
1350,6040001075726,登記記録の閉鎖等,0,2022-12-13,2022-12-01,株式会社Ｃ＆Ｑ,,株式会社,千葉県,船橋市,八木が谷３丁目３番１８号,,12,204,2740802,,,2022-12-01,合併による解散等,8040001017115,令和４年１２月１日千葉県船橋市みやぎ台一丁目１番１０号グッドフォーユー株式会社（8040001017115）に合併し解散,2015-10-05,1,,,,,シーアンドキュー,0
1355,6040005016619,登記記録の閉鎖等,0,2022-12-13,2022-12-06,いすみ清掃管理事業協同組合,,その他の設立登記法人,千葉県,いすみ市,深堀１６１８番地３,,12,238,2980003,,,2022-12-06,清算の結了等,,,2015-10-05,1,,,,,イスミセイソウカンリ,0
1368,6070003003475,登記記録の閉鎖等,0,2022-12-13,2022-12-08,ＴＨＮパートナーズ合同会社,,合同会社,群馬県,前橋市,元総社町１６００番地２マールアスールＩ棟,,10,201,3710846,,,2022-12-08,清算の結了等,,,2019-06-06,1,,,,,ティエイチエヌパートナーズ,0
1370,6080102009100,登記記録の閉鎖等,0,2022-12-13,2022-12-09,有限会社つず美湯元園,,有限会社,静岡県,伊豆の国市,中８７３番地の４,,22,225,4102113,,,2022-12-09,清算の結了等,,,2015-10-05,1,,,,,ツズミユモトエン,0
1374,6110001003943,登記記録の閉鎖等,0,2022-12-13,2022-12-12,新潟タイル販売株式会社,,株式会社,新潟県,新潟市中央区,女池神明３丁目１１番地７,,15,103,9500943,,,2022-12-12,清算の結了等,,,2015-10-05,1,,,,,ニイガタタイルハンバイ,0
1377,6120001021738,登記記録の閉鎖等,0,2022-12-13,2022-11-28,ＭＳサービス株式会社,,株式会社,大阪府,大阪市平野区,流町２丁目２番１４号,,27,126,5470032,,,2022-11-28,清算の結了等,,,2015-10-05,1,,,,,エムエスサービス,0
1382,6120001179873,登記記録の閉鎖等,0,2022-12-13,2022-12-12,株式会社ＧＩＣホールディングス,,株式会社,大阪府,大阪市中央区,南船場４丁目１０番５号,,27,128,5420081,,,2022-12-12,清算の結了等,,,2015-10-05,1,,,,,,0
1395,6120002029961,登記記録の閉鎖等,0,2022-12-13,2022-12-08,有限会社カジモト,,有限会社,大阪府,大阪市北区,与力町１番１８－８０２号,,27,127,5300036,,,2022-12-08,清算の結了等,,,2015-10-05,1,,,,,カジモト,0
1403,6120103003898,登記記録の閉鎖等,0,2022-12-13,2022-12-09,ＨＬＴ合同会社,,合同会社,大阪府,堺市堺区,大浜北町２丁２－１４大浜ハイツ１階,,27,141,5900974,,,2022-12-09,清算の結了等,,,2020-10-26,1,,,,,エイチエルティ,0
1436,6240002033745,登記記録の閉鎖等,0,2022-12-13,2022-12-09,有限会社濱本鮮魚,,有限会社,広島県,呉市,広本町２丁目２番４号,,34,202,7370125,,,2022-12-09,清算の結了等,,,2015-10-05,1,,,,,ハマモトセンギョ,0
1450,6290003011506,登記記録の閉鎖等,0,2022-12-13,2022-12-08,合同会社ＡＵＲＯＲＡ・ＦＥＡＬＴＹ,,合同会社,福岡県,福岡市中央区,天神２丁目３番１０号天神パインクレスト７１９号,,40,133,8100001,,,2022-12-08,清算の結了等,,,2021-08-20,1,,,,,,0
1454,6290802000493,登記記録の閉鎖等,0,2022-12-13,2022-12-07,板倉食品有限会社,,有限会社,福岡県,北九州市小倉北区,片野新町１丁目８番１号,,40,106,8020062,,,2022-12-07,清算の結了等,,,2015-10-05,1,,,,,イタクラショクヒン,0
1461,6330002025758,登記記録の閉鎖等,0,2022-12-13,2022-12-09,有限会社黒田工業,,有限会社,熊本県,八代市,古麓町２５０番地,,43,202,8660803,,,2022-12-09,清算の結了等,,,2015-10-05,1,,,,,クロダコウギョウ,0
1471,6380002018534,登記記録の閉鎖等,0,2022-12-13,2022-12-06,有限会社ミカミセッティング,,有限会社,福島県,西白河郡矢吹町,牡丹平１５０番地,,07,466,9690237,,,2022-12-06,清算の結了等,,,2015-10-05,1,,,,,ミカミセッティング,0
1473,6390005002765,登記記録の閉鎖等,0,2022-12-13,2022-12-08,朝日プラザ本町管理組合法人,,その他の設立登記法人,山形県,山形市,本町２丁目３番３号,,06,201,9900043,,,2022-12-08,清算の結了等,,,2015-10-05,1,,,,,アサヒプラザホンチョウ,0
1476,6410001008342,登記記録の閉鎖等,0,2022-12-13,2022-12-08,株式会社ＡＳＴコンサルタント,,株式会社,秋田県,大仙市,大曲日の出町１丁目３４番２１号,,05,212,0140063,,,2022-12-08,清算の結了等,,,2015-10-05,1,,,,,エーエスティーコンサルタント,0
1487,6430002005312,登記記録の閉鎖等,0,2022-12-13,2022-12-08,有限会社鴨田新聞店,,有限会社,北海道,札幌市白石区,川北一条２丁目４番１５号,,01,104,0030851,,,2022-12-08,清算の結了等,,,2015-10-05,1,,,,,カモダシンブンテン,0
1490,6460001001961,登記記録の閉鎖等,0,2022-12-13,2022-12-08,株式会社リカーシヨツプマスコ,,株式会社,北海道,釧路市,大楽毛西２丁目１３番４号,,01,206,0840916,,,2022-12-08,清算の結了等,,,2015-10-05,1,,,,,リカーシヨツプマスコ,0
1496,6490001002478,登記記録の閉鎖等,0,2022-12-13,2022-12-12,株式会社キック,,株式会社,高知県,高知市,高須２丁目１８番１１号ピュアコート高須２０７号、３０１号、３０７号,,39,201,7818104,,,2022-12-12,清算の結了等,,,2015-10-05,1,,,,,キック,0
1511,7010401024838,登記記録の閉鎖等,0,2022-12-13,2022-12-08,ビンカー・ジャパン株式会社,,株式会社,神奈川県,横浜市中区,扇町１丁目１番地２５キンガビル４階,,14,104,2310027,,,2022-12-08,清算の結了等,,,2015-10-05,1,,,,,ビンカージャパン,0
1513,7010401137292,登記記録の閉鎖等,0,2022-12-13,2022-12-05,Ｉｎｔｅｒｎａｔｉｏｎａｌ　Ｆｉｎａｎｃｉａｌ　Ｇｒｏｕｐ株式会社,,株式会社,東京都,港区,赤坂７丁目３－３７,,13,103,1070052,,,2022-12-05,清算の結了等,,,2018-03-22,1,,,,,インターナショナルフィナンシャルグループ,0
1521,7010505002954,登記記録の閉鎖等,0,2022-12-13,2022-12-08,一般社団法人首都圏住宅生活要配慮者支援協議会,,その他の設立登記法人,東京都,台東区,東上野２丁目２１番１３号５階,,13,106,1100015,,,2022-12-08,清算の結了等,,,2018-11-06,1,,,,,シュトケンジュウタクセイカツヨウハイリョシャシエンキョウギカイ,0
1538,7010903004635,登記記録の閉鎖等,0,2022-12-13,2022-12-07,アカネトラスト合同会社,,合同会社,沖縄県,沖縄市,安慶田１丁目３番１０号１階,,47,211,9040012,,,2022-12-07,合併による解散等,6010901023670,令和４年１２月１日神奈川県横須賀市西浦賀四丁目１１番３号アイランド・マーキュリー株式会社（6010901023670）に合併し解散,2018-11-09,1,,,,,,0
1559,7011305002401,登記記録の閉鎖等,0,2022-12-13,2022-12-02,一般財団法人ホリスティック・ケア財団,,その他の設立登記法人,東京都,杉並区,上荻２丁目７番１号,,13,115,1670043,,,2022-12-02,清算の結了等,,,2017-06-15,1,,,,,ホリスティックケアザイダン,0
1564,7013201006097,登記記録の閉鎖等,0,2022-12-13,2022-12-07,株式会社友和ビジネスコンサルタント,,株式会社,東京都,目黒区,洗足２丁目１９番１号,,13,110,1520012,,,2022-12-07,清算の結了等,,,2015-10-05,1,,,,,,0
1568,7020001084703,登記記録の閉鎖等,0,2022-12-13,2022-12-07,株式会社エンゼルライフ,,株式会社,神奈川県,横浜市中区,元浜町３丁目２１番地２号,,14,104,2310004,,,2022-12-07,清算の結了等,,,2015-10-05,1,,,,,エンゼルライフ,0
1609,7080401024344,登記記録の閉鎖等,0,2022-12-13,2022-12-12,ソルシエロ株式会社,,株式会社,静岡県,浜松市中区,中央１丁目２番２－１２０５号イーステージ浜松,,22,131,4300929,,,2022-12-12,清算の結了等,,,2020-06-03,1,,,,,ソルシエロ,0
1610,7090001001593,登記記録の閉鎖等,0,2022-12-13,2022-12-06,株式会社なとり,,株式会社,山梨県,甲府市,緑が丘２丁目１２番３号,,19,201,4000008,,,2022-12-06,清算の結了等,,,2015-10-05,1,,,,,ナトリ,0
1611,7090001015222,登記記録の閉鎖等,0,2022-12-13,2022-12-07,ＹＡＳそーほんやたなか株式会社,,株式会社,山梨県,中央市,東花輪６７３番地１,,19,214,4093842,,,2022-12-07,清算の結了等,,,2017-08-03,1,,,,,ヤスソーホンヤタナカ,0
1629,7120002033789,登記記録の閉鎖等,0,2022-12-13,2022-12-09,有限会社ラック産業,,有限会社,大阪府,大阪市北区,大淀中４丁目１５番１１号,,27,127,5310076,,,2022-12-09,清算の結了等,,,2015-10-05,1,,,,,ラックサンギョウ,0
1632,7120102017246,登記記録の閉鎖等,0,2022-12-13,2022-12-12,有限会社松浦酸素商会,,有限会社,大阪府,南河内郡河南町,大字寛弘寺９２５番地の２,,27,382,5850035,,,2022-12-12,清算の結了等,,,2015-10-05,1,,,,,マツウラサンソショウカイ,0
1640,7122002000141,登記記録の閉鎖等,0,2022-12-13,2022-11-14,有限会社アトリエバカン,,有限会社,大阪府,東大阪市,東石切町３丁目７番２２号,,27,227,5798011,,,2022-11-14,清算の結了等,,,2015-10-05,1,,,,,アトリエバカン,0
1651,7140005018728,登記記録の閉鎖等,0,2022-12-13,2022-12-09,佐曾利消費生活協同組合,,その他の設立登記法人,兵庫県,宝塚市,上佐曽利字大垣内１６番地の１,,28,214,6691202,,,2022-12-09,清算の結了等,,,2015-10-05,1,,,,,サソリ,0
1652,7150001023879,登記記録の閉鎖等,0,2022-12-13,2022-12-02,株式会社宝栄建設,,株式会社,奈良県,葛城市,東室２００番地３,,29,211,6392102,,,2022-12-02,清算の結了等,,,2020-07-06,1,,,,,ホウエイケンセツ,0
1659,7180001133023,登記記録の閉鎖等,0,2022-12-13,2022-12-08,株式会社Ｎ－ＳＴＹＬＥ,,株式会社,三重県,津市,河芸町中別保字貝裏２５９番地,,24,201,5100305,,,2022-12-08,清算の結了等,,,2018-07-10,1,,,,,エヌスタイル,0
1662,7180302023674,登記記録の閉鎖等,0,2022-12-13,2022-12-07,有限会社ミヨシ商店,,有限会社,愛知県,豊田市,緑ケ丘５丁目１３番地,,23,211,4710838,,,2022-12-07,清算の結了等,,,2015-10-05,1,,,,,ミヨシショウテン,0
1663,7190001028346,登記記録の閉鎖等,0,2022-12-13,2022-12-05,株式会社ネリア,,株式会社,三重県,伊賀市,中友田６５５番地の２,,24,216,5181304,,,2022-12-05,清算の結了等,,,2021-05-28,1,,,,,ネリア,0
1670,7220005000223,登記記録の閉鎖等,0,2022-12-13,2022-12-08,一般財団法人石川県留学生協会,,その他の設立登記法人,石川県,金沢市,太陽が丘１丁目１番地,,17,201,9201154,,,2022-12-08,清算の結了等,,,2015-10-05,1,,,,,イシカワケンリュウガクセイキョウカイ,0
1691,7290003003691,登記記録の閉鎖等,0,2022-12-13,2022-12-08,２－ＮＥＴ合同会社,,合同会社,福岡県,糟屋郡久山町,大字久原２６０８番地１,,40,348,8112501,,,2022-12-08,清算の結了等,,,2015-10-05,1,,,,,ツーネット,0
1696,7290005001966,登記記録の閉鎖等,0,2022-12-13,2022-12-09,学校法人スポーツ＆航空学園,,その他の設立登記法人,福岡県,福岡市南区,大橋１丁目３番１３号Ｋビル２０３,,40,134,8150033,,,2022-12-09,清算の結了等,,,2015-10-05,1,,,,,スポーツアンドコウクウガクエン,0
1711,7390001008402,登記記録の閉鎖等,0,2022-12-13,2022-12-08,株式会社チームやまがた,,株式会社,山形県,鶴岡市,羽黒町松ケ岡字松ケ岡２９番地,,06,203,9970158,,,2022-12-08,清算の結了等,,,2015-10-05,1,,,,,チームヤマガタ,0
1721,7430005010077,登記記録の閉鎖等,0,2022-12-13,2022-12-08,室蘭青果卸売協同組合,,その他の設立登記法人,北海道,室蘭市,日の出町２丁目３番１号,,01,205,0500081,,,2022-12-08,清算の結了等,,,2015-10-05,1,,,,,ムロランセイカオロシウリ,0
1728,7490001005777,登記記録の閉鎖等,0,2022-12-13,2022-12-12,株式会社須崎スーパーストア,,株式会社,高知県,須崎市,西糺町４番１８号,,39,206,7850012,,,2022-12-12,清算の結了等,,,2015-10-05,1,,,,,,0
1746,8010403011833,登記記録の閉鎖等,0,2022-12-13,2022-12-06,合同会社ＮＨＳ,,合同会社,東京都,世田谷区,上野毛４丁目２４番１３号,,13,112,1580093,,,2022-12-06,清算の結了等,,,2015-10-05,1,,,,,エヌエイチエス,0
1762,8010702014735,登記記録の閉鎖等,0,2022-12-13,2022-12-09,有限会社エビススプリング製作所,,有限会社,東京都,品川区,西大井６丁目１４番３号,,13,109,1400015,,,2022-12-09,清算の結了等,,,2015-10-05,1,,,,,エビススプリングセイサクショ,0
1767,8010905001638,登記記録の閉鎖等,0,2022-12-13,2022-12-08,特定非営利活動法人ＢＥ－ＷＯＲＫＳ・新木造建築ネットワーク,,その他の設立登記法人,東京都,世田谷区,等々力４丁目１３番１４号,,13,112,1580082,,,2022-12-08,清算の結了等,,,2015-10-05,1,,,,,,0
1768,8011001108022,登記記録の閉鎖等,0,2022-12-13,2022-12-09,日本金田生活用品株式会社,,株式会社,東京都,渋谷区,恵比寿１丁目１５番９号,,13,113,1500013,,,2022-12-09,清算の結了等,,,2015-11-05,1,,,,,ニホンカネダセイカツヨウヒン,0
1769,8011001127971,登記記録の閉鎖等,0,2022-12-13,2022-12-09,株式会社Ｉｎｔｅｌｌｅｘ　Ｆｕｎｄｉｎｇ,,株式会社,東京都,渋谷区,渋谷２丁目１２番１９号,,13,113,1500002,,,2022-12-09,清算の結了等,,,2019-05-15,1,,,,,インテリックスファンディング,0
1785,8011301001835,登記記録の閉鎖等,0,2022-12-13,2022-12-06,木下建設株式会社,,株式会社,東京都,杉並区,阿佐谷北４丁目２８番１１号,,13,115,1660001,,,2022-12-06,清算の結了等,,,2015-10-05,1,,,,,キノシタケンセツ,0
1792,8011702011350,登記記録の閉鎖等,0,2022-12-13,2022-12-08,有限会社ミヤコ樹脂工業,,有限会社,東京都,江戸川区,北小岩８丁目４番２０号,,13,123,1330051,,,2022-12-08,清算の結了等,,,2015-10-05,1,,,,,ミヤコジュシコウギョウ,0
1810,8020001145009,登記記録の閉鎖等,0,2022-12-13,2022-12-09,株式会社タイトロープ,,株式会社,神奈川県,川崎市多摩区,栗谷１丁目１番１４号プラッシュガーデンミッテ００６,,14,135,2140039,,,2022-12-09,清算の結了等,,,2022-01-31,1,,,,,タイトロープ,0
1815,8020002088487,登記記録の閉鎖等,0,2022-12-13,2022-12-09,有限会社大塚プラスチック,,有限会社,神奈川県,川崎市高津区,宇奈根７１８番地４８,,14,134,2130031,,,2022-12-09,清算の結了等,,,2015-10-05,1,,,,,オオツカプラスチック,0
1816,8020002102231,登記記録の閉鎖等,0,2022-12-13,2022-12-09,有限会社総合インテリア創伸,,有限会社,神奈川県,川崎市宮前区,菅生６丁目３４番１４号,,14,136,2160015,,,2022-12-09,清算の結了等,,,2015-10-05,1,,,,,ソウゴウインテリアソウシン,0
1831,8030002047525,登記記録の閉鎖等,0,2022-12-13,2022-12-06,有限会社栃興業,,有限会社,埼玉県,八潮市,大字伊勢野３７２番地２０,,11,234,3400821,,,2022-12-06,清算の結了等,,,2015-10-05,1,,,,,トチコウギョウ,0
1842,8040002095960,登記記録の閉鎖等,0,2022-12-13,2022-12-06,有限会社トキシステム,,有限会社,千葉県,柏市,大津ケ丘４丁目１９番１１,,12,217,2770921,,,2022-12-06,清算の結了等,,,2015-10-05,1,,,,,トキシステム,0
1845,8050001044579,登記記録の閉鎖等,0,2022-12-13,2022-12-08,株式会社ほうわ,,株式会社,茨城県,土浦市,文京町１７番２２－６０３号,,08,203,3000045,,,2022-12-08,清算の結了等,,,2018-06-20,1,,,,,ホウワ,0
1850,8060002016733,登記記録の閉鎖等,0,2022-12-13,2022-12-06,有限会社日建,,有限会社,栃木県,日光市,高徳８９４番地４,,09,206,3212523,,,2022-12-06,清算の結了等,,,2015-10-05,1,,,,,ニッケン,0
1857,8080001023927,登記記録の閉鎖等,0,2022-12-13,2022-12-09,ＳｈｉＡｎＴａ株式会社,,株式会社,静岡県,静岡市葵区,古庄６丁目２番１８号,,22,101,4200812,,,2022-12-09,合併による解散等,5180001099935,令和４年１２月６日名古屋市中区栄三丁目１８番１号ナディアパークビジネスセンタービル１２Ｆ株式会社ＶＩＳＩＯＮ（5180001099935）に合併し解散,2021-01-07,1,,,,,シアンタ,0
1859,8080002004199,登記記録の閉鎖等,0,2022-12-13,2022-12-12,有限会社トトクラブ,,有限会社,静岡県,静岡市駿河区,大谷２丁目２１番１号,,22,102,4228017,,,2022-12-12,清算の結了等,,,2015-10-05,1,,,,,トトクラブ,0
1861,8080402006761,登記記録の閉鎖等,0,2022-12-13,2022-12-09,有限会社広岡建装,,有限会社,静岡県,浜松市中区,佐鳴台１丁目１５番１３号,,22,131,4328021,,,2022-12-09,清算の結了等,,,2015-10-05,1,,,,,ヒロオカケンソウ,0
1871,8110001017272,登記記録の閉鎖等,0,2022-12-13,2022-12-05,株式会社倉部瓦店,,株式会社,新潟県,柏崎市,大字曽地３５３番地,,15,205,9450214,,,2022-12-05,清算の結了等,,,2015-10-05,1,,,,,クラベカワラテン,0
1873,8120001040760,登記記録の閉鎖等,0,2022-12-13,2022-12-09,アイシーエス企画株式会社,,株式会社,大阪府,大阪市天王寺区,上本町６丁目３番３１－１１０１号,,27,109,5430001,,,2022-12-09,清算の結了等,,,2015-10-05,1,,,,,アイシーエスキカク,0
1910,8150001006494,登記記録の閉鎖等,0,2022-12-13,2022-12-08,株式会社サンエス電化センター,,株式会社,奈良県,天理市,田井庄町６６２番地,,29,204,6320071,,,2022-12-08,清算の結了等,,,2015-10-05,1,,,,,サンエスデンカセンター,0
1922,8190001016300,登記記録の閉鎖等,0,2022-12-13,2022-12-09,株式会社丸正不動産,,株式会社,三重県,四日市市,西富田２丁目５番３号,,24,202,5108023,,,2022-12-09,清算の結了等,,,2015-10-05,1,,,,,マルショウフドウサン,0
1924,8190001019303,登記記録の閉鎖等,0,2022-12-13,2022-12-08,ＶＳコーポレーション株式会社,,株式会社,三重県,四日市市,中部５番５号,,24,202,5100082,,,2022-12-08,清算の結了等,,,2015-10-05,1,,,,,ブイエスコーポレーション,0
1940,8290001085649,登記記録の閉鎖等,0,2022-12-13,2022-12-08,株式会社エス・ビー,,株式会社,福岡県,福岡市南区,野間３丁目４番１－１０１号,,40,134,8150041,,,2022-12-08,清算の結了等,,,2019-06-27,1,,,,,エスビー,0
1943,8310002019875,登記記録の閉鎖等,0,2022-12-13,2022-12-12,有限会社エフ・エム・シー,,有限会社,長崎県,松浦市,御厨町西木場免１０１番地１,,42,208,8594769,,,2022-12-12,清算の結了等,,,2015-10-05,1,,,,,エフエムシー,0
1944,8320002011385,登記記録の閉鎖等,0,2022-12-13,2022-12-09,有限会社小坪建築設計事務所,,有限会社,大分県,速見郡日出町,大字豊岡５９９３番地７,,44,341,8791507,,,2022-12-09,清算の結了等,,,2015-10-05,1,,,,,,0
1947,8320003002111,登記記録の閉鎖等,0,2022-12-13,2022-12-08,合同会社コムネット,,合同会社,大分県,日田市,大字池辺町３４１５番地,,44,204,8770000,,,2022-12-08,清算の結了等,,,2015-10-05,1,,,,,コムネット,0
1992,9010401082850,登記記録の閉鎖等,0,2022-12-13,2022-12-08,株式会社Ａ＆Ｈ　ＢＥＡＵＴＹ,,株式会社,東京都,文京区,本郷６丁目２１番４－７０５号,,13,105,1130033,,,2022-12-08,清算の結了等,,,2015-10-05,1,,,,,エイアンドエイチビューティー,0
2011,9010902010013,登記記録の閉鎖等,0,2022-12-13,2022-12-08,有限会社ティーエムティー,,有限会社,東京都,世田谷区,成城２丁目３５番１３－３０３号,,13,112,1570066,,,2022-12-08,清算の結了等,,,2015-10-05,1,,,,,ティーエムティー,0
2022,9011101063843,登記記録の閉鎖等,0,2022-12-13,2022-12-08,株式会社オープンコート,,株式会社,埼玉県,さいたま市緑区,東浦和１丁目６－１３,,11,109,3360926,,,2022-12-08,清算の結了等,,,2015-10-05,1,,,,,オープンコート,0
2065,9030001076680,登記記録の閉鎖等,0,2022-12-13,2022-12-09,株式会社野口商店,,株式会社,埼玉県,川口市,大字峯５００番地２,,11,203,3340056,,,2022-12-09,清算の結了等,,,2015-10-05,1,,,,,ノグチショウテン,0
2070,9030001119712,登記記録の閉鎖等,0,2022-12-13,2022-12-08,株式会社宮一,,株式会社,埼玉県,川口市,大字安行１２１２番地の２,,11,203,3340059,,,2022-12-08,清算の結了等,,,2017-04-18,1,,,,,,0
2071,9030002088023,登記記録の閉鎖等,0,2022-12-13,2022-12-08,有限会社松田設計コンサルタント,,有限会社,埼玉県,越谷市,東町２丁目２６６番地１０６,,11,222,3430826,,,2022-12-08,清算の結了等,,,2015-10-05,1,,,,,,0
2079,9040002102179,登記記録の閉鎖等,0,2022-12-13,2022-12-06,有限会社エコー,,有限会社,千葉県,勝浦市,芳賀４８番地１,,12,218,2995213,,,2022-12-06,清算の結了等,,,2015-10-05,1,,,,,エコー,0
2089,9060002027168,登記記録の閉鎖等,0,2022-12-13,2022-12-06,有限会社百貨堂,,有限会社,栃木県,矢板市,扇町２丁目２番１号,,09,211,3292161,,,2022-12-06,清算の結了等,,,2015-10-05,1,,,,,ヒャッカドウ,0
2104,9120001175507,登記記録の閉鎖等,0,2022-12-13,2022-12-08,株式会社コネクトアイ,,株式会社,大阪府,大阪市平野区,長吉川辺３丁目１７番７号１０２,,27,126,5470014,,,2022-12-08,清算の結了等,,,2015-10-05,1,,,,,コネクトアイ,0
2108,9120002009531,登記記録の閉鎖等,0,2022-12-13,2022-12-07,有限会社サロン・ド・ボーテ・ジヨイフル,,有限会社,大阪府,大阪市生野区,新今里４丁目４番５号,,27,116,5440001,,,2022-12-07,清算の結了等,,,2015-10-05,1,,,,,サロンドボーテジヨイフル,0
2115,9120005018802,登記記録の閉鎖等,0,2022-12-13,2022-12-08,特定非営利活動法人Ａｌｏｈａ　Ｅｉｇｏ　ＮＰＯ,,その他の設立登記法人,大阪府,枚方市,御殿山南町３番５７－５０１号,,27,210,5731193,,,2022-12-08,清算の結了等,,,2016-07-20,1,,,,,アロハエイゴエヌピーオー,0
2120,9120901020423,登記記録の閉鎖等,0,2022-12-13,2022-12-09,株式会社桑源家具,,株式会社,大阪府,箕面市,如意谷２丁目１番５２号,,27,220,5620011,,,2022-12-09,清算の結了等,,,2015-10-05,1,,,,,クワゲンカグ,0
2136,9160001020857,登記記録の閉鎖等,0,2022-12-13,2022-12-08,菅原設営環整顧問株式会社,,株式会社,滋賀県,大津市,仰木の里東７丁目１４番８号,,25,201,5200248,,,2022-12-08,清算の結了等,,,2018-04-05,1,,,,,スガハラセツエイ,0
2139,9180001050670,登記記録の閉鎖等,0,2022-12-13,2022-12-08,ストライド株式会社,,株式会社,愛知県,名古屋市中区,大須４丁目１１番５０号,,23,106,4600011,,,2022-12-08,清算の結了等,,,2015-10-05,1,,,,,ストライド,0
