sequenceNumber,corporateNumber,process,correct,updateDate,changeDate,name,nameImageId,kind,prefectureName,cityName,streetNumber,addressImageId,prefectureCode,cityCode,postCode,addressOutside,addressOutsideImageId,closeDate,closeCause,successorCorporateNumber,changeCause,assignmentDate,latest,enName,enPrefectureName,enCityName,enAddressOutside,furigana,hihyoji
48,1010401073956,登記記録の閉鎖等,0,2024-11-19,2024-11-01,株式会社協栄,,株式会社,東京都,港区,芝浦３丁目７番１３－エスパース田町アネックス５０３号,,13,103,1080023,,,2024-11-01,清算の結了等,,,2015-10-05,1,,,,,キョウエイ,0
62,1010601058492,登記記録の閉鎖等,0,2024-11-19,2024-11-14,株式会社ＣＩＯ　ＲＥＰＡＩＲ　ＳＯＬＵＴＩＯＮＳ,,株式会社,東京都,江東区,亀戸１丁目３５－６菅山ビル３Ｆ,,13,108,1360071,,,2024-11-14,合併による解散等,8120901039241,令和６年１０月３１日大阪市淀川区西中島六丁目１番３号株式会社シナジーグローバル（8120901039241）に合併し解散,2020-12-16,1,,,,,シーアイオーリペアーソリューションズ,0
71,1010902011992,登記記録の閉鎖等,0,2024-11-19,2024-11-11,有限会社ハツコウビソー,,有限会社,東京都,世田谷区,太子堂２丁目７番３１号,,13,112,1540004,,,2024-11-11,清算の結了等,,,2015-10-05,1,,,,,,0
82,1011002015447,登記記録の閉鎖等,0,2024-11-19,2024-10-21,有限会社宮澤企画,,有限会社,東京都,渋谷区,笹塚１丁目４７番２号,00064893,13,113,1510073,,,2024-10-21,清算の結了等,,,2015-10-05,1,,,,,ミヤザワキカク,0
88,1011103012046,登記記録の閉鎖等,0,2024-11-19,2024-11-13,合同会社パックジョブ,,合同会社,東京都,杉並区,高円寺南４丁目７番３サンシャイン高円寺８０３号,,13,115,1660003,,,2024-11-13,清算の結了等,,,2022-08-12,1,,,,,パックジョブ,0
114,1020001117369,登記記録の閉鎖等,0,2024-11-19,2024-10-31,Ｋ２Ｔアソシエイツ株式会社,,株式会社,神奈川県,横浜市泉区,緑園１丁目２６番地１４,,14,116,2450002,,,2024-10-31,清算の結了等,,,2016-08-05,1,,,,,ケーツーティーアソシエイツ,0
122,1020003013054,登記記録の閉鎖等,0,2024-11-19,2024-11-18,合同会社ＡＩＬＥ,,合同会社,神奈川県,横須賀市,久里浜４丁目１３番１２号,,14,201,2390831,,,2024-11-18,清算の結了等,,,2017-07-28,1,,,,,,0
131,1021002066035,登記記録の閉鎖等,0,2024-11-19,2024-11-12,有限会社西崎設備工業,,有限会社,神奈川県,横須賀市,馬堀町４丁目１番１８号,,14,201,2390802,,,2024-11-12,清算の結了等,,,2015-10-05,1,,,,,ニシザキセツビコウギョウ,0
134,1030001034043,登記記録の閉鎖等,0,2024-11-19,2024-11-14,株式会社ハーモニーコーポレーション,,株式会社,埼玉県,加須市,岡古井１５５番地１６,,11,210,3470058,,,2024-11-14,清算の結了等,,,2015-10-05,1,,,,,ハーモニーコーポレーション,0
143,1040001058990,登記記録の閉鎖等,0,2024-11-19,2024-11-14,第一寢具株式会社,,株式会社,千葉県,長生郡長南町,千田１３２２番地,,12,427,2970115,,,2024-11-14,清算の結了等,,,2015-10-05,1,,,,,ダイイチシング,0
146,1040002022541,登記記録の閉鎖等,0,2024-11-19,2024-11-12,有限会社サワベ精工,,有限会社,千葉県,船橋市,前原西５丁目１２番１４号,,12,204,2740825,,,2024-11-12,清算の結了等,,,2015-10-05,1,,,,,サワベセイコウ,0
149,1040002084103,登記記録の閉鎖等,0,2024-11-19,2024-11-06,アタゴ不動産管理有限会社,,有限会社,東京都,千代田区,平河町２丁目３番１０－６１０号,,13,101,1020093,,,2024-11-06,清算の結了等,,,2015-10-05,1,,,,,アタゴフドウサンカンリ,0
160,1060002012994,登記記録の閉鎖等,0,2024-11-19,2024-11-12,有限会社神和トキモ,,有限会社,栃木県,塩谷郡高根沢町,光陽台５丁目９番地１１,,09,386,3291232,,,2024-11-12,清算の結了等,,,2015-10-05,1,,,,,コウワトキモ,0
164,1070001033215,登記記録の閉鎖等,0,2024-11-19,2024-11-13,ＴＳ群馬株式会社,,株式会社,群馬県,高崎市,中尾町３番地２,,10,202,3700001,,,2024-11-13,合併による解散等,5010001070202,令和６年１１月１日石川県能美市旭台二丁目１０番地ナノコート・ティーエス株式会社（5010001070202）に合併し解散,2017-03-07,1,,,,,ティーエスグンマ,0
169,1080101025053,登記記録の閉鎖等,0,2024-11-19,2024-11-14,株式会社小野屋薬品,,株式会社,静岡県,御殿場市,新橋１９８０番地の１２,,22,215,4120043,,,2024-11-14,清算の結了等,,,2024-10-16,1,,,,,オノヤヤクヒン,0
174,1100001007652,登記記録の閉鎖等,0,2024-11-19,2024-11-08,株式会社橋本,,株式会社,長野県,佐久市,甲１６０３番地１,,20,217,3842104,,,2024-11-08,合併による解散等,6150001018574,令和６年１１月１日埼玉県さいたま市大宮区三橋三丁目１６６番地ＭＥＤ　Ｅｎｇｉｎｅｅｒｉｎｇ株式会社（6150001018574）に合併し解散,2015-10-05,1,,,,,ハシモト,0
179,1100002019218,登記記録の閉鎖等,0,2024-11-19,2024-11-11,有限会社イトー,,有限会社,長野県,松本市,大字笹賀９１６番地２,,20,202,3990033,,,2024-11-11,清算の結了等,,,2015-10-05,1,,,,,イトー,0
180,1100003005431,登記記録の閉鎖等,0,2024-11-19,2024-11-11,合同会社湧の森,,合同会社,長野県,諏訪郡原村,１７２１７番地２９７,,20,363,3910100,,,2024-11-11,清算の結了等,,,2019-09-24,1,,,,,ユウノモリ,0
205,1120103005800,登記記録の閉鎖等,0,2024-11-19,2024-11-15,ｙｏｓｈｉｍｉｋａｎｏｕ合同会社,,合同会社,大阪府,堺市堺区,中安井町１丁４―１１―４０１,,27,141,5900063,,,2024-11-15,清算の結了等,,,2024-04-26,1,,,,,ヨシミカノウ,0
262,1230002007985,登記記録の閉鎖等,0,2024-11-19,2024-11-15,有限会社岡田,,有限会社,富山県,下新川郡入善町,青木１５４９番地１,,16,342,9390643,,,2024-11-15,清算の結了等,,,2015-10-05,1,,,,,オカダ,0
263,1240002000683,登記記録の閉鎖等,0,2024-11-19,2024-11-18,有限会社安城精機,,有限会社,広島県,広島市西区,南観音７丁目５番３１号１３０１号室,,34,104,7330035,,,2024-11-18,清算の結了等,,,2015-10-05,1,,,,,アンジョウセイキ,0
267,1290001031080,登記記録の閉鎖等,0,2024-11-19,2024-10-16,株式会社ハル企画,,株式会社,福岡県,福岡市中央区,平尾２丁目２番１８－３０１号,,40,133,8100014,,,2024-10-16,清算の結了等,,,2015-10-05,1,,,,,ハルキカク,0
284,1310001012945,登記記録の閉鎖等,0,2024-11-19,2024-11-14,株式会社Ｑ－ＫＡＴＳＵ,,株式会社,長崎県,諫早市,八天町１番１５号,,42,204,8540011,,,2024-11-14,清算の結了等,,,2015-10-05,1,,,,,キューカツ,0
293,1360001027385,登記記録の閉鎖等,0,2024-11-19,2024-11-15,株式会社ｉｎｇ,,株式会社,沖縄県,那覇市,松山１丁目１７番４４号,,47,201,9000032,,,2024-11-15,清算の結了等,,,2020-06-30,1,,,,,イング,0
296,1360002021767,登記記録の閉鎖等,0,2024-11-19,2024-11-15,有限会社芭蕉庵,,有限会社,沖縄県,八重山郡竹富町,字上原１０番地の３２０,,47,381,9071541,,,2024-11-15,清算の結了等,,,2015-10-05,1,,,,,バショウアン,0
302,1370502000063,登記記録の閉鎖等,0,2024-11-19,2024-11-11,有限会社岩渕石材店,,有限会社,宮城県,気仙沼市,松崎浦田１２６番地の２,,04,205,9880114,,,2024-11-11,清算の結了等,,,2015-10-05,1,,,,,イワブチセキザイテン,0
325,2010001213325,登記記録の閉鎖等,0,2024-11-19,2024-11-05,薩摩洋上風力発電株式会社,,株式会社,東京都,中央区,築地２丁目１５番１９号ミレニアム築地７階,,13,102,1040045,,,2024-11-05,清算の結了等,,,2020-10-29,1,,,,,サツマヨウジョウフウリョクハツデン,0
377,2010401133453,登記記録の閉鎖等,0,2024-11-19,2024-11-12,株式会社ＨＮＢ　ＬＡＢＯ,,株式会社,東京都,台東区,浅草橋５丁目２－３鈴和ビル２Ｆ,,13,106,1110053,,,2024-11-12,清算の結了等,,,2017-08-31,1,,,,,エイチエヌビーラボ,0
380,2010401168458,登記記録の閉鎖等,0,2024-11-19,2024-11-01,株式会社ＮＡＢＢＡ　ＪＡＰＡＮ,,株式会社,東京都,港区,南青山２丁目２番１５号ウィン青山９４２,,13,103,1070062,,,2024-11-01,清算の結了等,,,2022-07-11,1,,,,,ナバジャパン,0
391,2010702015359,登記記録の閉鎖等,0,2024-11-19,2024-11-13,有限会社ジーハウス,,有限会社,東京都,品川区,大崎４丁目３番１２号,,13,109,1410032,,,2024-11-13,清算の結了等,,,2015-10-05,1,,,,,ジーハウス,0
412,2011301027357,登記記録の閉鎖等,0,2024-11-19,2024-11-06,遠建株式会社,,株式会社,東京都,新宿区,戸塚町１丁目１０１番地１７相建ビル１Ｆ,00125213,13,104,1690071,,,2024-11-06,清算の結了等,,,2021-11-18,1,,,,,エンケン,0
413,2011302001138,登記記録の閉鎖等,0,2024-11-19,2024-11-13,有限会社岩佐電気商会,,有限会社,東京都,杉並区,上井草３丁目２番１号,,13,115,1670023,,,2024-11-13,清算の結了等,,,2015-10-05,1,,,,,イワサデンキショウカイ,0
433,2013101005666,登記記録の閉鎖等,0,2024-11-19,2024-11-05,株式会社大蔵企画,,株式会社,東京都,東大和市,立野２丁目４番地の１,,13,220,2070021,,,2024-11-05,清算の結了等,,,2015-10-05,1,,,,,オオクラキカク,0
439,2020001045040,登記記録の閉鎖等,0,2024-11-19,2024-11-07,ホシノ電設株式会社,,株式会社,神奈川県,横浜市港北区,小机町１８８７番地,,14,109,2220036,,,2024-11-07,清算の結了等,,,2015-10-05,1,,,,,ホシノデンセツ,0
489,2060002032216,登記記録の閉鎖等,0,2024-11-19,2024-11-13,有限会社舘沼鉄工,,有限会社,栃木県,栃木市,大塚町３１１６番地,,09,203,3280007,,,2024-11-13,清算の結了等,,,2015-10-05,1,,,,,タテヌマテッコウ,0
494,2080105005141,登記記録の閉鎖等,0,2024-11-19,2024-11-12,農事組合法人ひまわり農園,,その他の設立登記法人,静岡県,賀茂郡東伊豆町,稲取２４８０番地の１,,22,301,4130411,,,2024-11-12,清算の結了等,,,2015-10-05,1,,,,,,0
503,2100005008134,登記記録の閉鎖等,0,2024-11-19,2024-11-15,医療法人塚田医院,,その他の設立登記法人,長野県,茅野市,本町西３番７号,,20,214,3910003,,,2024-11-15,清算の結了等,,,2015-10-05,1,,,,,ツカダイイン,0
507,2120001173161,登記記録の閉鎖等,0,2024-11-19,2024-11-15,株式会社ＥＪＯＮ,,株式会社,大阪府,大阪市住之江区,南港中８丁目１番１５号,,27,125,5590033,,,2024-11-15,清算の結了等,,,2015-10-05,1,,,,,エジョン,0
508,2120001173748,登記記録の閉鎖等,0,2024-11-19,2024-11-14,株式会社Ｚｅｂｒａサービシーズ,,株式会社,大阪府,大阪市西区,江戸堀１丁目２５番１５号,,27,106,5500002,,,2024-11-14,清算の結了等,,,2015-10-05,1,,,,,ゼブラサービシーズ,0
509,2120001195107,登記記録の閉鎖等,0,2024-11-19,2024-11-14,株式会社下田製靴,,株式会社,大阪府,大阪市西成区,梅南３丁目４番１４号,,27,122,5570033,,,2024-11-14,清算の結了等,,,2015-12-16,1,,,,,,0
511,2120001217827,登記記録の閉鎖等,0,2024-11-19,2024-11-14,新一産業株式会社,,株式会社,大阪府,大阪市中央区,久太郎町２丁目３番８号ハイム船場５０６号,,27,128,5410056,,,2024-11-14,清算の結了等,,,2018-12-17,1,,,,,シンイチサンギョウ,0
520,2120002017243,登記記録の閉鎖等,0,2024-11-19,2024-11-14,有限会社賃貸のラバン,,有限会社,大阪府,大阪市福島区,大開１丁目４番２１号,,27,103,5530007,,,2024-11-14,清算の結了等,,,2015-10-05,1,,,,,,0
538,2122001028493,登記記録の閉鎖等,0,2024-11-19,2024-11-18,株式会社二和設備,,株式会社,大阪府,八尾市,高美町６丁目８番６２号,,27,212,5810017,,,2024-11-18,清算の結了等,,,2015-10-05,1,,,,,,0
540,2130001015882,登記記録の閉鎖等,0,2024-11-19,2024-11-12,株式会社森建築,,株式会社,京都府,京都市伏見区,西柳町５６４番地,,26,109,6128212,,,2024-11-12,清算の結了等,,,2015-10-05,1,,,,,モリケンチク,0
546,2130002011897,登記記録の閉鎖等,0,2024-11-19,2024-11-14,有限会社岩下工業,,有限会社,京都府,京都市山科区,大宅岩屋殿３番地の７４,,26,110,6078172,,,2024-11-14,清算の結了等,,,2015-10-05,1,,,,,イワシタコウギョウ,0
559,2140002034278,登記記録の閉鎖等,0,2024-11-19,2024-11-14,有限会社岩本自工,,有限会社,兵庫県,赤穂市,新田２８０番地,,28,212,6780255,,,2024-11-14,清算の結了等,,,2015-10-05,1,,,,,イワモトジコウ,0
566,2150001026176,登記記録の閉鎖等,0,2024-11-19,2024-11-13,ＮＡＲＡ　ＰＩＳＴＯＮ　ＲＩＮＧ株式会社,,株式会社,奈良県,磯城郡田原本町,４９３－４０１,,29,363,6360300,,,2024-11-13,清算の結了等,,,2023-02-21,1,,,,,ナラピストンリング,0
583,2180302011881,登記記録の閉鎖等,0,2024-11-19,2024-11-07,有限会社イナダ,,有限会社,愛知県,豊橋市,野田町字野田２６９番地の４,,23,201,4418001,,,2024-11-07,清算の結了等,,,2015-10-05,1,,,,,イナダ,0
584,2180302015486,登記記録の閉鎖等,0,2024-11-19,2024-11-11,有限会社昭喜水産,,有限会社,愛知県,蒲郡市,三谷町若宮１７７番地,,23,214,4430021,,,2024-11-11,清算の結了等,,,2015-10-05,1,,,,,アキヨシスイサン,0
590,2220001005362,登記記録の閉鎖等,0,2024-11-19,2024-11-15,株式会社花の北光,,株式会社,石川県,金沢市,寺地１丁目８番８号,,17,201,9218178,,,2024-11-15,清算の結了等,,,2015-10-05,1,,,,,ハナノホッコウ,0
592,2220001017655,登記記録の閉鎖等,0,2024-11-19,2024-11-14,中川工業株式会社,,株式会社,石川県,河北郡津幡町,字横浜い１６番地３,,17,361,9290341,,,2024-11-14,清算の結了等,,,2015-10-05,1,,,,,ナカガワコウギョウ,0
595,2220002004231,登記記録の閉鎖等,0,2024-11-19,2024-11-13,有限会社中川樹脂,,有限会社,石川県,金沢市,新保本３丁目１４５番地,,17,201,9218062,,,2024-11-13,合併による解散等,5010801002734,令和６年１１月１日東京都大田区東蒲田二丁目２９番１５号蒲田ゴム株式会社（5010801002734）に合併し解散,2015-10-05,1,,,,,,0
599,2240002042295,登記記録の閉鎖等,0,2024-11-19,2024-11-18,有限会社パァトナァ,,有限会社,広島県,福山市,水呑町１４０番地４,,34,207,7200832,,,2024-11-18,清算の結了等,,,2015-10-05,1,,,,,,0
603,2260002010721,登記記録の閉鎖等,0,2024-11-19,2024-11-14,有限会社若葉園,,有限会社,岡山県,岡山市北区,高柳西町１２番２８号,,33,101,7000035,,,2024-11-14,清算の結了等,,,2015-10-05,1,,,,,ワカバエン,0
626,2310002010749,登記記録の閉鎖等,0,2024-11-19,2024-11-08,有限会社田中機工,,有限会社,長崎県,佐世保市,卸本町２９番１４号,,42,202,8571162,,,2024-11-08,清算の結了等,,,2015-10-05,1,,,,,タナカキコウ,0
635,2350002014465,登記記録の閉鎖等,0,2024-11-19,2024-11-12,有限会社中央車輌サービス,,有限会社,宮崎県,都城市,牟田町２９街区１２号,,45,202,8850079,,,2024-11-12,清算の結了等,,,2015-10-05,1,,,,,,0
660,2430002060930,登記記録の閉鎖等,0,2024-11-19,2024-11-13,有限会社本多新聞販売所,,有限会社,北海道,白老郡白老町,字萩野１６番地１,,01,578,0590922,,,2024-11-13,清算の結了等,,,2015-10-05,1,,,,,ホンダシンブンハンバイショ,0
664,2460302004452,登記記録の閉鎖等,0,2024-11-19,2024-11-18,株式会社見島電材,,株式会社,北海道,北見市,北四条東３丁目ＡＩＧ北見ビル４階,,01,208,0900024,,,2024-11-18,清算の結了等,,,2015-10-05,1,,,,,ミシマデンザイ,0
676,3010001159154,登記記録の閉鎖等,0,2024-11-19,2024-11-12,株式会社Ｂｉ,,株式会社,東京都,江戸川区,南篠崎町４丁目７番１０－１０１号,,13,123,1330065,,,2024-11-12,清算の結了等,,,2015-10-05,1,,,,,ビーアイ,0
678,3010001184383,登記記録の閉鎖等,0,2024-11-19,2024-11-05,株式会社ａｍａｄａｒｅ,,株式会社,東京都,千代田区,神田神保町２丁目１４－４,,13,101,1010051,,,2024-11-05,清算の結了等,,,2017-06-22,1,,,,,アマダレ,0
729,3010003042218,登記記録の閉鎖等,0,2024-11-19,2024-11-05,エスティファンドエイト合同会社,,合同会社,東京都,千代田区,丸の内３丁目１番１号東京共同会計事務所内,,13,101,1000005,,,2024-11-05,清算の結了等,,,2023-11-15,1,,,,,エスティファンドエイト,0
739,3010401120483,登記記録の閉鎖等,0,2024-11-19,2024-11-18,株式会社クロージングデザイン,,株式会社,神奈川県,三浦郡葉山町,長柄１６０１－１５４ＨＥＲＯ館２０１,,14,301,2400113,,,2024-11-18,清算の結了等,,,2015-10-05,1,,,,,,0
741,3010401136190,登記記録の閉鎖等,0,2024-11-19,2024-10-31,株式会社みらいずパートナー,,株式会社,東京都,港区,西新橋１丁目４番１２号,,13,103,1050003,,,2024-10-31,清算の結了等,,,2018-01-24,1,,,,,ミライズパートナー,0
745,3010402001294,登記記録の閉鎖等,0,2024-11-19,2024-11-08,有限会社インターサービス,,有限会社,東京都,大田区,石川町２丁目３１番７号,,13,111,1450061,,,2024-11-08,清算の結了等,,,2015-10-05,1,,,,,インターサービス,0
747,3010403020566,登記記録の閉鎖等,0,2024-11-19,2024-11-01,Ｄｉｇｉｔａｌ　Ｍｏｂｉｌｅ　Ｉｎｎｏｖａｔｉｏｎｓ　Ｊａｐａｎ合同会社,,合同会社,東京都,港区,南麻布３丁目１９番２３号オーク南麻布ビル２階,,13,103,1060047,,,2024-11-01,清算の結了等,,,2019-04-18,1,,,,,デジタルモバイルイノベーションズジャパン,0
748,3010405021430,登記記録の閉鎖等,0,2024-11-19,2024-11-01,一般社団法人Ｅｃｈｏ　Ｈｏｌｄｉｎｇｓ,,その他の設立登記法人,東京都,港区,虎ノ門５丁目１番４号,,13,103,1050001,,,2024-11-01,清算の結了等,,,2022-09-29,1,,,,,エコーホールディングス,0
757,3010701025267,登記記録の閉鎖等,0,2024-11-19,2024-11-13,株式会社トライシダー消費生活研究所,,株式会社,東京都,品川区,南品川４丁目１５番５－５０３号,,13,109,1400004,,,2024-11-13,清算の結了等,,,2015-10-05,1,,,,,トライシダーショウヒセイカツケンキュウショ,0
765,3011001100537,登記記録の閉鎖等,0,2024-11-19,2024-10-22,株式会社ＡＰ　Ｃｏｍｐａｎｙ,,株式会社,東京都,渋谷区,本町１丁目２０－２－５０６,,13,113,1510071,,,2024-10-22,清算の結了等,,,2015-10-05,1,,,,,エーピーカンパニー,0
785,3011501008791,登記記録の閉鎖等,0,2024-11-19,2024-11-14,株式会社松原製作所,,株式会社,東京都,荒川区,南千住７丁目１３番１３号,,13,118,1160003,,,2024-11-14,清算の結了等,,,2015-10-05,1,,,,,マツバラセイサクショ,0
787,3011701006455,登記記録の閉鎖等,0,2024-11-19,2024-11-13,株式会社橋本商行,,株式会社,東京都,江戸川区,瑞江３丁目１７番３号,,13,123,1320011,,,2024-11-13,清算の結了等,,,2015-10-05,1,,,,,,0
790,3011801039082,登記記録の閉鎖等,0,2024-11-19,2024-11-14,株式会社Ｖ　Ｃａｒｒｉｅｒ,,株式会社,東京都,中野区,本町２丁目４６番１号,,13,114,1640012,,,2024-11-14,合併による解散等,9010401170416,令和６年１１月１日東京都港区浜松町二丁目２番１５号株式会社ＶＯＩＳＩＮＧ（9010401170416）に合併し解散,2021-04-21,1,,,,,ヴィキャリア,0
794,3020001006859,登記記録の閉鎖等,0,2024-11-19,2024-11-06,株式会社ミツワ,,株式会社,神奈川県,横浜市金沢区,能見台通３２番２６号,,14,108,2360053,,,2024-11-06,清算の結了等,,,2015-10-05,1,,,,,ミツワ,0
815,3021001050129,登記記録の閉鎖等,0,2024-11-19,2024-11-18,株式会社アフターライジング,,株式会社,神奈川県,藤沢市,城南３丁目６番６～９０６号,,14,205,2510057,,,2024-11-18,清算の結了等,,,2015-10-05,1,,,,,アフターライジング,0
817,3021001074417,登記記録の閉鎖等,0,2024-11-19,2024-11-07,株式会社ＮＯＢＵ’Ｓ　Ｃｏｍｐａｎｙ,,株式会社,神奈川県,三浦郡葉山町,一色９４３番地１ＡＴＥＬＩＥＲ９４３Ａ棟１階,,14,301,2400111,,,2024-11-07,清算の結了等,,,2021-11-05,1,,,,,ノブズカンパニー,0
822,3021005008172,登記記録の閉鎖等,0,2024-11-19,2024-11-18,医療法人社団湘南,,その他の設立登記法人,神奈川県,逗子市,逗子１丁目３番２２号１階,,14,208,2490006,,,2024-11-18,清算の結了等,,,2015-10-05,1,,,,,,0
825,3030001054139,登記記録の閉鎖等,0,2024-11-19,2024-11-14,株式会社パンドラ企画,,株式会社,埼玉県,新座市,畑中１丁目１０番８号,,11,230,3520012,,,2024-11-14,清算の結了等,,,2015-10-05,1,,,,,パンドラキカク,0
844,3040001061951,登記記録の閉鎖等,0,2024-11-19,2024-11-06,株式会社アタゴエンジニアリング,,株式会社,東京都,千代田区,平河町２丁目３番１０－６１０号,,13,101,1020093,,,2024-11-06,清算の結了等,,,2015-10-05,1,,,,,アタゴエンジニアリング,0
849,3040001114759,登記記録の閉鎖等,0,2024-11-19,2024-11-13,ＴＳＵＭＵＧＵ株式会社,,株式会社,千葉県,市原市,姉崎３２２１番地４,,12,219,2990111,,,2024-11-13,清算の結了等,,,2020-08-19,1,,,,,ツムグ,0
851,3040002058641,登記記録の閉鎖等,0,2024-11-19,2024-11-12,有限会社ひかり,,有限会社,千葉県,成田市,飯田町１５０番地１,,12,211,2860041,,,2024-11-12,清算の結了等,,,2015-10-05,1,,,,,ヒカリ,0
853,3040002083128,登記記録の閉鎖等,0,2024-11-19,2024-11-12,有限会社高橋石油店,,有限会社,千葉県,匝瑳市,春海７４０８番地,,12,235,2892101,,,2024-11-12,清算の結了等,,,2015-10-05,1,,,,,タカハシセキユテン,0
863,3070002029573,登記記録の閉鎖等,0,2024-11-19,2024-11-13,有限会社シュート,,有限会社,群馬県,太田市,本町２１番２５号,,10,205,3730057,,,2024-11-13,清算の結了等,,,2015-10-05,1,,,,,シュート,0
864,3070003004831,登記記録の閉鎖等,0,2024-11-19,2024-11-15,合同会社ｃｏｃｃｏｌｅ,,合同会社,群馬県,高崎市,聖石町５番７号,,10,202,3700863,,,2024-11-15,清算の結了等,,,2023-02-15,1,,,,,コッコレ,0
869,3080002002216,登記記録の閉鎖等,0,2024-11-19,2024-11-13,有限会社榊原モーター,00067415,有限会社,静岡県,静岡市葵区,小瀬戸２４７９番地の８,,22,101,4211225,,,2024-11-13,清算の結了等,,,2015-10-05,1,,,,,サカキバラモーター,0
870,3080101009871,登記記録の閉鎖等,0,2024-11-19,2024-11-15,株式会社ヤスダ,,株式会社,静岡県,富士市,吉原４丁目１５番２２号,,22,210,4170051,,,2024-11-15,清算の結了等,,,2015-10-05,1,,,,,ヤスダ,0
873,3080102010523,登記記録の閉鎖等,0,2024-11-19,2024-11-15,有限会社静岡ソフトウェア,,有限会社,静岡県,駿東郡清水町,的場１２３番地の５,,22,341,4110915,,,2024-11-15,清算の結了等,,,2015-10-05,1,,,,,シズオカソフトウェア,0
883,3120001041771,登記記録の閉鎖等,0,2024-11-19,2024-11-15,株式会社エドワーズ,,株式会社,兵庫県,尼崎市,東園田町５丁目５７番地の１セントラルアベニュー５０６,,28,202,6610953,,,2024-11-15,清算の結了等,,,2015-10-05,1,,,,,エドワーズ,0
899,3122001035101,登記記録の閉鎖等,0,2024-11-19,2024-11-18,株式会社高橋創建,00124002,株式会社,大阪府,東大阪市,西鴻池町１丁目１４番３号,,27,227,5780976,,,2024-11-18,清算の結了等,,,2021-08-23,1,,,,,タカハシソウケン,0
903,3130003008355,登記記録の閉鎖等,0,2024-11-19,2024-11-14,合同会社ソレイユ,,合同会社,京都府,京都市下京区,河原町通高辻上る富永町３６５番地,,26,106,6008023,,,2024-11-14,合併による解散等,1180301038596,令和６年１１月１日愛知県岡崎市大平町字天神前８番地１株式会社アース（1180301038596）に合併し解散,2022-11-30,1,,,,,ソレイユ,0
913,3150002006408,登記記録の閉鎖等,0,2024-11-19,2024-11-15,有限会社日本エスシーマネジメント,,有限会社,奈良県,生駒郡平群町,西宮３丁目１７番１８号,,29,342,6360914,,,2024-11-15,清算の結了等,,,2015-10-05,1,,,,,ニホンエスシーマネジメント,0
922,3180002044231,登記記録の閉鎖等,0,2024-11-19,2024-11-08,ベルリオ有限会社,,有限会社,愛知県,名古屋市中区,錦１丁目６番３３号,,23,106,4600003,,,2024-11-08,清算の結了等,,,2015-10-05,1,,,,,ベルリオ,0
925,3180003022987,登記記録の閉鎖等,0,2024-11-19,2024-11-08,ＰＳコンサル合同会社,,合同会社,愛知県,岩倉市,鈴井町立切８３,,23,228,4820035,,,2024-11-08,清算の結了等,,,2021-09-24,1,,,,,ピーエスコンサル,0
938,3240001045199,登記記録の閉鎖等,0,2024-11-19,2024-11-14,株式会社タウンズホーム,,株式会社,広島県,福山市,南蔵王町２丁目５番４２号,,34,207,7210973,,,2024-11-14,清算の結了等,,,2015-10-05,1,,,,,タウンズホーム,0
952,3310002001004,登記記録の閉鎖等,0,2024-11-19,2024-11-14,有限会社岡山自動車商会,,有限会社,長崎県,長崎市,目覚町１４番１０号,,42,201,8528105,,,2024-11-14,清算の結了等,,,2015-10-05,1,,,,,オカヤマジドウシャショウカイ,0
964,3390002014403,登記記録の閉鎖等,0,2024-11-19,2024-11-11,有限会社タカハシエンジニアリング,,有限会社,山形県,南陽市,爼柳８９４番地,,06,213,9992223,,,2024-11-11,清算の結了等,,,2015-10-05,1,,,,,タカハシエンジニアリング,0
976,3480001004081,登記記録の閉鎖等,0,2024-11-19,2024-11-18,株式会社平成技研,,株式会社,徳島県,小松島市,立江町字黒岩１番地４,,36,203,7730017,,,2024-11-18,清算の結了等,,,2015-10-05,1,,,,,ヘイセイギケン,0
984,4010001155111,登記記録の閉鎖等,0,2024-11-19,2024-11-05,山佐ＣＥＳ８リース株式会社,,株式会社,東京都,千代田区,丸の内３丁目１番１号東京共同会計事務所内,,13,101,1000005,,,2024-11-05,清算の結了等,,,2015-10-05,1,,,,,ヤマサシーイーエスハチリース,0
1042,4010003041838,登記記録の閉鎖等,0,2024-11-19,2024-11-05,エスティファンドセブン合同会社,,合同会社,東京都,千代田区,丸の内３丁目１番１号東京共同会計事務所内,,13,101,1000005,,,2024-11-05,清算の結了等,,,2023-10-06,1,,,,,エスティファンドセブン,0
1047,4010401094875,登記記録の閉鎖等,0,2024-11-19,2024-11-01,株式会社Ｓａｌａ,,株式会社,東京都,港区,麻布十番１丁目１０番３号モンテプラザ麻布４Ｆ,,13,103,1060045,,,2024-11-01,清算の結了等,,,2015-10-05,1,,,,,サラ,0
1049,4010401131884,登記記録の閉鎖等,0,2024-11-19,2024-11-01,株式会社マイネット・ストラテジックパートナーズ,,株式会社,東京都,港区,北青山２丁目１１番３号,,13,103,1070061,,,2024-11-01,清算の結了等,,,2017-06-09,1,,,,,マイネットストラテジックパートナーズ,0
1054,4010501001310,登記記録の閉鎖等,0,2024-11-19,2024-11-05,栄興産業株式会社,,株式会社,東京都,中央区,日本橋室町１丁目１１番１２号日本橋水野ビル７階,,13,102,1030022,,,2024-11-05,清算の結了等,,,2015-10-05,1,,,,,エイコウサンギョウ,0
1067,4010901036699,登記記録の閉鎖等,0,2024-11-19,2024-11-11,株式会社ユウハイ,,株式会社,東京都,世田谷区,代田１丁目２７番１４号,,13,112,1550033,,,2024-11-11,清算の結了等,,,2015-10-05,1,,,,,ユウハイ,0
1093,4011702002832,登記記録の閉鎖等,0,2024-11-19,2024-11-08,有限会社かとう,,有限会社,東京都,江戸川区,平井４丁目３１番１５－１０１号,,13,123,1320035,,,2024-11-08,清算の結了等,,,2015-10-05,1,,,,,カトウ,0
1099,4012401015101,登記記録の閉鎖等,0,2024-11-19,2024-11-18,株式会社ライトハウス,,株式会社,東京都,三鷹市,上連雀１丁目２５番２６－３０３号,,13,204,1810012,,,2024-11-18,清算の結了等,,,2015-10-05,1,,,,,,0
1100,4012401017072,登記記録の閉鎖等,0,2024-11-19,2024-11-07,株式会社扶風,,株式会社,東京都,小金井市,前原町４丁目１２番２１－８０２号朝日マンション武蔵小金井,,13,210,1840013,,,2024-11-07,清算の結了等,,,2015-10-05,1,,,,,タスクカゼ,0
1108,4013303002807,登記記録の閉鎖等,0,2024-11-19,2024-11-14,ユニバージー７０合同会社,,合同会社,大阪府,大阪市淀川区,西中島７丁目５番２５号,,27,123,5320011,,,2024-11-14,清算の結了等,,,2015-10-05,1,,,,,ユニバージーナナジュウ,0
1121,4020001136168,登記記録の閉鎖等,0,2024-11-19,2024-11-07,株式会社キレイ２１,,株式会社,神奈川県,横浜市中区,桜木町２丁目２番港陽ビル,,14,104,2310062,,,2024-11-07,清算の結了等,,,2020-05-21,1,,,,,キレイニジュウイチ,0
1131,4020003019775,登記記録の閉鎖等,0,2024-11-19,2024-11-05,東起合同会社,,合同会社,神奈川県,横浜市磯子区,洋光台３丁目１３番２－１１１号,,14,107,2350045,,,2024-11-05,合併による解散等,1020003013764,令和６年１０月１８日横浜市磯子区森二丁目１３番１１号芙蓉舎合同会社（1020003013764）に合併し解散,2021-05-12,1,,,,,トウキ,0
1145,4030002021327,登記記録の閉鎖等,0,2024-11-19,2024-11-15,太陽交通有限会社,,有限会社,埼玉県,さいたま市岩槻区,古ケ場１丁目１番地２,,11,110,3390072,,,2024-11-15,清算の結了等,,,2015-10-05,1,,,,,タイヨウコウツウ,0
1157,4040002077888,登記記録の閉鎖等,0,2024-11-19,2024-11-06,有限会社ウッド企画,,有限会社,千葉県,山武郡九十九里町,片貝６９２８番地９,,12,403,2830104,,,2024-11-06,清算の結了等,,,2015-10-05,1,,,,,ウッドキカク,0
1158,4040003012514,登記記録の閉鎖等,0,2024-11-19,2024-11-13,合同会社クラウドクロス,,合同会社,千葉県,松戸市,二十世紀が丘丸山町７７番地の２,,12,207,2710084,,,2024-11-13,清算の結了等,,,2018-11-28,1,,,,,クラウドクロス,0
1165,4060005007997,登記記録の閉鎖等,0,2024-11-19,2024-11-14,特定非営利活動法人宇都宮ピアノ研究会,,その他の設立登記法人,栃木県,宇都宮市,仲町三丁目１６番チサンマンション第５宇都宮〈仲町〉２１５号室,,09,201,3200023,,,2024-11-14,清算の結了等,,,2015-10-05,1,,,,,ウツノミヤピアノケンキュウカイ,0
1169,4070002014954,登記記録の閉鎖等,0,2024-11-19,2024-11-15,株式会社トランスポート山田,,株式会社,群馬県,安中市,松井田町小日向８７９番地１,,10,211,3790213,,,2024-11-15,清算の結了等,,,2015-10-05,1,,,,,トランスポートヤマダ,0
1173,4100001018267,登記記録の閉鎖等,0,2024-11-19,2024-11-08,金作木材株式会社,,株式会社,長野県,諏訪郡下諏訪町,５４４０番地,,20,361,3930000,,,2024-11-08,清算の結了等,,,2015-10-05,1,,,,,カネサクモクザイ,0
1174,4100001021279,登記記録の閉鎖等,0,2024-11-19,2024-11-11,大力工業株式会社,,株式会社,長野県,駒ヶ根市,赤穂９９０９番地,,20,210,3994117,,,2024-11-11,清算の結了等,,,2015-10-05,1,,,,,ダイリキコウギョウ,0
1178,4120001133394,登記記録の閉鎖等,0,2024-11-19,2024-11-15,ケイ・フーズ株式会社,,株式会社,大阪府,大阪市福島区,福島７丁目２０番１号ＫＭ西梅田ビル,,27,103,5530003,,,2024-11-15,清算の結了等,,,2015-10-05,1,,,,,ケイフーズ,0
1182,4120001227246,登記記録の閉鎖等,0,2024-11-19,2024-11-13,株式会社ＴＫＩトパーズ,,株式会社,東京都,品川区,大崎２丁目９番２号大崎ウェストシティタワーズＷ棟１２０６号,,13,109,1410032,,,2024-11-13,清算の結了等,,,2020-02-18,1,,,,,ティーケーアイトパーズ,0
1190,4120002065422,登記記録の閉鎖等,0,2024-11-19,2024-11-15,有限会社ＭＫＴ電気通信,,有限会社,大阪府,大阪市東住吉区,駒川３丁目１５番４号,,27,121,5460043,,,2024-11-15,清算の結了等,,,2015-10-05,1,,,,,エムケイティデンキツウシン,0
1197,4120102011887,登記記録の閉鎖等,0,2024-11-19,2024-11-15,有限会社テーテック,,有限会社,大阪府,堺市南区,庭代台４丁２４番１８号,,27,145,5900133,,,2024-11-15,清算の結了等,,,2015-10-05,1,,,,,テーテック,0
1198,4120103005203,登記記録の閉鎖等,0,2024-11-19,2024-10-16,合同会社ｍａｒｋｅｒ,,合同会社,大阪府,高石市,高師浜３丁目５番２１号,,27,225,5920004,,,2024-10-16,清算の結了等,,,2023-04-28,1,,,,,マーカー,0
1207,4122002002652,登記記録の閉鎖等,0,2024-11-19,2024-11-14,成和産業有限会社,,有限会社,大阪府,東大阪市,長堂３丁目２０番１５号,,27,227,5770056,,,2024-11-14,清算の結了等,,,2015-10-05,1,,,,,セイワサンギョウ,0
1218,4140001118451,登記記録の閉鎖等,0,2024-11-19,2024-11-15,株式会社ＬＵＸＵＯＮＥ,,株式会社,兵庫県,西宮市,浜甲子園１丁目６番１５号巽やビル１階,,28,204,6638154,,,2024-11-15,清算の結了等,,,2020-08-20,1,,,,,ラグジュワン,0
1228,4150001005830,登記記録の閉鎖等,0,2024-11-19,2024-11-15,株式会社三基コンサルタント,,株式会社,奈良県,大和郡山市,矢田山町３４番地１１,,29,203,6391055,,,2024-11-15,清算の結了等,,,2015-10-05,1,,,,,,0
1234,4180001083907,登記記録の閉鎖等,0,2024-11-19,2024-11-07,株式会社モリペン,,株式会社,愛知県,一宮市,木曽川町黒田字古城７番地,,23,203,4930001,,,2024-11-07,清算の結了等,,,2015-10-05,1,,,,,モリペン,0
1238,4180001097493,登記記録の閉鎖等,0,2024-11-19,2024-11-08,株式会社八開建設,,株式会社,愛知県,愛西市,赤目町杉土居６０番地,,23,232,4968046,,,2024-11-08,清算の結了等,,,2015-10-05,1,,,,,ハチカイケンセツ,0
1256,4200002014429,登記記録の閉鎖等,0,2024-11-19,2024-11-15,有限会社梅木重機,,有限会社,岐阜県,大垣市,波須１丁目５９番地２,,21,202,5030811,,,2024-11-15,清算の結了等,,,2015-10-05,1,,,,,ウメキジュウキ,0
1257,4210001000180,登記記録の閉鎖等,0,2024-11-19,2024-11-15,株式会社ウイブテック,,株式会社,福井県,福井市,町屋２丁目１４番６号,,18,201,9100002,,,2024-11-15,清算の結了等,,,2015-10-05,1,,,,,ウイブテック,0
1261,4220001009329,登記記録の閉鎖等,0,2024-11-19,2024-11-13,ニッセイ物産株式会社,,株式会社,石川県,白山市,山島台５丁目５２番地,,17,210,9240836,,,2024-11-13,清算の結了等,,,2015-10-05,1,,,,,ニッセイブッサン,0
1266,4240001033847,登記記録の閉鎖等,0,2024-11-19,2024-11-08,株式会社Ｔｏｙ．Ｉｎｃ,,株式会社,広島県,福山市,久松台２丁目１７番２号,,34,207,7200083,,,2024-11-08,清算の結了等,,,2015-10-05,1,,,,,トイインク,0
1271,4250005001114,登記記録の閉鎖等,0,2024-11-19,2024-11-11,一般財団法人山口県スカウト運動維持財団,,その他の設立登記法人,山口県,山口市,神田町１－８０（ボーイスカウト山口県連盟内）,,35,203,7530064,,,2024-11-11,清算の結了等,,,2015-10-05,1,,,,,ヤマグチケンスカウトウンドウイジザイダン,0
1291,4300002004262,登記記録の閉鎖等,0,2024-11-19,2024-11-18,有限会社三ツ瀬鶏園,,有限会社,佐賀県,佐賀市,三瀬村杠２０５７番地１,,41,201,8420303,,,2024-11-18,清算の結了等,,,2015-10-05,1,,,,,ミツセケイエン,0
1293,4310002010887,登記記録の閉鎖等,0,2024-11-19,2024-10-31,有限会社東海部品,,有限会社,長崎県,佐世保市,早苗町５６８番地１,,42,202,8593211,,,2024-10-31,清算の結了等,,,2015-10-05,1,,,,,トウカイブヒン,0
1306,4360001023737,登記記録の閉鎖等,0,2024-11-19,2024-11-01,株式会社マイネット琉球,,株式会社,東京都,港区,北青山２丁目１１番３号,,13,103,1070061,,,2024-11-01,清算の結了等,,,2018-03-29,1,,,,,マイネットリュウキュウ,0
1316,4380002031836,登記記録の閉鎖等,0,2024-11-19,2024-11-06,有限会社五洋商事,,有限会社,福島県,会津若松市,飯寺南２丁目４番２１号,,07,202,9650840,,,2024-11-06,清算の結了等,,,2015-10-05,1,,,,,ゴヨウショウジ,0
1323,4430003003259,登記記録の閉鎖等,0,2024-11-19,2024-11-12,合資会社うまいべや,,合資会社,北海道,小樽市,色内２丁目４番１１号,,01,203,0470031,,,2024-11-12,清算の結了等,,,2015-10-05,1,,,,,ウマイベヤ,0
1328,4480005002304,登記記録の閉鎖等,0,2024-11-19,2024-11-15,特定非営利活動法人港まちづくりファンタジーハーバーこまつしま,,その他の設立登記法人,徳島県,小松島市,小松島町字新港１９番地,,36,203,7730001,,,2024-11-15,清算の結了等,,,2015-10-05,1,,,,,ミナトマチヅクリファンタジーハーバーコマツシマ,0
1338,5010001155110,登記記録の閉鎖等,0,2024-11-19,2024-11-05,山佐ＣＥＳ７リース株式会社,,株式会社,東京都,千代田区,丸の内３丁目１番１号東京共同会計事務所内,,13,101,1000005,,,2024-11-05,清算の結了等,,,2015-10-05,1,,,,,ヤマサシーイーエスシチリース,0
1407,5010405023177,登記記録の閉鎖等,0,2024-11-19,2024-10-30,Ｎ８６特定目的会社,,その他の設立登記法人,東京都,港区,元赤坂１丁目１番８号株式会社赤坂国際会計内,,13,103,1070051,,,2024-10-30,清算の結了等,,,2024-04-23,1,,,,,エヌエイティーシックス,0
1419,5011001145407,登記記録の閉鎖等,0,2024-11-19,2024-11-14,株式会社Ｖｉｒｔｕａｌ　Ｓｏｌｕｔｉｏｎｓ,,株式会社,東京都,渋谷区,神宮前６丁目２３番４号桑野ビル２階,,13,113,1500001,,,2024-11-14,合併による解散等,9010401170416,令和６年１１月１日東京都港区浜松町二丁目２番１５号株式会社ＶＯＩＳＩＮＧ（9010401170416）に合併し解散,2022-02-03,1,,,,,バーチャルソリューションズ,0
1440,5011701025833,登記記録の閉鎖等,0,2024-11-19,2024-11-13,楽美佳旅行株式会社,,株式会社,東京都,江戸川区,中葛西８丁目１１－１６アセンズシティ３－９０１号室,,13,123,1340083,,,2024-11-13,清算の結了等,,,2022-12-07,1,,,,,ラクビカリョコウ,0
1443,5011703002970,登記記録の閉鎖等,0,2024-11-19,2024-11-14,合同会社三共商事,,合同会社,東京都,葛飾区,白鳥３丁目６－５－２０５,,13,122,1250063,,,2024-11-14,清算の結了等,,,2021-10-15,1,,,,,サンキョウショウジ,0
1452,5013102003261,登記記録の閉鎖等,0,2024-11-19,2024-11-14,有限会社和洋工業,,有限会社,東京都,西多摩郡瑞穂町,大字石畑旭岳４２１－３番地,,13,303,1901211,,,2024-11-14,清算の結了等,,,2015-10-05,1,,,,,ワヨウコウギョウ,0
1463,5020003015765,登記記録の閉鎖等,0,2024-11-19,2024-11-13,合同会社湘南住研,,合同会社,神奈川県,横浜市西区,高島２丁目１１番２号スカイメナー横浜４２２,,14,103,2200011,,,2024-11-13,合併による解散等,1010403018637,令和６年１１月１日東京都港区芝五丁目２７番３号ＭＢＣ－Ｂ－６４号合同会社ヒラメキ（1010403018637）に合併し解散,2019-03-18,1,,,,,ショウナンジュウケン,0
1473,5030001067080,登記記録の閉鎖等,0,2024-11-19,2024-11-11,株式会社クィーンズ,,株式会社,埼玉県,吉川市,美南４丁目１番地１,,11,243,3420038,,,2024-11-11,清算の結了等,,,2015-10-05,1,,,,,クィーンズ,0
1511,5110003002291,登記記録の閉鎖等,0,2024-11-19,2024-11-12,合資会社伊藤靴店,,合資会社,新潟県,魚沼市,小出島８５７番地２,,15,225,9460011,,,2024-11-12,清算の結了等,,,2015-10-05,1,,,,,イトウクツテン,0
1514,5120001203709,登記記録の閉鎖等,0,2024-11-19,2024-11-13,株式会社ｕｓｅｒ,,株式会社,大阪府,吹田市,長野東２番２８－２号,,27,205,5650816,,,2024-11-13,清算の結了等,,,2017-02-17,1,,,,,ユーザー,0
1518,5120003022529,登記記録の閉鎖等,0,2024-11-19,2024-11-13,合同会社プリンス,,合同会社,大阪府,大阪市中央区,博労町２丁目３番１１号,,27,128,5410059,,,2024-11-13,合併による解散等,8180001161782,令和６年１１月１日名古屋市北区平安二丁目１４番１号株式会社プラネット（8180001161782）に合併し解散,2022-09-27,1,,,,,プリンス,0
1539,5130005014713,登記記録の閉鎖等,0,2024-11-19,2024-11-15,社会保険労務士法人岡本事務所,,その他の設立登記法人,京都府,京都市左京区,下鴨上川原町６８番地１,,26,103,6060812,,,2024-11-15,清算の結了等,,,2016-09-28,1,,,,,オカモトジムショ,0
1548,5150002009607,登記記録の閉鎖等,0,2024-11-19,2024-11-12,有限会社富城運送,,有限会社,奈良県,御所市,大字櫛羅２８６番地の６,,29,208,6392312,,,2024-11-12,清算の結了等,,,2015-10-05,1,,,,,トミシロウンソウ,0
1552,5180001013078,登記記録の閉鎖等,0,2024-11-19,2024-11-08,日興住宅株式会社,,株式会社,愛知県,春日井市,花長町２丁目４番地１２,,23,206,4860951,,,2024-11-08,清算の結了等,,,2015-10-05,1,,,,,ニッコウジュウタク,0
1574,5180302016077,登記記録の閉鎖等,0,2024-11-19,2024-11-12,有限会社芳野屋酒店,,有限会社,愛知県,蒲郡市,三谷町東前８８番地,,23,214,4430021,,,2024-11-12,清算の結了等,,,2015-10-05,1,,,,,ヨシノヤサケテン,0
1580,5220001017388,登記記録の閉鎖等,0,2024-11-19,2024-10-31,株式会社カネダ,,株式会社,石川県,かほく市,松浜ロ５５番地５号,,17,209,9291172,,,2024-10-31,清算の結了等,,,2015-10-05,1,,,,,カネダ,0
1590,5240001061574,登記記録の閉鎖等,0,2024-11-19,2024-11-11,株式会社Ｎａｔｕｒａｌ　Ｂｏｄｙ,,株式会社,広島県,東広島市,福富町下竹仁１７４５番地,,34,212,7392302,,,2024-11-11,清算の結了等,,,2023-05-29,1,,,,,ネイチャーボディ,0
1591,5240002033077,登記記録の閉鎖等,0,2024-11-19,2024-11-12,有限会社シンギホーム,,有限会社,広島県,呉市,焼山本庄１丁目５番７号,,34,202,7370912,,,2024-11-12,清算の結了等,,,2015-10-05,1,,,,,シンギホーム,0
1600,5290001084199,登記記録の閉鎖等,0,2024-11-19,2024-10-15,株式会社ＳＴＥＰ　ＬＩＦＥ,,株式会社,福岡県,福岡市博多区,美野島１丁目７番１２－２０５号,,40,132,8120017,,,2024-10-15,清算の結了等,,,2019-02-13,1,,,,,ステップライフ,0
1607,5290002027198,登記記録の閉鎖等,0,2024-11-19,2024-10-15,有限会社エム・エフ・ネット,,有限会社,福岡県,福岡市西区,今宿東１丁目３０－３９,,40,135,8190161,,,2024-10-15,清算の結了等,,,2015-10-05,1,,,,,エムエフネット,0
1628,5370201002407,登記記録の閉鎖等,0,2024-11-19,2024-11-08,株式会社ワールドオプチカル,,株式会社,宮城県,加美郡加美町,字町裏２３番３,,04,445,9814261,,,2024-11-08,清算の結了等,,,2015-10-05,1,,,,,ワールドオプチカル,0
1638,5460302001620,登記記録の閉鎖等,0,2024-11-19,2024-11-18,有限会社行本建設,,有限会社,北海道,北見市,相内町１５９番地,,01,208,0990871,,,2024-11-18,清算の結了等,,,2015-10-05,1,,,,,ユキモトケンセツ,0
1640,5500001020272,登記記録の閉鎖等,0,2024-11-19,2024-11-15,株式会社テクノスエンジニアリング,,株式会社,愛媛県,今治市,大西町星浦甲３０番地５,,38,202,7992208,,,2024-11-15,清算の結了等,,,2016-12-09,1,,,,,テクノスエンジニアリング,0
1642,6010001018555,登記記録の閉鎖等,0,2024-11-19,2024-11-07,株式会社真成,,株式会社,東京都,千代田区,有楽町１丁目７番１号有楽町電気ビルヂング北館５階５１２区（武藤綜合法律事務所内）,,13,101,1000006,,,2024-11-07,清算の結了等,,,2015-10-05,1,,,,,シンセイ,0
1704,6010403012057,登記記録の閉鎖等,0,2024-11-19,2024-11-01,合同会社銀座６１２,,合同会社,東京都,中央区,銀座６丁目１２番１２号,,13,102,1040061,,,2024-11-01,合併による解散等,8010402034471,令和６年１１月１日東京都千代田区内神田三丁目２２番７号株式会社アンコンサルティング（8010402034471）に合併し解散,2015-10-05,1,,,,,ギンザロクイチニ,0
1705,6010403027757,登記記録の閉鎖等,0,2024-11-19,2024-10-29,ＧＦＡＩ　Ｒｏｂｏｔ　Ｓｅｒｖｉｃｅ合同会社,,合同会社,東京都,中央区,日本橋３丁目９番１号日本橋三丁目スクエア１１階,,13,102,1030027,,,2024-10-29,清算の結了等,,,2022-05-30,1,,,,,ジーエフエーアイロボットサービス,0
1726,6011002029673,登記記録の閉鎖等,0,2024-11-19,2024-11-18,有限会社天隠山,,有限会社,東京都,渋谷区,富ヶ谷１丁目４４番８号,,13,113,1510063,,,2024-11-18,清算の結了等,,,2015-10-05,1,,,,,アメノカグヤマ,0
1767,6013303002342,登記記録の閉鎖等,0,2024-11-19,2024-11-14,ユニバージー０８合同会社,,合同会社,大阪府,大阪市淀川区,西中島７丁目５番２５号,,27,123,5320011,,,2024-11-14,清算の結了等,,,2015-10-05,1,,,,,ユニバージーゼロハチ,0
1786,6020003011334,登記記録の閉鎖等,0,2024-11-19,2024-10-31,合同会社リッチバンク,,合同会社,神奈川県,横浜市南区,三春台１１４番地１１,,14,105,2320002,,,2024-10-31,清算の結了等,,,2016-05-18,1,,,,,リッチバンク,0
1787,6020003025409,登記記録の閉鎖等,0,2024-11-19,2024-11-01,合同会社ＫＯＤＯ,,合同会社,神奈川県,横浜市金沢区,富岡東４丁目８番４３－４号,,14,108,2360051,,,2024-11-01,清算の結了等,,,2024-01-23,1,,,,,コードー,0
1793,6021002029012,登記記録の閉鎖等,0,2024-11-19,2024-11-18,有限会社シマザキ企画,,有限会社,神奈川県,相模原市緑区,根小屋１１０番地,,14,151,2520153,,,2024-11-18,清算の結了等,,,2015-10-05,1,,,,,,0
1803,6040002072292,登記記録の閉鎖等,0,2024-11-19,2024-11-12,有限会社いずみ屋商店,,有限会社,千葉県,市原市,郡本１丁目２１３番地,,12,219,2900013,,,2024-11-12,清算の結了等,,,2015-10-05,1,,,,,イズミヤショウテン,0
1808,6050002011448,登記記録の閉鎖等,0,2024-11-19,2024-11-11,有限会社後藤電気,,有限会社,茨城県,土浦市,神立東２丁目９番４号,,08,203,3000012,,,2024-11-11,清算の結了等,,,2015-10-05,1,,,,,ゴトウデンキ,0
1811,6070001034489,登記記録の閉鎖等,0,2024-11-19,2024-11-15,ＨＬＢ株式会社,,株式会社,群馬県,安中市,松井田町小日向８７９番地１,,10,211,3790213,,,2024-11-15,清算の結了等,,,2018-03-16,1,,,,,エイチエルビー,0
1824,6100001020254,登記記録の閉鎖等,0,2024-11-19,2024-11-08,株式会社伊那岡谷プロパン,,株式会社,長野県,岡谷市,幸町６番６号,,20,204,3940029,,,2024-11-08,清算の結了等,,,2015-10-05,1,,,,,イナオカヤプロパン,0
1826,6100002035747,登記記録の閉鎖等,0,2024-11-19,2024-11-08,伊藤林産有限会社,,有限会社,長野県,飯田市,大瀬木１１０７番地,,20,205,3950157,,,2024-11-08,清算の結了等,,,2015-10-05,1,,,,,イトウリンサン,0
1828,6110001030491,登記記録の閉鎖等,0,2024-11-19,2024-11-11,株式会社ユーキ,,株式会社,新潟県,新潟市中央区,紫竹山３丁目９番１３号,,15,103,9500914,,,2024-11-11,清算の結了等,,,2015-10-05,1,,,,,ユーキ,0
1831,6110005003997,登記記録の閉鎖等,0,2024-11-19,2024-11-12,農事組合法人赤羽生産組合,,その他の設立登記法人,新潟県,五泉市,赤羽字大東１２２８番地４,,15,218,9591641,,,2024-11-12,清算の結了等,,,2015-10-05,1,,,,,アカハネセイサンクミアイ,0
1840,6120002082168,登記記録の閉鎖等,0,2024-11-19,2024-11-15,有限会社ジアズ,,有限会社,大阪府,箕面市,如意谷５丁目１番１－７０５号,,27,220,5620011,,,2024-11-15,合併による解散等,8010001125630,令和６年１１月１日東京都中央区銀座六丁目９番８号ＵＫビル６階株式会社ＪＩＡＤＳ歯科研修所（8010001125630）に合併し解散,2015-10-05,1,,,,,ジアズ,0
1858,6140001074057,登記記録の閉鎖等,0,2024-11-19,2024-11-14,株式会社林工業,,株式会社,兵庫県,神戸市西区,岩岡町古郷８０１番地の３,,28,111,6512404,,,2024-11-14,清算の結了等,,,2015-10-05,1,,,,,ハヤシコウギョウ,0
1867,6140002009318,登記記録の閉鎖等,0,2024-11-19,2024-11-15,有限会社ミッチ・イバ,,有限会社,兵庫県,神戸市長田区,五番町８丁目２６番地,,28,106,6530003,,,2024-11-15,清算の結了等,,,2015-10-05,1,,,,,ミッチイバ,0
1869,6140002055436,登記記録の閉鎖等,0,2024-11-19,2024-11-15,有限会社アイ・エム・システム,,有限会社,兵庫県,西宮市,鳴尾町５丁目１－３,,28,204,6638184,,,2024-11-15,清算の結了等,,,2015-10-05,1,,,,,アイエムシステム,0
1885,6180002030096,登記記録の閉鎖等,0,2024-11-19,2024-11-08,有限会社エヌシーエス,,有限会社,愛知県,名古屋市千種区,東明町５丁目３番地,,23,101,4640028,,,2024-11-08,清算の結了等,,,2015-10-05,1,,,,,エヌシーエス,0
1888,6180003021433,登記記録の閉鎖等,0,2024-11-19,2024-11-08,Ｋ’ｓ合同会社,,合同会社,愛知県,北名古屋市,熊之庄射矢重７５番地２,,23,234,4810006,,,2024-11-08,清算の結了等,,,2020-07-28,1,,,,,ケーズ,0
1898,6210001002407,登記記録の閉鎖等,0,2024-11-19,2024-11-11,株式会社中村商會,,株式会社,福井県,福井市,宝永２丁目１１番１６号,,18,201,9100004,,,2024-11-11,清算の結了等,,,2015-10-05,1,,,,,ナカムラショウカイ,0
1903,6260002005536,登記記録の閉鎖等,0,2024-11-19,2024-11-14,有限会社関元木型製作所,,有限会社,岡山県,岡山市中区,桑野５１８番地,,33,102,7028002,,,2024-11-14,清算の結了等,,,2015-10-05,1,,,,,セキモトキガタセイサクショ,0
1928,6370002001409,登記記録の閉鎖等,0,2024-11-19,2024-11-08,有限会社名取設計事務所,,有限会社,宮城県,仙台市泉区,将監２丁目７番１２号,,04,105,9813132,,,2024-11-08,清算の結了等,,,2015-10-05,1,,,,,ナトリセッケイジムショ,0
1934,6400002003541,登記記録の閉鎖等,0,2024-11-19,2024-11-08,有限会社遊探総合企画,,有限会社,岩手県,盛岡市,向中野１丁目３番３０号,,03,201,0200851,,,2024-11-08,清算の結了等,,,2015-10-05,1,,,,,ユウタンソウゴウキカク,0
1939,6430001054888,登記記録の閉鎖等,0,2024-11-19,2024-11-01,菱中自動車運輸株式会社,,株式会社,北海道,苫小牧市,晴海町４３番地４９,,01,213,0591374,,,2024-11-01,合併による解散等,1430001054959,令和６年１１月１日北海道苫小牧市表町二丁目１番１号菱中海陸運輸株式会社（1430001054959）に合併し解散,2015-10-05,1,,,,,ヒシナカジドウシャウンユ,0
1943,6440002005014,登記記録の閉鎖等,0,2024-11-19,2024-11-15,有限会社山下商店,,有限会社,北海道,函館市,高盛町２７番１１号,,01,202,0400024,,,2024-11-15,清算の結了等,,,2015-10-05,1,,,,,ヤマシタショウテン,0
1952,7010001136100,登記記録の閉鎖等,0,2024-11-19,2024-11-05,株式会社オンサイト・エネルギー・サービス静岡,,株式会社,東京都,千代田区,大手町１丁目１番２号,,13,101,1000004,,,2024-11-05,清算の結了等,,,2015-10-05,1,,,,,オンサイトエネルギーサービスシズオカ,0
2004,7010101012168,登記記録の閉鎖等,0,2024-11-19,2024-11-15,株式会社ＺＥＴ－ＯＮ,,株式会社,東京都,八王子市,明神町４丁目７－１５落合ビル４Ｆ－Ｃ,,13,201,1920046,,,2024-11-15,清算の結了等,,,2016-01-15,1,,,,,ゼットン,0
2024,7010601006181,登記記録の閉鎖等,0,2024-11-19,2024-11-12,丸菱化成株式会社,,株式会社,東京都,江東区,亀戸２丁目６番９－６０６号,,13,108,1360071,,,2024-11-12,清算の結了等,,,2015-10-05,1,,,,,マルビシカセイ,0
2048,7011201007116,登記記録の閉鎖等,0,2024-11-19,2024-11-15,東京メルテック空調株式会社,,株式会社,東京都,中野区,中央１丁目３８番１号,,13,114,1640011,,,2024-11-15,合併による解散等,6011101062468,令和６年１０月１日東京都中央区日本橋室町四丁目１番５号東日本ビルテクノサービス株式会社（6011101062468）に合併し解散,2015-10-05,1,,,,,トウキョウメルテッククウチョウ,0
2049,7011301029118,登記記録の閉鎖等,0,2024-11-19,2024-11-13,株式会社ＳＫＭ,,株式会社,東京都,杉並区,成田西４丁目８番２５号,,13,115,1660016,,,2024-11-13,清算の結了等,,,2023-10-30,1,,,,,エスケーエム,0
2062,7011802007935,登記記録の閉鎖等,0,2024-11-19,2024-11-14,有限会社矢崎プラテック,00057310,有限会社,東京都,葛飾区,宝町２丁目３０番６号,,13,122,1240005,,,2024-11-14,清算の結了等,,,2015-10-05,1,,,,,ヤザキプラテック,0
2063,7011802016416,登記記録の閉鎖等,0,2024-11-19,2024-11-13,有限会社徳寿,,有限会社,東京都,足立区,梅田３丁目２４番３号,,13,121,1230851,,,2024-11-13,清算の結了等,,,2015-10-05,1,,,,,トクジュ,0
2086,7020003008271,登記記録の閉鎖等,0,2024-11-19,2024-11-18,合同会社天美,,合同会社,神奈川県,相模原市緑区,東橋本４丁目２番３７号,,14,151,2520144,,,2024-11-18,清算の結了等,,,2015-10-05,1,,,,,,0
2111,7060001022270,登記記録の閉鎖等,0,2024-11-19,2024-11-01,株式会社近代経理事務所,,株式会社,茨城県,牛久市,田宮町３８８番地２２,,08,219,3001236,,,2024-11-01,清算の結了等,,,2015-10-05,1,,,,,キンダイケイリジムショ,0
2121,7070001010183,登記記録の閉鎖等,0,2024-11-19,2024-11-12,株式会社トーヨーメタル,,株式会社,群馬県,前橋市,本町３丁目３番６号グレースハイツ本町１０１,,10,201,3710023,,,2024-11-12,清算の結了等,,,2015-10-05,1,,,,,トーヨーメタル,0
2122,7070002012996,登記記録の閉鎖等,0,2024-11-19,2024-11-15,有限会社ケイディーエヌ,,有限会社,群馬県,高崎市,下佐野町５００番地４,,10,202,3700855,,,2024-11-15,清算の結了等,,,2015-10-05,1,,,,,ケイディーエヌ,0
2129,7100001020468,登記記録の閉鎖等,0,2024-11-19,2024-11-07,株式会社スズラン,,株式会社,長野県,諏訪市,高島２丁目１２００番地８,,20,206,3920022,,,2024-11-07,清算の結了等,,,2015-10-05,1,,,,,スズラン,0
2135,7120001039969,登記記録の閉鎖等,0,2024-11-19,2024-11-14,株式会社松嶋好坂井商店,,株式会社,大阪府,大阪市浪速区,日本橋３丁目１番２３号,,27,111,5560005,,,2024-11-14,清算の結了等,,,2015-10-05,1,,,,,マツシマゴノミサカイショウテン,0
2149,7120005017426,登記記録の閉鎖等,0,2024-11-19,2024-11-15,日本カーペット協同組合,,その他の設立登記法人,大阪府,大阪市中央区,安土町１丁目４番５号,,27,128,5410052,,,2024-11-15,清算の結了等,,,2015-10-05,1,,,,,ニホンカーペット,0
2156,7122001023515,登記記録の閉鎖等,0,2024-11-19,2024-11-18,株式会社ダイホー,,株式会社,大阪府,八尾市,太田新町７丁目３３番地,,27,212,5810039,,,2024-11-18,清算の結了等,,,2015-10-05,1,,,,,ダイホー,0
2158,7122003000801,登記記録の閉鎖等,0,2024-11-19,2024-11-14,合同会社カッパレッカー,,合同会社,大阪府,寝屋川市,高倉１丁目９番３号,,27,215,5720864,,,2024-11-14,清算の結了等,,,2015-10-05,1,,,,,カッパレッカー,0
2163,7130002009367,登記記録の閉鎖等,0,2024-11-19,2024-11-14,有限会社三加和,,有限会社,京都府,京都市西京区,上桂前田町３番地７,,26,111,6158223,,,2024-11-14,清算の結了等,,,2015-10-05,1,,,,,ミカワ,0
2164,7130002010325,登記記録の閉鎖等,0,2024-11-19,2024-11-18,有限会社依田商店,,有限会社,京都府,京都市東山区,大黒町通五条上る大黒町２９５番地,,26,105,6050832,,,2024-11-18,清算の結了等,,,2015-10-05,1,,,,,ヨダショウテン,0
2173,7140002056425,登記記録の閉鎖等,0,2024-11-19,2024-11-15,有限会社神戸工房,,有限会社,兵庫県,西宮市,薬師町９番１１号,,28,204,6638024,,,2024-11-15,清算の結了等,,,2015-10-05,1,,,,,コウベコウボウ,0
2192,7180302002728,登記記録の閉鎖等,0,2024-11-19,2024-11-12,有限会社洞口左官,,有限会社,愛知県,岡崎市,百々西町２番地１７,,23,202,4442117,,,2024-11-12,清算の結了等,,,2015-10-05,1,,,,,ホラグチサカン,0
2196,7190002022380,登記記録の閉鎖等,0,2024-11-19,2024-11-15,有限会社メディカル・サポート,,有限会社,三重県,四日市市,住吉町４番１号,,24,202,5108003,,,2024-11-15,清算の結了等,,,2015-10-05,1,,,,,メディカルサポート,0
2206,7240001060797,登記記録の閉鎖等,0,2024-11-19,2024-11-05,ＫＩ　ＪＡＰＡＮ株式会社,,株式会社,東京都,千代田区,神田松永町１９番３号ＴＨＡビル１階,,13,101,1010023,,,2024-11-05,合併による解散等,1240001057048,令和６年１０月１５日東京都千代田区神田松永町１９番３号ＴＨＡビル１階株式会社ドリームブルー（1240001057048）に合併し解散,2022-12-15,1,,,,,ケイアイジャパン,0
2218,7290001089080,登記記録の閉鎖等,0,2024-11-19,2024-10-11,株式会社ＺＥＲＯ－ＯＮＥ,,株式会社,福岡県,福岡市城南区,長尾４丁目１３番８号,,40,136,8140123,,,2024-10-11,清算の結了等,,,2020-06-09,1,,,,,ゼロワン,0
2243,7370001004114,登記記録の閉鎖等,0,2024-11-19,2024-11-08,見上工業株式会社,,株式会社,宮城県,仙台市若林区,沖野３丁目６番５５号,,04,103,9840831,,,2024-11-08,清算の結了等,,,2015-10-05,1,,,,,ミカミコウギョウ,0
2255,7390002012691,登記記録の閉鎖等,0,2024-11-19,2024-11-08,有限会社オートパークフリッパー,,有限会社,山形県,山形市,緑町３丁目９番１３号,,06,201,9900041,,,2024-11-08,清算の結了等,,,2015-10-05,1,,,,,オートパークフリッパー,0
2259,7400002007285,登記記録の閉鎖等,0,2024-11-19,2024-11-08,有限会社ワン・ツー不動産,,有限会社,岩手県,紫波郡矢巾町,大字又兵エ新田第７地割２２０番地７,,03,322,0283614,,,2024-11-08,清算の結了等,,,2015-10-05,1,,,,,ワンツーフドウサン,0
2270,7430002047394,登記記録の閉鎖等,0,2024-11-19,2024-11-13,有限会社片石薬局,,有限会社,北海道,恵庭市,大町３丁目２番１８号,,01,231,0611424,,,2024-11-13,清算の結了等,,,2015-10-05,1,,,,,カタイシヤッキョク,0
2277,7480002011503,登記記録の閉鎖等,0,2024-11-19,2024-11-18,北野青果有限会社,,有限会社,徳島県,板野郡藍住町,東中富字慶長４３番地の１,,36,403,7711224,,,2024-11-18,清算の結了等,,,2015-10-05,1,,,,,キタノセイカ,0
2315,8010003029862,登記記録の閉鎖等,0,2024-11-19,2024-11-05,ＡＢＡ合同会社,,合同会社,東京都,千代田区,有楽町１丁目１番２号東京ミッドタウン日比谷,,13,101,1000006,,,2024-11-05,清算の結了等,,,2019-05-20,1,,,,,アバ,0
2329,8010003043211,登記記録の閉鎖等,0,2024-11-19,2024-11-14,Ｃｈｕｒｃｈ＆Ｄｗｉｇｈｔ　Ｊａｐａｎ合同会社,,合同会社,東京都,千代田区,霞が関３丁目２番６号東京倶楽部ビルディング１１階,,13,101,1000013,,,2024-11-14,合併による解散等,2011001035255,令和６年１１月１日東京都品川区大崎一丁目６番１号株式会社グラフィコ（2011001035255）に合併し解散,2024-03-15,1,,,,,チャーチアンドドワイトジャパン,0
2338,8010401064800,登記記録の閉鎖等,0,2024-11-19,2024-11-01,株式会社エクセレンス,,株式会社,東京都,港区,芝４丁目３番５号,,13,103,1080014,,,2024-11-01,合併による解散等,8010401073099,令和６年１１月１日東京都港区芝四丁目３番５号岡田建設株式会社（8010401073099）に合併し解散,2015-10-05,1,,,,,エクセレンス,0
2368,8011001137822,登記記録の閉鎖等,0,2024-11-19,2024-10-22,Ｉｋｅｄａ　Ｍａｋｏｔｏ株式会社,,株式会社,東京都,渋谷区,神宮前６丁目２３番４号桑野ビル２階,,13,113,1500001,,,2024-10-22,清算の結了等,,,2021-01-14,1,,,,,イケダマコト,0
2370,8011001139884,登記記録の閉鎖等,0,2024-11-19,2024-10-10,株式会社ＫＡＫＥＲＵ,,株式会社,東京都,渋谷区,渋谷３丁目６番２号エクラート渋谷５Ｆ,,13,113,1500002,,,2024-10-10,清算の結了等,,,2021-04-19,1,,,,,カケル,0
2379,8011302005182,登記記録の閉鎖等,0,2024-11-19,2024-11-14,有限会社ゼン,,有限会社,東京都,杉並区,善福寺４丁目４番４号,,13,115,1670041,,,2024-11-14,清算の結了等,,,2015-10-05,1,,,,,ゼン,0
2385,8011801042379,登記記録の閉鎖等,0,2024-11-19,2024-10-29,株式会社アソシエイト,,株式会社,東京都,足立区,南花畑５丁目８番７号,,13,121,1210062,,,2024-10-29,清算の結了等,,,2023-05-18,1,,,,,アソシエイト,0
2388,8011802021547,登記記録の閉鎖等,0,2024-11-19,2024-11-12,有限会社アルク足立,,有限会社,東京都,足立区,鹿浜４丁目１３番４号,,13,121,1230864,,,2024-11-12,清算の結了等,,,2015-10-05,1,,,,,アルクアダチ,0
2393,8012402011789,登記記録の閉鎖等,0,2024-11-19,2024-11-15,調布オートガラス有限会社,,有限会社,東京都,調布市,上石原１丁目２番地１３,,13,208,1820035,,,2024-11-15,清算の結了等,,,2015-10-05,1,,,,,チョウフオートガラス,0
2397,8013303002778,登記記録の閉鎖等,0,2024-11-19,2024-11-14,ユニバージー８８合同会社,,合同会社,大阪府,大阪市淀川区,西中島７丁目５番２５号,,27,123,5320011,,,2024-11-14,清算の結了等,,,2015-10-05,1,,,,,ユニバージーハチジュウハチ,0
2398,8013305003568,登記記録の閉鎖等,0,2024-11-19,2024-11-06,ＮＰＯ法人ｂｏｎｄ,,その他の設立登記法人,東京都,豊島区,南大塚２丁目４１番１０号河野ビルＡ棟５階,,13,116,1700005,,,2024-11-06,清算の結了等,,,2024-02-01,1,,,,,ボンド,0
2400,8020001078357,登記記録の閉鎖等,0,2024-11-19,2024-11-11,株式会社サンイースト,,株式会社,神奈川県,横浜市都筑区,茅ケ崎南５丁目６番１１号ガーデンヒルズヨシノＥ,,14,118,2240037,,,2024-11-11,清算の結了等,,,2015-10-05,1,,,,,サンイースト,0
2409,8020003024235,登記記録の閉鎖等,0,2024-11-19,2024-11-06,ＴＯＹ合同会社,,合同会社,神奈川県,川崎市幸区,塚越２丁目１５５サンパティーク１Ｆ,,14,132,2120024,,,2024-11-06,清算の結了等,,,2023-07-24,1,,,,,トイ,0
2412,8021001026966,登記記録の閉鎖等,0,2024-11-19,2024-11-18,大雄産業株式会社,,株式会社,神奈川県,海老名市,中央３丁目５番５号三幸中央ビル５階,,14,215,2430432,,,2024-11-18,清算の結了等,,,2015-10-05,1,,,,,,0
2424,8040002050940,登記記録の閉鎖等,0,2024-11-19,2024-11-13,有限会社倉持運送,,有限会社,千葉県,流山市,南流山１丁目１５番地の６,,12,220,2700163,,,2024-11-13,清算の結了等,,,2015-10-05,1,,,,,クラモチウンソウ,0
2435,8070003003721,登記記録の閉鎖等,0,2024-11-19,2024-11-15,合同会社ＳＴＥＰ　ＵＰ,,合同会社,群馬県,前橋市,朝倉町２丁目９番地Ｉ－２０４号,00124163,10,201,3710811,,,2024-11-15,清算の結了等,,,2020-04-03,1,,,,,ステップアップ,0
2437,8080101003589,登記記録の閉鎖等,0,2024-11-19,2024-11-15,株式会社ＧＩＫＥＮ,,株式会社,静岡県,沼津市,北今沢２１番地の４,,22,203,4100876,,,2024-11-15,清算の結了等,,,2015-10-05,1,,,,,ギケン,0
2448,8110002027411,登記記録の閉鎖等,0,2024-11-19,2024-11-12,有限会社協立測量,,有限会社,新潟県,長岡市,高見町１７２８番地１,,15,202,9400004,,,2024-11-12,清算の結了等,,,2015-10-05,1,,,,,キョウリツソクリョウ,0
2454,8120001140370,登記記録の閉鎖等,0,2024-11-19,2024-11-14,株式会社アルファステッド,,株式会社,大阪府,大阪市中央区,玉造１丁目１０番２１号,,27,128,5400004,,,2024-11-14,清算の結了等,,,2015-10-05,1,,,,,アルファステッド,0
2471,8120901010508,登記記録の閉鎖等,0,2024-11-19,2024-11-13,株式会社エポック電化,,株式会社,大阪府,高槻市,大塚町５丁目１６番１号,,27,207,5690034,,,2024-11-13,清算の結了等,,,2015-10-05,1,,,,,エポックデンカ,0
2475,8122003001435,登記記録の閉鎖等,0,2024-11-19,2024-11-18,りゅうび合同会社,,合同会社,大阪府,東大阪市,俊徳町１丁目５－４,,27,227,5770831,,,2024-11-18,清算の結了等,,,2017-12-19,1,,,,,,0
2482,8130005005420,登記記録の閉鎖等,0,2024-11-19,2024-11-14,特定非営利活動法人檜の会,,その他の設立登記法人,京都府,京都市左京区,下鴨萩ケ垣内町２１番地,,26,103,6060832,,,2024-11-14,清算の結了等,,,2015-10-05,1,,,,,ヒノキノカイ,0
2483,8140001000845,登記記録の閉鎖等,0,2024-11-19,2024-11-13,株式会社ヨシブン,,株式会社,兵庫県,芦屋市,朝日ケ丘町１２番２０号,,28,206,6590012,,,2024-11-13,清算の結了等,,,2015-10-05,1,,,,,ヨシブン,0
2488,8140001081191,登記記録の閉鎖等,0,2024-11-19,2024-11-14,株式会社石田和装研究所,,株式会社,兵庫県,宝塚市,平井２丁目７番３７号,,28,214,6650816,,,2024-11-14,清算の結了等,,,2015-10-05,1,,,,,イシダワソウケンキュウショ,0
2495,8140003008878,登記記録の閉鎖等,0,2024-11-19,2024-11-14,合同会社Ｔ．Ｍコーポレーション,,合同会社,兵庫県,神戸市東灘区,住吉本町３丁目７番７号,,28,101,6580051,,,2024-11-14,清算の結了等,,,2015-10-05,1,,,,,ティーエムコーポレーション,0
2497,8150001013895,登記記録の閉鎖等,0,2024-11-19,2024-11-15,信栄薬品株式会社,,株式会社,奈良県,御所市,大字西寺田５０番地,,29,208,6392316,,,2024-11-15,清算の結了等,,,2015-10-05,1,,,,,シンエイヤクヒン,0
2500,8160001012946,登記記録の閉鎖等,0,2024-11-19,2024-11-11,高田科学株式会社,,株式会社,滋賀県,草津市,駒井沢町５０番地の６,,25,206,5250014,,,2024-11-11,清算の結了等,,,2015-10-05,1,,,,,タカダカガク,0
2509,8180001153607,登記記録の閉鎖等,0,2024-11-19,2024-10-25,株式会社ハウスリフォーム,,株式会社,愛知県,名古屋市天白区,池場２丁目２５０９ハートイン池場Ｅ棟１Ａ,,23,116,4680055,,,2024-10-25,清算の結了等,,,2022-11-08,1,,,,,ハウスリフォーム,0
2518,8180003024194,登記記録の閉鎖等,0,2024-11-19,2024-11-06,合同会社そらまめ,,合同会社,愛知県,清須市,寺野郷前６２番地,,23,233,4520908,,,2024-11-06,清算の結了等,,,2022-08-26,1,,,,,ソラマメ,0
2523,8180005018640,登記記録の閉鎖等,0,2024-11-19,2024-11-06,東海産業協同組合,,その他の設立登記法人,愛知県,大府市,吉川町４丁目２７０番地の４,,23,223,4740046,,,2024-11-06,清算の結了等,,,2020-01-21,1,,,,,トウカイサンギョウ,0
2535,8220005007102,登記記録の閉鎖等,0,2024-11-19,2024-11-12,圓照寺,,その他の設立登記法人,石川県,河北郡津幡町,字潟端ト７番地,,17,361,9290346,,,2024-11-12,清算の結了等,,,2015-10-05,1,,,,,エンショウジ,0
2545,8260001021607,登記記録の閉鎖等,0,2024-11-19,2024-11-14,田原汽船株式会社,,株式会社,岡山県,備前市,日生町寒河３９９５番地,,33,211,7013202,,,2024-11-14,清算の結了等,,,2015-10-05,1,,,,,タハラキセン,0
2560,8300001007642,登記記録の閉鎖等,0,2024-11-19,2024-11-14,株式会社からつバーガー西福岡,,株式会社,佐賀県,唐津市,浜玉町浜崎８８８番地,,41,202,8495131,,,2024-11-14,清算の結了等,,,2015-10-05,1,,,,,カラツバーガーニシフクオカ,0
2563,8320002007202,登記記録の閉鎖等,0,2024-11-19,2024-11-14,有限会社ワークル,,有限会社,大分県,大分市,緑が丘５丁目５番１０号,,44,201,8701172,,,2024-11-14,清算の結了等,,,2015-10-05,1,,,,,,0
2569,8370005001362,登記記録の閉鎖等,0,2024-11-19,2024-11-07,学校法人上田学院,,その他の設立登記法人,宮城県,仙台市宮城野区,小田原１丁目２番１８号,,04,102,9830803,,,2024-11-07,清算の結了等,,,2015-10-05,1,,,,,ウエダガクイン,0
2573,8390001013938,登記記録の閉鎖等,0,2024-11-19,2024-11-08,ゆたくら株式会社,,株式会社,山形県,山形市,大字岩波４１番地１０,,06,201,9902403,,,2024-11-08,清算の結了等,,,2015-10-05,1,,,,,ユタクラ,0
2575,8400001015412,登記記録の閉鎖等,0,2024-11-19,2024-11-01,株式会社イース・ピース,,株式会社,岩手県,花巻市,東和町土沢８区２０７番地,,03,205,0280114,,,2024-11-01,清算の結了等,,,2021-04-08,1,,,,,イースピース,0
2579,8420001009065,登記記録の閉鎖等,0,2024-11-19,2024-11-14,株式会社坂本建築設計,,株式会社,青森県,弘前市,大字青樹町８番地５,,02,202,0368246,,,2024-11-14,清算の結了等,,,2015-10-05,1,,,,,サカモトケンチクセッケイ,0
2599,9010001244586,登記記録の閉鎖等,0,2024-11-19,2024-11-05,株式会社セレモアマネジメント,,株式会社,東京都,千代田区,大手町１丁目７番２号,,13,101,1000004,,,2024-11-05,合併による解散等,6010001239713,令和６年１１月２日東京都千代田区大手町一丁目７番２号株式会社ジャパン・セレモニー・ホールディングス（6010001239713）に合併し解散,2024-05-10,1,,,,,セレモアマネジメント,0
2651,9010005036625,登記記録の閉鎖等,0,2024-11-19,2024-11-12,社会保険労務士法人シーエフジェイヒューマンリソースパートナーズ,,その他の設立登記法人,東京都,千代田区,神田神保町３丁目２番地１,,13,101,1010051,,,2024-11-12,清算の結了等,,,2023-05-09,1,,,,,シーエフジェイヒューマンリソースパートナーズ,0
2661,9010401127457,登記記録の閉鎖等,0,2024-11-19,2024-11-01,リタマインド・ジャパン株式会社,,株式会社,東京都,港区,浜松町１丁目６番１５号,,13,103,1050013,,,2024-11-01,清算の結了等,,,2016-10-12,1,,,,,リタマインドジャパン,0
2669,9010403013424,登記記録の閉鎖等,0,2024-11-19,2024-10-31,テラフォームジャパンホールドコ合同会社,,合同会社,東京都,港区,赤坂１丁目１１番４４号赤坂インターシティ６階,,13,103,1070052,,,2024-10-31,清算の結了等,,,2015-10-05,1,,,,,テラフォームジャパンホールドコ,0
2676,9010701004224,登記記録の閉鎖等,0,2024-11-19,2024-11-12,株式会社ジーズバンク,,株式会社,東京都,品川区,東五反田５丁目２１番４号,,13,109,1410022,,,2024-11-12,清算の結了等,,,2015-10-05,1,,,,,ジーズバンク,0
2684,9011001007446,登記記録の閉鎖等,0,2024-11-19,2024-10-18,株式会社ケイリ商会,,株式会社,東京都,渋谷区,恵比寿西２丁目１１番１６号,,13,113,1500021,,,2024-10-18,清算の結了等,,,2015-10-05,1,,,,,ケイリショウカイ,0
2692,9011101089483,登記記録の閉鎖等,0,2024-11-19,2024-11-06,株式会社アポロン,,株式会社,神奈川県,横浜市港北区,新横浜２丁目１５番１２号,,14,109,2220033,,,2024-11-06,清算の結了等,,,2019-11-11,1,,,,,アポロン,0
2710,9011801031232,登記記録の閉鎖等,0,2024-11-19,2024-11-18,株式会社近藤工業,,株式会社,東京都,足立区,保木間２丁目３０番１号,,13,121,1210064,,,2024-11-18,清算の結了等,,,2016-01-07,1,,,,,,0
2721,9013301024591,登記記録の閉鎖等,0,2024-11-19,2024-11-01,株式会社野村エステート,,株式会社,東京都,港区,赤坂８丁目１１番１１号,,13,103,1070052,,,2024-11-01,合併による解散等,6013301003805,令和６年１１月１日東京都港区赤坂九丁目４番１－３９０１号株式会社光陽クリエイト（6013301003805）に合併し解散,2015-10-05,1,,,,,ノムラエステート,0
2722,9013303002777,登記記録の閉鎖等,0,2024-11-19,2024-11-14,ユニバージー５４合同会社,,合同会社,大阪府,大阪市淀川区,西中島７丁目５番２５号,,27,123,5320011,,,2024-11-14,清算の結了等,,,2015-10-05,1,,,,,ユニバージーゴジュウヨン,0
2730,9020002020639,登記記録の閉鎖等,0,2024-11-19,2024-10-31,有限会社井上知明商店,,有限会社,神奈川県,横浜市旭区,三反田町２１６番地,,14,112,2410013,,,2024-10-31,清算の結了等,,,2015-10-05,1,,,,,イノウエトモアキショウテン,0
2731,9020002091275,登記記録の閉鎖等,0,2024-11-19,2024-11-06,有限会社アド・ウォーク,,有限会社,神奈川県,川崎市多摩区,西生田４丁目２４番１９号,,14,135,2140037,,,2024-11-06,清算の結了等,,,2015-10-05,1,,,,,アドウォーク,0
2739,9021002069113,登記記録の閉鎖等,0,2024-11-19,2024-11-18,有限会社オーシャンキッド,,有限会社,神奈川県,横須賀市,船越町６丁目４７番地,,14,201,2370076,,,2024-11-18,清算の結了等,,,2015-10-05,1,,,,,,0
2742,9021002070319,登記記録の閉鎖等,0,2024-11-19,2024-11-18,有限会社エーテック・ヨシノ,,有限会社,神奈川県,横須賀市,池上２丁目１０－１３石渡ビル１階,,14,201,2380035,,,2024-11-18,清算の結了等,,,2015-10-05,1,,,,,,0
2748,9030001051849,登記記録の閉鎖等,0,2024-11-19,2024-11-14,幸伸精機株式会社,,株式会社,埼玉県,北葛飾郡杉戸町,大字堤根２７５９番地,,11,464,3450024,,,2024-11-14,清算の結了等,,,2015-10-05,1,,,,,コウシンセイキ,0
2773,9060001028712,登記記録の閉鎖等,0,2024-11-19,2024-11-14,株式会社割谷総業,,株式会社,栃木県,宇都宮市,江曽島２丁目２２９５番２７,,09,201,3210107,,,2024-11-14,清算の結了等,,,2016-10-13,1,,,,,ワリヤソウギョウ,0
2775,9060002036680,登記記録の閉鎖等,0,2024-11-19,2024-11-12,田所工業有限会社,,有限会社,栃木県,足利市,五十部町３５６番地の１,,09,202,3260843,,,2024-11-12,清算の結了等,,,2015-10-05,1,,,,,タドコロコウギョウ,0
2795,9120001239880,登記記録の閉鎖等,0,2024-11-19,2024-11-14,株式会社ｆｕｋｕｉｃｈｉ,,株式会社,大阪府,大阪市港区,市岡元町３丁目６番２０号１Ｆ,,27,107,5520002,,,2024-11-14,清算の結了等,,,2021-08-20,1,,,,,フクイチ,0
2816,9130001055534,登記記録の閉鎖等,0,2024-11-19,2024-11-15,株式会社おふぃすまぁーと,,株式会社,京都府,福知山市,駅南町３丁目１４７番地,,26,201,6200940,,,2024-11-15,清算の結了等,,,2015-10-05,1,,,,,,0
2829,9140003015270,登記記録の閉鎖等,0,2024-11-19,2024-11-14,クリモト合同会社,,合同会社,兵庫県,神戸市東灘区,住吉本町２丁目２４番３６号,,28,101,6580051,,,2024-11-14,清算の結了等,,,2020-08-18,1,,,,,クリモト,0
2831,9150001006733,登記記録の閉鎖等,0,2024-11-19,2024-11-15,株式会社松前食料品店,,株式会社,奈良県,天理市,三島町１３５番地,,29,204,6320015,,,2024-11-15,清算の結了等,,,2015-10-05,1,,,,,マツマエショクリョウヒンテン,0
2834,9160001021203,登記記録の閉鎖等,0,2024-11-19,2024-11-18,株式会社住まいステーション,,株式会社,滋賀県,大津市,大萱５丁目３４番１号１階,,25,201,5202144,,,2024-11-18,清算の結了等,,,2018-09-27,1,,,,,スマイステーション,0
2843,9180001133698,登記記録の閉鎖等,0,2024-11-19,2024-11-08,株式会社ＳＴＡＲＳ,,株式会社,愛知県,長久手市,塚田５０４番地,,23,238,4801154,,,2024-11-08,清算の結了等,,,2018-09-14,1,,,,,スターズ,0
2856,9200001027559,登記記録の閉鎖等,0,2024-11-19,2024-11-15,株式会社丹羽土木,,株式会社,岐阜県,各務原市,前渡東町２丁目１００番地,,21,213,5040922,,,2024-11-15,清算の結了等,,,2015-10-05,1,,,,,ニワドボク,0
2860,9240001017647,登記記録の閉鎖等,0,2024-11-19,2024-11-18,株式会社かつや食品,,株式会社,広島県,広島市中区,基町１８番６－５２５号,,34,101,7300011,,,2024-11-18,清算の結了等,,,2015-10-05,1,,,,,,0
2861,9240002002375,登記記録の閉鎖等,0,2024-11-19,2024-11-13,エヌ・エム情報システム有限会社,,有限会社,広島県,広島市南区,比治山町１番２２号,,34,103,7320817,,,2024-11-13,清算の結了等,,,2015-10-05,1,,,,,エヌエムジョウホウシステム,0
2870,9260002010376,登記記録の閉鎖等,0,2024-11-19,2024-11-13,有限会社ユアーズ・オフィス,,有限会社,岡山県,岡山市北区,大安寺南町２丁目１１番４６号,,33,101,7000064,,,2024-11-13,清算の結了等,,,2015-10-05,1,,,,,ユアーズオフィス,0
2906,9450005000512,登記記録の閉鎖等,0,2024-11-19,2024-11-18,医療法人社団遠山整形外科医院,,その他の設立登記法人,北海道,旭川市,豊岡四条３丁目２番７号,,01,204,0788234,,,2024-11-18,清算の結了等,,,2015-10-05,1,,,,,トオヤマセイケイゲカイイン,0
