sequenceNumber,corporateNumber,process,correct,updateDate,changeDate,name,nameImageId,kind,prefectureName,cityName,streetNumber,addressImageId,prefectureCode,cityCode,postCode,addressOutside,addressOutsideImageId,closeDate,closeCause,successorCorporateNumber,changeCause,assignmentDate,latest,enName,enPrefectureName,enCityName,enAddressOutside,furigana,hihyoji
3,1010001029697,登記記録の閉鎖等,0,2022-11-18,2022-11-14,株式会社マガジンランド,,株式会社,東京都,千代田区,九段南３丁目４番５号番町ビル４階,,13,101,1020074,,,2022-11-14,清算の結了等,,,2015-10-05,1,,,,,マガジンランド,0
22,1010405015624,登記記録の閉鎖等,0,2022-11-18,2022-11-07,一般社団法人公家有職故実国際普及会,,その他の設立登記法人,東京都,港区,南青山６丁目８番８号－８０２,,13,103,1070062,,,2022-11-07,清算の結了等,,,2017-04-04,1,,,,,クゲユウソクコジツコクサイフキョウカイ,0
51,1011802009334,登記記録の閉鎖等,0,2022-11-18,2022-11-15,有限会社阿由葉製作所,,有限会社,東京都,足立区,柳原１丁目２番６号,,13,121,1200022,,,2022-11-15,清算の結了等,,,2015-10-05,1,,,,,アユハセイサクジョ,0
59,1012801003749,登記記録の閉鎖等,0,2022-11-18,2022-11-10,株式会社エフ・イン・ティ,,株式会社,東京都,立川市,高松町３丁目１４番１１－２０４号,,13,202,1900011,,,2022-11-10,清算の結了等,,,2015-10-05,1,,,,,エフインティ,0
68,1013401001036,登記記録の閉鎖等,0,2022-11-18,2022-11-09,株式会社共同建築研究所,,株式会社,神奈川県,相模原市中央区,高根１丁目９番２－２３０２号,,14,152,2520221,,,2022-11-09,清算の結了等,,,2015-10-05,1,,,,,キョウドウケンチクケンキュウジョ,0
89,1021002068196,登記記録の閉鎖等,0,2022-11-18,2022-11-15,有限会社三進電子,,有限会社,神奈川県,逗子市,山の根３丁目１５番２５号,,14,208,2490002,,,2022-11-15,清算の結了等,,,2015-10-05,1,,,,,サンシンデンシ,0
93,1030001052664,登記記録の閉鎖等,0,2022-11-18,2022-11-10,株式会社エイアンドケイ,,株式会社,埼玉県,春日部市,中央１丁目４番地２日神パレステージ春日部中央８０４号,,11,214,3440067,,,2022-11-10,清算の結了等,,,2015-10-05,1,,,,,エイアンドケイ,0
128,1060001024826,登記記録の閉鎖等,0,2022-11-18,2022-11-14,株式会社つばき電気管理,,株式会社,栃木県,真岡市,下大沼１２９番地１,,09,209,3214357,,,2022-11-14,清算の結了等,,,2015-10-05,1,,,,,ツバキデンキカンリ,0
135,1070002016598,登記記録の閉鎖等,0,2022-11-18,2022-11-11,有限会社松井,,有限会社,群馬県,富岡市,富岡１５７６番地の１,,10,210,3702316,,,2022-11-11,清算の結了等,,,2015-10-05,1,,,,,マツイ,0
137,1080002015566,登記記録の閉鎖等,0,2022-11-18,2022-11-14,有限会社岩勝鉄構,,有限会社,静岡県,焼津市,大島１０６５番地の３,,22,212,4250066,,,2022-11-14,清算の結了等,,,2015-10-05,1,,,,,イワカツテッコウ,0
143,1080402001604,登記記録の閉鎖等,0,2022-11-18,2022-11-17,有限会社大熊鍼灸整骨院,,有限会社,静岡県,浜松市北区,三方原町１８００番地の２,,22,135,4338105,,,2022-11-17,清算の結了等,,,2015-10-05,1,,,,,オオクマシンキュウセイコツイン,0
181,1130002033471,登記記録の閉鎖等,0,2022-11-18,2022-11-11,有限会社堀池製餡,,有限会社,京都府,福知山市,問屋町１１５番地の２,,26,201,6200057,,,2022-11-11,清算の結了等,,,2015-10-05,1,,,,,ホリイケセイアン,0
188,1140005005731,登記記録の閉鎖等,0,2022-11-18,2022-11-09,天理教中神分教会,,その他の設立登記法人,兵庫県,明石市,二見町西二見６３６番地の２,,28,203,6740094,,,2022-11-09,合併による解散等,1140005014831,令和４年１１月９日兵庫県神崎郡神河町新野６３８番地天理教神平分教会（1140005014831）に合併し解散,2015-10-05,1,,,,,テンリキョウチュウシンブンキョウカイ,0
203,1180001143382,登記記録の閉鎖等,0,2022-11-18,2022-11-14,ＩＴＡ不動産株式会社,,株式会社,愛知県,名古屋市緑区,池上台３丁目１１０番地の３７,,23,114,4580044,,,2022-11-14,清算の結了等,,,2020-10-26,1,,,,,アイティエーフドウサン,0
205,1180001145882,登記記録の閉鎖等,0,2022-11-18,2022-11-14,株式会社ＭＫトータルサービス,,株式会社,愛知県,一宮市,苅安賀１丁目１番２２号,,23,203,4910933,,,2022-11-14,清算の結了等,,,2021-04-30,1,,,,,エムケートータルサービス,0
208,1180002005895,登記記録の閉鎖等,0,2022-11-18,2022-11-10,有限会社カンノ塗装店,,有限会社,愛知県,名古屋市港区,遠若町３丁目２７番地レジデンス遠若１０５号,,23,111,4550054,,,2022-11-10,清算の結了等,,,2015-10-05,1,,,,,カンノトソウテン,0
220,1230002006120,登記記録の閉鎖等,0,2022-11-18,2022-11-15,北陸エナジー株式会社,,株式会社,富山県,富山市,八日町５番地,,16,201,9398221,,,2022-11-15,清算の結了等,,,2015-10-05,1,,,,,ホクリクエナジー,0
232,1260003001175,登記記録の閉鎖等,0,2022-11-18,2022-11-17,合同会社ソウルメイト,,合同会社,岡山県,倉敷市,玉島勇崎６番地８,,33,202,7138125,,,2022-11-17,清算の結了等,,,2015-10-05,1,,,,,ソウルメイト,0
235,1280001004590,登記記録の閉鎖等,0,2022-11-18,2022-11-17,株式会社爽やかケア山陰,,株式会社,島根県,江津市,江津町８９０番地２,,32,207,6950011,,,2022-11-17,清算の結了等,,,2015-10-05,1,,,,,サワヤカケアサンイン,0
238,1280001007024,登記記録の閉鎖等,0,2022-11-18,2022-11-16,株式会社隠岐国ワイン,,株式会社,島根県,隠岐郡海士町,大字海士１５１３番地５,,32,525,6840403,,,2022-11-16,清算の結了等,,,2015-10-05,1,,,,,オキクニワニン,0
244,1290002054733,登記記録の閉鎖等,0,2022-11-18,2022-11-10,有限会社成清建設,,有限会社,福岡県,みやま市,瀬高町本郷１４４２番地１,,40,229,8350021,,,2022-11-10,清算の結了等,,,2015-10-05,1,,,,,ナリキヨケンセツ,0
252,1310001006781,登記記録の閉鎖等,0,2022-11-18,2022-11-16,ミューコス株式会社,,株式会社,長崎県,佐世保市,有福町１６１２番地１１,,42,202,8593241,,,2022-11-16,清算の結了等,,,2015-10-05,1,,,,,ミューコス,0
270,1360002013021,登記記録の閉鎖等,0,2022-11-18,2022-11-10,有限会社西武建設,,有限会社,沖縄県,うるま市,勝連平敷屋３９８５番地の１,,47,213,9042314,,,2022-11-10,清算の結了等,,,2015-10-05,1,,,,,ニシタケケンセツ,0
280,1380002006386,登記記録の閉鎖等,0,2022-11-18,2022-11-15,有限会社豊交社,,有限会社,福島県,伊達市,保原町字二丁目２４番地の４,,07,213,9600625,,,2022-11-15,清算の結了等,,,2015-10-05,1,,,,,ホウコウシャ,0
299,1490005000549,登記記録の閉鎖等,0,2022-11-18,2022-11-09,高知県信用漁業協同組合連合会,,その他の設立登記法人,高知県,高知市,本町１丁目６番２１号,,39,201,7800870,,,2022-11-09,合併による解散等,6470005000513,令和４年１１月１日香川県高松市北浜町９番１２号西日本信用漁業協同組合連合会（6470005000513）に合併し解散,2015-10-05,1,,,,,コウチケンシンヨウ,0
301,1500002016265,登記記録の閉鎖等,0,2022-11-18,2022-11-18,有限会社オフィス岡田,,有限会社,愛媛県,新居浜市,中筋町１丁目１４番２５号,,38,205,7920841,,,2022-11-18,清算の結了等,,,2015-10-05,1,,,,,オフィスオカダ,0
302,2010001062623,登記記録の閉鎖等,0,2022-11-18,2022-11-14,株式会社日本レクリエーシヨンサービスセンター,,株式会社,東京都,中央区,銀座３丁目１１番１７号,,13,102,1040061,,,2022-11-14,清算の結了等,,,2015-10-05,1,,,,,ニホンレクリエーションサービスセンター,0
332,2010901004501,登記記録の閉鎖等,0,2022-11-18,2022-11-14,株式会社サンケン,,株式会社,神奈川県,大和市,中央林間西３丁目９番１０号,,14,213,2420008,,,2022-11-14,清算の結了等,,,2015-10-05,1,,,,,サンケン,0
346,2011402018783,登記記録の閉鎖等,0,2022-11-18,2022-11-15,有限会社グリーンマーケット龍,,有限会社,東京都,板橋区,赤塚２丁目１０番１４号,00066443,13,119,1750092,,,2022-11-15,清算の結了等,,,2015-10-05,1,,,,,グリーンマーケットリュウ,0
356,2012401011548,登記記録の閉鎖等,0,2022-11-18,2022-11-15,東光運輸株式会社,,株式会社,東京都,調布市,多摩川５丁目８番地４ラフィーノ多摩川５０３,,13,208,1820025,,,2022-11-15,清算の結了等,,,2015-10-05,1,,,,,トウコウウンユ,0
371,2020002001406,登記記録の閉鎖等,0,2022-11-18,2022-11-15,有限会社岡乃園,,有限会社,神奈川県,横浜市瀬谷区,三ツ境１４番地５,,14,114,2460022,,,2022-11-15,清算の結了等,,,2015-10-05,1,,,,,オカノエン,0
381,2021001071555,登記記録の閉鎖等,0,2022-11-18,2022-11-15,株式会社永住ホーム,,株式会社,神奈川県,大和市,大和南２丁目１３番３号,,14,213,2420016,,,2022-11-15,清算の結了等,,,2020-12-09,1,,,,,エイジュウホーム,0
392,2030002112739,登記記録の閉鎖等,0,2022-11-18,2022-11-08,有限会社石川化工,,有限会社,埼玉県,熊谷市,上川上３３５番地,,11,202,3600004,,,2022-11-08,清算の結了等,,,2015-10-05,1,,,,,イシカワカコウ,0
426,2100005000751,登記記録の閉鎖等,0,2022-11-18,2022-10-25,羽黒神社,,その他の設立登記法人,長野県,長野市,大字山田中１１０４番地,,20,201,3800876,,,2022-10-25,合併による解散等,4100005000287,令和４年１０月２５日長野市大字山田中４２４番地伊勢社（4100005000287）に合併し解散,2015-10-05,1,,,,,ハグロジンジャ,0
431,2120001023829,登記記録の閉鎖等,0,2022-11-18,2022-11-14,新東圧接株式会社,,株式会社,大阪府,大阪市平野区,加美南５丁目９番３３号,,27,126,5470003,,,2022-11-14,清算の結了等,,,2015-10-05,1,,,,,,0
433,2120001128702,登記記録の閉鎖等,0,2022-11-18,2022-11-14,株式会社キャロット,,株式会社,大阪府,大阪市北区,西天満６丁目３番１６号,,27,127,5300047,,,2022-11-14,清算の結了等,,,2015-10-05,1,,,,,キャロット,0
457,2130001049542,登記記録の閉鎖等,0,2022-11-18,2022-11-11,株式会社Ｉ－ＳＯＵＮＤ　ＰＲＯＤＵＣＥ,,株式会社,京都府,八幡市,男山石城１番地－Ｂ３６－４０２,,26,210,6148374,,,2022-11-11,清算の結了等,,,2015-10-05,1,,,,,アイサウンドプロデュース,0
469,2150002007258,登記記録の閉鎖等,0,2022-11-18,2022-11-16,有限会社村口畳工房,,有限会社,三重県,名張市,赤目町一ノ井１１５番地,,24,208,5180468,,,2022-11-16,清算の結了等,,,2015-10-05,1,,,,,ムラグチタタミコウボウ,0
486,2180301021799,登記記録の閉鎖等,0,2022-11-18,2022-11-14,株式会社神戸製陶所,,株式会社,愛知県,豊田市,大林町１４丁目２番地６,,23,211,4730902,,,2022-11-14,清算の結了等,,,2015-10-05,1,,,,,カンベセイトウショ,0
490,2190001014029,登記記録の閉鎖等,0,2022-11-18,2022-11-17,ＷＡＥＩ　ＬＥＤ　ＪＡＰＡＮ株式会社,,株式会社,三重県,鈴鹿市,国府町３３５９番地の３,,24,207,5130836,,,2022-11-17,清算の結了等,,,2015-10-05,1,,,,,,0
503,2280001005530,登記記録の閉鎖等,0,2022-11-18,2022-11-14,ＴＫライツ株式会社,,株式会社,東京都,千代田区,神田佐久間町１丁目１６大橋ビル５０３,,13,101,1010025,,,2022-11-14,清算の結了等,,,2015-10-05,1,,,,,ティーケーライツ,0
518,2330002021141,登記記録の閉鎖等,0,2022-11-18,2022-11-14,有限会社春口電器,,有限会社,熊本県,玉名市,中１７９４番地７,,43,206,8650064,,,2022-11-14,清算の結了等,,,2015-10-05,1,,,,,ハルグチデンキ,0
523,2360001022666,登記記録の閉鎖等,0,2022-11-18,2022-11-11,株式会社トゥモール,,株式会社,沖縄県,石垣市,美崎町１１番地１（８階）,,47,207,9070012,,,2022-11-11,清算の結了等,,,2017-07-20,1,,,,,,0
530,2370802001561,登記記録の閉鎖等,0,2022-11-18,2022-11-10,有限会社ミナミ製作所,,有限会社,宮城県,亘理郡山元町,大平字握１７番地の４,,04,362,9892206,,,2022-11-10,清算の結了等,,,2015-10-05,1,,,,,ミナミセイサクショ,0
553,3010001180003,登記記録の閉鎖等,0,2022-11-18,2022-11-14,株式会社東京不動産,,株式会社,東京都,千代田区,神田和泉町１番地６の１１,,13,101,1010024,,,2022-11-14,清算の結了等,,,2016-12-05,1,,,,,トウキョウフドウサン,0
554,3010001183526,登記記録の閉鎖等,0,2022-11-18,2022-11-10,株式会社ファースト,,株式会社,東京都,文京区,目白台２丁目１０番９号,,13,105,1120015,,,2022-11-10,清算の結了等,,,2017-05-18,1,,,,,ファースト,0
559,3010002019398,登記記録の閉鎖等,0,2022-11-18,2022-11-14,有限会社クリエイティブサークル・パル,,有限会社,東京都,中央区,銀座１丁目９番８号奥野ビル２０１号,,13,102,1040061,,,2022-11-14,清算の結了等,,,2015-10-05,1,,,,,クリエイティブサークルパル,0
563,3010401114799,登記記録の閉鎖等,0,2022-11-18,2022-11-15,株式会社Ｉｎｎｏｖａｔｉｖｅ　Ｈｅａｌｔｈｃａｒｅ　Ｐａｒｔｎｅｒｓ,,株式会社,東京都,千代田区,紀尾井町３番２８号アドミラル紀尾井町,,13,101,1020094,,,2022-11-15,清算の結了等,,,2015-10-05,1,,,,,イノベーティブヘルスケアパートナーズ,0
573,3010601005674,登記記録の閉鎖等,0,2022-11-18,2022-11-14,株式会社ニュー一力,,株式会社,東京都,江東区,富岡１丁目５番１号,,13,108,1350047,,,2022-11-14,清算の結了等,,,2015-10-05,1,,,,,ニューイチリキ,0
586,3011002024900,登記記録の閉鎖等,0,2022-11-18,2022-11-11,有限会社カタ,,有限会社,東京都,渋谷区,東１丁目８番４号井上ビル１階,,13,113,1500011,,,2022-11-11,清算の結了等,,,2015-10-05,1,,,,,カタ,0
621,3020002093145,登記記録の閉鎖等,0,2022-11-18,2022-11-14,有限会社ピーネック,,有限会社,神奈川県,川崎市多摩区,菅２丁目２番８号,,14,135,2140001,,,2022-11-14,清算の結了等,,,2015-10-05,1,,,,,ピーネック,0
622,3020003019636,登記記録の閉鎖等,0,2022-11-18,2022-11-14,合同会社スクウェア,,合同会社,神奈川県,川崎市幸区,幸町３丁目１１番２号フェリーチェ・トレ２０５号室,,14,132,2120011,,,2022-11-14,清算の結了等,,,2021-04-16,1,,,,,スクウェア,0
660,3050005005689,登記記録の閉鎖等,0,2022-11-18,2022-11-08,天理教東古河分教会,,その他の設立登記法人,茨城県,古河市,中央町３丁目２番２５号,,08,204,3060033,,,2022-11-08,合併による解散等,1010605000285,令和４年１０月２８日東京都江東区三好三丁目６番５号天理教常磐分教会（1010605000285）に合併し解散,2015-10-05,1,,,,,,0
692,3120002070489,登記記録の閉鎖等,0,2022-11-18,2022-11-15,サツカワ有限会社,,有限会社,大阪府,大阪市西淀川区,歌島２丁目４番１号,,27,113,5550021,,,2022-11-15,清算の結了等,,,2015-10-05,1,,,,,サツカワ,0
701,3120102013298,登記記録の閉鎖等,0,2022-11-18,2022-11-17,有限会社チャイルドカントリー,,有限会社,大阪府,堺市堺区,楠町１丁１番１１号,,27,141,5900836,,,2022-11-17,清算の結了等,,,2015-10-05,1,,,,,チャイルドカントリー,0
705,3122001009212,登記記録の閉鎖等,0,2022-11-18,2022-11-14,ワイ・エヌ・イ・チムニー株式会社,,株式会社,大阪府,東大阪市,吉松２丁目１番８号,,27,227,5770821,,,2022-11-14,清算の結了等,,,2015-10-05,1,,,,,ワイエヌイチムニー,0
723,3160002004121,登記記録の閉鎖等,0,2022-11-18,2022-11-15,有限会社アルファビジネス,,有限会社,滋賀県,大津市,比叡辻２丁目１７番４号,00044553,25,201,5200104,,,2022-11-15,清算の結了等,,,2015-10-05,1,,,,,アルファビジネス,0
732,3180001103095,登記記録の閉鎖等,0,2022-11-18,2022-11-15,株式会社アセットサポート東海,,株式会社,愛知県,東海市,中央町７丁目１６番地,,23,222,4760013,,,2022-11-15,清算の結了等,,,2015-10-05,1,,,,,アセットサポートトウカイ,0
734,3180001127615,登記記録の閉鎖等,0,2022-11-18,2022-11-14,株式会社ＭＡＴＵＳＨＯ,,株式会社,愛知県,名古屋市天白区,元植田３丁目２２０６番地エステート植田３０２号,,23,116,4680009,,,2022-11-14,清算の結了等,,,2017-05-02,1,,,,,マツショー,0
738,3180002000408,登記記録の閉鎖等,0,2022-11-18,2022-11-14,有限会社川口看板,,有限会社,愛知県,名古屋市守山区,城南町６番２８号,,23,113,4630014,,,2022-11-14,清算の結了等,,,2015-10-05,1,,,,,カワグチカンバン,0
745,3190001018879,登記記録の閉鎖等,0,2022-11-18,2022-11-15,三東ハウジング株式会社,,株式会社,三重県,四日市市,陶栄町３番２号,,24,202,5100035,,,2022-11-15,清算の結了等,,,2022-07-04,1,,,,,サントウハウジング,0
748,3200001028430,登記記録の閉鎖等,0,2022-11-18,2022-11-15,株式会社ライズソリューション,,株式会社,岐阜県,多治見市,西山町４丁目３７番地の６,,21,204,5070066,,,2022-11-15,清算の結了等,,,2015-10-05,1,,,,,ライズソリューション,0
749,3200005012942,登記記録の閉鎖等,0,2022-11-18,2022-11-10,一般社団法人郡上文化スポーツ研究所,,その他の設立登記法人,岐阜県,郡上市,八幡町島谷１３０番地１郡上市役所スポーツ振興課内,,21,219,5014222,,,2022-11-10,清算の結了等,,,2019-05-28,1,,,,,グジョウブンカスポーツケンキュウジョ,0
806,3470002017694,登記記録の閉鎖等,0,2022-11-18,2022-11-16,有限会社ベニヤ衣料センター,,有限会社,香川県,さぬき市,長尾西９８４番地６,,37,206,7692302,,,2022-11-16,清算の結了等,,,2015-10-05,1,,,,,ベニヤイリョウセンター,0
818,4010001222010,登記記録の閉鎖等,0,2022-11-18,2022-11-14,株式会社くらしの不動産,,株式会社,東京都,千代田区,神田佐久間町２丁目２５－２ＩＳＣ秋葉原６Ｆ,,13,101,1010025,,,2022-11-14,清算の結了等,,,2021-10-22,1,,,,,クラシノフドウサン,0
839,4010602030869,登記記録の閉鎖等,0,2022-11-18,2022-11-11,有限会社ＡＫコーポレーション,,有限会社,東京都,墨田区,緑４丁目２４番１３－１１０４号,,13,107,1300021,,,2022-11-11,清算の結了等,,,2015-10-05,1,,,,,エイケーコーポレーション,0
844,4010801009458,登記記録の閉鎖等,0,2022-11-18,2022-11-10,二豊産業株式会社,,株式会社,東京都,大田区,大森西３丁目３２番３号,,13,111,1430015,,,2022-11-10,清算の結了等,,,2015-10-05,1,,,,,ニホウサンギョウ,0
856,4011003004181,登記記録の閉鎖等,0,2022-11-18,2022-11-11,合同会社ＣＯＧ　ＬＡＢ,,合同会社,東京都,渋谷区,神宮前５丁目２７番８号,,13,113,1500001,,,2022-11-11,清算の結了等,,,2015-10-05,1,,,,,コグラボ,0
867,4011602010092,登記記録の閉鎖等,0,2022-11-18,2022-11-16,有限会社矢口,,有限会社,東京都,練馬区,石神井台８丁目２２番２２号,,13,120,1770045,,,2022-11-16,清算の結了等,,,2015-10-05,1,,,,,ヤグチ,0
888,4020001109594,登記記録の閉鎖等,0,2022-11-18,2022-11-11,ジャパン－ガルフ・ハラル株式会社,,株式会社,神奈川県,川崎市川崎区,駅前本町１１番地２川崎フロンティアビル４階,,14,131,2100007,,,2022-11-11,清算の結了等,,,2015-10-05,1,,,,,ジャパンガルフハラル,0
889,4020001131284,登記記録の閉鎖等,0,2022-11-18,2022-11-14,株式会社アクパリエ,,株式会社,神奈川県,横浜市中区,不老町１丁目２番地１,,14,104,2310032,,,2022-11-14,清算の結了等,,,2019-05-28,1,,,,,アクパリエ,0
894,4021001049285,登記記録の閉鎖等,0,2022-11-18,2022-11-02,新東洋サービス株式会社,,株式会社,神奈川県,横須賀市,大滝町１丁目２７番地,,14,201,2380008,,,2022-11-02,清算の結了等,,,2015-10-05,1,,,,,シントウヨウサービス,0
903,4030002022985,登記記録の閉鎖等,0,2022-11-18,2022-11-10,有限会社ケイユウアール,,有限会社,埼玉県,川口市,赤井１丁目１２番１２号,,11,203,3340073,,,2022-11-10,清算の結了等,,,2015-10-05,1,,,,,ケイユウアール,0
908,4030005008783,登記記録の閉鎖等,0,2022-11-18,2022-11-11,特定非営利活動法人チューリップ元気の会,,その他の設立登記法人,埼玉県,川越市,大字砂新田１０５番地５,,11,201,3501137,,,2022-11-11,清算の結了等,,,2015-10-05,1,,,,,チューリップゲンキノカイ,0
910,4030005017999,登記記録の閉鎖等,0,2022-11-18,2022-11-11,一般社団法人Ｗｅｌｌ　Ｃａｔ　Ｈｏｍｅ,,その他の設立登記法人,埼玉県,さいたま市大宮区,堀の内町１丁目２６７番地１－５０４号,,11,103,3300804,,,2022-11-11,清算の結了等,,,2016-06-08,1,,,,,ウェルキャットホーム,0
913,4040001042604,登記記録の閉鎖等,0,2022-11-18,2022-10-26,株式会社全日通,,株式会社,千葉県,八街市,八街い７７番地１７１,,12,230,2891143,,,2022-10-26,合併による解散等,7040001042080,令和４年１０月２６日千葉市花見川区犢橋町１５７２－１株式会社誠宇ジャパン（7040001042080）に合併し解散,2015-10-05,1,,,,,ゼンニッツウ,0
952,4100002029503,登記記録の閉鎖等,0,2022-11-18,2022-11-15,有限会社五味金型,,有限会社,長野県,諏訪郡富士見町,乙事５３８９番地,,20,362,3990213,,,2022-11-15,清算の結了等,,,2015-10-05,1,,,,,ゴミカナガタ,0
964,4120002022976,登記記録の閉鎖等,0,2022-11-18,2022-11-15,有限会社ブレベアル,,有限会社,大阪府,大阪市西区,北堀江１丁目５番２号四ツ橋新興産ビル,,27,106,5500014,,,2022-11-15,清算の結了等,,,2015-10-05,1,,,,,ブレベアル,0
966,4120005009252,登記記録の閉鎖等,0,2022-11-18,2022-11-16,特定非営利活動法人もみじ,,その他の設立登記法人,大阪府,大阪市淀川区,新高１丁目１２番２－８１４号,,27,123,5320033,,,2022-11-16,清算の結了等,,,2015-10-05,1,,,,,モミジ,0
973,4120902008901,登記記録の閉鎖等,0,2022-11-18,2022-11-16,有限会社ツボサカ,,有限会社,大阪府,摂津市,鳥飼西２丁目２９番１号,,27,224,5660072,,,2022-11-16,清算の結了等,,,2015-10-05,1,,,,,ツボサカ,0
976,4122001026041,登記記録の閉鎖等,0,2022-11-18,2022-11-15,株式会社紅葉園,,株式会社,大阪府,八尾市,大字大窪９３３番地の９,,27,212,5810863,,,2022-11-15,清算の結了等,,,2015-10-05,1,,,,,コウヨウエン,0
980,4130001033081,登記記録の閉鎖等,0,2022-11-18,2022-11-15,桝田商事株式会社,,株式会社,京都府,宇治市,伊勢田町中山４８番地の７,,26,204,6110043,,,2022-11-15,清算の結了等,,,2015-10-05,1,,,,,マスダショウジ,0
985,4130002017595,登記記録の閉鎖等,0,2022-11-18,2022-11-14,有限会社八木淡海堂,,有限会社,京都府,京都市中京区,東洞院通二条上る松屋町３２番地,,26,104,6040831,,,2022-11-14,清算の結了等,,,2015-10-05,1,,,,,ヤギタンカイドウ,0
999,4160001007677,登記記録の閉鎖等,0,2022-11-18,2022-11-16,株式会社建築工房おの,,株式会社,滋賀県,長浜市,大依町７４１番地３,,25,203,5260251,,,2022-11-16,清算の結了等,,,2015-10-05,1,,,,,ケンチクコウボウオノ,0
1001,4160001020713,登記記録の閉鎖等,0,2022-11-18,2022-11-16,Ｊｏｙｓｏｎ　Ｓａｆｅｔｙ　Ｓｙｓｔｅｍｓ　Ｓｅｒｖｉｃｅ株式会社,,株式会社,滋賀県,彦根市,金沢町１番地７,,25,202,5211112,,,2022-11-16,合併による解散等,3010701035266,令和４年１１月１日東京都品川区東品川二丁目３番１４号東京フロントテラスＪｏｙｓｏｎ　Ｓａｆｅｔｙ　Ｓｙｓｔｅｍｓ　Ｊａｐａｎ株式会社（3010701035266）に合併し解散,2018-01-29,1,,,,,ジョイソンセイフティシステムズサービス,0
1017,4180003014604,登記記録の閉鎖等,0,2022-11-18,2022-11-14,合同会社Ａｎｋｈ,,合同会社,愛知県,名古屋市北区,成願寺１丁目８番７号,,23,103,4620021,,,2022-11-14,清算の結了等,,,2015-10-05,1,,,,,アンク,0
1035,4230002006588,登記記録の閉鎖等,0,2022-11-18,2022-11-16,有限会社柴田薬局,,有限会社,富山県,富山市,上滝４０４番地,,16,201,9301312,,,2022-11-16,清算の結了等,,,2015-10-05,1,,,,,シバタヤッキョク,0
1042,4290001026739,登記記録の閉鎖等,0,2022-11-18,2022-11-10,株式会社児玉メンテナンス,,株式会社,福岡県,福岡市西区,姪の浜４丁目２２番４７－３０３号,,40,135,8190002,,,2022-11-10,清算の結了等,,,2015-10-05,1,,,,,コダマメンテナンス,0
1062,4330001012131,登記記録の閉鎖等,0,2022-11-18,2022-11-07,株式会社松岡商店,,株式会社,熊本県,玉名市,天水町部田見１６７６番地,,43,206,8615403,,,2022-11-07,清算の結了等,,,2015-10-05,1,,,,,マツオカショウテン,0
1067,4360002015923,登記記録の閉鎖等,0,2022-11-18,2022-11-11,有限会社システム・ショップ・ウィング,,有限会社,沖縄県,中頭郡西原町,字呉屋７２番地の２,,47,329,9030124,,,2022-11-11,清算の結了等,,,2015-10-05,1,,,,,,0
1096,5010001020256,登記記録の閉鎖等,0,2022-11-18,2022-11-14,株式会社水中造形センター,,株式会社,東京都,千代田区,麹町１丁目７番地,,13,101,1020083,,,2022-11-14,清算の結了等,,,2015-10-05,1,,,,,スイチュウゾウケイセンター,0
1098,5010001086727,登記記録の閉鎖等,0,2022-11-18,2022-11-11,ＫＣＳカンパニー株式会社,,株式会社,東京都,墨田区,太平３丁目１０番５号淡海ビル３階,,13,107,1300012,,,2022-11-11,清算の結了等,,,2015-10-05,1,,,,,ケーシーエスカンパニー,0
1104,5010001221408,登記記録の閉鎖等,0,2022-11-18,2022-11-11,株式会社ＺＡＭＯＯＬ,,株式会社,東京都,中央区,銀座７丁目１３番６号サガミビル２階,,13,102,1040061,,,2022-11-11,清算の結了等,,,2021-09-28,1,,,,,ザムール,0
1124,5010602020803,登記記録の閉鎖等,0,2022-11-18,2022-11-14,有限会社ブロン・エ・ブロンシュ・インク,,有限会社,東京都,墨田区,太平１丁目２５番１５号,,13,107,1300012,,,2022-11-14,清算の結了等,,,2015-10-05,1,,,,,ブロンエブロンシュインク,0
1128,5010801016668,登記記録の閉鎖等,0,2022-11-18,2022-11-09,株式会社マックスアプレイザル,,株式会社,東京都,大田区,田園調布１丁目６０番４号,,13,111,1450071,,,2022-11-09,清算の結了等,,,2015-10-05,1,,,,,マックスアプレイザル,0
1143,5011001050672,登記記録の閉鎖等,0,2022-11-18,2022-11-16,株式会社ＬＤＫハンドレット,,株式会社,東京都,渋谷区,神南１丁目３番１１号,,13,113,1500041,,,2022-11-16,清算の結了等,,,2015-10-05,1,,,,,エルディーケーハンドレット,0
1149,5011002016680,登記記録の閉鎖等,0,2022-11-18,2022-11-11,有限会社デジプロ,,有限会社,東京都,渋谷区,恵比寿２丁目２８番１０号,,13,113,1500013,,,2022-11-11,清算の結了等,,,2015-10-05,1,,,,,デジプロ,0
1174,5020002037868,登記記録の閉鎖等,0,2022-11-18,2022-11-08,黒野タイル有限会社,,有限会社,神奈川県,横浜市鶴見区,岸谷２丁目４番１３号,,14,101,2300078,,,2022-11-08,清算の結了等,,,2015-10-05,1,,,,,クロノタイル,0
1196,5030001062833,登記記録の閉鎖等,0,2022-11-18,2022-11-10,株式会社豊和,,株式会社,埼玉県,北本市,北本４丁目６０番地,,11,233,3640006,,,2022-11-10,清算の結了等,,,2015-10-05,1,,,,,ホウワ,0
1199,5030001104032,登記記録の閉鎖等,0,2022-11-18,2022-11-11,株式会社イッポウ,,株式会社,埼玉県,吉川市,中野９９－１,,11,243,3420042,,,2022-11-11,清算の結了等,,,2015-10-05,1,,,,,イッポウ,0
1207,5030005014855,登記記録の閉鎖等,0,2022-11-18,2022-11-08,特定非営利活動法人フラップ飯能,,その他の設立登記法人,埼玉県,飯能市,仲町６番７号,,11,209,3570038,,,2022-11-08,清算の結了等,,,2015-10-05,1,,,,,フラップハンノウ,0
1219,5040005004491,登記記録の閉鎖等,0,2022-11-18,2022-11-08,天理教東浦安分教会,,その他の設立登記法人,千葉県,浦安市,猫実４丁目１４番２号,,12,227,2790004,,,2022-11-08,合併による解散等,1010605000285,令和４年１０月２８日東京都江東区三好三丁目６番５号天理教常磐分教会（1010605000285）に合併し解散,2015-10-05,1,,,,,テンリキョウヒガシウラヤスブンキョウカイ,0
1220,5050001008396,登記記録の閉鎖等,0,2022-11-18,2022-11-14,株式会社藤井製材所,,株式会社,茨城県,笠間市,笠間１１５番地,,08,216,3091611,,,2022-11-14,清算の結了等,,,2015-10-05,1,,,,,フジイセイザイショ,0
1224,5050002020053,登記記録の閉鎖等,0,2022-11-18,2022-11-08,有限会社成島測量設計事務所,,有限会社,茨城県,坂東市,岩井３３２６番地の２,,08,228,3060631,,,2022-11-08,清算の結了等,,,2015-10-05,1,,,,,ナルシマソクリョウセッケイジムショ,0
1230,5080001018475,登記記録の閉鎖等,0,2022-11-18,2022-11-17,株式会社キチジツ,,株式会社,静岡県,静岡市駿河区,南町１０番１１号オラシオン南町１階,,22,102,4228067,,,2022-11-17,清算の結了等,,,2015-10-05,1,,,,,,0
1232,5080002010035,登記記録の閉鎖等,0,2022-11-18,2022-11-16,有限会社新高速,,有限会社,静岡県,静岡市清水区,但沼町１０１１番地の２,,22,103,4240303,,,2022-11-16,清算の結了等,,,2015-10-05,1,,,,,シンコウソク,0
1233,5080002014721,登記記録の閉鎖等,0,2022-11-18,2022-11-17,有限会社松本部品工業所,,有限会社,静岡県,榛原郡吉田町,川尻８３３番地の１,,22,424,4210302,,,2022-11-17,清算の結了等,,,2015-10-05,1,,,,,,0
1238,5110002012003,登記記録の閉鎖等,0,2022-11-18,2022-11-15,有限会社日高,00112810,有限会社,新潟県,新潟市中央区,日の出１丁目１１番１５号,,15,103,9500073,,,2022-11-15,清算の結了等,,,2015-10-05,1,,,,,ヒダカ,0
1243,5120001124186,登記記録の閉鎖等,0,2022-11-18,2022-11-16,株式会社ハエノ,,株式会社,大阪府,大阪市此花区,常吉２丁目５番５５号,,27,104,5540052,,,2022-11-16,清算の結了等,,,2015-10-05,1,,,,,ハエノ,0
1256,5120102010616,登記記録の閉鎖等,0,2022-11-18,2022-11-17,有限会社ふじた,,有限会社,大阪府,堺市中区,深阪６丁２１番３８号,,27,142,5998253,,,2022-11-17,清算の結了等,,,2015-10-05,1,,,,,フジタ,0
1257,5120901002508,登記記録の閉鎖等,0,2022-11-18,2022-11-18,トクヨ商事株式会社,,株式会社,大阪府,茨木市,田中町１５番３１号,,27,211,5670025,,,2022-11-18,清算の結了等,,,2015-10-05,1,,,,,トクヨショウジ,0
1260,5122001024820,登記記録の閉鎖等,0,2022-11-18,2022-11-16,ＴＳ　ＴＵＦＦＴＲＩＤＥ株式会社,,株式会社,大阪府,八尾市,太田新町６丁目３０番地,,27,212,5810039,,,2022-11-16,合併による解散等,1070001033215,令和４年１１月１日群馬県高崎市中尾町３番地２ＴＳ群馬株式会社（1070001033215）に合併し解散,2015-10-05,1,,,,,ティーエスタフトライド,0
1271,5140001106884,登記記録の閉鎖等,0,2022-11-18,2022-11-17,株式会社ＧＡＲＤＥＮ,,株式会社,兵庫県,西宮市,川添町１１番３号,,28,204,6620944,,,2022-11-17,清算の結了等,,,2017-07-13,1,,,,,ガーデン,0
1280,5180001022723,登記記録の閉鎖等,0,2022-11-18,2022-11-16,株式会社古川商店,,株式会社,愛知県,名古屋市熱田区,大瀬子町１０２２番地,,23,109,4560045,,,2022-11-16,清算の結了等,,,2015-10-05,1,,,,,フルカワショウテン,0
1300,5190001008556,登記記録の閉鎖等,0,2022-11-18,2022-11-16,株式会社土永,,株式会社,三重県,伊賀市,下友生２２０６番地,,24,216,5180817,,,2022-11-16,清算の結了等,,,2015-10-05,1,,,,,ツチナガ,0
1305,5240001018062,登記記録の閉鎖等,0,2022-11-18,2022-11-16,佐東株式会社,,株式会社,広島県,広島市南区,宇品海岸２丁目２３－３６－５０６号,,34,103,7340011,,,2022-11-16,清算の結了等,,,2015-10-05,1,,,,,サトウ,0
1339,5330002025791,登記記録の閉鎖等,0,2022-11-18,2022-11-14,有限会社興栄電機産業,,有限会社,熊本県,八代市,麦島西町弐号８番地,,43,202,8660052,,,2022-11-14,清算の結了等,,,2015-10-05,1,,,,,コウエイデンキサンギョウ,0
1360,5430001012178,登記記録の閉鎖等,0,2022-11-18,2022-11-11,中西木材株式会社,,株式会社,北海道,札幌市手稲区,星置南１丁目１番１７号,,01,109,0060050,,,2022-11-11,清算の結了等,,,2015-10-05,1,,,,,ナカニシモクザイ,0
1386,6010001111269,登記記録の閉鎖等,0,2022-11-18,2022-11-14,株式会社板井,,株式会社,東京都,中央区,銀座５丁目４番１５号銀座エフローレビル５・４Ｆ,,13,102,1040061,,,2022-11-14,清算の結了等,,,2015-10-05,1,,,,,イタイ,0
1387,6010001133817,登記記録の閉鎖等,0,2022-11-18,2022-11-14,株式会社アドバンスドレーザーテクノロジー,,株式会社,東京都,多摩市,乞田１１５４番地の１,,13,224,2060014,,,2022-11-14,清算の結了等,,,2015-10-05,1,,,,,アドバンスドレーザーテクノロジー,0
1392,6010401012554,登記記録の閉鎖等,0,2022-11-18,2022-11-07,株式会社シー・エム出版社,,株式会社,東京都,港区,芝大門２丁目１２番６号,,13,103,1050012,,,2022-11-07,清算の結了等,,,2015-10-05,1,,,,,シーエムシュッパンシャ,0
1400,6010401156640,登記記録の閉鎖等,0,2022-11-18,2022-11-02,株式会社Ｃｕｄｄｌｅ,,株式会社,東京都,港区,海岸３丁目８番１４－５０８号,,13,103,1080022,,,2022-11-02,清算の結了等,,,2020-11-20,1,,,,,カドル,0
1418,6010901015684,登記記録の閉鎖等,0,2022-11-18,2022-11-14,株式会社えのき家,,株式会社,東京都,世田谷区,祖師谷６丁目３３番１５号エノキプラザ２Ｆ,,13,112,1570072,,,2022-11-14,清算の結了等,,,2015-10-05,1,,,,,,0
1419,6010901029627,登記記録の閉鎖等,0,2022-11-18,2022-11-15,株式会社ＶＥＮＥＲＥ,,株式会社,東京都,世田谷区,深沢５丁目７番８号,,13,112,1580081,,,2022-11-15,清算の結了等,,,2015-10-05,1,,,,,ヴェネレ,0
1430,6011201015879,登記記録の閉鎖等,0,2022-11-18,2022-11-11,株式会社ファイン,,株式会社,千葉県,千葉市中央区,登戸１丁目１番９－２０１号,,12,101,2600032,,,2022-11-11,清算の結了等,,,2015-10-05,1,,,,,ファイン,0
1435,6011601020801,登記記録の閉鎖等,0,2022-11-18,2022-11-11,アスツール株式会社,,株式会社,東京都,渋谷区,神宮前６丁目２５番１６号,,13,113,1500001,,,2022-11-11,清算の結了等,,,2016-04-04,1,,,,,アスツール,0
1461,6021002047328,登記記録の閉鎖等,0,2022-11-18,2022-11-14,有限会社エービー商会,,有限会社,神奈川県,海老名市,河原口４丁目３番１号,,14,215,2430433,,,2022-11-14,清算の結了等,,,2015-10-05,1,,,,,,0
1462,6021003010524,登記記録の閉鎖等,0,2022-11-18,2022-11-14,合同会社スロッピー,,合同会社,神奈川県,相模原市南区,鵜野森３丁目４０番１２号メーヴェ町田２０５号,,14,153,2520301,,,2022-11-14,清算の結了等,,,2021-05-26,1,,,,,スロッピー,0
1476,6040001097596,登記記録の閉鎖等,0,2022-11-18,2022-11-10,株式会社常総設備,,株式会社,千葉県,我孫子市,布佐２０８５番地の３,,12,222,2701101,,,2022-11-10,清算の結了等,,,2016-11-14,1,,,,,ジョウソウセツビ,0
1481,6040002099344,登記記録の閉鎖等,0,2022-11-18,2022-11-11,有限会社黒川石油,,有限会社,千葉県,館山市,洲宮３３番地,,12,205,2940223,,,2022-11-11,清算の結了等,,,2015-10-05,1,,,,,クロカワセキユ,0
1494,6070001005738,登記記録の閉鎖等,0,2022-11-18,2022-11-14,株式会社たまき,,株式会社,群馬県,前橋市,文京町３丁目１０番１号,,10,201,3710801,,,2022-11-14,清算の結了等,,,2015-10-05,1,,,,,タマキ,0
1504,6110002015541,登記記録の閉鎖等,0,2022-11-18,2022-11-16,有限会社前田紙器店,,有限会社,新潟県,新発田市,大手町２丁目９番９号,,15,206,9570052,,,2022-11-16,清算の結了等,,,2015-10-05,1,,,,,マエタシキテン,0
1507,6120001098768,登記記録の閉鎖等,0,2022-11-18,2022-11-16,冨士工業株式会社,,株式会社,大阪府,大阪市城東区,今福西４丁目４番２３号,,27,118,5360004,,,2022-11-16,清算の結了等,,,2015-10-05,1,,,,,フジコウギョウ,0
1518,6120102003461,登記記録の閉鎖等,0,2022-11-18,2022-11-17,有限会社中坪総合経営事務所,,有限会社,大阪府,堺市南区,赤坂台１丁５６番３号,,27,145,5900144,,,2022-11-17,清算の結了等,,,2015-10-05,1,,,,,ナカツボソウゴウケイエイジムショ,0
1526,6130001014798,登記記録の閉鎖等,0,2022-11-18,2022-11-11,株式会社杉原化成,,株式会社,京都府,京都市伏見区,深草鞍ケ谷１３番地の４４,,26,109,6120822,,,2022-11-11,清算の結了等,,,2015-10-05,1,,,,,スギハラカセイ,0
1531,6130002025803,登記記録の閉鎖等,0,2022-11-18,2022-11-14,有限会社ニシカワ,,有限会社,京都府,長岡京市,河陽が丘２丁目１２番地の１７,,26,209,6170852,,,2022-11-14,清算の結了等,,,2015-10-05,1,,,,,ニシカワ,0
1554,6180002046209,登記記録の閉鎖等,0,2022-11-18,2022-11-15,有限会社三浦ビジネスブレイン,,有限会社,愛知県,名古屋市守山区,長栄９番２１号,,23,113,4630062,,,2022-11-15,清算の結了等,,,2015-10-05,1,,,,,ミウラビジネスブレイン,0
1555,6180002084968,登記記録の閉鎖等,0,2022-11-18,2022-11-14,有限会社東海テクニカル,,有限会社,愛知県,大府市,共西町７丁目３６３番地,,23,223,4740062,,,2022-11-14,清算の結了等,,,2015-10-05,1,,,,,トウカイテクニカル,0
1561,6220002012528,登記記録の閉鎖等,0,2022-11-18,2022-11-16,有限会社大真工業所,,有限会社,石川県,加賀市,大聖寺上木町ホ３３番地,,17,206,9220001,,,2022-11-16,清算の結了等,,,2015-10-05,1,,,,,ダイシンコウギョウショ,0
1564,6230002010563,登記記録の閉鎖等,0,2022-11-18,2022-11-16,有限会社朝日製作所,,有限会社,富山県,高岡市,立野３０６５番地,,16,202,9330325,,,2022-11-16,清算の結了等,,,2015-10-05,1,,,,,アサヒセイサクショ,0
1568,6240002005827,登記記録の閉鎖等,0,2022-11-18,2022-11-16,有限会社幸ビル,,有限会社,広島県,広島市中区,舟入幸町１２番１１号,,34,101,7300844,,,2022-11-16,清算の結了等,,,2015-10-05,1,,,,,ユキビル,0
1583,6290005016957,登記記録の閉鎖等,0,2022-11-18,2022-11-15,一般社団法人日本相続機構,,その他の設立登記法人,福岡県,福岡市中央区,大濠公園２番３５号,,40,133,8100051,,,2022-11-15,清算の結了等,,,2018-08-16,1,,,,,ニホンソウゾクキコウ,0
1597,6350001004612,登記記録の閉鎖等,0,2022-11-18,2022-11-17,三幸商事株式会社,,株式会社,宮崎県,宮崎市,恒久２丁目１８番地１５,,45,201,8800913,,,2022-11-17,清算の結了等,,,2015-10-05,1,,,,,サンコウショウジ,0
1615,6430001081370,登記記録の閉鎖等,0,2022-11-18,2022-11-09,株式会社田沢商会,,株式会社,北海道,岩見沢市,九条東５丁目１番２５号,,01,210,0680009,,,2022-11-09,清算の結了等,,,2020-04-23,1,,,,,タザワショウカイ,0
1618,6450001008842,登記記録の閉鎖等,0,2022-11-18,2022-11-16,安達産業株式会社,,株式会社,北海道,留萌市,沖見町４丁目１１番地,,01,212,0770037,,,2022-11-16,清算の結了等,,,2015-10-05,1,,,,,アダチサンギョウ,0
1628,7010001035517,登記記録の閉鎖等,0,2022-11-18,2022-11-11,株式会社アクトエンタープライズ,,株式会社,東京都,杉並区,浜田山４丁目１８番８－１０５号,,13,115,1680065,,,2022-11-11,清算の結了等,,,2015-10-05,1,,,,,アクトエンタープライズ,0
1633,7010003032082,登記記録の閉鎖等,0,2022-11-18,2022-11-16,合同会社勇七,,合同会社,東京都,千代田区,一番町２２番地７一番町ロイアルハイツ３０４,,13,101,1020082,,,2022-11-16,合併による解散等,6011001132008,令和４年１１月１日東京都渋谷区渋谷二丁目６番１１号花門ビル３ＦＺＵＮＤＡ株式会社（6011001132008）に合併し解散,2020-04-10,1,,,,,ユウシチ,0
1646,7010602008631,登記記録の閉鎖等,0,2022-11-18,2022-11-09,有限会社あだち,,有限会社,東京都,墨田区,向島５丁目２８番１１号,,13,107,1310033,,,2022-11-09,清算の結了等,,,2015-10-05,1,,,,,,0
1647,7010602025544,登記記録の閉鎖等,0,2022-11-18,2022-11-14,有限会社エフネット・コンベンション,,有限会社,東京都,江東区,北砂６丁目１番１０－２０５号,,13,108,1360073,,,2022-11-14,清算の結了等,,,2015-10-05,1,,,,,,0
1655,7010901030955,登記記録の閉鎖等,0,2022-11-18,2022-11-14,株式会社はっくべりー,,株式会社,東京都,世田谷区,祖師谷６丁目３３番１５号エノキプラザ２Ｆ,,13,112,1570072,,,2022-11-14,清算の結了等,,,2015-10-05,1,,,,,ハックベリー,0
1666,7011003013163,登記記録の閉鎖等,0,2022-11-18,2022-11-09,ユニバーサルフラート合同会社,,合同会社,東京都,目黒区,中目黒３丁目６番２号中目黒Ｆ．Ｓビル５階,,13,110,1530061,,,2022-11-09,清算の結了等,,,2021-08-02,1,,,,,ユニバーサルフラート,0
1669,7011205002113,登記記録の閉鎖等,0,2022-11-18,2022-11-11,一般社団法人コミュニティを応援する会,,その他の設立登記法人,東京都,中野区,丸山１丁目１０番１２号,,13,114,1650021,,,2022-11-11,清算の結了等,,,2016-06-08,1,,,,,コミュニティヲオウエンスルカイ,0
1684,7020001089669,登記記録の閉鎖等,0,2022-11-18,2022-11-14,株式会社ワンネットサービス,,株式会社,神奈川県,横浜市保土ケ谷区,藤塚町９番１３号,,14,106,2400031,,,2022-11-14,清算の結了等,,,2015-10-05,1,,,,,ワンネットサービス,0
1712,7030002035142,登記記録の閉鎖等,0,2022-11-18,2022-11-11,有限会社ケイ構造建築設計室,,有限会社,埼玉県,入間市,扇台５丁目９番１０号,,11,225,3580023,,,2022-11-11,清算の結了等,,,2015-10-05,1,,,,,ケイコウゾウケンチクセッケイシツ,0
1713,7030002048210,登記記録の閉鎖等,0,2022-11-18,2022-11-10,有限会社アイエープラニング,,有限会社,埼玉県,三郷市,早稲田７丁目１２番地３９,,11,237,3410018,,,2022-11-10,清算の結了等,,,2015-10-05,1,,,,,アイエープラニング,0
1715,7030002090567,登記記録の閉鎖等,0,2022-11-18,2022-11-11,有限会社ベーシック,,有限会社,埼玉県,三郷市,上彦名２５４番地１寺田ハイツ１０２号,,11,237,3410004,,,2022-11-11,清算の結了等,,,2015-10-05,1,,,,,ベーシック,0
1716,7030002115695,登記記録の閉鎖等,0,2022-11-18,2022-10-28,有限会社五十鈴建設工業,,有限会社,埼玉県,大里郡寄居町,大字鉢形１９０２番地の９,,11,408,3691224,,,2022-10-28,清算の結了等,,,2015-10-05,1,,,,,イスズケンセツコウギョウ,0
1729,7050001021884,登記記録の閉鎖等,0,2022-11-18,2022-11-14,株式会社全国輸送,,株式会社,茨城県,鉾田市,沢尻５９６番地１８,,08,234,3111404,,,2022-11-14,清算の結了等,,,2015-10-05,1,,,,,ゼンコクユソウ,0
1734,7050002012627,登記記録の閉鎖等,0,2022-11-18,2022-11-07,有限会社木鉢坊,,有限会社,茨城県,稲敷郡阿見町,大字若栗３３５３番地の１１,,08,443,3000333,,,2022-11-07,清算の結了等,,,2015-10-05,1,,,,,キハチボウ,0
1735,7050002020679,登記記録の閉鎖等,0,2022-11-18,2022-11-10,日本クライオジェニック有限会社,,有限会社,茨城県,つくば市,松代３丁目２５番地４棟１０１号,,08,220,3050035,,,2022-11-10,清算の結了等,,,2015-10-05,1,,,,,,0
1751,7110002029350,登記記録の閉鎖等,0,2022-11-18,2022-11-15,有限会社メディア技研,,有限会社,新潟県,長岡市,渡場町２番２９号,,15,202,9402003,,,2022-11-15,清算の結了等,,,2015-10-05,1,,,,,メディアギケン,0
1755,7120001167704,登記記録の閉鎖等,0,2022-11-18,2022-11-14,株式会社ビー・ワン,,株式会社,大阪府,大阪市北区,天神橋４丁目４－２田園ビルＢ１,,27,127,5300041,,,2022-11-14,清算の結了等,,,2015-10-05,1,,,,,,0
1758,7120001224595,登記記録の閉鎖等,0,2022-11-18,2022-11-16,スティンジャパン株式会社,,株式会社,大阪府,大阪市中央区,糸屋町２丁目３番２１号７階,,27,128,5400022,,,2022-11-16,清算の結了等,,,2019-10-24,1,,,,,スティンジャパン,0
1763,7120002000938,登記記録の閉鎖等,0,2022-11-18,2022-11-15,有限会社エフエムきかく,,有限会社,大阪府,大阪市鶴見区,諸口２丁目１３番８号,,27,124,5380051,,,2022-11-15,清算の結了等,,,2015-10-05,1,,,,,エフエムキカク,0
1765,7120002022643,登記記録の閉鎖等,0,2022-11-18,2022-11-15,有限会社ナービックブレーン,,有限会社,大阪府,大阪市西区,北堀江１丁目１番４号,,27,106,5500014,,,2022-11-15,清算の結了等,,,2015-10-05,1,,,,,ナービックブレーン,0
1771,7120902019524,登記記録の閉鎖等,0,2022-11-18,2022-11-16,有限会社ヒョウタニ,,有限会社,大阪府,豊中市,庄内幸町２丁目２４番１５号,,27,203,5610833,,,2022-11-16,清算の結了等,,,2015-10-05,1,,,,,ヒョウタニ,0
1785,7130002014210,登記記録の閉鎖等,0,2022-11-18,2022-11-15,有限会社大長,,有限会社,京都府,宇治市,木幡北畠１６番地の３,,26,204,6110002,,,2022-11-15,清算の結了等,,,2015-10-05,1,,,,,ダイチョウ,0
1808,7180002039145,登記記録の閉鎖等,0,2022-11-18,2022-11-14,有限会社カフェドカルダン,,有限会社,愛知県,名古屋市中村区,乾出町２丁目１３番地,,23,105,4530832,,,2022-11-14,清算の結了等,,,2015-10-05,1,,,,,カフェドカルダン,0
1812,7180002087185,登記記録の閉鎖等,0,2022-11-18,2022-11-14,有限会社オーマ,,有限会社,愛知県,半田市,大和町１丁目７５番地,,23,205,4750841,,,2022-11-14,清算の結了等,,,2015-10-05,1,,,,,オーマ,0
1813,7180002092920,登記記録の閉鎖等,0,2022-11-18,2022-11-15,有限会社テイクワン,,有限会社,愛知県,津島市,宮川町２丁目２４番地１,,23,208,4960853,,,2022-11-15,清算の結了等,,,2015-10-05,1,,,,,テイクワン,0
1822,7190003003990,登記記録の閉鎖等,0,2022-11-18,2022-11-15,合同会社もくれん,,合同会社,三重県,四日市市,三ツ谷町１６番２６号－１０２号,,24,202,5100802,,,2022-11-15,清算の結了等,,,2022-05-18,1,,,,,モクレン,0
1858,7290002049744,登記記録の閉鎖等,0,2022-11-18,2022-11-15,有限会社ノグチ・マネージメント,,有限会社,福岡県,久留米市,東櫛原町２０８６番地５,,40,203,8300003,,,2022-11-15,清算の結了等,,,2015-10-05,1,,,,,ノグチマネージメント,0
1866,7290802019186,登記記録の閉鎖等,0,2022-11-18,2022-11-10,有限会社大久,,有限会社,福岡県,北九州市若松区,栄盛川町６番１１号,,40,103,8080014,,,2022-11-10,清算の結了等,,,2015-10-05,1,,,,,ダイキュウ,0
1869,7330002015345,登記記録の閉鎖等,0,2022-11-18,2022-11-15,有限会社エコ・エンジェル,,有限会社,熊本県,熊本市中央区,新屋敷１丁目９番３０－５０６号,,43,101,8620975,,,2022-11-15,清算の結了等,,,2015-10-05,1,,,,,エコエンジェル,0
1886,7380001012487,登記記録の閉鎖等,0,2022-11-18,2022-11-11,エコグリーン株式会社,,株式会社,福島県,いわき市,小名浜上神白字反町３７番地５,,07,204,9700317,,,2022-11-11,清算の結了等,,,2015-10-05,1,,,,,エコグリーン,0
1904,7430002051405,登記記録の閉鎖等,0,2022-11-18,2022-11-09,有限会社吉功,,有限会社,北海道,夕張郡長沼町,旭町南１丁目７番１号,,01,428,0691343,,,2022-11-09,清算の結了等,,,2015-10-05,1,,,,,ヨシコウ,0
1906,7440005002437,登記記録の閉鎖等,0,2022-11-18,2022-11-15,特定非営利活動法人サフィーナ函館,,その他の設立登記法人,北海道,函館市,富岡町１丁目４２番５号,,01,202,0410811,,,2022-11-15,清算の結了等,,,2015-10-05,1,,,,,サフィーナハコダテ,0
1911,7500002021656,登記記録の閉鎖等,0,2022-11-18,2022-11-16,有限会社鈴木隆俊商店,,有限会社,愛媛県,四国中央市,妻鳥町１２番地,,38,213,7990113,,,2022-11-16,清算の結了等,,,2015-10-05,1,,,,,スズキタカトシショウテン,0
1925,8010402006033,登記記録の閉鎖等,0,2022-11-18,2022-11-07,有限会社ジアーロ,,有限会社,東京都,港区,白金３丁目７番６－６０２号,,13,103,1080072,,,2022-11-07,清算の結了等,,,2015-10-05,1,,,,,,0
1931,8010601051680,登記記録の閉鎖等,0,2022-11-18,2022-11-14,株式会社ｄｅ　ｔａｂｌｅ,,株式会社,東京都,墨田区,両国３丁目１０番１－１００２号,,13,107,1300026,,,2022-11-14,清算の結了等,,,2017-06-08,1,,,,,,0
1933,8010602019314,登記記録の閉鎖等,0,2022-11-18,2022-11-10,有限会社ホソカワ興業,,有限会社,東京都,墨田区,八広４丁目１７番２２号,,13,107,1310041,,,2022-11-10,清算の結了等,,,2015-10-05,1,,,,,ホソカワコウギョウ,0
1938,8010803001806,登記記録の閉鎖等,0,2022-11-18,2022-11-09,粉色ＭＯＯＮ合同会社,,合同会社,東京都,大田区,池上８丁目５番２－３０２号,,13,111,1460082,,,2022-11-09,清算の結了等,,,2015-10-05,1,,,,,コナイロムーン,0
1941,8011001047476,登記記録の閉鎖等,0,2022-11-18,2022-11-07,アクロスウェイ株式会社,,株式会社,東京都,港区,白金１丁目２７番６号,,13,103,1080072,,,2022-11-07,合併による解散等,6010001097517,令和４年１１月１日東京都港区白金一丁目２７番６号株式会社ネクストジェン（6010001097517）に合併し解散,2015-10-05,1,,,,,アクロスウェイ,0
1950,8011003010523,登記記録の閉鎖等,0,2022-11-18,2022-11-07,アクセルロボティクスジャパン合同会社,,合同会社,東京都,港区,虎ノ門４丁目３番１号城山トラストタワー２７階,,13,103,1050001,,,2022-11-07,清算の結了等,,,2019-11-12,1,,,,,アクセルロボティクスジャパン,0
1951,8011101044027,登記記録の閉鎖等,0,2022-11-18,2022-11-15,株式会社石垣ビル管財,,株式会社,東京都,新宿区,山吹町３６０番地,,13,104,1620801,,,2022-11-15,清算の結了等,,,2015-10-05,1,,,,,イシガキビルカンザイ,0
1973,8012702006134,登記記録の閉鎖等,0,2022-11-18,2022-11-15,有限会社アイダ建工,,有限会社,東京都,東久留米市,下里２丁目７番６号,,13,222,2030043,,,2022-11-15,清算の結了等,,,2015-10-05,1,,,,,アイダケンコウ,0
1976,8013201016608,登記記録の閉鎖等,0,2022-11-18,2022-11-14,共進住宅販売株式会社,,株式会社,東京都,世田谷区,等々力２丁目１７番１８号２Ｆ,,13,112,1580082,,,2022-11-14,清算の結了等,,,2015-10-05,1,,,,,キョウシンジュウタクハンバイ,0
1978,8020001080263,登記記録の閉鎖等,0,2022-11-18,2022-11-15,ダイエー工業株式会社,,株式会社,神奈川県,川崎市川崎区,日ノ出２丁目１６番１７号,,14,131,2100824,,,2022-11-15,清算の結了等,,,2015-10-05,1,,,,,ダイエーコウギョウ,0
1981,8020002085542,登記記録の閉鎖等,0,2022-11-18,2022-11-14,有限会社ロンズ・ランド,,有限会社,神奈川県,川崎市中原区,下新城３丁目３番９号,,14,133,2110042,,,2022-11-14,清算の結了等,,,2015-10-05,1,,,,,ロンズランド,0
1987,8021001070535,登記記録の閉鎖等,0,2022-11-18,2022-11-10,株式会社メイクノッド,,株式会社,神奈川県,相模原市緑区,西橋本１丁目１３番１６－１０３号,,14,151,2520131,,,2022-11-10,清算の結了等,,,2020-08-14,1,,,,,メイクノッド,0
1992,8030001103840,登記記録の閉鎖等,0,2022-11-18,2022-11-14,株式会社ホクシン,,株式会社,埼玉県,上尾市,原新町２３番４号,,11,219,3620016,,,2022-11-14,清算の結了等,,,2015-10-05,1,,,,,ホクシン,0
2001,8040001105084,登記記録の閉鎖等,0,2022-11-18,2022-11-10,株式会社秀建ビルド,,株式会社,千葉県,浦安市,猫実４丁目２１番１２号,,12,227,2790004,,,2022-11-10,清算の結了等,,,2018-06-21,1,,,,,シュウケンビルド,0
2002,8040001113335,登記記録の閉鎖等,0,2022-11-18,2022-11-01,株式会社ＭＡＭＯＲＵ,,株式会社,千葉県,千葉市花見川区,三角町５２３番地,,12,102,2620011,,,2022-11-01,清算の結了等,,,2020-04-14,1,,,,,マモル,0
2037,8120001143134,登記記録の閉鎖等,0,2022-11-18,2022-11-15,株式会社ドリームホーム,,株式会社,大阪府,大阪市淀川区,東三国１丁目１６番６号,,27,123,5320002,,,2022-11-15,清算の結了等,,,2015-10-05,1,,,,,ドリームホーム,0
2061,8122002003952,登記記録の閉鎖等,0,2022-11-18,2022-11-15,有限会社フォースワン,,有限会社,大阪府,東大阪市,宝持３丁目１番２４号,,27,227,5770805,,,2022-11-15,清算の結了等,,,2015-10-05,1,,,,,フォースワン,0
2067,8140001020694,登記記録の閉鎖等,0,2022-11-18,2022-11-16,エフ・シー・サービス株式会社,,株式会社,兵庫県,神戸市中央区,栄町通３丁目６番７号,,28,110,6500023,,,2022-11-16,清算の結了等,,,2015-10-05,1,,,,,エフシーサービス,0
2069,8140001038555,登記記録の閉鎖等,0,2022-11-18,2022-11-17,ワイ・エスシステム株式会社,,株式会社,兵庫県,たつの市,神岡町大住寺５０４番地７,,28,229,6794108,,,2022-11-17,清算の結了等,,,2015-10-05,1,,,,,ワイエスシステム,0
2094,8180002032090,登記記録の閉鎖等,0,2022-11-18,2022-11-14,有限会社奈か川,,有限会社,愛知県,名古屋市中区,平和１丁目９番１６号,,23,106,4600021,,,2022-11-14,清算の結了等,,,2015-10-05,1,,,,,ナカガワ,0
2095,8180002034905,登記記録の閉鎖等,0,2022-11-18,2022-11-14,有限会社シュガータイム,,有限会社,愛知県,名古屋市名東区,社口２丁目１０１番４０７号,,23,115,4650013,,,2022-11-14,清算の結了等,,,2015-10-05,1,,,,,シュガータイム,0
2099,8180003021539,登記記録の閉鎖等,0,2022-11-18,2022-11-14,センジュ合同会社,,合同会社,愛知県,名古屋市中区,橘１丁目１４番４３号,,23,106,4600016,,,2022-11-14,清算の結了等,,,2020-08-25,1,,,,,センジュ,0
2107,8210002014119,登記記録の閉鎖等,0,2022-11-18,2022-11-16,有限会社久富水産,,有限会社,福井県,大飯郡高浜町,神野浦第８号１９番地,,18,481,9192366,,,2022-11-16,清算の結了等,,,2015-10-05,1,,,,,ヒサトミスイサン,0
2108,8240001057438,登記記録の閉鎖等,0,2022-11-18,2022-11-16,株式会社ＳＴＡＲ　ｔｏ　ｕｐ,,株式会社,広島県,呉市,広両谷３丁目７－２９,,34,202,7370123,,,2022-11-16,清算の結了等,,,2021-02-18,1,,,,,スタートアップ,0
2129,8290003006181,登記記録の閉鎖等,0,2022-11-18,2022-11-14,ヒカリ管理合同会社,,合同会社,福岡県,嘉麻市,山野１９７８番地６,,40,227,8200202,,,2022-11-14,清算の結了等,,,2015-12-04,1,,,,,ヒカリカンリ,0
2130,8290003006223,登記記録の閉鎖等,0,2022-11-18,2022-11-10,合同会社インテリアタケウチ,,合同会社,福岡県,大牟田市,天領町３丁目２番地２４,,40,202,8360054,,,2022-11-10,清算の結了等,,,2016-01-06,1,,,,,インテリアタケウチ,0
2148,8370001042435,登記記録の閉鎖等,0,2022-11-18,2022-11-11,株式会社Ｋ・Ｓ　Ｄｉｎｅｒｓ,,株式会社,宮城県,仙台市青葉区,本町１丁目１５番１０－２０５号,,04,101,9800014,,,2022-11-11,清算の結了等,,,2017-12-21,1,,,,,ケーエスダイナース,0
2161,8420002018726,登記記録の閉鎖等,0,2022-11-18,2022-11-14,有限会社青森フエンス土木,,有限会社,青森県,上北郡六ヶ所村,大字泊字焼山３０７番地,,02,411,0394301,,,2022-11-14,清算の結了等,,,2015-10-05,1,,,,,アオモリフエンスドボク,0
2167,8430002061584,登記記録の閉鎖等,0,2022-11-18,2022-11-10,有限会社曽我牧場,,有限会社,北海道,日高郡新ひだか町,静内浦和２７８番地の２,,01,610,0592562,,,2022-11-10,清算の結了等,,,2015-10-05,1,,,,,ソガボクジョウ,0
2168,8430002062252,登記記録の閉鎖等,0,2022-11-18,2022-11-08,有限会社駿河牧場,,有限会社,北海道,浦河郡浦河町,字絵笛２３５番地,,01,607,0570036,,,2022-11-08,清算の結了等,,,2015-10-05,1,,,,,スルガボクジョウ,0
2179,9010001043856,登記記録の閉鎖等,0,2022-11-18,2022-11-15,株式会社総合防災システム研究所,,株式会社,東京都,千代田区,内神田１丁目１７番８号,,13,101,1010047,,,2022-11-15,清算の結了等,,,2015-10-05,1,,,,,ソウゴウボウサイシステムケンキュウジョ,0
2197,9010003021281,登記記録の閉鎖等,0,2022-11-18,2022-11-14,キルバーン・ハイロード合同会社,,合同会社,東京都,文京区,小石川４丁目１６番９－５０８号,,13,105,1120002,,,2022-11-14,清算の結了等,,,2015-10-05,1,,,,,キルバーンハイロード,0
2199,9010401028606,登記記録の閉鎖等,0,2022-11-18,2022-11-09,ミズホ産業株式会社,,株式会社,神奈川県,横浜市保土ケ谷区,仏向町１０５９番地９８,,14,106,2400044,,,2022-11-09,清算の結了等,,,2015-10-05,1,,,,,ミズホサンギョウ,0
2224,9010601053981,登記記録の閉鎖等,0,2022-11-18,2022-11-11,西諾株式会社,,株式会社,東京都,墨田区,吾妻橋２丁目１６番５号５１７３ｂｕｉｌｄｉｎｇ,,13,107,1300001,,,2022-11-11,清算の結了等,,,2018-09-28,1,,,,,セイダク,0
2236,9011001111421,登記記録の閉鎖等,0,2022-11-18,2022-11-10,Ｓｅｃｏｎｄ　ｉｍｐｒｅｓｓｉｏｎ株式会社,,株式会社,東京都,渋谷区,代々木３丁目３６番８－６０８号,,13,113,1510053,,,2022-11-10,清算の結了等,,,2016-06-14,1,,,,,セカンドインプレッション,0
2275,9020001066328,登記記録の閉鎖等,0,2022-11-18,2022-11-14,株式会社新城電機,,株式会社,神奈川県,川崎市中原区,新城５丁目１番４号,,14,133,2110044,,,2022-11-14,清算の結了等,,,2015-10-05,1,,,,,シンジョウデンキ,0
2281,9021001022592,登記記録の閉鎖等,0,2022-11-18,2022-11-15,株式会社シオヅ,,株式会社,神奈川県,秦野市,西田原５１２番地,,14,211,2570027,,,2022-11-15,清算の結了等,,,2015-10-05,1,,,,,シオヅ,0
2282,9021001039661,登記記録の閉鎖等,0,2022-11-18,2022-11-15,株式会社サンメディアジャパン,,株式会社,神奈川県,小田原市,鴨宮１６２番地１,,14,206,2500874,,,2022-11-15,清算の結了等,,,2015-10-05,1,,,,,サンメディアジャパン,0
2288,9030001103864,登記記録の閉鎖等,0,2022-11-18,2022-11-09,エレクトリックフィールドサービス株式会社,,株式会社,埼玉県,草加市,栄町３丁目１番５号,,11,221,3400011,,,2022-11-09,清算の結了等,,,2015-10-05,1,,,,,エレクトリックフィールドサービス,0
2332,9060002025287,登記記録の閉鎖等,0,2022-11-18,2022-11-14,有限会社桑原電気,,有限会社,栃木県,大田原市,山の手１丁目１１番１０号,,09,210,3240051,,,2022-11-14,清算の結了等,,,2015-10-05,1,,,,,クワハラデンキ,0
2349,9120001025562,登記記録の閉鎖等,0,2022-11-18,2022-11-09,明化産業株式会社,,株式会社,大阪府,大阪市天王寺区,北河堀町１番２５号,,27,109,5430053,,,2022-11-09,清算の結了等,,,2015-10-05,1,,,,,,0
2359,9120001236829,登記記録の閉鎖等,0,2022-11-18,2022-11-14,株式会社トリプルエース,,株式会社,大阪府,大阪市東住吉区,矢田２丁目２０番１２号,,27,121,5460023,,,2022-11-14,清算の結了等,,,2021-04-15,1,,,,,,0
2372,9120101032228,登記記録の閉鎖等,0,2022-11-18,2022-11-14,ダイゲン工業株式会社,,株式会社,大阪府,羽曳野市,羽曳が丘７丁目１０番１号,,27,222,5830864,,,2022-11-14,清算の結了等,,,2015-10-05,1,,,,,ダイゲンコウギョウ,0
2395,9150001009240,登記記録の閉鎖等,0,2022-11-18,2022-11-16,株式会社エスティシィ,,株式会社,奈良県,桜井市,大字巻野内２３２番地の２,,29,206,6330082,,,2022-11-16,清算の結了等,,,2015-10-05,1,,,,,エスティシィ,0
2404,9180001075602,登記記録の閉鎖等,0,2022-11-18,2022-11-14,株式会社エイバン,,株式会社,愛知県,小牧市,小木東２丁目１１８番地,,23,219,4850059,,,2022-11-14,清算の結了等,,,2015-10-05,1,,,,,エイバン,0
2417,9250002000840,登記記録の閉鎖等,0,2022-11-18,2022-10-31,有限会社スタンプシヨツプナカシマ,,有限会社,山口県,山口市,小郡下郷１２１４番地の１,,35,203,7540002,,,2022-10-31,清算の結了等,,,2015-10-05,1,,,,,スタンプシヨツプナカシマ,0
2435,9320002012300,登記記録の閉鎖等,0,2022-11-18,2022-11-17,有限会社べっぷ海鮮市場,,有限会社,大分県,別府市,大字鶴見１２７番地の１,,44,202,8740840,,,2022-11-17,清算の結了等,,,2015-10-05,1,,,,,,0
2451,9370205001491,登記記録の閉鎖等,0,2022-11-18,2022-10-24,栗駒商業振興協同組合,,その他の設立登記法人,宮城県,栗原市,栗駒岩ケ崎六日町３４,,04,213,9895301,,,2022-10-24,清算の結了等,,,2015-10-05,1,,,,,クリコマショウギョウ,0
2453,9380001005646,登記記録の閉鎖等,0,2022-11-18,2022-11-14,株式会社創美,,株式会社,東京都,千代田区,鍛冶町２丁目１０番１１号,,13,101,1010044,,,2022-11-14,清算の結了等,,,2015-10-05,1,,,,,ソウビ,0
2454,9380001013384,登記記録の閉鎖等,0,2022-11-18,2022-11-14,株式会社天竹,,株式会社,福島県,いわき市,郷ケ丘１丁目４７番地の３,,07,204,9708045,,,2022-11-14,清算の結了等,,,2015-10-05,1,,,,,テンチク,0
2473,9460301000883,登記記録の閉鎖等,0,2022-11-18,2022-11-16,豊和通商株式会社,,株式会社,北海道,北見市,末広町３８９番地の２,,01,208,0900826,,,2022-11-16,清算の結了等,,,2015-10-05,1,,,,,ホウワツウショウ,0
