sequenceNumber,corporateNumber,process,correct,updateDate,changeDate,name,nameImageId,kind,prefectureName,cityName,streetNumber,addressImageId,prefectureCode,cityCode,postCode,addressOutside,addressOutsideImageId,closeDate,closeCause,successorCorporateNumber,changeCause,assignmentDate,latest,enName,enPrefectureName,enCityName,enAddressOutside,furigana,hihyoji
9,1010001219959,新規,0,2021-07-29,2021-07-29,株式会社ＩＮＳＰＩＲＥ,,株式会社,東京都,中央区,銀座１丁目１５番７号,,13,102,1040061,,,,,,,2021-07-29,1,,,,,インスパイア,0
10,1010001219975,新規,0,2021-07-29,2021-07-29,株式会社ＡＤＤＨ,,株式会社,東京都,千代田区,九段南１丁目５番６号りそな九段ビル５ＦＫＳフロア,,13,101,1020074,,,,,,,2021-07-29,1,,,,,エーディーディーエイチ,0
12,1010003035421,新規,0,2021-07-29,2021-07-29,合同会社Ｆｏｓｔｅｒ　ｃｉｔｙ,,合同会社,東京都,文京区,西片２丁目８番７号ヴィルナターレＣ,,13,105,1130024,,,,,,,2021-07-29,1,,,,,フォスターシティー,0
13,1010005033687,新規,0,2021-07-29,2021-07-29,久喜開発特定目的会社,,その他の設立登記法人,東京都,千代田区,飯田橋４丁目７番１号結和税理士法人内,,13,101,1020072,,,,,,,2021-07-29,1,,,,,クキカイハツ,0
22,1010401161752,新規,0,2021-07-29,2021-07-29,株式会社デアイトテック,,株式会社,東京都,港区,西新橋３丁目２３－６,,13,103,1050003,,,,,,,2021-07-29,1,,,,,デアイトテック,0
29,1010501047620,新規,0,2021-07-29,2021-07-29,Ｐｕｄｕ　Ｒｏｂｏｔｉｃｓ　Ｊａｐａｎ株式会社,,株式会社,東京都,台東区,浅草橋５丁目１１番８号,,13,106,1110053,,,,,,,2021-07-29,1,,,,,プードゥーロボティクスジャパン,0
30,1010503006335,新規,0,2021-07-29,2021-07-29,和盛合同会社,,合同会社,東京都,台東区,根岸５丁目８－４,,13,106,1100003,,,,,,,2021-07-29,1,,,,,カズモリ,0
32,1010601059714,新規,0,2021-07-29,2021-07-29,株式会社エス・エー・エム,,株式会社,東京都,江東区,猿江２丁目１６－２３－３２２,,13,108,1350003,,,,,,,2021-07-29,1,,,,,エスエーエム,0
37,1010701041332,新規,0,2021-07-29,2021-07-29,株式会社ジェイプラス,,株式会社,東京都,品川区,南品川３丁目４－５,,13,109,1400004,,,,,,,2021-07-29,1,,,,,ジェイプラス,0
49,1010901049175,新規,0,2021-07-29,2021-07-29,株式会社ｎｏｐｒｏ,,株式会社,東京都,世田谷区,玉川３丁目２０番２号マノア玉川第３ビル５０１号室,,13,112,1580094,,,,,,,2021-07-29,1,,,,,ノプロ,0
53,1010903006694,新規,0,2021-07-29,2021-07-29,ＮＴＭ世田谷合同会社,,合同会社,東京都,世田谷区,弦巻３丁目１９番３号,,13,112,1540016,,,,,,,2021-07-29,1,,,,,エヌティーエムセタガヤ,0
58,1011001141946,新規,0,2021-07-29,2021-07-29,株式会社ＣＡＭＰＦＩＲＥ　ＳＯＣＩＡＬ　ＢＡＮＫ,,株式会社,東京都,渋谷区,渋谷２丁目２２番３号,,13,113,1500002,,,,,,,2021-07-29,1,,,,,キャンプファイアソーシャルバンク,0
59,1011001142003,新規,0,2021-07-29,2021-07-29,株式会社ミック動物診療,,株式会社,東京都,渋谷区,松濤２丁目１０番１２－１０２号,,13,113,1500046,,,,,,,2021-07-29,1,,,,,ミックドウブツシンリョウ,0
62,1011101095794,新規,0,2021-07-29,2021-07-29,株式会社ＰＲＯＧＲＩＴ　ＩＮＶＥＳＴ,,株式会社,東京都,新宿区,西新宿４丁目３２番４号,,13,104,1600023,,,,,,,2021-07-29,1,,,,,プログリットインベスト,0
63,1011101095803,新規,0,2021-07-29,2021-07-29,株式会社Ｆｕｎｒｉｘ,,株式会社,東京都,新宿区,西新宿６丁目１０－１日土地西新宿ビル８Ｆ,,13,104,1600023,,,,,,,2021-07-29,1,,,,,ファンリックス,0
64,1011101095860,新規,0,2021-07-29,2021-07-29,株式会社Ｄｒｏｐ,,株式会社,東京都,新宿区,西新宿４丁目４０番３号アクサス初台７０２号室,,13,104,1600023,,,,,,,2021-07-29,1,,,,,ドロップ,0
69,1011305002761,新規,0,2021-07-29,2021-07-29,一般社団法人建設業教育協会,,その他の設立登記法人,東京都,杉並区,永福４丁目１番９号エイジアームズ２－Ｃ,,13,115,1680064,,,,,,,2021-07-29,1,,,,,ケンセツギョウキョウイクキョウカイ,0
70,1011401023570,新規,0,2021-07-29,2021-07-29,ＳＳＤ　Ｆａｃｔｏｒｙ株式会社,,株式会社,東京都,板橋区,大山東町３番３号,,13,119,1730014,,,,,,,2021-07-29,1,,,,,エスエスディーファクトリー,0
72,1011701024574,新規,0,2021-07-29,2021-07-29,株式会社ドレミ,,株式会社,東京都,江戸川区,北葛西４丁目１２番２５－３０２号,,13,123,1340081,,,,,,,2021-07-29,1,,,,,ドレミ,0
76,1011801039506,新規,0,2021-07-29,2021-07-29,ＤＨグローバル株式会社,,株式会社,東京都,足立区,鹿浜７丁目２６－９小宮第一ハイツ１０２号,,13,121,1230864,,,,,,,2021-07-29,1,,,,,ディーエイチグローバル,0
77,1011803004722,新規,0,2021-07-29,2021-07-29,合同会社ＮＯＴ　ＦＯＵＮＤ,,合同会社,東京都,葛飾区,新小岩４丁目１９－２グラン新小岩３０１号室,,13,122,1240024,,,,,,,2021-07-29,1,,,,,ノットファウンド,0
79,1012401038146,新規,0,2021-07-29,2021-07-29,株式会社ワンアジアトレーディング,,株式会社,東京都,調布市,調布ケ丘３丁目３９番１号藤和シティホームズ調布ヶ丘,,13,208,1820021,,,,,,,2021-07-29,1,,,,,ワンアジアトレーディング,0
80,1012403004955,新規,0,2021-07-29,2021-07-29,健幸プラス合同会社,,合同会社,東京都,三鷹市,野崎２丁目１６番１２号,,13,204,1810014,,,,,,,2021-07-29,1,,,,,ケンコウプラス,0
81,1012403004963,新規,0,2021-07-29,2021-07-29,合同会社ＧｒｏｗｔｈＷａｔｃｈ,,合同会社,東京都,小金井市,貫井北町３丁目３７番３－３０４号コーポラス小金井,,13,210,1840015,,,,,,,2021-07-29,1,,,,,グロウスウォッチ,0
86,1013301047781,新規,0,2021-07-29,2021-07-29,ソフト株式会社,,株式会社,東京都,豊島区,南長崎６丁目４番５号ラ・フェニックス１０４,,13,116,1710052,,,,,,,2021-07-29,1,,,,,ソフト,0
89,1013303005762,新規,0,2021-07-29,2021-07-29,合同会社景子,,合同会社,東京都,豊島区,南大塚２丁目１１－１０ミモザビル３階,,13,116,1700005,,,,,,,2021-07-29,1,,,,,ケイコ,0
102,1020001142391,新規,0,2021-07-29,2021-07-29,株式会社ＲＥＢＩＲＴＨ,,株式会社,神奈川県,横浜市青葉区,恩田町２９９３－５トスカーナヒルズ４０２号,,14,117,2270065,,,,,,,2021-07-29,1,,,,,リバース,0
107,1020003020240,新規,0,2021-07-29,2021-07-29,Ｊ－ＲＥＸ合同会社,,合同会社,神奈川県,横浜市磯子区,東町１５番３２号モンビル３０５,,14,107,2350005,,,,,,,2021-07-29,1,,,,,ジェイレックス,0
109,1021001073494,新規,0,2021-07-29,2021-07-29,日本超能株式会社,,株式会社,神奈川県,海老名市,扇町五丁目７番４階,,14,215,2430436,,,,,,,2021-07-29,1,,,,,ニホンチョウノウ,0
110,1021001073503,新規,0,2021-07-29,2021-07-29,株式会社岩松,,株式会社,神奈川県,厚木市,吾妻町１番１７－５０７号,,14,212,2430006,,,,,,,2021-07-29,1,,,,,イワマツ,0
111,1021001073536,新規,0,2021-07-29,2021-07-29,株式会社シンアイ,,株式会社,神奈川県,座間市,南栗原４丁目１６番３０－９０２号ローレルコートかしわ台,,14,216,2520015,,,,,,,2021-07-29,1,,,,,シンアイ,0
113,1030001143323,新規,0,2021-07-29,2021-07-29,株式会社双和,,株式会社,埼玉県,蕨市,塚越１丁目１１番２１号第２コーポ稲垣１０１,,11,223,3350002,,,,,,,2021-07-29,1,,,,,ソウワ,0
114,1030001143538,新規,0,2021-07-29,2021-07-29,株式会社ひかりセレモニー,,株式会社,埼玉県,川越市,大字砂９０３番地５,,11,201,3501133,,,,,,,2021-07-29,1,,,,,ヒカリセレモニー,0
115,1030001143546,新規,0,2021-07-29,2021-07-29,モーゲージ・パートナー株式会社,,株式会社,埼玉県,川口市,朝日２丁目１番２６－３１８号,,11,203,3320001,,,,,,,2021-07-29,1,,,,,モーゲージパートナー,0
123,1040003018225,新規,0,2021-07-29,2021-07-29,ａ．ｉｄｅａｌ合同会社,,合同会社,千葉県,船橋市,前原西２丁目２１番３号６階,,12,204,2740825,,,,,,,2021-07-29,1,,,,,アイデアル,0
126,1050001049592,新規,0,2021-07-29,2021-07-29,株式会社グースマーケット,,株式会社,茨城県,稲敷市,高田１５０３番地,,08,229,3000511,,,,,,,2021-07-29,1,,,,,グースマーケット,0
129,1070003004189,新規,0,2021-07-29,2021-07-29,合同会社ＮＯＫＫＯ,,合同会社,群馬県,高崎市,和田町１０番６号,,10,202,3700847,,,,,,,2021-07-29,1,,,,,ノッコ,0
135,1080101022678,新規,0,2021-07-29,2021-07-29,Ｇａｍｂｉｔ株式会社,,株式会社,静岡県,伊東市,宇佐美１９７１番地の１８,,22,208,4140001,,,,,,,2021-07-29,1,,,,,ギャンビット,0
144,1110005016681,新規,0,2021-07-29,2021-07-29,特定非営利活動法人３Ｙ’ｓＰｒｏ,,その他の設立登記法人,新潟県,妙高市,大字関川２２７５番地４８,,15,217,9492112,,,,,,,2021-07-29,1,,,,,スリーワイズプロ,0
153,1120001239293,新規,0,2021-07-29,2021-07-29,Ａ－ｓｙｓｔｅｍ株式会社,,株式会社,大阪府,門真市,北巣本町３３番３号,,27,223,5710073,,,,,,,2021-07-29,1,,,,,エーシステム,0
154,1120001239310,新規,0,2021-07-29,2021-07-29,株式会社ネヤ川オートグラス,,株式会社,大阪府,寝屋川市,点野２丁目６番８号,,27,215,5720077,,,,,,,2021-07-29,1,,,,,ネヤガワオートグラス,0
155,1120001239319,新規,0,2021-07-29,2021-07-29,株式会社ドローン工務店,,株式会社,大阪府,大阪市西成区,天下茶屋北２丁目１－２０－２Ｆ,,27,122,5570003,,,,,,,2021-07-29,1,,,,,ドローンコウムテン,0
156,1120001239376,新規,0,2021-07-29,2021-07-29,ＳＵＭＵ株式会社,,株式会社,大阪府,大阪市中央区,北浜３丁目１番１２号萬成ビル４階,,27,128,5410041,,,,,,,2021-07-29,1,,,,,スム,0
157,1120001239384,新規,0,2021-07-29,2021-07-29,フジカンパニー株式会社,,株式会社,大阪府,大阪市阿倍野区,松崎町２丁目３番１７号,,27,119,5450053,,,,,,,2021-07-29,1,,,,,フジカンパニー,0
162,1120005022415,新規,0,2021-07-29,2021-07-29,一般財団法人近畿市町村災害復旧相互支援機構,,その他の設立登記法人,大阪府,大阪市中央区,大手前１丁目７番３１号,,27,128,5400008,,,,,,,2021-07-29,1,,,,,キンキシチョウソンサイガイフッキュウソウゴシエンキコウ,0
164,1120103004281,新規,0,2021-07-29,2021-07-29,合同会社Ｏ．Ｎ,,合同会社,大阪府,和泉市,富秋町１丁目３７４番地,,27,219,5940082,,,,,,,2021-07-29,1,,,,,オーエヌ,0
167,1122005003568,新規,0,2021-07-29,2021-07-29,医療法人サンスター,,その他の設立登記法人,大阪府,東大阪市,長田東２丁目２番１４号ＮＢＨビル３Ｆ,,27,227,5770012,,,,,,,2021-07-29,1,,,,,サンスター,0
177,1140001122448,新規,0,2021-07-29,2021-07-29,株式会社セワーズ,,株式会社,兵庫県,尼崎市,七松町１丁目１９番６号,,28,202,6600052,,,,,,,2021-07-29,1,,,,,セワーズ,0
178,1140001122456,新規,0,2021-07-29,2021-07-29,株式会社ＴＭＣインターナショナル,,株式会社,兵庫県,西宮市,常磐町１－３１アットマークビル３Ｆ,,28,204,6620043,,,,,,,2021-07-29,1,,,,,ティーエムシーインターナショナル,0
179,1140001122464,新規,0,2021-07-29,2021-07-29,株式会社ＴＯＫＩ,,株式会社,兵庫県,神戸市垂水区,舞多聞東３丁目７番８号,,28,108,6550052,,,,,,,2021-07-29,1,,,,,トキ,0
180,1140001122472,新規,0,2021-07-29,2021-07-29,株式会社ＩＳ　ＬＩＳＴ,,株式会社,兵庫県,芦屋市,潮見町１７番９号,,28,206,6590043,,,,,,,2021-07-29,1,,,,,イズリスト,0
186,1140003016573,新規,0,2021-07-29,2021-07-29,合同会社Ｃｏｃｃｏｎ,,合同会社,兵庫県,神戸市東灘区,甲南町３丁目５－２０,,28,101,6580084,,,,,,,2021-07-29,1,,,,,ココン,0
192,1150003002440,新規,0,2021-07-29,2021-07-29,合同会社ライフパートナーズ,,合同会社,奈良県,香芝市,鎌田５５３番地２０,,29,210,6390227,,,,,,,2021-07-29,1,,,,,ライフパートナーズ,0
204,1180001147144,新規,0,2021-07-29,2021-07-29,株式会社Ｒｉｎａｔｏ　Ｐｌｕｓ,,株式会社,愛知県,名古屋市中村区,深川町２丁目１３番地,,23,105,4530805,,,,,,,2021-07-29,1,,,,,リナートプラス,0
205,1180001147185,新規,0,2021-07-29,2021-07-29,株式会社Ｃａｍｐｂｅｌｌ．Ｔ,,株式会社,愛知県,名古屋市中区,丸の内２丁目１３番１６号－５０５,,23,106,4600002,,,,,,,2021-07-29,1,,,,,キャンベルドットティー,0
208,1180003022782,新規,0,2021-07-29,2021-07-29,ＹＳＨ合同会社,,合同会社,愛知県,丹羽郡大口町,高橋１丁目８番地,,23,361,4800131,,,,,,,2021-07-29,1,,,,,ワイエスエイチ,0
209,1180003022799,新規,0,2021-07-29,2021-07-29,合同会社ＴＨＥ　ＴＨＩＲＤ,,合同会社,愛知県,春日井市,桃山町５１０２－５,,23,206,4860802,,,,,,,2021-07-29,1,,,,,ザサード,0
222,1220001024322,新規,0,2021-07-29,2021-07-29,株式会社居村鉄建,,株式会社,石川県,金沢市,金石海禅寺町７番１３号,,17,201,9200321,,,,,,,2021-07-29,1,,,,,イムラテッケン,0
223,1220003003092,新規,0,2021-07-29,2021-07-29,合同会社智,,合同会社,石川県,金沢市,北安江２丁目１８番１４号,,17,201,9200022,,,,,,,2021-07-29,1,,,,,トモ,0
227,1240001058343,新規,0,2021-07-29,2021-07-29,株式会社ピーコック,,株式会社,広島県,広島市西区,己斐大迫３丁目４６番２７号,,34,104,7330816,,,,,,,2021-07-29,1,,,,,ピーコック,0
230,1250003002876,新規,0,2021-07-29,2021-07-29,合同会社雫,,合同会社,山口県,下松市,大字河内６２４番地３,,35,207,7440061,,,,,,,2021-07-29,1,,,,,シズク,0
243,1290001094029,新規,0,2021-07-29,2021-07-29,株式会社Ｃｌｏｓｅｒ,,株式会社,福岡県,八女市,吉田１５２番地１,,40,210,8340006,,,,,,,2021-07-29,1,,,,,クローザー,0
244,1290001094103,新規,0,2021-07-29,2021-07-29,株式会社ＴＨＥＡＴＥＲ０,,株式会社,福岡県,福岡市南区,三宅１丁目２７番８号,,40,134,8111344,,,,,,,2021-07-29,1,,,,,シアターゼロ,0
248,1310001017390,新規,0,2021-07-29,2021-07-29,株式会社東来,,株式会社,長崎県,佐世保市,藤原町４２番１４号,,42,202,8570832,,,,,,,2021-07-29,1,,,,,トウライ,0
252,1330005010373,新規,0,2021-07-29,2021-07-29,一般社団法人子ども村,,その他の設立登記法人,熊本県,菊池市,原１５１７番地２,,43,210,8611441,,,,,,,2021-07-29,1,,,,,コドモムラ,0
257,1360003011296,新規,0,2021-07-29,2021-07-29,合同会社みおライズ企画,,合同会社,沖縄県,那覇市,奥武山町２６番地Ｆステージ奥武山公園６０１,,47,201,9000026,,,,,,,2021-07-29,1,,,,,ミオライズキカク,0
261,1360005006476,新規,0,2021-07-29,2021-07-29,一般社団法人沖縄県建設環境コンサルタンツ協会,,その他の設立登記法人,沖縄県,うるま市,字州崎７番地１１,,47,213,9042234,,,,,,,2021-07-29,1,,,,,オキナワケンケンセツカンキョウコンサルタンツキョウカイ,0
269,1380001032053,新規,0,2021-07-29,2021-07-29,ＡＷエンジニアリング株式会社,,株式会社,福島県,郡山市,富田町字北向２５番地ガーデンヒルズ２２１号,,07,203,9638041,,,,,,,2021-07-29,1,,,,,,0
280,1400003002811,新規,0,2021-07-29,2021-07-29,合同会社京真工業,,合同会社,岩手県,紫波郡矢巾町,大字広宮沢第５地割９６番地２,,03,322,0283621,,,,,,,2021-07-29,1,,,,,ケイシンコウギョウ,0
294,1480001011443,新規,0,2021-07-29,2021-07-29,株式会社トクフジ,,株式会社,徳島県,名西郡石井町,石井字石井４７９番地１９,,36,341,7793233,,,,,,,2021-07-29,1,,,,,トクフジ,0
295,1480005006852,新規,0,2021-07-29,2021-07-29,協同組合徳島ウェブアソシエーション,,その他の設立登記法人,徳島県,徳島市,万代町５丁目７１番地,,36,201,7700941,,,,,,,2021-07-29,1,,,,,トクシマウェブアソシエーション,0
300,2010001219917,新規,0,2021-07-29,2021-07-29,Ａｉｒｉｃｈ　Ｆａｒｍ２１株式会社,,株式会社,東京都,千代田区,九段南１丁目５－６りそな九段ビル５階ＫＳフロア,,13,101,1020074,,,,,,,2021-07-29,1,,,,,アイリッチファームトウェンティーワン,0
301,2010001219974,新規,0,2021-07-29,2021-07-29,株式会社ａｔｒｉｕｍ,,株式会社,東京都,文京区,千駄木５丁目２３番５号,,13,105,1130022,,,,,,,2021-07-29,1,,,,,アトリウム,0
302,2010001219990,新規,0,2021-07-29,2021-07-29,Ｒｏｕｔｅ株式会社,,株式会社,東京都,中央区,日本橋兜町１７番１号日本橋ロイヤルプラザ７０６,,13,102,1030026,,,,,,,2021-07-29,1,,,,,ルート,0
303,2010001220024,新規,0,2021-07-29,2021-07-29,株式会社バリュース,,株式会社,東京都,中央区,日本橋蛎殻町２丁目２番１号３階,,13,102,1030014,,,,,,,2021-07-29,1,,,,,バリュース,0
304,2010003035214,新規,0,2021-07-29,2021-07-29,合同会社ｔａｉｒａ,,合同会社,東京都,文京区,西片２丁目１６－２８－４０３,,13,105,1130024,,,,,,,2021-07-29,1,,,,,タイラ,0
305,2010003035420,新規,0,2021-07-29,2021-07-29,合同会社Ｖｏｉｄ－Ｚｅｒｏ,,合同会社,東京都,中央区,月島１丁目３－１４－１２０５,,13,102,1040052,,,,,,,2021-07-29,1,,,,,ヴォイドゼロ,0
306,2010003035429,新規,0,2021-07-29,2021-07-29,ジェネラルアーツ合同会社,,合同会社,東京都,千代田区,九段南１丁目５－６りそな九段ビル５Ｆ，ＫＳフロア,,13,101,1020074,,,,,,,2021-07-29,1,,,,,ジェネラルアーツ,0
313,2010401161710,新規,0,2021-07-29,2021-07-29,株式会社ＬＬグループ,,株式会社,東京都,港区,浜松町２丁目２番１５号,,13,103,1050013,,,,,,,2021-07-29,1,,,,,エルエルグループ,0
314,2010401161743,新規,0,2021-07-29,2021-07-29,株式会社Ｃｒｅａ,,株式会社,東京都,港区,西麻布１丁目８番１２号,,13,103,1060031,,,,,,,2021-07-29,1,,,,,クレア,0
317,2010405020053,新規,0,2021-07-29,2021-07-29,福岡久山特定目的会社,,その他の設立登記法人,東京都,港区,元赤坂１丁目１番８号株式会社赤坂国際会計内,,13,103,1070051,,,,,,,2021-07-29,1,,,,,フクオカヒサヤマ,0
322,2010601059713,新規,0,2021-07-29,2021-07-29,ＰｏｐＡｒｃｈ株式会社,,株式会社,東京都,江東区,東陽３丁目２７番１７号長谷川ビル５階,,13,108,1350016,,,,,,,2021-07-29,1,,,,,ポップアーキ,0
327,2010701041315,新規,0,2021-07-29,2021-07-29,株式会社ローズ・ガーデン,,株式会社,東京都,品川区,東五反田５丁目２７番２－５０６号,,13,109,1410022,,,,,,,2021-07-29,1,,,,,ローズガーデン,0
331,2010703005870,新規,0,2021-07-29,2021-07-29,合同会社ミーノ,,合同会社,東京都,品川区,大崎３丁目５番３号,,13,109,1410032,,,,,,,2021-07-29,1,,,,,ミーノ,0
337,2010803003824,新規,0,2021-07-29,2021-07-29,ＬＵＴＵＶＯ合同会社,,合同会社,東京都,大田区,田園調布２丁目４３番１３号,,13,111,1450071,,,,,,,2021-07-29,1,,,,,ルツボ,0
339,2010901049174,新規,0,2021-07-29,2021-07-29,株式会社ＢＲＩＫ,,株式会社,東京都,世田谷区,太子堂５丁目５番１８号,,13,112,1540004,,,,,,,2021-07-29,1,,,,,ブリック,0
343,2011003013110,新規,0,2021-07-29,2021-07-29,合同会社ｊａｎｓｎａｐ,,合同会社,東京都,渋谷区,円山町５番５号Ｎａｖｉ渋谷Ⅴ３階,00123770,13,113,1500044,,,,,,,2021-07-29,1,,,,,ジャンスナップ,0
352,2011103010899,新規,0,2021-07-29,2021-07-29,合同会社建設木材工学研究所,,合同会社,東京都,新宿区,下落合３丁目１４番３１号,,13,104,1610033,,,,,,,2021-07-29,1,,,,,ケンセツモクザイコウガクケンキュウジョ,0
353,2011201023134,新規,0,2021-07-29,2021-07-29,株式会社サンリングス,,株式会社,東京都,中野区,本町５丁目９番１２号,,13,114,1640012,,,,,,,2021-07-29,1,,,,,サンリングス,0
354,2011301027068,新規,0,2021-07-29,2021-07-29,株式会社ＣＨＡＣＯＲＩ,,株式会社,東京都,杉並区,高円寺北３丁目４５番１６号,,13,115,1660002,,,,,,,2021-07-29,1,,,,,チャコリ,0
362,2011801039505,新規,0,2021-07-29,2021-07-29,株式会社正直不動産,,株式会社,東京都,足立区,新田３丁目３５番２０－１００３号,,13,121,1230865,,,,,,,2021-07-29,1,,,,,ショウジキフドウサン,0
363,2011803004721,新規,0,2021-07-29,2021-07-29,合同会社ＫＡＮＤＡ,,合同会社,東京都,葛飾区,小菅３丁目１０番２４号,,13,122,1240001,,,,,,,2021-07-29,1,,,,,カンダ,0
364,2012401038137,新規,0,2021-07-29,2021-07-29,株式会社ＫＵＭＨＷＡ,,株式会社,東京都,調布市,飛田給１丁目３７番地４カハレア調布５０２,,13,208,1820036,,,,,,,2021-07-29,1,,,,,クムファ,0
366,2012403004962,新規,0,2021-07-29,2021-07-29,Ｔｕｒｍ　Ｄｅｓｉｇｎ　Ｗｏｒｋｓ合同会社,,合同会社,東京都,三鷹市,深大寺１丁目１－３０,,13,204,1810016,,,,,,,2021-07-29,1,,,,,トゥルムデザインワークス,0
373,2013301047780,新規,0,2021-07-29,2021-07-29,東南株式会社,,株式会社,東京都,豊島区,北大塚２丁目１２－７北大塚第十二共同ビル７０１,,13,116,1700004,,,,,,,2021-07-29,1,,,,,トウナン,0
383,2020001142341,新規,0,2021-07-29,2021-07-29,株式会社ナード,,株式会社,神奈川県,川崎市高津区,溝口２丁目１７番３０－２１１号,,14,134,2130001,,,,,,,2021-07-29,1,,,,,ナード,0
384,2020001142374,新規,0,2021-07-29,2021-07-29,３Ｓ＆Ｃｏｍｐａｎｙ株式会社,,株式会社,神奈川県,横浜市神奈川区,金港町２番地１,,14,102,2210056,,,,,,,2021-07-29,1,,,,,スリーエスアンドカンパニー,0
388,2020003020248,新規,0,2021-07-29,2021-07-29,合同会社Ｚｅｒｏｎｅｉｇｈｔ,,合同会社,神奈川県,横浜市都筑区,中川１丁目１１番２５－３０９号,,14,118,2240001,,,,,,,2021-07-29,1,,,,,ゼロネイト,0
391,2021001073493,新規,0,2021-07-29,2021-07-29,株式会社ソフト,,株式会社,神奈川県,厚木市,三田南２丁目１７番３７号,,14,212,2430217,,,,,,,2021-07-29,1,,,,,ソフト,0
392,2021001073519,新規,0,2021-07-29,2021-07-29,株式会社ナルー,,株式会社,神奈川県,藤沢市,鵠沼神明４丁目４番８号１０４,,14,205,2510021,,,,,,,2021-07-29,1,,,,,ナルー,0
396,2030001143495,新規,0,2021-07-29,2021-07-29,株式会社ＷｉｉＲｉｓｅ,,株式会社,埼玉県,さいたま市見沼区,大字小深作６９８番地１,,11,104,3370005,,,,,,,2021-07-29,1,,,,,ウィーライズ,0
402,2040001119528,新規,0,2021-07-29,2021-07-29,株式会社プラスワン,,株式会社,千葉県,松戸市,常盤平柳町１３番地の７,,12,207,2702263,,,,,,,2021-07-29,1,,,,,プラスワン,0
403,2040001119536,新規,0,2021-07-29,2021-07-29,株式会社加藤建材,,株式会社,千葉県,市原市,光風台４丁目１１５２番地１２８,,12,219,2900255,,,,,,,2021-07-29,1,,,,,カトウケンザイ,0
404,2040001119552,新規,0,2021-07-29,2021-07-29,株式会社京栄産業,,株式会社,千葉県,八街市,八街ろ１８３番地１３４,,12,230,2891144,,,,,,,2021-07-29,1,,,,,キョウエイサンギョウ,0
408,2040003018224,新規,0,2021-07-29,2021-07-29,合同会社Ａｓｕｃａｒ,,合同会社,千葉県,船橋市,本町２丁目１９番７－２０２号,,12,204,2730005,,,,,,,2021-07-29,1,,,,,アスカル,0
409,2050001049600,新規,0,2021-07-29,2021-07-29,岩周株式会社,,株式会社,茨城県,常総市,水海道宝町３３８５番地３ダイゼンビル１階,,08,211,3030023,,,,,,,2021-07-29,1,,,,,イワシュウ,0
410,2050001049609,新規,0,2021-07-29,2021-07-29,株式会社ＥＸＰＥＲＴ,,株式会社,茨城県,つくば市,桜２丁目８番地７,,08,220,3050003,,,,,,,2021-07-29,1,,,,,エキスパート,0
414,2060001033941,新規,0,2021-07-29,2021-07-29,株式会社菊地牧場,,株式会社,栃木県,那須郡那珂川町,小川２６４３番地２,,09,411,3240501,,,,,,,2021-07-29,1,,,,,キクチボクジョウ,0
418,2070001038304,新規,0,2021-07-29,2021-07-29,株式会社柿沼ホールディングス,,株式会社,群馬県,邑楽郡千代田町,大字下中森３１４番地１,,10,523,3700724,,,,,,,2021-07-29,1,,,,,カキヌマホールディングス,0
421,2070003004188,新規,0,2021-07-29,2021-07-29,合同会社Ｔａｋａｎｑｏｏ,,合同会社,群馬県,前橋市,天川町１６６７番地２０,,10,201,3710802,,,,,,,2021-07-29,1,,,,,タカンク,0
442,2100005012747,新規,0,2021-07-29,2021-07-29,一般社団法人グッドライフ信州,,その他の設立登記法人,長野県,松本市,庄内１丁目７番１２号,,20,202,3900828,,,,,,,2021-07-29,1,,,,,グッドライフシンシュウ,0
457,2120001239292,新規,0,2021-07-29,2021-07-29,ＰｅｐｅＨｏｍｅ株式会社,,株式会社,大阪府,大阪市北区,野崎町１番３０－２７０５号,,27,127,5300055,,,,,,,2021-07-29,1,,,,,ペペホーム,0
458,2120001239301,新規,0,2021-07-29,2021-07-29,株式会社ＴＯＳ,,株式会社,大阪府,枚方市,津田西町３丁目２１番２２号,,27,210,5730126,,,,,,,2021-07-29,1,,,,,ティーオーエス,0
459,2120001239318,新規,0,2021-07-29,2021-07-29,信達国際株式会社,,株式会社,大阪府,大阪市西成区,北津守２丁目５番７－９号,,27,122,5570061,,,,,,,2021-07-29,1,,,,,シンタツコクサイ,0
460,2120001239334,新規,0,2021-07-29,2021-07-29,株式会社ワイズコーポレーション,,株式会社,大阪府,大阪市鶴見区,浜３丁目８番４６号,,27,124,5380035,,,,,,,2021-07-29,1,,,,,ワイズコーポレーション,0
461,2120001239350,新規,0,2021-07-29,2021-07-29,株式会社アーク,,株式会社,大阪府,大阪市東住吉区,東田辺３丁目９番９号,,27,121,5460032,,,,,,,2021-07-29,1,,,,,アーク,0
462,2120001239367,新規,0,2021-07-29,2021-07-29,ミネルヴァ株式会社,,株式会社,大阪府,大阪市西区,南堀江４丁目７番１－１１２４号,,27,106,5500015,,,,,,,2021-07-29,1,,,,,ミネルヴァ,0
463,2120001239383,新規,0,2021-07-29,2021-07-29,福満株式会社,,株式会社,大阪府,大阪市住之江区,御崎２丁目６番１号,,27,125,5590013,,,,,,,2021-07-29,1,,,,,フクマン,0
464,2120001239391,新規,0,2021-07-29,2021-07-29,株式会社Ｗｏｒｋ　ｏｕｔ,,株式会社,大阪府,大阪市中央区,内淡路町２丁目３番１号ＥＨＨ大手前,,27,128,5400038,,,,,,,2021-07-29,1,,,,,ワークアウト,0
472,2120101064054,新規,0,2021-07-29,2021-07-29,株式会社津﨑,00123769,株式会社,大阪府,松原市,三宅西２丁目１０番１７号,,27,217,5800045,,,,,,,2021-07-29,1,,,,,ツザキ,0
478,2130001069805,新規,0,2021-07-29,2021-07-29,株式会社ＧＲＯＷ,,株式会社,京都府,京都市山科区,御陵岡ノ西町６９－１,,26,110,6078421,,,,,,,2021-07-29,1,,,,,グロウ,0
479,2130003007390,新規,0,2021-07-29,2021-07-29,ＴＭグッド合同会社,,合同会社,京都府,京都市左京区,吉田牛ノ宮町１５番地１２,,26,103,6068302,,,,,,,2021-07-29,1,,,,,ティーエムグッド,0
487,2140001122447,新規,0,2021-07-29,2021-07-29,株式会社梅田住建,,株式会社,兵庫県,尼崎市,下坂部１丁目２２番９号,,28,202,6610975,,,,,,,2021-07-29,1,,,,,ウメダジュウケン,0
488,2140001122455,新規,0,2021-07-29,2021-07-29,株式会社ＲｉＺＥＬ,,株式会社,兵庫県,姫路市,青山北３丁目１３番１２号,,28,201,6712221,,,,,,,2021-07-29,1,,,,,ライゼル,0
489,2140001122463,新規,0,2021-07-29,2021-07-29,株式会社シークレフ,,株式会社,兵庫県,神戸市中央区,磯上通８丁目１番２９号カサベラビルＣ＆Ｍ４０３号室,,28,110,6510086,,,,,,,2021-07-29,1,,,,,シークレフ,0
490,2140001122488,新規,0,2021-07-29,2021-07-29,株式会社ルフルーヴ,,株式会社,兵庫県,養父市,大屋町蔵垣９４７番地,,28,222,6670321,,,,,,,2021-07-29,1,,,,,ルフルーヴ,0
493,2140003016556,新規,0,2021-07-29,2021-07-29,合同会社ぱいかじ,,合同会社,兵庫県,神戸市中央区,磯辺通２丁目２番２５－８０３号,,28,110,6510084,,,,,,,2021-07-29,1,,,,,パイカジ,0
497,2140005025761,新規,0,2021-07-29,2021-07-29,あさごまるまる企業組合,,その他の設立登記法人,兵庫県,朝来市,立脇６６４番地９,,28,225,6793403,,,,,,,2021-07-29,1,,,,,アサゴマルマル,0
501,2160001023511,新規,0,2021-07-29,2021-07-29,株式会社Ｋａｙ,,株式会社,滋賀県,大津市,京町４丁目５番１３号,,25,201,5200044,,,,,,,2021-07-29,1,,,,,ケィ,0
504,2180001146970,新規,0,2021-07-29,2021-07-29,サイドウェル・メンテ株式会社,,株式会社,愛知県,名古屋市緑区,大根山１丁目１６０２番地,,23,114,4598007,,,,,,,2021-07-29,1,,,,,サイドウェルメンテ,0
505,2180001147135,新規,0,2021-07-29,2021-07-29,さくらす春日井開発株式会社,,株式会社,愛知県,春日井市,上条町３丁目２４４番地,,23,206,4860833,,,,,,,2021-07-29,1,,,,,サクラスカスガイカイハツ,0
514,2190001028549,新規,0,2021-07-29,2021-07-29,株式会社ビーオーエヌ,,株式会社,三重県,四日市市,小牧町６６１番地９,,24,202,5121303,,,,,,,2021-07-29,1,,,,,ビーオーエヌ,0
520,2200001038901,新規,0,2021-07-29,2021-07-29,株式会社不破製作所,,株式会社,岐阜県,不破郡垂井町,１６０８番地,,21,361,5032121,,,,,,,2021-07-29,1,,,,,フワセイサクショ,0
525,2220001024321,新規,0,2021-07-29,2021-07-29,株式会社六望,,株式会社,石川県,金沢市,神宮寺２丁目１０番８号,,17,201,9200806,,,,,,,2021-07-29,1,,,,,ロクボウ,0
527,2240001058326,新規,0,2021-07-29,2021-07-29,株式会社スペリオル,,株式会社,広島県,福山市,南松永町２丁目２番３６－２号,,34,207,7290105,,,,,,,2021-07-29,1,,,,,スペリオル,0
528,2240001058342,新規,0,2021-07-29,2021-07-29,株式会社コメフル,,株式会社,広島県,東広島市,八本松飯田４丁目１２－１５,,34,212,7390146,,,,,,,2021-07-29,1,,,,,コメフル,0
530,2250001019021,新規,0,2021-07-29,2021-07-29,エスケーテクノ株式会社,,株式会社,山口県,下松市,藤光町２丁目１３番１０号,,35,207,7440028,,,,,,,2021-07-29,1,,,,,エスケーテクノ,0
531,2250003002875,新規,0,2021-07-29,2021-07-29,合同会社Ｓｔａｎｄ　ｂｙ　Ｍｅ,,合同会社,山口県,岩国市,今津町６丁目１２番２３号,,35,208,7400017,,,,,,,2021-07-29,1,,,,,スタンドバイミー,0
533,2260001035793,新規,0,2021-07-29,2021-07-29,松菱開発株式会社,,株式会社,岡山県,笠岡市,五番町６番地２２,,33,205,7140086,,,,,,,2021-07-29,1,,,,,マツビシカイハツ,0
539,2280001008483,新規,0,2021-07-29,2021-07-29,プラス１警備ＳＳ株式会社,,株式会社,島根県,松江市,八雲町西岩坂８７０番地２,,32,201,6902103,,,,,,,2021-07-29,1,,,,,プラスワンケイビエスエス,0
543,2290001094028,新規,0,2021-07-29,2021-07-29,株式会社エム・ライン,,株式会社,福岡県,飯塚市,鹿毛馬１５３６－３,,40,205,8201112,,,,,,,2021-07-29,1,,,,,エムライン,0
546,2290803003895,新規,0,2021-07-29,2021-07-29,合同会社ハイエンド,,合同会社,福岡県,行橋市,泉中央３丁目６番１４号,,40,213,8240034,,,,,,,2021-07-29,1,,,,,ハイエンド,0
553,2330001028848,新規,0,2021-07-29,2021-07-29,株式会社龍志,,株式会社,熊本県,熊本市東区,上南部４丁目８番２６号,,43,102,8618010,,,,,,,2021-07-29,1,,,,,リュウシ,0
561,2360003011329,新規,0,2021-07-29,2021-07-29,沖縄２４まちづくり合同会社,,合同会社,沖縄県,沖縄市,比屋根６丁目２４番１号１Ｆ,,47,211,9042173,,,,,,,2021-07-29,1,,,,,オキナワニーヨンマチヅクリ,0
564,2370001047381,新規,0,2021-07-29,2021-07-29,株式会社Ｍ’ｓ仙台,,株式会社,宮城県,仙台市若林区,古城１丁目２番１－１３０２号,,04,103,9840825,,,,,,,2021-07-29,1,,,,,エムズセンダイ,0
575,2400001015541,新規,0,2021-07-29,2021-07-29,株式会社カワバタ,,株式会社,岩手県,一関市,藤沢町砂子田字野々田１番地４,,03,209,0293403,,,,,,,2021-07-29,1,,,,,カワバタ,0
578,2420001017528,新規,0,2021-07-29,2021-07-29,株式会社斗南丘デーリィファーム,,株式会社,青森県,むつ市,大字田名部字内田４２番地６００,,02,208,0350021,,,,,,,2021-07-29,1,,,,,トナミガオカデーリイファーム,0
587,2430001084641,新規,0,2021-07-29,2021-07-29,株式会社Ｚｅａｌ　Ｓｉｎｃｅｒｅ,,株式会社,北海道,札幌市北区,屯田九条１０丁目６番１４号,,01,102,0020859,,,,,,,2021-07-29,1,,,,,ジールシンシア,0
595,2490005006792,新規,0,2021-07-29,2021-07-29,特定非営利活動法人高知県断酒連合会,,その他の設立登記法人,高知県,高知市,瀬戸西町１丁目１２７番地二神方,,39,201,7810251,,,,,,,2021-07-29,1,,,,,コウチケンダンシュレンゴウカイ,0
598,2700150104206,新規,0,2021-07-29,2021-07-29,習志野台三街区住宅団地マンション建替組合,,その他,東京都,港区,赤坂１丁目８－１赤坂インターシティＡＩＲ　日鉄興和不動産株式会社内,,13,103,1070052,,,,,,,2021-07-29,1,,,,,ナラシノダイサンガイクジユウタクダンチマンシヨンタテカエクミアイ,0
599,2700150104214,新規,0,2021-07-29,2021-07-29,ＴｅａｍＶｉｅｗｅｒ　Ｇｅｒｍａｎｙ　ＧｍｂＨ,,外国会社等,,,,,,,,Ｊａｈｎｓｔｒ．３０　７３０３７　Ｇｏｅｐｐｉｎｇｅｎ　Ｇｅｒｍａｎｙ,,,,,,2021-07-29,1,,,,,チームビユーアジヤーマニーゲーエムベーハー,0
608,3010001220015,新規,0,2021-07-29,2021-07-29,株式会社ＯＮＬＩＮＥ　ＴＯＫＹＯ,,株式会社,東京都,中央区,銀座１丁目２２番１１号２階,,13,102,1040061,,,,,,,2021-07-29,1,,,,,オンライントウキョウ,0
609,3010001220023,新規,0,2021-07-29,2021-07-29,株式会社アイフォー,,株式会社,東京都,千代田区,麹町２丁目１０番地３,,13,101,1020083,,,,,,,2021-07-29,1,,,,,アイフォー,0
623,3010403025796,新規,0,2021-07-29,2021-07-29,ＶＡＬＥＮＴＩＮＥ　ＷＯＲＫＳ合同会社,,合同会社,東京都,港区,白金３丁目１番１３号日恵ビル２階,,13,103,1080072,,,,,,,2021-07-29,1,,,,,ヴァレンタインワークス,0
627,3010601059712,新規,0,2021-07-29,2021-07-29,株式会社ラディックス,,株式会社,東京都,墨田区,両国３丁目８番６号,,13,107,1300026,,,,,,,2021-07-29,1,,,,,ラディックス,0
628,3010603009062,新規,0,2021-07-29,2021-07-29,セヴン合同会社,,合同会社,東京都,江東区,千石２丁目６番１４号,,13,108,1350015,,,,,,,2021-07-29,1,,,,,セヴン,0
629,3010701041306,新規,0,2021-07-29,2021-07-29,株式会社ＦｅｙＦｅｙ,,株式会社,東京都,品川区,東五反田５丁目２番３７－３０３号,,13,109,1410022,,,,,,,2021-07-29,1,,,,,フェイフェイ,0
630,3010701041322,新規,0,2021-07-29,2021-07-29,株式会社クルミエール,,株式会社,東京都,品川区,戸越６丁目２番１５号,,13,109,1420041,,,,,,,2021-07-29,1,,,,,クルミエール,0
638,3010901049181,新規,0,2021-07-29,2021-07-29,株式会社ＮＯ　ＴＨＥＯＲＹ,,株式会社,東京都,世田谷区,上馬５丁目４０番１１号シャングリラ４０２,,13,112,1540011,,,,,,,2021-07-29,1,,,,,ノーセオリー,0
640,3010903006684,新規,0,2021-07-29,2021-07-29,メディテックＣＬＳテクノロジー合同会社,,合同会社,東京都,世田谷区,若林５丁目７番６号,,13,112,1540023,,,,,,,2021-07-29,1,,,,,メディカルシーエルエステクノロジー,0
641,3010903006692,新規,0,2021-07-29,2021-07-29,Ｌａｐｉｓ　Ｌａｚｕｌｉ合同会社,,合同会社,東京都,世田谷区,尾山台３丁目１３番１号,,13,112,1580086,,,,,,,2021-07-29,1,,,,,ラピスラズリー,0
646,3011001141746,新規,0,2021-07-29,2021-07-29,株式会社ドラビス,,株式会社,東京都,渋谷区,渋谷２丁目１９番１５号宮益坂ビルディングＴｈｅＳＨＩＢＵＹＡＲｅｓｉｄｅｎｃｅ６０９,,13,113,1500002,,,,,,,2021-07-29,1,,,,,ドラビス,0
647,3011001141911,新規,0,2021-07-29,2021-07-29,株式会社アセプト,,株式会社,東京都,渋谷区,渋谷２丁目７番１３号ネオメット青山３階,,13,113,1500002,,,,,,,2021-07-29,1,,,,,アセプト,0
656,3011101095850,新規,0,2021-07-29,2021-07-29,ＢｏＴｒｕｓ株式会社,,株式会社,東京都,新宿区,矢来町３７番地,,13,104,1620805,,,,,,,2021-07-29,1,,,,,ボトルス,0
657,3011101095867,新規,0,2021-07-29,2021-07-29,株式会社Ｐｈｏｅｎｉｘ　ａｎｄ　Ｃｏ,,株式会社,東京都,新宿区,西新宿７丁目５－６－５０２,,13,104,1600023,,,,,,,2021-07-29,1,,,,,フェニックスアンドコー,0
660,3011301027075,新規,0,2021-07-29,2021-07-29,ホームプラス株式会社,,株式会社,東京都,杉並区,下高井戸５丁目９番１２号,,13,115,1680073,,,,,,,2021-07-29,1,,,,,ホームプラス,0
665,3011503004847,新規,0,2021-07-29,2021-07-29,ノボ・ラボ合同会社,,合同会社,東京都,北区,神谷２丁目２０番１２－６０５号コートＫ２,,13,117,1150043,,,,,,,2021-07-29,1,,,,,ノボラボ,0
667,3011601025282,新規,0,2021-07-29,2021-07-29,株式会社田口音楽事務所,,株式会社,東京都,練馬区,旭丘１丁目３８番１３号ドミール榎本３０２,,13,120,1760005,,,,,,,2021-07-29,1,,,,,タグチオンガクジムショ,0
671,3011801039504,新規,0,2021-07-29,2021-07-29,株式会社燻,,株式会社,東京都,足立区,千住４丁目４番７号,,13,121,1200034,,,,,,,2021-07-29,1,,,,,イブシ,0
673,3012303001571,新規,0,2021-07-29,2021-07-29,合同会社スタートアップ,,合同会社,東京都,町田市,本町田２３２０番地１０－１０２,,13,209,1940032,,,,,,,2021-07-29,1,,,,,スタートアップ,0
678,3013301047788,新規,0,2021-07-29,2021-07-29,株式会社ＦｕｎｃｔｉｏｎａｌＬａｂ,,株式会社,東京都,豊島区,東池袋１丁目３４番５号いちご東池袋ビル６階,,13,116,1700013,,,,,,,2021-07-29,1,,,,,ファンクショナルラボ,0
679,3013301047796,新規,0,2021-07-29,2021-07-29,ｓｔｕｄｉｏ　ＵＳ株式会社,,株式会社,東京都,豊島区,東池袋１丁目４２番１４号,,13,116,1700013,,,,,,,2021-07-29,1,,,,,スタジオアス,0
687,3020001142357,新規,0,2021-07-29,2021-07-29,株式会社ＷＡＴＥＲ　ＦＡＬＬ,,株式会社,神奈川県,横浜市南区,東蒔田町７番地４,,14,105,2320045,,,,,,,2021-07-29,1,,,,,ウォーターフォール,0
688,3020001142373,新規,0,2021-07-29,2021-07-29,株式会社こもれび,,株式会社,神奈川県,川崎市多摩区,生田８丁目２番３号,,14,135,2140038,,,,,,,2021-07-29,1,,,,,コモレビ,0
689,3020001142398,新規,0,2021-07-29,2021-07-29,株式会社ＴＡＫコンサルティング,,株式会社,神奈川県,横浜市西区,浅間町１丁目４番地１２斉藤ビル５Ｆ,,14,103,2200072,,,,,,,2021-07-29,1,,,,,ティーエーケーコンサルティング,0
692,3020003020239,新規,0,2021-07-29,2021-07-29,ＦＥＲＮＡ合同会社,,合同会社,神奈川県,横浜市金沢区,泥亀１丁目１５番６号若栗ビル２Ｆ,,14,108,2360021,,,,,,,2021-07-29,1,,,,,フェルナ,0
694,3021001073518,新規,0,2021-07-29,2021-07-29,ＤａｖＲｕ株式会社,,株式会社,神奈川県,厚木市,飯山１１２１番地２,,14,212,2430213,,,,,,,2021-07-29,1,,,,,ダブル,0
699,3030001143544,新規,0,2021-07-29,2021-07-29,ＧＡＵＴＡＭ　ＢＲＯＴＨＥＲ株式会社,,株式会社,埼玉県,川口市,末広１丁目２８番１６号,,11,203,3320006,,,,,,,2021-07-29,1,,,,,ガウタムブラザー,0
703,3040001119527,新規,0,2021-07-29,2021-07-29,株式会社高本建設工業,00123768,株式会社,千葉県,白井市,西白井３丁目１３番地５３ＳＫガレジオ西白井３－Ａ,,12,232,2701408,,,,,,,2021-07-29,1,,,,,タカモトケンセツコウギョウ,0
704,3040001119535,新規,0,2021-07-29,2021-07-29,株式会社ＹＳ物流,,株式会社,千葉県,袖ケ浦市,蔵波台５丁目１７番地１２,,12,229,2990245,,,,,,,2021-07-29,1,,,,,ワイエスブツリュウ,0
705,3040001119551,新規,0,2021-07-29,2021-07-29,株式会社新道,,株式会社,千葉県,山武郡九十九里町,片貝６９２８番地９８,,12,403,2830104,,,,,,,2021-07-29,1,,,,,シンドウ,0
709,3050001049599,新規,0,2021-07-29,2021-07-29,ＴＳＵＮＡＧＵ株式会社,,株式会社,茨城県,つくばみらい市,小張２６６８番地３,,08,235,3002353,,,,,,,2021-07-29,1,,,,,ツナグ,0
719,3080001024319,新規,0,2021-07-29,2021-07-29,株式会社３３ｐｌａｃｅ,,株式会社,静岡県,静岡市葵区,大岩本町１７番３０号,,22,101,4200884,,,,,,,2021-07-29,1,,,,,サーティーサードプレイス,0
736,3120001239291,新規,0,2021-07-29,2021-07-29,ＴＲＧＪ株式会社,,株式会社,大阪府,大阪市生野区,田島２丁目９番１３号,,27,116,5440011,,,,,,,2021-07-29,1,,,,,ティーアールジージェイ,0
737,3120001239317,新規,0,2021-07-29,2021-07-29,株式会社ｙｏｕ＆ｍｅＤＳＰＨ,,株式会社,大阪府,大阪市都島区,都島北通２丁目１９番２７－４０３号,,27,102,5340014,,,,,,,2021-07-29,1,,,,,ユーアンドミーディーエスピーエイチ,0
738,3120001239325,新規,0,2021-07-29,2021-07-29,株式会社ゼロドアＨＤ,,株式会社,大阪府,大阪市西区,西本町１丁目４番１号,,27,106,5500005,,,,,,,2021-07-29,1,,,,,ゼロドアホールディングス,0
739,3120001239390,新規,0,2021-07-29,2021-07-29,株式会社ＭＤすまいる,,株式会社,大阪府,大阪市浪速区,日本橋西２丁目８番７－２０１号,,27,111,5560004,,,,,,,2021-07-29,1,,,,,エムディースマイル,0
740,3120001239399,新規,0,2021-07-29,2021-07-29,株式会社ＣＬＡＰ,,株式会社,大阪府,大阪市淀川区,木川東３丁目４番１８号中村第２ビル６０３,,27,123,5320012,,,,,,,2021-07-29,1,,,,,クラップ,0
741,3120001239408,新規,0,2021-07-29,2021-07-29,株式会社パネース,,株式会社,大阪府,大阪市中央区,船越町２丁目３－８天満橋ガーデンハイツ６０８号,,27,128,5400036,,,,,,,2021-07-29,1,,,,,パネース,0
742,3120001239416,新規,0,2021-07-29,2021-07-29,株式会社ＧＵＧＥＮ,,株式会社,大阪府,大阪市中央区,平野町３丁目６番１号,,27,128,5410046,,,,,,,2021-07-29,1,,,,,グゲン,0
743,3120001239449,新規,0,2021-07-29,2021-07-29,株式会社Ａｂｉｌｉｔｙ　Ｄｅｓｉｇｎ　Ｏｆｆｉｃｅ,,株式会社,大阪府,大阪市中央区,本町４丁目４番１７号ＲＥ－０１２ビル７０５号,,27,128,5410053,,,,,,,2021-07-29,1,,,,,アビリティデザインオフィス,0
745,3120003019907,新規,0,2021-07-29,2021-07-29,合同会社ｌｉｎｏ,,合同会社,大阪府,交野市,森南１丁目９番１３－１０８号,,27,230,5760031,,,,,,,2021-07-29,1,,,,,リノ,0
746,3120003019931,新規,0,2021-07-29,2021-07-29,合同会社ＸＵＡＮ　ＴＲＵＯＮＧ,,合同会社,大阪府,大阪市生野区,生野西１丁目１０番２９号,,27,116,5440024,,,,,,,2021-07-29,1,,,,,スアンチュオン,0
749,3120005022421,新規,0,2021-07-29,2021-07-29,医療法人山上歯科,,その他の設立登記法人,大阪府,門真市,新橋町３番３－３０２号門真プラザ３階,,27,223,5710048,,,,,,,2021-07-29,1,,,,,ヤマガミシカ,0
752,3120101064061,新規,0,2021-07-29,2021-07-29,ＡＬＡＫＩ　ＸＲ株式会社,,株式会社,大阪府,松原市,新堂２丁目３２５－１３,,27,217,5800015,,,,,,,2021-07-29,1,,,,,アラキエックスアール,0
762,3130001069812,新規,0,2021-07-29,2021-07-29,株式会社メディアジャパン,,株式会社,京都府,京都市上京区,中立売通日暮東入新白水丸町４５２番地１,,26,102,6028205,,,,,,,2021-07-29,1,,,,,メディアジャパン,0
763,3130001069820,新規,0,2021-07-29,2021-07-29,株式会社ガナドール,,株式会社,京都府,京都市下京区,芦刈山町１２４番地,,26,106,6008473,,,,,,,2021-07-29,1,,,,,ガナドール,0
770,3140001122438,新規,0,2021-07-29,2021-07-29,株式会社ＡＺＥＮＩＴＨ,,株式会社,兵庫県,神戸市中央区,御幸通８丁目１番６号神戸国際会館２２階,,28,110,6510087,,,,,,,2021-07-29,1,,,,,アゼニス,0
771,3140001122446,新規,0,2021-07-29,2021-07-29,株式会社八星ファシリティ,,株式会社,兵庫県,姫路市,飾東町豊国３９９番地,,28,201,6710219,,,,,,,2021-07-29,1,,,,,ハッセイファシリティ,0
772,3140001122454,新規,0,2021-07-29,2021-07-29,株式会社ＧｉＶＥ,,株式会社,兵庫県,姫路市,青山北３丁目１３番１２号,,28,201,6712221,,,,,,,2021-07-29,1,,,,,ギブ,0
773,3140001122462,新規,0,2021-07-29,2021-07-29,藤本貴昭株式会社,,株式会社,兵庫県,赤穂郡上郡町,赤松４１４番地,,28,481,6781273,,,,,,,2021-07-29,1,,,,,フジモトタカアキ,0
774,3140001122470,新規,0,2021-07-29,2021-07-29,株式会社Ｂｒｉｌｌｉａｎｔ由梨Ｏｆｆｉｃｅ,,株式会社,兵庫県,芦屋市,呉川町１９番３－３０６号,,28,206,6590051,,,,,,,2021-07-29,1,,,,,ブリリアントユリオフィス,0
785,3140003016563,新規,0,2021-07-29,2021-07-29,合同会社ドキドキわくわく,,合同会社,兵庫県,高砂市,荒井町小松原１丁目７番６号,,28,216,6760011,,,,,,,2021-07-29,1,,,,,ドキドキワクワク,0
786,3140003016571,新規,0,2021-07-29,2021-07-29,合同会社Ｓｐｉｃａ,,合同会社,兵庫県,姫路市,辻井１丁目１２番２０号マインドハイツ辻井Ａ２０１,00123767,28,201,6700083,,,,,,,2021-07-29,1,,,,,スピカ,0
787,3140005025760,新規,0,2021-07-29,2021-07-29,一般社団法人ザ・わがままハウス,,その他の設立登記法人,兵庫県,西宮市,津門綾羽町５番４号,,28,204,6638244,,,,,,,2021-07-29,1,,,,,ザワガママハウス,0
788,3150003002439,新規,0,2021-07-29,2021-07-29,合同会社ワンストップ,,合同会社,奈良県,奈良市,般若寺町３０６－１７,,29,201,6308102,,,,,,,2021-07-29,1,,,,,ワンストップ,0
789,3160001023510,新規,0,2021-07-29,2021-07-29,モーリ株式会社,,株式会社,滋賀県,彦根市,大堀町４８２番地１３,,25,202,5220026,,,,,,,2021-07-29,1,,,,,モーリ,0
790,3170003001604,新規,0,2021-07-29,2021-07-29,合同会社中尾明文堂,,合同会社,和歌山県,有田市,箕島４４３番地４,,30,204,6490304,,,,,,,2021-07-29,1,,,,,ナカオメイブンドウ,0
803,3180001147134,新規,0,2021-07-29,2021-07-29,株式会社青空,,株式会社,愛知県,一宮市,大毛字南新開１５番地１,,23,203,4910132,,,,,,,2021-07-29,1,,,,,アオゾラ,0
811,3180005019379,新規,0,2021-07-29,2021-07-29,一般社団法人まる心,,その他の設立登記法人,愛知県,名古屋市中区,富士見町１１番１号,,23,106,4600014,,,,,,,2021-07-29,1,,,,,マルシン,0
814,3180301035204,新規,0,2021-07-29,2021-07-29,勝伊台日貿易株式会社,,株式会社,愛知県,豊田市,大林町１４丁目１０番地１８ラシーヌ大林１０２号室,,23,211,4730902,,,,,,,2021-07-29,1,,,,,ショウイタイニチボウエキ,0
823,3200001038941,新規,0,2021-07-29,2021-07-29,株式会社トリム・ホールディングス,,株式会社,岐阜県,岐阜市,栄新町３丁目５９番地,,21,201,5020849,,,,,,,2021-07-29,1,,,,,トリムホールディングス,0
827,3220001024320,新規,0,2021-07-29,2021-07-29,ＴＨＩＮＫ　ｄｅｓｉｇｎ株式会社,,株式会社,石川県,小松市,下牧町ツ４７番地１,,17,203,9230026,,,,,,,2021-07-29,1,,,,,シンクデザイン,0
833,3260003003640,新規,0,2021-07-29,2021-07-29,Ｔｏｒｕｓ　Ｚｅｒｏ合同会社,,合同会社,岡山県,岡山市中区,穝１５５番地１穝コーポ１０２,00123766,33,102,7038248,,,,,,,2021-07-29,1,,,,,トーラスゼロ,0
836,3270001008319,新規,0,2021-07-29,2021-07-29,株式会社モアプラス,,株式会社,鳥取県,米子市,西福原１丁目４番地１８号,,31,202,6830805,,,,,,,2021-07-29,1,,,,,モアプラス,0
839,3290001094027,新規,0,2021-07-29,2021-07-29,ＩＣ株式会社,,株式会社,福岡県,福岡市中央区,春吉３丁目２１番１８号ジェスト２５ビル７０４号,,40,133,8100003,,,,,,,2021-07-29,1,,,,,アイシー,0
840,3290003011459,新規,0,2021-07-29,2021-07-29,Ｈａｎａ‐Ｂｅ合同会社,,合同会社,福岡県,福岡市中央区,天神１丁目９番１７号福岡天神フコク生命ビル１５階,,40,133,8100001,,,,,,,2021-07-29,1,,,,,ハナビ,0
842,3290801027664,新規,0,2021-07-29,2021-07-29,株式会社福本工房,,株式会社,福岡県,鞍手郡鞍手町,大字室木６９,,40,402,8071307,,,,,,,2021-07-29,1,,,,,フクモトコウボウ,0
845,3310001017389,新規,0,2021-07-29,2021-07-29,株式会社岩本防水,,株式会社,長崎県,佐世保市,天神３丁目１９番２６号,,42,202,8571174,,,,,,,2021-07-29,1,,,,,イワモトボウスイ,0
855,3360003011303,新規,0,2021-07-29,2021-07-29,合同会社葵,,合同会社,沖縄県,那覇市,泊１丁目２０番地１２ロハスガーデンイハ３０１,,47,201,9000012,,,,,,,2021-07-29,1,,,,,アオ,0
856,3360003011311,新規,0,2021-07-29,2021-07-29,合同会社ジェネラルプロ,,合同会社,沖縄県,那覇市,宇栄原１丁目６番４８号,,47,201,9010153,,,,,,,2021-07-29,1,,,,,ジェネラルプロ,0
857,3370001047380,新規,0,2021-07-29,2021-07-29,株式会社昭和建機,,株式会社,宮城県,東松島市,大曲字堰の内南３４番地２５,,04,214,9810502,,,,,,,2021-07-29,1,,,,,ショウワケンキ,0
858,3370001047397,新規,0,2021-07-29,2021-07-29,要社寺株式会社,,株式会社,宮城県,仙台市宮城野区,鉄砲町東４番地の２,,04,102,9830867,,,,,,,2021-07-29,1,,,,,カナメシャジ,0
863,3370003005329,新規,0,2021-07-29,2021-07-29,エル合同会社,,合同会社,宮城県,仙台市泉区,紫山４丁目４－５,,04,105,9813205,,,,,,,2021-07-29,1,,,,,エル,0
877,3400001015540,新規,0,2021-07-29,2021-07-29,株式会社ベストライフ,,株式会社,岩手県,北上市,上江釣子１７地割２１４番地２,,03,206,0240071,,,,,,,2021-07-29,1,,,,,ベストライフ,0
894,3490005006791,新規,0,2021-07-29,2021-07-29,特定非営利活動法人こうち食支援ネット,,その他の設立登記法人,高知県,高知市,本町４丁目１番３２号こうち勤労センター内,,39,201,7800870,,,,,,,2021-07-29,1,,,,,,0
899,3700150104205,新規,0,2021-07-29,2021-07-29,日本橋永信ビルマンション敷地売却組合,,その他,東京都,豊島区,東池袋３丁目４番３号池袋イーストビル２階　株式会社総合不動産鑑定コンサルタント内,,13,116,1700013,,,,,,,2021-07-29,1,,,,,ニホンバシエイシンビルマンシヨンシキチバイキヤククミアイ,0
900,3700150104213,新規,0,2021-07-29,2021-07-29,ＡＬＩＢＡＢＡ　ＣＬＯＵＤ　（ＳＩＮＧＡＰＯＲＥ）　ＰＲＩＶＡＴＥ　ＬＩＭＩＴＥＤ,,外国会社等,,,,,,,,１　Ｒａｆｆｌｅｓ　Ｐｌａｃｅ，＃５９－００　Ｏｎｅ　Ｒａｆｆｌｅｓ　Ｐｌａｃｅ，Ｓｉｎｇａｐｏｒｅ　０４８６１６,,,,,,2021-07-29,1,,,,,アリババクラウドシンガポールプライベートリミテツド,0
913,4010001219964,新規,0,2021-07-29,2021-07-29,鈴和商事株式会社,,株式会社,東京都,文京区,小石川５丁目６番９,,13,105,1120002,,,,,,,2021-07-29,1,,,,,レイワショウジ,0
914,4010001219972,新規,0,2021-07-29,2021-07-29,フィットネスジャパンホールディングス株式会社,,株式会社,東京都,千代田区,内幸町１丁目３番１号幸ビルディング９階,,13,101,1000011,,,,,,,2021-07-29,1,,,,,フィットネスジャパンホールディングス,0
915,4010001219997,新規,0,2021-07-29,2021-07-29,株式会社Ｔ．Ｆ．О．,,株式会社,東京都,中央区,日本橋蛎殻町１丁目２番５号,,13,102,1030014,,,,,,,2021-07-29,1,,,,,ティエフオー,0
916,4010001220006,新規,0,2021-07-29,2021-07-29,シンテグレートジャパン株式会社,,株式会社,東京都,中央区,新富２丁目１－７冨士中央ビル９階,,13,102,1040041,,,,,,,2021-07-29,1,,,,,シンテグレートジャパン,0
917,4010001220014,新規,0,2021-07-29,2021-07-29,ワインエクスペリエンス株式会社,,株式会社,東京都,千代田区,紀尾井町４番１号,,13,101,1020094,,,,,,,2021-07-29,1,,,,,ワインエクスペリエンス,0
920,4010003035419,新規,0,2021-07-29,2021-07-29,Ｆ＆Ｆデザイン合同会社,,合同会社,東京都,文京区,千石４丁目３７－４,,13,105,1120011,,,,,,,2021-07-29,1,,,,,エフアンドエフデザイン,0
934,4010403025795,新規,0,2021-07-29,2021-07-29,ＰＪＭＦ　Ａｃｑｕｉｓｉｔｉｏｎｓ合同会社,,合同会社,東京都,港区,元赤坂１丁目１番７－１００６号,,13,103,1070051,,,,,,,2021-07-29,1,,,,,ピージェーエムエフアクイジッションズ,0
935,4010405020010,新規,0,2021-07-29,2021-07-29,一般社団法人日本Ｋｏｓｈｅｒ協会,,その他の設立登記法人,東京都,港区,南青山７丁目８番８－３０２号,,13,103,1070062,,,,,,,2021-07-29,1,,,,,ニホンコーシャキョウカイ,0
936,4010405020051,新規,0,2021-07-29,2021-07-29,一般社団法人がん個別化・ＡＩ医療,,その他の設立登記法人,東京都,港区,六本木３丁目７番１－１００８号,,13,103,1060032,,,,,,,2021-07-29,1,,,,,ガンコベツカエーアイイリョウ,0
944,4010601059711,新規,0,2021-07-29,2021-07-29,ＫＮＪ株式会社,,株式会社,東京都,墨田区,太平３丁目９番９号,,13,107,1300012,,,,,,,2021-07-29,1,,,,,ケーエヌジェー,0
950,4010701041313,新規,0,2021-07-29,2021-07-29,株式会社トレスアルコン,,株式会社,東京都,品川区,東五反田２丁目４番２号,,13,109,1410022,,,,,,,2021-07-29,1,,,,,トレスアルコン,0
951,4010701041321,新規,0,2021-07-29,2021-07-29,株式会社ユクシィ,,株式会社,東京都,品川区,南大井２丁目１０番６号シティタワー品川パークフロント２３１１,,13,109,1400013,,,,,,,2021-07-29,1,,,,,ユクシィ,0
952,4010703005877,新規,0,2021-07-29,2021-07-29,バイアリーターク・インダストリーズ合同会社,,合同会社,東京都,品川区,東大井１丁目１４番２４号,,13,109,1400011,,,,,,,2021-07-29,1,,,,,バイアリータークインダストリーズ,0
965,4011001141910,新規,0,2021-07-29,2021-07-29,株式会社トル,,株式会社,東京都,渋谷区,恵比寿１丁目１５番９号シルク恵比寿４０３,,13,113,1500013,,,,,,,2021-07-29,1,,,,,トル,0
966,4011001141951,新規,0,2021-07-29,2021-07-29,株式会社佐伯コンサルティング,,株式会社,東京都,渋谷区,恵比寿西１丁目８番３号クオリア恵比寿ウエスト７０３,,13,113,1500021,,,,,,,2021-07-29,1,,,,,サエキコンサルティング,0
969,4011101095841,新規,0,2021-07-29,2021-07-29,株式会社豊世,,株式会社,東京都,新宿区,百人町２丁目２１番１号Ｂ棟３Ｆ,,13,104,1690073,,,,,,,2021-07-29,1,,,,,トヨセ,0
970,4011101095866,新規,0,2021-07-29,2021-07-29,株式会社タグボート,,株式会社,東京都,新宿区,高田馬場３丁目１番５号,,13,104,1690075,,,,,,,2021-07-29,1,,,,,タグボート,0
973,4011103010889,新規,0,2021-07-29,2021-07-29,ＭＡＨＩＲＡ合同会社,,合同会社,東京都,新宿区,歌舞伎町２丁目２５番８号２５４,,13,104,1600021,,,,,,,2021-07-29,1,,,,,,0
975,4011301027066,新規,0,2021-07-29,2021-07-29,株式会社ＭＫパートナーズ,,株式会社,東京都,杉並区,高円寺南３丁目５１番１６号,,13,115,1660003,,,,,,,2021-07-29,1,,,,,エムケーパートナーズ,0
976,4011301027074,新規,0,2021-07-29,2021-07-29,株式会社ＺＯＵＸ,,株式会社,東京都,杉並区,天沼２丁目３０番１５号,,13,115,1670032,,,,,,,2021-07-29,1,,,,,ゾウ,0
978,4011401023568,新規,0,2021-07-29,2021-07-29,株式会社ラッドワーク,,株式会社,東京都,板橋区,高島平９丁目１６番１０－３０２号,,13,119,1750082,,,,,,,2021-07-29,1,,,,,ラッドワーク,0
981,4011403003394,新規,0,2021-07-29,2021-07-29,合同会社ＰＥＴＡ,,合同会社,東京都,板橋区,大原町３６－５アクサスジーベック板橋イースト６０２号,,13,119,1740061,,,,,,,2021-07-29,1,,,,,ペタ,0
989,4012301012644,新規,0,2021-07-29,2021-07-29,三誉株式会社,,株式会社,東京都,町田市,小山ヶ丘４丁目７番地１ルネグランディア１１６,,13,209,1940215,,,,,,,2021-07-29,1,,,,,サンヨ,0
991,4012401038143,新規,0,2021-07-29,2021-07-29,株式会社フォックスコム,,株式会社,東京都,調布市,調布ケ丘３丁目４番地１サンクタス調布ヶ丘５０２,,13,208,1820021,,,,,,,2021-07-29,1,,,,,フォックスコム,0
992,4012405004620,新規,0,2021-07-29,2021-07-29,一般財団法人地球財団,,その他の設立登記法人,東京都,武蔵野市,中町３丁目２５－２メゾン・ド・マニエール４０１,,13,203,1800006,,,,,,,2021-07-29,1,,,,,チキュウザイダン,0
996,4012801020980,新規,0,2021-07-29,2021-07-29,株式会社ツチヤ工業,,株式会社,東京都,日野市,万願寺５丁目５番地の８メゾンみすみ１０１,,13,212,1910024,,,,,,,2021-07-29,1,,,,,ツチヤコウギョウ,0
997,4012803002556,新規,0,2021-07-29,2021-07-29,ふれ愛の和合同会社,,合同会社,東京都,立川市,上砂町５丁目１５番地の１ライオンズマンション武蔵砂川２０５号,,13,202,1900032,,,,,,,2021-07-29,1,,,,,フレアイノワ,0
998,4013301047787,新規,0,2021-07-29,2021-07-29,株式会社ＭＳコンサルタント,,株式会社,東京都,豊島区,雑司が谷１丁目２６－１６,,13,116,1710032,,,,,,,2021-07-29,1,,,,,エムエスコンサルタント,0
1005,4020001142380,新規,0,2021-07-29,2021-07-29,株式会社Ｙｏｔｓｕｂａ　Ｗｏｒｋｓ,,株式会社,神奈川県,横浜市港北区,綱島西５丁目１６番１１号,,14,109,2230053,,,,,,,2021-07-29,1,,,,,ヨツバワークス,0
1006,4020001142397,新規,0,2021-07-29,2021-07-29,株式会社ＧＨＯＳＴ　ＤＩＮＩＮＧ,,株式会社,神奈川県,横浜市南区,中島町２丁目２７番地２ＧＳハイム蒔田１０２,,14,105,2320055,,,,,,,2021-07-29,1,,,,,ゴーストダイニング,0
1011,4020003020238,新規,0,2021-07-29,2021-07-29,シエスティ合同会社,,合同会社,神奈川県,横浜市都筑区,中川中央１丁目２９番２－３０２号,,14,118,2240003,,,,,,,2021-07-29,1,,,,,シエスティ,0
1012,4020005015145,新規,0,2021-07-29,2021-07-29,特定非営利活動法人ＥＮＪＯＹ　ＧＯＬＦ,,その他の設立登記法人,神奈川県,川崎市麻生区,金程１丁目３６番１３号,,14,137,2150006,,,,,,,2021-07-29,1,,,,,エンジョイゴルフ,0
1014,4021001073491,新規,0,2021-07-29,2021-07-29,株式会社Ｆｕｐａｓｅｓｉｃａ,,株式会社,神奈川県,秦野市,堀山下１００１番地の３,,14,211,2591304,,,,,,,2021-07-29,1,,,,,フパセシカ,0
1015,4021001073517,新規,0,2021-07-29,2021-07-29,株式会社茅ヶ崎元町不動産,,株式会社,神奈川県,茅ヶ崎市,元町９－２７－１６,,14,207,2530043,,,,,,,2021-07-29,1,,,,,チガサキモトマチフドウサン,0
1016,4021001073525,新規,0,2021-07-29,2021-07-29,株式会社ＰＦＯＥＶＳ,,株式会社,神奈川県,茅ヶ崎市,美住町３番３１号,,14,207,2530023,,,,,,,2021-07-29,1,,,,,フィーヴズ,0
1017,4021001073533,新規,0,2021-07-29,2021-07-29,株式会社Ｃ－ＩＮＮＯＶＡＴＩＯＮ,,株式会社,神奈川県,相模原市中央区,星が丘３丁目１３番２３号,,14,152,2520238,,,,,,,2021-07-29,1,,,,,シーイノベーション,0
1018,4021001073541,新規,0,2021-07-29,2021-07-29,株式会社Ｓｃｈａｔｚ　Ｃｅｎｔｒａｌ,,株式会社,神奈川県,厚木市,飯山３１０８番地４,,14,212,2430213,,,,,,,2021-07-29,1,,,,,シャッツセントラル,0
1020,4021003010724,新規,0,2021-07-29,2021-07-29,日本重機合同会社,,合同会社,神奈川県,綾瀬市,早川３２３０番地４９,,14,218,2521123,,,,,,,2021-07-29,1,,,,,ニホンジュウキ,0
1021,4021003010732,新規,0,2021-07-29,2021-07-29,ＪｕＭデザイン合同会社,,合同会社,神奈川県,鎌倉市,二階堂２６７－１５４,,14,204,2480002,,,,,,,2021-07-29,1,,,,,ジャムデザイン,0
1024,4030001143535,新規,0,2021-07-29,2021-07-29,株式会社前田塗装,,株式会社,埼玉県,さいたま市南区,大字太田窪２９５７番地１６,,11,108,3360015,,,,,,,2021-07-29,1,,,,,マエダトソウ,0
1025,4030001143576,新規,0,2021-07-29,2021-07-29,株式会社Ｇｌｏｗ,,株式会社,埼玉県,川越市,豊田町１丁目２２番地１２,,11,201,3501110,,,,,,,2021-07-29,1,,,,,グロウ,0
1027,4030003017679,新規,0,2021-07-29,2021-07-29,せぶん合同会社,,合同会社,埼玉県,桶川市,若宮１丁目８番１７－５０４号,,11,231,3630022,,,,,,,2021-07-29,1,,,,,セブン,0
1033,4040001119518,新規,0,2021-07-29,2021-07-29,Ｏｓｅｋｋａｙ株式会社,,株式会社,千葉県,船橋市,坪井町７４７番地２３,,12,204,2740062,,,,,,,2021-07-29,1,,,,,オセッカイ,0
1034,4040001119526,新規,0,2021-07-29,2021-07-29,株式会社四季不動産管理,,株式会社,千葉県,柏市,篠籠田１１２４番地１,,12,217,2770862,,,,,,,2021-07-29,1,,,,,シキフドウサンカンリ,0
1035,4040001119534,新規,0,2021-07-29,2021-07-29,株式会社インフィニティ,,株式会社,千葉県,千葉市中央区,中央１丁目１０番１０－７０４号シャンボール第２千葉中央,,12,101,2600013,,,,,,,2021-07-29,1,,,,,インフィニティ,0
1036,4040001119550,新規,0,2021-07-29,2021-07-29,Ｒ株式会社,,株式会社,千葉県,松戸市,竹ケ花西町３０７番地の１６,,12,207,2710071,,,,,,,2021-07-29,1,,,,,アール,0
1038,4040003018214,新規,0,2021-07-29,2021-07-29,合同会社Ｏ．Ｋエージェンシー,,合同会社,千葉県,成田市,不動ケ岡２１１８番地３２－３０１,,12,211,2860044,,,,,,,2021-07-29,1,,,,,オーケーエージェンシー,0
1041,4050001049598,新規,0,2021-07-29,2021-07-29,株式会社山米,,株式会社,茨城県,日立市,小木津町４丁目１番３号,,08,202,3191413,,,,,,,2021-07-29,1,,,,,ヤマコメ,0
1042,4050001049607,新規,0,2021-07-29,2021-07-29,株式会社ＳＯＬＡＱＵＡ,,株式会社,茨城県,水戸市,内原町１３９９番地,,08,201,3190315,,,,,,,2021-07-29,1,,,,,ソラクア,0
1046,4060001033948,新規,0,2021-07-29,2021-07-29,株式会社エレファン,,株式会社,栃木県,鹿沼市,楡木町６６８番地１,,09,205,3220526,,,,,,,2021-07-29,1,,,,,エレファン,0
1047,4060002031769,新規,0,2021-07-29,2021-07-29,有限会社大川商事,,有限会社,栃木県,栃木市,泉町７番１２号,,09,203,3280014,,,,,,,2021-07-29,1,,,,,,0
1055,4100001034470,新規,0,2021-07-29,2021-07-29,株式会社Ｕｌｔｉｍａｔｅ　Ｓｅｃｕｒｉｔｙ＆Ｄｅｌｉｇｈｔ,,株式会社,長野県,長野市,大字鶴賀権堂町２２０１番地２３ポレスター長野大通り１１０３号,,20,201,3800833,,,,,,,2021-07-29,1,,,,,アルティメットセキュリティーアンドディライト,0
1059,4110001035939,新規,0,2021-07-29,2021-07-29,三大建設株式会社,,株式会社,新潟県,新潟市中央区,南笹口１丁目１番３８号,,15,103,9500912,,,,,,,2021-07-29,1,,,,,サンダイケンセツ,0
1068,4120001239299,新規,0,2021-07-29,2021-07-29,株式会社Ａｄａｍａｓ,,株式会社,大阪府,大阪市西区,立売堀１丁目４－１２立売堀スクエア,,27,106,5500012,,,,,,,2021-07-29,1,,,,,アダマス,0
1069,4120001239308,新規,0,2021-07-29,2021-07-29,株式会社ＷＯＲＫ　ＳＨＯＰＳ,,株式会社,大阪府,大阪市中央区,東心斎橋１丁目１７番１５号丸清ビル５階Ｃ号,,27,128,5420083,,,,,,,2021-07-29,1,,,,,ワークショップス,0
1070,4120001239381,新規,0,2021-07-29,2021-07-29,株式会社Ｅｍｉｔａ　Ｌｕｚ,,株式会社,大阪府,守口市,大日町３丁目４番４９号プレージア大日１１０２,,27,209,5700003,,,,,,,2021-07-29,1,,,,,エミータルース,0
1071,4120005022420,新規,0,2021-07-29,2021-07-29,一般社団法人ウリエル,,その他の設立登記法人,大阪府,大阪市北区,中崎西４丁目１番３０号,,27,127,5300015,,,,,,,2021-07-29,1,,,,,ウリエル,0
1081,4130001069786,新規,0,2021-07-29,2021-07-29,株式会社空間計画,,株式会社,京都府,京都市左京区,下鴨梅ノ木町１９番地,,26,103,6060851,,,,,,,2021-07-29,1,,,,,クウカンケイカク,0
1083,4130003007364,新規,0,2021-07-29,2021-07-29,中野不動産ラーニング合同会社,,合同会社,京都府,京都市伏見区,村上町３７６－７０６,,26,109,6128369,,,,,,,2021-07-29,1,,,,,ナカノフドウサンラーニング,0
1093,4140001122461,新規,0,2021-07-29,2021-07-29,メディカルデザインラボ株式会社,,株式会社,兵庫県,神戸市中央区,浪花町５６起業プラザひょうご内,,28,110,6500035,,,,,,,2021-07-29,1,,,,,メディカルデザインラボ,0
1095,4140003016554,新規,0,2021-07-29,2021-07-29,合同会社ミトリー,,合同会社,兵庫県,姫路市,飯田２丁目１６８番１号,,28,201,6700974,,,,,,,2021-07-29,1,,,,,ミトリー,0
1096,4140003016570,新規,0,2021-07-29,2021-07-29,合同会社万事屋福ちゃん,,合同会社,兵庫県,神戸市垂水区,高丸７丁目２番２９号,,28,108,6550016,,,,,,,2021-07-29,1,,,,,ヨロヅヤフクチャン,0
1111,4180003022788,新規,0,2021-07-29,2021-07-29,合同会社轟響,,合同会社,愛知県,名古屋市港区,川間町１丁目１１番地（宝マンション川間町スクエア３０５号）,,23,111,4550076,,,,,,,2021-07-29,1,,,,,ゴウキョウ,0
1113,4180005019378,新規,0,2021-07-29,2021-07-29,一般社団法人ＭＩＣ－Ｔ生産性研究所,,その他の設立登記法人,愛知県,名古屋市西区,幅下２丁目５番１２号,,23,104,4510041,,,,,,,2021-07-29,1,,,,,エムアイシーティーセイサンセイケンキュウジョ,0
1115,4190001028547,新規,0,2021-07-29,2021-07-29,株式会社丸藤,,株式会社,三重県,四日市市,ときわ５丁目２番２１－８０１号,,24,202,5100834,,,,,,,2021-07-29,1,,,,,マルトウ,0
1138,4290001094026,新規,0,2021-07-29,2021-07-29,株式会社岩鉄,,株式会社,福岡県,福岡市博多区,奈良屋町１３番１６号,,40,132,8120023,,,,,,,2021-07-29,1,,,,,ガンテツ,0
1143,4310001017388,新規,0,2021-07-29,2021-07-29,株式会社一番工業,,株式会社,長崎県,佐世保市,陣の内町８６９番地１７－１０２,,42,202,8593203,,,,,,,2021-07-29,1,,,,,イチバンコウギョウ,0
1144,4320003003583,新規,0,2021-07-29,2021-07-29,合同会社シルク,,合同会社,大分県,日田市,大字十二町２２５番地１シルク１８－２１５号,,44,204,8770000,,,,,,,2021-07-29,1,,,,,シルク,0
1156,4360001029123,新規,0,2021-07-29,2021-07-29,株式会社暁総業,,株式会社,沖縄県,那覇市,字安謝６１７番地１９２,,47,201,9000003,,,,,,,2021-07-29,1,,,,,アカツキソウギョウ,0
1157,4360005006473,新規,0,2021-07-29,2021-07-29,一般社団法人Ｃｏｃｏ－ｏｎ,,その他の設立登記法人,沖縄県,石垣市,字大川２７３番地マンションみすまる６０７号室,,47,207,9070022,,,,,,,2021-07-29,1,,,,,,0
1158,4370001047388,新規,0,2021-07-29,2021-07-29,株式会社スミールプロジェクト,,株式会社,宮城県,仙台市若林区,若林４丁目４番１３号,,04,103,9840826,,,,,,,2021-07-29,1,,,,,スミールプロジェクト,0
1159,4370003005328,新規,0,2021-07-29,2021-07-29,合同会社Ｐｒоｍｉｓｉｎｇ,,合同会社,宮城県,岩沼市,志賀字西大森８番地の３,,04,211,9892465,,,,,,,2021-07-29,1,,,,,プロミシング,0
1162,4380001032075,新規,0,2021-07-29,2021-07-29,川田商会株式会社,,株式会社,福島県,本宮市,長屋字山中前６２番地,,07,214,9691206,,,,,,,2021-07-29,1,,,,,カワダショウカイ,0
1174,4410001012908,新規,0,2021-07-29,2021-07-29,株式会社秋田セラミックス・エンジニアリング,,株式会社,秋田県,秋田市,御野場新町１丁目１番１５号,,05,201,0101425,,,,,,,2021-07-29,1,,,,,アキタセラミックスエンジニアリング,0
1192,4460101007035,新規,0,2021-07-29,2021-07-29,株式会社Ｔ＆Ｕコンサルティング,,株式会社,北海道,帯広市,東二条南２７丁目１番地１,,01,207,0800802,,,,,,,2021-07-29,1,,,,,ティーアンドユーコンサルティング,0
1195,4470003002001,新規,0,2021-07-29,2021-07-29,ＨＯＰＥ合同会社,,合同会社,香川県,高松市,屋島西町２２８１－１１,,37,201,7610113,,,,,,,2021-07-29,1,,,,,ホープ,0
1203,4700150104204,新規,0,2021-07-29,2021-07-29,糸島市泊土地区画整理組合,,その他,福岡県,糸島市,泊１２１６番地２,,40,230,8191111,,,,,,,2021-07-29,1,,,,,イトシマシトマリトチクカクセイリクミアイ,0
1204,4700150104212,新規,0,2021-07-29,2021-07-29,ＲＡＪＡＲＡＴＡ　ＥＮＴＥＲＰＲＩＳＥＳ,,外国会社等,千葉県,八街市,榎戸４１６番地２－２１,,12,230,2891106,スリランカ民主社会主義共和国、ウクウェラ、マナンボダ、ランガーズマワタ、１０３,,,,,,2021-07-29,1,,,,,ラジヤラタエンタープライズ,0
1208,5010001219971,新規,0,2021-07-29,2021-07-29,株式会社Ｙグループホールディングス,,株式会社,東京都,中央区,銀座３丁目７番１６号,,13,102,1040061,,,,,,,2021-07-29,1,,,,,ワイグループホールディングス,0
1209,5010001219988,新規,0,2021-07-29,2021-07-29,蓄電デバイス分割準備株式会社,,株式会社,東京都,千代田区,丸の内１丁目９番２号,,13,101,1000005,,,,,,,2021-07-29,1,,,,,チクデンデバイスブンカツジュンビ,0
1210,5010001219996,新規,0,2021-07-29,2021-07-29,株式会社太郎,,株式会社,東京都,中央区,銀座１丁目２２番１１号銀座大竹ビジデンス２階,,13,102,1040061,,,,,,,2021-07-29,1,,,,,タロウ,0
1212,5010003035418,新規,0,2021-07-29,2021-07-29,合同会社マスヤ鈴木商會,,合同会社,東京都,中央区,勝どき２丁目１０番１６号マンション勝どき８０３号室,,13,102,1040054,,,,,,,2021-07-29,1,,,,,マスヤスズキショウカイ,0
1213,5010003035426,新規,0,2021-07-29,2021-07-29,合同会社Ｇｏｌ．Ｄ．Ａｒｒｏｗ,,合同会社,東京都,中央区,銀座１丁目２２番１１号銀座大竹ビジデンス２階,,13,102,1040061,,,,,,,2021-07-29,1,,,,,ゴールドアロウ,0
1216,5010005033691,新規,0,2021-07-29,2021-07-29,一般社団法人トリニティ・ワン,,その他の設立登記法人,東京都,千代田区,内幸町２丁目１番６号,,13,101,1000011,,,,,,,2021-07-29,1,,,,,トリニティワン,0
1219,5010101014793,新規,0,2021-07-29,2021-07-29,ＨＫ設備株式会社,,株式会社,東京都,八王子市,寺田町９３５番地１７,,13,201,1930943,,,,,,,2021-07-29,1,,,,,,0
1232,5010401161740,新規,0,2021-07-29,2021-07-29,ｃｒａｆｉｔ製薬株式会社,,株式会社,東京都,港区,西麻布２丁目１３番６号Ｋ’ｓ西麻布６Ｆ,,13,103,1060031,,,,,,,2021-07-29,1,,,,,クラフィットセイヤク,0
1236,5010403025794,新規,0,2021-07-29,2021-07-29,占松国際合同会社,,合同会社,東京都,港区,浜松町２丁目２番１５号浜松町ダイヤビル２階,,13,103,1050013,,,,,,,2021-07-29,1,,,,,センマツコクサイ,0
1238,5010405020075,新規,0,2021-07-29,2021-07-29,藤一般社団法人,,その他の設立登記法人,東京都,港区,西新橋１丁目２番９号ＥＰコンサルティングサービス内,,13,103,1050003,,,,,,,2021-07-29,1,,,,,フジ,0
1242,5010501047617,新規,0,2021-07-29,2021-07-29,株式会社ノーブランド,,株式会社,東京都,台東区,寿２丁目１番６号,,13,106,1110042,,,,,,,2021-07-29,1,,,,,ノーブランド,0
1246,5010601059710,新規,0,2021-07-29,2021-07-29,株式会社海の幸,,株式会社,東京都,江東区,富岡１丁目２２番２０号,,13,108,1350047,,,,,,,2021-07-29,1,,,,,ウミノサチ,0
1247,5010603009052,新規,0,2021-07-29,2021-07-29,Ｐｌａｎｔ　Ｈｕｎｔ合同会社,,合同会社,東京都,江東区,福住１丁目８番８号,,13,108,1350032,,,,,,,2021-07-29,1,,,,,プラントハント,0
1249,5010701041312,新規,0,2021-07-29,2021-07-29,株式会社ＩＳＮ,,株式会社,東京都,品川区,東品川４丁目５番８－３０２号,,13,109,1400002,,,,,,,2021-07-29,1,,,,,アイエスエヌ,0
1250,5010703005876,新規,0,2021-07-29,2021-07-29,合同会社Ｒｅｎｔｉｆｙ,,合同会社,東京都,品川区,西五反田８丁目１２－５五反田コーポビアネーズ３０２,,13,109,1410031,,,,,,,2021-07-29,1,,,,,レンティファイ,0
1254,5010801032153,新規,0,2021-07-29,2021-07-29,クロップ株式会社,,株式会社,東京都,大田区,南馬込４丁目４５番１７号,,13,111,1430025,,,,,,,2021-07-29,1,,,,,クロップ,0
1255,5010903006682,新規,0,2021-07-29,2021-07-29,合同会社ＨＯＤＡＫＡ＆ＣＯ．,,合同会社,東京都,世田谷区,上野毛３丁目１６－３上野毛ハイム３号棟６０１号,,13,112,1580093,,,,,,,2021-07-29,1,,,,,ホダカアンドコー,0
1256,5010903006690,新規,0,2021-07-29,2021-07-29,レミージュグローバル合同会社,,合同会社,東京都,世田谷区,三軒茶屋１丁目３６番３号,,13,112,1540024,,,,,,,2021-07-29,1,,,,,レミージュグローバル,0
1257,5010905004180,新規,0,2021-07-29,2021-07-29,一般社団法人ＧＲＥＥＮ相続サポート,,その他の設立登記法人,東京都,世田谷区,桜２丁目１１番２７号,,13,112,1560053,,,,,,,2021-07-29,1,,,,,グリーンソウゾクサポート,0
1262,5011001141851,新規,0,2021-07-29,2021-07-29,株式会社パーシモンスクエア,,株式会社,東京都,渋谷区,東１丁目３２番１２号１３０５号,,13,113,1500011,,,,,,,2021-07-29,1,,,,,パーシモンスクエア,0
1263,5011001141918,新規,0,2021-07-29,2021-07-29,株式会社モフモフペットジャパン,,株式会社,東京都,目黒区,中目黒３丁目６番１９,,13,110,1530061,,,,,,,2021-07-29,1,,,,,モフモフペットジャパン,0
1265,5011003013108,新規,0,2021-07-29,2021-07-29,ＪＰＬＯＧＩＳＴＩＣＳＨＵＢ合同会社,,合同会社,東京都,渋谷区,桜丘町１０－４,,13,113,1500031,,,,,,,2021-07-29,1,,,,,ジェイピーロジスティクスハブ,0
1266,5011003013116,新規,0,2021-07-29,2021-07-29,ＫＩＫＵＥ合同会社,,合同会社,東京都,渋谷区,幡ヶ谷２丁目２５番１号,,13,113,1510072,,,,,,,2021-07-29,1,,,,,キクエ,0
1270,5011103010888,新規,0,2021-07-29,2021-07-29,合同会社オレンジキャット,,合同会社,東京都,新宿区,西早稲田１丁目６－１早稲田大学国際文学館地下一階,,13,104,1690051,,,,,,,2021-07-29,1,,,,,オレンジキャット,0
1271,5011103010905,新規,0,2021-07-29,2021-07-29,ＮｏｎＴｉｒｅｄ合同会社,,合同会社,東京都,新宿区,新宿２丁目１１番７号５階,,13,104,1600022,,,,,,,2021-07-29,1,,,,,ノンタイアード,0
1272,5011301027065,新規,0,2021-07-29,2021-07-29,株式会社レコマ,,株式会社,東京都,杉並区,高井戸東３丁目２９番３号,,13,115,1680072,,,,,,,2021-07-29,1,,,,,レコマ,0
1273,5011301027073,新規,0,2021-07-29,2021-07-29,株式会社ｉｎｓｐｉｒｅ,,株式会社,東京都,杉並区,南荻窪１丁目４１番１４号,,13,115,1670052,,,,,,,2021-07-29,1,,,,,インスパイア,0
1275,5011303004112,新規,0,2021-07-29,2021-07-29,合同会社ａｕｒａ,,合同会社,東京都,杉並区,和泉２丁目２１番２－２０４号　クレスト和泉,,13,115,1680063,,,,,,,2021-07-29,1,,,,,オーラ,0
1283,5011601025297,新規,0,2021-07-29,2021-07-29,株式会社Ｇｚｏ,,株式会社,東京都,練馬区,豊玉北５丁目１２番９号,,13,120,1760012,,,,,,,2021-07-29,1,,,,,ジゾー,0
1287,5012401038118,新規,0,2021-07-29,2021-07-29,アーキテクチャーフォト株式会社,,株式会社,東京都,調布市,西つつじケ丘１丁目４６番地１６ＨＩＬＬＳＫＡＭＯＳＨＩＤＡ３０３号室,,13,208,1820006,,,,,,,2021-07-29,1,,,,,アーキテクチャーフォト,0
1288,5012401038142,新規,0,2021-07-29,2021-07-29,株式会社Ａ２,,株式会社,東京都,府中市,本町１丁目１２番地の２オウズ御殿山３０２,,13,206,1830027,,,,,,,2021-07-29,1,,,,,エーツー,0
1289,5012401038150,新規,0,2021-07-29,2021-07-29,株式会社比隣,,株式会社,東京都,小金井市,本町１丁目８番１４号サンリープ小金井３０６号,,13,210,1840004,,,,,,,2021-07-29,1,,,,,ヒリン,0
1303,5013301047794,新規,0,2021-07-29,2021-07-29,株式会社スクウェアエステート,,株式会社,東京都,豊島区,南池袋３丁目１８番３４号池袋シティハイツ９階,,13,116,1710022,,,,,,,2021-07-29,1,,,,,スクウェアエステート,0
1317,5020001142371,新規,0,2021-07-29,2021-07-29,株式会社ひのきドライバーサービス,,株式会社,神奈川県,横浜市中区,尾上町２丁目１８番地１,,14,104,2310015,,,,,,,2021-07-29,1,,,,,ヒノキドライバーサービス,0
1318,5020001142388,新規,0,2021-07-29,2021-07-29,株式会社ＧＲＯＶＥ,,株式会社,神奈川県,川崎市麻生区,上麻生３丁目１２番１０号,,14,137,2150021,,,,,,,2021-07-29,1,,,,,グローブ,0
1325,5020003020245,新規,0,2021-07-29,2021-07-29,住家建匠合同会社,,合同会社,神奈川県,横浜市南区,通町２丁目３７番,,14,105,2320056,,,,,,,2021-07-29,1,,,,,スミカケンショウ,0
1329,5021001073524,新規,0,2021-07-29,2021-07-29,Ｔ’ｓ－ｐｒｏｓ　ｃｏｍｐａｎｙ株式会社,,株式会社,神奈川県,藤沢市,石川５丁目２５番地の５０,,14,205,2520815,,,,,,,2021-07-29,1,,,,,ティーズプロスカンパニー,0
1334,5021005012263,新規,0,2021-07-29,2021-07-29,ファーストクラスさがみ野第２管理組合法人,,その他の設立登記法人,神奈川県,海老名市,東柏ケ谷２丁目３０番１０号,,14,215,2430401,,,,,,,2021-07-29,1,,,,,ファーストクラスサガミノダイニ,0
1337,5030001143518,新規,0,2021-07-29,2021-07-29,株式会社あいり,,株式会社,埼玉県,越谷市,蒲生茜町１９番地８蒲生ビューハイツ８１１号,,11,222,3430843,,,,,,,2021-07-29,1,,,,,アイリ,0
1338,5030001143567,新規,0,2021-07-29,2021-07-29,株式会社三洋,,株式会社,埼玉県,蕨市,中央２丁目３７－１３,,11,223,3350004,,,,,,,2021-07-29,1,,,,,サンヨウ,0
1342,5030003017694,新規,0,2021-07-29,2021-07-29,新淼合同会社,00123765,合同会社,埼玉県,越谷市,神明町１丁目１３２－１ラ・ルミエールＢ１０２号室,,11,222,3430805,,,,,,,2021-07-29,1,,,,,シンミャオ,0
1349,5040001119517,新規,0,2021-07-29,2021-07-29,株式会社ＳＥＥＤ　ＳＴＵＤＩＯ,,株式会社,千葉県,野田市,清水２６６番地の４２,,12,208,2780043,,,,,,,2021-07-29,1,,,,,シードスタジオ,0
1350,5040001119525,新規,0,2021-07-29,2021-07-29,株式会社たかはしライフ＆ヘルスケア,,株式会社,千葉県,八千代市,ゆりのき台３丁目１番地２,,12,221,2760042,,,,,,,2021-07-29,1,,,,,タカハシライフアンドヘルスケア,0
1351,5040001119566,新規,0,2021-07-29,2021-07-29,株式会社ＲＣＯＴＴ,,株式会社,千葉県,千葉市花見川区,幕張町５丁目４８３－１１,,12,102,2620032,,,,,,,2021-07-29,1,,,,,ルコット,0
1358,5040003018221,新規,0,2021-07-29,2021-07-29,合同会社ｍａｉｎ,,合同会社,千葉県,我孫子市,並木６丁目１４番１６号,,12,222,2701165,,,,,,,2021-07-29,1,,,,,メイン,0
1363,5050001049597,新規,0,2021-07-29,2021-07-29,株式会社アタラシア,,株式会社,茨城県,つくば市,東光台３丁目１番地２,,08,220,3002635,,,,,,,2021-07-29,1,,,,,アタラシア,0
1364,5050001049606,新規,0,2021-07-29,2021-07-29,株式会社晴桜トレーディング,,株式会社,茨城県,桜川市,真壁町羽鳥９７６番地９,,08,231,3004412,,,,,,,2021-07-29,1,,,,,セイオウトレーディング,0
1366,5060001033947,新規,0,2021-07-29,2021-07-29,株式会社由縁,,株式会社,栃木県,宇都宮市,江野町１１番１５号ナイスロイヤルタワー宇都宮中央１２０３,,09,201,3200802,,,,,,,2021-07-29,1,,,,,ユカリ,0
1371,5070005009884,新規,0,2021-07-29,2021-07-29,一般社団法人群馬積層造形プラットフォーム,,その他の設立登記法人,群馬県,太田市,植木野町８８０番地日本ミシュランタイヤ株式会社内,,10,205,3730014,,,,,,,2021-07-29,1,,,,,グンマセキソウゾウケイプラットフォーム,0
1379,5110001035938,新規,0,2021-07-29,2021-07-29,株式会社エルアンドエル,,株式会社,新潟県,三条市,土場６番４６号,,15,204,9550831,,,,,,,2021-07-29,1,,,,,エルアンドエル,0
1396,5120001239307,新規,0,2021-07-29,2021-07-29,株式会社永住,,株式会社,大阪府,大阪市淀川区,東三国４丁目２番２２号１１０５号,,27,123,5320002,,,,,,,2021-07-29,1,,,,,エイジュウ,0
1397,5120001239331,新規,0,2021-07-29,2021-07-29,株式会社秋元ビル,,株式会社,大阪府,大阪市福島区,福島３丁目１２番１号,,27,103,5530003,,,,,,,2021-07-29,1,,,,,アキモトビル,0
1398,5120003019913,新規,0,2021-07-29,2021-07-29,合同会社Ｅｖｅｒ　Ｇｒｅｅｎ,,合同会社,大阪府,大阪市中央区,島之内２丁目４番２４号,,27,128,5420082,,,,,,,2021-07-29,1,,,,,エバーグリーン,0
1413,5140001122436,新規,0,2021-07-29,2021-07-29,株式会社レガート,,株式会社,兵庫県,神戸市東灘区,向洋町中６丁目９番地,,28,101,6580032,,,,,,,2021-07-29,1,,,,,レガート,0
1414,5140001122444,新規,0,2021-07-29,2021-07-29,株式会社ＬＩＴＴ　ＵＰ,,株式会社,兵庫県,神戸市中央区,旭通４丁目１番３－４１１１号,,28,110,6510095,,,,,,,2021-07-29,1,,,,,リットアップ,0
1415,5140001122460,新規,0,2021-07-29,2021-07-29,日本軽バンレンタリース株式会社,,株式会社,兵庫県,尼崎市,丸島町３０番地３,,28,202,6600086,,,,,,,2021-07-29,1,,,,,ニホンケイバンレンタリース,0
1416,5140001122469,新規,0,2021-07-29,2021-07-29,コンパステクノロジーズ株式会社,,株式会社,兵庫県,神戸市北区,長尾町宅原７１３－８,,28,109,6511511,,,,,,,2021-07-29,1,,,,,コンパステクノロジーズ,0
1417,5140001122493,新規,0,2021-07-29,2021-07-29,株式会社アイクロス,,株式会社,兵庫県,小野市,片山町１１１１番地の８０蔵３,,28,218,6751335,,,,,,,2021-07-29,1,,,,,アイクロス,0
1424,5140003016553,新規,0,2021-07-29,2021-07-29,合同会社あまたか,,合同会社,兵庫県,加古郡播磨町,古宮２丁目４番４９号,,28,382,6750163,,,,,,,2021-07-29,1,,,,,アマタカ,0
1432,5160001023509,新規,0,2021-07-29,2021-07-29,株式会社Ｋ設計,,株式会社,滋賀県,大津市,栄町４番３号昴ビル４０３号,,25,201,5200855,,,,,,,2021-07-29,1,,,,,ケーセッケイ,0
1433,5160001023517,新規,0,2021-07-29,2021-07-29,株式会社優志,,株式会社,滋賀県,東近江市,桜川西町８０１番地１階,,25,213,5291572,,,,,,,2021-07-29,1,,,,,ユウシ,0
1439,5180001147140,新規,0,2021-07-29,2021-07-29,株式会社Ｈｉ－ｂｉ－ｋｉ,,株式会社,愛知県,名古屋市熱田区,六番２丁目３番１２号,,23,109,4560058,,,,,,,2021-07-29,1,,,,,ヒビキ,0
1454,5190001028546,新規,0,2021-07-29,2021-07-29,株式会社カネハル,,株式会社,三重県,四日市市,大字西阿倉川９０２番地１,,24,202,5100812,,,,,,,2021-07-29,1,,,,,カネハル,0
1462,5220001024319,新規,0,2021-07-29,2021-07-29,株式会社ＯＲＧＡＳ’Ｓ,,株式会社,石川県,金沢市,小坂町マ２７番地１,,17,201,9200811,,,,,,,2021-07-29,1,,,,,オルガス,0
1470,5240001058331,新規,0,2021-07-29,2021-07-29,株式会社ルーツ,,株式会社,広島県,福山市,木之庄町３丁目１０番４０号,,34,207,7200082,,,,,,,2021-07-29,1,,,,,ルーツ,0
1472,5250001019027,新規,0,2021-07-29,2021-07-29,セイドウ開発株式会社,,株式会社,山口県,下関市,武久町２丁目６番３号,,35,201,7510833,,,,,,,2021-07-29,1,,,,,セイドウカイハツ,0
1479,5260003003639,新規,0,2021-07-29,2021-07-29,合同会社アイアール岡山,,合同会社,岡山県,新見市,高尾２３４４番地３,,33,210,7180003,,,,,,,2021-07-29,1,,,,,アイアールオカヤマ,0
1480,5290003011457,新規,0,2021-07-29,2021-07-29,合同会社ライフラック,,合同会社,福岡県,太宰府市,向佐野４丁目４番２７号,,40,221,8180135,,,,,,,2021-07-29,1,,,,,ライフラック,0
1483,5290803003892,新規,0,2021-07-29,2021-07-29,合同会社Ｃｈｙｙｚ,,合同会社,福岡県,北九州市戸畑区,沢見２丁目４番１－１１０５号,,40,105,8040093,,,,,,,2021-07-29,1,,,,,チーズ,0
1487,5320001018509,新規,0,2021-07-29,2021-07-29,株式会社ＹＥＳＴＨＡＭ,,株式会社,大分県,大分市,富士見が丘西２丁目７番１２号,,44,201,8701177,,,,,,,2021-07-29,1,,,,,イエッサム,0
1488,5320003003582,新規,0,2021-07-29,2021-07-29,箒星合同会社,,合同会社,大分県,大分市,中央町１丁目４番２４号大分セントラルビル２Ｆ,,44,201,8700035,,,,,,,2021-07-29,1,,,,,ホウキボシ,0
1492,5360001029122,新規,0,2021-07-29,2021-07-29,株式会社アドハベル,,株式会社,沖縄県,那覇市,字小禄１４５８番地５,,47,201,9010152,,,,,,,2021-07-29,1,,,,,アドハベル,0
1498,5370001047387,新規,0,2021-07-29,2021-07-29,株式会社ＡＬＬＡ,,株式会社,宮城県,仙台市若林区,上飯田４丁目１６番４号,,04,103,9840838,,,,,,,2021-07-29,1,,,,,オールエー,0
1502,5380001032074,新規,0,2021-07-29,2021-07-29,株式会社双葉資源,,株式会社,福島県,相馬市,沖ノ内１丁目１－１０,,07,209,9760016,,,,,,,2021-07-29,1,,,,,,0
1513,5400001015539,新規,0,2021-07-29,2021-07-29,株式会社ホワイトベース,,株式会社,岩手県,盛岡市,上田字東黒石野７０番地１,,03,201,0200102,,,,,,,2021-07-29,1,,,,,ホワイトベース,0
1529,5430003012993,新規,0,2021-07-29,2021-07-29,合同会社ｆｕｔｕｒｅ　ｉｎｔｅｒｎａｔｉｏｎａｌ,,合同会社,北海道,札幌市東区,北十六条東４丁目２－１,,01,103,0650016,,,,,,,2021-07-29,1,,,,,フューチャーインターナショナル,0
1530,5430005014229,新規,0,2021-07-29,2021-07-29,特定非営利活動法人ＢＯＥＫＩアドバイザー協会,,その他の設立登記法人,北海道,札幌市豊平区,美園九条５丁目３番１０－１０２号天野馨方,,01,105,0620009,,,,,,,2021-07-29,1,,,,,ボウエキアドバイザーキョウカイ,0
1531,5430005014237,新規,0,2021-07-29,2021-07-29,一般社団法人ｓｕｎｎｙｓｍｉｌｅ協会,,その他の設立登記法人,北海道,札幌市中央区,南一条西１７丁目１番地１１,,01,101,0600061,,,,,,,2021-07-29,1,,,,,サニースマイルキョウカイ,0
1537,5470001018634,新規,0,2021-07-29,2021-07-29,コネクトインターナショナル株式会社,,株式会社,香川県,高松市,由良町６６０番地５,,37,201,7610441,,,,,,,2021-07-29,1,,,,,コネクトインターナショナル,0
1544,5700150104211,新規,0,2021-07-29,2021-07-29,ＳＡＪＡ　ＥＮＴＥＲＰＲＩＳＥＳ,,外国会社等,千葉県,八街市,榎戸４１６番地２－２１オフィスＡ号,,12,230,2891106,スリランカ民主社会主義共和国、マタレ、Ｉ．Ｄ．Ｈ．レーン、１０２,,,,,,2021-07-29,1,,,,,サジヤエンタープライズ,0
1556,6010001219970,新規,0,2021-07-29,2021-07-29,イノベーションガレージ株式会社,,株式会社,東京都,千代田区,神田司町２丁目１３番地ワイムビジネスプラザ神田４Ｆ－４１２,,13,101,1010048,,,,,,,2021-07-29,1,,,,,イノベーションガレージ,0
1557,6010001219979,新規,0,2021-07-29,2021-07-29,株式会社パスコム,,株式会社,東京都,中央区,勝どき５丁目３番１号,,13,102,1040054,,,,,,,2021-07-29,1,,,,,パスコム,0
1560,6010003035425,新規,0,2021-07-29,2021-07-29,らいと合同会社,,合同会社,東京都,中央区,日本橋中洲４－１３－７０４,,13,102,1030008,,,,,,,2021-07-29,1,,,,,ライト,0
1569,6010401161707,新規,0,2021-07-29,2021-07-29,株式会社フィールドセンス,,株式会社,東京都,港区,南麻布５丁目１５番２－２０６号,,13,103,1060047,,,,,,,2021-07-29,1,,,,,フィールドセンス,0
1570,6010401161748,新規,0,2021-07-29,2021-07-29,株式会社Ｌａｄｙ　Ｂｒｏｗｎ　Ｐｉｃｔｕｒｅｓ,,株式会社,東京都,港区,六本木６丁目２番３１号,,13,103,1060032,,,,,,,2021-07-29,1,,,,,レディーブラウンピクチャーズ,0
1574,6010405020074,新規,0,2021-07-29,2021-07-29,銀杏一般社団法人,,その他の設立登記法人,東京都,港区,西新橋１丁目２番９号ＥＰコンサルティングサービス内,,13,103,1050003,,,,,,,2021-07-29,1,,,,,イチョウ,0
1581,6010601059701,新規,0,2021-07-29,2021-07-29,株式会社オーシャン・セルコマース,,株式会社,東京都,江東区,深川１丁目３番１２号出町ビル５０２,,13,108,1350033,,,,,,,2021-07-29,1,,,,,オーシャンセルコマース,0
1586,6010703005867,新規,0,2021-07-29,2021-07-29,合同会社ＬＴ　Ｐａｒｔｎｅｒｓ,,合同会社,東京都,品川区,西五反田３丁目１０番１８－２００２号,,13,109,1410031,,,,,,,2021-07-29,1,,,,,エルティーパートナーズ,0
1587,6010703005875,新規,0,2021-07-29,2021-07-29,合同会社ダブルエフ,,合同会社,東京都,品川区,大崎３丁目５－３,,13,109,1410032,,,,,,,2021-07-29,1,,,,,ダブルエフ,0
1610,6011001141900,新規,0,2021-07-29,2021-07-29,フローラルトレーディング株式会社,,株式会社,東京都,渋谷区,神宮前６丁目２９番４号原宿ｋｏｍｉｙａビル６階,,13,113,1500001,,,,,,,2021-07-29,1,,,,,フローラルトレーディング,0
1611,6011001141917,新規,0,2021-07-29,2021-07-29,株式会社ザ・ファージ,,株式会社,東京都,渋谷区,渋谷３丁目１７番４号山口ビル５Ｆ,,13,113,1500002,,,,,,,2021-07-29,1,,,,,ザファージ,0
1614,6011101095807,新規,0,2021-07-29,2021-07-29,株式会社グレウォル世那永咲ホールディングス,,株式会社,東京都,新宿区,四谷坂町５番,,13,104,1600002,,,,,,,2021-07-29,1,,,,,グレウォルセナエイサホールディングス,0
1618,6011303004103,新規,0,2021-07-29,2021-07-29,合同会社鍋岡,,合同会社,東京都,杉並区,西荻北３丁目３１番１３号,,13,115,1670042,,,,,,,2021-07-29,1,,,,,ナベオカ,0
1624,6011601025296,新規,0,2021-07-29,2021-07-29,フォガジャパン株式会社,,株式会社,東京都,練馬区,貫井１丁目４２番８－１０２号,,13,120,1760021,,,,,,,2021-07-29,1,,,,,フォガジャパン,0
1625,6011703002904,新規,0,2021-07-29,2021-07-29,合同会社ＭＯＶＡＮＯ,,合同会社,東京都,江戸川区,東小岩５丁目１１番４号,,13,123,1330052,,,,,,,2021-07-29,1,,,,,ムーヴァノ,0
1637,6013301047793,新規,0,2021-07-29,2021-07-29,株式会社ＳＨＥＭ．ＳＹＳ,,株式会社,東京都,豊島区,西池袋５丁目２６番１６号,,13,116,1710021,,,,,,,2021-07-29,1,,,,,エスエイチイーエムシス,0
1651,6020001142338,新規,0,2021-07-29,2021-07-29,株式会社中日教育促進センター,,株式会社,神奈川県,横浜市港北区,小机町１０３番地１ライフヒルズ小机３１２,,14,109,2220036,,,,,,,2021-07-29,1,,,,,チュウニチキョウイクソクシンセンター,0
1652,6020001142346,新規,0,2021-07-29,2021-07-29,ＴＭＴユニバーサル株式会社,,株式会社,神奈川県,横浜市中区,桜木町１丁目１番地７ヒューリックみなとみらい１０階,,14,104,2310062,,,,,,,2021-07-29,1,,,,,ティーエムティーユニバーサル,0
1653,6020001142387,新規,0,2021-07-29,2021-07-29,株式会社ガーデンシティ教育サービス,,株式会社,神奈川県,横浜市鶴見区,梶山２丁目１９番３号,,14,101,2300072,,,,,,,2021-07-29,1,,,,,ガーデンシティキョウイクサービス,0
1654,6020003020252,新規,0,2021-07-29,2021-07-29,合同会社プラス,,合同会社,神奈川県,川崎市川崎区,東田町３番地２４コスモビル２階,,14,131,2100005,,,,,,,2021-07-29,1,,,,,プラス,0
1658,6021001073507,新規,0,2021-07-29,2021-07-29,Ｆｉｖｅ　Ｌａｂｅｌ株式会社,,株式会社,神奈川県,茅ヶ崎市,小和田１丁目３番１９号,,14,207,2530012,,,,,,,2021-07-29,1,,,,,ファイブレーベル,0
1659,6021001073515,新規,0,2021-07-29,2021-07-29,株式会社ヴィラ・ユキ,,株式会社,神奈川県,相模原市緑区,下九沢２００４番地,,14,151,2520134,,,,,,,2021-07-29,1,,,,,ヴィラユキ,0
1663,6021003010730,新規,0,2021-07-29,2021-07-29,ｉｒｅｎｋａｒｕｔ合同会社,,合同会社,神奈川県,秦野市,曽屋８１６番地の２０,,14,211,2570031,,,,,,,2021-07-29,1,,,,,イレンカラット,0
1665,6021005012262,新規,0,2021-07-29,2021-07-29,特定非営利活動法人日本フィールド環境保全協会,,その他の設立登記法人,神奈川県,相模原市緑区,城山２丁目６番１２号,,14,151,2520116,,,,,,,2021-07-29,1,,,,,ニホンフィールドカンキョウホゼンキョウカイ,0
1666,6021005012270,新規,0,2021-07-29,2021-07-29,土地家屋調査士法人坂間測量登記事務所,,その他の設立登記法人,神奈川県,相模原市緑区,鳥屋１５２１－２,,14,151,2520155,,,,,,,2021-07-29,1,,,,,サカマソクリョウトウキジムショ,0
1667,6030001143525,新規,0,2021-07-29,2021-07-29,株式会社蘇福,,株式会社,埼玉県,さいたま市見沼区,大字南中野８５９番地２,,11,104,3370042,,,,,,,2021-07-29,1,,,,,ソフク,0
1668,6030001143533,新規,0,2021-07-29,2021-07-29,株式会社ウルユス,,株式会社,埼玉県,白岡市,岡泉８９８番地２,,11,246,3490226,,,,,,,2021-07-29,1,,,,,ウルユス,0
1669,6030003017693,新規,0,2021-07-29,2021-07-29,合同会社ＴｉＭｅ,,合同会社,埼玉県,入間郡三芳町,大字藤久保７０１番地２４,,11,324,3540041,,,,,,,2021-07-29,1,,,,,タイム,0
1674,6040001119524,新規,0,2021-07-29,2021-07-29,株式会社松玄,,株式会社,千葉県,木更津市,幸町１丁目５番１８号,,12,206,2920803,,,,,,,2021-07-29,1,,,,,ショウゲン,0
1675,6040003018220,新規,0,2021-07-29,2021-07-29,合同会社Ｏｕｔｆｉｔ　Ｏｎｅ,,合同会社,千葉県,松戸市,二十世紀が丘梨元町１０８番地２,,12,207,2710083,,,,,,,2021-07-29,1,,,,,アウトフィットワン,0
1676,6040003018229,新規,0,2021-07-29,2021-07-29,合同会社ＭＴＫ,,合同会社,千葉県,船橋市,前原西６丁目６番１９号,,12,204,2740825,,,,,,,2021-07-29,1,,,,,エムティーケー,0
1678,6050001049605,新規,0,2021-07-29,2021-07-29,株式会社ランドウェル,,株式会社,茨城県,常総市,内守谷町１９６５番地１,,08,211,3030043,,,,,,,2021-07-29,1,,,,,ランドウェル,0
1679,6050003006001,新規,0,2021-07-29,2021-07-29,合同会社さめがわ自動車工業,,合同会社,茨城県,水戸市,元吉田町２０２４番地の６,,08,201,3100836,,,,,,,2021-07-29,1,,,,,サメガワジドウシャコウギョウ,0
1682,6060001033946,新規,0,2021-07-29,2021-07-29,株式会社ＡＮＤ　ＢＥＡＵＴＹ,,株式会社,栃木県,小山市,城北５丁目１５番地４コーラルリーフ３０３,,09,208,3230029,,,,,,,2021-07-29,1,,,,,アンドビューティー,0
1694,6080101022681,新規,0,2021-07-29,2021-07-29,ＧＯＮＥＸＴ株式会社,,株式会社,静岡県,沼津市,下香貫宮脇３１６番地の３,,22,203,4100822,,,,,,,2021-07-29,1,,,,,ゴーネクスト,0
1696,6080403004337,新規,0,2021-07-29,2021-07-29,合同会社ＦＲＢ,,合同会社,静岡県,袋井市,方丈３丁目５番地の６メゾンブランシュⅡ２０１号室,00123772,22,216,4370022,,,,,,,2021-07-29,1,,,,,ゴウドウガイシャエフアールビー,0
1700,6100003006185,新規,0,2021-07-29,2021-07-29,合同会社安曇野ブルワリ－,,合同会社,長野県,安曇野市,穂高５９５０番地１,,20,220,3998303,,,,,,,2021-07-29,1,,,,,アズミノブルワリー,0
1708,6120001239306,新規,0,2021-07-29,2021-07-29,株式会社ｗｏｒｋ　ｏｕｔｓ,,株式会社,大阪府,大阪市生野区,田島１丁目１６番３号,,27,116,5440011,,,,,,,2021-07-29,1,,,,,ワークアウツ,0
1709,6120001239371,新規,0,2021-07-29,2021-07-29,株式会社金土木水火,,株式会社,大阪府,大阪市西区,京町堀２丁目４番１号グランドメゾン京町堀タワー２７１０号,,27,106,5500003,,,,,,,2021-07-29,1,,,,,キントキスイカ,0
1710,6120001239388,新規,0,2021-07-29,2021-07-29,株式会社ＦＣＳ,,株式会社,大阪府,大阪市中央区,難波５丁目１－６０なんばスカイオ２７階,,27,128,5420076,,,,,,,2021-07-29,1,,,,,エフシーエス,0
1716,6120005022419,新規,0,2021-07-29,2021-07-29,一般社団法人Ｌ・Ｄ・Ｋ,,その他の設立登記法人,大阪府,大阪市福島区,大開１丁目４番１３号,,27,103,5530007,,,,,,,2021-07-29,1,,,,,イッパシャダンホウジンエルディーケー,0
1722,6120103004277,新規,0,2021-07-29,2021-07-29,合同会社リアン,,合同会社,大阪府,羽曳野市,野々上２丁目７番１５号,,27,222,5830871,,,,,,,2021-07-29,1,,,,,リアン,0
1733,6130001069776,新規,0,2021-07-29,2021-07-29,ＯＮＣＲＡＮＥ株式会社,,株式会社,京都府,京田辺市,山手東１丁目４７番地７,,26,211,6100357,,,,,,,2021-07-29,1,,,,,オンクレーン,0
1734,6130001069818,新規,0,2021-07-29,2021-07-29,株式会社木村,,株式会社,京都府,京都市左京区,北白川堂ノ前町３９－６－１Ｆ,,26,103,6068277,,,,,,,2021-07-29,1,,,,,キムラ,0
1737,6130003007387,新規,0,2021-07-29,2021-07-29,合同会社アットファースト,,合同会社,京都府,京田辺市,田辺中央１丁目７番地２、９０１,,26,211,6100334,,,,,,,2021-07-29,1,,,,,アットファースト,0
1747,6140001122451,新規,0,2021-07-29,2021-07-29,株式会社オールドコーナー,,株式会社,兵庫県,高砂市,米田町米田５７９番地の１４,,28,216,6760805,,,,,,,2021-07-29,1,,,,,オールドコーナー,0
1748,6140001122484,新規,0,2021-07-29,2021-07-29,株式会社Ｍｅｒｃｈａｎｔ,,株式会社,兵庫県,神戸市灘区,箕岡通１丁目６番１６号,,28,102,6570812,,,,,,,2021-07-29,1,,,,,マーチャント,0
1752,6140003016560,新規,0,2021-07-29,2021-07-29,リビタス合同会社,,合同会社,兵庫県,加古川市,八幡町宗佐１１５９番地,,28,210,6751201,,,,,,,2021-07-29,1,,,,,リビタス,0
1759,6150001024820,新規,0,2021-07-29,2021-07-29,株式会社トータルソリューション,,株式会社,奈良県,香芝市,別所２８番地８,,29,210,6390224,,,,,,,2021-07-29,1,,,,,トータルソリューション,0
1772,6180001147148,新規,0,2021-07-29,2021-07-29,株式会社ＴＴＲ,,株式会社,愛知県,名古屋市千種区,春岡通５丁目２７番地３,,23,101,4640847,,,,,,,2021-07-29,1,,,,,ティーティーアール,0
1773,6180001147156,新規,0,2021-07-29,2021-07-29,ＭＩＹＡＢＩエンジニアリング株式会社,,株式会社,愛知県,名古屋市西区,平中町１８９番地－２０２,,23,104,4520843,,,,,,,2021-07-29,1,,,,,ミヤビエンジニアリング,0
1774,6180003022761,新規,0,2021-07-29,2021-07-29,合同会社ｃｏｌｏｒ,,合同会社,愛知県,名古屋市西区,名駅２丁目３４番１７号セントラル名古屋１１０１,,23,104,4510045,,,,,,,2021-07-29,1,,,,,カラー,0
1775,6180003022786,新規,0,2021-07-29,2021-07-29,合同会社ワイズクリエイト,,合同会社,愛知県,尾張旭市,大塚町３丁目２番地５,,23,226,4880826,,,,,,,2021-07-29,1,,,,,ワイズクリエイト,0
1776,6180003022794,新規,0,2021-07-29,2021-07-29,合同会社ＴＡＫ,,合同会社,愛知県,名古屋市名東区,上社２丁目６８番地オリンピア７５－６０５号,,23,115,4650025,,,,,,,2021-07-29,1,,,,,ティーエーケー,0
1784,6220001024318,新規,0,2021-07-29,2021-07-29,株式会社Ａｇ・ＩＮＦＩＮＩＴＹ,,株式会社,石川県,金沢市,片町２丁目１３番１１号,,17,201,9200981,,,,,,,2021-07-29,1,,,,,エージーインフィニティ,0
1785,6220001024326,新規,0,2021-07-29,2021-07-29,ＮＢ　ＴＲＥＡＴ株式会社,,株式会社,石川県,金沢市,田上さくら２丁目７６番地,,17,201,9201157,,,,,,,2021-07-29,1,,,,,エヌビートリート,0
1792,6240005015245,新規,0,2021-07-29,2021-07-29,行政書士法人リスナッツ,,その他の設立登記法人,広島県,福山市,王子町２丁目１８番２２号,,34,207,7210965,,,,,,,2021-07-29,1,,,,,リスナッツ,0
1795,6250001019026,新規,0,2021-07-29,2021-07-29,株式会社ＰＲＯＴＥＸ,,株式会社,山口県,周南市,大字富田２７２６番地１２,,35,215,7460034,,,,,,,2021-07-29,1,,,,,プロテックス,0
1802,6270003001327,新規,0,2021-07-29,2021-07-29,サニー合同会社,,合同会社,鳥取県,西伯郡南部町,大木屋１６１番地,,31,389,6830345,,,,,,,2021-07-29,1,,,,,サニー,0
1805,6280005007429,新規,0,2021-07-29,2021-07-29,一般社団法人まちづくり鳶巣,,その他の設立登記法人,島根県,出雲市,東林木町７０１番地１,,32,203,6930074,,,,,,,2021-07-29,1,,,,,マチヅクリトビス,0
1831,6350005006019,新規,0,2021-07-29,2021-07-29,田ノ上農事實行組合,,その他の設立登記法人,宮崎県,宮崎市,佐土原町下田島字田ノ上,,45,201,8800211,,,,,,,2021-07-29,1,,,,,,0
1846,6430001084670,新規,0,2021-07-29,2021-07-29,株式会社ＲＥＣレンタカー,,株式会社,北海道,札幌市豊平区,平岸五条１０丁目５番３－１４０２号,,01,105,0620935,,,,,,,2021-07-29,1,,,,,レックレンタカー,0
1853,6480003001693,新規,0,2021-07-29,2021-07-29,金子設計合同会社,,合同会社,徳島県,徳島市,南常三島町３丁目２３番３号ＪｅｎｋｓＶｉｌｌａ２０２号,,36,201,7700814,,,,,,,2021-07-29,1,,,,,カネコセッケイ,0
1854,6490001009944,新規,0,2021-07-29,2021-07-29,株式会社せとみカンパニー,,株式会社,高知県,高知市,旭駅前町３３番地アルファステイツ旭駅前３０１,,39,201,7800938,,,,,,,2021-07-29,1,,,,,セトミカンパニー,0
1855,6500001023588,新規,0,2021-07-29,2021-07-29,株式会社清水電工,,株式会社,愛媛県,松山市,久万ノ台４９８番地１,,38,201,7918016,,,,,,,2021-07-29,1,,,,,シミズデンコウ,0
1856,6700150104210,新規,0,2021-07-29,2021-07-29,Ｓｈａｉｍａ　Ａｕｔｏ　Ｃａｒｓ,,外国会社等,千葉県,富里市,立沢新田８６番地１４７オフィスＣ号,,12,233,2860215,スリランカ民主社会主義共和国、クリヤピティヤ、マダンペロード、２９５－２,,,,,,2021-07-29,1,,,,,シヤイマオートカーズ,0
1862,7010001219994,新規,0,2021-07-29,2021-07-29,株式会社坤元,,株式会社,東京都,中央区,銀座４丁目１３番８号,,13,102,1040061,,,,,,,2021-07-29,1,,,,,コンゲン,0
1867,7010003035416,新規,0,2021-07-29,2021-07-29,Ｖｅｒｔｅｘ　Ｊａｐａｎ合同会社,,合同会社,東京都,千代田区,大手町１丁目９番２号大手町フィナンシャルシティ・グランキューブ３階,,13,101,1000004,,,,,,,2021-07-29,1,,,,,バーテックスジャパン,0
1868,7010003035457,新規,0,2021-07-29,2021-07-29,合同会社Ｍ．Ｊａｐａｎ,,合同会社,東京都,千代田区,飯田橋１丁目３－７ＪＣ九段下ビル９Ｆ,,13,101,1020072,,,,,,,2021-07-29,1,,,,,エムジャパン,0
1869,7010103001739,新規,0,2021-07-29,2021-07-29,ＡＩバリュエーション合同会社,,合同会社,東京都,八王子市,狭間町１８５６番地７,,13,201,1930941,,,,,,,2021-07-29,1,,,,,エーアイバリュエーション,0
1876,7010401161706,新規,0,2021-07-29,2021-07-29,シリウスブルー株式会社,,株式会社,東京都,港区,白金３丁目１番１３号日恵ビル２階,,13,103,1080072,,,,,,,2021-07-29,1,,,,,シリウスブルー,0
1877,7010401161755,新規,0,2021-07-29,2021-07-29,株式会社Ｓｗｉｓｈ,,株式会社,東京都,港区,虎ノ門１丁目１７番１号虎ノ門ヒルズビジネスタワー１５階,,13,103,1050001,,,,,,,2021-07-29,1,,,,,スウィッシュ,0
1884,7010405020057,新規,0,2021-07-29,2021-07-29,ＰＪＭＦ　Ｉｎｖｅｓｔｍｅｎｔｓ一般社団法人,,その他の設立登記法人,東京都,港区,元赤坂１丁目１番７－１００６号,,13,103,1070051,,,,,,,2021-07-29,1,,,,,ピージェーエムエフインベストメンツ,0
1885,7010405020073,新規,0,2021-07-29,2021-07-29,水仙一般社団法人,,その他の設立登記法人,東京都,港区,西新橋１丁目２番９号ＥＰコンサルティングサービス内,,13,103,1050003,,,,,,,2021-07-29,1,,,,,スイセン,0
1891,7010601059700,新規,0,2021-07-29,2021-07-29,ＦＳホールディングス株式会社,,株式会社,東京都,江東区,木場１丁目５番６５号,,13,108,1350042,,,,,,,2021-07-29,1,,,,,エフエスホールディングス,0
1892,7010601059709,新規,0,2021-07-29,2021-07-29,株式会社アルティム,,株式会社,東京都,江東区,亀戸５丁目３３番１７－５０９号,,13,108,1360071,,,,,,,2021-07-29,1,,,,,アルティム,0
1894,7010701041310,新規,0,2021-07-29,2021-07-29,株式会社マネテック,,株式会社,東京都,品川区,西品川２丁目２－２０サンテミリオン品川西３０８,,13,109,1410033,,,,,,,2021-07-29,1,,,,,マネテック,0
1895,7010701041319,新規,0,2021-07-29,2021-07-29,株式会社プラネットグループ,,株式会社,東京都,品川区,北品川４丁目７番３５号御殿山森ビル３階,,13,109,1400001,,,,,,,2021-07-29,1,,,,,プラネットグループ,0
1896,7010701041327,新規,0,2021-07-29,2021-07-29,株式会社３９６,,株式会社,東京都,品川区,東大井３丁目２０番２７号,,13,109,1400011,,,,,,,2021-07-29,1,,,,,ミクロ,0
1897,7010703005866,新規,0,2021-07-29,2021-07-29,アクセル合同会社,,合同会社,東京都,品川区,東五反田４丁目１－２７－２－９０２,,13,109,1410022,,,,,,,2021-07-29,1,,,,,アクセル,0
1898,7010703005874,新規,0,2021-07-29,2021-07-29,ＳＰＡＳＥ合同会社,,合同会社,東京都,品川区,小山台１丁目１２番３号,,13,109,1420061,,,,,,,2021-07-29,1,,,,,スペース,0
1901,7010801032184,新規,0,2021-07-29,2021-07-29,株式会社ワイ・エム・エス,,株式会社,東京都,大田区,南千束１丁目１４番１号,,13,111,1450063,,,,,,,2021-07-29,1,,,,,,0
1910,7011003013114,新規,0,2021-07-29,2021-07-29,ＳＩ　Ａｃｃｏｕｎｔｉｎｇ合同会社,,合同会社,東京都,渋谷区,代々木１丁目１８番１５号,,13,113,1510053,,,,,,,2021-07-29,1,,,,,エスアイアカウンティング,0
1911,7011003013130,新規,0,2021-07-29,2021-07-29,合同会社ボレロ,,合同会社,東京都,渋谷区,代官山町１７番６号アドレス・ディセ３Ｆ,,13,113,1500034,,,,,,,2021-07-29,1,,,,,ボレロ,0
1914,7011101095822,新規,0,2021-07-29,2021-07-29,株式会社ＳＥＴＴＥＮ,,株式会社,東京都,新宿区,歌舞伎町２丁目１０－２ジェスト３ビル５階,,13,104,1600021,,,,,,,2021-07-29,1,,,,,セッテン,0
1915,7011101095847,新規,0,2021-07-29,2021-07-29,あはは株式会社,,株式会社,東京都,新宿区,四谷４丁目２８－１４パレウルー３Ｆ,,13,104,1600004,,,,,,,2021-07-29,1,,,,,アハハ,0
1916,7011101095863,新規,0,2021-07-29,2021-07-29,ＬＩＸＥＲ株式会社,,株式会社,東京都,新宿区,住吉町１５番１２号,,13,104,1620065,,,,,,,2021-07-29,1,,,,,リクサー,0
1918,7011103010903,新規,0,2021-07-29,2021-07-29,合同会社Ｙ・Ｔインベストメント,,合同会社,東京都,新宿区,新宿７丁目２０－６大久保マンション,,13,104,1600022,,,,,,,2021-07-29,1,,,,,ワイティーインベストメント,0
1920,7011301027063,新規,0,2021-07-29,2021-07-29,株式会社オフィスパルネットクリエート,,株式会社,東京都,杉並区,浜田山１丁目３３番３２－２０７号,,13,115,1680065,,,,,,,2021-07-29,1,,,,,オフィスパルネットクリエート,0
1925,7011601025295,新規,0,2021-07-29,2021-07-29,株式会社ＫＵＳＭＩ,,株式会社,東京都,練馬区,豊玉北１丁目１３番１９－１０２号,,13,120,1760012,,,,,,,2021-07-29,1,,,,,クスミ,0
1928,7011701024585,新規,0,2021-07-29,2021-07-29,株式会社ハヤシ商事,,株式会社,東京都,江戸川区,西葛西８丁目４番１３－６１８号,,13,123,1340088,,,,,,,2021-07-29,1,,,,,,0
1931,7011703002903,新規,0,2021-07-29,2021-07-29,ロータスオーシャンジャパン合同会社,,合同会社,東京都,江戸川区,北小岩６丁目１５番１０号リエス京成小岩駅前７０３,,13,123,1330051,,,,,,,2021-07-29,1,,,,,ロータスオーシャンジャパン,0
1936,7012401038149,新規,0,2021-07-29,2021-07-29,小池ソフトウェア株式会社,,株式会社,東京都,三鷹市,下連雀２丁目６番５号,,13,204,1810013,,,,,,,2021-07-29,1,,,,,コイケソフトウェア,0
1937,7012403004966,新規,0,2021-07-29,2021-07-29,合同会社ＩＣＳ,,合同会社,東京都,小金井市,前原町４丁目２２－２８－３０５,,13,210,1840013,,,,,,,2021-07-29,1,,,,,アイシーエス,0
1950,7020001142353,新規,0,2021-07-29,2021-07-29,吉村工業株式会社,,株式会社,神奈川県,横浜市金沢区,釜利谷西１丁目５９番２２号,,14,108,2360046,,,,,,,2021-07-29,1,,,,,ヨシムラコウギョウ,0
1951,7020001142378,新規,0,2021-07-29,2021-07-29,株式会社ＳＵＰＲＡ,,株式会社,神奈川県,横浜市港南区,芹が谷４丁目２９番１４号,,14,111,2330006,,,,,,,2021-07-29,1,,,,,スープラ,0
1952,7020001142403,新規,0,2021-07-29,2021-07-29,株式会社Ｂｌｕｅ　Ｌｏｔｕｓ,,株式会社,神奈川県,横浜市中区,相生町２丁目４３番地１,,14,104,2310012,,,,,,,2021-07-29,1,,,,,ブルーロータス,0
1953,7020001142411,新規,0,2021-07-29,2021-07-29,ＯＭＤ株式会社,,株式会社,神奈川県,横浜市緑区,長津田みなみ台７丁目８番地５０,,14,113,2260018,,,,,,,2021-07-29,1,,,,,オーエムディー,0
1958,7020003020243,新規,0,2021-07-29,2021-07-29,合同会社ａ－ｃｈａｎ＆ｏ－ｃｈａｎ,,合同会社,神奈川県,横浜市金沢区,富岡西４丁目８０番７号,,14,108,2360052,,,,,,,2021-07-29,1,,,,,アーチャンアンドオーチャン,0
1961,7021001073506,新規,0,2021-07-29,2021-07-29,株式会社モアクラース,,株式会社,神奈川県,大和市,つきみ野５丁目８番地つきみ野ビレジＡ－７０５,,14,213,2420002,,,,,,,2021-07-29,1,,,,,モアクラース,0
1962,7021001073530,新規,0,2021-07-29,2021-07-29,株式会社ＢＬＵＥ,,株式会社,神奈川県,藤沢市,辻堂元町６丁目２０番１号湘南Ｔ－ＳＩＴＥ２号館２階,,14,205,2510043,,,,,,,2021-07-29,1,,,,,ブルー,0
1971,7030001143532,新規,0,2021-07-29,2021-07-29,株式会社東埼商事,,株式会社,埼玉県,行田市,大字下忍６４６番地４,,11,206,3610037,,,,,,,2021-07-29,1,,,,,トウサイショウジ,0
1972,7030001143573,新規,0,2021-07-29,2021-07-29,株式会社大友,,株式会社,埼玉県,富士見市,関沢３丁目４０番２７号,,11,235,3540025,,,,,,,2021-07-29,1,,,,,ダイユウ,0
1977,7030003017684,新規,0,2021-07-29,2021-07-29,イールサポ合同会社,,合同会社,埼玉県,朝霞市,宮戸４丁目１２番６９号,,11,227,3510031,,,,,,,2021-07-29,1,,,,,イールサポ,0
1984,7040001119523,新規,0,2021-07-29,2021-07-29,株式会社フランネル,,株式会社,千葉県,市原市,今富９９４番地１,,12,219,2900265,,,,,,,2021-07-29,1,,,,,フランネル,0
1985,7040001119531,新規,0,2021-07-29,2021-07-29,ＴＡＫＥＹＡ株式会社,,株式会社,千葉県,千葉市若葉区,野呂町６２３番地１３３,,12,104,2650053,,,,,,,2021-07-29,1,,,,,タケヤ,0
1986,7040001119556,新規,0,2021-07-29,2021-07-29,株式会社ｓｏＬｉｄｏ,,株式会社,千葉県,館山市,北条２５５０番地の３４,,12,205,2940045,,,,,,,2021-07-29,1,,,,,ソリド,0
1989,7040003018244,新規,0,2021-07-29,2021-07-29,合同会社ＦＡＣＥ,,合同会社,千葉県,船橋市,海神１丁目６番７－２０１号,,12,204,2730021,,,,,,,2021-07-29,1,,,,,フェイス,0
1994,7060001033937,新規,0,2021-07-29,2021-07-29,株式会社坂本商会,,株式会社,栃木県,小山市,大字東野田字山中２３４２番１０,,09,208,3230817,,,,,,,2021-07-29,1,,,,,サカモトショウカイ,0
1995,7060001033945,新規,0,2021-07-29,2021-07-29,株式会社テラシマ,,株式会社,栃木県,下都賀郡野木町,大字野木２４６６番地３,,09,364,3290114,,,,,,,2021-07-29,1,,,,,テラシマ,0
2005,7080003002616,新規,0,2021-07-29,2021-07-29,Ｏ２合同会社,,合同会社,静岡県,静岡市清水区,万世町２丁目１１番６号,,22,103,4240826,,,,,,,2021-07-29,1,,,,,オーツー,0
2007,7080101022680,新規,0,2021-07-29,2021-07-29,株式会社エスライン,,株式会社,静岡県,富士市,五貫島２１６番地の５,,22,210,4160946,,,,,,,2021-07-29,1,,,,,エスライン,0
2018,7120001239313,新規,0,2021-07-29,2021-07-29,株式会社Ｌｉａｍ,,株式会社,大阪府,大阪市西区,南堀江１丁目２３番８－１００２号,,27,106,5500015,,,,,,,2021-07-29,1,,,,,リアム,0
2024,7122005003570,新規,0,2021-07-29,2021-07-29,医療法人山林歯科医院,,その他の設立登記法人,大阪府,東大阪市,四条町１番１４号フォーチュンコートビル３階,,27,227,5798053,,,,,,,2021-07-29,1,,,,,ヤマバヤシシカイイン,0
2026,7130001069800,新規,0,2021-07-29,2021-07-29,株式会社エーアスクール,,株式会社,京都府,長岡京市,天神１丁目１－２８司ビル１Ｆ,,26,209,6170824,,,,,,,2021-07-29,1,,,,,エーアスクール,0
2027,7130001069817,新規,0,2021-07-29,2021-07-29,株式会社オフサルＫ,,株式会社,京都府,京都市南区,唐橋羅城門町４７番地１,,26,107,6018453,,,,,,,2021-07-29,1,,,,,オフサルケイ,0
2028,7130003007394,新規,0,2021-07-29,2021-07-29,合同会社椿の詩,,合同会社,京都府,与謝郡与謝野町,字岩屋１３６番地１,,26,465,6292314,,,,,,,2021-07-29,1,,,,,ツバキノウタ,0
2037,7140001122450,新規,0,2021-07-29,2021-07-29,ｆｕｔａｒｉｎｏ株式会社,,株式会社,兵庫県,西宮市,東山台３丁目４１番１３号,,28,204,6691133,,,,,,,2021-07-29,1,,,,,フタリノ,0
2038,7140001122475,新規,0,2021-07-29,2021-07-29,株式会社ＧＲＯＷ,,株式会社,兵庫県,明石市,王子２丁目７番５号,,28,203,6730022,,,,,,,2021-07-29,1,,,,,グロー,0
2047,7160001023515,新規,0,2021-07-29,2021-07-29,株式会社ＹＵＺＵ,,株式会社,滋賀県,守山市,浮気町２１番地１,,25,207,5240033,,,,,,,2021-07-29,1,,,,,ユズ,0
2052,7180001147114,新規,0,2021-07-29,2021-07-29,株式会社Ａｒｔ＆Ｅｎｔｅｒｔａｉｎｍｅｎｔ,,株式会社,愛知県,名古屋市千種区,千種通７丁目２５番地の１,,23,101,4640855,,,,,,,2021-07-29,1,,,,,アートアンドエンターテイメント,0
2053,7180001147171,新規,0,2021-07-29,2021-07-29,株式会社エンカウンター,,株式会社,愛知県,名古屋市西区,清里町１９３番地,,23,104,4520801,,,,,,,2021-07-29,1,,,,,エンカウンター,0
2055,7180003022785,新規,0,2021-07-29,2021-07-29,合同会社Ｙ′Ｓ　ＯＣＥＡＮ,,合同会社,愛知県,名古屋市千種区,山添町１丁目６６番地,,23,101,4640832,,,,,,,2021-07-29,1,,,,,ワイズオーシャン,0
2056,7180005019383,新規,0,2021-07-29,2021-07-29,一般財団法人高臣財団,00123764,その他の設立登記法人,愛知県,長久手市,市が洞１丁目５０１番地ライオンズ長久手サザンマークス１１０４号,,23,238,4801147,,,,,,,2021-07-29,1,,,,,タカトミザイダン,0
2066,7200001038938,新規,0,2021-07-29,2021-07-29,株式会社ルーチェ,,株式会社,岐阜県,大垣市,東前２丁目７７（５０３）,,21,202,5030835,,,,,,,2021-07-29,1,,,,,ルーチェ,0
2069,7220001024317,新規,0,2021-07-29,2021-07-29,株式会社競馬全レース予想ＴＶ,,株式会社,石川県,野々市市,粟田５丁目４９９番地,,17,212,9218823,,,,,,,2021-07-29,1,,,,,ケイバゼンレースヨソウティーヴィー,0
2076,7240003005214,新規,0,2021-07-29,2021-07-29,合同会社Ｊｏｙｉｎｓ,,合同会社,広島県,福山市,丸之内２丁目８番９号２階,,34,207,7200061,,,,,,,2021-07-29,1,,,,,ジョインズ,0
2077,7250001019025,新規,0,2021-07-29,2021-07-29,株式会社いずみ,,株式会社,山口県,宇部市,東本町２丁目１３番１９号,,35,202,7550028,,,,,,,2021-07-29,1,,,,,イズミ,0
2081,7270003001326,新規,0,2021-07-29,2021-07-29,合同会社ゆまにて,,合同会社,鳥取県,米子市,岡成５８０番地２０９,,31,202,6893513,,,,,,,2021-07-29,1,,,,,ユマニテ,0
2096,7310003004126,新規,0,2021-07-29,2021-07-29,合同会社あずき,,合同会社,長崎県,長崎市,上戸町１丁目１３番２２－３０３号,,42,201,8500953,,,,,,,2021-07-29,1,,,,,アズキ,0
2098,7320001018507,新規,0,2021-07-29,2021-07-29,株式会社合沢板金,,株式会社,大分県,竹田市,大字竹田２１０４番地,,44,208,8780013,,,,,,,2021-07-29,1,,,,,アイザワバンキン,0
2104,7360001029120,新規,0,2021-07-29,2021-07-29,琉球エレック株式会社,,株式会社,沖縄県,浦添市,伊祖２丁目４番７－４０２号グレースビルてるや,,47,208,9012132,,,,,,,2021-07-29,1,,,,,リュウキュウエレック,0
2123,7400001015537,新規,0,2021-07-29,2021-07-29,株式会社ライズ,,株式会社,岩手県,岩手郡雫石町,長山赤坂１１０番地２,,03,301,0200585,,,,,,,2021-07-29,1,,,,,ライズ,0
2131,7470003001999,新規,0,2021-07-29,2021-07-29,合同会社フリーアカウント,,合同会社,香川県,高松市,仏生山町甲８３６番地１ガーデンハイツピュア３０６号,,37,201,7618078,,,,,,,2021-07-29,1,,,,,フリーアカウント,0
2141,8010001219960,新規,0,2021-07-29,2021-07-29,ＡｍａｇｌＥ株式会社,,株式会社,東京都,千代田区,神田淡路町１丁目９－５,,13,101,1010063,,,,,,,2021-07-29,1,,,,,アマグル,0
2142,8010001219969,新規,0,2021-07-29,2021-07-29,株式会社未来アシスト,,株式会社,東京都,千代田区,神田神保町２丁目２０番地ワカヤギビル４０８号,,13,101,1010051,,,,,,,2021-07-29,1,,,,,ミライアシスト,0
2143,8010001219977,新規,0,2021-07-29,2021-07-29,株式会社グローバルヒューマニー・テック,,株式会社,東京都,千代田区,外神田５丁目１番５号,,13,101,1010021,,,,,,,2021-07-29,1,,,,,グローバルヒューマニーテック,0
2144,8010001220010,新規,0,2021-07-29,2021-07-29,ワイエスコーポレーションジャパン株式会社,,株式会社,東京都,中央区,日本橋小伝馬町１６番５号,,13,102,1030001,,,,,,,2021-07-29,1,,,,,ワイエスコーポレーションジャパン,0
2147,8010003035423,新規,0,2021-07-29,2021-07-29,シーオフ合同会社,,合同会社,東京都,中央区,日本橋２丁目１番１７号丹生ビル２階,,13,102,1030027,,,,,,,2021-07-29,1,,,,,シーオフ,0
2158,8010401161705,新規,0,2021-07-29,2021-07-29,株式会社広尾東洋医学センター,,株式会社,東京都,港区,南麻布５丁目１０番２４－６０１号,,13,103,1060047,,,,,,,2021-07-29,1,,,,,ヒロオトウヨウイガクセンター,0
2166,8010405020072,新規,0,2021-07-29,2021-07-29,山桜一般社団法人,,その他の設立登記法人,東京都,港区,西新橋１丁目２番９号ＥＰコンサルティングサービス内,,13,103,1050003,,,,,,,2021-07-29,1,,,,,ヤマザクラ,0
2168,8010601059716,新規,0,2021-07-29,2021-07-29,株式会社イエマルシェ,,株式会社,東京都,江東区,豊洲３丁目６番５－１４０１号,,13,108,1350061,,,,,,,2021-07-29,1,,,,,イエマルシェ,0
2171,8010603009066,新規,0,2021-07-29,2021-07-29,合同会社プロボノ,,合同会社,東京都,江東区,有明２丁目１番２－２６１５号,,13,108,1350063,,,,,,,2021-07-29,1,,,,,プロボノ,0
2172,8010701041318,新規,0,2021-07-29,2021-07-29,株式会社ＭｙｓＴ,,株式会社,東京都,品川区,上大崎１丁目１２番６号,,13,109,1410021,,,,,,,2021-07-29,1,,,,,ミスト,0
2173,8010701041334,新規,0,2021-07-29,2021-07-29,株式会社Ｒ＆Ｍ,,株式会社,東京都,品川区,東大井６丁目１番７－５０２号,,13,109,1400011,,,,,,,2021-07-29,1,,,,,アールアンドエム,0
2176,8010803003835,新規,0,2021-07-29,2021-07-29,ＭＡＮＨ　ＨＵＮＧ合同会社,,合同会社,東京都,大田区,山王１丁目３１－２アート山王１階,,13,111,1430023,,,,,,,2021-07-29,1,,,,,マンフン,0
2180,8010903006688,新規,0,2021-07-29,2021-07-29,ＫＡＢＵＫＩＭＯＮＯ　ＤＥＳＩＧＮ合同会社,,合同会社,東京都,世田谷区,上用賀５丁目２７－１０♯１００,,13,112,1580098,,,,,,,2021-07-29,1,,,,,カブキモノデザイン,0
2181,8010903006696,新規,0,2021-07-29,2021-07-29,合同会社メグスタ,,合同会社,東京都,世田谷区,深沢２丁目８番１０号,,13,112,1580081,,,,,,,2021-07-29,1,,,,,メグスタ,0
2184,8010905004178,新規,0,2021-07-29,2021-07-29,一般社団法人１００Ｘプロジェクト,,その他の設立登記法人,東京都,世田谷区,松原６丁目３０番１４－４０３号,,13,112,1560043,,,,,,,2021-07-29,1,,,,,ワンハンドレッドエックスプロジェクト,0
2193,8011001141741,新規,0,2021-07-29,2021-07-29,株式会社想造,,株式会社,東京都,目黒区,下目黒２丁目２－２パークキューブ目黒タワー６１０号,,13,110,1530064,,,,,,,2021-07-29,1,,,,,ソウゾウ,0
2194,8011001141948,新規,0,2021-07-29,2021-07-29,ＳＳｎｅｔ株式会社,,株式会社,東京都,渋谷区,代々木２丁目３６番１３号,,13,113,1510053,,,,,,,2021-07-29,1,,,,,エスエスネット,0
2195,8011003013121,新規,0,2021-07-29,2021-07-29,ハートインジェネレーションズ合同会社,,合同会社,東京都,渋谷区,幡ヶ谷３丁目３９番１２号渋谷ウエストビル１階,,13,113,1510072,,,,,,,2021-07-29,1,,,,,ハートインジェネレーションズ,0
2198,8011101095854,新規,0,2021-07-29,2021-07-29,株式会社ほけんドクター,,株式会社,東京都,新宿区,大久保２丁目３番１６号サニー大久保２０２,,13,104,1690072,,,,,,,2021-07-29,1,,,,,ホケンドクター,0
2199,8011101095870,新規,0,2021-07-29,2021-07-29,Ｇｒａｎｄｅｕｒ　Ａｒｃｈｉｔｅｃｔ株式会社,,株式会社,東京都,新宿区,袋町５番地１ＦＡＲＯ神楽坂１階,,13,104,1620828,,,,,,,2021-07-29,1,,,,,グランドールアーキテクト,0
2200,8011103010885,新規,0,2021-07-29,2021-07-29,合同会社ねこねこカンパニー,,合同会社,東京都,新宿区,四谷坂町６－２０エスティメゾン四谷坂町７０１,,13,104,1600002,,,,,,,2021-07-29,1,,,,,ネコネコカンパニー,0
2207,8011601025294,新規,0,2021-07-29,2021-07-29,三栄宅株式会社,,株式会社,東京都,練馬区,南田中３丁目２３番９号,,13,120,1770035,,,,,,,2021-07-29,1,,,,,サンエイタク,0
2209,8011701024584,新規,0,2021-07-29,2021-07-29,株式会社木地健介事務所,,株式会社,東京都,江戸川区,南篠崎町４丁目１６番１４号,,13,123,1330065,,,,,,,2021-07-29,1,,,,,,0
2210,8011703002902,新規,0,2021-07-29,2021-07-29,ハニーアイランド合同会社,,合同会社,東京都,江戸川区,中央１丁目９番７－６０２号,,13,123,1320021,,,,,,,2021-07-29,1,,,,,ハニーアイランド,0
2215,8012401038148,新規,0,2021-07-29,2021-07-29,株式会社Ｄｅｎｔａｌ　Ｙ・Ｂ,,株式会社,東京都,府中市,是政１丁目３８番地の１６,,13,206,1830014,,,,,,,2021-07-29,1,,,,,デンタルワイビー,0
2217,8012705002270,新規,0,2021-07-29,2021-07-29,土地家屋調査士法人アイ・デザイン,,その他の設立登記法人,東京都,西東京市,保谷町６丁目２３番１２号,,13,229,2020015,,,,,,,2021-07-29,1,,,,,アイデザイン,0
2220,8013301047734,新規,0,2021-07-29,2021-07-29,株式会社ジェートル,,株式会社,東京都,豊島区,南池袋２丁目４１番１２号６０２,,13,116,1710022,,,,,,,2021-07-29,1,,,,,ジェートル,0
2221,8013301047791,新規,0,2021-07-29,2021-07-29,株式会社フラッシュ,,株式会社,東京都,豊島区,巣鴨１丁目３６番５ＪＹビル３０１,,13,116,1700002,,,,,,,2021-07-29,1,,,,,フラッシュ,0
2223,8013303005764,新規,0,2021-07-29,2021-07-29,合同会社ＳＩＸ,,合同会社,東京都,豊島区,池袋本町２丁目３２番１７号池澤ハウスＡ号,,13,116,1700011,,,,,,,2021-07-29,1,,,,,シックス,0
2239,8020003020242,新規,0,2021-07-29,2021-07-29,合同会社ＴＥＮＤＯ,,合同会社,神奈川県,川崎市川崎区,昭和２丁目１１番２３－３０１号,,14,131,2100813,,,,,,,2021-07-29,1,,,,,テンドー,0
2242,8021003010729,新規,0,2021-07-29,2021-07-29,美慶合同会社,,合同会社,神奈川県,相模原市南区,磯部１２４６番地１,,14,153,2520327,,,,,,,2021-07-29,1,,,,,ビケイ,0
2244,8030001143226,新規,0,2021-07-29,2021-07-29,株式会社ジーエス,,株式会社,埼玉県,川越市,大字笠幡１０４０－４,,11,201,3501175,,,,,,,2021-07-29,1,,,,,ジーエス,0
2247,8030005020462,新規,0,2021-07-29,2021-07-29,特定非営利活動法人ニコニコ,,その他の設立登記法人,埼玉県,所沢市,三ケ島３丁目１４２１番地,,11,208,3591164,,,,,,,2021-07-29,1,,,,,ニコニコ,0
2252,8040001119522,新規,0,2021-07-29,2021-07-29,株式会社ハナダ電機技術工業,,株式会社,千葉県,木更津市,八幡台３丁目１８番１０号,,12,206,2920814,,,,,,,2021-07-29,1,,,,,ハナダデンキギジュツコウギョウ,0
2253,8040001119530,新規,0,2021-07-29,2021-07-29,株式会社Ｌｍｉｎｄｓ,,株式会社,千葉県,柏市,今谷上町１番地９０,,12,217,2770074,,,,,,,2021-07-29,1,,,,,エルマインズ,0
2257,8050001049611,新規,0,2021-07-29,2021-07-29,ＡＲＣＳ株式会社,,株式会社,茨城県,日立市,金沢町７丁目７番１号,,08,202,3160015,,,,,,,2021-07-29,1,,,,,アークス,0
2260,8060001033936,新規,0,2021-07-29,2021-07-29,Ｌｏｏｍ株式会社,,株式会社,栃木県,栃木市,岩舟町静２１３０－２,,09,203,3294307,,,,,,,2021-07-29,1,,,,,ルーム,0
2263,8060003003763,新規,0,2021-07-29,2021-07-29,ＢｏｏＳｔａｒ合同会社,,合同会社,栃木県,宇都宮市,西２丁目５番１３号,,09,201,3200861,,,,,,,2021-07-29,1,,,,,ブースター,0
2264,8060005009890,新規,0,2021-07-29,2021-07-29,行政書士法人宇都宮国際法務事務所,,その他の設立登記法人,栃木県,宇都宮市,御幸ケ原町６８番地２,,09,201,3210982,,,,,,,2021-07-29,1,,,,,ウツノミヤコクサイホウムジムショ,0
2269,8080103002390,新規,0,2021-07-29,2021-07-29,ＨＭＲ合同会社,,合同会社,静岡県,沼津市,本田町１２番５号,,22,203,4100004,,,,,,,2021-07-29,1,,,,,エイチエムアール,0
2270,8090001017119,新規,0,2021-07-29,2021-07-29,株式会社つくし映像,,株式会社,山梨県,甲府市,屋形２丁目２‐３３Ａ‐３,,19,201,4000017,,,,,,,2021-07-29,1,,,,,ツクシエイゾウ,0
2285,8120001239304,新規,0,2021-07-29,2021-07-29,響商事株式会社,,株式会社,大阪府,枚方市,東中振２丁目２７番３４号,,27,210,5730093,,,,,,,2021-07-29,1,,,,,ヒビキショウジ,0
2286,8120001239411,新規,0,2021-07-29,2021-07-29,ＮＴＴ　ＰＡＲＡＶＩＴＡ株式会社,,株式会社,大阪府,大阪市中央区,馬場町３番１５号,,27,128,5400007,,,,,,,2021-07-29,1,,,,,エヌティティパラヴィータ,0
2288,8120003019919,新規,0,2021-07-29,2021-07-29,合同会社カジャビジュー,,合同会社,大阪府,大阪市西区,南堀江１丁目１０番１号,,27,106,5500015,,,,,,,2021-07-29,1,,,,,カジャビジュー,0
2289,8120003019927,新規,0,2021-07-29,2021-07-29,合同会社ｅｘｃｅｌｌｅｎｔ,,合同会社,大阪府,大阪市淀川区,十八条１丁目４番３６号,,27,123,5320001,,,,,,,2021-07-29,1,,,,,エクセレント,0
2297,8120901044662,新規,0,2021-07-29,2021-07-29,株式会社和,,株式会社,大阪府,箕面市,稲１丁目３番５－６１３号,,27,220,5620015,,,,,,,2021-07-29,1,,,,,ナゴミ,0
2299,8122001035022,新規,0,2021-07-29,2021-07-29,株式会社Ｎｏｒｔｈｅｒｎ　Ｌｉｇｈｔｓ,,株式会社,大阪府,大東市,御供田３丁目１０番９－１０４号,,27,218,5740025,,,,,,,2021-07-29,1,,,,,ノーザンライツ,0
2301,8130001069799,新規,0,2021-07-29,2021-07-29,株式会社ＲＩＧＷＯＲＫＳ,,株式会社,京都府,京都市西京区,川島六ノ坪町６３－８バンブーシュート洛西口Ⅱ２Ｆ,00123771,26,111,6158103,,,,,,,2021-07-29,1,,,,,リグワークス,0
2302,8130001069808,新規,0,2021-07-29,2021-07-29,京都ＲｅＰＰＹ株式会社,,株式会社,京都府,京都市北区,上賀茂朝露ケ原町１１番地３,,26,101,6038035,,,,,,,2021-07-29,1,,,,,キョウトリピー,0
2303,8130001069816,新規,0,2021-07-29,2021-07-29,ホスピタリティテック株式会社,,株式会社,京都府,京都市中京区,河原町二条下ル下丸屋町３９６番地の３,,26,104,6040000,,,,,,,2021-07-29,1,,,,,ホスピタリティテック,0
2304,8130003007385,新規,0,2021-07-29,2021-07-29,合同会社Ｇｒａｎｄｅｕｒ,,合同会社,京都府,京都市右京区,西院西三蔵町１５番地２アソシエ５０１,,26,108,6150027,,,,,,,2021-07-29,1,,,,,グランドール,0
2305,8130003007393,新規,0,2021-07-29,2021-07-29,たんたんエナジー発電合同会社,,合同会社,京都府,福知山市,篠尾新町３丁目７９－２,,26,201,6200055,,,,,,,2021-07-29,1,,,,,タンタンエナジーハツデン,0
2309,8140001122482,新規,0,2021-07-29,2021-07-29,株式会社アファン総合解体,,株式会社,兵庫県,明石市,沢野２丁目１４番１４号,,28,203,6730008,,,,,,,2021-07-29,1,,,,,アファンソウゴウカイタイ,0
2312,8140003016550,新規,0,2021-07-29,2021-07-29,合同会社Ａｐｐｌｅ日本合同社,,合同会社,兵庫県,神戸市中央区,東町１２６,,28,110,6500031,,,,,,,2021-07-29,1,,,,,アップルニッポンゴウドウシャ,0
2313,8140003016559,新規,0,2021-07-29,2021-07-29,合同会社アローム,,合同会社,兵庫県,姫路市,花田町小川７６７－１,,28,201,6710255,,,,,,,2021-07-29,1,,,,,アローム,0
2318,8150005009312,新規,0,2021-07-29,2021-07-29,行政書士法人田中経営,,その他の設立登記法人,奈良県,橿原市,菖蒲町４丁目２９番１２号,,29,205,6340042,,,,,,,2021-07-29,1,,,,,タナカケイエイ,0
2323,8160001023506,新規,0,2021-07-29,2021-07-29,株式会社シオンズ,,株式会社,滋賀県,大津市,鳥居川町６番３５－６０８号,,25,201,5200854,,,,,,,2021-07-29,1,,,,,シオンズ,0
2324,8160001023514,新規,0,2021-07-29,2021-07-29,いぶきファーム株式会社,,株式会社,滋賀県,米原市,大久保９１７番地,,25,214,5210307,,,,,,,2021-07-29,1,,,,,イブキファーム,0
2325,8160003002342,新規,0,2021-07-29,2021-07-29,合同会社になって,,合同会社,滋賀県,長浜市,湖北町南速水１０８番地,,25,203,5290346,,,,,,,2021-07-29,1,,,,,ニナッテ,0
2331,8180003022784,新規,0,2021-07-29,2021-07-29,合同会社北原建築,,合同会社,愛知県,あま市,七宝町川部三屋敷３２番地,,23,237,4970013,,,,,,,2021-07-29,1,,,,,キタハラケンチク,0
2338,8190001028535,新規,0,2021-07-29,2021-07-29,株式会社島田工業,,株式会社,三重県,四日市市,東富田町２３番２１号,,24,202,5108006,,,,,,,2021-07-29,1,,,,,シマダコウギョウ,0
2348,8220001024324,新規,0,2021-07-29,2021-07-29,株式会社ラポート,,株式会社,石川県,七尾市,中島町中島ヌ部３番地１,,17,202,9292222,,,,,,,2021-07-29,1,,,,,ラポート,0
2352,8240001058345,新規,0,2021-07-29,2021-07-29,株式会社ＣＯＬＯＲＦＵＬ,,株式会社,広島県,広島市西区,大芝１丁目９番１号高野ビル１階,,34,104,7330001,,,,,,,2021-07-29,1,,,,,カラフル,0
2355,8240003005213,新規,0,2021-07-29,2021-07-29,セカンドシード合同会社,,合同会社,広島県,東広島市,豊栄町清武３７８番地,,34,212,7392313,,,,,,,2021-07-29,1,,,,,セカンドシード,0
2357,8250001019024,新規,0,2021-07-29,2021-07-29,株式会社Ｈｏｍｅ　ｐｌａｎ,,株式会社,山口県,下関市,川中豊町１丁目３番１１号２Ｆ,,35,201,7510853,,,,,,,2021-07-29,1,,,,,ホームプラン,0
2365,8290001094006,新規,0,2021-07-29,2021-07-29,株式会社ＥＭＵ　ｓｅｒｖｉｃｅ,,株式会社,福岡県,福岡市博多区,諸岡３丁目１５番４３号,,40,132,8120894,,,,,,,2021-07-29,1,,,,,エミュサービス,0
2377,8350001017224,新規,0,2021-07-29,2021-07-29,株式会社フォーチュン,,株式会社,宮崎県,宮崎市,太田１丁目３－１１,,45,201,8800903,,,,,,,2021-07-29,1,,,,,フォーチュン,0
2381,8360003011315,新規,0,2021-07-29,2021-07-29,亮園マネジメント合同会社,,合同会社,沖縄県,浦添市,前田１丁目４９番１４号,,47,208,9012102,,,,,,,2021-07-29,1,,,,,リョウエンマネジメント,0
2388,8380001032055,新規,0,2021-07-29,2021-07-29,株式会社トラスト,,株式会社,福島県,須賀川市,岡東町１５８番地,,07,207,9620013,,,,,,,2021-07-29,1,,,,,トラスト,0
2394,8390001016544,新規,0,2021-07-29,2021-07-29,株式会社ＪＡＭ,,株式会社,山形県,鶴岡市,みどり町２８番１１号,,06,203,9970046,,,,,,,2021-07-29,1,,,,,ジャム,0
2401,8420001017530,新規,0,2021-07-29,2021-07-29,株式会社フォルティナ,,株式会社,青森県,弘前市,大字富田１丁目６番地６,,02,202,0368186,,,,,,,2021-07-29,1,,,,,フォルティナ,0
2413,8430003012999,新規,0,2021-07-29,2021-07-29,合同会社イララシノ,,合同会社,北海道,札幌市西区,西野一条９丁目１６番７号,,01,107,0630031,,,,,,,2021-07-29,1,,,,,イララシノ,0
2416,8460003000852,新規,0,2021-07-29,2021-07-29,合同会社千寿,,合同会社,北海道,釧路市,鳥取北５丁目２番５号,,01,206,0840907,,,,,,,2021-07-29,1,,,,,センジュ,0
2426,8700150104209,新規,0,2021-07-29,2021-07-29,ＮＩＲＭＡＬ　ＫＩＲＡＮＡ　ＰＡＳＡＬ,,外国会社等,愛知県,名古屋市中区,栄１丁目２３－２９サンハイツ伏見２Ｂ,,23,106,4600008,ネパール国・ロルパ自治体・ロルパ４番,,,,,,2021-07-29,1,,,,,ニルマルキラナパサル,0
2436,9010001219968,新規,0,2021-07-29,2021-07-29,株式会社ｍｏｎｃｈｅｒｉｃａ,,株式会社,東京都,千代田区,神田須田町１丁目５番地ＫＳビル８階,,13,101,1010041,,,,,,,2021-07-29,1,,,,,モンシェリカ,0
2437,9010001219992,新規,0,2021-07-29,2021-07-29,株式会社ＡＲＡＣＨＡ,,株式会社,東京都,文京区,湯島３丁目４２番６号堀ビル２Ｆ,,13,105,1130034,,,,,,,2021-07-29,1,,,,,アラチャ,0
2438,9010001220059,新規,0,2021-07-29,2021-07-29,株式会社Ｏｗｌｅｔ,,株式会社,東京都,中央区,銀座２丁目１６番１６ー７０１号,,13,102,1040061,,,,,,,2021-07-29,1,,,,,オウレット,0
2440,9010003035414,新規,0,2021-07-29,2021-07-29,ＦＬＣ合同会社,,合同会社,東京都,中央区,日本橋２丁目１番１７号丹生ビル２階,,13,102,1030027,,,,,,,2021-07-29,1,,,,,エフエルシー,0
2456,9010401161712,新規,0,2021-07-29,2021-07-29,株式会社ａｔｍｅ,,株式会社,東京都,港区,麻布十番２丁目５番１２号アザブビルディングＮｏ３,,13,103,1060045,,,,,,,2021-07-29,1,,,,,アットミー,0
2458,9010405020006,新規,0,2021-07-29,2021-07-29,一般社団法人リトル・ママキャリア,,その他の設立登記法人,東京都,港区,芝２丁目３０番６号ファインラック芝２Ｆ,,13,103,1050014,,,,,,,2021-07-29,1,,,,,リトルママキャリア,0
2470,9010701041309,新規,0,2021-07-29,2021-07-29,株式会社ディークリエーション,,株式会社,東京都,品川区,西五反田８丁目３番９号ＫＨビル１０階,,13,109,1410031,,,,,,,2021-07-29,1,,,,,ディークリエーション,0
2471,9010803003834,新規,0,2021-07-29,2021-07-29,合同会社ラウティングノーツ,,合同会社,東京都,大田区,南雪谷５丁目１７番１号,,13,111,1450066,,,,,,,2021-07-29,1,,,,,ラウティングノーツ,0
2476,9010901049151,新規,0,2021-07-29,2021-07-29,株式会社祐,,株式会社,東京都,世田谷区,奥沢８丁目９番６号,,13,112,1580083,,,,,,,2021-07-29,1,,,,,ユウ,0
2477,9010901049176,新規,0,2021-07-29,2021-07-29,株式会社ＡＮＣＯＵＲＡＧＥ,,株式会社,東京都,世田谷区,野毛３丁目２１番１８－２０１号,,13,112,1580092,,,,,,,2021-07-29,1,,,,,アンカレッジ,0
2484,9011001141889,新規,0,2021-07-29,2021-07-29,株式会社ＭＯＲＩ　ＫＡＺＵ,,株式会社,東京都,渋谷区,渋谷２丁目７番１３号ネオメット青山３階,,13,113,1500002,,,,,,,2021-07-29,1,,,,,モリカズ,0
2486,9011003013120,新規,0,2021-07-29,2021-07-29,グローバルブライト合同会社,,合同会社,東京都,渋谷区,渋谷２丁目１０番１５号,,13,113,1500002,,,,,,,2021-07-29,1,,,,,グローバルブライト,0
2491,9011101095795,新規,0,2021-07-29,2021-07-29,豊賀生物技術株式会社,,株式会社,東京都,新宿区,高田馬場１丁目２３番９号,,13,104,1690075,,,,,,,2021-07-29,1,,,,,トヨガセイブツギジュツ,0
2492,9011101095837,新規,0,2021-07-29,2021-07-29,株式会社ユニバーサルＭ,,株式会社,東京都,新宿区,大久保２丁目１８番１７号,,13,104,1690072,,,,,,,2021-07-29,1,,,,,ユニバーサルエム,0
2493,9011101095853,新規,0,2021-07-29,2021-07-29,株式会社ＦＩＲＥｐｌｕｓ,,株式会社,東京都,新宿区,西新宿３丁目５番３号,,13,104,1600023,,,,,,,2021-07-29,1,,,,,ファイアプラス,0
2494,9011101095861,新規,0,2021-07-29,2021-07-29,株式会社ｉｒｏ,,株式会社,東京都,新宿区,新宿３丁目２８番１号新宿アドヴァンスビル３階Ｂ号,,13,104,1600022,,,,,,,2021-07-29,1,,,,,イロ,0
2496,9011103010901,新規,0,2021-07-29,2021-07-29,合同会社コンフォート５,,合同会社,東京都,新宿区,新宿７丁目２６番１８－６０３号,,13,104,1600022,,,,,,,2021-07-29,1,,,,,コンフォートファイブ,0
2501,9011501027150,新規,0,2021-07-29,2021-07-29,株式会社アメジストコーポレーション,,株式会社,東京都,北区,西ケ原３丁目２番１－１０６号,,13,117,1140024,,,,,,,2021-07-29,1,,,,,アメジストコーポレーション,0
2506,9011701024583,新規,0,2021-07-29,2021-07-29,株式会社カレーライス,,株式会社,東京都,江戸川区,西葛西１丁目７番１８号,,13,123,1340088,,,,,,,2021-07-29,1,,,,,,0
2517,9012703002271,新規,0,2021-07-29,2021-07-29,ＯＦＦＩＣＥ　Ｋ合同会社,,合同会社,東京都,東村山市,栄町２丁目２６番地７Ｍエトワールライム館３０６,,13,213,1890013,,,,,,,2021-07-29,1,,,,,オフィスケー,0
2522,9013301047790,新規,0,2021-07-29,2021-07-29,株式会社Ｈｏｗｄｙ,,株式会社,東京都,豊島区,高松２丁目１３番５号,,13,116,1710042,,,,,,,2021-07-29,1,,,,,ハウディ,0
2524,9013303005763,新規,0,2021-07-29,2021-07-29,システムコンビニエンス合同会社,,合同会社,東京都,豊島区,北大塚２丁目４－４バロンハイツ大塚５０３,,13,116,1700004,,,,,,,2021-07-29,1,,,,,システムコンビニエンス,0
2533,9020001142368,新規,0,2021-07-29,2021-07-29,株式会社遠山建装,,株式会社,神奈川県,横浜市金沢区,六浦１丁目２６番８号,,14,108,2360031,,,,,,,2021-07-29,1,,,,,トオヤマケンソウ,0
2534,9020001142376,新規,0,2021-07-29,2021-07-29,株式会社ＴＹＤサービス,,株式会社,神奈川県,横浜市都筑区,茅ケ崎中央４４番１３号,,14,118,2240032,,,,,,,2021-07-29,1,,,,,ティーワイディーサービス,0
2535,9020001142384,新規,0,2021-07-29,2021-07-29,株式会社Ｃａｒｉｂｂｅａｎ　Ｓｈａｒｅｓ　Ｔｒａｄｉｎｇ,,株式会社,神奈川県,横浜市中区,山手町２７番地５ベイステージ元町１０２,,14,104,2310862,,,,,,,2021-07-29,1,,,,,カリビアンシェアズトレーディング,0
2537,9020003020241,新規,0,2021-07-29,2021-07-29,Ｌｉｂｅｒｔａｓ合同会社,,合同会社,神奈川県,横浜市栄区,笠間５丁目１８番１４号,,14,115,2470006,,,,,,,2021-07-29,1,,,,,リベルタス,0
2544,9021001073512,新規,0,2021-07-29,2021-07-29,株式会社ＩＮＶＥＮＴＩＯＮ　ｌａｂｏ,,株式会社,神奈川県,南足柄市,岩原１４２番地１３,,14,217,2500113,,,,,,,2021-07-29,1,,,,,インベンションラボ,0
2546,9021003010711,新規,0,2021-07-29,2021-07-29,Ｓｐｉｃａ合同会社,,合同会社,神奈川県,茅ヶ崎市,浜竹２丁目１０番６９号,,14,207,2530021,,,,,,,2021-07-29,1,,,,,スピカ,0
2547,9021003010728,新規,0,2021-07-29,2021-07-29,合同会社オフィスしもふり,,合同会社,神奈川県,茅ヶ崎市,中海岸４丁目２番２６－２号,,14,207,2530055,,,,,,,2021-07-29,1,,,,,オフィスシモフリ,0
2553,9040001119521,新規,0,2021-07-29,2021-07-29,プエルト株式会社,,株式会社,千葉県,千葉市美浜区,稲毛海岸５丁目２７番３７号,,12,106,2610005,,,,,,,2021-07-29,1,,,,,プエルト,0
2562,9060003003762,新規,0,2021-07-29,2021-07-29,合同会社ＨＤ　ＡＵＴＯ,,合同会社,栃木県,大田原市,北金丸２１２０番地２,,09,210,3240011,,,,,,,2021-07-29,1,,,,,エイチディオート,0
2568,9080001024346,新規,0,2021-07-29,2021-07-29,株式会社プリムローズ・エルコラソン,,株式会社,静岡県,静岡市葵区,伝馬町８番地の１,,22,101,4200858,,,,,,,2021-07-29,1,,,,,プリムローズエルコラソン,0
2585,9120001239286,新規,0,2021-07-29,2021-07-29,ブレイズ株式会社,,株式会社,大阪府,大阪市阿倍野区,阪南町３丁目１番８－５０２号,,27,119,5450021,,,,,,,2021-07-29,1,,,,,ブレイズ,0
2586,9120001239303,新規,0,2021-07-29,2021-07-29,株式会社喜一商会,,株式会社,大阪府,大阪市生野区,中川５丁目８番２０号,,27,116,5440005,,,,,,,2021-07-29,1,,,,,キイチショウカイ,0
2587,9120001239352,新規,0,2021-07-29,2021-07-29,三代工業株式会社,,株式会社,大阪府,大阪市淀川区,三津屋南３丁目１番３０号,,27,123,5320035,,,,,,,2021-07-29,1,,,,,サンダイコウギョウ,0
2588,9120001239385,新規,0,2021-07-29,2021-07-29,株式会社ａｎｄ,,株式会社,大阪府,大阪市東住吉区,杭全１丁目１１番１９号杭全ハイツ１０１,,27,121,5460002,,,,,,,2021-07-29,1,,,,,アンド,0
2589,9120001239419,新規,0,2021-07-29,2021-07-29,アーク商業土地サービス株式会社,,株式会社,大阪府,大阪市中央区,今橋２丁目５番８号,,27,128,5410042,,,,,,,2021-07-29,1,,,,,アークショウギョウトチサービス,0
2592,9120003019785,新規,0,2021-07-29,2021-07-29,合同会社ミクテル,,合同会社,大阪府,枚方市,長尾谷町２丁目５９９番地,,27,210,5730164,,,,,,,2021-07-29,1,,,,,ミクテル,0
2593,9120003019918,新規,0,2021-07-29,2021-07-29,合同会社ＢＡＭＹ,,合同会社,大阪府,大阪市淀川区,西中島７丁目１－３チサンマンション第８新大阪１３０２号室,,27,123,5320011,,,,,,,2021-07-29,1,,,,,バーミー,0
2600,9120103004274,新規,0,2021-07-29,2021-07-29,合同会社ギブテイク,,合同会社,大阪府,松原市,天美西１丁目１５番１５号,,27,217,5800034,,,,,,,2021-07-29,1,,,,,ギブテイク,0
2601,9120103004282,新規,0,2021-07-29,2021-07-29,合同会社中本建築事務所,,合同会社,大阪府,泉南市,樽井３丁目２１番２２号第２月富士住宅１０５号,,27,228,5900521,,,,,,,2021-07-29,1,,,,,ナカモトケンチクジムショ,0
2606,9120901044694,新規,0,2021-07-29,2021-07-29,ＳＳ．ＥＮＧ．株式会社,,株式会社,大阪府,摂津市,別府１丁目９番３号,,27,224,5660046,,,,,,,2021-07-29,1,,,,,エスエスエンジニア,0
2612,9140001122432,新規,0,2021-07-29,2021-07-29,ＴＯＵＷＡ貿易株式会社,,株式会社,兵庫県,神戸市西区,押部谷町和田４９８番４２,,28,111,6512206,,,,,,,2021-07-29,1,,,,,トウワボウエキ,0
2613,9140001122440,新規,0,2021-07-29,2021-07-29,フューチャートレンド株式会社,,株式会社,兵庫県,姫路市,東延末３丁目１２番地,,28,201,6700965,,,,,,,2021-07-29,1,,,,,フューチャートレンド,0
2614,9140001122449,新規,0,2021-07-29,2021-07-29,株式会社オフィスＨＯＮＵ,,株式会社,兵庫県,神戸市西区,伊川谷町有瀬１４０８－７,,28,111,6512113,,,,,,,2021-07-29,1,,,,,オフィスホヌ,0
2615,9140001122481,新規,0,2021-07-29,2021-07-29,株式会社トーヤ総合企画,,株式会社,兵庫県,豊岡市,出石町町分２４２番地の５,,28,209,6680221,,,,,,,2021-07-29,1,,,,,トーヤソウゴウキカク,0
2635,9180001147005,新規,0,2021-07-29,2021-07-29,株式会社ＲＡＨＢ,,株式会社,愛知県,名古屋市東区,豊前町２丁目７５－１ＰｌａｉｓｉｒＳａｋａｉ２０１,,23,102,4610034,,,,,,,2021-07-29,1,,,,,ラーブ,0
2639,9180003022783,新規,0,2021-07-29,2021-07-29,ＹＳＴ合同会社,,合同会社,愛知県,丹羽郡大口町,高橋１丁目８番地,,23,361,4800131,,,,,,,2021-07-29,1,,,,,ワイエスティ,0
2641,9180301035207,新規,0,2021-07-29,2021-07-29,ＧＥ・サポート株式会社,,株式会社,愛知県,知立市,谷田町本林３丁目８番地１,,23,225,4720015,,,,,,,2021-07-29,1,,,,,ジーイーサポート,0
2648,9190003003733,新規,0,2021-07-29,2021-07-29,合同会社夏渡部青,,合同会社,三重県,四日市市,諏訪栄町４番１０号アピカビル３階,,24,202,5100086,,,,,,,2021-07-29,1,,,,,ナツワタナベアオ,0
2658,9220001024323,新規,0,2021-07-29,2021-07-29,株式会社ラディッシュフーズ,,株式会社,石川県,能美市,吉原釜屋町ヌ１１７番地２,,17,211,9290121,,,,,,,2021-07-29,1,,,,,ラディッシュフーズ,0
2663,9250001019023,新規,0,2021-07-29,2021-07-29,株式会社花童,,株式会社,山口県,下関市,秋根西町１丁目９番２３号,,35,201,7510873,,,,,,,2021-07-29,1,,,,,ハナワラ,0
2668,9260003003585,新規,0,2021-07-29,2021-07-29,合同会社未来アントレプレナーカンパニー,,合同会社,岡山県,岡山市北区,表町１丁目１－８ライオンズタワー岡山表町２２０１号室,,33,101,7000822,,,,,,,2021-07-29,1,,,,,ミライアントレプレナーカンパニー,0
2682,9290801027659,新規,0,2021-07-29,2021-07-29,株式会社アクスタ,,株式会社,福岡県,中間市,通谷６丁目２８番１３号,,40,215,8090018,,,,,,,2021-07-29,1,,,,,アクスタ,0
2688,9340001023965,新規,0,2021-07-29,2021-07-29,株式会社虹の架け橋,,株式会社,鹿児島県,大島郡天城町,大字西阿木名４０１番地１,,46,531,8917731,,,,,,,2021-07-29,1,,,,,ニジノカケハシ,0
2691,9350003003898,新規,0,2021-07-29,2021-07-29,合同会社都城アルミサービス,,合同会社,宮崎県,都城市,吉尾町９３７－２,,45,202,8850006,,,,,,,2021-07-29,1,,,,,ミヤコノジョウアルミサービス,0
2692,9360001029119,新規,0,2021-07-29,2021-07-29,株式会社シリカソイル,,株式会社,沖縄県,島尻郡八重瀬町,字後原４７７番地,,47,362,9010504,,,,,,,2021-07-29,1,,,,,シリカソイル,0
2706,9430001084643,新規,0,2021-07-29,2021-07-29,株式会社モルセラ,,株式会社,北海道,江別市,萌えぎ野東１３番地の１０カーサプラシード１０３,,01,217,0670057,,,,,,,2021-07-29,1,,,,,モルセラ,0
2707,9430001084676,新規,0,2021-07-29,2021-07-29,株式会社アイレット,,株式会社,北海道,札幌市北区,屯田五条２丁目９番１６号,,01,102,0020855,,,,,,,2021-07-29,1,,,,,アイレット,0
2711,9460303000733,新規,0,2021-07-29,2021-07-29,合同会社食の杜おけと,,合同会社,北海道,常呂郡置戸町,字置戸２５７番地の７６,,01,550,0991100,,,,,,,2021-07-29,1,,,,,,0
2716,9490005006794,新規,0,2021-07-29,2021-07-29,一般財団法人しあわせづくり佐川,,その他の設立登記法人,高知県,高岡郡佐川町,甲１６５０番地２,,39,402,7891201,,,,,,,2021-07-29,1,,,,,シアワセヅクリサカワ,0
2719,9700150104208,新規,0,2021-07-29,2021-07-29,大崎駅西口Ｆ南地区市街地再開発組合,,その他,東京都,品川区,大崎３丁目７－２,,13,109,1410032,,,,,,,2021-07-29,1,,,,,オオサキエキニシグチエフミナミチクシガイチサイカイハツクミアイ,0
