sequenceNumber,corporateNumber,process,correct,updateDate,changeDate,name,nameImageId,kind,prefectureName,cityName,streetNumber,addressImageId,prefectureCode,cityCode,postCode,addressOutside,addressOutsideImageId,closeDate,closeCause,successorCorporateNumber,changeCause,assignmentDate,latest,enName,enPrefectureName,enCityName,enAddressOutside,furigana,hihyoji
58,1011801042682,登記記録の閉鎖等,0,2025-06-10,2025-06-04,日の宮建設株式会社,,株式会社,東京都,葛飾区,亀有５丁目２８番１２号エヴァーグリーン参番館１Ｆ,,13,122,1250061,,,2025-06-04,清算の結了等,,,2023-07-10,1,,,,,ヒノミヤケンセツ,0
77,1020001025183,登記記録の閉鎖等,0,2025-06-10,2025-06-05,株式会社アド・クリエイション,,株式会社,神奈川県,横浜市中区,羽衣町２丁目５－１宮本第１ビル４０１,,14,104,2310047,,,2025-06-05,清算の結了等,,,2015-10-05,1,,,,,アドクリエイション,0
78,1020001086671,登記記録の閉鎖等,0,2025-06-10,2025-06-02,株式会社ベイサイドサービス,,株式会社,神奈川県,横浜市南区,六ツ川３丁目７２番地１０,,14,105,2320066,,,2025-06-02,清算の結了等,,,2015-10-05,1,,,,,ベイサイドサービス,0
82,1020002010993,登記記録の閉鎖等,0,2025-06-10,2025-06-03,有限会社ワカツキトレーディング,,有限会社,神奈川県,横浜市金沢区,能見台東４番１－１８０１,,14,108,2360058,,,2025-06-03,清算の結了等,,,2015-10-05,1,,,,,ワカツキトレーディング,0
85,1021001039223,登記記録の閉鎖等,0,2025-06-10,2025-06-03,株式会社オーシャンウェーブ,,株式会社,神奈川県,中郡大磯町,大磯１２３１番７,,14,341,2550003,,,2025-06-03,清算の結了等,,,2015-10-05,1,,,,,オーシャンウェーブ,0
95,1021005010238,登記記録の閉鎖等,0,2025-06-10,2025-06-02,特定非営利活動法人神奈川まちづかい塾,,その他の設立登記法人,神奈川県,横須賀市,池田町３丁目１０番２１号,,14,201,2390806,,,2025-06-02,清算の結了等,,,2015-10-05,1,,,,,カナガワマチヅカイジュク,0
100,1030002058058,登記記録の閉鎖等,0,2025-06-10,2025-06-04,有限会社アサヒ建設,,有限会社,埼玉県,朝霞市,宮戸４丁目１４番１号,,11,227,3510031,,,2025-06-04,清算の結了等,,,2015-10-05,1,,,,,アサヒケンセツ,0
106,1050001055913,登記記録の閉鎖等,0,2025-06-10,2025-06-04,南海浜運輸株式会社,,株式会社,茨城県,神栖市,横瀬９４０番地５,,08,232,3140113,,,2025-06-04,清算の結了等,,,2025-01-06,1,,,,,ミナミカイヒンウンユ,0
118,1080405007078,登記記録の閉鎖等,0,2025-06-10,2025-06-03,一般社団法人日本医療薬法人協会,,その他の設立登記法人,静岡県,菊川市,加茂２２８１番地の２,,22,224,4390031,,,2025-06-03,清算の結了等,,,2018-04-24,1,,,,,ニホンイリョウヤクホウジンキョウカイ,0
133,1120001199892,登記記録の閉鎖等,0,2025-06-10,2025-06-02,株式会社ＤＯＴ’Ｓ－ＬＩＮＥ,,株式会社,大阪府,大阪市平野区,長吉川辺３丁目８番３８号,,27,126,5470014,,,2025-06-02,清算の結了等,,,2016-08-03,1,,,,,ドッツライン,0
141,1122002014782,登記記録の閉鎖等,0,2025-06-10,2025-05-23,有限会社職人気質,,有限会社,大阪府,門真市,岸和田３丁目４５番２０号,,27,223,5710002,,,2025-05-23,合併による解散等,1120001276262,令和７年５月２３日大阪府門真市岸和田三丁目４５番２３号株式会社クライムマックス（1260001007678）と合併して大阪府門真市岸和田三丁目４５番２０号株式会社職人気質（1120001276262）を設立し解散,2015-10-05,1,,,,,ショクニンカタギ,0
151,1130005011160,登記記録の閉鎖等,0,2025-06-10,2025-05-22,若宮神社,,その他の設立登記法人,京都府,京丹後市,網野町切畑小字若所５９４番地,,26,212,6293135,,,2025-05-22,合併による解散等,2130005011036,令和７年５月２２日京都府京丹後市網野町切畑８８９番地岩崎神社（2130005011036）に合併し解散,2015-10-05,1,,,,,,0
154,1140001059962,登記記録の閉鎖等,0,2025-06-10,2025-06-02,シンロテック株式会社,,株式会社,兵庫県,姫路市,北条１０６６番地８,,28,201,6700947,,,2025-06-02,合併による解散等,8140002053207,令和７年５月３１日兵庫県神崎郡神河町柏尾７１４番地１進和建設株式会社（8140002053207）に合併し解散,2015-10-05,1,,,,,シンロテック,0
158,1140005011044,登記記録の閉鎖等,0,2025-06-10,2025-06-04,医療法人社団松田医院,,その他の設立登記法人,兵庫県,尼崎市,大西町１丁目１番３０号,,28,202,6610023,,,2025-06-04,清算の結了等,,,2015-10-05,1,,,,,マツダイイン,0
160,1150005008774,登記記録の閉鎖等,0,2025-06-10,2025-06-04,ＮＰＯ法人バンビの会,,その他の設立登記法人,奈良県,橿原市,五条野町６６３番地,,29,205,6340043,,,2025-06-04,清算の結了等,,,2016-10-18,1,,,,,バンビノカイ,0
171,1180002035463,登記記録の閉鎖等,0,2025-06-10,2025-06-03,有限会社エイチ・エス・パレット,,有限会社,愛知県,名古屋市東区,代官町１５番３号,,23,102,4610002,,,2025-06-03,清算の結了等,,,2015-10-05,1,,,,,エイチエスパレット,0
185,1200002011338,登記記録の閉鎖等,0,2025-06-10,2025-06-05,有限会社矢野社寺建築,,有限会社,岐阜県,羽島市,福寿町平方９丁目５４番地,,21,209,5016257,,,2025-06-05,清算の結了等,,,2015-10-05,1,,,,,ヤノシャジケンチク,0
191,1220002012359,登記記録の閉鎖等,0,2025-06-10,2025-06-03,有限会社コマザワ,,有限会社,石川県,小松市,園町ハ２３番地１,,17,203,9230801,,,2025-06-03,清算の結了等,,,2015-10-05,1,,,,,コマザワ,0
197,1260001007678,登記記録の閉鎖等,0,2025-06-10,2025-05-23,株式会社クライムマックス,,株式会社,大阪府,門真市,岸和田３丁目４５番２３号,,27,223,5710002,,,2025-05-23,合併による解散等,1120001276262,令和７年５月２３日大阪府門真市岸和田三丁目４５番２０号有限会社職人気質（1122002014782）と合併して大阪府門真市岸和田三丁目４５番２０号株式会社職人気質（1120001276262）を設立し解散,2015-10-05,1,,,,,,0
208,1290001086414,登記記録の閉鎖等,0,2025-06-10,2025-06-02,株式会社アンドクリエイト,,株式会社,福岡県,福岡市博多区,上牟田１丁目１８番５号,,40,132,8120006,,,2025-06-02,清算の結了等,,,2019-09-04,1,,,,,アンドクリエイト,0
214,1290003015346,登記記録の閉鎖等,0,2025-06-10,2025-06-02,アシスト合同会社,,合同会社,福岡県,福岡市博多区,博多駅南６丁目１２番９－１号テラスハウス・ひかり２０３号,,40,132,8120016,,,2025-06-02,清算の結了等,,,2024-05-27,1,,,,,アシスト,0
242,1390001007830,登記記録の閉鎖等,0,2025-06-10,2025-06-02,株式会社ますや旅館,,株式会社,山形県,鶴岡市,湯田川乙６３番地,,06,203,9970752,,,2025-06-02,合併による解散等,8390002009290,令和７年６月１日山形県鶴岡市湯田川乙１９番地株式会社九兵衛旅館（8390002009290）に合併し解散,2015-10-05,1,,,,,マスヤリョカン,0
254,1430002002165,登記記録の閉鎖等,0,2025-06-10,2025-06-02,株式会社イマガワ,,株式会社,北海道,札幌市白石区,北郷七条４丁目４番１３号,,01,104,0030837,,,2025-06-02,合併による解散等,7430001048369,令和７年６月１日北海道滝川市栄町一丁目５番１７号末廣屋電機株式会社（7430001048369）に合併し解散,2015-10-05,1,,,,,イマガワ,0
255,1430002029464,登記記録の閉鎖等,0,2025-06-10,2025-06-04,有限会社ゲットウエル,,有限会社,北海道,札幌市北区,屯田二条１丁目５番２７号,,01,102,0020852,,,2025-06-04,清算の結了等,,,2015-10-05,1,,,,,ゲットウエル,0
256,1430002043275,登記記録の閉鎖等,0,2025-06-10,2025-06-02,勝丸建設有限会社,,有限会社,北海道,石狩市,花川南八条４丁目６９番地,,01,235,0613208,,,2025-06-02,清算の結了等,,,2015-10-05,1,,,,,カツマルケンセツ,0
262,1450001011495,登記記録の閉鎖等,0,2025-06-10,2025-06-09,株式会社原重機工業,,株式会社,北海道,深川市,稲穂町２丁目４番２８号,,01,228,0740021,,,2025-06-09,清算の結了等,,,2015-10-05,1,,,,,,0
266,1470001010396,登記記録の閉鎖等,0,2025-06-10,2025-06-05,株式会社ひかり,,株式会社,香川県,観音寺市,大野原町大野原３８２０番地８,,37,205,7691611,,,2025-06-05,清算の結了等,,,2015-10-05,1,,,,,ヒカリ,0
284,2010003025181,登記記録の閉鎖等,0,2025-06-10,2025-05-14,合同会社ベスツ,,合同会社,東京都,中央区,銀座１丁目２７番８号セントラルビル７０３号,,13,102,1040061,,,2025-05-14,合併による解散等,9010003026561,令和７年５月１日東京都中央区日本橋浜町一丁目１２番６号リバーノート合同会社スカイエスツ（9010003026561）に合併し解散,2017-04-11,1,,,,,ベスツ,0
285,2010003033069,登記記録の閉鎖等,0,2025-06-10,2025-05-23,ガンマ合同会社,,合同会社,東京都,千代田区,丸の内１丁目４番１号東京共同会計事務所内,,13,101,1000005,,,2025-05-23,清算の結了等,,,2020-09-17,1,,,,,ガンマ,0
306,2010405011481,登記記録の閉鎖等,0,2025-06-10,2025-05-14,一般社団法人劇団江戸間十畳,,その他の設立登記法人,東京都,港区,高輪１丁目５番４０号,,13,103,1080074,,,2025-05-14,清算の結了等,,,2015-10-05,1,,,,,ゲキダンエドマジュウジョウ,0
315,2010801015813,登記記録の閉鎖等,0,2025-06-10,2025-06-05,モデライト株式会社,,株式会社,東京都,台東区,駒形１丁目７番１０号アイデスビル,,13,106,1110043,,,2025-06-05,合併による解散等,1010801000205,令和７年６月１日東京都大田区京浜島二丁目３番１２号アイデス株式会社（1010801000205）に合併し解散,2015-10-05,1,,,,,モデライト,0
318,2010901027031,登記記録の閉鎖等,0,2025-06-10,2025-06-09,インフィルデザイン株式会社,,株式会社,東京都,世田谷区,北沢２丁目２７－９,,13,112,1550031,,,2025-06-09,清算の結了等,,,2015-10-05,1,,,,,インフィルデザイン,0
336,2011203001682,登記記録の閉鎖等,0,2025-06-10,2025-05-13,沖ＩＴサービスマネージメント合同会社,,合同会社,東京都,目黒区,鷹番２丁目１９番８号早川ハイツ１０１,,13,110,1520004,,,2025-05-13,清算の結了等,,,2015-10-05,1,,,,,オキアイティーサービスマネージメント,0
338,2011402005872,登記記録の閉鎖等,0,2025-06-10,2025-06-04,有限会社力美装,,有限会社,東京都,板橋区,本町１５－１７－５０２,,13,119,1730001,,,2025-06-04,清算の結了等,,,2015-10-05,1,,,,,リキビソウ,0
341,2011502007372,登記記録の閉鎖等,0,2025-06-10,2025-06-03,有限会社エフアンドビー,,有限会社,東京都,荒川区,西尾久７丁目１２番２号,,13,118,1160011,,,2025-06-03,清算の結了等,,,2015-10-05,1,,,,,エフアンドビー,0
367,2020001059890,登記記録の閉鎖等,0,2025-06-10,2025-06-02,株式会社光樹園,,株式会社,神奈川県,横浜市青葉区,大場町１７４番地１３０,,14,117,2250023,,,2025-06-02,合併による解散等,9020001011151,令和７年６月１日横浜市青葉区大場町１７４番地１３０株式会社角安（9020001011151）に合併し解散,2015-10-05,1,,,,,コウジュエン,0
378,2021001034603,登記記録の閉鎖等,0,2025-06-10,2025-06-04,株式会社エム・ケイコーポレーション,,株式会社,神奈川県,小田原市,小八幡３丁目７番１５号,,14,206,2560815,,,2025-06-04,清算の結了等,,,2015-10-05,1,,,,,エムケイコーポレーション,0
392,2040001079474,登記記録の閉鎖等,0,2025-06-10,2025-05-22,株式会社アクティブ英語セミナー,,株式会社,千葉県,柏市,泉１５３３番地,,12,217,2701456,,,2025-05-22,清算の結了等,,,2015-10-05,1,,,,,アクティブエイゴセミナー,0
405,2040003021491,登記記録の閉鎖等,0,2025-06-10,2025-05-08,合同会社ｍａｇｒａｌ,,合同会社,千葉県,鎌ケ谷市,新鎌ケ谷３丁目１５番３６－６０２号,,12,224,2730107,,,2025-05-08,清算の結了等,,,2022-12-15,1,,,,,マグラル,0
408,2050001055912,登記記録の閉鎖等,0,2025-06-10,2025-06-04,株式会社南浜商事,,株式会社,茨城県,神栖市,横瀬９４０番地５,,08,232,3140113,,,2025-06-04,清算の結了等,,,2025-01-06,1,,,,,ミナミハマショウジ,0
410,2050002027084,登記記録の閉鎖等,0,2025-06-10,2025-06-04,有限会社紀崎工業,,有限会社,茨城県,神栖市,筒井２番地３５,,08,232,3140132,,,2025-06-04,清算の結了等,,,2015-10-05,1,,,,,キサキコウギョウ,0
424,2100002012832,登記記録の閉鎖等,0,2025-06-10,2025-06-06,有限会社くまさん,,有限会社,長野県,佐久市,春日３７８番地１,,20,217,3842205,,,2025-06-06,清算の結了等,,,2015-10-05,1,,,,,クマサン,0
426,2100002025355,登記記録の閉鎖等,0,2025-06-10,2025-06-02,有限会社宮原商事,,有限会社,長野県,塩尻市,大字広丘高出２２０２番地１１,,20,215,3990703,,,2025-06-02,清算の結了等,,,2015-10-05,1,,,,,ミヤハラショウジ,0
443,2130001069251,登記記録の閉鎖等,0,2025-06-10,2025-06-04,Ｎコーポレーション株式会社,,株式会社,京都府,城陽市,市辺五島３１番地の２３,,26,207,6100114,,,2025-06-04,清算の結了等,,,2021-05-13,1,,,,,エヌコーポレーション,0
458,2140005015515,登記記録の閉鎖等,0,2025-06-10,2025-05-21,天理教神吉北分教会,,その他の設立登記法人,兵庫県,三田市,四ツ辻５９６番地の２,00042399,28,219,6691342,,,2025-05-21,合併による解散等,2140005006266,令和７年５月２１日兵庫県三木市吉川町鍛治屋６番地の１天理教中吉川分教会（2140005006266）に合併し解散,2015-10-05,1,,,,,テンリキョウカミヨキタブンキョウカイ,0
485,2250002013394,登記記録の閉鎖等,0,2025-06-10,2025-06-02,有限会社ホンダオート萩,,有限会社,山口県,萩市,大字平安古町２０６番地の３,,35,204,7580074,,,2025-06-02,合併による解散等,8250001011492,令和７年６月１日山口県岩国市尾津町二丁目１５番３０号株式会社中国ホンダ販売（8250001011492）に合併し解散,2015-10-05,1,,,,,ホンダオートハギ,0
488,2280002002931,登記記録の閉鎖等,0,2025-06-10,2025-06-06,有限会社安井工業,,有限会社,島根県,松江市,東出雲町出雲郷６６８番地,,32,201,6990108,,,2025-06-06,清算の結了等,,,2015-10-05,1,,,,,ヤスイコウギョウ,0
494,2290001060995,登記記録の閉鎖等,0,2025-06-10,2025-05-21,株式会社ナイン,,株式会社,福岡県,福岡市博多区,博多駅南１丁目２番１８号１Ｆ,,40,132,8120016,,,2025-05-21,合併による解散等,7290001057558,令和７年５月１５日福岡市中央区薬院二丁目２番１７－１７０３号株式会社日本会計サービス（7290001057558）と合併し解散,2015-10-05,1,,,,,ナイン,0
502,2290801020265,登記記録の閉鎖等,0,2025-06-10,2025-06-02,株式会社こころ,,株式会社,福岡県,福津市,日蒔野１丁目１６番地の２メゾンドファミール３０３,,40,224,8113209,,,2025-06-02,清算の結了等,,,2015-10-05,1,,,,,ココロ,0
505,2300003001005,登記記録の閉鎖等,0,2025-06-10,2025-06-06,株式会社Ｋ－ＳＴＹＬＥ,,株式会社,佐賀県,佐賀市,若宮２丁目８番９号ハイツエム２３号室,,41,201,8490926,,,2025-06-06,清算の結了等,,,2015-10-05,1,,,,,ケイスタイル,0
521,2370002000018,登記記録の閉鎖等,0,2025-06-10,2025-06-02,有限会社淺野電設,,有限会社,宮城県,仙台市泉区,松陵１丁目２６番地,,04,105,9813108,,,2025-06-02,清算の結了等,,,2015-10-05,1,,,,,アサノデンセツ,0
539,2430002047572,登記記録の閉鎖等,0,2025-06-10,2025-06-03,有限会社黄金左官工業所,,有限会社,北海道,恵庭市,黄金北３丁目１７番地の４,,01,231,0611407,,,2025-06-03,清算の結了等,,,2015-10-05,1,,,,,コガネサカンコウギョウショ,0
543,2440002001875,登記記録の閉鎖等,0,2025-06-10,2025-06-04,有限会社佐藤葬祭,,有限会社,北海道,函館市,湯浜町４番２９号,,01,202,0420933,,,2025-06-04,清算の結了等,,,2015-10-05,1,,,,,サトウソウサイ,0
553,2480001011871,登記記録の閉鎖等,0,2025-06-10,2025-06-04,株式会社ＹＧ　ｌｕｓｈ,,株式会社,徳島県,徳島市,東船場町１丁目１２番地,,36,201,7700911,,,2025-06-04,清算の結了等,,,2022-10-06,1,,,,,ワイジーラッシュ,0
592,3011001106402,登記記録の閉鎖等,0,2025-06-10,2025-05-14,ユニベルシテ株式会社,,株式会社,東京都,港区,南青山２丁目２番１５号ウィン青山９４２,,13,103,1070062,,,2025-05-14,清算の結了等,,,2015-10-05,1,,,,,ユニベルシテ,0
593,3011001131400,登記記録の閉鎖等,0,2025-06-10,2025-06-09,株式会社Ｏｎｅ　Ｔｗｏ,,株式会社,東京都,世田谷区,上野毛２丁目５番２１号ルピナス上野毛１０６,,13,112,1580093,,,2025-06-09,清算の結了等,,,2019-12-18,1,,,,,ワンツー,0
598,3011003009933,登記記録の閉鎖等,0,2025-06-10,2025-05-20,ナオテック株式会社,,株式会社,東京都,中央区,銀座７丁目１３番６号サガミビル２階,,13,102,1040061,,,2025-05-20,清算の結了等,,,2019-05-14,1,,,,,カブシキガイシャ,0
599,3011101080621,登記記録の閉鎖等,0,2025-06-10,2025-05-21,株式会社ＢｅａｕｔｉｆｕｌＷｏｒｋｓ,,株式会社,東京都,新宿区,新宿６丁目７番１号エルプリメント新宿２０５,,13,104,1600022,,,2025-05-21,清算の結了等,,,2017-06-02,1,,,,,,0
626,3012803002730,登記記録の閉鎖等,0,2025-06-10,2025-06-03,合同会社スカイ,,合同会社,東京都,国分寺市,東恋ヶ窪３丁目２０番地９,,13,214,1850014,,,2025-06-03,清算の結了等,,,2022-03-16,1,,,,,スカイ,0
639,3021003015757,登記記録の閉鎖等,0,2025-06-10,2025-06-03,合同会社ＢＬＥＳＳＩＮＧ,,合同会社,神奈川県,大和市,中央林間４丁目２４番１号メゾンブランシェ１０１号,,14,213,2420007,,,2025-06-03,清算の結了等,,,2025-03-24,1,,,,,ブレッシング,0
649,3040001058139,登記記録の閉鎖等,0,2025-06-10,2025-05-27,東海建設株式会社,,株式会社,千葉県,山武市,本須賀３７１８番地,,12,237,2891305,,,2025-05-27,清算の結了等,,,2015-10-05,1,,,,,トウカイケンセツ,0
657,3050001020642,登記記録の閉鎖等,0,2025-06-10,2025-06-04,山利産業株式会社,,株式会社,茨城県,神栖市,知手中央５丁目１０番５号,,08,232,3140112,,,2025-06-04,清算の結了等,,,2015-10-05,1,,,,,ヤマリサンギョウ,0
694,3120901013845,登記記録の閉鎖等,0,2025-06-10,2025-06-04,エービーカーゴ西日本株式会社,,株式会社,大阪府,吹田市,南吹田３丁目２番５６号,,27,205,5640043,,,2025-06-04,合併による解散等,6010801015090,令和７年６月１日東京都大田区平和島五丁目６番１号エービーカーゴ株式会社（6010801015090）に合併し解散,2015-10-05,1,,,,,エービーカーゴニシニホン,0
697,3120902012128,登記記録の閉鎖等,0,2025-06-10,2025-06-02,有限会社信昭商事,,有限会社,大阪府,吹田市,岸部中３丁目２４番６号,,27,205,5640002,,,2025-06-02,合併による解散等,1120901013137,令和７年５月３１日大阪府吹田市岸部北四丁目９番１号株式会社イーストタウンテニスクラブ（1120901013137）に合併し解散,2015-10-05,1,,,,,シンショウショウジ,0
711,3140001054763,登記記録の閉鎖等,0,2025-06-10,2025-06-03,株式会社瀬田,,株式会社,兵庫県,尼崎市,猪名寺２丁目２１番１２号,,28,202,6610981,,,2025-06-03,清算の結了等,,,2015-10-05,1,,,,,セタ,0
730,3170005001775,登記記録の閉鎖等,0,2025-06-10,2025-06-09,国際交流事業協同組合,,その他の設立登記法人,大阪府,大阪市天王寺区,堂ケ芝２丁目３番１４号,,27,109,5430033,,,2025-06-09,清算の結了等,,,2015-10-05,1,,,,,コクサイコウリュウジギョウ,0
788,3350002010372,登記記録の閉鎖等,0,2025-06-10,2025-06-03,有限会社赤木自動車工業,,有限会社,宮崎県,日向市,大字財光寺８９２番地,,45,206,8830021,,,2025-06-03,清算の結了等,,,2015-10-05,1,,,,,アカギジドウシャコウギョウ,0
806,3400005008301,登記記録の閉鎖等,0,2025-06-10,2025-05-26,一般社団法人みどりのゆび,,その他の設立登記法人,岩手県,盛岡市,菜園１丁目６番９号第十菱和ビル２階,,03,201,0200024,,,2025-05-26,清算の結了等,,,2023-02-10,1,,,,,ミドリノユビ,0
808,3410002006736,登記記録の閉鎖等,0,2025-06-10,2025-06-02,有限会社真成住宅,,有限会社,秋田県,由利本荘市,石脇字山ノ神２番地８２,,05,210,0150014,,,2025-06-02,清算の結了等,,,2015-10-05,1,,,,,シンセイジュウタク,0
811,3420001008682,登記記録の閉鎖等,0,2025-06-10,2025-06-06,株式会社セーフティサービス,,株式会社,青森県,五所川原市,大字広田字榊森６１番地９,00087382,02,205,0370023,,,2025-06-06,清算の結了等,,,2015-10-05,1,,,,,セーフティサービス,0
815,3420003001495,登記記録の閉鎖等,0,2025-06-10,2025-06-02,合同会社ｄａｓｈｉ－ｆａｃｔｏｒｙ雅,,合同会社,青森県,青森市,奥野２丁目１６－９,,02,201,0300841,,,2025-06-02,清算の結了等,,,2015-10-05,1,,,,,,0
825,3430003012649,登記記録の閉鎖等,0,2025-06-10,2025-06-02,伊藤佐業合同会社,,合同会社,北海道,札幌市北区,北十八条西１３丁目３番地,,01,102,0600818,,,2025-06-02,清算の結了等,,,2021-04-26,1,,,,,イトウサギョウ,0
830,3470002005625,登記記録の閉鎖等,0,2025-06-10,2025-06-06,有限会社美信商事,,有限会社,香川県,高松市,上福岡町１２６６番地２８,,37,201,7600077,,,2025-06-06,清算の結了等,,,2015-10-05,1,,,,,,0
841,4010001234699,登記記録の閉鎖等,0,2025-06-10,2025-05-20,株式会社ＬＥＧＡＭＥ,,株式会社,東京都,中央区,入船１丁目２－１ＰＭＯ八丁堀ＩＶ,00134806,13,102,1040042,,,2025-05-20,合併による解散等,3010001233644,令和７年５月１日東京都中央区日本橋久松町９番９号株式会社Ｋｎｏｗｌｅｄｇｅ　Ｔｅｃｈｎｏｌｏｇｉｅｓ（3010001233644）に合併し解散,2023-04-25,1,,,,,レガーメ,0
856,4010403026587,登記記録の閉鎖等,0,2025-06-10,2025-05-14,ＲＢソーラーペンタゴン合同会社,,合同会社,東京都,港区,虎ノ門３丁目２２番１０－２０１号,,13,103,1050001,,,2025-05-14,清算の結了等,,,2021-11-24,1,,,,,アールビーソーラーペンタゴン,0
865,4010801014607,登記記録の閉鎖等,0,2025-06-10,2025-05-27,株式会社モズー,,株式会社,東京都,港区,南青山１丁目１１番４５号,,13,103,1070062,,,2025-05-27,合併による解散等,6013301030295,令和７年３月１日東京都渋谷区東三丁目２６－２ＤＩＣＯ株式会社（6013301030295）に合併して解散,2015-10-05,1,,,,,モズー,0
877,4011005009583,登記記録の閉鎖等,0,2025-06-10,2025-05-27,一般社団法人ブラザーフッド,,その他の設立登記法人,東京都,品川区,南大井６丁目２１番１２号,,13,109,1400013,,,2025-05-27,清算の結了等,,,2022-05-20,1,,,,,ブラザーフッド,0
889,4012302003741,登記記録の閉鎖等,0,2025-06-10,2025-06-04,有限会社ハルタ,,有限会社,東京都,町田市,本町田２０４８番地の８３,,13,209,1940032,,,2025-06-04,清算の結了等,,,2015-10-05,1,,,,,ハルタ,0
897,4013201017246,登記記録の閉鎖等,0,2025-06-10,2025-05-15,株式会社アルマダ・アソシエイツ,,株式会社,東京都,目黒区,三田１丁目４番３号,,13,110,1530062,,,2025-05-15,清算の結了等,,,2015-10-05,1,,,,,アルマダアソシエイツ,0
908,4020002047018,登記記録の閉鎖等,0,2025-06-10,2025-06-05,摩周農産有限会社,,有限会社,佐賀県,佐賀市,神園５丁目６番５－１号,,41,201,8400806,,,2025-06-05,清算の結了等,,,2015-10-05,1,,,,,マシュウノウサン,0
929,4030002019577,登記記録の閉鎖等,0,2025-06-10,2025-06-03,有限会社インテリアハーツ,,有限会社,埼玉県,さいたま市見沼区,大和田町２丁目１１６６番地１,,11,104,3370053,,,2025-06-03,清算の結了等,,,2015-10-05,1,,,,,インテリアハーツ,0
930,4040001017218,登記記録の閉鎖等,0,2025-06-10,2025-06-05,計電エンジニアリング株式会社,,株式会社,東京都,港区,浜松町１丁目１９番５号瀧山ビル３階,,13,103,1050013,,,2025-06-05,合併による解散等,9380001016453,令和７年６月１日福島県いわき市平中平窪字横枕３１番地の１エンドーウェルディング株式会社（9380001016453）に合併し解散,2015-10-05,1,,,,,ケイデンエンジニアリング,0
964,4080101021842,登記記録の閉鎖等,0,2025-06-10,2025-06-04,株式会社日本まごころ綜合サービス,,株式会社,静岡県,駿東郡清水町,伏見４１番地１ユアーズホーム１０５号,,22,341,4110907,,,2025-06-04,清算の結了等,,,2020-06-10,1,,,,,ニホンマゴコロソウゴウサービス,0
967,4100002019834,登記記録の閉鎖等,0,2025-06-10,2025-06-06,有限会社くれよんどーる,,有限会社,長野県,松本市,宮渕１丁目４番１９号,,20,202,3900862,,,2025-06-06,清算の結了等,,,2015-10-05,1,,,,,クレヨンドール,0
1004,4130001033536,登記記録の閉鎖等,0,2025-06-10,2025-06-06,株式会社中村鐵工所,,株式会社,京都府,久世郡久御山町,野村東ノ口１３番地１,,26,322,6130023,,,2025-06-06,清算の結了等,,,2015-10-05,1,,,,,ナカムラテッコウジョ,0
1014,4140002040316,登記記録の閉鎖等,0,2025-06-10,2025-06-03,有限会社オガワ,,有限会社,兵庫県,尼崎市,杭瀬本町１丁目１８番１６号,,28,202,6600814,,,2025-06-03,清算の結了等,,,2015-10-05,1,,,,,オガワ,0
1015,4140002065081,登記記録の閉鎖等,0,2025-06-10,2025-06-03,有限会社スタイル・イー,,有限会社,兵庫県,川西市,栄根２丁目２番１６号,,28,217,6660021,,,2025-06-03,清算の結了等,,,2015-10-05,1,,,,,,0
1019,4170002011553,登記記録の閉鎖等,0,2025-06-10,2025-06-06,有限会社太地フィールドカヤック,,有限会社,和歌山県,東牟婁郡太地町,大字森浦６８５番地の２７,,30,422,6495172,,,2025-06-06,清算の結了等,,,2015-10-05,1,,,,,タイジフィールドカヤック,0
1030,4180002066150,登記記録の閉鎖等,0,2025-06-10,2025-06-04,有限会社ジェイツール,,有限会社,愛知県,春日井市,上条町４丁目２７番地の１,,23,206,4860833,,,2025-06-04,清算の結了等,,,2015-10-05,1,,,,,ジェイツール,0
1041,4220002017198,登記記録の閉鎖等,0,2025-06-10,2025-06-05,有限会社陸美建,,有限会社,石川県,河北郡津幡町,字津幡ニ５番地,,17,361,9290323,,,2025-06-05,清算の結了等,,,2015-10-05,1,,,,,リクビケン,0
1057,4250002003864,登記記録の閉鎖等,0,2025-06-10,2025-06-06,日名内タクシー有限会社,,有限会社,山口県,防府市,八王子２丁目５番２号,,35,206,7470037,,,2025-06-06,清算の結了等,,,2015-10-05,1,,,,,ヒナウチタクシー,0
1080,4290801005702,登記記録の閉鎖等,0,2025-06-10,2025-06-06,株式会社豆勝,,株式会社,福岡県,北九州市門司区,浜町１番３号株式会社久野商会内,,40,101,8010856,,,2025-06-06,清算の結了等,,,2015-10-05,1,,,,,マメカツ,0
1081,4290801020296,登記記録の閉鎖等,0,2025-06-10,2025-06-04,株式会社ひまわりケアサービス,,株式会社,福岡県,北九州市小倉北区,竪町１丁目４番２９号,,40,106,8030818,,,2025-06-04,合併による解散等,2310001003893,令和７年５月１日長崎市畝刈町１６１３番地３３２株式会社ナイン・コート（2310001003893）に合併し解散,2015-10-05,1,,,,,ヒマワリケアサービス,0
1083,4290803001955,登記記録の閉鎖等,0,2025-06-10,2025-06-06,合同会社花みずき,,合同会社,福岡県,北九州市八幡西区,香月西２丁目８番５号,,40,109,8071103,,,2025-06-06,清算の結了等,,,2015-10-05,1,,,,,ハナミズキ,0
1100,4370202003116,登記記録の閉鎖等,0,2025-06-10,2025-06-05,有限会社ピットイン・オニコウベ,,有限会社,宮城県,大崎市,鳴子温泉鬼首字田沢川１５番地の５,,04,215,9896941,,,2025-06-05,清算の結了等,,,2015-10-05,1,,,,,ピットインオニコウベ,0
1106,4430001038364,登記記録の閉鎖等,0,2025-06-10,2025-06-03,株式会社プラザ・ハウス,,株式会社,北海道,札幌市北区,新川七条１６丁目７０９番地８,,01,102,0010927,,,2025-06-03,清算の結了等,,,2015-10-05,1,,,,,プラザハウス,0
1113,4480002010227,登記記録の閉鎖等,0,2025-06-10,2025-06-04,有限会社阿波産業,,有限会社,徳島県,鳴門市,北灘町大須字西添５２番地,,36,202,7710377,,,2025-06-04,清算の結了等,,,2015-10-05,1,,,,,アワサンギョウ,0
1146,5010703005430,登記記録の閉鎖等,0,2025-06-10,2025-05-23,合同会社ＲＥＰＯＣ,,合同会社,東京都,品川区,西五反田８丁目２－１２,,13,109,1410031,,,2025-05-23,清算の結了等,,,2020-09-18,1,,,,,レポック,0
1163,5011105007370,登記記録の閉鎖等,0,2025-06-10,2025-05-30,一般社団法人羽田ホテル開発,,その他の設立登記法人,東京都,新宿区,四谷２丁目９番地１５あると綜合事務所内,,13,104,1600004,,,2025-05-30,清算の結了等,,,2016-08-12,1,,,,,ハネダホテルカイハツ,0
1165,5011301027313,登記記録の閉鎖等,0,2025-06-10,2025-05-29,株式会社ロキシー,,株式会社,茨城県,つくばみらい市,小絹１２６４番地１シルクハイツイイジマ１０３,,08,235,3002445,,,2025-05-29,清算の結了等,,,2021-11-04,1,,,,,ロキシー,0
1183,5020001063171,登記記録の閉鎖等,0,2025-06-10,2025-06-05,株式会社共同貨物運輸,,株式会社,神奈川県,横浜市旭区,川井本町１０４番地３,,14,112,2410803,,,2025-06-05,清算の結了等,,,2015-10-05,1,,,,,キョウドウカモツウンユ,0
1194,5021002039152,登記記録の閉鎖等,0,2025-06-10,2025-06-02,有限会社パインズクラブ,,有限会社,神奈川県,秦野市,平沢５２０番地の５,,14,211,2570015,,,2025-06-02,清算の結了等,,,2015-10-05,1,,,,,パインズクラブ,0
1197,5030001162435,登記記録の閉鎖等,0,2025-06-10,2025-06-03,うたたねＨＯＵＳＥ株式会社,,株式会社,埼玉県,さいたま市見沼区,東大宮４丁目６１番地５８,,11,104,3370051,,,2025-06-03,清算の結了等,,,2024-09-12,1,,,,,ウタタネハウス,0
1228,5110002014841,登記記録の閉鎖等,0,2025-06-10,2025-05-30,有限会社岩崎新聞店,00070783,有限会社,新潟県,新発田市,大栄町４丁目１番３号,,15,206,9570056,,,2025-05-30,清算の結了等,,,2015-10-05,1,,,,,イワサキシンブンテン,0
1229,5110005011778,登記記録の閉鎖等,0,2025-06-10,2025-05-30,明善寺,,その他の設立登記法人,新潟県,長岡市,福住３丁目６番９号,,15,202,9400034,,,2025-05-30,清算の結了等,,,2015-10-05,1,,,,,ミョウゼンジ,0
1230,5120001065216,登記記録の閉鎖等,0,2025-06-10,2025-06-06,松栄美術印刷株式会社,,株式会社,大阪府,大阪市北区,中崎西３丁目３番２７号,,27,127,5300015,,,2025-06-06,合併による解散等,5290001049615,令和７年６月１日福岡県久留米市山川市ノ上町７番２０号株式会社丸信（5290001049615）に合併し解散,2015-10-05,1,,,,,ショウエイビジュツインサツ,0
1237,5120001261913,登記記録の閉鎖等,0,2025-06-10,2025-06-04,龍＿美術品株式会社,00133644,株式会社,大阪府,大阪市港区,弁天３丁目２３番１５号,,27,107,5520007,,,2025-06-04,清算の結了等,,,2024-02-07,1,,,,,リュウコウビジュツヒン,0
1251,5122002013665,登記記録の閉鎖等,0,2025-06-10,2025-05-27,有限会社弘恵産業,,有限会社,大阪府,八尾市,八尾木東１丁目１３８番地の３,,27,212,5810028,,,2025-05-27,清算の結了等,,,2015-10-05,1,,,,,ヒロエサンギョウ,0
1258,5130005011165,登記記録の閉鎖等,0,2025-06-10,2025-05-22,稲荷神社,,その他の設立登記法人,京都府,京丹後市,網野町切畑小字ヲテ１２２番地の１,,26,212,6293135,,,2025-05-22,合併による解散等,2130005011036,令和７年５月２２日京都府京丹後市網野町切畑８８９番地岩崎神社（2130005011036）に合併し解散,2015-10-05,1,,,,,,0
1259,5140001010335,登記記録の閉鎖等,0,2025-06-10,2025-06-03,阪神実業株式会社,,株式会社,兵庫県,神戸市長田区,腕塚町５丁目５番１号,00048120,28,106,6530036,,,2025-06-03,清算の結了等,,,2015-10-05,1,,,,,ハンシンジツギョウ,0
1260,5140001041900,登記記録の閉鎖等,0,2025-06-10,2025-06-03,臥竜株式会社,,株式会社,兵庫県,丹波篠山市,野間３８４番地,,28,221,6692313,,,2025-06-03,清算の結了等,,,2015-10-05,1,,,,,ガリュウ,0
1264,5140005001173,登記記録の閉鎖等,0,2025-06-10,2025-05-21,天理教神吉長分教会,00041963,その他の設立登記法人,兵庫県,神戸市北区,鹿の子台南町４丁目４２番２号,,28,109,6511514,,,2025-05-21,合併による解散等,2140005006266,令和７年５月２１日兵庫県三木市吉川町鍛治屋６番地の１天理教中吉川分教会（2140005006266）に合併し解散,2015-10-05,1,,,,,テンリキョウカミヨナガブンキョウカイ,0
1270,5170002010133,登記記録の閉鎖等,0,2025-06-10,2025-06-06,有限会社コスモ,,有限会社,和歌山県,御坊市,藤田町藤井２０２８番地の４,,30,205,6491341,,,2025-06-06,清算の結了等,,,2015-10-05,1,,,,,コスモ,0
1291,5230005007112,登記記録の閉鎖等,0,2025-06-10,2025-06-05,一般社団法人富山県西部読売会,,その他の設立登記法人,富山県,高岡市,下関町４番５号,,16,202,9330021,,,2025-06-05,清算の結了等,,,2015-10-05,1,,,,,トヤマケンセイブヨミウリカイ,0
1294,5240001029472,登記記録の閉鎖等,0,2025-06-10,2025-06-02,神辺中央ゴルフ株式会社,,株式会社,広島県,福山市,神辺町字湯野１３番地,,34,207,7202121,,,2025-06-02,合併による解散等,8240002038858,令和７年６月１日広島県福山市神辺町字湯野５１２番地の１藤田土木建設株式会社（8240002038858）に合併し解散,2015-10-05,1,,,,,カンナベチュウオウゴルフ,0
1295,5250002020495,登記記録の閉鎖等,0,2025-06-10,2025-06-04,有限会社テラヴェルデ,,有限会社,山口県,熊毛郡平生町,大字曽根３５８番地の８,,35,344,7421107,,,2025-06-04,清算の結了等,,,2015-10-05,1,,,,,テラヴェルデ,0
1358,5430002052124,登記記録の閉鎖等,0,2025-06-10,2025-06-03,有限会社小塚新聞販売所,,有限会社,北海道,芦別市,北一条東１丁目１０番地,,01,216,0750011,,,2025-06-03,清算の結了等,,,2015-10-05,1,,,,,コヅカシンブンハンバイショ,0
1374,5500002000447,登記記録の閉鎖等,0,2025-06-10,2025-06-05,有限会社アイキ労務コンサルタンツ,,有限会社,愛媛県,東温市,南方５４０番地１,,38,215,7910301,,,2025-06-05,清算の結了等,,,2015-10-05,1,,,,,アイキロウムコンサルタンツ,0
1385,6010001157361,登記記録の閉鎖等,0,2025-06-10,2025-05-14,株式会社波多野,,株式会社,東京都,港区,赤坂４丁目４番１４号越川ビル１階,,13,103,1070052,,,2025-05-14,清算の結了等,,,2015-10-05,1,,,,,ハタノ,0
1410,6010702001438,登記記録の閉鎖等,0,2025-06-10,2025-05-27,有限会社荏原商事,,有限会社,東京都,品川区,旗の台６丁目１６番９号,,13,109,1420064,,,2025-05-27,清算の結了等,,,2015-10-05,1,,,,,エバラショウジ,0
1416,6010802016014,登記記録の閉鎖等,0,2025-06-10,2025-06-03,有限会社エーアンドジェイ・モリモト,,有限会社,東京都,大田区,東嶺町３６番７号,,13,111,1450074,,,2025-06-03,清算の結了等,,,2015-10-05,1,,,,,,0
1419,6010902023744,登記記録の閉鎖等,0,2025-06-10,2025-06-09,有限会社ポオケラ,,有限会社,東京都,世田谷区,等々力５丁目４番２－４０３号,,13,112,1580082,,,2025-06-09,清算の結了等,,,2015-10-05,1,,,,,,0
1435,6011105010051,登記記録の閉鎖等,0,2025-06-10,2025-05-30,グローリーシールド一般社団法人,,その他の設立登記法人,東京都,新宿区,四谷２丁目９番地１５東京ユナイテッド綜合事務所内,,13,104,1600004,,,2025-05-30,清算の結了等,,,2021-11-18,1,,,,,グローリーシールド,0
1444,6011602008861,登記記録の閉鎖等,0,2025-06-10,2025-06-02,有限会社ベスト・サウンド・ラボ,,有限会社,東京都,練馬区,大泉町３丁目３４番１号,,13,120,1780062,,,2025-06-02,清算の結了等,,,2015-10-05,1,,,,,ベストサウンドラボ,0
1450,6011801014033,登記記録の閉鎖等,0,2025-06-10,2025-06-05,ファシリティーマネジメント株式会社,,株式会社,東京都,葛飾区,東金町１丁目２０番１５号市野ビル,,13,122,1250041,,,2025-06-05,合併による解散等,7011501003665,令和７年６月１日東京都荒川区東尾久四丁目１６番１２号株式会社日商インターライフ（7011501003665）に合併し解散,2015-10-05,1,,,,,ファシリティーマネジメント,0
1458,6012401024042,登記記録の閉鎖等,0,2025-06-10,2025-06-04,株式会社薬局小金井ファーマシー,,株式会社,東京都,小金井市,本町１丁目８番４号ライオンズマンション武蔵小金井第２－１階,,13,210,1840004,,,2025-06-04,清算の結了等,,,2015-10-05,1,,,,,ヤッキョクコガネイファーマシー,0
1476,6020002048699,登記記録の閉鎖等,0,2025-06-10,2025-06-04,有限会社ワークショップイトー,,有限会社,神奈川県,横浜市保土ケ谷区,上星川２丁目１０番１０号,,14,106,2400042,,,2025-06-04,清算の結了等,,,2015-10-05,1,,,,,ワークショップイトー,0
1481,6021001057897,登記記録の閉鎖等,0,2025-06-10,2025-06-03,ＥＤＤＩＥ　ＨＩ株式会社,,株式会社,神奈川県,横須賀市,大滝町２丁目６番地３３０３,,14,201,2380008,,,2025-06-03,清算の結了等,,,2015-12-01,1,,,,,エディーエイチアイ,0
1482,6021001066436,登記記録の閉鎖等,0,2025-06-10,2025-06-04,株式会社８８ＯＦＦＩＣＥ,,株式会社,神奈川県,相模原市中央区,淵野辺本町３丁目１９番２９号,,14,152,2520202,,,2025-06-04,清算の結了等,,,2019-01-17,1,,,,,エイティエイトオフィス,0
1507,6040002028690,登記記録の閉鎖等,0,2025-06-10,2025-05-27,有限会社おぐら,,有限会社,千葉県,八千代市,緑が丘西１丁目１９番地４,,12,221,2760040,,,2025-05-27,清算の結了等,,,2015-10-05,1,,,,,オグラ,0
1515,6070001027815,登記記録の閉鎖等,0,2025-06-10,2025-06-02,株式会社ヤマダトレーディング,,株式会社,群馬県,高崎市,栄町１番１号,,10,202,3700841,,,2025-06-02,合併による解散等,2070001036729,令和７年６月１日群馬県高崎市栄町１番１号株式会社ヤマダデンキ（2070001036729）に合併し解散,2015-10-05,1,,,,,ヤマダトレーディング,0
1517,6070001040628,登記記録の閉鎖等,0,2025-06-10,2025-06-02,株式会社金谷商事,,株式会社,群馬県,太田市,新田市野倉町１９２番地,,10,205,3700306,,,2025-06-02,合併による解散等,1070001019016,令和７年６月１日群馬県太田市新田市野倉町１９２番地株式会社金谷塗装工業所（1070001019016）に合併し解散,2023-07-12,1,,,,,カナヤショウジ,0
1523,6080402007340,登記記録の閉鎖等,0,2025-06-10,2025-06-02,有限会社ポニーモード,,有限会社,静岡県,浜松市中央区,西ケ崎町６２４番地の１,,22,138,4313115,,,2025-06-02,清算の結了等,,,2015-10-05,1,,,,,ポニーモード,0
1534,6120001200267,登記記録の閉鎖等,0,2025-06-10,2025-06-02,ＣＬＥＡＲ　ＲＯＣＫ株式会社,,株式会社,大阪府,大阪市北区,堂山町一丁目５番三共梅田ビル６階,,27,127,5300027,,,2025-06-02,清算の結了等,,,2016-08-19,1,,,,,,0
1554,6130001070569,登記記録の閉鎖等,0,2025-06-10,2025-06-04,ＨＪ株式会社,,株式会社,京都府,城陽市,寺田新池６６番地の１,,26,207,6100121,,,2025-06-04,清算の結了等,,,2021-11-19,1,,,,,エイチジェイ,0
1557,6130005011164,登記記録の閉鎖等,0,2025-06-10,2025-05-22,東吉野神社,,その他の設立登記法人,京都府,京丹後市,網野町切畑小字瀧谷８５番地の１,,26,212,6293135,,,2025-05-22,合併による解散等,2130005011036,令和７年５月２２日京都府京丹後市網野町切畑８８９番地岩崎神社（2130005011036）に合併し解散,2015-10-05,1,,,,,,0
1571,6170001012113,登記記録の閉鎖等,0,2025-06-10,2025-06-04,株式会社ひだまり,,株式会社,和歌山県,西牟婁郡上富田町,市ノ瀬２５００－１,,30,404,6492107,,,2025-06-04,清算の結了等,,,2015-10-05,1,,,,,ヒダマリ,0
1573,6180001156082,登記記録の閉鎖等,0,2025-06-10,2025-06-04,株式会社ＨＹ,,株式会社,愛知県,大府市,江端町３丁目１４３番地,,23,223,4740035,,,2025-06-04,清算の結了等,,,2023-05-01,1,,,,,エイチワイ,0
1581,6190001031350,登記記録の閉鎖等,0,2025-06-10,2025-06-03,アフター機工株式会社,,株式会社,三重県,津市,雲出本郷町１４０番地,,24,201,5140304,,,2025-06-03,清算の結了等,,,2024-05-16,1,,,,,アフターキコウ,0
1587,6220002011983,登記記録の閉鎖等,0,2025-06-10,2025-06-06,有限会社中栄管工,,有限会社,石川県,小松市,園町ロ５０番地１,,17,203,9230801,,,2025-06-06,清算の結了等,,,2015-10-05,1,,,,,ナカエイカンコウ,0
1596,6240002040007,登記記録の閉鎖等,0,2025-06-10,2025-06-02,有限会社カトレア工芸,,有限会社,広島県,福山市,箕島町６５８８番地の２,,34,207,7210957,,,2025-06-02,清算の結了等,,,2015-10-05,1,,,,,カトレアコウゲイ,0
1604,6290001082367,登記記録の閉鎖等,0,2025-06-10,2025-06-03,株式会社ＴＳＵＮＡＧ,,株式会社,福岡県,福岡市中央区,薬院１丁目１４番２７号,,40,133,8100022,,,2025-06-03,清算の結了等,,,2018-08-06,1,,,,,ツナグ,0
1607,6290005005340,登記記録の閉鎖等,0,2025-06-10,2025-05-28,ＮＰＯ法人日本語サポートあさ,,その他の設立登記法人,熊本県,熊本市中央区,大江５丁目１７番２６号,,43,101,8620971,,,2025-05-28,清算の結了等,,,2015-10-05,1,,,,,ニホンゴサポートアサ,0
1615,6360001007036,登記記録の閉鎖等,0,2025-06-10,2025-06-02,株式会社ギャラクシー,,株式会社,沖縄県,那覇市,牧志１丁目４番４３号,,47,201,9000013,,,2025-06-02,清算の結了等,,,2015-10-05,1,,,,,ギャラクシー,0
1629,6390001016298,登記記録の閉鎖等,0,2025-06-10,2025-06-02,ＣＯＴＯＹＯ株式会社,,株式会社,山形県,東根市,大字観音寺１００６番地,,06,211,9993723,,,2025-06-02,清算の結了等,,,2020-12-23,1,,,,,コトヨ,0
1630,6400001008178,登記記録の閉鎖等,0,2025-06-10,2025-05-27,株式会社フラップ,,株式会社,岩手県,久慈市,大川目町第２７地割８７番地５,,03,207,0280091,,,2025-05-27,清算の結了等,,,2015-10-05,1,,,,,フラップ,0
1648,6460101005524,登記記録の閉鎖等,0,2025-06-10,2025-06-04,株式会社原口経営コンサルタントオフィス,,株式会社,北海道,帯広市,西二十一条南５丁目３０番地５,,01,207,0802471,,,2025-06-04,清算の結了等,,,2015-10-05,1,,,,,ハラグチケイエイコンサルタントオフィス,0
1677,7010401160435,登記記録の閉鎖等,0,2025-06-10,2025-05-15,ＫｉｌｉＭＯＬ株式会社,,株式会社,東京都,港区,虎ノ門２丁目１番１号,,13,103,1050001,,,2025-05-15,清算の結了等,,,2021-05-27,1,,,,,ケイアイエルアイエムオーエル,0
1687,7010901040608,登記記録の閉鎖等,0,2025-06-10,2025-06-05,株式会社Ｓｐｏｔｌｉｔｅ,,株式会社,東京都,八王子市,元本郷町３丁目１０－１,,13,201,1920051,,,2025-06-05,清算の結了等,,,2017-08-04,1,,,,,スポットライト,0
1703,7011101082820,登記記録の閉鎖等,0,2025-06-10,2025-06-03,株式会社フィジカルエイトロジック,,株式会社,東京都,大田区,南六郷１丁目２５番２号,,13,111,1440045,,,2025-06-03,清算の結了等,,,2018-01-15,1,,,,,フィジカルエイトロジック,0
1714,7011401019885,登記記録の閉鎖等,0,2025-06-10,2025-06-05,Ｈｏｌｌｙｈｏｃｋ株式会社,,株式会社,東京都,板橋区,上板橋２丁目８番２－２０６号ウィンベルデュエット上板橋３,,13,119,1740076,,,2025-06-05,清算の結了等,,,2016-12-09,1,,,,,ホリーホック,0
1716,7011403003821,登記記録の閉鎖等,0,2025-06-10,2025-06-05,青葉合同会社,,合同会社,東京都,板橋区,大谷口上町３６－２ジョイビル１０３Ｂ,,13,119,1730032,,,2025-06-05,清算の結了等,,,2022-11-10,1,,,,,アオバ,0
1726,7012401031863,登記記録の閉鎖等,0,2025-06-10,2025-06-04,株式会社清龍軒,,株式会社,東京都,武蔵野市,西久保２丁目２１番３号１０６室,,13,203,1800013,,,2025-06-04,清算の結了等,,,2016-10-05,1,,,,,セイリュウケン,0
1728,7012701012126,登記記録の閉鎖等,0,2025-06-10,2025-06-04,株式会社弥左衛門,,株式会社,東京都,小平市,大沼町４丁目５０番１５号,,13,211,1870001,,,2025-06-04,清算の結了等,,,2015-10-05,1,,,,,,0
1735,7020001040524,登記記録の閉鎖等,0,2025-06-10,2025-06-05,アイエム・フィッシュ株式会社,,株式会社,栃木県,宇都宮市,陽東１丁目６番４５号サーパス陽東桜レジデンス１０５号,,09,201,3210904,,,2025-06-05,清算の結了等,,,2015-10-05,1,,,,,アイエムフィッシュ,0
1736,7020001078738,登記記録の閉鎖等,0,2025-06-10,2025-06-03,Ｎｅｓｔｅｇ株式会社,,株式会社,神奈川県,横浜市保土ケ谷区,桜ケ丘１丁目５３－８,,14,106,2400011,,,2025-06-03,清算の結了等,,,2015-10-05,1,,,,,ネステグ,0
1739,7020001138896,登記記録の閉鎖等,0,2025-06-10,2025-06-05,株式会社ラッシュ,,株式会社,神奈川県,横浜市神奈川区,神奈川２丁目１７番１号ルピナス東神奈川８０２,,14,102,2210045,,,2025-06-05,清算の結了等,,,2020-12-04,1,,,,,ラッシュ,0
1748,7021001053359,登記記録の閉鎖等,0,2025-06-10,2025-06-04,株式会社日本ＬＣＭ総合研究所,,株式会社,神奈川県,横須賀市,平成町１丁目５番地３ソフィアステイシア３２６,,14,201,2380013,,,2025-06-04,清算の結了等,,,2015-10-05,1,,,,,,0
1752,7021002003825,登記記録の閉鎖等,0,2025-06-10,2025-06-05,有限会社日房海産,,有限会社,神奈川県,藤沢市,鵠沼東３番１,,14,205,2510026,,,2025-06-05,清算の結了等,,,2015-10-05,1,,,,,ニチボウカイサン,0
1792,7070001012428,登記記録の閉鎖等,0,2025-06-10,2025-06-02,株式会社三幸,,株式会社,群馬県,高崎市,吉井町小暮５４２番地３,,10,202,3702102,,,2025-06-02,合併による解散等,5010001242858,令和７年６月１日群馬県高崎市吉井町小暮５４２番地３株式会社三幸（5010001242858）に合併し解散,2015-10-05,1,,,,,サンコウ,0
1793,7070001025850,登記記録の閉鎖等,0,2025-06-10,2025-06-04,株式会社日精ものづくりホールディングス,,株式会社,群馬県,富岡市,妙義町北山７７番地,,10,210,3790205,,,2025-06-04,合併による解散等,1013301030564,令和７年５月１日東京都豊島区東池袋一丁目５番６号株式会社ダッチパートナーズ（1013301030564）に合併し解散,2015-10-05,1,,,,,ニッセイモノヅクリホールディングス,0
1796,7070002018795,登記記録の閉鎖等,0,2025-06-10,2025-06-02,有限会社協和プランニング,,有限会社,群馬県,伊勢崎市,八斗島町１６０７番地２６,,10,204,3720827,,,2025-06-02,清算の結了等,,,2015-10-05,1,,,,,キョウワプランニング,0
1811,7100001022729,登記記録の閉鎖等,0,2025-06-10,2025-06-05,株式会社ホテル伊奈,,株式会社,長野県,飯田市,上郷別府１４２５番地６,,20,205,3950003,,,2025-06-05,清算の結了等,,,2015-10-05,1,,,,,ホテルイナ,0
1817,7120001042790,登記記録の閉鎖等,0,2025-06-10,2025-06-02,株式会社近畿クロスタニン,,株式会社,大阪府,大阪市西成区,聖天下２丁目７番８号,,27,122,5570012,,,2025-06-02,清算の結了等,,,2015-10-05,1,,,,,キンキクロスタニン,0
1818,7120001092638,登記記録の閉鎖等,0,2025-06-10,2025-06-02,和久株式会社,,株式会社,大阪府,大阪市中央区,久太郎町２丁目６番９号,,27,128,5410056,,,2025-06-02,合併による解散等,6120001084017,令和７年６月１日大阪市中央区久太郎町二丁目６番９号武田和株式会社（6120001084017）に合併し解散,2015-10-05,1,,,,,カズキュウ,0
1819,7120001128458,登記記録の閉鎖等,0,2025-06-10,2025-06-05,株式会社ノイエ,,株式会社,大阪府,大阪市北区,堂島２丁目３番２号堂北ビル,,27,127,5300003,,,2025-06-05,合併による解散等,3220001006533,令和７年６月１日石川県金沢市広岡一丁目４番１６号前多株式会社（3220001006533）に合併し解散,2015-10-05,1,,,,,ノイエ,0
1822,7120001175855,登記記録の閉鎖等,0,2025-06-10,2025-06-05,株式会社ビューティーラッシュ,,株式会社,大阪府,大阪市淀川区,東三国４丁目２５番２３号,,27,123,5320002,,,2025-06-05,合併による解散等,3120001124246,令和７年６月１日大阪府松原市天美東一丁目７番７号株式会社ｆｅｅｌ（3120001124246）に合併し解散,2015-10-05,1,,,,,ビューティーラッシュ,0
1823,7120001186877,登記記録の閉鎖等,0,2025-06-10,2025-06-02,株式会社ロダテックジャパン,,株式会社,大阪府,大阪市西区,京町堀２丁目１番１６号,,27,106,5500003,,,2025-06-02,合併による解散等,2120001048520,令和７年６月１日大阪市西区京町堀二丁目１番１６号株式会社ロダテックジャパン（2120001048520）に合併し解散,2015-10-05,1,,,,,ロダテックジャパン,0
1842,7120002043549,登記記録の閉鎖等,0,2025-06-10,2025-06-03,有限会社清風電気,,有限会社,大阪府,大阪市此花区,西九条４丁目２番４号４Ａ,,27,104,5540012,,,2025-06-03,清算の結了等,,,2015-10-05,1,,,,,セイフウデンキ,0
1862,7130005011163,登記記録の閉鎖等,0,2025-06-10,2025-05-22,西白山神社,,その他の設立登記法人,京都府,京丹後市,網野町切畑小字三谷９４番地の１,,26,212,6293135,,,2025-05-22,合併による解散等,2130005011036,令和７年５月２２日京都府京丹後市網野町切畑８８９番地岩崎神社（2130005011036）に合併し解散,2015-10-05,1,,,,,,0
1880,7180305003624,登記記録の閉鎖等,0,2025-06-10,2025-05-28,天理教前穂原分教会,,その他の設立登記法人,愛知県,豊川市,千両町石畑４番地,,23,207,4420001,,,2025-05-28,合併による解散等,8180305003631,令和７年５月２８日愛知県豊川市長草町案五郎５番地１天理教前濱分教会（8180305003631）に合併し解散,2015-10-05,1,,,,,,0
1895,7250001016047,登記記録の閉鎖等,0,2025-06-10,2025-06-05,サンワ工務店株式会社,,株式会社,山口県,山口市,陶４２０９番地６,,35,203,7540891,,,2025-06-05,清算の結了等,,,2016-07-05,1,,,,,サンワコウムテン,0
1896,7250002019544,登記記録の閉鎖等,0,2025-06-10,2025-06-06,有限会社ムラカミ溶接工業,,有限会社,山口県,岩国市,玖珂町５２０番地,,35,208,7420344,,,2025-06-06,清算の結了等,,,2015-10-05,1,,,,,ムラカミヨウセツコウギョウ,0
1898,7260002010428,登記記録の閉鎖等,0,2025-06-10,2025-05-23,友和メディカル有限会社,,有限会社,岡山県,岡山市中区,山崎３５９－１５,,33,102,7038267,,,2025-05-23,清算の結了等,,,2015-10-05,1,,,,,ユウワメディカル,0
1917,7320003002319,登記記録の閉鎖等,0,2025-06-10,2025-05-21,合同会社特急ハンコ,,合同会社,大分県,大分市,高松東３丁目３番１０号,,44,201,8700916,,,2025-05-21,合併による解散等,9320001000941,令和７年５月１４日大分市高松東三丁目３番１０号株式会社キューイン（9320001000941）に合併し解散,2015-11-30,1,,,,,トッキュウハンコ,0
1942,7410001010875,登記記録の閉鎖等,0,2025-06-10,2025-06-04,株式会社小町芍薬苑,,株式会社,秋田県,湯沢市,小野字飯塚９７番地,,05,207,0190205,,,2025-06-04,清算の結了等,,,2015-10-05,1,,,,,コマチシャクヤクエン,0
1949,7430001062444,登記記録の閉鎖等,0,2025-06-10,2025-06-03,株式会社札新工業,,株式会社,北海道,札幌市北区,新川八条１７丁目７６９番地５３,,01,102,0010928,,,2025-06-03,清算の結了等,,,2015-10-05,1,,,,,サッシンコウギョウ,0
1962,7500001011245,登記記録の閉鎖等,0,2025-06-10,2025-06-04,栄昌産業株式会社,,株式会社,愛媛県,今治市,小浦町１丁目４番５２号,,38,202,7992111,,,2025-06-04,合併による解散等,9500001011722,令和７年６月１日愛媛県今治市小浦町一丁目４番５２号正栄汽船株式会社（9500001011722）に合併し解散,2015-10-05,1,,,,,エイショウサンギョウ,0
1964,7700150029753,削除,,2025-06-10,,,,,,,,,,,,,,,,,,,,,,,,,
1978,8010005021677,登記記録の閉鎖等,0,2025-06-10,2025-06-06,一般社団法人リーファーワイン協会,,その他の設立登記法人,東京都,千代田区,内神田２丁目３番１４号平沢ビル４階,,13,101,1010047,,,2025-06-06,清算の結了等,,,2015-10-05,1,,,,,リーファーワインキョウカイ,0
1991,8010602005396,登記記録の閉鎖等,0,2025-06-10,2025-06-02,有限会社山本興産,,有限会社,東京都,江東区,豊洲４丁目６番１号,,13,108,1350061,,,2025-06-02,合併による解散等,2010601006855,令和７年６月１日東京都江東区豊洲四丁目６番１号株式会社ヤマケン（2010601006855）に合併し解散,2015-10-05,1,,,,,ヤマモトコウサン,0
1992,8010701043719,登記記録の閉鎖等,0,2025-06-10,2025-05-26,Ｂｅ‐Ａｓｋ株式会社,,株式会社,東京都,品川区,西五反田１丁目２６番２号五反田サンハイツ９１１,,13,109,1410031,,,2025-05-26,清算の結了等,,,2023-01-16,1,,,,,ビーアスク,0
2001,8011001071105,登記記録の閉鎖等,0,2025-06-10,2025-05-14,株式会社ＫＩＫＳ　ＪＡＰＡＮ,,株式会社,東京都,渋谷区,渋谷１丁目２２番３号,,13,113,1500002,,,2025-05-14,清算の結了等,,,2015-10-05,1,,,,,キックスジャパン,0
2016,8011105010561,登記記録の閉鎖等,0,2025-06-10,2025-05-30,グローリースカイ一般社団法人,,その他の設立登記法人,東京都,新宿区,四谷２丁目９番地１５東京ユナイテッド綜合事務所内,,13,104,1600004,,,2025-05-30,清算の結了等,,,2023-02-22,1,,,,,グローリースカイ,0
2031,8012401025889,登記記録の閉鎖等,0,2025-06-10,2025-06-02,株式会社シグナル・エムディ,,株式会社,東京都,武蔵野市,中町１丁目１６番１０号,,13,203,1800006,,,2025-06-02,合併による解散等,3012401017107,令和７年６月１日東京都武蔵野市中町二丁目１番９号株式会社プロダクション・アイジー（3012401017107）に合併し解散,2015-10-05,1,,,,,シグナルエムディ,0
2037,8020001058953,登記記録の閉鎖等,0,2025-06-10,2025-06-04,株式会社ヒルズ・インターナショナル,,株式会社,神奈川県,横浜市青葉区,美しが丘西１丁目２２番地７－３０９,,14,117,2250001,,,2025-06-04,清算の結了等,,,2015-10-05,1,,,,,ヒルズインターナショナル,0
2038,8020001088835,登記記録の閉鎖等,0,2025-06-10,2025-06-04,株式会社ニューボーン,,株式会社,神奈川県,横浜市青葉区,榎が丘１５－１７,,14,117,2270063,,,2025-06-04,清算の結了等,,,2015-10-05,1,,,,,ニューボーン,0
2046,8021001075542,登記記録の閉鎖等,0,2025-06-10,2025-06-04,株式会社みどり建築,,株式会社,神奈川県,相模原市南区,相模大野９丁目１５番２２号緑が丘ハイツ１０２,,14,153,2520303,,,2025-06-04,清算の結了等,,,2022-03-29,1,,,,,ミドリケンチク,0
2048,8021002041634,登記記録の閉鎖等,0,2025-06-10,2025-06-05,有限会社ちば,,有限会社,神奈川県,大和市,中央林間５丁目１６番１７号,,14,213,2420007,,,2025-06-05,清算の結了等,,,2015-10-05,1,,,,,チバ,0
2054,8030001123896,登記記録の閉鎖等,0,2025-06-10,2025-05-26,株式会社東和サポート,,株式会社,埼玉県,春日部市,中央３丁目１３番１９,,11,214,3440067,,,2025-05-26,合併による解散等,8010501027038,令和７年５月１日東京都台東区柳橋二丁目１番１０号第２東商センター１～１９１株式会社東和（8010501027038）に合併し解散,2018-01-17,1,,,,,トウワサポート,0
2077,8050001020836,登記記録の閉鎖等,0,2025-06-10,2025-06-04,山富産業株式会社,,株式会社,茨城県,神栖市,堀割２丁目４番３号,,08,232,3140135,,,2025-06-04,清算の結了等,,,2015-10-05,1,,,,,ヤマフクサンギョウ,0
2081,8060002039841,登記記録の閉鎖等,0,2025-06-10,2025-06-05,有限会社シミズ成工,,有限会社,栃木県,佐野市,戸奈良町８０４番地,,09,204,3270323,,,2025-06-05,清算の結了等,,,2015-10-05,1,,,,,シミズセイコウ,0
2086,8080101022028,登記記録の閉鎖等,0,2025-06-10,2025-06-04,株式会社ＭＩＲＩＳＥ　ＡＱ,,株式会社,静岡県,富士市,吉原４丁目５番１６号塚田ビル南棟２階東,00125976,22,210,4170051,,,2025-06-04,清算の結了等,,,2020-09-16,1,,,,,,0
2087,8080401014195,登記記録の閉鎖等,0,2025-06-10,2025-06-09,株式会社岩瀬コンクリート,,株式会社,静岡県,掛川市,八坂３４番地の１,,22,213,4360004,,,2025-06-09,清算の結了等,,,2015-10-05,1,,,,,,0
2100,8100001025458,登記記録の閉鎖等,0,2025-06-10,2025-06-06,株式会社Ｃｏｍｒａｄｅ,,株式会社,長野県,諏訪郡下諏訪町,４９０７番地２,,20,361,3930000,,,2025-06-06,清算の結了等,,,2015-10-05,1,,,,,コムレイド,0
2101,8100001037890,登記記録の閉鎖等,0,2025-06-10,2025-06-05,道安国際咨詢株式会社,,株式会社,長野県,北佐久郡軽井沢町,大字長倉２１３９－９２０（別荘番号：千ヶ滝西区３７０３）,,20,321,3890111,,,2025-06-05,清算の結了等,,,2024-09-30,1,"Taoan International Consultant Co.,Ltd",Nagano,"Nagakura 2139-920 Sengataki Nishiku 3703, Karuizawa machi Kitasaku gun",,ドアンインターナショナルコンサルティング,0
2104,8100005010299,登記記録の閉鎖等,0,2025-06-10,2025-06-04,特定非営利活動法人飯伊学生防犯対策支援協会,,その他の設立登記法人,長野県,飯田市,中央通り４丁目４３番地新星ビル４階,,20,205,3950041,,,2025-06-04,清算の結了等,,,2015-10-05,1,,,,,ハンイガクセイボウハンタイサクシエンキョウカイ,0
2108,8120001007438,登記記録の閉鎖等,0,2025-06-10,2025-06-04,株式会社エリーゼプランニング,,株式会社,大阪府,大阪市北区,中崎西３丁目３番３４－８Ａ号,,27,127,5300015,,,2025-06-04,清算の結了等,,,2015-10-05,1,,,,,エリーゼプランニング,0
2113,8120001125842,登記記録の閉鎖等,0,2025-06-10,2025-06-02,株式会社三祐,,株式会社,大阪府,大阪市東淀川区,菅原７丁目１１番１７号,,27,114,5330022,,,2025-06-02,清算の結了等,,,2015-10-05,1,,,,,サンユウ,0
2122,8120002041304,登記記録の閉鎖等,0,2025-06-10,2025-06-02,株式会社増田運送,,株式会社,大阪府,大阪市住之江区,北加賀屋５丁目６番５－４０４号,,27,125,5590011,,,2025-06-02,清算の結了等,,,2015-10-05,1,,,,,マスダウンソウ,0
2132,8120902020910,登記記録の閉鎖等,0,2025-06-10,2025-06-04,有限会社中洋電業,,有限会社,大阪府,豊中市,熊野町２丁目９番６２号,,27,203,5600014,,,2025-06-04,清算の結了等,,,2015-10-05,1,,,,,チュウヨウデンギョウ,0
2134,8122001030130,登記記録の閉鎖等,0,2025-06-10,2025-06-02,株式会社Ｆｉｖｅ　Ｓｔａｒ,,株式会社,大阪府,大阪市東成区,東中本１丁目１６－１５,,27,115,5370021,,,2025-06-02,清算の結了等,,,2016-11-24,1,,,,,ファイブスター,0
2186,8310001014191,登記記録の閉鎖等,0,2025-06-10,2025-06-05,株式会社メイク２４,,株式会社,福岡県,福岡市博多区,住吉３丁目１４番６号第２ガーデンビル２Ｆ,,40,132,8120018,,,2025-06-05,合併による解散等,3310001011854,令和７年６月１日長崎県佐世保市高梨町１番９号株式会社スエミツ（3310001011854）に合併し解散,2016-04-26,1,,,,,メイクニジュウヨン,0
2190,8330001031838,登記記録の閉鎖等,0,2025-06-10,2025-06-02,株式会社ニュウスフィーダ,,株式会社,熊本県,熊本市中央区,新市街３番６号いしはらビル３階,,43,101,8600803,,,2025-06-02,清算の結了等,,,2024-03-08,1,,,,,ニュウスフィーダ,0
2198,8350003003346,登記記録の閉鎖等,0,2025-06-10,2025-06-04,株式会社田園彩都,,株式会社,宮崎県,西都市,大字岡富８２０番地１,,45,208,8810001,,,2025-06-04,清算の結了等,,,2019-05-13,1,,,,,デンエンサイト,0
2204,8370002019671,登記記録の閉鎖等,0,2025-06-10,2025-05-29,有限会社ＷＡＫＡＴＳＵＫＩ,,有限会社,宮城県,仙台市太白区,柳生７丁目１７番４号,,04,104,9811106,,,2025-05-29,清算の結了等,,,2015-10-05,1,,,,,ワカツキ,0
2207,8380002023524,登記記録の閉鎖等,0,2025-06-10,2025-06-02,有限会社光和自動車工業,,有限会社,福島県,いわき市,好間町下好間字手倉７０番地の１,,07,204,9701151,,,2025-06-02,清算の結了等,,,2015-10-05,1,,,,,コウワジドウシャコウギョウ,0
2218,8430002048292,登記記録の閉鎖等,0,2025-06-10,2025-06-04,有限会社丸新佐々木商店,,有限会社,北海道,千歳市,北栄１丁目２９番６号,,01,224,0660036,,,2025-06-04,清算の結了等,,,2015-10-05,1,,,,,マルシンササキショウテン,0
2221,8440001002035,登記記録の閉鎖等,0,2025-06-10,2025-06-06,株式会社ボーバン,,株式会社,北海道,北斗市,飯生３丁目４番８号,,01,236,0490161,,,2025-06-06,清算の結了等,,,2015-10-05,1,,,,,ボーバン,0
2228,8460303000783,登記記録の閉鎖等,0,2025-06-10,2025-06-04,合同会社ユニオン,,合同会社,北海道,北見市,春光町５丁目７番１１号,,01,208,0900801,,,2025-06-04,清算の結了等,,,2023-01-13,1,,,,,ユニオン,0
2229,8470002006107,登記記録の閉鎖等,0,2025-06-10,2025-06-05,ベルケアーサービス有限会社,,有限会社,香川県,高松市,生島町６１１番地１１,,37,201,7618002,,,2025-06-05,清算の結了等,,,2015-10-05,1,,,,,ベルケアーサービス,0
2230,8470005000437,登記記録の閉鎖等,0,2025-06-10,2025-06-05,美代教会,,その他の設立登記法人,香川県,高松市,鶴市町２００２番地２２,,37,201,7618032,,,2025-06-05,清算の結了等,,,2015-10-05,1,,,,,ミヨキョウカイ,0
2245,9010001146725,登記記録の閉鎖等,0,2025-06-10,2025-06-03,株式会社エイエム企画,,株式会社,埼玉県,川越市,通町２０番地１モアステージ川越５０９号室,,11,201,3500044,,,2025-06-03,清算の結了等,,,2015-10-05,1,,,,,エイエムキカク,0
2247,9010001234257,登記記録の閉鎖等,0,2025-06-10,2025-05-20,株式会社Ｉ＆Ａ,,株式会社,東京都,中央区,入船１丁目２番１号,,13,102,1040042,,,2025-05-20,合併による解散等,5010001231704,令和７年５月１日東京都中央区入船一丁目２番１号ＰＭＯ八丁堀ＩＶ１０Ｆ株式会社ＲＥＡＢＩＬＩＴＹ（5010001231704）に合併し解散,2023-04-10,1,,,,,アイアンドエー,0
2271,9010405020451,登記記録の閉鎖等,0,2025-06-10,2025-05-14,ＲＢソーラーペンタゴンホールディングス一般社団法人,,その他の設立登記法人,東京都,港区,虎ノ門３丁目２２番１０－２０１号,,13,103,1050001,,,2025-05-14,清算の結了等,,,2021-11-24,1,,,,,アールビーソーラーペンタゴンホールディングス,0
2316,9012402011301,登記記録の閉鎖等,0,2025-06-10,2025-06-04,有限会社リムコーポレーション,,有限会社,東京都,調布市,八雲台２丁目１５番地１２,,13,208,1820015,,,2025-06-04,清算の結了等,,,2015-10-05,1,,,,,リムコーポレーション,0
2332,9020002007702,登記記録の閉鎖等,0,2025-06-10,2025-06-05,有限会社荻原商店,,有限会社,神奈川県,横浜市金沢区,富岡西２丁目９番６号,,14,108,2360052,,,2025-06-05,清算の結了等,,,2015-10-05,1,,,,,オギワラショウテン,0
2346,9030002025265,登記記録の閉鎖等,0,2025-06-10,2025-06-02,有限会社松本工務店,,有限会社,埼玉県,戸田市,美女木６丁目５番地の６,,11,224,3350031,,,2025-06-02,清算の結了等,,,2015-10-05,1,,,,,マツモトコウムテン,0
2355,9040001064404,登記記録の閉鎖等,0,2025-06-10,2025-05-27,東薫酒造株式会社,,株式会社,千葉県,香取市,佐原イ１７３０番地３,,12,236,2870003,,,2025-05-27,清算の結了等,,,2015-10-05,1,,,,,トウクンシュゾウ,0
2363,9040002043175,登記記録の閉鎖等,0,2025-06-10,2025-05-22,有限会社そば九イースト,,有限会社,東京都,新宿区,新宿６丁目５番１号,,13,104,1600022,,,2025-05-22,清算の結了等,,,2015-10-05,1,,,,,ソバキュウイースト,0
2376,9080105004046,登記記録の閉鎖等,0,2025-06-10,2025-05-30,伊豆高原ペンション協同組合,,その他の設立登記法人,静岡県,伊東市,富戸１３１７番地の１８０９,,22,208,4130231,,,2025-05-30,清算の結了等,,,2015-10-05,1,,,,,イズコウゲンペンション,0
2377,9080401025480,登記記録の閉鎖等,0,2025-06-10,2025-06-02,株式会社Ｌｅｍｏｎ　Ｖｅｉｌ,,株式会社,静岡県,浜松市中央区,安新町２５８番地の５,,22,138,4350005,,,2025-06-02,清算の結了等,,,2021-11-16,1,,,,,レモンベール,0
2412,9130001032970,登記記録の閉鎖等,0,2025-06-10,2025-06-02,株式会社ハッピーテラダ,,株式会社,石川県,白山市,松本町２５１２番地,,17,210,9240057,,,2025-06-02,合併による解散等,2220001008745,令和７年６月１日石川県白山市松本町２５１２番地株式会社クスリのアオキ（2220001008745）に合併し解散,2015-10-05,1,,,,,ハッピーテラダ,0
2419,9140001106311,登記記録の閉鎖等,0,2025-06-10,2025-06-02,株式会社健康マルシェ,,株式会社,兵庫県,宝塚市,高司１丁目１番１６号,,28,214,6650051,,,2025-06-02,合併による解散等,3140001077582,令和７年６月１日兵庫県尼崎市北初島町１６番６株式会社エムエヌケイ（3140001077582）に合併し解散,2017-05-29,1,,,,,,0
2428,9160001015329,登記記録の閉鎖等,0,2025-06-10,2025-06-03,滋賀土地ビル株式会社,,株式会社,滋賀県,守山市,小島町１５４９番地,,25,207,5240002,,,2025-06-03,清算の結了等,,,2015-10-05,1,,,,,シガトチビル,0
2430,9180001094684,登記記録の閉鎖等,0,2025-06-10,2025-06-05,株式会社カネヒラ,,株式会社,愛知県,知多市,新刀池２丁目２９番地,,23,224,4780069,,,2025-06-05,合併による解散等,6010401187297,令和７年６月１日東京都港区元赤坂一丁目１番８号株式会社赤坂国際会計内株式会社カネヒラ（6010401187297）に合併し解散,2015-10-05,1,,,,,カネヒラ,0
2431,9180001101606,登記記録の閉鎖等,0,2025-06-10,2025-06-02,大昌株式会社,,株式会社,愛知県,名古屋市中村区,日ノ宮町２丁目３３番地,,23,105,4530823,,,2025-06-02,合併による解散等,8180001031003,令和７年６月２日名古屋市中村区日ノ宮町二丁目２６番地大昌産業株式会社（8180001031003）に合併し解散,2015-10-05,1,,,,,ダイショウ,0
2457,9280002007354,登記記録の閉鎖等,0,2025-06-10,2025-06-09,有限会社まるた水産,,有限会社,島根県,出雲市,高松町５７０番地,,32,203,6930053,,,2025-06-09,清算の結了等,,,2015-10-05,1,,,,,,0
2467,9290803003229,登記記録の閉鎖等,0,2025-06-10,2025-06-06,Ｆｒｅｅ障害者相談支援事業所合同会社,,合同会社,福岡県,北九州市若松区,鴨生田３丁目１８番２５号,,40,103,8080105,,,2025-06-06,清算の結了等,,,2018-11-19,1,,,,,フリーショウガイシャソウダンシエンジギョウショ,0
2474,9320002010650,登記記録の閉鎖等,0,2025-06-10,2025-06-05,有限会社うるる映像,,有限会社,大分県,別府市,石垣東１０丁目８番２７号,,44,202,8740919,,,2025-06-05,清算の結了等,,,2015-10-05,1,,,,,,0
2479,9360001024813,登記記録の閉鎖等,0,2025-06-10,2025-06-02,株式会社卵は僕を裏切らない,,株式会社,沖縄県,中頭郡北谷町,字宮城３番地１７７,,47,326,9040113,,,2025-06-02,清算の結了等,,,2018-11-07,1,,,,,タマゴハボクヲウラギラナイ,0
2495,9430001090781,登記記録の閉鎖等,0,2025-06-10,2025-06-03,株式会社札幌観光開発,,株式会社,北海道,札幌市中央区,南四条西３丁目１番１号,,01,101,0640804,,,2025-06-03,清算の結了等,,,2023-12-28,1,,,,,サッポロカンコウカイハツ,0
2502,9440001004311,登記記録の閉鎖等,0,2025-06-10,2025-06-04,函館食品株式会社,,株式会社,北海道,函館市,追分町１番３５号,,01,202,0400071,,,2025-06-04,清算の結了等,,,2015-10-05,1,,,,,ハコダテショクヒン,0
2506,9460102002443,登記記録の閉鎖等,0,2025-06-10,2025-06-04,有限会社中世古商會,,有限会社,北海道,帯広市,大正本町本通３丁目５番地,,01,207,0891241,,,2025-06-04,清算の結了等,,,2015-10-05,1,,,,,ナカセコショウカイ,0
2510,9470002008333,登記記録の閉鎖等,0,2025-06-10,2025-06-05,有限会社ビー・エム・アイ,,有限会社,香川県,高松市,木太町１４９２番地１,,37,201,7600080,,,2025-06-05,清算の結了等,,,2015-10-05,1,,,,,ビーエムアイ,0
