sequenceNumber,corporateNumber,process,correct,updateDate,changeDate,name,nameImageId,kind,prefectureName,cityName,streetNumber,addressImageId,prefectureCode,cityCode,postCode,addressOutside,addressOutsideImageId,closeDate,closeCause,successorCorporateNumber,changeCause,assignmentDate,latest,enName,enPrefectureName,enCityName,enAddressOutside,furigana,hihyoji
2,1010001236351,登記記録の閉鎖等,0,2024-01-09,2023-12-28,エンデバー・ユナイテッド・パートナーズ・３１株式会社,,株式会社,東京都,千代田区,丸の内２丁目５番１号丸の内二丁目ビル６階,,13,101,1000005,,,2023-12-28,清算の結了等,,,2023-06-22,1,,,,,エンデバーユナイテッドパートナーズサーティワン,0
7,1010003038011,登記記録の閉鎖等,0,2024-01-09,2024-01-04,合同会社パール,,合同会社,東京都,千代田区,丸の内３丁目１番１号東京共同会計事務所内,,13,101,1000005,,,2024-01-04,合併による解散等,7010003026448,令和６年１月１日東京都千代田区丸の内三丁目１番１号東京共同会計事務所内合同会社エメラルド（7010003026448）に合併し解散,2022-06-30,1,,,,,パール,0
12,1010401136218,登記記録の閉鎖等,0,2024-01-09,2023-12-28,株式会社フエスタ,,株式会社,東京都,港区,西新橋１丁目１９番４号,,13,103,1050003,,,2023-12-28,清算の結了等,,,2018-01-26,1,,,,,フエスタ,0
13,1010401160259,登記記録の閉鎖等,0,2024-01-09,2023-12-25,パシフィコ・ゴルフ・ソリューション株式会社,,株式会社,東京都,港区,六本木３丁目２番１号六本木グランドタワー,,13,103,1060032,,,2023-12-25,清算の結了等,,,2021-05-20,1,,,,,パシフィコゴルフソリューション,0
24,1010403018059,登記記録の閉鎖等,0,2024-01-09,2023-12-25,パシフィコ・エナジー和歌山合同会社,,合同会社,東京都,港区,六本木３丁目２番１号六本木グランドタワー,,13,103,1060032,,,2023-12-25,清算の結了等,,,2018-02-08,1,,,,,パシフィコエナジーワカヤマ,0
25,1010405019187,登記記録の閉鎖等,0,2024-01-09,2023-12-25,一般社団法人ＮＡＯトラスト,,その他の設立登記法人,東京都,港区,元赤坂１丁目１番８号株式会社赤坂国際会計内,,13,103,1070051,,,2023-12-25,清算の結了等,,,2020-10-16,1,,,,,エヌエーオートラスト,0
27,1010501020940,登記記録の閉鎖等,0,2024-01-09,2023-12-27,株式会社性能計画,,株式会社,東京都,台東区,東上野４丁目２７番１０号,,13,106,1100015,,,2023-12-27,清算の結了等,,,2015-10-05,1,,,,,,0
40,1010901011275,登記記録の閉鎖等,0,2024-01-09,2023-12-25,株式会社牧野タイル工業,,株式会社,東京都,世田谷区,若林１丁目２５番２２号,,13,112,1540023,,,2023-12-25,清算の結了等,,,2015-10-05,1,,,,,マキノタイルコウギョウ,0
49,1011001129396,登記記録の閉鎖等,0,2024-01-09,2023-12-25,Ｔｈｅ　ＲＯＯＭ４Ｄ株式会社,,株式会社,東京都,港区,六本木６丁目１０番１号六本木ヒルズ森タワー,,13,103,1060032,,,2023-12-25,清算の結了等,,,2019-08-08,1,,,,,ザルームフォーディー,0
51,1011001151532,登記記録の閉鎖等,0,2024-01-09,2023-12-28,Ｇｕｓｔｏ　Ｃｏｌｌｅｃｔｉｖｅ　Ｊａｐａｎ株式会社,,株式会社,東京都,渋谷区,渋谷２丁目１２番８号アートビル３階,,13,113,1500002,,,2023-12-28,清算の結了等,,,2022-12-16,1,,,,,ガストコレクティブジャパン,0
52,1011001153306,登記記録の閉鎖等,0,2024-01-09,2023-12-21,株式会社Ｚｍｏｖｉｅ,,株式会社,東京都,渋谷区,道玄坂１丁目１０番８号渋谷道玄坂東急ビル２Ｆ－Ｃ,,13,113,1500043,,,2023-12-21,清算の結了等,,,2023-03-27,1,,,,,ゼットムービー,0
57,1011002016239,登記記録の閉鎖等,0,2024-01-09,2024-01-04,有限会社ペイジ,,有限会社,東京都,渋谷区,神宮前１丁目１４番３２号,,13,113,1500001,,,2024-01-04,清算の結了等,,,2015-10-05,1,,,,,ペイジ,0
72,1011302008423,登記記録の閉鎖等,0,2024-01-09,2023-12-22,有限会社北彩亭,,有限会社,東京都,杉並区,梅里１丁目６番８号新高円寺フジビル２階,,13,115,1660011,,,2023-12-22,清算の結了等,,,2015-10-05,1,,,,,,0
75,1011501018644,登記記録の閉鎖等,0,2024-01-09,2023-12-28,株式会社東京訪問ケアサービス,,株式会社,東京都,江東区,豊洲１丁目２番８号,,13,108,1350061,,,2023-12-28,清算の結了等,,,2015-10-05,1,,,,,トウキョウホウモンケアサービス,0
76,1011501024782,登記記録の閉鎖等,0,2024-01-09,2023-12-22,株式会社アルヴェール,,株式会社,東京都,荒川区,荒川５丁目１０番５－７０１号アルビオン・エクレール,,13,118,1160002,,,2023-12-22,清算の結了等,,,2019-05-23,1,,,,,アルヴェール,0
90,1013301047757,登記記録の閉鎖等,0,2024-01-09,2023-12-27,株式会社Ｐａｒａｄｉｓｏ,,株式会社,神奈川県,相模原市南区,東林間５丁目１１番４号イントワークビル２０２,,14,153,2520311,,,2023-12-27,清算の結了等,,,2021-07-26,1,,,,,パラディソ,0
98,1020002026817,登記記録の閉鎖等,0,2024-01-09,2023-12-27,有限会社菅沼商店,,有限会社,神奈川県,横浜市神奈川区,白幡西町１９番６号,,14,102,2210074,,,2023-12-27,清算の結了等,,,2015-10-05,1,,,,,スガヌマショウテン,0
100,1021001032533,登記記録の閉鎖等,0,2024-01-09,2023-12-28,株式会社菊一商店,,株式会社,神奈川県,小田原市,城山１丁目４番１７号,,14,206,2500045,,,2023-12-28,清算の結了等,,,2015-10-05,1,,,,,キクイチショウテン,0
102,1021002039379,登記記録の閉鎖等,0,2024-01-09,2024-01-04,有限会社小野寺建築,,有限会社,神奈川県,秦野市,東田原２００番地の１４５,,14,211,2570028,,,2024-01-04,清算の結了等,,,2015-10-05,1,,,,,オノデラケンチク,0
109,1040001022864,登記記録の閉鎖等,0,2024-01-09,2023-12-20,株式会社ティーシーシー,,株式会社,千葉県,船橋市,咲が丘２丁目３４番１０号,,12,204,2740807,,,2023-12-20,清算の結了等,,,2015-10-05,1,,,,,ティーシーシー,0
117,1040002024554,登記記録の閉鎖等,0,2024-01-09,2023-12-21,有限会社花島板金,,有限会社,千葉県,船橋市,薬円台１丁目２０番５号,,12,204,2740077,,,2023-12-21,清算の結了等,,,2015-10-05,1,,,,,ハナシマバンキン,0
243,1090001001797,登記記録の閉鎖等,0,2024-01-09,2024-01-05,株式会社ひろせ,,株式会社,山梨県,甲府市,幸町１３番１０号,,19,201,4000857,,,2024-01-05,登記官による閉鎖,,,2015-10-05,1,,,,,,0
244,1090001002036,登記記録の閉鎖等,0,2024-01-09,2024-01-05,丸善製パン株式会社,,株式会社,山梨県,甲府市,善光寺１丁目１７番１９号,,19,201,4000806,,,2024-01-05,登記官による閉鎖,,,2015-10-05,1,,,,,,0
245,1090001004338,登記記録の閉鎖等,0,2024-01-09,2024-01-05,城南電機株式会社,,株式会社,山梨県,甲府市,落合町１２００番地の４,,19,201,4000834,,,2024-01-05,登記官による閉鎖,,,2015-10-05,1,,,,,,0
246,1090001005996,登記記録の閉鎖等,0,2024-01-09,2024-01-05,株式会社河野組,,株式会社,山梨県,笛吹市,八代町竹居１４８４番地３,,19,211,4060832,,,2024-01-05,登記官による閉鎖,,,2015-10-05,1,,,,,,0
247,1090001007456,登記記録の閉鎖等,0,2024-01-09,2024-01-05,株式会社第一機械リース,,株式会社,山梨県,甲府市,徳行５丁目１２番１７号,,19,201,4000047,,,2024-01-05,登記官による閉鎖,,,2015-10-05,1,,,,,,0
248,1090002007199,登記記録の閉鎖等,0,2024-01-09,2024-01-05,有限会社長田工設,,有限会社,山梨県,南アルプス市,野牛島２６１２番地の１１,,19,208,4000205,,,2024-01-05,登記官による閉鎖,,,2015-10-05,1,,,,,,0
249,1090002009385,登記記録の閉鎖等,0,2024-01-09,2024-01-05,有限会社さくら建設,,有限会社,山梨県,大月市,大月町花咲１６０５番地,,19,206,4010015,,,2024-01-05,登記官による閉鎖,,,2015-10-05,1,,,,,,0
250,1090002011052,登記記録の閉鎖等,0,2024-01-09,2024-01-05,有限会社サンセイ物流,,有限会社,山梨県,甲州市,勝沼町等々力２３４１番地４,,19,213,4091315,,,2024-01-05,登記官による閉鎖,,,2015-10-05,1,,,,,,0
251,1090002015664,登記記録の閉鎖等,0,2024-01-09,2024-01-05,有限会社ジュエルフジマキ,,有限会社,山梨県,甲府市,相生２丁目５番２１号,,19,201,4000858,,,2024-01-05,登記官による閉鎖,,,2018-03-26,1,,,,,ジュエルフジマキ,0
252,1090005006900,登記記録の閉鎖等,0,2024-01-09,2024-01-05,清里開拓農業協同組合,,その他の設立登記法人,山梨県,北杜市,高根町清里３５４５番地,,19,209,4070301,,,2024-01-05,登記官による閉鎖,,,2015-10-05,1,,,,,,0
255,1100002033177,登記記録の閉鎖等,0,2024-01-09,2023-12-27,有限会社ハイアニス・コーポレーション,,有限会社,長野県,伊那市,下新田３０４０番地１,,20,209,3960013,,,2023-12-27,清算の結了等,,,2015-10-05,1,,,,,ハイアニスコーポレーション,0
265,1120001185835,登記記録の閉鎖等,0,2024-01-09,2023-12-25,株式会社昭栄,,株式会社,大阪府,大阪市平野区,平野市町１丁目２番１号,,27,126,5470042,,,2023-12-25,清算の結了等,,,2015-10-05,1,,,,,ショウエイ,0
267,1120001203101,登記記録の閉鎖等,0,2024-01-09,2024-01-05,株式会社イクシード,,株式会社,大阪府,大阪市中央区,谷町３丁目１番２５－５０１号,,27,128,5400012,,,2024-01-05,清算の結了等,,,2017-01-18,1,,,,,イクシード,0
268,1120001215170,登記記録の閉鎖等,0,2024-01-09,2023-12-25,株式会社Ｒｏｏｔｓ,,株式会社,大阪府,大阪市中央区,平野町２丁目２番１２号,,27,128,5410046,,,2023-12-25,清算の結了等,,,2018-08-08,1,,,,,ルーツ,0
287,1120102028232,登記記録の閉鎖等,0,2024-01-09,2024-01-05,有限会社三木電気商会,,有限会社,大阪府,泉南郡岬町,深日８４７番地,,27,366,5990303,,,2024-01-05,清算の結了等,,,2015-10-05,1,,,,,ミキデンキショウカイ,0
294,1122002013743,登記記録の閉鎖等,0,2024-01-09,2024-01-04,ラキュラムＳＣ有限会社,,有限会社,大阪府,八尾市,東山本新町１丁目６番９号,,27,212,5810866,,,2024-01-04,清算の結了等,,,2015-10-05,1,,,,,ラキュラムエスシー,0
303,1140002042372,登記記録の閉鎖等,0,2024-01-09,2023-12-26,有限会社福文興産,,有限会社,兵庫県,尼崎市,大庄西町１丁目３３番２５号,,28,202,6600077,,,2023-12-26,清算の結了等,,,2015-10-05,1,,,,,フクブンコウサン,0
334,1290001001496,登記記録の閉鎖等,0,2024-01-09,2023-12-28,株式会社すみの八女茶,,株式会社,福岡県,福岡市南区,花畑１丁目１番５号,,40,134,8111356,,,2023-12-28,清算の結了等,,,2015-10-05,1,,,,,スミノヤメチャ,0
350,1320002003091,登記記録の閉鎖等,0,2024-01-09,2024-01-04,有限会社三宮組,,有限会社,大分県,大分市,大字小池原１４６８番地,,44,201,8700147,,,2024-01-04,清算の結了等,,,2015-10-05,1,,,,,,0
359,1370201003929,登記記録の閉鎖等,0,2024-01-09,2023-12-25,株式会社海苔壱本舗,,株式会社,北海道,札幌市東区,東苗穂六条２丁目１３番２０号,,01,103,0070806,,,2023-12-25,清算の結了等,,,2015-10-05,1,,,,,,0
371,1430001057136,登記記録の閉鎖等,0,2024-01-09,2023-12-25,室蘭三協水産株式会社,,株式会社,北海道,室蘭市,日の出町２丁目３番１号,,01,205,0500081,,,2023-12-25,清算の結了等,,,2015-10-05,1,,,,,ムロランサンキョウスイサン,0
375,1430002057738,登記記録の閉鎖等,0,2024-01-09,2023-12-21,有限会社向井重機建設,,有限会社,北海道,岩内郡共和町,発足４１６番地７,,01,401,0450122,,,2023-12-21,清算の結了等,,,2015-10-05,1,,,,,,0
386,1480001001196,登記記録の閉鎖等,0,2024-01-09,2024-01-09,末広工業株式会社,,株式会社,徳島県,徳島市,東沖洲２丁目２番地,,36,201,7700873,,,2024-01-09,登記官による閉鎖,,,2015-10-05,1,,,,,,0
387,1480001006757,登記記録の閉鎖等,0,2024-01-09,2024-01-09,豊浜ドック株式会社,,株式会社,徳島県,阿南市,領家町天神原４５４番地１,,36,204,7740011,,,2024-01-09,登記官による閉鎖,,,2015-10-05,1,,,,,,0
390,1480002003910,登記記録の閉鎖等,0,2024-01-09,2024-01-09,福万商事有限会社,,有限会社,徳島県,徳島市,八万町下福万１６２番地１,,36,201,7708074,,,2024-01-09,登記官による閉鎖,,,2015-10-05,1,,,,,,0
391,1480002011153,登記記録の閉鎖等,0,2024-01-09,2024-01-09,有限会社三松商事,,有限会社,徳島県,板野郡松茂町,中喜来字中瀬西ノ越１８番地１９,,36,401,7710212,,,2024-01-09,登記官による閉鎖,,,2015-10-05,1,,,,,,0
392,1480002014486,登記記録の閉鎖等,0,2024-01-09,2024-01-09,有限会社なかやま,,有限会社,徳島県,海部郡海陽町,四方原字多ル美７８番地１,,36,388,7750202,,,2024-01-09,登記官による閉鎖,,,2015-10-05,1,,,,,,0
393,1480002014585,登記記録の閉鎖等,0,2024-01-09,2024-01-09,有限会社エレーヌ,,有限会社,徳島県,美馬市,脇町大字猪尻字西分１１６番地,,36,207,7793602,,,2024-01-09,登記官による閉鎖,,,2015-10-05,1,,,,,,0
394,1480002015253,登記記録の閉鎖等,0,2024-01-09,2024-01-09,有限会社冨田建築設計事務所,,有限会社,徳島県,美馬市,脇町字拝原２５１３番地,,36,207,7793601,,,2024-01-09,登記官による閉鎖,,,2015-10-05,1,,,,,,0
395,1480005003107,登記記録の閉鎖等,0,2024-01-09,2024-01-09,医療法人笹歯科,,その他の設立登記法人,徳島県,阿波市,阿波町岡地３５８番地２,,36,206,7711703,,,2024-01-09,登記官による閉鎖,,,2015-10-05,1,,,,,,0
397,1490005005300,登記記録の閉鎖等,0,2024-01-09,2023-12-19,高知東部農振協同組合,,その他の設立登記法人,高知県,香美市,土佐山田町神母ノ木１３番３号,,39,212,7820009,,,2023-12-19,清算の結了等,,,2015-10-05,1,,,,,コウチトウブノウシン,0
399,2010001058786,登記記録の閉鎖等,0,2024-01-09,2024-01-04,明和インターナショナル株式会社,,株式会社,東京都,中央区,新川２丁目１番９号,,13,102,1040033,,,2024-01-04,合併による解散等,6010001058782,令和６年１月１日東京都中央区新川二丁目１番９号明和インターナショナル株式会社（6010001058782）に合併し解散,2015-10-05,1,,,,,メイワインターナショナル,0
403,2010001180012,登記記録の閉鎖等,0,2024-01-09,2024-01-04,株式会社マイナビ文化事業社,,株式会社,東京都,千代田区,一ツ橋１丁目１番１号,,13,101,1000003,,,2024-01-04,合併による解散等,9010001170808,令和５年１２月３１日東京都千代田区一ツ橋二丁目６番３号株式会社マイナビ出版（9010001170808）に合併し解散,2016-12-08,1,,,,,マイナビブンカジギョウシャ,0
407,2010001224017,登記記録の閉鎖等,0,2024-01-09,2023-12-27,Ｔｅｅｌ株式会社,,株式会社,東京都,文京区,弥生２丁目６番５号Ｆｅｌｉｃｉｔｅ２０６,,13,105,1130032,,,2023-12-27,清算の結了等,,,2022-01-24,1,,,,,ティール,0
409,2010001231401,登記記録の閉鎖等,0,2024-01-09,2023-12-28,株式会社ＫＳＴ２,,株式会社,東京都,千代田区,内幸町２丁目１番６号,,13,101,1000011,,,2023-12-28,清算の結了等,,,2022-12-09,1,,,,,ケイエスティーツー,0
412,2010002009020,登記記録の閉鎖等,0,2024-01-09,2023-12-26,有限会社角谷商会,,有限会社,東京都,千代田区,神田三崎町２丁目４番３号,,13,101,1010061,,,2023-12-26,清算の結了等,,,2015-10-05,1,,,,,カクタニショウカイ,0
427,2010501019263,登記記録の閉鎖等,0,2024-01-09,2023-12-28,株式会社創建工業,,株式会社,東京都,江東区,千石２丁目４番１号,,13,108,1350015,,,2023-12-28,清算の結了等,,,2015-10-05,1,,,,,ソウケンコウギョウ,0
429,2010502020674,登記記録の閉鎖等,0,2024-01-09,2023-12-28,有限会社ローズアート,,有限会社,東京都,台東区,浅草橋３丁目３３番５号,,13,106,1110053,,,2023-12-28,清算の結了等,,,2015-10-05,1,,,,,ローズアート,0
442,2011001129858,登記記録の閉鎖等,0,2024-01-09,2023-12-25,Ｔｈｅ　ＲＯＯＭ　Ｄｏｏｒ株式会社,,株式会社,東京都,港区,六本木６丁目１０番１号六本木ヒルズ森タワー,,13,103,1060032,,,2023-12-25,清算の結了等,,,2019-09-09,1,,,,,ザルームドアー,0
443,2011001132837,登記記録の閉鎖等,0,2024-01-09,2023-12-28,株式会社ＩＬＬＵＭＩＮＡＴＥ,,株式会社,東京都,渋谷区,渋谷３丁目１番９号ＹＡＺＡＷＡビル３階,,13,113,1500002,,,2023-12-28,清算の結了等,,,2020-03-12,1,,,,,イルミネート,0
452,2011005008959,登記記録の閉鎖等,0,2024-01-09,2023-12-28,一般社団法人ＳＨＴ八千代,,その他の設立登記法人,東京都,目黒区,洗足２丁目１６番１９号,,13,110,1520012,,,2023-12-28,清算の結了等,,,2021-03-16,1,,,,,エスエイチティーヤチヨ,0
466,2011601014105,登記記録の閉鎖等,0,2024-01-09,2023-12-28,株式会社ビジネスナビゲータ,,株式会社,東京都,練馬区,関町南４丁目３番３４号,,13,120,1770053,,,2023-12-28,清算の結了等,,,2015-10-05,1,,,,,ビジネスナビゲータ,0
469,2012401021729,登記記録の閉鎖等,0,2024-01-09,2023-12-28,株式会社佐藤部品,,株式会社,東京都,八王子市,大塚６４１番地１－３０７,,13,201,1920352,,,2023-12-28,清算の結了等,,,2015-10-05,1,,,,,サトウブヒン,0
481,2020002094771,登記記録の閉鎖等,0,2024-01-09,2023-12-27,有限会社なかざわ,,有限会社,神奈川県,川崎市麻生区,百合丘２丁目１９番地１１,,14,137,2150011,,,2023-12-27,清算の結了等,,,2015-10-05,1,,,,,ナカザワ,0
482,2020003015710,登記記録の閉鎖等,0,2024-01-09,2023-12-27,合同会社ｓｈｏｗ　ｗｏｒｋ,,合同会社,神奈川県,横浜市青葉区,桂台１丁目１１番地１７・４０２,,14,117,2270034,,,2023-12-27,清算の結了等,,,2019-03-05,1,,,,,ショウワーク,0
491,2030001128703,登記記録の閉鎖等,0,2024-01-09,2023-12-25,株式会社ハウスソフト,,株式会社,埼玉県,さいたま市見沼区,東大宮６丁目３４番地８号,,11,104,3370051,,,2023-12-25,清算の結了等,,,2018-12-14,1,,,,,ハウスソフト,0
492,2030001150855,登記記録の閉鎖等,0,2024-01-09,2023-12-25,株式会社ＫＯＵコーポレート,,株式会社,埼玉県,川口市,本町４丁目５番２６号,,11,203,3320012,,,2023-12-25,清算の結了等,,,2022-11-07,1,,,,,コウコーポレート,0
505,2040001127662,登記記録の閉鎖等,0,2024-01-09,2023-12-20,ＳＫＹ株式会社,,株式会社,千葉県,松戸市,西馬橋幸町３２小林ビル４０１,,12,207,2710047,,,2023-12-20,清算の結了等,,,2023-03-27,1,,,,,スカイ,0
508,2040002067148,登記記録の閉鎖等,0,2024-01-09,2023-12-21,田中海運有限会社,,有限会社,千葉県,木更津市,桜井５６０番地７１,,12,206,2920822,,,2023-12-21,清算の結了等,,,2015-10-05,1,,,,,,0
509,2040003012202,登記記録の閉鎖等,0,2024-01-09,2023-12-20,Ｄｏｎ　Ｓｕｅｎｏｓ合同会社,,合同会社,千葉県,東金市,田間２丁目１７番地１４,,12,213,2830005,,,2023-12-20,清算の結了等,,,2018-09-26,1,,,,,ドンスエノス,0
638,2090001006952,登記記録の閉鎖等,0,2024-01-09,2024-01-05,株式会社Ａ・ハウジング,,株式会社,山梨県,南アルプス市,宮沢８６番地１０,,19,208,4000415,,,2024-01-05,登記官による閉鎖,,,2015-10-05,1,,,,,,0
639,2090001008305,登記記録の閉鎖等,0,2024-01-09,2024-01-05,株式会社ヴィーナス,,株式会社,山梨県,都留市,上谷２丁目２番地２２,,19,204,4020053,,,2024-01-05,登記官による閉鎖,,,2015-10-05,1,,,,,,0
640,2090002001432,登記記録の閉鎖等,0,2024-01-09,2024-01-05,有限会社三陽工業,,有限会社,山梨県,甲斐市,中下条１８５９番地,,19,210,4000124,,,2024-01-05,登記官による閉鎖,,,2015-10-05,1,,,,,,0
641,2090002001614,登記記録の閉鎖等,0,2024-01-09,2024-01-05,有限会社照美堂,,有限会社,山梨県,甲府市,宝１丁目１６番８号,,19,201,4000034,,,2024-01-05,登記官による閉鎖,,,2015-10-05,1,,,,,,0
642,2090002003222,登記記録の閉鎖等,0,2024-01-09,2024-01-05,有限会社八百富士商店,,有限会社,山梨県,甲府市,太田町３番７号,,19,201,4000865,,,2024-01-05,登記官による閉鎖,,,2015-10-05,1,,,,,,0
643,2090002010276,登記記録の閉鎖等,0,2024-01-09,2024-01-05,有限会社白須工業,,有限会社,山梨県,都留市,鹿留１０９９番地１,,19,204,4020032,,,2024-01-05,登記官による閉鎖,,,2015-10-05,1,,,,,,0
645,2090005001289,登記記録の閉鎖等,0,2024-01-09,2024-01-05,企業組合清林,,その他の設立登記法人,山梨県,甲斐市,中下条１１８６番地２,,19,210,4000124,,,2024-01-05,登記官による閉鎖,,,2015-10-05,1,,,,,,0
647,2110002006593,登記記録の閉鎖等,0,2024-01-09,2023-12-28,有限会社メリーハウス,,有限会社,新潟県,新潟市江南区,楚川甲３２１番地,,15,104,9501142,,,2023-12-28,清算の結了等,,,2015-10-05,1,,,,,メリーハウス,0
648,2110002013185,登記記録の閉鎖等,0,2024-01-09,2023-12-25,有限会社高木物産,,有限会社,新潟県,阿賀野市,外城町３番５０号,,15,223,9592022,,,2023-12-25,清算の結了等,,,2015-10-05,1,,,,,タカキブッサン,0
657,2120001200774,登記記録の閉鎖等,0,2024-01-09,2024-01-04,ユニバーサルサプライ株式会社,,株式会社,大阪府,大阪市中央区,玉造１丁目１番２５号,,27,128,5400004,,,2024-01-04,清算の結了等,,,2016-09-16,1,,,,,ユニバーサルサプライ,0
672,2122001007951,登記記録の閉鎖等,0,2024-01-09,2024-01-05,株式会社山藤,,株式会社,大阪府,東大阪市,本町２番５号,,27,227,5798045,,,2024-01-05,清算の結了等,,,2015-10-05,1,,,,,ヤマフジ,0
678,2130003008075,登記記録の閉鎖等,0,2024-01-09,2023-12-27,合同会社アシュトンラボ,,合同会社,京都府,京都市南区,吉祥院中島町３０番地１３,,26,107,6018313,,,2023-12-27,清算の結了等,,,2022-07-27,1,,,,,アシュトンラボ,0
684,2140001079423,登記記録の閉鎖等,0,2024-01-09,2023-12-28,株式会社星光ハウジング,,株式会社,兵庫県,川西市,湯山台２丁目１番地の７２,,28,217,6660137,,,2023-12-28,清算の結了等,,,2015-10-05,1,,,,,セイコウハウジング,0
689,2140002060836,登記記録の閉鎖等,0,2024-01-09,2023-12-28,有限会社宝湯,,有限会社,兵庫県,西宮市,田代町１２番１０号,,28,204,6638201,,,2023-12-28,清算の結了等,,,2015-10-05,1,,,,,タカラユ,0
694,2140005021975,登記記録の閉鎖等,0,2024-01-09,2024-01-04,一般社団法人神戸映画保存ネットワーク,,その他の設立登記法人,兵庫県,神戸市長田区,腕塚町５丁目５番１－２０１号,,28,106,6530036,,,2024-01-04,清算の結了等,,,2015-10-05,1,,,,,コウベエイガホゾンネットワーク,0
730,2250003001679,登記記録の閉鎖等,0,2024-01-09,2024-01-04,合同会社ＭＴＨ,,合同会社,山口県,山口市,小郡令和１丁目３番５号,,35,203,7540041,,,2024-01-04,合併による解散等,3250002002025,令和６年１月１日山口県山口市小郡令和一丁目３番５号株式会社ＭＴＨ（3250002002025）に合併し解散,2015-10-05,1,,,,,エムティーエイチ,0
767,2430002002643,登記記録の閉鎖等,0,2024-01-09,2023-12-26,有限会社エーコーエンジニヤリング,,有限会社,北海道,札幌市白石区,北郷一条３丁目３番９号,,01,104,0030831,,,2023-12-26,清算の結了等,,,2015-10-05,1,,,,,エーコーエンジニヤリング,0
772,2450001001776,登記記録の閉鎖等,0,2024-01-09,2024-01-05,株式会社ダイセイ商事,,株式会社,北海道,旭川市,秋月三条２丁目４番１３号,,01,204,0798403,,,2024-01-05,清算の結了等,,,2015-10-05,1,,,,,ダイセイショウジ,0
775,2480001005972,登記記録の閉鎖等,0,2024-01-09,2024-01-09,株式会社Ｋ・Ｍ,,株式会社,徳島県,板野郡北島町,鯛浜字原３５番地２,,36,402,7710204,,,2024-01-09,登記官による閉鎖,,,2015-10-05,1,,,,,,0
776,2480001006211,登記記録の閉鎖等,0,2024-01-09,2024-01-09,株式会社ＢＲＡＩＮ　ＴＲＵＳＴ,,株式会社,徳島県,徳島市,鷹匠町１丁目７番地ＭＳビル３階,,36,201,7700922,,,2024-01-09,登記官による閉鎖,,,2015-10-05,1,,,,,,0
777,2480001008455,登記記録の閉鎖等,0,2024-01-09,2024-01-09,株式会社大杉Ｈ＆Ｔ,,株式会社,徳島県,徳島市,伊月町１丁目６番地ロイヤルガーデン伊月町９０５,,36,201,7700935,,,2024-01-09,登記官による閉鎖,,,2015-10-05,1,,,,,,0
778,2480002005534,登記記録の閉鎖等,0,2024-01-09,2024-01-09,有限会社ルナ・エージェンシー,,有限会社,徳島県,徳島市,昭和町２丁目８０番地２,,36,201,7700942,,,2024-01-09,登記官による閉鎖,,,2015-10-05,1,,,,,,0
779,2480002011334,登記記録の閉鎖等,0,2024-01-09,2024-01-09,有限会社丸岡仏壇サービス,,有限会社,徳島県,板野郡北島町,江尻字宮ノ本１番地１,,36,402,7710205,,,2024-01-09,登記官による閉鎖,,,2015-10-05,1,,,,,,0
780,2480002014287,登記記録の閉鎖等,0,2024-01-09,2024-01-09,有限会社小谷建設,,有限会社,徳島県,海部郡美波町,西の地字西地６８番地,,36,387,7792103,,,2024-01-09,登記官による閉鎖,,,2015-10-05,1,,,,,,0
781,2480002014519,登記記録の閉鎖等,0,2024-01-09,2024-01-09,有限会社荒井商店,,有限会社,徳島県,美馬郡つるぎ町,貞光字西山２番地１２,,36,468,7794102,,,2024-01-09,登記官による閉鎖,,,2015-10-05,1,,,,,,0
782,2480002015467,登記記録の閉鎖等,0,2024-01-09,2024-01-09,有限会社菓子工房ウエダ,,有限会社,徳島県,三好市,井川町西井川５０１番地,,36,208,7794806,,,2024-01-09,登記官による閉鎖,,,2015-10-05,1,,,,,,0
783,2480002015970,登記記録の閉鎖等,0,2024-01-09,2024-01-09,有限会社和久呉服店,,有限会社,徳島県,三好市,池田町サラダ１７９１番地,,36,208,7780003,,,2024-01-09,登記官による閉鎖,,,2015-10-05,1,,,,,,0
784,2480005002280,登記記録の閉鎖等,0,2024-01-09,2024-01-09,ＡＷＡ協同組合,,その他の設立登記法人,徳島県,徳島市,八万町下長谷２５８番地,,36,201,7708070,,,2024-01-09,登記官による閉鎖,,,2015-10-05,1,,,,,,0
785,2500001016785,登記記録の閉鎖等,0,2024-01-09,2023-12-19,株式会社ＳＴＥＰｗｉｓｅ　Ｃｏｒｐｏｒａｔｉｏｎ,,株式会社,愛媛県,新居浜市,本郷１丁目６番４６号,,38,205,7920042,,,2023-12-19,清算の結了等,,,2015-10-05,1,,,,,ステップワイズコーポレーション,0
805,3010401107332,登記記録の閉鎖等,0,2024-01-09,2023-12-27,株式会社ｉｎｃｕＢａｓｅ,,株式会社,東京都,渋谷区,代々木１丁目２５番５号,,13,113,1510053,,,2023-12-27,清算の結了等,,,2015-10-05,1,,,,,インキュベース,0
806,3010401155026,登記記録の閉鎖等,0,2024-01-09,2023-12-25,Ｄａｔａ　ＰＯＰ株式会社,,株式会社,東京都,港区,六本木６丁目１０番１号六本木ヒルズ森タワー,,13,103,1060032,,,2023-12-25,清算の結了等,,,2020-09-07,1,,,,,データポップ,0
812,3010403024047,登記記録の閉鎖等,0,2024-01-09,2023-12-25,ジャパンインフラ１３号合同会社,,合同会社,東京都,港区,元赤坂１丁目１番７号,,13,103,1070051,,,2023-12-25,清算の結了等,,,2020-11-06,1,,,,,ジャパンインフラジュウサンゴウ,0
819,3010601031092,登記記録の閉鎖等,0,2024-01-09,2023-12-27,株式会社ブライン,,株式会社,東京都,江東区,潮見２丁目７番１－６０６号,,13,108,1350052,,,2023-12-27,清算の結了等,,,2015-10-05,1,,,,,ブライン,0
825,3011001008441,登記記録の閉鎖等,0,2024-01-09,2023-12-28,國際計画株式会社,,株式会社,東京都,渋谷区,宇田川町１３番１６号,,13,113,1500042,,,2023-12-28,清算の結了等,,,2015-10-05,1,,,,,コクサイケイカク,0
834,3011002035179,登記記録の閉鎖等,0,2024-01-09,2024-01-04,有限会社サクセスブック社,,有限会社,東京都,渋谷区,千駄ヶ谷１丁目２８－８－２０８,,13,113,1510051,,,2024-01-04,清算の結了等,,,2015-10-05,1,,,,,サクセスブックシャ,0
846,3011601018170,登記記録の閉鎖等,0,2024-01-09,2023-12-27,株式会社ミリオンデータ,,株式会社,東京都,練馬区,上石神井２丁目３０番２０号,,13,120,1770044,,,2023-12-27,清算の結了等,,,2015-10-05,1,,,,,ミリオンデータ,0
867,3021001045153,登記記録の閉鎖等,0,2024-01-09,2023-12-28,株式会社自分流,,株式会社,福島県,郡山市,大槻町字柏山３７番地の３１,,07,203,9630201,,,2023-12-28,清算の結了等,,,2015-10-05,1,,,,,ジブンリュウ,0
885,3040002008852,登記記録の閉鎖等,0,2024-01-09,2023-12-21,有限会社西千葉自動車,,有限会社,千葉県,千葉市稲毛区,山王町３８５番地１,,12,103,2630002,,,2023-12-21,清算の結了等,,,2015-10-05,1,,,,,ニシチバジドウシャ,0
886,3040002089819,登記記録の閉鎖等,0,2024-01-09,2023-12-20,有限会社米一番浅善,,有限会社,千葉県,柏市,つくしが丘２丁目４番１１号,,12,217,2770072,,,2023-12-20,清算の結了等,,,2015-10-05,1,,,,,コメイチバンアサゼン,0
889,3050001037091,登記記録の閉鎖等,0,2024-01-09,2023-12-28,株式会社アルス設計,,株式会社,茨城県,取手市,井野台３丁目２１番１号,,08,217,3020015,,,2023-12-28,清算の結了等,,,2015-10-05,1,,,,,アルスセッケイ,0
890,3050001048915,登記記録の閉鎖等,0,2024-01-09,2023-12-25,株式会社豊都マテリアルズ,,株式会社,茨城県,稲敷市,下太田４４４６,,08,229,3001424,,,2023-12-25,清算の結了等,,,2021-03-23,1,,,,,ホウトマテリアルズ,0
895,3080002013312,登記記録の閉鎖等,0,2024-01-09,2024-01-04,有限会社平成塗装,,有限会社,静岡県,静岡市清水区,由比町屋原４３番地の１,,22,103,4213105,,,2024-01-04,清算の結了等,,,2015-10-05,1,,,,,ヘイセイトソウ,0
934,3080402009653,登記記録の閉鎖等,0,2024-01-09,2024-01-04,有限会社進愛工業,,有限会社,静岡県,湖西市,新居町中之郷３０３５番地の１３,,22,221,4310301,,,2024-01-04,清算の結了等,,,2015-10-05,1,,,,,シンアイコウギョウ,0
1004,3090001009079,登記記録の閉鎖等,0,2024-01-09,2024-01-05,川村造園土木株式会社,,株式会社,山梨県,甲州市,塩山福生里４８５番地の４,,19,213,4040056,,,2024-01-05,登記官による閉鎖,,,2015-10-05,1,,,,,,0
1005,3090005000100,登記記録の閉鎖等,0,2024-01-09,2024-01-05,財団法人山梨県教育会館維持財団,,その他の設立登記法人,山梨県,甲府市,丸の内３丁目３３番７号,,19,201,4000031,,,2024-01-05,登記官による閉鎖,,,2015-10-05,1,,,,,,0
1008,3100001003195,登記記録の閉鎖等,0,2024-01-09,2023-12-27,毎日電業株式会社,,株式会社,長野県,長野市,篠ノ井御幣川１１９０番地の１,,20,201,3888006,,,2023-12-27,清算の結了等,,,2015-10-05,1,,,,,マイニチデンギョウ,0
1018,3110005016291,登記記録の閉鎖等,0,2024-01-09,2024-01-04,一般社団法人日本アジア人材開発推進協会,,その他の設立登記法人,新潟県,新潟市中央区,日の出３丁目４番１５号,,15,103,9500073,,,2024-01-04,清算の結了等,,,2018-08-30,1,,,,,ニホンアジアジンザイカイハツスイシンキョウカイ,0
1019,3120001056869,登記記録の閉鎖等,0,2024-01-09,2024-01-04,中央設計株式会社,,株式会社,大阪府,大阪市淀川区,西中島７丁目１２－５,,27,123,5320011,,,2024-01-04,清算の結了等,,,2015-10-05,1,,,,,チュウオウセッケイ,0
1022,3120001200889,登記記録の閉鎖等,0,2024-01-09,2023-12-28,株式会社ダイム,,株式会社,大阪府,大阪市鶴見区,緑３丁目２番１２号,,27,124,5380054,,,2023-12-28,清算の結了等,,,2016-09-26,1,,,,,ダイム,0
1077,3180001006703,登記記録の閉鎖等,0,2024-01-09,2023-12-27,株式会社大庄,,株式会社,愛知県,名古屋市港区,宝神１丁目６５番地の２,,23,111,4550832,,,2023-12-27,清算の結了等,,,2015-10-05,1,,,,,ダイショウ,0
1080,3180002009358,登記記録の閉鎖等,0,2024-01-09,2023-12-27,有限会社オフィス匠,,有限会社,愛知県,名古屋市昭和区,広路通４丁目６番地,,23,107,4660854,,,2023-12-27,清算の結了等,,,2015-10-05,1,,,,,オフィスタクミ,0
1096,3220002014766,登記記録の閉鎖等,0,2024-01-09,2023-12-28,有限会社タグチ工業,,有限会社,石川県,羽咋郡宝達志水町,菅原３２０番地,,17,386,9291423,,,2023-12-28,清算の結了等,,,2015-10-05,1,,,,,タグチコウギョウ,0
1105,3240002054406,登記記録の閉鎖等,0,2024-01-09,2023-12-27,有限会社大尚機械,,有限会社,広島県,三原市,大和町大具７５７番地の１,,34,204,7291323,,,2023-12-27,清算の結了等,,,2015-10-05,1,,,,,ダイショウキカイ,0
1123,3290001080720,登記記録の閉鎖等,0,2024-01-09,2023-12-28,オムニス株式会社,,株式会社,福岡県,福岡市中央区,大手門２丁目３番５号,,40,133,8100074,,,2023-12-28,清算の結了等,,,2018-03-05,1,,,,,オムニス,0
1135,3340001003007,登記記録の閉鎖等,0,2024-01-09,2024-01-04,ネッツトヨタ南九州株式会社,,株式会社,鹿児島県,鹿児島市,東開町３番１１７号,,46,201,8910115,,,2024-01-04,合併による解散等,7340001000990,令和６年１月１日鹿児島市西千石町１番２８号鹿児島トヨタ自動車株式会社（7340001000990）に合併し解散,2015-10-05,1,,,,,ネッツトヨタミナミキュウシュウ,0
1140,3370002008786,登記記録の閉鎖等,0,2024-01-09,2024-01-05,有限会社湊運輸,,有限会社,宮城県,仙台市宮城野区,田子字五平淵２８番地の１,,04,102,9830021,,,2024-01-05,清算の結了等,,,2015-10-05,1,,,,,ミナトウンユ,0
1149,3430001080887,登記記録の閉鎖等,0,2024-01-09,2023-12-27,プライムマクシマス株式会社,,株式会社,北海道,札幌市中央区,南一条西１６丁目１番地３２３春野ビル３Ｆ,,01,101,0600061,,,2023-12-27,清算の結了等,,,2020-02-17,1,,,,,プライムマクシマス,0
1156,3480001003892,登記記録の閉鎖等,0,2024-01-09,2024-01-09,株式会社四国サービス,,株式会社,徳島県,徳島市,昭和町３丁目２３番地１,,36,201,7700942,,,2024-01-09,登記官による閉鎖,,,2015-10-05,1,,,,,,0
1158,3480002002002,登記記録の閉鎖等,0,2024-01-09,2024-01-09,有限会社四国エンタープライズ,,有限会社,徳島県,徳島市,西新町２丁目３０番地２,,36,201,7700902,,,2024-01-09,登記官による閉鎖,,,2015-10-05,1,,,,,,0
1159,3480002002588,登記記録の閉鎖等,0,2024-01-09,2024-01-09,有限会社大松産業,,有限会社,徳島県,徳島市,川内町大松４０６番地２,,36,201,7710131,,,2024-01-09,登記官による閉鎖,,,2015-10-05,1,,,,,,0
1160,3480002005277,登記記録の閉鎖等,0,2024-01-09,2024-01-09,有限会社湯浅養殖,,有限会社,徳島県,徳島市,川内町上別宮南３３番地１,,36,201,7710127,,,2024-01-09,登記官による閉鎖,,,2015-10-05,1,,,,,,0
1161,3480002008635,登記記録の閉鎖等,0,2024-01-09,2024-01-09,有限会社アートコーポレーション,,有限会社,徳島県,徳島市,佐古四番町５番１１－８０２号,,36,201,7700024,,,2024-01-09,登記官による閉鎖,,,2015-10-05,1,,,,,,0
1162,3480002009328,登記記録の閉鎖等,0,2024-01-09,2024-01-09,有限会社東谷ネット製作所,,有限会社,徳島県,吉野川市,川島町三ツ島字道南３９番地の２,,36,205,7793307,,,2024-01-09,登記官による閉鎖,,,2015-10-05,1,,,,,,0
1163,3480002011993,登記記録の閉鎖等,0,2024-01-09,2024-01-09,有限会社シルクハウス,,有限会社,徳島県,板野郡上板町,椎本字椎ノ宮２８６番地の１,,36,405,7711343,,,2024-01-09,登記官による閉鎖,,,2015-10-05,1,,,,,,0
1164,3480002013437,登記記録の閉鎖等,0,2024-01-09,2024-01-09,有限会社那賀川オアシス,,有限会社,徳島県,阿南市,羽ノ浦町中庄蔵ノホケ３２番地,,36,204,7791101,,,2024-01-09,登記官による閉鎖,,,2015-10-05,1,,,,,,0
1165,3480002014798,登記記録の閉鎖等,0,2024-01-09,2024-01-09,有限会社柴田米穀,,有限会社,徳島県,美馬郡つるぎ町,貞光字町５８番地,,36,468,7794101,,,2024-01-09,登記官による閉鎖,,,2015-10-05,1,,,,,,0
1166,3480002015739,登記記録の閉鎖等,0,2024-01-09,2024-01-09,有限会社のぼり製材所,,有限会社,徳島県,三好市,池田町中西フロノタニ１４５６番地１,,36,208,7795161,,,2024-01-09,登記官による閉鎖,,,2015-10-05,1,,,,,,0
1168,3480005000556,登記記録の閉鎖等,0,2024-01-09,2024-01-09,徳島県青石生産協同組合,,その他の設立登記法人,徳島県,徳島市,蔵本町２丁目７番地,,36,201,7700042,,,2024-01-09,登記官による閉鎖,,,2015-10-05,1,,,,,,0
1169,3500002001736,登記記録の閉鎖等,0,2024-01-09,2024-01-04,有限会社オーム電機工業所,,有限会社,愛媛県,松山市,本町２丁目１番地２,,38,201,7900811,,,2024-01-04,清算の結了等,,,2015-10-05,1,,,,,オームデンキコウギョウショ,0
1172,4010001135864,登記記録の閉鎖等,0,2024-01-09,2024-01-04,株式会社リンク・インタラック,,株式会社,東京都,中央区,銀座４丁目１２番１５号歌舞伎座タワー,,13,102,1040061,,,2024-01-04,合併による解散等,2010001178790,令和６年１月１日東京都中央区銀座四丁目１２番１５号歌舞伎座タワー株式会社リンク・インタラック（2010001178790）に合併し解散,2015-10-05,1,,,,,リンクインタラック,0
1176,4010001212762,登記記録の閉鎖等,0,2024-01-09,2023-12-27,ＢｉｇＢｒａｎｄ株式会社,,株式会社,東京都,中央区,銀座５丁目１０番１０号－３Ｆ,,13,102,1040061,,,2023-12-27,清算の結了等,,,2020-10-08,1,,,,,ビッグブランド,0
1188,4010401070216,登記記録の閉鎖等,0,2024-01-09,2023-12-28,Ｌｅｌａｎｄ株式会社,,株式会社,東京都,江東区,豊洲６丁目２番３１号３１１９号室,,13,108,1350061,,,2023-12-28,清算の結了等,,,2015-10-05,1,,,,,リーランド,0
1201,4010403024046,登記記録の閉鎖等,0,2024-01-09,2023-12-25,ジャパンインフラ１２号合同会社,,合同会社,東京都,港区,元赤坂１丁目１番７号,,13,103,1070051,,,2023-12-25,清算の結了等,,,2020-11-06,1,,,,,ジャパンインフラジュウニゴウ,0
1204,4010405019242,登記記録の閉鎖等,0,2024-01-09,2023-12-25,ジャパンインフラホールディングス１３号一般社団法人,,その他の設立登記法人,東京都,港区,元赤坂１丁目１番７号,,13,103,1070051,,,2023-12-25,清算の結了等,,,2020-11-06,1,,,,,ジャパンインフラホールディングスジュウサンゴウ,0
1211,4010601059810,登記記録の閉鎖等,0,2024-01-09,2023-12-28,株式会社東京アクア,,株式会社,東京都,江東区,北砂２丁目１８番２－１０３号,,13,108,1360073,,,2023-12-28,清算の結了等,,,2021-08-17,1,,,,,トウキョウアクア,0
1217,4010901007130,登記記録の閉鎖等,0,2024-01-09,2023-12-25,株式会社オクダ,,株式会社,東京都,世田谷区,東玉川１丁目３１番４号,,13,112,1580084,,,2023-12-25,清算の結了等,,,2015-10-05,1,,,,,オクダ,0
1223,4010902005868,登記記録の閉鎖等,0,2024-01-09,2023-12-25,有限会社語学教育翻訳サービス,,有限会社,東京都,世田谷区,等々力３丁目２５番９号,,13,112,1580082,,,2023-12-25,清算の結了等,,,2015-10-05,1,,,,,ゴガクキョウイクホンヤクサービス,0
1230,4011001132645,登記記録の閉鎖等,0,2024-01-09,2024-01-04,オブリー株式会社,,株式会社,東京都,渋谷区,宇田川町１番１２－２１０６号パークコート渋谷ザタワー,,13,113,1500042,,,2024-01-04,清算の結了等,,,2020-03-03,1,,,,,オブリー,0
1244,4011105007999,登記記録の閉鎖等,0,2024-01-09,2023-12-27,ＮＰＯ法人遺言普及協議会,,その他の設立登記法人,東京都,千代田区,四番町４番地８野村ビル４階Ｒ＆Ｃ内,,13,101,1020081,,,2023-12-27,清算の結了等,,,2017-09-11,1,,,,,ユイゴンフキュウキョウギカイ,0
1248,4011302003025,登記記録の閉鎖等,0,2024-01-09,2023-12-21,有限会社クレア・インターナショナル,,有限会社,東京都,杉並区,本天沼２丁目３８番５号,,13,115,1670031,,,2023-12-21,清算の結了等,,,2015-10-05,1,,,,,,0
1268,4020001142091,登記記録の閉鎖等,0,2024-01-09,2023-12-26,キングウィン株式会社,,株式会社,神奈川県,横浜市西区,北幸２丁目１０番２８号むつみビル３Ｆ,,14,103,2200004,,,2023-12-26,清算の結了等,,,2021-07-06,1,,,,,キングウィン,0
1290,4040001064747,登記記録の閉鎖等,0,2024-01-09,2023-12-20,株式会社幸智,,株式会社,千葉県,船橋市,行田３丁目１番４棟２０１号,,12,204,2730044,,,2023-12-20,清算の結了等,,,2015-10-05,1,,,,,サチ,0
1296,4040002019568,登記記録の閉鎖等,0,2024-01-09,2023-12-20,有限会社Ｋ・Ｔアート,,有限会社,千葉県,習志野市,秋津１丁目２番２－１０１号,,12,216,2750025,,,2023-12-20,清算の結了等,,,2015-10-05,1,,,,,ケーティーアート,0
1298,4040002068664,登記記録の閉鎖等,0,2024-01-09,2023-12-20,ニッカ商事有限会社,,有限会社,千葉県,袖ケ浦市,蔵波５番地,,12,229,2990243,,,2023-12-20,清算の結了等,,,2015-10-05,1,,,,,,0
1311,4080003002172,登記記録の閉鎖等,0,2024-01-09,2024-01-04,合同会社ネクストファーム,,合同会社,静岡県,焼津市,下江留９９５番地,,22,212,4210218,,,2024-01-04,合併による解散等,8080001015890,令和６年１月１日静岡県焼津市相川１２４１番地の１株式会社ザ・ネクストワン（8080001015890）に合併し解散,2018-10-03,1,,,,,ネクストファーム,0
1404,4090001005093,登記記録の閉鎖等,0,2024-01-09,2024-01-05,株式会社山建建設管理,,株式会社,山梨県,南アルプス市,下高砂１２９番地,,19,208,4000202,,,2024-01-05,登記官による閉鎖,,,2015-10-05,1,,,,,,0
1406,4090001008781,登記記録の閉鎖等,0,2024-01-09,2024-01-05,クリーンイノベーション株式会社,,株式会社,山梨県,大月市,大月町真木３５９６番地１,,19,206,4010016,,,2024-01-05,登記官による閉鎖,,,2015-10-05,1,,,,,,0
1407,4090001010944,登記記録の閉鎖等,0,2024-01-09,2024-01-05,エル・ジュピター株式会社,,株式会社,山梨県,富士吉田市,上暮地４丁目９番５号,,19,202,4030001,,,2024-01-05,登記官による閉鎖,,,2015-10-05,1,,,,,,0
1409,4090002000234,登記記録の閉鎖等,0,2024-01-09,2024-01-05,有限会社飯室工務店,,有限会社,山梨県,甲府市,国母７丁目１０番１１号,,19,201,4000043,,,2024-01-05,登記官による閉鎖,,,2015-10-05,1,,,,,,0
1410,4090002005563,登記記録の閉鎖等,0,2024-01-09,2024-01-05,有限会社登商事,,有限会社,山梨県,甲府市,国玉町７０４番地の５,,19,201,4000815,,,2024-01-05,登記官による閉鎖,,,2015-10-05,1,,,,,,0
1411,4090002013616,登記記録の閉鎖等,0,2024-01-09,2024-01-05,有限会社小林地被,,有限会社,山梨県,韮崎市,旭町上條北割２８３番地３,,19,207,4070044,,,2024-01-05,登記官による閉鎖,,,2015-10-05,1,,,,,,0
1412,4090002014639,登記記録の閉鎖等,0,2024-01-09,2024-01-05,有限会社コーケンリゾート,,有限会社,山梨県,北杜市,小淵沢町１０１４９番地１１,,19,209,4080044,,,2024-01-05,登記官による閉鎖,,,2015-10-05,1,,,,,,0
1413,4090005000165,登記記録の閉鎖等,0,2024-01-09,2024-01-05,社団法人山梨母をたたえる会,,その他の設立登記法人,山梨県,甲府市,美咲１丁目４番１２号,,19,201,4000007,,,2024-01-05,登記官による閉鎖,,,2015-10-05,1,,,,,,0
1420,4120001076750,登記記録の閉鎖等,0,2024-01-09,2023-12-26,開発測量株式会社,,株式会社,大阪府,大阪市中央区,淡路町２丁目１番１０－１１０４号,,27,128,5410047,,,2023-12-26,清算の結了等,,,2023-12-07,1,,,,,カイハツソクリョウ,0
1446,4122002014838,登記記録の閉鎖等,0,2024-01-09,2024-01-04,松村電気有限会社,,有限会社,大阪府,大阪市東住吉区,桑津４丁目９番８号,,27,121,5460041,,,2024-01-04,清算の結了等,,,2015-10-05,1,,,,,マツムラデンキ,0
1473,4180003014612,登記記録の閉鎖等,0,2024-01-09,2023-12-22,合同会社ＯＮＥ,,合同会社,愛知県,名古屋市天白区,原１丁目８１１番地,,23,116,4680015,,,2023-12-22,清算の結了等,,,2015-10-05,1,,,,,ワン,0
1493,4250002006520,登記記録の閉鎖等,0,2024-01-09,2024-01-04,有限会社浜坂薬局,,有限会社,山口県,宇部市,大字西岐波１２３４番地の４,,35,202,7550151,,,2024-01-04,清算の結了等,,,2015-10-05,1,,,,,ハマサカヤッキョク,0
1507,4300001006375,登記記録の閉鎖等,0,2024-01-09,2023-12-28,株式会社リビングモア佐賀,,株式会社,福岡県,小郡市,三沢７１８番地１,,40,216,8380106,,,2023-12-28,清算の結了等,,,2015-10-05,1,,,,,リビングモアサガ,0
1519,4370001039798,登記記録の閉鎖等,0,2024-01-09,2024-01-04,株式会社Ｆｉｖｅ　Ｖｉｒｔｕｅｓ,,株式会社,宮城県,刈田郡蔵王町,遠刈田温泉字遠刈田北山３７番地８６,,04,301,9890916,,,2024-01-04,清算の結了等,,,2016-06-14,1,,,,,,0
1521,4380002030895,登記記録の閉鎖等,0,2024-01-09,2023-12-28,会津電設運送有限会社,,有限会社,福島県,大沼郡会津美里町,永井野字下川原３１６番地,,07,447,9696251,,,2023-12-28,清算の結了等,,,2015-10-05,1,,,,,アイヅデンセツウンソウ,0
1523,4400001016249,登記記録の閉鎖等,0,2024-01-09,2023-12-27,株式会社ＮＥＸＴ　Ｇｒｏｕｐ,,株式会社,岩手県,盛岡市,三ツ割字鉢ノ皮４５番地２５,,03,201,0200011,,,2023-12-27,清算の結了等,,,2023-05-12,1,,,,,ネクストグループ,0
1527,4400002001274,登記記録の閉鎖等,0,2024-01-09,2023-12-28,有限会社コメ・マルシェたかはし,,有限会社,岩手県,盛岡市,高松４丁目１番３８号,,03,201,0200114,,,2023-12-28,清算の結了等,,,2015-10-05,1,,,,,コメマルシェタカハシ,0
1531,4430001025528,登記記録の閉鎖等,0,2024-01-09,2023-12-27,北匠エンジニアリング株式会社,,株式会社,北海道,札幌市中央区,南五条東１丁目５番地１,,01,101,0600055,,,2023-12-27,清算の結了等,,,2015-10-05,1,,,,,ホクショーエンジニアリング,0
1535,4460001003217,登記記録の閉鎖等,0,2024-01-09,2024-01-04,株式会社寺島薬局,,株式会社,北海道,川上郡標茶町,字熊牛原野十六線西３番地,,01,664,0883145,,,2024-01-04,清算の結了等,,,2022-09-09,1,,,,,テラシマヤッキョク,0
1537,4480001001202,登記記録の閉鎖等,0,2024-01-09,2024-01-09,杉本善株式会社,,株式会社,徳島県,徳島市,佐古八番町５番４号,,36,201,7700028,,,2024-01-09,登記官による閉鎖,,,2015-10-05,1,,,,,,0
1538,4480001001508,登記記録の閉鎖等,0,2024-01-09,2024-01-09,株式会社徳島乳販,,株式会社,徳島県,徳島市,佐古二番町４番９号,,36,201,7700022,,,2024-01-09,登記官による閉鎖,,,2015-10-05,1,,,,,,0
1540,4480001005896,登記記録の閉鎖等,0,2024-01-09,2024-01-09,株式会社ダブルアンドケー,,株式会社,徳島県,鳴門市,鳴門町三ツ石字芙蓉山下１６１番地,,36,202,7720052,,,2024-01-09,登記官による閉鎖,,,2015-10-05,1,,,,,,0
1543,4480001008478,登記記録の閉鎖等,0,2024-01-09,2024-01-09,株式会社シニア・ライフサポート,,株式会社,徳島県,徳島市,川内町榎瀬８２４番地の１,,36,201,7710144,,,2024-01-09,登記官による閉鎖,,,2015-10-05,1,,,,,,0
1545,4480002003998,登記記録の閉鎖等,0,2024-01-09,2024-01-09,有限会社ぼうしや料理店,,有限会社,徳島県,徳島市,佐古五番町１番１５号,,36,201,7700025,,,2024-01-09,登記官による閉鎖,,,2015-10-05,1,,,,,,0
1546,4480002004039,登記記録の閉鎖等,0,2024-01-09,2024-01-09,有限会社速水木材店,,有限会社,徳島県,徳島市,雑賀町西開９３番地１,,36,201,7708021,,,2024-01-09,登記官による閉鎖,,,2015-10-05,1,,,,,,0
1547,4480002004468,登記記録の閉鎖等,0,2024-01-09,2024-01-09,有限会社松浦産業,,有限会社,徳島県,徳島市,八万町上福万９番２０号,,36,201,7708073,,,2024-01-09,登記官による閉鎖,,,2015-10-05,1,,,,,,0
1548,4480002009302,登記記録の閉鎖等,0,2024-01-09,2024-01-09,有限会社野村農機商会,,有限会社,徳島県,吉野川市,山川町湯立１４６番地の３,,36,205,7793404,,,2024-01-09,登記官による閉鎖,,,2015-10-05,1,,,,,,0
1549,4480002009566,登記記録の閉鎖等,0,2024-01-09,2024-01-09,有限会社高橋桐材店,,有限会社,徳島県,阿波市,吉野町柿原字ノタ原１１７番地の１,,36,206,7711401,,,2024-01-09,登記官による閉鎖,,,2015-10-05,1,,,,,,0
1550,4480002011588,登記記録の閉鎖等,0,2024-01-09,2024-01-09,有限会社樽十,00006011,有限会社,徳島県,板野郡松茂町,笹木野字八北開拓１８９番地７,,36,401,7710219,,,2024-01-09,登記官による閉鎖,,,2015-10-05,1,,,,,,0
1551,4480002013378,登記記録の閉鎖等,0,2024-01-09,2024-01-09,有限会社豊浜興業,,有限会社,徳島県,阿南市,領家町天神原４５４番地１,,36,204,7740011,,,2024-01-09,登記官による閉鎖,,,2015-10-05,1,,,,,,0
1553,4480005002691,登記記録の閉鎖等,0,2024-01-09,2024-01-09,特定非営利活動法人未来,,その他の設立登記法人,徳島県,名西郡石井町,高原字中島２３７番地９,,36,341,7793208,,,2024-01-09,登記官による閉鎖,,,2015-10-05,1,,,,,,0
1560,5010001191080,登記記録の閉鎖等,0,2024-01-09,2023-12-25,株式会社双造舎,,株式会社,東京都,千代田区,内神田３丁目２１－３佐々ビル２Ｆ,,13,101,1010047,,,2023-12-25,清算の結了等,,,2018-04-12,1,,,,,,0
1584,5010405019241,登記記録の閉鎖等,0,2024-01-09,2023-12-25,ジャパンインフラホールディングス１２号一般社団法人,,その他の設立登記法人,東京都,港区,元赤坂１丁目１番７号,,13,103,1070051,,,2023-12-25,清算の結了等,,,2020-11-06,1,,,,,ジャパンインフラホールディングスジュウニゴウ,0
1587,5010501039713,登記記録の閉鎖等,0,2024-01-09,2023-12-26,株式会社田鎮Ａ,,株式会社,東京都,台東区,根岸５丁目１８番１３号,,13,106,1100003,,,2023-12-26,清算の結了等,,,2016-06-23,1,,,,,タシンエイ,0
1591,5010601018393,登記記録の閉鎖等,0,2024-01-09,2023-12-28,株式会社三豊不動産,,株式会社,東京都,江東区,東砂７丁目１７番２２号,,13,108,1360074,,,2023-12-28,清算の結了等,,,2015-10-05,1,,,,,サンポウフドウサン,0
1598,5010801001868,登記記録の閉鎖等,0,2024-01-09,2023-12-26,株式会社エルプス,,株式会社,神奈川県,川崎市川崎区,日ノ出２丁目１２番９号,,14,131,2100824,,,2023-12-26,清算の結了等,,,2015-10-05,1,,,,,エルプス,0
1634,5011105002529,登記記録の閉鎖等,0,2024-01-09,2024-01-04,特定非営利活動法人イムクルス,,その他の設立登記法人,東京都,新宿区,河田町８番１号,,13,104,1620054,,,2024-01-04,清算の結了等,,,2015-10-05,1,,,,,イムクルス,0
1657,5020002050879,登記記録の閉鎖等,0,2024-01-09,2023-12-26,有限会社ブラン,,有限会社,神奈川県,横浜市港北区,高田西５丁目４２番７号,,14,109,2230066,,,2023-12-26,清算の結了等,,,2015-10-05,1,,,,,ブラン,0
1667,5021002023271,登記記録の閉鎖等,0,2024-01-09,2023-12-28,有限会社パーパス相模代行社,,有限会社,神奈川県,相模原市中央区,淵野辺４丁目３２番８号,,14,152,2520206,,,2023-12-28,清算の結了等,,,2015-10-05,1,,,,,パーパスサガミダイコウシャ,0
1679,5040001038774,登記記録の閉鎖等,0,2024-01-09,2023-12-20,株式会社プロバンス,,株式会社,千葉県,松戸市,松飛台４０４番地１,,12,207,2702214,,,2023-12-20,清算の結了等,,,2015-10-05,1,,,,,プロバンス,0
1687,5040005000994,登記記録の閉鎖等,0,2024-01-09,2023-12-21,医療法人社団赤尾クリニック,,その他の設立登記法人,千葉県,千葉市美浜区,真砂３丁目１番７号,,12,106,2610011,,,2023-12-21,清算の結了等,,,2015-10-05,1,,,,,アカオクリニック,0
1698,5070002014739,登記記録の閉鎖等,0,2024-01-09,2023-12-27,北関東板金工業有限会社,,有限会社,群馬県,安中市,原市１３１２番地２,,10,211,3790133,,,2023-12-27,清算の結了等,,,2015-10-05,1,,,,,キタカントウバンキンコウギョウ,0
1701,5080002013715,登記記録の閉鎖等,0,2024-01-09,2024-01-04,有限会社曽根モータース,,有限会社,静岡県,島田市,祇園町８９１１番地の２,00067542,22,209,4270058,,,2024-01-04,清算の結了等,,,2015-10-05,1,,,,,ソネモータース,0
1806,5090002009539,登記記録の閉鎖等,0,2024-01-09,2024-01-05,吉田精工有限会社,00068901,有限会社,山梨県,大月市,大月町真木３２４６番地,,19,206,4010016,,,2024-01-05,登記官による閉鎖,,,2015-10-05,1,,,,,,0
1807,5090005000528,登記記録の閉鎖等,0,2024-01-09,2024-01-05,山梨県ガラスサッシ商工協同組合,,その他の設立登記法人,山梨県,甲府市,徳行１丁目９番３４号,,19,201,4000047,,,2024-01-05,登記官による閉鎖,,,2015-10-05,1,,,,,,0
1808,5090005002747,登記記録の閉鎖等,0,2024-01-09,2024-01-05,税理士法人ふじはら,,その他の設立登記法人,山梨県,甲府市,川田町アリア２０３,,19,201,4000811,,,2024-01-05,登記官による閉鎖,,,2015-10-05,1,,,,,,0
1809,5090005006070,登記記録の閉鎖等,0,2024-01-09,2024-01-05,念場原開拓農業協同組合,,その他の設立登記法人,山梨県,北杜市,高根町清里３５４５番地,,19,209,4070301,,,2024-01-05,登記官による閉鎖,,,2015-10-05,1,,,,,,0
1810,5090005007044,登記記録の閉鎖等,0,2024-01-09,2024-01-05,東光開拓農業協同組合,,その他の設立登記法人,山梨県,北杜市,明野町浅尾５２５９番地,,19,209,4080201,,,2024-01-05,登記官による閉鎖,,,2017-02-01,1,,,,,,0
1815,5120001106168,登記記録の閉鎖等,0,2024-01-09,2024-01-04,株式会社フーマワタナベ,,株式会社,愛知県,名古屋市中川区,露橋２丁目１２番２６号,,23,110,4540022,,,2024-01-04,合併による解散等,8180001021359,令和６年１月１日名古屋市中川区露橋二丁目１２番２６号ワタナベフーマック株式会社（8180001021359）に合併し解散,2015-10-05,1,,,,,フーマワタナベ,0
1817,5120001135803,登記記録の閉鎖等,0,2024-01-09,2023-12-25,株式会社ＩＴエステート,,株式会社,大阪府,大阪市淀川区,新高３丁目８番７号,,27,123,5320033,,,2023-12-25,合併による解散等,6120001136172,令和５年１２月２５日大阪市淀川区三国本町三丁目２８番８号株式会社ケーティアイエステート（6120001136172）に合併し解散,2015-10-05,1,,,,,アイティーエステート,0
1818,5120001167920,登記記録の閉鎖等,0,2024-01-09,2023-12-25,株式会社セフコ,,株式会社,大阪府,寝屋川市,昭栄町１２番１０号１０２,,27,215,5720834,,,2023-12-25,清算の結了等,,,2015-10-05,1,,,,,セフコ,0
1838,5122001021198,登記記録の閉鎖等,0,2024-01-09,2024-01-04,株式会社藤江ガス水道設備,,株式会社,大阪府,柏原市,大県３丁目２番３５号,,27,221,5820018,,,2024-01-04,清算の結了等,,,2015-10-05,1,,,,,フジエガススイドウセツビ,0
1840,5122002010159,登記記録の閉鎖等,0,2024-01-09,2024-01-04,有限会社グリーン・ヒル商会,,有限会社,大阪府,東大阪市,楠根１丁目６番３２号,,27,227,5770006,,,2024-01-04,清算の結了等,,,2015-10-05,1,,,,,グリーンヒルショウカイ,0
1873,5180301028718,登記記録の閉鎖等,0,2024-01-09,2023-12-26,クラウドナイン株式会社,,株式会社,愛知県,刈谷市,小垣江町本郷下４３番地１８,,23,210,4480813,,,2023-12-26,清算の結了等,,,2016-01-04,1,,,,,クラウドナイン,0
1874,5190001024041,登記記録の閉鎖等,0,2024-01-09,2023-12-27,株式会社セントラルアシスト,,株式会社,三重県,四日市市,西富田町１８１番地６,,24,202,5108024,,,2023-12-27,清算の結了等,,,2016-10-11,1,,,,,セントラルアシスト,0
1876,5190003002557,登記記録の閉鎖等,0,2024-01-09,2023-12-27,カルチョオットジャポネーゼ合同会社,,合同会社,三重県,四日市市,大字六呂見１０４９番地１,,24,202,5100881,,,2023-12-27,清算の結了等,,,2016-08-05,1,,,,,カルチョオットジャポネーゼ,0
1887,5230003002049,登記記録の閉鎖等,0,2024-01-09,2024-01-04,合同会社土谷,,合同会社,富山県,富山市,水橋辻ヶ堂６１０－８,,16,201,9393515,,,2024-01-04,清算の結了等,,,2023-07-06,1,,,,,ツチタニ,0
1899,5280002010725,登記記録の閉鎖等,0,2024-01-09,2024-01-04,有限会社ソウテック,,有限会社,島根県,益田市,横田町２０３８番地,,32,204,6995132,,,2024-01-04,清算の結了等,,,2015-10-05,1,,,,,ソウテック,0
1908,5330003002451,登記記録の閉鎖等,0,2024-01-09,2023-12-26,合資会社森本商店,,合資会社,熊本県,玉名市,立願寺５６６番地,,43,206,8650061,,,2023-12-26,清算の結了等,,,2015-10-05,1,,,,,モリモトショウテン,0
1911,5340002027093,登記記録の閉鎖等,0,2024-01-09,2024-01-05,有限会社川野食品,,有限会社,鹿児島県,肝属郡錦江町,馬場１１２２番地１８,,46,490,8932303,,,2024-01-05,清算の結了等,,,2015-10-05,1,,,,,カワノショクヒン,0
1935,5390001004254,登記記録の閉鎖等,0,2024-01-09,2024-01-04,日産マイカーランド株式会社,,株式会社,山形県,山形市,南一番町９番１０号,,06,201,9902441,,,2024-01-04,合併による解散等,5390001002076,令和６年１月１日山形市南一番町９番１０号山形日産自動車株式会社（5390001002076）に合併し解散,2015-10-05,1,,,,,ニッサンマイカーランド,0
1942,5430002063732,登記記録の閉鎖等,0,2024-01-09,2023-12-25,有限会社ＺＡＸ,,有限会社,北海道,伊達市,舟岡町３６７番地２０,,01,233,0520014,,,2023-12-25,清算の結了等,,,2015-10-05,1,,,,,ザックス,0
1951,5480001007751,登記記録の閉鎖等,0,2024-01-09,2024-01-09,株式会社フレックスサンコー,,株式会社,徳島県,美馬市,脇町字東俣名１９４２番地１,,36,207,7793745,,,2024-01-09,登記官による閉鎖,,,2015-10-05,1,,,,,,0
1952,5480002003411,登記記録の閉鎖等,0,2024-01-09,2024-01-09,有限会社トミヤクリーニング,,有限会社,徳島県,徳島市,秋田町５丁目７２番地,,36,201,7700934,,,2024-01-09,登記官による閉鎖,,,2015-10-05,1,,,,,,0
1953,5480002005011,登記記録の閉鎖等,0,2024-01-09,2024-01-09,有限会社もち兵衛,,有限会社,徳島県,徳島市,明神町１丁目２８番地,,36,201,7700938,,,2024-01-09,登記官による閉鎖,,,2015-10-05,1,,,,,,0
1954,5480002005374,登記記録の閉鎖等,0,2024-01-09,2024-01-09,有限会社ヴェリースタジオ,,有限会社,徳島県,徳島市,佐古三番町１６番５号,,36,201,7700023,,,2024-01-09,登記官による閉鎖,,,2015-10-05,1,,,,,,0
1955,5480002007908,登記記録の閉鎖等,0,2024-01-09,2024-01-09,有限会社タケダ建設工業,,有限会社,徳島県,勝浦郡勝浦町,大字三渓字上川原５０番地の１,,36,301,7714300,,,2024-01-09,登記官による閉鎖,,,2015-10-05,1,,,,,,0
1956,5480002009053,登記記録の閉鎖等,0,2024-01-09,2024-01-09,有限会社加藤工務店,,有限会社,徳島県,吉野川市,山川町前川１４２番地,,36,205,7793403,,,2024-01-09,登記官による閉鎖,,,2015-10-05,1,,,,,,0
1957,5480002009912,登記記録の閉鎖等,0,2024-01-09,2024-01-09,有限会社坂本商店,,有限会社,徳島県,阿波市,市場町八幡字町屋敷４１番地,,36,206,7711625,,,2024-01-09,登記官による閉鎖,,,2015-10-05,1,,,,,,0
1958,5480002012998,登記記録の閉鎖等,0,2024-01-09,2024-01-04,有限会社コノブ,,有限会社,徳島県,那賀郡那賀町,中山字小延３番地３,,36,368,7715204,,,2024-01-04,清算の結了等,,,2015-10-05,1,,,,,コノブ,0
1959,5480005000372,登記記録の閉鎖等,0,2024-01-09,2024-01-09,学校法人花星学園,,その他の設立登記法人,徳島県,徳島市,丈六町溝筋６番地１,,36,201,7714261,,,2024-01-09,登記官による閉鎖,,,2015-10-05,1,,,,,ハナボシガクエン,0
1960,5480005000827,登記記録の閉鎖等,0,2024-01-09,2024-01-09,徳島県生鏡協同組合,,その他の設立登記法人,徳島県,徳島市,末広３丁目５番４６号,,36,201,7700866,,,2024-01-09,登記官による閉鎖,,,2015-10-05,1,,,,,,0
1961,5480005000843,登記記録の閉鎖等,0,2024-01-09,2024-01-09,徳島県歯科技工所協同組合,,その他の設立登記法人,徳島県,徳島市,南昭和町７丁目８０番地の１０,,36,201,7700944,,,2024-01-09,登記官による閉鎖,,,2015-10-05,1,,,,,,0
1962,5480005004167,登記記録の閉鎖等,0,2024-01-09,2024-01-09,十二社骨材協同組合,,その他の設立登記法人,徳島県,阿南市,中大野町北傍示３６１番地の１,,36,204,7740048,,,2024-01-09,登記官による閉鎖,,,2015-10-05,1,,,,,,0
1970,6010001210517,登記記録の閉鎖等,0,2024-01-09,2023-12-25,ＮＧＡ　Ｉｎｔｅｒｎａｔｉｏｎａｌ株式会社,,株式会社,東京都,港区,赤坂４丁目７番６号,,13,103,1070052,,,2023-12-25,清算の結了等,,,2020-06-29,1,,,,,エヌジーエーインターナショナル,0
1979,6010005019590,登記記録の閉鎖等,0,2024-01-09,2023-12-28,一般社団法人ＣＳターゲット,,その他の設立登記法人,東京都,千代田区,内幸町１丁目３番３号内幸町ダイビル,,13,101,1000011,,,2023-12-28,清算の結了等,,,2015-10-05,1,,,,,シーエスターゲット,0
1982,6010401078769,登記記録の閉鎖等,0,2024-01-09,2024-01-04,株式会社ＧＹＡＯ,,株式会社,東京都,千代田区,紀尾井町１番３号,,13,101,1020094,,,2024-01-04,合併による解散等,4010401039979,令和６年１月１日東京都千代田区紀尾井町１番３号ＬＩＮＥヤフー株式会社（4010401039979）に合併し解散,2015-10-05,1,,,,,ギャオ,0
1996,6010502007734,登記記録の閉鎖等,0,2024-01-09,2023-12-28,有限会社東松鍍金工場,,有限会社,東京都,台東区,東上野１丁目４番３号,,13,106,1100015,,,2023-12-28,清算の結了等,,,2015-10-05,1,,,,,トウマツメッキコウジョウ,0
1997,6010503003550,登記記録の閉鎖等,0,2024-01-09,2023-12-26,雷門メディカルサービス合同会社,,合同会社,東京都,台東区,雷門２丁目１１番８号冨山ビル１,,13,106,1110034,,,2023-12-26,清算の結了等,,,2015-10-05,1,,,,,,0
2003,6010802005999,登記記録の閉鎖等,0,2024-01-09,2023-12-27,有限会社坂俊組,,有限会社,東京都,大田区,千鳥２丁目３９番２２号,,13,111,1460083,,,2023-12-27,清算の結了等,,,2015-10-05,1,,,,,サカトシグミ,0
2008,6011001060159,登記記録の閉鎖等,0,2024-01-09,2023-12-11,トップグレード株式会社,,株式会社,東京都,渋谷区,代々木４丁目２番６号,,13,113,1510053,,,2023-12-11,清算の結了等,,,2015-10-05,1,,,,,トップグレード,0
2017,6011003015160,登記記録の閉鎖等,0,2024-01-09,2023-12-27,新農業支援協会合同会社,,合同会社,東京都,渋谷区,渋谷２丁目２４－１２渋谷スクランブルスクエア３９Ｆ,,13,113,1500002,,,2023-12-27,清算の結了等,,,2022-08-10,1,,,,,シンノウギョウシエンキョウカイ,0
2025,6011101103692,登記記録の閉鎖等,0,2024-01-09,2023-12-28,プレザントヒル株式会社,,株式会社,東京都,新宿区,西新宿３丁目３番１３号西新宿水間ビル６階,,13,104,1600023,,,2023-12-28,清算の結了等,,,2023-07-21,1,,,,,プレザントヒル,0
2031,6011501028143,登記記録の閉鎖等,0,2024-01-09,2023-12-21,ＨＡＭＡ開発株式会社,,株式会社,東京都,北区,赤羽２丁目６９番４号ヴェルメゾン赤羽９０３,,13,117,1150045,,,2023-12-21,清算の結了等,,,2022-06-14,1,,,,,ハマカイハツ,0
2034,6011601022640,登記記録の閉鎖等,0,2024-01-09,2023-12-26,株式会社テイクオフ,,株式会社,神奈川県,横浜市泉区,岡津町２３５３,,14,116,2450003,,,2023-12-26,清算の結了等,,,2018-06-20,1,,,,,テイクオフ,0
2040,6020001019412,登記記録の閉鎖等,0,2024-01-09,2023-12-27,株式会社有田商店,,株式会社,神奈川県,横浜市港北区,富士塚２丁目２６番１２号,00026170,14,109,2220012,,,2023-12-27,清算の結了等,,,2015-10-05,1,,,,,アリタショウテン,0
2043,6020001112654,登記記録の閉鎖等,0,2024-01-09,2023-12-27,株式会社マルユウ山本,,株式会社,神奈川県,横浜市港南区,港南台７丁目３３番２号,,14,111,2340054,,,2023-12-27,清算の結了等,,,2015-10-05,1,,,,,マルユウヤマモト,0
2044,6020001147725,登記記録の閉鎖等,0,2024-01-09,2023-12-27,株式会社モルゲングリーン,,株式会社,神奈川県,川崎市宮前区,潮見台８番１０－９１３号,,14,136,2160013,,,2023-12-27,清算の結了等,,,2022-08-18,1,,,,,モルゲングリーン,0
2078,6080001008483,登記記録の閉鎖等,0,2024-01-09,2023-12-28,静清高圧ガス株式会社,00067268,株式会社,静岡県,静岡市清水区,長崎９６５番地の２,,22,103,4240065,,,2023-12-28,清算の結了等,,,2015-10-05,1,,,,,セイシンコウアツガス,0
2170,6090001010686,登記記録の閉鎖等,0,2024-01-09,2024-01-05,株式会社名古屋万友倶楽部,,株式会社,山梨県,南都留郡山中湖村,山中１４１７番地の１,,19,425,4010501,,,2024-01-05,登記官による閉鎖,,,2015-10-05,1,,,,,,0
2171,6090001011593,登記記録の閉鎖等,0,2024-01-09,2024-01-05,ケイツー・テクノロジー株式会社,,株式会社,山梨県,北杜市,長坂町小荒間８５６番地１１,,19,209,4080031,,,2024-01-05,登記官による閉鎖,,,2015-10-05,1,,,,,,0
2172,6090002006469,登記記録の閉鎖等,0,2024-01-09,2024-01-05,有限会社ゼンラド,,有限会社,山梨県,甲斐市,篠原７８７番地１,,19,210,4000115,,,2024-01-05,登記官による閉鎖,,,2015-10-05,1,,,,,,0
2173,6090002007211,登記記録の閉鎖等,0,2024-01-09,2024-01-05,有限会社金丸商店,,有限会社,山梨県,南アルプス市,上今諏訪４４３番地の内１,,19,208,4000211,,,2024-01-05,登記官による閉鎖,,,2015-10-05,1,,,,,,0
2174,6090002010347,登記記録の閉鎖等,0,2024-01-09,2024-01-05,有限会社築庭一島園,,有限会社,山梨県,都留市,小形山５８３番地,,19,204,4020006,,,2024-01-05,登記官による閉鎖,,,2015-10-05,1,,,,,,0
2175,6090002010883,登記記録の閉鎖等,0,2024-01-09,2024-01-05,有限会社フォトランド,,有限会社,山梨県,山梨市,上之割３１４番地の７,,19,205,4050004,,,2024-01-05,登記官による閉鎖,,,2015-10-05,1,,,,,,0
2176,6090002012541,登記記録の閉鎖等,0,2024-01-09,2024-01-05,有限会社ブランジュリーケイ,,有限会社,山梨県,南都留郡山中湖村,山中３５４番地１,,19,425,4010501,,,2024-01-05,登記官による閉鎖,,,2015-10-05,1,,,,,,0
2177,6090005000188,登記記録の閉鎖等,0,2024-01-09,2024-01-05,社団法人山梨県４エッチ協会,,その他の設立登記法人,山梨県,甲府市,増坪町７１０－３,,19,201,4000832,,,2024-01-05,登記官による閉鎖,,,2015-10-05,1,,,,,,0
2178,6090005001640,登記記録の閉鎖等,0,2024-01-09,2024-01-05,財団法人茂義福祉会,,その他の設立登記法人,山梨県,甲府市,川田町３８９番地,,19,201,4000811,,,2024-01-05,登記官による閉鎖,,,2015-10-05,1,,,,,,0
2179,6090005004511,登記記録の閉鎖等,0,2024-01-09,2024-01-05,医療法人社団みらい会,,その他の設立登記法人,山梨県,富士吉田市,上吉田４３５１番地ヴィーナスハイツ１０２号,,19,202,4030005,,,2024-01-05,登記官による閉鎖,,,2015-10-05,1,,,,,,0
2184,6110001032711,登記記録の閉鎖等,0,2024-01-09,2024-01-04,株式会社ＷＩＮＧＬＥ,,株式会社,新潟県,新潟市中央区,姥ケ山１丁目６番２８号,,15,103,9500923,,,2024-01-04,合併による解散等,1110001000788,令和６年１月１日新潟市中央区姥ケ山一丁目６番２８号株式会社エフワーク（1110001000788）に合併し解散,2017-09-20,1,,,,,ウィングル,0
2198,6120003016034,登記記録の閉鎖等,0,2024-01-09,2024-01-04,合同会社亀岡エナジー,,合同会社,岡山県,岡山市南区,福富東２丁目２０番６号,,33,104,7028033,,,2024-01-04,合併による解散等,8260001019262,令和６年１月１日岡山県新見市高尾３６２番地の１山佐産業株式会社（8260001019262）に合併し解散,2019-07-29,1,,,,,カメオカエナジー,0
2201,6120005020406,登記記録の閉鎖等,0,2024-01-09,2024-01-05,ＮＰＯ法人日本朝フラ体操協会,,その他の設立登記法人,大阪府,大阪市此花区,西九条３丁目１２番１２号恵ビル３０１,,27,104,5540012,,,2024-01-05,清算の結了等,,,2018-08-24,1,,,,,ニホンアサフラタイソウキョウカイ,0
2222,6140005005099,登記記録の閉鎖等,0,2024-01-09,2023-12-27,特定非営利活動法人もみの木,,その他の設立登記法人,兵庫県,神戸市北区,鹿の子台北町１丁目２０番７号,,28,109,6511513,,,2023-12-27,清算の結了等,,,2015-10-05,1,,,,,モミノキ,0
2242,6180002090644,登記記録の閉鎖等,0,2024-01-09,2023-12-27,有限会社日進毛織工場,,有限会社,愛知県,愛西市,早尾町村北８番地の１,,23,232,4960931,,,2023-12-27,清算の結了等,,,2015-10-05,1,,,,,ニッシンケオリコウジョウ,0
2243,6180005019013,登記記録の閉鎖等,0,2024-01-09,2024-01-04,一般社団法人日本オンラインサロン講師育成機構,,その他の設立登記法人,愛知県,名古屋市中区,錦３丁目６番８号ＧＩ３６８ビル４階,,23,106,4600003,,,2024-01-04,清算の結了等,,,2020-11-06,1,,,,,ニホンオンラインサロンコウシイクセイキコウ,0
2250,6210001001838,登記記録の閉鎖等,0,2024-01-09,2023-12-28,株式会社染の高島,,株式会社,福井県,福井市,大手２丁目１２番２４号,,18,201,9100005,,,2023-12-28,清算の結了等,,,2015-10-05,1,,,,,ソメノタカシマ,0
2260,6250001003475,登記記録の閉鎖等,0,2024-01-09,2023-12-28,宇部鉄工株式会社,,株式会社,山口県,宇部市,常藤町２番２１号,,35,202,7550021,,,2023-12-28,清算の結了等,,,2015-10-05,1,,,,,ウベテッコウ,0
2265,6260002032019,登記記録の閉鎖等,0,2024-01-09,2024-01-05,有限会社武用商店,,有限会社,岡山県,備前市,香登本５２６番地の２,,33,211,7050012,,,2024-01-05,清算の結了等,,,2015-10-05,1,,,,,ブヨウショウテン,0
2280,6340002017218,登記記録の閉鎖等,0,2024-01-09,2024-01-04,若宮工業有限会社,,有限会社,鹿児島県,薩摩川内市,五代町２６５７番地２,,46,215,8950066,,,2024-01-04,清算の結了等,,,2015-10-05,1,,,,,ワカミヤコウギョウ,0
2289,6360002012893,登記記録の閉鎖等,0,2024-01-09,2023-12-28,有限会社アルファー沖縄,,有限会社,沖縄県,沖縄市,松本５丁目１番１２号,,47,211,9042151,,,2023-12-28,清算の結了等,,,2015-10-05,1,,,,,アルファーオキナワ,0
2303,6390001002546,登記記録の閉鎖等,0,2024-01-09,2024-01-05,株式会社リナワールド,,株式会社,山形県,山形市,鉄砲町２丁目１３番１８号,,06,201,9902492,,,2024-01-05,合併による解散等,2390001002260,令和６年１月１日山形市鉄砲町二丁目１３番１８号株式会社ヤマコー（2390001002260）に合併し解散,2015-10-05,1,,,,,リナワールド,0
2315,6480001005713,登記記録の閉鎖等,0,2024-01-09,2024-01-09,神例クラフト株式会社,,株式会社,徳島県,鳴門市,瀬戸町北泊字北泊２５番地,,36,202,7710364,,,2024-01-09,登記官による閉鎖,,,2015-10-05,1,,,,,,0
2316,6480002000630,登記記録の閉鎖等,0,2024-01-09,2024-01-09,有限会社エムエスケイ,,有限会社,徳島県,徳島市,丈六町丈領１６８番地の９,,36,201,7714263,,,2024-01-09,登記官による閉鎖,,,2015-10-05,1,,,,,,0
2317,6480002005539,登記記録の閉鎖等,0,2024-01-09,2024-01-09,有限会社レガートコーポレーション,,有限会社,徳島県,徳島市,国府町早淵２０５番地の１７,,36,201,7793125,,,2024-01-09,登記官による閉鎖,,,2015-10-05,1,,,,,,0
2318,6480002010662,登記記録の閉鎖等,0,2024-01-09,2024-01-09,有限会社浜田商店,,有限会社,徳島県,鳴門市,大麻町板東字宝蔵６２番地の１,,36,202,7790233,,,2024-01-09,登記官による閉鎖,,,2015-10-05,1,,,,,,0
2319,6480002010877,登記記録の閉鎖等,0,2024-01-09,2024-01-09,丸中建設有限会社,,有限会社,徳島県,鳴門市,撫養町斎田字東発３６番地２,,36,202,7720002,,,2024-01-09,登記官による閉鎖,,,2015-10-05,1,,,,,,0
2320,6480002013145,登記記録の閉鎖等,0,2024-01-09,2024-01-09,有限会社新富士建設,,有限会社,徳島県,阿南市,下大野町畑田２１８番地１,,36,204,7740047,,,2024-01-09,登記官による閉鎖,,,2015-10-05,1,,,,,,0
2321,6480005002054,登記記録の閉鎖等,0,2024-01-09,2024-01-09,社団法人徳島大學醫学部醫師會,00006189,その他の設立登記法人,徳島県,徳島市,蔵本町２丁目無番地,,36,201,7700042,,,2024-01-09,登記官による閉鎖,,,2015-10-05,1,,,,,,0
2322,6480005002558,登記記録の閉鎖等,0,2024-01-09,2024-01-09,協同組合ＳＡＧＡ,,その他の設立登記法人,徳島県,名東郡佐那河内村,下字下田５４番地２,,36,321,7714101,,,2024-01-09,登記官による閉鎖,,,2015-10-05,1,,,,,,0
2327,7010001104643,登記記録の閉鎖等,0,2024-01-09,2023-12-27,株式会社池田理化サービス,,株式会社,東京都,千代田区,岩本町２丁目１３番１１号,,13,101,1010032,,,2023-12-27,清算の結了等,,,2015-10-05,1,,,,,イケダリカサービス,0
2331,7010001237113,登記記録の閉鎖等,0,2024-01-09,2023-12-26,株式会社リンクステック,,株式会社,東京都,千代田区,神田佐久間町３丁目２８番地星野ビル５Ｆ,,13,101,1010025,,,2023-12-26,清算の結了等,,,2023-07-24,1,,,,,リンクステック,0
2344,7010401086473,登記記録の閉鎖等,0,2024-01-09,2023-12-22,東雲グリーンフロンティアＰＦＩ株式会社,,株式会社,東京都,港区,赤坂６丁目５番１１号,,13,103,1070052,,,2023-12-22,清算の結了等,,,2015-10-05,1,,,,,シノノメグリーンフロンティアピーエフアイ,0
2361,7010603009629,登記記録の閉鎖等,0,2024-01-09,2023-12-28,合同会社クロノコンサルティング,,合同会社,東京都,江東区,亀戸６丁目３１番２号,,13,108,1360071,,,2023-12-28,清算の結了等,,,2022-07-07,1,,,,,クロノコンサルティング,0
2374,7011001005617,登記記録の閉鎖等,0,2024-01-09,2023-12-18,関東サービス株式会社,,株式会社,東京都,渋谷区,道玄坂２丁目１５番１号,,13,113,1500043,,,2023-12-18,清算の結了等,,,2015-10-05,1,,,,,カントウサービス,0
2375,7011001069042,登記記録の閉鎖等,0,2024-01-09,2023-12-28,トータルメディカルデザイン株式会社,,株式会社,東京都,渋谷区,南平台町１６番１７号,,13,113,1500036,,,2023-12-28,清算の結了等,,,2015-10-05,1,,,,,トータルメディカルデザイン,0
2396,7011703003166,登記記録の閉鎖等,0,2024-01-09,2023-12-28,合同会社ＬＯＴＵＳ,,合同会社,東京都,中央区,銀座１丁目１２番４号Ｎ＆ＥＢＬＤ６Ｆ,,13,102,1040061,,,2023-12-28,清算の結了等,,,2022-06-14,1,,,,,ロータス,0
2398,7012402002178,登記記録の閉鎖等,0,2024-01-09,2023-12-28,有限会社バンライ,,有限会社,東京都,府中市,浅間町２丁目４番地の１９,,13,206,1830001,,,2023-12-28,清算の結了等,,,2015-10-05,1,,,,,バンライ,0
2399,7012402004075,登記記録の閉鎖等,0,2024-01-09,2023-12-25,有限会社母と子のサロン,,有限会社,東京都,国分寺市,南町２丁目４番２号,,13,214,1850021,,,2023-12-25,清算の結了等,,,2015-10-05,1,,,,,ハハトコノサロン,0
2400,7012403002821,登記記録の閉鎖等,0,2024-01-09,2024-01-04,合同会社プラスベスト,,合同会社,東京都,武蔵野市,吉祥寺北町３丁目６番２５号,,13,203,1800001,,,2024-01-04,清算の結了等,,,2016-09-09,1,,,,,,0
2411,7020001102976,登記記録の閉鎖等,0,2024-01-09,2023-12-27,株式会社キーストーン,,株式会社,東京都,千代田区,岩本町２丁目１３番１１号,,13,101,1010032,,,2023-12-27,清算の結了等,,,2015-10-05,1,,,,,キーストーン,0
2455,7070001036245,登記記録の閉鎖等,0,2024-01-09,2023-12-27,株式会社ＫＨテック,,株式会社,群馬県,太田市,由良町４１８番地,,10,205,3730036,,,2023-12-27,清算の結了等,,,2019-10-29,1,,,,,ケイエッチテック,0
2462,7080105002571,登記記録の閉鎖等,0,2024-01-09,2024-01-04,特定非営利活動法人ライフワークサポート２１,,その他の設立登記法人,静岡県,沼津市,宮前町６番地の１６,,22,203,4100062,,,2024-01-04,清算の結了等,,,2015-10-05,1,,,,,ライフワークサポートニジュウイチ,0
2557,7090001004349,登記記録の閉鎖等,0,2024-01-09,2024-01-05,アポロ自動車販売株式会社,,株式会社,山梨県,甲府市,国母７丁目１３番１７号,,19,201,4000043,,,2024-01-05,登記官による閉鎖,,,2017-10-24,1,,,,,,0
2558,7090001005834,登記記録の閉鎖等,0,2024-01-09,2024-01-05,株式会社ジェイビーシステムズ,,株式会社,山梨県,中巨摩郡昭和町,河西６２８番地７今村ビル１Ｆ,,19,384,4093851,,,2024-01-05,登記官による閉鎖,,,2015-10-05,1,,,,,,0
2559,7090002004653,登記記録の閉鎖等,0,2024-01-09,2024-01-05,有限会社住吉ボディーショップ,,有限会社,山梨県,中巨摩郡昭和町,築地新居８１０番地の４,,19,384,4093853,,,2024-01-05,登記官による閉鎖,,,2015-10-05,1,,,,,,0
2560,7090002007862,登記記録の閉鎖等,0,2024-01-09,2024-01-05,有限会社ライフサポート,,有限会社,山梨県,南アルプス市,東南湖３２４５番地,,19,208,4000412,,,2024-01-05,登記官による閉鎖,,,2015-10-05,1,,,,,,0
2561,7090002015527,登記記録の閉鎖等,0,2024-01-09,2024-01-05,有限会社富士見テクニカル,,有限会社,山梨県,富士吉田市,下吉田３丁目４１番５号,,19,202,4030004,,,2024-01-05,登記官による閉鎖,,,2015-10-05,1,,,,,,0
2562,7100001036191,登記記録の閉鎖等,0,2024-01-09,2023-12-26,株式会社Ｓｙｓｐａｌｅ,,株式会社,長野県,安曇野市,三郷明盛３５９９番地５,,20,220,3998101,,,2023-12-26,清算の結了等,,,2023-03-03,1,,,,,シスパーレ,0
2563,7100002033790,登記記録の閉鎖等,0,2024-01-09,2023-12-27,有限会社アグリネーチャーいいじま,,有限会社,長野県,上伊那郡飯島町,飯島３９０７番地１６３６,,20,384,3993702,,,2023-12-27,清算の結了等,,,2015-10-05,1,,,,,アグリネーチャーイイジマ,0
2569,7120001093009,登記記録の閉鎖等,0,2024-01-09,2023-12-25,大阪マルチク株式会社,,株式会社,大阪府,大阪市中央区,（大阪市南区日本橋二丁目３番２号）,,27,128,5390000,,,2023-12-25,清算の結了等,,,2015-10-05,1,,,,,,1
2572,7120001149818,登記記録の閉鎖等,0,2024-01-09,2023-12-25,株式会社信光電機工業,,株式会社,大阪府,枚方市,牧野阪１丁目８番１４号ユニティ１、２階,,27,210,5731146,,,2023-12-25,清算の結了等,,,2015-10-05,1,,,,,シンコウデンキコウギョウ,0
2574,7120001206049,登記記録の閉鎖等,0,2024-01-09,2024-01-04,東邦測量設計株式会社,,株式会社,大阪府,大阪市旭区,高殿２丁目８番３８－２０７号,,27,117,5350031,,,2024-01-04,清算の結了等,,,2017-06-02,1,,,,,,0
2644,7240001050261,登記記録の閉鎖等,0,2024-01-09,2023-12-26,株式会社Ｙ．Ｋ．Ａ．Ｍ,,株式会社,広島県,広島市西区,草津梅が台４番１号,,34,104,7330864,,,2023-12-26,清算の結了等,,,2016-12-01,1,,,,,ワイケーエーエム,0
2647,7240002015478,登記記録の閉鎖等,0,2024-01-09,2023-12-22,有限会社舛田モータース,00000911,有限会社,広島県,広島市安佐北区,可部６丁目２番１８号,,34,106,7310221,,,2023-12-22,清算の結了等,,,2015-10-05,1,,,,,マスダモータース,0
2680,7340002016631,登記記録の閉鎖等,0,2024-01-09,2024-01-04,有限会社皇徳コーポレーション,,有限会社,鹿児島県,薩摩川内市,尾白江町３７６０番地,,46,215,8950035,,,2024-01-04,合併による解散等,4340001008509,令和５年１２月３１日鹿児島県薩摩川内市尾白江町３７６０番地株式会社技建（4340001008509）に合併し解散,2015-10-05,1,,,,,コウトクコーポレーション,0
2683,7370601003176,登記記録の閉鎖等,0,2024-01-09,2024-01-04,株式会社政榮産業,,株式会社,宮城県,宮城郡七ヶ浜町,遠山４丁目１番５３号,,04,404,9850823,,,2024-01-04,清算の結了等,,,2015-10-05,1,,,,,マサエイサンギョウ,0
2686,7390002005183,登記記録の閉鎖等,0,2024-01-09,2024-01-04,有限会社シルバーサービスユニオン,,有限会社,山形県,山形市,印役町１丁目４番２０号,,06,201,9900066,,,2024-01-04,清算の結了等,,,2015-10-05,1,,,,,シルバーサービスユニオン,0
2687,7430001057122,登記記録の閉鎖等,0,2024-01-09,2023-12-25,室蘭給水株式会社,,株式会社,北海道,室蘭市,海岸町３丁目２番１号,,01,205,0510022,,,2023-12-25,清算の結了等,,,2015-10-05,1,,,,,ムロランキュウスイ,0
2690,7430003009435,登記記録の閉鎖等,0,2024-01-09,2023-12-25,合同会社和美,,合同会社,北海道,札幌市北区,新琴似二条８丁目４番１８号,,01,102,0010902,,,2023-12-25,清算の結了等,,,2018-06-06,1,,,,,ナゴミ,0
2698,7480001000119,登記記録の閉鎖等,0,2024-01-09,2024-01-09,株式会社アーキテック,,株式会社,徳島県,徳島市,安宅２丁目３番１７号,,36,201,7700863,,,2024-01-09,登記官による閉鎖,,,2015-10-05,1,,,,,,0
2699,7480001008236,登記記録の閉鎖等,0,2024-01-09,2024-01-09,いろは株式会社,,株式会社,徳島県,徳島市,住吉４丁目１０番３１号,,36,201,7700861,,,2024-01-09,登記官による閉鎖,,,2015-10-05,1,,,,,,0
2700,7480001008392,登記記録の閉鎖等,0,2024-01-09,2024-01-09,株式会社テクノホームペイント,,株式会社,徳島県,徳島市,上吉野町２丁目１番地１８,,36,201,7700803,,,2024-01-09,登記官による閉鎖,,,2015-10-05,1,,,,,,0
2701,7480002002485,登記記録の閉鎖等,0,2024-01-09,2024-01-09,扇協運送有限会社,,有限会社,徳島県,徳島市,津田本町４丁目２番５３号,,36,201,7708003,,,2024-01-09,登記官による閉鎖,,,2015-10-05,1,,,,,,0
2702,7480002007591,登記記録の閉鎖等,0,2024-01-09,2024-01-09,有限会社岡建設,,有限会社,徳島県,勝浦郡勝浦町,大字中角字大籔１７番地１,00005940,36,301,7714302,,,2024-01-09,登記官による閉鎖,,,2015-10-05,1,,,,,,0
2703,7480002009951,登記記録の閉鎖等,0,2024-01-09,2024-01-09,有限会社飛猿閣,,有限会社,徳島県,阿波市,市場町大影字境目９番地２,,36,206,7711615,,,2024-01-09,登記官による閉鎖,,,2015-10-05,1,,,,,,0
2704,7480002012393,登記記録の閉鎖等,0,2024-01-09,2024-01-09,有限会社エルサポート,,有限会社,徳島県,板野郡藍住町,勝瑞字幸島１３３番地４１,,36,403,7711271,,,2024-01-09,登記官による閉鎖,,,2015-10-05,1,,,,,,0
2705,7480005000593,登記記録の閉鎖等,0,2024-01-09,2024-01-09,徳島県経済異業種協同組合,,その他の設立登記法人,徳島県,徳島市,万代町６丁目２４番地,,36,201,7700941,,,2024-01-09,登記官による閉鎖,,,2015-10-05,1,,,,,,0
2706,7480005004181,登記記録の閉鎖等,0,2024-01-09,2024-01-09,協同組合富岡優良店会,,その他の設立登記法人,徳島県,阿南市,富岡町トノ町２４番地２,,36,204,7740030,,,2024-01-09,登記官による閉鎖,,,2015-10-05,1,,,,,,0
2712,8010001057857,登記記録の閉鎖等,0,2024-01-09,2023-12-25,マルイチ水産株式会社,,株式会社,東京都,港区,芝浦４丁目９番２５号,,13,103,1080023,,,2023-12-25,清算の結了等,,,2015-10-05,1,,,,,マルイチスイサン,0
2715,8010002010724,登記記録の閉鎖等,0,2024-01-09,2023-12-28,有限会社システム・インテグレーション,,有限会社,東京都,千代田区,九段北４丁目１番３１号,,13,101,1020073,,,2023-12-28,清算の結了等,,,2015-10-05,1,,,,,システムインテグレーション,0
2716,8010003028922,登記記録の閉鎖等,0,2024-01-09,2023-12-27,合同会社インダストリアル・アセット・ホールディングス６号,,合同会社,東京都,中央区,八丁堀４丁目２番１０号ＡＯＪ税理士法人内,,13,102,1040032,,,2023-12-27,清算の結了等,,,2018-12-13,1,,,,,インダストリアルアセットホールディングスロクゴウ,0
2721,8010005027328,登記記録の閉鎖等,0,2024-01-09,2023-12-28,ＡＣＥ特定目的会社,,その他の設立登記法人,東京都,千代田区,丸の内３丁目１番１号東京共同会計事務所内,,13,101,1000005,,,2023-12-28,清算の結了等,,,2017-08-22,1,,,,,エース,0
2725,8010401097825,登記記録の閉鎖等,0,2024-01-09,2024-01-04,ＦｏｒＧｒｏｏｖｅ株式会社,,株式会社,東京都,渋谷区,恵比寿４丁目３番１４号恵比寿ＳＳビル,,13,113,1500013,,,2024-01-04,清算の結了等,,,2015-10-05,1,,,,,フォーグルーブ,0
2733,8010403026848,登記記録の閉鎖等,0,2024-01-09,2023-12-25,合同会社Ｙｏｓｏ　Ｈｏｌｄｉｎｇｓ,,合同会社,東京都,港区,虎ノ門３丁目２２番１０－２０１号,,13,103,1050001,,,2023-12-25,清算の結了等,,,2022-01-07,1,,,,,ヨウソホールディングス,0
2744,8011001068373,登記記録の閉鎖等,0,2024-01-09,2023-12-22,株式会社ファイヤーマウンテン,,株式会社,東京都,港区,南青山２丁目２番１５号,,13,103,1070062,,,2023-12-22,清算の結了等,,,2015-10-05,1,,,,,ファイヤーマウンテン,0
2751,8011001126692,登記記録の閉鎖等,0,2024-01-09,2023-12-28,株式会社ＧＡＭ００４,,株式会社,東京都,渋谷区,千駄ヶ谷４丁目９番７号,,13,113,1510051,,,2023-12-28,清算の結了等,,,2019-02-21,1,,,,,ジーエーエムゼロゼロヨン,0
2771,8011501020115,登記記録の閉鎖等,0,2024-01-09,2023-12-21,株式会社心笑,,株式会社,東京都,北区,豊島８丁目２３番１９－５０１号リステノール,,13,117,1140003,,,2023-12-21,清算の結了等,,,2015-10-05,1,,,,,ココロエ,0
2776,8012301005693,登記記録の閉鎖等,0,2024-01-09,2023-12-28,スカイ精密株式会社,,株式会社,神奈川県,相模原市中央区,宮下３丁目１３番１１号,,14,152,2520212,,,2023-12-28,合併による解散等,6021001012704,令和５年１２月２８日神奈川県相模原市中央区宮下三丁目１３番１１号ステイ電子機器株式会社（6021001012704）に合併し解散,2015-10-05,1,,,,,スカイセイミツ,0
2785,8012401015758,登記記録の閉鎖等,0,2024-01-09,2023-12-25,株式会社プレシャスワン,,株式会社,東京都,国立市,中３丁目１１番地の１,,13,215,1860004,,,2023-12-25,清算の結了等,,,2015-10-05,1,,,,,プレシャスワン,0
2787,8012401033487,登記記録の閉鎖等,0,2024-01-09,2023-12-28,府中・調布まちなかエナジー株式会社,,株式会社,東京都,府中市,府中町１丁目１番地の１ホテルケヤキゲート東京府中２ＦＬＩＧＨＴＵＰＬＯＢＢＹ,,13,206,1830055,,,2023-12-28,合併による解散等,4010001102071,令和５年１２月１８日東京都千代田区丸の内三丁目１番１号株式会社エネウィル（4010001102071）に合併し解散,2017-12-22,1,,,,,フチュウチョウフマチナカエナジー,0
2794,8020001142393,登記記録の閉鎖等,0,2024-01-09,2023-12-26,ＧＥＮＴＥＮ株式会社,,株式会社,神奈川県,横浜市青葉区,荏田西１丁目１２番地１７クレッセント市が尾ヒルサイドコート２０３号,,14,117,2250014,,,2023-12-26,清算の結了等,,,2021-07-30,1,,,,,ゲンテン,0
2797,8020003000608,登記記録の閉鎖等,0,2024-01-09,2023-12-25,合名会社京浜興産,,合名会社,神奈川県,横浜市神奈川区,西神奈川１丁目６番地１５桜ビル７０８号,,14,102,2210822,,,2023-12-25,清算の結了等,,,2015-10-05,1,,,,,ケイヒンコウサン,0
2798,8020005014738,登記記録の閉鎖等,0,2024-01-09,2023-12-26,一般社団法人はぐみ,,その他の設立登記法人,神奈川県,川崎市麻生区,高石１丁目１６番１－２号,,14,137,2150003,,,2023-12-26,清算の結了等,,,2020-07-22,1,,,,,ハグミ,0
2831,8080001021195,登記記録の閉鎖等,0,2024-01-09,2024-01-04,株式会社東洋,,株式会社,静岡県,静岡市葵区,紺屋町７番地の４,,22,101,4200852,,,2024-01-04,合併による解散等,6080001001257,令和６年１月１日静岡市葵区紺屋町２番地の２株式会社クーポール会館（6080001001257）に合併し解散,2016-10-05,1,,,,,トウヨウ,0
2919,8090001001799,登記記録の閉鎖等,0,2024-01-09,2024-01-05,株式会社ヒロセキヤステイング,,株式会社,山梨県,甲府市,幸町１３番１０号,,19,201,4000857,,,2024-01-05,登記官による閉鎖,,,2015-10-05,1,,,,,,0
2920,8090001006542,登記記録の閉鎖等,0,2024-01-09,2024-01-05,株式会社Ｈ・Ｉサポート,,株式会社,山梨県,笛吹市,一宮町中尾１０４番地,,19,211,4050053,,,2024-01-05,登記官による閉鎖,,,2015-10-05,1,,,,,,0
2921,8090001006955,登記記録の閉鎖等,0,2024-01-09,2024-01-05,株式会社ＪＦＥ,,株式会社,山梨県,甲府市,国母８丁目１８番７号,,19,201,4000043,,,2024-01-05,登記官による閉鎖,,,2015-10-05,1,,,,,,0
2922,8090002000313,登記記録の閉鎖等,0,2024-01-09,2024-01-05,有限会社一富士,,有限会社,山梨県,甲府市,朝日１丁目１番１０号,,19,201,4000025,,,2024-01-05,登記官による閉鎖,,,2018-12-04,1,,,,,イチフジ,0
2923,8090002001617,登記記録の閉鎖等,0,2024-01-09,2024-01-05,有限会社ジュエリー・ツジ,,有限会社,山梨県,甲府市,小瀬町５番地の３,,19,201,4000836,,,2024-01-05,登記官による閉鎖,,,2015-10-05,1,,,,,,0
2925,8090002003241,登記記録の閉鎖等,0,2024-01-09,2024-01-05,有限会社柳澤畳店,,有限会社,山梨県,甲府市,城東１丁目８番７号,,19,201,4000861,,,2024-01-05,登記官による閉鎖,,,2015-10-05,1,,,,,,0
2926,8090005004848,登記記録の閉鎖等,0,2024-01-09,2024-01-05,社団法人八ヶ岳青年会議所,,その他の設立登記法人,山梨県,北杜市,長坂町長坂上条２３１２番地,,19,209,4080021,,,2024-01-05,登記官による閉鎖,,,2015-10-05,1,,,,,,0
2928,8100001012019,登記記録の閉鎖等,0,2024-01-09,2023-12-27,柏屋酒造株式会社,,株式会社,長野県,中野市,大字岩井６６４番地,,20,211,3830001,,,2023-12-27,清算の結了等,,,2015-10-05,1,,,,,カシワヤシュゾウ,0
2929,8100001012539,登記記録の閉鎖等,0,2024-01-09,2023-12-26,株式会社ＣＯＭＭＹ,,株式会社,長野県,長野市,大字高田３６８番地５,,20,201,3810034,,,2023-12-26,清算の結了等,,,2015-10-05,1,,,,,コミー,0
2930,8100001016688,登記記録の閉鎖等,0,2024-01-09,2023-12-28,株式会社ネオライフ,,株式会社,長野県,塩尻市,大字広丘堅石６５番地７,,20,215,3990705,,,2023-12-28,清算の結了等,,,2015-10-05,1,,,,,ネオライフ,0
2932,8100001022174,登記記録の閉鎖等,0,2024-01-09,2023-12-27,株式会社マッシュ・デ・イーナ,,株式会社,長野県,伊那市,東春近７９７８番地,,20,209,3994432,,,2023-12-27,清算の結了等,,,2015-10-05,1,,,,,マッシュデイイナ,0
2942,8120001012306,登記記録の閉鎖等,0,2024-01-09,2023-12-25,株式会社ゴーダック,,株式会社,大阪府,大阪市東成区,大今里２丁目２０番９号,,27,115,5370012,,,2023-12-25,清算の結了等,,,2015-10-05,1,,,,,ゴーダック,0
2964,8120005018803,登記記録の閉鎖等,0,2024-01-09,2024-01-04,一般社団法人女性支援活動推進事業団,,その他の設立登記法人,大阪府,大阪市中央区,大手前１丁目２番１５号,,27,128,5400008,,,2024-01-04,清算の結了等,,,2016-07-15,1,,,,,ジョセイシエンカツドウスイシンジギョウダン,0
2978,8140003012005,登記記録の閉鎖等,0,2024-01-09,2023-12-28,合同会社オフィスグローイング,,合同会社,兵庫県,川西市,萩原台西１丁目３４０番地,,28,217,6660006,,,2023-12-28,清算の結了等,,,2017-03-23,1,,,,,オフィスグローイング,0
2979,8140003016757,登記記録の閉鎖等,0,2024-01-09,2024-01-04,合同会社神戸えん食,,合同会社,兵庫県,神戸市灘区,寺口町５－５,,28,102,6570062,,,2024-01-04,清算の結了等,,,2021-09-22,1,,,,,コウベエンショク,0
2984,8170001002649,登記記録の閉鎖等,0,2024-01-09,2024-01-05,株式会社橋爪組,,株式会社,和歌山県,和歌山市,西浜１１０５番地の１３,,30,201,6410036,,,2024-01-05,清算の結了等,,,2015-10-05,1,,,,,ハシヅメグミ,0
2985,8180001013406,登記記録の閉鎖等,0,2024-01-09,2023-12-28,北條電機工業株式会社,,株式会社,愛知県,名古屋市北区,田幡１丁目７番１０号,,23,103,4620843,,,2023-12-28,清算の結了等,,,2015-10-05,1,,,,,ホウジョウデンキコウギョウ,0
2987,8180001031192,登記記録の閉鎖等,0,2024-01-09,2024-01-04,株式会社タカムラ,,株式会社,愛知県,名古屋市中村区,長筬町３丁目５３番地の１,,23,105,4530839,,,2024-01-04,清算の結了等,,,2015-10-05,1,,,,,タカムラ,0
2991,8180001155999,登記記録の閉鎖等,0,2024-01-09,2023-12-25,株式会社ＫＡ＆ＪＡＰＡＮ,,株式会社,愛知県,名古屋市北区,若葉通３丁目１６番地の１大脇ビル１０１号,,23,103,4620854,,,2023-12-25,清算の結了等,,,2023-04-21,1,,,,,ケエアンドジャパン,0
2999,8190001030367,登記記録の閉鎖等,0,2024-01-09,2023-12-26,橋本木材株式会社,,株式会社,三重県,四日市市,東富田町２７番２４号,,24,202,5108006,,,2023-12-26,清算の結了等,,,2023-05-10,1,,,,,ハシモトモクザイ,0
3005,8200003002949,登記記録の閉鎖等,0,2024-01-09,2024-01-04,合同会社リアン,,合同会社,岐阜県,羽島郡笠松町,米野２１９番地,,21,303,5016031,,,2024-01-04,清算の結了等,,,2015-10-05,1,,,,,リアン,0
3020,8290001096786,登記記録の閉鎖等,0,2024-01-09,2023-11-30,株式会社ウエストリバー,,株式会社,福岡県,福岡市博多区,中洲１丁目８番７号,,40,132,8100801,,,2023-11-30,清算の結了等,,,2022-03-14,1,,,,,ウエストリバー,0
3035,8330001029980,登記記録の閉鎖等,0,2024-01-09,2023-12-28,ＳＨＯケン株式会社,,株式会社,熊本県,上益城郡益城町,大字宮園８６７番地５,,43,443,8612241,,,2023-12-28,清算の結了等,,,2022-08-22,1,,,,,ショーケン,0
3040,8360002011373,登記記録の閉鎖等,0,2024-01-09,2023-12-27,有限会社エイシーイー,,有限会社,沖縄県,沖縄市,胡屋５丁目１２番１２号,,47,211,9040021,,,2023-12-27,清算の結了等,,,2015-10-05,1,,,,,エイシーイー,0
3055,8480001006098,登記記録の閉鎖等,0,2024-01-09,2024-01-09,株式会社カーテックトクナカ,,株式会社,徳島県,徳島市,論田町新開６６番地１１５,,36,201,7708011,,,2024-01-09,登記官による閉鎖,,,2015-10-05,1,,,,,,0
3056,8480001006528,登記記録の閉鎖等,0,2024-01-09,2024-01-09,株式会社日愛,,株式会社,徳島県,徳島市,大松町西奥外５０番地の１,,36,201,7708022,,,2024-01-09,登記官による閉鎖,,,2015-10-05,1,,,,,,0
3057,8480002004349,登記記録の閉鎖等,0,2024-01-09,2024-01-09,有限会社七福不動産,,有限会社,徳島県,徳島市,城南町４丁目２番４３号,,36,201,7708064,,,2024-01-09,登記官による閉鎖,,,2015-10-05,1,,,,,,0
3058,8480002005074,登記記録の閉鎖等,0,2024-01-09,2024-01-09,有限会社ヤマシタ,,有限会社,徳島県,徳島市,津田浜之町２番１７号,,36,201,7708005,,,2024-01-09,登記官による閉鎖,,,2015-10-05,1,,,,,,0
3059,8480002016063,登記記録の閉鎖等,0,2024-01-09,2024-01-09,有限会社ひなた整骨院,,有限会社,徳島県,三好市,池田町マチ２１８９番地１,,36,208,7780002,,,2024-01-09,登記官による閉鎖,,,2015-10-05,1,,,,,,0
3060,8480005002325,登記記録の閉鎖等,0,2024-01-09,2024-01-09,徳島県柑橘販売商業協同組合,,その他の設立登記法人,徳島県,勝浦郡勝浦町,大字中角字東山５７番地の５,,36,301,7714302,,,2024-01-09,登記官による閉鎖,,,2015-10-05,1,,,,,,0
3070,9010001233127,登記記録の閉鎖等,0,2024-01-09,2023-12-26,Ｆｏｒｌｅｉｎｏ株式会社,,株式会社,東京都,中央区,築地４丁目４番１４号ラフィネ東銀座９１０号室,,13,102,1040045,,,2023-12-26,清算の結了等,,,2023-03-03,1,,,,,フォレイノ,0
3089,9010403023943,登記記録の閉鎖等,0,2024-01-09,2023-12-25,合同会社ＮＡＯトラスト,,合同会社,東京都,港区,元赤坂１丁目１番８号株式会社赤坂国際会計内,,13,103,1070051,,,2023-12-25,清算の結了等,,,2020-10-19,1,,,,,エヌエーオートラスト,0
3092,9010403029932,登記記録の閉鎖等,0,2024-01-09,2023-12-25,合同会社上尾,,合同会社,東京都,港区,虎ノ門３丁目２２番１０－２０１号,,13,103,1050001,,,2023-12-25,清算の結了等,,,2023-04-17,1,,,,,アゲオ,0
3093,9010405020352,登記記録の閉鎖等,0,2024-01-09,2023-12-25,特定目的会社Ｙｏｓｏ　Ｄｅｖｅｌｏｐｍｅｎｔ,,その他の設立登記法人,東京都,港区,虎ノ門３丁目２２番１０－２０１号,,13,103,1050001,,,2023-12-25,清算の結了等,,,2021-10-22,1,,,,,ヨウソディベロップメント,0
3115,9011001126691,登記記録の閉鎖等,0,2024-01-09,2023-12-28,株式会社ＧＡＭ００５,,株式会社,東京都,渋谷区,千駄ヶ谷４丁目９番７号,,13,113,1510051,,,2023-12-28,清算の結了等,,,2019-02-21,1,,,,,ジーエーエムゼロゼロゴ,0
3121,9011102014606,登記記録の閉鎖等,0,2024-01-09,2024-01-04,有限会社ニュースター,,有限会社,東京都,新宿区,改代町４１番地,,13,104,1620802,,,2024-01-04,清算の結了等,,,2015-10-05,1,,,,,ニュースター,0
3124,9011201018219,登記記録の閉鎖等,0,2024-01-09,2023-12-25,株式会社ネクストキュレーション,,株式会社,東京都,港区,西麻布４丁目８番１８号,,13,103,1060031,,,2023-12-25,清算の結了等,,,2015-10-05,1,,,,,ネクストキュレーション,0
3141,9013103000576,登記記録の閉鎖等,0,2024-01-09,2024-01-05,合同会社サンライズコンサルティング,,合同会社,東京都,羽村市,緑ヶ丘４丁目１番地４９,,13,227,2050003,,,2024-01-05,清算の結了等,,,2015-10-05,1,,,,,,0
3142,9013301033452,登記記録の閉鎖等,0,2024-01-09,2023-12-22,アース株式会社,,株式会社,東京都,荒川区,南千住３丁目４１番５－２０４号,,13,118,1160003,,,2023-12-22,清算の結了等,,,2015-10-05,1,,,,,アース,0
3152,9030001029011,登記記録の閉鎖等,0,2024-01-09,2023-12-26,株式会社シンユー検品,,株式会社,埼玉県,所沢市,中新井１丁目４１番地の２レーベンハイム新所沢グランシエロ４０８,,11,208,3590041,,,2023-12-26,清算の結了等,,,2015-10-05,1,,,,,シンユーケンピン,0
3175,9060002020346,登記記録の閉鎖等,0,2024-01-09,2023-12-27,有限会社セイコー,,有限会社,栃木県,鹿沼市,奈佐原町５３２番地,,09,205,3220528,,,2023-12-27,清算の結了等,,,2015-10-05,1,,,,,セイコー,0
3179,9070001023092,登記記録の閉鎖等,0,2024-01-09,2023-12-27,明光電化センター株式会社,,株式会社,群馬県,沼田市,上原町１６８８番地１,,10,206,3780051,,,2023-12-27,清算の結了等,,,2015-10-05,1,,,,,メイコウデンカセンター,0
3185,9080103002489,登記記録の閉鎖等,0,2024-01-09,2024-01-04,合同会社スケイティス,,合同会社,静岡県,沼津市,高沢町１番９号メゾン・フィオーレ高沢９０３号,,22,203,4100057,,,2024-01-04,清算の結了等,,,2022-01-05,1,,,,,,0
3205,9080401021884,登記記録の閉鎖等,0,2024-01-09,2024-01-04,株式会社Ａｒｔ　Ｃｏ．,,株式会社,静岡県,袋井市,川井２３３番地の３,,22,216,4370064,,,2024-01-04,清算の結了等,,,2016-12-05,1,,,,,アートカンパニー,0
3275,9090001011608,登記記録の閉鎖等,0,2024-01-09,2024-01-05,株式会社ＳＫ工業,,株式会社,山梨県,北杜市,明野町小笠原９２７番地,,19,209,4080202,,,2024-01-05,登記官による閉鎖,,,2015-10-05,1,,,,,,0
3276,9090001015864,登記記録の閉鎖等,0,2024-01-09,2024-01-05,株式会社小林富士井銀行,,株式会社,山梨県,南巨摩郡富士川町,舂米１２９５番地,,19,368,4000515,,,2024-01-05,登記官による閉鎖,,,2019-01-21,1,,,,,,0
3278,9090002013248,登記記録の閉鎖等,0,2024-01-09,2024-01-05,有限会社月光,,有限会社,山梨県,南都留郡富士河口湖町,大嵐６１番地,,19,430,4010335,,,2024-01-05,登記官による閉鎖,,,2015-10-05,1,,,,,,0
3279,9090002013470,登記記録の閉鎖等,0,2024-01-09,2024-01-05,有限会社赤坂製作所,,有限会社,山梨県,韮崎市,上祖母石１１２９番地,,19,207,4070007,,,2024-01-05,登記官による閉鎖,,,2015-10-05,1,,,,,,0
3280,9090002014551,登記記録の閉鎖等,0,2024-01-09,2024-01-05,有限会社雅樹雅,,有限会社,山梨県,北杜市,高根町清里３５４５番地５１,,19,209,4070301,,,2024-01-05,登記官による閉鎖,,,2015-10-05,1,,,,,,0
3283,9110001014946,登記記録の閉鎖等,0,2024-01-09,2023-12-28,さかい保険代理店株式会社,,株式会社,新潟県,三条市,福島新田戊１２１番地,,15,204,9591103,,,2023-12-28,清算の結了等,,,2015-10-05,1,,,,,サカイホケンダイリテン,0
3284,9110001028062,登記記録の閉鎖等,0,2024-01-09,2024-01-04,株式会社シックススタイル,,株式会社,新潟県,新潟市西区,青山８丁目８番１３号,,15,107,9502002,,,2024-01-04,合併による解散等,8110001036768,令和６年１月１日新潟市西区亀貝３０番地亀貝ガーデンテラスＡ室株式会社２３（8110001036768）に合併し解散,2015-10-05,1,,,,,シックススタイル,0
3288,9110003003807,登記記録の閉鎖等,0,2024-01-09,2024-01-04,合同会社エニタイム,,合同会社,新潟県,長岡市,表町１丁目１０番地５アーバンヒルズ長岡第２－４０１,,15,202,9400071,,,2024-01-04,清算の結了等,,,2018-11-15,1,,,,,エニタイム,0
3310,9120005020485,登記記録の閉鎖等,0,2024-01-09,2024-01-04,一般社団法人経営者リスクマネジメント協会,,その他の設立登記法人,大阪府,大阪市西区,阿波座１丁目５番１０号福島ビル南館４階,,27,106,5500011,,,2024-01-04,清算の結了等,,,2018-10-22,1,,,,,ケイエイシャリスクマネジメントキョウカイ,0
3317,9130001060550,登記記録の閉鎖等,0,2024-01-09,2024-01-04,株式会社さつき,,株式会社,京都府,京都市右京区,西京極芝ノ下町８番地６６サンコート芝ノ下１Ｆ５,,26,108,6150826,,,2024-01-04,清算の結了等,,,2017-09-12,1,,,,,サツキ,0
3331,9180001008090,登記記録の閉鎖等,0,2024-01-09,2023-12-26,株式会社カネコ,,株式会社,愛知県,名古屋市昭和区,小坂町１丁目２１番地の２,,23,107,4660021,,,2023-12-26,清算の結了等,,,2015-10-05,1,,,,,カネコ,0
3340,9180001153903,登記記録の閉鎖等,0,2024-01-09,2023-12-27,株式会社アルファ,,株式会社,愛知県,大府市,江端町５丁目９１番地,,23,223,4740035,,,2023-12-27,清算の結了等,,,2022-11-22,1,,,,,アルファ,0
3342,9180002086037,登記記録の閉鎖等,0,2024-01-09,2023-12-28,有限会社久保海苔店,,有限会社,愛知県,常滑市,熊野町２丁目５１番地,,23,216,4790817,,,2023-12-28,清算の結了等,,,2015-10-05,1,,,,,クボノリテン,0
3348,9200001032245,登記記録の閉鎖等,0,2024-01-09,2024-01-05,ミチナル株式会社,,株式会社,岐阜県,高山市,一之宮町字下渡瀬１７７番地,,21,203,5093505,,,2024-01-05,清算の結了等,,,2015-11-06,1,,,,,ミチナル,0
3359,9240002011005,登記記録の閉鎖等,0,2024-01-09,2023-12-27,アネシス有限会社,,有限会社,広島県,広島市安芸区,矢野東２丁目２３番６号,,34,107,7360083,,,2023-12-27,清算の結了等,,,2015-10-05,1,,,,,アネシス,0
3390,9380001020364,登記記録の閉鎖等,0,2024-01-09,2024-01-04,株式会社ＧＩＭＹ,,株式会社,福島県,河沼郡会津坂下町,字市中二番甲３６３８番地,,07,421,9696543,,,2024-01-04,清算の結了等,,,2015-10-05,1,,,,,ジミー,0
3399,9460101000398,登記記録の閉鎖等,0,2024-01-09,2023-12-28,株式会社神谷建設,,株式会社,北海道,帯広市,西十六条北２丁目３８番９号,,01,207,0800046,,,2023-12-28,清算の結了等,,,2015-10-05,1,,,,,カミヤケンセツ,0
3403,9470001016700,登記記録の閉鎖等,0,2024-01-09,2023-12-28,株式会社プラスワンエージェント,,株式会社,香川県,高松市,木太町５１１６番地２０,,37,201,7600080,,,2023-12-28,合併による解散等,1470001005446,令和５年１２月２８日香川県高松市木太町５１１６番地２０株式会社プラスワンインターナショナル（1470001005446）に合併し解散,2018-01-17,1,,,,,プラスワンエージェント,0
3404,9480001000637,登記記録の閉鎖等,0,2024-01-09,2024-01-09,高亜通商株式会社,,株式会社,徳島県,徳島市,仲之町２丁目８番地２,,36,201,7700932,,,2024-01-09,登記官による閉鎖,,,2015-10-05,1,,,,,,0
3405,9480001005000,登記記録の閉鎖等,0,2024-01-09,2024-01-09,株式会社三友建機,,株式会社,徳島県,鳴門市,撫養町黒崎字松島６番地３,,36,202,7720001,,,2024-01-09,登記官による閉鎖,,,2015-10-05,1,,,,,,0
3406,9480001006304,登記記録の閉鎖等,0,2024-01-09,2024-01-09,株式会社アルガスＪＰ,,株式会社,徳島県,徳島市,中昭和町４丁目６１番地２,,36,201,7700943,,,2024-01-09,登記官による閉鎖,,,2015-10-05,1,,,,,,0
3407,9480001006436,登記記録の閉鎖等,0,2024-01-09,2024-01-09,株式会社ネットワーク,,株式会社,徳島県,徳島市,住吉６丁目４番８号,,36,201,7700861,,,2024-01-09,登記官による閉鎖,,,2015-10-05,1,,,,,,0
3409,9480002005833,登記記録の閉鎖等,0,2024-01-09,2024-01-09,有限会社池谷開発協議会,,有限会社,徳島県,名東郡佐那河内村,下字仕出１３３番地１,,36,321,7714101,,,2024-01-09,登記官による閉鎖,,,2015-10-05,1,,,,,,0
3410,9480002010354,登記記録の閉鎖等,0,2024-01-09,2024-01-09,岡鉄工有限会社,,有限会社,徳島県,鳴門市,撫養町岡崎字二等道路西５８番地,,36,202,7720013,,,2024-01-09,登記官による閉鎖,,,2015-10-05,1,,,,,,0
3411,9480002015576,登記記録の閉鎖等,0,2024-01-09,2024-01-09,しんがあおおいし有限会社,,有限会社,徳島県,三好市,池田町ヤマダ３０７番地,,36,208,7780007,,,2024-01-09,登記官による閉鎖,,,2015-10-05,1,,,,,,0
3412,9480002016269,登記記録の閉鎖等,0,2024-01-09,2024-01-05,黒潮総業有限会社,,有限会社,徳島県,海部郡美波町,伊座利字小イザリ３４３番地９０,,36,387,7792107,,,2024-01-05,清算の結了等,,,2023-10-04,1,,,,,クロシオソウギョウ,0
3413,9480005002373,登記記録の閉鎖等,0,2024-01-09,2024-01-09,医療法人片山整形外科医院,,その他の設立登記法人,徳島県,小松島市,堀川町４番３号,,36,203,7730004,,,2024-01-09,登記官による閉鎖,,,2015-10-05,1,,,,,,0
3414,9480005004048,登記記録の閉鎖等,0,2024-01-09,2024-01-09,特定非営利活動法人石文の道１００撰をつくろう会,00006257,その他の設立登記法人,徳島県,徳島市,応神町東貞方字八幡前１００番地,,36,201,7711154,,,2024-01-09,登記官による閉鎖,,,2015-10-05,1,,,,,,0
3415,9480005004171,登記記録の閉鎖等,0,2024-01-09,2024-01-09,協同組合とうしん,,その他の設立登記法人,徳島県,阿南市,富岡町西新町４９番地,,36,204,7740030,,,2024-01-09,登記官による閉鎖,,,2015-10-05,1,,,,,,0
3416,9480005004923,登記記録の閉鎖等,0,2024-01-09,2024-01-09,財団法人二葉保育園,,その他の設立登記法人,徳島県,海部郡海陽町,鞆浦字立岩５０番地１２,00006312,36,388,7750301,,,2024-01-09,登記官による閉鎖,,,2015-10-05,1,,,,,,0
3417,9480005005509,登記記録の閉鎖等,0,2024-01-09,2024-01-09,井川町木材工業協同組合,,その他の設立登記法人,徳島県,三好市,井川町辻１００番地の２,00006334,36,208,7794801,,,2024-01-09,登記官による閉鎖,,,2015-10-05,1,,,,,,0
