sequenceNumber,corporateNumber,process,correct,updateDate,changeDate,name,nameImageId,kind,prefectureName,cityName,streetNumber,addressImageId,prefectureCode,cityCode,postCode,addressOutside,addressOutsideImageId,closeDate,closeCause,successorCorporateNumber,changeCause,assignmentDate,latest,enName,enPrefectureName,enCityName,enAddressOutside,furigana,hihyoji
11,1010001222491,新規,0,2021-11-12,2021-11-12,株式会社ｗｉｚ－ｏｎｅ,,株式会社,東京都,中央区,日本橋本町３丁目３番６号ワカ末ビル７階,,13,102,1030023,,,,,,,2021-11-12,1,,,,,ウイズワン,0
15,1010003036270,新規,0,2021-11-12,2021-11-12,合同会社フォレスト１号,,合同会社,東京都,千代田区,大手町１丁目１番２号,,13,101,1000004,,,,,,,2021-11-12,1,,,,,フォレストイチゴウ,0
26,1010401163724,新規,0,2021-11-12,2021-11-12,株式会社ＢＩＮＤ,,株式会社,東京都,港区,南青山２丁目２番１５号,,13,103,1070062,,,,,,,2021-11-12,1,,,,,バインド,0
28,1010403026508,新規,0,2021-11-12,2021-11-12,ＧＡＲＮＥＴ日本橋合同会社,,合同会社,東京都,港区,六本木１丁目６番１号泉ガーデンタワー１２階,,13,103,1060032,,,,,,,2021-11-12,1,,,,,ガーネットニホンバシ,0
35,1010603009246,新規,0,2021-11-12,2021-11-12,ＥＬＰＩＳ合同会社,,合同会社,東京都,江東区,青海２丁目７番４号,,13,108,1350064,,,,,,,2021-11-12,1,,,,,エルピス,0
37,1010701041761,新規,0,2021-11-12,2021-11-12,ＭｏｒｉＡｓｓｅｔ株式会社,,株式会社,東京都,品川区,東品川４丁目１１番３６－２８１２号,,13,109,1400002,,,,,,,2021-11-12,1,,,,,モリアセット,0
41,1010901049794,新規,0,2021-11-12,2021-11-12,株式会社リテリア,,株式会社,東京都,世田谷区,三軒茶屋２丁目２番１３－１１０２号,,13,112,1540024,,,,,,,2021-11-12,1,,,,,リテリア,0
49,1011001143851,新規,0,2021-11-12,2021-11-12,株式会社ＴＨＥ　ＣＡＶＩＡＲ,,株式会社,東京都,目黒区,青葉台３丁目６－２８ラ・トゥール青葉台２５０３,,13,110,1530042,,,,,,,2021-11-12,1,,,,,ザキャビア,0
50,1011001143901,新規,0,2021-11-12,2021-11-12,株式会社アクセラ,,株式会社,東京都,渋谷区,神宮前６丁目２３－４桑野ビル２Ｆ,,13,113,1500001,,,,,,,2021-11-12,1,,,,,アクセラ,0
58,1011401023835,新規,0,2021-11-12,2021-11-12,株式会社Ｎｏａｈ　Ｓｔｙｌｅ,,株式会社,東京都,板橋区,徳丸２丁目１８番１６号,,13,119,1750083,,,,,,,2021-11-12,1,,,,,ノアスタイル,0
77,1020001143893,新規,0,2021-11-12,2021-11-12,株式会社ＹＩ　Ｃｈｒｏｎｉｃｌｅ,,株式会社,神奈川県,横浜市都筑区,茅ケ崎南１丁目１番１－５５０号シティテラス横濱仲町台弐番館５５０,,14,118,2240037,,,,,,,2021-11-12,1,,,,,ワイアイクロニクル,0
80,1020003020785,新規,0,2021-11-12,2021-11-12,合同会社ｓｐａｒｋｌｅ,,合同会社,神奈川県,横浜市中区,山下町１６８－１レイトンハウス横浜７０３,,14,104,2310023,,,,,,,2021-11-12,1,,,,,スパークル,0
92,1030001145294,新規,0,2021-11-12,2021-11-12,株式会社サン・モデスト,,株式会社,埼玉県,北葛飾郡松伏町,大字松伏３０９１番地２,,11,465,3430111,,,,,,,2021-11-12,1,,,,,サンモデスト,0
105,1040001120957,新規,0,2021-11-12,2021-11-12,ｗｉｌｌａｒｔｓ株式会社,,株式会社,千葉県,松戸市,本町１７番地１１芹澤ビル６Ｆ,,12,207,2710091,,,,,,,2021-11-12,1,,,,,ウィルアーツ,0
106,1040001120981,新規,0,2021-11-12,2021-11-12,株式会社ＹＴ工房,,株式会社,千葉県,流山市,大字東深井９５０番地の１４,,12,220,2700101,,,,,,,2021-11-12,1,,,,,ワイティーコウボウ,0
112,1040003018869,新規,0,2021-11-12,2021-11-12,合同会社ＮＯＢＬＥＳＳＥｗｗｗ,,合同会社,千葉県,松戸市,松戸１３０７番地の１松戸ビル１３０２,,12,207,2710092,,,,,,,2021-11-12,1,,,,,ノブレススリーシックス,0
113,1040003018935,新規,0,2021-11-12,2021-11-12,合同会社ＡＲＵＳＨＩＹＡ．ＮＩＭＡ,,合同会社,千葉県,四街道市,大日３５８番地９アーバニティＩＩ３０２,00124840,12,228,2840001,,,,,,,2021-11-12,1,,,,,アルシヤニーマ,0
114,1040005021425,新規,0,2021-11-12,2021-11-12,一般社団法人ｅＮ－ＹｕＫａＲｉ．,,その他の設立登記法人,千葉県,柏市,増尾８丁目４０番１４号,,12,217,2770033,,,,,,,2021-11-12,1,,,,,エンユカリ,0
128,1090001017273,新規,0,2021-11-12,2021-11-12,株式会社ストラ給与計算オフィス,,株式会社,山梨県,甲府市,中央２丁目９－２０タカオカビル３Ｆ,,19,201,4000032,,,,,,,2021-11-12,1,,,,,ストラキュウヨケイサンオフィス,0
130,1110001036188,新規,0,2021-11-12,2021-11-12,北新電設株式会社,,株式会社,新潟県,新潟市東区,東中島２丁目１番１０号,,15,102,9500823,,,,,,,2021-11-12,1,,,,,ホクシンデンセツ,0
142,1120003020585,新規,0,2021-11-12,2021-11-12,合同会社橘,,合同会社,大阪府,大阪市鶴見区,茨田大宮４丁目４０番３９号,,27,124,5380031,,,,,,,2021-11-12,1,,,,,タチバナ,0
155,1122001035350,新規,0,2021-11-12,2021-11-12,株式会社Ｂｌｕｅ　ｒｏｓｅ,,株式会社,大阪府,八尾市,陽光園１丁目９番１５－２１３号,,27,212,5810086,,,,,,,2021-11-12,1,,,,,ブルーローズ,0
162,1140001123719,新規,0,2021-11-12,2021-11-12,Ｆ’ｓＮＥＸＴ株式会社,,株式会社,兵庫県,姫路市,安田４丁目６３番地ハクロビル４階,,28,201,6700955,,,,,,,2021-11-12,1,,,,,エフズネクスト,0
182,1230003001756,新規,0,2021-11-12,2021-11-12,合同会社ＬＩＮＫ　ＳＥＲＶＩＣＥ,,合同会社,富山県,富山市,大泉北町９番１９号,,16,201,9398097,,,,,,,2021-11-12,1,,,,,リンクサービス,0
183,1240001058921,新規,0,2021-11-12,2021-11-12,株式会社ＴＡＣＳ,,株式会社,広島県,広島市安佐南区,毘沙門台３丁目１１番８号,,34,105,7310152,,,,,,,2021-11-12,1,,,,,タクス,0
196,1260003003717,新規,0,2021-11-12,2021-11-12,合同会社ＳＯＴＡ．ＳＵＮ,,合同会社,岡山県,岡山市東区,南水門町２３４番地,,33,103,7048146,,,,,,,2021-11-12,1,,,,,ソータサン,0
206,1290001095365,新規,0,2021-11-12,2021-11-12,０１ｓｔｙｌｅ　Ｄｅｓｉｇｎ株式会社,,株式会社,福岡県,福岡市博多区,博多駅南４丁目１９番５号,,40,132,8120016,,,,,,,2021-11-12,1,,,,,ワンスタイルデザイン,0
216,1330005010431,新規,0,2021-11-12,2021-11-12,行政書士法人田島由希子事務所,,その他の設立登記法人,熊本県,熊本市東区,長嶺東１丁目４番７７－３号,,43,102,8618038,,,,,,,2021-11-12,1,,,,,タシマユキコジムショ,0
243,1480001011550,新規,0,2021-11-12,2021-11-12,株式会社藤原組,,株式会社,徳島県,阿南市,日開野町宮原７８番地６０,,36,204,7740013,,,,,,,2021-11-12,1,,,,,フジワラグミ,0
248,1700150103720,新規,0,2021-11-12,2021-06-15,吉田地区自治協議会,,その他,島根県,益田市,元町１１－２６吉田公民館内,,32,204,6980033,,,,,,,2021-06-15,1,,,,,ヨシダチクジチキヨウギカイ,0
249,1700150105741,新規,0,2021-11-12,2021-11-12,ＳＵＰＥＲ　ＭＡＸ　ＬＡＮＫＡ　ＥＮＴＥＲＰＲＩＳＥＳ,,外国会社等,千葉県,市原市,菊間１８３番地５オフィス１号,,12,219,2900007,スリランカ民主社会主義共和国、キャンディ、ラジャベーディヤ、５９－Ａ,,,,,,2021-11-12,1,,,,,スーパーマツクスランカエンタープライセス,0
261,2010001222458,新規,0,2021-11-12,2021-11-12,Ｎ－Ｋｉｔｃｈｅｎ株式会社,,株式会社,東京都,千代田区,神田神保町１丁目１３番地３ＤＩＣＥ神保町３階,,13,101,1010051,,,,,,,2021-11-12,1,,,,,エヌキッチン,0
265,2010003036278,新規,0,2021-11-12,2021-11-12,合同会社ＹＡＯＮＣ,,合同会社,東京都,千代田区,九段南１丁目５番６号りそな九段ビル５ＦＫＳフロア,,13,101,1020074,,,,,,,2021-11-12,1,,,,,ヤオネットコンサル,0
266,2010005034206,新規,0,2021-11-12,2021-11-12,一般社団法人プロジェクト・フォレスト,,その他の設立登記法人,東京都,千代田区,大手町１丁目１番２号,,13,101,1000004,,,,,,,2021-11-12,1,,,,,プロジェクトフォレスト,0
274,2010401163649,新規,0,2021-11-12,2021-11-12,株式会社ｈｄｓｐ　Ｔｏｋｙｏ,,株式会社,東京都,港区,南青山６丁目３－１３サーラ南青山３Ｆ,,13,103,1070062,,,,,,,2021-11-12,1,,,,,エイチディーエスピートウキョウ,0
275,2010401163681,新規,0,2021-11-12,2021-11-12,株式会社ジャストＴオーガニゼーション,,株式会社,東京都,港区,芝浦２丁目６番１１パークタワー芝浦ベイワードアーバンウィング２００１,,13,103,1080023,,,,,,,2021-11-12,1,,,,,ジャストティーオーガニゼーション,0
278,2010403026498,新規,0,2021-11-12,2021-11-12,合同会社日本トレイドロフト,,合同会社,東京都,港区,南青山２丁目２番１５号,,13,103,1070062,,,,,,,2021-11-12,1,,,,,ニホントレイドロフト,0
279,2010403026507,新規,0,2021-11-12,2021-11-12,合同会社ＧＳＧ,,合同会社,東京都,港区,南青山２丁目２番１５号ＷＩＮ青山５３１,,13,103,1070062,,,,,,,2021-11-12,1,,,,,ジーエスジー,0
282,2010501048089,新規,0,2021-11-12,2021-11-12,株式会社ＨＢＢ,,株式会社,東京都,台東区,浅草２丁目２８番２９号,,13,106,1110032,,,,,,,2021-11-12,1,,,,,エイチビービー,0
289,2010801032478,新規,0,2021-11-12,2021-11-12,株式会社アルファソーシャルサービス,,株式会社,東京都,大田区,南六郷１丁目２８番２１号,,13,111,1440045,,,,,,,2021-11-12,1,,,,,アルファソーシャルサービス,0
295,2011001143850,新規,0,2021-11-12,2021-11-12,株式会社オモローグ,,株式会社,東京都,渋谷区,桜丘町２３番１７号シティコート桜丘４０８,,13,113,1500031,,,,,,,2021-11-12,1,,,,,オモローグ,0
296,2011001143883,新規,0,2021-11-12,2021-11-12,山木株式会社,,株式会社,東京都,渋谷区,神宮前６丁目２３番４号桑野ビル２階,,13,113,1500001,,,,,,,2021-11-12,1,,,,,ヤマキ,0
297,2011001143900,新規,0,2021-11-12,2021-11-12,株式会社スマートエイト,,株式会社,東京都,渋谷区,渋谷２丁目１９－１５宮益坂ビルディング６０９,,13,113,1500002,,,,,,,2021-11-12,1,,,,,スマートエイト,0
298,2011001143909,新規,0,2021-11-12,2021-11-12,Ｇｏｏｄ　Ｌｉｆｅ　Ｊａｐａｎ株式会社,,株式会社,東京都,渋谷区,神宮前６丁目２３－４桑野ビル２Ｆ,,13,113,1500001,,,,,,,2021-11-12,1,,,,,グッドライフジャパン,0
299,2011003013663,新規,0,2021-11-12,2021-11-12,合同会社スタジオワイズ,,合同会社,東京都,渋谷区,渋谷２丁目１９―１５宮益坂ビルディング６０９,,13,113,1500002,,,,,,,2021-11-12,1,,,,,スタジオワイズ,0
300,2011003013696,新規,0,2021-11-12,2021-11-12,合同会社ＡＨプロパティーズ,,合同会社,東京都,渋谷区,恵比寿２丁目２８番１０号,,13,113,1500013,,,,,,,2021-11-12,1,,,,,エーエイチプロパティーズ,0
305,2011101096833,新規,0,2021-11-12,2021-11-12,株式会社いえらぶパーク,,株式会社,東京都,新宿区,西新宿２丁目６番１号,,13,104,1600023,,,,,,,2021-11-12,1,,,,,イエラブパーク,0
307,2011103011146,新規,0,2021-11-12,2021-11-12,合同会社Ｄｉｇｉｔａｌ　Ａｒｃｈ,,合同会社,東京都,新宿区,西新宿３丁目３番１３号西新宿水間ビル６Ｆ,,13,104,1600023,,,,,,,2021-11-12,1,,,,,デジタルアーチ,0
320,2011801039959,新規,0,2021-11-12,2021-11-12,株式会社Ｋａｙ　ＰＭ,,株式会社,東京都,足立区,綾瀬４丁目３１番１２号,,13,121,1200005,,,,,,,2021-11-12,1,,,,,ケイピーエム,0
322,2012801021213,新規,0,2021-11-12,2021-11-12,ＣｏＣｏ　Ｃｏｌｏｕｒ株式会社,,株式会社,東京都,国分寺市,光町１丁目２６－９Ｂ２０３,,13,214,1850034,,,,,,,2021-11-12,1,,,,,ココカラー,0
332,2020001143884,新規,0,2021-11-12,2021-11-12,株式会社ＡＰＰＡＲＥ,,株式会社,神奈川県,横浜市中区,山手町９番地３,,14,104,2310862,,,,,,,2021-11-12,1,,,,,アッパレ,0
338,2021001074459,新規,0,2021-11-12,2021-11-12,ＣＨＵＢＵ　ＭＯＴＯＲＳ株式会社,,株式会社,神奈川県,綾瀬市,寺尾台２丁目３１番３４号寺尾台ハイツＮｏ．１－２０２,,14,218,2521137,,,,,,,2021-11-12,1,,,,,チューブモータース,0
339,2021001074475,新規,0,2021-11-12,2021-11-12,株式会社プチマウンテン,,株式会社,神奈川県,足柄下郡湯河原町,土肥４丁目８－１７,,14,384,2590303,,,,,,,2021-11-12,1,,,,,プチマウンテン,0
345,2030001145293,新規,0,2021-11-12,2021-11-12,株式会社東栄,,株式会社,埼玉県,川口市,上青木西１丁目１８番１２号８号,,11,203,3330845,,,,,,,2021-11-12,1,,,,,トウエイ,0
346,2030001145310,新規,0,2021-11-12,2021-11-12,三生商事株式会社,,株式会社,埼玉県,蕨市,塚越５丁目１７番３号,,11,223,3350002,,,,,,,2021-11-12,1,,,,,サンセイショウジ,0
347,2030001145327,新規,0,2021-11-12,2021-11-12,株式会社プレステージ,,株式会社,埼玉県,三郷市,早稲田６丁目１２番１０号,,11,237,3410018,,,,,,,2021-11-12,1,,,,,プレステージ,0
357,2040001120824,新規,0,2021-11-12,2021-11-12,株式会社小柴不動産,,株式会社,千葉県,四街道市,物井１０６１番地,,12,228,2840012,,,,,,,2021-11-12,1,,,,,コシバフドウサン,0
358,2040001120956,新規,0,2021-11-12,2021-11-12,函館再生パートナーズ株式会社,,株式会社,千葉県,習志野市,本大久保１丁目２番２４－３０１号,,12,216,2750012,,,,,,,2021-11-12,1,,,,,ハコダテサイセイパートナーズ,0
361,2040003018926,新規,0,2021-11-12,2021-11-12,合同会社未来,,合同会社,千葉県,千葉市中央区,長洲１丁目２４番１号エスカイア本千葉第１－２１１号,,12,101,2600854,,,,,,,2021-11-12,1,,,,,ミライ,0
364,2040005021424,新規,0,2021-11-12,2021-11-12,一般社団法人Ｔｏｔａｌ　Ｗｅｌｌｎｅｓｓ　Ｃｏｎｓｕｌｔａｎｔ,,その他の設立登記法人,千葉県,流山市,後平井１７０番地（運Ｂ１０２街区１）７１２,,12,220,2700151,,,,,,,2021-11-12,1,,,,,トータルウェルネスコンサルタント,0
382,2080001024575,新規,0,2021-11-12,2021-11-12,Ｄデザイン株式会社,,株式会社,静岡県,静岡市葵区,昭府１丁目３－１,,22,101,4200871,,,,,,,2021-11-12,1,,,,,ディーデザイン,0
386,2080401025470,新規,0,2021-11-12,2021-11-12,株式会社小泉電気商会,,株式会社,静岡県,浜松市天竜区,山東３８３７番地の２,,22,137,4313303,,,,,,,2021-11-12,1,,,,,コイズミデンキショウカイ,0
387,2090001017272,新規,0,2021-11-12,2021-11-12,株式会社大健,,株式会社,山梨県,南アルプス市,寺部１０６８番地５,,19,208,4000337,,,,,,,2021-11-12,1,,,,,ダイケン,0
397,2120001241645,新規,0,2021-11-12,2021-11-12,株式会社サンヨー建材,,株式会社,大阪府,大阪市中央区,石町２丁目３番９号天満橋コードビル８Ｆ,,27,128,5400033,,,,,,,2021-11-12,1,,,,,サンヨーケンザイ,0
398,2120001241769,新規,0,2021-11-12,2021-11-12,ジュリアンファーム株式会社,,株式会社,大阪府,大阪市中央区,東心斎橋１丁目２番１－２６０３号,,27,128,5420083,,,,,,,2021-11-12,1,,,,,ジュリアンファーム,0
399,2120001241777,新規,0,2021-11-12,2021-11-12,百吉株式会社,,株式会社,大阪府,大阪市中央区,島之内１丁目１３－２９,,27,128,5420082,,,,,,,2021-11-12,1,,,,,ヒャクキチ,0
400,2120003020576,新規,0,2021-11-12,2021-11-12,合同会社Ｈａｐｐｉｎｅｓｓ,,合同会社,大阪府,大阪市東淀川区,相川２丁目２３－２２,,27,114,5330007,,,,,,,2021-11-12,1,,,,,ハピネス,0
401,2120003020584,新規,0,2021-11-12,2021-11-12,合同会社みくまり,,合同会社,大阪府,交野市,私市１丁目１番２４号２階,,27,230,5760033,,,,,,,2021-11-12,1,,,,,ミクマリ,0
402,2120005022604,新規,0,2021-11-12,2021-11-12,特定非営利活動法人そうあい,,その他の設立登記法人,大阪府,寝屋川市,讃良西町６番１号,,27,215,5720818,,,,,,,2021-11-12,1,,,,,ソウアイ,0
439,2180001148694,新規,0,2021-11-12,2021-11-12,株式会社宮本住建,,株式会社,愛知県,名古屋市緑区,大清水東８１３番地,,23,114,4580849,,,,,,,2021-11-12,1,,,,,ミヤモトジュウケン,0
447,2190005011641,新規,0,2021-11-12,2021-11-12,一般社団法人島ヶ原風おこし協議会,,その他の設立登記法人,三重県,伊賀市,島ヶ原１７３７番地,,24,216,5191711,,,,,,,2021-11-12,1,,,,,シマガハラカゼオコシキョウギカイ,0
448,2200001039404,新規,0,2021-11-12,2021-11-12,株式会社ＫＬＣ,,株式会社,岐阜県,本巣市,三橋１０４４番地８０,,21,218,5010406,,,,,,,2021-11-12,1,,,,,ケーエルシー,0
458,2240001058920,新規,0,2021-11-12,2021-11-12,株式会社ｃｒｅａｔｉｏｎｓ,,株式会社,広島県,安芸郡海田町,中店１４番１６号,,34,304,7360066,,,,,,,2021-11-12,1,,,,,クリエイションズ,0
466,2260001036206,新規,0,2021-11-12,2021-11-12,株式会社Ｉｎｆｉｔ,,株式会社,岡山県,都窪郡早島町,早島１８８７番地４－Ｂ２０１,,33,423,7010304,,,,,,,2021-11-12,1,,,,,インフィット,0
467,2260003003716,新規,0,2021-11-12,2021-11-12,吉星合同会社,,合同会社,岡山県,岡山市北区,津島福居１丁目１０番２４号,,33,101,7000080,,,,,,,2021-11-12,1,,,,,キチセツ,0
474,2290001095331,新規,0,2021-11-12,2021-11-12,株式会社Ｈｏｍｅ　ＣｏｏＫｉｎｇ　Ｊａｐａｎ,,株式会社,福岡県,福岡市博多区,博多駅東２丁目７番２７号,,40,132,8120013,,,,,,,2021-11-12,1,,,,,ホームクッキングジャパン,0
475,2290001095356,新規,0,2021-11-12,2021-11-12,株式会社Ｓｅｎｔｒｙ,,株式会社,福岡県,大野城市,下大利１丁目９番１４－３０３号,,40,219,8160952,,,,,,,2021-11-12,1,,,,,セントリー,0
476,2290001095372,新規,0,2021-11-12,2021-11-12,株式会社ＫＭパートナーズ,,株式会社,福岡県,福岡市南区,長住４丁目１１番９号,,40,134,8111362,,,,,,,2021-11-12,1,,,,,ケイエムパートナーズ,0
486,2340001024268,新規,0,2021-11-12,2021-11-12,信和サービス九州株式会社,,株式会社,鹿児島県,霧島市,溝辺町麓３２５番地１,,46,218,8996404,,,,,,,2021-11-12,1,,,,,シンワサービスキュウシュウ,0
489,2360003011543,新規,0,2021-11-12,2021-11-12,合同会社ゆい,,合同会社,沖縄県,糸満市,字大里２１１１番地の２、１階,,47,210,9010325,,,,,,,2021-11-12,1,,,,,ユイ,0
499,2430001085367,新規,0,2021-11-12,2021-11-12,株式会社シニアリンク,,株式会社,北海道,札幌市中央区,南一条西９丁目１５－２札幌南１条ビル４Ｆ,,01,101,0600061,,,,,,,2021-11-12,1,,,,,シニアリンク,0
501,2430003013359,新規,0,2021-11-12,2021-11-12,合同会社ＫＵＲＵＭＩ,,合同会社,北海道,札幌市北区,新琴似二条１０丁目４番８号,,01,102,0010902,,,,,,,2021-11-12,1,,,,,クルミ,0
513,2700150105740,新規,0,2021-11-12,2021-11-12,Ｄ．Ｔ．ＳＡＤＡＧＡＬＡ　ＥＮＴＥＲＰＲＩＳＥＳ,,外国会社等,千葉県,千葉市中央区,村田町８９３－１５６オフィスＮｏ．３,,12,101,2600825,スリランカ民主社会主義共和国、ケキラワ、マイルガスウェワ、Ｎｏ．２,,,,,,2021-11-12,1,,,,,デイーテイーサダガラエンタープライセス,0
515,3010001222408,新規,0,2021-11-12,2021-11-12,株式会社オールージュ,,株式会社,東京都,中央区,京橋２丁目１２番９号,,13,102,1040031,,,,,,,2021-11-12,1,,,,,オールージュ,0
530,3010401163664,新規,0,2021-11-12,2021-11-12,株式会社ＢＥＣＣＩＵ．,,株式会社,東京都,港区,北青山２丁目１４番４号,,13,103,1070061,,,,,,,2021-11-12,1,,,,,ベッチュウ,0
531,3010401163813,新規,0,2021-11-12,2021-11-12,株式会社サンタイドグループ,,株式会社,東京都,港区,浜松町２丁目２番１５号浜松町ダイヤビル２Ｆ,,13,103,1050013,,,,,,,2021-11-12,1,,,,,サンタイドグループ,0
536,3010501048088,新規,0,2021-11-12,2021-11-12,株式会社ゆい酒店,,株式会社,東京都,台東区,西浅草２丁目１６－７鞠子ビル１階店舗区画中央,,13,106,1110035,,,,,,,2021-11-12,1,,,,,ユイサケテン,0
546,3010901049784,新規,0,2021-11-12,2021-11-12,ＧＲＡＰＥ株式会社,,株式会社,東京都,世田谷区,北沢３丁目２－１１レガーロ東北沢３Ｆ－４,,13,112,1550031,,,,,,,2021-11-12,1,,,,,グレイプ,0
549,3011001143899,新規,0,2021-11-12,2021-11-12,株式会社相談箱,,株式会社,東京都,渋谷区,渋谷２丁目１９－１５宮益坂ビルディング６０９,,13,113,1500002,,,,,,,2021-11-12,1,,,,,ソウダンバコ,0
550,3011001143957,新規,0,2021-11-12,2021-11-12,ティーティー株式会社,,株式会社,東京都,渋谷区,神宮前５丁目１８番７号,,13,113,1500001,,,,,,,2021-11-12,1,,,,,ティーティー,0
554,3011003013695,新規,0,2021-11-12,2021-11-12,ＹＡＭＡＳＥＩ合同会社,,合同会社,東京都,渋谷区,神宮前６丁目２３番４号桑野ビル２階,,13,113,1500001,,,,,,,2021-11-12,1,,,,,ヤマセイ,0
559,3011101096808,新規,0,2021-11-12,2021-11-12,ＴｏｐｏｓＷａｒｅ　Ｊａｐａｎ株式会社,,株式会社,東京都,新宿区,四谷４丁目２９番地１,,13,104,1600004,,,,,,,2021-11-12,1,,,,,トポスウェアジャパン,0
560,3011101096840,新規,0,2021-11-12,2021-11-12,ＳＨＯＳＵＮ株式会社,,株式会社,東京都,新宿区,若葉１丁目４番地,,13,104,1600011,,,,,,,2021-11-12,1,,,,,ショウサン,0
565,3011401023833,新規,0,2021-11-12,2021-11-12,株式会社アプログラフィ,,株式会社,東京都,板橋区,成増１丁目１３番１３－４０３号,,13,119,1750094,,,,,,,2021-11-12,1,,,,,アプログラフィ,0
570,3012303001613,新規,0,2021-11-12,2021-11-12,ＺＥＲＯ　ＯＮＥ　ＰＬＵＳ合同会社,,合同会社,東京都,町田市,原町田２丁目２２番３０－６１３号,,13,209,1940013,,,,,,,2021-11-12,1,,,,,ゼロワンプラス,0
574,3012401038532,新規,0,2021-11-12,2021-11-12,株式会社ＰＲＯＩＥｐｌｕｓ,,株式会社,東京都,武蔵野市,境南町５丁目３番１４号清水ビルディング武蔵野１０１号室,,13,203,1800023,,,,,,,2021-11-12,1,,,,,プロイエプラス,0
577,3013101008767,新規,0,2021-11-12,2021-11-12,三和ホールディングス株式会社,,株式会社,東京都,青梅市,東青梅３丁目６番地の３,,13,205,1980042,,,,,,,2021-11-12,1,,,,,サンワホールディングス,0
581,3013301048258,新規,0,2021-11-12,2021-11-12,浩雲株式会社,,株式会社,東京都,豊島区,西池袋１丁目３１－５白井ビル３－６号室,,13,116,1710021,,,,,,,2021-11-12,1,,,,,コウウン,0
589,3020003020800,新規,0,2021-11-12,2021-11-12,合同会社さやかな光,,合同会社,神奈川県,横浜市中区,大和町１丁目２２番地１,,14,104,2310846,,,,,,,2021-11-12,1,,,,,サヤカナヒカリ,0
590,3020003020817,新規,0,2021-11-12,2021-11-12,合同会社ＬＯＭ,,合同会社,神奈川県,川崎市高津区,梶ケ谷６丁目１７－４,,14,134,2130015,,,,,,,2021-11-12,1,,,,,エルオーエム,0
599,3021001074466,新規,0,2021-11-12,2021-11-12,株式会社Ｆｕｌｌ　Ｆｒｏｎｔ,,株式会社,神奈川県,足柄上郡開成町,吉田島１６４１－４,,14,366,2580021,,,,,,,2021-11-12,1,,,,,フルフロント,0
600,3021005012348,新規,0,2021-11-12,2021-11-12,一般社団法人日本ヴィーガニズム協会,,その他の設立登記法人,神奈川県,横須賀市,安浦町１丁目１４番地,,14,201,2380012,,,,,,,2021-11-12,1,,,,,ニホンヴィーガニズムキョウカイ,0
624,3040003018933,新規,0,2021-11-12,2021-11-12,ＴＳＥＴＳＥＮ合同会社,,合同会社,千葉県,柏市,篠籠田１３５７－５－１０１,,12,217,2770862,,,,,,,2021-11-12,1,,,,,ツェツェン,0
627,3040005021423,新規,0,2021-11-12,2021-11-12,行政書士法人ひなた,,その他の設立登記法人,千葉県,市川市,市川１丁目７番１５号カメイビル２０３,,12,203,2720034,,,,,,,2021-11-12,1,,,,,ヒナタ,0
658,3080403004406,新規,0,2021-11-12,2021-11-12,ＳＡＹＯＮ　ＬＡＮＫＡ　ＦＯＯＤ合同会社,,合同会社,静岡県,磐田市,豊岡６７９０番地１,,22,211,4380231,,,,,,,2021-11-12,1,,,,,サヨンランカフード,0
659,3090001017271,新規,0,2021-11-12,2021-11-12,株式会社ライフリンク,,株式会社,山梨県,南アルプス市,小笠原１６０８番地５,,19,208,4000306,,,,,,,2021-11-12,1,,,,,ライフリンク,0
661,3100001034810,新規,0,2021-11-12,2021-11-12,株式会社隆工務店,,株式会社,長野県,長野市,差出南２丁目８－９－２０１号,,20,201,3800948,,,,,,,2021-11-12,1,,,,,タカコウムテン,0
672,3120001241784,新規,0,2021-11-12,2021-11-12,株式会社トータルハウス,,株式会社,大阪府,門真市,小路町７番３２号,,27,223,5710058,,,,,,,2021-11-12,1,,,,,トータルハウス,0
677,3120105009475,新規,0,2021-11-12,2021-11-12,一般社団法人日本アカネ再生機構,,その他の設立登記法人,大阪府,泉北郡忠岡町,忠岡北２丁目１番１４号,,27,341,5950811,,,,,,,2021-11-12,1,,,,,,0
679,3122001035349,新規,0,2021-11-12,2021-11-12,株式会社ＤＥＮＫＵＵ,,株式会社,大阪府,東大阪市,上小阪２丁目７番２７号,,27,227,5770806,,,,,,,2021-11-12,1,,,,,デンクウ,0
684,3130001070530,新規,0,2021-11-12,2021-11-12,株式会社誠機設,,株式会社,京都府,京都市右京区,嵯峨野秋街道町２５－２－２０３,,26,108,6168314,,,,,,,2021-11-12,1,,,,,マコトキセツ,0
717,3180001148702,新規,0,2021-11-12,2021-11-12,株式会社エイプリル・アカデミー,,株式会社,愛知県,名古屋市名東区,新宿１丁目２４０番地,,23,115,4650063,,,,,,,2021-11-12,1,,,,,エイプリルアカデミー,0
720,3180003023184,新規,0,2021-11-12,2021-11-12,合同会社ｓｉｇｎｓ,,合同会社,愛知県,名古屋市中川区,戸田明正２丁目２４１４番地,,23,110,4540961,,,,,,,2021-11-12,1,,,,,サインズ,0
760,3330001029176,新規,0,2021-11-12,2021-11-12,酒井塗装株式会社,,株式会社,熊本県,山鹿市,熊入町２８４番地８,,43,208,8610511,,,,,,,2021-11-12,1,,,,,サカイトソウ,0
772,3410001008015,新規,0,2021-11-12,2021-11-12,田畑建設株式会社,,株式会社,秋田県,大仙市,藤木字中野中１０番地,,05,212,0141412,,,,,,,2021-11-12,1,,,,,タバタケンセツ,0
775,3420001017650,新規,0,2021-11-12,2021-11-12,渋谷重機株式会社,,株式会社,青森県,むつ市,柳町３丁目１２番２０号,,02,208,0350031,,,,,,,2021-11-12,1,,,,,シブヤジュウキ,0
779,3430001085374,新規,0,2021-11-12,2021-11-12,株式会社飛塚企画,,株式会社,北海道,札幌市北区,新琴似町７８７番地１,,01,102,0010915,,,,,,,2021-11-12,1,,,,,トビツカキカク,0
780,3430001085382,新規,0,2021-11-12,2021-11-12,株式会社Ｑｕｂｉｔ,,株式会社,北海道,勇払郡安平町,早来栄町１３３番地２９,,01,585,0591505,,,,,,,2021-11-12,1,,,,,キュービット,0
800,4010001222489,新規,0,2021-11-12,2021-11-12,株式会社トキシラズ,,株式会社,東京都,中央区,日本橋２丁目２番２０号日本橋仲通りビル６Ｆ,,13,102,1030027,,,,,,,2021-11-12,1,,,,,トキシラズ,0
801,4010003036103,新規,0,2021-11-12,2021-11-12,漢王友基合同会社,,合同会社,東京都,千代田区,猿楽町二丁目４番１１号犬塚ビル２Ｄ号,00124842,13,101,1000000,,,,,,,2021-11-12,1,,,,,ハンワンユージー,0
813,4010401163779,新規,0,2021-11-12,2021-11-12,株式会社Ｓｋｙ　ｄｏｇ,,株式会社,東京都,港区,西麻布３丁目１７番３７－２０３号,,13,103,1060031,,,,,,,2021-11-12,1,,,,,スカイドッグ,0
814,4010405020381,新規,0,2021-11-12,2021-11-12,一般社団法人ルータス,,その他の設立登記法人,東京都,港区,南青山２丁目２番１５号ウィン青山９４２,,13,103,1070062,,,,,,,2021-11-12,1,,,,,ルータス,0
827,4010901049791,新規,0,2021-11-12,2021-11-12,株式会社サニーベール,,株式会社,東京都,世田谷区,玉川１丁目１５番３－１２１０号,,13,112,1580094,,,,,,,2021-11-12,1,,,,,サニーベール,0
833,4011001143873,新規,0,2021-11-12,2021-11-12,株式会社雑草,,株式会社,東京都,渋谷区,広尾１丁目１番地３５－７０１号,,13,113,1500012,,,,,,,2021-11-12,1,,,,,ザッソウ,0
834,4011001143881,新規,0,2021-11-12,2021-11-12,株式会社まるサポ,,株式会社,東京都,渋谷区,宇田川町３６番地１９号サーティー宇田川ビル３階３０２号室,,13,113,1500042,,,,,,,2021-11-12,1,,,,,マルサポ,0
835,4011001143948,新規,0,2021-11-12,2021-11-12,株式会社ＵＤＥＫＩＫＩ,,株式会社,東京都,渋谷区,代々木１丁目３２番１２号ＨＯＵＷＡビル４Ｆ,,13,113,1510053,,,,,,,2021-11-12,1,,,,,ウデキキ,0
839,4011103011160,新規,0,2021-11-12,2021-11-12,合同会社ローマ,,合同会社,東京都,新宿区,西新宿３丁目３－１３西新宿水間ビル６階,,13,104,1600023,,,,,,,2021-11-12,1,,,,,ローマ,0
849,4011501027477,新規,0,2021-11-12,2021-11-12,Ｒａｎｕｎｃｕｌｕｓ株式会社,,株式会社,東京都,北区,東田端１丁目８番９号グランドメゾンＭ２０１,,13,117,1140013,,,,,,,2021-11-12,1,,,,,ラナンキュラス,0
857,4012403005100,新規,0,2021-11-12,2021-11-12,合同会社藤盛興産,,合同会社,東京都,三鷹市,井の頭１丁目１６番２８号,,13,204,1810001,,,,,,,2021-11-12,1,,,,,フジモリコウサン,0
859,4013101008766,新規,0,2021-11-12,2021-11-12,資産管理１株式会社,,株式会社,東京都,青梅市,東青梅３丁目６番地の３,,13,205,1980042,,,,,,,2021-11-12,1,,,,,シサンカンリワン,0
861,4013301048257,新規,0,2021-11-12,2021-11-12,株式会社道下経営,,株式会社,東京都,豊島区,東池袋１丁目４４番１０号,,13,116,1700013,,,,,,,2021-11-12,1,,,,,ミチシタケイエイ,0
875,4020003020799,新規,0,2021-11-12,2021-11-12,合同会社エーワイイーハウス,,合同会社,神奈川県,横浜市旭区,笹野台４丁目２６－２２,,14,112,2410816,,,,,,,2021-11-12,1,,,,,エーワイイーハウス,0
878,4021001074416,新規,0,2021-11-12,2021-11-12,株式会社ア・ドマニー農園,,株式会社,神奈川県,相模原市中央区,相模原４丁目１１番１１号,,14,152,2520231,,,,,,,2021-11-12,1,,,,,アドマニーノウエン,0
879,4021001074457,新規,0,2021-11-12,2021-11-12,株式会社ＭＳ,,株式会社,神奈川県,綾瀬市,早川１２５０番地１３,,14,218,2521123,,,,,,,2021-11-12,1,,,,,エムエス,0
880,4021001074473,新規,0,2021-11-12,2021-11-12,株式会社Ｖｅｎｌｙ,,株式会社,神奈川県,相模原市中央区,中央５丁目５－１,,14,152,2520239,,,,,,,2021-11-12,1,,,,,ベンリー,0
893,4030001145309,新規,0,2021-11-12,2021-11-12,株式会社Ｌｅ．ｌｉｅｎ,,株式会社,埼玉県,和光市,丸山台１丁目６番１１号,,11,229,3510112,,,,,,,2021-11-12,1,,,,,ルリアン,0
900,4030005020631,新規,0,2021-11-12,2021-11-12,オハナふじみ野上野台ブロッサム管理組合法人,,その他の設立登記法人,埼玉県,ふじみ野市,上野台１丁目４番１号,,11,245,3560017,,,,,,,2021-11-12,1,,,,,オハナフジミノウエノダイブロッサム,0
908,4040001120962,新規,0,2021-11-12,2021-11-12,株式会社ＲＩＫ,,株式会社,千葉県,鎌ケ谷市,くぬぎ山１丁目５番４３－９号,,12,224,2730128,,,,,,,2021-11-12,1,,,,,アールアイケー,0
925,4080001024573,新規,0,2021-11-12,2021-11-12,株式会社日本ランペイジ,,株式会社,静岡県,静岡市駿河区,宮本町９番２５－４０１号,,22,102,4228065,,,,,,,2021-11-12,1,,,,,ニホンランペイジ,0
927,4090001017270,新規,0,2021-11-12,2021-11-12,株式会社不二の家,,株式会社,山梨県,富士吉田市,竜ケ丘３丁目１番４号,,19,202,4030014,,,,,,,2021-11-12,1,,,,,,0
936,4120003020541,新規,0,2021-11-12,2021-11-12,合同会社スチールラック,,合同会社,大阪府,守口市,八雲西町１丁目４６－８,,27,209,5700006,,,,,,,2021-11-12,1,,,,,スチールラック,0
937,4120003020574,新規,0,2021-11-12,2021-11-12,合同会社レーベ,,合同会社,大阪府,大阪市中央区,東心斎橋２丁目６番５号エイトワンビル１０階,,27,128,5420083,,,,,,,2021-11-12,1,,,,,レーベ,0
940,4120105009474,新規,0,2021-11-12,2021-11-12,一般社団法人あかり,,その他の設立登記法人,大阪府,高石市,西取石７丁目１番４１号,,27,225,5920012,,,,,,,2021-11-12,1,,,,,アカリ,0
943,4122001035348,新規,0,2021-11-12,2021-11-12,株式会社田中屋,,株式会社,大阪府,八尾市,東山本新町８丁目１４番１５号,,27,212,5810866,,,,,,,2021-11-12,1,,,,,タナカヤ,0
959,4140001123831,新規,0,2021-11-12,2021-11-12,株式会社ＡＢＥＬＩＡ,,株式会社,兵庫県,神戸市東灘区,向洋町中６丁目９番地,,28,101,6580032,,,,,,,2021-11-12,1,,,,,アベリア,0
965,4140003016967,新規,0,2021-11-12,2021-11-12,合同会社ＮＫ　Ｌｅａｒｎｉｎｇ,,合同会社,兵庫県,西宮市,甲子園一番町１０－２,,28,204,6638171,,,,,,,2021-11-12,1,,,,,エヌケーラーニング,0
972,4170003001660,新規,0,2021-11-12,2021-11-12,わたがしリサーチ合同会社,,合同会社,和歌山県,和歌山市,福島６４０－１－１－１０１,,30,201,6408401,,,,,,,2021-11-12,1,,,,,ワタガシリサーチ,0
980,4180001148701,新規,0,2021-11-12,2021-11-12,株式会社ファーマプロセス,,株式会社,愛知県,名古屋市中村区,名駅４丁目５番２７号大一名駅ビル３階,,23,105,4500002,,,,,,,2021-11-12,1,,,,,ファーマプロセス,0
981,4180001148718,新規,0,2021-11-12,2021-11-12,株式会社Ｋｅｅ,,株式会社,愛知県,名古屋市中区,栄１丁目２０番１０号グランアベニュー栄１４０８号,,23,106,4600008,,,,,,,2021-11-12,1,,,,,キー,0
988,4180003023175,新規,0,2021-11-12,2021-11-12,合同会社Ｇｏｌｄｅｎ　Ｔｒａｄｉｎｇ　Ｉｎｔｅｒｎａｔｉｏｎａｌ,,合同会社,愛知県,名古屋市南区,西又兵ヱ町１丁目２５番地の５（廣瀬マンション大江６０１号）,00124838,23,112,4570835,,,,,,,2021-11-12,1,,,,,ゴールデントレーディングインターナショナル,0
993,4190001028860,新規,0,2021-11-12,2021-11-12,株式会社ＢＵＡＲＴＳ,,株式会社,三重県,四日市市,市場町１４６８番地,,24,202,5121302,,,,,,,2021-11-12,1,,,,,バーツ,0
994,4190003003820,新規,0,2021-11-12,2021-11-12,合同会社ＧＬＯＢＡＬ　ＴＲＡＤＩＮＧ　ＧＲＯＵＰ,,合同会社,三重県,津市,白塚町１８５１番地,00124839,24,201,5140101,,,,,,,2021-11-12,1,,,,,グローバルトレーディンググループ,0
1007,4240001058919,新規,0,2021-11-12,2021-11-12,株式会社クリーンスペースサービス,,株式会社,広島県,広島市安佐南区,毘沙門台４丁目３番１３号,,34,105,7310152,,,,,,,2021-11-12,1,,,,,クリーンスペースサービス,0
1023,4310001017578,新規,0,2021-11-12,2021-11-12,株式会社大樹建設,,株式会社,長崎県,大村市,日泊町１６２３番地１,,42,205,8560846,,,,,,,2021-11-12,1,,,,,タイキ,0
1025,4320001018724,新規,0,2021-11-12,2021-11-12,Ｈａｒｅ株式会社,,株式会社,大分県,大分市,中央町２丁目９番３３号,,44,201,8700035,,,,,,,2021-11-12,1,,,,,ヘアー,0
1028,4330001029175,新規,0,2021-11-12,2021-11-12,株式会社グロースケイパビリティ,,株式会社,熊本県,熊本市中央区,草葉町１番１３－３０２号トーカンマンション上通弐番館,,43,101,8600843,,,,,,,2021-11-12,1,,,,,グロースケイパビリティ,0
1031,4340001024258,新規,0,2021-11-12,2021-11-12,クレア株式会社,,株式会社,鹿児島県,鹿児島市,小野２丁目１３番地６３号,,46,201,8900021,,,,,,,2021-11-12,1,,,,,クレア,0
1034,4360003011566,新規,0,2021-11-12,2021-11-12,合同会社アーク・セカンド,,合同会社,沖縄県,島尻郡与那原町,字東浜５番地６,,47,348,9011304,,,,,,,2021-11-12,1,,,,,アークセカンド,0
1045,4430001022995,新規,0,2021-11-12,2021-11-12,株式会社丸五トーア,,株式会社,北海道,札幌市北区,麻生町５丁目７番１８号,,01,102,0010045,,,,,,,2021-11-12,1,,,,,マルゴトーア,0
1053,4430003013357,新規,0,2021-11-12,2021-11-12,合同会社ＶＩＬＩＺＥ,,合同会社,北海道,札幌市豊平区,月寒東二条３丁目７番１９－３０２号,,01,105,0620052,,,,,,,2021-11-12,1,,,,,ヴィライズ,0
1064,4700150105747,新規,0,2021-11-12,2021-11-12,ＣＯＳＭＩＣ　ＧＥＭ,,外国会社等,千葉県,千葉市若葉区,金親町５００番地３ビジネスオフィス２１号,,12,104,2640001,スリランカ民主社会主義共和国、キャンディ、アクラナ、ニーレラ、マタレロード９２４,,,,,,2021-11-12,1,,,,,コスミツクゲム,0
1071,5010001222430,新規,0,2021-11-12,2021-11-12,ジャパン・マルチハンターズ株式会社,,株式会社,東京都,千代田区,神田松永町７,,13,101,1010023,,,,,,,2021-11-12,1,,,,,ジャパンマルチハンターズ,0
1080,5010401163803,新規,0,2021-11-12,2021-11-12,株式会社ＤＹＮＡＭＯ,,株式会社,東京都,港区,浜松町２丁目２番１５号浜松町ダイヤビル２Ｆ,,13,103,1050013,,,,,,,2021-11-12,1,,,,,ダイナモ,0
1085,5010403026479,新規,0,2021-11-12,2021-11-12,アリエローズ合同会社,,合同会社,東京都,港区,芝１丁目１２番１７号,,13,103,1050014,,,,,,,2021-11-12,1,,,,,,0
1086,5010403026504,新規,0,2021-11-12,2021-11-12,ｃｏｓｏｕ合同会社,,合同会社,東京都,港区,浜松町２丁目２番１５号浜松町ダイヤビル２Ｆ,,13,103,1050013,,,,,,,2021-11-12,1,,,,,コウソウ,0
1089,5010405020380,新規,0,2021-11-12,2021-11-12,一般社団法人進歩総合研究所,,その他の設立登記法人,東京都,港区,新橋６丁目１３番１２号木澤ビル２階,,13,103,1050004,,,,,,,2021-11-12,1,,,,,シンポソウゴウケンキュウジョ,0
1093,5010505003277,新規,0,2021-11-12,2021-11-12,一般社団法人日本バーチャルゴルフ協会,,その他の設立登記法人,東京都,台東区,駒形２丁目７番４号駒形ビル,,13,106,1110043,,,,,,,2021-11-12,1,,,,,ニホンバーチャルゴルフキョウカイ,0
1104,5010901049774,新規,0,2021-11-12,2021-11-12,株式会社ＦｌｏｗｅｒＰｉｃｎｉｃＣａｆｅ,,株式会社,東京都,世田谷区,松原５丁目５８－１６,,13,112,1560043,,,,,,,2021-11-12,1,,,,,フラワーピクニックカフェ,0
1105,5010901049782,新規,0,2021-11-12,2021-11-12,岡部設備株式会社,,株式会社,東京都,世田谷区,羽根木１丁目９－６－１０２,,13,112,1560042,,,,,,,2021-11-12,1,,,,,,0
1107,5010903006930,新規,0,2021-11-12,2021-11-12,コージーハンズ合同会社,,合同会社,東京都,世田谷区,世田谷１丁目１４番１８号,,13,112,1540017,,,,,,,2021-11-12,1,,,,,コージーハンズ,0
1113,5011001143880,新規,0,2021-11-12,2021-11-12,株式会社ＳＩＭＰＬＥＧＩＴ,,株式会社,東京都,渋谷区,渋谷２丁目１９－１５宮益坂ビルディング６０９,,13,113,1500002,,,,,,,2021-11-12,1,,,,,シンプレジット,0
1114,5011001143922,新規,0,2021-11-12,2021-11-12,マグノリアインターナショナル株式会社,,株式会社,東京都,渋谷区,道玄坂１丁目２番３号渋谷フクラス１７階,,13,113,1500043,,,,,,,2021-11-12,1,,,,,マグノリアインターナショナル,0
1116,5011003013693,新規,0,2021-11-12,2021-11-12,合同会社マッハ,,合同会社,東京都,渋谷区,代々木１丁目４２番２号代々木ｂｅｒｒｙ２０１号室,,13,113,1510053,,,,,,,2021-11-12,1,,,,,マッハ,0
1117,5011003013710,新規,0,2021-11-12,2021-11-12,合同会社浅野,,合同会社,東京都,渋谷区,富ヶ谷１丁目９番１５号ウイハウス２０６号,,13,113,1510063,,,,,,,2021-11-12,1,,,,,アサノ,0
1118,5011105010044,新規,0,2021-11-12,2021-11-12,行政書士法人オンオールサイズ,,その他の設立登記法人,東京都,新宿区,四谷４丁目２番地ビアンコ四谷１０Ｆ,,13,104,1600004,,,,,,,2021-11-12,1,,,,,オンオールサイズ,0
1132,5012401038530,新規,0,2021-11-12,2021-11-12,株式会社市川,,株式会社,東京都,調布市,若葉町３丁目７番地１アーデンコートつつじヶ丘Ｃ３４０１,,13,208,1820003,,,,,,,2021-11-12,1,,,,,イチカワ,0
1137,5012701016772,新規,0,2021-11-12,2021-11-12,株式会社オイソ,,株式会社,東京都,西東京市,田無町２丁目４番８－５０１号,,13,229,1880011,,,,,,,2021-11-12,1,,,,,オイソ,0
1155,5020001143849,新規,0,2021-11-12,2021-11-12,株式会社濱んちゅう,,株式会社,神奈川県,横浜市中区,山下町８４番地パークサイドマンション３０２号室,,14,104,2310023,,,,,,,2021-11-12,1,,,,,ハマンチュウ,0
1161,5020003020765,新規,0,2021-11-12,2021-11-12,合同会社ねこコーポレーション,,合同会社,神奈川県,川崎市宮前区,菅生６丁目３５番３４号,,14,136,2160015,,,,,,,2021-11-12,1,,,,,ネココーポレーション,0
1164,5021001074456,新規,0,2021-11-12,2021-11-12,ＡＬ　ＡＲＥＥＳＨ　ＳＨＩＰＰＩＮＧ株式会社,,株式会社,神奈川県,厚木市,山際９３０番６号,,14,212,2430803,,,,,,,2021-11-12,1,,,,,アリアレーシュシッピング,0
1171,5030001145332,新規,0,2021-11-12,2021-11-12,株式会社Ｌｉｎｃｌｅ,,株式会社,埼玉県,さいたま市浦和区,前地２丁目１０番２６号ミハス浦和１０２,,11,107,3300053,,,,,,,2021-11-12,1,,,,,リンクル,0
1181,5040001120920,新規,0,2021-11-12,2021-11-12,株式会社Ｓｏｌｏ’ｓ,,株式会社,千葉県,千葉市花見川区,犢橋町１６６４番地１５,,12,102,2620013,,,,,,,2021-11-12,1,,,,,ソロズ,0
1182,5040001120961,新規,0,2021-11-12,2021-11-12,株式会社ＪＴＭ商事,,株式会社,千葉県,富津市,大堀１丁目２８番地１７,,12,226,2930001,,,,,,,2021-11-12,1,,,,,ジェイティエムショウジ,0
1195,5070003004292,新規,0,2021-11-12,2021-11-12,合同会社ＴＺＫ,,合同会社,群馬県,前橋市,大渡町１丁目６番地９津田ビル３０３,,10,201,3710854,,,,,,,2021-11-12,1,,,,,ティーゼットケー,0
1202,5100001034809,新規,0,2021-11-12,2021-11-12,宏偉株式会社,,株式会社,長野県,小諸市,南町２丁目２－１,,20,208,3840012,,,,,,,2021-11-12,1,,,,,コウイ,0
1213,5120002036001,新規,0,2021-11-12,2021-11-12,有限会社三恵屋,,有限会社,大阪府,大阪市中央区,心斎橋筋１丁目５番２０号,,27,128,5420085,,,,,,,2021-11-12,1,,,,,ミヨシヤ,0
1214,5120003020581,新規,0,2021-11-12,2021-11-12,ＮＣＣ　ＧＲＯＵＰ合同会社,,合同会社,大阪府,大阪市西成区,鶴見橋２丁目１１番１号,,27,122,5570031,,,,,,,2021-11-12,1,,,,,エヌシーシーグループ,0
1219,5120105009473,新規,0,2021-11-12,2021-11-12,Ｓｍｉｌｅ司法書士法人,,その他の設立登記法人,大阪府,堺市北区,長曽根町１３０番地２３堺商工会議所,,27,146,5918025,,,,,,,2021-11-12,1,,,,,スマイル,0
1224,5122001035355,新規,0,2021-11-12,2021-11-12,株式会社新栄工芸,,株式会社,大阪府,東大阪市,衣摺６丁目３番２０号,,27,227,5770827,,,,,,,2021-11-12,1,,,,,シンエイコウゲイ,0
1225,5122003002213,新規,0,2021-11-12,2021-11-12,合同会社Ｈｏｐｅ　Ｄｒｅａｍ,,合同会社,大阪府,東大阪市,旭町２番５－５０７号,,27,227,5798048,,,,,,,2021-11-12,1,,,,,ホープドリーム,0
1237,5140001123789,新規,0,2021-11-12,2021-11-12,株式会社ＥＳＭ,,株式会社,兵庫県,高砂市,米田町米田９５７番地の３荒木ハイツ２０３号室,,28,216,6760805,,,,,,,2021-11-12,1,,,,,イーエスエム,0
1238,5140001123830,新規,0,2021-11-12,2021-11-12,株式会社Ｆｏｒ　Ｃｒｅａｔｅ,,株式会社,兵庫県,尼崎市,次屋３丁目６－４０,,28,202,6610965,,,,,,,2021-11-12,1,,,,,フォークリエイト,0
1239,5140001123847,新規,0,2021-11-12,2021-11-12,ヤクモＨＤ株式会社,,株式会社,兵庫県,尼崎市,御園町２４番地尼崎第一ビル４０２号,,28,202,6600861,,,,,,,2021-11-12,1,,,,,ヤクモエイチディー,0
1240,5140003016958,新規,0,2021-11-12,2021-11-12,合同会社フラワーガーデン,,合同会社,兵庫県,伊丹市,清水４丁目２番１４号,,28,207,6640894,,,,,,,2021-11-12,1,,,,,フラワーガーデン,0
1241,5140003016974,新規,0,2021-11-12,2021-11-12,Ａ１０合同会社,,合同会社,兵庫県,芦屋市,南宮町３番１２号,,28,206,6590024,,,,,,,2021-11-12,1,,,,,エージュウ,0
1242,5150003002544,新規,0,2021-11-12,2021-11-12,合同会社すばる,,合同会社,奈良県,奈良市,古市町２１３９番地の１４,,29,201,6308424,,,,,,,2021-11-12,1,,,,,スバル,0
1246,5160001023806,新規,0,2021-11-12,2021-11-12,株式会社Ｓａｋｕｒａ,,株式会社,滋賀県,草津市,南山田町１１２１番地４３,,25,206,5250063,,,,,,,2021-11-12,1,,,,,サクラ,0
1263,5180001148700,新規,0,2021-11-12,2021-11-12,株式会社ＪＯＹＣＡＳ,,株式会社,愛知県,名古屋市天白区,原１丁目１９０２山田ビル２Ｆ,,23,116,4680015,,,,,,,2021-11-12,1,,,,,ジョイキャス,0
1265,5180003023190,新規,0,2021-11-12,2021-11-12,合同会社ＳｏＲａ,,合同会社,愛知県,あま市,森山堂建４３番地１,,23,237,4901223,,,,,,,2021-11-12,1,,,,,ソラ,0
1268,5180303005161,新規,0,2021-11-12,2021-11-12,ｉＭｉｒａｉ合同会社,,合同会社,愛知県,豊川市,大堀町９６番地１階,,23,207,4420013,,,,,,,2021-11-12,1,,,,,イミライ,0
1276,5230003001752,新規,0,2021-11-12,2021-11-12,アットクリーン合同会社,,合同会社,富山県,富山市,堤町通り２丁目３番１０号,,16,201,9300046,,,,,,,2021-11-12,1,,,,,アットクリーン,0
1283,5240005015295,新規,0,2021-11-12,2021-11-12,司法書士法人いわさき総合事務所,,その他の設立登記法人,広島県,広島市佐伯区,五日市中央２丁目９番１号,,34,108,7315128,,,,,,,2021-11-12,1,,,,,イワサキソウゴウジムショ,0
1298,5310001017577,新規,0,2021-11-12,2021-11-12,株式会社ＬＩＦＩＸ,,株式会社,長崎県,佐世保市,椎木町１２０番地１関戸ビル２０２,,42,202,8580925,,,,,,,2021-11-12,1,,,,,リフィックス,0
1301,5310003004210,新規,0,2021-11-12,2021-11-12,合同会社弥和,,合同会社,長崎県,長崎市,エミネント葉山町１番１－４０３号,,42,201,8528054,,,,,,,2021-11-12,1,,,,,ミワ,0
1302,5330001029174,新規,0,2021-11-12,2021-11-12,株式会社ＮＩＹＯ,,株式会社,熊本県,菊池郡菊陽町,武蔵ヶ丘北３丁目１－２８ウッドフォレスト元気の森公園３０６号,,43,404,8691112,,,,,,,2021-11-12,1,,,,,ニヨ,0
1307,5360003011565,新規,0,2021-11-12,2021-11-12,合同会社ワイズ,,合同会社,沖縄県,中頭郡北中城村,字喜舎場２７８番地の４,,47,327,9012311,,,,,,,2021-11-12,1,,,,,,0
1319,5380001032330,新規,0,2021-11-12,2021-11-12,株式会社石田工房,,株式会社,福島県,郡山市,富久山町久保田字三御堂７０番地の４,,07,203,9638071,,,,,,,2021-11-12,1,,,,,イシダコウボウ,0
1328,5390001016679,新規,0,2021-11-12,2021-11-12,株式会社Ｃａｐｅ　ｊａｓｍｉｎｅ,,株式会社,山形県,鶴岡市,のぞみ町８‐４８,,06,203,9970819,,,,,,,2021-11-12,1,,,,,ケイプジャズミン,0
1339,5430003013356,新規,0,2021-11-12,2021-11-12,合同会社タムラ,,合同会社,北海道,札幌市中央区,南二十条西１３丁目１番３９号,,01,101,0640920,,,,,,,2021-11-12,1,,,,,タムラ,0
1343,5460101007083,新規,0,2021-11-12,2021-11-12,株式会社リンク,,株式会社,北海道,帯広市,西十六条南４丁目１８番１４号,,01,207,0800026,,,,,,,2021-11-12,1,,,,,リンク,0
1352,5500001023804,新規,0,2021-11-12,2021-11-12,株式会社ナチュタル,,株式会社,愛媛県,新居浜市,新田町１丁目５番１８号,,38,205,7920003,,,,,,,2021-11-12,1,,,,,ナチュタル,0
1355,5700150105738,新規,0,2021-11-12,2021-11-12,Ｂ．Ｇ．ＳＨＥＫＡ　ＥＮＴＥＲＰＲＩＳＥＳ,,外国会社等,千葉県,千葉市中央区,村田町８９３－１５６オフィスＮｏ．２,,12,101,2600825,スリランカ民主社会主義共和国、マタラ、ランブルガムワ、ゴダカンダ、サマルグラマヤ、ピアナンダ、Ｎｏ．１２３／１,,,,,,2021-11-12,1,,,,,ビイージイーシエカエンタープライセス,0
1356,5700150105762,新規,0,2021-11-12,2021-11-12,株式会社慢茶羅,,外国会社等,兵庫県,神戸市灘区,備後町５丁目２－１６－１３０１,,28,102,6570037,大韓民国釜山広域市沙上区鶴甘大路２３８－２６，４０１号（甘田洞）,,,,,,2021-11-12,1,,,,,カブシキガイシヤマンダラ,0
1360,6010001222413,新規,0,2021-11-12,2021-11-12,征インターナショナル株式会社,,株式会社,東京都,千代田区,神田駿河台３丁目１番地８,,13,101,1010062,,,,,,,2021-11-12,1,,,,,セイインターナショナル,0
1370,6010401163802,新規,0,2021-11-12,2021-11-12,株式会社Ｆｒｅｕｄｅ,,株式会社,東京都,港区,西麻布４丁目４番１１号麻布クレセント４０１,,13,103,1060031,,,,,,,2021-11-12,1,,,,,フロイデ,0
1373,6010403026445,新規,0,2021-11-12,2021-11-12,合同会社ｔｏ　ｂ,,合同会社,東京都,港区,新橋５丁目６－５－１３０３,,13,103,1050004,,,,,,,2021-11-12,1,,,,,トゥービー,0
1374,6010405020413,新規,0,2021-11-12,2021-11-12,一般社団法人強羅花壇京都,,その他の設立登記法人,東京都,港区,虎ノ門５丁目１番４号,,13,103,1050001,,,,,,,2021-11-12,1,,,,,ゴウラカダンキョウト,0
1387,6010801032482,新規,0,2021-11-12,2021-11-12,何でも屋本舗株式会社,,株式会社,東京都,大田区,南馬込１丁目３番２－３０２号,,13,111,1430025,,,,,,,2021-11-12,1,,,,,ナンデモヤホンポ,0
1393,6011001143847,新規,0,2021-11-12,2021-11-12,ＵＮＯ株式会社,,株式会社,東京都,渋谷区,上原２丁目１１番地１９号,,13,113,1510064,,,,,,,2021-11-12,1,,,,,ウノ,0
1394,6011001143962,新規,0,2021-11-12,2021-11-12,株式会社アトリエえい子,,株式会社,東京都,渋谷区,代々木１丁目２５番５号ＢＩＺＳＭＡＲＴ代々木,,13,113,1510053,,,,,,,2021-11-12,1,,,,,アトリエエイコ,0
1405,6011801039963,新規,0,2021-11-12,2021-11-12,株式会社ＴＡＥ　ＳＥＵＮＧ,,株式会社,東京都,足立区,六月２丁目３３番１４号,,13,121,1210814,,,,,,,2021-11-12,1,,,,,テスン,0
1410,6012403005107,新規,0,2021-11-12,2021-11-12,合同会社シュウユウ,,合同会社,東京都,調布市,仙川町１丁目３３番５０号,,13,208,1820002,,,,,,,2021-11-12,1,,,,,シュウユウ,0
1430,6020003020806,新規,0,2021-11-12,2021-11-12,Ｒ＆Ｎパートナーズ合同会社,,合同会社,神奈川県,横浜市青葉区,梅が丘３６番地８０,,14,117,2270052,,,,,,,2021-11-12,1,,,,,アールアンドエヌパートナーズ,0
1431,6020003020814,新規,0,2021-11-12,2021-11-12,合同会社ＧＲＥＥＮ　ＣＡＰＥ,,合同会社,神奈川県,横浜市保土ケ谷区,鎌谷町２６４番地１７,,14,106,2400063,,,,,,,2021-11-12,1,,,,,グリーンケープ,0
1451,6030001145323,新規,0,2021-11-12,2021-11-12,株式会社ＳＯＦ,,株式会社,埼玉県,蕨市,中央６丁目１２番２７号,,11,223,3350004,,,,,,,2021-11-12,1,,,,,ソフ,0
1455,6030003018254,新規,0,2021-11-12,2021-11-12,合同会社ＲＥＭＯＶＥ,,合同会社,埼玉県,さいたま市桜区,西堀３丁目１１番１７号エルセリート中浦和ＩＩ２０１号室,00124844,11,106,3380832,,,,,,,2021-11-12,1,,,,,リムーヴ,0
1459,6040001120960,新規,0,2021-11-12,2021-11-12,株式会社ＩＲ内海,,株式会社,千葉県,我孫子市,中里７７９番地の２,,12,222,2701122,,,,,,,2021-11-12,1,,,,,アイアールウチウミ,0
1460,6040001120969,新規,0,2021-11-12,2021-11-12,株式会社Ｍａｎｎｅｒｉｓｍ,,株式会社,千葉県,八街市,榎戸４０７番地,,12,230,2891106,,,,,,,2021-11-12,1,,,,,マンネリズム,0
1468,6040005021420,新規,0,2021-11-12,2021-11-12,一般社団法人タント・リーブス,,その他の設立登記法人,千葉県,浦安市,高洲３丁目１５番２２号,,12,227,2790023,,,,,,,2021-11-12,1,,,,,タントリーブス,0
1482,6080001024571,新規,0,2021-11-12,2021-11-12,株式会社日季,,株式会社,静岡県,静岡市葵区,研屋町５７番地の２,,22,101,4200029,,,,,,,2021-11-12,1,,,,,ニッキ,0
1486,6080105006185,新規,0,2021-11-12,2021-11-12,特定非営利活動法人伊豆ヘルスケア,,その他の設立登記法人,静岡県,下田市,須崎８８３番地,,22,219,4150014,,,,,,,2021-11-12,1,,,,,イズヘルスケア,0
1502,6120001241699,新規,0,2021-11-12,2021-11-12,株式会社スリーエイト,,株式会社,大阪府,大阪市住吉区,苅田５丁目１６番１５号,,27,120,5580011,,,,,,,2021-11-12,1,,,,,スリーエイト,0
1507,6120003020580,新規,0,2021-11-12,2021-11-12,合同会社トリトン,,合同会社,大阪府,大阪市中央区,東心斎橋１丁目８番１４号,,27,128,5420083,,,,,,,2021-11-12,1,,,,,トリトン,0
1516,6120103004434,新規,0,2021-11-12,2021-11-12,合同会社Ｔａｋｅ　ｆｏｏ,,合同会社,大阪府,堺市堺区,中瓦町１丁４番２２号大阪信用金庫堺東ビル２Ｆ,,27,141,5900077,,,,,,,2021-11-12,1,,,,,テイクフー,0
1531,6140001123846,新規,0,2021-11-12,2021-11-12,メディカルセンター株式会社,,株式会社,兵庫県,尼崎市,御園町２４番地尼崎第一ビル４０２号,,28,202,6600861,,,,,,,2021-11-12,1,,,,,メディカルセンター,0
1535,6140003016949,新規,0,2021-11-12,2021-11-12,さざんかデベロップメント合同会社,,合同会社,兵庫県,神戸市中央区,琴ノ緒町５丁目４番１１号,,28,110,6510094,,,,,,,2021-11-12,1,,,,,サザンカデベロップメント,0
1536,6140003016973,新規,0,2021-11-12,2021-11-12,ブラウヘルツ合同会社,,合同会社,兵庫県,神戸市中央区,琴ノ緒町３丁目３－２１かまぼこビル２Ｆ東,,28,110,6510094,,,,,,,2021-11-12,1,,,,,ブラウヘルツ,0
1542,6170003001659,新規,0,2021-11-12,2021-11-12,合同会社綾,,合同会社,和歌山県,和歌山市,満屋１９１－７,,30,201,6496271,,,,,,,2021-11-12,1,,,,,アヤ,0
1551,6180001148690,新規,0,2021-11-12,2021-11-12,株式会社ＭＩＲＡＩ,,株式会社,愛知県,名古屋市南区,呼続元町２７番２２号,,23,112,4570011,,,,,,,2021-11-12,1,,,,,ミライ,0
1563,6230001019093,新規,0,2021-11-12,2021-11-12,株式会社ＳＵＢ,,株式会社,富山県,魚津市,友道２２７０番地,,16,204,9370806,,,,,,,2021-11-12,1,,,,,エスユービー,0
1575,6240001058909,新規,0,2021-11-12,2021-11-12,ＣＯＣＯＨｏｍｅ株式会社,,株式会社,広島県,福山市,川口町２丁目１８番２３号,,34,207,7200822,,,,,,,2021-11-12,1,,,,,ココホーム,0
1576,6240001058917,新規,0,2021-11-12,2021-11-12,株式会社ビルドネクト,,株式会社,広島県,三原市,明神３丁目６番１号,,34,204,7230046,,,,,,,2021-11-12,1,,,,,ビルドネクト,0
1592,6290003011828,新規,0,2021-11-12,2021-11-12,合同会社Ｉ‐ＣＯＮ,,合同会社,福岡県,福岡市博多区,西月隈２丁目４番３３号,,40,132,8120857,,,,,,,2021-11-12,1,,,,,アイコン,0
1602,6310001017576,新規,0,2021-11-12,2021-11-12,株式会社Ｇ．ブレス企画,,株式会社,長崎県,五島市,武家屋敷１丁目５番１号,,42,211,8530017,,,,,,,2021-11-12,1,,,,,ジーブレスキカク,0
1607,6340001024264,新規,0,2021-11-12,2021-11-12,株式会社ミートナチュール,,株式会社,鹿児島県,出水市,上知識町２６８番地,,46,208,8990212,,,,,,,2021-11-12,1,,,,,ミートナチュール,0
1610,6360003011564,新規,0,2021-11-12,2021-11-12,Ｋ’ｓ合同会社,,合同会社,沖縄県,浦添市,城間４丁目２７番６－４０１号,,47,208,9012133,,,,,,,2021-11-12,1,,,,,ケイズ,0
1617,6410001013012,新規,0,2021-11-12,2021-11-12,リトル株式会社,,株式会社,秋田県,大館市,軽井沢字五輪岱３７番地４,,05,204,0185604,,,,,,,2021-11-12,1,,,,,リトル,0
1629,6430003013347,新規,0,2021-11-12,2021-11-12,合同会社労務のしばやま,,合同会社,北海道,札幌市東区,北二十二条東２丁目２番２号,,01,103,0650022,,,,,,,2021-11-12,1,,,,,ロウムノシバヤマ,0
1636,6700150012124,新規,0,2021-11-12,2015-10-09,南幸自治会,,その他,神奈川県,横浜市西区,南幸２丁目９－１２,,14,103,2200005,,,,,,,2015-10-09,1,,,,,ミナミサイワイジチカイ,0
1637,6700150105737,新規,0,2021-11-12,2021-11-12,ＳＡＦＥＷＡＹ　ＩＮＴＥＲＮＡＴＩＯＮＡＬ,,外国会社等,栃木県,足利市,鹿島町１１７番地１サニーコーポ１０３,,09,202,3260844,スリランカ民主社会主義共和国、西部州、コロンボ区、コロンボ１３、ジョージアールデシルバマワタ、２９３－Ａ,,,,,,2021-11-12,1,,,,,セーフウエイインターナシヨナル,0
1641,7010001222412,新規,0,2021-11-12,2021-11-12,株式会社ティンバーズ,,株式会社,東京都,文京区,本郷３丁目３６番１０号,,13,105,1130033,,,,,,,2021-11-12,1,,,,,ティンバーズ,0
1642,7010001222429,新規,0,2021-11-12,2021-11-12,株式会社東京経営企画,,株式会社,東京都,千代田区,麹町４丁目３番５号紀尾井観光ビル３階,,13,101,1020083,,,,,,,2021-11-12,1,,,,,トウキョウケイエイキカク,0
1643,7010001222453,新規,0,2021-11-12,2021-11-12,レクロス株式会社,,株式会社,東京都,中央区,日本橋小網町８番２号ビズマークス日本橋茅場町３０９号,,13,102,1030016,,,,,,,2021-11-12,1,,,,,レクロス,0
1645,7010003036182,新規,0,2021-11-12,2021-11-12,ＢｉｚｆｏｒＢｅｔｔｅｒ合同会社,,合同会社,東京都,中央区,銀座１丁目１２－４Ｎ＆Ｅ－ＢＬＤ．７階,,13,102,1040061,,,,,,,2021-11-12,1,,,,,ビズフォーベター,0
1646,7010003036273,新規,0,2021-11-12,2021-11-12,シドニープロパティー合同会社,,合同会社,東京都,千代田区,丸の内１丁目１１番１号,,13,101,1000005,,,,,,,2021-11-12,1,,,,,シドニープロパティー,0
1654,7010401163850,新規,0,2021-11-12,2021-11-12,株式会社ＭＤ　Ｔｏｋｙｏ,,株式会社,東京都,港区,六本木１丁目９番１８号,,13,103,1060032,,,,,,,2021-11-12,1,,,,,エムディトウキョウ,0
1658,7010403026469,新規,0,2021-11-12,2021-11-12,合同会社実学,,合同会社,東京都,港区,南青山１丁目２０番２号乃木坂ビジネスコート１Ｆ,,13,103,1070062,,,,,,,2021-11-12,1,,,,,ジツガク,0
1660,7010405020387,新規,0,2021-11-12,2021-11-12,一般社団法人国際インド占星術協会,,その他の設立登記法人,東京都,港区,虎ノ門３丁目１８番６号朝日虎ノ門マンション６１４号室,,13,103,1050001,,,,,,,2021-11-12,1,,,,,コクサイインドセンセイジュツキョウカイ,0
1665,7010601060229,新規,0,2021-11-12,2021-11-12,ＫＣ　ＧＲＯＵＰ株式会社,,株式会社,東京都,江東区,石島８番４号大田ビル１階,,13,108,1350014,,,,,,,2021-11-12,1,,,,,ケーシーグループ,0
1676,7011001143846,新規,0,2021-11-12,2021-11-12,株式会社グッドフードデザイン,,株式会社,東京都,目黒区,上目黒３丁目１７－１ＢａｒｋＬａｎｅ中目黒００２号室,,13,110,1530051,,,,,,,2021-11-12,1,,,,,グッドフードデザイン,0
1677,7011001143854,新規,0,2021-11-12,2021-11-12,Ｑｕｅｓｐｏ株式会社,,株式会社,東京都,渋谷区,渋谷３丁目１番９号ＹＡＺＡＷＡビル３階,,13,113,1500002,,,,,,,2021-11-12,1,,,,,クエスポ,0
1678,7011001143895,新規,0,2021-11-12,2021-11-12,株式会社ＴＨカンパニー,,株式会社,東京都,渋谷区,本町４丁目４７番１０号,,13,113,1510071,,,,,,,2021-11-12,1,,,,,ティーエイチカンパニー,0
1679,7011001143920,新規,0,2021-11-12,2021-11-12,株式会社ｂｌｕｅｍｉｎｇ,,株式会社,東京都,渋谷区,神宮前６丁目２３番４号,,13,113,1500001,,,,,,,2021-11-12,1,,,,,ブルーミング,0
1680,7011001143978,新規,0,2021-11-12,2021-11-12,株式会社プラス,,株式会社,東京都,渋谷区,渋谷２丁目１２番１２号三貴ビル２階,,13,113,1500002,,,,,,,2021-11-12,1,,,,,プラス,0
1681,7011003013683,新規,0,2021-11-12,2021-11-12,合同会社ＭＨＳ,,合同会社,東京都,渋谷区,渋谷２丁目７－１４ＶＯＲＴＡＯＹＡＭＡ３０２,,13,113,1500002,,,,,,,2021-11-12,1,,,,,エムエイチエス,0
1686,7011101096837,新規,0,2021-11-12,2021-11-12,株式会社アクティブリテック,,株式会社,東京都,新宿区,西新宿６丁目２０－７－３９１２号,,13,104,1600023,,,,,,,2021-11-12,1,,,,,アクティブリテック,0
1691,7011503004967,新規,0,2021-11-12,2021-11-12,合同会社カトレア,,合同会社,東京都,北区,志茂４丁目１１番９号アシスト赤羽マンション３０１号,,13,117,1150042,,,,,,,2021-11-12,1,,,,,カトレア,0
1696,7012403005106,新規,0,2021-11-12,2021-11-12,合同会社メタコンサル,,合同会社,東京都,三鷹市,牟礼２丁目７－１１,,13,204,1810002,,,,,,,2021-11-12,1,,,,,メタコンサル,0
1737,7040001120935,新規,0,2021-11-12,2021-11-12,株式会社ＡＣＳ,,株式会社,千葉県,柏市,花野井７１２番地８,,12,217,2770812,,,,,,,2021-11-12,1,,,,,エーシーエス,0
1738,7040001120951,新規,0,2021-11-12,2021-11-12,株式会社ｓｔａｙ,,株式会社,千葉県,柏市,明原１丁目２番７号長谷川ビル２Ｂ,,12,217,2770843,,,,,,,2021-11-12,1,,,,,ステイ,0
1745,7040003018905,新規,0,2021-11-12,2021-11-12,合同会社成田駅前ビル管理,,合同会社,千葉県,成田市,橋賀台３丁目５番地１９－４０７号,,12,211,2860037,,,,,,,2021-11-12,1,,,,,ナリタエキマエビルカンリ,0
1752,7080001024570,新規,0,2021-11-12,2021-11-12,株式会社ＳＥＩＳＥＩ,,株式会社,静岡県,焼津市,藤守２６８２番地の３,,22,212,4210203,,,,,,,2021-11-12,1,,,,,セイセイ,0
1762,7100003006291,新規,0,2021-11-12,2021-11-12,ＨＡＫＵＢＡ　Ｒｅｓｏｒｔ　Ｉｎｖｅｓｔｍｅｎｔ合同会社,,合同会社,長野県,松本市,市場８番１１－１号,,20,202,3990004,,,,,,,2021-11-12,1,,,,,ハクバリゾートインベストメント,0
1764,7110001036190,新規,0,2021-11-12,2021-11-12,株式会社エーシー・ウィル,,株式会社,新潟県,長岡市,喜多町４１６番地,,15,202,9402121,,,,,,,2021-11-12,1,,,,,エーシーウィル,0
1776,7120001241748,新規,0,2021-11-12,2021-11-12,株式会社大正不動産,,株式会社,大阪府,大阪市福島区,福島５丁目１７番１７－１００１号,,27,103,5530003,,,,,,,2021-11-12,1,,,,,タイショウフドウサン,0
1777,7120001241789,新規,0,2021-11-12,2021-11-12,株式会社ＤＩＩワン,,株式会社,大阪府,大阪市淀川区,新北野３丁目５番１号,,27,123,5320025,,,,,,,2021-11-12,1,,,,,ディーツーワン,0
1781,7120101064644,新規,0,2021-11-12,2021-11-12,株式会社バリュー・メッド,,株式会社,大阪府,岸和田市,八阪町２丁目２番１０号,,27,202,5960049,,,,,,,2021-11-12,1,,,,,バリューメッド,0
1798,7140001123845,新規,0,2021-11-12,2021-11-12,メディカルキャピタル株式会社,,株式会社,兵庫県,尼崎市,御園町２４番地尼崎第一ビル４０２号,,28,202,6600861,,,,,,,2021-11-12,1,,,,,メディカルキャピタル,0
1799,7140001123853,新規,0,2021-11-12,2021-11-12,株式会社信和エンジニア,,株式会社,兵庫県,加古川市,平岡町土山１０番地の１０ミツヤビル,,28,210,6750104,,,,,,,2021-11-12,1,,,,,シンワエンジニア,0
1803,7160001023804,新規,0,2021-11-12,2021-11-12,株式会社武市ボーリング,,株式会社,滋賀県,大津市,大石中５丁目２４番１１号,,25,201,5202263,,,,,,,2021-11-12,1,,,,,タケイチボーリング,0
1804,7160003002426,新規,0,2021-11-12,2021-11-12,ＡＣＥ　ｉｓ合同会社,,合同会社,滋賀県,草津市,野路町６８３－６フォレストタウン南草津２Ｆ,,25,206,5250055,,,,,,,2021-11-12,1,,,,,エーシーズ,0
1818,7180001148707,新規,0,2021-11-12,2021-11-12,株式会社Ｍ・Ｋ・Ｂ,,株式会社,愛知県,名古屋市北区,山田１丁目１番２２号シティライフ大曽根１００２号,,23,103,4620810,,,,,,,2021-11-12,1,,,,,エムケービー,0
1832,7230001019092,新規,0,2021-11-12,2021-11-12,株式会社コーディアルエージ,,株式会社,富山県,射水市,三ケ２４６４番地１,,16,211,9390341,,,,,,,2021-11-12,1,,,,,コーディアルエージ,0
1839,7260001036201,新規,0,2021-11-12,2021-11-12,株式会社ＳＴＥＬＬＡ,,株式会社,岡山県,岡山市南区,新保１６１１－１ガラクシアトーレ４階,,33,104,7000945,,,,,,,2021-11-12,1,,,,,ステラ,0
1845,7290001095368,新規,0,2021-11-12,2021-11-12,株式会社松本建築,,株式会社,福岡県,福津市,福間南４丁目２１番２５号,,40,224,8113212,,,,,,,2021-11-12,1,,,,,マツモトケンチク,0
1851,7290003011785,新規,0,2021-11-12,2021-11-12,合同会社ＭＥＲＯＮ,,合同会社,福岡県,福岡市博多区,吉塚５丁目９－１７－１００３,,40,132,8120041,,,,,,,2021-11-12,1,,,,,メロン,0
1852,7290003011802,新規,0,2021-11-12,2021-11-12,タイガー国際合同会社,,合同会社,福岡県,福岡市東区,香椎照葉７丁目６－２２,,40,131,8130017,,,,,,,2021-11-12,1,,,,,タイガーコクサイ,0
1855,7290801027990,新規,0,2021-11-12,2021-11-12,株式会社藤崎,,株式会社,福岡県,北九州市小倉北区,中津口２丁目２番４号,,40,106,8020018,,,,,,,2021-11-12,1,,,,,フジサキ,0
1867,7340005009368,新規,0,2021-11-12,2021-11-12,一般社団法人ＷＯＲＬＤ　ＷＡＭ,,その他の設立登記法人,鹿児島県,鹿屋市,札元１丁目２９６８番地１,,46,203,8930013,,,,,,,2021-11-12,1,,,,,ワールドワム,0
1873,7380003005051,新規,0,2021-11-12,2021-11-12,合同会社北町鉄工,,合同会社,福島県,南相馬市,原町区北町２７１－１,,07,212,9750018,,,,,,,2021-11-12,1,,,,,キタマチテッコウ,0
1874,7380005012500,新規,0,2021-11-12,2021-11-12,一般社団法人キャットウォーク,,その他の設立登記法人,福島県,相馬郡新地町,大字埓木崎字作田３６２番地,,07,561,9792701,,,,,,,2021-11-12,1,,,,,キャットウォーク,0
1885,7430003013346,新規,0,2021-11-12,2021-11-12,合同会社ライブリー,,合同会社,北海道,札幌市白石区,東米里２０４６－１６,,01,104,0030876,,,,,,,2021-11-12,1,,,,,ライブリー,0
1893,7470001018830,新規,0,2021-11-12,2021-11-12,株式会社Ｒｅｖｉｖｅ,,株式会社,香川県,坂出市,加茂町甲３０９番地３,,37,203,7620022,,,,,,,2021-11-12,1,,,,,リヴァイヴ,0
1898,7700150105760,新規,0,2021-11-12,2021-11-12,Ａ．Ｓ．Ｒ．ＭＯＴＯＲＳ　ＰＲＩＶＡＴＥ　ＬＩＭＩＴＥＤ,,外国会社等,千葉県,千葉市中央区,村田町８９３番地１５６オフィス１号,,12,101,2600825,スリランカ民主社会主義共和国、キャンディ、ラトゥコホディーガラ、パンゴッラマダ、１９,,,,,,2021-11-12,1,,,,,エイエスアールモータースプライベートリミテツド,0
1907,8010001222452,新規,0,2021-11-12,2021-11-12,ＳＯＵ株式会社,,株式会社,東京都,中央区,銀座１丁目２２番１１号銀座大竹ビジデンス２階,,13,102,1040061,,,,,,,2021-11-12,1,,,,,ソウ,0
1914,8010003036280,新規,0,2021-11-12,2021-11-12,ＹＫパートナーズ合同会社,,合同会社,東京都,中央区,日本橋茅場町２丁目４番５号,,13,102,1030025,,,,,,,2021-11-12,1,,,,,ワイケーパートナーズ,0
1915,8010003036289,新規,0,2021-11-12,2021-11-12,リブロス合同会社,,合同会社,東京都,中央区,日本橋小網町１１－５,,13,102,1030016,,,,,,,2021-11-12,1,,,,,リブロス,0
1916,8010103001812,新規,0,2021-11-12,2021-11-12,合同会社ｎｅｅｕｐ,,合同会社,東京都,八王子市,七国５丁目２２番２号,,13,201,1920919,,,,,,,2021-11-12,1,,,,,,0
1945,8010701041763,新規,0,2021-11-12,2021-11-12,Ａｌｌｇａｎｉｚｅ　Ｈｏｌｄｉｎｇｓ株式会社,,株式会社,東京都,品川区,平塚２丁目９番２２号,,13,109,1420051,,,,,,,2021-11-12,1,,,,,オルガナイズホールディングス,0
1951,8010901049796,新規,0,2021-11-12,2021-11-12,株式会社ｑａｒａｑ,,株式会社,東京都,世田谷区,上野毛４丁目２４番１５号－１,,13,112,1580093,,,,,,,2021-11-12,1,,,,,カラク,0
1953,8010903006928,新規,0,2021-11-12,2021-11-12,ライフファースト合同会社,,合同会社,東京都,世田谷区,代沢２丁目２５番１１号,,13,112,1550032,,,,,,,2021-11-12,1,,,,,ライフファースト,0
1954,8010905004228,新規,0,2021-11-12,2021-11-12,一般社団法人アットアート,,その他の設立登記法人,東京都,世田谷区,船橋５丁目１７番２０－１０４号,,13,112,1560055,,,,,,,2021-11-12,1,,,,,,0
1961,8011001143853,新規,0,2021-11-12,2021-11-12,株式会社くぼぞの,,株式会社,東京都,渋谷区,西原３丁目１４番１号皆川ビル１０２,,13,113,1510066,,,,,,,2021-11-12,1,,,,,クボゾノ,0
1962,8011001143861,新規,0,2021-11-12,2021-11-12,ＳＱＮＣＥ株式会社,,株式会社,東京都,渋谷区,本町３丁目７番３号ピアーチェ西新宿１０階,,13,113,1510071,,,,,,,2021-11-12,1,,,,,シークエンス,0
1963,8011001143952,新規,0,2021-11-12,2021-11-12,株式会社ＰＬＡＹＭＡＮ,,株式会社,東京都,渋谷区,神山町４番１８号,,13,113,1500047,,,,,,,2021-11-12,1,,,,,プレイマン,0
1970,8011103011157,新規,0,2021-11-12,2021-11-12,合同会社ノッカーズ,,合同会社,東京都,新宿区,新宿７丁目１２番１号新宿平和ビル１階,,13,104,1600022,,,,,,,2021-11-12,1,,,,,ノッカーズ,0
1972,8011105010033,新規,0,2021-11-12,2021-11-12,税理士法人奥村会計事務所,,その他の設立登記法人,東京都,新宿区,大久保１丁目２番１７号,,13,104,1690072,,,,,,,2021-11-12,1,,,,,オクムラカイケイジムショ,0
1975,8011301027327,新規,0,2021-11-12,2021-11-12,Ｙ６株式会社,,株式会社,東京都,杉並区,浜田山２丁目７番７号,,13,115,1680065,,,,,,,2021-11-12,1,,,,,ワイロク,0
1984,8011603003439,新規,0,2021-11-12,2021-11-12,合同会社涼月,,合同会社,東京都,練馬区,旭丘１丁目５１－１３－３０３,,13,120,1760005,,,,,,,2021-11-12,1,,,,,スズツキ,0
1988,8012403005105,新規,0,2021-11-12,2021-11-12,合同会社ソルテ,,合同会社,東京都,稲城市,大丸１８７番地の１５,,13,225,2060801,,,,,,,2021-11-12,1,,,,,ソルテ,0
2005,8021001074461,新規,0,2021-11-12,2021-11-12,株式会社Ｍａｋｅ－Ｄｒｅａｍ,,株式会社,神奈川県,大和市,大和東３丁目２番７号ＹＳＢ大和２０１号,,14,213,2420017,,,,,,,2021-11-12,1,,,,,メイクドリーム,0
2024,8030001145296,新規,0,2021-11-12,2021-11-12,株式会社Ｔａｓｋ,,株式会社,埼玉県,北葛飾郡松伏町,ゆめみ野６丁目２番地３７,,11,465,3430113,,,,,,,2021-11-12,1,,,,,タスク,0
2025,8030001145313,新規,0,2021-11-12,2021-11-12,株式会社鈴木工務店,,株式会社,埼玉県,東松山市,大字上野本９０１番地１,,11,212,3550073,,,,,,,2021-11-12,1,,,,,スズキコウムテン,0
2039,8040001120983,新規,0,2021-11-12,2021-11-12,株式会社アネモネ,,株式会社,千葉県,船橋市,海神１丁目１２番４号ハイツ相沢３０１号,,12,204,2730021,,,,,,,2021-11-12,1,,,,,アネモネ,0
2043,8040003018929,新規,0,2021-11-12,2021-11-12,合同会社初良,,合同会社,千葉県,八街市,用草８５０番地１,,12,230,2891138,,,,,,,2021-11-12,1,,,,,ハツリョウ,0
2048,8050003006197,新規,0,2021-11-12,2021-11-12,ＦＡＩＺＡＮ　ＭＯＴＯＲＳ合同会社,,合同会社,茨城県,坂東市,借宿５０１番地１,,08,228,3060657,,,,,,,2021-11-12,1,,,,,フェイザンモータース,0
2064,8080405007402,新規,0,2021-11-12,2021-11-12,一般社団法人マール総合事務所,,その他の設立登記法人,静岡県,御前崎市,池新田３８５９番地の６,,22,223,4371612,,,,,,,2021-11-12,1,,,,,マールソウゴウジムショ,0
2076,8120001241631,新規,0,2021-11-12,2021-11-12,株式会社ダイケン,,株式会社,大阪府,大阪市大正区,三軒家東１丁目２０番１５号,,27,108,5510002,,,,,,,2021-11-12,1,,,,,ダイケン,0
2081,8120101064643,新規,0,2021-11-12,2021-11-12,博海商事株式会社,,株式会社,大阪府,泉南市,信達大苗代６２－７０－７０４,,27,228,5900505,,,,,,,2021-11-12,1,,,,,ヒロミショウジ,0
2084,8120903003906,新規,0,2021-11-12,2021-11-12,合同会社ＴＭＣ,,合同会社,大阪府,茨木市,五十鈴町２番２６号,,27,211,5670842,,,,,,,2021-11-12,1,,,,,ティーエムシー,0
2085,8130001070534,新規,0,2021-11-12,2021-11-12,株式会社親孝,,株式会社,京都府,京田辺市,興戸久保３８番地１,,26,211,6100332,,,,,,,2021-11-12,1,,,,,シンコウ,0
2086,8130003007583,新規,0,2021-11-12,2021-11-12,合同会社ＯＴＨＥＬＬＯ,,合同会社,京都府,京都市中京区,錦小路通室町東入占出山町３０９番地１レジーナ錦小路１００１,,26,104,6048155,,,,,,,2021-11-12,1,,,,,オセロ,0
2090,8140001123828,新規,0,2021-11-12,2021-11-12,株式会社梶原不動産,,株式会社,兵庫県,三田市,三田町２４番３１号,,28,219,6691533,,,,,,,2021-11-12,1,,,,,カジワラフドウサン,0
2094,8160001023803,新規,0,2021-11-12,2021-11-12,株式会社バックス,,株式会社,滋賀県,大津市,本堅田４丁目１１番２８号,,25,201,5200242,,,,,,,2021-11-12,1,,,,,バックス,0
2095,8160003002425,新規,0,2021-11-12,2021-11-12,合同会社レスベラ,,合同会社,滋賀県,犬上郡多賀町,大字多賀１３２２番地６,,25,443,5220341,,,,,,,2021-11-12,1,,,,,レスベラ,0
2096,8160005011011,新規,0,2021-11-12,2021-11-12,特定非営利活動法人大津市里親会,,その他の設立登記法人,滋賀県,大津市,大平２丁目１番１９号,,25,201,5200867,,,,,,,2021-11-12,1,,,,,オオツシサトオヤカイ,0
2111,8180001148706,新規,0,2021-11-12,2021-11-12,株式会社ＭＫサプライ,,株式会社,愛知県,名古屋市守山区,天子田２丁目１１３番地,,23,113,4630037,,,,,,,2021-11-12,1,,,,,エムケーサプライ,0
2119,8180301035620,新規,0,2021-11-12,2021-11-12,株式会社ネコノテ商店,,株式会社,愛知県,安城市,里町４丁目９番地４,,23,212,4460001,,,,,,,2021-11-12,1,,,,,ネコノテショウテン,0
2125,8200001039398,新規,0,2021-11-12,2021-11-12,株式会社あいする,,株式会社,岐阜県,土岐市,駄知町２１６７番地の４,,21,212,5095401,,,,,,,2021-11-12,1,,,,,アイスル,0
2135,8260001036200,新規,0,2021-11-12,2021-11-12,株式会社Ｊコーポレーション,,株式会社,岡山県,倉敷市,水島西栄町１２番１８号,,33,202,7128034,,,,,,,2021-11-12,1,,,,,ジェイコーポレーション,0
2136,8260001036209,新規,0,2021-11-12,2021-11-12,株式会社ゴールド,,株式会社,岡山県,総社市,宍粟４７０番地１,,33,208,7191153,,,,,,,2021-11-12,1,,,,,ゴールド,0
2138,8270001008388,新規,0,2021-11-12,2021-11-12,株式会社光星,,株式会社,鳥取県,米子市,末広町１２０番地万来ビル２階,,31,202,6830043,,,,,,,2021-11-12,1,,,,,コウセイ,0
2142,8290001095375,新規,0,2021-11-12,2021-11-12,株式会社ＳｕｎＳ,,株式会社,福岡県,飯塚市,相田７５２番地４１,,40,205,8200052,,,,,,,2021-11-12,1,,,,,サンズ,0
2148,8290003011818,新規,0,2021-11-12,2021-11-12,エイトパワー合同会社,,合同会社,福岡県,福岡市博多区,博多駅南３丁目１７番１９号ベーシックビル博多６０３号,,40,132,8120016,,,,,,,2021-11-12,1,,,,,エイトパワー,0
2152,8300001012700,新規,0,2021-11-12,2021-11-12,株式会社グランディール九州,,株式会社,佐賀県,神埼市,神埼町竹２２２４番地,,41,210,8420011,,,,,,,2021-11-12,1,,,,,グランディールキュウシュウ,0
2153,8300005007044,新規,0,2021-11-12,2021-11-12,医療法人佐賀駅前矯正歯科,,その他の設立登記法人,佐賀県,佐賀市,駅前中央１丁目１３番４０号,,41,201,8400801,,,,,,,2021-11-12,1,,,,,サガエキマエキョウセイシカ,0
2157,8340001024270,新規,0,2021-11-12,2021-11-12,株式会社ＭＩＳＴＹ,,株式会社,鹿児島県,鹿児島市,千日町８番１２号,,46,201,8920843,,,,,,,2021-11-12,1,,,,,ミスティー,0
2177,8430003013345,新規,0,2021-11-12,2021-11-12,合同会社１１５,,合同会社,北海道,札幌市中央区,北三条西２９丁目１－１１－１０１,,01,101,0640823,,,,,,,2021-11-12,1,,,,,イチイチゴ,0
2182,8490001010033,新規,0,2021-11-12,2021-11-12,株式会社ＫＡＷＡＩＩ　ＭＩＲＥＩＩ,,株式会社,高知県,高知市,三園町３０６番地,,39,201,7800034,,,,,,,2021-11-12,1,,,,,カワイイミレイ,0
2184,8700150105735,新規,0,2021-11-12,2021-11-12,ＮＩＨＯＮ　ＥＮＴＥＲＰＲＩＳＥＳ,,外国会社等,神奈川県,厚木市,上依知１４２０－１サニーコート森１０２号室,,14,212,2430801,スリランカ民主社会主義共和国、ポロンナルワ、タンバーレ、ソマワティイェロード、６４／Ａ／１,,,,,,2021-11-12,1,,,,,ニホンエンタープライセス,0
2185,8700150105743,新規,0,2021-11-12,2021-11-12,Ｓ＆Ｍ　ＥＮＴＥＲＰＲＩＳＥＳ,,外国会社等,千葉県,市原市,江子田３０７番地１４４－Ｃ,,12,219,2900508,スリランカ民主社会主義共和国、ワラスムラ、コホラナ、イピタワッタ,,,,,,2021-11-12,1,,,,,エスアンドエムエンタープライセス,0
2190,9010001222385,新規,0,2021-11-12,2021-11-12,株式会社Ｍａｋｏｔｏ　Ｒｅｓｅａｒｃｈ,,株式会社,東京都,中央区,日本橋本町３丁目３－６ワカ末ビル７Ｆ,,13,102,1030023,,,,,,,2021-11-12,1,,,,,マコトリサーチ,0
2191,9010001222435,新規,0,2021-11-12,2021-11-12,株式会社イファーシア,,株式会社,東京都,千代田区,神田須田町１丁目２番７号淡路町駅前ビル３階,,13,101,1010041,,,,,,,2021-11-12,1,,,,,イファーシア,0
2192,9010001222451,新規,0,2021-11-12,2021-11-12,株式会社ＡＰＵ,,株式会社,東京都,中央区,八丁堀３丁目６番５号八丁堀佐野ビル,,13,102,1040032,,,,,,,2021-11-12,1,,,,,エーピーユー,0
2193,9010001222476,新規,0,2021-11-12,2021-11-12,河口湖リゾート開発株式会社,,株式会社,東京都,千代田区,平河町１丁目６番１５号シルスフィア会計事務所内,,13,101,1020093,,,,,,,2021-11-12,1,,,,,カワグチコリゾートカイハツ,0
2196,9010003036288,新規,0,2021-11-12,2021-11-12,インフラルージュ合同会社,,合同会社,東京都,中央区,銀座１丁目１２－４Ｎ＆ＥＢＬＤ．７階,,13,102,1040061,,,,,,,2021-11-12,1,,,,,インフラルージュ,0
2208,9010401163782,新規,0,2021-11-12,2021-11-12,株式会社ＶＩＶＡ　ＰＡＮＤＡ,,株式会社,東京都,港区,三田３丁目１番１９号第１２シグマビル,,13,103,1080073,,,,,,,2021-11-12,1,,,,,ビバパンダ,0
2212,9010405020385,新規,0,2021-11-12,2021-11-12,行政書士法人東京国際法務事務所,,その他の設立登記法人,東京都,港区,西新橋１丁目２０番３号虎ノ門法曹ビル７０１３室,,13,103,1050003,,,,,,,2021-11-12,1,,,,,トウキョウコクサイホウムジムショ,0
2219,9010601060219,新規,0,2021-11-12,2021-11-12,ＥＵＲＥＫＡ株式会社,,株式会社,東京都,墨田区,文花１丁目３４番１１－４０３号,,13,107,1310044,,,,,,,2021-11-12,1,,,,,エウレカ,0
2227,9010701041762,新規,0,2021-11-12,2021-11-12,株式会社ファルモニ,,株式会社,東京都,品川区,東大井５丁目２４番１６－３０２号,,13,109,1400011,,,,,,,2021-11-12,1,,,,,ファルモニ,0
2229,9010901049770,新規,0,2021-11-12,2021-11-12,株式会社エーオフィス,,株式会社,東京都,世田谷区,三軒茶屋２丁目２５番７号,,13,112,1540024,,,,,,,2021-11-12,1,,,,,エーオフィス,0
2236,9011001143860,新規,0,2021-11-12,2021-11-12,クライオ株式会社,,株式会社,東京都,目黒区,大橋２丁目９番６号,,13,110,1530044,,,,,,,2021-11-12,1,,,,,クライオ,0
2237,9011001143885,新規,0,2021-11-12,2021-11-12,株式会社アローズ・ケイ・渋谷,,株式会社,東京都,渋谷区,東４丁目１０番２８号,,13,113,1500011,,,,,,,2021-11-12,1,,,,,アローズケイシブヤ,0
2238,9011001143919,新規,0,2021-11-12,2021-11-12,株式会社ｗｉｌｌｅｄ,,株式会社,東京都,渋谷区,円山町５番５号,,13,113,1500044,,,,,,,2021-11-12,1,,,,,ウィルド,0
2239,9011001143976,新規,0,2021-11-12,2021-11-12,株式会社Ｇｒｏｗｔｈ,,株式会社,東京都,渋谷区,代々木１丁目４４番１２号,,13,113,1510053,,,,,,,2021-11-12,1,,,,,グロウス,0
2240,9011003013698,新規,0,2021-11-12,2021-11-12,合同会社ＣＯＳＭＯＳ,,合同会社,東京都,渋谷区,初台１丁目１３番１４号,,13,113,1510061,,,,,,,2021-11-12,1,,,,,コスモス,0
2241,9011003013715,新規,0,2021-11-12,2021-11-12,合同会社藤崎友輔事務所,00124841,合同会社,東京都,目黒区,鷹番３丁目１４番１１号,,13,110,1520004,,,,,,,2021-11-12,1,,,,,フジサキユウスケジムショ,0
2248,9011103011131,新規,0,2021-11-12,2021-11-12,合同会社アイビル,,合同会社,東京都,新宿区,新宿１丁目１１番１７号,,13,104,1600022,,,,,,,2021-11-12,1,,,,,アイビル,0
2254,9011501027472,新規,0,2021-11-12,2021-11-12,ファーマシーウィズ株式会社,,株式会社,東京都,荒川区,西尾久２丁目４番１８号,,13,118,1160011,,,,,,,2021-11-12,1,,,,,ファーマシーウィズ,0
2258,9011801039952,新規,0,2021-11-12,2021-11-12,株式会社ＫＡＷＡＡＩ　ＢＡＳＥ,,株式会社,東京都,葛飾区,堀切７丁目７番７－１０４号,,13,122,1240006,,,,,,,2021-11-12,1,,,,,カワアイベース,0
2261,9012401038519,新規,0,2021-11-12,2021-11-12,株式会社ＰＵＭＰ,,株式会社,東京都,府中市,押立町１丁目２４番地の１車返団地２－７－７０１,,13,206,1830012,,,,,,,2021-11-12,1,,,,,パンプ,0
2262,9012401038535,新規,0,2021-11-12,2021-11-12,株式会社雅,,株式会社,東京都,小金井市,前原町４丁目４番４７号,,13,210,1840013,,,,,,,2021-11-12,1,,,,,ミヤビ,0
2264,9012403005104,新規,0,2021-11-12,2021-11-12,Ｍｉｙａｋｏ合同会社,,合同会社,東京都,多摩市,鶴牧５丁目３７－７－２０４,,13,224,2060034,,,,,,,2021-11-12,1,,,,,ミヤコ,0
2266,9012701016760,新規,0,2021-11-12,2021-11-12,株式会社ワライフ,,株式会社,東京都,東久留米市,東本町６番１１号サニーパレスくるめ２０２,,13,222,2030014,,,,,,,2021-11-12,1,,,,,ワライフ,0
2270,9013301048260,新規,0,2021-11-12,2021-11-12,株式会社ＤＲＥＡＭ　ＰＬＡＮＮＩＮＧ,,株式会社,東京都,豊島区,千早２丁目１３番１５号,,13,116,1710044,,,,,,,2021-11-12,1,,,,,ドリームプランニング,0
2287,9020003020786,新規,0,2021-11-12,2021-11-12,ＧｏＯｎ合同会社,,合同会社,神奈川県,川崎市高津区,溝口２丁目１４－１３－１,,14,134,2130001,,,,,,,2021-11-12,1,,,,,ゴーオン,0
2292,9021001074460,新規,0,2021-11-12,2021-11-12,ＴＩＭＥ　ＣＯＯＲＤＩＮＡＴＥ株式会社,,株式会社,神奈川県,藤沢市,城南３丁目１番３３～９１２号クリオ藤沢伍番館,,14,205,2510057,,,,,,,2021-11-12,1,,,,,タイムコーディネート,0
2319,9040001120966,新規,0,2021-11-12,2021-11-12,株式会社エココロ,,株式会社,千葉県,佐倉市,ユーカリが丘７丁目１３番１号,,12,212,2850858,,,,,,,2021-11-12,1,,,,,エココロ,0
2324,9040003018911,新規,0,2021-11-12,2021-11-12,佳埼商事合同会社,,合同会社,千葉県,市原市,小田部４８１－１,,12,219,2900176,,,,,,,2021-11-12,1,,,,,カキショウジ,0
2326,9050001050130,新規,0,2021-11-12,2021-11-12,株式会社サンライズ,,株式会社,茨城県,稲敷市,本町４２８,,08,229,3000500,,,,,,,2021-11-12,1,,,,,サンライズ,0
2329,9070001038636,新規,0,2021-11-12,2021-11-12,株式会社スターライト・ソリューションズ,,株式会社,群馬県,伊勢崎市,宮子町３６２７番地３,,10,204,3720801,,,,,,,2021-11-12,1,,,,,スターライトソリューションズ,0
2336,9090001006418,新規,0,2021-11-12,2021-11-12,千須和工業株式会社,,株式会社,山梨県,笛吹市,石和町市部６０８番地,,19,211,4060031,,,,,,,2021-11-12,1,,,,,チスワコウギョウ,0
2345,9120001241721,新規,0,2021-11-12,2021-11-12,Ｆ．Ｅ．Ｓ株式会社,,株式会社,大阪府,大阪市生野区,巽北１丁目１番１号２Ｆ－Ｃ,00124837,27,116,5440004,,,,,,,2021-11-12,1,,,,,エフイーエス,0
2346,9120001241779,新規,0,2021-11-12,2021-11-12,株式会社ＴＯＭＯＮＩ,,株式会社,大阪府,守口市,京阪本通１丁目１０番３２号メロディハイム守口Ａ棟２０１,,27,209,5700083,,,,,,,2021-11-12,1,,,,,トモニ,0
2347,9120001241795,新規,0,2021-11-12,2021-11-12,株式会社ＨＩＮＡＴＡコーポレーション,,株式会社,大阪府,大阪市天王寺区,上汐５丁目２番１３－９０４号,,27,109,5430002,,,,,,,2021-11-12,1,,,,,ヒナタコーポレーション,0
2348,9120001241804,新規,0,2021-11-12,2021-11-12,株式会社Ｆｔ．ｙｏｕ,,株式会社,大阪府,大阪市淀川区,三国本町３丁目３６番６号,,27,123,5320005,,,,,,,2021-11-12,1,,,,,エフティーユー,0
2349,9120001241812,新規,0,2021-11-12,2021-11-12,株式会社Ａ＆Ｇ,,株式会社,大阪府,枚方市,新之栄町３１－５,,27,210,5731166,,,,,,,2021-11-12,1,,,,,エーアンドジー,0
2350,9120003020553,新規,0,2021-11-12,2021-11-12,Ｌｅａ　ＪＡＰＡＮ合同会社,,合同会社,大阪府,大阪市福島区,福島６丁目３番５号カーサ福島９０２号,,27,103,5530003,,,,,,,2021-11-12,1,,,,,レアジャパン,0
2351,9120003020578,新規,0,2021-11-12,2021-11-12,合同会社マーレ,,合同会社,大阪府,大阪市都島区,高倉町１丁目５番２３－１０１号,,27,102,5340011,,,,,,,2021-11-12,1,,,,,マーレ,0
2359,9122001035343,新規,0,2021-11-12,2021-11-12,株式会社吉井,,株式会社,大阪府,東大阪市,衣摺４丁目８番１８号,,27,227,5770827,,,,,,,2021-11-12,1,,,,,ヨシイ,0
2360,9122001035351,新規,0,2021-11-12,2021-11-12,株式会社関西電機ＮＥＴ,,株式会社,大阪府,大東市,寺川３丁目１番４７号,,27,218,5740014,,,,,,,2021-11-12,1,,,,,カンサイデンキネット,0
2368,9170001016862,新規,0,2021-11-12,2021-11-12,株式会社上田タイル,,株式会社,和歌山県,和歌山市,木ノ本１９９番地２３,,30,201,6408453,,,,,,,2021-11-12,1,,,,,ウエダタイル,0
2386,9180005019514,新規,0,2021-11-12,2021-11-12,特定非営利活動法人楽々,,その他の設立登記法人,愛知県,長久手市,菖蒲池１０４番地,,23,238,4801115,,,,,,,2021-11-12,1,,,,,ララ,0
2410,9240001058914,新規,0,2021-11-12,2021-11-12,株式会社Ｎｓｔｅｐ,,株式会社,広島県,広島市西区,中広町２丁目６番３号,,34,104,7330012,,,,,,,2021-11-12,1,,,,,エヌステップ,0
2411,9250001019254,新規,0,2021-11-12,2021-11-12,株式会社ダブル,,株式会社,山口県,下関市,阿弥陀寺町７番２５－１３０２号,,35,201,7500003,,,,,,,2021-11-12,1,,,,,ダブル,0
2416,9260001036199,新規,0,2021-11-12,2021-11-12,株式会社Ｍ２ｓｅｒｖｉｃｅ,,株式会社,岡山県,岡山市中区,高屋２２４番地５ＡｌｂａＧｌａｎｄｅ２０８,,33,102,7038233,,,,,,,2021-11-12,1,,,,,エムツーサービス,0
2417,9260001036208,新規,0,2021-11-12,2021-11-12,おそめＮＷＸＧ株式会社,,株式会社,岡山県,岡山市中区,西川原１１９番地２６（８０１）,,33,102,7038258,,,,,,,2021-11-12,1,,,,,オソメエヌダブリュエックスジー,0
2426,9290001095366,新規,0,2021-11-12,2021-11-12,株式会社小島工業,,株式会社,福岡県,那珂川市,大字西畑９２３番地１,,40,231,8111246,,,,,,,2021-11-12,1,,,,,コジマコウギョウ,0
2438,9330005010432,新規,0,2021-11-12,2021-11-12,一般社団法人かざぐるま,,その他の設立登記法人,熊本県,熊本市南区,幸田１丁目２番１１号２,,43,104,8614108,,,,,,,2021-11-12,1,,,,,カザグルマ,0
2442,9350005006032,新規,0,2021-11-12,2021-11-12,ＮＰＯ法人むげん・からーず,,その他の設立登記法人,宮崎県,東諸県郡国富町,大字森永２０９４－１,,45,382,8801106,,,,,,,2021-11-12,1,,,,,ムゲンカラーズ,0
2446,9360001029580,新規,0,2021-11-12,2021-11-12,株式会社ミツワ技術,,株式会社,沖縄県,沖縄市,字登川２６７２番地,,47,211,9042142,,,,,,,2021-11-12,1,,,,,ミツワギジュツ,0
2467,9430001085328,新規,0,2021-11-12,2021-11-12,株式会社ＧＬＡＴＥＬ,,株式会社,北海道,札幌市中央区,南六条東２丁目１１番地１,,01,101,0600056,,,,,,,2021-11-12,1,,,,,グレーテル,0
2468,9430001085377,新規,0,2021-11-12,2021-11-12,株式会社幾千世牧場,,株式会社,北海道,沙流郡日高町,字幾千世２６９番地の３,,01,601,0592123,,,,,,,2021-11-12,1,,,,,イクチセボクジョウ,0
2474,9440001008980,新規,0,2021-11-12,2021-11-12,株式会社ＳｐｒｅａｄＰａｒｔｎｅｒＳｙｓｔｅｍｓ,,株式会社,北海道,函館市,山の手２丁目３９番１６号,,01,202,0410836,,,,,,,2021-11-12,1,,,,,スプレッドパートナーシステムズ,0
2477,9450005004315,新規,0,2021-11-12,2021-11-12,特定非営利活動法人ポプラの木,,その他の設立登記法人,北海道,上川郡美瑛町,字水上,,01,459,0710241,,,,,,,2021-11-12,1,,,,,ポプラノキ,0
2483,9490001010032,新規,0,2021-11-12,2021-11-12,一家建設株式会社,,株式会社,高知県,南国市,浜改田７１番地１２,,39,204,7830083,,,,,,,2021-11-12,1,,,,,イッカケンセツ,0
2486,9700150105429,新規,0,2021-11-12,2021-10-21,ＭＥ音,,その他,東京都,練馬区,早宮４丁目３９－３－１０６,,13,120,1790085,,,,,,,2021-10-21,1,,,,,メオト,0
2487,9700150105478,新規,0,2021-11-12,2021-10-22,ＹＯＫＯＨＡＭＡＪＡＺＺＥＧＧＳ,,その他,神奈川県,横浜市中区,羽衣町１丁目３－１１－３０４,,14,104,2310047,,,,,,,2021-10-22,1,,,,,ヨコハマジヤズエツグス,0
2488,9700150105742,新規,0,2021-11-12,2021-11-12,ＢＡＤＵＬＬＡ　ＭＯＴＯＲ　ＷＯＲＫＳ,,外国会社等,千葉県,市原市,菊間１８３番地５オフィス２号,,12,219,2900007,スリランカ民主社会主義共和国、バッドゥッラ、ベリロード、１５,,,,,,2021-11-12,1,,,,,バツドウツラモーターワークス,0
2489,9700150105759,新規,0,2021-11-12,2021-11-12,Ｎ．ＷＡＲＮＡＫＵＬＡＳＯＯＬＩＹＡ　ＥＮＴＥＲＰＲＩＳＥＳ,,外国会社等,千葉県,千葉市中央区,村田町８９３－１５６オフィスＮｏ．１,,12,101,2600825,スリランカ民主社会主義共和国、ケキラワ、ニキニヤワ,,,,,,2021-11-12,1,,,,,エヌワルナクラソリヤエンタープライセス,0
