sequenceNumber,corporateNumber,process,correct,updateDate,changeDate,name,nameImageId,kind,prefectureName,cityName,streetNumber,addressImageId,prefectureCode,cityCode,postCode,addressOutside,addressOutsideImageId,closeDate,closeCause,successorCorporateNumber,changeCause,assignmentDate,latest,enName,enPrefectureName,enCityName,enAddressOutside,furigana,hihyoji
10,1010001215768,登記記録の閉鎖等,0,2021-11-12,2021-11-09,株式会社ＫＬＦ１,,株式会社,東京都,千代田区,内幸町２丁目１番６号,,13,101,1000011,,,2021-11-09,清算の結了等,,,2021-02-12,1,,,,,ケイエルエフワン,0
20,1010401056093,登記記録の閉鎖等,0,2021-11-12,2021-11-01,トラベル・リテール・ショップス沖縄株式会社,,株式会社,東京都,港区,南青山１丁目１５番１４号新乃木坂ビル,,13,103,1070062,,,2021-11-01,合併による解散等,5010401000774,令和３年１１月１日東京都港区南青山一丁目１５番１４号新乃木坂ビルプラダジャパン株式会社（5010401000774）に合併し解散,2015-10-05,1,,,,,トラベルリテールショップスオキナワ,0
27,1010403015205,登記記録の閉鎖等,0,2021-11-12,2021-11-09,合同会社ソーラーファシリティーズ１号,,合同会社,長野県,南佐久郡南牧村,大字野辺山１４８番地１,,20,305,3841305,,,2021-11-09,合併による解散等,8100001031836,令和３年１１月９日長野県南佐久郡南牧村大字野辺山１４８番地１野辺山営農ソーラー株式会社（8100001031836）に合併し解散,2016-08-19,1,,,,,ソーラーファシリティーズイチゴウ,0
31,1010602026705,登記記録の閉鎖等,0,2021-11-12,2021-11-08,有限会社ファンライフ,,有限会社,東京都,墨田区,吾妻橋１丁目１９番１５号,,13,107,1300001,,,2021-11-08,清算の結了等,,,2015-10-05,1,,,,,ファンライフ,0
34,1010603008099,登記記録の閉鎖等,0,2021-11-12,2021-11-05,ＡＨＳ合同会社,,合同会社,東京都,墨田区,錦糸１丁目１６番１２号３０１,,13,107,1300013,,,2021-11-05,清算の結了等,,,2019-12-04,1,,,,,エーエイチエス,0
59,1011403003109,登記記録の閉鎖等,0,2021-11-12,2021-11-10,合同会社赤松家,,合同会社,東京都,板橋区,常盤台４丁目３３番３－３０２号,,13,119,1740071,,,2021-11-10,清算の結了等,,,2020-09-11,1,,,,,アカマツヤ,0
64,1012702007601,登記記録の閉鎖等,0,2021-11-12,2021-11-09,有限会社石井青果店,,有限会社,東京都,清瀬市,竹丘２丁目２１番１２号,,13,221,2040023,,,2021-11-09,清算の結了等,,,2015-10-05,1,,,,,イシイセイカテン,0
68,1013303004806,登記記録の閉鎖等,0,2021-11-12,2021-11-05,合同会社Ｌｉｒｅｅｔ,,合同会社,東京都,豊島区,北大塚２丁目８番１２号,,13,116,1700004,,,2021-11-05,清算の結了等,,,2019-09-10,1,,,,,リリート,0
72,1020001081235,登記記録の閉鎖等,0,2021-11-12,2021-11-09,株式会社オフィスホシノ,,株式会社,神奈川県,川崎市幸区,戸手４丁目９番３－１４０３号,,14,132,2120005,,,2021-11-09,清算の結了等,,,2015-10-05,1,,,,,オフィスホシノ,0
79,1020002093782,登記記録の閉鎖等,0,2021-11-12,2021-11-09,有限会社ワイ・ケイ・マリン,,有限会社,神奈川県,川崎市多摩区,登戸３４１４番地,,14,135,2140014,,,2021-11-09,清算の結了等,,,2015-10-05,1,,,,,ワイケイマリン,0
87,1030001013815,登記記録の閉鎖等,0,2021-11-12,2021-10-14,富士通エフサス東日本カスタマサービス株式会社,,株式会社,埼玉県,さいたま市大宮区,桜木町１丁目１１番地２０大宮ＪＰビルディング,,11,103,3300854,,,2021-10-14,合併による解散等,2010001093825,令和３年１０月１日東京都千代田区岩本町三丁目１１番１１号富士通エフサス・カスタマサービス株式会社（2010001093825）に合併し解散,2015-10-05,1,,,,,フジツウエフサスヒガシニホンカスタマサービス,0
95,1030002081605,登記記録の閉鎖等,0,2021-11-12,2021-11-02,有限会社コウセイ,,有限会社,埼玉県,児玉郡美里町,大字白石９５９番地,,11,381,3670117,,,2021-11-02,清算の結了等,,,2015-10-05,1,,,,,コウセイ,0
109,1040002077362,登記記録の閉鎖等,0,2021-11-12,2021-11-05,有限会社鹿間商店,,有限会社,千葉県,東金市,東金７７８番地５,,12,213,2830802,,,2021-11-05,清算の結了等,,,2015-10-05,1,,,,,シカマショウテン,0
136,1120001042193,登記記録の閉鎖等,0,2021-11-12,2021-11-08,株式会社みなとまち不動産,,株式会社,大阪府,大阪市北区,梅田１丁目１１番４号大阪駅前第４ビル２０階,,27,127,5300001,,,2021-11-08,合併による解散等,4020001141507,令和３年１０月３１日横浜市神奈川区栄町５番地１横浜クリエーションスクエア１４階まちづくり不動産株式会社（4020001141507）に合併し解散,2015-10-05,1,,,,,,0
140,1120002017269,登記記録の閉鎖等,0,2021-11-12,2021-11-09,有限会社エース商事,,有限会社,大阪府,大阪市西区,新町１丁目１４番２１号,,27,106,5500013,,,2021-11-09,清算の結了等,,,2015-10-05,1,,,,,エースショウジ,0
146,1120101036392,登記記録の閉鎖等,0,2021-11-12,2021-11-01,株式会社かつ美,,株式会社,大阪府,岸和田市,上白原町２２９番地の１,,27,202,5960111,,,2021-11-01,清算の結了等,,,2015-10-05,1,,,,,カツミ,0
157,1130001015181,登記記録の閉鎖等,0,2021-11-12,2021-11-10,株式会社徳永建設,,株式会社,京都府,京都市伏見区,両替町１４丁目１５４番地,,26,109,6128082,,,2021-11-10,清算の結了等,,,2015-10-05,1,,,,,トクナガケンセツ,0
168,1180001104673,登記記録の閉鎖等,0,2021-11-12,2021-11-10,株式会社ファテライザー,,株式会社,愛知県,長久手市,蟹原１９０１番地,,23,238,4801142,,,2021-11-10,清算の結了等,,,2015-10-05,1,,,,,ファテライザー,0
181,1220002016434,登記記録の閉鎖等,0,2021-11-12,2021-11-08,有限会社米田エンジニアリング,,有限会社,石川県,河北郡内灘町,字向粟崎３丁目１６８番地,,17,365,9200274,,,2021-11-08,清算の結了等,,,2015-10-05,1,,,,,ヨネダエンジニアリング,0
198,1270002001745,登記記録の閉鎖等,0,2021-11-12,2021-11-10,橋本興産有限会社,,有限会社,鳥取県,鳥取市,西町２丁目４１８番地,,31,201,6800022,,,2021-11-10,清算の結了等,,,2015-10-05,1,,,,,ハシモトコウサン,0
207,1290002029784,登記記録の閉鎖等,0,2021-11-12,2021-11-08,有限会社アンテンヌ,,有限会社,福岡県,福岡市中央区,長浜２丁目３番４２－２０２号,,40,133,8100072,,,2021-11-08,清算の結了等,,,2015-10-05,1,,,,,アンテンヌ,0
213,1310002003753,登記記録の閉鎖等,0,2021-11-12,2021-11-11,有限会社カツイ,,有限会社,長崎県,長崎市,若草町２番３９号,,42,201,8528023,,,2021-11-11,清算の結了等,,,2015-10-05,1,,,,,カツイ,0
230,1420001002084,登記記録の閉鎖等,0,2021-11-12,2021-11-10,株式会社メルシーフローラ,,株式会社,青森県,青森市,問屋町２丁目１８番２１号,,02,201,0300131,,,2021-11-10,清算の結了等,,,2015-10-05,1,,,,,メルシーフローラ,0
239,1430002066061,登記記録の閉鎖等,0,2021-11-12,2021-11-09,有限会社美登建設,,有限会社,北海道,登別市,富岸町２丁目６番地１,,01,230,0590028,,,2021-11-09,清算の結了等,,,2015-10-05,1,,,,,ミトケンセツ,0
276,2010402013919,登記記録の閉鎖等,0,2021-11-12,2021-11-01,リトルキッズカンパニー有限会社,,有限会社,東京都,港区,元麻布３丁目４番７号,,13,103,1060046,,,2021-11-01,清算の結了等,,,2015-10-05,1,,,,,リトルキッズカンパニー,0
277,2010403024163,登記記録の閉鎖等,0,2021-11-12,2021-11-01,Ｐｏｉｒｉｅｒ合同会社,,合同会社,東京都,港区,元麻布３丁目１番６号,,13,103,1060046,,,2021-11-01,清算の結了等,,,2020-11-19,1,,,,,ポイリア,0
286,2010602023528,登記記録の閉鎖等,0,2021-11-12,2021-11-04,有限会社ニアス,,有限会社,東京都,墨田区,太平４丁目１番１－２３０５号,,13,107,1300012,,,2021-11-04,清算の結了等,,,2015-10-05,1,,,,,ニアス,0
294,2011001107285,登記記録の閉鎖等,0,2021-11-12,2021-10-28,株式会社トークスタンプ,,株式会社,東京都,渋谷区,恵比寿西２丁目４番８号,,13,113,1500021,,,2021-10-28,清算の結了等,,,2015-10-05,1,,,,,トークスタンプ,0
308,2011201010454,登記記録の閉鎖等,0,2021-11-12,2021-11-08,株式会社服部事務所,,株式会社,東京都,中野区,本町５丁目１４番２２号,,13,114,1640012,,,2021-11-08,清算の結了等,,,2015-10-05,1,,,,,ハットリジムショ,0
329,2020001107138,登記記録の閉鎖等,0,2021-11-12,2021-11-09,株式会社ＴＨＫ,,株式会社,神奈川県,川崎市中原区,等々力５番７号タマオペレーションセンター,,14,133,2110052,,,2021-11-09,清算の結了等,,,2015-10-05,1,,,,,ティエッチケイ,0
330,2020001137457,登記記録の閉鎖等,0,2021-11-12,2021-11-08,Ｓｃｉｅｎｔｅｃｈ株式会社,,株式会社,神奈川県,川崎市川崎区,港町５－３－１７２２,,14,131,2100807,,,2021-11-08,清算の結了等,,,2020-09-01,1,,,,,サンテク,0
334,2020002088492,登記記録の閉鎖等,0,2021-11-12,2021-11-10,有限会社大月工務店,,有限会社,神奈川県,川崎市高津区,北見方３丁目１２番４１号,,14,134,2130005,,,2021-11-10,清算の結了等,,,2015-10-05,1,,,,,オオツキコウムテン,0
340,2021002005578,登記記録の閉鎖等,0,2021-11-12,2021-11-10,有限会社エム・アンド・エス,,有限会社,神奈川県,藤沢市,藤沢９２６番地の１サージュ藤沢５０２号,,14,205,2510052,,,2021-11-10,清算の結了等,,,2015-10-05,1,,,,,エムアンドエス,0
355,2040001025180,登記記録の閉鎖等,0,2021-11-12,2021-11-05,共栄スチール株式会社,,株式会社,千葉県,千葉市美浜区,幸町１丁目２番１５－７０４号,,12,106,2610001,,,2021-11-05,清算の結了等,,,2015-10-05,1,,,,,キョウエイスチール,0
365,2050005011176,登記記録の閉鎖等,0,2021-11-12,2021-10-18,一般社団法人茨城県健康生きがいづくり協議会,,その他の設立登記法人,茨城県,水戸市,酒門町４２４５番地の７,,08,201,3100841,,,2021-10-18,清算の結了等,,,2015-10-05,1,,,,,イバラキケンケンコウイキガイヅクリキョウギカイ,0
369,2060005001705,登記記録の閉鎖等,0,2021-11-12,2021-10-15,照願寺,,その他の設立登記法人,栃木県,さくら市,金枝８９４番地,,09,214,3291405,,,2021-10-15,合併による解散等,2060005002125,令和３年１０月１５日栃木県那須郡那珂川町片平７５２番地常圓寺（2060005002125）に合併し解散,2015-10-05,1,,,,,ショウガンジ,0
383,2080103002017,登記記録の閉鎖等,0,2021-11-12,2021-11-08,合同会社Ｋ１,,合同会社,静岡県,三島市,文教町１丁目５番１５号,,22,206,4110033,,,2021-11-08,清算の結了等,,,2019-08-08,1,,,,,ケーワン,0
384,2080105001826,登記記録の閉鎖等,0,2021-11-12,2021-11-05,特定非営利活動法人エヌ・ピー・オー伊豆,,その他の設立登記法人,静岡県,伊豆の国市,田京１９５番地の２,,22,225,4102315,,,2021-11-05,清算の結了等,,,2015-10-05,1,,,,,エヌピーオーイズ,0
391,2120001073254,登記記録の閉鎖等,0,2021-11-12,2021-11-10,株式会社アイランド,,株式会社,大阪府,大阪市西区,京町堀１丁目１４番２４号,,27,106,5500003,,,2021-11-10,清算の結了等,,,2015-10-05,1,,,,,,0
405,2120102001782,登記記録の閉鎖等,0,2021-11-12,2021-11-08,有限会社コスモ電業社,,有限会社,大阪府,堺市堺区,榎元町６丁４番１０号,,27,141,5900027,,,2021-11-08,清算の結了等,,,2015-10-05,1,,,,,コスモデンギョウシャ,0
407,2120103002747,登記記録の閉鎖等,0,2021-11-12,2021-11-09,合同会社ながたに社会福祉士事務所,,合同会社,大阪府,河内長野市,木戸西町３丁目１１番２－１００４号,,27,216,5860009,,,2021-11-09,清算の結了等,,,2017-05-22,1,,,,,ナガタニシャカイフクシシジムショ,0
414,2140001077815,登記記録の閉鎖等,0,2021-11-12,2021-11-09,株式会社産有,,株式会社,兵庫県,姫路市,野里２４９番地の１,,28,201,6700811,,,2021-11-09,清算の結了等,,,2015-10-05,1,,,,,,0
441,2180002044950,登記記録の閉鎖等,0,2021-11-12,2021-11-09,有限会社豫園,,有限会社,愛知県,名古屋市港区,川西通１丁目１２番地,,23,111,4550073,,,2021-11-09,清算の結了等,,,2015-10-05,1,,,,,ヨエン,0
444,2180005001817,登記記録の閉鎖等,0,2021-11-12,2021-10-19,天理教愛前分教会,,その他の設立登記法人,愛知県,名古屋市緑区,大高町字川原３番地の２,,23,114,4598001,,,2021-10-19,合併による解散等,8180005012734,令和３年１０月１９日愛知県知多市岡田字向屋敷６番地の１天理教阿久比分教会（8180005012734）に合併し解散,2015-10-05,1,,,,,テンリキョウアイゼンブンキョウカイ,0
449,2200002010041,登記記録の閉鎖等,0,2021-11-12,2021-11-11,有限会社溝口瓦店,,有限会社,岐阜県,本巣市,仏生寺４１４番地の３,,21,218,5010407,,,2021-11-11,清算の結了等,,,2015-10-05,1,,,,,ミゾグチカワラテン,0
494,2430001027583,登記記録の閉鎖等,0,2021-11-12,2021-10-14,株式会社ホクセツ,,株式会社,北海道,札幌市中央区,北七条西１５丁目２８番１１号,,01,101,0600007,,,2021-10-14,合併による解散等,1010801018437,令和３年１０月１日東京都港区港南一丁目７番１８号水ｉｎｇ株式会社（1010801018437）に合併し解散,2015-10-05,1,,,,,ホクセツ,0
500,2430002053793,登記記録の閉鎖等,0,2021-11-12,2021-11-04,有限会社イシケン金物,,有限会社,北海道,小樽市,幸４丁目１番８号,,01,203,0470037,,,2021-11-04,清算の結了等,,,2015-10-05,1,,,,,イシケンカナモノ,0
502,2430005004810,登記記録の閉鎖等,0,2021-11-12,2021-10-20,天理教明惠分教会,,その他の設立登記法人,北海道,北広島市,大曲８０８番地１６３,,01,234,0611270,,,2021-10-20,合併による解散等,7440005000597,令和３年１０月１８日北海道函館市大川町１０番５号天理教北明分教会（7440005000597）に合併し解散,2015-10-05,1,,,,,テンリキョウメイケイブンキョウカイ,0
509,2480001008158,登記記録の閉鎖等,0,2021-11-12,2021-11-10,株式会社禪,,株式会社,徳島県,鳴門市,撫養町小桑島字前浜５８番地,,36,202,7720012,,,2021-11-10,清算の結了等,,,2015-10-05,1,,,,,ゼン,0
510,2480001010031,登記記録の閉鎖等,0,2021-11-12,2021-11-10,フラクタル株式会社,,株式会社,徳島県,徳島市,弓町２丁目２番地の６,,36,201,7700925,,,2021-11-10,清算の結了等,,,2017-05-31,1,,,,,フラクタル,0
514,3010001217119,登記記録の閉鎖等,0,2021-11-12,2021-11-09,Ｋｉｃｕｕ株式会社,,株式会社,東京都,千代田区,平河町１丁目６番１５号ＵＳビル８Ｆ,,13,101,1020093,,,2021-11-09,清算の結了等,,,2021-04-07,1,,,,,キクー,0
517,3010002044719,登記記録の閉鎖等,0,2021-11-12,2021-11-10,有限会社ニューポートビーチパートナーズ,,有限会社,東京都,千代田区,大手町１丁目７番２号東京サンケイビル２７階株式会社Ｊ－ＣＡＬインベストメント内,,13,101,1000004,,,2021-11-10,清算の結了等,,,2015-10-05,1,,,,,ニューポートビーチパートナーズ,0
528,3010401143534,登記記録の閉鎖等,0,2021-11-12,2021-11-08,Ｒｏｏｔｓ株式会社,,株式会社,東京都,港区,六本木７丁目１０番２０号ロッポンギＦレジデンス１０１,,13,103,1060032,,,2021-11-08,合併による解散等,1140001104157,令和３年１１月１日兵庫県西宮市池田町９番７号フレンテ西館３Ｆリモット株式会社（1140001104157）に合併し解散,2019-02-01,1,,,,,ルーツ,0
534,3010405013188,登記記録の閉鎖等,0,2021-11-12,2021-10-29,一般社団法人ＧＤＰ１,,その他の設立登記法人,東京都,港区,虎ノ門３丁目２２番１０－２０１号,,13,103,1050001,,,2021-10-29,清算の結了等,,,2015-10-05,1,,,,,ジーディーピーワン,0
537,3010502014452,登記記録の閉鎖等,0,2021-11-12,2021-11-10,サング有限会社,,有限会社,東京都,台東区,上野５丁目３番１０号,,13,106,1100005,,,2021-11-10,清算の結了等,,,2015-10-05,1,,,,,サング,0
542,3010701006787,登記記録の閉鎖等,0,2021-11-12,2021-11-09,東信土地開発株式会社,,株式会社,東京都,品川区,西品川１丁目９番８号,,13,109,1410033,,,2021-11-09,清算の結了等,,,2015-10-05,1,,,,,トウシントチカイハツ,0
584,3020001113721,登記記録の閉鎖等,0,2021-11-12,2021-11-09,とださんのケアーサポート株式会社,,株式会社,神奈川県,横浜市西区,高島２丁目１１番２号スカイメナー横浜５１９,,14,103,2200011,,,2021-11-09,清算の結了等,,,2015-11-25,1,,,,,トダサンノケアーサポート,0
614,3030003016285,登記記録の閉鎖等,0,2021-11-12,2021-11-05,合同会社マッキー,,合同会社,埼玉県,越谷市,南越谷４丁目１８番地１ハイツ田中２０３号,,11,222,3430845,,,2021-11-05,清算の結了等,,,2020-12-02,1,,,,,マッキー,0
616,3040001031079,登記記録の閉鎖等,0,2021-11-12,2021-11-05,株式会社ＣＩＳ,,株式会社,千葉県,市川市,柏井町１丁目１９２６番地,,12,203,2720802,,,2021-11-05,清算の結了等,,,2015-10-05,1,,,,,シーアイエス,0
622,3040002062800,登記記録の閉鎖等,0,2021-11-12,2021-11-02,有限会社オフィス・エイティナイン,,有限会社,千葉県,印旛郡酒々井町,東酒々井４丁目４番３８,,12,322,2850923,,,2021-11-02,清算の結了等,,,2015-10-05,1,,,,,オフィスエイティナイン,0
632,3050003000907,登記記録の閉鎖等,0,2021-11-12,2021-11-08,合同会社やさと,,合同会社,茨城県,石岡市,宇治会３７４番地４,,08,205,3150162,,,2021-11-08,清算の結了等,,,2015-10-05,1,,,,,ヤサト,0
653,3080105005215,登記記録の閉鎖等,0,2021-11-12,2021-11-02,アドホック富士協同組合,,その他の設立登記法人,静岡県,富士市,久沢２丁目１３番３１号,,22,210,4190202,,,2021-11-02,清算の結了等,,,2015-10-05,1,,,,,アドホックフジ,0
656,3080402010826,登記記録の閉鎖等,0,2021-11-12,2021-11-09,有限会社ビワ精工,,有限会社,静岡県,浜松市西区,入野町４９２４番地の１０佐鳴台パークホームズ１３１０,,22,133,4328061,,,2021-11-09,清算の結了等,,,2015-10-05,1,,,,,ビワセイコウ,0
663,3100002029388,登記記録の閉鎖等,0,2021-11-12,2021-11-04,有限会社ＰＤＳ,,有限会社,長野県,諏訪市,大字中洲４４８６番地１２,,20,206,3920015,,,2021-11-04,合併による解散等,9100001018196,令和３年１１月１日長野県諏訪市大字中洲４４３１番地株式会社エー・アイ・エヌ（9100001018196）に合併し解散,2015-10-05,1,,,,,ピーディーエス,0
664,3110001019414,登記記録の閉鎖等,0,2021-11-12,2021-11-09,株式会社マルトミ,,株式会社,新潟県,上越市,大字西田中２３６番地９,,15,222,9430873,,,2021-11-09,清算の結了等,,,2015-10-05,1,,,,,,0
685,3130003000147,登記記録の閉鎖等,0,2021-11-12,2021-11-10,合名会社いわしや岩佐医療器械製作所,,合名会社,京都府,京都市中京区,寺町通姉小路下る天性寺前町５３１番地,,26,104,6048081,,,2021-11-10,清算の結了等,,,2015-10-05,1,,,,,イワシヤイワサイリョウキカイセイサクショ,0
700,3140005010275,登記記録の閉鎖等,0,2021-11-12,2021-10-25,天理教養喜分教会,,その他の設立登記法人,兵庫県,養父市,八鹿町八木１０７８番地,,28,222,6670041,,,2021-10-25,合併による解散等,6140005010339,令和３年１０月２５日兵庫県養父市養父市場４８８番地の１天理教養父市場分教会（6140005010339）に合併し解散,2015-10-05,1,,,,,テンリキョウヨウキブンキョウカイ,0
701,3150002004072,登記記録の閉鎖等,0,2021-11-12,2021-11-10,有限会社大阪設計工務,,有限会社,奈良県,生駒市,松美台４５番地の１５,,29,209,6300241,,,2021-11-10,清算の結了等,,,2015-10-05,1,,,,,オオサカセッケイコウム,0
724,3190002015058,登記記録の閉鎖等,0,2021-11-12,2021-11-09,有限会社森岡石油,,有限会社,三重県,多気郡多気町,多気６２番地の１１,,24,441,5192154,,,2021-11-09,清算の結了等,,,2015-10-05,1,,,,,モリオカセキユ,0
732,3230002001433,登記記録の閉鎖等,0,2021-11-12,2021-11-04,有限会社ジーアンドビーカンパニー,,有限会社,富山県,富山市,金代１９６番地の４,,16,201,9300926,,,2021-11-04,清算の結了等,,,2015-10-05,1,,,,,ジーアンドビーカンパニー,0
744,3290002034394,登記記録の閉鎖等,0,2021-11-12,2021-11-08,有限会社広渡設備機器,,有限会社,福岡県,糟屋郡新宮町,上府北３丁目５番５号,,40,345,8110123,,,2021-11-08,清算の結了等,,,2015-10-05,1,,,,,ヒロワタリセツビキキ,0
755,3310002010657,登記記録の閉鎖等,0,2021-11-12,2021-11-10,有限会社田原組,,有限会社,長崎県,佐世保市,潮見町９番１０号,,42,202,8570834,,,2021-11-10,清算の結了等,,,2015-10-05,1,,,,,タハラグミ,0
762,3360001000836,登記記録の閉鎖等,0,2021-11-12,2021-10-15,株式会社久米電装,,株式会社,沖縄県,那覇市,久米２丁目１６番２５号,,47,201,9000033,,,2021-10-15,合併による解散等,5360001029031,令和３年１０月１日沖縄県那覇市久米二丁目１６番２５号ヤシマ工業株式会社（5360001029031）に合併し解散,2015-10-05,1,,,,,クメデンソウ,0
769,3390002006210,登記記録の閉鎖等,0,2021-11-12,2021-11-08,有限会社鈴木魚店,,有限会社,山形県,上山市,矢来１丁目７番２８号,,06,207,9993134,,,2021-11-08,清算の結了等,,,2015-10-05,1,,,,,,0
770,3390002010757,登記記録の閉鎖等,0,2021-11-12,2021-11-09,有限会社江口保険事務所,,有限会社,山形県,新庄市,大字松本２６６番地の５４,,06,205,9960051,,,2021-11-09,清算の結了等,,,2015-10-05,1,,,,,エグチホケンジムショ,0
782,3440001001470,登記記録の閉鎖等,0,2021-11-12,2021-11-10,株式会社中村建設,,株式会社,北海道,函館市,石川町６５番地の１２,,01,202,0410802,,,2021-11-10,清算の結了等,,,2015-10-05,1,,,,,ナカムラケンセツ,0
783,3440005001847,登記記録の閉鎖等,0,2021-11-12,2021-10-18,天理教森分教会,00090550,その他の設立登記法人,北海道,茅部郡森町,字本町１８２番地,,01,345,0492325,,,2021-10-18,合併による解散等,7440005000597,令和３年１０月１８日北海道函館市大川町１０番５号天理教北明分教会（7440005000597）に合併し解散,2015-10-05,1,,,,,テンリキョウモリブンキョウカイ,0
819,4010605001685,登記記録の閉鎖等,0,2021-11-12,2021-11-05,特定非営利活動法人江東まちづくり研究舎,,その他の設立登記法人,東京都,江東区,北砂１丁目３番４３－１０２号,,13,108,1360073,,,2021-11-05,清算の結了等,,,2015-10-05,1,,,,,コウトウマチヅクリケンキュウシャ,0
820,4010702003964,登記記録の閉鎖等,0,2021-11-12,2021-11-09,有限会社清水運送,,有限会社,東京都,品川区,東大井３丁目１６番３号,,13,109,1400011,,,2021-11-09,清算の結了等,,,2015-10-05,1,,,,,シミズウンソウ,0
822,4010802007510,登記記録の閉鎖等,0,2021-11-12,2021-11-08,有限会社スーパー池田,,有限会社,東京都,大田区,東糀谷５丁目１６番１６号,,13,111,1440033,,,2021-11-08,清算の結了等,,,2015-10-05,1,,,,,スーパーイケダ,0
828,4010902000308,登記記録の閉鎖等,0,2021-11-12,2021-11-10,有限会社アーバンライフ,,有限会社,東京都,世田谷区,新町１丁目２０番６号,,13,112,1540014,,,2021-11-10,清算の結了等,,,2015-10-05,1,,,,,アーバンライフ,0
844,4011202012489,登記記録の閉鎖等,0,2021-11-12,2021-11-08,メカニックモデル有限会社,,有限会社,埼玉県,さいたま市南区,松本２丁目１３番７号,,11,108,3360035,,,2021-11-08,清算の結了等,,,2015-10-05,1,,,,,,0
856,4011801027813,登記記録の閉鎖等,0,2021-11-12,2021-11-11,株式会社福屋,,株式会社,東京都,足立区,梅島１丁目１２番２号,,13,121,1210816,,,2021-11-11,清算の結了等,,,2015-10-05,1,,,,,,0
868,4020002028273,登記記録の閉鎖等,0,2021-11-12,2021-11-10,有限会社美浜建装,,有限会社,神奈川県,横浜市港北区,小机町４３２番地１０号,,14,109,2220036,,,2021-11-10,清算の結了等,,,2015-10-05,1,,,,,ミハマケンソウ,0
870,4020002041144,登記記録の閉鎖等,0,2021-11-12,2021-11-08,有限会社有商,,有限会社,神奈川県,横浜市中区,根岸町３丁目１７６番地,,14,104,2310836,,,2021-11-08,清算の結了等,,,2015-10-05,1,,,,,アリショウ,0
873,4020003013844,登記記録の閉鎖等,0,2021-11-12,2021-11-09,Ｊ＆Ｙ　Ｐａｒｔｎｅｒｓ合同会社,,合同会社,神奈川県,横浜市港南区,上永谷５丁目１５番５２号,,14,111,2330012,,,2021-11-09,清算の結了等,,,2018-01-26,1,,,,,ジェイアンドワイパートナーズ,0
902,4040001010008,登記記録の閉鎖等,0,2021-11-12,2021-10-28,株式会社エム・イー・ピー,,株式会社,千葉県,千葉市美浜区,打瀬３丁目５番地マリンフォート３－２０１号,,12,106,2610013,,,2021-10-28,清算の結了等,,,2015-10-05,1,,,,,エムイーピー,0
913,4040002091393,登記記録の閉鎖等,0,2021-11-12,2021-11-04,藤管理有限会社,,有限会社,千葉県,柏市,南柏１丁目４番１６号,,12,217,2770855,,,2021-11-04,清算の結了等,,,2015-10-05,1,,,,,フジカンリ,0
924,4070002036461,登記記録の閉鎖等,0,2021-11-12,2021-11-09,有限会社山友,,有限会社,群馬県,吾妻郡中之条町,大字入山１６４６番地の２,,10,421,3771701,,,2021-11-09,清算の結了等,,,2015-10-05,1,,,,,サンユウ,0
931,4120001082864,登記記録の閉鎖等,0,2021-11-12,2021-11-10,株式会社創企画,,株式会社,大阪府,大阪市中央区,南船場１丁目１０番１２号,,27,128,5420081,,,2021-11-10,清算の結了等,,,2015-10-05,1,,,,,,0
947,4130001033544,登記記録の閉鎖等,0,2021-11-12,2021-11-10,中澤商事株式会社,,株式会社,京都府,宇治市,伊勢田町浮面２７番地の３８,,26,204,6110043,,,2021-11-10,清算の結了等,,,2015-10-05,1,,,,,ナカザワショウジ,0
954,4130002018998,登記記録の閉鎖等,0,2021-11-12,2021-11-09,有限会社グッドデザイン研究社,,有限会社,京都府,京都市伏見区,桃山町大津町２２番地の２,,26,109,6128014,,,2021-11-09,清算の結了等,,,2015-10-05,1,,,,,グッドデザインケンキュウシャ,0
963,4140003014401,登記記録の閉鎖等,0,2021-11-12,2021-10-11,合同会社グロリア,,合同会社,兵庫県,神戸市須磨区,神撫町３丁目１番２号,,28,107,6540003,,,2021-10-11,清算の結了等,,,2019-10-23,1,,,,,グロリア,0
973,4180001000738,登記記録の閉鎖等,0,2021-11-12,2021-11-09,株式会社立神,,株式会社,愛知県,名古屋市守山区,小幡南１丁目８番１７号,,23,113,4630048,,,2021-11-09,清算の結了等,,,2015-10-05,1,,,,,タテガミ,0
1005,4240001003536,登記記録の閉鎖等,0,2021-11-12,2021-11-10,小僧建設株式会社,,株式会社,広島県,広島市安佐南区,西原５丁目１３番７－２０２号,,34,105,7310113,,,2021-11-10,清算の結了等,,,2015-10-05,1,,,,,コゾウケンセツ,0
1012,4280002001741,登記記録の閉鎖等,0,2021-11-12,2021-11-11,有限会社ハーフ・グループ,,有限会社,島根県,松江市,西長江町３７２番地,,32,201,6900132,,,2021-11-11,清算の結了等,,,2015-10-05,1,,,,,ハーフグループ,0
1024,4320001017858,登記記録の閉鎖等,0,2021-11-12,2021-11-11,ＭＲＴ九州株式会社,,株式会社,大分県,大分市,大字中判田３３５２番地,,44,201,8701113,,,2021-11-11,清算の結了等,,,2020-08-13,1,,,,,エムアールティーキュウシュウ,0
1042,4420005006343,登記記録の閉鎖等,0,2021-11-12,2021-09-28,天理教斗南分教会,,その他の設立登記法人,青森県,むつ市,柳町３丁目１番１１号,,02,208,0350031,,,2021-09-28,合併による解散等,6420005002217,令和３年９月２８日青森県青森市浪岡大字女鹿沢字東種本１番地１号天理教浪岡分教会（6420005002217）に合併し解散,2015-10-05,1,,,,,テンリキョウトナミブンキョウカイ,0
1055,4470001005591,登記記録の閉鎖等,0,2021-11-12,2021-11-10,株式会社高橋電器産業,,株式会社,香川県,高松市,松縄町１０８６番地８,,37,201,7600079,,,2021-11-10,清算の結了等,,,2015-10-05,1,,,,,タカハシデンキサンギョウ,0
1057,4470005002214,登記記録の閉鎖等,0,2021-11-12,2021-10-18,天理教日登勢分教会,,その他の設立登記法人,香川県,木田郡三木町,大字上高岡１７９８番地１,,37,341,7610613,,,2021-10-18,合併による解散等,2470005002216,令和３年１０月１８日香川県木田郡三木町大字氷上３４７７番地１天理教日香美分教会（2470005002216）に合併し解散,2015-10-05,1,,,,,テンリキョウヒトセブンキョウカイ,0
1061,4700150004288,登記記録の閉鎖等,0,2021-11-12,2021-03-31,日本窯業外装材協会,,その他,東京都,中央区,八丁堀２丁目１９番６号,,13,102,1040032,,,2021-03-31,その他の清算の結了等,,,2015-10-09,1,,,,,ニホンヨウギヨウガイソウザイキヨウカイ,0
1062,4700150048186,登記記録の閉鎖等,0,2021-11-12,2021-06-30,海津福祉事業協力会,,その他,岐阜県,海津市,海津町馬目４４１－３,,21,221,5030652,,,2021-06-30,その他の清算の結了等,,,2015-10-09,1,,,,,カイヅフクシジギヨウキヨウリヨクカイ,0
1077,5010401113964,登記記録の閉鎖等,0,2021-11-12,2021-11-01,株式会社スタニングマーケティング,,株式会社,東京都,港区,南青山２丁目２４番１５号,,13,103,1070062,,,2021-11-01,清算の結了等,,,2015-10-05,1,,,,,,0
1098,5010801023375,登記記録の閉鎖等,0,2021-11-12,2021-11-05,株式会社あさほり,,株式会社,東京都,大田区,仲六郷１丁目６番９－２０７号,,13,111,1440055,,,2021-11-05,清算の結了等,,,2015-10-05,1,,,,,アサホリ,0
1106,5010902022111,登記記録の閉鎖等,0,2021-11-12,2021-11-11,有限会社イズム・インターナショナル,,有限会社,東京都,世田谷区,野沢１丁目３５番１５－７０９号,,13,112,1540003,,,2021-11-11,清算の結了等,,,2015-10-05,1,,,,,イズムインターナショナル,0
1108,5011001051150,登記記録の閉鎖等,0,2021-11-12,2021-11-01,株式会社ブルズ・アイ,,株式会社,東京都,港区,六本木７丁目１８番１８号,,13,103,1060032,,,2021-11-01,清算の結了等,,,2015-10-05,1,,,,,,0
1110,5011001073525,登記記録の閉鎖等,0,2021-11-12,2021-11-01,株式会社ジープラス,,株式会社,東京都,港区,元赤坂１丁目７番１０号元赤坂ビル９Ｆ,,13,103,1070051,,,2021-11-01,清算の結了等,,,2015-10-05,1,,,,,ジープラス,0
1115,5011002032843,登記記録の閉鎖等,0,2021-11-12,2021-11-11,有限会社すりむ,,有限会社,東京都,渋谷区,円山町７番４号,,13,113,1500044,,,2021-11-11,清算の結了等,,,2015-10-05,1,,,,,スリム,0
1145,5020001084333,登記記録の閉鎖等,0,2021-11-12,2021-11-09,インスパイア株式会社,,株式会社,神奈川県,川崎市高津区,上作延８９０番地２,,14,134,2130034,,,2021-11-09,清算の結了等,,,2015-10-05,1,,,,,インスパイア,0
1153,5020001126523,登記記録の閉鎖等,0,2021-11-12,2021-11-10,株式会社ＣＲＥＦＵＳホールディングス,,株式会社,神奈川県,横浜市青葉区,榎が丘１番地６,,14,117,2270063,,,2021-11-10,合併による解散等,9020001043013,令和３年１１月１０日横浜市青葉区榎が丘１番地６株式会社ロボット科学教育（9020001043013）に合併し解散,2018-05-31,1,,,,,クレファスホールディングス,0
1165,5021003007661,登記記録の閉鎖等,0,2021-11-12,2021-11-08,ＵＫコーポレーション合同会社,,合同会社,神奈川県,藤沢市,藤沢５７１番地（大新ビル）,,14,205,2510052,,,2021-11-08,清算の結了等,,,2018-07-23,1,,,,,ユーケーコーポレーション,0
1172,5030002048162,登記記録の閉鎖等,0,2021-11-12,2021-11-05,有限会社阿部土木興業,,有限会社,埼玉県,三郷市,彦江１丁目２８９番地２,,11,237,3410058,,,2021-11-05,清算の結了等,,,2015-10-05,1,,,,,アベドボクコウギョウ,0
1174,5030002119467,登記記録の閉鎖等,0,2021-11-12,2021-11-05,有限会社栄医療,,有限会社,埼玉県,飯能市,栄町１０番３号,,11,209,3570025,,,2021-11-05,清算の結了等,,,2015-10-05,1,,,,,サカエイリョウ,0
1179,5040001024477,登記記録の閉鎖等,0,2021-11-12,2021-11-05,株式会社Ｓｙｍｐｈｏｎｙ,,株式会社,千葉県,船橋市,南三咲２丁目７番３号,,12,204,2740813,,,2021-11-05,清算の結了等,,,2015-10-05,1,,,,,シンフォニー,0
1184,5050002044077,登記記録の閉鎖等,0,2021-11-12,2021-11-05,有限会社小泉石材工業,,有限会社,茨城県,桜川市,友部１５８０番地の１,,08,231,3091453,,,2021-11-05,清算の結了等,,,2015-10-05,1,,,,,コイズミセキザイコウギョウ,0
1188,5060002004889,登記記録の閉鎖等,0,2021-11-12,2021-11-08,有限会社シャンブレいけ田,,有限会社,栃木県,宇都宮市,駒生１丁目１番６号,,09,201,3200066,,,2021-11-08,清算の結了等,,,2015-10-05,1,,,,,,0
1204,5120001062618,登記記録の閉鎖等,0,2021-11-12,2021-10-12,富士通エフサス関西カスタマサービス株式会社,,株式会社,大阪府,大阪市中央区,城見２丁目２番２２号,,27,128,5400001,,,2021-10-12,合併による解散等,4180001036831,令和３年１０月１日名古屋市中区錦一丁目６番１８号富士通エフサス東海カスタマサービス株式会社（4180001036831）に合併し解散,2015-10-05,1,,,,,,0
1221,5120902009725,登記記録の閉鎖等,0,2021-11-12,2021-11-09,有限会社エステック,,有限会社,大阪府,高槻市,氷室町１丁目１０番９号,,27,207,5691141,,,2021-11-09,清算の結了等,,,2015-10-05,1,,,,,エステック,0
1251,5170005002796,登記記録の閉鎖等,0,2021-11-12,2021-10-19,天理教北有分教会,,その他の設立登記法人,和歌山県,有田市,山田原１０３番地の１,,30,204,6490302,,,2021-10-19,合併による解散等,7170005002605,令和３年１０月１９日和歌山県有田郡湯浅町大字湯浅１４５１番地の１天理教南有分教会（7170005002605）に合併し解散,2015-10-05,1,,,,,テンリキョウホクユウブンキョウカイ,0
1259,5180001117440,登記記録の閉鎖等,0,2021-11-12,2021-11-09,辻販売株式会社,00072715,株式会社,愛知県,春日井市,高座台５丁目４番地５０,,23,206,4870017,,,2021-11-09,清算の結了等,,,2015-10-05,1,,,,,ツジハンバイ,0
1271,5210002001185,登記記録の閉鎖等,0,2021-11-12,2021-11-10,有限会社希林,,有限会社,福井県,福井市,日光２丁目３番１９号,,18,201,9100029,,,2021-11-10,清算の結了等,,,2015-10-05,1,,,,,キリン,0
1284,5260001019190,登記記録の閉鎖等,0,2021-11-12,2021-11-08,株式会社中西工務店,,株式会社,岡山県,新見市,高尾２７６番地の１１,,33,210,7180003,,,2021-11-08,清算の結了等,,,2015-10-05,1,,,,,ナカニシコウムテン,0
1293,5290003005161,登記記録の閉鎖等,0,2021-11-12,2021-11-10,ボストン合同会社,,合同会社,福岡県,福岡市中央区,地行２丁目１２番１号,,40,133,8100064,,,2021-11-10,合併による解散等,3290801016460,令和３年１１月１日福岡県田川市伊田町１１番１４号英彦山開発株式会社（3290801016460）に合併し解散,2015-10-05,1,,,,,ボストン,0
1320,5380002000179,登記記録の閉鎖等,0,2021-11-12,2021-11-09,アズテック有限会社,,有限会社,福島県,福島市,渡利字七社宮４番地の１,,07,201,9608141,,,2021-11-09,清算の結了等,,,2015-10-05,1,,,,,アズテック,0
1332,5410005005080,登記記録の閉鎖等,0,2021-11-12,2021-10-22,天理教浅櫻分教会,,その他の設立登記法人,秋田県,横手市,平鹿町浅舞字桜森境１０８番地,,05,203,0130105,,,2021-10-22,合併による解散等,7410005005038,令和３年１０月２２日秋田県横手市前郷字上在家１４３番地８宗教法人天理教横手町分教会（7410005005038）に合併し解散,2015-10-05,1,,,,,,0
1340,5450005001712,登記記録の閉鎖等,0,2021-11-12,2021-10-25,天理教一己分教会,,その他の設立登記法人,北海道,深川市,稲穂町２丁目３番４号,,01,228,0740021,,,2021-10-25,合併による解散等,9450005001709,令和３年１０月２５日北海道深川市北光町一丁目１番１１号天理教多度志分教会（9450005001709）に合併し解散,2015-10-05,1,,,,,テンリキョウイッチャンブンキョウカイ,0
1342,5460002003545,登記記録の閉鎖等,0,2021-11-12,2021-11-10,有限会社釧秀運輸,,有限会社,北海道,釧路市,星が浦大通４丁目５番３１号,,01,206,0840912,,,2021-11-10,清算の結了等,,,2015-10-05,1,,,,,センシュウウンユ,0
1345,5470005005661,登記記録の閉鎖等,0,2021-11-12,2021-11-10,医療法人社団自尊会,,その他の設立登記法人,香川県,高松市,太田上町４２０番地１,,37,201,7618074,,,2021-11-10,清算の結了等,,,2015-10-05,1,,,,,ジソンカイ,0
1353,5700150005731,登記記録の閉鎖等,0,2021-11-12,2021-07-16,東京貨物運送厚生年金基金,,その他,東京都,千代田区,一番町６番地,,13,101,1020082,,,2021-07-16,その他の清算の結了等,,,2015-10-09,1,,,,,トウキヨウカモツウンソウコウセイネンキンキキン,0
1367,6010401121859,登記記録の閉鎖等,0,2021-11-12,2021-11-01,株式会社レシピアンドマーケット,,株式会社,東京都,港区,海岸３丁目３番１８号芝浦日新ビル本館５階５０２号室,,13,103,1080022,,,2021-11-01,清算の結了等,,,2015-12-03,1,,,,,レシピアンドマーケット,0
1372,6010403014061,登記記録の閉鎖等,0,2021-11-12,2021-10-29,合同会社ＬＰＳ１,,合同会社,東京都,港区,虎ノ門３丁目２２番１０－２０１号,,13,103,1050001,,,2021-10-29,清算の結了等,,,2015-11-12,1,,,,,エルピーエスワン,0
1375,6010501019623,登記記録の閉鎖等,0,2021-11-12,2021-11-11,株式会社レイソル,,株式会社,東京都,台東区,松が谷１丁目２番４－１３０１号,,13,106,1110036,,,2021-11-11,清算の結了等,,,2015-10-05,1,,,,,レイソル,0
1377,6010602007155,登記記録の閉鎖等,0,2021-11-12,2021-11-04,有限会社とり宣,,有限会社,東京都,江東区,扇橋２丁目４番４号,,13,108,1350011,,,2021-11-04,清算の結了等,,,2015-10-05,1,,,,,トリセン,0
1386,6010701028481,登記記録の閉鎖等,0,2021-11-12,2021-11-11,株式会社クローバーキャピタル,,株式会社,東京都,中央区,築地６丁目１１番１号,,13,102,1040045,,,2021-11-11,清算の結了等,,,2015-10-05,1,,,,,クローバーキャピタル,0
1396,6011101073671,登記記録の閉鎖等,0,2021-11-12,2021-10-29,株式会社ＫＧパートナーズ,,株式会社,東京都,港区,南青山２丁目４番１５号,,13,103,1070062,,,2021-10-29,清算の結了等,,,2015-10-05,1,,,,,ケージーパートナーズ,0
1421,6020001076949,登記記録の閉鎖等,0,2021-11-12,2021-11-04,株式会社アキュセラ,,株式会社,神奈川県,川崎市麻生区,栗木２丁目７番６号,,14,137,2150033,,,2021-11-04,合併による解散等,9020001065057,令和３年１１月１日川崎市麻生区栗木二丁目７番６号株式会社エーイーティー（9020001065057）に合併し解散,2015-10-05,1,,,,,アキュセラ,0
1426,6020002037215,登記記録の閉鎖等,0,2021-11-12,2021-11-09,有限会社エコノミー工業,,有限会社,神奈川県,横浜市鶴見区,獅子ケ谷１丁目５４番２８号,,14,101,2300073,,,2021-11-09,清算の結了等,,,2015-10-05,1,,,,,エコノミーコウギョウ,0
1439,6021001044573,登記記録の閉鎖等,0,2021-11-12,2021-11-08,株式会社和建築金物設計事務所,,株式会社,神奈川県,横須賀市,山科台３番１２号,,14,201,2380312,,,2021-11-08,清算の結了等,,,2015-10-05,1,,,,,カズケンチクカナモノセッケイジムショ,0
1447,6030001040227,登記記録の閉鎖等,0,2021-11-12,2021-11-08,株式会社アルカディア,,株式会社,埼玉県,草加市,氷川町２１２９番６号,,11,221,3400034,,,2021-11-08,清算の結了等,,,2015-10-05,1,,,,,アルカディア,0
1452,6030002068176,登記記録の閉鎖等,0,2021-11-12,2021-11-04,有限会社木瀬精肉店,,有限会社,埼玉県,春日部市,大枝８９番地武里団地２街区１１棟１０４号,,11,214,3440023,,,2021-11-04,清算の結了等,,,2015-10-05,1,,,,,キセセイニクテン,0
1490,6080405006075,登記記録の閉鎖等,0,2021-11-12,2021-11-04,天方茶農業協同組合,,その他の設立登記法人,静岡県,周智郡森町,問詰１６８７番地,,22,461,4370204,,,2021-11-04,清算の結了等,,,2015-10-05,1,,,,,アマガタチャ,0
1493,6110005001646,登記記録の閉鎖等,0,2021-11-12,2021-10-22,天理教亀田郷分教会,,その他の設立登記法人,新潟県,新潟市江南区,船戸山４丁目５番１号,,15,104,9500153,,,2021-10-22,合併による解散等,8110005001314,令和３年１０月２２日新潟市東区東明五丁目３番地９宗教法人天理教礎分教会（8110005001314）に合併し解散,2015-10-05,1,,,,,テンリキョウカメダゴウブンキョウカイ,0
1498,6120001124532,登記記録の閉鎖等,0,2021-11-12,2021-11-08,みやび堂製菓本舗株式会社,,株式会社,大阪府,大阪市東住吉区,南田辺３丁目２１番８号,,27,121,5460033,,,2021-11-08,清算の結了等,,,2015-10-05,1,,,,,ミヤビドウセイカホンポ,0
1510,6120101040349,登記記録の閉鎖等,0,2021-11-12,2021-11-08,株式会社植仲造園,,株式会社,大阪府,泉南郡熊取町,朝代東４丁目１０番７号,,27,361,5900457,,,2021-11-08,清算の結了等,,,2015-10-05,1,,,,,ウエナカゾウエン,0
1524,6130002019623,登記記録の閉鎖等,0,2021-11-12,2021-11-10,有限会社ビッグウエストプランニング,,有限会社,京都府,京都市下京区,四条大宮東入る立中町５０２番地四条ファーストビル７Ｆ,,26,106,6000000,,,2021-11-10,清算の結了等,,,2015-10-05,1,,,,,ビッグウエストプランニング,0
1527,6140001038854,登記記録の閉鎖等,0,2021-11-12,2021-11-05,マルス麺業株式会社,,株式会社,兵庫県,たつの市,新宮町新宮４１０番地,,28,229,6794313,,,2021-11-05,清算の結了等,,,2015-10-05,1,,,,,,0
1544,6180001098341,登記記録の閉鎖等,0,2021-11-12,2021-11-09,株式会社フクヤマ,,株式会社,愛知県,あま市,七宝町川部行田４１番地,,23,237,4970013,,,2021-11-09,清算の結了等,,,2015-10-05,1,,,,,フクヤマ,0
1545,6180001114841,登記記録の閉鎖等,0,2021-11-12,2021-11-11,株式会社トポス,,株式会社,岐阜県,高山市,上三之町６７番地,,21,203,5060846,,,2021-11-11,清算の結了等,,,2015-10-05,1,,,,,トポス,0
1550,6180001142495,登記記録の閉鎖等,0,2021-11-12,2021-11-04,株式会社Ｒｉｉｔａ,,株式会社,愛知県,名古屋市中区,金山２丁目４番２２号,,23,106,4600022,,,2021-11-04,清算の結了等,,,2020-08-20,1,,,,,リータ,0
1557,6190002014635,登記記録の閉鎖等,0,2021-11-12,2021-11-10,有限会社ヤマモト,,有限会社,三重県,松阪市,殿町１２１０番地の１,,24,204,5150073,,,2021-11-10,清算の結了等,,,2015-10-05,1,,,,,ヤマモト,0
1558,6190005003701,登記記録の閉鎖等,0,2021-11-12,2021-10-21,天理教鵜殿分教会,,その他の設立登記法人,三重県,南牟婁郡紀宝町,鵜殿１４１９番地,,24,562,5195701,,,2021-10-21,合併による解散等,3190005003662,令和３年１０月２１日三重県南牟婁郡御浜町大字下市木２６６３番地天理教宮濱分教会（3190005003662）に合併し解散,2015-10-05,1,,,,,テンリキョウウドノブンキョウカイ,0
1565,6230002009234,登記記録の閉鎖等,0,2021-11-12,2021-11-01,有限会社川瀬,,有限会社,富山県,砺波市,宮森新９７番地,,16,208,9391404,,,2021-11-01,合併による解散等,3230001014650,令和３年１１月１日富山県砺波市宮森新９７番地川瀬ＣＪ株式会社（3230001014650）に合併し解散,2015-10-05,1,,,,,カワセ,0
1569,6240001010836,登記記録の閉鎖等,0,2021-11-12,2021-11-11,株式会社ホテルニューヒロデン,,株式会社,広島県,広島市中区,東千田町２丁目９番２９号,,34,101,7300053,,,2021-11-11,清算の結了等,,,2015-10-05,1,,,,,ホテルニューヒロデン,0
1570,6240001016577,登記記録の閉鎖等,0,2021-11-12,2021-11-11,株式会社東洋食品,,株式会社,広島県,三次市,南畑敷町３００番地４１,,34,209,7280017,,,2021-11-11,清算の結了等,,,2015-10-05,1,,,,,トウヨウショクヒン,0
1583,6290001077821,登記記録の閉鎖等,0,2021-11-12,2021-11-08,株式会社祥悦設計,,株式会社,福岡県,福岡市博多区,中洲３丁目７番２４号,,40,132,8100801,,,2021-11-08,清算の結了等,,,2017-05-17,1,,,,,ショウエツセッケイ,0
1588,6290003005160,登記記録の閉鎖等,0,2021-11-12,2021-11-10,シアトル合同会社,,合同会社,福岡県,福岡市中央区,地行２丁目１２番１号,,40,133,8100064,,,2021-11-10,合併による解散等,3290801016460,令和３年１１月１日福岡県田川市伊田町１１番１４号英彦山開発株式会社（3290801016460）に合併し解散,2015-10-05,1,,,,,シアトル,0
1595,6290801003266,登記記録の閉鎖等,0,2021-11-12,2021-11-02,株式会社プライム,,株式会社,福岡県,北九州市小倉北区,竪町１丁目６番７号,,40,106,8030818,,,2021-11-02,清算の結了等,,,2015-10-05,1,,,,,プライム,0
1597,6290801017720,登記記録の閉鎖等,0,2021-11-12,2021-11-09,株式会社篠原酒店,,株式会社,福岡県,直方市,大字感田２２７０番地８,,40,204,8220001,,,2021-11-09,清算の結了等,,,2015-10-05,1,,,,,シノハラサケテン,0
1609,6360001016796,登記記録の閉鎖等,0,2021-11-12,2021-11-09,コムシスＲＹ株式会社,,株式会社,沖縄県,中頭郡北谷町,北谷２丁目１８番地１２,,47,326,9040116,,,2021-11-09,合併による解散等,9360002019325,令和３年１０月１日東京都江東区有明三丁目７番２６号有明フロンティアビルＢ棟９階Ｊ＆Ｒ株式会社（9360002019325）に合併し解散,2015-10-05,1,,,,,,0
1620,6420005000113,登記記録の閉鎖等,0,2021-11-12,2021-11-02,青森鉄工協同組合,,その他の設立登記法人,青森県,青森市,原別５丁目１１番５５号,,02,201,0300921,,,2021-11-02,清算の結了等,,,2015-10-05,1,,,,,アオモリテッコウ,0
1649,7010401034845,登記記録の閉鎖等,0,2021-11-12,2021-11-01,株式会社エムオン・エンタテインメント,,株式会社,東京都,港区,六本木３丁目１６番３３号,,13,103,1060032,,,2021-11-01,合併による解散等,3011101011642,令和３年１１月１日東京都港区赤坂九丁目７番１号株式会社ソニー・ミュージックソリューションズ（3011101011642）に合併し解散,2015-10-05,1,,,,,エムオンエンタテインメント,0
1653,7010401149404,登記記録の閉鎖等,0,2021-11-12,2021-11-09,桜の夢株式会社,,株式会社,茨城県,東茨城郡城里町,大字下赤沢５０４番地,,08,310,3114406,,,2021-11-09,清算の結了等,,,2019-11-25,1,,,,,サクラノユメ,0
1655,7010402015043,登記記録の閉鎖等,0,2021-11-12,2021-10-29,有限会社岡康道事務所,,有限会社,東京都,港区,南青山５丁目６番２４号,,13,103,1070062,,,2021-10-29,清算の結了等,,,2015-10-05,1,,,,,オカヤスミチジムショ,0
1659,7010405018118,登記記録の閉鎖等,0,2021-11-12,2021-11-01,一般社団法人エネルギー５,,その他の設立登記法人,東京都,港区,虎ノ門３丁目２２番１０－２０１号,,13,103,1050001,,,2021-11-01,清算の結了等,,,2019-10-03,1,,,,,エネルギーゴ,0
1661,7010501014557,登記記録の閉鎖等,0,2021-11-12,2021-11-11,村中商工株式会社,,株式会社,東京都,台東区,西浅草１丁目１番１３－３０３号,,13,106,1110035,,,2021-11-11,清算の結了等,,,2015-10-05,1,,,,,ムラナカショウコウ,0
1682,7011101038062,登記記録の閉鎖等,0,2021-11-12,2021-10-26,株式会社ＣＳＩソリューションズ,,株式会社,東京都,江東区,豊洲３丁目２番２０号,,13,108,1350061,,,2021-10-26,合併による解散等,7011101060388,令和３年１０月１日東京都新宿区西新宿二丁目４番１号株式会社Ｍｉｎｏｒｉソリューションズ（7011101060388）に合併し解散,2015-10-05,1,,,,,シーエスアイソリューションズ,0
1683,7011101039804,登記記録の閉鎖等,0,2021-11-12,2021-10-26,Ｗｉｎテクノロジ株式会社,,株式会社,東京都,江東区,豊洲３丁目２番２０号,,13,108,1350061,,,2021-10-26,合併による解散等,7011101060388,令和３年１０月１日東京都新宿区西新宿二丁目４番１号株式会社Ｍｉｎｏｒｉソリューションズ（7011101060388）に合併し解散,2015-10-05,1,,,,,ウインテクノロジ,0
1693,7011802014295,登記記録の閉鎖等,0,2021-11-12,2021-11-11,有限会社エムエスサポート,,有限会社,東京都,足立区,綾瀬１丁目１９番１９号,,13,121,1200005,,,2021-11-11,清算の結了等,,,2015-10-05,1,,,,,エムエスサポート,0
1698,7012705002040,登記記録の閉鎖等,0,2021-11-12,2021-11-08,一般社団法人清瀬中村本家,,その他の設立登記法人,東京都,清瀬市,中里４丁目１１３２番地,,13,221,2040003,,,2021-11-08,清算の結了等,,,2017-10-02,1,,,,,キヨセナカムラホンケ,0
1699,7012801001598,登記記録の閉鎖等,0,2021-11-12,2021-11-10,ミミー電子株式会社,,株式会社,東京都,立川市,栄町６丁目１６番１号,,13,202,1900003,,,2021-11-10,清算の結了等,,,2015-10-05,1,,,,,,0
1715,7021002057136,登記記録の閉鎖等,0,2021-11-12,2021-11-08,有限会社大山工機製作所,,有限会社,神奈川県,平塚市,西八幡１丁目２番１０号,,14,203,2540073,,,2021-11-08,清算の結了等,,,2015-10-05,1,,,,,オオヤマコウキセイサクイショ,0
1734,7040001049919,登記記録の閉鎖等,0,2021-11-12,2021-11-04,株式会社Ｓｐａｒｋｌｅ,,株式会社,千葉県,八街市,八街ほ８２５番地２９,,12,230,2891115,,,2021-11-04,清算の結了等,,,2015-10-05,1,,,,,スパークル,0
1739,7040002002570,登記記録の閉鎖等,0,2021-11-12,2021-11-04,有限会社おべんとう森田,,有限会社,千葉県,千葉市若葉区,小倉町１６９８番地の１２,,12,104,2640007,,,2021-11-04,清算の結了等,,,2015-10-05,1,,,,,オベントウモリタ,0
1741,7040002037864,登記記録の閉鎖等,0,2021-11-12,2021-11-04,有限会社小杉商店,,有限会社,千葉県,鎌ケ谷市,くぬぎ山５丁目２番１２号,,12,224,2730128,,,2021-11-04,清算の結了等,,,2015-10-05,1,,,,,コスギショウテン,0
1751,7060001024960,登記記録の閉鎖等,0,2021-11-12,2021-11-08,株式会社藤吉,,株式会社,栃木県,宇都宮市,西刑部町２６８１番地４５,,09,201,3210917,,,2021-11-08,清算の結了等,,,2015-10-05,1,,,,,フジヨシ,0
1756,7080401010229,登記記録の閉鎖等,0,2021-11-12,2021-11-09,株式会社坂下建設,,株式会社,静岡県,浜松市浜北区,新原４１４１番地の１,,22,136,4340003,,,2021-11-09,清算の結了等,,,2015-10-05,1,,,,,サカシタケンセツ,0
1767,7120001004205,登記記録の閉鎖等,0,2021-11-12,2021-11-10,ファインライト販売株式会社,,株式会社,大阪府,大阪市西成区,出城１丁目４番１０号,,27,122,5570024,,,2021-11-10,清算の結了等,,,2015-10-05,1,,,,,,0
1787,7122001018738,登記記録の閉鎖等,0,2021-11-12,2021-11-09,正栄化学株式会社,,株式会社,大阪府,泉佐野市,日根野７２番１７号,,27,213,5980021,,,2021-11-09,清算の結了等,,,2015-10-05,1,,,,,ショウエイカガク,0
1791,7140001046468,登記記録の閉鎖等,0,2021-11-12,2021-11-09,オカアスローリー株式会社,,株式会社,兵庫県,加古川市,野口町北野８４９番地の６,,28,210,6750011,,,2021-11-09,清算の結了等,,,2015-10-05,1,,,,,オカアスローリー,0
1800,7140002048091,登記記録の閉鎖等,0,2021-11-12,2021-11-08,有限会社亀井測量,,有限会社,兵庫県,姫路市,勝原区丁１５４番地の１,,28,201,6711203,,,2021-11-08,清算の結了等,,,2015-10-05,1,,,,,カメイソクリョウ,0
1816,7180001120038,登記記録の閉鎖等,0,2021-11-12,2021-11-09,株式会社風岡塗装,,株式会社,愛知県,名古屋市中川区,戸田５丁目１３１３番地,,23,110,4540962,,,2021-11-09,清算の結了等,,,2015-10-05,1,,,,,カザオカトソウ,0
1827,7190001010337,登記記録の閉鎖等,0,2021-11-12,2021-11-11,大和自工株式会社,,株式会社,三重県,松阪市,垣鼻町１５２０番地の７,,24,204,5150033,,,2021-11-11,清算の結了等,,,2015-10-05,1,,,,,,0
1830,7230001004557,登記記録の閉鎖等,0,2021-11-12,2021-10-12,富士通エフサス北陸カスタマサービス株式会社,,株式会社,富山県,富山市,新桜町２番２１号,,16,201,9300005,,,2021-10-12,合併による解散等,4180001036831,令和３年１０月１日名古屋市中区錦一丁目６番１８号富士通エフサス東海カスタマサービス株式会社（4180001036831）に合併し解散,2015-10-05,1,,,,,フジツウエフサスホクリクカスタマサービス,0
1840,7260002034105,登記記録の閉鎖等,0,2021-11-12,2021-11-10,有限会社ユーアイ,,有限会社,岡山県,真庭市,蒜山上徳山６６３番地,,33,214,7170612,,,2021-11-10,清算の結了等,,,2015-10-05,1,,,,,ユーアイ,0
1844,7290001081021,登記記録の閉鎖等,0,2021-11-12,2021-10-01,株式会社ビースト,,株式会社,福岡県,糟屋郡宇美町,神武原３丁目９番９号,,40,341,8112129,,,2021-10-01,清算の結了等,,,2018-04-11,1,,,,,ビースト,0
1862,7300002006999,登記記録の閉鎖等,0,2021-11-12,2021-10-27,有限会社陶彩館,,有限会社,佐賀県,嬉野市,塩田町大字大草野丙９番地１,,41,209,8491415,,,2021-10-27,清算の結了等,,,2021-01-18,1,,,,,トウサイカン,0
1876,7390002000069,登記記録の閉鎖等,0,2021-11-12,2021-11-10,有限会社アロー商事,,有限会社,山形県,山形市,青田４丁目１番２９号,,06,201,9902435,,,2021-11-10,清算の結了等,,,2015-10-05,1,,,,,アローショウジ,0
1890,7440005002593,登記記録の閉鎖等,0,2021-11-12,2021-10-19,社会福祉法人函館みらい会,,その他の設立登記法人,北海道,函館市,日吉町４丁目１６番２０号,,01,202,0410841,,,2021-10-19,合併による解散等,7290005001355,令和３年１０月１日福岡市東区雁の巣一丁目７番２５号社会福祉法人創生会（7290005001355）に合併し解散,2017-04-12,1,,,,,ハコダテミライカイ,0
1899,8010001059886,登記記録の閉鎖等,0,2021-11-12,2021-11-08,株式会社ユーリアコーポレーション,,株式会社,東京都,北区,田端１丁目６番４－１０３号,,13,117,1140014,,,2021-11-08,清算の結了等,,,2015-10-05,1,,,,,ユーリアコーポレーション,0
1920,8010401052730,登記記録の閉鎖等,0,2021-11-12,2021-11-08,ニスク株式会社,,株式会社,東京都,港区,高輪２丁目１４番１４号,,13,103,1080074,,,2021-11-08,清算の結了等,,,2015-10-05,1,,,,,,0
1921,8010401087017,登記記録の閉鎖等,0,2021-11-12,2021-11-01,株式会社マウス,,株式会社,東京都,港区,赤坂１丁目４番１４号ダイヤモンドビル赤坂５階,,13,103,1070052,,,2021-11-01,清算の結了等,,,2015-10-05,1,,,,,マウス,0
1932,8010401158825,登記記録の閉鎖等,0,2021-11-12,2021-11-09,株式会社ＮＭ２,,株式会社,東京都,港区,元赤坂１丁目１番８号株式会社赤坂国際会計内,,13,103,1070051,,,2021-11-09,合併による解散等,7010001193273,令和３年１１月１日東京都千代田区神田小川町三丁目６番地９神田第２アメレックスビル７階株式会社新潟マテリアルホールディングス（7010001193273）に合併し解散,2021-03-15,1,,,,,エヌエムツー,0
1946,8010801021748,登記記録の閉鎖等,0,2021-11-12,2021-11-08,株式会社エス・エス・ポーターズ,,株式会社,東京都,大田区,中央８丁目３７番３号,,13,111,1430024,,,2021-11-08,清算の結了等,,,2015-10-05,1,,,,,エスエスポーターズ,0
1947,8010801028982,登記記録の閉鎖等,0,2021-11-12,2021-11-05,株式会社ＹＦ,,株式会社,東京都,大田区,東六郷２丁目１１番１３号,,13,111,1440046,,,2021-11-05,清算の結了等,,,2018-07-12,1,,,,,ワイフ,0
1948,8010901022662,登記記録の閉鎖等,0,2021-11-12,2021-11-10,株式会社ダリオパパ,,株式会社,東京都,世田谷区,上北沢３丁目１９番１８号,,13,112,1560057,,,2021-11-10,清算の結了等,,,2015-10-05,1,,,,,,0
1965,8011101048977,登記記録の閉鎖等,0,2021-11-12,2021-11-08,ムニャニテラピー株式会社,,株式会社,東京都,新宿区,住吉町２番１８ウィン四谷,,13,104,1620065,,,2021-11-08,清算の結了等,,,2015-10-05,1,,,,,ムニャニテラピー,0
1976,8011302015958,登記記録の閉鎖等,0,2021-11-12,2021-11-04,有限会社近江商会,,有限会社,東京都,杉並区,高井戸東１丁目２番１４号,,13,115,1680072,,,2021-11-04,清算の結了等,,,2015-10-05,1,,,,,オオミショウカイ,0
1977,8011402009653,登記記録の閉鎖等,0,2021-11-12,2021-11-09,有限会社和田,,有限会社,東京都,板橋区,南常盤台２丁目１６番１２号,,13,119,1740072,,,2021-11-09,清算の結了等,,,2015-10-05,1,,,,,ワダ,0
1985,8011801018643,登記記録の閉鎖等,0,2021-11-12,2021-11-09,株式会社大一警備保障,,株式会社,東京都,足立区,竹の塚１丁目２５番２２号リルトピアザ２０２,,13,121,1210813,,,2021-11-09,清算の結了等,,,2015-10-05,1,,,,,ダイイチケイビホショウ,0
2007,8021005002740,登記記録の閉鎖等,0,2021-11-12,2021-10-26,天理教諏訪勢分教会,,その他の設立登記法人,神奈川県,相模原市南区,古淵６丁目１６番２号,,14,153,2520344,,,2021-10-26,合併による解散等,4021005003940,令和３年１０月２６日神奈川県伊勢原市田中９８２番地天理教伊勢原分教会（4021005003940）に合併し解散,2015-10-05,1,,,,,,0
2013,8030001039036,登記記録の閉鎖等,0,2021-11-12,2021-11-08,株式会社Ａｒｃａ　Ｍｕｓｉｃ　Ｅｎｔｅｒｔａｉｎｍｅｎｔ,,株式会社,埼玉県,草加市,氷川町２１３１番地１７,,11,221,3400034,,,2021-11-08,清算の結了等,,,2015-10-05,1,,,,,アルカミュージィックエンターテイメント,0
2021,8030001127451,登記記録の閉鎖等,0,2021-11-12,2021-11-05,株式会社ＡＮＴＨＥＭ,,株式会社,埼玉県,東松山市,幸町１４番２５号第一鈴木ビル１０２号室,,11,212,3550025,,,2021-11-05,清算の結了等,,,2018-09-18,1,,,,,アンセム,0
2028,8030002098650,登記記録の閉鎖等,0,2021-11-12,2021-11-05,インテリアやまぐち有限会社,,有限会社,埼玉県,川口市,南鳩ヶ谷２丁目４番１１号,,11,203,3340013,,,2021-11-05,清算の結了等,,,2015-10-05,1,,,,,インテリアヤマグチ,0
2029,8030005010141,登記記録の閉鎖等,0,2021-11-12,2021-10-14,天理教濱弘分教会,,その他の設立登記法人,埼玉県,越谷市,大字恩間４２０番地ノ１,,11,222,3430033,,,2021-10-14,合併による解散等,3010105000651,令和３年９月１６日東京都八王子市暁町一丁目３７番１１号天理教本保大教会（3010105000651）に合併し解散,2015-10-05,1,,,,,,0
2031,8040001035868,登記記録の閉鎖等,0,2021-11-12,2021-11-04,株式会社セキ,,株式会社,千葉県,松戸市,松戸１８５４番地,,12,207,2710092,,,2021-11-04,清算の結了等,,,2015-10-05,1,,,,,セキ,0
2036,8040001081136,登記記録の閉鎖等,0,2021-11-12,2021-11-05,ＩＲシステム株式会社,,株式会社,千葉県,成田市,並木町１５６番地１４,,12,211,2860045,,,2021-11-05,清算の結了等,,,2015-10-05,1,,,,,アイアールシステム,0
2049,8060001012766,登記記録の閉鎖等,0,2021-11-12,2021-11-05,株式会社大和田工芸,,株式会社,栃木県,大田原市,紫塚３丁目３９４６番地８,,09,210,3240058,,,2021-11-05,清算の結了等,,,2015-10-05,1,,,,,,0
2053,8060002012682,登記記録の閉鎖等,0,2021-11-12,2021-11-05,有限会社システム技術研究所,,有限会社,栃木県,さくら市,狹間田２３０１番地,,09,214,3291305,,,2021-11-05,清算の結了等,,,2015-10-05,1,,,,,システムギジュツケンキュウジョ,0
2061,8080005005129,登記記録の閉鎖等,0,2021-11-12,2021-11-09,丸ほ細江北部茶農業協同組合,,その他の設立登記法人,静岡県,牧之原市,細江３２６９番地の３,,22,226,4210421,,,2021-11-09,清算の結了等,,,2015-10-05,1,,,,,マルホホソエホクブチャ,0
2073,8120001197072,登記記録の閉鎖等,0,2021-11-12,2021-11-01,株式会社芝コーポレーション,,株式会社,東京都,港区,芝２丁目１６番７号,,13,103,1050014,,,2021-11-01,清算の結了等,,,2016-03-24,1,,,,,シバコーポレーション,0
2075,8120001224826,登記記録の閉鎖等,0,2021-11-12,2021-11-10,株式会社Ａｖａｎｔｉ,,株式会社,大阪府,枚方市,招提中町２丁目２７番３８号,,27,210,5731152,,,2021-11-10,清算の結了等,,,2019-11-08,1,,,,,,0
2099,8170005002216,登記記録の閉鎖等,0,2021-11-12,2021-10-21,天理教長峰分教会,,その他の設立登記法人,和歌山県,海草郡紀美野町,田６５番地の５,,30,304,6401363,,,2021-10-21,合併による解散等,5170005002227,令和３年１０月２１日和歌山県海草郡紀美野町毛原宮５６４番地天理教保田分教会（5170005002227）に合併し解散,2015-10-05,1,,,,,テンリキョウナガミネブンキョウカイ,0
2123,8180302026560,登記記録の閉鎖等,0,2021-11-12,2021-11-11,有限会社ワイエムデンタル,,有限会社,愛知県,西尾市,花ノ木町７丁目１５番地１,,23,213,4450852,,,2021-11-11,清算の結了等,,,2015-10-05,1,,,,,ワイエムデンタル,0
2133,8240002052875,登記記録の閉鎖等,0,2021-11-12,2021-11-10,有限会社ＤｒａｇｏｎＥｙｅｓ,,有限会社,広島県,尾道市,土堂２丁目４番２０号,,34,205,7220035,,,2021-11-10,清算の結了等,,,2015-10-05,1,,,,,ドラゴンアイズ,0
2147,8290003005159,登記記録の閉鎖等,0,2021-11-12,2021-11-10,ミシガン合同会社,,合同会社,福岡県,福岡市中央区,地行２丁目１２番１号,,40,133,8100064,,,2021-11-10,合併による解散等,3290801016460,令和３年１１月１日福岡県田川市伊田町１１番１４号英彦山開発株式会社（3290801016460）に合併し解散,2015-10-05,1,,,,,ミシガン,0
2154,8310001007427,登記記録の閉鎖等,0,2021-11-12,2021-11-08,ＳＥＡ　ＡＬＬ株式会社,,株式会社,福岡県,福岡市早良区,南庄２丁目９番１２号,,40,137,8140031,,,2021-11-08,清算の結了等,,,2015-10-05,1,,,,,シーオール,0
2171,8390002005133,登記記録の閉鎖等,0,2021-11-12,2021-11-10,有限会社山形新聞山辺専売所,,有限会社,山形県,東村山郡山辺町,大字山辺２５０番地１,,06,301,9900301,,,2021-11-10,清算の結了等,,,2015-10-05,1,,,,,ヤマガタシンブンヤマノベセンバイショ,0
2172,8400001007814,登記記録の閉鎖等,0,2021-11-12,2021-11-08,株式会社岩手富士,,株式会社,岩手県,九戸郡軽米町,大字軽米第２地割５４番地の２,,03,501,0286302,,,2021-11-08,合併による解散等,8030001090740,令和３年１１月１日埼玉県秩父市山田７８３番地株式会社埼玉富士（8030001090740）に合併し解散,2015-10-05,1,,,,,イワテフジ,0
2178,8430005008483,登記記録の閉鎖等,0,2021-11-12,2021-10-15,天理教鉄森分教会,,その他の設立登記法人,北海道,虻田郡京極町,字三崎３７０番地,,01,399,0440121,,,2021-10-15,合併による解散等,8030005000373,令和３年１０月５日埼玉県さいたま市見沼区深作三丁目２８番地４天理教春安分教会（8030005000373）に合併し解散,2015-10-05,1,,,,,テンリキョウテツモリブンキョウカイ,0
2187,9010001133590,登記記録の閉鎖等,0,2021-11-12,2021-11-10,株式会社万葉,,株式会社,東京都,中央区,銀座７丁目１７番２号,,13,102,1040061,,,2021-11-10,清算の結了等,,,2015-10-05,1,,,,,マンヨウ,0
2210,9010405006590,登記記録の閉鎖等,0,2021-11-12,2021-11-01,特定非営利活動法人ものづくりＡＰＳ推進機構,,その他の設立登記法人,東京都,港区,新橋３丁目４－１０新橋企画ビルディング４階一般財団法人製造科学技術センター内,,13,103,1050004,,,2021-11-01,清算の結了等,,,2015-10-05,1,,,,,モノヅクリエーピーエススイシンキコウ,0
2215,9010601032481,登記記録の閉鎖等,0,2021-11-12,2021-11-10,株式会社より美しく、より豊かに,,株式会社,東京都,文京区,湯島３丁目１６番６号,,13,105,1130034,,,2021-11-10,清算の結了等,,,2015-10-05,1,,,,,ヨリウツクシクヨリユタカニ,0
2228,9010801004644,登記記録の閉鎖等,0,2021-11-12,2021-11-08,株式会社サトー,,株式会社,東京都,大田区,北馬込２丁目５０番１６号,,13,111,1430021,,,2021-11-08,清算の結了等,,,2015-10-05,1,,,,,サトー,0
2232,9011001017494,登記記録の閉鎖等,0,2021-11-12,2021-11-09,日本アパタイト株式会社,,株式会社,東京都,渋谷区,代々木５丁目５７番６号,,13,113,1510053,,,2021-11-09,清算の結了等,,,2015-10-05,1,,,,,ニホンアパタイト,0
2235,9011001129637,登記記録の閉鎖等,0,2021-11-12,2021-11-01,株式会社ＢＩＮＡＲ,,株式会社,東京都,渋谷区,渋谷２丁目１５番１号,,13,113,1500002,,,2021-11-01,合併による解散等,2011001058413,令和３年１１月１日東京都渋谷区渋谷二丁目１５番１号株式会社ビズリーチ（2011001058413）に合併し解散,2019-08-28,1,,,,,バイナー,0
2251,9011402008836,登記記録の閉鎖等,0,2021-11-12,2021-11-11,有限会社メイスン,,有限会社,東京都,板橋区,板橋２丁目１０番１３号,,13,119,1730004,,,2021-11-11,清算の結了等,,,2015-10-05,1,,,,,メイスン,0
2263,9012402002845,登記記録の閉鎖等,0,2021-11-12,2021-11-04,有限会社ヤマサキ,,有限会社,東京都,府中市,晴見町１丁目２８番地府中グリーンハイツ５－１０８,,13,206,1830057,,,2021-11-04,清算の結了等,,,2015-10-05,1,,,,,ヤマサキ,0
2268,9012802005126,登記記録の閉鎖等,0,2021-11-12,2021-11-08,メガトップジャパン有限会社,,有限会社,東京都,武蔵村山市,残堀５丁目５９番地の１,,13,223,2080034,,,2021-11-08,清算の結了等,,,2015-10-05,1,,,,,メガトップジャパン,0
2293,9021002020083,登記記録の閉鎖等,0,2021-11-12,2021-11-09,有限会社コスモ電機,,有限会社,神奈川県,相模原市南区,南台６丁目１５番２０号,,14,153,2520314,,,2021-11-09,清算の結了等,,,2015-10-05,1,,,,,コスモデンキ,0
2308,9030002012544,登記記録の閉鎖等,0,2021-11-12,2021-11-05,有限会社松本企画,,有限会社,埼玉県,さいたま市南区,根岸１丁目３番１７号,,11,108,3360024,,,2021-11-05,清算の結了等,,,2015-10-05,1,,,,,マツモトキカク,0
2309,9030002041799,登記記録の閉鎖等,0,2021-11-12,2021-11-08,有限会社第一分流器,,有限会社,埼玉県,羽生市,東３丁目１５番２８号,,11,216,3480052,,,2021-11-08,清算の結了等,,,2015-10-05,1,,,,,ダイイチブンリュウキ,0
2315,9040001061310,登記記録の閉鎖等,0,2021-11-12,2021-11-08,株式会社トラスト,,株式会社,千葉県,山武郡芝山町,大台字宝永作３１５５番地５,,12,409,2891605,,,2021-11-08,合併による解散等,1120001035255,令和３年１１月１日大阪市西淀川区佃七丁目４番１６号株式会社昭和トラスト（1120001035255）に合併し解散,2015-10-05,1,,,,,トラスト,0
2335,9080402014961,登記記録の閉鎖等,0,2021-11-12,2021-11-09,有限会社現代地建,,有限会社,静岡県,浜松市浜北区,新原４１４１番地の１,,22,136,4340003,,,2021-11-09,清算の結了等,,,2015-10-05,1,,,,,ゲンダイチケン,0
2365,9140001087782,登記記録の閉鎖等,0,2021-11-12,2021-11-09,株式会社ペンワーク,,株式会社,兵庫県,姫路市,網干区田井２２３番地,,28,201,6711221,,,2021-11-09,清算の結了等,,,2015-10-05,1,,,,,ペンワーク,0
2369,9170005002603,登記記録の閉鎖等,0,2021-11-12,2021-10-25,天理教有湯分教会,,その他の設立登記法人,和歌山県,有田郡湯浅町,大字湯浅９１３番地,,30,361,6430004,,,2021-10-25,合併による解散等,3190005003662,令和３年１０月２１日三重県南牟婁郡御浜町大字下市木２６６３番地天理教宮濱分教会（3190005003662）に合併し解散,2015-10-05,1,,,,,,0
2389,9180303003120,登記記録の閉鎖等,0,2021-11-12,2021-11-09,合同会社愛さんさん,,合同会社,愛知県,豊田市,下仁木町柿硲７０３番地２,,23,211,4700565,,,2021-11-09,清算の結了等,,,2015-10-05,1,,,,,アイサンサン,0
2395,9200002007312,登記記録の閉鎖等,0,2021-11-12,2021-11-05,有限会社興亜鈑金工業,,有限会社,岐阜県,各務原市,蘇原沢上町１丁目７７番地,,21,213,5040827,,,2021-11-05,清算の結了等,,,2015-10-05,1,,,,,コウアバンキンコウギョウ,0
2397,9220002002617,登記記録の閉鎖等,0,2021-11-12,2021-11-09,有限会社後藤土木,,有限会社,石川県,金沢市,長土塀３丁目１２番４５号,,17,201,9200867,,,2021-11-09,清算の結了等,,,2015-10-05,1,,,,,ゴトウドボク,0
2400,9230001013911,登記記録の閉鎖等,0,2021-11-12,2021-11-04,ワールドワイド株式会社,,株式会社,富山県,富山市,上冨居３丁目４番１８号,,16,201,9300835,,,2021-11-04,清算の結了等,,,2015-10-05,1,,,,,ワールドワイド,0
2402,9230002010164,登記記録の閉鎖等,0,2021-11-12,2021-11-05,有限会社丸正呉服店,,有限会社,富山県,小矢部市,石動町４番３０号,,16,209,9320053,,,2021-11-05,清算の結了等,,,2015-10-05,1,,,,,マルショウゴフクテン,0
2412,9250003000022,登記記録の閉鎖等,0,2021-11-12,2021-11-09,合資会社ハクシン,,合資会社,山口県,山口市,堂の前町５番１０号,,35,203,7530032,,,2021-11-09,清算の結了等,,,2020-10-01,1,,,,,ハクシン,0
2413,9250003002860,登記記録の閉鎖等,0,2021-11-12,2021-11-10,合同会社アイエス,,合同会社,山口県,光市,虹ケ丘３丁目２７番３１号,,35,210,7430031,,,2021-11-10,清算の結了等,,,2021-07-06,1,,,,,アイエス,0
2415,9260001027438,登記記録の閉鎖等,0,2021-11-12,2021-11-11,株式会社ステップサポート,,株式会社,岡山県,岡山市北区,今３丁目２－３７,,33,101,7000975,,,2021-11-11,清算の結了等,,,2015-10-05,1,,,,,ステップサポート,0
2418,9280001006200,登記記録の閉鎖等,0,2021-11-12,2021-11-10,株式会社ＡＴレミコン,,株式会社,島根県,出雲市,多伎町久村１６００番地,,32,203,6990901,,,2021-11-10,清算の結了等,,,2015-10-05,1,,,,,エーティレミコン,0
2427,9290002003922,登記記録の閉鎖等,0,2021-11-12,2021-11-08,有限会社ユアサプレシジョンパーツ,,有限会社,福岡県,福岡市南区,筑紫丘１丁目１２番１号,,40,134,8150036,,,2021-11-08,清算の結了等,,,2015-10-05,1,,,,,ユアサプレシジョンパーツ,0
2429,9290003005158,登記記録の閉鎖等,0,2021-11-12,2021-11-10,ミラノ合同会社,,合同会社,福岡県,福岡市中央区,地行２丁目１２番１号,,40,133,8100064,,,2021-11-10,合併による解散等,3290801016460,令和３年１１月１日福岡県田川市伊田町１１番１４号英彦山開発株式会社（3290801016460）に合併し解散,2015-10-05,1,,,,,ミラノ,0
2430,9290805004381,登記記録の閉鎖等,0,2021-11-12,2021-10-05,天理教荒生田分教会,,その他の設立登記法人,福岡県,北九州市八幡東区,清田２丁目１４番１１号,,40,108,8050034,,,2021-10-05,合併による解散等,3290805000213,令和３年１０月５日北九州市小倉北区黒原二丁目５番１６号天理教豊瑞分教会（3290805000213）に合併し解散,2015-10-05,1,,,,,,0
2432,9310002003424,登記記録の閉鎖等,0,2021-11-12,2021-11-11,有限会社天友装備,,有限会社,長崎県,長崎市,平山台２丁目２１番２４号,,42,201,8500996,,,2021-11-11,清算の結了等,,,2015-10-05,1,,,,,テンユウソウビ,0
2456,9380005002037,登記記録の閉鎖等,0,2021-11-12,2021-11-10,協同組合霊商スタンプ会,,その他の設立登記法人,福島県,伊達市,霊山町掛田字中町２２番地の３,,07,213,9600801,,,2021-11-10,清算の結了等,,,2015-10-05,1,,,,,リョウショウスタンプカイ,0
2469,9430002018212,登記記録の閉鎖等,0,2021-11-12,2021-11-05,有限会社北都ボイラー技研,,有限会社,北海道,札幌市豊平区,月寒東三条１８丁目１２番１０号,,01,105,0620053,,,2021-11-05,清算の結了等,,,2015-10-05,1,,,,,ホクトボイラーギケン,0
2472,9430002042138,登記記録の閉鎖等,0,2021-11-12,2021-11-09,有限会社オカダ,,有限会社,北海道,札幌市手稲区,稲穂二条１丁目５番１８号,,01,109,0060032,,,2021-11-09,清算の結了等,,,2015-10-05,1,,,,,オカダ,0
2481,9470002015750,登記記録の閉鎖等,0,2021-11-12,2021-11-09,有限会社東人形,,有限会社,香川県,観音寺市,観音寺町甲３３３４番地の３,,37,205,7680060,,,2021-11-09,清算の結了等,,,2015-10-05,1,,,,,アズマニンギョウ,0
2484,9700150014646,登記記録の閉鎖等,0,2021-11-12,2021-06-30,蛭ヶ岳山荘委員会,,その他,神奈川県,相模原市緑区,小渕１５４５－１,,14,151,2520184,,,2021-06-30,その他の清算の結了等,,,2015-10-09,1,,,,,ヒルガタケサンソウイインカイ,0
2485,9700150066786,登記記録の閉鎖等,0,2021-11-12,2021-04-27,宮古島地域雇用創造協議会,,その他,沖縄県,宮古島市,平良字西里１１４０番地宮古島市役所２階,,47,214,9060012,,,2021-04-27,その他の清算の結了等,,,2015-10-09,1,,,,,ミヤコジマチイキコヨウソウゾウキヨウギカイ,0
