sequenceNumber,corporateNumber,process,correct,updateDate,changeDate,name,nameImageId,kind,prefectureName,cityName,streetNumber,addressImageId,prefectureCode,cityCode,postCode,addressOutside,addressOutsideImageId,closeDate,closeCause,successorCorporateNumber,changeCause,assignmentDate,latest,enName,enPrefectureName,enCityName,enAddressOutside,furigana,hihyoji
12,1010001224562,新規,0,2022-02-14,2022-02-14,ＪＳＦＰ　ＯＮＥ株式会社,,株式会社,東京都,千代田区,大手町２丁目２番２号,,13,101,1000004,,,,,,,2022-02-14,1,,,,,ジェイエスエフピーワン,0
17,1010003037013,新規,0,2022-02-14,2022-02-14,合同会社プシケメンタルスクール,,合同会社,東京都,中央区,日本橋３丁目２番１４号新槇町ビル別館第一１階,,13,102,1030027,,,,,,,2022-02-14,1,,,,,プシケメンタルスクール,0
25,1010401165530,新規,0,2022-02-14,2022-02-14,地域電力株式会社,,株式会社,東京都,港区,元麻布２丁目１番１３号,,13,103,1060046,,,,,,,2022-02-14,1,,,,,チイキデンリョク,0
27,1010403027084,新規,0,2022-02-14,2022-02-14,ラグランジアン・マーケティング＆アソシエイツ合同会社,,合同会社,東京都,港区,東新橋１丁目６－３ザロイヤルパークホテルアイコニック東京汐留２４Ｆ,,13,103,1050021,,,,,,,2022-02-14,1,,,,,ラグランジアンマーケティングアンドアソシエイツ,0
28,1010405020681,新規,0,2022-02-14,2022-02-14,一般社団法人ＨＤＧ２９,,その他の設立登記法人,東京都,港区,虎ノ門３丁目２２番１０－２０１号,,13,103,1050001,,,,,,,2022-02-14,1,,,,,エイチディージーツーナイン,0
29,1010601060663,新規,0,2022-02-14,2022-02-14,株式会社Ｒｅｓｉｌｉｅｎｔ,,株式会社,東京都,江東区,青海２丁目７番４号ｔｈｅＳＯＨＯ３１２号室,,13,108,1350064,,,,,,,2022-02-14,1,,,,,レジリエント,0
36,1011001145617,新規,0,2022-02-14,2022-02-14,株式会社ＭＫＯ,,株式会社,東京都,渋谷区,宇田川町３０番８号,,13,113,1500042,,,,,,,2022-02-14,1,,,,,エムケーオー,0
40,1011501027744,新規,0,2022-02-14,2022-02-14,株式会社ワンステップアップ,,株式会社,東京都,荒川区,町屋３丁目８番８号,,13,118,1160001,,,,,,,2022-02-14,1,,,,,ワンステップアップ,0
45,1011801040331,新規,0,2022-02-14,2022-02-14,株式会社ＫＡＮＩ　Ａ　ＷＯＲＫＳ,,株式会社,東京都,足立区,千住中居町１番１６号,,13,121,1200035,,,,,,,2022-02-14,1,,,,,カニエワークス,0
48,1012301012878,新規,0,2022-02-14,2022-02-14,Ｌ．Ａ．Ｔ株式会社,,株式会社,東京都,町田市,原町田６丁目１５番１号シャトー２１ビルＢ１,,13,209,1940013,,,,,,,2022-02-14,1,,,,,エルエーティー,0
60,1020001145147,新規,0,2022-02-14,2022-02-14,株式会社ゼロイチキカク,,株式会社,神奈川県,横浜市中区,吉浜町２－１８七福紅花ビルＢ１Ｆ,,14,104,2310024,,,,,,,2022-02-14,1,,,,,ゼロイチキカク,0
61,1020001145188,新規,0,2022-02-14,2022-02-14,株式会社テックミライ,,株式会社,神奈川県,横浜市鶴見区,潮田町２丁目９３番地１階,,14,101,2300041,,,,,,,2022-02-14,1,,,,,テックミライ,0
62,1020001145205,新規,0,2022-02-14,2022-02-14,株式会社アイ・サポート,,株式会社,神奈川県,横浜市鶴見区,鶴見中央２丁目１３番１８号,,14,101,2300051,,,,,,,2022-02-14,1,,,,,アイサポート,0
70,1021003011386,新規,0,2022-02-14,2022-02-14,合同会社ハロ・アイリス,,合同会社,神奈川県,藤沢市,湘南台２丁目３０番地の７－２０１号,,14,205,2520804,,,,,,,2022-02-14,1,,,,,ハロアイリス,0
78,1030001146788,新規,0,2022-02-14,2022-02-14,株式会社Ｐｒｉｄｅ１,,株式会社,埼玉県,越谷市,大字向畑８１５番地１,,11,222,3430007,,,,,,,2022-02-14,1,,,,,プライドワン,0
79,1030001146805,新規,0,2022-02-14,2022-02-14,株式会社ＳＨＡＨ　ＳＨＯＫＡＩ,,株式会社,埼玉県,羽生市,大字上岩瀬３１９番地８,,11,216,3480044,,,,,,,2022-02-14,1,,,,,シャーショウカイ,0
80,1030005020717,新規,0,2022-02-14,2022-02-14,一般社団法人びさいの芽,,その他の設立登記法人,埼玉県,川越市,大字寺山６２３番地４,,11,201,3500827,,,,,,,2022-02-14,1,,,,,ビサイノメ,0
85,1040001122202,新規,0,2022-02-14,2022-02-14,株式会社ドリームズ,,株式会社,千葉県,佐倉市,江原台１丁目４番地９,,12,212,2850825,,,,,,,2022-02-14,1,,,,,ドリームズ,0
88,1040003019396,新規,0,2022-02-14,2022-02-14,合同会社ぴあのん,,合同会社,千葉県,我孫子市,中峠３８４５番地の９,,12,222,2701121,,,,,,,2022-02-14,1,,,,,ピアノン,0
92,1060003003951,新規,0,2022-02-14,2022-02-14,マロニエラウンジ合同会社,,合同会社,栃木県,那須塩原市,太夫塚６丁目２３２－１６０,,09,213,3292735,,,,,,,2022-02-14,1,,,,,マロニエラウンジ,0
96,1070003004387,新規,0,2022-02-14,2022-02-14,合同会社ドンレミー村,,合同会社,群馬県,高崎市,下滝町６８１番地,,10,202,3700026,,,,,,,2022-02-14,1,,,,,ドンレミームラ,0
101,1110003004696,新規,0,2022-02-14,2022-02-14,合同会社ＨＡＴＴＯＲＩＥＳＴＡＴＥ,,合同会社,新潟県,三条市,西四日町２丁目５―２,,15,204,9550851,,,,,,,2022-02-14,1,,,,,ハットリエステート,0
106,1120001243824,新規,0,2022-02-14,2022-02-14,株式会社サードアイ,,株式会社,大阪府,大阪市大正区,平尾４丁目２番２２号,,27,108,5510012,,,,,,,2022-02-14,1,,,,,サードアイ,0
107,1120001243832,新規,0,2022-02-14,2022-02-14,株式会社ＢＡＳＳ,,株式会社,大阪府,大阪市浪速区,日本橋４丁目９番９号水上ビル２Ｆ２３,,27,111,5560005,,,,,,,2022-02-14,1,,,,,バス,0
117,1120903004035,新規,0,2022-02-14,2022-02-14,合同会社ラフアンドファン,,合同会社,大阪府,吹田市,佐竹台１丁目２番１０－６０１号,,27,205,5650855,,,,,,,2022-02-14,1,,,,,ラフアンドファン,0
130,1140001124857,新規,0,2022-02-14,2022-02-14,株式会社アイ・アップソリューション,,株式会社,兵庫県,神戸市中央区,加納町６丁目３番１号アーバンライフ神戸三宮ザ・タワー３１０７号,,28,110,6500001,,,,,,,2022-02-14,1,,,,,アイアップソリューション,0
147,1180001149933,新規,0,2022-02-14,2022-02-14,ヒラノ機設株式会社,,株式会社,愛知県,一宮市,大毛字東郷１１番地３,,23,203,4910132,,,,,,,2022-02-14,1,,,,,ヒラノキセツ,0
148,1180001149941,新規,0,2022-02-14,2022-02-14,株式会社桃建運送,,株式会社,愛知県,弥富市,五斗山４丁目１７５番地,,23,235,4901402,,,,,,,2022-02-14,1,,,,,モモケンウンソウ,0
149,1180001149966,新規,0,2022-02-14,2022-02-14,株式会社インスパイア,,株式会社,愛知県,名古屋市瑞穂区,船原町４丁目１２番地,,23,108,4670878,,,,,,,2022-02-14,1,,,,,インスパイア,0
151,1180005019637,新規,0,2022-02-14,2022-02-14,一般社団法人こっこ,,その他の設立登記法人,愛知県,尾張旭市,東栄町１丁目９番地１２,,23,226,4880011,,,,,,,2022-02-14,1,,,,,コッコ,0
153,1180305009296,新規,0,2022-02-14,2022-02-14,コモンウェルス協同組合,,その他の設立登記法人,愛知県,豊橋市,神明町１１２－１,,23,201,4400882,,,,,,,2022-02-14,1,,,,,コモンウェルス,0
169,1250003003008,新規,0,2022-02-14,2022-02-14,環境設計合同会社,,合同会社,山口県,防府市,大字新田１２３１－３,,35,206,7470825,,,,,,,2022-02-14,1,,,,,カンキョウセッケイ,0
170,1260001036520,新規,0,2022-02-14,2022-02-14,株式会社承永,,株式会社,岡山県,総社市,駅南２丁目２番地３,,33,208,7191137,,,,,,,2022-02-14,1,,,,,ショウエイ,0
171,1260005011032,新規,0,2022-02-14,2022-02-14,一般社団法人ＫａｉＫａｉ,,その他の設立登記法人,岡山県,総社市,門田１２０９番地,,33,208,7191156,,,,,,,2022-02-14,1,,,,,カイカイ,0
181,1290003012145,新規,0,2022-02-14,2022-02-14,ウルチャンネル合同会社,,合同会社,福岡県,久留米市,六ツ門町２１－１,,40,203,8300031,,,,,,,2022-02-14,1,,,,,ウルチャンネル,0
183,1290005018561,新規,0,2022-02-14,2022-02-14,特定非営利活動法人日本総合健康法推進協議会,,その他の設立登記法人,福岡県,福岡市南区,花畑２丁目４番７号,,40,134,8111356,,,,,,,2022-02-14,1,,,,,ニホンソウゴウケンコウホウスイシンキョウギカイ,0
192,1330001029442,新規,0,2022-02-14,2022-02-14,Ｂｅｇｉｎｎｅｒｓ　Ｌｉｆｅ株式会社,,株式会社,熊本県,熊本市東区,山ノ内１丁目１番１３８号,,43,102,8620914,,,,,,,2022-02-14,1,,,,,ビギナーズライフ,0
207,1430001085979,新規,0,2022-02-14,2022-02-14,株式会社えにし,,株式会社,北海道,苫小牧市,元中野町２丁目４番１４号,,01,213,0530005,,,,,,,2022-02-14,1,,,,,エニシ,0
210,1470002019676,新規,0,2022-02-14,2022-02-14,有限会社六車建設,,有限会社,香川県,東かがわ市,小海８５８番地１,,37,207,7692908,,,,,,,2022-02-14,1,,,,,,0
216,1700150106491,新規,0,2022-02-14,2022-01-05,Ｔａｐ　Ｆｌａｒｅ,,その他,東京都,葛飾区,新宿１丁目２２－９ＣＡＳＡ　ＧＲＡＮＤ　ＴＯＫＹＯ１０５,,13,122,1250051,,,,,,,2022-01-05,1,,,,,タツプフレア,0
217,1700150106905,新規,0,2022-02-14,2022-02-03,やとみ学童クラブ育成会,,その他,愛知県,名古屋市瑞穂区,師長町８５番１,,23,108,4670061,,,,,,,2022-02-03,1,,,,,ヤトミガクドウクラブイクセイカイ,0
218,1700150107036,新規,0,2022-02-14,2022-02-14,Ａｓｓｏｃｉａｔｉｏｎ　ｆｏｒ　Ｃｏｍｐｕｔｉｎｇ　Ｍａｃｈｉｎｅｒｙ,,外国会社等,,,,,,,,２　Ｐｅｎｎ　Ｐｌａｚａ，Ｓｕｉｔｅ　７０１，Ｎｅｗ　Ｙｏｒｋ，ＮＹ　ＵＳＡ,,,,,,2022-02-14,1,,,,,アソシエイシヨンフオーコンピユーテイングマシナリー,0
227,2010001224537,新規,0,2022-02-14,2022-02-14,生活嘉株式会社,,株式会社,東京都,中央区,東日本橋２丁目２８番５号５０８,,13,102,1030004,,,,,,,2022-02-14,1,,,,,セイカツカ,0
228,2010003037012,新規,0,2022-02-14,2022-02-14,合同会社芦ノ湖,,合同会社,東京都,千代田区,霞が関３丁目２番５号,,13,101,1000013,,,,,,,2022-02-14,1,,,,,アシノコ,0
229,2010005034577,新規,0,2022-02-14,2022-02-14,一般社団法人日本スポーツカークラブ,,その他の設立登記法人,東京都,中央区,銀座７丁目１３番２０号,,13,102,1040061,,,,,,,2022-02-14,1,,,,,ニホンスポーツカークラブ,0
230,2010005034585,新規,0,2022-02-14,2022-02-14,アセットファイナンス松江特定目的会社,,その他の設立登記法人,東京都,中央区,京橋２丁目７番１９号,,13,102,1040031,,,,,,,2022-02-14,1,,,,,アセットファイナンスマツエ,0
236,2010401165587,新規,0,2022-02-14,2022-02-14,株式会社ＱＵＡＤ,,株式会社,東京都,港区,元赤坂１丁目７番１５号,,13,103,1070051,,,,,,,2022-02-14,1,,,,,クアッド,0
240,2010405020680,新規,0,2022-02-14,2022-02-14,ルイス特定目的会社,,その他の設立登記法人,東京都,港区,浜松町１丁目２０番１０号ライオネス浜松町５０６号室,,13,103,1050013,,,,,,,2022-02-14,1,,,,,ルイス,0
241,2010405020697,新規,0,2022-02-14,2022-02-14,一般社団法人虎ノ門ワン,,その他の設立登記法人,東京都,港区,虎ノ門３丁目２２番１０－２０１号,,13,103,1050001,,,,,,,2022-02-14,1,,,,,トラノモンワン,0
254,2010805002915,新規,0,2022-02-14,2022-02-14,一般社団法人こすも巣,,その他の設立登記法人,東京都,大田区,南馬込６丁目３０番１号,,13,111,1430025,,,,,,,2022-02-14,1,,,,,コスモス,0
257,2010901050347,新規,0,2022-02-14,2022-02-14,株式会社Ｄｉｓｃｏｒｄ,,株式会社,東京都,世田谷区,駒沢４丁目２－２２,,13,112,1540012,,,,,,,2022-02-14,1,,,,,ディスコード,0
260,2011001145574,新規,0,2022-02-14,2022-02-14,株式会社ｄａｚｚｌｙ,,株式会社,東京都,渋谷区,神宮前６丁目２３番４号桑野ビル２階,,13,113,1500001,,,,,,,2022-02-14,1,,,,,ダズリー,0
261,2011001145582,新規,0,2022-02-14,2022-02-14,株式会社ボーダレスボーダー,,株式会社,東京都,渋谷区,神宮前６丁目２５－８神宮前コーポラス１４０２,,13,113,1500001,,,,,,,2022-02-14,1,,,,,ボーダレスボーダー,0
262,2011001145632,新規,0,2022-02-14,2022-02-14,株式会社ＲＯＸＸ　ＩＩ,,株式会社,東京都,渋谷区,恵比寿１丁目１５番９号日宝恵比寿ビル４０３,,13,113,1500013,,,,,,,2022-02-14,1,,,,,ロックスツー,0
263,2011001145649,新規,0,2022-02-14,2022-02-14,株式会社財務アドバイザー,,株式会社,東京都,渋谷区,桜丘町２２番２０－２０１号,,13,113,1500031,,,,,,,2022-02-14,1,,,,,ザイムアドバイザー,0
264,2011003014141,新規,0,2022-02-14,2022-02-14,合同会社Ｆａｓｔ　Ｈｅａｌｔｈ,,合同会社,東京都,渋谷区,東２丁目２５－３,,13,113,1500011,,,,,,,2022-02-14,1,,,,,ファーストヘルス,0
271,2011101097757,新規,0,2022-02-14,2022-02-14,株式会社ｓｈｉｆｔｂａｓｅ,,株式会社,東京都,新宿区,若葉１丁目７番１５号,,13,104,1600011,,,,,,,2022-02-14,1,,,,,シフトベース,0
275,2011203003745,新規,0,2022-02-14,2022-02-14,合同会社ファイブテン,,合同会社,東京都,中野区,中野２丁目２６番１－６０９号,,13,114,1640001,,,,,,,2022-02-14,1,,,,,ファイブテン,0
285,2013301048663,新規,0,2022-02-14,2022-02-14,ｍｅ’ｍａｋｅ株式会社,,株式会社,東京都,豊島区,東池袋１丁目３１番５－３０３号,,13,116,1700013,,,,,,,2022-02-14,1,,,,,ミィメイク,0
286,2013301048671,新規,0,2022-02-14,2022-02-14,東一産業株式会社,,株式会社,東京都,豊島区,池袋本町２丁目３８－１４,,13,116,1700011,,,,,,,2022-02-14,1,,,,,トウイチサンギョウ,0
287,2013303006033,新規,0,2022-02-14,2022-02-14,合同会社五木屋,,合同会社,東京都,豊島区,要町１丁目４４番３号,,13,116,1710043,,,,,,,2022-02-14,1,,,,,ゴキヤ,0
300,2020003021295,新規,0,2022-02-14,2022-02-14,ＹＥＲＴ合同会社,,合同会社,神奈川県,川崎市中原区,中丸子１３番地１７,,14,133,2110012,,,,,,,2022-02-14,1,,,,,ヤート,0
310,2030001146779,新規,0,2022-02-14,2022-02-14,株式会社英翔,,株式会社,埼玉県,春日部市,豊町５丁目９番１１号,,11,214,3440066,,,,,,,2022-02-14,1,,,,,エイト,0
311,2030003018836,新規,0,2022-02-14,2022-02-14,合同会社ユーエス,,合同会社,埼玉県,北本市,本町６丁目２６２番地,,11,233,3640033,,,,,,,2022-02-14,1,,,,,ユーエス,0
321,2040001122192,新規,0,2022-02-14,2022-02-14,株式会社レグルス,,株式会社,千葉県,成田市,寺台３３８番地６,,12,211,2860022,,,,,,,2022-02-14,1,,,,,レグルス,0
322,2040003019478,新規,0,2022-02-14,2022-02-14,合同会社いすみ典礼,,合同会社,千葉県,いすみ市,新田１８８－１,,12,238,2980005,,,,,,,2022-02-14,1,,,,,イスミテンレイ,0
335,2060003003950,新規,0,2022-02-14,2022-02-14,合同会社Ｔｏｒｅａ,,合同会社,栃木県,大田原市,浅香３丁目３７２１番地２８,,09,210,3240043,,,,,,,2022-02-14,1,,,,,トレア,0
339,2080103002520,新規,0,2022-02-14,2022-02-14,Ｓ＆Ｒ企画合同会社,,合同会社,静岡県,伊東市,松原本町１４番３号,,22,208,4140021,,,,,,,2022-02-14,1,,,,,エスアンドアールキカク,0
341,2080401025628,新規,0,2022-02-14,2022-02-14,株式会社フォーシア,,株式会社,静岡県,浜松市東区,中田町９３－４,,22,132,4350057,,,,,,,2022-02-14,1,,,,,フォーシア,0
342,2090001017405,新規,0,2022-02-14,2022-02-14,株式会社まるだい,,株式会社,山梨県,中央市,浅利２９４４番地,,19,214,4001514,,,,,,,2022-02-14,1,,,,,,0
343,2090003002041,新規,0,2022-02-14,2022-02-14,合同会社ＭＡＹＵＭＩ,,合同会社,山梨県,南都留郡富士河口湖町,大石２８１３番地６－Ａ棟２０５,,19,430,4010305,,,,,,,2022-02-14,1,,,,,マユミ,0
358,2120001243781,新規,0,2022-02-14,2022-02-14,Ｄ‐Ｌｉｆｅ株式会社,,株式会社,大阪府,大阪市北区,堂島浜１丁目２番１号新ダイビル２６階,,27,127,5300004,,,,,,,2022-02-14,1,,,,,ディーライフ,0
359,2120001243823,新規,0,2022-02-14,2022-02-14,株式会社ＹＡＯＹＡ,,株式会社,大阪府,大阪市浪速区,日本橋５丁目７番１０号山田ビル４０４号,,27,111,5560005,,,,,,,2022-02-14,1,,,,,ヤオヤ,0
369,2120903004034,新規,0,2022-02-14,2022-02-14,合同会社Ｌｅ－Ｌｉｅｎ,,合同会社,大阪府,吹田市,千里山東２丁目２２番１４号,,27,205,5650842,,,,,,,2022-02-14,1,,,,,レリアン,0
371,2130001071100,新規,0,2022-02-14,2022-02-14,株式会社Ｓ　ｇｒｏｕｐ,,株式会社,京都府,京都市中京区,中島町１０５タカセビル３Ｆ,,26,104,6048004,,,,,,,2022-02-14,1,,,,,エスグループ,0
372,2130001071117,新規,0,2022-02-14,2022-02-14,株式会社カネナオ,,株式会社,京都府,京田辺市,草内八田６番地１６,,26,211,6100311,,,,,,,2022-02-14,1,,,,,カネナオ,0
373,2130001071125,新規,0,2022-02-14,2022-02-14,株式会社エイワ,,株式会社,京都府,京都市西京区,川島梅園町１１１番地２,,26,111,6158113,,,,,,,2022-02-14,1,,,,,エイワ,0
381,2140001124889,新規,0,2022-02-14,2022-02-14,株式会社陽菜工務店,,株式会社,兵庫県,佐用郡佐用町,上三河１５０番地,,28,501,6795225,,,,,,,2022-02-14,1,,,,,ハルナコウムテン,0
398,2180001149924,新規,0,2022-02-14,2022-02-14,株式会社Ｈ＆Ｌ,,株式会社,愛知県,春日井市,松河戸町１丁目５－１２，メゾンアラモード１０１,,23,206,4860932,,,,,,,2022-02-14,1,,,,,エイチアンドエル,0
399,2180001149940,新規,0,2022-02-14,2022-02-14,株式会社ＶｉＯＮ,,株式会社,愛知県,春日井市,西本町１丁目８番地４,,23,206,4860958,,,,,,,2022-02-14,1,,,,,バイオン,0
400,2180001149965,新規,0,2022-02-14,2022-02-14,株式会社クウハク,,株式会社,愛知県,名古屋市昭和区,福江２丁目９番３３号ナビ白金２５３号,,23,107,4660059,,,,,,,2022-02-14,1,,,,,クウハク,0
404,2180003023482,新規,0,2022-02-14,2022-02-14,合同会社Ｃ．ＡＮＫＥＲＳ,,合同会社,愛知県,名古屋市南区,西又兵ヱ町１丁目２６,,23,112,4570835,,,,,,,2022-02-14,1,,,,,シーアンカーズ,0
407,2180301035915,新規,0,2022-02-14,2022-02-14,株式会社傳,,株式会社,愛知県,豊田市,樹木町１丁目８番地,,23,211,4710851,,,,,,,2022-02-14,1,,,,,デン,0
410,2190001029118,新規,0,2022-02-14,2022-02-14,株式会社マボ,,株式会社,三重県,四日市市,城西町１番８号,,24,202,5100829,,,,,,,2022-02-14,1,,,,,マボ,0
421,2240003005499,新規,0,2022-02-14,2022-02-14,ＫＡＭＩＪＩ合同会社,,合同会社,広島県,竹原市,下野町２６８６番地２,,34,203,7250012,,,,,,,2022-02-14,1,,,,,カミジ,0
424,2250001019384,新規,0,2022-02-14,2022-02-14,株式会社ＧｏｏｄＳｕｎ,,株式会社,山口県,岩国市,麻里布町２丁目４－１３森口電機ビル１Ｆ,,35,208,7400018,,,,,,,2022-02-14,1,,,,,グッドサン,0
433,2290001096420,新規,0,2022-02-14,2022-02-14,みぞくち不動産株式会社,,株式会社,福岡県,糸島市,長野１２９４番２,,40,230,8191153,,,,,,,2022-02-14,1,,,,,ミゾクチフドウサン,0
435,2290003012144,新規,0,2022-02-14,2022-02-14,万宸合同会社,,合同会社,福岡県,糟屋郡宇美町,貴船２丁目３０－１６,,40,341,8112131,,,,,,,2022-02-14,1,,,,,マンシン,0
439,2310001017712,新規,0,2022-02-14,2022-02-14,アーバンハウス株式会社,,株式会社,長崎県,佐世保市,花園町１番１号,,42,202,8570024,,,,,,,2022-02-14,1,,,,,アーバンハウス,0
451,2340005009406,新規,0,2022-02-14,2022-02-14,一般社団法人繋ぐ未来の大人,,その他の設立登記法人,鹿児島県,薩摩川内市,神田町２番３号ＨＵＢ２Ｆ,,46,215,8950052,,,,,,,2022-02-14,1,,,,,ツナグミライノオトナ,0
460,2400005008211,新規,0,2022-02-14,2022-02-14,ＮＰＯ法人Ｐｌｕｓ　Ｏｎｅ　Ｈａｐｐｉｎｅｓｓ,,その他の設立登記法人,岩手県,大船渡市,立根町字中野１８番地５５,,03,203,0220006,,,,,,,2022-02-14,1,,,,,プラスワンハピネス,0
470,2470003002119,新規,0,2022-02-14,2022-02-14,合同会社Ｃａｓｉｅ,,合同会社,香川県,綾歌郡宇多津町,浜六番丁８６番地１（ＲＧ宇多津駅前南４０２）,,37,386,7690206,,,,,,,2022-02-14,1,,,,,カシエ,0
471,2480001011649,新規,0,2022-02-14,2022-02-14,国陽製種株式会社,,株式会社,徳島県,徳島市,矢三町高見３５４番地５,,36,201,7700000,,,,,,,2022-02-14,1,,,,,コクヨウセイシュ,0
475,2700150106805,新規,0,2022-02-14,2022-01-25,設楽町農業再生協議会,,その他,愛知県,北設楽郡設楽町,田口字辻前１４,,23,561,4412301,,,,,,,2022-01-25,1,,,,,シタラチヨウノウギヨウサイセイキヨウギカイ,0
476,2700150107035,新規,0,2022-02-14,2022-02-14,ＰＣＩ　Ｓｅｃｕｒｉｔｙ　Ｓｔａｎｄａｒｄｓ　Ｃｏｕｎｃｉｌ,,外国会社等,,,,,,,,４０１　Ｅｄｇｅｗａｔｅｒ　Ｐｌａｃｅ，Ｓｕｉｔｅ　６００，Ｗａｋｅｆｉｅｌｄ，ＭＡ　０１８８０，ＵＳＡ,,,,,,2022-02-14,1,,,,,ピーシーアイセキユリテイースタンダーズカウンシルエルエルシー,0
482,3010001224370,新規,0,2022-02-14,2022-02-14,株式会社エントランス,,株式会社,東京都,文京区,音羽１丁目２０番１４号ＭＢＳ音羽ビル６階,,13,105,1120013,,,,,,,2022-02-14,1,,,,,エントランス,0
483,3010001224528,新規,0,2022-02-14,2022-02-14,株式会社物流ニュース,,株式会社,東京都,中央区,日本橋小舟町８番６号Ｈ１Ｏ日本橋小舟町４０２号,,13,102,1030024,,,,,,,2022-02-14,1,,,,,ブツリュウニュース,0
484,3010001224536,新規,0,2022-02-14,2022-02-14,株式会社ＡＲＩＡ,,株式会社,東京都,中央区,日本橋本町３丁目３－６ワカ末ビル７階,,13,102,1030023,,,,,,,2022-02-14,1,,,,,アリア,0
486,3010003036979,新規,0,2022-02-14,2022-02-14,合同会社シンカ,,合同会社,東京都,文京区,本郷４丁目２番２号北信ビル３階,,13,105,1130033,,,,,,,2022-02-14,1,,,,,シンカ,0
487,3010003037011,新規,0,2022-02-14,2022-02-14,大谷歯科デジタルソフト開発合同会社,,合同会社,東京都,中央区,勝どき６丁目３番１－２８２４号,,13,102,1040054,,,,,,,2022-02-14,1,,,,,オオタニシカデジタルソフトカイハツ,0
488,3010005034584,新規,0,2022-02-14,2022-02-14,一般社団法人アセットファイナンス松江,,その他の設立登記法人,東京都,中央区,京橋２丁目７番１９号,,13,102,1040031,,,,,,,2022-02-14,1,,,,,アセットファイナンスマツエ,0
494,3010401165512,新規,0,2022-02-14,2022-02-14,アビリティーディザインズ株式会社,,株式会社,東京都,港区,浜松町２丁目２番１５号浜松町ダイヤビル２Ｆ,,13,103,1050013,,,,,,,2022-02-14,1,,,,,アビリティーディザインズ,0
495,3010401165529,新規,0,2022-02-14,2022-02-14,店舗食品株式会社,,株式会社,東京都,港区,南青山６丁目６番２０号,,13,103,1070062,,,,,,,2022-02-14,1,,,,,テンポショクヒン,0
496,3010401165537,新規,0,2022-02-14,2022-02-14,ＭＡＡＳ株式会社,,株式会社,東京都,港区,東麻布１丁目９－１１,,13,103,1060044,,,,,,,2022-02-14,1,,,,,エムエイエイエス,0
497,3010401165545,新規,0,2022-02-14,2022-02-14,株式会社Ｎ２Ｍ,,株式会社,東京都,港区,赤坂７丁目５－３４インペリアル赤坂フォーラム３１９号室,,13,103,1070052,,,,,,,2022-02-14,1,,,,,エヌツーエム,0
498,3010401165561,新規,0,2022-02-14,2022-02-14,株式会社ＫＲＴ,,株式会社,東京都,港区,浜松町２丁目２番１５号浜松町ダイヤビル２Ｆ,,13,103,1050013,,,,,,,2022-02-14,1,,,,,ケイアールティ,0
506,3010801032725,新規,0,2022-02-14,2022-02-14,中正通商株式会社,,株式会社,東京都,大田区,久が原２丁目１０－１４－３１８号室,,13,111,1460085,,,,,,,2022-02-14,1,,,,,チュウセイツウショウ,0
507,3010903007146,新規,0,2022-02-14,2022-02-14,ｆｏｘｃｏ合同会社,,合同会社,東京都,世田谷区,池尻３丁目２１番３３号,,13,112,1540001,,,,,,,2022-02-14,1,,,,,フォクスコ,0
513,3011001145648,新規,0,2022-02-14,2022-02-14,Ｌｉｖｅ，ｉｎｇ　Ｅｎｔｅｒｔａｉｎｍｅｎｔ株式会社,,株式会社,東京都,目黒区,碑文谷６丁目７番６号エストパルク碑文谷１０２,,13,110,1520003,,,,,,,2022-02-14,1,,,,,リブイングエンターテイメント,0
516,3011101097772,新規,0,2022-02-14,2022-02-14,株式会社ソヒミジャパン,,株式会社,東京都,新宿区,西新宿３丁目３番１３号西新宿水間ビル６階,,13,104,1600023,,,,,,,2022-02-14,1,,,,,ソヒミジャパン,0
517,3011101097789,新規,0,2022-02-14,2022-02-14,株式会社ＬＵＸ　ＥＮＴＥＲＴＡＩＮＭＥＮＴ,,株式会社,東京都,新宿区,舟町９番地３豊田ビル２１２号室,,13,104,1600006,,,,,,,2022-02-14,1,,,,,ラックスエンターテイメント,0
521,3011103011450,新規,0,2022-02-14,2022-02-14,合同会社東京運転代行連合,,合同会社,東京都,新宿区,西新宿８丁目１３番１０号４０２,,13,104,1600023,,,,,,,2022-02-14,1,,,,,トウキョウウンテンダイコウレンゴウ,0
522,3011103011459,新規,0,2022-02-14,2022-02-14,合同会社しばいにゃん,,合同会社,東京都,新宿区,西新宿３丁目３番１３号西新宿水間ビル６階,,13,104,1600023,,,,,,,2022-02-14,1,,,,,シバイニャン,0
523,3011103011467,新規,0,2022-02-14,2022-02-14,合同会社オフィス新宿,,合同会社,東京都,新宿区,西新宿３丁目１１番７号ＷＥＳＴＣＩＴＹ３０１号室,,13,104,1600023,,,,,,,2022-02-14,1,,,,,オフィスシンジュク,0
527,3011403003569,新規,0,2022-02-14,2022-02-14,ＡＸＩＳ合同会社,,合同会社,東京都,板橋区,南常盤台１丁目１１番６号レフア南常盤台１０１号室,,13,119,1740072,,,,,,,2022-02-14,1,,,,,アクシス,0
531,3011801040247,新規,0,2022-02-14,2022-02-14,株式会社オカザワオートガレージ,,株式会社,東京都,葛飾区,青戸６丁目６番６号,,13,122,1250062,,,,,,,2022-02-14,1,,,,,,0
532,3011801040321,新規,0,2022-02-14,2022-02-14,サインベスト株式会社,,株式会社,東京都,足立区,小台１丁目２１番１ー１３０８号,,13,121,1200046,,,,,,,2022-02-14,1,,,,,サインベスト,0
534,3012701016931,新規,0,2022-02-14,2022-02-14,株式会社ＮＡＲＩ,,株式会社,東京都,東久留米市,新川町１丁目３番６号,,13,222,2030013,,,,,,,2022-02-14,1,,,,,ナリ,0
537,3013301048646,新規,0,2022-02-14,2022-02-14,株木デジタルイノベーション株式会社,,株式会社,東京都,豊島区,高田３丁目３１番５号,,13,116,1710033,,,,,,,2022-02-14,1,,,,,カブキデジタルイノベーション,0
555,3021005012439,新規,0,2022-02-14,2022-02-14,一般社団法人ホームトラスト,,その他の設立登記法人,神奈川県,横須賀市,小川町２３番地１三笠ハイツ３０４,,14,201,2380004,,,,,,,2022-02-14,1,,,,,ホームトラスト,0
563,3040001122175,新規,0,2022-02-14,2022-02-14,株式会社かぎのセキガワ,,株式会社,千葉県,柏市,南柏１丁目１３番９号,,12,217,2770855,,,,,,,2022-02-14,1,,,,,カギノセキガワ,0
564,3040001122183,新規,0,2022-02-14,2022-02-14,アヴニール株式会社,,株式会社,千葉県,浦安市,日の出２丁目１６番１８－５０４号,,12,227,2790013,,,,,,,2022-02-14,1,,,,,アヴニール,0
565,3040001122191,新規,0,2022-02-14,2022-02-14,株式会社つばき,,株式会社,千葉県,木更津市,下郡２１４６番地,,12,206,2920205,,,,,,,2022-02-14,1,,,,,ツバキ,0
566,3040001122217,新規,0,2022-02-14,2022-02-14,株式会社ｃｉｏｎｅ,,株式会社,千葉県,館山市,上真倉２２４０,,12,205,2940038,,,,,,,2022-02-14,1,,,,,シネオ,0
575,3040003019428,新規,0,2022-02-14,2022-02-14,いっち合同会社,,合同会社,千葉県,市川市,大洲３丁目１２番６号,,12,203,2720032,,,,,,,2022-02-14,1,,,,,イッチ,0
581,3050005013015,新規,0,2022-02-14,2022-02-14,一般財団法人道の会,,その他の設立登記法人,茨城県,土浦市,宍塚１２３２番地２,,08,203,3000805,,,,,,,2022-02-14,1,,,,,ミチノカイ,0
582,3060001034567,新規,0,2022-02-14,2022-02-14,株式会社あさひや,,株式会社,栃木県,宇都宮市,錦２丁目４－５ポケットオフィスＮＩＳＩＫＩ－ＩＩ－Ｂ,00125703,09,201,3210967,,,,,,,2022-02-14,1,,,,,アサヒヤ,0
597,3090001017404,新規,0,2022-02-14,2022-02-14,株式会社ｍｒｓｍ,,株式会社,山梨県,富士吉田市,下吉田４丁目１０番２２号,,19,202,4030004,,,,,,,2022-02-14,1,,,,,エムアールエスエム,0
610,3120001243748,新規,0,2022-02-14,2022-02-14,愛和海運株式会社,,株式会社,大阪府,大阪市浪速区,恵美須東３丁目２番９号パークシャトー５０８号室,,27,111,5560002,,,,,,,2022-02-14,1,,,,,アイワカイウン,0
611,3120001243789,新規,0,2022-02-14,2022-02-14,ＲＩＳＥＮ株式会社,,株式会社,大阪府,大阪市住之江区,浜口西１丁目１１番１２号,,27,125,5590006,,,,,,,2022-02-14,1,,,,,リセン,0
614,3120005022792,新規,0,2022-02-14,2022-02-14,医療法人アサイクリニック,,その他の設立登記法人,大阪府,大阪市中央区,心斎橋筋２丁目３番２４号,,27,128,5420085,,,,,,,2022-02-14,1,,,,,アサイクリニック,0
616,3120101065068,新規,0,2022-02-14,2022-02-14,株式会社Ａｃｅ’ｓ,,株式会社,大阪府,堺市中区,東八田１１４番地１Ｂ棟,,27,142,5998275,,,,,,,2022-02-14,1,,,,,エーシーズ,0
621,3122001035571,新規,0,2022-02-14,2022-02-14,株式会社ＨＮホールディングス,,株式会社,大阪府,八尾市,西久宝寺３番地１,,27,212,5810077,,,,,,,2022-02-14,1,,,,,エイチエヌホールディングス,0
624,3130003007745,新規,0,2022-02-14,2022-02-14,合同会社トリプルウィン,,合同会社,京都府,京都市右京区,太秦下刑部町１７０番地プレサンスロジェ太秦天神川駅前６０７,,26,108,6168104,,,,,,,2022-02-14,1,,,,,トリプルウィン,0
628,3140001124888,新規,0,2022-02-14,2022-02-14,株式会社カルデア,,株式会社,兵庫県,神戸市中央区,加納町３丁目２番３－５０３号,,28,110,6500001,,,,,,,2022-02-14,1,,,,,カルデア,0
629,3140001124896,新規,0,2022-02-14,2022-02-14,株式会社Ｏ－ＨａＮａ,,株式会社,兵庫県,西宮市,南甲子園３丁目６番９－６０１号,,28,204,6638153,,,,,,,2022-02-14,1,,,,,オハナ,0
630,3140001124905,新規,0,2022-02-14,2022-02-14,ＪＬＰ株式会社,,株式会社,兵庫県,宝塚市,山本丸橋３丁目２番７－８０６号,,28,214,6650815,,,,,,,2022-02-14,1,,,,,ジェイエルピー,0
632,3140003017347,新規,0,2022-02-14,2022-02-14,合同会社ワールドトリガー,,合同会社,兵庫県,三田市,下深田７４６番地８３２,,28,219,6691543,,,,,,,2022-02-14,1,,,,,ワールドトリガー,0
633,3140003017355,新規,0,2022-02-14,2022-02-14,合同会社アカウンティング・リサーチ,,合同会社,兵庫県,神戸市西区,春日台９丁目１１番地４５号,,28,111,6512276,,,,,,,2022-02-14,1,,,,,アカウンティングリサーチ,0
639,3150003002587,新規,0,2022-02-14,2022-02-14,合同会社ｍｙｗｈｙ,,合同会社,奈良県,葛城市,忍海４３７－４１,,29,211,6392123,,,,,,,2022-02-14,1,,,,,マイワイ,0
640,3150003002620,新規,0,2022-02-14,2022-02-14,合同会社Ｌｅｏ,,合同会社,奈良県,香芝市,畑４丁目５４８,,29,210,6390245,,,,,,,2022-02-14,1,,,,,レオ,0
651,3180001149948,新規,0,2022-02-14,2022-02-14,株式会社フルーティーブリッジ・ジャパン,,株式会社,愛知県,一宮市,多加木２丁目８番１５－５０２号,,23,203,4910837,,,,,,,2022-02-14,1,,,,,フルーティーブリッジジャパン,0
657,3200001039741,新規,0,2022-02-14,2022-02-14,株式会社咲花,,株式会社,岐阜県,恵那市,飯地町１６０５番地,,21,210,5098232,,,,,,,2022-02-14,1,,,,,サラミ,0
659,3200003005452,新規,0,2022-02-14,2022-02-14,合同会社まごころ住宅ホールディングス,,合同会社,岐阜県,岐阜市,東鶉３丁目６１番地,,21,201,5008281,,,,,,,2022-02-14,1,,,,,マゴコロジュウタクホールディングス,0
665,3240001059315,新規,0,2022-02-14,2022-02-14,スカイプロパティ株式会社,,株式会社,広島県,廿日市市,福面３丁目１１番２２号,,34,213,7390401,,,,,,,2022-02-14,1,,,,,スカイプロパティ,0
666,3240001059323,新規,0,2022-02-14,2022-02-14,株式会社末藤デンタルラボラトリー,,株式会社,広島県,広島市安佐南区,八木３丁目８番３５号仲野マンション１０２号室,,34,105,7310101,,,,,,,2022-02-14,1,,,,,スエフジデンタルラボラトリー,0
673,3290001096428,新規,0,2022-02-14,2022-02-14,株式会社グラフパス,,株式会社,福岡県,福岡市中央区,天神２丁目３番１０号天神パインクレスト７１９号,,40,133,8100001,,,,,,,2022-02-14,1,,,,,グラフパス,0
675,3290003012143,新規,0,2022-02-14,2022-02-14,丸海合同会社,,合同会社,福岡県,糟屋郡宇美町,貴船２丁目３０－１５,,40,341,8112131,,,,,,,2022-02-14,1,,,,,マルカイ,0
683,3330003009242,新規,0,2022-02-14,2022-02-14,合同会社Ｆａｒｍｉｃ,,合同会社,熊本県,熊本市中央区,坪井４丁目２番３１－１号,,43,101,8600863,,,,,,,2022-02-14,1,,,,,ファーミック,0
687,3360003011798,新規,0,2022-02-14,2022-02-14,合同会社Ｕテック,,合同会社,沖縄県,那覇市,高良２丁目９番４８－２０１号,,47,201,9010145,,,,,,,2022-02-14,1,,,,,ユーテック,0
688,3370001048189,新規,0,2022-02-14,2022-02-14,株式会社プロテック,,株式会社,宮城県,石巻市,のぞみ野３丁目７番地１０,,04,202,9860860,,,,,,,2022-02-14,1,,,,,プロテック,0
689,3370001048206,新規,0,2022-02-14,2022-02-14,エーエスピーカンパニー株式会社,,株式会社,宮城県,大崎市,古川大宮８丁目４番５３号,,04,215,9896221,,,,,,,2022-02-14,1,,,,,エーエスピーカンパニー,0
696,3380001032539,新規,0,2022-02-14,2022-02-14,福央酒造株式会社,,株式会社,福島県,二本松市,亀谷１丁目２１３番地,,07,210,9640911,,,,,,,2022-02-14,1,,,,,,0
700,3430003013622,新規,0,2022-02-14,2022-02-14,合同会社フランクミウラ,,合同会社,北海道,札幌市白石区,平和通１３丁目南４番１６号,,01,104,0030028,,,,,,,2022-02-14,1,,,,,フランクミウラ,0
707,3500003002766,新規,0,2022-02-14,2022-02-14,サポートＫＡＩ合同会社,,合同会社,愛媛県,宇和島市,桝形町３丁目８番２号,,38,203,7980067,,,,,,,2022-02-14,1,,,,,サポートカイ,0
708,3700150106911,新規,0,2022-02-14,2022-02-04,石川県建設キャリアアップ支援協会,,その他,石川県,金沢市,長田本町ホ８番地,,17,201,9200041,,,,,,,2022-02-04,1,,,,,イシカワケンケンセツキヤリアアツプシエンキヨウカイ,0
709,3700150107034,新規,0,2022-02-14,2022-02-14,認可地縁団体新谷公益会,,その他,愛媛県,大洲市,新谷町甲２７９番地３,,38,207,7950073,,,,,,,2022-02-14,1,,,,,ニンカチエンダンタイニイヤコウエキカイ,0
719,4010001224378,新規,0,2022-02-14,2022-02-14,開誠テクノロジー株式会社,,株式会社,東京都,千代田区,紀尾井町３番１２号紀尾井町ビル１５０１,,13,101,1020094,,,,,,,2022-02-14,1,,,,,カイセイテクノロジー,0
720,4010001224510,新規,0,2022-02-14,2022-02-14,ｅ－ｄａｓｈ株式会社,,株式会社,東京都,千代田区,大手町１丁目２番１号,,13,101,1000004,,,,,,,2022-02-14,1,,,,,イーダッシュ,0
721,4010001224543,新規,0,2022-02-14,2022-02-14,上上籤株式会社,,株式会社,東京都,中央区,勝どき５丁目１２番４－１２０３号,,13,102,1040054,,,,,,,2022-02-14,1,,,,,ジョウジョウセン,0
724,4010003036879,新規,0,2022-02-14,2022-02-14,合同会社ＫＯＮＯＨＡ,,合同会社,東京都,中央区,新富１丁目１７,,13,102,1040041,,,,,,,2022-02-14,1,,,,,コノハ,0
728,4010005034583,新規,0,2022-02-14,2022-02-14,ＴＯＫ２特定目的会社,,その他の設立登記法人,東京都,千代田区,丸の内３丁目１番１号東京共同会計事務所内,,13,101,1000005,,,,,,,2022-02-14,1,,,,,トックツー,0
737,4010403027081,新規,0,2022-02-14,2022-02-14,ＯＮＯＲＥ合同会社,,合同会社,東京都,港区,浜松町２丁目２番１５号浜松町ダイヤビル２Ｆ,,13,103,1050013,,,,,,,2022-02-14,1,,,,,オノーレ,0
738,4010405020679,新規,0,2022-02-14,2022-02-14,アイラ特定目的会社,,その他の設立登記法人,東京都,港区,浜松町１丁目２０番１０号ライオネス浜松町５０６号室,,13,103,1050013,,,,,,,2022-02-14,1,,,,,アイラ,0
752,4010903007120,新規,0,2022-02-14,2022-02-14,合同会社ヨンタイガース,,合同会社,東京都,世田谷区,北沢２丁目７―３ハイツ北沢３０１号,,13,112,1550031,,,,,,,2022-02-14,1,,,,,ヨンタイガーズ,0
753,4011001145580,新規,0,2022-02-14,2022-02-14,株式会社ＴＲＹＡＳ,,株式会社,東京都,渋谷区,宇田川町３番７号ヒューリック渋谷公園通りビル５階－２７ラビレッジ渋谷,,13,113,1500042,,,,,,,2022-02-14,1,,,,,トライアス,0
754,4011001145630,新規,0,2022-02-14,2022-02-14,株式会社ＷＮ,,株式会社,東京都,渋谷区,猿楽町２４番７号代官山プラザ７０３,,13,113,1500033,,,,,,,2022-02-14,1,,,,,ダブリューエヌ,0
757,4011005009419,新規,0,2022-02-14,2022-02-14,一般社団法人オープンソースＡＩ協会,,その他の設立登記法人,東京都,渋谷区,神宮前６丁目２３番４号桑野ビル２階,,13,113,1500001,,,,,,,2022-02-14,1,,,,,オープンソースエーアイキョウカイ,0
763,4011103011466,新規,0,2022-02-14,2022-02-14,知足合同会社,,合同会社,東京都,新宿区,東五軒町３番１５号パレステュディオ神楽坂４１２号,,13,104,1620813,,,,,,,2022-02-14,1,,,,,チソク,0
765,4011201023636,新規,0,2022-02-14,2022-02-14,ＧＩＦＴ株式会社,,株式会社,東京都,中野区,弥生町３丁目９番２０号ＭＯＡしらかわ３０１,,13,114,1640013,,,,,,,2022-02-14,1,,,,,ギフト,0
768,4011301027553,新規,0,2022-02-14,2022-02-14,株式会社アンシーン・エックス,,株式会社,東京都,杉並区,高井戸西１丁目７番６号フェニックス高井戸南３０６,,13,115,1680071,,,,,,,2022-02-14,1,,,,,,0
770,4011401024021,新規,0,2022-02-14,2022-02-14,水晶株式会社,,株式会社,東京都,板橋区,徳丸２丁目３番１号徳丸スクエア１階,,13,119,1750083,,,,,,,2022-02-14,1,,,,,スイショウ,0
773,4011403003568,新規,0,2022-02-14,2022-02-14,雅喜企画合同会社,,合同会社,東京都,板橋区,高島平５丁目５３番１０号,,13,119,1750082,,,,,,,2022-02-14,1,,,,,マサキキカク,0
781,4011801040312,新規,0,2022-02-14,2022-02-14,株式会社アードジュニア,,株式会社,東京都,葛飾区,奥戸２丁目１１番１５号,,13,122,1240022,,,,,,,2022-02-14,1,,,,,アードジュニア,0
788,4013101008849,新規,0,2022-02-14,2022-02-14,株式会社長田建築,,株式会社,東京都,西多摩郡瑞穂町,大字殿ケ谷９７３番地２２,,13,303,1901212,,,,,,,2022-02-14,1,,,,,オサダケンチク,0
790,4013301048637,新規,0,2022-02-14,2022-02-14,株式会社ＡＢＣＤ,,株式会社,東京都,豊島区,南池袋３丁目１８番４８号さつきコーポＡ棟１０２号,,13,116,1710022,,,,,,,2022-02-14,1,,,,,エービーシーディー,0
792,4013303006031,新規,0,2022-02-14,2022-02-14,合同会社アンノウン,,合同会社,東京都,豊島区,南大塚１丁目１０番３号,,13,116,1700005,,,,,,,2022-02-14,1,,,,,アンノウン,0
797,4020001145202,新規,0,2022-02-14,2022-02-14,中本計装株式会社,,株式会社,神奈川県,川崎市高津区,子母口４６３番地７,,14,134,2130023,,,,,,,2022-02-14,1,,,,,ナカモトケイソウ,0
819,4060001034566,新規,0,2022-02-14,2022-02-14,株式会社コレーグ,,株式会社,栃木県,小山市,大字鉢形５１９番地２,,09,208,3230801,,,,,,,2022-02-14,1,,,,,コレーグ,0
825,4080103002519,新規,0,2022-02-14,2022-02-14,坂下企画合同会社,,合同会社,静岡県,伊東市,桜木町２丁目９番２号,,22,208,4140013,,,,,,,2022-02-14,1,,,,,サカシタキカク,0
826,4080401025626,新規,0,2022-02-14,2022-02-14,株式会社ケイエム,,株式会社,静岡県,浜松市中区,南浅田１丁目１番２２号日栄ハイム南浜松５０１号,,22,131,4328044,,,,,,,2022-02-14,1,,,,,ケイエム,0
828,4100002039312,新規,0,2022-02-14,2022-02-14,有限会社アズサプランニング,,有限会社,長野県,松本市,大手１丁目９番１５号,,20,202,3900874,,,,,,,2022-02-14,1,,,,,アズサプランニング,0
833,4120001243788,新規,0,2022-02-14,2022-02-14,株式会社ＲＯＭＩＯ,,株式会社,大阪府,大阪市西成区,千本北１丁目１１番７号,,27,122,5570053,,,,,,,2022-02-14,1,,,,,ロミオ,0
835,4120003021127,新規,0,2022-02-14,2022-02-14,合同会社神路企画,,合同会社,大阪府,大阪市東成区,神路３丁目１番２０号,,27,115,5370003,,,,,,,2022-02-14,1,,,,,カミジキカク,0
857,4130001071115,新規,0,2022-02-14,2022-02-14,株式会社山崎企画,00125697,株式会社,京都府,綾部市,味方町平林３番地の２２,,26,203,6230031,,,,,,,2022-02-14,1,,,,,ヤマサキキカク,0
858,4130001071123,新規,0,2022-02-14,2022-02-14,株式会社森商店,,株式会社,京都府,向日市,上植野町西小路３２番地,,26,208,6170006,,,,,,,2022-02-14,1,,,,,モリショウテン,0
861,4130003007744,新規,0,2022-02-14,2022-02-14,合同会社グランセラ,,合同会社,京都府,京都市東山区,宮川筋７丁目３９６番１,,26,105,6050801,,,,,,,2022-02-14,1,,,,,グランセラ,0
879,4180001149798,新規,0,2022-02-14,2022-02-14,山本電機株式会社,,株式会社,愛知県,一宮市,大字大赤見２３３１番地の３,,23,203,4910000,,,,,,,2022-02-14,1,,,,,ヤマモトデンキコウギョウ,0
882,4180005019634,新規,0,2022-02-14,2022-02-14,一般社団法人メディカルトランスフォーメーション,,その他の設立登記法人,愛知県,名古屋市中川区,露橋２丁目２６番７号,,23,110,4540022,,,,,,,2022-02-14,1,,,,,メディカルトランスフォーメーション,0
892,4230003001803,新規,0,2022-02-14,2022-02-14,合同会社ＥＸＡＭ,,合同会社,富山県,富山市,千石町５丁目７番１２号,,16,201,9300066,,,,,,,2022-02-14,1,,,,,エグザム,0
897,4240001059322,新規,0,2022-02-14,2022-02-14,株式会社ＯＳ,,株式会社,広島県,広島市中区,上幟町７番１２－９０３号,,34,101,7300014,,,,,,,2022-02-14,1,,,,,オス,0
899,4260001014366,新規,0,2022-02-14,2022-02-14,日興住宅産業株式会社,,株式会社,岡山県,倉敷市,茶屋町１５９０番地,,33,202,7101101,,,,,,,2022-02-14,1,,,,,ニッコウジュウタクサンギョウ,0
905,4260001036518,新規,0,2022-02-14,2022-02-14,株式会社コラスト,,株式会社,岡山県,岡山市北区,平野６２２番地８（２Ｉ）,,33,101,7010151,,,,,,,2022-02-14,1,,,,,コラスト,0
910,4290001096427,新規,0,2022-02-14,2022-02-14,株式会社共立,,株式会社,福岡県,福岡市西区,石丸３丁目２０－１３－２０２,,40,135,8190025,,,,,,,2022-02-14,1,,,,,キョウリツ,0
917,4290003012142,新規,0,2022-02-14,2022-02-14,合同会社Ｎ．ｗｏｒｋｓ,,合同会社,福岡県,福岡市早良区,西新２丁目２１番１５－２０５号,,40,137,8140002,,,,,,,2022-02-14,1,,,,,エヌドッツワークス,0
918,4290801028257,新規,0,2022-02-14,2022-02-14,アステック株式会社,,株式会社,福岡県,北九州市小倉南区,南方１丁目１番１６号,,40,107,8020976,,,,,,,2022-02-14,1,,,,,アステック,0
926,4330003009241,新規,0,2022-02-14,2022-02-14,合同会社サンライズ・ロータス,,合同会社,熊本県,熊本市中央区,渡鹿５丁目９－２６－２０３号,,43,101,8620970,,,,,,,2022-02-14,1,,,,,サンライズロータス,0
934,4360003011797,新規,0,2022-02-14,2022-02-14,合同会社ノボテック,,合同会社,沖縄県,宜野湾市,我如古３丁目１５－２７,,47,205,9012214,,,,,,,2022-02-14,1,,,,,,0
945,4430005014386,新規,0,2022-02-14,2022-02-14,一般社団法人清田区風の谷協働研究ラボ,,その他の設立登記法人,北海道,札幌市清田区,平岡三条６丁目４番１１号,,01,110,0040873,,,,,,,2022-02-14,1,,,,,キヨタクカゼノタニキョウドウケンキュウラボ,0
946,4440003001443,新規,0,2022-02-14,2022-02-14,合同会社明咲陽,,合同会社,北海道,北斗市,七重浜２丁目３２番１号,,01,236,0490111,,,,,,,2022-02-14,1,,,,,アサヒ,0
950,4700150106506,新規,0,2022-02-14,2022-01-05,Ｕｎｉｖｅｒｓａｌ　Ｇｙｐｓｙ,,その他,東京都,稲城市,坂浜３２１５－１Ｆ,,13,225,2060822,,,,,,,2022-01-05,1,,,,,ユニバーサルジプシー,0
951,4700150106984,新規,0,2022-02-14,2022-02-08,劇団Ｃｏｍｐａｓｓ,,その他,兵庫県,神戸市中央区,北長狭通７丁目３－１０－６０１,,28,110,6500012,,,,,,,2022-02-08,1,,,,,ゲキダンコンパス,0
952,4700150107033,新規,0,2022-02-14,2022-02-14,Ｃｈｉｎａ　Ｗｅａｌｔｈ　Ｃａｐｉｔａｌ　Ｉｎｖｅｓｔｍｅｎｔ　Ｌｉｍｉｔｅｄ,,外国会社等,,,,,,,,Ｒｏｏｍｓ　１００１－４Ａ，Ｃｈａｍｐｉｏｎ　Ｂｕｉｌｄｉｎｇ，２８７－２９１　Ｄｅｓ　Ｖｏｅｕｘ　Ｒｏａｄ　Ｃｅｎｔｒａｌ，Ｈｏｎｇ　Ｋｏｎｇ,,,,,,2022-02-14,1,,,,,チヤイナウエルスキヤピタルインベストメントリミテツド,0
960,5010001224451,新規,0,2022-02-14,2022-02-14,株式会社イマジン,,株式会社,東京都,中央区,銀座７丁目７番６号アスタープラザビル地下１階１０号室,,13,102,1040061,,,,,,,2022-02-14,1,,,,,イマジン,0
961,5010001224526,新規,0,2022-02-14,2022-02-14,株式会社ｓｃｉ－ｂｏｎｅ,,株式会社,東京都,中央区,銀座１丁目１２番４号Ｎ＆ＥＢＬＤ．７階,,13,102,1040061,,,,,,,2022-02-14,1,,,,,サイボウン,0
962,5010001224542,新規,0,2022-02-14,2022-02-14,株式会社Ｕｐ,,株式会社,東京都,中央区,銀座１丁目１２番４号Ｎ＆ＥＢＬＤ．７階,,13,102,1040061,,,,,,,2022-02-14,1,,,,,アップ,0
968,5010003037001,新規,0,2022-02-14,2022-02-14,合同会社サンオードル,,合同会社,東京都,中央区,銀座４丁目１３番８号岩藤ビル５階,,13,102,1040061,,,,,,,2022-02-14,1,,,,,サンオードル,0
969,5010003037018,新規,0,2022-02-14,2022-02-14,合同会社Ｄｅａｌ　Ｍａｎａｇｅｍｅｎｔ,,合同会社,東京都,中央区,日本橋蛎殻町１丁目３７番１２－１２０７,,13,102,1030014,,,,,,,2022-02-14,1,,,,,ディールマネジメント,0
970,5010005034590,新規,0,2022-02-14,2022-02-14,一般社団法人向日葵信用ホールディングス,,その他の設立登記法人,東京都,千代田区,丸の内３丁目１番１号東京共同会計事務所内,,13,101,1000005,,,,,,,2022-02-14,1,,,,,ヒマワリシンヨウホールディングス,0
971,5010005034599,新規,0,2022-02-14,2022-02-14,一般社団法人芦ノ湖,,その他の設立登記法人,東京都,千代田区,霞が関３丁目２番５号,,13,101,1000013,,,,,,,2022-02-14,1,,,,,アシノコ,0
979,5010401165527,新規,0,2022-02-14,2022-02-14,株式会社マイスリンク,,株式会社,東京都,港区,虎ノ門５丁目１３番１号,,13,103,1050001,,,,,,,2022-02-14,1,,,,,マイスリンク,0
980,5010401165543,新規,0,2022-02-14,2022-02-14,株式会社メディカルハンズ,,株式会社,東京都,港区,芝浦４丁目２２番１号,,13,103,1080023,,,,,,,2022-02-14,1,,,,,メディカルハンズ,0
982,5010405020703,新規,0,2022-02-14,2022-02-14,ジー・ジェイ・レジデンス・ナイン一般社団法人,,その他の設立登記法人,東京都,港区,虎ノ門４丁目３番１号城山トラストタワー２７階ＳａｎｎｅＧｒｏｕｐＪａｐａｎ株式会社内,,13,103,1050001,,,,,,,2022-02-14,1,,,,,ジージェイレジデンスナイン,0
983,5010501048458,新規,0,2022-02-14,2022-02-14,株式会社ユニゾン,,株式会社,東京都,台東区,東上野４丁目１２番１号,,13,106,1100015,,,,,,,2022-02-14,1,,,,,ユニゾン,0
984,5010601060668,新規,0,2022-02-14,2022-02-14,株式会社アクシア,,株式会社,東京都,江東区,亀戸５丁目６番２１号,,13,108,1360071,,,,,,,2022-02-14,1,,,,,アクシア,0
988,5010701042228,新規,0,2022-02-14,2022-02-14,株式会社金麦,,株式会社,東京都,品川区,荏原１丁目２２番４号,,13,109,1420063,,,,,,,2022-02-14,1,,,,,キンバク,0
989,5010703006107,新規,0,2022-02-14,2022-02-14,ＳＯコンサルティング合同会社,,合同会社,東京都,品川区,大崎３丁目１５番２６号５０１,,13,109,1410032,,,,,,,2022-02-14,1,,,,,エスオーコンサルティング,0
994,5010901050344,新規,0,2022-02-14,2022-02-14,株式会社ＧＴＳ,,株式会社,東京都,世田谷区,成城８丁目３番１３号,,13,112,1570066,,,,,,,2022-02-14,1,,,,,ジーティーエス,0
1000,5011001145464,新規,0,2022-02-14,2022-02-14,株式会社Ｘ１０Ａ,,株式会社,東京都,目黒区,目黒本町４丁目１３番１０号大和ビル３０１,,13,110,1520002,,,,,,,2022-02-14,1,,,,,エックスワンオーエー,0
1001,5011001145547,新規,0,2022-02-14,2022-02-14,株式会社ｔｒｉｐｑｏｔ,,株式会社,東京都,渋谷区,渋谷２丁目１９－１５宮益坂ビルディング６０９,,13,113,1500002,,,,,,,2022-02-14,1,,,,,トリップコット,0
1002,5011001145563,新規,0,2022-02-14,2022-02-14,株式会社ｃｏｒｏｐ,,株式会社,東京都,目黒区,鷹番２丁目２０番１７号ＴＳビル４０５号室,,13,110,1520004,,,,,,,2022-02-14,1,,,,,コロップ,0
1003,5011003014171,新規,0,2022-02-14,2022-02-14,ＲＳ合同会社,,合同会社,東京都,渋谷区,道玄坂１丁目１０番８号渋谷道玄坂東急ビル２Ｆ－Ｃ,,13,113,1500043,,,,,,,2022-02-14,1,,,,,アールエス,0
1005,5011101097754,新規,0,2022-02-14,2022-02-14,株式会社Ａ－ｙｏｕ,,株式会社,東京都,新宿区,西新宿３丁目７番２６号ハイネスロワイヤル１００１,,13,104,1600023,,,,,,,2022-02-14,1,,,,,エーユウ,0
1006,5011101097762,新規,0,2022-02-14,2022-02-14,株式会社太田組,,株式会社,東京都,新宿区,四谷三栄町２番５号プレイス四ッ谷,,13,104,1600008,,,,,,,2022-02-14,1,,,,,オオタグミ,0
1010,5011103011449,新規,0,2022-02-14,2022-02-14,富裕久合同会社,,合同会社,東京都,新宿区,西新宿３丁目３番１３号６階,,13,104,1600023,,,,,,,2022-02-14,1,,,,,フユウキュウ,0
1023,5012301012874,新規,0,2022-02-14,2022-02-14,アステリア株式会社,,株式会社,東京都,町田市,常盤町３２３０－２７,,13,209,1940213,,,,,,,2022-02-14,1,,,,,アステリア,0
1024,5012303001636,新規,0,2022-02-14,2022-02-14,合同会社ＦＩＲＥ,,合同会社,東京都,町田市,金森４丁目４６－１９,,13,209,1940012,,,,,,,2022-02-14,1,,,,,ファイヤー,0
1037,5020001145168,新規,0,2022-02-14,2022-02-14,株式会社ル・プランス,,株式会社,神奈川県,横浜市港北区,富士塚１丁目２２番２７号,,14,109,2220012,,,,,,,2022-02-14,1,,,,,ルプランス,0
1046,5021001075165,新規,0,2022-02-14,2022-02-14,ＮＥＯ　ＧＯＬＦ株式会社,,株式会社,神奈川県,藤沢市,片瀬２丁目２番３３～１０５号,,14,205,2510032,,,,,,,2022-02-14,1,,,,,ネオゴルフ,0
1047,5021001075173,新規,0,2022-02-14,2022-02-14,株式会社プライムパートナー,,株式会社,神奈川県,座間市,ひばりが丘５丁目２１番１号,,14,216,2520003,,,,,,,2022-02-14,1,,,,,プライムパートナー,0
1050,5021003011390,新規,0,2022-02-14,2022-02-14,合同会社逗子と葉山と鎌倉と,,合同会社,神奈川県,逗子市,新宿１丁目５番１４号,,14,208,2490007,,,,,,,2022-02-14,1,,,,,ズシトハヤマトカマクラト,0
1057,5030001146784,新規,0,2022-02-14,2022-02-14,株式会社Ｍｕｓｉｃ　Ｇａｒｄｅｎ,,株式会社,埼玉県,草加市,金明町８８０番地５,,11,221,3400052,,,,,,,2022-02-14,1,,,,,ミュージックガーデン,0
1066,5040001122198,新規,0,2022-02-14,2022-02-14,株式会社マルキ,,株式会社,千葉県,浦安市,猫実２丁目２０番２７号,,12,227,2790004,,,,,,,2022-02-14,1,,,,,マルキ,0
1072,5040003019459,新規,0,2022-02-14,2022-02-14,合同会社トゥルーライン,,合同会社,千葉県,山武市,蓮沼イの１０６０番地１５,,12,237,2891801,,,,,,,2022-02-14,1,,,,,トゥルーライン,0
1074,5040005021512,新規,0,2022-02-14,2022-02-14,一般社団法人龍在日華人援助協会,,その他の設立登記法人,千葉県,松戸市,西馬橋蔵元町５５番地２０３号,,12,207,2710046,,,,,,,2022-02-14,1,,,,,リュウザイニチカジンエンジョキョウカイ,0
1076,5050001050621,新規,0,2022-02-14,2022-02-14,株式会社ユキヒラ,,株式会社,茨城県,つくば市,要５２番地３,,08,220,3002622,,,,,,,2022-02-14,1,,,,,ユキヒラ,0
1080,5060001034565,新規,0,2022-02-14,2022-02-14,株式会社ＢＯＣＴｅｃｈｎｏｌｏｇｙ,,株式会社,栃木県,宇都宮市,陽東４丁目１３番２８号,,09,201,3210904,,,,,,,2022-02-14,1,,,,,ビーオーシーテクノロジー,0
1083,5080401025625,新規,0,2022-02-14,2022-02-14,株式会社ＦＲＩＥＮＤＳＨＩＰ,,株式会社,静岡県,御前崎市,池新田２４６５番地の２８,,22,223,4371612,,,,,,,2022-02-14,1,,,,,フレンドシップ,0
1102,5120001243589,新規,0,2022-02-14,2022-02-14,株式会社Ｎ．Ａ．Ｄ,,株式会社,大阪府,大阪市中央区,南船場３丁目３－３ｌｕｏｇｏ３３３５０１号室,,27,128,5420081,,,,,,,2022-02-14,1,,,,,エヌエーディー,0
1105,5120101065058,新規,0,2022-02-14,2022-02-14,Ｆｕｓｉｏｎ　Ｐｌｕｓ株式会社,,株式会社,大阪府,堺市北区,東上野芝町２丁４６８番地１エンゼルハイム上野芝１００５号,,27,146,5918035,,,,,,,2022-02-14,1,,,,,フュージョンプラス,0
1106,5120103004575,新規,0,2022-02-14,2022-02-14,合同会社マイプラ,,合同会社,大阪府,岸和田市,摩湯町４１０番地の３,,27,202,5960806,,,,,,,2022-02-14,1,,,,,マイプラ,0
1107,5120105009523,新規,0,2022-02-14,2022-02-14,ＮＰＯ法人ワールド大阪ロータリーＥクラブ,,その他の設立登記法人,大阪府,岸和田市,稲葉町３７７番地,,27,202,5960103,,,,,,,2022-02-14,1,,,,,ワールドオオサカロータリーイークラブ,0
1108,5122001035578,新規,0,2022-02-14,2022-02-14,株式会社ノワール,,株式会社,大阪府,東大阪市,中鴻池町２丁目３番１６－１１３号,,27,227,5780975,,,,,,,2022-02-14,1,,,,,ノワール,0
1133,5180001149938,新規,0,2022-02-14,2022-02-14,舩橋農園株式会社,,株式会社,愛知県,岩倉市,井上町４４１番地,,23,228,4820032,,,,,,,2022-02-14,1,,,,,フナバシノウエン,0
1134,5180001149946,新規,0,2022-02-14,2022-02-14,ジョブコレ名古屋株式会社,,株式会社,愛知県,名古屋市中村区,名駅３丁目２６番１９号,,23,105,4500002,,,,,,,2022-02-14,1,,,,,ジョブコレナゴヤ,0
1138,5180005019633,新規,0,2022-02-14,2022-02-14,特定非営利活動法人ソラト,,その他の設立登記法人,愛知県,名古屋市中区,栄１丁目１４番１４号御園パレス６０６号,,23,106,4600008,,,,,,,2022-02-14,1,,,,,ソラト,0
1143,5240001059321,新規,0,2022-02-14,2022-02-14,株式会社ウェルネスサポートＳｈ,,株式会社,広島県,廿日市市,阿品台北５番３７号,,34,213,7380051,,,,,,,2022-02-14,1,,,,,ウェルネスサポートエスエイチ,0
1144,5240003005496,新規,0,2022-02-14,2022-02-14,合同会社Ｐａｄｄｌｅ,,合同会社,広島県,福山市,沼隈町大字下山南９１９番地,,34,207,7200403,,,,,,,2022-02-14,1,,,,,パドル,0
1153,5290001096211,新規,0,2022-02-14,2022-02-14,株式会社あそう屋,,株式会社,福岡県,福岡市博多区,那珂４丁目８－２１－２０７,,40,132,8120893,,,,,,,2022-02-14,1,,,,,アソウヤ,0
1154,5290001096368,新規,0,2022-02-14,2022-02-14,おかきねこ株式会社,,株式会社,福岡県,福岡市東区,千早１丁目５番１５－４０８号,,40,131,8130044,,,,,,,2022-02-14,1,,,,,オカキネコ,0
1155,5290001096376,新規,0,2022-02-14,2022-02-14,株式会社ライフビジョンコンサルタンツ,,株式会社,福岡県,福岡市博多区,博多駅前１丁目１５番２０号ＮＭＦ博多駅前ビル２階,,40,132,8120011,,,,,,,2022-02-14,1,,,,,ライフビジョンコンサルタンツ,0
1162,5290003012141,新規,0,2022-02-14,2022-02-14,合同会社ハヤシ,,合同会社,福岡県,古賀市,美明１丁目１７番２７号,,40,223,8113107,,,,,,,2022-02-14,1,,,,,ハヤシ,0
1167,5290801028256,新規,0,2022-02-14,2022-02-14,株式会社耀盛,,株式会社,福岡県,北九州市若松区,中川町１２番２１号,,40,103,8080025,,,,,,,2022-02-14,1,,,,,ヨウセイ,0
1175,5320001018888,新規,0,2022-02-14,2022-02-14,株式会社シンキ,,株式会社,大分県,日田市,大字西有田１番地１,,44,204,8770000,,,,,,,2022-02-14,1,,,,,シンキ,0
1185,5330003009240,新規,0,2022-02-14,2022-02-14,合同会社ＳＲトレーディング,,合同会社,熊本県,宇城市,松橋町松橋３６４番地１コモンライフＩＩ－１０２号,00125696,43,213,8690502,,,,,,,2022-02-14,1,,,,,エスアールトレーディング,0
1189,5340001024496,新規,0,2022-02-14,2022-02-14,株式会社ＡＳＵＷＡＮＥＫＯ,,株式会社,鹿児島県,鹿児島市,原良６丁目２番６－１号,,46,201,8900026,,,,,,,2022-02-14,1,,,,,アスワネコ,0
1203,5400003002898,新規,0,2022-02-14,2022-02-14,ＬＥＴ’Ｓ　ＧＯここプロ合同会社,,合同会社,岩手県,二戸郡一戸町,西法寺字関屋６２番地３３,,03,524,0285301,,,,,,,2022-02-14,1,,,,,レッツゴーココプロ,0
1210,5430001085991,新規,0,2022-02-14,2022-02-14,株式会社アース,,株式会社,北海道,札幌市中央区,南七条西９丁目１０２８番地２０ａｑｕａ１１１－４０５号,,01,101,0640807,,,,,,,2022-02-14,1,,,,,アース,0
1211,5700150104780,新規,0,2022-02-14,2021-09-16,ミュージック　オフィス　プレジャー,,その他,和歌山県,和歌山市,西庄８２９番２２,,30,201,6400112,,,,,,,2021-09-16,1,,,,,ミユージツクオフイスプレジヤー,0
1212,5700150106934,新規,0,2022-02-14,2022-02-04,大河ドラマ「鎌倉殿の１３人」鎌倉市推進協議会,,その他,神奈川県,鎌倉市,御成町１８－１０,,14,204,2480012,,,,,,,2022-02-04,1,,,,,タイガドラマカマクラドノノジユウサンニンカマクラシスイシンキヨウギカイ,0
1220,6010001224525,新規,0,2022-02-14,2022-02-14,ピューマ２株式会社,,株式会社,東京都,中央区,八重洲１丁目１番８号八重洲ＫＴビル５階,,13,102,1030028,,,,,,,2022-02-14,1,,,,,ピューマツー,0
1222,6010003037000,新規,0,2022-02-14,2022-02-14,Ｍ＆Ｐ　Ｔｒａｄｉｎｇ合同会社,,合同会社,東京都,中央区,銀座１丁目１２番４号Ｎ＆Ｅ－ＢＬＤ．７Ｆ,,13,102,1040061,,,,,,,2022-02-14,1,,,,,エムアンドピートレーディング,0
1231,6010401165542,新規,0,2022-02-14,2022-02-14,株式会社アリアラルゴ,,株式会社,東京都,港区,六本木７丁目１７－１０ブランズ六本木４０２,,13,103,1060032,,,,,,,2022-02-14,1,,,,,アリアラルゴ,0
1232,6010401165575,新規,0,2022-02-14,2022-02-14,Ｔ・Ｎ・Ｈ株式会社,,株式会社,東京都,港区,赤坂１丁目１番１７－５０１号,,13,103,1070052,,,,,,,2022-02-14,1,,,,,ティーエヌエイチ,0
1235,6010403027047,新規,0,2022-02-14,2022-02-14,ＭｉＵ合同会社,,合同会社,東京都,港区,南青山２丁目２番１５号ウィン青山９４２,,13,103,1070062,,,,,,,2022-02-14,1,,,,,ミウ,0
1237,6010501048449,新規,0,2022-02-14,2022-02-14,株式会社ＴＹウェルス・パートナーズ,,株式会社,東京都,台東区,三ノ輪１丁目１５番６－８０４号,,13,106,1100011,,,,,,,2022-02-14,1,,,,,ティワイウェルスパートナーズ,0
1246,6010905004262,新規,0,2022-02-14,2022-02-14,一般社団法人スヌーズレン・ラボ,,その他の設立登記法人,東京都,世田谷区,上祖師谷２丁目３２番３５号グランツＴＭ２０２,,13,112,1570065,,,,,,,2022-02-14,1,,,,,スヌーズレンラボ,0
1252,6011001145538,新規,0,2022-02-14,2022-02-14,Ｋｕｕ株式会社,,株式会社,東京都,渋谷区,神宮前６丁目２３番４号桑野ビル２階,,13,113,1500001,,,,,,,2022-02-14,1,,,,,クー,0
1253,6011001145554,新規,0,2022-02-14,2022-02-14,株式会社ＳＨＵＭｉＴＡＳ,,株式会社,東京都,目黒区,自由が丘２丁目１６－１２ＬＣ１Ｆ,,13,110,1520035,,,,,,,2022-02-14,1,,,,,シュミタス,0
1254,6011001145562,新規,0,2022-02-14,2022-02-14,ＲＨＯＤＯＰＳＥＥ株式会社,,株式会社,東京都,渋谷区,神宮前６丁目２９番４号原宿ｋｏｍｉｙａビル６階,,13,113,1500001,,,,,,,2022-02-14,1,,,,,ロドプシー,0
1258,6011101097737,新規,0,2022-02-14,2022-02-14,ＥＶＥＲＹ．ＬＩＶＥ株式会社,,株式会社,東京都,新宿区,新宿２丁目１３番１２号,,13,104,1600022,,,,,,,2022-02-14,1,,,,,エブリィライブ,0
1259,6011101097753,新規,0,2022-02-14,2022-02-14,株式会社Ｂｒｅａｔｈ,,株式会社,東京都,新宿区,西新宿３丁目３番１３号西新宿水間ビル６階,,13,104,1600023,,,,,,,2022-02-14,1,,,,,ブレス,0
1260,6011101097761,新規,0,2022-02-14,2022-02-14,株式会社十手,,株式会社,東京都,新宿区,信濃町２４番地ドミサイル信濃町５０２,,13,104,1600016,,,,,,,2022-02-14,1,,,,,ジッテ,0
1261,6011101097786,新規,0,2022-02-14,2022-02-14,株式会社Ｈｉｒｕ,,株式会社,東京都,新宿区,西新宿７丁目５番８号ＧＯＷＡ西新宿５階,,13,104,1600023,,,,,,,2022-02-14,1,,,,,ヒル,0
1262,6011103011464,新規,0,2022-02-14,2022-02-14,合同会社ＳｃｏｕｔＭａｓｔｅｒ,,合同会社,東京都,新宿区,若松町８番８－６１０号,,13,104,1620056,,,,,,,2022-02-14,1,,,,,スカウトマスタ,0
1276,6012701016929,新規,0,2022-02-14,2022-02-14,ＭＥデベロップメント株式会社,,株式会社,東京都,西東京市,田無町５丁目１番１号田無五丁目ビル４Ｆ,,13,229,1880011,,,,,,,2022-02-14,1,,,,,エムイーデベロップメント,0
1280,6013103001107,新規,0,2022-02-14,2022-02-14,東京らじっく合同会社,,合同会社,東京都,あきる野市,雨間７０９クローカスＫ１０２,,13,228,1970825,,,,,,,2022-02-14,1,,,,,トウキョウラジック,0
1294,6020001145183,新規,0,2022-02-14,2022-02-14,株式会社ＫＣＢ,,株式会社,神奈川県,川崎市川崎区,下並木７番地２０ベルメゾン川崎Ｉ１０１,00125694,14,131,2100025,,,,,,,2022-02-14,1,,,,,ケーシービー,0
1305,6021005012436,新規,0,2022-02-14,2022-02-14,特定非営利活動法人湘南ＦＰ相談室,,その他の設立登記法人,神奈川県,藤沢市,片瀬１丁目２番２８号,,14,205,2510032,,,,,,,2022-02-14,1,,,,,ショウナンエフピーソウダンシツ,0
1307,6030003018799,新規,0,2022-02-14,2022-02-14,合同会社Ｃｅｒｉｓｅ,,合同会社,埼玉県,さいたま市見沼区,東大宮７丁目１番地１３,,11,104,3370051,,,,,,,2022-02-14,1,,,,,スリィーズ,0
1308,6030005020712,新規,0,2022-02-14,2022-02-14,一般社団法人日本神経放射線学会,,その他の設立登記法人,埼玉県,東松山市,元宿１丁目１８番４号,,11,212,3550063,,,,,,,2022-02-14,1,,,,,ニホンシンケイホウシャセンガッカイ,0
1317,6040001122180,新規,0,2022-02-14,2022-02-14,株式会社ＲＩＳＥ,,株式会社,千葉県,匝瑳市,八日市場イ１０１６番地５,,12,235,2892144,,,,,,,2022-02-14,1,,,,,ライズ,0
1318,6040001122222,新規,0,2022-02-14,2022-02-14,株式会社ＧＲＡＶＩＳ,,株式会社,千葉県,市川市,福栄１丁目２２番地１ラピュタ南行徳１０１,,12,203,2720137,,,,,,,2022-02-14,1,,,,,グラビス,0
1321,6040003019482,新規,0,2022-02-14,2022-02-14,合同会社ＲＭ,,合同会社,千葉県,千葉市中央区,千葉港８番１号千葉みなとパークハウス弐番館１３０４号,,12,101,2600026,,,,,,,2022-02-14,1,,,,,アールエム,0
1325,6050001050620,新規,0,2022-02-14,2022-02-14,株式会社住建リアリティ,,株式会社,茨城県,鹿嶋市,大字和１６１５番地３０,,08,222,3112215,,,,,,,2022-02-14,1,,,,,ジュウケンリアリティ,0
1329,6060001034564,新規,0,2022-02-14,2022-02-14,株式会社Ｉ．Ｍ　ｉｎｔｅｒｎａｔｉｏｎａｌ　ｔｒａｄｉｎｇ　ｃｏｍｐａｎｙ,,株式会社,栃木県,真岡市,熊倉１丁目１０番地３みどりヶ丘ハイツＶＩＩ１０２号,00125698,09,209,3214369,,,,,,,2022-02-14,1,,,,,アイエムインターナショナルトレーディングカンパニー,0
1338,6080401025624,新規,0,2022-02-14,2022-02-14,久晃運送株式会社,,株式会社,静岡県,周智郡森町,一宮３５０６番地の１,,22,461,4370226,,,,,,,2022-02-14,1,,,,,キュウコウウンソウ,0
1343,6100001035062,新規,0,2022-02-14,2022-02-14,株式会社ＣＯＷ,,株式会社,長野県,長野市,吉田４丁目１９番５号,,20,201,3810043,,,,,,,2022-02-14,1,,,,,カウ,0
1346,6100003006409,新規,0,2022-02-14,2022-02-14,合資会社今田屋商店,,合資会社,長野県,駒ヶ根市,中央１９番１１号,,20,210,3994112,,,,,,,2022-02-14,1,,,,,イマダヤショウテン,0
1358,6120001243753,新規,0,2022-02-14,2022-02-14,株式会社サイエンスメディカル,,株式会社,大阪府,大阪市淀川区,西中島５丁目５番１５号,,27,123,5320011,,,,,,,2022-02-14,1,,,,,サイエンスメディカル,0
1359,6120001243786,新規,0,2022-02-14,2022-02-14,株式会社Ａ７,,株式会社,大阪府,大阪市西区,北堀江１丁目１４－２２,,27,106,5500014,,,,,,,2022-02-14,1,,,,,エーセブン,0
1360,6120001243803,新規,0,2022-02-14,2022-02-14,株式会社レジデンスアーク,,株式会社,大阪府,大阪市中央区,松屋町住吉５番２５号,,27,128,5400017,,,,,,,2022-02-14,1,,,,,レジデンスアーク,0
1362,6120005022798,新規,0,2022-02-14,2022-02-14,一般社団法人Ｒ・ＡＳＫ,,その他の設立登記法人,大阪府,大阪市中央区,南船場１丁目１３番２０号,,27,128,5420081,,,,,,,2022-02-14,1,,,,,アールエーエスケー,0
1363,6120101065065,新規,0,2022-02-14,2022-02-14,株式会社イル,,株式会社,大阪府,岸和田市,並松町２６番５号,,27,202,5960052,,,,,,,2022-02-14,1,,,,,イル,0
1368,6120901045563,新規,0,2022-02-14,2022-02-14,ＳＡＮＮＥＴ株式会社,,株式会社,大阪府,豊中市,北条町４丁目１１番９号,,27,203,5610812,,,,,,,2022-02-14,1,,,,,サンネット,0
1369,6120901045596,新規,0,2022-02-14,2022-02-14,株式会社ＣＯＷ　ＣＯＷ,,株式会社,大阪府,池田市,石橋２丁目２番１４号,,27,204,5630032,,,,,,,2022-02-14,1,,,,,カウカウ,0
1374,6130001071113,新規,0,2022-02-14,2022-02-14,株式会社ＡＭＧＳ,,株式会社,京都府,京都市左京区,下鴨夜光町１番地２,,26,103,6060837,,,,,,,2022-02-14,1,,,,,エーエムジーエス,0
1379,6140001124902,新規,0,2022-02-14,2022-02-14,株式会社テアレク,,株式会社,兵庫県,宝塚市,星の荘９番６号,,28,214,6650866,,,,,,,2022-02-14,1,,,,,テアレク,0
1386,6150001025323,新規,0,2022-02-14,2022-02-14,ＡＹＵＮＩＫＳ株式会社,,株式会社,奈良県,橿原市,西池尻町２７０－４,,29,205,6340821,,,,,,,2022-02-14,1,,,,,アユニクス,0
1387,6150001025331,新規,0,2022-02-14,2022-02-14,株式会社３．０１,,株式会社,奈良県,香芝市,逢坂１丁目３８２番地２６,00125702,29,210,6390251,,,,,,,2022-02-14,1,,,,,サンテンゼロイチ,0
1392,6180001149945,新規,0,2022-02-14,2022-02-14,株式会社明弘,,株式会社,愛知県,日進市,五色園１丁目１１７番地,,23,230,4700105,,,,,,,2022-02-14,1,,,,,メイコウ,0
1395,6180005019632,新規,0,2022-02-14,2022-02-14,一般社団法人あるむ,,その他の設立登記法人,愛知県,稲沢市,国府宮１丁目１１－１２－１０４,,23,220,4928137,,,,,,,2022-02-14,1,,,,,アルム,0
1399,6180303005251,新規,0,2022-02-14,2022-02-14,合同会社Ｓｅｅｋｅｒ,,合同会社,愛知県,岡崎市,羽根町字若宮３０番地１,,23,202,4440813,,,,,,,2022-02-14,1,,,,,シーカー,0
1402,6200001039739,新規,0,2022-02-14,2022-02-14,森松工業分割準備株式会社,,株式会社,岐阜県,本巣市,見延１４３０番地の８,,21,218,5010413,,,,,,,2022-02-14,1,,,,,モリマツコウギョウブンカツジュンビ,0
1412,6240001059320,新規,0,2022-02-14,2022-02-14,株式会社新田重量,,株式会社,広島県,広島市安佐北区,落合南４丁目４番１２－１０１号,,34,106,7391732,,,,,,,2022-02-14,1,,,,,ニッタジュウリョウ,0
1428,6290001096334,新規,0,2022-02-14,2022-02-14,株式会社ＹＺ　ＧＲＯＵＰ,,株式会社,福岡県,久留米市,山川追分２丁目１番７号,,40,203,8390814,,,,,,,2022-02-14,1,,,,,ワイズグループ,0
1429,6290001096400,新規,0,2022-02-14,2022-02-14,株式会社ネクストソーラー,,株式会社,福岡県,福岡市中央区,薬院４丁目１３番６１－１７０５号,,40,133,8100022,,,,,,,2022-02-14,1,,,,,ネクストソーラー,0
1436,6290801028255,新規,0,2022-02-14,2022-02-14,株式会社大宝産業,,株式会社,福岡県,遠賀郡芦屋町,大字山鹿１１７１番地３,,40,381,8070141,,,,,,,2022-02-14,1,,,,,タイホウサンギョウ,0
1456,6380005012534,新規,0,2022-02-14,2022-02-14,農事組合法人せきしば明来里,,その他の設立登記法人,福島県,喜多方市,関柴町関柴字打入１３４８番地,,07,208,9660011,,,,,,,2022-02-14,1,,,,,セキシバアグリ,0
1458,6400001015777,新規,0,2022-02-14,2022-02-14,ナカノコーポレーション株式会社,,株式会社,岩手県,北上市,和賀町藤根１７地割７８番地５,,03,206,0240334,,,,,,,2022-02-14,1,,,,,ナカノコーポレーション,0
1459,6410003003614,新規,0,2022-02-14,2022-02-14,合同会社大津屋,,合同会社,秋田県,山本郡三種町,豊岡金田字保龍２２９－２１,,05,348,0182304,,,,,,,2022-02-14,1,,,,,オオツヤ,0
1464,6470001018971,新規,0,2022-02-14,2022-02-14,ＸＴｒａｎｓＰｏｒｔ株式会社,,株式会社,香川県,高松市,屋島西町２２８８番地９,,37,201,7610113,,,,,,,2022-02-14,1,,,,,エックストランスポート,0
1467,6490003001627,新規,0,2022-02-14,2022-02-14,合同会社ＵｎｄｅｒｔｈｅＥｄｇｅ,,合同会社,高知県,高知市,南金田１４番１５号,,39,201,7810074,,,,,,,2022-02-14,1,,,,,アンダーザエッジ,0
1470,6700150100234,新規,0,2022-02-14,2020-09-03,自治体支援弁護士プロジェクトチーム,,その他,愛知県,一宮市,公園通３丁目３０番６号,,23,203,4910842,,,,,,,2020-09-03,1,,,,,ジチタイシエンベンゴシプロジエクトチーム,0
1476,7010001224524,新規,0,2022-02-14,2022-02-14,サステナジーン株式会社,,株式会社,東京都,中央区,銀座１丁目１２－４Ｎ＆ＥＢＬＤ．７階,,13,102,1040061,,,,,,,2022-02-14,1,,,,,サステナジーン,0
1482,7010003036991,新規,0,2022-02-14,2022-02-14,合同会社Ｂ－ＬＵＸ,,合同会社,東京都,中央区,銀座８丁目２番９号ニューギンザビル１２号館５Ｆ,,13,102,1040061,,,,,,,2022-02-14,1,,,,,ビーラックス,0
1483,7010003037008,新規,0,2022-02-14,2022-02-14,合同会社ＣＬＣ,,合同会社,東京都,中央区,日本橋茅場町１丁目９番２号,,13,102,1030025,,,,,,,2022-02-14,1,,,,,シーエルシー,0
1485,7010005034597,新規,0,2022-02-14,2022-02-14,一般社団法人はまぐりＯＮＥ,,その他の設立登記法人,東京都,千代田区,丸の内３丁目１番１号東京共同会計事務所内,,13,101,1000005,,,,,,,2022-02-14,1,,,,,ハマグリワン,0
1487,7010401165541,新規,0,2022-02-14,2022-02-14,株式会社ＣＲＡＣＥＳ,,株式会社,東京都,港区,西麻布２丁目２６番２号,,13,103,1060031,,,,,,,2022-02-14,1,,,,,クレイシス,0
1488,7010401165566,新規,0,2022-02-14,2022-02-14,株式会社Ｃａｄｒｅ,,株式会社,東京都,港区,白金４丁目１０番１８号白金マンション６０１,,13,103,1080072,,,,,,,2022-02-14,1,,,,,,0
1493,7010501048448,新規,0,2022-02-14,2022-02-14,株式会社ダブルベリー,,株式会社,東京都,台東区,駒形１丁目２番１３号,,13,106,1110043,,,,,,,2022-02-14,1,,,,,ダブルベリー,0
1506,7011001145181,新規,0,2022-02-14,2022-02-14,株式会社ｐｉｐｅｒ,,株式会社,東京都,目黒区,鷹番３丁目５番７号ＭＴ３５７－１階,,13,110,1520004,,,,,,,2022-02-14,1,,,,,ピペル,0
1512,7011101097686,新規,0,2022-02-14,2022-02-14,株式会社ＮＥＳＴ　ＥｄＬＡＢ,,株式会社,東京都,新宿区,下宮比町１番４号,,13,104,1620822,,,,,,,2022-02-14,1,,,,,ネストエッドラボ,0
1513,7011101097793,新規,0,2022-02-14,2022-02-14,和美株式会社,,株式会社,東京都,新宿区,大久保１丁目７－２６日韓マンション３０７,,13,104,1690072,,,,,,,2022-02-14,1,,,,,カズミ,0
1515,7011103011455,新規,0,2022-02-14,2022-02-14,不二坂合同会社,,合同会社,東京都,新宿区,西新宿３丁目３番１３号西新宿水間ビル６階,,13,104,1600023,,,,,,,2022-02-14,1,,,,,フジサカ,0
1516,7011103011463,新規,0,2022-02-14,2022-02-14,合同会社おやつ,,合同会社,東京都,新宿区,新宿２丁目１１番７号第３３宮庭ビル５階,,13,104,1600022,,,,,,,2022-02-14,1,,,,,オヤツ,0
1517,7011103011488,新規,0,2022-02-14,2022-02-14,アステルソリューションズ合同会社,,合同会社,東京都,新宿区,西新宿３丁目３番１３号西新宿水間ビル６階,,13,104,1600023,,,,,,,2022-02-14,1,,,,,アステルソリューションズ,0
1519,7011301027550,新規,0,2022-02-14,2022-02-14,株式会社ＩＣＨＩＹＡＪＯ,,株式会社,東京都,杉並区,高円寺南３丁目２０番,,13,115,1660003,,,,,,,2022-02-14,1,,,,,イチヤジョウ,0
1539,7020001145182,新規,0,2022-02-14,2022-02-14,株式会社ＭＯＮＤＥ　ＬＩＮＫ,,株式会社,神奈川県,横浜市中区,野毛町４丁目１７３番地２サンヴェール横濱野毛山公園４０８号室,,14,104,2310064,,,,,,,2022-02-14,1,,,,,モンドリンク,0
1540,7020001145208,新規,0,2022-02-14,2022-02-14,株式会社三石,,株式会社,神奈川県,横浜市戸塚区,戸塚町２４００番地１コスモ戸塚ツインコートＡ棟４０２号,,14,110,2440003,,,,,,,2022-02-14,1,,,,,ミツイシ,0
1545,7021001075163,新規,0,2022-02-14,2022-02-14,株式会社リバーズ,,株式会社,神奈川県,横須賀市,長沢６丁目４４番２４号,,14,201,2390842,,,,,,,2022-02-14,1,,,,,リバーズ,0
1553,7030001146782,新規,0,2022-02-14,2022-02-14,株式会社アルス,,株式会社,埼玉県,入間市,向陽台１丁目１番地１７駅前プラザ１３－１０３,,11,225,3580001,,,,,,,2022-02-14,1,,,,,アルス,0
1554,7030001146790,新規,0,2022-02-14,2022-02-14,株式会社フューチャーコーポレーション,,株式会社,埼玉県,川口市,川口４丁目３番４３－９０３号フェリーチェ川口,,11,203,3320015,,,,,,,2022-02-14,1,,,,,フューチャーコーポレーション,0
1562,7040001122114,新規,0,2022-02-14,2022-02-14,ローカル・ハウス株式会社,,株式会社,千葉県,千葉市緑区,あすみが丘５丁目３５番地２,,12,105,2670066,,,,,,,2022-02-14,1,,,,,ローカルハウス,0
1563,7040001122196,新規,0,2022-02-14,2022-02-14,株式会社店舗ファクトリー,,株式会社,千葉県,東金市,小野７１番地１,,12,213,2830821,,,,,,,2022-02-14,1,,,,,テンポファクトリー,0
1564,7040001122221,新規,0,2022-02-14,2022-02-14,株式会社ククナ,,株式会社,千葉県,佐倉市,鏑木町９８１番地１エステ・プラザ京成佐倉駅前８０８号,,12,212,2850025,,,,,,,2022-02-14,1,,,,,ククナ,0
1567,7040003019481,新規,0,2022-02-14,2022-02-14,ＴＯＨＯ　ＭＯＴＯＲＳ合同会社,,合同会社,千葉県,八街市,文違３０１番地１４３３,,12,230,2891104,,,,,,,2022-02-14,1,,,,,トーホーモータース,0
1570,7050001050611,新規,0,2022-02-14,2022-02-14,株式会社飯塚,00125693,株式会社,茨城県,鹿嶋市,大字木滝４７１番地,,08,222,3140028,,,,,,,2022-02-14,1,,,,,イイツカ,0
1572,7050003006371,新規,0,2022-02-14,2022-02-14,合同会社小田部不動産,,合同会社,茨城県,つくば市,北条１６４６番地５,,08,220,3004231,,,,,,,2022-02-14,1,,,,,コタベフドウサン,0
1581,7080401025623,新規,0,2022-02-14,2022-02-14,斎管工業株式会社,,株式会社,静岡県,浜松市天竜区,両島９０７番地の１６,,22,137,4313426,,,,,,,2022-02-14,1,,,,,サイカンコウギョウ,0
1596,7120001243769,新規,0,2022-02-14,2022-02-14,株式会社Ｍｅｙｋｓ,,株式会社,大阪府,大阪市西淀川区,佃５丁目１２番３号,,27,113,5550001,,,,,,,2022-02-14,1,,,,,メイクス,0
1597,7120001243810,新規,0,2022-02-14,2022-02-14,沖縄リゾート開発株式会社,,株式会社,大阪府,大阪市都島区,都島南通１丁目１９番１２号,,27,102,5340023,,,,,,,2022-02-14,1,,,,,オキナワリゾートカイハツ,0
1598,7120003021124,新規,0,2022-02-14,2022-02-14,合同会社和心,,合同会社,大阪府,大阪市旭区,高殿６丁目１０番１８号,,27,117,5350031,,,,,,,2022-02-14,1,,,,,ナゴミ,0
1600,7120101065064,新規,0,2022-02-14,2022-02-14,株式会社Ｎａｎａｇａｔｓｕ　Ｈａｃｈｉｎｉｃｈｉ,,株式会社,大阪府,堺市南区,桃山台２丁８番７－７１７号,,27,145,5900141,,,,,,,2022-02-14,1,,,,,ナナガツハチニチ,0
1601,7120103004573,新規,0,2022-02-14,2022-02-14,合同会社Ｇｒｅｅｎ,,合同会社,大阪府,堺市北区,北花田町３丁３０－２１,,27,146,5918002,,,,,,,2022-02-14,1,,,,,グリーン,0
1605,7120901045562,新規,0,2022-02-14,2022-02-14,株式会社ソーワ,,株式会社,大阪府,豊中市,北条町４丁目１１番９号,,27,203,5610812,,,,,,,2022-02-14,1,,,,,ソーワ,0
1606,7120901045595,新規,0,2022-02-14,2022-02-14,株式会社松栄テック,,株式会社,大阪府,池田市,渋谷１丁目５－１８－３０３,,27,204,5630028,,,,,,,2022-02-14,1,,,,,ショウエイテック,0
1625,7140001124843,新規,0,2022-02-14,2022-02-14,株式会社初音,,株式会社,兵庫県,赤穂市,新田５９９－１,,28,212,6780255,,,,,,,2022-02-14,1,,,,,ハツネ,0
1633,7150001025330,新規,0,2022-02-14,2022-02-14,株式会社ドコデマージン,,株式会社,奈良県,橿原市,川西町８１８番地,,29,205,6340826,,,,,,,2022-02-14,1,,,,,ドコデマージン,0
1634,7160001023993,新規,0,2022-02-14,2022-02-14,株式会社志賀左官店,,株式会社,滋賀県,湖南市,菩提寺１４３９,,25,211,5203242,,,,,,,2022-02-14,1,,,,,シガサカンテン,0
1647,7180001149671,新規,0,2022-02-14,2022-02-14,株式会社西保石油,,株式会社,愛知県,愛西市,西保町同所新田１００番地,,23,232,4960911,,,,,,,2022-02-14,1,,,,,ニシホセキユ,0
1648,7180001149944,新規,0,2022-02-14,2022-02-14,株式会社ｉｗａｎｉ,,株式会社,愛知県,清須市,春日江先１１番地,,23,233,4520962,,,,,,,2022-02-14,1,,,,,イワニ,0
1649,7180001149952,新規,0,2022-02-14,2022-02-14,株式会社エイトリクルート,,株式会社,愛知県,名古屋市西区,児玉３丁目７番１８号ニューウェスト児玉８０１号,,23,104,4510066,,,,,,,2022-02-14,1,,,,,エイトリクルート,0
1651,7180003023486,新規,0,2022-02-14,2022-02-14,合同会社Ｎｏ．９,,合同会社,愛知県,名古屋市中区,大須１丁目３０番４８号,,23,106,4600011,,,,,,,2022-02-14,1,,,,,ナンバーナイン,0
1656,7190001029113,新規,0,2022-02-14,2022-02-14,株式会社大地,,株式会社,三重県,伊賀市,中友生１２４０番地,,24,216,5180816,,,,,,,2022-02-14,1,,,,,オオチ,0
1657,7190001029121,新規,0,2022-02-14,2022-02-14,株式会社広住製作所,,株式会社,三重県,津市,久居小野辺町１４８２番地２,,24,201,5141112,,,,,,,2022-02-14,1,,,,,ヒロズミセイサクショ,0
1658,7190003003900,新規,0,2022-02-14,2022-02-14,合同会社岡本製茶,,合同会社,三重県,松阪市,飯南町向粥見３１２番地,,24,204,5151412,,,,,,,2022-02-14,1,,,,,オカモトセイチャ,0
1665,7230001019233,新規,0,2022-02-14,2022-02-14,ろく株式会社,,株式会社,富山県,高岡市,御旅屋町１２２２番地３エルパセオ１階,,16,202,9330029,,,,,,,2022-02-14,1,,,,,ロク,0
1702,7380001032568,新規,0,2022-02-14,2022-02-14,株式会社ライフステージ,,株式会社,福島県,福島市,春日町１２番２１号,,07,201,9608116,,,,,,,2022-02-14,1,,,,,ライフステージ,0
1709,7430001085998,新規,0,2022-02-14,2022-02-14,株式会社Ｌｉｖｅ　Ｃｕｏｒｅ,,株式会社,北海道,伊達市,弄月町４２番地４７,,01,233,0520013,,,,,,,2022-02-14,1,,,,,リヴクオーレ,0
1710,7430005014391,新規,0,2022-02-14,2022-02-14,ＮＰＯ法人洞爺湖有珠火山マイスターネットワーク,,その他の設立登記法人,北海道,有珠郡壮瞥町,字洞爺湖温泉５３,,01,575,0520107,,,,,,,2022-02-14,1,,,,,トウヤコウスカザンマイスターネットワーク,0
1719,7700150106734,新規,0,2022-02-14,2022-01-20,上雨紛３町内会,,その他,北海道,旭川市,神居町上雨紛１４８,,01,204,0708034,,,,,,,2022-01-20,1,,,,,カミウブンサンチヨウナイカイ,0
1724,8010001224424,新規,0,2022-02-14,2022-02-14,日本小林商貿株式会社,,株式会社,東京都,中央区,東日本橋２丁目２８番５号５０８,,13,102,1030004,,,,,,,2022-02-14,1,,,,,ニホンコバヤシショウボウ,0
1727,8010003036999,新規,0,2022-02-14,2022-02-14,合同会社マネーノート,,合同会社,東京都,中央区,日本橋兜町１７番２号兜町第６葉山ビル４Ｆ,,13,102,1030026,,,,,,,2022-02-14,1,,,,,マネーノート,0
1732,8010005034588,新規,0,2022-02-14,2022-02-14,一般社団法人日本令和研究所,,その他の設立登記法人,東京都,千代田区,平河町１丁目７番５－９０４号,,13,101,1020093,,,,,,,2022-02-14,1,,,,,ニホンレイワケンキュウジョ,0
1733,8010101015062,新規,0,2022-02-14,2022-02-14,愛車ＪＡＰＡＮ　Ａｕｔｏ　Ｐａｒｔｓ株式会社,,株式会社,東京都,八王子市,台町４丁目２１番１０号,,13,201,1930931,,,,,,,2022-02-14,1,,,,,アイシャジャパンオートパーツ,0
1741,8010401165516,新規,0,2022-02-14,2022-02-14,株式会社ブラックホール,,株式会社,東京都,港区,芝１丁目１３番１６号ホーコス芝橋ビル８Ｆ,,13,103,1050014,,,,,,,2022-02-14,1,,,,,ブラックホール,0
1742,8010401165532,新規,0,2022-02-14,2022-02-14,株式会社とらの手,,株式会社,東京都,港区,西麻布３丁目２番１１号,,13,103,1060031,,,,,,,2022-02-14,1,,,,,トラノテ,0
1743,8010401165573,新規,0,2022-02-14,2022-02-14,浜松陸上風力発電株式会社,,株式会社,東京都,港区,新橋６丁目１７番２１号,,13,103,1050004,,,,,,,2022-02-14,1,,,,,ハママツリクジョウフウリョクハツデン,0
1748,8010503006502,新規,0,2022-02-14,2022-02-14,ＫＡＣＨＩＮ　ＧＲＡＣＥ　ＧＥＭＳ　Ｍｙａｎｍａｒ合同会社,,合同会社,東京都,台東区,上野５丁目７番１１号盛家ビル１階,,13,106,1100005,,,,,,,2022-02-14,1,,,,,カチングレイスジェムスミャンマー,0
1771,8011001145643,新規,0,2022-02-14,2022-02-14,バンブッド株式会社,,株式会社,東京都,渋谷区,渋谷３丁目２番１号北国ビル２階,,13,113,1500002,,,,,,,2022-02-14,1,,,,,バンブッド,0
1772,8011003014169,新規,0,2022-02-14,2022-02-14,Ｖａｌｉｄａｔｏｒ合同会社,,合同会社,東京都,渋谷区,笹塚１丁目５番１号,,13,113,1510073,,,,,,,2022-02-14,1,,,,,バリデーター,0
1778,8011103011462,新規,0,2022-02-14,2022-02-14,合同会社８８,,合同会社,東京都,新宿区,西新宿３丁目３番１３号西新宿水間ビル６階,,13,104,1600023,,,,,,,2022-02-14,1,,,,,ハチハチ,0
1784,8011501027746,新規,0,2022-02-14,2022-02-14,株式会社ファレール,,株式会社,東京都,北区,赤羽２丁目４５番８号ファーストビル赤羽４０１,,13,117,1150045,,,,,,,2022-02-14,1,,,,,ファレール,0
1789,8012801021397,新規,0,2022-02-14,2022-02-14,株式会社日野市観光まちづくり振興社,,株式会社,東京都,日野市,多摩平２丁目５番１号ＰｌａｎＴ内,,13,212,1910062,,,,,,,2022-02-14,1,,,,,ヒノシカンコウマチヅクリシンコウシャ,0
1790,8013101008845,新規,0,2022-02-14,2022-02-14,株式会社ＰＬＡＮＥＴＡＬ　ＤＥＳＩＧＮ,,株式会社,東京都,青梅市,千ヶ瀬町１丁目４３番地の３５,,13,205,1980043,,,,,,,2022-02-14,1,,,,,プラネタルデザイン,0
1795,8013301048625,新規,0,2022-02-14,2022-02-14,株式会社トラスト,,株式会社,東京都,豊島区,東池袋１丁目１７番１１号パークハイツ池袋１１０５号,,13,116,1700013,,,,,,,2022-02-14,1,,,,,トラスト,0
1813,8021003011388,新規,0,2022-02-14,2022-02-14,合同会社ミックス・アップ・ジャパン,,合同会社,神奈川県,厚木市,妻田西１丁目２９番２５号ＹＡビル２階,,14,212,2430815,,,,,,,2022-02-14,1,,,,,ミックスアップジャパン,0
1815,8030001146724,新規,0,2022-02-14,2022-02-14,明治医薬株式会社,,株式会社,埼玉県,さいたま市南区,白幡６丁目８番１７－２０３号,,11,108,3360022,,,,,,,2022-02-14,1,,,,,メイジイヤク,0
1816,8030001146757,新規,0,2022-02-14,2022-02-14,株式会社アクロス,,株式会社,埼玉県,さいたま市見沼区,大和田町１丁目１５５３番地１２－１０１,,11,104,3370053,,,,,,,2022-02-14,1,,,,,アクロス,0
1820,8030003018780,新規,0,2022-02-14,2022-02-14,合同会社Ｔ．Ｋ．Ｇ．,,合同会社,埼玉県,秩父市,下影森１７２番地１０,,11,207,3691871,,,,,,,2022-02-14,1,,,,,ティーケージー,0
1821,8030003018839,新規,0,2022-02-14,2022-02-14,合同会社セントルース,,合同会社,埼玉県,川口市,並木２丁目１９－７,,11,203,3320034,,,,,,,2022-02-14,1,,,,,セントルース,0
1830,8040001122179,新規,0,2022-02-14,2022-02-14,アールブイリゾート株式会社,,株式会社,千葉県,印西市,高花６丁目２１番地９,,12,231,2701342,,,,,,,2022-02-14,1,,,,,アールブイリゾート,0
1831,8040001122187,新規,0,2022-02-14,2022-02-14,株式会社ＮＲＢ　Ｌｏｇｉｓｔｉｃｓ,,株式会社,千葉県,富里市,七栄９０１番地３,,12,233,2860221,,,,,,,2022-02-14,1,,,,,エヌアールビーロジスティクス,0
1832,8040001122195,新規,0,2022-02-14,2022-02-14,株式会社Ｋ－ＦＯＲＣＥ　ＦＡＣＴＯＲＹ,,株式会社,千葉県,柏市,十余二２４８番地３３レジデンス小澤ハイツ３０１号,,12,217,2770872,,,,,,,2022-02-14,1,,,,,ケイフォースファクトリー,0
1833,8040001122204,新規,0,2022-02-14,2022-02-14,ＳＰＥＥＤＷＡＹ株式会社,,株式会社,千葉県,四街道市,もねの里１丁目５番３０号キャッスルつかさ２０５号,,12,228,2840016,,,,,,,2022-02-14,1,,,,,スピードウェイ,0
1834,8040001122220,新規,0,2022-02-14,2022-02-14,協友食堂株式会社,,株式会社,千葉県,市原市,青柳北３丁目５番地の５,,12,219,2990101,,,,,,,2022-02-14,1,,,,,キョウユウショクドウ,0
1838,8040003019480,新規,0,2022-02-14,2022-02-14,合同会社シモダ,,合同会社,千葉県,山武市,埴谷１５００番２７,,12,237,2891223,,,,,,,2022-02-14,1,,,,,シモダ,0
1839,8040003019489,新規,0,2022-02-14,2022-02-14,ＮＡＩＳ合同会社,,合同会社,千葉県,八街市,八街ほ１２６－３２,,12,230,2891115,,,,,,,2022-02-14,1,,,,,ナイス,0
1855,8090001017408,新規,0,2022-02-14,2022-02-14,株式会社ツナグエージェント,,株式会社,山梨県,甲斐市,中下条１２３２番地１中込ビル２階,,19,210,4000124,,,,,,,2022-02-14,1,,,,,ツナグエージェント,0
1868,8120001243818,新規,0,2022-02-14,2022-02-14,株式会社ウエリエ,,株式会社,大阪府,大阪市天王寺区,大道１丁目８番１５号,,27,109,5430052,,,,,,,2022-02-14,1,,,,,ウエリエ,0
1876,8120101065063,新規,0,2022-02-14,2022-02-14,株式会社フジモト,,株式会社,大阪府,堺市堺区,向陵東町３丁２番１５号,,27,141,5900025,,,,,,,2022-02-14,1,,,,,フジモト,0
1877,8120103004572,新規,0,2022-02-14,2022-02-14,合同会社越南,,合同会社,大阪府,堺市東区,西野５０３－３０３,,27,143,5998125,,,,,,,2022-02-14,1,,,,,エツナン,0
1878,8120903004037,新規,0,2022-02-14,2022-02-14,合同会社Ｈｅａｌｔｈ＆Ｐｒｏ．,,合同会社,大阪府,豊中市,上野西３丁目１６番５６－３０１号,,27,203,5600011,,,,,,,2022-02-14,1,,,,,ヘルスアンドプロ,0
1886,8140001124900,新規,0,2022-02-14,2022-02-14,リアルコネクト株式会社,,株式会社,兵庫県,姫路市,南今宿５番３号八木ビルＩＩ３０７号室,00125704,28,201,6700054,,,,,,,2022-02-14,1,,,,,リアルコネクト,0
1887,8140003017350,新規,0,2022-02-14,2022-02-14,合同会社ＫＩＭＵＲＡ　Ｐａｒｔｎｅｒｓ,,合同会社,兵庫県,神戸市東灘区,甲南町５丁目６番１１－１７０２号,,28,101,6580084,,,,,,,2022-02-14,1,,,,,キムラパートナーズ,0
1899,8180001149968,新規,0,2022-02-14,2022-02-14,近藤デザインアンドホーム株式会社,,株式会社,愛知県,名古屋市昭和区,元宮町３丁目５番地の１,,23,107,4660851,,,,,,,2022-02-14,1,,,,,コンドウデザインアンドホーム,0
1905,8180305009298,新規,0,2022-02-14,2022-02-14,特定非営利活動法人ミラクル,,その他の設立登記法人,愛知県,岡崎市,上六名町字木ノ座５番地１,,23,202,4440859,,,,,,,2022-02-14,1,,,,,ミラクル,0
1907,8190003003899,新規,0,2022-02-14,2022-02-14,合同会社Ｔｈｒｅｅ,,合同会社,三重県,松阪市,大口町１８２－１,,24,204,5150001,,,,,,,2022-02-14,1,,,,,スリー,0
1908,8190005011669,新規,0,2022-02-14,2022-02-14,アクロス事業協同組合,,その他の設立登記法人,三重県,多気郡大台町,栃原１５２９－１,,24,443,5192424,,,,,,,2022-02-14,1,,,,,アクロス,0
1927,8280005007468,新規,0,2022-02-14,2022-02-14,農事組合法人みくす,,その他の設立登記法人,島根県,大田市,水上町三久須１４０番地３,,32,205,6940304,,,,,,,2022-02-14,1,,,,,ミクス,0
1949,8330003009238,新規,0,2022-02-14,2022-02-14,合同会社紺屋小町,,合同会社,熊本県,人吉市,相良町９６３番地１,,43,203,8680012,,,,,,,2022-02-14,1,,,,,コンヤコマチ,0
1950,8340001024493,新規,0,2022-02-14,2022-02-14,株式会社英虎産業,,株式会社,鹿児島県,大島郡伊仙町,大字犬田布１００２番地,,46,532,8918327,,,,,,,2022-02-14,1,,,,,ヒデトラサンギョウ,0
1953,8360005006593,新規,0,2022-02-14,2022-02-14,一般社団法人サンエストラスト,,その他の設立登記法人,沖縄県,中頭郡中城村,字南上原５４４番地２,,47,328,9012424,,,,,,,2022-02-14,1,,,,,サンエストラスト,0
1959,8380003005100,新規,0,2022-02-14,2022-02-14,合同会社おおみたから社中,,合同会社,福島県,本宮市,松沢字弥五郎内２２番地,,07,214,9691202,,,,,,,2022-02-14,1,,,,,オオミタカラシャチュウ,0
1969,8700150107038,新規,0,2022-02-14,2022-02-14,ＫＥＹＳＩＧＨＴ　ＴＥＣＨＮＯＬＯＧＩＥＳ　ＳＩＮＧＡＰＯＲＥ（Ｓａｌｅｓ）Ｐｔｅ．Ｌｔｄ,,外国会社等,,,,,,,,８　Ｗｉｌｋｉｅ　Ｒｏａｄ　＃０３－０１，Ｗｉｌｋｉｅ　Ｅｄｇｅ，Ｓｉｎｇａｐｏｒｅ　２２８０９５,,,,,,2022-02-14,1,,,,,キーサイトテクノロジーズシンガポールセールスプライベートリミテツド,0
1981,9010001224407,新規,0,2022-02-14,2022-02-14,小林商事株式会社,,株式会社,東京都,千代田区,内神田３丁目７番地３号三貢ビル５階,,13,101,1010047,,,,,,,2022-02-14,1,,,,,コバヤシショウジ,0
1982,9010001224522,新規,0,2022-02-14,2022-02-14,株式会社ＥＫ,,株式会社,東京都,千代田区,神田須田町１丁目２６番地,,13,101,1010041,,,,,,,2022-02-14,1,,,,,イーケー,0
2003,9010401165531,新規,0,2022-02-14,2022-02-14,日本国際通株式会社,,株式会社,東京都,港区,六本木４丁目９－２俳優座ビル６０４室,,13,103,1060032,,,,,,,2022-02-14,1,,,,,ニホンコクサイツウ,0
2004,9010403027085,新規,0,2022-02-14,2022-02-14,合同会社泰然,,合同会社,東京都,港区,南麻布４丁目９番３４－２０５号,,13,103,1060047,,,,,,,2022-02-14,1,,,,,タイゼン,0
2006,9010405020682,新規,0,2022-02-14,2022-02-14,一般社団法人ＨＤＧ３０,,その他の設立登記法人,東京都,港区,虎ノ門３丁目２２番１０－２０１号,,13,103,1050001,,,,,,,2022-02-14,1,,,,,エイチディージースリーゼロ,0
2015,9010803004056,新規,0,2022-02-14,2022-02-14,コスモス・コミュニケーションズ合同会社,,合同会社,東京都,大田区,南馬込４丁目４番１３号,,13,111,1430025,,,,,,,2022-02-14,1,,,,,コスモスコミュニケーションズ,0
2020,9010903007149,新規,0,2022-02-14,2022-02-14,ＳＦＳＧ合同会社,,合同会社,東京都,世田谷区,奥沢２丁目３８－１－１０２,,13,112,1580083,,,,,,,2022-02-14,1,,,,,エスエフエスジー,0
2026,9011001145568,新規,0,2022-02-14,2022-02-14,株式会社ＳＴＲＡＴＯ,,株式会社,東京都,渋谷区,神宮前３丁目２０番５号井上ビル１Ｆ,,13,113,1500001,,,,,,,2022-02-14,1,,,,,ストラト,0
2027,9011001145659,新規,0,2022-02-14,2022-02-14,株式会社ワイズ,,株式会社,東京都,目黒区,下目黒５丁目１６番１９号,,13,110,1530064,,,,,,,2022-02-14,1,,,,,ワイズ,0
2028,9011001145700,新規,0,2022-02-14,2022-02-14,株式会社ＦＥＥＬ　ＰＩＣＴＵＲＥＳ,,株式会社,東京都,渋谷区,東３丁目１番３－５０５号,,13,113,1500011,,,,,,,2022-02-14,1,,,,,フィールピクチャーズ,0
2029,9011003014127,新規,0,2022-02-14,2022-02-14,合同会社ＳｕｂＰｏｗｅｒ,,合同会社,東京都,渋谷区,渋谷１丁目７－５青山セブンハイツ２０５,,13,113,1500002,,,,,,,2022-02-14,1,,,,,サブパワー,0
2030,9011101097775,新規,0,2022-02-14,2022-02-14,株式会社ｓｃｉｅｎｃｅ　ｆｏｏｄ　ｌａｂｏ,,株式会社,東京都,新宿区,新宿６丁目２７番２９－２４０３号,,13,104,1600022,,,,,,,2022-02-14,1,,,,,サイエンスフードラボ,0
2031,9011103011437,新規,0,2022-02-14,2022-02-14,ＦＩＬＭＳＴＡ合同会社,,合同会社,東京都,新宿区,早稲田鶴巻町５７９－８亀山ビル,,13,104,1620041,,,,,,,2022-02-14,1,,,,,フィルムスタ,0
2041,9011801040324,新規,0,2022-02-14,2022-02-14,株式会社ＨＨＭ,,株式会社,東京都,足立区,関原３丁目４４番１０－１０２号,,13,121,1230852,,,,,,,2022-02-14,1,,,,,エイチエイチエム,0
2053,9013301048673,新規,0,2022-02-14,2022-02-14,株式会社オイシイドットインク,,株式会社,東京都,豊島区,東池袋１丁目１７番１１号パークハイツ池袋１１０５号,,13,116,1700013,,,,,,,2022-02-14,1,,,,,オイシイドットインク,0
2057,9020001145164,新規,0,2022-02-14,2022-02-14,アールゼロワン株式会社,,株式会社,神奈川県,横浜市西区,みなとみらい２丁目２番１号横浜ランドマークタワー２０Ｆ,,14,103,2200012,,,,,,,2022-02-14,1,,,,,アールゼロワン,0
2058,9020001145214,新規,0,2022-02-14,2022-02-14,株式会社カレントバイブス,,株式会社,神奈川県,横浜市旭区,笹野台４丁目１９番３７号,,14,112,2410816,,,,,,,2022-02-14,1,,,,,カレントバイブス,0
2065,9021001075005,新規,0,2022-02-14,2022-02-14,株式会社ＡＡＴＩＳＭＯ,,株式会社,神奈川県,鎌倉市,二階堂字紅葉ヶ谷７３５番３,,14,204,2480002,,,,,,,2022-02-14,1,,,,,アアティズモ,0
2066,9021001075153,新規,0,2022-02-14,2022-02-14,株式会社ＹＳＣ,,株式会社,神奈川県,秦野市,新町９番１１号,,14,211,2570056,,,,,,,2022-02-14,1,,,,,ユリコサンチェスコーポレーション,0
2071,9030003018838,新規,0,2022-02-14,2022-02-14,合同会社ａｃｔｓ,,合同会社,埼玉県,志木市,本町５丁目２４－２１,,11,228,3530004,,,,,,,2022-02-14,1,,,,,アクツ,0
2072,9030003018846,新規,0,2022-02-14,2022-02-14,合同会社ＩＮＦ,,合同会社,埼玉県,川口市,大字安行領根岸５１番地の３,,11,203,3330834,,,,,,,2022-02-14,1,,,,,アイエヌエフ,0
2074,9040001122203,新規,0,2022-02-14,2022-02-14,株式会社ＳＨＡＮＴＩ,,株式会社,千葉県,我孫子市,我孫子４丁目２－１榎本ビル３０２,,12,222,2701166,,,,,,,2022-02-14,1,,,,,シャンティ,0
2076,9040003019471,新規,0,2022-02-14,2022-02-14,合同会社グロックス,,合同会社,千葉県,八千代市,上高野１２９１番地５４,,12,221,2760022,,,,,,,2022-02-14,1,,,,,グロックス,0
2087,9080103002522,新規,0,2022-02-14,2022-02-14,合同会社ＭＴＥ,,合同会社,静岡県,駿東郡清水町,長沢２１８番地の１３,,22,341,4110905,,,,,,,2022-02-14,1,,,,,エムティーイー,0
2088,9090001017407,新規,0,2022-02-14,2022-02-14,プロジェクト株式会社,,株式会社,山梨県,南アルプス市,東南湖１１１３番１,,19,208,4000412,,,,,,,2022-02-14,1,,,,,プロジェクト,0
2092,9100005012823,新規,0,2022-02-14,2022-02-14,一般社団法人なかのみらいネットワーク,,その他の設立登記法人,長野県,中野市,大字中野１７３８番地１,,20,211,3830013,,,,,,,2022-02-14,1,,,,,ナカノミライネットワーク,0
2109,9120001243800,新規,0,2022-02-14,2022-02-14,株式会社ビクロイ,,株式会社,大阪府,大阪市北区,東天満２丁目２番１５号,,27,127,5300044,,,,,,,2022-02-14,1,,,,,ビクロイ,0
2113,9120003021130,新規,0,2022-02-14,2022-02-14,合同会社ゼロワン,,合同会社,大阪府,大阪市城東区,森之宮１丁目５番９１２号,,27,118,5360025,,,,,,,2022-02-14,1,,,,,ゼロワン,0
2117,9120101065062,新規,0,2022-02-14,2022-02-14,株式会社ＢＥＹＯＮＤ,,株式会社,大阪府,大阪狭山市,狭山１丁目２３５０番地サンライトビル４０２号,,27,231,5890005,,,,,,,2022-02-14,1,,,,,ビヨンド,0
2119,9120103004571,新規,0,2022-02-14,2022-02-14,ｍｄｆ合同会社,,合同会社,大阪府,和泉市,はつが野１丁目３２番２４号,,27,219,5941106,,,,,,,2022-02-14,1,,,,,エムディエフ,0
2130,9130001071119,新規,0,2022-02-14,2022-02-14,株式会社ＭＡＮＡＷＡ,,株式会社,京都府,京都市北区,等持院南町３８番地１５,,26,101,6038344,,,,,,,2022-02-14,1,,,,,マナワ,0
2131,9130001071127,新規,0,2022-02-14,2022-02-14,株式会社軒,,株式会社,京都府,京都市中京区,聚楽廻西町７０－１紫光ビル１Ｆ,,26,104,6048402,,,,,,,2022-02-14,1,,,,,ケン,0
2139,9140001124866,新規,0,2022-02-14,2022-02-14,Ｂｒｉｄｇｅ株式会社,,株式会社,兵庫県,神戸市東灘区,深江北町１丁目１１－７－１０２,,28,101,6580013,,,,,,,2022-02-14,1,,,,,ブリッジ,0
2143,9140005026035,新規,0,2022-02-14,2022-02-14,一般社団法人地元応援委員会,,その他の設立登記法人,兵庫県,神戸市北区,泉台１丁目１番地の７・１１１,,28,109,6511141,,,,,,,2022-02-14,1,,,,,ジモトオウエンイインカイ,0
2144,9150001025329,新規,0,2022-02-14,2022-02-14,ＧＳＤＣ株式会社,,株式会社,奈良県,奈良市,藤ノ木台２丁目１８番９号,,29,201,6310044,,,,,,,2022-02-14,1,,,,,ジーエスディーシー,0
2145,9160001023991,新規,0,2022-02-14,2022-02-14,ワークスヤマト株式会社,,株式会社,滋賀県,湖南市,夏見９４５番地１,,25,211,5203223,,,,,,,2022-02-14,1,,,,,ワークスヤマト,0
2166,9240001059318,新規,0,2022-02-14,2022-02-14,エスティケー構造設計株式会社,,株式会社,広島県,広島市南区,東本浦町３番１－３０２号,,34,103,7340025,,,,,,,2022-02-14,1,,,,,エスティケーコウゾウセッケイ,0
2177,9280001008634,新規,0,2022-02-14,2022-02-14,株式会社石見牧場,,株式会社,島根県,大田市,温泉津町福光ハ１４５８番地３,,32,205,6992514,,,,,,,2022-02-14,1,,,,,イワミボクジョウ,0
2179,9290001096414,新規,0,2022-02-14,2022-02-14,株式会社長寿庵・朝倉,,株式会社,福岡県,朝倉市,宮野字宮ノ前１２５１番,,40,228,8381302,,,,,,,2022-02-14,1,,,,,チョウジュアンアサクラ,0
2180,9290001096422,新規,0,2022-02-14,2022-02-14,株式会社みどり仮設,,株式会社,福岡県,福岡市東区,三苫５丁目２－５第２かねみビル２０１,,40,131,8110201,,,,,,,2022-02-14,1,,,,,ミドリカセツ,0
2181,9290001096430,新規,0,2022-02-14,2022-02-14,株式会社銀太,,株式会社,福岡県,福岡市博多区,堅粕４丁目９番５－１０１号,,40,132,8120043,,,,,,,2022-02-14,1,,,,,ギンタ,0
2199,9330003009237,新規,0,2022-02-14,2022-02-14,合同会社たなか,,合同会社,熊本県,玉名郡長洲町,大字清源寺３８６番地,,43,368,8690105,,,,,,,2022-02-14,1,,,,,タナカ,0
2203,9340005009408,新規,0,2022-02-14,2022-02-14,一般社団法人ヒューマン・フォース・アカデミー,,その他の設立登記法人,鹿児島県,日置市,東市来町長里１１８番地１,,46,216,8992202,,,,,,,2022-02-14,1,,,,,ヒューマンフォースアカデミー,0
2209,9370001048200,新規,0,2022-02-14,2022-02-14,株式会社エーマリン,,株式会社,宮城県,塩竈市,藤倉３丁目１６番３４号,,04,203,9850004,,,,,,,2022-02-14,1,,,,,エーマリン,0
2228,9470001018969,新規,0,2022-02-14,2022-02-14,株式会社エルニード中四国,,株式会社,香川県,さぬき市,寒川町石田西２２３５番地３,,37,206,7692322,,,,,,,2022-02-14,1,,,,,エルニードチュウシコク,0
2230,9470003002129,新規,0,2022-02-14,2022-02-14,合同会社大西興産,,合同会社,香川県,綾歌郡宇多津町,浜六番丁８３番地１１,,37,386,7690206,,,,,,,2022-02-14,1,,,,,オオニシコウサン,0
2232,9700150106567,新規,0,2022-02-14,2022-01-11,農村レストラン白河関,,その他,福島県,白河市,旗宿白河内７－２,,07,205,9610038,,,,,,,2022-01-11,1,,,,,ノウソンレストランシラカワゼキ,0
2233,9700150107037,新規,0,2022-02-14,2022-02-14,ＥＵＲＯＳＴＥＰ　ＣＯＭＭＥＲＣＥ　ＳＲＬ,,外国会社等,,,,,,,,イタリア共和国モンテベッルーナ３１０４４ビコボッカカバーラ１８,,,,,,2022-02-14,1,,,,,ユーロステツプコマースエスアールエル,0
