sequenceNumber,corporateNumber,process,correct,updateDate,changeDate,name,nameImageId,kind,prefectureName,cityName,streetNumber,addressImageId,prefectureCode,cityCode,postCode,addressOutside,addressOutsideImageId,closeDate,closeCause,successorCorporateNumber,changeCause,assignmentDate,latest,enName,enPrefectureName,enCityName,enAddressOutside,furigana,hihyoji
9,1010003046344,新規,0,2025-02-10,2025-02-10,ＤＥＩバッテリーファンドガンマ合同会社,,合同会社,東京都,千代田区,丸の内１丁目４番１号東京共同会計事務所内,,13,101,1000005,,,,,,,2025-02-10,1,,,,,ディーイーアイバッテリーファンドガンマ,0
10,1010005039552,新規,0,2025-02-10,2025-02-10,一般社団法人ＨＣＳ１,,その他の設立登記法人,東京都,千代田区,霞が関３丁目２番５号,,13,101,1000013,,,,,,,2025-02-10,1,,,,,エイチシーエスワン,0
19,1010401187946,新規,0,2025-02-10,2025-02-10,株式会社エピオンコネクト,,株式会社,東京都,港区,芝４丁目７番６号芝ビルディング７０４,,13,103,1080014,,,,,,,2025-02-10,1,,,,,エピオンコネクト,0
20,1010401188003,新規,0,2025-02-10,2025-02-10,ベル・アセット株式会社,,株式会社,東京都,港区,南麻布５丁目４番２号,,13,103,1060047,,,,,,,2025-02-10,1,,,,,ベルアセット,0
21,1010401188077,新規,0,2025-02-10,2025-02-10,株式会社オーティーシー,,株式会社,東京都,港区,三田３丁目５番１９号住友不動産東京三田ガーデンタワー,,13,103,1080073,,,,,,,2025-02-10,1,,,,,オーティーシー,0
22,1010401188085,新規,0,2025-02-10,2025-02-10,株式会社ＰＥＩＬ,,株式会社,東京都,港区,東新橋１丁目６番３号ザロイヤルパークホテルアイコニック東京汐留２４Ｆ,,13,103,1050021,,,,,,,2025-02-10,1,,,,,ペイル,0
25,1010403034353,新規,0,2025-02-10,2025-02-10,Ａｎｋｏ合同会社,,合同会社,東京都,港区,新橋６丁目１１番１３－１３０４号,,13,103,1050004,,,,,,,2025-02-10,1,,,,,アンコ,0
28,1010501053577,新規,0,2025-02-10,2025-02-10,八王子株式会社,,株式会社,東京都,台東区,台東２丁目１７番５－１１０３号,,13,106,1100016,,,,,,,2025-02-10,1,,,,,ハチオウジ,0
29,1010501053585,新規,0,2025-02-10,2025-02-10,株式会社ＳＡＳＧＡ,,株式会社,東京都,台東区,柳橋２丁目１９－１０第２東商センター２号館４Ｆ４０２室,,13,106,1110052,,,,,,,2025-02-10,1,,,,,サスガ,0
32,1010603011375,新規,0,2025-02-10,2025-02-10,合同会社ゴーヘイ,,合同会社,東京都,墨田区,押上２丁目６番１０号,,13,107,1310045,,,,,,,2025-02-10,1,,,,,,0
34,1010701047131,新規,0,2025-02-10,2025-02-10,Ｕｒｂａｎ　Ｌａ　Ｖｉｅ株式会社,,株式会社,東京都,品川区,西五反田２丁目２２番６号アトラスタワー五反田２３０８,,13,109,1410031,,,,,,,2025-02-10,1,,,,,アーバンラヴィ,0
38,1010901056782,新規,0,2025-02-10,2025-02-10,株式会社ＬＵＭＥ　ＣＲＥＡＴＩＯＮ,,株式会社,東京都,世田谷区,弦巻２丁目１８番２２－３１４号,,13,112,1540016,,,,,,,2025-02-10,1,,,,,ルーメクリエーション,0
47,1011003020933,新規,0,2025-02-10,2025-02-10,ハッコプロパティ合同会社,,合同会社,東京都,渋谷区,松濤１丁目１７番３号,,13,113,1500046,,,,,,,2025-02-10,1,,,,,ハッコプロパティ,0
49,1011201026113,新規,0,2025-02-10,2025-02-10,ＥＥＣＧ株式会社,,株式会社,東京都,中野区,中野５丁目４４番１４号パールシティ中野１０７号室,,13,114,1640001,,,,,,,2025-02-10,1,,,,,イーイーシージー,0
50,1011301030345,新規,0,2025-02-10,2025-02-10,忘我株式会社,,株式会社,東京都,杉並区,高円寺南２丁目２２－５福島荘１０１号室,,13,115,1660003,,,,,,,2025-02-10,1,,,,,ボウガ,0
55,1011501031696,新規,0,2025-02-10,2025-02-10,株式会社シーエルレイホープ,,株式会社,東京都,北区,堀船２丁目２４番１５号,,13,117,1140004,,,,,,,2025-02-10,1,,,,,シーエルレイホープ,0
57,1011801045594,新規,0,2025-02-10,2025-02-10,株式会社Ｎａｎａｌａ,,株式会社,東京都,葛飾区,東新小岩７丁目２０番１５号,,13,122,1240023,,,,,,,2025-02-10,1,,,,,ナナーラ,0
58,1011801045603,新規,0,2025-02-10,2025-02-10,文宣株式会社,,株式会社,東京都,葛飾区,青戸７丁目２３番１０号卓越シーズン１０１,,13,122,1250062,,,,,,,2025-02-10,1,,,,,ブンセン,0
60,1012401042759,新規,0,2025-02-10,2025-02-10,株式会社ｍｉｌｋｋｉｓｓ,,株式会社,東京都,府中市,宮町１丁目４２番地の１,,13,206,1830023,,,,,,,2025-02-10,1,,,,,ミルクキス,0
78,1020001161219,新規,0,2025-02-10,2025-02-10,株式会社ＣＵＲＩＯＵＳ　ＪＡＰＡＮ,,株式会社,神奈川県,横浜市保土ケ谷区,仏向町１０３７番地１８ベイルーム星川２０１,,14,106,2400044,,,,,,,2025-02-10,1,,,,,キュリオスジャパン,0
79,1020001161227,新規,0,2025-02-10,2025-02-10,株式会社みなみ,,株式会社,神奈川県,横浜市南区,蒔田町字会下９３１番地１－２階,,14,105,2320043,,,,,,,2025-02-10,1,,,,,ミナミ,0
80,1020001161235,新規,0,2025-02-10,2025-02-10,株式会社ｙｏｕ‐縁,,株式会社,神奈川県,川崎市多摩区,登戸１９４７番地１ノーブル向ヶ丘３０２,,14,135,2140014,,,,,,,2025-02-10,1,,,,,ユーエン,0
81,1020001161251,新規,0,2025-02-10,2025-02-10,ＳＭＧ株式会社,,株式会社,神奈川県,川崎市川崎区,浜町１丁目１３番１６号２Ｆ,,14,131,2100851,,,,,,,2025-02-10,1,,,,,エスエムジー,0
82,1020001161268,新規,0,2025-02-10,2025-02-10,Ｆｉｒｓｑｕａｒｅ　Ｊａｐａｎ株式会社,,株式会社,神奈川県,横浜市西区,みなとみらい２丁目２番１号ランドマークタワー２０Ｆ・１２７号室、１２８号室,,14,103,2200012,,,,,,,2025-02-10,1,,,,,ファースクエアジャパン,0
83,1020001161375,新規,0,2025-02-10,2025-02-10,株式会社港設計,,株式会社,神奈川県,横浜市西区,みなとみらい５丁目３番２－１８０７号,,14,103,2200012,,,,,,,2025-02-10,1,,,,,ミナトセッケイ,0
84,1020001161391,新規,0,2025-02-10,2025-02-10,株式会社ＥＭＢＯＤＩＭＥＮＴ,,株式会社,神奈川県,横浜市青葉区,あかね台２丁目２１番地１,,14,117,2270066,,,,,,,2025-02-10,1,,,,,エンボディメント,0
90,1020003027764,新規,0,2025-02-10,2025-02-10,合同会社エンカウンターワークス,,合同会社,神奈川県,横浜市神奈川区,三ツ沢西町４－３ダイアパレス三ツ沢公園西館３０４,,14,102,2210855,,,,,,,2025-02-10,1,,,,,エンカウンターワークス,0
91,1020003027789,新規,0,2025-02-10,2025-02-10,イルマーレ合同会社,,合同会社,神奈川県,川崎市高津区,久地３丁目１６番５‐１８０９号,,14,134,2130032,,,,,,,2025-02-10,1,,,,,イルマーレ,0
95,1021003015569,新規,0,2025-02-10,2025-02-10,ＺＡ　ＺＡ　ＴＲＡＤＩＮＧ合同会社,,合同会社,神奈川県,愛甲郡清川村,煤ヶ谷８６０番地の１－２０２,,14,402,2430112,,,,,,,2025-02-10,1,,,,,ザザトレーディング,0
98,1030001164807,新規,0,2025-02-10,2025-02-10,オムニフューエル株式会社,,株式会社,埼玉県,戸田市,中町２丁目１７番２５－１０１号,,11,224,3350012,,,,,,,2025-02-10,1,,,,,オムニフューエル,0
100,1040001137349,新規,0,2025-02-10,2025-02-10,株式会社ユナフィット,,株式会社,千葉県,野田市,山崎２６００番地の８,,12,208,2780022,,,,,,,2025-02-10,1,,,,,ユナフィット,0
103,1040003026830,新規,0,2025-02-10,2025-02-10,昇商事合同会社,,合同会社,千葉県,香取市,岩部５７６番３－２０１号,,12,236,2870102,,,,,,,2025-02-10,1,,,,,ノボルショウジ,0
110,1050003009017,新規,0,2025-02-10,2025-02-10,たかはし商事合同会社,,合同会社,茨城県,水戸市,平須町１０７５番地２,,08,201,3100853,,,,,,,2025-02-10,1,,,,,タカハシショウジ,0
112,1070001042620,新規,0,2025-02-10,2025-02-10,ＡＢＹ株式会社,,株式会社,群馬県,高崎市,山名町６２２番地,,10,202,3701213,,,,,,,2025-02-10,1,,,,,アビィ,0
117,1080101025301,新規,0,2025-02-10,2025-02-10,株式会社童心,,株式会社,静岡県,三島市,芝本町１２番６号,,22,206,4110857,,,,,,,2025-02-10,1,,,,,ドウシン,0
123,1110001039042,新規,0,2025-02-10,2025-02-10,株式会社Ｔ．ｔａｎａｂｅ不動産,,株式会社,新潟県,新潟市東区,江南３丁目１番９号２０３,,15,102,9500855,,,,,,,2025-02-10,1,,,,,ティードットタナベフドウサン,0
130,1120001272617,新規,0,2025-02-10,2025-02-10,株式会社ホワイトバランス,,株式会社,大阪府,大阪市浪速区,桜川１丁目１番１４－１２１３号,,27,111,5560022,,,,,,,2025-02-10,1,,,,,ホワイトバランス,0
131,1120001272690,新規,0,2025-02-10,2025-02-10,Ｔｉｎｇｅａｒｙ株式会社,,株式会社,大阪府,大阪市西区,京町堀１丁目１３－１７－４０３号,,27,106,5500003,,,,,,,2025-02-10,1,,,,,ティンゲアリー,0
132,1120001272716,新規,0,2025-02-10,2025-02-10,泰和株式会社,,株式会社,大阪府,大阪市東住吉区,杭全１丁目１７－１７－６０２号,,27,121,5460002,,,,,,,2025-02-10,1,,,,,タイワ,0
133,1120001272765,新規,0,2025-02-10,2025-02-10,株式会社Ｖｉｓｉｏｎ　Ｃｈｒｏｍａ　Ｊａｐａｎ,,株式会社,大阪府,大阪市西区,江之子島１丁目７番３号,,27,106,5500006,,,,,,,2025-02-10,1,,,,,ビジョンクロマジャパン,0
134,1120001272831,新規,0,2025-02-10,2025-02-10,株式会社シティエンジン,,株式会社,大阪府,大阪市西成区,千本南１丁目１３－３０,,27,122,5570055,,,,,,,2025-02-10,1,,,,,シティエンジン,0
137,1120003028570,新規,0,2025-02-10,2025-02-10,石原会計事務所合同会社,,合同会社,大阪府,大阪市西成区,旭２丁目３番１号,,27,122,5570032,,,,,,,2025-02-10,1,,,,,イシハラカイケイジムショ,0
141,1120101071010,新規,0,2025-02-10,2025-02-10,株式会社湯浅電気,,株式会社,大阪府,和泉市,伏屋町５丁目８番８号,,27,219,5940031,,,,,,,2025-02-10,1,,,,,ユアサデンキ,0
142,1120101071043,新規,0,2025-02-10,2025-02-10,塗人本舗株式会社,,株式会社,大阪府,羽曳野市,伊賀２丁目１０番７号,,27,222,5830876,,,,,,,2025-02-10,1,,,,,ヌリンチュホンポ,0
143,1120101071051,新規,0,2025-02-10,2025-02-10,株式会社紀州プラットフォーム,,株式会社,大阪府,堺市北区,中百舌鳥町５丁７９８番地１４,,27,146,5918023,,,,,,,2025-02-10,1,,,,,キシュウプラットフォーム,0
147,1120901050411,新規,0,2025-02-10,2025-02-10,株式会社土地再生開発,,株式会社,大阪府,豊中市,庄内西町２丁目１番３号,,27,203,5610832,,,,,,,2025-02-10,1,,,,,トチサイセイカイハツ,0
148,1120903005545,新規,0,2025-02-10,2025-02-10,みらい合同会社,,合同会社,大阪府,吹田市,五月が丘北１７番１４号,,27,205,5650834,,,,,,,2025-02-10,1,,,,,ミライ,0
151,1130001078963,新規,0,2025-02-10,2025-02-10,株式会社ＣＯＴＯ　ｆｏｏｄｓ　ＫＹＯＴＯ,,株式会社,京都府,京都市南区,東九条東山王町１０番地１,,26,107,6018004,,,,,,,2025-02-10,1,,,,,コトフーズキョウト,0
154,1140001137297,新規,0,2025-02-10,2025-02-10,株式会社ＴＤＳ,,株式会社,兵庫県,伊丹市,南鈴原４丁目２４番地２,,28,207,6640883,,,,,,,2025-02-10,1,,,,,ティーディーエス,0
155,1140001137322,新規,0,2025-02-10,2025-02-10,ナカコーパウダーＨＤ株式会社,,株式会社,兵庫県,高砂市,荒井町新浜２丁目１７番１０号,,28,216,6760008,,,,,,,2025-02-10,1,,,,,ナカコーパウダーホールディングス,0
156,1140001137347,新規,0,2025-02-10,2025-02-10,クレスト株式会社,,株式会社,兵庫県,西宮市,豊楽町７番２４－６１５号,,28,204,6620072,,,,,,,2025-02-10,1,,,,,クレスト,0
159,1160001026531,新規,0,2025-02-10,2025-02-10,株式会社Ｌｉｆｅ　Ｌｉｎｋ　Ｌｉｆｅ,,株式会社,滋賀県,大津市,月輪３丁目２５番１５－３０９号,,25,201,5202152,,,,,,,2025-02-10,1,,,,,ライフリンクライフ,0
168,1180001165336,新規,0,2025-02-10,2025-02-10,株式会社大村冷熱,,株式会社,愛知県,名古屋市緑区,定納山１丁目２０２番地,,23,114,4598011,,,,,,,2025-02-10,1,,,,,オオムラレイネツ,0
169,1180001165360,新規,0,2025-02-10,2025-02-10,Ｎｅｘｕｓ・Ｈｏｌｄｉｎｇｓ株式会社,,株式会社,愛知県,名古屋市中川区,八田本町１１番地の２,,23,110,4540904,,,,,,,2025-02-10,1,,,,,ネクサスホールディングス,0
172,1180303006452,新規,0,2025-02-10,2025-02-10,合同会社丸福,,合同会社,愛知県,刈谷市,西境町花池１７番地２,,23,210,4480006,,,,,,,2025-02-10,1,,,,,マルフク,0
177,1230001020741,新規,0,2025-02-10,2025-02-10,株式会社ＴＹＭ’ｓラボ,,株式会社,富山県,高岡市,上関町８番５０号,,16,202,9330851,,,,,,,2025-02-10,1,,,,,トヤマズラボ,0
190,1310005008824,新規,0,2025-02-10,2025-02-10,社会福祉法人豊和ふるさと,,その他の設立登記法人,長崎県,長崎市,伊王島町２丁目５１３番地,,42,201,8511201,,,,,,,2025-02-10,1,,,,,ホウワフルサト,0
193,1330001032875,新規,0,2025-02-10,2025-02-10,Ｆｅｌｉｓ株式会社,,株式会社,熊本県,荒尾市,宮内７４７番地９,,43,204,8640004,,,,,,,2025-02-10,1,,,,,フェリス,0
196,1350005006287,新規,0,2025-02-10,2025-02-10,一般社団法人宮崎インバウンド協会,,その他の設立登記法人,宮崎県,宮崎市,青島６丁目１０－５,,45,201,8892162,,,,,,,2025-02-10,1,,,,,ミヤザキインバウンドキョウカイ,0
197,1360005007169,新規,0,2025-02-10,2025-02-10,一般社団法人ＯＳ管財,,その他の設立登記法人,沖縄県,那覇市,天久２丁目２０番１６号３階,,47,201,9000005,,,,,,,2025-02-10,1,,,,,オーエスカンザイ,0
199,1370001052226,新規,0,2025-02-10,2025-02-10,株式会社ＯＳ,,株式会社,宮城県,名取市,増田８丁目２番５３－６号,,04,207,9811224,,,,,,,2025-02-10,1,,,,,オーエス,0
200,1370001052234,新規,0,2025-02-10,2025-02-10,Ｉ‐ＢＡＳＥ株式会社,,株式会社,宮城県,仙台市若林区,大和町５丁目３２番９－７０８号,,04,103,9840042,,,,,,,2025-02-10,1,,,,,アイベース,0
206,1380003005957,新規,0,2025-02-10,2025-02-10,合同会社Ｕ２,,合同会社,福島県,福島市,南矢野目字道下３０番地の１セントラルタウン５０３,,07,201,9600112,,,,,,,2025-02-10,1,,,,,ユーツー,0
213,1420001019013,新規,0,2025-02-10,2025-02-10,株式会社ＧｒａｎＤｒｅａｍ,,株式会社,青森県,平川市,館田中前田１１８番地６,,02,210,0360155,,,,,,,2025-02-10,1,,,,,グランドリーム,0
217,1460101007665,新規,0,2025-02-10,2025-02-10,株式会社プロマテリアルＳＪ,,株式会社,北海道,中川郡幕別町,忠類協徳２３１番地５,,01,643,0891728,,,,,,,2025-02-10,1,,,,,プロマテリアルエスジェイ,0
219,1470001020577,新規,0,2025-02-10,2025-02-10,株式会社ニイグミ,,株式会社,香川県,丸亀市,飯山町上法軍寺１８６０番地４,,37,202,7620084,,,,,,,2025-02-10,1,,,,,ニイグミ,0
224,1490001010956,新規,0,2025-02-10,2025-02-10,株式会社多喜プラス,,株式会社,高知県,高知市,弥生町８番１３号,,39,201,7810803,,,,,,,2025-02-10,1,,,,,タキプラス,0
226,2010001252141,新規,0,2025-02-10,2025-02-10,日本完全固体電池株式会社,,株式会社,東京都,文京区,本郷４丁目２４－８－４階,,13,105,1130033,,,,,,,2025-02-10,1,,,,,ニホンカンゼンコタイデンチ,0
229,2010003046351,新規,0,2025-02-10,2025-02-10,クレジット・ギャランティ１１号合同会社,,合同会社,東京都,千代田区,内神田１丁目３番７号４０１あすな会計事務所内,,13,101,1010047,,,,,,,2025-02-10,1,,,,,クレジットギャランティジュウイチゴウ,0
235,2010401187994,新規,0,2025-02-10,2025-02-10,株式会社ＢＲＡＮＺ,,株式会社,東京都,港区,赤坂６丁目１０番３９－５１６号,,13,103,1070052,,,,,,,2025-02-10,1,,,,,ブランズ,0
236,2010401188092,新規,0,2025-02-10,2025-02-10,株式会社ラインアーク,,株式会社,東京都,港区,南青山６丁目８番８号,,13,103,1070062,,,,,,,2025-02-10,1,,,,,ラインアーク,0
237,2010401188101,新規,0,2025-02-10,2025-02-10,ジャパンアグリビジネス株式会社,,株式会社,東京都,港区,西麻布４丁目１０－１３ウエストコート４１０,,13,103,1060031,,,,,,,2025-02-10,1,,,,,ジャパンアグリビジネス,0
238,2010401188126,新規,0,2025-02-10,2025-02-10,株式会社ＴＯＫＩＭＵＳＵＢＩ,,株式会社,東京都,港区,高輪２丁目１４番１７号グレイス高輪ビル,,13,103,1080074,,,,,,,2025-02-10,1,,,,,トキムスビ,0
242,2010405024070,新規,0,2025-02-10,2025-02-10,ジャパン・アゼリア特定目的会社,,その他の設立登記法人,東京都,港区,虎ノ門３丁目２２番１０－２０１号,,13,103,1050001,,,,,,,2025-02-10,1,,,,,ジャパンアゼリア,0
243,2010501053601,新規,0,2025-02-10,2025-02-10,株式会社セルビッセ,,株式会社,東京都,台東区,千束２丁目２４－５グレイス北上野１０１号,,13,106,1110031,,,,,,,2025-02-10,1,,,,,セルビッセ,0
247,2010603011374,新規,0,2025-02-10,2025-02-10,ＴＲＳ　ＣＯＮＳＵＬＴＩＮＧ合同会社,,合同会社,東京都,江東区,深川１丁目１－２，２Ｆ,,13,108,1350033,,,,,,,2025-02-10,1,,,,,ティーアールエスコンサルティング,0
249,2010701047221,新規,0,2025-02-10,2025-02-10,Ｇｅｎｅｓｉｓ　Ｎｉｎｅ株式会社,,株式会社,東京都,品川区,東大井１丁目１１番２５－２２０３号クレストタワー品川シーサイド,,13,109,1400011,,,,,,,2025-02-10,1,,,,,ジェネシスナイン,0
253,2011001167379,新規,0,2025-02-10,2025-02-10,株式会社イーピン,,株式会社,東京都,渋谷区,道玄坂２丁目２９番１８号才籐第二ビル７階,,13,113,1500043,,,,,,,2025-02-10,1,,,,,イーピン,0
254,2011001167651,新規,0,2025-02-10,2025-02-10,株式会社ＥＬＩＯＮ　ＭＡＲＫＥＴＳ,,株式会社,東京都,渋谷区,神南１丁目２３番１０号東急渋谷駅前ビル４Ｆ,,13,113,1500041,,,,,,,2025-02-10,1,,,,,エリオンマーケット,0
255,2011003020957,新規,0,2025-02-10,2025-02-10,合同会社ボクセン,,合同会社,東京都,渋谷区,神南１丁目２３番１４号リージャス渋谷公園通りビル７１７,,13,113,1500041,,,,,,,2025-02-10,1,,,,,ボクセン,0
267,2011105011334,新規,0,2025-02-10,2025-02-10,監査法人Ｉｎｎｏｖａｔｉｏｎ,,その他の設立登記法人,東京都,新宿区,袋町５番地１ＦＡＲＯ神楽坂３０３,,13,104,1620828,,,,,,,2025-02-10,1,,,,,イノベーション,0
269,2011201026112,新規,0,2025-02-10,2025-02-10,セブ山の株式会社,,株式会社,東京都,中野区,中野５丁目６１番７号サンモールマスダビル３０２号室,,13,114,1640001,,,,,,,2025-02-10,1,,,,,セブヤマノ,0
270,2011301030344,新規,0,2025-02-10,2025-02-10,ＴＯＳＩＺＡＳＴＡＲ株式会社,,株式会社,東京都,杉並区,成田東４丁目３３番２１号,,13,115,1660015,,,,,,,2025-02-10,1,,,,,トシザスタ,0
271,2011403004618,新規,0,2025-02-10,2025-02-10,合同会社Ｐｏｎｏ,,合同会社,東京都,板橋区,板橋４丁目２９番３－１０１号フラワーパーク,,13,119,1730004,,,,,,,2025-02-10,1,,,,,ポノ,0
272,2011601028419,新規,0,2025-02-10,2025-02-10,和築ＬＡＢＯ株式会社,,株式会社,東京都,練馬区,石神井台３丁目１２番１５号ピュアシティー大泉学園ＩＩ－１０１号室,00137949,13,120,1770045,,,,,,,2025-02-10,1,,,,,ワチクラボ,0
277,2012303002109,新規,0,2025-02-10,2025-02-10,Ｍ　ＳＵＺＵＫＩ合同会社,,合同会社,東京都,町田市,能ヶ谷４丁目１５番１５号,,13,209,1950053,,,,,,,2025-02-10,1,,,,,エムスズキ,0
281,2012401042766,新規,0,2025-02-10,2025-02-10,クロスフロンティア株式会社,,株式会社,東京都,武蔵野市,桜堤２丁目１３番１－８１７号,,13,203,1800021,,,,,,,2025-02-10,1,,,,,クロスフロンティア,0
290,2020001161234,新規,0,2025-02-10,2025-02-10,株式会社レモネード,,株式会社,神奈川県,横浜市西区,北幸２丁目１０番４８号むつみビル３階,,14,103,2200004,,,,,,,2025-02-10,1,,,,,レモネード,0
292,2020003027722,新規,0,2025-02-10,2025-02-10,ＳｏｆｔＰａｓｓ合同会社,,合同会社,神奈川県,横浜市旭区,今宿西町３４６番地２,,14,112,2410031,,,,,,,2025-02-10,1,,,,,ソフトパス,0
300,2030001164822,新規,0,2025-02-10,2025-02-10,株式会社レガリア,,株式会社,埼玉県,さいたま市西区,大字指扇２８１２番地１－Ｆ－２０５号室,,11,101,3310047,,,,,,,2025-02-10,1,,,,,レガリア,0
306,2030003025980,新規,0,2025-02-10,2025-02-10,合同会社ＮＪＰ,,合同会社,埼玉県,川越市,東田町１２番地２７キャッスルマンション川越Ｂ１０２号室,,11,201,3501114,,,,,,,2025-02-10,1,,,,,エヌジェーピー,0
307,2030003026070,新規,0,2025-02-10,2025-02-10,Ｐ＆Ｊ合同会社,,合同会社,埼玉県,加須市,東栄１丁目１３番１１号,,11,210,3470064,,,,,,,2025-02-10,1,,,,,ピーアンドジェイ,0
308,2030003026087,新規,0,2025-02-10,2025-02-10,Ｌｕｃｅｖｏ合同会社,,合同会社,埼玉県,川越市,むさし野南５番地３４,,11,201,3501158,,,,,,,2025-02-10,1,,,,,ルセボ,0
312,2040001137323,新規,0,2025-02-10,2025-02-10,ＳＨＩＮＥ　ＥＡＲＴＨ株式会社,,株式会社,千葉県,千葉市稲毛区,稲毛東１丁目１１番２号,,12,103,2630031,,,,,,,2025-02-10,1,,,,,シャインアース,0
313,2040001137348,新規,0,2025-02-10,2025-02-10,ＨＴソリューションズ株式会社,,株式会社,千葉県,船橋市,古作４丁目６番１６号,,12,204,2730037,,,,,,,2025-02-10,1,,,,,エイチティーソリューションズ,0
314,2040003026821,新規,0,2025-02-10,2025-02-10,合同会社ＮｅｘｔＪａｐａｎ,,合同会社,千葉県,市川市,新田５丁目１０番１３－１０２号,,12,203,2720035,,,,,,,2025-02-10,1,,,,,ネクストジャパン,0
317,2050001056150,新規,0,2025-02-10,2025-02-10,株式会社アクアテクネ,,株式会社,茨城県,猿島郡五霞町,大字山王山６９５番１,,08,542,3060301,,,,,,,2025-02-10,1,,,,,アクアテクネ,0
323,2070001042611,新規,0,2025-02-10,2025-02-10,株式会社Ｋｏｔｏｎｏｖａ,,株式会社,群馬県,前橋市,駒形町１６１番地９,,10,201,3792122,,,,,,,2025-02-10,1,,,,,コトノバ,0
325,2070003005780,新規,0,2025-02-10,2025-02-10,萬盛合同会社,,合同会社,群馬県,桐生市,仲町２丁目３番２１号,,10,203,3760035,,,,,,,2025-02-10,1,,,,,マンセイ,0
326,2080101025300,新規,0,2025-02-10,2025-02-10,株式会社ブルービー,,株式会社,静岡県,富士市,神谷１４２番地の１,,22,210,4170821,,,,,,,2025-02-10,1,,,,,ブルービー,0
332,2110001039041,新規,0,2025-02-10,2025-02-10,株式会社ピオネール,,株式会社,新潟県,新潟市中央区,姥ケ山４丁目７番３０号,,15,103,9500923,,,,,,,2025-02-10,1,,,,,ピオネール,0
337,2120001272236,新規,0,2025-02-10,2025-02-10,成川株式会社,,株式会社,大阪府,大阪市中央区,南船場２丁目５番１１－１５０２号,,27,128,5420081,,,,,,,2025-02-10,1,,,,,ナリカワ,0
338,2120001272780,新規,0,2025-02-10,2025-02-10,株式会社ライフマネジメント研究所,,株式会社,大阪府,大阪市旭区,新森２丁目７番９号,,27,117,5350022,,,,,,,2025-02-10,1,,,,,ライフマネジメントケンキュウジョ,0
342,2120101071026,新規,0,2025-02-10,2025-02-10,株式会社ループ,,株式会社,大阪府,泉大津市,松之浜町１丁目１３番１４号,,27,206,5950072,,,,,,,2025-02-10,1,,,,,ループ,0
343,2120101071034,新規,0,2025-02-10,2025-02-10,株式会社ＥＤＡＭＯ,,株式会社,大阪府,羽曳野市,羽曳が丘西７丁目９番１４号,,27,222,5830865,,,,,,,2025-02-10,1,,,,,エダモ,0
344,2120101071042,新規,0,2025-02-10,2025-02-10,パルマン株式会社,,株式会社,大阪府,羽曳野市,西浦２丁目１６６１番地の４５,,27,222,5830861,,,,,,,2025-02-10,1,,,,,パルマン,0
348,2120901050410,新規,0,2025-02-10,2025-02-10,株式会社ｍｏｎｋｅｙ．Ｄ．ｃｒｅｗｓ,,株式会社,大阪府,茨木市,太田３丁目１６番１５号の４,,27,211,5670018,,,,,,,2025-02-10,1,,,,,モンキーディークルーズ,0
349,2120901050419,新規,0,2025-02-10,2025-02-10,株式会社ＹＯＩＹＯアニメーション,,株式会社,大阪府,豊中市,北桜塚３丁目５番４５号,,27,203,5600022,,,,,,,2025-02-10,1,,,,,ヨイヨアニメーション,0
350,2120903005544,新規,0,2025-02-10,2025-02-10,合同会社太一,,合同会社,大阪府,高槻市,清水台１丁目１３番２０号,,27,207,5691039,,,,,,,2025-02-10,1,,,,,タイチ,0
354,2122001038889,新規,0,2025-02-10,2025-02-10,株式会社たっと,,株式会社,大阪府,東大阪市,上石切町１丁目１１番１４－１２０３号,,27,227,5798012,,,,,,,2025-02-10,1,,,,,タット,0
359,2130001078962,新規,0,2025-02-10,2025-02-10,株式会社エンフィニティ,,株式会社,京都府,京都市下京区,小稲荷町８５－２Ｇｒａｎｄ－Ｋ京都駅前ビル２０２,,26,106,6008208,,,,,,,2025-02-10,1,,,,,エンフィニティ,0
360,2130001078979,新規,0,2025-02-10,2025-02-10,株式会社ＰｒｉＭａｔｅｒｉａ,,株式会社,京都府,京都市右京区,山ノ内御堂殿町１３番地１５,,26,108,6150091,,,,,,,2025-02-10,1,,,,,プリマテリア,0
366,2140001137354,新規,0,2025-02-10,2025-02-10,株式会社小部本舗,,株式会社,兵庫県,明石市,大久保町高丘５丁目３番地の１３、６６棟３０１号,,28,203,6740057,,,,,,,2025-02-10,1,,,,,コベホンポ,0
367,2140003021622,新規,0,2025-02-10,2025-02-10,合同会社ｃｉｔａｔａｐ,,合同会社,兵庫県,赤穂市,上仮屋北２番地１６,,28,212,6780237,,,,,,,2025-02-10,1,,,,,チタタプ,0
368,2140003021639,新規,0,2025-02-10,2025-02-10,合同会社Ｌｉｅｎ,,合同会社,兵庫県,川西市,東久代２丁目１９－２１,,28,217,6660023,,,,,,,2025-02-10,1,,,,,リヤン,0
369,2150003003495,新規,0,2025-02-10,2025-02-10,合同会社ＳＡＮＧＯＳ,,合同会社,奈良県,橿原市,葛本町５３２番地の１２,,29,205,6340007,,,,,,,2025-02-10,1,,,,,サンゴス,0
371,2170003002165,新規,0,2025-02-10,2025-02-10,合同会社加太マリンフーズ,,合同会社,和歌山県,和歌山市,加太１６２３番地,,30,201,6400103,,,,,,,2025-02-10,1,,,,,カダマリンフーズ,0
376,2180001165368,新規,0,2025-02-10,2025-02-10,デシマル株式会社,,株式会社,愛知県,稲沢市,小沢３丁目１番９号,,23,220,4928212,,,,,,,2025-02-10,1,,,,,デシマル,0
377,2180001165384,新規,0,2025-02-10,2025-02-10,株式会社Ｓコンパス,,株式会社,愛知県,名古屋市名東区,勢子坊２丁目５０７番地,,23,115,4650055,,,,,,,2025-02-10,1,,,,,エスコンパス,0
380,2180003027979,新規,0,2025-02-10,2025-02-10,合同会社ＡＩＲ,,合同会社,愛知県,名古屋市守山区,大森１丁目２５０１番地シャトー大森２０２号,,23,113,4630021,,,,,,,2025-02-10,1,,,,,エアー,0
383,2180305009659,新規,0,2025-02-10,2025-02-10,ＮＰＯ法人スマイルリーチ,,その他の設立登記法人,愛知県,安城市,古井町上寺１７番地１４,,23,212,4460025,,,,,,,2025-02-10,1,,,,,スマイルリーチ,0
396,2240003007058,新規,0,2025-02-10,2025-02-10,合同会社ＴＬＣ・Ｍ,,合同会社,広島県,尾道市,長江２丁目１６番２９号,,34,205,7220046,,,,,,,2025-02-10,1,,,,,ティーエルシードットエム,0
399,2240005015892,新規,0,2025-02-10,2025-02-10,一般社団法人ライフ安心サポートセンター,,その他の設立登記法人,広島県,尾道市,原田町梶山田３６０９番地,,34,205,7220202,,,,,,,2025-02-10,1,,,,,ライフアンシンサポートセンター,0
406,2260005011444,新規,0,2025-02-10,2025-02-10,岡山物流ネットワーク協同組合,,その他の設立登記法人,岡山県,赤磐市,南方６７１番地,,33,213,7090814,,,,,,,2025-02-10,1,,,,,オカヤマブツリュウネットワーク,0
410,2290001108902,新規,0,2025-02-10,2025-02-10,株式会社ＧＲＩＴ,,株式会社,福岡県,福岡市博多区,中洲２丁目６番７号４階１号室,,40,132,8100801,,,,,,,2025-02-10,1,,,,,グリット,0
416,2310001019444,新規,0,2025-02-10,2025-02-10,Ｏｒｉｏｎ　Ｉｎｖｅｓｔｍｅｎｔ株式会社,,株式会社,長崎県,長崎市,上西山町５番４－１５０３号,,42,201,8500006,,,,,,,2025-02-10,1,,,,,オリオンインベストメント,0
417,2310005008823,新規,0,2025-02-10,2025-02-10,一般社団法人相浦地主組合,,その他の設立登記法人,長崎県,佐世保市,新田町２９３番地１１,,42,202,8580913,,,,,,,2025-02-10,1,,,,,アイノウラヂヌシクミアイ,0
419,2320001020938,新規,0,2025-02-10,2025-02-10,株式会社大藤,,株式会社,大分県,大分市,向原東１丁目１番１５号,,44,201,8700904,,,,,,,2025-02-10,1,,,,,オオフジ,0
421,2330003010779,新規,0,2025-02-10,2025-02-10,合同会社Ｑｒｅｅｔ,,合同会社,熊本県,熊本市北区,大窪１丁目５番３５－１０１号サンライズプラザＡ,,43,105,8600083,,,,,,,2025-02-10,1,,,,,クリート,0
422,2340001027114,新規,0,2025-02-10,2025-02-10,株式会社ＡＸＬ,,株式会社,鹿児島県,出水市,高尾野町下水流２７１９番地２,,46,208,8990405,,,,,,,2025-02-10,1,,,,,アクセル,0
424,2340003004739,新規,0,2025-02-10,2025-02-10,合同会社元気力発電所,,合同会社,鹿児島県,奄美市,笠利町大字里５１番地７号,,46,222,8940511,,,,,,,2025-02-10,1,,,,,ゲンキリョクハツデンショ,0
425,2340003004747,新規,0,2025-02-10,2025-02-10,合同会社Ｕｒｉｂｏ,,合同会社,鹿児島県,霧島市,国分松木町１８番２７号ルミナーレスカイ２０６号,,46,218,8994325,,,,,,,2025-02-10,1,,,,,ウリボ,0
427,2360001034769,新規,0,2025-02-10,2025-02-10,琉球３６９フーズ株式会社,,株式会社,沖縄県,沖縄市,宮里１丁目６番６号８Ｆ,,47,211,9042165,,,,,,,2025-02-10,1,,,,,リュウキュウミロクフーズ,0
431,2370001052217,新規,0,2025-02-10,2025-02-10,株式会社かなで建築設計,,株式会社,宮城県,仙台市若林区,卸町２丁目１５番地の２卸町会館５階ＴＲＵＮＫ＃９,,04,103,9840015,,,,,,,2025-02-10,1,,,,,カナデケンチクセッケイ,0
435,2410003004046,新規,0,2025-02-10,2025-02-10,合同会社やっほーｆａｒｍ,,合同会社,秋田県,山本郡八峰町,八森字上家後１４３番地１,,05,349,0182674,,,,,,,2025-02-10,1,,,,,ヤッホーファーム,0
446,2490001010955,新規,0,2025-02-10,2025-02-10,株式会社玄鳥至,,株式会社,高知県,高知市,唐人町６番２号１００１号,,39,201,7800864,,,,,,,2025-02-10,1,,,,,ツバメキタル,0
454,3010001252140,新規,0,2025-02-10,2025-02-10,Ｚ＆Ｚ　ＰＬＡＣＥ株式会社,,株式会社,東京都,千代田区,神田神保町３丁目２－２８ＡＣＮ神保町ビル３階,,13,101,1010051,,,,,,,2025-02-10,1,,,,,ゼットアンドゼットプレース,0
459,3010003046375,新規,0,2025-02-10,2025-02-10,合同会社ＨＹ,,合同会社,東京都,中央区,銀座１丁目２２－１１銀座大竹ビジデンス２Ｆ,,13,102,1040061,,,,,,,2025-02-10,1,,,,,エイチワイ,0
461,3010401187936,新規,0,2025-02-10,2025-02-10,株式会社ＹＵＫＡＴＡＮ,,株式会社,東京都,港区,元麻布２丁目１－７,,13,103,1060046,,,,,,,2025-02-10,1,,,,,ユカタン,0
462,3010401187985,新規,0,2025-02-10,2025-02-10,東富株式会社,,株式会社,東京都,港区,赤坂４丁目２－３－４０２室,,13,103,1070052,,,,,,,2025-02-10,1,,,,,ヒガシトミ,0
463,3010401188091,新規,0,2025-02-10,2025-02-10,株式会社ＣｏＣｏ,,株式会社,東京都,港区,南青山３丁目１番３６号青山丸竹ビル６Ｆ,,13,103,1070062,,,,,,,2025-02-10,1,,,,,ココ,0
464,3010401188100,新規,0,2025-02-10,2025-02-10,動物保護シンクタンク株式会社,,株式会社,東京都,港区,南青山２丁目４番１５号,,13,103,1070062,,,,,,,2025-02-10,1,,,,,ドウブツホゴシンクタンク,0
470,3010701047204,新規,0,2025-02-10,2025-02-10,ＯＮＥ　ＯＮＥ　ＳＥＶＥＮ株式会社,,株式会社,東京都,品川区,東大井５丁目２３番１６－２０８号,,13,109,1400011,,,,,,,2025-02-10,1,,,,,ワンワンセブン,0
478,3011001167733,新規,0,2025-02-10,2025-02-10,株式会社ＳＥＮＳＥ,,株式会社,東京都,渋谷区,恵比寿２丁目１３番７号,,13,113,1500013,,,,,,,2025-02-10,1,,,,,センス,0
483,3011101110551,新規,0,2025-02-10,2025-02-10,小山興産株式会社,,株式会社,東京都,新宿区,四谷本塩町１２番３号,,13,104,1600003,,,,,,,2025-02-10,1,,,,,コヤマコウサン,0
486,3011303005418,新規,0,2025-02-10,2025-02-10,Ｓｕｐｅｒｓｉｚｅ合同会社,,合同会社,東京都,杉並区,堀ノ内３丁目４７番７号ハックベリーハウス１０２,,13,115,1660013,,,,,,,2025-02-10,1,,,,,スーパーサイズ,0
489,3011701028053,新規,0,2025-02-10,2025-02-10,日本煌＿科技発展株式会社,00137953,株式会社,東京都,江戸川区,中央２丁目３３番６号,,13,123,1320021,,,,,,,2025-02-10,1,,,,,ニホンコウテツカギハッテン,0
509,3020001161225,新規,0,2025-02-10,2025-02-10,株式会社Ｅｃｌａｔｇｌｏｗ,,株式会社,神奈川県,横浜市都筑区,加賀原２丁目２番１－６３４号,,14,118,2240055,,,,,,,2025-02-10,1,,,,,エクラグロウ,0
510,3020001161282,新規,0,2025-02-10,2025-02-10,株式会社ＩＴソリューション・ラボ,,株式会社,神奈川県,川崎市高津区,久地３丁目２番２１号,,14,134,2130032,,,,,,,2025-02-10,1,,,,,アイティーソリューションラボ,0
511,3020001161431,新規,0,2025-02-10,2025-02-10,株式会社ＥｍｂｅｒＲｏａｓｔ　Ｇａｍｅｓ,,株式会社,神奈川県,川崎市川崎区,駅前本町１１番地２川崎フロンティアビル４階,,14,131,2100007,,,,,,,2025-02-10,1,,,,,エンバーローストゲームズ,0
518,3020003027754,新規,0,2025-02-10,2025-02-10,合同会社ひるがお総合,,合同会社,神奈川県,横浜市戸塚区,名瀬町６８３番地２,,14,110,2450051,,,,,,,2025-02-10,1,,,,,ヒルガオソウゴウ,0
520,3021003015484,新規,0,2025-02-10,2025-02-10,ＳＡＦＡ　ＮＩＨＯＮ　ＳＨＯＫＡＩ合同会社,,合同会社,神奈川県,厚木市,下川入４１５番地８オリエントハイツＮｏ．２－２０１,,14,212,2430206,,,,,,,2025-02-10,1,,,,,サファニホンショウカイ,0
521,3021003015567,新規,0,2025-02-10,2025-02-10,合同会社隼企画,,合同会社,神奈川県,小田原市,上新田１８番地の４第三杉山ビル３０１号室,,14,206,2500877,,,,,,,2025-02-10,1,,,,,ハヤブサキカク,0
522,3021005013271,新規,0,2025-02-10,2025-02-10,一般財団法人荒井権八記念財団,,その他の設立登記法人,神奈川県,平塚市,紅谷町１７番２号,,14,203,2540043,,,,,,,2025-02-10,1,,,,,アライゴンパチキネンザイダン,0
525,3030001164540,新規,0,2025-02-10,2025-02-10,ロケットマウス株式会社,,株式会社,埼玉県,川口市,中青木３丁目９番１号青木町ハイツ１０６,,11,203,3320032,,,,,,,2025-02-10,1,,,,,ロケットマウス,0
526,3030001164796,新規,0,2025-02-10,2025-02-10,照和ホールディングス株式会社,,株式会社,埼玉県,吉川市,関新田２丁目６０番地６,,11,243,3420014,,,,,,,2025-02-10,1,,,,,ショウワホールディングス,0
527,3030001164805,新規,0,2025-02-10,2025-02-10,株式会社ココカラグループ,,株式会社,埼玉県,さいたま市大宮区,土手町３丁目８８番地１,,11,103,3300801,,,,,,,2025-02-10,1,,,,,ココカラグループ,0
528,3030001164821,新規,0,2025-02-10,2025-02-10,株式会社グランテラスグループ,,株式会社,埼玉県,川越市,大字安比奈新田１３０－１,,11,201,3501173,,,,,,,2025-02-10,1,,,,,グランテラスグループ,0
533,3030003026078,新規,0,2025-02-10,2025-02-10,Ｅｎｋａｗａ合同会社,,合同会社,埼玉県,上尾市,愛宕２丁目１１番２号,,11,219,3620034,,,,,,,2025-02-10,1,,,,,エンカワ,0
534,3030003026086,新規,0,2025-02-10,2025-02-10,合同会社デルベント,,合同会社,埼玉県,越谷市,北越谷２丁目２番１－１０５号,,11,222,3430026,,,,,,,2025-02-10,1,,,,,デルベント,0
535,3030003026094,新規,0,2025-02-10,2025-02-10,合同会社Ｈｕｂｐｌｕｓ,,合同会社,埼玉県,坂戸市,大字中小坂７９０番地１,,11,239,3500206,,,,,,,2025-02-10,1,,,,,ハブプラス,0
537,3040001137264,新規,0,2025-02-10,2025-02-10,株式会社Ｃｈａｌｌｅｎｇｅｒ,,株式会社,千葉県,松戸市,幸田５丁目９０番地,,12,207,2700001,,,,,,,2025-02-10,1,,,,,チャレンジャー,0
538,3040003026812,新規,0,2025-02-10,2025-02-10,ＥＮ合同会社,,合同会社,千葉県,流山市,南流山７丁目３０番地の１８フェリクス南流山３０３,,12,220,2700163,,,,,,,2025-02-10,1,,,,,イーエヌ,0
539,3040003026829,新規,0,2025-02-10,2025-02-10,ＳＵＫＨＭＡＮＩ合同会社,,合同会社,千葉県,千葉市稲毛区,天台２丁目１－３５北葉開発,,12,103,2630016,,,,,,,2025-02-10,1,,,,,スクマニ,0
541,3050001056158,新規,0,2025-02-10,2025-02-10,株式会社アクティ,,株式会社,茨城県,取手市,ゆめみ野３丁目４番地１０,,08,217,3020039,,,,,,,2025-02-10,1,,,,,アクティ,0
545,3060001037900,新規,0,2025-02-10,2025-02-10,株式会社コラボモール,,株式会社,栃木県,宇都宮市,西川田本町２丁目６－１８,,09,201,3210158,,,,,,,2025-02-10,1,,,,,コラボモール,0
547,3070001042610,新規,0,2025-02-10,2025-02-10,株式会社リンク,,株式会社,群馬県,太田市,宝町７０４番地３,,10,205,3730042,,,,,,,2025-02-10,1,,,,,リンク,0
549,3070003005788,新規,0,2025-02-10,2025-02-10,合同会社ＴＭ,,合同会社,群馬県,前橋市,三俣町３丁目２６－６,,10,201,3710018,,,,,,,2025-02-10,1,,,,,ティーエム,0
559,3110001039040,新規,0,2025-02-10,2025-02-10,株式会社ＮＡＧＩ,,株式会社,新潟県,長岡市,新栄町３丁目２号２２号,,15,202,9400204,,,,,,,2025-02-10,1,,,,,ナギ,0
566,3120001272714,新規,0,2025-02-10,2025-02-10,株式会社伊辰,,株式会社,大阪府,大阪市中央区,難波千日前１０番９号,,27,128,5420075,,,,,,,2025-02-10,1,,,,,イシン,0
567,3120001272763,新規,0,2025-02-10,2025-02-10,株式会社ワイドコネクション,,株式会社,大阪府,大阪市西区,北堀江３丁目８番１３－９０２号,,27,106,5500014,,,,,,,2025-02-10,1,,,,,ワイドコネクション,0
568,3120001272796,新規,0,2025-02-10,2025-02-10,株式会社鼎承,,株式会社,大阪府,大阪市中央区,南本町３丁目３番２３－３０８号,,27,128,5410054,,,,,,,2025-02-10,1,,,,,テイショウ,0
569,3120001272821,新規,0,2025-02-10,2025-02-10,株式会社Ｂｌｕｅインダストリー,,株式会社,大阪府,大阪市西区,靱本町３丁目８番２７号７０２,,27,106,5500004,,,,,,,2025-02-10,1,,,,,ブルーインダストリー,0
570,3120003028585,新規,0,2025-02-10,2025-02-10,ＳＥＮＫＩ合同会社,,合同会社,大阪府,大阪市淀川区,西中島１丁目８番１２号田中マンション５,,27,123,5320011,,,,,,,2025-02-10,1,,,,,センキ,0
573,3120101071025,新規,0,2025-02-10,2025-02-10,株式会社Ｅｉｇｈｔｙ　Ｎｉｎｅ,,株式会社,大阪府,堺市北区,常磐町２丁３番地１４－１号,,27,146,5918001,,,,,,,2025-02-10,1,,,,,エイティーナイン,0
574,3120101071041,新規,0,2025-02-10,2025-02-10,株式会社辻農園,,株式会社,大阪府,富田林市,西板持町６丁目７番２４号,,27,214,5840048,,,,,,,2025-02-10,1,,,,,ツジノウエン,0
576,3120901050418,新規,0,2025-02-10,2025-02-10,グラン・リーオ株式会社,,株式会社,大阪府,豊中市,上野西３丁目４番８号,,27,203,5600011,,,,,,,2025-02-10,1,,,,,グランリーオ,0
584,3140001137345,新規,0,2025-02-10,2025-02-10,株式会社思心,,株式会社,兵庫県,尼崎市,椎堂１丁目２番２号,,28,202,6610952,,,,,,,2025-02-10,1,,,,,シシン,0
586,3140003021613,新規,0,2025-02-10,2025-02-10,合同会社ＭＡＴＣＨ,,合同会社,兵庫県,西宮市,下大市東町１６番４－５０２号,,28,204,6638004,,,,,,,2025-02-10,1,,,,,マッチ,0
598,3180003027961,新規,0,2025-02-10,2025-02-10,合同会社中野商事,,合同会社,愛知県,海部郡蟹江町,大字蟹江本町字ヤノ割３２番地１,,23,425,4970033,,,,,,,2025-02-10,1,,,,,ナカノショウジ,0
599,3180003027978,新規,0,2025-02-10,2025-02-10,合同会社たまりば,,合同会社,愛知県,豊明市,三崎町ゆたか台３１番地１モアグレース三崎町６０４号,,23,229,4701127,,,,,,,2025-02-10,1,,,,,タマリバ,0
600,3180005020948,新規,0,2025-02-10,2025-02-10,一般社団法人日本足相協会,,その他の設立登記法人,愛知県,名古屋市中区,栄３丁目７番４号トーシンサクラビル１０階,,23,106,4600008,,,,,,,2025-02-10,1,,,,,ニホンアシソウキョウカイ,0
604,3200005013718,新規,0,2025-02-10,2025-02-10,ＴＹＳ協同組合,,その他の設立登記法人,岐阜県,瑞穂市,十九条９８９番地３,,21,216,5010235,,,,,,,2025-02-10,1,,,,,ティーワイエス,0
610,3240003007049,新規,0,2025-02-10,2025-02-10,タニヤマフーズ合同会社,,合同会社,広島県,福山市,神辺町大字新湯野３－３９－１,,34,207,7202122,,,,,,,2025-02-10,1,,,,,タニヤマフーズ,0
611,3240003007057,新規,0,2025-02-10,2025-02-10,ＧＥＮ合同会社,,合同会社,広島県,広島市安佐南区,上安５丁目５－１９,,34,105,7310154,,,,,,,2025-02-10,1,,,,,ゲン,0
618,3290001108876,新規,0,2025-02-10,2025-02-10,株式会社ミズホ,,株式会社,福岡県,八女市,高塚１５３番地１,,40,210,8340034,,,,,,,2025-02-10,1,,,,,ミズホ,0
619,3290001108892,新規,0,2025-02-10,2025-02-10,透雫株式会社,,株式会社,福岡県,福岡市早良区,百道浜４丁目２９番７号,,40,137,8140001,,,,,,,2025-02-10,1,,,,,トウダ,0
629,3320003004574,新規,0,2025-02-10,2025-02-10,ねこっと合同会社,,合同会社,大分県,大分市,はなの森１０番地の７,,44,201,8700880,,,,,,,2025-02-10,1,,,,,,0
634,3360001034768,新規,0,2025-02-10,2025-02-10,株式会社ＮＥＷ　ＦＬＹ,,株式会社,沖縄県,名護市,宮里６丁目１４番１５号,,47,209,9050011,,,,,,,2025-02-10,1,,,,,ニューフライ,0
639,3380001035079,新規,0,2025-02-10,2025-02-10,株式会社きくち,,株式会社,福島県,西白河郡泉崎村,大字北平山字堂ノ下１２番地,,07,464,9690103,,,,,,,2025-02-10,1,,,,,キクチ,0
649,3430001093633,新規,0,2025-02-10,2025-02-10,株式会社ＴＫＮ,,株式会社,北海道,夕張郡栗山町,字旭台８３番地３,,01,429,0691507,,,,,,,2025-02-10,1,,,,,ティーケーエヌ,0
650,3430001093658,新規,0,2025-02-10,2025-02-10,株式会社クロウサギ,,株式会社,北海道,小樽市,星野町１６番１３号,,01,203,0470262,,,,,,,2025-02-10,1,,,,,クロウサギ,0
651,3430003017227,新規,0,2025-02-10,2025-02-10,Ｒｅａｌｉｚｅ合同会社,,合同会社,北海道,札幌市中央区,南五条西１５丁目２リズム医大前５０３号室,,01,101,0640805,,,,,,,2025-02-10,1,,,,,リアライズ,0
668,4010001252131,新規,0,2025-02-10,2025-02-10,ゴガン株式会社,,株式会社,東京都,文京区,音羽１丁目２３番１２－４１８号,,13,105,1120013,,,,,,,2025-02-10,1,,,,,ゴガン,0
677,4010401188000,新規,0,2025-02-10,2025-02-10,株式会社ワンアンドオンリー,,株式会社,東京都,港区,新橋４丁目１４番１ＡＵＮＢＬＤＧ４階,,13,103,1050004,,,,,,,2025-02-10,1,,,,,ワンアンドオンリー,0
678,4010401188017,新規,0,2025-02-10,2025-02-10,株式会社Ｓ・Ｌｉｍｉｔマネジメント,,株式会社,東京都,港区,六本木７丁目１８番５号,,13,103,1060032,,,,,,,2025-02-10,1,,,,,エスリミットマネジメント,0
679,4010401188082,新規,0,2025-02-10,2025-02-10,蕗空株式会社,,株式会社,東京都,港区,西新橋１丁目６番１１号,,13,103,1050003,,,,,,,2025-02-10,1,,,,,ロア,0
680,4010401188108,新規,0,2025-02-10,2025-02-10,ＭＭ　ＶＥＳＳＥＬ３株式会社,,株式会社,東京都,港区,虎ノ門１丁目１番１２号,,13,103,1050001,,,,,,,2025-02-10,1,,,,,エムエムベッセルスリー,0
681,4010405024069,新規,0,2025-02-10,2025-02-10,ジェイエスエフ・ホールディング特定目的会社,,その他の設立登記法人,東京都,港区,虎ノ門３丁目２２番１０－２０１号,,13,103,1050001,,,,,,,2025-02-10,1,,,,,ジェイエスエフホールディング,0
687,4010601066724,新規,0,2025-02-10,2025-02-10,株式会社Ｖｅｒｔｅｘ　Ｉｎｎｏｖａｔｉｏｎｓ,,株式会社,東京都,江東区,亀戸６丁目４６番１１号,,13,108,1360071,,,,,,,2025-02-10,1,,,,,ヴァーテックスイノベーションズ,0
688,4010601066749,新規,0,2025-02-10,2025-02-10,株式会社ＹＫ工業,,株式会社,東京都,江東区,南砂１丁目１２番２３号ＧＲＡＮＣＬＡＩＲ南砂４０１,,13,108,1360076,,,,,,,2025-02-10,1,,,,,ワイケーコウギョウ,0
689,4010601066765,新規,0,2025-02-10,2025-02-10,株式会社Ｔａｋｕ,,株式会社,東京都,江東区,越中島２丁目１０番６号,,13,108,1350044,,,,,,,2025-02-10,1,,,,,タク,0
690,4010803005281,新規,0,2025-02-10,2025-02-10,合同会社Ｘｂ,,合同会社,東京都,大田区,蒲田３丁目９番６号,,13,111,1440052,,,,,,,2025-02-10,1,,,,,クロスビー,0
695,4011101110526,新規,0,2025-02-10,2025-02-10,株式会社今野広大再生建築設計,,株式会社,東京都,新宿区,早稲田鶴巻町５１９番地早稲田ＫＭビル１０２,,13,104,1620041,,,,,,,2025-02-10,1,,,,,コンノコウダイサイセイケンチクセッケイ,0
696,4011101110600,新規,0,2025-02-10,2025-02-10,株式会社Ｏｌｉｖｉｅｒ　ｏｄｏｒａｎｔ,,株式会社,東京都,新宿区,西新宿３丁目３－１３－６Ｆ,,13,104,1600023,,,,,,,2025-02-10,1,,,,,オリヴィエオドラン,0
697,4011103015517,新規,0,2025-02-10,2025-02-10,合同会社サンキヨミ,,合同会社,東京都,新宿区,西新宿３丁目３番１３号西新宿水間ビル２Ｆ,,13,104,1600023,,,,,,,2025-02-10,1,,,,,サンキヨミ,0
699,4011301030326,新規,0,2025-02-10,2025-02-10,株式会社ｃｌａｓｓ　ｕｐ,,株式会社,東京都,杉並区,堀ノ内３丁目５０－１パークアクシス東高円寺２１０,,13,115,1660013,,,,,,,2025-02-10,1,,,,,クラスアップ,0
701,4011401026802,新規,0,2025-02-10,2025-02-10,万物生長株式会社,,株式会社,東京都,板橋区,仲宿６３番７号ＯＥＯｆｆｉｃｅＢｌｄｇ．１０８号,,13,119,1730005,,,,,,,2025-02-10,1,,,,,バンブツセイチョウ,0
706,4011601028409,新規,0,2025-02-10,2025-02-10,株式会社ＡＫＳ,,株式会社,東京都,練馬区,土支田３丁目２１番１０号ハーモニーテラス１０１,,13,120,1790076,,,,,,,2025-02-10,1,,,,,エーケーエス,0
708,4012301014252,新規,0,2025-02-10,2025-02-10,ＴＵＲＮＩＮＧ株式会社,,株式会社,東京都,町田市,野津田町１４６８番地１８,,13,209,1950063,,,,,,,2025-02-10,1,,,,,ターニング,0
710,4012401042764,新規,0,2025-02-10,2025-02-10,シッタージェット株式会社,,株式会社,東京都,調布市,菊野台３丁目１６－４,,13,208,1820007,,,,,,,2025-02-10,1,,,,,シッタージェット,0
722,4020001161190,新規,0,2025-02-10,2025-02-10,株式会社くいんす,,株式会社,神奈川県,川崎市中原区,中丸子６３１番地,,14,133,2110012,,,,,,,2025-02-10,1,,,,,クインス,0
723,4020001161199,新規,0,2025-02-10,2025-02-10,株式会社Ｋ‐ＳＮ　ＳＴＡＴＩＯＮ,,株式会社,神奈川県,川崎市川崎区,塩浜３丁目１２－１２－１,,14,131,2100826,,,,,,,2025-02-10,1,,,,,ケーエスエヌステーション,0
724,4020001161224,新規,0,2025-02-10,2025-02-10,ＣＯＮＮＥＣＴＥＸ株式会社,,株式会社,神奈川県,横浜市南区,南太田１丁目４４番２号佐々木ビル１階,,14,105,2320006,,,,,,,2025-02-10,1,,,,,コネクテックス,0
725,4020001161232,新規,0,2025-02-10,2025-02-10,テクネ株式会社,,株式会社,神奈川県,横浜市青葉区,つつじが丘２９番地１,,14,117,2270055,,,,,,,2025-02-10,1,,,,,テクネ,0
726,4020001161273,新規,0,2025-02-10,2025-02-10,Ｍｉｒａｉ　Ｐｒｏｐｅｒｔｙ　Ｍａｎａｇｅｍｅｎｔ株式会社,,株式会社,神奈川県,横浜市戸塚区,戸塚町４２２５－１５－１０１,,14,110,2440003,,,,,,,2025-02-10,1,,,,,ミライプロパティマネジメント,0
727,4020001161281,新規,0,2025-02-10,2025-02-10,株式会社煌月,,株式会社,神奈川県,横浜市鶴見区,鶴見中央４丁目４１番１０号松江ビル,,14,101,2300051,,,,,,,2025-02-10,1,,,,,コウゲツ,0
731,4020003027704,新規,0,2025-02-10,2025-02-10,合同会社Ｎグループホールディングス,,合同会社,神奈川県,横浜市都筑区,茅ケ崎南４丁目１５番１－５０７号,,14,118,2240037,,,,,,,2025-02-10,1,,,,,エヌグループホールディングス,0
732,4020003027753,新規,0,2025-02-10,2025-02-10,４Ｍ．ＦＡＣＴ合同会社,,合同会社,神奈川県,川崎市宮前区,潮見台８番１０－８１０号,,14,136,2160013,,,,,,,2025-02-10,1,,,,,ヨンエムファクト,0
734,4021003015566,新規,0,2025-02-10,2025-02-10,合同会社ナンシーズ,,合同会社,神奈川県,藤沢市,鵠沼海岸２丁目１６番２～２０５号,,14,205,2510037,,,,,,,2025-02-10,1,,,,,ナンシーズ,0
737,4030001164787,新規,0,2025-02-10,2025-02-10,株式会社リープエンタープライズ,,株式会社,埼玉県,八潮市,八潮７丁目１８番地４０,,11,234,3400815,,,,,,,2025-02-10,1,,,,,リープエンタープライズ,0
738,4030001164804,新規,0,2025-02-10,2025-02-10,ＣＥＬＬＦＬＥＸ　ＪＰ株式会社,,株式会社,埼玉県,春日部市,中央１丁目５４番地４タケヤビル２階,,11,214,3440067,,,,,,,2025-02-10,1,,,,,セルフレックスジェイピー,0
742,4030003026052,新規,0,2025-02-10,2025-02-10,合同会社スターライト,,合同会社,埼玉県,所沢市,大字上安松１０８６,,11,208,3590025,,,,,,,2025-02-10,1,,,,,スターライト,0
750,4040001137313,新規,0,2025-02-10,2025-02-10,つんどく株式会社,,株式会社,千葉県,船橋市,飯山満町３丁目１５２３番地１４,,12,204,2740822,,,,,,,2025-02-10,1,,,,,ツンドク,0
755,4050001056132,新規,0,2025-02-10,2025-02-10,株式会社荒川農園,,株式会社,茨城県,常総市,豊田２１８２番地,,08,211,3002705,,,,,,,2025-02-10,1,,,,,アラカワノウエン,0
756,4050001056165,新規,0,2025-02-10,2025-02-10,ＳｐｉｒｉｔＡｒｃ株式会社,,株式会社,茨城県,つくば市,研究学園４丁目６番地３,,08,220,3050817,,,,,,,2025-02-10,1,,,,,スピリットアーク,0
758,4050003009014,新規,0,2025-02-10,2025-02-10,合同会社ＫＥＡ　ＳＥＲＳＴＨ　Ｔｈａｉｌａｎｄ,,合同会社,茨城県,かすみがうら市,稲吉２丁目１９番１号メイテンガイテナント－２,,08,230,3150054,,,,,,,2025-02-10,1,,,,,ケイアセェトゥルタイランド,0
760,4070001042618,新規,0,2025-02-10,2025-02-10,ＰＲＩＭＥＸ　ＩＮＴＥＲＮＡＴＩＯＮＡＬ株式会社,,株式会社,群馬県,前橋市,城東町４丁目６番１１,,10,201,3710016,,,,,,,2025-02-10,1,,,,,プライメックスインターナショナル,0
766,4070003005787,新規,0,2025-02-10,2025-02-10,合同会社つなぐつなげる,,合同会社,群馬県,富岡市,内匠４７５番地３,,10,210,3702331,,,,,,,2025-02-10,1,,,,,ツナグツナゲル,0
767,4080001026751,新規,0,2025-02-10,2025-02-10,エスワイ２号株式会社,,株式会社,静岡県,静岡市清水区,草薙北２番１号,,22,103,4240883,,,,,,,2025-02-10,1,,,,,エスワイニゴウ,0
768,4080103003252,新規,0,2025-02-10,2025-02-10,合同会社ＬｉｏＬｉｏ,,合同会社,静岡県,富士市,今泉２４９８番地の２２,,22,210,4170001,,,,,,,2025-02-10,1,,,,,リオリオ,0
783,4120001272457,新規,0,2025-02-10,2025-02-10,株式会社ＹＤＭ,,株式会社,大阪府,大阪市鶴見区,今津南１丁目２番３８－１０１号,,27,124,5380043,,,,,,,2025-02-10,1,,,,,ワイディーエム,0
784,4120001272754,新規,0,2025-02-10,2025-02-10,株式会社大野メディカルサービス,,株式会社,大阪府,大阪市西区,新町２丁目５番１－９０６号,,27,106,5500013,,,,,,,2025-02-10,1,,,,,オオノメディカルサービス,0
785,4120001272795,新規,0,2025-02-10,2025-02-10,株式会社ＳＵＮＲＩＳＥ,,株式会社,大阪府,大阪市西区,阿波座１丁目１１番１９号（６０１）,,27,106,5500011,,,,,,,2025-02-10,1,,,,,サンライズ,0
786,4120001272804,新規,0,2025-02-10,2025-02-10,万栄株式会社,00137948,株式会社,大阪府,大阪市浪速区,芦原１丁目１番７号,,27,111,5560029,,,,,,,2025-02-10,1,,,,,マンエイ,0
788,4120003028568,新規,0,2025-02-10,2025-02-10,合同会社ＺＥＲＯコーポレーション,,合同会社,大阪府,大阪市北区,長柄中２丁目５番３０号,,27,127,5310062,,,,,,,2025-02-10,1,,,,,ゼロコーポレーション,0
789,4120005024788,新規,0,2025-02-10,2025-02-10,一般社団法人リリーフ大阪,,その他の設立登記法人,大阪府,大阪市都島区,都島本通３丁目１５番１９号,,27,102,5340021,,,,,,,2025-02-10,1,,,,,リリーフオオサカ,0
794,4120101071057,新規,0,2025-02-10,2025-02-10,株式会社ＥＭＴ,,株式会社,大阪府,堺市中区,平井１０２８番地７コーポアルメリア２０５号,,27,142,5998251,,,,,,,2025-02-10,1,,,,,イーエムティ,0
795,4120901050409,新規,0,2025-02-10,2025-02-10,株式会社ＡＸＩＳ　ＣＡＳＡ,,株式会社,大阪府,箕面市,粟生間谷西７丁目９番２３号,,27,220,5620023,,,,,,,2025-02-10,1,,,,,アクシスカーサ,0
796,4120901050417,新規,0,2025-02-10,2025-02-10,パイロットフィッシュ株式会社,,株式会社,大阪府,吹田市,南金田２丁目２４番１０－８０４号,,27,205,5640044,,,,,,,2025-02-10,1,,,,,パイロットフィッシュ,0
797,4120901050425,新規,0,2025-02-10,2025-02-10,ＭＩＳＴＯ株式会社,,株式会社,大阪府,茨木市,白川２丁目３番１４号の６,,27,211,5670832,,,,,,,2025-02-10,1,,,,,ミスト,0
798,4120905006687,新規,0,2025-02-10,2025-02-10,一般社団法人いけだエリアマネジメント,,その他の設立登記法人,大阪府,池田市,古江町３５番地,,27,204,5630015,,,,,,,2025-02-10,1,,,,,イケダエリアマネジメント,0
800,4122003003105,新規,0,2025-02-10,2025-02-10,川峰合同会社,,合同会社,大阪府,東大阪市,水走１丁目３－４５－３０２室,,27,227,5780921,,,,,,,2025-02-10,1,,,,,センフウ,0
819,4140001137344,新規,0,2025-02-10,2025-02-10,株式会社ＡＱＵＡＮＣＥ,,株式会社,兵庫県,たつの市,新宮町下莇原１３３番地,,28,229,6795161,,,,,,,2025-02-10,1,,,,,アクアンス,0
820,4140001137385,新規,0,2025-02-10,2025-02-10,株式会社Ｂ＆ａｄ,,株式会社,兵庫県,姫路市,北条口３丁目３３番地デュオプレステージ姫路駅前８０４号,,28,201,6700935,,,,,,,2025-02-10,1,,,,,ビーアンドアド,0
830,4180001165325,新規,0,2025-02-10,2025-02-10,ＡＤＶＩＫ株式会社,,株式会社,愛知県,名古屋市名東区,つつじが丘７０４番地,,23,115,4650017,,,,,,,2025-02-10,1,,,,,アドビック,0
831,4180001165374,新規,0,2025-02-10,2025-02-10,なごや絆不動産株式会社,,株式会社,愛知県,名古屋市緑区,大高町字砂畑２９番地の３,,23,114,4598001,,,,,,,2025-02-10,1,,,,,ナゴヤキズナフドウサン,0
832,4180001165390,新規,0,2025-02-10,2025-02-10,株式会社Ｕｎｉｅｘｒｏｓ,,株式会社,愛知県,名古屋市中区,上前津２丁目１１番１７号上前津パークマンション４０５号,,23,106,4600013,,,,,,,2025-02-10,1,,,,,ユニクロス,0
833,4180301039518,新規,0,2025-02-10,2025-02-10,株式会社岡崎雑貨販売,,株式会社,愛知県,岡崎市,康生通西３丁目１０,,23,202,4440059,,,,,,,2025-02-10,1,,,,,オカザキザッカハンバイ,0
835,4180305009657,新規,0,2025-02-10,2025-02-10,一般社団法人就労支援開発協会,,その他の設立登記法人,愛知県,豊田市,泉町３丁目２番地５５,,23,211,4710803,,,,,,,2025-02-10,1,,,,,シュウロウシエンカイハツキョウカイ,0
836,4190003004934,新規,0,2025-02-10,2025-02-10,合同会社ＡＫＲマネージメント,,合同会社,三重県,四日市市,北山町１５６８番地,,24,202,5128051,,,,,,,2025-02-10,1,,,,,エーケーアールマネージメント,0
841,4260001039900,新規,0,2025-02-10,2025-02-10,カレンノ株式会社,,株式会社,岡山県,岡山市南区,新福２丁目１番１６号,,33,104,7000943,,,,,,,2025-02-10,1,,,,,カレンノ,0
842,4270001009134,新規,0,2025-02-10,2025-02-10,株式会社ｖｉｓｉｏｎ　ｍａｒｋｅｒ,,株式会社,鳥取県,鳥取市,桂木７１－６,,31,201,6891104,,,,,,,2025-02-10,1,,,,,ビジョンマーカー,0
846,4290001108850,新規,0,2025-02-10,2025-02-10,和楽株式会社,,株式会社,福岡県,福岡市早良区,野芥３丁目１４番１７チェリーハウス野芥２０３,,40,137,8140171,,,,,,,2025-02-10,1,,,,,ワラク,0
847,4290001108883,新規,0,2025-02-10,2025-02-10,株式会社魚寅,,株式会社,福岡県,福岡市東区,多の津１丁目１２番２号,,40,131,8130034,,,,,,,2025-02-10,1,,,,,ウオトラ,0
848,4290001108900,新規,0,2025-02-10,2025-02-10,株式会社みろく,,株式会社,福岡県,福岡市南区,大楠２丁目１７番８号,,40,134,8150082,,,,,,,2025-02-10,1,,,,,ミロク,0
850,4290003016259,新規,0,2025-02-10,2025-02-10,合同会社ＭｅｍｏｒｙＦｉｌｍＣｏｍｐａｎｙ,,合同会社,福岡県,福岡市中央区,天神２丁目２番１２号Ｔ＆Ｊビルディング７Ｆ,,40,133,8100001,,,,,,,2025-02-10,1,,,,,メモリーフィルムカンパニー,0
853,4330003010785,新規,0,2025-02-10,2025-02-10,そしじ合同会社,,合同会社,熊本県,菊池郡菊陽町,大字原水５４７０番地２,,43,404,8691102,,,,,,,2025-02-10,1,,,,,ソシジ,0
862,4370001052223,新規,0,2025-02-10,2025-02-10,東洋ワークフィナンシャルパートナーズ株式会社,,株式会社,宮城県,仙台市青葉区,国分町１丁目７番１８号,,04,101,9800803,,,,,,,2025-02-10,1,,,,,トウヨウワークフィナンシャルパートナーズ,0
863,4370001052231,新規,0,2025-02-10,2025-02-10,ＴＢＫ株式会社,,株式会社,宮城県,名取市,飯野坂７丁目３番５号,,04,207,9811225,,,,,,,2025-02-10,1,,,,,ティビーケー,0
865,4380001035078,新規,0,2025-02-10,2025-02-10,ふくしまワーク株式会社,,株式会社,福島県,二本松市,表２丁目５０３番地,,07,210,9640901,,,,,,,2025-02-10,1,,,,,フクシマワーク,0
875,4430003017234,新規,0,2025-02-10,2025-02-10,合同会社Ｃａｂａｌ,,合同会社,北海道,札幌市北区,北十六条西４丁目１番１５号３Ｆ,,01,102,0010016,,,,,,,2025-02-10,1,,,,,キャバル,0
877,4470001020574,新規,0,2025-02-10,2025-02-10,株式会社メンテナンス工房,,株式会社,香川県,三豊市,豊中町下高野１３４８番地１,,37,208,7691508,,,,,,,2025-02-10,1,,,,,メンテナンスコウボウ,0
878,4470001020582,新規,0,2025-02-10,2025-02-10,株式会社三菱産業,,株式会社,香川県,高松市,三谷町５０７０番地,,37,201,7610450,,,,,,,2025-02-10,1,,,,,ミツビシサンギョウ,0
880,4490001010961,新規,0,2025-02-10,2025-02-10,Ｄ‐ＳＴＥＰ株式会社,,株式会社,高知県,高知市,塚ノ原４１３番地－３０５,,39,201,7800952,,,,,,,2025-02-10,1,,,,,ディーステップ,0
883,4500003003400,新規,0,2025-02-10,2025-02-10,阿原合同会社,,合同会社,愛媛県,大洲市,田口甲２３４８番地１玉井貸家８号,,38,207,7950063,,,,,,,2025-02-10,1,,,,,アワラ,0
897,5010001252139,新規,0,2025-02-10,2025-02-10,ＹＯＰヘルステック株式会社,,株式会社,東京都,千代田区,神田神保町１丁目４番地神保町１－４ビル４階,,13,101,1010051,,,,,,,2025-02-10,1,,,,,ワイオーピーヘルステック,0
898,5010003046150,新規,0,2025-02-10,2025-02-10,ＫＡＷＡＩＩ　ＮＯＶＡ合同会社,,合同会社,東京都,千代田区,外神田３丁目６番４号第一勧業信用組合秋葉原ビル５階ＷＯＲＸ－Ｋ２,,13,101,1010021,,,,,,,2025-02-10,1,,,,,カワイイノヴァ,0
899,5010003046357,新規,0,2025-02-10,2025-02-10,ＪＡＩＣ‐Ｂｒｉｎｃ合同会社,,合同会社,東京都,千代田区,九段北３丁目２番４号,,13,101,1020073,,,,,,,2025-02-10,1,,,,,ジャイクブリンク,0
900,5010003046365,新規,0,2025-02-10,2025-02-10,未来創電加太合同会社,,合同会社,東京都,千代田区,丸の内１丁目４番１号東京共同会計事務所内,,13,101,1000005,,,,,,,2025-02-10,1,,,,,ミライソウデンカダ,0
908,5010401188016,新規,0,2025-02-10,2025-02-10,エスリミットホールディングス株式会社,,株式会社,東京都,港区,六本木７丁目３番８号,,13,103,1060032,,,,,,,2025-02-10,1,,,,,エスリミットホールディングス,0
909,5010401188024,新規,0,2025-02-10,2025-02-10,株式会社ｈａｒｃｅｌｌ,,株式会社,東京都,港区,浜松町２丁目２番１５号浜松町ダイヤビル２Ｆ,,13,103,1050013,,,,,,,2025-02-10,1,,,,,ハーセル,0
910,5010401188032,新規,0,2025-02-10,2025-02-10,株式会社和心本舗,,株式会社,東京都,港区,赤坂２丁目１４番１１号天翔オフィス赤坂３０６,,13,103,1070052,,,,,,,2025-02-10,1,,,,,ワゴコロホンポ,0
911,5010401188073,新規,0,2025-02-10,2025-02-10,ＭＣＰ３５株式会社,,株式会社,東京都,港区,元赤坂１丁目１番８号株式会社赤坂国際会計内,,13,103,1070051,,,,,,,2025-02-10,1,,,,,エムシーピースリーファイブ,0
912,5010401188107,新規,0,2025-02-10,2025-02-10,株式会社Ｃｏｚｙ　Ｓｐａｃｅ,,株式会社,東京都,港区,台場１丁目３番２－１２０４号,,13,103,1350091,,,,,,,2025-02-10,1,,,,,コージースペース,0
915,5010403034317,新規,0,2025-02-10,2025-02-10,合同会社ＨＴＭ,,合同会社,東京都,港区,芝浦４丁目２２－１,,13,103,1080023,,,,,,,2025-02-10,1,,,,,エイチティーエム,0
916,5010403034358,新規,0,2025-02-10,2025-02-10,合同会社コアラ,,合同会社,東京都,港区,東新橋２丁目３番１７号モメント汐留１８０６,,13,103,1050021,,,,,,,2025-02-10,1,,,,,コアラ,0
917,5010501053598,新規,0,2025-02-10,2025-02-10,ＨＯＲＩＺＯＮ　ＨＯＬＤＩＮＧ　ＧＲＯＵＰ株式会社,,株式会社,東京都,台東区,東上野６丁目１番１７号東上野中央ビル８０１号室,,13,106,1100015,,,,,,,2025-02-10,1,,,,,ホライズンホールディンググループ,0
918,5010501053607,新規,0,2025-02-10,2025-02-10,ＭＫテック株式会社,,株式会社,東京都,台東区,東上野４丁目２０番１号,,13,106,1100015,,,,,,,2025-02-10,1,,,,,エムケーテック,0
922,5010601066731,新規,0,2025-02-10,2025-02-10,株式会社ＫＢＹ,,株式会社,東京都,江東区,扇橋３丁目７番１４－１４０１号,,13,108,1350011,,,,,,,2025-02-10,1,,,,,ケービーワイ,0
923,5010601066756,新規,0,2025-02-10,2025-02-10,株式会社ＥＳＧ,,株式会社,東京都,墨田区,亀沢２丁目２５番５号４Ｆ,,13,107,1300014,,,,,,,2025-02-10,1,,,,,イーエスジー,0
928,5010703007559,新規,0,2025-02-10,2025-02-10,合同会社そらたつみ,,合同会社,東京都,品川区,東大井３丁目２０番２４号,,13,109,1400011,,,,,,,2025-02-10,1,,,,,ソラタツミ,0
932,5011001167681,新規,0,2025-02-10,2025-02-10,株式会社ｐｒｏｄｚ,,株式会社,東京都,渋谷区,渋谷４丁目１番４号フラット緑ケ丘１０１,,13,113,1500002,,,,,,,2025-02-10,1,,,,,プロッズ,0
937,5011101110517,新規,0,2025-02-10,2025-02-10,ＭＣｏ　Ａｄｖｉｓｏｒｓ株式会社,,株式会社,東京都,新宿区,西新宿１丁目２６番２号新宿野村ビル３２階,,13,104,1600023,,,,,,,2025-02-10,1,,,,,エムコアドバイザー,0
941,5011501031692,新規,0,2025-02-10,2025-02-10,株式会社ＯＫ,,株式会社,東京都,荒川区,東日暮里６丁目６０番１０号,,13,118,1160014,,,,,,,2025-02-10,1,,,,,オーケー,0
945,5011601028408,新規,0,2025-02-10,2025-02-10,株式会社スタイルギア,,株式会社,東京都,練馬区,桜台１丁目７－７シルバービル４０２号,,13,120,1760002,,,,,,,2025-02-10,1,,,,,スタイルギア,0
947,5011701028051,新規,0,2025-02-10,2025-02-10,株式会社ＨＩＡ　ＪＡＰＡＮ,,株式会社,東京都,江戸川区,北小岩３丁目６番１６号,,13,123,1330051,,,,,,,2025-02-10,1,,,,,エイチアイエージャパン,0
956,5012403006964,新規,0,2025-02-10,2025-02-10,合同会社Ａ‐ｐｕｐａ,,合同会社,東京都,調布市,上石原１丁目３７－２アンベリール３０３,,13,208,1820035,,,,,,,2025-02-10,1,,,,,エーピューパ,0
957,5012701018703,新規,0,2025-02-10,2025-02-10,株式会社ｔｏｉｓｈｉ,,株式会社,東京都,清瀬市,竹丘１丁目１７番２６号６０５号室,,13,221,2040023,,,,,,,2025-02-10,1,,,,,トイシ,0
958,5012703003199,新規,0,2025-02-10,2025-02-10,ユナイト合同会社,,合同会社,東京都,東村山市,美住町２丁目９番地５９,,13,213,1890023,,,,,,,2025-02-10,1,,,,,ユナイト,0
961,5013303007490,新規,0,2025-02-10,2025-02-10,合同会社エーワイエス,,合同会社,東京都,豊島区,雑司が谷１丁目３３番１号,,13,116,1710032,,,,,,,2025-02-10,1,,,,,エーワイエス,0
966,5020001161280,新規,0,2025-02-10,2025-02-10,山村地所株式会社,,株式会社,神奈川県,横浜市泉区,和泉中央南４丁目２１番２３号,,14,116,2450023,,,,,,,2025-02-10,1,,,,,ヤマムラジショ,0
967,5020001161355,新規,0,2025-02-10,2025-02-10,株式会社Ｓａｋｕｒａ　Ｃｏｍｐａｓｓ,,株式会社,神奈川県,川崎市中原区,木月大町７番３０号,,14,133,2110031,,,,,,,2025-02-10,1,,,,,サクラコンパス,0
968,5020001161388,新規,0,2025-02-10,2025-02-10,Ｒｉｃｋｓ株式会社,,株式会社,神奈川県,川崎市麻生区,金程１丁目１１番６号,,14,137,2150006,,,,,,,2025-02-10,1,,,,,リックス,0
969,5020001161396,新規,0,2025-02-10,2025-02-10,株式会社Ｋ,,株式会社,神奈川県,横浜市西区,浅間町３丁目１７４番地１８Ｌｅ’ａ横濱西口弐番館１０２号室,,14,103,2200072,,,,,,,2025-02-10,1,,,,,ケイ,0
970,5020001161405,新規,0,2025-02-10,2025-02-10,株式会社ブリンク,,株式会社,神奈川県,川崎市麻生区,高石４丁目１４番７号,,14,137,2150003,,,,,,,2025-02-10,1,,,,,ブリンク,0
974,5020003027785,新規,0,2025-02-10,2025-02-10,ＬｕｃｋｙＣｈａｎＴｈａｒＪａｐａｎ合同会社,,合同会社,神奈川県,横浜市港南区,東永谷２丁目１３－５,,14,111,2330011,,,,,,,2025-02-10,1,,,,,ラッキーチャンダージャパン,0
975,5020003027810,新規,0,2025-02-10,2025-02-10,合同会社ＴＥＮＯＮ,,合同会社,神奈川県,横浜市神奈川区,星野町１０番地１ヒストリアレジデンス海舟２０５,,14,102,2210035,,,,,,,2025-02-10,1,,,,,テノン,0
976,5020003027827,新規,0,2025-02-10,2025-02-10,合同会社さつまシステム,,合同会社,神奈川県,横浜市西区,浅間町１丁目４番３号ウィザードビル４０２,,14,103,2200072,,,,,,,2025-02-10,1,,,,,サツマシステム,0
978,5021001084389,新規,0,2025-02-10,2025-02-10,株式会社Ｌｙｎｏｉｒａ,,株式会社,神奈川県,平塚市,岡崎６１７２－１１,,14,203,2591212,,,,,,,2025-02-10,1,,,,,リノイラ,0
979,5021001084447,新規,0,2025-02-10,2025-02-10,株式会社Ｃａｌｌａｌｉｌｙ,,株式会社,神奈川県,藤沢市,片瀬３丁目８－１８,,14,205,2510032,,,,,,,2025-02-10,1,,,,,カラーリリー,0
982,5021003015565,新規,0,2025-02-10,2025-02-10,合同会社ＡＣＴ,,合同会社,神奈川県,横須賀市,若宮台５番８号,,14,201,2390829,,,,,,,2025-02-10,1,,,,,エーシーティー,0
989,5030001164778,新規,0,2025-02-10,2025-02-10,株式会社オガノニワ,,株式会社,埼玉県,白岡市,下大崎１４２０番地,,11,246,3490203,,,,,,,2025-02-10,1,,,,,オガノニワ,0
990,5030001164786,新規,0,2025-02-10,2025-02-10,株式会社ＣＡＲＡＴ,,株式会社,埼玉県,さいたま市大宮区,浅間町２丁目２５番地フェスティビティ大宮浅間町１０３,,11,103,3300842,,,,,,,2025-02-10,1,,,,,カラット,0
993,5030003026051,新規,0,2025-02-10,2025-02-10,ｖｉｓｉｏｎ合同会社,,合同会社,埼玉県,越谷市,赤山本町５番地２ａｉビル６０１,,11,222,3430808,,,,,,,2025-02-10,1,,,,,ビジョン,0
994,5030003026084,新規,0,2025-02-10,2025-02-10,ＭＡＴＡ合同会社,,合同会社,埼玉県,さいたま市中央区,上落合１丁目９番１号与野ハウス１号棟１５１号室,,11,105,3380001,,,,,,,2025-02-10,1,,,,,マタ,0
995,5030003026092,新規,0,2025-02-10,2025-02-10,ＳｔｅｌｌａＳｕｐｐｏｒｔ合同会社,,合同会社,埼玉県,川口市,芝樋ノ爪２丁目１５番３号ＶｉｃｔｏｒｙＷａｖｅＨｏｎｄａ１０１号,,11,203,3330852,,,,,,,2025-02-10,1,,,,,ステラサポート,0
996,5050001056107,新規,0,2025-02-10,2025-02-10,Ｃｏ　Ｃｏ　Ｔｒａｄｉｎｇ株式会社,,株式会社,茨城県,つくば市,研究学園５丁目１１番地２パークハウスつくば研究学園けやきレジデンス１番館４０４号,,08,220,3050817,,,,,,,2025-02-10,1,,,,,ココトレーディング,0
997,5050001056156,新規,0,2025-02-10,2025-02-10,株式会社ＬＡＶＩＥ,,株式会社,茨城県,取手市,新取手５丁目９番４号,,08,217,3020031,,,,,,,2025-02-10,1,,,,,ラヴィ,0
999,5070001042617,新規,0,2025-02-10,2025-02-10,株式会社ＮＮＮ,,株式会社,群馬県,伊勢崎市,三和町３５２６番地３,,10,204,3720011,,,,,,,2025-02-10,1,,,,,エヌエヌエヌ,0
1003,5080101025280,新規,0,2025-02-10,2025-02-10,株式会社みる‐みる,,株式会社,静岡県,熱海市,春日町８番１８号,,22,205,4130005,,,,,,,2025-02-10,1,,,,,,0
1004,5080103003251,新規,0,2025-02-10,2025-02-10,合同会社ｂｌｕｅＢｅ,,合同会社,静岡県,沼津市,浅間町１２番地メゾン・グランツ沼津浅間２０７号,,22,203,4100886,,,,,,,2025-02-10,1,,,,,ブルービー,0
1011,5110003005658,新規,0,2025-02-10,2025-02-10,どんどんよくなる合同会社,,合同会社,新潟県,新潟市中央区,鐙西２丁目２８番２２号パープル・マウンテン２０９,,15,103,9500915,,,,,,,2025-02-10,1,,,,,ドンドンヨクナル,0
1013,5120001272729,新規,0,2025-02-10,2025-02-10,昆沢株式会社,,株式会社,大阪府,大阪市住之江区,中加賀屋２丁目２番２５号プレアール中加賀屋４Ｄ,,27,125,5590017,,,,,,,2025-02-10,1,,,,,コンサワ,0
1014,5120001272737,新規,0,2025-02-10,2025-02-10,株式会社ＰｈｉｌａｅＦｏｒｔｕｎｅ,,株式会社,大阪府,大阪市東住吉区,北田辺５丁目９番３６号ルンルン桃ケ池１０３室,,27,121,5460044,,,,,,,2025-02-10,1,,,,,フィラエフォーチューン,0
1015,5120001272778,新規,0,2025-02-10,2025-02-10,夏蛍株式会社,,株式会社,大阪府,大阪市生野区,新今里７丁目２番３－３０７号,,27,116,5440001,,,,,,,2025-02-10,1,,,,,ナツホタル,0
1020,5120101071064,新規,0,2025-02-10,2025-02-10,ＨＩＫＡＲＩ株式会社,,株式会社,大阪府,和泉市,池上町３丁目１２番２５号,,27,219,5940083,,,,,,,2025-02-10,1,,,,,ヒカリ,0
1021,5120103006274,新規,0,2025-02-10,2025-02-10,合同会社ＴＯＮＩＮＨＯ,,合同会社,大阪府,泉大津市,昭和町７番１９－５号,,27,206,5950036,,,,,,,2025-02-10,1,,,,,トニーニョ,0
1028,5122001038853,新規,0,2025-02-10,2025-02-10,株式会社細川工務店,,株式会社,大阪府,八尾市,中田３丁目５４番地の１６,,27,212,5810014,,,,,,,2025-02-10,1,,,,,ホソカワコウムテン,0
1029,5122001038878,新規,0,2025-02-10,2025-02-10,株式会社おうちサロン,,株式会社,大阪府,東大阪市,森河内東１丁目１２－２２,,27,227,5770062,,,,,,,2025-02-10,1,,,,,オウチサロン,0
1031,5122003003112,新規,0,2025-02-10,2025-02-10,ＨＨＣ合同会社,,合同会社,大阪府,東大阪市,水走１丁目３－４５－３０５室,,27,227,5780921,,,,,,,2025-02-10,1,,,,,エッチエッチシー,0
1032,5130001078935,新規,0,2025-02-10,2025-02-10,株式会社Ｋ・Ｋコーポレーション,,株式会社,京都府,京都市伏見区,久我森の宮町１４－６９,,26,109,6128495,,,,,,,2025-02-10,1,,,,,ケーケーコーポレーション,0
1034,5130005017286,新規,0,2025-02-10,2025-02-10,一般社団法人ぽのっく,,その他の設立登記法人,京都府,京都市下京区,本燈籠町２９－３,,26,106,6008086,,,,,,,2025-02-10,1,,,,,ポノック,0
1038,5140001137319,新規,0,2025-02-10,2025-02-10,西山自動車株式会社,,株式会社,兵庫県,加東市,木梨２１０番地１,,28,228,6731461,,,,,,,2025-02-10,1,,,,,ニシヤマジドウシャ,0
1039,5140001137343,新規,0,2025-02-10,2025-02-10,株式会社Ｆｌｅｕｒ,,株式会社,兵庫県,神戸市中央区,中山手通２丁目１０番１８サクセス北野ハンター坂１階,,28,110,6500004,,,,,,,2025-02-10,1,,,,,フルール,0
1044,5140003021644,新規,0,2025-02-10,2025-02-10,Ｍｕｎｏ　Ｊａｐａｎ合同会社,,合同会社,兵庫県,たつの市,揖保町東用１４７番地の３,,28,229,6794143,,,,,,,2025-02-10,1,,,,,ムーノジャパン,0
1056,5180001165365,新規,0,2025-02-10,2025-02-10,グラファイトオート株式会社,,株式会社,愛知県,春日井市,西山町２丁目９番地１４,,23,206,4860803,,,,,,,2025-02-10,1,,,,,グラファイトオート,0
1064,5180305009656,新規,0,2025-02-10,2025-02-10,一般社団法人Ｍｙさぽーとぷろじぇくと,,その他の設立登記法人,愛知県,知立市,新池３丁目５７番地,,23,225,4720005,,,,,,,2025-02-10,1,,,,,マイサポートプロジェクト,0
1066,5190001031979,新規,0,2025-02-10,2025-02-10,株式会社タチバナホールディングス,,株式会社,三重県,いなべ市,員弁町平古２６２番地,,24,214,5110212,,,,,,,2025-02-10,1,,,,,タチバナホールディングス,0
1079,5290001108965,新規,0,2025-02-10,2025-02-10,天耀キャリー株式会社,,株式会社,福岡県,福津市,西福間５丁目３０－１２,,40,224,8113219,,,,,,,2025-02-10,1,,,,,テンヨウキャリー,0
1087,5340003004744,新規,0,2025-02-10,2025-02-10,合同会社ＳＡＭ,,合同会社,鹿児島県,薩摩川内市,向田本町１７番２１号（川内不動産内）,,46,215,8950021,,,,,,,2025-02-10,1,,,,,エスエーエム,0
1092,5360003014675,新規,0,2025-02-10,2025-02-10,合同会社アシストコネクト,,合同会社,沖縄県,宜野湾市,大謝名１丁目３番２８号,,47,205,9012225,,,,,,,2025-02-10,1,,,,,アシストコネクト,0
1093,5370001052230,新規,0,2025-02-10,2025-02-10,株式会社ＳＡＷＡ,,株式会社,宮城県,仙台市泉区,将監１３丁目１２番７－１号,,04,105,9813132,,,,,,,2025-02-10,1,,,,,サワ,0
1096,5380001035085,新規,0,2025-02-10,2025-02-10,株式会社北町,,株式会社,福島県,郡山市,逢瀬町多田野字本郷１１８番地,,07,203,9630213,,,,,,,2025-02-10,1,,,,,キタマチ,0
1097,5380003005953,新規,0,2025-02-10,2025-02-10,アソシエイト合同会社,,合同会社,福島県,いわき市,好間町大利字西田５２番地の１,,07,204,9701147,,,,,,,2025-02-10,1,,,,,アソシエイト,0
1109,5470001020581,新規,0,2025-02-10,2025-02-10,ＵＮＣＬＥ　ＧＡＲＤＥＮ株式会社,,株式会社,香川県,高松市,伏石町２１３７番地１８,,37,201,7618071,,,,,,,2025-02-10,1,,,,,アンクルガーデン,0
1110,5470005006602,新規,0,2025-02-10,2025-02-10,ＮＰＯ法人アフリカの月と日,,その他の設立登記法人,香川県,高松市,丸の内６番２６－１４０２号アルファステイツ丸の内,,37,201,7600033,,,,,,,2025-02-10,1,,,,,アフリカノツキトヒ,0
1112,5480001012743,新規,0,2025-02-10,2025-02-10,株式会社たなか,,株式会社,徳島県,板野郡藍住町,東中富字北傍示２９番地１０,,36,403,7711222,,,,,,,2025-02-10,1,,,,,タナカ,0
1113,5480003002230,新規,0,2025-02-10,2025-02-10,リーベ合同会社,,合同会社,徳島県,徳島市,山城西４丁目１３－１沖浜記念館３Ｆ,,36,201,7708054,,,,,,,2025-02-10,1,,,,,,0
1117,5700150129150,新規,0,2025-02-10,2025-02-10,ＨＡＮＡ　ＡＵＴＯＭＡＲＴ,,外国会社等,茨城県,つくばみらい市,谷井田２４４９番地１１,,08,235,3002337,スリランカ民主社会主義共和国、ナウラ、ナリヤカナタ、アンバナ、Ｎｏ．４８／Ｋ,,,,,,2025-02-10,1,,,,,ハナオートマート,0
1125,6010001252006,新規,0,2025-02-10,2025-02-10,株式会社琥珀,,株式会社,東京都,中央区,佃２丁目９番１号,,13,102,1040051,,,,,,,2025-02-10,1,,,,,コハク,0
1126,6010001252138,新規,0,2025-02-10,2025-02-10,日本天穹ＡＩ株式会社,,株式会社,東京都,中央区,銀座６丁目１０－１ＧＩＮＺＡＳＩＸ１３Ｆ,,13,102,1040061,,,,,,,2025-02-10,1,,,,,ジャパンテンキュウエーアイ,0
1127,6010001252245,新規,0,2025-02-10,2025-02-10,株式会社ＴＥＡＭ第２０号,,株式会社,東京都,千代田区,丸の内２丁目７番２号,,13,101,1000005,,,,,,,2025-02-10,1,,,,,ティーイーエーエムダイニジュウゴウ,0
1129,6010003046364,新規,0,2025-02-10,2025-02-10,大栄レジデンシャルファンド２号合同会社,,合同会社,東京都,千代田区,丸の内１丁目４番１号東京共同会計事務所内,,13,101,1000005,,,,,,,2025-02-10,1,,,,,ダイエイレジデンシャルファンドニゴウ,0
1135,6010401188072,新規,0,2025-02-10,2025-02-10,ＭＣＰ３４株式会社,,株式会社,東京都,港区,元赤坂１丁目１番８号株式会社赤坂国際会計内,,13,103,1070051,,,,,,,2025-02-10,1,,,,,エムシーピースリーフォー,0
1136,6010401188106,新規,0,2025-02-10,2025-02-10,株式会社ＷｅｌｌＣｏＬａｂ,,株式会社,東京都,港区,虎ノ門４丁目１番１１号,,13,103,1050001,,,,,,,2025-02-10,1,,,,,ウェルコラボ,0
1138,6010403034316,新規,0,2025-02-10,2025-02-10,グラシア合同会社,,合同会社,東京都,港区,新橋２丁目２－３－４０２,,13,103,1050004,,,,,,,2025-02-10,1,,,,,グラシア,0
1139,6010405024018,新規,0,2025-02-10,2025-02-10,一般社団法人ＳｅｌｆＬｏｖｅ　Ａｃａｄｅｍｙ,,その他の設立登記法人,東京都,港区,南青山２丁目２番１５号,,13,103,1070062,,,,,,,2025-02-10,1,,,,,セルフラブアカデミー,0
1140,6010601066755,新規,0,2025-02-10,2025-02-10,元恒地所株式会社,,株式会社,東京都,江東区,豊洲５丁目１番１３号,,13,108,1350061,,,,,,,2025-02-10,1,,,,,モトヒサジショ,0
1141,6010603011379,新規,0,2025-02-10,2025-02-10,合同会社ゴールドスネーク,,合同会社,東京都,墨田区,錦糸３丁目４番１２号,,13,107,1300013,,,,,,,2025-02-10,1,,,,,ゴールドスネーク,0
1144,6010701047192,新規,0,2025-02-10,2025-02-10,Ｒｅｆｅｒｒｏｒ　Ｊａｐａｎ株式会社,,株式会社,東京都,品川区,北品川３丁目１番１号７０３号室,,13,109,1400001,,,,,,,2025-02-10,1,,,,,レフェラージャパン,0
1161,6011401026800,新規,0,2025-02-10,2025-02-10,株式会社ケイエスファクトリー,,株式会社,東京都,板橋区,若木１丁目１３番４－２０１号,,13,119,1740065,,,,,,,2025-02-10,1,,,,,ケイエスファクトリー,0
1162,6011401026809,新規,0,2025-02-10,2025-02-10,株式会社Ｌａｕｏｈｏ,,株式会社,東京都,板橋区,大原町４６番５－７０３号,,13,119,1740061,,,,,,,2025-02-10,1,,,,,ラウオポ,0
1171,6011701028050,新規,0,2025-02-10,2025-02-10,株式会社美ケア,,株式会社,東京都,江戸川区,小松川１丁目５番９－８０６号,,13,123,1320034,,,,,,,2025-02-10,1,,,,,ビケア,0
1176,6012403006963,新規,0,2025-02-10,2025-02-10,合同会社ＡＹキャピタル,,合同会社,東京都,小金井市,本町６丁目２－１０－１１１０,,13,210,1840004,,,,,,,2025-02-10,1,,,,,エーワイキャピタル,0
1179,6012803003627,新規,0,2025-02-10,2025-02-10,合同会社皇山,,合同会社,東京都,東大和市,南街２丁目１０４番地５グランドール東大和１０２号室,,13,220,2070014,,,,,,,2025-02-10,1,,,,,コウザン,0
1185,6020001161222,新規,0,2025-02-10,2025-02-10,株式会社ｌｉｔｔｌｅ　ｆｏｒｅｓｔ　ｃｏｍｐａｎｙ,,株式会社,神奈川県,川崎市川崎区,渡田新町２丁目３番１０号,,14,131,2100844,,,,,,,2025-02-10,1,,,,,リトルフォレストカンパニー,0
1186,6020001161247,新規,0,2025-02-10,2025-02-10,株式会社ＢｕＦＦ,,株式会社,神奈川県,横浜市港北区,岸根町４１３－６モチヤレジデンスＥ,,14,109,2220034,,,,,,,2025-02-10,1,,,,,バフ,0
1187,6020001161255,新規,0,2025-02-10,2025-02-10,株式会社Ｃｓａｒｄａｓ,,株式会社,神奈川県,横浜市港北区,大倉山７丁目２９番１号グリーンハイツ大倉山２０１,,14,109,2220037,,,,,,,2025-02-10,1,,,,,チャルダッシュ,0
1188,6020001161296,新規,0,2025-02-10,2025-02-10,株式会社ぐるぐる,,株式会社,神奈川県,横浜市神奈川区,金港町５－１４クアドリフォリオ８階,,14,102,2210056,,,,,,,2025-02-10,1,,,,,グルグル,0
1189,6020003027735,新規,0,2025-02-10,2025-02-10,合同会社ライフパートナー,,合同会社,神奈川県,横浜市神奈川区,神奈川２丁目８番地１メインステージ東神奈川７０２号,,14,102,2210045,,,,,,,2025-02-10,1,,,,,ライフパートナー,0
1193,6021001084438,新規,0,2025-02-10,2025-02-10,株式会社ＧＥＯ,,株式会社,神奈川県,相模原市南区,相南１丁目１－１１,,14,153,2520312,,,,,,,2025-02-10,1,,,,,ジオ,0
1194,6021003015556,新規,0,2025-02-10,2025-02-10,合同会社ハッピーマーケティング,,合同会社,神奈川県,厚木市,温水西２丁目１５番１２号,,14,212,2430039,,,,,,,2025-02-10,1,,,,,ハッピーマーケティング,0
1195,6021003015572,新規,0,2025-02-10,2025-02-10,Ｙ’ｓ　ｓｔｙｌｅ合同会社,,合同会社,神奈川県,厚木市,中町２丁目１－２厚木中央ビル３Ａ,,14,212,2430018,,,,,,,2025-02-10,1,,,,,ワイズスタイル,0
1202,6030001164810,新規,0,2025-02-10,2025-02-10,株式会社スマイル引越便,,株式会社,埼玉県,狭山市,大字水野４５７番地の６４,,11,215,3501317,,,,,,,2025-02-10,1,,,,,スマイルヒッコシビン,0
1208,6040001137344,新規,0,2025-02-10,2025-02-10,株式会社杏,,株式会社,千葉県,松戸市,日暮４丁目１１番地の２２,,12,207,2702253,,,,,,,2025-02-10,1,,,,,アンズ,0
1210,6040003026818,新規,0,2025-02-10,2025-02-10,合同会社Ｖｉｃｔｏｒｙ,,合同会社,千葉県,千葉市稲毛区,園生町１３６６番地１ウィズ稲毛４１３号,,12,103,2630051,,,,,,,2025-02-10,1,,,,,ビクトリー,0
1219,6050001056163,新規,0,2025-02-10,2025-02-10,ｍａｍｅ不動産株式会社,,株式会社,茨城県,取手市,藤代７４９番地４９,,08,217,3001512,,,,,,,2025-02-10,1,,,,,マメフドウサン,0
1220,6050003009020,新規,0,2025-02-10,2025-02-10,合同会社マツダファーム,,合同会社,茨城県,常陸太田市,岡田町２０７２番地２,,08,212,3130031,,,,,,,2025-02-10,1,,,,,マツダファーム,0
1224,6060001037897,新規,0,2025-02-10,2025-02-10,株式会社善大,,株式会社,栃木県,鹿沼市,みなみ町８番地８４,,09,205,3220524,,,,,,,2025-02-10,1,,,,,ヨシヒロ,0
1225,6070003005785,新規,0,2025-02-10,2025-02-10,グンセイ合同会社,,合同会社,群馬県,伊勢崎市,八斗島町１５９８番地７,,10,204,3720827,,,,,,,2025-02-10,1,,,,,グンセイ,0
1240,6120001272653,新規,0,2025-02-10,2025-02-10,吉祥虹光株式会社,,株式会社,大阪府,大阪市中央区,日本橋１丁目１５番８号吉雅クレシェンド１０１号,,27,128,5420073,,,,,,,2025-02-10,1,,,,,キッショウコウコウ,0
1242,6120003028574,新規,0,2025-02-10,2025-02-10,合同会社ミルトス企画,,合同会社,大阪府,大阪市中央区,南船場３丁目２番２２号,,27,128,5420081,,,,,,,2025-02-10,1,,,,,ミルトスキカク,0
1243,6120003028590,新規,0,2025-02-10,2025-02-10,合同会社Ｍａｎｇｏ　Ｓｉａｍ,,合同会社,大阪府,大阪市東淀川区,東中島１丁目１１番７号ノアーズアーク新大阪２Ｂ号,,27,114,5330033,,,,,,,2025-02-10,1,,,,,マンゴシアム,0
1247,6120101071022,新規,0,2025-02-10,2025-02-10,株式会社常磐技研,,株式会社,大阪府,堺市北区,長曽根町１２３２番地,,27,146,5918025,,,,,,,2025-02-10,1,,,,,トキワギケン,0
1248,6120101071055,新規,0,2025-02-10,2025-02-10,株式会社総建興業,,株式会社,大阪府,泉佐野市,元町１７番２号,,27,213,5980056,,,,,,,2025-02-10,1,,,,,ソウケンコウギョウ,0
1250,6120103006273,新規,0,2025-02-10,2025-02-10,合同会社ＲＡＫＵ．Ｒｅ,,合同会社,大阪府,松原市,上田２丁目５番８号,,27,217,5800016,,,,,,,2025-02-10,1,,,,,ラクレ,0
1251,6120901050415,新規,0,2025-02-10,2025-02-10,株式会社ＦＵＮ‐ＴＵＲＥ　ＰＲＯＤＵＣＴＳ,,株式会社,大阪府,摂津市,鳥飼銘木町１１番８号,,27,224,5660063,,,,,,,2025-02-10,1,,,,,ファンチャープロダクツ,0
1252,6120901050423,新規,0,2025-02-10,2025-02-10,株式会社ダイネンサポート,,株式会社,大阪府,摂津市,香露園１８番３号,,27,224,5660034,,,,,,,2025-02-10,1,,,,,ダイネンサポート,0
1255,6122003003111,新規,0,2025-02-10,2025-02-10,ＬＳＴ合同会社,,合同会社,大阪府,東大阪市,水走１丁目３－４５－３０７室,,27,227,5780921,,,,,,,2025-02-10,1,,,,,エルエスティー,0
1264,6140003021635,新規,0,2025-02-10,2025-02-10,ＫＳＹ合同会社,,合同会社,兵庫県,神戸市中央区,磯辺通１丁目１番１８号カサベラ国際プラザビル７０７号室,,28,110,6510084,,,,,,,2025-02-10,1,,,,,ケイエスワイ,0
1272,6180001165348,新規,0,2025-02-10,2025-02-10,テナントメイク株式会社,,株式会社,愛知県,名古屋市中区,丸の内３丁目６番１７号,,23,106,4600002,,,,,,,2025-02-10,1,,,,,テナントメイク,0
1273,6180001165364,新規,0,2025-02-10,2025-02-10,株式会社Ｄ．Ｂ．Ａ,,株式会社,愛知県,名古屋市中区,錦２丁目１７番３０号河越ビル９０１,,23,106,4600003,,,,,,,2025-02-10,1,,,,,ドラゴンズブルーエージェンシー,0
1274,6180001165372,新規,0,2025-02-10,2025-02-10,株式会社二宮商店,,株式会社,愛知県,名古屋市東区,東大曽根町３番３号,,23,102,4610022,,,,,,,2025-02-10,1,,,,,ニノミヤショウテン,0
1275,6180001165380,新規,0,2025-02-10,2025-02-10,株式会社シンコー,,株式会社,愛知県,愛西市,北一色町昭和１９番地,,23,232,4960905,,,,,,,2025-02-10,1,,,,,シンコー,0
1276,6180001165389,新規,0,2025-02-10,2025-02-10,株式会社ジョン工業,,株式会社,愛知県,名古屋市緑区,神の倉４丁目１４９番地の１４,,23,114,4580812,,,,,,,2025-02-10,1,,,,,ジョンコウギョウ,0
1282,6210005010182,新規,0,2025-02-10,2025-02-10,特定非営利活動法人ふくいＳＭＩＬＥアクティ部,,その他の設立登記法人,福井県,越前市,中央２丁目７番１９号,,18,209,9150814,,,,,,,2025-02-10,1,,,,,フクイスマイルアクティブ,0
1284,6220001026487,新規,0,2025-02-10,2025-02-10,株式会社ＫＫ外装,,株式会社,石川県,金沢市,大野町４丁目ワ４４番地１,,17,201,9200331,,,,,,,2025-02-10,1,,,,,ケーケーガイソウ,0
1293,6260003005056,新規,0,2025-02-10,2025-02-10,合同会社大吉,,合同会社,岡山県,岡山市南区,福富東２丁目３３番２７号,,33,104,7028033,,,,,,,2025-02-10,1,,,,,ダイキチ,0
1295,6280001009354,新規,0,2025-02-10,2025-02-10,株式会社プレイス,,株式会社,島根県,松江市,天神町２４番地,,32,201,6900064,,,,,,,2025-02-10,1,,,,,プレイス,0
1299,6290001108898,新規,0,2025-02-10,2025-02-10,そして株式会社,,株式会社,福岡県,福岡市中央区,平和３丁目１５番１０号,,40,133,8100016,,,,,,,2025-02-10,1,,,,,ソシテ,0
1300,6290001108907,新規,0,2025-02-10,2025-02-10,雅グローバルデザイン株式会社,,株式会社,福岡県,福岡市博多区,博多駅前１丁目５Ｆ－Ｂ,,40,132,8120011,,,,,,,2025-02-10,1,,,,,ミヤビグローバルデザイン,0
1302,6290003016380,新規,0,2025-02-10,2025-02-10,合同会社ネクストステージ,,合同会社,福岡県,飯塚市,蓮台寺９８３番地３,00137954,40,205,8200048,,,,,,,2025-02-10,1,,,,,ネクストステージ,0
1306,6290801031259,新規,0,2025-02-10,2025-02-10,株式会社きくや,,株式会社,福岡県,田川郡福智町,神崎１０２２番地２８,,40,610,8221202,,,,,,,2025-02-10,1,,,,,キクヤ,0
1312,6320001020934,新規,0,2025-02-10,2025-02-10,株式会社ユキデンキ,,株式会社,大分県,大分市,大字中戸次１３１５番地の３,,44,201,8797761,,,,,,,2025-02-10,1,,,,,ユキデンキ,0
1318,6340001027110,新規,0,2025-02-10,2025-02-10,株式会社ＥＫＯＶＩＡ,,株式会社,鹿児島県,鹿屋市,川東町７０５１番地１,,46,203,8930031,,,,,,,2025-02-10,1,,,,,エコビア,0
1319,6340003004743,新規,0,2025-02-10,2025-02-10,合同会社久保建築設計室,,合同会社,鹿児島県,大島郡瀬戸内町,大字古仁屋字船津１３番地,,46,525,8941506,,,,,,,2025-02-10,1,,,,,クボケンチクセッケイシツ,0
1321,6360001034765,新規,0,2025-02-10,2025-02-10,株式会社論樹,,株式会社,沖縄県,宮古島市,平良字下里５７０番地２,,47,214,9060013,,,,,,,2025-02-10,1,,,,,ロンジュ,0
1330,6380001035076,新規,0,2025-02-10,2025-02-10,株式会社ＵＯＳＨＯ,,株式会社,福島県,いわき市,常磐湯本町天王崎１９４番地,,07,204,9728321,,,,,,,2025-02-10,1,,,,,ウオショウ,0
1331,6380001035084,新規,0,2025-02-10,2025-02-10,株式会社すずきファーム,,株式会社,福島県,喜多方市,上三宮町上三宮字籬山５７９番地,,07,208,9660931,,,,,,,2025-02-10,1,,,,,スズキファーム,0
1345,6430001093655,新規,0,2025-02-10,2025-02-10,昌栄タイヤセンター株式会社,,株式会社,北海道,苫小牧市,新明町１丁目６番３号,,01,213,0530055,,,,,,,2025-02-10,1,,,,,ショウエイタイヤセンター,0
1347,6430003017265,新規,0,2025-02-10,2025-02-10,合同会社カワカミ電工,,合同会社,北海道,札幌市中央区,南十七条西１３丁目１番２－３０１号,,01,101,0640917,,,,,,,2025-02-10,1,,,,,カワカミデンコウ,0
1352,6470001020580,新規,0,2025-02-10,2025-02-10,国翔産業株式会社,,株式会社,香川県,綾歌郡綾川町,羽床下字井手下３６番地３,,37,387,7612308,,,,,,,2025-02-10,1,,,,,,0
1353,6480001012742,新規,0,2025-02-10,2025-02-10,株式会社メゾンレーヴル,,株式会社,徳島県,徳島市,国府町日開４３８番地１,,36,201,7793117,,,,,,,2025-02-10,1,,,,,メゾンレーヴル,0
1365,7010001252120,新規,0,2025-02-10,2025-02-10,株式会社ＥＮＥＲＧＩＺＥ,,株式会社,東京都,中央区,新富２丁目１３番１号栄ビル３階,,13,102,1040041,,,,,,,2025-02-10,1,,,,,エナジャイズ,0
1366,7010001252244,新規,0,2025-02-10,2025-02-10,株式会社ＴＥＡＭ第２１号,,株式会社,東京都,千代田区,丸の内２丁目７番２号,,13,101,1000005,,,,,,,2025-02-10,1,,,,,ティーイーエーエムダイニジュウイチゴウ,0
1368,7010003046289,新規,0,2025-02-10,2025-02-10,ライフアップパートナーズ合同会社,,合同会社,東京都,千代田区,有楽町１丁目６番３号日比谷頴川ビル,,13,101,1000006,,,,,,,2025-02-10,1,,,,,ライフアップパートナーズ,0
1372,7010401188022,新規,0,2025-02-10,2025-02-10,株式会社ｔｏｇｅｔｈｅｒ,,株式会社,東京都,港区,新橋１丁目１８－１９－７Ｆ,,13,103,1050004,,,,,,,2025-02-10,1,,,,,トゥギャザー,0
1373,7010401188071,新規,0,2025-02-10,2025-02-10,ＭＣＰ３３株式会社,,株式会社,東京都,港区,元赤坂１丁目１番８号株式会社赤坂国際会計内,,13,103,1070051,,,,,,,2025-02-10,1,,,,,エムシーピースリースリー,0
1374,7010401188146,新規,0,2025-02-10,2025-02-10,株式会社ｐｉｕ　ａｎｉｍａｔｏ,,株式会社,東京都,港区,北青山１丁目３番１号アールキューブ青山３階,,13,103,1070061,,,,,,,2025-02-10,1,,,,,ピウアニマート,0
1377,7010403034249,新規,0,2025-02-10,2025-02-10,合同会社Ｌｉｆｅｍａｔｅ　Ｒｅａｌ　Ｅｓｔａｔｅ３,,合同会社,東京都,港区,南青山１丁目１番１号新青山ビル東館１０階,,13,103,1070062,,,,,,,2025-02-10,1,,,,,ライフメイトリアルエステートスリー,0
1378,7010403034323,新規,0,2025-02-10,2025-02-10,合同会社ＮＥＲＩＮＥ,,合同会社,東京都,港区,赤坂２丁目１３番７号赤坂キヨシビル３階,,13,103,1070052,,,,,,,2025-02-10,1,,,,,ネリネ,0
1379,7010403034356,新規,0,2025-02-10,2025-02-10,合同会社ＫＡＩＳＥＲ　ＣＨＩＥＦＳ,,合同会社,東京都,港区,赤坂８丁目１２番４－４０３号,,13,103,1070052,,,,,,,2025-02-10,1,,,,,カイザーチーフス,0
1380,7010405024009,新規,0,2025-02-10,2025-02-10,一般社団法人ＴＳＵＭＡＭＩＺＡＩＫＵ　ＪＡＰＡＮ,,その他の設立登記法人,東京都,港区,北青山２丁目１２－４Ｅ’ｓ青山１Ｂ,,13,103,1070061,,,,,,,2025-02-10,1,,,,,ツマミザイクジャパン,0
1382,7010501053596,新規,0,2025-02-10,2025-02-10,株式会社Ｍｒ．Ｌｅｅｅｅ,,株式会社,東京都,台東区,台東４丁目１－４ミツバビル３階,,13,106,1100016,,,,,,,2025-02-10,1,,,,,ミスターリー,0
1384,7010601066754,新規,0,2025-02-10,2025-02-10,株式会社Ｋ＆Ａ,,株式会社,東京都,江東区,清澄３丁目１０－４,,13,108,1350024,,,,,,,2025-02-10,1,,,,,,0
1387,7010701047134,新規,0,2025-02-10,2025-02-10,株式会社オーベスト,,株式会社,東京都,品川区,東大井１丁目１１番２５－１８０５号,,13,109,1400011,,,,,,,2025-02-10,1,,,,,オーベスト,0
1388,7010801035823,新規,0,2025-02-10,2025-02-10,ＯｈＧａｍｅｒｓ株式会社,,株式会社,東京都,大田区,東海３丁目７番３号東海ビル２１４室,,13,111,1430001,,,,,,,2025-02-10,1,,,,,オーゲーマーズ,0
1389,7010801035831,新規,0,2025-02-10,2025-02-10,ロックフィット株式会社,,株式会社,東京都,大田区,西蒲田７丁目４番４号小山第二ビル６Ｆ,,13,111,1440051,,,,,,,2025-02-10,1,,,,,ロックフィット,0
1397,7010903009659,新規,0,2025-02-10,2025-02-10,Ｍ　Ｐｌｕｓ　Ｉｎｖｅｓｔｍｅｎｔ合同会社,,合同会社,東京都,世田谷区,若林３丁目３５番１４号長井マンション２０８号室,,13,112,1540023,,,,,,,2025-02-10,1,,,,,エムプラスインベストメント,0
1404,7011001167440,新規,0,2025-02-10,2025-02-10,株式会社Ｄｏ３＆Ｃｏ,,株式会社,東京都,渋谷区,渋谷２丁目１９－１５宮益坂ビルディング６０９,,13,113,1500002,,,,,,,2025-02-10,1,,,,,ドサンコ,0
1405,7011001167713,新規,0,2025-02-10,2025-02-10,ＥＮｓｐｉｒｅ株式会社,,株式会社,東京都,渋谷区,渋谷２丁目１９－１５宮益坂ビルディング６０９,,13,113,1500002,,,,,,,2025-02-10,1,,,,,エンスパイア,0
1412,7011101110523,新規,0,2025-02-10,2025-02-10,株式会社ＣｏＴｏＭａ,,株式会社,東京都,新宿区,新宿３丁目５番６号キュープラザ新宿三丁目４Ｆ,,13,104,1600022,,,,,,,2025-02-10,1,,,,,コトマ,0
1417,7011401026808,新規,0,2025-02-10,2025-02-10,御楚松ＷＯＲＫＳ株式会社,,株式会社,東京都,板橋区,赤塚３丁目１番５号メゾンベルシオンＢ２０２,,13,119,1750092,,,,,,,2025-02-10,1,,,,,オソマツワークス,0
1418,7011403004613,新規,0,2025-02-10,2025-02-10,合同会社如月企画,,合同会社,東京都,板橋区,大和町１３－１７－３０５,,13,119,1730012,,,,,,,2025-02-10,1,,,,,キサラギキカク,0
1420,7011703004123,新規,0,2025-02-10,2025-02-10,合同会社ＵＮＩＶＥＲＳＡＬ,,合同会社,東京都,江戸川区,南小岩８丁目１４番８号第一金正ビル４０１号室,,13,123,1330056,,,,,,,2025-02-10,1,,,,,ユニバーサル,0
1423,7011801045606,新規,0,2025-02-10,2025-02-10,株式会社ココカウコム,,株式会社,東京都,葛飾区,西水元６丁目２２番１５号２Ｆ,,13,122,1250031,,,,,,,2025-02-10,1,,,,,ココカウコム,0
1424,7012803003626,新規,0,2025-02-10,2025-02-10,合同会社Ｐｅａｋｙ　Ｂｅａｒ,,合同会社,東京都,立川市,栄町５丁目５０番地の８メーア・グリューネン２０５号,,13,202,1900003,,,,,,,2025-02-10,1,,,,,ピーキーベア,0
1432,7020001161171,新規,0,2025-02-10,2025-02-10,株式会社日本国際文化交流促進会,,株式会社,神奈川県,横浜市中区,曙町５丁目６９番地４ダイアパレス横浜阪東橋１００６号室,,14,104,2310057,,,,,,,2025-02-10,1,,,,,ニホンコクサイブンカコウリュウソクシンカイ,0
1433,7020001161238,新規,0,2025-02-10,2025-02-10,株式会社ＲＡ,,株式会社,神奈川県,横浜市神奈川区,栄町１１番地９ライオンズマンション横浜７０２,,14,102,2210052,,,,,,,2025-02-10,1,,,,,アールエー,0
1434,7020001161246,新規,0,2025-02-10,2025-02-10,株式会社ＬｕｃｋｙＲｉｓｅ,,株式会社,神奈川県,川崎市宮前区,犬蔵３丁目１６番１－１０２号,,14,136,2160011,,,,,,,2025-02-10,1,,,,,ラッキーライズ,0
1435,7020001161254,新規,0,2025-02-10,2025-02-10,株式会社Ｂｌｏｏｍｉｅ,,株式会社,神奈川県,横浜市都筑区,中川中央１丁目２１番３号２０１号室,,14,118,2240003,,,,,,,2025-02-10,1,,,,,ブルーミー,0
1446,7020003027734,新規,0,2025-02-10,2025-02-10,合同会社鎌倉ハム,,合同会社,神奈川県,横浜市保土ケ谷区,法泉３丁目１５番２１号,,14,106,2400032,,,,,,,2025-02-10,1,,,,,カマクラハム,0
1447,7020003027841,新規,0,2025-02-10,2025-02-10,合同会社ＭＲＮ,,合同会社,神奈川県,川崎市川崎区,宮本町６番地２センター川崎マーク・レジデンス８０４,,14,131,2100004,,,,,,,2025-02-10,1,,,,,エムアールエヌ,0
1451,7021001084445,新規,0,2025-02-10,2025-02-10,株式会社Ｌｉｎｋ,,株式会社,神奈川県,相模原市中央区,南橋本３丁目９番６号久野ビル１０１,,14,152,2520253,,,,,,,2025-02-10,1,,,,,リンク,0
1452,7021001084453,新規,0,2025-02-10,2025-02-10,サイエンスＡＳＳＢ株式会社,,株式会社,神奈川県,藤沢市,亀井野１０３１番地の８,,14,205,2520813,,,,,,,2025-02-10,1,,,,,サイエンスエエスエスビ,0
1458,7021003015563,新規,0,2025-02-10,2025-02-10,合同会社ｂｉｏｐｈｉｌｉａ,,合同会社,神奈川県,鎌倉市,台１４２０番地,,14,204,2470061,,,,,,,2025-02-10,1,,,,,バイオフィリア,0
1459,7021003015571,新規,0,2025-02-10,2025-02-10,合同会社ＴＯＷＥＲ,,合同会社,神奈川県,平塚市,大神３丁目２番３９号,,14,203,2540012,,,,,,,2025-02-10,1,,,,,タワー,0
1463,7030001164801,新規,0,2025-02-10,2025-02-10,株式会社一心電工,,株式会社,埼玉県,さいたま市浦和区,岸町７丁目７番９－９０２号,,11,107,3300064,,,,,,,2025-02-10,1,,,,,イッシンデンコウ,0
1466,7030003026074,新規,0,2025-02-10,2025-02-10,ＭＹＲアセット合同会社,,合同会社,埼玉県,さいたま市中央区,新中里５丁目２４番１号,,11,105,3380011,,,,,,,2025-02-10,1,,,,,エムワイアールアセット,0
1467,7030003026090,新規,0,2025-02-10,2025-02-10,合同会社望月商事,,合同会社,埼玉県,北足立郡伊奈町,寿４丁目６０番地１号－２０１,,11,301,3620807,,,,,,,2025-02-10,1,,,,,モチヅキショウジ,0
1484,7060001037896,新規,0,2025-02-10,2025-02-10,株式会社Ｐａｒａｄｏｘ,,株式会社,栃木県,小山市,大字羽川８２０番地５,,09,208,3230012,,,,,,,2025-02-10,1,,,,,パラドックス,0
1492,7070005010353,新規,0,2025-02-10,2025-02-10,医療法人社団健眼会,,その他の設立登記法人,群馬県,高崎市,八島町２２２番地高崎モントレー５階,,10,202,3700849,,,,,,,2025-02-10,1,,,,,ケンガンカイ,0
1496,7080401027727,新規,0,2025-02-10,2025-02-10,株式会社セカイエ,,株式会社,静岡県,浜松市中央区,篠ケ瀬町８０１番地の１,,22,138,4350042,,,,,,,2025-02-10,1,,,,,セカイエ,0
1497,7080401027735,新規,0,2025-02-10,2025-02-10,未来創建株式会社,,株式会社,静岡県,浜松市中央区,新橋町２２番地の９,,22,138,4328058,,,,,,,2025-02-10,1,,,,,ミライソウケン,0
1507,7120001271299,新規,0,2025-02-10,2025-02-10,株式会社ＭＹＮＹＡＴ,,株式会社,大阪府,大阪市中央区,心斎橋筋２丁目３番７号ロイヤル北川ビル１Ｆ５号,,27,128,5420085,,,,,,,2025-02-10,1,,,,,マイニャト,0
1515,7120005024785,新規,0,2025-02-10,2025-02-10,一般社団法人大阪福祉振興会,,その他の設立登記法人,大阪府,大阪市西成区,梅南２丁目４－２７,,27,122,5570033,,,,,,,2025-02-10,1,,,,,オオサカフクシシンコウカイ,0
1517,7120101071013,新規,0,2025-02-10,2025-02-10,株式会社Ｋ‐ＰＯＣＫＥＴ,,株式会社,大阪府,富田林市,藤沢台６丁目１０番２９号,,27,214,5840071,,,,,,,2025-02-10,1,,,,,ケーポケット,0
1518,7120101071021,新規,0,2025-02-10,2025-02-10,株式会社Ｂ,,株式会社,大阪府,堺市西区,鳳西町１丁８０番地１サングレールフェニング４０１号,,27,144,5938326,,,,,,,2025-02-10,1,,,,,ビー,0
1519,7120101071054,新規,0,2025-02-10,2025-02-10,株式会社カネスケ工務店,,株式会社,大阪府,堺市西区,浜寺船尾町西２－２５７－２,,27,144,5930000,,,,,,,2025-02-10,1,,,,,カネスケコウムテン,0
1523,7120901050414,新規,0,2025-02-10,2025-02-10,株式会社Ｃｉｒｃｒｅｗ,,株式会社,大阪府,茨木市,駅前３丁目６番２号２Ｆ,,27,211,5670888,,,,,,,2025-02-10,1,,,,,サークル,0
1530,7122003003110,新規,0,2025-02-10,2025-02-10,ＴＲ　ＴＲＡＤＩＮＧ合同会社,,合同会社,大阪府,八尾市,高美町７丁目３－５,,27,212,5810017,,,,,,,2025-02-10,1,,,,,ティーピィートレーディング,0
1531,7122003003119,新規,0,2025-02-10,2025-02-10,ＨＰＳ合同会社,,合同会社,大阪府,東大阪市,菱屋西１丁目１５番１１号,,27,227,5770807,,,,,,,2025-02-10,1,,,,,エイチピーエス,0
1546,7140003021634,新規,0,2025-02-10,2025-02-10,ｓｏｇｏｏｄｓ．ｎｅｔ合同会社,,合同会社,兵庫県,神戸市中央区,北長狭通７丁目１番２７号,,28,110,6500012,,,,,,,2025-02-10,1,,,,,ソーグッズネット,0
1550,7160001026526,新規,0,2025-02-10,2025-02-10,株式会社Ｋ‐ＣＲＡＦＴ,,株式会社,滋賀県,彦根市,大橋町３９番地１,,25,202,5220034,,,,,,,2025-02-10,1,,,,,ケークラフト,0
1560,7180001165363,新規,0,2025-02-10,2025-02-10,株式会社Ｈ．Ｒ．Ｅ．,,株式会社,愛知県,小牧市,小牧１丁目５８１番地,,23,219,4850041,,,,,,,2025-02-10,1,,,,,エイチアールイー,0
1561,7180001165371,新規,0,2025-02-10,2025-02-10,株式会社ジール,,株式会社,愛知県,名古屋市中区,新栄３丁目９番１０号マリオン千種１３０３,,23,106,4600007,,,,,,,2025-02-10,1,,,,,ジール,0
1562,7180001165388,新規,0,2025-02-10,2025-02-10,株式会社ナレッジアクション,,株式会社,愛知県,名古屋市中村区,名駅４丁目２４番５号第２森ビル４０１,,23,105,4500002,,,,,,,2025-02-10,1,,,,,ナレッジアクション,0
1563,7180001165396,新規,0,2025-02-10,2025-02-10,株式会社Ｂ‐ｅｎｔｒｕｓｔ,,株式会社,愛知県,名古屋市中区,千代田３丁目１１－１４プレサンスロジェ鶴舞駅前２０４号,,23,106,4600012,,,,,,,2025-02-10,1,,,,,ビーイントラスト,0
1568,7180003027966,新規,0,2025-02-10,2025-02-10,合同会社菅田,,合同会社,愛知県,常滑市,多屋町１丁目２６４番地,,23,216,4790839,,,,,,,2025-02-10,1,,,,,スガタ,0
1569,7180003027982,新規,0,2025-02-10,2025-02-10,合同会社ＳＫ,,合同会社,愛知県,大府市,梶田町５丁目１３－８,,23,223,4740071,,,,,,,2025-02-10,1,,,,,エスケー,0
1604,7290001108889,新規,0,2025-02-10,2025-02-10,ＪＡＰＡＮ抹茶株式会社,,株式会社,福岡県,八女市,黒木町笠原７４５８番地４,,40,210,8341222,,,,,,,2025-02-10,1,,,,,ジャパンマッチャ,0
1605,7290001108897,新規,0,2025-02-10,2025-02-10,エンパワー株式会社,,株式会社,福岡県,福岡市東区,筥松３丁目２２－１９,,40,131,8120061,,,,,,,2025-02-10,1,,,,,エンパワー,0
1607,7290801031258,新規,0,2025-02-10,2025-02-10,株式会社ワークスプレシジョン,,株式会社,福岡県,遠賀郡遠賀町,大字虫生津１４４５番地１,,40,384,8114321,,,,,,,2025-02-10,1,,,,,ワークスプレシジョン,0
1609,7300001014078,新規,0,2025-02-10,2025-02-10,株式会社ＳＨＩＮ・Ｄ・ＬＡＢＯ,,株式会社,佐賀県,佐賀市,水ヶ江２丁目６－２６,,41,201,8400054,,,,,,,2025-02-10,1,,,,,シンディーラボ,0
1610,7320001020933,新規,0,2025-02-10,2025-02-10,株式会社ＹＧＹＣ,,株式会社,大分県,由布市,湯布院町川北８９４番地７６,,44,213,8795114,,,,,,,2025-02-10,1,,,,,ワイジワイシ,0
1613,7330001032878,新規,0,2025-02-10,2025-02-10,株式会社Ｙａｍａｕｃｈｉ,,株式会社,熊本県,熊本市北区,北迫町３３番地１３,,43,105,8615531,,,,,,,2025-02-10,1,,,,,ヤマウチ,0
1614,7350001019386,新規,0,2025-02-10,2025-02-10,Ｒｅｄ‐ｅ　ｓｕｒｆ株式会社,,株式会社,宮崎県,宮崎市,大字郡司分甲５２２７番地１０,,45,201,8800924,,,,,,,2025-02-10,1,,,,,レッドイーサーフ,0
1616,7360001034764,新規,0,2025-02-10,2025-02-10,ユイマール沖縄株式会社,,株式会社,沖縄県,中頭郡読谷村,字宇座１８６１番地,,47,324,9040328,,,,,,,2025-02-10,1,,,,,ユイマールオキナワ,0
1620,7370001052229,新規,0,2025-02-10,2025-02-10,株式会社シナトラ,,株式会社,宮城県,仙台市青葉区,国分町１丁目４番９号,,04,101,9800803,,,,,,,2025-02-10,1,,,,,シナトラ,0
1621,7380001035083,新規,0,2025-02-10,2025-02-10,株式会社トゥルース,,株式会社,福島県,白河市,中町６８番地,,07,205,9610951,,,,,,,2025-02-10,1,,,,,トゥルース,0
1630,7410001014059,新規,0,2025-02-10,2025-02-10,株式会社はらぺこ農産,,株式会社,秋田県,由利本荘市,石脇字尾花沢５５番地２７,,05,210,0150011,,,,,,,2025-02-10,1,,,,,ハラペコノウサン,0
1635,7430001093654,新規,0,2025-02-10,2025-02-10,株式会社Ｒｕｈｉｅｌ,,株式会社,北海道,虻田郡倶知安町,字山田３４番地６２,,01,400,0440081,,,,,,,2025-02-10,1,,,,,ルヒエル,0
1636,7430001093662,新規,0,2025-02-10,2025-02-10,株式会社寒茜,,株式会社,北海道,石狩郡当別町,弥生５２,,01,303,0610223,,,,,,,2025-02-10,1,,,,,カンアカネ,0
1639,7430003017256,新規,0,2025-02-10,2025-02-10,合同会社Ｇｉｕｓｔｏ,,合同会社,北海道,江別市,野幌松並町３番地の４ジャンスＢ棟１０１,,01,217,0690814,,,,,,,2025-02-10,1,,,,,ジュースト,0
1640,7430003017264,新規,0,2025-02-10,2025-02-10,合同会社ＴＢＨＫ,,合同会社,北海道,札幌市中央区,南四条西１３丁目２番１７号,,01,101,0640804,,,,,,,2025-02-10,1,,,,,ティービーエイチケー,0
1645,7700150129149,新規,0,2025-02-10,2025-02-10,Ａｒｃｔｅｒａ　Ｏｐｅｒａｔｉｏｎｓ　Ｌｉｍｉｔｅｄ,,外国会社等,東京都,港区,赤坂２丁目５番８号,,13,103,1070052,アイルランド、Ｄ０２ＮＸ５３、ダブリン２、フィッツウィリアム・スクエア・ウエスト３８／３９,,,,,,2025-02-10,1,,,,,アークテラオペレーシヨンズリミテツド,0
1647,8010001252094,新規,0,2025-02-10,2025-02-10,株式会社山田清掃,,株式会社,東京都,中央区,新川２丁目８番５号ゼロワンビル７階,,13,102,1040033,,,,,,,2025-02-10,1,,,,,ヤマダセイソウ,0
1648,8010001252136,新規,0,2025-02-10,2025-02-10,株式会社Ｍｅｄｉｃａｌ　Ｓｕｐｐｏｒｔ　Ｃｒｅａｔｉｏｎｓ,,株式会社,東京都,千代田区,神田岩本町１－１４ＫＤＸ秋葉原ビルＢ１Ｆ,,13,101,1010033,,,,,,,2025-02-10,1,,,,,メディカルサポートクリエイションズ,0
1653,8010003046346,新規,0,2025-02-10,2025-02-10,ＤＥＩバッテリーファンドアルファ合同会社,,合同会社,東京都,千代田区,丸の内１丁目４番１号東京共同会計事務所内,,13,101,1000005,,,,,,,2025-02-10,1,,,,,ディーイーアイバッテリーファンドアルファ,0
1654,8010005039554,新規,0,2025-02-10,2025-02-10,一般社団法人Ｖ京都ホールディングス,,その他の設立登記法人,東京都,千代田区,霞が関３丁目２番５号,,13,101,1000013,,,,,,,2025-02-10,1,,,,,ブイキョウトホールディングス,0
1658,8010401188079,新規,0,2025-02-10,2025-02-10,Ｇａｍａｎｉａ　Ｄｉｇｉｔａｌ　Ｅｎｔｅｒｔａｉｎｍｅｎｔ株式会社,,株式会社,東京都,港区,六本木７丁目７番７号Ｔｒｉ－ＳｅｖｅｎＲｏｐｐｏｎｇｉ８階,,13,103,1060032,,,,,,,2025-02-10,1,,,,,ガマニアデジタルエンターテインメント,0
1659,8010401188153,新規,0,2025-02-10,2025-02-10,東方ビルディング株式会社,,株式会社,東京都,港区,西新橋３丁目１３番７号ＶＯＲＴ虎ノ門ｓｏｕｔｈ７階,,13,103,1050003,,,,,,,2025-02-10,1,,,,,トウホウビルディング,0
1665,8010701047199,新規,0,2025-02-10,2025-02-10,株式会社Ｙｉｃｈ,,株式会社,東京都,品川区,東大井２丁目２３番１号名人亭ビル２階,,13,109,1400011,,,,,,,2025-02-10,1,,,,,イチ,0
1666,8010701047224,新規,0,2025-02-10,2025-02-10,株式会社ＴＳＵＧＵ,,株式会社,東京都,品川区,小山１丁目３番７号,,13,109,1420062,,,,,,,2025-02-10,1,,,,,ツグ,0
1668,8010901056792,新規,0,2025-02-10,2025-02-10,株式会社安利,,株式会社,東京都,世田谷区,赤堤５丁目２６番９号下高井戸岡田ビル２０１,,13,112,1560044,,,,,,,2025-02-10,1,,,,,アンリ,0
1672,8011101110563,新規,0,2025-02-10,2025-02-10,株式会社絆コラボ,,株式会社,東京都,新宿区,下宮比町２番２８号飯田橋ハイタウン６０４号室,,13,104,1620822,,,,,,,2025-02-10,1,,,,,キズナコラボ,0
1673,8011103015521,新規,0,2025-02-10,2025-02-10,浪瑞沃合同会社,,合同会社,東京都,新宿区,榎町３４－３榎町ビル５階－０７室,,13,104,1620806,,,,,,,2025-02-10,1,,,,,ロウズイヨウ,0
1674,8011105011329,新規,0,2025-02-10,2025-02-10,特定非営利活動法人居住支援フェアライフ協会,,その他の設立登記法人,東京都,新宿区,西新宿１丁目２５番１号新宿センタービル３８階,,13,104,1600023,,,,,,,2025-02-10,1,,,,,キョジュウシエンフェアライフキョウカイ,0
1675,8011301030339,新規,0,2025-02-10,2025-02-10,株式会社ＣＳＬＩ,,株式会社,東京都,杉並区,西荻北２丁目３番９号コメットビル６階,,13,115,1670042,,,,,,,2025-02-10,1,,,,,シイエスエルアイ,0
1677,8011601028421,新規,0,2025-02-10,2025-02-10,３ｒｄ株式会社,,株式会社,東京都,練馬区,貫井２丁目２５番２３号,,13,120,1760021,,,,,,,2025-02-10,1,,,,,サード,0
1680,8011701028049,新規,0,2025-02-10,2025-02-10,株式会社ＹＯＬＯ,,株式会社,東京都,江戸川区,西葛西３丁目１６番１３号葛西産業第７ビルＢ１Ｆ,,13,123,1340088,,,,,,,2025-02-10,1,,,,,ヨロー,0
1681,8011801045605,新規,0,2025-02-10,2025-02-10,株式会社ＩＮＦＩＮＩＴＹ,,株式会社,東京都,足立区,花畑７丁目４番５号パティオ・ＪＳ３０３,,13,121,1210061,,,,,,,2025-02-10,1,,,,,インフィニティ,0
1685,8012403006961,新規,0,2025-02-10,2025-02-10,合同会社ＭＩＸ,,合同会社,東京都,稲城市,矢野口５５４番地の９,,13,225,2060812,,,,,,,2025-02-10,1,,,,,ミックス,0
1699,8020001161162,新規,0,2025-02-10,2025-02-10,株式会社イチノオト,,株式会社,神奈川県,横浜市神奈川区,金港町５－１４クアドリフォリオ８階,,14,102,2210056,,,,,,,2025-02-10,1,,,,,イチノオト,0
1700,8020001161220,新規,0,2025-02-10,2025-02-10,株式会社リフィックスホーム,,株式会社,神奈川県,川崎市多摩区,南生田２丁目１３番１８号,,14,135,2140036,,,,,,,2025-02-10,1,,,,,リフィックスホーム,0
1701,8020001161229,新規,0,2025-02-10,2025-02-10,株式会社Ｔｒｕｓｔ　Ｓｅｅｋｅｒｓ,,株式会社,神奈川県,横浜市西区,浅間町１丁目４番地３ウィザードビル４０２,,14,103,2200072,,,,,,,2025-02-10,1,,,,,トラストシーカーズ,0
1706,8020003027790,新規,0,2025-02-10,2025-02-10,合同会社便利屋やさしい手,,合同会社,神奈川県,横浜市西区,浅間町１丁目４番３号ウィザードビル４０２,,14,103,2200072,,,,,,,2025-02-10,1,,,,,ベンリヤヤサシイテ,0
1711,8021001084444,新規,0,2025-02-10,2025-02-10,テラハット株式会社,,株式会社,神奈川県,相模原市中央区,淵野辺４丁目３７番１５号,,14,152,2520206,,,,,,,2025-02-10,1,,,,,テラハット,0
1714,8021003015570,新規,0,2025-02-10,2025-02-10,フィデリティアンリミテッド合同会社,,合同会社,神奈川県,足柄上郡松田町,松田惣領３２１－１ｓｕｐｒａｐｏ本館１Ｆ,,14,363,2580003,,,,,,,2025-02-10,1,,,,,フィデリティアンリミテッド,0
1720,8030001164734,新規,0,2025-02-10,2025-02-10,株式会社ＥＹＡＳＡＣＡ,,株式会社,埼玉県,所沢市,くすのき台１丁目１３番地の２ガーデンシティ所沢２階２３号室,,11,208,3590037,,,,,,,2025-02-10,1,,,,,イヤサカ,0
1721,8030001164775,新規,0,2025-02-10,2025-02-10,株式会社ウチノ,,株式会社,埼玉県,所沢市,三ケ島１丁目２３番地の２,,11,208,3591164,,,,,,,2025-02-10,1,,,,,ウチノ,0
1722,8030001164817,新規,0,2025-02-10,2025-02-10,株式会社武心グループ,,株式会社,埼玉県,さいたま市桜区,田島５丁目４番３８号,,11,106,3380837,,,,,,,2025-02-10,1,,,,,ブシングループ,0
1725,8030003026081,新規,0,2025-02-10,2025-02-10,合同会社オレンジ,,合同会社,埼玉県,越谷市,千間台西１丁目２４番地５ライオンズマンションせんげん台１０２号,,11,222,3430041,,,,,,,2025-02-10,1,,,,,オレンジ,0
1727,8040001137334,新規,0,2025-02-10,2025-02-10,株式会社ＴＮＰＪ,,株式会社,千葉県,船橋市,芝山１丁目１９番１０号,,12,204,2740816,,,,,,,2025-02-10,1,,,,,ティーエヌピージェイ,0
1728,8040003026824,新規,0,2025-02-10,2025-02-10,合同会社萬松亀商店,,合同会社,千葉県,松戸市,上矢切１６１番地,,12,207,2710094,,,,,,,2025-02-10,1,,,,,ヨロズマツカメショウテン,0
1730,8040005022656,新規,0,2025-02-10,2025-02-10,医療法人社団若心会,,その他の設立登記法人,千葉県,船橋市,本中山２丁目１５番１２リリスポスト３階,,12,204,2730035,,,,,,,2025-02-10,1,,,,,ジャクシンカイ,0
1732,8050001056137,新規,0,2025-02-10,2025-02-10,株式会社ＹＣ岩井,,株式会社,茨城県,坂東市,岩井４９７２番地１,,08,228,3060631,,,,,,,2025-02-10,1,,,,,ワイシーイワイ,0
1735,8070001042614,新規,0,2025-02-10,2025-02-10,株式会社ＭＩＴＡ,,株式会社,群馬県,太田市,藤阿久町７８３番地１,,10,205,3730034,,,,,,,2025-02-10,1,,,,,ミタ,0
1747,8100001038294,新規,0,2025-02-10,2025-02-10,株式会社Ｌｉｂ,,株式会社,長野県,佐久市,中込３７３４番地２５９,,20,217,3850051,,,,,,,2025-02-10,1,,,,,リブ,0
1754,8120001272701,新規,0,2025-02-10,2025-02-10,株式会社Ａｒｋｐｌａｎｓ,,株式会社,大阪府,大阪市淀川区,西中島６丁目６番２号,,27,123,5320011,,,,,,,2025-02-10,1,,,,,アークプランズ,0
1755,8120001272742,新規,0,2025-02-10,2025-02-10,ジェイ・プライド総合管理株式会社,,株式会社,大阪府,大阪市天王寺区,上本町５丁目２番４号ジェイ・プライド上本町ビル,,27,109,5430001,,,,,,,2025-02-10,1,,,,,ジェイプライドソウゴウカンリ,0
1756,8120001272791,新規,0,2025-02-10,2025-02-10,ＳＣＯＰＥ株式会社,,株式会社,大阪府,大阪市北区,梅田１丁目１１番４号大阪駅前第４ビル９階９２３－１７２１号,,27,127,5300001,,,,,,,2025-02-10,1,,,,,スコープ,0
1758,8120005024784,新規,0,2025-02-10,2025-02-10,ＮＰＯ法人山王エックス,,その他の設立登記法人,大阪府,大阪市西成区,山王１丁目４－１４,,27,122,5570001,,,,,,,2025-02-10,1,,,,,サンノウエックス,0
1761,8120101071029,新規,0,2025-02-10,2025-02-10,サティス製薬株式会社,,株式会社,大阪府,堺市堺区,市之町東３丁１番１０号,,27,141,5900952,,,,,,,2025-02-10,1,,,,,サティスセイヤク,0
1762,8120101071037,新規,0,2025-02-10,2025-02-10,株式会社ＡＢＥＬＬ,,株式会社,大阪府,堺市西区,鳳東町６丁６３６番地１シティホール鳳２階,,27,144,5938324,,,,,,,2025-02-10,1,,,,,エーベル,0
1763,8120101071053,新規,0,2025-02-10,2025-02-10,ｌｏｏｋ株式会社,,株式会社,大阪府,南河内郡河南町,大字上河内４８２－１,,27,382,5850024,,,,,,,2025-02-10,1,,,,,ルック,0
1773,8130001078981,新規,0,2025-02-10,2025-02-10,株式会社風匠工房,,株式会社,京都府,城陽市,富野鷺坂山８－１,,26,207,6100111,,,,,,,2025-02-10,1,,,,,フウショウコウボウ,0
1776,8140001137308,新規,0,2025-02-10,2025-02-10,株式会社ｃｒｏｓｓＴＥＮ,,株式会社,兵庫県,神戸市中央区,下山手通８丁目１８番８号,,28,110,6500011,,,,,,,2025-02-10,1,,,,,クロステン,0
1777,8140001137324,新規,0,2025-02-10,2025-02-10,株式会社熊橋製材所佐用,,株式会社,兵庫県,佐用郡佐用町,佐用３３７８番地,,28,501,6795301,,,,,,,2025-02-10,1,,,,,クマハシセイザイショサヨウ,0
1778,8140001137332,新規,0,2025-02-10,2025-02-10,株式会社ひげごろー,,株式会社,兵庫県,尼崎市,武庫川町２丁目３８番地,,28,202,6600084,,,,,,,2025-02-10,1,,,,,ヒゲゴロー,0
1779,8140001137381,新規,0,2025-02-10,2025-02-10,ＲＥＥＬ株式会社,,株式会社,兵庫県,神戸市北区,東大池２丁目４番３０号,,28,109,6511333,,,,,,,2025-02-10,1,,,,,リール,0
1781,8140003021609,新規,0,2025-02-10,2025-02-10,合同会社藤田総合研究所,,合同会社,兵庫県,神戸市中央区,北長狭通１丁目２０番２号５階,,28,110,6500012,,,,,,,2025-02-10,1,,,,,フジタソウゴウケンキュウショ,0
1783,8170005007132,新規,0,2025-02-10,2025-02-10,司法書士法人エスト,,その他の設立登記法人,和歌山県,岩出市,森１９６番地の４Ｓｏｌａｎａ１階,,30,209,6496205,,,,,,,2025-02-10,1,,,,,エスト,0
1787,8180001165338,新規,0,2025-02-10,2025-02-10,株式会社ＳＴＣ,,株式会社,愛知県,小牧市,大字大草字年上坂５９９０－１５,,23,219,4850802,,,,,,,2025-02-10,1,,,,,エスティーシー,0
1788,8180001165370,新規,0,2025-02-10,2025-02-10,ジャンクション株式会社,,株式会社,愛知県,名古屋市中区,栄２丁目２番１号広小路伏見中駒ビル２Ｆ－９,,23,106,4600008,,,,,,,2025-02-10,1,,,,,ジャンクション,0
1789,8180001165404,新規,0,2025-02-10,2025-02-10,株式会社Ｍｕｌｔｉｖｅｒｓｅ,,株式会社,愛知県,名古屋市中区,新栄１丁目１７番１９号新栄ＧｒａｎｄＭ７０１号,,23,106,4600007,,,,,,,2025-02-10,1,,,,,マルチバース,0
1790,8180001165412,新規,0,2025-02-10,2025-02-10,株式会社三和電気設計,,株式会社,愛知県,愛西市,柚木町前田面５６２番地１１,,23,232,4960904,,,,,,,2025-02-10,1,,,,,サンワデンキセッケイ,0
1793,8180003027981,新規,0,2025-02-10,2025-02-10,合同会社海有,,合同会社,愛知県,大府市,明成町１丁目２７６リヴェールＭ２０５,,23,223,4740056,,,,,,,2025-02-10,1,,,,,カイユウ,0
1800,8200001043425,新規,0,2025-02-10,2025-02-10,渡辺農産株式会社,,株式会社,岐阜県,羽島郡笠松町,門間３４７番地,,21,303,5016065,,,,,,,2025-02-10,1,,,,,ワタナベノウサン,0
1803,8220003003953,新規,0,2025-02-10,2025-02-10,ＩＬＭＯＲＥ合同会社,,合同会社,石川県,金沢市,堀川新町５番１号,,17,201,9200849,,,,,,,2025-02-10,1,,,,,イルモア,0
1809,8240001064509,新規,0,2025-02-10,2025-02-10,株式会社山本建工,,株式会社,広島県,広島市安佐北区,落合南４丁目３８番１５号,,34,106,7391732,,,,,,,2025-02-10,1,,,,,ヤマモトケンコウ,0
1818,8290001108896,新規,0,2025-02-10,2025-02-10,株式会社ｓｕｓｔａｉｎ２ｕｓ,,株式会社,福岡県,大牟田市,大字櫟野２４５９番地１,,40,202,8360893,,,,,,,2025-02-10,1,,,,,サステイントゥアス,0
1821,8300001014077,新規,0,2025-02-10,2025-02-10,株式会社素直,,株式会社,佐賀県,三養基郡みやき町,大字市武１４４５番地１０,,41,346,8401106,,,,,,,2025-02-10,1,,,,,スナオ,0
1825,8330001032877,新規,0,2025-02-10,2025-02-10,株式会社Ｄプロジェクト,,株式会社,熊本県,熊本市中央区,中央街４－１０,,43,101,8600802,,,,,,,2025-02-10,1,,,,,ディープロジェクト,0
1827,8360001034739,新規,0,2025-02-10,2025-02-10,株式会社ＵＭＵＩ,,株式会社,沖縄県,那覇市,久茂地１丁目１番１号パレットくもじ８階ｒｅｌａｒｋ那覇,,47,201,9000015,,,,,,,2025-02-10,1,,,,,ウムイ,0
1835,8430003017255,新規,0,2025-02-10,2025-02-10,合同会社スネーカー,,合同会社,北海道,札幌市東区,伏古十一条２丁目２‐２,,01,103,0070871,,,,,,,2025-02-10,1,,,,,スネーカー,0
1838,8470001020579,新規,0,2025-02-10,2025-02-10,株式会社こどものともｋａｇａｗａ,,株式会社,香川県,高松市,木太町３３７５番地１９,,37,201,7600080,,,,,,,2025-02-10,1,,,,,コドモノトモカガワ,0
1842,8500001026135,新規,0,2025-02-10,2025-02-10,株式会社高田ファミリーオフィス,,株式会社,愛媛県,北宇和郡鬼北町,大字近永１０２２番地,,38,488,7981300,,,,,,,2025-02-10,1,,,,,タカタファミリーオフィス,0
1843,8500005008765,新規,0,2025-02-10,2025-02-10,一般社団法人ＣＲＡＮＥ,,その他の設立登記法人,愛媛県,伊予郡松前町,大字浜３０５番地,,38,401,7913110,,,,,,,2025-02-10,1,,,,,クレーン,0
1850,9010001252143,新規,0,2025-02-10,2025-02-10,株式会社アストラ・ノヴァ,,株式会社,東京都,千代田区,丸の内３丁目２番２号丸の内二重橋ビル２階,,13,101,1000005,,,,,,,2025-02-10,1,,,,,アストラノヴァ,0
1851,9010001252184,新規,0,2025-02-10,2025-02-10,通達貿易株式会社,,株式会社,東京都,文京区,千石３丁目３番３－１１２号,,13,105,1120011,,,,,,,2025-02-10,1,,,,,ツウタツボウエキ,0
1852,9010001252242,新規,0,2025-02-10,2025-02-10,株式会社ＴＥＡＭ第２３号,,株式会社,東京都,千代田区,丸の内２丁目７番２号,,13,101,1000005,,,,,,,2025-02-10,1,,,,,ティーイーエーエムダイニジュウサンゴウ,0
1854,9010003046345,新規,0,2025-02-10,2025-02-10,ＤＥＩバッテリーファンドベータ合同会社,,合同会社,東京都,千代田区,丸の内１丁目４番１号東京共同会計事務所内,,13,101,1000005,,,,,,,2025-02-10,1,,,,,ディーイーアイバッテリーファンドベータ,0
1855,9010005039553,新規,0,2025-02-10,2025-02-10,一般社団法人Ｍｏｒｉｎｏｍｉｙａ,,その他の設立登記法人,東京都,千代田区,霞が関３丁目２番５号,,13,101,1000013,,,,,,,2025-02-10,1,,,,,モリノミヤ,0
1866,9010401187947,新規,0,2025-02-10,2025-02-10,株式会社上洛コンサルティング,,株式会社,東京都,港区,南麻布２丁目２番３号,,13,103,1060047,,,,,,,2025-02-10,1,,,,,ジョウラクコンサルティング,0
1867,9010401188012,新規,0,2025-02-10,2025-02-10,株式会社ｓｏｒａｎｏｖａ,,株式会社,東京都,港区,芝大門１丁目１０－５－３階,,13,103,1050012,,,,,,,2025-02-10,1,,,,,ソラノバ,0
1868,9010401188020,新規,0,2025-02-10,2025-02-10,株式会社カリフォルニアクラブ,,株式会社,東京都,港区,西新橋２丁目１１番６号,,13,103,1050003,,,,,,,2025-02-10,1,,,,,カリフォルニアクラブ,0
1869,9010401188061,新規,0,2025-02-10,2025-02-10,株式会社Ｆｉｖｅ,,株式会社,東京都,港区,北青山１丁目３番１号アールキューブ青山３階,,13,103,1070061,,,,,,,2025-02-10,1,,,,,ファイブ,0
1871,9010403034313,新規,0,2025-02-10,2025-02-10,ロータスアカウンティング合同会社,,合同会社,東京都,港区,南青山３丁目１番３６号青山丸竹ビル６Ｆ,,13,103,1070062,,,,,,,2025-02-10,1,,,,,ロータスアカウンティング,0
1873,9010601066645,新規,0,2025-02-10,2025-02-10,株式会社八島花,,株式会社,東京都,墨田区,京島３丁目３５番５号,,13,107,1310046,,,,,,,2025-02-10,1,,,,,ヤツシマハナ,0
1874,9010601066728,新規,0,2025-02-10,2025-02-10,飛天株式会社,,株式会社,東京都,江東区,枝川２丁目９番２号２０３室,,13,108,1350051,,,,,,,2025-02-10,1,,,,,ヒテン,0
1875,9010603011376,新規,0,2025-02-10,2025-02-10,ＣＨＡＣＯ合同会社,,合同会社,東京都,江東区,大島８丁目２１－１３バームステージ大島３０７号室,,13,108,1360072,,,,,,,2025-02-10,1,,,,,チャコ,0
1876,9010701047223,新規,0,2025-02-10,2025-02-10,Ｂｌｕｅ　Ｏｃｅａｎ株式会社,,株式会社,東京都,品川区,西五反田３丁目６番２３－１９０２号,,13,109,1410031,,,,,,,2025-02-10,1,,,,,ブルーオーシャン,0
1891,9011001167678,新規,0,2025-02-10,2025-02-10,株式会社ｎｅｗ　ｃｌａｓｓｉｃ,,株式会社,東京都,渋谷区,恵比寿西１丁目３０番９号パサージュ代官山Ｃ号室,,13,113,1500021,,,,,,,2025-02-10,1,,,,,ニュークラシック,0
1892,9011005010850,新規,0,2025-02-10,2025-02-10,ＧＪＤＣＶ３特定目的会社,,その他の設立登記法人,東京都,渋谷区,恵比寿１丁目２０番２号７０４号室嶋本公認会計士事務所気付,,13,113,1500013,,,,,,,2025-02-10,1,,,,,ジージェイディーシーブイスリー,0
1896,9011101110595,新規,0,2025-02-10,2025-02-10,株式会社ＢＥスタイル,,株式会社,東京都,新宿区,西新宿３丁目３番１３号西新宿水間ビル６階,,13,104,1600023,,,,,,,2025-02-10,1,,,,,ビイスタイル,0
1897,9011103015504,新規,0,2025-02-10,2025-02-10,合同会社Ｒｅｉｎｕ,,合同会社,東京都,新宿区,西新宿３丁目３番１３号西新宿水間ビル６階,,13,104,1600023,,,,,,,2025-02-10,1,,,,,レイヌ,0
1898,9011105011328,新規,0,2025-02-10,2025-02-10,グリーン税理士法人,,その他の設立登記法人,東京都,新宿区,西新宿１丁目２６番２号新宿野村ビル１２階,,13,104,1600023,,,,,,,2025-02-10,1,,,,,グリーン,0
1903,9011501031680,新規,0,2025-02-10,2025-02-10,株式会社ベスト,,株式会社,東京都,荒川区,東尾久２丁目２２番１３号,,13,118,1160012,,,,,,,2025-02-10,1,,,,,ベスト,0
1907,9011603004592,新規,0,2025-02-10,2025-02-10,合同会社Ｍａｒｒｉａｇｅ,,合同会社,東京都,練馬区,石神井町７丁目３番３５号２階,,13,120,1770041,,,,,,,2025-02-10,1,,,,,マリッジ,0
1912,9012303002110,新規,0,2025-02-10,2025-02-10,合同会社Ｂｌｕｅ　Ｄｏｇ,,合同会社,東京都,町田市,小山町２１７番地２７,,13,209,1940212,,,,,,,2025-02-10,1,,,,,ブルードッグ,0
1913,9012405005077,新規,0,2025-02-10,2025-02-10,特定非営利活動法人日本障がい者ゴルファー推進機構,,その他の設立登記法人,東京都,狛江市,和泉本町２丁目３番６号,,13,219,2010003,,,,,,,2025-02-10,1,,,,,ニホンショウガイシャゴルファースイシンキコウ,0
1917,9013301053698,新規,0,2025-02-10,2025-02-10,株式会社ＧＯＷＬ,,株式会社,東京都,豊島区,長崎４丁目４－１０グレース松沢３０４号,,13,116,1710051,,,,,,,2025-02-10,1,,,,,ゴウル,0
1923,9020001161161,新規,0,2025-02-10,2025-02-10,久栄商事株式会社,,株式会社,神奈川県,川崎市川崎区,小川町１６－１７ＭＦプラザ４０５号,,14,131,2100023,,,,,,,2025-02-10,1,,,,,ヒサエショウジ,0
1924,9020001161186,新規,0,2025-02-10,2025-02-10,Ｗｅｌｌｎｅｓｓ株式会社,,株式会社,神奈川県,横浜市神奈川区,西神奈川１丁目７番地１１セベレンス館１０５号,,14,102,2210822,,,,,,,2025-02-10,1,,,,,ウェルネス,0
1925,9020001161194,新規,0,2025-02-10,2025-02-10,株式会社３‐Ｐｅａｃｅ,,株式会社,神奈川県,横浜市中区,常盤町２丁目２０番地ヴェラハイツ関内６０２号室,,14,104,2310014,,,,,,,2025-02-10,1,,,,,スリーピース,0
1926,9020001161203,新規,0,2025-02-10,2025-02-10,株式会社千道,,株式会社,神奈川県,横浜市中区,桜木町１丁目１０１番地１クロスゲート７Ｆ,,14,104,2310062,,,,,,,2025-02-10,1,,,,,センドウ,0
1927,9020001161228,新規,0,2025-02-10,2025-02-10,株式会社ＳＯＵＳＯＵテック,,株式会社,神奈川県,横浜市都筑区,見花山１番３０号,,14,118,2240066,,,,,,,2025-02-10,1,,,,,ソウソウテック,0
1928,9020001161236,新規,0,2025-02-10,2025-02-10,ＥＰＧソリューション株式会社,,株式会社,神奈川県,横浜市中区,山下町２番地産業貿易センタービル２階,,14,104,2310023,,,,,,,2025-02-10,1,,,,,イーピージーソリューション,0
1929,9020001161285,新規,0,2025-02-10,2025-02-10,株式会社商吉,,株式会社,神奈川県,横浜市瀬谷区,三ツ境１９番地６,,14,114,2460022,,,,,,,2025-02-10,1,,,,,アキヨシ,0
1934,9020003027757,新規,0,2025-02-10,2025-02-10,合同会社フィットライフ,,合同会社,神奈川県,横浜市鶴見区,元宮１丁目９番１３号ユナイト鶴見ローレンスカーク１０３,,14,101,2300004,,,,,,,2025-02-10,1,,,,,フィットライフ,0
1935,9020003027765,新規,0,2025-02-10,2025-02-10,ＹＩＳコンサルティング合同会社,,合同会社,神奈川県,横浜市港北区,富士塚１丁目２３番２９号,,14,109,2220012,,,,,,,2025-02-10,1,,,,,ワイアイエスコンサルティング,0
1936,9020003027831,新規,0,2025-02-10,2025-02-10,合同会社みらい・わたし研究所,,合同会社,神奈川県,横浜市青葉区,美しが丘５丁目２２番地９藤和美しが丘ホームズ２０５号,,14,117,2250002,,,,,,,2025-02-10,1,,,,,ミライワタシケンキュウジョ,0
1938,9021005013274,新規,0,2025-02-10,2025-02-10,ＧＤＣ事業協同組合,,その他の設立登記法人,神奈川県,横須賀市,佐野町６丁目２５番地,,14,201,2380052,,,,,,,2025-02-10,1,,,,,ジーディーシー,0
1948,9030003026080,新規,0,2025-02-10,2025-02-10,合同会社ＬＩＮＫＳ,,合同会社,埼玉県,所沢市,美原町５丁目２０４０番地の２,,11,208,3590045,,,,,,,2025-02-10,1,,,,,リンクス,0
1949,9030003026089,新規,0,2025-02-10,2025-02-10,Ａｔｏｎｕｚ合同会社,,合同会社,埼玉県,所沢市,大字荒幡１０３３番地の３,,11,208,3591133,,,,,,,2025-02-10,1,,,,,アトナス,0
1953,9040001137325,新規,0,2025-02-10,2025-02-10,株式会社ととのいＧｒｏｕｐ,,株式会社,千葉県,千葉市稲毛区,園生町１６０番地９,,12,103,2630051,,,,,,,2025-02-10,1,,,,,トトノイグループ,0
1954,9040001137341,新規,0,2025-02-10,2025-02-10,株式会社ＢｅｓｔＰｒａｃｔｉｃｅ,,株式会社,千葉県,柏市,高田１０７５―１９,,12,217,2770861,,,,,,,2025-02-10,1,,,,,ベストプラクティス,0
1957,9040003026690,新規,0,2025-02-10,2025-02-10,合同会社泰昇,,合同会社,千葉県,流山市,流山１丁目１３番地キャピタルステート１０５,,12,220,2700164,,,,,,,2025-02-10,1,,,,,タイショウ,0
1958,9040005022655,新規,0,2025-02-10,2025-02-10,一般社団法人千葉県ふぐ連盟,,その他の設立登記法人,千葉県,千葉市中央区,新町一丁目１１番地,,12,101,2600028,,,,,,,2025-02-10,1,,,,,チバケンフグレンメイ,0
1960,9050001056136,新規,0,2025-02-10,2025-02-10,株式会社マツウラ,,株式会社,茨城県,北相馬郡利根町,大字中田切１３６番地,,08,564,3001624,,,,,,,2025-02-10,1,,,,,マツウラ,0
1961,9050001056152,新規,0,2025-02-10,2025-02-10,株式会社ＮＲ,,株式会社,茨城県,石岡市,南台２丁目３６番１号,,08,205,3150035,,,,,,,2025-02-10,1,,,,,エヌアール,0
1962,9050001056160,新規,0,2025-02-10,2025-02-10,株式会社ＪＡＰＩＮＤＯ,,株式会社,茨城県,水戸市,西大野１２９番地,,08,201,3100824,,,,,,,2025-02-10,1,,,,,ジャピンド,0
1970,9070003005782,新規,0,2025-02-10,2025-02-10,合同会社ブレイクスルー,,合同会社,群馬県,高崎市,倉賀野町３０１８番地,,10,202,3701201,,,,,,,2025-02-10,1,,,,,ブレイクスルー,0
1971,9070003005790,新規,0,2025-02-10,2025-02-10,合同会社岩田雅明オフィス,,合同会社,群馬県,前橋市,昭和町２丁目９番１０号,,10,201,3710034,,,,,,,2025-02-10,1,,,,,イワタマサアキオフィス,0
1977,9080101025302,新規,0,2025-02-10,2025-02-10,株式会社遊楽,,株式会社,静岡県,御殿場市,竈１０４１番地の２ハイツプチフラワー１０２,,22,215,4120039,,,,,,,2025-02-10,1,,,,,,0
1983,9110001039043,新規,0,2025-02-10,2025-02-10,株式会社高橋農事,,株式会社,新潟県,南魚沼市,中野１２４番地,,15,226,9496437,,,,,,,2025-02-10,1,,,,,タカハシノウジ,0
1992,9120001272709,新規,0,2025-02-10,2025-02-10,誠一国際株式会社,,株式会社,大阪府,大阪市城東区,成育４丁目２４番３号－３０１,,27,118,5360007,,,,,,,2025-02-10,1,,,,,セイイチコクサイ,0
1993,9120001272733,新規,0,2025-02-10,2025-02-10,株式会社Ｈａｐｐｙ　Ｂｕｙ,,株式会社,大阪府,大阪市淀川区,西三国１丁目７番６号７０２号室,,27,123,5320006,,,,,,,2025-02-10,1,,,,,ハッピーバイ,0
1994,9120001272741,新規,0,2025-02-10,2025-02-10,株式会社グリーンメディカル,,株式会社,大阪府,大阪市福島区,海老江５丁目２番１３－８０５号,,27,103,5530001,,,,,,,2025-02-10,1,,,,,グリーンメディカル,0
1995,9120001272840,新規,0,2025-02-10,2025-02-10,株式会社アドバンスアイ,,株式会社,大阪府,大阪市北区,天満２丁目１番２４号,,27,127,5300043,,,,,,,2025-02-10,1,,,,,アドバンスアイ,0
1999,9120103006270,新規,0,2025-02-10,2025-02-10,合同会社Ｂｌａｎｃｆｌｅｕｒ,,合同会社,大阪府,堺市堺区,一条通６番１２号サンライズ一条２０３号室,,27,141,5900048,,,,,,,2025-02-10,1,,,,,ブランフルール,0
2007,9122001038882,新規,0,2025-02-10,2025-02-10,株式会社リッチワールド,,株式会社,大阪府,東大阪市,中新開２丁目８番１３号,,27,227,5780911,,,,,,,2025-02-10,1,,,,,リッチワールド,0
2010,9122003003117,新規,0,2025-02-10,2025-02-10,合同会社ｏｔｔｏ,,合同会社,大阪府,東大阪市,永和２丁目１４－４,,27,227,5770809,,,,,,,2025-02-10,1,,,,,オット,0
2015,9130001078964,新規,0,2025-02-10,2025-02-10,株式会社ＬｉＮＯＣＥＮＣＥ,,株式会社,京都府,京都市中京区,壬生坊城町５３番地６,,26,104,6048804,,,,,,,2025-02-10,1,,,,,リノセンス,0
2016,9130001078980,新規,0,2025-02-10,2025-02-10,株式会社ＴＥＮＮＩＳ　ＴＩＴＬＥ,,株式会社,京都府,宇治市,平尾台２丁目６番地の４,,26,204,6110003,,,,,,,2025-02-10,1,,,,,テニスタイトル,0
2017,9140001137348,新規,0,2025-02-10,2025-02-10,新時代開発株式会社,,株式会社,兵庫県,淡路市,郡家１１３４－２６,,28,226,6561511,,,,,,,2025-02-10,1,,,,,シンジダイカイハツ,0
2035,9180001165262,新規,0,2025-02-10,2025-02-10,株式会社マイクヨットスクール,,株式会社,愛知県,名古屋市中村区,名駅４丁目２４番５号第２森ビル４０１,,23,105,4500002,,,,,,,2025-02-10,1,,,,,マイクヨットスクール,0
2036,9180001165304,新規,0,2025-02-10,2025-02-10,株式会社ＢＥＬＤ,,株式会社,愛知県,名古屋市中区,栄１丁目１３番４号,,23,106,4600008,,,,,,,2025-02-10,1,,,,,ベルド,0
2037,9180001165386,新規,0,2025-02-10,2025-02-10,株式会社エスティワン,,株式会社,愛知県,愛知郡東郷町,三ツ池３丁目１番地２,,23,302,4700164,,,,,,,2025-02-10,1,,,,,エスティワン,0
2049,9220005008925,新規,0,2025-02-10,2025-02-10,農事組合法人つぼかわ,,その他の設立登記法人,石川県,鹿島郡中能登町,坪川カ部６４番地１,,17,407,9291805,,,,,,,2025-02-10,1,,,,,ツボカワ,0
2054,9240001064508,新規,0,2025-02-10,2025-02-10,エイトナイン株式会社,,株式会社,広島県,広島市南区,旭３丁目２番１号,,34,103,7340036,,,,,,,2025-02-10,1,,,,,エイトナイン,0
2066,9290001108821,新規,0,2025-02-10,2025-02-10,株式会社ＨＡＬＥＩＷＡ　ＰＡＲＴＮＥＲＳ,,株式会社,福岡県,福岡市博多区,博多駅前１丁目２３番２号ＰａｒｋＦｒｏｎｔ博多駅前１丁目５Ｆ－Ｂ,,40,132,8120011,,,,,,,2025-02-10,1,,,,,ハレイワパートナーズ,0
2067,9290001108879,新規,0,2025-02-10,2025-02-10,株式会社コウジン建設工業,,株式会社,福岡県,福岡市西区,石丸２丁目９番９－１号,,40,135,8190025,,,,,,,2025-02-10,1,,,,,コウジンケンセツコウギョウ,0
2078,9360001034721,新規,0,2025-02-10,2025-02-10,株式会社豊家,,株式会社,沖縄県,那覇市,西町１－５－１１－３０３ロイヤルマンション西町,,47,201,9000000,,,,,,,2025-02-10,1,,,,,ユタカヤ,0
2079,9360001034762,新規,0,2025-02-10,2025-02-10,株式会社ＯＳＨＤ,,株式会社,沖縄県,那覇市,天久２丁目２０番１６号３階,,47,201,9000005,,,,,,,2025-02-10,1,,,,,オーエスホールディングス,0
2080,9360001034770,新規,0,2025-02-10,2025-02-10,株式会社神山設備,,株式会社,沖縄県,名護市,字宮里９２６番地５,,47,209,9050011,,,,,,,2025-02-10,1,,,,,カミヤマセツビ,0
2086,9370001052227,新規,0,2025-02-10,2025-02-10,株式会社ＴＡＭ　ＰＨＵＣ,,株式会社,宮城県,仙台市青葉区,宮町２丁目３番３４号２階,,04,101,9800004,,,,,,,2025-02-10,1,,,,,タムフック,0
2092,9370005010908,新規,0,2025-02-10,2025-02-10,一般社団法人パッチワーク,,その他の設立登記法人,宮城県,仙台市青葉区,上杉１丁目１０番２４号,,04,101,9800011,,,,,,,2025-02-10,1,,,,,パッチワーク,0
2094,9380001035081,新規,0,2025-02-10,2025-02-10,株式会社成家,,株式会社,福島県,福島市,万世町５番３号ニュー万世ビル１Ｆ,,07,201,9608033,,,,,,,2025-02-10,1,,,,,ナリヤ,0
2100,9430001093644,新規,0,2025-02-10,2025-02-10,熊坂企画株式会社,,株式会社,北海道,札幌市中央区,南十五条西１９丁目４番２０号ステイツ伏見十五条３０１,,01,101,0640915,,,,,,,2025-02-10,1,,,,,クマサカキカク,0
2101,9430001093660,新規,0,2025-02-10,2025-02-10,株式会社庄野工業,,株式会社,北海道,美唄市,東明五条１丁目１番７号,,01,215,0720807,,,,,,,2025-02-10,1,,,,,ショウノコウギョウ,0
2103,9470001020578,新規,0,2025-02-10,2025-02-10,株式会社縁,,株式会社,香川県,高松市,国分寺町新名１２７９番地３,,37,201,7690104,,,,,,,2025-02-10,1,,,,,エニシ,0
2107,9500003003437,新規,0,2025-02-10,2025-02-10,嶺榮合同会社,,合同会社,愛媛県,松山市,高砂町１丁目５番地３クレバーコート９０１号,,38,201,7900822,,,,,,,2025-02-10,1,,,,,レイエイ,0
