sequenceNumber,corporateNumber,process,correct,updateDate,changeDate,name,nameImageId,kind,prefectureName,cityName,streetNumber,addressImageId,prefectureCode,cityCode,postCode,addressOutside,addressOutsideImageId,closeDate,closeCause,successorCorporateNumber,changeCause,assignmentDate,latest,enName,enPrefectureName,enCityName,enAddressOutside,furigana,hihyoji
6,1010001222665,登記記録の閉鎖等,0,2023-04-19,2023-04-10,ＨＭＪホールディングス株式会社,,株式会社,東京都,千代田区,丸の内２丁目１番１号,,13,101,1000005,,,2023-04-10,合併による解散等,1010003034737,令和５年３月３１日東京都千代田区丸の内一丁目１番１号パレスビル５階株式会社ＢＣＪ‐５１（1010003034737）に合併し解散,2021-11-18,1,,,,,エイチエムジェーホールディングス,0
9,1010003019036,登記記録の閉鎖等,0,2023-04-19,2023-04-06,合同会社レンジャク,,合同会社,東京都,中央区,京橋１丁目３番１号八重洲口大栄ビル１２階,,13,102,1040031,,,2023-04-06,清算の結了等,,,2015-10-05,1,,,,,レンジャク,0
18,1010005035592,登記記録の閉鎖等,0,2023-04-19,2023-04-14,ジェイコアレジ７ホールディング特定目的会社,,その他の設立登記法人,東京都,千代田区,丸の内３丁目１番１号東京共同会計事務所内,,13,101,1000005,,,2023-04-14,清算の結了等,,,2022-09-26,1,,,,,ジェイコアレジセブンホールディング,0
19,1010101013469,登記記録の閉鎖等,0,2023-04-19,2023-04-13,株式会社創常,,株式会社,東京都,八王子市,上壱分方町４３３番地５,,13,201,1930811,,,2023-04-13,清算の結了等,,,2018-10-05,1,,,,,ソウジョウ,0
21,1010401160374,登記記録の閉鎖等,0,2023-04-19,2023-04-03,シーカ・ハマタイト販売株式会社,,株式会社,東京都,港区,元赤坂１丁目２番７号赤坂Ｋタワー７階,,13,103,1070051,,,2023-04-03,合併による解散等,2010401098738,令和５年４月１日東京都港区元赤坂一丁目２番７号赤坂Ｋタワー７階シーカ・ジャパン株式会社（2010401098738）に合併し解散,2021-05-26,1,,,,,シーカハマタイトハンバイ,0
23,1010403015535,登記記録の閉鎖等,0,2023-04-19,2023-04-11,合同会社バロン,,合同会社,東京都,千代田区,霞が関３丁目５番１号,,13,101,1000013,,,2023-04-11,清算の結了等,,,2016-10-28,1,,,,,バロン,0
40,1011001109365,登記記録の閉鎖等,0,2023-04-19,2023-04-10,クランチロールＳＣアニメファンド株式会社,,株式会社,東京都,渋谷区,渋谷１丁目１７番４号,,13,113,1500002,,,2023-04-10,合併による解散等,5010001120163,令和５年３月３１日東京都渋谷区渋谷一丁目１７番４号ＰＭＯ渋谷１２階クランチロール株式会社（5010001120163）に合併し解散,2016-02-05,1,,,,,クランチロールエスシーアニメファンド,0
79,1013303005713,登記記録の閉鎖等,0,2023-04-19,2023-04-07,合同会社バーチャルフィール,,合同会社,東京都,豊島区,東池袋１丁目３３番４－５１１号,,13,116,1700013,,,2023-04-07,清算の結了等,,,2021-06-11,1,,,,,バーチャルフィール,0
122,1050002028769,登記記録の閉鎖等,0,2023-04-19,2023-04-11,有限会社昭和車工,,有限会社,茨城県,行方市,五町田８０番地の１,,08,233,3113807,,,2023-04-11,清算の結了等,,,2015-10-05,1,,,,,ショウワシャコウ,0
131,1080402016511,登記記録の閉鎖等,0,2023-04-19,2023-04-14,有限会社吉林興業,,有限会社,静岡県,浜松市天竜区,西藤平１２８６番地の２,,22,137,4313532,,,2023-04-14,清算の結了等,,,2015-10-05,1,,,,,ヨシバヤシコウギョウ,0
147,1120001199488,登記記録の閉鎖等,0,2023-04-19,2023-04-03,イズミヤ株式会社,,株式会社,大阪府,大阪市西成区,花園南１丁目４番４号,,27,122,5570015,,,2023-04-03,合併による解散等,7120001117832,令和５年４月１日大阪市北区角田町８番７号イズミヤ・阪急オアシス株式会社（7120001117832）に合併し解散,2016-07-14,1,,,,,イズミヤ,0
163,1120901018937,登記記録の閉鎖等,0,2023-04-19,2023-04-17,株式会社ＤＢ,,株式会社,大阪府,茨木市,永代町６番１９号近藤ビル,,27,211,5670816,,,2023-04-17,清算の結了等,,,2015-10-05,1,,,,,,0
183,1140005002159,登記記録の閉鎖等,0,2023-04-19,2023-04-07,医療法人財団兵庫錦秀会,,その他の設立登記法人,兵庫県,神戸市西区,神出町勝成７８番地の５３,,28,111,6512301,,,2023-04-07,合併による解散等,6122005000305,令和５年４月３日大阪府和泉市あゆみ野一丁目７番１号医療法人聖和錦秀会（6122005000305）に合併し解散,2015-10-05,1,,,,,ヒョウゴキンシュウカイ,0
188,1170005003773,登記記録の閉鎖等,0,2023-04-19,2023-04-17,天理教蓬莱分教会,00045838,その他の設立登記法人,和歌山県,田辺市,湊４５番１４号,,30,206,6460031,,,2023-04-17,合併による解散等,8170005003783,令和５年４月１７日和歌山県田辺市中辺路町栗栖川３５３番地天理教牟婁分教会（8170005003783）に合併し解散,2015-10-05,1,,,,,テンリキョウホウライブンキョウカイ,0
189,1180001004584,登記記録の閉鎖等,0,2023-04-19,2023-04-17,丹所産業株式会社,,株式会社,愛知県,名古屋市千種区,星が丘山手１１５番地,,23,101,4640808,,,2023-04-17,清算の結了等,,,2015-10-05,1,,,,,タンショサンギョウ,0
195,1180002005359,登記記録の閉鎖等,0,2023-04-19,2023-04-12,有限会社Ｔ＆Ａ企画,,有限会社,愛知県,名古屋市昭和区,北山町１丁目２６番地,,23,107,4660006,,,2023-04-12,清算の結了等,,,2015-10-05,1,,,,,テイアンドエーキカク,0
197,1180002051238,登記記録の閉鎖等,0,2023-04-19,2023-04-11,有限会社アイ・エム・エー,,有限会社,愛知県,名古屋市中区,大須３丁目２７番３２号,,23,106,4600011,,,2023-04-11,清算の結了等,,,2015-10-05,1,,,,,アイエムエー,0
201,1180302014076,登記記録の閉鎖等,0,2023-04-19,2023-04-06,有限会社三河エージェンシー,,有限会社,愛知県,豊川市,御津町御馬加美１１６番地２,,23,207,4410311,,,2023-04-06,清算の結了等,,,2015-10-05,1,,,,,ミカワエージェンシー,0
219,1240001049111,登記記録の閉鎖等,0,2023-04-19,2023-04-13,ＭＳ中国株式会社,,株式会社,広島県,広島市中区,西十日市町９番９号,,34,101,7300806,,,2023-04-13,合併による解散等,1010001030440,令和５年４月３日東京都千代田区神田駿河台三丁目９番地三井住友海上エイジェンシー・サービス株式会社（1010001030440）に合併し解散,2016-04-05,1,,,,,エムエスチュウゴク,0
232,1290001023103,登記記録の閉鎖等,0,2023-04-19,2023-04-13,株式会社九州イースペース,,株式会社,福岡県,福岡市東区,原田３丁目７番３５号,,40,131,8120063,,,2023-04-13,合併による解散等,3030001062678,令和５年４月１日埼玉県鴻巣市栄町２番１２号株式会社エルスペース（3030001062678）に合併し解散,2015-10-05,1,,,,,キュウシュウイースペース,0
233,1290001073420,登記記録の閉鎖等,0,2023-04-19,2023-04-13,ＭＳ九州株式会社,,株式会社,福岡県,福岡市中央区,大名２丁目１２番１５号,,40,133,8100041,,,2023-04-13,合併による解散等,1010001030440,令和５年４月３日東京都千代田区神田駿河台三丁目９番地三井住友海上エイジェンシー・サービス株式会社（1010001030440）に合併し解散,2016-04-07,1,,,,,エムエスキュウシュウ,0
245,1320002018874,登記記録の閉鎖等,0,2023-04-19,2023-04-11,有限会社宇野建築事務所,,有限会社,大分県,日田市,田島２丁目１番２２号,,44,204,8770025,,,2023-04-11,合併による解散等,7290001065073,令和５年４月１日福岡県朝倉市甘木２０２番地６株式会社宇野建築事務所（7290001065073）に合併し解散,2015-10-05,1,,,,,ウノケンチクジムショ,0
253,1380005010121,登記記録の閉鎖等,0,2023-04-19,2023-04-13,一般社団法人只見町観光まちづくり協会,,その他の設立登記法人,福島県,南会津郡只見町,大字只見字上ノ原１７９１番地６,,07,367,9680421,,,2023-04-13,清算の結了等,,,2015-10-05,1,,,,,タダミマチカンコウマチヅクリキョウカイ,0
256,1390005006325,登記記録の閉鎖等,0,2023-04-19,2023-04-04,常寳寺,,その他の設立登記法人,山形県,米沢市,舘山１丁目１番８７号,,06,202,9920072,,,2023-04-04,合併による解散等,9390005006391,令和５年４月４日山形県米沢市万世町桑山２５８番地普門寺（9390005006391）に合併し解散,2015-10-05,1,,,,,ジョウホウジ,0
270,1430003005134,登記記録の閉鎖等,0,2023-04-19,2023-04-06,合同会社オフィスツィンアイズ,,合同会社,北海道,札幌市豊平区,西岡三条１１丁目１０番１０－２０３号,,01,105,0620033,,,2023-04-06,清算の結了等,,,2015-10-05,1,,,,,オフィスツィンアイズ,0
279,2010001021091,登記記録の閉鎖等,0,2023-04-19,2023-04-06,サクラメディカル株式会社,,株式会社,東京都,中央区,京橋１丁目３番１号,,13,102,1040031,,,2023-04-06,清算の結了等,,,2015-10-05,1,,,,,サクラメディカル,0
289,2010001222755,登記記録の閉鎖等,0,2023-04-19,2023-04-10,ＪＩＳＫＫ株式会社,,株式会社,東京都,千代田区,丸の内２丁目２番２号,,13,101,1000005,,,2023-04-10,合併による解散等,1010003034737,令和５年３月３１日東京都千代田区丸の内一丁目１番１号パレスビル５階株式会社ＢＣＪ‐５１（1010003034737）に合併し解散,2021-11-24,1,,,,,ジェイアイエスケーケー,0
311,2010405009856,登記記録の閉鎖等,0,2023-04-19,2023-04-03,弁護士法人浜田卓二郎事務所,,その他の設立登記法人,東京都,港区,虎ノ門２丁目２番５号共同通信会館５階,,13,103,1050001,,,2023-04-03,清算の結了等,,,2015-10-05,1,,,,,,0
312,2010501026796,登記記録の閉鎖等,0,2023-04-19,2023-04-13,株式会社コルモ,,株式会社,東京都,江戸川区,平井６丁目１４番１０号,,13,123,1320035,,,2023-04-13,清算の結了等,,,2015-10-05,1,,,,,コルモ,0
313,2010501031581,登記記録の閉鎖等,0,2023-04-19,2023-04-17,株式会社日本Ｔ＆Ｔ,,株式会社,東京都,台東区,三筋２丁目２１番１０号,,13,106,1110055,,,2023-04-17,清算の結了等,,,2015-10-05,1,,,,,ニホンティアンドティ,0
383,2030001081704,登記記録の閉鎖等,0,2023-04-19,2023-04-05,株式会社建築工房,,株式会社,埼玉県,川口市,栄町１丁目８番１１号,,11,203,3320017,,,2023-04-05,清算の結了等,,,2015-10-05,1,,,,,ケンチクコウボウ,0
414,2070005001209,登記記録の閉鎖等,0,2023-04-19,2023-04-03,社会福祉法人下川会,,その他の設立登記法人,群馬県,前橋市,亀里町３３３番地４,,10,201,3792147,,,2023-04-03,合併による解散等,4070005006973,令和５年４月３日群馬県前橋市昭和町三丁目１２番２１号社会福祉法人ほたか会（4070005006973）に合併し解散,2015-10-05,1,,,,,シモカワカイ,0
421,2080402016106,登記記録の閉鎖等,0,2023-04-19,2023-04-14,有限会社渥美斫り,,有限会社,静岡県,浜松市北区,三ヶ日町駒場１６０番地,,22,135,4311406,,,2023-04-14,清算の結了等,,,2015-10-05,1,,,,,アツミハツリ,0
429,2100001029984,登記記録の閉鎖等,0,2023-04-19,2023-04-11,株式会社ファースト,,株式会社,長野県,松本市,市場２番８号,,20,202,3990004,,,2023-04-11,清算の結了等,,,2017-02-09,1,,,,,ファースト,0
430,2100002032509,登記記録の閉鎖等,0,2023-04-19,2023-04-12,有限会社伊那製作所,,有限会社,長野県,伊那市,西町５０３５番地,,20,209,3960026,,,2023-04-12,清算の結了等,,,2015-10-05,1,,,,,イナセイサクショ,0
434,2110005006459,登記記録の閉鎖等,0,2023-04-19,2023-03-31,八幡社,,その他の設立登記法人,新潟県,燕市,吉田法花堂３８８８番地,,15,213,9590214,,,2023-03-31,合併による解散等,5110005006373,令和５年３月３１日新潟県燕市吉田法花堂４３１番地１神明赤崎神社（5110005006373）に合併し解散,2015-10-05,1,,,,,ハチマンシャ,0
457,2120902016286,登記記録の閉鎖等,0,2023-04-19,2023-04-13,有限会社フォレスト,,有限会社,大阪府,豊中市,西緑丘３丁目１１－５－３０８,,27,203,5600005,,,2023-04-13,清算の結了等,,,2015-10-05,1,,,,,フォレスト,0
462,2130005003801,登記記録の閉鎖等,0,2023-04-19,2023-04-07,医療法人奥村小児科医院,,その他の設立登記法人,京都府,京都市西京区,大枝北福西町２丁目２３番地の１２,,26,111,6101112,,,2023-04-07,清算の結了等,,,2015-10-05,1,,,,,オクムラショウニカイイン,0
468,2140001057123,登記記録の閉鎖等,0,2023-04-19,2023-04-13,株式会社シルバーハート,,株式会社,兵庫県,神戸市中央区,元町通５丁目４番３号,,28,110,6500022,,,2023-04-13,合併による解散等,3120001054690,令和５年４月１日大阪市淀川区西中島七丁目１番５号株式会社ギガ・システム（3120001054690）に合併し解散,2015-10-05,1,,,,,,0
481,2160003001218,登記記録の閉鎖等,0,2023-04-19,2023-04-17,合同会社うぃずだむ,,合同会社,滋賀県,守山市,梅田町１２番１－４０１号,,25,207,5240037,,,2023-04-17,清算の結了等,,,2015-10-05,1,,,,,ウィズダム,0
485,2180001008080,登記記録の閉鎖等,0,2023-04-19,2023-04-13,サンリード中部株式会社,,株式会社,愛知県,名古屋市昭和区,御器所１丁目２１番７号,,23,107,4660051,,,2023-04-13,合併による解散等,5400001003758,令和５年４月１日岩手県紫波郡矢巾町流通センター南一丁目５番１４号サンリード株式会社（5400001003758）に合併し解散,2015-10-05,1,,,,,サンリードチュウブ,0
491,2180001146161,登記記録の閉鎖等,0,2023-04-19,2023-04-13,株式会社ＣＲＡＺＹ　ＢＡＳＥ,,株式会社,愛知県,半田市,天王町１丁目４７番地,,23,205,4750859,,,2023-04-13,清算の結了等,,,2021-05-25,1,,,,,クレイジーベース,0
496,2180002076804,登記記録の閉鎖等,0,2023-04-19,2023-04-12,有限会社Ｇ・Ｆカンパニー,,有限会社,愛知県,春日井市,大手町字東島９１８番地１,,23,206,4860807,,,2023-04-12,清算の結了等,,,2015-10-05,1,,,,,ジーエフカンパニー,0
507,2200005008248,登記記録の閉鎖等,0,2023-04-19,2023-04-11,天理教濃勇分教会,,その他の設立登記法人,岐阜県,多治見市,喜多町４丁目１２番地,,21,204,5070055,,,2023-04-11,合併による解散等,3200005006754,令和５年４月１１日岐阜県加茂郡川辺町西栃井４００番地天理教東濃大教会（3200005006754）に合併し解散,2015-10-05,1,,,,,テンリキョウノウユウブンキョウカイ,0
509,2210002010164,登記記録の閉鎖等,0,2023-04-19,2023-04-18,有限会社オリエント商会,,有限会社,福井県,敦賀市,本町１丁目１０番地の１４,,18,202,9140051,,,2023-04-18,清算の結了等,,,2015-10-05,1,,,,,オリエントショウカイ,0
528,2260002021693,登記記録の閉鎖等,0,2023-04-19,2023-04-11,有限会社森崎商店,,有限会社,岡山県,倉敷市,鶴形１丁目３番４５号,,33,202,7100056,,,2023-04-11,清算の結了等,,,2015-10-05,1,,,,,モリサキショウテン,0
531,2290001038232,登記記録の閉鎖等,0,2023-04-19,2023-04-10,株式会社ケイケイディ,,株式会社,福岡県,福岡市博多区,吉塚４丁目１１番３４号,,40,132,8120041,,,2023-04-10,清算の結了等,,,2015-10-05,1,,,,,ケイケイディ,0
547,2320001002985,登記記録の閉鎖等,0,2023-04-19,2023-04-07,株式会社大分航空トラベル,,株式会社,大分県,大分市,舞鶴町１丁目２番１７号セゾン舞鶴２０２,,44,201,8700044,,,2023-04-07,合併による解散等,2320001008421,令和５年４月１日大分県国東市安岐町下原１３番地大分航空ターミナル株式会社（2320001008421）に合併し解散,2015-10-05,1,,,,,オオイタコウクウトラベル,0
549,2330001010814,登記記録の閉鎖等,0,2023-04-19,2023-04-10,九州保安用品産業株式会社,,株式会社,熊本県,上益城郡御船町,大字豊秋２４８８番地,,43,441,8613131,,,2023-04-10,清算の結了等,,,2015-10-05,1,,,,,キュウシュウホアンヨウヒンサンギョウ,0
566,2400002003578,登記記録の閉鎖等,0,2023-04-19,2023-04-12,吉田経商有限会社,,有限会社,岩手県,盛岡市,中央通２丁目８番１３号,,03,201,0200021,,,2023-04-12,清算の結了等,,,2015-10-05,1,,,,,ヨシダケイシウ,0
569,2410001009947,登記記録の閉鎖等,0,2023-04-19,2023-04-17,株式会社こころけっと,,株式会社,秋田県,大館市,御成町４丁目８番２５号,,05,204,0170044,,,2023-04-17,清算の結了等,,,2015-10-05,1,,,,,,0
573,2430001081762,登記記録の閉鎖等,0,2023-04-19,2023-04-05,畑王株式会社,,株式会社,北海道,夕張郡由仁町,山桝４７３番地の１,,01,427,0691212,,,2023-04-05,清算の結了等,,,2020-06-25,1,,,,,ハタオウ,0
581,2480001010221,登記記録の閉鎖等,0,2023-04-19,2023-04-17,株式会社Ｙ’ｓＪ－ＬＯＷ,,株式会社,徳島県,徳島市,南矢三町２丁目７番５１号,,36,201,7700005,,,2023-04-17,清算の結了等,,,2017-12-28,1,,,,,,0
592,3010003023647,登記記録の閉鎖等,0,2023-04-19,2023-04-06,日本健康食品合同会社,,合同会社,東京都,千代田区,霞が関３丁目２番１号,,13,101,1000013,,,2023-04-06,清算の結了等,,,2016-06-13,1,,,,,ニホンケンコウショクヒン,0
593,3010003029330,登記記録の閉鎖等,0,2023-04-19,2023-03-31,ＹＭあおば合同会社,,合同会社,東京都,中央区,新川２丁目２７番１号,,13,102,1040033,,,2023-03-31,清算の結了等,,,2019-02-21,1,,,,,ワイエムアオバ,0
596,3010005028834,登記記録の閉鎖等,0,2023-04-19,2023-04-14,税理士法人大和パートナーズ,,その他の設立登記法人,東京都,千代田区,九段北１丁目３番１号,,13,101,1020073,,,2023-04-14,清算の結了等,,,2018-07-23,1,,,,,ダイワパートナーズ,0
610,3010602005145,登記記録の閉鎖等,0,2023-04-19,2023-04-12,有限会社司産業,,有限会社,東京都,江東区,森下４丁目２番１号,,13,108,1350004,,,2023-04-12,清算の結了等,,,2015-10-05,1,,,,,ツカササンギョウ,0
639,3011202003365,登記記録の閉鎖等,0,2023-04-19,2023-04-18,有限会社セキ通信電設,,有限会社,東京都,中野区,上鷺宮４丁目１６番６号,,13,114,1650031,,,2023-04-18,清算の結了等,,,2015-10-05,1,,,,,セキツウシンデンセツ,0
669,3020002052506,登記記録の閉鎖等,0,2023-04-19,2023-04-10,有限会社コスモテック,,有限会社,神奈川県,横浜市港北区,大倉山１丁目２２－１－３０９,,14,109,2220037,,,2023-04-10,清算の結了等,,,2015-10-05,1,,,,,コスモテック,0
671,3020003013399,登記記録の閉鎖等,0,2023-04-19,2023-04-10,ＭＫクリエイト合同会社,,合同会社,神奈川県,横浜市港北区,綱島西３丁目１２番８号,,14,109,2230053,,,2023-04-10,清算の結了等,,,2017-10-10,1,,,,,エムケイクリエイト,0
701,3040001017870,登記記録の閉鎖等,0,2023-04-19,2023-04-12,ダイトウ物流株式会社,,株式会社,千葉県,船橋市,湊町２丁目１２番２４号,,12,204,2730011,,,2023-04-12,合併による解散等,8010401016578,令和５年４月１日東京都港区芝浦四丁目６番８号大東港運株式会社（8010401016578）に合併し解散,2015-10-05,1,,,,,ダイトウブツリュウ,0
702,3040001028018,登記記録の閉鎖等,0,2023-04-19,2023-04-14,エスケーサービス株式会社,,株式会社,千葉県,鎌ケ谷市,くぬぎ山４丁目１番１２号,,12,224,2730128,,,2023-04-14,合併による解散等,3011801016065,令和５年４月１日東京都葛飾区青戸三丁目３７番１５号京成不動産株式会社（3011801016065）に合併し解散,2015-10-05,1,,,,,エスケーサービス,0
703,3040001034197,登記記録の閉鎖等,0,2023-04-19,2023-04-03,東北リーガルシューズ株式会社,,株式会社,千葉県,浦安市,日の出２丁目１番８号,,12,227,2790013,,,2023-04-03,合併による解散等,4040001034196,令和５年４月１日千葉県浦安市日の出二丁目１番８号株式会社リーガルリテール（4040001034196）に合併し解散,2015-10-05,1,,,,,トウホクリーガルシューズ,0
720,3070001027743,登記記録の閉鎖等,0,2023-04-19,2023-04-05,株式会社フレッセイヒューマンズネット,,株式会社,群馬県,前橋市,力丸町４９１番地１,,10,201,3792134,,,2023-04-05,合併による解散等,4070001002844,令和５年４月１日群馬県前橋市力丸町４９１番地１株式会社フレッセイ（4070001002844）に合併し解散,2015-10-05,1,,,,,フレッセイヒューマンズネット,0
721,3070002002448,登記記録の閉鎖等,0,2023-04-19,2023-04-14,有限会社三洋建設,,有限会社,群馬県,前橋市,上細井町８６２番地９,,10,201,3710051,,,2023-04-14,清算の結了等,,,2015-10-05,1,,,,,サンヨウケンセツ,0
737,3120001034635,登記記録の閉鎖等,0,2023-04-19,2023-04-11,桂ケアサービス株式会社,,株式会社,大阪府,大阪市天王寺区,上汐６丁目３番９号山本ビル２階,,27,109,5430002,,,2023-04-11,合併による解散等,3010001172264,令和５年４月１日大阪市天王寺区上汐六丁目３番９号山本ビル２階株式会社プラティア（3010001172264）に合併し解散,2015-10-05,1,,,,,カツラケアサービス,0
781,3150005006264,登記記録の閉鎖等,0,2023-04-19,2023-04-11,医療法人玉井医院,,その他の設立登記法人,奈良県,葛城市,木戸８２番地５,,29,211,6392161,,,2023-04-11,清算の結了等,,,2015-10-05,1,,,,,タマイイイン,0
798,3180305005062,登記記録の閉鎖等,0,2023-04-19,2023-04-07,よし池ショッピングセンター事業協同組合,,その他の設立登記法人,愛知県,豊田市,上挙母４丁目３９番地,,23,211,4710866,,,2023-04-07,清算の結了等,,,2015-10-05,1,,,,,ヨシイケショッピングセンター,0
812,3260005003358,登記記録の閉鎖等,0,2023-04-19,2023-04-10,児島料飲協同組合,,その他の設立登記法人,岡山県,倉敷市,児島味野３丁目３番５９号,,33,202,7110913,,,2023-04-10,清算の結了等,,,2015-10-05,1,,,,,コジマリョウイン,0
829,3330002005515,登記記録の閉鎖等,0,2023-04-19,2023-04-13,有限会社ジュニパー,,有限会社,熊本県,熊本市東区,長嶺東５丁目６番２－２号,,43,102,8618038,,,2023-04-13,清算の結了等,,,2015-10-05,1,,,,,ジュニパー,0
843,3370001038636,登記記録の閉鎖等,0,2023-04-19,2023-04-13,ＭＳ東北株式会社,,株式会社,宮城県,仙台市青葉区,一番町２丁目５番２７号,,04,101,9800811,,,2023-04-13,合併による解散等,1010001030440,令和５年４月３日東京都千代田区神田駿河台三丁目９番地三井住友海上エイジェンシー・サービス株式会社（1010001030440）に合併し解散,2015-10-14,1,,,,,エムエストウホク,0
845,3370002012904,登記記録の閉鎖等,0,2023-04-19,2023-04-11,有限会社パル動物病院,,有限会社,宮城県,仙台市青葉区,落合２丁目２番１０号,,04,101,9893126,,,2023-04-11,清算の結了等,,,2015-10-05,1,,,,,パルドウブツビョウイン,0
869,3470002004206,登記記録の閉鎖等,0,2023-04-19,2023-04-11,有限会社大貴,,有限会社,香川県,高松市,香川町川東上２２１９番地２,,37,201,7611706,,,2023-04-11,清算の結了等,,,2015-10-05,1,,,,,ダイキ,0
872,3490002003949,登記記録の閉鎖等,0,2023-04-19,2023-04-18,有限会社西村,,有限会社,高知県,高知市,大原町１０９番地２,,39,201,7808031,,,2023-04-18,清算の結了等,,,2015-10-05,1,,,,,ニシムラ,0
888,4010101008524,登記記録の閉鎖等,0,2023-04-19,2023-04-07,株式会社マイオール,,株式会社,東京都,八王子市,松木７番地の４,,13,201,1920362,,,2023-04-07,清算の結了等,,,2015-10-05,1,,,,,マイオール,0
889,4010401007102,登記記録の閉鎖等,0,2023-04-19,2023-04-07,リケンテクノスインターナショナル株式会社,,株式会社,東京都,千代田区,神田淡路町２丁目１０１番地,,13,101,1010063,,,2023-04-07,合併による解散等,9010001034970,令和５年４月１日東京都千代田区神田淡路町二丁目１０１番地リケンテクノス株式会社（9010001034970）に合併し解散,2015-10-05,1,,,,,リケンテクノスインターナショナル,0
894,4010401130408,登記記録の閉鎖等,0,2023-04-19,2023-04-03,株式会社拓殖菌茸,,株式会社,東京都,港区,海岸２丁目１番１６号,,13,103,1050022,,,2023-04-03,清算の結了等,,,2017-03-24,1,,,,,タクショクキンタケ,0
906,4010405008212,登記記録の閉鎖等,0,2023-04-19,2023-04-03,一般財団法人日本バウンドテニス協会,,その他の設立登記法人,東京都,港区,海岸１丁目１０番３０号,,13,103,1050022,,,2023-04-03,合併による解散等,7010405021690,令和５年４月１日東京都港区海岸一丁目１０番３０号一般財団法人日本バウンドテニス協会（7010405021690）に合併し解散,2015-10-05,1,,,,,ニホンバウンドテニスキョウカイ,0
908,4010502014658,登記記録の閉鎖等,0,2023-04-19,2023-04-03,有限会社ベルビィ,,有限会社,東京都,台東区,上野６丁目５番７号,,13,106,1100005,,,2023-04-03,合併による解散等,9010501015355,令和５年４月１日東京都台東区上野六丁目４番７号株式会社ワイエヌハウス（9010501015355）に合併し解散,2015-10-05,1,,,,,,0
910,4010601042048,登記記録の閉鎖等,0,2023-04-19,2023-04-11,株式会社歌研工房,,株式会社,東京都,墨田区,亀沢１丁目１７番７号アプレシティ両国５０１,,13,107,1300014,,,2023-04-11,清算の結了等,,,2015-10-05,1,,,,,カケンコウボウ,0
917,4010905000783,登記記録の閉鎖等,0,2023-04-19,2023-04-06,学校法人明誠学園,,その他の設立登記法人,東京都,世田谷区,下馬２丁目３７番１５号,,13,112,1540002,,,2023-04-06,合併による解散等,1010905000753,令和５年４月６日東京都世田谷区太子堂一丁目７番５７号学校法人昭和女子大学（1010905000753）に合併し解散,2015-10-05,1,,,,,メイセイガクエン,0
934,4011302015508,登記記録の閉鎖等,0,2023-04-19,2023-04-12,有限会社タクテージ,,有限会社,東京都,杉並区,下井草４丁目１７番１１号１Ｆ,,13,115,1670022,,,2023-04-12,清算の結了等,,,2015-10-05,1,,,,,タクテージ,0
949,4012401001101,登記記録の閉鎖等,0,2023-04-19,2023-04-03,東京エレクトロンエージェンシー株式会社,,株式会社,東京都,府中市,住吉町２丁目３０番地の７,,13,206,1830034,,,2023-04-03,合併による解散等,5012401001100,令和５年４月１日東京都府中市住吉町二丁目３０番地の７東京エレクトロンＢＰ株式会社（5012401001100）に合併し解散,2015-10-05,1,,,,,トウキョウエレクトロンエージェンシー,0
952,4013301020174,登記記録の閉鎖等,0,2023-04-19,2023-04-10,株式会社ＳＡＹ企画,,株式会社,東京都,豊島区,東池袋１丁目４８番１０号,,13,116,1700013,,,2023-04-10,清算の結了等,,,2015-10-05,1,,,,,セイキカク,0
954,4020001019612,登記記録の閉鎖等,0,2023-04-19,2023-04-18,株式会社エンゼル産業,,株式会社,東京都,墨田区,千歳１丁目４番８,,13,107,1300025,,,2023-04-18,合併による解散等,2040001008854,令和５年４月１日千葉市中央区問屋町３番地の５株式会社カワグチ（2040001008854）に合併し解散,2015-10-05,1,,,,,エンゼルサンギョウ,0
988,4040001041309,登記記録の閉鎖等,0,2023-04-19,2023-04-14,新京成エステート株式会社,,株式会社,千葉県,松戸市,常盤平５丁目１９番１号,,12,207,2702261,,,2023-04-14,合併による解散等,3011801016065,令和５年４月１日東京都葛飾区青戸三丁目３７番１５号京成不動産株式会社（3011801016065）に合併し解散,2015-10-05,1,,,,,シンケイセイエステート,0
990,4040001073970,登記記録の閉鎖等,0,2023-04-19,2023-04-12,高尾観光株式会社,00019450,株式会社,千葉県,南房総市,白浜町根本１４５４番地の３７,,12,234,2950104,,,2023-04-12,合併による解散等,5010001205352,令和５年４月１日東京都千代田区永田町二丁目１１番１号山王パークタワー５階トラスティーズ・コンサルティングＬＬＰ内株式会社ウィリー（5010001205352）に合併し解散,2015-10-05,1,,,,,タカオカンコウ,0
994,4040003019484,登記記録の閉鎖等,0,2023-04-19,2023-03-31,合同会社船舶技術研究,,合同会社,千葉県,我孫子市,柴崎台４丁目３番２２号,,12,222,2701176,,,2023-03-31,清算の結了等,,,2022-02-10,1,,,,,センパクギジュツケンキュウ,0
1002,4050002043550,登記記録の閉鎖等,0,2023-04-19,2023-04-11,有限会社ホシノ,,有限会社,茨城県,筑西市,向上野２１５番地の１,,08,227,3004522,,,2023-04-11,清算の結了等,,,2015-10-05,1,,,,,ホシノ,0
1012,4080001008287,登記記録の閉鎖等,0,2023-04-19,2023-04-17,株式会社システムタウン,,株式会社,静岡県,静岡市清水区,高橋南町１５番７号,,22,103,4240042,,,2023-04-17,清算の結了等,,,2015-10-05,1,,,,,,0
1015,4080101012164,登記記録の閉鎖等,0,2023-04-19,2023-04-13,株式会社富士ウェブシステム,,株式会社,静岡県,富士宮市,北山７４２９番地,,22,207,4180112,,,2023-04-13,清算の結了等,,,2015-10-05,1,,,,,フジウェブシステム,0
1031,4120001000339,登記記録の閉鎖等,0,2023-04-19,2023-04-14,株式会社吉在門,,株式会社,大阪府,大阪市都島区,都島本通５丁目１３番７－５０１号,,27,102,5340021,,,2023-04-14,清算の結了等,,,2015-10-05,1,,,,,キチザイモン,0
1038,4120001143699,登記記録の閉鎖等,0,2023-04-19,2023-04-11,株式会社開健社,,株式会社,大阪府,大阪市淀川区,西宮原１丁目７番９－１２０１号,,27,123,5320004,,,2023-04-11,清算の結了等,,,2015-10-05,1,,,,,カイケンシャ,0
1046,4120001248639,登記記録の閉鎖等,0,2023-04-19,2023-04-13,株式会社道明神将玄学研究所,,株式会社,大阪府,大阪市天王寺区,細工谷１丁目３番２５－２８０３号,,27,109,5430032,,,2023-04-13,清算の結了等,,,2022-09-08,1,,,,,ドウメイシンショウゲンガクケンキュウショ,0
1063,4120005017800,登記記録の閉鎖等,0,2023-04-19,2023-04-17,弁護士法人経営創輝,,その他の設立登記法人,大阪府,大阪市中央区,瓦町４丁目７番８号本町東栄ビル５階,,27,128,5410048,,,2023-04-17,合併による解散等,2130005014138,令和５年４月１０日京都市伏見区風呂屋町２６５番地弁護士法人賢誠総合法律事務所（2130005014138）に合併し解散,2015-10-05,1,,,,,ケイエイソウキ,0
1065,4120105005853,登記記録の閉鎖等,0,2023-04-19,2023-04-14,ニューキャッスルショッピングデパート協同組合,,その他の設立登記法人,大阪府,岸和田市,土生町２丁目３２番５号,,27,202,5960825,,,2023-04-14,清算の結了等,,,2015-10-05,1,,,,,ニューキャッスルショッピングデパート,0
1086,4140001098669,登記記録の閉鎖等,0,2023-04-19,2023-04-12,株式会社三和藤商店,,株式会社,兵庫県,姫路市,白浜町甲１９２０番地５４,,28,201,6728023,,,2023-04-12,合併による解散等,7140002049791,令和５年４月１２日兵庫県姫路市白浜町甲１９２０番地５４しらさぎ青果株式会社（7140002049791）に合併し解散,2015-10-05,1,,,,,ミワトウショウテン,0
1093,4140003009665,登記記録の閉鎖等,0,2023-04-19,2023-04-17,合同会社ＢＥＦＴ,,合同会社,兵庫県,神戸市北区,藤原台北町４丁目１０番９号,,28,109,6511301,,,2023-04-17,清算の結了等,,,2015-10-05,1,,,,,ベフト,0
1107,4170005003779,登記記録の閉鎖等,0,2023-04-19,2023-04-17,天理教三栖分教会,,その他の設立登記法人,和歌山県,田辺市,中三栖１４１４番地,,30,206,6460215,,,2023-04-17,合併による解散等,8170005003783,令和５年４月１７日和歌山県田辺市中辺路町栗栖川３５３番地天理教牟婁分教会（8170005003783）に合併し解散,2015-10-05,1,,,,,テンリキョウミスブンキョウカイ,0
1109,4180001053166,登記記録の閉鎖等,0,2023-04-19,2023-04-03,株式会社家計の総合相談センター,,株式会社,愛知県,名古屋市中区,錦２丁目９番２７号ＮＭＦ名古屋伏見ビル,,23,106,4600003,,,2023-04-03,合併による解散等,6180001051820,令和５年４月１日株式会社保険相談センター（6180001051820）に合併し解散,2015-10-05,1,,,,,カケイノソウゴウソウダンセンター,0
1121,4180301006344,登記記録の閉鎖等,0,2023-04-19,2023-04-06,株式会社東建,,株式会社,愛知県,豊橋市,曙町字測点８０番地の２,,23,201,4418151,,,2023-04-06,清算の結了等,,,2015-10-05,1,,,,,トウケン,0
1124,4180302017811,登記記録の閉鎖等,0,2023-04-19,2023-04-05,有限会社ツリーベル,,有限会社,愛知県,安城市,花ノ木町１５番２号,,23,212,4460039,,,2023-04-05,清算の結了等,,,2015-10-05,1,,,,,ツリーベル,0
1134,4220002001689,登記記録の閉鎖等,0,2023-04-19,2023-04-14,有限会社岡本塗装,,有限会社,石川県,金沢市,本江町４番３９号,,17,201,9218012,,,2023-04-14,清算の結了等,,,2015-10-05,1,,,,,オカモトトソウ,0
1154,4290001032431,登記記録の閉鎖等,0,2023-04-19,2023-04-10,ローレルカーステーション株式会社,,株式会社,福岡県,福岡市博多区,吉塚４丁目１１番３４号,,40,132,8120041,,,2023-04-10,清算の結了等,,,2015-10-05,1,,,,,ローレルカーステーション,0
1166,4290005011547,登記記録の閉鎖等,0,2023-04-19,2023-04-03,日吉神社,,その他の設立登記法人,福岡県,柳川市,大和町塩塚８０５番地,,40,207,8390243,,,2023-04-03,合併による解散等,6290005011553,令和５年４月３日福岡県柳川市坂本町６番１号日吉神社（6290005011553）に合併し解散,2015-10-05,1,,,,,ヒヨシジンジャ,0
1176,4340005000684,登記記録の閉鎖等,0,2023-04-19,2023-04-05,三島村漁業協同組合,,その他の設立登記法人,鹿児島県,鹿児島市,名山町１２番１８号,,46,201,8920821,,,2023-04-05,合併による解散等,7340005009145,令和５年４月１日鹿児島市城南町３７番地２鹿児島県漁業協同組合（7340005009145）に合併し解散,2015-10-05,1,,,,,ミシマムラ,0
1182,4370001044096,登記記録の閉鎖等,0,2023-04-19,2023-04-14,東日本ハルカ株式会社,,株式会社,宮城県,仙台市泉区,泉中央４丁目２８番地の２,,04,105,9813133,,,2023-04-14,合併による解散等,5370001041456,令和５年４月１日福島県双葉郡浪江町大字藤橋字亀下６３番地１５株式会社一路（5370001041456）に合併し解散,2019-03-07,1,,,,,ヒガシニホンハルカ,0
1190,4390001005658,登記記録の閉鎖等,0,2023-04-19,2023-04-10,株式会社ＲＥＶＥ,,株式会社,山形県,上山市,十日町６番３７号,,06,207,9993153,,,2023-04-10,清算の結了等,,,2015-10-05,1,,,,,リーブ,0
1192,4390005006396,登記記録の閉鎖等,0,2023-04-19,2023-04-04,法性院,,その他の設立登記法人,山形県,米沢市,中央５丁目２番５５号,,06,202,9920045,,,2023-04-04,合併による解散等,9390005006391,令和５年４月４日山形県米沢市万世町桑山２５８番地普門寺（9390005006391）に合併し解散,2015-10-05,1,,,,,ホウショウイン,0
1212,4430002064186,登記記録の閉鎖等,0,2023-04-19,2023-04-05,有限会社小林建具製作所,,有限会社,北海道,室蘭市,栄町１丁目３番１３号,,01,205,0510014,,,2023-04-05,清算の結了等,,,2015-10-05,1,,,,,コバヤシタテグセイサクジョ,0
1233,5010005029888,登記記録の閉鎖等,0,2023-04-19,2023-04-14,レジリエンスＩＩ一般社団法人,,その他の設立登記法人,東京都,千代田区,丸の内３丁目１番１号東京共同会計事務所内,,13,101,1000005,,,2023-04-14,清算の結了等,,,2019-03-20,1,,,,,レジリエンスツー,0
1240,5010403026603,登記記録の閉鎖等,0,2023-04-19,2023-04-03,Ｚｏｖｏ　Ｓａｌｏｎｓ　Ｊａｐａｎ合同会社,,合同会社,東京都,港区,西新橋２丁目４番４号,,13,103,1050003,,,2023-04-03,清算の結了等,,,2021-11-29,1,,,,,ゾボサロンズジャパン,0
1250,5010602034092,登記記録の閉鎖等,0,2023-04-19,2023-04-11,有限会社ドクターハーブス,,有限会社,香川県,仲多度郡まんのう町,公文６１９番地２,,37,406,7660011,,,2023-04-11,清算の結了等,,,2015-10-05,1,,,,,ドクターハーブス,0
1258,5010805000701,登記記録の閉鎖等,0,2023-04-19,2023-04-11,医療法人社団松井病院,,その他の設立登記法人,東京都,大田区,池上２丁目７番１０号,,13,111,1460082,,,2023-04-11,合併による解散等,5020005001367,令和５年４月３日横浜市戸塚区戸塚町１１６番地医療法人横浜未来ヘルスケアシステム（5020005001367）に合併し解散,2015-10-05,1,,,,,マツイビョウイン,0
1280,5011301006993,登記記録の閉鎖等,0,2023-04-19,2023-04-12,株式会社武藏洋行佐藤油店,,株式会社,東京都,杉並区,和泉２丁目１番２号,,13,115,1680063,,,2023-04-12,清算の結了等,,,2015-10-05,1,,,,,ムサシヨウコウサトウアブラテン,0
1282,5011301027511,登記記録の閉鎖等,0,2023-04-19,2023-04-13,中藤建設株式会社,,株式会社,東京都,杉並区,桃井２丁目１６番３号,,13,115,1670034,,,2023-04-13,清算の結了等,,,2022-01-25,1,,,,,ナカフジケンセツ,0
1297,5011802000074,登記記録の閉鎖等,0,2023-04-19,2023-04-13,有限会社青木商会,,有限会社,東京都,葛飾区,青戸４丁目１番５号,,13,122,1250062,,,2023-04-13,清算の結了等,,,2015-10-05,1,,,,,アオキショウカイ,0
1300,5012401024638,登記記録の閉鎖等,0,2023-04-19,2023-04-18,株式会社ＴＹＫ総合企画,,株式会社,東京都,三鷹市,井口２丁目９番４７号,,13,204,1810011,,,2023-04-18,清算の結了等,,,2015-10-05,1,,,,,ティーワイケーソウゴウキカク,0
1303,5012801010361,登記記録の閉鎖等,0,2023-04-19,2023-04-14,株式会社八千代,,株式会社,東京都,立川市,若葉町２丁目８番地１１４,,13,202,1900001,,,2023-04-14,清算の結了等,,,2015-10-05,1,,,,,,0
1313,5020001119551,登記記録の閉鎖等,0,2023-04-19,2023-04-07,株式会社創現,,株式会社,神奈川県,川崎市川崎区,小田栄１丁目１２番３号,,14,131,2100843,,,2023-04-07,清算の結了等,,,2017-01-18,1,,,,,ソウゲン,0
1335,5030002016243,登記記録の閉鎖等,0,2023-04-19,2023-04-05,ナッキー有限会社,,有限会社,埼玉県,さいたま市南区,辻１丁目４番２０号２０１,00016233,11,108,3360026,,,2023-04-05,清算の結了等,,,2015-10-05,1,,,,,ナッキー,0
1341,5040001027975,登記記録の閉鎖等,0,2023-04-19,2023-04-14,エスピー産業株式会社,,株式会社,千葉県,鎌ケ谷市,くぬぎ山４丁目１番１２号,,12,224,2730128,,,2023-04-14,合併による解散等,3011801016065,令和５年４月１日東京都葛飾区青戸三丁目３７番１５号京成不動産株式会社（3011801016065）に合併し解散,2015-10-05,1,,,,,エスピーサンギョウ,0
1349,5060002036998,登記記録の閉鎖等,0,2023-04-19,2023-04-10,株式会社日新,,株式会社,栃木県,足利市,田所町１１０１番地の７,,09,202,3260066,,,2023-04-10,合併による解散等,4180001022765,令和５年４月１日名古屋市熱田区旗屋一丁目９番２１号株式会社マキテック（4180001022765）に合併し解散,2015-10-05,1,,,,,ニッシン,0
1355,5080103002336,登記記録の閉鎖等,0,2023-04-19,2023-04-10,合同会社ケイプランニング,,合同会社,静岡県,三島市,中央町２番２３号,,22,206,4110858,,,2023-04-10,清算の結了等,,,2021-04-07,1,,,,,ケイプランニング,0
1357,5080402021004,登記記録の閉鎖等,0,2023-04-19,2023-04-17,有限会社ＵＥＮＯ,,有限会社,静岡県,磐田市,大泉町３７番地の３４,,22,211,4380044,,,2023-04-17,清算の結了等,,,2015-10-05,1,,,,,ウエノ,0
1369,5110001017143,登記記録の閉鎖等,0,2023-04-19,2023-04-11,株式会社今井屋吾平,,株式会社,新潟県,柏崎市,宝町３番８７号,,15,205,9450817,,,2023-04-11,清算の結了等,,,2015-10-05,1,,,,,イマイヤゴヘイ,0
1375,5110005011398,登記記録の閉鎖等,0,2023-04-19,2023-04-12,総評全国一般労働組合長岡支部,,その他の設立登記法人,新潟県,長岡市,東蔵王２丁目１番１１号,,15,202,9400029,,,2023-04-12,清算の結了等,,,2015-10-05,1,,,,,ソウヒョウゼンコクイッパンナガオカシブ,0
1396,5120105006842,登記記録の閉鎖等,0,2023-04-19,2023-04-07,社会福祉法人葛城会,00033185,その他の設立登記法人,大阪府,和泉市,唐国町４丁目１５番５６号,,27,219,5941151,,,2023-04-07,合併による解散等,6120005002461,令和５年４月３日大阪市住吉区帝塚山東二丁目１番３５号社会福祉法人帝塚山福祉会（6120005002461）に合併し解散,2015-10-05,1,,,,,カツラギカイ,0
1412,5140002048770,登記記録の閉鎖等,0,2023-04-19,2023-04-12,山陽青果有限会社,,有限会社,兵庫県,姫路市,白浜町甲１９２０番地５４,,28,201,6728023,,,2023-04-12,合併による解散等,7140002049791,令和５年４月１２日兵庫県姫路市白浜町甲１９２０番地５４しらさぎ青果株式会社（7140002049791）に合併し解散,2015-10-05,1,,,,,サンヨウセイカ,0
1429,5180001137397,登記記録の閉鎖等,0,2023-04-19,2023-04-11,株式会社美八美,,株式会社,愛知県,名古屋市千種区,内山３丁目３１番２２号,,23,101,4640075,,,2023-04-11,清算の結了等,,,2019-07-17,1,,,,,ミヤビ,0
1431,5180002026979,登記記録の閉鎖等,0,2023-04-19,2023-04-12,有限会社秋田鉄工所,,有限会社,愛知県,名古屋市中村区,稲葉地町５丁目４番地,,23,105,4530841,,,2023-04-12,清算の結了等,,,2015-10-05,1,,,,,アキタテッコウジョ,0
1435,5180301002235,登記記録の閉鎖等,0,2023-04-19,2023-04-06,吉口自動車株式会社,,株式会社,愛知県,岡崎市,宇頭町字井ノ上１３番地,,23,202,4440905,,,2023-04-06,清算の結了等,,,2015-10-05,1,,,,,ヨシグチジドウシャ,0
1439,5180302017166,登記記録の閉鎖等,0,2023-04-19,2023-04-06,有限会社仏壇の深谷,,有限会社,愛知県,安城市,福釜町蔵前７１番地,,23,212,4460052,,,2023-04-06,清算の結了等,,,2015-10-05,1,,,,,ブツダンノフカヤ,0
1444,5220001014591,登記記録の閉鎖等,0,2023-04-19,2023-04-12,株式会社エヌ・ビー・システム,,株式会社,石川県,金沢市,打木町東１４０６番地,,17,201,9200377,,,2023-04-12,合併による解散等,2180001101769,令和５年４月１日愛知県長久手市岩作落合１２番地９株式会社日工（2180001101769）に合併し解散,2015-10-05,1,,,,,エヌビーシステム,0
1448,5240001017774,登記記録の閉鎖等,0,2023-04-19,2023-04-12,株式会社フロンティア,,株式会社,広島県,広島市中区,中町一丁目２６番地ヴェル袋町公園１階,,34,101,7300037,,,2023-04-12,清算の結了等,,,2015-10-05,1,,,,,フロンティア,0
1449,5240001025785,登記記録の閉鎖等,0,2023-04-19,2023-04-17,株式会社呉温泉,,株式会社,広島県,呉市,中央６丁目３番２０号,,34,202,7370051,,,2023-04-17,清算の結了等,,,2015-10-05,1,,,,,クレオンセン,0
1461,5290001094925,登記記録の閉鎖等,0,2023-04-19,2023-04-07,株式会社タムラ建材,,株式会社,福岡県,久留米市,安武町武島８１４番地２,,40,203,8300071,,,2023-04-07,合併による解散等,1340001017504,令和５年４月１日福岡県宗像市徳重５４６番１株式会社ブルケン・ウエスト（1340001017504）に合併し解散,2021-10-19,1,,,,,タムラケンザイ,0
1462,5290002013470,登記記録の閉鎖等,0,2023-04-19,2023-04-10,有限会社山想園,,有限会社,福岡県,福岡市中央区,大名１丁目１５－７ネオハイツ大名４０８,,40,133,8100041,,,2023-04-10,清算の結了等,,,2015-10-05,1,,,,,サンソウエン,0
1465,5290802017547,登記記録の閉鎖等,0,2023-04-19,2023-04-17,有限会社仁科住設,,有限会社,福岡県,中間市,土手ノ内２丁目３５番１２号,,40,215,8090033,,,2023-04-17,清算の結了等,,,2015-10-05,1,,,,,ニシナジュウセツ,0
1473,5320005002434,登記記録の閉鎖等,0,2023-04-19,2023-04-11,特定非営利活動法人大分自然塾,,その他の設立登記法人,大分県,大分市,高尾台２丁目７番１２号,,44,201,8700873,,,2023-04-11,清算の結了等,,,2015-10-05,1,,,,,,0
1486,5350005000559,登記記録の閉鎖等,0,2023-04-19,2023-04-03,社会福祉法人紅陵福祉会,,その他の設立登記法人,宮崎県,宮崎市,花ケ島町野中田２０６４番地２,,45,201,8800036,,,2023-04-03,合併による解散等,8350005000589,令和５年４月３日宮崎市希望ケ丘三丁目２１番１１号社会福祉法人美山会（8350005000589）に合併し解散,2015-10-05,1,,,,,コウリョウフクシカイ,0
1504,5410003002831,登記記録の閉鎖等,0,2023-04-19,2023-04-10,合同会社千秋検査,,合同会社,秋田県,秋田市,東通６丁目１５番１０号,,05,201,0100003,,,2023-04-10,清算の結了等,,,2015-10-05,1,,,,,センシュウケンサ,0
1506,5410005000387,登記記録の閉鎖等,0,2023-04-19,2023-04-06,秋田菓子製パン企業組合,,その他の設立登記法人,秋田県,秋田市,牛島東１丁目１番５号,,05,201,0100062,,,2023-04-06,清算の結了等,,,2015-10-05,1,,,,,アキタカシセイパン,0
1509,5430001057917,登記記録の閉鎖等,0,2023-04-19,2023-04-04,株式会社トレジャーフーズ,,株式会社,北海道,室蘭市,入江町１番地の６３,,01,205,0510023,,,2023-04-04,清算の結了等,,,2015-10-05,1,,,,,トレジャーフーズ,0
1523,5470001009897,登記記録の閉鎖等,0,2023-04-19,2023-04-11,株式会社小林洋装店,,株式会社,香川県,観音寺市,観音寺町甲２９１５番地,,37,205,7680060,,,2023-04-11,清算の結了等,,,2015-10-05,1,,,,,コバヤシヨウソウテン,0
1535,6010001209311,登記記録の閉鎖等,0,2023-04-19,2023-04-03,ＴＥＰＣＯライフサービス株式会社,,株式会社,東京都,港区,南青山３丁目３番３号,,13,103,1070062,,,2023-04-03,合併による解散等,4010001192286,令和５年４月１日東京都港区南青山三丁目３番３号東京電力ベンチャーズ株式会社（4010001192286）に合併し解散,2020-04-30,1,,,,,テプコライフサービス,0
1542,6010005033708,登記記録の閉鎖等,0,2023-04-19,2023-04-14,ＲＢソーラークローバーホールディングス一般社団法人,,その他の設立登記法人,東京都,中央区,八丁堀４丁目２番１０号ＡＯＪ税理士法人内,,13,102,1040032,,,2023-04-14,清算の結了等,,,2021-07-20,1,,,,,アールビーソーラークローバーホールディングス,0
1545,6010102007886,登記記録の閉鎖等,0,2023-04-19,2023-04-14,有限会社厚徳,,有限会社,東京都,八王子市,上柚木１１７８番地ベループ・サンタナ１Ｆ,,13,201,1920373,,,2023-04-14,清算の結了等,,,2015-10-05,1,,,,,,0
1562,6010801020347,登記記録の閉鎖等,0,2023-04-19,2023-04-07,ＩＴＯテクノサービス株式会社,,株式会社,東京都,大田区,仲池上１丁目２６番１８号,,13,111,1460081,,,2023-04-07,清算の結了等,,,2015-10-05,1,,,,,アイティーオーテクノサービス,0
1571,6010905001169,登記記録の閉鎖等,0,2023-04-19,2023-04-12,税理士法人新東京会計,,その他の設立登記法人,東京都,世田谷区,三軒茶屋２丁目１１番２４号サンタワーズＡ棟６０１号室,,13,112,1540024,,,2023-04-12,清算の結了等,,,2015-10-05,1,,,,,シントウキョウカイケイ,0
1572,6011001095527,登記記録の閉鎖等,0,2023-04-19,2023-04-03,データアーティスト株式会社,,株式会社,東京都,港区,東新橋１丁目８番１号,,13,103,1050021,,,2023-04-03,合併による解散等,5010001086470,令和５年４月１日東京都港区東新橋一丁目８番１号株式会社電通デジタル（5010001086470）に合併し解散,2015-10-05,1,,,,,データアーティスト,0
1589,6011201002225,登記記録の閉鎖等,0,2023-04-19,2023-04-17,株式会社サリブン商事,,株式会社,東京都,中野区,中野４丁目２０番９号,,13,114,1640001,,,2023-04-17,清算の結了等,,,2015-10-05,1,,,,,サリブンショウジ,0
1602,6012702000700,登記記録の閉鎖等,0,2023-04-19,2023-04-14,有限会社ケンブリッジ・インターナショナル,,有限会社,東京都,小平市,たかの台３２番１－２６９号,,13,211,1870024,,,2023-04-14,清算の結了等,,,2015-10-05,1,,,,,ケンブリッジインターナショナル,0
1612,6020001038940,登記記録の閉鎖等,0,2023-04-19,2023-04-10,株式会社シーフィックソフトウェア,,株式会社,神奈川県,横浜市栄区,東上郷町１８－２３,,14,115,2470021,,,2023-04-10,清算の結了等,,,2015-10-05,1,,,,,シーフィックソフトウェア,0
1629,6021002014600,登記記録の閉鎖等,0,2023-04-19,2023-04-17,有限会社花桃,,有限会社,神奈川県,鎌倉市,極楽寺２丁目６番１３号,,14,204,2480023,,,2023-04-17,清算の結了等,,,2015-10-05,1,,,,,ハナモモ,0
1643,6030003016803,登記記録の閉鎖等,0,2023-04-19,2023-04-05,グレストクリーン合同会社,,合同会社,埼玉県,比企郡嵐山町,大字鎌形２０３４番地３,,11,342,3550225,,,2023-04-05,清算の結了等,,,2021-03-09,1,,,,,グレストクリーン,0
1646,6040001009758,登記記録の閉鎖等,0,2023-04-19,2023-04-13,ＭＳ千葉埼玉株式会社,,株式会社,千葉県,千葉市中央区,中央４丁目７番４号,,12,101,2600013,,,2023-04-13,合併による解散等,1010001030440,令和５年４月３日東京都千代田区神田駿河台三丁目９番地三井住友海上エイジェンシー・サービス株式会社（1010001030440）に合併し解散,2015-10-05,1,,,,,エムエスチバサイタマ,0
1649,6040001057674,登記記録の閉鎖等,0,2023-04-19,2023-04-11,株式会社トウエンテーワンフーズ,,株式会社,茨城県,守谷市,けやき台６丁目２番地１６,,08,224,3020128,,,2023-04-11,清算の結了等,,,2015-10-05,1,,,,,トウエンテーワンフーズ,0
1651,6040001072401,登記記録の閉鎖等,0,2023-04-19,2023-04-04,株式会社ゲンベイコーポレイション,,株式会社,千葉県,成田市,公津の杜２丁目３９番地１８,,12,211,2860048,,,2023-04-04,清算の結了等,,,2015-10-05,1,,,,,ゲンベイコーポレイション,0
1660,6040002001466,登記記録の閉鎖等,0,2023-04-19,2023-04-04,有限会社内田建具,,有限会社,千葉県,千葉市緑区,大木戸町３８１番地,,12,105,2670057,,,2023-04-04,清算の結了等,,,2015-10-05,1,,,,,ウチダタテグ,0
1661,6040003012578,登記記録の閉鎖等,0,2023-04-19,2023-04-04,合同会社ＲＹＯ・ＬＡＮＫＡ,,合同会社,千葉県,市原市,白金町４丁目２３番地３６,,12,219,2900059,,,2023-04-04,清算の結了等,,,2018-12-10,1,,,,,リョランカ,0
1663,6050001005954,登記記録の閉鎖等,0,2023-04-19,2023-04-12,株式会社エイチアイテクノロジー,,株式会社,茨城県,那珂郡東海村,大字須和間１４４１番地３,,08,341,3191114,,,2023-04-12,清算の結了等,,,2015-10-05,1,,,,,エイチアイテクノロジー,0
1676,6070005007656,登記記録の閉鎖等,0,2023-04-19,2023-04-13,吾嬬山第一牧野農業協同組合,,その他の設立登記法人,群馬県,吾妻郡中之条町,大字山田１１７４番地の２,,10,421,3770434,,,2023-04-13,清算の結了等,,,2015-10-05,1,,,,,カヅマヤマダイイチボクヤ,0
1685,6100001001584,登記記録の閉鎖等,0,2023-04-19,2023-04-12,株式会社鈴商,,株式会社,長野県,長野市,大字安茂里字内河原１５２９番地１,,20,201,3800941,,,2023-04-12,清算の結了等,,,2015-10-05,1,,,,,スズショウ,0
1687,6100001025162,登記記録の閉鎖等,0,2023-04-19,2023-04-10,株式会社ＥＶＯＬＵＴＩＯＮ,,株式会社,長野県,佐久市,上平尾６９４番地１,,20,217,3850002,,,2023-04-10,清算の結了等,,,2015-10-05,1,,,,,エヴォリューション,0
1692,6110001008323,登記記録の閉鎖等,0,2023-04-19,2023-04-12,北洋印刷株式会社,,株式会社,新潟県,新潟市西蒲区,漆山８６８０番地１,,15,108,9530054,,,2023-04-12,清算の結了等,,,2015-10-05,1,,,,,ホクヨウインサツ,0
1694,6110005006364,登記記録の閉鎖等,0,2023-04-19,2023-03-31,十二神社,,その他の設立登記法人,新潟県,燕市,吉田法花堂１４７３番地,,15,213,9590214,,,2023-03-31,合併による解散等,5110005006373,令和５年３月３１日新潟県燕市吉田法花堂４３１番地１神明赤崎神社（5110005006373）に合併し解散,2015-10-05,1,,,,,ジュウニジンジャ,0
1708,6120105006197,登記記録の閉鎖等,0,2023-04-19,2023-04-13,特定非営利活動法人泉州人,,その他の設立登記法人,大阪府,岸和田市,八幡町２番１８号,,27,202,5960023,,,2023-04-13,清算の結了等,,,2015-10-05,1,,,,,センシュウジン,0
1725,6140005017648,登記記録の閉鎖等,0,2023-04-19,2023-04-17,協同組合小野東山工業センター,,その他の設立登記法人,兵庫県,小野市,片山町１１１１番地の４９,,28,218,6751335,,,2023-04-17,清算の結了等,,,2015-10-05,1,,,,,オノヒガシヤマコウギョウセンター,0
1726,6150002006859,登記記録の閉鎖等,0,2023-04-19,2023-04-12,有限会社タニワキ,,有限会社,奈良県,桜井市,大字慈恩寺９５４番地の１、４０３,,29,206,6330017,,,2023-04-12,清算の結了等,,,2015-10-05,1,,,,,タニワキ,0
1730,6160001015950,登記記録の閉鎖等,0,2023-04-19,2023-04-17,西日本開発株式会社,,株式会社,滋賀県,守山市,勝部３丁目１３番２７号,,25,207,5240041,,,2023-04-17,清算の結了等,,,2015-10-05,1,,,,,,0
1736,6180001105007,登記記録の閉鎖等,0,2023-04-19,2023-04-13,ＭＳ中部株式会社,,株式会社,愛知県,名古屋市中区,錦１丁目３番１８号エターナル北山ビル,,23,106,4600003,,,2023-04-13,合併による解散等,1010001030440,令和５年４月３日東京都千代田区神田駿河台三丁目９番地三井住友海上エイジェンシー・サービス株式会社（1010001030440）に合併し解散,2015-10-05,1,,,,,エムエスチュウブ,0
1737,6180001147503,登記記録の閉鎖等,0,2023-04-19,2023-04-17,株式会社ＡＮＪ,,株式会社,愛知県,名古屋市中区,大須４丁目１１番２３号ＬＡ上前津８Ｃ号,,23,106,4600011,,,2023-04-17,清算の結了等,,,2021-08-24,1,,,,,エーエヌジェイ,0
1738,6180002032919,登記記録の閉鎖等,0,2023-04-19,2023-04-10,有限会社マテリアル,,有限会社,愛知県,名古屋市中区,栄２丁目７番１３号,,23,106,4600008,,,2023-04-10,清算の結了等,,,2015-10-05,1,,,,,マテリアル,0
1750,6190003001888,登記記録の閉鎖等,0,2023-04-19,2023-04-10,合同会社グッドワールド,,合同会社,三重県,松阪市,小黒田町２５０番地花水木１０１,,24,204,5150062,,,2023-04-10,清算の結了等,,,2015-10-05,1,,,,,グッドワールド,0
1757,6220001020250,登記記録の閉鎖等,0,2023-04-19,2023-04-13,ＭＳ北陸株式会社,,株式会社,石川県,金沢市,尾山町６番２５号,,17,201,9200918,,,2023-04-13,合併による解散等,1010001030440,令和５年４月３日東京都千代田区神田駿河台三丁目９番地三井住友海上エイジェンシー・サービス株式会社（1010001030440）に合併し解散,2015-10-05,1,,,,,エムエスホクリク,0
1778,6290802016804,登記記録の閉鎖等,0,2023-04-19,2023-04-17,有限会社遠賀倉庫,,有限会社,福岡県,遠賀郡遠賀町,大字広渡１２５６番地,,40,384,8114302,,,2023-04-17,清算の結了等,,,2015-10-05,1,,,,,オンガソウコ,0
1779,6290803001499,登記記録の閉鎖等,0,2023-04-19,2023-04-17,合名会社吉田信平商店,,合名会社,福岡県,直方市,古町１０番１０号,,40,204,8220027,,,2023-04-17,清算の結了等,,,2015-10-05,1,,,,,ヨシダシンペイショウテン,0
1784,6330005003942,登記記録の閉鎖等,0,2023-04-19,2023-04-03,一般財団法人熊本県起業化支援センター,,その他の設立登記法人,熊本県,上益城郡益城町,大字田原２０８１番地１０,,43,443,8612202,,,2023-04-03,合併による解散等,8330005003940,令和５年４月１日熊本県上益城郡益城町大字田原２０８１番地１０公益財団法人くまもと産業支援財団（8330005003940）に合併し解散,2015-10-05,1,,,,,クマモトケンキギョウカシエンセンター,0
1807,6430001071801,登記記録の閉鎖等,0,2023-04-19,2023-04-17,東日本名岐機械サービス株式会社,,株式会社,北海道,札幌市清田区,平岡五条３丁目６番１０号,,01,110,0040875,,,2023-04-17,清算の結了等,,,2016-06-16,1,,,,,ヒガシニホンメイギキカイサービス,0
1844,7010401137581,登記記録の閉鎖等,0,2023-04-19,2023-04-03,株式会社インデックスエンジニアリング,,株式会社,東京都,港区,虎ノ門４丁目３番１号,,13,103,1050001,,,2023-04-03,合併による解散等,8010401059619,令和５年４月１日東京都港区虎ノ門四丁目３番１号株式会社インデックスコンサルティング（8010401059619）に合併し解散,2018-04-06,1,,,,,インデックスエンジニアリング,0
1857,7010605001567,登記記録の閉鎖等,0,2023-04-19,2023-04-11,特定非営利活動法人マイクロサンプリング調査会,,その他の設立登記法人,東京都,墨田区,向島３丁目３３番１０号池田ビル３階,,13,107,1310033,,,2023-04-11,清算の結了等,,,2015-10-05,1,,,,,マイクロサンプリングチョウサカイ,0
1873,7011101035209,登記記録の閉鎖等,0,2023-04-19,2023-04-03,株式会社ダイフレックス,,株式会社,東京都,港区,元赤坂１丁目２番７号赤坂Ｋタワー７階,,13,103,1070051,,,2023-04-03,合併による解散等,2010401098738,令和５年４月１日東京都港区元赤坂一丁目２番７号赤坂Ｋタワー７階シーカ・ジャパン株式会社（2010401098738）に合併し解散,2015-10-05,1,,,,,ダイフレックス,0
1874,7011101049844,登記記録の閉鎖等,0,2023-04-19,2023-04-03,ディックプルーフィング株式会社,,株式会社,東京都,港区,元赤坂１丁目２番７号赤坂Ｋタワー７階,,13,103,1070051,,,2023-04-03,合併による解散等,2010401098738,令和５年４月１日東京都港区元赤坂一丁目２番７号赤坂Ｋタワー７階シーカ・ジャパン株式会社（2010401098738）に合併し解散,2015-10-05,1,,,,,ディックプルーフィング,0
1875,7011101057715,登記記録の閉鎖等,0,2023-04-19,2023-04-14,ナックスマートエネルギー株式会社,,株式会社,東京都,新宿区,新宿１丁目８番１号,,13,104,1600022,,,2023-04-14,合併による解散等,6011101030870,令和５年４月１日東京都新宿区高田馬場二丁目１４番５号エースホーム株式会社（6011101030870）に合併し解散,2015-10-05,1,,,,,ナックスマートエネルギー,0
1876,7011101091755,登記記録の閉鎖等,0,2023-04-19,2023-04-13,株式会社スクルドキッズ,,株式会社,東京都,新宿区,西新宿６丁目１４－１新宿グリーンタワービル２０階,,13,104,1600023,,,2023-04-13,合併による解散等,6011101063318,令和５年４月１日東京都中央区日本橋３－１２－２朝日ビルヂング４Ｆ株式会社スクルドアンドカンパニー（6011101063318）に合併し解散,2020-07-08,1,,,,,スクルドキッズ,0
1878,7011102009418,登記記録の閉鎖等,0,2023-04-19,2023-04-14,有限会社中田屋,,有限会社,東京都,新宿区,新宿４丁目４番１５号,,13,104,1600022,,,2023-04-14,清算の結了等,,,2015-10-05,1,,,,,ナカダヤ,0
1902,7020001085791,登記記録の閉鎖等,0,2023-04-19,2023-04-12,株式会社福住庭園,,株式会社,神奈川県,大和市,西鶴間１丁目１４番９号,,14,213,2420005,,,2023-04-12,清算の結了等,,,2015-10-05,1,,,,,フクズミテイエン,0
1908,7020002103379,登記記録の閉鎖等,0,2023-04-19,2023-04-07,有限会社アルファプランネット,,有限会社,神奈川県,川崎市川崎区,殿町１丁目８番１８－４０８号ダイヤパレス川崎殿町ＩＩ,00125552,14,131,2100821,,,2023-04-07,清算の結了等,,,2015-10-05,1,,,,,アルファプランネット,0
1915,7030001102141,登記記録の閉鎖等,0,2023-04-19,2023-04-06,株式会社インフォテック,,株式会社,東京都,文京区,関口１丁目１０番２号,,13,105,1120014,,,2023-04-06,清算の結了等,,,2015-10-05,1,,,,,インフォテック,0
1948,7050002044752,登記記録の閉鎖等,0,2023-04-19,2023-04-11,大建ハウジング有限会社,,有限会社,茨城県,筑西市,西方１６６５番地１１６,,08,227,3080845,,,2023-04-11,清算の結了等,,,2015-10-05,1,,,,,ダイケンハウジング,0
1963,7080002015692,登記記録の閉鎖等,0,2023-04-19,2023-04-17,有限会社岡田ケアサービス,,有限会社,静岡県,焼津市,三和１７１０番地の１,,22,212,4250064,,,2023-04-17,清算の結了等,,,2015-10-05,1,,,,,,0
1983,7120001021778,登記記録の閉鎖等,0,2023-04-19,2023-04-17,株式会社ミスタークリーナーインコーポレイテッド,,株式会社,大阪府,大阪市中央区,谷町９丁目２番２７－７０５号,,27,128,5420012,,,2023-04-17,清算の結了等,,,2015-10-05,1,,,,,ミスタークリーナーインコーポレイテッド,0
2050,7140003012617,登記記録の閉鎖等,0,2023-04-19,2023-04-17,合同会社Ａｂｌｅ,,合同会社,兵庫県,姫路市,北新在家２丁目８番１－３１５号藤和ライブタウン新在家,,28,201,6700091,,,2023-04-17,清算の結了等,,,2017-12-07,1,,,,,エイブル,0
2051,7140005016351,登記記録の閉鎖等,0,2023-04-19,2023-04-14,医療法人社団スギモトレディースクリニック,,その他の設立登記法人,兵庫県,西宮市,甲風園１丁目１２番５号,,28,204,6620832,,,2023-04-14,清算の結了等,,,2015-10-05,1,,,,,スギモトレディースクリニック,0
2057,7170002002962,登記記録の閉鎖等,0,2023-04-19,2023-04-14,有限会社野志理容所,,有限会社,和歌山県,和歌山市,南中間町８番地,,30,201,6408251,,,2023-04-14,清算の結了等,,,2015-10-05,1,,,,,ノシリヨウショ,0
2064,7180002073128,登記記録の閉鎖等,0,2023-04-19,2023-04-14,有限会社和光住建,,有限会社,愛知県,尾張旭市,城山町三ツ池６１３２の１,,23,226,4880881,,,2023-04-14,清算の結了等,,,2015-10-05,1,,,,,ワコウジュウケン,0
2065,7180002091682,登記記録の閉鎖等,0,2023-04-19,2023-04-12,友田アルファー加工有限会社,,有限会社,愛知県,あま市,森５丁目１９番地の９,,23,237,4901107,,,2023-04-12,清算の結了等,,,2015-10-05,1,,,,,トモダアルファーカコウ,0
2074,7230002000646,登記記録の閉鎖等,0,2023-04-19,2023-04-14,有限会社大蔵,,有限会社,富山県,富山市,若竹町３丁目７５番地,,16,201,9398181,,,2023-04-14,清算の結了等,,,2015-10-05,1,,,,,オオクラ,0
2088,7290003006819,登記記録の閉鎖等,0,2023-04-19,2023-04-04,合同会社和,,合同会社,福岡県,福岡市城南区,長尾４丁目６番３７号,,40,136,8140123,,,2023-04-04,清算の結了等,,,2016-11-18,1,,,,,カズ,0
2096,7310001015117,登記記録の閉鎖等,0,2023-04-19,2023-04-10,サン電子ホールディングス株式会社,,株式会社,長崎県,佐世保市,立神町２３番地３０,,42,202,8570063,,,2023-04-10,合併による解散等,9310001005487,令和５年４月１日長崎県佐世保市立神町２３番地３０サン電子工業株式会社（9310001005487）に合併し解散,2017-08-25,1,,,,,サンデンシホールディングス,0
2152,8010102000096,登記記録の閉鎖等,0,2023-04-19,2023-04-13,アイソス有限会社,,有限会社,東京都,八王子市,丹木町２丁目２１１番地の１,,13,201,1920003,,,2023-04-13,清算の結了等,,,2015-10-05,1,,,,,,0
2156,8010401088477,登記記録の閉鎖等,0,2023-04-19,2023-04-03,株式会社エントデックミュージック,,株式会社,東京都,港区,赤坂３丁目１３番１６号,,13,103,1070052,,,2023-04-03,合併による解散等,6010401004898,令和５年４月１日東京都港区赤坂三丁目１３番１６号株式会社エヌ・エス・エル（6010401004898）に合併し解散,2015-10-05,1,,,,,エントデックミュージック,0
2159,8010401149915,登記記録の閉鎖等,0,2023-04-19,2023-04-05,ＨＡＤＡ　ＬＥＧＡＣＹ株式会社,,株式会社,東京都,港区,西新橋１丁目２０－９ＴＳＲビル３Ｆ,,13,103,1050003,,,2023-04-05,清算の結了等,,,2019-12-19,1,,,,,ハダレガシィー,0
2172,8010701038958,登記記録の閉鎖等,0,2023-04-19,2023-04-04,ＢＥＥＮＯＳ　Ｅｎｔｅｒｔａｉｎｍｅｎｔ株式会社,,株式会社,東京都,品川区,北品川４丁目７番３５号,,13,109,1400001,,,2023-04-04,合併による解散等,3010701026174,令和５年４月１日東京都品川区北品川四丁目７番３５号モノセンス株式会社（3010701026174）に合併し解散,2020-03-04,1,,,,,ビーノスエンターテインメント,0
2195,8011501005082,登記記録の閉鎖等,0,2023-04-19,2023-04-06,株式会社ラグレイド９８,,株式会社,東京都,千代田区,神田神保町２丁目３０番地神保町ハウスＲ０８号,,13,101,1010051,,,2023-04-06,清算の結了等,,,2015-10-05,1,,,,,ラグレイドナインティエイト,0
2196,8011601004199,登記記録の閉鎖等,0,2023-04-19,2023-04-14,田中建材株式会社,,株式会社,東京都,練馬区,北町８丁目２３番１１号,,13,120,1790081,,,2023-04-14,清算の結了等,,,2015-10-05,1,,,,,タナカケンザイ,0
2214,8020001014378,登記記録の閉鎖等,0,2023-04-19,2023-04-17,株式会社ＦＣＳエフクリーンサービス,,株式会社,東京都,台東区,北上野２丁目９番１９－３０６号,,13,106,1100014,,,2023-04-17,清算の結了等,,,2015-10-05,1,,,,,エフシーエスエフクリーンサービス,0
2223,8020001127601,登記記録の閉鎖等,0,2023-04-19,2023-04-07,メディブル株式会社,,株式会社,神奈川県,横浜市青葉区,すみよし台２５番地１０グリーンヴィラＡ－２０２,,14,117,2270035,,,2023-04-07,清算の結了等,,,2018-08-15,1,,,,,メディブル,0
2235,8020005005506,登記記録の閉鎖等,0,2023-04-19,2023-04-07,特定非営利活動法人横浜全戸塚ドリームチームクラブ,,その他の設立登記法人,神奈川県,横浜市戸塚区,戸塚町２７０５番地１７,,14,110,2440003,,,2023-04-07,清算の結了等,,,2015-10-05,1,,,,,ヨコハマオールトツカドリームチームクラブ,0
2255,8030002036296,登記記録の閉鎖等,0,2023-04-19,2023-04-06,株式会社ウィングライフ,,株式会社,埼玉県,川越市,的場１丁目２６番４号,,11,201,3501101,,,2023-04-06,清算の結了等,,,2015-10-05,1,,,,,ウィングライフ,0
2259,8040001046675,登記記録の閉鎖等,0,2023-04-19,2023-04-13,ＴＰＲ　ＥＫ特殊金属株式会社,,株式会社,千葉県,佐倉市,太田２１４７番１,,12,212,2850808,,,2023-04-13,合併による解散等,3011501001929,令和５年４月１日埼玉県三郷市三郷二丁目４番２号ＴＰＲサンライト株式会社（3011501001929）に合併し解散,2015-10-05,1,,,,,ティーピーアールイーケートクシュキンゾク,0
2264,8040002060709,登記記録の閉鎖等,0,2023-04-19,2023-04-04,有限会社光葉,,有限会社,千葉県,佐倉市,臼井台１２７８番地７,,12,212,2850866,,,2023-04-04,清算の結了等,,,2015-10-05,1,,,,,コウヨウ,0
2273,8070001011610,登記記録の閉鎖等,0,2023-04-19,2023-04-13,株式会社安藤製作所,,株式会社,群馬県,富岡市,七日市１５８４番地,,10,210,3702343,,,2023-04-13,清算の結了等,,,2015-10-05,1,,,,,アンドウセイサクショ,0
2283,8090001009000,登記記録の閉鎖等,0,2023-04-19,2023-04-14,ヒドロスプリンクラー株式会社,,株式会社,山梨県,山梨市,牧丘町千野々宮５２８番地,,19,205,4040016,,,2023-04-14,合併による解散等,2020001013641,令和５年４月１日横浜市南区大岡三丁目１６番８号ヒドロ工業株式会社（2020001013641）に合併し解散,2015-10-05,1,,,,,ヒドロスプリンクラー,0
2288,8120001062706,登記記録の閉鎖等,0,2023-04-19,2023-04-11,喜谷包装資材株式会社,,株式会社,大阪府,大阪市北区,同心１丁目４番３２号,,27,127,5300035,,,2023-04-11,清算の結了等,,,2015-10-05,1,,,,,キタニホウソウシザイ,0
2318,8122005001391,登記記録の閉鎖等,0,2023-04-19,2023-04-11,社会福祉法人逢花,00034967,その他の設立登記法人,大阪府,東大阪市,衣摺６丁目１２番３号,00034968,27,227,5770827,,,2023-04-11,合併による解散等,8140005003514,令和５年４月３日大阪府吹田市岸部南一丁目４番２４号社会福祉法人恩徳福祉会（8140005003514）に合併し解散,2015-10-05,1,,,,,オウカ,0
2341,8140005025186,登記記録の閉鎖等,0,2023-04-19,2023-04-05,特定非営利活動法人さわやか福祉会,,その他の設立登記法人,兵庫県,尼崎市,南武庫之荘７丁目６番１－３０５号,,28,202,6610033,,,2023-04-05,清算の結了等,,,2020-06-23,1,,,,,サワヤカフクシカイ,0
2344,8180001020641,登記記録の閉鎖等,0,2023-04-19,2023-04-13,花井商事株式会社,,株式会社,愛知県,名古屋市中川区,西日置２丁目２番２４号,,23,110,4540004,,,2023-04-13,清算の結了等,,,2015-10-05,1,,,,,ハナイショウジ,0
2350,8180001083829,登記記録の閉鎖等,0,2023-04-19,2023-04-14,株式会社水上,,株式会社,愛知県,一宮市,白旗通１丁目２０番地,,23,203,4910879,,,2023-04-14,清算の結了等,,,2015-10-05,1,,,,,ミズカミ,0
2352,8180301009475,登記記録の閉鎖等,0,2023-04-19,2023-04-05,株式会社アテンダコーポレーション,,株式会社,愛知県,豊橋市,神野新田町字ワノ割５２番地５,,23,201,4418077,,,2023-04-05,清算の結了等,,,2015-10-05,1,,,,,アテンダコーポレーション,0
2361,8240001051944,登記記録の閉鎖等,0,2023-04-19,2023-04-14,オフィスエミー株式会社,,株式会社,広島県,福山市,神辺町大字新道上１６番地７ポレスター神辺３０３,,34,207,7202107,,,2023-04-14,清算の結了等,,,2017-11-14,1,,,,,オフィスエミー,0
2364,8240002052784,登記記録の閉鎖等,0,2023-04-19,2023-04-17,有限会社ホリカワ,,有限会社,広島県,世羅郡世羅町,大字甲山２５９番地の２,,34,462,7221123,,,2023-04-17,清算の結了等,,,2015-10-05,1,,,,,ホリカワ,0
2371,8290001023014,登記記録の閉鎖等,0,2023-04-19,2023-04-12,株式会社ＴＧＳ,,株式会社,福岡県,福岡市博多区,博多駅前１丁目４番４号,,40,132,8120011,,,2023-04-12,合併による解散等,8030001109128,令和５年４月１日東京都中央区晴海一丁目８番１０号晴海アイランドトリトンスクエアオフィスタワーＸ１４階ニコニコ機材株式会社（8030001109128）に合併し解散,2015-10-05,1,,,,,ティージーエス,0
2377,8290001071780,登記記録の閉鎖等,0,2023-04-19,2023-04-07,株式会社ＦＵＴＵＲＥ　ＬＩＮＥ,,株式会社,宮崎県,宮崎市,潮見町１６－１アルテマイスター潮見３０２号室,,45,201,8800862,,,2023-04-07,清算の結了等,,,2015-10-30,1,,,,,フューチャーライン,0
2387,8300001009639,登記記録の閉鎖等,0,2023-04-19,2023-04-11,株式会社エイトソン,,株式会社,佐賀県,鳥栖市,儀徳町２５１６番地６,,41,203,8410066,,,2023-04-11,合併による解散等,3010001132895,令和５年４月１日東京都中央区東日本橋二丁目２６番１７号イズトーク株式会社（3010001132895）に合併し解散,2015-10-05,1,,,,,エイトソン,0
2388,8300005000560,登記記録の閉鎖等,0,2023-04-19,2023-03-31,安養寺,,その他の設立登記法人,佐賀県,佐賀市,本庄町大字末次９６４番地,,41,201,8400024,,,2023-03-31,合併による解散等,2300005000748,令和５年３月３１日佐賀県佐賀市東与賀町大字下古賀１６３番地の１長泉寺（2300005000748）に合併し解散,2015-10-05,1,,,,,アンヨウジ,0
2393,8330002008125,登記記録の閉鎖等,0,2023-04-19,2023-04-11,有限会社野田商会,,有限会社,熊本県,熊本市中央区,南熊本４丁目７番７号,,43,101,8600812,,,2023-04-11,清算の結了等,,,2015-10-05,1,,,,,ノダショウカイ,0
2405,8370002012734,登記記録の閉鎖等,0,2023-04-19,2023-04-11,有限会社ネイティブサイン＆デザイン研究所,,有限会社,宮城県,仙台市青葉区,米ケ袋１丁目６番２号４０３号室,,04,101,9800813,,,2023-04-11,清算の結了等,,,2015-10-05,1,,,,,ネイティブサインアンドデザインケンキュウジョ,0
2408,8380001018310,登記記録の閉鎖等,0,2023-04-19,2023-04-13,株式会社植くさ,,株式会社,福島県,会津若松市,上町２番１号,,07,202,9650034,,,2023-04-13,清算の結了等,,,2015-10-05,1,,,,,,0
2416,8400002007210,登記記録の閉鎖等,0,2023-04-19,2023-04-11,有限会社ナガタ,,有限会社,岩手県,紫波郡矢巾町,大字南矢幅第７地割４５３番地,,03,322,0283615,,,2023-04-11,清算の結了等,,,2015-10-05,1,,,,,,0
2429,8490005004691,登記記録の閉鎖等,0,2023-04-19,2023-04-14,医療法人涼風会,,その他の設立登記法人,高知県,南国市,駅前町３丁目２番２４号,,39,204,7830002,,,2023-04-14,清算の結了等,,,2015-10-05,1,,,,,スズカゼカイ,0
2472,9010701013893,登記記録の閉鎖等,0,2023-04-19,2023-04-06,メトロキャッシュアンドキャリージャパン株式会社,,株式会社,東京都,品川区,西五反田１丁目２６－２五反田サンハイツビルディング２階,,13,109,1410031,,,2023-04-06,清算の結了等,,,2015-10-05,1,,,,,メトロキャッシュアンドキャリージャパン,0
2474,9010901025805,登記記録の閉鎖等,0,2023-04-19,2023-04-17,株式会社Ｏｎｅ’ｓＬｉｆｅホーム,,株式会社,東京都,世田谷区,成城３丁目２１番８号,,13,112,1570066,,,2023-04-17,合併による解散等,8040001016521,令和５年４月１日千葉県船橋市湊町三丁目７番８号株式会社相川スリーエフ（8040001016521）に合併し解散,2015-10-05,1,,,,,ワンズライフホーム,0
2490,9011102012287,登記記録の閉鎖等,0,2023-04-19,2023-04-14,有限会社丸升産業,,有限会社,東京都,新宿区,細工町１番１６号,,13,104,1620838,,,2023-04-14,清算の結了等,,,2015-10-05,1,,,,,,0
2497,9011701023627,登記記録の閉鎖等,0,2023-04-19,2023-04-14,株式会社ＲＩＧＨＴ　ＡＲＭＳ,,株式会社,東京都,江戸川区,本一色２丁目４番１号,,13,123,1330044,,,2023-04-14,清算の結了等,,,2020-07-17,1,,,,,ライトアームズ,0
2526,9021002065120,登記記録の閉鎖等,0,2023-04-19,2023-04-13,有限会社スミ商会,,有限会社,神奈川県,横須賀市,追浜本町１丁目４３番地,,14,201,2370068,,,2023-04-13,清算の結了等,,,2015-10-05,1,,,,,スミショウカイ,0
2538,9030002029448,登記記録の閉鎖等,0,2023-04-19,2023-04-05,有限会社笹川工業,,有限会社,埼玉県,所沢市,東所沢３丁目２番地１６,,11,208,3590021,,,2023-04-05,清算の結了等,,,2015-10-05,1,,,,,ササガワコウギョウ,0
2545,9040003019273,登記記録の閉鎖等,0,2023-04-19,2023-04-04,合同会社グループリビングカリス,,合同会社,千葉県,東金市,家之子１６７１－２１,,12,213,2830001,,,2023-04-04,清算の結了等,,,2022-01-13,1,,,,,グループリビングカリス,0
2548,9050002013516,登記記録の閉鎖等,0,2023-04-19,2023-04-12,有限会社アミコンピュータビジネス,,有限会社,茨城県,稲敷郡阿見町,中央５丁目９番１３号,,08,443,3000332,,,2023-04-12,清算の結了等,,,2015-10-05,1,,,,,アミコンピュータビジネス,0
2565,9100001012141,登記記録の閉鎖等,0,2023-04-19,2023-04-12,株式会社富士見堂家具,,株式会社,長野県,中野市,中央２丁目１番８号,,20,211,3830022,,,2023-04-12,清算の結了等,,,2015-10-05,1,,,,,フジミドウカグ,0
2568,9100002003536,登記記録の閉鎖等,0,2023-04-19,2023-04-12,コーシン販売有限会社,,有限会社,長野県,長野市,大字小島７１７番地５,,20,201,3810017,,,2023-04-12,清算の結了等,,,2015-10-05,1,,,,,コーシンハンバイ,0
2570,9100002029052,登記記録の閉鎖等,0,2023-04-19,2023-04-11,有限会社明和精工,,有限会社,長野県,諏訪郡下諏訪町,６１５３番地９,,20,361,3930000,,,2023-04-11,清算の結了等,,,2015-10-05,1,,,,,メイワセイコウ,0
2604,9120101058438,登記記録の閉鎖等,0,2023-04-19,2023-04-17,株式会社ｂｏｒｄｏ,,株式会社,大阪府,泉佐野市,日根野７７０番地の３,,27,213,5980021,,,2023-04-17,清算の結了等,,,2018-07-05,1,,,,,ボード,0
2612,9130001036187,登記記録の閉鎖等,0,2023-04-19,2023-04-12,株式会社加地藤,,株式会社,京都府,亀岡市,河原町４番地,,26,206,6210803,,,2023-04-12,清算の結了等,,,2015-10-05,1,,,,,カジトウ,0
2658,9190003002454,登記記録の閉鎖等,0,2023-04-19,2023-04-11,合同会社ｋ．ｔ．ｍ．Ｃｏｍｐａｎｙ,,合同会社,三重県,松阪市,久保町１８５５－８３３,,24,204,5150044,,,2023-04-11,清算の結了等,,,2015-12-22,1,,,,,ケーティーエムカンパニー,0
2664,9220001001462,登記記録の閉鎖等,0,2023-04-19,2023-04-12,株式会社エヌ・ティ・テクニカル,,株式会社,石川県,金沢市,打木町東１４０６番地,,17,201,9200377,,,2023-04-12,合併による解散等,2180001101769,令和５年４月１日愛知県長久手市岩作落合１２番地９株式会社日工（2180001101769）に合併し解散,2015-10-05,1,,,,,エヌティテクニカル,0
2679,9240005004996,登記記録の閉鎖等,0,2023-04-19,2023-04-03,社会福祉法人ちとせ会,,その他の設立登記法人,広島県,安芸高田市,吉田町吉田１９４８番地１,,34,214,7310501,,,2023-04-03,合併による解散等,2240005004994,令和５年４月３日広島県安芸高田市吉田町竹原９６７番地社会福祉法人清風会（2240005004994）に合併し解散,2015-10-05,1,,,,,チトセカイ,0
2687,9290001026619,登記記録の閉鎖等,0,2023-04-19,2023-04-13,株式会社箱崎紙流通センター,,株式会社,福岡県,福岡市東区,箱崎ふ頭５丁目６番３号,,40,131,8120051,,,2023-04-13,合併による解散等,7010001069341,令和５年４月１日東京都中央区勝どき三丁目１２番１号フォアフロントタワーＪＰロジネット株式会社（7010001069341）に合併し解散,2015-10-05,1,,,,,ハコザキカミリュウツウセンター,0
2697,9290801001738,登記記録の閉鎖等,0,2023-04-19,2023-04-14,自動車電機販売株式会社,,株式会社,福岡県,北九州市小倉北区,井堀３丁目２３番１８号,,40,106,8030835,,,2023-04-14,清算の結了等,,,2015-10-05,1,,,,,ジドウシャデンキハンバイ,0
2710,9330001010155,登記記録の閉鎖等,0,2023-04-19,2023-04-11,株式会社隅田建築設計事務所,,株式会社,熊本県,熊本市東区,画図町所島９７５番地１,,43,102,8610000,,,2023-04-11,清算の結了等,,,2015-10-05,1,,,,,スミタケンチクセッケイジムショ,0
2746,9430001024979,登記記録の閉鎖等,0,2023-04-19,2023-04-06,札幌東急リフォーム株式会社,,株式会社,北海道,札幌市白石区,東札幌一条１丁目１番８号,,01,104,0030001,,,2023-04-06,合併による解散等,1430001007925,令和５年４月１日札幌市白石区東札幌一条一丁目１番８号株式会社じょうてつ（1430001007925）に合併し解散,2015-10-05,1,,,,,サッポロトウキュウリフォーム,0
