sequenceNumber,corporateNumber,process,correct,updateDate,changeDate,name,nameImageId,kind,prefectureName,cityName,streetNumber,addressImageId,prefectureCode,cityCode,postCode,addressOutside,addressOutsideImageId,closeDate,closeCause,successorCorporateNumber,changeCause,assignmentDate,latest,enName,enPrefectureName,enCityName,enAddressOutside,furigana,hihyoji
5,1010001249592,新規,0,2024-11-05,2024-11-05,株式会社ユナイテッドマジック,,株式会社,東京都,中央区,日本橋箱崎町３５番３号ＢＲＩＣＫＧＡＴＥ日本橋６階,,13,102,1030015,,,,,,,2024-11-05,1,,,,,ユナイテッドマジック,0
20,1010401186130,新規,0,2024-11-05,2024-11-05,株式会社ＴＧＲエンターテインメント,,株式会社,東京都,港区,北青山１丁目３番１号アールキューブ青山３階,,13,103,1070061,,,,,,,2024-11-05,1,,,,,ティージーアールエンターテインメント,0
21,1010401186188,新規,0,2024-11-05,2024-11-05,ＤＢ　Ｐｙｒａｍｉｄ　ＡｃｑＣｏ株式会社,,株式会社,東京都,港区,白金台３丁目１０番１０号,,13,103,1080071,,,,,,,2024-11-05,1,,,,,ディービーピラミッドアクコ,0
22,1010401186213,新規,0,2024-11-05,2024-11-05,株式会社ＴＷＩＮＳ,,株式会社,東京都,港区,港南２丁目１６―４品川グランドセントラルタワー８Ｆ,,13,103,1080075,,,,,,,2024-11-05,1,,,,,ツインズ,0
29,1010403033660,新規,0,2024-11-05,2024-11-05,合同会社ＭＤＲ,,合同会社,東京都,港区,高輪３丁目１０番２号,,13,103,1080074,,,,,,,2024-11-05,1,,,,,エムディーアール,0
34,1010501053123,新規,0,2024-11-05,2024-11-05,株式会社福業貿易,,株式会社,東京都,台東区,元浅草１丁目２０番９－４０２号,,13,106,1110041,,,,,,,2024-11-05,1,,,,,フクギョウボウエキ,0
35,1010503007622,新規,0,2024-11-05,2024-11-05,合同会社Ｓｈｉｎｄｏ,,合同会社,東京都,台東区,西浅草２丁目１８－１,,13,106,1110035,,,,,,,2024-11-05,1,,,,,シンドー,0
38,1010803005152,新規,0,2024-11-05,2024-11-05,合同会社Ｈｅｒｅ　ｗｅ　ｇｏ,,合同会社,東京都,大田区,大森西４丁目２番２２－６号,,13,111,1430015,,,,,,,2024-11-05,1,,,,,ヒアーウィーゴー,0
40,1010901056254,新規,0,2024-11-05,2024-11-05,株式会社ｍｉｍｉ,,株式会社,東京都,世田谷区,池尻２丁目３０番２５号,,13,112,1540001,,,,,,,2024-11-05,1,,,,,ミミ,0
46,1011001165730,新規,0,2024-11-05,2024-11-05,株式会社ＶＥＮＴＵＳディオーサ,,株式会社,東京都,渋谷区,神宮前６丁目２３番４号桑野ビル２階,,13,113,1500001,,,,,,,2024-11-05,1,,,,,ベントスディオーサ,0
53,1011005010718,新規,0,2024-11-05,2024-11-05,特定非営利活動法人トリニダード・トバゴ文化芸術普及協会,,その他の設立登記法人,東京都,渋谷区,円山町５番５号Ｎａｖｉ渋谷Ｖ３階,,13,113,1500044,,,,,,,2024-11-05,1,,,,,トリニダードトバゴブンカゲイジュツフキュウキョウカイ,0
55,1011101109430,新規,0,2024-11-05,2024-11-05,株式会社Ａｎｇｅｌ’ｓ　ｈｕｍ,,株式会社,東京都,新宿区,百人町１丁目１－１０コンフォール新宿Ｄ号室,,13,104,1690073,,,,,,,2024-11-05,1,,,,,エンジェルハミング,0
62,1012303002068,新規,0,2024-11-05,2024-11-05,合同会社Ｋａｉｋｋｉ　Ｎｏｌｌａ,,合同会社,東京都,町田市,金井ヶ丘２丁目３３番１３号,,13,209,1950076,,,,,,,2024-11-05,1,,,,,カイッキノーラ,0
63,1012801023540,新規,0,2024-11-05,2024-11-05,株式会社あぴたす,,株式会社,東京都,立川市,柏町３丁目２３‐９,,13,202,1900004,,,,,,,2024-11-05,1,,,,,アピタス,0
70,1013301053334,新規,0,2024-11-05,2024-11-05,株式会社ネクストステージ,,株式会社,東京都,豊島区,南池袋１丁目１６番１５号ダイヤゲート池袋５階,,13,116,1710022,,,,,,,2024-11-05,1,,,,,ネクストステージ,0
72,1013305003665,新規,0,2024-11-05,2024-11-05,特定非営利活動法人日本学生ボランティア協会,,その他の設立登記法人,東京都,豊島区,駒込６丁目１番２１号ヴィラ駒込３０２号,,13,116,1700003,,,,,,,2024-11-05,1,,,,,ニホンガクセイボランティアキョウカイ,0
85,1020001159907,新規,0,2024-11-05,2024-11-05,株式会社ミトモ,,株式会社,神奈川県,横浜市緑区,三保町９８９番地の１,,14,113,2260015,,,,,,,2024-11-05,1,,,,,ミトモ,0
88,1020003027178,新規,0,2024-11-05,2024-11-05,合同会社もみじ,,合同会社,神奈川県,横浜市神奈川区,神之木台３８番２号,,14,102,2210011,,,,,,,2024-11-05,1,,,,,モミジ,0
92,1021001083650,新規,0,2024-11-05,2024-11-05,台湾インフラサービス株式会社,,株式会社,神奈川県,鎌倉市,鎌倉山３丁目１１番８号,,14,204,2480031,,,,,,,2024-11-05,1,,,,,タイワンインフラサービス,0
93,1021001083659,新規,0,2024-11-05,2024-11-05,株式会社Ｍａｒｉｎｅ　Ｃｒａｆｔ,,株式会社,神奈川県,横須賀市,長井５丁目２８番２２号,,14,201,2380316,,,,,,,2024-11-05,1,,,,,マリンクラフト,0
94,1021001083675,新規,0,2024-11-05,2024-11-05,株式会社ＣＨＮ　ＡＳＩＡ,,株式会社,神奈川県,相模原市中央区,淵野辺本町３丁目１９番１７－２号,,14,152,2520202,,,,,,,2024-11-05,1,,,,,シーエイチエヌアジア,0
106,1030001163222,新規,0,2024-11-05,2024-11-05,株式会社ｉｒｏＡＩ,,株式会社,埼玉県,富士見市,大字東大久保３６番地１２,,11,235,3540001,,,,,,,2024-11-05,1,,,,,イロアイ,0
107,1030001163239,新規,0,2024-11-05,2024-11-05,株式会社ゼクリード,,株式会社,埼玉県,川口市,芝４丁目１３－１６,,11,203,3330866,,,,,,,2024-11-05,1,,,,,ゼクリード,0
108,1030001163247,新規,0,2024-11-05,2024-11-05,遼福実業株式会社,,株式会社,埼玉県,さいたま市見沼区,大字東門前２９５番地１６,,11,104,3370016,,,,,,,2024-11-05,1,,,,,リョウフクジツギョウ,0
109,1030001163271,新規,0,2024-11-05,2024-11-05,株式会社ＭＴＪＳ,,株式会社,埼玉県,さいたま市中央区,上落合７丁目７番４０－２０２号,,11,105,3380001,,,,,,,2024-11-05,1,,,,,エムティージェイエス,0
117,1030003025412,新規,0,2024-11-05,2024-11-05,合同会社Ｌｕｍｏｓ,,合同会社,埼玉県,越谷市,大沢４丁目１２番３号,,11,222,3430025,,,,,,,2024-11-05,1,,,,,ルーモス,0
118,1030005021921,新規,0,2024-11-05,2024-11-05,ＮＰＯ法人吉川みらいのブカツ,,その他の設立登記法人,埼玉県,吉川市,木売１丁目９番地２３,,11,243,3420045,,,,,,,2024-11-05,1,,,,,ヨシカワミライノブカツ,0
120,1040001136004,新規,0,2024-11-05,2024-11-05,株式会社Ｂｕｌｌ　ｕｐ　ｉｎｓｕｒａｎｃｅ,,株式会社,千葉県,浦安市,当代島２丁目１５－２３サントリニ宇田川１１０号室,,12,227,2790001,,,,,,,2024-11-05,1,,,,,ブルアップインシュアランス,0
121,1050003008786,新規,0,2024-11-05,2024-11-05,合同会社ＭＡＲＵＭＡＮ,,合同会社,茨城県,つくば市,苅間１０５２番２,,08,220,3050822,,,,,,,2024-11-05,1,,,,,マルマン,0
127,1080003003322,新規,0,2024-11-05,2024-11-05,合同会社ｎｉｎａｒｕ,,合同会社,静岡県,静岡市葵区,東町１番地の２,,22,101,4200836,,,,,,,2024-11-05,1,,,,,ニナル,0
143,1120001269976,新規,0,2024-11-05,2024-11-05,正威株式会社,,株式会社,大阪府,大阪市港区,港晴３丁目２番６号ＫＥＥＰ港晴パールハウス２０３室,,27,107,5520023,,,,,,,2024-11-05,1,,,,,セイイ,0
149,1120003027440,新規,0,2024-11-05,2024-11-05,合同会社グリスタ,,合同会社,大阪府,大阪市浪速区,芦原１丁目２番２２号サンロール難波南２０１号,,27,111,5560029,,,,,,,2024-11-05,1,,,,,グリスタ,0
151,1120005024601,新規,0,2024-11-05,2024-11-05,特定非営利活動法人麻雀普及委員会,,その他の設立登記法人,大阪府,大阪市港区,港晴４丁目１４番１号,,27,107,5520023,,,,,,,2024-11-05,1,,,,,マージャンフキュウイインカイ,0
158,1130003009974,新規,0,2024-11-05,2024-11-05,合同会社中華料理江華,,合同会社,京都府,京都市西京区,大枝沓掛町９番地６８,,26,111,6101106,,,,,,,2024-11-05,1,,,,,チュウカリョウリコウカ,0
162,1160001026325,新規,0,2024-11-05,2024-11-05,株式会社エクラス,,株式会社,滋賀県,大津市,一里山１丁目６－１６,,25,201,5202153,,,,,,,2024-11-05,1,,,,,エクラス,0
163,1160001026333,新規,0,2024-11-05,2024-11-05,株式会社Ｂｒｉｄｇｅ,,株式会社,滋賀県,東近江市,上平木町４０３９－３,,25,213,5270086,,,,,,,2024-11-05,1,,,,,,0
179,1180001163926,新規,0,2024-11-05,2024-11-05,株式会社ＭＦ　ＣＯＲＰＯＲＡＴＩＯＮ,,株式会社,愛知県,弥富市,三稲６丁目１番地,,23,235,4980054,,,,,,,2024-11-05,1,,,,,エムエフコーポレーション,0
180,1180001163967,新規,0,2024-11-05,2024-11-05,株式会社ＮＡＭＢＡ,,株式会社,愛知県,北名古屋市,鹿田永塚１１８番地,,23,234,4810004,,,,,,,2024-11-05,1,,,,,ナンバ,0
191,1180303006329,新規,0,2024-11-05,2024-11-05,Ｅ‐Ｄｅｖｉｌ　Ｍａｒｋｅｔｉｎｇ合同会社,,合同会社,愛知県,豊田市,西岡町切畑１０３番地,,23,211,4730936,,,,,,,2024-11-05,1,,,,,イーデビルマーケティング,0
194,1200005013678,新規,0,2024-11-05,2024-11-05,一般社団法人いろいろ,,その他の設立登記法人,岐阜県,各務原市,尾崎西町５丁目９番地,,21,213,5040004,,,,,,,2024-11-05,1,,,,,イロイロ,0
197,1240001064003,新規,0,2024-11-05,2024-11-05,株式会社中村リフォーム,,株式会社,広島県,広島市安佐北区,安佐町久地１０２０６－１７４,,34,106,7391700,,,,,,,2024-11-05,1,,,,,ナカムラリフォーム,0
205,1250003003585,新規,0,2024-11-05,2024-11-05,合同会社村田邸,,合同会社,山口県,山口市,江良３丁目１８番１５号,,35,203,7530017,,,,,,,2024-11-05,1,,,,,ムラタテイ,0
206,1260001039597,新規,0,2024-11-05,2024-11-05,株式会社アンフィニ,,株式会社,岡山県,倉敷市,新田２５２１番地武部住宅南号室,,33,202,7100038,,,,,,,2024-11-05,1,,,,,アンフィニ,0
226,1310003004890,新規,0,2024-11-05,2024-11-05,合同会社Ｆｏｒｅｓｔ,,合同会社,長崎県,南島原市,布津町乙１８８２番地１,,42,214,8592112,,,,,,,2024-11-05,1,,,,,フォレスト,0
228,1330001032611,新規,0,2024-11-05,2024-11-05,株式会社ＰＰＣＣ,,株式会社,熊本県,上益城郡益城町,大字福富７６７番地６,,43,443,8612235,,,,,,,2024-11-05,1,,,,,ピーピーシーシー,0
235,1360003014431,新規,0,2024-11-05,2024-11-05,合同会社ＭｉＹＡＧｉ,,合同会社,沖縄県,中頭郡読谷村,字比謝１５番地ドミールＭ２０１号,,47,324,9040311,,,,,,,2024-11-05,1,,,,,ミヤギ,0
246,1380001034875,新規,0,2024-11-05,2024-11-05,株式会社Ｙｕｍｉｎ,,株式会社,福島県,白河市,表郷金山字下ノ内７９番地４,,07,205,9610416,,,,,,,2024-11-05,1,,,,,ユーミン,0
251,1380002036359,新規,0,2024-11-05,2024-11-05,叶屋織物有限会社,,有限会社,福島県,福島市,飯野町字向舘２４番地,,07,201,9601301,,,,,,,2024-11-05,1,,,,,カノウヤオリモノ,0
252,1380003005882,新規,0,2024-11-05,2024-11-05,合同会社Ｈａｎａ,,合同会社,福島県,郡山市,安積町長久保３丁目１０番地の１川井ハイツ２０３号,,07,203,9630105,,,,,,,2024-11-05,1,,,,,ハナ,0
268,1460002001065,新規,0,2024-11-05,2024-11-05,有限会社小林薬局,,有限会社,北海道,釧路市,大川町８番４６号,,01,206,0850837,,,,,,,2024-11-05,1,,,,,コバヤシヤッキョク,0
271,1700150127752,新規,0,2024-11-05,2024-11-05,Ｈａｎｇｚｈｏｕ　Ｙａｎ　Ｙｉ　ｅ－ｃｏｍｍｅｒｃｅ　Ｃｏ．，ＬＴＤ,,外国会社等,,,,,,,,Ｒｏｏｍ　５Ｂ５０３－８３，Ｂｕｉｌｄｉｎｇ　５Ｂ，Ｎｏ．１，Ｎｏ．６６６，Ｙａｄｉｎｇ　Ｒｏａｄ，Ｙａｎｇｘｉ　Ｓｔｒｅｅｔ，Ｊｉａｎｄｅ　Ｃｉｔｙ，Ｈａｎｇｚｈｏｕ，Ｚｈｅｊｉａｎｇ，Ｃｈｉｎａ,,,,,,2024-11-05,1,,,,,ハンゾウイェンイイーコマースカンパニーリミテッド,0
276,2010001249410,新規,0,2024-11-05,2024-11-05,ライフドック株式会社,,株式会社,東京都,中央区,銀座１丁目２２番１１号,,13,102,1040061,,,,,,,2024-11-05,1,,,,,ライフドック,0
277,2010001249518,新規,0,2024-11-05,2024-11-05,Ｌｅｎａ　Ｅｖｅｎｔｓ　ａｎｄ　Ｃｏｍｍｕｎｉｃａｔｉｏｎ株式会社,,株式会社,東京都,千代田区,五番町１２番地７－２０４３絆ホールディングス合同会社内,,13,101,1020076,,,,,,,2024-11-05,1,,,,,レナイベンツアンドコミュニケーション,0
278,2010001249542,新規,0,2024-11-05,2024-11-05,株式会社ＳＭＯＫＹ　ＭＯＵＮＴＡＩＮ,,株式会社,東京都,中央区,新富１丁目１５番１４号,,13,102,1040041,,,,,,,2024-11-05,1,,,,,スモーキーマウンテン,0
279,2010001249559,新規,0,2024-11-05,2024-11-05,株式会社ＦＯＲＭＵＳ,,株式会社,東京都,千代田区,神田多町２丁目１番地２３神田東山ビル７Ｆ／８Ｆ,,13,101,1010046,,,,,,,2024-11-05,1,,,,,フォーマス,0
280,2010001249583,新規,0,2024-11-05,2024-11-05,豊誉永利株式会社,,株式会社,東京都,中央区,日本橋箱崎町１７番８号,,13,102,1030015,,,,,,,2024-11-05,1,,,,,ホウヨエイリ,0
281,2010005039048,新規,0,2024-11-05,2024-11-05,税理士法人第一綜合事務所,,その他の設立登記法人,東京都,中央区,京橋２丁目５番１８号京橋創生館,,13,102,1040031,,,,,,,2024-11-05,1,,,,,,0
288,2010401186105,新規,0,2024-11-05,2024-11-05,株式会社エバーシャイン,,株式会社,東京都,港区,芝１丁目１５－１０第一芝一丁目ビル８階,,13,103,1050014,,,,,,,2024-11-05,1,,,,,エバーシャイン,0
296,2010403033668,新規,0,2024-11-05,2024-11-05,合同会社ＳＥＡ,,合同会社,東京都,港区,浜松町２丁目７番１７号イーグル浜松町天翔オフィス浜松町大門１０階１０３４号室,,13,103,1050013,,,,,,,2024-11-05,1,,,,,シー,0
297,2010403033718,新規,0,2024-11-05,2024-11-05,Ｍｏａｔｒｅａｍ　Ｃｏｎｓｕｌｔｉｎｇ合同会社,,合同会社,東京都,港区,三田３丁目５番２７号ラ・トゥール三田３４０５,,13,103,1080073,,,,,,,2024-11-05,1,,,,,モートリームコンサルティング,0
300,2010501053122,新規,0,2024-11-05,2024-11-05,株式会社ＦＧＯ,,株式会社,東京都,台東区,寿３丁目８番６－３０２号ジェノヴィア浅草蔵前スカイガーデン,,13,106,1110042,,,,,,,2024-11-05,1,,,,,エフジーオー,0
303,2010601066214,新規,0,2024-11-05,2024-11-05,株式会社ｈａｃｏｓａｎ,,株式会社,東京都,江東区,東雲１丁目９－１７－１０１７,,13,108,1350062,,,,,,,2024-11-05,1,,,,,ハコサン,0
306,2010701046776,新規,0,2024-11-05,2024-11-05,株式会社ニューライフ企画,,株式会社,東京都,品川区,西五反田８丁目１２番１０号,,13,109,1410031,,,,,,,2024-11-05,1,,,,,ニューライフキカク,0
309,2010901056245,新規,0,2024-11-05,2024-11-05,株式会社らぶここ,,株式会社,東京都,世田谷区,砧２丁目１６番１－１１０号ガーデニエール砧ｗｅｓｔ,,13,112,1570073,,,,,,,2024-11-05,1,,,,,ラブココ,0
310,2010901056253,新規,0,2024-11-05,2024-11-05,レイ株式会社,,株式会社,東京都,世田谷区,代田４丁目２３番１８号サン代田２０１,,13,112,1550033,,,,,,,2024-11-05,1,,,,,レイ,0
313,2010903009457,新規,0,2024-11-05,2024-11-05,合同会社ＪＩＯ,,合同会社,東京都,世田谷区,上馬２丁目１２―１０パークハイム上馬１０２,,13,112,1540011,,,,,,,2024-11-05,1,,,,,ジオ,0
325,2011101109405,新規,0,2024-11-05,2024-11-05,万通株式会社,,株式会社,東京都,新宿区,東五軒町１番９号ＳＢＳ・Ｃ－７,,13,104,1620813,,,,,,,2024-11-05,1,,,,,バンツウ,0
326,2011101109413,新規,0,2024-11-05,2024-11-05,株式会社ＲＥＫＩＮＤ　ＧＲＯＵＰ,,株式会社,東京都,新宿区,新宿４丁目３番１７号,,13,104,1600022,,,,,,,2024-11-05,1,,,,,リカインドグループ,0
327,2011103015139,新規,0,2024-11-05,2024-11-05,ＥｖｅｒＭｉｎｄ合同会社,,合同会社,東京都,新宿区,西新宿３丁目３番１３号西新宿水間ビル２Ｆ,,13,104,1600023,,,,,,,2024-11-05,1,,,,,エバーマインド,0
330,2011403004543,新規,0,2024-11-05,2024-11-05,Ｋａｍｉｎｅｋｏ合同会社,,合同会社,東京都,板橋区,南常盤台１丁目１１番６号レフア南常盤台１０１号室,,13,119,1740072,,,,,,,2024-11-05,1,,,,,カミネコ,0
331,2011501031316,新規,0,2024-11-05,2024-11-05,秋嘉株式会社,,株式会社,東京都,荒川区,町屋３丁目１８－１２ＮＤビル２２４室,,13,118,1160001,,,,,,,2024-11-05,1,,,,,シュウカ,0
336,2011801045081,新規,0,2024-11-05,2024-11-05,株式会社ＡｎＫ,,株式会社,東京都,葛飾区,新宿１丁目２１番１１号,,13,122,1250051,,,,,,,2024-11-05,1,,,,,アンク,0
337,2012301014139,新規,0,2024-11-05,2024-11-05,株式会社ユービリゾート,,株式会社,東京都,町田市,つくし野２丁目２９番地４,,13,209,1940001,,,,,,,2024-11-05,1,,,,,ユービリゾート,0
339,2012403006827,新規,0,2024-11-05,2024-11-05,合同会社Ｎｏｗａ,,合同会社,東京都,三鷹市,下連雀３丁目３７－４１新栄ビル２０１,,13,204,1810013,,,,,,,2024-11-05,1,,,,,ノワ,0
346,2020001159732,新規,0,2024-11-05,2024-11-05,株式会社ＡＩＫＩ,,株式会社,神奈川県,川崎市高津区,千年１００８－１０１,,14,134,2130022,,,,,,,2024-11-05,1,,,,,アイキ,0
347,2020001159914,新規,0,2024-11-05,2024-11-05,株式会社オレンジ,,株式会社,神奈川県,川崎市麻生区,細山４丁目１７番６号,,14,137,2150001,,,,,,,2024-11-05,1,,,,,オレンジ,0
351,2020003027169,新規,0,2024-11-05,2024-11-05,合同会社ＡＯ,,合同会社,神奈川県,横浜市旭区,中希望が丘１７２番１６,,14,112,2410825,,,,,,,2024-11-05,1,,,,,アオ,0
352,2020003027177,新規,0,2024-11-05,2024-11-05,合同会社ＫＧＴ設備機工,,合同会社,神奈川県,川崎市川崎区,藤崎１丁目２７番１０号２Ｆ,,14,131,2100804,,,,,,,2024-11-05,1,,,,,ケージーティセツビキコウ,0
353,2020003027185,新規,0,2024-11-05,2024-11-05,ディーノプラス合同会社,,合同会社,神奈川県,横浜市鶴見区,東寺尾東台１１番５号,,14,101,2300018,,,,,,,2024-11-05,1,,,,,ディーノプラス,0
356,2021001083666,新規,0,2024-11-05,2024-11-05,株式会社サンライズ・リアルエステート,,株式会社,神奈川県,藤沢市,鵠沼桜が岡２丁目６番５号,,14,205,2510027,,,,,,,2024-11-05,1,,,,,サンライズリアルエステート,0
357,2021001083674,新規,0,2024-11-05,2024-11-05,株式会社ＯＫＩＡＧＡＲＩ　ＫＯＢＯＳＨＩ,,株式会社,神奈川県,三浦市,南下浦町上宮田１４８４－６,,14,210,2380101,,,,,,,2024-11-05,1,,,,,オキアガリコボシ,0
366,2030001163221,新規,0,2024-11-05,2024-11-05,ＹＫ株式会社,,株式会社,埼玉県,飯能市,大字小岩井３６５番地,,11,209,3570066,,,,,,,2024-11-05,1,,,,,ワイケー,0
367,2030001163238,新規,0,2024-11-05,2024-11-05,株式会社ワンホープ,,株式会社,埼玉県,さいたま市緑区,大字中尾２４１５－１ルイシャトレ浦和グレースガーデン３０１,,11,109,3360932,,,,,,,2024-11-05,1,,,,,ワンホープ,0
368,2030001163246,新規,0,2024-11-05,2024-11-05,ＤＡＮＡＮＧ　Ｔ＆Ｔ株式会社,,株式会社,埼玉県,さいたま市岩槻区,大字南下新井１８９３番地２,,11,110,3390032,,,,,,,2024-11-05,1,,,,,ダナンティーアンドティー,0
369,2030001163279,新規,0,2024-11-05,2024-11-05,株式会社ジャパンファースト,,株式会社,埼玉県,川越市,砂新田４丁目１－２３高階マンション２０６号室,,11,201,3501137,,,,,,,2024-11-05,1,,,,,ジャパンファースト,0
381,2040005022562,新規,0,2024-11-05,2024-11-05,特定非営利活動法人日本ライダーズネットワーク,,その他の設立登記法人,千葉県,千葉市美浜区,高洲２丁目７番９棟２０５号,,12,106,2610004,,,,,,,2024-11-05,1,,,,,ニホンライダーズネットワーク,0
386,2070001042322,新規,0,2024-11-05,2024-11-05,ドウベル株式会社,,株式会社,群馬県,伊勢崎市,東本町３８２番地３,,10,204,3720025,,,,,,,2024-11-05,1,,,,,ドウベル,0
387,2070002037791,新規,0,2024-11-05,2024-11-05,有限会社今泉木工所,,有限会社,群馬県,伊勢崎市,日乃出町５５０番地１,,10,204,3720022,,,,,,,2024-11-05,1,,,,,イマイズミモッコウジョ,0
388,2080103003188,新規,0,2024-11-05,2024-11-05,合同会社ＦＲＥＥＭＡＮ７,,合同会社,静岡県,富士宮市,北町７番５号１階,,22,207,4180061,,,,,,,2024-11-05,1,,,,,フリーマンセブン,0
398,2100001037987,新規,0,2024-11-05,2024-11-05,株式会社旅・マネジメント,,株式会社,長野県,北佐久郡軽井沢町,大字長倉２０１５番地５,,20,321,3890111,,,,,,,2024-11-05,1,,,,,タビマネジメント,0
416,2120001269942,新規,0,2024-11-05,2024-11-05,東聯株式会社,,株式会社,大阪府,大阪市西成区,萩之茶屋１丁目１２番７－１２８号,,27,122,5570004,,,,,,,2024-11-05,1,,,,,トウレン,0
417,2120001269950,新規,0,2024-11-05,2024-11-05,豊裕株式会社,,株式会社,大阪府,大阪市天王寺区,味原町１６番３号２０７,,27,109,5430023,,,,,,,2024-11-05,1,,,,,ホウユウ,0
418,2120001270000,新規,0,2024-11-05,2024-11-05,株式会社ＳＥＶＥＮ,,株式会社,大阪府,寝屋川市,清水町２２番５号,,27,215,5720044,,,,,,,2024-11-05,1,,,,,セブン,0
425,2120003027893,新規,0,2024-11-05,2024-11-05,合同会社安宅建設,,合同会社,大阪府,大阪市淀川区,十三本町１丁目１８－７,,27,123,5320024,,,,,,,2024-11-05,1,,,,,アタカケンセツ,0
426,2120005024600,新規,0,2024-11-05,2024-11-05,一般社団法人シニア住宅相談センター,,その他の設立登記法人,大阪府,大阪市住吉区,長居３丁目７番１０号,,27,120,5580003,,,,,,,2024-11-05,1,,,,,シニアジュウタクソウダンセンター,0
428,2120101070523,新規,0,2024-11-05,2024-11-05,株式会社ビルカス,,株式会社,大阪府,堺市中区,伏尾１３５番地１,,27,142,5998254,,,,,,,2024-11-05,1,,,,,ビルカス,0
429,2120103006120,新規,0,2024-11-05,2024-11-05,合同会社綾工業,,合同会社,大阪府,泉大津市,森町２丁目１８番１２号,,27,206,5950005,,,,,,,2024-11-05,1,,,,,アヤコウギョウ,0
432,2120901049989,新規,0,2024-11-05,2024-11-05,株式会社ＭＳＣ,,株式会社,大阪府,茨木市,下井町１０番,,27,211,5670066,,,,,,,2024-11-05,1,,,,,エムエスシー,0
447,2140001136298,新規,0,2024-11-05,2024-11-05,株式会社古畑林業,,株式会社,兵庫県,宍粟市,一宮町安黒６１９番地１,,28,227,6714135,,,,,,,2024-11-05,1,,,,,フルハタリンギョウ,0
461,2180001163925,新規,0,2024-11-05,2024-11-05,株式会社ジュスティース,,株式会社,愛知県,名古屋市守山区,西島町１番３５号（ライオンズ守山マークヒルズ２１８号）,,23,113,4630015,,,,,,,2024-11-05,1,,,,,ジュスティース,0
462,2180001163933,新規,0,2024-11-05,2024-11-05,株式会社ハートアップクリーニング,,株式会社,愛知県,尾張旭市,印場元町２丁目６番地３,,23,226,4880840,,,,,,,2024-11-05,1,,,,,ハートアップクリーニング,0
469,2190001031759,新規,0,2024-11-05,2024-11-05,株式会社洸,,株式会社,三重県,四日市市,富州原町５番２号,,24,202,5108016,,,,,,,2024-11-05,1,,,,,コウ,0
470,2190001031767,新規,0,2024-11-05,2024-11-05,株式会社有竹建築,,株式会社,三重県,四日市市,小林町３０２４番地４,,24,202,5100946,,,,,,,2024-11-05,1,,,,,アリタケケンチク,0
477,2240001064051,新規,0,2024-11-05,2024-11-05,株式会社新和インテリア,,株式会社,広島県,広島市安佐北区,あさひが丘６丁目５番１号,,34,106,7313361,,,,,,,2024-11-05,1,,,,,シンワインテリア,0
479,2250001020879,新規,0,2024-11-05,2024-11-05,株式会社ＮＸＣＡＲＥ,,株式会社,山口県,宇部市,野原１丁目１８番７号,,35,202,7550024,,,,,,,2024-11-05,1,,,,,ネクスケア,0
481,2260001039596,新規,0,2024-11-05,2024-11-05,ラピス・ラズリ株式会社,,株式会社,岡山県,岡山市北区,平田１４９番地１２６（３０３）,,33,101,7000952,,,,,,,2024-11-05,1,,,,,ラピスラズリ,0
499,2330003010597,新規,0,2024-11-05,2024-11-05,合同会社Ｇｉｖｉｎｇ　Ｔｒｅｅ,,合同会社,熊本県,葦北郡芦北町,大字古石３７２,,43,482,8695575,,,,,,,2024-11-05,1,,,,,ギビングツリー,0
505,2360001034397,新規,0,2024-11-05,2024-11-05,株式会社Ｔ‐１Ｃ　ＡＰＡＲＴＭＥＮＴ　ＳＴＯＲＥ,,株式会社,沖縄県,那覇市,泊１丁目２１番地１４,,47,201,9000012,,,,,,,2024-11-05,1,,,,,ティワンシーアパートメントストア,0
507,2370001051879,新規,0,2024-11-05,2024-11-05,株式会社ｅｃｌａｔ,,株式会社,宮城県,仙台市泉区,北高森２９番地の７,,04,105,9813202,,,,,,,2024-11-05,1,,,,,エクラ,0
520,2420001008403,新規,0,2024-11-05,2024-11-05,株式会社坂信組,,株式会社,青森県,つがる市,木造若緑４３番地１,,02,209,0383138,,,,,,,2024-11-05,1,,,,,サカシングミ,0
531,2430003016964,新規,0,2024-11-05,2024-11-05,合同会社つむぎ,,合同会社,北海道,勇払郡厚真町,字上厚真２１１番地の２５,,01,581,0591741,,,,,,,2024-11-05,1,,,,,ツムギ,0
535,2440001009515,新規,0,2024-11-05,2024-11-05,ＤＫパートナーズ株式会社,,株式会社,北海道,亀田郡七飯町,大川８丁目６番１６号,,01,337,0411122,,,,,,,2024-11-05,1,,,,,ディーケーパートナーズ,0
543,2700150127751,新規,0,2024-11-05,2024-11-05,Ｏｎｅ　Ｉｎｖｅｓｔｍｅｎｔ　Ｍａｎａｇｅｍｅｎｔ　Ｊａｐａｎ　ＬＬＣ,,外国会社等,東京都,世田谷区,喜多見９丁目１０番１６号,,13,112,1570067,米国デラウエア州ケント郡ドーバー、ニュー・バートン・ロード８５０、スイート２０１、コージェンシー・グローバル・インク内,,,,,,2024-11-05,1,,,,,ワンインベストメントマネジメントジヤパンエルエルシー,0
549,3010001249517,新規,0,2024-11-05,2024-11-05,獅醒株式会社,,株式会社,東京都,千代田区,丸の内３丁目２－２丸の内二重橋ビル３階７９号室,,13,101,1000005,,,,,,,2024-11-05,1,,,,,シセイ,0
550,3010001249541,新規,0,2024-11-05,2024-11-05,ＣＨＩＮＫＡＳＨＩＳＡＩ株式会社,,株式会社,東京都,千代田区,内幸町１丁目７番２４号,,13,101,1000011,,,,,,,2024-11-05,1,,,,,チンカシサイ,0
551,3010001249574,新規,0,2024-11-05,2024-11-05,豆叶株式会社,,株式会社,東京都,中央区,銀座１丁目２２番１１号銀座大竹ビジデンス２Ｆ,,13,102,1040061,,,,,,,2024-11-05,1,,,,,トウキョウ,0
552,3010001249640,新規,0,2024-11-05,2024-11-05,旭商事株式会社,,株式会社,東京都,文京区,白山１丁目６－４文京ＶＥＮＴＵＲＥＢＡＳＥ２階２３０号室,,13,105,1130001,,,,,,,2024-11-05,1,,,,,アサヒショウジ,0
556,3010003045286,新規,0,2024-11-05,2024-11-05,合同会社ＢＬＵＥＳＫＹ,,合同会社,東京都,中央区,銀座１丁目１２－４Ｎ＆ＥＢＬＤ．７階,,13,102,1040061,,,,,,,2024-11-05,1,,,,,ブルースカイ,0
558,3010005039055,新規,0,2024-11-05,2024-11-05,一般社団法人駐在ファミリーサポート協会,,その他の設立登記法人,東京都,千代田区,神田駿河台４丁目３番地,,13,101,1010062,,,,,,,2024-11-05,1,,,,,チュウザイファミリーサポートキョウカイ,0
564,3010401186112,新規,0,2024-11-05,2024-11-05,株式会社ＶＩＲＡＬ,,株式会社,東京都,港区,西麻布２丁目２４番１７号Ｂ１Ｆ,,13,103,1060031,,,,,,,2024-11-05,1,,,,,ヴァイラル,0
565,3010401186120,新規,0,2024-11-05,2024-11-05,株式会社ＥＮＣＨＯＲＤ,,株式会社,東京都,港区,虎ノ門１丁目１７番１号,,13,103,1050001,,,,,,,2024-11-05,1,,,,,エンコード,0
566,3010401186129,新規,0,2024-11-05,2024-11-05,ＯＣＰ１株式会社,,株式会社,東京都,港区,虎ノ門３丁目２２番１０－２０１号,,13,103,1050001,,,,,,,2024-11-05,1,,,,,オーシーピーワン,0
570,3010403033725,新規,0,2024-11-05,2024-11-05,合同会社ＳｋｙＭａｐｐｙ　Ｍａｒｋｅｔｉｎｇ,,合同会社,東京都,港区,三田３丁目９番１１号ＲａｎｄＬＴＡＫＡＮＡＷＡＧＡＴＥＷＡＹ８０２,,13,103,1080073,,,,,,,2024-11-05,1,,,,,スカイマッピーマーケティング,0
581,3010901056260,新規,0,2024-11-05,2024-11-05,株式会社ＹＹ,,株式会社,東京都,世田谷区,上用賀１丁目６番２号,,13,112,1580098,,,,,,,2024-11-05,1,,,,,ワイワイ,0
585,3011001165555,新規,0,2024-11-05,2024-11-05,株式会社ｚｅｒＯｎｅ,,株式会社,東京都,渋谷区,神宮前６丁目２３－４桑野ビル２Ｆ,,13,113,1500001,,,,,,,2024-11-05,1,,,,,ゼロワン,0
586,3011001165729,新規,0,2024-11-05,2024-11-05,株式会社ＶＥＮＴＵＳマーレ,,株式会社,東京都,渋谷区,神宮前６丁目２３番４号桑野ビル２階,,13,113,1500001,,,,,,,2024-11-05,1,,,,,ベントスマーレ,0
590,3011101109395,新規,0,2024-11-05,2024-11-05,マッキンリーアンドイアハート株式会社,,株式会社,東京都,新宿区,四谷４丁目２５番地１０ダイアパレス御苑前２０１,,13,104,1600004,,,,,,,2024-11-05,1,,,,,マッキンリーアンドイアハート,0
591,3011101109437,新規,0,2024-11-05,2024-11-05,株式会社ヒューマンスライヴ,,株式会社,東京都,新宿区,西新宿３丁目３番１３号西新宿水間ビル２Ｆ,,13,104,1600023,,,,,,,2024-11-05,1,,,,,ヒューマンスライヴ,0
592,3011103015138,新規,0,2024-11-05,2024-11-05,左右合同会社,,合同会社,東京都,新宿区,榎町３４－３榎町ビル７階－１０室,,13,104,1620806,,,,,,,2024-11-05,1,,,,,サユウ,0
594,3011301030120,新規,0,2024-11-05,2024-11-05,株式会社筒井紀博空間工房,,株式会社,東京都,杉並区,宮前４丁目１４番１２号,,13,115,1680081,,,,,,,2024-11-05,1,,,,,ツツイキハククウカンコウボウ,0
596,3011403004534,新規,0,2024-11-05,2024-11-05,合同会社ロータス,,合同会社,東京都,板橋区,中台３丁目２７番Ｆ棟１２０３号,,13,119,1740064,,,,,,,2024-11-05,1,,,,,ロータス,0
600,3011805003407,新規,0,2024-11-05,2024-11-05,一般社団法人そらまめハウス,,その他の設立登記法人,東京都,葛飾区,東金町２丁目２４番１２号,,13,122,1250041,,,,,,,2024-11-05,1,,,,,ソラマメハウス,0
601,3012403006826,新規,0,2024-11-05,2024-11-05,合同会社ＮＵＨＳ,,合同会社,東京都,三鷹市,牟礼４丁目７－４,,13,204,1810002,,,,,,,2024-11-05,1,,,,,エヌユーエイチエス,0
610,3020001159888,新規,0,2024-11-05,2024-11-05,株式会社Ｄ‐ＳＴＹＬＥ,,株式会社,神奈川県,横浜市泉区,和泉中央北１丁目１７番３４号,,14,116,2450024,,,,,,,2024-11-05,1,,,,,ディースタイル,0
611,3020001159896,新規,0,2024-11-05,2024-11-05,株式会社ＤＴＳ,,株式会社,神奈川県,川崎市中原区,下小田中１丁目１番１号ファースト・アヴェニュー２１０,,14,133,2110041,,,,,,,2024-11-05,1,,,,,ディティエス,0
612,3020001159905,新規,0,2024-11-05,2024-11-05,株式会社エンネクスト,,株式会社,神奈川県,横浜市磯子区,森３丁目９番１４号,,14,107,2350023,,,,,,,2024-11-05,1,,,,,エンネクスト,0
613,3020001159913,新規,0,2024-11-05,2024-11-05,株式会社天野架設,,株式会社,神奈川県,横浜市磯子区,洋光台２丁目１４番３１号,,14,107,2350045,,,,,,,2024-11-05,1,,,,,アマノカセツ,0
616,3020003027168,新規,0,2024-11-05,2024-11-05,合同会社ＳＨＩ,,合同会社,神奈川県,横浜市青葉区,松風台１番地８グランフォルム青葉台１０２号,,14,117,2270067,,,,,,,2024-11-05,1,,,,,エスエイチアイ,0
617,3021001083590,新規,0,2024-11-05,2024-11-05,トウエン株式会社,,株式会社,神奈川県,秦野市,南矢名２２２３番地の４東海ビル１１０Ａ,,14,211,2570003,,,,,,,2024-11-05,1,,,,,トウエン,0
623,3021003015179,新規,0,2024-11-05,2024-11-05,合同会社Ｙ＆Ａ,,合同会社,神奈川県,鎌倉市,七里ガ浜東３丁目１９番７号,,14,204,2480025,,,,,,,2024-11-05,1,,,,,ワイアンドエー,0
629,3030001163220,新規,0,2024-11-05,2024-11-05,株式会社グリーンヒル,,株式会社,埼玉県,上尾市,浅間台２丁目２２番地３,,11,219,3620073,,,,,,,2024-11-05,1,,,,,グリーンヒル,0
630,3030001163229,新規,0,2024-11-05,2024-11-05,ＲＮ企画株式会社,,株式会社,埼玉県,越谷市,大字袋山１２０４番地１リストレジデンス越谷大袋８０３,,11,222,3430032,,,,,,,2024-11-05,1,,,,,アールエヌキカク,0
648,3040001135953,新規,0,2024-11-05,2024-11-05,株式会社ＳＨＯＫＩ,,株式会社,千葉県,木更津市,大寺１０４５番地１,,12,206,2920024,,,,,,,2024-11-05,1,,,,,ショウキ,0
649,3040001136002,新規,0,2024-11-05,2024-11-05,株式会社月乃翼,,株式会社,千葉県,野田市,花井８５番地の２３,,12,208,2780026,,,,,,,2024-11-05,1,,,,,ツキノツバサ,0
661,3080103003187,新規,0,2024-11-05,2024-11-05,福源合同会社,,合同会社,静岡県,駿東郡清水町,長沢３０７番地３,,22,341,4110905,,,,,,,2024-11-05,1,,,,,フクゲン,0
664,3080401027532,新規,0,2024-11-05,2024-11-05,株式会社栄電,,株式会社,静岡県,浜松市浜名区,三ヶ日町摩訶耶１８１番地,,22,139,4311413,,,,,,,2024-11-05,1,,,,,エイデン,0
665,3080401027549,新規,0,2024-11-05,2024-11-05,株式会社ナロー,,株式会社,静岡県,袋井市,堀越３丁目７－７ＰａｌｓＶｉｌｌａｇｅＢ－４,,22,216,4370065,,,,,,,2024-11-05,1,,,,,ナロー,0
666,3100001037986,新規,0,2024-11-05,2024-11-05,東信解体株式会社,,株式会社,長野県,東御市,祢津１７７０番地１,,20,219,3890506,,,,,,,2024-11-05,1,,,,,トウシンカイタイ,0
668,3100003007847,新規,0,2024-11-05,2024-11-05,ｏ８Ｅｘｐｅｒｉｅｎｃｅ合同会社,,合同会社,長野県,長野市,川中島町原７２８番地１,,20,201,3812224,,,,,,,2024-11-05,1,,,,,オーエイトエクスペリエンス,0
669,3110001038819,新規,0,2024-11-05,2024-11-05,株式会社ラーメン本間,,株式会社,新潟県,上越市,大潟区犀潟６５１番地６,,15,222,9493116,,,,,,,2024-11-05,1,,,,,ラーメンホンマ,0
680,3120001269801,新規,0,2024-11-05,2024-11-05,株式会社桜花快晴,,株式会社,大阪府,大阪市中央区,西心斎橋２丁目１４－５－１１０２,,27,128,5420086,,,,,,,2024-11-05,1,,,,,オウカカイセイ,0
681,3120001269834,新規,0,2024-11-05,2024-11-05,株式会社アローネ・コンサルティング,,株式会社,大阪府,大阪市中央区,内本町１丁目４番１２号ＮＰＯビル４０３号,,27,128,5400026,,,,,,,2024-11-05,1,,,,,アローネコンサルティング,0
682,3120001269883,新規,0,2024-11-05,2024-11-05,全時工業株式会社,,株式会社,大阪府,大阪市西淀川区,姫島２丁目４番１０号パークアベニュー２階Ａ室,,27,113,5550033,,,,,,,2024-11-05,1,,,,,ゼンジコウギョウ,0
683,3120001269933,新規,0,2024-11-05,2024-11-05,株式会社成川不動産,,株式会社,大阪府,大阪市旭区,高殿４丁目５番１３号,,27,117,5350031,,,,,,,2024-11-05,1,,,,,ナリカワフドウサン,0
684,3120001269941,新規,0,2024-11-05,2024-11-05,藍草画像株式会社,,株式会社,大阪府,大阪市中央区,瓦屋町２丁目１２番１５－１４１７号,,27,128,5420066,,,,,,,2024-11-05,1,,,,,アイソウガゾウ,0
685,3120001269958,新規,0,2024-11-05,2024-11-05,ヒノキテラス株式会社,,株式会社,大阪府,大阪市中央区,久太郎町１丁目７番１１号プレサンスレジェンド堺筋本町タワー２２１０号,,27,128,5410056,,,,,,,2024-11-05,1,,,,,ヒノキテラス,0
686,3120001269982,新規,0,2024-11-05,2024-11-05,ＮｅｘＳｔａｇｅ株式会社,,株式会社,大阪府,大阪市中央区,久太郎町１丁目５番１５－１２０１号,,27,128,5410056,,,,,,,2024-11-05,1,,,,,ネクステージ,0
696,3120903005403,新規,0,2024-11-05,2024-11-05,合同会社風雲,,合同会社,大阪府,豊能郡能勢町,宿野１４８番地の２５－１０２,,27,322,5630341,,,,,,,2024-11-05,1,,,,,フウウン,0
707,3140005027253,新規,0,2024-11-05,2024-11-05,一般社団法人邪馬壹国こころ,,その他の設立登記法人,兵庫県,洲本市,五色町鮎原南谷３４２番地,,28,205,6561325,,,,,,,2024-11-05,1,,,,,ヤマトコクココロ,0
709,3170003002123,新規,0,2024-11-05,2024-11-05,合同会社ＧＯリキー,,合同会社,和歌山県,和歌山市,新堀東１丁目１－３０,,30,201,6410042,,,,,,,2024-11-05,1,,,,,ゴーリキー,0
714,3180001163973,新規,0,2024-11-05,2024-11-05,株式会社Ｕ’ｓ,,株式会社,愛知県,瀬戸市,みずの坂４丁目１３番地,,23,204,4890909,,,,,,,2024-11-05,1,,,,,ユーズ,0
715,3180001164006,新規,0,2024-11-05,2024-11-05,株式会社太田設備工業,,株式会社,愛知県,名古屋市守山区,菱池町２０番４５号,,23,113,4630045,,,,,,,2024-11-05,1,,,,,オオタセツビコウギョウ,0
716,3180001164014,新規,0,2024-11-05,2024-11-05,Ｒｅライフ株式会社,,株式会社,愛知県,北名古屋市,沖村西ノ郷１６３番地,,23,234,4810043,,,,,,,2024-11-05,1,,,,,リライフ,0
722,3180005020799,新規,0,2024-11-05,2024-11-05,一般社団法人在名古屋ブラジル総領事館管轄区域市民評議会,,その他の設立登記法人,愛知県,小牧市,光ケ丘５丁目１５番地１７,,23,219,4850811,,,,,,,2024-11-05,1,,,,,ザイナゴヤブラジルソウリョウジカンカンカツクイキシミンヒョウギカイ,0
730,3200001043090,新規,0,2024-11-05,2024-11-05,株式会社ホープ,,株式会社,岐阜県,瑞穂市,生津外宮東町１丁目３９番２,,21,216,5010214,,,,,,,2024-11-05,1,,,,,ホープ,0
731,3200001043099,新規,0,2024-11-05,2024-11-05,株式会社Ｗｈｉｔｅ　Ｋｉｎｇｓ,,株式会社,岐阜県,中津川市,駒場１６６７番地の５６１,,21,206,5080011,,,,,,,2024-11-05,1,,,,,ホワイトキングス,0
733,3220003003875,新規,0,2024-11-05,2024-11-05,合同会社百万石,,合同会社,石川県,金沢市,河原市町ロ８６番地,,17,201,9200172,,,,,,,2024-11-05,1,,,,,ヒャクマンゴク,0
739,3250001020878,新規,0,2024-11-05,2024-11-05,株式会社宇部いやしの杜,,株式会社,山口県,宇部市,厚南中央２丁目１番１４号,,35,202,7590212,,,,,,,2024-11-05,1,,,,,ウベイヤシノモリ,0
741,3260001039595,新規,0,2024-11-05,2024-11-05,株式会社ゴールドバレイ,,株式会社,岡山県,岡山市北区,柳町２丁目７番１３号,,33,101,7000904,,,,,,,2024-11-05,1,,,,,ゴールドバレイ,0
751,3290001107746,新規,0,2024-11-05,2024-11-05,株式会社ＷＩＮ　ＮＥＴＷＯＲＫ,,株式会社,福岡県,糸島市,波多江駅北４丁目２－１グランドアストレイア４１０号,,40,230,8191107,,,,,,,2024-11-05,1,,,,,ウィンネットワーク,0
752,3290001107853,新規,0,2024-11-05,2024-11-05,株式会社ネクストクリーニング,,株式会社,福岡県,福岡市西区,周船寺３丁目９番３３号,,40,135,8190373,,,,,,,2024-11-05,1,,,,,ネクストクリーニング,0
755,3290003016012,新規,0,2024-11-05,2024-11-05,合同会社Ｕｐｐｌｅ,,合同会社,福岡県,福岡市博多区,博多駅前４丁目２０－１７－１００３,,40,132,8120011,,,,,,,2024-11-05,1,,,,,アップル,0
773,3350001019258,新規,0,2024-11-05,2024-11-05,株式会社シノビ,,株式会社,宮崎県,都城市,金田町１０６３番地１,,45,202,8850001,,,,,,,2024-11-05,1,,,,,シノビ,0
775,3360003014438,新規,0,2024-11-05,2024-11-05,合同会社いぶき,,合同会社,沖縄県,うるま市,字塩屋５０８番地１,,47,213,9042231,,,,,,,2024-11-05,1,,,,,イブキ,0
779,3370001051878,新規,0,2024-11-05,2024-11-05,株式会社ＫＭＤ,,株式会社,宮城県,仙台市宮城野区,田子字上２４番地の１,,04,102,9830021,,,,,,,2024-11-05,1,,,,,ケーエムディー,0
791,3430001092998,新規,0,2024-11-05,2024-11-05,株式会社雪風,,株式会社,北海道,札幌市豊平区,平岸四条９丁目８番８号ロイヤルハイツ平岸１０３号室,,01,105,0620934,,,,,,,2024-11-05,1,,,,,ユキカゼ,0
794,3460301005252,新規,0,2024-11-05,2024-11-05,株式会社サンマワル,,株式会社,北海道,北見市,東相内町６６３番地４,,01,208,0990878,,,,,,,2024-11-05,1,,,,,サンマワル,0
796,3470001020443,新規,0,2024-11-05,2024-11-05,株式会社ＡＬＬ　ＧＲｉＮ,,株式会社,香川県,高松市,伏石町１５６２番地,,37,201,7618071,,,,,,,2024-11-05,1,,,,,オールグリン,0
798,3480003002199,新規,0,2024-11-05,2024-11-05,ＴＡＴＯＥＢＡ　ＪＡＰＡＮ合同会社,,合同会社,徳島県,徳島市,南佐古七番町９番１０－３号,,36,201,7700037,,,,,,,2024-11-05,1,,,,,タトエバジャパン,0
802,3500001025983,新規,0,2024-11-05,2024-11-05,株式会社あいプラス,,株式会社,愛媛県,松山市,余戸東１丁目１３－３,,38,201,7900044,,,,,,,2024-11-05,1,,,,,アイプラス,0
804,3700150127750,新規,0,2024-11-05,2024-11-05,ＤＩＡＬ　ＴＥＣＨ　ＳＣＩＥＮＣＥ　ＣＯ．，ＬＴＤ．,,外国会社等,東京都,港区,白金１丁目２－１－１８２０,,13,103,1080072,Ｅｌｌｅｎ　Ｓｋｅｌｔｏｎ　Ｂｌｄｇ，３０７６　Ｓｉｒ　Ｆｒａｎｃｉｓ　Ｄｒａｋｅ　Ｈｉｇｈｗａｙ，Ｔｏｒｔｏｌａ，Ｂｒｉｔｉｓｈ　Ｖｉｒｇｉｎ　Ｉｓｌａｎｄｓ,,,,,,2024-11-05,1,,,,,ダイアルテツクサイエンスカンパニーリミテツド,0
811,4010001249326,新規,0,2024-11-05,2024-11-05,ＡＲＫ　Ｏａｓｉｓ株式会社,,株式会社,東京都,千代田区,九段南１丁目６番５号九段会館テラス,,13,101,1020074,,,,,,,2024-11-05,1,,,,,アークオアシス,0
812,4010001249490,新規,0,2024-11-05,2024-11-05,トゥルーファイブ株式会社,,株式会社,東京都,中央区,銀座３丁目４－１大倉別館５Ｆ,,13,102,1040061,,,,,,,2024-11-05,1,,,,,トゥルーファイブ,0
813,4010001249540,新規,0,2024-11-05,2024-11-05,株式会社ＮＯＲＴＨ　ＦＩＥＬＤ,,株式会社,東京都,中央区,八丁堀４丁目８番１０号パークウエストビル８Ｆ,,13,102,1040032,,,,,,,2024-11-05,1,,,,,ノースフィールド,0
814,4010001249664,新規,0,2024-11-05,2024-11-05,株式会社Ｍｅｄｉｓａｌｕｓ,,株式会社,東京都,中央区,銀座１丁目１２－４Ｍ＆ＥＢＬＤ．７Ｆ,,13,102,1040061,,,,,,,2024-11-05,1,,,,,メディサルース,0
821,4010401186045,新規,0,2024-11-05,2024-11-05,株式会社Ｄａｌｔｏｇ,,株式会社,東京都,港区,赤坂４丁目８番１９号赤坂フロントタウン,,13,103,1070052,,,,,,,2024-11-05,1,,,,,ダルトッグ,0
822,4010401186128,新規,0,2024-11-05,2024-11-05,Ｙ　ｐａｒｔｎｅｒ’ｓ株式会社,,株式会社,東京都,港区,白金台３丁目１９番６号白金台ビル４階,,13,103,1080071,,,,,,,2024-11-05,1,,,,,ワイパートナーズ,0
823,4010401186136,新規,0,2024-11-05,2024-11-05,株式会社トランジット,,株式会社,東京都,港区,南青山３丁目１番３６号青山丸竹ビル６Ｆ,,13,103,1070062,,,,,,,2024-11-05,1,,,,,トランジット,0
836,4010601066212,新規,0,2024-11-05,2024-11-05,株式会社ミトラファーム,,株式会社,東京都,江東区,毛利１丁目８番１－１４０５号,,13,108,1350001,,,,,,,2024-11-05,1,,,,,ミトラファーム,0
838,4010801035529,新規,0,2024-11-05,2024-11-05,株式会社Ｒｖｅｃ,,株式会社,東京都,大田区,平和島６丁目１番１号東京流通センターセンタービル１０３号室,,13,111,1430006,,,,,,,2024-11-05,1,,,,,リーベック,0
844,4011001165471,新規,0,2024-11-05,2024-11-05,株式会社ＨＴＨＨ,,株式会社,東京都,渋谷区,神宮前２丁目２６番３号,,13,113,1500001,,,,,,,2024-11-05,1,,,,,エイチティーエイチエイチ,0
854,4011101109394,新規,0,2024-11-05,2024-11-05,株式会社Ｔ．Ｉパートナーズ,,株式会社,東京都,新宿区,西新宿３丁目３番１３号西新宿水間ビル２Ｆ,,13,104,1600023,,,,,,,2024-11-05,1,,,,,ティーアイパートナーズ,0
855,4011101109411,新規,0,2024-11-05,2024-11-05,ワンリーメディア株式会社,,株式会社,東京都,新宿区,西新宿４丁目３１番３号５階,,13,104,1600023,,,,,,,2024-11-05,1,,,,,ワンリーメディア,0
856,4011101109436,新規,0,2024-11-05,2024-11-05,医者．ｃｏｍ株式会社,,株式会社,東京都,新宿区,大京町３番地１２セレスト四谷三丁目１０１,,13,104,1600015,,,,,,,2024-11-05,1,,,,,イシャドットコム,0
858,4011501031330,新規,0,2024-11-05,2024-11-05,株式会社マツ,,株式会社,東京都,荒川区,西日暮里２丁目５４番２号弥栄ビル４０１,,13,118,1160013,,,,,,,2024-11-05,1,,,,,マツ,0
867,4012701018547,新規,0,2024-11-05,2024-11-05,株式会社Ｏｒｎｉｃａ,,株式会社,東京都,小平市,花小金井南町３丁目１６番５号　ヴィラージュむさし野Ｃ―２,,13,211,1870003,,,,,,,2024-11-05,1,,,,,オルニカ,0
873,4013303007376,新規,0,2024-11-05,2024-11-05,セブンフォー合同会社,,合同会社,東京都,豊島区,南大塚１丁目６０番２０号天翔大塚駅前ビルＳ－８１３,,13,116,1700005,,,,,,,2024-11-05,1,,,,,セブンフォー,0
881,4020001159904,新規,0,2024-11-05,2024-11-05,株式会社イマジテック,,株式会社,神奈川県,横浜市中区,山手町２７番５ベイステージ元町２０１,,14,104,2310862,,,,,,,2024-11-05,1,,,,,イマジテック,0
882,4020001159912,新規,0,2024-11-05,2024-11-05,株式会社静南工舎,,株式会社,神奈川県,横浜市戸塚区,平戸町２０９番地１ロイヤルシャトー東戸塚１０７号,,14,110,2440803,,,,,,,2024-11-05,1,,,,,セイナンコウシャ,0
888,4020003027200,新規,0,2024-11-05,2024-11-05,ＩＴＦラボ合同会社,,合同会社,神奈川県,横浜市都筑区,南山田１丁目１番３７号秀英ビル３０２,,14,118,2240029,,,,,,,2024-11-05,1,,,,,アイティーエフラボ,0
889,4021001083656,新規,0,2024-11-05,2024-11-05,株式会社ｄｏｏｒ　ｐｒｏｄｕｃｔｉｏｎ,,株式会社,神奈川県,横須賀市,上町３丁目７番地Мコ－ポ１０１号室,,14,201,2380017,,,,,,,2024-11-05,1,,,,,ドアプロダクション,0
890,4021001083664,新規,0,2024-11-05,2024-11-05,株式会社ＳＳＳ,,株式会社,神奈川県,藤沢市,鵠沼橘１丁目１５番７～８０４号,,14,205,2510024,,,,,,,2024-11-05,1,,,,,エスエスエス,0
891,4021001083672,新規,0,2024-11-05,2024-11-05,株式会社ブルーシーズ,,株式会社,神奈川県,座間市,相模が丘１丁目１番５号ティアラビル１階,,14,216,2520001,,,,,,,2024-11-05,1,,,,,ブルーシーズ,0
904,4030001163228,新規,0,2024-11-05,2024-11-05,株式会社パーフェクション,,株式会社,埼玉県,川口市,大字安行慈林９６４番地の５５,,11,203,3340071,,,,,,,2024-11-05,1,,,,,パーフェクション,0
905,4030001163244,新規,0,2024-11-05,2024-11-05,株式会社ヘアーサロン・シュウ,,株式会社,埼玉県,戸田市,本町４丁目８番１６号,,11,224,3350023,,,,,,,2024-11-05,1,,,,,ヘアーサロンシュウ,0
909,4030003025418,新規,0,2024-11-05,2024-11-05,合同会社ＵＢＵ,,合同会社,埼玉県,八潮市,大字浮塚６２６番地８,,11,234,3400835,,,,,,,2024-11-05,1,,,,,ウブ,0
912,4040001136001,新規,0,2024-11-05,2024-11-05,株式会社Ｈａｒｕｏ　Ｔｅｉ,,株式会社,千葉県,長生郡一宮町,東浪見７５０４番地,,12,421,2994303,,,,,,,2024-11-05,1,,,,,ハルオテイ,0
919,4040003026092,新規,0,2024-11-05,2024-11-05,合同会社ＳＨＵＲＥＮ,,合同会社,千葉県,千葉市中央区,問屋町一丁目５０千葉ポートタウン１０６－Ａ,,12,101,2600025,,,,,,,2024-11-05,1,,,,,シュレン,0
926,4050001055605,新規,0,2024-11-05,2024-11-05,株式会社ｇｉｏｃｏｓｏ,,株式会社,茨城県,つくば市,研究学園５丁目２５－１６,,08,220,3050817,,,,,,,2024-11-05,1,,,,,ジョコーソ,0
927,4050001055654,新規,0,2024-11-05,2024-11-05,株式会社ノマドグループインターナショナル,,株式会社,茨城県,つくば市,春日４丁目２６番７号パークハイツ２０２号,,08,220,3050821,,,,,,,2024-11-05,1,,,,,ノマドグループインターナショナル,0
928,4050001055670,新規,0,2024-11-05,2024-11-05,株式会社美和食品,,株式会社,茨城県,水戸市,姫子１丁目７７４番地ＣＡＳＡ・ＧＲＡＮＤＥ・ＯＧＡＷＡ５０３号,,08,201,3114151,,,,,,,2024-11-05,1,,,,,ミワショクヒン,0
939,4100001037985,新規,0,2024-11-05,2024-11-05,株式会社ＳＳＫホールディングス,,株式会社,長野県,長野市,川中島町四ツ屋１２０,,20,201,3812231,,,,,,,2024-11-05,1,,,,,エスエスケーホールディングス,0
949,4120001269817,新規,0,2024-11-05,2024-11-05,Ｐａｒａｄｉｓｅ　Ｄｙｎａｓｔｙ株式会社,,株式会社,大阪府,大阪市中央区,瓦町１丁目７－２ＴＴＮ堺筋本町ビル４０１,,27,128,5410048,,,,,,,2024-11-05,1,,,,,パラダイスダイナスティー,0
950,4120001269833,新規,0,2024-11-05,2024-11-05,マイダス株式会社,,株式会社,大阪府,大阪市中央区,谷町７丁目１番３９－３０１号Ｅ,,27,128,5420012,,,,,,,2024-11-05,1,,,,,マイダス,0
951,4120001269924,新規,0,2024-11-05,2024-11-05,ＬＣＴ　ＪＡＰＡＮ株式会社,,株式会社,大阪府,大阪市中央区,南久宝寺町２丁目１番７号プシケ堺筋本町５０１号室,,27,128,5410058,,,,,,,2024-11-05,1,,,,,エルシーティージャパン,0
952,4120001269998,新規,0,2024-11-05,2024-11-05,株式会社ティンクル,,株式会社,大阪府,大阪市都島区,善源寺町１丁目５番５３号,,27,102,5340015,,,,,,,2024-11-05,1,,,,,ティンクル,0
953,4120001270015,新規,0,2024-11-05,2024-11-05,株式会社オルトル,,株式会社,大阪府,大阪市西淀川区,姫島２丁目１０番３３号２Ｆ,,27,113,5550033,,,,,,,2024-11-05,1,,,,,オルトル,0
961,4120003027883,新規,0,2024-11-05,2024-11-05,合同会社ゴールドプラン,,合同会社,大阪府,大阪市城東区,東中浜１丁目１番１１号,,27,118,5360023,,,,,,,2024-11-05,1,,,,,ゴールドプラン,0
962,4120003027900,新規,0,2024-11-05,2024-11-05,めん彩合同会社,,合同会社,大阪府,大阪市港区,池島１丁目２‐２５,,27,107,5520015,,,,,,,2024-11-05,1,,,,,メンサイ,0
965,4120005024607,新規,0,2024-11-05,2024-11-05,弁理士法人松阪国際特許事務所,,その他の設立登記法人,大阪府,大阪市中央区,南船場１丁目１６番２３号,,27,128,5420081,,,,,,,2024-11-05,1,,,,,マツサカコクサイトッキョジムショ,0
968,4120101070521,新規,0,2024-11-05,2024-11-05,株式会社ＮｅＸｅｅｄ,,株式会社,大阪府,岸和田市,土生町５丁目１１番７号,,27,202,5960825,,,,,,,2024-11-05,1,,,,,ネクシード,0
969,4120103006119,新規,0,2024-11-05,2024-11-05,ＫＨマネジメント合同会社,,合同会社,大阪府,和泉市,黒鳥町３丁目１２番５号,,27,219,5940022,,,,,,,2024-11-05,1,,,,,ケイエイチマネジメント,0
973,4120901049979,新規,0,2024-11-05,2024-11-05,株式会社テクノファクトリー,,株式会社,大阪府,池田市,荘園２丁目８番１７－３号,,27,204,5630038,,,,,,,2024-11-05,1,,,,,テクノファクトリー,0
974,4120901049987,新規,0,2024-11-05,2024-11-05,株式会社ＡＴプロパティ,,株式会社,大阪府,豊中市,刀根山１丁目６番５４号,,27,203,5600045,,,,,,,2024-11-05,1,,,,,エイティプロパティ,0
976,4120903005402,新規,0,2024-11-05,2024-11-05,エムアールホーム合同会社,,合同会社,大阪府,茨木市,天王１丁目８番２２－８０４号,,27,211,5670876,,,,,,,2024-11-05,1,,,,,エムアールホーム,0
983,4140001136247,新規,0,2024-11-05,2024-11-05,株式会社Ｔｏ　ｄｒｅａｍ,,株式会社,兵庫県,姫路市,二階町１８ＡＮＧＥＲＯ二階町２３３号,,28,201,6700922,,,,,,,2024-11-05,1,,,,,トゥドリーム,0
984,4140001136305,新規,0,2024-11-05,2024-11-05,株式会社トトＺ,,株式会社,兵庫県,神戸市灘区,篠原北町４丁目１１番２２号,,28,102,6570068,,,,,,,2024-11-05,1,,,,,トトズ,0
985,4140001136346,新規,0,2024-11-05,2024-11-05,ＭＩＬＫ　ＵＳＡＧＩ株式会社,,株式会社,兵庫県,神戸市中央区,小野柄通６丁目１－９富士ビル２階Ｄ室,,28,110,6510088,,,,,,,2024-11-05,1,,,,,ミルクウサギ,0
987,4140003021257,新規,0,2024-11-05,2024-11-05,合同会社アネロ,,合同会社,兵庫県,西宮市,今津港町３番１５号,,28,204,6638226,,,,,,,2024-11-05,1,,,,,アネロ,0
992,4160001026330,新規,0,2024-11-05,2024-11-05,株式会社リストランテラーゴ,,株式会社,滋賀県,大津市,浜大津１丁目４番１号,,25,201,5200047,,,,,,,2024-11-05,1,,,,,リストランテラーゴ,0
1005,4180001163972,新規,0,2024-11-05,2024-11-05,森田商事株式会社,,株式会社,愛知県,名古屋市天白区,植田西２丁目１２０２番地宝八事ハイツ１００７号,,23,116,4680058,,,,,,,2024-11-05,1,,,,,モリタショウジ,0
1006,4180001163980,新規,0,2024-11-05,2024-11-05,株式会社ｋｉｔｉ,,株式会社,愛知県,名古屋市中区,栄３丁目８番３号,,23,106,4600008,,,,,,,2024-11-05,1,,,,,キティー,0
1013,4180005020823,新規,0,2024-11-05,2024-11-05,一般社団法人ＩＡＧクラシック音楽振興会,,その他の設立登記法人,愛知県,名古屋市中区,正木２丁目４番１８号,,23,106,4600024,,,,,,,2024-11-05,1,,,,,アイエイジークラシックオンガクシンコウカイ,0
1018,4190005011994,新規,0,2024-11-05,2024-11-05,特定非営利活動法人きょうかんサポートネットワーク,,その他の設立登記法人,三重県,津市,栗真町屋町４１７番地２松本荘１０１号室,,24,201,5140102,,,,,,,2024-11-05,1,,,,,キョウカンサポートネットワーク,0
1025,4220003003874,新規,0,2024-11-05,2024-11-05,Ｙコーポレーション合同会社,,合同会社,石川県,金沢市,小立野２丁目３６番４号,,17,201,9200942,,,,,,,2024-11-05,1,,,,,ワイコーポレーション,0
1026,4230001020598,新規,0,2024-11-05,2024-11-05,株式会社ジャパンパック,,株式会社,富山県,富山市,二口町１丁目７番地４トランクレボ２Ｆ‐２０２,,16,201,9398211,,,,,,,2024-11-05,1,,,,,ジャパンパック,0
1027,4240001064041,新規,0,2024-11-05,2024-11-05,株式会社史建,,株式会社,広島県,東広島市,安芸津町風早８９５番地５０,,34,212,7392403,,,,,,,2024-11-05,1,,,,,フミケン,0
1028,4240001064058,新規,0,2024-11-05,2024-11-05,株式会社ラコット,,株式会社,広島県,広島市安佐南区,東野１丁目１５番２号,,34,105,7310111,,,,,,,2024-11-05,1,,,,,ラコット,0
1034,4260001039594,新規,0,2024-11-05,2024-11-05,もぐもぐジャパン株式会社,,株式会社,岡山県,高梁市,落合町阿部１２８３－１,,33,209,7160061,,,,,,,2024-11-05,1,,,,,モグモグジャパン,0
1044,4290001107885,新規,0,2024-11-05,2024-11-05,株式会社オーガーデン,,株式会社,福岡県,福岡市博多区,博多駅前３丁目９番１号大賀博多駅前ビル３階,,40,132,8120011,,,,,,,2024-11-05,1,,,,,オーガーデン,0
1045,4290001107893,新規,0,2024-11-05,2024-11-05,株式会社フォースワン,,株式会社,福岡県,福岡市博多区,美野島２丁目２番１号大産美野島ビル７階１号,,40,132,8120017,,,,,,,2024-11-05,1,,,,,フォースワン,0
1057,4310001019293,新規,0,2024-11-05,2024-11-05,株式会社オフィスエム,,株式会社,長崎県,長崎市,中町１番２５号,,42,201,8500055,,,,,,,2024-11-05,1,,,,,オフィスエム,0
1061,4330001032609,新規,0,2024-11-05,2024-11-05,株式会社ＨＡＲＵ,,株式会社,熊本県,熊本市西区,池上町５９４番地３,,43,103,8600048,,,,,,,2024-11-05,1,,,,,ハル,0
1071,4360001034404,新規,0,2024-11-05,2024-11-05,株式会社稲村,,株式会社,沖縄県,宮古島市,平良字下里５１６番地ウエストスカイコートＩＩ２Ａ,00136883,47,214,9060013,,,,,,,2024-11-05,1,,,,,イナムラ,0
1074,4370001051877,新規,0,2024-11-05,2024-11-05,ＭＯＳＢＹ株式会社,,株式会社,宮城県,仙台市青葉区,小松島新堤２２－７,,04,101,9810906,,,,,,,2024-11-05,1,,,,,モスビィ,0
1082,4400001016843,新規,0,2024-11-05,2024-11-05,株式会社ＨＯＯＤ　ＬＩＦＥ,,株式会社,岩手県,盛岡市,津志田西１丁目１２番４１号,,03,201,0200836,,,,,,,2024-11-05,1,,,,,フッドライフ,0
1086,4430001092997,新規,0,2024-11-05,2024-11-05,株式会社ＨＯＰＥ,,株式会社,北海道,札幌市白石区,菊水二条２丁目３番１７号,,01,104,0030802,,,,,,,2024-11-05,1,,,,,ホープ,0
1087,4440003001641,新規,0,2024-11-05,2024-11-05,合同会社清風園,,合同会社,北海道,函館市,亀田本町１番１８号,,01,202,0410813,,,,,,,2024-11-05,1,,,,,セイフウエン,0
1090,4460303000845,新規,0,2024-11-05,2024-11-05,なみうちぎわをあるこう合同会社,,合同会社,北海道,斜里郡斜里町,文光町４１―１,,01,545,0994116,,,,,,,2024-11-05,1,,,,,ナミウチギワヲアルコウ,0
1093,4480001012637,新規,0,2024-11-05,2024-11-05,アンドブルー株式会社,,株式会社,徳島県,徳島市,万代町６丁目２０番地の６ＨＯＰ２１－３０３号,,36,201,7700941,,,,,,,2024-11-05,1,,,,,アンドブルー,0
1107,5010001249325,新規,0,2024-11-05,2024-11-05,ＡＲＫ　Ｔｅｃｈｎｏｌｏｇｙ株式会社,,株式会社,東京都,千代田区,九段南１丁目６番５号九段会館テラス,,13,101,1020074,,,,,,,2024-11-05,1,,,,,アークテクノロジー,0
1108,5010001249531,新規,0,2024-11-05,2024-11-05,株式会社井水,,株式会社,東京都,中央区,日本橋中洲１番５号,,13,102,1030008,,,,,,,2024-11-05,1,,,,,セイスイ,0
1109,5010001249580,新規,0,2024-11-05,2024-11-05,Ｅｎｇｉｎｅ　Ｒ＆Ｄ株式会社,,株式会社,東京都,中央区,日本橋小網町１７番１８号,,13,102,1030016,,,,,,,2024-11-05,1,,,,,エンジンアールアンドディー,0
1111,5010003045359,新規,0,2024-11-05,2024-11-05,Ｍｅｒｉｄｉａｎ　Ｐａｒｔｎｅｒｓ合同会社,,合同会社,東京都,文京区,本郷４丁目１６番６－８０６Ｄ号,,13,105,1130033,,,,,,,2024-11-05,1,,,,,メリディアンパートナーズ,0
1118,5010401186044,新規,0,2024-11-05,2024-11-05,株式会社Ｄａｍｏｔｅｃ,,株式会社,東京都,港区,麻布十番２丁目８番８号,,13,103,1060045,,,,,,,2024-11-05,1,,,,,ダモテック,0
1119,5010401186135,新規,0,2024-11-05,2024-11-05,Ｓｕｍｍｉｔ　Ｊａｐａｎ　ＢｉｄＣｏ株式会社,,株式会社,東京都,港区,六本木１丁目９番１０号アークヒルズ仙石山森タワー２８階べーカー＆マッケンジー法律事務所（外国法共同事業）内,,13,103,1060032,,,,,,,2024-11-05,1,,,,,サミットジャパンビッドコ,0
1136,5010903009462,新規,0,2024-11-05,2024-11-05,ＫＡＮＣＨＩＭ合同会社,,合同会社,東京都,世田谷区,上祖師谷７丁目２８－１５,,13,112,1570065,,,,,,,2024-11-05,1,,,,,カンチム,0
1143,5011003020269,新規,0,2024-11-05,2024-11-05,合同会社ＣＯＤＥ　ＷＡＬＬ,,合同会社,東京都,渋谷区,渋谷２丁目１９－１５宮益坂ビルディング６０９,,13,113,1500002,,,,,,,2024-11-05,1,,,,,コードウォール,0
1144,5011003020277,新規,0,2024-11-05,2024-11-05,アミーゴツアーズジャパン合同会社,,合同会社,東京都,渋谷区,南平台町１６番２８号Ｄａｉｗａ渋谷スクエア６階,,13,113,1500036,,,,,,,2024-11-05,1,,,,,アミーゴツアーズジャパン,0
1151,5011101109393,新規,0,2024-11-05,2024-11-05,株式会社Ｆｌｕｆｆｙｙ,,株式会社,東京都,新宿区,西新宿３丁目３番１３号西新宿水間ビル２Ｆ,,13,104,1600023,,,,,,,2024-11-05,1,,,,,フラフィー,0
1157,5011301030127,新規,0,2024-11-05,2024-11-05,株式会社Ｓｏ　Ｂｒｉｇｈｔ,,株式会社,東京都,杉並区,高円寺南２丁目２０番５号,,13,115,1660003,,,,,,,2024-11-05,1,,,,,ソウブライト,0
1159,5011701027771,新規,0,2024-11-05,2024-11-05,株式会社Ｓ１クリエイト,,株式会社,東京都,江戸川区,西葛西６丁目２２番３－６０８号,,13,123,1340088,,,,,,,2024-11-05,1,,,,,エスワンクリエイト,0
1160,5011801045095,新規,0,2024-11-05,2024-11-05,株式会社ＮＥＷ１．２．３ＪＡＰＡＮ,,株式会社,東京都,葛飾区,亀有２丁目６７－１１－４１３号室,,13,122,1250061,,,,,,,2024-11-05,1,,,,,エヌイーダブリューイチニサンジャパン,0
1163,5012701018538,新規,0,2024-11-05,2024-11-05,株式会社フジ笑,,株式会社,東京都,東村山市,青葉町２丁目３７番地３９,,13,213,1890002,,,,,,,2024-11-05,1,,,,,フジワラ,0
1164,5012703003125,新規,0,2024-11-05,2024-11-05,合同会社アイル,,合同会社,東京都,小平市,上水本町５丁目２１番１,,13,211,1870022,,,,,,,2024-11-05,1,,,,,アイル,0
1167,5012801023520,新規,0,2024-11-05,2024-11-05,株式会社Ｈ．Ｓ．Ｒ,,株式会社,東京都,東大和市,新堀１丁目１４２６番地の３５,,13,220,2070012,,,,,,,2024-11-05,1,,,,,エッチエスアール,0
1175,5020001159861,新規,0,2024-11-05,2024-11-05,株式会社ＦＢＳ,,株式会社,神奈川県,横浜市旭区,川井本町４０番地３３,,14,112,2410803,,,,,,,2024-11-05,1,,,,,エフビーエス,0
1176,5020001159886,新規,0,2024-11-05,2024-11-05,Ｗｏｒｋｆｅｅｌｓ株式会社,,株式会社,神奈川県,川崎市幸区,南加瀬１丁目１７番２号,,14,132,2120055,,,,,,,2024-11-05,1,,,,,ワークフィールズ,0
1177,5020001159894,新規,0,2024-11-05,2024-11-05,株式会社国際教育ハブ,,株式会社,神奈川県,横浜市港北区,新横浜３丁目１９－１１,,14,109,2220033,,,,,,,2024-11-05,1,,,,,コクサイキョウイクハブ,0
1181,5020003027158,新規,0,2024-11-05,2024-11-05,合同会社Ｓ’ｈｉｚｕｋｕ,,合同会社,神奈川県,横浜市神奈川区,金港町５－１４クアドリフォリオ８階,,14,102,2210056,,,,,,,2024-11-05,1,,,,,シズク,0
1187,5021003015169,新規,0,2024-11-05,2024-11-05,合同会社今井塗装,,合同会社,神奈川県,横須賀市,長沢６丁目２８番２２号,,14,201,2390842,,,,,,,2024-11-05,1,,,,,イマイトソウ,0
1194,5030001163185,新規,0,2024-11-05,2024-11-05,株式会社ピーナッツ,,株式会社,埼玉県,川口市,西川口１丁目４番２１号金子ビル４０２,,11,203,3320021,,,,,,,2024-11-05,1,,,,,ピーナッツ,0
1195,5030001163219,新規,0,2024-11-05,2024-11-05,株式会社Ｍ・Ｓ・ｃｏｎｎｅｃｔ　ＲＩＫＩ屋根,,株式会社,埼玉県,三郷市,彦倉８２４番地２ラフィーネＴＡＫＡＨＡＳＨＩ、１０２,,11,237,3410053,,,,,,,2024-11-05,1,,,,,エムエスコネクトリキヤネ,0
1196,5030001163227,新規,0,2024-11-05,2024-11-05,株式会社村田商事,,株式会社,埼玉県,さいたま市北区,吉野町１丁目４３０番地７セシオンＩ１号室,00136873,11,102,3310811,,,,,,,2024-11-05,1,,,,,ムラタショウジ,0
1197,5030001163243,新規,0,2024-11-05,2024-11-05,ａｎｄ株式会社,,株式会社,埼玉県,戸田市,本町４丁目１－１５スカイアーバン戸田公園６０２,,11,224,3350023,,,,,,,2024-11-05,1,,,,,アンド,0
1198,5030001163251,新規,0,2024-11-05,2024-11-05,久益精機株式会社,,株式会社,埼玉県,和光市,白子１丁目２番２３号,,11,229,3510101,,,,,,,2024-11-05,1,,,,,,0
1199,5030001163268,新規,0,2024-11-05,2024-11-05,應時金属貿易株式会社,,株式会社,埼玉県,日高市,大字大谷沢２７８－２,,11,242,3501222,,,,,,,2024-11-05,1,,,,,オウジキンゾクボウエキ,0
1203,5030003025391,新規,0,2024-11-05,2024-11-05,ＤＩＶＩＮＥ　ＤＥＳＩＧＮ　Ｖ．Ｄ合同会社,,合同会社,埼玉県,越谷市,大字袋山１０２２番地３コーポせきね２－２０６,,11,222,3430032,,,,,,,2024-11-05,1,,,,,ディヴァインデザインヴィーディー,0
1204,5030003025425,新規,0,2024-11-05,2024-11-05,ツムヒトワークス合同会社,,合同会社,埼玉県,坂戸市,本町７０番地１０,,11,239,3500226,,,,,,,2024-11-05,1,,,,,ツムヒトワークス,0
1212,5050001055637,新規,0,2024-11-05,2024-11-05,株式会社ＰＴＣ　ＪＡＰＡＮ,,株式会社,茨城県,つくば市,洞下５２番地,,08,220,3004249,,,,,,,2024-11-05,1,,,,,ピーティーシージャパン,0
1220,5080101025108,新規,0,2024-11-05,2024-11-05,ＢｅＦｒｅｅ．Ｓ株式会社,,株式会社,静岡県,富士市,今泉２２８２番地の１,,22,210,4170001,,,,,,,2024-11-05,1,,,,,ビーフリーエス,0
1228,5090003002674,新規,0,2024-11-05,2024-11-05,合同会社ふくろうの畑,,合同会社,山梨県,甲斐市,龍地６５５９番地,,19,210,4000104,,,,,,,2024-11-05,1,,,,,,0
1231,5100001037984,新規,0,2024-11-05,2024-11-05,株式会社Ｈａｒｕ,,株式会社,長野県,大町市,大町２４９５番地蔦幸ビル１階３号,,20,212,3980002,,,,,,,2024-11-05,1,,,,,ハル,0
1234,5110001038817,新規,0,2024-11-05,2024-11-05,ＦＲＥＥＷＡＹ株式会社,,株式会社,新潟県,新潟市秋葉区,田島１１１番地１,,15,105,9560013,,,,,,,2024-11-05,1,,,,,フリーウェイ,0
1243,5120001269816,新規,0,2024-11-05,2024-11-05,Ｐａｒａｄｉｓｅ　Ｆ＆Ｂ　Ｍａｎａｇｅｍｅｎｔ株式会社,,株式会社,大阪府,大阪市中央区,瓦町１丁目７－２ＴＴＮ堺筋本町ビル４０１,,27,128,5410048,,,,,,,2024-11-05,1,,,,,パラダイスエフアンドビーマネジメント,0
1244,5120001269931,新規,0,2024-11-05,2024-11-05,Ｇシリンダー株式会社,,株式会社,大阪府,大阪市北区,天満１丁目６番８号,,27,127,5300043,,,,,,,2024-11-05,1,,,,,ジーシリンダー,0
1245,5120001269964,新規,0,2024-11-05,2024-11-05,期楽株式会社,,株式会社,大阪府,大阪市浪速区,芦原１丁目１番７号,00136876,27,111,5560029,,,,,,,2024-11-05,1,,,,,キラク,0
1246,5120001269980,新規,0,2024-11-05,2024-11-05,三億株式会社,,株式会社,大阪府,大阪市浪速区,湊町２丁目２番２２－８１６号,,27,111,5560017,,,,,,,2024-11-05,1,,,,,サンオク,0
1247,5120001270014,新規,0,2024-11-05,2024-11-05,株式会社ＦＲＡＮｂ,,株式会社,大阪府,大阪市北区,中崎１丁目６番１４－５１０号,,27,127,5300016,,,,,,,2024-11-05,1,,,,,フランビー,0
1248,5120003027890,新規,0,2024-11-05,2024-11-05,合同会社ＯＧＵＲＡ‐ＺＥＲＯ,,合同会社,大阪府,大阪市鶴見区,横堤４丁目２－４－７０５号,,27,124,5380052,,,,,,,2024-11-05,1,,,,,オグラゼロ,0
1249,5120003027899,新規,0,2024-11-05,2024-11-05,合同会社Ｓｗａｌｌｏｗ,,合同会社,大阪府,大阪市中央区,難波４丁目５番３０号,,27,128,5420076,,,,,,,2024-11-05,1,,,,,スワロー,0
1252,5120101070512,新規,0,2024-11-05,2024-11-05,株式会社ＳＣ,,株式会社,大阪府,堺市西区,上４３０番地４,,27,144,5938311,,,,,,,2024-11-05,1,,,,,エスシー,0
1253,5120101070529,新規,0,2024-11-05,2024-11-05,株式会社エムズアークス,,株式会社,大阪府,泉大津市,曽根町２丁目１１番１９号,,27,206,5950011,,,,,,,2024-11-05,1,,,,,エムズアークス,0
1257,5120903005401,新規,0,2024-11-05,2024-11-05,インターアリアンス合同会社,,合同会社,大阪府,豊中市,少路２丁目１番１－８０７号,,27,203,5600004,,,,,,,2024-11-05,1,,,,,インターアリアンス,0
1269,5150003003402,新規,0,2024-11-05,2024-11-05,合同会社アシスト,,合同会社,奈良県,葛城市,尺土１２７番地１８,,29,211,6392162,,,,,,,2024-11-05,1,,,,,アシスト,0
1274,5160003003327,新規,0,2024-11-05,2024-11-05,合同会社ＳＡＲＡＲＡ,,合同会社,滋賀県,高島市,勝野１－２２５,,25,212,5201121,,,,,,,2024-11-05,1,,,,,サララ,0
1293,5200001043089,新規,0,2024-11-05,2024-11-05,金武アカウンティングオフィス株式会社,,株式会社,岐阜県,岐阜市,五反田町１０番地オフィスＫＯ－ＫＥＮ２０５,,21,201,5008328,,,,,,,2024-11-05,1,,,,,カネタケアカウンティングオフィス,0
1298,5220003003873,新規,0,2024-11-05,2024-11-05,合同会社フリーセル,,合同会社,石川県,小松市,八幡丁２２２番地２,,17,203,9230833,,,,,,,2024-11-05,1,,,,,フリーセル,0
1300,5230001020597,新規,0,2024-11-05,2024-11-05,株式会社ハッピーデイズ,,株式会社,富山県,高岡市,関大町３番５０号,,16,202,9330869,,,,,,,2024-11-05,1,,,,,ハッピーデイズ,0
1305,5240003006924,新規,0,2024-11-05,2024-11-05,もみの木高木合同会社,,合同会社,広島県,広島市安佐南区,東原３丁目２２番１－１５０３号,,34,105,7310112,,,,,,,2024-11-05,1,,,,,モミノキタカキ,0
1321,5290003016019,新規,0,2024-11-05,2024-11-05,合同会社介,,合同会社,福岡県,福岡市西区,姪浜駅南４丁目１番１４アイ・ビー・ビーウィル姪浜３０３号,,40,135,8190006,,,,,,,2024-11-05,1,,,,,カイ,0
1323,5290803004882,新規,0,2024-11-05,2024-11-05,合同会社百屋,,合同会社,福岡県,田川郡福智町,金田８７７番地３,,40,610,8221201,,,,,,,2024-11-05,1,,,,,モモヤ,0
1337,5330005010840,新規,0,2024-11-05,2024-11-05,特定非営利活動法人なごみＭＩＲＡＩクラブ,,その他の設立登記法人,熊本県,玉名郡和水町,長小田３６０（旧西小）,,43,369,8650103,,,,,,,2024-11-05,1,,,,,ナゴミミライクラブ,0
1339,5360001034403,新規,0,2024-11-05,2024-11-05,株式会社ホープ,,株式会社,沖縄県,中頭郡西原町,字兼久１５６番地の１,,47,329,9030104,,,,,,,2024-11-05,1,,,,,ホープ,0
1341,5370001051868,新規,0,2024-11-05,2024-11-05,エレキックス株式会社,,株式会社,宮城県,富谷市,あけの平１丁目２７番地１,,04,216,9813361,,,,,,,2024-11-05,1,,,,,エレキックス,0
1342,5370001051876,新規,0,2024-11-05,2024-11-05,株式会社アイシックホールディングス,,株式会社,宮城県,仙台市泉区,将監２丁目１３番１５号,,04,105,9813132,,,,,,,2024-11-05,1,,,,,アイシックホールディングス,0
1347,5400001016842,新規,0,2024-11-05,2024-11-05,株式会社ＤＥＮ　ＭＯＵＮＴＡＩＮ,,株式会社,岩手県,下閉伊郡山田町,川向町５０１－８,,03,482,0281342,,,,,,,2024-11-05,1,,,,,デンマウンテン,0
1364,5700150127749,新規,0,2024-11-05,2024-11-05,上海蕊得広告有限公司　日本駐在員事務所,,外国会社等,東京都,台東区,千束３丁目２１－１２キートスビル４０７号室,,13,106,1110031,上海市嘉定区江橋鎮沙河路３３７号１－２０３室,,,,,,2024-11-05,1,,,,,シヤンハイシントクコウコクユウゲンコウシニホンチユウザイインジムシヨ,0
1374,6010001249530,新規,0,2024-11-05,2024-11-05,株式会社ルイティング,,株式会社,東京都,中央区,東日本橋３丁目９番１０号ＤＩＮＯ日本橋ビル,,13,102,1030004,,,,,,,2024-11-05,1,,,,,ルイティング,0
1375,6010001249571,新規,0,2024-11-05,2024-11-05,Ｓｅｌｅｎｅ　Ｉ株式会社,,株式会社,東京都,千代田区,永田町２丁目１４番２号山王グランドビル３階スリーアイズキャピタル株式会社内,,13,101,1000014,,,,,,,2024-11-05,1,,,,,セレネワン,0
1380,6010005039044,新規,0,2024-11-05,2024-11-05,Ｗｉｎｐａｌｍ　Ｊａｐａｎ一般社団法人,,その他の設立登記法人,東京都,千代田区,霞が関３丁目２番５号,,13,101,1000013,,,,,,,2024-11-05,1,,,,,ウィンパームジャパン,0
1381,6010005039052,新規,0,2024-11-05,2024-11-05,一般社団法人全国医学部発ベンチャー協議会,,その他の設立登記法人,東京都,中央区,日本橋堀留町１丁目９番１０号,,13,102,1030012,,,,,,,2024-11-05,1,,,,,ゼンコクイガクブハツベンチャーキョウギカイ,0
1383,6010105002315,新規,0,2024-11-05,2024-11-05,一般社団法人ゆめまるエデュケーションデザイン,,その他の設立登記法人,東京都,八王子市,松木５９番地１４,,13,201,1920362,,,,,,,2024-11-05,1,,,,,ユメマルエデュケーションデザイン,0
1390,6010401186134,新規,0,2024-11-05,2024-11-05,株式会社六道,,株式会社,東京都,港区,芝５丁目３６番４号札の辻スクエア９Ｆ,00136874,13,103,1080014,,,,,,,2024-11-05,1,,,,,ロクドウ,0
1391,6010401186159,新規,0,2024-11-05,2024-11-05,株式会社Ｅｎｅｒｇｙ　Ｏｎ　Ｊａｐａｎ,,株式会社,東京都,港区,白金６丁目１７番５－４０７号,,13,103,1080072,,,,,,,2024-11-05,1,,,,,エナジーオンジャパン,0
1404,6010601066185,新規,0,2024-11-05,2024-11-05,株式会社ｍｙａｏ,,株式会社,東京都,江東区,冬木１７番７－２０３号,,13,108,1350041,,,,,,,2024-11-05,1,,,,,ミャオ,0
1405,6010703007418,新規,0,2024-11-05,2024-11-05,合同会社エリート・シンボリ,,合同会社,東京都,品川区,東五反田５丁目２２番地３７号,,13,109,1410022,,,,,,,2024-11-05,1,,,,,エリートシンボリ,0
1406,6010705003695,新規,0,2024-11-05,2024-11-05,社会保険労務士法人うれしくインターナショナルコンサルティング,,その他の設立登記法人,東京都,品川区,戸越５丁目４番３号アズ品川ビル４Ｆ,,13,109,1420041,,,,,,,2024-11-05,1,,,,,ウレシクインターナショナルコンサルティング,0
1416,6011001165461,新規,0,2024-11-05,2024-11-05,株式会社ＯｐｅｎＵｐ,,株式会社,東京都,渋谷区,恵比寿２丁目３７－７菅根ビル２階,,13,113,1500013,,,,,,,2024-11-05,1,,,,,オープンアップ,0
1422,6011101109426,新規,0,2024-11-05,2024-11-05,ＲＰＧ株式会社,,株式会社,東京都,新宿区,西新宿３丁目３番１３号西新宿水間ビル６階,,13,104,1600023,,,,,,,2024-11-05,1,,,,,アールピージー,0
1425,6011301030126,新規,0,2024-11-05,2024-11-05,株式会社Ａｄｖａｎｃｅ,,株式会社,東京都,杉並区,高円寺南２丁目２０番５号,,13,115,1660003,,,,,,,2024-11-05,1,,,,,アドバンス,0
1426,6011301030134,新規,0,2024-11-05,2024-11-05,Ｂａｌｌｏｏｎ　ｕｐ屋久島株式会社,,株式会社,東京都,杉並区,西荻北５丁目２５番１６号ラフィネ西荻３０３,,13,115,1670042,,,,,,,2024-11-05,1,,,,,バルーンアップヤクシマ,0
1430,6011501031287,新規,0,2024-11-05,2024-11-05,ｓｕｍｍｅｒ株式会社,,株式会社,東京都,荒川区,西尾久１丁目３１番１０－３０１号,,13,118,1160011,,,,,,,2024-11-05,1,,,,,サマー,0
1431,6011701027770,新規,0,2024-11-05,2024-11-05,耀莱株式会社,,株式会社,東京都,江戸川区,南小岩３丁目１番１４号プランドールＭ１２１室,,13,123,1330056,,,,,,,2024-11-05,1,,,,,ヨウライ,0
1439,6011803006540,新規,0,2024-11-05,2024-11-05,Ｓｋｙ　Ａｉｍ合同会社,,合同会社,東京都,葛飾区,堀切５丁目５番１号光和ＳＫビル１０２,,13,122,1240006,,,,,,,2024-11-05,1,,,,,スカイエイム,0
1443,6012701018537,新規,0,2024-11-05,2024-11-05,株式会社Ｅｉｎｓ,,株式会社,東京都,小平市,上水南町２丁目１番１５号,,13,211,1870021,,,,,,,2024-11-05,1,,,,,アインス,0
1454,6020001159860,新規,0,2024-11-05,2024-11-05,シンエン株式会社,,株式会社,神奈川県,川崎市高津区,久末４６８番地１,,14,134,2130026,,,,,,,2024-11-05,1,,,,,シンエン,0
1455,6020001159902,新規,0,2024-11-05,2024-11-05,株式会社瑛瑛,,株式会社,神奈川県,横浜市磯子区,岡村８丁目１１番３９号,,14,107,2350021,,,,,,,2024-11-05,1,,,,,ハナハナ,0
1456,6020001159951,新規,0,2024-11-05,2024-11-05,株式会社Ｃ・Ｐ建匠,,株式会社,神奈川県,横浜市南区,別所５丁目９番１号ウイング上大岡３０１,,14,105,2320064,,,,,,,2024-11-05,1,,,,,シーピーケンショウ,0
1465,6020003027173,新規,0,2024-11-05,2024-11-05,合同会社ｉｐｐｉ,,合同会社,神奈川県,川崎市麻生区,千代ケ丘４丁目１５番８号,,14,137,2150005,,,,,,,2024-11-05,1,,,,,イッピ,0
1466,6020003027215,新規,0,2024-11-05,2024-11-05,合同会社ブレインハートケア,,合同会社,神奈川県,横浜市鶴見区,鶴見中央３丁目１－６ダイヤパレス鶴見第二７１４,,14,101,2300051,,,,,,,2024-11-05,1,,,,,ブレインハートケア,0
1479,6030001163218,新規,0,2024-11-05,2024-11-05,株式会社並木質店,,株式会社,埼玉県,深谷市,上野台４８６番地３,,11,218,3660801,,,,,,,2024-11-05,1,,,,,ナミキシチテン,0
1480,6030001163226,新規,0,2024-11-05,2024-11-05,株式会社ＥＸＳＴＡＧＥ,,株式会社,埼玉県,さいたま市南区,文蔵３丁目２９番２１号,,11,108,3360025,,,,,,,2024-11-05,1,,,,,エクステージ,0
1481,6030001163242,新規,0,2024-11-05,2024-11-05,株式会社ＰＡＮ．ＴｒａｄｅＰｒｏｊｅｃｔ,,株式会社,埼玉県,熊谷市,肥塚１２００番地４,,11,202,3600015,,,,,,,2024-11-05,1,,,,,パントレードプロジェクト,0
1482,6030001163250,新規,0,2024-11-05,2024-11-05,株式会社ハーミテージ,,株式会社,埼玉県,戸田市,大字新曽１７３２番地の１アーデル戸田１１１号室,,11,224,3350021,,,,,,,2024-11-05,1,,,,,ハーミテージ,0
1489,6040003026041,新規,0,2024-11-05,2024-11-05,ＥＸＰＯＲＴ　ＥＬＩＴＥ　ＩＮＴＥＲＮＡＴＩＯＮＡＬ合同会社,,合同会社,千葉県,山武市,板中新田３２－２２,,12,237,2891222,,,,,,,2024-11-05,1,,,,,エクスポートエリートインターナショナル,0
1490,6040003026074,新規,0,2024-11-05,2024-11-05,合同会社菊田リハビリケア・サポート,,合同会社,千葉県,船橋市,飯山満町２丁目５１６－２２ドミトリーセイワ２０６号室,,12,204,2740822,,,,,,,2024-11-05,1,,,,,キクタリハビリケアサポート,0
1491,6040003026090,新規,0,2024-11-05,2024-11-05,丸長水産合同会社,,合同会社,千葉県,印西市,大森４４５０番地５３、１０１号室,,12,231,2701327,,,,,,,2024-11-05,1,,,,,マルチョウスイサン,0
1492,6040003026099,新規,0,2024-11-05,2024-11-05,Ｉｎｔｅｃ　Ｉｎｔｅｒｎａｔｉｏｎａｌ合同会社,,合同会社,千葉県,八街市,榎戸９１７番地１０,,12,230,2891106,,,,,,,2024-11-05,1,,,,,インテックインターナショナル,0
1501,6080401027538,新規,0,2024-11-05,2024-11-05,株式会社ＫＩＳ,,株式会社,静岡県,浜松市中央区,田町３３０番地の１マビーセブンビル５Ｆ,,22,138,4300944,,,,,,,2024-11-05,1,,,,,ケーアイエス,0
1503,6100001037983,新規,0,2024-11-05,2024-11-05,株式会社Ａｌｐｉｎｅ　Ｃｒｅａｔｉｖｅ,,株式会社,長野県,北安曇郡白馬村,大字北城１７９６－１,,20,485,3999301,,,,,,,2024-11-05,1,,,,,アルパインクリエイティブ,0
1506,6100003007844,新規,0,2024-11-05,2024-11-05,ＤＲＩＮＫ合同会社,,合同会社,長野県,北安曇郡小谷村,大字千国乙１２８４０番地１ＴｈｅＰｈａｔＰａｃｋｅｒｓ,,20,486,3999422,,,,,,,2024-11-05,1,,,,,ドリンク,0
1509,6110001038816,新規,0,2024-11-05,2024-11-05,株式会社Ｃｏｎｎｅｃｔｉｏｎｓ　Ｋｉｔｃｈｅｎ,,株式会社,新潟県,南魚沼市,大木六２９８番地２,,15,226,9496416,,,,,,,2024-11-05,1,,,,,コネクションズキッチン,0
1521,6120001269815,新規,0,2024-11-05,2024-11-05,Ｐａｒａｄｉｓｅ　Ｇｒｏｕｐ　Ｊａｐａｎ株式会社,,株式会社,大阪府,大阪市中央区,瓦町１丁目７－２ＴＴＮ堺筋本町ビル４０１,,27,128,5410048,,,,,,,2024-11-05,1,,,,,パラダイスグループジャパン,0
1522,6120001269914,新規,0,2024-11-05,2024-11-05,ＶＩＬＬＡ　ＮＯＶＡ　ＮＡＮＩＷＡ株式会社,,株式会社,大阪府,大阪市西区,阿波座１丁目３－１５関電不動産西本町ビル１０Ｆ,,27,106,5500011,,,,,,,2024-11-05,1,,,,,ビィラノバナニワ,0
1523,6120001269939,新規,0,2024-11-05,2024-11-05,株式会社ＣｏｕｒｓｅＳｅｔｔｅｒ,,株式会社,大阪府,大阪市西区,靱本町２丁目３番２号なにわ筋本町ＭＩＤビル１０階,,27,106,5500004,,,,,,,2024-11-05,1,,,,,コースセッター,0
1524,6120001269955,新規,0,2024-11-05,2024-11-05,安盈株式会社,,株式会社,大阪府,大阪市阿倍野区,阪南町１丁目３７番１４号,,27,119,5450021,,,,,,,2024-11-05,1,,,,,アンエイ,0
1525,6120001269971,新規,0,2024-11-05,2024-11-05,雅誠株式会社,,株式会社,大阪府,大阪市中央区,千日前１丁目５－１９寿楽ビル１００２号室,,27,128,5420074,,,,,,,2024-11-05,1,,,,,ガセイ,0
1526,6120001270005,新規,0,2024-11-05,2024-11-05,ＵＮＩＡＩＤ株式会社,,株式会社,大阪府,大阪市東淀川区,柴島２丁目１０番１４号２Ｆ,,27,114,5330024,,,,,,,2024-11-05,1,,,,,ユニエイド,0
1529,6120003027873,新規,0,2024-11-05,2024-11-05,合同会社Ｒｅ．Ｌｉｇｈｔ,,合同会社,大阪府,大阪市西成区,花園北２丁目９‐２０,,27,122,5570016,,,,,,,2024-11-05,1,,,,,リライト,0
1532,6120101070503,新規,0,2024-11-05,2024-11-05,株式会社ａｌｏｎｅ,,株式会社,大阪府,堺市堺区,宿院町西４丁２－９フォルテ宿院２０１,,27,141,5900958,,,,,,,2024-11-05,1,,,,,アローン,0
1533,6120101070511,新規,0,2024-11-05,2024-11-05,株式会社Ａｒ‐Ｔ,,株式会社,大阪府,高石市,東羽衣３丁目１５番１号,,27,225,5920003,,,,,,,2024-11-05,1,,,,,アート,0
1534,6120101070536,新規,0,2024-11-05,2024-11-05,株式会社愛華,,株式会社,大阪府,和泉市,和気町４丁目１４番１１号,,27,219,5940073,,,,,,,2024-11-05,1,,,,,アイカ,0
1535,6120103006117,新規,0,2024-11-05,2024-11-05,合同会社Ｆｏｒｃｅ,,合同会社,大阪府,泉南市,男里６丁目１５－２サザンコーストＡ１４１５,,27,228,5900526,,,,,,,2024-11-05,1,,,,,フォース,0
1539,6120901049985,新規,0,2024-11-05,2024-11-05,株式会社ＮＯＹ,,株式会社,大阪府,吹田市,千里山西４丁目３３番２３－５０２号,,27,205,5650851,,,,,,,2024-11-05,1,,,,,エヌオーワイ,0
1543,6130001078265,新規,0,2024-11-05,2024-11-05,株式会社成栄,,株式会社,京都府,京都市東山区,本町１０丁目１４１番,,26,105,6050981,,,,,,,2024-11-05,1,,,,,セイエイ,0
1549,6140001136261,新規,0,2024-11-05,2024-11-05,株式会社Ｆａｌｃｏｎ＆Ｓｕｎ,,株式会社,兵庫県,神戸市東灘区,御影中町３丁目２番４号,,28,101,6580054,,,,,,,2024-11-05,1,,,,,ファルコンアンドサン,0
1550,6140001136286,新規,0,2024-11-05,2024-11-05,株式会社ＹＥＬＬ,,株式会社,兵庫県,神戸市長田区,南駒栄町４番３号,,28,106,6530044,,,,,,,2024-11-05,1,,,,,エール,0
1551,6160001026329,新規,0,2024-11-05,2024-11-05,ピークス株式会社,,株式会社,滋賀県,米原市,長岡４９８番地,,25,214,5210242,,,,,,,2024-11-05,1,,,,,ピースス,0
1552,6160003003326,新規,0,2024-11-05,2024-11-05,合同会社エム・エス,,合同会社,滋賀県,大津市,あかね町１３番１６－６０３号,,25,201,5200003,,,,,,,2024-11-05,1,,,,,エムエス,0
1566,6180001163962,新規,0,2024-11-05,2024-11-05,株式会社デジパートナーズ,,株式会社,愛知県,名古屋市中村区,名駅４丁目８－２６エニシオ名駅１６階,,23,105,4500002,,,,,,,2024-11-05,1,,,,,デジパートナーズ,0
1567,6180001163979,新規,0,2024-11-05,2024-11-05,株式会社みどり商會,,株式会社,愛知県,名古屋市中村区,岩塚町字一里山１番地の５２,,23,105,4530862,,,,,,,2024-11-05,1,,,,,ミドリショウカイ,0
1568,6180001164011,新規,0,2024-11-05,2024-11-05,ＴＫマネジメント株式会社,,株式会社,愛知県,清須市,西田中蓮池１１３番地１,,23,233,4520933,,,,,,,2024-11-05,1,,,,,ティーケーマネジメント,0
1574,6180003027570,新規,0,2024-11-05,2024-11-05,合同会社大協自販,,合同会社,愛知県,稲沢市,小池１丁目６番地１３,,23,220,4928144,,,,,,,2024-11-05,1,,,,,ダイキョウジハン,0
1575,6180005020821,新規,0,2024-11-05,2024-11-05,特定非営利活動法人はるうらら,,その他の設立登記法人,愛知県,西春日井郡豊山町,大字豊場字流川１７７番地,,23,342,4800202,,,,,,,2024-11-05,1,,,,,ハルウララ,0
1582,6200001043088,新規,0,2024-11-05,2024-11-05,株式会社Ｙステーション,,株式会社,岐阜県,羽島郡笠松町,柳原町５０番地１,,21,303,5016054,,,,,,,2024-11-05,1,,,,,ワイステーション,0
1583,6200001043096,新規,0,2024-11-05,2024-11-05,バリューシフト株式会社,,株式会社,岐阜県,岐阜市,長良葵町２丁目２４番地１,,21,201,5020047,,,,,,,2024-11-05,1,,,,,バリューシフト,0
1584,6220001026297,新規,0,2024-11-05,2024-11-05,株式会社エム・テクト,,株式会社,石川県,金沢市,堀川新町５番１号,,17,201,9200849,,,,,,,2024-11-05,1,,,,,エムテクト,0
1589,6240001064056,新規,0,2024-11-05,2024-11-05,株式会社ｍ．ｔ．ｎ．ａ,,株式会社,広島県,広島市安芸区,中野５丁目７－７,,34,107,7390321,,,,,,,2024-11-05,1,,,,,エムティエヌエー,0
1594,6260001039592,新規,0,2024-11-05,2024-11-05,株式会社うめぇーもん,,株式会社,岡山県,岡山市南区,大福１２４８－２,,33,104,7010204,,,,,,,2024-11-05,1,,,,,,0
1595,6260001039601,新規,0,2024-11-05,2024-11-05,株式会社エイシン,,株式会社,岡山県,岡山市東区,鉄９１７番地,,33,103,7038214,,,,,,,2024-11-05,1,,,,,エイシン,0
1608,6290001107818,新規,0,2024-11-05,2024-11-05,ＡＩ・Ｒ株式会社,,株式会社,福岡県,福岡市早良区,原４丁目２２番１２－８０７号,,40,137,8140022,,,,,,,2024-11-05,1,,,,,アイアール,0
1609,6290001107826,新規,0,2024-11-05,2024-11-05,株式会社岡崎商店,00136881,株式会社,福岡県,福岡市東区,箱崎１丁目１２番２０号サヴォイ箱崎セントリシティ８０３号,,40,131,8120053,,,,,,,2024-11-05,1,,,,,オカザキショウテン,0
1610,6290001107834,新規,0,2024-11-05,2024-11-05,株式会社ＲＡＭＯＮＡ,,株式会社,福岡県,福岡市博多区,博多駅前２丁目１９番１７号トーカン博多第５ビル９０２号,,40,132,8120011,,,,,,,2024-11-05,1,,,,,ラモナ,0
1618,6310005008811,新規,0,2024-11-05,2024-11-05,一般社団法人大村湾ワンダーベイ,,その他の設立登記法人,長崎県,西彼杵郡時津町,西時津郷１０００－２２２,,42,308,8512101,,,,,,,2024-11-05,1,,,,,オオムラワンワンダーベイ,0
1626,6350005006266,新規,0,2024-11-05,2024-11-05,社会保険労務士法人はしぐち,,その他の設立登記法人,宮崎県,宮崎市,堀川町１０９番地５,,45,201,8800873,,,,,,,2024-11-05,1,,,,,ハシグチ,0
1627,6360003014435,新規,0,2024-11-05,2024-11-05,合同会社Ｗ’ｓ,,合同会社,沖縄県,中頭郡読谷村,字長浜２１２４番地４,,47,324,9040324,,,,,,,2024-11-05,1,,,,,ダブリューズ,0
1628,6370001051875,新規,0,2024-11-05,2024-11-05,株式会社ＰＡＩＮＴ　ＢＯＸ,,株式会社,宮城県,仙台市太白区,日本平７番８号,,04,104,9820221,,,,,,,2024-11-05,1,,,,,ペイントボックス,0
1629,6370003006803,新規,0,2024-11-05,2024-11-05,合同会社Ａｓｓｅｔｓ,,合同会社,宮城県,仙台市青葉区,堤町２丁目６番５号メゾンエスポワール堤町２０５,,04,101,9810912,,,,,,,2024-11-05,1,,,,,アセッツ,0
1637,6430001092995,新規,0,2024-11-05,2024-11-05,Ｒｅｌｉｋｅ株式会社,,株式会社,北海道,札幌市東区,北七条東３丁目１５－２８ルノンサッポロ５０２,,01,103,0600907,,,,,,,2024-11-05,1,,,,,リライク,0
1642,6430003016960,新規,0,2024-11-05,2024-11-05,合同会社飯田介護支援事務所,,合同会社,北海道,北広島市,大曲末広６丁目３番地３,,01,234,0611272,,,,,,,2024-11-05,1,,,,,イイダカイゴシエンジムショ,0
1644,6480001012635,新規,0,2024-11-05,2024-11-05,株式会社サウス,,株式会社,徳島県,徳島市,津田海岸町５番４３号,,36,201,7708001,,,,,,,2024-11-05,1,,,,,サウス,0
1647,6500001025980,新規,0,2024-11-05,2024-11-05,株式会社マツノミライ,,株式会社,愛媛県,松山市,三番町７丁目２番地１２川添ビル１階,,38,201,7900003,,,,,,,2024-11-05,1,,,,,マツノミライ,0
1648,6700150026495,新規,0,2024-11-05,2015-10-09,京都府自治体情報化推進協議会,,その他,京都府,京都市上京区,西洞院通下立売上る西大路町１４９－１　京都府自治会館内,,26,102,6020000,,,,,,,2015-10-09,1,,,,,キヨウトフジチタイジヨウホウカスイシンキヨウギカイ,0
1649,6700150026586,新規,0,2024-11-05,2015-10-09,京都府町村会,,その他,京都府,京都市上京区,西洞院通下立売上る西大路町　１４９　京都府自治会館内,,26,102,6020000,,,,,,,2015-10-09,1,,,,,キヨウトフチヨウソンカイ,0
1656,7010001249521,新規,0,2024-11-05,2024-11-05,株式会社ＩＮＰＳＹＤＥＬ　ＪＡＰＡＮ,,株式会社,東京都,千代田区,丸の内１丁目１１番１号パシフィックセンチュリープレイス丸の内８Ｆ,,13,101,1000005,,,,,,,2024-11-05,1,,,,,インサイデルジャパン,0
1657,7010001249538,新規,0,2024-11-05,2024-11-05,旭化成ホームズ・アセットマネジメント株式会社,,株式会社,東京都,千代田区,神田神保町１丁目１０５番地,,13,101,1010051,,,,,,,2024-11-05,1,,,,,アサヒカセイホームズアセットマネジメント,0
1658,7010001249554,新規,0,2024-11-05,2024-11-05,株式会社ＦＩＬＬＭＡＮ,,株式会社,東京都,中央区,銀座１丁目１２番４号Ｎ＆ＥＢＬＤ．７階,,13,102,1040061,,,,,,,2024-11-05,1,,,,,フィルマン,0
1659,7010001249562,新規,0,2024-11-05,2024-11-05,江遠株式会社,,株式会社,東京都,文京区,千石３丁目３番３号千石明穂ハイツ１０４－Ｌ,,13,105,1120011,,,,,,,2024-11-05,1,,,,,コウエン,0
1666,7010005039043,新規,0,2024-11-05,2024-11-05,ＯＭＲＦ一般社団法人,,その他の設立登記法人,東京都,千代田区,霞が関３丁目２番５号,,13,101,1000013,,,,,,,2024-11-05,1,,,,,オーエムアールエフ,0
1669,7010401186083,新規,0,2024-11-05,2024-11-05,株式会社エンリッチコネクト,,株式会社,東京都,港区,赤坂６丁目１９－４６Ｆｒｏｍ１ｓｔＲＯＰＰＯＮＧＩ２０１,,13,103,1070052,,,,,,,2024-11-05,1,,,,,エンリッチコネクト,0
1670,7010401186091,新規,0,2024-11-05,2024-11-05,株式会社タマチゲームス,,株式会社,東京都,港区,浜松町２丁目２番１５号浜松町ダイヤビル２Ｆ,,13,103,1050013,,,,,,,2024-11-05,1,,,,,タマチゲームス,0
1671,7010401186133,新規,0,2024-11-05,2024-11-05,株式会社ＭＩＳ,,株式会社,東京都,港区,新橋２丁目１２番１６号明和ビル４階西,,13,103,1050004,,,,,,,2024-11-05,1,,,,,エムアイエス,0
1672,7010401186182,新規,0,2024-11-05,2024-11-05,株式会社ＮＯＡＨ,,株式会社,東京都,港区,北青山１丁目３番１号アールキューブ青山３階,,13,103,1070061,,,,,,,2024-11-05,1,,,,,ノア,0
1673,7010401186190,新規,0,2024-11-05,2024-11-05,株式会社ＮＵＤＵＮＫ,,株式会社,東京都,港区,六本木７丁目１７－１６米久ビル,,13,103,1060032,,,,,,,2024-11-05,1,,,,,ヌダンク,0
1680,7010405023695,新規,0,2024-11-05,2024-11-05,弁護士法人ＥＩＣ,,その他の設立登記法人,東京都,港区,虎ノ門５丁目１番５号メトロシティ神谷町４階,,13,103,1050001,,,,,,,2024-11-05,1,,,,,イーアイシー,0
1683,7010601066201,新規,0,2024-11-05,2024-11-05,株式会社浅利工業,,株式会社,東京都,墨田区,太平１丁目２番１０号和甲マンション１Ｆ,,13,107,1300012,,,,,,,2024-11-05,1,,,,,アサリコウギョウ,0
1686,7010603011188,新規,0,2024-11-05,2024-11-05,ＭＯＮＳＴＥＲＳ合同会社,,合同会社,東京都,墨田区,太平３丁目１１番１－１１０４号,,13,107,1300012,,,,,,,2024-11-05,1,,,,,モンスターズ,0
1688,7010701046763,新規,0,2024-11-05,2024-11-05,福島ウェルネス株式会社,,株式会社,東京都,品川区,大崎２丁目９番３号大崎ウエストシティビル１階,,13,109,1410032,,,,,,,2024-11-05,1,,,,,フクシマウェルネス,0
1693,7011001165733,新規,0,2024-11-05,2024-11-05,ムーンストーン株式会社,,株式会社,東京都,渋谷区,神宮前６丁目２３番４号桑野ビル２階,,13,113,1500001,,,,,,,2024-11-05,1,,,,,ムーンストーン,0
1697,7011101109417,新規,0,2024-11-05,2024-11-05,株式会社新宿民主商工会館,,株式会社,東京都,新宿区,若松町３６番１２号,,13,104,1620056,,,,,,,2024-11-05,1,,,,,シンジュクミンシュショウコウカイカン,0
1701,7011203004516,新規,0,2024-11-05,2024-11-05,合同会社四六社,,合同会社,東京都,中野区,鷺宮５丁目２３番１１－２０７号,,13,114,1650032,,,,,,,2024-11-05,1,,,,,シロクシャ,0
1710,7013303007357,新規,0,2024-11-05,2024-11-05,合同会社Ｋ２,,合同会社,東京都,豊島区,高松２丁目２３－１,,13,116,1710042,,,,,,,2024-11-05,1,,,,,ケーツー,0
1716,7020003027148,新規,0,2024-11-05,2024-11-05,合同会社ＰｏｗｅｒＳｈｉｅｌｄ　ＪＡＰＡＮ,,合同会社,神奈川県,横浜市西区,みなとみらい２丁目２番１号横浜ランドマークタワー２０階,,14,103,2200012,,,,,,,2024-11-05,1,,,,,パワーシールドジャパン,0
1719,7021001083653,新規,0,2024-11-05,2024-11-05,株式会社ジョニー,,株式会社,神奈川県,鎌倉市,浄明寺４丁目１２番１６号,,14,204,2480003,,,,,,,2024-11-05,1,,,,,ジョニー,0
1724,7021003015167,新規,0,2024-11-05,2024-11-05,合同会社みさく,,合同会社,神奈川県,小田原市,蓮正寺７６６番地の９,,14,206,2500865,,,,,,,2024-11-05,1,,,,,ミサク,0
1730,7030001163225,新規,0,2024-11-05,2024-11-05,株式会社油屋ホールディングス,,株式会社,埼玉県,さいたま市浦和区,本太３丁目３１番２０号,,11,107,3300052,,,,,,,2024-11-05,1,,,,,アブラヤホールディングス,0
1731,7030001163241,新規,0,2024-11-05,2024-11-05,株式会社万樹,,株式会社,埼玉県,羽生市,大字下岩瀬３５７番地,,11,216,3480045,,,,,,,2024-11-05,1,,,,,マンジュ,0
1732,7030001163290,新規,0,2024-11-05,2024-11-05,株式会社Ｂｅｓｔ　Ａｓｓｅｔ,,株式会社,埼玉県,ふじみ野市,ふじみ野４丁目４番３３－４０８号,,11,245,3560050,,,,,,,2024-11-05,1,,,,,ベストアセット,0
1740,7030003025415,新規,0,2024-11-05,2024-11-05,ＳｈｉｅｌｄＮＥＴ合同会社,,合同会社,埼玉県,志木市,館１丁目１番４－５０１号,,11,228,3530006,,,,,,,2024-11-05,1,,,,,シールドネット,0
1750,7040003026098,新規,0,2024-11-05,2024-11-05,合同会社Ｒｕｂｉ　Ｃｏｒｐｏｒａｔｉｏｎ,,合同会社,千葉県,千葉市緑区,あすみが丘７丁目１３番地１４,,12,105,2670066,,,,,,,2024-11-05,1,,,,,ルビコーポレーション,0
1752,7050001055635,新規,0,2024-11-05,2024-11-05,株式会社ＮＡＬＡＫＡ,,株式会社,茨城県,稲敷市,浮島５５４４番地,,08,229,3000641,,,,,,,2024-11-05,1,,,,,ナラカ,0
1760,7100001037958,新規,0,2024-11-05,2024-11-05,平成住宅株式会社,,株式会社,長野県,長野市,三輪９丁目４９番２７号,,20,201,3800803,,,,,,,2024-11-05,1,,,,,ヘイセイジュウタク,0
1761,7100001037982,新規,0,2024-11-05,2024-11-05,株式会社音声社,,株式会社,長野県,小諸市,八幡町２丁目５－１３シティワン１０１,,20,208,3840016,,,,,,,2024-11-05,1,,,,,オンセイシャ,0
1764,7110001038815,新規,0,2024-11-05,2024-11-05,威龍金属株式会社,,株式会社,新潟県,魚沼市,田中字森下２０‐４,,15,225,9460106,,,,,,,2024-11-05,1,,,,,イリュウキンゾク,0
1765,7110001038823,新規,0,2024-11-05,2024-11-05,フォロメシア株式会社,,株式会社,新潟県,南蒲原郡田上町,大字羽生田丙１１１番地９,,15,361,9591512,,,,,,,2024-11-05,1,,,,,フォロメシア,0
1768,7110003005565,新規,0,2024-11-05,2024-11-05,四季園合同会社,,合同会社,新潟県,新潟市秋葉区,新津四ツ興野１７３３番地,,15,105,9560057,,,,,,,2024-11-05,1,,,,,シキエン,0
1780,7120001269905,新規,0,2024-11-05,2024-11-05,ＫＴＳ株式会社,,株式会社,大阪府,大阪市都島区,都島本通３丁目１４番２２号,,27,102,5340021,,,,,,,2024-11-05,1,,,,,ケーティエス,0
1781,7120001269921,新規,0,2024-11-05,2024-11-05,友誠電気株式会社,,株式会社,大阪府,大阪市住之江区,南港北２丁目１番１０号ＡＴＣビルＩＴＭ棟４階Ｎ－２ルームＤ,,27,125,5590034,,,,,,,2024-11-05,1,,,,,ユウセイデンキ,0
1782,7120001269962,新規,0,2024-11-05,2024-11-05,株式会社ＤＯＮＡＩＫＡ,,株式会社,大阪府,大阪市西淀川区,柏里２丁目３番２８号,,27,113,5550022,,,,,,,2024-11-05,1,,,,,ドナイカ,0
1788,7120003027880,新規,0,2024-11-05,2024-11-05,合同会社ｂｉｗｕ,,合同会社,大阪府,大阪市西区,南堀江２丁目２番１１号５０２,,27,106,5500015,,,,,,,2024-11-05,1,,,,,ビウ,0
1789,7120003027897,新規,0,2024-11-05,2024-11-05,合同会社黒田家,,合同会社,大阪府,大阪市北区,西天満１丁目９番１３号パークビル中之島９階９０１号室,,27,127,5300047,,,,,,,2024-11-05,1,,,,,クロダケ,0
1790,7120003027906,新規,0,2024-11-05,2024-11-05,サービス関西合同会社,,合同会社,大阪府,大阪市北区,梅田１丁目２番２号大阪駅前第２ビル１２‐１２,,27,127,5300001,,,,,,,2024-11-05,1,,,,,サービスカンサイ,0
1794,7120101070535,新規,0,2024-11-05,2024-11-05,株式会社モコクリエイト,,株式会社,大阪府,堺市中区,土塔町３３３４番地４,,27,142,5998234,,,,,,,2024-11-05,1,,,,,モコクリエイト,0
1811,7160003003325,新規,0,2024-11-05,2024-11-05,びわこむしぱんカンパニー合同会社,,合同会社,滋賀県,大津市,今堅田２丁目２４‐１ハイツ千栄２Ａ‐３,,25,201,5200241,,,,,,,2024-11-05,1,,,,,ビワコムシパンカンパニー,0
1823,7180001163986,新規,0,2024-11-05,2024-11-05,株式会社アートクラフト,,株式会社,愛知県,名古屋市守山区,大字中志段味字東原２５１０番地,,23,113,4630002,,,,,,,2024-11-05,1,,,,,アートクラフト,0
1824,7180001163994,新規,0,2024-11-05,2024-11-05,株式会社ＯＲＥＮＧＥ,,株式会社,愛知県,名古屋市熱田区,波寄町１０番２８号,,23,109,4560003,,,,,,,2024-11-05,1,,,,,オレンジ,0
1830,7180003027553,新規,0,2024-11-05,2024-11-05,Ｏｆｆｉｃｅ．ＫＩＭ合同会社,,合同会社,愛知県,名古屋市中区,栄２丁目１番１２号,,23,106,4600008,,,,,,,2024-11-05,1,,,,,オフィスキム,0
1831,7180003027561,新規,0,2024-11-05,2024-11-05,合同会社大空,,合同会社,愛知県,愛知郡東郷町,大字春木字清水ケ根１６番地,,23,302,4700162,,,,,,,2024-11-05,1,,,,,オオゾラ,0
1832,7180005020820,新規,0,2024-11-05,2024-11-05,特定非営利活動法人愛知県日本インドネシア友好交流協会,,その他の設立登記法人,愛知県,名古屋市中区,東桜２丁目２１番１１号,,23,106,4600005,,,,,,,2024-11-05,1,,,,,アイチケンニホンインドネシアユウコウコウリュウキョウカイ,0
1834,7200003006570,新規,0,2024-11-05,2024-11-05,Ｒｕｃｉｌｉａ合同会社,,合同会社,岐阜県,瑞穂市,別府字堤内三ノ町５５１番２,,21,216,5010222,,,,,,,2024-11-05,1,,,,,ルシリア,0
1838,7220001026305,新規,0,2024-11-05,2024-11-05,エッジ株式会社,,株式会社,石川県,金沢市,金石新町５番１号,,17,201,9200330,,,,,,,2024-11-05,1,,,,,エッジ,0
1842,7240001064030,新規,0,2024-11-05,2024-11-05,株式会社Ｖｉｎｅ,,株式会社,広島県,広島市西区,東観音町２４番１号１Ｆ,,34,104,7330032,,,,,,,2024-11-05,1,,,,,バイン,0
1843,7240001064039,新規,0,2024-11-05,2024-11-05,株式会社シールド,,株式会社,広島県,広島市南区,比治山町１番６－５０３号,,34,103,7320817,,,,,,,2024-11-05,1,,,,,シールド,0
1844,7240001064047,新規,0,2024-11-05,2024-11-05,株式会社いこま,,株式会社,広島県,広島市中区,東白島町４番１２号,,34,101,7300004,,,,,,,2024-11-05,1,,,,,イコマ,0
1845,7240001064063,新規,0,2024-11-05,2024-11-05,株式会社アイズ,,株式会社,広島県,広島市中区,十日市町１丁目３番９号,,34,101,7300805,,,,,,,2024-11-05,1,,,,,アイズ,0
1849,7260001039600,新規,0,2024-11-05,2024-11-05,ビルドプロ株式会社,,株式会社,岡山県,岡山市北区,北方４丁目４番１１－６号,,33,101,7000803,,,,,,,2024-11-05,1,,,,,ビルドプロ,0
1863,7290001107809,新規,0,2024-11-05,2024-11-05,株式会社ＴＥＰ,,株式会社,福岡県,うきは市,吉井町鷹取２２７番地,,40,225,8391343,,,,,,,2024-11-05,1,,,,,テップ,0
1866,7290003016017,新規,0,2024-11-05,2024-11-05,合同会社ゆっこ亭,,合同会社,福岡県,福岡市中央区,渡辺通１丁目１－１－１２,,40,133,8100004,,,,,,,2024-11-05,1,,,,,ユッコテイ,0
1870,7310003004885,新規,0,2024-11-05,2024-11-05,Ｎａｕｔａｓ合同会社,,合同会社,長崎県,諫早市,永昌町２０番５３号グランビュー永昌Ｄ棟,,42,204,8540072,,,,,,,2024-11-05,1,,,,,ナウタス,0
1875,7330001032606,新規,0,2024-11-05,2024-11-05,株式会社栄進貿易,,株式会社,熊本県,山鹿市,鹿本町石渕１０９６番地２,,43,208,8610311,,,,,,,2024-11-05,1,,,,,エイシンボウエキ,0
1876,7330001032614,新規,0,2024-11-05,2024-11-05,株式会社櫛山電気,00136870,株式会社,熊本県,山鹿市,山鹿１８０９番地１３,,43,208,8610501,,,,,,,2024-11-05,1,,,,,クシヤマデンキ,0
1877,7340001026904,新規,0,2024-11-05,2024-11-05,株式会社グレープコミュニティ,,株式会社,鹿児島県,鹿児島市,春日町２番１０号,,46,201,8920804,,,,,,,2024-11-05,1,,,,,グレープコミュニティ,0
1886,7360001034401,新規,0,2024-11-05,2024-11-05,株式会社浜辺の茶屋,,株式会社,沖縄県,南城市,玉城字玉城２番地１,,47,215,9010604,,,,,,,2024-11-05,1,,,,,ハマベノチャヤ,0
1888,7360003014434,新規,0,2024-11-05,2024-11-05,合同会社Ｅｌｕ,,合同会社,沖縄県,那覇市,山下町４番９号１Ｆ,,47,201,9000027,,,,,,,2024-11-05,1,,,,,エル,0
1890,7370001051874,新規,0,2024-11-05,2024-11-05,株式会社ＡＴＯＭ,,株式会社,宮城県,塩竈市,新浜町２丁目１番２号,,04,203,9850001,,,,,,,2024-11-05,1,,,,,アトム,0
1893,7370003006802,新規,0,2024-11-05,2024-11-05,合同会社ＡＭＢＥＲＲＯＮ,,合同会社,宮城県,仙台市青葉区,高松１丁目１６－３コーポ西１０３,,04,101,9810907,,,,,,,2024-11-05,1,,,,,アンバロン,0
1895,7370005010851,新規,0,2024-11-05,2024-11-05,一般社団法人ＡＳＴＥＲ,,その他の設立登記法人,宮城県,仙台市泉区,向陽台３丁目３６番１８－２０３,,04,105,9813102,,,,,,,2024-11-05,1,,,,,アスター,0
1903,7380001034886,新規,0,2024-11-05,2024-11-05,株式会社ビビットライフ,,株式会社,福島県,郡山市,開成６丁目４７番地１,,07,203,9638851,,,,,,,2024-11-05,1,,,,,ビビットライフ,0
1914,7430001092986,新規,0,2024-11-05,2024-11-05,株式会社末浩,,株式会社,北海道,札幌市中央区,南二条西４丁目１０番地,,01,101,0600062,,,,,,,2024-11-05,1,,,,,スエヒロ,0
1940,8010001249108,新規,0,2024-11-05,2024-11-05,株式会社エヌアイソリューションラボ,,株式会社,東京都,千代田区,神田和泉町１番地６－１６ヤマトビル４０５,,13,101,1010024,,,,,,,2024-11-05,1,,,,,エヌアイソリューションラボ,0
1941,8010001249636,新規,0,2024-11-05,2024-11-05,株式会社ゆうひ,,株式会社,東京都,中央区,銀座１丁目１２－４Ｎ＆ＥＢＬＤ．７階,,13,102,1040061,,,,,,,2024-11-05,1,,,,,ユウヒ,0
1945,8010003045356,新規,0,2024-11-05,2024-11-05,羊カンパニー合同会社,,合同会社,東京都,千代田区,九段南１丁目５番６号りそな九段ビル５ＦＫＳフロア,,13,101,1020074,,,,,,,2024-11-05,1,,,,,ヒツジカンパニー,0
1946,8010005039042,新規,0,2024-11-05,2024-11-05,Ｗｉｎｐａｌｍ　Ｊａｐａｎ特定目的会社,,その他の設立登記法人,東京都,千代田区,霞が関３丁目２番５号,,13,101,1000013,,,,,,,2024-11-05,1,,,,,ウィンパームジャパン,0
1958,8010403033720,新規,0,2024-11-05,2024-11-05,合同会社ＭＩＳ,,合同会社,東京都,港区,新橋２丁目１２番１６号明和ビル４階西,,13,103,1050004,,,,,,,2024-11-05,1,,,,,エムアイエス,0
1963,8010501053117,新規,0,2024-11-05,2024-11-05,株式会社永,,株式会社,東京都,台東区,柳橋１丁目９番９－２０１号,,13,106,1110052,,,,,,,2024-11-05,1,,,,,トコシエ,0
1965,8010601066225,新規,0,2024-11-05,2024-11-05,アールケイプランニング株式会社,,株式会社,東京都,江東区,亀戸６丁目３１番２号,,13,108,1360071,,,,,,,2024-11-05,1,,,,,アールケイプランニング,0
1966,8010703007424,新規,0,2024-11-05,2024-11-05,ｃｏ‐ＰｄＭ合同会社,,合同会社,東京都,品川区,小山７丁目９－１６,,13,109,1420062,,,,,,,2024-11-05,1,,,,,コピーディーエム,0
1970,8010901056248,新規,0,2024-11-05,2024-11-05,株式会社ファルコン,,株式会社,東京都,世田谷区,梅丘１丁目５４番６号,,13,112,1540022,,,,,,,2024-11-05,1,,,,,ファルコン,0
1971,8010901056256,新規,0,2024-11-05,2024-11-05,サードアイ株式会社,,株式会社,東京都,世田谷区,松原５丁目２７－１０,,13,112,1560043,,,,,,,2024-11-05,1,,,,,サードアイ,0
1978,8011005010728,新規,0,2024-11-05,2024-11-05,一般社団法人日本ドッグスキャンセラピー協会,,その他の設立登記法人,東京都,渋谷区,富ヶ谷１丁目５０番１０号,,13,113,1510063,,,,,,,2024-11-05,1,,,,,ニホンドッグスキャンセラピーキョウカイ,0
1981,8011101109399,新規,0,2024-11-05,2024-11-05,株式会社Ｒ‐ＡＲＣ．,,株式会社,東京都,新宿区,新宿１丁目１５番１２号柳生ビル５０１号,,13,104,1600022,,,,,,,2024-11-05,1,,,,,ラーク,0
1982,8011101109416,新規,0,2024-11-05,2024-11-05,株式会社カモリナ,,株式会社,東京都,新宿区,新宿１丁目３６番２号新宿第七葉山ビル３Ｆ,,13,104,1600022,,,,,,,2024-11-05,1,,,,,カモリナ,0
1983,8011101109424,新規,0,2024-11-05,2024-11-05,株式会社ｎｅｘｔ　ｓｔｅｐ,,株式会社,東京都,新宿区,西新宿３丁目３番１３号西新宿水間ビル２Ｆ,,13,104,1600023,,,,,,,2024-11-05,1,,,,,ネクストステップ,0
1985,8011103015125,新規,0,2024-11-05,2024-11-05,ＫＡＭ・パートナーズ合同会社,,合同会社,東京都,新宿区,西新宿３丁目３番１３号西新宿水間ビル６階,,13,104,1600023,,,,,,,2024-11-05,1,,,,,カムパートナーズ,0
1993,8011801045084,新規,0,2024-11-05,2024-11-05,株式会社モノトビ,,株式会社,東京都,足立区,青井３丁目７番１７号,,13,121,1200012,,,,,,,2024-11-05,1,,,,,モノトビ,0
1999,8012801023542,新規,0,2024-11-05,2024-11-05,株式会社たかしまエステート,,株式会社,東京都,立川市,柴崎町４丁目６番１号,,13,202,1900023,,,,,,,2024-11-05,1,,,,,タカシマエステート,0
2006,8020001159859,新規,0,2024-11-05,2024-11-05,株式会社Ｒ‐ｓｅａｌｓ,,株式会社,神奈川県,横浜市磯子区,岡村６丁目５番３２号,,14,107,2350021,,,,,,,2024-11-05,1,,,,,アールシールズ,0
2010,8020003027163,新規,0,2024-11-05,2024-11-05,合同会社然,,合同会社,神奈川県,横浜市青葉区,恩田町１８７７番地６,,14,117,2270065,,,,,,,2024-11-05,1,,,,,ゼン,0
2011,8020003027188,新規,0,2024-11-05,2024-11-05,合同会社Ａｍａｒｙｌｌｉｓ,,合同会社,神奈川県,川崎市高津区,新作６丁目９番２７号サンハイム２－Ｃ,,14,134,2130014,,,,,,,2024-11-05,1,,,,,アマリリス,0
2014,8021001083628,新規,0,2024-11-05,2024-11-05,株式会社竹井工務店,,株式会社,神奈川県,小田原市,飯泉１４２１－２ゴットバレー２－２０３,,14,206,2500863,,,,,,,2024-11-05,1,,,,,タケイコウムテン,0
2022,8030001163216,新規,0,2024-11-05,2024-11-05,株式会社ＬＳＰ,,株式会社,埼玉県,比企郡小川町,東小川２丁目２２番地１,,11,343,3550322,,,,,,,2024-11-05,1,,,,,エルエスピー,0
2023,8030001163224,新規,0,2024-11-05,2024-11-05,株式会社エムズ,,株式会社,埼玉県,狭山市,大字堀兼１７０２番地の５,,11,215,3501312,,,,,,,2024-11-05,1,,,,,エムズ,0
2024,8030001163232,新規,0,2024-11-05,2024-11-05,株式会社Ａ‐ｗｒａｐ,,株式会社,埼玉県,新座市,東１丁目５番２１－９号,,11,230,3520002,,,,,,,2024-11-05,1,,,,,エーラップ,0
2025,8030001163240,新規,0,2024-11-05,2024-11-05,株式会社オフィス７９,,株式会社,埼玉県,新座市,畑中２丁目４番１４号,,11,230,3520012,,,,,,,2024-11-05,1,,,,,オフィスセブンティナイン,0
2029,8030003025389,新規,0,2024-11-05,2024-11-05,合同会社ソロデビュー,,合同会社,埼玉県,川口市,西川口１丁目４番２１号金子ビル４０１,,11,203,3320021,,,,,,,2024-11-05,1,,,,,ソロデビュー,0
2030,8030003025414,新規,0,2024-11-05,2024-11-05,合同会社わいわいプランニング,,合同会社,埼玉県,さいたま市大宮区,櫛引町１丁目７３５番地,,11,103,3300851,,,,,,,2024-11-05,1,,,,,ワイワイプランニング,0
2035,8040001136006,新規,0,2024-11-05,2024-11-05,Ｋｏｕｂｕｎｄｏ株式会社,,株式会社,千葉県,市原市,権現堂４１番地３,,12,219,2900209,,,,,,,2024-11-05,1,,,,,コウブンドウ,0
2040,8060001037615,新規,0,2024-11-05,2024-11-05,株式会社ＨＵＩ　Ｔｈｉｒｄ,,株式会社,栃木県,那須塩原市,西三島７丁目２３６,,09,213,3292756,,,,,,,2024-11-05,1,,,,,エイチユーアイサード,0
2050,8090001018967,新規,0,2024-11-05,2024-11-05,株式会社ヒテラ創建,,株式会社,山梨県,甲府市,大手１丁目１番地３４,,19,201,4000015,,,,,,,2024-11-05,1,,,,,ヒテラソウケン,0
2053,8100003007850,新規,0,2024-11-05,2024-11-05,合同会社ウィナー企画,,合同会社,長野県,上田市,中央４丁目１１－９,,20,203,3860012,,,,,,,2024-11-05,1,,,,,ウィナーキカク,0
2066,8120001269953,新規,0,2024-11-05,2024-11-05,＿集尚磊株式会社,00136871,株式会社,大阪府,大阪市城東区,野江３丁目２７番７号３１３室,,27,118,5360006,,,,,,,2024-11-05,1,,,,,キンシュウショウライ,0
2067,8120001270003,新規,0,2024-11-05,2024-11-05,株式会社えこみん,,株式会社,大阪府,寝屋川市,香里南之町６番８号飯田ビル３０１,,27,215,5720084,,,,,,,2024-11-05,1,,,,,エコミン,0
2070,8120003027888,新規,0,2024-11-05,2024-11-05,合同会社ＡｌｂａＲｉｓｅ,,合同会社,大阪府,大阪市北区,梅田１丁目２番２号大阪駅前第２ビル１２‐１２,,27,127,5300001,,,,,,,2024-11-05,1,,,,,アルバライズ,0
2075,8120101070534,新規,0,2024-11-05,2024-11-05,株式会社ＭＡＫ,,株式会社,大阪府,羽曳野市,西浦４丁目３番１９号,,27,222,5830861,,,,,,,2024-11-05,1,,,,,マック,0
2077,8120901049967,新規,0,2024-11-05,2024-11-05,ペタルス株式会社,,株式会社,大阪府,茨木市,山手台２丁目５番６－１０３号,,27,211,5670009,,,,,,,2024-11-05,1,,,,,ペタルス,0
2086,8130001078288,新規,0,2024-11-05,2024-11-05,株式会社イトク,,株式会社,京都府,京都市右京区,嵯峨天龍寺造路町２番地１,,26,108,6168384,,,,,,,2024-11-05,1,,,,,イトク,0
2093,8140001136301,新規,0,2024-11-05,2024-11-05,株式会社ＢＡＮＤ,,株式会社,兵庫県,神戸市中央区,磯上通８丁目１番２９号カサベラビルＣ＆Ｍ４０３号室,,28,110,6510086,,,,,,,2024-11-05,1,,,,,バンド,0
2096,8150005009634,新規,0,2024-11-05,2024-11-05,一般社団法人実践体育学体操三井島システム,,その他の設立登記法人,奈良県,橿原市,北八木町１丁目６番１２－２０４号,,29,205,6340005,,,,,,,2024-11-05,1,,,,,ジッセンタイイクガクタイソウミイシマシステム,0
2099,8160001026327,新規,0,2024-11-05,2024-11-05,株式会社ウエダ,,株式会社,滋賀県,大津市,一里山３丁目１番１－２０５号,,25,201,5202153,,,,,,,2024-11-05,1,,,,,ウエダ,0
2118,8180303006322,新規,0,2024-11-05,2024-11-05,合同会社Ａ．Ｃ　ＣＯＭＰＡＮＹ,,合同会社,愛知県,豊橋市,井原町２３,,23,201,4400025,,,,,,,2024-11-05,1,,,,,エーシーカンパニー,0
2121,8200001043086,新規,0,2024-11-05,2024-11-05,株式会社Ｌ‐ＴＲＹ,,株式会社,岐阜県,岐阜市,金町６丁目２１番地岐阜ステーションビル３０４,,21,201,5008842,,,,,,,2024-11-05,1,,,,,エルトライ,0
2126,8230003002327,新規,0,2024-11-05,2024-11-05,合同会社Ｇｒｅｅｎ,,合同会社,富山県,富山市,婦中町千里９００番地８,,16,201,9392622,,,,,,,2024-11-05,1,,,,,グリーン,0
2131,8240001064038,新規,0,2024-11-05,2024-11-05,アラタプラス株式会社,,株式会社,広島県,広島市安佐北区,安佐町大字飯室字森城６８８７番地５,,34,106,7311142,,,,,,,2024-11-05,1,,,,,アラタプラス,0
2140,8260001039599,新規,0,2024-11-05,2024-11-05,ユッシーバンビーナ株式会社,,株式会社,岡山県,玉野市,番田２８３９番地８,,33,204,7060304,,,,,,,2024-11-05,1,,,,,ユッシーバンビーナ,0
2154,8290005019553,新規,0,2024-11-05,2024-11-05,ＮＰＯ法人九州登山情報センター,,その他の設立登記法人,福岡県,太宰府市,大字内山７０８番地,,40,221,8180115,,,,,,,2024-11-05,1,,,,,キュウシュウトザンジョウホウセンター,0
2158,8320003004504,新規,0,2024-11-05,2024-11-05,合同会社おるトコ,,合同会社,大分県,大分市,大字津守５７３番地の４６,,44,201,8700945,,,,,,,2024-11-05,1,,,,,オルトコ,0
2170,8370005010850,新規,0,2024-11-05,2024-11-05,特定非営利活動法人にこにこサポート,,その他の設立登記法人,宮城県,仙台市青葉区,川平４丁目５番３６号,,04,101,9810954,,,,,,,2024-11-05,1,,,,,ニコニコサポート,0
2174,8430001093001,新規,0,2024-11-05,2024-11-05,株式会社あおば,,株式会社,北海道,札幌市西区,西野三条６丁目９番１５号,,01,107,0630033,,,,,,,2024-11-05,1,,,,,アオバ,0
2180,8470001020447,新規,0,2024-11-05,2024-11-05,株式会社ｉｎｎｏｖａｔｉｏｎ　ｗｏｒｋｓ,,株式会社,香川県,仲多度郡まんのう町,公文７１７番地３,,37,406,7660011,,,,,,,2024-11-05,1,,,,,イノベーションワークス,0
2184,8700150127291,新規,0,2024-11-05,2024-09-25,南飛騨アートプロジェクト実行委員会,,その他,岐阜県,岐阜市,薮田南２丁目１－１,,21,201,5008384,,,,,,,2024-09-25,1,,,,,ミナミヒダアートプロジエクトジツコウイインカイ,0
2188,9010003045355,新規,0,2024-11-05,2024-11-05,合同会社カーチスファンド１１号,,合同会社,東京都,千代田区,六番町２番地８番町Ｍビル３Ｆ,,13,101,1020085,,,,,,,2024-11-05,1,,,,,カーチスファンドジュウイチゴウ,0
2196,9010101016381,新規,0,2024-11-05,2024-11-05,ＫＹＺ株式会社,,株式会社,東京都,八王子市,寺町４３－９,,13,201,1920073,,,,,,,2024-11-05,1,,,,,ケーワイゼ,0
2197,9010105002312,新規,0,2024-11-05,2024-11-05,一般社団法人日本タッチ育児協会,,その他の設立登記法人,東京都,八王子市,上川町１９５３番地２,,13,201,1920151,,,,,,,2024-11-05,1,,,,,ニホンタッチイクジキョウカイ,0
2204,9010401186098,新規,0,2024-11-05,2024-11-05,株式会社ＭＭ＆ＥＭＭＡ,,株式会社,東京都,港区,六本木４丁目３番１１号２２３,,13,103,1060032,,,,,,,2024-11-05,1,,,,,エムエムアンドエマ,0
2205,9010401186115,新規,0,2024-11-05,2024-11-05,株式会社千代田トラスト,,株式会社,東京都,港区,浜松町１丁目１８番１０号,,13,103,1050013,,,,,,,2024-11-05,1,,,,,チヨダトラスト,0
2206,9010401186156,新規,0,2024-11-05,2024-11-05,ＰＲＩＩＳＭ　Ｇｏｌｆ株式会社,,株式会社,東京都,港区,白金３丁目２番１号プレセダンヒルズ白金高輪５０１号室,,13,103,1080072,,,,,,,2024-11-05,1,,,,,プリズムゴルフ,0
2207,9010401186180,新規,0,2024-11-05,2024-11-05,Ｑａｎｔｕ　Ｎｅｔｗｏｒｋ株式会社,,株式会社,東京都,港区,三田１丁目３番４０号麻布十番ＢＵＳＩＮＥＳＳＣＵＢＥ－Ｓ,,13,103,1080073,,,,,,,2024-11-05,1,,,,,カントゥネットワーク,0
2208,9010401186189,新規,0,2024-11-05,2024-11-05,ＤＢ　Ｐｙｒａｍｉｄ　ＨｏｌｄＣｏ株式会社,,株式会社,東京都,港区,白金台３丁目１０番１０号,,13,103,1080071,,,,,,,2024-11-05,1,,,,,ディービーピラミッドホールドコ,0
2219,9010601066208,新規,0,2024-11-05,2024-11-05,株式会社イシュエット,,株式会社,東京都,江東区,豊洲２丁目５－１アーバンドックシティ豊洲タワー４０Ｆ,,13,108,1350061,,,,,,,2024-11-05,1,,,,,イシュエット,0
2221,9010603011178,新規,0,2024-11-05,2024-11-05,ファイナンシャル・プロデュース合同会社,,合同会社,東京都,江東区,千石２丁目３－１０－５０３,,13,108,1350015,,,,,,,2024-11-05,1,,,,,ファイナンシャルプロデュース,0
2222,9010603011186,新規,0,2024-11-05,2024-11-05,ＭＳコンサルティング合同会社,,合同会社,東京都,墨田区,東駒形３丁目２５番１号坂下ビル２Ｆ,,13,107,1300005,,,,,,,2024-11-05,1,,,,,エムエスコンサルティング,0
2224,9010803005145,新規,0,2024-11-05,2024-11-05,梔誠合同会社,,合同会社,東京都,大田区,大森北３丁目４番８号ハイタウン大森第２－４０２号室,,13,111,1430016,,,,,,,2024-11-05,1,,,,,シセイ,0
2226,9010901056255,新規,0,2024-11-05,2024-11-05,ＧＲＩＰ株式会社,,株式会社,東京都,世田谷区,新町３丁目２番１３－４０３号,,13,112,1540014,,,,,,,2024-11-05,1,,,,,グリップ,0
2229,9010905004689,新規,0,2024-11-05,2024-11-05,医療法人社団朝陽会,,その他の設立登記法人,東京都,世田谷区,経堂１丁目２２番１８号,,13,112,1560052,,,,,,,2024-11-05,1,,,,,チョウヨウカイ,0
2237,9011003020265,新規,0,2024-11-05,2024-11-05,合同会社ポラリス,,合同会社,東京都,渋谷区,渋谷２丁目１９番１５号,,13,113,1500002,,,,,,,2024-11-05,1,,,,,ポラリス,0
2240,9011101109316,新規,0,2024-11-05,2024-11-05,株式会社ＡＣＥＳ,,株式会社,東京都,新宿区,北新宿３丁目１－１６－２０３,,13,104,1690074,,,,,,,2024-11-05,1,,,,,エイス,0
2242,9011301030123,新規,0,2024-11-05,2024-11-05,株式会社ＢＡＳＥ５１,,株式会社,東京都,杉並区,高円寺北３丁目３７番９号ハイムポプラ８号室,,13,115,1660002,,,,,,,2024-11-05,1,,,,,ベイスゴジュウイチ,0
2244,9011501031326,新規,0,2024-11-05,2024-11-05,株式会社ブレス・ワン,,株式会社,東京都,荒川区,西尾久４丁目１２番１１－２４４号,,13,118,1160011,,,,,,,2024-11-05,1,,,,,ブレスワン,0
2248,9012303002069,新規,0,2024-11-05,2024-11-05,ＫＯ合同会社,,合同会社,東京都,町田市,忠生１丁目２３番地６号,,13,209,1940035,,,,,,,2024-11-05,1,,,,,ケオ,0
2255,9013301053319,新規,0,2024-11-05,2024-11-05,株式会社ＲＩＳＨＩＫＡ　ＩＮＴＥＲＮＡＴＩＯＮＡＬ,,株式会社,東京都,豊島区,池袋本町３丁目２９番３－２０１,,13,116,1700011,,,,,,,2024-11-05,1,,,,,リシカインターナショナル,0
2266,9020001159866,新規,0,2024-11-05,2024-11-05,株式会社Ｓｔｅｌａｉｒ,,株式会社,神奈川県,横浜市神奈川区,金港町５－１４クアドリフォリオ８階,,14,102,2210056,,,,,,,2024-11-05,1,,,,,ステレア,0
2267,9020001159908,新規,0,2024-11-05,2024-11-05,株式会社アキラホールディングス,,株式会社,神奈川県,横浜市西区,みなとみらい４丁目９番２－Ｃ３０１０号,,14,103,2200012,,,,,,,2024-11-05,1,,,,,アキラホールディングス,0
2268,9020001159940,新規,0,2024-11-05,2024-11-05,株式会社メディカルネットワーク,,株式会社,神奈川県,横浜市旭区,南希望が丘８１番地３,,14,112,2410824,,,,,,,2024-11-05,1,,,,,メディカルネットワーク,0
2275,9020003027170,新規,0,2024-11-05,2024-11-05,合同会社オフィスＫ,,合同会社,神奈川県,横浜市港北区,富士塚１丁目２０番１８－５号,,14,109,2220012,,,,,,,2024-11-05,1,,,,,オフィスケイ,0
2276,9020003027195,新規,0,2024-11-05,2024-11-05,合同会社エース,,合同会社,神奈川県,川崎市多摩区,中野島１丁目１番１８号フルーツハウスＩ－１０１,00136869,14,135,2140012,,,,,,,2024-11-05,1,,,,,エース,0
2285,9030001163223,新規,0,2024-11-05,2024-11-05,ＭＭＹ　Ｆａｃｔｏｒｙ株式会社,,株式会社,埼玉県,越谷市,レイクタウン１丁目５番地１４,,11,222,3430828,,,,,,,2024-11-05,1,,,,,エムエムワイファクトリー,0
2286,9030001163231,新規,0,2024-11-05,2024-11-05,株式会社ｍｉｋｋｏ　ｉｌｌｕｓｔｒａｔｉｏｎｓ,,株式会社,埼玉県,さいたま市浦和区,上木崎４丁目２番３－４０５号,,11,107,3300071,,,,,,,2024-11-05,1,,,,,ミッコイラストレーションズ,0
2287,9030001163256,新規,0,2024-11-05,2024-11-05,株式会社松夏,,株式会社,埼玉県,三郷市,鷹野３丁目４１９－３,,11,237,3410035,,,,,,,2024-11-05,1,,,,,ショウカ,0
2288,9030001163272,新規,0,2024-11-05,2024-11-05,鹿角株式会社,,株式会社,埼玉県,富士見市,針ケ谷１丁目３３番地１,,11,235,3540017,,,,,,,2024-11-05,1,,,,,カヅノ,0
2290,9030003025413,新規,0,2024-11-05,2024-11-05,合同会社ＥＢＨ,,合同会社,埼玉県,さいたま市大宮区,桜木町１丁目３９８番地１アドグレイス大宮７Ｆ,,11,103,3300854,,,,,,,2024-11-05,1,,,,,イービーエイチ,0
2291,9030003025421,新規,0,2024-11-05,2024-11-05,合同会社ＨｏｔＳｐｏｔ,,合同会社,埼玉県,久喜市,間鎌３０９番地２２,,11,232,3491123,,,,,,,2024-11-05,1,,,,,ホットスポット,0
2303,9050003008770,新規,0,2024-11-05,2024-11-05,悠遊合同会社,,合同会社,茨城県,結城市,大字結城７２７０－１中山ハイツ１０２号,,08,207,3070001,,,,,,,2024-11-05,1,,,,,ユウユウ,0
2304,9050003008787,新規,0,2024-11-05,2024-11-05,フィールドアップ合同会社,,合同会社,茨城県,結城市,大字小森２２０９番地３,,08,207,3070011,,,,,,,2024-11-05,1,,,,,フィールドアップ,0
2311,9080101025112,新規,0,2024-11-05,2024-11-05,株式会社ＲｅＢｒｉｇｈｔ,,株式会社,静岡県,富士市,伝法２５２９番地の５,,22,210,4170061,,,,,,,2024-11-05,1,,,,,リブライト,0
2318,9100001037980,新規,0,2024-11-05,2024-11-05,株式会社Ｎｅｒｏｓｕｎｚ,,株式会社,長野県,茅野市,北山４０３５－１３０５,,20,214,3910301,,,,,,,2024-11-05,1,,,,,ネロサンズ,0
2328,9120001269944,新規,0,2024-11-05,2024-11-05,株式会社ＮＨＡＴ　ＬＩＮＨ,,株式会社,大阪府,門真市,一番町２４－１５,,27,223,5710033,,,,,,,2024-11-05,1,,,,,ニャットリン,0
2329,9120001269952,新規,0,2024-11-05,2024-11-05,剛田株式会社,,株式会社,大阪府,大阪市中央区,南船場１丁目１０－１６－４０５号室,,27,128,5420081,,,,,,,2024-11-05,1,,,,,ゴウダ,0
2331,9120003027879,新規,0,2024-11-05,2024-11-05,ＳＴＰＪ合同会社,,合同会社,大阪府,大阪市北区,中津１丁目１８番１８号若杉ビル８０５,,27,127,5310071,,,,,,,2024-11-05,1,,,,,エスティーピージェイ,0
2332,9120003027904,新規,0,2024-11-05,2024-11-05,合同会社ルパレ,,合同会社,大阪府,大阪市旭区,新森１丁目７番２４－４０７号,,27,117,5350022,,,,,,,2024-11-05,1,,,,,ルパレ,0
2334,9120101070533,新規,0,2024-11-05,2024-11-05,株式会社Ｓ８,,株式会社,大阪府,堺市堺区,大仙西町４丁１１３番１号,,27,141,5900821,,,,,,,2024-11-05,1,,,,,エスハチ,0
2337,9120105009924,新規,0,2024-11-05,2024-11-05,一般社団法人東雲国際文化推進協会,,その他の設立登記法人,大阪府,大阪狭山市,狭山５丁目２２１３番地２狭山遊園ハイツ３－５０２,,27,231,5890005,,,,,,,2024-11-05,1,,,,,シノノメコクサイブンカスイシンキョウカイ,0
2339,9122001038602,新規,0,2024-11-05,2024-11-05,株式会社ファシリティーコンストラクション,,株式会社,大阪府,東大阪市,日下町１丁目６－４７,,27,227,5798003,,,,,,,2024-11-05,1,,,,,ファシリティーコンストラクション,0
2346,9130001078270,新規,0,2024-11-05,2024-11-05,株式会社ｋｉｔｔｏｉ,,株式会社,京都府,京都市山科区,御陵田山町２番地１７,,26,110,6078405,,,,,,,2024-11-05,1,,,,,キットイ,0
2347,9130003009975,新規,0,2024-11-05,2024-11-05,合同会社ゆりし,,合同会社,京都府,京都市左京区,岩倉中在地町８番地１浄雲クワトロ２０４号室,,26,103,6060027,,,,,,,2024-11-05,1,,,,,ユリシ,0
2349,9140001136300,新規,0,2024-11-05,2024-11-05,株式会社ＨＯＡＮＧ　ＮＧＵＹＥＮ,,株式会社,兵庫県,神戸市中央区,多聞通１丁目３番１１号ハイツ神戸２０２号室,,28,110,6500015,,,,,,,2024-11-05,1,,,,,ホアングェン,0
2360,9180001163976,新規,0,2024-11-05,2024-11-05,株式会社ＷＯＬＦＷＩＮ,,株式会社,愛知県,名古屋市中区,葵１丁目２２番１６号,,23,106,4600006,,,,,,,2024-11-05,1,,,,,ウルフィン,0
2368,9220001026303,新規,0,2024-11-05,2024-11-05,株式会社ＢＥｖｅｒｂ,,株式会社,石川県,金沢市,此花町５番６号ライフ金沢第１ビル６０１Ａ,,17,201,9200852,,,,,,,2024-11-05,1,,,,,ビーバーブ,0
2371,9230001020560,新規,0,2024-11-05,2024-11-05,株式会社ＡＵ　ＴＲＡＤＩＮＧ,,株式会社,富山県,射水市,堀岡新明神１３番地１,,16,211,9330221,,,,,,,2024-11-05,1,,,,,エーユートレーディング,0
2375,9240001064037,新規,0,2024-11-05,2024-11-05,株式会社友洋,,株式会社,広島県,山県郡北広島町,有間１００５番地２,,34,369,7311503,,,,,,,2024-11-05,1,,,,,トモヒロ,0
2378,9260001039598,新規,0,2024-11-05,2024-11-05,株式会社ｃ‐ｆｅｓ,,株式会社,岡山県,岡山市東区,光津８２５番地,,33,103,7048164,,,,,,,2024-11-05,1,,,,,シーフェス,0
2379,9260001039607,新規,0,2024-11-05,2024-11-05,Ａ　Ｆｏｏｄｓ　Ｃｏｍｐａｎｙ株式会社,,株式会社,岡山県,岡山市北区,駅元町９番２６号,,33,101,7000024,,,,,,,2024-11-05,1,,,,,エーフーズカンパニー,0
2390,9290001107856,新規,0,2024-11-05,2024-11-05,ＣＣＴジャパン株式会社,,株式会社,福岡県,福岡市博多区,博多駅前２丁目１０番１２号ハイラーク博多駅前８１４号,,40,132,8120011,,,,,,,2024-11-05,1,,,,,シーシーティージャパン,0
2391,9290001107864,新規,0,2024-11-05,2024-11-05,株式会社はじめ,,株式会社,福岡県,糟屋郡志免町,田富３丁目１７番１５号,,40,343,8112204,,,,,,,2024-11-05,1,,,,,ハジメ,0
2395,9290803004879,新規,0,2024-11-05,2024-11-05,合同会社マーブルハウス,,合同会社,福岡県,築上郡築上町,大字小原５７５番地,,40,647,8290304,,,,,,,2024-11-05,1,,,,,マーブルハウス,0
2400,9340001026902,新規,0,2024-11-05,2024-11-05,株式会社鶴丸アセットマネジメント,,株式会社,鹿児島県,鹿児島市,田上台３丁目１６番８号,,46,201,8900036,,,,,,,2024-11-05,1,,,,,ツルマルアセットマネジメント,0
2404,9360001034390,新規,0,2024-11-05,2024-11-05,ＡＷＢ株式会社,,株式会社,沖縄県,沖縄市,胡屋６丁目６番４号,,47,211,9040021,,,,,,,2024-11-05,1,,,,,エーダブリュービー,0
2410,9360003014440,新規,0,2024-11-05,2024-11-05,合同会社ＯｋｉＣａｐｔｕｒｅ,,合同会社,沖縄県,中頭郡読谷村,字都屋４４８番地４Ｆ＆ＰマンションＢ－２,,47,324,9040305,,,,,,,2024-11-05,1,,,,,オキキャプチャ,0
2414,9370001051880,新規,0,2024-11-05,2024-11-05,株式会社ｗｅｌｌ　Ｇａｒａｇｅ,,株式会社,宮城県,大崎市,田尻字町１２番地,,04,215,9894415,,,,,,,2024-11-05,1,,,,,ウェルガレージ,0
2419,9380001034876,新規,0,2024-11-05,2024-11-05,プロテック株式会社,,株式会社,福島県,南相馬市,小高区片草字堤下１６１番地の２,,07,212,9792101,,,,,,,2024-11-05,1,,,,,プロテック,0
2430,9430001092992,新規,0,2024-11-05,2024-11-05,株式会社アルパインクリエイト,,株式会社,北海道,札幌市中央区,南一条西１６丁目１－３２３春野ビル３Ｆ,,01,101,0600061,,,,,,,2024-11-05,1,,,,,アルパインクリエイト,0
2431,9430001093000,新規,0,2024-11-05,2024-11-05,株式会社ＢＩＬＬＩＯＮ,,株式会社,北海道,札幌市中央区,北一条西２２丁目３番３－８０５号,,01,101,0640821,,,,,,,2024-11-05,1,,,,,ビリオン,0
2432,9430001093017,新規,0,2024-11-05,2024-11-05,株式会社あらし,,株式会社,北海道,札幌市白石区,米里五条１丁目６番５号,,01,104,0030875,,,,,,,2024-11-05,1,,,,,アラシ,0
2436,9430003016958,新規,0,2024-11-05,2024-11-05,合同会社めりんだ,,合同会社,北海道,札幌市中央区,南十一条西８丁目３番１９－４０３号,,01,101,0640811,,,,,,,2024-11-05,1,,,,,メリンダ,0
2439,9470001020438,新規,0,2024-11-05,2024-11-05,Ｒ’ｓインプルーブ株式会社,,株式会社,香川県,さぬき市,造田宮西１１０８番地４,,37,206,7692311,,,,,,,2024-11-05,1,,,,,アールズインプルーブ,0
2440,9480003002202,新規,0,2024-11-05,2024-11-05,合同会社ラシャス,,合同会社,徳島県,板野郡北島町,北村字ハトノモト１３番地１,,36,402,7710201,,,,,,,2024-11-05,1,,,,,ラシャス,0
2445,9500001025978,新規,0,2024-11-05,2024-11-05,中央建設株式会社,,株式会社,愛媛県,今治市,菊間町浜２１０番地２,,38,202,7992303,,,,,,,2024-11-05,1,,,,,チュウオウケンセツ,0
2447,9700150127753,新規,0,2024-11-05,2024-11-05,Ｈａｎｇｚｈｏｕｙｉｍｅｎｇｗｅｉｍａｓｈｅｎｇｗｕｇｏｎｇｃｈｅｎｇｙｏｕｘｉａｎｇｏｎｇｓｉ,,外国会社等,,,,,,,,ｘｉｈｕｑｕｌｉｕｈｅｌｕ１３５ｈａｏｈａｉｌｕｆａｚｈａｎｚｈｏｎｇｘｉｎ　４ｚｈｕａｎｇ７１１ｓｈｉ（ＵＮｇｏｎｇｓｈｅ９ｚｈｕａｎｇ７１０ｓｈｉ）ｈａｎｇｚｈｏｕｓｈｉ，ｚｈｅｊｉａｎｇｓｈｅｎｇ　３１００００　ＣＮ,,,,,,2024-11-05,1,,,,,ハンゾウイメンウェイマセイブツゴンチェンヨウシエンゴンスー,0
