sequenceNumber,corporateNumber,process,correct,updateDate,changeDate,name,nameImageId,kind,prefectureName,cityName,streetNumber,addressImageId,prefectureCode,cityCode,postCode,addressOutside,addressOutsideImageId,closeDate,closeCause,successorCorporateNumber,changeCause,assignmentDate,latest,enName,enPrefectureName,enCityName,enAddressOutside,furigana,hihyoji
1,1010001124226,登記記録の閉鎖等,0,2024-10-23,2024-10-11,株式会社ヤマタネエンタテインメント,,株式会社,東京都,目黒区,平町１丁目２１番８号９０１,,13,110,1520032,,,2024-10-11,合併による解散等,2011001060641,令和６年１０月１１日東京都目黒区平町一丁目２１番８－９０１号株式会社ヤマタネインターナショナル（2011001060641）に合併し解散,2015-10-05,1,,,,,ヤマタネエンタテインメント,0
18,1010401154104,登記記録の閉鎖等,0,2024-10-23,2024-09-18,株式会社地域創生ＬＡＢ,,株式会社,東京都,港区,虎ノ門４丁目１番１号,,13,103,1050001,,,2024-09-18,清算の結了等,,,2020-07-20,1,,,,,チイキソウセイラボ,0
26,1010402010371,登記記録の閉鎖等,0,2024-10-23,2024-10-04,有限会社服部トレーデイング,,有限会社,東京都,港区,東新橋２丁目１０番７号,,13,103,1050021,,,2024-10-04,清算の結了等,,,2015-10-05,1,,,,,ハットリトレーディング,0
35,1010405016655,登記記録の閉鎖等,0,2024-10-23,2024-09-30,Ｗｉｎｎｉｐｅｇ特定目的会社,,その他の設立登記法人,東京都,港区,虎ノ門５丁目１番４号,,13,103,1050001,,,2024-09-30,清算の結了等,,,2018-04-24,1,,,,,ウィニペグ,0
44,1010603008710,登記記録の閉鎖等,0,2024-10-23,2024-10-16,Ｌａｎｐａｓｓ合同会社,,合同会社,東京都,江東区,東陽３丁目２４番地１８号ＴＯＭビル４Ｆ,,13,108,1350016,,,2024-10-16,清算の結了等,,,2021-01-07,1,,,,,ランパス,0
65,1011101107616,登記記録の閉鎖等,0,2024-10-23,2024-10-17,株式会社朝日エンジニアリングスタッフ,,株式会社,東京都,新宿区,下宮比町２番１号,,13,104,1620822,,,2024-10-17,合併による解散等,8120001230832,令和６年１０月１日大阪市淀川区西中島三丁目１８番９号タスクエナジー株式会社（8120001230832）に合併し解散,2024-06-11,1,,,,,アサヒエンジニアリングスタッフ,0
78,1011702000566,登記記録の閉鎖等,0,2024-10-23,2024-10-21,有限会社阿部幸一興業,,有限会社,東京都,江戸川区,東小岩１丁目１８番８号,,13,123,1330052,,,2024-10-21,清算の結了等,,,2015-10-05,1,,,,,,0
83,1012803002204,登記記録の閉鎖等,0,2024-10-23,2024-10-07,清河商事合同会社,,合同会社,東京都,立川市,錦町４丁目１２番１８号,,13,202,1900022,,,2024-10-07,清算の結了等,,,2020-01-24,1,,,,,キヨガワショウジ,0
90,1020001087926,登記記録の閉鎖等,0,2024-10-23,2024-10-04,株式会社フォーユー,,株式会社,神奈川県,川崎市多摩区,長尾５丁目１２番１０号,,14,135,2140023,,,2024-10-04,清算の結了等,,,2015-10-05,1,,,,,フォーユー,0
95,1020002096034,登記記録の閉鎖等,0,2024-10-23,2024-10-15,有限会社小田幸商店,,有限会社,東京都,大田区,北馬込２丁目４９番１５号,,13,111,1430021,,,2024-10-15,清算の結了等,,,2015-10-05,1,,,,,オダコウショウテン,0
120,1030002097510,登記記録の閉鎖等,0,2024-10-23,2024-10-15,有限会社タツミホーム,,有限会社,埼玉県,比企郡小川町,大字高谷３０７番地,,11,343,3550311,,,2024-10-15,清算の結了等,,,2015-10-05,1,,,,,タツミホーム,0
140,1060002000875,登記記録の閉鎖等,0,2024-10-23,2024-10-17,有限会社アトリエモア,,有限会社,栃木県,宇都宮市,鶴田町１６２６番地６,,09,201,3200851,,,2024-10-17,清算の結了等,,,2015-10-05,1,,,,,アトリエモア,0
141,1060002006922,登記記録の閉鎖等,0,2024-10-23,2024-10-17,有限会社南木洋蘭園,,有限会社,栃木県,宇都宮市,平出町２７２６番地,,09,201,3210901,,,2024-10-17,清算の結了等,,,2015-10-05,1,,,,,ナンモクヨウランエン,0
148,1080005007461,登記記録の閉鎖等,0,2024-10-23,2024-10-17,税理士法人しずおか,,その他の設立登記法人,静岡県,静岡市葵区,追手町１番１３号アゴラ静岡ビル,,22,101,4200853,,,2024-10-17,清算の結了等,,,2022-06-02,1,,,,,シズオカ,0
149,1080102021720,登記記録の閉鎖等,0,2024-10-23,2024-10-18,有限会社馬場電設,,有限会社,静岡県,賀茂郡松崎町,船田２３０番地,,22,305,4103606,,,2024-10-18,清算の結了等,,,2015-10-05,1,,,,,ババデンセツ,0
156,1100002016454,登記記録の閉鎖等,0,2024-10-23,2024-10-09,有限会社丸光電子,,有限会社,長野県,上田市,御嶽堂２１７２番地,,20,203,3860412,,,2024-10-09,清算の結了等,,,2015-10-05,1,,,,,マルミツデンシ,0
157,1100002019110,登記記録の閉鎖等,0,2024-10-23,2024-10-09,株式会社ＡＢＳ管財,,株式会社,長野県,松本市,蟻ケ崎５丁目２番１号,,20,202,3900861,,,2024-10-09,清算の結了等,,,2015-10-05,1,,,,,エービーエスカンザイ,0
162,1120001199190,登記記録の閉鎖等,0,2024-10-23,2024-10-15,株式会社コージー,,株式会社,大阪府,枚方市,中宮山戸町１２番８８－３０１号,,27,210,5730011,,,2024-10-15,清算の結了等,,,2016-06-29,1,,,,,,0
180,1130001053751,登記記録の閉鎖等,0,2024-10-23,2024-10-21,株式会社森本通商,,株式会社,京都府,京都市伏見区,横大路柿ノ本町４番地３,,26,109,6128296,,,2024-10-21,清算の結了等,,,2015-10-05,1,,,,,,0
183,1130002002220,登記記録の閉鎖等,0,2024-10-23,2024-10-17,有限会社川崎庭園設計事務所,,有限会社,京都府,京都市上京区,烏丸通丸太町上る春日町４２４番地の１,,26,102,6028023,,,2024-10-17,清算の結了等,,,2015-10-05,1,,,,,カワサキテイエンセッケイジムショ,0
186,1140001108397,登記記録の閉鎖等,0,2024-10-23,2024-10-21,株式会社トライブライト,,株式会社,兵庫県,西宮市,甲子園七番町９番２１号２Ｆ,,28,204,6638177,,,2024-10-21,清算の結了等,,,2017-12-06,1,,,,,トライブライト,0
189,1140003011748,登記記録の閉鎖等,0,2024-10-23,2024-10-18,合同会社ＭＯ’Ｚ,,合同会社,兵庫県,神戸市西区,樫野台２丁目７－８,,28,111,6512275,,,2024-10-18,清算の結了等,,,2016-11-24,1,,,,,モズ,0
198,1180001065577,登記記録の閉鎖等,0,2024-10-23,2024-10-03,ＫＯＴＡＮＩ株式会社,,株式会社,愛知県,名古屋市中区,栄１丁目１７－１６－６０１,,23,106,4600008,,,2024-10-03,合併による解散等,7180002092788,令和６年１０月１日愛知県津島市唐臼町当理７番地株式会社小谷工業（7180002092788）に合併し解散,2015-10-05,1,,,,,コタニ,0
208,1180002091457,登記記録の閉鎖等,0,2024-10-23,2024-10-11,有限会社イシカワ産業,,有限会社,愛知県,あま市,坂牧郷５２番地,,23,237,4901115,,,2024-10-11,清算の結了等,,,2015-10-05,1,,,,,イシカワサンギョウ,0
210,1180301019605,登記記録の閉鎖等,0,2024-10-23,2024-10-18,株式会社今井工業,,株式会社,愛知県,みよし市,三好町福田３５番地１,,23,236,4700224,,,2024-10-18,清算の結了等,,,2015-10-05,1,,,,,イマイコウギョウ,0
215,1180302011809,登記記録の閉鎖等,0,2024-10-23,2024-10-15,有限会社愛新設備,,有限会社,愛知県,蒲郡市,清田町福良田２４番地の６,,23,214,4430002,,,2024-10-15,清算の結了等,,,2015-10-05,1,,,,,アイシンセツビ,0
226,1210003001246,登記記録の閉鎖等,0,2024-10-23,2024-10-18,合同会社足羽写真工房,,合同会社,福井県,福井市,門前２丁目６０５番地３ソレアードＵＫＩＩＩ１号,00124035,18,201,9188021,,,2024-10-18,清算の結了等,,,2020-07-01,1,,,,,アスワシャシンコウボウ,0
228,1220002001295,登記記録の閉鎖等,0,2024-10-23,2024-10-17,有限会社ウスムラ美材,,有限会社,石川県,金沢市,八日市１丁目２５７番地１,,17,201,9218064,,,2024-10-17,清算の結了等,,,2015-10-05,1,,,,,ウスムラビザイ,0
230,1230002004512,登記記録の閉鎖等,0,2024-10-23,2024-10-21,有限会社エコテック,,有限会社,富山県,富山市,豊若町１丁目６番２７号,,16,201,9318305,,,2024-10-21,清算の結了等,,,2015-10-05,1,,,,,エコテック,0
231,1240001036480,登記記録の閉鎖等,0,2024-10-23,2024-10-17,寺畠海苔株式会社,,株式会社,広島県,安芸郡海田町,国信２丁目７番５号,,34,304,7360002,,,2024-10-17,清算の結了等,,,2015-10-05,1,,,,,テラハタノリ,0
263,1320003002398,登記記録の閉鎖等,0,2024-10-23,2024-10-21,合同会社小野商会,,合同会社,大分県,日田市,天瀬町塚田１８１番地２,,44,204,8770113,,,2024-10-21,清算の結了等,,,2016-04-07,1,,,,,,0
280,1420003000391,登記記録の閉鎖等,0,2024-10-23,2024-10-15,合名会社高村醤油本店,00087909,合名会社,青森県,八戸市,柏崎１丁目８番３５号,,02,203,0310081,,,2024-10-15,清算の結了等,,,2015-10-05,1,,,,,タカムラショウユホンテン,0
289,1430002050874,登記記録の閉鎖等,0,2024-10-23,2024-10-11,有限会社ひなた,,有限会社,北海道,岩見沢市,緑が丘５丁目１４３番地,,01,210,0680835,,,2024-10-11,清算の結了等,,,2015-10-05,1,,,,,ヒナタ,0
294,1470002014082,登記記録の閉鎖等,0,2024-10-23,2024-10-16,有限会社イエローテイル,,有限会社,香川県,仲多度郡多度津町,京町８番８－１号,,37,404,7640013,,,2024-10-16,清算の結了等,,,2015-10-05,1,,,,,イエローテイル,0
301,2010001149899,登記記録の閉鎖等,0,2024-10-23,2024-10-08,株式会社マリーンウッズ,,株式会社,東京都,千代田区,永田町１丁目１１番３０号サウスヒル永田町５階,,13,101,1000014,,,2024-10-08,清算の結了等,,,2015-10-05,1,,,,,マリーンウッズ,0
307,2010001217433,登記記録の閉鎖等,0,2024-10-23,2024-10-09,株式会社フォロワーズ,,株式会社,東京都,中央区,銀座１丁目２２番１１号２Ｆ,,13,102,1040061,,,2024-10-09,清算の結了等,,,2021-04-16,1,,,,,フォロワーズ,0
323,2010501015287,登記記録の閉鎖等,0,2024-10-23,2024-10-08,株式会社シー・エル・エス,,株式会社,東京都,千代田区,霞が関３丁目２番１号,,13,101,1000013,,,2024-10-08,合併による解散等,7010001192390,令和６年１０月１日東京都千代田区霞が関三丁目２番１号株式会社ブレーンナレッジシステムズ（7010001192390）に合併し解散,2015-10-05,1,,,,,シーエルエス,0
324,2010501043239,登記記録の閉鎖等,0,2024-10-23,2024-10-09,株式会社エムグラッド,,株式会社,東京都,台東区,浅草橋１丁目７番４号,,13,106,1110053,,,2024-10-09,清算の結了等,,,2018-10-25,1,,,,,エムグラッド,0
330,2010702004659,登記記録の閉鎖等,0,2024-10-23,2024-10-15,有限会社爽快調剤薬局,,有限会社,東京都,品川区,荏原３丁目６番１６ー１０２号,,13,109,1420063,,,2024-10-15,清算の結了等,,,2015-10-05,1,,,,,ソウカイチョウザイヤッキョク,0
343,2011001131203,登記記録の閉鎖等,0,2024-10-23,2024-10-01,株式会社ドットアイデア,,株式会社,東京都,目黒区,大橋１丁目５番１－１８０６号,,13,110,1530044,,,2024-10-01,清算の結了等,,,2019-12-05,1,,,,,ドットアイデア,0
393,2030001022914,登記記録の閉鎖等,0,2024-10-23,2024-10-15,株式会社ソレイユ,,株式会社,埼玉県,蕨市,中央５丁目９番１４号,,11,223,3350004,,,2024-10-15,清算の結了等,,,2015-10-05,1,,,,,ソレイユ,0
411,2040001104100,登記記録の閉鎖等,0,2024-10-23,2024-10-16,白黒株式会社,,株式会社,千葉県,館山市,北条１８５８番７号高山ビル１階,,12,205,2940045,,,2024-10-16,清算の結了等,,,2018-04-03,1,,,,,シロクロ,0
413,2040001118959,登記記録の閉鎖等,0,2024-10-23,2024-10-15,ＲＰＦ朋和株式会社,,株式会社,千葉県,船橋市,習志野４丁目１６番１２号,,12,204,2740071,,,2024-10-15,清算の結了等,,,2021-06-21,1,,,,,アールピーエフホウワ,0
429,2100003003624,登記記録の閉鎖等,0,2024-10-23,2024-10-09,ＦＲＯ－ＩＮＣ合同会社,,合同会社,長野県,北安曇郡白馬村,大字神城字川原２４１９９番８１,,20,485,3999211,,,2024-10-09,清算の結了等,,,2015-10-05,1,,,,,フローインク,0
434,2110002002527,登記記録の閉鎖等,0,2024-10-23,2024-10-11,有限会社小山商店,,有限会社,新潟県,新潟市中央区,南万代町６番１０号,,15,103,9500902,,,2024-10-11,清算の結了等,,,2015-10-05,1,,,,,コヤマショウテン,0
435,2110002018201,登記記録の閉鎖等,0,2024-10-23,2024-10-15,有限会社小黒パン店,,有限会社,新潟県,加茂市,上町６番１号,,15,209,9591352,,,2024-10-15,清算の結了等,,,2015-10-05,1,,,,,オグロパンテン,0
453,2120101032639,登記記録の閉鎖等,0,2024-10-23,2024-10-21,株式会社有本自動車,,株式会社,大阪府,藤井寺市,小山２丁目２１番２６号,,27,226,5830033,,,2024-10-21,清算の結了等,,,2015-10-05,1,,,,,,0
458,2120901049122,登記記録の閉鎖等,0,2024-10-23,2024-10-18,株式会社キーポイント,,株式会社,大阪府,豊中市,北条町１丁目１０番２６号,,27,203,5610812,,,2024-10-18,清算の結了等,,,2024-05-02,1,,,,,キーポイント,0
460,2120905004602,登記記録の閉鎖等,0,2024-10-23,2024-10-18,特定非営利活動法人診療放射線技師国際協力協会,,その他の設立登記法人,大阪府,高槻市,土室町５６番１７号,,27,207,5691147,,,2024-10-18,清算の結了等,,,2015-10-05,1,,,,,シンリョウホウシャセンギシコクサイキョウリョクキョウカイ,0
473,2140002048930,登記記録の閉鎖等,0,2024-10-23,2024-10-18,有限会社シスコ,,有限会社,兵庫県,姫路市,飾磨区英賀東町１丁目６７番地,,28,201,6728087,,,2024-10-18,清算の結了等,,,2015-10-05,1,,,,,シスコ,0
475,2140002052214,登記記録の閉鎖等,0,2024-10-23,2024-10-18,有限会社水守商店,,有限会社,兵庫県,姫路市,白浜町甲１９２０番地５４,,28,201,6728023,,,2024-10-18,清算の結了等,,,2015-10-05,1,,,,,ミズモリショウテン,0
491,2180002061847,登記記録の閉鎖等,0,2024-10-23,2024-10-18,有限会社昭栄ライト工業所,,有限会社,愛知県,西尾市,吉良町吉田西郷８０番地４,,23,213,4440516,,,2024-10-18,清算の結了等,,,2015-10-05,1,,,,,ショウエイライトコウギョウショ,0
495,2190001007619,登記記録の閉鎖等,0,2024-10-23,2024-10-18,株式会社スタジオＭＫＴ,,株式会社,三重県,度会郡玉城町,蚊野２２１８番地４０,,24,461,5190431,,,2024-10-18,清算の結了等,,,2015-10-05,1,,,,,スタジオエムケイティ,0
501,2200001011858,登記記録の閉鎖等,0,2024-10-23,2024-10-21,ヒビシン建設株式会社,,株式会社,岐阜県,羽島市,竹鼻町駒塚５７６番地,,21,209,5016234,,,2024-10-21,清算の結了等,,,2015-10-05,1,,,,,ヒビシンケンセツ,0
521,2290001005265,登記記録の閉鎖等,0,2024-10-23,2024-09-17,新日本ホームサービス株式会社,,株式会社,福岡県,福岡市早良区,西新１丁目９番２３号,,40,137,8140002,,,2024-09-17,清算の結了等,,,2015-10-05,1,,,,,シンニホンホームサービス,0
526,2290001071332,登記記録の閉鎖等,0,2024-10-23,2024-10-01,株式会社ＷＩＮ　ＴＨＲＥＥ,,株式会社,東京都,港区,南青山１丁目１５－９第４５興和ビル８Ｆ,,13,103,1070062,,,2024-10-01,合併による解散等,6010401184534,令和６年１０月１日東京都港区南青山一丁目１５番９号株式会社Ｂｅａｕｔｙ　Ｇｒｏｗ（6010401184534）に合併し解散,2015-10-05,1,,,,,ウィンスリー,0
527,2290001083971,登記記録の閉鎖等,0,2024-10-23,2024-09-12,株式会社はかた屋,,株式会社,福岡県,福岡市中央区,大名１丁目５番４号福岡エースビル７０１号,,40,133,8100041,,,2024-09-12,清算の結了等,,,2019-01-18,1,,,,,ハカタヤヤ,0
532,2290002040848,登記記録の閉鎖等,0,2024-10-23,2024-09-17,有限会社重富技術士事務所,,有限会社,福岡県,春日市,ちくし台２丁目６０番地,,40,218,8160822,,,2024-09-17,清算の結了等,,,2015-10-05,1,,,,,,0
536,2300005007108,登記記録の閉鎖等,0,2024-10-23,2024-10-21,一般社団法人鹿島ｄスポーツコミッション,,その他の設立登記法人,佐賀県,鹿島市,大字高津原１７７７番地１,,41,207,8491311,,,2024-10-21,清算の結了等,,,2022-11-09,1,,,,,カシマディースポーツコミッション,0
542,2330001007661,登記記録の閉鎖等,0,2024-10-23,2024-10-15,株式会社ＳＳＳ,,株式会社,熊本県,熊本市西区,城山下代２丁目６番２５号カネマツビル１０１,,43,103,8600066,,,2024-10-15,清算の結了等,,,2015-10-05,1,,,,,スリーエス,0
562,2410001004493,登記記録の閉鎖等,0,2024-10-23,2024-10-21,株式会社ＢＦＴＤ,,株式会社,秋田県,秋田市,土崎港西３丁目９番１５号チャレンジオフィスあきた２０４号,,05,201,0110945,,,2024-10-21,清算の結了等,,,2015-10-05,1,,,,,ビーエフティーディー,0
563,2410003003254,登記記録の閉鎖等,0,2024-10-23,2024-10-17,秋田中央海域洋上風力発電合同会社,,合同会社,秋田県,秋田市,中通５丁目１番５１号,,05,201,0100001,,,2024-10-17,清算の結了等,,,2019-04-12,1,,,,,アキタチュウオウカイイキヨウジョウフウリョクハツデン,0
580,2490001001376,登記記録の閉鎖等,0,2024-10-23,2024-10-21,株式会社酔鯨亭四国本社,,株式会社,高知県,高知市,南はりまや町１丁目７番２５号,,39,201,7800833,,,2024-10-21,清算の結了等,,,2015-10-05,1,,,,,スイゲイテイシコクホンシャ,0
582,2500003001645,登記記録の閉鎖等,0,2024-10-23,2024-10-21,マハロケア合同会社,,合同会社,愛媛県,松山市,梅津寺町１３２６番地７,,38,201,7918082,,,2024-10-21,清算の結了等,,,2015-10-05,1,,,,,マハロケア,0
604,3010401137370,登記記録の閉鎖等,0,2024-10-23,2024-09-24,株式会社ＢＭＭ,,株式会社,東京都,港区,麻布十番２丁目２０番２－３０３号,,13,103,1060045,,,2024-09-24,清算の結了等,,,2018-03-28,1,,,,,ビーエムエム,0
618,3010405019904,登記記録の閉鎖等,0,2024-10-23,2024-10-03,一般社団法人デジタル技術振興会,,その他の設立登記法人,東京都,港区,新橋５丁目３５番１０号新橋アネックス２階,,13,103,1050004,,,2024-10-03,清算の結了等,,,2021-06-17,1,,,,,デジタルギジュツシンコウカイ,0
621,3010502001830,登記記録の閉鎖等,0,2024-10-23,2024-10-10,有限会社エランワタナベ,,有限会社,東京都,台東区,今戸２丁目２９番３号,,13,106,1110024,,,2024-10-10,清算の結了等,,,2015-10-05,1,,,,,,0
631,3011001006593,登記記録の閉鎖等,0,2024-10-23,2024-10-17,株式会社クウォーターバック,,株式会社,東京都,世田谷区,祖師谷１丁目１５番１８号ライラック祖師谷１０２,,13,112,1570072,,,2024-10-17,清算の結了等,,,2015-10-05,1,,,,,クウォーターバック,0
633,3011001073824,登記記録の閉鎖等,0,2024-10-23,2024-10-01,株式会社ＳＰＥＥＤＹ,,株式会社,東京都,港区,南青山１丁目１５番９号,,13,103,1070062,,,2024-10-01,合併による解散等,6010401184534,令和６年１０月１日東京都港区南青山一丁目１５番９号株式会社Ｂｅａｕｔｙ　Ｇｒｏｗ（6010401184534）に合併し解散,2015-10-05,1,,,,,スピーディー,0
658,3012401016199,登記記録の閉鎖等,0,2024-10-23,2024-10-21,ウインズ・フロム・ハワイ・ジャパン株式会社,,株式会社,東京都,武蔵野市,中町１丁目１２番１０－２４０６号,,13,203,1800006,,,2024-10-21,清算の結了等,,,2015-10-05,1,,,,,ウインズフロムハワイジャパン,0
694,3040001025510,登記記録の閉鎖等,0,2024-10-23,2024-10-16,株式会社市川きんか,,株式会社,千葉県,市川市,市川１丁目１番１号,,12,203,2720034,,,2024-10-16,清算の結了等,,,2015-10-05,1,,,,,,0
707,3070001005716,登記記録の閉鎖等,0,2024-10-23,2024-10-17,株式会社モテナ,,株式会社,群馬県,前橋市,城東町１丁目２番４号,,10,201,3710016,,,2024-10-17,清算の結了等,,,2015-10-05,1,,,,,モテナ,0
708,3070002033063,登記記録の閉鎖等,0,2024-10-23,2024-10-18,有限会社イトウ,,有限会社,群馬県,館林市,松原２丁目２番６号,,10,207,3740016,,,2024-10-18,清算の結了等,,,2015-10-05,1,,,,,イトウ,0
710,3080002000822,登記記録の閉鎖等,0,2024-10-23,2024-10-01,有限会社エーエスイー研究所,,有限会社,静岡県,静岡市葵区,北沼上２８番地,,22,101,4200901,,,2024-10-01,清算の結了等,,,2015-10-05,1,,,,,エーエスイーケンキュウショ,0
726,3120001108406,登記記録の閉鎖等,0,2024-10-23,2024-10-21,株式会社Ｋサポート,,株式会社,大阪府,大阪市天王寺区,上本町６丁目１番５５号,,27,109,5430001,,,2024-10-21,合併による解散等,4010001050700,令和６年１０月１日東京都江東区枝川一丁目９番４号株式会社近鉄ＨＲパートナーズ（4010001050700）に合併し解散,2015-10-05,1,,,,,ケイサポート,0
727,3120001133387,登記記録の閉鎖等,0,2024-10-23,2024-10-15,株式会社大光,,株式会社,大阪府,大阪市東住吉区,住道矢田８丁目１２番１６号,,27,121,5460022,,,2024-10-15,清算の結了等,,,2015-10-05,1,,,,,,0
729,3120001228204,登記記録の閉鎖等,0,2024-10-23,2024-10-15,株式会社Ｎｅｘｔ　Ｖｉｓｉｏｎ,,株式会社,大阪府,大阪市北区,東天満１丁目２－１４ラ・リブロ東天満７Ｆ,,27,127,5300044,,,2024-10-15,清算の結了等,,,2020-04-07,1,,,,,ネクストビジョン,0
736,3120101058253,登記記録の閉鎖等,0,2024-10-23,2024-10-21,株式会社Ｏｃｔｓ,,株式会社,大阪府,羽曳野市,島泉２丁目８番２６号,,27,222,5830881,,,2024-10-21,清算の結了等,,,2018-05-23,1,,,,,オクトス,0
749,3140001120268,登記記録の閉鎖等,0,2024-10-23,2024-10-21,株式会社バルガ,,株式会社,兵庫県,宝塚市,長尾台１丁目１６番１３号,,28,214,6650807,,,2024-10-21,清算の結了等,,,2021-02-04,1,,,,,バルガ,0
765,3170002010655,登記記録の閉鎖等,0,2024-10-23,2024-10-21,有限会社どい,,有限会社,和歌山県,橋本市,市脇５丁目５番１７号,,30,203,6480073,,,2024-10-21,清算の結了等,,,2015-10-05,1,,,,,ドイ,0
778,3180303005436,登記記録の閉鎖等,0,2024-10-23,2024-10-15,Ｒｉｖｅｒ合同会社,,合同会社,愛知県,みよし市,天王台１１番地１,,23,236,4700211,,,2024-10-15,清算の結了等,,,2022-09-09,1,,,,,リヴァー,0
821,3310002009385,登記記録の閉鎖等,0,2024-10-23,2024-10-15,有限会社大浦美装,,有限会社,長崎県,佐世保市,瀬戸越３丁目８番９号,,42,202,8570134,,,2024-10-15,清算の結了等,,,2015-10-05,1,,,,,オオウラビソウ,0
824,3330001021125,登記記録の閉鎖等,0,2024-10-23,2024-10-15,株式会社心彩彩酒,,株式会社,熊本県,熊本市西区,春日２丁目９番１０号さつま屋ビル１Ｆ,,43,103,8600047,,,2024-10-15,清算の結了等,,,2015-10-05,1,,,,,,0
825,3330002000747,登記記録の閉鎖等,0,2024-10-23,2024-10-15,有限会社井芹石油店,,有限会社,熊本県,熊本市西区,島崎２丁目８番１０号,,43,103,8600073,,,2024-10-15,清算の結了等,,,2015-10-05,1,,,,,イセリセキユテン,0
833,3360001014893,登記記録の閉鎖等,0,2024-10-23,2024-10-21,クレド株式会社,,株式会社,沖縄県,沖縄市,美里４丁目１７番７号,,47,211,9042153,,,2024-10-21,清算の結了等,,,2015-10-05,1,,,,,,0
849,3410001006290,登記記録の閉鎖等,0,2024-10-23,2024-10-18,株式会社日本バイオシステム,,株式会社,秋田県,北秋田市,大町２番８号,,05,213,0183324,,,2024-10-18,清算の結了等,,,2015-10-05,1,,,,,ニホンバイオシステム,0
857,3420002017971,登記記録の閉鎖等,0,2024-10-23,2024-10-18,有限会社三沢エアーベース・バーバー,,有限会社,青森県,三沢市,大字三沢字猫又２２番地４９８号,,02,207,0330022,,,2024-10-18,清算の結了等,,,2015-10-05,1,,,,,ミサワエアーベースバーバー,0
865,3430003007632,登記記録の閉鎖等,0,2024-10-23,2024-10-21,合同会社グスターレ,,合同会社,北海道,小樽市,緑２丁目１８番１８号,,01,203,0470034,,,2024-10-21,清算の結了等,,,2016-06-06,1,,,,,グスターレ,0
866,3430003013226,登記記録の閉鎖等,0,2024-10-23,2024-10-21,合同会社柴野企画事務所,,合同会社,北海道,札幌市中央区,南十条西８丁目２－７－１００２,,01,101,0640810,,,2024-10-21,清算の結了等,,,2021-10-07,1,,,,,シバノキカクジムショ,0
889,4010401043023,登記記録の閉鎖等,0,2024-10-23,2024-10-18,パトナム・インベストメンツ・ジャパン株式会社,,株式会社,東京都,港区,虎ノ門４丁目３番２０号神谷町ＭＴビル,,13,103,1050001,,,2024-10-18,合併による解散等,5010001048652,令和６年１０月１日東京都千代田区丸の内一丁目５番１号フランクリン・テンプルトン・ジャパン株式会社（5010001048652）に合併し解散,2015-10-05,1,,,,,パトナムインベストメンツジャパン,0
895,4010401159703,登記記録の閉鎖等,0,2024-10-23,2024-10-17,株式会社ＫＯＭＭＯＮＳ,,株式会社,東京都,港区,港南２丁目１５－１品川インターシティＡ棟２２階ＳＰＲＯＵＮＤ,,13,103,1080075,,,2024-10-17,合併による解散等,6350001015766,令和６年１０月１日宮崎市橘通西三丁目１０番３２号８階株式会社ＡＴＯＭｉｃａ（6350001015766）に合併し解散,2021-04-22,1,,,,,コモンズ,0
906,4010501049300,登記記録の閉鎖等,0,2024-10-23,2024-10-10,株式会社ヒューマンスターク,,株式会社,東京都,台東区,西浅草１丁目５番１１号京成菊屋橋ビル４０５号室,,13,106,1110035,,,2024-10-10,清算の結了等,,,2022-08-31,1,,,,,ヒューマンスターク,0
907,4010502000765,登記記録の閉鎖等,0,2024-10-23,2024-10-10,有限会社石井鍍金商会,,有限会社,東京都,台東区,元浅草４丁目６番１６号,,13,106,1110041,,,2024-10-10,清算の結了等,,,2015-10-05,1,,,,,イシイメッキショウカイ,0
908,4010503000178,登記記録の閉鎖等,0,2024-10-23,2024-10-11,合名会社セキネ時計店,,合名会社,東京都,台東区,浅草１丁目３７番１１号,,13,106,1110032,,,2024-10-11,清算の結了等,,,2015-10-05,1,,,,,セキネトケイテン,0
909,4010503004286,登記記録の閉鎖等,0,2024-10-23,2024-10-10,合同会社テイク・ファイブ,,合同会社,東京都,台東区,元浅草１丁目６番３３号,,13,106,1110041,,,2024-10-10,合併による解散等,2180001117377,令和６年１０月１日東京都台東区元浅草一丁目６番３３号株式会社テイク・ワン（2180001117377）に合併し解散,2015-10-05,1,,,,,テイクファイブ,0
929,4011101077939,登記記録の閉鎖等,0,2024-10-23,2024-10-10,福介家新宿株式会社,,株式会社,東京都,新宿区,早稲田鶴巻町５６８番地,,13,104,1620041,,,2024-10-10,清算の結了等,,,2016-08-12,1,,,,,フクスケヤシンジュク,0
941,4011601005853,登記記録の閉鎖等,0,2024-10-23,2024-10-02,株式会社ソフィアテック,,株式会社,神奈川県,横浜市港北区,新横浜２丁目１５番１２号,,14,109,2220033,,,2024-10-02,合併による解散等,8011101053853,令和６年１０月１日神奈川県横浜市港北区新横浜二丁目１５番１２号ソフィア総合研究所株式会社（8011101053853）に合併し解散,2015-10-05,1,,,,,ソフィアテック,0
948,4012401016116,登記記録の閉鎖等,0,2024-10-23,2024-10-21,Ｈ２株式会社,,株式会社,東京都,武蔵野市,中町１丁目１２番１０－２４０６号,,13,203,1800006,,,2024-10-21,清算の結了等,,,2015-10-05,1,,,,,エイチツー,0
952,4020001128116,登記記録の閉鎖等,0,2024-10-23,2024-10-15,株式会社ハードウェアウォレットジャパン,,株式会社,茨城県,常総市,豊岡町乙２００５,,08,211,3030041,,,2024-10-15,清算の結了等,,,2018-10-02,1,,,,,ハードウェアウォレットジャパン,0
974,4030002118131,登記記録の閉鎖等,0,2024-10-23,2024-10-07,有限会社フードスタジオクリップ,,有限会社,埼玉県,行田市,西新町１００番地２５,,11,206,3610042,,,2024-10-07,清算の結了等,,,2015-10-05,1,,,,,フードスタジオクリップ,0
985,4060001022835,登記記録の閉鎖等,0,2024-10-23,2024-10-15,株式会社喜笑,,株式会社,栃木県,小山市,城山町２丁目５番３０号グランドハイツ城山２０７号室,,09,208,3230025,,,2024-10-15,清算の結了等,,,2015-10-05,1,,,,,キショウ,0
993,4080001018014,登記記録の閉鎖等,0,2024-10-23,2024-10-17,株式会社まんげつ,,株式会社,静岡県,静岡市駿河区,下川原３丁目３３番地１３号,,22,102,4210113,,,2024-10-17,清算の結了等,,,2015-10-05,1,,,,,マンゲツ,0
998,4080401005990,登記記録の閉鎖等,0,2024-10-23,2024-10-18,株式会社親協製作所,,株式会社,静岡県,湖西市,新所１５５０番地,,22,221,4310421,,,2024-10-18,清算の結了等,,,2015-10-05,1,,,,,シンキョウセイサクショ,0
1014,4120101037561,登記記録の閉鎖等,0,2024-10-23,2024-10-16,ヒラオカ石油株式会社,,株式会社,大阪府,岸和田市,地蔵浜町１１番１号,,27,202,5960015,,,2024-10-16,合併による解散等,9020001020367,令和６年１０月１日横浜市港北区篠原町１２００番地三和エナジー株式会社（9020001020367）に合併し解散,2015-10-05,1,,,,,ヒラオカセキユ,0
1021,4130001052008,登記記録の閉鎖等,0,2024-10-23,2024-10-21,株式会社Ｔａｂｌｅ・Ｔａｂｌｅａｕｘ,,株式会社,京都府,京都市北区,大将軍一条町１６１番地,,26,101,6038336,,,2024-10-21,清算の結了等,,,2015-10-05,1,,,,,ターブルタブロー,0
1038,4180001059147,登記記録の閉鎖等,0,2024-10-23,2024-10-08,株式会社旭洋,,株式会社,愛知県,稲沢市,祖父江町祖父江高熊１９９番地２,,23,220,4950001,,,2024-10-08,清算の結了等,,,2015-10-05,1,,,,,キョクヨウ,0
1039,4180001081984,登記記録の閉鎖等,0,2024-10-23,2024-10-10,株式会社アダ,,株式会社,愛知県,一宮市,浜町３丁目１５番地,,23,203,4910034,,,2024-10-10,清算の結了等,,,2015-10-05,1,,,,,アダ,0
1040,4180001082875,登記記録の閉鎖等,0,2024-10-23,2024-10-10,進和電機株式会社,,株式会社,愛知県,一宮市,柚木颪５２４番地,,23,203,4910011,,,2024-10-10,清算の結了等,,,2015-10-05,1,,,,,シンワデンキ,0
1043,4180002055178,登記記録の閉鎖等,0,2024-10-23,2024-10-21,有限会社クロスロード,,有限会社,愛知県,名古屋市中村区,中島町１丁目１８番地,,23,105,4530022,,,2024-10-21,清算の結了等,,,2015-10-05,1,,,,,クロスロード,0
1054,4200002017101,登記記録の閉鎖等,0,2024-10-23,2024-10-21,有限会社総務部,,有限会社,岐阜県,可児市,柿下６３４番地,,21,214,5090233,,,2024-10-21,清算の結了等,,,2015-10-05,1,,,,,ソウムブ,0
1055,4200002024428,登記記録の閉鎖等,0,2024-10-23,2024-10-21,有限会社大山コンサルタント,,有限会社,岐阜県,恵那市,明智町大田８６８番地の１７,,21,210,5097723,,,2024-10-21,清算の結了等,,,2015-10-05,1,,,,,オオヤマコンサルタント,0
1058,4220002015103,登記記録の閉鎖等,0,2024-10-23,2024-10-17,有限会社グリーンフィット,,有限会社,石川県,羽咋市,大川町北新１５１番地,,17,207,9250015,,,2024-10-17,清算の結了等,,,2015-10-05,1,,,,,グリーンフィット,0
1060,4230002008329,登記記録の閉鎖等,0,2024-10-23,2024-10-21,有限会社谷口商事,,有限会社,富山県,下新川郡入善町,入膳７９３６番地の１,,16,342,9390626,,,2024-10-21,清算の結了等,,,2015-10-05,1,,,,,タニグチショウジ,0
1064,4240002047565,登記記録の閉鎖等,0,2024-10-23,2024-10-15,ニッシンコーポレーション有限会社,,有限会社,広島県,福山市,沖野上町５丁目１３番１５号,,34,207,7200825,,,2024-10-15,清算の結了等,,,2015-10-05,1,,,,,,0
1081,4290002022638,登記記録の閉鎖等,0,2024-10-23,2024-09-10,有限会社オフィス華,,有限会社,福岡県,福岡市早良区,田村２丁目１１番２号アース・フレンドリー賀茂ＩＩ３０１号,00124710,40,137,8140175,,,2024-09-10,清算の結了等,,,2015-10-05,1,,,,,オフィスハナ,0
1101,4360001019958,登記記録の閉鎖等,0,2024-10-23,2024-10-21,株式会社ティッピングポイント,,株式会社,沖縄県,那覇市,松尾１丁目１０番２４号,,47,201,9000014,,,2024-10-21,清算の結了等,,,2015-10-05,1,,,,,ティッピングポイント,0
1107,4360001021988,登記記録の閉鎖等,0,2024-10-23,2024-10-18,株式会社ＯＦＭ,,株式会社,沖縄県,中頭郡読谷村,字都屋４５１番地,,47,324,9040305,,,2024-10-18,清算の結了等,,,2017-03-07,1,,,,,オーエフエム,0
1116,4420002009357,登記記録の閉鎖等,0,2024-10-23,2024-10-18,有限会社高橋塗装工業,,有限会社,青森県,三戸郡南部町,大字高橋字高橋３５番地１,,02,445,0390804,,,2024-10-18,清算の結了等,,,2015-10-05,1,,,,,タカハシトソウコウギョウ,0
1117,4430001004845,登記記録の閉鎖等,0,2024-10-23,2024-10-16,株式会社エンレイフーズ,,株式会社,北海道,札幌市厚別区,厚別東四条８丁目８番８号,,01,108,0040004,,,2024-10-16,清算の結了等,,,2015-10-05,1,,,,,エンレイフーズ,0
1123,4430002019982,登記記録の閉鎖等,0,2024-10-23,2024-10-15,有限会社リプロ,,有限会社,北海道,札幌市豊平区,福住一条２丁目１６番２０－６０３号,,01,105,0620041,,,2024-10-15,清算の結了等,,,2015-10-05,1,,,,,リプロ,0
1131,4500001005588,登記記録の閉鎖等,0,2024-10-23,2024-10-21,株式会社姫乃坂建築事務所,,株式会社,愛媛県,松山市,山越５丁目８番３１号,,38,201,7918013,,,2024-10-21,清算の結了等,,,2015-10-05,1,,,,,,0
1135,5010001186403,登記記録の閉鎖等,0,2024-10-23,2024-10-16,ダイヤモンドエンタテインメント株式会社,,株式会社,東京都,千代田区,九段南４丁目１番１０号,,13,101,1020074,,,2024-10-16,合併による解散等,2290001006528,令和６年９月１日福岡市中央区警固二丁目５番７号エヌディエス株式会社（2290001006528）に合併し解散,2017-09-25,1,,,,,ダイヤモンドエンタテインメント,0
1156,5010405016809,登記記録の閉鎖等,0,2024-10-23,2024-10-04,一般社団法人インフラ産業推進機構,,その他の設立登記法人,東京都,港区,元赤坂１丁目１番７号,,13,103,1070051,,,2024-10-04,清算の結了等,,,2018-06-15,1,,,,,インフラサンギョウスイシンキコウ,0
1159,5010601015993,登記記録の閉鎖等,0,2024-10-23,2024-10-16,株式会社三村通産,,株式会社,東京都,墨田区,菊川１丁目１８番１号,,13,107,1300024,,,2024-10-16,清算の結了等,,,2015-10-05,1,,,,,ミムラツウサン,0
1195,5011801008399,登記記録の閉鎖等,0,2024-10-23,2024-10-15,シー企画株式会社,,株式会社,埼玉県,草加市,北谷２丁目２８番１４号,,11,221,3400046,,,2024-10-15,清算の結了等,,,2015-10-05,1,,,,,シーキカク,0
1197,5012301006281,登記記録の閉鎖等,0,2024-10-23,2024-10-17,株式会社ＨＡＰ,,株式会社,東京都,町田市,本町田３１７７番地２０,,13,209,1940032,,,2024-10-17,清算の結了等,,,2015-10-05,1,,,,,,0
1199,5012302007691,登記記録の閉鎖等,0,2024-10-23,2024-10-16,有限会社ＫＣＳ,,有限会社,東京都,町田市,相原町１７１５番地５,,13,209,1940211,,,2024-10-16,清算の結了等,,,2015-10-05,1,,,,,ケイシーエス,0
1205,5013302002501,登記記録の閉鎖等,0,2024-10-23,2024-10-10,有限会社オフイス杉,,有限会社,東京都,豊島区,北大塚２丁目１２番７号,,13,116,1700004,,,2024-10-10,清算の結了等,,,2015-10-05,1,,,,,オフイススギ,0
1211,5020002018752,登記記録の閉鎖等,0,2024-10-23,2024-10-04,三栄設備有限会社,,有限会社,神奈川県,横浜市金沢区,富岡西３丁目１２番２号,,14,108,2360052,,,2024-10-04,清算の結了等,,,2015-10-05,1,,,,,,0
1220,5021001025995,登記記録の閉鎖等,0,2024-10-23,2024-10-18,株式会社メディックス,,株式会社,神奈川県,相模原市南区,相模大野３丁目１３番７号,,14,153,2520303,,,2024-10-18,合併による解散等,1010401081430,令和６年１０月１日東京都港区三田三丁目５番２７号エクシオ・デジタルソリューションズ株式会社（1010401081430）に合併し解散,2015-10-05,1,,,,,,0
1244,5070002002446,登記記録の閉鎖等,0,2024-10-23,2024-10-21,有限会社サンヨー機工,,有限会社,群馬県,前橋市,総社町総社１１５１番地１,,10,201,3710852,,,2024-10-21,清算の結了等,,,2015-10-05,1,,,,,サンヨーキコウ,0
1247,5070005008779,登記記録の閉鎖等,0,2024-10-23,2024-10-15,特定非営利活動法人音楽の宅配便,,その他の設立登記法人,群馬県,前橋市,古市町４９７番地１０,,10,201,3710844,,,2024-10-15,清算の結了等,,,2015-10-05,1,,,,,オンガクノタクハイビン,0
1248,5080001016776,登記記録の閉鎖等,0,2024-10-23,2024-10-17,丸松木材建設株式会社,,株式会社,静岡県,藤枝市,稲川１丁目９番２号,,22,214,4260022,,,2024-10-17,清算の結了等,,,2015-10-05,1,,,,,マルマツモクザイケンセツ,0
1258,5110005012545,登記記録の閉鎖等,0,2024-10-23,2024-10-15,特定非営利活動法人まちなか考房,,その他の設立登記法人,新潟県,長岡市,坂之上町２丁目３番地５,,15,202,9400065,,,2024-10-15,清算の結了等,,,2015-10-05,1,,,,,マチナカコウボウ,0
1276,5122003001751,登記記録の閉鎖等,0,2024-10-23,2024-10-21,ケア・アウトカムズ合同会社,,合同会社,大阪府,東大阪市,三島２丁目８番４１号,,27,227,5780966,,,2024-10-21,清算の結了等,,,2019-11-05,1,,,,,ケアアウトカムズ,0
1281,5130001059869,登記記録の閉鎖等,0,2024-10-23,2024-10-21,株式会社Ｔ’ｓＰｅｐｅｒＣｏｍｐａｎｙ,,株式会社,大阪府,豊中市,豊南町西１丁目１２番１１－２０２号,,27,203,5610816,,,2024-10-21,清算の結了等,,,2017-05-24,1,,,,,ティーズペパーカンパニー,0
1282,5130001073275,登記記録の閉鎖等,0,2024-10-23,2024-10-21,シダーブック株式会社,,株式会社,京都府,福知山市,字牧小字市場浦８２０番地の１,,26,201,6200913,,,2024-10-21,清算の結了等,,,2022-12-16,1,,,,,シダーブック,0
1297,5180001107986,登記記録の閉鎖等,0,2024-10-23,2024-10-10,株式会社Ｐｏｍｐａｄｏｕｒ,,株式会社,愛知県,名古屋市天白区,中平１丁目１２０２番地,,23,116,4680014,,,2024-10-10,清算の結了等,,,2015-10-05,1,,,,,ポンパドール,0
1304,5180003000215,登記記録の閉鎖等,0,2024-10-23,2024-10-07,合資会社植手業務店,,合資会社,愛知県,名古屋市守山区,森孝２丁目３２０番地,,23,113,4630035,,,2024-10-07,清算の結了等,,,2015-10-05,1,,,,,ウエテギョウムテン,0
1310,5180303002811,登記記録の閉鎖等,0,2024-10-23,2024-10-16,上横須賀合同会社,,合同会社,愛知県,西尾市,吉良町上横須賀宮腰２６番地,,23,213,4440521,,,2024-10-16,清算の結了等,,,2015-10-05,1,,,,,カミヨコスカ,0
1338,5290801011055,登記記録の閉鎖等,0,2024-10-23,2024-10-18,エスピー工業株式会社,,株式会社,福岡県,遠賀郡水巻町,猪熊１０丁目２番１６号,,40,382,8070001,,,2024-10-18,清算の結了等,,,2015-10-05,1,,,,,エスピーコウギョウ,0
1339,5290802012705,登記記録の閉鎖等,0,2024-10-23,2024-10-18,有限会社誠和産業,,有限会社,福岡県,北九州市八幡東区,西本町４丁目１８番３７号,,40,108,8050061,,,2024-10-18,清算の結了等,,,2015-10-05,1,,,,,セイワサンギョウ,0
1345,5330002022244,登記記録の閉鎖等,0,2024-10-23,2024-10-15,有限会社橋口屋,,有限会社,熊本県,玉名郡南関町,大字関町１４６３番地,,43,367,8610803,,,2024-10-15,清算の結了等,,,2015-10-05,1,,,,,,0
1348,5360001027043,登記記録の閉鎖等,0,2024-10-23,2024-10-15,小川商事株式会社,,株式会社,東京都,葛飾区,柴又１丁目２０番６号,,13,122,1250052,,,2024-10-15,清算の結了等,,,2020-04-07,1,,,,,オガワショウジ,0
1351,5360003009642,登記記録の閉鎖等,0,2024-10-23,2024-10-21,ディスパッチ沖縄株式会社,,株式会社,沖縄県,那覇市,首里石嶺町３丁目３２８番地３,,47,201,9030804,,,2024-10-21,清算の結了等,,,2019-07-31,1,,,,,,0
1358,5380002030110,登記記録の閉鎖等,0,2024-10-23,2024-10-07,有限会社鈴木工業,,有限会社,福島県,双葉郡大熊町,大字下野上字金谷平５８０番地６,,07,545,9791308,,,2024-10-07,清算の結了等,,,2015-10-05,1,,,,,スズキコウギョウ,0
1362,5410002008342,登記記録の閉鎖等,0,2024-10-23,2024-10-21,有限会社恵比寿好,,有限会社,秋田県,大館市,字一心院南４０番地,,05,204,0170825,,,2024-10-21,清算の結了等,,,2015-10-05,1,,,,,,0
1369,5430001079853,登記記録の閉鎖等,0,2024-10-23,2024-10-15,株式会社ミラジェム,,株式会社,北海道,札幌市中央区,北九条西１８丁目３５番地８７,,01,101,0600009,,,2024-10-15,清算の結了等,,,2019-09-20,1,,,,,ミラジェム,0
1375,5430002058550,登記記録の閉鎖等,0,2024-10-23,2024-10-17,有限会社講神組,,有限会社,北海道,勇払郡厚真町,本町７７番地の３０,,01,581,0591603,,,2024-10-17,清算の結了等,,,2015-10-05,1,,,,,コウジングミ,0
1391,6010003030459,登記記録の閉鎖等,0,2024-10-23,2024-10-21,広島西風新都合同会社,,合同会社,東京都,千代田区,平河町１丁目６番１５号シルスフィア会計事務所内,,13,101,1020093,,,2024-10-21,清算の結了等,,,2019-08-23,1,,,,,ヒロシマセイフウシント,0
1400,6010401066055,登記記録の閉鎖等,0,2024-10-23,2024-10-01,株式会社ＩＣＣＩ,,株式会社,東京都,港区,東新橋２丁目４番１号,,13,103,1050021,,,2024-10-01,合併による解散等,5010401114483,令和６年１０月１日東京都港区東新橋二丁目４番１号株式会社パック・エックス（5010401114483）に合併し解散,2015-10-05,1,,,,,イッチ,0
1412,6010403029167,登記記録の閉鎖等,0,2024-10-23,2024-09-20,合同会社ＩＳ,,合同会社,東京都,港区,南青山３丁目１番３６号青山丸竹ビル６Ｆ,,13,103,1070062,,,2024-09-20,清算の結了等,,,2022-12-22,1,,,,,アイエス,0
1420,6010502008939,登記記録の閉鎖等,0,2024-10-23,2024-10-07,有限会社花の音,,有限会社,東京都,台東区,根岸４丁目１番２５－２０２号,,13,106,1100003,,,2024-10-07,清算の結了等,,,2015-10-05,1,,,,,ハナノオト,0
1421,6010502018814,登記記録の閉鎖等,0,2024-10-23,2024-10-21,有限会社中島隆ビニール製作所,,有限会社,千葉県,松戸市,紙敷１５６０－５,,12,207,2702221,,,2024-10-21,合併による解散等,2010501023538,令和６年１０月１日東京都台東区蔵前二丁目１２番４号中嶋ビニール商会株式会社（2010501023538）に合併し解散,2015-10-05,1,,,,,,0
1436,6011003005120,登記記録の閉鎖等,0,2024-10-23,2024-10-11,合同会社ヤマタネインターナショナル,,合同会社,東京都,目黒区,平町１丁目２１番８－９０１号,,13,110,1520032,,,2024-10-11,合併による解散等,2011001060641,令和６年１０月１１日東京都目黒区平町一丁目２１番８－９０１号株式会社ヤマタネインターナショナル（2011001060641）に合併し解散,2015-10-05,1,,,,,ヤマタネインターナショナル,0
1445,6011301007140,登記記録の閉鎖等,0,2024-10-23,2024-10-17,森下産業株式会社,,株式会社,東京都,世田谷区,北烏山１丁目５３番９号,,13,112,1570061,,,2024-10-17,清算の結了等,,,2015-10-05,1,,,,,モリシタサンギョウ,0
1449,6011501009366,登記記録の閉鎖等,0,2024-10-23,2024-10-21,株式会社渡英商店,,株式会社,東京都,荒川区,東日暮里２丁目３７番５号,,13,118,1160014,,,2024-10-21,清算の結了等,,,2015-10-05,1,,,,,ワタエイショウテン,0
1450,6011505001897,登記記録の閉鎖等,0,2024-10-23,2024-10-21,特定非営利活動法人まちなか,,その他の設立登記法人,東京都,北区,十条仲原１丁目１１番１号,,13,117,1140031,,,2024-10-21,清算の結了等,,,2015-10-05,1,,,,,マチナカ,0
1462,6012401013598,登記記録の閉鎖等,0,2024-10-23,2024-10-21,株式会社シェッジ,,株式会社,東京都,武蔵野市,中町１丁目１２番１０－２４０６号,,13,203,1800006,,,2024-10-21,清算の結了等,,,2015-10-05,1,,,,,シェッジ,0
1463,6012401018003,登記記録の閉鎖等,0,2024-10-23,2024-10-17,株式会社クリタ,,株式会社,東京都,世田谷区,南烏山３丁目１２番１－Ｇ５０１号,,13,112,1570062,,,2024-10-17,清算の結了等,,,2015-10-05,1,,,,,クリタ,0
1488,6030001152823,登記記録の閉鎖等,0,2024-10-23,2024-10-07,株式会社ハウスプロテクト,,株式会社,埼玉県,蕨市,中央２丁目２番５号セントラルハイツＢ号,,11,223,3350004,,,2024-10-07,清算の結了等,,,2023-03-30,1,,,,,ハウスプロテクト,0
1512,6060002032451,登記記録の閉鎖等,0,2024-10-23,2024-10-17,有限会社ニシハタ,,有限会社,栃木県,栃木市,大宮町２６２１番地,,09,203,3280011,,,2024-10-17,清算の結了等,,,2015-10-05,1,,,,,ニシハタ,0
1516,6070002001109,登記記録の閉鎖等,0,2024-10-23,2024-10-18,有限会社大林商店,,有限会社,群馬県,前橋市,力丸町２２７番地の１,,10,201,3792134,,,2024-10-18,清算の結了等,,,2015-10-05,1,,,,,オオバヤシショウテン,0
1530,6100003005550,登記記録の閉鎖等,0,2024-10-23,2024-10-09,ＤＢＩ合同会社,,合同会社,長野県,北安曇郡白馬村,大字神城２４１９９番地８１,,20,485,3999211,,,2024-10-09,清算の結了等,,,2020-01-22,1,,,,,ディービーアイ,0
1540,6120001191250,登記記録の閉鎖等,0,2024-10-23,2024-10-15,株式会社ＳＤマテリアル,,株式会社,大阪府,大阪市東淀川区,東中島４丁目７番１０号,,27,114,5330033,,,2024-10-15,清算の結了等,,,2015-10-05,1,,,,,エスディマテリアル,0
1551,6120002009443,登記記録の閉鎖等,0,2024-10-23,2024-10-15,有限会社ケイシン服装,,有限会社,大阪府,大阪市生野区,鶴橋５丁目１０番１２号,,27,116,5440031,,,2024-10-15,清算の結了等,,,2015-10-05,1,,,,,ケイシンフクソウ,0
1570,6120905006306,登記記録の閉鎖等,0,2024-10-23,2024-10-17,一般社団法人オタクは地球を救う,,その他の設立登記法人,大阪府,高槻市,日吉台六番町５７番１４号,,27,207,5691022,,,2024-10-17,清算の結了等,,,2022-04-05,1,,,,,オタクハチキュウヲスクウ,0
1582,6140002044463,登記記録の閉鎖等,0,2024-10-23,2024-10-21,有限会社ティー・システム,,有限会社,兵庫県,尼崎市,東難波町５丁目２７番１７－８０２号,,28,202,6600892,,,2024-10-21,清算の結了等,,,2015-10-05,1,,,,,ティーシステム,0
1583,6140002045718,登記記録の閉鎖等,0,2024-10-23,2024-10-18,有限会社アドシステム,,有限会社,兵庫県,尼崎市,武庫之荘２丁目８番１４号ラヴィール武庫之荘１０２,,28,202,6610035,,,2024-10-18,清算の結了等,,,2015-10-05,1,,,,,アドシステム,0
1584,6140002060304,登記記録の閉鎖等,0,2024-10-23,2024-10-18,有限会社波羅密斎,,有限会社,兵庫県,西宮市,苦楽園二番町１２番１８号,,28,204,6620082,,,2024-10-18,清算の結了等,,,2015-10-05,1,,,,,パーラミサイ,0
1590,6160002004382,登記記録の閉鎖等,0,2024-10-23,2024-10-21,有限会社ＰＣ技術研究所,,有限会社,滋賀県,大津市,瀬田３丁目２０番６号,,25,201,5202134,,,2024-10-21,清算の結了等,,,2015-10-05,1,,,,,ピーシーギジュツケンキュウショ,0
1591,6180001105832,登記記録の閉鎖等,0,2024-10-23,2024-10-08,ＢＰＳ株式会社,,株式会社,愛知県,海部郡蟹江町,大字西之森字長瀬下６５番地１６,,23,425,4970052,,,2024-10-08,清算の結了等,,,2015-10-05,1,,,,,ビーピーエス,0
1606,6180302012067,登記記録の閉鎖等,0,2024-10-23,2024-10-15,有限会社日建サービス,,有限会社,愛知県,豊橋市,船渡町字高打場３番地の２,,23,201,4418072,,,2024-10-15,清算の結了等,,,2015-10-05,1,,,,,ニッケンサービス,0
1608,6190001025187,登記記録の閉鎖等,0,2024-10-23,2024-10-21,株式会社大豊堂,,株式会社,三重県,伊勢市,勢田町５２４番地３,,24,203,5160035,,,2024-10-21,清算の結了等,,,2017-12-25,1,,,,,タイホウドウ,0
1616,6200001029608,登記記録の閉鎖等,0,2024-10-23,2024-10-21,株式会社Ｔｈｉｎｋ　Ｂｌｕｅ,,株式会社,岐阜県,岐阜市,諏訪山２丁目２１番２号,,21,201,5013142,,,2024-10-21,清算の結了等,,,2015-10-05,1,,,,,シンクブルー,0
1623,6220001024508,登記記録の閉鎖等,0,2024-10-23,2024-10-18,株式会社みつあき,,株式会社,石川県,河北郡内灘町,字大根布５丁目１２０番地３,,17,365,9200266,,,2024-10-18,清算の結了等,,,2021-11-05,1,,,,,,0
1626,6230001006934,登記記録の閉鎖等,0,2024-10-23,2024-10-18,スロープ株式会社,,株式会社,富山県,富山市,一本木２番地１,,16,201,9300904,,,2024-10-18,清算の結了等,,,2015-10-05,1,,,,,スロープ,0
1639,6290001090667,登記記録の閉鎖等,0,2024-10-23,2024-09-17,株式会社日本目録,,株式会社,福岡県,福岡市博多区,博多駅前２丁目１番１号,,40,132,8120011,,,2024-09-17,清算の結了等,,,2020-10-20,1,,,,,,0
1647,6290005018598,登記記録の閉鎖等,0,2024-10-23,2024-09-17,一般社団法人ラックス,,その他の設立登記法人,福岡県,福岡市南区,老司１丁目３番４号,,40,134,8111346,,,2024-09-17,清算の結了等,,,2022-03-22,1,,,,,ラックス,0
1649,6290801025533,登記記録の閉鎖等,0,2024-10-23,2024-10-03,株式会社ＯｒｂｉｓＢｒａｉｎ,,株式会社,福岡県,北九州市小倉北区,浅野３丁目８番１号ＡＩＭビル６Ｆコンパス小倉内,,40,106,8020001,,,2024-10-03,清算の結了等,,,2019-05-27,1,,,,,オービスブレイン,0
1652,6310002011719,登記記録の閉鎖等,0,2024-10-23,2024-10-16,有限会社マルミ重機,,有限会社,長崎県,佐世保市,指方町２７４４番地１,,42,202,8593242,,,2024-10-16,清算の結了等,,,2015-10-05,1,,,,,マルミジュウキ,0
1669,6400602001416,登記記録の閉鎖等,0,2024-10-23,2024-10-08,有限会社大文字,,有限会社,岩手県,奥州市,前沢字徳沢１番地５７,,03,215,0294205,,,2024-10-08,清算の結了等,,,2015-10-05,1,,,,,ダイモンジ,0
1676,6430001058848,登記記録の閉鎖等,0,2024-10-23,2024-10-17,株式会社みなづき,,株式会社,北海道,札幌市中央区,旭ケ丘１丁目１０番１－１０８号,,01,101,0640941,,,2024-10-17,清算の結了等,,,2015-10-05,1,,,,,ミナヅキ,0
1683,6430002041621,登記記録の閉鎖等,0,2024-10-23,2024-10-16,有限会社Ｏ＆Ｍワカタケ,,有限会社,北海道,札幌市東区,北三十三条東１丁目６番１号,,01,103,0650033,,,2024-10-16,清算の結了等,,,2015-10-05,1,,,,,オーアンドエムワカタケ,0
1685,6440001000156,登記記録の閉鎖等,0,2024-10-23,2024-10-18,株式会社今井メディカル給食,,株式会社,北海道,函館市,昭和３丁目５番１０－１０３号,,01,202,0410812,,,2024-10-18,清算の結了等,,,2015-10-05,1,,,,,,0
1693,6470002016330,登記記録の閉鎖等,0,2024-10-23,2024-10-11,有限会社石川加工,,有限会社,香川県,観音寺市,大野原町内野々４５７番地,,37,205,7691622,,,2024-10-11,清算の結了等,,,2015-10-05,1,,,,,イシカワカコウ,0
1698,7010001075307,登記記録の閉鎖等,0,2024-10-23,2024-10-07,株式会社ルコリエ,,株式会社,東京都,千代田区,一番町１６番地４フォーシーズンズグランデ一番町１００３号,,13,101,1020082,,,2024-10-07,清算の結了等,,,2015-10-05,1,,,,,ルコリエ,0
1703,7010001213683,登記記録の閉鎖等,0,2024-10-23,2024-10-09,希望の星株式会社,,株式会社,東京都,千代田区,東神田２丁目６番７号６０８,,13,101,1010031,,,2024-10-09,清算の結了等,,,2020-11-13,1,,,,,キボウノホシ,0
1711,7010003025334,登記記録の閉鎖等,0,2024-10-23,2024-10-15,合同会社ＳＭＣＭ,,合同会社,東京都,品川区,大崎３丁目１０番１２号,,13,109,1410032,,,2024-10-15,清算の結了等,,,2017-05-17,1,,,,,エスエムシーエム,0
1719,7010401149684,登記記録の閉鎖等,0,2024-10-23,2024-10-01,株式会社旬旅,,株式会社,東京都,渋谷区,元代々木町２７番１４号,,13,113,1510062,,,2024-10-01,清算の結了等,,,2019-12-10,1,,,,,シュンタビ,0
1725,7010403015190,登記記録の閉鎖等,0,2024-10-23,2024-10-03,合同会社播磨ソーラー,,合同会社,東京都,港区,六本木６丁目１０番１号六本木ヒルズ森タワー,,13,103,1060032,,,2024-10-03,清算の結了等,,,2016-08-16,1,,,,,ハリマソーラー,0
1728,7010501012924,登記記録の閉鎖等,0,2024-10-23,2024-10-09,丸富産業株式会社,,株式会社,東京都,台東区,柳橋２丁目２２番７号,,13,106,1110052,,,2024-10-09,清算の結了等,,,2015-10-05,1,,,,,マルトミサンギョウ,0
1747,7011201024664,登記記録の閉鎖等,0,2024-10-23,2024-10-17,Ｓｕｃｃｅｓｓ　Ｇｏａｌ　Ｌａｂ．株式会社,,株式会社,東京都,中央区,日本橋富沢町９番４号日本橋富沢町ビル,,13,102,1030006,,,2024-10-17,合併による解散等,6350001015766,令和６年１０月１日宮崎市橘通西三丁目１０番３２号８階株式会社ＡＴＯＭｉｃａ（6350001015766）に合併し解散,2023-05-24,1,,,,,サクセスゴールラボ,0
1755,7011701019676,登記記録の閉鎖等,0,2024-10-23,2024-10-16,株式会社ビーパッケージ,,株式会社,千葉県,千葉市花見川区,宮野木台４丁目２５番１８号,,12,102,2620015,,,2024-10-16,清算の結了等,,,2016-03-04,1,,,,,ビーパッケージ,0
1762,7012702001193,登記記録の閉鎖等,0,2024-10-23,2024-10-09,有限会社多摩ネットサービス,,有限会社,東京都,小平市,鈴木町１丁目１６９番地の１７,,13,211,1870011,,,2024-10-09,清算の結了等,,,2015-10-05,1,,,,,タマネットサービス,0
1775,7020001143855,登記記録の閉鎖等,0,2024-10-23,2024-10-16,株式会社ゴクロス,,株式会社,神奈川県,川崎市川崎区,大師駅前２丁目１番１－８０４号,,14,131,2100802,,,2024-10-16,合併による解散等,8011501023027,令和６年１０月１日東京都千代田区岩本町２－１７－６トルテックビル７Ｆ株式会社日本ドリームリンク（8011501023027）に合併し解散,2021-11-10,1,,,,,ゴクロス,0
1802,7040003006397,登記記録の閉鎖等,0,2024-10-23,2024-10-15,合同会社ケアフルランド,,合同会社,千葉県,松戸市,高塚新田４２４番地の１７,,12,207,2702222,,,2024-10-15,清算の結了等,,,2015-10-05,1,,,,,ケアフルランド,0
1805,7040005003343,登記記録の閉鎖等,0,2024-10-23,2024-10-16,学校法人＿瀬学園,00021374,その他の設立登記法人,千葉県,八千代市,米本２２０５番地外（米本団地内）,,12,221,2760015,,,2024-10-16,清算の結了等,,,2015-10-05,1,,,,,ヒロセガクエン,0
1811,7060001007180,登記記録の閉鎖等,0,2024-10-23,2024-10-17,株式会社ツクイ設計,,株式会社,栃木県,宇都宮市,鶴田町１２８番地５,,09,201,3200851,,,2024-10-17,清算の結了等,,,2015-10-05,1,,,,,ツクイセッケイ,0
1818,7080002004274,登記記録の閉鎖等,0,2024-10-23,2024-10-16,有限会社鳥松商事,,有限会社,静岡県,静岡市葵区,横田町２番３号,,22,101,4200835,,,2024-10-16,清算の結了等,,,2015-10-05,1,,,,,トリマツショウジ,0
1819,7080101016575,登記記録の閉鎖等,0,2024-10-23,2024-10-11,株式会社くりはら,,株式会社,静岡県,沼津市,原３１１番地の３,,22,203,4100312,,,2024-10-11,清算の結了等,,,2015-10-05,1,,,,,クリハラ,0
1822,7080402019228,登記記録の閉鎖等,0,2024-10-23,2024-10-17,有限会社山下青果運輸,,有限会社,静岡県,御前崎市,門屋２０９４番地,,22,223,4371615,,,2024-10-17,清算の結了等,,,2015-10-05,1,,,,,ヤマシタセイカウンユ,0
1844,7120101005037,登記記録の閉鎖等,0,2024-10-23,2024-10-22,株式会社南海会館,,株式会社,大阪府,大阪市中央区,心斎橋筋１丁目６番１０号,,27,128,5420085,,,2024-10-22,清算の結了等,,,2015-10-05,1,,,,,,0
1855,7120905003673,登記記録の閉鎖等,0,2024-10-23,2024-10-21,特定非営利活動法人アポロン介護事業団,,その他の設立登記法人,大阪府,池田市,城南３丁目１番１５号Ｊ棟７０２号,,27,204,5630025,,,2024-10-21,清算の結了等,,,2015-10-05,1,,,,,アポロンカイゴジギョウダン,0
1860,7130005015123,登記記録の閉鎖等,0,2024-10-23,2024-10-18,一般社団法人ｖｅｒｄｅ,,その他の設立登記法人,京都府,向日市,鶏冠井町楓畑１６番地の５,,26,208,6170004,,,2024-10-18,清算の結了等,,,2017-10-24,1,,,,,ヴェルデ,0
1863,7140001047623,登記記録の閉鎖等,0,2024-10-23,2024-10-21,株式会社池田組,,株式会社,兵庫県,伊丹市,南野北１丁目３番１号,,28,207,6640887,,,2024-10-21,清算の結了等,,,2015-10-05,1,,,,,イケダクミ,0
1876,7160002013052,登記記録の閉鎖等,0,2024-10-23,2024-10-21,ハーティーケア青空有限会社,,有限会社,滋賀県,草津市,上笠４丁目２番２５－３０１号,,25,206,5250028,,,2024-10-21,清算の結了等,,,2015-10-05,1,,,,,ハーティーケアアオゾラ,0
1879,7180001042802,登記記録の閉鎖等,0,2024-10-23,2024-10-04,株式会社スクランブル,,株式会社,愛知県,名古屋市守山区,守山２丁目８番１４号パレス守山１０５号,,23,113,4630067,,,2024-10-04,清算の結了等,,,2015-10-05,1,,,,,スクランブル,0
1885,7180001109700,登記記録の閉鎖等,0,2024-10-23,2024-10-04,株式会社ウィンズ,,株式会社,愛知県,名古屋市千種区,京命１丁目９番９号,,23,101,4640004,,,2024-10-04,清算の結了等,,,2015-10-05,1,,,,,ウィンズ,0
1889,7180001156148,登記記録の閉鎖等,0,2024-10-23,2024-10-07,ＤＨサポート株式会社,,株式会社,愛知県,豊明市,沓掛町丘下１２番地１,,23,229,4701101,,,2024-10-07,清算の結了等,,,2023-05-08,1,,,,,ディーエイチサポート,0
1891,7180002092103,登記記録の閉鎖等,0,2024-10-23,2024-10-04,有限会社ナカシマ・アイ・エス,,有限会社,愛知県,海部郡大治町,大字花常字伊勢田１番地の４,,23,424,4901136,,,2024-10-04,清算の結了等,,,2015-10-05,1,,,,,ナカシマアイエス,0
1895,7180301025523,登記記録の閉鎖等,0,2024-10-23,2024-10-10,藤本自動車株式会社,,株式会社,愛知県,豊田市,伊保町西浦１６番地１,,23,211,4700374,,,2024-10-10,清算の結了等,,,2015-10-05,1,,,,,フジモトジドウシャ,0
1897,7180302000418,登記記録の閉鎖等,0,2024-10-23,2024-10-16,有限会社エーアンドシーツルタ,,有限会社,愛知県,岡崎市,竜泉寺町字上ノ畑１２番地,,23,202,4443524,,,2024-10-16,清算の結了等,,,2015-10-05,1,,,,,エーアンドシーツルタ,0
1904,7200001024343,登記記録の閉鎖等,0,2024-10-23,2024-10-21,株式会社伊藤工業所,,株式会社,岐阜県,恵那市,大井町２００１番地２,,21,210,5097201,,,2024-10-21,清算の結了等,,,2015-10-05,1,,,,,イトウコウギョウショ,0
1906,7200002012223,登記記録の閉鎖等,0,2024-10-23,2024-10-21,有限会社秋山接骨院,,有限会社,岐阜県,大垣市,熊野町５丁目９２番地,,21,202,5030032,,,2024-10-21,清算の結了等,,,2015-10-05,1,,,,,アキヤマセッコツイン,0
1914,7240001057208,登記記録の閉鎖等,0,2024-10-23,2024-10-15,株式会社ＫＯＨＡＲＡ,,株式会社,広島県,安芸郡熊野町,出来庭１丁目８番５号,,34,307,7314221,,,2024-10-15,清算の結了等,,,2021-01-06,1,,,,,コハラ,0
1933,7290802023667,登記記録の閉鎖等,0,2024-10-23,2024-10-18,有限会社雷山,,有限会社,福岡県,行橋市,西宮市１丁目１４番１号,,40,213,8240031,,,2024-10-18,清算の結了等,,,2015-10-05,1,,,,,ライザン,0
1941,7330002015139,登記記録の閉鎖等,0,2024-10-23,2024-10-11,有限会社一将,,有限会社,熊本県,熊本市北区,高平１丁目５番１３号,,43,105,8600085,,,2024-10-11,清算の結了等,,,2015-10-05,1,,,,,イッショウ,0
1954,7380002003386,登記記録の閉鎖等,0,2024-10-23,2024-10-07,有限会社ポピー,,有限会社,福島県,福島市,北矢野目字坂東１３番地の３,,07,201,9600113,,,2024-10-07,清算の結了等,,,2015-10-05,1,,,,,,0
1955,7380002011637,登記記録の閉鎖等,0,2024-10-23,2024-10-07,有限会社パラデンタルシステムホルス,,有限会社,福島県,郡山市,大槻町字針生前田２番地の３,,07,203,9630201,,,2024-10-07,清算の結了等,,,2015-10-05,1,,,,,パラデンタルシステムホルス,0
1959,7400005007844,登記記録の閉鎖等,0,2024-10-23,2024-10-08,一般社団法人香蘭堂,,その他の設立登記法人,岩手県,二戸市,福岡字裏小路６番地,,03,213,0286101,,,2024-10-08,清算の結了等,,,2017-10-13,1,,,,,,0
1960,7410003001591,登記記録の閉鎖等,0,2024-10-23,2024-10-21,合同会社有楽会館,,合同会社,秋田県,大館市,字谷地町後９６番地,,05,204,0170826,,,2024-10-21,清算の結了等,,,2015-10-05,1,,,,,ユウラクカイカン,0
1961,7420001009479,登記記録の閉鎖等,0,2024-10-23,2024-10-18,株式会社ホテルニューキャッスル,,株式会社,青森県,弘前市,大字上鞘師町２４番地１号,,02,202,0368354,,,2024-10-18,清算の結了等,,,2015-10-05,1,,,,,ホテルニューキャッスル,0
1962,7420001011402,登記記録の閉鎖等,0,2024-10-23,2024-10-17,株式会社かね屋,,株式会社,青森県,三沢市,中央町４丁目７番３２号,,02,207,0330001,,,2024-10-17,清算の結了等,,,2015-10-05,1,,,,,カネヤ,0
1965,7430001026424,登記記録の閉鎖等,0,2024-10-23,2024-10-21,株式会社ファズ,,株式会社,北海道,札幌市中央区,北五条西２６丁目１番７号,,01,101,0640825,,,2024-10-21,清算の結了等,,,2015-10-05,1,,,,,ファズ,0
1983,8010001138252,登記記録の閉鎖等,0,2024-10-23,2024-10-17,グローバルスカイ・エデュケーション株式会社,,株式会社,東京都,渋谷区,恵比寿４丁目２０番３号,,13,113,1500013,,,2024-10-17,合併による解散等,3010401120772,令和６年９月３０日東京都港区虎ノ門四丁目３番１号城山トラストタワー２７階グローバルスカイ・コーポレーション株式会社（3010401120772）に合併し解散,2015-10-05,1,,,,,グローバルスカイエデュケーション,0
2004,8010401168015,登記記録の閉鎖等,0,2024-10-23,2024-09-30,ＨＩＳテクノロジーズ株式会社,,株式会社,東京都,港区,虎ノ門４丁目１番１号,,13,103,1050001,,,2024-09-30,清算の結了等,,,2022-06-17,1,,,,,エイチアイエステクノロジーズ,0
2020,8010802015856,登記記録の閉鎖等,0,2024-10-23,2024-10-17,有限会社和香,,有限会社,東京都,大田区,大森西１丁目５番１４号,,13,111,1430015,,,2024-10-17,清算の結了等,,,2015-10-05,1,,,,,ワコウ,0
2021,8010905003774,登記記録の閉鎖等,0,2024-10-23,2024-10-22,一般社団法人Ｌｏｖｅ　Ａｌｌ　Ｓｅｒｖｅ　Ａｌｌ,,その他の設立登記法人,大分県,大分市,富士見が丘西４丁目２５番１２号,,44,201,8701177,,,2024-10-22,清算の結了等,,,2019-05-09,1,,,,,ラブオールサーブオール,0
2022,8011001126338,登記記録の閉鎖等,0,2024-10-23,2024-10-03,ＴＡＣＨＩＡＧＥ株式会社,,株式会社,東京都,港区,南青山１丁目１２番３号ＬＩＦＯＲＫＭＩＮＡＭＩＡＯＹＡＭＡ・Ｓ２１３,,13,103,1070062,,,2024-10-03,清算の結了等,,,2019-02-22,1,,,,,タチアゲ,0
2042,8011701020484,登記記録の閉鎖等,0,2024-10-23,2024-10-21,株式会社カイショウ,,株式会社,東京都,江戸川区,松江７丁目１３番８号,,13,123,1320025,,,2024-10-21,清算の結了等,,,2017-01-10,1,,,,,,0
2045,8013201002467,登記記録の閉鎖等,0,2024-10-23,2024-10-01,株式会社ジーオービー,,株式会社,東京都,目黒区,緑が丘３丁目９番３号,,13,110,1520034,,,2024-10-01,清算の結了等,,,2015-10-05,1,,,,,ジーオービー,0
2054,8020002035340,登記記録の閉鎖等,0,2024-10-23,2024-10-04,有限会社馬場工務店,,有限会社,神奈川県,横浜市港北区,師岡町８７５番地,,14,109,2220002,,,2024-10-04,清算の結了等,,,2015-10-05,1,,,,,ババコウムテン,0
2057,8020003014310,登記記録の閉鎖等,0,2024-10-23,2024-10-03,合同会社ネクストステップ,,合同会社,神奈川県,川崎市幸区,塚越１丁目２０番地５２,,14,132,2120024,,,2024-10-03,清算の結了等,,,2018-05-08,1,,,,,ネクストステップ,0
2078,8040001022239,登記記録の閉鎖等,0,2024-10-23,2024-10-15,株式会社マイフラットコーポレーション,,株式会社,千葉県,市川市,市川１丁目２６番９－３０３号,,12,203,2720034,,,2024-10-15,清算の結了等,,,2015-10-05,1,,,,,マイフラットコーポレーション,0
2081,8040001093362,登記記録の閉鎖等,0,2024-10-23,2024-10-16,株式会社蒼和工業,,株式会社,千葉県,松戸市,松飛台５７２番地の４,,12,207,2702214,,,2024-10-16,清算の結了等,,,2015-12-21,1,,,,,ソウワコウギョウ,0
2084,8040002071986,登記記録の閉鎖等,0,2024-10-23,2024-10-16,有限会社青葉,,有限会社,千葉県,市原市,島野２１１１番地の５,,12,219,2900034,,,2024-10-16,清算の結了等,,,2015-10-05,1,,,,,アオバ,0
2092,8060002019182,登記記録の閉鎖等,0,2024-10-23,2024-10-17,有限会社谷田部農機店,,有限会社,栃木県,芳賀郡益子町,大字益子１４１７番地,,09,342,3214217,,,2024-10-17,清算の結了等,,,2024-03-19,1,,,,,ヤタベノウキテン,0
2104,8080102018925,登記記録の閉鎖等,0,2024-10-23,2024-10-16,有限会社ビジネスネットワーク,,有限会社,静岡県,熱海市,伊豆山９８６番地の１６,,22,205,4130002,,,2024-10-16,清算の結了等,,,2015-10-05,1,,,,,ビジネスネットワーク,0
2105,8080102019510,登記記録の閉鎖等,0,2024-10-23,2024-10-17,有限会社伊豆ライフ不動産,,有限会社,静岡県,伊東市,川奈１３６６番地の７,,22,208,4140044,,,2024-10-17,清算の結了等,,,2015-10-05,1,,,,,イズライフフドウサン,0
2125,8120001189648,登記記録の閉鎖等,0,2024-10-23,2024-10-21,株式会社Ｔ＆Ｙ,,株式会社,大阪府,大阪市北区,長柄西１丁目３番５４－６１３号,,27,127,5310061,,,2024-10-21,清算の結了等,,,2015-10-05,1,,,,,ティーアンドワイ,0
2131,8120001255292,登記記録の閉鎖等,0,2024-10-23,2024-10-21,阜＿株式会社,00130741,株式会社,大阪府,大阪市東成区,深江北３丁目４番２１号エクラ深江橋１１０Ａ,,27,115,5370001,,,2024-10-21,清算の結了等,,,2023-06-06,1,,,,,フゴウ,0
2151,8140001051905,登記記録の閉鎖等,0,2024-10-23,2024-09-30,和光タクシー株式会社,,株式会社,大阪府,大阪市城東区,成育２丁目１３番２０号,,27,118,5360007,,,2024-09-30,合併による解散等,8120001070337,令和６年９月３０日大阪市城東区成育二丁目１３番２０号相互タクシーホールディング株式会社（8120001070337）に合併し解散,2015-10-05,1,,,,,ワコウタクシー,0
2169,8180002003422,登記記録の閉鎖等,0,2024-10-23,2024-10-10,有限会社和合,,有限会社,愛知県,名古屋市名東区,本郷１丁目９９番地,,23,115,4650024,,,2024-10-10,清算の結了等,,,2015-10-05,1,,,,,ワゴウ,0
2181,8190001011400,登記記録の閉鎖等,0,2024-10-23,2024-10-21,株式会社倉口自動車,,株式会社,三重県,松阪市,丹生寺町４２１番地,,24,204,5150832,,,2024-10-21,清算の結了等,,,2015-10-05,1,,,,,クラグチジドウシャ,0
2182,8190001017521,登記記録の閉鎖等,0,2024-10-23,2024-10-17,株式会社湯の山スポーツクラブ,,株式会社,三重県,三重郡菰野町,大字永井３０９９番地５７,,24,341,5101311,,,2024-10-17,清算の結了等,,,2015-10-05,1,,,,,ユノヤマスポーツクラブ,0
2183,8190001031423,登記記録の閉鎖等,0,2024-10-23,2024-10-18,日本技検株式会社,,株式会社,三重県,松阪市,嬉野一志町３１２番地の１１４,,24,204,5152305,,,2024-10-18,清算の結了等,,,2024-06-20,1,,,,,ニホンギケン,0
2184,8190002008809,登記記録の閉鎖等,0,2024-10-23,2024-10-18,有限会社坂本土木,,有限会社,三重県,度会郡度会町,大久保１４５番地１,,24,470,5162106,,,2024-10-18,清算の結了等,,,2015-10-05,1,,,,,サカモトドボク,0
2185,8190002021159,登記記録の閉鎖等,0,2024-10-23,2024-10-21,有限会社東海住設技研,,有限会社,三重県,四日市市,平尾町３３６６番地,,24,202,5121205,,,2024-10-21,清算の結了等,,,2015-10-05,1,,,,,トウカイジュウセツギエン,0
2189,8230001017310,登記記録の閉鎖等,0,2024-10-23,2024-10-18,株式会社能作プレステージ,,株式会社,富山県,高岡市,オフィスパーク８番地１,,16,202,9391119,,,2024-10-18,清算の結了等,,,2018-02-07,1,,,,,ノウサクプレステージ,0
2198,8240002023827,登記記録の閉鎖等,0,2024-10-23,2024-10-15,有限会社ＭＡＸ,,有限会社,広島県,広島市西区,井口鈴が台１丁目２番１－３１５号,,34,104,7330843,,,2024-10-15,清算の結了等,,,2015-10-05,1,,,,,マックス,0
2233,8430001036348,登記記録の閉鎖等,0,2024-10-23,2024-10-16,株式会社ループデザイン,,株式会社,北海道,札幌市中央区,北一条東２丁目５番地１５リビオ札幌時計台通７０１,,01,101,0600031,,,2024-10-16,清算の結了等,,,2015-10-05,1,,,,,ループデザイン,0
2241,8430002056980,登記記録の閉鎖等,0,2024-10-23,2024-10-11,有限会社幸和モーター,,有限会社,北海道,虻田郡倶知安町,字琴平１７４番地２,,01,400,0440066,,,2024-10-11,清算の結了等,,,2015-10-05,1,,,,,コウワモーター,0
2243,8460105000338,登記記録の閉鎖等,0,2024-10-23,2024-10-21,忠類林産協同組合,,その他の設立登記法人,北海道,帯広市,東三条南６丁目１９番地,,01,207,0800803,,,2024-10-21,清算の結了等,,,2015-10-05,1,,,,,チュウルイリンサン,0
2253,9010001144844,登記記録の閉鎖等,0,2024-10-23,2024-10-16,株式会社バリュー・ワランティ,,株式会社,東京都,千代田区,内神田１丁目１０番１号,,13,101,1010047,,,2024-10-16,合併による解散等,7020001012903,令和６年１０月１日横浜市南区宮元町一丁目２１番地１５株式会社バリュー・エージェント（7020001012903）に合併し解散,2015-10-05,1,,,,,バリューワランティ,0
2265,9010003028632,登記記録の閉鎖等,0,2024-10-23,2024-10-08,東京リテール合同会社,,合同会社,東京都,千代田区,内神田２丁目２番６号５階あすな会計事務所内,,13,101,1010047,,,2024-10-08,清算の結了等,,,2018-11-05,1,,,,,トウキョウリテール,0
2272,9010401167718,登記記録の閉鎖等,0,2024-10-23,2024-09-19,ＤＯＲＡＢＯＴ株式会社,,株式会社,東京都,港区,赤坂２丁目２３番１号アークヒルズ・フロントタワーＩｎＣｏｎｔｒｏｌ内,,13,103,1070052,,,2024-09-19,清算の結了等,,,2022-06-02,1,,,,,ドラボット,0
2279,9010403018547,登記記録の閉鎖等,0,2024-10-23,2024-10-03,リバーホールディングス合同会社,,合同会社,東京都,港区,六本木６丁目１０番１号六本木ヒルズ森タワー,,13,103,1060032,,,2024-10-03,清算の結了等,,,2018-05-01,1,,,,,リバーホールディングス,0
2287,9010603009651,登記記録の閉鎖等,0,2024-10-23,2024-10-17,有明ガーデンアセット管理合同会社,,合同会社,東京都,江東区,有明２丁目１－１－２８０５,,13,108,1350063,,,2024-10-17,清算の結了等,,,2022-07-26,1,,,,,アリアケガーデンアセットカンリ,0
2295,9010902012117,登記記録の閉鎖等,0,2024-10-23,2024-10-16,有限会社馬場健総合事務所,,有限会社,東京都,世田谷区,祖師谷３丁目４７番５号,,13,112,1570072,,,2024-10-16,清算の結了等,,,2015-10-05,1,,,,,ババタケシソウゴウジムショ,0
2325,9011302001098,登記記録の閉鎖等,0,2024-10-23,2024-09-24,有限会社インフォルマテック,,有限会社,東京都,杉並区,本天沼３丁目４４番１４－６０４号,,13,115,1670031,,,2024-09-24,清算の結了等,,,2015-10-05,1,,,,,インフォルマテック,0
2383,9080101016326,登記記録の閉鎖等,0,2024-10-23,2024-10-18,株式会社ローゼ,,株式会社,静岡県,伊東市,桜ガ丘２丁目１番２０号,,22,208,4140037,,,2024-10-18,清算の結了等,,,2015-10-05,1,,,,,ローゼ,0
2386,9100001000567,登記記録の閉鎖等,0,2024-10-23,2024-10-09,株式会社サーラアビリタ,,株式会社,長野県,長野市,南千歳１丁目３－７アイビースクエア,,20,201,3800823,,,2024-10-09,清算の結了等,,,2015-10-05,1,,,,,サーラアビリタ,0
2403,9120001254459,登記記録の閉鎖等,0,2024-10-23,2024-10-22,株式会社ビジョンシカ,,株式会社,大阪府,大阪市中央区,南船場１丁目３番３１号サンライズ南船場２０４号室,,27,128,5420081,,,2024-10-22,清算の結了等,,,2023-04-28,1,,,,,ビジョンシカ,0
2412,9120101052572,登記記録の閉鎖等,0,2024-10-23,2024-10-21,株式会社ＪＩＨ,,株式会社,大阪府,松原市,天美北５丁目５番４－１０１号,,27,217,5800031,,,2024-10-21,清算の結了等,,,2015-10-05,1,,,,,,0
2429,9170001003836,登記記録の閉鎖等,0,2024-10-23,2024-10-21,和歌山ファミリー株式会社,,株式会社,和歌山県,和歌山市,木広町５丁目５番地の１７,,30,201,6408328,,,2024-10-21,清算の結了等,,,2015-10-05,1,,,,,ワカヤマファミリー,0
2438,9180002011639,登記記録の閉鎖等,0,2024-10-23,2024-10-10,有限会社秀美堂,,有限会社,愛知県,名古屋市北区,中丸町２丁目３９番地の２,,23,103,4620056,,,2024-10-10,清算の結了等,,,2015-10-05,1,,,,,シュウビドウ,0
2439,9180002036421,登記記録の閉鎖等,0,2024-10-23,2024-10-10,有限会社伴野木材,,有限会社,愛知県,名古屋市守山区,向台１丁目２１０９番地,,23,113,4630036,,,2024-10-10,清算の結了等,,,2015-10-05,1,,,,,バンノモクザイ,0
2449,9200002017344,登記記録の閉鎖等,0,2024-10-23,2024-10-21,有限会社村田メカニクス,,有限会社,岐阜県,可児市,長坂２丁目２３４番地,,21,214,5090257,,,2024-10-21,清算の結了等,,,2015-10-05,1,,,,,ムラタメカニクス,0
2465,9290001005259,登記記録の閉鎖等,0,2024-10-23,2024-09-17,新日本エージェンシー株式会社,,株式会社,福岡県,福岡市早良区,西新１丁目９番２３号,,40,137,8140002,,,2024-09-17,清算の結了等,,,2015-10-05,1,,,,,シンニホンエージェンシー,0
2472,9290001085912,登記記録の閉鎖等,0,2024-10-23,2024-09-10,株式会社ＯＳＭＥＳ,,株式会社,福岡県,糸島市,志摩桜井５４７８番地,,40,230,8191304,,,2024-09-10,清算の結了等,,,2019-07-18,1,,,,,,0
2490,9380005007804,登記記録の閉鎖等,0,2024-10-23,2024-10-02,葛尾じゅうねん企業組合,00084587,その他の設立登記法人,福島県,双葉郡葛尾村,大字落合字西ノ内４４番地１,,07,548,9791602,,,2024-10-02,清算の結了等,,,2015-10-05,1,,,,,カツラオジュウネン,0
2504,9460101003418,登記記録の閉鎖等,0,2024-10-23,2024-10-17,株式会社三島組,,株式会社,北海道,中川郡幕別町,忠類白銀町１５８番地,,01,643,0891701,,,2024-10-17,清算の結了等,,,2015-10-05,1,,,,,ミシマグミ,0
