sequenceNumber,corporateNumber,process,correct,updateDate,changeDate,name,nameImageId,kind,prefectureName,cityName,streetNumber,addressImageId,prefectureCode,cityCode,postCode,addressOutside,addressOutsideImageId,closeDate,closeCause,successorCorporateNumber,changeCause,assignmentDate,latest,enName,enPrefectureName,enCityName,enAddressOutside,furigana,hihyoji
7,1010003036790,新規,0,2022-01-18,2022-01-18,合同会社オルタナ１０,,合同会社,東京都,千代田区,丸の内３丁目１番１号東京共同会計事務所内,,13,101,1000005,,,,,,,2022-01-18,1,,,,,オルタナテン,0
8,1010101015028,新規,0,2022-01-18,2022-01-18,セブンスターズ資産管理株式会社,,株式会社,東京都,八王子市,みなみ野４丁目１１番１１号,,13,201,1920916,,,,,,,2022-01-18,1,,,,,セブンスターズシサンカンリ,0
9,1010103001851,新規,0,2022-01-18,2022-01-18,ＷｅｌｌＢｅｅ合同会社,,合同会社,東京都,八王子市,七国３丁目１番１９号,,13,201,1920919,,,,,,,2022-01-18,1,,,,,ウェルビー,0
13,1010401164895,新規,0,2022-01-18,2022-01-18,株式会社エムザス,,株式会社,東京都,港区,西麻布３丁目８番２－１７０２号,,13,103,1060031,,,,,,,2022-01-18,1,,,,,エムザス,0
14,1010401164904,新規,0,2022-01-18,2022-01-18,株式会社ｈｏｏｄ,,株式会社,東京都,港区,南青山２丁目７番８号,,13,103,1070062,,,,,,,2022-01-18,1,,,,,フッド,0
15,1010401164912,新規,0,2022-01-18,2022-01-18,株式会社ＵＮＴＩＴＬＥＤ,,株式会社,東京都,港区,白金１丁目１２番６－２０４号,,13,103,1080072,,,,,,,2022-01-18,1,,,,,アンタイトルド,0
16,1010401164929,新規,0,2022-01-18,2022-01-18,Ｖａｌｒｉｇｈｔ株式会社,,株式会社,東京都,港区,白金台３丁目１６番８－４０９号,,13,103,1080071,,,,,,,2022-01-18,1,,,,,ヴァロライト,0
17,1010401164953,新規,0,2022-01-18,2022-01-18,株式会社１１１ＥＮＴＥＲＰＲＩＳＥ,,株式会社,東京都,港区,愛宕２丁目３番１－２００８号,,13,103,1050002,,,,,,,2022-01-18,1,,,,,ワンハンドレッドイレブンエンタープライズ,0
18,1010401164994,新規,0,2022-01-18,2022-01-18,株式会社ＭＩＧＨＴＳ,,株式会社,東京都,港区,赤坂２丁目１５番９号,,13,103,1070052,,,,,,,2022-01-18,1,,,,,マイツ,0
19,1010401165076,新規,0,2022-01-18,2022-01-18,株式会社交詢社,,株式会社,東京都,港区,元赤坂１丁目１番８号,,13,103,1070051,,,,,,,2022-01-18,1,,,,,コウジュンシャ,0
21,1010403026870,新規,0,2022-01-18,2022-01-18,ジー・ジェイ・レジデンス・エイト合同会社,,合同会社,東京都,港区,虎ノ門４丁目３番１号城山トラストタワー２７階ＳａｎｎｅＧｒｏｕｐＪａｐａｎ株式会社内,,13,103,1050001,,,,,,,2022-01-18,1,,,,,ジージェイレジデンスエイト,0
22,1010403026887,新規,0,2022-01-18,2022-01-18,合同会社むらやま,,合同会社,東京都,港区,六本木４丁目３番１１－６１５号,,13,103,1060032,,,,,,,2022-01-18,1,,,,,ムラヤマ,0
23,1010403026895,新規,0,2022-01-18,2022-01-18,合同会社Ｓｅｉｂｕｎｄｏ,,合同会社,東京都,港区,浜松町２丁目２番１５号,,13,103,1050013,,,,,,,2022-01-18,1,,,,,セイブンドウ,0
32,1010503006475,新規,0,2022-01-18,2022-01-18,Ｈ２Ｈ　ＪＡＰＡＮ合同会社,,合同会社,東京都,台東区,台東３丁目４０番３号ユーハイツ御徒町５０２,,13,106,1100016,,,,,,,2022-01-18,1,,,,,エイチニエイチジャパン,0
42,1010901050190,新規,0,2022-01-18,2022-01-18,株式会社ＥＮＣＩ,,株式会社,東京都,世田谷区,奥沢５丁目２９番１０号自由が丘リブレビル３階,,13,112,1580083,,,,,,,2022-01-18,1,,,,,エンシー,0
49,1011003014002,新規,0,2022-01-18,2022-01-18,合同会社ぼたん,,合同会社,東京都,渋谷区,富ヶ谷２丁目５番４号,,13,113,1510063,,,,,,,2022-01-18,1,,,,,ボタン,0
50,1011101097519,新規,0,2022-01-18,2022-01-18,株式会社ＧＵＵ,,株式会社,東京都,新宿区,新宿２丁目８番１号新宿セブンビル６０４,,13,104,1600022,,,,,,,2022-01-18,1,,,,,グウ,0
61,1011401023959,新規,0,2022-01-18,2022-01-18,株式会社ＲＩＺＥ,,株式会社,東京都,板橋区,大山西町３番１０－４０２号,,13,119,1730033,,,,,,,2022-01-18,1,,,,,ライズ,0
68,1011701024979,新規,0,2022-01-18,2022-01-18,株式会社Ｑｉｎ,,株式会社,東京都,江戸川区,平井４丁目７番４号マルヘイタワービル２０２,,13,123,1320035,,,,,,,2022-01-18,1,,,,,キューイン,0
86,1013103001103,新規,0,2022-01-18,2022-01-18,合同会社ｏｎｉｋｉｋａｋｕ,,合同会社,東京都,あきる野市,渕上２３０番地８,,13,228,1970833,,,,,,,2022-01-18,1,,,,,オニキカク,0
91,1013301048524,新規,0,2022-01-18,2022-01-18,株式会社千云ＪＡＰＡＮ,,株式会社,東京都,豊島区,東池袋２丁目６０－２池袋パークハイツ２Ｆ,,13,116,1700013,,,,,,,2022-01-18,1,,,,,センウンジャパン,0
92,1013301048557,新規,0,2022-01-18,2022-01-18,株式会社ＡＦＴＥＲ　ＰＬＡＣＥ　ＴＯＫＹＯ,,株式会社,東京都,豊島区,南池袋４丁目１４番２号,,13,116,1710022,,,,,,,2022-01-18,1,,,,,アフタープレイストウキョウ,0
98,1020001144719,新規,0,2022-01-18,2022-01-18,株式会社ＤＭＳＲ,,株式会社,神奈川県,横浜市緑区,十日市場町８２４番地１ライオンズステーションプラザ十日市場７０２号,,14,113,2260025,,,,,,,2022-01-18,1,,,,,ディエムエスアール,0
100,1020003021156,新規,0,2022-01-18,2022-01-18,合同会社ＫＡＮＥＫＯ,,合同会社,神奈川県,横浜市中区,新山下３丁目１５番地１－２３７号,,14,104,2310801,,,,,,,2022-01-18,1,,,,,カネコ,0
101,1020003021164,新規,0,2022-01-18,2022-01-18,Ｂｅａｒ　Ｐｒｏｆｉｔ　Ｍａｎａｇｅｍｅｎｔ合同会社,,合同会社,神奈川県,川崎市麻生区,上麻生４丁目５０－１７,,14,137,2150021,,,,,,,2022-01-18,1,,,,,ベアープロフィットマネジメント,0
106,1021001074947,新規,0,2022-01-18,2022-01-18,株式会社ＮｅｏＣｏａｔＪａｐａｎ,,株式会社,神奈川県,平塚市,横内２７３１－７,,14,203,2540002,,,,,,,2022-01-18,1,,,,,ネオコートジャパン,0
107,1021003011304,新規,0,2022-01-18,2022-01-18,アールジェイ合同会社,,合同会社,神奈川県,座間市,入谷１丁目１１８番地１座間入谷ハイツ８号棟１１０号室,,14,216,2520024,,,,,,,2022-01-18,1,,,,,アールジェイ,0
114,1030001146350,新規,0,2022-01-18,2022-01-18,株式会社リザーズ,,株式会社,埼玉県,所沢市,東所沢２丁目４５番地の１１,,11,208,3590021,,,,,,,2022-01-18,1,,,,,リザーズ,0
115,1030001146359,新規,0,2022-01-18,2022-01-18,大政石材工事株式会社,,株式会社,埼玉県,志木市,中宗岡２丁目３１番１５号,,11,228,3530002,,,,,,,2022-01-18,1,,,,,オオマサセキザイコウジ,0
116,1030001146375,新規,0,2022-01-18,2022-01-18,マツ建サッシ株式会社,,株式会社,埼玉県,さいたま市岩槻区,東岩槻５丁目１番地４,,11,110,3390005,,,,,,,2022-01-18,1,,,,,マツケンサッシ,0
138,1040001121732,新規,0,2022-01-18,2022-01-18,株式会社Ｂｉｇｕｐ,,株式会社,千葉県,松戸市,稔台３丁目２番地ティアラシティ６１３号,,12,207,2702231,,,,,,,2022-01-18,1,,,,,ビガップ,0
139,1040001121740,新規,0,2022-01-18,2022-01-18,株式会社高良設備工業,00125421,株式会社,千葉県,柏市,船戸１７４３番地２,,12,217,2770802,,,,,,,2022-01-18,1,,,,,タカラセツビコウギョウ,0
140,1040001121781,新規,0,2022-01-18,2022-01-18,株式会社Ｂｅｎｃｈ　Ｍａｒｋ,,株式会社,千葉県,船橋市,本町２丁目６番１３号,,12,204,2730005,,,,,,,2022-01-18,1,,,,,ベンチマーク,0
169,1040003019280,新規,0,2022-01-18,2022-01-18,合同会社Ｇｒｅｅｎｇａｔｅ　Ｊａｐａｎ,,合同会社,千葉県,浦安市,明海６丁目１番１２ー１１１０号パークシティグランデ新浦安リバーパレス,,12,227,2790014,,,,,,,2022-01-18,1,,,,,グリーンゲートジャパン,0
170,1040003019289,新規,0,2022-01-18,2022-01-18,Ｋ・Ｋサポート合同会社,,合同会社,千葉県,鎌ケ谷市,東初富２丁目２番４号,,12,224,2730122,,,,,,,2022-01-18,1,,,,,ケーケーサポート,0
184,1060001034486,新規,0,2022-01-18,2022-01-18,株式会社ｆｕｎｎｙｐｌａｎｔｓ,,株式会社,栃木県,小山市,大字出井９０６番地１,,09,208,3230808,,,,,,,2022-01-18,1,,,,,ファニープランツ,0
192,1070001038858,新規,0,2022-01-18,2022-01-18,株式会社パイン,,株式会社,群馬県,太田市,新田木崎町７９８番地,,10,205,3700321,,,,,,,2022-01-18,1,,,,,パイン,0
195,1080001024691,新規,0,2022-01-18,2022-01-18,株式会社江間特殊工芸,,株式会社,静岡県,藤枝市,仮宿１６０２番地の１,,22,214,4260001,,,,,,,2022-01-18,1,,,,,エマトクシュコウゲイ,0
200,1090001017372,新規,0,2022-01-18,2022-01-18,株式会社ＭＡＮＩＰＬＡ,,株式会社,山梨県,北杜市,大泉町西井出８２４０番地５８０１,,19,209,4091501,,,,,,,2022-01-18,1,,,,,マニプラ,0
201,1100001034985,新規,0,2022-01-18,2022-01-18,ニック株式会社,,株式会社,長野県,千曲市,大字屋代１８３１番地１,,20,218,3870007,,,,,,,2022-01-18,1,,,,,ニック,0
205,1110001036329,新規,0,2022-01-18,2022-01-18,リノベスタハセガワ株式会社,,株式会社,新潟県,上越市,大字富岡５３９番地７,,15,222,9430173,,,,,,,2022-01-18,1,,,,,リノベスタハセガワ,0
206,1110001036378,新規,0,2022-01-18,2022-01-18,環境テクノ株式会社,,株式会社,新潟県,胎内市,関沢６９番地５,,15,227,9592633,,,,,,,2022-01-18,1,,,,,カンキョウテクノ,0
219,1120001243196,新規,0,2022-01-18,2022-01-18,株式会社Ｓｌｉｍｅ　Ｄｅｓｉｇｎ　Ｌａｂ,,株式会社,大阪府,大阪市北区,堂山町１６－４パールレジャービル１０７,,27,127,5300027,,,,,,,2022-01-18,1,,,,,エスライムデザインラボ,0
220,1120001243262,新規,0,2022-01-18,2022-01-18,株式会社ネクステップ,,株式会社,大阪府,大阪市生野区,田島１丁目１７番３２－５０５号,,27,116,5440011,,,,,,,2022-01-18,1,,,,,ネクステップ,0
221,1120001243279,新規,0,2022-01-18,2022-01-18,株式会社フジスタイル,,株式会社,大阪府,門真市,千石東町３５番２２号,,27,223,5710013,,,,,,,2022-01-18,1,,,,,フジスタイル,0
225,1120003020973,新規,0,2022-01-18,2022-01-18,渡邉合同会社,,合同会社,大阪府,大阪市東住吉区,西今川４丁目３０番２７号,,27,121,5460042,,,,,,,2022-01-18,1,,,,,ワタナベ,0
226,1120003020981,新規,0,2022-01-18,2022-01-18,合同会社原田工務店,,合同会社,大阪府,寝屋川市,清水町９番３２号,,27,215,5720044,,,,,,,2022-01-18,1,,,,,ハラダコウムテン,0
229,1120005022720,新規,0,2022-01-18,2022-01-18,医療法人しみず歯科クリニック,,その他の設立登記法人,大阪府,大阪市東淀川区,豊里７丁目３３番７号サニークレスト忠１０１,,27,114,5330013,,,,,,,2022-01-18,1,,,,,シミズシカクリニック,0
234,1120903003994,新規,0,2022-01-18,2022-01-18,Ｒｅｆｉｎｅ合同会社,,合同会社,大阪府,茨木市,中穂積３丁目１番２８号,,27,211,5670034,,,,,,,2022-01-18,1,,,,,リファイン,0
241,1130003007689,新規,0,2022-01-18,2022-01-18,合同会社みのり,,合同会社,京都府,京都市伏見区,桃山長岡越中北町２６番地２,,26,109,6120056,,,,,,,2022-01-18,1,,,,,ミノリ,0
242,1130003007697,新規,0,2022-01-18,2022-01-18,ＲＭＳ合同会社,,合同会社,京都府,京都市南区,唐橋花園町１－７,,26,107,6018465,,,,,,,2022-01-18,1,,,,,アールエムエス,0
251,1140001124519,新規,0,2022-01-18,2022-01-18,株式会社開源産業,,株式会社,兵庫県,明石市,大久保町大窪３０５３番地の１,,28,203,6740051,,,,,,,2022-01-18,1,,,,,カイゲンサンギョウ,0
252,1140001124543,新規,0,2022-01-18,2022-01-18,ｔｉｖｅｒ　ｍａｒｋｅｔｉｎｇ株式会社,,株式会社,兵庫県,姫路市,山田町南山田５番地２,,28,201,6792113,,,,,,,2022-01-18,1,,,,,ティバーマーケティング,0
253,1140001124576,新規,0,2022-01-18,2022-01-18,株式会社刀心,,株式会社,兵庫県,川西市,萩原３丁目１番１６号,,28,217,6660004,,,,,,,2022-01-18,1,,,,,トウシン,0
254,1140001124584,新規,0,2022-01-18,2022-01-18,株式会社ＭＹＰＬＡＣＥ,,株式会社,兵庫県,神戸市中央区,磯辺通３丁目１番２号,,28,110,6510084,,,,,,,2022-01-18,1,,,,,マイプレイス,0
257,1140003017209,新規,0,2022-01-18,2022-01-18,Ｃ２＆パートナーズ合同会社,,合同会社,兵庫県,西宮市,松園町９番１０－１０３号,,28,204,6620053,,,,,,,2022-01-18,1,,,,,シーツーアンドパートナーズ,0
258,1140003017217,新規,0,2022-01-18,2022-01-18,Ｔ企画合同会社,,合同会社,兵庫県,芦屋市,朝日ケ丘町３１番２０－２号,,28,206,6590012,,,,,,,2022-01-18,1,,,,,ティーキカク,0
264,1180001149561,新規,0,2022-01-18,2022-01-18,株式会社つなぎ手,,株式会社,愛知県,春日井市,岩成台９丁目２番地５,,23,206,4870033,,,,,,,2022-01-18,1,,,,,ツナギテ,0
265,1180001149578,新規,0,2022-01-18,2022-01-18,株式会社ｆｒｉ．,,株式会社,愛知県,江南市,江森町上２５９番地,,23,217,4838041,,,,,,,2022-01-18,1,,,,,フリ,0
273,1180003023376,新規,0,2022-01-18,2022-01-18,ＴＵＲＦ　ＡＮＤ　ＢＥＡＣＨ合同会社,,合同会社,愛知県,名古屋市中区,栄５丁目２６－３３山七ビル６０２,,23,106,4600008,,,,,,,2022-01-18,1,,,,,ターフアンドビーチ,0
277,1190001029036,新規,0,2022-01-18,2022-01-18,株式会社ミライアークス,,株式会社,三重県,四日市市,室山町５５０番地２,,24,202,5100948,,,,,,,2022-01-18,1,,,,,ミライアークス,0
280,1190003003880,新規,0,2022-01-18,2022-01-18,ＯＫＮＥＳＳ合同会社,,合同会社,三重県,四日市市,日永１丁目１１番２３号,,24,202,5100885,,,,,,,2022-01-18,1,,,,,オーケイネス,0
285,1200001039669,新規,0,2022-01-18,2022-01-18,株式会社大孝建設,,株式会社,岐阜県,可児市,大森１５０１番地４６３,,21,214,5090238,,,,,,,2022-01-18,1,,,,,ダイコウケンセツ,0
293,1240003005459,新規,0,2022-01-18,2022-01-18,合同会社能美給食,,合同会社,広島県,江田島市,能美町中町４１５６番地３,,34,215,7372301,,,,,,,2022-01-18,1,,,,,ノウミキュウショク,0
299,1260003003774,新規,0,2022-01-18,2022-01-18,ＡＫ合同会社,,合同会社,岡山県,岡山市北区,津島福居１丁目５番２０－３０３号,,33,101,7000080,,,,,,,2022-01-18,1,,,,,エイケイ,0
300,1280005007458,新規,0,2022-01-18,2022-01-18,一般社団法人らいとサポート,,その他の設立登記法人,島根県,雲南市,木次町里方５９７番地１,,32,209,6991311,,,,,,,2022-01-18,1,,,,,ライトサポート,0
306,1290001096108,新規,0,2022-01-18,2022-01-18,株式会社ゼント,,株式会社,福岡県,福岡市中央区,港２丁目１３番１号,,40,133,8100075,,,,,,,2022-01-18,1,,,,,ゼント,0
307,1290001096116,新規,0,2022-01-18,2022-01-18,ベイル株式会社,,株式会社,福岡県,福岡市南区,平和２丁目２３‐１８アーバンパレス平和２０１号,,40,134,8150071,,,,,,,2022-01-18,1,,,,,ベイル,0
309,1290803004036,新規,0,2022-01-18,2022-01-18,合同会社山本屋,,合同会社,福岡県,北九州市小倉南区,葛原１丁目６番３１号,,40,107,8000251,,,,,,,2022-01-18,1,,,,,ヤマモトヤ,0
317,1330001029368,新規,0,2022-01-18,2022-01-18,株式会社Ｔ＆ＳＫＹ,,株式会社,熊本県,熊本市東区,東京塚町７番１６号,,43,102,8620923,,,,,,,2022-01-18,1,,,,,ティーアンドスカイ,0
325,1360001029893,新規,0,2022-01-18,2022-01-18,株式会社趣堂,,株式会社,沖縄県,島尻郡南風原町,字本部４６１－７３ワイズヴィラガーデン南風原１１０３,,47,350,9011112,,,,,,,2022-01-18,1,,,,,,0
326,1360003011742,新規,0,2022-01-18,2022-01-18,合同会社ＲｅＬａｔｉｏｎ　ＦｉｅＬＤ,,合同会社,沖縄県,南城市,佐敷字津波古１９１３番地,,47,215,9011414,,,,,,,2022-01-18,1,,,,,リレイションフィールド,0
327,1360005006583,新規,0,2022-01-18,2022-01-18,一般社団法人Ｃｉｎｄｅｒｅｌｌａ　Ｃｏｌｏｒｓ,,その他の設立登記法人,沖縄県,那覇市,若狭２丁目７番１８号２階,,47,201,9000031,,,,,,,2022-01-18,1,,,,,シンデレラカラーズ,0
329,1370001048075,新規,0,2022-01-18,2022-01-18,株式会社ｅｑｕａｌ,,株式会社,宮城県,仙台市宮城野区,幸町２丁目２３番１号,,04,102,9830836,,,,,,,2022-01-18,1,,,,,イコール,0
340,1390003001914,新規,0,2022-01-18,2022-01-18,Ｍａｒｓ　ｇｌｏｂａｌ　ｃｏｍｐａｎｙ合同会社,,合同会社,山形県,山形市,若葉町４番１１号,,06,201,9902495,,,,,,,2022-01-18,1,,,,,マーズグローバルカンパニー,0
344,1430001085814,新規,0,2022-01-18,2022-01-18,株式会社浦河商事,,株式会社,北海道,浦河郡浦河町,字西幌別８番１０号,,01,607,0570002,,,,,,,2022-01-18,1,,,,,ウラカワショウジ,0
347,1430003013533,新規,0,2022-01-18,2022-01-18,合同会社コンフォレント,,合同会社,北海道,札幌市清田区,清田九条３丁目２－２３,,01,110,0040849,,,,,,,2022-01-18,1,,,,,コンフォレント,0
348,1430005014372,新規,0,2022-01-18,2022-01-18,一般社団法人兼心会,,その他の設立登記法人,北海道,札幌市南区,澄川五条６丁目１４番６号,,01,106,0050005,,,,,,,2022-01-18,1,,,,,ケンシンカイ,0
357,1470001018927,新規,0,2022-01-18,2022-01-18,株式会社ＭＡＫＥ・ＭＩＲＡＣＬＥ,,株式会社,香川県,丸亀市,城東町１丁目５番１６号リュミエール城東３番館,,37,202,7630013,,,,,,,2022-01-18,1,,,,,メイクミラクル,0
365,1700150106698,新規,0,2022-01-18,2022-01-18,エルミラインターナショナルトラベルアンドツアーズプライベイトリミテド,,外国会社等,東京都,新宿区,百人町２丁目１５番９－２０３号室,,13,104,1690073,ネパール連邦民主共和国カトマンズ大都市第１番地ナクサルナグポカリカトマンズ,,,,,,2022-01-18,1,,,,,エルミラインターナシヨナルトラベルアンドツアーズプライベイトリミテド,0
377,2010003036641,新規,0,2022-01-18,2022-01-18,ｍｙｎａ　ｖｉｌｌａ合同会社,,合同会社,東京都,中央区,入船１丁目７－１０ｍｙｎａｖｉｌｌａ,,13,102,1040042,,,,,,,2022-01-18,1,,,,,マイナヴィラ,0
378,2010003036699,新規,0,2022-01-18,2022-01-18,ＥＩＮＳ合同会社,,合同会社,東京都,千代田区,九段南１丁目５番６号＿りそな九段ビル５Ｆ＿ＫＳフロア,,13,101,1020074,,,,,,,2022-01-18,1,,,,,アインツ,0
379,2010003036740,新規,0,2022-01-18,2022-01-18,合同会社伏竜建匠,,合同会社,東京都,中央区,銀座１丁目１２－４Ｎ＆Ｅ．ＢＬＤ．７階,,13,102,1040061,,,,,,,2022-01-18,1,,,,,フクリュウケンショウ,0
380,2010003036773,新規,0,2022-01-18,2022-01-18,合同会社ＪＲＷＥＳＴファンド第２号,,合同会社,東京都,中央区,日本橋１丁目４番１号日本橋一丁目ビルディング,,13,102,1030027,,,,,,,2022-01-18,1,,,,,ジェイアールウエストファンドダイニゴウ,0
382,2010101015027,新規,0,2022-01-18,2022-01-18,Ｉｎｎｏｖａｔｉｏｎ　Ｔｒａｄｉｎｇ株式会社,,株式会社,東京都,八王子市,上恩方町１８１３番地１,,13,201,1920156,,,,,,,2022-01-18,1,,,,,イノベーショントレーディング,0
395,2010401164837,新規,0,2022-01-18,2022-01-18,株式会社カウンターポイント,,株式会社,東京都,港区,南青山３丁目８番４０号青山センタービル２Ｆ,,13,103,1070062,,,,,,,2022-01-18,1,,,,,カウンターポイント,0
396,2010401164894,新規,0,2022-01-18,2022-01-18,株式会社Ｍｉｓｅｒｉｃｏｒｄｉａ,,株式会社,東京都,港区,南青山２丁目２番１５号,,13,103,1070062,,,,,,,2022-01-18,1,,,,,ミセリコルディア,0
397,2010401164903,新規,0,2022-01-18,2022-01-18,株式会社Ｐｈｉ　Ｐｒｏｐｅｒｔｙ　ｍａｎａｇｅｍｅｎｔ,,株式会社,東京都,港区,三田１丁目５番５号ファーストアパートメンツ三田２０４号,,13,103,1080073,,,,,,,2022-01-18,1,,,,,ピーエイチアイプロパティーマネジメント,0
398,2010401164969,新規,0,2022-01-18,2022-01-18,株式会社アイジープラス,,株式会社,東京都,港区,赤坂３丁目１０番１２－６０２号,,13,103,1070052,,,,,,,2022-01-18,1,,,,,アイジープラス,0
399,2010401164977,新規,0,2022-01-18,2022-01-18,Ｉｎｔｅｒｎｅｄｉａｒｙ株式会社,,株式会社,東京都,港区,赤坂２丁目６番１５号パークハビオ赤坂タワー８０７,,13,103,1070052,,,,,,,2022-01-18,1,,,,,インターネディアリー,0
402,2010403026878,新規,0,2022-01-18,2022-01-18,合同会社リガク社,,合同会社,東京都,港区,芝浦２丁目７番１１－１２０５号,,13,103,1080023,,,,,,,2022-01-18,1,,,,,リガクシャ,0
407,2010601060522,新規,0,2022-01-18,2022-01-18,株式会社ＳＯＲＡ　ＩＥ　ＴＯＫＹＯ,,株式会社,東京都,墨田区,向島３丁目４１番１４－５０３号,,13,107,1310033,,,,,,,2022-01-18,1,,,,,ソライエトウキョウ,0
415,2010901050181,新規,0,2022-01-18,2022-01-18,ナチュレリカバー株式会社,,株式会社,東京都,世田谷区,成城２丁目３６番８号,,13,112,1570066,,,,,,,2022-01-18,1,,,,,ナチュレリカバー,0
416,2010903007089,新規,0,2022-01-18,2022-01-18,合同会社和楽堂,,合同会社,東京都,世田谷区,梅丘１丁目１４番９号ウェスト・コート４０５,,13,112,1540022,,,,,,,2022-01-18,1,,,,,ワラクドウ,0
424,2011001145087,新規,0,2022-01-18,2022-01-18,株式会社Ｒｅｎｄｅａｆ,,株式会社,東京都,渋谷区,道玄坂１丁目１０番８号,,13,113,1500043,,,,,,,2022-01-18,1,,,,,ランデフ,0
425,2011001145095,新規,0,2022-01-18,2022-01-18,株式会社ＳＤＭ,,株式会社,東京都,渋谷区,道玄坂２丁目１５番１号ノア道玄坂２２３号室,,13,113,1500043,,,,,,,2022-01-18,1,,,,,エスディーエム,0
427,2011101097518,新規,0,2022-01-18,2022-01-18,株式会社ｔｅｎｄｅｒ　ｗｏｒｌｄ　Ｈｏｌｄｉｎｇｓ,,株式会社,東京都,新宿区,西新宿３丁目３番１３号西新宿水間ビル６Ｆ,,13,104,1600023,,,,,,,2022-01-18,1,,,,,テンダーワールドホールディングス,0
428,2011101097526,新規,0,2022-01-18,2022-01-18,株式会社Ｒｉｓｅ,,株式会社,東京都,新宿区,新宿１丁目２４番７号１３０４,,13,104,1600022,,,,,,,2022-01-18,1,,,,,ライズ,0
429,2011103011369,新規,0,2022-01-18,2022-01-18,合同会社ＩＴｏＹＥＬＬ,,合同会社,東京都,新宿区,西新宿３丁目３番１３号西新宿水間ビル６階,,13,104,1600023,,,,,,,2022-01-18,1,,,,,アイトエール,0
430,2011103011377,新規,0,2022-01-18,2022-01-18,合同会社Ｔ・Ｎコンサルティング,,合同会社,東京都,新宿区,西新宿７丁目１７番１４号,,13,104,1600023,,,,,,,2022-01-18,1,,,,,ティエヌコンサルティング,0
435,2011201023555,新規,0,2022-01-18,2022-01-18,株式会社あえる,,株式会社,東京都,中野区,本町２丁目５１番１０号ＯＫビル９階,,13,114,1640012,,,,,,,2022-01-18,1,,,,,アエル,0
442,2011601025663,新規,0,2022-01-18,2022-01-18,人Ｓｏｌ株式会社,,株式会社,東京都,練馬区,西大泉３丁目１８番１４号,,13,120,1780065,,,,,,,2022-01-18,1,,,,,ヒトソル,0
450,2012701016890,新規,0,2022-01-18,2022-01-18,ＣＲＡＦＴ株式会社,,株式会社,東京都,西東京市,保谷町４丁目２番８号グランドールコートＡ２０１号,,13,229,2020015,,,,,,,2022-01-18,1,,,,,クラフト,0
462,2020001144759,新規,0,2022-01-18,2022-01-18,株式会社ＯＳＨＩＲＩ,,株式会社,神奈川県,川崎市多摩区,登戸１７２８番地吉澤電工ビル,,14,135,2140014,,,,,,,2022-01-18,1,,,,,オシリ,0
463,2020001144767,新規,0,2022-01-18,2022-01-18,株式会社しろくま,,株式会社,神奈川県,川崎市麻生区,片平５丁目６番１６号２Ｆ,,14,137,2150023,,,,,,,2022-01-18,1,,,,,シロクマ,0
464,2020001144817,新規,0,2022-01-18,2022-01-18,株式会社クロスインハウス,,株式会社,神奈川県,横浜市港北区,新横浜３丁目７番地１８,,14,109,2220033,,,,,,,2022-01-18,1,,,,,クロスインハウス,0
477,2030001146119,新規,0,2022-01-18,2022-01-18,株式会社ｆｉｎｅＯｐｔｉｍＡＩ,,株式会社,埼玉県,さいたま市浦和区,東仲町１１番１７号９０１,,11,107,3300056,,,,,,,2022-01-18,1,,,,,ファインオプティマイ,0
478,2030001146358,新規,0,2022-01-18,2022-01-18,株式会社ハマシン,,株式会社,埼玉県,川口市,栄町２丁目５番１１号ＡＨビル１０２,,11,203,3320017,,,,,,,2022-01-18,1,,,,,ハマシン,0
479,2030001146366,新規,0,2022-01-18,2022-01-18,Ｍ’ｓ　ＴＲＡＣＫＳ株式会社,,株式会社,埼玉県,羽生市,南６丁目１６番地９谷島ビル３階,,11,216,3480053,,,,,,,2022-01-18,1,,,,,エムズトラックス,0
480,2030001146390,新規,0,2022-01-18,2022-01-18,株式会社ティーワイティー,,株式会社,埼玉県,児玉郡上里町,大字神保原町２２０８,,11,385,3690305,,,,,,,2022-01-18,1,,,,,ティーワイティー,0
484,2030003018654,新規,0,2022-01-18,2022-01-18,合同会社ＫＡＧＡＭＡ．ＲＥＣＹＣＬＥ,,合同会社,埼玉県,加須市,正能５７７番地１,,11,210,3470107,,,,,,,2022-01-18,1,,,,,カガマリサイクル,0
485,2030003018670,新規,0,2022-01-18,2022-01-18,合同会社８２３Ｅｌｌａ,,合同会社,埼玉県,富士見市,ふじみ野東２丁目７番地１シティヴェールふじみ野二番館２０８,,11,235,3540036,,,,,,,2022-01-18,1,,,,,ハチニサンエラ,0
507,2040001121731,新規,0,2022-01-18,2022-01-18,株式会社ＭＳＫ,,株式会社,千葉県,柏市,東山２丁目１番４号,,12,217,2770064,,,,,,,2022-01-18,1,,,,,エムエスケー,0
508,2040001121748,新規,0,2022-01-18,2022-01-18,株式会社ＣＯＮＮＥＣＴ,,株式会社,千葉県,印西市,岩戸１４６２番地,,12,231,2701616,,,,,,,2022-01-18,1,,,,,コネクト,0
509,2040001121780,新規,0,2022-01-18,2022-01-18,株式会社ケイヨット,,株式会社,千葉県,白井市,冨士１５１番地の２白井ロジュマン１０７号,,12,232,2701432,,,,,,,2022-01-18,1,,,,,ケイヨット,0
510,2040001121789,新規,0,2022-01-18,2022-01-18,株式会社Ｇ－ＧＲＡＣＥ,,株式会社,千葉県,野田市,関宿台町２８４番地,,12,208,2700202,,,,,,,2022-01-18,1,,,,,ジーグレイス,0
539,2040003019288,新規,0,2022-01-18,2022-01-18,合同会社トイログラフ,,合同会社,千葉県,大網白里市,富田１３０２番地１５,,12,239,2993221,,,,,,,2022-01-18,1,,,,,トイログラフ,0
551,2050001050467,新規,0,2022-01-18,2022-01-18,株式会社インステイト,,株式会社,茨城県,取手市,紫水２丁目６番地１７,,08,217,3001508,,,,,,,2022-01-18,1,,,,,インステイト,0
554,2060001034485,新規,0,2022-01-18,2022-01-18,株式会社エンジェルホールディングス,,株式会社,栃木県,宇都宮市,今泉町３０２０－１,,09,201,3210962,,,,,,,2022-01-18,1,,,,,エンジェルホールディングス,0
557,2080001024690,新規,0,2022-01-18,2022-01-18,株式会社音羽薬局,,株式会社,静岡県,静岡市葵区,音羽町７番１１号,,22,101,4200834,,,,,,,2022-01-18,1,,,,,オトワヤッキョク,0
566,2100001034968,新規,0,2022-01-18,2022-01-18,株式会社ＭＡＩＳＯＮ　ＤＥ　ＦＡＲＭ,,株式会社,長野県,塩尻市,大字洗馬字上小曽部４０４５番地１,,20,215,3996462,,,,,,,2022-01-18,1,,,,,メゾンドファーム,0
582,2120001243245,新規,0,2022-01-18,2022-01-18,株式会社とおら,,株式会社,大阪府,大阪市福島区,福島７丁目４番１７号３Ｆ,,27,103,5530003,,,,,,,2022-01-18,1,,,,,トオラ,0
583,2120001243253,新規,0,2022-01-18,2022-01-18,株式会社ジャンティ,,株式会社,大阪府,大阪市城東区,新喜多１丁目１番１８号京橋南口辰田ビル２階２Ａ,,27,118,5360015,,,,,,,2022-01-18,1,,,,,ジャンティ,0
584,2120001243261,新規,0,2022-01-18,2022-01-18,株式会社まこと重量,,株式会社,大阪府,大阪市西区,九条南４丁目３番１６号６０３,,27,106,5500025,,,,,,,2022-01-18,1,,,,,マコトジュウリョウ,0
588,2120003020972,新規,0,2022-01-18,2022-01-18,合同会社ネクストステージ,,合同会社,大阪府,大阪市阿倍野区,北畠３丁目７番２７号パレス帝塚山１０１号,00125424,27,119,5450035,,,,,,,2022-01-18,1,,,,,ネクストステージ,0
589,2120003020980,新規,0,2022-01-18,2022-01-18,ララホーム合同会社,,合同会社,大阪府,大阪市住之江区,東加賀屋１丁目９番２６－１０５号,,27,125,5590012,,,,,,,2022-01-18,1,,,,,ララホーム,0
595,2120101064913,新規,0,2022-01-18,2022-01-18,株式会社英和,,株式会社,大阪府,松原市,天美我堂５丁目６番４１号,,27,217,5800026,,,,,,,2022-01-18,1,,,,,エイワ,0
599,2120903003993,新規,0,2022-01-18,2022-01-18,合同会社Ａｔｒｉｏ　Ｌｕｃｅ,,合同会社,大阪府,豊中市,刀根山６丁目５番７６－１０５号,,27,203,5600045,,,,,,,2022-01-18,1,,,,,アトリオルーチェ,0
602,2130001070952,新規,0,2022-01-18,2022-01-18,Ｌ．Ｉ．Ｇ　Ｐａｒｔｎｅｒｓ株式会社,,株式会社,京都府,京都市中京区,御池通東洞院東入笹屋町４３６永和御池ビル６０６号,,26,104,6048187,,,,,,,2022-01-18,1,,,,,エルアイジーパートナーズ,0
606,2140001124518,新規,0,2022-01-18,2022-01-18,株式会社ＨＵＢワークス,,株式会社,兵庫県,神戸市須磨区,緑が丘２丁目１番２１号,,28,107,6540113,,,,,,,2022-01-18,1,,,,,ハブワークス,0
607,2140001124526,新規,0,2022-01-18,2022-01-18,株式会社ＷＩＳ,,株式会社,兵庫県,西宮市,甲子園口北町１９番２７号,,28,204,6638112,,,,,,,2022-01-18,1,,,,,ウィズ,0
608,2140001124542,新規,0,2022-01-18,2022-01-18,紗々株式会社,,株式会社,兵庫県,神戸市中央区,磯上通８丁目１番２９号カサベラビルＣ＆Ｍ４０３号室,,28,110,6510086,,,,,,,2022-01-18,1,,,,,サシャ,0
609,2140001124583,新規,0,2022-01-18,2022-01-18,株式会社ｉ－ｄｏ　ＪＰ,,株式会社,兵庫県,姫路市,綿町１２２番地,,28,201,6700921,,,,,,,2022-01-18,1,,,,,アイドゥージャパン,0
614,2140003017174,新規,0,2022-01-18,2022-01-18,ＬＲＭ　ＪＡＰＡＮ合同会社,,合同会社,兵庫県,宝塚市,中山五月台６丁目１番２－３０３号,,28,214,6650871,,,,,,,2022-01-18,1,,,,,エルアールエムジャパン,0
616,2140005025992,新規,0,2022-01-18,2022-01-18,社会福祉法人ルシエンス会,,その他の設立登記法人,兵庫県,尼崎市,元浜町４丁目５９番１号,,28,202,6600085,,,,,,,2022-01-18,1,,,,,ルシエンスカイ,0
623,2170001016951,新規,0,2022-01-18,2022-01-18,株式会社御坊ホールディングス,,株式会社,和歌山県,御坊市,岩内５２９番地,,30,205,6440032,,,,,,,2022-01-18,1,,,,,ゴボウホールディングス,0
636,2180001149593,新規,0,2022-01-18,2022-01-18,ＮｅｏＰｅｎ株式会社,,株式会社,愛知県,名古屋市中区,栄３丁目２番３号名古屋日興證券ビル４階,,23,106,4600008,,,,,,,2022-01-18,1,,,,,ネオペン,0
637,2180001149602,新規,0,2022-01-18,2022-01-18,株式会社たっぷる,,株式会社,愛知県,知多郡武豊町,字下田２８番地１,,23,447,4702515,,,,,,,2022-01-18,1,,,,,タップル,0
638,2180001149627,新規,0,2022-01-18,2022-01-18,株式会社名高,,株式会社,愛知県,名古屋市北区,辻町７丁目３番地の２,,23,103,4620032,,,,,,,2022-01-18,1,,,,,メイコウ,0
641,2180003023375,新規,0,2022-01-18,2022-01-18,合同会社心結,,合同会社,愛知県,名古屋市港区,新船町２丁目１番地の２４ユーハウス東海通６０７号,,23,111,4550071,,,,,,,2022-01-18,1,,,,,ココユ,0
643,2180301035840,新規,0,2022-01-18,2022-01-18,ＡＵＢＥ株式会社,,株式会社,愛知県,豊橋市,小向町字北小向１６番地の３,,23,201,4418003,,,,,,,2022-01-18,1,,,,,オーブ,0
644,2180301035849,新規,0,2022-01-18,2022-01-18,株式会社オーブ,,株式会社,愛知県,蒲郡市,豊岡町満土呂７１番地５,,23,214,4430011,,,,,,,2022-01-18,1,,,,,オーブ,0
655,2190005011666,新規,0,2022-01-18,2022-01-18,行政書士法人菅原武事務所,,その他の設立登記法人,三重県,鈴鹿市,西条５丁目４０番地の１,,24,207,5130809,,,,,,,2022-01-18,1,,,,,スガワラタケシジムショ,0
658,2200001039668,新規,0,2022-01-18,2022-01-18,ハート株式会社,,株式会社,岐阜県,各務原市,蘇原月丘町２丁目１１７番地１,,21,213,5040903,,,,,,,2022-01-18,1,,,,,ハート,0
660,2200003005429,新規,0,2022-01-18,2022-01-18,ｐａｉ＆ａｐｐｌｅ合同会社,,合同会社,岐阜県,飛騨市,古川町杉崎３３４番地３８,,21,217,5094215,,,,,,,2022-01-18,1,,,,,パイアップル,0
662,2230005009193,新規,0,2022-01-18,2022-01-18,一般社団法人モリズ,,その他の設立登記法人,富山県,富山市,開６５１番地１,,16,201,9300944,,,,,,,2022-01-18,1,,,,,モリズ,0
669,2250001019351,新規,0,2022-01-18,2022-01-18,株式会社エスアンドミューズ,,株式会社,山口県,山口市,下小鯖３５６２番地３,,35,203,7530212,,,,,,,2022-01-18,1,,,,,エスアンドミューズ,0
672,2260001036437,新規,0,2022-01-18,2022-01-18,株式会社フルエリア,,株式会社,岡山県,岡山市北区,芳賀５３０３番地,,33,101,7011221,,,,,,,2022-01-18,1,,,,,フルエリア,0
674,2280001008608,新規,0,2022-01-18,2022-01-18,株式会社ｔｒｅｓ,,株式会社,島根県,出雲市,今市町北本町２丁目９番地１,,32,203,6930002,,,,,,,2022-01-18,1,,,,,トレス,0
679,2290001096008,新規,0,2022-01-18,2022-01-18,株式会社ＭＳカンパニー,,株式会社,福岡県,福岡市中央区,今泉２丁目４‐３１‐２０１,,40,133,8100021,,,,,,,2022-01-18,1,,,,,エムエスカンパニー,0
680,2290001096024,新規,0,2022-01-18,2022-01-18,株式会社ＹＧホールディングス,,株式会社,福岡県,福岡市博多区,山王１丁目１２番１９号,,40,132,8120015,,,,,,,2022-01-18,1,,,,,ワイジーホールディングス,0
681,2290001096057,新規,0,2022-01-18,2022-01-18,株式会社ＴＵ．ＨＵ．Ｒ　ｃｏｍｐａｎｙ,,株式会社,福岡県,久留米市,花畑２丁目８番地１,,40,203,8300039,,,,,,,2022-01-18,1,,,,,トゥフーラカンパニー,0
682,2290001096148,新規,0,2022-01-18,2022-01-18,株式会社ａｉＨＵＢ不動産,,株式会社,福岡県,福岡市博多区,諸岡３丁目６番１５号ＫＳＪビル５階,,40,132,8120894,,,,,,,2022-01-18,1,,,,,アイハブフドウサン,0
689,2290801028184,新規,0,2022-01-18,2022-01-18,株式会社エバンスメタル,,株式会社,福岡県,北九州市小倉南区,志井６丁目２７番１０－１０１号,,40,107,8020985,,,,,,,2022-01-18,1,,,,,エバンスメタル,0
690,2290803004035,新規,0,2022-01-18,2022-01-18,Ｑ＆Ｖ合同会社,,合同会社,福岡県,京都郡苅田町,殿川町１番地１４１,,40,621,8000312,,,,,,,2022-01-18,1,,,,,キューアンドブイ,0
695,2320001018841,新規,0,2022-01-18,2022-01-18,株式会社ＤＡＩ－ＡＮ,,株式会社,大分県,大分市,南太平寺４丁目２番３６号,,44,201,8700885,,,,,,,2022-01-18,1,,,,,ダイアン,0
700,2340001024433,新規,0,2022-01-18,2022-01-18,株式会社田中商店,,株式会社,鹿児島県,鹿屋市,串良町下小原３４０４番地４,,46,203,8931604,,,,,,,2022-01-18,1,,,,,タナカショウテン,0
704,2350001017543,新規,0,2022-01-18,2022-01-18,株式会社ＥｇｇＰｌａｎｔ,,株式会社,宮崎県,日向市,大字細島３８５,,45,206,8830001,,,,,,,2022-01-18,1,,,,,エッグプラント,0
706,2360001029901,新規,0,2022-01-18,2022-01-18,株式会社セイナ,,株式会社,沖縄県,宜野湾市,赤道２丁目２番５－２０３号協伸アパート,,47,205,9012205,,,,,,,2022-01-18,1,,,,,セイナ,0
715,2390003001913,新規,0,2022-01-18,2022-01-18,合同会社ｉｎｖｅｎｔ,,合同会社,山形県,天童市,芳賀タウン北２丁目６番１号,,06,210,9940082,,,,,,,2022-01-18,1,,,,,インベント,0
721,2420005007780,新規,0,2022-01-18,2022-01-18,一般社団法人青森県レクリエーション協会,,その他の設立登記法人,青森県,青森市,大字横内字亀井２７８番地１,,02,201,0300132,,,,,,,2022-01-18,1,,,,,アオモリケンレクリエーションキョウカイ,0
723,2430001085755,新規,0,2022-01-18,2022-01-18,株式会社ＥＳＣ,,株式会社,北海道,札幌市中央区,大通西７丁目２番地２アセットプランニング大通ビル７階,,01,101,0600042,,,,,,,2022-01-18,1,,,,,イーエスシー,0
724,2430001085771,新規,0,2022-01-18,2022-01-18,株式会社ＴＤＳ,,株式会社,北海道,札幌市白石区,平和通２丁目南６番３４号エスカイア白石第二２１３号室,,01,104,0030028,,,,,,,2022-01-18,1,,,,,ティーディーエス,0
725,2430001085788,新規,0,2022-01-18,2022-01-18,Ｆスタイル株式会社,,株式会社,北海道,北広島市,大曲光３丁目２番地１２,,01,234,0611277,,,,,,,2022-01-18,1,,,,,エフスタイル,0
726,2430001085813,新規,0,2022-01-18,2022-01-18,株式会社千歳ストア,,株式会社,北海道,千歳市,梅ケ丘２丁目１番１号,,01,224,0660025,,,,,,,2022-01-18,1,,,,,チトセストア,0
728,2430003013524,新規,0,2022-01-18,2022-01-18,合同会社前田商会,,合同会社,北海道,札幌市白石区,南郷通２丁目北５番１－２０１号,,01,104,0030023,,,,,,,2022-01-18,1,,,,,マエダショウカイ,0
729,2430003013540,新規,0,2022-01-18,2022-01-18,合同会社川岸重機,,合同会社,北海道,江別市,野幌東町２６番地の１８クリスタルサンビレッジＢ棟－２０１号,,01,217,0690825,,,,,,,2022-01-18,1,,,,,カワギシジュウキ,0
730,2430003013549,新規,0,2022-01-18,2022-01-18,ウェルステラ合同会社,,合同会社,北海道,札幌市東区,伏古十二条４丁目４番７号,,01,103,0070872,,,,,,,2022-01-18,1,,,,,ウェルステラ,0
738,2470005006407,新規,0,2022-01-18,2022-01-18,一般社団法人日本松栢会,,その他の設立登記法人,香川県,高松市,中央町１４番１６号,,37,201,7600007,,,,,,,2022-01-18,1,,,,,ニホンショウハクカイ,0
743,2500001023947,新規,0,2022-01-18,2022-01-18,株式会社ｉｄｅａ工房,,株式会社,愛媛県,松山市,久米窪田町３３７番地１テクノプラザ愛媛,00125429,38,201,7911101,,,,,,,2022-01-18,1,,,,,アイデアコウボウ,0
747,2500003002759,新規,0,2022-01-18,2022-01-18,ＴＥＲＡプラス合同会社,,合同会社,愛媛県,松山市,萱町６丁目６４番地３ダイアパレス松山Ｋ－スクエア６０８号,,38,201,7900813,,,,,,,2022-01-18,1,,,,,テラプラス,0
756,3010001223793,新規,0,2022-01-18,2022-01-18,コバト株式会社,,株式会社,東京都,千代田区,神田佐久間町２丁目２２番地,,13,101,1010025,,,,,,,2022-01-18,1,,,,,コバト,0
757,3010001223892,新規,0,2022-01-18,2022-01-18,業安日本株式会社,,株式会社,東京都,文京区,小日向４丁目６番３号ＭＵビル４Ｆ,,13,105,1120006,,,,,,,2022-01-18,1,,,,,ギョウアンニホン,0
758,3010001223918,新規,0,2022-01-18,2022-01-18,株式会社コラボレイティヴ,,株式会社,東京都,中央区,銀座１丁目２２番１１号銀座大竹ビジデンス２階,,13,102,1040061,,,,,,,2022-01-18,1,,,,,コラボレイティヴ,0
759,3010001223926,新規,0,2022-01-18,2022-01-18,東京サクラオークション株式会社,,株式会社,東京都,中央区,勝どき５丁目１２番４－１２０３号,,13,102,1040054,,,,,,,2022-01-18,1,,,,,トウキョウサクラオークション,0
769,3010401164927,新規,0,2022-01-18,2022-01-18,株式会社アークカンパニー,,株式会社,東京都,港区,白金６丁目２番６号５階,,13,103,1080072,,,,,,,2022-01-18,1,,,,,アークカンパニー,0
770,3010401164976,新規,0,2022-01-18,2022-01-18,株式会社Ｄａｔａｈｅａｄ,,株式会社,東京都,港区,南青山２丁目２番１５号ｗｉｎ青山ビル,,13,103,1070062,,,,,,,2022-01-18,1,,,,,データヘッド,0
774,3010501048311,新規,0,2022-01-18,2022-01-18,株式会社ＥＱＵ　ｔｏｋｙｏ,,株式会社,東京都,台東区,池之端１丁目４番３３－１９０６号ＢｒｉｌｌｉａＴｏｗｅｒ上野池之端,,13,106,1100008,,,,,,,2022-01-18,1,,,,,イーキューユートーキョー,0
775,3010501048336,新規,0,2022-01-18,2022-01-18,株式会社山田貴金属,,株式会社,東京都,台東区,台東２丁目２１番１４号,,13,106,1100016,,,,,,,2022-01-18,1,,,,,ヤマダキキンゾク,0
778,3010601060538,新規,0,2022-01-18,2022-01-18,アスピーク株式会社,,株式会社,東京都,江東区,有明１丁目２番１１－２５１０号,,13,108,1350063,,,,,,,2022-01-18,1,,,,,アスピーク,0
779,3010603009351,新規,0,2022-01-18,2022-01-18,合同会社ＩＮＯＲＩ,,合同会社,東京都,墨田区,錦糸３丁目８番８－９０１号,,13,107,1300013,,,,,,,2022-01-18,1,,,,,イノリ,0
785,3010701042080,新規,0,2022-01-18,2022-01-18,株式会社出張救急車,,株式会社,東京都,品川区,荏原２丁目１０番２－１０１号,,13,109,1420063,,,,,,,2022-01-18,1,,,,,シュッチョウキュウキュウシャ,0
789,3010901050189,新規,0,2022-01-18,2022-01-18,株式会社ＢｉＳＴＥ,,株式会社,東京都,世田谷区,北沢２丁目１０番１５号藤和下北沢ハイタウンＡ棟３０４,,13,112,1550031,,,,,,,2022-01-18,1,,,,,ビステ,0
793,3010905004249,新規,0,2022-01-18,2022-01-18,ＳＥＰ社会保険労務士法人,,その他の設立登記法人,東京都,世田谷区,奥沢５丁目９番１６号,,13,112,1580083,,,,,,,2022-01-18,1,,,,,エスイーピー,0
802,3011101097483,新規,0,2022-01-18,2022-01-18,株式会社アクア,,株式会社,東京都,新宿区,西新宿３丁目３番１３号西新宿水間ビル６階,,13,104,1600023,,,,,,,2022-01-18,1,,,,,アクア,0
803,3011103011351,新規,0,2022-01-18,2022-01-18,齋藤不動産合同会社,,合同会社,東京都,新宿区,四谷３丁目１３番地１２,,13,104,1600004,,,,,,,2022-01-18,1,,,,,サイトウフドウサン,0
804,3011103011376,新規,0,2022-01-18,2022-01-18,ＰｅａｃｅＢｏｘ合同会社,,合同会社,東京都,新宿区,西新宿３丁目３番１３号西新宿水間ビル６階,,13,104,1600023,,,,,,,2022-01-18,1,,,,,ピースボックス,0
812,3011203003728,新規,0,2022-01-18,2022-01-18,崇＿合同会社,00125428,合同会社,東京都,中野区,沼袋２丁目３９－１１宇佐見マンション１階,,13,114,1650025,,,,,,,2022-01-18,1,,,,,スウテイ,0
817,3011503005044,新規,0,2022-01-18,2022-01-18,誠真堂合同会社,,合同会社,東京都,北区,十条仲原１丁目２５番１７号,,13,117,1140031,,,,,,,2022-01-18,1,,,,,セイシンドウ,0
825,3011703003046,新規,0,2022-01-18,2022-01-18,ＪＡＩ合同会社,,合同会社,東京都,江戸川区,南小岩４丁目８番４号,,13,123,1330056,,,,,,,2022-01-18,1,,,,,ジャイ,0
829,3012401038771,新規,0,2022-01-18,2022-01-18,株式会社ＦＬＹＣＫＡ,,株式会社,東京都,武蔵野市,御殿山１丁目２番４号ゼクシア吉祥寺御殿山２Ｆ,,13,203,1800005,,,,,,,2022-01-18,1,,,,,フリッカ,0
850,3020001144790,新規,0,2022-01-18,2022-01-18,株式会社ジェネシス,,株式会社,神奈川県,横浜市中区,翁町１丁目４番１号,,14,104,2310028,,,,,,,2022-01-18,1,,,,,ジェネシス,0
851,3020001144816,新規,0,2022-01-18,2022-01-18,株式会社ＤＦＫ,,株式会社,神奈川県,川崎市麻生区,細山３丁目６番５号,,14,137,2150001,,,,,,,2022-01-18,1,,,,,ディーエフケー,0
855,3020003021162,新規,0,2022-01-18,2022-01-18,合同会社ＭＯ,,合同会社,神奈川県,横浜市中区,本牧満坂１８７番地の３６,,14,104,2310833,,,,,,,2022-01-18,1,,,,,エムオウ,0
856,3020005015360,新規,0,2022-01-18,2022-01-18,社会保険労務士法人山田合同事務所,,その他の設立登記法人,神奈川県,横浜市西区,北幸１丁目１１番１５号横浜ＳＴビル１８階,,14,103,2200004,,,,,,,2022-01-18,1,,,,,ヤマダゴウドウジムショ,0
867,3021005012422,新規,0,2022-01-18,2022-01-18,一般社団法人日本環境創造研究開発協会,,その他の設立登記法人,神奈川県,相模原市中央区,東淵野辺４丁目１８番４－２０１号,,14,152,2520203,,,,,,,2022-01-18,1,,,,,ニホンカンキョウソウゾウケンキュウカイハツキョウカイ,0
876,3030001146365,新規,0,2022-01-18,2022-01-18,株式会社ネクサス,,株式会社,埼玉県,川越市,大字鴨田５４１番地１０,,11,201,3500844,,,,,,,2022-01-18,1,,,,,ネクサス,0
877,3030001146381,新規,0,2022-01-18,2022-01-18,株式会社Ｍ‐ＭＯＤＥ,,株式会社,埼玉県,草加市,草加４丁目２番３９－１０号,,11,221,3400043,,,,,,,2022-01-18,1,,,,,エムモード,0
878,3030003018678,新規,0,2022-01-18,2022-01-18,ＷａｖｅＳｔｒａｔｅｇｙ合同会社,,合同会社,埼玉県,さいたま市大宮区,桜木町２丁目３番地大宮マルイ７階,,11,103,3300854,,,,,,,2022-01-18,1,,,,,ウェーブストラテジー,0
897,3040001121747,新規,0,2022-01-18,2022-01-18,株式会社リノテックハウス,,株式会社,千葉県,柏市,増尾６丁目２４番８号,,12,217,2770033,,,,,,,2022-01-18,1,,,,,リノテックハウス,0
898,3040001121755,新規,0,2022-01-18,2022-01-18,株式会社フローリード,,株式会社,千葉県,柏市,小青田５丁目７番地デュオヒルズ・ザ・グラン５０８号,,12,217,2770803,,,,,,,2022-01-18,1,,,,,フローリード,0
899,3040001121763,新規,0,2022-01-18,2022-01-18,株式会社タイガーリリー,,株式会社,千葉県,市川市,北方１丁目２番１－１０１号,,12,203,2720815,,,,,,,2022-01-18,1,,,,,タイガーリリー,0
900,3040001121771,新規,0,2022-01-18,2022-01-18,ケーエルシージャパン株式会社,,株式会社,千葉県,富津市,青木３丁目１６番地３０,,12,226,2930012,,,,,,,2022-01-18,1,,,,,ケーエルシージャパン,0
901,3040001121788,新規,0,2022-01-18,2022-01-18,株式会社リフィックス,,株式会社,千葉県,千葉市中央区,浜野町８９４番地１ステーションプラザ４０３号,,12,101,2600824,,,,,,,2022-01-18,1,,,,,リフィックス,0
902,3040001121805,新規,0,2022-01-18,2022-01-18,株式会社Ｈｏｌｏｍｕａ,,株式会社,千葉県,船橋市,二和東３丁目２３番７１号,,12,204,2740805,,,,,,,2022-01-18,1,,,,,ホロムア,0
903,3040001121879,新規,0,2022-01-18,2022-01-18,株式会社サイエンスフル,,株式会社,千葉県,柏市,若柴１７８番地４柏の葉キャンパス１４８街区２ショップ＆オフィス棟６Ｆ,,12,217,2770871,,,,,,,2022-01-18,1,,,,,サイエンスフル,0
935,3040003019287,新規,0,2022-01-18,2022-01-18,合同会社ＮＡＫＡＴＡファイナンス・ストラテジー,,合同会社,千葉県,船橋市,坪井東２丁目６番１９号,,12,204,2740060,,,,,,,2022-01-18,1,,,,,ナカタファイナンスストラテジー,0
936,3040003019304,新規,0,2022-01-18,2022-01-18,合同会社Ｋｏｒｕ,,合同会社,千葉県,柏市,戸張９６０番地４,,12,217,2770008,,,,,,,2022-01-18,1,,,,,コル,0
937,3040003019312,新規,0,2022-01-18,2022-01-18,合同会社林,,合同会社,千葉県,千葉市中央区,市場町２番１５号,,12,101,2600855,,,,,,,2022-01-18,1,,,,,ハヤシ,0
950,3060003003925,新規,0,2022-01-18,2022-01-18,合同会社ドリームロード道夢,,合同会社,栃木県,那須塩原市,東赤田３８７番地７,,09,213,3292742,,,,,,,2022-01-18,1,,,,,ドリームロードドウム,0
952,3070001038856,新規,0,2022-01-18,2022-01-18,ビックプランニング株式会社,,株式会社,群馬県,高崎市,飯塚町１１０番地３１,,10,202,3700069,,,,,,,2022-01-18,1,,,,,ビックプランニング,0
963,3100001034983,新規,0,2022-01-18,2022-01-18,株式会社ファングル,,株式会社,長野県,松本市,城東２丁目６番１５号,,20,202,3900807,,,,,,,2022-01-18,1,,,,,ファングル,0
964,3100003006361,新規,0,2022-01-18,2022-01-18,合同会社まゆみ,,合同会社,長野県,長野市,大字上ケ屋２４７１番地２４１２,,20,201,3800888,,,,,,,2022-01-18,1,,,,,マユミ,0
975,3120001243244,新規,0,2022-01-18,2022-01-18,株式会社ｗｅｂ　ｈａｃｋ,,株式会社,大阪府,大阪市北区,芝田２丁目８番１１号共栄ビル３Ｆ,,27,127,5300012,,,,,,,2022-01-18,1,,,,,ウェブハック,0
976,3120001243260,新規,0,2022-01-18,2022-01-18,ゆうひ電気株式会社,,株式会社,大阪府,大阪市城東区,成育５丁目２０番６号,,27,118,5360007,,,,,,,2022-01-18,1,,,,,ユウヒデンキ,0
977,3120001243269,新規,0,2022-01-18,2022-01-18,ブリックスジャパン株式会社,,株式会社,大阪府,大阪市北区,堂島浜２丁目２－２８堂島アクシスビル３Ｆ,,27,127,5300004,,,,,,,2022-01-18,1,,,,,ブリックスジャパン,0
978,3120001243293,新規,0,2022-01-18,2022-01-18,ＮＯａ　Ｉｎｆｉｎｉｔｙ株式会社,,株式会社,大阪府,大阪市西区,南堀江１丁目２１番４号ＪＳビル９Ｆ,,27,106,5500015,,,,,,,2022-01-18,1,,,,,ノアインフィニティ,0
985,3120003020963,新規,0,2022-01-18,2022-01-18,合同会社ユニークおおさか,,合同会社,大阪府,大阪市東成区,玉津３丁目１番３号大東ビル８０２号,,27,115,5370023,,,,,,,2022-01-18,1,,,,,ユニークオオサカ,0
986,3120003020971,新規,0,2022-01-18,2022-01-18,合同会社ソラーレ訪問看護ステーション,,合同会社,大阪府,大阪市浪速区,下寺３丁目１０番９号,,27,111,5560001,,,,,,,2022-01-18,1,,,,,ソラーレホウモンカンゴステーション,0
990,3120101064945,新規,0,2022-01-18,2022-01-18,株式会社ハピネスプラス,,株式会社,大阪府,岸和田市,上松町３丁目７番３０号,,27,202,5960827,,,,,,,2022-01-18,1,,,,,ハピネスプラス,0
1003,3140001124509,新規,0,2022-01-18,2022-01-18,株式会社高林工業,,株式会社,兵庫県,尼崎市,若王寺３丁目１２番３９－２号,,28,202,6610974,,,,,,,2022-01-18,1,,,,,タカバヤシコウギョウ,0
1004,3140001124533,新規,0,2022-01-18,2022-01-18,株式会社スターラッシュ,,株式会社,兵庫県,神戸市中央区,磯辺通３丁目２番１７号,,28,110,6510084,,,,,,,2022-01-18,1,,,,,スターラッシュ,0
1005,3140001124541,新規,0,2022-01-18,2022-01-18,株式会社西建,,株式会社,兵庫県,小野市,大島町１６１５番地の２,,28,218,6751334,,,,,,,2022-01-18,1,,,,,ニシケン,0
1006,3140001124574,新規,0,2022-01-18,2022-01-18,株式会社チャルカ・スペース・デザイン,,株式会社,兵庫県,淡路市,楠本３８８番地１,,28,226,6562301,,,,,,,2022-01-18,1,,,,,チャルカスペースデザイン,0
1007,3140001124590,新規,0,2022-01-18,2022-01-18,リーガルプランニング株式会社,,株式会社,兵庫県,南あわじ市,松帆慶野４１８－１,,28,224,6560306,,,,,,,2022-01-18,1,,,,,リーガルプランニング,0
1008,3140001124616,新規,0,2022-01-18,2022-01-18,バイオアライフサイエンスジャパン株式会社,,株式会社,兵庫県,神戸市中央区,港島南町１丁目５番５号,,28,110,6500047,,,,,,,2022-01-18,1,,,,,バイオアライフサイエンスジャパン,0
1009,3140003017231,新規,0,2022-01-18,2022-01-18,ゼイムスター合同会社,,合同会社,兵庫県,神戸市中央区,多聞通２丁目４番４号,,28,110,6500015,,,,,,,2022-01-18,1,,,,,ゼイムスター,0
1018,3170001016950,新規,0,2022-01-18,2022-01-18,株式会社ケアステーション奏,,株式会社,和歌山県,御坊市,塩屋町北塩屋７１４,,30,205,6440025,,,,,,,2022-01-18,1,,,,,ケアステーションカナデ,0
1024,3180001149535,新規,0,2022-01-18,2022-01-18,株式会社ネクステラ,,株式会社,愛知県,名古屋市北区,楠２丁目４１５番地ウエストサイドＴＫＩＩ２０２号,00125435,23,103,4620012,,,,,,,2022-01-18,1,,,,,ネクステラ,0
1025,3180001149576,新規,0,2022-01-18,2022-01-18,株式会社ＨＲＭ,,株式会社,愛知県,名古屋市中区,千代田４丁目１２番１２号,,23,106,4600012,,,,,,,2022-01-18,1,,,,,エイチアールエム,0
1026,3180001149601,新規,0,2022-01-18,2022-01-18,株式会社高旗,,株式会社,愛知県,瀬戸市,高根町１丁目１１６番地の２,,23,204,4890931,,,,,,,2022-01-18,1,,,,,タカハタ,0
1031,3180003023341,新規,0,2022-01-18,2022-01-18,合同会社パートナー,,合同会社,愛知県,津島市,越津町字馬三味５９番地１,,23,208,4960022,,,,,,,2022-01-18,1,,,,,パートナー,0
1032,3180003023382,新規,0,2022-01-18,2022-01-18,合同会社トラストテックス,,合同会社,愛知県,名古屋市緑区,八つ松１丁目１２０－２,,23,114,4580810,,,,,,,2022-01-18,1,,,,,トラストテックス,0
1037,3190001029042,新規,0,2022-01-18,2022-01-18,ときわ薬局株式会社,,株式会社,三重県,伊勢市,常磐１丁目５番１６号,,24,203,5160041,,,,,,,2022-01-18,1,,,,,トキワヤッキョク,0
1041,3190003003879,新規,0,2022-01-18,2022-01-18,合同会社おおきに,,合同会社,三重県,熊野市,井戸町９３８番地,,24,212,5194324,,,,,,,2022-01-18,1,,,,,オオキニ,0
1045,3220001024650,新規,0,2022-01-18,2022-01-18,株式会社ＳＧ　Ｈｏｌｄｉｎｇｓ,,株式会社,石川県,金沢市,出雲町イ２３０番地２－１０４,,17,201,9200056,,,,,,,2022-01-18,1,,,,,エスジーホールディングス,0
1055,3240001059208,新規,0,2022-01-18,2022-01-18,株式会社玲瓏興産,,株式会社,広島県,福山市,高西町３丁目２番２８号,,34,207,7290106,,,,,,,2022-01-18,1,,,,,レイロウコウサン,0
1060,3250001019350,新規,0,2022-01-18,2022-01-18,株式会社スタイリーズコーポレーション,,株式会社,山口県,宇部市,大字小串１７０番地２９,,35,202,7550067,,,,,,,2022-01-18,1,,,,,スタイリーズコーポレーション,0
1061,3250001019359,新規,0,2022-01-18,2022-01-18,ＭＭＴエンジニアリング株式会社,,株式会社,山口県,下関市,阿弥陀寺町７番８号,,35,201,7500003,,,,,,,2022-01-18,1,,,,,エムエムティエンジニアリング,0
1062,3260001036444,新規,0,2022-01-18,2022-01-18,株式会社三和建材,,株式会社,岡山県,倉敷市,三田５５番地１,,33,202,7100001,,,,,,,2022-01-18,1,,,,,サンワケンザイ,0
1066,3280003001568,新規,0,2022-01-18,2022-01-18,合同会社宏歸流創＿庭弘,00125423,合同会社,島根県,浜田市,三隅町室谷１０９７番地３,,32,202,6993303,,,,,,,2022-01-18,1,,,,,コウキリュウソウエンニワヒロ,0
1077,3290003012028,新規,0,2022-01-18,2022-01-18,合同会社ＡＱＵＡ　Ｇｒｏｕｐ,,合同会社,福岡県,福岡市中央区,舞鶴２丁目７番１号３階,,40,133,8100073,,,,,,,2022-01-18,1,,,,,アクアグループ,0
1081,3300001012779,新規,0,2022-01-18,2022-01-18,株式会社大宅自動車,,株式会社,佐賀県,武雄市,朝日町大字甘久４５３番地１,,41,206,8430001,,,,,,,2022-01-18,1,,,,,オオヤジドウシャ,0
1082,3310001017678,新規,0,2022-01-18,2022-01-18,株式会社エステマック,,株式会社,長崎県,長崎市,江川町２８１番地１,,42,201,8500992,,,,,,,2022-01-18,1,,,,,エステマック,0
1083,3310003004261,新規,0,2022-01-18,2022-01-18,合同会社マリソル,,合同会社,長崎県,大村市,東三城町１８－１４,,42,205,8560826,,,,,,,2022-01-18,1,,,,,マリソル,0
1095,3360001029801,新規,0,2022-01-18,2022-01-18,株式会社Ｍｅｔｒｙ,,株式会社,沖縄県,浦添市,港川２丁目１４番７号,,47,208,9012134,,,,,,,2022-01-18,1,,,,,メトリ,0
1119,3462501000925,新規,0,2022-01-18,2022-01-18,株式会社ＡＣＴＹ,,株式会社,北海道,野付郡別海町,上春別１１０番の１１,,01,691,0882725,,,,,,,2022-01-18,1,,,,,アクティー,0
1121,3470001018933,新規,0,2022-01-18,2022-01-18,株式会社Ｘｐｏｒｔ,,株式会社,香川県,坂出市,駒止町１丁目２番２３号,,37,203,7620032,,,,,,,2022-01-18,1,,,,,エクスポート,0
1122,3490001010095,新規,0,2022-01-18,2022-01-18,株式会社フォルチュナ,,株式会社,高知県,高知市,桜井町１丁目１番１７号,,39,201,7800821,,,,,,,2022-01-18,1,,,,,フォルチュナ,0
1125,3700150106399,新規,0,2022-01-18,2021-12-24,ふくしまこども食堂ネットワーク,,その他,福島県,郡山市,富久山町久保田字下河原１９１－１,,07,203,9638071,,,,,,,2021-12-24,1,,,,,フクシマコドモシヨクドウネツトワーク,0
1136,4010001223925,新規,0,2022-01-18,2022-01-18,株式会社ＫＳＴ１,,株式会社,東京都,千代田区,内幸町２丁目１番６号,,13,101,1000011,,,,,,,2022-01-18,1,,,,,ケイエスティーワン,0
1139,4010005034451,新規,0,2022-01-18,2022-01-18,一般財団法人鳳凰フェニックス財団,,その他の設立登記法人,東京都,中央区,銀座６丁目６番１号,,13,102,1040061,,,,,,,2022-01-18,1,,,,,ホウオウフェニックスザイダン,0
1143,4010401164975,新規,0,2022-01-18,2022-01-18,株式会社Ｘ,,株式会社,東京都,港区,六本木５丁目１６番５０号六本木デュープレックスＭ’ｓ４０２,,13,103,1060032,,,,,,,2022-01-18,1,,,,,エックス,0
1144,4010401165008,新規,0,2022-01-18,2022-01-18,カレグ・テクノロジー日本株式会社,,株式会社,東京都,港区,新橋４丁目２１番３号新橋東急ビル３階,,13,103,1050004,,,,,,,2022-01-18,1,,,,,カレグテクノロジージャパン,0
1147,4010403026810,新規,0,2022-01-18,2022-01-18,Ｍ＆Ｂ合同会社,,合同会社,東京都,港区,高輪３丁目２５番２０号ジョイシティ品川１２０１,,13,103,1080074,,,,,,,2022-01-18,1,,,,,エムアンドビー,0
1148,4010403026892,新規,0,2022-01-18,2022-01-18,ＴＨＲＥＥ合同会社,,合同会社,東京都,港区,南青山２丁目２番１５号ウィン青山１３０２,,13,103,1070062,,,,,,,2022-01-18,1,,,,,スリー,0
1153,4010501048335,新規,0,2022-01-18,2022-01-18,株式会社志希,,株式会社,東京都,台東区,清川１丁目１０番１０－８０１号,,13,106,1110022,,,,,,,2022-01-18,1,,,,,シキ,0
1157,4010701042071,新規,0,2022-01-18,2022-01-18,株式会社Ｂｒｉｌｌｉａｎｔ,,株式会社,東京都,品川区,西大井６丁目１４－２クロススクエア西大井Ｃ１,,13,109,1400015,,,,,,,2022-01-18,1,,,,,ブリリアント,0
1159,4010703006066,新規,0,2022-01-18,2022-01-18,ＦＩＲＥＢＩＲＤ合同会社,,合同会社,東京都,品川区,小山３丁目１５番２－２９０９号,,13,109,1420062,,,,,,,2022-01-18,1,,,,,ファイヤーバード,0
1160,4010703006074,新規,0,2022-01-18,2022-01-18,合同会社ＳＰＩＬＤ,,合同会社,東京都,品川区,西五反田２丁目９番７号ドルミ五反田４０７号,,13,109,1410031,,,,,,,2022-01-18,1,,,,,スピルド,0
1162,4010901050106,新規,0,2022-01-18,2022-01-18,株式会社２２,,株式会社,東京都,世田谷区,等々力８丁目５番７号１階,,13,112,1580082,,,,,,,2022-01-18,1,,,,,ドッピオドゥエ,0
1163,4010903007070,新規,0,2022-01-18,2022-01-18,合同会社ＭＵＵＳＵ,,合同会社,東京都,世田谷区,北沢１丁目３２番１８号アドバンスＴ３階,,13,112,1550031,,,,,,,2022-01-18,1,,,,,ミューズ,0
1164,4010903007087,新規,0,2022-01-18,2022-01-18,合同会社ｏｒ,,合同会社,東京都,世田谷区,成城９丁目１９番８号,,13,112,1570066,,,,,,,2022-01-18,1,,,,,オール,0
1173,4011001145127,新規,0,2022-01-18,2022-01-18,株式会社コストイノベーション,,株式会社,東京都,目黒区,碑文谷５丁目１５番１号,,13,110,1520003,,,,,,,2022-01-18,1,,,,,コストイノベーション,0
1181,4011101097499,新規,0,2022-01-18,2022-01-18,タチネングリーンエナジー株式会社,,株式会社,東京都,新宿区,若葉１丁目３番地４３,,13,104,1600011,,,,,,,2022-01-18,1,,,,,タチネングリーンエナジー,0
1182,4011101097516,新規,0,2022-01-18,2022-01-18,信威国際株式会社,,株式会社,東京都,新宿区,歌舞伎町２丁目２５番８号,,13,104,1600021,,,,,,,2022-01-18,1,,,,,シンイコクサイ,0
1183,4011101097557,新規,0,2022-01-18,2022-01-18,株式会社ＳＨＯＷＹＯＵ,,株式会社,東京都,新宿区,新宿７丁目２０番６号大久保マンション,,13,104,1600022,,,,,,,2022-01-18,1,,,,,ショウユウ,0
1186,4011105010094,新規,0,2022-01-18,2022-01-18,弁護士法人長谷川法律事務所,,その他の設立登記法人,東京都,新宿区,新宿１丁目１９番３号エルスタンザ４階,,13,104,1600022,,,,,,,2022-01-18,1,,,,,ハセガワホウリツジムショ,0
1189,4011201023561,新規,0,2022-01-18,2022-01-18,株式会社エンセリオ,,株式会社,東京都,中野区,中野５丁目６０番４号,,13,114,1640001,,,,,,,2022-01-18,1,,,,,エンセリオ,0
1193,4011301027495,新規,0,2022-01-18,2022-01-18,セントルークス株式会社,,株式会社,東京都,杉並区,永福３丁目４３番１６号,,13,115,1680064,,,,,,,2022-01-18,1,,,,,セントルークス,0
1196,4011501027675,新規,0,2022-01-18,2022-01-18,株式会社ＡＹＫＵＴ,,株式会社,東京都,荒川区,西日暮里６丁目４８番７号グラン，フォークスＩ３０１,00125433,13,118,1160013,,,,,,,2022-01-18,1,,,,,アイクット,0
1197,4011503005043,新規,0,2022-01-18,2022-01-18,Ｂａｒａｌ合同会社,,合同会社,東京都,荒川区,南千住３丁目１１番１１－２０３号,,13,118,1160003,,,,,,,2022-01-18,1,,,,,バラル,0
1203,4011801040196,新規,0,2022-01-18,2022-01-18,ほけんリンク株式会社,,株式会社,東京都,足立区,西新井栄町１丁目１６番２－９１２号,,13,121,1230843,,,,,,,2022-01-18,1,,,,,ホケンリンク,0
1204,4011801040205,新規,0,2022-01-18,2022-01-18,株式会社矢内工業,,株式会社,東京都,足立区,東和５丁目４番１４号,,13,121,1200003,,,,,,,2022-01-18,1,,,,,ヤナイコウギョウ,0
1219,4012801021343,新規,0,2022-01-18,2022-01-18,高橋起業株式会社,00125430,株式会社,東京都,日野市,大字石田４２９番地の９,,13,212,1910021,,,,,,,2022-01-18,1,,,,,タカハシキギョウ,0
1226,4013301048562,新規,0,2022-01-18,2022-01-18,株式会社サイドキック,,株式会社,東京都,豊島区,北大塚２丁目２１番３－１００２号,,13,116,1700004,,,,,,,2022-01-18,1,,,,,サイドキック,0
1227,4013305003299,新規,0,2022-01-18,2022-01-18,ＮＰＯ法人テラコヤ,,その他の設立登記法人,東京都,豊島区,西池袋２丁目９番９号グリーンシーダ１０２,,13,116,1710021,,,,,,,2022-01-18,1,,,,,テラコヤ,0
1232,4020001144699,新規,0,2022-01-18,2022-01-18,株式会社明伸工業,,株式会社,神奈川県,横浜市鶴見区,本町通４丁目１６９番地４ビッグ．ガーデン４０１号,,14,101,2300048,,,,,,,2022-01-18,1,,,,,メイシンコウギョウ,0
1233,4020001144765,新規,0,2022-01-18,2022-01-18,株式会社ＷＡＴＴ,,株式会社,神奈川県,横浜市旭区,二俣川１丁目５番地２８二俣川第３ビル４階,,14,112,2410821,,,,,,,2022-01-18,1,,,,,ワット,0
1236,4020003021129,新規,0,2022-01-18,2022-01-18,ＬＩＮＫ合同会社,,合同会社,神奈川県,川崎市宮前区,有馬４丁目３番４－３０４号,,14,136,2160003,,,,,,,2022-01-18,1,,,,,リンク,0
1240,4021001074944,新規,0,2022-01-18,2022-01-18,株式会社櫻い,,株式会社,神奈川県,藤沢市,大庭５０１２番地の２１,,14,205,2510861,,,,,,,2022-01-18,1,,,,,,0
1241,4021001074985,新規,0,2022-01-18,2022-01-18,株式会社Ｄｉｇｇｅｅｒｓ,,株式会社,神奈川県,藤沢市,羽鳥１丁目１番１０～２１５号,,14,205,2510056,,,,,,,2022-01-18,1,,,,,ディガーズ,0
1247,4021003011292,新規,0,2022-01-18,2022-01-18,合同会社カエル隊,,合同会社,神奈川県,綾瀬市,吉岡２７２８,,14,218,2521124,,,,,,,2022-01-18,1,,,,,カエルタイ,0
1248,4021003011318,新規,0,2022-01-18,2022-01-18,合同会社Ｒｈｅａ,,合同会社,神奈川県,藤沢市,辻堂元町６丁目２５番２３号,,14,205,2510043,,,,,,,2022-01-18,1,,,,,レア,0
1249,4021005012421,新規,0,2022-01-18,2022-01-18,特定非営利活動法人はだの大日堂保存会,,その他の設立登記法人,神奈川県,秦野市,蓑毛６７４番地,,14,211,2570021,,,,,,,2022-01-18,1,,,,,,0
1256,4030001146372,新規,0,2022-01-18,2022-01-18,株式会社鳥塚電器,,株式会社,埼玉県,大里郡寄居町,大字鉢形１７０３番地１０,,11,408,3691224,,,,,,,2022-01-18,1,,,,,トリヅカデンキ,0
1257,4030001146389,新規,0,2022-01-18,2022-01-18,株式会社栄七,,株式会社,埼玉県,本庄市,栄１丁目１番３６号,,11,211,3670046,,,,,,,2022-01-18,1,,,,,エイシチ,0
1259,4030003018636,新規,0,2022-01-18,2022-01-18,合同会社サワディーハウス,,合同会社,埼玉県,白岡市,西７丁目９－１７,,11,246,3490205,,,,,,,2022-01-18,1,,,,,サワディーハウス,0
1264,4040001009834,新規,0,2022-01-18,2022-01-18,株式会社三愛インテリア,,株式会社,千葉県,千葉市中央区,南町１丁目１２番１７号,,12,101,2600842,,,,,,,2022-01-18,1,,,,,,0
1286,4040001121614,新規,0,2022-01-18,2022-01-18,株式会社ＷＥＬＬ,,株式会社,千葉県,柏市,松葉町３丁目３番地１９,,12,217,2770827,,,,,,,2022-01-18,1,,,,,ウェル,0
1287,4040001121738,新規,0,2022-01-18,2022-01-18,株式会社ＬＵＮＡＶＥＬ,,株式会社,千葉県,松戸市,南花島中町２５０番地の７サンクレイドル松戸４０４号,,12,207,2710065,,,,,,,2022-01-18,1,,,,,ルナベル,0
1288,4040001121762,新規,0,2022-01-18,2022-01-18,株式会社Ｒｅｂｅａｔ,,株式会社,千葉県,四街道市,つくし座３丁目１番７号,,12,228,2840026,,,,,,,2022-01-18,1,,,,,リビート,0
1289,4040001121787,新規,0,2022-01-18,2022-01-18,株式会社ＢＨＣ,,株式会社,千葉県,印西市,中央南２丁目２番地２－９０９号,,12,231,2701340,,,,,,,2022-01-18,1,,,,,ビーエイチシー,0
1327,4040003019261,新規,0,2022-01-18,2022-01-18,Ｋ．Ｌｉｎｋ合同会社,,合同会社,千葉県,市川市,若宮１丁目５番１２号,,12,203,2720812,,,,,,,2022-01-18,1,,,,,ケーリンク,0
1328,4040003019286,新規,0,2022-01-18,2022-01-18,合同会社ＲＩＳＥ,,合同会社,千葉県,千葉市若葉区,野呂町３４０番地,,12,104,2650053,,,,,,,2022-01-18,1,,,,,ライズ,0
1340,4050001050481,新規,0,2022-01-18,2022-01-18,株式会社ＲＩＳＥ,,株式会社,茨城県,常総市,水海道宝町２７５８番地９,,08,211,3030023,,,,,,,2022-01-18,1,,,,,ライズ,0
1349,4060001034491,新規,0,2022-01-18,2022-01-18,三方工業株式会社,,株式会社,栃木県,那須郡那珂川町,健武１５２９－１,,09,411,3240608,,,,,,,2022-01-18,1,,,,,サンポウコウギョウ,0
1350,4060001034500,新規,0,2022-01-18,2022-01-18,ＴＵ警備株式会社,,株式会社,栃木県,宇都宮市,宮原４丁目４番５４号,,09,201,3200835,,,,,,,2022-01-18,1,,,,,ティユーケイビ,0
1351,4070001038855,新規,0,2022-01-18,2022-01-18,株式会社８８４ＴＥＣ,,株式会社,群馬県,桐生市,境野町７丁目１７７９番地の７,,10,203,3760002,,,,,,,2022-01-18,1,,,,,ハヤシテック,0
1358,4090003002023,新規,0,2022-01-18,2022-01-18,マタニティリープ合同会社,,合同会社,山梨県,甲府市,大手１丁目４番８号,,19,201,4000015,,,,,,,2022-01-18,1,,,,,マタニティリープ,0
1360,4100001034982,新規,0,2022-01-18,2022-01-18,株式会社フォルトゥーナ,,株式会社,長野県,上田市,真田町本原５０３番地３,,20,203,3862202,,,,,,,2022-01-18,1,,,,,フォルトゥーナ,0
1362,4100005012811,新規,0,2022-01-18,2022-01-18,一般社団法人北アルプスドローン協会,,その他の設立登記法人,長野県,北安曇郡小谷村,大字千国乙６７３１番地２,,20,486,3999422,,,,,,,2022-01-18,1,,,,,キタアルプスドローンキョウカイ,0
1364,4110001036375,新規,0,2022-01-18,2022-01-18,株式会社ＣＯＮＣＥＮＴ,,株式会社,新潟県,南魚沼市,小栗山２２１番地,,15,226,9496636,,,,,,,2022-01-18,1,,,,,コンセント,0
1388,4120001243243,新規,0,2022-01-18,2022-01-18,株式会社野口太郎プロジェクト,,株式会社,大阪府,大阪市中央区,備後町２丁目４番１３号３Ｆ,,27,128,5410051,,,,,,,2022-01-18,1,,,,,ノグチタロウプロジェクト,0
1389,4120001243251,新規,0,2022-01-18,2022-01-18,株式会社ドエル,,株式会社,大阪府,大阪市大正区,三軒家西２丁目１９番１号,,27,108,5510001,,,,,,,2022-01-18,1,,,,,ドエル,0
1391,4120003020970,新規,0,2022-01-18,2022-01-18,合同会社ｈａｌｌｙ,,合同会社,大阪府,大阪市中央区,久太郎町１丁目５番３１号リアライズ堺筋本町ビル６０５,,27,128,5410056,,,,,,,2022-01-18,1,,,,,ハリー,0
1394,4120101064944,新規,0,2022-01-18,2022-01-18,株式会社Ｊａｐａｎ　Ｒｅｇｅｎｅｒａｔｉｏｎ,,株式会社,大阪府,堺市中区,堀上町１０８２番地（３０５号）,,27,142,5998261,,,,,,,2022-01-18,1,,,,,ジャパンジェネレーション,0
1409,4140001124508,新規,0,2022-01-18,2022-01-18,株式会社共創,,株式会社,兵庫県,加古川市,平岡町高畑５３８番地の１,,28,210,6750103,,,,,,,2022-01-18,1,,,,,キョウソウ,0
1410,4140001124516,新規,0,2022-01-18,2022-01-18,株式会社Ｄｅｆｉ,,株式会社,兵庫県,小野市,神明町４１７番地の７,,28,218,6751331,,,,,,,2022-01-18,1,,,,,ディフィ,0
1411,4140001124549,新規,0,2022-01-18,2022-01-18,株式会社ｒｈｉｚｏｍｅ　ｃａｒｅ,,株式会社,兵庫県,明石市,太寺３丁目３番４号,,28,203,6730845,,,,,,,2022-01-18,1,,,,,リゾームケア,0
1412,4140001124573,新規,0,2022-01-18,2022-01-18,松井アセット管理株式会社,,株式会社,兵庫県,加古郡播磨町,二子１０５番地,,28,382,6750162,,,,,,,2022-01-18,1,,,,,マツイアセットカンリ,0
1413,4140003017230,新規,0,2022-01-18,2022-01-18,合同会社Ｓｅｘｙ　Ｓｍｉｌｅ,,合同会社,兵庫県,宍粟市,山崎町矢原１９１番地１１,,28,227,6712526,,,,,,,2022-01-18,1,,,,,セクシースマイル,0
1414,4140005025999,新規,0,2022-01-18,2022-01-18,一般社団法人五福会,,その他の設立登記法人,兵庫県,尼崎市,立花町３丁目６番１２号,,28,202,6610025,,,,,,,2022-01-18,1,,,,,ゴフクカイ,0
1415,4150001025259,新規,0,2022-01-18,2022-01-18,株式会社心建設,,株式会社,奈良県,大和高田市,中三倉堂１丁目６番３０－１号,,29,202,6350045,,,,,,,2022-01-18,1,,,,,ココロケンセツ,0
1418,4170003001677,新規,0,2022-01-18,2022-01-18,合同会社シェアローカル,,合同会社,和歌山県,西牟婁郡すさみ町,周参見２７１８番地,,30,406,6492621,,,,,,,2022-01-18,1,,,,,シェアローカル,0
1419,4170005006939,新規,0,2022-01-18,2022-01-18,一般社団法人和歌山イノベーションベース,,その他の設立登記法人,和歌山県,和歌山市,吉田３８６番地和歌山プラザビル４０３号,,30,201,6408343,,,,,,,2022-01-18,1,,,,,ワカヤマイノベーションベース,0
1427,4180001149492,新規,0,2022-01-18,2022-01-18,なごみ建設株式会社,,株式会社,愛知県,名古屋市緑区,鳴海町字古鳴海１０５番地の２,,23,114,4580801,,,,,,,2022-01-18,1,,,,,ナゴミケンセツ,0
1428,4180001149534,新規,0,2022-01-18,2022-01-18,株式会社Ｒｅｉｎ　Ｌｉｃｈｔ,,株式会社,愛知県,名古屋市南区,粕畠町１丁目１０番地の１,,23,112,4570052,,,,,,,2022-01-18,1,,,,,ラインリヒト,0
1429,4180001149550,新規,0,2022-01-18,2022-01-18,イチテルホールディングス株式会社,,株式会社,愛知県,瀬戸市,高根町１丁目２１５番地,,23,204,4890931,,,,,,,2022-01-18,1,,,,,イチテルホールディングス,0
1430,4180001149591,新規,0,2022-01-18,2022-01-18,すまいる不動産販売株式会社,,株式会社,愛知県,日進市,五色園２丁目２８０３番地２,,23,230,4700105,,,,,,,2022-01-18,1,,,,,スマイルフドウサンハンバイ,0
1434,4180003023381,新規,0,2022-01-18,2022-01-18,合同会社ＲＯＳＳＯ,,合同会社,愛知県,名古屋市守山区,幸心４丁目１１６番地の４,,23,113,4630079,,,,,,,2022-01-18,1,,,,,ロッソ,0
1437,4180301035847,新規,0,2022-01-18,2022-01-18,神創建株式会社,,株式会社,愛知県,豊田市,平和町３丁目７０番地１サンシティ平和Ｂ２０２号,,23,211,4710821,,,,,,,2022-01-18,1,,,,,シンソウケン,0
1445,4190001029041,新規,0,2022-01-18,2022-01-18,株式会社さくら会館,,株式会社,三重県,松阪市,久保町１９０５番地５,,24,204,5150044,,,,,,,2022-01-18,1,,,,,サクラカイカン,0
1447,4190003003878,新規,0,2022-01-18,2022-01-18,合同会社山大,,合同会社,三重県,三重郡菰野町,大字菰野５１８６番地２,,24,341,5101233,,,,,,,2022-01-18,1,,,,,ヤマダイ,0
1450,4200001039666,新規,0,2022-01-18,2022-01-18,御庭番株式会社,,株式会社,岐阜県,関市,小屋名１３０２番地３,,21,205,5013941,,,,,,,2022-01-18,1,,,,,オニワバン,0
1457,4220003003189,新規,0,2022-01-18,2022-01-18,ＲＯＺＯ合同会社,,合同会社,石川県,金沢市,三ツ屋町ロ４８番地４,,17,201,9200214,,,,,,,2022-01-18,1,,,,,ロゾ,0
1460,4240001059215,新規,0,2022-01-18,2022-01-18,株式会社Ａｃｔｉｖｅ,,株式会社,広島県,三次市,君田町泉吉田１９０番地の２,,34,209,7280405,,,,,,,2022-01-18,1,,,,,アクティブ,0
1463,4240003005464,新規,0,2022-01-18,2022-01-18,合同会社ジーナ,,合同会社,広島県,廿日市市,宮島口東３丁目１０番８号,,34,213,7390414,,,,,,,2022-01-18,1,,,,,ジーナ,0
1464,4240005015321,新規,0,2022-01-18,2022-01-18,一般社団法人バイオＤＸ推進機構,,その他の設立登記法人,広島県,東広島市,鏡山３丁目１０番２３号,,34,212,7390046,,,,,,,2022-01-18,1,,,,,バイオディーエックススイシンキコウ,0
1469,4260001036451,新規,0,2022-01-18,2022-01-18,株式会社Ｔｒｕｓｔ　Ａｓｓｅｔｓ,,株式会社,岡山県,岡山市北区,東島田町２丁目６－４－８０１,,33,101,7000983,,,,,,,2022-01-18,1,,,,,トラストアセッツ,0
1471,4270001008441,新規,0,2022-01-18,2022-01-18,株式会社山陰中央石材,,株式会社,鳥取県,米子市,加茂町２丁目１１２番地第８ＭＪビル１０２,,31,202,6830823,,,,,,,2022-01-18,1,,,,,サンインチュウオウセキザイ,0
1473,4280001008606,新規,0,2022-01-18,2022-01-18,株式会社ウエヤマホールディングス,,株式会社,島根県,松江市,鹿島町御津５３９番地,,32,201,6900411,,,,,,,2022-01-18,1,,,,,ウエヤマホールディングス,0
1474,4280003001567,新規,0,2022-01-18,2022-01-18,合同会社ひだまり,,合同会社,島根県,松江市,下東川津町１２００番地５,,32,201,6900822,,,,,,,2022-01-18,1,,,,,ヒダマリ,0
1479,4290001095998,新規,0,2022-01-18,2022-01-18,エヌジンゼ株式会社,,株式会社,福岡県,福岡市中央区,唐人町１丁目６番１０号,,40,133,8100063,,,,,,,2022-01-18,1,,,,,エヌジンゼ,0
1480,4290001096030,新規,0,2022-01-18,2022-01-18,味珍味株式会社,,株式会社,福岡県,福岡市西区,愛宕南１丁目５番１－２０３号アーバンパレス愛宕フレス,,40,135,8190007,,,,,,,2022-01-18,1,,,,,アジチンミ,0
1483,4290003012027,新規,0,2022-01-18,2022-01-18,ＨＮＧ．事業サポート合同会社,,合同会社,福岡県,筑後市,大字山ノ井６６８番地１０,,40,211,8330031,,,,,,,2022-01-18,1,,,,,エイチエヌジージギョウサポート,0
1488,4290801028190,新規,0,2022-01-18,2022-01-18,株式会社ＳＰ,,株式会社,福岡県,北九州市戸畑区,中原東３丁目１１番８号,,40,105,8040012,,,,,,,2022-01-18,1,,,,,エスピー,0
1491,4310003004260,新規,0,2022-01-18,2022-01-18,合同会社ホウユウ,,合同会社,長崎県,長崎市,宝町５番５号,,42,201,8500045,,,,,,,2022-01-18,1,,,,,ホウユウ,0
1503,4390001016762,新規,0,2022-01-18,2022-01-18,株式会社芝田建設,,株式会社,山形県,東田川郡三川町,大字押切新田字豊秋２５６番地４,,06,426,9971321,,,,,,,2022-01-18,1,,,,,シバタケンセツ,0
1505,4430001085786,新規,0,2022-01-18,2022-01-18,株式会社ウトナイの森,,株式会社,北海道,苫小牧市,ウトナイ南６丁目８番４０号,,01,213,0591307,,,,,,,2022-01-18,1,,,,,ウトナイノモリ,0
1506,4430003013522,新規,0,2022-01-18,2022-01-18,Ｙ’ｓリテイリング合同会社,,合同会社,北海道,札幌市西区,山の手五条４丁目１番２４号,,01,107,0630005,,,,,,,2022-01-18,1,,,,,ワイズリテイリング,0
1507,4430005014361,新規,0,2022-01-18,2022-01-18,社会保険労務士法人ＭＩＫＡＴＡ,,その他の設立登記法人,北海道,札幌市中央区,北四条西１７丁目１番１０号グリーンヒルズ２Ｆ,,01,101,0600004,,,,,,,2022-01-18,1,,,,,ミカタ,0
1522,4470001018932,新規,0,2022-01-18,2022-01-18,株式会社ＺＰＣ,,株式会社,香川県,三豊市,仁尾町仁尾乙２７４番地１２,,37,208,7691404,,,,,,,2022-01-18,1,,,,,ゼットピーシー,0
1526,4500001023945,新規,0,2022-01-18,2022-01-18,株式会社水口建設工業,,株式会社,愛媛県,今治市,中寺７６２番地４,,38,202,7940840,,,,,,,2022-01-18,1,,,,,ミズグチケンセツコウギョウ,0
1527,4500003002757,新規,0,2022-01-18,2022-01-18,合同会社ＡＳＨＩＴＡ,,合同会社,愛媛県,松山市,祇園町１２番１４号,,38,201,7900965,,,,,,,2022-01-18,1,,,,,アシタ,0
1530,4700150106497,新規,0,2022-01-18,2022-01-05,集団疎開,,その他,大阪府,大阪市中央区,谷町８丁目１－５２オリーブハイツ谷町４０９,,27,128,5420012,,,,,,,2022-01-05,1,,,,,シユウダンソカイ,0
1545,5010001223981,新規,0,2022-01-18,2022-01-18,ＡＲＹＫＡＮ株式会社,,株式会社,東京都,中央区,新富１丁目１５番３号ジパングアウトソーシングサービス内,,13,102,1040041,,,,,,,2022-01-18,1,,,,,アリカン,0
1547,5010003036738,新規,0,2022-01-18,2022-01-18,Ｍｒ．Ｆｌｏｗ合同会社,,合同会社,東京都,千代田区,九段南１丁目５番６号りそな九段ビル５Ｆ・ＫＳフロア,,13,101,1020074,,,,,,,2022-01-18,1,,,,,ミスターフロー,0
1549,5010005034450,新規,0,2022-01-18,2022-01-18,行政書士法人東京総合行政事務所,,その他の設立登記法人,東京都,千代田区,岩本町３丁目１番５号スミトー神田岩本町ビル９階９０１号室,,13,101,1010032,,,,,,,2022-01-18,1,,,,,トウキョウソウゴウギョウセイジムショ,0
1555,5010401164834,新規,0,2022-01-18,2022-01-18,Ｆｉｇｍａ　Ｊａｐａｎ株式会社,,株式会社,東京都,港区,元麻布３丁目１番６号,,13,103,1060046,,,,,,,2022-01-18,1,,,,,フィグマジャパン,0
1556,5010401164891,新規,0,2022-01-18,2022-01-18,Ｊｅｓｓｙ＆Ｃｏ．株式会社,,株式会社,東京都,港区,六本木３丁目３番５号橋本コーポ３階,,13,103,1060032,,,,,,,2022-01-18,1,,,,,ジェシーアンドコー,0
1557,5010401164909,新規,0,2022-01-18,2022-01-18,ＳＴＥＭＣＥＬＬ＆Ｃｏ．株式会社,,株式会社,東京都,港区,赤坂８丁目５番４０号,,13,103,1070052,,,,,,,2022-01-18,1,,,,,ステムセルアンドカンパニー,0
1558,5010401164925,新規,0,2022-01-18,2022-01-18,株式会社ユニキャスト,,株式会社,東京都,港区,北青山２丁目７－１３プラセオ青山ビル３階,,13,103,1070061,,,,,,,2022-01-18,1,,,,,ユニキャスト,0
1559,5010401164933,新規,0,2022-01-18,2022-01-18,スターシャイン株式会社,,株式会社,東京都,港区,三田４丁目７番２６－９１５号,,13,103,1080073,,,,,,,2022-01-18,1,,,,,スターシャイン,0
1560,5010401164958,新規,0,2022-01-18,2022-01-18,アライモビリティ株式会社,,株式会社,東京都,港区,浜松町２丁目２番１５号浜松町ダイヤビル２階,,13,103,1050013,,,,,,,2022-01-18,1,,,,,アライモビリティ,0
1561,5010401164974,新規,0,2022-01-18,2022-01-18,もじゃもじゃ株式会社,,株式会社,東京都,港区,元麻布３丁目１１番１２号,,13,103,1060046,,,,,,,2022-01-18,1,,,,,モジャモジャ,0
1562,5010401165015,新規,0,2022-01-18,2022-01-18,株式会社陽光開発,,株式会社,東京都,港区,六本木６丁目１０番１号六本木ヒルズ森タワー１５階,,13,103,1060032,,,,,,,2022-01-18,1,,,,,ヨウコウカイハツ,0
1563,5010401165023,新規,0,2022-01-18,2022-01-18,まといシステム株式会社,,株式会社,東京都,港区,東新橋２丁目７番３号昭和アステック１号館,,13,103,1050021,,,,,,,2022-01-18,1,,,,,マトイシステム,0
1565,5010403026859,新規,0,2022-01-18,2022-01-18,合同会社アークウェルネス,,合同会社,東京都,港区,南青山２丁目２番１５号,,13,103,1070062,,,,,,,2022-01-18,1,,,,,アークウェルネス,0
1567,5010501048334,新規,0,2022-01-18,2022-01-18,株式会社Ｋｌａｍｍｅｒ,,株式会社,東京都,台東区,上野３丁目１４番２号ＵｅｎｏＹｏｕｒ２ｎｄ,,13,106,1100005,,,,,,,2022-01-18,1,,,,,クラマー,0
1568,5010701042079,新規,0,2022-01-18,2022-01-18,株式会社救急１１０番,,株式会社,東京都,品川区,荏原２丁目１０番２－１０１号,,13,109,1420063,,,,,,,2022-01-18,1,,,,,キュウキュウヒャクトウバン,0
1569,5010701042095,新規,0,2022-01-18,2022-01-18,株式会社フルハウス,,株式会社,東京都,品川区,東品川４丁目７番１号４０２,,13,109,1400002,,,,,,,2022-01-18,1,,,,,フルハウス,0
1570,5010703006049,新規,0,2022-01-18,2022-01-18,キセノンコーポレーション合同会社,,合同会社,東京都,品川区,北品川４丁目５番１６号,,13,109,1400001,,,,,,,2022-01-18,1,,,,,キセノンコーポレーション,0
1571,5010703006065,新規,0,2022-01-18,2022-01-18,合同会社阿結ＨＯＭＥ,,合同会社,東京都,品川区,大井７丁目１３－４,,13,109,1400014,,,,,,,2022-01-18,1,,,,,アユイホーム,0
1580,5011001145092,新規,0,2022-01-18,2022-01-18,ＭＮ　ＬＩＦＥ株式会社,,株式会社,東京都,渋谷区,富ヶ谷１丁目１９番２号ＬｕｎａＲｏｓｓａ４Ｃ,,13,113,1510063,,,,,,,2022-01-18,1,,,,,エムエヌライフ,0
1582,5011003013999,新規,0,2022-01-18,2022-01-18,合同会社ＢＲＡＣＫＥＴＳ,,合同会社,東京都,渋谷区,神山町１３番１３号,,13,113,1500047,,,,,,,2022-01-18,1,,,,,ブラケッツ,0
1584,5011103011374,新規,0,2022-01-18,2022-01-18,合同会社ヒツジ,,合同会社,東京都,新宿区,赤城元町２番８号,,13,104,1620817,,,,,,,2022-01-18,1,,,,,ヒツジ,0
1593,5011301027494,新規,0,2022-01-18,2022-01-18,株式会社ワイズカンパニー,,株式会社,東京都,杉並区,高円寺南１丁目７番１０号,,13,115,1660003,,,,,,,2022-01-18,1,,,,,ワイズカンパニー,0
1595,5011503005042,新規,0,2022-01-18,2022-01-18,ジャパングリーンパワー合同会社,,合同会社,東京都,荒川区,西尾久６丁目１３番６号Ａ１０３,,13,118,1160011,,,,,,,2022-01-18,1,,,,,ジャパングリーンパワー,0
1596,5011601025669,新規,0,2022-01-18,2022-01-18,株式会社ＹＯＫＯＹＡＭＡ,,株式会社,東京都,練馬区,高野台１丁目１５番２１号,,13,120,1770033,,,,,,,2022-01-18,1,,,,,ヨコヤマ,0
1597,5011703003044,新規,0,2022-01-18,2022-01-18,合同会社デイハウスうりまだん,,合同会社,東京都,江戸川区,中央１丁目１１番２号,,13,123,1320021,,,,,,,2022-01-18,1,,,,,デイハウスウリマダン,0
1601,5011801040204,新規,0,2022-01-18,2022-01-18,Ｂｅｅｒ　Ｓｔａｒ株式会社,,株式会社,東京都,足立区,綾瀬２丁目１０番２２号晟幸ビル１０１,,13,121,1200005,,,,,,,2022-01-18,1,,,,,ビアスター,0
1602,5011801040212,新規,0,2022-01-18,2022-01-18,株式会社ビーハート,,株式会社,東京都,足立区,千住１丁目８番８号スイシンビル４階,,13,121,1200034,,,,,,,2022-01-18,1,,,,,ビーハート,0
1620,5013101008831,新規,0,2022-01-18,2022-01-18,株式会社うえだ,,株式会社,東京都,青梅市,黒沢２丁目１０５２番地８,,13,205,1980005,,,,,,,2022-01-18,1,,,,,ウエダ,0
1636,5020001144822,新規,0,2022-01-18,2022-01-18,株式会社ａ．ｄ．ｐ,,株式会社,神奈川県,横浜市鶴見区,駒岡４丁目３０番４９号,,14,101,2300071,,,,,,,2022-01-18,1,,,,,アデペ,0
1637,5020001144847,新規,0,2022-01-18,2022-01-18,我喜海運株式会社,,株式会社,神奈川県,横浜市戸塚区,舞岡町３５５３番地１,,14,110,2440813,,,,,,,2022-01-18,1,,,,,ワレキカイウン,0
1642,5021001074984,新規,0,2022-01-18,2022-01-18,株式会社あさかぜ,,株式会社,神奈川県,相模原市南区,相模台６丁目１６番９号ダイギンビル２０２,,14,153,2520321,,,,,,,2022-01-18,1,,,,,アサカゼ,0
1652,5030001146371,新規,0,2022-01-18,2022-01-18,株式会社Ｍｕｓｃｌｅ・ＡＣ,,株式会社,埼玉県,さいたま市西区,大字島根７１０番地１８,,11,101,3310054,,,,,,,2022-01-18,1,,,,,マッスルエーシー,0
1653,5030001146396,新規,0,2022-01-18,2022-01-18,株式会社クロス,,株式会社,埼玉県,草加市,柿木町６８２番地１,,11,221,3400001,,,,,,,2022-01-18,1,,,,,クロス,0
1654,5030001146413,新規,0,2022-01-18,2022-01-18,株式会社ケイズプロ,,株式会社,埼玉県,八潮市,大瀬６丁目９番地９,,11,234,3400822,,,,,,,2022-01-18,1,,,,,ケイズプロ,0
1680,5040001121753,新規,0,2022-01-18,2022-01-18,株式会社栄和,,株式会社,千葉県,柏市,逆井藤ノ台２８番地の６,,12,217,2770041,,,,,,,2022-01-18,1,,,,,エイワ,0
1681,5040001121761,新規,0,2022-01-18,2022-01-18,株式会社潮拓技建,,株式会社,千葉県,野田市,大殿井字長割３７１番地１１３,,12,208,2780017,,,,,,,2022-01-18,1,,,,,シオタクギケン,0
1682,5040001121778,新規,0,2022-01-18,2022-01-18,株式会社東葉社,,株式会社,千葉県,船橋市,二和東１丁目９番１号,,12,204,2740805,,,,,,,2022-01-18,1,,,,,トウヨウシャ,0
1683,5040001121803,新規,0,2022-01-18,2022-01-18,株式会社ｓａｌｏｎ,,株式会社,千葉県,千葉市若葉区,若松町９７７番地１０グランドステージ・コウ２０８号,,12,104,2640021,,,,,,,2022-01-18,1,,,,,サロン,0
1709,5040003019277,新規,0,2022-01-18,2022-01-18,合同会社新生リサイクル,,合同会社,千葉県,柏市,かやの町２番２５号,,12,217,2770846,,,,,,,2022-01-18,1,,,,,シンセイリサイクル,0
1710,5040003019319,新規,0,2022-01-18,2022-01-18,ファイナンスマネイジメント合同会社,,合同会社,千葉県,浦安市,当代島２丁目１４－４８,,12,227,2790001,,,,,,,2022-01-18,1,,,,,ファイナンスマネイジメント,0
1715,5060001034466,新規,0,2022-01-18,2022-01-18,株式会社ｂｅａｔ　ｓｃｏｒｅ,,株式会社,栃木県,日光市,塩野室町１８９５番地４０,,09,206,3212351,,,,,,,2022-01-18,1,,,,,ビートスコアー,0
1716,5060001034490,新規,0,2022-01-18,2022-01-18,楽山工房株式会社,,株式会社,栃木県,宇都宮市,下小池町３６６番地１４３,,09,201,3212105,,,,,,,2022-01-18,1,,,,,ガクサンコウボウ,0
1717,5060001034499,新規,0,2022-01-18,2022-01-18,ＵＳＭＡＮ　ＴＲＡＤＩＮＧ株式会社,,株式会社,栃木県,小山市,大字横倉新田１７２番地５４,,09,208,3230819,,,,,,,2022-01-18,1,,,,,ウスマントレーディング,0
1720,5070001038854,新規,0,2022-01-18,2022-01-18,株式会社ブライトフーズ,,株式会社,群馬県,伊勢崎市,西久保町２丁目１２７番地３１,,10,204,3792204,,,,,,,2022-01-18,1,,,,,ブライトフーズ,0
1729,5100001034981,新規,0,2022-01-18,2022-01-18,株式会社Ｎｏｂ,,株式会社,長野県,上田市,下之郷８１３番地８１,,20,203,3861211,,,,,,,2022-01-18,1,,,,,ノブ,0
1735,5110001036366,新規,0,2022-01-18,2022-01-18,株式会社エスクラス,,株式会社,新潟県,長岡市,西千手１丁目１番１号,,15,202,9400086,,,,,,,2022-01-18,1,,,,,エスクラス,0
1750,5120001243242,新規,0,2022-01-18,2022-01-18,株式会社野口太郎プランニング,,株式会社,大阪府,大阪市北区,曾根崎新地１丁目３番１号大橋ビル,,27,127,5300002,,,,,,,2022-01-18,1,,,,,ノグチタロウプランニング,0
1751,5120001243250,新規,0,2022-01-18,2022-01-18,株式会社ＳＩＫＩ,,株式会社,大阪府,大阪市福島区,福島７丁目２１番１４号フェスタ２Ｆ,,27,103,5530003,,,,,,,2022-01-18,1,,,,,シキ,0
1752,5120001243267,新規,0,2022-01-18,2022-01-18,株式会社Ｆａｍｉｌｙ　Ｄｅｓｉｇｎ　Ｍ,,株式会社,大阪府,守口市,来迎町３番９号,,27,209,5700029,,,,,,,2022-01-18,1,,,,,ファミリーデザインエム,0
1754,5120003020986,新規,0,2022-01-18,2022-01-18,ユーファンド合同会社,,合同会社,大阪府,大阪市北区,大淀北１丁目６番２１－１７２０号,,27,127,5310077,,,,,,,2022-01-18,1,,,,,ユーファンド,0
1755,5120005022709,新規,0,2022-01-18,2022-01-18,一般社団法人日本女性煌き推進協議会,,その他の設立登記法人,大阪府,大阪市中央区,淡路町２丁目５番８号船場ビルディング１０７,,27,128,5410047,,,,,,,2022-01-18,1,,,,,イパンニホンジョセイキラメキスイシンキョウギカイ,0
1758,5120101064968,新規,0,2022-01-18,2022-01-18,株式会社グレイスビューティーラボ,,株式会社,大阪府,南河内郡河南町,大字寛弘寺１７９－１０,,27,382,5850035,,,,,,,2022-01-18,1,,,,,グレイスビューティーラボ,0
1766,5120901045465,新規,0,2022-01-18,2022-01-18,株式会社スタジオＤ＆Ｈ,,株式会社,大阪府,箕面市,新稲３丁目３番２５号,,27,220,5620005,,,,,,,2022-01-18,1,,,,,スタジオディーアンドエイチ,0
1767,5120901045473,新規,0,2022-01-18,2022-01-18,神楽不動産株式会社,,株式会社,大阪府,豊中市,緑丘４丁目７番２号,,27,203,5600002,,,,,,,2022-01-18,1,,,,,カグラフドウサン,0
1770,5122001035504,新規,0,2022-01-18,2022-01-18,株式会社Ｆｏｒｅｓｔ　Ｆｉｅｌｄ,,株式会社,大阪府,東大阪市,今米１丁目２番４８号松栄ビル２０５号室,,27,227,5780903,,,,,,,2022-01-18,1,,,,,フォレストフィールド,0
1783,5140001124507,新規,0,2022-01-18,2022-01-18,株式会社三協,,株式会社,兵庫県,尼崎市,七松町３丁目２番１１号,,28,202,6600052,,,,,,,2022-01-18,1,,,,,サンキョウ,0
1784,5140001124515,新規,0,2022-01-18,2022-01-18,株式会社宮下フェンス,,株式会社,兵庫県,姫路市,勝原区熊見２１１番地１,,28,201,6711211,,,,,,,2022-01-18,1,,,,,ミヤシタフェンス,0
1785,5140001124548,新規,0,2022-01-18,2022-01-18,株式会社はま壱工業,,株式会社,兵庫県,豊岡市,梶原３７８番地の８,,28,209,6680871,,,,,,,2022-01-18,1,,,,,ハマイチコウギョウ,0
1786,5140001124556,新規,0,2022-01-18,2022-01-18,株式会社しずく,,株式会社,兵庫県,加東市,下滝野５０９番地３,,28,228,6790212,,,,,,,2022-01-18,1,,,,,シズク,0
1787,5140001124572,新規,0,2022-01-18,2022-01-18,株式会社新井建築,,株式会社,兵庫県,姫路市,夢前町寺３５４番地３１,,28,201,6712116,,,,,,,2022-01-18,1,,,,,アライケンチク,0
1788,5140001124630,新規,0,2022-01-18,2022-01-18,株式会社ＮＡＧＡＺＯＮ,,株式会社,兵庫県,神戸市北区,星和台２丁目５５番地の９,,28,109,6511121,,,,,,,2022-01-18,1,,,,,ナガゾン,0
1791,5150001025258,新規,0,2022-01-18,2022-01-18,株式会社タチカワコーポレーション,,株式会社,奈良県,磯城郡田原本町,大字八尾４４番地の１,,29,363,6360311,,,,,,,2022-01-18,1,,,,,タチカワコーポレーション,0
1793,5160001023921,新規,0,2022-01-18,2022-01-18,パイダッツコーポレーション株式会社,,株式会社,滋賀県,湖南市,菩提寺西２丁目１０－３６仲西テナント２０１,,25,211,5203248,,,,,,,2022-01-18,1,,,,,パイダッツコーポレーション,0
1794,5170001016949,新規,0,2022-01-18,2022-01-18,株式会社ＳＨＩＲＯ,,株式会社,和歌山県,和歌山市,築港５丁目５番地１ニューハイツ光陽Ｃ棟２０５,,30,201,6408287,,,,,,,2022-01-18,1,,,,,シロ,0
1801,5180001149517,新規,0,2022-01-18,2022-01-18,株式会社トナリ,,株式会社,愛知県,名古屋市中区,錦３丁目１０番１４号協和錦ビル４Ｆ,,23,106,4600003,,,,,,,2022-01-18,1,,,,,トナリ,0
1802,5180001149590,新規,0,2022-01-18,2022-01-18,株式会社ドローンパイロットサービス,,株式会社,愛知県,稲沢市,増田北町１０９番地５,,23,220,4928425,,,,,,,2022-01-18,1,,,,,ドローンパイロットサービス,0
1805,5180003023397,新規,0,2022-01-18,2022-01-18,合同会社ジーファイヤ,,合同会社,愛知県,名古屋市中区,栄４丁目１５番２３号ライオンズマンション久屋公園５１４,,23,106,4600008,,,,,,,2022-01-18,1,,,,,ジーファイヤ,0
1806,5180005019591,新規,0,2022-01-18,2022-01-18,特定非営利活動法人緑の森のシンデレラ,,その他の設立登記法人,愛知県,名古屋市南区,曽池町１丁目２４番地の２,,23,112,4570042,,,,,,,2022-01-18,1,,,,,ミドリノモリノシンデレラ,0
1811,5180303005228,新規,0,2022-01-18,2022-01-18,ただいま合同会社,,合同会社,愛知県,岡崎市,伊賀町字５丁目８９番地１,,23,202,4440075,,,,,,,2022-01-18,1,,,,,タダイマ,0
1814,5190001029040,新規,0,2022-01-18,2022-01-18,株式会社華王殿,,株式会社,三重県,松阪市,高町５０５番地,,24,204,5150011,,,,,,,2022-01-18,1,,,,,カオウデン,0
1817,5200001039665,新規,0,2022-01-18,2022-01-18,株式会社成栄,,株式会社,岐阜県,岐阜市,薬師町５６番地１,,21,201,5008253,,,,,,,2022-01-18,1,,,,,セイエイ,0
1824,5220003003188,新規,0,2022-01-18,2022-01-18,グッド・フォーチュン合同会社,,合同会社,石川県,野々市市,御経塚３丁目３４１番地,,17,212,9218801,,,,,,,2022-01-18,1,,,,,グッドフォーチュン,0
1826,5240001059197,新規,0,2022-01-18,2022-01-18,株式会社宏和,,株式会社,広島県,福山市,坪生町南３丁目１３番６－４号,,34,207,7210904,,,,,,,2022-01-18,1,,,,,コウワ,0
1827,5240003005463,新規,0,2022-01-18,2022-01-18,むぎぱんだ合同会社,,合同会社,広島県,広島市西区,横川町３丁目９番２５－８０２号,,34,104,7330011,,,,,,,2022-01-18,1,,,,,ムギパンダ,0
1834,5260001036450,新規,0,2022-01-18,2022-01-18,株式会社楽通商事,,株式会社,岡山県,岡山市北区,半田町２番６号,,33,101,7000003,,,,,,,2022-01-18,1,,,,,ラクツウショウジ,0
1836,5260005011020,新規,0,2022-01-18,2022-01-18,ＮＰＯ法人陽だまり・美作,,その他の設立登記法人,岡山県,美作市,上相４８０番地１,,33,215,7070001,,,,,,,2022-01-18,1,,,,,ヒダマリミマサカ,0
1848,5320001018847,新規,0,2022-01-18,2022-01-18,株式会社ｏｆｆｉｃｅ　Ｒｅ‐ｙｏｕ,,株式会社,大分県,大分市,賀来北２丁目１１番１９号ロイヤルガーデン２０１,,44,201,8700848,,,,,,,2022-01-18,1,,,,,オフィスリユウ,0
1850,5320003003707,新規,0,2022-01-18,2022-01-18,合同会社食道園,,合同会社,大分県,杵築市,大字南杵築１６６０番地１,,44,210,8730002,,,,,,,2022-01-18,1,,,,,ショクドウエン,0
1853,5330001029364,新規,0,2022-01-18,2022-01-18,株式会社絆,,株式会社,熊本県,玉名市,宮原７３６番地,,43,206,8650042,,,,,,,2022-01-18,1,,,,,キズナ,0
1856,5340001024430,新規,0,2022-01-18,2022-01-18,株式会社タカエソリューション,,株式会社,鹿児島県,鹿児島市,東坂元２丁目５９番６号,,46,201,8920861,,,,,,,2022-01-18,1,,,,,タカエソリューション,0
1857,5340001024439,新規,0,2022-01-18,2022-01-18,株式会社金麦,,株式会社,鹿児島県,鹿児島市,西陵４丁目３９番１号,,46,201,8900032,,,,,,,2022-01-18,1,,,,,キンムギ,0
1865,5350001017540,新規,0,2022-01-18,2022-01-18,株式会社肉のなりまつ,,株式会社,宮崎県,宮崎市,清武町西新町９番地１２,,45,201,8891613,,,,,,,2022-01-18,1,,,,,ニクノナリマツ,0
1867,5370003005558,新規,0,2022-01-18,2022-01-18,合同会社ひなた,,合同会社,宮城県,仙台市泉区,永和台４番１５号,,04,105,9813104,,,,,,,2022-01-18,1,,,,,ヒナタ,0
1879,5420001017707,新規,0,2022-01-18,2022-01-18,株式会社風景屋,,株式会社,青森県,十和田市,大字奥瀬字十和田湖畔休屋４８６番地,,02,206,0185501,,,,,,,2022-01-18,1,,,,,フウケイヤ,0
1884,5430001085744,新規,0,2022-01-18,2022-01-18,株式会社協西,,株式会社,北海道,苫小牧市,拓勇西町１丁目４番２号,,01,213,0591302,,,,,,,2022-01-18,1,,,,,キョウサイ,0
1885,5430001085793,新規,0,2022-01-18,2022-01-18,株式会社ロックストック,,株式会社,北海道,札幌市中央区,南七条西５丁目２９８番地５４,,01,101,0640807,,,,,,,2022-01-18,1,,,,,ロックストック,0
1887,5430003013538,新規,0,2022-01-18,2022-01-18,合同会社福神,,合同会社,北海道,札幌市厚別区,厚別南５丁目６番１２号,,01,108,0040022,,,,,,,2022-01-18,1,,,,,フクジン,0
1898,5470001018931,新規,0,2022-01-18,2022-01-18,マッチメーカー株式会社,,株式会社,香川県,さぬき市,志度４２９５番地６,,37,206,7692101,,,,,,,2022-01-18,1,,,,,マッチメーカー,0
1899,5490001010093,新規,0,2022-01-18,2022-01-18,Ｒ．Ａ工業株式会社,,株式会社,高知県,南国市,十市１４４２番地１,,39,204,7830085,,,,,,,2022-01-18,1,,,,,アールエーコウギョウ,0
1900,5490005006815,新規,0,2022-01-18,2022-01-18,馬路村地域づくり事業協同組合,,その他の設立登記法人,高知県,安芸郡馬路村,大字馬路３５６４－１,,39,306,7816201,,,,,,,2022-01-18,1,,,,,ウマジムラチイキヅクリジギョウ,0
1902,5500001023944,新規,0,2022-01-18,2022-01-18,株式会社西宇和ウインドファーム,,株式会社,愛媛県,松山市,勝岡町４４番地,,38,201,7992661,,,,,,,2022-01-18,1,,,,,ニシウワウインドファーム,0
1903,5500003002756,新規,0,2022-01-18,2022-01-18,グッドヒアー合同会社,,合同会社,愛媛県,伊予郡砥部町,五本松８７２番地１９,,38,402,7912133,,,,,,,2022-01-18,1,,,,,グッドヒアー,0
1904,5700150096944,新規,0,2022-01-18,2019-12-05,裾野市スポーツツーリズム推進協議会,,その他,静岡県,裾野市,佐野１０５９番地,,22,220,4101118,,,,,,,2019-12-05,1,,,,,スソノシスポーツツーリズムスイシンキヨウギカイ,0
1910,6010001223832,新規,0,2022-01-18,2022-01-18,創造する心株式会社,,株式会社,東京都,中央区,日本橋２丁目１５番８号,,13,102,1030027,,,,,,,2022-01-18,1,,,,,ソウゾウスルココロ,0
1911,6010001223857,新規,0,2022-01-18,2022-01-18,株式会社ｆｉｔ,,株式会社,東京都,中央区,新富１丁目１６番８号新富町営和ビル７Ｆ,,13,102,1040041,,,,,,,2022-01-18,1,,,,,フィット,0
1919,6010401164800,新規,0,2022-01-18,2022-01-18,株式会社Ｌｕｃｋｔｕｓ,,株式会社,東京都,港区,東麻布１丁目５番９号東麻布テラス５０２,,13,103,1060044,,,,,,,2022-01-18,1,,,,,ラクタス,0
1920,6010401164940,新規,0,2022-01-18,2022-01-18,株式会社Ｅｍｂｒａｃｅ,,株式会社,東京都,港区,南青山２丁目２番１５号ウィン青山９４２,,13,103,1070062,,,,,,,2022-01-18,1,,,,,エンブレイス,0
1921,6010401164973,新規,0,2022-01-18,2022-01-18,ＬＳ－ＳＨＩＰ第２４号株式会社,,株式会社,東京都,港区,六本木１丁目６番１号,,13,103,1060032,,,,,,,2022-01-18,1,,,,,エルエスシップダイニジュウヨンゴウ,0
1924,6010403026899,新規,0,2022-01-18,2022-01-18,銀座トータルビューティー合同会社,,合同会社,東京都,港区,赤坂３丁目１４番１号,,13,103,1070052,,,,,,,2022-01-18,1,,,,,ギンザトータルビューティー,0
1925,6010403026908,新規,0,2022-01-18,2022-01-18,合同会社ＦａｉＮ　Ｐａｒｔｎｅｒｓ,,合同会社,東京都,港区,南青山２丁目２番１５号ウィン青山９４２,,13,103,1070062,,,,,,,2022-01-18,1,,,,,フェインパートナーズ,0
1926,6010405020578,新規,0,2022-01-18,2022-01-18,ジー・ジェイ・レジデンス・エイト一般社団法人,,その他の設立登記法人,東京都,港区,虎ノ門４丁目３番１号城山トラストタワー２７階ＳａｎｎｅＧｒｏｕｐＪａｐａｎ株式会社内,,13,103,1050001,,,,,,,2022-01-18,1,,,,,ジージェイレジデンスエイト,0
1928,6010501048317,新規,0,2022-01-18,2022-01-18,ＬＵＣ株式会社,,株式会社,東京都,台東区,三筋１丁目１２番６号赤木屋ビル３階,,13,106,1110055,,,,,,,2022-01-18,1,,,,,ラック,0
1930,6010701042078,新規,0,2022-01-18,2022-01-18,株式会社街の修理屋さん,,株式会社,東京都,品川区,荏原２丁目１０番２－１０１号,,13,109,1420063,,,,,,,2022-01-18,1,,,,,マチノシュウリヤサン,0
1934,6010901050186,新規,0,2022-01-18,2022-01-18,株式会社Ｋｉｎｄｎｅｓｓ,,株式会社,東京都,世田谷区,太子堂４丁目３番３号,,13,112,1540004,,,,,,,2022-01-18,1,,,,,カインドネス,0
1938,6010903007077,新規,0,2022-01-18,2022-01-18,合同会社楽ゆう会,,合同会社,東京都,世田谷区,弦巻１丁目１６番３－２０１号,,13,112,1540016,,,,,,,2022-01-18,1,,,,,ガクユウカイ,0
1947,6011001145075,新規,0,2022-01-18,2022-01-18,株式会社ＡＭＹ　ＪＡＰＡＮ,,株式会社,東京都,渋谷区,神宮前６丁目６番１０号ＮＫビル３Ｆ,,13,113,1500001,,,,,,,2022-01-18,1,,,,,エイミージャパン,0
1948,6011001145083,新規,0,2022-01-18,2022-01-18,株式会社ＫＵＤＥＮ　ＷＯＲＬＤ,,株式会社,東京都,渋谷区,恵比寿１丁目１６番２６号,,13,113,1500013,,,,,,,2022-01-18,1,,,,,クデンワールド,0
1949,6011003014006,新規,0,2022-01-18,2022-01-18,合同会社小学校受験対策室,,合同会社,東京都,渋谷区,道玄坂２丁目１５番１号ノア道玄坂１２４号室,,13,113,1500043,,,,,,,2022-01-18,1,,,,,ショウガッコウジュケンタイサクシツ,0
1955,6011101097497,新規,0,2022-01-18,2022-01-18,株式会社ストラス,,株式会社,東京都,新宿区,西新宿３丁目３番１３号,,13,104,1600023,,,,,,,2022-01-18,1,,,,,ストラス,0
1956,6011101097522,新規,0,2022-01-18,2022-01-18,株式会社ピルタス,,株式会社,東京都,新宿区,西新宿７丁目５番５号Ｐｌａｚａ西新宿ＵＣＦ４階,,13,104,1600023,,,,,,,2022-01-18,1,,,,,ピルタス,0
1965,6011301027493,新規,0,2022-01-18,2022-01-18,セレンディピティ・アセット・マネジメント株式会社,,株式会社,東京都,杉並区,南荻窪４丁目８番１７号,,13,115,1670052,,,,,,,2022-01-18,1,,,,,セレンディピティアセットマネジメント,0
1966,6011401023962,新規,0,2022-01-18,2022-01-18,株式会社ＨＹＵ,,株式会社,東京都,板橋区,東新町２丁目８番１４－１０４号,,13,119,1740074,,,,,,,2022-01-18,1,,,,,エッチワイユウ,0
1970,6011403003541,新規,0,2022-01-18,2022-01-18,夢合同会社,,合同会社,東京都,板橋区,成増２丁目３３－１０－５０１,,13,119,1750094,,,,,,,2022-01-18,1,,,,,ユメ,0
1973,6011503005041,新規,0,2022-01-18,2022-01-18,千和善合同会社,,合同会社,東京都,北区,赤羽１丁目７番９号赤羽第一葉山ビル４階,,13,117,1150045,,,,,,,2022-01-18,1,,,,,チワゼン,0
1975,6011603003498,新規,0,2022-01-18,2022-01-18,合同会社Ｈ＆Ｒ　Ｃｏｍｐａｎｙ,,合同会社,東京都,練馬区,旭町１丁目２８番１９号,,13,120,1790071,,,,,,,2022-01-18,1,,,,,エイチアンドアールカンパニー,0
1976,6011701024974,新規,0,2022-01-18,2022-01-18,総合建株式会社,,株式会社,東京都,江戸川区,西葛西１丁目１２番１－１０２号,,13,123,1340088,,,,,,,2022-01-18,1,,,,,ソウゴウケン,0
1980,6011801040186,新規,0,2022-01-18,2022-01-18,一投株式会社,,株式会社,東京都,葛飾区,青戸３丁目３７番６号サザンビル３０２号室,,13,122,1250062,,,,,,,2022-01-18,1,,,,,イットウ,0
1991,6012803002678,新規,0,2022-01-18,2022-01-18,合同会社Ａｍａｚｉｎｇ,,合同会社,東京都,立川市,砂川町１丁目５番地の３６ソレーユＡ棟１０２,,13,202,1900031,,,,,,,2022-01-18,1,,,,,アメージング,0
1995,6013301048536,新規,0,2022-01-18,2022-01-18,拉塔西株式会社,,株式会社,東京都,豊島区,巣鴨４丁目２１番９号下野第五ビルハッピーｏｆｆｉｃｅ４０３号,,13,116,1700002,,,,,,,2022-01-18,1,,,,,ラトウサイ,0
1996,6013301048560,新規,0,2022-01-18,2022-01-18,株式会社ＩＮＴＥＧＲＩＴＹ,,株式会社,東京都,豊島区,東池袋２丁目３１番１２号ヴィレッジ金山１０１号,,13,116,1700013,,,,,,,2022-01-18,1,,,,,インテグリティ,0
2004,6020001144730,新規,0,2022-01-18,2022-01-18,株式会社マイホームワン,,株式会社,神奈川県,横浜市青葉区,市ケ尾町１１５４番地２市ケ尾プラーザビル１Ｆ,,14,117,2250024,,,,,,,2022-01-18,1,,,,,マイホームワン,0
2005,6020001144821,新規,0,2022-01-18,2022-01-18,株式会社ＭＳ　Ｌｏｇｉｓｔｉｃｓ,,株式会社,神奈川県,横浜市鶴見区,元宮１丁目８番２号フロレスタ１０２号室,,14,101,2300004,,,,,,,2022-01-18,1,,,,,エムエスロジスティクス,0
2006,6020001144838,新規,0,2022-01-18,2022-01-18,株式会社Ｋミュージック,,株式会社,神奈川県,横浜市西区,高島２丁目１１番２号スカイメナー横浜５１９,,14,103,2200011,,,,,,,2022-01-18,1,,,,,ケイミュージック,0
2007,6020001144870,新規,0,2022-01-18,2022-01-18,株式会社Ｍｏｍｅｎｔ,,株式会社,神奈川県,横浜市瀬谷区,瀬谷４丁目５番地の１３,,14,114,2460031,,,,,,,2022-01-18,1,,,,,モーメント,0
2011,6021001074983,新規,0,2022-01-18,2022-01-18,株式会社ＲＵＬＥ,,株式会社,神奈川県,大和市,大和東３丁目１５番５号,,14,213,2420017,,,,,,,2022-01-18,1,,,,,ルール,0
2015,6021003011316,新規,0,2022-01-18,2022-01-18,合同会社イドーサービス,,合同会社,神奈川県,三浦市,南下浦町上宮田３４１０－２８,,14,210,2380101,,,,,,,2022-01-18,1,,,,,イドーサービス,0
2022,6030001146354,新規,0,2022-01-18,2022-01-18,ウークブーム株式会社,,株式会社,埼玉県,さいたま市桜区,田島３丁目１番１５号７０２,,11,106,3380837,,,,,,,2022-01-18,1,,,,,ウークブーム,0
2023,6030001146362,新規,0,2022-01-18,2022-01-18,株式会社イーエステート,,株式会社,埼玉県,北足立郡伊奈町,栄６丁目１４４番地１０１号,,11,301,3620805,,,,,,,2022-01-18,1,,,,,イーエステート,0
2024,6030001146370,新規,0,2022-01-18,2022-01-18,株式会社チイキ,,株式会社,埼玉県,川口市,南鳩ヶ谷６丁目１６番６号,,11,203,3340013,,,,,,,2022-01-18,1,,,,,チイキ,0
2025,6030001146395,新規,0,2022-01-18,2022-01-18,株式会社Ｑｕｏｒｅ,,株式会社,埼玉県,草加市,柿木町６８２番地１,,11,221,3400001,,,,,,,2022-01-18,1,,,,,クオーレ,0
2026,6030001146404,新規,0,2022-01-18,2022-01-18,株式会社ｋｕｆｕｕｕ,,株式会社,埼玉県,深谷市,東大沼１３８番地２,,11,218,3660828,,,,,,,2022-01-18,1,,,,,クフウ,0
2058,6040001121653,新規,0,2022-01-18,2022-01-18,株式会社メビウスファーム,,株式会社,千葉県,千葉市中央区,都町１丁目４６番９号,,12,101,2600001,,,,,,,2022-01-18,1,,,,,メビウスファーム,0
2059,6040001121728,新規,0,2022-01-18,2022-01-18,ＲＮＦ株式会社,,株式会社,千葉県,柏市,若柴２２７番地６柏の葉キャンパス１４７街区Ｄ－１１０８号,,12,217,2770871,,,,,,,2022-01-18,1,,,,,アールエヌエフ,0
2060,6040001121736,新規,0,2022-01-18,2022-01-18,株式会社アヴァンサール,,株式会社,千葉県,市川市,曽谷３丁目２５番３号,,12,203,2720832,,,,,,,2022-01-18,1,,,,,アヴァンサール,0
2061,6040001121752,新規,0,2022-01-18,2022-01-18,株式会社ユニークユー,,株式会社,千葉県,船橋市,本町５丁目１番１号船橋ＡＵビル４階,,12,204,2730005,,,,,,,2022-01-18,1,,,,,ユニークユー,0
2062,6040001121760,新規,0,2022-01-18,2022-01-18,株式会社スタヂオ・ユアサ,,株式会社,千葉県,鎌ケ谷市,鎌ケ谷３丁目４番４６号（グレープガーデン２０３）,,12,224,2730105,,,,,,,2022-01-18,1,,,,,スタヂオユアサ,0
2063,6040001121819,新規,0,2022-01-18,2022-01-18,株式会社なかむら総建,,株式会社,千葉県,長生郡白子町,浜宿３７８番地,,12,424,2994201,,,,,,,2022-01-18,1,,,,,ナカムラソウケン,0
2064,6040001121827,新規,0,2022-01-18,2022-01-18,株式会社ジェイアイエヌ,,株式会社,千葉県,船橋市,本町１丁目１番２７号,,12,204,2730005,,,,,,,2022-01-18,1,,,,,ジェイアイエヌ,0
2087,6040003019284,新規,0,2022-01-18,2022-01-18,ジャパンレジデンス合同会社,,合同会社,千葉県,千葉市美浜区,打瀬２丁目１９番地６２３号,,12,106,2610013,,,,,,,2022-01-18,1,,,,,ジャパンレジデンス,0
2098,6040005021494,新規,0,2022-01-18,2022-01-18,一般社団法人江戸伝統工芸・芸術文化保存振興協会,,その他の設立登記法人,千葉県,印西市,草深１２４０番地４２,,12,231,2701337,,,,,,,2022-01-18,1,,,,,エドデントウコウゲイゲイジュツブンカホゾンシンコウキョウカイ,0
2100,6050001050471,新規,0,2022-01-18,2022-01-18,ＸＥＲＯＬＩＶＥ株式会社,,株式会社,茨城県,坂東市,辺田１００６,,08,228,3060632,,,,,,,2022-01-18,1,,,,,ゼロライブ,0
2105,6070001038853,新規,0,2022-01-18,2022-01-18,株式会社Ｃａｓｈｉｒａ＆Ｐｏｔａｔｏ,,株式会社,群馬県,邑楽郡大泉町,西小泉１丁目２６番１８号,,10,524,3700517,,,,,,,2022-01-18,1,,,,,カシラアンドポテト,0
2110,6080001024695,新規,0,2022-01-18,2022-01-18,株式会社ＩＳプランニング,,株式会社,静岡県,静岡市駿河区,石田２丁目１３番８号,,22,102,4228042,,,,,,,2022-01-18,1,,,,,アイエスプランニング,0
2119,6110001036381,新規,0,2022-01-18,2022-01-18,吉田外装株式会社,00125420,株式会社,新潟県,長岡市,与板町与板乙５６３５番地３,,15,202,9402402,,,,,,,2022-01-18,1,,,,,ヨシダガイソウ,0
2121,6110003004683,新規,0,2022-01-18,2022-01-18,合同会社Ｌｉｂｅｒｔｅ,,合同会社,新潟県,新潟市東区,幸栄３丁目１３番１４号２,,15,102,9500022,,,,,,,2022-01-18,1,,,,,リベルテ,0
2130,6120001243258,新規,0,2022-01-18,2022-01-18,株式会社賢栄,,株式会社,大阪府,門真市,本町２３番９号本町ハイツ１０２,,27,223,5710046,,,,,,,2022-01-18,1,,,,,ケンエイ,0
2131,6120001243266,新規,0,2022-01-18,2022-01-18,北浜グローバル商事株式会社,,株式会社,大阪府,大阪市中央区,高麗橋３丁目３番１１号,,27,128,5410043,,,,,,,2022-01-18,1,,,,,キタハマグローバルショウジ,0
2132,6120001243274,新規,0,2022-01-18,2022-01-18,株式会社リガーレ,,株式会社,大阪府,大阪市中央区,今橋４丁目１番１号,,27,128,5410042,,,,,,,2022-01-18,1,,,,,リガーレ,0
2133,6120001243282,新規,0,2022-01-18,2022-01-18,株式会社ＴＩＳエンジニアリング,,株式会社,大阪府,大阪市東淀川区,豊里１丁目９番６号,,27,114,5330013,,,,,,,2022-01-18,1,,,,,ティーアイエスエンジニアリング,0
2139,6120101064959,新規,0,2022-01-18,2022-01-18,株式会社勝組,,株式会社,大阪府,泉南郡熊取町,大久保南３丁目１６１０番地の１,,27,361,5900405,,,,,,,2022-01-18,1,,,,,カツグミ,0
2149,6140001124506,新規,0,2022-01-18,2022-01-18,株式会社フォルテックスジャパン,,株式会社,兵庫県,西宮市,鳴尾町３丁目１番１８号,,28,204,6638184,,,,,,,2022-01-18,1,,,,,フォルテックスジャパン,0
2150,6140001124522,新規,0,2022-01-18,2022-01-18,株式会社ＭＯＡ,,株式会社,兵庫県,神戸市長田区,二葉町１丁目３番９号,,28,106,6530042,,,,,,,2022-01-18,1,,,,,モア,0
2151,6140001124530,新規,0,2022-01-18,2022-01-18,株式会社Ｄｅｅｐ．ｄｏｇ,,株式会社,兵庫県,神戸市西区,玉津町今津６６１番地の１４,,28,111,6512128,,,,,,,2022-01-18,1,,,,,ディープドッグ,0
2152,6140001124571,新規,0,2022-01-18,2022-01-18,株式会社黒田住建,,株式会社,兵庫県,姫路市,白浜町丙４８４番地５３－３０４号,,28,201,6728023,,,,,,,2022-01-18,1,,,,,クロダジュウケン,0
2156,6140005025997,新規,0,2022-01-18,2022-01-18,医療法人社団中村歯科クリニック,,その他の設立登記法人,兵庫県,豊岡市,小田井町１７番１０号,,28,209,6680022,,,,,,,2022-01-18,1,,,,,ナカムラシカクリニック,0
2160,6150001025257,新規,0,2022-01-18,2022-01-18,株式会社ＴＥＫ,,株式会社,奈良県,奈良市,五条西１丁目１番２－５号,,29,201,6308034,,,,,,,2022-01-18,1,,,,,ティーイーケイ,0
2161,6150001025265,新規,0,2022-01-18,2022-01-18,株式会社ＹＳ　ＡＩＬＥ,,株式会社,奈良県,生駒市,喜里が丘２丁目４番５号,,29,209,6300248,,,,,,,2022-01-18,1,,,,,ワイエスエール,0
2165,6170001016948,新規,0,2022-01-18,2022-01-18,株式会社ＨＡＲＵＫＵ,,株式会社,和歌山県,田辺市,下万呂４８番地の９,,30,206,6460004,,,,,,,2022-01-18,1,,,,,ハルク,0
2174,6180001149466,新規,0,2022-01-18,2022-01-18,株式会社Ｔｅｃｈ－Ｔ,,株式会社,愛知県,名古屋市昭和区,山手通４丁目１０番地の２（ジェネラス山手通９０２号）,,23,107,4660815,,,,,,,2022-01-18,1,,,,,テックティ,0
2175,6180001149516,新規,0,2022-01-18,2022-01-18,株式会社ミモザ不動産,,株式会社,愛知県,名古屋市名東区,よもぎ台３丁目２０９番地,,23,115,4650091,,,,,,,2022-01-18,1,,,,,ミモザフドウサン,0
2176,6180001149524,新規,0,2022-01-18,2022-01-18,ＭＯＳＳ株式会社,,株式会社,愛知県,岩倉市,八剱町郷前２５番地２号,,23,228,4820031,,,,,,,2022-01-18,1,,,,,モス,0
2177,6180001149540,新規,0,2022-01-18,2022-01-18,株式会社テックス,,株式会社,愛知県,名古屋市中区,栄３丁目２番３号名古屋日興証券ビル４階,,23,106,4600008,,,,,,,2022-01-18,1,,,,,テックス,0
2178,6180001149549,新規,0,2022-01-18,2022-01-18,株式会社エンプロード,,株式会社,愛知県,名古屋市中川区,八熊１丁目９番２０号メゾン大成１０２,,23,110,4540013,,,,,,,2022-01-18,1,,,,,エンプロード,0
2179,6180001149557,新規,0,2022-01-18,2022-01-18,株式会社Ｙ,,株式会社,愛知県,犬山市,大字犬山字寺下８４番地１,,23,215,4840081,,,,,,,2022-01-18,1,,,,,ワイ,0
2180,6180003023396,新規,0,2022-01-18,2022-01-18,水音合同会社,,合同会社,愛知県,名古屋市港区,当知３丁目３０４番地（しらさぎ１０６号）,,23,111,4550804,,,,,,,2022-01-18,1,,,,,ミズネ,0
2185,6180303005227,新規,0,2022-01-18,2022-01-18,合同会社アドアセット,,合同会社,愛知県,西尾市,大和田町壱番割２０番地,,23,213,4450024,,,,,,,2022-01-18,1,,,,,アドアセット,0
2192,6190003003868,新規,0,2022-01-18,2022-01-18,合同会社洋琴研究所,,合同会社,三重県,四日市市,楠町南川１番地１エルシュラインＳ３０１号,,24,202,5100105,,,,,,,2022-01-18,1,,,,,ヨウキンケンキュウジョ,0
2196,6200001039664,新規,0,2022-01-18,2022-01-18,株式会社アクセル羽島,,株式会社,岐阜県,安八郡安八町,東結９５２番地の１０１,,21,383,5030112,,,,,,,2022-01-18,1,,,,,アクセルハシマ,0
2200,6230001019192,新規,0,2022-01-18,2022-01-18,株式会社上野組,,株式会社,富山県,小矢部市,赤倉６０番地３,,16,209,9320814,,,,,,,2022-01-18,1,,,,,ウエノグミ,0
2201,6240001059213,新規,0,2022-01-18,2022-01-18,株式会社ディーライティング,,株式会社,広島県,福山市,南手城町４丁目２０番２７号,,34,207,7210963,,,,,,,2022-01-18,1,,,,,ディーライティング,0
2204,6250003002987,新規,0,2022-01-18,2022-01-18,フリーワーク合同会社,,合同会社,山口県,岩国市,周東町上久原１０３８,,35,208,7420413,,,,,,,2022-01-18,1,,,,,フリーワーク,0
2208,6290001096037,新規,0,2022-01-18,2022-01-18,株式会社ロカフト,,株式会社,福岡県,福岡市中央区,天神２丁目３番１０号天神パインクレスト７１９号,,40,133,8100001,,,,,,,2022-01-18,1,,,,,ロカフト,0
2209,6290001096128,新規,0,2022-01-18,2022-01-18,株式会社ＴＭコーポレーション,,株式会社,福岡県,福岡市東区,原田１丁目６番２号,,40,131,8120063,,,,,,,2022-01-18,1,,,,,ティエムコーポレーション,0
2210,6290005018532,新規,0,2022-01-18,2022-01-18,一般社団法人地域遠隔支援サービス,,その他の設立登記法人,福岡県,宗像市,城西ヶ丘６丁目３番３号,,40,220,8113404,,,,,,,2022-01-18,1,,,,,チイキエンカクシエンサービス,0
2218,6320003003706,新規,0,2022-01-18,2022-01-18,イロハナ１６８７合同会社,,合同会社,大分県,大分市,大道町５丁目４番３号,,44,201,8700822,,,,,,,2022-01-18,1,,,,,イロハナイロハナ,0
2220,6330001029363,新規,0,2022-01-18,2022-01-18,株式会社篠原建設,,株式会社,熊本県,菊池市,泗水町永２６６９番地６５,,43,210,8611204,,,,,,,2022-01-18,1,,,,,シノハラケンセツ,0
2224,6330003009207,新規,0,2022-01-18,2022-01-18,ＷＳＣＫ合同会社,,合同会社,熊本県,熊本市北区,楠８丁目４番４３号,,43,105,8618003,,,,,,,2022-01-18,1,,,,,ダブリュエスシーケイ,0
2227,6360001029906,新規,0,2022-01-18,2022-01-18,株式会社ＭＹ企画,,株式会社,沖縄県,那覇市,字国場３６６番地の２,,47,201,9020075,,,,,,,2022-01-18,1,,,,,エムワイキカク,0
2232,6370001048095,新規,0,2022-01-18,2022-01-18,株式会社アイズ,,株式会社,宮城県,仙台市青葉区,新坂町９番１１号,,04,101,9810934,,,,,,,2022-01-18,1,,,,,アイズ,0
2233,6370003005557,新規,0,2022-01-18,2022-01-18,合同会社ＭＡＥ,,合同会社,宮城県,塩竈市,芦畔町９番５号,,04,203,9850012,,,,,,,2022-01-18,1,,,,,マエ,0
2239,6380001032511,新規,0,2022-01-18,2022-01-18,株式会社旅行サロン福島,,株式会社,福島県,福島市,小倉寺字中ノ作１３番地の１サンテラスＢ２０８,,07,201,9608142,,,,,,,2022-01-18,1,,,,,リョコウサロンフクシマ,0
2242,6420001017697,新規,0,2022-01-18,2022-01-18,株式会社アシスタあおもり,,株式会社,青森県,平川市,柏木町柳田９７－１,,02,210,0360104,,,,,,,2022-01-18,1,,,,,アシスタアオモリ,0
2243,6420001017706,新規,0,2022-01-18,2022-01-18,株式会社ベジフル耕望千葉,,株式会社,青森県,青森市,浜館３丁目３番地１０,,02,201,0300947,,,,,,,2022-01-18,1,,,,,ベジフルコウボウチバ,0
2252,6430001085792,新規,0,2022-01-18,2022-01-18,株式会社いつみ左官,,株式会社,北海道,札幌市西区,発寒十五条１丁目２番２２号,,01,107,0630835,,,,,,,2022-01-18,1,,,,,イツミサカン,0
2254,6430005014343,新規,0,2022-01-18,2022-01-18,一般社団法人かのあ,,その他の設立登記法人,北海道,千歳市,支笏湖温泉番外地,,01,224,0660281,,,,,,,2022-01-18,1,,,,,カノア,0
2260,6460101007124,新規,0,2022-01-18,2022-01-18,株式会社のむら不動産,,株式会社,北海道,帯広市,西四条南３丁目８番地２,,01,207,0800014,,,,,,,2022-01-18,1,,,,,ノムラフドウサン,0
2266,6470001018930,新規,0,2022-01-18,2022-01-18,株式会社アライグラウンド,,株式会社,香川県,三豊市,高瀬町上麻３６５番地１,,37,208,7670014,,,,,,,2022-01-18,1,,,,,アライグラウンド,0
2271,6490001010092,新規,0,2022-01-18,2022-01-18,株式会社森木,,株式会社,高知県,土佐市,蓮池１８０５番地３,,39,205,7811105,,,,,,,2022-01-18,1,,,,,モリキ,0
2290,7010003036769,新規,0,2022-01-18,2022-01-18,合同会社ソレアード,,合同会社,東京都,中央区,新川１丁目２１番１号,,13,102,1040033,,,,,,,2022-01-18,1,,,,,ソレアード,0
2300,7010401164907,新規,0,2022-01-18,2022-01-18,ソラコマ株式会社,,株式会社,東京都,港区,浜松町１丁目２７番１７号三和ビル４Ｆ,,13,103,1050013,,,,,,,2022-01-18,1,,,,,ソラコマ,0
2301,7010401164956,新規,0,2022-01-18,2022-01-18,株式会社エチュード,,株式会社,東京都,港区,六本木７丁目７番７号Ｔｒｉ－ＳｅｖｅｎＲｏｐｐｏｎｇｉ,,13,103,1060032,,,,,,,2022-01-18,1,,,,,エチュード,0
2302,7010401164972,新規,0,2022-01-18,2022-01-18,ＬＳ－ＳＨＩＰ第２５号株式会社,,株式会社,東京都,港区,六本木１丁目６番１号,,13,103,1060032,,,,,,,2022-01-18,1,,,,,エルエスシップダイニジュウゴゴウ,0
2303,7010401164980,新規,0,2022-01-18,2022-01-18,ＣＡＲＢＯＮＥ　ＡＬＣＨＥＭＹ株式会社,,株式会社,東京都,港区,虎ノ門１丁目５番１１号森田ビル３階,,13,103,1050001,,,,,,,2022-01-18,1,,,,,カーボーンアルケミー,0
2304,7010401165046,新規,0,2022-01-18,2022-01-18,ＧＣＪＧ２２株式会社,,株式会社,東京都,港区,元赤坂１丁目１番８号株式会社赤坂国際会計内,,13,103,1070051,,,,,,,2022-01-18,1,,,,,ジーシージェイジートゥエンティーツー,0
2306,7010403026857,新規,0,2022-01-18,2022-01-18,ＡＬＰＨＡＣＯＲＰ合同会社,,合同会社,東京都,港区,赤坂９丁目２－１３,,13,103,1070052,,,,,,,2022-01-18,1,,,,,アルファコープ,0
2307,7010403026898,新規,0,2022-01-18,2022-01-18,赤坂食品合同会社,,合同会社,東京都,港区,赤坂３丁目１４番１号コンチネンタルＩＶビル１階,00125436,13,103,1070052,,,,,,,2022-01-18,1,,,,,アカサカショクヒン,0
2311,7010605004033,新規,0,2022-01-18,2022-01-18,行政書士法人すみそら,,その他の設立登記法人,東京都,墨田区,横川３丁目１３－１０,,13,107,1300003,,,,,,,2022-01-18,1,,,,,スミソラ,0
2315,7010701042077,新規,0,2022-01-18,2022-01-18,株式会社街の救急車,,株式会社,東京都,品川区,荏原２丁目１０番２－１０１号,,13,109,1420063,,,,,,,2022-01-18,1,,,,,マチノキュウキュウシャ,0
2316,7010705003307,新規,0,2022-01-18,2022-01-18,スタンダード税理士法人,,その他の設立登記法人,東京都,品川区,西五反田１丁目１１番１号,,13,109,1410031,,,,,,,2022-01-18,1,,,,,スタンダード,0
2325,7010901050136,新規,0,2022-01-18,2022-01-18,株式会社Ｃｒａｚｙ　Ｋｎｉｇｈｔｓ,,株式会社,東京都,世田谷区,北烏山８丁目１番１９号,,13,112,1570061,,,,,,,2022-01-18,1,,,,,クレイジーナイツ,0
2326,7010901050160,新規,0,2022-01-18,2022-01-18,株式会社Ｃｏｎｎｅｃｔ　Ａｔｈｌｅｔｅ,,株式会社,東京都,世田谷区,野毛２丁目２０番２３－３１２号,,13,112,1580092,,,,,,,2022-01-18,1,,,,,コネクトアスリート,0
2332,7011101097496,新規,0,2022-01-18,2022-01-18,Ｚｅｒｏ－Ｚｅｒｏ株式会社,,株式会社,東京都,新宿区,西新宿３丁目９番７－９０１号,,13,104,1600023,,,,,,,2022-01-18,1,,,,,ゼロゼロ,0
2333,7011101097505,新規,0,2022-01-18,2022-01-18,株式会社Ｗａｉｐｕｎａ,,株式会社,東京都,新宿区,西新宿３丁目７番１号新宿パークタワーＮ３０階,,13,104,1600023,,,,,,,2022-01-18,1,,,,,ワイプナ,0
2343,7011301027492,新規,0,2022-01-18,2022-01-18,株式会社ＧＥＮＩＥＳ,,株式会社,東京都,杉並区,大宮１丁目５番１３号,,13,115,1680061,,,,,,,2022-01-18,1,,,,,ジーニーズ,0
2345,7011601025667,新規,0,2022-01-18,2022-01-18,Ｂｅａｕｔｙ　Ｅｘｔｅｎｄ株式会社,,株式会社,東京都,練馬区,田柄２丁目４９番８号エトアール赤塚１Ｆ,,13,120,1790073,,,,,,,2022-01-18,1,,,,,ビューティエクステンド,0
2348,7011801040202,新規,0,2022-01-18,2022-01-18,株式会社イトショウ,,株式会社,東京都,足立区,綾瀬４丁目１３番１１号ベルハイツ綾瀬３０３,,13,121,1200005,,,,,,,2022-01-18,1,,,,,イトショウ,0
2368,7012805003079,新規,0,2022-01-18,2022-01-18,一般社団法人立川アスレティックＦＣ,,その他の設立登記法人,東京都,立川市,錦町１丁目４番地の４,,13,202,1900022,,,,,,,2022-01-18,1,,,,,アスレティックエフシー,0
2373,7013303005996,新規,0,2022-01-18,2022-01-18,盛金合同会社,,合同会社,東京都,豊島区,巣鴨１丁目１７番３号,,13,116,1700002,,,,,,,2022-01-18,1,,,,,セイキン,0
2381,7020001144795,新規,0,2022-01-18,2022-01-18,株式会社ＡＬＩＣＥ,,株式会社,神奈川県,川崎市川崎区,東田町３番地１９アービラ東田４０６,,14,131,2100005,,,,,,,2022-01-18,1,,,,,アリス,0
2390,7021001074982,新規,0,2022-01-18,2022-01-18,株式会社ＫＡＩＺ,,株式会社,神奈川県,中郡二宮町,二宮１６９番地の４,,14,342,2590123,,,,,,,2022-01-18,1,,,,,カイズ,0
2391,7021003011307,新規,0,2022-01-18,2022-01-18,合同会社灯台と羅針盤,,合同会社,神奈川県,相模原市緑区,橋本３丁目２７番６号,,14,151,2520143,,,,,,,2022-01-18,1,,,,,トウダイトラシンバン,0
2397,7030001146329,新規,0,2022-01-18,2022-01-18,株式会社神総業,,株式会社,埼玉県,加須市,南大桑１８２９番地１,,11,210,3470015,,,,,,,2022-01-18,1,,,,,ミワソウギョウ,0
2419,7040001121727,新規,0,2022-01-18,2022-01-18,株式会社優真,,株式会社,千葉県,市原市,辰巳台西１丁目６番地８,,12,219,2900004,,,,,,,2022-01-18,1,,,,,ユウシン,0
2420,7040001121743,新規,0,2022-01-18,2022-01-18,株式会社ＤＡＹＳ　ＰＲＯＤＵＣＴ,,株式会社,千葉県,柏市,逆井４５６番地,,12,217,2770042,,,,,,,2022-01-18,1,,,,,デイズプロダクト,0
2421,7040001121784,新規,0,2022-01-18,2022-01-18,株式会社ネクサス開発設計,,株式会社,千葉県,千葉市中央区,星久喜町８７３番地５,,12,101,2600808,,,,,,,2022-01-18,1,,,,,ネクサスカイハツセッケイ,0
2456,7040003019275,新規,0,2022-01-18,2022-01-18,森田経理事務合同会社,,合同会社,千葉県,木更津市,畑沢南５丁目１６番６号,,12,206,2920826,,,,,,,2022-01-18,1,,,,,モリタケイリジム,0
2457,7040003019291,新規,0,2022-01-18,2022-01-18,合同会社ＧＬＯＲＹ,,合同会社,千葉県,千葉市花見川区,幕張本郷７丁目８番２１号栗林第三ビル１０１,,12,102,2620033,,,,,,,2022-01-18,1,,,,,グローリー,0
2458,7040003019300,新規,0,2022-01-18,2022-01-18,合同会社ここね,,合同会社,千葉県,流山市,三輪野山１丁目１１０４番地の２,,12,220,2700175,,,,,,,2022-01-18,1,,,,,ココネ,0
2469,7060001034472,新規,0,2022-01-18,2022-01-18,ジュピター株式会社,,株式会社,栃木県,宇都宮市,中今泉４丁目２４番２２号－２Ｆ,,09,201,3210968,,,,,,,2022-01-18,1,,,,,ジュピター,0
2470,7060001034489,新規,0,2022-01-18,2022-01-18,ＩＴ＿株式会社,00125425,株式会社,栃木県,那須塩原市,大原間西２丁目８番地１－１０１号,,09,213,3293157,,,,,,,2022-01-18,1,,,,,アイティメイ,0
2472,7060003003921,新規,0,2022-01-18,2022-01-18,合同会社パンドレア,,合同会社,栃木県,那須郡那須町,大字寺子丙１０４－６９,,09,407,3293222,,,,,,,2022-01-18,1,,,,,パンドレア,0
2476,7070001038852,新規,0,2022-01-18,2022-01-18,柏瀬技研株式会社,,株式会社,群馬県,太田市,龍舞町５１９７番地,,10,205,3730806,,,,,,,2022-01-18,1,,,,,カシワセギケン,0
2480,7080001024694,新規,0,2022-01-18,2022-01-18,西吉電貿易株式会社,,株式会社,静岡県,静岡市駿河区,南町４－２エルフラット２Ａ,,22,102,4228067,,,,,,,2022-01-18,1,,,,,ニシヨシデンボウエキ,0
2481,7080003002723,新規,0,2022-01-18,2022-01-18,合同会社フェリークプラナスペルシカ,,合同会社,静岡県,静岡市清水区,西大曲町９－３６,,22,103,4240046,,,,,,,2022-01-18,1,,,,,フェリークプラナスペルシカ,0
2482,7080101023051,新規,0,2022-01-18,2022-01-18,株式会社リレーション,,株式会社,静岡県,沼津市,三園町３番３号,,22,203,4100833,,,,,,,2022-01-18,1,,,,,リレーション,0
2494,7120001243050,新規,0,2022-01-18,2022-01-18,株式会社エステートＴＡＫＵ,,株式会社,大阪府,枚方市,楠葉花園町５番６－３０５号,,27,210,5731121,,,,,,,2022-01-18,1,,,,,エステートタク,0
2495,7120001243265,新規,0,2022-01-18,2022-01-18,株式会社Ｂｏｎｄｂｉｚ,,株式会社,大阪府,大阪市阿倍野区,阪南町３丁目１０番２６号グレースコートシーダーバレーＩＩ６０１号,00125437,27,119,5450021,,,,,,,2022-01-18,1,,,,,ボンドビズ,0
2496,7120001243273,新規,0,2022-01-18,2022-01-18,株式会社藤味ダイニング,,株式会社,大阪府,大阪市福島区,野田４丁目１番３６号野田４松屋ビル２階,,27,103,5530005,,,,,,,2022-01-18,1,,,,,フジミダイニング,0
2502,7120101064966,新規,0,2022-01-18,2022-01-18,株式会社ｎａｎｔｅｘ,,株式会社,大阪府,阪南市,自然田１４４７番地の１０,,27,232,5990212,,,,,,,2022-01-18,1,,,,,ナンテックス,0
2503,7120103004532,新規,0,2022-01-18,2022-01-18,合同会社ユニオン,,合同会社,大阪府,岸和田市,西之内町４４－３７,,27,202,5960044,,,,,,,2022-01-18,1,,,,,ユニオン,0
2509,7130001070898,新規,0,2022-01-18,2022-01-18,株式会社Ｔｒｕｓｔ　ｃａｒｅ,,株式会社,京都府,向日市,上植野町南淀井３番地の５,,26,208,6170006,,,,,,,2022-01-18,1,,,,,トラストケア,0
2517,7140001124505,新規,0,2022-01-18,2022-01-18,株式会社ツナグ,,株式会社,兵庫県,尼崎市,上坂部２丁目１２番４－１号,,28,202,6610979,,,,,,,2022-01-18,1,,,,,ツナグ,0
2518,7140001124521,新規,0,2022-01-18,2022-01-18,株式会社ＩＤ,,株式会社,兵庫県,三木市,志染町中自由が丘２丁目５２５番地,,28,215,6730552,,,,,,,2022-01-18,1,,,,,アイディ,0
2519,7140001124546,新規,0,2022-01-18,2022-01-18,株式会社小寺電工,,株式会社,兵庫県,揖保郡太子町,鵤１０３番地１０,,28,464,6711561,,,,,,,2022-01-18,1,,,,,コデラデンコウ,0
2520,7140001124554,新規,0,2022-01-18,2022-01-18,誠栄ホーム株式会社,,株式会社,兵庫県,加古川市,野口町野口２８３番地,,28,210,6750012,,,,,,,2022-01-18,1,,,,,セイエイホーム,0
2521,7140001124562,新規,0,2022-01-18,2022-01-18,上嶋エステート株式会社,,株式会社,兵庫県,豊岡市,城南町１４番２４号,,28,209,6680045,,,,,,,2022-01-18,1,,,,,ウエシマエステート,0
2522,7140001124570,新規,0,2022-01-18,2022-01-18,株式会社スマイリングカンパニー,,株式会社,兵庫県,たつの市,神岡町西鳥井２５７番地１,,28,229,6794105,,,,,,,2022-01-18,1,,,,,スマイリングカンパニー,0
2523,7140001124587,新規,0,2022-01-18,2022-01-18,株式会社Ｆｏｏｖａ,,株式会社,兵庫県,神戸市中央区,下山手通２丁目１番１３号第１３シャルマンビル２０１号室,,28,110,6500011,,,,,,,2022-01-18,1,,,,,フーバ,0
2524,7140001124595,新規,0,2022-01-18,2022-01-18,津田機工株式会社,,株式会社,兵庫県,姫路市,北条永良町１１９番地,,28,201,6700946,,,,,,,2022-01-18,1,,,,,ツダキコウ,0
2528,7140003017120,新規,0,2022-01-18,2022-01-18,ミロヒ商会合同会社,,合同会社,兵庫県,西宮市,樋之池町７－５－４０３,,28,204,6620084,,,,,,,2022-01-18,1,,,,,ミロヒショウカイ,0
2529,7140003017186,新規,0,2022-01-18,2022-01-18,合同会社ｕｂｉｗｉｓｅ,,合同会社,兵庫県,神戸市中央区,下山手通８丁目１６番１０号３Ｆ,,28,110,6500011,,,,,,,2022-01-18,1,,,,,ユビワイズ,0
2530,7140003017211,新規,0,2022-01-18,2022-01-18,合同会社プロテウス,,合同会社,兵庫県,神戸市東灘区,住吉東町２丁目４番２０－５１５号,,28,101,6580052,,,,,,,2022-01-18,1,,,,,プロテウス,0
2531,7150003002600,新規,0,2022-01-18,2022-01-18,合同会社そう,,合同会社,奈良県,北葛城郡上牧町,片岡台３丁目１－５７－３０６,,29,424,6390201,,,,,,,2022-01-18,1,,,,,ソウ,0
2543,7180001149507,新規,0,2022-01-18,2022-01-18,橋本プラスター株式会社,,株式会社,愛知県,名古屋市北区,六が池町２７４番地,,23,103,4620002,,,,,,,2022-01-18,1,,,,,ハシモトプラスター,0
2544,7180001149523,新規,0,2022-01-18,2022-01-18,株式会社源藏,,株式会社,愛知県,名古屋市中区,金山２丁目４番１４号メイコウビル１Ａ,,23,106,4600022,,,,,,,2022-01-18,1,,,,,ゲンゾウ,0
2545,7180001149564,新規,0,2022-01-18,2022-01-18,株式会社サンＦマシナリー,,株式会社,愛知県,名古屋市熱田区,金山町１丁目１９番１３号,,23,109,4560002,,,,,,,2022-01-18,1,,,,,サンエフマシナリー,0
2546,7180001149597,新規,0,2022-01-18,2022-01-18,株式会社ブランコ,,株式会社,愛知県,名古屋市昭和区,鶴舞３丁目１番１５号,,23,107,4660064,,,,,,,2022-01-18,1,,,,,ブランコ,0
2547,7180001149606,新規,0,2022-01-18,2022-01-18,Ｎｅｖｅｒ　Ｔｏｏ　Ｌａｔｅ　Ａｃａｄｅｍｙ株式会社,,株式会社,愛知県,瀬戸市,水北町５００番地の１,,23,204,4890009,,,,,,,2022-01-18,1,,,,,ネバーツーレイトアカデミー,0
2552,7180003023395,新規,0,2022-01-18,2022-01-18,ＪＯＳＳ合同会社,,合同会社,愛知県,名古屋市東区,橦木町１丁目２９番地の１パーク・ホームズ橦木町４０２号,,23,102,4610014,,,,,,,2022-01-18,1,,,,,ジェイオーエスエス,0
2558,7180301035852,新規,0,2022-01-18,2022-01-18,株式会社かけい塗装,,株式会社,愛知県,刈谷市,井ケ谷町池之浦５５番地,,23,210,4480001,,,,,,,2022-01-18,1,,,,,カケイトソウ,0
2563,7190001029039,新規,0,2022-01-18,2022-01-18,株式会社華王殿ホールディングス,,株式会社,三重県,松阪市,高町５０５番地,,24,204,5150011,,,,,,,2022-01-18,1,,,,,カオウデンホールディングス,0
2564,7190001029047,新規,0,2022-01-18,2022-01-18,株式会社ソフトスパイニー,,株式会社,三重県,志摩市,阿児町立神２２９６番２,,24,215,5170503,,,,,,,2022-01-18,1,,,,,ソフトスパイニー,0
2572,7200003005424,新規,0,2022-01-18,2022-01-18,パロット合同会社,,合同会社,岐阜県,岐阜市,今嶺３丁目５番２号,,21,201,5008388,,,,,,,2022-01-18,1,,,,,パロット,0
2576,7220001024655,新規,0,2022-01-18,2022-01-18,インフロント株式会社,,株式会社,石川県,金沢市,八日市３丁目５３１番地,,17,201,9218064,,,,,,,2022-01-18,1,,,,,インフロント,0
2583,7250003002986,新規,0,2022-01-18,2022-01-18,合同会社ファンハウス,,合同会社,山口県,岩国市,平田１丁目２７番６８号,,35,208,7410072,,,,,,,2022-01-18,1,,,,,ファンハウス,0
2590,7260001036449,新規,0,2022-01-18,2022-01-18,株式会社佐藤エクステリア,,株式会社,岡山県,倉敷市,真備町辻田９３８番地１,00125426,33,202,7101312,,,,,,,2022-01-18,1,,,,,サトウエクステリア,0
2604,7290001095938,新規,0,2022-01-18,2022-01-18,株式会社アーフリーミ,,株式会社,福岡県,宗像市,公園通り１丁目１１番１号,,40,220,8113516,,,,,,,2022-01-18,1,,,,,アーフリーミ,0
2605,7290001096011,新規,0,2022-01-18,2022-01-18,さくら工務店株式会社,,株式会社,福岡県,糸島市,志摩芥屋７７番４号,,40,230,8191335,,,,,,,2022-01-18,1,,,,,サクラコウムテン,0
2608,7290003012008,新規,0,2022-01-18,2022-01-18,Ｆコンサルト合同会社,,合同会社,福岡県,福岡市城南区,別府４丁目３番１２－３０２号サンリヤン別府,,40,136,8140104,,,,,,,2022-01-18,1,,,,,エフコンサルト,0
2622,7330001029370,新規,0,2022-01-18,2022-01-18,株式会社高麗人参の里,,株式会社,熊本県,山鹿市,鹿央町岩原１８５７－１,,43,208,8610561,,,,,,,2022-01-18,1,,,,,コウライニンジンノサト,0
2624,7340001024437,新規,0,2022-01-18,2022-01-18,株式会社ＷＩＮＤ　ＡＲＥＡ,,株式会社,鹿児島県,鹿屋市,旭原町３６０６－１００－１,,46,203,8930022,,,,,,,2022-01-18,1,,,,,ウインドエリア,0
2628,7360001029905,新規,0,2022-01-18,2022-01-18,株式会社北条,,株式会社,沖縄県,那覇市,字田原１０５番地１エクセレントミヤビ１０２号,,47,201,9010156,,,,,,,2022-01-18,1,,,,,ホウジョウ,0
2629,7360003011729,新規,0,2022-01-18,2022-01-18,合同会社ＴｒｕｓｓＬｉｎｅ,,合同会社,沖縄県,沖縄市,美原１丁目２２番１２号,,47,211,9042155,,,,,,,2022-01-18,1,,,,,,0
2630,7360003011737,新規,0,2022-01-18,2022-01-18,合同会社Ｓａｒｉｌｉ　ｍｏ,,合同会社,沖縄県,宜野湾市,真栄原１丁目１７番１４号,,47,205,9012215,,,,,,,2022-01-18,1,,,,,サリリモ,0
2632,7370001048078,新規,0,2022-01-18,2022-01-18,株式会社庄司興業,,株式会社,宮城県,仙台市若林区,新寺４丁目２番３５号,,04,103,9840051,,,,,,,2022-01-18,1,,,,,ショウジコウギョウ,0
2633,7370001048086,新規,0,2022-01-18,2022-01-18,株式会社よろずや,,株式会社,宮城県,仙台市若林区,卸町２丁目１５番地の２,,04,103,9840015,,,,,,,2022-01-18,1,,,,,ヨロズヤ,0
2642,7380005012525,新規,0,2022-01-18,2022-01-18,ＮＰＯ法人シアンの瞳,,その他の設立登記法人,福島県,いわき市,常磐湯本町天王崎１番地の１７４,,07,204,9728321,,,,,,,2022-01-18,1,,,,,シアンノヒトミ,0
2648,7420003002432,新規,0,2022-01-18,2022-01-18,合同会社ミライエ,,合同会社,青森県,青森市,浜館２丁目１２番地２６,,02,201,0300947,,,,,,,2022-01-18,1,,,,,ミライエ,0
2649,7420005007784,新規,0,2022-01-18,2022-01-18,特定非営利活動法人Ｃｈｏｏｓｅ,,その他の設立登記法人,青森県,平川市,本町富岡１１８－２,,02,210,0360103,,,,,,,2022-01-18,1,,,,,チューズ,0
2651,7430001085800,新規,0,2022-01-18,2022-01-18,株式会社Ｃｒａｆｔ＆ｈｏｍｅ,,株式会社,北海道,江別市,元江別８２０番地の４５,,01,217,0670032,,,,,,,2022-01-18,1,,,,,クラフトアンドホーム,0
2652,7430003013552,新規,0,2022-01-18,2022-01-18,イーナサービス合同会社,,合同会社,北海道,札幌市北区,新琴似九条８丁目２番１６号,,01,102,0010909,,,,,,,2022-01-18,1,,,,,イーナサービス,0
2668,7470003002114,新規,0,2022-01-18,2022-01-18,合同会社ＩＳＭ,,合同会社,香川県,坂出市,久米町１丁目１５－２ＡＳＫヴェールクレール久米町３０６,,37,203,7620003,,,,,,,2022-01-18,1,,,,,イズム,0
2682,8010001223657,新規,0,2022-01-18,2022-01-18,株式会社ユニッジ,,株式会社,東京都,千代田区,永田町２丁目１７番３号来栖ビル１階,,13,101,1000014,,,,,,,2022-01-18,1,,,,,ユニッジ,0
2700,8010401164906,新規,0,2022-01-18,2022-01-18,株式会社Ｍｉｌｌｉｏｎ　Ｔｏｋｙｏ,,株式会社,東京都,港区,麻布十番２丁目２番５号,,13,103,1060045,,,,,,,2022-01-18,1,,,,,ミリオントウキョウ,0
2701,8010401164914,新規,0,2022-01-18,2022-01-18,株式会社エフシード,,株式会社,東京都,港区,南青山２丁目２－１５,,13,103,1070062,,,,,,,2022-01-18,1,,,,,エフシード,0
2702,8010401164930,新規,0,2022-01-18,2022-01-18,ｊｍｖ株式会社,,株式会社,東京都,港区,三田４丁目７番２６－１２０１号,,13,103,1080073,,,,,,,2022-01-18,1,,,,,ジェイエムブイ,0
2703,8010401164955,新規,0,2022-01-18,2022-01-18,株式会社藤野,,株式会社,東京都,港区,赤坂２丁目８番１１号,,13,103,1070052,,,,,,,2022-01-18,1,,,,,フジノ,0
2704,8010401164963,新規,0,2022-01-18,2022-01-18,株式会社ＯＮＥｌｙ　Ｃｒｅａｔｉｖｅｓ,,株式会社,東京都,港区,赤坂１丁目１番１６号細川ビル,,13,103,1070052,,,,,,,2022-01-18,1,,,,,オンリークリエイティブズ,0
2705,8010401164971,新規,0,2022-01-18,2022-01-18,ＬＳ－ＳＨＩＰ第２６号株式会社,,株式会社,東京都,港区,六本木１丁目６番１号,,13,103,1060032,,,,,,,2022-01-18,1,,,,,エルエスシップダイニジュウロクゴウ,0
2706,8010401164996,新規,0,2022-01-18,2022-01-18,ユナイテッド・イノベーションズ株式会社,,株式会社,東京都,港区,南青山３丁目８番４０号,,13,103,1070062,,,,,,,2022-01-18,1,,,,,ユナイテッドイノベーションズ,0
2707,8010401165004,新規,0,2022-01-18,2022-01-18,株式会社ＰＲｏｒｄｅｒ,,株式会社,東京都,港区,北青山２丁目７番１３号プラセオ青山ビル３Ｆ,,13,103,1070061,,,,,,,2022-01-18,1,,,,,ピーアールオーダー,0
2708,8010403026872,新規,0,2022-01-18,2022-01-18,ＥＳＲ本星崎合同会社,,合同会社,東京都,港区,浜松町１丁目２０番１０号ライオネス浜松町５０６号室,,13,103,1050013,,,,,,,2022-01-18,1,,,,,イーエスアールモトホシザキ,0
2709,8010403026880,新規,0,2022-01-18,2022-01-18,Ｚｅｎ　Ａｄｖｉｓｏｒｙ合同会社,,合同会社,東京都,港区,芝公園２丁目１１番１－２８０４号,,13,103,1050011,,,,,,,2022-01-18,1,,,,,ゼンアドバイザリー,0
2710,8010403026889,新規,0,2022-01-18,2022-01-18,合同会社ディグル,,合同会社,東京都,港区,南麻布１丁目１５番２,,13,103,1060047,,,,,,,2022-01-18,1,,,,,ディグル,0
2711,8010403026897,新規,0,2022-01-18,2022-01-18,合同会社エムゼス,,合同会社,東京都,港区,赤坂３丁目１４番１号コンチネンタルＩＶビル地下１階,00125434,13,103,1070052,,,,,,,2022-01-18,1,,,,,エムゼス,0
2717,8010601060509,新規,0,2022-01-18,2022-01-18,株式会社ｓｉｏｎ　ｗｏｒｋｓ,,株式会社,東京都,江東区,青海２丁目５番１０号テレコムセンタービル東棟１４階,,13,108,1350064,,,,,,,2022-01-18,1,,,,,シオンワークス,0
2721,8010701042043,新規,0,2022-01-18,2022-01-18,株式会社ＧＴＤ,,株式会社,東京都,品川区,東五反田１丁目２０番１号,,13,109,1410022,,,,,,,2022-01-18,1,,,,,ジーティーディー,0
2722,8010701042076,新規,0,2022-01-18,2022-01-18,株式会社トラブルレスキュー,,株式会社,東京都,品川区,荏原２丁目１０番２－１０１号,,13,109,1420063,,,,,,,2022-01-18,1,,,,,トラブルレスキュー,0
2731,8010901050184,新規,0,2022-01-18,2022-01-18,株式会社アレシアン,,株式会社,東京都,世田谷区,下馬１丁目６番１２号,,13,112,1540002,,,,,,,2022-01-18,1,,,,,アレシアン,0
2732,8010903007083,新規,0,2022-01-18,2022-01-18,合同会社パドル,,合同会社,東京都,世田谷区,喜多見８丁目１０番９号ピアロイヤル１０２,,13,112,1570067,,,,,,,2022-01-18,1,,,,,パドル,0
2739,8011001144950,新規,0,2022-01-18,2022-01-18,株式会社ＰＥＴＲＯＳＯＬＡＵＭ,,株式会社,東京都,目黒区,目黒１丁目１６番１４－２０５号,,13,110,1530063,,,,,,,2022-01-18,1,,,,,ペテロオラウム,0
2740,8011001145107,新規,0,2022-01-18,2022-01-18,株式会社Ａｔｅｌｉｅｒ　ｔ．Ｈ．ｔ,,株式会社,東京都,目黒区,東山１丁目２３番２３号東山ハウス２－１Ｆ,,13,110,1530043,,,,,,,2022-01-18,1,,,,,アトリエティエッチティ,0
2741,8011001145115,新規,0,2022-01-18,2022-01-18,トワキャピタル株式会社,,株式会社,東京都,渋谷区,東１丁目２番２０号,,13,113,1500011,,,,,,,2022-01-18,1,,,,,トワキャピタル,0
2742,8011001145131,新規,0,2022-01-18,2022-01-18,カンタン起業株式会社,,株式会社,東京都,渋谷区,神山町１０番４－２０４号,,13,113,1500047,,,,,,,2022-01-18,1,,,,,カンタンキギョウ,0
2747,8011003013996,新規,0,2022-01-18,2022-01-18,ＦｏｒｅｖｅｒＷｏｒｋ合同会社,,合同会社,東京都,渋谷区,宇田川町１６番８号渋谷センタービル３階,,13,113,1500042,,,,,,,2022-01-18,1,,,,,フォーエバーワーク,0
2755,8011101097553,新規,0,2022-01-18,2022-01-18,株式会社ＭＡＲＵ,,株式会社,東京都,新宿区,若松町３１番５－４０１号,,13,104,1620056,,,,,,,2022-01-18,1,,,,,マル,0
2766,8011401023960,新規,0,2022-01-18,2022-01-18,ＴＯＹＯ商事株式会社,,株式会社,東京都,板橋区,坂下３丁目４番１５号３０２室,,13,119,1740043,,,,,,,2022-01-18,1,,,,,トヨショウジ,0
2769,8011701024972,新規,0,2022-01-18,2022-01-18,株式会社ワイズ・ウッド,,株式会社,東京都,江戸川区,大杉３丁目２４番２１号,,13,123,1320022,,,,,,,2022-01-18,1,,,,,ワイズウッド,0
2770,8011803004930,新規,0,2022-01-18,2022-01-18,ネーヴェ合同会社,,合同会社,東京都,足立区,千住緑町２丁目５番１５号,,13,121,1200044,,,,,,,2022-01-18,1,,,,,ネーヴェ,0
2778,8012401038767,新規,0,2022-01-18,2022-01-18,株式会社Ｉｍｍｕｎｏｈｅｌｉｘ,,株式会社,東京都,小金井市,梶野町１丁目２番３６号,,13,210,1840002,,,,,,,2022-01-18,1,,,,,イムノヘリックス,0
2794,8013303005995,新規,0,2022-01-18,2022-01-18,ｅｌｅｍｅｎｔ合同会社,,合同会社,東京都,豊島区,目白２丁目４－１－８０５号,,13,116,1710031,,,,,,,2022-01-18,1,,,,,エレメント,0
2802,8020001144712,新規,0,2022-01-18,2022-01-18,株式会社ＫＯＵＭＩＹＡ,,株式会社,神奈川県,川崎市中原区,木月１丁目３２番３号内田マンション２階,,14,133,2110025,,,,,,,2022-01-18,1,,,,,コウミヤ,0
2803,8020001144794,新規,0,2022-01-18,2022-01-18,株式会社しんぷる,,株式会社,神奈川県,横浜市泉区,和泉中央南２丁目２２番１１号,,14,116,2450023,,,,,,,2022-01-18,1,,,,,シンプル,0
2804,8020001144828,新規,0,2022-01-18,2022-01-18,株式会社ＩＮＳＴＥＰ．Ｓ,,株式会社,神奈川県,横浜市青葉区,松風台３４－２６,,14,117,2270067,,,,,,,2022-01-18,1,,,,,インステップス,0
2808,8020003021158,新規,0,2022-01-18,2022-01-18,合同会社ＫＵＲＯ,,合同会社,神奈川県,横浜市緑区,長津田町２１７３－５ベルハウスＤ２０２,,14,113,2260026,,,,,,,2022-01-18,1,,,,,クロ,0
2814,8021001074965,新規,0,2022-01-18,2022-01-18,株式会社福助,,株式会社,神奈川県,相模原市南区,御園５丁目５－１０,,14,153,2520317,,,,,,,2022-01-18,1,,,,,フクスケ,0
2815,8021001074981,新規,0,2022-01-18,2022-01-18,株式会社ＲＯＪＩインターナショナルグループ,,株式会社,神奈川県,厚木市,棚沢１３５番地８,,14,212,2430205,,,,,,,2022-01-18,1,,,,,ロジインターナショナルグループ,0
2816,8021003011306,新規,0,2022-01-18,2022-01-18,ｎｏｔｄｅａｄ合同会社,,合同会社,神奈川県,小田原市,南鴨宮１丁目１３番２号２，３Ｆ（マキクニー）,,14,206,2500875,,,,,,,2022-01-18,1,,,,,ノットデッド,0
2820,8030001146344,新規,0,2022-01-18,2022-01-18,株式会社藤助,,株式会社,埼玉県,越谷市,蒲生１丁目５番４５号,,11,222,3430838,,,,,,,2022-01-18,1,,,,,トウスケ,0
2821,8030001146369,新規,0,2022-01-18,2022-01-18,株式会社Ｓａｉｌ,,株式会社,埼玉県,草加市,新栄４丁目１１５４番地１５,,11,221,3400056,,,,,,,2022-01-18,1,,,,,セイル,0
2822,8030001146377,新規,0,2022-01-18,2022-01-18,株式会社アキユウ,,株式会社,埼玉県,朝霞市,浜崎４丁目４番２９号,,11,227,3510033,,,,,,,2022-01-18,1,,,,,アキユウ,0
2850,8040001121750,新規,0,2022-01-18,2022-01-18,株式会社コネクトホープ,,株式会社,千葉県,習志野市,泉町２丁目６番４号,,12,216,2750006,,,,,,,2022-01-18,1,,,,,コネクトホープ,0
2851,8040001121759,新規,0,2022-01-18,2022-01-18,株式会社吉川人事・経営コンサルティング,,株式会社,千葉県,千葉市稲毛区,稲毛東６丁目１８番１４号,,12,103,2630031,,,,,,,2022-01-18,1,,,,,ヨシカワジンジケイエイコンサルティング,0
2852,8040001121775,新規,0,2022-01-18,2022-01-18,株式会社放夢,,株式会社,千葉県,流山市,おおたかの森北２丁目２－１アルタクラッセ２０６,,12,220,2700119,,,,,,,2022-01-18,1,,,,,ホウム,0
2853,8040001121783,新規,0,2022-01-18,2022-01-18,株式会社新井興業,,株式会社,千葉県,野田市,岩名１７３６番地の１０,,12,208,2780055,,,,,,,2022-01-18,1,,,,,アライコウギョウ,0
2887,8040003019282,新規,0,2022-01-18,2022-01-18,ＤＷ．ＬｅａＤｒｅａｍ合同会社,,合同会社,千葉県,市川市,本北方１丁目３９番５－１０１,,12,203,2720816,,,,,,,2022-01-18,1,,,,,ディーダブルリードリーム,0
2888,8040003019316,新規,0,2022-01-18,2022-01-18,合同会社バース,,合同会社,千葉県,市原市,椎津５２５番地１,,12,219,2990118,,,,,,,2022-01-18,1,,,,,バース,0
2897,8050001050486,新規,0,2022-01-18,2022-01-18,株式会社サクラ,,株式会社,茨城県,神栖市,知手中央２丁目６番３５号,,08,232,3140112,,,,,,,2022-01-18,1,,,,,サクラ,0
2900,8060001034488,新規,0,2022-01-18,2022-01-18,株式会社Ｏｎｅ　Ｉｎｃｈ,,株式会社,栃木県,佐野市,大橋町２１０２番地４２,,09,204,3270003,,,,,,,2022-01-18,1,,,,,ワンインチ,0
2904,8070001038851,新規,0,2022-01-18,2022-01-18,ＪＡ高崎ハムファクトリー株式会社,,株式会社,群馬県,高崎市,八幡原町７２２番地５,,10,202,3700024,,,,,,,2022-01-18,1,,,,,ジェイエイタカサキハムファクトリー,0
2909,8080001024693,新規,0,2022-01-18,2022-01-18,株式会社トモノクリエイト,,株式会社,静岡県,静岡市駿河区,敷地２丁目９－５－４０５,,22,102,4228036,,,,,,,2022-01-18,1,,,,,,0
2912,8080101023050,新規,0,2022-01-18,2022-01-18,株式会社ドリームビレッジホールディングス,,株式会社,静岡県,富士市,依田橋４０５番地の１,,22,210,4170002,,,,,,,2022-01-18,1,,,,,ドリームビレッジホールディングス,0
2915,8100001034987,新規,0,2022-01-18,2022-01-18,株式会社メエップＨＤ,,株式会社,長野県,松本市,大字島立１８３６番地１０,,20,202,3900852,,,,,,,2022-01-18,1,,,,,メエップエイチデイ,0
2922,8100003006373,新規,0,2022-01-18,2022-01-18,合同会社安曇野ＴＳＫ　ＦＡＲＭ,,合同会社,長野県,安曇野市,穂高牧１０４０番地２,,20,220,3998305,,,,,,,2022-01-18,1,,,,,アズミノティーエスケイファーム,0
2926,8110001036355,新規,0,2022-01-18,2022-01-18,新潟住宅販売株式会社,,株式会社,新潟県,新潟市中央区,学校町通１番町１２番地,,15,103,9518126,,,,,,,2022-01-18,1,,,,,,0
2927,8110001036371,新規,0,2022-01-18,2022-01-18,株式会社ほそかわ農場,,株式会社,新潟県,長岡市,飯島２５３番地３,,15,202,9495401,,,,,,,2022-01-18,1,,,,,ホソカワノウジョウ,0
2938,8120001242968,新規,0,2022-01-18,2022-01-18,ＣＯＬＥＡＤ株式会社,,株式会社,大阪府,大阪市住之江区,南加賀屋４丁目５－２０－１階,,27,125,5590015,,,,,,,2022-01-18,1,,,,,コリード,0
2939,8120001243165,新規,0,2022-01-18,2022-01-18,株式会社Ａｍａｃｏｎ,,株式会社,大阪府,枚方市,中宮本町７番１２号,,27,210,5731196,,,,,,,2022-01-18,1,,,,,アマコン,0
2940,8120001243248,新規,0,2022-01-18,2022-01-18,株式会社ＴＩＧＥＲ　ＧＲＯＵＰ,,株式会社,大阪府,大阪市生野区,桃谷５丁目４番２７号,,27,116,5440034,,,,,,,2022-01-18,1,,,,,タイガーグループ,0
2941,8120001243264,新規,0,2022-01-18,2022-01-18,株式会社ＲＫＣ,,株式会社,大阪府,大阪市淀川区,西宮原１丁目６番６０号,,27,123,5320004,,,,,,,2022-01-18,1,,,,,アールケーシー,0
2942,8120001243289,新規,0,2022-01-18,2022-01-18,株式会社ＭＡＹ,,株式会社,大阪府,大阪市中央区,北浜２丁目２番２１－２９０１号,,27,128,5410041,,,,,,,2022-01-18,1,,,,,メイ,0
2957,8120101064949,新規,0,2022-01-18,2022-01-18,ネストサーブ株式会社,,株式会社,大阪府,堺市北区,百舌鳥赤畑町３丁２０２番地９,,27,146,5918037,,,,,,,2022-01-18,1,,,,,ネストサーブ,0
2958,8120101064957,新規,0,2022-01-18,2022-01-18,株式会社ＧＲツカサ,,株式会社,大阪府,堺市北区,南花田町２４０番地１,,27,146,5918011,,,,,,,2022-01-18,1,,,,,ジーアールツカサ,0
2960,8120103004531,新規,0,2022-01-18,2022-01-18,ＡＮＢＡＩ合同会社,,合同会社,大阪府,堺市南区,竹城台２丁１番２３号,,27,145,5900105,,,,,,,2022-01-18,1,,,,,アンバイ,0
2961,8120105009504,新規,0,2022-01-18,2022-01-18,みみはらグループ事業協同組合,,その他の設立登記法人,大阪府,堺市堺区,高砂町４丁１０９番地３,,27,141,5900820,,,,,,,2022-01-18,1,,,,,ミミハラグループ,0
2963,8120901045438,新規,0,2022-01-18,2022-01-18,株式会社大喜技研,,株式会社,大阪府,豊中市,小曽根３丁目１８番７号,,27,203,5610813,,,,,,,2022-01-18,1,,,,,オオキギケン,0
2966,8122001035492,新規,0,2022-01-18,2022-01-18,株式会社やまねき,,株式会社,大阪府,八尾市,黒谷２丁目１１番地,,27,212,5810873,,,,,,,2022-01-18,1,,,,,ヤマネキ,0
2969,8130001070897,新規,0,2022-01-18,2022-01-18,天神会株式会社,,株式会社,京都府,京都市中京区,蛸薬師通烏丸西入橋弁慶町２２８番地,,26,104,6048151,,,,,,,2022-01-18,1,,,,,テンジンカイ,0
2970,8130001070947,新規,0,2022-01-18,2022-01-18,株式会社ＣＨＡＮＧＥＭＥＮＴ,,株式会社,京都府,京都市西京区,上桂北村町２０４番地サンバレー桂川５０２,,26,111,6158213,,,,,,,2022-01-18,1,,,,,チェンジメント,0
2982,8140001124512,新規,0,2022-01-18,2022-01-18,株式会社アークレイ,,株式会社,兵庫県,神戸市垂水区,高丸５丁目２番１８号,,28,108,6550016,,,,,,,2022-01-18,1,,,,,アークレイ,0
2983,8140001124520,新規,0,2022-01-18,2022-01-18,株式会社ティーエムティー,,株式会社,兵庫県,神戸市灘区,上野通１丁目２番３５－２１５号,,28,102,6570817,,,,,,,2022-01-18,1,,,,,ティーエムティー,0
2984,8140001124529,新規,0,2022-01-18,2022-01-18,ＧＲＡＦＦ　ＴＥＳＴＥＲＳ　ＤＥＳＩＧＮ株式会社,,株式会社,兵庫県,神戸市東灘区,北青木４丁目５番２－２号,,28,101,6580014,,,,,,,2022-01-18,1,,,,,グラフテスターズデザイン,0
2985,8140001124553,新規,0,2022-01-18,2022-01-18,株式会社カジカワ保険事務所,,株式会社,兵庫県,豊岡市,江本６０６番地,,28,209,6680852,,,,,,,2022-01-18,1,,,,,カジカワホケンジムショ,0
2986,8140001124594,新規,0,2022-01-18,2022-01-18,株式会社ディアマンテ,,株式会社,兵庫県,姫路市,飾磨区清水１２２番地,,28,201,6728051,,,,,,,2022-01-18,1,,,,,ディアマンテ,0
2987,8140001124603,新規,0,2022-01-18,2022-01-18,株式会社Ｊトレ,,株式会社,兵庫県,神戸市兵庫区,荒田町２丁目７－１３,,28,105,6520032,,,,,,,2022-01-18,1,,,,,ジェイトレ,0
2988,8140001124611,新規,0,2022-01-18,2022-01-18,株式会社プラスエヌ,,株式会社,兵庫県,芦屋市,六麓荘町８番１５号,,28,206,6590011,,,,,,,2022-01-18,1,,,,,プラスエヌ,0
2991,8140003017243,新規,0,2022-01-18,2022-01-18,合同会社Ｋ．Ｂ．エンタープライズ,,合同会社,兵庫県,高砂市,高砂町朝日町３丁目２番２１号,,28,216,6760021,,,,,,,2022-01-18,1,,,,,ケイビーエンタープライズ,0
2992,8140005025987,新規,0,2022-01-18,2022-01-18,一般社団法人いきいきライフ協会中央神戸,,その他の設立登記法人,兵庫県,神戸市中央区,磯辺通２丁目２番１０号ワンノットトレ－ズビル７０７,,28,110,6510084,,,,,,,2022-01-18,1,,,,,イキイキライフキョウカイチュウオウコウベ,0
2998,8170001016946,新規,0,2022-01-18,2022-01-18,株式会社Ｎａｒｙ,,株式会社,和歌山県,和歌山市,中島５８０番地２２,,30,201,6410006,,,,,,,2022-01-18,1,,,,,ナリィ,0
3010,8180001149530,新規,0,2022-01-18,2022-01-18,株式会社友心設備工業,,株式会社,愛知県,小牧市,常普請１丁目２３７番地１,,23,219,4850044,,,,,,,2022-01-18,1,,,,,ユウシンセツビコウギョウ,0
3011,8180001149539,新規,0,2022-01-18,2022-01-18,株式会社メテオライト,,株式会社,愛知県,常滑市,北汐見坂３丁目２６番地,,23,216,4790867,,,,,,,2022-01-18,1,,,,,メテオライト,0
3012,8180001149555,新規,0,2022-01-18,2022-01-18,Ｔ３ＸＩ株式会社,,株式会社,愛知県,名古屋市中村区,平池町４丁目６０番地の１２,,23,105,4530872,,,,,,,2022-01-18,1,,,,,ティースリークロスイノベーション,0
3013,8180001149596,新規,0,2022-01-18,2022-01-18,Ｍｉｒｅｉ　Ｄｅｓｉｇｎ　Ｌａｂ株式会社,,株式会社,愛知県,あま市,坂牧大塚７２番地１,,23,237,4901115,,,,,,,2022-01-18,1,,,,,ミレイデザインラボ,0
3014,8180001149605,新規,0,2022-01-18,2022-01-18,ＫＲＭ株式会社,,株式会社,愛知県,名古屋市天白区,池場５丁目１８０５番地の１,,23,116,4680055,,,,,,,2022-01-18,1,,,,,ケーアールエム,0
3016,8180003023378,新規,0,2022-01-18,2022-01-18,合同会社ＲｅＰ,,合同会社,愛知県,名古屋市南区,西又兵ヱ町３丁目２４番地ラ・メール２１－１０２号,,23,112,4570835,,,,,,,2022-01-18,1,,,,,アールイーピー,0
3017,8180003023394,新規,0,2022-01-18,2022-01-18,合同会社愛と勇気のラブレイブ,,合同会社,愛知県,春日井市,大和通１丁目１５番地,,23,206,4860944,,,,,,,2022-01-18,1,,,,,アイトユウキノラブレイブ,0
3027,8200001039621,新規,0,2022-01-18,2022-01-18,株式会社ＬＩＭＡ　ＨＯＬＤＩＮＧＳ,,株式会社,岐阜県,岐阜市,茜部寺屋敷２丁目１０番地,,21,201,5008267,,,,,,,2022-01-18,1,,,,,リマホールディングス,0
3028,8200003005423,新規,0,2022-01-18,2022-01-18,合同会社円道,,合同会社,岐阜県,各務原市,小佐野町７丁目２８０番地,,21,213,5040942,,,,,,,2022-01-18,1,,,,,エンドウ,0
3029,8230003001790,新規,0,2022-01-18,2022-01-18,合同会社２ＦＲＡＭＥ２,,合同会社,富山県,富山市,太田口通り２丁目２番１６号,,16,201,9300063,,,,,,,2022-01-18,1,,,,,,0
3033,8240001059194,新規,0,2022-01-18,2022-01-18,株式会社ｃｏｃｏｌｏ,,株式会社,広島県,福山市,南今津町６番地２,,34,207,7290115,,,,,,,2022-01-18,1,,,,,ココロ,0
3043,8290001096002,新規,0,2022-01-18,2022-01-18,株式会社ＮＯＤＥ,,株式会社,福岡県,福岡市中央区,天神３丁目４番９号,,40,133,8100001,,,,,,,2022-01-18,1,,,,,ノード,0
3044,8290001096134,新規,0,2022-01-18,2022-01-18,株式会社ＴＯＫＩＺＵＮＡ,,株式会社,福岡県,那珂川市,中原２丁目１６１,,40,231,8111213,,,,,,,2022-01-18,1,,,,,トキズナ,0
3047,8290003011974,新規,0,2022-01-18,2022-01-18,合同会社コインプラザ,,合同会社,福岡県,福岡市南区,玉川町２０番５号,,40,134,8150037,,,,,,,2022-01-18,1,,,,,コインプラザ,0
3048,8290003011999,新規,0,2022-01-18,2022-01-18,合同会社ハルヒ,,合同会社,福岡県,福岡市中央区,今泉１丁目５－５－４０２,,40,133,8100021,,,,,,,2022-01-18,1,,,,,ハルヒ,0
3049,8290003012031,新規,0,2022-01-18,2022-01-18,ＭＤＯ５合同会社,,合同会社,福岡県,福岡市早良区,藤崎２丁目１番１８－５０３号,,40,137,8140013,,,,,,,2022-01-18,1,,,,,エムディオーファイブ,0
3053,8290801028179,新規,0,2022-01-18,2022-01-18,株式会社ＳＮＯＣ,,株式会社,福岡県,北九州市小倉北区,中井２丁目４番１１－９０１号,,40,106,8030836,,,,,,,2022-01-18,1,,,,,スノック,0
3057,8320001018844,新規,0,2022-01-18,2022-01-18,ＵＳインフラメンテ株式会社,,株式会社,大分県,玖珠郡玖珠町,大字大隈１８４番地の１,,44,462,8794414,,,,,,,2022-01-18,1,,,,,ユーエスインフラメンテ,0
3060,8330001029361,新規,0,2022-01-18,2022-01-18,株式会社松高園,,株式会社,熊本県,熊本市西区,花園７丁目８１番４８号,,43,103,8600072,,,,,,,2022-01-18,1,,,,,ショウコウエン,0
3066,8340001024436,新規,0,2022-01-18,2022-01-18,株式会社ドリームオン,,株式会社,鹿児島県,阿久根市,脇本２４７番地,,46,206,8991131,,,,,,,2022-01-18,1,,,,,ドリームオン,0
3069,8360001029862,新規,0,2022-01-18,2022-01-18,株式会社かいまる,,株式会社,沖縄県,宜野湾市,大山２丁目２１番５号,,47,205,9012223,,,,,,,2022-01-18,1,,,,,カイマル,0
3070,8360003011703,新規,0,2022-01-18,2022-01-18,合同会社ＮＫＭＴ,,合同会社,沖縄県,那覇市,宇栄原３丁目１３番１７号ＮＳフラッツ２０３,,47,201,9010153,,,,,,,2022-01-18,1,,,,,エヌケイエムティー,0
3075,8370001048093,新規,0,2022-01-18,2022-01-18,株式会社Ｎ・Ｎサービス,,株式会社,宮城県,白石市,福岡深谷字名無沢１番地１３,,04,206,9890731,,,,,,,2022-01-18,1,,,,,エヌエヌサービス,0
3076,8370003005555,新規,0,2022-01-18,2022-01-18,ｕｅｋｅｙ合同会社,,合同会社,宮城県,仙台市青葉区,小松島２丁目１３番地６号フラット小松島３０６,,04,101,9810905,,,,,,,2022-01-18,1,,,,,,0
3086,8390003001916,新規,0,2022-01-18,2022-01-18,ＨＯＬＯ　ＢＡＳＥ合同会社,,合同会社,山形県,山形市,鉄砲町１丁目１３‐３２,,06,201,9902492,,,,,,,2022-01-18,1,,,,,ホロベース,0
3090,8410001013084,新規,0,2022-01-18,2022-01-18,株式会社Ｎラッシュ,,株式会社,秋田県,山本郡藤里町,藤琴字馬坂２０１番地３,,05,346,0183201,,,,,,,2022-01-18,1,,,,,,0
3097,8430001085782,新規,0,2022-01-18,2022-01-18,株式会社Ｗｏｏｄｓｔｏｃｋ,,株式会社,北海道,札幌市中央区,南一条西１６丁目１番地３２３,,01,101,0600061,,,,,,,2022-01-18,1,,,,,ウッドストック,0
3098,8430001085816,新規,0,2022-01-18,2022-01-18,株式会社モカ,,株式会社,北海道,札幌市豊平区,月寒西四条８丁目２番４７号,,01,105,0620024,,,,,,,2022-01-18,1,,,,,モカ,0
3105,8450001013592,新規,0,2022-01-18,2022-01-18,株式会社こころ保険事務所,,株式会社,北海道,上川郡東神楽町,ひじり野北一条９丁目４番１号,,01,453,0711521,,,,,,,2022-01-18,1,,,,,ココロホケンジムショ,0
3109,8470001018929,新規,0,2022-01-18,2022-01-18,株式会社ピースクラブ,,株式会社,香川県,観音寺市,坂本町４丁目５番５号,,37,205,7680067,,,,,,,2022-01-18,1,,,,,ピースクラブ,0
3111,8470003002113,新規,0,2022-01-18,2022-01-18,合同会社Ｐｌｕｓ,,合同会社,香川県,高松市,国分寺町国分２５０５番地１５,,37,201,7690102,,,,,,,2022-01-18,1,,,,,プリュス,0
3122,9010003036742,新規,0,2022-01-18,2022-01-18,合同会社ホワイトベル,,合同会社,東京都,文京区,白山５丁目８－２－１００３,,13,105,1120001,,,,,,,2022-01-18,1,,,,,ホワイトベル,0
3123,9010003036750,新規,0,2022-01-18,2022-01-18,合同会社Ｈｅｌｌｏ　Ｗｏｒｌｄ　Ｅｎｇｉｎｅｅｒｉｎｇ,,合同会社,東京都,中央区,銀座１丁目１２番４号Ｎ＆Ｅ・ＢＬＤ．７階,,13,102,1040061,,,,,,,2022-01-18,1,,,,,ハローワールドエンジニアリング,0
3124,9010003036775,新規,0,2022-01-18,2022-01-18,アストロ・フォー合同会社,,合同会社,東京都,中央区,銀座１丁目６番１１号土志田ビルディング３Ｆ,,13,102,1040061,,,,,,,2022-01-18,1,,,,,アストロフォー,0
3127,9010005034463,新規,0,2022-01-18,2022-01-18,一般社団法人日本金融経済研究所,,その他の設立登記法人,東京都,中央区,銀座７丁目８番１３号ＢｒｏｗｎＰｌａｃｅ５Ｆ,,13,102,1040061,,,,,,,2022-01-18,1,,,,,ニホンキンユウケイザイケンキュウショ,0
3136,9010401164905,新規,0,2022-01-18,2022-01-18,株式会社ちーすけっぷ,,株式会社,東京都,港区,東麻布１丁目２９番３－２０２号,,13,103,1060044,,,,,,,2022-01-18,1,,,,,チースケップ,0
3137,9010401164913,新規,0,2022-01-18,2022-01-18,プラチナムアドバイザリー株式会社,,株式会社,東京都,港区,白金台４丁目１３－３,,13,103,1080071,,,,,,,2022-01-18,1,,,,,プラチナムアドバイザリー,0
3138,9010401164946,新規,0,2022-01-18,2022-01-18,リリナグ株式会社,,株式会社,東京都,港区,東麻布１丁目７番３号,,13,103,1060044,,,,,,,2022-01-18,1,,,,,リリナグ,0
3139,9010401164954,新規,0,2022-01-18,2022-01-18,株式会社ｈｅ’ｅ　ｎａｌｕ,,株式会社,東京都,港区,北青山３丁目６－７青山パラシオタワー１１Ｆ,,13,103,1070061,,,,,,,2022-01-18,1,,,,,ヘエナル,0
3140,9010401164962,新規,0,2022-01-18,2022-01-18,株式会社Ｆｕｌｌ　Ｓｐｅｅｄ　Ａｈｅａｄ,,株式会社,東京都,港区,南青山６丁目２番９号ＫＳビル２Ｆ,,13,103,1070062,,,,,,,2022-01-18,1,,,,,フルスピードアヘッド,0
3141,9010401164995,新規,0,2022-01-18,2022-01-18,株式会社ＵＰｓ,,株式会社,東京都,港区,赤坂２丁目１３番２３号赤坂ＭＹビル３Ｆ,,13,103,1070052,,,,,,,2022-01-18,1,,,,,アップス,0
3144,9010501048330,新規,0,2022-01-18,2022-01-18,株式会社センターフィールド,,株式会社,東京都,台東区,東上野１丁目１１番４号ザイマックス東上野ビル４Ｆ,,13,106,1100015,,,,,,,2022-01-18,1,,,,,センターフィールド,0
3147,9010601060532,新規,0,2022-01-18,2022-01-18,株式会社オンアド,,株式会社,東京都,墨田区,錦糸１丁目２番１号アルカセントラル１８階,,13,107,1300013,,,,,,,2022-01-18,1,,,,,オンアド,0
3152,9010701042075,新規,0,2022-01-18,2022-01-18,株式会社３６５日救急車,,株式会社,東京都,品川区,荏原２丁目１０番２－１０１号,,13,109,1420063,,,,,,,2022-01-18,1,,,,,サンビャクロクジュウゴニチキュウキュウシャ,0
3159,9011001145031,新規,0,2022-01-18,2022-01-18,株式会社ＫＯＫＯＮ,,株式会社,東京都,目黒区,青葉台３丁目３番１１号２Ｆ,,13,110,1530042,,,,,,,2022-01-18,1,,,,,ココン,0
3163,9011003014003,新規,0,2022-01-18,2022-01-18,Ｆｏｔｉａ合同会社,,合同会社,東京都,渋谷区,上原２丁目４７番４－１０１号,,13,113,1510064,,,,,,,2022-01-18,1,,,,,フォーティア,0
3169,9011101097494,新規,0,2022-01-18,2022-01-18,メディアブリッジ株式会社,,株式会社,東京都,新宿区,西新宿３丁目７番１号,,13,104,1600023,,,,,,,2022-01-18,1,,,,,メディアブリッジ,0
3172,9011201023549,新規,0,2022-01-18,2022-01-18,株式会社シバオ,,株式会社,東京都,中野区,中央２丁目４８番２０号,,13,114,1640011,,,,,,,2022-01-18,1,,,,,シバオ,0
3176,9011303004281,新規,0,2022-01-18,2022-01-18,合同会社ＯＰＴＥＣ,,合同会社,東京都,杉並区,高円寺南３丁目３６－８－Ａ２０５,,13,115,1660003,,,,,,,2022-01-18,1,,,,,オプテック,0
3181,9011503005039,新規,0,2022-01-18,2022-01-18,秀和合同会社,,合同会社,東京都,北区,赤羽１丁目３６番１１シンエイ赤羽マンション５０１Ｂ号室,,13,117,1150045,,,,,,,2022-01-18,1,,,,,シュウワ,0
3184,9011801040200,新規,0,2022-01-18,2022-01-18,株式会社ムックデザイン,,株式会社,東京都,足立区,西新井１丁目１４番５号,,13,121,1230841,,,,,,,2022-01-18,1,,,,,ムックデザイン,0
3192,9012801021347,新規,0,2022-01-18,2022-01-18,株式会社Ｊａｐａｎ　Ｅｌｅｃｔｒｉｃ　ｄｅｖｉｃｅ　Ｓｕｂｃｏｎｔｒａｃｔ,,株式会社,東京都,立川市,柴崎町６丁目７番２１号,,13,202,1900023,,,,,,,2022-01-18,1,,,,,ジャパンエレクトリックデバイスサブコントラクト,0
3196,9013101008828,新規,0,2022-01-18,2022-01-18,株式会社ｆａｍｆｕｌｌ,,株式会社,東京都,西多摩郡檜原村,本宿５０２,,13,307,1900214,,,,,,,2022-01-18,1,,,,,ファムフル,0
3203,9020001094510,新規,0,2022-01-18,2022-01-18,小川開発株式会社,,株式会社,神奈川県,横浜市中区,不老町１丁目２番地７,,14,104,2310032,,,,,,,2022-01-18,1,,,,,,0
3206,9020001144851,新規,0,2022-01-18,2022-01-18,Ｗｅｌｌ’ｓ株式会社,,株式会社,神奈川県,横浜市中区,福富町西通３番地１８,,14,104,2310042,,,,,,,2022-01-18,1,,,,,ウェルス,0
3208,9020003021000,新規,0,2022-01-18,2022-01-18,てら合同会社,,合同会社,神奈川県,川崎市麻生区,金程１丁目１７－１２,,14,137,2150006,,,,,,,2022-01-18,1,,,,,テラ,0
3209,9020003021149,新規,0,2022-01-18,2022-01-18,ラックリンク・インベストメント合同会社,,合同会社,神奈川県,横浜市都筑区,茅ケ崎南５丁目２６－１０,,14,118,2240037,,,,,,,2022-01-18,1,,,,,ラックリンクインベストメント,0
3210,9020003021157,新規,0,2022-01-18,2022-01-18,ＴＮ２２合同会社,,合同会社,神奈川県,横浜市港北区,日吉本町６丁目４５番１７－３号,,14,109,2230062,,,,,,,2022-01-18,1,,,,,ティーエヌニジュウニ,0
3213,9020005015347,新規,0,2022-01-18,2022-01-18,一般社団法人日本ボーイスカウト神奈川連盟,,その他の設立登記法人,神奈川県,横浜市旭区,中尾２丁目１番１４号スカウト会館内,,14,112,2410815,,,,,,,2022-01-18,1,,,,,ニホンボーイスカウトカナガワレンメイ,0
3216,9021001074980,新規,0,2022-01-18,2022-01-18,株式会社Ｂｒｉｇｈｔｅｎ,,株式会社,神奈川県,逗子市,久木４丁目１２番３号,,14,208,2490001,,,,,,,2022-01-18,1,,,,,ブライトン,0
3217,9021001074989,新規,0,2022-01-18,2022-01-18,Ｔ－ＬＩＮＫ株式会社,,株式会社,神奈川県,相模原市中央区,星が丘４丁目２番２５－２０６号,,14,152,2520238,,,,,,,2022-01-18,1,,,,,ティーリンク,0
3220,9030001146376,新規,0,2022-01-18,2022-01-18,株式会社快工業,,株式会社,埼玉県,所沢市,若狭４丁目２４６８番地１５,,11,208,3591151,,,,,,,2022-01-18,1,,,,,カイコウギョウ,0
3221,9030001146384,新規,0,2022-01-18,2022-01-18,株式会社正和総業,,株式会社,埼玉県,久喜市,菖蒲町下栢間２６５５番地１,,11,232,3460113,,,,,,,2022-01-18,1,,,,,セイワソウギョウ,0
3222,9030001146392,新規,0,2022-01-18,2022-01-18,双建興業株式会社,,株式会社,埼玉県,吉川市,中野１１１番地,,11,243,3420042,,,,,,,2022-01-18,1,,,,,ソウケンコウギョウ,0
3245,9040001121709,新規,0,2022-01-18,2022-01-18,株式会社ＬＥＲＴＥ,,株式会社,千葉県,市川市,八幡２丁目８番１３号八幡ノ森レジデンス１Ｆ,,12,203,2720021,,,,,,,2022-01-18,1,,,,,レルテ,0
3246,9040001121766,新規,0,2022-01-18,2022-01-18,株式会社桜里,,株式会社,千葉県,松戸市,金ケ作４１９番地の１１ＴＫビル１階,,12,207,2702251,,,,,,,2022-01-18,1,,,,,オウリ,0
3247,9040001121782,新規,0,2022-01-18,2022-01-18,株式会社ミカドデマツゲ,,株式会社,千葉県,銚子市,三門町４２９番地,,12,202,2880851,,,,,,,2022-01-18,1,,,,,ミカドデマツゲ,0
3248,9040001121808,新規,0,2022-01-18,2022-01-18,株式会社ヤマカン,,株式会社,千葉県,千葉市花見川区,三角町２９番地２,,12,102,2620011,,,,,,,2022-01-18,1,,,,,ヤマカン,0
3282,9040003019298,新規,0,2022-01-18,2022-01-18,合同会社Ｍｏｌｕｃｃｅｌｌａ,,合同会社,千葉県,市川市,市川南１丁目２－２２,,12,203,2720033,,,,,,,2022-01-18,1,,,,,モルセラ,0
3283,9040003019323,新規,0,2022-01-18,2022-01-18,Ｆｅｌｉｃｉｔａ合同会社,,合同会社,千葉県,船橋市,本町６丁目１８－１９第３山中ビル４０１号室,,12,204,2730005,,,,,,,2022-01-18,1,,,,,フェリチタ,0
3288,9050001050485,新規,0,2022-01-18,2022-01-18,株式会社ＲＡＩＳＡＮ　ＩＮＴＥＲＮＡＴＩＯＮＡＬ,,株式会社,茨城県,坂東市,生子２１０７番地１,,08,228,3060504,,,,,,,2022-01-18,1,,,,,ライサンインターナショナル,0
3290,9060001034479,新規,0,2022-01-18,2022-01-18,株式会社パール,,株式会社,栃木県,宇都宮市,下栗１丁目４番地４,,09,201,3210924,,,,,,,2022-01-18,1,,,,,パール,0
3296,9080001024692,新規,0,2022-01-18,2022-01-18,株式会社ＨＣＧ,,株式会社,静岡県,静岡市葵区,紺屋町７番地の１５Ｙ’ｓＰＬＡＴＺ２Ｆ,,22,101,4200852,,,,,,,2022-01-18,1,,,,,エイチシージー,0
3298,9080103002497,新規,0,2022-01-18,2022-01-18,熱海開発合同会社,,合同会社,静岡県,熱海市,東海岸町３番地１９号,,22,205,4130012,,,,,,,2022-01-18,1,,,,,アタミカイハツ,0
3299,9080105006208,新規,0,2022-01-18,2022-01-18,特定非営利活動法人ＦＣＳ,,その他の設立登記法人,静岡県,富士市,宇東川東町９番１３－９号,,22,210,4170853,,,,,,,2022-01-18,1,,,,,エフシーエス,0
3307,9100003006372,新規,0,2022-01-18,2022-01-18,合同会社ＦＵＮＧＨＩ,,合同会社,長野県,諏訪郡原村,１６２６７番地１３１１,,20,363,3910100,,,,,,,2022-01-18,1,,,,,フンギ,0
3322,9120001243098,新規,0,2022-01-18,2022-01-18,インフィニティ株式会社,,株式会社,大阪府,大阪市北区,梅田１丁目１番３大阪駅前第３ビル２９階１－１－１号室,,27,127,5300001,,,,,,,2022-01-18,1,,,,,インフィニティ,0
3323,9120001243164,新規,0,2022-01-18,2022-01-18,株式会社ケイテクニカ,,株式会社,大阪府,大阪市東成区,深江南３丁目２番２８号,,27,115,5370002,,,,,,,2022-01-18,1,,,,,ケイテクニカ,0
3324,9120001243197,新規,0,2022-01-18,2022-01-18,株式会社エビスコネクト,,株式会社,大阪府,大阪市北区,芝田２丁目８番１１号,,27,127,5300012,,,,,,,2022-01-18,1,,,,,エビスコネクト,0
3325,9120001243263,新規,0,2022-01-18,2022-01-18,株式会社Ｗｉｌｌ,,株式会社,大阪府,大阪市北区,梅田１丁目１番３号,,27,127,5300001,,,,,,,2022-01-18,1,,,,,ウィル,0
3326,9120001243296,新規,0,2022-01-18,2022-01-18,株式会社Ｕｐｗａｒｄ,,株式会社,大阪府,大阪市平野区,背戸口２丁目２番２８号,,27,126,5470034,,,,,,,2022-01-18,1,,,,,アップワード,0
3330,9120003020966,新規,0,2022-01-18,2022-01-18,合同会社ＳＯＡＲＥ,,合同会社,大阪府,大阪市西区,阿波座１丁目２番２－８１２号,,27,106,5500011,,,,,,,2022-01-18,1,,,,,ソアレ,0
3331,9120003020974,新規,0,2022-01-18,2022-01-18,ＥＭＩＮＡＬ合同会社,,合同会社,大阪府,大阪市中央区,南船場２丁目２－２８順慶ビル５０７,,27,128,5420081,,,,,,,2022-01-18,1,,,,,エミナル,0
3332,9120005022705,新規,0,2022-01-18,2022-01-18,一般社団法人１００年先まで繁盛します協会,,その他の設立登記法人,大阪府,大阪市北区,太融寺町５番１５号,,27,127,5300051,,,,,,,2022-01-18,1,,,,,ヒャクネンサキマデハンジョウシマスキョウカイ,0
3339,9120101064964,新規,0,2022-01-18,2022-01-18,株式会社ＰＵＳ,,株式会社,大阪府,堺市堺区,神石市之町１番１５号,,27,141,5900813,,,,,,,2022-01-18,1,,,,,ピーユーエス,0
3344,9122001035509,新規,0,2022-01-18,2022-01-18,株式会社ＣＯＮＮＥＣＴ,,株式会社,大阪府,大東市,赤井３丁目６番１４号,,27,218,5740046,,,,,,,2022-01-18,1,,,,,コネクト,0
3346,9130001070905,新規,0,2022-01-18,2022-01-18,株式会社つながるＣｒａｆｔ,,株式会社,京都府,京都市中京区,壬生松原町３６－１１,,26,104,6048823,,,,,,,2022-01-18,1,,,,,ツナガルクラフト,0
3347,9130001070946,新規,0,2022-01-18,2022-01-18,株式会社ａｒｔｅｋ,,株式会社,京都府,京都市西京区,下津林前泓町５４番地１,,26,111,6158062,,,,,,,2022-01-18,1,,,,,アーテック,0
3350,9130003007698,新規,0,2022-01-18,2022-01-18,合同会社和束メガソーラー推進協議会,,合同会社,京都府,相楽郡和束町,大字釜塚小字前田３６番地の４,,26,365,6191212,,,,,,,2022-01-18,1,,,,,ワヅカメガソーラースイシンキョウギカイ,0
3355,9140001124552,新規,0,2022-01-18,2022-01-18,株式会社ＬＩＦＥＬＡＢＯ,,株式会社,兵庫県,養父市,八鹿町九鹿４９２番地６,,28,222,6670031,,,,,,,2022-01-18,1,,,,,ライフラボ,0
3356,9140001124569,新規,0,2022-01-18,2022-01-18,株式会社ＨＩＫＡＲＵペイント,,株式会社,兵庫県,姫路市,白鳥台１丁目２８番１９号,,28,201,6712245,,,,,,,2022-01-18,1,,,,,ヒカルペイント,0
3359,9170001016945,新規,0,2022-01-18,2022-01-18,株式会社南紀滝の拝農園,,株式会社,和歌山県,東牟婁郡古座川町,小川８７２番地２９,,30,424,6494216,,,,,,,2022-01-18,1,,,,,ナンキタキノハイノウエン,0
3370,9180001149430,新規,0,2022-01-18,2022-01-18,ＩＮＣＥＰＴＩＯＮ株式会社,,株式会社,愛知県,名古屋市中区,新栄１丁目４６番５号,,23,106,4600007,,,,,,,2022-01-18,1,,,,,インセプション,0
3371,9180001149538,新規,0,2022-01-18,2022-01-18,株式会社モモマロ,,株式会社,愛知県,名古屋市中区,栄１丁目２２番２号,,23,106,4600008,,,,,,,2022-01-18,1,,,,,モモマロ,0
3372,9180001149554,新規,0,2022-01-18,2022-01-18,転生ブレイク株式会社,,株式会社,愛知県,半田市,柊町４丁目２００番地の３,,23,205,4750916,,,,,,,2022-01-18,1,,,,,テンセイブレイク,0
3373,9180001149587,新規,0,2022-01-18,2022-01-18,株式会社コンドウガーデン,,株式会社,愛知県,尾張旭市,稲葉町１丁目３７番地,,23,226,4880054,,,,,,,2022-01-18,1,,,,,コンドウガーデン,0
3377,9180301035850,新規,0,2022-01-18,2022-01-18,株式会社万や友名,,株式会社,愛知県,岡崎市,鴨田南町２番地６,,23,202,4442123,,,,,,,2022-01-18,1,,,,,ヨロズヤユウナ,0
3379,9180303005224,新規,0,2022-01-18,2022-01-18,合同会社Ｍ＆Ｋ,,合同会社,愛知県,みよし市,三好丘緑２丁目４番地の５サンビレッジ三好ケ丘Ｆ１０１,,23,236,4700205,,,,,,,2022-01-18,1,,,,,エムアンドケー,0
3381,9190001029045,新規,0,2022-01-18,2022-01-18,よしおか建築工房株式会社,,株式会社,三重県,多気郡多気町,多気７５番地６,,24,441,5192154,,,,,,,2022-01-18,1,,,,,ヨシオカケンチクコウボウ,0
3391,9200003005430,新規,0,2022-01-18,2022-01-18,ＭＡＬＳ合同会社,,合同会社,岐阜県,岐阜市,柳津町丸野４丁目３４番地３,,21,201,5016115,,,,,,,2022-01-18,1,,,,,マルス,0
3392,9220001024653,新規,0,2022-01-18,2022-01-18,株式会社トンボプラスチック,,株式会社,石川県,野々市市,柳町６６番地１,,17,212,9218848,,,,,,,2022-01-18,1,,,,,トンボプラスチック,0
3417,9290003012030,新規,0,2022-01-18,2022-01-18,あすなろガーデン合同会社,,合同会社,福岡県,飯塚市,川津２８０番地１,,40,205,8200067,,,,,,,2022-01-18,1,,,,,アスナロガーデン,0
3420,9290803004037,新規,0,2022-01-18,2022-01-18,合同会社ワイズ,,合同会社,福岡県,行橋市,西宮市４丁目２７番１３号,,40,213,8240031,,,,,,,2022-01-18,1,,,,,ワイズ,0
3424,9300003001782,新規,0,2022-01-18,2022-01-18,ＨＡＢＩＴ合同会社,,合同会社,佐賀県,佐賀市,蓮池町大字見島４１０番地１,,41,201,8400002,,,,,,,2022-01-18,1,,,,,,0
3426,9310003004256,新規,0,2022-01-18,2022-01-18,合同会社ＲＩＺＥＤ４,,合同会社,長崎県,大村市,池田新町７７９７番地,,42,205,8560029,,,,,,,2022-01-18,1,,,,,リゼットフォー,0
3427,9320001018843,新規,0,2022-01-18,2022-01-18,株式会社マロックス,,株式会社,大分県,中津市,本耶馬渓町曽木１６４７番地１,,44,203,8710202,,,,,,,2022-01-18,1,,,,,マロックス,0
3430,9330001029369,新規,0,2022-01-18,2022-01-18,株式会社ＴｏｍＡ７２,,株式会社,熊本県,熊本市西区,春日８丁目１１番１７号,,43,103,8600047,,,,,,,2022-01-18,1,,,,,トーマナナニ,0
3434,9340003003692,新規,0,2022-01-18,2022-01-18,合同会社Ｈ・Ｃ・Ｔ,,合同会社,鹿児島県,伊佐市,大口山野４１５９番地２,,46,224,8952635,,,,,,,2022-01-18,1,,,,,エイチシーティ,0
3436,9360001029903,新規,0,2022-01-18,2022-01-18,株式会社國商,,株式会社,沖縄県,中頭郡中城村,字新垣１２５３番地６,,47,328,9012422,,,,,,,2022-01-18,1,,,,,クニショウ,0
3437,9360003011743,新規,0,2022-01-18,2022-01-18,合同会社ＴＦ企画,,合同会社,沖縄県,那覇市,字天久７６２番１号,,47,201,9000005,,,,,,,2022-01-18,1,,,,,ティーエフキカク,0
3438,9370001048084,新規,0,2022-01-18,2022-01-18,株式会社エブリ,,株式会社,宮城県,仙台市青葉区,大町１丁目１番６号,,04,101,9800804,,,,,,,2022-01-18,1,,,,,エブリ,0
3439,9370003005546,新規,0,2022-01-18,2022-01-18,プレイマーケット合同会社,,合同会社,宮城県,仙台市宮城野区,鶴ケ谷５丁目１８－２２,,04,102,9830824,,,,,,,2022-01-18,1,,,,,プレイマーケット,0
3441,9380001032500,新規,0,2022-01-18,2022-01-18,アイエス宅建株式会社,,株式会社,福島県,郡山市,鶴見坦３丁目４番６号,,07,203,9638861,,,,,,,2022-01-18,1,,,,,アイエスタッケン,0
3442,9380001032509,新規,0,2022-01-18,2022-01-18,株式会社Ｌｏｖｅ　Ａｆｔｅｒ　Ｌｉｆｅ,,株式会社,福島県,郡山市,緑町９番１２号,,07,203,9638023,,,,,,,2022-01-18,1,,,,,ラブアフターライフ,0
3446,9390001016766,新規,0,2022-01-18,2022-01-18,株式会社シルバースプーン,,株式会社,山形県,山形市,東青田３丁目９番３２号,,06,201,9902423,,,,,,,2022-01-18,1,,,,,シルバースプーン,0
3447,9390003001915,新規,0,2022-01-18,2022-01-18,合同会社アグリコンサル,,合同会社,山形県,鶴岡市,羽黒町上野新田字段之松２１番地１,,06,203,9970142,,,,,,,2022-01-18,1,,,,,アグリコンサル,0
3451,9420003002430,新規,0,2022-01-18,2022-01-18,合同会社小坂車輌,,合同会社,青森県,十和田市,西四番町７－５５,,02,206,0340084,,,,,,,2022-01-18,1,,,,,コサカシャリョウ,0
3454,9430001085781,新規,0,2022-01-18,2022-01-18,株式会社ほそ川農園,,株式会社,北海道,余市郡仁木町,南町８丁目６４番地４,,01,407,0482413,,,,,,,2022-01-18,1,,,,,ホソカワノウエン,0
3455,9430001085815,新規,0,2022-01-18,2022-01-18,株式会社ＨＯＫＵＴＯシステムズ,,株式会社,北海道,石狩市,花川北六条１丁目２０番地,,01,235,0613216,,,,,,,2022-01-18,1,,,,,ホクトシステムズ,0
3459,9460101007121,新規,0,2022-01-18,2022-01-18,株式会社十勝榊や,00125422,株式会社,北海道,河東郡音更町,木野大通西９丁目１番地,,01,631,0800301,,,,,,,2022-01-18,1,,,,,トカチサカキヤ,0
3464,9490001000207,新規,0,2022-01-18,2022-01-18,大野興業株式会社,,株式会社,高知県,高知市,八反町２丁目８番２号,,39,201,7800912,,,,,,,2022-01-18,1,,,,,,0
3468,9700150010777,新規,0,2022-01-18,2015-10-09,日本木材輸入　協会,,その他,東京都,江東区,東陽５丁目３０－１３東京原木会館,,13,108,1350016,,,,,,,2015-10-09,1,,,,,ニホンモクザイユニユウキヨウカイ,0
3469,9700150106443,新規,0,2022-01-18,2021-12-27,兵庫県装蹄師会,,その他,兵庫県,姫路市,花田町小川７６６－１４,,28,201,6710255,,,,,,,2021-12-27,1,,,,,ヒヨウゴケンソウテイシカイ,0
