sequenceNumber,corporateNumber,process,correct,updateDate,changeDate,name,nameImageId,kind,prefectureName,cityName,streetNumber,addressImageId,prefectureCode,cityCode,postCode,addressOutside,addressOutsideImageId,closeDate,closeCause,successorCorporateNumber,changeCause,assignmentDate,latest,enName,enPrefectureName,enCityName,enAddressOutside,furigana,hihyoji
7,1010001245740,新規,0,2024-06-19,2024-06-19,株式会社ナリ,,株式会社,東京都,中央区,銀座１丁目２２番１１号銀座大竹ビジデンス２階,,13,102,1040061,,,,,,,2024-06-19,1,,,,,ナリ,0
8,1010001245781,新規,0,2024-06-19,2024-06-19,カンフォーラ・キャピタル株式会社,,株式会社,東京都,千代田区,永田町２丁目１７番１７号,,13,101,1000014,,,,,,,2024-06-19,1,,,,,カンフォーラキャピタル,0
9,1010001245848,新規,0,2024-06-19,2024-06-19,株式会社智界,,株式会社,東京都,中央区,銀座１丁目２２番１１号銀座大竹ビジデンス２Ｆ,,13,102,1040061,,,,,,,2024-06-19,1,,,,,チカイ,0
10,1010003044075,新規,0,2024-06-19,2024-06-19,合同会社ＥＦ‐Ｎｏｎ‐ＦＩＴ１号,,合同会社,東京都,千代田区,丸の内２丁目２番１号岸本ビル１０階株式会社レイズ内,,13,101,1000005,,,,,,,2024-06-19,1,,,,,イーエフノンフィットイチゴウ,0
11,1010003044083,新規,0,2024-06-19,2024-06-19,合同会社雪,,合同会社,東京都,文京区,西片１丁目８番１８－３０２号,,13,105,1130024,,,,,,,2024-06-19,1,,,,,ユキ,0
19,1010401183227,新規,0,2024-06-19,2024-06-19,株式会社ＡＴ,,株式会社,東京都,港区,虎ノ門３丁目１４番１－２８０７号,,13,103,1050001,,,,,,,2024-06-19,1,,,,,エーティー,0
20,1010401183276,新規,0,2024-06-19,2024-06-19,ＧＣＪＩ１８株式会社,,株式会社,東京都,港区,元赤坂１丁目１番８号株式会社赤坂国際会計内,,13,103,1070051,,,,,,,2024-06-19,1,,,,,ジーシージェイアイエイティーン,0
26,1010403032794,新規,0,2024-06-19,2024-06-19,マリーナベイコンサルティング合同会社,,合同会社,東京都,港区,南青山５丁目４－３５Ｎｏ．８１３,,13,103,1070062,,,,,,,2024-06-19,1,,,,,マリーナベイコンサルティング,0
30,1010601065398,新規,0,2024-06-19,2024-06-19,ナカタケ化学株式会社,,株式会社,東京都,墨田区,太平１丁目１０番９号ＮＫ錦糸町ビル,,13,107,1300012,,,,,,,2024-06-19,1,,,,,ナカタケカガク,0
39,1010901055495,新規,0,2024-06-19,2024-06-19,株式会社ａｔａｇｏ,,株式会社,東京都,世田谷区,代沢３丁目１７―１５ＢＲＥＥＺＥＣ号室,,13,112,1550032,,,,,,,2024-06-19,1,,,,,アタゴ,0
49,1011001162694,新規,0,2024-06-19,2024-06-19,株式会社ＬＩＮＫ,,株式会社,東京都,渋谷区,千駄ヶ谷３丁目３８番１４号ＳＴＡＮＴＩＯＮｋｉｔａｓａｎｄｏ６階,,13,113,1510051,,,,,,,2024-06-19,1,,,,,リンク,0
52,1011003019356,新規,0,2024-06-19,2024-06-19,合同会社Ｇ．ＩＲＩＳ,,合同会社,東京都,渋谷区,渋谷１丁目８番５号,,13,113,1500002,,,,,,,2024-06-19,1,,,,,ジーアイリス,0
53,1011003019372,新規,0,2024-06-19,2024-06-19,合同会社Ｐｅｒｌａ,,合同会社,東京都,渋谷区,渋谷２丁目１９番１５号宮益坂ビルディング６０９,,13,113,1500002,,,,,,,2024-06-19,1,,,,,ペルラ,0
54,1011003019414,新規,0,2024-06-19,2024-06-19,合同会社ユアーズ,,合同会社,東京都,渋谷区,本町２丁目４番３号,,13,113,1510071,,,,,,,2024-06-19,1,,,,,ユアーズ,0
63,1011301029767,新規,0,2024-06-19,2024-06-19,株式会社ＬＵＣＡ２,,株式会社,東京都,杉並区,今川３丁目１２番２０号,,13,115,1670035,,,,,,,2024-06-19,1,,,,,ルカセカンド,0
68,1011503006119,新規,0,2024-06-19,2024-06-19,合同会社Ｋ２プロジェクト,,合同会社,東京都,北区,赤羽１丁目６－７－２０１,,13,117,1150045,,,,,,,2024-06-19,1,,,,,ケーツープロジェクト,0
70,1011803006297,新規,0,2024-06-19,2024-06-19,合同会社ＭＯＴ,,合同会社,東京都,葛飾区,東立石１丁目１６番４－５０６号,,13,122,1240013,,,,,,,2024-06-19,1,,,,,モット,0
88,1020001157753,新規,0,2024-06-19,2024-06-19,株式会社新栄紙材,,株式会社,神奈川県,横浜市戸塚区,平戸町１０９７番地９４,,14,110,2440803,,,,,,,2024-06-19,1,,,,,シンエイシザイ,0
89,1020001157761,新規,0,2024-06-19,2024-06-19,株式会社メタリックス,,株式会社,神奈川県,横浜市磯子区,丸山２丁目２０番１０－６０４号,,14,107,2350011,,,,,,,2024-06-19,1,,,,,メタリックス,0
105,1030001160995,新規,0,2024-06-19,2024-06-19,株式会社Ｆａｉｒｙ　Ｌｉｇｈｔ,,株式会社,埼玉県,入間郡毛呂山町,平山１丁目３５－３３,,11,326,3500466,,,,,,,2024-06-19,1,,,,,フェアリーライト,0
108,1030003024422,新規,0,2024-06-19,2024-06-19,合同会社ときてん,,合同会社,埼玉県,八潮市,八潮６丁目１６‐４セレクト２１八潮南３号,,11,234,3400815,,,,,,,2024-06-19,1,,,,,トキテン,0
116,1040001133942,新規,0,2024-06-19,2024-06-19,株式会社ａｍａｓｏｕ,,株式会社,千葉県,市原市,五井５７９１－１ＮＫメゾン２０２,,12,219,2900056,,,,,,,2024-06-19,1,,,,,アマソウ,0
119,1040003025238,新規,0,2024-06-19,2024-06-19,合同会社ＤＭ１５号,,合同会社,千葉県,柏市,柏４丁目５番１０号,,12,217,2770005,,,,,,,2024-06-19,1,,,,,ディーエムジュウゴゴウ,0
121,1050001054915,新規,0,2024-06-19,2024-06-19,Ｍｉｄｍｏｎ株式会社,,株式会社,茨城県,稲敷郡阿見町,大字若栗１３０７－２１－１０号室,,08,443,3000333,,,,,,,2024-06-19,1,,,,,ミドモン,0
122,1050001054956,新規,0,2024-06-19,2024-06-19,ＡＳＡＤ　ＴＲＡＤＩＮＧ株式会社,,株式会社,茨城県,坂東市,辺田１３９５番地２,,08,228,3060632,,,,,,,2024-06-19,1,,,,,アサドトレーディング,0
123,1050001054964,新規,0,2024-06-19,2024-06-19,株式会社ライフアワード,,株式会社,茨城県,つくば市,二の宮１丁目２５番地４号グランドパレスＮＳ－３、５０２号室,,08,220,3050051,,,,,,,2024-06-19,1,,,,,ライフアワード,0
124,1050001054972,新規,0,2024-06-19,2024-06-19,輩株式会社,,株式会社,茨城県,桜川市,上野原地新田１４６番地３,,08,231,3091226,,,,,,,2024-06-19,1,,,,,ヤカラ,0
132,1070005010292,新規,0,2024-06-19,2024-06-19,特定非営利活動法人あすしるべ,,その他の設立登記法人,群馬県,前橋市,文京町２丁目９番５号,,10,201,3710801,,,,,,,2024-06-19,1,,,,,アスシルベ,0
133,1080401027261,新規,0,2024-06-19,2024-06-19,株式会社Ｋ‐ＰＬＡＮＮＩＮＧ,,株式会社,静岡県,掛川市,大池２７０４番地の１,,22,213,4360043,,,,,,,2024-06-19,1,,,,,ケープランニング,0
135,1100001037583,新規,0,2024-06-19,2024-06-19,ＳＡＦＡＲＩ株式会社,,株式会社,長野県,長野市,吉田５丁目１８番地２５,,20,201,3810043,,,,,,,2024-06-19,1,,,,,サファリ,0
153,1120001265967,新規,0,2024-06-19,2024-06-19,株式会社ＷＩＮ,,株式会社,大阪府,大阪市西淀川区,姫里１丁目２番２２号,,27,113,5550025,,,,,,,2024-06-19,1,,,,,ウィン,0
157,1120003026863,新規,0,2024-06-19,2024-06-19,ＭＯ合同会社,,合同会社,大阪府,大阪市中央区,釣鐘町１丁目１番１１号ＭＪビル５階,,27,128,5400035,,,,,,,2024-06-19,1,,,,,エムオー,0
159,1120101069764,新規,0,2024-06-19,2024-06-19,アシストテック株式会社,,株式会社,大阪府,堺市西区,原田１２９－１,,27,144,5938317,,,,,,,2024-06-19,1,,,,,アシストテック,0
160,1120101069797,新規,0,2024-06-19,2024-06-19,豊捷株式会社,,株式会社,大阪府,岸和田市,包近町２２３番地,,27,202,5960101,,,,,,,2024-06-19,1,,,,,ホウショウ,0
173,1140005027098,新規,0,2024-06-19,2024-06-19,一般社団法人丹波篠山市観光まちづくり機構,,その他の設立登記法人,兵庫県,丹波篠山市,黒岡１９１番地,,28,221,6692321,,,,,,,2024-06-19,1,,,,,タンバササヤマシカンコウマチヅクリキコウ,0
174,1150001027357,新規,0,2024-06-19,2024-06-19,株式会社ｒｓ,,株式会社,奈良県,生駒郡平群町,緑ケ丘３丁目４番１９号,,29,342,6360941,,,,,,,2024-06-19,1,,,,,アールエス,0
178,1160001026011,新規,0,2024-06-19,2024-06-19,株式会社凸凹,,株式会社,滋賀県,大津市,茶戸町４番５号,,25,201,5200066,,,,,,,2024-06-19,1,,,,,デコボコ,0
183,1180001162028,新規,0,2024-06-19,2024-06-19,リバース塗装株式会社,,株式会社,愛知県,名古屋市中区,大須２丁目１０番４５号,,23,106,4600011,,,,,,,2024-06-19,1,,,,,リバーストソウ,0
192,1180301038753,新規,0,2024-06-19,2024-06-19,株式会社ＣｒｉＫｕｒａ,,株式会社,愛知県,豊田市,花沢町岩波美２番地６２,,23,211,4443231,,,,,,,2024-06-19,1,,,,,クリクラ,0
194,1210001019793,新規,0,2024-06-19,2024-06-19,株式会社ＭＹ　ＥＡＲＴＨ．ｃｏｍ,,株式会社,福井県,坂井市,丸岡町儀間１１－３２,,18,210,9100357,,,,,,,2024-06-19,1,,,,,マイアースドットコム,0
199,1240001063401,新規,0,2024-06-19,2024-06-19,株式会社Ｍ’ｓ,,株式会社,広島県,東広島市,高屋町小谷３１４０番地１,,34,212,7392121,,,,,,,2024-06-19,1,,,,,エムズ,0
204,1260001039192,新規,0,2024-06-19,2024-06-19,株式会社点々,,株式会社,岡山県,英田郡西粟倉村,大字知社１９７番地１,,33,643,7070506,,,,,,,2024-06-19,1,,,,,テンテン,0
211,1290001106188,新規,0,2024-06-19,2024-06-19,株式会社みつばち,,株式会社,福岡県,飯塚市,上三緒６５５－２,,40,205,8200013,,,,,,,2024-06-19,1,,,,,,0
212,1290001106213,新規,0,2024-06-19,2024-06-19,株式会社Ｉ．ＢＬＵＥ,,株式会社,福岡県,古賀市,花見東５丁目６番１４号,,40,223,8113112,,,,,,,2024-06-19,1,,,,,アイブルー,0
219,1320001020550,新規,0,2024-06-19,2024-06-19,城山設計株式会社,,株式会社,大分県,佐伯市,城下西町３番１７号,,44,205,8760847,,,,,,,2024-06-19,1,,,,,シロヤマセッケイ,0
230,1360003014076,新規,0,2024-06-19,2024-06-19,合同会社Ｙ’ｓ,,合同会社,沖縄県,沖縄市,美原４丁目１５番１５号,,47,211,9042155,,,,,,,2024-06-19,1,,,,,ワイズ,0
241,1420001018758,新規,0,2024-06-19,2024-06-19,株式会社ＮＥＸＦＩＶＥ,,株式会社,青森県,弘前市,大字黒土字大道添１９番地,,02,202,0361434,,,,,,,2024-06-19,1,,,,,ネクスファイブ,0
243,1430001092059,新規,0,2024-06-19,2024-06-19,株式会社ＬＥＯＬ,,株式会社,北海道,札幌市白石区,栄通６丁目９番１７－２号リオン栄通１０２号,,01,104,0030021,,,,,,,2024-06-19,1,,,,,レオル,0
246,1430003016478,新規,0,2024-06-19,2024-06-19,合同会社ＥｃｏＤｒｏｐ,,合同会社,北海道,伊達市,鹿島町６４－２Ｊａｓ．ｓ参番館１０１号室,,01,233,0520024,,,,,,,2024-06-19,1,,,,,エコドロップ,0
251,1440005002780,新規,0,2024-06-19,2024-06-19,一般社団法人とまりぎケア,,その他の設立登記法人,北海道,函館市,東山３丁目８番３号,,01,202,0410835,,,,,,,2024-06-19,1,,,,,トマリギケア,0
253,1480001012516,新規,0,2024-06-19,2024-06-19,ミート大塚株式会社,,株式会社,徳島県,阿波市,吉野町柿原１丁目２０２番地２,,36,206,7711401,,,,,,,2024-06-19,1,,,,,ミートオオツカ,0
264,2010001245764,新規,0,2024-06-19,2024-06-19,第二東株式会社,,株式会社,東京都,中央区,銀座２丁目１６番１６号８０１室,,13,102,1040061,,,,,,,2024-06-19,1,,,,,ダイニヒガシ,0
265,2010001245847,新規,0,2024-06-19,2024-06-19,日幸情報株式会社,,株式会社,東京都,千代田区,神田小川町２丁目１４番３号,,13,101,1010052,,,,,,,2024-06-19,1,,,,,ニッコウジョウホウ,0
266,2010001245855,新規,0,2024-06-19,2024-06-19,株式会社廣建アセットマネジメント,,株式会社,東京都,中央区,新川２丁目２１番１８号廣建ニューリバービルディング,,13,102,1040033,,,,,,,2024-06-19,1,,,,,コウケンアセットマネジメント,0
268,2010003044058,新規,0,2024-06-19,2024-06-19,合同会社津南みらい発電会社,,合同会社,東京都,中央区,銀座１丁目１４番５号銀座ウイングビル,,13,102,1040061,,,,,,,2024-06-19,1,,,,,ツナンミライハツデンガイシャ,0
269,2010003044066,新規,0,2024-06-19,2024-06-19,エネストジャパン２合同会社,,合同会社,東京都,千代田区,四番町２番地１２,,13,101,1020081,,,,,,,2024-06-19,1,,,,,エネストジャパンニ,0
272,2010401183234,新規,0,2024-06-19,2024-06-19,Ｓｉｌｉｃｏｎ　Ｃａｔａｌｙｓｔ株式会社,,株式会社,東京都,港区,海岸１丁目２番２０号汐留ビルディング３Ｆ,,13,103,1050022,,,,,,,2024-06-19,1,,,,,シリコンカタリスト,0
273,2010401183275,新規,0,2024-06-19,2024-06-19,ＧＣＪＩ１７株式会社,,株式会社,東京都,港区,元赤坂１丁目１番８号株式会社赤坂国際会計内,,13,103,1070051,,,,,,,2024-06-19,1,,,,,ジーシージェイアイセブンティーン,0
277,2010403032851,新規,0,2024-06-19,2024-06-19,ＡＰＦ合同会社,,合同会社,東京都,港区,虎ノ門２丁目９番１号虎ノ門ヒルズ江戸見坂テラス１１階,,13,103,1050001,,,,,,,2024-06-19,1,,,,,エーピーエフ,0
278,2010405023320,新規,0,2024-06-19,2024-06-19,一般社団法人ＫＯ．Ｅ．ＲＵ,,その他の設立登記法人,東京都,港区,赤坂３丁目８番８号,,13,103,1070052,,,,,,,2024-06-19,1,,,,,コエル,0
282,2010603010905,新規,0,2024-06-19,2024-06-19,合同会社ルミナスホールディングス,,合同会社,東京都,江東区,亀戸６丁目５８番１０号,,13,108,1360071,,,,,,,2024-06-19,1,,,,,ルミナスホールディングス,0
287,2010901055511,新規,0,2024-06-19,2024-06-19,株式会社Ｃａｐｒｉｃｅ　Ｗｉｎｅ　Ｈａｒｍｏｎｉｃｓ,,株式会社,東京都,世田谷区,岡本１丁目３７番１７号,,13,112,1570076,,,,,,,2024-06-19,1,,,,,カプリスワインハーモニクス,0
290,2011001162660,新規,0,2024-06-19,2024-06-19,株式会社をたより,,株式会社,東京都,渋谷区,道玄坂１丁目１０番８号渋谷道玄坂東急ビル２Ｆ－Ｃ,,13,113,1500043,,,,,,,2024-06-19,1,,,,,ヲタヨリ,0
291,2011001162693,新規,0,2024-06-19,2024-06-19,株式会社ＳＥＲＥＮ,,株式会社,東京都,渋谷区,道玄坂１丁目１０番８号渋谷道玄坂東急ビル２Ｆ－Ｃ,,13,113,1500043,,,,,,,2024-06-19,1,,,,,セレン,0
292,2011001162776,新規,0,2024-06-19,2024-06-19,ＦＬＡＳＨ株式会社,,株式会社,東京都,渋谷区,桜丘町４番１７号ＰＯＲＴＡＬＡｐａｒｔｍｅｎｔ＆ＡｒｔＰＯＩＮＴ４０６,,13,113,1500031,,,,,,,2024-06-19,1,,,,,フラッシュ,0
293,2011001162801,新規,0,2024-06-19,2024-06-19,エイトクラッカーｊａｐａｎ株式会社,,株式会社,東京都,渋谷区,広尾５丁目４番１６号ＥＡＴＰＬＡＹＷＯＲＫＳ３階,,13,113,1500012,,,,,,,2024-06-19,1,,,,,エイトクラッカージャパン,0
294,2011003019388,新規,0,2024-06-19,2024-06-19,トライフェクト合同会社,,合同会社,東京都,渋谷区,富ヶ谷１丁目１９番３号山栄ビル２０１,,13,113,1510063,,,,,,,2024-06-19,1,,,,,トライフェクト,0
295,2011003019446,新規,0,2024-06-19,2024-06-19,合同会社ＣＲＯＳＳ,,合同会社,東京都,目黒区,駒場１丁目２１番６号渋谷松美坂パークサイドヒルズ１０１,,13,110,1530041,,,,,,,2024-06-19,1,,,,,クロス,0
297,2011101107722,新規,0,2024-06-19,2024-06-19,株式会社恵学教育,,株式会社,東京都,新宿区,新宿７丁目２６番７－５１１号,,13,104,1600022,,,,,,,2024-06-19,1,,,,,ケイガクキョウイク,0
299,2011103014545,新規,0,2024-06-19,2024-06-19,合同会社ライト,,合同会社,東京都,新宿区,北新宿１丁目２８番１７号,,13,104,1690074,,,,,,,2024-06-19,1,,,,,ライト,0
301,2011301029758,新規,0,2024-06-19,2024-06-19,宏博美深株式会社,,株式会社,東京都,杉並区,高円寺南２丁目２３番２６号,,13,115,1660003,,,,,,,2024-06-19,1,,,,,,0
310,2011501030821,新規,0,2024-06-19,2024-06-19,株式会社Ｓ＆Ｄ,,株式会社,東京都,北区,浮間１丁目１番１４号リムジンビル１０１室,,13,117,1150051,,,,,,,2024-06-19,1,,,,,,0
315,2011801044397,新規,0,2024-06-19,2024-06-19,株式会社Ｒスマイル,,株式会社,東京都,葛飾区,高砂３丁目２０番４号幸ハウス１０２,,13,122,1250054,,,,,,,2024-06-19,1,,,,,アールスマイル,0
316,2011803006296,新規,0,2024-06-19,2024-06-19,合同会社メティスソフト,,合同会社,東京都,足立区,新田３丁目３５番２０－５１３号,,13,121,1230865,,,,,,,2024-06-19,1,,,,,メティスソフト,0
323,2020001157884,新規,0,2024-06-19,2024-06-19,株式会社メディカルエイド,,株式会社,神奈川県,横浜市港北区,日吉３丁目２－１１,,14,109,2230061,,,,,,,2024-06-19,1,,,,,メディカルエイド,0
328,2020005016459,新規,0,2024-06-19,2024-06-19,一般社団法人ｏｏｗａ,,その他の設立登記法人,神奈川県,横浜市西区,中央２丁目４６番２１号万代ビル１０２,,14,103,2200051,,,,,,,2024-06-19,1,,,,,オーワ,0
330,2021003014660,新規,0,2024-06-19,2024-06-19,合同会社ＺＥＲＯ,,合同会社,神奈川県,小田原市,国府津２８９４番地の１サーパス鴨宮２０９,,14,206,2560812,,,,,,,2024-06-19,1,,,,,ゼロ,0
340,2040001134114,新規,0,2024-06-19,2024-06-19,株式会社ミライエワークス,,株式会社,千葉県,習志野市,香澄３丁目１５番１５－２号,,12,216,2750022,,,,,,,2024-06-19,1,,,,,ミライエワークス,0
341,2040001134155,新規,0,2024-06-19,2024-06-19,株式会社瀬戸内うみファーム,,株式会社,千葉県,我孫子市,我孫子４丁目２６―２０,,12,222,2701166,,,,,,,2024-06-19,1,,,,,セトウチウミファーム,0
345,2040003025195,新規,0,2024-06-19,2024-06-19,マサヤマ合同会社,,合同会社,千葉県,船橋市,上山町２丁目３０１番地２ブライトライツ１０１号,,12,204,2730046,,,,,,,2024-06-19,1,,,,,マサヤマ,0
346,2040003025237,新規,0,2024-06-19,2024-06-19,合同会社ＤＭ１６号,,合同会社,千葉県,柏市,柏４丁目５番１０号,,12,217,2770005,,,,,,,2024-06-19,1,,,,,ディーエムジュウロクゴウ,0
354,2050001054963,新規,0,2024-06-19,2024-06-19,株式会社カー・ルバインス,,株式会社,茨城県,ひたちなか市,新光町５５２番地５５,,08,221,3120005,,,,,,,2024-06-19,1,,,,,カールバインス,0
355,2050003008463,新規,0,2024-06-19,2024-06-19,合同会社Ｂ．Ｒ．Ｂ,,合同会社,茨城県,猿島郡境町,大字内門９４９－１,,08,546,3060414,,,,,,,2024-06-19,1,,,,,ビーアールビー,0
356,2060001037216,新規,0,2024-06-19,2024-06-19,株式会社アートスペース,,株式会社,栃木県,下野市,川中子１２７３番地３,,09,216,3290415,,,,,,,2024-06-19,1,,,,,アートスペース,0
363,2080001026349,新規,0,2024-06-19,2024-06-19,株式会社あいのて,,株式会社,静岡県,静岡市駿河区,稲川３丁目１番２０号,,22,102,4228062,,,,,,,2024-06-19,1,,,,,アイノテ,0
364,2080101024830,新規,0,2024-06-19,2024-06-19,株式会社Ｗｅｌｌｎｅｓｓ　ｖｉｌｌａｇｅ,,株式会社,静岡県,沼津市,足高３２２―１８０,,22,203,4100001,,,,,,,2024-06-19,1,,,,,ウェルネスビレッジ,0
366,2080403005041,新規,0,2024-06-19,2024-06-19,合同会社チョコレートスタジオジャパン,,合同会社,静岡県,浜松市中央区,有玉南町１５７７番地の１,,22,138,4313122,,,,,,,2024-06-19,1,,,,,チョコレートスタジオジャパン,0
369,2100001037582,新規,0,2024-06-19,2024-06-19,株式会社カマバ,,株式会社,長野県,松本市,安曇４０２６番地３,,20,202,3901520,,,,,,,2024-06-19,1,,,,,カマバ,0
371,2100003007617,新規,0,2024-06-19,2024-06-19,居宅介護さつき合同会社,,合同会社,長野県,埴科郡坂城町,大字坂城６２６１番地の５,,20,521,3890601,,,,,,,2024-06-19,1,,,,,キョタクカイゴサツキ,0
381,2120001265990,新規,0,2024-06-19,2024-06-19,株式会社ＷＩＴＨＷＩＮ,,株式会社,大阪府,守口市,日吉町１丁目２－３日吉マート１１０,,27,209,5700081,,,,,,,2024-06-19,1,,,,,ウィズウィン,0
382,2120001266007,新規,0,2024-06-19,2024-06-19,スマートプランニング株式会社,,株式会社,大阪府,大阪市西成区,萩之茶屋２丁目８－３ハイツニューコンパ８０１号,,27,122,5570004,,,,,,,2024-06-19,1,,,,,スマートプランニング,0
383,2120001266023,新規,0,2024-06-19,2024-06-19,株式会社ＣＯＮＶＥＲＴ,,株式会社,大阪府,大阪市旭区,中宮３丁目８番９号ロイヤル廣２０８号,00135224,27,117,5350003,,,,,,,2024-06-19,1,,,,,コンバート,0
384,2120001266048,新規,0,2024-06-19,2024-06-19,輝嵐株式会社,,株式会社,大阪府,大阪市東淀川区,下新庄４丁目２０－７－２０２号室,,27,114,5330021,,,,,,,2024-06-19,1,,,,,キラン,0
387,2120101069813,新規,0,2024-06-19,2024-06-19,大野商事株式会社,,株式会社,大阪府,堺市南区,富蔵３０２,,27,145,5900127,,,,,,,2024-06-19,1,,,,,オオノショウジ,0
394,2122001038187,新規,0,2024-06-19,2024-06-19,日新商事株式会社,,株式会社,大阪府,東大阪市,池島町４丁目２番３６号,,27,227,5798064,,,,,,,2024-06-19,1,,,,,ニッシンショウジ,0
395,2122001038204,新規,0,2024-06-19,2024-06-19,株式会社ＨＯＲＡＩ,,株式会社,大阪府,東大阪市,鴻池町２丁目５番１７号ハイム鴻池６０４号,,27,227,5780972,,,,,,,2024-06-19,1,,,,,ホウライ,0
400,2130001077295,新規,0,2024-06-19,2024-06-19,株式会社ＣＲＥＷ,,株式会社,京都府,京都市山科区,大塚西浦町３７番地２－２Ｆ,00135227,26,110,6078125,,,,,,,2024-06-19,1,,,,,クルー,0
401,2130001077312,新規,0,2024-06-19,2024-06-19,株式会社合十尚界,,株式会社,京都府,京都市山科区,日ノ岡石塚町３７－３５－Ａ,00135229,26,110,6078498,,,,,,,2024-06-19,1,,,,,ゴウジュウショウカイ,0
412,2180005020668,新規,0,2024-06-19,2024-06-19,一般社団法人東部,,その他の設立登記法人,愛知県,春日井市,高蔵寺町５丁目７番地２,,23,206,4870013,,,,,,,2024-06-19,1,,,,,トウブ,0
415,2190001031429,新規,0,2024-06-19,2024-06-19,株式会社東海自動車鈑金工業,,株式会社,三重県,津市,大里川北町４３２‐１,,24,201,5140124,,,,,,,2024-06-19,1,,,,,トウカイジドウシャバンキンコウギョウ,0
423,2220003003769,新規,0,2024-06-19,2024-06-19,合同会社ＳＫＹ　ＦＥＬＬＯＷＳ,,合同会社,石川県,白山市,河内町板尾ニ１３番地,,17,210,9202315,,,,,,,2024-06-19,1,,,,,スカイフェローズ,0
428,2240001063391,新規,0,2024-06-19,2024-06-19,株式会社ＴＳ　ｃｒｅａｔｉｏｎ,,株式会社,広島県,東広島市,西大沢１丁目９－７,,34,212,7390037,,,,,,,2024-06-19,1,,,,,ティーエスクリエイション,0
429,2240001063400,新規,0,2024-06-19,2024-06-19,株式会社クラウドナイン,,株式会社,広島県,東広島市,八本松東２丁目２３番２２号,,34,212,7390142,,,,,,,2024-06-19,1,,,,,クラウドナイン,0
433,2260001039191,新規,0,2024-06-19,2024-06-19,株式会社ＩＫコーポレーション,,株式会社,岡山県,倉敷市,西中新田３１３番地１２,,33,202,7100833,,,,,,,2024-06-19,1,,,,,アイケーコーポレーション,0
438,2290001106237,新規,0,2024-06-19,2024-06-19,株式会社かもしか,,株式会社,福岡県,福岡市博多区,祇園町８番１２号ロータリー大和９２３号,,40,132,8120038,,,,,,,2024-06-19,1,,,,,カモシカ,0
440,2290003015452,新規,0,2024-06-19,2024-06-19,合同会社ＢＭカンパニー,,合同会社,福岡県,福岡市南区,井尻２丁目１２番１７号アーサー井尻ウェルステージ１０５,,40,134,8111302,,,,,,,2024-06-19,1,,,,,ビーエムカンパニー,0
444,2290801030652,新規,0,2024-06-19,2024-06-19,株式会社イヅプロ,,株式会社,福岡県,北九州市小倉北区,浅野３丁目８番１号ＡＩＭビル６階,,40,106,8020001,,,,,,,2024-06-19,1,,,,,イヅプロ,0
450,2330003010432,新規,0,2024-06-19,2024-06-19,合同会社トリプルステージ,,合同会社,熊本県,熊本市西区,春日２丁目９番８－１３０８号,,43,103,8600047,,,,,,,2024-06-19,1,,,,,トリプルステージ,0
461,2380001034610,新規,0,2024-06-19,2024-06-19,株式会社Ｍｅｄｉｃａｌ　Ｃｉｒｃｕｌａｔｏｒ,,株式会社,福島県,双葉郡大熊町,大字下野上字清水２３０,,07,545,9791308,,,,,,,2024-06-19,1,,,,,メディカルサーキュレーター,0
483,2430001092066,新規,0,2024-06-19,2024-06-19,株式会社メディカルノース,,株式会社,北海道,岩見沢市,幌向南二条２丁目２０５番地４０シャトルＫ１０２,,01,210,0690372,,,,,,,2024-06-19,1,,,,,メディカルノース,0
486,2430003016469,新規,0,2024-06-19,2024-06-19,合同会社Ｌ＆Ｍ,,合同会社,北海道,札幌市中央区,南二十条西１５丁目２番１号,,01,101,0640920,,,,,,,2024-06-19,1,,,,,エルアンドエム,0
490,2440001009457,新規,0,2024-06-19,2024-06-19,ＲＥＳＯＵＲＣＥ　ＨＯＫＫＡＩＤＯ株式会社,,株式会社,北海道,檜山郡上ノ国町,字豊田８７番地２,,01,362,0490625,,,,,,,2024-06-19,1,,,,,リソースホッカイドウ,0
501,2480003002150,新規,0,2024-06-19,2024-06-19,オーキッド合同会社,,合同会社,徳島県,板野郡藍住町,勝瑞字幸島８８番地,,36,403,7711271,,,,,,,2024-06-19,1,,,,,オーキッド,0
507,3010001245763,新規,0,2024-06-19,2024-06-19,第一東株式会社,,株式会社,東京都,中央区,銀座２丁目１６番１６号８０１室,,13,102,1040061,,,,,,,2024-06-19,1,,,,,ダイイチヒガシ,0
508,3010001245862,新規,0,2024-06-19,2024-06-19,アイウェーブホールディングス株式会社,,株式会社,東京都,中央区,銀座３丁目１４－１０,,13,102,1040061,,,,,,,2024-06-19,1,,,,,アイウェーブホールディングス,0
509,3010001245870,新規,0,2024-06-19,2024-06-19,小川ホールディングス株式会社,,株式会社,東京都,千代田区,外神田５丁目１番５号ＡＣＮ秋葉原ＰＬＡＣＥ９階,,13,101,1010021,,,,,,,2024-06-19,1,,,,,オガワホールディングス,0
510,3010001245879,新規,0,2024-06-19,2024-06-19,株式会社円喜,,株式会社,東京都,中央区,銀座１丁目２２番１１号銀座大竹ビジデンス２Ｆ,,13,102,1040061,,,,,,,2024-06-19,1,,,,,マルヨシ,0
526,3010405023352,新規,0,2024-06-19,2024-06-19,一般社団法人ブリティッシュラグーン,,その他の設立登記法人,東京都,港区,新橋４丁目３０番６号京急中はらビル５Ｆ,,13,103,1050004,,,,,,,2024-06-19,1,,,,,ブリティッシュラグーン,0
529,3010501052461,新規,0,2024-06-19,2024-06-19,ＧＹ株式会社,,株式会社,東京都,台東区,元浅草３丁目８番１－１２０３号,,13,106,1110041,,,,,,,2024-06-19,1,,,,,ジーワイ,0
532,3010601065413,新規,0,2024-06-19,2024-06-19,株式会社ＦＣ獅子桜,,株式会社,東京都,墨田区,江東橋２丁目３番１１号,,13,107,1300022,,,,,,,2024-06-19,1,,,,,エフシーシシロウ,0
534,3010603010904,新規,0,2024-06-19,2024-06-19,合同会社オダラボ,,合同会社,東京都,江東区,大島６丁目２５番１０号,,13,108,1360072,,,,,,,2024-06-19,1,,,,,オダラボ,0
540,3010901055493,新規,0,2024-06-19,2024-06-19,株式会社ＲＹＯＴＡＲＯ,,株式会社,東京都,世田谷区,用賀４丁目１２番１３号,,13,112,1580097,,,,,,,2024-06-19,1,,,,,リョウタロウ,0
546,3011001162643,新規,0,2024-06-19,2024-06-19,株式会社鴒構造設計事務所,,株式会社,東京都,渋谷区,代々木１丁目１２番２号スタジオフラット代々木４０１,,13,113,1510053,,,,,,,2024-06-19,1,,,,,レイコウゾウセッケイジムショ,0
547,3011001162676,新規,0,2024-06-19,2024-06-19,Ｘｓｅａ　Ｐａｒｔｎｅｒｓ株式会社,,株式会社,東京都,渋谷区,道玄坂１丁目１０番８号渋谷道玄坂東急ビル２Ｆ－Ｃ,,13,113,1500043,,,,,,,2024-06-19,1,,,,,エクシアパートナーズ,0
548,3011001162692,新規,0,2024-06-19,2024-06-19,Ｂｒｏａｄｗａｙ株式会社,,株式会社,東京都,渋谷区,恵比寿１丁目２５番３号,,13,113,1500013,,,,,,,2024-06-19,1,,,,,ブロードウェイ,0
549,3011001162701,新規,0,2024-06-19,2024-06-19,Ｔｏｋｙｏ　Ｓｍｉｌｅ株式会社,,株式会社,東京都,目黒区,碑文谷６丁目８番１０号,,13,110,1520003,,,,,,,2024-06-19,1,,,,,トーキョースマイル,0
550,3011001162791,新規,0,2024-06-19,2024-06-19,株式会社ミューティニースラッシュ,,株式会社,東京都,渋谷区,神宮前２丁目３３番５号パークノヴァ神宮前７０３,,13,113,1500001,,,,,,,2024-06-19,1,,,,,ミューティニースラッシュ,0
551,3011003019387,新規,0,2024-06-19,2024-06-19,合同会社パッシングスルー,,合同会社,東京都,目黒区,目黒１丁目１－２－３０３号メゾン長者丸,,13,110,1530063,,,,,,,2024-06-19,1,,,,,パッシングスルー,0
552,3011003019404,新規,0,2024-06-19,2024-06-19,合同会社ＷＤＰＣ,,合同会社,東京都,渋谷区,千駄ヶ谷４丁目２５番２号株式会社フジタ内,,13,113,1510051,,,,,,,2024-06-19,1,,,,,ウッドピーシー,0
559,3011101107738,新規,0,2024-06-19,2024-06-19,ＪＣ‐Ｍａｓｕｎｏ株式会社,,株式会社,東京都,新宿区,西新宿６丁目１５番１号,,13,104,1600023,,,,,,,2024-06-19,1,,,,,ジェイシーマスノ,0
562,3011201025567,新規,0,2024-06-19,2024-06-19,株式会社ＨＡＮＡＢＩ　ＮＥＫＯ,,株式会社,東京都,中野区,中央２丁目５８－１６東中野グリーンパーク８０１号,,13,114,1640011,,,,,,,2024-06-19,1,,,,,ハナビネコ,0
563,3011301029765,新規,0,2024-06-19,2024-06-19,株式会社０１,,株式会社,東京都,杉並区,荻窪４丁目２８番９－５０５号,,13,115,1670051,,,,,,,2024-06-19,1,,,,,ゼロワン,0
569,3011501030829,新規,0,2024-06-19,2024-06-19,株式会社飛宇,,株式会社,東京都,北区,浮間１丁目１番１４号リムジンビル３５５,,13,117,1150051,,,,,,,2024-06-19,1,,,,,ヒウ,0
573,3011503006109,新規,0,2024-06-19,2024-06-19,合同会社ブルーバタフライモール,,合同会社,東京都,北区,王子１丁目２７番２－４０１号コアプラス王子,,13,117,1140002,,,,,,,2024-06-19,1,,,,,ブルーバタフライモール,0
579,3012403006628,新規,0,2024-06-19,2024-06-19,合同会社堀川,,合同会社,東京都,三鷹市,井の頭５丁目２８番９号,,13,204,1810001,,,,,,,2024-06-19,1,,,,,ホリカワ,0
581,3012701018317,新規,0,2024-06-19,2024-06-19,株式会社廣まる屋,,株式会社,東京都,小平市,花小金井３丁目２番４－２０１号,,13,211,1870002,,,,,,,2024-06-19,1,,,,,ヒロマルヤ,0
588,3020001157768,新規,0,2024-06-19,2024-06-19,株式会社ヤマダ建設,,株式会社,神奈川県,川崎市川崎区,小田４丁目６番９号,,14,131,2100846,,,,,,,2024-06-19,1,,,,,ヤマダケンセツ,0
591,3020003026343,新規,0,2024-06-19,2024-06-19,合同会社ねむくま,,合同会社,神奈川県,横浜市神奈川区,金港町５－１４クアドリフォリオ８階,,14,102,2210056,,,,,,,2024-06-19,1,,,,,ネムクマ,0
594,3021001082477,新規,0,2024-06-19,2024-06-19,株式会社ヤトノ企画,,株式会社,神奈川県,座間市,入谷東２丁目８番１－８０３号,,14,216,2520028,,,,,,,2024-06-19,1,,,,,ヤトノキカク,0
605,3030003024453,新規,0,2024-06-19,2024-06-19,壹星合同会社,,合同会社,埼玉県,熊谷市,宮本町１４５番地１熊谷オリエンタルマンション７０８,,11,202,3600822,,,,,,,2024-06-19,1,,,,,イチボシ,0
607,3030005021738,新規,0,2024-06-19,2024-06-19,特定非営利活動法人クレイジードンキー,,その他の設立登記法人,埼玉県,秩父市,荒川上田野７８５番地５,,11,207,3691802,,,,,,,2024-06-19,1,,,,,クレイジードンキー,0
614,3040003025186,新規,0,2024-06-19,2024-06-19,ＤＥＳＨＡＮＡ　ＩＮＴＥＲＮＡＴＩＯＮＡＬ合同会社,,合同会社,千葉県,千葉市若葉区,金親町９７４番地６５,,12,104,2640001,,,,,,,2024-06-19,1,,,,,デシャナインターナショナル,0
615,3040003025228,新規,0,2024-06-19,2024-06-19,合同会社中島家,,合同会社,千葉県,千葉市美浜区,稲毛海岸５丁目８番６５号,,12,106,2610005,,,,,,,2024-06-19,1,,,,,ナカジマケ,0
616,3040003025236,新規,0,2024-06-19,2024-06-19,合同会社ＤＭ１４号,,合同会社,千葉県,柏市,柏４丁目５番１０号,,12,217,2770005,,,,,,,2024-06-19,1,,,,,ディーエムジュウヨンゴウ,0
618,3050001054962,新規,0,2024-06-19,2024-06-19,株式会社Ｎ・Ｔ　ＲＡＮＡ　ＩＮＴＥＲＮＡＴＩＯＮＡＬ,,株式会社,茨城県,筑西市,吉田８５８番地１,,08,227,3004542,,,,,,,2024-06-19,1,,,,,エヌティーラナインターナショナル,0
620,3050003008462,新規,0,2024-06-19,2024-06-19,ＦＵＪＩ　ＥＳＴＡＴＥ合同会社,,合同会社,茨城県,守谷市,板戸井２５４１番地の３,,08,224,3020101,,,,,,,2024-06-19,1,,,,,フジエステイト,0
621,3050003008470,新規,0,2024-06-19,2024-06-19,合同会社ＡＩｄｏｎｉｓ,,合同会社,茨城県,稲敷郡阿見町,大字曙４０７番地２０,,08,443,3000306,,,,,,,2024-06-19,1,,,,,エイドニス,0
626,3060005010218,新規,0,2024-06-19,2024-06-19,弁護士法人コンフォルト,,その他の設立登記法人,栃木県,宇都宮市,操町８番２１号,,09,201,3200863,,,,,,,2024-06-19,1,,,,,コンフォルト,0
634,3080005007617,新規,0,2024-06-19,2024-06-19,一般社団法人静岡県トライアスロン協会,,その他の設立登記法人,静岡県,静岡市駿河区,手越原２１８番地の１２,,22,102,4210131,,,,,,,2024-06-19,1,,,,,シズオカケントライアスロンキョウカイ,0
637,3090003002585,新規,0,2024-06-19,2024-06-19,合同会社Ｓ‐スマイル,,合同会社,山梨県,甲府市,中央１丁目１６－１南栄ビルＢ－３,,19,201,4000032,,,,,,,2024-06-19,1,,,,,エススマイル,0
639,3100001037557,新規,0,2024-06-19,2024-06-19,株式会社わんにゃんはうすＫ‐９,,株式会社,長野県,南佐久郡佐久穂町,大字畑６８番地,,20,309,3840701,,,,,,,2024-06-19,1,,,,,ワンニャンハウスケイナイン,0
640,3100001037573,新規,0,2024-06-19,2024-06-19,株式会社ＳＨＭ,,株式会社,長野県,上高井郡高山村,大字高井４９８３番地７,,20,543,3820800,,,,,,,2024-06-19,1,,,,,エスエイチエム,0
641,3100001037581,新規,0,2024-06-19,2024-06-19,株式会社ティーズ,,株式会社,長野県,佐久市,岩村田３１６２番地８８第一原ビル１０１,,20,217,3850022,,,,,,,2024-06-19,1,,,,,ティーズ,0
642,3110001038496,新規,0,2024-06-19,2024-06-19,株式会社ＹＫｎｅｔ,,株式会社,新潟県,村上市,坂町３３４３番地３３,,15,212,9593132,,,,,,,2024-06-19,1,,,,,ワイケーネット,0
643,3110003005429,新規,0,2024-06-19,2024-06-19,合同会社ワール,,合同会社,新潟県,南魚沼市,下原新田１４４番地１,,15,226,9497116,,,,,,,2024-06-19,1,,,,,ワール,0
655,3120001265949,新規,0,2024-06-19,2024-06-19,株式会社Ｌｉｎｏ,,株式会社,大阪府,大阪市中央区,糸屋町１丁目２番１１号,,27,128,5400022,,,,,,,2024-06-19,1,,,,,リノ,0
656,3120001265957,新規,0,2024-06-19,2024-06-19,株式会社きむら,,株式会社,大阪府,大阪市平野区,平野市町３丁目３番１号,,27,126,5470042,,,,,,,2024-06-19,1,,,,,キムラ,0
657,3120001266014,新規,0,2024-06-19,2024-06-19,信賀株式会社,,株式会社,大阪府,大阪市港区,市岡元町２丁目６番１１－１０３号室,,27,107,5520002,,,,,,,2024-06-19,1,,,,,シンガ,0
658,3120001266055,新規,0,2024-06-19,2024-06-19,ＨａｏＳ株式会社,,株式会社,大阪府,大阪市城東区,蒲生３丁目１５番１２号セザンヌ藤３０５Ｂ,,27,118,5360016,,,,,,,2024-06-19,1,,,,,ハオエス,0
667,3120005024384,新規,0,2024-06-19,2024-06-19,一般社団法人縄文栗の木,,その他の設立登記法人,大阪府,大阪市西区,京町堀３丁目２番２６－２０１号,,27,106,5500003,,,,,,,2024-06-19,1,,,,,ジョウモンクリノキ,0
678,3130005017115,新規,0,2024-06-19,2024-06-19,一般社団法人樹,,その他の設立登記法人,京都府,宇治市,槇島町南落合５番地１０,,26,204,6110041,,,,,,,2024-06-19,1,,,,,イツキ,0
684,3150003003288,新規,0,2024-06-19,2024-06-19,合同会社Ｈｏｍｅ,,合同会社,奈良県,奈良市,朱雀４丁目７番地の１０,,29,201,6310806,,,,,,,2024-06-19,1,,,,,ホーム,0
694,3180003026963,新規,0,2024-06-19,2024-06-19,合同会社サンフォレスト,,合同会社,愛知県,名古屋市中区,錦１丁目１７番１３号名興ビルディング２Ｆ,,23,106,4600003,,,,,,,2024-06-19,1,,,,,サンフォレスト,0
695,3180005020667,新規,0,2024-06-19,2024-06-19,医療法人Ｈａｕ’ｏｌｉ,,その他の設立登記法人,愛知県,瀬戸市,東長根町４５番地,,23,204,4890871,,,,,,,2024-06-19,1,,,,,ハウオリ,0
698,3190003004720,新規,0,2024-06-19,2024-06-19,合同会社ＳＴＡＹＧＯＬＤ,,合同会社,三重県,四日市市,大字末永１０５９番地１プロミネント四日市９１３,,24,202,5100813,,,,,,,2024-06-19,1,,,,,ステイゴールド,0
702,3240001063390,新規,0,2024-06-19,2024-06-19,株式会社ＭＥＴＥＯＲ,,株式会社,広島県,広島市佐伯区,藤の木１丁目８番２７号,,34,108,7315103,,,,,,,2024-06-19,1,,,,,メテオ,0
705,3250001000087,新規,0,2024-06-19,2024-06-19,恵美寿産業株式会社,,株式会社,山口県,山口市,佐山２７１９番地の３,,35,203,7540894,,,,,,,2024-06-19,1,,,,,エビスサンギョウ,0
708,3270001009003,新規,0,2024-06-19,2024-06-19,株式会社Ｋプランニング,,株式会社,鳥取県,米子市,上福原６５９番地６６エコガーデンＤ棟,,31,202,6830004,,,,,,,2024-06-19,1,,,,,ケープランニング,0
715,3290001106186,新規,0,2024-06-19,2024-06-19,みつきマネジメント株式会社,,株式会社,福岡県,福岡市博多区,中洲５丁目４－１０－２２０６,,40,132,8100801,,,,,,,2024-06-19,1,,,,,ミツキマネジメント,0
716,3290001106203,新規,0,2024-06-19,2024-06-19,株式会社慶愛運輸,,株式会社,福岡県,大野城市,白木原４丁目４番１８－２号,,40,219,8160943,,,,,,,2024-06-19,1,,,,,ケイアイウンユ,0
718,3290003015451,新規,0,2024-06-19,2024-06-19,合同会社ＶａｎＧｒｏｗｔｈ,,合同会社,福岡県,筑紫野市,岡田２丁目６８番３,,40,217,8180013,,,,,,,2024-06-19,1,,,,,ヴァングロウス,0
727,3330001032188,新規,0,2024-06-19,2024-06-19,株式会社ＭＵＧＩ,,株式会社,熊本県,熊本市東区,長嶺南７丁目８番８号,,43,102,8618039,,,,,,,2024-06-19,1,,,,,ムギ,0
731,3350001019019,新規,0,2024-06-19,2024-06-19,株式会社十種,,株式会社,宮崎県,延岡市,中三輪町２２６７番地１,,45,203,8820884,,,,,,,2024-06-19,1,,,,,トグサ,0
744,3430001092049,新規,0,2024-06-19,2024-06-19,株式会社ｏｐｓ,,株式会社,北海道,江別市,大麻扇町１０番地の１３,,01,217,0690843,,,,,,,2024-06-19,1,,,,,オプス,0
745,3430001092065,新規,0,2024-06-19,2024-06-19,ＣＥプランニング株式会社,,株式会社,北海道,札幌市西区,西野五条３丁目７番２０号,,01,107,0630035,,,,,,,2024-06-19,1,,,,,シーイープランニング,0
746,3430001092073,新規,0,2024-06-19,2024-06-19,株式会社ＤＸエッジデザイン,,株式会社,北海道,札幌市北区,北七条西５丁目６－１ストークマンション札幌６０４号,,01,102,0600807,,,,,,,2024-06-19,1,,,,,ディーエックスエッジデザイン,0
750,3440005002779,新規,0,2024-06-19,2024-06-19,一般社団法人土木サポート協会,,その他の設立登記法人,北海道,函館市,赤川１丁目１９番１２号,,01,202,0410805,,,,,,,2024-06-19,1,,,,,ドボクサポートキョウカイ,0
762,4010001245663,新規,0,2024-06-19,2024-06-19,株式会社ＳｕｎＢｏｒｎ,,株式会社,東京都,千代田区,鍛冶町２丁目７番４号ヨウコービル５Ｆ,,13,101,1010044,,,,,,,2024-06-19,1,,,,,サンボーン,0
763,4010001245779,新規,0,2024-06-19,2024-06-19,株式会社クラウドカッター,,株式会社,東京都,中央区,銀座１丁目１２番４号Ｎ＆ＥＢＬＤ．６Ｆ,,13,102,1040061,,,,,,,2024-06-19,1,,,,,クラウドカッター,0
764,4010001245787,新規,0,2024-06-19,2024-06-19,株式会社ダイマオウ,,株式会社,東京都,中央区,銀座１丁目１２番４号Ｎ＆Ｅ、ＢＬＤ．７階,,13,102,1040061,,,,,,,2024-06-19,1,,,,,ダイマオウ,0
765,4010001245861,新規,0,2024-06-19,2024-06-19,新東昇建設株式会社,,株式会社,東京都,千代田区,九段南１丁目４番１０号,,13,101,1020074,,,,,,,2024-06-19,1,,,,,シントウショウケンセツ,0
767,4010003043982,新規,0,2024-06-19,2024-06-19,合同会社カバーオール,,合同会社,東京都,中央区,日本橋室町１丁目１１番１２号日本橋水野ビル７階,,13,102,1030022,,,,,,,2024-06-19,1,,,,,カバーオール,0
768,4010003044048,新規,0,2024-06-19,2024-06-19,合同会社テラテック,,合同会社,東京都,中央区,銀座１丁目１２号４番Ｎ＆ＥＢＬＤ．７階,,13,102,1040061,,,,,,,2024-06-19,1,,,,,テラテック,0
789,4010603010894,新規,0,2024-06-19,2024-06-19,Ｆｕｊｉ　Ｔｒａｄｉｎｇ合同会社,,合同会社,東京都,墨田区,東墨田１丁目２番１４号有限会社染谷商店南工場宿舎,,13,107,1310042,,,,,,,2024-06-19,1,,,,,フジトレーディング,0
790,4010603010903,新規,0,2024-06-19,2024-06-19,アセットリンク合同会社,,合同会社,東京都,江東区,東雲１丁目９番４－１１１４号,,13,108,1350062,,,,,,,2024-06-19,1,,,,,アセットリンク,0
795,4010903009166,新規,0,2024-06-19,2024-06-19,合同会社ネクス・ヴォーロ,,合同会社,東京都,世田谷区,給田３丁目６番２号,,13,112,1570064,,,,,,,2024-06-19,1,,,,,ネクスヴォーロ,0
802,4011001162691,新規,0,2024-06-19,2024-06-19,学術団体支援機構株式会社,,株式会社,東京都,渋谷区,道玄坂１丁目１０番８渋谷道玄坂東急ビル２Ｆ－Ｃ,,13,113,1500043,,,,,,,2024-06-19,1,,,,,ガクジュツダンタイシエンキコウ,0
803,4011001162700,新規,0,2024-06-19,2024-06-19,株式会社ＯＮＥ　ＡＣＥ,,株式会社,東京都,渋谷区,神宮前６丁目２３番４号桑野ビル２階,,13,113,1500001,,,,,,,2024-06-19,1,,,,,ワンエース,0
804,4011001162774,新規,0,2024-06-19,2024-06-19,株式会社Ｅａｓｔ　ＬＯＣＡＬ,,株式会社,東京都,渋谷区,宇田川町３７番１２号,,13,113,1500042,,,,,,,2024-06-19,1,,,,,イーストローカル,0
806,4011003019394,新規,0,2024-06-19,2024-06-19,合同会社ｄｒｉｌｌｅｒ,,合同会社,東京都,渋谷区,渋谷２丁目１９－１５宮益坂ビルディング６０９,,13,113,1500002,,,,,,,2024-06-19,1,,,,,ドリラー,0
810,4011101107753,新規,0,2024-06-19,2024-06-19,ＪＰＮ　Ｓｅｌｅｃｔ株式会社,,株式会社,東京都,新宿区,須賀町８番地６３,,13,104,1600018,,,,,,,2024-06-19,1,,,,,ジャパンセレクト,0
818,4011301029764,新規,0,2024-06-19,2024-06-19,Ｅｃｌｉｐｘ　Ｊａｐａｎ株式会社,,株式会社,東京都,杉並区,和泉２丁目５番３７号藤和シティホームズ明大前弍番館２０３,,13,115,1680063,,,,,,,2024-06-19,1,,,,,イクリプスジャパン,0
819,4011303005160,新規,0,2024-06-19,2024-06-19,合同会社Ｗｅｓｔ　Ｖｉｌｌａｇｅ,,合同会社,東京都,杉並区,下高井戸１丁目２０番９号ｔａｒｉｎａ桜上水１０２,,13,115,1680073,,,,,,,2024-06-19,1,,,,,ウエストヴィレッジ,0
820,4011501030836,新規,0,2024-06-19,2024-06-19,紅發株式会社,,株式会社,東京都,北区,王子１丁目２８番６号,,13,117,1140002,,,,,,,2024-06-19,1,,,,,ベニハツ,0
824,4011503006108,新規,0,2024-06-19,2024-06-19,合同会社木王,,合同会社,東京都,北区,王子１丁目２７番２－４０１号コアプラス王子,,13,117,1140002,,,,,,,2024-06-19,1,,,,,モクオウ,0
834,4012403006610,新規,0,2024-06-19,2024-06-19,合同会社ＭＯＯＮ,,合同会社,東京都,調布市,布田３丁目４５－４ダイヤビル１階,,13,208,1820024,,,,,,,2024-06-19,1,,,,,ムーン,0
849,4020001157734,新規,0,2024-06-19,2024-06-19,株式会社ＩＰポケット,,株式会社,神奈川県,川崎市高津区,久本１丁目６－８,,14,134,2130011,,,,,,,2024-06-19,1,,,,,アイピーポケット,0
852,4020003026342,新規,0,2024-06-19,2024-06-19,合同会社ネクストフォース,,合同会社,神奈川県,横浜市神奈川区,菅田町１５７１－２,,14,102,2210864,,,,,,,2024-06-19,1,,,,,ネクストフォース,0
853,4020003026350,新規,0,2024-06-19,2024-06-19,合同会社８,,合同会社,神奈川県,横浜市金沢区,釜利谷南２丁目４３番１０－１０３号,,14,108,2360045,,,,,,,2024-06-19,1,,,,,エイト,0
855,4021003014659,新規,0,2024-06-19,2024-06-19,ＭＡＲＹＡＭ商会合同会社,,合同会社,神奈川県,愛甲郡愛川町,中津３２－４コーポ愛川２０１,,14,401,2430303,,,,,,,2024-06-19,1,,,,,マリヤムショウカイ,0
863,4030001161009,新規,0,2024-06-19,2024-06-19,ユウコウフーズ株式会社,,株式会社,埼玉県,蕨市,中央１丁目９－３セントラルプラザ１０３,,11,223,3350004,,,,,,,2024-06-19,1,,,,,ユウコウフーズ,0
868,4040001134120,新規,0,2024-06-19,2024-06-19,フォト小澤株式会社,,株式会社,千葉県,千葉市若葉区,高品町８９９番地１高品ハイツ２棟８０８号,,12,104,2640024,,,,,,,2024-06-19,1,,,,,,0
869,4040001134129,新規,0,2024-06-19,2024-06-19,株式会社ＴＯＫＯＴＯＫＯ,,株式会社,千葉県,野田市,七光台４２４番地の５,,12,208,2780051,,,,,,,2024-06-19,1,,,,,トコトコ,0
870,4040001134137,新規,0,2024-06-19,2024-06-19,株式会社ＧＹＭＯ,,株式会社,千葉県,我孫子市,我孫子２丁目６―６２３,,12,222,2701166,,,,,,,2024-06-19,1,,,,,ジーモ,0
872,4040003025235,新規,0,2024-06-19,2024-06-19,合同会社ＤＭ１３号,,合同会社,千葉県,柏市,柏４丁目５番１０号,,12,217,2770005,,,,,,,2024-06-19,1,,,,,ディーエムジュウサンゴウ,0
888,4080405007645,新規,0,2024-06-19,2024-06-19,世界心道教川久保教会,,その他の設立登記法人,静岡県,掛川市,岩滑２０８９番地１,,22,213,4371403,,,,,,,2024-06-19,1,,,,,セカイシンドウキョウカワクボキョウカイ,0
890,4090001018780,新規,0,2024-06-19,2024-06-19,株式会社シング,,株式会社,山梨県,南都留郡富士河口湖町,勝山１２３６番地１,,19,430,4010310,,,,,,,2024-06-19,1,,,,,シング,0
895,4100001037556,新規,0,2024-06-19,2024-06-19,株式会社８,,株式会社,長野県,安曇野市,穂高有明８０３８番地７,,20,220,3998301,,,,,,,2024-06-19,1,,,,,エイト,0
896,4100001037589,新規,0,2024-06-19,2024-06-19,株式会社ペッシュエフルール,,株式会社,長野県,北安曇郡白馬村,大字神城１０７９,,20,485,3999211,,,,,,,2024-06-19,1,,,,,ペッシュエフルール,0
899,4100003007615,新規,0,2024-06-19,2024-06-19,合同会社伊那谷,,合同会社,長野県,飯田市,桐林３４４５－２,,20,205,3992565,,,,,,,2024-06-19,1,,,,,イナダニ,0
908,4120001265832,新規,0,2024-06-19,2024-06-19,優創ジャパン株式会社,,株式会社,大阪府,大阪市旭区,清水１丁目１２－１４－２０１号室,,27,117,5350021,,,,,,,2024-06-19,1,,,,,ユウソウジャパン,0
909,4120001265972,新規,0,2024-06-19,2024-06-19,Ｊ・ｓｔｏｎｅ株式会社,,株式会社,大阪府,大阪市天王寺区,伶人町２－３１ＳｔａｒＯｆｆｉｃｅ５０２号室,,27,109,5430061,,,,,,,2024-06-19,1,,,,,ジェーストーン,0
910,4120001266013,新規,0,2024-06-19,2024-06-19,株式会社Ｒ’ｓ,,株式会社,大阪府,大阪市生野区,桃谷３丁目２１－２６－１７号,,27,116,5440034,,,,,,,2024-06-19,1,,,,,ラーズ,0
911,4120001266054,新規,0,2024-06-19,2024-06-19,Ｂｌｏｓｓｏｍ株式会社,,株式会社,大阪府,大阪市大正区,三軒家西３丁目４番１６号中山ビル１０４２,,27,108,5510001,,,,,,,2024-06-19,1,,,,,ブロッサム,0
912,4120003026885,新規,0,2024-06-19,2024-06-19,合同会社Ｈ２コンサルティング,,合同会社,大阪府,大阪市北区,西天満６丁目１－１２エル・ミズホビル７０１,,27,127,5300047,,,,,,,2024-06-19,1,,,,,エイチツーコンサルティング,0
913,4120101069803,新規,0,2024-06-19,2024-06-19,幸葉株式会社,,株式会社,大阪府,高石市,取石２丁目２番１８号,,27,225,5920013,,,,,,,2024-06-19,1,,,,,コウヨウ,0
917,4120903005229,新規,0,2024-06-19,2024-06-19,合同会社シンワマネジメント,,合同会社,大阪府,茨木市,大住町１６番１１号,,27,211,5670813,,,,,,,2024-06-19,1,,,,,シンワマネジメント,0
919,4130001077269,新規,0,2024-06-19,2024-06-19,株式会社ＨＡＳ,,株式会社,京都府,京都市下京区,朱雀正会町１－１－２１１,,26,106,6008841,,,,,,,2024-06-19,1,,,,,エイチエーエス,0
926,4140003020688,新規,0,2024-06-19,2024-06-19,合同会社ＵＬＵ　ＭＩＫＡＺＵ,,合同会社,兵庫県,明石市,大久保町山手台４丁目２２９番地の１１,,28,203,6740056,,,,,,,2024-06-19,1,,,,,ウルミカズ,0
928,4150003003287,新規,0,2024-06-19,2024-06-19,カミゲン合同会社,,合同会社,奈良県,生駒市,軽井沢町１３－５,,29,209,6300265,,,,,,,2024-06-19,1,,,,,カミゲン,0
931,4160001026009,新規,0,2024-06-19,2024-06-19,ＮＥＸＴＬＥＶＥＬ株式会社,,株式会社,滋賀県,甲賀市,甲南町希望ケ丘本町５丁目２６６０番地３３,,25,209,5203332,,,,,,,2024-06-19,1,,,,,ネクストレベル,0
932,4180001161927,新規,0,2024-06-19,2024-06-19,株式会社ｍａｇｏｋｏｒｏ,,株式会社,愛知県,名古屋市中村区,岩塚本通４丁目１番地,,23,105,4530861,,,,,,,2024-06-19,1,,,,,マゴコロ,0
933,4180001162009,新規,0,2024-06-19,2024-06-19,株式会社ＫＩＯＸ,,株式会社,愛知県,名古屋市東区,東桜２丁目１７番２１号,,23,102,4610005,,,,,,,2024-06-19,1,,,,,キオク,0
935,4180005020666,新規,0,2024-06-19,2024-06-19,医療法人ＫＦＣ,,その他の設立登記法人,愛知県,春日井市,知多町３丁目８番地,,23,206,4860947,,,,,,,2024-06-19,1,,,,,ケイエフシー,0
944,4240001063398,新規,0,2024-06-19,2024-06-19,株式会社Ａ．Ｙ美建,,株式会社,広島県,東広島市,西条町寺家６６１番地,,34,212,7390041,,,,,,,2024-06-19,1,,,,,エーワイビケン,0
948,4270001009002,新規,0,2024-06-19,2024-06-19,ＹＭ株式会社,,株式会社,鳥取県,岩美郡岩美町,大字岩本４１９番地１,,31,302,6810072,,,,,,,2024-06-19,1,,,,,ワイエム,0
964,4320003004400,新規,0,2024-06-19,2024-06-19,ＲＴＣ合同会社,,合同会社,大分県,大分市,大字竹矢６３２の３番地,,44,201,8701211,,,,,,,2024-06-19,1,,,,,アールティーシー,0
967,4330003010430,新規,0,2024-06-19,2024-06-19,ブライトン・ジャパン合同会社,,合同会社,熊本県,熊本市南区,江越１丁目１番５号,,43,104,8600834,,,,,,,2024-06-19,1,,,,,ブライトンジャパン,0
974,4360001033827,新規,0,2024-06-19,2024-06-19,株式会社Ｃ＆Ｓ,,株式会社,沖縄県,宮古島市,平良字下里１５５１番地４,,47,214,9060013,,,,,,,2024-06-19,1,,,,,シーアンドエス,0
975,4360001033835,新規,0,2024-06-19,2024-06-19,ＬＯＧＩＱ株式会社,,株式会社,沖縄県,那覇市,おもろまち１丁目１－２５,,47,201,9000006,,,,,,,2024-06-19,1,,,,,ロジック,0
976,4360003014081,新規,0,2024-06-19,2024-06-19,合同会社ＹＤＳカンパニー,,合同会社,沖縄県,沖縄市,宮里１丁目１２－２０,,47,211,9042165,,,,,,,2024-06-19,1,,,,,ワイディーエスカンパニー,0
994,4430001092056,新規,0,2024-06-19,2024-06-19,アルファ工建株式会社,,株式会社,北海道,札幌市白石区,川北三条１丁目７番２４号,,01,104,0030853,,,,,,,2024-06-19,1,,,,,アルファコウケン,0
997,4430003016467,新規,0,2024-06-19,2024-06-19,合同会社ボンセルヴィーソ,,合同会社,北海道,札幌市白石区,平和通８丁目北１番１０号リバティー８右,,01,104,0030029,,,,,,,2024-06-19,1,,,,,ボンセルヴィーソ,0
998,4430003016475,新規,0,2024-06-19,2024-06-19,合同会社Ｒｅｇａｌｉａ　ｍｉｔサポート,,合同会社,北海道,札幌市東区,北四十一条東７丁目１番１号クリスタルハイツＮ４１　３０２号室,,01,103,0070841,,,,,,,2024-06-19,1,,,,,レガリアミットサポート,0
1001,4460101007563,新規,0,2024-06-19,2024-06-19,株式会社橋本ボデー,,株式会社,北海道,上川郡清水町,字清水基線５３番地,,01,636,0890103,,,,,,,2024-06-19,1,,,,,ハシモトボデー,0
1016,5010001245745,新規,0,2024-06-19,2024-06-19,株式会社ＴＨＲＵＳＴＥＲ,,株式会社,東京都,千代田区,一ツ橋２丁目３番１号,,13,101,1010003,,,,,,,2024-06-19,1,,,,,スラスター,0
1018,5010003044063,新規,0,2024-06-19,2024-06-19,Ｉｎｔｅｌｌｉａｓ　Ｊａｐａｎ合同会社,,合同会社,東京都,千代田区,霞が関３丁目２番６号東京倶楽部ビルディング１１階,,13,101,1000013,,,,,,,2024-06-19,1,,,,,インテリアスジャパン,0
1019,5010005038435,新規,0,2024-06-19,2024-06-19,一般社団法人なでしこ,,その他の設立登記法人,東京都,千代田区,一ツ橋２丁目６番３号アクシスインベストメントアドバイザーズ株式会社内,,13,101,1010003,,,,,,,2024-06-19,1,,,,,ナデシコ,0
1020,5010101016204,新規,0,2024-06-19,2024-06-19,株式会社エムエムシー,,株式会社,東京都,八王子市,石川町１６８９番地１０,,13,201,1920032,,,,,,,2024-06-19,1,,,,,エムエムシー,0
1025,5010401183082,新規,0,2024-06-19,2024-06-19,株式会社オンダーズ,,株式会社,東京都,港区,赤坂４丁目８番１９号赤坂フロントタウン３階,,13,103,1070052,,,,,,,2024-06-19,1,,,,,オンダーズ,0
1026,5010401183124,新規,0,2024-06-19,2024-06-19,ヨーラ・ジャパン株式会社,,株式会社,東京都,港区,元麻布３丁目１番６号,,13,103,1060046,,,,,,,2024-06-19,1,,,,,ヨーラジャパン,0
1027,5010401183264,新規,0,2024-06-19,2024-06-19,斯琴教育株式会社,,株式会社,東京都,港区,三田１丁目３番４０号麻布十番ＢＵＳＩＮＥＳＳＣＵＢＥ－Ｓ,,13,103,1080073,,,,,,,2024-06-19,1,,,,,スチンキョウイク,0
1030,5010505003533,新規,0,2024-06-19,2024-06-19,一般社団法人日本ユニバーサル協会,,その他の設立登記法人,東京都,台東区,寿１丁目１９番１号,,13,106,1110042,,,,,,,2024-06-19,1,,,,,ニホンユニバーサルキョウカイ,0
1032,5010703007229,新規,0,2024-06-19,2024-06-19,Ｒｏｎｎａ合同会社,,合同会社,東京都,品川区,東品川４丁目５番８－１１１１号,,13,109,1400002,,,,,,,2024-06-19,1,,,,,ロナ,0
1034,5010903009165,新規,0,2024-06-19,2024-06-19,合同会社ポトフ企画,,合同会社,東京都,世田谷区,弦巻５丁目６番１６－２０４号弦巻リハイム,,13,112,1540016,,,,,,,2024-06-19,1,,,,,ポトフキカク,0
1036,5011001162641,新規,0,2024-06-19,2024-06-19,ＢＯＡＲ株式会社,,株式会社,東京都,渋谷区,宇田川町１２－３ニュー渋谷コーポラス４０４号,,13,113,1500042,,,,,,,2024-06-19,1,,,,,ボア,0
1037,5011001162682,新規,0,2024-06-19,2024-06-19,株式会社ｃｌａｓｓ．,,株式会社,東京都,渋谷区,恵比寿西２丁目１９－９フランセスビル,,13,113,1500021,,,,,,,2024-06-19,1,,,,,クラステン,0
1038,5011001162781,新規,0,2024-06-19,2024-06-19,株式会社ＴＯＧＯＨ　ＶＩＳＵＡＬ　ＯＦＦＩＣＥ,,株式会社,東京都,渋谷区,神宮前４丁目３０番３号－５階ＬＯＣＵＬＬＢ－０２,,13,113,1500001,,,,,,,2024-06-19,1,,,,,トウゴウヴィジュアルオフィス,0
1041,5011003019369,新規,0,2024-06-19,2024-06-19,ＣＯＳＩＭＯ合同会社,,合同会社,東京都,渋谷区,道玄坂１丁目１０番８号渋谷道玄坂東急ビル２Ｆ－Ｃ,,13,113,1500043,,,,,,,2024-06-19,1,,,,,,0
1042,5011003019377,新規,0,2024-06-19,2024-06-19,Ｃｈａｒｄｉａ合同会社,,合同会社,東京都,渋谷区,恵比寿西２丁目８番４号ＥＸ恵比寿西ビル５階,,13,113,1500021,,,,,,,2024-06-19,1,,,,,シャルディア,0
1043,5011003019385,新規,0,2024-06-19,2024-06-19,ｙｕｇｅｎ　Ｌａｂ合同会社,,合同会社,東京都,渋谷区,渋谷２丁目１９番１５号宮益坂ビルディング６０９,,13,113,1500002,,,,,,,2024-06-19,1,,,,,ユウゲンラボ,0
1044,5011003019410,新規,0,2024-06-19,2024-06-19,合同会社Ｌａｓｎｏｃｈｅｓ,,合同会社,東京都,渋谷区,神宮前１丁目１０番３４号原宿コーポ別館Ｂ１０１,,13,113,1500001,,,,,,,2024-06-19,1,,,,,ラスノチェス,0
1045,5011003019451,新規,0,2024-06-19,2024-06-19,合同会社アイゼット,,合同会社,東京都,渋谷区,神南１丁目１４－７,,13,113,1500041,,,,,,,2024-06-19,1,,,,,アイゼット,0
1046,5011101107752,新規,0,2024-06-19,2024-06-19,株式会社ＫＡＦ,,株式会社,東京都,新宿区,須賀町８番地６３,,13,104,1600018,,,,,,,2024-06-19,1,,,,,ケーエーエフ,0
1048,5011201025573,新規,0,2024-06-19,2024-06-19,株式会社ＴＪ,,株式会社,東京都,中野区,上高田３丁目３９番１１コスモ新井薬師駅前３０４号,,13,114,1640002,,,,,,,2024-06-19,1,,,,,テイジェイ,0
1052,5011401026198,新規,0,2024-06-19,2024-06-19,山嶺コーポレーション株式会社,,株式会社,東京都,板橋区,蓮根２丁目２８－２１ワイティーコート２０３,,13,119,1740046,,,,,,,2024-06-19,1,,,,,サンレイコーポレーション,0
1065,5013103001347,新規,0,2024-06-19,2024-06-19,グラディジョン合同会社,,合同会社,東京都,西多摩郡奥多摩町,海澤１０２７番地１,,13,308,1980213,,,,,,,2024-06-19,1,,,,,,0
1074,5020001157758,新規,0,2024-06-19,2024-06-19,Ｇｒｏｗｔｈ株式会社,,株式会社,神奈川県,横浜市中区,弁天通２丁目２９森藤ビル３０１,,14,104,2310007,,,,,,,2024-06-19,1,,,,,グロウス,0
1075,5020001157774,新規,0,2024-06-19,2024-06-19,株式会社ＫＴポラリス,,株式会社,神奈川県,横浜市青葉区,柿の木台１０番地３５,,14,117,2270048,,,,,,,2024-06-19,1,,,,,ケーティーポラリス,0
1080,5020003026341,新規,0,2024-06-19,2024-06-19,合同会社和結,,合同会社,神奈川県,川崎市幸区,小向西町４丁目１１－５,,14,132,2120004,,,,,,,2024-06-19,1,,,,,カズユウ,0
1081,5020005016456,新規,0,2024-06-19,2024-06-19,一般社団法人福智日本,,その他の設立登記法人,神奈川県,横浜市港南区,日野中央３丁目２１番８－５０３号,,14,111,2340053,,,,,,,2024-06-19,1,,,,,フクチニホン,0
1085,5021001082517,新規,0,2024-06-19,2024-06-19,ＪＣＴＣ株式会社,,株式会社,神奈川県,座間市,緑ケ丘６丁目２３番１０号,,14,216,2520021,,,,,,,2024-06-19,1,,,,,ジェイシーティーシー,0
1088,5021003014658,新規,0,2024-06-19,2024-06-19,ネオクリーン合同会社,,合同会社,神奈川県,伊勢原市,石田２４６番地１ベルピア愛甲石田２０１号室,,14,214,2591116,,,,,,,2024-06-19,1,,,,,ネオクリーン,0
1091,5030001161008,新規,0,2024-06-19,2024-06-19,株式会社オフィスいのうえ,,株式会社,埼玉県,草加市,氷川町４７０番地２３ライフピア草加氷川町ヴェルフォート２１６号,,11,221,3400034,,,,,,,2024-06-19,1,,,,,オフィスイノウエ,0
1102,5040003025003,新規,0,2024-06-19,2024-06-19,Ｔ’ｓｄｉｓｈ合同会社,,合同会社,千葉県,千葉市花見川区,幕張本郷７丁目２６－１サンパーク幕張台４０５号室,,12,102,2620033,,,,,,,2024-06-19,1,,,,,ティーズディッシュ,0
1103,5040003025234,新規,0,2024-06-19,2024-06-19,合同会社ＤＭ１２号,,合同会社,千葉県,柏市,柏４丁目５番１０号,,12,217,2770005,,,,,,,2024-06-19,1,,,,,ディーエムジュウニゴウ,0
1105,5050001054944,新規,0,2024-06-19,2024-06-19,株式会社商社小林,,株式会社,茨城県,取手市,宮和田１２５６番地２,,08,217,3001514,,,,,,,2024-06-19,1,,,,,ショウシャコバヤシ,0
1107,5060001037213,新規,0,2024-06-19,2024-06-19,栃木レゾナンス株式会社,,株式会社,栃木県,宇都宮市,中央３丁目１番４号,,09,201,3200806,,,,,,,2024-06-19,1,,,,,トチギレゾナンス,0
1109,5060003005119,新規,0,2024-06-19,2024-06-19,ＯＫＡＹ合同会社,,合同会社,栃木県,足利市,千歳町３４,,09,202,3260045,,,,,,,2024-06-19,1,,,,,オーケー,0
1119,5080401027266,新規,0,2024-06-19,2024-06-19,株式会社サカモト電設,,株式会社,静岡県,磐田市,長須賀２１９番地１,,22,211,4380069,,,,,,,2024-06-19,1,,,,,サカモトデンセツ,0
1120,5080403005039,新規,0,2024-06-19,2024-06-19,合同会社かねしん,,合同会社,静岡県,浜松市中央区,向宿２丁目２８番３０号,,22,138,4300851,,,,,,,2024-06-19,1,,,,,カネシン,0
1128,5120001265880,新規,0,2024-06-19,2024-06-19,Ｇｒｅｅｎ　Ｒｏｃｋ　Ｆｕｅｌ　Ｈｏｌｄｉｎｇｓ株式会社,,株式会社,大阪府,大阪市福島区,福島１丁目２番４号,,27,103,5530003,,,,,,,2024-06-19,1,,,,,グリーンロックフューエルホールディングス,0
1129,5120001266004,新規,0,2024-06-19,2024-06-19,株式会社オールド上海,,株式会社,大阪府,大阪市中央区,道頓堀１丁目１０番５号白亜ビルＢ１,,27,128,5420071,,,,,,,2024-06-19,1,,,,,オールドシャンハイ,0
1130,5120001266020,新規,0,2024-06-19,2024-06-19,Ｗ．Ｗ．Ｃ．Ｓ株式会社,,株式会社,大阪府,守口市,南寺方東通４丁目２８番８－６０３号,,27,209,5700043,,,,,,,2024-06-19,1,,,,,ワールドワイドカーショップ,0
1131,5120001266053,新規,0,2024-06-19,2024-06-19,琅＿山株式会社,00135236,株式会社,大阪府,大阪市生野区,巽中１丁目２１番３号博文ビル４０１Ｄ,00135237,27,116,5440013,,,,,,,2024-06-19,1,,,,,ロウヤサン,0
1134,5120003026819,新規,0,2024-06-19,2024-06-19,ＩＳＨＡ合同会社,,合同会社,大阪府,大阪市西淀川区,大和田３丁目８番２号,,27,113,5550032,,,,,,,2024-06-19,1,,,,,イシャ,0
1152,5180001161975,新規,0,2024-06-19,2024-06-19,ＵＭ　Ａｕｔｏ　Ｔｒａｄｉｎｇ株式会社,,株式会社,愛知県,名古屋市中川区,富永２丁目５３,,23,110,4540964,,,,,,,2024-06-19,1,,,,,ユーエムオートトレーディング,0
1153,5180001162057,新規,0,2024-06-19,2024-06-19,Ｂｉｒａｍ　Ｉｎｔｅｒｎａｔｉｏｎａｌ株式会社,,株式会社,愛知県,名古屋市瑞穂区,茨城町１３番地,,23,108,4670000,,,,,,,2024-06-19,1,,,,,ビラムインターナショナル,0
1155,5180005020657,新規,0,2024-06-19,2024-06-19,新世界協同組合,,その他の設立登記法人,愛知県,春日井市,藤山台１丁目４番地２,,23,206,4870035,,,,,,,2024-06-19,1,,,,,シンセカイ,0
1158,5190001031426,新規,0,2024-06-19,2024-06-19,鈴鹿智能産業株式会社,,株式会社,三重県,鈴鹿市,東玉垣町２８００番地の１２４,,24,207,5130814,,,,,,,2024-06-19,1,,,,,スズカチノウサンギョウ,0
1163,5230001020399,新規,0,2024-06-19,2024-06-19,株式会社モクレン,,株式会社,富山県,富山市,豊田本町４丁目１８番１８号,,16,201,9318312,,,,,,,2024-06-19,1,,,,,モクレン,0
1168,5240001063397,新規,0,2024-06-19,2024-06-19,株式会社ＳＥＩＫＡ,,株式会社,広島県,福山市,三吉町南１丁目１０番３号,,34,207,7200032,,,,,,,2024-06-19,1,,,,,セイカ,0
1169,5240001063406,新規,0,2024-06-19,2024-06-19,株式会社シー・コーポレーション,,株式会社,広島県,広島市西区,横川町１丁目１０番１８号,,34,104,7330011,,,,,,,2024-06-19,1,,,,,シーコーポレーション,0
1175,5260001039197,新規,0,2024-06-19,2024-06-19,株式会社ｉＸ‐ＳＴｅｃｈＬａｂ,,株式会社,岡山県,岡山市北区,今保２８６番地２カーサ・リアン２０２号室,,33,101,7010145,,,,,,,2024-06-19,1,,,,,アイクロスエステックラボ,0
1178,5290001106201,新規,0,2024-06-19,2024-06-19,株式会社愛泉,,株式会社,福岡県,太宰府市,水城５丁目８番１８号,,40,221,8180131,,,,,,,2024-06-19,1,,,,,アイセン,0
1179,5290001106242,新規,0,2024-06-19,2024-06-19,株式会社倉嶋建設,,株式会社,福岡県,那珂川市,片縄北３丁目８番１６号,,40,231,8111203,,,,,,,2024-06-19,1,,,,,クラシマケンセツ,0
1190,5310001019078,新規,0,2024-06-19,2024-06-19,株式会社かなめ,,株式会社,長崎県,長崎市,目覚町１１番６号新浦上ビル３０６号,,42,201,8528105,,,,,,,2024-06-19,1,,,,,カナメ,0
1194,5340003004496,新規,0,2024-06-19,2024-06-19,ＥＮＴ合同会社,,合同会社,鹿児島県,霧島市,隼人町小田１３３１番地３,,46,218,8995105,,,,,,,2024-06-19,1,,,,,イーエヌティー,0
1197,5360003014080,新規,0,2024-06-19,2024-06-19,合同会社ひろちゃん食堂,,合同会社,沖縄県,宮古島市,上野字宮国７４９番地,,47,214,9060203,,,,,,,2024-06-19,1,,,,,ヒロチャンショクドウ,0
1206,5390001017660,新規,0,2024-06-19,2024-06-19,株式会社とうとや,,株式会社,山形県,山形市,緑町３丁目１７－８,,06,201,9900041,,,,,,,2024-06-19,1,,,,,,0
1222,5430001092047,新規,0,2024-06-19,2024-06-19,グレートパンプキンアセットマネジメント株式会社,,株式会社,北海道,札幌市西区,西町南１８丁目１番１号,,01,107,0630062,,,,,,,2024-06-19,1,,,,,グレートパンプキンアセットマネジメント,0
1223,5430001092063,新規,0,2024-06-19,2024-06-19,株式会社コムフィード,,株式会社,北海道,札幌市白石区,川下２１１３番地８０,,01,104,0030869,,,,,,,2024-06-19,1,,,,,コムフィード,0
1224,5430001092071,新規,0,2024-06-19,2024-06-19,株式会社北成建設,,株式会社,北海道,札幌市北区,篠路四条４丁目３番３号,,01,102,0028024,,,,,,,2024-06-19,1,,,,,ホクセイケンセツ,0
1231,5700150124201,新規,0,2024-06-19,2024-02-27,芦辺地区まちづくり協議会,,その他,長崎県,壱岐市,芦辺町芦辺浦８５－３,,42,210,8115301,,,,,,,2024-02-27,1,,,,,アシベチクマチヅクリキヨウギカイ,0
1239,6010001245827,新規,0,2024-06-19,2024-06-19,株式会社オーエム・リアルエステート,,株式会社,東京都,千代田区,富士見１丁目３番１１号,,13,101,1020071,,,,,,,2024-06-19,1,,,,,オーエムリアルエステート,0
1240,6010001245868,新規,0,2024-06-19,2024-06-19,株式会社ＳＥＹＳ,,株式会社,東京都,中央区,晴海３丁目１６番１－２８０４号,,13,102,1040053,,,,,,,2024-06-19,1,,,,,セイズ,0
1241,6010003044046,新規,0,2024-06-19,2024-06-19,合同会社ＣＨＩＤＯ,,合同会社,東京都,千代田区,平河町１丁目６番１５号ＵＳビル８Ｆ,,13,101,1020093,,,,,,,2024-06-19,1,,,,,チドウ,0
1242,6010003044087,新規,0,2024-06-19,2024-06-19,合同会社ＧＭ１,,合同会社,東京都,中央区,銀座１丁目１２－４Ｎ＆ＥＢＬＤ７階,,13,102,1040061,,,,,,,2024-06-19,1,,,,,ジーエムワン,0
1243,6010005038434,新規,0,2024-06-19,2024-06-19,一般社団法人所沢インベストメント,,その他の設立登記法人,東京都,中央区,京橋２丁目１２番６号ＡＯＪ税理士法人内,,13,102,1040031,,,,,,,2024-06-19,1,,,,,トコロザワインベストメント,0
1250,6010401183189,新規,0,2024-06-19,2024-06-19,ＧＲＥＩＴ株式会社,,株式会社,東京都,港区,虎ノ門１丁目１６番６号虎ノ門ＲＡＰＯ－ＴＯビルＵＣＦ７０３,,13,103,1050001,,,,,,,2024-06-19,1,,,,,グレイト,0
1253,6010403032856,新規,0,2024-06-19,2024-06-19,合同会社ｃａｃｔｉ,,合同会社,東京都,港区,南青山２丁目２－１５ＷｉｎＡｏｙａｍａビルＵＣＦ６階,,13,103,1070062,,,,,,,2024-06-19,1,,,,,カクティー,0
1257,6010503007477,新規,0,2024-06-19,2024-06-19,合同会社ＤｒｏｗＬａｙｅｒｓ,,合同会社,東京都,台東区,上野１丁目２番６号長谷川ビル３階,,13,106,1100005,,,,,,,2024-06-19,1,,,,,ドロレイアーズ,0
1264,6010601065393,新規,0,2024-06-19,2024-06-19,株式会社グラサ,,株式会社,東京都,江東区,森下３丁目２０番１１号,,13,108,1350004,,,,,,,2024-06-19,1,,,,,グラサ,0
1265,6010601065402,新規,0,2024-06-19,2024-06-19,株式会社ハニカム不動産,,株式会社,東京都,江東区,亀戸６丁目３１－２－２２１４,,13,108,1360071,,,,,,,2024-06-19,1,,,,,ハニカムフドウサン,0
1283,6011001162632,新規,0,2024-06-19,2024-06-19,ライパス株式会社,,株式会社,東京都,渋谷区,恵比寿西２丁目８番４号ＥＸ恵比寿西ビル５階,,13,113,1500021,,,,,,,2024-06-19,1,,,,,ライパス,0
1284,6011001162665,新規,0,2024-06-19,2024-06-19,株式会社ＡＰＬＯ,,株式会社,東京都,渋谷区,神宮前６丁目２３番４号桑野ビル２階,,13,113,1500001,,,,,,,2024-06-19,1,,,,,アプロ,0
1285,6011001162847,新規,0,2024-06-19,2024-06-19,株式会社ＹＴ,,株式会社,東京都,渋谷区,神山町６－１１－５０１,,13,113,1500047,,,,,,,2024-06-19,1,,,,,ワイティー,0
1286,6011003019392,新規,0,2024-06-19,2024-06-19,オフィスＦＩＳ合同会社,,合同会社,東京都,目黒区,中町１丁目２２番１号,,13,110,1530065,,,,,,,2024-06-19,1,,,,,オフィスエフアイエス,0
1287,6011003019418,新規,0,2024-06-19,2024-06-19,Ｐａｃｉｆｉｃ　Ｗｅｌｌｎｅｓｓ　Ｉｎｎｏｖａｔｉｏｎｓ合同会社,,合同会社,東京都,渋谷区,神泉町１０番１５号アネックス神泉３０１,,13,113,1500045,,,,,,,2024-06-19,1,,,,,パシフィックウェルネスイノベーションズ,0
1288,6011101107735,新規,0,2024-06-19,2024-06-19,新藝共和株式会社,,株式会社,東京都,新宿区,西新宿８丁目３番１号西新宿ＧＦビル,,13,104,1600023,,,,,,,2024-06-19,1,,,,,シンゲイキョウワ,0
1298,6011701027390,新規,0,2024-06-19,2024-06-19,株式会社日成開発,,株式会社,東京都,江戸川区,東葛西３丁目１７番１５号,,13,123,1340084,,,,,,,2024-06-19,1,,,,,ニッセイカイハツ,0
1299,6011701027399,新規,0,2024-06-19,2024-06-19,株式会社ｐｕａ　ｍｅｌｉａ,,株式会社,東京都,江戸川区,東葛西５丁目３７番５－１０３号Ｍ・Ｓサクマ,,13,123,1340084,,,,,,,2024-06-19,1,,,,,プルメリア,0
1304,6012301013962,新規,0,2024-06-19,2024-06-19,株式会社Ｔｏｋｙｏ米粉Ｐｒｏｄｕｃｔｓ,,株式会社,東京都,町田市,鶴川２丁目２番地３５－１階,,13,209,1950061,,,,,,,2024-06-19,1,,,,,トウキョウコメコプロダクツ,0
1309,6012805003278,新規,0,2024-06-19,2024-06-19,ＮＰＯ法人呼及舎,,その他の設立登記法人,東京都,国立市,富士見台１丁目８番地３５,,13,215,1860003,,,,,,,2024-06-19,1,,,,,コキュウシャ,0
1315,6020001157749,新規,0,2024-06-19,2024-06-19,株式会社ＳＣＣ,,株式会社,神奈川県,横浜市港北区,新横浜３丁目２４番地１１,,14,109,2220033,,,,,,,2024-06-19,1,,,,,エスシーシー,0
1316,6020001157757,新規,0,2024-06-19,2024-06-19,株式会社Ｌ＆Ｓパートナー,,株式会社,神奈川県,横浜市鶴見区,鶴見中央４丁目３－３鶴見ビル１階,,14,101,2300051,,,,,,,2024-06-19,1,,,,,エルアンドエスパートナー,0
1318,6020003026340,新規,0,2024-06-19,2024-06-19,合同会社Ｍ．Ａｋａｔｓｕｋｉ,,合同会社,神奈川県,横浜市磯子区,汐見台２丁目９番地１汐見台デュープレックスＩ４０１号,00135225,14,107,2350022,,,,,,,2024-06-19,1,,,,,エムアカツキ,0
1324,6021001082516,新規,0,2024-06-19,2024-06-19,株式会社ＴＩＴ,,株式会社,神奈川県,相模原市緑区,二本松４丁目８番２６号勝田ビル１０３号室,,14,151,2520137,,,,,,,2024-06-19,1,,,,,ティーアイティー,0
1331,6030001160990,新規,0,2024-06-19,2024-06-19,不二光エステート株式会社,,株式会社,埼玉県,吉川市,大字川野９０番地１,,11,243,3420051,,,,,,,2024-06-19,1,,,,,フジミツエステート,0
1332,6030001161007,新規,0,2024-06-19,2024-06-19,株式会社牛川塗装工業,,株式会社,埼玉県,川口市,上青木２丁目４９番１１号,,11,203,3330844,,,,,,,2024-06-19,1,,,,,ウシカワトソウコウギョウ,0
1336,6040001134102,新規,0,2024-06-19,2024-06-19,椎名ファーム株式会社,,株式会社,千葉県,香取市,小見川５７０７番地,,12,236,2890313,,,,,,,2024-06-19,1,,,,,シイナファーム,0
1337,6040001134135,新規,0,2024-06-19,2024-06-19,鴻＿株式会社,00135228,株式会社,千葉県,千葉市緑区,誉田町１丁目７８６番地１０,,12,105,2660005,,,,,,,2024-06-19,1,,,,,コウキン,0
1343,6040003025233,新規,0,2024-06-19,2024-06-19,合同会社ＤＭ１１号,,合同会社,千葉県,柏市,柏４丁目５番１０号,,12,217,2770005,,,,,,,2024-06-19,1,,,,,ディーエムジュウイチゴウ,0
1344,6040005022427,新規,0,2024-06-19,2024-06-19,一般社団法人糸車,,その他の設立登記法人,千葉県,富里市,新橋９２番地,,12,233,2860224,,,,,,,2024-06-19,1,,,,,イトグルマ,0
1347,6060001037204,新規,0,2024-06-19,2024-06-19,ＡＤＥＥＬ　ＴＲＡＤＩＮＧ株式会社,,株式会社,栃木県,栃木市,大平町富田３８番地１,,09,203,3294404,,,,,,,2024-06-19,1,,,,,アディールトレーディング,0
1348,6060001037220,新規,0,2024-06-19,2024-06-19,株式会社ＦＡＲＥＮ,,株式会社,栃木県,那須郡那須町,大字湯本１５１番地,,09,407,3250301,,,,,,,2024-06-19,1,,,,,ファーレン,0
1352,6060003005118,新規,0,2024-06-19,2024-06-19,合同会社リスペク,,合同会社,栃木県,真岡市,久下田７５４番地,,09,209,3214521,,,,,,,2024-06-19,1,,,,,リスペク,0
1353,6080001026353,新規,0,2024-06-19,2024-06-19,株式会社百式トレーディング,,株式会社,静岡県,焼津市,栄町６丁目２－１０－２－２階,,22,212,4250027,,,,,,,2024-06-19,1,,,,,ヒャクシキトレーディング,0
1355,6080003003235,新規,0,2024-06-19,2024-06-19,合同会社すまいえーる,,合同会社,静岡県,静岡市清水区,谷津町２丁目１７５―１,,22,103,4240211,,,,,,,2024-06-19,1,,,,,スマイエール,0
1356,6080401027265,新規,0,2024-06-19,2024-06-19,株式会社ユーシーサポート,,株式会社,静岡県,浜松市浜名区,貴布祢２０９１番地,,22,139,4340038,,,,,,,2024-06-19,1,,,,,ユーシーサポート,0
1357,6080403005038,新規,0,2024-06-19,2024-06-19,ＫＮＧ商事合同会社,,合同会社,静岡県,浜松市浜名区,小林１３８３番地の１,,22,139,4340031,,,,,,,2024-06-19,1,,,,,ケーエヌジショウジ,0
1358,6090001018779,新規,0,2024-06-19,2024-06-19,株式会社窪田精肉店,,株式会社,山梨県,甲州市,塩山千野３８５２番地３,,19,213,4040041,,,,,,,2024-06-19,1,,,,,クボタセイニクテン,0
1363,6100001037579,新規,0,2024-06-19,2024-06-19,株式会社長野エース企画,,株式会社,長野県,長野市,松代町小島田３３０６番地１,,20,201,3811213,,,,,,,2024-06-19,1,,,,,ナガノエースキカク,0
1364,6100003007621,新規,0,2024-06-19,2024-06-19,合同会社ＢＥＴ,,合同会社,長野県,安曇野市,穂高有明２９２４番地２,,20,220,3998301,,,,,,,2024-06-19,1,,,,,ベット,0
1382,6120001265979,新規,0,2024-06-19,2024-06-19,株式会社安田モータープール,,株式会社,大阪府,大阪市平野区,長吉六反１丁目７番１１号,,27,126,5470012,,,,,,,2024-06-19,1,,,,,ヤスダモータープール,0
1383,6120001266011,新規,0,2024-06-19,2024-06-19,日盛加強株式会社,,株式会社,大阪府,大阪市西成区,北津守２丁目２番１３号,,27,122,5570061,,,,,,,2024-06-19,1,,,,,ヒモリカキョウ,0
1384,6120001266028,新規,0,2024-06-19,2024-06-19,株式会社ステラ,,株式会社,大阪府,大阪市平野区,長吉出戸４丁目５番５０号,,27,126,5470011,,,,,,,2024-06-19,1,,,,,ステラ,0
1385,6120001266044,新規,0,2024-06-19,2024-06-19,ｋａｎｅ株式会社,,株式会社,大阪府,大阪市生野区,巽西３丁目８番４号２０２室,00135226,27,116,5440012,,,,,,,2024-06-19,1,,,,,カネ,0
1386,6120001266052,新規,0,2024-06-19,2024-06-19,ＲＥＤ　ＰＯＩＮＴ株式会社,,株式会社,大阪府,大阪市大正区,三軒家西３丁目４番１６号中山ビル１０３３,,27,108,5510001,,,,,,,2024-06-19,1,,,,,レッドポイント,0
1388,6120003026875,新規,0,2024-06-19,2024-06-19,カンタン合同会社,,合同会社,大阪府,門真市,舟田町３５－８,,27,223,5710021,,,,,,,2024-06-19,1,,,,,カンタン,0
1390,6120005024381,新規,0,2024-06-19,2024-06-19,一般社団法人日本歯科ボツリヌス協会,,その他の設立登記法人,大阪府,大阪市中央区,南船場３丁目３番１０号エーゼービル５階,,27,128,5420081,,,,,,,2024-06-19,1,,,,,ニホンシカボツリヌスキョウカイ,0
1396,6122003002914,新規,0,2024-06-19,2024-06-19,Ｊカンパニー合同会社,,合同会社,大阪府,東大阪市,鴻池元町４番１０－２０４号,,27,227,5780974,,,,,,,2024-06-19,1,,,,,ジェイカンパニー,0
1402,6130003009648,新規,0,2024-06-19,2024-06-19,栄宝斎合同会社,,合同会社,京都府,京都市南区,西九条南田町４番地１ー１０１,,26,107,6018441,,,,,,,2024-06-19,1,,,,,エイホウサイ,0
1409,6160001026015,新規,0,2024-06-19,2024-06-19,株式会社レジテック,,株式会社,滋賀県,東近江市,宮川町２３０番地２０,,25,213,5291551,,,,,,,2024-06-19,1,,,,,レジテック,0
1411,6170003002062,新規,0,2024-06-19,2024-06-19,合同会社ピクルス,,合同会社,和歌山県,海草郡紀美野町,動木４６５番地１,,30,304,6401131,,,,,,,2024-06-19,1,,,,,ピクルス,0
1420,6180001162015,新規,0,2024-06-19,2024-06-19,株式会社ｇｕｆｏ,,株式会社,愛知県,春日井市,坂下町７丁目７６０番地７５１,,23,206,4800305,,,,,,,2024-06-19,1,,,,,グーフォー,0
1421,6180001162064,新規,0,2024-06-19,2024-06-19,株式会社ＫＲ,,株式会社,愛知県,名古屋市中区,丸の内３丁目２１番２１号,,23,106,4600002,,,,,,,2024-06-19,1,,,,,ケーアール,0
1426,6180003026969,新規,0,2024-06-19,2024-06-19,合同会社Ｍ　Ｊａｐａｎ,,合同会社,愛知県,名古屋市中村区,名駅４丁目２４番５号第２森ビル４０１,,23,105,4500002,,,,,,,2024-06-19,1,,,,,エムジャパン,0
1427,6180005020664,新規,0,2024-06-19,2024-06-19,税理士法人せいわ,,その他の設立登記法人,愛知県,名古屋市中区,丸の内２丁目１２番１３号,,23,106,4600002,,,,,,,2024-06-19,1,,,,,セイワ,0
1429,6180301038757,新規,0,2024-06-19,2024-06-19,株式会社シンデレラ,,株式会社,愛知県,安城市,御幸本町１０番１５号,,23,212,4460032,,,,,,,2024-06-19,1,,,,,シンデレラ,0
1432,6190001031425,新規,0,2024-06-19,2024-06-19,西田商会株式会社,,株式会社,三重県,桑名市,大字東金井６１２－１,,24,205,5110921,,,,,,,2024-06-19,1,,,,,ニシダショウカイ,0
1434,6220001026033,新規,0,2024-06-19,2024-06-19,株式会社キキタイ,,株式会社,石川県,金沢市,堀川町２２‐２０,,17,201,9200847,,,,,,,2024-06-19,1,,,,,キキタイ,0
1440,6240003006725,新規,0,2024-06-19,2024-06-19,合同会社白石総合企画,,合同会社,広島県,福山市,鞆町鞆８４１－２,,34,207,7200201,,,,,,,2024-06-19,1,,,,,シライシソウゴウキカク,0
1453,6290003015457,新規,0,2024-06-19,2024-06-19,Ｃｒｅａｔｅ合同会社,,合同会社,福岡県,福岡市中央区,平和３丁目１６番１７号,,40,133,8100016,,,,,,,2024-06-19,1,,,,,クリエイト,0
1457,6290803004758,新規,0,2024-06-19,2024-06-19,合同会社光明企画,,合同会社,福岡県,北九州市若松区,大字竹並６７９番地,,40,103,8080121,,,,,,,2024-06-19,1,,,,,コウミョウキカク,0
1463,6330001032185,新規,0,2024-06-19,2024-06-19,株式会社ツリーハウス,,株式会社,熊本県,熊本市中央区,出水７丁目４０番７号,,43,101,8620941,,,,,,,2024-06-19,1,,,,,ツリーハウス,0
1464,6340001026590,新規,0,2024-06-19,2024-06-19,株式会社ＳｕｎＥａｔ,,株式会社,鹿児島県,鹿児島市,川上町３５６１番地,,46,201,8920875,,,,,,,2024-06-19,1,,,,,サンイート,0
1467,6360001033833,新規,0,2024-06-19,2024-06-19,中信株式会社,,株式会社,沖縄県,那覇市,識名３丁目１５－２Ｓ・Ｓパレス２０１号室,,47,201,9020078,,,,,,,2024-06-19,1,,,,,チュウシン,0
1479,6400001016684,新規,0,2024-06-19,2024-06-19,リバライブ株式会社,,株式会社,岩手県,花巻市,桜台２丁目１１番１６号,,03,205,0250064,,,,,,,2024-06-19,1,,,,,リバライブ,0
1490,6430001092062,新規,0,2024-06-19,2024-06-19,株式会社Ｋ．ＣＯＭ,,株式会社,北海道,札幌市東区,東苗穂十四条４丁目７番５号,,01,103,0070814,,,,,,,2024-06-19,1,,,,,ケーコム,0
1491,6430001092070,新規,0,2024-06-19,2024-06-19,株式会社ユナイテッド,,株式会社,北海道,札幌市中央区,北五条西２９丁目２番１－４０２号,,01,101,0640825,,,,,,,2024-06-19,1,,,,,ユナイテッド,0
1493,6430003016465,新規,0,2024-06-19,2024-06-19,合同会社ジェイズ,,合同会社,北海道,札幌市東区,北四十二条東４丁目１番１６－１０５号,,01,103,0070842,,,,,,,2024-06-19,1,,,,,ジェイズ,0
1494,6430003016473,新規,0,2024-06-19,2024-06-19,合同会社ｒｅｎｏｔｙ,,合同会社,北海道,札幌市中央区,南六条西２３丁目３番１０号,,01,101,0640806,,,,,,,2024-06-19,1,,,,,リノティー,0
1516,7010001245751,新規,0,2024-06-19,2024-06-19,株式会社アローアセット,,株式会社,東京都,中央区,銀座１丁目１２番４号Ｎ＆Ｅ・ＢＬＤ．６Ｆ,,13,102,1040061,,,,,,,2024-06-19,1,,,,,アローアセット,0
1517,7010001245818,新規,0,2024-06-19,2024-06-19,永盛株式会社,,株式会社,東京都,千代田区,神田三崎町２丁目１０番１１号４Ａ－７,,13,101,1010061,,,,,,,2024-06-19,1,,,,,エイセイ,0
1518,7010001245842,新規,0,2024-06-19,2024-06-19,株式会社ＧＲＡＳＰエージェント・ジャパン,,株式会社,東京都,千代田区,鍛冶町１丁目５番６号,,13,101,1010044,,,,,,,2024-06-19,1,,,,,グラスプエージェントジャパン,0
1519,7010001245891,新規,0,2024-06-19,2024-06-19,万刀株式会社,,株式会社,東京都,中央区,日本橋室町１丁目１１番１２号日本橋水野ビル７階,,13,102,1030022,,,,,,,2024-06-19,1,,,,,バントウ,0
1520,7010003044012,新規,0,2024-06-19,2024-06-19,美華合同会社,,合同会社,東京都,文京区,千石４丁目２６－２－４Ａ０１,,13,105,1120011,,,,,,,2024-06-19,1,,,,,ビカ,0
1521,7010003044045,新規,0,2024-06-19,2024-06-19,合同会社首都圏レジ開発ファイブプロジェクト,,合同会社,東京都,千代田区,平河町１丁目６番１５号シルスフィア会計事務所内,,13,101,1020093,,,,,,,2024-06-19,1,,,,,シュトケンレジカイハツファイブプロジェクト,0
1522,7010003044078,新規,0,2024-06-19,2024-06-19,合同会社ＦａｒｍＷｏｒｋ,,合同会社,東京都,中央区,日本橋室町１丁目１１番１２号日本橋水野ビル７階,,13,102,1030022,,,,,,,2024-06-19,1,,,,,ファームワーク,0
1525,7010005038433,新規,0,2024-06-19,2024-06-19,一般社団法人キタラ,,その他の設立登記法人,東京都,千代田区,霞が関３丁目２番５号,,13,101,1000013,,,,,,,2024-06-19,1,,,,,キタラ,0
1531,7010401183238,新規,0,2024-06-19,2024-06-19,ＹＳＯＫ株式会社,,株式会社,東京都,港区,南青山１丁目１５番１８号リ－ラ乃木坂９０３,,13,103,1070062,,,,,,,2024-06-19,1,,,,,ワイエスオーケー,0
1532,7010401183254,新規,0,2024-06-19,2024-06-19,ＮＭＢアイリス株式会社,,株式会社,東京都,港区,新橋４丁目３０番６号京急中はらビル５Ｆ,,13,103,1050004,,,,,,,2024-06-19,1,,,,,エヌエムビーアイリス,0
1535,7010403032814,新規,0,2024-06-19,2024-06-19,ファーイーストネットワークス合同会社,,合同会社,東京都,港区,麻布永坂町１－５４,,13,103,1060043,,,,,,,2024-06-19,1,,,,,ファーイーストネットワークス,0
1540,7010601065418,新規,0,2024-06-19,2024-06-19,株式会社ＬｉｎｋＷｏｒｌｄ,,株式会社,東京都,江東区,亀戸５丁目２９－２２プレスタンテウィステリア５０５,,13,108,1360071,,,,,,,2024-06-19,1,,,,,リンクワールド,0
1548,7011001162631,新規,0,2024-06-19,2024-06-19,株式会社プラウドアドバンス,,株式会社,東京都,渋谷区,東２丁目２３－１２プレミアム・ユーゾーンビル,,13,113,1500011,,,,,,,2024-06-19,1,,,,,プラウドアドバンス,0
1549,7011001162664,新規,0,2024-06-19,2024-06-19,株式会社Ｇｒｏｗｔｈ　Ｐａｒｔｎｅｒ　Ｍａｋｅｒ,,株式会社,東京都,渋谷区,渋谷２丁目１９－１５宮益坂ビルディング６０９,,13,113,1500002,,,,,,,2024-06-19,1,,,,,,0
1550,7011001162689,新規,0,2024-06-19,2024-06-19,株式会社Ｍｅｄｐａｒｔｎｅｒ,,株式会社,東京都,渋谷区,渋谷２丁目１９－１５宮益坂ビルディング６０９,,13,113,1500002,,,,,,,2024-06-19,1,,,,,メドパートナー,0
1551,7011001162706,新規,0,2024-06-19,2024-06-19,株式会社ＥＹＡＮ,,株式会社,東京都,渋谷区,円山町５番５号Ｎａｖｉ渋谷Ｖ３階,00135230,13,113,1500044,,,,,,,2024-06-19,1,,,,,エーヤン,0
1552,7011001162714,新規,0,2024-06-19,2024-06-19,株式会社太朋,,株式会社,東京都,渋谷区,神宮前３丁目２７番１４号キャラット原宿,,13,113,1500001,,,,,,,2024-06-19,1,,,,,タイホウ,0
1553,7011001162771,新規,0,2024-06-19,2024-06-19,株式会社細谷卓生建築設計事務所,,株式会社,東京都,渋谷区,千駄ヶ谷３丁目５２番５－２０８号,,13,113,1510051,,,,,,,2024-06-19,1,,,,,ホソヤタクオケンチクセッケイジムショ,0
1555,7011003019391,新規,0,2024-06-19,2024-06-19,合同会社カスケード,,合同会社,東京都,渋谷区,神宮前３丁目２１－２１,,13,113,1500001,,,,,,,2024-06-19,1,,,,,カスケード,0
1562,7011103014474,新規,0,2024-06-19,2024-06-19,合同会社リノベーションクラフト,,合同会社,東京都,新宿区,若松町６番１１－４０４号,,13,104,1620056,,,,,,,2024-06-19,1,,,,,リノベーションクラフト,0
1565,7011203004417,新規,0,2024-06-19,2024-06-19,ＡＲ　ＰＵＪＡ合同会社,,合同会社,東京都,中野区,沼袋１丁目２０番２号宮田ハイツ２０２,,13,114,1650025,,,,,,,2024-06-19,1,,,,,エアルプザ,0
1571,7011501030825,新規,0,2024-06-19,2024-06-19,ＳＫＹ株式会社,,株式会社,東京都,荒川区,荒川３丁目５９－２平和荘２０５,,13,118,1160002,,,,,,,2024-06-19,1,,,,,スカイ,0
1572,7011503006113,新規,0,2024-06-19,2024-06-19,Ｙ．Ｔ合同会社,,合同会社,東京都,荒川区,南千住７丁目３１番３－２１７号,,13,118,1160003,,,,,,,2024-06-19,1,,,,,ワイドットティ,0
1573,7011701027398,新規,0,2024-06-19,2024-06-19,延季株式会社,,株式会社,東京都,江戸川区,上篠崎２丁目６番３号,,13,123,1330054,,,,,,,2024-06-19,1,,,,,エンキ,0
1576,7012401042002,新規,0,2024-06-19,2024-06-19,株式会社星光Ｅａｓｔ,,株式会社,東京都,多摩市,落合１丁目９番地６山の手ビル３Ｆ,,13,224,2060033,,,,,,,2024-06-19,1,,,,,セイコウイースト,0
1577,7012403006624,新規,0,2024-06-19,2024-06-19,こまち合同会社,,合同会社,東京都,小金井市,本町２丁目９番８号,,13,210,1840004,,,,,,,2024-06-19,1,,,,,コマチ,0
1588,7020001157681,新規,0,2024-06-19,2024-06-19,株式会社テンダイトラベル,,株式会社,神奈川県,横浜市瀬谷区,阿久和南４丁目８番地３１８,,14,114,2460026,,,,,,,2024-06-19,1,,,,,テンダイトラベル,0
1589,7020001157748,新規,0,2024-06-19,2024-06-19,其為株式会社,,株式会社,神奈川県,横浜市中区,若葉町３丁目４３番地１セザール伊勢佐木３１２号室,,14,104,2310056,,,,,,,2024-06-19,1,,,,,チーイ,0
1590,7020001157756,新規,0,2024-06-19,2024-06-19,株式会社ｍｏｍｏ,,株式会社,神奈川県,川崎市多摩区,長沢１丁目２番１６－１０５号,,14,135,2140035,,,,,,,2024-06-19,1,,,,,モモ,0
1591,7020001157772,新規,0,2024-06-19,2024-06-19,株式会社Ｇｌｏｂａｌ　Ｎｅｘｕｓ,,株式会社,神奈川県,横浜市中区,不老町３丁目１４番地４フェニックス横濱関内ＢａｙＭａｒｋｓ６０３,,14,104,2310032,,,,,,,2024-06-19,1,,,,,グローバルネクサス,0
1594,7021001082531,新規,0,2024-06-19,2024-06-19,株式会社ロアレ,,株式会社,神奈川県,横須賀市,大滝町２丁目６番地ザ・タワー横須賀中央２１０３,,14,201,2380008,,,,,,,2024-06-19,1,,,,,ロアレ,0
1595,7021001082556,新規,0,2024-06-19,2024-06-19,株式会社ＰＬＡＮグリーンテック,,株式会社,神奈川県,南足柄市,生駒３８３番地,,14,217,2500124,,,,,,,2024-06-19,1,,,,,プラングリーンテック,0
1599,7030001161006,新規,0,2024-06-19,2024-06-19,株式会社ＴＳＣ,,株式会社,埼玉県,戸田市,新曽南２丁目７番１２－３０１号,,11,224,3350026,,,,,,,2024-06-19,1,,,,,ティーエスシー,0
1601,7030003024532,新規,0,2024-06-19,2024-06-19,合同会社ＹＫダイヤ,,合同会社,埼玉県,川口市,大字安行原２１４９番地の１,,11,203,3340057,,,,,,,2024-06-19,1,,,,,ワイケーダイヤ,0
1605,7040003025232,新規,0,2024-06-19,2024-06-19,合同会社ＤＭ１０号,,合同会社,千葉県,柏市,柏４丁目５番１０号,,12,217,2770005,,,,,,,2024-06-19,1,,,,,ディーエムジュウゴウ,0
1606,7040005022426,新規,0,2024-06-19,2024-06-19,一般社団法人ヒラリバー,,その他の設立登記法人,千葉県,千葉市若葉区,小倉町３１７番地,,12,104,2640007,,,,,,,2024-06-19,1,,,,,ヒラリバー,0
1610,7050001054959,新規,0,2024-06-19,2024-06-19,株式会社ＨＩＲＯＫＥＮ,,株式会社,茨城県,かすみがうら市,下稲吉３１０３番地５,,08,230,3150052,,,,,,,2024-06-19,1,,,,,ヒロケン,0
1612,7060003005117,新規,0,2024-06-19,2024-06-19,合同会社創,,合同会社,栃木県,栃木市,西方町金井８０１番地１,,09,203,3220602,,,,,,,2024-06-19,1,,,,,ソウ,0
1613,7070003005470,新規,0,2024-06-19,2024-06-19,Ｅｎｊｏｙ　Ｌｉｆｅ合同会社,,合同会社,群馬県,前橋市,下増田町７４５番地２０,,10,201,3792113,,,,,,,2024-06-19,1,,,,,エンジョイライフ,0
1615,7080401027264,新規,0,2024-06-19,2024-06-19,株式会社オリーブ,,株式会社,静岡県,磐田市,中泉９４６番地１,,22,211,4380078,,,,,,,2024-06-19,1,,,,,オリーブ,0
1620,7100001037578,新規,0,2024-06-19,2024-06-19,株式会社ウェルビーン,,株式会社,長野県,茅野市,金沢５７８７番地３,,20,214,3910012,,,,,,,2024-06-19,1,,,,,ウェルビーン,0
1630,7120001265904,新規,0,2024-06-19,2024-06-19,ＴＡＫＡＧＩ株式会社,,株式会社,大阪府,大阪市浪速区,日本橋東１丁目１番５号、１階,,27,111,5560006,,,,,,,2024-06-19,1,,,,,タカギ,0
1631,7120001265978,新規,0,2024-06-19,2024-06-19,株式会社メディカルリハビリパートナーズ,,株式会社,大阪府,大阪市西区,阿波座２丁目２－２０,,27,106,5500011,,,,,,,2024-06-19,1,,,,,メディカルリハビリパートナーズ,0
1632,7120001265986,新規,0,2024-06-19,2024-06-19,株式会社ブリッジ,,株式会社,大阪府,大阪市東成区,大今里１丁目３１番１５号,,27,115,5370012,,,,,,,2024-06-19,1,,,,,ブリッジ,0
1633,7120001266035,新規,0,2024-06-19,2024-06-19,Ｇｒｅｅｅｎ‐ＩＴ株式会社,,株式会社,大阪府,大阪市港区,市岡元町３丁目１３番５－４１０号,,27,107,5520002,,,,,,,2024-06-19,1,,,,,グリーンアイティ,0
1635,7120003026866,新規,0,2024-06-19,2024-06-19,ＨＲ＆Ｓ合同会社,,合同会社,大阪府,大阪市西淀川区,佃５丁目１２番５－１１０５号,,27,113,5550001,,,,,,,2024-06-19,1,,,,,エイチアールアンドエス,0
1639,7120103005902,新規,0,2024-06-19,2024-06-19,合同会社イロドルート,,合同会社,大阪府,堺市北区,長曽根町１９３０番地３,,27,146,5918025,,,,,,,2024-06-19,1,,,,,イロドルート,0
1642,7120901049332,新規,0,2024-06-19,2024-06-19,ノーアイデア株式会社,,株式会社,大阪府,池田市,住吉１丁目４番６号,,27,204,5630033,,,,,,,2024-06-19,1,,,,,ノーアイデア,0
1643,7120901049340,新規,0,2024-06-19,2024-06-19,株式会社西本住宅建装,,株式会社,大阪府,茨木市,松ケ本町９－１８ハイツセココ１０５,,27,211,5670033,,,,,,,2024-06-19,1,,,,,ニシモトジュウタクケンソウ,0
1645,7120903005226,新規,0,2024-06-19,2024-06-19,合同会社ｓｍａｒｔＦｏｏｄｓ,,合同会社,大阪府,吹田市,江の木町１－２４,,27,205,5640053,,,,,,,2024-06-19,1,,,,,スマートフーズ,0
1661,7180001161940,新規,0,2024-06-19,2024-06-19,株式会社ｉｃｈ,,株式会社,愛知県,名古屋市昭和区,石仏町１丁目３３番地シムラ・アーバンハイツ２０１号室,,23,107,4660023,,,,,,,2024-06-19,1,,,,,イチ,0
1662,7180001161981,新規,0,2024-06-19,2024-06-19,株式会社ＹＡＭＡ‐ＳＨＯＪＩ,,株式会社,愛知県,春日井市,神屋町１６６２－１,,23,206,4800304,,,,,,,2024-06-19,1,,,,,ヤマショージ,0
1663,7180001162006,新規,0,2024-06-19,2024-06-19,株式会社あるふれ,,株式会社,愛知県,名古屋市名東区,藤見が丘１１番地,,23,115,4650048,,,,,,,2024-06-19,1,,,,,アルフレ,0
1668,7180005020663,新規,0,2024-06-19,2024-06-19,司法書士法人創造リーガルオフィス,,その他の設立登記法人,愛知県,名古屋市名東区,明が丘１２４番地２ａｍｉａｍｉａｎｎｅｘビル２階,,23,115,4650033,,,,,,,2024-06-19,1,,,,,ソウゾウリーガルオフィス,0
1670,7180301038748,新規,0,2024-06-19,2024-06-19,株式会社ＡｕｒｕＺ,,株式会社,愛知県,刈谷市,小垣江町西王地６５番地,,23,210,4480813,,,,,,,2024-06-19,1,,,,,オウルズ,0
1671,7180301038756,新規,0,2024-06-19,2024-06-19,株式会社ゼンシン,,株式会社,愛知県,安城市,二本木町二本木８１番地２リバブルガーデン二本木５０３,,23,212,4460054,,,,,,,2024-06-19,1,,,,,ゼンシン,0
1677,7240001063395,新規,0,2024-06-19,2024-06-19,株式会社ＫＫＣ,,株式会社,広島県,東広島市,黒瀬町丸山２６０－２６,,34,212,7392612,,,,,,,2024-06-19,1,,,,,ケーケーシー,0
1678,7240001063404,新規,0,2024-06-19,2024-06-19,株式会社瀬戸内海ホールディングス,,株式会社,広島県,広島市南区,宇品海岸１丁目１３番１３号,,34,103,7340011,,,,,,,2024-06-19,1,,,,,セトナイカイホールディングス,0
1681,7240003006732,新規,0,2024-06-19,2024-06-19,合同会社Ｋ．Ｏ．Ｇ,,合同会社,広島県,世羅郡世羅町,大字京丸１５２番地２,,34,462,7221621,,,,,,,2024-06-19,1,,,,,ケイオージー,0
1694,7290001106100,新規,0,2024-06-19,2024-06-19,株式会社Ａｌｌｉｎ,,株式会社,福岡県,福岡市中央区,大手門２丁目４番７－１９０３号,,40,133,8100074,,,,,,,2024-06-19,1,,,,,オールイン,0
1695,7290001106166,新規,0,2024-06-19,2024-06-19,株式会社Ｓｋｅｔｃｈ＆Ｃｏ．,,株式会社,福岡県,那珂川市,大字市ノ瀬１１４２番地８,,40,231,8111233,,,,,,,2024-06-19,1,,,,,スケッチアンドカンパニー,0
1696,7290001106190,新規,0,2024-06-19,2024-06-19,株式会社オリれる,,株式会社,福岡県,久留米市,津福本町７８６番地６,,40,203,8300047,,,,,,,2024-06-19,1,,,,,オリレル,0
1697,7290001106199,新規,0,2024-06-19,2024-06-19,株式会社悠仁,,株式会社,福岡県,福岡市南区,三宅２丁目２９番２４－１０１号,,40,134,8111344,,,,,,,2024-06-19,1,,,,,ユウジン,0
1698,7290003015456,新規,0,2024-06-19,2024-06-19,ＬＨＣコンサルティング合同会社,,合同会社,福岡県,福岡市博多区,博多駅前１丁目２３番２号ＰａｒｋＦｒｏｎｔ博多駅前１丁目５Ｆ－Ｂ,,40,132,8120011,,,,,,,2024-06-19,1,,,,,エルエイチシーコンサルティング,0
1700,7290801030656,新規,0,2024-06-19,2024-06-19,株式会社千機野行,,株式会社,福岡県,北九州市八幡西区,春日台３丁目６番６号,,40,109,8070844,,,,,,,2024-06-19,1,,,,,センキヤコウ,0
1705,7300001013798,新規,0,2024-06-19,2024-06-19,株式会社ハレ不動産,,株式会社,佐賀県,小城市,三日月町樋口１００８番地２階,,41,208,8450033,,,,,,,2024-06-19,1,,,,,ハレフドウサン,0
1716,7310005008777,新規,0,2024-06-19,2024-06-19,一般社団法人空家活用支援センター,,その他の設立登記法人,長崎県,長崎市,下西山町１番５号,,42,201,8500004,,,,,,,2024-06-19,1,,,,,アキヤカツヨウシエンセンター,0
1718,7320001020537,新規,0,2024-06-19,2024-06-19,株式会社ＢＩＬＡＮＣＩＡ,,株式会社,大分県,宇佐市,大字江須賀４０５４番地の４,,44,211,8720032,,,,,,,2024-06-19,1,,,,,ビランシア,0
1723,7330003010428,新規,0,2024-06-19,2024-06-19,合同会社ＭＩＹＡＢＩデザイン,,合同会社,熊本県,熊本市北区,龍田７丁目３６－１０６号,,43,105,8618006,,,,,,,2024-06-19,1,,,,,ミヤビデザイン,0
1725,7360001033832,新規,0,2024-06-19,2024-06-19,株式会社ＭｏＭＡ,,株式会社,沖縄県,名護市,字為又１０５番地１,,47,209,9050005,,,,,,,2024-06-19,1,,,,,モマ,0
1731,7380001034614,新規,0,2024-06-19,2024-06-19,株式会社葉っぱの懸け橋,,株式会社,福島県,いわき市,仁井田町寺前２１番地の５,,07,204,9748252,,,,,,,2024-06-19,1,,,,,ハッパノカケハシ,0
1732,7380001034622,新規,0,2024-06-19,2024-06-19,相馬グリーンサービス株式会社,,株式会社,福島県,相馬市,今田字小椴山１１番地,,07,209,9792541,,,,,,,2024-06-19,1,,,,,ソウマグリーンサービス,0
1745,7430001092061,新規,0,2024-06-19,2024-06-19,株式会社ＦＩＥＬＤ　ＤＥＳＩＧＮ,,株式会社,北海道,夕張郡長沼町,西５線南１番地,,01,428,0691475,,,,,,,2024-06-19,1,,,,,フィールドデザイン,0
1749,7430003016472,新規,0,2024-06-19,2024-06-19,合同会社えみまる,,合同会社,北海道,札幌市手稲区,前田一条１０丁目１番２１－２０２号,,01,109,0060811,,,,,,,2024-06-19,1,,,,,エミマル,0
1765,8010001245239,新規,0,2024-06-19,2024-06-19,株式会社プラチナリンク,,株式会社,東京都,中央区,銀座７丁目１６番２１号,,13,102,1040061,,,,,,,2024-06-19,1,,,,,プラチナリンク,0
1766,8010001245866,新規,0,2024-06-19,2024-06-19,ＨＩＬＬホールディングス株式会社,,株式会社,東京都,千代田区,平河町２丁目１６番９号永田町グラスゲート６階ＡＣＡ株式会社内,,13,101,1020093,,,,,,,2024-06-19,1,,,,,ヒルホールディングス,0
1767,8010003044060,新規,0,2024-06-19,2024-06-19,千田合同会社,,合同会社,東京都,千代田区,東神田２丁目８－１,,13,101,1010031,,,,,,,2024-06-19,1,,,,,センダ,0
1768,8010003044077,新規,0,2024-06-19,2024-06-19,合同会社ＨｉＪｏＪｏ．ｃｏｍ１３,,合同会社,東京都,千代田区,霞が関３丁目２番５号,,13,101,1000013,,,,,,,2024-06-19,1,,,,,ヒジョージョードットコムサーティン,0
1769,8010003044085,新規,0,2024-06-19,2024-06-19,Ｓｔｏｎｅｐｅａｋ　Ｋｉｎｇｄｏｍ　Ｈｏｌｄｉｎｇｓ合同会社,,合同会社,東京都,千代田区,霞が関３丁目２番６号東京倶楽部ビルディング１１階,,13,101,1000013,,,,,,,2024-06-19,1,,,,,ストーンピークキングダムホールディングス,0
1771,8010005038416,新規,0,2024-06-19,2024-06-19,一般社団法人日本国際薬膳師会,,その他の設立登記法人,東京都,中央区,日本橋兜町２２番６号,,13,102,1030026,,,,,,,2024-06-19,1,,,,,ニホンコクサイヤクゼンシカイ,0
1773,8010101016201,新規,0,2024-06-19,2024-06-19,福成株式会社,,株式会社,東京都,八王子市,元横山町３丁目１０番１８号２－Ａ号室,,13,201,1920063,,,,,,,2024-06-19,1,,,,,フクセイ,0
1784,8010401183162,新規,0,2024-06-19,2024-06-19,株式会社ｅＳｑｕａｒｅ,,株式会社,東京都,港区,南青山３丁目１１番１３号,,13,103,1070062,,,,,,,2024-06-19,1,,,,,イースクエア,0
1785,8010401183253,新規,0,2024-06-19,2024-06-19,株式会社ワタココ,,株式会社,東京都,港区,芝３丁目４番１６－２０１号,,13,103,1050014,,,,,,,2024-06-19,1,,,,,ワタココ,0
1786,8010401183261,新規,0,2024-06-19,2024-06-19,スリーツリーズ株式会社,,株式会社,東京都,港区,西麻布４丁目１番１５号,,13,103,1060031,,,,,,,2024-06-19,1,,,,,スリーツリーズ,0
1787,8010403032838,新規,0,2024-06-19,2024-06-19,ヒアゼア合同会社,,合同会社,東京都,港区,新橋４丁目３１－３第３名和ビル１Ｆ－９Ｆ,,13,103,1050004,,,,,,,2024-06-19,1,,,,,,0
1791,8010501052473,新規,0,2024-06-19,2024-06-19,株式会社ＭＩＬＴＯＮＩＡ　ＨＡＩＲ,,株式会社,東京都,台東区,浅草橋１丁目８－６キリークＢＯＸＢ１０２,,13,106,1110053,,,,,,,2024-06-19,1,,,,,ミルトニアヘアー,0
1793,8010601065400,新規,0,2024-06-19,2024-06-19,株式会社ＵＮＩＶＥＲＳＡＬ,,株式会社,東京都,江東区,亀戸２丁目６番６－４１５号,,13,108,1360071,,,,,,,2024-06-19,1,,,,,ユニバーサル,0
1794,8010601065417,新規,0,2024-06-19,2024-06-19,ですみだ株式会社,,株式会社,東京都,墨田区,京島１丁目４３番４第一吉田マンション１Ｆ,,13,107,1310046,,,,,,,2024-06-19,1,,,,,デスミダ,0
1802,8010901055489,新規,0,2024-06-19,2024-06-19,株式会社ＴＲＡＭ’Ｓ,,株式会社,東京都,世田谷区,新町１丁目１番１８号,,13,112,1540014,,,,,,,2024-06-19,1,,,,,トラムズ,0
1808,8011001162647,新規,0,2024-06-19,2024-06-19,株式会社ＳＨＩＮＫＫＡ,,株式会社,東京都,渋谷区,神宮前６丁目２３番４号桑野ビル２Ｆ,,13,113,1500001,,,,,,,2024-06-19,1,,,,,,0
1809,8011001162655,新規,0,2024-06-19,2024-06-19,株式会社ｋｎｏｔ　ｃｒａｆｔ,,株式会社,東京都,渋谷区,道玄坂１丁目１０番８号渋谷道玄坂東急ビル２Ｆ－Ｃ,,13,113,1500043,,,,,,,2024-06-19,1,,,,,ノットクラフト,0
1810,8011001162688,新規,0,2024-06-19,2024-06-19,株式会社Ｍｅｄｒｏｃｋ,,株式会社,東京都,渋谷区,渋谷２丁目１９－１５宮益坂ビルディング６０９,,13,113,1500002,,,,,,,2024-06-19,1,,,,,,0
1811,8011001162705,新規,0,2024-06-19,2024-06-19,株式会社ＬＩＮＯＬＥＩＳ,,株式会社,東京都,渋谷区,幡ヶ谷３丁目３０番３号,,13,113,1510072,,,,,,,2024-06-19,1,,,,,リノレイズ,0
1812,8011001162713,新規,0,2024-06-19,2024-06-19,株式会社プロダクトバンク,,株式会社,東京都,渋谷区,道玄坂１丁目１０番８号渋谷道玄坂東急ビル２Ｆ－Ｃ,,13,113,1500043,,,,,,,2024-06-19,1,,,,,プロダクトバンク,0
1813,8011001162770,新規,0,2024-06-19,2024-06-19,株式会社ブルームテック,,株式会社,東京都,渋谷区,恵比寿西２丁目４番８号ウィンド恵比寿ビル８Ｆ,,13,113,1500021,,,,,,,2024-06-19,1,,,,,ブルームテック,0
1814,8011001162795,新規,0,2024-06-19,2024-06-19,国際領袖倶楽部株式会社,,株式会社,東京都,目黒区,自由が丘３丁目１７番２号,,13,110,1520035,,,,,,,2024-06-19,1,,,,,コクサイリョウシュウクラブ,0
1815,8011001162804,新規,0,2024-06-19,2024-06-19,株式会社エックスアダプティブ,,株式会社,東京都,目黒区,自由が丘２丁目１６番１２号ＲＪ３,,13,110,1520035,,,,,,,2024-06-19,1,,,,,エックスアダプティブ,0
1816,8011003019416,新規,0,2024-06-19,2024-06-19,合同会社ｔｈｅ　ｄｏｔｓ,,合同会社,東京都,渋谷区,神宮前２丁目３－３０Ｂ１,,13,113,1500001,,,,,,,2024-06-19,1,,,,,ザドッツ,0
1818,8011005010562,新規,0,2024-06-19,2024-06-19,一般社団法人ＭｏｔｉｏｎＭａｋｅｒｓ,,その他の設立登記法人,東京都,渋谷区,道玄坂１丁目１０番８号渋谷道玄坂東急ビル２Ｆ－Ｃ,,13,113,1500043,,,,,,,2024-06-19,1,,,,,モーションメイカーズ,0
1822,8011101107741,新規,0,2024-06-19,2024-06-19,ＩＣＳＷ株式会社,,株式会社,東京都,新宿区,西新宿３丁目３番１３号西新宿水間ビル２Ｆ,,13,104,1600023,,,,,,,2024-06-19,1,,,,,アイシーエスダブリュ,0
1824,8011301029760,新規,0,2024-06-19,2024-06-19,株式会社ＫＴＫ,,株式会社,東京都,杉並区,南荻窪３丁目１９番１１号,,13,115,1670052,,,,,,,2024-06-19,1,,,,,,0
1825,8011303005207,新規,0,2024-06-19,2024-06-19,合同会社気高い,,合同会社,東京都,杉並区,高円寺南３丁目４５番１号永和ビル高円寺５０１号,,13,115,1660003,,,,,,,2024-06-19,1,,,,,ケダカイ,0
1833,8011701027397,新規,0,2024-06-19,2024-06-19,Ｗ＆Ｙ株式会社,,株式会社,東京都,江戸川区,江戸川６丁目４０－１４－１０６,,13,123,1340013,,,,,,,2024-06-19,1,,,,,ダブルアンドワイ,0
1844,8020003026339,新規,0,2024-06-19,2024-06-19,合同会社キャンビーヴィジョン,,合同会社,神奈川県,川崎市高津区,久末４６８番地１クオス日吉台レジデンシャルヒルズ８１３,,14,134,2130026,,,,,,,2024-06-19,1,,,,,キャンビーヴィジョン,0
1859,8030001160997,新規,0,2024-06-19,2024-06-19,株式会社美和商店,,株式会社,埼玉県,さいたま市岩槻区,城南５丁目４番４０号,,11,110,3390043,,,,,,,2024-06-19,1,,,,,ミワショウテン,0
1860,8030001161005,新規,0,2024-06-19,2024-06-19,株式会社ＬＩＦＥ　ＩＮＦＩＮＩＴＹ,,株式会社,埼玉県,入間市,東藤沢７丁目１６番３７号,,11,225,3580012,,,,,,,2024-06-19,1,,,,,ライフインフィニティ,0
1867,8040003025231,新規,0,2024-06-19,2024-06-19,ＡＮ　ＥＲＡ合同会社,,合同会社,千葉県,船橋市,海神町２丁目２４１番地ブルーハイツ１０１号,,12,204,2730022,,,,,,,2024-06-19,1,,,,,アンエラ,0
1871,8050001054958,新規,0,2024-06-19,2024-06-19,株式会社ケーマック,,株式会社,茨城県,鹿嶋市,大字宮中２３３３番地１８３,,08,222,3140031,,,,,,,2024-06-19,1,,,,,ケーマック,0
1872,8050001054966,新規,0,2024-06-19,2024-06-19,電精社ホールディングス株式会社,,株式会社,茨城県,土浦市,神立東２丁目８番１号,,08,203,3000012,,,,,,,2024-06-19,1,,,,,デンセイシャホールディングス,0
1885,8100001037569,新規,0,2024-06-19,2024-06-19,株式会社Ｍｅｄｉｃ‐Ｓｔｕｄｉｏ,,株式会社,長野県,上伊那郡辰野町,大字伊那富字泉水３３０５番地１２７,,20,382,3990428,,,,,,,2024-06-19,1,,,,,メディックスタジオ,0
1890,8110005017104,新規,0,2024-06-19,2024-06-19,一般社団法人ながおか空家解決相談窓口,,その他の設立登記法人,新潟県,長岡市,高見町３０３９番地５,,15,202,9400004,,,,,,,2024-06-19,1,,,,,ナガオカアキヤカイケツソウダンマドグチ,0
1896,8120001266026,新規,0,2024-06-19,2024-06-19,株式会社Ｍｉｋｉ　Ｗｏｒｌｄ,,株式会社,大阪府,大阪市西区,南堀江３丁目６番５号Ａ’ｓ南堀江２０１号,,27,106,5500015,,,,,,,2024-06-19,1,,,,,ミキワールド,0
1897,8120003026865,新規,0,2024-06-19,2024-06-19,森川合同会社,,合同会社,大阪府,大阪市平野区,加美北３丁目７－３０－１Ｆ,,27,126,5470001,,,,,,,2024-06-19,1,,,,,モリガワ,0
1912,8140001134825,新規,0,2024-06-19,2024-06-19,株式会社厚田工業,,株式会社,兵庫県,神戸市北区,大原３丁目１７番地の１、２－１２０６号,,28,109,6511222,,,,,,,2024-06-19,1,,,,,アツダコウギョウ,0
1918,8180001161997,新規,0,2024-06-19,2024-06-19,Ｓ．ＦＩＲＳＴ株式会社,,株式会社,愛知県,春日井市,明知町５８４番地,,23,206,4800303,,,,,,,2024-06-19,1,,,,,エスファースト,0
1919,8180001162021,新規,0,2024-06-19,2024-06-19,光猪株式会社,,株式会社,愛知県,名古屋市東区,白壁３丁目３番３０‐３０２号,,23,102,4610011,,,,,,,2024-06-19,1,,,,,コウイ,0
1920,8180003026942,新規,0,2024-06-19,2024-06-19,合同会社ＤＩＶＥ,,合同会社,愛知県,稲沢市,陸田宮前１丁目８番地１,,23,220,4928044,,,,,,,2024-06-19,1,,,,,ダイブ,0
1921,8180003026967,新規,0,2024-06-19,2024-06-19,合同会社ＳｏｌＰｅａｋｓ,,合同会社,愛知県,名古屋市中村区,名駅４丁目２４番５号第２森ビル４０１,,23,105,4500002,,,,,,,2024-06-19,1,,,,,ソルピークス,0
1923,8180303006157,新規,0,2024-06-19,2024-06-19,ＨＲ‐ＴＥＣＨ合同会社,,合同会社,愛知県,高浜市,小池町６丁目２番地４５,,23,227,4441303,,,,,,,2024-06-19,1,,,,,エイチアールテック,0
1926,8200001042617,新規,0,2024-06-19,2024-06-19,株式会社ＮＯＮＮＯ,,株式会社,岐阜県,羽島郡岐南町,平成１丁目４７番地,,21,302,5016013,,,,,,,2024-06-19,1,,,,,ノンノ,0
1929,8210003001801,新規,0,2024-06-19,2024-06-19,合同会社多隣語,,合同会社,福井県,福井市,上野本町２丁目５１３番地,,18,201,9100134,,,,,,,2024-06-19,1,,,,,タリンゴ,0
1934,8240001063403,新規,0,2024-06-19,2024-06-19,株式会社むろ屋,,株式会社,広島県,安芸郡府中町,青崎東１９番３４－９０９号,,34,302,7350015,,,,,,,2024-06-19,1,,,,,ムロヤ,0
1944,8290001106207,新規,0,2024-06-19,2024-06-19,ＣＯＴＯ株式会社,,株式会社,福岡県,福岡市早良区,野芥７丁目５番３－１号,,40,137,8140171,,,,,,,2024-06-19,1,,,,,コト,0
1945,8290001106223,新規,0,2024-06-19,2024-06-19,Ｎａｒｒａｔｉ　Ｂｅａｕｔｙ株式会社,,株式会社,福岡県,福岡市博多区,千代４丁目２９－５レーベン千代１００３,,40,132,8120044,,,,,,,2024-06-19,1,,,,,ナラティビューティー,0
1947,8290801030655,新規,0,2024-06-19,2024-06-19,株式会社才嘉,,株式会社,福岡県,北九州市小倉北区,板櫃町２３番１－４０８号,,40,106,8030824,,,,,,,2024-06-19,1,,,,,サイカ,0
1952,8300003002138,新規,0,2024-06-19,2024-06-19,合同会社ツカサカンパニー,,合同会社,佐賀県,三養基郡上峰町,大字坊所２５１６番地５６,,41,345,8490123,,,,,,,2024-06-19,1,,,,,ツカサカンパニー,0
1956,8340001026580,新規,0,2024-06-19,2024-06-19,株式会社並木図案,,株式会社,鹿児島県,大島郡和泊町,大字古里２６８番地１,,46,533,8919124,,,,,,,2024-06-19,1,,,,,ナミキズアン,0
1959,8350001019022,新規,0,2024-06-19,2024-06-19,株式会社３ＰＭ,,株式会社,宮崎県,宮崎市,青島２丁目６番１１号セゾン青島３０１号,,45,201,8892162,,,,,,,2024-06-19,1,,,,,スリーピーエム,0
1961,8360001033823,新規,0,2024-06-19,2024-06-19,エアロリンク株式会社,,株式会社,沖縄県,那覇市,泉崎１丁目１２番７号沖縄県不動産会館７階,,47,201,9000021,,,,,,,2024-06-19,1,,,,,エアロリンク,0
1962,8360003014078,新規,0,2024-06-19,2024-06-19,合同会社オルタナティブ,,合同会社,沖縄県,那覇市,字安里３８２－１・２Ｆ,,47,201,9020067,,,,,,,2024-06-19,1,,,,,オルタナティブ,0
1966,8390001017658,新規,0,2024-06-19,2024-06-19,株式会社ネクサス不動産,,株式会社,山形県,東村山郡中山町,大字長崎１８５番地Ｋ．ＢＬＤＧ　ＥＡＳＴ,,06,302,9900401,,,,,,,2024-06-19,1,,,,,ネクサスフドウサン,0
1971,8400003003290,新規,0,2024-06-19,2024-06-19,合同会社ルカナン,,合同会社,岩手県,北上市,和賀町長沼７地割５１番地６,,03,206,0240333,,,,,,,2024-06-19,1,,,,,ルカナン,0
1977,8430001092052,新規,0,2024-06-19,2024-06-19,株式会社ＨＡＲＵＮＯファーム,,株式会社,北海道,浦河郡浦河町,字西幌別３６０番地の８,,01,607,0570002,,,,,,,2024-06-19,1,,,,,ハルノファーム,0
1978,8430001092060,新規,0,2024-06-19,2024-06-19,株式会社クリーンサポート,,株式会社,北海道,札幌市中央区,南二十二条西６丁目２番２５号エムズ南２２条第３ビル４階,,01,101,0640922,,,,,,,2024-06-19,1,,,,,クリーンサポート,0
1979,8430001092069,新規,0,2024-06-19,2024-06-19,株式会社ＲＩＶＨＩＬＬ,,株式会社,北海道,札幌市北区,屯田十一条３丁目３番１１号,,01,102,0020861,,,,,,,2024-06-19,1,,,,,リブヒル,0
1980,8430001092077,新規,0,2024-06-19,2024-06-19,株式会社シーエーマーケティング,,株式会社,北海道,札幌市中央区,北六条西１８丁目１１－１,,01,101,0600006,,,,,,,2024-06-19,1,,,,,シーエーマーケティング,0
1983,8430003016471,新規,0,2024-06-19,2024-06-19,８ＢＬＯＣＫ合同会社,,合同会社,北海道,札幌市北区,篠路一条６丁目５番１０号,,01,102,0028021,,,,,,,2024-06-19,1,,,,,エイトブロック,0
1987,8450001014343,新規,0,2024-06-19,2024-06-19,株式会社藤近商店,,株式会社,北海道,旭川市,一条通９丁目右７号,,01,204,0700031,,,,,,,2024-06-19,1,,,,,フジチカショウテン,0
1998,9010001245799,新規,0,2024-06-19,2024-06-19,株式会社ＭＹパートナー,,株式会社,東京都,中央区,日本橋室町１丁目１１番１２号日本橋水野ビル７階,,13,102,1030022,,,,,,,2024-06-19,1,,,,,エムワイパートナー,0
1999,9010001245840,新規,0,2024-06-19,2024-06-19,株式会社渋谷企画,,株式会社,東京都,中央区,日本橋室町１丁目１１番１２号日本橋水野ビル７階,,13,102,1030022,,,,,,,2024-06-19,1,,,,,シブヤキカク,0
2000,9010001245865,新規,0,2024-06-19,2024-06-19,ＬＯＯＣ株式会社,,株式会社,東京都,中央区,晴海５丁目５番５－１００８号,,13,102,1040053,,,,,,,2024-06-19,1,,,,,ルーク,0
2001,9010001245873,新規,0,2024-06-19,2024-06-19,株式会社ＡｐｐＢｅｌｌ,,株式会社,東京都,中央区,日本橋室町１丁目１１番１２号日本橋水野ビル７階,,13,102,1030022,,,,,,,2024-06-19,1,,,,,アップベル,0
2002,9010001245881,新規,0,2024-06-19,2024-06-19,Ｆｉｒｓｔ　Ｆｕｎ株式会社,,株式会社,東京都,中央区,湊３丁目２－７朝日銀座東ビル４０１号室,,13,102,1040043,,,,,,,2024-06-19,1,,,,,ファーストファン,0
2003,9010003044035,新規,0,2024-06-19,2024-06-19,ジャピムコ合同会社,,合同会社,東京都,中央区,日本橋本町２丁目２番２号日本橋本町ＹＳビル２階,,13,102,1030023,,,,,,,2024-06-19,1,,,,,ジャピムコ,0
2004,9010003044076,新規,0,2024-06-19,2024-06-19,合同会社ＳＫＭＹ　Ｎｏｎ‐ＦＩＴ１号,,合同会社,東京都,千代田区,丸の内２丁目２番１号岸本ビル１０階株式会社レイズ内,,13,101,1000005,,,,,,,2024-06-19,1,,,,,エスケーエムワイノンフィットイチゴウ,0
2011,9010401183228,新規,0,2024-06-19,2024-06-19,株式会社アシミ,,株式会社,東京都,港区,浜松町２丁目２番１５号浜松町ダイヤビル２Ｆ,,13,103,1050013,,,,,,,2024-06-19,1,,,,,アシミ,0
2012,9010401183236,新規,0,2024-06-19,2024-06-19,株式会社Ｌｉｓｔ,,株式会社,東京都,港区,芝５丁目１３－１４ＭＡ芝ビル９Ｆ,,13,103,1080014,,,,,,,2024-06-19,1,,,,,リスト,0
2013,9010401183244,新規,0,2024-06-19,2024-06-19,常陸株式会社,,株式会社,東京都,港区,芝２丁目２番１５号,,13,103,1050014,,,,,,,2024-06-19,1,,,,,ヒタチ,0
2014,9010401183285,新規,0,2024-06-19,2024-06-19,株式会社ＳＬＥＩＧＨ　ＳＰＯＲＴＳ,,株式会社,東京都,港区,芝浦４丁目２０番２,,13,103,1080023,,,,,,,2024-06-19,1,,,,,スレイスポーツ,0
2019,9010601065399,新規,0,2024-06-19,2024-06-19,株式会社Ｋｏｆｉ　Ｓａｎｄａ,,株式会社,東京都,墨田区,亀沢４丁目１５番４－３０４号αＮＥＸＴ錦糸町,,13,107,1300014,,,,,,,2024-06-19,1,,,,,コフィーサンダ,0
2031,9011001162365,新規,0,2024-06-19,2024-06-19,株式会社ＳＴＡＲ　ＣＩＴＹ　Ｔ＆Ｅ　Ｊａｐａｎ,,株式会社,東京都,渋谷区,道玄坂１丁目１０番８号渋谷道玄坂東急ビル２Ｆ‐Ｃ,,13,113,1500043,,,,,,,2024-06-19,1,,,,,スターシティティーエンドイージャパン,0
2032,9011001162605,新規,0,2024-06-19,2024-06-19,株式会社ちひろや,,株式会社,東京都,渋谷区,渋谷２丁目１９－１５宮益坂ビルディング６０９,,13,113,1500002,,,,,,,2024-06-19,1,,,,,チヒロヤ,0
2033,9011001162679,新規,0,2024-06-19,2024-06-19,株式会社マナリンク,,株式会社,東京都,渋谷区,千駄ヶ谷５丁目３２－４新宿パークサイドビル１Ｆ,,13,113,1510051,,,,,,,2024-06-19,1,,,,,マナリンク,0
2034,9011001162712,新規,0,2024-06-19,2024-06-19,Ｌ＆Ｊ株式会社,,株式会社,東京都,渋谷区,神泉町１０番１５号アネックス神泉３０１,,13,113,1500045,,,,,,,2024-06-19,1,,,,,エルアンドジェイ,0
2035,9011003019373,新規,0,2024-06-19,2024-06-19,合同会社アプデム,,合同会社,東京都,目黒区,下目黒１丁目１番１４号コノトラビル７Ｆ,,13,110,1530064,,,,,,,2024-06-19,1,,,,,アプデム,0
2047,9011303005197,新規,0,2024-06-19,2024-06-19,インフルエンススタイル合同会社,,合同会社,東京都,杉並区,和泉１丁目２番１１号クリスタルヴィレッヂ１０２,,13,115,1680063,,,,,,,2024-06-19,1,,,,,,0
2048,9011303005206,新規,0,2024-06-19,2024-06-19,ＨＩＫＡＴ合同会社,,合同会社,東京都,杉並区,和泉１丁目３１－２日神パレステージ代田橋Ｂ１０４,,13,115,1680063,,,,,,,2024-06-19,1,,,,,,0
2054,9011503006111,新規,0,2024-06-19,2024-06-19,ＯＵＲ　ＮＥＷ　ＬＩＦＥ合同会社,,合同会社,東京都,北区,上中里１丁目４番１－２０２号ラ・ヴィーダ駒込,,13,117,1140016,,,,,,,2024-06-19,1,,,,,アワーニューライフ,0
2067,9020001157746,新規,0,2024-06-19,2024-06-19,株式会社シズオン,,株式会社,神奈川県,横浜市南区,井土ケ谷下町４１番地の４,,14,105,2320053,,,,,,,2024-06-19,1,,,,,シズオン,0
2068,9020001157779,新規,0,2024-06-19,2024-06-19,株式会社ＳＨＲＡＭＩＫ,,株式会社,神奈川県,横浜市中区,松影町１丁目３－１駅前ジョイビル１階Ｂ号,,14,104,2310025,,,,,,,2024-06-19,1,,,,,シュラミック,0
2074,9020003026346,新規,0,2024-06-19,2024-06-19,合同会社アライエンド,,合同会社,神奈川県,横浜市旭区,中白根２丁目９番２２号,,14,112,2410004,,,,,,,2024-06-19,1,,,,,アライエンド,0
2079,9021001082538,新規,0,2024-06-19,2024-06-19,Ｓｐｌａｔｓ株式会社,,株式会社,神奈川県,足柄上郡開成町,吉田島１４１０－２ラピスラズリ２０１,,14,366,2580021,,,,,,,2024-06-19,1,,,,,スプラッツ,0
2084,9021003014646,新規,0,2024-06-19,2024-06-19,合同会社ＳＫＫ,,合同会社,神奈川県,相模原市緑区,大島１４３６番地１２,,14,151,2520135,,,,,,,2024-06-19,1,,,,,エスケイケイ,0
2093,9030001160955,新規,0,2024-06-19,2024-06-19,株式会社ティーティー,,株式会社,埼玉県,さいたま市見沼区,大字御蔵９２番地,,11,104,3370033,,,,,,,2024-06-19,1,,,,,ティーティー,0
2094,9030001160996,新規,0,2024-06-19,2024-06-19,株式会社ＮＩＳＳＡＮＫＡ　ＴＲＡＤＩＮＧ,,株式会社,埼玉県,行田市,大字馬見塚１６３番地２,,11,206,3610082,,,,,,,2024-06-19,1,,,,,ニッサンカトレーディング,0
2095,9030001161004,新規,0,2024-06-19,2024-06-19,株式会社ＡＦＳ,,株式会社,埼玉県,戸田市,美女木北１丁目７番地の１－１０２号,,11,224,3350038,,,,,,,2024-06-19,1,,,,,エーエフエス,0
2097,9030005021724,新規,0,2024-06-19,2024-06-19,ＮＰＯ法人ラストスタンド,,その他の設立登記法人,埼玉県,さいたま市見沼区,片柳１丁目８６番４号,,11,104,3370024,,,,,,,2024-06-19,1,,,,,ラストスタンド,0
2102,9040001134099,新規,0,2024-06-19,2024-06-19,Ａ‐ＬＡＢＯ株式会社,,株式会社,千葉県,茂原市,茂原１５６３番地１１,,12,210,2970026,,,,,,,2024-06-19,1,,,,,エーラボ,0
2108,9050001054965,新規,0,2024-06-19,2024-06-19,株式会社ＬＩＢ,,株式会社,茨城県,つくば市,春日２丁目１７番１５－Ｇ棟１０５号,,08,220,3050821,,,,,,,2024-06-19,1,,,,,エルアイビー,0
2119,9100001037584,新規,0,2024-06-19,2024-06-19,ミナト光学工業準備会社株式会社,,株式会社,長野県,岡谷市,神明町４丁目６番８号山本ビル３０２号,,20,204,3940004,,,,,,,2024-06-19,1,,,,,ミナトコウガクコウギョウジュンビガイシャ,0
2129,9120001266000,新規,0,2024-06-19,2024-06-19,株式会社源雨,,株式会社,大阪府,大阪市浪速区,桜川３丁目１番３１号５０１室,,27,111,5560022,,,,,,,2024-06-19,1,,,,,ゲンウ,0
2130,9120001266009,新規,0,2024-06-19,2024-06-19,康華株式会社,,株式会社,大阪府,大阪市中央区,北久宝寺町１丁目４番１０号大成合同ビル７０３号室,,27,128,5410057,,,,,,,2024-06-19,1,,,,,コウカ,0
2131,9120001266041,新規,0,2024-06-19,2024-06-19,金山株式会社,,株式会社,大阪府,大阪市中央区,南船場１丁目１３番２０号５０２号室,,27,128,5420081,,,,,,,2024-06-19,1,,,,,カナヤマ,0
2134,9120003026807,新規,0,2024-06-19,2024-06-19,合同会社パシフィック・ホライズン,,合同会社,大阪府,大阪市浪速区,元町１丁目１２番８－３０５号,,27,111,5560016,,,,,,,2024-06-19,1,,,,,パシフィックホライズン,0
2135,9120003026880,新規,0,2024-06-19,2024-06-19,合同会社梓会,,合同会社,大阪府,大阪市北区,東天満２丁目３番７－３４０２号,,27,127,5300044,,,,,,,2024-06-19,1,,,,,アズサエ,0
2137,9120901049339,新規,0,2024-06-19,2024-06-19,株式会社プリモパッソ,,株式会社,大阪府,豊中市,東泉丘４丁目３－５－１１０７,,27,203,5610861,,,,,,,2024-06-19,1,,,,,プリモパッソ,0
2138,9120905006617,新規,0,2024-06-19,2024-06-19,一般社団法人ＲＥＤ　ＰＡＮＤＡ　ＮＥＴＷＯＲＫ　ＪＡＰＡＮ,,その他の設立登記法人,大阪府,箕面市,彩都粟生南６丁目３番６号,,27,220,5620028,,,,,,,2024-06-19,1,,,,,レッドパンダネットワークジャパン,0
2147,9130001077306,新規,0,2024-06-19,2024-06-19,朝夕方アセットマネジメント株式会社,,株式会社,京都府,京都市中京区,富小路通六角下る骨屋之町５５０番地２,,26,104,6048064,,,,,,,2024-06-19,1,,,,,アサユウアセットマネジメント,0
2155,9160001026012,新規,0,2024-06-19,2024-06-19,株式会社シグラス,,株式会社,滋賀県,大津市,打出浜２番１号コラボしが２１・４０３号室,,25,201,5200806,,,,,,,2024-06-19,1,,,,,シグラス,0
2162,9180303006156,新規,0,2024-06-19,2024-06-19,合同会社アイスティー,,合同会社,愛知県,岡崎市,明大寺本町４丁目１５番地３．４Ｆ,,23,202,4440860,,,,,,,2024-06-19,1,,,,,アイスティー,0
2180,9240003006730,新規,0,2024-06-19,2024-06-19,合同会社晏朱,,合同会社,広島県,広島市中区,幟町７－２７－４０２,,34,101,7300016,,,,,,,2024-06-19,1,,,,,アンジュ,0
2183,9260001039193,新規,0,2024-06-19,2024-06-19,株式会社ａｗｅｓｏｍｅ,,株式会社,岡山県,岡山市北区,中央町２番１４号２０ビル７０２号室,,33,101,7000836,,,,,,,2024-06-19,1,,,,,オーサム,0
2184,9270003001638,新規,0,2024-06-19,2024-06-19,合同会社１１３０,,合同会社,鳥取県,鳥取市,吉方町２丁目５２１番地２Ｆ,,31,201,6800062,,,,,,,2024-06-19,1,,,,,イチイチサンゼロ,0
2186,9290001106214,新規,0,2024-06-19,2024-06-19,Ｃ＆Ｓ株式会社,,株式会社,福岡県,大牟田市,岩本新町１丁目７番地６,,40,202,8370910,,,,,,,2024-06-19,1,,,,,シーアンドエス,0
2188,9290003015454,新規,0,2024-06-19,2024-06-19,空間工作舎ＶＩＢＲＡＴＩＯＮＳ合同会社,,合同会社,福岡県,糸島市,志摩芥屋３２８８番地２７０,,40,230,8191335,,,,,,,2024-06-19,1,,,,,クウカンコウサクシャバイブレーションズ,0
2191,9300001013788,新規,0,2024-06-19,2024-06-19,ＪＯＢＩＳ株式会社,,株式会社,佐賀県,佐賀市,若楠１丁目６－１２,,41,201,8490928,,,,,,,2024-06-19,1,,,,,ジョブイズ,0
2203,9360001033830,新規,0,2024-06-19,2024-06-19,株式会社ＳＴＥＰ,,株式会社,沖縄県,浦添市,字経塚５５５番地１－２Ｆ,,47,208,9012111,,,,,,,2024-06-19,1,,,,,ステップ,0
2204,9360005007054,新規,0,2024-06-19,2024-06-19,一般社団法人ＡｌｏＨａｉｓａｉ　ＯＫＩＮＡＷＡ,,その他の設立登記法人,沖縄県,沖縄市,山里３丁目１１－１９,,47,211,9040033,,,,,,,2024-06-19,1,,,,,アロハイサイオキナワ,0
2214,9430001092068,新規,0,2024-06-19,2024-06-19,株式会社丸平工業,,株式会社,北海道,札幌市白石区,本郷通１丁目南１番１－５０５号,,01,104,0030024,,,,,,,2024-06-19,1,,,,,マルヒラコウギョウ,0
2217,9430003016470,新規,0,2024-06-19,2024-06-19,合同会社インター・トレード,,合同会社,北海道,札幌市東区,中沼町１１８番地８,,01,103,0070890,,,,,,,2024-06-19,1,,,,,インタートレード,0
