sequenceNumber,corporateNumber,process,correct,updateDate,changeDate,name,nameImageId,kind,prefectureName,cityName,streetNumber,addressImageId,prefectureCode,cityCode,postCode,addressOutside,addressOutsideImageId,closeDate,closeCause,successorCorporateNumber,changeCause,assignmentDate,latest,enName,enPrefectureName,enCityName,enAddressOutside,furigana,hihyoji
16,1010001245823,新規,0,2024-06-14,2024-06-14,悠久コンサルティング株式会社,,株式会社,東京都,文京区,白山５丁目１７番８号アーバイル文京白山８０４号室,,13,105,1120001,,,,,,,2024-06-14,1,,,,,ユウキュウコンサルティング,0
21,1010003043928,新規,0,2024-06-14,2024-06-14,合同会社ＴＮＫ,,合同会社,東京都,千代田区,四番町４番地６パークコート千代田四番町３０８号,,13,101,1020081,,,,,,,2024-06-14,1,,,,,ティーエヌケー,0
22,1010003044059,新規,0,2024-06-14,2024-06-14,合同会社ＯＥＣ,,合同会社,東京都,中央区,月島３丁目２６－３オークプレイス月島１０５,,13,102,1040052,,,,,,,2024-06-14,1,,,,,オーイーシー,0
24,1010005038414,新規,0,2024-06-14,2024-06-14,ＨＫＴ一般社団法人,,その他の設立登記法人,東京都,千代田区,霞が関３丁目２番５号,,13,101,1000013,,,,,,,2024-06-14,1,,,,,エイチケーティー,0
29,1010401182889,新規,0,2024-06-14,2024-06-14,Ａ’ａｌｄａ　Ｘ株式会社,,株式会社,東京都,港区,新橋６丁目１１番８号ＰＯＲＴＯＮＥＳＨＩＭＢＡＳＨＩ３Ｆ,,13,103,1050004,,,,,,,2024-06-14,1,,,,,アルダエックス,0
30,1010401183029,新規,0,2024-06-14,2024-06-14,株式会社Ｔａｒａｋｏ　Ｋｉｒｉｎ,,株式会社,東京都,港区,浜松町２丁目２番１５号浜松町ダイヤビル２Ｆ,,13,103,1050013,,,,,,,2024-06-14,1,,,,,タラコキリン,0
36,1010501052463,新規,0,2024-06-14,2024-06-14,株式会社ＮＥＫＯＭＡＲＵ,,株式会社,東京都,台東区,鳥越２丁目８－４,,13,106,1110054,,,,,,,2024-06-14,1,,,,,ネコマル,0
41,1010803004988,新規,0,2024-06-14,2024-06-14,合同会社千琳,,合同会社,東京都,大田区,仲池上１丁目２６番１５－２０６号セザール仲池上,,13,111,1460081,,,,,,,2024-06-14,1,,,,,チリン,0
45,1010903009152,新規,0,2024-06-14,2024-06-14,ハニカム合同会社,,合同会社,東京都,世田谷区,大蔵５丁目２４番１１号,,13,112,1570074,,,,,,,2024-06-14,1,,,,,ハニカム,0
51,1011001162447,新規,0,2024-06-14,2024-06-14,クラブスターズ株式会社,,株式会社,東京都,渋谷区,神宮前６丁目１９番１５号高野第一ビル１０階Ｂ,,13,113,1500001,,,,,,,2024-06-14,1,,,,,クラブスターズ,0
52,1011001162629,新規,0,2024-06-14,2024-06-14,株式会社アートイン,,株式会社,東京都,目黒区,鷹番２丁目２１番４号,,13,110,1520004,,,,,,,2024-06-14,1,,,,,アートイン,0
53,1011001162711,新規,0,2024-06-14,2024-06-14,株式会社ジーロジック,,株式会社,東京都,渋谷区,道玄坂１丁目１７番７号,,13,113,1500043,,,,,,,2024-06-14,1,,,,,ジーロジック,0
57,1011101107731,新規,0,2024-06-14,2024-06-14,株式会社ｇｌａｍ,,株式会社,東京都,新宿区,高田馬場１丁目１７番１５号羽深ビル３階,,13,104,1690075,,,,,,,2024-06-14,1,,,,,グラム,0
62,1011103014546,新規,0,2024-06-14,2024-06-14,合同会社水,,合同会社,東京都,新宿区,高田馬場１丁目１番１５号,,13,104,1690075,,,,,,,2024-06-14,1,,,,,スイ,0
63,1011103014554,新規,0,2024-06-14,2024-06-14,合同会社ＩＣ,,合同会社,東京都,新宿区,歌舞伎町２丁目２０番５号,,13,104,1600021,,,,,,,2024-06-14,1,,,,,アイシー,0
66,1011203004414,新規,0,2024-06-14,2024-06-14,合同会社ｓｕｃｏｒｏ,,合同会社,東京都,中野区,鷺宮５丁目２４番１２号,,13,114,1650032,,,,,,,2024-06-14,1,,,,,スコロ,0
67,1011301029759,新規,0,2024-06-14,2024-06-14,株式会社Ｂｅａｃｏｎ,,株式会社,東京都,杉並区,和泉１丁目５４－３－２０１,,13,115,1680063,,,,,,,2024-06-14,1,,,,,,0
69,1011503006102,新規,0,2024-06-14,2024-06-14,合同会社ＫＮＥ,,合同会社,東京都,北区,王子１丁目２５番３－１００１号,,13,117,1140002,,,,,,,2024-06-14,1,,,,,ケーエヌイー,0
74,1011801044381,新規,0,2024-06-14,2024-06-14,株式会社ＭＥＲ,,株式会社,東京都,葛飾区,西水元１丁目１２番１５号,,13,122,1250031,,,,,,,2024-06-14,1,,,,,エムイーアール,0
77,1012401041983,新規,0,2024-06-14,2024-06-14,七月株式会社,,株式会社,東京都,多摩市,落合１丁目８番地の１ウィステリア１００２,,13,224,2060033,,,,,,,2024-06-14,1,,,,,ナナガツ,0
92,1021001082512,新規,0,2024-06-14,2024-06-14,株式会社日本オートウィングス,,株式会社,神奈川県,厚木市,下荻野８９７番地７,,14,212,2430203,,,,,,,2024-06-14,1,,,,,ニホンオートウィングス,0
94,1021003014637,新規,0,2024-06-14,2024-06-14,合同会社ワイエステートプラン,,合同会社,神奈川県,横須賀市,三春町１丁目４番地３２,,14,201,2380014,,,,,,,2024-06-14,1,,,,,ワイエステートプラン,0
108,1030003024471,新規,0,2024-06-14,2024-06-14,合同会社Ｏｒｃａ,,合同会社,埼玉県,三郷市,鷹野１丁目５９－２ハーベストガーデンサウスウイング２０１,,11,237,3410035,,,,,,,2024-06-14,1,,,,,オーカ,0
113,1040001133975,新規,0,2024-06-14,2024-06-14,株式会社ＧｏＬａｎｄ,,株式会社,千葉県,柏市,松ケ崎１１２１番地６,,12,217,2770835,,,,,,,2024-06-14,1,,,,,ゴーランド,0
120,1040003025221,新規,0,2024-06-14,2024-06-14,ＬＡ　ＳＥＬＶＡＧＧＩＮＡ　ＫＡＭＯＧＡＷＡ合同会社,,合同会社,千葉県,鴨川市,金束１８２７番地,,12,223,2960233,,,,,,,2024-06-14,1,,,,,ラセルバジーナカモガワ,0
122,1050003008448,新規,0,2024-06-14,2024-06-14,Ｉｂａｒａｋｉ　Ｊａｐａｎ　Ｔｒａｄｉｎｇ合同会社,,合同会社,茨城県,坂東市,冨田字北原１４１０番地１０６,,08,228,3060652,,,,,,,2024-06-14,1,,,,,イバラキジャパントレーディング,0
123,1050003008456,新規,0,2024-06-14,2024-06-14,Ｔ‐Ｂａｓｅ合同会社,,合同会社,茨城県,ひたちなか市,大字馬渡２５５６番地の４,,08,221,3120012,,,,,,,2024-06-14,1,,,,,ティーベイス,0
128,1080101024823,新規,0,2024-06-14,2024-06-14,株式会社吉田アセットデザイン,,株式会社,静岡県,富士宮市,富士見ケ丘１３９番地,,22,207,4180014,,,,,,,2024-06-14,1,,,,,ヨシダアセットデザイン,0
133,1090003002579,新規,0,2024-06-14,2024-06-14,合同会社クボッサム,,合同会社,山梨県,甲府市,和田町２４４８番地７,,19,201,4000001,,,,,,,2024-06-14,1,,,,,クボッサム,0
136,1100001037567,新規,0,2024-06-14,2024-06-14,株式会社イノマタ,,株式会社,長野県,長野市,松代町牧島３９７番地５,,20,201,3811212,,,,,,,2024-06-14,1,,,,,イノマタ,0
152,1120001265736,新規,0,2024-06-14,2024-06-14,株式会社デルタゴン,,株式会社,大阪府,大阪市中央区,谷町３丁目１番１８号,,27,128,5400012,,,,,,,2024-06-14,1,,,,,デルタゴン,0
153,1120001265802,新規,0,2024-06-14,2024-06-14,株式会社ＬＩ‐ＥＮ,,株式会社,大阪府,大阪市北区,梅田１丁目２番２号大阪駅前第２ビル１２－１２,,27,127,5300001,,,,,,,2024-06-14,1,,,,,リアン,0
154,1120001265868,新規,0,2024-06-14,2024-06-14,シンクロニシティホールディングス株式会社,,株式会社,大阪府,大阪市北区,西天満６丁目７－２,,27,127,5300047,,,,,,,2024-06-14,1,,,,,シンクロニシティホールディングス,0
155,1120001265926,新規,0,2024-06-14,2024-06-14,モンドレ・タナカ株式会社,,株式会社,大阪府,大阪市鶴見区,今津中５丁目２番２６号,,27,124,5380042,,,,,,,2024-06-14,1,,,,,モンドレタナカ,0
160,1120003026871,新規,0,2024-06-14,2024-06-14,オンサイト・フィールドパートナーズ合同会社,,合同会社,大阪府,大阪市北区,梅田１丁目２番２号大阪駅前第２ビル１２‐１２,,27,127,5300001,,,,,,,2024-06-14,1,,,,,オンサイトフィールドパートナーズ,0
161,1120005024378,新規,0,2024-06-14,2024-06-14,一般社団法人ディパーチャー,,その他の設立登記法人,大阪府,大阪市東成区,東小橋３丁目１番２号４階,,27,115,5370024,,,,,,,2024-06-14,1,,,,,ディパーチャー,0
168,1120905006616,新規,0,2024-06-14,2024-06-14,一般社団法人日本住宅安全保安協会,,その他の設立登記法人,大阪府,摂津市,東別府４丁目２番１号,,27,224,5660042,,,,,,,2024-06-14,1,,,,,ニホンジュウタクアンゼンホアンキョウカイ,0
171,1130001077263,新規,0,2024-06-14,2024-06-14,株式会社廣瀬商事,,株式会社,京都府,京都市山科区,竹鼻堂ノ前町３５－３,,26,110,6078085,,,,,,,2024-06-14,1,,,,,ヒロセショウジ,0
172,1130001077288,新規,0,2024-06-14,2024-06-14,株式会社よい根,,株式会社,京都府,京都市左京区,下鴨梅ノ木町１０番地１,,26,103,6060851,,,,,,,2024-06-14,1,,,,,ヨイネ,0
179,1140001134831,新規,0,2024-06-14,2024-06-14,アイキッズネクスト株式会社,,株式会社,兵庫県,神戸市中央区,栄町通４丁目３番５号,,28,110,6500023,,,,,,,2024-06-14,1,,,,,アイキッズネクスト,0
184,1140005027115,新規,0,2024-06-14,2024-06-14,一般社団法人下山口丸山会,,その他の設立登記法人,兵庫県,西宮市,山口町下山口５丁目５番１８号,,28,204,6511412,,,,,,,2024-06-14,1,,,,,シモヤマグチマルヤマカイ,0
185,1150001027349,新規,0,2024-06-14,2024-06-14,株式会社バタフライエフェクト,,株式会社,奈良県,生駒市,南田原町１２３０番地５７,,29,209,6300135,,,,,,,2024-06-14,1,,,,,バタフライエフェクト,0
188,1170001018189,新規,0,2024-06-14,2024-06-14,エムテック株式会社,,株式会社,和歌山県,和歌山市,弘西１０６０番地６,,30,201,6496339,,,,,,,2024-06-14,1,,,,,エムテック,0
190,1170003002059,新規,0,2024-06-14,2024-06-14,合同会社ＲＥＡＬＩＮＥ,,合同会社,和歌山県,和歌山市,有家６０－７,,30,201,6408316,,,,,,,2024-06-14,1,,,,,リアライン,0
206,1180301038712,新規,0,2024-06-14,2024-06-14,株式会社小田設備工業,,株式会社,愛知県,知立市,長田２丁目４２番地３,,23,225,4720035,,,,,,,2024-06-14,1,,,,,オダセツビコウギョウ,0
207,1180303006147,新規,0,2024-06-14,2024-06-14,合同会社ＴＡＣＯ,,合同会社,愛知県,豊橋市,山田一番町１４３番地（ウィスタリア２０２）,,23,201,4418102,,,,,,,2024-06-14,1,,,,,タッコ,0
210,1190001031421,新規,0,2024-06-14,2024-06-14,株式会社恒岡精渥場,,株式会社,三重県,伊賀市,円徳院１０８５番地の１,,24,216,5181314,,,,,,,2024-06-14,1,,,,,ツネオカセイアクジョウ,0
213,1200001042598,新規,0,2024-06-14,2024-06-14,株式会社ＭＵＧＩ測量,,株式会社,岐阜県,美濃市,横越３４８,,21,207,5013761,,,,,,,2024-06-14,1,,,,,ムギソクリョウ,0
215,1200003006378,新規,0,2024-06-14,2024-06-14,合同会社ＲＣ,,合同会社,岐阜県,可児市,中恵土３２３１番地１,,21,214,5090202,,,,,,,2024-06-14,1,,,,,アールシー,0
222,1240001063376,新規,0,2024-06-14,2024-06-14,株式会社オキテックヒロシマ,,株式会社,広島県,広島市安佐北区,可部南２丁目１６番１０号,,34,106,7310223,,,,,,,2024-06-14,1,,,,,オキテックヒロシマ,0
223,1240001063384,新規,0,2024-06-14,2024-06-14,株式会社２２度,,株式会社,広島県,広島市安佐北区,落合南３丁目３２番２４号,,34,106,7391732,,,,,,,2024-06-14,1,,,,,ニジュウニド,0
240,1290001106089,新規,0,2024-06-14,2024-06-14,ＫＳＧホールディングス株式会社,,株式会社,福岡県,福岡市博多区,対馬小路１２番１０号,,40,132,8120020,,,,,,,2024-06-14,1,,,,,ケイエスジーホールディングス,0
242,1290003015437,新規,0,2024-06-14,2024-06-14,リルステップ合同会社,,合同会社,福岡県,福岡市中央区,天神２丁目２番１２号Ｔ＆Ｊビルディング７Ｆ,,40,133,8100001,,,,,,,2024-06-14,1,,,,,リルステップ,0
244,1290801030645,新規,0,2024-06-14,2024-06-14,株式会社成建,,株式会社,福岡県,田川市,大字奈良１０９番地２,,40,206,8260043,,,,,,,2024-06-14,1,,,,,セイケン,0
245,1290803004754,新規,0,2024-06-14,2024-06-14,合同会社Ｌｏｔｕｓ,,合同会社,福岡県,田川市,大字奈良１６２番地１,,40,206,8260043,,,,,,,2024-06-14,1,,,,,ロータス,0
246,1300001013746,新規,0,2024-06-14,2024-06-14,株式会社でざいんもこ,,株式会社,佐賀県,杵島郡江北町,大字上小田２６４１番地４５,,41,424,8490506,,,,,,,2024-06-14,1,,,,,デザインモコ,0
247,1300001013795,新規,0,2024-06-14,2024-06-14,株式会社エミシアス,,株式会社,佐賀県,佐賀市,中折町７番１４号,,41,201,8400852,,,,,,,2024-06-14,1,,,,,エミシアス,0
249,1320001020526,新規,0,2024-06-14,2024-06-14,蒜久株式会社,,株式会社,大分県,別府市,弓ケ浜町５－２０大分合同新聞社別府総局２階,,44,202,8740927,,,,,,,2024-06-14,1,,,,,サンキュウ,0
250,1320001020542,新規,0,2024-06-14,2024-06-14,株式会社ＡＬＬ　ＡＲＯＵＮＤ,,株式会社,大分県,大分市,大字竹矢２０８７番地の１,,44,201,8701211,,,,,,,2024-06-14,1,,,,,オールアラウンド,0
264,1360001033813,新規,0,2024-06-14,2024-06-14,株式会社ＭＩＲＡＧＥ,,株式会社,沖縄県,名護市,大中１丁目３番７号,,47,209,9050017,,,,,,,2024-06-14,1,,,,,ミラージュ,0
265,1360001033821,新規,0,2024-06-14,2024-06-14,株式会社ＫＯＭＡ,,株式会社,沖縄県,沖縄市,字登川１７８８番地,,47,211,9042142,,,,,,,2024-06-14,1,,,,,コマ,0
268,1370001051401,新規,0,2024-06-14,2024-06-14,キクチ工業株式会社,,株式会社,宮城県,柴田郡柴田町,大字四日市場字坂本前８１番地２,,04,323,9891743,,,,,,,2024-06-14,1,,,,,キクチコウギョウ,0
269,1370001051426,新規,0,2024-06-14,2024-06-14,株式会社真興業,,株式会社,宮城県,仙台市青葉区,愛子東５丁目４番２５号,,04,101,9893127,,,,,,,2024-06-14,1,,,,,シンコウギョウ,0
270,1370003006650,新規,0,2024-06-14,2024-06-14,合同会社ｗｉｔｈ,,合同会社,宮城県,仙台市宮城野区,岩切字上河原５１番地の２１,,04,102,9830821,,,,,,,2024-06-14,1,,,,,ウイズ,0
273,1380001034594,新規,0,2024-06-14,2024-06-14,株式会社ｉｒｏｒｉ,,株式会社,福島県,郡山市,大槻町字南反田２５番地の９,,07,203,9630201,,,,,,,2024-06-14,1,,,,,イロリ,0
277,1390001017648,新規,0,2024-06-14,2024-06-14,株式会社ゼロ,,株式会社,山形県,米沢市,東３丁目９番５４号,,06,202,9920026,,,,,,,2024-06-14,1,,,,,ゼロ,0
293,1700150125979,新規,0,2024-06-14,2024-06-14,Ｃｏｓｍｏｐｏｌｉｔａｎ　Ｇｌｏｂａｌ　Ｂｒａｎｄｓ　Ｇｒｏｕｐ　Ｌｉｍｉｔｅｄ,,外国会社等,,,,,,,,２　Ｃｏｒｎｆｉｅｌｄ　Ｃｌｏｓｅ，Ｃｈａｎｄｌｅｒ’ｓ　Ｆｏｒｄ，Ｅａｓｔｌｅｉｇｈ，Ｅｎｇｌａｎｄ　ＳＯ５３　４ＨＤ,,,,,,2024-06-14,1,,,,,カズマパラトングロウバルブランズグループリミテッド,0
294,1700150125987,新規,0,2024-06-14,2024-06-14,ＳＨＥＮＺＨＥＮＳＨＩ　ＹＩＮＧＪＩＡ　ＬＶＸＩＮＧ　ＹＯＮＧＰＩＮ　ＹＯＵＸＩＡＮＧＯＮＧＳＩ,,外国会社等,,,,,,,,Ｆｌｏｏｒ３　Ｂｕｉｌｄｉｎｇ１　Ｄｏｒｍｉｔｏｒｙ　Ｂｕｉｌｄｉｎｇ１　Ｎｏ．１９　ｔｈｅ　Ｎａｎｌｉｎｇ　Ｒｏａｄ　Ｘｉｎｅｒ　Ｃｏｍｍｕｎｉｔｙ　Ｘｉｎｑｉａｏ　Ｓｔｒｅｅｔ　Ｂａｏａｎ　Ｄｉｓｔｒｉｃｔ　Ｓｈｅｎｚｈｅｎ　Ｃｉｔｙ　Ｇｕａｎｇｄｏｎｇ　Ｐｒｏｖｉｎｃｅ,,,,,,2024-06-14,1,,,,,シンセンシインジャリョコウヨウヒンユウゲンコウシ,0
295,1700150125995,新規,0,2024-06-14,2024-06-14,ＫＰＭＧ　Ｉｎｄｉａ　Ｓｅｒｖｉｃｅｓ　ＬＬＰ,,外国会社等,,,,,,,,２ｎｄ　Ｆｌｏｏｒ，Ｂｌｏｃｋ　Ｔ２（Ｂ　Ｗｉｎｇ），Ｌｏｄｈａ　Ｅｘｃｅｌｕｓ，Ａｐｏｌｌｏ　Ｍｉｌｌｓ　Ｃｏｍｐｏｕｎｄ，Ｎ　Ｍ　Ｊｏｓｈｉ　Ｍａｒｇ，Ｍａｈａｌａｘｍｉ，Ｍｕｍｂａｉ－４０００１１，Ｉｎｄｉａ,,,,,,2024-06-14,1,,,,,ケーピーエムジーインデイアサービシズエルエルピー,0
307,2010003044025,新規,0,2024-06-14,2024-06-14,合同会社ＫＡＰＯ,,合同会社,東京都,中央区,銀座６丁目４番８号曽根ビルＢ２Ｆ,,13,102,1040061,,,,,,,2024-06-14,1,,,,,カポ,0
310,2010005038421,新規,0,2024-06-14,2024-06-14,ジェミニホールディングス一般社団法人,,その他の設立登記法人,東京都,千代田区,永田町２丁目１７番５号,,13,101,1000014,,,,,,,2024-06-14,1,,,,,ジェミニホールディングス,0
322,2010401183127,新規,0,2024-06-14,2024-06-14,株式会社ＪｏｂＳｐａｒｋ,,株式会社,東京都,港区,海岸１丁目１３番２０－７０２号,,13,103,1050022,,,,,,,2024-06-14,1,,,,,ジョブスパーク,0
336,2010601065372,新規,0,2024-06-14,2024-06-14,株式会社相馬工業,,株式会社,東京都,江東区,大島５丁目４７番１３号ライオンズマンション大島第２－２０９号,,13,108,1360072,,,,,,,2024-06-14,1,,,,,ソウマコウギョウ,0
340,2010801035142,新規,0,2024-06-14,2024-06-14,株式会社高橋電設,,株式会社,東京都,大田区,東雪谷５丁目２２番３号,,13,111,1450065,,,,,,,2024-06-14,1,,,,,タカハシデンセツ,0
341,2010803004987,新規,0,2024-06-14,2024-06-14,合同会社スタジオパク,,合同会社,東京都,大田区,山王２丁目５番６号山王ブリッジＢ１－００,,13,111,1430023,,,,,,,2024-06-14,1,,,,,スタジオパク,0
353,2011001162446,新規,0,2024-06-14,2024-06-14,経営者コラボ株式会社,,株式会社,東京都,渋谷区,神宮前６丁目１９番１５号高野第一ビル１０階Ｂ,,13,113,1500001,,,,,,,2024-06-14,1,,,,,ケイエイシャコラボ,0
354,2011001162611,新規,0,2024-06-14,2024-06-14,株式会社ＮＥＭＥ,,株式会社,東京都,渋谷区,神宮前６丁目２３番４号桑野ビル２階,,13,113,1500001,,,,,,,2024-06-14,1,,,,,ネム,0
355,2011003019413,新規,0,2024-06-14,2024-06-14,合同会社Ｔｈｅ　Ｔｅｃｈ,,合同会社,東京都,渋谷区,道玄坂１丁目１０－８渋谷道玄坂東急ビル２Ｆ－Ｃ,,13,113,1500043,,,,,,,2024-06-14,1,,,,,ザテック,0
358,2011101107739,新規,0,2024-06-14,2024-06-14,株式会社まて,,株式会社,東京都,新宿区,西新宿８丁目７番１１号,,13,104,1600023,,,,,,,2024-06-14,1,,,,,マテ,0
359,2011101107747,新規,0,2024-06-14,2024-06-14,源地所株式会社,,株式会社,東京都,新宿区,西新宿７丁目１９番２２－４１９号,,13,104,1600023,,,,,,,2024-06-14,1,,,,,ミナモトジショ,0
360,2011103014561,新規,0,2024-06-14,2024-06-14,シムディ合同会社,,合同会社,東京都,新宿区,新宿１丁目３６－２新宿第七葉山ビル３Ｆ,,13,104,1600022,,,,,,,2024-06-14,1,,,,,シムディ,0
366,2011501030813,新規,0,2024-06-14,2024-06-14,株式会社ａｒｉｋａｔａ,,株式会社,東京都,荒川区,東日暮里６丁目１７－６イデタチ東京シェアオフィスＢ,,13,118,1160014,,,,,,,2024-06-14,1,,,,,アリカタ,0
367,2011503006101,新規,0,2024-06-14,2024-06-14,合同会社Ａ＆Ｓプロパティ,,合同会社,東京都,荒川区,東日暮里５丁目４２番１０－７０４号,,13,118,1160014,,,,,,,2024-06-14,1,,,,,エーアンドエスプロパティ,0
374,2011701027386,新規,0,2024-06-14,2024-06-14,株式会社ｏｋａｄａ,,株式会社,東京都,江戸川区,東瑞江２丁目５番４号,,13,123,1320014,,,,,,,2024-06-14,1,,,,,オカダ,0
375,2012401041966,新規,0,2024-06-14,2024-06-14,ｓｏｕｉ株式会社,,株式会社,東京都,武蔵野市,吉祥寺本町１丁目２０番１号吉祥寺永谷シティプラザ１００２,,13,203,1800004,,,,,,,2024-06-14,1,,,,,ソウイ,0
393,2021001082453,新規,0,2024-06-14,2024-06-14,株式会社スマート美建,,株式会社,神奈川県,厚木市,上落合３５３番地４号室,,14,212,2430025,,,,,,,2024-06-14,1,,,,,スマートビケン,0
397,2030001160953,新規,0,2024-06-14,2024-06-14,株式会社ＷｉｔｃｈｅＳ,,株式会社,埼玉県,春日部市,上蛭田５２９番地３ヤカタビル２０１号室,,11,214,3440046,,,,,,,2024-06-14,1,,,,,ウィッチーズ,0
407,2040001133974,新規,0,2024-06-14,2024-06-14,株式会社ｔｏ　ｍｅ．６６,,株式会社,千葉県,浦安市,高洲３丁目１２番２４号,,12,227,2790023,,,,,,,2024-06-14,1,,,,,トゥミィドットロクジュウロク,0
408,2040001134106,新規,0,2024-06-14,2024-06-14,株式会社Ｗｏｒｋ　Ｍａｐ,,株式会社,千葉県,千葉市緑区,おゆみ野南６丁目３４番地１３,,12,105,2660033,,,,,,,2024-06-14,1,,,,,ワークマップ,0
413,2040003025220,新規,0,2024-06-14,2024-06-14,同心かいごサービス合同会社,,合同会社,千葉県,千葉市稲毛区,稲丘町３０番地１５－２０１号,,12,103,2630033,,,,,,,2024-06-14,1,,,,,ドウシンカイゴサービス,0
414,2040005022422,新規,0,2024-06-14,2024-06-14,ドットライン税理士法人,,その他の設立登記法人,千葉県,千葉市美浜区,中瀬２丁目６番地１,,12,106,2610023,,,,,,,2024-06-14,1,,,,,ドットライン,0
416,2050001054922,新規,0,2024-06-14,2024-06-14,株式会社ＢＯＮＤ,,株式会社,茨城県,久慈郡大子町,大字左貫１３６９番地,,08,364,3193543,,,,,,,2024-06-14,1,,,,,ボンド,0
420,2070001041869,新規,0,2024-06-14,2024-06-14,株式会社Ｎ‐ｃａｌｍ,,株式会社,群馬県,桐生市,本町３丁目１番５号,,10,203,3760031,,,,,,,2024-06-14,1,,,,,,0
426,2080001026340,新規,0,2024-06-14,2024-06-14,株式会社ココネクト,,株式会社,静岡県,静岡市清水区,草薙杉道２丁目１３－１０,,22,103,4240885,,,,,,,2024-06-14,1,,,,,ココネクト,0
427,2080101024822,新規,0,2024-06-14,2024-06-14,株式会社スタジオ光栄,,株式会社,静岡県,田方郡函南町,上沢１５番地の３,,22,325,4190122,,,,,,,2024-06-14,1,,,,,スタジオコウエイ,0
434,2100001037558,新規,0,2024-06-14,2024-06-14,Ａｎｊａｎｅ株式会社,,株式会社,長野県,飯田市,中村１７５８番地２,,20,205,3950156,,,,,,,2024-06-14,1,,,,,アンジャネ,0
435,2100003007600,新規,0,2024-06-14,2024-06-14,Ｂｅｓｕ　ＪＤＭ合同会社,,合同会社,長野県,北安曇郡小谷村,大字千国乙６５２番地,,20,486,3999422,,,,,,,2024-06-14,1,,,,,ベスジェーディーエム,0
436,2100003007609,新規,0,2024-06-14,2024-06-14,合同会社グローバルベース,,合同会社,長野県,岡谷市,川岸西２丁目１２番２７号,,20,204,3940046,,,,,,,2024-06-14,1,,,,,グローバルベース,0
438,2110001038489,新規,0,2024-06-14,2024-06-14,株式会社ＧＬＯＢＡＬ　ＢＡＳＥ,,株式会社,新潟県,新潟市東区,大形本町４丁目３番１号,,15,102,9500813,,,,,,,2024-06-14,1,,,,,グローバルベース,0
451,2120001265603,新規,0,2024-06-14,2024-06-14,株式会社Ｎｅｗ　Ｌｙｒｉｃ,,株式会社,大阪府,大阪市北区,兎我野町３番１９号,,27,127,5300056,,,,,,,2024-06-14,1,,,,,ニューリリック,0
452,2120001265818,新規,0,2024-06-14,2024-06-14,Ｖａｍｏｓ株式会社,,株式会社,大阪府,大阪市北区,堂山町７番１３号,,27,127,5300027,,,,,,,2024-06-14,1,,,,,バモス,0
453,2120001265842,新規,0,2024-06-14,2024-06-14,株式会社ＧＡＫＵＳＨＩＫＩ,,株式会社,大阪府,大阪市中央区,北浜東４－３３北浜ネクスビルディングＢ１Ｆ,,27,128,5400031,,,,,,,2024-06-14,1,,,,,ガクシキ,0
454,2120001265859,新規,0,2024-06-14,2024-06-14,海潤株式会社,,株式会社,大阪府,大阪市東成区,大今里南１丁目１８番７号大宝今里ロイヤルハイツ１０５号室,,27,115,5370013,,,,,,,2024-06-14,1,,,,,カイジュン,0
455,2120001265875,新規,0,2024-06-14,2024-06-14,ジオスマイル株式会社,,株式会社,大阪府,守口市,南寺方南通３丁目４番２７号,,27,209,5700044,,,,,,,2024-06-14,1,,,,,ジオスマイル,0
456,2120001265883,新規,0,2024-06-14,2024-06-14,株式会社Ｌｉｆｅｌｉｃｅ,,株式会社,大阪府,枚方市,大垣内二丁目８番１０号宮村三甲ビル７階,,27,210,5730000,,,,,,,2024-06-14,1,,,,,ライフェリーチェ,0
457,2120001265933,新規,0,2024-06-14,2024-06-14,北港ホールディングス株式会社,,株式会社,大阪府,大阪市西淀川区,大野２丁目４番４号,,27,113,5550043,,,,,,,2024-06-14,1,,,,,ホッコウホールディングス,0
458,2120001265966,新規,0,2024-06-14,2024-06-14,京瀛匠株式会社,,株式会社,大阪府,大阪市平野区,瓜破東２丁目１番１２号,,27,126,5470022,,,,,,,2024-06-14,1,,,,,キョウエイショウ,0
467,2120003026838,新規,0,2024-06-14,2024-06-14,リルバック合同会社,,合同会社,大阪府,枚方市,岡本町７番１号枚方ビオルネ５階ビィーゴ,,27,210,5730031,,,,,,,2024-06-14,1,,,,,リルバック,0
468,2120005024377,新規,0,2024-06-14,2024-06-14,森ノ宮中央行政書士法人,,その他の設立登記法人,大阪府,大阪市中央区,森ノ宮中央２丁目８番１２号,,27,128,5400003,,,,,,,2024-06-14,1,,,,,モリノミヤチュウオウ,0
486,2122001038170,新規,0,2024-06-14,2024-06-14,Ｓ．Ｔ．Ｋ株式会社,,株式会社,大阪府,東大阪市,下六万寺町３丁目２番４７号,,27,227,5798066,,,,,,,2024-06-14,1,,,,,エスティーケー,0
491,2130001077279,新規,0,2024-06-14,2024-06-14,株式会社丸善ビニール,,株式会社,京都府,京都市右京区,嵯峨野開町８番地,,26,108,6168313,,,,,,,2024-06-14,1,,,,,マルゼンビニール,0
492,2130001077287,新規,0,2024-06-14,2024-06-14,Ｌｏｋａｈｉ株式会社,,株式会社,京都府,相楽郡精華町,大字東畑小字荒内３９番地,,26,366,6190235,,,,,,,2024-06-14,1,,,,,ロカヒ,0
493,2130003009643,新規,0,2024-06-14,2024-06-14,合同会社司,,合同会社,京都府,長岡京市,神足２丁目１８番１号,,26,209,6170833,,,,,,,2024-06-14,1,,,,,ツカサ,0
495,2140001134772,新規,0,2024-06-14,2024-06-14,株式会社ｔｒｅｓ,,株式会社,兵庫県,神戸市灘区,森後町１丁目３番１９号,,28,102,6570028,,,,,,,2024-06-14,1,,,,,トレス,0
496,2140001134830,新規,0,2024-06-14,2024-06-14,空き家有効活用株式会社,,株式会社,兵庫県,神戸市西区,丸塚１丁目２２番１９号,,28,111,6512143,,,,,,,2024-06-14,1,,,,,アキヤユウコウカツヨウ,0
501,2150003003280,新規,0,2024-06-14,2024-06-14,合同会社Ｌｕｓｔｅｒ．,,合同会社,奈良県,生駒市,辻町７５１番地１,00135170,29,209,6300212,,,,,,,2024-06-14,1,,,,,ラスター,0
503,2170001018188,新規,0,2024-06-14,2024-06-14,株式会社カキテック,,株式会社,和歌山県,和歌山市,大谷８４５番地４０,,30,201,6408472,,,,,,,2024-06-14,1,,,,,カキテック,0
512,2180001162002,新規,0,2024-06-14,2024-06-14,株式会社ＣＯＣＯＬｉＥ,,株式会社,愛知県,名古屋市中村区,名駅４丁目２４番５号第２森ビル４０１,,23,105,4500002,,,,,,,2024-06-14,1,,,,,ココリエ,0
513,2180001162010,新規,0,2024-06-14,2024-06-14,ＲＮホールディングス株式会社,,株式会社,愛知県,名古屋市千種区,新西２丁目１５番４号,,23,101,4640003,,,,,,,2024-06-14,1,,,,,アールエヌホールディングス,0
523,2180301038711,新規,0,2024-06-14,2024-06-14,株式会社にしやま,,株式会社,愛知県,豊橋市,中原町字東山９番,,23,201,4413106,,,,,,,2024-06-14,1,,,,,ニシヤマ,0
525,2180305009576,新規,0,2024-06-14,2024-06-14,一般社団法人日本育成アスリートデータバンク協会,,その他の設立登記法人,愛知県,豊田市,聖心町３丁目４０番地１,,23,211,4710844,,,,,,,2024-06-14,1,,,,,ニホンイクセイアスリートデータバンクキョウカイ,0
530,2200001042606,新規,0,2024-06-14,2024-06-14,株式会社いまさと商店,,株式会社,岐阜県,高山市,曙町３丁目６９番地１４,00135188,21,203,5060806,,,,,,,2024-06-14,1,,,,,イマサトショウテン,0
549,2290001106113,新規,0,2024-06-14,2024-06-14,株式会社ｍｏｒｅ　ｃｒｅａｔｅ,,株式会社,福岡県,福津市,日蒔野５丁目２０番地の１８,,40,224,8113209,,,,,,,2024-06-14,1,,,,,モアクリエイト,0
550,2290001106212,新規,0,2024-06-14,2024-06-14,株式会社Ｓｏｏｆ,,株式会社,福岡県,福岡市中央区,天神２丁目２番１２号Ｔ＆Ｊビルディング７Ｆ,,40,133,8100001,,,,,,,2024-06-14,1,,,,,スーフ,0
555,2290801030644,新規,0,2024-06-14,2024-06-14,サンワマテリアルソリューションズ株式会社,,株式会社,福岡県,北九州市戸畑区,牧山５丁目１番２２号,,40,105,8040053,,,,,,,2024-06-14,1,,,,,サンワマテリアルソリューションズ,0
559,2310001019072,新規,0,2024-06-14,2024-06-14,株式会社ＴＮＫ,,株式会社,長崎県,佐世保市,日野町２１３９番地１,,42,202,8580923,,,,,,,2024-06-14,1,,,,,ティーエヌケー,0
560,2320001020541,新規,0,2024-06-14,2024-06-14,株式会社ソラメド,,株式会社,大分県,大分市,にじが丘１丁目１０番地の２,,44,201,8700874,,,,,,,2024-06-14,1,,,,,ソラメド,0
561,2320003004393,新規,0,2024-06-14,2024-06-14,合同会社新和,,合同会社,大分県,大分市,上野丘西２４番２号,,44,201,8700834,,,,,,,2024-06-14,1,,,,,シンワ,0
562,2330001032180,新規,0,2024-06-14,2024-06-14,株式会社セントラルエステート,,株式会社,熊本県,熊本市中央区,帯山３丁目５３番３２－１０２号,,43,101,8620924,,,,,,,2024-06-14,1,,,,,セントラルエステート,0
572,2350003004671,新規,0,2024-06-14,2024-06-14,合同会社ＦＲＥＥ　ＬＩＦＥ,,合同会社,宮崎県,西都市,大字妻１６１９番地２,,45,208,8810033,,,,,,,2024-06-14,1,,,,,フリーライフ,0
574,2360001033812,新規,0,2024-06-14,2024-06-14,株式会社ｐｉｎｏ,,株式会社,沖縄県,沖縄市,泡瀬４丁目２３番２３号２階,,47,211,9042172,,,,,,,2024-06-14,1,,,,,ピノ,0
576,2360003014067,新規,0,2024-06-14,2024-06-14,合同会社みやざとさんち,,合同会社,沖縄県,石垣市,新栄町８番地５,,47,207,9070014,,,,,,,2024-06-14,1,,,,,ミヤザトサンチ,0
582,2370001051400,新規,0,2024-06-14,2024-06-14,株式会社トラストエージェンシー,,株式会社,宮城県,仙台市宮城野区,蒲生１丁目１１３番地の５,,04,102,9830002,,,,,,,2024-06-14,1,,,,,トラストエージェンシー,0
583,2370001051409,新規,0,2024-06-14,2024-06-14,株式会社Ａｒｕｋｕ．,,株式会社,宮城県,仙台市泉区,鶴が丘１丁目１８番地の１９,,04,105,9813109,,,,,,,2024-06-14,1,,,,,アルク,0
584,2370001051417,新規,0,2024-06-14,2024-06-14,株式会社Ｈｅａｌｔｈ　Ｓｅｌｅｃｔｉｏｎ,,株式会社,宮城県,仙台市青葉区,上杉６丁目２番６３－５号,,04,101,9800011,,,,,,,2024-06-14,1,,,,,ヘルスセレクション,0
596,2390001017647,新規,0,2024-06-14,2024-06-14,株式会社機微,,株式会社,山形県,山形市,大字平清水８３番地,,06,201,9902401,,,,,,,2024-06-14,1,,,,,キビ,0
603,2430001092041,新規,0,2024-06-14,2024-06-14,株式会社Ｌｅｔ’ｓ,,株式会社,北海道,札幌市西区,宮の沢四条３丁目１４番１８号,,01,107,0630054,,,,,,,2024-06-14,1,,,,,レッツ,0
605,2430003016452,新規,0,2024-06-14,2024-06-14,合同会社椿,,合同会社,北海道,札幌市白石区,中央二条５丁目１番１１－２０３号,,01,104,0030012,,,,,,,2024-06-14,1,,,,,ツバキ,0
611,2470001020254,新規,0,2024-06-14,2024-06-14,株式会社ビストンネオ,,株式会社,香川県,高松市,東ハゼ町２番地１２,,37,201,7618054,,,,,,,2024-06-14,1,,,,,ビストンネオ,0
619,2700150119105,新規,0,2024-06-14,2024-06-14,ＧＵＡＮＧＤＯＮＧＳＨＥＮＧＦＥＮＧＸＩＮＣＡＩＬＩＡＯＹＯＵＸＩＡＮＧＯＮＧＳＩ,,外国会社等,,,,,,,,ｎａｎｃｈｅｎｇｊｉｅｄａｏｈｕａｎｇｊｉｎｌｕ１ｈａｏｔｉａｎａｎｓｈｕｍａｃｈｅｎｇ　６ｄｏｎｇ３ｄａｎｙｕａｎ４０６ｓｈｉ　ｄｏｎｇｇｕａｎｓｈｉ　ｇｕａｎｇｄｏｎｇｓｈｅｎｇ,,,,,,2024-06-14,1,,,,,グワンドンシュヨンフオンシンツァイリヤオヨウシエンゴンス,0
620,2700150125978,新規,0,2024-06-14,2024-06-14,ＳｈｅｎｚｈｅｎｓｈｉＹｏｕｍａｉｄｅｎｇｓｈｉＹｏｕｘｉａｎｇｏｎｇｓｉ,,外国会社等,,,,,,,,ｈｕａｓｈｅｎｇｈｕｉｓｈａｎｇｙｅｄａｓｈａ７１３　ｂａｏａｎｑｕｘｉｘｉａｎｇｊｉｅｄａｏｙａｎｔｉａｎｓｈｅｑｕｊｉｎｈａｉｌｕ　ｓｈｅｎｚｈｅｎｓｈｉ,,,,,,2024-06-14,1,,,,,シンセンシヨマイデンシユウゲンコウシ,0
621,2700150125986,新規,0,2024-06-14,2024-06-14,Ｓｈｅｎｚｈｅｎｓｈｉｙｕｎｉｎｇｊｉａｊｕｄｅｎｇｓｈｉ　ｙｏｕｘｉａｎｇｏｎｇｓｉ,,外国会社等,,,,,,,,２５８，２６０，２０３　Ｄａｈｅ　Ｒｏａｄ，Ｇｕａｎｃｈｅｎｇ　Ｃｏｍｍｕｎｉｔｙ，Ｇｕａｎｈｕ　Ｓｔｒｅｅｔ，Ｌｏｎｇｈｕａ　Ｄｉｓｔｒｉｃｔ，Ｓｈｅｎｚｈｅｎ　Ｃｉｔｙ，Ｇｕａｎｇｄｏｎｇ　Ｐｒｏｖｉｎｃｅ,,,,,,2024-06-14,1,,,,,シンセンシユニンジャジュデンシユウゲンコウシ,0
622,2700150125994,新規,0,2024-06-14,2024-06-14,ＭＪ　Ｒｅａｌｔｙ　Ｐａｒｔｎｅｒｓ　ＬＬＣ,,外国会社等,,,,,,,,３９２５　Ａｒｃｈｄａｌｅ　Ｒｏａｄ，Ｅｎｃｉｎｏ，ＣＡ　９１４３６，ＵＳＡ,,,,,,2024-06-14,1,,,,,エムジエーリアルテイーパートナーズエルエルシー,0
634,3010001245706,新規,0,2024-06-14,2024-06-14,株式会社Ｏｒｔｈｏｎｉｓｍ,,株式会社,東京都,中央区,銀座１丁目２２番１１号銀座大竹ビジデンス２Ｆ,,13,102,1040061,,,,,,,2024-06-14,1,,,,,オーソニズム,0
635,3010001245722,新規,0,2024-06-14,2024-06-14,株式会社ＢＲＩＤＧＥ,,株式会社,東京都,中央区,日本橋本町３丁目７番９号－３Ｆ,,13,102,1030023,,,,,,,2024-06-14,1,,,,,ブリッジ,0
636,3010001245821,新規,0,2024-06-14,2024-06-14,株式会社ＭＩＮＡＴＯ　ＣＯＭＰＡＮＹ,,株式会社,東京都,千代田区,神田須田町２丁目１９番地１ライオンズフォーシア神田須田町３０１号,,13,101,1010041,,,,,,,2024-06-14,1,,,,,ミナトカンパニー,0
637,3010003044024,新規,0,2024-06-14,2024-06-14,ＹＤＳ合同会社,,合同会社,東京都,中央区,入船２丁目３番７号,,13,102,1040042,,,,,,,2024-06-14,1,,,,,ワイディーエス,0
638,3010003044032,新規,0,2024-06-14,2024-06-14,Ｉｎｖｅｓｔａ　Ｋ合同会社,,合同会社,東京都,中央区,日本橋室町１丁目２－６日本橋大栄ビル７階,,13,102,1030022,,,,,,,2024-06-14,1,,,,,インベスタケイ,0
639,3010003044073,新規,0,2024-06-14,2024-06-14,合同会社ｅＳ‐Ｃｏｕｒｔ,,合同会社,東京都,中央区,銀座１丁目１２－４Ｎ＆ＥＢＬＤ．７階,,13,102,1040061,,,,,,,2024-06-14,1,,,,,エスコート,0
641,3010005038321,新規,0,2024-06-14,2024-06-14,一般社団法人ＷＥ　ＡＴ,,その他の設立登記法人,東京都,文京区,本郷３丁目３６番１０号,,13,105,1130033,,,,,,,2024-06-14,1,,,,,ウィーアット,0
642,3010101016197,新規,0,2024-06-14,2024-06-14,Ｐ．Ｌ．Ｌ株式会社,,株式会社,東京都,八王子市,大和田町６丁目１０番１０号－１０１号,,13,201,1920045,,,,,,,2024-06-14,1,,,,,ピーエルエル,0
653,3010401183118,新規,0,2024-06-14,2024-06-14,株式会社Ｉｎｆｉｎｉｔｅ　Ｖｉｓｉｏｎ,,株式会社,東京都,港区,赤坂２丁目１６番地６号ＢＩＺＭＡＲＫＳ赤坂,,13,103,1070052,,,,,,,2024-06-14,1,,,,,インフィニットヴィジョン,0
654,3010401183126,新規,0,2024-06-14,2024-06-14,株式会社ミックスイン,,株式会社,東京都,港区,赤坂４丁目９番１１－１２０５号,,13,103,1070052,,,,,,,2024-06-14,1,,,,,ミックスイン,0
655,3010401183150,新規,0,2024-06-14,2024-06-14,株式会社ＢＪ,,株式会社,東京都,港区,北青山３丁目５番４０号ｙｃビルＩＩ２階,00135173,13,103,1070061,,,,,,,2024-06-14,1,,,,,ビージェー,0
661,3010403032801,新規,0,2024-06-14,2024-06-14,未来メディア合同会社,,合同会社,東京都,港区,虎ノ門１丁目１７番１号虎ノ門ヒルズビジネスタワー１５階,,13,103,1050001,,,,,,,2024-06-14,1,,,,,ミライメディア,0
669,3010701046131,新規,0,2024-06-14,2024-06-14,株式会社プノントイ,,株式会社,東京都,品川区,西大井１丁目１－２品川区西大井創業支援センター,,13,109,1400015,,,,,,,2024-06-14,1,,,,,プノントイ,0
677,3011001162478,新規,0,2024-06-14,2024-06-14,株式会社アモールホールディングス,,株式会社,東京都,渋谷区,千駄ヶ谷２丁目６番１０号,,13,113,1510051,,,,,,,2024-06-14,1,,,,,アモールホールディングス,0
678,3011001162610,新規,0,2024-06-14,2024-06-14,株式会社ＵＮＯ　Ｓｈｏｊｉ,,株式会社,東京都,渋谷区,千駄ヶ谷３丁目３番１８号原宿ハウス１０２,,13,113,1510051,,,,,,,2024-06-14,1,,,,,ウノショウジ,0
679,3011001162635,新規,0,2024-06-14,2024-06-14,株式会社ゴールドラッシュ,,株式会社,東京都,渋谷区,東３丁目１５番５号ＡＹビル３階,,13,113,1500011,,,,,,,2024-06-14,1,,,,,ゴールドラッシュ,0
680,3011001162800,新規,0,2024-06-14,2024-06-14,株式会社Ｌｅｇａｌ　Ｃｏｎｓｕｌｔｉｎｇ,,株式会社,東京都,目黒区,柿の木坂２丁目９番１８号,,13,110,1520022,,,,,,,2024-06-14,1,,,,,リーガルコンサルティング,0
682,3011101107696,新規,0,2024-06-14,2024-06-14,ＲＴＳマネジメント株式会社,,株式会社,東京都,新宿区,矢来町７７番地１,,13,104,1620805,,,,,,,2024-06-14,1,,,,,アールティーエスマネジメント,0
683,3011101107721,新規,0,2024-06-14,2024-06-14,ＢＥＡＵＭＯＲＥ株式会社,,株式会社,東京都,新宿区,百人町２丁目１３番１３号Ｊハウス２０１,,13,104,1690073,,,,,,,2024-06-14,1,,,,,ビューモーア,0
689,3011703003871,新規,0,2024-06-14,2024-06-14,ＮＩＴ合同会社,,合同会社,東京都,江戸川区,東松本１丁目１０番９号コンフォート１－２０２,,13,123,1330071,,,,,,,2024-06-14,1,,,,,ニイツマシンヤ,0
691,3011801044363,新規,0,2024-06-14,2024-06-14,株式会社金興,,株式会社,東京都,足立区,西新井本町４丁目２番１０－３０１号,,13,121,1230845,,,,,,,2024-06-14,1,,,,,キンキョウ,0
692,3011801044371,新規,0,2024-06-14,2024-06-14,ＯＺスクエア株式会社,,株式会社,東京都,足立区,鹿浜１丁目１９番１２号,,13,121,1230864,,,,,,,2024-06-14,1,,,,,オズスクエア,0
695,3012301013957,新規,0,2024-06-14,2024-06-14,株式会社リバティーダイニング,,株式会社,東京都,町田市,中町１丁目１６－１４太陽中町ビル３Ｆ,,13,209,1940021,,,,,,,2024-06-14,1,,,,,リバティーダイニング,0
707,3021001082493,新規,0,2024-06-14,2024-06-14,株式会社ＫＦＯ,,株式会社,神奈川県,茅ヶ崎市,幸町１６番４号,,14,207,2530052,,,,,,,2024-06-14,1,,,,,ケイエフオー,0
708,3021001082510,新規,0,2024-06-14,2024-06-14,株式会社Ｄｗｏｒｋｓ,,株式会社,神奈川県,秦野市,戸川５６１番地の１３,,14,211,2591306,,,,,,,2024-06-14,1,,,,,ディーワークス,0
710,3021003014635,新規,0,2024-06-14,2024-06-14,合同会社Ｆｒｅｓｈ,,合同会社,神奈川県,小田原市,飯泉１２４４番地の１２,,14,206,2500863,,,,,,,2024-06-14,1,,,,,フレッシュ,0
711,3021003014643,新規,0,2024-06-14,2024-06-14,緑乃合同会社,,合同会社,神奈川県,厚木市,幸町５－６,,14,212,2430012,,,,,,,2024-06-14,1,,,,,ミドリノ,0
718,3030001160936,新規,0,2024-06-14,2024-06-14,株式会社こしき屋,,株式会社,埼玉県,上尾市,大字小敷谷７９７番地５,,11,219,3620064,,,,,,,2024-06-14,1,,,,,コシキヤ,0
719,3030001160952,新規,0,2024-06-14,2024-06-14,株式会社ＭＡＯＭＡＯ,,株式会社,埼玉県,新座市,野火止４丁目１番５－５１０号,,11,230,3520011,,,,,,,2024-06-14,1,,,,,マオマオ,0
723,3030003024420,新規,0,2024-06-14,2024-06-14,合同会社メタスキリング,,合同会社,埼玉県,さいたま市大宮区,下町３丁目７番地１Ｆ２４０８号,,11,103,3300844,,,,,,,2024-06-14,1,,,,,メタスキリング,0
728,3040001134006,新規,0,2024-06-14,2024-06-14,株式会社ＰＯＬＩＳＭ,,株式会社,千葉県,船橋市,本郷町６６０ライオンズ西船橋プレミアＦ１３０５,,12,204,2730033,,,,,,,2024-06-14,1,,,,,ポリズム,0
737,3050001054905,新規,0,2024-06-14,2024-06-14,株式会社ストーン吉岡,,株式会社,茨城県,桜川市,曽根３８２番地１,,08,231,3091462,,,,,,,2024-06-14,1,,,,,ストーンヨシオカ,0
738,3050001054938,新規,0,2024-06-14,2024-06-14,株式会社トライ,,株式会社,茨城県,水戸市,白梅２丁目３番８号ステイ白梅１０１号室,,08,201,3100804,,,,,,,2024-06-14,1,,,,,トライ,0
754,3080403005032,新規,0,2024-06-14,2024-06-14,スナップミー合同会社,,合同会社,静岡県,浜松市中央区,神原町１０５５番地の９,,22,138,4328007,,,,,,,2024-06-14,1,,,,,スナップミー,0
760,3100003007608,新規,0,2024-06-14,2024-06-14,合同会社ユニバーサルシナジー,,合同会社,長野県,飯田市,鼎名古熊２５３２番地１３,,20,205,3950804,,,,,,,2024-06-14,1,,,,,ユニバーサルシナジー,0
762,3110001038488,新規,0,2024-06-14,2024-06-14,株式会社畠山左官,,株式会社,新潟県,新潟市北区,浦ノ入１４４５番地,,15,101,9503305,,,,,,,2024-06-14,1,,,,,ハタケヤマサカン,0
779,3120001265924,新規,0,2024-06-14,2024-06-14,株式会社ＳＴ,,株式会社,大阪府,大阪市西淀川区,姫島１丁目１８番１９号カマタハイツ２Ｄ,,27,113,5550033,,,,,,,2024-06-14,1,,,,,エスティー,0
784,3120003026829,新規,0,2024-06-14,2024-06-14,合同会社ＬＩＦＥ　ＳＵＰＰＯＲＴ,,合同会社,大阪府,大阪市浪速区,元町３丁目１２番２４－７０３号,,27,111,5560016,,,,,,,2024-06-14,1,,,,,ライフサポート,0
785,3120003026837,新規,0,2024-06-14,2024-06-14,Ａ＆Ｔ　ＴＲＡＤＩＮＧ　ＪＡＰＡＮ合同会社,,合同会社,大阪府,大阪市西淀川区,大和田４丁目１５番２１号メモンリバーサイドＢ０２号室,,27,113,5550032,,,,,,,2024-06-14,1,,,,,エーアンドティートレーディングジャパン,0
786,3120003026845,新規,0,2024-06-14,2024-06-14,つくばインディＵＳＡ合同会社,,合同会社,大阪府,大阪市北区,堂島１丁目１番５号関電不動産梅田新道ビルＢ２Ｆ,,27,127,5300003,,,,,,,2024-06-14,1,,,,,ツクバインディユーエスエー,0
794,3122003002909,新規,0,2024-06-14,2024-06-14,合同会社ＳＯＲＩＮＡコンサルティング,,合同会社,大阪府,大東市,深野１丁目２－１８,,27,218,5740072,,,,,,,2024-06-14,1,,,,,ソリナコンサルティング,0
803,3130001077229,新規,0,2024-06-14,2024-06-14,株式会社小倉工業,,株式会社,京都府,京都市伏見区,醍醐槇ノ内町４０番地１８,,26,109,6011337,,,,,,,2024-06-14,1,,,,,オグラコウギョウ,0
804,3130001077286,新規,0,2024-06-14,2024-06-14,株式会社三宅建装,,株式会社,京都府,京都市山科区,東野中井ノ上町７－３４,,26,110,6078142,,,,,,,2024-06-14,1,,,,,ミヤケケンソウ,0
805,3130001077294,新規,0,2024-06-14,2024-06-14,株式会社ＯＲＳＡ,,株式会社,京都府,京都市伏見区,桃山町本多上野９番地１０,,26,109,6128027,,,,,,,2024-06-14,1,,,,,オルサ,0
806,3130001077303,新規,0,2024-06-14,2024-06-14,拓生建設株式会社,,株式会社,京都府,城陽市,平川西六反４２番地の１８,,26,207,6100101,,,,,,,2024-06-14,1,,,,,タクショウケンセツ,0
807,3130003009642,新規,0,2024-06-14,2024-06-14,合同会社ＩＴ,,合同会社,京都府,京田辺市,大住責谷７４番地３４,,26,211,6100343,,,,,,,2024-06-14,1,,,,,アイティー,0
811,3140001134796,新規,0,2024-06-14,2024-06-14,株式会社ＳＨＩＲＡＳＡＧＩエンターテインメント,,株式会社,兵庫県,姫路市,勝原区熊見３８３番地,,28,201,6711211,,,,,,,2024-06-14,1,,,,,シラサギエンターテインメント,0
819,3170001018187,新規,0,2024-06-14,2024-06-14,リンクブリッジ株式会社,,株式会社,和歌山県,和歌山市,本町１丁目４３番地,,30,201,6408033,,,,,,,2024-06-14,1,,,,,リンクブリッジ,0
824,3180001162026,新規,0,2024-06-14,2024-06-14,アイリンロジスティック株式会社,,株式会社,愛知県,名古屋市北区,水草町１丁目３４番地,,23,103,4620042,,,,,,,2024-06-14,1,,,,,アイリンロジスティック,0
834,3180301038719,新規,0,2024-06-14,2024-06-14,株式会社悟空,,株式会社,愛知県,安城市,住吉町３丁目１番１２号エムズシティ新安城ブランシエラ１４１１,,23,212,4460072,,,,,,,2024-06-14,1,,,,,ゴクウ,0
835,3180301038735,新規,0,2024-06-14,2024-06-14,株式会社ＲＢ,,株式会社,愛知県,西尾市,米津町蔵屋敷１９番地１,,23,213,4450802,,,,,,,2024-06-14,1,,,,,アールビー,0
845,3200001042605,新規,0,2024-06-14,2024-06-14,株式会社ミファミレミュージック,,株式会社,岐阜県,岐阜市,松ケ枝町３番地ｌｉｖｅ　ｃｏｕｒｔ　ｍｏｕｒｉ５０３,,21,201,5008016,,,,,,,2024-06-14,1,,,,,ミファミレミュージック,0
846,3210001019791,新規,0,2024-06-14,2024-06-14,株式会社スタフィロ,,株式会社,福井県,福井市,西谷２丁目２８０３番地５,,18,201,9188023,,,,,,,2024-06-14,1,,,,,スタフィロ,0
867,3290001106194,新規,0,2024-06-14,2024-06-14,株式会社ＤＡＡ,,株式会社,福岡県,福岡市中央区,港１丁目４番２２号,,40,133,8100075,,,,,,,2024-06-14,1,,,,,ディーエーエー,0
870,3290801030643,新規,0,2024-06-14,2024-06-14,株式会社Ｋ‐Ｍ　ｅｎｇｉｎｅｅｒｉｎｇ,,株式会社,福岡県,北九州市戸畑区,南鳥旗町３番１０号,,40,105,8040074,,,,,,,2024-06-14,1,,,,,ケイエムエンジニアリング,0
875,3300001013793,新規,0,2024-06-14,2024-06-14,株式会社Ｔｏｕｇｈ　Ｏｃｅａｎ,,株式会社,佐賀県,神埼市,神埼町田道ヶ里２２８４番地１１,,41,210,8420002,,,,,,,2024-06-14,1,,,,,タフオーシャン,0
878,3310001019063,新規,0,2024-06-14,2024-06-14,株式会社Ｈ＆Ｊ企画,,株式会社,長崎県,大村市,原口町１０７１番地１－１０２号,,42,205,8560811,,,,,,,2024-06-14,1,,,,,エイチアンドジェイキカク,0
879,3310003004807,新規,0,2024-06-14,2024-06-14,悦皓実業合同会社,,合同会社,長崎県,佐世保市,吉岡町１７９２番地９５,,42,202,8570143,,,,,,,2024-06-14,1,,,,,ユエハオジツギョウ,0
880,3320001020524,新規,0,2024-06-14,2024-06-14,株式会社Ｂｅｅ,,株式会社,大分県,大分市,岩田町３丁目１０番１８号エルエーベース３０１,,44,201,8700936,,,,,,,2024-06-14,1,,,,,ビー,0
883,3330005010801,新規,0,2024-06-14,2024-06-14,熊本市清掃事業協同組合,,その他の設立登記法人,熊本県,熊本市南区,近見９丁目１０番５０号,,43,104,8614101,,,,,,,2024-06-14,1,,,,,クマモトシセイソウ,0
888,3370001051424,新規,0,2024-06-14,2024-06-14,株式会社新敬,,株式会社,宮城県,仙台市泉区,黒松２丁目１番１５号Ｂ,,04,105,9818006,,,,,,,2024-06-14,1,,,,,シンケイ,0
891,3380001034592,新規,0,2024-06-14,2024-06-14,教励工業株式会社,,株式会社,福島県,伊達市,一本杉１９番地４,,07,213,9600421,,,,,,,2024-06-14,1,,,,,キョウレイコウギョウ,0
898,3400003003287,新規,0,2024-06-14,2024-06-14,合同会社ＮＥＯ,,合同会社,岩手県,盛岡市,中野２丁目１０番６号,,03,201,0200816,,,,,,,2024-06-14,1,,,,,ネオ,0
906,3440001009456,新規,0,2024-06-14,2024-06-14,株式会社ＧＲＯＷ,,株式会社,北海道,函館市,本町３２番７号,,01,202,0400011,,,,,,,2024-06-14,1,,,,,グロウ,0
911,3480001012514,新規,0,2024-06-14,2024-06-14,株式会社ＬＡＭＰＴＯＷＮ,,株式会社,徳島県,徳島市,津田本町４丁目２―６１,,36,201,7708003,,,,,,,2024-06-14,1,,,,,ランプタウン,0
913,3500001025686,新規,0,2024-06-14,2024-06-14,株式会社有貴総業,,株式会社,愛媛県,松山市,森松町４８８番地,,38,201,7911113,,,,,,,2024-06-14,1,,,,,ユウキソウギョウ,0
914,3500003003260,新規,0,2024-06-14,2024-06-14,合同会社真英総業,,合同会社,愛媛県,四国中央市,村松町２４０番地１イートハーブＩＩＩ１０１号,00135168,38,213,7990401,,,,,,,2024-06-14,1,,,,,シンエイソウギョウ,0
916,3700150125977,新規,0,2024-06-14,2024-06-14,Ｓｈｅｎｚｈｅｎ　Ｂｏｒｕｉｍｉｎｇ　Ｅ－Ｃｏｍｍｅｒｃｅ　Ｃｏ．，Ｌｔｄ,,外国会社等,,,,,,,,ＬｏｎｇＧａｎｇＱｕ　ＢａｎＴｉａｎＪｉｅＤａｏ　ＢｕＬｏｎｇＬｕ　ＹｉＸｉａｎｇ　１３　Ｈａｏ　９　Ｌｏｕ　９０３，Ｓｈｅｎｚｈｅｎ,,,,,,2024-06-14,1,,,,,シンセンボルイミンイーコマースカンパニーリミテッド,0
917,3700150125985,新規,0,2024-06-14,2024-06-14,Ｓｈｅｎｚｈｅｎ　Ｖｉｍｔａｇ　Ｔｅｃｈｎｏｌｏｇｙ　Ｃｏ．，Ｌｔｄ．,,外国会社等,,,,,,,,ｎａｎｓｈａｎｑｕｘｉｌｉｊｉｅｄａｏ　ｘｉｌｉｓｈｅｑｕ　ｄａｓｈｉｙｉｌｕ　ｓｈｅｎｚｈｅｎｇｕｏｊｉｃｈｕａｎｇｘｉｎｇｕ（ｗａｎｋｅｙｕｎｃｈｅｎｇ１ｑｉ７ｄｏｎｇ）１ｄｏｎｇＡｚｕｏ７０１　Ｙａｎｆａｙｏｎｇｆａｎｇ　Ｓｈｅｎｚｈｅｎ　Ｇｕａｎｇｄｏｎｇ　ＣＮ,,,,,,2024-06-14,1,,,,,シンセンヴィムタグテクノロジーカンパニーリミテッド,0
918,3700150125993,新規,0,2024-06-14,2024-06-14,中材精密軸承有限公司,,外国会社等,大阪府,大阪市生野区,巽中４丁目１２番１４号,,27,116,5440013,中華人民共和国山東省＿博市高新区裕民路１２２号,00135183,,,,,2024-06-14,1,,,,,チユウザイセイミツジクシヨウユウゲンコウシ,0
933,4010001245746,新規,0,2024-06-14,2024-06-14,ＬｕｍｉｎａＢｌｕｅ株式会社,,株式会社,東京都,文京区,千石４丁目１４番９号,,13,105,1120011,,,,,,,2024-06-14,1,,,,,ルミナブルー,0
937,4010003044064,新規,0,2024-06-14,2024-06-14,Ｒｕｂｉｃｏｎ　Ｔｅｃｈｎｉｃａｌ　Ｓｅｒｖｉｃｅｓ　Ｊａｐａｎ合同会社,,合同会社,東京都,千代田区,神田須田町１丁目１４－１,,13,101,1010041,,,,,,,2024-06-14,1,,,,,ルビコンテクニカルサービシスジャパン,0
938,4010005038411,新規,0,2024-06-14,2024-06-14,一般社団法人睡眠時無呼吸症候群に打ち克つための患者の会,,その他の設立登記法人,東京都,中央区,築地２丁目２番８号Ｍ．Ｂａｌａｎｃｅ＋ＧｉｎｚａＥａｓｔ５Ｆ,,13,102,1040045,,,,,,,2024-06-14,1,,,,,スイミンジムコキュウショウコウグンニウチカツタメノカンジャノカイ,0
945,4010401183067,新規,0,2024-06-14,2024-06-14,株式会社ＡＲＡＢ　ＰＬＡＮＥＴ,,株式会社,東京都,港区,虎ノ門３丁目１８番６号朝日虎ノ門マンション６１４号室,,13,103,1050001,,,,,,,2024-06-14,1,,,,,アラブプラネット,0
947,4010403032809,新規,0,2024-06-14,2024-06-14,合同会社ＡＴＡＹＣ,,合同会社,東京都,港区,南青山２丁目２－１５,,13,103,1070062,,,,,,,2024-06-14,1,,,,,アタユック,0
948,4010501052460,新規,0,2024-06-14,2024-06-14,Ｂｅｌｌ株式会社,,株式会社,東京都,台東区,上野６丁目１番６号御徒町グリーンハイツ１００５号,,13,106,1100005,,,,,,,2024-06-14,1,,,,,ベル,0
949,4010601065338,新規,0,2024-06-14,2024-06-14,株式会社光泉電設,,株式会社,東京都,墨田区,本所４丁目１７番２号ＪＫハイム９０２号室,,13,107,1300004,,,,,,,2024-06-14,1,,,,,コウセンデンセツ,0
950,4010601065362,新規,0,2024-06-14,2024-06-14,株式会社泰成,,株式会社,東京都,江東区,東雲１丁目９番４１－３８１１,,13,108,1350062,,,,,,,2024-06-14,1,,,,,タイセイ,0
968,4011003019295,新規,0,2024-06-14,2024-06-14,合同会社インフルコマース,,合同会社,東京都,渋谷区,恵比寿南１丁目１１―１０プラウド恵比寿南６０１,,13,113,1500022,,,,,,,2024-06-14,1,,,,,インフルコマース,0
973,4011101107704,新規,0,2024-06-14,2024-06-14,耀釧株式会社,,株式会社,東京都,新宿区,高田馬場４丁目１８－９ハイシティー高田馬場７０２,,13,104,1690075,,,,,,,2024-06-14,1,,,,,ヨウセン,0
974,4011101107720,新規,0,2024-06-14,2024-06-14,宝之玲株式会社,,株式会社,東京都,新宿区,北新宿４丁目４－１３ストーク北新宿４１０室,,13,104,1690074,,,,,,,2024-06-14,1,,,,,タカラノレイ,0
975,4011101107737,新規,0,2024-06-14,2024-06-14,株式会社ｍｉｓｔｏ,,株式会社,東京都,新宿区,西新宿３丁目３番１３号西新宿水間ビル２Ｆ,,13,104,1600023,,,,,,,2024-06-14,1,,,,,ミスト,0
979,4011203004411,新規,0,2024-06-14,2024-06-14,合同会社ＹＵＲＩ,,合同会社,東京都,中野区,弥生町３丁目１番９号フェリスシャンテ２０１,,13,114,1640013,,,,,,,2024-06-14,1,,,,,ユウリ,0
986,4011701027376,新規,0,2024-06-14,2024-06-14,株式会社Ｈ‐ｄｅｓｉｇｎ,,株式会社,東京都,江戸川区,松島３丁目３４番７－５０６号パールロイヤルＹＵＫＩ,,13,123,1320031,,,,,,,2024-06-14,1,,,,,アッシュデザイン,0
991,4011801044379,新規,0,2024-06-14,2024-06-14,尚美株式会社,,株式会社,東京都,足立区,栗原３丁目２６番１号２Ｆ,,13,121,1230842,,,,,,,2024-06-14,1,,,,,ショウビ,0
993,4011803006286,新規,0,2024-06-14,2024-06-14,合同会社ＭｉｌｅＵ,,合同会社,東京都,葛飾区,新小岩１丁目５５－２ＬｉｆｅＩＩ－４０４,00135189,13,122,1240024,,,,,,,2024-06-14,1,,,,,マイルユー,0
1012,4021005013130,新規,0,2024-06-14,2024-06-14,一般社団法人ＥＢＯＳＨＩ　Ｒｕｇｂｙ　Ｃｌｕｂ,,その他の設立登記法人,神奈川県,茅ヶ崎市,東海岸北４丁目５番５６－２０５号,,14,207,2530053,,,,,,,2024-06-14,1,,,,,エボシラグビークラブ,0
1017,4030001160951,新規,0,2024-06-14,2024-06-14,エイバック株式会社,,株式会社,埼玉県,春日部市,備後東３丁目２０番１号スターブルマンション春日部１０３,,11,214,3440032,,,,,,,2024-06-14,1,,,,,エイバック,0
1029,4040001134079,新規,0,2024-06-14,2024-06-14,株式会社ＣＬＡＮ,,株式会社,千葉県,松戸市,栄町６丁目４３３番地の２３,,12,207,2710062,,,,,,,2024-06-14,1,,,,,クラン,0
1030,4040001134087,新規,0,2024-06-14,2024-06-14,ドリームライツ株式会社,,株式会社,千葉県,富津市,青木１４７４番地１,,12,226,2930012,,,,,,,2024-06-14,1,,,,,ドリームライツ,0
1031,4040001134104,新規,0,2024-06-14,2024-06-14,株式会社ＢＯＢＴＡＩＬ,,株式会社,千葉県,佐倉市,中志津２丁目３９番１号,,12,212,2850843,,,,,,,2024-06-14,1,,,,,ボブテイル,0
1033,4040003025185,新規,0,2024-06-14,2024-06-14,合同会社リバイバー,,合同会社,千葉県,市川市,東国分１丁目２５－２,,12,203,2720833,,,,,,,2024-06-14,1,,,,,リバイバー,0
1034,4040003025219,新規,0,2024-06-14,2024-06-14,合同会社ＨＡＤＡＳＨ,,合同会社,千葉県,市川市,大洲３丁目１６番１オーベル市川２１０,,12,203,2720032,,,,,,,2024-06-14,1,,,,,ハダッシュ,0
1036,4050001054945,新規,0,2024-06-14,2024-06-14,株式会社スマイルレンタカー,,株式会社,茨城県,鉾田市,大戸５００,,08,234,3111502,,,,,,,2024-06-14,1,,,,,スマイルレンタカー,0
1037,4050003008461,新規,0,2024-06-14,2024-06-14,Ａ．Ｈ．ＳＨＵＶＲＯ合同会社,,合同会社,茨城県,猿島郡境町,１１５５－１００,,08,546,3060433,,,,,,,2024-06-14,1,,,,,エーエイチシュブロ,0
1039,4060003005111,新規,0,2024-06-14,2024-06-14,Ｂｈａｔｔｉ　Ｔｒａｄｉｎｇ合同会社,,合同会社,栃木県,河内郡上三川町,大字磯岡３４番地１１,,09,301,3290606,,,,,,,2024-06-14,1,,,,,バティトレーディング,0
1043,4080003003229,新規,0,2024-06-14,2024-06-14,ＤＨＭＯ合同会社,,合同会社,静岡県,静岡市葵区,平和１丁目２番９－１０号,,22,101,4200876,,,,,,,2024-06-14,1,,,,,ディーエイチエムオー,0
1046,4080101024820,新規,0,2024-06-14,2024-06-14,株式会社ＢＲＡＮＤ　ＬＩＦＥ,,株式会社,静岡県,富士市,比奈１６４３番地の１,,22,210,4170847,,,,,,,2024-06-14,1,,,,,ブランドライフ,0
1048,4090001018764,新規,0,2024-06-14,2024-06-14,株式会社松土興業,,株式会社,山梨県,甲府市,上曽根町１７２５番地１,,19,201,4001501,,,,,,,2024-06-14,1,,,,,マツドコウギョウ,0
1049,4100001037564,新規,0,2024-06-14,2024-06-14,株式会社安強,,株式会社,長野県,松本市,開智２丁目３番５２号３階,,20,202,3900876,,,,,,,2024-06-14,1,,,,,アンキョウ,0
1050,4100003007607,新規,0,2024-06-14,2024-06-14,合同会社クラルス,,合同会社,長野県,松本市,寿北３丁目１１番８号,,20,202,3990011,,,,,,,2024-06-14,1,,,,,クラルス,0
1053,4110003005428,新規,0,2024-06-14,2024-06-14,合同会社ＩＧＵＡＬＩＤＡＤ,,合同会社,新潟県,村上市,肴町４番４号サニーハウス１０１,,15,212,9580864,,,,,,,2024-06-14,1,,,,,イグアリダ,0
1071,4120001265857,新規,0,2024-06-14,2024-06-14,株式会社Ｆｕｎｔｉｖｅ,,株式会社,大阪府,大阪市北区,梅田１丁目２番２号大阪駅前第２ビル１２－１２,,27,127,5300001,,,,,,,2024-06-14,1,,,,,ファンティブ,0
1072,4120001265907,新規,0,2024-06-14,2024-06-14,恒順株式会社,,株式会社,大阪府,大阪市中央区,高津１丁目１０番１４－４０１号,,27,128,5420072,,,,,,,2024-06-14,1,,,,,コウジュン,0
1073,4120001265923,新規,0,2024-06-14,2024-06-14,磁愛株式会社,,株式会社,大阪府,大阪市東成区,大今里西３丁目１５番４号,,27,115,5370014,,,,,,,2024-06-14,1,,,,,ジアイ,0
1076,4120003026828,新規,0,2024-06-14,2024-06-14,合同会社ｅＮＥＴ　ＷＯＲＫ,,合同会社,大阪府,大阪市浪速区,元町３丁目１２番２４－７０３号,,27,111,5560016,,,,,,,2024-06-14,1,,,,,イーネットワークス,0
1077,4120003026844,新規,0,2024-06-14,2024-06-14,名宮合同会社,,合同会社,大阪府,大阪市東成区,東中本３丁目２０番２２号関西マンション１０７号室,,27,115,5370021,,,,,,,2024-06-14,1,,,,,メイキュウ,0
1079,4120005024375,新規,0,2024-06-14,2024-06-14,一般財団法人りせら財団,,その他の設立登記法人,大阪府,大阪市中央区,谷町２丁目３番地１号,,27,128,5400012,,,,,,,2024-06-14,1,,,,,リセラザイダン,0
1085,4120903005220,新規,0,2024-06-14,2024-06-14,ワイマークス合同会社,,合同会社,大阪府,箕面市,石丸３丁目２５Ｅ－４０２,,27,220,5620027,,,,,,,2024-06-14,1,,,,,ワイマークス,0
1091,4130001077277,新規,0,2024-06-14,2024-06-14,株式会社Ｒｅｇａｌｏ,,株式会社,京都府,長岡京市,井ノ内南内畑１１番地１４,,26,209,6170813,,,,,,,2024-06-14,1,,,,,レガロ,0
1092,4130001077285,新規,0,2024-06-14,2024-06-14,Ｕ株式会社,,株式会社,京都府,城陽市,富野南清水７６番地の２４,,26,207,6100111,,,,,,,2024-06-14,1,,,,,ユー,0
1094,4130003009641,新規,0,2024-06-14,2024-06-14,日本調和合同会社,,合同会社,京都府,相楽郡南山城村,大字田山小字シヲデ６番地丙,,26,367,6191421,,,,,,,2024-06-14,1,,,,,ニホンチョウワ,0
1100,4140001134795,新規,0,2024-06-14,2024-06-14,株式会社桜．すまいる,,株式会社,兵庫県,尼崎市,武庫川町４丁目９８番地の１６,,28,202,6600084,,,,,,,2024-06-14,1,,,,,サクラスマイル,0
1101,4140003020721,新規,0,2024-06-14,2024-06-14,合同会社正起総合サービス,,合同会社,兵庫県,加古郡稲美町,下草谷４４１番地の１２７,,28,381,6751101,,,,,,,2024-06-14,1,,,,,ショウキソウゴウサービス,0
1110,4180001161992,新規,0,2024-06-14,2024-06-14,株式会社ＪＭ　ＫＡＷＡＺＵ,,株式会社,愛知県,名古屋市港区,宝神４丁目２２１番地,,23,111,4550832,,,,,,,2024-06-14,1,,,,,ジェイエムカワズ,0
1112,4180003026938,新規,0,2024-06-14,2024-06-14,合同会社フリーダム,,合同会社,愛知県,名古屋市東区,泉２丁目２２番２０号ｉｚｕｍｉ４０５号,,23,102,4610001,,,,,,,2024-06-14,1,,,,,フリーダム,0
1117,4190001031419,新規,0,2024-06-14,2024-06-14,株式会社藤,,株式会社,三重県,桑名郡木曽岬町,大字西対海地３０番地,,24,303,4980807,,,,,,,2024-06-14,1,,,,,フジ,0
1121,4200005013634,新規,0,2024-06-14,2024-06-14,農事組合法人楡俣,,その他の設立登記法人,岐阜県,安八郡輪之内町,楡俣１６４３番地の４,,21,382,5030201,,,,,,,2024-06-14,1,,,,,ニレマタ,0
1122,4210001019790,新規,0,2024-06-14,2024-06-14,株式会社Ｒ．Ｂ．Ｊａｐａｎ,,株式会社,福井県,坂井市,三国町池上第９７号１１７番地,,18,210,9130001,,,,,,,2024-06-14,1,,,,,アールビージャパン,0
1123,4220003003767,新規,0,2024-06-14,2024-06-14,合同会社フリースタイル,,合同会社,石川県,鳳珠郡穴水町,字大町は２４番地,,17,461,9270026,,,,,,,2024-06-14,1,,,,,フリースタイル,0
1129,4240001063381,新規,0,2024-06-14,2024-06-14,株式会社ウエストヒル,,株式会社,広島県,三原市,宮沖１丁目７番１０号,,34,204,7230016,,,,,,,2024-06-14,1,,,,,ウエストヒル,0
1140,4290001106111,新規,0,2024-06-14,2024-06-14,マイスターズ株式会社,,株式会社,福岡県,福岡市中央区,今泉１丁目１３番１１号,,40,133,8100021,,,,,,,2024-06-14,1,,,,,マイスターズ,0
1141,4290003015442,新規,0,2024-06-14,2024-06-14,合同会社ちとせや,,合同会社,福岡県,久留米市,山川町１６５０番地,,40,203,8390817,,,,,,,2024-06-14,1,,,,,チトセヤ,0
1149,4320005010165,新規,0,2024-06-14,2024-06-14,医療法人Ｓｍｉｌｅ,,その他の設立登記法人,大分県,臼杵市,大字臼杵字浜２ノ１０７番７２０,,44,206,8750041,,,,,,,2024-06-14,1,,,,,スマイル,0
1150,4330001032170,新規,0,2024-06-14,2024-06-14,株式会社ＴＨＲＥＥ　ＡＲＲＯＷＳ,,株式会社,熊本県,八代市,鏡町野崎３５４番地４,,43,202,8694205,,,,,,,2024-06-14,1,,,,,スリーアローズ,0
1167,4400001016678,新規,0,2024-06-14,2024-06-14,ＭＯＧ株式会社,,株式会社,岩手県,九戸郡軽米町,大字上舘第４０地割４番地１,,03,501,0286301,,,,,,,2024-06-14,1,,,,,モグ,0
1174,4430003016459,新規,0,2024-06-14,2024-06-14,合同会社アトレ,,合同会社,北海道,札幌市北区,篠路二条４丁目７番２２号,,01,102,0028022,,,,,,,2024-06-14,1,,,,,アトレ,0
1177,4460103001630,新規,0,2024-06-14,2024-06-14,合同会社グローアップ,,合同会社,北海道,帯広市,東六条南１０丁目１７番地,,01,207,0800806,,,,,,,2024-06-14,1,,,,,グローアップ,0
1178,4460303000829,新規,0,2024-06-14,2024-06-14,合同会社ミルク工房ＭｉｌＲｉｃｈ,,合同会社,北海道,常呂郡置戸町,字安住３２２番地の８,,01,550,0991251,,,,,,,2024-06-14,1,,,,,ミルクコウボウミルリッチ,0
1188,4500001025693,新規,0,2024-06-14,2024-06-14,株式会社ＤＲＡＦＴ,,株式会社,愛媛県,新居浜市,船木甲２０７０番地の３,,38,205,7920856,,,,,,,2024-06-14,1,,,,,ドラフト,0
1190,4700150118889,新規,0,2024-06-14,2024-06-14,ＰＵ　ＴＩＡＮ　ＳＨＩ　ＳＥＮ　ＲＵＩ　ＴＩ　ＭＡＯ　ＹＩ　ＹＯＵ　ＸＩＡＮ　ＧＯＮＧ　ＳＩ,,外国会社等,,,,,,,,Ｒｏｏｍ　１１０２，Ｌａｄｄｅｒ　１，Ｂｕｉｌｄｉｎｇ　８，Ｙｕｈｕ　Ｚｈｅｎｇｒｏｎｇ，Ｌｉｃｈｅｎｇ，Ｐｕｔｉａｎ　Ｆｕｊｉａｎ,,,,,,2024-06-14,1,,,,,プゥティエンシセンゥルイシマオイヨウシエンゴンス,0
1191,4700150125976,新規,0,2024-06-14,2024-06-14,ｓｈｅｎｚｈｅｎｓｈｉｃｈｅｎｇｈａｎｇｇｕｏｊｉｗｕｌｉｕｙｏｕｘｉａｎｇｏｎｇｓｉ,,外国会社等,,,,,,,,３０，９／Ｆ，Ｂｕｉｌｄｉｎｇ　３，Ｈｅｊｉａｎ　Ｙｕｎｇｕ，Ｎｏ．８，Ｘｉｎｗａｎｇ　Ｒｏａｄ，Ｘｉｎｓｈｅｎｇ　Ｃｏｍｍｕｎｉｔｙ，Ｌｏｎｇｇａｎｇ　Ｓｔｒｅｅｔ，Ｌｏｎｇｇａｎｇ　Ｄｉｓｔｒｉｃｔ　ｓｈｅｎｚｈｅｎｓｈｉ,,,,,,2024-06-14,1,,,,,シンセンシチェンハングオジウリュユウゲンコウシ,0
1192,4700150125984,新規,0,2024-06-14,2024-06-14,ｚｈｅｎｇｚｈｏｕｃｈａｏｍｅｉｚｈｉｚａｏｗａｎｇｌｕｏｋｅｊｉ　ｙｏｕｘｉａｎｇｏｎｇｓｉ,,外国会社等,,,,,,,,Ｊｉｎｓｈｕｉｑｕｗｅｉｌａｉｌｕｊｉｅｄａｏ　ｍｉｎｈａｎｇｌｕ２２ｈａｏ　１０ｈａｏｌｏｕ１ｄａｎｙｕａｎ５ｈａｏ　Ｚｈｅｎｇｚｈｏｕ　Ｈｅｎａｎ　ＣＮ,,,,,,2024-06-14,1,,,,,ゼンゾウチョウビチゾウワンロウカギユウゲンコウシ,0
1193,4700150125992,新規,0,2024-06-14,2024-06-14,ＡＲＯＭＡ３６０　ＬＬＣ,,外国会社等,,,,,,,,２０５８　ＮＷ　ＭＩＡＭＩ　ＣＴ．，ＭＩＡＭＩ，ＦＬ　３３１２７,,,,,,2024-06-14,1,,,,,アロマサンビヤクロクジユウゴウドウカイシヤ,0
1207,5010001245737,新規,0,2024-06-14,2024-06-14,株式会社エムエスエス,,株式会社,東京都,中央区,銀座６丁目６番１号銀座風月堂ビル５Ｆ,,13,102,1040061,,,,,,,2024-06-14,1,,,,,エムエスエス,0
1208,5010001245828,新規,0,2024-06-14,2024-06-14,株式会社Ｂｅｓｔ　ｓｅｌｆ,,株式会社,東京都,千代田区,富士見１丁目３－１１富士見デュープレックスＢ’ｓ４Ｆ,,13,101,1020071,,,,,,,2024-06-14,1,,,,,ベストセルフ,0
1213,5010003044055,新規,0,2024-06-14,2024-06-14,キノジ合同会社,,合同会社,東京都,中央区,銀座１丁目１２－４Ｎ＆ＥＢＬＤ．７階,,13,102,1040061,,,,,,,2024-06-14,1,,,,,キノジ,0
1220,5010401182968,新規,0,2024-06-14,2024-06-14,株式会社Ａｔｒｕｓｔ,,株式会社,東京都,港区,白金台５丁目１５番５号トゥワインデール２階,,13,103,1080071,,,,,,,2024-06-14,1,,,,,アットラスト,0
1221,5010401183033,新規,0,2024-06-14,2024-06-14,Ｂ‐ＬＩＦＥ株式会社,,株式会社,東京都,港区,南青山１丁目１番１号,,13,103,1070062,,,,,,,2024-06-14,1,,,,,ビーライフ,0
1222,5010401183116,新規,0,2024-06-14,2024-06-14,ファストチェック株式会社,,株式会社,東京都,港区,芝浦４丁目１６番３１－５０４号,,13,103,1080023,,,,,,,2024-06-14,1,,,,,ファストチェック,0
1226,5010403032816,新規,0,2024-06-14,2024-06-14,合同会社ＩＳＭ１,,合同会社,東京都,港区,西新橋１丁目２番９号メンターキャピタル税理士法人内,,13,103,1050003,,,,,,,2024-06-14,1,,,,,イズムワン,0
1227,5010403032832,新規,0,2024-06-14,2024-06-14,合同会社清流企画,,合同会社,東京都,港区,六本木５丁目１７番１４号,,13,103,1060032,,,,,,,2024-06-14,1,,,,,セイリュウキカク,0
1229,5010405023334,新規,0,2024-06-14,2024-06-14,一般社団法人ＩＳＭ１,,その他の設立登記法人,東京都,港区,西新橋１丁目２番９号メンターキャピタル税理士法人内,,13,103,1050003,,,,,,,2024-06-14,1,,,,,イズムワン,0
1234,5010703007220,新規,0,2024-06-14,2024-06-14,ＴＭＳコンサル合同会社,,合同会社,東京都,品川区,旗の台４丁目７番１０号,,13,109,1420064,,,,,,,2024-06-14,1,,,,,ティーエムエスコンサル,0
1235,5010705003639,新規,0,2024-06-14,2024-06-14,一般社団法人Ｌｕｃａｓ,,その他の設立登記法人,東京都,品川区,上大崎２丁目１８番３号レジディア目黒地下１階,,13,109,1410021,,,,,,,2024-06-14,1,,,,,ルーカス,0
1239,5010901055459,新規,0,2024-06-14,2024-06-14,株式会社ＡＣＳ,,株式会社,東京都,世田谷区,宇奈根２丁目６番８－３０４号,,13,112,1570068,,,,,,,2024-06-14,1,,,,,エーシーズ,0
1240,5010901055483,新規,0,2024-06-14,2024-06-14,ＦＪＨ株式会社,,株式会社,東京都,世田谷区,世田谷１丁目４１番２号,,13,112,1540017,,,,,,,2024-06-14,1,,,,,エフジェイエイチ,0
1241,5010903009149,新規,0,2024-06-14,2024-06-14,合同会社ＴＬＣ,,合同会社,東京都,世田谷区,北沢２丁目２７番９号ユープレイス下北沢５０４,,13,112,1550031,,,,,,,2024-06-14,1,,,,,ティーエルシー,0
1256,5011005010557,新規,0,2024-06-14,2024-06-14,一般社団法人真正日本の会,,その他の設立登記法人,東京都,渋谷区,神宮前４丁目１３番２号ＨＡＰ表参道ビル,,13,113,1500001,,,,,,,2024-06-14,1,,,,,シンセイニホンノカイ,0
1258,5011101107694,新規,0,2024-06-14,2024-06-14,株式会社リルキアホールディングス,,株式会社,東京都,新宿区,西新宿７丁目７番地３３号新銘ビル４階,,13,104,1600023,,,,,,,2024-06-14,1,,,,,リルキアホールディングス,0
1259,5011101107703,新規,0,2024-06-14,2024-06-14,株式会社ＳＨＩＮＯＤＡ,,株式会社,東京都,新宿区,下落合４丁目１９番１２号,,13,104,1610033,,,,,,,2024-06-14,1,,,,,シノダ,0
1260,5011101107711,新規,0,2024-06-14,2024-06-14,株式会社日本創生基盤,,株式会社,東京都,新宿区,西新宿７丁目１番７号,,13,104,1600023,,,,,,,2024-06-14,1,,,,,ニホンソウセイキバン,0
1261,5011103014542,新規,0,2024-06-14,2024-06-14,ＨＹＳＫ　Ｔｒａｄｉｎｇ合同会社,,合同会社,東京都,新宿区,西新宿３丁目５番１２号,,13,104,1600023,,,,,,,2024-06-14,1,,,,,エイチワイエスケートレーディング,0
1262,5011103014559,新規,0,2024-06-14,2024-06-14,合同会社ＫＫ,,合同会社,東京都,新宿区,西新宿３丁目３番１３号西新宿水間ビル６階,,13,104,1600023,,,,,,,2024-06-14,1,,,,,ケイケイ,0
1263,5011203004410,新規,0,2024-06-14,2024-06-14,タカオアセット合同会社,,合同会社,東京都,中野区,大和町１丁目６番９号レクシオシティ高円寺２０２,,13,114,1650034,,,,,,,2024-06-14,1,,,,,タカオアセット,0
1276,5012301013947,新規,0,2024-06-14,2024-06-14,株式会社Ｍ＆Ｋ,,株式会社,東京都,町田市,旭町２丁目１３番地６号,,13,209,1940023,,,,,,,2024-06-14,1,,,,,エムアンドケー,0
1277,5012401041996,新規,0,2024-06-14,2024-06-14,ことらべる株式会社,,株式会社,東京都,三鷹市,上連雀１丁目１２－１７三鷹ビジネスパークＢ１Ｆ,,13,204,1810012,,,,,,,2024-06-14,1,,,,,コトラベル,0
1278,5012405005007,新規,0,2024-06-14,2024-06-14,ＳＯＭＡ東京,,その他の設立登記法人,東京都,府中市,栄町２丁目１０－２６エイトビル３Ｆ,,13,206,1830051,,,,,,,2024-06-14,1,,,,,ソマトウキョウ,0
1279,5013101009441,新規,0,2024-06-14,2024-06-14,株式会社ＡＬＡＷＡＹ,,株式会社,東京都,福生市,武蔵野台１丁目４番地３６,,13,218,1970013,,,,,,,2024-06-14,1,,,,,,0
1290,5021003014591,新規,0,2024-06-14,2024-06-14,合同会社サキガケ,,合同会社,神奈川県,鎌倉市,腰越１丁目１番１５号,,14,204,2480033,,,,,,,2024-06-14,1,,,,,サキガケ,0
1294,5030001160934,新規,0,2024-06-14,2024-06-14,株式会社美建工業,,株式会社,埼玉県,新座市,野火止８丁目２４番８号,,11,230,3520011,,,,,,,2024-06-14,1,,,,,ビケンコウギョウ,0
1295,5030001160975,新規,0,2024-06-14,2024-06-14,株式会社ＲＩＳＥ,,株式会社,埼玉県,さいたま市緑区,道祖土２丁目２１－２,,11,109,3360907,,,,,,,2024-06-14,1,,,,,ライズ,0
1302,5030003024476,新規,0,2024-06-14,2024-06-14,金龍合同会社,,合同会社,埼玉県,吉川市,吉川２丁目３６番地９,,11,243,3420055,,,,,,,2024-06-14,1,,,,,キンリュウ,0
1304,5030005021728,新規,0,2024-06-14,2024-06-14,ＮＰＯ法人フロム・ザ・スリードット,,その他の設立登記法人,埼玉県,狭山市,広瀬東２丁目３９番３０号広瀬ハウスＡ－２０２,,11,215,3501320,,,,,,,2024-06-14,1,,,,,フロムザスリードット,0
1313,5040001134078,新規,0,2024-06-14,2024-06-14,株式会社備前興産,,株式会社,千葉県,流山市,南流山６丁目２０番地の３３,,12,220,2700163,,,,,,,2024-06-14,1,,,,,ビゼンコウサン,0
1314,5040001134103,新規,0,2024-06-14,2024-06-14,株式会社シルト,,株式会社,千葉県,八千代市,緑が丘西１丁目４－４－６２４号室,,12,221,2760040,,,,,,,2024-06-14,1,,,,,シルト,0
1322,5040003025201,新規,0,2024-06-14,2024-06-14,合同会社原田商事,,合同会社,千葉県,袖ケ浦市,横田２６１６番地,,12,229,2990236,,,,,,,2024-06-14,1,,,,,ハラダショウジ,0
1323,5040003025218,新規,0,2024-06-14,2024-06-14,合同会社わくわくワークス,,合同会社,千葉県,館山市,川名６７８番地,,12,205,2940057,,,,,,,2024-06-14,1,,,,,ワクワクワークス,0
1325,5050003008436,新規,0,2024-06-14,2024-06-14,合同会社大成商事,,合同会社,茨城県,つくば市,谷田部２２８６－１,,08,220,3050861,,,,,,,2024-06-14,1,,,,,タイセイショウジ,0
1326,5050003008452,新規,0,2024-06-14,2024-06-14,合同会社Ｒｅｚｅｌ,,合同会社,茨城県,つくば市,篠崎４４５－１グランドパレスＮＳ－５・２１８号室,,08,220,3003264,,,,,,,2024-06-14,1,,,,,レゼル,0
1328,5060001037205,新規,0,2024-06-14,2024-06-14,ＷＥＬＣＯＭＥ株式会社,,株式会社,栃木県,芳賀郡市貝町,大字市塙１７１２番地,,09,344,3213423,,,,,,,2024-06-14,1,,,,,ウェルカム,0
1333,5070001041874,新規,0,2024-06-14,2024-06-14,株式会社山口エクステリア,,株式会社,群馬県,前橋市,上泉町３８番地１,,10,201,3710007,,,,,,,2024-06-14,1,,,,,ヤマグチエクステリア,0
1334,5070001041882,新規,0,2024-06-14,2024-06-14,株式会社Ｒｅｅｓｔ,,株式会社,群馬県,太田市,飯田町１２６７,,10,205,3730851,,,,,,,2024-06-14,1,,,,,リースト,0
1336,5080001026346,新規,0,2024-06-14,2024-06-14,株式会社静岡Ｎａｖｉサービス,,株式会社,静岡県,静岡市葵区,常磐町１丁目４番地の３玄南トキワビル４階,,22,101,4200034,,,,,,,2024-06-14,1,,,,,シズオカナビサービス,0
1337,5080003003228,新規,0,2024-06-14,2024-06-14,合同会社サクシード,,合同会社,静岡県,静岡市駿河区,宮本町９番２５－５０３号,,22,102,4228065,,,,,,,2024-06-14,1,,,,,サクシード,0
1338,5080005007615,新規,0,2024-06-14,2024-06-14,一般社団法人ＤＯ　ｌａｂ．,,その他の設立登記法人,静岡県,焼津市,石津２２５０番地の１８,,22,212,4250041,,,,,,,2024-06-14,1,,,,,ドゥラボ,0
1346,5080405007644,新規,0,2024-06-14,2024-06-14,農事組合法人水谷農園,,その他の設立登記法人,静岡県,浜松市中央区,上新屋町２４６－８,,22,138,4350053,,,,,,,2024-06-14,1,,,,,ミズタニノウエン,0
1350,5100001037514,新規,0,2024-06-14,2024-06-14,新野株式会社,,株式会社,長野県,千曲市,大字森２１２２号Ｂ号,,20,218,3870005,,,,,,,2024-06-14,1,,,,,シンノ,0
1351,5100001037555,新規,0,2024-06-14,2024-06-14,株式会社チェントット,,株式会社,長野県,上水内郡信濃町,大字柏原２８９６番地,,20,583,3891305,,,,,,,2024-06-14,1,,,,,チェントット,0
1352,5100003007606,新規,0,2024-06-14,2024-06-14,合同会社ワイマル,,合同会社,長野県,北安曇郡池田町,大字会染６１１２番地９１,,20,481,3998602,,,,,,,2024-06-14,1,,,,,ワイマル,0
1356,5110003005419,新規,0,2024-06-14,2024-06-14,ゲートエッジ合同会社,,合同会社,新潟県,上越市,石橋２丁目１１番２８号エレガントＢ２０２,,15,222,9420074,,,,,,,2024-06-14,1,,,,,ゲートエッジ,0
1357,5110003005427,新規,0,2024-06-14,2024-06-14,大同装建合同会社,,合同会社,新潟県,新潟市東区,神明町７番２３号,,15,102,9500045,,,,,,,2024-06-14,1,,,,,ダイドウソウケン,0
1367,5120001265740,新規,0,2024-06-14,2024-06-14,樽坊株式会社,,株式会社,大阪府,大阪市中央区,谷町６丁目４番２７号,,27,128,5420012,,,,,,,2024-06-14,1,,,,,タルボウ,0
1368,5120001265889,新規,0,2024-06-14,2024-06-14,ｉＴａＤａＫｉ株式会社,,株式会社,大阪府,大阪市中央区,難波５丁目１－６０なんばスカイオ２７Ｆ,,27,128,5420076,,,,,,,2024-06-14,1,,,,,イタダキ,0
1369,5120001265914,新規,0,2024-06-14,2024-06-14,株式会社渥美コーポレーション,,株式会社,大阪府,大阪市西成区,山王３丁目１６番７号,,27,122,5570001,,,,,,,2024-06-14,1,,,,,アツミコーポレーション,0
1370,5120001265922,新規,0,2024-06-14,2024-06-14,智慧科技発展株式会社,,株式会社,大阪府,大阪市港区,市岡元町１丁目６番１１－７０６号室,,27,107,5520002,,,,,,,2024-06-14,1,,,,,チケイカギハッテン,0
1371,5120003026835,新規,0,2024-06-14,2024-06-14,合同会社スプートニック,,合同会社,大阪府,大阪市中央区,難波千日前１５００番地３,,27,128,5420075,,,,,,,2024-06-14,1,,,,,スプートニック,0
1379,5120103005887,新規,0,2024-06-14,2024-06-14,山城合同会社,,合同会社,大阪府,泉佐野市,湊４丁目４－２２－２０１号,,27,213,5980063,,,,,,,2024-06-14,1,,,,,ヤマジロ,0
1380,5120901049284,新規,0,2024-06-14,2024-06-14,三矢建設株式会社,,株式会社,大阪府,豊中市,上津島３丁目１１番１３－３０５号,,27,203,5610843,,,,,,,2024-06-14,1,,,,,ミツヤケンセツ,0
1384,5122001038192,新規,0,2024-06-14,2024-06-14,株式会社フジイ,,株式会社,大阪府,大東市,扇町３番３号,,27,218,5740033,,,,,,,2024-06-14,1,,,,,フジイ,0
1389,5130001077301,新規,0,2024-06-14,2024-06-14,優尼可株式会社,,株式会社,京都府,京都市東山区,月輪町９６－８－２Ｆ,,26,105,6050854,,,,,,,2024-06-14,1,,,,,ユウアマカ,0
1394,5140001134828,新規,0,2024-06-14,2024-06-14,株式会社あにまーと,,株式会社,兵庫県,加古川市,神野町石守５１３番地の１４８,,28,210,6750005,,,,,,,2024-06-14,1,,,,,アニマート,0
1399,5150001027345,新規,0,2024-06-14,2024-06-14,株式会社ＮＩＩＮ,,株式会社,奈良県,香芝市,高山台３丁目１番３号,,29,210,6390256,,,,,,,2024-06-14,1,,,,,ニーン,0
1409,5180001161942,新規,0,2024-06-14,2024-06-14,株式会社飄堂,,株式会社,愛知県,半田市,花園町１丁目２０番地の６,,23,205,4750833,,,,,,,2024-06-14,1,,,,,ヒョウドウ,0
1410,5180001162008,新規,0,2024-06-14,2024-06-14,株式会社サプリアイエス,,株式会社,愛知県,名古屋市中村区,名駅南２丁目７番８号ＮＡＧＯＹＡ　ｔｈｅ　ＴＯＷＥＲ４１０２号,,23,105,4500003,,,,,,,2024-06-14,1,,,,,サプリアイエス,0
1411,5180001162040,新規,0,2024-06-14,2024-06-14,ダイリュー株式会社,,株式会社,愛知県,名古屋市北区,新堀町１９番地の１,,23,103,4620801,,,,,,,2024-06-14,1,,,,,ダイリュー,0
1413,5180003026961,新規,0,2024-06-14,2024-06-14,合同会社ＡＩＤＡ,,合同会社,愛知県,名古屋市中村区,名楽町１丁目２３番地,,23,105,4530024,,,,,,,2024-06-14,1,,,,,アイダ,0
1420,5190001031401,新規,0,2024-06-14,2024-06-14,株式会社ヤマムラ設備,,株式会社,三重県,桑名市,大字森忠８２４番地７,,24,205,5110943,,,,,,,2024-06-14,1,,,,,ヤマムラセツビ,0
1434,5250003003516,新規,0,2024-06-14,2024-06-14,合同会社Ｌｏｇｉｃｃａ,,合同会社,山口県,下関市,山の田東町２番３２－７０３号ハイクレスト山の田,,35,201,7510834,,,,,,,2024-06-14,1,,,,,ロジッカ,0
1440,5260003004793,新規,0,2024-06-14,2024-06-14,合同会社まめ,,合同会社,岡山県,倉敷市,茶屋町２１３０番地１１,,33,202,7101101,,,,,,,2024-06-14,1,,,,,マメ,0
1446,5290001106110,新規,0,2024-06-14,2024-06-14,株式会社福岡価値研究所,,株式会社,福岡県,福岡市中央区,薬院１丁目１６番８－１２０５号,,40,133,8100022,,,,,,,2024-06-14,1,,,,,フクオカカチケンキュウジョ,0
1447,5290001106176,新規,0,2024-06-14,2024-06-14,ＪＰ　ＡＫＩＲＡ株式会社,,株式会社,福岡県,福岡市中央区,地行３丁目１６番１２－１０６号クラシオン地行,,40,133,8100064,,,,,,,2024-06-14,1,,,,,ジェイピーアキラ,0
1457,5320001020539,新規,0,2024-06-14,2024-06-14,Ａｓａｎｔｈａ　Ｍｏｒｎｉｎｇ　Ｓｔａｒ株式会社,,株式会社,大分県,別府市,石垣東８丁目１番３６号,,44,202,8740919,,,,,,,2024-06-14,1,,,,,アサンタモーニングスター,0
1458,5320003004390,新規,0,2024-06-14,2024-06-14,合同会社呉大企画,,合同会社,大分県,大分市,大字中尾１０３６番地の９,,44,201,8700862,,,,,,,2024-06-14,1,,,,,ゴダイキカク,0
1459,5330001032178,新規,0,2024-06-14,2024-06-14,株式会社ＭＫエステート,,株式会社,熊本県,宇城市,不知火町御領３３５－１渡辺ビル１０１号室,,43,213,8690551,,,,,,,2024-06-14,1,,,,,エムケーエステート,0
1467,5350001019017,新規,0,2024-06-14,2024-06-14,株式会社ウエダ,,株式会社,宮崎県,宮崎市,小戸町８２番地１,,45,201,8800857,,,,,,,2024-06-14,1,,,,,ウエダ,0
1495,5470001020251,新規,0,2024-06-14,2024-06-14,株式会社トラノコ,,株式会社,香川県,高松市,香川町大野２０８６－３,,37,201,7611701,,,,,,,2024-06-14,1,,,,,トラノコ,0
1496,5470003002660,新規,0,2024-06-14,2024-06-14,合同会社ぐっすりん,,合同会社,香川県,高松市,香川町浅野２１２６番地３２,,37,201,7611703,,,,,,,2024-06-14,1,,,,,グッスリン,0
1501,5700150125975,新規,0,2024-06-14,2024-06-14,ｈｅｚｈｏｕｓｈｉｅｒｊｉａｙｉｑｉｃｈｅｘｉａｏｓｈｏｕｙｏｕｘｉａｎｇｏｎｇｓｉ,,外国会社等,,,,,,,,ｈｅ　ｗａｎｇ　ｌｕ　ｄｏｎｇ　ｃｅ　ｈｅ　ｚｈｏｕ　ｓｈｉ,,,,,,2024-06-14,1,,,,,ヘシュウシエルジャイチチェシャオショウユウゲンコウシ,0
1502,5700150125983,新規,0,2024-06-14,2024-06-14,Ｘｉａｍｅｎ　ＢＢＤ　Ｖｉｃｔｏｒｉａ　Ｅ－ｃｏｍｍｅｒｃｅ　Ｃｏ．，Ｌｔｄ．,,外国会社等,,,,,,,,Ｒｏｏｍ　３０２Ｂ，Ｎｏ．１６，Ｗａｎｇｈａｉ　Ｒｏａｄ，Ｓｏｆｔｗａｒｅ　Ｐａｒｋ　Ｐｈａｓｅ　ＩＩ，Ｘｉａｍｅｎ,00135144,,,,,2024-06-14,1,,,,,シャメンビービーディービクトリアイーコマースカンパニーリミテッド,0
1503,5700150125991,新規,0,2024-06-14,2024-06-14,ＨＯＴＥＬ　ＣＯＬＬＥＣＴＩＯＮ　ＬＬＣ,,外国会社等,,,,,,,,２０５８　ＮＷ　ＭＩＡＭＩ　ＣＴ．，ＭＩＡＭＩ，ＦＬ　３３１２７,,,,,,2024-06-14,1,,,,,ホテルコレクシヨンゴウドウカイシヤ,0
1518,6010001245711,新規,0,2024-06-14,2024-06-14,ＥＶＥＲ　ＴＲＥＮＤ株式会社,,株式会社,東京都,中央区,入船２丁目３番７号,,13,102,1040042,,,,,,,2024-06-14,1,,,,,エバートレンド,0
1519,6010001245728,新規,0,2024-06-14,2024-06-14,株式会社ドリームファンズ,,株式会社,東京都,千代田区,神田小川町１丁目８－１４神田新宮嶋ビル４０１,,13,101,1010052,,,,,,,2024-06-14,1,,,,,ドリームファンズ,0
1520,6010001245777,新規,0,2024-06-14,2024-06-14,康楽バイオテクノロジー株式会社,,株式会社,東京都,千代田区,外神田５丁目２番２号セイキ第１ビル６階,,13,101,1010021,,,,,,,2024-06-14,1,,,,,コウラクバイオテクノロジー,0
1521,6010001245802,新規,0,2024-06-14,2024-06-14,株式会社Ａｓ　ｉｓ,,株式会社,東京都,文京区,湯島３丁目３３番４号５Ｆ,,13,105,1130034,,,,,,,2024-06-14,1,,,,,アズイズ,0
1523,6010005038401,新規,0,2024-06-14,2024-06-14,行政書士法人中村事務所,,その他の設立登記法人,東京都,中央区,京橋２丁目８番１１号京橋北見ビル２階,,13,102,1040031,,,,,,,2024-06-14,1,,,,,ナカムラジムショ,0
1524,6010005038426,新規,0,2024-06-14,2024-06-14,一般社団法人首都圏レジ開発ファイブ,,その他の設立登記法人,東京都,千代田区,平河町１丁目６番１５号シルスフィア会計事務所内,,13,101,1020093,,,,,,,2024-06-14,1,,,,,シュトケンレジカイハツファイブ,0
1531,6010401183073,新規,0,2024-06-14,2024-06-14,株式会社ＡＲＥＳ,,株式会社,東京都,港区,南青山３丁目１番３６号青山丸竹ビル６Ｆ,,13,103,1070062,,,,,,,2024-06-14,1,,,,,アレース,0
1532,6010401183172,新規,0,2024-06-14,2024-06-14,ＡＳＡ　Ｐｌａｔｆｏｒｍ株式会社,,株式会社,東京都,港区,虎ノ門２丁目１０番４号,,13,103,1050001,,,,,,,2024-06-14,1,,,,,エーエスエープラットフォーム,0
1542,6010501052459,新規,0,2024-06-14,2024-06-14,禅ＷＡＧＹＵ株式会社,,株式会社,東京都,台東区,浅草１丁目３６番２号,,13,106,1110032,,,,,,,2024-06-14,1,,,,,ゼンワギュウ,0
1544,6010503007485,新規,0,2024-06-14,2024-06-14,合同会社フィールド,,合同会社,東京都,台東区,入谷１丁目５番３号,,13,106,1100013,,,,,,,2024-06-14,1,,,,,フィールド,0
1546,6010701046129,新規,0,2024-06-14,2024-06-14,株式会社トゥルー・グリット,,株式会社,東京都,品川区,平塚２丁目６番２号ブルーシャトー戸越１０３,,13,109,1420051,,,,,,,2024-06-14,1,,,,,トゥルーグリット,0
1549,6010901055466,新規,0,2024-06-14,2024-06-14,トムトム株式会社,,株式会社,東京都,世田谷区,弦巻５丁目８番１２号,,13,112,1540016,,,,,,,2024-06-14,1,,,,,トムトム,0
1550,6010903009148,新規,0,2024-06-14,2024-06-14,合同会社シュシュ,,合同会社,東京都,世田谷区,岡本３丁目３６番５－２０５号,,13,112,1570076,,,,,,,2024-06-14,1,,,,,シュシュ,0
1551,6010905004626,新規,0,2024-06-14,2024-06-14,一般社団法人赤ちゃんラボ５．０,,その他の設立登記法人,東京都,世田谷区,駒沢３丁目１番３号シャトレー駒沢１００３,,13,112,1540012,,,,,,,2024-06-14,1,,,,,アカチャンラボゴテンゼロ,0
1557,6011001162657,新規,0,2024-06-14,2024-06-14,株式会社ＴＡＭＡＣ,,株式会社,東京都,渋谷区,千駄ヶ谷５丁目１６番１６号千駄ヶ谷フラワーマンション１Ｆ路面,,13,113,1510051,,,,,,,2024-06-14,1,,,,,タマシー,0
1559,6011005010548,新規,0,2024-06-14,2024-06-14,弁護士法人Ｕ＆ＰＡＲＴＮＥＲＳ法律事務所,,その他の設立登記法人,東京都,渋谷区,神南１丁目５番１３号ルート神南ビル４階,,13,113,1500041,,,,,,,2024-06-14,1,,,,,,0
1563,6011101107636,新規,0,2024-06-14,2024-06-14,株式会社三井リフォーム,,株式会社,東京都,新宿区,西新宿３丁目３番１３号西新宿水間ビル２Ｆ,,13,104,1600023,,,,,,,2024-06-14,1,,,,,ミツイリフォーム,0
1564,6011101107702,新規,0,2024-06-14,2024-06-14,株式会社グラスハープ,,株式会社,東京都,新宿区,高田馬場３丁目３０番７号福寿館２０６,,13,104,1690075,,,,,,,2024-06-14,1,,,,,グラスハープ,0
1565,6011101107710,新規,0,2024-06-14,2024-06-14,株式会社ＱＵＯＮ,,株式会社,東京都,新宿区,高田馬場１丁目３１番１６号,,13,104,1690075,,,,,,,2024-06-14,1,,,,,クオン,0
1566,6011101107719,新規,0,2024-06-14,2024-06-14,株式会社イルカＳｏｆｔ,,株式会社,東京都,新宿区,西新宿７丁目２１番９号,,13,104,1600023,,,,,,,2024-06-14,1,,,,,イルカソフト,0
1567,6011101107727,新規,0,2024-06-14,2024-06-14,株式会社ｕｎｆａｃｔ,,株式会社,東京都,新宿区,西新宿３丁目３番１３号西新宿水間ビル６階,,13,104,1600023,,,,,,,2024-06-14,1,,,,,アンファクト,0
1569,6011103014541,新規,0,2024-06-14,2024-06-14,Ｍｏｕｓｓｅ　Ｃｏｎｓｕｌｔｉｎｇ合同会社,,合同会社,東京都,新宿区,新宿７丁目１２番１号新宿平和ビル１階,,13,104,1600022,,,,,,,2024-06-14,1,,,,,ムースコンサルティング,0
1570,6011105011058,新規,0,2024-06-14,2024-06-14,一般社団法人勿忘草日本,,その他の設立登記法人,東京都,新宿区,大久保２丁目１番８号,,13,104,1690072,,,,,,,2024-06-14,1,,,,,ムルマンチョジャパン,0
1572,6011201025556,新規,0,2024-06-14,2024-06-14,株式会社栗原商店,,株式会社,東京都,中野区,野方１丁目２２番１１号,,13,114,1650027,,,,,,,2024-06-14,1,,,,,クリハラショウテン,0
1578,6011501030801,新規,0,2024-06-14,2024-06-14,株式会社銀松,,株式会社,東京都,荒川区,東尾久２丁目２番９号三祥ビル２１０,,13,118,1160012,,,,,,,2024-06-14,1,,,,,ギンマツ,0
1579,6011501030818,新規,0,2024-06-14,2024-06-14,株式会社Ｅｎｉｓｈｉｅｎｔ,,株式会社,東京都,荒川区,西尾久６丁目６番９号レオネクストレジデント西尾久３０２,,13,118,1160011,,,,,,,2024-06-14,1,,,,,エニシェント,0
1588,6011803006284,新規,0,2024-06-14,2024-06-14,合同会社Ｓａｌｏｎ　Ａｇａｌｉｃｏ,,合同会社,東京都,足立区,千住２丁目５０番地１グランフラッツ北千住２０７,,13,121,1200034,,,,,,,2024-06-14,1,,,,,サロンアガリコ,0
1590,6012301013954,新規,0,2024-06-14,2024-06-14,株式会社Ａ＆Ｍ,,株式会社,東京都,町田市,金森２丁目２５番１１号,,13,209,1940012,,,,,,,2024-06-14,1,,,,,エーアンドエム,0
1592,6012803003429,新規,0,2024-06-14,2024-06-14,ＢｅａｃｏｎＬｉｎｋ合同会社,,合同会社,東京都,日野市,南平１丁目１０の１２６,,13,212,1910041,,,,,,,2024-06-14,1,,,,,ビーコンリンク,0
1593,6013101009440,新規,0,2024-06-14,2024-06-14,株式会社ＬｏｖｅＴｈｒｅｅ,,株式会社,東京都,青梅市,千ヶ瀬町１丁目１番地の７－３０１,,13,205,1980043,,,,,,,2024-06-14,1,,,,,ラブスリー,0
1611,6020005016447,新規,0,2024-06-14,2024-06-14,一般社団法人関内大通り公園エリア商店会,,その他の設立登記法人,神奈川県,横浜市中区,伊勢佐木町６丁目１４３番地８,,14,104,2310045,,,,,,,2024-06-14,1,,,,,,0
1613,6021001082524,新規,0,2024-06-14,2024-06-14,株式会社真我,,株式会社,神奈川県,相模原市南区,相模台２丁目２番２号ガーデンビルＩＩ３階フェルゴ内,00135190,14,153,2520321,,,,,,,2024-06-14,1,,,,,シンガ,0
1619,6021005013129,新規,0,2024-06-14,2024-06-14,一般社団法人新湘南ウェルビーイング協議会準備会,,その他の設立登記法人,神奈川県,藤沢市,村岡東２丁目２６番地１湘南ヘルスイノベーションパーク内,,14,205,2510012,,,,,,,2024-06-14,1,,,,,シンショウナンウェルビーイングキョウギカイジュンビカイ,0
1624,6040001134069,新規,0,2024-06-14,2024-06-14,Ｙ’ｓ　Ｔｒａｎｓｐｏｒｔ株式会社,,株式会社,千葉県,東金市,御門３３２番地２,,12,213,2830024,,,,,,,2024-06-14,1,,,,,ワイズトランスポート,0
1625,6040001134093,新規,0,2024-06-14,2024-06-14,株式会社シーエイチビーフードジャパン,,株式会社,千葉県,松戸市,小金清志町３丁目４３－５－２０２号室,,12,207,2700016,,,,,,,2024-06-14,1,,,,,シーエイチビーフードジャパン,0
1627,6040003025217,新規,0,2024-06-14,2024-06-14,ＳＡＴＯ技建合同会社,,合同会社,千葉県,千葉市稲毛区,稲毛３丁目５番５号メゾンブルーム１０５号,,12,103,2630034,,,,,,,2024-06-14,1,,,,,サトウギケン,0
1628,6040003025225,新規,0,2024-06-14,2024-06-14,合同会社ｇｒａｎｇｅａ,,合同会社,千葉県,柏市,大室１４９９－１０９,,12,217,2770813,,,,,,,2024-06-14,1,,,,,グランジア,0
1632,6050003008393,新規,0,2024-06-14,2024-06-14,合同会社ＫＳＴＹＬＥ,,合同会社,茨城県,古河市,諸川１９０５番地５８,,08,204,3060126,,,,,,,2024-06-14,1,,,,,ケイスタイル,0
1640,6080101024819,新規,0,2024-06-14,2024-06-14,株式会社リプルス,,株式会社,静岡県,沼津市,東椎路１７３３番地の６４,,22,203,4100302,,,,,,,2024-06-14,1,,,,,リプルス,0
1641,6080401027257,新規,0,2024-06-14,2024-06-14,東海建築コンサルタント株式会社,,株式会社,静岡県,浜松市浜名区,中条３７３番地の２,,22,139,4340043,,,,,,,2024-06-14,1,,,,,トウカイケンチクコンサルタント,0
1642,6080405007643,新規,0,2024-06-14,2024-06-14,農事組合法人水谷ファーム,,その他の設立登記法人,静岡県,浜松市中央区,上新屋町２４６－８,,22,138,4350053,,,,,,,2024-06-14,1,,,,,ミズタニファーム,0
1647,6100001037562,新規,0,2024-06-14,2024-06-14,株式会社偉田,,株式会社,長野県,長野市,大字川合新田３７０番地４２１,,20,201,3800913,,,,,,,2024-06-14,1,,,,,エイデン,0
1650,6100003007605,新規,0,2024-06-14,2024-06-14,エクシード合同会社,,合同会社,長野県,諏訪郡下諏訪町,５０３５番地２,,20,361,3930000,,,,,,,2024-06-14,1,,,,,エクシード,0
1663,6120001265888,新規,0,2024-06-14,2024-06-14,雲尚株式会社,,株式会社,大阪府,大阪市生野区,新今里６丁目５番７－３０３号,,27,116,5440001,,,,,,,2024-06-14,1,,,,,ウンショウ,0
1664,6120001265921,新規,0,2024-06-14,2024-06-14,株式会社ユーケイ,,株式会社,大阪府,大阪市中央区,谷町３丁目２番２号,,27,128,5400012,,,,,,,2024-06-14,1,,,,,ユーケイ,0
1668,6120003026834,新規,0,2024-06-14,2024-06-14,リライ合同会社,,合同会社,大阪府,大阪市浪速区,難波中３丁目５番１２－４号,,27,111,5560011,,,,,,,2024-06-14,1,,,,,リライ,0
1669,6120003026842,新規,0,2024-06-14,2024-06-14,合同会社ＳｕｃｃｅｓｓＦｉｅｌｄ,,合同会社,大阪府,大阪市中央区,南船場３丁目２番２２号おおきに南船場ビル２０５,,27,128,5420081,,,,,,,2024-06-14,1,,,,,サクセスフィールド,0
1670,6120003026850,新規,0,2024-06-14,2024-06-14,合同会社愛結び,,合同会社,大阪府,大阪市西成区,萩之茶屋３丁目６－９ハイツえなみＩＩＡ号室,00135187,27,122,5570004,,,,,,,2024-06-14,1,,,,,アイムスビ,0
1673,6120101069768,新規,0,2024-06-14,2024-06-14,株式会社辻建装,00135180,株式会社,大阪府,藤井寺市,林２丁目１０番１６号,,27,226,5830007,,,,,,,2024-06-14,1,,,,,ツジケンソウ,0
1675,6120105009869,新規,0,2024-06-14,2024-06-14,一般社団法人みんなの正しい金融知識,,その他の設立登記法人,大阪府,松原市,柴垣１丁目２２番１１号,,27,217,5800017,,,,,,,2024-06-14,1,,,,,ミンナノタダシイキンユウチシキ,0
1676,6120903005219,新規,0,2024-06-14,2024-06-14,合同会社Ｍｉｍ,,合同会社,大阪府,池田市,満寿美町１２－２,,27,204,5630041,,,,,,,2024-06-14,1,,,,,ミム,0
1682,6130001077283,新規,0,2024-06-14,2024-06-14,Ｂ．Ｂ．Ｂ株式会社,,株式会社,京都府,京都市上京区,千本通一条下る西側西中筋町１３番地,,26,102,6020000,,,,,,,2024-06-14,1,,,,,ビービービー,0
1683,6130001077291,新規,0,2024-06-14,2024-06-14,株式会社Ｗｅ‐ｂｅ　Ｌａｂ,,株式会社,京都府,京都市北区,紫野下築山町５０番地１,,26,101,6038222,,,,,,,2024-06-14,1,,,,,ウィービーラボ,0
1689,6140001134760,新規,0,2024-06-14,2024-06-14,株式会社イサナビ,,株式会社,兵庫県,神戸市西区,南別府４丁目４５番地１,,28,111,6512116,,,,,,,2024-06-14,1,,,,,イサナビ,0
1690,6140001134835,新規,0,2024-06-14,2024-06-14,株式会社ＬＯＢＥＵ．ｔｏ１,,株式会社,兵庫県,伊丹市,御願塚２丁目２－３６,,28,207,6640855,,,,,,,2024-06-14,1,,,,,ルベウトゥーワン,0
1696,6180001162031,新規,0,2024-06-14,2024-06-14,株式会社Ｎｏｒｔｈ　Ｓｔａｒ,,株式会社,愛知県,名古屋市中村区,名駅３丁目２０番２０号名駅錦ビル６Ｆ,,23,105,4500002,,,,,,,2024-06-14,1,,,,,ノーススター,0
1701,6180301038716,新規,0,2024-06-14,2024-06-14,メディラックス株式会社,,株式会社,愛知県,豊田市,九久平町薬師１１番地７,,23,211,4442216,,,,,,,2024-06-14,1,,,,,メディラックス,0
1717,6250003003515,新規,0,2024-06-14,2024-06-14,合同会社瑞祥,00135177,合同会社,山口県,山口市,阿知須５３０５番地３,,35,203,7541277,,,,,,,2024-06-14,1,,,,,ズイショウ,0
1718,6250005008925,新規,0,2024-06-14,2024-06-14,一般社団法人ハギノイエ,,その他の設立登記法人,山口県,萩市,大字東浜崎町４番地６,,35,204,7580024,,,,,,,2024-06-14,1,,,,,ハギノイエ,0
1721,6260003004792,新規,0,2024-06-14,2024-06-14,ソーシャルリノベーション合同会社,,合同会社,岡山県,岡山市東区,城東台西２丁目７ー６,,33,103,7090624,,,,,,,2024-06-14,1,,,,,ソーシャルリノベーション,0
1728,6290001106101,新規,0,2024-06-14,2024-06-14,株式会社ライフ,,株式会社,福岡県,筑紫野市,大字筑紫６６７番地２８,,40,217,8180025,,,,,,,2024-06-14,1,,,,,ライフ,0
1729,6290001106150,新規,0,2024-06-14,2024-06-14,株式会社Ｙｅｌｌ,,株式会社,福岡県,福岡市博多区,博多駅中央街１番１号マイング,,40,132,8120012,,,,,,,2024-06-14,1,,,,,エール,0
1730,6290001106209,新規,0,2024-06-14,2024-06-14,スバラマ株式会社,,株式会社,福岡県,福岡市中央区,天神１丁目９番１７号福岡天神フコク生命ビル１５階,,40,133,8100001,,,,,,,2024-06-14,1,,,,,スバラマ,0
1732,6290003015440,新規,0,2024-06-14,2024-06-14,合同会社ＫＫＲ,,合同会社,福岡県,福岡市中央区,天神４丁目７番１１号クレアビル４Ｆ,,40,133,8100001,,,,,,,2024-06-14,1,,,,,ケイケイアール,0
1734,6290801030640,新規,0,2024-06-14,2024-06-14,株式会社Ｌａｔｅｒａｌ　Ｆａｒｍ,,株式会社,福岡県,田川郡添田町,大字庄８０７番地,,40,602,8240601,,,,,,,2024-06-14,1,,,,,ラテラルファーム,0
1740,6320001020538,新規,0,2024-06-14,2024-06-14,株式会社梅木,,株式会社,大分県,日田市,淡窓２丁目８番１９号,,44,204,8770012,,,,,,,2024-06-14,1,,,,,ウメキ,0
1741,6330001032169,新規,0,2024-06-14,2024-06-14,株式会社南阿蘇ＨＥＲＢｓ,,株式会社,熊本県,阿蘇郡南阿蘇村,大字一関１８８０番１,,43,433,8691504,,,,,,,2024-06-14,1,,,,,ミナミアソハーブス,0
1742,6330001032177,新規,0,2024-06-14,2024-06-14,シン・リゾート株式会社,,株式会社,熊本県,熊本市東区,御領６丁目７番１０号,,43,102,8618035,,,,,,,2024-06-14,1,,,,,シンリゾート,0
1747,6340001026582,新規,0,2024-06-14,2024-06-14,株式会社ＣＯＦＩＸ,,株式会社,鹿児島県,鹿児島市,山田町３６５番地１コンフォートＴＩＩＩ２０３号,00135186,46,201,8910104,,,,,,,2024-06-14,1,,,,,コフィックス,0
1752,6360001033809,新規,0,2024-06-14,2024-06-14,株式会社アールエーティー,,株式会社,沖縄県,島尻郡南風原町,字宮平３６５番地１,,47,350,9011104,,,,,,,2024-06-14,1,,,,,アールエーティー,0
1774,6430001092038,新規,0,2024-06-14,2024-06-14,株式会社ファースト・プランニング,,株式会社,北海道,札幌市白石区,川下一条５丁目５番３２号ルミサーナＩーＢ号,00135169,01,104,0030861,,,,,,,2024-06-14,1,,,,,ファーストプランニング,0
1776,6430005015003,新規,0,2024-06-14,2024-06-14,一般社団法人少子化対策北海道,,その他の設立登記法人,北海道,札幌市厚別区,厚別東三条７丁目１９番８号,,01,108,0040003,,,,,,,2024-06-14,1,,,,,ショウシカタイサクホッカイドウ,0
1777,6440001009453,新規,0,2024-06-14,2024-06-14,株式会社ＡＲＡＧＡＮＥ,,株式会社,北海道,函館市,海岸町１番７号,,01,202,0400061,,,,,,,2024-06-14,1,,,,,アラガネ,0
1780,6460001005913,新規,0,2024-06-14,2024-06-14,ＳＨＡＲＥ　ＲＡＢＡＮＩ　ＢＯＵＥＫＩ株式会社,,株式会社,北海道,釧路市,鶴野東３丁目８番２１号,,01,206,0840923,,,,,,,2024-06-14,1,,,,,シェアラバニボウエキ,0
1781,6460103001629,新規,0,2024-06-14,2024-06-14,合同会社ＴＯＭＯＲＲＯＷ,,合同会社,北海道,河東郡音更町,ひびき野仲町１丁目７番地１６,,01,631,0800162,,,,,,,2024-06-14,1,,,,,トゥモロー,0
1786,6700150125982,新規,0,2024-06-14,2024-06-14,Ｑｕｏｔｉｄｉａｎ　Ｉｎｔｅｒｎａｔｉｏｎａｌ　Ｌｉｍｉｔｅｄ,,外国会社等,,,,,,,,ＦＬＡＴ／ＲＭ　０２　３２／Ｆ　ＳＩＮＧＧＡ　ＣＯＭＭＥＲＣＩＡＬ　ＣＥＮＴＲＥ　ＮＯ．１４８　ＣＯＮＮＡＵＧＨＴ　ＲＯＡＤ　ＷＥＳＴ　ＨＫ,,,,,,2024-06-14,1,,,,,クォウティディアンインターナショナルリミティッド,0
1787,6700150125990,新規,0,2024-06-14,2024-06-14,ＮＨＧＧＰ　Ｊａｐａｎ　ＬＬＣ,,外国会社等,東京都,港区,南青山１丁目２番６号ラティス青山スクエア２階,,13,103,1070062,アメリカ合衆国デラウェア州ウィルミントン、オレンジ・ストリート１２０９、コーポレーション・トラスト・センター,,,,,,2024-06-14,1,,,,,エヌエイチジージーピージヤパンエルエルシー,0
1799,7010001245776,新規,0,2024-06-14,2024-06-14,Ｃｏｌｓａｉｒｅ株式会社,,株式会社,東京都,中央区,日本橋２丁目１番１７号丹生ビル２階,,13,102,1030027,,,,,,,2024-06-14,1,,,,,コルセア,0
1800,7010001245834,新規,0,2024-06-14,2024-06-14,株式会社Ｃｒａｖｅ　Ｓｔｏｎｅ,,株式会社,東京都,千代田区,神田須田町１丁目１４－１ヒューリック神田須田町ビル内,,13,101,1010041,,,,,,,2024-06-14,1,,,,,クレイブストーン,0
1802,7010005038425,新規,0,2024-06-14,2024-06-14,一般社団法人首都圏レジ開発フォー,,その他の設立登記法人,東京都,千代田区,平河町１丁目６番１５号シルスフィア会計事務所内,,13,101,1020093,,,,,,,2024-06-14,1,,,,,シュトケンレジカイハツフォー,0
1811,7010401183072,新規,0,2024-06-14,2024-06-14,株式会社結,,株式会社,東京都,港区,赤坂８丁目１２－１２ワンサードレジデンス赤坂４０２,,13,103,1070052,,,,,,,2024-06-14,1,,,,,ユイ,0
1812,7010401183106,新規,0,2024-06-14,2024-06-14,ＧＢＭアミューズ株式会社,,株式会社,東京都,港区,新橋２丁目２番５号新橋パイオニアビル３・４階,,13,103,1050004,,,,,,,2024-06-14,1,,,,,ジービーエムアミューズ,0
1813,7010401183163,新規,0,2024-06-14,2024-06-14,ＵＳフォワード・ジャパン株式会社,,株式会社,東京都,港区,港南１丁目９番３６号アレア品川１３階,,13,103,1080075,,,,,,,2024-06-14,1,,,,,ユーエスフォワードジャパン,0
1823,7010503007484,新規,0,2024-06-14,2024-06-14,Ａｎｎａａ　Ｄｈａｔａ合同会社,,合同会社,東京都,台東区,西浅草１丁目５番１４号京成サンコーポ２１１,,13,106,1110035,,,,,,,2024-06-14,1,,,,,アンナダタ,0
1825,7010701046128,新規,0,2024-06-14,2024-06-14,株式会社ヴィント,,株式会社,東京都,品川区,北品川５丁目１番１８号,,13,109,1410001,,,,,,,2024-06-14,1,,,,,ヴィント,0
1843,7011001162598,新規,0,2024-06-14,2024-06-14,株式会社岡田商店,,株式会社,東京都,渋谷区,渋谷２丁目１９番１５号宮益坂ビルディング６０９,,13,113,1500002,,,,,,,2024-06-14,1,,,,,オカダショウテン,0
1844,7011001162680,新規,0,2024-06-14,2024-06-14,株式会社ＹＮメディカル,,株式会社,東京都,渋谷区,上原２丁目２８番５－５０３号,,13,113,1510064,,,,,,,2024-06-14,1,,,,,ワイエヌメディカル,0
1853,7011101107734,新規,0,2024-06-14,2024-06-14,株式会社ＨＹＶＥ,,株式会社,東京都,新宿区,西新宿３丁目３番１３号西新宿水間ビル２Ｆ,,13,104,1600023,,,,,,,2024-06-14,1,,,,,ハイブ,0
1855,7011103014516,新規,0,2024-06-14,2024-06-14,Ｄａｉｂａｎ　Ｈｏｔｅｌ　Ｔｗｏ合同会社,,合同会社,東京都,新宿区,四谷２丁目９番地１５東京ユナイテッド綜合事務所内,,13,104,1600004,,,,,,,2024-06-14,1,,,,,ダイバンホテルツー,0
1867,7011701027381,新規,0,2024-06-14,2024-06-14,株式会社ＡｒＡ,,株式会社,東京都,江戸川区,中葛西５丁目１３番１号メゾン中葛西１Ｆ,,13,123,1340083,,,,,,,2024-06-14,1,,,,,アラ,0
1870,7011801044376,新規,0,2024-06-14,2024-06-14,株式会社荻原総建,,株式会社,東京都,足立区,平野１丁目１６番９号第５カトレアコーポ２０２,,13,121,1210076,,,,,,,2024-06-14,1,,,,,オギワラソウケン,0
1875,7012803003428,新規,0,2024-06-14,2024-06-14,ＭｉＣｏｌｏｕｒ合同会社,,合同会社,東京都,東大和市,南街３丁目２７番地の９,,13,220,2070014,,,,,,,2024-06-14,1,,,,,ミコロール,0
1886,7020001157780,新規,0,2024-06-14,2024-06-14,株式会社アズールウィンド,,株式会社,神奈川県,横浜市港北区,菊名４丁目１５―２―４１０,,14,109,2220011,,,,,,,2024-06-14,1,,,,,アズールウィンド,0
1899,7021001082515,新規,0,2024-06-14,2024-06-14,ナガタケ株式会社,,株式会社,神奈川県,相模原市緑区,長竹２８４９番地１,,14,151,2520154,,,,,,,2024-06-14,1,,,,,ナガタケ,0
1900,7021001082523,新規,0,2024-06-14,2024-06-14,株式会社ＩＴＭ,,株式会社,神奈川県,茅ヶ崎市,東海岸南６丁目４番３７－Ｂ－４０３号,,14,207,2530054,,,,,,,2024-06-14,1,,,,,アイテム,0
1910,7030001160949,新規,0,2024-06-14,2024-06-14,日高商事株式会社,,株式会社,埼玉県,飯能市,大字小久保１２６番地２,,11,209,3570015,,,,,,,2024-06-14,1,,,,,ヒダカショウジ,0
1918,7040001133961,新規,0,2024-06-14,2024-06-14,太戈株式会社,,株式会社,千葉県,松戸市,古ケ崎３丁目３３４３番地の２,,12,207,2710068,,,,,,,2024-06-14,1,,,,,タイガ,0
1919,7040001134002,新規,0,2024-06-14,2024-06-14,株式会社リフォームのナガイ,,株式会社,千葉県,松戸市,新松戸６丁目９３番地の１,,12,207,2700034,,,,,,,2024-06-14,1,,,,,リフォームノナガイ,0
1920,7040003025216,新規,0,2024-06-14,2024-06-14,浅倉合同会社,,合同会社,千葉県,千葉市花見川区,花島町４２８－４４,,12,102,2620042,,,,,,,2024-06-14,1,,,,,アサクラ,0
1932,7060005010214,新規,0,2024-06-14,2024-06-14,一般社団法人福祉のひかり,,その他の設立登記法人,栃木県,那須塩原市,清住町９４番地２８２テラパークくろいそ１０３号室,,09,213,3250067,,,,,,,2024-06-14,1,,,,,フクシノヒカリ,0
1935,7070001041856,新規,0,2024-06-14,2024-06-14,株式会社Ｓ＆Ｒ,,株式会社,群馬県,太田市,由良町１０６１番地４,,10,205,3730036,,,,,,,2024-06-14,1,,,,,エスアンドアール,0
1938,7070005010287,新規,0,2024-06-14,2024-06-14,ＮＰＯ法人ねこのひげ,,その他の設立登記法人,群馬県,太田市,東長岡町１３５０番地１,,10,205,3730812,,,,,,,2024-06-14,1,,,,,ホウジンネコノヒゲ,0
1940,7080101024818,新規,0,2024-06-14,2024-06-14,株式会社ＭＯＣＣＵ,,株式会社,静岡県,富士市,吉原４丁目２５番２０号,,22,210,4170051,,,,,,,2024-06-14,1,,,,,モック,0
1943,7080401027256,新規,0,2024-06-14,2024-06-14,株式会社博識,,株式会社,静岡県,菊川市,青葉台１丁目２番地の５,,22,224,4390012,,,,,,,2024-06-14,1,,,,,ハクシキ,0
1950,7100001037561,新規,0,2024-06-14,2024-06-14,ＮＨＡ株式会社,,株式会社,長野県,諏訪郡下諏訪町,１０６１６番地２６５,,20,361,3930000,,,,,,,2024-06-14,1,,,,,エヌエイチエー,0
1962,7120001265920,新規,0,2024-06-14,2024-06-14,株式会社永,,株式会社,大阪府,大阪市西成区,南津守７丁目６番１１－１０３号,,27,122,5570063,,,,,,,2024-06-14,1,,,,,ハルカ,0
1963,7120001265953,新規,0,2024-06-14,2024-06-14,宸茂株式会社,,株式会社,大阪府,大阪市港区,波除５丁目６番３号,,27,107,5520001,,,,,,,2024-06-14,1,,,,,シンモ,0
1968,7120105009868,新規,0,2024-06-14,2024-06-14,特定非営利活動法人おかん家,,その他の設立登記法人,大阪府,岸和田市,額原町６８８番地３,,27,202,5960822,,,,,,,2024-06-14,1,,,,,オカンチ,0
1969,7120903005218,新規,0,2024-06-14,2024-06-14,合同会社ｒｅｆｌｏｗ,,合同会社,大阪府,豊中市,桜の町３丁目１６番３－２０１号,,27,203,5600054,,,,,,,2024-06-14,1,,,,,リフロー,0
1975,7122001038190,新規,0,2024-06-14,2024-06-14,株式会社二宮建創,,株式会社,大阪府,八尾市,東山本新町９丁目８番７号,,27,212,5810866,,,,,,,2024-06-14,1,,,,,ニノミヤケンソウ,0
1981,7130001077299,新規,0,2024-06-14,2024-06-14,メタフーズ株式会社,,株式会社,京都府,京都市伏見区,横大路天王前５３番地,,26,109,6128294,,,,,,,2024-06-14,1,,,,,メタフーズ,0
1986,7130003009630,新規,0,2024-06-14,2024-06-14,合同会社フォーシスターズ,,合同会社,京都府,京都市下京区,松原通烏丸西入ル玉津島町２９４,,26,106,6000000,,,,,,,2024-06-14,1,,,,,フォーシスターズ,0
1987,7130003009639,新規,0,2024-06-14,2024-06-14,ＭＡＲＬ合同会社,,合同会社,京都府,京都市伏見区,納屋町１３６番地１ネバーランド桃山１０２号,,26,109,6128363,,,,,,,2024-06-14,1,,,,,マール,0
1991,7140001134834,新規,0,2024-06-14,2024-06-14,株式会社ＫＫフーズ,,株式会社,兵庫県,姫路市,打越３６２番１,,28,201,6712246,,,,,,,2024-06-14,1,,,,,ケイケーフーズ,0
1998,7170001018191,新規,0,2024-06-14,2024-06-14,株式会社ＲＯＣＫＳＴＡＲ　ＧＡＲＤＥＮ,,株式会社,和歌山県,和歌山市,西高松１丁目１３番３８号,,30,201,6410051,,,,,,,2024-06-14,1,,,,,ロックスターガーデン,0
2010,7180001162014,新規,0,2024-06-14,2024-06-14,株式会社ブルーローズ,,株式会社,愛知県,名古屋市名東区,上社２丁目１８６番地,,23,115,4650025,,,,,,,2024-06-14,1,,,,,ブルーローズ,0
2012,7180003026935,新規,0,2024-06-14,2024-06-14,合同会社ｍｅｗ,,合同会社,愛知県,名古屋市東区,泉１丁目１８番３号泉ステイトリービル４０２,,23,102,4610001,,,,,,,2024-06-14,1,,,,,ミュー,0
2016,7180301038715,新規,0,2024-06-14,2024-06-14,株式会社カワイ,,株式会社,愛知県,豊橋市,緑ケ丘２丁目２番地１６,,23,201,4400005,,,,,,,2024-06-14,1,,,,,カワイ,0
2019,7190003004717,新規,0,2024-06-14,2024-06-14,神花合同会社,,合同会社,三重県,津市,豊が丘２丁目２０番２号,,24,201,5142222,,,,,,,2024-06-14,1,,,,,シンカ,0
2029,7230001020397,新規,0,2024-06-14,2024-06-14,株式会社ファースト・ペンギン,,株式会社,富山県,小矢部市,東福町７番１３号,,16,209,9320041,,,,,,,2024-06-14,1,,,,,ファーストペンギン,0
2037,7270003001631,新規,0,2024-06-14,2024-06-14,１２１ＧＡＲＡＧＥ合同会社,,合同会社,鳥取県,東伯郡三朝町,大字三朝７７４番９,,31,364,6820123,,,,,,,2024-06-14,1,,,,,イチニイチガレージ,0
2043,7290801030648,新規,0,2024-06-14,2024-06-14,株式会社寛大グループ,,株式会社,福岡県,北九州市八幡西区,黒崎２丁目６番１７号２階,,40,109,8060021,,,,,,,2024-06-14,1,,,,,カンダイグループ,0
2049,7320001020545,新規,0,2024-06-14,2024-06-14,株式会社ウィステリア,,株式会社,大分県,臼杵市,大字福良２４８番地,,44,206,8750053,,,,,,,2024-06-14,1,,,,,ウィステリア,0
2051,7330001032168,新規,0,2024-06-14,2024-06-14,株式会社ストロベリーヒル,,株式会社,熊本県,熊本市中央区,出水８丁目１５番２７号,,43,101,8620941,,,,,,,2024-06-14,1,,,,,ストロベリーヒル,0
2054,7340001026573,新規,0,2024-06-14,2024-06-14,株式会社Ｃｒｅｗ　Ｐｌｕｓ,,株式会社,鹿児島県,鹿児島市,魚見町１５３番地１０,,46,201,8910112,,,,,,,2024-06-14,1,,,,,クループラス,0
2063,7360001033816,新規,0,2024-06-14,2024-06-14,株式会社Ｇ‐ｗｉｔｈ,,株式会社,沖縄県,国頭郡大宜味村,字喜如嘉２０８３番地,,47,302,9051303,,,,,,,2024-06-14,1,,,,,ジーウィズ,0
2065,7370001051420,新規,0,2024-06-14,2024-06-14,株式会社山幸東北,,株式会社,宮城県,岩沼市,たけくま１丁目２５番８号,,04,211,9892459,,,,,,,2024-06-14,1,,,,,ヤマコウトウホク,0
2075,7390003002254,新規,0,2024-06-14,2024-06-14,合同会社井筒屋ソーイング,,合同会社,山形県,山形市,本町２丁目４番２７号,,06,201,9900043,,,,,,,2024-06-14,1,,,,,イヅツヤソーイング,0
2078,7410001013853,新規,0,2024-06-14,2024-06-14,株式会社朝岡電機,,株式会社,秋田県,由利本荘市,西目町沼田字郡山１２番地１,,05,210,0180604,,,,,,,2024-06-14,1,,,,,アサオカデンキ,0
2083,7430001092020,新規,0,2024-06-14,2024-06-14,株式会社大昭建工,,株式会社,北海道,札幌市西区,西野八条５丁目７番１５号,,01,107,0630038,,,,,,,2024-06-14,1,,,,,ダイショウケンコウ,0
2084,7430001092037,新規,0,2024-06-14,2024-06-14,株式会社インテリアＫＨＫ,,株式会社,北海道,札幌市東区,伏古七条２丁目２番２５－２０３号,,01,103,0070867,,,,,,,2024-06-14,1,,,,,インテリアケイエイチケイ,0
2085,7430003016464,新規,0,2024-06-14,2024-06-14,合同会社ＴＡＣ,,合同会社,北海道,札幌市白石区,本通１０丁目北５番３号,,01,104,0030027,,,,,,,2024-06-14,1,,,,,タック,0
2087,7430005015002,新規,0,2024-06-14,2024-06-14,一般社団法人椿,,その他の設立登記法人,北海道,北広島市,Ｆビレッジ２１番,,01,234,0611116,,,,,,,2024-06-14,1,,,,,ツバキ,0
2094,7500001025699,新規,0,2024-06-14,2024-06-14,ＤＬＥＳＳ　ＣＯＡＴ株式会社,,株式会社,愛媛県,松山市,松末２丁目１番５０号,,38,201,7900915,,,,,,,2024-06-14,1,,,,,ドレスコート,0
2097,7700150125420,新規,0,2024-06-14,2024-06-14,ＳＵＺＨＯＵ　ＣＵＩＨＡＩ　ＩＮＴ　ＴＲＡＤＩＮＧ　ＣＯ　ＬＴＤ,,外国会社等,,,,,,,,Ｒｏｏｍ　２０６２，Ｂｌｄｇ　１－Ｂ，Ｎｏ．３３６　Ｆｅｎｇｌｉ　Ｓｔｒ，Ｓｕｚｈｏｕ　Ｉｎｄｕｓｔｒｉａｌ　Ｐａｒｋ，Ｊｉａｎｇｓｕ，Ｃｈｉｎａ,,,,,,2024-06-14,1,,,,,ソシユウスイカイコクサイボウエキユウゲンコウシ,0
2098,7700150125981,新規,0,2024-06-14,2024-06-14,Ｎｉｎｇｂｏ　Ｍｉｋｋｕｐｐａ　Ｃａｒ　Ｅｌｅｃｔｒｏｎｉｃ　Ｔｅｃｈｎｏｌｏｇｙ　Ｃｏ．，Ｌｔｄ,,外国会社等,,,,,,,,Ｌａｎｅ１６５　Ｎｏ．６　１２－１１　Ｃｈａｎｇｙａｎｇ　Ｅａｓｔ　Ｒｏａｄ　Ｊｉａｎｇｂｅｉ　Ｄｉｓｔｒｉｃｔ　Ｎｉｎｇｂｏ　Ｚｈｅｊｉａｎｇ,,,,,,2024-06-14,1,,,,,ニンボミックッパカーイレクトゥロニックテクノロジーカンパニーリミテッド,0
2099,7700150126014,新規,0,2024-06-14,2024-06-14,ＡＩＬＩ　ＣＯＲＰＯＲＡＴＩＯＮ,,外国会社等,千葉県,山武郡横芝光町,新島５２１４番地３－３,,12,410,2891736,スリランカ民主社会主義共和国、ナワラピティヤ、メインストリート、Ｎｏ．３２,,,,,,2024-06-14,1,,,,,アイリコーポレーシヨン,0
2114,8010001245643,新規,0,2024-06-14,2024-06-14,陸芸術空間株式会社,,株式会社,東京都,中央区,新川１丁目３番２号ギンザヤビル３Ｆ－Ａ号室,,13,102,1040033,,,,,,,2024-06-14,1,,,,,リクゲイジュツクウカン,0
2115,8010001245759,新規,0,2024-06-14,2024-06-14,株式会社Ａｕｃｉｓ,,株式会社,東京都,中央区,銀座１丁目２２番１１号銀座大竹ビジデンス２Ｆ,,13,102,1040061,,,,,,,2024-06-14,1,,,,,アウシス,0
2116,8010001245817,新規,0,2024-06-14,2024-06-14,株式会社ＢＲＡＮＤ５０１ＪＰ．,,株式会社,東京都,中央区,日本橋箱崎町２７－９オフィスヴェラ日本橋箱崎１階,,13,102,1030015,,,,,,,2024-06-14,1,,,,,ブランドゴマルイチジェイピー,0
2121,8010003044036,新規,0,2024-06-14,2024-06-14,メディカル・ローカル・パートナーズ合同会社,,合同会社,東京都,中央区,銀座１丁目１２番４号Ｎ＆ＥＢＬＤ．６Ｆ,,13,102,1040061,,,,,,,2024-06-14,1,,,,,メディカルローカルパートナーズ,0
2124,8010005038408,新規,0,2024-06-14,2024-06-14,一般社団法人令星会,,その他の設立登記法人,東京都,文京区,本郷３丁目２４番１１号スカーラ文京本郷１階,,13,105,1130033,,,,,,,2024-06-14,1,,,,,レイセイカイ,0
2134,8010401182965,新規,0,2024-06-14,2024-06-14,株式会社Ｇｌｏｂａｌ　Ｆｏｏｄ　Ｐｌａｎｎｉｎｇ,,株式会社,東京都,港区,芝浦４丁目１９番１－４４１５号,,13,103,1080023,,,,,,,2024-06-14,1,,,,,グローバルフードプランニング,0
2135,8010401183039,新規,0,2024-06-14,2024-06-14,ＳＧ株式会社,,株式会社,東京都,港区,芝浦２丁目６－１１パークタワー芝浦ベイワードアーバンウイング２２０６,,13,103,1080023,,,,,,,2024-06-14,1,,,,,エスジー,0
2145,8010603010899,新規,0,2024-06-14,2024-06-14,合同会社門,,合同会社,東京都,江東区,大島８丁目３９番２２－５２７号,,13,108,1360072,,,,,,,2024-06-14,1,,,,,モン,0
2146,8010701046135,新規,0,2024-06-14,2024-06-14,ＷｏｎｄｅｒＣｏｎｓｕｌｔｉｎｇ株式会社,,株式会社,東京都,品川区,西五反田１丁目２６番２号,,13,109,1410031,,,,,,,2024-06-14,1,,,,,ワンダーコンサルティング,0
2148,8010703007226,新規,0,2024-06-14,2024-06-14,パンパシ合同会社,,合同会社,東京都,品川区,豊町１丁目１４－７クレール戸越２０１,,13,109,1420042,,,,,,,2024-06-14,1,,,,,パンパシ,0
2150,8010801035145,新規,0,2024-06-14,2024-06-14,株式会社ＣＥＲＩＳＩＥＲ,,株式会社,東京都,大田区,仲六郷２丁目１８－１５・２階,,13,111,1440055,,,,,,,2024-06-14,1,,,,,スリジエ,0
2162,8011001162259,新規,0,2024-06-14,2024-06-14,株式会社カロン,,株式会社,東京都,渋谷区,渋谷２丁目１９―１５宮益坂ビルディング６０９,,13,113,1500002,,,,,,,2024-06-14,1,,,,,カロン,0
2163,8011001162416,新規,0,2024-06-14,2024-06-14,モノリス株式会社,,株式会社,東京都,渋谷区,渋谷２丁目１９－１５宮益坂ビルディング６０９,,13,113,1500002,,,,,,,2024-06-14,1,,,,,モノリス,0
2166,8011003019390,新規,0,2024-06-14,2024-06-14,合同会社Ｔｗｅｎｔｙ・２１,,合同会社,東京都,渋谷区,道玄坂１丁目１０番８号渋谷道玄坂東急ビル２Ｆ－Ｃ,,13,113,1500043,,,,,,,2024-06-14,1,,,,,トゥウェンティートゥウェンティーワン,0
2167,8011003019408,新規,0,2024-06-14,2024-06-14,ＭＵＳＥＫＡＩ合同会社,,合同会社,東京都,渋谷区,神泉町１０番１５号アネックス神泉３０１,,13,113,1500045,,,,,,,2024-06-14,1,,,,,ムセカイ,0
2172,8011101107691,新規,0,2024-06-14,2024-06-14,株式会社Ｔｈｉｎｋ　Ｕｐ,,株式会社,東京都,新宿区,新宿２丁目１５番２号岩本和裁ビル３Ｆ,,13,104,1600022,,,,,,,2024-06-14,1,,,,,シンクアップ,0
2173,8011101107700,新規,0,2024-06-14,2024-06-14,株式会社洋山宇,,株式会社,東京都,新宿区,百人町１丁目２０番２６号バラードハイムムサシノビル８階８０８号室,,13,104,1690073,,,,,,,2024-06-14,1,,,,,ヨウサンノキ,0
2174,8011103014548,新規,0,2024-06-14,2024-06-14,合同会社ＭＡＧＵＳ,,合同会社,東京都,新宿区,北新宿２丁目１５番１７号,,13,104,1690074,,,,,,,2024-06-14,1,,,,,マグス,0
2177,8011201025562,新規,0,2024-06-14,2024-06-14,江有株式会社,,株式会社,東京都,中野区,野方２丁目３４－１６クレセント野方２０１号室,,13,114,1650027,,,,,,,2024-06-14,1,,,,,エアリ,0
2178,8011203004416,新規,0,2024-06-14,2024-06-14,ＳＯＮＯＶＥＥ’ＳＷＯＲＬＤＷＩＤＥ合同会社,,合同会社,東京都,中野区,大和町４丁目４５－６－１０１,,13,114,1650034,,,,,,,2024-06-14,1,,,,,ソノビーズワールドワイド,0
2185,8011403004414,新規,0,2024-06-14,2024-06-14,合同会社アルジャンアセットマネジメント,,合同会社,東京都,板橋区,加賀２丁目１６番１号加賀レジデンス５１０号,,13,119,1730003,,,,,,,2024-06-14,1,,,,,アルジャンアセットマネジメント,0
2186,8011501030782,新規,0,2024-06-14,2024-06-14,株式会社エクイティ,,株式会社,東京都,荒川区,東日暮里５丁目５２番２号神谷ビル６０３,,13,118,1160014,,,,,,,2024-06-14,1,,,,,エクイティ,0
2187,8011501030808,新規,0,2024-06-14,2024-06-14,ＣＹＫＫ株式会社,,株式会社,東京都,荒川区,東日暮里４丁目３３番１１号サウスコーポ２階,,13,118,1160014,,,,,,,2024-06-14,1,,,,,シーワイケーケー,0
2200,8011801044375,新規,0,2024-06-14,2024-06-14,株式会社ＫＩＡＲＡ,,株式会社,東京都,足立区,千住東２丁目２１番１－２１３号,,13,121,1200025,,,,,,,2024-06-14,1,,,,,キアラ,0
2202,8012301013960,新規,0,2024-06-14,2024-06-14,株式会社リフォルテ,,株式会社,東京都,町田市,真光寺３丁目２５－３,,13,209,1950057,,,,,,,2024-06-14,1,,,,,リフォルテ,0
2206,8012401041985,新規,0,2024-06-14,2024-06-14,株式会社東亜フードサービス準備会社,,株式会社,東京都,調布市,上石原３丁目５８番地４０,,13,208,1820035,,,,,,,2024-06-14,1,,,,,トウアフードサービスジュンビガイシャ,0
2214,8021001082497,新規,0,2024-06-14,2024-06-14,株式会社ｄｏｏｄｌｅｂｏｏｋ,,株式会社,神奈川県,相模原市緑区,下九沢１３７８－１１,,14,151,2520134,,,,,,,2024-06-14,1,,,,,ドゥードゥルブック,0
2215,8021001082514,新規,0,2024-06-14,2024-06-14,株式会社ＫＪｄｏｏｒ,,株式会社,神奈川県,藤沢市,辻堂６丁目１５番２０号,,14,205,2510047,,,,,,,2024-06-14,1,,,,,ケイジェードア,0
2238,8040001134100,新規,0,2024-06-14,2024-06-14,株式会社ゼンシビル,,株式会社,千葉県,千葉市美浜区,中瀬１丁目９－１スターツ幕張ビル６０９,,12,106,2610023,,,,,,,2024-06-14,1,,,,,ゼンシビル,0
2241,8040003025215,新規,0,2024-06-14,2024-06-14,ＨＡＲＵ　ＩＮＴＥＲＮＡＴＩＯＮＡＬ合同会社,,合同会社,千葉県,八街市,八街ほ４４４番地４,,12,230,2891115,,,,,,,2024-06-14,1,,,,,ハルインターナショナル,0
2242,8040003025223,新規,0,2024-06-14,2024-06-14,合同会社ハッピーハート,,合同会社,千葉県,流山市,美原３丁目７４－５３,,12,220,2700103,,,,,,,2024-06-14,1,,,,,ハッピーハート,0
2246,8050001054900,新規,0,2024-06-14,2024-06-14,株式会社よびこみや,,株式会社,茨城県,水戸市,南町３丁目３－３５（コワーキングスペース水戸Ｗａｇｔａｉｌ内）,,08,201,3100021,,,,,,,2024-06-14,1,,,,,ヨビコミヤ,0
2247,8050001054941,新規,0,2024-06-14,2024-06-14,株式会社ＨＡＳＨＩＭＯＴＯ,,株式会社,茨城県,土浦市,中村南２丁目１番６－１２号,,08,203,3000843,,,,,,,2024-06-14,1,,,,,ハシモト,0
2254,8070003005461,新規,0,2024-06-14,2024-06-14,合同会社ＬＣ,,合同会社,群馬県,太田市,飯田町７０２番地Ｍ１ビル４Ｆ,,10,205,3730851,,,,,,,2024-06-14,1,,,,,エルシー,0
2257,8080003003225,新規,0,2024-06-14,2024-06-14,合同会社長谷川製作所,,合同会社,静岡県,静岡市駿河区,丸子新田６８６番地の７,,22,102,4210111,,,,,,,2024-06-14,1,,,,,ハセガワセイサクジョ,0
2269,8100001037552,新規,0,2024-06-14,2024-06-14,株式会社タナカ工業,,株式会社,長野県,松本市,大字神林１５０７番地４,,20,202,3901243,,,,,,,2024-06-14,1,,,,,タナカコウギョウ,0
2270,8100001037560,新規,0,2024-06-14,2024-06-14,Ｙ’ｓアプロディーテ株式会社,,株式会社,長野県,北佐久郡御代田町,大字御代田４１０８番地３６８,,20,323,3890206,,,,,,,2024-06-14,1,,,,,ワイズアプロディーテ,0
2271,8100003007586,新規,0,2024-06-14,2024-06-14,合同会社Ｌｉｌｙ,,合同会社,長野県,長野市,大字南堀１３７番地１１セジュール千曲Ｂ１０１,,20,201,3810016,,,,,,,2024-06-14,1,,,,,リリー,0
2272,8100003007611,新規,0,2024-06-14,2024-06-14,合同会社もりとさと,,合同会社,長野県,松本市,北深志１丁目５番８号,,20,202,3900872,,,,,,,2024-06-14,1,,,,,モリトサト,0
2274,8110001038467,新規,0,2024-06-14,2024-06-14,新潟未来創造株式会社,,株式会社,新潟県,南蒲原郡田上町,大字吉田新田乙１６３番地４,,15,361,9591511,,,,,,,2024-06-14,1,,,,,ニイガタミライソウゾウ,0
2275,8110001038491,新規,0,2024-06-14,2024-06-14,株式会社Ｃｏｌｌａｔｅ　Ｌａｂ,,株式会社,新潟県,上越市,浦川原区有島６６番地,,15,222,9420306,,,,,,,2024-06-14,1,,,,,コラテラボ,0
2287,8120001265837,新規,0,2024-06-14,2024-06-14,安城株式会社,,株式会社,大阪府,大阪市住吉区,苅田２丁目１５番５号５階,,27,120,5580011,,,,,,,2024-06-14,1,,,,,アンジョウ,0
2288,8120001265886,新規,0,2024-06-14,2024-06-14,恒徳精密株式会社,00135171,株式会社,大阪府,大阪市中央区,安土町２丁目３番１３号大阪国際ビルディング２９Ｆ,,27,128,5410052,,,,,,,2024-06-14,1,,,,,コウトクセイミツ,0
2289,8120001265894,新規,0,2024-06-14,2024-06-14,柏恩株式会社,,株式会社,大阪府,大阪市生野区,巽北１丁目７番３号１０１号室,00135174,27,116,5440004,,,,,,,2024-06-14,1,,,,,ハクオン,0
2290,8120001265944,新規,0,2024-06-14,2024-06-14,株式会社田渕海運外航準備会社,,株式会社,大阪府,大阪市中央区,南船場２丁目３番１１号,,27,128,5420081,,,,,,,2024-06-14,1,,,,,タブチカイウンガイコウジュンビガイシャ,0
2291,8120001265952,新規,0,2024-06-14,2024-06-14,ｅ‐企画株式会社,,株式会社,大阪府,大阪市旭区,新森１丁目７番１－７０６号,,27,117,5350022,,,,,,,2024-06-14,1,,,,,イーキカク,0
2297,8120003026840,新規,0,2024-06-14,2024-06-14,合同会社ＢＯＷＥＮ,,合同会社,大阪府,枚方市,茄子作１丁目１４番５０号,,27,210,5730071,,,,,,,2024-06-14,1,,,,,ボウエン,0
2300,8120101069766,新規,0,2024-06-14,2024-06-14,株式会社ＺＥＮＮ,,株式会社,大阪府,堺市北区,金岡町２７９３番地１０,,27,146,5918022,,,,,,,2024-06-14,1,,,,,ゼン,0
2310,8130001077273,新規,0,2024-06-14,2024-06-14,株式会社ＴＨＥ　ＲＯＹＡＬ,,株式会社,京都府,京都市南区,東九条南松ノ木町１番地１,,26,107,6018023,,,,,,,2024-06-14,1,,,,,ザロイヤル,0
2312,8130003009638,新規,0,2024-06-14,2024-06-14,合同会社津梁コンサルタント,,合同会社,京都府,京都市下京区,朱雀宝蔵町４４番地協栄ビル２階京都朱雀スタジオＡＤ４０５,,26,106,6008846,,,,,,,2024-06-14,1,,,,,シンリョウコンサルタント,0
2319,8140003020718,新規,0,2024-06-14,2024-06-14,合同会社本田商会,,合同会社,兵庫県,三田市,つつじが丘南２丁目１３－１,,28,219,6691347,,,,,,,2024-06-14,1,,,,,ホンダショウカイ,0
2335,8180001161989,新規,0,2024-06-14,2024-06-14,株式会社グローブマネージメント,,株式会社,愛知県,名古屋市天白区,植田２丁目１１１１番地,,23,116,4680051,,,,,,,2024-06-14,1,,,,,グローブマネージメント,0
2339,8180003026950,新規,0,2024-06-14,2024-06-14,合同会社アート,,合同会社,愛知県,北名古屋市,鹿田２５１２番地１グリーンシティＤ－３１９,,23,234,4810004,,,,,,,2024-06-14,1,,,,,アート,0
2348,8180301038689,新規,0,2024-06-14,2024-06-14,株式会社ＭＡＲＵＴＡＫＡ,,株式会社,愛知県,知立市,池端３丁目４９番地,,23,225,4720025,,,,,,,2024-06-14,1,,,,,マルタカ,0
2356,8200003006388,新規,0,2024-06-14,2024-06-14,合同会社ロアップ,,合同会社,岐阜県,不破郡垂井町,綾戸１１４９番地の２９,,21,361,5032112,,,,,,,2024-06-14,1,,,,,ロアップ,0
2364,8240001063361,新規,0,2024-06-14,2024-06-14,株式会社ＪＯＭＯＮＥＯ,,株式会社,広島県,竹原市,西野町２０８２番地１２,,34,203,7250002,,,,,,,2024-06-14,1,,,,,ジョモネオ,0
2365,8240001063378,新規,0,2024-06-14,2024-06-14,株式会社Ｇｉｒｄ　ｕｐ,,株式会社,広島県,福山市,今津町６丁目１１番５号ＴＫ２階,,34,207,7290111,,,,,,,2024-06-14,1,,,,,ガードアップ,0
2366,8240001063386,新規,0,2024-06-14,2024-06-14,株式会社Ｍ重機貿易,,株式会社,広島県,福山市,東吉津町１番１４－７号,,34,207,7200071,,,,,,,2024-06-14,1,,,,,エムジュウキボウエキ,0
2380,8290001106140,新規,0,2024-06-14,2024-06-14,株式会社ＥＧＵＣＨＩホールディングス,,株式会社,福岡県,朝倉郡筑前町,二１００番地１,,40,447,8380228,,,,,,,2024-06-14,1,,,,,エグチホールディングス,0
2382,8290003015439,新規,0,2024-06-14,2024-06-14,合同会社エルフ,,合同会社,福岡県,福岡市南区,清水１丁目２５番１０－３０６号フォーリーフ清水,,40,134,8150031,,,,,,,2024-06-14,1,,,,,エルフ,0
2383,8290803004756,新規,0,2024-06-14,2024-06-14,ＫＩＲＡＭＥＫＩ合同会社,,合同会社,福岡県,北九州市八幡西区,八枝１丁目４－１３,,40,109,8070856,,,,,,,2024-06-14,1,,,,,キラメキ,0
2387,8320003004396,新規,0,2024-06-14,2024-06-14,積水広告合同会社,,合同会社,大分県,別府市,北的ケ浜町３番１０号富士見ビル２０６,,44,202,8740928,,,,,,,2024-06-14,1,,,,,,0
2413,8430003016463,新規,0,2024-06-14,2024-06-14,合同会社ＤＲＵＭ　ＨＯＲＳＥ,,合同会社,北海道,札幌市北区,北二十五条西４丁目１番１０－４０３号,,01,102,0010025,,,,,,,2024-06-14,1,,,,,ドラムホース,0
2426,8700150040486,新規,0,2024-06-14,2015-10-09,タントスマイルクラブ,,その他,山形県,東根市,中央２丁目１７－１９,,06,211,9993711,,,,,,,2015-10-09,1,,,,,タントスマイルクラブ,0
2427,8700150125980,新規,0,2024-06-14,2024-06-14,ＳＨＥＮＺＨＥＮＳＨＩＨＥＮＧＦＡＹＩＮＣＡＩＢＡＯＺＨＵＡＮＧＹＯＵＸＩＡＮＧＯＮＧＳＩ,,外国会社等,,,,,,,,１ｓｔ　ａｎｄ　２ｎｄ　Ｆｌｏｏｒ，Ｊｉｎｇｄｉ　ｆａｃｔｏｒｙ　ｂｕｉｌｄｉｎｇ，Ｎｏ．３　Ｓｈｉｈｕａｎ　Ｒｏａｄ，Ｓｈｉｌｏｎｇ　Ｃｏｍｍｕｎｉｔｙ，Ｓｈｉｙａｎ　Ｓｔｒｅｅｔ，Ｂａｏａｎ　Ｄｉｓｔｒｉｃｔ，Ｓｈｅｎｚｈｅｎ,,,,,,2024-06-14,1,,,,,シンセンシヘンファインツカイバオジワンユウゲンコウシ,0
2428,8700150125989,新規,0,2024-06-14,2024-06-14,Ｈａｎｇｚｈｏｕ　ｊｉｎｇｈｅ　Ｔｅｃｈｎｏｌｏｇｙ　Ｃｏ：；ｌｔｄ,,外国会社等,,,,,,,,２　Ｆ，Ｒｍ　５，Ｂｌｄｇ　３，Ｙｉｑｉａｏ　Ｄｅｃｏｒａｔｉｏｎ　Ｍａｔｅｒｉａｌｓ　Ｍａｒｋｅｔ，Ｙｉｑｉａｏ　Ｔｏｗｎ　Ｘｉａｏｓｈａｎ　Ｄｉｓｔ　Ｈａｎｇｚｈｏｕ　Ｃｉｔｙ，Ｚｈｅｊｉａｎｇ　Ｐｒｏｖｉｎｃｅ,,,,,,2024-06-14,1,,,,,コウシュウシジンヘテクノロジーカンパニーリミテッド,0
2429,8700150126013,新規,0,2024-06-14,2024-06-14,高田用水流域土地改良区,,その他,茨城県,北茨城市,華川町下相田１０９,,08,215,3191537,,,,,,,2024-06-14,1,,,,,タカダヨウスイリュウイキトチカイリョウク,0
2449,9010001245584,新規,0,2024-06-14,2024-06-14,ＡＰＲＥＳ・ＬＡ・ＰＬＵＩＥ株式会社,,株式会社,東京都,中央区,勝どき３丁目３番１３－２０２号,,13,102,1040054,,,,,,,2024-06-14,1,,,,,アプレラプリュイ,0
2450,9010001245634,新規,0,2024-06-14,2024-06-14,株式会社ＳＧＪ,,株式会社,東京都,千代田区,内神田１丁目５番８号,,13,101,1010047,,,,,,,2024-06-14,1,,,,,エスジージェー,0
2451,9010001245774,新規,0,2024-06-14,2024-06-14,Ｃｏｌｌａｂｏ　Ｖｉｓｉｏｎ　Ｌａｂ株式会社,,株式会社,東京都,千代田区,九段南１丁目６番５号,,13,101,1020074,,,,,,,2024-06-14,1,,,,,コラボビジョンラボ,0
2452,9010001245824,新規,0,2024-06-14,2024-06-14,ドーベルアドバイザリー株式会社,,株式会社,東京都,千代田区,飯田橋１丁目１２番７号,,13,101,1020072,,,,,,,2024-06-14,1,,,,,ドーベルアドバイザリー,0
2454,9010003044019,新規,0,2024-06-14,2024-06-14,ＬＬ合同会社,,合同会社,東京都,中央区,日本橋室町１丁目１１番１２号日本橋水野ビル７階,,13,102,1030022,,,,,,,2024-06-14,1,,,,,エルエル,0
2455,9010005038423,新規,0,2024-06-14,2024-06-14,Ｍ‐ＳＭＹ２ホールディングス一般社団法人,,その他の設立登記法人,東京都,中央区,日本橋１丁目４番１号,,13,102,1030027,,,,,,,2024-06-14,1,,,,,エムエスエムワイツー,0
2464,9010401183054,新規,0,2024-06-14,2024-06-14,株式会社ＴＢＦコンサルティング,,株式会社,東京都,港区,六本木７丁目７－７Ｔｒｉ－ＳｅｖｅｎＲｏｐｐｏｎｇｉ８階,,13,103,1060032,,,,,,,2024-06-14,1,,,,,ティービーエフコンサルティング,0
2472,9010403032787,新規,0,2024-06-14,2024-06-14,合同会社ＰＨＡＳＥ２,,合同会社,東京都,港区,南青山３丁目１番３６号青山丸竹ビル６Ｆ,,13,103,1070062,,,,,,,2024-06-14,1,,,,,フェイズツー,0
2473,9010403032804,新規,0,2024-06-14,2024-06-14,合同会社ｓｈｉｒｏ,,合同会社,東京都,港区,新橋２丁目１５番１６号ル・グラシエルＢＬＤＧ．２９、４階,,13,103,1050004,,,,,,,2024-06-14,1,,,,,シロー,0
2476,9010405023339,新規,0,2024-06-14,2024-06-14,一般社団法人ＣＰＦフィルムファンド,,その他の設立登記法人,東京都,港区,元赤坂１丁目１番８号赤坂コミュニティビル４階,,13,103,1070051,,,,,,,2024-06-14,1,,,,,シーピーエフフィルムファンド,0
2496,9010801035144,新規,0,2024-06-14,2024-06-14,株式会社丸子病理検査,,株式会社,東京都,大田区,下丸子４丁目２１番１４－１４０５号,,13,111,1460092,,,,,,,2024-06-14,1,,,,,マルコビョウリケンサ,0
2502,9010901055414,新規,0,2024-06-14,2024-06-14,株式会社グッドアセットパートナーズ,,株式会社,東京都,世田谷区,池尻４丁目１０番１－Ｅ７０５号,,13,112,1540001,,,,,,,2024-06-14,1,,,,,グッドアセットパートナーズ,0
2507,9011001162431,新規,0,2024-06-14,2024-06-14,株式会社センズ,,株式会社,東京都,渋谷区,道玄坂１丁目１０番８号渋谷道玄坂東急ビル２Ｆ－Ｃ,,13,113,1500043,,,,,,,2024-06-14,1,,,,,センズ,0
2508,9011001162613,新規,0,2024-06-14,2024-06-14,株式会社ｋｕｍａ,,株式会社,東京都,渋谷区,宇田川町４１番２６号パピエビル４０２号室,,13,113,1500042,,,,,,,2024-06-14,1,,,,,クマ,0
2509,9011001162654,新規,0,2024-06-14,2024-06-14,株式会社ｗｉｔｈｅａｓｅ,,株式会社,東京都,渋谷区,神宮前２丁目３３番５－２０４号,,13,113,1500001,,,,,,,2024-06-14,1,,,,,ウィズイース,0
2514,9011101107690,新規,0,2024-06-14,2024-06-14,株式会社テックストーム,,株式会社,東京都,新宿区,西新宿１丁目２６番２号新宿野村ビル３２階,,13,104,1600023,,,,,,,2024-06-14,1,,,,,テックストーム,0
2515,9011101107740,新規,0,2024-06-14,2024-06-14,株式会社ライスシャワー,,株式会社,東京都,新宿区,北新宿３丁目４０番９号,,13,104,1690074,,,,,,,2024-06-14,1,,,,,ライスシャワー,0
2516,9011103014547,新規,0,2024-06-14,2024-06-14,合同会社イエローサブマリン,,合同会社,東京都,新宿区,中落合４丁目１３番１号,,13,104,1610032,,,,,,,2024-06-14,1,,,,,イエローサブマリン,0
2517,9011103014563,新規,0,2024-06-14,2024-06-14,田中事業承継合同会社,,合同会社,東京都,新宿区,戸山１丁目２番７－３０８号,,13,104,1620052,,,,,,,2024-06-14,1,,,,,タナカジギョウショウケイ,0
2520,9011401026203,新規,0,2024-06-14,2024-06-14,株式会社Ｃｏｏｌ　Ｉｎｎｏｖａｔｉｏｎ　Ｊａｐａｎ,,株式会社,東京都,板橋区,板橋２丁目６５番８号ＭＳビル５階,,13,119,1730004,,,,,,,2024-06-14,1,,,,,クールイノベーションジャパン,0
2525,9011701027388,新規,0,2024-06-14,2024-06-14,株式会社Ｊａｐｏｎｉｃａ　Ｍａｒｋｅｔ,,株式会社,東京都,江戸川区,春江町２丁目４３番１６号,,13,123,1320003,,,,,,,2024-06-14,1,,,,,ジャポニカマーケット,0
2529,9011803006281,新規,0,2024-06-14,2024-06-14,合同会社Ｍｙｓ,,合同会社,東京都,葛飾区,金町５丁目１７番５号,,13,122,1250042,,,,,,,2024-06-14,1,,,,,ミース,0
2530,9011805003376,新規,0,2024-06-14,2024-06-14,一般社団法人かつしか活き生き健康麻雀サロン,,その他の設立登記法人,東京都,葛飾区,奥戸２丁目８番１０－５０１号,,13,122,1240022,,,,,,,2024-06-14,1,,,,,カツシカイキイキケンコウマージャンサロン,0
2552,9021001082496,新規,0,2024-06-14,2024-06-14,株式会社ＨＩＧＨＥＳＴ,,株式会社,神奈川県,藤沢市,羽鳥１丁目６番１２号,,14,205,2510056,,,,,,,2024-06-14,1,,,,,ハイエスト,0
2554,9021003014638,新規,0,2024-06-14,2024-06-14,合同会社ＳＳ,,合同会社,神奈川県,相模原市中央区,鹿沼台１丁目１１－９,,14,152,2520233,,,,,,,2024-06-14,1,,,,,エスエス,0
2562,9030001160914,新規,0,2024-06-14,2024-06-14,株式会社Ｇｒａｓｈ,,株式会社,埼玉県,さいたま市桜区,田島１丁目１７番１７－２０４号,,11,106,3380837,,,,,,,2024-06-14,1,,,,,グラッシュ,0
2573,9040001133968,新規,0,2024-06-14,2024-06-14,株式会社谷城,,株式会社,千葉県,印西市,笠神２５７７番地１,,12,231,2702322,,,,,,,2024-06-14,1,,,,,ヤシロ,0
2574,9040001134066,新規,0,2024-06-14,2024-06-14,ソフィアホールディングス株式会社,,株式会社,千葉県,千葉市若葉区,西都賀５丁目８番２号,,12,104,2640026,,,,,,,2024-06-14,1,,,,,ソフィアホールディングス,0
2575,9040001134090,新規,0,2024-06-14,2024-06-14,緯満久株式会社,,株式会社,千葉県,東金市,八坂台５丁目３２番地３,,12,213,2830801,,,,,,,2024-06-14,1,,,,,イマーク,0
2580,9040003025222,新規,0,2024-06-14,2024-06-14,山江商事合同会社,,合同会社,千葉県,市原市,姉崎５７２－３ＩＮＣＯｆｆｉｃｅ姉崎２０１室,,12,219,2990111,,,,,,,2024-06-14,1,,,,,ヤマエショウジ,0
2582,9050003008465,新規,0,2024-06-14,2024-06-14,合同会社康雀商店,,合同会社,茨城県,日立市,多賀町１丁目７番２７号,,08,202,3160003,,,,,,,2024-06-14,1,,,,,コウジャクショウテン,0
2586,9070001041838,新規,0,2024-06-14,2024-06-14,株式会社リサイクルステーション,,株式会社,群馬県,桐生市,広沢町７丁目５１２５番地の１,,10,203,3760013,,,,,,,2024-06-14,1,,,,,リサイクルステーション,0
2587,9070001041846,新規,0,2024-06-14,2024-06-14,株式会社日本技術研究所,,株式会社,群馬県,桐生市,菱町１丁目９７６番地の９,,10,203,3760001,,,,,,,2024-06-14,1,,,,,ニホンギジュツケンキュウジョ,0
2588,9070001041862,新規,0,2024-06-14,2024-06-14,株式会社ＵＮＤＥＲ,,株式会社,群馬県,高崎市,東町３２番地１ブリリアタワー高崎アルファレジデンシア４０１,,10,202,3700045,,,,,,,2024-06-14,1,,,,,アンダー,0
2592,9080001026342,新規,0,2024-06-14,2024-06-14,株式会社清田防水工業,,株式会社,静岡県,静岡市駿河区,中島１４９５番地の１,,22,102,4228046,,,,,,,2024-06-14,1,,,,,キヨタボウスイコウギョウ,0
2593,9080103003082,新規,0,2024-06-14,2024-06-14,合同会社Ｚｅｒｏ‐Ｐａｒｋ,,合同会社,静岡県,富士宮市,大中里６番地の３,,22,207,4180044,,,,,,,2024-06-14,1,,,,,ゼロパーク,0
2598,9100001037510,新規,0,2024-06-14,2024-06-14,株式会社Ｍｏｌｏｒ　Ｓｈａｎｄ,,株式会社,長野県,長野市,大字鶴賀田町２１８５番地６,,20,201,3800815,,,,,,,2024-06-14,1,,,,,モロルシャンデ,0
2608,9120001265860,新規,0,2024-06-14,2024-06-14,株式会社ＴＥＲＱ,,株式会社,大阪府,大阪市北区,天満１丁目１９番１５号ハイラーク天満橋２０３号室,,27,127,5300043,,,,,,,2024-06-14,1,,,,,テルク,0
2609,9120001265919,新規,0,2024-06-14,2024-06-14,エス・ケーエンジニアリング株式会社,,株式会社,大阪府,大阪市平野区,長吉川辺３丁目１９番１９号,,27,126,5470014,,,,,,,2024-06-14,1,,,,,エスケーエンジニアリング,0
2610,9120001265927,新規,0,2024-06-14,2024-06-14,コネクトライン株式会社,,株式会社,大阪府,大阪市住吉区,万代５丁目１８番４号,,27,120,5580055,,,,,,,2024-06-14,1,,,,,コネクトライン,0
2611,9120001265951,新規,0,2024-06-14,2024-06-14,株式会社ラシャンス,,株式会社,大阪府,大阪市中央区,島之内２丁目１１番２－３０９号,,27,128,5420082,,,,,,,2024-06-14,1,,,,,ラシャンス,0
2619,9120901049314,新規,0,2024-06-14,2024-06-14,ＡｖｅｎｕｅＴｅｃｈｎｏｌｏｇｉｅｓ株式会社,,株式会社,大阪府,吹田市,幸町２３番１号,,27,205,5640015,,,,,,,2024-06-14,1,,,,,アヴェニューテクノロジーズ,0
2622,9122001038180,新規,0,2024-06-14,2024-06-14,株式会社リオン,,株式会社,大阪府,東大阪市,川俣３丁目１番３８－７０６号,,27,227,5770063,,,,,,,2024-06-14,1,,,,,リオン,0
2623,9130001077280,新規,0,2024-06-14,2024-06-14,スタジオエムズ株式会社,,株式会社,京都府,京都市中京区,夷川通柳馬場東入ル俵屋町２９２番地アスヴェル京都御所前ＩＩ,00135182,26,104,6040000,,,,,,,2024-06-14,1,,,,,スタジオエムズ,0
2624,9130003009637,新規,0,2024-06-14,2024-06-14,合同会社ＴＯＲＭ,,合同会社,京都府,京都市左京区,岩倉長谷町１９４７番地,,26,103,6060026,,,,,,,2024-06-14,1,,,,,トルム,0
2627,9140001134741,新規,0,2024-06-14,2024-06-14,ＫＯＢＥ　ＤＲＯＮＥ株式会社,,株式会社,兵庫県,神戸市北区,星和台１丁目１６番地の５８,,28,109,6511121,,,,,,,2024-06-14,1,,,,,コウベドローン,0
2628,9140001134790,新規,0,2024-06-14,2024-06-14,株式会社ベストラック,,株式会社,兵庫県,芦屋市,月若町８－１３芦屋川商工ビル４階,,28,206,6590084,,,,,,,2024-06-14,1,,,,,ベストラック,0
2630,9140003020717,新規,0,2024-06-14,2024-06-14,合同会社リリーガーデン,,合同会社,兵庫県,明石市,北朝霧丘１丁目１６２９番地の３３８,,28,203,6730857,,,,,,,2024-06-14,1,,,,,リリーガーデン,0
2633,9150003003282,新規,0,2024-06-14,2024-06-14,合同会社ｎａｔｏｍｉ,,合同会社,奈良県,生駒市,小瀬町４７０番地,,29,209,6300223,,,,,,,2024-06-14,1,,,,,ナトミ,0
2648,9180001161872,新規,0,2024-06-14,2024-06-14,株式会社アベイユ,,株式会社,愛知県,名古屋市中川区,東起町４丁目３４番地の３,,23,110,4540935,,,,,,,2024-06-14,1,,,,,アベイユ,0
2649,9180001162004,新規,0,2024-06-14,2024-06-14,鈴木建工株式会社,,株式会社,愛知県,名古屋市中川区,一色新町３丁目９１２番地パームスプリングス８０５号,,23,110,4540946,,,,,,,2024-06-14,1,,,,,スズキケンコウ,0
2650,9180001162012,新規,0,2024-06-14,2024-06-14,株式会社Ｋ＆Ｍマネージメント,,株式会社,愛知県,海部郡大治町,大字花常字西屋敷８番地,,23,424,4901136,,,,,,,2024-06-14,1,,,,,ケイアンドエムマネージメント,0
2651,9180001162029,新規,0,2024-06-14,2024-06-14,貿易ジャパン株式会社,,株式会社,愛知県,名古屋市北区,柳原４丁目６番３号（Ｙ’ｓＳｑｕａｒｅ名城公園１０６号）,,23,103,4620845,,,,,,,2024-06-14,1,,,,,ボウエキジャパン,0
2655,9180003026941,新規,0,2024-06-14,2024-06-14,合同会社トキワ,,合同会社,愛知県,北名古屋市,鹿田２５６８番地１グリーンシティＣ－２０３,,23,234,4810004,,,,,,,2024-06-14,1,,,,,トキワ,0
2656,9180003026958,新規,0,2024-06-14,2024-06-14,合同会社安藤企画マネジメント,,合同会社,愛知県,春日井市,大泉寺町１０４６番地４５,,23,206,4860812,,,,,,,2024-06-14,1,,,,,アンドウキカクマネジメント,0
2666,9180301038713,新規,0,2024-06-14,2024-06-14,株式会社ＭＡＴＹ,,株式会社,愛知県,西尾市,永吉３丁目２番地,,23,213,4450870,,,,,,,2024-06-14,1,,,,,メイティ,0
2667,9190003004715,新規,0,2024-06-14,2024-06-14,ＳＡＢ合同会社,,合同会社,三重県,桑名市,多度町香取字向田９１０番地２,,24,205,5110102,,,,,,,2024-06-14,1,,,,,エスエービイ,0
2668,9200003006387,新規,0,2024-06-14,2024-06-14,合同会社ＦＥＲＶＯＵＲ,,合同会社,岐阜県,岐阜市,祈年町１丁目２２番地１,,21,201,5008156,,,,,,,2024-06-14,1,,,,,ファーバー,0
2695,9290001106107,新規,0,2024-06-14,2024-06-14,華配送株式会社,,株式会社,福岡県,那珂川市,五郎丸１丁目３９－１,,40,231,8111252,,,,,,,2024-06-14,1,,,,,ハナハイソウ,0
2696,9290001106164,新規,0,2024-06-14,2024-06-14,洋洋円株式会社,,株式会社,福岡県,福岡市城南区,友丘６丁目１０－５－１０３号室スペーステック友丘ＩＩ,00135172,40,136,8140112,,,,,,,2024-06-14,1,,,,,ヨウヨウエン,0
2703,9300001013796,新規,0,2024-06-14,2024-06-14,株式会社アイテック,,株式会社,佐賀県,神埼市,神埼町本堀３２１０番地３,,41,210,8420003,,,,,,,2024-06-14,1,,,,,アイテック,0
2704,9300003002137,新規,0,2024-06-14,2024-06-14,合同会社ほのぼの脊振,,合同会社,佐賀県,神埼市,脊振町服巻５５１１番１,,41,210,8420203,,,,,,,2024-06-14,1,,,,,ホノボノセフリ,0
2709,9320001020543,新規,0,2024-06-14,2024-06-14,株式会社七萬,,株式会社,大分県,大分市,大字城原２３３３番地３,,44,201,8700267,,,,,,,2024-06-14,1,,,,,ナナマン,0
2712,9330001032166,新規,0,2024-06-14,2024-06-14,明笙貿易生技株式会社,,株式会社,熊本県,菊池郡大津町,大字室２１２１ー７,,43,403,8691235,,,,,,,2024-06-14,1,,,,,メイショウボウエキセイギ,0
2713,9330001032174,新規,0,2024-06-14,2024-06-14,株式会社ＲｉＦＯＷ,,株式会社,熊本県,熊本市中央区,安政町２番２４号２階,,43,101,8600801,,,,,,,2024-06-14,1,,,,,リフォー,0
2720,9360003014069,新規,0,2024-06-14,2024-06-14,合同会社さちトラベルエージェンシー,,合同会社,沖縄県,浦添市,仲間１丁目１０番６号１階,,47,208,9012103,,,,,,,2024-06-14,1,,,,,サチトラベルエージェンシー,0
2725,9370003006651,新規,0,2024-06-14,2024-06-14,合同会社エフスタイル,,合同会社,宮城県,仙台市青葉区,折立１丁目３－２６,,04,101,9820261,,,,,,,2024-06-14,1,,,,,エフスタイル,0
2741,9440001009459,新規,0,2024-06-14,2024-06-14,株式会社ＫＡＭＩ,,株式会社,北海道,函館市,上湯川町４４番２３号,,01,202,0420914,,,,,,,2024-06-14,1,,,,,カミ,0
2745,9490003001896,新規,0,2024-06-14,2024-06-14,合同会社喜月,,合同会社,高知県,須崎市,浦ノ内東分４０９番地２,,39,206,7850162,,,,,,,2024-06-14,1,,,,,キヅキ,0
2747,9500001025697,新規,0,2024-06-14,2024-06-14,株式会社柑橘ｓｔｕｄｉｏ,,株式会社,愛媛県,松山市,北久米町４８３番地東の借家１号,,38,201,7900923,,,,,,,2024-06-14,1,,,,,カンキツスタジオ,0
2749,9700150119107,新規,0,2024-06-14,2024-06-14,ＳＨＥＮＺＨＥＮ　ＸＩＡＯＳＨＥＮＬＵ　ＫＥＪＩ　ＹＯＵＸＩＡＮＧＯＮＧＳＩ,,外国会社等,,,,,,,,Ｆｕｔｉａｎｑｕ　Ｎａｎｙｕａｎｊｉｅｄａｏ　Ｓｈａｎｇｂｕｎａｎｌｕ　Ｊｉｎｆｅｎｇｄａｓｈａｘｉｅｚｉｌｏｕ　２６０２ｓｈｉ　Ｓｈｅｎｚｈｅｎ　Ｇｕａｎｇｄｏｎｇ,,,,,,2024-06-14,1,,,,,シェンジェンシヤオシェンルゥコァジヨウシエンゴンス,0
2750,9700150125988,新規,0,2024-06-14,2024-06-14,Ｈａｎｇｚｈｏｕ　Ａｉｙｏｕｗｅｉ　Ａｐｐｌｉａｎｃｅｓ　Ｃｏ．，Ｌｔｄ．,,外国会社等,,,,,,,,Ｓｏｕｔｈ　ａｒｅａ　１ｓｔｆｌｏｏｒ　Ｂｕｉｌｄｉｎｇ２　Ｎｏ．７　Ｎｏ．２２　Ｂａｉｙａｎｇ　Ｓｔｒｅｅｔ　Ｑｉａｎｔａｎｇ　Ｄｉｓｔｒｉｃｔ　Ｈａｎｇｚｈｏｕ　Ｚｈｅｊｉａｎｇ　ＣＮ,,,,,,2024-06-14,1,,,,,ハンゾウアイヨウウェイアプライアンシズカンパニーリミテッド,0
