sequenceNumber,corporateNumber,process,correct,updateDate,changeDate,name,nameImageId,kind,prefectureName,cityName,streetNumber,addressImageId,prefectureCode,cityCode,postCode,addressOutside,addressOutsideImageId,closeDate,closeCause,successorCorporateNumber,changeCause,assignmentDate,latest,enName,enPrefectureName,enCityName,enAddressOutside,furigana,hihyoji
1,1000020289604,登記記録の閉鎖等,0,2024-05-23,2020-03-31,東播磨農業共済事務組合,,地方公共団体,兵庫県,加古川市,加古川町北在家２０００番地,,28,210,6750031,,,2020-03-31,その他の清算の結了等,,,2015-10-05,1,Higashiharimanogyokyosaijimukumiai,Hyogo,"2000,Kakogawacho-Kitazaike, Kakogawa shi",,ヒガシハリマノウギョウキョウサイジムクミアイ,0
8,1010001235428,登記記録の閉鎖等,0,2024-05-23,2024-05-17,株式会社Ｌｉｅｎ　Ａｒｃ,,株式会社,東京都,中央区,勝どき６丁目３番２号,,13,102,1040054,,,2024-05-17,清算の結了等,,,2023-05-19,1,,,,,リアンアーク,0
18,1010102002165,登記記録の閉鎖等,0,2024-05-23,2024-05-21,有限会社協和製作所,,有限会社,東京都,八王子市,東浅川町５１１番地の５,,13,201,1930834,,,2024-05-21,清算の結了等,,,2015-10-05,1,,,,,キヨウワセイサクシヨ,0
30,1010403019338,登記記録の閉鎖等,0,2024-05-23,2024-05-02,ドーンジャパンホールディングス合同会社,,合同会社,東京都,港区,白金台３丁目１０番１０号,,13,103,1080071,,,2024-05-02,清算の結了等,,,2018-09-19,1,,,,,ドーンジャパンホールディングス,0
34,1010601038750,登記記録の閉鎖等,0,2024-05-23,2024-05-10,株式会社ＵＳＫ,,株式会社,東京都,中央区,晴海３丁目１３番２号－１２１４号,,13,102,1040053,,,2024-05-10,清算の結了等,,,2015-10-05,1,,,,,ユーエスケー,0
73,1012702012675,登記記録の閉鎖等,0,2024-05-23,2024-05-20,有限会社ＮＥＷＳ－ＤＥＲＩ,,有限会社,東京都,東久留米市,下里５丁目３番１６号,,13,222,2030043,,,2024-05-20,清算の結了等,,,2015-10-05,1,,,,,,0
85,1021001021882,登記記録の閉鎖等,0,2024-05-23,2024-05-22,株式会社ホームコンサルティング,,株式会社,神奈川県,厚木市,酒井５２６,,14,212,2430022,,,2024-05-22,清算の結了等,,,2015-10-05,1,,,,,ホームコンサルティング,0
88,1021001063231,登記記録の閉鎖等,0,2024-05-23,2024-05-17,株式会社エイピーセンター,,株式会社,神奈川県,小田原市,蓮正寺３４１番地の２,,14,206,2500865,,,2024-05-17,清算の結了等,,,2017-10-10,1,,,,,エイピーセンター,0
89,1021002003830,登記記録の閉鎖等,0,2024-05-23,2024-05-22,有限会社ニュートン・ランド,,有限会社,神奈川県,藤沢市,長後６１７番地の７,,14,205,2520801,,,2024-05-22,清算の結了等,,,2015-10-05,1,,,,,,0
92,1030001028425,登記記録の閉鎖等,0,2024-05-23,2024-05-20,株式会社青山,,株式会社,埼玉県,所沢市,松が丘２丁目４番地の３,,11,208,3591132,,,2024-05-20,清算の結了等,,,2015-10-05,1,,,,,アオヤマ,0
93,1030001043234,登記記録の閉鎖等,0,2024-05-23,2024-05-17,サンテック株式会社,,株式会社,埼玉県,上尾市,向山５丁目２番地２４,,11,219,3620045,,,2024-05-17,清算の結了等,,,2015-10-05,1,,,,,サンテック,0
125,1070002004330,登記記録の閉鎖等,0,2024-05-23,2024-05-21,有限会社ハピネス,,有限会社,群馬県,前橋市,北代田町４０４番地の２,,10,201,3710055,,,2024-05-21,清算の結了等,,,2015-10-05,1,,,,,ハピネス,0
159,1120105006251,登記記録の閉鎖等,0,2024-05-23,2024-05-14,南大阪エコ事業協同組合,,その他の設立登記法人,大阪府,岸和田市,別所町１丁目９番９号,,27,202,5960045,,,2024-05-14,清算の結了等,,,2015-10-05,1,,,,,ミナミオオサカエコ,0
166,1140001045459,登記記録の閉鎖等,0,2024-05-23,2024-05-20,株式会社アメニティ・プランニング,,株式会社,兵庫県,加古川市,尾上町池田７７４番地,,28,210,6750023,,,2024-05-20,合併による解散等,7430001069398,令和６年５月１日札幌市白石区東札幌五条二丁目４番３０号株式会社アインファーマシーズ（7430001069398）に合併し解散,2015-10-05,1,,,,,アメニティプランニング,0
178,1180001100425,登記記録の閉鎖等,0,2024-05-23,2024-05-14,株式会社ＡＶＡＮＴＩ,,株式会社,愛知県,名古屋市中川区,西中島２丁目１１１番地,,23,110,4540934,,,2024-05-14,清算の結了等,,,2015-10-05,1,,,,,アヴァンティ,0
179,1180001106199,登記記録の閉鎖等,0,2024-05-23,2024-05-16,株式会社岩田塗装,,株式会社,愛知県,名古屋市昭和区,安田通６丁目３番地,,23,107,4660857,,,2024-05-16,清算の結了等,,,2015-10-05,1,,,,,イワタトソウ,0
191,1190001015861,登記記録の閉鎖等,0,2024-05-23,2024-05-21,株式会社ニユーヨツカイチビル,,株式会社,三重県,四日市市,諏訪栄町５番４号,,24,202,5100086,,,2024-05-21,清算の結了等,,,2015-10-05,1,,,,,ニューヨッカイチビル,0
196,1230001018694,登記記録の閉鎖等,0,2024-05-23,2024-05-21,株式会社大福,,株式会社,富山県,富山市,高田５２７富山県総合情報センタービル,,16,201,9300866,,,2024-05-21,清算の結了等,,,2021-02-26,1,,,,,ダイフク,0
200,1240002007547,登記記録の閉鎖等,0,2024-05-23,2024-05-22,有限会社シンセイテック,,有限会社,広島県,広島市安芸区,中野東６丁目２６番２号,,34,107,7390323,,,2024-05-22,清算の結了等,,,2015-10-05,1,,,,,シンセイテック,0
209,1290005007300,登記記録の閉鎖等,0,2024-05-23,2024-05-02,医療法人ほりお歯科医院,,その他の設立登記法人,福岡県,朝倉市,馬田５０６番地の１,,40,228,8380058,,,2024-05-02,清算の結了等,,,2015-10-05,1,,,,,ホリオシカイイン,0
212,1330003007801,登記記録の閉鎖等,0,2024-05-23,2024-05-16,合同会社ルヴァン,,合同会社,熊本県,熊本市中央区,本荘３丁目６番２６－１３０１号,,43,101,8600811,,,2024-05-16,清算の結了等,,,2019-02-07,1,,,,,ルヴァン,0
264,2010401136084,登記記録の閉鎖等,0,2024-05-23,2024-05-17,株式会社Ｒｓｍａｒｔ,,株式会社,愛知県,名古屋市中川区,伏屋４丁目４０４番地エコ―パレス伏屋２０３号,,23,110,4540996,,,2024-05-17,清算の結了等,,,2018-01-22,1,,,,,アールスマート,0
280,2010801000542,登記記録の閉鎖等,0,2024-05-23,2024-05-17,株式会社アンテリア,,株式会社,東京都,大田区,東蒲田２丁目２３番２号,,13,111,1440031,,,2024-05-17,清算の結了等,,,2015-10-05,1,,,,,アンテリア,0
327,2020001003295,登記記録の閉鎖等,0,2024-05-23,2024-05-16,株式会社ユミズ,,株式会社,神奈川県,横浜市港南区,日野南１丁目３０番１３号,,14,111,2340055,,,2024-05-16,清算の結了等,,,2015-10-05,1,,,,,ユミズ,0
354,2040002067156,登記記録の閉鎖等,0,2024-05-23,2024-05-13,有限会社田丸プロパン,,有限会社,千葉県,木更津市,笹子６３８番地,,12,206,2920032,,,2024-05-13,清算の結了等,,,2015-10-05,1,,,,,タマルプロパン,0
355,2040003013233,登記記録の閉鎖等,0,2024-05-23,2024-05-13,美嵐コンサルティング合同会社,,合同会社,千葉県,千葉市稲毛区,あやめ台三丁目４番５０２号室,,12,103,2630052,,,2024-05-13,清算の結了等,,,2019-04-15,1,,,,,メイランコンサルティング,0
359,2050002007524,登記記録の閉鎖等,0,2024-05-23,2024-05-20,有限会社花の荘とくら姫,,有限会社,茨城県,東茨城郡城里町,大字徳蔵６１２番地の１,,08,310,3114407,,,2024-05-20,清算の結了等,,,2015-10-05,1,,,,,ハナノソウトクラヒメ,0
360,2060002011384,登記記録の閉鎖等,0,2024-05-23,2024-05-16,テクニカル水道サービス有限会社,,有限会社,栃木県,宇都宮市,下戸祭１丁目９番４号,,09,201,3200055,,,2024-05-16,清算の結了等,,,2015-10-05,1,,,,,テクニカルスイドウサービス,0
365,2070001035326,登記記録の閉鎖等,0,2024-05-23,2024-05-20,株式会社エレメント電子商事,,株式会社,群馬県,高崎市,上豊岡町５６０番地６,,10,202,3700871,,,2024-05-20,清算の結了等,,,2018-12-13,1,,,,,エレメントデンシショウジ,0
370,2080002003322,登記記録の閉鎖等,0,2024-05-23,2024-05-21,有限会社静南電設,,有限会社,静岡県,静岡市駿河区,小鹿４７４番地の３,,22,102,4228021,,,2024-05-21,清算の結了等,,,2015-10-05,1,,,,,セイナンデンセツ,0
372,2080101013544,登記記録の閉鎖等,0,2024-05-23,2024-05-21,株式会社川奈ホテル,,株式会社,静岡県,伊東市,川奈１４５９番地,,22,208,4140044,,,2024-05-21,合併による解散等,3013301048431,令和６年５月１日東京都豊島区南池袋一丁目１６番１５号株式会社西武・プリンスホテルズワールドワイド（3013301048431）に合併し解散,2015-10-05,1,,,,,カワナホテル,0
373,2080102005078,登記記録の閉鎖等,0,2024-05-23,2024-05-21,有限会社山倬水産,,有限会社,静岡県,沼津市,蛇松町１３番地の１,,22,203,4100842,,,2024-05-21,清算の結了等,,,2015-10-05,1,,,,,ヤマタクスイサン,0
389,2100005012268,登記記録の閉鎖等,0,2024-05-23,2024-05-02,特定非営利活動法人国際協力ＮＧＯファミリア,,その他の設立登記法人,長野県,東筑摩郡山形村,３５０３番地１,,20,450,3901301,,,2024-05-02,清算の結了等,,,2018-07-25,1,,,,,コクサイキョウリョクエヌジーオーファミリア,0
395,2120001231613,登記記録の閉鎖等,0,2024-05-23,2024-05-22,イージースタイル株式会社,,株式会社,大阪府,大阪市北区,曾根崎２丁目８－５お初天神ＥＡＳＴＢＬＤＧ３Ｆ,,27,127,5300057,,,2024-05-22,清算の結了等,,,2020-09-09,1,,,,,イージースタイル,0
407,2120901018688,登記記録の閉鎖等,0,2024-05-23,2024-05-17,株式会社ワックエデュケーション,,株式会社,大阪府,吹田市,豊津町１番２１号,,27,205,5640051,,,2024-05-17,清算の結了等,,,2015-10-05,1,,,,,ワックエデュケーション,0
419,2140001055515,登記記録の閉鎖等,0,2024-05-23,2024-05-17,株式会社渡辺建設,,株式会社,兵庫県,尼崎市,築地１丁目１番１３号,,28,202,6600858,,,2024-05-17,清算の結了等,,,2015-10-05,1,,,,,ワタナベケンセツ,0
424,2140005024482,登記記録の閉鎖等,0,2024-05-23,2024-05-22,特定非営利活動法人ｈａｉｒ　ｓａｌｏｎ　Ｖｉｃｅｌｌａ　ｆｉｒｓｔ　ｂｅａｕｔｙ,,その他の設立登記法人,兵庫県,加古川市,平岡町新在家８７７番地の８,,28,210,6750101,,,2024-05-22,清算の結了等,,,2019-02-27,1,,,,,ヘアーサロンビセラファーストビューティー,0
447,2190002009259,登記記録の閉鎖等,0,2024-05-23,2024-05-22,有限会社中井塗装,,有限会社,三重県,伊勢市,上地町２９５番地２７,,24,203,5160051,,,2024-05-22,清算の結了等,,,2015-10-05,1,,,,,ナカイトソウ,0
480,2350002011058,登記記録の閉鎖等,0,2024-05-23,2024-05-13,有限会社ヨシオカホンダ,,有限会社,宮崎県,日向市,大字財光寺２３５番地１,,45,206,8830021,,,2024-05-13,清算の結了等,,,2015-10-05,1,,,,,ヨシオカホンダ,0
481,2360001029199,登記記録の閉鎖等,0,2024-05-23,2024-05-21,株式会社玉豊商事,,株式会社,沖縄県,浦添市,伊祖５丁目１１番１２号,,47,208,9012132,,,2024-05-21,清算の結了等,,,2021-08-05,1,,,,,タマトヨショウジ,0
488,2400602001584,登記記録の閉鎖等,0,2024-05-23,2024-05-09,有限会社希誠,,有限会社,岩手県,奥州市,水沢佐倉河字根岸７１番地１,,03,215,0230003,,,2024-05-09,清算の結了等,,,2015-10-05,1,,,,,マレセイ,0
499,3000020288802,登記記録の閉鎖等,0,2024-05-23,2022-03-31,兵庫県市町交通災害共済組合,,地方公共団体,兵庫県,神戸市中央区,下山手通４丁目１６－３,,28,110,6500011,,,2022-03-31,その他の清算の結了等,,,2015-10-05,1,Hyogokenshichokoutsusaigaikyosaikumiai,Hyogo,"4-16-3,Shimoyamatedori, Chuo ku,Kobe shi",,ヒョウゴケンシチョウコウツウサイガイキョウサイクミアイ,0
503,3010001142671,登記記録の閉鎖等,0,2024-05-23,2024-05-10,株式会社トレーデクス,,株式会社,東京都,中央区,新川２丁目５番２号,,13,102,1040033,,,2024-05-10,合併による解散等,8010001088209,令和６年５月１日東京都中央区新川二丁目５番２号株式会社日本證券新聞社（8010001088209）に合併し解散,2015-10-05,1,,,,,トレーデクス,0
520,3010401171460,登記記録の閉鎖等,0,2024-05-23,2024-05-07,株式会社アリア,,株式会社,東京都,港区,浜松町１丁目１７番３号シダフォレスト浜松町３階,,13,103,1050013,,,2024-05-07,清算の結了等,,,2022-12-20,1,,,,,アリア,0
531,3010701008750,登記記録の閉鎖等,0,2024-05-23,2024-05-17,株式会社藤森海苔店,,株式会社,東京都,品川区,南品川２丁目９番３号,,13,109,1400004,,,2024-05-17,清算の結了等,,,2015-10-05,1,,,,,フジモリノリテン,0
536,3010801003998,登記記録の閉鎖等,0,2024-05-23,2024-05-17,株式会社コンドウインターナショナル,,株式会社,東京都,大田区,田園調布４丁目４６番１１号,,13,111,1450071,,,2024-05-17,清算の結了等,,,2015-10-05,1,,,,,コンドウインターナショナル,0
574,3011402007117,登記記録の閉鎖等,0,2024-05-23,2024-05-16,有限会社萩原機器製作所,,有限会社,東京都,板橋区,大和町２９番８号,,13,119,1730012,,,2024-05-16,清算の結了等,,,2015-10-05,1,,,,,ハギワラキキセイサクショ,0
580,3011701017056,登記記録の閉鎖等,0,2024-05-23,2024-05-14,株式会社原工,,株式会社,東京都,江戸川区,平井４丁目１７番３－１０１号,,13,123,1320035,,,2024-05-14,清算の結了等,,,2015-10-05,1,,,,,ハラコウ,0
611,3040001082295,登記記録の閉鎖等,0,2024-05-23,2024-04-30,クッキーメール株式会社,,株式会社,千葉県,長生郡長南町,長南２０３２－１,,12,427,2970121,,,2024-04-30,合併による解散等,1040001060369,令和６年４月３０日千葉県長生郡長南町長南２０３２－１ビーテック株式会社（1040001060369）に合併し解散,2015-10-05,1,,,,,クッキーメール,0
615,3040002086304,登記記録の閉鎖等,0,2024-05-23,2024-05-10,有限会社シフ・タカハシ,,有限会社,千葉県,旭市,飯岡３４０９番地３,,12,215,2892705,,,2024-05-10,清算の結了等,,,2015-10-05,1,,,,,シフタカハシ,0
616,3040003006491,登記記録の閉鎖等,0,2024-05-23,2024-05-13,ＷＳ＆Ａｓｓｏｃｉａｔｅｓ合同会社,,合同会社,東京都,千代田区,神田神保町２丁目４番地水戸興産ビル８階,,13,101,1010051,,,2024-05-13,清算の結了等,,,2015-10-05,1,,,,,ダブリューエスアンドアソシエイツ,0
620,3050001013266,登記記録の閉鎖等,0,2024-05-23,2024-05-17,茨城資材興業株式会社,,株式会社,茨城県,下妻市,下妻乙５６９番地の４,,08,210,3040067,,,2024-05-17,清算の結了等,,,2015-10-05,1,,,,,イバラキシザイコウギョウ,0
676,3140001036893,登記記録の閉鎖等,0,2024-05-23,2024-05-15,太陽電設工業株式会社,,株式会社,兵庫県,三木市,口吉川町東中３４６番地,,28,215,6730731,,,2024-05-15,清算の結了等,,,2015-10-05,1,,,,,タイヨウデンセツコウギョウ,0
679,3140003012488,登記記録の閉鎖等,0,2024-05-23,2024-05-17,合同会社ＡＫＴシステムズ,,合同会社,東京都,新宿区,四谷坂町１１番１０－１０３号,,13,104,1600002,,,2024-05-17,清算の結了等,,,2017-10-16,1,,,,,エーケーティーシステムズ,0
685,3160002010334,登記記録の閉鎖等,0,2024-05-23,2024-05-21,滋賀計装有限会社,,有限会社,滋賀県,彦根市,高宮町１６９８番地１３,,25,202,5220201,,,2024-05-21,清算の結了等,,,2015-10-05,1,,,,,シガケイソウ,0
706,3200001029222,登記記録の閉鎖等,0,2024-05-23,2024-05-21,株式会社エクセル,,株式会社,岐阜県,多治見市,姫町７丁目３０番地,,21,204,5070061,,,2024-05-21,清算の結了等,,,2015-10-05,1,,,,,エクセル,0
711,3220002015871,登記記録の閉鎖等,0,2024-05-23,2024-05-20,有限会社エイコー,,有限会社,石川県,鳳珠郡能登町,字宇出津新港２丁目７番地,,17,463,9270435,,,2024-05-20,清算の結了等,,,2015-10-05,1,,,,,エイコー,0
719,3240003001142,登記記録の閉鎖等,0,2024-05-23,2024-05-21,合同会社ＹＯＵ－Ｉ産業,,合同会社,広島県,広島市安佐南区,安東４丁目２０番３号,,34,105,7310153,,,2024-05-21,清算の結了等,,,2015-10-05,1,,,,,ユーアイサンギョウ,0
720,3260001013559,登記記録の閉鎖等,0,2024-05-23,2024-05-15,進栄運輸株式会社,,株式会社,岡山県,倉敷市,東塚５丁目１２番２４号,,33,202,7128044,,,2024-05-15,清算の結了等,,,2015-10-05,1,,,,,シンエイウンユ,0
743,3310001016770,登記記録の閉鎖等,0,2024-05-23,2024-05-13,株式会社Ｔｏｄａｙ’ｓＤａｔｅ,,株式会社,長崎県,佐世保市,江迎町乱橋２６０番地１３,,42,202,8596124,,,2024-05-13,清算の結了等,,,2020-07-09,1,,,,,トゥデイズデイト,0
748,3340001006975,登記記録の閉鎖等,0,2024-05-23,2024-05-21,本郷商事株式会社,,株式会社,鹿児島県,鹿児島市,清和１丁目３２番２号,,46,201,8910109,,,2024-05-21,清算の結了等,,,2015-10-05,1,,,,,ホンゴウショウジ,0
750,3350002007286,登記記録の閉鎖等,0,2024-05-23,2024-05-22,有限会社蚊口工務店,,有限会社,宮崎県,東諸県郡綾町,大字南俣７９３番地１,,45,383,8801303,,,2024-05-22,清算の結了等,,,2015-10-05,1,,,,,カグチコウムテン,0
753,3370001006667,登記記録の閉鎖等,0,2024-05-23,2024-05-17,仙台明邦産業株式会社,,株式会社,宮城県,仙台市宮城野区,福田町南１丁目５番１２号,,04,102,9830025,,,2024-05-17,清算の結了等,,,2015-10-05,1,,,,,,0
755,3370301002390,登記記録の閉鎖等,0,2024-05-23,2024-05-16,株式会社ヤマテル,,株式会社,宮城県,石巻市,雄勝町上雄勝３丁目６４番地,,04,202,9861336,,,2024-05-16,清算の結了等,,,2015-10-05,1,,,,,ヤマテル,0
786,4000020289337,登記記録の閉鎖等,0,2024-05-23,2020-03-31,揖龍地区農業共済事務組合,,地方公共団体,兵庫県,たつの市,龍野町堂本３８－１,,28,229,6794129,,,2020-03-31,その他の清算の結了等,,,2015-10-05,1,Iryuchikunougyokyosaijimukumiai,Hyogo,"38-1,tatsunocho-domoto, Tatsuno shi",,イリュウチクノウギョウキョウサイジムクミアイ,0
787,4000020289485,登記記録の閉鎖等,0,2024-05-23,2020-03-31,中播農業共済事務組合,,地方公共団体,兵庫県,姫路市,香寺町中屋１４,,28,201,6792144,,,2020-03-31,その他の清算の結了等,,,2015-10-05,1,Chubannogyokyosaijimukumiai,Hyogo,"14,Koderacho-nakaya, Himeji shi",,チュウバンノウギョウキョウサイジムクミアイ,0
801,4010103001989,登記記録の閉鎖等,0,2024-05-23,2024-04-25,合同会社リアン,,合同会社,東京都,東大和市,南街５丁目２８－３,,13,220,2070014,,,2024-04-25,清算の結了等,,,2022-09-13,1,,,,,リアン,0
803,4010401093299,登記記録の閉鎖等,0,2024-05-23,2024-05-08,プリンシプル・コンサルティング株式会社,,株式会社,東京都,港区,六本木２丁目４番５号,,13,103,1060032,,,2024-05-08,合併による解散等,3010401094117,令和６年５月１日東京都港区六本木二丁目４番５号プリンシプル・コンサルティング・グループ株式会社（3010401094117）に合併し解散,2015-10-05,1,,,,,プリンシプルコンサルティング,0
804,4010401123717,登記記録の閉鎖等,0,2024-05-23,2024-05-02,リッチカンパニー株式会社,,株式会社,東京都,港区,麻布十番１丁目９番８号麻布根本ビル２Ｆ,,13,103,1060045,,,2024-05-02,清算の結了等,,,2016-03-15,1,,,,,リッチカンパニー,0
805,4010401166716,登記記録の閉鎖等,0,2024-05-23,2024-05-02,株式会社ＡＩ　ＧｌｏＡ,,株式会社,東京都,港区,赤坂４丁目１３番５号,,13,103,1070052,,,2024-05-02,清算の結了等,,,2022-04-11,1,,,,,エーアイグローア,0
810,4010403031942,登記記録の閉鎖等,0,2024-05-23,2024-05-09,合同会社ＹＣＨ１４,,合同会社,東京都,港区,南青山２丁目２番１５－８２５号,,13,103,1070062,,,2024-05-09,合併による解散等,5011002004058,令和６年５月９日東京都港区南青山二丁目２番１５－８２５号オフィス新丸子株式会社（5011002004058）に合併し解散,2024-02-08,1,,,,,ワイシーエイチフォーティーン,0
847,4011403003007,登記記録の閉鎖等,0,2024-05-23,2024-05-16,合同会社アリス＆テレス,,合同会社,東京都,板橋区,常盤台１丁目３７番１８号,,13,119,1740071,,,2024-05-16,清算の結了等,,,2020-05-15,1,,,,,アリストテレス,0
863,4012701009224,登記記録の閉鎖等,0,2024-05-23,2024-05-21,株式会社オートリッチ,,株式会社,東京都,東久留米市,南沢３丁目１３番１５号,,13,222,2030023,,,2024-05-21,清算の結了等,,,2015-10-05,1,,,,,オートリッチ,0
883,4021003009832,登記記録の閉鎖等,0,2024-05-23,2024-05-22,シューティングスター合同会社,,合同会社,神奈川県,鎌倉市,台５丁目４番２４－４号,,14,204,2470061,,,2024-05-22,清算の結了等,,,2020-11-09,1,,,,,シューティングスター,0
884,4030001013317,登記記録の閉鎖等,0,2024-05-23,2024-05-20,株式会社アイテック,,株式会社,埼玉県,さいたま市緑区,山崎１丁目２番２０号,,11,109,3360903,,,2024-05-20,清算の結了等,,,2015-10-05,1,,,,,アイテック,0
891,4040002038262,登記記録の閉鎖等,0,2024-05-23,2024-05-14,有限会社中商,,有限会社,千葉県,鎌ケ谷市,鎌ケ谷３丁目５番２４号,,12,224,2730105,,,2024-05-14,清算の結了等,,,2015-10-05,1,,,,,ナカショウ,0
892,4040003007126,登記記録の閉鎖等,0,2024-05-23,2024-05-14,ダグラス合同会社,,合同会社,千葉県,佐倉市,新臼井田５番１０号,,12,212,2850862,,,2024-05-14,清算の結了等,,,2015-10-05,1,,,,,ダグラス,0
894,4040003012621,登記記録の閉鎖等,0,2024-05-23,2024-05-02,合同会社ブレイヴ,,合同会社,栃木県,小山市,中央町３丁目７番地１号ロブレ７階,,09,208,3230023,,,2024-05-02,清算の結了等,,,2018-12-17,1,,,,,ブレイヴ,0
900,4050002041991,登記記録の閉鎖等,0,2024-05-23,2024-05-20,有限会社おおわだ設計,,有限会社,茨城県,筑西市,外塚７１２番地,,08,227,3080053,,,2024-05-20,清算の結了等,,,2015-10-05,1,,,,,オオワダセッケイ,0
904,4060001028642,登記記録の閉鎖等,0,2024-05-23,2024-05-15,株式会社エコシス建築,,株式会社,栃木県,宇都宮市,中今泉３丁目２８番１０号,,09,201,3210968,,,2024-05-15,合併による解散等,1060001005297,令和６年５月１５日栃木県宇都宮市中今泉三丁目２８番１０号株式会社ＴＯＫＯ（1060001005297）に合併し解散,2016-09-14,1,,,,,エコシスケンチク,0
906,4070001012892,登記記録の閉鎖等,0,2024-05-23,2024-05-21,株式会社サンテック市川,,株式会社,群馬県,藤岡市,白石２６２５番地２,,10,209,3750055,,,2024-05-21,清算の結了等,,,2015-10-05,1,,,,,サンテックイチカワ,0
922,4120001187399,登記記録の閉鎖等,0,2024-05-23,2024-05-21,コーテック株式会社,,株式会社,大阪府,大阪市淀川区,三津屋北２丁目３番１６号,,27,123,5320032,,,2024-05-21,清算の結了等,,,2015-10-05,1,,,,,コーテック,0
940,4122005000208,登記記録の閉鎖等,0,2024-05-23,2024-05-22,医療法人清光会,,その他の設立登記法人,大阪府,大阪市天王寺区,堂ケ芝１丁目１１番２３号ルミエール堂ヶ芝８０２号,,27,109,5430033,,,2024-05-22,清算の結了等,,,2015-10-05,1,,,,,セイコウカイ,0
952,4170005005817,登記記録の閉鎖等,0,2024-05-23,2024-05-22,一般財団法人古座川ふるさと振興公社,,その他の設立登記法人,和歌山県,東牟婁郡古座川町,月野瀬８８１番地１,,30,424,6494106,,,2024-05-22,清算の結了等,,,2015-10-05,1,,,,,コザガワフルサトシンコウコウシャ,0
979,4240002035751,登記記録の閉鎖等,0,2024-05-23,2024-05-21,大船海運有限会社,,有限会社,広島県,江田島市,能美町高田３３６３番地,,34,215,7372303,,,2024-05-21,清算の結了等,,,2015-10-05,1,,,,,オオフネカイウン,0
981,4290001070002,登記記録の閉鎖等,0,2024-05-23,2024-04-19,株式会社ＢＩＲＤＭＡＮ,,株式会社,福岡県,大野城市,白木原１丁目１１番１３号栄晃ビル３Ｆ,,40,219,8160943,,,2024-04-19,清算の結了等,,,2015-10-05,1,,,,,バードマン,0
991,4300001006953,登記記録の閉鎖等,0,2024-05-23,2024-05-20,株式会社エステックインター,,株式会社,佐賀県,佐賀市,兵庫北３丁目１０番２４－１０２号,,41,201,8490919,,,2024-05-20,清算の結了等,,,2015-10-05,1,,,,,エステックインター,0
1021,4470003000541,登記記録の閉鎖等,0,2024-05-23,2024-05-14,合資会社塩忠商店,,合資会社,香川県,小豆郡小豆島町,苗羽甲１８７２番地,,37,324,7614421,,,2024-05-14,清算の結了等,,,2015-10-05,1,,,,,シオチュウショウテン,0
1045,5010001167007,登記記録の閉鎖等,0,2024-05-23,2024-05-10,株式会社ＲＥＧＯＬＩＴＨ,,株式会社,東京都,港区,新橋３丁目１５番４号,,13,103,1050004,,,2024-05-10,清算の結了等,,,2015-10-05,1,,,,,レゴリス,0
1057,5010003029824,登記記録の閉鎖等,0,2024-05-23,2024-05-10,日光ベル合同会社４,,合同会社,東京都,千代田区,丸の内３丁目１番１号東京共同会計事務所内,,13,101,1000005,,,2024-05-10,清算の結了等,,,2019-05-16,1,,,,,ニッコウベルヨン,0
1080,5010405014011,登記記録の閉鎖等,0,2024-05-23,2024-05-02,本栖湖一般社団法人,,その他の設立登記法人,東京都,港区,虎ノ門５丁目１番４号グローバル・ソリューションズ・コンサルティング株式会社内,,13,103,1050001,,,2024-05-02,清算の結了等,,,2015-10-05,1,,,,,モトスコ,0
1083,5010602010060,登記記録の閉鎖等,0,2024-05-23,2024-05-21,有限会社カイオフィス,,有限会社,東京都,墨田区,立川１丁目４番５号,,13,107,1300023,,,2024-05-21,清算の結了等,,,2015-10-05,1,,,,,カイオフィス,0
1124,5013303002954,登記記録の閉鎖等,0,2024-05-23,2024-05-13,合同会社フォワードコンサルティング,,合同会社,東京都,豊島区,東池袋１丁目３６番３号,,13,116,1700013,,,2024-05-13,清算の結了等,,,2015-10-05,1,,,,,フォワードコンサルティング,0
1125,5013402007012,登記記録の閉鎖等,0,2024-05-23,2024-05-07,有限会社榎本土建,,有限会社,東京都,稲城市,坂浜３１８１番地の１,,13,225,2060822,,,2024-05-07,清算の結了等,,,2015-10-05,1,,,,,エノモトドケン,0
1157,5040002088257,登記記録の閉鎖等,0,2024-05-23,2024-05-14,有限会社小川商会,,有限会社,千葉県,香取市,三ノ分目２８０５番地,,12,236,2890302,,,2024-05-14,清算の結了等,,,2015-10-05,1,,,,,オガワショウカイ,0
1166,5070001010912,登記記録の閉鎖等,0,2024-05-23,2024-05-20,株式会社エジュケイト,,株式会社,群馬県,高崎市,綿貫町４８６番地,,10,202,3701207,,,2024-05-20,清算の結了等,,,2015-10-05,1,,,,,エジュケイト,0
1178,5120001012250,登記記録の閉鎖等,0,2024-05-23,2024-05-22,光伸工業株式会社,,株式会社,大阪府,大阪市東成区,東小橋１丁目７番１５号,,27,115,5370024,,,2024-05-22,清算の結了等,,,2015-10-05,1,,,,,コウシンコウギョウ,0
1211,5120901018677,登記記録の閉鎖等,0,2024-05-23,2024-05-22,株式会社かいしんげきウェブサービス,,株式会社,大阪府,大阪市淀川区,宮原１丁目４番２３号,,27,123,5320003,,,2024-05-22,清算の結了等,,,2015-10-05,1,,,,,カイシンゲキウェブサービス,0
1224,5140001124564,登記記録の閉鎖等,0,2024-05-23,2024-04-22,株式会社Ｔ．ＦＯＯＤ,,株式会社,福岡県,福岡市中央区,舞鶴１丁目２番２８号第二友栄ビル１０２号,,40,133,8100073,,,2024-04-22,清算の結了等,,,2022-01-17,1,,,,,ティフード,0
1247,5180301014552,登記記録の閉鎖等,0,2024-05-23,2024-05-17,名南住建株式会社,,株式会社,愛知県,刈谷市,西境町花池１８番地２,,23,210,4480006,,,2024-05-17,清算の結了等,,,2015-10-05,1,,,,,メイナンジュウケン,0
1253,5200001008604,登記記録の閉鎖等,0,2024-05-23,2024-05-21,株式会社安藤建設,,株式会社,岐阜県,岐阜市,清本町２丁目１番地,,21,201,5008351,,,2024-05-21,清算の結了等,,,2015-10-05,1,,,,,アンドウケンセツ,0
1256,5210002012439,登記記録の閉鎖等,0,2024-05-23,2024-05-21,有限会社和伊屋,,有限会社,福井県,越前市,五分市町第２４号２番地,,18,209,9150026,,,2024-05-21,清算の結了等,,,2015-10-05,1,,,,,ワイヤ,0
1258,5230001001085,登記記録の閉鎖等,0,2024-05-23,2024-05-22,株式会社サンミナミ,,株式会社,富山県,富山市,千石町５丁目６番２号,,16,201,9300066,,,2024-05-22,清算の結了等,,,2015-10-05,1,,,,,サンミナミ,0
1271,5290001081329,登記記録の閉鎖等,0,2024-05-23,2024-04-22,ａ－ＳＴＡＮＣＥ株式会社,,株式会社,福岡県,古賀市,谷山１１８９,,40,223,8113125,,,2024-04-22,清算の結了等,,,2018-05-02,1,,,,,アルファスタンス,0
1272,5290001082657,登記記録の閉鎖等,0,2024-05-23,2024-04-22,株式会社サンライズ福岡,,株式会社,福岡県,福岡市早良区,田村２丁目１４番３号,,40,137,8140175,,,2024-04-22,清算の結了等,,,2018-09-07,1,,,,,サンライズフクオカ,0
1276,5290801016946,登記記録の閉鎖等,0,2024-05-23,2024-05-17,株式会社トモケン,,株式会社,福岡県,田川郡川崎町,大字川崎２４６番地の１１,,40,605,8270003,,,2024-05-17,清算の結了等,,,2015-10-05,1,,,,,トモケン,0
1278,5300001004840,登記記録の閉鎖等,0,2024-05-23,2024-05-21,株式会社國廣,,株式会社,佐賀県,鹿島市,大字常広１１８番地８,,41,207,8491301,,,2024-05-21,清算の結了等,,,2015-10-05,1,,,,,クニヒロ,0
1290,5370602000406,登記記録の閉鎖等,0,2024-05-23,2024-05-17,有限会社かくへい,,有限会社,宮城県,塩竈市,港町２丁目１５番３６号,,04,203,9850016,,,2024-05-17,清算の結了等,,,2015-10-05,1,,,,,カクヘイ,0
1318,6000020289418,登記記録の閉鎖等,0,2024-05-23,2020-03-31,赤相農業共済事務組合,,地方公共団体,兵庫県,赤穂市,加里屋８１,,28,212,6780239,,,2020-03-31,その他の清算の結了等,,,2015-10-05,1,Sekisounogyokyosaijimukumiai,Hyogo,"81,Kariya, Ako shi",,セキソウノウギョウキョウサイジムクミアイ,0
1333,6010005027651,登記記録の閉鎖等,0,2024-05-23,2024-05-21,一般社団法人ストック・ワン,,その他の設立登記法人,東京都,千代田区,霞が関３丁目２番５号,,13,101,1000013,,,2024-05-21,清算の結了等,,,2017-10-27,1,,,,,ストックワン,0
1341,6010403009202,登記記録の閉鎖等,0,2024-05-23,2024-05-10,ＦａｉｒＣｏｍ　Ｊａｐａｎ合同会社,,合同会社,東京都,中央区,日本橋茅場町１丁目９番２号第一稲村ビル７階,,13,102,1030025,,,2024-05-10,清算の結了等,,,2015-10-05,1,,,,,フェアコムジャパン,0
1353,6010702003392,登記記録の閉鎖等,0,2024-05-23,2024-04-16,有限会社サクラ薬局,,有限会社,東京都,品川区,南大井４丁目９番２２号,,13,109,1400013,,,2024-04-16,清算の結了等,,,2015-10-05,1,,,,,サクラヤッキョク,0
1375,6011203003329,登記記録の閉鎖等,0,2024-05-23,2024-05-22,Ｕｎｉｑｕｅ　ａｎｄ　Ｃｒｅａｔｉｖｅ合同会社,,合同会社,東京都,中野区,丸山２丁目１５番２号ベルパレス丸山２０１,,13,114,1650021,,,2024-05-22,清算の結了等,,,2020-07-01,1,,,,,ユニークアンドクリエイティブ,0
1390,6012701012498,登記記録の閉鎖等,0,2024-05-23,2024-05-20,株式会社ＩＮＦＯ－ＤＥＲＩ,,株式会社,東京都,東久留米市,下里５丁目３－１６,,13,222,2030043,,,2024-05-20,清算の結了等,,,2015-10-05,1,,,,,インフォデリ,0
1393,6020001066537,登記記録の閉鎖等,0,2024-05-23,2024-05-17,大豊株式会社,,株式会社,東京都,世田谷区,上用賀５丁目１６番２１号第３グリーンマンション,,13,112,1580098,,,2024-05-17,清算の結了等,,,2015-10-05,1,,,,,タイホウ,0
1394,6020001104305,登記記録の閉鎖等,0,2024-05-23,2024-05-20,株式会社ポラリスプロパティ,,株式会社,東京都,練馬区,立野町３１番２８－２０１号,,13,120,1770054,,,2024-05-20,清算の結了等,,,2015-10-05,1,,,,,ポラリスプロパティ,0
1410,6030003021786,登記記録の閉鎖等,0,2024-05-23,2024-05-21,合同会社ＳＳ,,合同会社,埼玉県,所沢市,小手指町５丁目１３番地の２,,11,208,3591141,,,2024-05-21,清算の結了等,,,2023-05-18,1,,,,,エスエス,0
1416,6040003004848,登記記録の閉鎖等,0,2024-05-23,2024-05-13,合同会社立石工作所,,合同会社,千葉県,習志野市,実籾１丁目１３番６号,00021288,12,216,2750002,,,2024-05-13,清算の結了等,,,2015-10-05,1,,,,,タテイシコウサクショ,0
1421,6050002003858,登記記録の閉鎖等,0,2024-05-23,2024-05-20,有限会社ひぬま興産,,有限会社,茨城県,東茨城郡茨城町,大字上石崎３９４８番地,,08,302,3113122,,,2024-05-20,清算の結了等,,,2015-10-05,1,,,,,ヒヌマコウサン,0
1426,6080001021271,登記記録の閉鎖等,0,2024-05-23,2024-05-21,株式会社ｉ．ａ．ｃ,,株式会社,静岡県,静岡市葵区,竜南３丁目１２番３号コアパレス竜南１Ｆ,,22,101,4200804,,,2024-05-21,清算の結了等,,,2016-12-02,1,,,,,アイエーシー,0
1438,6090003002046,登記記録の閉鎖等,0,2024-05-23,2024-05-17,合同会社ｐｉｅｎｉ,,合同会社,山梨県,南アルプス市,藤田１４７２番地３,,19,208,4000334,,,2024-05-17,清算の結了等,,,2022-03-02,1,,,,,ピエニ,0
1505,6180302011168,登記記録の閉鎖等,0,2024-05-23,2024-05-17,有限会社北浜掃美,,有限会社,愛知県,豊橋市,花田町字城海津４７番地２,,23,201,4418019,,,2024-05-17,清算の結了等,,,2015-10-05,1,,,,,キタハマソウビ,0
1511,6220001009525,登記記録の閉鎖等,0,2024-05-23,2024-05-07,株式会社ワイ・ツープランニング,,株式会社,石川県,白山市,村井町７０７番地３,,17,210,9240032,,,2024-05-07,清算の結了等,,,2015-10-05,1,,,,,ワイツープランニング,0
1513,6230001010969,登記記録の閉鎖等,0,2024-05-23,2024-05-20,株式会社松村,,株式会社,富山県,高岡市,問屋町１４７番地,,16,202,9330804,,,2024-05-20,清算の結了等,,,2015-10-05,1,,,,,マツムラ,0
1571,7010003018263,登記記録の閉鎖等,0,2024-05-23,2024-05-10,合同会社吉祥寺インベストメント,,合同会社,東京都,千代田区,丸の内３丁目１番１号東京共同会計事務所内,,13,101,1000005,,,2024-05-10,清算の結了等,,,2015-10-05,1,,,,,キチジョウジインベストメント,0
1616,7011101007991,登記記録の閉鎖等,0,2024-05-23,2024-05-14,株式会社佐沼建築事務所,,株式会社,東京都,新宿区,西新宿７丁目２２番３７号,,13,104,1600023,,,2024-05-14,清算の結了等,,,2015-10-05,1,,,,,サヌマケンチクジムショ,0
1638,7011703002366,登記記録の閉鎖等,0,2024-05-23,2024-05-10,合同会社あずき,,合同会社,東京都,江戸川区,北小岩４丁目３９番２号エバーグリーン１０１,,13,123,1330051,,,2024-05-10,清算の結了等,,,2019-09-24,1,,,,,アズキ,0
1647,7012701013396,登記記録の閉鎖等,0,2024-05-23,2024-05-20,株式会社ケイ＆エム企画,,株式会社,東京都,清瀬市,中里１丁目７４５番地１８,,13,221,2040003,,,2024-05-20,清算の結了等,,,2015-10-21,1,,,,,ケイアンドエムキカク,0
1669,7030002064645,登記記録の閉鎖等,0,2024-05-23,2024-05-20,有限会社三喜オートサービス,,有限会社,埼玉県,朝霞市,膝折町２丁目１２番５１号,,11,227,3510014,,,2024-05-20,清算の結了等,,,2015-10-05,1,,,,,サンキオートサービス,0
1701,7120001062401,登記記録の閉鎖等,0,2024-05-23,2024-05-22,株式会社川辺商会,,株式会社,大阪府,大阪市北区,梅田１丁目３番１－７００号,,27,127,5300001,,,2024-05-22,清算の結了等,,,2015-10-05,1,,,,,カワベショウカイ,0
1718,7130001043689,登記記録の閉鎖等,0,2024-05-23,2024-05-21,舞鶴流通産業株式会社,,株式会社,京都府,舞鶴市,南浜町２７番地５,,26,202,6250057,,,2024-05-21,合併による解散等,6130001043277,令和６年５月２１日京都府舞鶴市南浜町２７番地５株式会社エール（6130001043277）に合併し解散,2015-10-05,1,,,,,マイヅルリュウツウサンギョウ,0
1721,7130002018772,登記記録の閉鎖等,0,2024-05-23,2024-05-20,株式会社山瀬エンジニアリング,,株式会社,大阪府,摂津市,東別府３丁目８番２２号,,27,224,5660042,,,2024-05-20,清算の結了等,,,2015-10-05,1,,,,,ヤマセエンジニアリング,0
1723,7140001014334,登記記録の閉鎖等,0,2024-05-23,2024-05-22,宮家興産株式会社,,株式会社,兵庫県,神戸市兵庫区,今出在家町１丁目８番６号,,28,105,6520853,,,2024-05-22,清算の結了等,,,2015-10-05,1,,,,,ミヤケコウサン,0
1745,7180002058723,登記記録の閉鎖等,0,2024-05-23,2024-05-17,有限会社エムアンドエー,,有限会社,愛知県,名古屋市中川区,下之一色町字松蔭６丁目４番地の３,,23,110,4540945,,,2024-05-17,清算の結了等,,,2015-10-05,1,,,,,エムアンドエー,0
1746,7180003024699,登記記録の閉鎖等,0,2024-05-23,2024-05-17,Ｐ．Ｍ．Ｐ合同会社,,合同会社,愛知県,名古屋市中川区,小本１丁目５番５号,,23,110,4540828,,,2024-05-17,清算の結了等,,,2023-01-12,1,,,,,ピーエムピー,0
1747,7180302022073,登記記録の閉鎖等,0,2024-05-23,2024-05-17,有限会社サイクルシヨツプ原,,有限会社,愛知県,豊田市,三軒町７丁目２１番地,,23,211,4710037,,,2024-05-17,清算の結了等,,,2015-10-05,1,,,,,サイクルショップハラ,0
1751,7220003002907,登記記録の閉鎖等,0,2024-05-23,2024-05-16,いつき合同会社,,合同会社,石川県,金沢市,京町２５番２０号,,17,201,9200848,,,2024-05-16,清算の結了等,,,2020-10-07,1,,,,,イツキ,0
1771,7300001011455,登記記録の閉鎖等,0,2024-05-23,2024-05-20,株式会社仕出センターからつ,,株式会社,佐賀県,唐津市,神田２０８７番地,,41,202,8470824,,,2024-05-20,清算の結了等,,,2018-10-05,1,,,,,シダシセンターカラツ,0
1775,7330002010817,登記記録の閉鎖等,0,2024-05-23,2024-05-20,有限会社矢仁田薬局,,有限会社,熊本県,熊本市中央区,帯山１丁目３８番１６号,,43,101,8620924,,,2024-05-20,清算の結了等,,,2015-10-05,1,,,,,ヤニタヤッキョク,0
1811,7490005006706,登記記録の閉鎖等,0,2024-05-23,2024-05-20,特定非営利活動法人劇団清水,,その他の設立登記法人,高知県,土佐清水市,汐見町１０番１０号,,39,209,7870332,,,2024-05-20,清算の結了等,,,2020-06-03,1,,,,,ゲキダンシミズ,0
1832,8010002012869,登記記録の閉鎖等,0,2024-05-23,2024-05-17,有限会社トレシック,,有限会社,東京都,武蔵野市,境南町２丁目１２番５－２０９号,,13,203,1800023,,,2024-05-17,清算の結了等,,,2015-10-05,1,,,,,トレシック,0
1890,8011302015801,登記記録の閉鎖等,0,2024-05-23,2024-05-15,有限会社ニーズ,,有限会社,東京都,杉並区,高円寺北１丁目１６番２号,,13,115,1660002,,,2024-05-15,清算の結了等,,,2015-10-05,1,,,,,ニーズ,0
1906,8012401013316,登記記録の閉鎖等,0,2024-05-23,2024-05-20,株式会社グリーンウッド,,株式会社,東京都,武蔵野市,中町１丁目１３番３号ホーメスト武蔵野ビル８Ｆ,,13,203,1800006,,,2024-05-20,清算の結了等,,,2015-10-05,1,,,,,グリーンウッド,0
1910,8013301003118,登記記録の閉鎖等,0,2024-05-23,2024-05-13,株式会社神田企画,,株式会社,東京都,豊島区,西巣鴨３丁目２５番１１号,,13,116,1700001,,,2024-05-13,清算の結了等,,,2015-10-05,1,,,,,カンダキカク,0
1921,8021002055691,登記記録の閉鎖等,0,2024-05-23,2024-05-17,有限会社明治牛乳開成販売所,,有限会社,神奈川県,足柄上郡開成町,吉田島３９４３番地の１,,14,366,2580021,,,2024-05-17,清算の結了等,,,2015-10-05,1,,,,,メイジギュウニュウカイセイハンバイショ,0
1927,8030002028203,登記記録の閉鎖等,0,2024-05-23,2024-05-20,有限会社石井米穀店,,有限会社,埼玉県,所沢市,西所沢１丁目１４番４号,,11,208,3591144,,,2024-05-20,清算の結了等,,,2015-10-05,1,,,,,イシイベイコクテン,0
1932,8030003011505,登記記録の閉鎖等,0,2024-05-23,2024-05-07,合同会社ＸＹＺ,,合同会社,東京都,港区,浜松町２丁目２番１５号,,13,103,1050013,,,2024-05-07,清算の結了等,,,2018-02-23,1,,,,,エックスワイゼット,0
1934,8030003017956,登記記録の閉鎖等,0,2024-05-23,2024-05-20,合同会社Ｄａｍｏｎ,,合同会社,埼玉県,春日部市,西八木崎２丁目１０番８－２０３号,,11,214,3440059,,,2024-05-20,清算の結了等,,,2021-09-16,1,,,,,ダモン,0
1943,8040002021611,登記記録の閉鎖等,0,2024-05-23,2024-05-13,有限会社君島材木店,,有限会社,千葉県,船橋市,田喜野井６丁目１８番８号,,12,204,2740073,,,2024-05-13,清算の結了等,,,2015-10-05,1,,,,,キミシマザイモクテン,0
1945,8040002030760,登記記録の閉鎖等,0,2024-05-23,2024-05-10,有限会社内海建設,,有限会社,千葉県,船橋市,宮本２丁目８番５号,,12,204,2730003,,,2024-05-10,清算の結了等,,,2015-10-05,1,,,,,ウチウミケンセツ,0
1950,8060001009622,登記記録の閉鎖等,0,2024-05-23,2024-05-15,株式会社石島商店,,株式会社,栃木県,芳賀郡茂木町,大字茂木２１４５番地,,09,343,3213531,,,2024-05-15,清算の結了等,,,2015-10-05,1,,,,,イシジマショウテン,0
1961,8080102022076,登記記録の閉鎖等,0,2024-05-23,2024-05-21,有限会社太陽建築工房,,有限会社,静岡県,下田市,一丁目１番５号,,22,219,4150021,,,2024-05-21,清算の結了等,,,2015-10-05,1,,,,,タイヨウケンチクコウボウ,0
1968,8100001031621,登記記録の閉鎖等,0,2024-05-23,2024-05-07,株式会社王滝ツーリズム,,株式会社,長野県,木曽郡王滝村,３１６２番地,,20,429,3970201,,,2024-05-07,清算の結了等,,,2018-10-01,1,,,,,オウタキツーリズム,0
1981,8120001169229,登記記録の閉鎖等,0,2024-05-23,2024-05-20,株式会社エム・エヌコーポレーション,,株式会社,大阪府,寝屋川市,打上宮前町５番２－３０３号,,27,215,5720862,,,2024-05-20,清算の結了等,,,2015-10-05,1,,,,,エムエヌコーポレーション,0
2003,8140001006082,登記記録の閉鎖等,0,2024-05-23,2024-05-13,生田鶏卵株式会社,,株式会社,兵庫県,神戸市中央区,旗塚通６丁目１番４号,,28,110,6510068,,,2024-05-13,清算の結了等,,,2015-10-05,1,,,,,イクタケイラン,0
2027,8180002026679,登記記録の閉鎖等,0,2024-05-23,2024-05-15,有限会社宮田製作所,,有限会社,愛知県,名古屋市緑区,潮見が丘２丁目１５６番地,,23,114,4580037,,,2024-05-15,清算の結了等,,,2015-10-05,1,,,,,ミヤタセイサクショ,0
2029,8180003023832,登記記録の閉鎖等,0,2024-05-23,2024-05-14,ＤＴＳ合同会社,,合同会社,愛知県,海部郡蟹江町,学戸１丁目２５３,,23,425,4970050,,,2024-05-14,清算の結了等,,,2022-05-16,1,,,,,ディーティーエス,0
2047,8250002014321,登記記録の閉鎖等,0,2024-05-23,2024-05-21,有限会社安藤商店,,有限会社,山口県,周南市,周陽２丁目１番２－１０２号,,35,215,7450823,,,2024-05-21,清算の結了等,,,2015-10-05,1,,,,,アンドウショウテン,0
2066,8310001002089,登記記録の閉鎖等,0,2024-05-23,2024-05-21,マルニ冷凍食品株式会社,,株式会社,長崎県,長崎市,牧島町１６１８番地８,,42,201,8510114,,,2024-05-21,清算の結了等,,,2015-10-05,1,,,,,マルニレイトウショクヒン,0
2068,8320001005495,登記記録の閉鎖等,0,2024-05-23,2024-05-08,株式会社大分県農山村活性化推進本部,,株式会社,大分県,大分市,大字田尻１３３５番地３５,,44,201,8701143,,,2024-05-08,清算の結了等,,,2015-10-05,1,,,,,,0
2069,8330002027620,登記記録の閉鎖等,0,2024-05-23,2024-05-15,株式会社明公商事,,株式会社,熊本県,葦北郡芦北町,大字花岡１４５９番地１,,43,482,8695442,,,2024-05-15,清算の結了等,,,2015-10-05,1,,,,,メイコウショウジ,0
2071,8340005004657,登記記録の閉鎖等,0,2024-05-23,2024-05-21,特定非営利活動法人チーム・タネガシマ,,その他の設立登記法人,鹿児島県,熊毛郡中種子町,野間１７００１番地３,,46,501,8913604,,,2024-05-21,清算の結了等,,,2015-10-05,1,,,,,チームタネガシマ,0
2106,9000020289191,登記記録の閉鎖等,0,2024-05-23,2024-03-31,丹波少年自然の家事務組合,,地方公共団体,兵庫県,丹波市,青垣町西芦田イケ２０３２－２,,28,223,6693803,,,2024-03-31,その他の清算の結了等,,,2015-10-05,1,Tanbashonenshizennoiejimukumiai,Hyogo,"2032-2,Aogakicho-nishiashidaike, Tanba shi",,タンバショウネンシゼンノイエジムクミアイ,0
2117,9010002044705,登記記録の閉鎖等,0,2024-05-23,2024-05-10,有限会社レスポワール,,有限会社,東京都,中央区,銀座３丁目１３番１号,,13,102,1040061,,,2024-05-10,清算の結了等,,,2015-10-05,1,,,,,レスポワール,0
2118,9010003031074,登記記録の閉鎖等,0,2024-05-23,2024-05-10,ゾデン・マネージメント・グループ合同会社,,合同会社,東京都,港区,西新橋１丁目１１番４号日土地西新橋ビル,,13,103,1050003,,,2024-05-10,清算の結了等,,,2019-11-18,1,,,,,ゾデンマネージメントグループ,0
2132,9010403013457,登記記録の閉鎖等,0,2024-05-23,2024-05-20,合同会社ＫＭＭ,,合同会社,東京都,渋谷区,恵比寿南２丁目１７番３号,,13,113,1500022,,,2024-05-20,合併による解散等,1120003014884,令和６年５月１日大阪市北区東天満一丁目１１番１３号合同会社和空成田山（1120003014884）に合併し解散,2015-10-05,1,,,,,ケーエムエム,0
2133,9010403015742,登記記録の閉鎖等,0,2024-05-23,2024-05-17,合同会社ｂｒｉｇｈｔｓｏｕｔｈ,,合同会社,千葉県,柏市,高柳１丁目１番地１,,12,217,2770941,,,2024-05-17,合併による解散等,2020003012047,令和６年５月７日神奈川県横浜市鶴見区鶴見中央三丁目１番５－１０３号合同会社ｂｒｉｇｈｔｓｕｎ（2020003012047）に合併し解散,2016-12-12,1,,,,,ブライトサウス,0
2158,9011001145337,登記記録の閉鎖等,0,2024-05-23,2024-05-02,株式会社アネビーＨＤ,,株式会社,東京都,渋谷区,元代々木町３３番８号,,13,113,1510062,,,2024-05-02,合併による解散等,2011001001364,令和６年５月１日東京都渋谷区元代々木町３３番８号株式会社アネビー（2011001001364）に合併し解散,2022-02-04,1,,,,,アネビーホールディングス,0
2170,9011205001955,登記記録の閉鎖等,0,2024-05-23,2024-05-16,特定非営利活動法人グリーンハート,,その他の設立登記法人,大分県,由布市,湯布院町川上１９９４番地２１,,44,213,8795102,,,2024-05-16,清算の結了等,,,2015-10-05,1,,,,,グリーンハート,0
2177,9011801011449,登記記録の閉鎖等,0,2024-05-23,2024-05-22,不二工芸株式会社,,株式会社,東京都,足立区,大谷田３丁目１０番２３号,,13,121,1200001,,,2024-05-22,清算の結了等,,,2015-10-05,1,,,,,フジコウゲイ,0
2195,9021001032773,登記記録の閉鎖等,0,2024-05-23,2024-05-21,株式会社菅沼産業,,株式会社,神奈川県,小田原市,国府津２７２８番地２,,14,206,2560812,,,2024-05-21,清算の結了等,,,2015-10-05,1,,,,,スガヌマサンギョウ,0
2199,9030001131056,登記記録の閉鎖等,0,2024-05-23,2024-05-20,株式会社さいたまベルサポ,,株式会社,埼玉県,さいたま市大宮区,桜木町２丁目３番地大宮マルイ７階,,11,103,3300854,,,2024-05-20,清算の結了等,,,2019-05-27,1,,,,,サイタマベルサポ,0
2208,9040001054660,登記記録の閉鎖等,0,2024-05-23,2024-05-13,山縣建設株式会社,,株式会社,千葉県,市原市,郡本１丁目２６９番地５,,12,219,2900013,,,2024-05-13,清算の結了等,,,2015-10-05,1,,,,,,0
2233,9080402018574,登記記録の閉鎖等,0,2024-05-23,2024-05-17,有限会社落合茶園,,有限会社,静岡県,菊川市,西方５８番地,,22,224,4390037,,,2024-05-17,清算の結了等,,,2015-10-05,1,,,,,オチアイチャエン,0
2234,9090003001664,登記記録の閉鎖等,0,2024-05-23,2024-05-17,合同会社須田商会,,合同会社,山梨県,笛吹市,一宮町狐新居４３２番地,,19,211,4050068,,,2024-05-17,清算の結了等,,,2020-04-06,1,,,,,スダショウカイ,0
2251,9120001183534,登記記録の閉鎖等,0,2024-05-23,2024-05-21,株式会社オニヤンマ,,株式会社,兵庫県,西宮市,本町９番２０号,,28,204,6620914,,,2024-05-21,清算の結了等,,,2015-10-05,1,,,,,オニヤンマ,0
2289,9150001001882,登記記録の閉鎖等,0,2024-05-23,2024-05-20,日本セレクト興發株式会社,,株式会社,奈良県,奈良市,西大寺北町１丁目３番２号,,29,201,6310817,,,2024-05-20,清算の結了等,,,2015-10-05,1,,,,,ニホンセレクトコウハツ,0
2293,9170002010625,登記記録の閉鎖等,0,2024-05-23,2024-05-21,有限会社すだ小林薬局,,有限会社,和歌山県,橋本市,隅田町中島１８番地,,30,203,6480017,,,2024-05-21,清算の結了等,,,2015-10-05,1,,,,,,0
2326,9280005004101,登記記録の閉鎖等,0,2024-05-23,2024-05-21,医療法人社団西川胃腸科内科医院,,その他の設立登記法人,島根県,浜田市,相生町３９６２番地１,,32,202,6970034,,,2024-05-21,清算の結了等,,,2015-10-05,1,,,,,ニシカワイチョウカナイカイイン,0
2328,9290001043754,登記記録の閉鎖等,0,2024-05-23,2024-04-19,株式会社シェルフアソシエイツ,,株式会社,福岡県,福岡市中央区,大名２丁目１１番１９号,,40,133,8100041,,,2024-04-19,清算の結了等,,,2015-10-05,1,,,,,シェルフアソシエイツ,0
2360,9390001009794,登記記録の閉鎖等,0,2024-05-23,2024-05-21,株式会社汪林,,株式会社,福島県,郡山市,大槻町字北ノ林２１－１山文ハイツ１０３,,07,203,9630201,,,2024-05-21,清算の結了等,,,2015-10-05,1,,,,,オウリン,0
