sequenceNumber,corporateNumber,process,correct,updateDate,changeDate,name,nameImageId,kind,prefectureName,cityName,streetNumber,addressImageId,prefectureCode,cityCode,postCode,addressOutside,addressOutsideImageId,closeDate,closeCause,successorCorporateNumber,changeCause,assignmentDate,latest,enName,enPrefectureName,enCityName,enAddressOutside,furigana,hihyoji
1,1010001043814,登記記録の閉鎖等,0,2022-04-19,2022-04-01,幸信物流株式会社,,株式会社,東京都,中央区,日本橋人形町３丁目５番４号,,13,102,1030013,,,2022-04-01,合併による解散等,2010001043813,令和４年４月１日東京都中央区日本橋人形町三丁目５番４号幸信商運株式会社（2010001043813）に合併し解散,2015-10-05,1,,,,,コウシンブツリュウ,0
22,1010401102178,登記記録の閉鎖等,0,2022-04-19,2022-04-01,クボタ化水株式会社,,株式会社,東京都,中央区,京橋２丁目１番３号,,13,102,1040031,,,2022-04-01,合併による解散等,7010501003238,令和４年４月１日東京都中央区京橋二丁目１番３号クボタ環境エンジニアリング株式会社（7010501003238）に合併し解散,2015-10-05,1,,,,,クボタカスイ,0
42,1011101039149,登記記録の閉鎖等,0,2022-04-19,2022-04-14,株式会社エドウイン・リテイル・ホールディングス,,株式会社,東京都,荒川区,東日暮里３丁目２７番６号,,13,118,1160014,,,2022-04-14,合併による解散等,2011501011549,令和４年４月１日東京都品川区上大崎二丁目２４番９号アイケイビルディング２Ｆ株式会社エドウイン（2011501011549）に合併し解散,2015-10-05,1,,,,,エドウインリテイルホールディングス,0
51,1011402009024,登記記録の閉鎖等,0,2022-04-19,2022-04-14,有限会社やおまつ,,有限会社,東京都,板橋区,中台１丁目４５番８号,,13,119,1740064,,,2022-04-14,清算の結了等,,,2015-10-05,1,,,,,ヤオマツ,0
58,1011701015961,登記記録の閉鎖等,0,2022-04-19,2022-04-11,ディオン株式会社,,株式会社,東京都,江戸川区,西葛西８丁目２番３－８０６号,,13,123,1340088,,,2022-04-11,清算の結了等,,,2015-10-05,1,,,,,ディオン,0
65,1012401029871,登記記録の閉鎖等,0,2022-04-19,2022-04-14,フクダライフテック東京西株式会社,,株式会社,東京都,八王子市,小宮町１１７０－１,,13,201,1920031,,,2022-04-14,合併による解散等,5010001123785,令和４年４月１日東京都文京区小石川四丁目１４番２４号フクダライフテック東京株式会社（5010001123785）に合併し解散,2015-10-05,1,,,,,フクダライフテックトウキョウニシ,0
78,1020002096595,登記記録の閉鎖等,0,2022-04-19,2022-04-11,有限会社セントラルインシュアランスコンサルティング,,有限会社,神奈川県,川崎市川崎区,本町１丁目８番地３,,14,131,2100001,,,2022-04-11,清算の結了等,,,2015-10-05,1,,,,,セントラルインシュアランスコンサルティング,0
87,1021002012765,登記記録の閉鎖等,0,2022-04-19,2022-04-11,有限会社吉野エステート,,有限会社,神奈川県,茅ヶ崎市,赤羽根２３９番地１５,,14,207,2530001,,,2022-04-11,清算の結了等,,,2015-10-05,1,,,,,ヨシノエステート,0
90,1021002057579,登記記録の閉鎖等,0,2022-04-19,2022-04-13,有限会社グリーン・メディカルサーヴィス,,有限会社,神奈川県,平塚市,立野町４０番１０号,,14,203,2540046,,,2022-04-13,合併による解散等,1011001030785,令和４年４月１日東京都港区西麻布三丁目２番２６－２０３号株式会社ティー・エイ・ケイ（1011001030785）に合併し解散,2015-10-05,1,,,,,グリーンメディカルサーヴィス,0
123,1100001017445,登記記録の閉鎖等,0,2022-04-19,2022-04-15,株式会社デンソーエアシステムズ八坂,,株式会社,長野県,大町市,八坂７０７番地,,20,212,3997301,,,2022-04-15,合併による解散等,6180301011904,令和４年４月１日愛知県安城市桜井町稲荷西３８番地株式会社デンソーエアシステムズ（6180301011904）に合併し解散,2015-10-05,1,,,,,デンソーエアシステムズヤサカ,0
129,1120001107046,登記記録の閉鎖等,0,2022-04-19,2022-04-06,東京ピラー株式会社,,株式会社,大阪府,大阪市西区,新町１丁目７番１号,,27,106,5500013,,,2022-04-06,合併による解散等,8120001110191,令和４年４月１日大阪市西区新町一丁目７番１号山陽ピラーエンジニアリングサービス株式会社（8120001110191）に合併し解散,2015-10-05,1,,,,,トウキョウピラー,0
130,1120001128959,登記記録の閉鎖等,0,2022-04-19,2022-04-08,株式会社ちゃお企画プロデュース,,株式会社,大阪府,大阪市阿倍野区,播磨町１丁目１２番８号,,27,119,5450022,,,2022-04-08,清算の結了等,,,2015-10-05,1,,,,,,0
182,1180002075071,登記記録の閉鎖等,0,2022-04-19,2022-04-11,有限会社シティーパレス,,有限会社,愛知県,犬山市,松本町３丁目５９番地,,23,215,4840086,,,2022-04-11,清算の結了等,,,2015-10-05,1,,,,,シティーパレス,0
186,1190001012660,登記記録の閉鎖等,0,2022-04-19,2022-04-01,諸戸林業株式会社,,株式会社,三重県,桑名市,太一丸１８番地,,24,205,5110005,,,2022-04-01,合併による解散等,4190001013350,令和４年４月１日三重県桑名市太一丸１８番地株式会社諸戸ホールディングス（4190001013350）に合併し解散,2015-10-05,1,,,,,モロトリンギョウ,0
193,1210002011502,登記記録の閉鎖等,0,2022-04-19,2022-04-07,有限会社潮田商店,,有限会社,福井県,越前市,大虫町６８号４番地の１１,,18,209,9150885,,,2022-04-07,清算の結了等,,,2015-10-05,1,,,,,シオタショウテン,0
222,1310001000917,登記記録の閉鎖等,0,2022-04-19,2022-04-15,西部通信工業株式会社,,株式会社,長崎県,長崎市,田中町５８６番地３,,42,201,8510134,,,2022-04-15,合併による解散等,3330001004641,令和４年４月１日熊本市中央区萩原町１４番４５号株式会社ＳＹＳＫＥＮテクノ（3330001004641）に合併し解散,2015-10-05,1,,,,,セイブツウシンコウギョウ,0
224,1310002013174,登記記録の閉鎖等,0,2022-04-19,2022-04-15,有限会社つとむ真珠,,有限会社,長崎県,佐世保市,小佐々町矢岳８１６番地２,,42,202,8570414,,,2022-04-15,清算の結了等,,,2015-10-05,1,,,,,ツトムシンジュ,0
234,1350002018624,登記記録の閉鎖等,0,2022-04-19,2022-04-11,有限会社白鳥交通,,有限会社,宮崎県,えびの市,大字上江８６０番地１,,45,209,8894304,,,2022-04-11,清算の結了等,,,2015-10-05,1,,,,,シラトリコウツウ,0
246,1400603000264,登記記録の閉鎖等,0,2022-04-19,2022-04-15,合同会社保険の力,,合同会社,岩手県,奥州市,胆沢小山字下笹森８９番地１,,03,215,0230402,,,2022-04-15,清算の結了等,,,2015-10-05,1,,,,,ホケンノチカラ,0
253,1430002056913,登記記録の閉鎖等,0,2022-04-19,2022-04-07,有限会社角自動車板金塗装工業,00089744,有限会社,北海道,虻田郡倶知安町,北四条東３丁目１番地,,01,400,0440004,,,2022-04-07,清算の結了等,,,2015-10-05,1,,,,,カクジドウシャバンキントソウコウギョウ,0
255,1430002057044,登記記録の閉鎖等,0,2022-04-19,2022-04-07,有限会社曽根モータース,,有限会社,北海道,虻田郡真狩村,字真狩４７番地２,,01,396,0481631,,,2022-04-07,清算の結了等,,,2015-10-05,1,,,,,ソネモータース,0
294,2010402034782,登記記録の閉鎖等,0,2022-04-19,2022-04-05,有限会社リプラスロード８,,有限会社,東京都,港区,赤坂１丁目１２番３２号,,13,103,1070052,,,2022-04-05,清算の結了等,,,2015-10-05,1,,,,,リプラスロードエイト,0
298,2010701033460,登記記録の閉鎖等,0,2022-04-19,2022-04-05,ＵＴＨＰ株式会社,,株式会社,東京都,品川区,東五反田１丁目１１番１５号,,13,109,1410022,,,2022-04-05,合併による解散等,3140001041142,令和４年４月１日東京都品川区東五反田一丁目１１番１５号ＵＴコネクト株式会社（3140001041142）に合併し解散,2016-12-15,1,,,,,ユーティーエイチピー,0
307,2011001132572,登記記録の閉鎖等,0,2022-04-19,2022-04-06,イクスリム株式会社,,株式会社,東京都,目黒区,中町２丁目３４番５号,,13,110,1530065,,,2022-04-06,清算の結了等,,,2020-02-27,1,,,,,イクスリム,0
325,2011801004145,登記記録の閉鎖等,0,2022-04-19,2022-04-08,株式会社フジカラーランド,,株式会社,東京都,品川区,西五反田３丁目６番３２号,,13,109,1410031,,,2022-04-08,合併による解散等,8012401010602,令和４年４月１日東京都品川区西五反田三丁目６番３０号株式会社ハイビカム（8012401010602）に合併し解散,2015-10-05,1,,,,,フジカラーランド,0
333,2012802001263,登記記録の閉鎖等,0,2022-04-19,2022-04-08,有限会社ＤＥＰＡＲＴＵＲＥ,,有限会社,東京都,町田市,原町田２丁目７番２号日野屋第１ビル３０８,,13,209,1940013,,,2022-04-08,清算の結了等,,,2015-10-05,1,,,,,ディパーチャー,0
360,2030001103227,登記記録の閉鎖等,0,2022-04-19,2022-04-11,ハウス・リノベール株式会社,,株式会社,埼玉県,狭山市,柏原１１１２番地の２,,11,215,3501335,,,2022-04-11,清算の結了等,,,2015-10-05,1,,,,,ハウスリノベール,0
365,2030002113729,登記記録の閉鎖等,0,2022-04-19,2022-04-11,有限会社玉川呉服店,,有限会社,埼玉県,熊谷市,本町１丁目１８１番地,,11,202,3600042,,,2022-04-11,清算の結了等,,,2015-10-05,1,,,,,タマガワゴフクテン,0
390,2080401003179,登記記録の閉鎖等,0,2022-04-19,2022-04-12,中央朝日株式会社,,株式会社,静岡県,浜松市中区,連尺町２１７番１０,,22,131,4300939,,,2022-04-12,合併による解散等,8080401009897,令和４年２月２８日静岡県浜松市中区和合北一丁目２番１２号朝日コネクト株式会社（8080401009897）に合併し解散,2015-10-05,1,,,,,チュウオウアサヒ,0
398,2110002032045,登記記録の閉鎖等,0,2022-04-19,2022-04-12,アイデア工芸有限会社,,有限会社,新潟県,小千谷市,船岡３丁目６番２１号,,15,208,9470024,,,2022-04-12,清算の結了等,,,2015-10-05,1,,,,,アイデアコウゲイ,0
401,2120001056853,登記記録の閉鎖等,0,2022-04-19,2022-04-06,中部ピラーサービス販売株式会社,,株式会社,大阪府,大阪市西区,新町１丁目７番１号,,27,106,5500013,,,2022-04-06,合併による解散等,8120001110191,令和４年４月１日大阪市西区新町一丁目７番１号山陽ピラーエンジニアリングサービス株式会社（8120001110191）に合併し解散,2015-10-05,1,,,,,チュウブピラーサービスハンバイ,0
431,2120101008647,登記記録の閉鎖等,0,2022-04-19,2022-04-08,南海ウイングバス金岡株式会社,,株式会社,大阪府,堺市中区,東山８０３番地,,27,142,5998247,,,2022-04-08,合併による解散等,9120101040016,令和４年４月１日大阪府泉佐野市日根野５６１９番地の２南海ウイングバス株式会社（9120101040016）に合併し解散,2015-10-05,1,,,,,ナンカイウイングバスカナオカ,0
444,2140001007870,登記記録の閉鎖等,0,2022-04-19,2022-04-15,三協興業株式会社,,株式会社,兵庫県,神戸市中央区,東川崎町７丁目３番８号,,28,110,6500044,,,2022-04-15,清算の結了等,,,2015-10-05,1,,,,,サンキョウコウギョウ,0
449,2140001109452,登記記録の閉鎖等,0,2022-04-19,2022-04-13,株式会社フタツカホールディングス,,株式会社,兵庫県,神戸市中央区,小野柄通７丁目１番１号,,28,110,6510088,,,2022-04-13,合併による解散等,8120001082605,令和４年４月１日横浜市港北区新横浜三丁目１７番６号株式会社ココカラファインヘルスケア（8120001082605）に合併し解散,2018-03-27,1,,,,,フタツカホールディングス,0
458,2140005025893,登記記録の閉鎖等,0,2022-04-19,2022-04-07,農事組合法人白水農事組合,,その他の設立登記法人,兵庫県,たつの市,新宮町善定１０２番地,,28,229,6794344,,,2022-04-07,清算の結了等,,,2021-11-22,1,,,,,シラミズ,0
461,2180001122807,登記記録の閉鎖等,0,2022-04-19,2022-04-11,株式会社Ｙ・Ｍ・Ｄ外構店,,株式会社,愛知県,春日井市,大手町１丁目３５番地,,23,206,4860807,,,2022-04-11,清算の結了等,,,2016-04-11,1,,,,,ワイエムディーガイコウテン,0
469,2180302011519,登記記録の閉鎖等,0,2022-04-19,2022-04-05,有限会社クレディコール,,有限会社,愛知県,豊橋市,新本町６７番地２,,23,201,4400892,,,2022-04-05,清算の結了等,,,2015-10-05,1,,,,,クレディコール,0
484,2230002007803,登記記録の閉鎖等,0,2022-04-19,2022-04-11,有限会社廣田建設,00079107,有限会社,富山県,魚津市,大海寺野２７７番地,,16,204,9370816,,,2022-04-11,清算の結了等,,,2015-10-05,1,,,,,ヒロタケンセツ,0
494,2250002005697,登記記録の閉鎖等,0,2022-04-19,2022-04-14,有限会社松本サツシ,,有限会社,山口県,宇部市,居能町１丁目９番１０号,,35,202,7550055,,,2022-04-14,清算の結了等,,,2015-10-05,1,,,,,マツモトサツシ,0
496,2260001015837,登記記録の閉鎖等,0,2022-04-19,2022-04-13,岡山パールライス株式会社,,株式会社,岡山県,総社市,清音柿木７０７番地３,,33,208,7191176,,,2022-04-13,合併による解散等,9010001072673,令和４年４月１日東京都千代田区神田三崎町三丁目１番１６号全農パールライス株式会社（9010001072673）に合併し解散,2015-10-05,1,,,,,オカヤマパールライス,0
506,2290801010695,登記記録の閉鎖等,0,2022-04-19,2022-04-14,株式会社メイト黒崎,,株式会社,福岡県,北九州市八幡西区,黒崎１丁目１番１号,,40,109,8060021,,,2022-04-14,清算の結了等,,,2015-10-05,1,,,,,,0
529,2380002005346,登記記録の閉鎖等,0,2022-04-19,2022-04-13,有限会社ケーエスケーコーポレーション,,有限会社,福島県,伊達郡国見町,大字藤田字北１２番地,,07,303,9691761,,,2022-04-13,清算の結了等,,,2015-10-05,1,,,,,ケーエスケーコーポレーション,0
542,2500005007269,登記記録の閉鎖等,0,2022-04-19,2022-04-12,特定非営利活動法人ＴＯＭＯＲＲＯＷ,,その他の設立登記法人,愛媛県,伊予市,中山町中山丑２６８番地１,,38,210,7913206,,,2022-04-12,清算の結了等,,,2015-10-05,1,,,,,トゥモロウ,0
543,2500005007839,登記記録の閉鎖等,0,2022-04-19,2022-04-11,福祉人材支援協同組合,,その他の設立登記法人,愛媛県,松山市,北井門２丁目９番１５号,,38,201,7911105,,,2022-04-11,清算の結了等,,,2017-02-15,1,,,,,フクシジンザイシエン,0
577,3010801029093,登記記録の閉鎖等,0,2022-04-19,2022-04-11,インフィニート株式会社,,株式会社,東京都,大田区,東雪谷１丁目１０番４号,,13,111,1450065,,,2022-04-11,清算の結了等,,,2018-08-17,1,,,,,インフィニート,0
585,3011001058899,登記記録の閉鎖等,0,2022-04-19,2022-04-04,ビーシー株式会社,,株式会社,東京都,港区,芝公園２丁目３番６号,,13,103,1050011,,,2022-04-04,合併による解散等,8010001016929,令和４年４月２日東京都港区芝公園二丁目３番６号サン・パシフィック・キャピタル株式会社（8010001016929）に合併し解散,2015-10-05,1,,,,,ビーシー,0
590,3011002003053,登記記録の閉鎖等,0,2022-04-19,2022-04-06,有限会社鹿宇工業所,,有限会社,東京都,渋谷区,本町５丁目２番１号,,13,113,1510071,,,2022-04-06,清算の結了等,,,2015-10-05,1,,,,,シカウコウギョウショ,0
615,3012402012065,登記記録の閉鎖等,0,2022-04-19,2022-04-11,有限会社西村自動車整備工場,,有限会社,東京都,調布市,佐須町２丁目２１番地４,,13,208,1820016,,,2022-04-11,清算の結了等,,,2015-10-05,1,,,,,ニシムラジドウシャセイビコウジョウ,0
617,3013301021099,登記記録の閉鎖等,0,2022-04-19,2022-04-05,株式会社オールライフメイト,,株式会社,東京都,港区,港南１丁目７番１８号,,13,103,1080075,,,2022-04-05,合併による解散等,3010001032864,令和４年４月１日東京都港区港南一丁目７番１８号株式会社ソラスト（3010001032864）に合併し解散,2015-10-05,1,,,,,オールライフメイト,0
621,3020001027368,登記記録の閉鎖等,0,2022-04-19,2022-04-01,株式会社第一商会,,株式会社,神奈川県,横浜市中区,上野町２丁目４９番地,,14,104,2310842,,,2022-04-01,合併による解散等,3020001016321,令和４年４月１日横浜市西区平沼一丁目４０番１７号横浜商工株式会社（3020001016321）に合併し解散,2015-10-05,1,,,,,ダイイチショウカイ,0
631,3021002025014,登記記録の閉鎖等,0,2022-04-19,2022-04-12,有限会社山田産業,,有限会社,神奈川県,座間市,小松原２丁目１７番１４号,,14,216,2520002,,,2022-04-12,清算の結了等,,,2015-10-05,1,,,,,ヤマダサンギョウ,0
632,3021003007507,登記記録の閉鎖等,0,2022-04-19,2022-04-12,合同会社湘南ＬＬＣ,,合同会社,神奈川県,厚木市,上荻野２６３番地１メゾン・ド・ソレイユＩＩＩ－１０２,00113501,14,212,2430201,,,2022-04-12,清算の結了等,,,2018-05-24,1,,,,,ショウナンエルエルシー,0
634,3030001002386,登記記録の閉鎖等,0,2022-04-19,2022-04-12,クシマ電気株式会社,,株式会社,埼玉県,さいたま市北区,奈良町７９番地７,,11,102,3310822,,,2022-04-12,清算の結了等,,,2015-10-05,1,,,,,クシマデンキ,0
644,3030002037712,登記記録の閉鎖等,0,2022-04-19,2022-04-08,有限会社三香ビル,,有限会社,埼玉県,所沢市,緑町４丁目１２番１２号,,11,208,3591111,,,2022-04-08,清算の結了等,,,2015-10-05,1,,,,,サンコウビル,0
661,3050001008605,登記記録の閉鎖等,0,2022-04-19,2022-04-13,株式会社Ｉ．Ｎ．Ｓ．,,株式会社,茨城県,ひたちなか市,大字金上１０５０番地の３,,08,221,3120022,,,2022-04-13,清算の結了等,,,2015-10-05,1,,,,,アイエヌエス,0
672,3080001016695,登記記録の閉鎖等,0,2022-04-19,2022-04-18,一言林業株式会社,,株式会社,静岡県,藤枝市,旭が丘６番４号,,22,214,4260081,,,2022-04-18,清算の結了等,,,2015-10-05,1,,,,,ヒトコトリンギョウ,0
677,3100001006818,登記記録の閉鎖等,0,2022-04-19,2022-04-01,株式会社長印,,株式会社,長野県,長野市,市場３番地１,,20,201,3812202,,,2022-04-01,合併による解散等,5100001010074,令和４年４月１日長野市市場３番地１株式会社Ｒ＆Ｃながの青果（5100001010074）に合併し解散,2015-10-05,1,,,,,チョウジルシ,0
691,3120005011135,登記記録の閉鎖等,0,2022-04-19,2022-04-11,特定非営利活動法人瑞惠基金,,その他の設立登記法人,大阪府,大阪市鶴見区,横堤１丁目１１番３７－２０１号,,27,124,5380052,,,2022-04-11,清算の結了等,,,2015-10-05,1,,,,,ミズエキキン,0
699,3120102011054,登記記録の閉鎖等,0,2022-04-19,2022-04-13,日本ＥＣＯＮ有限会社,,有限会社,大阪府,堺市中区,平井４８２番地,,27,142,5998251,,,2022-04-13,清算の結了等,,,2015-10-05,1,,,,,ニホンイーコン,0
708,3140001018545,登記記録の閉鎖等,0,2022-04-19,2022-04-13,株式会社大新堂,,株式会社,兵庫県,神戸市中央区,小野柄通７丁目１－１日本生命三宮駅前ビル９階,,28,110,6510088,,,2022-04-13,合併による解散等,8120001082605,令和４年４月１日横浜市港北区新横浜三丁目１７番６号株式会社ココカラファインヘルスケア（8120001082605）に合併し解散,2015-10-05,1,,,,,ダイシンドウ,0
738,3180003013045,登記記録の閉鎖等,0,2022-04-19,2022-04-06,合資会社伊藤屋家具店,,合資会社,愛知県,常滑市,北条１丁目２３番地,,23,216,4790833,,,2022-04-06,清算の結了等,,,2015-10-05,1,,,,,イトウヤカグテン,0
742,3180301019883,登記記録の閉鎖等,0,2022-04-19,2022-04-08,藤岡コンクリート株式会社,,株式会社,愛知県,豊田市,西中山町清水口１０２番地,,23,211,4700431,,,2022-04-08,清算の結了等,,,2015-10-05,1,,,,,フジオカコンクリート,0
769,3280002004877,登記記録の閉鎖等,0,2022-04-19,2022-04-18,有限会社伯太急送,,有限会社,島根県,安来市,伯太町東母里２０３９番地２,,32,206,6920207,,,2022-04-18,清算の結了等,,,2015-10-05,1,,,,,ハクタキュウソウ,0
790,3310002006614,登記記録の閉鎖等,0,2022-04-19,2022-04-15,有限会社ケイズ・ワークス,,有限会社,長崎県,長崎市,柳田町１９６番地２,,42,201,8500982,,,2022-04-15,清算の結了等,,,2015-10-05,1,,,,,ケイズワークス,0
795,3340001022378,登記記録の閉鎖等,0,2022-04-19,2022-04-13,株式会社ガネーシャマネジメントカンパニー,,株式会社,鹿児島県,鹿児島市,西田２丁目６番４号ネスト西田１階,,46,201,8900046,,,2022-04-13,清算の結了等,,,2019-10-29,1,,,,,ガネーシャマネジメントカンパニー,0
796,3350001014688,登記記録の閉鎖等,0,2022-04-19,2022-04-14,リズエナ不動産株式会社,,株式会社,東京都,板橋区,大山東町３０番９－５０７号,,13,119,1730014,,,2022-04-14,清算の結了等,,,2017-05-22,1,,,,,リズエナフドウサン,0
801,3360003009256,登記記録の閉鎖等,0,2022-04-19,2022-04-07,サクラ開発合同会社,,合同会社,沖縄県,うるま市,石川東山本町１丁目１２番２９号,,47,213,9041101,,,2022-04-07,清算の結了等,,,2018-12-26,1,,,,,サクラカイハツ,0
817,3430002001751,登記記録の閉鎖等,0,2022-04-19,2022-04-07,有限会社イ印岡田ビルヂング,,有限会社,北海道,札幌市北区,北三十七条西３丁目３番１号,,01,102,0010037,,,2022-04-07,清算の結了等,,,2015-10-05,1,,,,,イジルシオカダビルジング,0
823,3470001000098,登記記録の閉鎖等,0,2022-04-19,2022-04-12,株式会社クラフト,,株式会社,香川県,高松市,番町４丁目１４番２１号,,37,201,7600017,,,2022-04-12,清算の結了等,,,2015-10-05,1,,,,,クラフト,0
824,3470001017225,登記記録の閉鎖等,0,2022-04-19,2022-04-14,株式会社マウロア,,株式会社,香川県,さぬき市,志度４６３８番地８,,37,206,7692101,,,2022-04-14,清算の結了等,,,2019-01-15,1,,,,,マウロア,0
846,4010001212069,登記記録の閉鎖等,0,2022-04-19,2022-04-14,株式会社富士ロジテック東日本,,株式会社,東京都,千代田区,丸の内３丁目４番１号,,13,101,1000005,,,2022-04-14,合併による解散等,2080001004503,令和４年４月１日静岡市清水区清開二丁目２番１２号株式会社富士ロジテックホールディングス（2080001004503）に合併し解散,2020-09-17,1,,,,,フジロジテックヒガシニホン,0
853,4010003032036,登記記録の閉鎖等,0,2022-04-19,2022-04-01,合同会社ティー・ウインドオフィス,,合同会社,東京都,中央区,銀座１丁目１６番７号,,13,102,1040061,,,2022-04-01,合併による解散等,7010001193083,令和４年４月１日東京都千代田区有楽町二丁目７番１号株式会社ティー・ウインドパワー（7010001193083）に合併し解散,2020-04-03,1,,,,,ティーウインドオフィス,0
855,4010101004102,登記記録の閉鎖等,0,2022-04-19,2022-04-14,株式会社ライトスタッフ,,株式会社,東京都,八王子市,打越町１５３２番地の２５３,,13,201,1920911,,,2022-04-14,合併による解散等,5010001113927,令和４年４月１日東京都渋谷区千駄ヶ谷五丁目１６番１３号２階株式会社ｅ－Ｒｅｔｕｒｎ（5010001113927）に合併し解散,2015-10-05,1,,,,,ライトスタッフ,0
878,4010901019662,登記記録の閉鎖等,0,2022-04-19,2022-04-15,株式会社ＳＡＴＯ,,株式会社,東京都,世田谷区,北烏山６丁目１１番３号,,13,112,1570061,,,2022-04-15,清算の結了等,,,2015-10-05,1,,,,,サトウ,0
884,4011001047364,登記記録の閉鎖等,0,2022-04-19,2022-04-04,株式会社正円,,株式会社,東京都,渋谷区,千駄ヶ谷２丁目３８番６号,,13,113,1510051,,,2022-04-04,清算の結了等,,,2015-10-05,1,,,,,セイエン,0
901,4011403002966,登記記録の閉鎖等,0,2022-04-19,2022-04-14,ＴＴコーポレーション合同会社,,合同会社,東京都,板橋区,東新町１丁目１－１ツインタワー２０７,,13,119,1740074,,,2022-04-14,清算の結了等,,,2020-04-08,1,,,,,,0
958,4040002018413,登記記録の閉鎖等,0,2022-04-19,2022-04-12,有限会社サンエム企画,,有限会社,千葉県,習志野市,大久保４丁目６番１５号,,12,216,2750011,,,2022-04-12,清算の結了等,,,2015-10-05,1,,,,,サンエムキカク,0
974,4110002020155,登記記録の閉鎖等,0,2022-04-19,2022-04-13,有限会社ウッドテクノ,,有限会社,新潟県,燕市,吉田栄町１５番３号,,15,213,9590233,,,2022-04-13,清算の結了等,,,2015-10-05,1,,,,,ウッドテクノ,0
976,4120001057973,登記記録の閉鎖等,0,2022-04-19,2022-04-06,ピラーエンジニアリングサービス株式会社,,株式会社,大阪府,大阪市西区,新町１丁目７番１号,,27,106,5500013,,,2022-04-06,合併による解散等,8120001110191,令和４年４月１日大阪市西区新町一丁目７番１号山陽ピラーエンジニアリングサービス株式会社（8120001110191）に合併し解散,2015-10-05,1,,,,,ピラーエンジニアリングサービス,0
977,4120001060812,登記記録の閉鎖等,0,2022-04-19,2022-04-11,株式会社イメージ・ヒラカワ,,株式会社,大阪府,大阪市北区,大淀北１丁目９番５号,,27,127,5310077,,,2022-04-11,合併による解散等,6120001069538,令和４年３月３１日大阪市北区大淀北一丁目９番５号株式会社ヒラカワ（6120001069538）に合併し解散,2015-10-05,1,,,,,イメージヒラカワ,0
1004,4140001060199,登記記録の閉鎖等,0,2022-04-19,2022-04-13,東芝エレベータプロダクツ株式会社,,株式会社,兵庫県,姫路市,網干区浜田１０００番地,,28,201,6711242,,,2022-04-13,合併による解散等,5010701006785,令和４年４月１日川崎市幸区堀川町７２番地３４東芝エレベータ株式会社（5010701006785）に合併し解散,2015-10-05,1,,,,,トウシバエレベータプロダクツ,0
1012,4140001109640,登記記録の閉鎖等,0,2022-04-19,2022-04-13,株式会社メディカルプラス,,株式会社,兵庫県,神戸市中央区,小野柄通７丁目１番１号,,28,110,6510088,,,2022-04-13,合併による解散等,8120001082605,令和４年４月１日横浜市港北区新横浜三丁目１７番６号株式会社ココカラファインヘルスケア（8120001082605）に合併し解散,2018-04-06,1,,,,,メディカルプラス,0
1020,4180001002981,登記記録の閉鎖等,0,2022-04-19,2022-04-11,株式会社丸高,,株式会社,愛知県,名古屋市名東区,上社５丁目１７０９番地,,23,115,4650025,,,2022-04-11,清算の結了等,,,2015-10-05,1,,,,,マルタカ,0
1022,4180001096520,登記記録の閉鎖等,0,2022-04-19,2022-04-04,津島市場株式会社,,株式会社,愛知県,津島市,天王通り１丁目２３番地,,23,208,4960807,,,2022-04-04,清算の結了等,,,2015-10-05,1,,,,,ツシマイチバ,0
1036,4180301015725,登記記録の閉鎖等,0,2022-04-19,2022-04-08,株式会社衣浦木材市場,,株式会社,愛知県,高浜市,稗田町４丁目７番地１２,00074626,23,227,4441321,,,2022-04-08,清算の結了等,,,2015-10-05,1,,,,,キヌウラモクザイイチバ,0
1042,4190002001239,登記記録の閉鎖等,0,2022-04-19,2022-04-12,有限会社はた企画,,有限会社,三重県,津市,栗真小川町１４２１番地の１,,24,201,5140104,,,2022-04-12,清算の結了等,,,2015-10-05,1,,,,,ハタキカク,0
1046,4200005001820,登記記録の閉鎖等,0,2022-04-19,2022-04-18,岐阜繊維協同組合,,その他の設立登記法人,岐阜県,岐阜市,忠節町１丁目１８番地,,21,201,5008801,,,2022-04-18,清算の結了等,,,2015-10-05,1,,,,,ギフセンイ,0
1049,4210002009618,登記記録の閉鎖等,0,2022-04-19,2022-04-11,有限会社宝居電機,,有限会社,福井県,大野市,中挾１丁目１４０６番地,,18,205,9120015,,,2022-04-11,清算の結了等,,,2015-10-05,1,,,,,ホウキョデンキ,0
1058,4240002034729,登記記録の閉鎖等,0,2022-04-19,2022-04-12,広栄汽船有限会社,,有限会社,広島県,呉市,音戸町波多見２丁目２１番９号,,34,202,7371207,,,2022-04-12,清算の結了等,,,2015-10-05,1,,,,,コウエイキセン,0
1063,4260001002577,登記記録の閉鎖等,0,2022-04-19,2022-04-14,株式会社山陽エイブイシー,,株式会社,岡山県,岡山市北区,南方３丁目８番３９号,,33,101,7000807,,,2022-04-14,合併による解散等,2240001043468,令和４年４月１日広島県福山市引野町四丁目１番８号アイデアル株式会社（2240001043468）に合併し解散,2015-10-05,1,,,,,サンヨウエイブイシー,0
1079,4320001006349,登記記録の閉鎖等,0,2022-04-19,2022-04-13,株式会社杉乃井ホテル,,株式会社,大分県,別府市,大字南立石２２７２番地,,44,202,8740000,,,2022-04-13,合併による解散等,5010401037412,令和４年４月１日東京都港区浜松町二丁目３番１号オリックス不動産株式会社（5010401037412）に合併し解散,2015-10-05,1,,,,,スギノイホテル,0
1080,4320005003160,登記記録の閉鎖等,0,2022-04-19,2022-04-12,企業組合ＳＡＣＣＡ,,その他の設立登記法人,大分県,大分市,寿町１番２２号,,44,201,8700036,,,2022-04-12,清算の結了等,,,2015-10-05,1,,,,,サッカ,0
1090,4360001019314,登記記録の閉鎖等,0,2022-04-19,2022-04-13,株式会社ＬＩＸＩＬ沖縄販売,,株式会社,沖縄県,宜野湾市,字大謝名２３７番地５,,47,205,9012225,,,2022-04-13,合併による解散等,5010601004914,令和４年４月１日東京都江東区大島二丁目１番１号株式会社ＬＩＸＩＬ（5010601004914）に合併し解散,2015-10-05,1,,,,,リクシルオキナワハンバイ,0
1113,4470001017125,登記記録の閉鎖等,0,2022-04-19,2022-04-12,株式会社矢野産業安全顧問事務所,,株式会社,香川県,高松市,今里町８番地８,,37,201,7600078,,,2022-04-12,清算の結了等,,,2018-10-18,1,,,,,ヤノサンギョウアンゼンコモンジムショ,0
1117,4500001019761,登記記録の閉鎖等,0,2022-04-19,2022-04-13,株式会社岡本塗装,,株式会社,愛媛県,松山市,立花３丁目８番２４号,,38,201,7900966,,,2022-04-13,清算の結了等,,,2016-04-13,1,,,,,,0
1137,5010002007863,登記記録の閉鎖等,0,2022-04-19,2022-04-12,有限会社エイ・アンド・エイ・デザイン,,有限会社,東京都,小金井市,前原町３丁目４０番１号,,13,210,1840013,,,2022-04-12,清算の結了等,,,2015-10-05,1,,,,,,0
1140,5010005014849,登記記録の閉鎖等,0,2022-04-19,2022-04-05,一般社団法人メディカル・ソリューション・ラボ,,その他の設立登記法人,東京都,港区,南青山６丁目７番１７－２０１号,,13,103,1070062,,,2022-04-05,清算の結了等,,,2015-10-05,1,,,,,メディカルソリューションラボ,0
1161,5010701035883,登記記録の閉鎖等,0,2022-04-19,2022-04-07,株式会社スタジオシーアイ,,株式会社,東京都,品川区,上大崎３丁目１番１号,,13,109,1410021,,,2022-04-07,合併による解散等,3010401036589,令和４年３月３１日東京都品川区上大崎三丁目１番１号株式会社徳間書店（3010401036589）に合併し解散,2018-05-30,1,,,,,スタジオシーアイ,0
1196,5011801009208,登記記録の閉鎖等,0,2022-04-19,2022-04-15,株式会社ソフテック,,株式会社,東京都,世田谷区,太子堂１丁目１２番３９号三軒茶屋堀商ビル,,13,112,1540004,,,2022-04-15,合併による解散等,9011001066277,令和４年４月１日東京都渋谷区東三丁目９番１９号株式会社サイバーセキュリティクラウド（9011001066277）に合併し解散,2015-10-05,1,,,,,ソフテック,0
1209,5013105000256,登記記録の閉鎖等,0,2022-04-19,2022-04-18,医療法人社団暉光会,,その他の設立登記法人,東京都,羽村市,緑ヶ丘１丁目１１番６号,,13,227,2050003,,,2022-04-18,清算の結了等,,,2015-10-05,1,,,,,キコウカイ,0
1221,5020002069077,登記記録の閉鎖等,0,2022-04-19,2022-04-11,有限会社三誠物流,,有限会社,神奈川県,横浜市中区,かもめ町１３番地京浜貨物事業協同組合ビル２Ｆ,,14,104,2310813,,,2022-04-11,清算の結了等,,,2015-10-05,1,,,,,,0
1223,5020002089752,登記記録の閉鎖等,0,2022-04-19,2022-04-11,有限会社トミヤマ,,有限会社,神奈川県,川崎市高津区,瀬田１２番６号,,14,134,2130003,,,2022-04-11,清算の結了等,,,2015-10-05,1,,,,,トミヤマ,0
1225,5020005010715,登記記録の閉鎖等,0,2022-04-19,2022-04-11,特定非営利活動法人ロボロボ・Ｃｌｕｂ,,その他の設立登記法人,神奈川県,横浜市中区,山下町２５２番地グランベル横浜ビル１０階,,14,104,2310023,,,2022-04-11,清算の結了等,,,2015-10-05,1,,,,,,0
1239,5040001071750,登記記録の閉鎖等,0,2022-04-19,2022-04-11,株式会社北進,,株式会社,千葉県,柏市,豊住１丁目１番６号,,12,217,2770071,,,2022-04-11,清算の結了等,,,2015-10-05,1,,,,,ホクシン,0
1253,5080102011593,登記記録の閉鎖等,0,2022-04-19,2022-04-18,有限会社増島製作所,,有限会社,静岡県,三島市,藤代町２５２番地の２,,22,206,4110812,,,2022-04-18,清算の結了等,,,2015-10-05,1,,,,,マスジマセイサクショ,0
1255,5090002008714,登記記録の閉鎖等,0,2022-04-19,2022-04-14,有限会社山田種苗,,有限会社,山梨県,笛吹市,石和町唐柏８５０番地,,19,211,4060034,,,2022-04-14,清算の結了等,,,2015-10-05,1,,,,,ヤマダシュビョウ,0
1266,5110001024676,登記記録の閉鎖等,0,2022-04-19,2022-04-12,株式会社にっしん長岡社,,株式会社,新潟県,長岡市,城内町３丁目５番地１５タウンコート城内７０１,,15,202,9400061,,,2022-04-12,清算の結了等,,,2015-10-05,1,,,,,ニッシンナガオカシャ,0
1338,5180005014287,登記記録の閉鎖等,0,2022-04-19,2022-04-11,特定非営利活動法人こどもＮＰＯ南の星,,その他の設立登記法人,愛知県,名古屋市南区,港東通２丁目３１番第一富士マンションＡ棟７０３号,,23,112,4570834,,,2022-04-11,清算の結了等,,,2015-10-05,1,,,,,コドモエヌピーオーミナミノホシ,0
1340,5190002005164,登記記録の閉鎖等,0,2022-04-19,2022-04-13,有限会社熊野養魚,,有限会社,三重県,熊野市,甫母町３００番地,,24,212,5194202,,,2022-04-13,合併による解散等,8170001011996,令和４年４月１日和歌山県東牟婁郡串本町串本１５５７番地の３３株式会社マルハニチロＭａｒｉｎｅ（8170001011996）に合併し解散,2015-10-05,1,,,,,クマノヨウギョ,0
1345,5200005001811,登記記録の閉鎖等,0,2022-04-19,2022-04-18,岐阜丸美洋服協同組合,,その他の設立登記法人,岐阜県,岐阜市,忠節町１丁目１８番地,,21,201,5008801,,,2022-04-18,清算の結了等,,,2015-10-05,1,,,,,ギフマルミヨウフク,0
1346,5210002010021,登記記録の閉鎖等,0,2022-04-19,2022-04-07,有限会社エースキーシステム,,有限会社,福井県,福井市,八ツ島町第３１号３０１番地３,,18,201,9100065,,,2022-04-07,清算の結了等,,,2015-10-05,1,,,,,エースキーシステム,0
1386,5330001017451,登記記録の閉鎖等,0,2022-04-19,2022-04-07,株式会社ナカムラ,,株式会社,熊本県,熊本市中央区,本山３丁目３番２号,,43,101,8600821,,,2022-04-07,清算の結了等,,,2015-10-05,1,,,,,ナカムラ,0
1387,5330001025933,登記記録の閉鎖等,0,2022-04-19,2022-04-07,株式会社ファインエネサポ,,株式会社,熊本県,熊本市東区,神園２丁目８番８号,,43,102,8618044,,,2022-04-07,清算の結了等,,,2018-12-06,1,,,,,ファインエネサポ,0
1391,5340001006775,登記記録の閉鎖等,0,2022-04-19,2022-04-15,株式会社ドリーム,,株式会社,鹿児島県,鹿児島市,石谷町３１０５番地１,,46,201,8992701,,,2022-04-15,清算の結了等,,,2015-10-05,1,,,,,ドリーム,0
1394,5350002018694,登記記録の閉鎖等,0,2022-04-19,2022-04-11,有限会社姫野製函,,有限会社,宮崎県,えびの市,大字上江８６０番地１,,45,209,8894304,,,2022-04-11,清算の結了等,,,2015-10-05,1,,,,,ヒメノセイカン,0
1445,6010403012874,登記記録の閉鎖等,0,2022-04-19,2022-04-05,ＪＳＲライフサイエンスベンチャーキャピタル合同会社,,合同会社,東京都,港区,東新橋１丁目９番２号,,13,103,1050021,,,2022-04-05,清算の結了等,,,2015-10-05,1,,,,,ジェイエスアールライフサイエンスベンチャーキャピタル,0
1449,6010602025611,登記記録の閉鎖等,0,2022-04-19,2022-04-06,有限会社タニック,,有限会社,東京都,江東区,亀戸１丁目１８番１２号,,13,108,1360071,,,2022-04-06,清算の結了等,,,2015-10-05,1,,,,,タニック,0
1468,6011005003007,登記記録の閉鎖等,0,2022-04-19,2022-04-04,特定非営利活動法人日本医療情報福祉ネットワーク,,その他の設立登記法人,東京都,渋谷区,渋谷１丁目７番５号,,13,113,1500002,,,2022-04-04,清算の結了等,,,2015-10-05,1,,,,,ニホンイリョウジョウホウフクシネットワーク,0
1469,6011101079925,登記記録の閉鎖等,0,2022-04-19,2022-04-01,株式会社リロ・エクセルインターナショナル,,株式会社,東京都,新宿区,新宿４丁目３番２５号,,13,104,1600022,,,2022-04-01,合併による解散等,7011101039498,令和４年４月１日東京都新宿区新宿四丁目３番２５号株式会社リロケーション・インターナショナル（7011101039498）に合併し解散,2017-03-21,1,,,,,リロエクセルインターナショナル,0
1490,6012803002447,登記記録の閉鎖等,0,2022-04-19,2022-04-12,合同会社Ａｋｉｓｈｉｍａ　Ｓｏｃｉｅｔｙ,,合同会社,東京都,昭島市,朝日町５丁目７－２７－２０１,,13,207,1960025,,,2022-04-12,清算の結了等,,,2021-02-12,1,,,,,アキシマソサエティ,0
1500,6020001078053,登記記録の閉鎖等,0,2022-04-19,2022-04-08,株式会社ヴォイス,,株式会社,神奈川県,川崎市高津区,溝口２丁目２７番１１号２Ｆ,,14,134,2130001,,,2022-04-08,清算の結了等,,,2015-10-05,1,,,,,ヴォイス,0
1504,6020002047494,登記記録の閉鎖等,0,2022-04-19,2022-04-08,有限会社アーバン,,有限会社,神奈川県,横浜市戸塚区,戸塚町２２３０番地３ヒルズ南戸塚３棟３０２号,,14,110,2440003,,,2022-04-08,清算の結了等,,,2015-10-05,1,,,,,アーバン,0
1505,6020002073499,登記記録の閉鎖等,0,2022-04-19,2022-04-11,有限会社エヌ・アソシエイツ,,有限会社,神奈川県,横浜市港北区,菊名４丁目８番２１号,,14,109,2220011,,,2022-04-11,清算の結了等,,,2015-10-05,1,,,,,エヌアソシエイツ,0
1545,6080102003128,登記記録の閉鎖等,0,2022-04-19,2022-04-18,フジフラワーセンター有限会社,,有限会社,静岡県,沼津市,西沢田榎田３３２番地,,22,203,4100007,,,2022-04-18,清算の結了等,,,2015-10-05,1,,,,,フジフラワーセンター,0
1563,6120001050844,登記記録の閉鎖等,0,2022-04-19,2022-04-08,淀川化機工業株式会社,,株式会社,大阪府,大阪市西淀川区,姫島３丁目１３番２６号,,27,113,5550033,,,2022-04-08,清算の結了等,,,2015-10-05,1,,,,,ヨドガワカキコウギョウ,0
1580,6120102014632,登記記録の閉鎖等,0,2022-04-19,2022-04-14,有限会社ミツワ,,有限会社,大阪府,堺市堺区,南安井町５丁１番９号,,27,141,5900064,,,2022-04-14,清算の結了等,,,2015-10-05,1,,,,,ミツワ,0
1586,6122001024209,登記記録の閉鎖等,0,2022-04-19,2022-04-11,株式会社アルミック,,株式会社,大阪府,柏原市,大県４丁目３番３５号,,27,221,5820018,,,2022-04-11,清算の結了等,,,2015-10-05,1,,,,,アルミック,0
1588,6122002002403,登記記録の閉鎖等,0,2022-04-19,2022-04-11,有限会社下村不動産,,有限会社,大阪府,東大阪市,花園本町１丁目１番６５号,,27,227,5780937,,,2022-04-11,清算の結了等,,,2015-10-05,1,,,,,シモムラフドウサン,0
1610,6170002011015,登記記録の閉鎖等,0,2022-04-19,2022-04-15,有限会社紀の川総合警備,,有限会社,和歌山県,伊都郡かつらぎ町,大字佐野１３０６番地の５,,30,341,6497174,,,2022-04-15,清算の結了等,,,2015-10-05,1,,,,,キノカワソウゴウケイビ,0
1628,6190002007473,登記記録の閉鎖等,0,2022-04-19,2022-04-11,有限会社ミズノ,,有限会社,三重県,鈴鹿市,国分町１０６６番地,,24,207,5130013,,,2022-04-11,清算の結了等,,,2015-10-05,1,,,,,ミズノ,0
1660,6280005003948,登記記録の閉鎖等,0,2022-04-19,2022-04-18,特定非営利活動法人行って楽しい迎えて嬉しい石見銀山ＮＰＯ,,その他の設立登記法人,島根県,大田市,温泉津町温泉津イ７０７番地１,,32,205,6992501,,,2022-04-18,清算の結了等,,,2015-10-05,1,,,,,イッテタノシイムカエテウレシイイワミギンザンエヌピーオー,0
1676,6320002001297,登記記録の閉鎖等,0,2022-04-19,2022-04-12,有限会社エス・ケイ・ワイ,,有限会社,大分県,大分市,大字迫字丸山６５８番地の２,,44,201,8700272,,,2022-04-12,清算の結了等,,,2015-10-05,1,,,,,エスケイワイ,0
1678,6330001027656,登記記録の閉鎖等,0,2022-04-19,2022-04-07,株式会社清新,,株式会社,熊本県,八代市,鏡町下有佐６０６番地,,43,202,8694212,,,2022-04-07,清算の結了等,,,2020-07-10,1,,,,,セイシン,0
1680,6330003002137,登記記録の閉鎖等,0,2022-04-19,2022-04-07,合同会社ふれあいの郷,,合同会社,熊本県,菊池郡菊陽町,大字原水５０８３番地１,,43,404,8691102,,,2022-04-07,清算の結了等,,,2015-10-05,1,,,,,フレアイノサト,0
1694,6390001002026,登記記録の閉鎖等,0,2022-04-19,2022-04-11,山形産業株式会社,,株式会社,山形県,山形市,馬見ケ崎１丁目２番２９号,,06,201,9900810,,,2022-04-11,清算の結了等,,,2015-10-05,1,,,,,ヤマガタサンギョウ,0
1695,6390001007347,登記記録の閉鎖等,0,2022-04-19,2022-04-15,ＴＤＫ庄内株式会社,,株式会社,山形県,鶴岡市,山田字油田９７番地,,06,203,9970856,,,2022-04-15,合併による解散等,2410001011374,令和４年４月１日秋田県由利本荘市万願寺１番地８ＴＤＫエレクトロニクスファクトリーズ株式会社（2410001011374）に合併し解散,2015-10-05,1,,,,,,0
1703,6410001002411,登記記録の閉鎖等,0,2022-04-19,2022-04-13,株式会社川反商事,,株式会社,東京都,調布市,深大寺東町３丁目３８番地１９,,13,208,1820012,,,2022-04-13,清算の結了等,,,2015-10-05,1,,,,,カワバタショウジ,0
1733,7010001130350,登記記録の閉鎖等,0,2022-04-19,2022-04-13,雅ファーマシー株式会社,,株式会社,東京都,千代田区,内幸町２丁目２番１号日本プレスセンタービル地下１階,,13,101,1000011,,,2022-04-13,合併による解散等,8120001082605,令和４年４月１日横浜市港北区新横浜三丁目１７番６号株式会社ココカラファインヘルスケア（8120001082605）に合併し解散,2015-10-05,1,,,,,ミヤビファーマシー,0
1764,7010601035577,登記記録の閉鎖等,0,2022-04-19,2022-04-06,株式会社ＩＭＳ,,株式会社,東京都,江東区,亀戸１丁目１８番６号シャンティオン７０１,,13,108,1360071,,,2022-04-06,清算の結了等,,,2015-10-05,1,,,,,アイエムエス,0
1780,7011101013528,登記記録の閉鎖等,0,2022-04-19,2022-04-12,株式会社テクノワールド,,株式会社,東京都,新宿区,大久保１丁目１２番３－４０３,,13,104,1690072,,,2022-04-12,清算の結了等,,,2015-10-05,1,,,,,テクノワールド,0
1788,7011101093801,登記記録の閉鎖等,0,2022-04-19,2022-04-04,株式会社ワンワールドプラス,,株式会社,東京都,新宿区,四谷４丁目１３－７,,13,104,1600004,,,2022-04-04,清算の結了等,,,2021-01-19,1,,,,,ワンワールドプラス,0
1793,7011601021583,登記記録の閉鎖等,0,2022-04-19,2022-04-15,株式会社佐野技研,,株式会社,東京都,練馬区,中村北４丁目４番９－１０６号,,13,120,1760023,,,2022-04-15,清算の結了等,,,2017-03-08,1,,,,,サノギケン,0
1809,7012703000756,登記記録の閉鎖等,0,2022-04-19,2022-04-01,合同会社ＹＭＳ　Ｃｏｒｐｏｒａｔｉｏｎ,,合同会社,埼玉県,所沢市,美原町５丁目２３０６番１－５０１号,,11,208,3590045,,,2022-04-01,清算の結了等,,,2015-10-05,1,,,,,ワイエムエスコーポレーション,0
1837,7030002039309,登記記録の閉鎖等,0,2022-04-19,2022-04-12,有限会社エスアンドケイカシムラドラッグ,,有限会社,埼玉県,久喜市,南栗橋４丁目２７番地８,,11,232,3491117,,,2022-04-12,清算の結了等,,,2015-10-05,1,,,,,エスアンドケイカシムラドラッグ,0
1855,7080101010297,登記記録の閉鎖等,0,2022-04-19,2022-04-15,株式会社エムエム・コーポレーション,,株式会社,静岡県,富士市,横割本町３番１０号,,22,210,4160923,,,2022-04-15,清算の結了等,,,2015-10-05,1,,,,,,0
1859,7080102001147,登記記録の閉鎖等,0,2022-04-19,2022-04-15,有限会社クリタハイツ,,有限会社,静岡県,沼津市,東原３３２番地,,22,203,4100304,,,2022-04-15,清算の結了等,,,2015-10-05,1,,,,,クリタハイツ,0
1865,7100001014453,登記記録の閉鎖等,0,2022-04-19,2022-04-15,株式会社デンソーエアシステムズ豊科,,株式会社,長野県,安曇野市,豊科１０００番地,,20,220,3998205,,,2022-04-15,合併による解散等,6180301011904,令和４年４月１日愛知県安城市桜井町稲荷西３８番地株式会社デンソーエアシステムズ（6180301011904）に合併し解散,2015-10-05,1,,,,,デンソーエアシステムズトヨシナ,0
1866,7100002019906,登記記録の閉鎖等,0,2022-04-19,2022-04-13,有限会社工部,,有限会社,長野県,松本市,大字新村３４３６番地,,20,202,3901241,,,2022-04-13,清算の結了等,,,2015-10-05,1,,,,,コウブ,0
1878,7120001098346,登記記録の閉鎖等,0,2022-04-19,2022-04-13,株式会社日建設計シビル,,株式会社,大阪府,大阪市中央区,高麗橋４丁目６番２号,,27,128,5410043,,,2022-04-13,合併による解散等,9010001006111,令和４年４月１日東京都千代田区飯田橋二丁目１８番３号株式会社日建設計（9010001006111）に合併し解散,2015-10-05,1,,,,,,0
1880,7120001107024,登記記録の閉鎖等,0,2022-04-19,2022-04-06,関東ピラーエンジニアリングサービス株式会社,,株式会社,大阪府,大阪市西区,新町１丁目７番１号,,27,106,5500013,,,2022-04-06,合併による解散等,8120001110191,令和４年４月１日大阪市西区新町一丁目７番１号山陽ピラーエンジニアリングサービス株式会社（8120001110191）に合併し解散,2015-10-05,1,,,,,カントウピラーエンジニアリングサービス,0
1908,7140001070856,登記記録の閉鎖等,0,2022-04-19,2022-04-14,東建テクノ株式会社,,株式会社,兵庫県,西宮市,鳴尾浜１丁目２５番１,,28,204,6638142,,,2022-04-14,合併による解散等,4010001023838,令和４年４月１日東京都千代田区神田三崎町二丁目２０番４号テクオス株式会社（4010001023838）に合併し解散,2015-10-05,1,,,,,トウケンテクノ,0
1912,7140001096604,登記記録の閉鎖等,0,2022-04-19,2022-04-13,株式会社えるも,,株式会社,兵庫県,宝塚市,中筋７丁目７番－２０１号,,28,214,6650874,,,2022-04-13,清算の結了等,,,2015-10-05,1,,,,,エルモ,0
1916,7140002040726,登記記録の閉鎖等,0,2022-04-19,2022-04-11,有限会社ケイ・エス・マネイジメント,,有限会社,兵庫県,尼崎市,立花町１丁目１２番７号,,28,202,6610025,,,2022-04-11,清算の結了等,,,2015-10-05,1,,,,,ケイエスマネジメントイ,0
1917,7140002042540,登記記録の閉鎖等,0,2022-04-19,2022-04-13,有限会社ほん田和,,有限会社,兵庫県,尼崎市,立花町１丁目３番２号,,28,202,6610025,,,2022-04-13,清算の結了等,,,2015-10-05,1,,,,,ホンダワ,0
1945,7240001029355,登記記録の閉鎖等,0,2022-04-19,2022-04-12,敷名造船株式会社,,株式会社,広島県,福山市,沼隈町大字常石２６８９番地,,34,207,7200313,,,2022-04-12,清算の結了等,,,2015-10-05,1,,,,,シキナゾウセン,0
1962,7260001012227,登記記録の閉鎖等,0,2022-04-19,2022-04-18,株式会社ＤＡＮＲＡＮ,,株式会社,岡山県,岡山市北区,平和町７番１８号岡本ビル１階,,33,101,7000827,,,2022-04-18,清算の結了等,,,2015-10-05,1,,,,,ダンラン,0
1972,7290001023725,登記記録の閉鎖等,0,2022-04-19,2022-04-11,株式会社宇宙堂,,株式会社,福岡県,福岡市中央区,薬院１丁目１６－１８江島ビル５Ｆ,,40,133,8100022,,,2022-04-11,清算の結了等,,,2015-10-05,1,,,,,,0
1997,7360005004458,登記記録の閉鎖等,0,2022-04-19,2022-04-06,一般社団法人コザライブハウス連絡協議会,,その他の設立登記法人,沖縄県,沖縄市,嘉間良３丁目９番３０号,,47,211,9040005,,,2022-04-06,清算の結了等,,,2015-10-05,1,,,,,コザライブハウスレンラクキョウギカイ,0
2036,8010001141173,登記記録の閉鎖等,0,2022-04-19,2022-04-05,株式会社日本ケアリンク,,株式会社,東京都,港区,芝４丁目１番２３号,,13,103,1080014,,,2022-04-05,合併による解散等,3010001032864,令和４年４月１日東京都港区港南一丁目７番１８号株式会社ソラスト（3010001032864）に合併し解散,2015-10-05,1,,,,,ニホンケアリンク,0
2039,8010001217031,登記記録の閉鎖等,0,2022-04-19,2022-04-04,ｆｕＤ株式会社,,株式会社,東京都,千代田区,神田神保町２丁目２番３４号,,13,101,1010051,,,2022-04-04,清算の結了等,,,2021-04-02,1,,,,,フーディー,0
2048,8010401112831,登記記録の閉鎖等,0,2022-04-19,2022-04-01,株式会社ウィンド,,株式会社,東京都,港区,麻布台１丁目１１番１０号,,13,103,1060041,,,2022-04-01,合併による解散等,5010401055967,令和４年４月１日東京都港区麻布台一丁目１１番１０号日総ビルディング株式会社（5010401055967）に合併し解散,2015-10-05,1,,,,,ウィンド,0
2053,8010402025636,登記記録の閉鎖等,0,2022-04-19,2022-04-04,有限会社キタマチコーポレーション,,有限会社,東京都,港区,赤坂９丁目６番２８－７０１号,,13,103,1070052,,,2022-04-04,清算の結了等,,,2015-10-05,1,,,,,キタマチコーポレーション,0
2065,8010901026135,登記記録の閉鎖等,0,2022-04-19,2022-04-12,９ｗａｓｈ株式会社,,株式会社,東京都,世田谷区,池尻２丁目３３番１５－５０１号,,13,112,1540001,,,2022-04-12,清算の結了等,,,2015-10-05,1,,,,,ナインウォッシュ,0
2109,8020001036075,登記記録の閉鎖等,0,2022-04-19,2022-04-15,株式会社フオーチュン,,株式会社,神奈川県,横浜市中区,かもめ町６番地,,14,104,2310813,,,2022-04-15,合併による解散等,4010601039192,令和４年４月１日東京都江東区深川一丁目１番５号栄和産業株式会社（4010601039192）に合併し解散,2015-10-05,1,,,,,フォーチュン,0
2121,8030001082003,登記記録の閉鎖等,0,2022-04-19,2022-04-11,ケイプロジェクト株式会社,,株式会社,埼玉県,川口市,大字小谷場３８番地,,11,203,3330857,,,2022-04-11,清算の結了等,,,2015-10-05,1,,,,,ケイプロジェクト,0
2134,8050001018327,登記記録の閉鎖等,0,2022-04-19,2022-04-12,株式会社川邊,,株式会社,茨城県,古河市,東１丁目２番３号,,08,204,3060011,,,2022-04-12,清算の結了等,,,2015-10-05,1,,,,,カワベ,0
2137,8060002007369,登記記録の閉鎖等,0,2022-04-19,2022-04-12,有限会社浜吉商店,,有限会社,栃木県,宇都宮市,池上町４番６号,,09,201,3200801,,,2022-04-12,清算の結了等,,,2015-10-05,1,,,,,ハマキチショウテン,0
2159,8080401023733,登記記録の閉鎖等,0,2022-04-19,2022-04-14,湖西科学株式会社,,株式会社,静岡県,湖西市,新居町中之郷４０６２番地,,22,221,4310301,,,2022-04-14,清算の結了等,,,2019-07-04,1,,,,,コサイカガク,0
2171,8110005013532,登記記録の閉鎖等,0,2022-04-19,2022-04-12,農事組合法人北魚沼酪農共同利用組合,,その他の設立登記法人,新潟県,魚沼市,田戸２５２番地２,,15,225,9497402,,,2022-04-12,清算の結了等,,,2015-10-05,1,,,,,キタウオヌマラクノウキョウドウリヨウクミアイ,0
2179,8120001142904,登記記録の閉鎖等,0,2022-04-19,2022-04-08,大阪女神インキ株式会社,,株式会社,大阪府,大阪市東成区,東小橋１丁目１４番６号,,27,115,5370024,,,2022-04-08,清算の結了等,,,2015-10-05,1,,,,,オオサカメガミインキ,0
2189,8120003015983,登記記録の閉鎖等,0,2022-04-19,2022-04-08,交通事故弁護士ガイド合同会社,,合同会社,大阪府,大阪市中央区,北浜東２番１３号幸ビル６階,,27,128,5400031,,,2022-04-08,清算の結了等,,,2019-07-16,1,,,,,コウツウジコベンゴシガイド,0
2215,8170001016905,登記記録の閉鎖等,0,2022-04-19,2022-04-18,株式会社森エステート,,株式会社,和歌山県,和歌山市,鳴神７６－１０,,30,201,6408303,,,2022-04-18,清算の結了等,,,2021-12-14,1,,,,,,0
2225,8180301029259,登記記録の閉鎖等,0,2022-04-19,2022-04-12,ＭＥＸモバイル株式会社,,株式会社,愛知県,みよし市,三好町金田１番地５,,23,236,4700224,,,2022-04-12,合併による解散等,1180001069520,令和４年４月１日愛知県豊明市二村台二丁目２６番地の１４明和興業株式会社（1180001069520）に合併し解散,2016-06-13,1,,,,,,0
2227,8180303001901,登記記録の閉鎖等,0,2022-04-19,2022-04-11,Ｌａｓｉｃ株式会社,,株式会社,愛知県,岡崎市,明大寺町字池下５７番地,,23,202,4440864,,,2022-04-11,合併による解散等,2190001020506,令和４年４月１日名古屋市中川区吉津一丁目２１０９番地日本ライフケアソリューションズ株式会社（2190001020506）に合併し解散,2015-10-05,1,,,,,ラシク,0
2274,8290802006646,登記記録の閉鎖等,0,2022-04-19,2022-04-11,有限会社山路鉄工所,,有限会社,福岡県,北九州市小倉北区,末広１丁目１２番１７号,,40,106,8020012,,,2022-04-11,清算の結了等,,,2015-10-05,1,,,,,ヤマジテッコウショウ,0
2303,8430001060224,登記記録の閉鎖等,0,2022-04-19,2022-04-13,株式会社アールツー,,株式会社,北海道,石狩市,新港中央３丁目７５０番地３,,01,235,0613242,,,2022-04-13,合併による解散等,2462501000323,令和４年４月１日北海道野付郡別海町別海１４番地の１株式会社アシスト（2462501000323）に合併し解散,2015-10-05,1,,,,,アールツー,0
2322,9010001047436,登記記録の閉鎖等,0,2022-04-19,2022-04-04,株式会社鈴木美術,,株式会社,東京都,中央区,八丁堀３丁目２３番１号,,13,102,1040032,,,2022-04-04,清算の結了等,,,2015-10-05,1,,,,,スズキビジュツ,0
2348,9010701017713,登記記録の閉鎖等,0,2022-04-19,2022-04-13,株式会社ＤＮＰソーシャルリンク,,株式会社,東京都,品川区,西五反田３丁目５番２０号,,13,109,1410031,,,2022-04-13,合併による解散等,5011101012069,令和４年４月１日東京都新宿区市谷加賀町一丁目１番１号大日本印刷株式会社（5011101012069）に合併し解散,2015-10-05,1,,,,,ディーエヌピーソーシャルリンク,0
2377,9011501000132,登記記録の閉鎖等,0,2022-04-19,2022-04-14,株式会社アクティブ大鵬,,株式会社,東京都,北区,赤羽１丁目３０番５号,,13,117,1150045,,,2022-04-14,清算の結了等,,,2015-10-05,1,,,,,アクティブタイホー,0
2378,9011501009272,登記記録の閉鎖等,0,2022-04-19,2022-04-14,リー・ジャパン株式会社,,株式会社,東京都,荒川区,東日暮里３丁目２７番６号,,13,118,1160014,,,2022-04-14,合併による解散等,2011501011549,令和４年４月１日東京都品川区上大崎二丁目２４番９号アイケイビルディング２Ｆ株式会社エドウイン（2011501011549）に合併し解散,2015-10-05,1,,,,,リージャパン,0
2389,9011801024772,登記記録の閉鎖等,0,2022-04-19,2022-04-14,株式会社バイオセーフ,,株式会社,東京都,足立区,竹の塚３丁目１０－５－３０５,,13,121,1210813,,,2022-04-14,合併による解散等,9030001035042,令和４年４月１日埼玉県草加市谷塚上町５７５番地６株式会社シーデイ（9030001035042）に合併し解散,2015-10-05,1,,,,,バイオセーフ,0
2428,9040005004513,登記記録の閉鎖等,0,2022-04-19,2022-04-07,医療法人社団三文会,,その他の設立登記法人,千葉県,浦安市,富士見１丁目１０番１１号,,12,227,2790043,,,2022-04-07,清算の結了等,,,2015-10-05,1,,,,,サンモンカイ,0
2438,9070001030502,登記記録の閉鎖等,0,2022-04-19,2022-04-07,株式会社ＡＹＡ,,株式会社,群馬県,富岡市,中高瀬３５９番地,,10,210,3702333,,,2022-04-07,清算の結了等,,,2015-10-05,1,,,,,アヤ,0
2439,9070002024791,登記記録の閉鎖等,0,2022-04-19,2022-04-06,有限会社マツモト電機,,有限会社,群馬県,桐生市,相生町１丁目２３０番地の６,,10,203,3760011,,,2022-04-06,清算の結了等,,,2015-10-05,1,,,,,マツモトデンキ,0
2456,9120001057969,登記記録の閉鎖等,0,2022-04-19,2022-04-06,ピラーサービス販売株式会社,,株式会社,大阪府,大阪市西区,新町１丁目７番１号,,27,106,5500013,,,2022-04-06,合併による解散等,8120001110191,令和４年４月１日大阪市西区新町一丁目７番１号山陽ピラーエンジニアリングサービス株式会社（8120001110191）に合併し解散,2015-10-05,1,,,,,ピラーサービスハンバイ,0
2492,9140003011930,登記記録の閉鎖等,0,2022-04-19,2022-04-12,リブワークス合同会社,,合同会社,兵庫県,西宮市,今津西浜町２番１６号,,28,204,6638225,,,2022-04-12,清算の結了等,,,2017-02-16,1,,,,,リブワークス,0
2503,9180002018130,登記記録の閉鎖等,0,2022-04-19,2022-04-08,有限会社三治マンション,,有限会社,愛知県,名古屋市中川区,荒中町２１５番地,,23,110,4540922,,,2022-04-08,清算の結了等,,,2015-10-05,1,,,,,ミハルマンション,0
2504,9180002078439,登記記録の閉鎖等,0,2022-04-19,2022-04-08,有限会社森キヨ縫製,,有限会社,愛知県,一宮市,三条字江向３５番地,,23,203,4940003,,,2022-04-08,清算の結了等,,,2015-10-05,1,,,,,モリキヨホウセイ,0
2506,9180005002379,登記記録の閉鎖等,0,2022-04-19,2022-04-13,医療法人神谷メディカルクリニック,,その他の設立登記法人,愛知県,名古屋市中区,金山４丁目６番１６号,,23,106,4600022,,,2022-04-13,清算の結了等,,,2015-10-05,1,,,,,カミヤメディカルクリニック,0
2507,9180005009721,登記記録の閉鎖等,0,2022-04-19,2022-04-12,ソニー稲沢労働組合,,その他の設立登記法人,愛知県,稲沢市,大矢町五反地４,,23,220,4928412,,,2022-04-12,清算の結了等,,,2015-10-05,1,,,,,ソニーイナザワ,0
2515,9190001019327,登記記録の閉鎖等,0,2022-04-19,2022-04-07,株式会社阿知波新聞店,,株式会社,三重県,津市,長岡町５６０番地１,,24,201,5140064,,,2022-04-07,清算の結了等,,,2015-10-05,1,,,,,アチワシンブンテン,0
2545,9260002026851,登記記録の閉鎖等,0,2022-04-19,2022-04-15,有限会社備北乳販,,有限会社,岡山県,高梁市,原田南町１１１３番地の２,,33,209,7160044,,,2022-04-15,清算の結了等,,,2015-10-05,1,,,,,,0
2547,9280001005714,登記記録の閉鎖等,0,2022-04-19,2022-04-18,株式会社鉄の歴史村,,株式会社,島根県,雲南市,吉田町吉田２５６６番地,,32,209,6902801,,,2022-04-18,清算の結了等,,,2015-10-05,1,,,,,テツノレキシムラ,0
2552,9290001059445,登記記録の閉鎖等,0,2022-04-19,2022-04-11,株式会社ＢＬＴ,,株式会社,福岡県,筑紫野市,大字上古賀２番地１,,40,217,8180041,,,2022-04-11,清算の結了等,,,2015-10-05,1,,,,,ビーエルティー,0
2557,9290802019820,登記記録の閉鎖等,0,2022-04-19,2022-04-12,有限会社シゲムラエンジニアリング,,有限会社,福岡県,北九州市八幡西区,小鷺田町１９番１１号,,40,109,8060056,,,2022-04-12,清算の結了等,,,2015-10-05,1,,,,,シゲムラエンジニアリング,0
2571,9330002019170,登記記録の閉鎖等,0,2022-04-19,2022-04-07,有限会社大研商事,,有限会社,熊本県,熊本市北区,植木町植木１４１番地の１,,43,105,8610132,,,2022-04-07,清算の結了等,,,2015-10-05,1,,,,,ダイケンショウジ,0
2614,9470001013169,登記記録の閉鎖等,0,2022-04-19,2022-04-14,株式会社国宗商会,,株式会社,香川県,高松市,西ハゼ町２９６番地,,37,201,7618053,,,2022-04-14,清算の結了等,,,2015-10-05,1,,,,,クニムネショウカイ,0
2619,9470002013341,登記記録の閉鎖等,0,2022-04-19,2022-04-12,有限会社松本保温工業所,,有限会社,香川県,仲多度郡琴平町,苗田３１５番地の１,,37,403,7660005,,,2022-04-12,清算の結了等,,,2015-10-05,1,,,,,マツモトホウオンコウギョウショ,0
2625,9490002002235,登記記録の閉鎖等,0,2022-04-19,2022-04-01,有限会社桜屋,,有限会社,高知県,高知市,仁井田４５６３番地１,,39,201,7810112,,,2022-04-01,合併による解散等,1490001000214,令和４年４月１日高知市仁井田４５６３番地１入交グループ本社株式会社（1490001000214）に合併し解散,2015-10-05,1,,,,,サクラヤ,0
