sequenceNumber,corporateNumber,process,correct,updateDate,changeDate,name,nameImageId,kind,prefectureName,cityName,streetNumber,addressImageId,prefectureCode,cityCode,postCode,addressOutside,addressOutsideImageId,closeDate,closeCause,successorCorporateNumber,changeCause,assignmentDate,latest,enName,enPrefectureName,enCityName,enAddressOutside,furigana,hihyoji
7,1010102003196,登記記録の閉鎖等,0,2023-12-06,2023-12-05,有限会社ジェンテックコスモ,,有限会社,東京都,八王子市,南大沢５丁目１７番３－７０２号,,13,201,1920364,,,2023-12-05,清算の結了等,,,2015-10-05,1,,,,,ジェンテックコスモ,0
18,1010401154384,登記記録の閉鎖等,0,2023-12-06,2023-12-01,傑深電器株式会社,,株式会社,神奈川県,海老名市,中央１丁目１６番３１号Ａ＆ＮＩビル１Ｆ,,14,215,2430432,,,2023-12-01,清算の結了等,,,2020-08-07,1,,,,,ジャシェンデンキ,0
26,1010501011510,登記記録の閉鎖等,0,2023-12-06,2023-11-30,株式会社ビーエルエスヤマモト,,株式会社,埼玉県,さいたま市大宮区,櫛引町１丁目３０９番地２,,11,103,3300851,,,2023-11-30,清算の結了等,,,2015-10-05,1,,,,,ビーエルエスヤマモト,0
38,1010803003296,登記記録の閉鎖等,0,2023-12-06,2023-12-01,合同会社エストレア,,合同会社,東京都,大田区,東雪谷３丁目１番６号,,13,111,1450065,,,2023-12-01,清算の結了等,,,2020-03-16,1,,,,,エストレア,0
68,1012401023197,登記記録の閉鎖等,0,2023-12-06,2023-12-01,株式会社府中寿,,株式会社,東京都,府中市,寿町３丁目１番地の１,,13,206,1830056,,,2023-12-01,清算の結了等,,,2015-10-05,1,,,,,フチュウコトブキ,0
70,1012402002927,登記記録の閉鎖等,0,2023-12-06,2023-12-01,有限会社吉岡表具店,00058078,有限会社,東京都,府中市,宮西町４丁目３番地の２,,13,206,1830022,,,2023-12-01,清算の結了等,,,2015-10-05,1,,,,,ヨシオカヒョウグテン,0
85,1020001015936,登記記録の閉鎖等,0,2023-12-06,2023-12-01,ふるわしゴム株式会社,,株式会社,神奈川県,横浜市神奈川区,神大寺３丁目１８番２４号,,14,102,2210801,,,2023-12-01,清算の結了等,,,2015-10-05,1,,,,,フルワシゴム,0
89,1020001097149,登記記録の閉鎖等,0,2023-12-06,2023-12-01,株式会社法務コミュニケーションズ川崎,,株式会社,神奈川県,川崎市川崎区,富士見１丁目２番１－６２４号,,14,131,2100011,,,2023-12-01,清算の結了等,,,2015-10-05,1,,,,,ホウムコミュニケーションズカワサキ,0
95,1020003006792,登記記録の閉鎖等,0,2023-12-06,2023-12-01,柴原企画＆デザイン合同会社,,合同会社,神奈川県,川崎市宮前区,神木２丁目５番地５ルミエール神木３０４,,14,136,2160032,,,2023-12-01,清算の結了等,,,2015-10-05,1,,,,,シバハラキカクアンドデザイン,0
98,1021001056838,登記記録の閉鎖等,0,2023-12-06,2023-12-04,株式会社ＪＭＫ,,株式会社,神奈川県,鎌倉市,長谷２丁目１０－４３,,14,204,2480016,,,2023-12-04,清算の結了等,,,2015-10-05,1,,,,,ジェイエムケイ,0
100,1021002009761,登記記録の閉鎖等,0,2023-12-06,2023-12-04,有限会社豊田左官工業,,有限会社,神奈川県,高座郡寒川町,宮山３０３９番地の１,,14,321,2530106,,,2023-12-04,清算の結了等,,,2015-10-05,1,,,,,トヨダサカンコウギョウ,0
102,1021002036715,登記記録の閉鎖等,0,2023-12-06,2023-12-01,有限会社フェリーチェ,,有限会社,神奈川県,厚木市,鳶尾５丁目１２番１９号,,14,212,2430204,,,2023-12-01,清算の結了等,,,2015-10-05,1,,,,,フェリーチェ,0
105,1021002053883,登記記録の閉鎖等,0,2023-12-06,2023-12-01,有限会社高井プロジェクト,,有限会社,神奈川県,小田原市,本町２丁目６番１号,,14,206,2500012,,,2023-12-01,合併による解散等,7021001032866,令和５年１１月２８日神奈川県小田原市本町二丁目６番１号大箱根事業株式会社（7021001032866）に合併し解散,2015-10-05,1,,,,,タカイプロジェクト,0
107,1030001014409,登記記録の閉鎖等,0,2023-12-06,2023-11-30,株式会社メゾリーチェ,,株式会社,埼玉県,さいたま市見沼区,大字御蔵３５０番地１,,11,104,3370033,,,2023-11-30,清算の結了等,,,2015-10-05,1,,,,,メゾリーチェ,0
110,1030001070443,登記記録の閉鎖等,0,2023-12-06,2023-11-30,ヘロン株式会社,,株式会社,埼玉県,坂戸市,本町４番４号,,11,239,3500226,,,2023-11-30,清算の結了等,,,2015-10-05,1,,,,,ヘロン,0
127,1040002056829,登記記録の閉鎖等,0,2023-12-06,2023-11-29,有限会社三上新聞店,,有限会社,千葉県,印旛郡栄町,安食３６４９番地,,12,329,2701516,,,2023-11-29,清算の結了等,,,2015-10-05,1,,,,,ミカミシンブンテン,0
141,1070002012663,登記記録の閉鎖等,0,2023-12-06,2023-12-01,有限会社吉田電業,,有限会社,群馬県,高崎市,石原町１５４１番地,,10,202,3700864,,,2023-12-01,清算の結了等,,,2015-10-05,1,,,,,ヨシダデンギョウ,0
144,1080105004078,登記記録の閉鎖等,0,2023-12-06,2023-12-04,医療法人社団月出整形外科医院,,その他の設立登記法人,静岡県,伊東市,桜ガ丘２丁目１番８号,,22,208,4140037,,,2023-12-04,清算の結了等,,,2015-10-05,1,,,,,ヒタチセイケイゲカイイン,0
145,1080402007931,登記記録の閉鎖等,0,2023-12-06,2023-12-01,有限会社丸和洋服店,,有限会社,静岡県,浜松市中区,田町２２４番地の１０,,22,131,4300944,,,2023-12-01,清算の結了等,,,2015-10-05,1,,,,,マルワヨウフクテン,0
149,1100001022429,登記記録の閉鎖等,0,2023-12-06,2023-11-29,株式会社コア,,株式会社,長野県,飯田市,松尾上溝３０１４番地２,,20,205,3950811,,,2023-11-29,清算の結了等,,,2015-10-05,1,,,,,コア,0
204,1160001010163,登記記録の閉鎖等,0,2023-12-06,2023-12-04,株式会社肥田電器金型製作所,,株式会社,滋賀県,東近江市,五個荘川並町８３８番地,,25,213,5291441,,,2023-12-04,合併による解散等,9220001015636,令和５年１２月１日石川県鹿島郡中能登町春木ラ部５５番地肥田電器株式会社（9220001015636）に合併し解散,2015-10-05,1,,,,,ヒダデンキカナガタセイサクショ,0
234,1270003001463,登記記録の閉鎖等,0,2023-12-06,2023-12-04,合同会社ＫＫパートナーズ,,合同会社,鳥取県,鳥取市,鹿野町鹿野１１５３番地１４,,31,201,6890405,,,2023-12-04,清算の結了等,,,2022-11-08,1,,,,,ケイケイパートナーズ,0
236,1280002008293,登記記録の閉鎖等,0,2023-12-06,2023-12-04,有限会社こんぱる,,有限会社,島根県,浜田市,錦町４２番地１,,32,202,6970042,,,2023-12-04,清算の結了等,,,2015-10-05,1,,,,,コンパル,0
245,1290801008476,登記記録の閉鎖等,0,2023-12-06,2023-12-04,株式会社小倉よろずや,,株式会社,福岡県,北九州市門司区,浜町１０番７－２０２号,,40,101,8010856,,,2023-12-04,清算の結了等,,,2015-10-05,1,,,,,コクラヨロズヤ,0
246,1290801015902,登記記録の閉鎖等,0,2023-12-06,2023-12-04,株式会社行橋パイプ加工所,,株式会社,福岡県,行橋市,大字稲童１３３３番地５１,,40,213,8240022,,,2023-12-04,清算の結了等,,,2015-10-05,1,,,,,ユクハシパイプカコウショ,0
247,1290801023541,登記記録の閉鎖等,0,2023-12-06,2023-12-04,タイセー電機株式会社,,株式会社,福岡県,北九州市小倉南区,朽網西６丁目８番１－２０３号,,40,107,8000233,,,2023-12-04,清算の結了等,,,2017-04-21,1,,,,,,0
249,1290802024646,登記記録の閉鎖等,0,2023-12-06,2023-12-04,有限会社親成産業商事,,有限会社,福岡県,田川郡川崎町,大字池尻４３３番地の８,,40,605,8270002,,,2023-12-04,清算の結了等,,,2015-10-05,1,,,,,シンセイサンギョウショウジ,0
259,1360001012874,登記記録の閉鎖等,0,2023-12-06,2023-12-01,株式会社福花養殖センター,,株式会社,沖縄県,国頭郡金武町,字金武１１６５５番地１,,47,314,9041201,,,2023-12-01,清算の結了等,,,2015-10-05,1,,,,,フクハナヨウショクセンター,0
267,1370502000906,登記記録の閉鎖等,0,2023-12-06,2023-12-01,有限会社むさし美容室,,有限会社,宮城県,気仙沼市,岩月寺沢２２６番地６,,04,205,9880206,,,2023-12-01,清算の結了等,,,2015-10-05,1,,,,,ムサシビヨウシツ,0
271,1400002003018,登記記録の閉鎖等,0,2023-12-06,2023-12-01,有限会社ホツプスカンパニー,,有限会社,岩手県,盛岡市,開運橋通２番３８号,,03,201,0200026,,,2023-12-01,清算の結了等,,,2015-10-05,1,,,,,ホツプスカンパニー,0
276,1430001022767,登記記録の閉鎖等,0,2023-12-06,2023-11-29,丸井水産株式会社,,株式会社,北海道,札幌市中央区,北十三条西１９丁目３７番地の６５,,01,101,0600013,,,2023-11-29,清算の結了等,,,2015-10-05,1,,,,,マルイスイサン,0
285,1470002008563,登記記録の閉鎖等,0,2023-12-06,2023-12-05,有限会社トッピー・プランニング,,有限会社,香川県,高松市,多肥上町１７３７番地,,37,201,7618076,,,2023-12-05,清算の結了等,,,2015-10-05,1,,,,,トッピープランニング,0
297,2010001179186,登記記録の閉鎖等,0,2023-12-06,2023-12-01,ＢＭＦコンサルティング株式会社,,株式会社,東京都,中央区,新川１丁目６番１２号,,13,102,1040033,,,2023-12-01,清算の結了等,,,2016-10-26,1,,,,,ビーエムエフコンサルティング,0
308,2010002023871,登記記録の閉鎖等,0,2023-12-06,2023-12-01,有限会社エバティー・ランド・ジャパン,,有限会社,東京都,千代田区,神田佐久間町２丁目７番地,,13,101,1010025,,,2023-12-01,清算の結了等,,,2015-10-05,1,,,,,エバティーランドジャパン,0
311,2010005030213,登記記録の閉鎖等,0,2023-12-06,2023-12-01,特定目的会社ヘルスケア柏,,その他の設立登記法人,東京都,千代田区,永田町１丁目１１番３０号サウスヒル永田町５階,,13,101,1000014,,,2023-12-01,清算の結了等,,,2019-05-24,1,,,,,ヘルスケアカシワ,0
313,2010401123446,登記記録の閉鎖等,0,2023-12-06,2023-12-01,株式会社Ａｌｐｈａ,,株式会社,東京都,渋谷区,渋谷３丁目１１番１１号,,13,113,1500002,,,2023-12-01,合併による解散等,7011001155288,令和５年１１月１日東京都渋谷区渋谷三丁目１１番１１号株式会社ＭＡＶＥＬ（7011001155288）に合併し解散,2016-03-07,1,,,,,アルファ,0
355,2011202011377,登記記録の閉鎖等,0,2023-12-06,2023-12-04,有限会社ゆーかり計算センター,,有限会社,東京都,中野区,本町３丁目３０番１４号,,13,114,1640012,,,2023-12-04,清算の結了等,,,2015-10-05,1,,,,,ユーカリケイサンセンター,0
358,2011501017240,登記記録の閉鎖等,0,2023-12-06,2023-11-30,株式会社ＨＡＴＳＵＨＯＫＡＩ,,株式会社,千葉県,船橋市,上山町３丁目５１８番地１２１,,12,204,2730046,,,2023-11-30,清算の結了等,,,2015-10-05,1,,,,,ハツホカイ,0
369,2011801010515,登記記録の閉鎖等,0,2023-12-06,2023-12-01,利根川精機株式会社,,株式会社,東京都,足立区,興野２丁目２４番１５号,,13,121,1230844,,,2023-12-01,清算の結了等,,,2015-10-05,1,,,,,トネガワセイキ,0
381,2021001010356,登記記録の閉鎖等,0,2023-12-06,2023-12-01,株式会社リンクス,,株式会社,神奈川県,鎌倉市,台３丁目８番３７号,,14,204,2470061,,,2023-12-01,清算の結了等,,,2015-10-05,1,,,,,リンクス,0
388,2030001072315,登記記録の閉鎖等,0,2023-12-06,2023-11-30,株式会社花蔵厨房,,株式会社,埼玉県,東松山市,大字新郷８８番地１０,,11,212,3550071,,,2023-11-30,清算の結了等,,,2015-10-05,1,,,,,カグラチュウボウ,0
392,2030002019307,登記記録の閉鎖等,0,2023-12-06,2023-12-01,有限会社スペースプランニング,,有限会社,埼玉県,さいたま市見沼区,大字南中丸１１８番地４,,11,104,3370041,,,2023-12-01,清算の結了等,,,2015-10-05,1,,,,,スペースプランニング,0
434,2110001018053,登記記録の閉鎖等,0,2023-12-06,2023-12-04,株式会社エメニクス,,株式会社,新潟県,村上市,中浜９８８番地８,,15,212,9593902,,,2023-12-04,清算の結了等,,,2015-10-05,1,,,,,エメニクス,0
469,2140001029254,登記記録の閉鎖等,0,2023-12-06,2023-12-01,株式会社Ｓ・Ｐ・Ａ商事,,株式会社,兵庫県,神戸市長田区,菅原通７丁目４１番１号ゴールドウッズコウベシューズタウンセンタービル５０２号,,28,106,6530015,,,2023-12-01,清算の結了等,,,2015-10-05,1,,,,,エスピーエーショウジ,0
489,2180002078577,登記記録の閉鎖等,0,2023-12-06,2023-11-30,有限会社五藤,,有限会社,愛知県,一宮市,木曽川町里小牧字本茅場１０５番地,,23,203,4930005,,,2023-11-30,清算の結了等,,,2015-10-05,1,,,,,ゴトウ,0
493,2180301003839,登記記録の閉鎖等,0,2023-12-06,2023-12-01,株式会社岡崎ニューグランドホテル,,株式会社,愛知県,岡崎市,康生町５１５番地３３,,23,202,4440052,,,2023-12-01,合併による解散等,1180301000507,令和５年１２月１日愛知県岡崎市橋目町字神田７９番地株式会社エターナルカモ（1180301000507）に合併し解散,2015-10-05,1,,,,,オカザキニューグランドホテル,0
495,2180305005286,登記記録の閉鎖等,0,2023-12-06,2023-12-01,税理士法人植松会計事務所,,その他の設立登記法人,愛知県,碧南市,向陽町２丁目７５番地,,23,209,4470871,,,2023-12-01,清算の結了等,,,2015-10-05,1,,,,,ウエマツカイケイジムショ,0
499,2190002023656,登記記録の閉鎖等,0,2023-12-06,2023-11-30,イーワーク有限会社,,有限会社,三重県,三重郡菰野町,大字田口８３２番地３８,,24,341,5101321,,,2023-11-30,清算の結了等,,,2015-10-05,1,,,,,イーワーク,0
505,2200002003862,登記記録の閉鎖等,0,2023-12-06,2023-12-05,有限会社廣瀬商会,,有限会社,岐阜県,岐阜市,東改田字再勝１４３番地,,21,201,5011144,,,2023-12-05,清算の結了等,,,2015-10-05,1,,,,,,0
507,2210001014975,登記記録の閉鎖等,0,2023-12-06,2023-11-30,株式会社ジョイベ,,株式会社,福井県,坂井市,丸岡町東陽２丁目３１番地,,18,210,9100233,,,2023-11-30,合併による解散等,5210001014709,令和５年１１月３０日福井県坂井市春江町藤鷲塚第４０号３５番地２株式会社ザカモア（5210001014709）に合併し解散,2015-10-05,1,,,,,ジョイベ,0
508,2230005001217,登記記録の閉鎖等,0,2023-12-06,2023-12-04,正専寺,,その他の設立登記法人,富山県,富山市,水橋専光寺６５５番地,,16,201,9390554,,,2023-12-04,清算の結了等,,,2015-10-05,1,,,,,ショウセンジ,0
510,2240001017496,登記記録の閉鎖等,0,2023-12-06,2023-11-30,株式会社フノラン,,株式会社,広島県,広島市安佐北区,口田３丁目２７番２１号,,34,106,7391734,,,2023-11-30,清算の結了等,,,2015-10-05,1,,,,,フノラン,0
511,2240002024590,登記記録の閉鎖等,0,2023-12-06,2023-11-29,有限会社ラボーダー,,有限会社,広島県,広島市南区,向洋新町１丁目２０－２１,,34,103,7340055,,,2023-11-29,清算の結了等,,,2015-10-05,1,,,,,ラボーダー,0
522,2290003011815,登記記録の閉鎖等,0,2023-12-06,2023-11-27,合同会社プティエグラン,,合同会社,福岡県,糸島市,二丈武６２４－２２,,40,230,8191616,,,2023-11-27,清算の結了等,,,2021-11-19,1,,,,,プティエグラン,0
528,2340001007999,登記記録の閉鎖等,0,2023-12-06,2023-12-01,株式会社ワンスペース,,株式会社,鹿児島県,霧島市,隼人町住吉１２５０番地５,,46,218,8995101,,,2023-12-01,清算の結了等,,,2015-10-05,1,,,,,ワンスペース,0
552,2460102002680,登記記録の閉鎖等,0,2023-12-06,2023-11-30,有限会社華どら秀月,,有限会社,北海道,帯広市,東六条南５丁目１８番地１,,01,207,0800806,,,2023-11-30,清算の結了等,,,2015-10-05,1,,,,,ハナドラシュウゲツ,0
575,3010001201089,登記記録の閉鎖等,0,2023-12-06,2023-12-01,Ｊａｐｏｗｅｒ株式会社,,株式会社,東京都,千代田区,霞が関３丁目２番５号,,13,101,1000013,,,2023-12-01,清算の結了等,,,2019-05-23,1,,,,,ジャパワー,0
583,3010401159299,登記記録の閉鎖等,0,2023-12-06,2023-12-01,ＡＤＸＬ株式会社,,株式会社,東京都,港区,芝浦３丁目１番２１号,,13,103,1080023,,,2023-12-01,合併による解散等,7010401112337,令和５年１２月１日東京都港区三田三丁目１３番１６号三田４３ＭＴビル１３階スマートキャンプ株式会社（7010401112337）に合併し解散,2021-04-05,1,,,,,アドシル,0
589,3010501033809,登記記録の閉鎖等,0,2023-12-06,2023-12-01,株式会社オギクリエイティブ,,株式会社,東京都,新宿区,市谷砂土原町１丁目２番地３８タイホービル,,13,104,1620842,,,2023-12-01,清算の結了等,,,2015-10-05,1,,,,,オギクリエイティブ,0
619,3011201011897,登記記録の閉鎖等,0,2023-12-06,2023-12-01,松旺株式会社,,株式会社,山梨県,南都留郡山中湖村,山中１９５番地,,19,425,4010501,,,2023-12-01,合併による解散等,7011201011126,令和５年１２月１日山梨県南都留郡山中湖村山中１９５番地松園株式会社（7011201011126）に合併し解散,2015-10-05,1,,,,,マツオウ,0
622,3011301015088,登記記録の閉鎖等,0,2023-12-06,2023-11-28,株式会社アルファベット・ムーン,,株式会社,東京都,杉並区,桃井４丁目１３番３号,,13,115,1670034,,,2023-11-28,清算の結了等,,,2015-10-05,1,,,,,アルファベットムーン,0
625,3011601003008,登記記録の閉鎖等,0,2023-12-06,2023-11-30,伸晃工業株式会社,,株式会社,東京都,練馬区,練馬３丁目１１番２３号,,13,120,1760001,,,2023-11-30,清算の結了等,,,2015-10-05,1,,,,,シンコウコウギョウ,0
645,3020001043811,登記記録の閉鎖等,0,2023-12-06,2023-12-01,株式会社ベイホンスタッフ,,株式会社,神奈川県,横浜市神奈川区,鶴屋町３丁目３５番地１１ストーク横浜二番館５０１,,14,102,2210835,,,2023-12-01,合併による解散等,3020001115940,令和５年１１月３０日横浜市神奈川区鶴屋町三丁目３５番地１１ストーク横浜二番館５Ｆ株式会社オフィスエム（3020001115940）に合併し解散,2015-10-05,1,,,,,ベイホンスタッフ,0
663,3021001052397,登記記録の閉鎖等,0,2023-12-06,2023-12-01,株式会社海老名企画,,株式会社,神奈川県,横浜市保土ケ谷区,岩間町１丁目７番地５,,14,106,2400004,,,2023-12-01,清算の結了等,,,2015-10-05,1,,,,,エビナキカク,0
689,3050003005385,登記記録の閉鎖等,0,2023-12-06,2023-11-28,合同会社宮内工業所,,合同会社,茨城県,ひたちなか市,大平３丁目１６－５,,08,221,3120023,,,2023-11-28,清算の結了等,,,2020-09-14,1,,,,,ミヤウチコウギョウショ,0
697,3070001037008,登記記録の閉鎖等,0,2023-12-06,2023-12-01,株式会社フューチャープランニング,,株式会社,群馬県,伊勢崎市,宮子町３４１０番地４,,10,204,3720801,,,2023-12-01,清算の結了等,,,2020-07-09,1,,,,,,0
702,3080102000689,登記記録の閉鎖等,0,2023-12-06,2023-12-05,有限会社大島総業,,有限会社,静岡県,沼津市,大岡上石田２９７５番地の１,,22,203,4100022,,,2023-12-05,清算の結了等,,,2015-10-05,1,,,,,オオシマソウギョウ,0
703,3080102020027,登記記録の閉鎖等,0,2023-12-06,2023-12-04,有限会社生栄網,,有限会社,静岡県,伊東市,宇佐美２９番地の２,,22,208,4140001,,,2023-12-04,清算の結了等,,,2015-10-05,1,,,,,セイエイアミ,0
727,3120901001767,登記記録の閉鎖等,0,2023-12-06,2023-12-04,株式会社ビジネスサポート,,株式会社,大阪府,茨木市,寺田町２１番３２号ＢＳビル１Ｆ,,27,211,5670823,,,2023-12-04,清算の結了等,,,2015-10-05,1,,,,,ビジネスサポート,0
732,3122001029516,登記記録の閉鎖等,0,2023-12-06,2023-12-05,株式会社アンドエム,,株式会社,大阪府,東大阪市,西堤西１番１１－２０２号,,27,227,5770048,,,2023-12-05,清算の結了等,,,2016-04-21,1,,,,,アンドエム,0
746,3140001046868,登記記録の閉鎖等,0,2023-12-06,2023-12-01,株式会社西本佛壇店,,株式会社,兵庫県,朝来市,和田山町平野９１番地１,,28,225,6695211,,,2023-12-01,清算の結了等,,,2015-10-05,1,,,,,ニシモトブツダンテン,0
748,3140001104254,登記記録の閉鎖等,0,2023-12-06,2023-12-01,株式会社アイティ,,株式会社,兵庫県,西宮市,池開町３番２０号,,28,204,6638137,,,2023-12-01,合併による解散等,2140001112885,令和５年１２月１日兵庫県芦屋市大桝町１番１８号Ｉ＆Ｈ株式会社（2140001112885）に合併し解散,2016-12-08,1,,,,,アイティ,0
756,3160002010615,登記記録の閉鎖等,0,2023-12-06,2023-12-04,有限会社滋賀木造住宅協会,,有限会社,滋賀県,近江八幡市,出町４１３番地の１８,,25,204,5230892,,,2023-12-04,清算の結了等,,,2015-10-05,1,,,,,シガモクゾウジュウタクキョウカイ,0
763,3180001116345,登記記録の閉鎖等,0,2023-12-06,2023-12-04,株式会社ピースエイト,,株式会社,愛知県,名古屋市中区,橘１丁目２４番地２,,23,106,4600016,,,2023-12-04,清算の結了等,,,2015-10-05,1,,,,,,0
772,3180005018546,登記記録の閉鎖等,0,2023-12-06,2023-11-29,一般社団法人サブリースオーナー会,,その他の設立登記法人,愛知県,名古屋市中村区,日吉町３０番地の３ＩＭＫビル２０２,,23,105,4530029,,,2023-11-29,清算の結了等,,,2019-11-27,1,,,,,サブリースオーナーカイ,0
776,3190002017979,登記記録の閉鎖等,0,2023-12-06,2023-12-04,有限会社コレザワ縫製所,,有限会社,三重県,いなべ市,大安町丹生川久下１８１４番地の２,,24,214,5110263,,,2023-12-04,清算の結了等,,,2015-10-05,1,,,,,コレザワホウセイショ,0
777,3200001005181,登記記録の閉鎖等,0,2023-12-06,2023-12-04,丸和梱包株式会社,,株式会社,岐阜県,岐阜市,今嶺４丁目２３番３２号,,21,201,5008388,,,2023-12-04,清算の結了等,,,2015-10-05,1,,,,,マルワコンポウ,0
827,3490002008246,登記記録の閉鎖等,0,2023-12-06,2023-11-24,有限会社市川石油,,有限会社,高知県,幡多郡三原村,大字宮ノ川１２７１番地９０,,39,427,7870802,,,2023-11-24,清算の結了等,,,2015-10-05,1,,,,,イチカワセキユ,0
835,3700150122479,削除,,2023-12-06,,,,,,,,,,,,,,,,,,,,,,,,,
850,4010003034404,登記記録の閉鎖等,0,2023-12-06,2023-12-01,合同会社Ｆｒｏｎｔ　Ｄｏｏｒ,,合同会社,東京都,中央区,東日本橋２丁目４－１０クレストラフィーネ東日本橋７０１,,13,102,1030004,,,2023-12-01,清算の結了等,,,2021-03-11,1,,,,,フロントドア,0
860,4010603005069,登記記録の閉鎖等,0,2023-12-06,2023-12-01,合同会社風仁舎,,合同会社,福島県,白河市,萱根根田２１番地,,07,205,9610004,,,2023-12-01,合併による解散等,1011803001414,令和５年１２月１日福島県白河市萱根根田２１番地合同会社三公（1011803001414）に合併し解散,2015-10-05,1,,,,,フウジンシャ,0
886,4011302000377,登記記録の閉鎖等,0,2023-12-06,2023-12-04,有限会社秋山数学研究所,,有限会社,東京都,新宿区,新小川町９番１０－６０４号,,13,104,1620814,,,2023-12-04,清算の結了等,,,2015-10-05,1,,,,,アキヤマスウガクケンキュウショ,0
889,4011401019896,登記記録の閉鎖等,0,2023-12-06,2023-12-01,株式会社リテールマーケティングワン,,株式会社,東京都,港区,六本木３丁目２番１号,,13,103,1060032,,,2023-12-01,合併による解散等,9010001174206,令和５年１２月１日東京都港区六本木三丁目２番１号ウイングアーク１ｓｔ株式会社（9010001174206）に合併し解散,2016-12-12,1,,,,,リテールマーケティングワン,0
903,4013202007543,登記記録の閉鎖等,0,2023-12-06,2023-12-04,有限会社卯美,,有限会社,東京都,目黒区,下目黒１丁目５番７号,,13,110,1530064,,,2023-12-04,清算の結了等,,,2015-10-05,1,,,,,ウミ,0
905,4013301034133,登記記録の閉鎖等,0,2023-12-06,2023-12-04,株式会社トヨタファシリティーサービス,,株式会社,東京都,豊島区,南池袋３丁目１８－４３内山ビル２階,,13,116,1710022,,,2023-12-04,合併による解散等,9011101072159,令和５年１２月１日東京都新宿区新宿六丁目２９番８号ジャパンエレベーターサービス城西株式会社（9011101072159）に合併し解散,2015-10-05,1,,,,,トヨタファシリティーサービス,0
907,4013303004209,登記記録の閉鎖等,0,2023-12-06,2023-11-30,ニュージーランド・ソーラーファーム合同会社,,合同会社,東京都,豊島区,巣鴨３丁目１－１－３０２,,13,116,1700002,,,2023-11-30,合併による解散等,1013301025192,令和５年１１月３０日東京都豊島区巣鴨３－１－１－３０２株式会社ＣＹＢＥＲ　ＴＲＡＦＦＩＣ（1013301025192）に合併し解散,2018-06-14,1,,,,,ニュージーランドソーラーファーム,0
908,4013303005784,登記記録の閉鎖等,0,2023-12-06,2023-11-29,ＳＵＮＮＹＥＭＡ合同会社,,合同会社,東京都,豊島区,目白５丁目６－１リビオ目白グレイスヒルズ６０１,,13,116,1710031,,,2023-11-29,清算の結了等,,,2021-08-16,1,,,,,サニーエマ,0
918,4021001025484,登記記録の閉鎖等,0,2023-12-06,2023-12-01,大深株式会社,,株式会社,神奈川県,大和市,深見台３丁目２番１５号,,14,213,2420013,,,2023-12-01,合併による解散等,3021001025824,令和５年１２月１日神奈川県大和市深見台三丁目２番１５号フカミ株式会社（3021001025824）に合併し解散,2015-10-05,1,,,,,ダイシン,0
920,4021001047066,登記記録の閉鎖等,0,2023-12-06,2023-11-30,株式会社ＴＨ京都,,株式会社,京都府,京都市西京区,大原野上里鳥見町８番地の１４,,26,111,6101127,,,2023-11-30,清算の結了等,,,2015-10-05,1,,,,,ティーエイチキョウト,0
921,4021001056208,登記記録の閉鎖等,0,2023-12-06,2023-12-01,株式会社Ｓｈｕｎｅ３６５,,株式会社,神奈川県,秦野市,平沢１８３番地の１０,,14,211,2570015,,,2023-12-01,合併による解散等,1021002038067,令和５年１２月１日神奈川県秦野市曽屋５１８番地株式会社秦和（1021002038067）に合併し解散,2015-10-05,1,,,,,シュンサンロクゴ,0
930,4030001021022,登記記録の閉鎖等,0,2023-12-06,2023-12-01,株式会社サニータイヤ商事,,株式会社,埼玉県,蕨市,錦町３丁目５番３３号,,11,223,3350005,,,2023-12-01,清算の結了等,,,2015-10-05,1,,,,,サニータイヤショウジ,0
932,4030001026260,登記記録の閉鎖等,0,2023-12-06,2023-11-30,株式会社恒信,,株式会社,埼玉県,狭山市,狭山台４丁目１９番地の１０,,11,215,3501304,,,2023-11-30,清算の結了等,,,2015-10-05,1,,,,,コウシン,0
941,4030002001064,登記記録の閉鎖等,0,2023-12-06,2023-11-30,有限会社磯田電気工事,,有限会社,埼玉県,さいたま市桜区,町谷３丁目２６番１９号,,11,106,3380836,,,2023-11-30,清算の結了等,,,2015-10-05,1,,,,,イソダデンキコウジ,0
950,4040001105716,登記記録の閉鎖等,0,2023-12-06,2023-11-30,株式会社大木畜産,,株式会社,千葉県,匝瑳市,堀川５２２７番地,,12,235,2893185,,,2023-11-30,清算の結了等,,,2018-08-07,1,,,,,オオキチクサン,0
963,4090002011363,登記記録の閉鎖等,0,2023-12-06,2023-12-05,有限会社アースピュア,,有限会社,山梨県,山梨市,上神内川１１６２番地６,,19,205,4050018,,,2023-12-05,清算の結了等,,,2015-10-05,1,,,,,アースピュア,0
970,4120001006303,登記記録の閉鎖等,0,2023-12-06,2023-12-04,株式会社フルタ,,株式会社,大阪府,大阪市阿倍野区,播磨町１丁目２１番７号,,27,119,5450022,,,2023-12-04,清算の結了等,,,2015-10-05,1,,,,,フルタ,0
972,4120001033561,登記記録の閉鎖等,0,2023-12-06,2023-11-30,ＰＤＭ株式会社,,株式会社,大阪府,大阪市阿倍野区,播磨町１丁目８番２２－１５０３号,,27,119,5450022,,,2023-11-30,清算の結了等,,,2015-10-05,1,,,,,ピーディーエム,0
973,4120001034907,登記記録の閉鎖等,0,2023-12-06,2023-12-04,株式会社光洋商会,,株式会社,大阪府,大阪市福島区,海老江７丁目１番２４号,,27,103,5530001,,,2023-12-04,清算の結了等,,,2015-10-05,1,,,,,コウヨウショウカイ,0
974,4120001156899,登記記録の閉鎖等,0,2023-12-06,2023-12-01,株式会社山元鈑金工作所,,株式会社,大阪府,守口市,浜町２丁目１番２０号,,27,209,5700093,,,2023-12-01,清算の結了等,,,2015-10-05,1,,,,,ヤマモトバンキンコウサクショ,0
986,4120002042677,登記記録の閉鎖等,0,2023-12-06,2023-12-04,有限会社アジャスト,,有限会社,大阪府,大阪市中央区,玉造１丁目１４番２号,,27,128,5400004,,,2023-12-04,清算の結了等,,,2015-10-05,1,,,,,アジャスト,0
1008,4140001041273,登記記録の閉鎖等,0,2023-12-06,2023-11-30,平井土木株式会社,,株式会社,兵庫県,丹波市,氷上町市辺４５０番地の１,,28,223,6693461,,,2023-11-30,清算の結了等,,,2015-10-05,1,,,,,ヒライドボク,0
1027,4180301004190,登記記録の閉鎖等,0,2023-12-06,2023-12-01,株式会社日正精機,,株式会社,愛知県,岡崎市,竜美西２丁目６番地７,,23,202,4440875,,,2023-12-01,清算の結了等,,,2015-10-05,1,,,,,ニッショウセイキ,0
1031,4200001009520,登記記録の閉鎖等,0,2023-12-06,2023-12-05,バリューアップホーム株式会社,,株式会社,岐阜県,岐阜市,茜部野瀬１丁目２１番地１,,21,201,5008283,,,2023-12-05,清算の結了等,,,2015-10-05,1,,,,,バリューアップホーム,0
1038,4220002011119,登記記録の閉鎖等,0,2023-12-06,2023-12-04,フクムラメディコン有限会社,,有限会社,石川県,小松市,土居原町７８０番地,,17,203,9230921,,,2023-12-04,清算の結了等,,,2015-10-05,1,,,,,フクムラメディコン,0
1058,4280002008423,登記記録の閉鎖等,0,2023-12-06,2023-12-04,有限会社重元商店,,有限会社,島根県,浜田市,朝日町７９番地２,,32,202,6970033,,,2023-12-04,清算の結了等,,,2015-10-05,1,,,,,シゲモトショウテン,0
1071,4290801023068,登記記録の閉鎖等,0,2023-12-06,2023-12-05,株式会社ＡＱＵＡ　ＣＯＭＰＡＮＹ,,株式会社,福岡県,北九州市小倉北区,上富野２丁目１３番２４－５０２号,,40,106,8020022,,,2023-12-05,清算の結了等,,,2016-11-29,1,,,,,アクアカンパニー,0
1074,4290802002789,登記記録の閉鎖等,0,2023-12-06,2023-12-04,有限会社ヒロ総合企画,,有限会社,福岡県,北九州市小倉南区,田原３丁目１１番２２号,,40,107,8000225,,,2023-12-04,清算の結了等,,,2015-10-05,1,,,,,ヒロソウゴウキカク,0
1076,4300002009212,登記記録の閉鎖等,0,2023-12-06,2023-11-30,有限会社古沢自動車ガラス,,有限会社,佐賀県,鳥栖市,村田町７１４番地,,41,203,8410072,,,2023-11-30,清算の結了等,,,2015-10-05,1,,,,,フルサワジドウシャガラス,0
1088,4350002004803,登記記録の閉鎖等,0,2023-12-06,2023-11-27,有限会社宮崎日新計算事務センター,00100728,有限会社,宮崎県,宮崎市,大字大瀬町９５７番地５,,45,201,8800045,,,2023-11-27,清算の結了等,,,2015-10-05,1,,,,,ミヤザキニッシンケイサンジムセンター,0
1089,4360001007888,登記記録の閉鎖等,0,2023-12-06,2023-12-01,株式会社アクセス,,株式会社,愛知県,豊橋市,東脇４丁目２３番地３６,,23,201,4418083,,,2023-12-01,清算の結了等,,,2015-10-05,1,,,,,アクセス,0
1091,4360002014578,登記記録の閉鎖等,0,2023-12-06,2023-11-30,有限会社石川工業所,,有限会社,沖縄県,宜野湾市,大山２丁目１７番１１号,,47,205,9012223,,,2023-11-30,清算の結了等,,,2015-10-05,1,,,,,イシカワコウギョウショ,0
1096,4380001015690,登記記録の閉鎖等,0,2023-12-06,2023-11-30,株式会社メディア,,株式会社,福島県,南相馬市,原町区桜井町１丁目２７５番地,,07,212,9750032,,,2023-11-30,清算の結了等,,,2015-10-05,1,,,,,メディア,0
1100,4380001020071,登記記録の閉鎖等,0,2023-12-06,2023-12-01,株式会社ゴー,,株式会社,福島県,会津若松市,慶山１丁目６番７７号,,07,202,9650812,,,2023-12-01,合併による解散等,2380001018233,令和５年１２月１日福島県会津若松市慶山一丁目６番７７号株式会社顯幸（2380001018233）に合併し解散,2015-10-05,1,,,,,ゴー,0
1106,4390002000121,登記記録の閉鎖等,0,2023-12-06,2023-11-30,有限会社安達ブレイス製作所,,有限会社,山形県,山形市,江俣３丁目１５番１号,,06,201,9900861,,,2023-11-30,清算の結了等,,,2015-10-05,1,,,,,アダチブレイスセイサクジョ,0
1128,4500002011503,登記記録の閉鎖等,0,2023-12-06,2023-12-04,有限会社旭建設,,有限会社,愛媛県,大洲市,北只６８８番地,,38,207,7950001,,,2023-12-04,清算の結了等,,,2015-10-05,1,,,,,アサヒケンセツ,0
1131,4700150043914,登記記録の閉鎖等,0,2023-12-06,2023-08-29,豊田平戸橋土地区画整理組合,,その他,愛知県,豊田市,平戸橋町波岩８２番地,,23,211,4700331,,,2023-08-29,その他の清算の結了等,,,2015-10-09,1,,,,,トヨタヒラトバシトチクカクセイリクミアイ,0
1138,5010001036822,登記記録の閉鎖等,0,2023-12-06,2023-12-01,一心運輸梱包株式会社,,株式会社,東京都,江東区,東陽５丁目８番４号,,13,108,1350016,,,2023-12-01,清算の結了等,,,2015-10-05,1,,,,,イッシンウンユコンポウ,0
1140,5010001068873,登記記録の閉鎖等,0,2023-12-06,2023-12-01,ムーヴィングシステム株式会社,,株式会社,東京都,中央区,日本橋大伝馬町１２番９号,,13,102,1030011,,,2023-12-01,清算の結了等,,,2015-10-05,1,,,,,ムーヴィングシステム,0
1148,5010005032867,登記記録の閉鎖等,0,2023-12-06,2023-12-01,一般社団法人もみぢ,,その他の設立登記法人,東京都,中央区,日本橋１丁目４番１号,,13,102,1030027,,,2023-12-01,清算の結了等,,,2021-01-28,1,,,,,モミヂ,0
1158,5010401151097,登記記録の閉鎖等,0,2023-12-06,2023-12-01,株式会社梅窓サービス,,株式会社,東京都,港区,南青山２丁目２６番１０号,,13,103,1070062,,,2023-12-01,清算の結了等,,,2020-02-13,1,,,,,バイソウサービス,0
1168,5010803003284,登記記録の閉鎖等,0,2023-12-06,2023-12-01,ＰＡＴＳ建設準備合同会社,,合同会社,東京都,大田区,蒲田３丁目１９番４号,,13,111,1440052,,,2023-12-01,清算の結了等,,,2020-03-02,1,,,,,パッツケンセツジュンビ,0
1173,5011001057940,登記記録の閉鎖等,0,2023-12-06,2023-11-30,株式会社ＢＳＭＯ,,株式会社,東京都,港区,虎ノ門１丁目１７番１号,,13,103,1050001,,,2023-11-30,合併による解散等,3021001059376,令和５年１１月３０日東京都港区虎ノ門一丁目１７番１号株式会社ＡＮＷ（3021001059376）に合併し解散,2015-10-05,1,,,,,ビスモ,0
1189,5011105010028,登記記録の閉鎖等,0,2023-12-06,2023-12-04,一般社団法人ユニタウン,,その他の設立登記法人,東京都,新宿区,新宿１丁目１２番１５号サンサーラ第四御苑５０４,,13,104,1600022,,,2023-12-04,清算の結了等,,,2021-10-27,1,,,,,ユニタウン,0
1199,5011801032721,登記記録の閉鎖等,0,2023-12-06,2023-12-01,株式会社ゴールド文化交流企画,,株式会社,東京都,葛飾区,西新小岩３丁目５番１号,,13,122,1240025,,,2023-12-01,合併による解散等,3011801002610,令和５年１２月１日東京都葛飾区西新小岩三丁目５番１号大成ホールディングス株式会社（3011801002610）に合併し解散,2017-01-06,1,,,,,ゴールドブンカコウリュウキカク,0
1218,5013303004579,登記記録の閉鎖等,0,2023-12-06,2023-11-27,合同会社ＴＡＴＳＵＫＩ,,合同会社,東京都,豊島区,東池袋４丁目２１番１－５００９号,,13,116,1700013,,,2023-11-27,清算の結了等,,,2019-04-04,1,,,,,タツキ,0
1227,5020002071594,登記記録の閉鎖等,0,2023-12-06,2023-12-01,有限会社ＰＲＮ,,有限会社,神奈川県,横浜市緑区,上山３丁目２６番６号,,14,113,2260012,,,2023-12-01,清算の結了等,,,2015-10-05,1,,,,,ピーアールエヌ,0
1237,5021001022786,登記記録の閉鎖等,0,2023-12-06,2023-12-01,富士興業株式会社,,株式会社,神奈川県,秦野市,堀西９４番地,,14,211,2591331,,,2023-12-01,清算の結了等,,,2015-10-05,1,,,,,フジコウギョウ,0
1254,5030002045770,登記記録の閉鎖等,0,2023-12-06,2023-11-30,有限会社マスコ電機製作所,,有限会社,埼玉県,草加市,高砂１丁目６番２８－７０９号,,11,221,3400015,,,2023-11-30,清算の結了等,,,2015-10-05,1,,,,,マスコデンキセイサクショ,0
1272,5070002006298,登記記録の閉鎖等,0,2023-12-06,2023-12-01,有限会社セイブエンタープライズ,,有限会社,群馬県,前橋市,北代田町５２９番地１,,10,201,3710055,,,2023-12-01,清算の結了等,,,2015-10-05,1,,,,,,0
1276,5070002013971,登記記録の閉鎖等,0,2023-12-06,2023-12-01,有限会社冨士見屋商店,,有限会社,群馬県,高崎市,金古町２６８番地の１,,10,202,3703511,,,2023-12-01,清算の結了等,,,2023-05-29,1,,,,,,0
1283,5080402017076,登記記録の閉鎖等,0,2023-12-06,2023-12-04,有限会社山下設計,,有限会社,静岡県,浜松市東区,上新屋町１６６番地,,22,132,4350053,,,2023-12-04,清算の結了等,,,2015-10-05,1,,,,,ヤマシタセッケイ,0
1288,5110002010626,登記記録の閉鎖等,0,2023-12-06,2023-12-04,有限会社健幸,,有限会社,新潟県,新潟市東区,紫竹６丁目２４番２７号１,,15,102,9500864,,,2023-12-04,清算の結了等,,,2015-10-05,1,,,,,ケンコウ,0
1291,5120001032323,登記記録の閉鎖等,0,2023-12-06,2023-12-01,株式会社おおさか産直友の会,,株式会社,大阪府,大阪市東住吉区,公園南矢田２丁目８番１６号,,27,121,5460024,,,2023-12-01,清算の結了等,,,2015-10-05,1,,,,,オオサカサンチョクトモノカイ,0
1292,5120001096442,登記記録の閉鎖等,0,2023-12-06,2023-12-01,株式会社　ユーテック,,株式会社,大阪府,大阪市大正区,千島３丁目１２番７号,,27,108,5510003,,,2023-12-01,清算の結了等,,,2015-10-05,1,,,,,ユーテック,0
1293,5120001190071,登記記録の閉鎖等,0,2023-12-06,2023-12-01,株式会社ジー・ユー・ティ・エスプロモーション,,株式会社,大阪府,大阪市北区,天神橋２丁目５番３号,,27,127,5300041,,,2023-12-01,清算の結了等,,,2015-10-05,1,,,,,,0
1295,5120001239422,登記記録の閉鎖等,0,2023-12-06,2023-12-01,株式会社Ｆｏｎｔａｎｉｑｕｅ,,株式会社,大阪府,大阪市西淀川区,姫島２丁目３番２号リヴィエール姫島１０１号,,27,113,5550033,,,2023-12-01,清算の結了等,,,2021-08-02,1,,,,,フォンテニーク,0
1307,5122001022849,登記記録の閉鎖等,0,2023-12-06,2023-11-30,株式会社オフィスきたがわ,,株式会社,大阪府,八尾市,久宝寺３丁目２番１５号,,27,212,5810072,,,2023-11-30,清算の結了等,,,2015-10-05,1,,,,,オフィスキタガワ,0
1309,5130001014064,登記記録の閉鎖等,0,2023-12-06,2023-12-01,株式会社岡野樹脂,,株式会社,大阪府,枚方市,招提元町１丁目４３番５－１０６号,,27,210,5731133,,,2023-12-01,清算の結了等,,,2015-10-05,1,,,,,オカノジュシ,0
1310,5130001061255,登記記録の閉鎖等,0,2023-12-06,2023-12-04,株式会社池島,,株式会社,京都府,京都市中京区,壬生西土居ノ内町１９番地ボイスビル１階タピキング,,26,104,6048847,,,2023-12-04,清算の結了等,,,2018-01-05,1,,,,,イケジマ,0
1320,5160001003584,登記記録の閉鎖等,0,2023-12-06,2023-12-04,株式会社ジェステクノ,,株式会社,滋賀県,大津市,坂本８丁目１５番８号,,25,201,5200113,,,2023-12-04,清算の結了等,,,2015-10-05,1,,,,,ジェステクノ,0
1323,5160002008673,登記記録の閉鎖等,0,2023-12-06,2023-12-04,有限会社森永牛乳タニグチ販売店,,有限会社,滋賀県,彦根市,城町２丁目１番３２号,,25,202,5220068,,,2023-12-04,清算の結了等,,,2015-10-05,1,,,,,モリナガギュウニュウタニグチハンバイテン,0
1324,5160002015067,削除,,2023-12-06,,,,,,,,,,,,,,,,,,,,,,,,,
1356,5240002043398,登記記録の閉鎖等,0,2023-12-06,2023-11-29,有限会社メーベルシブヤ,,有限会社,広島県,福山市,今津町５丁目１５番１４号,,34,207,7290111,,,2023-11-29,清算の結了等,,,2015-10-05,1,,,,,メーベルシブヤ,0
1359,5250002002626,登記記録の閉鎖等,0,2023-12-06,2023-12-05,有限会社ケイ・アンド・アール,,有限会社,山口県,山口市,小郡山手上町２３番１０号,,35,203,7540005,,,2023-12-05,清算の結了等,,,2015-10-05,1,,,,,ケイアンドアール,0
1362,5260003003382,登記記録の閉鎖等,0,2023-12-06,2023-12-04,Ａ＆Ｓ合同会社,,合同会社,岡山県,倉敷市,上富井４０番地７,,33,202,7100846,,,2023-12-04,清算の結了等,,,2020-12-02,1,,,,,エーアンドエス,0
1387,5350001010735,登記記録の閉鎖等,0,2023-12-06,2023-12-01,株式会社ノーカツ,,株式会社,宮崎県,西諸県郡高原町,大字広原４８７６番地３８,,45,361,8894411,,,2023-12-01,清算の結了等,,,2015-10-05,1,,,,,ノーカツ,0
1393,5360002015179,登記記録の閉鎖等,0,2023-12-06,2023-11-30,有限会社琉新,,有限会社,沖縄県,中頭郡北谷町,北前１丁目１９番地９,,47,326,9040117,,,2023-11-30,清算の結了等,,,2015-10-05,1,,,,,リュウシン,0
1407,5420005007670,登記記録の閉鎖等,0,2023-12-06,2023-12-01,特定非営利活動法人青森県空道協会,,その他の設立登記法人,青森県,上北郡おいらせ町,青葉２丁目５０番地２１７１,,02,412,0392189,,,2023-12-01,清算の結了等,,,2020-01-24,1,,,,,アオモリケンクウドウキョウカイ,0
1413,5480002000037,登記記録の閉鎖等,0,2023-12-06,2023-12-05,井内商事有限会社,,有限会社,徳島県,徳島市,南末広町２番１４号,,36,201,7700865,,,2023-12-05,清算の結了等,,,2015-10-05,1,,,,,イウチショウジ,0
1418,5700150046651,登記記録の閉鎖等,0,2023-12-06,2018-12-03,三重県建設業厚生年金基金,,その他,三重県,津市,桜橋２丁目１７７－２,,24,201,5140003,,,2018-12-03,その他の清算の結了等,,,2015-10-09,1,,,,,ミエケンケンセツギヨウコウセイネンキンキキン,0
1419,5700150106281,登記記録の閉鎖等,0,2023-12-06,2023-08-30,わくわくミュージカルＷｅ,,その他,千葉県,市川市,相之川３丁目９－１８南行徳ヴェルデ２０９,,12,203,2720143,,,2023-08-30,その他の清算の結了等,,,2021-12-15,1,,,,,ワクワクミユージカルウイー,0
1420,5700150108947,登記記録の閉鎖等,0,2023-12-06,2023-04-04,今野雄二相続財産管理人前田大輔,,その他,宮城県,仙台市青葉区,大町１丁目２番１号ライオンビル５階,,04,101,9800804,,,2023-04-04,その他の清算の結了等,,,2022-05-24,1,,,,,コンノユウジソウゾクザイサンカンリニンマエダダイスケ,0
1421,5700150110465,削除,,2023-12-06,,,,,,,,,,,,,,,,,,,,,,,,,
1431,6010001131291,登記記録の閉鎖等,0,2023-12-06,2023-11-30,大和運輸工業株式会社,,株式会社,東京都,八丈島八丈町,大賀郷７６８０番地,,13,401,1001401,,,2023-11-30,清算の結了等,,,2015-10-05,1,,,,,ダイワウンユコウギョウ,0
1433,6010001194727,登記記録の閉鎖等,0,2023-12-06,2023-11-30,ＯｉＤＥ　ＢｅｔａＲｅｖｉｖｅ株式会社,,株式会社,群馬県,邑楽郡千代田町,大字赤岩字くらかけ２７１６－１,,10,523,3700503,,,2023-11-30,清算の結了等,,,2018-09-10,1,,,,,オイデベータリバイブ,0
1437,6010001218510,登記記録の閉鎖等,0,2023-12-06,2023-12-01,株式会社シラボ,,株式会社,東京都,中央区,東日本橋２丁目２８番４号日本橋ＣＥＴビル２階,,13,102,1030004,,,2023-12-01,清算の結了等,,,2021-06-04,1,,,,,シラボ,0
1460,6010502001308,登記記録の閉鎖等,0,2023-12-06,2023-12-01,有限会社上野コンタクトレンズ,,有限会社,東京都,台東区,東上野３丁目１５－１４ウエノエストビル６ＦＡ室,,13,106,1100015,,,2023-12-01,清算の結了等,,,2015-10-05,1,,,,,ウエノコンタクトレンズ,0
1470,6010901050434,登記記録の閉鎖等,0,2023-12-06,2023-11-30,株式会社リノ,,株式会社,東京都,世田谷区,上馬２丁目１９番１号,,13,112,1540011,,,2023-11-30,清算の結了等,,,2022-02-28,1,,,,,リノ,0
1477,6011003010970,登記記録の閉鎖等,0,2023-12-06,2023-12-04,合同会社ＡＩ,,合同会社,東京都,渋谷区,代官山町８－７Ｄａｉｗａ代官山ビル１階,,13,113,1500034,,,2023-12-04,清算の結了等,,,2020-03-18,1,,,,,エーアイ,0
1495,6011203002264,登記記録の閉鎖等,0,2023-12-06,2023-12-04,合同会社華熙商事,,合同会社,東京都,中野区,野方６丁目２３番３号,,13,114,1650027,,,2023-12-04,清算の結了等,,,2015-12-09,1,,,,,カキショウジ,0
1517,6012402023282,登記記録の閉鎖等,0,2023-12-06,2023-12-01,株式会社セーリング,,株式会社,東京都,府中市,押立町１丁目３５番地の７１,,13,206,1830012,,,2023-12-01,合併による解散等,3012401005078,令和５年１２月１日東京都府中市押立町一丁目３５番地の７１株式会社大宇工業（3012401005078）に合併し解散,2015-10-05,1,,,,,セーリング,0
1523,6013301000240,登記記録の閉鎖等,0,2023-12-06,2023-11-29,株式会社アイ・メディアム,,株式会社,東京都,豊島区,南池袋４丁目１３番１号,,13,116,1710022,,,2023-11-29,清算の結了等,,,2015-10-05,1,,,,,アイメディアム,0
1526,6013301038280,登記記録の閉鎖等,0,2023-12-06,2023-11-30,株式会社データオフィスミー,,株式会社,東京都,豊島区,駒込６丁目２９番１５号,,13,116,1700003,,,2023-11-30,清算の結了等,,,2016-02-04,1,,,,,データオフィスミー,0
1531,6020001100980,登記記録の閉鎖等,0,2023-12-06,2023-12-01,株式会社戸塚,,株式会社,神奈川県,横浜市戸塚区,名瀬町５２番地１,,14,110,2450051,,,2023-12-01,清算の結了等,,,2015-10-05,1,,,,,トツカ,0
1545,6021002034359,登記記録の閉鎖等,0,2023-12-06,2023-12-04,有限会社水島工業,,有限会社,神奈川県,愛甲郡愛川町,中津３４７６番地の１０,,14,401,2430303,,,2023-12-04,清算の結了等,,,2015-10-05,1,,,,,,0
1546,6021005010084,登記記録の閉鎖等,0,2023-12-06,2023-12-05,一般社団法人５９の世界記録,,その他の設立登記法人,岐阜県,岐阜市,長良友瀬３番地の２ＶｉｌｌａＦｏｒｅｓｔａ３０６号室,,21,201,5020076,,,2023-12-05,清算の結了等,,,2015-10-05,1,,,,,ゴジュウキュウノセカイキロク,0
1552,6030002047931,登記記録の閉鎖等,0,2023-12-06,2023-12-01,有限会社ミノル電機商会,,有限会社,埼玉県,八潮市,大字八條１６１０番地９,,11,234,3400801,,,2023-12-01,清算の結了等,,,2015-10-05,1,,,,,ミノルデンキショウカイ,0
1568,6050001037295,登記記録の閉鎖等,0,2023-12-06,2023-11-30,がんばれ東海株式会社,,株式会社,茨城県,日立市,大みか町１丁目３４番２４号,,08,202,3191221,,,2023-11-30,清算の結了等,,,2015-10-05,1,,,,,ガンバレトウカイ,0
1572,6060003001629,登記記録の閉鎖等,0,2023-12-06,2023-12-01,合同会社福松,,合同会社,栃木県,那須郡那須町,大字富岡４７４番地４０４,,09,407,3293212,,,2023-12-01,清算の結了等,,,2015-10-05,1,,,,,フクマツ,0
1582,6080002014043,登記記録の閉鎖等,0,2023-12-06,2023-12-04,有限会社小澤鐵工所,,有限会社,静岡県,島田市,金谷泉町３０５１番地,,22,209,4280014,,,2023-12-04,清算の結了等,,,2015-10-05,1,,,,,オザワテッコウショ,0
1605,6120101065783,登記記録の閉鎖等,0,2023-12-06,2023-12-05,株式会社ＨＩＮ,,株式会社,大阪府,貝塚市,近木町２３番３号,,27,208,5970001,,,2023-12-05,清算の結了等,,,2022-06-22,1,,,,,エイチアイエヌ,0
1609,6122001012320,登記記録の閉鎖等,0,2023-12-06,2023-12-04,株式会社ライトロッキー,,株式会社,大阪府,東大阪市,柏田西１丁目１１番１２号,,27,227,5770835,,,2023-12-04,清算の結了等,,,2015-10-05,1,,,,,ライトロッキー,0
1620,6140001026181,登記記録の閉鎖等,0,2023-12-06,2023-12-04,株式会社ヘルプ・ジャパン,,株式会社,兵庫県,神戸市西区,狩場台１丁目３０番地の４,,28,111,6512272,,,2023-12-04,清算の結了等,,,2015-10-05,1,,,,,ヘルプジャパン,0
1622,6140001047871,登記記録の閉鎖等,0,2023-12-06,2023-11-30,株式会社エクシングスカイテツク,,株式会社,兵庫県,尼崎市,神崎町１２番３９号,,28,202,6610964,,,2023-11-30,清算の結了等,,,2015-10-05,1,,,,,エクシングスカイテツク,0
1646,6180002083193,登記記録の閉鎖等,0,2023-12-06,2023-11-30,有限会社エヌアールエス,,有限会社,愛知県,半田市,平地町３丁目４２番地,,23,205,4750081,,,2023-11-30,清算の結了等,,,2015-10-05,1,,,,,エヌアールエス,0
1650,6180301007687,登記記録の閉鎖等,0,2023-12-06,2023-11-30,協栄エンタープライズ株式会社,,株式会社,愛知県,豊橋市,前田南町２丁目２１番地の７ダイアパレス向山緑地５０１号室,,23,201,4400851,,,2023-11-30,清算の結了等,,,2015-10-05,1,,,,,キョウエイエンタープライズ,0
1655,6190001027299,登記記録の閉鎖等,0,2023-12-06,2023-12-04,株式会社Ａｒｕ　Ｎｅｔｗｏｒｋｓ,,株式会社,三重県,松阪市,垣鼻町１０８５番地１,,24,204,5150033,,,2023-12-04,清算の結了等,,,2020-04-16,1,,,,,アルネットワークス,0
1657,6210002002620,登記記録の閉鎖等,0,2023-12-06,2023-11-30,有限会社永山自動車,,有限会社,福井県,福井市,御幸４丁目７番１５号,,18,201,9100854,,,2023-11-30,清算の結了等,,,2015-10-05,1,,,,,ナガヤマジドウシャ,0
1666,6260002013076,登記記録の閉鎖等,0,2023-12-06,2023-12-01,有限会社ディ・アンド・エス,,有限会社,岡山県,岡山市北区,富田町１丁目７番３号,,33,101,7000816,,,2023-12-01,合併による解散等,4260001037846,令和５年１２月１日岡山市北区富田町一丁目７番３号株式会社ＤＩＫ（4260001037846）に合併し解散,2015-10-05,1,,,,,ディアンドエス,0
1677,6300003000878,登記記録の閉鎖等,0,2023-12-06,2023-12-01,合同会社ブドワール,,合同会社,佐賀県,佐賀市,兵庫町大字藤木１２７７番地１,,41,201,8490915,,,2023-12-01,清算の結了等,,,2015-10-05,1,,,,,ブドワール,0
1683,6320002008821,登記記録の閉鎖等,0,2023-12-06,2023-12-05,慶春有限会社,,有限会社,大分県,大分市,古国府４丁目１０番１７号,,44,201,8700844,,,2023-12-05,清算の結了等,,,2015-10-05,1,,,,,ケイシュン,0
1708,6410001004300,登記記録の閉鎖等,0,2023-12-06,2023-11-30,株式会社Ｎ＆Ｔ,,株式会社,秋田県,秋田市,桜１丁目７番１０号,,05,201,0100042,,,2023-11-30,清算の結了等,,,2015-10-05,1,,,,,エヌアンドティー,0
1711,6420002011113,登記記録の閉鎖等,0,2023-12-06,2023-11-28,有限会社坂本鉄工所,,有限会社,青森県,五所川原市,大字唐笠柳字皆瀬２２番地６,,02,205,0370004,,,2023-11-28,清算の結了等,,,2015-10-05,1,,,,,サカモトテッコウショ,0
1719,6440001006194,登記記録の閉鎖等,0,2023-12-06,2023-12-01,丸金工業株式会社,,株式会社,北海道,茅部郡森町,字上台町１８５番地,,01,345,0492311,,,2023-12-01,清算の結了等,,,2015-10-05,1,,,,,マルキンコウギョウ,0
1726,6480005003630,登記記録の閉鎖等,0,2023-12-06,2023-12-04,医療法人山田会,,その他の設立登記法人,徳島県,板野郡北島町,新喜来字南古田９３番地３,,36,402,7710207,,,2023-12-04,清算の結了等,,,2015-10-05,1,,,,,ヤマダカイ,0
1740,7010001183530,登記記録の閉鎖等,0,2023-12-06,2023-11-29,Ｍｅｎｔｉｓ　Ｃｕｒａ　Ｊａｐａｎ株式会社,,株式会社,東京都,千代田区,紀尾井町３番２８号アドミラル紀尾井町ビル２階,,13,101,1020094,,,2023-11-29,清算の結了等,,,2017-05-16,1,,,,,メンティスキュラジャパン,0
1757,7010403017055,登記記録の閉鎖等,0,2023-12-06,2023-11-28,ＬＴＦ合同会社,,合同会社,兵庫県,芦屋市,宮塚町１１番１８号,,28,206,6590062,,,2023-11-28,清算の結了等,,,2017-08-17,1,,,,,エルティエフ,0
1768,7010802009470,登記記録の閉鎖等,0,2023-12-06,2023-12-01,有限会社坪井製作所,,有限会社,東京都,大田区,西六郷１丁目３０番２号,,13,111,1440056,,,2023-12-01,清算の結了等,,,2015-10-05,1,,,,,ツボイセイサクショ,0
1770,7010901024230,登記記録の閉鎖等,0,2023-12-06,2023-11-30,エス．エツチ．アール株式会社,,株式会社,東京都,世田谷区,北沢４丁目３番７号,,13,112,1550031,,,2023-11-30,清算の結了等,,,2015-10-05,1,,,,,エスエツチアール,0
1783,7011101093438,登記記録の閉鎖等,0,2023-12-06,2023-12-01,株式会社Ｖｅｒｓｏ　ｉｌ　ｄｏｍａｎｉ,,株式会社,東京都,新宿区,高田馬場４丁目４０番１１号ユニゾ高田馬場看山ビル１０Ｆ,,13,104,1690075,,,2023-12-01,清算の結了等,,,2020-12-10,1,,,,,ヴェルソイルドマーニ,0
1786,7011201002827,登記記録の閉鎖等,0,2023-12-06,2023-12-04,株式会社セキネ,,株式会社,東京都,中野区,野方４丁目２６番１号,,13,114,1650027,,,2023-12-04,清算の結了等,,,2015-10-05,1,,,,,セキネ,0
1798,7011801015880,登記記録の閉鎖等,0,2023-12-06,2023-12-01,大成インベストメント株式会社,,株式会社,東京都,葛飾区,西新小岩３丁目５番１号,,13,122,1240025,,,2023-12-01,合併による解散等,3011801002610,令和５年１２月１日東京都葛飾区西新小岩三丁目５番１号大成ホールディングス株式会社（3011801002610）に合併し解散,2015-10-05,1,,,,,タイセイインベストメント,0
1806,7012401036152,登記記録の閉鎖等,0,2023-12-06,2023-12-04,スマホステーション株式会社,,株式会社,東京都,武蔵野市,吉祥寺本町１丁目１０番１号,,13,203,1800004,,,2023-12-04,合併による解散等,7120001196653,令和５年１２月１日大阪市北区中津一丁目１５番１５号中津第２リッチビル５階北側株式会社スマホスピタル（7120001196653）に合併し解散,2020-01-15,1,,,,,スマホステーション,0
1836,7021002001630,登記記録の閉鎖等,0,2023-12-06,2023-12-04,有限会社エヌアールケイ,,有限会社,神奈川県,藤沢市,藤沢５４５番地２６５,,14,205,2510052,,,2023-12-04,清算の結了等,,,2015-10-05,1,,,,,エヌアールケイ,0
1838,7021002063571,登記記録の閉鎖等,0,2023-12-06,2023-12-04,有限会社勝呂電器商会,,有限会社,神奈川県,横須賀市,佐野町１丁目６番地,,14,201,2380052,,,2023-12-04,清算の結了等,,,2015-10-05,1,,,,,カツロデンキショウカイ,0
1843,7030001044037,登記記録の閉鎖等,0,2023-12-06,2023-11-30,株式会社オズ企画,,株式会社,埼玉県,上尾市,柏座４丁目１１番２４号,,11,219,3620075,,,2023-11-30,清算の結了等,,,2015-10-05,1,,,,,オズキカク,0
1844,7030001108072,登記記録の閉鎖等,0,2023-12-06,2023-12-01,株式会社サンカク,,株式会社,東京都,目黒区,上目黒２丁目１０－４,,13,110,1530051,,,2023-12-01,清算の結了等,,,2015-10-05,1,,,,,サンカク,0
1853,7040001069529,登記記録の閉鎖等,0,2023-12-06,2023-11-30,株式会社ｎａｏｃｈａｎ,,株式会社,千葉県,松戸市,根本１３番地の１－６０４,,12,207,2710077,,,2023-11-30,清算の結了等,,,2015-10-05,1,,,,,ナオチャン,0
1861,7040002005012,登記記録の閉鎖等,0,2023-12-06,2023-11-30,有限会社サンプロセス,,有限会社,千葉県,千葉市若葉区,高根町７５３番地１１,,12,104,2650061,,,2023-11-30,清算の結了等,,,2015-10-05,1,,,,,サンプロセス,0
1876,7070003003276,登記記録の閉鎖等,0,2023-12-06,2023-12-01,合同会社ライフソルテック,,合同会社,群馬県,太田市,龍舞町４００５番地１０,,10,205,3730806,,,2023-12-01,清算の結了等,,,2018-10-22,1,,,,,ライフソルテック,0
1879,7080102013035,登記記録の閉鎖等,0,2023-12-06,2023-12-04,有限会社清沼鋼業,,有限会社,静岡県,駿東郡長泉町,東野５１５番地の１１５,,22,342,4110931,,,2023-12-04,清算の結了等,,,2015-10-05,1,,,,,セイショウコウギョウ,0
1916,7122001009497,登記記録の閉鎖等,0,2023-12-06,2023-11-30,豊和海苔株式会社,,株式会社,大阪府,東大阪市,喜里川町１１番３号,,27,227,5798041,,,2023-11-30,清算の結了等,,,2015-10-05,1,,,,,ホウワノリ,0
1939,7160001006032,登記記録の閉鎖等,0,2023-12-06,2023-12-01,株式会社プラコム北斗,,株式会社,滋賀県,湖南市,岩根６７８番地２９,,25,211,5203252,,,2023-12-01,合併による解散等,6160001005035,令和５年１２月１日滋賀県湖南市柑子袋３７３番地北斗産業株式会社（6160001005035）に合併し解散,2015-10-05,1,,,,,プラコムホクト,0
1943,7180301029243,登記記録の閉鎖等,0,2023-12-06,2023-12-04,株式会社エース,,株式会社,愛知県,西尾市,羽塚町東山１２番地,,23,213,4440316,,,2023-12-04,合併による解散等,2180301022905,令和５年１２月１日愛知県西尾市羽塚町東山１２番地株式会社大成製作所（2180301022905）に合併し解散,2016-05-25,1,,,,,エース,0
1953,7210001017544,登記記録の閉鎖等,0,2023-12-06,2023-11-30,株式会社オフィス３２６,,株式会社,福井県,福井市,西方１丁目６番９号,,18,201,9100855,,,2023-11-30,清算の結了等,,,2019-05-15,1,,,,,オフィスサンニロク,0
1962,7260001013943,登記記録の閉鎖等,0,2023-12-06,2023-12-01,株式会社高垣鉄工所,00003165,株式会社,岡山県,倉敷市,児島下の町５丁目７番２７号,,33,202,7110906,,,2023-12-01,清算の結了等,,,2015-10-05,1,,,,,タカガキテッコウショ,0
1967,7290002023831,登記記録の閉鎖等,0,2023-12-06,2023-11-27,有限会社エフ・エイチ・エム・アイ,,有限会社,福岡県,福岡市中央区,薬院２丁目１４番１０－３０５号,,40,133,8100022,,,2023-11-27,清算の結了等,,,2015-10-05,1,,,,,エフエイチエムアイ,0
1970,7290801022380,登記記録の閉鎖等,0,2023-12-06,2023-12-01,リアライズ株式会社,,株式会社,福岡県,北九州市八幡西区,本城１丁目２４－２０Ａ棟２階,,40,109,8070801,,,2023-12-01,合併による解散等,6290802017876,令和５年１２月１日北九州市八幡西区則松五丁目２３－１０株式会社メイク（6290802017876）に合併し解散,2016-04-07,1,,,,,リアライズ,0
1973,7310002016576,登記記録の閉鎖等,0,2023-12-06,2023-12-01,有限会社馬場企画,,有限会社,長崎県,雲仙市,小浜町北野９３６番地,,42,213,8540515,,,2023-12-01,合併による解散等,1310002016581,令和５年１２月１日長崎県雲仙市小浜町北野９３６番地宝友商事株式会社（1310002016581）に合併し解散,2015-10-05,1,,,,,ババキカク,0
1975,7320002017425,登記記録の閉鎖等,0,2023-12-06,2023-12-04,有限会社山中薬品,,有限会社,大分県,佐伯市,弥生大字井崎１３６８番地の６,,44,205,8760111,,,2023-12-04,清算の結了等,,,2015-10-05,1,,,,,,0
1976,7330002029147,登記記録の閉鎖等,0,2023-12-06,2023-11-30,有限会社本渡真珠,,有限会社,熊本県,天草市,下浦町２８６５番地,,43,215,8616551,,,2023-11-30,清算の結了等,,,2015-10-05,1,,,,,ホンドシンジュ,0
1989,7370001022859,登記記録の閉鎖等,0,2023-12-06,2023-12-01,株式会社ライフコンサルトジャパン,,株式会社,宮城県,仙台市泉区,館６丁目４番地の２０,,04,105,9813214,,,2023-12-01,清算の結了等,,,2015-10-05,1,,,,,ライフコンサルトジャパン,0
2005,7430002008025,登記記録の閉鎖等,0,2023-12-06,2023-11-29,有限会社小林調剤,,有限会社,北海道,札幌市白石区,本通１６丁目北１０番１５号,,01,104,0030027,,,2023-11-29,清算の結了等,,,2015-10-05,1,,,,,コバヤシチョウザイ,0
2016,7700150027492,登記記録の閉鎖等,0,2023-12-06,2023-08-01,畑共同作業組合,,その他,京都府,福知山市,夜久野町今西中３６番地,,26,201,6291302,,,2023-08-01,その他の清算の結了等,,,2015-10-09,1,,,,,ハタキヨウドウサギヨウクミアイ,0
2024,8010001176145,登記記録の閉鎖等,0,2023-12-06,2023-12-01,株式会社ＧＵＳＨＩＫＥＮ,,株式会社,沖縄県,那覇市,久茂地１丁目１番１号９階,,47,201,9000015,,,2023-12-01,清算の結了等,,,2016-06-06,1,,,,,グシケン,0
2045,8010601059187,登記記録の閉鎖等,0,2023-12-06,2023-11-30,三和電気工事株式会社,,株式会社,千葉県,浦安市,堀江６丁目４－４７ＫＹアパートメント３番館２０６号室,,12,227,2790041,,,2023-11-30,清算の結了等,,,2021-04-23,1,,,,,サンワデンキコウジ,0
2055,8011001024260,登記記録の閉鎖等,0,2023-12-06,2023-12-04,株式会社ラインアップ,,株式会社,東京都,渋谷区,上原１丁目３８番１１号,,13,113,1510064,,,2023-12-04,清算の結了等,,,2015-10-05,1,,,,,ラインアップ,0
2069,8011101097256,登記記録の閉鎖等,0,2023-12-06,2023-12-01,株式会社アンドビルド,,株式会社,東京都,新宿区,西新宿７丁目６番２号,,13,104,1600023,,,2023-12-01,合併による解散等,9011301011503,令和５年１２月１日東京都新宿区西新宿七丁目５番２５号株式会社アクロス・シティ（9011301011503）に合併し解散,2021-12-20,1,,,,,アンドビルド,0
2082,8011601002161,登記記録の閉鎖等,0,2023-12-06,2023-11-30,株式会社小泉設備社,,株式会社,東京都,練馬区,高野台１丁目１５番２号,,13,120,1770033,,,2023-11-30,清算の結了等,,,2015-10-05,1,,,,,コイズミセツビシャ,0
2086,8011801022851,登記記録の閉鎖等,0,2023-12-06,2023-12-01,株式会社ジャスティ,,株式会社,埼玉県,草加市,西町７２７番地４,,11,221,3400035,,,2023-12-01,清算の結了等,,,2015-10-05,1,,,,,ジャスティ,0
2093,8012802006629,登記記録の閉鎖等,0,2023-12-06,2023-12-01,有限会社エム・エム・ティー,,有限会社,東京都,昭島市,大神町２丁目５番３７号グランチャーム大神Ｃ２号,,13,207,1960013,,,2023-12-01,清算の結了等,,,2015-10-05,1,,,,,,0
2095,8013102000933,登記記録の閉鎖等,0,2023-12-06,2023-12-01,有限会社アベイル,,有限会社,東京都,羽村市,羽加美１丁目２６番地２,,13,227,2050016,,,2023-12-01,清算の結了等,,,2015-10-05,1,,,,,,0
2100,8013402000567,登記記録の閉鎖等,0,2023-12-06,2023-11-30,有限会社コルナス,,有限会社,東京都,日野市,西平山４丁目２番地２２,,13,212,1910055,,,2023-11-30,清算の結了等,,,2015-10-05,1,,,,,コルナス,0
2101,8020001019476,登記記録の閉鎖等,0,2023-12-06,2023-12-01,株式会社イワサワ,,株式会社,神奈川県,横浜市港北区,日吉５丁目２９番２７号,,14,109,2230061,,,2023-12-01,清算の結了等,,,2015-10-05,1,,,,,イワサワ,0
2115,8021001013931,登記記録の閉鎖等,0,2023-12-06,2023-12-04,北州検査株式会社,,株式会社,神奈川県,相模原市南区,上鶴間本町６丁目２４番２１号,,14,153,2520318,,,2023-12-04,清算の結了等,,,2015-10-05,1,,,,,ホクシュウケンサ,0
2117,8021001051551,登記記録の閉鎖等,0,2023-12-06,2023-12-01,株式会社秦野,,株式会社,神奈川県,秦野市,西大竹２８８番地,,14,211,2570012,,,2023-12-01,清算の結了等,,,2015-10-05,1,,,,,ハダノ,0
2119,8021001055890,登記記録の閉鎖等,0,2023-12-06,2023-12-01,株式会社相模原企画,,株式会社,神奈川県,相模原市南区,当麻１７８１番地,,14,153,2520336,,,2023-12-01,清算の結了等,,,2015-10-05,1,,,,,サガミハラキカク,0
2120,8021001057004,登記記録の閉鎖等,0,2023-12-06,2023-12-01,株式会社南橋本,,株式会社,神奈川県,相模原市中央区,下九沢５４番地１,,14,152,2520254,,,2023-12-01,清算の結了等,,,2015-10-05,1,,,,,ミナミハシモト,0
2132,8030001129704,登記記録の閉鎖等,0,2023-12-06,2023-11-29,株式会社パックセンター,,株式会社,埼玉県,入間郡三芳町,大字藤久保８２１番地１,,11,324,3540041,,,2023-11-29,清算の結了等,,,2019-02-28,1,,,,,パックセンター,0
2164,8110001006837,登記記録の閉鎖等,0,2023-12-06,2023-12-01,株式会社ＥＳ,,株式会社,新潟県,新潟市中央区,古町通６番町９８８番地,,15,103,9518063,,,2023-12-01,合併による解散等,3110001002122,令和５年１２月１日新潟市中央区古町通六番町９８８番地株式会社クラッシュアンドカンパニー（3110001002122）に合併し解散,2015-10-05,1,,,,,イーエス,0
2167,8120001041560,登記記録の閉鎖等,0,2023-12-06,2023-12-04,株式会社オネスト,,株式会社,大阪府,大阪市西区,千代崎１丁目８番１号,,27,106,5500023,,,2023-12-04,清算の結了等,,,2015-10-05,1,,,,,オネスト,0
2168,8120001123904,登記記録の閉鎖等,0,2023-12-06,2023-12-04,和田八蒲鉾製造株式会社,,株式会社,大阪府,大阪市福島区,福島５丁目４番２１号,,27,103,5530003,,,2023-12-04,清算の結了等,,,2015-10-05,1,,,,,ワダハチカマボコセイゾウ,0
2193,8122001019017,登記記録の閉鎖等,0,2023-12-06,2023-12-01,株式会社財家,,株式会社,大阪府,八尾市,東山本新町８丁目１２番１０号,,27,212,5810866,,,2023-12-01,清算の結了等,,,2015-10-05,1,,,,,タカラヤ,0
2220,8170001011682,登記記録の閉鎖等,0,2023-12-06,2023-12-04,株式会社ヤマモリ水産,,株式会社,和歌山県,東牟婁郡那智勝浦町,大字朝日４丁目１０１番地の１,,30,421,6495332,,,2023-12-04,清算の結了等,,,2015-10-05,1,,,,,ヤマモリスイサン,0
2231,8180003021530,登記記録の閉鎖等,0,2023-12-06,2023-11-24,合同会社うちの家,,合同会社,愛知県,名古屋市緑区,鳴海町字山腰５１番地の２,,23,114,4580801,,,2023-11-24,清算の結了等,,,2020-08-28,1,,,,,ウチノウチ,0
2234,8180302010341,登記記録の閉鎖等,0,2023-12-06,2023-11-30,有限会社山野板金,,有限会社,愛知県,豊橋市,向山西町２番地の１６,,23,201,4400861,,,2023-11-30,清算の結了等,,,2015-10-05,1,,,,,ヤマノバンキン,0
2237,8190002018155,登記記録の閉鎖等,0,2023-12-06,2023-12-04,有限会社マキシマム,,有限会社,三重県,いなべ市,北勢町麻生田３３９７番地１,,24,214,5110427,,,2023-12-04,清算の結了等,,,2015-10-05,1,,,,,マキシマム,0
2239,8190005003096,登記記録の閉鎖等,0,2023-12-06,2023-12-04,特定非営利活動法人三重乳がん検診ネットワーク,,その他の設立登記法人,三重県,津市,江戸橋２丁目１７４番地,,24,201,5140001,,,2023-12-04,清算の結了等,,,2015-10-05,1,,,,,ミエニュウガンケンシンネットワーク,0
2242,8210001015902,登記記録の閉鎖等,0,2023-12-06,2023-11-30,株式会社クリーンサービス竹内,,株式会社,福井県,三方郡美浜町,竹波第１９号１４番地,,18,442,9191202,,,2023-11-30,清算の結了等,,,2015-10-05,1,,,,,クリーンサービスタケウチ,0
2248,8220002000720,登記記録の閉鎖等,0,2023-12-06,2023-12-04,有限会社吉田鉄工,,有限会社,石川県,野々市市,新庄５丁目２５３番地,,17,212,9218824,,,2023-12-04,清算の結了等,,,2015-10-05,1,,,,,,0
2249,8220002010892,登記記録の閉鎖等,0,2023-12-06,2023-12-04,有限会社出口テキスタイル,,有限会社,石川県,小松市,矢田町ワ１番地２,,17,203,9230975,,,2023-12-04,清算の結了等,,,2015-10-05,1,,,,,デグチテキスタイル,0
2253,8240001031558,登記記録の閉鎖等,0,2023-12-06,2023-11-30,株式会社ナワチ,,株式会社,広島県,福山市,曙町５丁目１８番１４号,,34,207,7210952,,,2023-11-30,清算の結了等,,,2015-10-05,1,,,,,ナワチ,0
2256,8240002014660,登記記録の閉鎖等,0,2023-12-06,2023-11-30,有限会社船田酒店,,有限会社,広島県,広島市南区,宇品御幸５丁目１番７号,,34,103,7340015,,,2023-11-30,清算の結了等,,,2015-10-05,1,,,,,フナダサケテン,0
2263,8260001011541,登記記録の閉鎖等,0,2023-12-06,2023-12-01,株式会社油屋,,株式会社,岡山県,岡山市北区,富田町１丁目７番３号,,33,101,7000816,,,2023-12-01,合併による解散等,4260001037846,令和５年１２月１日岡山市北区富田町一丁目７番３号株式会社ＤＩＫ（4260001037846）に合併し解散,2015-10-05,1,,,,,アブラヤ,0
2264,8260001022638,登記記録の閉鎖等,0,2023-12-06,2023-12-04,ヒロエンジニアリング株式会社,,株式会社,岡山県,玉野市,八浜町波知６６９番地１,,33,204,7060223,,,2023-12-04,清算の結了等,,,2015-10-05,1,,,,,ヒロエンジニアリング,0
2269,8270002010525,登記記録の閉鎖等,0,2023-12-06,2023-12-04,有限会社ハワイ印刷,,有限会社,鳥取県,倉吉市,瀬崎町２７３８番地１,,31,203,6820863,,,2023-12-04,清算の結了等,,,2015-10-05,1,,,,,ハワイインサツ,0
2286,8320002002772,登記記録の閉鎖等,0,2023-12-06,2023-12-05,有限会社コンパクトクリーン,,有限会社,大分県,大分市,六坊北町５番１５－８号,,44,201,8700841,,,2023-12-05,清算の結了等,,,2015-10-05,1,,,,,コンパクトクリーン,0
2297,8380001006182,登記記録の閉鎖等,0,2023-12-06,2023-11-30,根本工業株式会社,,株式会社,福島県,郡山市,町東１丁目２１５番地,,07,203,9638046,,,2023-11-30,清算の結了等,,,2015-10-05,1,,,,,ネモトコウギョウ,0
2309,8470001008707,登記記録の閉鎖等,0,2023-12-06,2023-12-05,平尾建材株式会社,,株式会社,香川県,仲多度郡琴平町,五條３０１番地,,37,403,7660003,,,2023-12-05,清算の結了等,,,2015-10-05,1,,,,,ヒラオケンザイ,0
2320,9010001057047,登記記録の閉鎖等,0,2023-12-06,2023-11-30,ホープワイドプリンテイング株式会社,,株式会社,東京都,中央区,湊３丁目１１番７号,,13,102,1040043,,,2023-11-30,清算の結了等,,,2015-10-05,1,,,,,ホープワイドプリンティング,0
2333,9010005025974,登記記録の閉鎖等,0,2023-12-06,2023-12-01,特定目的会社ヘルスケア湘南,,その他の設立登記法人,東京都,千代田区,平河町２丁目４番５号,,13,101,1020093,,,2023-12-01,清算の結了等,,,2016-11-08,1,,,,,ヘルスケアショウナン,0
2366,9011001053011,登記記録の閉鎖等,0,2023-12-06,2023-12-05,池田不動産株式会社,,株式会社,大阪府,大阪市東住吉区,鷹合３丁目１１番２６号,,27,121,5460014,,,2023-12-05,清算の結了等,,,2015-10-05,1,,,,,イケダフドウサン,0
2368,9011001148926,登記記録の閉鎖等,0,2023-12-06,2023-12-01,マーヴェリックス・ベンチャーズ株式会社,,株式会社,東京都,渋谷区,渋谷２丁目１０番２号渋谷２丁目ビル２Ｆ,,13,113,1500002,,,2023-12-01,清算の結了等,,,2022-08-02,1,,,,,マーヴェリックスベンチャーズ,0
2373,9011101076663,登記記録の閉鎖等,0,2023-12-06,2023-11-30,株式会社ネネネユナイテッド,,株式会社,東京都,世田谷区,玉川３丁目２０番２号マノア玉川第３ビル５０１号室,,13,112,1580094,,,2023-11-30,清算の結了等,,,2016-04-15,1,,,,,ネネネユナイテッド,0
2395,9012402000329,登記記録の閉鎖等,0,2023-12-06,2023-12-01,有限会社井上製作所,,有限会社,東京都,府中市,多磨町１丁目２４番地の２,,13,206,1830002,,,2023-12-01,清算の結了等,,,2015-10-05,1,,,,,イノウエセイサクショ,0
2399,9013101003597,登記記録の閉鎖等,0,2023-12-06,2023-11-30,株式会社小林商店,,株式会社,東京都,青梅市,仲町３１８番地,,13,205,1980082,,,2023-11-30,清算の結了等,,,2015-10-05,1,,,,,コバヤシショウテン,0
2412,9020002056146,登記記録の閉鎖等,0,2023-12-06,2023-12-01,有限会社シグマックス,,有限会社,神奈川県,横浜市緑区,竹山１丁目１３番地６,,14,113,2260005,,,2023-12-01,清算の結了等,,,2015-10-05,1,,,,,シグマックス,0
2417,9021001040363,登記記録の閉鎖等,0,2023-12-06,2023-12-01,株式会社斎藤工務店,,株式会社,神奈川県,横須賀市,金谷２丁目２番１号,,14,201,2380034,,,2023-12-01,合併による解散等,6021001040003,令和５年１２月１日神奈川県横須賀市久里浜二丁目２番３号ウスイホーム株式会社（6021001040003）に合併し解散,2015-10-05,1,,,,,サイトウコウムテン,0
2418,9021001054850,登記記録の閉鎖等,0,2023-12-06,2023-12-04,株式会社ラルジュヴィータ,,株式会社,神奈川県,平塚市,ふじみ野２丁目７番１２号,,14,203,2591211,,,2023-12-04,清算の結了等,,,2015-10-05,1,,,,,ラルジュヴィータ,0
2424,9030001072952,登記記録の閉鎖等,0,2023-12-06,2023-12-04,株式会社Ｍ・ＫＵＷＡＪＩＭＡ,,株式会社,埼玉県,戸田市,川岸３丁目５番２０,,11,224,3350015,,,2023-12-04,清算の結了等,,,2015-10-05,1,,,,,エムクワジマ,0
2451,9070002027142,登記記録の閉鎖等,0,2023-12-06,2023-11-30,有限会社ケイ・プランニング,,有限会社,群馬県,北群馬郡吉岡町,大字大久保１５６１番地６,,10,345,3703602,,,2023-11-30,清算の結了等,,,2015-10-05,1,,,,,ケイプランニング,0
2456,9090002012778,登記記録の閉鎖等,0,2023-12-06,2023-12-05,山村商事有限会社,,有限会社,山梨県,富士吉田市,下吉田３丁目２０番２１号,,19,202,4030004,,,2023-12-05,清算の結了等,,,2015-10-05,1,,,,,ヤマムラショウジ,0
2463,9120001123903,登記記録の閉鎖等,0,2023-12-06,2023-12-04,株式会社和田八,,株式会社,大阪府,大阪市福島区,福島５丁目４番２１号,,27,103,5530003,,,2023-12-04,清算の結了等,,,2015-10-05,1,,,,,ワダハチ,0
2480,9120002005126,登記記録の閉鎖等,0,2023-12-06,2023-11-28,有限会社アイティオー,,有限会社,大阪府,大阪市中央区,難波１丁目９番６号,,27,128,5420076,,,2023-11-28,清算の結了等,,,2015-10-05,1,,,,,アイティオー,0
2505,9140003012838,登記記録の閉鎖等,0,2023-12-06,2023-12-01,合同会社Ｌｉｇｎａｇｅ,,合同会社,兵庫県,伊丹市,西野３丁目２２２番地ウエストフィールド３０１号,,28,207,6640028,,,2023-12-01,清算の結了等,,,2018-03-12,1,,,,,リナージュ,0
2516,9180001063870,登記記録の閉鎖等,0,2023-12-06,2023-12-04,株式会社ファーストコンサルティング,,株式会社,石川県,金沢市,鈴見台４丁目１５番５号,,17,201,9201161,,,2023-12-04,清算の結了等,,,2015-10-05,1,,,,,ファーストコンサルティング,0
2526,9180002046362,登記記録の閉鎖等,0,2023-12-06,2023-11-29,有限会社中国法律経済研究所,,有限会社,愛知県,名古屋市中区,丸の内２丁目１７番６号,,23,106,4600002,,,2023-11-29,清算の結了等,,,2015-10-05,1,,,,,チュウゴクホウリツケイザイケンキュウジョ,0
2528,9180002069941,登記記録の閉鎖等,0,2023-12-06,2023-12-04,有限会社まゆみ輸送,,有限会社,愛知県,丹羽郡大口町,豊田３丁目１１９番地,,23,361,4800134,,,2023-12-04,清算の結了等,,,2015-10-05,1,,,,,,0
2530,9180302028515,削除,,2023-12-06,,,,,,,,,,,,,,,,,,,,,,,,,
2539,9210001011157,登記記録の閉鎖等,0,2023-12-06,2023-11-30,若狭日清工業株式会社,,株式会社,福井県,三方上中郡若狭町,下タ中第１５号１６番地,,18,501,9191521,,,2023-11-30,清算の結了等,,,2015-10-05,1,,,,,ワカサニッシンコウギョウ,0
2551,9260001015137,登記記録の閉鎖等,0,2023-12-06,2023-12-04,米田建設株式会社,,株式会社,岡山県,倉敷市,連島中央１丁目５番１３号,,33,202,7128014,,,2023-12-04,清算の結了等,,,2015-10-05,1,,,,,ヨネダケンセツ,0
2586,9350001008585,登記記録の閉鎖等,0,2023-12-06,2023-12-01,セントラルファーム株式会社,,株式会社,宮崎県,都城市,山之口町富吉６６３０番地,,45,202,8891801,,,2023-12-01,合併による解散等,8350002016233,令和５年１２月１日宮崎県都城市山之口町富吉６３５４番地１株式会社上原グローカルファーム（8350002016233）に合併し解散,2015-10-05,1,,,,,セントラルファーム,0
2600,9380002011957,登記記録の閉鎖等,0,2023-12-06,2023-12-01,有限会社プリズム郡山,,有限会社,福島県,郡山市,田村町守山字上河原３１番地の２９,,07,203,9631155,,,2023-12-01,清算の結了等,,,2015-10-05,1,,,,,プリズムコオリヤマ,0
2605,9430003009805,登記記録の閉鎖等,0,2023-12-06,2023-11-28,合同会社ＫＭデザイン,,合同会社,北海道,石狩市,新港西３丁目７５１番地９,,01,235,0613241,,,2023-11-28,清算の結了等,,,2018-10-29,1,,,,,ケーエムデザイン,0
2609,9470005004718,登記記録の閉鎖等,0,2023-12-06,2023-12-04,医療法人社団ありま内科消化器科クリニック,,その他の設立登記法人,香川県,さぬき市,志度１９００番地７牟礼ビル２階,,37,206,7692101,,,2023-12-04,清算の結了等,,,2015-10-05,1,,,,,シャダンアリマナイカショウカキカクリニック,0
2612,9480005003611,登記記録の閉鎖等,0,2023-12-06,2023-10-02,医療法人まんてん会,,その他の設立登記法人,徳島県,徳島市,名東町１丁目９１番地,,36,201,7700047,,,2023-10-02,合併による解散等,3480005000135,令和５年１０月２日徳島市名東町一丁目９１番地医療法人栄寿会（3480005000135）に合併し解散,2015-10-05,1,,,,,マンテンカイ,0
2613,9490002000692,登記記録の閉鎖等,0,2023-12-06,2023-12-01,有限会社大川筋モータープール,,有限会社,高知県,高知市,本町５丁目４番２１号,,39,201,7800870,,,2023-12-01,清算の結了等,,,2015-10-05,1,,,,,オオカワスジモータープール,0
2618,9700150004390,登記記録の閉鎖等,0,2023-12-06,2023-08-28,銀座コア連合会,,その他,東京都,中央区,銀座５丁目８－２０,,13,102,1040061,,,2023-08-28,その他の清算の結了等,,,2015-10-09,1,,,,,ギンザコアレンゴウカイ,0
2620,9700150050534,登記記録の閉鎖等,0,2023-12-06,2023-01-25,おおい水産振興会,,その他,福井県,大飯郡おおい町,大島８３－３,,18,483,9192101,,,2023-01-25,その他の清算の結了等,,,2015-10-09,1,,,,,オオイスイサンシンコウカイ,0
