sequenceNumber,corporateNumber,process,correct,updateDate,changeDate,name,nameImageId,kind,prefectureName,cityName,streetNumber,addressImageId,prefectureCode,cityCode,postCode,addressOutside,addressOutsideImageId,closeDate,closeCause,successorCorporateNumber,changeCause,assignmentDate,latest,enName,enPrefectureName,enCityName,enAddressOutside,furigana,hihyoji
14,1010001254527,新規,0,2025-04-30,2025-04-30,株式会社順風新社,,株式会社,東京都,中央区,日本橋室町１丁目１１番１２号日本橋水野ビル７階,,13,102,1030022,,,,,,,2025-04-30,1,,,,,ジュンプウシンシャ,0
15,1010001254634,新規,0,2025-04-30,2025-04-30,株式会社インフィニット酒ラボ,,株式会社,東京都,中央区,日本橋室町１丁目１１番１２号日本橋水野ビル７階,,13,102,1030022,,,,,,,2025-04-30,1,,,,,インフィニットサケラボ,0
16,1010003047210,新規,0,2025-04-30,2025-04-30,合同会社西調布プロパティー,,合同会社,東京都,千代田区,丸の内１丁目４番１号東京共同会計事務所内,,13,101,1000005,,,,,,,2025-04-30,1,,,,,ニシチョウフプロパティー,0
27,1010403034980,新規,0,2025-04-30,2025-04-30,合同会社黒山,,合同会社,東京都,港区,北青山１丁目２番３号,,13,103,1070061,,,,,,,2025-04-30,1,,,,,クロヤマ,0
32,1010601067188,新規,0,2025-04-30,2025-04-30,株式会社ＴＡＫＡＮＯＨＡ,,株式会社,東京都,墨田区,錦糸１丁目２－１アルカセントラル１４階,,13,107,1300013,,,,,,,2025-04-30,1,,,,,タカノハ,0
34,1010801036100,新規,0,2025-04-30,2025-04-30,みなづき株式会社,,株式会社,東京都,大田区,田園調布南２１番９号,,13,111,1450076,,,,,,,2025-04-30,1,,,,,ミナヅキ,0
43,1011001168725,新規,0,2025-04-30,2025-04-30,シュシュココ株式会社,,株式会社,東京都,渋谷区,道玄坂１丁目１０番８号渋谷道玄坂東急ビル２Ｆ－Ｃ,,13,113,1500043,,,,,,,2025-04-30,1,,,,,シュシュココ,0
44,1011001169203,新規,0,2025-04-30,2025-04-30,ＳｔｅｒａＶｉｓｉｏｎ株式会社,,株式会社,東京都,渋谷区,渋谷２丁目１４番１３岡崎ビル５Ｆ５０６,,13,113,1500002,,,,,,,2025-04-30,1,,,,,ステラビジョン,0
45,1011001169244,新規,0,2025-04-30,2025-04-30,ＩＮＮＯＮＥＸ株式会社,,株式会社,東京都,渋谷区,神宮前１丁目５番８号神宮前タワービルディング１２階,,13,113,1500001,,,,,,,2025-04-30,1,,,,,イノネックス,0
46,1011001169269,新規,0,2025-04-30,2025-04-30,株式会社Ａ＆Ｅ　Ｆｕｔｕｒｅ　Ｉｎｖｅｓｔｍｅｎｔ,,株式会社,東京都,渋谷区,恵比寿西２丁目４番８号,,13,113,1500021,,,,,,,2025-04-30,1,,,,,エーアンドイーフューチャーインベストメント,0
47,1011001169467,新規,0,2025-04-30,2025-04-30,Ｇｌｏｂｅｒｔｉａ株式会社,,株式会社,東京都,渋谷区,道玄坂１丁目１０番８号渋谷道玄坂東急ビル２Ｆ－Ｃ,,13,113,1500043,,,,,,,2025-04-30,1,,,,,グロバーティア,0
48,1011001169509,新規,0,2025-04-30,2025-04-30,株式会社ナースレスキュー,,株式会社,東京都,目黒区,碑文谷５丁目２１番１９号サウスガーデンハウスグレイス１０１,,13,110,1520003,,,,,,,2025-04-30,1,,,,,ナースレスキュー,0
54,1011003021436,新規,0,2025-04-30,2025-04-30,合同会社Ｇｅｎｕｉｎｅ,,合同会社,東京都,渋谷区,幡ヶ谷２丁目２１－２コスモリード幡ヶ谷２０５,,13,113,1510072,,,,,,,2025-04-30,1,,,,,ジェニュイン,0
55,1011003021485,新規,0,2025-04-30,2025-04-30,合同会社Ｆ．Ａ．Ｒ,,合同会社,東京都,渋谷区,渋谷２丁目１９－１５宮益坂ビルディング６０９,,13,113,1500002,,,,,,,2025-04-30,1,,,,,ファー,0
56,1011003021493,新規,0,2025-04-30,2025-04-30,合同会社ベイビュー・ジャパン,,合同会社,東京都,目黒区,中目黒５丁目１９番１８－２０２号,,13,110,1530061,,,,,,,2025-04-30,1,,,,,ベイビュージャパン,0
58,1011101111584,新規,0,2025-04-30,2025-04-30,株式会社光塩,,株式会社,東京都,新宿区,大久保１丁目１－３０ＫＤＴ,,13,104,1690072,,,,,,,2025-04-30,1,,,,,コウエン,0
59,1011101111592,新規,0,2025-04-30,2025-04-30,株式会社ハートフルドライビング,,株式会社,東京都,新宿区,西新宿７丁目５番９－１００５号,,13,104,1600023,,,,,,,2025-04-30,1,,,,,ハートフルドライビング,0
60,1011203004678,新規,0,2025-04-30,2025-04-30,合同会社リリー工房,,合同会社,東京都,中野区,中野３丁目３３番地１５号,,13,114,1640001,,,,,,,2025-04-30,1,,,,,リリーコウボウ,0
64,1011303005527,新規,0,2025-04-30,2025-04-30,合同会社花時計,,合同会社,東京都,杉並区,下井草５丁目１４番７号,,13,115,1670022,,,,,,,2025-04-30,1,,,,,ハナドケイ,0
65,1011401027051,新規,0,2025-04-30,2025-04-30,＿昌榮商貿株式会社,00138973,株式会社,東京都,板橋区,仲宿６３番地７号ＯＥＯｆｆｉｃｅＢｉｄｇ．４０８号,,13,119,1730005,,,,,,,2025-04-30,1,,,,,キンショウエイショウボウ,0
66,1011501032001,新規,0,2025-04-30,2025-04-30,株式会社ＺＩＰＬＩＮＥ,,株式会社,東京都,荒川区,西日暮里６丁目４１番５号,,13,118,1160013,,,,,,,2025-04-30,1,,,,,ジップライン,0
68,1011603004690,新規,0,2025-04-30,2025-04-30,合同会社アンジュ,,合同会社,東京都,練馬区,石神井台７丁目２７番１０号ＭａｉｓｏｎｄｅＭｉｃｈｅＩＩ１０２,00138954,13,120,1770045,,,,,,,2025-04-30,1,,,,,アンジュ,0
71,1011801046031,新規,0,2025-04-30,2025-04-30,ダイカン建設株式会社,,株式会社,東京都,足立区,西新井４丁目２５－３－３０１,,13,121,1230841,,,,,,,2025-04-30,1,,,,,ダイカンケンセツ,0
72,1011801046064,新規,0,2025-04-30,2025-04-30,株式会社勇鋼業,,株式会社,東京都,葛飾区,細田３丁目２９番１３号,,13,122,1240021,,,,,,,2025-04-30,1,,,,,イサミコウギョウ,0
76,1012403007099,新規,0,2025-04-30,2025-04-30,Ｎｉｗａｔｏｒｉ　Ｃａｐｉｔａｌ合同会社,,合同会社,東京都,多摩市,諏訪１丁目６８番地の１オーベル多摩永山エンブレムヒルズ５０４,,13,224,2060024,,,,,,,2025-04-30,1,,,,,ニワトリキャピタル,0
87,1020001162613,新規,0,2025-04-30,2025-04-30,株式会社ＯＮＥ,,株式会社,神奈川県,川崎市川崎区,宮本町６番地１２川崎市役所オフィス２２５号室,,14,131,2100004,,,,,,,2025-04-30,1,,,,,ワン,0
88,1020003028382,新規,0,2025-04-30,2025-04-30,合同会社一夢,,合同会社,神奈川県,横浜市西区,浅間町１丁目４番３号ウィザードビル４０２,,14,103,2200072,,,,,,,2025-04-30,1,,,,,イチム,0
91,1021003015899,新規,0,2025-04-30,2025-04-30,ＢＡＢＹＦＡＣＥ　ＩＭＰＥＸ合同会社,,合同会社,神奈川県,小田原市,中町３丁目８番３－２０２号,,14,206,2500005,,,,,,,2025-04-30,1,,,,,ベビーフェイスインペックス,0
98,1030001166183,新規,0,2025-04-30,2025-04-30,株式会社Ｈａｌａｌ,,株式会社,埼玉県,さいたま市西区,大字宝来１５６８番地１,,11,101,3310074,,,,,,,2025-04-30,1,,,,,ハラル,0
99,1030001166233,新規,0,2025-04-30,2025-04-30,株式会社Ｆｌｏｗ,,株式会社,埼玉県,北葛飾郡松伏町,ゆめみ野東３丁目８－６,,11,465,3430114,,,,,,,2025-04-30,1,,,,,フロウ,0
100,1030001166258,新規,0,2025-04-30,2025-04-30,株式会社レブズ,,株式会社,埼玉県,坂戸市,大字長岡１７９番地１４,,11,239,3500265,,,,,,,2025-04-30,1,,,,,レブズ,0
106,1030003026674,新規,0,2025-04-30,2025-04-30,合同会社ＫＹＡＣ,,合同会社,埼玉県,戸田市,中町１丁目３番地１４,,11,224,3350012,,,,,,,2025-04-30,1,,,,,ケイワイエイシイ,0
118,1040001138470,新規,0,2025-04-30,2025-04-30,株式会社ＧＡＯＭＯＴＯＲ,,株式会社,千葉県,銚子市,長塚町３丁目１１１番地の４,,12,202,2880837,,,,,,,2025-04-30,1,,,,,ガオモーター,0
119,1040001138487,新規,0,2025-04-30,2025-04-30,株式会社サインピーク,,株式会社,千葉県,市川市,福栄２丁目１５番１１－３０７号（秀和第１行徳レジデンス）,,12,203,2720137,,,,,,,2025-04-30,1,,,,,サインピーク,0
130,1060003005527,新規,0,2025-04-30,2025-04-30,合同会社ｄｏ　ｔｏｇｅｔｈｅｒ,,合同会社,栃木県,宇都宮市,豊郷台３丁目６６番地１,,09,201,3200003,,,,,,,2025-04-30,1,,,,,ドゥトゥゲザー,0
132,1060005010335,新規,0,2025-04-30,2025-04-30,一般社団法人ＯＨＩＲＡ　ＮＵＲ　ＭＡＳＪＩＤ,,その他の設立登記法人,栃木県,栃木市,大平町富田３８８番地７,,09,203,3294404,,,,,,,2025-04-30,1,,,,,オオヒラヌールマスジード,0
134,1080001026903,新規,0,2025-04-30,2025-04-30,株式会社光と風,,株式会社,静岡県,静岡市駿河区,登呂２丁目１５番２６号,,22,102,4228033,,,,,,,2025-04-30,1,,,,,ヒカリトカゼ,0
145,1090001019245,新規,0,2025-04-30,2025-04-30,株式会社ＶＡＵＬＴＥＲ,,株式会社,山梨県,笛吹市,御坂町栗合２７０番地１０,,19,211,4060805,,,,,,,2025-04-30,1,,,,,ヴォルター,0
148,1100001038557,新規,0,2025-04-30,2025-04-30,伊那ライスパック工業株式会社,,株式会社,長野県,伊那市,荒井３４８１番地６,,20,209,3960025,,,,,,,2025-04-30,1,,,,,イナライスパックコウギョウ,0
154,1110005017226,新規,0,2025-04-30,2025-04-30,医療法人社団五智歯科クリニック,,その他の設立登記法人,新潟県,上越市,五智１丁目１３番１０号,,15,222,9420081,,,,,,,2025-04-30,1,,,,,ゴチシカクリニック,0
162,1120001274976,新規,0,2025-04-30,2025-04-30,株式会社瑞一,,株式会社,大阪府,大阪市東成区,大今里西３丁目１８番２２－２０２号,,27,115,5370014,,,,,,,2025-04-30,1,,,,,ミズイチ,0
163,1120001275000,新規,0,2025-04-30,2025-04-30,株式会社ＲＥＦＯＲＭＵＬ,,株式会社,大阪府,枚方市,東牧野町１６－７－１Ｆ,,27,210,5731151,,,,,,,2025-04-30,1,,,,,リフォムル,0
164,1120001275009,新規,0,2025-04-30,2025-04-30,株式会社ＮＥＸＴ　ＰＬＡＮＮＩＮＧ,,株式会社,大阪府,大阪市北区,国分寺２丁目１番１４号アコム天六ビル,,27,127,5310064,,,,,,,2025-04-30,1,,,,,ネクストプランニング,0
165,1120001275033,新規,0,2025-04-30,2025-04-30,辰望株式会社,,株式会社,大阪府,大阪市大正区,三軒家西３丁目４番１６号中山ビル４０３Ｂ,,27,108,5510001,,,,,,,2025-04-30,1,,,,,シンボウ,0
166,1120001275396,新規,0,2025-04-30,2025-04-30,株式会社真工務店,,株式会社,大阪府,大阪市平野区,平野南２丁目５番２０号,,27,126,5470031,,,,,,,2025-04-30,1,,,,,シンコウムテン,0
173,1122001039120,新規,0,2025-04-30,2025-04-30,株式会社Ｙｚテクニカ,,株式会社,大阪府,東大阪市,東鴻池町３丁目６番２４号,,27,227,5780973,,,,,,,2025-04-30,1,,,,,ワイズテクニカ,0
180,1130003010412,新規,0,2025-04-30,2025-04-30,ＴｅｒｒａＮｅｘｕｓ合同会社,,合同会社,京都府,京都市南区,久世高田町３７３－１京都桂川つむぎの街グランスクエア１１８,,26,107,6018211,,,,,,,2025-04-30,1,,,,,テラネクサス,0
187,1140001138188,新規,0,2025-04-30,2025-04-30,ストーンエイジ株式会社,,株式会社,兵庫県,神戸市中央区,北長狭通５丁目５番１５号日本土地ビル２０２号,,28,110,6500012,,,,,,,2025-04-30,1,,,,,ストーンエイジ,0
188,1140001138270,新規,0,2025-04-30,2025-04-30,株式会社プラスアルファ,,株式会社,兵庫県,神戸市東灘区,住吉山手４丁目１１番３６－３２０４号,,28,101,6580063,,,,,,,2025-04-30,1,,,,,プラスアルファ,0
189,1140001138337,新規,0,2025-04-30,2025-04-30,株式会社ＡＣＲＯＳＳ,,株式会社,兵庫県,伊丹市,中野西３丁目１－１マイシティ伊丹１－１１０,,28,207,6640023,,,,,,,2025-04-30,1,,,,,アクロス,0
191,1140003021929,新規,0,2025-04-30,2025-04-30,ＲＲＫＣ合同会社,,合同会社,兵庫県,加古川市,東神吉町西井ノ口２０２番の５,,28,210,6750055,,,,,,,2025-04-30,1,,,,,アールアールケーシー,0
192,1140003022010,新規,0,2025-04-30,2025-04-30,合同会社ＦＲＥＩＨＥＩＴ,,合同会社,兵庫県,尼崎市,大庄西町３丁目２番２号２０７,,28,202,6600077,,,,,,,2025-04-30,1,,,,,フライハイト,0
193,1150001028074,新規,0,2025-04-30,2025-04-30,ＴＲＵＳＴＥＱ株式会社,,株式会社,奈良県,生駒市,新旭ケ丘６番６号,,29,209,6300253,,,,,,,2025-04-30,1,,,,,トラステック,0
194,1150001028082,新規,0,2025-04-30,2025-04-30,株式会社エスジーテクノ,,株式会社,奈良県,北葛城郡河合町,星和台２丁目９番地６,,29,427,6360081,,,,,,,2025-04-30,1,,,,,エスジーテクノ,0
195,1160003003462,新規,0,2025-04-30,2025-04-30,合同会社ＷＥＬＳＥＥＤ,,合同会社,滋賀県,犬上郡豊郷町,大字四十九院７３番地２,,25,441,5291161,,,,,,,2025-04-30,1,,,,,ウェルシード,0
203,1180001166532,新規,0,2025-04-30,2025-04-30,グランステラ株式会社,,株式会社,愛知県,名古屋市中区,丸の内３丁目１５番２２号丸の内ＵＳビル８階８０３号室,,23,106,4600002,,,,,,,2025-04-30,1,,,,,グランステラ,0
204,1180001166540,新規,0,2025-04-30,2025-04-30,株式会社平成クラフターズ,,株式会社,愛知県,津島市,神守町字二反代９３番地１,,23,208,4960005,,,,,,,2025-04-30,1,,,,,ヘイセイクラフターズ,0
205,1180001166573,新規,0,2025-04-30,2025-04-30,株式会社ドンドン,,株式会社,愛知県,名古屋市東区,泉１丁目１３番３４号シティコーポ久屋４０５,,23,102,4610001,,,,,,,2025-04-30,1,,,,,ドンドン,0
212,1180003028185,新規,0,2025-04-30,2025-04-30,合同会社モビリティリンク,,合同会社,愛知県,清須市,春日天神１１０－３プリートＥ２０２,,23,233,4520962,,,,,,,2025-04-30,1,,,,,モビリティリンク,0
213,1180003028375,新規,0,2025-04-30,2025-04-30,合同会社Ｗｅｌｌｎｅｓｓ　Ａｄｖｉｓｏｒ,,合同会社,愛知県,名古屋市昭和区,広見町６丁目６８番ザ・パークハウス桜山プレイズ７０２号,,23,107,4660046,,,,,,,2025-04-30,1,,,,,ウェルネスアドバイザー,0
220,1190001032188,新規,0,2025-04-30,2025-04-30,株式会社ＬＩＬＹ,,株式会社,三重県,三重郡朝日町,大字縄生６６９番地１,,24,343,5108101,,,,,,,2025-04-30,1,,,,,リリー,0
224,1200003006782,新規,0,2025-04-30,2025-04-30,合同会社小林工業,,合同会社,岐阜県,岐阜市,弁天町３丁目６番地（藤和シティホームズ４０４号室）,,21,201,5008307,,,,,,,2025-04-30,1,,,,,コバヤシコウギョウ,0
227,1230005009467,新規,0,2025-04-30,2025-04-30,特定非営利活動法人みんなの音もだち,,その他の設立登記法人,富山県,富山市,桜橋通り３番１号富山電気ビルディング本館２Ｆ,,16,201,9300004,,,,,,,2025-04-30,1,,,,,ミンナノオトモダチ,0
230,1240001064861,新規,0,2025-04-30,2025-04-30,株式会社イケダ,,株式会社,広島県,福山市,南蔵王町６丁目６番２１号,,34,207,7210973,,,,,,,2025-04-30,1,,,,,イケダ,0
233,1240003007166,新規,0,2025-04-30,2025-04-30,合同会社寿,,合同会社,広島県,呉市,焼山松ヶ丘１丁目１０番１４号,,34,202,7370932,,,,,,,2025-04-30,1,,,,,コトブキ,0
234,1250001021119,新規,0,2025-04-30,2025-04-30,株式会社オフリバ,,株式会社,山口県,岩国市,麻里布町２丁目５番１７号,,35,208,7400018,,,,,,,2025-04-30,1,,,,,オフリバ,0
239,1270001009194,新規,0,2025-04-30,2025-04-30,株式会社ＲＩＩＮ,,株式会社,鳥取県,鳥取市,大杙２６２番地４０,,31,201,6800851,,,,,,,2025-04-30,1,,,,,リイン,0
245,1290001109876,新規,0,2025-04-30,2025-04-30,株式会社小鶴総建,,株式会社,福岡県,久留米市,東合川３丁目１３番１－３号,,40,203,8390809,,,,,,,2025-04-30,1,,,,,コヅルソウケン,0
246,1290003016716,新規,0,2025-04-30,2025-04-30,えにし合同会社,,合同会社,福岡県,福岡市博多区,博多駅前１丁目２３番２号ＰａｒｋＦｒｏｎｔ博多駅前１丁目５Ｆ－Ｂ,,40,132,8120011,,,,,,,2025-04-30,1,,,,,エニシ,0
249,1290805009826,新規,0,2025-04-30,2025-04-30,特定非営利活動法人わらしべの会,,その他の設立登記法人,福岡県,直方市,古町１－５,,40,204,8220027,,,,,,,2025-04-30,1,,,,,ワラシベノカイ,0
251,1300001014166,新規,0,2025-04-30,2025-04-30,株式会社ヤマモト,,株式会社,佐賀県,小城市,牛津町乙柳１０９６番地３,,41,208,8490301,,,,,,,2025-04-30,1,,,,,ヤマモト,0
252,1300003002276,新規,0,2025-04-30,2025-04-30,ワイエム企画合同会社,,合同会社,佐賀県,鳥栖市,弥生が丘１丁目１９番地アンピール弥生が丘７０６,,41,203,8410005,,,,,,,2025-04-30,1,,,,,ワイエムキカク,0
253,1320001021078,新規,0,2025-04-30,2025-04-30,株式会社測地技巧,,株式会社,大分県,大分市,田中町２丁目１３番２４号,,44,201,8700852,,,,,,,2025-04-30,1,,,,,ソクチギコウ,0
255,1330001033114,新規,0,2025-04-30,2025-04-30,タカネクト株式会社,,株式会社,熊本県,天草市,浜崎町２０番１６号,,43,215,8630018,,,,,,,2025-04-30,1,,,,,タカネクト,0
256,1330001033147,新規,0,2025-04-30,2025-04-30,株式会社ウラモト,,株式会社,熊本県,宇土市,長浜町５８０番地の１,,43,211,8693171,,,,,,,2025-04-30,1,,,,,ウラモト,0
257,1330001033155,新規,0,2025-04-30,2025-04-30,株式会社Ｗｅａｔｈｅｒ　ｒａｉｎ,,株式会社,熊本県,熊本市中央区,下通１丁目１０番３号銀座プレイスＫＵＭＡＭＯＴＯ７階ＢＣ号,,43,101,8600807,,,,,,,2025-04-30,1,,,,,ウェザーレイン,0
258,1330003010986,新規,0,2025-04-30,2025-04-30,Ｃｏｚｙ合同会社,,合同会社,熊本県,熊本市中央区,壺川２丁目３番４０－６号,,43,101,8600076,,,,,,,2025-04-30,1,,,,,コージー,0
270,1380001035270,新規,0,2025-04-30,2025-04-30,株式会社丸福,,株式会社,福島県,双葉郡広野町,大字下北迫字浜田４８番地４,,07,541,9790402,,,,,,,2025-04-30,1,,,,,マルフク,0
272,1400001017019,新規,0,2025-04-30,2025-04-30,株式会社Ａｎｇｅｌ　Ｗｉｎｇｓ,,株式会社,岩手県,二戸市,白鳥字金林５６番地４５,,03,213,0286107,,,,,,,2025-04-30,1,,,,,エンジェルウイングス,0
274,1410001014147,新規,0,2025-04-30,2025-04-30,株式会社はるひ,,株式会社,秋田県,由利本荘市,大鍬町３７７番地２,,05,210,0150864,,,,,,,2025-04-30,1,,,,,ハルヒ,0
277,1410005006644,新規,0,2025-04-30,2025-04-30,一般社団法人湯沢市スポーツ協会,,その他の設立登記法人,秋田県,湯沢市,字沖鶴１４０番地,,05,207,0120037,,,,,,,2025-04-30,1,,,,,ユザワシスポーツキョウカイ,0
278,1420001019112,新規,0,2025-04-30,2025-04-30,菊池商事株式会社,,株式会社,青森県,むつ市,横迎町１丁目１７番２５号菊弘借家７号,,02,208,0350033,,,,,,,2025-04-30,1,,,,,キクチショウジ,0
281,1430001094229,新規,0,2025-04-30,2025-04-30,ＢＬＫ株式会社,,株式会社,北海道,札幌市厚別区,厚別東二条４丁目１５番６号,,01,108,0040002,,,,,,,2025-04-30,1,,,,,ビーエルケー,0
283,1430005015230,新規,0,2025-04-30,2025-04-30,一般社団法人空き家・相続サポート窓口,,その他の設立登記法人,北海道,札幌市北区,百合が原７丁目８番１０号,,01,102,0028081,,,,,,,2025-04-30,1,,,,,アキヤソウゾクサポートマドグチ,0
290,1490003002010,新規,0,2025-04-30,2025-04-30,すみずみ合同会社,,合同会社,高知県,吾川郡仁淀川町,岩柄１１８番地,,39,387,7811615,,,,,,,2025-04-30,1,,,,,スミズミ,0
291,1500003003502,新規,0,2025-04-30,2025-04-30,ＴｈａｎＫ合同会社,,合同会社,愛媛県,松山市,南吉田町９９５番地１１,,38,201,7918042,,,,,,,2025-04-30,1,,,,,サンク,0
292,1700150130277,新規,0,2025-04-30,2025-04-30,環驅科技香港有限公司,,外国会社等,東京都,江東区,青海２丁目７－４ｔｈｅＳＯＨＯビル１１階１１１８号室,,13,108,1350064,中華人民共和国香港特別行政区九龍油尖旺尖沙咀金馬倫道２３號２５－Ａ金馬倫廣場１０階Ｅ号室,,,,,,2025-04-30,1,,,,,カンクカギホンコンユウゲンコウシ,0
303,2010001254600,新規,0,2025-04-30,2025-04-30,アンカーアプレイザルアドバイザリー株式会社,,株式会社,東京都,中央区,日本橋兜町１７番２号兜町第６葉山ビル４階,,13,102,1030026,,,,,,,2025-04-30,1,,,,,アンカーアプレイザルアドバイザリー,0
304,2010001254658,新規,0,2025-04-30,2025-04-30,株式会社トキノメシ,,株式会社,東京都,千代田区,神田三崎町３丁目６番１号ＢＡＣＨビル２Ｆザ・ゴーストレストラン００５,,13,101,1010061,,,,,,,2025-04-30,1,,,,,トキノメシ,0
311,2010401189669,新規,0,2025-04-30,2025-04-30,Ｇｏｏｄ　Ｌｉｆｅ株式会社,,株式会社,東京都,港区,麻布十番２丁目１２番５号コンフォート麻布,,13,103,1060045,,,,,,,2025-04-30,1,,,,,グッドライフ,0
312,2010401189702,新規,0,2025-04-30,2025-04-30,株式会社ＡＩＨＯＢＳ,,株式会社,東京都,港区,港南２丁目１６番１号品川イーストワンタワー７Ｆ,,13,103,1080075,,,,,,,2025-04-30,1,,,,,アイホブス,0
313,2010401189818,新規,0,2025-04-30,2025-04-30,クレド株式会社,,株式会社,東京都,港区,三田３丁目２番１－７１０号,,13,103,1080073,,,,,,,2025-04-30,1,,,,,クレド,0
314,2010401190081,新規,0,2025-04-30,2025-04-30,株式会社ＫＢＢ,,株式会社,東京都,港区,南青山３丁目１番３６号青山丸竹ビル６Ｆ,,13,103,1070062,,,,,,,2025-04-30,1,,,,,ケービービー,0
323,2010605004442,新規,0,2025-04-30,2025-04-30,ＵＡゼンセンイオングループ労働組合連合会マックスバリュ関東ワーカーズユニオン,,その他の設立登記法人,東京都,江東区,亀戸５丁目３０番３号,,13,108,1360071,,,,,,,2025-04-30,1,,,,,ユーエイゼンリングループマックスバリュカントウワーカーズユニオン,0
330,2010901057268,新規,0,2025-04-30,2025-04-30,吉形ホームズマネジメント株式会社,00138955,株式会社,東京都,世田谷区,成城２丁目１６番２１号,,13,112,1570066,,,,,,,2025-04-30,1,,,,,ヨシカタホームズマネジメント,0
331,2010903009886,新規,0,2025-04-30,2025-04-30,合同会社Ｉｍｍａｎｉａ,,合同会社,東京都,世田谷区,用賀１丁目１４番１４号,,13,112,1580097,,,,,,,2025-04-30,1,,,,,イマニア,0
334,2011001169193,新規,0,2025-04-30,2025-04-30,株式会社ｌｕｄｏ,,株式会社,東京都,渋谷区,道玄坂１丁目１０番８号渋谷道玄坂東急ビル２Ｆ－Ｃ,,13,113,1500043,,,,,,,2025-04-30,1,,,,,ルド,0
335,2011001169210,新規,0,2025-04-30,2025-04-30,株式会社ｄｒｅａｌ　ｍａｔｅ,,株式会社,東京都,渋谷区,道玄坂１丁目１０番８号渋谷道玄坂東急ビル２Ｆ‐Ｃ,,13,113,1500043,,,,,,,2025-04-30,1,,,,,ドリアルメイト,0
336,2011003021501,新規,0,2025-04-30,2025-04-30,合同会社ロイヤルストーリー,,合同会社,東京都,渋谷区,桜丘町２３番１７号シティコート桜丘４０８,,13,113,1500031,,,,,,,2025-04-30,1,,,,,ロイヤルストーリー,0
340,2011201026310,新規,0,2025-04-30,2025-04-30,株式会社ＤＥＭＩＡＮ,,株式会社,東京都,中野区,白鷺２丁目１３番４－４０７号,,13,114,1650035,,,,,,,2025-04-30,1,,,,,デミアン,0
341,2011201026319,新規,0,2025-04-30,2025-04-30,株式会社Ｍｏｒ　Ｐｒｏｄｕｃｔｓ,,株式会社,東京都,中野区,南台４丁目１７番７号フラッツ南台２０３,,13,114,1640014,,,,,,,2025-04-30,1,,,,,モアプロダクツ,0
342,2011301030534,新規,0,2025-04-30,2025-04-30,エンユー空調株式会社,,株式会社,東京都,杉並区,今川３丁目１２番１４号,,13,115,1670035,,,,,,,2025-04-30,1,,,,,エンユークウチョウ,0
347,2011701028319,新規,0,2025-04-30,2025-04-30,日本東京久呻製薬株式会社,,株式会社,東京都,江戸川区,平井５丁目４５番５号渡辺ハイツ１０１,,13,123,1320035,,,,,,,2025-04-30,1,,,,,ニホントウキョウクシンセイヤク,0
349,2011703004219,新規,0,2025-04-30,2025-04-30,絆パスウエイズ合同会社,,合同会社,東京都,江戸川区,新堀１丁目３６－２,,13,123,1320001,,,,,,,2025-04-30,1,,,,,キズナパスウエイズ,0
350,2011801046047,新規,0,2025-04-30,2025-04-30,株式会社Ｆｏｏｄ　Ｅｍｏｔｉｏｎ,,株式会社,東京都,葛飾区,亀有３丁目２９番１－６０４号,,13,122,1250061,,,,,,,2025-04-30,1,,,,,フードエモーション,0
353,2012405005109,新規,0,2025-04-30,2025-04-30,一般社団法人ＡｒＤｅ,,その他の設立登記法人,東京都,小金井市,中町１丁目７番２９号,,13,210,1840012,,,,,,,2025-04-30,1,,,,,アルデ,0
356,2013101009683,新規,0,2025-04-30,2025-04-30,株式会社ＫＳ企画,,株式会社,東京都,青梅市,千ヶ瀬町２丁目２６１番地の５レヂオンス青梅パートＩＩ３０６,00138968,13,205,1980043,,,,,,,2025-04-30,1,,,,,ケーエスキカク,0
365,2020001162612,新規,0,2025-04-30,2025-04-30,スターマネージメント株式会社,,株式会社,神奈川県,川崎市多摩区,登戸２０５４番地１カーサルミノーサ登戸４０１号室,,14,135,2140014,,,,,,,2025-04-30,1,,,,,スターマネージメント,0
374,2021001085118,新規,0,2025-04-30,2025-04-30,株式会社也ー帆,,株式会社,神奈川県,相模原市中央区,千代田７丁目１番１８号,,14,152,2520237,,,,,,,2025-04-30,1,,,,,ヤーホ,0
388,2030001166257,新規,0,2025-04-30,2025-04-30,株式会社ＮＯＸＧＡＬＬＥＲＹ,,株式会社,埼玉県,越谷市,大字平方４８５番地,,11,222,3430002,,,,,,,2025-04-30,1,,,,,ノックスギャラリー,0
398,2040001138486,新規,0,2025-04-30,2025-04-30,株式会社虎ごろうａｎｄ　Ｋｕｕ,,株式会社,千葉県,木更津市,畑沢３丁目１１番２０号,,12,206,2920825,,,,,,,2025-04-30,1,,,,,トラゴロウアンドクウ,0
409,2050003009230,新規,0,2025-04-30,2025-04-30,Ｋｅｎ　Ｊａｐａｎ合同会社,,合同会社,茨城県,ひたちなか市,大字津田３０９３番地,,08,221,3120032,,,,,,,2025-04-30,1,,,,,ケンジャパン,0
410,2050005013619,新規,0,2025-04-30,2025-04-30,一般社団法人親なきあとのサポート協会,,その他の設立登記法人,茨城県,取手市,駒場４丁目１８番１０号レオパレスふくだＮｏ．２、１０３号室,,08,217,3020027,,,,,,,2025-04-30,1,,,,,オヤナキアトノサポートキョウカイ,0
413,2060001038164,新規,0,2025-04-30,2025-04-30,ｆａｒｍｉｅ株式会社,,株式会社,栃木県,下都賀郡壬生町,大字上稲葉１４６４番地１,,09,361,3210236,,,,,,,2025-04-30,1,,,,,ファーミー,0
414,2060003005526,新規,0,2025-04-30,2025-04-30,ＪＵ　ＩＮＴＥＲＮＡＴＩＯＮＡＬ合同会社,,合同会社,栃木県,栃木市,大平町下皆川２００５－４阿部ハイツ３号棟,,09,203,3294406,,,,,,,2025-04-30,1,,,,,ジェーユーインターナショナル,0
417,2070005010374,新規,0,2025-04-30,2025-04-30,一般社団法人群馬県柔道連盟,,その他の設立登記法人,群馬県,前橋市,総社町植野５５６番地３,,10,201,3710851,,,,,,,2025-04-30,1,,,,,グンマケンジュウドウレンメイ,0
430,2100001038556,新規,0,2025-04-30,2025-04-30,株式会社勝村,,株式会社,長野県,上田市,中央３丁目１４番１６号実のりビル１Ｆ‐Ａ,,20,203,3860012,,,,,,,2025-04-30,1,,,,,カツムラ,0
440,2120001274819,新規,0,2025-04-30,2025-04-30,株式会社よつば,,株式会社,大阪府,大阪市中央区,谷町７丁目４番３１号大南ビル３Ａ号室,,27,128,5420012,,,,,,,2025-04-30,1,,,,,ヨツバ,0
441,2120001274884,新規,0,2025-04-30,2025-04-30,株式会社フォーマルハウト,,株式会社,大阪府,大阪市都島区,東野田町３丁目１２番９号京橋プルトンビル３０７,,27,102,5340024,,,,,,,2025-04-30,1,,,,,フォーマルハウト,0
442,2120001274901,新規,0,2025-04-30,2025-04-30,千越株式会社,,株式会社,大阪府,大阪市北区,天満橋１丁目４－１４天満橋ビル２０２,,27,127,5300042,,,,,,,2025-04-30,1,,,,,センエツ,0
443,2120001274934,新規,0,2025-04-30,2025-04-30,日中文化教育株式会社,,株式会社,大阪府,大阪市城東区,東中浜６丁目１３－２３,,27,118,5360023,,,,,,,2025-04-30,1,,,,,ニッチュウブンカキョウイク,0
444,2120001274975,新規,0,2025-04-30,2025-04-30,Ｔｒｅａｓｕｒｅ　ＡＩ株式会社,,株式会社,大阪府,大阪市生野区,新今里６丁目９番１７－１０７号,,27,116,5440001,,,,,,,2025-04-30,1,,,,,トレジャーエーアイ,0
445,2120001275008,新規,0,2025-04-30,2025-04-30,我一喜株式会社,,株式会社,大阪府,大阪市天王寺区,北河堀町２番２号シェトワ北河堀５０３室,,27,109,5430053,,,,,,,2025-04-30,1,,,,,オイシイ,0
447,2120003029270,新規,0,2025-04-30,2025-04-30,合同会社Ｒ．Ｙ,,合同会社,大阪府,大阪市城東区,中央２丁目１４番コムズシティ野江Ａ５０５号,,27,118,5360005,,,,,,,2025-04-30,1,,,,,アールワイ,0
448,2120101071579,新規,0,2025-04-30,2025-04-30,株式会社クラフトレイル,,株式会社,大阪府,高石市,加茂４丁目７番４４号,,27,225,5920011,,,,,,,2025-04-30,1,,,,,クラフトレイル,0
450,2120103006426,新規,0,2025-04-30,2025-04-30,合同会社ＴＡＩＧＡ,,合同会社,大阪府,貝塚市,鳥羽２７９番地２７,,27,208,5970084,,,,,,,2025-04-30,1,,,,,タイガ,0
453,2122001039103,新規,0,2025-04-30,2025-04-30,全聯国際株式会社,,株式会社,大阪府,八尾市,渋川町６丁目３番２８号,,27,212,5810075,,,,,,,2025-04-30,1,,,,,ゼンレンコクサイ,0
454,2122001039136,新規,0,2025-04-30,2025-04-30,株式会社ＮＯ　ＬＩＭＩＴ,,株式会社,大阪府,東大阪市,小若江１丁目１３番７号ローレル長瀬１０２号,,27,227,5770818,,,,,,,2025-04-30,1,,,,,ノーリミット,0
455,2122001039144,新規,0,2025-04-30,2025-04-30,株式会社おおちゃん住まいる,,株式会社,大阪府,四條畷市,雁屋西町１８番１７号,,27,229,5750045,,,,,,,2025-04-30,1,,,,,オオチャンスマイル,0
456,2122003003180,新規,0,2025-04-30,2025-04-30,ＫＩＥＮリフォーム合同会社,,合同会社,大阪府,東大阪市,御厨栄町１丁目７番１八千代ハイツ５０２号,,27,227,5770036,,,,,,,2025-04-30,1,,,,,キェンリフォーム,0
462,2130001079523,新規,0,2025-04-30,2025-04-30,株式会社トラジャルコネクト,,株式会社,京都府,京都市伏見区,深草小久保町３０７番地アドラブール２０５号室,,26,109,6128437,,,,,,,2025-04-30,1,,,,,トラジャルコネクト,0
463,2130001079548,新規,0,2025-04-30,2025-04-30,株式会社Ｍａｍｂａ　Ｌｉｋｅ,,株式会社,京都府,京都市伏見区,西大手町３０７番地２１,,26,109,6128362,,,,,,,2025-04-30,1,,,,,マンバライク,0
464,2130001079572,新規,0,2025-04-30,2025-04-30,ｄｉｘｕｓ株式会社,,株式会社,京都府,京都市左京区,吉田牛ノ宮町１９－８,,26,103,6068302,,,,,,,2025-04-30,1,,,,,ディクサス,0
468,2130003010411,新規,0,2025-04-30,2025-04-30,合同会社エム・ティ・オー,,合同会社,京都府,京都市伏見区,向島二ノ丸町１５１番地５号７－７０４号室,,26,109,6128141,,,,,,,2025-04-30,1,,,,,エムティオー,0
471,2140003021985,新規,0,2025-04-30,2025-04-30,ＴａｉＬｅ合同会社,,合同会社,兵庫県,三木市,志染町中自由が丘２丁目６４９パインリーフ自由が丘３０１号室,,28,215,6730552,,,,,,,2025-04-30,1,,,,,タイレー,0
472,2140003021993,新規,0,2025-04-30,2025-04-30,合同会社ハマグリキングダム,,合同会社,兵庫県,西宮市,和上町８番１５号,,28,204,6620971,,,,,,,2025-04-30,1,,,,,ハマグリキングダム,0
473,2140003022001,新規,0,2025-04-30,2025-04-30,ｈａｒｕＪＴ合同会社,,合同会社,兵庫県,神戸市西区,樫野台６丁目３番地の１,,28,111,6512275,,,,,,,2025-04-30,1,,,,,ハルジェイティ,0
474,2140005027493,新規,0,2025-04-30,2025-04-30,医療法人社団浩里会,,その他の設立登記法人,兵庫県,三田市,あかしあ台１丁目４９番１号,,28,219,6691323,,,,,,,2025-04-30,1,,,,,コウリカイ,0
476,2150001028073,新規,0,2025-04-30,2025-04-30,株式会社ププラスポム,,株式会社,奈良県,北葛城郡上牧町,桜ケ丘３丁目３５番地１,,29,424,6390202,,,,,,,2025-04-30,1,,,,,ププラスポム,0
477,2150003003586,新規,0,2025-04-30,2025-04-30,食卓農園合同会社,,合同会社,奈良県,大和郡山市,北鍛冶町２７番地,,29,203,6391165,,,,,,,2025-04-30,1,,,,,ショクタクノウエン,0
485,2180001166572,新規,0,2025-04-30,2025-04-30,キスマン株式会社,,株式会社,愛知県,名古屋市中村区,高道町１丁目５番Ａ－１０７号,,23,105,4530037,,,,,,,2025-04-30,1,,,,,キスマン,0
489,2180003028374,新規,0,2025-04-30,2025-04-30,合同会社ａｋａｎｅｌ,,合同会社,愛知県,名古屋市中区,新栄１丁目１７番９,,23,106,4600007,,,,,,,2025-04-30,1,,,,,アカネル,0
490,2180003028408,新規,0,2025-04-30,2025-04-30,合同会社ＧＩＶＥＲＳＯＮ,,合同会社,愛知県,名古屋市名東区,朝日が丘１０１番地（ラ・メゾン藤ケ丘２－Ａ号）,,23,115,4650041,,,,,,,2025-04-30,1,,,,,ギヴァソン,0
495,2190001032179,新規,0,2025-04-30,2025-04-30,株式会社サムライナビゲート,,株式会社,三重県,四日市市,北浜田町１番２０号,,24,202,5100062,,,,,,,2025-04-30,1,,,,,サムライナビゲート,0
498,2200001043703,新規,0,2025-04-30,2025-04-30,株式会社ＡＭＣ,,株式会社,岐阜県,揖斐郡池田町,六之井字茅野１６３８番地１,,21,404,5032425,,,,,,,2025-04-30,1,,,,,エーエムシー,0
499,2210001020148,新規,0,2025-04-30,2025-04-30,株式会社ａｒｔ,,株式会社,福井県,福井市,和田東２丁目１７７１番地ＨＡＳビル２０１,,18,201,9188237,,,,,,,2025-04-30,1,,,,,アール,0
513,2270001009193,新規,0,2025-04-30,2025-04-30,株式会社ワイズテック,,株式会社,鳥取県,米子市,加茂町１丁目１６番地（５０４号）,,31,202,6830823,,,,,,,2025-04-30,1,,,,,ワイズテック,0
525,2310001019584,新規,0,2025-04-30,2025-04-30,株式会社パッション勝,,株式会社,長崎県,佐世保市,崎岡町８５３番地５６,,42,202,8593226,,,,,,,2025-04-30,1,,,,,パッションマサル,0
527,2320001021077,新規,0,2025-04-30,2025-04-30,株式会社ＹＵＫＯＴＥＣ,,株式会社,大分県,大分市,大字森町１１０９番地の４２,,44,201,8700127,,,,,,,2025-04-30,1,,,,,ユーコーテック,0
529,2330001033154,新規,0,2025-04-30,2025-04-30,株式会社東亜成光,,株式会社,熊本県,菊池郡菊陽町,大字津久礼２９４８番地２ボナールユートＢ棟２０３号,,43,404,8691101,,,,,,,2025-04-30,1,,,,,トウアセイコウ,0
534,2340001027295,新規,0,2025-04-30,2025-04-30,株式会社栄サービス,,株式会社,鹿児島県,姶良市,西姶良２丁目１３番１９号,,46,225,8995656,,,,,,,2025-04-30,1,,,,,サカエサービス,0
537,2340003004838,新規,0,2025-04-30,2025-04-30,空と森合同会社,,合同会社,鹿児島県,鹿児島市,唐湊１丁目１１番２４号野村ビル３Ｆ,,46,201,8900081,,,,,,,2025-04-30,1,,,,,ソラトモリ,0
547,2370001052522,新規,0,2025-04-30,2025-04-30,株式会社ｉｓｔ,,株式会社,宮城県,仙台市太白区,南大野田２５番地の３,,04,104,9820015,,,,,,,2025-04-30,1,,,,,アイエスティー,0
548,2370003007061,新規,0,2025-04-30,2025-04-30,合同会社まちひとワークス,,合同会社,宮城県,石巻市,中央２丁目７―３８石巻ガスビル３Ｆ,,04,202,9860822,,,,,,,2025-04-30,1,,,,,マチヒトワークス,0
550,2400001017018,新規,0,2025-04-30,2025-04-30,株式会社カネマンＨＤ,,株式会社,岩手県,盛岡市,津志田一丁目６番１０号,,03,201,0200835,,,,,,,2025-04-30,1,,,,,カネマンホールディングス,0
551,2410001014146,新規,0,2025-04-30,2025-04-30,ヒカル商事株式会社,,株式会社,秋田県,仙北郡美郷町,本堂城回字本堂町８４番地１,,05,434,0191512,,,,,,,2025-04-30,1,,,,,ヒカルショウジ,0
558,2430001094277,新規,0,2025-04-30,2025-04-30,ｎｉｔａｙ株式会社,,株式会社,北海道,札幌市中央区,南二条西５丁目３１－１ＲＭＢｌｄ．７０１,,01,101,0600062,,,,,,,2025-04-30,1,,,,,ニタイ,0
561,2430003017566,新規,0,2025-04-30,2025-04-30,合同会社香和,,合同会社,北海道,札幌市清田区,清田八条２丁目２２番１１号,,01,110,0040848,,,,,,,2025-04-30,1,,,,,カグワ,0
562,2440003001684,新規,0,2025-04-30,2025-04-30,合同会社Ｍ＆Ｋ,,合同会社,北海道,茅部郡森町,字森川町２９５番地２０,,01,345,0492313,,,,,,,2025-04-30,1,,,,,エムアンドケイ,0
565,2470001020691,新規,0,2025-04-30,2025-04-30,株式会社大夢,,株式会社,香川県,善通寺市,与北町１５７３番地１,,37,204,7650040,,,,,,,2025-04-30,1,,,,,タイム,0
574,3010003047200,新規,0,2025-04-30,2025-04-30,合同会社マルスピ代行,,合同会社,東京都,千代田区,西神田１丁目４番１号セントパレス西神田３０２号,,13,101,1010065,,,,,,,2025-04-30,1,,,,,マルスピダイコウ,0
575,3010003047209,新規,0,2025-04-30,2025-04-30,合同会社一番町・守口プロパティー,,合同会社,東京都,千代田区,丸の内１丁目４番１号東京共同会計事務所内,,13,101,1000005,,,,,,,2025-04-30,1,,,,,イチバンチョウモリグチプロパティー,0
576,3010005039856,新規,0,2025-04-30,2025-04-30,行政書士法人Ｒｏｙａｌ　Ｓｐｈｅｒｅ,,その他の設立登記法人,東京都,中央区,新川１丁目２３－５ＯＮＥＳＨＩＮＫＡＷＡ１４０１,,13,102,1040033,,,,,,,2025-04-30,1,,,,,,0
577,3010005039914,新規,0,2025-04-30,2025-04-30,一般社団法人中国画学会・日本,,その他の設立登記法人,東京都,文京区,小石川４丁目２０番３号３０１,,13,105,1120002,,,,,,,2025-04-30,1,,,,,チュウゴクガガクカイニホン,0
578,3010005039996,新規,0,2025-04-30,2025-04-30,ＡＡＪＫ特定目的会社,,その他の設立登記法人,東京都,千代田区,霞が関３丁目２番５号,,13,101,1000013,,,,,,,2025-04-30,1,,,,,エーエージェーケー,0
581,3010401189874,新規,0,2025-04-30,2025-04-30,ＦＣＩ２株式会社,,株式会社,東京都,港区,六本木３丁目２番１号,,13,103,1060032,,,,,,,2025-04-30,1,,,,,エフシーアイツー,0
582,3010403034979,新規,0,2025-04-30,2025-04-30,合同会社白山,,合同会社,東京都,港区,北青山１丁目２番３号,,13,103,1070061,,,,,,,2025-04-30,1,,,,,シロヤマ,0
591,3010501053823,新規,0,2025-04-30,2025-04-30,株式会社ＩＫＹ　ＶＩＬＬＡＧＥ　ＤＥＶＥＬＯＰＭＥＮＴ,,株式会社,東京都,台東区,入谷１丁目９－６デュオ上野５０１,,13,106,1100013,,,,,,,2025-04-30,1,,,,,アイケイワイヴィレッジディベロウプメント,0
592,3010501054004,新規,0,2025-04-30,2025-04-30,ウェルスアソシエイツ株式会社,,株式会社,東京都,台東区,上野６丁目１番６号御徒町グリーンハイツ４１０号室,,13,106,1100005,,,,,,,2025-04-30,1,,,,,ウェルスアソシエイツ,0
594,3010601067203,新規,0,2025-04-30,2025-04-30,株式会社ポラリス,,株式会社,東京都,江東区,東砂８丁目１７番７号,,13,108,1360074,,,,,,,2025-04-30,1,,,,,ポラリス,0
603,3010801036098,新規,0,2025-04-30,2025-04-30,株式会社ＬＩＮＫＳ　ＴＯＫＹＯ,,株式会社,東京都,大田区,池上２丁目３番１５号,,13,111,1460082,,,,,,,2025-04-30,1,,,,,リンクストウキョウ,0
606,3010901057242,新規,0,2025-04-30,2025-04-30,株式会社Ｔｉｓｓｅｒ,,株式会社,東京都,世田谷区,駒沢３丁目２５番６－１０２号,,13,112,1540012,,,,,,,2025-04-30,1,,,,,ティセ,0
610,3011001169176,新規,0,2025-04-30,2025-04-30,株式会社トランジェネ,,株式会社,東京都,渋谷区,道玄坂１丁目１０番８号渋谷道玄坂東急ビル２Ｆ－Ｃ,,13,113,1500043,,,,,,,2025-04-30,1,,,,,トランジェネ,0
611,3011001169192,新規,0,2025-04-30,2025-04-30,株式会社Ｍｉｒｉｓｅ,,株式会社,東京都,渋谷区,恵比寿西２丁目８番４号ＥＸ恵比寿西ビル５階,,13,113,1500021,,,,,,,2025-04-30,1,,,,,ミライズ,0
612,3011003021500,新規,0,2025-04-30,2025-04-30,Ｉｎｔｅｌ　Ｆａｓｈｉｏｎ合同会社,,合同会社,東京都,渋谷区,恵比寿２丁目１４番４号ウェルスクエア恵比寿ＩＩ４０２,00138959,13,113,1500013,,,,,,,2025-04-30,1,,,,,インテルファッション,0
613,3011003021509,新規,0,2025-04-30,2025-04-30,合同会社Ｌｉｎｋｓ,,合同会社,東京都,渋谷区,渋谷２丁目１９－１５宮益坂ビルディング６０９,,13,113,1500002,,,,,,,2025-04-30,1,,,,,リンクス,0
619,3011303005525,新規,0,2025-04-30,2025-04-30,プリマヴェーラ合同会社,,合同会社,東京都,杉並区,高井戸東２丁目１３番８号,,13,115,1680072,,,,,,,2025-04-30,1,,,,,プリマヴェーラ,0
621,3011403004682,新規,0,2025-04-30,2025-04-30,合同会社ＣＲＶ,,合同会社,東京都,板橋区,中台１丁目４７番７号,,13,119,1740064,,,,,,,2025-04-30,1,,,,,シーアールブイ,0
624,3011503006505,新規,0,2025-04-30,2025-04-30,ヴァロール合同会社,,合同会社,東京都,荒川区,荒川５丁目１７番１－６０１,,13,118,1160002,,,,,,,2025-04-30,1,,,,,ヴァロール,0
625,3011503006513,新規,0,2025-04-30,2025-04-30,合同会社ＭＳ　ＢＤ　ｉｎｔｅｒｎａｔｉｏｎａｌ,,合同会社,東京都,北区,豊島３丁目１３－１３第一楠美荘２０７号室,,13,117,1140003,,,,,,,2025-04-30,1,,,,,エムエスビーディーインターナショナル,0
627,3011603004664,新規,0,2025-04-30,2025-04-30,Ａｔａｋ　Ｃｏｎｓｕｌｔａｎｔ合同会社,,合同会社,東京都,練馬区,豊玉南２丁目２０－８コモンテラスウエスト２０３,,13,120,1760014,,,,,,,2025-04-30,1,,,,,エータックコンサルタント,0
629,3012303002149,新規,0,2025-04-30,2025-04-30,合同会社カナウ,,合同会社,東京都,町田市,広袴２丁目２－２,,13,209,1950056,,,,,,,2025-04-30,1,,,,,カナウ,0
636,3013301054149,新規,0,2025-04-30,2025-04-30,株式会社イリス,,株式会社,東京都,豊島区,池袋２丁目３６－１ＩＮＦＩＮＩＴＹＩＫＥＢＵＫＵＲＯ６Ｆ,,13,116,1710014,,,,,,,2025-04-30,1,,,,,イリス,0
643,3020001162611,新規,0,2025-04-30,2025-04-30,むすぼう株式会社,,株式会社,神奈川県,横浜市神奈川区,栄町１６番地５プレミスト横浜ポートサイド６０７号,,14,102,2210052,,,,,,,2025-04-30,1,,,,,ムスボウ,0
647,3020003028380,新規,0,2025-04-30,2025-04-30,合同会社Ｕｎｉｄｅｎｔ,,合同会社,神奈川県,横浜市西区,浅間町１丁目４番３号ウィザードビル４０２,,14,103,2200072,,,,,,,2025-04-30,1,,,,,ユナイデント,0
649,3021001085117,新規,0,2025-04-30,2025-04-30,株式会社岡田建築,,株式会社,神奈川県,平塚市,北金目８１８番地の２７,,14,203,2591207,,,,,,,2025-04-30,1,,,,,オカダケンチク,0
652,3021005013354,新規,0,2025-04-30,2025-04-30,一般社団法人Ｓｑｕａｒｅ　Ｐｌｕｓ,,その他の設立登記法人,神奈川県,茅ヶ崎市,甘沼１４４番地,,14,207,2530004,,,,,,,2025-04-30,1,,,,,スクエアプラス,0
655,3030001166280,新規,0,2025-04-30,2025-04-30,エスケー・エヌ・テック株式会社,,株式会社,埼玉県,川口市,大字安行原１１９６番地の５,,11,203,3340057,,,,,,,2025-04-30,1,,,,,エスケーエヌテック,0
670,3040001138485,新規,0,2025-04-30,2025-04-30,株式会社ＵＹパートナーズ,,株式会社,千葉県,柏市,中央町５番１６号穂高第２ブラザーズ柏２０１,,12,217,2770021,,,,,,,2025-04-30,1,,,,,ユーワイパートナーズ,0
671,3040001138519,新規,0,2025-04-30,2025-04-30,ＫＡＲＩＭＩ株式会社,,株式会社,千葉県,八街市,沖１６７０番地１２,,12,230,2891126,,,,,,,2025-04-30,1,,,,,カリミ,0
676,3040005022751,新規,0,2025-04-30,2025-04-30,あさぎ税理士法人,,その他の設立登記法人,千葉県,我孫子市,天王台３丁目３１番１９号,,12,222,2701143,,,,,,,2025-04-30,1,,,,,アサギ,0
684,3060001038163,新規,0,2025-04-30,2025-04-30,株式会社ココフレ,,株式会社,栃木県,佐野市,植野町１９５３番地１,,09,204,3270837,,,,,,,2025-04-30,1,,,,,ココフレ,0
692,3100001038555,新規,0,2025-04-30,2025-04-30,Ａ＆Ｊアセットマネジメント株式会社,,株式会社,長野県,上田市,中央北１丁目２番１１号,,20,203,3860011,,,,,,,2025-04-30,1,,,,,エーアンドジェイアセットマネジメント,0
694,3110001039214,新規,0,2025-04-30,2025-04-30,株式会社ブランラボ,,株式会社,新潟県,中魚沼郡津南町,大字中深見乙２８８３番地,,15,482,9498311,,,,,,,2025-04-30,1,,,,,ブランラボ,0
707,3120001274850,新規,0,2025-04-30,2025-04-30,山村運用株式会社,,株式会社,大阪府,大阪市北区,梅田１丁目２番２号大阪駅前第２ビル１２－１２,,27,127,5300001,,,,,,,2025-04-30,1,,,,,ヤマムラウンヨウ,0
708,3120001274900,新規,0,2025-04-30,2025-04-30,維欧国際貿易株式会社,,株式会社,大阪府,大阪市港区,市岡１丁目１２－１３－１０６,,27,107,5520012,,,,,,,2025-04-30,1,,,,,イオウコクサイボウエキ,0
709,3120001274925,新規,0,2025-04-30,2025-04-30,株式会社ＨＡＧＡ　ＥＸＰＲＥＳＳ,,株式会社,大阪府,大阪市北区,梅田１丁目１－３大阪駅前第３ビル２９階１－１－１号室,,27,127,5300001,,,,,,,2025-04-30,1,,,,,ハガエクスプレス,0
710,3120001274941,新規,0,2025-04-30,2025-04-30,日建不動産株式会社,,株式会社,大阪府,大阪市北区,曾根崎新地２丁目１番９号,,27,127,5300002,,,,,,,2025-04-30,1,,,,,ニッケンフドウサン,0
711,3120001274958,新規,0,2025-04-30,2025-04-30,株式会社アサイベーシス,,株式会社,大阪府,大阪市淀川区,西中島５丁目１番８号日研ビル７０４,,27,123,5320011,,,,,,,2025-04-30,1,,,,,アサイベーシス,0
712,3120001274982,新規,0,2025-04-30,2025-04-30,株式会社ことぶき,,株式会社,大阪府,大阪市北区,天満１丁目２６－１２朝日プラザ東天満１Ｆ,,27,127,5300043,,,,,,,2025-04-30,1,,,,,コトブキ,0
713,3120001274990,新規,0,2025-04-30,2025-04-30,株式会社Ｎｅｕｒａｌ　Ｅｄｇｅ,,株式会社,大阪府,大阪市中央区,南船場３丁目２番２２号おおきに南船場ビル２０５,,27,128,5420081,,,,,,,2025-04-30,1,,,,,ニューロエッジ,0
714,3120001275031,新規,0,2025-04-30,2025-04-30,虹色商事株式会社,,株式会社,大阪府,大阪市大正区,三軒家西３丁目４番１６号中山ビル３０２Ａ,,27,108,5510001,,,,,,,2025-04-30,1,,,,,コイロショウジ,0
715,3120001275048,新規,0,2025-04-30,2025-04-30,グローリー株式会社,,株式会社,大阪府,大阪市住之江区,北島２丁目１番２３号,,27,125,5590014,,,,,,,2025-04-30,1,,,,,グローリー,0
716,3120003029253,新規,0,2025-04-30,2025-04-30,Ｖｅｒｔ　Ｆｉｚｚ合同会社,,合同会社,大阪府,大阪市中央区,南船場３丁目２番２２号おおきに南船場ビル２０５,,27,128,5420081,,,,,,,2025-04-30,1,,,,,ヴェールフィズ,0
718,3120101071561,新規,0,2025-04-30,2025-04-30,株式会社ハヤシホールディングス,,株式会社,大阪府,堺市堺区,熊野町東４丁４番２０号,,27,141,5900946,,,,,,,2025-04-30,1,,,,,ハヤシホールディングス,0
719,3120101071578,新規,0,2025-04-30,2025-04-30,株式会社ＨＩＴＳＵＪＩ,,株式会社,大阪府,松原市,天美北３丁目１４番３アヴニール２０１号,,27,217,5800031,,,,,,,2025-04-30,1,,,,,ヒツジ,0
721,3120901050780,新規,0,2025-04-30,2025-04-30,株式会社ＣＲＥＳＣＩＴＡ,,株式会社,大阪府,摂津市,千里丘東５丁目１１番４－５０１号,,27,224,5660011,,,,,,,2025-04-30,1,,,,,クレシータ,0
729,3122001039135,新規,0,2025-04-30,2025-04-30,株式会社きさらぎ,,株式会社,大阪府,東大阪市,俊徳町２丁目８番２４号,,27,227,5770831,,,,,,,2025-04-30,1,,,,,キサラギ,0
730,3122001039143,新規,0,2025-04-30,2025-04-30,訪問介護ウエストヒル株式会社,,株式会社,大阪府,四條畷市,二丁通町１番８号,,27,229,5750044,,,,,,,2025-04-30,1,,,,,ホウモンカイゴウエストヒル,0
732,3130001079480,新規,0,2025-04-30,2025-04-30,株式会社森和,,株式会社,京都府,京都市右京区,太秦安井馬塚町１８－２０３号室,,26,108,6168077,,,,,,,2025-04-30,1,,,,,シンワ,0
733,3130001079547,新規,0,2025-04-30,2025-04-30,株式会社アコウ,,株式会社,京都府,南丹市,八木町八木嶋町田１番地,,26,213,6290153,,,,,,,2025-04-30,1,,,,,アコウ,0
734,3130001079555,新規,0,2025-04-30,2025-04-30,シイコ株式会社,,株式会社,京都府,京都市北区,上賀茂朝露ケ原町２５番地１１,,26,101,6038035,,,,,,,2025-04-30,1,,,,,シイコ,0
740,3140003022000,新規,0,2025-04-30,2025-04-30,合同会社ｋｏｋｏｎｉ,,合同会社,兵庫県,神戸市北区,西山１丁目１２番地６,,28,109,6511305,,,,,,,2025-04-30,1,,,,,ココニ,0
741,3140003022009,新規,0,2025-04-30,2025-04-30,ＰＯＬＵＸ合同会社,,合同会社,兵庫県,西脇市,前島町１９番地の１,,28,213,6770002,,,,,,,2025-04-30,1,,,,,ポルクス,0
745,3160003003460,新規,0,2025-04-30,2025-04-30,Ｌｕｍｉｎｏｕｓ合同会社,,合同会社,滋賀県,東近江市,野口町６０１番地４,,25,213,5270076,,,,,,,2025-04-30,1,,,,,ルミナス,0
754,3180001166563,新規,0,2025-04-30,2025-04-30,株式会社ｍａ‐ｃ,,株式会社,愛知県,名古屋市天白区,植田３丁目１３１０番地,,23,116,4680051,,,,,,,2025-04-30,1,,,,,マーシー,0
758,3180003028407,新規,0,2025-04-30,2025-04-30,合同会社Ｗｅａｌｔｈ,,合同会社,愛知県,名古屋市千種区,今池南１０番７号－２,,23,101,4640851,,,,,,,2025-04-30,1,,,,,ウェルス,0
769,3230001020871,新規,0,2025-04-30,2025-04-30,株式会社ヒグチ宣広,,株式会社,富山県,黒部市,荒町４９７番地１,,16,207,9380044,,,,,,,2025-04-30,1,,,,,ヒグチセンコウ,0
775,3250001021125,新規,0,2025-04-30,2025-04-30,株式会社ふく福,,株式会社,山口県,宇部市,大字西岐波１５４０番地６,,35,202,7550151,,,,,,,2025-04-30,1,,,,,フクフク,0
777,3260001040149,新規,0,2025-04-30,2025-04-30,株式会社高橋カメラ,,株式会社,岡山県,倉敷市,水島東栄町１１番２号,,33,202,7128033,,,,,,,2025-04-30,1,,,,,タカハシカメラ,0
790,3290003016739,新規,0,2025-04-30,2025-04-30,合同会社シェア,,合同会社,福岡県,春日市,白水池１丁目１６８―４,,40,218,8160848,,,,,,,2025-04-30,1,,,,,シェア,0
791,3290005019723,新規,0,2025-04-30,2025-04-30,一般社団法人日本表情筋ヨガ協会,,その他の設立登記法人,福岡県,福岡市東区,香椎照葉３丁目３番１－３３０１号,,40,131,8130017,,,,,,,2025-04-30,1,,,,,ニホンヒョウジョウキンヨガキョウカイ,0
797,3340001027294,新規,0,2025-04-30,2025-04-30,アシストホールディングス株式会社,,株式会社,鹿児島県,鹿児島市,西千石町１４番２号ＡＳＳＩＳＴビル４Ｆ,,46,201,8920847,,,,,,,2025-04-30,1,,,,,アシストホールディングス,0
799,3350001019506,新規,0,2025-04-30,2025-04-30,株式会社Ｍ‐ｎｏｓｈａ,,株式会社,宮崎県,宮崎市,源藤町池ノ内７５６－１１,,45,201,8800927,,,,,,,2025-04-30,1,,,,,エムノシャ,0
800,3360001035122,新規,0,2025-04-30,2025-04-30,株式会社鬼塚興業,00138957,株式会社,沖縄県,うるま市,与那城西原６４７番地エンジェルパレス３０２,,47,213,9042302,,,,,,,2025-04-30,1,,,,,オニヅカコウギョウ,0
809,3380003006020,新規,0,2025-04-30,2025-04-30,Ｓｈｆｌｉ合同会社,,合同会社,福島県,会津若松市,一箕町大字八幡字墓料１０７番地１,,07,202,9650003,,,,,,,2025-04-30,1,,,,,シャフリ,0
816,3430001094268,新規,0,2025-04-30,2025-04-30,中尚旅行株式会社,,株式会社,北海道,札幌市中央区,大通東８丁目１番地２１５ＫＭビル１階,,01,101,0600041,,,,,,,2025-04-30,1,,,,,チュウショウリョコウ,0
817,3430001094284,新規,0,2025-04-30,2025-04-30,株式会社ケアコン,,株式会社,北海道,札幌市中央区,北一条西２１丁目２番１２－２０３号,,01,101,0640821,,,,,,,2025-04-30,1,,,,,ケアコン,0
818,3430001094301,新規,0,2025-04-30,2025-04-30,知株式会社,,株式会社,北海道,札幌市中央区,南十一条西２１丁目３番１５－１１０１号,,01,101,0640811,,,,,,,2025-04-30,1,,,,,トモ,0
827,3490003002009,新規,0,2025-04-30,2025-04-30,合同会社ＡＢＥＮＴＡ,,合同会社,高知県,安芸郡芸西村,西分甲３１８４番地１,,39,307,7815703,,,,,,,2025-04-30,1,,,,,アベンタ,0
834,4010003047208,新規,0,2025-04-30,2025-04-30,合同会社舟入幸町・吉祥寺プロパティー,,合同会社,東京都,千代田区,丸の内１丁目４番１号東京共同会計事務所内,,13,101,1000005,,,,,,,2025-04-30,1,,,,,フナイリサイワイチョウキチジョウジプロパティー,0
835,4010003047216,新規,0,2025-04-30,2025-04-30,ヴァンティクス合同会社,,合同会社,東京都,中央区,築地４丁目１２番２号,,13,102,1040045,,,,,,,2025-04-30,1,,,,,ヴァンティクス,0
837,4010005039995,新規,0,2025-04-30,2025-04-30,ＡＡＪＫ一般社団法人,,その他の設立登記法人,東京都,千代田区,霞が関３丁目２番５号,,13,101,1000013,,,,,,,2025-04-30,1,,,,,エーエージェーケー,0
843,4010401189923,新規,0,2025-04-30,2025-04-30,ＢｕａＬｉｖｉｎｇ株式会社,,株式会社,東京都,港区,南青山４丁目１８番１１号フォレストヒルズイーストウィング２Ｆ,,13,103,1070062,,,,,,,2025-04-30,1,,,,,ブアリビング,0
844,4010403034978,新規,0,2025-04-30,2025-04-30,合同会社金岳,,合同会社,東京都,港区,北青山１丁目２番３号,,13,103,1070061,,,,,,,2025-04-30,1,,,,,キンダケ,0
847,4010501053946,新規,0,2025-04-30,2025-04-30,ｔｈｅ　ｐｅａｃｅ　ｃｏｍｐａｎｙ株式会社,,株式会社,東京都,台東区,清川１丁目２１－５ＷＡＬＬａｐａｒｔｍｅｎｔ５階大区画号室,,13,106,1110022,,,,,,,2025-04-30,1,,,,,ザピースカンパニー,0
848,4010501053979,新規,0,2025-04-30,2025-04-30,株式会社Ｌｏｎｇｅｖｉｔｙ,,株式会社,東京都,台東区,台東４丁目１番１０号,,13,106,1100016,,,,,,,2025-04-30,1,,,,,ロンジェビティ,0
856,4010801036080,新規,0,2025-04-30,2025-04-30,ＡＧ設備株式会社,,株式会社,東京都,大田区,池上４丁目２１番１７号コーポ藤田２０１号室,,13,111,1460082,,,,,,,2025-04-30,1,,,,,エージーセツビ,0
858,4010803005364,新規,0,2025-04-30,2025-04-30,合同会社ライズ,,合同会社,東京都,大田区,池上３丁目３６番７号,,13,111,1460082,,,,,,,2025-04-30,1,,,,,,0
869,4011001169183,新規,0,2025-04-30,2025-04-30,株式会社Ｓｔａｙｔｉｏｎ,,株式会社,東京都,渋谷区,道玄坂１丁目１０番８号渋谷道玄坂東急ビル２Ｆ－Ｃ,,13,113,1500043,,,,,,,2025-04-30,1,,,,,ステイション,0
870,4011001169200,新規,0,2025-04-30,2025-04-30,Ｎａｎｄｅ株式会社,,株式会社,東京都,渋谷区,渋谷２丁目１９番１５号宮益坂ビルディング６０９,,13,113,1500002,,,,,,,2025-04-30,1,,,,,ナンデ,0
871,4011001169209,新規,0,2025-04-30,2025-04-30,ＩＮＨＥＲＩＴ＆ＵＮＩＴＥ株式会社,,株式会社,東京都,渋谷区,渋谷２丁目１９番１９号ワコー宮益坂ビル５階,,13,113,1500002,,,,,,,2025-04-30,1,,,,,インヘリットアンドユナイト,0
872,4011001169547,新規,0,2025-04-30,2025-04-30,株式会社ＪＩＭＹＡＫ,,株式会社,東京都,渋谷区,千駄ヶ谷２丁目３－２ＡＳＴＩＬＥ原宿２０４,,13,113,1510051,,,,,,,2025-04-30,1,,,,,ジミャク,0
873,4011003021499,新規,0,2025-04-30,2025-04-30,合同会社ＳｎａｐＬｙｎｋ,,合同会社,東京都,渋谷区,神泉町１０番１５号アネックス神泉３０１,,13,113,1500045,,,,,,,2025-04-30,1,,,,,スナップリンク,0
874,4011003021508,新規,0,2025-04-30,2025-04-30,合同会社百戦錬磨,,合同会社,東京都,渋谷区,恵比寿４丁目５－２５シャンボール恵比寿３１６,,13,113,1500013,,,,,,,2025-04-30,1,,,,,ヒャクセンレンマ,0
879,4011101111565,新規,0,2025-04-30,2025-04-30,黎紅株式会社,,株式会社,東京都,新宿区,百人町１丁目１８－８大久保カドビル,,13,104,1690073,,,,,,,2025-04-30,1,,,,,レイコウ,0
880,4011103015839,新規,0,2025-04-30,2025-04-30,合同会社箱虎,,合同会社,東京都,新宿区,西新宿７丁目５番５号Ｐｌａｚａ西新宿ＵＣＦ４０６,,13,104,1600023,,,,,,,2025-04-30,1,,,,,パコトラ,0
881,4011201026309,新規,0,2025-04-30,2025-04-30,商潤株式会社,,株式会社,東京都,中野区,中央３丁目３‐４ＰＩＥＲ新中野２０２号室,,13,114,1640011,,,,,,,2025-04-30,1,,,,,ショウジュン,0
882,4011201026317,新規,0,2025-04-30,2025-04-30,伊藤隆一総合研究所株式会社,00138966,株式会社,東京都,中野区,中野２丁目１２番１２号オクト勧業ビル４Ｆ,,13,114,1640001,,,,,,,2025-04-30,1,,,,,イトウリュウイチソウゴウケンキュウジョ,0
883,4011203004675,新規,0,2025-04-30,2025-04-30,合同会社山宮商事,,合同会社,東京都,中野区,沼袋１丁目６番２０号,,13,114,1650025,,,,,,,2025-04-30,1,,,,,ヤマミヤショウジ,0
887,4011301030524,新規,0,2025-04-30,2025-04-30,株式会社デジウェイズ,,株式会社,東京都,杉並区,高円寺南４丁目４１－１０アップベース高円寺２０９,,13,115,1660003,,,,,,,2025-04-30,1,,,,,デジウェイズ,0
889,4011501031990,新規,0,2025-04-30,2025-04-30,株式会社イークラットサン,,株式会社,東京都,北区,志茂２丁目８番１４号ＬａＲｅｃｏｌｔｅ－２０２号,,13,117,1150042,,,,,,,2025-04-30,1,,,,,イークラットサン,0
890,4011501032007,新規,0,2025-04-30,2025-04-30,株式会社ＳＵ＆ＨＥＩＮ,,株式会社,東京都,北区,上中里１丁目４番１号ラ・ヴィータ駒込２０３号,,13,117,1140016,,,,,,,2025-04-30,1,,,,,スーアンドヘイン,0
891,4011501032015,新規,0,2025-04-30,2025-04-30,株式会社永吉,,株式会社,東京都,北区,赤羽２丁目２３番４号,,13,117,1150045,,,,,,,2025-04-30,1,,,,,ナガヨシ,0
894,4011601028615,新規,0,2025-04-30,2025-04-30,株式会社センター,,株式会社,東京都,練馬区,北町２丁目３６番４号１,,13,120,1790081,,,,,,,2025-04-30,1,,,,,センター,0
899,4011801046061,新規,0,2025-04-30,2025-04-30,株式会社ＨＯＰＥ,,株式会社,東京都,葛飾区,堀切７丁目２７番７号２０７,,13,122,1240006,,,,,,,2025-04-30,1,,,,,ホープ,0
904,4012701018828,新規,0,2025-04-30,2025-04-30,株式会社ヴェルデアクト,,株式会社,東京都,東村山市,秋津町２丁目６番地４０,,13,213,1890001,,,,,,,2025-04-30,1,,,,,ヴェルデアクト,0
909,4013303007657,新規,0,2025-04-30,2025-04-30,合同会社ハンディーナ,,合同会社,東京都,豊島区,東池袋２丁目６２番８号ＢＩＧオフィスプラザ池袋１２０６,,13,116,1700013,,,,,,,2025-04-30,1,,,,,ハンディーナ,0
914,4020003028181,新規,0,2025-04-30,2025-04-30,合同会社ＭＴ　Ｐｅａｃｅ,,合同会社,神奈川県,横浜市鶴見区,尻手１丁目２－１０,,14,101,2300003,,,,,,,2025-04-30,1,,,,,エムティピース,0
915,4020003028371,新規,0,2025-04-30,2025-04-30,ＤＩＣ合同会社,,合同会社,神奈川県,川崎市高津区,溝口６丁目２３－２５－４０２,,14,134,2130001,,,,,,,2025-04-30,1,,,,,ディーアイシー,0
918,4021001085116,新規,0,2025-04-30,2025-04-30,株式会社結ＬｉｆｕｌｌＳｕｐｐｏｒｔ,,株式会社,神奈川県,相模原市中央区,田名４３９８番地６,,14,152,2520244,,,,,,,2025-04-30,1,,,,,ユイライフルサポート,0
924,4030001166247,新規,0,2025-04-30,2025-04-30,株式会社ＩＢＩＳ,,株式会社,埼玉県,草加市,花栗４丁目１６番１６号,,11,221,3400044,,,,,,,2025-04-30,1,,,,,アイビス,0
929,4030003026671,新規,0,2025-04-30,2025-04-30,新概念合同会社,,合同会社,埼玉県,吉川市,吉川２丁目２４―１８―３０８,,11,243,3420055,,,,,,,2025-04-30,1,,,,,シンガイネン,0
936,4040001138360,新規,0,2025-04-30,2025-04-30,株式会社泰凜,,株式会社,千葉県,千葉市中央区,新千葉１丁目７－２ペリエ＋ｐｌｕｓビル０５号室,,12,101,2600031,,,,,,,2025-04-30,1,,,,,タイリン,0
937,4040001138501,新規,0,2025-04-30,2025-04-30,株式会社ｖｉｖｉｄｅｘ,,株式会社,千葉県,千葉市稲毛区,山王町１１９番地４ハッピースマイルＩ－３０４号,00138958,12,103,2630002,,,,,,,2025-04-30,1,,,,,ヴィヴィデックス,0
943,4060003005532,新規,0,2025-04-30,2025-04-30,メイプレオ合同会社,,合同会社,栃木県,宇都宮市,伝馬町１番１７号,,09,201,3200035,,,,,,,2025-04-30,1,,,,,メイプレオ,0
947,4080103003310,新規,0,2025-04-30,2025-04-30,合同会社ベストパートナー,,合同会社,静岡県,沼津市,旭町２９番地の１セイントメゾン１０５,,22,203,4100852,,,,,,,2025-04-30,1,,,,,ベストパートナー,0
948,4080405007736,新規,0,2025-04-30,2025-04-30,一般社団法人未来浜松,,その他の設立登記法人,静岡県,浜松市中央区,板屋町６０５,,22,138,4300928,,,,,,,2025-04-30,1,,,,,ミライハママツ,0
950,4100001038546,新規,0,2025-04-30,2025-04-30,株式会社ミツマツシステム,,株式会社,長野県,松本市,城東２丁目５番６号,,20,202,3900807,,,,,,,2025-04-30,1,,,,,ミツマツシステム,0
964,4120001274585,新規,0,2025-04-30,2025-04-30,アンドユナイト株式会社,,株式会社,大阪府,大阪市北区,東天満２丁目３番７－３３０５号,,27,127,5300044,,,,,,,2025-04-30,1,,,,,アンドユナイト,0
965,4120001274899,新規,0,2025-04-30,2025-04-30,ｍｕｄｅ株式会社,,株式会社,大阪府,大阪市中央区,内久宝寺町３丁目１－１５ウエストワン３０１号室,,27,128,5400013,,,,,,,2025-04-30,1,,,,,ムード,0
966,4120001274981,新規,0,2025-04-30,2025-04-30,株式会社ラーテル,,株式会社,大阪府,大阪市北区,中津６丁目８番３５号メゾン・ベルクレール４０３,,27,127,5310071,,,,,,,2025-04-30,1,,,,,ラーテル,0
967,4120001275014,新規,0,2025-04-30,2025-04-30,Ｇｒｅｅｎ　Ｈｅａｒｔ　Ｓｅｒｖｉｃｅ株式会社,,株式会社,大阪府,大阪市東淀川区,菅原４丁目４番４３－４Ｂ号,,27,114,5330022,,,,,,,2025-04-30,1,,,,,グリーンハートサービス,0
969,4120003029244,新規,0,2025-04-30,2025-04-30,やまの合同会社,,合同会社,大阪府,大阪市淀川区,田川１丁目１１番１０号,,27,123,5320027,,,,,,,2025-04-30,1,,,,,ヤマノ,0
970,4120003029252,新規,0,2025-04-30,2025-04-30,弘岸合同会社,,合同会社,大阪府,大阪市東淀川区,東中島１丁目１７番５号ステュディオ新大阪９０４号,,27,114,5330033,,,,,,,2025-04-30,1,,,,,コウガン,0
975,4122001039134,新規,0,2025-04-30,2025-04-30,株式会社プラステック,,株式会社,大阪府,八尾市,安中町８丁目８番１６号,,27,212,5810085,,,,,,,2025-04-30,1,,,,,プラステック,0
976,4122001039142,新規,0,2025-04-30,2025-04-30,株式会社ＫＨＡＮＧＴＨＩＮＨ,,株式会社,大阪府,東大阪市,岸田堂北町３番２０－１０１号,,27,227,5770846,,,,,,,2025-04-30,1,,,,,カンティン,0
981,4130001079496,新規,0,2025-04-30,2025-04-30,株式会社Ｉｎｈｅｒｉｔｅｄ　Ｋ,,株式会社,京都府,京都市中京区,木屋町二条東入る４８１ヴァルズビル１階西側,,26,104,6040961,,,,,,,2025-04-30,1,,,,,インハリテッドケー,0
982,4130001079538,新規,0,2025-04-30,2025-04-30,櫻伸美術株式会社,,株式会社,京都府,京都市南区,八条内田町１６番地,,26,107,6018475,,,,,,,2025-04-30,1,,,,,オウシンビジュツ,0
983,4130001079546,新規,0,2025-04-30,2025-04-30,セントラルアップ株式会社,,株式会社,京都府,八幡市,男山長沢２４番地４,,26,210,6148367,,,,,,,2025-04-30,1,,,,,セントラルアップ,0
995,4140001138268,新規,0,2025-04-30,2025-04-30,株式会社優リアルエステート,,株式会社,兵庫県,神戸市西区,伊川谷町長坂９７１番地の６９,,28,111,6512104,,,,,,,2025-04-30,1,,,,,ユウリアルエステート,0
996,4140001138342,新規,0,2025-04-30,2025-04-30,株式会社ＳＩＧＮＡＬ　ＪＡＰＡＮ,,株式会社,兵庫県,神戸市中央区,元町通４丁目２番１９号,,28,110,6500022,,,,,,,2025-04-30,1,,,,,シグナルジャパン,0
998,4140003021975,新規,0,2025-04-30,2025-04-30,ランドステージ合同会社,,合同会社,兵庫県,神戸市中央区,元町通６丁目６番１６号元町ＭＧレジデンスＩＩＩ１１０７,00138967,28,110,6500022,,,,,,,2025-04-30,1,,,,,ランドステージ,0
999,4140003021983,新規,0,2025-04-30,2025-04-30,ＡＣＥ　Ｒｏｐｅ　Ａｃｃｅｓｓ＆Ｒｅｓｃｕｅ合同会社,,合同会社,兵庫県,明石市,東山町２８０４番地の９３,,28,203,6730868,,,,,,,2025-04-30,1,,,,,エースロープアクセスアンドレスキュー,0
1003,4150001028071,新規,0,2025-04-30,2025-04-30,株式会社ＳＯＲＡ,,株式会社,奈良県,御所市,大字元町１０番地の６８,,29,208,6392301,,,,,,,2025-04-30,1,,,,,ソラ,0
1004,4170001018599,新規,0,2025-04-30,2025-04-30,株式会社Ｉ・Ｏ技建,,株式会社,和歌山県,和歌山市,森小手穂１３８３番地１,,30,201,6408312,,,,,,,2025-04-30,1,,,,,アイオーギケン,0
1009,4180001166546,新規,0,2025-04-30,2025-04-30,株式会社ＳＨＭＹ　ＰＲＯＭＯＴＩＯＮ,,株式会社,愛知県,名古屋市中区,千代田２丁目１９番２０号トーカンマンション鶴舞３０７,,23,106,4600012,,,,,,,2025-04-30,1,,,,,シュミイプロモーション,0
1010,4180001166587,新規,0,2025-04-30,2025-04-30,株式会社ネクシブル,,株式会社,愛知県,名古屋市名東区,猪子石１丁目４１０番地の２,,23,115,4650021,,,,,,,2025-04-30,1,,,,,ネクシブル,0
1011,4180001166595,新規,0,2025-04-30,2025-04-30,Ｃａｎａｌｅ　Ｊａｐａｎ株式会社,,株式会社,愛知県,一宮市,東加賀野井字江西３８番地１,,23,203,4940016,,,,,,,2025-04-30,1,,,,,カナーレジャパン,0
1012,4180001166612,新規,0,2025-04-30,2025-04-30,株式会社Ｖｉｔａｌ　Ｐａｔｈ,,株式会社,愛知県,丹羽郡扶桑町,大字南山名字名護根１２４番地１,,23,362,4800105,,,,,,,2025-04-30,1,,,,,バイタルパス,0
1016,4180301039749,新規,0,2025-04-30,2025-04-30,株式会社トラストホールディングス,,株式会社,愛知県,岡崎市,東大友町字並木側１３番地１,,23,202,4440903,,,,,,,2025-04-30,1,,,,,トラストホールディングス,0
1020,4190003005016,新規,0,2025-04-30,2025-04-30,合同会社ｃｏｍｐｌｅｔｅ,,合同会社,三重県,津市,白塚町１９２４番地３,,24,201,5140101,,,,,,,2025-04-30,1,,,,,コンプリート,0
1022,4200001043726,新規,0,2025-04-30,2025-04-30,株式会社プラスサポート,,株式会社,岐阜県,羽島郡岐南町,徳田西２丁目３９番地の１テラスノバ岐南６０４号室,,21,302,5016017,,,,,,,2025-04-30,1,,,,,プラスサポート,0
1033,4240001064867,新規,0,2025-04-30,2025-04-30,株式会社シーエアー,,株式会社,広島県,東広島市,河内町中河内１６０１番地,,34,212,7392201,,,,,,,2025-04-30,1,,,,,シーエアー,0
1034,4240003007171,新規,0,2025-04-30,2025-04-30,合同会社Ｓｔｅｐｕｐ,,合同会社,広島県,広島市安芸区,矢野東５丁目１７番２号,,34,107,7360083,,,,,,,2025-04-30,1,,,,,ステップアップ,0
1035,4260001040156,新規,0,2025-04-30,2025-04-30,株式会社ＤＤＰホールディングス,,株式会社,岡山県,岡山市北区,富田４１３－４,,33,101,7000936,,,,,,,2025-04-30,1,,,,,ディーディーピーホールディングス,0
1037,4260003005157,新規,0,2025-04-30,2025-04-30,合同会社ｔｈｒｅｅ．Ｌ,,合同会社,岡山県,岡山市中区,藤崎６４６－１６,,33,102,7028006,,,,,,,2025-04-30,1,,,,,スリーエル,0
1044,4290001109865,新規,0,2025-04-30,2025-04-30,株式会社ユニフォームスタイル,,株式会社,福岡県,福岡市博多区,博多駅前１丁目２３番２号ＰａｒｋＦｒｏｎｔ博多駅前一丁目５Ｆ－Ｂ,,40,132,8120011,,,,,,,2025-04-30,1,,,,,ユニフォームスタイル,0
1052,4290003016762,新規,0,2025-04-30,2025-04-30,合同会社ＬｉｅｎＪｕ,,合同会社,福岡県,久留米市,山川野口町１番２３号,,40,203,8390816,,,,,,,2025-04-30,1,,,,,リアンジュ,0
1058,4290005019722,新規,0,2025-04-30,2025-04-30,一般社団法人九州・台湾未来研究所,,その他の設立登記法人,福岡県,福岡市中央区,赤坂１丁目１３番１０号赤坂有楽ビル３階,,40,133,8100042,,,,,,,2025-04-30,1,,,,,,0
1065,4320001021075,新規,0,2025-04-30,2025-04-30,株式会社ＭＯＣ,,株式会社,大分県,大分市,錦町１丁目１５番１２号,,44,201,8700024,,,,,,,2025-04-30,1,,,,,エムオーシー,0
1066,4330003010983,新規,0,2025-04-30,2025-04-30,合同会社樹,,合同会社,熊本県,山鹿市,鹿北町芋生４３４５番地,,43,208,8610602,,,,,,,2025-04-30,1,,,,,ジュ,0
1067,4340001027277,新規,0,2025-04-30,2025-04-30,株式会社４Ｓ,,株式会社,鹿児島県,鹿児島市,山田町２０８０－４,,46,201,8910104,,,,,,,2025-04-30,1,,,,,フォーエス,0
1081,4410003004093,新規,0,2025-04-30,2025-04-30,合同会社永華,,合同会社,秋田県,大館市,曲田字山田堤４１番地２,,05,204,0185603,,,,,,,2025-04-30,1,,,,,エイカ,0
1092,4430001094218,新規,0,2025-04-30,2025-04-30,株式会社ＥＬＰＩＳ,,株式会社,北海道,小樽市,錦町２番８号,,01,203,0470039,,,,,,,2025-04-30,1,,,,,エルピス,0
1093,4430001094267,新規,0,2025-04-30,2025-04-30,豊禾呈年株式会社,,株式会社,北海道,札幌市中央区,大通東８丁目１番地２１５ＫＭビル１階,,01,101,0600041,,,,,,,2025-04-30,1,,,,,ホウカテイネン,0
1106,5010001254647,新規,0,2025-04-30,2025-04-30,株式会社ｄｉｒｅｃｔＸ　Ｖｅｎｔｕｒｅｓ,,株式会社,東京都,千代田区,岩本町３丁目１１番１１号,,13,101,1010032,,,,,,,2025-04-30,1,,,,,ダイレクトエックスベンチャーズ,0
1112,5010003047207,新規,0,2025-04-30,2025-04-30,合同会社豊平・小豆沢・下馬プロパティー,,合同会社,東京都,千代田区,丸の内１丁目４番１号東京共同会計事務所内,,13,101,1000005,,,,,,,2025-04-30,1,,,,,トヨヒラアズサワシモウマプロパティー,0
1116,5010005039994,新規,0,2025-04-30,2025-04-30,一般社団法人ＲＩＳＥ‐Ａ,,その他の設立登記法人,東京都,中央区,日本橋室町１丁目７番１号,,13,102,1030022,,,,,,,2025-04-30,1,,,,,ライズエー,0
1119,5010401189848,新規,0,2025-04-30,2025-04-30,株式会社ｎｏｒｂｉｔ,,株式会社,東京都,港区,南青山４丁目１０番１２号ＶＩＣＯＬＯ南青山１０１,,13,103,1070062,,,,,,,2025-04-30,1,,,,,ノービット,0
1120,5010401189856,新規,0,2025-04-30,2025-04-30,ウォータースタジオ株式会社,,株式会社,東京都,港区,南麻布３丁目９番２７－２０２号,,13,103,1060047,,,,,,,2025-04-30,1,,,,,ウォータースタジオ,0
1121,5010401189955,新規,0,2025-04-30,2025-04-30,株式会社Ｉ　ＡＬＬ,,株式会社,東京都,港区,六本木４丁目５番１４号,,13,103,1060032,,,,,,,2025-04-30,1,,,,,アイオール,0
1126,5010501053961,新規,0,2025-04-30,2025-04-30,株式会社Ｒｏｏｓｔａｒ,,株式会社,東京都,台東区,台東２丁目２８番３号９０２,,13,106,1100016,,,,,,,2025-04-30,1,,,,,ルースター,0
1127,5010501053978,新規,0,2025-04-30,2025-04-30,株式会社ＡＮＧＥＲＭＯ,,株式会社,東京都,台東区,駒形１丁目５－１６,,13,106,1110043,,,,,,,2025-04-30,1,,,,,アンジェルモ,0
1128,5010503007800,新規,0,2025-04-30,2025-04-30,合同会社ＢＭＴ,,合同会社,東京都,台東区,上野３丁目１５－７ＵｅｎｏＹｏｕｒ,,13,106,1100005,,,,,,,2025-04-30,1,,,,,ビーエムティー,0
1129,5010503007809,新規,0,2025-04-30,2025-04-30,合同会社盛商会,,合同会社,東京都,台東区,浅草２丁目１９番７－１１０４号,,13,106,1110032,,,,,,,2025-04-30,1,,,,,モリショウカイ,0
1130,5010603011537,新規,0,2025-04-30,2025-04-30,合同会社なぎとば,,合同会社,東京都,墨田区,江東橋４丁目１３番１４号,,13,107,1300022,,,,,,,2025-04-30,1,,,,,ナギトバ,0
1140,5010801036105,新規,0,2025-04-30,2025-04-30,アースデイ株式会社,,株式会社,東京都,大田区,田園調布４丁目２６番２号,,13,111,1450071,,,,,,,2025-04-30,1,,,,,アースデイ,0
1142,5010901057240,新規,0,2025-04-30,2025-04-30,ＭＥＮＵＷＩＺ株式会社,,株式会社,東京都,世田谷区,世田谷３丁目７番７号コリンシャトー３０４,,13,112,1540017,,,,,,,2025-04-30,1,,,,,メニューウィズ,0
1147,5011001169232,新規,0,2025-04-30,2025-04-30,株式会社ＧｒｏｗｔｈＦｉｅｌｄ,,株式会社,東京都,渋谷区,神南１丁目１１－４,,13,113,1500041,,,,,,,2025-04-30,1,,,,,グロースフィールド,0
1157,5011101111564,新規,0,2025-04-30,2025-04-30,株式会社マーキュリーグローバル,,株式会社,東京都,新宿区,西新宿１丁目２６番２号,,13,104,1600023,,,,,,,2025-04-30,1,,,,,マーキュリーグローバル,0
1162,5011401027056,新規,0,2025-04-30,2025-04-30,麗鶴商事株式会社,,株式会社,東京都,板橋区,徳丸１丁目１７番２号ＸＯ財託第三ビル３０３号室,,13,119,1750083,,,,,,,2025-04-30,1,,,,,レイツルショウジ,0
1164,5011503006503,新規,0,2025-04-30,2025-04-30,合同会社ナカムラ,,合同会社,東京都,北区,西が丘２丁目９番１５－２０２号,,13,117,1150056,,,,,,,2025-04-30,1,,,,,ナカムラ,0
1166,5011801046060,新規,0,2025-04-30,2025-04-30,株式会社ＬＩＮＣ,,株式会社,東京都,足立区,一ツ家４丁目６番１０号,,13,121,1210075,,,,,,,2025-04-30,1,,,,,リンク,0
1172,5012403007095,新規,0,2025-04-30,2025-04-30,ヤマトタケルマネジメント合同会社,,合同会社,東京都,三鷹市,下連雀８丁目５－５－１１３,,13,204,1810013,,,,,,,2025-04-30,1,,,,,ヤマトタケルマネジメント,0
1174,5012703003257,新規,0,2025-04-30,2025-04-30,合同会社Ｒｅｌｉｅｆ,,合同会社,東京都,西東京市,南町４丁目１２番３号,,13,229,1880012,,,,,,,2025-04-30,1,,,,,レリーフ,0
1182,5020001162618,新規,0,2025-04-30,2025-04-30,株式会社アクセラソリューションズ,,株式会社,神奈川県,横浜市磯子区,坂下町１１番３０－３０４号,,14,107,2350003,,,,,,,2025-04-30,1,,,,,アクセラソリューションズ,0
1190,5021001084926,新規,0,2025-04-30,2025-04-30,根恩株式会社,,株式会社,神奈川県,大和市,上草柳７丁目４番４号,,14,213,2420029,,,,,,,2025-04-30,1,,,,,ネオン,0
1191,5021001085016,新規,0,2025-04-30,2025-04-30,株式会社プリバーテクノロジー,,株式会社,神奈川県,大和市,中央林間３丁目１３番４号リベラ林間２階２０２号,,14,213,2420007,,,,,,,2025-04-30,1,,,,,プリバーテクノロジー,0
1192,5021001085115,新規,0,2025-04-30,2025-04-30,株式会社ＷＡＴ,,株式会社,神奈川県,茅ヶ崎市,南湖６丁目１４番２５－８号,,14,207,2530061,,,,,,,2025-04-30,1,,,,,ワット,0
1195,5021003015870,新規,0,2025-04-30,2025-04-30,ＯＩＴＡ　ＧＬＯＢＡＬ　ＬＡＮＫＡ合同会社,,合同会社,神奈川県,厚木市,関口４６５セントラルメゾン関口－１０１,,14,212,2430804,,,,,,,2025-04-30,1,,,,,オイタグローバルランカー,0
1196,5021003015920,新規,0,2025-04-30,2025-04-30,ＡとＡ合同会社,,合同会社,神奈川県,鎌倉市,雪ノ下１丁目３番４号,,14,204,2480005,,,,,,,2025-04-30,1,,,,,エートエー,0
1200,5030001166270,新規,0,2025-04-30,2025-04-30,株式会社空水堂,,株式会社,埼玉県,富士見市,鶴馬１丁目７番３６号,,11,235,3540021,,,,,,,2025-04-30,1,,,,,ソラシド,0
1212,5040001138483,新規,0,2025-04-30,2025-04-30,株式会社ＭＺＫ,,株式会社,千葉県,茂原市,千町９１１番地５２,,12,210,2970002,,,,,,,2025-04-30,1,,,,,エムゼットケイ,0
1213,5040001138500,新規,0,2025-04-30,2025-04-30,成田バイオフエル株式会社,,株式会社,千葉県,成田市,東町１５７番地１２－２Ｆ,,12,211,2860025,,,,,,,2025-04-30,1,,,,,ナリタバイオフエル,0
1217,5040003027445,新規,0,2025-04-30,2025-04-30,合同会社Ｌｅｏｎｙ,,合同会社,千葉県,流山市,東初石３丁目１０８番地の６４,,12,220,2700114,,,,,,,2025-04-30,1,,,,,レオニー,0
1221,5050001056585,新規,0,2025-04-30,2025-04-30,株式会社真,,株式会社,茨城県,つくば市,二の宮２丁目２番地２１ツインコート二の宮２０２号,,08,220,3050051,,,,,,,2025-04-30,1,,,,,シン,0
1223,5050003009203,新規,0,2025-04-30,2025-04-30,ＦＯＧ合同会社,,合同会社,茨城県,稲敷市,稲波２２９,,08,229,3000503,,,,,,,2025-04-30,1,,,,,エフオージー,0
1224,5060001038161,新規,0,2025-04-30,2025-04-30,鍼処ＦＵＪＩＮＵＭＡ株式会社,,株式会社,栃木県,栃木市,岩舟町静１２９１番地５,,09,203,3294307,,,,,,,2025-04-30,1,,,,,ハリドコロフジヌマ,0
1230,5070003005902,新規,0,2025-04-30,2025-04-30,合同会社ＯＤＥＬ　ＬＡＮＫＡ,,合同会社,群馬県,桐生市,小曽根町１０番２１－３号室,,10,203,3760000,,,,,,,2025-04-30,1,,,,,オデルランカ,0
1235,5080101025470,新規,0,2025-04-30,2025-04-30,株式会社いろはぴ,,株式会社,静岡県,沼津市,下香貫下障子３１５４－５,,22,203,4100822,,,,,,,2025-04-30,1,,,,,イロハピ,0
1237,5080403005253,新規,0,2025-04-30,2025-04-30,ジュカイジャパン合同会社,,合同会社,静岡県,浜松市天竜区,青谷６９５番地の２,,22,140,4313425,,,,,,,2025-04-30,1,,,,,ジュカイジャパン,0
1238,5080405007735,新規,0,2025-04-30,2025-04-30,土地家屋調査士法人はまかぜ,,その他の設立登記法人,静岡県,浜松市中央区,萩丘４丁目１０番２４号,,22,138,4338121,,,,,,,2025-04-30,1,,,,,ハマカゼ,0
1240,5100001038553,新規,0,2025-04-30,2025-04-30,株式会社重建,,株式会社,長野県,松本市,新橋３番２６号,,20,202,3900865,,,,,,,2025-04-30,1,,,,,ジュウケン,0
1249,5120001274898,新規,0,2025-04-30,2025-04-30,潤嘉株式会社,,株式会社,大阪府,大阪市北区,浮田２丁目１番３号ＭＢＣビル２０３,,27,127,5300021,,,,,,,2025-04-30,1,,,,,ジュンカ,0
1250,5120001274989,新規,0,2025-04-30,2025-04-30,レーン株式会社,,株式会社,大阪府,大阪市中央区,南船場３丁目２番２２号おおきに南船場ビル２０５,,27,128,5420081,,,,,,,2025-04-30,1,,,,,レーン,0
1251,5120001275046,新規,0,2025-04-30,2025-04-30,株式会社ＡｃｔｉｖｅＮｅｘｕｓ,,株式会社,大阪府,守口市,藤田町５丁目７番６号,,27,209,5700014,,,,,,,2025-04-30,1,,,,,アクティブネクサス,0
1253,5120003029219,新規,0,2025-04-30,2025-04-30,合同会社晴天,,合同会社,大阪府,大阪市生野区,巽東１丁目１２番５号,00138956,27,116,5440014,,,,,,,2025-04-30,1,,,,,セイテン,0
1254,5120003029243,新規,0,2025-04-30,2025-04-30,Ｓａｌａｒ　Ｍｏｔｏｒｓ合同会社,,合同会社,大阪府,大阪市住吉区,長居４丁目３番２３号,,27,120,5580003,,,,,,,2025-04-30,1,,,,,サラーモータース,0
1267,5130001079339,新規,0,2025-04-30,2025-04-30,株式会社Ｃｈｉｐｐｙ,,株式会社,京都府,京田辺市,松井ケ丘１丁目６番地４,,26,211,6100353,,,,,,,2025-04-30,1,,,,,チッピー,0
1268,5130001079479,新規,0,2025-04-30,2025-04-30,凛株式会社,,株式会社,京都府,長岡京市,久貝３丁目１番地１０号,,26,209,6170837,,,,,,,2025-04-30,1,,,,,リン,0
1269,5130001079512,新規,0,2025-04-30,2025-04-30,株式会社キチ,,株式会社,京都府,京都市左京区,一乗寺塚本町１５－２,,26,103,6068176,,,,,,,2025-04-30,1,,,,,キチ,0
1272,5130003010400,新規,0,2025-04-30,2025-04-30,ＥｑＬｉＥＲＲＥ合同会社,,合同会社,京都府,船井郡京丹波町,橋爪上中島１７番地４,,26,407,6220321,,,,,,,2025-04-30,1,,,,,エクリエール,0
1278,5140001138309,新規,0,2025-04-30,2025-04-30,ＴＥＮＴＥＮ株式会社,,株式会社,兵庫県,宝塚市,雲雀丘山手１丁目１５番１０号,,28,214,6650804,,,,,,,2025-04-30,1,,,,,テンテン,0
1279,5140003021982,新規,0,2025-04-30,2025-04-30,合同会社Ｒａｋｕｉｔｉ　Ｒａｋｕｚａ,,合同会社,兵庫県,神戸市中央区,元町通６丁目６番１６号元町ＭＧレジデンスＩＩＩ１１０７,00138970,28,110,6500022,,,,,,,2025-04-30,1,,,,,ラクイチラクザ,0
1280,5140003021999,新規,0,2025-04-30,2025-04-30,合同会社ドラゴンゲート,,合同会社,兵庫県,明石市,大久保町駅前１丁目３番地の３、２０５号,,28,203,6740058,,,,,,,2025-04-30,1,,,,,ドラゴンゲート,0
1282,5160001026718,新規,0,2025-04-30,2025-04-30,Ｌｉｆｅ　ｘ　Ｆｕｎ　ｐｒｏｊｅｃｔ株式会社,,株式会社,滋賀県,大津市,粟津町４番７号石山駅前近江鉄道ビル５階ｂｉｌｌａｇｅＯＴＳＵ５０３号,,25,201,5200832,,,,,,,2025-04-30,1,,,,,ライフファンプロジェクト,0
1290,5180001166578,新規,0,2025-04-30,2025-04-30,株式会社ＭＥ吉,,株式会社,愛知県,春日井市,大手田酉町３丁目２０番地１０,,23,206,4860806,,,,,,,2025-04-30,1,,,,,エムイーヨシ,0
1293,5180003028388,新規,0,2025-04-30,2025-04-30,ＳＵＴＥＫＩ　ＢＡＮＫ合同会社,,合同会社,愛知県,名古屋市中村区,椿町１３－１６サンオフィス４０３,,23,105,4530015,,,,,,,2025-04-30,1,,,,,ステキバンク,0
1294,5180003028405,新規,0,2025-04-30,2025-04-30,ＯＢＤ　ＪＰ合同会社,,合同会社,愛知県,稲沢市,中野元町３６番地２Ｆ,,23,220,4928392,,,,,,,2025-04-30,1,,,,,オービーデージェーピー,0
1298,5180301039764,新規,0,2025-04-30,2025-04-30,株式会社Ｇｒｉｚｚｌｙ　Ｂｅａｒ,,株式会社,愛知県,豊橋市,牟呂町字一本木３番地２,,23,201,4418087,,,,,,,2025-04-30,1,,,,,グリズリーベアー,0
1302,5200001043700,新規,0,2025-04-30,2025-04-30,藤島冷熱工業株式会社,,株式会社,岐阜県,岐阜市,茜部大川１丁目７４番地３ピープルハイツヒビノ２０６,,21,201,5008282,,,,,,,2025-04-30,1,,,,,フジシマレイネツコウギョウ,0
1304,5200003006779,新規,0,2025-04-30,2025-04-30,合同会社ＲＯメディア,,合同会社,岐阜県,岐阜市,山県岩７５１番地の２,,21,201,5012504,,,,,,,2025-04-30,1,,,,,アールオーメディア,0
1308,5230003002395,新規,0,2025-04-30,2025-04-30,合同会社ＰＡＶ　Ｊａｐａｎ,,合同会社,富山県,富山市,水落字高田割６０番地５,,16,201,9318301,,,,,,,2025-04-30,1,,,,,ピーエーブイジャパン,0
1321,5290005019721,新規,0,2025-04-30,2025-04-30,一般社団法人天神西通り発展会,,その他の設立登記法人,福岡県,福岡市中央区,大名１丁目１２番５号,,40,133,8100041,,,,,,,2025-04-30,1,,,,,テンジンニシドオリハッテンカイ,0
1323,5290801031490,新規,0,2025-04-30,2025-04-30,株式会社Ｈｏｒｓｅ　Ｓｈｅｅｐ　Ｍｏｎｋｅｙ,,株式会社,福岡県,北九州市戸畑区,浅生２丁目７番１２号,,40,105,8040062,,,,,,,2025-04-30,1,,,,,ホースシープモンキー,0
1328,5320001021066,新規,0,2025-04-30,2025-04-30,つくみらいホールディングス株式会社,,株式会社,大分県,津久見市,港町１番１５号,,44,207,8792442,,,,,,,2025-04-30,1,,,,,ツクミライホールディングス,0
1353,5430003017596,新規,0,2025-04-30,2025-04-30,ルスツ観光合同会社,,合同会社,北海道,虻田郡留寿都村,字三豊４９番地３,,01,397,0481724,,,,,,,2025-04-30,1,,,,,ルスツカンコウ,0
1366,6010001254605,新規,0,2025-04-30,2025-04-30,ヴァーテックス・ニュー・エナジー株式会社,,株式会社,東京都,中央区,銀座１丁目１９番１４号銀座ＯＮＥビル６階,,13,102,1040061,,,,,,,2025-04-30,1,,,,,ヴァーテックスニューエナジー,0
1367,6010003047206,新規,0,2025-04-30,2025-04-30,合同会社西院・武蔵中原プロパティー,,合同会社,東京都,千代田区,丸の内１丁目４番１号東京共同会計事務所内,,13,101,1000005,,,,,,,2025-04-30,1,,,,,サイインムサシナカハラプロパティー,0
1370,6010103002564,新規,0,2025-04-30,2025-04-30,合同会社ＭＷ,,合同会社,東京都,八王子市,横川町９８５番地３２,,13,201,1930823,,,,,,,2025-04-30,1,,,,,エムダブル,0
1377,6010401189855,新規,0,2025-04-30,2025-04-30,ＥｃｏＨｕｂ株式会社,,株式会社,東京都,港区,北青山１丁目３－３三橋ビル３階,,13,103,1070061,,,,,,,2025-04-30,1,,,,,エコハブ,0
1382,6010403034968,新規,0,2025-04-30,2025-04-30,合同会社ＢＭＥ,,合同会社,東京都,港区,北青山１丁目３番１号アールキューブ青山３階,,13,103,1070061,,,,,,,2025-04-30,1,,,,,ビミ,0
1386,6010501053977,新規,0,2025-04-30,2025-04-30,ＢＳＹ　ＧＲＯＵＰ日本株式会社,,株式会社,東京都,台東区,台東２丁目６－６号,,13,106,1100016,,,,,,,2025-04-30,1,,,,,ビーエスワイグループニホン,0
1387,6010503007808,新規,0,2025-04-30,2025-04-30,合同会社盛産業,,合同会社,東京都,台東区,浅草２丁目１９番７－１１０４号,,13,106,1110032,,,,,,,2025-04-30,1,,,,,モリサンギョウ,0
1397,6010801036104,新規,0,2025-04-30,2025-04-30,株式会社凱富商会,,株式会社,東京都,大田区,新蒲田１丁目１６番１－６０６号,,13,111,1440054,,,,,,,2025-04-30,1,,,,,カイフショウカイ,0
1399,6010805003174,新規,0,2025-04-30,2025-04-30,一般社団法人国際人財プロジェクト支援協会,,その他の設立登記法人,東京都,大田区,北千束３丁目３４番５－２０３号,,13,111,1450062,,,,,,,2025-04-30,1,,,,,コクサイジンザイプロジェクトシエンキョウカイ,0
1403,6011001169198,新規,0,2025-04-30,2025-04-30,アルマ株式会社,,株式会社,東京都,渋谷区,道玄坂１丁目１０番８号渋谷道玄坂東急ビル２Ｆ－Ｃ,,13,113,1500043,,,,,,,2025-04-30,1,,,,,アルマ,0
1404,6011001169363,新規,0,2025-04-30,2025-04-30,株式会社フィットワイズ,,株式会社,東京都,渋谷区,渋谷４丁目４－２５青山学院大学１４号館Ｎ１１００,,13,113,1500002,,,,,,,2025-04-30,1,,,,,フィットワイズ,0
1405,6011001169454,新規,0,2025-04-30,2025-04-30,株式会社ウェリズム,,株式会社,東京都,渋谷区,恵比寿西２丁目４番８号ウィンド恵比寿ビル８Ｆ,,13,113,1500021,,,,,,,2025-04-30,1,,,,,ウェリズム,0
1406,6011001169537,新規,0,2025-04-30,2025-04-30,株式会社カスクアンドフォレスト,,株式会社,東京都,渋谷区,千駄ヶ谷１丁目２０番１号,,13,113,1510051,,,,,,,2025-04-30,1,,,,,カスクアンドフォレスト,0
1413,6011101111530,新規,0,2025-04-30,2025-04-30,株式会社Ｂｏｍｂ　Ｃａｔｃｈ,,株式会社,東京都,新宿区,中落合１丁目２番２６号メイゾン落合４０３,,13,104,1610032,,,,,,,2025-04-30,1,,,,,ボムキャッチ,0
1418,6011301030555,新規,0,2025-04-30,2025-04-30,株式会社Ｃｈｉｔｏｓｅ,,株式会社,東京都,杉並区,阿佐谷南３丁目５０番１０号４０４号ローズハイツ荻窪,,13,115,1660004,,,,,,,2025-04-30,1,,,,,チトセ,0
1419,6011303005522,新規,0,2025-04-30,2025-04-30,ＳＵＧＡ　ＣＯＲＰＯＲＡＴＩＯＮ合同会社,,合同会社,東京都,杉並区,天沼２丁目１６番１１号ニューオギクボマンション１－２,,13,115,1670032,,,,,,,2025-04-30,1,,,,,スガコーポレーション,0
1425,6011603004686,新規,0,2025-04-30,2025-04-30,Ｎｏｂｉｓｈｉｒｏ合同会社,,合同会社,東京都,練馬区,高松５丁目１８－４－２０１,,13,120,1790075,,,,,,,2025-04-30,1,,,,,ノビシロ,0
1426,6011701028298,新規,0,2025-04-30,2025-04-30,ＧＬＯＢＡＬ　ＴＲＡＤＩＮＧ株式会社,,株式会社,東京都,江戸川区,東葛西６丁目４９番２号ラフィーナー葛西２０２,,13,123,1340084,,,,,,,2025-04-30,1,,,,,グローバルトレーディング,0
1427,6011801046035,新規,0,2025-04-30,2025-04-30,Ｋ．Ｍ．Ｉ株式会社,,株式会社,東京都,足立区,新田３丁目３５番２０－８１４号,,13,121,1230865,,,,,,,2025-04-30,1,,,,,ケーエムアイ,0
1428,6011801046068,新規,0,2025-04-30,2025-04-30,株式会社エムサーブ,,株式会社,東京都,葛飾区,東新小岩６丁目４番１１号,,13,122,1240023,,,,,,,2025-04-30,1,,,,,エムサーブ,0
1430,6012401043001,新規,0,2025-04-30,2025-04-30,株式会社ベクトルジャパンホールディングス,,株式会社,東京都,調布市,多摩川５丁目３６番地８５,,13,208,1820025,,,,,,,2025-04-30,1,,,,,ベクトルジャパンホールディングス,0
1431,6012401043042,新規,0,2025-04-30,2025-04-30,株式会社ＤａｔａＣｒｅｗ,,株式会社,東京都,三鷹市,上連雀２丁目６番９号,,13,204,1810012,,,,,,,2025-04-30,1,,,,,データクルー,0
1434,6012701018834,新規,0,2025-04-30,2025-04-30,小野木通商株式会社,,株式会社,東京都,東村山市,秋津町４丁目３１番５６号,,13,213,1890001,,,,,,,2025-04-30,1,,,,,オノギツウショウ,0
1435,6012703003256,新規,0,2025-04-30,2025-04-30,合同会社Ｆａｍｉ,,合同会社,東京都,清瀬市,下宿１丁目１９９－１２,,13,221,2040001,,,,,,,2025-04-30,1,,,,,,0
1441,6013303007647,新規,0,2025-04-30,2025-04-30,豐桐商事合同会社,,合同会社,東京都,豊島区,西池袋４丁目２７番１０－６０４号,,13,116,1710021,,,,,,,2025-04-30,1,,,,,ホウトウショウジ,0
1445,6020001162600,新規,0,2025-04-30,2025-04-30,株式会社Ｒｉｃｈｂｏｎｄ,,株式会社,神奈川県,横浜市中区,石川町１丁目５０番地３,,14,104,2310868,,,,,,,2025-04-30,1,,,,,リッチボンド,0
1446,6020001162609,新規,0,2025-04-30,2025-04-30,株式会社髭屋食堂,,株式会社,神奈川県,川崎市高津区,溝口１丁目１番２号溝の口駅前ストア,,14,134,2130001,,,,,,,2025-04-30,1,,,,,ヒゲヤショクドウ,0
1450,6020003028386,新規,0,2025-04-30,2025-04-30,合同会社ＮＥＮＥ　ＦＡＲＭ,,合同会社,神奈川県,横浜市西区,北幸２丁目１０番４８号むつみビル３階,,14,103,2200004,,,,,,,2025-04-30,1,,,,,ネネファーム,0
1451,6020003028394,新規,0,2025-04-30,2025-04-30,合同会社ｈａｎｄｓｉｇｎ,,合同会社,神奈川県,横浜市保土ケ谷区,上星川３丁目１１－７三好ビル１階,,14,106,2400042,,,,,,,2025-04-30,1,,,,,ハンドサイン,0
1453,6021001085106,新規,0,2025-04-30,2025-04-30,３Ｃ株式会社,,株式会社,神奈川県,厚木市,旭町１丁目２５番１－１３０８号,,14,212,2430014,,,,,,,2025-04-30,1,,,,,スリーシー,0
1454,6021001085130,新規,0,2025-04-30,2025-04-30,株式会社ＹＯＣＡ,,株式会社,神奈川県,逗子市,小坪１丁目１８－３９,,14,208,2490008,,,,,,,2025-04-30,1,,,,,ヨカ,0
1456,6021003015878,新規,0,2025-04-30,2025-04-30,ｋｕｒａｓｈｉ‐ｇｏｔｏ合同会社,,合同会社,神奈川県,茅ヶ崎市,南湖６丁目７番２２号,,14,207,2530061,,,,,,,2025-04-30,1,,,,,クラシゴト,0
1457,6021003015911,新規,0,2025-04-30,2025-04-30,フォーディータッチ合同会社,,合同会社,神奈川県,横須賀市,秋谷２丁目１３番３号,,14,201,2400105,,,,,,,2025-04-30,1,,,,,フォーディータッチ,0
1458,6021003015944,新規,0,2025-04-30,2025-04-30,Ｍ　Ｃｏｎｓｕｌｔｉｎｇ合同会社,,合同会社,神奈川県,三浦郡葉山町,堀内１８８５番地,,14,301,2400112,,,,,,,2025-04-30,1,,,,,エムコンサルティング,0
1464,6030001166245,新規,0,2025-04-30,2025-04-30,株式会社ピッコロ,,株式会社,埼玉県,比企郡嵐山町,大字平澤２２０９番地,,11,342,3550215,,,,,,,2025-04-30,1,,,,,ピッコロ,0
1465,6030001166253,新規,0,2025-04-30,2025-04-30,Ｙ・Ｊ株式会社,,株式会社,埼玉県,川口市,西川口１丁目３０番２０－６０９号,,11,203,3320021,,,,,,,2025-04-30,1,,,,,ワイジェイ,0
1468,6030003026661,新規,0,2025-04-30,2025-04-30,合同会社ＨＡＲＴ．,,合同会社,埼玉県,川口市,南鳩ヶ谷６丁目１９－２,,11,203,3340013,,,,,,,2025-04-30,1,,,,,ハートドット,0
1469,6030003026678,新規,0,2025-04-30,2025-04-30,ＩＢＵＫＩ合同会社,,合同会社,埼玉県,越谷市,神明町２丁目２５７－１クロシェット１０６,,11,222,3430805,,,,,,,2025-04-30,1,,,,,イブキ,0
1471,6040001138466,新規,0,2025-04-30,2025-04-30,かしわパブリックエネルギー株式会社,,株式会社,千葉県,柏市,柏５丁目１０番１号,,12,217,2770005,,,,,,,2025-04-30,1,,,,,カシワパブリックエネルギー,0
1472,6040001138532,新規,0,2025-04-30,2025-04-30,暁株式会社,,株式会社,千葉県,流山市,向小金１丁目２３８番地の１ファミールガーデン南柏２１４,,12,220,2700143,,,,,,,2025-04-30,1,,,,,アカツキ,0
1479,6040005022749,新規,0,2025-04-30,2025-04-30,医療法人社団方雄会,,その他の設立登記法人,千葉県,船橋市,本中山２丁目１５番１２号リリスポスト２階,,12,204,2730035,,,,,,,2025-04-30,1,,,,,シャダンホウユウカイ,0
1488,6070003005901,新規,0,2025-04-30,2025-04-30,合同会社ＳＡＫＵＲＡ　ＴＲＡＤＥＲＳ,,合同会社,群馬県,桐生市,小曽根町１０番２１－２号室,,10,203,3760000,,,,,,,2025-04-30,1,,,,,サクラトレダース,0
1498,6080401027884,新規,0,2025-04-30,2025-04-30,株式会社ｍｅｔｒｅｅ,,株式会社,静岡県,磐田市,川袋１４４４番地７,,22,211,4380232,,,,,,,2025-04-30,1,,,,,ミィツリー,0
1502,6080405007734,新規,0,2025-04-30,2025-04-30,特定非営利活動法人フードバンク遠州静岡,,その他の設立登記法人,静岡県,菊川市,下平川１３３７番地の１,,22,224,4371514,,,,,,,2025-04-30,1,,,,,フードバンクエンシュウシズオカ,0
1503,6100001038552,新規,0,2025-04-30,2025-04-30,株式会社シミズファーム,,株式会社,長野県,北佐久郡御代田町,大字草越４２８番地,,20,323,3890202,,,,,,,2025-04-30,1,,,,,シミズファーム,0
1510,6120001274848,新規,0,2025-04-30,2025-04-30,＿和富澤貿易株式会社,00138960,株式会社,大阪府,大阪市中央区,本町３丁目１－１５,,27,128,5410053,,,,,,,2025-04-30,1,,,,,ユウワトミサワボウエキ,0
1511,6120001274906,新規,0,2025-04-30,2025-04-30,株式会社海松露,,株式会社,大阪府,大阪市平野区,長吉長原東３丁目６－８,,27,126,5470013,,,,,,,2025-04-30,1,,,,,ウミショウロ,0
1512,6120001274947,新規,0,2025-04-30,2025-04-30,株式会社オンアーク,,株式会社,大阪府,大阪市北区,天満橋１丁目３番８号ＡＸＩＳＬＩＦＥ東天満１００１号室,,27,127,5300042,,,,,,,2025-04-30,1,,,,,オンアーク,0
1513,6120001275029,新規,0,2025-04-30,2025-04-30,株式会社華秀永益,,株式会社,大阪府,枚方市,出口１丁目１７番１－８１６号,,27,210,5730065,,,,,,,2025-04-30,1,,,,,カシュウエイエキ,0
1514,6120001275045,新規,0,2025-04-30,2025-04-30,在水一方株式会社,,株式会社,大阪府,大阪市城東区,鴫野西５丁目２０番２５号ユーミーハイツ鴫野２Ａ号室,,27,118,5360014,,,,,,,2025-04-30,1,,,,,ザイスイヒトガタ,0
1515,6120001275227,新規,0,2025-04-30,2025-04-30,株式会社ＷＩＳ,,株式会社,大阪府,枚方市,牧野本町１丁目２３‐６,,27,210,5731144,,,,,,,2025-04-30,1,,,,,ウィズ,0
1516,6120001275326,新規,0,2025-04-30,2025-04-30,栄澤株式会社,,株式会社,大阪府,大阪市住吉区,殿辻１丁目３－２１シティハイツ殿辻３０５,,27,120,5580042,,,,,,,2025-04-30,1,,,,,エイタク,0
1521,6120003029218,新規,0,2025-04-30,2025-04-30,ＮＴ合同会社,,合同会社,大阪府,大阪市生野区,巽北１丁目１－４,00138951,27,116,5440004,,,,,,,2025-04-30,1,,,,,エヌティ,0
1522,6120003029226,新規,0,2025-04-30,2025-04-30,広大工業合同会社,,合同会社,大阪府,大阪市生野区,小路東１丁目１６番３号,,27,116,5440003,,,,,,,2025-04-30,1,,,,,コウダイコウギョウ,0
1525,6120101071559,新規,0,2025-04-30,2025-04-30,モンターニュドーレ株式会社,,株式会社,大阪府,岸和田市,下池田町１丁目２０番８号,,27,202,5960811,,,,,,,2025-04-30,1,,,,,モンターニュドーレ,0
1526,6120101071575,新規,0,2025-04-30,2025-04-30,ＢＥＢＯ　ｂａｌａｎｃｅ株式会社,,株式会社,大阪府,河内長野市,古野町１０番５－２０１号,,27,216,5860017,,,,,,,2025-04-30,1,,,,,ビーボバランス,0
1527,6120103006422,新規,0,2025-04-30,2025-04-30,合同会社上代,,合同会社,大阪府,藤井寺市,道明寺６丁目１５番１３－２０１号,,27,226,5830012,,,,,,,2025-04-30,1,,,,,カミダイ,0
1534,6122001039157,新規,0,2025-04-30,2025-04-30,三金株式会社,,株式会社,大阪府,東大阪市,若江西新町４丁目６番１０－１０６号,,27,227,5780944,,,,,,,2025-04-30,1,,,,,サンキン,0
1541,6130001079544,新規,0,2025-04-30,2025-04-30,株式会社伝永,,株式会社,京都府,京都市中京区,上一文字町３１０－３０６号室,,26,104,6048325,,,,,,,2025-04-30,1,,,,,デンエイ,0
1556,6150003003590,新規,0,2025-04-30,2025-04-30,合同会社アクセント,,合同会社,奈良県,桜井市,大字箸中９２１番地の３,,29,206,6330072,,,,,,,2025-04-30,1,,,,,アクセント,0
1565,6180001166593,新規,0,2025-04-30,2025-04-30,ＲＫトレーディングジャパン株式会社,,株式会社,愛知県,名古屋市中区,栄１丁目３１番１２号トーカングランドマンション栄９２２号,,23,106,4600008,,,,,,,2025-04-30,1,,,,,,0
1566,6180001166610,新規,0,2025-04-30,2025-04-30,株式会社ワタベホールディングス,,株式会社,愛知県,名古屋市中村区,森田町１丁目４番２５号２０５,,23,105,4530036,,,,,,,2025-04-30,1,,,,,ワタベホールディングス,0
1571,6180003028404,新規,0,2025-04-30,2025-04-30,合同会社ＲＩＤＩＤＯ,,合同会社,愛知県,名古屋市緑区,ほら貝１丁目１４０番地の２,,23,114,4580013,,,,,,,2025-04-30,1,,,,,リディド,0
1575,6200001043708,新規,0,2025-04-30,2025-04-30,株式会社ゆずらむ,,株式会社,岐阜県,各務原市,尾崎北町６丁目５１,,21,213,5040002,,,,,,,2025-04-30,1,,,,,ユズラム,0
1580,6230001020869,新規,0,2025-04-30,2025-04-30,株式会社ＡＵＴＯ　ＨＵＢ　ＪＡＰＡＮ,,株式会社,富山県,小矢部市,五社１３１番地,,16,209,9320801,,,,,,,2025-04-30,1,,,,,オートハブジャパン,0
1581,6230001020877,新規,0,2025-04-30,2025-04-30,株式会社ＮＯＳＴＡＬＧＩＡ,,株式会社,富山県,射水市,稲積７６８番地８・２棟,,16,211,9390301,,,,,,,2025-04-30,1,,,,,ノスタルジア,0
1584,6240001064873,新規,0,2025-04-30,2025-04-30,株式会社ＡＣＥ,,株式会社,広島県,三次市,東酒屋町３８３番１０号,,34,209,7280023,,,,,,,2025-04-30,1,,,,,エース,0
1585,6250001021122,新規,0,2025-04-30,2025-04-30,株式会社トータルライフケアホールディングス,,株式会社,山口県,防府市,自由ケ丘１丁目５番４０号,,35,206,7470066,,,,,,,2025-04-30,1,,,,,トータルライフケアホールディングス,0
1587,6260001040138,新規,0,2025-04-30,2025-04-30,株式会社第七機械設計,,株式会社,岡山県,小田郡矢掛町,西川面１５３０番地２,,33,461,7141222,,,,,,,2025-04-30,1,,,,,ダイナナキカイセッケイ,0
1588,6260001040146,新規,0,2025-04-30,2025-04-30,株式会社ＮＥＸＴＡＧＥ,,株式会社,岡山県,岡山市北区,大和町１丁目５番５号ネクステージヤマト３００,,33,101,7000808,,,,,,,2025-04-30,1,,,,,ネクステージ,0
1589,6260001040154,新規,0,2025-04-30,2025-04-30,株式会社ＯＩＳＨＩ,,株式会社,岡山県,倉敷市,中畝１０丁目７－２１,,33,202,7128051,,,,,,,2025-04-30,1,,,,,オオイシ,0
1590,6260003005163,新規,0,2025-04-30,2025-04-30,ウエルコ合同会社,,合同会社,岡山県,苫田郡鏡野町,杉６３１番地,,33,606,7080424,,,,,,,2025-04-30,1,,,,,ウエルコ,0
1599,6290003016736,新規,0,2025-04-30,2025-04-30,合同会社Ｂｏｔｔｌｅｄ　Ｌｏｃａｌ,,合同会社,福岡県,久留米市,野中町４５６番地２,,40,203,8390862,,,,,,,2025-04-30,1,,,,,ボトルドローカル,0
1605,6310003005001,新規,0,2025-04-30,2025-04-30,合同会社ドスプロ,,合同会社,長崎県,大村市,竹松町８３７番地５,,42,205,8560803,,,,,,,2025-04-30,1,,,,,ドスプロ,0
1617,6360005007222,新規,0,2025-04-30,2025-04-30,特定非営利活動法人ＣＯｕＳＡ,,その他の設立登記法人,沖縄県,名護市,字真喜屋１１３番地,,47,209,9051143,,,,,,,2025-04-30,1,,,,,コウサ,0
1621,6380001035258,新規,0,2025-04-30,2025-04-30,ベル・タン株式会社,,株式会社,福島県,郡山市,三穂田町駒屋字北原４５番地,,07,203,9630128,,,,,,,2025-04-30,1,,,,,ベルダン,0
1622,6380001035274,新規,0,2025-04-30,2025-04-30,株式会社Ｒｅｖｉｖｅ,,株式会社,福島県,いわき市,内郷綴町一之坪５１番地の９クレスト１５１－１０２,,07,204,9738403,,,,,,,2025-04-30,1,,,,,リバイブ,0
1626,6380003006026,新規,0,2025-04-30,2025-04-30,ＡＢＫ電気設備管理合同会社,,合同会社,福島県,福島市,笹谷字中谷地２４番地の２,,07,201,9600241,,,,,,,2025-04-30,1,,,,,エービーケーデンキセツビカンリ,0
1627,6390001017973,新規,0,2025-04-30,2025-04-30,株式会社ｎａｎａ,,株式会社,山形県,山形市,南原町２丁目７番４４号,,06,201,9902413,,,,,,,2025-04-30,1,,,,,,0
1641,6470001020688,新規,0,2025-04-30,2025-04-30,株式会社フォレスト,,株式会社,香川県,高松市,木太町３２０３番地アルファステイツ木太ＩＩＩ６０４,00138974,37,201,7600080,,,,,,,2025-04-30,1,,,,,フォレスト,0
1646,6480003002262,新規,0,2025-04-30,2025-04-30,合同会社ＥＣＨＴ　Ｊａｐａｎ,,合同会社,徳島県,徳島市,南島田町２丁目３７番地の３,,36,201,7700053,,,,,,,2025-04-30,1,,,,,エヒトジャパン,0
1651,7010103002563,新規,0,2025-04-30,2025-04-30,華敬合同会社,,合同会社,東京都,八王子市,子安町１丁目４８番９号２０２室,,13,201,1920904,,,,,,,2025-04-30,1,,,,,カケイ,0
1657,7010403034827,新規,0,2025-04-30,2025-04-30,ＥＮ合同会社,,合同会社,東京都,港区,南青山６丁目１２－１１ＹＵＫＥＮ南青山４０１,,13,103,1070062,,,,,,,2025-04-30,1,,,,,エン,0
1658,7010403034918,新規,0,2025-04-30,2025-04-30,Ｐａｃｉｆｉｃ　Ｂａｙｓ　Ｃａｐｉｔａｌ　Ｊａｐａｎ　Ｐｅｔｒｏｌｅｕｍ１号２合同会社,,合同会社,東京都,港区,東麻布１丁目４番２－８０３号,,13,103,1060044,,,,,,,2025-04-30,1,,,,,パシフィックベイズキャピタルジャパンペトロリウムイチゴウニ,0
1667,7010801036103,新規,0,2025-04-30,2025-04-30,株式会社ココロゴト,,株式会社,東京都,大田区,仲池上２丁目１８番１４－４０３号,,13,111,1460081,,,,,,,2025-04-30,1,,,,,ココロゴト,0
1669,7010803005361,新規,0,2025-04-30,2025-04-30,ＢＬＡＮＣ　ＬＯＵＰ合同会社,,合同会社,東京都,大田区,南千束３丁目３番１０号,,13,111,1450063,,,,,,,2025-04-30,1,,,,,ブランルー,0
1670,7010901057271,新規,0,2025-04-30,2025-04-30,株式会社ＹＲＫイベントオフィス,,株式会社,東京都,世田谷区,桜丘４丁目２４番２３号,,13,112,1560054,,,,,,,2025-04-30,1,,,,,ワイアールケイイベントオフィス,0
1673,7011001169156,新規,0,2025-04-30,2025-04-30,株式会社スピードリンク,,株式会社,東京都,渋谷区,本町１丁目４－５ハイグランド１０２,,13,113,1510071,,,,,,,2025-04-30,1,,,,,スピードリンク,0
1674,7011001169189,新規,0,2025-04-30,2025-04-30,株式会社ジャストプロエンター,,株式会社,東京都,渋谷区,東２丁目２４番３号,,13,113,1500011,,,,,,,2025-04-30,1,,,,,ジャストプロエンター,0
1675,7011001169214,新規,0,2025-04-30,2025-04-30,株式会社クリーンアップグロー,,株式会社,東京都,渋谷区,恵比寿南１丁目１６番３号,,13,113,1500022,,,,,,,2025-04-30,1,,,,,クリーンアップグロー,0
1676,7011001169296,新規,0,2025-04-30,2025-04-30,ゼンシック株式会社,,株式会社,東京都,目黒区,下目黒１丁目１番１４号コノトラビル７Ｆ,,13,110,1530064,,,,,,,2025-04-30,1,,,,,ゼンシック,0
1677,7011003021570,新規,0,2025-04-30,2025-04-30,夢うつつ合同会社,,合同会社,東京都,渋谷区,神宮前６丁目２３‐４桑野ビル２Ｆ,,13,113,1500001,,,,,,,2025-04-30,1,,,,,ユメウツツ,0
1681,7011101111546,新規,0,2025-04-30,2025-04-30,株式会社Ｔｈｅｅ　Ｔｈｅｒａｐｅｕｔｉｃｓ,,株式会社,東京都,新宿区,西新宿３丁目３番１３号西新宿水間ビル２Ｆ,,13,104,1600023,,,,,,,2025-04-30,1,,,,,テセラピューティクス,0
1686,7011301030554,新規,0,2025-04-30,2025-04-30,株式会社ＹＭＯＲＩ,,株式会社,東京都,杉並区,上高井戸１丁目３１番１３号,,13,115,1680074,,,,,,,2025-04-30,1,,,,,ワイモリ,0
1692,7011501032004,新規,0,2025-04-30,2025-04-30,マイセーフティ株式会社,,株式会社,東京都,荒川区,町屋２丁目１６番８号イイダマンション４０２,,13,118,1160001,,,,,,,2025-04-30,1,,,,,マイセーフティ,0
1694,7011701028297,新規,0,2025-04-30,2025-04-30,株式会社ＳＴＲＡＴＥＱ,,株式会社,東京都,江戸川区,松島１丁目１６番１４号アルフラット２０１号室,,13,123,1320031,,,,,,,2025-04-30,1,,,,,ストラテック,0
1697,7011801046067,新規,0,2025-04-30,2025-04-30,ＶＶＳ株式会社,,株式会社,東京都,足立区,千住大川町４４番２７号,,13,121,1200031,,,,,,,2025-04-30,1,,,,,ヴィヴィエス,0
1698,7011803006829,新規,0,2025-04-30,2025-04-30,合同会社エムテック,,合同会社,東京都,足立区,一ツ家３丁目９番８－２０７号メトロステージ一ツ家,,13,121,1210075,,,,,,,2025-04-30,1,,,,,エムテック,0
1702,7012701018825,新規,0,2025-04-30,2025-04-30,株式会社ＡＩＣｏｒｅ,,株式会社,東京都,小平市,花小金井南町１丁目３－１１シティテラス小金井公園Ｃ棟５６１室,,13,211,1870003,,,,,,,2025-04-30,1,,,,,エーアイコア,0
1704,7012803003717,新規,0,2025-04-30,2025-04-30,合同会社ｗａｖｅ,,合同会社,東京都,立川市,緑町７番地の２サンクタス立川Ｔ１－４０２号,,13,202,1900014,,,,,,,2025-04-30,1,,,,,ウェイブ,0
1719,7021001085055,新規,0,2025-04-30,2025-04-30,ＭＺＫ株式会社,,株式会社,神奈川県,横須賀市,津久井３丁目１３番１２号,,14,201,2390843,,,,,,,2025-04-30,1,,,,,エムゼットケー,0
1720,7021001085113,新規,0,2025-04-30,2025-04-30,株式会社Ｓｌｅｅｋ,,株式会社,神奈川県,藤沢市,湘南台２丁目１０番地５アンドウビル４Ｆ・５Ｆ,,14,205,2520804,,,,,,,2025-04-30,1,,,,,スリーク,0
1722,7021003015927,新規,0,2025-04-30,2025-04-30,合同会社霊溯,,合同会社,神奈川県,横須賀市,日の出町１丁目６番地リアライズ横須賀、横須賀中央オフィス１４号室,,14,201,2380006,,,,,,,2025-04-30,1,,,,,レイソ,0
1734,7030001166269,新規,0,2025-04-30,2025-04-30,リベルテ株式会社,,株式会社,埼玉県,さいたま市北区,日進町２丁目１２９８番地５フレアレジデンス１０３,,11,102,3310823,,,,,,,2025-04-30,1,,,,,リベルテ,0
1735,7030001166277,新規,0,2025-04-30,2025-04-30,株式会社ＥＭＥ,,株式会社,埼玉県,富士見市,大字水子６２１番地１,,11,235,3540011,,,,,,,2025-04-30,1,,,,,エメ,0
1743,7030003026669,新規,0,2025-04-30,2025-04-30,明和工業合同会社,,合同会社,埼玉県,さいたま市南区,曲本１丁目９－２－２０２号室,,11,108,3360033,,,,,,,2025-04-30,1,,,,,メイワコウギョウ,0
1744,7030003026677,新規,0,2025-04-30,2025-04-30,合同会社いちのせきワークス,,合同会社,埼玉県,川口市,末広１丁目３番３１－３０４号,,11,203,3320006,,,,,,,2025-04-30,1,,,,,イチノセキワークス,0
1746,7040001138473,新規,0,2025-04-30,2025-04-30,Ｋ‐ＳＴＥＥＬ株式会社,,株式会社,千葉県,印西市,松崎台２丁目３番地５,,12,231,2701338,,,,,,,2025-04-30,1,,,,,ケースチール,0
1747,7040001138515,新規,0,2025-04-30,2025-04-30,株式会社Ｌｕｍｏｓ,,株式会社,千葉県,東金市,北幸谷１１２９番地２,,12,213,2830047,,,,,,,2025-04-30,1,,,,,ルーモス,0
1748,7040001138531,新規,0,2025-04-30,2025-04-30,ＯＤＹ株式会社,,株式会社,千葉県,山武市,木原１７４番地３,,12,237,2891212,,,,,,,2025-04-30,1,,,,,オーディーワイ,0
1753,7040003027451,新規,0,2025-04-30,2025-04-30,合同会社ＦＩＤＥＬ,,合同会社,千葉県,印旛郡栄町,西６５０－２,,12,329,2701534,,,,,,,2025-04-30,1,,,,,フィデル,0
1763,7050005013622,新規,0,2025-04-30,2025-04-30,一般社団法人Ｈｉ　Ｓ．Ｓ．Ｄ,,その他の設立登記法人,茨城県,つくば市,松代１丁目１１番地２０フロントシティつくば松代４０３号,,08,220,3050035,,,,,,,2025-04-30,1,,,,,エイチアイエスエスディ,0
1767,7070001042895,新規,0,2025-04-30,2025-04-30,株式会社ｎｉｃｏｔｔｏ,,株式会社,群馬県,高崎市,下之城町８９５番地２５,,10,202,3700854,,,,,,,2025-04-30,1,,,,,ニコット,0
1768,7080003003449,新規,0,2025-04-30,2025-04-30,合同会社ＳＨＩＺＵＯＫＡ　ｂｌｏｏｍ,,合同会社,静岡県,藤枝市,上藪田１１９番地の１,,22,214,4260202,,,,,,,2025-04-30,1,,,,,シズオカブルーム,0
1785,7120001274905,新規,0,2025-04-30,2025-04-30,養和居株式会社,,株式会社,大阪府,大阪市中央区,船越町１丁目５－８ＳＴ．ＢＬＤ４１５号室,,27,128,5400036,,,,,,,2025-04-30,1,,,,,ヨウワイ,0
1786,7120001274954,新規,0,2025-04-30,2025-04-30,株式会社ＭＫ建設工業,,株式会社,大阪府,大阪市城東区,蒲生１丁目８番３２号千寿シークＩＩＩ１階１Ｄ号室,00138953,27,118,5360016,,,,,,,2025-04-30,1,,,,,エムケーケンセツコウギョウ,0
1787,7120001275036,新規,0,2025-04-30,2025-04-30,ＤＡＴＡＧＮＳＳ株式会社,,株式会社,大阪府,大阪市城東区,鴫野西５丁目１５番７－３０３号,,27,118,5360014,,,,,,,2025-04-30,1,,,,,データジーエヌエスエス,0
1788,7120001275052,新規,0,2025-04-30,2025-04-30,ツール株式会社,,株式会社,大阪府,大阪市中央区,上町１丁目２４番７－５０１号,,27,128,5400005,,,,,,,2025-04-30,1,,,,,ツール,0
1789,7120001275390,新規,0,2025-04-30,2025-04-30,リジェネホーム株式会社,,株式会社,大阪府,大阪市大正区,平尾３丁目１２番１７号,,27,108,5510012,,,,,,,2025-04-30,1,,,,,リジェネホーム,0
1791,7120003029225,新規,0,2025-04-30,2025-04-30,美容ドクターズ合同会社,,合同会社,大阪府,大阪市都島区,都島中通２丁目１５番７号,,27,102,5340022,,,,,,,2025-04-30,1,,,,,ビヨウドクターズ,0
1792,7120003029241,新規,0,2025-04-30,2025-04-30,２Ｈ合同会社,,合同会社,大阪府,大阪市西成区,松３丁目１１番２２号３０３号室,,27,122,5570034,,,,,,,2025-04-30,1,,,,,ツーエッチ,0
1793,7120003029357,新規,0,2025-04-30,2025-04-30,合同会社のだハチ,,合同会社,大阪府,大阪市福島区,玉川４丁目１０番２－７０６号,,27,103,5530004,,,,,,,2025-04-30,1,,,,,ノダハチ,0
1795,7120101071582,新規,0,2025-04-30,2025-04-30,株式会社サザンアセット,,株式会社,大阪府,泉南郡岬町,淡輪３４１０－７,,27,366,5990301,,,,,,,2025-04-30,1,,,,,サザンアセット,0
1802,7130003010407,新規,0,2025-04-30,2025-04-30,インフィニティＢ合同会社,,合同会社,京都府,京都市山科区,西野八幡田町２６番地１８メゾントリコロール３０２,,26,110,6078351,,,,,,,2025-04-30,1,,,,,インフィニティビー,0
1807,7140001138174,新規,0,2025-04-30,2025-04-30,株式会社Ｎｅｏ　Ｐｈｏ‐ｏｓ,,株式会社,兵庫県,姫路市,安田４丁目３１番地４安田ビル,,28,201,6700955,,,,,,,2025-04-30,1,,,,,ネオポーズ,0
1808,7140001138331,新規,0,2025-04-30,2025-04-30,プラチナム株式会社,,株式会社,兵庫県,伊丹市,船原２丁目５－２２,,28,207,6640896,,,,,,,2025-04-30,1,,,,,プラチナム,0
1809,7140003021980,新規,0,2025-04-30,2025-04-30,ＭＳＴ総合事業合同会社,,合同会社,兵庫県,伊丹市,緑ケ丘２丁目８番地の２,,28,207,6640012,,,,,,,2025-04-30,1,,,,,エムエスティーソウゴウジギョウ,0
1827,7180003028386,新規,0,2025-04-30,2025-04-30,合同会社Ｅｔｈｉｃａｌ　Ｓｈｉｆｔ,,合同会社,愛知県,名古屋市中村区,名駅４丁目２４番５号第２森ビル４０１,,23,105,4500002,,,,,,,2025-04-30,1,,,,,エシカルシフト,0
1832,7180303006546,新規,0,2025-04-30,2025-04-30,合同会社鈴木不動産管理,,合同会社,愛知県,豊川市,平井町東野地４２番地Ｂ棟,,23,207,4410104,,,,,,,2025-04-30,1,,,,,スズキフドウサンカンリ,0
1834,7190001032182,新規,0,2025-04-30,2025-04-30,中央陸送株式会社,,株式会社,三重県,津市,芸濃町楠原１１０番地１,,24,201,5142201,,,,,,,2025-04-30,1,,,,,チュウオウリクソウ,0
1837,7230001020851,新規,0,2025-04-30,2025-04-30,株式会社Ｆｏｒｔｕｎｅ　Ｐｅａｋｓ,,株式会社,富山県,高岡市,御旅屋町１０１御旅屋セリオ４階,,16,202,9330029,,,,,,,2025-04-30,1,,,,,フォーチュンピークス,0
1838,7230001020876,新規,0,2025-04-30,2025-04-30,株式会社Ｇ‐ＬＥＶＥＬ．Ｍ,,株式会社,富山県,黒部市,堀切新２５８番地５,,16,207,9380025,,,,,,,2025-04-30,1,,,,,ジーレベルエム,0
1844,7260001040112,新規,0,2025-04-30,2025-04-30,株式会社グローバルメリット,,株式会社,岡山県,岡山市南区,阿津２８００番地,,33,104,7028015,,,,,,,2025-04-30,1,,,,,グローバルメリット,0
1845,7260001040153,新規,0,2025-04-30,2025-04-30,株式会社プライムビズ,,株式会社,岡山県,岡山市北区,幸町８番２５号岡山エクセルビル７Ｆ,,33,101,7000903,,,,,,,2025-04-30,1,,,,,プライムビズ,0
1846,7260003005162,新規,0,2025-04-30,2025-04-30,合同会社ＶＣＮＳ,,合同会社,岡山県,岡山市中区,古京町１丁目８番１２号ヴァンテ・アン古京町２０２号,,33,102,7038278,,,,,,,2025-04-30,1,,,,,ブイシーエヌエス,0
1857,7290003016751,新規,0,2025-04-30,2025-04-30,アドベンチャーライフ合同会社,,合同会社,福岡県,糟屋郡新宮町,美咲３丁目１番１号,,40,345,8110121,,,,,,,2025-04-30,1,,,,,アドベンチャーライフ,0
1865,7360003014855,新規,0,2025-04-30,2025-04-30,合同会社国祥,,合同会社,沖縄県,名護市,字辺野古１００９番２,,47,209,9052171,,,,,,,2025-04-30,1,,,,,コクショウ,0
1869,7370001052518,新規,0,2025-04-30,2025-04-30,株式会社ＮＥＯＺＥＲＯ,,株式会社,宮城県,仙台市青葉区,本町１丁目１２－１２ＧＭビルディング３階,,04,101,9800014,,,,,,,2025-04-30,1,,,,,ネオゼロ,0
1871,7380001035265,新規,0,2025-04-30,2025-04-30,株式会社一信,,株式会社,福島県,伊達市,保原町字柏町１１６番地４,,07,213,9600651,,,,,,,2025-04-30,1,,,,,イッシン,0
1874,7400001017021,新規,0,2025-04-30,2025-04-30,シトラスアニメーション株式会社,,株式会社,岩手県,八幡平市,星沢７４番地５,,03,214,0287556,,,,,,,2025-04-30,1,,,,,シトラスアニメーション,0
1876,7410001014133,新規,0,2025-04-30,2025-04-30,桜こまち株式会社,,株式会社,秋田県,仙北市,角館町横町１５,,05,215,0140323,,,,,,,2025-04-30,1,,,,,サクラコマチ,0
1890,7500001026268,新規,0,2025-04-30,2025-04-30,株式会社モアリッチ,,株式会社,愛媛県,松山市,中西外６７７番地２,,38,201,7992425,,,,,,,2025-04-30,1,,,,,モアリッチ,0
1891,7500003003496,新規,0,2025-04-30,2025-04-30,合同会社フィッシュ・リッチ,,合同会社,愛媛県,松山市,生石町２８９番地５,,38,201,7900051,,,,,,,2025-04-30,1,,,,,フィッシュリッチ,0
1898,8010001254132,新規,0,2025-04-30,2025-04-30,株式会社ワイズコーポレーション,,株式会社,東京都,中央区,日本橋２丁目１番１７号丹生ビル３Ｆ,,13,102,1030027,,,,,,,2025-04-30,1,,,,,,0
1899,8010001254157,新規,0,2025-04-30,2025-04-30,株式会社裕心,,株式会社,東京都,文京区,水道２丁目４番２１号,,13,105,1120005,,,,,,,2025-04-30,1,,,,,ユウシン,0
1904,8010005039991,新規,0,2025-04-30,2025-04-30,一般社団法人穂高岳,,その他の設立登記法人,東京都,千代田区,丸の内１丁目４番１号東京共同会計事務所内,,13,101,1000005,,,,,,,2025-04-30,1,,,,,ホタカダケ,0
1916,8010403034917,新規,0,2025-04-30,2025-04-30,Ｐａｃｉｆｉｃ　Ｂａｙｓ　Ｃａｐｉｔａｌ　Ｊａｐａｎ　Ｐｅｔｒｏｌｅｕｍ１号１合同会社,,合同会社,東京都,港区,東麻布１丁目４番２－８０３号,,13,103,1060044,,,,,,,2025-04-30,1,,,,,パシフィックベイズキャピタルジャパンペトロリウムイチゴウイチ,0
1917,8010405024313,新規,0,2025-04-30,2025-04-30,一般社団法人ＧＦＡファンド基金,,その他の設立登記法人,東京都,港区,南青山２丁目２番１５号,,13,103,1070062,,,,,,,2025-04-30,1,,,,,ジーエフエーファンドキキン,0
1921,8010601067215,新規,0,2025-04-30,2025-04-30,株式会社ワンダーズ,,株式会社,東京都,墨田区,東向島１丁目４番１４号,,13,107,1310032,,,,,,,2025-04-30,1,,,,,ワンダーズ,0
1922,8010603011534,新規,0,2025-04-30,2025-04-30,合同会社エスポワール,,合同会社,東京都,江東区,大島２丁目１３番１０号,,13,108,1360072,,,,,,,2025-04-30,1,,,,,エスポワール,0
1931,8010801036093,新規,0,2025-04-30,2025-04-30,株式会社えんびずむ,,株式会社,東京都,大田区,東雪谷２丁目２６番７号,,13,111,1450065,,,,,,,2025-04-30,1,,,,,エンビズム,0
1933,8010803005360,新規,0,2025-04-30,2025-04-30,合同会社エムツーマネジメント,,合同会社,東京都,大田区,北馬込２丁目３３番１７号コーラルハウスＡ棟１０１,,13,111,1430021,,,,,,,2025-04-30,1,,,,,エムツーマネジメント,0
1939,8011001168784,新規,0,2025-04-30,2025-04-30,株式会社ＥＮＳＥＲＡ,,株式会社,東京都,渋谷区,笹塚１丁目２６番４号,,13,113,1510073,,,,,,,2025-04-30,1,,,,,エンセラ,0
1940,8011001169155,新規,0,2025-04-30,2025-04-30,株式会社バギンズ,,株式会社,東京都,渋谷区,神南１丁目１１番４号ＦＰＧリンクス神南５階,,13,113,1500041,,,,,,,2025-04-30,1,,,,,バギンズ,0
1941,8011001169270,新規,0,2025-04-30,2025-04-30,株式会社ボイスオブアート,,株式会社,東京都,渋谷区,道玄坂１丁目１０番８号渋谷道玄坂東急ビル２Ｆ－Ｃ,,13,113,1500043,,,,,,,2025-04-30,1,,,,,ボイスオブアート,0
1942,8011001169444,新規,0,2025-04-30,2025-04-30,Ｒｅｎｇａ　Ｐａｒｔｎｅｒｓ株式会社,,株式会社,東京都,渋谷区,猿楽町１７番１０号代官山アートビレッジ２Ｃ,,13,113,1500033,,,,,,,2025-04-30,1,,,,,レンガパートナーズ,0
1947,8011101111553,新規,0,2025-04-30,2025-04-30,株式会社ＭＯＥＲＳ　ＪＡＰＡＮ,,株式会社,東京都,新宿区,西新宿５丁目８番２号,,13,104,1600023,,,,,,,2025-04-30,1,,,,,モアスジャパン,0
1955,8011401027053,新規,0,2025-04-30,2025-04-30,株式会社きょうそう,,株式会社,東京都,板橋区,弥生町６８－１０アンリーフ２０２,,13,119,1730021,,,,,,,2025-04-30,1,,,,,キョウソウ,0
1956,8011501032003,新規,0,2025-04-30,2025-04-30,株式会社トリモドス,,株式会社,東京都,荒川区,西日暮里２丁目１０－２－２０２,,13,118,1160013,,,,,,,2025-04-30,1,,,,,トリモドス,0
1958,8011701028288,新規,0,2025-04-30,2025-04-30,アイ・エボリューションホールディングス株式会社,,株式会社,東京都,江戸川区,西葛西７丁目２３番５号,,13,123,1340088,,,,,,,2025-04-30,1,,,,,アイエボリューションホールディングス,0
1960,8011801046066,新規,0,2025-04-30,2025-04-30,株式会社ライズ,,株式会社,東京都,足立区,千住３丁目６ツオード千住壱番館１００１,,13,121,1200034,,,,,,,2025-04-30,1,,,,,ライズ,0
1972,8020001162474,新規,0,2025-04-30,2025-04-30,株式会社ＦＭ都筑,,株式会社,神奈川県,横浜市都筑区,中川中央１丁目２３番４号,,14,118,2240003,,,,,,,2025-04-30,1,,,,,エフエムツヅキ,0
1973,8020001162598,新規,0,2025-04-30,2025-04-30,ＨａｃｋＳｕｎ株式会社,,株式会社,神奈川県,横浜市緑区,白山１丁目１―２０ナイスアーバン横浜鴨居プロムナード１０４,,14,113,2260006,,,,,,,2025-04-30,1,,,,,ハックサン,0
1977,8020003028120,新規,0,2025-04-30,2025-04-30,ＢａｙＤａｗｎ合同会社,,合同会社,神奈川県,横浜市港北区,大曽根３丁目１３－２ガーデンズ綱島スカイウイング６１３,,14,109,2220003,,,,,,,2025-04-30,1,,,,,ベイドーン,0
1978,8020003028351,新規,0,2025-04-30,2025-04-30,ＭａｅＶｉｎｏ合同会社,,合同会社,神奈川県,横浜市神奈川区,金港町５―１４クアドリフォリオ８階,,14,102,2210056,,,,,,,2025-04-30,1,,,,,メイヴィーノ,0
1979,8020003028368,新規,0,2025-04-30,2025-04-30,合同会社緑企画,,合同会社,神奈川県,横浜市都筑区,牛久保西４丁目３番１２号,,14,118,2240015,,,,,,,2025-04-30,1,,,,,ミドリキカク,0
1981,8021001085062,新規,0,2025-04-30,2025-04-30,株式会社ビルテック,,株式会社,神奈川県,大和市,大和東１丁目５番６号スリーエスビル３０１Ｂ,,14,213,2420017,,,,,,,2025-04-30,1,,,,,ビルテック,0
1982,8021001085112,新規,0,2025-04-30,2025-04-30,株式会社杉崎総建,,株式会社,神奈川県,高座郡寒川町,大蔵８０９番地１３,,14,321,2530104,,,,,,,2025-04-30,1,,,,,スギザキソウケン,0
1983,8021001085129,新規,0,2025-04-30,2025-04-30,株式会社ＳＢＩＨ,,株式会社,神奈川県,大和市,中央林間西１丁目１６番１５号,,14,213,2420008,,,,,,,2025-04-30,1,,,,,エスビーアイエイチ,0
1990,8030001166144,新規,0,2025-04-30,2025-04-30,株式会社樺澤興業,,株式会社,埼玉県,比企郡嵐山町,大字菅谷４５６番地,,11,342,3550221,,,,,,,2025-04-30,1,,,,,カバサワコウギョウ,0
1994,8030003026668,新規,0,2025-04-30,2025-04-30,合同会社ひよこ薬局,,合同会社,埼玉県,久喜市,栗橋中央１丁目２０番２２号,,11,232,3491102,,,,,,,2025-04-30,1,,,,,ヒヨコヤッキョク,0
2012,8040001138472,新規,0,2025-04-30,2025-04-30,株式会社千建再生エネルギー,,株式会社,千葉県,千葉市若葉区,千城台南１丁目６番１号,,12,104,2640003,,,,,,,2025-04-30,1,,,,,チケンサイセイエネルギー,0
2013,8040001138489,新規,0,2025-04-30,2025-04-30,株式会社オールブリッジ,,株式会社,千葉県,野田市,木間ケ瀬４９５９番地１,,12,208,2700222,,,,,,,2025-04-30,1,,,,,オールブリッジ,0
2014,8040001138514,新規,0,2025-04-30,2025-04-30,株式会社ＣＲＤ,,株式会社,千葉県,船橋市,夏見３丁目１９番１０－４０４号,,12,204,2730865,,,,,,,2025-04-30,1,,,,,シーアールディー,0
2018,8040003027418,新規,0,2025-04-30,2025-04-30,合同会社Ｍ＆Ｓ,,合同会社,千葉県,船橋市,高根台７丁目２番８号,,12,204,2740065,,,,,,,2025-04-30,1,,,,,エムアンドエス,0
2019,8040003027434,新規,0,2025-04-30,2025-04-30,合同会社後藤架設,,合同会社,千葉県,木更津市,請西１６４４番地１,,12,206,2920801,,,,,,,2025-04-30,1,,,,,ゴトウカセツ,0
2020,8040003027442,新規,0,2025-04-30,2025-04-30,合同会社ＯＮコンサルタント,,合同会社,千葉県,市川市,鬼高４丁目７番６号,,12,203,2720015,,,,,,,2025-04-30,1,,,,,オーエヌコンサルタント,0
2021,8040003027450,新規,0,2025-04-30,2025-04-30,ネクストスタート合同会社,,合同会社,千葉県,成田市,加良部６丁目６番地１（８０４号）,,12,211,2860036,,,,,,,2025-04-30,1,,,,,ネクストスタート,0
2025,8040005022747,新規,0,2025-04-30,2025-04-30,一般社団法人勝浦ライフセービングクラブ,,その他の設立登記法人,千葉県,勝浦市,串浜１２３０番地１－２０５,,12,218,2995226,,,,,,,2025-04-30,1,,,,,カツウラライフセービングクラブ,0
2039,8060001038150,新規,0,2025-04-30,2025-04-30,株式会社Ｒｅｂｒｏｎ,,株式会社,栃木県,宇都宮市,駒生町１１１１－４９,,09,201,3200065,,,,,,,2025-04-30,1,,,,,レブロン,0
2044,8080001026905,新規,0,2025-04-30,2025-04-30,株式会社ｋａｎａｒｙ,,株式会社,静岡県,静岡市清水区,有東坂１５番２号,,22,103,4240873,,,,,,,2025-04-30,1,,,,,カナリ,0
2071,8120001274978,新規,0,2025-04-30,2025-04-30,株式会社巡格,,株式会社,大阪府,大阪市北区,梅田１丁目１３番１号大阪ツインタワーズ・サウス１５Ｆ,,27,127,5300001,,,,,,,2025-04-30,1,,,,,ジュンカク,0
2072,8120001275010,新規,0,2025-04-30,2025-04-30,株式会社フルスイング,,株式会社,大阪府,大阪市中央区,高津１丁目２番１５号生武東海ビル３０１,,27,128,5420072,,,,,,,2025-04-30,1,,,,,フルスイング,0
2073,8120001275027,新規,0,2025-04-30,2025-04-30,溪竹居株式会社,,株式会社,大阪府,大阪市北区,西天満２丁目６番８号堂島ビルヂング６Ｆ新東京国際リーガル内,,27,127,5300047,,,,,,,2025-04-30,1,,,,,ケイチクキョ,0
2074,8120001275035,新規,0,2025-04-30,2025-04-30,具身智能株式会社,,株式会社,大阪府,大阪市城東区,鴫野西５丁目１５番７－３１３号,,27,118,5360014,,,,,,,2025-04-30,1,,,,,グシンチノウ,0
2075,8120001275415,新規,0,2025-04-30,2025-04-30,株式会社福本空調設備,,株式会社,大阪府,大阪市阿倍野区,相生通１丁目３番３４号,,27,119,5450033,,,,,,,2025-04-30,1,,,,,フクモトクウチョウセツビ,0
2081,8120003029232,新規,0,2025-04-30,2025-04-30,合同会社ｋｏｋｏｒｏ,,合同会社,大阪府,大阪市都島区,都島北通１丁目４番２１号７０１号,,27,102,5340014,,,,,,,2025-04-30,1,,,,,ココロ,0
2082,8120003029249,新規,0,2025-04-30,2025-04-30,合同会社Ｔａｍａｗａ,,合同会社,大阪府,枚方市,片鉾東町２８番１８号,,27,210,5731156,,,,,,,2025-04-30,1,,,,,タマワ,0
2086,8120101071557,新規,0,2025-04-30,2025-04-30,Ｍａｋｅ　Ｌｉｆｅ　Ｂｅａｕｔｉｆｕｌ株式会社,,株式会社,大阪府,堺市西区,上５５８－３Ｋａｉｊｏクリスタル第３ビル３Ｂ,,27,144,5938311,,,,,,,2025-04-30,1,,,,,メイクライフビューティフル,0
2090,8122001039139,新規,0,2025-04-30,2025-04-30,日昇株式会社,,株式会社,大阪府,東大阪市,鴻池元町６番２１号パストラーレ鴻池２０３号室,,27,227,5780974,,,,,,,2025-04-30,1,,,,,ニッショウ,0
2098,8130001079567,新規,0,2025-04-30,2025-04-30,株式会社ひなづる,,株式会社,京都府,京都市上京区,宮垣町９１まむあん荒神口１０２,,26,102,6020853,,,,,,,2025-04-30,1,,,,,ヒナヅル,0
2102,8130003010406,新規,0,2025-04-30,2025-04-30,Ｃｅｌｅｓｔｉａｌ　Ｈａｒｍｏｎｙ合同会社,,合同会社,京都府,京都市下京区,仏光寺通烏丸東入上柳町３３１番地タカノハスクエア,,26,106,6008099,,,,,,,2025-04-30,1,,,,,セレスティアルハーモニー,0
2103,8130003010414,新規,0,2025-04-30,2025-04-30,ａｎｄ　ＬＵＳＨ合同会社,,合同会社,京都府,京都市中京区,河原町通三条下る大黒町７１番地木屋町ＢＥＳＴＢＬＤ７階,,26,104,6048031,,,,,,,2025-04-30,1,,,,,アンドラッシュ,0
2104,8130003010422,新規,0,2025-04-30,2025-04-30,合同会社梨出版,,合同会社,京都府,京都市上京区,河原町通丸太町上る桝屋町３６０－１ペアリーフ御所東１Ｆ,,26,102,6020877,,,,,,,2025-04-30,1,,,,,ナシシュッパン,0
2110,8140001138314,新規,0,2025-04-30,2025-04-30,株式会社Ｃｏｒｎｅｌｉａ,,株式会社,兵庫県,神戸市中央区,旭通４丁目１番３号シティタワー神戸三宮４４１２号,,28,110,6510095,,,,,,,2025-04-30,1,,,,,コーネリア,0
2114,8140003021939,新規,0,2025-04-30,2025-04-30,星の子合同会社,,合同会社,兵庫県,佐用郡佐用町,佐用３０１５－８,,28,501,6795301,,,,,,,2025-04-30,1,,,,,ホシノコ,0
2115,8140003021988,新規,0,2025-04-30,2025-04-30,合同会社Ｇａｒａｇｅ　Ｗｏｒｋｓ,,合同会社,兵庫県,神戸市長田区,御蔵通２丁目１３－１ウイング神戸９０６,,28,106,6530014,,,,,,,2025-04-30,1,,,,,ガレージワークス,0
2116,8140003021996,新規,0,2025-04-30,2025-04-30,合同会社ｍｉｚｕ,,合同会社,兵庫県,明石市,松江５５４番地ユニヴェール２０２号,,28,203,6730036,,,,,,,2025-04-30,1,,,,,ミズ,0
2118,8140005027496,新規,0,2025-04-30,2025-04-30,ｙｕｋグローバル協同組合,,その他の設立登記法人,兵庫県,神戸市中央区,港島６丁目２番地の１,,28,110,6500045,,,,,,,2025-04-30,1,,,,,ワイユーケーグローバル,0
2119,8150001028084,新規,0,2025-04-30,2025-04-30,株式会社価値創造,,株式会社,奈良県,奈良市,宝来町９８５－１,,29,201,6310844,,,,,,,2025-04-30,1,,,,,カチソウゾウ,0
2120,8150003003589,新規,0,2025-04-30,2025-04-30,合同会社メディウス,,合同会社,奈良県,桜井市,大字箸中９２１番地の３,,29,206,6330072,,,,,,,2025-04-30,1,,,,,メディウス,0
2123,8170001018595,新規,0,2025-04-30,2025-04-30,株式会社Ｓｙｍｐｏｓｉｏｎ,,株式会社,和歌山県,和歌山市,本町２丁目４３番地グランセオ本町二丁目３Ｆ,,30,201,6408033,,,,,,,2025-04-30,1,,,,,シュンポシオン,0
2124,8170003002201,新規,0,2025-04-30,2025-04-30,Ｈｉｒａ　Ａｓｓｅｔ　Ｄｅｓｉｇｎ合同会社,,合同会社,和歌山県,和歌山市,栄谷９５８番地６５,,30,201,6408441,,,,,,,2025-04-30,1,,,,,ヒラアセットデザイン,0
2134,8180001166559,新規,0,2025-04-30,2025-04-30,株式会社ゆず,,株式会社,愛知県,尾張旭市,旭前町２丁目３番地２,,23,226,4880855,,,,,,,2025-04-30,1,,,,,ユズ,0
2135,8180001166575,新規,0,2025-04-30,2025-04-30,デザインナビ株式会社,,株式会社,愛知県,名古屋市北区,桐畑町１００番地１‐５０７,,23,103,4620003,,,,,,,2025-04-30,1,,,,,デザインナビ,0
2136,8180001166583,新規,0,2025-04-30,2025-04-30,株式会社あすえな,,株式会社,愛知県,名古屋市瑞穂区,佐渡町５丁目４６番地の１,,23,108,4670016,,,,,,,2025-04-30,1,,,,,アスエナ,0
2137,8180001166609,新規,0,2025-04-30,2025-04-30,株式会社ネクサステック,,株式会社,愛知県,名古屋市中村区,名駅４丁目２４番５号第２森ビル４０１,,23,105,4500002,,,,,,,2025-04-30,1,,,,,ネクサステック,0
2149,8200001043697,新規,0,2025-04-30,2025-04-30,株式会社アルミック,,株式会社,岐阜県,羽島市,堀津町須賀北１丁目７５番地１,,21,209,5016332,,,,,,,2025-04-30,1,,,,,アルミック,0
2163,8250001021120,新規,0,2025-04-30,2025-04-30,株式会社かわば,,株式会社,山口県,山口市,深溝４７８番地,,35,203,7540895,,,,,,,2025-04-30,1,,,,,カワバ,0
2165,8260001040128,新規,0,2025-04-30,2025-04-30,株式会社ＬＡＲＴＥ,,株式会社,岡山県,岡山市北区,津島南２丁目５－１,,33,101,7000085,,,,,,,2025-04-30,1,,,,,ラルテ,0
2166,8260001040136,新規,0,2025-04-30,2025-04-30,株式会社泰雅工業,,株式会社,岡山県,岡山市北区,津高１５４５番地２２,,33,101,7011152,,,,,,,2025-04-30,1,,,,,タイガコウギョウ,0
2167,8260001040144,新規,0,2025-04-30,2025-04-30,株式会社こめっと,,株式会社,岡山県,岡山市中区,浜２丁目７番３２号,,33,102,7038256,,,,,,,2025-04-30,1,,,,,コメット,0
2168,8260003005153,新規,0,2025-04-30,2025-04-30,いるはトレーディング合同会社,,合同会社,岡山県,岡山市北区,新庄上１５２７番地,,33,101,7011345,,,,,,,2025-04-30,1,,,,,イルハトレーディング,0
2173,8290001109829,新規,0,2025-04-30,2025-04-30,株式会社Ｈａｋｕｅｉ　ｓｔｙｌｅ,,株式会社,福岡県,飯塚市,新立岩８番１８号,,40,205,8200004,,,,,,,2025-04-30,1,,,,,ハクエイスタイル,0
2174,8290001109853,新規,0,2025-04-30,2025-04-30,レッドオクトパスジャパン株式会社,,株式会社,福岡県,福岡市中央区,天神２丁目１１番１号福岡ＰＡＲＣＯ５階,,40,133,8100001,,,,,,,2025-04-30,1,,,,,レッドオクトパスジャパン,0
2184,8320001021063,新規,0,2025-04-30,2025-04-30,株式会社ビーブス,,株式会社,大分県,別府市,光町１５番１９号,,44,202,8740930,,,,,,,2025-04-30,1,,,,,ビーブス,0
2185,8320001021071,新規,0,2025-04-30,2025-04-30,谷畑株式会社,,株式会社,大分県,竹田市,大字君ケ園８９５番地,,44,208,8780023,,,,,,,2025-04-30,1,,,,,タニハタ,0
2189,8350003004922,新規,0,2025-04-30,2025-04-30,合同会社ＮａｏＦａｒｍ,,合同会社,宮崎県,小林市,北西方１１５６番地９,,45,205,8860006,,,,,,,2025-04-30,1,,,,,ナオファーム,0
2199,8380003006024,新規,0,2025-04-30,2025-04-30,ブライトネスＫＭＲ合同会社,,合同会社,福島県,福島市,飯坂町字梅津５番地の１５,,07,201,9600201,,,,,,,2025-04-30,1,,,,,ブライトネスケーエムアール,0
2205,8410001014149,新規,0,2025-04-30,2025-04-30,株式会社ＭＫナレッジ,,株式会社,秋田県,秋田市,南通築地築地３－１１ドットビル２０２号室,,05,201,0100013,,,,,,,2025-04-30,1,,,,,エムケーナレッジ,0
2210,8430001094288,新規,0,2025-04-30,2025-04-30,株式会社トモエ建装,,株式会社,北海道,札幌市西区,西野七条１０丁目４番２４号,,01,107,0630037,,,,,,,2025-04-30,1,,,,,トモエケンソウ,0
2211,8430003017602,新規,0,2025-04-30,2025-04-30,ノルドネスト合同会社,,合同会社,北海道,札幌市中央区,北一条西２３丁目１番４７号円山シャトー桂和３０１号室,,01,101,0640821,,,,,,,2025-04-30,1,,,,,ノルドネスト,0
2214,8490001011031,新規,0,2025-04-30,2025-04-30,株式会社山岡商事,,株式会社,高知県,高知市,春野町弘岡上８９９番地２,,39,201,7810301,,,,,,,2025-04-30,1,,,,,ヤマオカショウジ,0
2215,8500003003495,新規,0,2025-04-30,2025-04-30,合同会社ＭＡＴＳＵＹＡＭＡ,,合同会社,愛媛県,松山市,二番町１丁目３番地３サンプラザ８８ビル４階,,38,201,7900002,,,,,,,2025-04-30,1,,,,,マツヤマ,0
2216,8500003003504,新規,0,2025-04-30,2025-04-30,合同会社ｎｅｘｔＯｎｅ,,合同会社,愛媛県,松山市,北斎院町１０５７番地７,,38,201,7918031,,,,,,,2025-04-30,1,,,,,ネクストワン,0
2223,9010001254602,新規,0,2025-04-30,2025-04-30,株式会社ｎｏｏｎｂｉｒｄｓ,,株式会社,東京都,文京区,本郷３丁目２１－１２ＲＴビル,,13,105,1130033,,,,,,,2025-04-30,1,,,,,ヌーンバーズ,0
2225,9010003047211,新規,0,2025-04-30,2025-04-30,合同会社学大・町田・千葉中央プロパティー,,合同会社,東京都,千代田区,丸の内１丁目４番１号東京共同会計事務所内,,13,101,1000005,,,,,,,2025-04-30,1,,,,,ガクダイマチダチバチュウオウプロパティー,0
2226,9010003047244,新規,0,2025-04-30,2025-04-30,合同会社Ｋ＆Ｋ,,合同会社,東京都,中央区,銀座１丁目１２番４号Ｎ＆ＥＢＬＤ．７階,,13,102,1040061,,,,,,,2025-04-30,1,,,,,ケイアンドケイ,0
2227,9010005039925,新規,0,2025-04-30,2025-04-30,一般社団法人日本精索静脈瘤協会,,その他の設立登記法人,東京都,中央区,銀座２丁目８番１９号ＦＰＧｌｉｎｋｓＧＩＮＺＡ６階,,13,102,1040061,,,,,,,2025-04-30,1,,,,,ニホンセイサクジョウミャクリュウキョウカイ,0
2239,9010401189951,新規,0,2025-04-30,2025-04-30,パークウェイトラストマネジメントジャパン株式会社,,株式会社,東京都,港区,元麻布３丁目１番６号,,13,103,1060046,,,,,,,2025-04-30,1,,,,,パークウェイトラストマネジメントジャパン,0
2240,9010403035014,新規,0,2025-04-30,2025-04-30,アジアグロースパートナーズ合同会社,,合同会社,東京都,港区,虎ノ門２丁目６番１号虎ノ門ヒルズステーションタワー,,13,103,1050001,,,,,,,2025-04-30,1,,,,,アジアグロースパートナーズ,0
2245,9010501053982,新規,0,2025-04-30,2025-04-30,株式会社カンノ,,株式会社,東京都,台東区,千束４丁目２６番１１号,,13,106,1110031,,,,,,,2025-04-30,1,,,,,カンノ,0
2249,9010601067214,新規,0,2025-04-30,2025-04-30,株式会社ＡＣＰ,,株式会社,東京都,墨田区,東向島２丁目１６番１３号,,13,107,1310032,,,,,,,2025-04-30,1,,,,,エーシーピー,0
2267,9011001169229,新規,0,2025-04-30,2025-04-30,株式会社Ｌｏｏｐ,,株式会社,東京都,渋谷区,恵比寿西２丁目８番４号ＥＸ恵比寿西ビル５Ｆ,,13,113,1500021,,,,,,,2025-04-30,1,,,,,ループ,0
2273,9011101111544,新規,0,2025-04-30,2025-04-30,株式会社ラクスカ,,株式会社,東京都,新宿区,下落合１丁目２番１６号大堀ビル２Ｆ,,13,104,1610033,,,,,,,2025-04-30,1,,,,,ラクスカ,0
2280,9011501032002,新規,0,2025-04-30,2025-04-30,小黄車株式会社,,株式会社,東京都,荒川区,西尾久１丁目１３番１１号,,13,118,1160011,,,,,,,2025-04-30,1,,,,,ショウコウシャ,0
2281,9011603004691,新規,0,2025-04-30,2025-04-30,合同会社のんストレス,,合同会社,東京都,練馬区,豊玉中３丁目１７－１２豊美荘２０２,,13,120,1760013,,,,,,,2025-04-30,1,,,,,ノンストレス,0
2283,9011703004220,新規,0,2025-04-30,2025-04-30,合同会社ＳＫＹ　ＮＩＰＰＯＮ,,合同会社,東京都,江戸川区,北葛西４丁目２２－１４,,13,123,1340081,,,,,,,2025-04-30,1,,,,,スカイニッポン,0
2286,9012301014355,新規,0,2025-04-30,2025-04-30,株式会社車洗い,,株式会社,東京都,町田市,森野５丁目２１番１９号渋谷ツインビル３０７,,13,209,1940022,,,,,,,2025-04-30,1,,,,,クルマアライ,0
2291,9012405005110,新規,0,2025-04-30,2025-04-30,税理士法人アルファ会計事務所,,その他の設立登記法人,東京都,小金井市,本町５丁目１７番２０－５０４号,,13,210,1840004,,,,,,,2025-04-30,1,,,,,アルファカイケイジムショ,0
2293,9012803003707,新規,0,2025-04-30,2025-04-30,Ｒａｄｉａｎｔ　Ａｓｃｅｎｔ合同会社,,合同会社,東京都,立川市,錦町１丁目４番２０号,,13,202,1900022,,,,,,,2025-04-30,1,,,,,ラディアントアセント,0
2302,9020001162606,新規,0,2025-04-30,2025-04-30,株式会社啓進工業,,株式会社,神奈川県,横浜市旭区,南本宿町５７番地１友愛ハイム２０９,,14,112,2410833,,,,,,,2025-04-30,1,,,,,ケイシンコウギョウ,0
2303,9020001162614,新規,0,2025-04-30,2025-04-30,小粋な株式会社,,株式会社,神奈川県,横浜市金沢区,能見台通３４番１０号能見台若葉ビル４階,,14,108,2360053,,,,,,,2025-04-30,1,,,,,コイキナ,0
2304,9020001162655,新規,0,2025-04-30,2025-04-30,ＩＳＡＮＡパートナーズ株式会社,,株式会社,神奈川県,横浜市中区,山下町２４番地７シティコート山下公園３０５号室,,14,104,2310023,,,,,,,2025-04-30,1,,,,,イサナパートナーズ,0
2309,9020003028375,新規,0,2025-04-30,2025-04-30,ＡＮアセット合同会社,,合同会社,神奈川県,川崎市宮前区,宮崎１丁目１２番地２５秀和宮崎台レジデンス１０３,,14,136,2160033,,,,,,,2025-04-30,1,,,,,エーエヌアセット,0
2310,9021001085136,新規,0,2025-04-30,2025-04-30,株式会社アールライズ,,株式会社,神奈川県,秦野市,三屋３０番地１,,14,211,2591303,,,,,,,2025-04-30,1,,,,,アールライズ,0
2326,9040001138471,新規,0,2025-04-30,2025-04-30,株式会社いろは,,株式会社,千葉県,千葉市若葉区,千城台南１丁目６番１号,,12,104,2640003,,,,,,,2025-04-30,1,,,,,イロハ,0
2327,9040001138488,新規,0,2025-04-30,2025-04-30,株式会社Ｘｅｐ,,株式会社,千葉県,成田市,川上２４５番地２６０９,,12,211,2870244,,,,,,,2025-04-30,1,,,,,ゼップ,0
2328,9040001138496,新規,0,2025-04-30,2025-04-30,株式会社ＬＩＢＥＲＡ,,株式会社,千葉県,鎌ケ谷市,東初富５丁目７番２０号,,12,224,2730122,,,,,,,2025-04-30,1,,,,,リベラ,0
2336,9050005013620,新規,0,2025-04-30,2025-04-30,干し芋フードサイクル協同組合,,その他の設立登記法人,茨城県,ひたちなか市,磯崎町４１２１番地６,,08,221,3111202,,,,,,,2025-04-30,1,,,,,ホシイモフードサイクル,0
2337,9060001038158,新規,0,2025-04-30,2025-04-30,株式会社ピクポリ,,株式会社,栃木県,宇都宮市,今泉町３０２０番地１,,09,201,3210962,,,,,,,2025-04-30,1,,,,,ピクポリ,0
2338,9060001038166,新規,0,2025-04-30,2025-04-30,株式会社ＮＡ　ＴＲＡＮＳＰＯＲＴ,,株式会社,栃木県,下都賀郡壬生町,至宝２丁目１１番３１－１号,,09,361,3210217,,,,,,,2025-04-30,1,,,,,エヌエートランスポート,0
2340,9070001042893,新規,0,2025-04-30,2025-04-30,株式会社ａｔ　Ｄｅｓｉｇｎ,,株式会社,群馬県,桐生市,新里町小林２２８番地１,,10,203,3760124,,,,,,,2025-04-30,1,,,,,アットデザイン,0
2341,9080003003447,新規,0,2025-04-30,2025-04-30,合同会社ＳＡＫＩＷＡＥ,,合同会社,静岡県,静岡市駿河区,高松２９６３－１ラフォーレビラ高松４０７,,22,102,4228034,,,,,,,2025-04-30,1,,,,,サキワヘ,0
2343,9080101025467,新規,0,2025-04-30,2025-04-30,グラフィクシオン株式会社,,株式会社,静岡県,富士市,江尾５１１番地の２３,,22,210,4170811,,,,,,,2025-04-30,1,,,,,グラフィクシオン,0
2349,9090001019238,新規,0,2025-04-30,2025-04-30,株式会社政,,株式会社,山梨県,南都留郡山中湖村,平野５４８番地の１４０,,19,425,4010502,,,,,,,2025-04-30,1,,,,,マツリ,0
2360,9120001275034,新規,0,2025-04-30,2025-04-30,言貝株式会社,,株式会社,大阪府,大阪市都島区,中野町４丁目３番６号Ｈ２Ｈ大阪桜之宮邸３Ａ－２,,27,102,5340027,,,,,,,2025-04-30,1,,,,,ゲンバイ,0
2362,9120003029231,新規,0,2025-04-30,2025-04-30,合同会社きんばち,,合同会社,大阪府,大阪市西区,阿波座２丁目２－２１（７０２）,,27,106,5500011,,,,,,,2025-04-30,1,,,,,キンバチ,0
2364,9120101071556,新規,0,2025-04-30,2025-04-30,ＳＨＯＵＨＡＮＤ株式会社,,株式会社,大阪府,堺市堺区,中安井町２丁４番１３号、５０３号室,,27,141,5900063,,,,,,,2025-04-30,1,,,,,ショウハンド,0
2365,9120101071580,新規,0,2025-04-30,2025-04-30,株式会社ココルリエ,,株式会社,大阪府,高石市,東羽衣１丁目９番１－３０６号,,27,225,5920003,,,,,,,2025-04-30,1,,,,,ココルリエ,0
2367,9120103006428,新規,0,2025-04-30,2025-04-30,合同会社杜製作所,,合同会社,大阪府,堺市美原区,多治井２５３番地の１,,27,147,5870012,,,,,,,2025-04-30,1,,,,,モリセイサクショ,0
2377,9122001039138,新規,0,2025-04-30,2025-04-30,つじ法教育株式会社,,株式会社,大阪府,東大阪市,小阪本町２丁目３番２０－２０１号,,27,227,5770802,,,,,,,2025-04-30,1,,,,,ツジホウキョウイク,0
2378,9122001039154,新規,0,2025-04-30,2025-04-30,株式会社Ｕｎｔｉｔｌｅｄ　ｔｏ　Ｔｉｔｌｅｄ　Ｔｉｔｌｅｄ　ｔｏ　Ｕｎｔｉｔｌｅｄ,,株式会社,大阪府,東大阪市,小若江１丁目１７番１６号,,27,227,5770818,,,,,,,2025-04-30,1,,,,,アンタイトルトゥタイトルタイトルトゥアンタイトル,0
2382,9130001079491,新規,0,2025-04-30,2025-04-30,株式会社まにま,,株式会社,京都府,京丹後市,峰山町鱒留１６４８,,26,212,6270053,,,,,,,2025-04-30,1,,,,,マニマ,0
2383,9130001079517,新規,0,2025-04-30,2025-04-30,ＡＴＷ株式会社,,株式会社,京都府,京都市東山区,一橋野本町９４番地４５,,26,105,6050995,,,,,,,2025-04-30,1,,,,,エーティーダブリュー,0
2385,9130003010405,新規,0,2025-04-30,2025-04-30,合同会社ねころび居,,合同会社,京都府,京都市東山区,本町２１丁目４６２番地３２ドゥシェス雅,,26,105,6050981,,,,,,,2025-04-30,1,,,,,ネコロビイ,0
2396,9140003021987,新規,0,2025-04-30,2025-04-30,合同会社ＡＴＣ,,合同会社,兵庫県,三田市,けやき台３丁目４６番１０,,28,219,6691321,,,,,,,2025-04-30,1,,,,,エイティシー,0
2397,9140005027495,新規,0,2025-04-30,2025-04-30,一般社団法人けあとともに,,その他の設立登記法人,兵庫県,加古川市,東神吉町天下原３番地の１,,28,210,6750058,,,,,,,2025-04-30,1,,,,,ケアトトモニ,0
2400,9160001026714,新規,0,2025-04-30,2025-04-30,ＴＫ　ＧＬＯＢＡＬ株式会社,,株式会社,滋賀県,湖南市,下田２７４７番地４－１０３号,,25,211,5203201,,,,,,,2025-04-30,1,,,,,ティーケーグローバル,0
2402,9170001018594,新規,0,2025-04-30,2025-04-30,株式会社ことまる,,株式会社,和歌山県,有田郡湯浅町,大字湯浅２６９３番地１３,,30,361,6430004,,,,,,,2025-04-30,1,,,,,コトマル,0
2415,9180001166525,新規,0,2025-04-30,2025-04-30,メイワケア株式会社,,株式会社,愛知県,名古屋市昭和区,滝子町１９番８号,,23,107,4660053,,,,,,,2025-04-30,1,,,,,メイワケア,0
2416,9180001166599,新規,0,2025-04-30,2025-04-30,株式会社グロリア,,株式会社,愛知県,名古屋市中区,錦３丁目１３番３２号,,23,106,4600003,,,,,,,2025-04-30,1,,,,,グロリア,0
2417,9180001166608,新規,0,2025-04-30,2025-04-30,株式会社泉乃華,,株式会社,愛知県,名古屋市東区,葵３丁目６番１２号（ＢａｙＬａｕｒｅｌ葵２０１号）,,23,102,4610004,,,,,,,2025-04-30,1,,,,,イズミノハナ,0
2421,9180003028401,新規,0,2025-04-30,2025-04-30,合同会社リベリオン,,合同会社,愛知県,名古屋市東区,東大曽根町３８番１７号,,23,102,4610022,,,,,,,2025-04-30,1,,,,,リベリオン,0
2425,9200005013753,新規,0,2025-04-30,2025-04-30,一般社団法人みんなのざいしょ,,その他の設立登記法人,岐阜県,不破郡垂井町,１１６０－２,,21,361,5032121,,,,,,,2025-04-30,1,,,,,,0
2427,9230001020874,新規,0,2025-04-30,2025-04-30,株式会社ステム,,株式会社,富山県,富山市,奥田寿町２１‐６,,16,201,9300852,,,,,,,2025-04-30,1,,,,,ステム,0
2431,9240001064862,新規,0,2025-04-30,2025-04-30,株式会社東煌,,株式会社,広島県,福山市,元町１３番３号地下１階,,34,207,7200063,,,,,,,2025-04-30,1,,,,,トウコウ,0
2432,9240001064879,新規,0,2025-04-30,2025-04-30,アンリシール株式会社,,株式会社,広島県,広島市安佐北区,口田南３丁目２３番４号,,34,106,7391733,,,,,,,2025-04-30,1,,,,,アンリシール,0
2435,9260003005152,新規,0,2025-04-30,2025-04-30,合同会社リアン,,合同会社,岡山県,岡山市南区,福富西２丁目２９番６号,,33,104,7028031,,,,,,,2025-04-30,1,,,,,リアン,0
2436,9260003005160,新規,0,2025-04-30,2025-04-30,合同会社ＣＮＣＳ,,合同会社,岡山県,赤磐市,山陽２丁目５番３０号,,33,213,7090827,,,,,,,2025-04-30,1,,,,,シーエヌシーエス,0
2440,9290001109877,新規,0,2025-04-30,2025-04-30,株式会社こづちや,,株式会社,福岡県,久留米市,通外町１０５番地３,,40,203,8300005,,,,,,,2025-04-30,1,,,,,,0
2444,9290003016766,新規,0,2025-04-30,2025-04-30,合同会社Ｂｌｕｅｐｒｉｎｔ,,合同会社,福岡県,福岡市中央区,今泉１丁目９番２７号,,40,133,8100021,,,,,,,2025-04-30,1,,,,,ブループリント,0
2445,9290003016774,新規,0,2025-04-30,2025-04-30,合同会社宿ｂａｎｋ,,合同会社,福岡県,福岡市中央区,春吉２丁目１２番１９－２０４号,,40,133,8100003,,,,,,,2025-04-30,1,,,,,ヤドバンク,0
2454,9290803005035,新規,0,2025-04-30,2025-04-30,合同会社アルクス,,合同会社,福岡県,築上郡築上町,大字伝法寺７１０番地３,,40,647,8290122,,,,,,,2025-04-30,1,,,,,アルクス,0
2455,9300001014167,新規,0,2025-04-30,2025-04-30,株式会社トラスト,,株式会社,佐賀県,小城市,三日月町金田７５番地３泉ハイツＢ棟Ｂ１号,,41,208,8450032,,,,,,,2025-04-30,1,,,,,トラスト,0
2456,9300003002277,新規,0,2025-04-30,2025-04-30,合同会社Ｔ‐Ｐｌａｎｓ,,合同会社,佐賀県,佐賀市,成章町５－１２－３Ｆ,,41,201,8400814,,,,,,,2025-04-30,1,,,,,ティプランズ,0
2459,9340001027297,新規,0,2025-04-30,2025-04-30,株式会社ＬａＧｏｍ,,株式会社,鹿児島県,鹿児島市,東坂元２丁目５９番１５号,,46,201,8920861,,,,,,,2025-04-30,1,,,,,ラゴム,0
2461,9350003004921,新規,0,2025-04-30,2025-04-30,合同会社ＺＥＡＬＬ,,合同会社,宮崎県,日南市,上平野町２丁目１３番地９　２階,,45,204,8870022,,,,,,,2025-04-30,1,,,,,ジール,0
2469,9380003006023,新規,0,2025-04-30,2025-04-30,合同会社萬石,,合同会社,福島県,郡山市,片平町字見物壇１１６番地,,07,203,9630211,,,,,,,2025-04-30,1,,,,,マンゴク,0
2474,9430001094279,新規,0,2025-04-30,2025-04-30,株式会社一生,,株式会社,北海道,札幌市白石区,南郷通７丁目北５番２６号第５中澤ビル１階,,01,104,0030023,,,,,,,2025-04-30,1,,,,,イッショウ,0
2478,9490003002011,新規,0,2025-04-30,2025-04-30,合同会社もみじ屋,,合同会社,高知県,南国市,明見３０１番地,,39,204,7830007,,,,,,,2025-04-30,1,,,,,モミジヤ,0
2480,9500003003494,新規,0,2025-04-30,2025-04-30,合同会社リンク,,合同会社,愛媛県,西条市,三津屋１８０－４藤ビル１階１号室,,38,206,7991351,,,,,,,2025-04-30,1,,,,,リンク,0
