sequenceNumber,corporateNumber,process,correct,updateDate,changeDate,name,nameImageId,kind,prefectureName,cityName,streetNumber,addressImageId,prefectureCode,cityCode,postCode,addressOutside,addressOutsideImageId,closeDate,closeCause,successorCorporateNumber,changeCause,assignmentDate,latest,enName,enPrefectureName,enCityName,enAddressOutside,furigana,hihyoji
2,1010001181317,登記記録の閉鎖等,0,2024-10-25,2024-10-09,アルトア株式会社,,株式会社,東京都,千代田区,外神田４丁目１４番１号,,13,101,1010021,,,2024-10-09,合併による解散等,9010001223243,令和６年１０月１日東京都千代田区外神田四丁目１４番１号弥生株式会社（9010001223243）に合併し解散,2017-02-13,1,,,,,アルトア,0
4,1010001208697,登記記録の閉鎖等,0,2024-10-25,2024-10-11,株式会社美亜,,株式会社,東京都,中央区,晴海２丁目２番４２－１３０６号,,13,102,1040053,,,2024-10-11,清算の結了等,,,2020-04-01,1,,,,,ミア,0
6,1010003037657,登記記録の閉鎖等,0,2024-10-25,2024-10-10,Ｊ　ＶＡＬＵＥ　ＭＫＴ合同会社,,合同会社,東京都,中央区,日本橋兜町１７番２号兜町第６葉山ビル４Ｆ,,13,102,1030026,,,2024-10-10,清算の結了等,,,2022-05-19,1,,,,,ジェーバリューマーケット,0
11,1010005031229,登記記録の閉鎖等,0,2024-10-25,2024-10-21,一般社団法人さくらじま,,その他の設立登記法人,東京都,中央区,日本橋１丁目４番１号,,13,102,1030027,,,2024-10-21,清算の結了等,,,2019-12-23,1,,,,,サクラジマ,0
27,1010405020806,登記記録の閉鎖等,0,2024-10-25,2024-10-08,ＦＳＰ２６一般社団法人,,その他の設立登記法人,東京都,港区,虎ノ門４丁目１番２８号,,13,103,1050001,,,2024-10-08,清算の結了等,,,2022-03-16,1,,,,,エフエスピーニジュウロク,0
28,1010405022050,登記記録の閉鎖等,0,2024-10-25,2024-10-10,一般社団法人アスリートコーチング協会,,その他の設立登記法人,東京都,港区,赤坂１丁目１２番３２号アーク森ビル３６階,,13,103,1070052,,,2024-10-10,清算の結了等,,,2023-05-01,1,,,,,アスリートコーチングキョウカイ,0
35,1010601033082,登記記録の閉鎖等,0,2024-10-25,2024-10-23,押上創研株式会社,,株式会社,東京都,墨田区,押上３丁目４番８号コスモ押上アーバンフォルム１００１室,,13,107,1310045,,,2024-10-23,清算の結了等,,,2015-10-05,1,,,,,オシアゲソウケン,0
38,1010602006748,登記記録の閉鎖等,0,2024-10-25,2024-10-18,有限会社鳴島製作所,,有限会社,東京都,江東区,古石場１丁目５番２号,,13,108,1350045,,,2024-10-18,清算の結了等,,,2015-10-05,1,,,,,ナルシマセイサクジョ,0
45,1010803003486,登記記録の閉鎖等,0,2024-10-25,2024-10-15,合同会社ぽむ,,合同会社,東京都,大田区,北千束１丁目４０番１号,,13,111,1450062,,,2024-10-15,合併による解散等,3010803002552,令和６年９月１日東京都大田区北千束一丁目４０番１号３階合同会社ぼん（3010803002552）に合併し解散,2020-10-08,1,,,,,ポム,0
69,1011302006765,登記記録の閉鎖等,0,2024-10-25,2024-10-18,有限会社ナガタ,,有限会社,東京都,杉並区,高円寺北２丁目４１番１８号,,13,115,1660002,,,2024-10-18,清算の結了等,,,2015-10-05,1,,,,,ナガタ,0
73,1011401025352,登記記録の閉鎖等,0,2024-10-25,2024-10-21,金田自動車株式会社,,株式会社,千葉県,船橋市,芝山２丁目５番４棟３０１号,,12,204,2740816,,,2024-10-21,清算の結了等,,,2023-08-14,1,,,,,カネダジドウシャ,0
78,1011803002825,登記記録の閉鎖等,0,2024-10-25,2024-10-18,合同会社ベルデ,,合同会社,東京都,葛飾区,東新小岩５丁目１７番１２号アソウ荘,,13,122,1240023,,,2024-10-18,清算の結了等,,,2017-03-16,1,,,,,,0
97,1021001001521,登記記録の閉鎖等,0,2024-10-25,2024-10-24,株式会社東日広告社,,株式会社,神奈川県,藤沢市,鵠沼橘１丁目２番４号クゲヌマファースト２０２,,14,205,2510024,,,2024-10-24,清算の結了等,,,2015-10-05,1,,,,,トウニチコウコクシャ,0
100,1021002004886,登記記録の閉鎖等,0,2024-10-25,2024-10-23,有限会社宮崎ランドリー,,有限会社,神奈川県,藤沢市,本鵠沼２丁目１５番９号,,14,205,2510028,,,2024-10-23,清算の結了等,,,2015-10-05,1,,,,,ミヤザキランドリー,0
105,1030001144552,登記記録の閉鎖等,0,2024-10-25,2024-10-21,株式会社輝,,株式会社,栃木県,下野市,柴１１３２番地６,,09,216,3290412,,,2024-10-21,清算の結了等,,,2021-10-01,1,,,,,カガヤキ,0
111,1040001068676,登記記録の閉鎖等,0,2024-10-25,2024-10-21,株式会社バオバオコーポレーション,,株式会社,千葉県,柏市,大青田１２３６番地７,,12,217,2770805,,,2024-10-21,清算の結了等,,,2015-10-05,1,,,,,バオバオコーポレーション,0
120,1040002066753,登記記録の閉鎖等,0,2024-10-25,2024-10-21,有限会社山徳事務機商会,,有限会社,千葉県,木更津市,大久保１丁目１６番６号,,12,206,2920815,,,2024-10-21,清算の結了等,,,2015-10-05,1,,,,,,0
122,1040003010727,登記記録の閉鎖等,0,2024-10-25,2024-10-21,知覧エージェント合同会社,,合同会社,千葉県,千葉市若葉区,桜木北３丁目２０番４７号,,12,104,2640029,,,2024-10-21,清算の結了等,,,2017-10-11,1,,,,,チランエージェント,0
132,1060002011006,登記記録の閉鎖等,0,2024-10-25,2024-10-21,有限会社猪瀬酒店,,有限会社,栃木県,河内郡上三川町,大字上蒲生３番地,,09,301,3290617,,,2024-10-21,清算の結了等,,,2015-10-05,1,,,,,イノセサケテン,0
133,1060002022416,登記記録の閉鎖等,0,2024-10-25,2024-10-21,有限会社太陽急送,,有限会社,栃木県,那須塩原市,鍋掛１０８７番地９３３,,09,213,3250013,,,2024-10-21,清算の結了等,,,2015-10-05,1,,,,,タイヨウキュウソウ,0
134,1060002026895,登記記録の閉鎖等,0,2024-10-25,2024-10-21,有限会社岡本,,有限会社,栃木県,矢板市,扇町１丁目８番１号,,09,211,3292161,,,2024-10-21,清算の結了等,,,2015-10-05,1,,,,,オカモト,0
142,1080402015595,登記記録の閉鎖等,0,2024-10-25,2024-10-21,有限会社松原塗装,,有限会社,静岡県,浜松市浜名区,新原６５００番地,,22,139,4340003,,,2024-10-21,清算の結了等,,,2015-10-05,1,,,,,マツバラトソウ,0
148,1100001017016,登記記録の閉鎖等,0,2024-10-25,2024-10-15,株式会社Ｋ－グロース,,株式会社,長野県,松本市,大字神林６７９６番地１,,20,202,3901243,,,2024-10-15,清算の結了等,,,2015-10-05,1,,,,,ケイグロース,0
150,1100002017238,登記記録の閉鎖等,0,2024-10-25,2024-10-09,有限会社とがり食堂,,有限会社,長野県,飯山市,大字豊田６３６２番地１号,,20,213,3892411,,,2024-10-09,清算の結了等,,,2015-10-05,1,,,,,トガリショクドウ,0
155,1110002029983,登記記録の閉鎖等,0,2024-10-25,2024-10-21,有限会社野崎家,,有限会社,新潟県,長岡市,脇野町２１７４番地,,15,202,9402306,,,2024-10-21,清算の結了等,,,2015-10-05,1,,,,,,0
185,1140002065852,登記記録の閉鎖等,0,2024-10-25,2024-10-23,有限会社グリーン配送,,有限会社,兵庫県,伊丹市,大鹿４丁目６５番地の６,,28,207,6640899,,,2024-10-23,清算の結了等,,,2015-10-05,1,,,,,グリーンハイソウ,0
195,1180001139133,登記記録の閉鎖等,0,2024-10-25,2024-10-09,今西医療機器株式会社,,株式会社,愛知県,名古屋市中区,千代田２丁目１０番７号プラザフェニックス鶴舞８０６号,,23,106,4600012,,,2024-10-09,清算の結了等,,,2019-12-06,1,,,,,イマニシイリョウキキ,0
202,1180002008584,登記記録の閉鎖等,0,2024-10-25,2024-10-08,有限会社ノックス,,有限会社,愛知県,名古屋市昭和区,向山町２丁目３９番地の１,,23,107,4660829,,,2024-10-08,清算の結了等,,,2015-10-05,1,,,,,ノックス,0
205,1180002090780,登記記録の閉鎖等,0,2024-10-25,2024-10-08,有限会社日南企業,,有限会社,愛知県,津島市,牛田町字江南６２番地,,23,208,4960018,,,2024-10-08,清算の結了等,,,2015-10-05,1,,,,,ニチナンキギョウ,0
208,1230002010089,登記記録の閉鎖等,0,2024-10-25,2024-10-24,有限会社床鍋養鶏,,有限会社,富山県,小矢部市,北一２５番地,,16,209,9320844,,,2024-10-24,清算の結了等,,,2015-10-05,1,,,,,トコナベヨウケイ,0
214,1290002056127,登記記録の閉鎖等,0,2024-10-25,2024-09-24,有限会社三興エム・エス保険,,有限会社,福岡県,大牟田市,築町２番地１,,40,202,8360841,,,2024-09-24,清算の結了等,,,2015-10-05,1,,,,,サンコウエムエスホケン,0
215,1290005016111,登記記録の閉鎖等,0,2024-10-25,2024-09-10,一般社団法人チャレンジサポートうきは,,その他の設立登記法人,福岡県,うきは市,浮羽町浮羽４２８番地４,,40,225,8391402,,,2024-09-10,清算の結了等,,,2016-10-26,1,,,,,チャレンジサポートウキハ,0
241,1420005005810,登記記録の閉鎖等,0,2024-10-25,2024-10-11,かもめスタンプ協同組合,,その他の設立登記法人,青森県,上北郡六ヶ所村,大字泊字村ノ内２１８番地８,,02,411,0394301,,,2024-10-11,清算の結了等,,,2015-10-05,1,,,,,カモメスタンプ,0
249,1430002049306,登記記録の閉鎖等,0,2024-10-25,2024-10-18,有限会社ケー・ジーゴルフセンター,,有限会社,北海道,岩見沢市,五条西１０丁目２番地３,,01,210,0680025,,,2024-10-18,清算の結了等,,,2015-10-05,1,,,,,ケージーゴルフセンター,0
254,1450002003087,登記記録の閉鎖等,0,2024-10-25,2024-10-22,有限会社鈴木塗装店,,有限会社,北海道,旭川市,東光四条２丁目２番１９号,,01,204,0788344,,,2024-10-22,清算の結了等,,,2015-10-05,1,,,,,スズキトソウテン,0
258,1490002009436,登記記録の閉鎖等,0,2024-10-25,2024-10-23,有限会社カワムラ商会,,有限会社,高知県,吾川郡いの町,枝川３０５３番地８,,39,386,7812120,,,2024-10-23,清算の結了等,,,2015-10-05,1,,,,,カワムラショウカイ,0
271,2010002011133,登記記録の閉鎖等,0,2024-10-25,2024-10-11,有限会社ジョッチャ,,有限会社,東京都,千代田区,九段北１丁目２番１３号,,13,101,1020073,,,2024-10-11,清算の結了等,,,2015-10-05,1,,,,,ジョッチャ,0
280,2010401097302,登記記録の閉鎖等,0,2024-10-25,2024-10-03,株式会社ポテンツァ,,株式会社,東京都,港区,南青山２丁目１７番７号,,13,103,1070062,,,2024-10-03,清算の結了等,,,2015-10-05,1,,,,,ポテンツァ,0
282,2010401125954,登記記録の閉鎖等,0,2024-10-25,2024-10-03,株式会社コハセワークス,,株式会社,東京都,港区,東麻布１丁目４番２号ＴＨＥＷＯＲＫＥＲＳ＆ＣＯ９０６,,13,103,1060044,,,2024-10-03,清算の結了等,,,2016-07-20,1,,,,,コハセワークス,0
284,2010401131135,登記記録の閉鎖等,0,2024-10-25,2024-10-03,株式会社ＴＭダイニング,,株式会社,東京都,港区,西新橋３丁目２４番５号御成門ビル７階,,13,103,1050003,,,2024-10-03,清算の結了等,,,2017-04-24,1,,,,,ティーエムダイニング,0
304,2010502022530,登記記録の閉鎖等,0,2024-10-25,2024-10-21,有限会社文化ビニール商会,,有限会社,東京都,中央区,築地４丁目３－１２,,13,102,1040045,,,2024-10-21,合併による解散等,2010501023538,令和６年１０月１日東京都台東区蔵前二丁目１２番４号中嶋ビニール商会株式会社（2010501023538）に合併し解散,2015-10-05,1,,,,,ブンカビニールショウカイ,0
325,2011003018010,登記記録の閉鎖等,0,2024-10-25,2024-10-01,合同会社キン,,合同会社,東京都,渋谷区,代々木３丁目４９番６号フォレスト代々木Ｃ３０１,,13,113,1510053,,,2024-10-01,清算の結了等,,,2023-11-29,1,,,,,キン,0
329,2011101023696,登記記録の閉鎖等,0,2024-10-25,2024-10-10,安芸建設株式会社,,株式会社,東京都,新宿区,西新宿５丁目５番６号第四東和ビル２Ｆ,,13,104,1600023,,,2024-10-10,清算の結了等,,,2015-10-05,1,,,,,アキケンセツ,0
335,2011103008068,登記記録の閉鎖等,0,2024-10-25,2024-10-21,春日部下柳合同会社,,合同会社,東京都,港区,芝５丁目３２番１２号,,13,103,1080014,,,2024-10-21,清算の結了等,,,2018-07-11,1,,,,,カスカベシモヤナギ,0
339,2011202012029,登記記録の閉鎖等,0,2024-10-25,2024-10-23,有限会社メイトウビジネス,,有限会社,東京都,中野区,本町４丁目５番１４号,,13,114,1640012,,,2024-10-23,清算の結了等,,,2015-10-05,1,,,,,メイトウビジネス,0
344,2012402006596,登記記録の閉鎖等,0,2024-10-25,2024-10-18,有限会社ベンミュージックスタジオ,,有限会社,埼玉県,ふじみ野市,鶴ケ岡３丁目２番３５号グレアム山崎３０１,,11,245,3560045,,,2024-10-18,清算の結了等,,,2015-10-05,1,,,,,ベンミュージックスタジオ,0
353,2020001134355,登記記録の閉鎖等,0,2024-10-25,2024-10-08,株式会社新生,,株式会社,神奈川県,横浜市神奈川区,新浦島町２丁目２番地１－８３５号,,14,102,2210031,,,2024-10-08,清算の結了等,,,2020-01-14,1,,,,,シンセイ,0
355,2020001151648,登記記録の閉鎖等,0,2024-10-25,2024-10-08,株式会社Ｓｉｎｃｅｒｉｔｅ,,株式会社,神奈川県,横浜市栄区,飯島町１３４４番地２,,14,115,2440842,,,2024-10-08,清算の結了等,,,2023-05-17,1,,,,,サンセリテ,0
358,2020005009198,登記記録の閉鎖等,0,2024-10-25,2024-10-07,一般社団法人ネイバーズサポート推進協会,,その他の設立登記法人,神奈川県,横浜市緑区,白山２丁目９番１７号,,14,113,2260006,,,2024-10-07,清算の結了等,,,2015-10-05,1,,,,,ネイバースサポートスイシンキョウカイ,0
367,2030001075169,登記記録の閉鎖等,0,2024-10-25,2024-10-16,株式会社サトー冷熱,,株式会社,埼玉県,川口市,東川口４丁目２９番１３号,,11,203,3330801,,,2024-10-16,清算の結了等,,,2015-10-05,1,,,,,サトーレイネツ,0
370,2030001128991,登記記録の閉鎖等,0,2024-10-25,2024-10-18,株式会社ＭＡＲＵＦＵホールディングス,,株式会社,埼玉県,上尾市,仲町１丁目１１番５０号,,11,219,3620035,,,2024-10-18,清算の結了等,,,2019-01-09,1,,,,,マルフホールディングス,0
371,2030001144551,登記記録の閉鎖等,0,2024-10-25,2024-10-21,株式会社グリーンアース,,株式会社,栃木県,下野市,柴１１３２番地６,,09,216,3290412,,,2024-10-21,清算の結了等,,,2021-10-01,1,,,,,グリーンアース,0
373,2030002083071,登記記録の閉鎖等,0,2024-10-25,2024-10-17,有限会社赤松設備,,有限会社,埼玉県,北本市,深井３丁目１８７番地２,,11,233,3640001,,,2024-10-17,清算の結了等,,,2015-10-05,1,,,,,アカマツセツビ,0
380,2040001108233,登記記録の閉鎖等,0,2024-10-25,2024-10-16,東光ジオグリッド株式会社,,株式会社,東京都,港区,赤坂６丁目１３番１９号オリエント赤坂８０８号,,13,103,1070052,,,2024-10-16,清算の結了等,,,2019-03-06,1,,,,,トウコウジオグリッド,0
408,2080002011192,登記記録の閉鎖等,0,2024-10-25,2024-10-18,有限会社ほていや商事,,有限会社,静岡県,静岡市清水区,江尻東３丁目７番３号,,22,103,4240815,,,2024-10-18,清算の結了等,,,2015-10-05,1,,,,,,0
414,2100001003948,登記記録の閉鎖等,0,2024-10-25,2024-10-10,株式会社小林建設,,株式会社,長野県,長野市,鬼無里１１５７３番地１,,20,201,3814301,,,2024-10-10,清算の結了等,,,2015-10-05,1,,,,,コバヤシケンセツ,0
421,2110001030487,登記記録の閉鎖等,0,2024-10-25,2024-10-17,株式会社春花,,株式会社,新潟県,南魚沼市,浦佐９３０番地２,,15,226,9497302,,,2024-10-17,合併による解散等,7110002033930,令和６年９月１日新潟県魚沼市中島新田１５２番地１株式会社幸生（7110002033930）に合併し解散,2015-10-05,1,,,,,ハルカ,0
422,2110001034967,登記記録の閉鎖等,0,2024-10-25,2024-10-18,株式会社マツモトコーティング,,株式会社,新潟県,新潟市中央区,日の出３丁目７番５号,,15,103,9500073,,,2024-10-18,清算の結了等,,,2020-07-06,1,,,,,マツモトコーティング,0
424,2110002031121,登記記録の閉鎖等,0,2024-10-25,2024-10-21,有限会社榮屋呉服店,,有限会社,新潟県,長岡市,谷内１丁目１番１４号,,15,202,9400227,,,2024-10-21,清算の結了等,,,2015-10-05,1,,,,,サカエヤゴフクテン,0
451,2160001018354,登記記録の閉鎖等,0,2024-10-25,2024-10-22,株式会社ユーアイ,,株式会社,滋賀県,大津市,関津６丁目１３番３号,,25,201,5202277,,,2024-10-22,清算の結了等,,,2015-10-05,1,,,,,ユーアイ,0
458,2180001110051,登記記録の閉鎖等,0,2024-10-25,2024-10-07,株式会社ｅｄｇｅ,,株式会社,愛知県,尾張旭市,旭前町２丁目１番８号,,23,226,4880855,,,2024-10-07,清算の結了等,,,2015-10-05,1,,,,,エッジ,0
459,2180001146178,登記記録の閉鎖等,0,2024-10-25,2024-10-09,株式会社ＷＡＫＵＷＡＫＵ,,株式会社,愛知県,常滑市,千代ケ丘４丁目１８０番地,,23,216,4790834,,,2024-10-09,清算の結了等,,,2021-05-26,1,,,,,ワクワク,0
465,2180002037392,登記記録の閉鎖等,0,2024-10-25,2024-10-09,有限会社中部鋼管,,有限会社,愛知県,名古屋市中川区,長良町４丁目９０番地,,23,110,4540815,,,2024-10-09,清算の結了等,,,2015-10-05,1,,,,,チュウブコウカン,0
468,2180002065146,登記記録の閉鎖等,0,2024-10-25,2024-10-11,有限会社市川,,有限会社,愛知県,春日井市,東野町１丁目１番地の１１,,23,206,4860817,,,2024-10-11,清算の結了等,,,2015-10-05,1,,,,,イチカワ,0
478,2210001013762,登記記録の閉鎖等,0,2024-10-25,2024-10-22,タケノリ建設株式会社,,株式会社,福井県,越前市,稲寄町第６号１１番地の１,,18,209,9150095,,,2024-10-22,清算の結了等,,,2015-10-05,1,,,,,タケノリケンセツ,0
485,2260002019804,登記記録の閉鎖等,0,2024-10-25,2024-10-21,有限会社寺下石材店,,有限会社,岡山県,倉敷市,日畑４２３番地の１,,33,202,7010101,,,2024-10-21,清算の結了等,,,2015-10-05,1,,,,,テラシタセキザイテン,0
527,2390003001863,登記記録の閉鎖等,0,2024-10-25,2024-10-03,合同会社スズキ商店,,合同会社,山形県,山形市,中桜田３丁目３番２号,,06,201,9902422,,,2024-10-03,清算の結了等,,,2021-09-06,1,,,,,スズキショウテン,0
538,2430002055476,登記記録の閉鎖等,0,2024-10-25,2024-10-22,有限会社未来企画,,有限会社,北海道,小樽市,奥沢２丁目１０番２５号,,01,203,0470013,,,2024-10-22,清算の結了等,,,2015-10-05,1,,,,,ミライキカク,0
555,3010001214405,登記記録の閉鎖等,0,2024-10-25,2024-10-23,株式会社ＣＬＩＭＢ　Ａｃａｄｅｍｙ,,株式会社,群馬県,前橋市,千代田町２丁目２番１１号ＧＳレジデンス２階,,10,201,3710022,,,2024-10-23,清算の結了等,,,2020-12-16,1,,,,,クライムアカデミー,0
568,3010401058170,登記記録の閉鎖等,0,2024-10-25,2024-10-03,カーキ・テスート株式会社,,株式会社,東京都,港区,海岸３丁目１５－１５ソルク海岸６０１号室,,13,103,1080022,,,2024-10-03,清算の結了等,,,2015-10-05,1,,,,,カーキテスート,0
589,3010801031339,登記記録の閉鎖等,0,2024-10-25,2024-10-18,株式会社ＢＳＬＡＬ,,株式会社,東京都,大田区,西蒲田２丁目７番１号,,13,111,1440051,,,2024-10-18,清算の結了等,,,2020-10-28,1,,,,,バサラ,0
624,3011601026388,登記記録の閉鎖等,0,2024-10-25,2024-10-01,株式会社ＳＥＧＯＯＦ,,株式会社,東京都,渋谷区,桜丘町４－１４,,13,113,1500031,,,2024-10-01,清算の結了等,,,2022-11-22,1,,,,,セグーフ,0
633,3013101000757,登記記録の閉鎖等,0,2024-10-25,2024-10-24,吹上電子株式会社,,株式会社,東京都,羽村市,羽加美２丁目８番１３号,,13,227,2050016,,,2024-10-24,清算の結了等,,,2015-10-05,1,,,,,フキアゲデンシ,0
634,3013102006200,登記記録の閉鎖等,0,2024-10-25,2024-10-24,有限会社ジオタイム,,有限会社,東京都,青梅市,友田町１丁目８１７番地,,13,205,1980051,,,2024-10-24,清算の結了等,,,2015-10-05,1,,,,,ジオタイム,0
635,3013301003064,登記記録の閉鎖等,0,2024-10-25,2024-10-15,株式会社オール・プロパティ,,株式会社,東京都,豊島区,池袋２丁目７２番６号,,13,116,1710014,,,2024-10-15,清算の結了等,,,2024-07-26,1,,,,,オールプロパティ,0
661,3040001000224,登記記録の閉鎖等,0,2024-10-25,2024-10-21,アクト設備設計株式会社,,株式会社,千葉県,千葉市若葉区,殿台町１２７番地の１,,12,104,2640036,,,2024-10-21,清算の結了等,,,2015-10-05,1,,,,,アクトセツビセッケイ,0
674,3050002041893,登記記録の閉鎖等,0,2024-10-25,2024-10-16,有限会社大山工務店,,有限会社,茨城県,筑西市,茂田９１９番地１,,08,227,3080811,,,2024-10-16,清算の結了等,,,2015-10-05,1,,,,,オオヤマコウムテン,0
690,3080402014950,登記記録の閉鎖等,0,2024-10-25,2024-10-21,有限会社ＨＫＳ,,有限会社,静岡県,浜松市中央区,半田山６丁目７番１４号,,22,138,4313125,,,2024-10-21,清算の結了等,,,2015-10-05,1,,,,,エイチケーエス,0
691,3100001027913,登記記録の閉鎖等,0,2024-10-25,2024-10-15,エクスペリエンス株式会社,,株式会社,長野県,上田市,御所１０９番地１,,20,203,3860033,,,2024-10-15,清算の結了等,,,2015-10-05,1,,,,,エクスペリエンス,0
722,3122001033419,登記記録の閉鎖等,0,2024-10-25,2024-10-22,株式会社オージー,,株式会社,大阪府,東大阪市,鴻池町２丁目８番２６号,,27,227,5780972,,,2024-10-22,清算の結了等,,,2020-02-12,1,,,,,オージー,0
731,3150002001862,登記記録の閉鎖等,0,2024-10-25,2024-10-23,有限会社山善今里水産,,有限会社,奈良県,奈良市,南京終町１丁目７９番地,,29,201,6308141,,,2024-10-23,清算の結了等,,,2015-10-05,1,,,,,ヤマゼンイマザトスイサン,0
742,3180002087619,登記記録の閉鎖等,0,2024-10-25,2024-10-08,有限会社割烹たかだ,,有限会社,愛知県,東海市,横須賀町四ノ割７番地,,23,222,4770036,,,2024-10-08,清算の結了等,,,2015-10-05,1,,,,,カッポウタカダ,0
743,3180302004645,登記記録の閉鎖等,0,2024-10-25,2024-10-18,有限会社長田商事,,有限会社,愛知県,岡崎市,明大寺本町２丁目２３番地,,23,202,4440860,,,2024-10-18,清算の結了等,,,2015-10-05,1,,,,,オサダショウジ,0
746,3200001010355,登記記録の閉鎖等,0,2024-10-25,2024-10-24,新潮印刷株式会社,,株式会社,岐阜県,瑞穂市,野白新田４８番地の１,,21,216,5010231,,,2024-10-24,清算の結了等,,,2015-10-05,1,,,,,,0
749,3200002014066,登記記録の閉鎖等,0,2024-10-25,2024-10-22,有限会社ヒーローズ,,有限会社,岐阜県,大垣市,上石津町牧田字上野２１２９番地１,,21,202,5031602,,,2024-10-22,清算の結了等,,,2015-10-05,1,,,,,ヒーローズ,0
766,3250002008385,登記記録の閉鎖等,0,2024-10-25,2024-10-23,有限会社大神商店,,有限会社,山口県,下関市,彦島迫町６丁目８番１７号,,35,201,7500092,,,2024-10-23,清算の結了等,,,2015-10-05,1,,,,,オオガミショウテン,0
767,3250005005727,登記記録の閉鎖等,0,2024-10-25,2024-10-18,企業組合大和中高年事業団,,その他の設立登記法人,山口県,光市,大字三輪９００番地１,,35,210,7430102,,,2024-10-18,清算の結了等,,,2015-10-05,1,,,,,ヤマトチュウコウネンジギョウダン,0
769,3260001038250,登記記録の閉鎖等,0,2024-10-25,2024-10-21,第一警備保障株式会社,,株式会社,岡山県,岡山市北区,今３丁目１番３５号,,33,101,7000975,,,2024-10-21,清算の結了等,,,2023-08-23,1,,,,,ダイイチケイビホショウ,0
818,3500001010515,登記記録の閉鎖等,0,2024-10-25,2024-10-18,株式会社大成パッケージ,,株式会社,愛媛県,西条市,神拝甲４７４番地４,,38,206,7930041,,,2024-10-18,清算の結了等,,,2015-10-05,1,,,,,タイセイパッケージ,0
827,4010001205766,登記記録の閉鎖等,0,2024-10-25,2024-10-01,株式会社本多＆カンパニー,,株式会社,東京都,中央区,新富１丁目１番７号,,13,102,1040041,,,2024-10-01,清算の結了等,,,2019-12-03,1,,,,,ホンタアンドカンパニー,0
835,4010003037150,登記記録の閉鎖等,0,2024-10-25,2024-10-10,合同会社Ｋａｎｔａｒ,,合同会社,東京都,中央区,銀座１丁目６番１１号土志田ビルディング３Ｆ,,13,102,1040061,,,2024-10-10,清算の結了等,,,2022-03-03,1,,,,,カンタル,0
842,4010401001435,登記記録の閉鎖等,0,2024-10-25,2024-10-08,麻布台興業株式会社,,株式会社,東京都,港区,麻布台２丁目２番１号,,13,103,1060041,,,2024-10-08,清算の結了等,,,2015-10-05,1,,,,,アザブダイコウギョウ,0
843,4010401012705,登記記録の閉鎖等,0,2024-10-25,2024-10-07,シーティアイ航空株式会社,,株式会社,東京都,港区,芝公園１丁目８番２１号,,13,103,1050011,,,2024-10-07,清算の結了等,,,2015-10-05,1,,,,,シーティアイコウクウ,0
848,4010401090305,登記記録の閉鎖等,0,2024-10-25,2024-10-08,合同会社ＰＧＳ,,合同会社,東京都,港区,虎ノ門４丁目１番２８号虎ノ門タワーズオフィス２０階,,13,103,1050001,,,2024-10-08,清算の結了等,,,2015-10-05,1,,,,,ピージーエス,0
849,4010401096327,登記記録の閉鎖等,0,2024-10-25,2024-10-03,株式会社オフィスアール,,株式会社,東京都,港区,麻布十番３丁目２番７号,,13,103,1060045,,,2024-10-03,清算の結了等,,,2015-10-05,1,,,,,,0
854,4010402021481,登記記録の閉鎖等,0,2024-10-25,2024-10-03,アノニマス有限会社,,有限会社,東京都,港区,海岸３丁目１５－１５ソルク海岸６０１号室,,13,103,1080022,,,2024-10-03,清算の結了等,,,2015-10-05,1,,,,,アノニマス,0
860,4010405020803,登記記録の閉鎖等,0,2024-10-25,2024-10-08,ＦＳＰ６一般社団法人,,その他の設立登記法人,東京都,港区,虎ノ門４丁目１番２８号,,13,103,1050001,,,2024-10-08,清算の結了等,,,2022-03-16,1,,,,,エフエスピーロク,0
870,4010802011041,登記記録の閉鎖等,0,2024-10-25,2024-10-15,有限会社西山螺子製作所,,有限会社,東京都,大田区,東雪谷５丁目１１番９号,,13,111,1450065,,,2024-10-15,清算の結了等,,,2015-10-05,1,,,,,ニシヤマネジセイサクショ,0
886,4011002029163,登記記録の閉鎖等,0,2024-10-25,2024-10-22,有限会社ｏｆｆｉｃｅ１０００,,有限会社,東京都,稲城市,矢野口３２０１番地の１グランドパーク京王よみうりランド１１１４,,13,225,2060812,,,2024-10-22,清算の結了等,,,2015-10-05,1,,,,,オフィスセン,0
891,4011301006623,登記記録の閉鎖等,0,2024-10-25,2024-10-16,マサキ道路株式会社,,株式会社,東京都,杉並区,堀ノ内２丁目２３番５号,,13,115,1660013,,,2024-10-16,清算の結了等,,,2015-10-05,1,,,,,マサキドウロ,0
909,4020001127852,登記記録の閉鎖等,0,2024-10-25,2024-10-07,ドローンサービス株式会社,,株式会社,神奈川県,川崎市高津区,北見方２丁目２９番２５号,,14,134,2130005,,,2024-10-07,清算の結了等,,,2018-09-10,1,,,,,ドローンサービス,0
917,4030001090273,登記記録の閉鎖等,0,2024-10-25,2024-10-18,株式会社Ｋインストール,,株式会社,埼玉県,所沢市,大字北秋津３０９－８サンドリエ第７所沢１０３,,11,208,3590038,,,2024-10-18,清算の結了等,,,2015-10-05,1,,,,,ケーインストール,0
924,4040001079010,登記記録の閉鎖等,0,2024-10-25,2024-10-21,株式会社ＴＳホーム,,株式会社,千葉県,市川市,湊新田３番６号,,12,203,2720132,,,2024-10-21,清算の結了等,,,2015-10-05,1,,,,,ティーエスホーム,0
930,4040003001979,登記記録の閉鎖等,0,2024-10-25,2024-10-18,合同会社Ｐ－ＴＨＲＥＥ,,合同会社,千葉県,松戸市,和名ケ谷９８５番地の４－１０３号,,12,207,2702232,,,2024-10-18,清算の結了等,,,2015-10-05,1,,,,,,0
938,4060001031712,登記記録の閉鎖等,0,2024-10-25,2024-10-21,株式会社ｋａｈｕｎａ,,株式会社,栃木県,鹿沼市,上野町３９番地２,,09,205,3220021,,,2024-10-21,清算の結了等,,,2019-07-04,1,,,,,カフナ,0
944,4080002005358,登記記録の閉鎖等,0,2024-10-25,2024-10-18,有限会社牧野商店,,有限会社,静岡県,静岡市葵区,山崎２丁目２７番地の３８,,22,101,4211213,,,2024-10-18,清算の結了等,,,2015-10-05,1,,,,,マキノショウテン,0
949,4080102001281,登記記録の閉鎖等,0,2024-10-25,2024-10-23,有限会社コスモ事務機,,有限会社,静岡県,沼津市,双葉町１番２８号,,22,203,4100005,,,2024-10-23,清算の結了等,,,2015-10-05,1,,,,,コスモジムキ,0
965,4110002029840,登記記録の閉鎖等,0,2024-10-25,2024-10-10,有限会社石黒製作所,,有限会社,新潟県,長岡市,与板町岩方２６番地４,,15,202,9402405,,,2024-10-10,清算の結了等,,,2015-10-05,1,,,,,イシグロセイサクショ,0
998,4180002023119,登記記録の閉鎖等,0,2024-10-25,2024-10-09,有限会社共栄住器,,有限会社,愛知県,名古屋市西区,山木１丁目１７１番地,,23,104,4520833,,,2024-10-09,清算の結了等,,,2015-10-05,1,,,,,キョウエイジュウキ,0
1017,4250001012965,登記記録の閉鎖等,0,2024-10-25,2024-10-22,株式会社藤谷,,株式会社,山口県,大島郡周防大島町,大字小松７０４番地９,,35,305,7422106,,,2024-10-22,清算の結了等,,,2015-10-05,1,,,,,フジタニ,0
1018,4250002011636,登記記録の閉鎖等,0,2024-10-25,2024-10-21,有限会社川棚温泉タクシー,00002694,有限会社,山口県,下関市,伊倉東町５番２,,35,201,7510861,,,2024-10-21,清算の結了等,,,2015-10-05,1,,,,,カワタナオンセンタクシー,0
1034,4290801021402,登記記録の閉鎖等,0,2024-10-25,2024-10-09,株式会社里山商会,,株式会社,福岡県,京都郡苅田町,神田町１丁目４番１８号,,40,621,8000361,,,2024-10-09,清算の結了等,,,2015-10-05,1,,,,,サトヤマショウカイ,0
1037,4310001001516,登記記録の閉鎖等,0,2024-10-25,2024-10-16,長崎みのる株式会社,,株式会社,長崎県,長崎市,大黒町５番８号,,42,201,8500057,,,2024-10-16,清算の結了等,,,2015-10-05,1,,,,,ナガサキミノル,0
1038,4310002008089,登記記録の閉鎖等,0,2024-10-25,2024-10-23,有限会社佐藤工作所,,有限会社,長崎県,西彼杵郡長与町,本川内郷９６２番地,,42,307,8512122,,,2024-10-23,清算の結了等,,,2015-10-05,1,,,,,サトウコウサクショ,0
1044,4350002017342,登記記録の閉鎖等,0,2024-10-25,2024-10-18,有限会社井上石油店,,有限会社,宮崎県,串間市,大字西方５７３３番地４,,45,207,8880001,,,2024-10-18,清算の結了等,,,2015-10-05,1,,,,,,0
1059,4380001011368,登記記録の閉鎖等,0,2024-10-25,2024-10-21,岩通マニュファクチャリング株式会社,,株式会社,福島県,須賀川市,前田川字宮の前２１６番－１,,07,207,9620814,,,2024-10-21,合併による解散等,9011301000786,令和６年１０月１日東京都杉並区久我山一丁目７番４１号岩崎通信機株式会社（9011301000786）に合併し解散,2015-10-05,1,,,,,,0
1086,5010001079482,登記記録の閉鎖等,0,2024-10-25,2024-10-11,株式会社ユナイテッドワークス,,株式会社,東京都,千代田区,外神田６丁目１１番１０号,,13,101,1010021,,,2024-10-11,清算の結了等,,,2015-10-05,1,,,,,ユナイテッドワークス,0
1091,5010001241562,登記記録の閉鎖等,0,2024-10-25,2024-10-11,株式会社むらかず不動産,,株式会社,東京都,中央区,新川１丁目２７番５－１４０２号,,13,102,1040033,,,2024-10-11,清算の結了等,,,2024-01-19,1,,,,,ムラカズフドウサン,0
1110,5010405020802,登記記録の閉鎖等,0,2024-10-25,2024-10-08,ＦＳＰ４一般社団法人,,その他の設立登記法人,東京都,港区,虎ノ門４丁目１番２８号,,13,103,1050001,,,2024-10-08,清算の結了等,,,2022-03-16,1,,,,,エフエスピーヨン,0
1185,5030001076486,登記記録の閉鎖等,0,2024-10-25,2024-10-16,株式会社中村建設工業,,株式会社,埼玉県,春日部市,大沼２丁目７１番地５９,,11,214,3440038,,,2024-10-16,清算の結了等,,,2015-10-05,1,,,,,ナカムラケンセツコウギョウ,0
1192,5030002051273,登記記録の閉鎖等,0,2024-10-25,2024-10-16,有限会社エーアイ,,有限会社,埼玉県,草加市,氷川町２１７１番地１１,,11,221,3400034,,,2024-10-16,清算の結了等,,,2015-10-05,1,,,,,エーアイ,0
1193,5030002057287,登記記録の閉鎖等,0,2024-10-25,2024-10-16,有限会社ワールドハウジング,,有限会社,埼玉県,上尾市,大字平方３１０９番地１,,11,219,3620059,,,2024-10-16,清算の結了等,,,2015-10-05,1,,,,,ワールドハウジング,0
1195,5040001068895,登記記録の閉鎖等,0,2024-10-25,2024-10-18,株式会社菊池設備工業,,株式会社,千葉県,我孫子市,中峠３０５０番地の４,,12,222,2701121,,,2024-10-18,清算の結了等,,,2015-10-05,1,,,,,キクチセツビコウギョウ,0
1212,5060002013056,登記記録の閉鎖等,0,2024-10-25,2024-10-22,有限会社つな川,,有限会社,栃木県,塩谷郡高根沢町,宝石台３丁目２番地１,,09,386,3291231,,,2024-10-22,清算の結了等,,,2015-10-05,1,,,,,ツナカワ,0
1220,5080001011190,登記記録の閉鎖等,0,2024-10-25,2024-10-17,株式会社清水商会,,株式会社,静岡県,静岡市清水区,立花２４番地の１の１,,22,103,4240304,,,2024-10-17,清算の結了等,,,2015-10-05,1,,,,,シミズショウカイ,0
1258,5140001104070,登記記録の閉鎖等,0,2024-10-25,2024-10-18,株式会社兵庫在宅生活支援事業団,,株式会社,兵庫県,神戸市垂水区,五色山４丁目１５番７号,,28,108,6550035,,,2024-10-18,清算の結了等,,,2016-11-15,1,,,,,ヒョウゴザイタクシエンジギョウダン,0
1282,5190002023604,登記記録の閉鎖等,0,2024-10-25,2024-10-22,有限会社山城メディカル,,有限会社,三重県,四日市市,あさけが丘２丁目１番地１１２,,24,202,5128055,,,2024-10-22,清算の結了等,,,2015-10-05,1,,,,,ヤマジョウメディカル,0
1292,5240001063372,登記記録の閉鎖等,0,2024-10-25,2024-10-21,株式会社Ｋ‐スタイル,,株式会社,広島県,広島市中区,基町１８番６－５３０号,,34,101,7300011,,,2024-10-21,合併による解散等,2240001062666,令和６年１０月１９日広島市西区草津港一丁目４番２１号フードテック株式会社（2240001062666）に合併し解散,2024-06-12,1,,,,,ケースタイル,0
1311,5290002051834,登記記録の閉鎖等,0,2024-10-25,2024-09-26,有限会社ヒラカワ,,有限会社,福岡県,小郡市,三沢２１２３番地２,,40,216,8380106,,,2024-09-26,清算の結了等,,,2015-10-05,1,,,,,ヒラカワ,0
1312,5290003014583,登記記録の閉鎖等,0,2024-10-25,2024-09-20,Ａｒａｕｋａｎａ　Ｍｅｄｉａ合同会社,,合同会社,福岡県,福岡市中央区,大名２丁目６番１１号,,40,133,8100041,,,2024-09-20,清算の結了等,,,2023-11-09,1,,,,,アラウカナメディア,0
1314,5290005016933,登記記録の閉鎖等,0,2024-10-25,2024-09-20,一般社団法人ブライダル蘭,,その他の設立登記法人,福岡県,福岡市博多区,豊２丁目５番１９号,,40,132,8120042,,,2024-09-20,清算の結了等,,,2018-07-27,1,,,,,ブライダルラン,0
1321,5300002009707,登記記録の閉鎖等,0,2024-10-25,2024-10-18,有限会社ヘルパーステーションすみれ,,有限会社,佐賀県,鳥栖市,永吉町７８２番地１７,,41,203,8410011,,,2024-10-18,清算の結了等,,,2015-10-05,1,,,,,ヘルパーステーションスミレ,0
1330,5350002013712,登記記録の閉鎖等,0,2024-10-25,2024-10-18,有限会社穴井豆腐製造所,,有限会社,宮崎県,都城市,高木町４８５８番地１,,45,202,8850003,,,2024-10-18,清算の結了等,,,2015-10-05,1,,,,,,0
1345,5380001021548,登記記録の閉鎖等,0,2024-10-25,2024-10-08,フェネティック株式会社,,株式会社,宮城県,仙台市青葉区,春日町９番１５号ＴＨＥ６,,04,101,9800821,,,2024-10-08,清算の結了等,,,2015-10-05,1,,,,,フェネティック,0
1352,5430002044955,登記記録の閉鎖等,0,2024-10-25,2024-10-23,有限会社カー・プラス,,有限会社,北海道,北広島市,稲穂町東１１丁目１番地１６,,01,234,0611125,,,2024-10-23,清算の結了等,,,2015-10-05,1,,,,,カープラス,0
1356,5480002009367,登記記録の閉鎖等,0,2024-10-25,2024-10-24,有限会社藤本建設,,有限会社,徳島県,吉野川市,鴨島町知恵島７２番地の４,,36,205,7760014,,,2024-10-24,清算の結了等,,,2015-10-05,1,,,,,フジモトケンセツ,0
1375,6010003037149,登記記録の閉鎖等,0,2024-10-25,2024-10-10,合同会社Ｏｒｔｅｌｌｏ,,合同会社,東京都,中央区,銀座１丁目６番１１号土志田ビルディング３Ｆ,,13,102,1040061,,,2024-10-10,清算の結了等,,,2022-03-03,1,,,,,オルテッロ,0
1380,6010005030878,登記記録の閉鎖等,0,2024-10-25,2024-10-21,一般社団法人ひだうし,,その他の設立登記法人,東京都,中央区,日本橋１丁目４番１号,,13,102,1030027,,,2024-10-21,清算の結了等,,,2019-10-10,1,,,,,ヒダウシ,0
1384,6010401162515,登記記録の閉鎖等,0,2024-10-25,2024-10-04,Ｃｏｎｎｅｋｔ株式会社,,株式会社,東京都,港区,南麻布３丁目２０番１号Ｄａｉｗａ麻布テラス５階,,13,103,1060047,,,2024-10-04,清算の結了等,,,2021-09-06,1,,,,,コネクト,0
1388,6010403021462,登記記録の閉鎖等,0,2024-10-25,2024-10-16,ＪＬＭＬ１１合同会社,,合同会社,東京都,港区,虎ノ門５丁目１３番１号虎ノ門４０ＭＴビル７階,,13,103,1050001,,,2024-10-16,清算の結了等,,,2019-09-17,1,,,,,ジェイエルエムエルイレブン,0
1391,6010405013474,登記記録の閉鎖等,0,2024-10-25,2024-10-08,ペガサスＰＧＳ一般社団法人,,その他の設立登記法人,東京都,港区,虎ノ門４丁目１番２８号,,13,103,1050001,,,2024-10-08,清算の結了等,,,2015-10-05,1,,,,,ペガサスピージーエス,0
1395,6010405019109,登記記録の閉鎖等,0,2024-10-25,2024-10-04,Ｎａｇｏｙａ　Ｙａｔｏｍｉ　Ｉｎｖｅｓｔｍｅｎｔ特定目的会社,,その他の設立登記法人,東京都,港区,六本木１丁目９番１０号アークヒルズ仙石山森タワー４０階,,13,103,1060032,,,2024-10-04,清算の結了等,,,2020-09-17,1,,,,,ナゴヤヤトミインベストメント,0
1396,6010405020801,登記記録の閉鎖等,0,2024-10-25,2024-10-08,ＦＳＰ１一般社団法人,,その他の設立登記法人,東京都,港区,虎ノ門４丁目１番２８号,,13,103,1050001,,,2024-10-08,清算の結了等,,,2022-03-16,1,,,,,エフエスピーイチ,0
1413,6011005007206,登記記録の閉鎖等,0,2024-10-25,2024-10-21,一般社団法人移動販売オーナーズ協会,,その他の設立登記法人,東京都,中央区,新川１丁目１０－３ブンゴビル３Ｆ,,13,102,1040033,,,2024-10-21,清算の結了等,,,2017-05-18,1,,,,,イドウハンバイオーナーズキョウカイ,0
1419,6011201014468,登記記録の閉鎖等,0,2024-10-25,2024-10-03,株式会社ソングエクス・ジャズ,,株式会社,東京都,港区,虎ノ門３丁目７番５号ＲｏｏＴｓ２１ビル１Ｆ,,13,103,1050001,,,2024-10-03,清算の結了等,,,2015-10-05,1,,,,,ソングエクスジャズ,0
1420,6011301017577,登記記録の閉鎖等,0,2024-10-25,2024-10-18,株式会社ライフスタイルプランニング・ハルク,,株式会社,東京都,杉並区,成田東２丁目３６番１２号,,13,115,1660015,,,2024-10-18,清算の結了等,,,2015-10-05,1,,,,,,0
1422,6011502003905,登記記録の閉鎖等,0,2024-10-25,2024-10-15,有限会社ツルタ製版,,有限会社,東京都,豊島区,上池袋３丁目４５番５号東日本印刷株式会社２Ｆ,,13,116,1700012,,,2024-10-15,清算の結了等,,,2015-10-05,1,,,,,,0
1428,6011802024923,登記記録の閉鎖等,0,2024-10-25,2024-10-18,有限会社然屋,,有限会社,東京都,足立区,伊興２丁目５番１５号,,13,121,1210823,,,2024-10-18,清算の結了等,,,2015-10-05,1,,,,,ゼンヤ,0
1429,6012301010010,登記記録の閉鎖等,0,2024-10-25,2024-10-01,株式会社Ｒａｋｕｓａｉ,,株式会社,東京都,品川区,大崎２丁目１番１号ＴｈｉｎｋＰａｒｋＴｏｗｅｒ,,13,109,1410032,,,2024-10-01,合併による解散等,6010701023251,令和６年１０月１日東京都品川区大崎二丁目１番１号ＴｈｉｎｋＰａｒｋＴｏｗｅｒ株式会社エムステージ（6010701023251）に合併し解散,2015-10-05,1,,,,,ラクサイ,0
1442,6021001008850,登記記録の閉鎖等,0,2024-10-25,2024-10-24,株式会社岩瀬薬局,,株式会社,神奈川県,鎌倉市,大船２丁目２６番１２号,,14,204,2470056,,,2024-10-24,清算の結了等,,,2015-10-05,1,,,,,,0
1443,6021001043328,登記記録の閉鎖等,0,2024-10-25,2024-10-23,株式会社ハートアンドマインド,,株式会社,神奈川県,横須賀市,衣笠栄町２丁目２０番地,,14,201,2380031,,,2024-10-23,清算の結了等,,,2015-10-05,1,,,,,ハートアンドマインド,0
1483,6080401017258,登記記録の閉鎖等,0,2024-10-25,2024-10-21,トーア・トラベル株式会社,,株式会社,静岡県,掛川市,西大渕６９１番地,,22,213,4371304,,,2024-10-21,清算の結了等,,,2015-10-05,1,,,,,トーアトラベル,0
1489,6100001023298,登記記録の閉鎖等,0,2024-10-25,2024-10-15,株式会社Ｆ＆Ｗ,,株式会社,長野県,下伊那郡高森町,下市田７７５番地１,,20,403,3993103,,,2024-10-15,清算の結了等,,,2015-10-05,1,,,,,エフアンドダブリュ,0
1493,6110001038460,登記記録の閉鎖等,0,2024-10-25,2024-10-18,株式会社ＥＬ　ｍａｎａｇｅｍｅｎｔ,,株式会社,新潟県,新潟市南区,大郷２８１９番地,,15,106,9501404,,,2024-10-18,清算の結了等,,,2024-06-06,1,,,,,イーエルマネジメント,0
1495,6110002002936,登記記録の閉鎖等,0,2024-10-25,2024-10-18,信興有限会社,,有限会社,新潟県,新潟市中央区,西堀前通５番町７４０番地１,,15,103,9518062,,,2024-10-18,合併による解散等,5110001004595,令和６年６月２５日新潟市中央区西堀前通五番町７４０番地１長谷川商事株式会社（5110001004595）に合併し解散,2015-10-05,1,,,,,シンコウ,0
1502,6120001140711,登記記録の閉鎖等,0,2024-10-25,2024-10-21,ウィンテクノ株式会社,,株式会社,大阪府,大阪市東成区,大今里１丁目１６番７号,,27,115,5370012,,,2024-10-21,清算の結了等,,,2015-10-05,1,,,,,ウィンテクノ,0
1520,6120103001613,登記記録の閉鎖等,0,2024-10-25,2024-10-17,合同会社イングランド,,合同会社,大阪府,松原市,高見の里５丁目５０７番地の１（３－３１３号）,,27,217,5800021,,,2024-10-17,合併による解散等,2120101049699,令和６年１０月１７日大阪府松原市上田三丁目６番１号２階株式会社ヘアーズロンドン（2120101049699）に合併し解散,2015-10-05,1,,,,,イングランド,0
1540,6140003002065,登記記録の閉鎖等,0,2024-10-25,2024-10-18,合資会社松尾商店,,合資会社,兵庫県,神戸市中央区,旭通３丁目１番９号,,28,110,6510095,,,2024-10-18,清算の結了等,,,2015-10-05,1,,,,,マツオショウテン,0
1548,6180001158888,登記記録の閉鎖等,0,2024-10-25,2024-10-10,株式会社ＴＡＫＡＲＡＴＥＣＨ,,株式会社,愛知県,名古屋市西区,樋の口町１番１５号ホーワビル３階１５号室,,23,104,4510034,,,2024-10-10,清算の結了等,,,2023-11-15,1,,,,,タカラテック,0
1551,6180002010412,登記記録の閉鎖等,0,2024-10-25,2024-10-11,有限会社メルク,,有限会社,愛知県,名古屋市瑞穂区,弥富通四丁目３７番地,,23,108,4670000,,,2024-10-11,清算の結了等,,,2015-10-05,1,,,,,メルク,0
1554,6190003002473,登記記録の閉鎖等,0,2024-10-25,2024-10-24,合同会社ルミネクス伊勢志摩,,合同会社,三重県,志摩市,志摩町御座８７８番地,,24,215,5170705,,,2024-10-24,清算の結了等,,,2016-02-22,1,,,,,ルミネクスイセシマ,0
1560,6240003005140,登記記録の閉鎖等,0,2024-10-25,2024-10-21,広島商事合同会社,,合同会社,広島県,広島市中区,大手町１丁目１番２６号大手町一番ビル内,,34,101,7300051,,,2024-10-21,清算の結了等,,,2021-06-14,1,,,,,ヒロシマショウジ,0
1562,6250001005744,登記記録の閉鎖等,0,2024-10-25,2024-10-18,西経興産株式会社,,株式会社,山口県,下関市,小月茶屋１丁目７番２３号,,35,201,7501144,,,2024-10-18,清算の結了等,,,2015-10-05,1,,,,,ニシケイコウサン,0
1567,6260003002648,登記記録の閉鎖等,0,2024-10-25,2024-09-20,エルスリー合同会社,,合同会社,福岡県,糸島市,高田４丁目２４番１１号,,40,230,8191102,,,2024-09-20,清算の結了等,,,2018-09-05,1,,,,,,0
1577,6290002033138,登記記録の閉鎖等,0,2024-10-25,2024-10-10,有限会社大洋電興社,,有限会社,福岡県,糸島市,二丈深江１丁目１８番２号,,40,230,8191601,,,2024-10-10,清算の結了等,,,2015-10-05,1,,,,,タイヨウデンコウシャ,0
1587,6360001014461,登記記録の閉鎖等,0,2024-10-25,2024-10-23,株式会社東洋,,株式会社,沖縄県,沖縄市,宮里３丁目８番３７号,,47,211,9042165,,,2024-10-23,清算の結了等,,,2015-10-05,1,,,,,トウヨウ,0
1589,6360002022488,登記記録の閉鎖等,0,2024-10-25,2024-10-23,有限会社仲間開発,,有限会社,沖縄県,宮古島市,城辺字比嘉１０４９番地の３,,47,214,9060104,,,2024-10-23,清算の結了等,,,2015-10-05,1,,,,,ナカマカイハツ,0
1611,6450002010590,登記記録の閉鎖等,0,2024-10-25,2024-10-22,有限会社渡辺呉服店,,有限会社,北海道,上川郡和寒町,字南町３１番地,,01,464,0980131,,,2024-10-22,清算の結了等,,,2015-10-05,1,,,,,ワタナベゴフクテン,0
1612,6450005001810,登記記録の閉鎖等,0,2024-10-25,2024-10-22,協同組合インテリアチェーンビック,,その他の設立登記法人,北海道,深川市,三条９番２４号,,01,228,0740003,,,2024-10-22,清算の結了等,,,2015-10-05,1,,,,,インテリアチェーンビック,0
1626,7010001207941,登記記録の閉鎖等,0,2024-10-25,2024-10-07,株式会社シネ・ホールディングス,,株式会社,東京都,中央区,銀座１丁目１９番７号,,13,102,1040061,,,2024-10-07,合併による解散等,3010001046856,令和６年１０月１日東京都中央区銀座一丁目１９番７号株式会社シネ・フォーカス（3010001046856）に合併し解散,2020-03-03,1,,,,,シネホールディングス,0
1634,7010005034647,登記記録の閉鎖等,0,2024-10-25,2024-10-22,一般社団法人ＮＲＴグロース１８,,その他の設立登記法人,東京都,中央区,八丁堀４丁目２番１０号ＡＯＪ税理士法人内,,13,102,1040032,,,2024-10-22,清算の結了等,,,2022-02-28,1,,,,,エヌアールティグロースエイティーン,0
1659,7010602021238,登記記録の閉鎖等,0,2024-10-25,2024-10-21,有限会社協栄,,有限会社,東京都,墨田区,石原３丁目２４番７号,,13,107,1300011,,,2024-10-21,清算の結了等,,,2015-10-05,1,,,,,,0
1662,7010901009743,登記記録の閉鎖等,0,2024-10-25,2024-10-18,株式会社八郷技研,,株式会社,東京都,世田谷区,深沢３丁目２８番１７号,,13,112,1580081,,,2024-10-18,清算の結了等,,,2015-10-05,1,,,,,ヤサトギケン,0
1677,7011105008202,登記記録の閉鎖等,0,2024-10-25,2024-10-22,一般社団法人エスプーマ,,その他の設立登記法人,東京都,千代田区,大手町２丁目２番２号アーバンネット大手町ビル,,13,101,1000004,,,2024-10-22,清算の結了等,,,2018-02-15,1,,,,,エスプーマ,0
1685,7011803001598,登記記録の閉鎖等,0,2024-10-25,2024-10-22,合同会社グッドメディアソリューション,,合同会社,東京都,足立区,西新井本町３丁目５番地２３,,13,121,1230845,,,2024-10-22,清算の結了等,,,2015-10-05,1,,,,,グッドメディアソリューション,0
1699,7020001106688,登記記録の閉鎖等,0,2024-10-25,2024-10-22,株式会社イノバス,,株式会社,神奈川県,川崎市高津区,宇奈根６０１番地,,14,134,2130031,,,2024-10-22,合併による解散等,7120001104228,令和６年９月３０日東京都渋谷区代々木二丁目２番１号株式会社ジョブカン会計（7120001104228）に合併し解散,2015-10-05,1,,,,,イノバス,0
1700,7020002035928,登記記録の閉鎖等,0,2024-10-25,2024-10-17,有限会社丸天,,有限会社,東京都,大田区,下丸子４丁目４番８号,,13,111,1460092,,,2024-10-17,清算の結了等,,,2015-10-05,1,,,,,マルテン,0
1702,7020002088158,登記記録の閉鎖等,0,2024-10-25,2024-10-07,有限会社有馬金型製作所,,有限会社,神奈川県,川崎市高津区,久末１２１番地１,,14,134,2130026,,,2024-10-07,清算の結了等,,,2015-10-05,1,,,,,アリマカナガタセイサクショ,0
1716,7030005016726,登記記録の閉鎖等,0,2024-10-25,2024-10-16,特定非営利活動法人福祉ライフサポート,,その他の設立登記法人,埼玉県,川口市,大字安行吉岡１４２８番地の３号ＳＵＮ・ＣＲＥＳＴＡＬＬ１０２号,,11,203,3340072,,,2024-10-16,清算の結了等,,,2015-10-05,1,,,,,フクシライフサポート,0
1728,7040002061716,登記記録の閉鎖等,0,2024-10-25,2024-10-18,有限会社ミキフーズ,,有限会社,千葉県,佐倉市,藤治台２７番地１０,,12,212,2850816,,,2024-10-18,清算の結了等,,,2015-10-05,1,,,,,ミキフーズ,0
1747,7070001018243,登記記録の閉鎖等,0,2024-10-25,2024-10-24,株式会社上武資機材,,株式会社,群馬県,渋川市,北橘町下箱田６２６番地２７,,10,208,3770061,,,2024-10-24,清算の結了等,,,2015-10-05,1,,,,,ジョウブシキザイ,0
1749,7070001026015,登記記録の閉鎖等,0,2024-10-25,2024-10-24,ビープラス株式会社,,株式会社,群馬県,伊勢崎市,南千木町１７７６番地１,,10,204,3720033,,,2024-10-24,清算の結了等,,,2015-10-05,1,,,,,ビープラス,0
1753,7080101008515,登記記録の閉鎖等,0,2024-10-25,2024-10-23,後藤鉄工株式会社,,株式会社,静岡県,富士市,神谷６０２番地の１,,22,210,4170821,,,2024-10-23,清算の結了等,,,2015-10-05,1,,,,,ゴトウテッコウ,0
1755,7080101022904,登記記録の閉鎖等,0,2024-10-25,2024-10-23,株式会社村総,,株式会社,静岡県,富士市,松岡９０２番地の１ローズスクエアＢ－１０１号,,22,210,4160909,,,2024-10-23,清算の結了等,,,2021-11-05,1,,,,,ムラソウ,0
1757,7080102015378,登記記録の閉鎖等,0,2024-10-25,2024-10-22,有限会社米山自動車販売,,有限会社,静岡県,富士市,緑町２番３０号,,22,210,4170049,,,2024-10-22,清算の結了等,,,2015-10-05,1,,,,,ヨネヤマジドウシャハンバイ,0
1771,7120001140132,登記記録の閉鎖等,0,2024-10-25,2024-10-24,株式会社Ｍ・Ｉ・Ｃインコーポレーテッド,,株式会社,大阪府,大阪市浪速区,桜川１丁目１番３２－１１０３号,,27,111,5560022,,,2024-10-24,清算の結了等,,,2015-10-05,1,,,,,エムアイシーインコーポレーテッド,0
1783,7120005021683,登記記録の閉鎖等,0,2024-10-25,2024-10-23,ワールドビジョン協同組合,,その他の設立登記法人,大阪府,大阪市中央区,本町橋５番１４号,,27,128,5400029,,,2024-10-23,清算の結了等,,,2020-07-08,1,,,,,ワールドビジョン,0
1808,7180001062783,登記記録の閉鎖等,0,2024-10-25,2024-10-07,青木電気工事株式会社,,株式会社,愛知県,名古屋市天白区,植田東３丁目２０５番地,,23,116,4680006,,,2024-10-07,清算の結了等,,,2015-10-05,1,,,,,アオキデンキコウジ,0
1821,7200003000623,登記記録の閉鎖等,0,2024-10-25,2024-10-23,合資会社なまずや第二分店,,合資会社,岐阜県,岐阜市,住田町１丁目２３番地,,21,201,5008843,,,2024-10-23,清算の結了等,,,2015-10-05,1,,,,,ナマズヤダイニブンテン,0
1828,7240002006163,登記記録の閉鎖等,0,2024-10-25,2024-10-23,有限会社コバヤシ,,有限会社,広島県,広島市東区,中山西２丁目１番１１号,,34,102,7320025,,,2024-10-23,清算の結了等,,,2015-10-05,1,,,,,,0
1829,7240002047389,登記記録の閉鎖等,0,2024-10-25,2024-10-21,株式会社素財食品,,株式会社,広島県,福山市,本庄町中３丁目１３番９－４号,,34,207,7200076,,,2024-10-21,清算の結了等,,,2015-10-05,1,,,,,ソザイショクヒン,0
1830,7260001025187,登記記録の閉鎖等,0,2024-10-25,2024-10-23,株式会社トーキーシステム,,株式会社,岡山県,岡山市中区,藤崎９７番地２,,33,102,7028006,,,2024-10-23,清算の結了等,,,2015-10-05,1,,,,,トーキーシステム,0
1831,7260001033545,登記記録の閉鎖等,0,2024-10-25,2024-10-21,株式会社オーデザイン,,株式会社,岡山県,真庭市,久世１５３４番地３,,33,214,7193201,,,2024-10-21,清算の結了等,,,2019-09-25,1,,,,,オーデザイン,0
1851,7370602000593,登記記録の閉鎖等,0,2024-10-25,2024-10-09,有限会社ケンゾウ,,有限会社,宮城県,多賀城市,新田字南安楽寺１１番地の４,,04,209,9850854,,,2024-10-09,清算の結了等,,,2015-10-05,1,,,,,ケンゾウ,0
1855,7430001009445,登記記録の閉鎖等,0,2024-10-25,2024-10-18,株式会社大東建設工業,,株式会社,北海道,札幌市東区,北三十六条東２２丁目１０番７号,,01,103,0070836,,,2024-10-18,清算の結了等,,,2015-10-05,1,,,,,ダイトウケンセツコウギョウ,0
1888,8010401148537,登記記録の閉鎖等,0,2024-10-25,2024-10-11,Ｆｉｎｄｅｒ．ｃｏｍ　Ｊａｐａｎ株式会社,,株式会社,東京都,中央区,日本橋２丁目２番３号,,13,102,1030027,,,2024-10-11,清算の結了等,,,2019-10-08,1,,,,,ファインダードットコムジャパン,0
1902,8010405020808,登記記録の閉鎖等,0,2024-10-25,2024-10-08,ＦＳＰ４０一般社団法人,,その他の設立登記法人,東京都,港区,虎ノ門４丁目１番２８号,,13,103,1050001,,,2024-10-08,清算の結了等,,,2022-03-16,1,,,,,エフエスピーヨンジュウ,0
1909,8010602015965,登記記録の閉鎖等,0,2024-10-25,2024-10-23,有限会社林屋酒店,,有限会社,東京都,墨田区,錦糸２丁目４番３号,,13,107,1300013,,,2024-10-23,清算の結了等,,,2015-10-05,1,,,,,ハヤシヤサケテン,0
1913,8010802014668,登記記録の閉鎖等,0,2024-10-25,2024-10-21,森田銘板工業有限会社,,有限会社,東京都,大田区,東雪谷４丁目１１番１３号,,13,111,1450065,,,2024-10-21,清算の結了等,,,2015-10-05,1,,,,,モリタメイバンコウギョウ,0
1914,8010901004009,登記記録の閉鎖等,0,2024-10-25,2024-10-21,株式会社興洋,,株式会社,東京都,世田谷区,祖師谷６丁目２９番４号,,13,112,1570072,,,2024-10-21,清算の結了等,,,2015-10-05,1,,,,,コウヨウ,0
1936,8011103006041,登記記録の閉鎖等,0,2024-10-25,2024-10-11,明芳ビルシステム合同会社,,合同会社,東京都,新宿区,高田馬場２丁目１４番９号,,13,104,1690075,,,2024-10-11,清算の結了等,,,2016-01-08,1,,,,,メイホウビルシステム,0
1948,8011702012159,登記記録の閉鎖等,0,2024-10-25,2024-10-21,有限会社ゆう屋高橋酒店,00056728,有限会社,東京都,江戸川区,鹿骨４丁目２２番２０号,,13,123,1330073,,,2024-10-21,清算の結了等,,,2015-10-05,1,,,,,ユウヤタカハシサケテン,0
1962,8020001135034,登記記録の閉鎖等,0,2024-10-25,2024-10-07,株式会社ｖｉｚｆ,,株式会社,神奈川県,横浜市都筑区,茅ケ崎中央２０番１２,,14,118,2240032,,,2024-10-07,清算の結了等,,,2020-02-20,1,,,,,ビゾフ,0
1965,8020002044234,登記記録の閉鎖等,0,2024-10-25,2024-10-07,有限会社西木金物店,,有限会社,神奈川県,横浜市中区,本牧町２丁目３１２番地ハイラーク本牧５２１号,,14,104,2310806,,,2024-10-07,清算の結了等,,,2015-10-05,1,,,,,,0
1966,8020003018682,登記記録の閉鎖等,0,2024-10-25,2024-10-07,株式会社デフィハウスコンサルタント,,株式会社,神奈川県,横浜市港北区,高田東３丁目２番３－２０９号綱島ダイヤモンドパレス,,14,109,2230065,,,2024-10-07,清算の結了等,,,2020-10-22,1,,,,,デフィハウスコンサルタント,0
1976,8030001098164,登記記録の閉鎖等,0,2024-10-25,2024-10-17,株式会社ユー・アイ,,株式会社,埼玉県,桶川市,下日出谷西２丁目８－１８,,11,231,3630028,,,2024-10-17,清算の結了等,,,2015-10-05,1,,,,,ユーアイ,0
1979,8030002042773,登記記録の閉鎖等,0,2024-10-25,2024-10-16,有限会社齋藤新聞店,,有限会社,埼玉県,加須市,富士見町１番１号,,11,210,3470045,,,2024-10-16,清算の結了等,,,2015-10-05,1,,,,,サイトウシンブンテン,0
1981,8030002077027,登記記録の閉鎖等,0,2024-10-25,2024-10-16,有限会社小賀坂製作所,,有限会社,埼玉県,入間郡三芳町,大字藤久保４６４番地７,,11,324,3540041,,,2024-10-16,清算の結了等,,,2015-10-05,1,,,,,コガサカセイサクショ,0
1982,8030005003517,登記記録の閉鎖等,0,2024-10-25,2024-10-17,医療法人桂慈会,,その他の設立登記法人,埼玉県,所沢市,大字山口字児泉１５２９番地２３,,11,208,3591145,,,2024-10-17,清算の結了等,,,2015-10-05,1,,,,,ケイジカイ,0
1984,8040001069429,登記記録の閉鎖等,0,2024-10-25,2024-10-18,株式会社ＭｉｎｄＲｉｓｅ,,株式会社,千葉県,柏市,明原１丁目２－４,,12,217,2770843,,,2024-10-18,清算の結了等,,,2015-10-05,1,,,,,マインドライズ,0
2001,8080003002813,登記記録の閉鎖等,0,2024-10-25,2024-10-01,ＳＤＲＳ合同会社,,合同会社,東京都,渋谷区,神宮前６丁目２３番４号桑野ビル２階,,13,113,1500001,,,2024-10-01,清算の結了等,,,2022-06-03,1,,,,,エスディーアールズ,0
2004,8080101015320,登記記録の閉鎖等,0,2024-10-25,2024-10-23,アイラシア株式会社,,株式会社,静岡県,裾野市,佐野１３４６番地の２,,22,220,4101118,,,2024-10-23,清算の結了等,,,2015-10-05,1,,,,,アイラシア,0
2019,8110002011076,登記記録の閉鎖等,0,2024-10-25,2024-10-18,有限会社阿部時計店,,有限会社,新潟県,新潟市西蒲区,曽根２５４番地,,15,108,9590422,,,2024-10-18,清算の結了等,,,2015-10-05,1,,,,,アベトケイテン,0
2050,8140002069616,登記記録の閉鎖等,0,2024-10-25,2024-10-18,株式会社ドリーム,,株式会社,兵庫県,淡路市,大谷９４５番地の１,,28,226,6562224,,,2024-10-18,合併による解散等,1140001085174,令和６年１０月１日兵庫県淡路市大谷９４５番地の１増田住建株式会社（1140001085174）に合併し解散,2015-10-05,1,,,,,ドリーム,0
2052,8160002000140,登記記録の閉鎖等,0,2024-10-25,2024-10-23,有限会社石山製材所,,有限会社,滋賀県,大津市,大石龍門５丁目２番１２号,,25,201,5202266,,,2024-10-23,清算の結了等,,,2015-10-05,1,,,,,イシヤマセイザイショ,0
2057,8180002065966,登記記録の閉鎖等,0,2024-10-25,2024-10-08,有限会社小森工業所,,有限会社,愛知県,春日井市,西高山町２丁目１０番地の１４,,23,206,4860911,,,2024-10-08,清算の結了等,,,2015-10-05,1,,,,,コモリコウギョウショ,0
2058,8180003022520,登記記録の閉鎖等,0,2024-10-25,2024-10-21,合同会社ミラ,,合同会社,愛知県,名古屋市瑞穂区,洲山町２丁目３０番地,,23,108,4670066,,,2024-10-21,合併による解散等,1180301038596,令和６年１０月１日愛知県岡崎市大平町字天神前８番地１株式会社アース（1180301038596）に合併し解散,2021-05-19,1,,,,,ミラ,0
2068,8240001057025,登記記録の閉鎖等,0,2024-10-25,2024-10-21,株式会社隼直通商,,株式会社,広島県,三次市,和知町２１９４－２,,34,209,7296201,,,2024-10-21,清算の結了等,,,2020-12-03,1,,,,,ハヤマツウショウ,0
2083,8300001008632,登記記録の閉鎖等,0,2024-10-25,2024-10-23,株式会社佐賀消防防災センター,,株式会社,佐賀県,佐賀市,鍋島町大字八戸３０８３番地,,41,201,8400857,,,2024-10-23,清算の結了等,,,2015-10-05,1,,,,,サガショウボウボウサイセンター,0
2097,8370801001383,登記記録の閉鎖等,0,2024-10-25,2024-10-01,株式会社スズキショップわたり,,株式会社,宮城県,亘理郡亘理町,逢隈上郡字上２６４番地,00081700,04,361,9892381,,,2024-10-01,合併による解散等,3370801000654,令和６年９月３０日宮城県亘理郡山元町高瀬字南下高瀬９８番地株式会社ナルケ自動車（3370801000654）に合併し解散,2015-10-05,1,,,,,スズキショップワタリ,0
2102,8390002013945,登記記録の閉鎖等,0,2024-10-25,2024-10-15,相馬有限会社,,有限会社,山形県,東置賜郡高畠町,大字一本柳２２２１番地,,06,381,9920334,,,2024-10-15,清算の結了等,,,2015-10-05,1,,,,,ソウマ,0
2106,8430001087861,登記記録の閉鎖等,0,2024-10-25,2024-10-16,株式会社ダイニング・エイト,,株式会社,北海道,札幌市白石区,南郷通１丁目南９番２５－４０１号,,01,104,0030022,,,2024-10-16,清算の結了等,,,2022-11-11,1,,,,,ダイニングエイト,0
2113,8490002005073,登記記録の閉鎖等,0,2024-10-25,2024-10-23,有限会社宮崎保温,,有限会社,高知県,高知市,一宮中町１丁目１番２０号,,39,201,7818134,,,2024-10-23,清算の結了等,,,2015-10-05,1,,,,,ミヤザキホオン,0
2129,9010001196126,登記記録の閉鎖等,0,2024-10-25,2024-10-07,株式会社ジーエムシー港南,,株式会社,東京都,港区,芝大門２丁目１２番９号,,13,103,1050012,,,2024-10-07,合併による解散等,3010001137184,令和６年１０月１日東京都港区芝大門二丁目１２番９号株式会社ガイアメディケア（3010001137184）に合併し解散,2018-11-06,1,,,,,ジーエムシーコウナン,0
2137,9010003040769,登記記録の閉鎖等,0,2024-10-25,2024-10-03,ネクスト合同会社,,合同会社,東京都,中央区,銀座１丁目１２番４号Ｎ＆ＥＢＬＤ．６Ｆ,,13,102,1040061,,,2024-10-03,清算の結了等,,,2023-06-07,1,,,,,ネクスト,0
2145,9010401101932,登記記録の閉鎖等,0,2024-10-25,2024-10-09,株式会社マルホランド,,株式会社,東京都,港区,東麻布１丁目９番１５号東麻布一丁目ビル５階,,13,103,1060044,,,2024-10-09,合併による解散等,4010401042371,令和６年１０月１日東京都港区東麻布一丁目９番１５号東麻布一丁目ビル５階株式会社ケイマックス（4010401042371）に合併し解散,2015-10-05,1,,,,,マルホランド,0
2151,9010402003962,登記記録の閉鎖等,0,2024-10-25,2024-10-09,有限会社木村米殻店,,有限会社,東京都,港区,西麻布１丁目７番９号,,13,103,1060031,,,2024-10-09,清算の結了等,,,2015-10-05,1,,,,,キムラベイコクテン,0
2153,9010403016443,登記記録の閉鎖等,0,2024-10-25,2024-10-15,Ａｍｂａｓｓａｄｏｒ　Ｇｌｏｂａｌ合同会社,,合同会社,東京都,新宿区,神楽坂４丁目４番地,,13,104,1620825,,,2024-10-15,清算の結了等,,,2017-05-11,1,,,,,アンバサダーグローバル,0
2155,9010403024108,登記記録の閉鎖等,0,2024-10-25,2024-10-03,ＢＣＫＴ合同会社,,合同会社,東京都,港区,赤坂２丁目２３番１号アークヒルズ・フロントタワーＩｎＣｏｎｔｒｏｌ内,,13,103,1070052,,,2024-10-03,清算の結了等,,,2020-11-16,1,,,,,ビーシーケーティー,0
2159,9010405020807,登記記録の閉鎖等,0,2024-10-25,2024-10-08,ＦＳＰ２７一般社団法人,,その他の設立登記法人,東京都,港区,虎ノ門４丁目１番２８号,,13,103,1050001,,,2024-10-08,清算の結了等,,,2022-03-16,1,,,,,エフエスピーニジュウナナ,0
2161,9010501033803,登記記録の閉鎖等,0,2024-10-25,2024-10-11,株式会社グランドライン,,株式会社,東京都,台東区,上野３丁目２１番１号宮本ビル３階,,13,106,1100005,,,2024-10-11,清算の結了等,,,2015-10-05,1,,,,,グランドライン,0
2174,9011001095722,登記記録の閉鎖等,0,2024-10-25,2024-10-21,株式会社ｄｉｆｆｕｓｙ,,株式会社,東京都,渋谷区,幡ヶ谷３丁目３９番１２号渋谷ウェストビル１階,,13,113,1510072,,,2024-10-21,清算の結了等,,,2015-10-05,1,,,,,ディフュージー,0
2187,9011103012121,登記記録の閉鎖等,0,2024-10-25,2024-10-16,合同会社Ｕｎｉｔ　ＮＡ’ｓ,,合同会社,東京都,新宿区,高田馬場１丁目２８番地７号高田馬場ヒルサイドパレス６０５号室,,13,104,1690075,,,2024-10-16,清算の結了等,,,2022-08-31,1,,,,,ユニットナイス,0
2206,9013201017729,登記記録の閉鎖等,0,2024-10-25,2024-10-18,ＥＤＯ　ＷＯＲＬＤ株式会社,,株式会社,東京都,目黒区,東山２丁目２１番１２－３０１号Ｂｒｉｌｌｉａ目黒東山,,13,110,1530043,,,2024-10-18,清算の結了等,,,2015-10-05,1,,,,,エドワールド,0
2212,9013302007455,登記記録の閉鎖等,0,2024-10-25,2024-10-15,有限会社中村写眞製版,,有限会社,東京都,豊島区,池袋本町３丁目３１番５号,,13,116,1700011,,,2024-10-15,清算の結了等,,,2015-10-05,1,,,,,ナカムラシャシンセイハン,0
2223,9020002092926,登記記録の閉鎖等,0,2024-10-25,2024-10-07,有限会社中田組,,有限会社,神奈川県,川崎市多摩区,西生田４丁目２５番５号,,14,135,2140037,,,2024-10-07,清算の結了等,,,2015-10-05,1,,,,,ナカダグミ,0
2236,9030001139826,登記記録の閉鎖等,0,2024-10-25,2024-10-18,株式会社双葉ミート,,株式会社,埼玉県,上尾市,仲町１丁目１１番５０号,,11,219,3620035,,,2024-10-18,清算の結了等,,,2020-12-17,1,,,,,フタバミート,0
2245,9040001101339,登記記録の閉鎖等,0,2024-10-25,2024-10-17,新通商事株式会社,,株式会社,千葉県,八街市,文違３０１番地１２８,,12,230,2891104,,,2024-10-17,清算の結了等,,,2017-08-14,1,,,,,シンツウショウジ,0
2270,9060002018555,登記記録の閉鎖等,0,2024-10-25,2024-10-21,有限会社嘉久丸呉服店,,有限会社,栃木県,芳賀郡芳賀町,大字祖母井５３４番地,,09,345,3213304,,,2024-10-21,清算の結了等,,,2015-10-05,1,,,,,カクマルゴフクテン,0
2272,9060003004208,登記記録の閉鎖等,0,2024-10-25,2024-10-21,合同会社しんぷる,,合同会社,栃木県,宇都宮市,鶴田町３３１４－３４,,09,201,3200851,,,2024-10-21,清算の結了等,,,2022-08-30,1,,,,,シンプル,0
2282,9080102002234,登記記録の閉鎖等,0,2024-10-25,2024-10-22,有限会社高美製作所,,有限会社,静岡県,沼津市,小諏訪４８５番地,,22,203,4100872,,,2024-10-22,清算の結了等,,,2015-10-05,1,,,,,タカミセイサクショ,0
2288,9090002011945,登記記録の閉鎖等,0,2024-10-25,2024-10-16,有限会社倉澤工務店,,有限会社,山梨県,南都留郡富士河口湖町,勝山１０７８番地の２,,19,430,4010310,,,2024-10-16,清算の結了等,,,2015-10-05,1,,,,,クラサワコウムテン,0
2296,9110003000993,登記記録の閉鎖等,0,2024-10-25,2024-10-18,竹内産業合資会社,,合資会社,新潟県,燕市,杣木３４６０番地,,15,213,9591284,,,2024-10-18,清算の結了等,,,2015-10-05,1,,,,,タケウチサンギョウ,0
2314,9120905000272,登記記録の閉鎖等,0,2024-10-25,2024-10-22,医療法人寺尾皮フ科,,その他の設立登記法人,大阪府,茨木市,西駅前町１３番２１号,,27,211,5670032,,,2024-10-22,清算の結了等,,,2015-10-05,1,,,,,テラオヒフカ,0
2322,9140002022532,登記記録の閉鎖等,0,2024-10-25,2024-10-21,有限会社クロカワ,,有限会社,兵庫県,神戸市東灘区,森北町４丁目５番３号,,28,101,6580001,,,2024-10-21,清算の結了等,,,2015-10-05,1,,,,,クロカワ,0
2329,9180002014641,登記記録の閉鎖等,0,2024-10-25,2024-10-08,有限会社福正組,,有限会社,愛知県,名古屋市緑区,大高町字大平戸３０番地の１,,23,114,4598001,,,2024-10-08,清算の結了等,,,2015-10-05,1,,,,,フクマサグミ,0
2330,9180002027593,登記記録の閉鎖等,0,2024-10-25,2024-10-09,有限会社光映,,有限会社,愛知県,名古屋市中村区,竹橋町２番１３号－４Ｃ,,23,105,4530016,,,2024-10-09,清算の結了等,,,2015-10-05,1,,,,,コウエイ,0
2346,9240002038312,登記記録の閉鎖等,0,2024-10-25,2024-10-23,エコ・システム有限会社,,有限会社,広島県,廿日市市,八坂１丁目４番２５号,,34,213,7390455,,,2024-10-23,清算の結了等,,,2015-10-05,1,,,,,エコシステム,0
2347,9260001028907,登記記録の閉鎖等,0,2024-10-25,2024-10-23,株式会社きずなソリューション,,株式会社,岡山県,玉野市,奥玉１丁目１４番１３号,,33,204,7060013,,,2024-10-23,清算の結了等,,,2015-10-27,1,,,,,,0
2350,9280002007445,登記記録の閉鎖等,0,2024-10-25,2024-10-23,有限会社スギタニ,,有限会社,島根県,出雲市,大社町北荒木１５４３番地８,,32,203,6990722,,,2024-10-23,清算の結了等,,,2015-10-05,1,,,,,スギタニ,0
2373,9290801002521,登記記録の閉鎖等,0,2024-10-25,2024-10-23,土居工業株式会社,,株式会社,福岡県,北九州市戸畑区,中原東３丁目１２番２２号,,40,105,8040012,,,2024-10-23,清算の結了等,,,2015-10-05,1,,,,,ドイコウギョウ,0
2381,9330001022761,登記記録の閉鎖等,0,2024-10-25,2024-10-18,ブライトリビング株式会社,,株式会社,熊本県,合志市,須屋３０２３番地４６,,43,216,8611102,,,2024-10-18,清算の結了等,,,2016-05-11,1,,,,,,0
2392,9370001021520,登記記録の閉鎖等,0,2024-10-25,2024-10-10,住まい工房システム株式会社,,株式会社,宮城県,仙台市若林区,大和町５丁目６－１７－２０１号,,04,103,9840042,,,2024-10-10,清算の結了等,,,2015-10-05,1,,,,,スマイコウボウシステム,0
2407,9470001009308,登記記録の閉鎖等,0,2024-10-25,2024-10-21,株式会社アームパワー,,株式会社,香川県,坂出市,林田町４０１９番地第２,,37,203,7620012,,,2024-10-21,清算の結了等,,,2015-10-05,1,,,,,アームパワー,0
