sequenceNumber,corporateNumber,process,correct,updateDate,changeDate,name,nameImageId,kind,prefectureName,cityName,streetNumber,addressImageId,prefectureCode,cityCode,postCode,addressOutside,addressOutsideImageId,closeDate,closeCause,successorCorporateNumber,changeCause,assignmentDate,latest,enName,enPrefectureName,enCityName,enAddressOutside,furigana,hihyoji
8,1010001242028,新規,0,2024-02-06,2024-02-06,株式会社万城シーズニングパートナーズ,,株式会社,東京都,中央区,日本橋茅場町２丁目１２番１０号,,13,102,1030025,,,,,,,2024-02-06,1,,,,,バンジョウシーズニングパートナーズ,0
9,1010001242044,新規,0,2024-02-06,2024-02-06,株式会社ＧＲＡＮＤＰＡ,,株式会社,東京都,中央区,日本橋本町３丁目１１番５号ライフサイエンスビル２－１Ｆ,,13,102,1030023,,,,,,,2024-02-06,1,,,,,グランパ,0
10,1010001242060,新規,0,2024-02-06,2024-02-06,株式会社ＴＮＰ,,株式会社,東京都,中央区,日本橋室町１丁目１１番１２号日本橋水野ビル７階,,13,102,1030022,,,,,,,2024-02-06,1,,,,,ティーエヌピー,0
11,1010001242069,新規,0,2024-02-06,2024-02-06,アションジャパン株式会社,,株式会社,東京都,千代田区,丸の内２丁目４番１号丸の内ビルディング９階,,13,101,1000005,,,,,,,2024-02-06,1,,,,,アションジャパン,0
12,1010001242102,新規,0,2024-02-06,2024-02-06,株式会社ＰＣメディカル,,株式会社,東京都,文京区,湯島２丁目１４番８号湯島ヒダビル２Ｆ,,13,105,1130034,,,,,,,2024-02-06,1,,,,,ピーシーメディカル,0
15,1010003042863,新規,0,2024-02-06,2024-02-06,合同会社ＪＲＷＤファンド第８号,,合同会社,東京都,中央区,日本橋１丁目４番１号日本橋一丁目ビルディング,,13,102,1030027,,,,,,,2024-02-06,1,,,,,ジェイアールダブリューディーファンドダイハチゴウ,0
16,1010003042888,新規,0,2024-02-06,2024-02-06,合同会社ＡｎｎｅＬｉｋｅｌｙ,,合同会社,東京都,中央区,銀座１丁目１２番４号Ｎ＆ＥＢＬＤＧ．６Ｆ,,13,102,1040061,,,,,,,2024-02-06,1,,,,,アンライクリー,0
17,1010005037754,新規,0,2024-02-06,2024-02-06,一般財団法人ＡＩＣＯＤＳ　ＪＡＰＡＮ,,その他の設立登記法人,東京都,千代田区,霞が関３丁目６番１５号,,13,101,1000013,,,,,,,2024-02-06,1,,,,,アイコッズジャパン,0
18,1010103002305,新規,0,2024-02-06,2024-02-06,合同会社里,,合同会社,東京都,八王子市,上野町６番地２,,13,201,1920902,,,,,,,2024-02-06,1,,,,,サト,0
19,1010401180190,新規,0,2024-02-06,2024-02-06,株式会社Ｖａｌｉａｎｔ　Ｊａｐａｎｅｓｅ,,株式会社,東京都,港区,六本木７丁目１７番１４号Ｖａｌｉａｎｔ・Ｓｃｈｏｏｌ,,13,103,1060032,,,,,,,2024-02-06,1,,,,,ヴァリアントジャパニーズ,0
20,1010401180208,新規,0,2024-02-06,2024-02-06,株式会社ベイカレント分割準備会社Ｂ,,株式会社,東京都,港区,麻布台１丁目３番１号,,13,103,1060041,,,,,,,2024-02-06,1,,,,,ベイカレントブンカツジュンビガイシャビー,0
21,1010401180216,新規,0,2024-02-06,2024-02-06,株式会社ポセイドン,,株式会社,東京都,港区,北青山２丁目７番１３号プラセオ青山３階,,13,103,1070061,,,,,,,2024-02-06,1,,,,,ポセイドン,0
25,1010403031879,新規,0,2024-02-06,2024-02-06,ＢＡＺ　ＢＩＯＭＥＤＩＣ　ＪＡＰＡＮ合同会社,,合同会社,東京都,港区,三田３丁目９番１１号ＲａｎｄＬＴＡＫＡＮＡＷＡＧＡＴＥＷＡＹ５１０区画,,13,103,1080073,,,,,,,2024-02-06,1,,,,,バズバイオメディックジャパン,0
26,1010403031887,新規,0,2024-02-06,2024-02-06,ＨＹＣＵ　Ｊａｐａｎ合同会社,,合同会社,東京都,港区,六本木６丁目２番３１号六本木ヒルズノースタワー１７階,,13,103,1060032,,,,,,,2024-02-06,1,,,,,ハイクジャパン,0
28,1010501051746,新規,0,2024-02-06,2024-02-06,株式会社ＨＩＫＡＲＩ　ＪＥＷＥＬＲＹ,,株式会社,東京都,台東区,台東２丁目３０－１１ＧＲＥＷ秋葉原ビルＢ１,,13,106,1100016,,,,,,,2024-02-06,1,,,,,ヒカリジュエリー,0
31,1010603010625,新規,0,2024-02-06,2024-02-06,合同会社ｋｉｓｈｉ,,合同会社,東京都,江東区,白河３丁目１１番１０－８０１号,,13,108,1350021,,,,,,,2024-02-06,1,,,,,キシ,0
42,1010903008798,新規,0,2024-02-06,2024-02-06,合同会社ＥＮＺＩＮ　ＺＥＮＫＡＩ,,合同会社,東京都,世田谷区,三軒茶屋２丁目４５－７グリーンキャピタル三軒茶屋５０５,,13,112,1540024,,,,,,,2024-02-06,1,,,,,エンジンゼンカイ,0
47,1011001159798,新規,0,2024-02-06,2024-02-06,株式会社セイタロウデザインエンタテインメント,,株式会社,東京都,渋谷区,恵比寿２丁目８番４号恵比寿西ビル５階,,13,113,1500013,,,,,,,2024-02-06,1,,,,,セイタロウデザインエンタテインメント,0
48,1011001159815,新規,0,2024-02-06,2024-02-06,株式会社ｆｉｂｏｎａ,,株式会社,東京都,渋谷区,渋谷２丁目１９－１５宮益坂ビルディング６０９,,13,113,1500002,,,,,,,2024-02-06,1,,,,,フィボナ,0
49,1011001159848,新規,0,2024-02-06,2024-02-06,株式会社ｈｅｒｅ,,株式会社,東京都,渋谷区,渋谷２丁目１９－１５宮益坂ビルディング６０９,,13,113,1500002,,,,,,,2024-02-06,1,,,,,,0
50,1011001159856,新規,0,2024-02-06,2024-02-06,株式会社ジャパンチケットホールディングス,,株式会社,東京都,渋谷区,恵比寿１丁目２０－１８三富ビル新館１Ｆ,,13,113,1500013,,,,,,,2024-02-06,1,,,,,ジャパンチケットホールディングス,0
51,1011003018432,新規,0,2024-02-06,2024-02-06,合同会社ｏｆｆｉｃｅ　ＬＵＮＡ,,合同会社,東京都,渋谷区,神泉町１０番１５号,,13,113,1500045,,,,,,,2024-02-06,1,,,,,オフィスルーナ,0
53,1011101106089,新規,0,2024-02-06,2024-02-06,株式会社ＨＥＲＯ,,株式会社,東京都,新宿区,歌舞伎町１丁目９－１０Ｋ’ｓビル２Ｆ,,13,104,1600021,,,,,,,2024-02-06,1,,,,,ヒーロー,0
57,1011203004298,新規,0,2024-02-06,2024-02-06,ハートクラウン合同会社,,合同会社,東京都,中野区,中野５丁目６７番７号プラザ中野８０１,,13,114,1640001,,,,,,,2024-02-06,1,,,,,ハートクラウン,0
61,1011403004263,新規,0,2024-02-06,2024-02-06,合同会社Ｔ．Ｍ．Ｃ,,合同会社,東京都,板橋区,仲町１０－３,,13,119,1730022,,,,,,,2024-02-06,1,,,,,ティーエムシー,0
62,1011501030293,新規,0,2024-02-06,2024-02-06,ＰＩＭＡＴＥＸ株式会社,,株式会社,東京都,荒川区,町屋３丁目２４番２号面川ビル３１９号室,,13,118,1160001,,,,,,,2024-02-06,1,,,,,ピマテックス,0
63,1011501030302,新規,0,2024-02-06,2024-02-06,株式会社ペガプロパティーズ,,株式会社,東京都,北区,王子５丁目２番６－６１４号,,13,117,1140002,,,,,,,2024-02-06,1,,,,,ペガプロパティーズ,0
65,1011701026991,新規,0,2024-02-06,2024-02-06,株式会社同泰興,,株式会社,東京都,江戸川区,平井５丁目５６－８,,13,123,1320035,,,,,,,2024-02-06,1,,,,,ドウタイコウ,0
66,1011701027008,新規,0,2024-02-06,2024-02-06,三康株式会社,,株式会社,東京都,江戸川区,松江２丁目１－１３－２０４号室,,13,123,1320025,,,,,,,2024-02-06,1,,,,,サンコウ,0
68,1012401041496,新規,0,2024-02-06,2024-02-06,株式会社ＱＶＡＮＴ,,株式会社,東京都,調布市,多摩川３丁目４２番地１２,,13,208,1820025,,,,,,,2024-02-06,1,,,,,キューヴァント,0
72,1012801022955,新規,0,2024-02-06,2024-02-06,ＳａＳａコンサルティング株式会社,,株式会社,東京都,日野市,多摩平２丁目５－１ＰｌａｎＴ内,,13,212,1910062,,,,,,,2024-02-06,1,,,,,ササコンサルティング,0
75,1013101009338,新規,0,2024-02-06,2024-02-06,株式会社大澤工業,,株式会社,東京都,福生市,大字熊川１３４４番地７３,,13,218,1970003,,,,,,,2024-02-06,1,,,,,オオサワコウギョウ,0
84,1020001155666,新規,0,2024-02-06,2024-02-06,株式会社ＳａｖｏｉｒＢｅａｕｔｅ,,株式会社,神奈川県,横浜市中区,豆口台６９番地１山手台ハイツ２０６,,14,104,2310838,,,,,,,2024-02-06,1,,,,,サボアールボーテ,0
85,1020001155674,新規,0,2024-02-06,2024-02-06,株式会社ＧＯＯＤＨＩＬＬ,,株式会社,神奈川県,横浜市神奈川区,入江１丁目７－２１ＲｉａＹｏｋｏｈａｍａ１０１,,14,102,2210014,,,,,,,2024-02-06,1,,,,,グッドヒル,0
89,1021001081373,新規,0,2024-02-06,2024-02-06,株式会社Ｓｗｉｘ＆Ｐａｒｔｎｅｒｓ,,株式会社,神奈川県,鎌倉市,材木座４丁目４番１５号,,14,204,2480013,,,,,,,2024-02-06,1,,,,,スウィックスアンドパートナーズ,0
90,1021001081398,新規,0,2024-02-06,2024-02-06,株式会社神園,,株式会社,神奈川県,相模原市中央区,淵野辺４丁目１４番３号,,14,152,2520206,,,,,,,2024-02-06,1,,,,,カミゾノ,0
94,1021003014117,新規,0,2024-02-06,2024-02-06,合同会社ＡＭＺＡ,,合同会社,神奈川県,中郡大磯町,高麗１丁目１２番４３号,,14,341,2550001,,,,,,,2024-02-06,1,,,,,アムザ,0
110,1040001132085,新規,0,2024-02-06,2024-02-06,株式会社Ｂ＆Ｃｏｎｎｅｃｔ,,株式会社,千葉県,市川市,鬼越２丁目１１－６,,12,203,2720022,,,,,,,2024-02-06,1,,,,,ビーアンドコネクト,0
111,1040001132093,新規,0,2024-02-06,2024-02-06,株式会社Ｙ’ｓペイント,,株式会社,千葉県,市原市,馬立１７４１番地４,,12,219,2900221,,,,,,,2024-02-06,1,,,,,ワイズペイント,0
115,1040003024256,新規,0,2024-02-06,2024-02-06,合同会社エムケイベストマネジメント,,合同会社,千葉県,茂原市,木崎２２７番地３,,12,210,2970016,,,,,,,2024-02-06,1,,,,,エムケイベストマネジメント,0
118,1050001054238,新規,0,2024-02-06,2024-02-06,株式会社Ｇｒｉｔｅｅｎ,,株式会社,茨城県,つくば市,吾妻２丁目５番地１つくば市産業振興センター１Ｆ,,08,220,3050031,,,,,,,2024-02-06,1,,,,,グリティーン,0
131,1100001037187,新規,0,2024-02-06,2024-02-06,株式会社モダンスタイル軽井沢,,株式会社,長野県,北佐久郡軽井沢町,大字追分１４１５番地１,,20,321,3890115,,,,,,,2024-02-06,1,,,,,モダンスタイルカルイザワ,0
132,1100001037195,新規,0,2024-02-06,2024-02-06,Ｃａｒ　Ｃｈｅｃｋ株式会社,,株式会社,長野県,塩尻市,大字洗馬２０４１番地１,,20,215,3996462,,,,,,,2024-02-06,1,,,,,カーチェック,0
144,1120001261974,新規,0,2024-02-06,2024-02-06,株式会社ＲＢ医薬,,株式会社,大阪府,大阪市西淀川区,御幣島５丁目８番２８号,,27,113,5550012,,,,,,,2024-02-06,1,,,,,アールビーイヤク,0
145,1120001261990,新規,0,2024-02-06,2024-02-06,喜瑞株式会社,,株式会社,大阪府,大阪市西成区,千本南１丁目１６－１４白雪マンション２０３,,27,122,5570055,,,,,,,2024-02-06,1,,,,,キスイ,0
146,1120001262007,新規,0,2024-02-06,2024-02-06,株式会社クラソルホーム,,株式会社,大阪府,大阪市城東区,成育１丁目４番１５号ＴＫＭ野江２０１,,27,118,5360007,,,,,,,2024-02-06,1,,,,,クラソルホーム,0
147,1120001262031,新規,0,2024-02-06,2024-02-06,ＥＸＬＩＮＫ株式会社,,株式会社,大阪府,大阪市北区,末広町３番２１号扇町センタービル８０６号室,,27,127,5300053,,,,,,,2024-02-06,1,,,,,エクスリンク,0
152,1120901048736,新規,0,2024-02-06,2024-02-06,株式会社オルシエン,,株式会社,大阪府,吹田市,江坂町５丁目１４番２－１０４号,,27,205,5640063,,,,,,,2024-02-06,1,,,,,オルシエン,0
157,1130001076307,新規,0,2024-02-06,2024-02-06,株式会社ネクステージ,,株式会社,京都府,京都市西京区,桂上野中町１８３番地,,26,111,6158002,,,,,,,2024-02-06,1,,,,,ネクステージ,0
159,1130003009289,新規,0,2024-02-06,2024-02-06,合同会社Ｋ３テクノサポート,,合同会社,京都府,木津川市,梅美台４丁目１０番地１０,,26,214,6190215,,,,,,,2024-02-06,1,,,,,ケースリーテクノサポート,0
166,1140001133180,新規,0,2024-02-06,2024-02-06,煕願株式会社,,株式会社,兵庫県,神戸市中央区,下山手通８丁目１５番１２号日生花隈コーポラス南棟４０２号,,28,110,6500011,,,,,,,2024-02-06,1,,,,,キガン,0
167,1140001133230,新規,0,2024-02-06,2024-02-06,株式会社ＭＡリサーチ,,株式会社,兵庫県,伊丹市,瑞穂町２丁目６６番地３,,28,207,6640013,,,,,,,2024-02-06,1,,,,,エムエーリサーチ,0
168,1140001133247,新規,0,2024-02-06,2024-02-06,岡野プロパティパートナーズ株式会社,,株式会社,兵庫県,明石市,太寺天王町２８５７番地の６,,28,203,6730841,,,,,,,2024-02-06,1,,,,,オカノプロパティパートナーズ,0
176,1140005026942,新規,0,2024-02-06,2024-02-06,一般社団法人Ｌ‐Ａ・Ｉ・Ｒ,,その他の設立登記法人,兵庫県,姫路市,花田町高木１０８番地,,28,201,6710256,,,,,,,2024-02-06,1,,,,,エルエアー,0
177,1150001027051,新規,0,2024-02-06,2024-02-06,株式会社Ｂｕｎｂｌｅ,,株式会社,奈良県,香芝市,良福寺２３７番地１８,,29,210,6390235,,,,,,,2024-02-06,1,,,,,バンブル,0
181,1180001160080,新規,0,2024-02-06,2024-02-06,株式会社東海ＲＥＣ,,株式会社,愛知県,春日井市,小野町２丁目１２１番地１,,23,206,4860926,,,,,,,2024-02-06,1,,,,,トウカイアールイーシー,0
184,1180005020504,新規,0,2024-02-06,2024-02-06,特定非営利活動法人えほんと子ども,,その他の設立登記法人,愛知県,名古屋市千種区,覚王山通９丁目１４番地ことひらビル２Ｃ,,23,101,4640841,,,,,,,2024-02-06,1,,,,,エホントコドモ,0
187,1210001019629,新規,0,2024-02-06,2024-02-06,ＴＲＹＡＴ株式会社,,株式会社,福井県,福井市,和田東１丁目２４０２番地プチアベニュー和田東１００３号,,18,201,9188237,,,,,,,2024-02-06,1,,,,,トライアット,0
189,1220001025808,新規,0,2024-02-06,2024-02-06,株式会社１８,,株式会社,石川県,金沢市,片町１丁目７番２３号金劇パシオン１階,,17,201,9200981,,,,,,,2024-02-06,1,,,,,エイティーン,0
193,1230001020205,新規,0,2024-02-06,2024-02-06,株式会社Ｍエンタープライズ,,株式会社,富山県,黒部市,植木８１０番地１,,16,207,9380014,,,,,,,2024-02-06,1,,,,,エムエンタープライズ,0
194,1230003002143,新規,0,2024-02-06,2024-02-06,ＫＮＰリプロダクト合同会社,,合同会社,富山県,富山市,五福４５５８番１号Ｇ－ＢＡＳＥ２０３号,,16,201,9300887,,,,,,,2024-02-06,1,,,,,ケーエヌピーリプロダクト,0
206,1260003004566,新規,0,2024-02-06,2024-02-06,Ｔ＆Ｋ合同会社,,合同会社,岡山県,岡山市北区,横井上１５４番地２,,33,101,7011145,,,,,,,2024-02-06,1,,,,,ティアンドケイ,0
220,1310001018843,新規,0,2024-02-06,2024-02-06,太洋消毒株式会社,,株式会社,長崎県,佐世保市,有福町４１６２番地２,,42,202,8593241,,,,,,,2024-02-06,1,,,,,タイヨウショウドク,0
226,1330001031720,新規,0,2024-02-06,2024-02-06,株式会社そまびと,,株式会社,熊本県,熊本市南区,城南町藤山２０８７番地１２,,43,104,8614223,,,,,,,2024-02-06,1,,,,,ソマビト,0
227,1330001031729,新規,0,2024-02-06,2024-02-06,株式会社Ｆ＆Ｎ,,株式会社,熊本県,上益城郡嘉島町,大字北甘木２０４５番地,,43,442,8613104,,,,,,,2024-02-06,1,,,,,エフアンドエヌ,0
232,1340001026265,新規,0,2024-02-06,2024-02-06,株式会社Ｙ．Ａ．Ｈ,,株式会社,鹿児島県,鹿屋市,北田町５番９号,,46,203,8930007,,,,,,,2024-02-06,1,,,,,ワイエーエイチ,0
237,1350003004557,新規,0,2024-02-06,2024-02-06,ＩＰＰＯＮ合同会社,,合同会社,宮崎県,宮崎市,吉村町今村甲４１４２番地３Ｎｕｏｖｅ　ｃｏｎｎｅｓｓｉｏｎｉ２０６号,,45,201,8800841,,,,,,,2024-02-06,1,,,,,,0
242,1360003013680,新規,0,2024-02-06,2024-02-06,松川産業合同会社,,合同会社,沖縄県,宮古島市,城辺字下里添６９４番地７,,47,214,9060109,,,,,,,2024-02-06,1,,,,,マツカワサンギョウ,0
244,1370001050907,新規,0,2024-02-06,2024-02-06,株式会社ＡＢＥＪＡＲＩホールディングス,,株式会社,宮城県,仙台市太白区,長町６丁目１１番１４号,,04,104,9820011,,,,,,,2024-02-06,1,,,,,アベジャリホールディングス,0
245,1370001050915,新規,0,2024-02-06,2024-02-06,株式会社ＺＥＮＴＯＫＵ,,株式会社,宮城県,仙台市青葉区,みやぎ台２丁目１０番１１号,,04,101,9893214,,,,,,,2024-02-06,1,,,,,ゼントク,0
254,1420001018584,新規,0,2024-02-06,2024-02-06,ライゼス株式会社,,株式会社,青森県,平川市,町居山元２７２番地１６,,02,210,0360114,,,,,,,2024-02-06,1,,,,,ライゼス,0
260,1430001090987,新規,0,2024-02-06,2024-02-06,株式会社ウルトラＴ,,株式会社,北海道,札幌市豊平区,美園三条８丁目３番２１－３０１号,,01,105,0620003,,,,,,,2024-02-06,1,,,,,ウルトラティー,0
261,1430001091036,新規,0,2024-02-06,2024-02-06,株式会社ＣＩＲＣＬＥ　ＦＯＯＤ,,株式会社,北海道,札幌市豊平区,月寒東一条６丁目２番１１号,,01,105,0620051,,,,,,,2024-02-06,1,,,,,サークルフード,0
267,1500001025457,新規,0,2024-02-06,2024-02-06,メディカルケア中井株式会社,,株式会社,愛媛県,松山市,来住町１４４番地１８,,38,201,7911102,,,,,,,2024-02-06,1,,,,,メディカルケアナカイ,0
270,1700150123842,新規,0,2024-02-06,2024-02-06,ＸＩＡＭＥＮ　ＵＲＨＯＮＥＳＴ　ＩＭＰ．＆ＥＸＰ．ＣＯ．，ＬＴＤ,,外国会社等,,,,,,,,Ｕｎｉｔ　５３３，５ｔｈ　Ｆｌｏｏｒ，Ｂｕｉｌｄｉｎｇ　Ｃ，Ｎｏ．３１９　Ｈｕｂｉｎ　Ｅａｓｔ　Ｒｏａｄ，Ｓｉｍｉｎｇ　Ｄｉｓｔｒｉｃｔ，Ｘｉａｍｅｎ　Ｃｉｔｙ，Ｃｈｉｎａ，３６１０００,,,,,,2024-02-06,1,,,,,シャアメンバイジャアチョンジンチュウコウヨウシェンゴンスー,0
276,2010001242002,新規,0,2024-02-06,2024-02-06,株式会社ＰＵＢＬＵＳ,,株式会社,東京都,千代田区,富士見２丁目１３番３号,,13,101,1020071,,,,,,,2024-02-06,1,,,,,パブラス,0
277,2010001242027,新規,0,2024-02-06,2024-02-06,株式会社ＫＢＫ　ａｇｅｎｃｙ,,株式会社,東京都,中央区,銀座１丁目２２番１１号銀座大竹ビジデンス２階,,13,102,1040061,,,,,,,2024-02-06,1,,,,,ケービーケーエージェンシー,0
278,2010001242035,新規,0,2024-02-06,2024-02-06,株式会社Ｃａｒｊａｎｙ,,株式会社,東京都,千代田区,大手町１丁目５－１大手町ファーストスクエアイーストタワー４Ｆ,,13,101,1000004,,,,,,,2024-02-06,1,,,,,カージャニー,0
279,2010001242068,新規,0,2024-02-06,2024-02-06,株式会社ストラトス,,株式会社,東京都,中央区,日本橋蛎殻町２丁目１３番５号美濃友ビル２Ｆ,,13,102,1030014,,,,,,,2024-02-06,1,,,,,ストラトス,0
280,2010001242118,新規,0,2024-02-06,2024-02-06,株式会社ＬＣＭ,,株式会社,東京都,中央区,東日本橋２丁目２８番４号日本橋ＣＥＴビル２階,,13,102,1030004,,,,,,,2024-02-06,1,,,,,エルシーエム,0
284,2010003042862,新規,0,2024-02-06,2024-02-06,合同会社アクションフォー,,合同会社,東京都,中央区,晴海３丁目１６番１－２００３号,,13,102,1040053,,,,,,,2024-02-06,1,,,,,アクションフォー,0
287,2010005037836,新規,0,2024-02-06,2024-02-06,西東京アセット一般社団法人,,その他の設立登記法人,東京都,千代田区,内幸町２丁目１番６号,,13,101,1000011,,,,,,,2024-02-06,1,,,,,ニシトウキョウアセット,0
288,2010005037844,新規,0,2024-02-06,2024-02-06,一般社団法人日本ティラノサウルス競技連盟,,その他の設立登記法人,東京都,中央区,日本橋室町１丁目１１番１２号日本橋水野ビル７階,,13,102,1030022,,,,,,,2024-02-06,1,,,,,ニホンティラノサウルスキョウギレンメイ,0
289,2010101015992,新規,0,2024-02-06,2024-02-06,株式会社花形電業,,株式会社,東京都,八王子市,北野台１丁目４１番地４号,,13,201,1920913,,,,,,,2024-02-06,1,,,,,ハナガタデンギョウ,0
297,2010401180198,新規,0,2024-02-06,2024-02-06,テクモフ株式会社,,株式会社,東京都,港区,芝浦３丁目３番６号東京工業大学キャンパス・イノベーションセンターＩＮＤＥＳＴ,,13,103,1080023,,,,,,,2024-02-06,1,,,,,テクモフ,0
298,2010401180207,新規,0,2024-02-06,2024-02-06,株式会社ベイカレント分割準備会社Ａ,,株式会社,東京都,港区,麻布台１丁目３番１号,,13,103,1060041,,,,,,,2024-02-06,1,,,,,ベイカレントブンカツジュンビガイシャエー,0
299,2010403031820,新規,0,2024-02-06,2024-02-06,Ｉコンサルティング・コミュニケーションズ合同会社,,合同会社,東京都,港区,南青山３丁目１番３６号,,13,103,1070062,,,,,,,2024-02-06,1,,,,,アイコンサルティングコミュニケーションズ,0
300,2010405022909,新規,0,2024-02-06,2024-02-06,エルア行政書士法人,,その他の設立登記法人,東京都,港区,西新橋１丁目９番５号ＭｏＣ虎ノ門オフィス５０６,,13,103,1050003,,,,,,,2024-02-06,1,,,,,エルア,0
301,2010501051745,新規,0,2024-02-06,2024-02-06,株式会社Ａｍｉｃｕｓ,,株式会社,東京都,台東区,上野桜木１丁目５－１０,,13,106,1100002,,,,,,,2024-02-06,1,,,,,アミクス,0
302,2010601064597,新規,0,2024-02-06,2024-02-06,株式会社Ｋａｎａｌｏａ,,株式会社,東京都,墨田区,業平２丁目１１番１０号,,13,107,1300002,,,,,,,2024-02-06,1,,,,,カナロア,0
303,2010603010624,新規,0,2024-02-06,2024-02-06,ブレイン・パワー・コンサルティング合同会社,,合同会社,東京都,江東区,東雲１丁目９番２２－１３０６号,,13,108,1350062,,,,,,,2024-02-06,1,,,,,ブレインパワーコンサルティング,0
307,2010903008797,新規,0,2024-02-06,2024-02-06,合同会社ＳＥＣＯＮＤ,,合同会社,東京都,世田谷区,若林３丁目８番１０号,,13,112,1540023,,,,,,,2024-02-06,1,,,,,セカンド,0
310,2011003018448,新規,0,2024-02-06,2024-02-06,合同会社キオクル,,合同会社,東京都,渋谷区,渋谷２丁目１９－１５宮益坂ビルディング６０９,,13,113,1500002,,,,,,,2024-02-06,1,,,,,キオクル,0
314,2011101106105,新規,0,2024-02-06,2024-02-06,株式会社ふぁんたしー,,株式会社,東京都,新宿区,西新宿３丁目３番１３号西新宿水間ビル６階,,13,104,1600023,,,,,,,2024-02-06,1,,,,,ファンタシー,0
321,2011401025839,新規,0,2024-02-06,2024-02-06,株式会社ＡＬＰＨＡ,,株式会社,東京都,板橋区,板橋１丁目３４番６号小泉ビル１０２,,13,119,1730004,,,,,,,2024-02-06,1,,,,,アルファ,0
323,2011601027503,新規,0,2024-02-06,2024-02-06,株式会社ダレサボミンユメ,,株式会社,東京都,練馬区,大泉学園町４丁目１５番３６号,,13,120,1780061,,,,,,,2024-02-06,1,,,,,ダレサボミンユメ,0
326,2011701027007,新規,0,2024-02-06,2024-02-06,ＮｅｕｒｏＳｅｔ株式会社,,株式会社,東京都,江戸川区,清新町１丁目４番１－６０９号室,,13,123,1340087,,,,,,,2024-02-06,1,,,,,ニューロセット,0
329,2011801043738,新規,0,2024-02-06,2024-02-06,株式会社ＡＦＫ,,株式会社,東京都,足立区,扇１丁目５５番３８号,,13,121,1230873,,,,,,,2024-02-06,1,,,,,エーエフケー,0
330,2011803006073,新規,0,2024-02-06,2024-02-06,合同会社Ｃｏｎｎｅｃｔ　Ｄｏｔｓ,,合同会社,東京都,足立区,西新井栄町１丁目１９番３９―２０１４号,,13,121,1230843,,,,,,,2024-02-06,1,,,,,コネクトドット,0
339,2020001155649,新規,0,2024-02-06,2024-02-06,株式会社パーミル,,株式会社,神奈川県,横浜市西区,宮ケ谷一丁目３番竹内ビル１階,,14,103,2200006,,,,,,,2024-02-06,1,,,,,パーミル,0
340,2020001155657,新規,0,2024-02-06,2024-02-06,株式会社ＡＱＵＡ,,株式会社,神奈川県,横浜市神奈川区,青木町２番地１,,14,102,2210057,,,,,,,2024-02-06,1,,,,,アクア,0
341,2020001155665,新規,0,2024-02-06,2024-02-06,株式会社寛,,株式会社,神奈川県,川崎市麻生区,南黒川１０番１０－５０７号,,14,137,2150034,,,,,,,2024-02-06,1,,,,,ヒロ,0
344,2020003025494,新規,0,2024-02-06,2024-02-06,合同会社Ｓｈｉｂａｄｏｇ,,合同会社,神奈川県,横浜市栄区,小山台１丁目３０番１２号,,14,115,2470002,,,,,,,2024-02-06,1,,,,,シバドッグ,0
345,2020003025503,新規,0,2024-02-06,2024-02-06,合同会社ＹＹミニマム,,合同会社,神奈川県,横浜市西区,北幸２丁目１０番４８号むつみビル３階,,14,103,2200004,,,,,,,2024-02-06,1,,,,,ワイワイミニマム,0
350,2021001081323,新規,0,2024-02-06,2024-02-06,株式会社ｍａｒｉｎ’ｓ　ｈｏｕｓｅ,,株式会社,神奈川県,相模原市中央区,田名２０９８番地４１,,14,152,2520244,,,,,,,2024-02-06,1,,,,,マリンズハウス,0
353,2021003014140,新規,0,2024-02-06,2024-02-06,作楽企画合同会社,,合同会社,神奈川県,海老名市,大谷北３丁目１８番３号,,14,215,2430419,,,,,,,2024-02-06,1,,,,,サクラキカク,0
356,2030001158502,新規,0,2024-02-06,2024-02-06,ＣＤＥＦ株式会社,,株式会社,埼玉県,秩父市,熊木町９番５号秩父ビジネスプラザ３０３号室,,11,207,3680032,,,,,,,2024-02-06,1,,,,,シーディーイーエフ,0
357,2030001158519,新規,0,2024-02-06,2024-02-06,株式会社Ｒ．Ａ．Ｆ,,株式会社,埼玉県,さいたま市見沼区,大字東新井４７２－５,,11,104,3370032,,,,,,,2024-02-06,1,,,,,ラフ,0
358,2030001158535,新規,0,2024-02-06,2024-02-06,株式会社岩建,,株式会社,埼玉県,春日部市,赤沼１５７９,,11,214,3440015,,,,,,,2024-02-06,1,,,,,イワケン,0
363,2030003023588,新規,0,2024-02-06,2024-02-06,腹心合同会社,,合同会社,埼玉県,加須市,土手２丁目１０番１８号,,11,210,3470056,,,,,,,2024-02-06,1,,,,,フクシン,0
378,2050003008117,新規,0,2024-02-06,2024-02-06,合同会社オフィスワン,,合同会社,茨城県,土浦市,沖宿町１８４１番地,,08,203,3000023,,,,,,,2024-02-06,1,,,,,オフィスワン,0
380,2060005010169,新規,0,2024-02-06,2024-02-06,一般社団法人とちぎ親なきあと相談室,,その他の設立登記法人,栃木県,宇都宮市,雀の宮５丁目６－３３メゾン小林１０１号,,09,201,3210132,,,,,,,2024-02-06,1,,,,,トチギオヤナキアトソウダンシツ,0
384,2080101024517,新規,0,2024-02-06,2024-02-06,三和メタル株式会社,,株式会社,静岡県,沼津市,原２３２５番地の１,,22,203,4100312,,,,,,,2024-02-06,1,,,,,サンワメタル,0
385,2080401026989,新規,0,2024-02-06,2024-02-06,株式会社ｍｒ．ｙｏｊｏ,,株式会社,静岡県,袋井市,大野３４２５－１,,22,216,4371112,,,,,,,2024-02-06,1,,,,,ミスターヨジョー,0
387,2080403004951,新規,0,2024-02-06,2024-02-06,合同会社Ｔｓｔｙｌｅ,,合同会社,静岡県,浜松市中央区,萩丘２丁目２１－２８,,22,138,4338121,,,,,,,2024-02-06,1,,,,,ティースタイル,0
389,2090001018527,新規,0,2024-02-06,2024-02-06,株式会社ＡＳＡＭ,,株式会社,山梨県,上野原市,上野原１７３６番地,,19,212,4090112,,,,,,,2024-02-06,1,,,,,エイサム,0
393,2110001038159,新規,0,2024-02-06,2024-02-06,株式会社プライム,,株式会社,新潟県,新潟市西区,坂井東３丁目４番１３号,,15,107,9502041,,,,,,,2024-02-06,1,,,,,プライム,0
394,2110003005280,新規,0,2024-02-06,2024-02-06,合同会社エフアセット,,合同会社,新潟県,上越市,木田１丁目８番１７号上越ＯＳビル,,15,222,9430805,,,,,,,2024-02-06,1,,,,,エフアセット,0
404,2120001261874,新規,0,2024-02-06,2024-02-06,株式会社北翔,,株式会社,大阪府,大阪市北区,長柄中３丁目２番１７号中西マンション１Ｆ,,27,127,5310062,,,,,,,2024-02-06,1,,,,,ホクショウ,0
405,2120001261957,新規,0,2024-02-06,2024-02-06,株式会社ＢＡＬＤＲ,,株式会社,大阪府,大阪市東住吉区,桑津３丁目２６－６エイチツーオー第７ビル５０３,,27,121,5460041,,,,,,,2024-02-06,1,,,,,バルダー,0
406,2120001261965,新規,0,2024-02-06,2024-02-06,龍王株式会社,,株式会社,大阪府,大阪市中央区,島之内２丁目８番２９－４０８号,,27,128,5420082,,,,,,,2024-02-06,1,,,,,リュウオウ,0
407,2120001262006,新規,0,2024-02-06,2024-02-06,株式会社サーベイ・オフィスＫａｎｓａｉ,,株式会社,大阪府,大阪市港区,夕凪１丁目８番６－５０７号,,27,107,5520004,,,,,,,2024-02-06,1,,,,,サーベイオフィスカンサイ,0
408,2120001262014,新規,0,2024-02-06,2024-02-06,株式会社Ｈｅａｒｔｓ,,株式会社,大阪府,大阪市北区,茶屋町４番１３号ＢＡＧＳ－ＣＨＡＹＡＭＡＣＨＩ－ＢＬＤＧ．５Ｆ,,27,127,5300013,,,,,,,2024-02-06,1,,,,,ハーツ,0
409,2120001262030,新規,0,2024-02-06,2024-02-06,株式会社Ｔｗｉｎ　Ａｓｓｉｓｔ,,株式会社,大阪府,大阪市大正区,千島３丁目１８番１６号,,27,108,5510003,,,,,,,2024-02-06,1,,,,,ツインアシスト,0
410,2120001262055,新規,0,2024-02-06,2024-02-06,Ｐｅｒｓｅｉｏ株式会社,,株式会社,大阪府,大阪市大正区,三軒家西３丁目４番１６号中山ビル２０４Ｂ,,27,108,5510001,,,,,,,2024-02-06,1,,,,,パーセーオー,0
411,2120001262071,新規,0,2024-02-06,2024-02-06,ＮＢＣＣ株式会社,,株式会社,大阪府,大阪市生野区,桃谷１丁目１１番２２－２０１号,,27,116,5440034,,,,,,,2024-02-06,1,,,,,エヌビーシーシー,0
416,2120901048735,新規,0,2024-02-06,2024-02-06,赫源株式会社,,株式会社,大阪府,豊中市,上野西３丁目４番５１号,,27,203,5600011,,,,,,,2024-02-06,1,,,,,カクゲン,0
418,2120905006565,新規,0,2024-02-06,2024-02-06,弁護士法人関西合同事務所,,その他の設立登記法人,大阪府,吹田市,江坂町１丁目２３番１０１号,,27,205,5640063,,,,,,,2024-02-06,1,,,,,カンサイゴウドウジムショ,0
425,2130001076272,新規,0,2024-02-06,2024-02-06,株式会社Ｋ・Ｃエンジニア,,株式会社,京都府,八幡市,男山長沢４番地３,,26,210,6148367,,,,,,,2024-02-06,1,,,,,ケーシーエンジニア,0
426,2130001076280,新規,0,2024-02-06,2024-02-06,株式会社ＦＭＮ,,株式会社,京都府,京都市伏見区,横大路畔ノ内３２番地１,,26,109,6128284,,,,,,,2024-02-06,1,,,,,エフエムエヌ,0
427,2130001076306,新規,0,2024-02-06,2024-02-06,株式会社アートユニ,,株式会社,京都府,京都市中京区,西ノ京南壺井町６番地４,,26,104,6048473,,,,,,,2024-02-06,1,,,,,アートユニ,0
432,2140001133122,新規,0,2024-02-06,2024-02-06,株式会社ｖｉ　ｐｌｕｓ,,株式会社,兵庫県,西宮市,高塚町８番４号,,28,204,6620066,,,,,,,2024-02-06,1,,,,,ビープラス,0
434,2140003020129,新規,0,2024-02-06,2024-02-06,コアダッシュトータルサービス合同会社,,合同会社,兵庫県,加古郡稲美町,加古９９８番地２２,,28,381,6751105,,,,,,,2024-02-06,1,,,,,コアダッシュトータルサービス,0
437,2160001025672,新規,0,2024-02-06,2024-02-06,株式会社ＡＶＥＮＩＲ,,株式会社,滋賀県,大津市,雄琴１丁目４－２６,,25,201,5200101,,,,,,,2024-02-06,1,,,,,アヴニール,0
440,2180001160055,新規,0,2024-02-06,2024-02-06,株式会社内山興業,,株式会社,愛知県,海部郡大治町,大字三本木字堅田９８番地,,23,424,4901142,,,,,,,2024-02-06,1,,,,,ウチヤマコウギョウ,0
444,2180301038307,新規,0,2024-02-06,2024-02-06,株式会社ＧＮＯエージェント,,株式会社,愛知県,豊田市,中町丸畔４６番地２,,23,211,4730904,,,,,,,2024-02-06,1,,,,,ジーエヌオーエージェント,0
448,2210001019628,新規,0,2024-02-06,2024-02-06,株式会社ＲＩＮＴ,,株式会社,福井県,福井市,和田東１丁目２４０２番地プチアベニュー和田東１００３号,,18,201,9188237,,,,,,,2024-02-06,1,,,,,リント,0
449,2210003001740,新規,0,2024-02-06,2024-02-06,合同会社カウンセリングオフィスＬｉｔｔｌｅ　Ｐｉｅｃｅ,,合同会社,福井県,福井市,加茂河原３丁目１－５ハイツＲ２０１,,18,201,9188057,,,,,,,2024-02-06,1,,,,,カウンセリングオフィスリトルピース,0
458,2250003003428,新規,0,2024-02-06,2024-02-06,合同会社松永,,合同会社,山口県,山口市,朝倉町７番１７号,,35,203,7530061,,,,,,,2024-02-06,1,,,,,マツナガ,0
459,2260001038730,新規,0,2024-02-06,2024-02-06,株式会社ＣＯＮＣＥＰＴ　ＯＮＥ,,株式会社,岡山県,岡山市南区,福富西１丁目１１番１６号,,33,104,7028031,,,,,,,2024-02-06,1,,,,,コンセプトワン,0
465,2290001104587,新規,0,2024-02-06,2024-02-06,株式会社ワイテック,,株式会社,福岡県,福岡市博多区,博多駅南２丁目２番７号,,40,132,8120016,,,,,,,2024-02-06,1,,,,,ワイテック,0
478,2320001020269,新規,0,2024-02-06,2024-02-06,株式会社あすらん,,株式会社,大分県,大分市,羽屋２丁目１番５３号,,44,201,8700854,,,,,,,2024-02-06,1,,,,,アスラン,0
479,2320001020277,新規,0,2024-02-06,2024-02-06,株式会社マリアコンセプション,,株式会社,大分県,大分市,萩原３丁目８番９号,,44,201,8700921,,,,,,,2024-02-06,1,,,,,マリアコンセプション,0
480,2330001031728,新規,0,2024-02-06,2024-02-06,株式会社ｎｅｘｔ　ｏｎｅ,,株式会社,熊本県,熊本市北区,植木町山本６４１番地２,,43,105,8610101,,,,,,,2024-02-06,1,,,,,ネクストワン,0
481,2330003010201,新規,0,2024-02-06,2024-02-06,合同会社ビーアイオーファクトリー,,合同会社,熊本県,熊本市北区,植木町内４７０番地２,,43,105,8610102,,,,,,,2024-02-06,1,,,,,,0
485,2340003004359,新規,0,2024-02-06,2024-02-06,合同会社あんどぅる,,合同会社,鹿児島県,大島郡与論町,大字古里１２７９番地,,46,535,8919307,,,,,,,2024-02-06,1,,,,,アンドゥル,0
487,2350001018780,新規,0,2024-02-06,2024-02-06,株式会社インプロム,,株式会社,宮崎県,宮崎市,大字加江田４２８７－１８,,45,201,8892161,,,,,,,2024-02-06,1,,,,,インプロム,0
490,2350003004556,新規,0,2024-02-06,2024-02-06,合同会社小城興業,,合同会社,宮崎県,児湯郡川南町,大字川南１２１９番地,,45,405,8891301,,,,,,,2024-02-06,1,,,,,オギコウギョウ,0
491,2360003013671,新規,0,2024-02-06,2024-02-06,合同会社精耕,,合同会社,沖縄県,那覇市,上間１丁目３２番５号,,47,201,9020073,,,,,,,2024-02-06,1,,,,,セイコウ,0
494,2370001050897,新規,0,2024-02-06,2024-02-06,株式会社魚市,,株式会社,宮城県,仙台市青葉区,宮町２丁目３番１号,,04,101,9800004,,,,,,,2024-02-06,1,,,,,ウオイチ,0
495,2370001050914,新規,0,2024-02-06,2024-02-06,ＧｒａｐｅＳＥＥＤ株式会社,,株式会社,宮城県,仙台市宮城野区,苦竹３丁目１番６号ＳＴＵＤＩＯ０８０,,04,102,9830036,,,,,,,2024-02-06,1,,,,,グレープシード,0
496,2370003006476,新規,0,2024-02-06,2024-02-06,合同会社歩夢和,,合同会社,宮城県,仙台市青葉区,国分町１丁目２番５－１００２号,,04,101,9800803,,,,,,,2024-02-06,1,,,,,アユムワ,0
506,2400003003206,新規,0,2024-02-06,2024-02-06,八幡平Ｆｉｔｎｅｓｓ合同会社,,合同会社,岩手県,八幡平市,石神２６番地,,03,214,0287521,,,,,,,2024-02-06,1,,,,,ハチマンタイフィットネス,0
515,2430001091019,新規,0,2024-02-06,2024-02-06,株式会社工藤農園,,株式会社,北海道,夕張市,滝ノ上５４番地５,,01,209,0680756,,,,,,,2024-02-06,1,,,,,クドウノウエン,0
516,2430001091035,新規,0,2024-02-06,2024-02-06,株式会社タクシン池田,,株式会社,北海道,岩見沢市,中幌向町３４１番地４,,01,210,0690376,,,,,,,2024-02-06,1,,,,,タクシンイケダ,0
517,2430001091043,新規,0,2024-02-06,2024-02-06,株式会社Ｈｏｍｉｅｓ,,株式会社,北海道,札幌市西区,宮の沢三条３丁目１２－１－５０６,,01,107,0630053,,,,,,,2024-02-06,1,,,,,ホーミーズ,0
519,2430003015933,新規,0,2024-02-06,2024-02-06,合同会社Ｇｒａｎｔ,,合同会社,北海道,小樽市,梅ケ枝町３１番２３号,,01,203,0470044,,,,,,,2024-02-06,1,,,,,グラント,0
529,2700150123841,新規,0,2024-02-06,2024-02-06,ＨＯＮＧ　ＫＯＮＧ　ＬＵＯＣ　ＴＥＣＨＮＯＬＯＧＹ　ＴＲＡＤＩＮＧ　ＣＯＭＰＡＮＹ　ＬＩＭＩＴＥＤ,,外国会社等,,,,,,,,ＯＦＦＩＣＥ　５，８／Ｆ，ＭＥＧＡ　ＣＵＢＥ，８　ＷＡＮＧ　ＫＷＯＮＧ　ＲＯＡＤ，ＫＯＷＬＯＯＮ　ＢＡＹ，ＫＯＷＬＯＯＮ　ＨＯＮＧ　ＫＯＮＧ　９９９０７７　ＨＫ,,,,,,2024-02-06,1,,,,,シァンガンルオチョンシャンマオヨウシェンゴンスー,0
531,3010001242034,新規,0,2024-02-06,2024-02-06,株式会社ＨＩ　ＢＬＥＵ　Ｊ,,株式会社,東京都,千代田区,一番町１０番地９,,13,101,1020082,,,,,,,2024-02-06,1,,,,,ハイブリュージェイ,0
532,3010001242075,新規,0,2024-02-06,2024-02-06,Ｄｙｌｌａ株式会社,,株式会社,東京都,千代田区,神田錦町２丁目４－６ワダビル１Ｆ・２Ｆ,,13,101,1010054,,,,,,,2024-02-06,1,,,,,ディラ,0
533,3010001242133,新規,0,2024-02-06,2024-02-06,Ｌｉｎｏ株式会社,,株式会社,東京都,千代田区,神田佐久間町１丁目８番４号アルテール秋葉原７０８,,13,101,1010025,,,,,,,2024-02-06,1,,,,,リノ,0
535,3010003042878,新規,0,2024-02-06,2024-02-06,Ｃａｎｄａｃｅ　Ｅｘｃｅｌｌｅｎｃｅ合同会社,,合同会社,東京都,中央区,八丁堀２丁目１番９号川名第二ビル３階,,13,102,1040032,,,,,,,2024-02-06,1,,,,,キャンディスエクセレンス,0
536,3010005037835,新規,0,2024-02-06,2024-02-06,一般社団法人Ｈａｒｉ,,その他の設立登記法人,東京都,中央区,八丁堀４丁目２番１０号ＡＯＪ税理士法人内,,13,102,1040032,,,,,,,2024-02-06,1,,,,,ハリ,0
542,3010401180197,新規,0,2024-02-06,2024-02-06,株式会社ｗｅｌｌ,,株式会社,東京都,港区,六本木７丁目１４番３号六本木Ｘｅビル８階,,13,103,1060032,,,,,,,2024-02-06,1,,,,,ウェル,0
543,3010401180222,新規,0,2024-02-06,2024-02-06,株式会社ストリームライン,,株式会社,東京都,港区,赤坂３丁目１３－２ＭＪ赤坂ビル地下１階,,13,103,1070052,,,,,,,2024-02-06,1,,,,,ストリームライン,0
546,3010403031902,新規,0,2024-02-06,2024-02-06,ＭＩＧＨＴＹ　ＡＲＴＳ合同会社,,合同会社,東京都,港区,赤坂４丁目３番２６号マスターズ赤坂３０１,,13,103,1070052,,,,,,,2024-02-06,1,,,,,マイティーアーツ,0
547,3010405022924,新規,0,2024-02-06,2024-02-06,ブルーインフラホールディングスＣ号一般社団法人,,その他の設立登記法人,東京都,港区,元赤坂１丁目１番７号,,13,103,1070051,,,,,,,2024-02-06,1,,,,,ブルーインフラホールディングスシーゴウ,0
554,3010601064605,新規,0,2024-02-06,2024-02-06,株式会社Ｔ‐ヴィレッジ,,株式会社,東京都,江東区,豊洲３丁目４番１－１５０９号,,13,108,1350061,,,,,,,2024-02-06,1,,,,,ティーヴィレッジ,0
555,3010701045521,新規,0,2024-02-06,2024-02-06,シナリーアカデミー株式会社,,株式会社,東京都,品川区,上大崎２丁目１１番１３号,,13,109,1410021,,,,,,,2024-02-06,1,,,,,シナリーアカデミー,0
567,3011001159838,新規,0,2024-02-06,2024-02-06,株式会社ＲＡＲＩＮＧ,,株式会社,東京都,渋谷区,恵比寿４丁目２０－３恵比寿ガーデンプレイスタワー１８階,,13,113,1500013,,,,,,,2024-02-06,1,,,,,ラリング,0
568,3011003018364,新規,0,2024-02-06,2024-02-06,合同会社Ｖプレジール,,合同会社,東京都,渋谷区,渋谷２丁目１９－１５宮益坂ビルディング６０９,,13,113,1500002,,,,,,,2024-02-06,1,,,,,ブイプレジール,0
569,3011003018447,新規,0,2024-02-06,2024-02-06,みらいかぜソリューションズ合同会社,,合同会社,東京都,渋谷区,恵比寿西２丁目８番４号ＥＸ恵比寿西ビル５階,,13,113,1500021,,,,,,,2024-02-06,1,,,,,ミライカゼソリューションズ,0
579,3011101105824,新規,0,2024-02-06,2024-02-06,ワンダ株式会社,,株式会社,東京都,新宿区,新宿１丁目２０番１１号サン・モール第８マンション７０１,,13,104,1600022,,,,,,,2024-02-06,1,,,,,ワンダ,0
580,3011101106079,新規,0,2024-02-06,2024-02-06,株式会社Ｚｅｒａ,,株式会社,東京都,新宿区,西新宿３丁目３番１３号西新宿水間ビル２Ｆ,,13,104,1600023,,,,,,,2024-02-06,1,,,,,ゼーラ,0
581,3011101106095,新規,0,2024-02-06,2024-02-06,ＫＫＴ株式会社,,株式会社,東京都,新宿区,四谷２丁目１１大村ビル４階,,13,104,1600004,,,,,,,2024-02-06,1,,,,,ケーケーティー,0
582,3011101106112,新規,0,2024-02-06,2024-02-06,株式会社リル,,株式会社,東京都,新宿区,西新宿３丁目３番１３号西新宿水間ビル２Ｆ,,13,104,1600023,,,,,,,2024-02-06,1,,,,,リル,0
585,3011103014065,新規,0,2024-02-06,2024-02-06,合同会社ジェイ・イー・エス,,合同会社,東京都,新宿区,下宮比町１番４号,,13,104,1620822,,,,,,,2024-02-06,1,,,,,ジェイイーエス,0
588,3011401025838,新規,0,2024-02-06,2024-02-06,株式会社心緑,,株式会社,東京都,板橋区,高島平４丁目４番１２号,,13,119,1750082,,,,,,,2024-02-06,1,,,,,シンリョク,0
591,3011403004261,新規,0,2024-02-06,2024-02-06,上地興業合同会社,,合同会社,東京都,板橋区,高島平１丁目５２番１１号スイーダ高島平１０２,,13,119,1750082,,,,,,,2024-02-06,1,,,,,ウエチコウギョウ,0
594,3011501030300,新規,0,2024-02-06,2024-02-06,明輝株式会社,,株式会社,東京都,荒川区,南千住３丁目２７－２浅草ビルＫ号室,,13,118,1160003,,,,,,,2024-02-06,1,,,,,メイキ,0
599,3012401041486,新規,0,2024-02-06,2024-02-06,株式会社アルクトス,,株式会社,東京都,小金井市,貫井南町４丁目３０番１７号,,13,210,1840014,,,,,,,2024-02-06,1,,,,,アルクトス,0
612,3020001155623,新規,0,2024-02-06,2024-02-06,株式会社アシスト,,株式会社,神奈川県,横浜市青葉区,荏田北３丁目１番地３０ドレッセ青葉荏田北フロント３０９,,14,117,2250015,,,,,,,2024-02-06,1,,,,,アシスト,0
613,3020001155656,新規,0,2024-02-06,2024-02-06,株式会社プラスナビ,,株式会社,神奈川県,川崎市宮前区,宮前平２丁目６番地１５,,14,136,2160006,,,,,,,2024-02-06,1,,,,,プラスナビ,0
614,3020001155664,新規,0,2024-02-06,2024-02-06,ブルーフーズ株式会社,,株式会社,神奈川県,横浜市金沢区,釜利谷東２丁目１８番３０号,,14,108,2360042,,,,,,,2024-02-06,1,,,,,ブルーフーズ,0
616,3020003025485,新規,0,2024-02-06,2024-02-06,ドゥヴァンキャトル合同会社,,合同会社,神奈川県,川崎市多摩区,登戸１０４２番地,,14,135,2140014,,,,,,,2024-02-06,1,,,,,ドゥヴァンキャトル,0
624,3021001081396,新規,0,2024-02-06,2024-02-06,株式会社Ｇｏｏｄ　Ｖａｃａｔｉｏｎ,,株式会社,神奈川県,平塚市,袖ケ浜１番１２－３－２１２号,,14,203,2540813,,,,,,,2024-02-06,1,,,,,グッドバケーション,0
636,3030001158501,新規,0,2024-02-06,2024-02-06,株式会社ＴＧＫ,,株式会社,埼玉県,ふじみ野市,大原２丁目１番Ａ－１０１０号,,11,245,3560003,,,,,,,2024-02-06,1,,,,,ティージーケー,0
637,3030001158518,新規,0,2024-02-06,2024-02-06,株式会社ＲＥＦＩＮＥ,,株式会社,埼玉県,川口市,弥平１丁目１５番５号,,11,203,3320002,,,,,,,2024-02-06,1,,,,,リファイン,0
638,3030001158526,新規,0,2024-02-06,2024-02-06,株式会社ＢＲＡＺＹ,,株式会社,埼玉県,所沢市,寿町５番２号,,11,208,3591122,,,,,,,2024-02-06,1,,,,,ブレイジー,0
639,3030003023570,新規,0,2024-02-06,2024-02-06,合同会社祥行社,,合同会社,埼玉県,さいたま市南区,大字太田窪３２２６番地９,,11,108,3360015,,,,,,,2024-02-06,1,,,,,ショウコウシャ,0
640,3030003023587,新規,0,2024-02-06,2024-02-06,ライフワンプロパティーズ合同会社,,合同会社,埼玉県,草加市,高砂２丁目１１－７,,11,221,3400015,,,,,,,2024-02-06,1,,,,,ライフワンプロパティーズ,0
643,3040001132067,新規,0,2024-02-06,2024-02-06,株式会社司企画,,株式会社,千葉県,山武市,白幡２５４５番地１,,12,237,2891306,,,,,,,2024-02-06,1,,,,,ツカサキカク,0
644,3040001132083,新規,0,2024-02-06,2024-02-06,株式会社オークホーム,,株式会社,千葉県,柏市,若葉町３番２８号ニュー八千代ハイツ１０２,,12,217,2770024,,,,,,,2024-02-06,1,,,,,オークホーム,0
645,3040001132091,新規,0,2024-02-06,2024-02-06,株式会社ＬＵＣＥ,,株式会社,千葉県,船橋市,本町５丁目２番１８－２０２号,,12,204,2730005,,,,,,,2024-02-06,1,,,,,ルーチェ,0
647,3040003024238,新規,0,2024-02-06,2024-02-06,合同会社華濱,,合同会社,千葉県,松戸市,栄町３丁目１３３－２,,12,207,2710062,,,,,,,2024-02-06,1,,,,,カヒン,0
648,3040005022280,新規,0,2024-02-06,2024-02-06,一般社団法人広島・長崎被爆者神社教会建立基金,,その他の設立登記法人,千葉県,船橋市,緑台１丁目４番７棟３０４号,,12,204,2740818,,,,,,,2024-02-06,1,,,,,,0
658,3080101024516,新規,0,2024-02-06,2024-02-06,株式会社ピアノショップ・アルファ,,株式会社,静岡県,沼津市,沼北町１丁目１９番７号,,22,203,4100058,,,,,,,2024-02-06,1,,,,,ピアノショップアルファ,0
665,3100001037193,新規,0,2024-02-06,2024-02-06,株式会社幸工業,,株式会社,長野県,千曲市,大字戸倉１３４６番地サンテラスルミエールＥ号,,20,218,3890804,,,,,,,2024-02-06,1,,,,,ユキコウギョウ,0
666,3110001038158,新規,0,2024-02-06,2024-02-06,株式会社一龍,,株式会社,新潟県,新潟市北区,太郎代１２８番地８,,15,101,9503101,,,,,,,2024-02-06,1,,,,,イチリュウ,0
671,3110005017050,新規,0,2024-02-06,2024-02-06,ＮＰＯ法人にいがた食の図書館,,その他の設立登記法人,新潟県,新潟市中央区,本町通１番町１７８－３ＭＡＹ１階,,15,103,9518067,,,,,,,2024-02-06,1,,,,,ニイガタショクノトショカン,0
683,3120001261980,新規,0,2024-02-06,2024-02-06,株式会社ゑにし,,株式会社,大阪府,守口市,菊水通２丁目１９番１号,,27,209,5700032,,,,,,,2024-02-06,1,,,,,エニシ,0
684,3120001261989,新規,0,2024-02-06,2024-02-06,楽途株式会社,,株式会社,大阪府,大阪市此花区,伝法５丁目９－４,,27,104,5540002,,,,,,,2024-02-06,1,,,,,ラクト,0
685,3120001261997,新規,0,2024-02-06,2024-02-06,株式会社ＭＳメディカル,,株式会社,大阪府,大阪市平野区,喜連４丁目８番５３号大一興産ビル１階,,27,126,5470027,,,,,,,2024-02-06,1,,,,,エムエスメディカル,0
686,3120001262013,新規,0,2024-02-06,2024-02-06,株式会社三宝,,株式会社,大阪府,大阪市中央区,鎗屋町２丁目２番１０号ダイドーメゾン大阪谷町１２０２号,,27,128,5400027,,,,,,,2024-02-06,1,,,,,サンポウ,0
687,3120001262021,新規,0,2024-02-06,2024-02-06,株式会社ＡＫＳＴＯＮＥＳ,,株式会社,大阪府,大阪市天王寺区,国分町２番１８号,,27,109,5430044,,,,,,,2024-02-06,1,,,,,エイケイストーンズ,0
694,3120003025863,新規,0,2024-02-06,2024-02-06,しげもり遺言ファースト合同会社,,合同会社,大阪府,大阪市天王寺区,玉造元町３番４号シティピア玉造２１３号室,,27,109,5430014,,,,,,,2024-02-06,1,,,,,シゲモリイゴンファースト,0
696,3120005024145,新規,0,2024-02-06,2024-02-06,一般社団法人ＧＴＨフリーランス支援協会,,その他の設立登記法人,大阪府,大阪市都島区,片町１丁目５番１３号大手前センチュリービル４Ｆ,,27,102,5340025,,,,,,,2024-02-06,1,,,,,ジーティーエイチフリーランスシエンキョウカイ,0
699,3120103005666,新規,0,2024-02-06,2024-02-06,合同会社イーメド,,合同会社,大阪府,藤井寺市,春日丘３丁目１－２９,,27,226,5830026,,,,,,,2024-02-06,1,,,,,イーメド,0
703,3120905006564,新規,0,2024-02-06,2024-02-06,一般社団法人千里ライフサポート,,その他の設立登記法人,大阪府,豊中市,上新田４丁目１６番１３－２２１号,,27,203,5600085,,,,,,,2024-02-06,1,,,,,センリライフサポート,0
705,3122001037808,新規,0,2024-02-06,2024-02-06,株式会社Ｆｕｊｉ　Ｔｒａｖｅｌ,,株式会社,大阪府,八尾市,太田６丁目６７,,27,212,5810037,,,,,,,2024-02-06,1,,,,,フジトラベル,0
712,3140001133170,新規,0,2024-02-06,2024-02-06,Ｏｃｔ’１株式会社,,株式会社,兵庫県,加古川市,志方町投松１５６番地,,28,210,6750313,,,,,,,2024-02-06,1,,,,,オクトワン,0
713,3140001133187,新規,0,2024-02-06,2024-02-06,ドアーズ株式会社,,株式会社,兵庫県,神戸市須磨区,飛松町２丁目３番１８－４０４号,,28,107,6540012,,,,,,,2024-02-06,1,,,,,ドアーズ,0
714,3140001133212,新規,0,2024-02-06,2024-02-06,株式会社ニッコウ自動車,,株式会社,兵庫県,姫路市,林田町六九谷１７８番地３,,28,201,6794211,,,,,,,2024-02-06,1,,,,,ニッコウジドウシャ,0
715,3140001133229,新規,0,2024-02-06,2024-02-06,株式会社ＵＳ,,株式会社,兵庫県,姫路市,網干区坂出１４－５,,28,201,6711228,,,,,,,2024-02-06,1,,,,,ユーエス,0
716,3140001133237,新規,0,2024-02-06,2024-02-06,株式会社ユアム,,株式会社,兵庫県,加古川市,加古川町本町６８番地の１,,28,210,6750037,,,,,,,2024-02-06,1,,,,,ユアム,0
719,3140003020128,新規,0,2024-02-06,2024-02-06,合同会社心陽,,合同会社,兵庫県,神戸市北区,有野町唐櫃３７８４番地の２４,,28,109,6511331,,,,,,,2024-02-06,1,,,,,コハル,0
720,3140003020136,新規,0,2024-02-06,2024-02-06,グローバルリサーチ合同会社,,合同会社,兵庫県,神戸市中央区,脇浜町１丁目３番５－６０５号,,28,110,6510072,,,,,,,2024-02-06,1,,,,,グローバルリサーチ,0
735,3180301038297,新規,0,2024-02-06,2024-02-06,愛知消防設備サービス株式会社,,株式会社,愛知県,岡崎市,稲熊町字１丁目６８番地１,,23,202,4440071,,,,,,,2024-02-06,1,,,,,アイチショウボウセツビサービス,0
737,3180303005997,新規,0,2024-02-06,2024-02-06,合同会社清水,,合同会社,愛知県,豊田市,渋谷町３丁目９８０番地２０,,23,211,4710808,,,,,,,2024-02-06,1,,,,,シミズ,0
743,3220001025814,新規,0,2024-02-06,2024-02-06,株式会社大聖,,株式会社,石川県,金沢市,大野町４丁目カ１５９番地４,,17,201,9200331,,,,,,,2024-02-06,1,,,,,ダイセイ,0
744,3230001020203,新規,0,2024-02-06,2024-02-06,株式会社金森金物店,,株式会社,富山県,高岡市,国吉１２０３番地１,,16,202,9330968,,,,,,,2024-02-06,1,,,,,カナモリカナモノテン,0
746,3240001062756,新規,0,2024-02-06,2024-02-06,株式会社金木犀,,株式会社,広島県,東広島市,黒瀬町乃美尾４１６０－３０,,34,212,7392622,,,,,,,2024-02-06,1,,,,,キンモクセイ,0
749,3240003006521,新規,0,2024-02-06,2024-02-06,合同会社ミヤン,,合同会社,広島県,広島市中区,光南３丁目３番１－２０４号,,34,101,7300825,,,,,,,2024-02-06,1,,,,,ミヤン,0
751,3250003003435,新規,0,2024-02-06,2024-02-06,合同会社笑,,合同会社,山口県,山口市,泉都町８番１４号,,35,203,7530076,,,,,,,2024-02-06,1,,,,,エミ,0
758,3290001104586,新規,0,2024-02-06,2024-02-06,株式会社Ｎｅｘｕｓ　Ａｄｖｉｓｏｒｙ　Ｇｒｏｕｐ,,株式会社,福岡県,久留米市,国分町１９０７番地３,,40,203,8390863,,,,,,,2024-02-06,1,,,,,ネクサスアドバイザリーグループ,0
759,3290001104628,新規,0,2024-02-06,2024-02-06,株式会社ＵＰペイント,,株式会社,福岡県,福岡市南区,老司２丁目１－１９,,40,134,8111346,,,,,,,2024-02-06,1,,,,,アップペイント,0
773,3330001031719,新規,0,2024-02-06,2024-02-06,株式会社ＳＥＩ,,株式会社,熊本県,八代市,敷川内町２６８３番地７（２０２）,,43,202,8695151,,,,,,,2024-02-06,1,,,,,エスイーアイ,0
776,3340001026255,新規,0,2024-02-06,2024-02-06,ＭＩＲＡＩＥ株式会社,,株式会社,鹿児島県,薩摩川内市,平佐町２２３４番地２,,46,215,8950012,,,,,,,2024-02-06,1,,,,,ミライエ,0
789,3380001034287,新規,0,2024-02-06,2024-02-06,株式会社緑センター,,株式会社,福島県,耶麻郡猪苗代町,字新堀向２４９１番地,,07,408,9693131,,,,,,,2024-02-06,1,,,,,ミドリセンター,0
795,3420001018582,新規,0,2024-02-06,2024-02-06,株式会社ＪＳ,,株式会社,青森県,十和田市,大字奥瀬字十和田湖畔休屋３５０－３,,02,206,0185501,,,,,,,2024-02-06,1,,,,,ジェイエス,0
798,3430001091034,新規,0,2024-02-06,2024-02-06,株式会社アクラス,,株式会社,北海道,札幌市豊平区,平岸五条７丁目７番１９－６０４号,,01,105,0620935,,,,,,,2024-02-06,1,,,,,アクラス,0
800,3430003015932,新規,0,2024-02-06,2024-02-06,合同会社ＮＥＸＴ　ＯＮＥ,,合同会社,北海道,札幌市東区,東雁来九条１丁目５－１３,,01,103,0070829,,,,,,,2024-02-06,1,,,,,ネクストワン,0
807,3480001012381,新規,0,2024-02-06,2024-02-06,ＮＥＸＴ　ＡＣＴＩＯＮ株式会社,,株式会社,徳島県,板野郡藍住町,富吉字富吉１００６番地,,36,403,7711231,,,,,,,2024-02-06,1,,,,,ネクストアクション,0
811,3500001025455,新規,0,2024-02-06,2024-02-06,株式会社エルデ,,株式会社,愛媛県,今治市,中寺８５番地９,,38,202,7940840,,,,,,,2024-02-06,1,,,,,エルデ,0
813,3700150123832,新規,0,2024-02-06,2024-02-06,札幌駅交流拠点北５西１・西２地区市街地再開発組合,,その他,北海道,札幌市中央区,北二条西２丁目１番地５リージェントビル９階,,01,101,0600002,,,,,,,2024-02-06,1,,,,,サツポロエキコウリユウキヨテンキタゴニシイチニシニチクシガイチサイカイハツクミアイ,0
824,4010001242058,新規,0,2024-02-06,2024-02-06,サンライズ不動産株式会社,,株式会社,東京都,中央区,新川２丁目１番７号,,13,102,1040033,,,,,,,2024-02-06,1,,,,,サンライズフドウサン,0
825,4010001242066,新規,0,2024-02-06,2024-02-06,インターリンクソリューションズ株式会社,,株式会社,東京都,中央区,八重洲２丁目１番１号,,13,102,1040028,,,,,,,2024-02-06,1,,,,,インターリンクソリューションズ,0
826,4010001242090,新規,0,2024-02-06,2024-02-06,株式会社カワセミシステムズ,,株式会社,東京都,千代田区,大手町１丁目６－１大手町ビル１Ｆ－３ＦＳｐａｃｅｓ大手町,,13,101,1000004,,,,,,,2024-02-06,1,,,,,カワセミシステムズ,0
827,4010001242099,新規,0,2024-02-06,2024-02-06,株式会社Ｂｏｎｄｅｒｓ,,株式会社,東京都,中央区,新川２丁目１６番１０－７０２号,,13,102,1040033,,,,,,,2024-02-06,1,,,,,ボンダース,0
828,4010001242124,新規,0,2024-02-06,2024-02-06,株式会社ｂｕｄｄｙ,,株式会社,東京都,中央区,東日本橋２丁目１９番４号５０１号室,,13,102,1030004,,,,,,,2024-02-06,1,,,,,バディ,0
829,4010003042836,新規,0,2024-02-06,2024-02-06,ＳＩＪ　Ｃａｐｉｔａｌ合同会社,,合同会社,東京都,千代田区,丸の内２丁目２番１号岸本ビル７階,,13,101,1000005,,,,,,,2024-02-06,1,,,,,エスアイジェーキャピタル,0
830,4010003042869,新規,0,2024-02-06,2024-02-06,合同会社我逢人,,合同会社,東京都,文京区,大塚３丁目３番３－４０２号,00133634,13,105,1120012,,,,,,,2024-02-06,1,,,,,ガホウジン,0
831,4010005037834,新規,0,2024-02-06,2024-02-06,一般社団法人ルミナ,,その他の設立登記法人,東京都,中央区,八丁堀４丁目２番１０号ＡＯＪ税理士法人内,,13,102,1040032,,,,,,,2024-02-06,1,,,,,ルミナ,0
838,4010401180089,新規,0,2024-02-06,2024-02-06,株式会社ＣＯＬＯＲＥ,,株式会社,東京都,港区,南青山３丁目１番３６号青山丸竹ビル６Ｆ,,13,103,1070062,,,,,,,2024-02-06,1,,,,,コロレ,0
839,4010401180171,新規,0,2024-02-06,2024-02-06,ＨＡＩＴ株式会社,,株式会社,東京都,港区,芝浦２丁目１４－１８サカイビル５Ｆ,,13,103,1080023,,,,,,,2024-02-06,1,,,,,ハイト,0
840,4010401180188,新規,0,2024-02-06,2024-02-06,株式会社ＲＡＮ,,株式会社,東京都,港区,赤坂７丁目５番１－５０４号,,13,103,1070052,,,,,,,2024-02-06,1,,,,,ラン,0
841,4010401180196,新規,0,2024-02-06,2024-02-06,凛デザイン株式会社,,株式会社,東京都,港区,南青山１丁目１－１新青山ビル東館７Ｆ,,13,103,1070062,,,,,,,2024-02-06,1,,,,,リンデザイン,0
843,4010405022923,新規,0,2024-02-06,2024-02-06,ブルーインフラホールディングス４号一般社団法人,,その他の設立登記法人,東京都,港区,元赤坂１丁目１番７号,,13,103,1070051,,,,,,,2024-02-06,1,,,,,ブルーインフラホールディングスヨンゴウ,0
844,4010601064595,新規,0,2024-02-06,2024-02-06,ＡＦＳ株式会社,,株式会社,東京都,江東区,亀戸５丁目６－２１ＵＩＷＢＬＤＧ４Ｆ－３４,,13,108,1360071,,,,,,,2024-02-06,1,,,,,エーエフエス,0
846,4010701045520,新規,0,2024-02-06,2024-02-06,シナリーアクション株式会社,,株式会社,東京都,品川区,上大崎２丁目１１番１３号,,13,109,1410021,,,,,,,2024-02-06,1,,,,,シナリーアクション,0
858,4011001159795,新規,0,2024-02-06,2024-02-06,株式会社ＫＡＮＰＡＩＤＡＮ,,株式会社,東京都,渋谷区,神南１丁目２３番１０号,,13,113,1500041,,,,,,,2024-02-06,1,,,,,カンパイダン,0
859,4011001159804,新規,0,2024-02-06,2024-02-06,株式会社ＴＥＤ,,株式会社,東京都,渋谷区,広尾４丁目１番３２―１０３号広尾ガーデンフォレスト,,13,113,1500012,,,,,,,2024-02-06,1,,,,,テッド,0
860,4011003018454,新規,0,2024-02-06,2024-02-06,合同会社識季コンサルティング,,合同会社,東京都,渋谷区,道玄坂１丁目１０番８号渋谷道玄坂東急ビル２Ｆ－Ｃ,,13,113,1500043,,,,,,,2024-02-06,1,,,,,シキコンサルティング,0
864,4011101106078,新規,0,2024-02-06,2024-02-06,ＫＭＨ株式会社,,株式会社,東京都,新宿区,大久保１丁目１１番２号エコロ新宿第５ビル８０１号室,,13,104,1690072,,,,,,,2024-02-06,1,,,,,ケイエムエイチ,0
865,4011101106094,新規,0,2024-02-06,2024-02-06,株式会社ＧＲＩＰ　ＦＡＣＴＯＲＹ,,株式会社,東京都,新宿区,西新宿１丁目１９番８号新東京ビル７Ｆ,,13,104,1600023,,,,,,,2024-02-06,1,,,,,グリップファクトリー,0
866,4011101106103,新規,0,2024-02-06,2024-02-06,株式会社Ｄｅｆｉｉ,,株式会社,東京都,新宿区,西新宿３丁目３番１３号西新宿水間ビル２Ｆ,,13,104,1600023,,,,,,,2024-02-06,1,,,,,デフィー,0
870,4011301029384,新規,0,2024-02-06,2024-02-06,株式会社Ｗｈｅｅｅｌ,,株式会社,東京都,杉並区,高円寺南１丁目２番８号リムテラス東高円寺１０６,,13,115,1660003,,,,,,,2024-02-06,1,,,,,ウィール,0
873,4011403004260,新規,0,2024-02-06,2024-02-06,合同会社ティーエスワイ,,合同会社,東京都,板橋区,南常盤台１丁目１１番６号レフア南常盤台１０１号室,,13,119,1740072,,,,,,,2024-02-06,1,,,,,ティーエスワイ,0
879,4012703002904,新規,0,2024-02-06,2024-02-06,合同会社スピーガ,,合同会社,東京都,東村山市,秋津町５丁目１７番地７６,,13,213,1890001,,,,,,,2024-02-06,1,,,,,スピーガ,0
882,4012801022952,新規,0,2024-02-06,2024-02-06,株式会社Ｕ‐ｔｉｌｉｔｙ,,株式会社,東京都,日野市,大坂上２丁目５－２１,,13,212,1910061,,,,,,,2024-02-06,1,,,,,ユーティリティ,0
883,4012803003307,新規,0,2024-02-06,2024-02-06,合同会社ＡＣＴ,,合同会社,東京都,昭島市,拝島町２丁目１４番１９号,,13,207,1960002,,,,,,,2024-02-06,1,,,,,アクト,0
884,4013101009335,新規,0,2024-02-06,2024-02-06,株式会社創誠,,株式会社,東京都,福生市,北田園２丁目１９番地２,,13,218,1970005,,,,,,,2024-02-06,1,,,,,ソウセイ,0
886,4013103001307,新規,0,2024-02-06,2024-02-06,日越貿易合同会社,,合同会社,東京都,西多摩郡瑞穂町,大字箱根ケ崎１３６１番地５,,13,303,1901221,,,,,,,2024-02-06,1,,,,,,0
894,4020001155663,新規,0,2024-02-06,2024-02-06,株式会社イニシャルＫ,,株式会社,神奈川県,川崎市川崎区,港町５番１－１７１７号,,14,131,2100807,,,,,,,2024-02-06,1,,,,,イニシャルケイ,0
907,4021001081387,新規,0,2024-02-06,2024-02-06,株式会社多摩ホームズ,,株式会社,神奈川県,相模原市緑区,相原５丁目１１番３６号,,14,151,2520141,,,,,,,2024-02-06,1,,,,,タマホームズ,0
908,4021001081395,新規,0,2024-02-06,2024-02-06,株式会社電匠,,株式会社,神奈川県,厚木市,みはる野１丁目２３番７号,,14,212,2430208,,,,,,,2024-02-06,1,,,,,デンショウ,0
909,4021001081404,新規,0,2024-02-06,2024-02-06,株式会社タグチエンジニアリング,,株式会社,神奈川県,横須賀市,岩戸５丁目１２番１８号,,14,201,2390844,,,,,,,2024-02-06,1,,,,,タグチエンジニアリング,0
917,4030001158442,新規,0,2024-02-06,2024-02-06,株式会社ＯＧＬ．ＷＯＲＫ,,株式会社,埼玉県,川口市,戸塚東２丁目４番２０号,,11,203,3330802,,,,,,,2024-02-06,1,,,,,オージーエルドットワーク,0
918,4030001158533,新規,0,2024-02-06,2024-02-06,風林火山株式会社,,株式会社,埼玉県,川口市,差間２丁目３８番６号,,11,203,3330816,,,,,,,2024-02-06,1,,,,,フウリンカザン,0
919,4030001158541,新規,0,2024-02-06,2024-02-06,株式会社田中,,株式会社,埼玉県,八潮市,大字二丁目３９番地４,,11,234,3400811,,,,,,,2024-02-06,1,,,,,タナカ,0
922,4030003023561,新規,0,2024-02-06,2024-02-06,ＴＮＴ合同会社,,合同会社,埼玉県,川口市,西川口４丁目１－６プレミア・ガーデン１０５号,,11,203,3320021,,,,,,,2024-02-06,1,,,,,テイエヌテイ,0
923,4030003023586,新規,0,2024-02-06,2024-02-06,ナラティブ合同会社,,合同会社,埼玉県,新座市,野火止５丁目１－２０ビュー野火止壱番館,,11,230,3520011,,,,,,,2024-02-06,1,,,,,ナラティブ,0
930,4040001132090,新規,0,2024-02-06,2024-02-06,株式会社ＺＥＲＯ　ＣＯＤＥ,,株式会社,千葉県,千葉市若葉区,みつわ台５丁目３１番１８－２号,,12,104,2640032,,,,,,,2024-02-06,1,,,,,ゼロコード,0
931,4040001132099,新規,0,2024-02-06,2024-02-06,株式会社アトラクティブ,,株式会社,千葉県,船橋市,海神１丁目１２番８－２号,,12,204,2730021,,,,,,,2024-02-06,1,,,,,アトラクティブ,0
932,4040003024229,新規,0,2024-02-06,2024-02-06,合同会社アガスティアバーラクンバグルムニ,,合同会社,千葉県,野田市,関宿町１４０４,,12,208,2700206,,,,,,,2024-02-06,1,,,,,アガスティアバーラクンバグルムニ,0
933,4040003024278,新規,0,2024-02-06,2024-02-06,ＪＳＭ東京合同会社,,合同会社,千葉県,柏市,豊四季台１丁目３番７－６０３号,,12,217,2770845,,,,,,,2024-02-06,1,,,,,ジェイエスエムトウキョウ,0
934,4040003024286,新規,0,2024-02-06,2024-02-06,合同会社Ｄｏｔｓ,,合同会社,千葉県,茂原市,木崎２０４０番地１,,12,210,2970016,,,,,,,2024-02-06,1,,,,,ドッツ,0
935,4040005022271,新規,0,2024-02-06,2024-02-06,ひなた・いしだ税理士法人,,その他の設立登記法人,千葉県,松戸市,松戸１２２８－１松戸ステーションビル５階,,12,207,2710092,,,,,,,2024-02-06,1,,,,,ヒナタイシダ,0
937,4050001054219,新規,0,2024-02-06,2024-02-06,株式会社アテム,,株式会社,茨城県,水戸市,笠原町１５１７番地２,,08,201,3100852,,,,,,,2024-02-06,1,,,,,アテム,0
939,4080101024515,新規,0,2024-02-06,2024-02-06,株式会社ＣＯＣＯＴ,,株式会社,静岡県,伊豆の国市,北江間１６７５番地の２,,22,225,4102223,,,,,,,2024-02-06,1,,,,,ココティー,0
947,4100001037192,新規,0,2024-02-06,2024-02-06,さくらホールディングス株式会社,,株式会社,長野県,北安曇郡白馬村,大字北城６３３０番地３,,20,485,3999301,,,,,,,2024-02-06,1,,,,,サクラホールディングス,0
950,4100003007391,新規,0,2024-02-06,2024-02-06,合同会社エムティーエンジ,,合同会社,長野県,諏訪郡富士見町,富士見１１７３４番地３６,,20,362,3990211,,,,,,,2024-02-06,1,,,,,エムティーエンジ,0
951,4110001038149,新規,0,2024-02-06,2024-02-06,ＳＨＥＲＡＺＩ　ＴＲＡＤＥＲＳ株式会社,,株式会社,新潟県,十日町市,中条戊７１９番地中条戊オフィスビルＡ－２,,15,210,9498618,,,,,,,2024-02-06,1,,,,,シェラジトレーダース,0
962,4120001261955,新規,0,2024-02-06,2024-02-06,儲鴿株式会社,,株式会社,大阪府,大阪市城東区,野江３丁目２７－７野江１番館３０５号室,,27,118,5360006,,,,,,,2024-02-06,1,,,,,チョコウ,0
963,4120001262004,新規,0,2024-02-06,2024-02-06,株式会社Ｋａｉｂｏ,,株式会社,大阪府,大阪市中央区,高津３丁目１４番２７号グランカリテ日本橋ＩＩ１１０４,00133636,27,128,5420072,,,,,,,2024-02-06,1,,,,,カイボ,0
964,4120001262012,新規,0,2024-02-06,2024-02-06,株式会社Ｎｅｘｔ,,株式会社,大阪府,大阪市中央区,島之内２丁目１４番３０号プラスヴァンドームサントル１２０１号,,27,128,5420082,,,,,,,2024-02-06,1,,,,,ネクスト,0
965,4120001262020,新規,0,2024-02-06,2024-02-06,株式会社ＳＨＵＤＡＩ,,株式会社,大阪府,大阪市住吉区,長居西２丁目９－５,,27,120,5580002,,,,,,,2024-02-06,1,,,,,シュウダイ,0
966,4120001262045,新規,0,2024-02-06,2024-02-06,嶺神株式会社,,株式会社,大阪府,大阪市中央区,釣鐘町１丁目６番６－３０９号,,27,128,5400035,,,,,,,2024-02-06,1,,,,,レイシン,0
967,4120001262103,新規,0,2024-02-06,2024-02-06,株式会社ｏｂｊｅｔｓ　ｄｅ　ｂｏｎｈｅｕｒ,,株式会社,大阪府,大阪市西区,南堀江１丁目１８番２１号,,27,106,5500015,,,,,,,2024-02-06,1,,,,,オブジェドゥボヌール,0
970,4120003025870,新規,0,2024-02-06,2024-02-06,合同会社フラットライク,,合同会社,大阪府,大阪市西成区,千本北２丁目３２番２２号,,27,122,5570053,,,,,,,2024-02-06,1,,,,,フラットライク,0
971,4120005024128,新規,0,2024-02-06,2024-02-06,特定非営利活動法人繁星会,,その他の設立登記法人,大阪府,大阪市北区,天満２丁目１番１２号天満橋ＳＥビル,,27,127,5300043,,,,,,,2024-02-06,1,,,,,ハンジョウカイ,0
972,4120005024144,新規,0,2024-02-06,2024-02-06,医療法人誠京会,,その他の設立登記法人,大阪府,大阪市淀川区,西三国３丁目９番３６号カーサミヤ１階,,27,123,5320006,,,,,,,2024-02-06,1,,,,,セイケイカイ,0
975,4120103005665,新規,0,2024-02-06,2024-02-06,堺インターナショナル合同会社,,合同会社,大阪府,堺市南区,檜尾３０８６番地６,,27,145,5900142,,,,,,,2024-02-06,1,,,,,サカイインターナショナル,0
982,4120901048733,新規,0,2024-02-06,2024-02-06,株式会社北村興業,,株式会社,大阪府,茨木市,西太田町１０番１８号,,27,211,5670015,,,,,,,2024-02-06,1,,,,,キタムラコウギョウ,0
984,4122001037798,新規,0,2024-02-06,2024-02-06,株式会社リ・ワークス,,株式会社,大阪府,東大阪市,上四条町２１番１２号,,27,227,5798052,,,,,,,2024-02-06,1,,,,,リワークス,0
985,4122001037807,新規,0,2024-02-06,2024-02-06,株式会社オウチハウジング,,株式会社,大阪府,八尾市,南太子堂４丁目５番３７号,,27,212,5810056,,,,,,,2024-02-06,1,,,,,オウチハウジング,0
991,4130001076312,新規,0,2024-02-06,2024-02-06,Ｄａｔａ　Ｃｅｎｔｅｒ　Ｘｐｅｒｔ株式会社,,株式会社,京都府,相楽郡精華町,光台１丁目７けいはんなプラザラボ棟６階,,26,366,6190237,,,,,,,2024-02-06,1,,,,,データセンターエキスパート,0
993,4130003009294,新規,0,2024-02-06,2024-02-06,合同会社むすんでひらいて,,合同会社,京都府,京丹後市,大宮町奥大野５８５－１,,26,212,6292531,,,,,,,2024-02-06,1,,,,,ムスンデヒライテ,0
994,4130005016999,新規,0,2024-02-06,2024-02-06,一般社団法人Ｏｆｆｉｃｉａｌ　Ｋｉｔａｍｕｒａ,,その他の設立登記法人,京都府,京都市伏見区,中島外山町８４番地,,26,109,6128455,,,,,,,2024-02-06,1,,,,,オフィシャルキタムラ,0
1004,4140001133203,新規,0,2024-02-06,2024-02-06,株式会社ｒｅｃａｒｅ,,株式会社,兵庫県,明石市,大久保町松陰１１１５番地の１,,28,203,6740053,,,,,,,2024-02-06,1,,,,,リカリ,0
1005,4140001133211,新規,0,2024-02-06,2024-02-06,株式会社コネクトダイニング,,株式会社,兵庫県,尼崎市,崇徳院３丁目５２番地２,,28,202,6600071,,,,,,,2024-02-06,1,,,,,コネクトダイニング,0
1006,4140001133236,新規,0,2024-02-06,2024-02-06,株式会社ＤＡＲＵＭＡ,,株式会社,兵庫県,神戸市北区,鈴蘭台東町６丁目７番１１号,,28,109,6511112,,,,,,,2024-02-06,1,,,,,ダルマ,0
1007,4140001133244,新規,0,2024-02-06,2024-02-06,株式会社ＲＩＶＥＲ　ＤＯＯＲ,,株式会社,兵庫県,神戸市須磨区,横尾９丁目２番地２号棟４０４号,,28,107,6540131,,,,,,,2024-02-06,1,,,,,リバードア,0
1008,4140001133260,新規,0,2024-02-06,2024-02-06,株式会社Ｎ２ホールディングス,,株式会社,兵庫県,姫路市,広畑区才１５－１８,,28,201,6711104,,,,,,,2024-02-06,1,,,,,エヌツーホールディングス,0
1015,4140005026931,新規,0,2024-02-06,2024-02-06,特定非営利活動法人ぐらてぃハート,,その他の設立登記法人,兵庫県,西宮市,馬場町１－２１、１Ｆ,,28,204,6620915,,,,,,,2024-02-06,1,,,,,グラティハート,0
1018,4170001017997,新規,0,2024-02-06,2024-02-06,株式会社Ｙ’ｓ,,株式会社,和歌山県,岩出市,野上野９９番地の２１,,30,209,6496216,,,,,,,2024-02-06,1,,,,,ワイズ,0
1021,4180003026293,新規,0,2024-02-06,2024-02-06,合同会社Ｋ‐ＪＯＩＮ,,合同会社,愛知県,瀬戸市,見付町７番８号エスコシティ新瀬戸１０５,,23,204,4890808,,,,,,,2024-02-06,1,,,,,ケージョイン,0
1022,4180301038305,新規,0,2024-02-06,2024-02-06,ＶＡＲＩＯＵＳ　ＤＥＳＩＧＮ株式会社,,株式会社,愛知県,岡崎市,下青野町字東新居５６番地２,,23,202,4440244,,,,,,,2024-02-06,1,,,,,ヴァリアスデザイン,0
1023,4180303005996,新規,0,2024-02-06,2024-02-06,合同会社サイナルジ,,合同会社,愛知県,豊橋市,天伯町字雲雀ケ丘１－１,,23,201,4418122,,,,,,,2024-02-06,1,,,,,サイナルジ,0
1033,4200005013568,新規,0,2024-02-06,2024-02-06,一般社団法人技の環,,その他の設立登記法人,岐阜県,高山市,上一之町９８番地,,21,203,5060844,,,,,,,2024-02-06,1,,,,,ギノワ,0
1034,4210001019626,新規,0,2024-02-06,2024-02-06,株式会社ムネトモファーム,,株式会社,福井県,大野市,富嶋第３７号２番地,,18,205,9120803,,,,,,,2024-02-06,1,,,,,ムネトモファーム,0
1035,4210003001747,新規,0,2024-02-06,2024-02-06,合同会社おひさまとみどり,,合同会社,福井県,鯖江市,糺町２３－３－１,,18,207,9160004,,,,,,,2024-02-06,1,,,,,オヒサマトミドリ,0
1037,4220003003668,新規,0,2024-02-06,2024-02-06,ＭａｚＬｉｑｕｏｒ合同会社,,合同会社,石川県,白山市,鶴来下東町カ９番地２,,17,210,9202128,,,,,,,2024-02-06,1,,,,,マツリカー,0
1038,4230001020202,新規,0,2024-02-06,2024-02-06,エスエステート株式会社,,株式会社,富山県,富山市,吉作１６９６番地,,16,201,9300142,,,,,,,2024-02-06,1,,,,,エスエステート,0
1041,4230003002149,新規,0,2024-02-06,2024-02-06,合同会社ぽこなり,,合同会社,富山県,富山市,秋吉１４１番地２,,16,201,9300953,,,,,,,2024-02-06,1,,,,,ポコナリ,0
1042,4240001062755,新規,0,2024-02-06,2024-02-06,広創開発工業株式会社,,株式会社,広島県,広島市安佐南区,大町西１丁目１３番２０－１０５号,,34,105,7310125,,,,,,,2024-02-06,1,,,,,ヒロソウカイハツコウギョウ,0
1046,4250001020506,新規,0,2024-02-06,2024-02-06,株式会社光井機工,,株式会社,山口県,岩国市,南岩国町４丁目６６番１４－２０２号,,35,208,7400034,,,,,,,2024-02-06,1,,,,,ミツイキコウ,0
1048,4270005005575,新規,0,2024-02-06,2024-02-06,医療法人Ｔｏｔｔｏｒｉ　Ｏｒｔｈｏ　Ｄｅｎｔａｌ　Ｃｌｕｂ,,その他の設立登記法人,鳥取県,鳥取市,青谷町青谷４０４３番地１１,,31,201,6890501,,,,,,,2024-02-06,1,,,,,トットリオルソデンタルクラブ,0
1051,4290001104569,新規,0,2024-02-06,2024-02-06,株式会社Ｓｔｏｒｙｇｒａｍ,,株式会社,福岡県,福岡市中央区,天神２丁目２番１２号,,40,133,8100001,,,,,,,2024-02-06,1,,,,,ストーリーグラム,0
1052,4290001104593,新規,0,2024-02-06,2024-02-06,株式会社福岡建双,,株式会社,福岡県,福岡市博多区,板付２丁目１２番１２号,,40,132,8120888,,,,,,,2024-02-06,1,,,,,フクオカケンソウ,0
1056,4290003014931,新規,0,2024-02-06,2024-02-06,ライエン合同会社,,合同会社,福岡県,福岡市博多区,博多駅東１丁目１５番１９－２０７号,,40,132,8120013,,,,,,,2024-02-06,1,,,,,ライエン,0
1064,4330003010199,新規,0,2024-02-06,2024-02-06,合同会社寿興業,,合同会社,熊本県,八代市,平山新町２８５７番地,,43,202,8660074,,,,,,,2024-02-06,1,,,,,,0
1066,4340001026262,新規,0,2024-02-06,2024-02-06,株式会社トライアース,,株式会社,鹿児島県,鹿屋市,寿５丁目２７－６Ａ号,,46,203,8930014,,,,,,,2024-02-06,1,,,,,トライアース,0
1068,4350001018779,新規,0,2024-02-06,2024-02-06,株式会社宇都宮工業,,株式会社,宮崎県,児湯郡都農町,大字川北１８８６１番地１２７,,45,406,8891201,,,,,,,2024-02-06,1,,,,,ウツノミヤコウギョウ,0
1070,4360001033158,新規,0,2024-02-06,2024-02-06,株式会社マーシーズ,,株式会社,沖縄県,豊見城市,字瀬長１７４番地６ウミカジテラス３９,,47,212,9010233,,,,,,,2024-02-06,1,,,,,マーシーズ,0
1071,4360003013678,新規,0,2024-02-06,2024-02-06,合同会社あがり工業,,合同会社,沖縄県,うるま市,字赤野１３３５－１コーポラスｙ３０１,,47,213,9042212,,,,,,,2024-02-06,1,,,,,アガリコウギョウ,0
1072,4360003013686,新規,0,2024-02-06,2024-02-06,合同会社リバースト,,合同会社,沖縄県,沖縄市,中央１丁目７－８,,47,211,9040004,,,,,,,2024-02-06,1,,,,,リバースト,0
1083,4410001013724,新規,0,2024-02-06,2024-02-06,株式会社つきのね,,株式会社,秋田県,由利本荘市,御門２８６番地６,,05,210,0150861,,,,,,,2024-02-06,1,,,,,ツキノネ,0
1084,4420003002872,新規,0,2024-02-06,2024-02-06,合同会社肉の豚金,,合同会社,青森県,平川市,本町北柳田１１番地１７,,02,210,0360103,,,,,,,2024-02-06,1,,,,,ニクノブタキン,0
1086,4430001091025,新規,0,2024-02-06,2024-02-06,多喜産業株式会社,,株式会社,北海道,札幌市西区,西町南５丁目４番１８号,,01,107,0630062,,,,,,,2024-02-06,1,,,,,タキサンギョウ,0
1087,4430001091041,新規,0,2024-02-06,2024-02-06,株式会社アルティズム,,株式会社,北海道,札幌市中央区,南五条西１５丁目２番地３リズム医大前５０３号室,,01,101,0640805,,,,,,,2024-02-06,1,,,,,アルティズム,0
1098,4480001012380,新規,0,2024-02-06,2024-02-06,スカイマグ株式会社,,株式会社,徳島県,徳島市,雑賀町西開１１番地の２明日葉工場１号,,36,201,7708021,,,,,,,2024-02-06,1,,,,,スカイマグ,0
1099,4480005007006,新規,0,2024-02-06,2024-02-06,ＳＳＫ税理士法人,,その他の設立登記法人,徳島県,徳島市,幸町３丁目５０番地,,36,201,7700847,,,,,,,2024-02-06,1,,,,,エスエスケイ,0
1100,4700150123848,新規,0,2024-02-06,2024-02-06,塙塾,,その他,神奈川県,横浜市中区,根岸町２丁目８５－５－５１９,,14,104,2310836,,,,,,,2024-02-06,1,,,,,ハナワジュク,0
1110,5010001242008,新規,0,2024-02-06,2024-02-06,麗耳科技株式会社,,株式会社,東京都,文京区,千石４丁目１４番９号１階アルファ内,,13,105,1120011,,,,,,,2024-02-06,1,,,,,イアーファンテクノロジー,0
1111,5010001242040,新規,0,2024-02-06,2024-02-06,エデュテックコネクト株式会社,,株式会社,東京都,文京区,大塚５丁目７番１２号ＮＫビル新大塚３階,00133630,13,105,1120012,,,,,,,2024-02-06,1,,,,,エデュテックコネクト,0
1112,5010001242057,新規,0,2024-02-06,2024-02-06,株式会社政策メディア,,株式会社,東京都,千代田区,永田町２丁目９－６－２０５,,13,101,1000014,,,,,,,2024-02-06,1,,,,,セイサクメディア,0
1113,5010001242065,新規,0,2024-02-06,2024-02-06,株式会社ＡＹＬＯ,,株式会社,東京都,千代田区,飯田橋２丁目１番５号Ｓ－ＧｌａｎｚＫＵＤＡＮＢＬＤ．４階,,13,101,1020072,,,,,,,2024-02-06,1,,,,,エイワイエルオー,0
1114,5010001242073,新規,0,2024-02-06,2024-02-06,株式会社ティーズアイ,,株式会社,東京都,千代田区,神田佐久間町３丁目３８番地第５東ビル５Ｆ,,13,101,1010025,,,,,,,2024-02-06,1,,,,,ティーズアイ,0
1115,5010001242081,新規,0,2024-02-06,2024-02-06,株式会社オラオラ,,株式会社,東京都,文京区,湯島３丁目２１番５号,,13,105,1130034,,,,,,,2024-02-06,1,,,,,オラオラ,0
1116,5010001242115,新規,0,2024-02-06,2024-02-06,株式会社幸呼梛,,株式会社,東京都,中央区,銀座１丁目２２番１１号銀座大竹ビジデンス２Ｆ,,13,102,1040061,,,,,,,2024-02-06,1,,,,,ココナギ,0
1123,5010401180195,新規,0,2024-02-06,2024-02-06,株式会社２ｎｄ　ｐｌａｃｅ,,株式会社,東京都,港区,虎ノ門３丁目１２番１号,,13,103,1050001,,,,,,,2024-02-06,1,,,,,セカンドプレイス,0
1124,5010401180204,新規,0,2024-02-06,2024-02-06,Ｆｉｖｅｔｒａｎ　Ｊａｐａｎ株式会社,,株式会社,東京都,港区,虎ノ門４丁目３番１号城山トラストタワー東京赤坂法律事務所内,,13,103,1050001,,,,,,,2024-02-06,1,,,,,ファイブトランジャパン,0
1125,5010403031891,新規,0,2024-02-06,2024-02-06,合同会社ユンデ,,合同会社,東京都,港区,南青山２丁目２番１５号,,13,103,1070062,,,,,,,2024-02-06,1,,,,,ユンデ,0
1126,5010403031900,新規,0,2024-02-06,2024-02-06,ヤノコーポレーション合同会社,,合同会社,東京都,港区,白金台４丁目１７番１６号,,13,103,1080071,,,,,,,2024-02-06,1,,,,,ヤノコーポレーション,0
1128,5010405022922,新規,0,2024-02-06,2024-02-06,ブルーインフラホールディングス３号一般社団法人,,その他の設立登記法人,東京都,港区,元赤坂１丁目１番７号,,13,103,1070051,,,,,,,2024-02-06,1,,,,,ブルーインフラホールディングスサンゴウ,0
1131,5010601064594,新規,0,2024-02-06,2024-02-06,株式会社アップパートナーズ,,株式会社,東京都,墨田区,八広５丁目７番１－６０７号,,13,107,1310041,,,,,,,2024-02-06,1,,,,,アップパートナーズ,0
1132,5010601064603,新規,0,2024-02-06,2024-02-06,株式会社ホシノラボ,,株式会社,東京都,江東区,富岡１丁目２２番２２号クレヴィア門前仲町４０５号,,13,108,1350047,,,,,,,2024-02-06,1,,,,,ホシノラボ,0
1140,5010901054667,新規,0,2024-02-06,2024-02-06,株式会社コマツ,,株式会社,東京都,世田谷区,野沢３丁目２２番２１号,,13,112,1540003,,,,,,,2024-02-06,1,,,,,コマツ,0
1148,5011001159794,新規,0,2024-02-06,2024-02-06,株式会社会計のチカラ,,株式会社,東京都,渋谷区,渋谷２丁目１９番１５号宮益坂ビルディング６０９,,13,113,1500002,,,,,,,2024-02-06,1,,,,,カイケイノチカラ,0
1149,5011001159828,新規,0,2024-02-06,2024-02-06,株式会社Ｅｔｅｒｎａｌ　Ｎｅｘｔ,,株式会社,東京都,目黒区,青葉台４丁目７番３－３０３号セレニティコート渋谷神泉,,13,110,1530042,,,,,,,2024-02-06,1,,,,,エターナルネクスト,0
1150,5011001159836,新規,0,2024-02-06,2024-02-06,株式会社ロケトク,,株式会社,東京都,渋谷区,神宮前６丁目２５番１４号,,13,113,1500001,,,,,,,2024-02-06,1,,,,,ロケトク,0
1151,5011001159844,新規,0,2024-02-06,2024-02-06,株式会社アースビューティー,,株式会社,東京都,渋谷区,富ヶ谷１丁目４６番３号ステージファースト代々木公園５０３,,13,113,1510063,,,,,,,2024-02-06,1,,,,,アースビューティー,0
1157,5011101106093,新規,0,2024-02-06,2024-02-06,ペンタコネクト株式会社,,株式会社,東京都,新宿区,歌舞伎町２丁目４５－５新宿永谷ビル４０９,,13,104,1600021,,,,,,,2024-02-06,1,,,,,ペンタコネクト,0
1161,5011201025227,新規,0,2024-02-06,2024-02-06,株式会社ＳＫ計画,,株式会社,東京都,中野区,中野５丁目６７番７号プラザ中野８０１,,13,114,1640001,,,,,,,2024-02-06,1,,,,,エスケーケイカク,0
1164,5011301029383,新規,0,2024-02-06,2024-02-06,ＤＩＶＥ　ＩＮ株式会社,,株式会社,東京都,杉並区,梅里２丁目７番３号,,13,115,1660011,,,,,,,2024-02-06,1,,,,,ダイブイン,0
1165,5011601027509,新規,0,2024-02-06,2024-02-06,株式会社アップサイド,,株式会社,東京都,練馬区,石神井町８丁目４２番９号関口コーポ１０２号,,13,120,1770041,,,,,,,2024-02-06,1,,,,,アップサイド,0
1167,5011701027004,新規,0,2024-02-06,2024-02-06,株式会社ＦＡＰＡＲＡ,,株式会社,東京都,江戸川区,北葛西２丁目１－１３,,13,123,1340081,,,,,,,2024-02-06,1,,,,,ファパラ,0
1168,5011801043743,新規,0,2024-02-06,2024-02-06,株式会社とうわ,,株式会社,東京都,足立区,東和３丁目１３番１－１１６号,,13,121,1200003,,,,,,,2024-02-06,1,,,,,トウワ,0
1171,5012401041484,新規,0,2024-02-06,2024-02-06,株式会社ｍｉｓｏｒａ,,株式会社,東京都,武蔵野市,桜堤２丁目１３番１－４３６号,,13,203,1800021,,,,,,,2024-02-06,1,,,,,ミソラ,0
1172,5012701018075,新規,0,2024-02-06,2024-02-06,株式会社Ｆｕｔａｔｓｕ,,株式会社,東京都,小平市,御幸町１４番地の３ｃａｓａｏｔｔｏ２０１号,,13,211,1870012,,,,,,,2024-02-06,1,,,,,フタツ,0
1173,5012801022951,新規,0,2024-02-06,2024-02-06,株式会社ＡＳＫグループ,,株式会社,東京都,立川市,高松町２丁目２５番１号ニューパリア立川石川ビル２Ｂ,,13,202,1900011,,,,,,,2024-02-06,1,,,,,アスカグループ,0
1174,5013101009334,新規,0,2024-02-06,2024-02-06,ティーピー株式会社,,株式会社,東京都,あきる野市,雨間４１５番地１グリーンサイトＡ号棟１号,,13,228,1970825,,,,,,,2024-02-06,1,,,,,ティーピー,0
1176,5013103001306,新規,0,2024-02-06,2024-02-06,合同会社ティーエムケイ,,合同会社,東京都,福生市,大字熊川７１０－１２,,13,218,1970003,,,,,,,2024-02-06,1,,,,,,0
1178,5013301052027,新規,0,2024-02-06,2024-02-06,ギア・アセット・マネジメント株式会社,,株式会社,東京都,豊島区,西池袋５丁目５番２１号ザ・タワー・グランディア１９０７号室,,13,116,1710021,,,,,,,2024-02-06,1,,,,,ギアアセットマネジメント,0
1179,5013301052043,新規,0,2024-02-06,2024-02-06,株式会社Ｗｉｔｈ　Ｖａｌｕｅ,,株式会社,東京都,豊島区,東池袋１丁目３４番５号いちご東池袋ビル６階,,13,116,1700013,,,,,,,2024-02-06,1,,,,,ウィズバリュー,0
1186,5020001155654,新規,0,2024-02-06,2024-02-06,株式会社ネクスタ,,株式会社,神奈川県,横浜市青葉区,あざみ野４丁目７番地４２,,14,117,2250011,,,,,,,2024-02-06,1,,,,,ネクスタ,0
1187,5020001155662,新規,0,2024-02-06,2024-02-06,株式会社Ｍｅｔｉｓ,,株式会社,神奈川県,横浜市青葉区,つつじが丘２番地３－３０９,,14,117,2270055,,,,,,,2024-02-06,1,,,,,メティス,0
1188,5020001155670,新規,0,2024-02-06,2024-02-06,株式会社ＫＫＪＣ,,株式会社,神奈川県,横浜市南区,通町２丁目１９番地９,,14,105,2320056,,,,,,,2024-02-06,1,,,,,ケイケイジェイシー,0
1189,5020001155679,新規,0,2024-02-06,2024-02-06,株式会社絆,,株式会社,神奈川県,横浜市港北区,樽町３丁目７番７０－１２２号,,14,109,2220001,,,,,,,2024-02-06,1,,,,,キズナ,0
1195,5021001081378,新規,0,2024-02-06,2024-02-06,Ｉｃｅ　Ａｉｒ　Ｔｅｃｈ株式会社,,株式会社,神奈川県,相模原市緑区,原宿２丁目１１番３号イルファームヴィラＢ１０１,,14,151,2520102,,,,,,,2024-02-06,1,,,,,アイスエアーテック,0
1196,5021001081386,新規,0,2024-02-06,2024-02-06,株式会社カナクリ,,株式会社,神奈川県,平塚市,平塚１丁目１４番８号,,14,203,2540052,,,,,,,2024-02-06,1,,,,,カナクリ,0
1197,5021001081394,新規,0,2024-02-06,2024-02-06,株式会社ＴＯＰ　ＣＲＡＦＴ,,株式会社,神奈川県,平塚市,日向岡１丁目１３番１号,,14,203,2540905,,,,,,,2024-02-06,1,,,,,トップクラフト,0
1198,5021001081403,新規,0,2024-02-06,2024-02-06,株式会社ＢＲＩＣＫＳ,,株式会社,神奈川県,横須賀市,安浦町１丁目３番地６,,14,201,2380012,,,,,,,2024-02-06,1,,,,,ブリックス,0
1200,5021003014121,新規,0,2024-02-06,2024-02-06,合同会社Ｓａｎｍａ,,合同会社,神奈川県,茅ヶ崎市,東海岸南４丁目１―３３,,14,207,2530054,,,,,,,2024-02-06,1,,,,,サンマ,0
1205,5030001158482,新規,0,2024-02-06,2024-02-06,株式会社スリーウエイホールディングス,,株式会社,埼玉県,川口市,前川２丁目３２番２号,,11,203,3330842,,,,,,,2024-02-06,1,,,,,スリーウエイホールディングス,0
1207,5030003023577,新規,0,2024-02-06,2024-02-06,合同会社ＰＲＯＧＲＥＳＳ,,合同会社,埼玉県,春日部市,南２丁目６番５０－２号,,11,214,3440064,,,,,,,2024-02-06,1,,,,,プログレス,0
1208,5030003023585,新規,0,2024-02-06,2024-02-06,合同会社弘盛,,合同会社,埼玉県,川越市,稲荷町２２－５５ウィンド上福岡１０３,,11,201,3501144,,,,,,,2024-02-06,1,,,,,コウセイ,0
1211,5040001131967,新規,0,2024-02-06,2024-02-06,八雲出版株式会社,,株式会社,千葉県,白井市,池の上２丁目１２番３号,,12,232,2701425,,,,,,,2024-02-06,1,,,,,ヤクモシュッパン,0
1212,5040001132065,新規,0,2024-02-06,2024-02-06,株式会社ＹＵＩ,,株式会社,千葉県,船橋市,藤原７丁目２４番５号,,12,204,2730047,,,,,,,2024-02-06,1,,,,,ユイ,0
1213,5040001132081,新規,0,2024-02-06,2024-02-06,株式会社ＲＡＩＮＢＯＷ　ＩＮＴＥＲＮＡＴＩＯＮＡＬ,,株式会社,千葉県,柏市,大井２７３９番地,,12,217,2770902,,,,,,,2024-02-06,1,,,,,レインボーインターナショナル,0
1214,5040001132107,新規,0,2024-02-06,2024-02-06,みらい科学ラボラトリー株式会社,,株式会社,千葉県,佐倉市,ユーカリが丘７丁目３２番１－４０５号弐番館,,12,212,2850858,,,,,,,2024-02-06,1,,,,,ミライカガクラボラトリー,0
1220,5040003024260,新規,0,2024-02-06,2024-02-06,合同会社小さな杉玉,,合同会社,千葉県,富津市,竹岡２０３番地１４４,,12,226,2991621,,,,,,,2024-02-06,1,,,,,チイサナスギダマ,0
1221,5040005022279,新規,0,2024-02-06,2024-02-06,一般社団法人日本千葉台湾商会,,その他の設立登記法人,千葉県,千葉市中央区,祐光１丁目２５番１３号,,12,101,2600007,,,,,,,2024-02-06,1,,,,,,0
1227,5060001036801,新規,0,2024-02-06,2024-02-06,株式会社のず,,株式会社,栃木県,宇都宮市,瑞穂３丁目７番９号,,09,201,3210921,,,,,,,2024-02-06,1,,,,,ノズ,0
1232,5070001041354,新規,0,2024-02-06,2024-02-06,株式会社クオリアスタイル,,株式会社,群馬県,みどり市,大間々町大間々１９３４番地１,,10,212,3760101,,,,,,,2024-02-06,1,,,,,クオリアスタイル,0
1238,5100001037191,新規,0,2024-02-06,2024-02-06,株式会社ｂＤＥＳＩＧＮ,,株式会社,長野県,小県郡青木村,大字田沢２６３７番地２,,20,349,3861601,,,,,,,2024-02-06,1,,,,,ビーデザイン,0
1241,5100003007390,新規,0,2024-02-06,2024-02-06,合同会社大井建装,,合同会社,長野県,佐久市,平賀５３３８番地４,,20,217,3850034,,,,,,,2024-02-06,1,,,,,オオイケンソウ,0
1248,5120001261954,新規,0,2024-02-06,2024-02-06,新創興株式会社,,株式会社,大阪府,大阪市城東区,野江３丁目２７－７野江１番館３０３号室,,27,118,5360006,,,,,,,2024-02-06,1,,,,,シンソウキョウ,0
1249,5120001261979,新規,0,2024-02-06,2024-02-06,株式会社アウトサイダー,,株式会社,大阪府,大阪市中央区,東心斎橋１丁目３番１０号長堀堂ビル７階,,27,128,5420083,,,,,,,2024-02-06,1,,,,,アウトサイダー,0
1250,5120001261995,新規,0,2024-02-06,2024-02-06,株式会社ｅＡＬＩＶＥ,,株式会社,大阪府,枚方市,田口山３丁目１番１３号,,27,210,5730001,,,,,,,2024-02-06,1,,,,,イーアライブ,0
1253,5120003025829,新規,0,2024-02-06,2024-02-06,福東海合同会社,,合同会社,大阪府,大阪市西成区,橘３丁目１８番２４号,,27,122,5570051,,,,,,,2024-02-06,1,,,,,フクトウカイ,0
1254,5120003025861,新規,0,2024-02-06,2024-02-06,嘉里合同会社,,合同会社,大阪府,大阪市都島区,片町２丁目５番６号３０５号室,,27,102,5340025,,,,,,,2024-02-06,1,,,,,カリ,0
1261,5120101068985,新規,0,2024-02-06,2024-02-06,株式会社Ｓ＆Ｔ１９８１,,株式会社,大阪府,堺市北区,南長尾町１丁３番２－１０２号,,27,146,5918045,,,,,,,2024-02-06,1,,,,,エスアンドティーイチキュウハチイチ,0
1271,5130001076286,新規,0,2024-02-06,2024-02-06,株式会社ｍａｕｎａ,,株式会社,京都府,京都市下京区,七条通新町西入夷之町７１８番地ＮＹＨビル,,26,106,6008310,,,,,,,2024-02-06,1,,,,,マウナ,0
1279,5140001133169,新規,0,2024-02-06,2024-02-06,株式会社佳納,,株式会社,兵庫県,姫路市,広畑区蒲田４丁目２１９番地,,28,201,6711102,,,,,,,2024-02-06,1,,,,,カナ,0
1280,5140001133185,新規,0,2024-02-06,2024-02-06,株式会社Ｒｅｅ．ＲＡＩＳ,,株式会社,兵庫県,姫路市,飾東町佐良和１０５番地１,,28,201,6710217,,,,,,,2024-02-06,1,,,,,リーライズ,0
1281,5140001133219,新規,0,2024-02-06,2024-02-06,株式会社シェノンホーム,,株式会社,兵庫県,西宮市,上大市４丁目１２番１５号,,28,204,6638003,,,,,,,2024-02-06,1,,,,,シェノンホーム,0
1282,5140001133235,新規,0,2024-02-06,2024-02-06,株式会社呂色,,株式会社,兵庫県,神戸市中央区,旭通４丁目１番３号,,28,110,6510095,,,,,,,2024-02-06,1,,,,,ロイロ,0
1283,5140001133243,新規,0,2024-02-06,2024-02-06,株式会社Ｎｉｓｈｉｍｕｒａ　Ｔｒａｄｉｎｇ,,株式会社,兵庫県,宝塚市,波豆字湯谷掛１７番地,,28,214,6691221,,,,,,,2024-02-06,1,,,,,ニシムラトレーディング,0
1284,5140001133251,新規,0,2024-02-06,2024-02-06,株式会社ＬＫＪ,,株式会社,兵庫県,尼崎市,神田中通３丁目３５番地ＡＫビル２Ｆ,,28,202,6600884,,,,,,,2024-02-06,1,,,,,エルケイジェイ,0
1291,5140003020092,新規,0,2024-02-06,2024-02-06,合同会社ＲｅＢｏｒｎ,,合同会社,兵庫県,加古郡播磨町,古田２丁目２９番７号,,28,382,6750146,,,,,,,2024-02-06,1,,,,,リボーン,0
1294,5150001027056,新規,0,2024-02-06,2024-02-06,株式会社サザンサポート,,株式会社,奈良県,香芝市,逢坂２丁目６８３－３シティライフ香芝２０７,00133631,29,210,6390251,,,,,,,2024-02-06,1,,,,,サザンサポート,0
1297,5170001017996,新規,0,2024-02-06,2024-02-06,株式会社ホテルマネジメントいとをかし,,株式会社,和歌山県,和歌山市,美園町５丁目４番６号ライフビル２階３階,,30,201,6408331,,,,,,,2024-02-06,1,,,,,ホテルマネジメントイトヲカシ,0
1302,5180001160052,新規,0,2024-02-06,2024-02-06,株式会社サイエンテック,,株式会社,愛知県,津島市,江西町３丁目５０番地８,,23,208,4960874,,,,,,,2024-02-06,1,,,,,サイエンテック,0
1305,5180301038295,新規,0,2024-02-06,2024-02-06,ＣＯＭＭＡＮＤ　ＬＩＮＥ株式会社,,株式会社,愛知県,知立市,牛田１丁目４４番地,,23,225,4720003,,,,,,,2024-02-06,1,,,,,コマンドライン,0
1306,5180303005995,新規,0,2024-02-06,2024-02-06,合同会社Ａｌａｍ,,合同会社,愛知県,岡崎市,日名中町１５番地１２,,23,202,4440918,,,,,,,2024-02-06,1,,,,,アラム,0
1315,5200003006226,新規,0,2024-02-06,2024-02-06,合同会社ＨＡＳＳＡＮ　ＴＲＡＤＩＮＧ,,合同会社,岐阜県,多治見市,旭ケ丘１０丁目６番地１１２,,21,204,5070071,,,,,,,2024-02-06,1,,,,,ハッサントレーディング,0
1317,5200005013567,新規,0,2024-02-06,2024-02-06,特定非営利活動法人スマイルニ,,その他の設立登記法人,岐阜県,高山市,丹生川町日面５１２番地,,21,203,5062256,,,,,,,2024-02-06,1,,,,,スマイルニ,0
1321,5220001025812,新規,0,2024-02-06,2024-02-06,株式会社まちこ,,株式会社,石川県,金沢市,寺町２丁目５番３号,,17,201,9218033,,,,,,,2024-02-06,1,,,,,マチコ,0
1328,5240001062754,新規,0,2024-02-06,2024-02-06,株式会社カートゥーンクリエイティブ,,株式会社,広島県,広島市中区,鶴見町５番１０－５０１号,,34,101,7300045,,,,,,,2024-02-06,1,,,,,カートゥーンクリエイティブ,0
1330,5240005015717,新規,0,2024-02-06,2024-02-06,一般社団法人セラ・デ・クラッソ,,その他の設立登記法人,広島県,世羅郡世羅町,大字伊尾１９４３番地５,,34,462,7293307,,,,,,,2024-02-06,1,,,,,セラデクラッソ,0
1333,5250003003433,新規,0,2024-02-06,2024-02-06,合同会社たまお,,合同会社,山口県,周南市,西桝町１６－１１,,35,215,7460044,,,,,,,2024-02-06,1,,,,,タマオ,0
1337,5260001038744,新規,0,2024-02-06,2024-02-06,株式会社くろ崎,00133640,株式会社,岡山県,岡山市南区,浜野１丁目２番５０－２号,,33,104,7000845,,,,,,,2024-02-06,1,,,,,クロサキ,0
1352,5290801030294,新規,0,2024-02-06,2024-02-06,株式会社Ｄｏｌｉｎｓ,,株式会社,福岡県,北九州市小倉南区,大字呼野１０９５番地６,,40,107,8030181,,,,,,,2024-02-06,1,,,,,ドリンズ,0
1358,5310001018823,新規,0,2024-02-06,2024-02-06,株式会社Ｂｌｕｅ　Ｏｃｅａｎ　Ｔｓｕｓｈｉｍａ,,株式会社,長崎県,対馬市,上県町志多留３０７,,42,209,8171533,,,,,,,2024-02-06,1,,,,,ブルーオーシャンツシマ,0
1373,5360001033157,新規,0,2024-02-06,2024-02-06,株式会社北倉,,株式会社,沖縄県,石垣市,字登野城６３１番地７,,47,207,9070004,,,,,,,2024-02-06,1,,,,,キタクラ,0
1375,5360003013660,新規,0,2024-02-06,2024-02-06,合同会社ＫＴ　ｍａｎａｇｅｍｅｎｔ,,合同会社,沖縄県,宮古島市,平良字久貝６６８番地５－２０８,,47,214,9060015,,,,,,,2024-02-06,1,,,,,ケーティーマネージメント,0
1378,5370003006473,新規,0,2024-02-06,2024-02-06,合同会社ｍｉｎｄ　ｌａｂｏｒａｔｏｒｙ,,合同会社,宮城県,気仙沼市,赤岩迎前田２８番地８,,04,205,9880163,,,,,,,2024-02-06,1,,,,,マインドラボラトリー,0
1383,5380003005672,新規,0,2024-02-06,2024-02-06,合同会社ＷＩＬＬ,,合同会社,福島県,二本松市,金色久保２２６－２３,,07,210,9640807,,,,,,,2024-02-06,1,,,,,ウィル,0
1386,5400003003211,新規,0,2024-02-06,2024-02-06,ファースト合同会社,,合同会社,岩手県,滝沢市,黒沢５９番地３３,,03,216,0200646,,,,,,,2024-02-06,1,,,,,ファースト,0
1393,5430001091016,新規,0,2024-02-06,2024-02-06,株式会社クアランタ,,株式会社,北海道,札幌市西区,発寒十一条１丁目８番３２号,,01,107,0630831,,,,,,,2024-02-06,1,,,,,クアランタ,0
1394,5430001091032,新規,0,2024-02-06,2024-02-06,株式会社エアタイト,,株式会社,北海道,札幌市西区,二十四軒二条１丁目１番６５号,,01,107,0630802,,,,,,,2024-02-06,1,,,,,エアタイト,0
1395,5430001091040,新規,0,2024-02-06,2024-02-06,株式会社ふくさぽ,,株式会社,北海道,札幌市豊平区,中の島二条７丁目２－７,,01,105,0620922,,,,,,,2024-02-06,1,,,,,フクサポ,0
1396,5430003015930,新規,0,2024-02-06,2024-02-06,あさの総建合同会社,,合同会社,北海道,札幌市北区,新琴似六条１１丁目４番２４号,,01,102,0010906,,,,,,,2024-02-06,1,,,,,アサノソウケン,0
1397,5430003015939,新規,0,2024-02-06,2024-02-06,ＳＵＮ合同会社,,合同会社,北海道,札幌市南区,簾舞四条６丁目３番７号,,01,106,0612264,,,,,,,2024-02-06,1,,,,,サン,0
1428,6010001242023,新規,0,2024-02-06,2024-02-06,株式会社アミティー,,株式会社,東京都,文京区,湯島１丁目２番７－１００３号,,13,105,1130034,,,,,,,2024-02-06,1,,,,,アミティー,0
1429,6010001242064,新規,0,2024-02-06,2024-02-06,紀州鉄道不動産開発株式会社,,株式会社,東京都,中央区,日本橋箱崎町１番７号,,13,102,1030015,,,,,,,2024-02-06,1,,,,,キシュウテツドウフドウサンカイハツ,0
1430,6010001242106,新規,0,2024-02-06,2024-02-06,株式会社ＧＢＭ,,株式会社,東京都,中央区,月島３丁目１６番５号４Ｆ,,13,102,1040052,,,,,,,2024-02-06,1,,,,,ジービーエム,0
1435,6010401180153,新規,0,2024-02-06,2024-02-06,ＷＷＪ株式会社,,株式会社,東京都,港区,海岸１丁目７番１号,,13,103,1050022,,,,,,,2024-02-06,1,,,,,ダブルダブルジェー,0
1436,6010401180186,新規,0,2024-02-06,2024-02-06,株式会社サイヴィーノ,,株式会社,東京都,港区,西新橋３丁目１２番９号プラウドフラット虎ノ門１３０４,,13,103,1050003,,,,,,,2024-02-06,1,,,,,サイヴィーノ,0
1437,6010401180194,新規,0,2024-02-06,2024-02-06,京進メディカル株式会社,,株式会社,東京都,港区,虎ノ門３丁目２５番５号,,13,103,1050001,,,,,,,2024-02-06,1,,,,,ケイシンメディカル,0
1438,6010401180203,新規,0,2024-02-06,2024-02-06,明成株式会社,,株式会社,東京都,港区,芝公園２丁目６－１１－１０４,,13,103,1050011,,,,,,,2024-02-06,1,,,,,メイセイ,0
1439,6010401180211,新規,0,2024-02-06,2024-02-06,株式会社Ｃｈａｎｇｅ　Ａｇｅｎｔ,,株式会社,東京都,港区,元麻布２丁目５番７－３０１号,,13,103,1060046,,,,,,,2024-02-06,1,,,,,チェンジエージェント,0
1440,6010403031882,新規,0,2024-02-06,2024-02-06,合同会社ＭＫ綜合開発,,合同会社,東京都,港区,赤坂２丁目８番９号２Ｆ,,13,103,1070052,,,,,,,2024-02-06,1,,,,,エムケーソウゴウカイハツ,0
1441,6010403031899,新規,0,2024-02-06,2024-02-06,合同会社ＹＤＳ,,合同会社,東京都,港区,北青山１丁目３番１号アールキューブ青山３階,,13,103,1070061,,,,,,,2024-02-06,1,,,,,ワイディーエス,0
1442,6010405022913,新規,0,2024-02-06,2024-02-06,一般社団法人要人輸送支援機構,,その他の設立登記法人,東京都,港区,港南２丁目１５番１号品川インターシティＡ棟２８階,,13,103,1080075,,,,,,,2024-02-06,1,,,,,ヨウジンユソウシエンキコウ,0
1447,6010601064593,新規,0,2024-02-06,2024-02-06,株式会社Ｓａｎｗａ　Ｊａｐａｎ　Ｃｏｍｐａｎｙ,,株式会社,東京都,江東区,大島１丁目９－１,,13,108,1360072,,,,,,,2024-02-06,1,,,,,サンワジャパンカンパニー,0
1458,6011001159777,新規,0,2024-02-06,2024-02-06,ウォーターミラー株式会社,,株式会社,東京都,目黒区,下目黒２丁目６－５プライム目黒１０３,,13,110,1530064,,,,,,,2024-02-06,1,,,,,ウォーターミラー,0
1459,6011001159802,新規,0,2024-02-06,2024-02-06,株式会社アットキャドホールディングス,,株式会社,東京都,渋谷区,代々木３丁目２２番７号,,13,113,1510053,,,,,,,2024-02-06,1,,,,,アットキャドホールディングス,0
1460,6011001159827,新規,0,2024-02-06,2024-02-06,株式会社Ｕｎ　Ｐａｓｏ,,株式会社,東京都,渋谷区,東１丁目２７番１０号渋谷ＴＹビル３Ｆ,,13,113,1500011,,,,,,,2024-02-06,1,,,,,ウンパソ,0
1461,6011001159835,新規,0,2024-02-06,2024-02-06,イケてる株式会社,,株式会社,東京都,目黒区,青葉台１丁目２２番１０号クレヴィア中目黒９０１,,13,110,1530042,,,,,,,2024-02-06,1,,,,,イケテル,0
1463,6011003018444,新規,0,2024-02-06,2024-02-06,Ｐｌｕｉｓ合同会社,,合同会社,東京都,渋谷区,神宮前６丁目２３番４号桑野ビル２階,,13,113,1500001,,,,,,,2024-02-06,1,,,,,プラウス,0
1464,6011005010358,新規,0,2024-02-06,2024-02-06,一般社団法人日中合作促進会,,その他の設立登記法人,東京都,渋谷区,桜丘町２６－１セルリアンタワー１５Ｆ,,13,113,1500031,,,,,,,2024-02-06,1,,,,,ニッチュウガッサクソクシンカイ,0
1470,6011101106076,新規,0,2024-02-06,2024-02-06,ＮＡＬＵ株式会社,,株式会社,東京都,新宿区,新宿１丁目３６番２号新宿第七葉山ビル３Ｆ,,13,104,1600022,,,,,,,2024-02-06,1,,,,,ナル,0
1471,6011101106092,新規,0,2024-02-06,2024-02-06,岡仁株式会社,,株式会社,東京都,新宿区,四谷三栄町１２番４４号東洋四谷ビルＢ１－６,,13,104,1600008,,,,,,,2024-02-06,1,,,,,オカニン,0
1473,6011301029374,新規,0,2024-02-06,2024-02-06,益真株式会社,,株式会社,東京都,杉並区,高円寺北２丁目２９番１３号エクセリア高円寺４１０,,13,115,1660002,,,,,,,2024-02-06,1,,,,,エキシン,0
1474,6011301029382,新規,0,2024-02-06,2024-02-06,株式会社ｙｏｕｒ　ｓｕｃｃｅｓｓ,,株式会社,東京都,杉並区,荻窪４丁目１３番１６号光荻窪マンション５０２,,13,115,1670051,,,,,,,2024-02-06,1,,,,,ユアサクセス,0
1476,6011405002277,新規,0,2024-02-06,2024-02-06,一般社団法人ストランズ・ケモーション,,その他の設立登記法人,東京都,板橋区,仲宿５９番１３－１０４号パラゼット区役所Ｉ,,13,119,1730005,,,,,,,2024-02-06,1,,,,,ストランズケモーション,0
1481,6011701026995,新規,0,2024-02-06,2024-02-06,ＵＴファーム株式会社,,株式会社,東京都,江戸川区,篠崎町３丁目１７番６号ＲＩＳＥ篠崎２０１,,13,123,1330061,,,,,,,2024-02-06,1,,,,,ユーティーファーム,0
1482,6011701027003,新規,0,2024-02-06,2024-02-06,株式会社Ｍｅｍｏｒｙ’ｓ,,株式会社,東京都,江戸川区,南小岩８丁目１０番１号相國ビル２階,,13,123,1330056,,,,,,,2024-02-06,1,,,,,メモリーズ,0
1483,6011701027011,新規,0,2024-02-06,2024-02-06,株式会社２Ｐｓ,,株式会社,東京都,江戸川区,平井３丁目２１－９,,13,123,1320035,,,,,,,2024-02-06,1,,,,,ツーピース,0
1487,6011801043734,新規,0,2024-02-06,2024-02-06,株式会社マルユウ,,株式会社,東京都,葛飾区,東立石２丁目１５番４号,,13,122,1240013,,,,,,,2024-02-06,1,,,,,マルユウ,0
1489,6012403006402,新規,0,2024-02-06,2024-02-06,エスト合同会社,,合同会社,東京都,府中市,本町２丁目２４番地の１０,,13,206,1830027,,,,,,,2024-02-06,1,,,,,エスト,0
1491,6012701018066,新規,0,2024-02-06,2024-02-06,ハセガワアカウンティング株式会社,,株式会社,東京都,西東京市,田無町５丁目１２番１５－３０１号,,13,229,1880011,,,,,,,2024-02-06,1,,,,,ハセガワアカウンティング,0
1493,6013101009341,新規,0,2024-02-06,2024-02-06,ファーディア株式会社,,株式会社,東京都,青梅市,裏宿町９０３番地の５,,13,205,1980088,,,,,,,2024-02-06,1,,,,,ファーディア,0
1494,6013103001305,新規,0,2024-02-06,2024-02-06,ＤＯＮＧ　ＤＵＯＮＧ　ＧＲＯＵＰ合同会社,,合同会社,東京都,福生市,大字熊川２０２番地３トーシンハイツ福生２０６号室,,13,218,1970003,,,,,,,2024-02-06,1,,,,,ドンズオングループ,0
1497,6013303006995,新規,0,2024-02-06,2024-02-06,合同会社ＦＵＲＡＮＣＩＳ,,合同会社,東京都,豊島区,池袋３丁目３６番１４号ル・リオン池袋３０２号,,13,116,1710014,,,,,,,2024-02-06,1,,,,,フランシス,0
1501,6020001155604,新規,0,2024-02-06,2024-02-06,株式会社ａｎｄ　Ｈ,,株式会社,神奈川県,川崎市高津区,下作延３丁目２－４１,,14,134,2130033,,,,,,,2024-02-06,1,,,,,アンドエイチ,0
1502,6020001155653,新規,0,2024-02-06,2024-02-06,株式会社ブラックエレフアント,,株式会社,神奈川県,横浜市神奈川区,六角橋４丁目１２番８号,,14,102,2210802,,,,,,,2024-02-06,1,,,,,ブラックエレフアント,0
1506,6020003025490,新規,0,2024-02-06,2024-02-06,合同会社２４,,合同会社,神奈川県,横浜市瀬谷区,北町４０番地１５さくらガーデン５０１,,14,114,2460002,,,,,,,2024-02-06,1,,,,,トゥエンティフォー,0
1508,6020005016273,新規,0,2024-02-06,2024-02-06,一般社団法人まさなお,,その他の設立登記法人,神奈川県,横浜市金沢区,釜利谷西１丁目８番４号,,14,108,2360046,,,,,,,2024-02-06,1,,,,,マサナオ,0
1512,6021001081377,新規,0,2024-02-06,2024-02-06,ＣＣＣ株式会社,,株式会社,神奈川県,平塚市,徳延５７５番地３・１０２,,14,203,2540902,,,,,,,2024-02-06,1,,,,,シーシーシー,0
1513,6021001081402,新規,0,2024-02-06,2024-02-06,メイゼニスインターナショナル株式会社,,株式会社,神奈川県,平塚市,西八幡３丁目２－３－１,,14,203,2540073,,,,,,,2024-02-06,1,,,,,メイゼニスインターナショナル,0
1514,6021003014129,新規,0,2024-02-06,2024-02-06,合同会社ＫＳＮ,,合同会社,神奈川県,藤沢市,辻堂東海岸１丁目７番４３号,,14,205,2510045,,,,,,,2024-02-06,1,,,,,ケイエスエヌ,0
1525,6030001158515,新規,0,2024-02-06,2024-02-06,株式会社ＭＫ　ＥＮＴＥＲＰＲＩＳＥ,,株式会社,埼玉県,上尾市,向山３丁目４４番１０号,,11,219,3620045,,,,,,,2024-02-06,1,,,,,エムケーエンタープライズ,0
1533,6040001132064,新規,0,2024-02-06,2024-02-06,タワーシステム株式会社,,株式会社,千葉県,佐倉市,ユーカリが丘１丁目４５番６号,,12,212,2850858,,,,,,,2024-02-06,1,,,,,タワーシステム,0
1534,6040003024276,新規,0,2024-02-06,2024-02-06,ＷＲＮＣ　ＪＡＰＡＮ合同会社,,合同会社,千葉県,千葉市若葉区,北谷津町３００番地５－３Ｂ,,12,104,2650067,,,,,,,2024-02-06,1,,,,,ダブリューアールエヌシージャパン,0
1539,6050003008121,新規,0,2024-02-06,2024-02-06,山田建設合同会社,,合同会社,茨城県,古河市,茶屋新田１８３番地２,,08,204,3060051,,,,,,,2024-02-06,1,,,,,ヤマダケンセツ,0
1541,6060001036791,新規,0,2024-02-06,2024-02-06,株式会社田角電気,00133633,株式会社,栃木県,那須烏山市,曲畑７７７番地１,,09,215,3210523,,,,,,,2024-02-06,1,,,,,タスミデンキ,0
1542,6060003004895,新規,0,2024-02-06,2024-02-06,ＪＴ　Ｔｒａｄｉｎｇ合同会社,,合同会社,栃木県,佐野市,栃本町２０２６番地１,,09,204,3270312,,,,,,,2024-02-06,1,,,,,ジェイティトレーディング,0
1544,6070001041353,新規,0,2024-02-06,2024-02-06,株式会社山口空調,,株式会社,群馬県,太田市,宝町４９番地１１,,10,205,3730042,,,,,,,2024-02-06,1,,,,,ヤマグチクウチョウ,0
1551,6080401026993,新規,0,2024-02-06,2024-02-06,株式会社Ｄａｗｎ,,株式会社,静岡県,浜松市中央区,塩町９８番地,,22,138,4328034,,,,,,,2024-02-06,1,,,,,ドーン,0
1553,6100001037190,新規,0,2024-02-06,2024-02-06,株式会社エーワンビズ,,株式会社,長野県,長野市,南高田１丁目１０番地１１,,20,201,3810033,,,,,,,2024-02-06,1,,,,,エーワンビズ,0
1568,6120001261986,新規,0,2024-02-06,2024-02-06,関西フーズ株式会社,,株式会社,大阪府,大阪市北区,梅田２丁目１番１６号,,27,127,5300001,,,,,,,2024-02-06,1,,,,,カンサイフーズ,0
1569,6120001262019,新規,0,2024-02-06,2024-02-06,株式会社Ｋスタイル,,株式会社,大阪府,大阪市西区,西本町１丁目７番２０号ＡＸＩＳセンター本町ビル６０３,,27,106,5500005,,,,,,,2024-02-06,1,,,,,ケイスタイル,0
1570,6120001262043,新規,0,2024-02-06,2024-02-06,株式会社ｓｔｏ,,株式会社,大阪府,大阪市天王寺区,上本町３丁目１番１５号,,27,109,5430001,,,,,,,2024-02-06,1,,,,,エスティーオー,0
1571,6120001262051,新規,0,2024-02-06,2024-02-06,株式会社ＵＲＵＴＯ,,株式会社,大阪府,大阪市北区,紅梅町２番１９－６０１号,,27,127,5300038,,,,,,,2024-02-06,1,,,,,ウルト,0
1572,6120001262092,新規,0,2024-02-06,2024-02-06,となりの株式会社,,株式会社,大阪府,守口市,八雲北町３丁目１０番１９号６０６,,27,209,5700008,,,,,,,2024-02-06,1,,,,,トナリノ,0
1573,6120001262101,新規,0,2024-02-06,2024-02-06,啓葉コンサルティング株式会社,,株式会社,大阪府,大阪市中央区,北浜４丁目７番２８号住友ビルディング２号館５階,,27,128,5410041,,,,,,,2024-02-06,1,,,,,ケイヨウコンサルティング,0
1576,6120003025860,新規,0,2024-02-06,2024-02-06,合同会社うえまち,,合同会社,大阪府,大阪市天王寺区,生玉町１０番２０－１５１５号,,27,109,5430071,,,,,,,2024-02-06,1,,,,,ウエマチ,0
1577,6120003025869,新規,0,2024-02-06,2024-02-06,合同会社ＫＡＴＳ,,合同会社,大阪府,大阪市中央区,高津３丁目１５－６グランドパレス夕陽ヶ丘４０６,,27,128,5420072,,,,,,,2024-02-06,1,,,,,カッツ,0
1579,6120103005655,新規,0,2024-02-06,2024-02-06,合同会社小野塗装,,合同会社,大阪府,堺市中区,深井清水町３６０５番地レゴリス２０１号,,27,142,5998273,,,,,,,2024-02-06,1,,,,,オノトソウ,0
1582,6122001037805,新規,0,2024-02-06,2024-02-06,松山グローバル株式会社,,株式会社,大阪府,東大阪市,太平寺１丁目２番３号,,27,227,5770844,,,,,,,2024-02-06,1,,,,,マツヤマグローバル,0
1589,6130001076269,新規,0,2024-02-06,2024-02-06,ＭＩＹＡＳＨＩＮ株式会社,,株式会社,京都府,与謝郡与謝野町,字岩滝１１６６番地,,26,465,6292262,,,,,,,2024-02-06,1,,,,,ミヤシン,0
1590,6130001076310,新規,0,2024-02-06,2024-02-06,株式会社ＲＵＮＺ,,株式会社,京都府,京都市西京区,桂南巽町２４番地,00133639,26,111,6158074,,,,,,,2024-02-06,1,,,,,ランズ,0
1599,6140001133176,新規,0,2024-02-06,2024-02-06,株式会社ＢｕＺＺｄｄｙ,,株式会社,兵庫県,神戸市垂水区,名谷町１８７８番地の１７,,28,108,6550852,,,,,,,2024-02-06,1,,,,,バズディー,0
1600,6140001133218,新規,0,2024-02-06,2024-02-06,株式会社クロステック不動産,,株式会社,兵庫県,加古川市,別府町別府６８２－６,,28,210,6750122,,,,,,,2024-02-06,1,,,,,クロステックフドウサン,0
1601,6140001133250,新規,0,2024-02-06,2024-02-06,株式会社ＬｉＦ,,株式会社,兵庫県,神戸市須磨区,白川字上側地１３４番地の５,,28,107,6540101,,,,,,,2024-02-06,1,,,,,リフ,0
1602,6140001133259,新規,0,2024-02-06,2024-02-06,株式会社はりまガレージ,,株式会社,兵庫県,相生市,汐見台６番地６,,28,208,6780002,,,,,,,2024-02-06,1,,,,,ハリマガレージ,0
1606,6140003020125,新規,0,2024-02-06,2024-02-06,合同会社Ｋ・ＰＬＡＮＮｉＮＧ,,合同会社,兵庫県,神戸市東灘区,西岡本５丁目１０番１２号ハイライフ本山３０７号,,28,101,6580073,,,,,,,2024-02-06,1,,,,,ケイプランニング,0
1620,6180301038294,新規,0,2024-02-06,2024-02-06,鏡水ｗｏｒｋｓ株式会社,,株式会社,愛知県,知立市,上重原３丁目６８番地ルミエール島間Ａ２０２号,,23,225,4720058,,,,,,,2024-02-06,1,,,,,カガンジワークス,0
1623,6210001019624,新規,0,2024-02-06,2024-02-06,株式会社ＴＡＳＫ,,株式会社,福井県,敦賀市,清水町１丁目１０番２号,,18,202,9140052,,,,,,,2024-02-06,1,,,,,タスク,0
1624,6210005010133,新規,0,2024-02-06,2024-02-06,一般社団法人愛と虹の架け橋,,その他の設立登記法人,福井県,鯖江市,石田上町第２号１４番地１０,,18,207,9160083,,,,,,,2024-02-06,1,,,,,アイトニジノカケハシ,0
1630,6240001062761,新規,0,2024-02-06,2024-02-06,株式会社嘉,,株式会社,広島県,広島市中区,薬研堀２番地２,,34,101,7300027,,,,,,,2024-02-06,1,,,,,ヨシ,0
1631,6240005015716,新規,0,2024-02-06,2024-02-06,一般社団法人ここいろｈｉｒｏｓｈｉｍａ,,その他の設立登記法人,広島県,広島市中区,鶴見町２－２４－１階,,34,101,7300045,,,,,,,2024-02-06,1,,,,,ココイロヒロシマ,0
1633,6250001020512,新規,0,2024-02-06,2024-02-06,株式会社ハマヤス,,株式会社,山口県,周南市,新清光台１丁目３番８号,,35,215,7450643,,,,,,,2024-02-06,1,,,,,ハマヤス,0
1647,6290001104600,新規,0,2024-02-06,2024-02-06,株式会社ＴＩＧＧＥＲ,,株式会社,福岡県,福岡市博多区,井相田２丁目４番１６－４０５号,,40,132,8120881,,,,,,,2024-02-06,1,,,,,ティガー,0
1648,6290001104641,新規,0,2024-02-06,2024-02-06,株式会社ＫａｎｏＮ,,株式会社,福岡県,太宰府市,国分５丁目３番２０号,,40,221,8180132,,,,,,,2024-02-06,1,,,,,カノン,0
1651,6290005019290,新規,0,2024-02-06,2024-02-06,ＮＰＯ法人やまと庵,,その他の設立登記法人,福岡県,朝倉市,堤１１６４番地１,,40,228,8380062,,,,,,,2024-02-06,1,,,,,ヤマトアン,0
1659,6320001020273,新規,0,2024-02-06,2024-02-06,株式会社やどや,,株式会社,大分県,由布市,湯布院町川上２７１７番地５,,44,213,8795102,,,,,,,2024-02-06,1,,,,,ヤドヤ,0
1661,6330005010757,新規,0,2024-02-06,2024-02-06,ＳＯＲＡ税理士法人,,その他の設立登記法人,熊本県,熊本市中央区,神水２丁目３番１７号,,43,101,8620954,,,,,,,2024-02-06,1,,,,,ソラ,0
1663,6340001026269,新規,0,2024-02-06,2024-02-06,シビックパワー株式会社,,株式会社,鹿児島県,鹿児島市,永吉２丁目３７番１９号,,46,201,8900023,,,,,,,2024-02-06,1,,,,,シビックパワー,0
1667,6350001018777,新規,0,2024-02-06,2024-02-06,株式会社エムズ・ファーム,,株式会社,宮崎県,延岡市,祝子町２６１番地１,,45,203,8820082,,,,,,,2024-02-06,1,,,,,エムズファーム,0
1669,6360001033156,新規,0,2024-02-06,2024-02-06,株式会社アップ,,株式会社,沖縄県,那覇市,首里寒川町２丁目３番地,,47,201,9030826,,,,,,,2024-02-06,1,,,,,アップ,0
1671,6360005006983,新規,0,2024-02-06,2024-02-06,一般社団法人グローアップマネジメント,,その他の設立登記法人,沖縄県,那覇市,前島３丁目２５番１号,,47,201,9000016,,,,,,,2024-02-06,1,,,,,グローアップマネジメント,0
1673,6370003006472,新規,0,2024-02-06,2024-02-06,合同会社ユリシス,,合同会社,宮城県,仙台市宮城野区,新田東１丁目３番地の１サンライズハニーＩＩＩ－１０１,00133641,04,102,9830039,,,,,,,2024-02-06,1,,,,,ユリシス,0
1676,6400001016544,新規,0,2024-02-06,2024-02-06,株式会社ＡＫ‐ＴＲＵＳＴ,,株式会社,岩手県,九戸郡軽米町,大字軽米第４地割４７番地１１,,03,501,0286302,,,,,,,2024-02-06,1,,,,,エーケートラスト,0
1682,6430001091023,新規,0,2024-02-06,2024-02-06,北進工業株式会社,,株式会社,北海道,江別市,見晴台１０７番地１１,,01,217,0670042,,,,,,,2024-02-06,1,,,,,ホクシンコウギョウ,0
1687,6450001014221,新規,0,2024-02-06,2024-02-06,株式会社中野,,株式会社,北海道,深川市,一已町字一已５５０２番地,,01,228,0740028,,,,,,,2024-02-06,1,,,,,ナカノ,0
1689,6500001025452,新規,0,2024-02-06,2024-02-06,株式会社ココ・カンパニー,,株式会社,愛媛県,新居浜市,東田１丁目甲１１５７番地の２,,38,205,7920852,,,,,,,2024-02-06,1,,,,,ココカンパニー,0
1691,6500003003183,新規,0,2024-02-06,2024-02-06,合同会社Ｉ総合企画,,合同会社,愛媛県,伊予郡松前町,大字中川原４１３,,38,401,7913164,,,,,,,2024-02-06,1,,,,,アイソウゴウキカク,0
1692,6700150123805,新規,0,2024-02-06,2024-02-05,妙高芸術祭実行委員会,,その他,新潟県,妙高市,栄町５－１,,15,217,9440044,,,,,,,2024-02-05,1,,,,,ミヨウコウゲイジユツサイジツコウイインカイ,0
1693,6700150123838,新規,0,2024-02-06,2024-02-06,Ｓｈｅｎｚｈｅｎｓｈｉ　Ｌｉｘｉａ　Ｄｉａｎｚｉｋｅｊｉ　Ｙｏｕｘｉａｎｇｏｎｇｓｉ,,外国会社等,,,,,,,,ｓｈｅｎｚｈｅｎｓｈｉ　ｌｏｎｇｇａｎｇｑｕ　ｂａｏｌｏｎｇｊｉｅｄａｏ　ｎａｎｙｕｅｓｈｅｑｕ　ｂｏｌｕｏｓｈａｎｇｏｎｇｙｅｑｕ１３ｈａｏＢｄｏｎｇｃｈａｎｇｆａｎｇ１０１,,,,,,2024-02-06,1,,,,,シェンジェンシーリーシャーディエンズーコージーヨウシエンゴンスー,0
1699,7010001242047,新規,0,2024-02-06,2024-02-06,株式会社長勝産業,,株式会社,東京都,文京区,本郷３丁目３１番１５号ＪＮＧ本郷ビル,,13,105,1130033,,,,,,,2024-02-06,1,,,,,ナガカツサンギョウ,0
1700,7010001242063,新規,0,2024-02-06,2024-02-06,株式会社ＴＢＧＡ,,株式会社,東京都,中央区,日本橋箱崎町１８番１１号ＣＯＳＭＯ８－４階,,13,102,1030015,,,,,,,2024-02-06,1,,,,,ティービージーエー,0
1701,7010001242096,新規,0,2024-02-06,2024-02-06,Ｃｈａｒｔｗｅｌｌ　Ｔｅｃｈｎｏｌｏｇｙ株式会社,,株式会社,東京都,文京区,本郷４丁目１番７号５Ｆ,,13,105,1130033,,,,,,,2024-02-06,1,,,,,チャートウェルテクノロジー,0
1702,7010001242105,新規,0,2024-02-06,2024-02-06,シーファイナンス株式会社,,株式会社,東京都,中央区,八重洲１丁目７番１７号八重洲ロータリービル７Ｆ,,13,102,1030028,,,,,,,2024-02-06,1,,,,,シーファイナンス,0
1711,7010401180177,新規,0,2024-02-06,2024-02-06,株式会社Ｇｅｔ　Ｌｉｇｈｔ,,株式会社,東京都,港区,東麻布２丁目３５－１ＫＣビル６Ｆ,,13,103,1060044,,,,,,,2024-02-06,1,,,,,ゲットライト,0
1712,7010401180185,新規,0,2024-02-06,2024-02-06,株式会社ＡＣＣコンサルティング,,株式会社,東京都,港区,港南２丁目１５番１号品川インターシティＡ棟２８階,,13,103,1080075,,,,,,,2024-02-06,1,,,,,エーシーシーコンサルティング,0
1713,7010401180193,新規,0,2024-02-06,2024-02-06,株式会社売れるＤ２Ｃ業界Ｍ＆Ａ社,,株式会社,東京都,港区,台場２丁目３番１号,,13,103,1350091,,,,,,,2024-02-06,1,,,,,ウレルディーツーシーギョウカイエムアンドエーシャ,0
1714,7010401180219,新規,0,2024-02-06,2024-02-06,株式会社シーエイチアイホテル＆リゾート,,株式会社,東京都,港区,元麻布３丁目４番４１号,,13,103,1060046,,,,,,,2024-02-06,1,,,,,シーエイチアイホテルアンドリゾート,0
1715,7010403031873,新規,0,2024-02-06,2024-02-06,合同会社Ｍｉｒａｉ　Ｂｅａｕｔｙ＆Ｈｅａｌｔｈ　Ｃａｒｅ,,合同会社,東京都,港区,虎ノ門５丁目１１番１２号虎ノ門ＡＣＴビル４階,,13,103,1050001,,,,,,,2024-02-06,1,,,,,ミライビューティーアンドヘルスケア,0
1716,7010403031881,新規,0,2024-02-06,2024-02-06,合同会社東北テックベンチャーズ,,合同会社,東京都,港区,六本木１丁目９－１８アークヒルズ仙石山森タワー９０９,,13,103,1060032,,,,,,,2024-02-06,1,,,,,トウホクテックベンチャーズ,0
1717,7010403031923,新規,0,2024-02-06,2024-02-06,ＲａＯｎｅ合同会社,,合同会社,東京都,港区,南青山３丁目１番３６号青山丸竹ビル６Ｆ,,13,103,1070062,,,,,,,2024-02-06,1,,,,,ラワン,0
1718,7010501051732,新規,0,2024-02-06,2024-02-06,株式会社ＴｉｅＺ,,株式会社,東京都,台東区,浅草４丁目１２番６号プティット・アルザス２０２,,13,106,1110032,,,,,,,2024-02-06,1,,,,,タイズ,0
1721,7010601064592,新規,0,2024-02-06,2024-02-06,株式会社Ｇｒａｃｅ　Ｐｒｉｍｅ　Ｌｏｃａｔｉｏｎ,,株式会社,東京都,墨田区,江東橋５丁目１３番１０号,,13,107,1300022,,,,,,,2024-02-06,1,,,,,グレイスプライムロケーション,0
1723,7010603010628,新規,0,2024-02-06,2024-02-06,合同会社ＩＣ,,合同会社,東京都,江東区,有明２丁目１番１－２４１０号,,13,108,1350063,,,,,,,2024-02-06,1,,,,,アイシー,0
1727,7010701045518,新規,0,2024-02-06,2024-02-06,ＡＳＭ株式会社,,株式会社,東京都,品川区,南品川５丁目１０番３９号５階,,13,109,1400004,,,,,,,2024-02-06,1,,,,,エーエスエム,0
1738,7011001159818,新規,0,2024-02-06,2024-02-06,株式会社ＮｅｘＴｅｃｈ総合研究所,,株式会社,東京都,渋谷区,道玄坂１丁目１０番８号渋谷道玄坂東急ビル２Ｆ－Ｃ,,13,113,1500043,,,,,,,2024-02-06,1,,,,,ネクステックソウゴウケンキュウジョ,0
1739,7011001159826,新規,0,2024-02-06,2024-02-06,株式会社ＡＯＩ,,株式会社,東京都,渋谷区,恵比寿３丁目３５番７号ＢＯＲＤＯ・ＥＢＩＳＵ３０３,,13,113,1500013,,,,,,,2024-02-06,1,,,,,アオイ,0
1740,7011001159842,新規,0,2024-02-06,2024-02-06,株式会社Ｔｗｏ　ｄａｙ,,株式会社,東京都,渋谷区,神宮前５丁目４２－１７コーポ青葉１０１,,13,113,1500001,,,,,,,2024-02-06,1,,,,,トゥーデイ,0
1741,7011001159875,新規,0,2024-02-06,2024-02-06,株式会社グッドリーズンコンサルティング,,株式会社,東京都,渋谷区,渋谷２丁目１９－１５宮益坂ビルディング６０９,,13,113,1500002,,,,,,,2024-02-06,1,,,,,グッドリーズンコンサルティング,0
1743,7011005010357,新規,0,2024-02-06,2024-02-06,一般社団法人日本オペア協会,,その他の設立登記法人,東京都,渋谷区,渋谷１丁目２４番７号渋谷宮下パークビル７０１号室,,13,113,1500002,,,,,,,2024-02-06,1,,,,,ニホンオペアキョウカイ,0
1745,7011101106075,新規,0,2024-02-06,2024-02-06,株式会社スナップライズ,,株式会社,東京都,新宿区,新宿２丁目１２番１３号新宿アントレサロンビル２階,,13,104,1600022,,,,,,,2024-02-06,1,,,,,スナップライズ,0
1746,7011101106100,新規,0,2024-02-06,2024-02-06,琴蕭株式会社,,株式会社,東京都,新宿区,山吹町３３７番地５都住創山吹町ビル６０４Ｆ,,13,104,1620801,,,,,,,2024-02-06,1,,,,,キンショウ,0
1755,7011301029373,新規,0,2024-02-06,2024-02-06,株式会社Ｂｒｉｇｈｔ　Ｓｉｄｅ　Ｄｅｓｉｇｎ　Ｓｔｕｄｉｏ,,株式会社,東京都,杉並区,高円寺北３丁目２０番２１号,,13,115,1660002,,,,,,,2024-02-06,1,,,,,ブライトサイドデザインスタジオ,0
1756,7011303005050,新規,0,2024-02-06,2024-02-06,合同会社Ｙ２Ｄ,,合同会社,東京都,杉並区,和泉１丁目２４番１号,,13,115,1680063,,,,,,,2024-02-06,1,,,,,ワイツーディー,0
1757,7011505002606,新規,0,2024-02-06,2024-02-06,一般財団法人日月光華,,その他の設立登記法人,東京都,荒川区,南千住５丁目４３番１３号６０２室,,13,118,1160003,,,,,,,2024-02-06,1,,,,,,0
1759,7011803006052,新規,0,2024-02-06,2024-02-06,合同会社ＳＨＡＢＯＮ,,合同会社,東京都,足立区,青井５丁目４－２１グランシャリオ２０１,,13,121,1210012,,,,,,,2024-02-06,1,,,,,シャボン,0
1761,7012403006401,新規,0,2024-02-06,2024-02-06,合同会社ヴェルテクス,,合同会社,東京都,三鷹市,井口４丁目５番３５－５０３号,,13,204,1810011,,,,,,,2024-02-06,1,,,,,ヴェルテクス,0
1766,7012803003304,新規,0,2024-02-06,2024-02-06,合同会社ＡＲＴ企画,,合同会社,東京都,立川市,錦町２丁目６番９号サットンプレイス・立川２０１号室,,13,202,1900022,,,,,,,2024-02-06,1,,,,,エーアールティーキカク,0
1767,7013101009340,新規,0,2024-02-06,2024-02-06,株式会社クラフトワークス,,株式会社,東京都,西多摩郡瑞穂町,大字石畑２３２番地１８,,13,303,1901211,,,,,,,2024-02-06,1,,,,,クラフトワークス,0
1771,7013301052041,新規,0,2024-02-06,2024-02-06,ＭＯＮ通信株式会社,,株式会社,東京都,豊島区,池袋２丁目２４番２メゾン旭１２０５号,,13,116,1710014,,,,,,,2024-02-06,1,,,,,モンツウシン,0
1776,7020001155644,新規,0,2024-02-06,2024-02-06,株式会社基協,,株式会社,神奈川県,川崎市宮前区,東有馬１丁目２－９,,14,136,2160002,,,,,,,2024-02-06,1,,,,,キキョウ,0
1777,7020001155652,新規,0,2024-02-06,2024-02-06,株式会社ＨＡＶＩＴ　ＡＲＴ　ＳＴＵＤＩＯ,,株式会社,神奈川県,横浜市青葉区,大場町３６８番地２６,,14,117,2250023,,,,,,,2024-02-06,1,,,,,ハビットアートスタジオ,0
1778,7020001155669,新規,0,2024-02-06,2024-02-06,株式会社Ｐｏｕｒ　ｌｅ　ｍｉｅｕｘ,,株式会社,神奈川県,横浜市神奈川区,松見町１丁目３５番地１－７０２号,,14,102,2210005,,,,,,,2024-02-06,1,,,,,プールミュー,0
1785,7021001081376,新規,0,2024-02-06,2024-02-06,株式会社進藤工務店,,株式会社,神奈川県,座間市,ひばりが丘５丁目４９番１９号,,14,216,2520003,,,,,,,2024-02-06,1,,,,,シンドウコウムテン,0
1786,7021001081392,新規,0,2024-02-06,2024-02-06,株式会社山沢電業,,株式会社,神奈川県,大和市,渋谷５丁目１７番地１０ブライトン３Ｆ,,14,213,2420023,,,,,,,2024-02-06,1,,,,,ヤマザワデンギョウ,0
1799,7030001158506,新規,0,2024-02-06,2024-02-06,株式会社チャーフル,,株式会社,埼玉県,新座市,新堀３丁目５番７－３０２号,,11,230,3520032,,,,,,,2024-02-06,1,,,,,チャーフル,0
1800,7030001158530,新規,0,2024-02-06,2024-02-06,株式会社日昇,,株式会社,埼玉県,北葛飾郡松伏町,大字下赤岩８９１番地１,,11,465,3430116,,,,,,,2024-02-06,1,,,,,ニッショウ,0
1807,7040001132063,新規,0,2024-02-06,2024-02-06,株式会社ソル,,株式会社,千葉県,袖ケ浦市,代宿１０６８番地３,,12,229,2990241,,,,,,,2024-02-06,1,,,,,ソル,0
1808,7040001132105,新規,0,2024-02-06,2024-02-06,株式会社永遠,,株式会社,千葉県,八街市,八街ほ５５８－３,,12,230,2891115,,,,,,,2024-02-06,1,,,,,トワ,0
1810,7040003024291,新規,0,2024-02-06,2024-02-06,合同会社Ｔ．Ｂコーポレーション,,合同会社,千葉県,千葉市中央区,院内１丁目２番９号高建ビル１階,00133632,12,101,2600018,,,,,,,2024-02-06,1,,,,,ティービーコーポレーション,0
1811,7040005022277,新規,0,2024-02-06,2024-02-06,一般社団法人東葛南部メディカルアライアンス,,その他の設立登記法人,千葉県,船橋市,本町２丁目１０番１号,,12,204,2730005,,,,,,,2024-02-06,1,,,,,トウカツナンブメディカルアライアンス,0
1812,7050001054224,新規,0,2024-02-06,2024-02-06,株式会社Ｍ＆Ｍ,,株式会社,茨城県,水戸市,泉町３丁目６番３号フリーボックスビル３階,,08,201,3100026,,,,,,,2024-02-06,1,,,,,エムアンドエム,0
1821,7070001041352,新規,0,2024-02-06,2024-02-06,株式会社イーゼロ,,株式会社,群馬県,高崎市,中泉町６０１番地１０Ｔ－ＨＵＢ１０３号室,,10,202,3703524,,,,,,,2024-02-06,1,,,,,イーゼロ,0
1825,7080101024520,新規,0,2024-02-06,2024-02-06,株式会社静東部品工業,,株式会社,静岡県,沼津市,下小路町６３番地、梶コーポ１Ｆ,,22,203,4100868,,,,,,,2024-02-06,1,,,,,セイトウブヒンコウギョウ,0
1831,7090001018530,新規,0,2024-02-06,2024-02-06,株式会社Ｕｎｉｐｌａｃｅ,,株式会社,山梨県,甲府市,住吉５丁目２５番１４号ＩＫビル２０３,,19,201,4000851,,,,,,,2024-02-06,1,,,,,ユニプレイス,0
1833,7100003007389,新規,0,2024-02-06,2024-02-06,合同会社畠山建築,,合同会社,長野県,南佐久郡小海町,大字豊里４１０６番地１,,20,303,3841103,,,,,,,2024-02-06,1,,,,,ハタケヤマケンチク,0
1836,7110001038162,新規,0,2024-02-06,2024-02-06,株式会社フォーピース,,株式会社,新潟県,長岡市,緑町１丁目８６番地２８、２階,,15,202,9402105,,,,,,,2024-02-06,1,,,,,フォーピース,0
1844,7120001261580,新規,0,2024-02-06,2024-02-06,日亜国際医療株式会社,,株式会社,大阪府,大阪市中央区,安土町２丁目２－１５ハウザー堺筋本町駅前ビル５Ｆ,,27,128,5410052,,,,,,,2024-02-06,1,,,,,ニチアコクサイイリョウ,0
1845,7120001261770,新規,0,2024-02-06,2024-02-06,株式会社ワークアソシエ,,株式会社,大阪府,大阪市中央区,石町２丁目５番３号,,27,128,5400033,,,,,,,2024-02-06,1,,,,,ワークアソシエ,0
1846,7120001261960,新規,0,2024-02-06,2024-02-06,株式会社旅籠屋開発,,株式会社,大阪府,大阪市中央区,南船場３丁目２番２２号おおきに南船場ビル２０５,,27,128,5420081,,,,,,,2024-02-06,1,,,,,ハタゴヤカイハツ,0
1847,7120001261969,新規,0,2024-02-06,2024-02-06,株式会社ｅｃｏｆｕｌｌ,,株式会社,大阪府,大阪市淀川区,西中島３丁目８番１４号犬飼ビル５０２,,27,123,5320011,,,,,,,2024-02-06,1,,,,,エコフル,0
1848,7120001261993,新規,0,2024-02-06,2024-02-06,株式会社ＪＹＳ,,株式会社,大阪府,大阪市淀川区,西中島５丁目７番１４号５０４号室,,27,123,5320011,,,,,,,2024-02-06,1,,,,,ジェイワイエス,0
1849,7120001262018,新規,0,2024-02-06,2024-02-06,ファイブ株式会社,,株式会社,大阪府,大阪市住之江区,柴谷２丁目６－２２,,27,125,5590021,,,,,,,2024-02-06,1,,,,,ファイブ,0
1850,7120001262026,新規,0,2024-02-06,2024-02-06,株式会社３‐ＰＬＡＮ,,株式会社,大阪府,大阪市此花区,朝日１丁目９番７号,,27,104,5540011,,,,,,,2024-02-06,1,,,,,スリープラン,0
1851,7120001262117,新規,0,2024-02-06,2024-02-06,株式会社ポラリス,,株式会社,大阪府,大阪市西区,立売堀５丁目６番１５号,,27,106,5500012,,,,,,,2024-02-06,1,,,,,ポラリス,0
1852,7120001262141,新規,0,2024-02-06,2024-02-06,株式会社恵比寿屋,,株式会社,大阪府,大阪市西淀川区,百島１丁目２番７号,,27,113,5550044,,,,,,,2024-02-06,1,,,,,エビスヤ,0
1857,7120003025868,新規,0,2024-02-06,2024-02-06,合同会社大大大,,合同会社,大阪府,大阪市住之江区,住之江３丁目１０番１９号,,27,125,5590004,,,,,,,2024-02-06,1,,,,,ダイサン,0
1859,7120005024133,新規,0,2024-02-06,2024-02-06,一般社団法人近畿不動産鑑定士協会連合会,,その他の設立登記法人,大阪府,大阪市西区,阿波座１丁目６番１号,,27,106,5500011,,,,,,,2024-02-06,1,,,,,キンキフドウサンカンテイシキョウカイ,0
1861,7120105009827,新規,0,2024-02-06,2024-02-06,一般社団法人まち・コラボ,,その他の設立登記法人,大阪府,南河内郡河南町,大字白木３５６－１,,27,382,5850014,,,,,,,2024-02-06,1,,,,,マチコラボ,0
1864,7120901048730,新規,0,2024-02-06,2024-02-06,株式会社武智,,株式会社,大阪府,豊中市,庄内幸町３丁目２２番３８－２０３号,,27,203,5610833,,,,,,,2024-02-06,1,,,,,タケチ,0
1867,7130001076292,新規,0,2024-02-06,2024-02-06,株式会社バイカル,,株式会社,京都府,京都市南区,西九条藤ノ木町２３番地,,26,107,6018421,,,,,,,2024-02-06,1,,,,,バイカル,0
1870,7130003009291,新規,0,2024-02-06,2024-02-06,ミライフ合同会社,,合同会社,京都府,京都市西京区,樫原秤谷町４１番地,,26,111,6158158,,,,,,,2024-02-06,1,,,,,ミライフ,0
1876,7140001133200,新規,0,2024-02-06,2024-02-06,Ｆｕｊｉ　Ｓａｋｕｒａ　Ｔｏｕｒ株式会社,,株式会社,兵庫県,神戸市灘区,原田通１丁目１－１５－１１０７,,28,102,6570837,,,,,,,2024-02-06,1,,,,,フジサクラツアー,0
1877,7140001133209,新規,0,2024-02-06,2024-02-06,ＦｏＧｌａｐ株式会社,,株式会社,兵庫県,伊丹市,荻野１丁目１７５番地２Ｋ’ｓ２番館２０１,,28,207,6640002,,,,,,,2024-02-06,1,,,,,フォグラップ,0
1878,7140001133217,新規,0,2024-02-06,2024-02-06,株式会社Ｗｏｎｄｅｒ　ｗａｌｌ,,株式会社,兵庫県,姫路市,忍町１６４番地スマートハイツ２０１,,28,201,6700917,,,,,,,2024-02-06,1,,,,,ワンダーウォール,0
1879,7140001133233,新規,0,2024-02-06,2024-02-06,ＫＭｅｎｅｒｇｙ株式会社,,株式会社,兵庫県,西宮市,馬場町２番３２号シンヨコビル３階,,28,204,6620915,,,,,,,2024-02-06,1,,,,,ケイエムエナジー,0
1880,7140001133258,新規,0,2024-02-06,2024-02-06,ｐｏｔｅｎｔｉａｌｉｓｍ株式会社,,株式会社,兵庫県,伊丹市,西台３丁目９番２２号,,28,207,6640858,,,,,,,2024-02-06,1,,,,,ポテンシャリズム,0
1885,7140003020074,新規,0,2024-02-06,2024-02-06,合同会社ＣＶＳＥソーラー,,合同会社,兵庫県,神戸市東灘区,住吉宮町３丁目７番１４号,,28,101,6580053,,,,,,,2024-02-06,1,,,,,シーブイエスイーソーラー,0
1886,7140003020140,新規,0,2024-02-06,2024-02-06,ファナ合同会社,,合同会社,兵庫県,神戸市北区,唐櫃台２丁目２４番８－３０４号,,28,109,6511332,,,,,,,2024-02-06,1,,,,,ファナ,0
1887,7150001027062,新規,0,2024-02-06,2024-02-06,株式会社Ｍｏｍｉｊｉ,,株式会社,奈良県,大和郡山市,今国府町１２９番３号,,29,203,6391031,,,,,,,2024-02-06,1,,,,,モミジ,0
1894,7180001160050,新規,0,2024-02-06,2024-02-06,株式会社ＭＩＺＵＫＡｒａ,,株式会社,愛知県,小牧市,小木西３丁目１１２番地１,,23,219,4850057,,,,,,,2024-02-06,1,,,,,ミズカラ,0
1896,7180005020507,新規,0,2024-02-06,2024-02-06,特定非営利活動法人教員副業コーディネーターまちまち,,その他の設立登記法人,愛知県,名古屋市緑区,平子が丘１２１４番地,,23,114,4580826,,,,,,,2024-02-06,1,,,,,キョウインフクギョウコーディネーターマチマチ,0
1898,7180301038293,新規,0,2024-02-06,2024-02-06,株式会社ＳＴＯＮＥ建設,,株式会社,愛知県,豊田市,瑞穂町１丁目９番地１,,23,211,4710863,,,,,,,2024-02-06,1,,,,,ストーンケンセツ,0
1899,7180301038302,新規,0,2024-02-06,2024-02-06,株式会社ＭＡＹ３９,,株式会社,愛知県,西尾市,今川町落２８番地,,23,213,4450063,,,,,,,2024-02-06,1,,,,,メイサンキュー,0
1902,7190001031085,新規,0,2024-02-06,2024-02-06,株式会社わどな,,株式会社,三重県,松阪市,上川町２１９４番地１６,,24,204,5150041,,,,,,,2024-02-06,1,,,,,ワドナ,0
1905,7190003004576,新規,0,2024-02-06,2024-02-06,はまちゃん農園合同会社,,合同会社,三重県,津市,柳山津興２９０番地６,,24,201,5140803,,,,,,,2024-02-06,1,,,,,ハマチャンノウエン,0
1910,7230003002138,新規,0,2024-02-06,2024-02-06,８Ｄ合同会社,,合同会社,富山県,高岡市,福岡町福岡新３８１,,16,202,9390117,,,,,,,2024-02-06,1,,,,,エイトディー,0
1913,7240001062760,新規,0,2024-02-06,2024-02-06,株式会社ＴＫコーポレーション,,株式会社,広島県,広島市中区,吉島西３丁目１６番１－１５０４号,,34,101,7300823,,,,,,,2024-02-06,1,,,,,ティーケーコーポレーション,0
1915,7260001038742,新規,0,2024-02-06,2024-02-06,株式会社ＮＥＮＨＩＬＬ,,株式会社,岡山県,赤磐市,桜が丘西４丁目８－７,,33,213,7090802,,,,,,,2024-02-06,1,,,,,ネンヒル,0
1921,7290001104624,新規,0,2024-02-06,2024-02-06,株式会社ＤｒｅａｍＴｗｏ,,株式会社,福岡県,福岡市中央区,大名１丁目２番６号,,40,133,8100041,,,,,,,2024-02-06,1,,,,,ドリームツー,0
1927,7330001031731,新規,0,2024-02-06,2024-02-06,株式会社ＰＵＲＡ　ＶＩＤＡ,,株式会社,熊本県,阿蘇郡西原村,大字小森６１８番地５８,,43,432,8612402,,,,,,,2024-02-06,1,,,,,プラビダ,0
1934,7350001018776,新規,0,2024-02-06,2024-02-06,日本防災開発株式会社,,株式会社,宮崎県,宮崎市,月見ケ丘７丁目７番１６号,,45,201,8800926,,,,,,,2024-02-06,1,,,,,ニホンボウサイカイハツ,0
1939,7380001034283,新規,0,2024-02-06,2024-02-06,株式会社Ｉ・ＰＲＯＪＥＣＴ,,株式会社,福島県,郡山市,台新１丁目２２番８号メゾンドロイヤル１０３,,07,203,9638852,,,,,,,2024-02-06,1,,,,,アイプロジェクト,0
1945,7420001018579,新規,0,2024-02-06,2024-02-06,株式会社弘前子ども発達支援センター,,株式会社,青森県,弘前市,大字松原西１丁目１４番地２２,,02,202,0368142,,,,,,,2024-02-06,1,,,,,ヒロサキコドモハッタツシエンセンター,0
1953,7450001014220,新規,0,2024-02-06,2024-02-06,株式会社たにぐちＦａｒｍ,,株式会社,北海道,留萌郡小平町,字鬼鹿田代２９９番地の５,,01,482,0783442,,,,,,,2024-02-06,1,,,,,タニグチファーム,0
1954,7470003002576,新規,0,2024-02-06,2024-02-06,合同会社Ｌｉｓ,,合同会社,香川県,高松市,木太町７７６番地３,,37,201,7600080,,,,,,,2024-02-06,1,,,,,エルアイエス,0
1962,7700150121881,新規,0,2024-02-06,2023-11-07,子どもが決める学校　Ｒｅｄｕｃａｔｉｏｎ,,その他,京都府,福知山市,かしの木台５丁目３１－５,,26,201,6200921,,,,,,,2023-11-07,1,,,,,コドモガキメルガツコウレジユケイシヨン,0
1963,7700150123085,新規,0,2024-02-06,2024-02-06,ＦＲＯＮＴＩＥＲ　ＮＯＢＬＥ　ＬＩＭＩＴＥＤ,,外国会社等,,,,,,,,Ｖｉｓｔｒａ　Ｃｏｒｐｏｒａｔｅ　Ｓｅｒｖｉｃｅｓ　Ｃｅｎｔｒｅ，Ｇｒｏｕｎｄ　Ｆｌｏｏｒ　ＮＰＦ　Ｂｕｉｌｄｉｎｇ，Ｂｅａｃｈ　Ｒｏａｄ，Ａｐｌａ，Ｓａｍｏａ,,,,,,2024-02-06,1,,,,,フロンテイアノーブルリミテイド,0
1964,7700150123432,新規,0,2024-02-06,2024-01-19,全国公立学校建築技術協議会,,その他,東京都,新宿区,西新宿２丁目８番１号,,13,104,1600023,,,,,,,2024-01-19,1,,,,,ゼンコクコウリツガツコウケンチクギジユツキヨウギカイ,0
1965,7700150123630,新規,0,2024-02-06,2024-01-25,猪苗代湖・裏磐梯湖沼水環境保全対策推進協議会,,その他,福島県,福島市,杉妻町２番１６号福島県生活環境部水・大気環境課内,,07,201,9608065,,,,,,,2024-01-25,1,,,,,イナワシロコウラバンダイコシヨウミズカンキヨウホゼンタイサクスイシンキヨウギカイ,0
1966,7700150123845,新規,0,2024-02-06,2024-02-06,岸和田市スマートモビリティ実証実験実行委員会,,その他,大阪府,岸和田市,岸城町７番１号,,27,202,5960073,,,,,,,2024-02-06,1,,,,,キシワダシスマートモビリティジッショウジッケンジッコウイインカイ,0
1976,8010001242046,新規,0,2024-02-06,2024-02-06,株式会社Ｅｖｅｒｉｍｐａｃｔ　Ｊａｐａｎ,,株式会社,東京都,千代田区,平河町１丁目６番１５号ＵＳビル８階,,13,101,1020093,,,,,,,2024-02-06,1,,,,,エバーインパクトジャパン,0
1977,8010001242070,新規,0,2024-02-06,2024-02-06,株式会社ｔｋ,,株式会社,東京都,千代田区,神田須田町１丁目２４番地２１加瀬ビル１７３,,13,101,1010041,,,,,,,2024-02-06,1,,,,,ティーケー,0
1978,8010001242079,新規,0,2024-02-06,2024-02-06,株式会社ボアベンチュラ,,株式会社,東京都,中央区,日本橋３丁目２番１４号新槇町ビル別館第一２階,,13,102,1030027,,,,,,,2024-02-06,1,,,,,ボアベンチュラ,0
1979,8010001242087,新規,0,2024-02-06,2024-02-06,株式会社日本ＤＸ人材センター,,株式会社,東京都,千代田区,丸の内１丁目８番２号,,13,101,1000005,,,,,,,2024-02-06,1,,,,,ニホンディーエックスジンザイセンター,0
1980,8010003042849,新規,0,2024-02-06,2024-02-06,合同会社大手門インベストメント,,合同会社,東京都,中央区,日本橋１丁目４番１号日本橋一丁目ビルディング,,13,102,1030027,,,,,,,2024-02-06,1,,,,,オオテモンインベストメント,0
1981,8010003042865,新規,0,2024-02-06,2024-02-06,合同会社ＢＳＰＶ６号,,合同会社,東京都,千代田区,九段南１丁目６番５号九段会館テラス,,13,101,1020074,,,,,,,2024-02-06,1,,,,,ビーエスピーブイロクゴウ,0
1982,8010005037830,新規,0,2024-02-06,2024-02-06,一般財団法人ＵＡＣＪ軽やか財団,,その他の設立登記法人,東京都,千代田区,大手町１丁目７番２号,,13,101,1000004,,,,,,,2024-02-06,1,,,,,ユーエーシージェーカロヤカザイダン,0
1988,8010401180176,新規,0,2024-02-06,2024-02-06,株式会社オーブ,,株式会社,東京都,港区,西麻布１丁目１－１,,13,103,1060031,,,,,,,2024-02-06,1,,,,,オーブ,0
1989,8010401180201,新規,0,2024-02-06,2024-02-06,株式会社ＥｘａＭＤ,,株式会社,東京都,港区,芝浦４丁目２番８号,,13,103,1080023,,,,,,,2024-02-06,1,,,,,エクサエムディ,0
1993,8010403031889,新規,0,2024-02-06,2024-02-06,エヌテック合同会社,,合同会社,東京都,港区,赤坂４丁目８番１９号赤坂フロントタウン３階,,13,103,1070052,,,,,,,2024-02-06,1,,,,,エヌテック,0
1994,8010403031922,新規,0,2024-02-06,2024-02-06,ＨＯＴＥＬＡ　Ｎｉｓｅｋｏ合同会社,,合同会社,東京都,港区,浜松町２丁目２番１５号浜松町ダイヤビル２Ｆ,,13,103,1050013,,,,,,,2024-02-06,1,,,,,ホテラニセコ,0
1996,8010405022911,新規,0,2024-02-06,2024-02-06,ベルシティ税理士法人,,その他の設立登記法人,東京都,港区,港南４丁目６番７－３８０６号,,13,103,1080075,,,,,,,2024-02-06,1,,,,,ベルシティ,0
1997,8010405022928,新規,0,2024-02-06,2024-02-06,一般社団法人世界リフレクソロジー普及協会,,その他の設立登記法人,東京都,港区,南青山２丁目２－１５－９４２,,13,103,1070062,,,,,,,2024-02-06,1,,,,,セカイリフレクソロジーフキュウキョウカイ,0
2007,8010603010627,新規,0,2024-02-06,2024-02-06,エース合同会社,,合同会社,東京都,江東区,潮見１丁目２９番２２－９０６号,,13,108,1350052,,,,,,,2024-02-06,1,,,,,エース,0
2008,8010703007044,新規,0,2024-02-06,2024-02-06,ＫＯ　Ｃｏｎｓｕｌｔｉｎｇ合同会社,,合同会社,東京都,品川区,東品川３丁目８番８－１４０９号,,13,109,1400002,,,,,,,2024-02-06,1,,,,,ケーオーコンサルティング,0
2020,8011001159651,新規,0,2024-02-06,2024-02-06,株式会社ｆｉｎｅｄａｙ,,株式会社,東京都,目黒区,下目黒１丁目１番１４号コノトラビル７Ｆ,,13,110,1530064,,,,,,,2024-02-06,1,,,,,ファインデイ,0
2021,8011001159817,新規,0,2024-02-06,2024-02-06,ＳＡＭＥ　ＷＡＹ　ＪＰ株式会社,,株式会社,東京都,渋谷区,本町５丁目１６番４号,,13,113,1510071,,,,,,,2024-02-06,1,,,,,サムウェイジェイピー,0
2022,8011001159825,新規,0,2024-02-06,2024-02-06,株式会社ＣＨＩＣＡＧＯ,,株式会社,東京都,渋谷区,恵比寿１丁目２３番２１号ヤマトハイツ２０１号室,,13,113,1500013,,,,,,,2024-02-06,1,,,,,シカゴ,0
2023,8011001159833,新規,0,2024-02-06,2024-02-06,株式会社Ｍｉｌｌｉｏｎ　Ｃｒａｃｋｅｒ,,株式会社,東京都,目黒区,自由が丘２丁目１６番１２号ＲＪ３,,13,110,1520035,,,,,,,2024-02-06,1,,,,,ミリオンクラッカー,0
2024,8011001159841,新規,0,2024-02-06,2024-02-06,亨商事株式会社,,株式会社,東京都,渋谷区,本町５丁目４０番６号西沢コーポ２階,,13,113,1510071,,,,,,,2024-02-06,1,,,,,トオルショウジ,0
2025,8011003018293,新規,0,2024-02-06,2024-02-06,クロスワイズ合同会社,,合同会社,東京都,渋谷区,恵比寿西２丁目４－８ウィンド恵比寿ビル８Ｆ,,13,113,1500021,,,,,,,2024-02-06,1,,,,,クロスワイズ,0
2026,8011003018434,新規,0,2024-02-06,2024-02-06,合同会社美亜実,,合同会社,東京都,渋谷区,道玄坂１丁目１０番８号渋谷道玄坂東急ビル２Ｆ－Ｃ,,13,113,1500043,,,,,,,2024-02-06,1,,,,,ミアミ,0
2027,8011003018450,新規,0,2024-02-06,2024-02-06,合同会社インフォシンクス,,合同会社,東京都,渋谷区,恵比寿西２丁目４番８号ウィンド恵比寿ビル８Ｆ,,13,113,1500021,,,,,,,2024-02-06,1,,,,,インフォシンクス,0
2031,8011103014069,新規,0,2024-02-06,2024-02-06,合同会社７１１企画,,合同会社,東京都,新宿区,西新宿７丁目１１番１８号,,13,104,1600023,,,,,,,2024-02-06,1,,,,,ナナイチイチキカク,0
2041,8011501030304,新規,0,2024-02-06,2024-02-06,日本バリフテック株式会社,,株式会社,東京都,北区,浮間１丁目７－２３兆豊浮間ビル５０３号室,,13,117,1150051,,,,,,,2024-02-06,1,,,,,ニホンバリフテック,0
2044,8011801043749,新規,0,2024-02-06,2024-02-06,株式会社介ガラス,,株式会社,東京都,葛飾区,柴又４丁目２５番９号,,13,122,1250052,,,,,,,2024-02-06,1,,,,,カイガラス,0
2055,8020001155643,新規,0,2024-02-06,2024-02-06,株式会社ゼルコヴァマネジメント,,株式会社,神奈川県,横浜市港北区,錦が丘２１番８号２Ｆ,,14,109,2220013,,,,,,,2024-02-06,1,,,,,ゼルコヴァマネジメント,0
2056,8020001155668,新規,0,2024-02-06,2024-02-06,株式会社ＢＵＲＤＥＮ,,株式会社,神奈川県,横浜市港北区,新羽町１８０番地１,,14,109,2230057,,,,,,,2024-02-06,1,,,,,バーデン,0
2057,8020001155676,新規,0,2024-02-06,2024-02-06,株式会社Ｍａｔｓｕｅ　Ｊａｐａｎ,,株式会社,神奈川県,横浜市港南区,下永谷５丁目３６番３０号,,14,111,2330016,,,,,,,2024-02-06,1,,,,,マツエジャパン,0
2061,8020003025489,新規,0,2024-02-06,2024-02-06,Ｗａｔｅｒｍａｒｋ　Ｃｏｎｓｕｌｔｉｎｇ合同会社,,合同会社,神奈川県,横浜市港北区,篠原西町１５番４５号,,14,109,2220025,,,,,,,2024-02-06,1,,,,,ウォーターマークコンサルティング,0
2069,8021001081367,新規,0,2024-02-06,2024-02-06,株式会社ＯＮＫＥＩコンサルティング,,株式会社,神奈川県,小田原市,酒匂２丁目２８番４２号,,14,206,2560816,,,,,,,2024-02-06,1,,,,,オンケイコンサルティング,0
2070,8021001081391,新規,0,2024-02-06,2024-02-06,Ｇｏｏｄ　Ｌｉｆｅ株式会社,,株式会社,神奈川県,鎌倉市,材木座６丁目１１番１４号,,14,204,2480013,,,,,,,2024-02-06,1,,,,,グッドライフ,0
2071,8021001081400,新規,0,2024-02-06,2024-02-06,株式会社湘南エージェント,,株式会社,神奈川県,平塚市,土屋５７７番地の１,,14,203,2591205,,,,,,,2024-02-06,1,,,,,ショウナンエージェント,0
2076,8021003014119,新規,0,2024-02-06,2024-02-06,Ｆａｒｍ　Ｏｐｅｒａｔｉｏｎｓ　ａｎｄ　Ｆａｒｍ　Ｅｑｕｉｐｍｅｎｔ合同会社,,合同会社,神奈川県,横須賀市,太田和２丁目１２番１３号,,14,201,2380311,,,,,,,2024-02-06,1,,,,,ファームオペレーションズアンドファームイクイップメント,0
2081,8030001158521,新規,0,2024-02-06,2024-02-06,株式会社りんりん舎,,株式会社,埼玉県,さいたま市見沼区,大字御蔵１４０１番地５９,,11,104,3370033,,,,,,,2024-02-06,1,,,,,リンリンシャ,0
2082,8030001158538,新規,0,2024-02-06,2024-02-06,株式会社バーディー興業,,株式会社,埼玉県,比企郡吉見町,大字長谷１５６７番地４１,,11,347,3550156,,,,,,,2024-02-06,1,,,,,バーディーコウギョウ,0
2084,8030003023574,新規,0,2024-02-06,2024-02-06,合同会社ＩＢＵＫＩ，ｉｎｃ．,,合同会社,埼玉県,飯能市,大字原市場８０－１,,11,209,3570124,,,,,,,2024-02-06,1,,,,,イブキ,0
2090,8040001132079,新規,0,2024-02-06,2024-02-06,アサヒテック株式会社,,株式会社,千葉県,船橋市,海神２丁目２３番３５－１１０号,,12,204,2730021,,,,,,,2024-02-06,1,,,,,アサヒテック,0
2091,8040001132087,新規,0,2024-02-06,2024-02-06,株式会社Ｆｉｎｄ　Ｆｕｔｕｒｅ,,株式会社,千葉県,成田市,三里塚２５３番地２１,,12,211,2860111,,,,,,,2024-02-06,1,,,,,ファインドフューチャー,0
2092,8040001132120,新規,0,2024-02-06,2024-02-06,株式会社テクノロジカルネットワーク,,株式会社,千葉県,長生郡白子町,中里６５７－１,,12,424,2994215,,,,,,,2024-02-06,1,,,,,テクノロジカルネットワーク,0
2096,8040003024274,新規,0,2024-02-06,2024-02-06,合同会社サンライズ,,合同会社,千葉県,浦安市,明海５丁目６番１７－１４０３号,,12,227,2790014,,,,,,,2024-02-06,1,,,,,サンライズ,0
2097,8040003024282,新規,0,2024-02-06,2024-02-06,合同会社ＳＧ,,合同会社,千葉県,柏市,光ケ丘４丁目１８番３１,,12,217,2770065,,,,,,,2024-02-06,1,,,,,エスジー,0
2098,8040003024290,新規,0,2024-02-06,2024-02-06,合同会社ＭＯＪ,,合同会社,千葉県,市原市,青葉台２丁目５番地メゾン青葉台８号棟３０２号,,12,219,2990117,,,,,,,2024-02-06,1,,,,,エムオージェイ,0
2099,8040005022276,新規,0,2024-02-06,2024-02-06,ＪＭパートナーズ協同組合,,その他の設立登記法人,千葉県,千葉市美浜区,中瀬１丁目３番地幕張テクノガーデンＣＢ棟３階ＭＢＰ,,12,106,2610023,,,,,,,2024-02-06,1,,,,,ジェイエムパートナーズ,0
2103,8060001036798,新規,0,2024-02-06,2024-02-06,株式会社ｔｈｘ,,株式会社,栃木県,宇都宮市,大曽５丁目２番１号,,09,201,3200014,,,,,,,2024-02-06,1,,,,,サンクス,0
2104,8060001036807,新規,0,2024-02-06,2024-02-06,株式会社ＭＯＮＥ,,株式会社,栃木県,小山市,大字粟宮１４８７番地,,09,208,3290201,,,,,,,2024-02-06,1,,,,,モネ,0
2106,8060003004893,新規,0,2024-02-06,2024-02-06,ＮＫ合同会社,,合同会社,栃木県,栃木市,大平町富田９７５－１、大平ハイツＡ１０１,,09,203,3294404,,,,,,,2024-02-06,1,,,,,エヌケー,0
2108,8070003005263,新規,0,2024-02-06,2024-02-06,合同会社菊花堂,,合同会社,群馬県,伊勢崎市,田部井町１丁目９８３番地１２,,10,204,3792222,,,,,,,2024-02-06,1,,,,,キッカドウ,0
2110,8080001026120,新規,0,2024-02-06,2024-02-06,ローグエックス株式会社,,株式会社,静岡県,静岡市葵区,古庄２丁目１番８８号,,22,101,4200812,,,,,,,2024-02-06,1,,,,,ローグエックス,0
2115,8100001037189,新規,0,2024-02-06,2024-02-06,株式会社セカンドアクセス,,株式会社,長野県,北佐久郡軽井沢町,大字発地１２４９番地６４,,20,321,3890113,,,,,,,2024-02-06,1,,,,,セカンドアクセス,0
2117,8100003007388,新規,0,2024-02-06,2024-02-06,合同会社ふひと,,合同会社,長野県,伊那市,境１９９６番地２ＦＫハイム２０３,,20,209,3960010,,,,,,,2024-02-06,1,,,,,フヒト,0
2120,8110001038161,新規,0,2024-02-06,2024-02-06,株式会社アイランドヒルズ,,株式会社,新潟県,新潟市中央区,関屋金衛町２丁目９５番地８,,15,103,9518167,,,,,,,2024-02-06,1,,,,,アイランドヒルズ,0
2127,8120001261877,新規,0,2024-02-06,2024-02-06,晨東株式会社,,株式会社,大阪府,大阪市東成区,東小橋３丁目１３番８号,,27,115,5370024,,,,,,,2024-02-06,1,,,,,シントウ,0
2128,8120001262017,新規,0,2024-02-06,2024-02-06,株式会社ＴＧＴ,,株式会社,大阪府,枚方市,藤阪北町１６－２,,27,210,5730151,,,,,,,2024-02-06,1,,,,,ティージーティー,0
2129,8120001262033,新規,0,2024-02-06,2024-02-06,Ｏ‐ＴＥＣ株式会社,,株式会社,大阪府,寝屋川市,萱島南町１０番２０号,,27,215,5720825,,,,,,,2024-02-06,1,,,,,オーテック,0
2131,8120003025883,新規,0,2024-02-06,2024-02-06,合同会社Ｍコンサルティング,,合同会社,大阪府,寝屋川市,寿町２１番４号,,27,215,5720029,,,,,,,2024-02-06,1,,,,,エムコンサルティング,0
2134,8120101068999,新規,0,2024-02-06,2024-02-06,株式会社鳳美装,,株式会社,大阪府,堺市西区,鳳西町３丁６４７－１－１０３,,27,144,5938326,,,,,,,2024-02-06,1,,,,,オオトリビソウ,0
2146,8140001133190,新規,0,2024-02-06,2024-02-06,株式会社ＮＫソリューション,,株式会社,兵庫県,姫路市,福中町３７番地,,28,201,6700017,,,,,,,2024-02-06,1,,,,,エヌケーソリューション,0
2147,8140001133216,新規,0,2024-02-06,2024-02-06,株式会社Ｇ・Ｕ・Ｂ,,株式会社,兵庫県,伊丹市,広畑２丁目４６－１ルミエール広畑３０１号,,28,207,6640014,,,,,,,2024-02-06,1,,,,,ジーユービー,0
2148,8140001133232,新規,0,2024-02-06,2024-02-06,株式会社神戸近江屋不動産,,株式会社,兵庫県,神戸市西区,井吹台東町３丁目１－６６,,28,111,6512242,,,,,,,2024-02-06,1,,,,,コウベオウミヤフドウサン,0
2164,8180001160041,新規,0,2024-02-06,2024-02-06,株式会社朱希,,株式会社,愛知県,西春日井郡豊山町,大字豊場字大山１２３番地,,23,342,4800202,,,,,,,2024-02-06,1,,,,,アカギ,0
2165,8180001160074,新規,0,2024-02-06,2024-02-06,Ｔｏｄａｙ　Ｊａｐａｎ株式会社,,株式会社,愛知県,名古屋市中村区,名駅南２丁目７番８号３５０５,,23,105,4500003,,,,,,,2024-02-06,1,,,,,トゥデイジャパン,0
2174,8190003004575,新規,0,2024-02-06,2024-02-06,合同会社トニー,,合同会社,三重県,松阪市,町平尾町５５５,,24,204,5150803,,,,,,,2024-02-06,1,,,,,トニー,0
2192,8260005011315,新規,0,2024-02-06,2024-02-06,一般社団法人くらしサポート,,その他の設立登記法人,岡山県,勝田郡奈義町,滝本１５６４番地４,,33,623,7081325,,,,,,,2024-02-06,1,,,,,クラシサポート,0
2193,8280003001811,新規,0,2024-02-06,2024-02-06,合同会社ＭＳトレーディング,,合同会社,島根県,出雲市,浜町２１８２－１９,,32,203,6930054,,,,,,,2024-02-06,1,,,,,エムエストレーディング,0
2204,8290801030291,新規,0,2024-02-06,2024-02-06,株式会社Ｒｅｖｅｌｉｚｅ,,株式会社,福岡県,北九州市小倉北区,片野新町２丁目１番２０－２０２号,,40,106,8020062,,,,,,,2024-02-06,1,,,,,リブライズ,0
2206,8300001013616,新規,0,2024-02-06,2024-02-06,株式会社光祐電気,,株式会社,佐賀県,多久市,北多久町大字多久原７０２５番地６５,,41,204,8460003,,,,,,,2024-02-06,1,,,,,コウユウデンキ,0
2207,8310001018845,新規,0,2024-02-06,2024-02-06,ＮＩＣ九州株式会社,,株式会社,長崎県,諫早市,貝津町１１５０番地,,42,204,8540063,,,,,,,2024-02-06,1,,,,,エヌアイシーキュウシュウ,0
2212,8320001020271,新規,0,2024-02-06,2024-02-06,株式会社ｐ．ｃ．ｇ　ｆａｃｔｏｒｙ,,株式会社,大分県,大分市,大字南９４番地アンビシャス高田Ｉ１０２,00133635,44,201,8700117,,,,,,,2024-02-06,1,,,,,ピーシージーファクトリー,0
2213,8330001031722,新規,0,2024-02-06,2024-02-06,Ｃａｒｓメンテナンスサービス株式会社,,株式会社,熊本県,宇城市,三角町手場２００９－１,,43,213,8693212,,,,,,,2024-02-06,1,,,,,カーズメンテナンスサービス,0
2214,8330001031730,新規,0,2024-02-06,2024-02-06,株式会社ＭＲＣ,,株式会社,熊本県,熊本市南区,御幸笛田５丁目１２番５７号,,43,104,8614172,,,,,,,2024-02-06,1,,,,,エムアールシー,0
2216,8330003010195,新規,0,2024-02-06,2024-02-06,ＩＮＤＩＶＩＤＵＡＬＩＴＹ　ＣＯＮＳＵＬＴＩＮＧ合同会社,,合同会社,熊本県,合志市,須屋１６２４番地６,,43,216,8611102,,,,,,,2024-02-06,1,,,,,インディヴィジュアリティコンサルティング,0
2217,8340001026259,新規,0,2024-02-06,2024-02-06,株式会社スマイル,,株式会社,鹿児島県,鹿児島市,南新町２６番１０－４号,,46,201,8900085,,,,,,,2024-02-06,1,,,,,スマイル,0
2221,8350003004559,新規,0,2024-02-06,2024-02-06,合同会社ＴＯＤＡＹ,,合同会社,宮崎県,延岡市,昭和町２丁目２２４５番地２,,45,203,8820034,,,,,,,2024-02-06,1,,,,,トゥデイ,0
2228,8370001050900,新規,0,2024-02-06,2024-02-06,株式会社眞壁建業,,株式会社,宮城県,仙台市宮城野区,幸町５丁目４番１－３０３号,,04,102,9830836,,,,,,,2024-02-06,1,,,,,マカベケンギョウ,0
2237,8380001034290,新規,0,2024-02-06,2024-02-06,株式会社アールエスプロジェクト,,株式会社,福島県,福島市,大森字赤沢９５番地の８,,07,201,9601101,,,,,,,2024-02-06,1,,,,,アールエスプロジェクト,0
2245,8420001018586,新規,0,2024-02-06,2024-02-06,株式会社アオラボガーデン,,株式会社,青森県,青森市,大字大野字玉島３０番地８,,02,201,0300852,,,,,,,2024-02-06,1,,,,,アオラボガーデン,0
2250,8430001091021,新規,0,2024-02-06,2024-02-06,株式会社エムエス・クリエイト,,株式会社,北海道,江別市,萌えぎ野西２番地１２,,01,217,0670059,,,,,,,2024-02-06,1,,,,,エムエスクリエイト,0
2251,8430003015936,新規,0,2024-02-06,2024-02-06,合同会社Ｓ．Ａ．Ｍ,,合同会社,北海道,札幌市南区,藤野二条７丁目４－３,,01,106,0612282,,,,,,,2024-02-06,1,,,,,エスエーエム,0
2255,8460301005198,新規,0,2024-02-06,2024-02-06,グレイントレード株式会社,,株式会社,北海道,斜里郡斜里町,字以久科北１６１番地,,01,545,0994126,,,,,,,2024-02-06,1,,,,,グレイントレード,0
2257,8470003002575,新規,0,2024-02-06,2024-02-06,合同会社Ｙｕｒａ,,合同会社,香川県,高松市,由良町４４７番地１３,,37,201,7610441,,,,,,,2024-02-06,1,,,,,ユラ,0
2261,8700150123844,新規,0,2024-02-06,2024-02-06,ＱＵＡＮＺＨＯＵ　ＡＩＹＵＡＮＹＩ　ＴＲＡＤＩＮＧ　ＣＯ．，ＬＴＤ,,外国会社等,,,,,,,,ｆｕｊｉａｎｓｈｅｎｇｑｕａｎｚｈｏｕｓｈｉｌｉｃｈｅｎｇｑｕｋａｉｙｕａｎｊｉｅｄａｏｘｉｈｕｓｈｅｑｕｑｉｘｉｎｇｊｉｅ７４ｈａｏ５ｚｈｕａｎｇ２０６ｓｈｉ,,,,,,2024-02-06,1,,,,,チュエンジョウアイユエンイーシャンマオヨウシエンゾーレンゴンスー,0
2263,9010001241914,新規,0,2024-02-06,2024-02-06,株式会社Ｈｅｒｉｘ,,株式会社,東京都,中央区,日本橋室町１丁目１１番１２号日本橋水野ビル７階,,13,102,1030022,,,,,,,2024-02-06,1,,,,,ヘリックス,0
2264,9010001241988,新規,0,2024-02-06,2024-02-06,株式会社ＳＴＩＣＫＹ,,株式会社,東京都,中央区,銀座６丁目１０番１号,,13,102,1040061,,,,,,,2024-02-06,1,,,,,スティッキー,0
2265,9010001242053,新規,0,2024-02-06,2024-02-06,株式会社アーキタイプ,,株式会社,東京都,中央区,日本橋室町１丁目１１番１２号日本橋水野ビル７階,,13,102,1030022,,,,,,,2024-02-06,1,,,,,アーキタイプ,0
2266,9010001242061,新規,0,2024-02-06,2024-02-06,青天株式会社,,株式会社,東京都,文京区,本郷４丁目２４－８－４階,,13,105,1130033,,,,,,,2024-02-06,1,,,,,アオテン,0
2267,9010001242103,新規,0,2024-02-06,2024-02-06,株式会社ディンス東京,,株式会社,東京都,文京区,春日２丁目１９番１５号,,13,105,1120003,,,,,,,2024-02-06,1,,,,,ディンストウキョウ,0
2270,9010003042831,新規,0,2024-02-06,2024-02-06,合同会社Ｅａｓｔａｎｄａｒｔ,,合同会社,東京都,中央区,銀座１丁目１２番４号Ｎ＆ＥＢＬＤ．７階,,13,102,1040061,,,,,,,2024-02-06,1,,,,,イースタンダート,0
2271,9010003042856,新規,0,2024-02-06,2024-02-06,合同会社ビネシス,,合同会社,東京都,中央区,銀座１丁目２２番１１号銀座大竹ビジデンス２Ｆ,,13,102,1040061,,,,,,,2024-02-06,1,,,,,ビネシス,0
2272,9010003042864,新規,0,2024-02-06,2024-02-06,合同会社ＢＳＰＶ５号,,合同会社,東京都,千代田区,九段南１丁目６番５号九段会館テラス,,13,101,1020074,,,,,,,2024-02-06,1,,,,,ビーエスピーブイゴゴウ,0
2273,9010005037846,新規,0,2024-02-06,2024-02-06,一般社団法人士業協業推進協議会,,その他の設立登記法人,東京都,千代田区,紀尾井町３番２９号,,13,101,1020094,,,,,,,2024-02-06,1,,,,,シギョウキョウギョウスイシンキョウギカイ,0
2276,9010401180183,新規,0,2024-02-06,2024-02-06,積水ハウスイノベーション＆コミュニケーション株式会社,,株式会社,東京都,港区,赤坂４丁目１５番１号,,13,103,1070052,,,,,,,2024-02-06,1,,,,,セキスイハウスイノベーションアンドコミュニケーション,0
2277,9010401180191,新規,0,2024-02-06,2024-02-06,株式会社売れる越境ＥＣ社,,株式会社,東京都,港区,台場２丁目３番１号,,13,103,1350091,,,,,,,2024-02-06,1,,,,,ウレルエッキョウイーシーシャ,0
2278,9010401180200,新規,0,2024-02-06,2024-02-06,株式会社リアルバリュー,,株式会社,東京都,港区,六本木７丁目１８番１８号住友不動産六本木通ビル,,13,103,1060032,,,,,,,2024-02-06,1,,,,,リアルバリュー,0
2279,9010401180217,新規,0,2024-02-06,2024-02-06,金典株式会社,,株式会社,東京都,港区,浜松町２丁目１１番１６号ユーワビル４階,,13,103,1050013,,,,,,,2024-02-06,1,,,,,キンテン,0
2280,9010403031888,新規,0,2024-02-06,2024-02-06,合同会社マシーナ,,合同会社,東京都,港区,芝浦４丁目２２番１号芝浦アイランドエアタワー１６１６号,,13,103,1080023,,,,,,,2024-02-06,1,,,,,マシーナ,0
2281,9010403031905,新規,0,2024-02-06,2024-02-06,合同会社ＨＡＲＺＬＹ,,合同会社,東京都,港区,麻布十番２丁目１９番４号ラニビル１階,,13,103,1060045,,,,,,,2024-02-06,1,,,,,ハーズリー,0
2282,9010403031921,新規,0,2024-02-06,2024-02-06,合同会社ＧＮＫＴ,,合同会社,東京都,港区,赤坂５丁目４番１４号,,13,103,1070052,,,,,,,2024-02-06,1,,,,,ジーエヌケーティー,0
2286,9010405022910,新規,0,2024-02-06,2024-02-06,ＭＥＥＲ一般社団法人,,その他の設立登記法人,東京都,港区,南麻布３丁目１１番１２－３０１号,,13,103,1060047,,,,,,,2024-02-06,1,,,,,ミーア,0
2290,9010503007334,新規,0,2024-02-06,2024-02-06,ＦｉｅｌｄＶａｌｌｅｙ合同会社,,合同会社,東京都,台東区,蔵前３丁目２０―１,,13,106,1110051,,,,,,,2024-02-06,1,,,,,フィールドバレー,0
2299,9010801034749,新規,0,2024-02-06,2024-02-06,株式会社ファイバーキャストホールディングス,,株式会社,東京都,大田区,中馬込３丁目５番１９－３０３号,,13,111,1430027,,,,,,,2024-02-06,1,,,,,ファイバーキャストホールディングス,0
2308,9010903008799,新規,0,2024-02-06,2024-02-06,合同会社ＨＯＬＩＤＡＹ,,合同会社,東京都,世田谷区,上馬２丁目２８番１号ルードルフィア上馬１０１,,13,112,1540011,,,,,,,2024-02-06,1,,,,,ホリデー,0
2313,9011001159808,新規,0,2024-02-06,2024-02-06,ドローンストリームテクノロジー株式会社,,株式会社,東京都,渋谷区,神宮前１丁目１７番１号,,13,113,1500001,,,,,,,2024-02-06,1,,,,,ドローンストリームテクノロジー,0
2314,9011001159816,新規,0,2024-02-06,2024-02-06,株式会社スポーツ留学,,株式会社,東京都,渋谷区,南平台町１９番１７号南平台スクエアＣ棟,,13,113,1500036,,,,,,,2024-02-06,1,,,,,スポーツリュウガク,0
2315,9011001159832,新規,0,2024-02-06,2024-02-06,株式会社ＴＨＥ４２９８,,株式会社,東京都,渋谷区,恵比寿西１丁目３３番３５号,,13,113,1500021,,,,,,,2024-02-06,1,,,,,ザヨンニイキュウハチ,0
2316,9011001159840,新規,0,2024-02-06,2024-02-06,株式会社サンシキ,,株式会社,東京都,渋谷区,恵比寿西２丁目４番８号ウィンド恵比寿ビル８Ｆ,,13,113,1500021,,,,,,,2024-02-06,1,,,,,サンシキ,0
2317,9011001159857,新規,0,2024-02-06,2024-02-06,株式会社エンカウント,,株式会社,東京都,目黒区,駒場１丁目１番１６－４０３号,,13,110,1530041,,,,,,,2024-02-06,1,,,,,エンカウント,0
2318,9011003018433,新規,0,2024-02-06,2024-02-06,Ｙ＆Ｙ　ＣＯＭＰＡＮＹ合同会社,,合同会社,東京都,渋谷区,恵比寿西２丁目８番４号ＥＸ恵比寿西ビル５階,,13,113,1500021,,,,,,,2024-02-06,1,,,,,ワイアンドワイカンパニー,0
2319,9011003018441,新規,0,2024-02-06,2024-02-06,ＦｏｒｃｅＴｅｃｈ合同会社,,合同会社,東京都,渋谷区,道玄坂１丁目１０－８渋谷道玄坂東急ビル２Ｆ－Ｃ,,13,113,1500043,,,,,,,2024-02-06,1,,,,,フォーステック,0
2326,9011101106073,新規,0,2024-02-06,2024-02-06,ロッテメディパレット株式会社,,株式会社,東京都,新宿区,西新宿３丁目２０番１号,,13,104,1600023,,,,,,,2024-02-06,1,,,,,ロッテメディパレット,0
2328,9011103014068,新規,0,2024-02-06,2024-02-06,合同会社ＵＮＩＯＮ,,合同会社,東京都,新宿区,中落合３丁目５番１号１０５,,13,104,1610032,,,,,,,2024-02-06,1,,,,,ユニオン,0
2331,9011401025782,新規,0,2024-02-06,2024-02-06,ＩＤＢＴグローバルコンサルティング株式会社,,株式会社,東京都,板橋区,板橋２丁目６３－４グローリア初穂板橋５０１ＥａｓｙＯｆｆｉｃｅ,,13,119,1730004,,,,,,,2024-02-06,1,,,,,アイディービーティーグローバルコンサルティング,0
2332,9011401025840,新規,0,2024-02-06,2024-02-06,Ｇｏｏｆｙ株式会社,,株式会社,東京都,板橋区,西台１丁目４０番１９号,,13,119,1740045,,,,,,,2024-02-06,1,,,,,グーフィー,0
2333,9011401025849,新規,0,2024-02-06,2024-02-06,株式会社鮨まつ本,,株式会社,東京都,板橋区,板橋１丁目４９番１４号,,13,119,1730004,,,,,,,2024-02-06,1,,,,,スシマツモト,0
2334,9011403004264,新規,0,2024-02-06,2024-02-06,合同会社岩佐コーポレーション,,合同会社,東京都,板橋区,成増２丁目６番５号タウンコート細田１０３,,13,119,1750094,,,,,,,2024-02-06,1,,,,,イワサコーポレーション,0
2337,9011701026992,新規,0,2024-02-06,2024-02-06,株式会社テックライト,,株式会社,東京都,江戸川区,南小岩３丁目２３番８－３０５号,,13,123,1330056,,,,,,,2024-02-06,1,,,,,テックライト,0
2338,9011701027000,新規,0,2024-02-06,2024-02-06,Ｓｐｏｃｋｆｏｒｄ　Ｐｒｏｐｅｒｔｙ株式会社,,株式会社,東京都,江戸川区,江戸川６丁目４０番１４－１０１号,,13,123,1340013,,,,,,,2024-02-06,1,,,,,スポックフォードプロパティ,0
2339,9011701027009,新規,0,2024-02-06,2024-02-06,Ｄｉｇｉｔａｌ　Ｃａｔ株式会社,,株式会社,東京都,江戸川区,西葛西７丁目４番１４号,,13,123,1340088,,,,,,,2024-02-06,1,,,,,デジタルキャット,0
2341,9012401041489,新規,0,2024-02-06,2024-02-06,ＳＴＣ株式会社,,株式会社,東京都,三鷹市,上連雀３丁目５番１２号,,13,204,1810012,,,,,,,2024-02-06,1,,,,,エスティーシー,0
2343,9013101009339,新規,0,2024-02-06,2024-02-06,株式会社トラフズク,,株式会社,東京都,西多摩郡瑞穂町,大字高根２４８番地１－３,,13,303,1901203,,,,,,,2024-02-06,1,,,,,トラフズク,0
2345,9013303006992,新規,0,2024-02-06,2024-02-06,Ｌ＆Ｙ合同会社,,合同会社,東京都,豊島区,西池袋２丁目３１－１２－１０３,,13,116,1710021,,,,,,,2024-02-06,1,,,,,エルアンドワイ,0
2349,9020001155642,新規,0,2024-02-06,2024-02-06,株式会社Ｔｈｒｅｅ　Ｔｅａ　Ｃａｐｉｔａｌ,,株式会社,神奈川県,横浜市中区,太田町６丁目７９番アブソルート横濱馬車道ビル５０２税理士法人Ｌｉｓ内,,14,104,2310011,,,,,,,2024-02-06,1,,,,,スリーティーキャピタル,0
2357,9021001081382,新規,0,2024-02-06,2024-02-06,株式会社デイ・ビイ・エス,,株式会社,神奈川県,小田原市,飯泉６０９番地の８,,14,206,2500863,,,,,,,2024-02-06,1,,,,,デイビイエス,0
2372,9040001132020,新規,0,2024-02-06,2024-02-06,株式会社ブレインオートサービス,,株式会社,千葉県,鎌ケ谷市,南鎌ケ谷４丁目１番１７号,,12,224,2730106,,,,,,,2024-02-06,1,,,,,ブレインオートサービス,0
2373,9040001132086,新規,0,2024-02-06,2024-02-06,サンキュア株式会社,,株式会社,千葉県,船橋市,湊町１丁目１１番９号,,12,204,2730011,,,,,,,2024-02-06,1,,,,,サンキュア,0
2374,9040001132094,新規,0,2024-02-06,2024-02-06,株式会社武商興発,,株式会社,千葉県,富津市,西川９５２番地６,,12,226,2930013,,,,,,,2024-02-06,1,,,,,タケショウコウハツ,0
2375,9040001132103,新規,0,2024-02-06,2024-02-06,あい株式会社,,株式会社,千葉県,野田市,鶴奉２２６,,12,208,2780003,,,,,,,2024-02-06,1,,,,,アイ,0
2382,9040003024257,新規,0,2024-02-06,2024-02-06,合同会社Ｓ‐Ｓｅｒｅｎａ,,合同会社,千葉県,千葉市花見川区,南花園２丁目２番２０号スペランザ新検見川１０１号,,12,102,2620022,,,,,,,2024-02-06,1,,,,,エスセレナ,0
2383,9050001054214,新規,0,2024-02-06,2024-02-06,株式会社マストワークス,,株式会社,茨城県,つくば市,並木３丁目１８番地３,,08,220,3050044,,,,,,,2024-02-06,1,,,,,マストワークス,0
2384,9050001054222,新規,0,2024-02-06,2024-02-06,株式会社ＦＵＮ,,株式会社,茨城県,ひたちなか市,東石川３丁目１番１号,,08,221,3120052,,,,,,,2024-02-06,1,,,,,ファン,0
2392,9080401026990,新規,0,2024-02-06,2024-02-06,株式会社Ｒｅｌａｔｉｏｎ,,株式会社,静岡県,浜松市中央区,呉松町１７６８番地の１,,22,138,4311202,,,,,,,2024-02-06,1,,,,,リレイション,0
2395,9090001018529,新規,0,2024-02-06,2024-02-06,株式会社みのるＦａｒｍ,,株式会社,山梨県,北杜市,大泉町西井出８２４０番地８５２１,,19,209,4091501,,,,,,,2024-02-06,1,,,,,ミノルファーム,0
2400,9100003007387,新規,0,2024-02-06,2024-02-06,Ｗａｔａｒｕ不動産合同会社,,合同会社,長野県,北佐久郡軽井沢町,大字長倉２３２８番地２５中軽井沢ウエストＷ４,,20,321,3890111,,,,,,,2024-02-06,1,,,,,ワタルフドウサン,0
2401,9110001038160,新規,0,2024-02-06,2024-02-06,新潟山菜農園株式会社,,株式会社,新潟県,新潟市西蒲区,五之上１７５５番地,,15,108,9590508,,,,,,,2024-02-06,1,,,,,ニイガタサンサイノウエン,0
2402,9110003005282,新規,0,2024-02-06,2024-02-06,Ｉｎａｒｉ　Ｍｙｏｋｏ合同会社,,合同会社,新潟県,妙高市,大字赤倉５８５番地１７５,,15,217,9492111,,,,,,,2024-02-06,1,,,,,イナリミョウコウ,0
2415,9120001261975,新規,0,2024-02-06,2024-02-06,株式会社ウリエル,,株式会社,大阪府,大阪市北区,中崎西４丁目１番３０号,,27,127,5300015,,,,,,,2024-02-06,1,,,,,ウリエル,0
2416,9120001261983,新規,0,2024-02-06,2024-02-06,株式会社ＩＭ　ＦＲＥＥ,,株式会社,大阪府,大阪市中央区,南本町１丁目６－７ＭＪＲ堺筋本町タワー２４１４,,27,128,5410054,,,,,,,2024-02-06,1,,,,,アイムフリー,0
2417,9120001262016,新規,0,2024-02-06,2024-02-06,株式会社ナインデイ,,株式会社,大阪府,枚方市,楠葉丘２丁目１８－２３,,27,210,5731104,,,,,,,2024-02-06,1,,,,,ナインデイ,0
2418,9120001262040,新規,0,2024-02-06,2024-02-06,株式会社Ｍｙｔｒｅｙａ,,株式会社,大阪府,大阪市北区,中津１丁目６－２９－２７０２,,27,127,5310071,,,,,,,2024-02-06,1,,,,,マイトレーヤ,0
2419,9120001262049,新規,0,2024-02-06,2024-02-06,ＳＰＥＣＩＡＬＺ株式会社,,株式会社,大阪府,大阪市中央区,淡路町１丁目６番９号堺筋サテライトビル８Ｆ,,27,128,5410047,,,,,,,2024-02-06,1,,,,,スペシャルズ,0
2424,9120003025858,新規,0,2024-02-06,2024-02-06,合同会社ＨＹコーポレーション,,合同会社,大阪府,大阪市平野区,長吉出戸８丁目７番７－２０１号,,27,126,5470011,,,,,,,2024-02-06,1,,,,,エイチワイコーポレーション,0
2428,9120103005660,新規,0,2024-02-06,2024-02-06,Ａｉインフォメーション合同会社,,合同会社,大阪府,堺市堺区,香ヶ丘町１丁１番４号,,27,141,5900011,,,,,,,2024-02-06,1,,,,,エーアイインフォメーション,0
2429,9120103005669,新規,0,2024-02-06,2024-02-06,Ｓｈａｒｍａ　ｇｒｏｕｐ合同会社,,合同会社,大阪府,松原市,柴垣１丁目１９番１２号,,27,217,5800017,,,,,,,2024-02-06,1,,,,,サルマグループ,0
2435,9130001076282,新規,0,2024-02-06,2024-02-06,株式会社ＳＨＩＦＴＰＯｉＮＴ,,株式会社,京都府,京都市下京区,朱雀宝蔵町４４番地協栄ビル２階京都朱雀スタジオ,,26,106,6008846,,,,,,,2024-02-06,1,,,,,シフトポイント,0
2436,9130001076308,新規,0,2024-02-06,2024-02-06,株式会社ＡＹＡＭＥ,,株式会社,京都府,京都市下京区,新町通松原下る富永町１０７－１,,26,106,6008449,,,,,,,2024-02-06,1,,,,,アヤメ,0
2443,9140001133215,新規,0,2024-02-06,2024-02-06,株式会社宗支協,,株式会社,兵庫県,神戸市東灘区,深江北町４丁目１０番１５号,,28,101,6580013,,,,,,,2024-02-06,1,,,,,シュウシキョウ,0
2444,9140001133248,新規,0,2024-02-06,2024-02-06,株式会社ＩＮＳＯＦＴ　ＪＡＰＡＮ,,株式会社,兵庫県,加古川市,加古川町溝之口６５番地の３,,28,210,6750064,,,,,,,2024-02-06,1,,,,,インソフトジャパン,0
2454,9140003020130,新規,0,2024-02-06,2024-02-06,ツルトカメ合同会社,,合同会社,兵庫県,明石市,朝霧南町４丁目２－８,,28,203,6730870,,,,,,,2024-02-06,1,,,,,ツルトカメ,0
2458,9150001027060,新規,0,2024-02-06,2024-02-06,株式会社まほろばＰａｙｒｏｌｌ,,株式会社,奈良県,奈良市,下三条町３４番地更谷ビル４０５,,29,201,6308236,,,,,,,2024-02-06,1,,,,,マホロバペイロール,0
2467,9180001160081,新規,0,2024-02-06,2024-02-06,株式会社宝縁堂,,株式会社,愛知県,名古屋市中村区,名駅３丁目２６番８号,,23,105,4500002,,,,,,,2024-02-06,1,,,,,ホウエンドウ,0
2474,9180301038291,新規,0,2024-02-06,2024-02-06,株式会社エーエムワークス,,株式会社,愛知県,岡崎市,法性寺町字柳之内４０番地１６,,23,202,4440206,,,,,,,2024-02-06,1,,,,,エーエムワークス,0
2477,9190003004574,新規,0,2024-02-06,2024-02-06,やなせ設備合同会社,,合同会社,三重県,四日市市,八王子町９９７番地６,,24,202,5100947,,,,,,,2024-02-06,1,,,,,ヤナセセツビ,0
2484,9210001019621,新規,0,2024-02-06,2024-02-06,平田燃料店株式会社,,株式会社,福井県,坂井市,春江町針原第１５号７番地,,18,210,9190476,,,,,,,2024-02-06,1,,,,,ヒラタネンリョウテン,0
2487,9230003002144,新規,0,2024-02-06,2024-02-06,合同会社トライ・ウェイ,,合同会社,富山県,富山市,町新１５番地１グランスイート藤木１０１号,,16,201,9300923,,,,,,,2024-02-06,1,,,,,トライウェイ,0
2491,9240001062759,新規,0,2024-02-06,2024-02-06,フィン株式会社,,株式会社,広島県,呉市,広多賀谷１丁目６番１号,,34,202,7370134,,,,,,,2024-02-06,1,,,,,フィン,0
2498,9260001038740,新規,0,2024-02-06,2024-02-06,株式会社シーエスサービス,,株式会社,岡山県,岡山市南区,東畦５９番地５６,,33,104,7010211,,,,,,,2024-02-06,1,,,,,シーエスサービス,0
2499,9260003004559,新規,0,2024-02-06,2024-02-06,合同会社ＡＥＲＳＯＮ,,合同会社,岡山県,岡山市中区,中井４３７－１５,,33,102,7038205,,,,,,,2024-02-06,1,,,,,アーソン,0
2508,9290001104589,新規,0,2024-02-06,2024-02-06,株式会社三器,,株式会社,福岡県,久留米市,宮ノ陣４丁目４３－２６,,40,203,8390801,,,,,,,2024-02-06,1,,,,,サンキ,0
2509,9290001104606,新規,0,2024-02-06,2024-02-06,株式会社Ｕｎｅｒｉ,,株式会社,福岡県,糸島市,前原西４丁目６番２３号,,40,230,8191117,,,,,,,2024-02-06,1,,,,,ウネリ,0
2510,9290001104630,新規,0,2024-02-06,2024-02-06,株式会社野口豊高建築構造設計,,株式会社,福岡県,大野城市,筒井１丁目６番１７号,,40,219,8160931,,,,,,,2024-02-06,1,,,,,ノグチトヨタカケンチクコウゾウセッケイ,0
2521,9340001026258,新規,0,2024-02-06,2024-02-06,ｅｎＬＡＲＧＥ株式会社,,株式会社,鹿児島県,伊佐市,大口里１８９９番地５　２Ｆ,,46,224,8952511,,,,,,,2024-02-06,1,,,,,エンラージ,0
2523,9350001018774,新規,0,2024-02-06,2024-02-06,株式会社えとう商事,,株式会社,宮崎県,宮崎市,清武町新町２丁目２番地５,,45,201,8891611,,,,,,,2024-02-06,1,,,,,エトウショウジ,0
2546,9430003015927,新規,0,2024-02-06,2024-02-06,合同会社北広貿易,,合同会社,北海道,北広島市,北の里１０４番地２,,01,234,0611111,,,,,,,2024-02-06,1,,,,,キタヒロボウエキ,0
2550,9460101007492,新規,0,2024-02-06,2024-02-06,なまらミート株式会社,,株式会社,北海道,帯広市,西十六条北１丁目８番地４,,01,207,0800046,,,,,,,2024-02-06,1,,,,,ナマラミート,0
2552,9460103001592,新規,0,2024-02-06,2024-02-06,合同会社ＳＰＯＲＴ　ＦＵＬＬ,,合同会社,北海道,帯広市,清流西１丁目４番１１号,,01,207,0800872,,,,,,,2024-02-06,1,,,,,スポーツフル,0
2553,9460403000245,新規,0,2024-02-06,2024-02-06,合同会社エムウェルネス,,合同会社,北海道,根室市,歯舞３丁目１７,,01,223,0870163,,,,,,,2024-02-06,1,,,,,エムウェルネス,0
2554,9470001020025,新規,0,2024-02-06,2024-02-06,鼎盛商店株式会社,,株式会社,香川県,観音寺市,豊浜町姫浜２５３番地４,,37,205,7691601,,,,,,,2024-02-06,1,,,,,テイセイショウテン,0
2555,9470003002574,新規,0,2024-02-06,2024-02-06,合同会社Ｅａｔｉｍｅ,,合同会社,香川県,高松市,磨屋町８番地１,,37,201,7600026,,,,,,,2024-02-06,1,,,,,イータイム,0
2563,9500001025458,新規,0,2024-02-06,2024-02-06,未来生活ホールディングス株式会社,,株式会社,愛媛県,越智郡上島町,弓削下弓削１７５番地,,38,356,7942506,,,,,,,2024-02-06,1,,,,,ミライセイカツホールディングス,0
2566,9700150123843,新規,0,2024-02-06,2024-02-06,ｚｈｕｈａｉｓｈｉｘｉｏｎｇｊｉｕｊｉｕｋｅｊｉｙｏｕｘｉａｎｇｏｎｇｓｉ,,外国会社等,,,,,,,,Ｒｏｏｍ　６８３，Ｆｌｏｏｒ　１，Ｂｌｏｃｋ　Ｃ，Ｂｕｉｌｄｉｎｇ　２４，Ｇａｎｇｗａｎ　１，Ｋｅｃｈｕａｎｇ　Ｐａｒｋ，Ｎｏ．１　Ｊｉｎｔａｎｇ　Ｒｏａｄ，Ｔａｎｇｊｉａｗａｎ　Ｔｏｗｎ，Ｈｉｇｈ－ｔｅｃｈ　Ｚｏｎｅ，Ｚｈｕｈａｉ，Ｃｈｉｎａ　５１９０００,,,,,,2024-02-06,1,,,,,ジュウハイシシィォンジゥジゥカージヨウシェンゴンスー,0
