sequenceNumber,corporateNumber,process,correct,updateDate,changeDate,name,nameImageId,kind,prefectureName,cityName,streetNumber,addressImageId,prefectureCode,cityCode,postCode,addressOutside,addressOutsideImageId,closeDate,closeCause,successorCorporateNumber,changeCause,assignmentDate,latest,enName,enPrefectureName,enCityName,enAddressOutside,furigana,hihyoji
13,1010001248405,新規,0,2024-09-24,2024-09-24,株式会社Ａｌｌ　Ｆｏｒ　Ｆｕｔｕｒｅ,,株式会社,東京都,中央区,日本橋本町４丁目１３番６号,,13,102,1030023,,,,,,,2024-09-24,1,,,,,オールフォーフューチャー,0
14,1010003044975,新規,0,2024-09-24,2024-09-24,Ｊ　ｃｏｎｓｕｌｔｉｎｇ合同会社,,合同会社,東京都,中央区,銀座８丁目７－９,,13,102,1040061,,,,,,,2024-09-24,1,,,,,ジェイコンサルティング,0
15,1010003044991,新規,0,2024-09-24,2024-09-24,Ｄｏｕｂｌｅ　Ｄ．Ｆｒｏｍｍ合同会社,,合同会社,東京都,中央区,佃２丁目１番２‐１７０９,,13,102,1040051,,,,,,,2024-09-24,1,,,,,ダブルデイフロム,0
25,1010401185025,新規,0,2024-09-24,2024-09-24,株式会社カドバタ,,株式会社,東京都,港区,北青山１丁目３番１号アールキューブ青山３階,,13,103,1070061,,,,,,,2024-09-24,1,,,,,カドバタ,0
26,1010401185116,新規,0,2024-09-24,2024-09-24,株式会社ｔｈａｎｋＡＱ,,株式会社,東京都,港区,南青山２丁目２番１５号ウィン青山９４２,,13,103,1070062,,,,,,,2024-09-24,1,,,,,サンカク,0
27,1010401185256,新規,0,2024-09-24,2024-09-24,株式会社ＯＮＥ　ＷＩＬＬ,,株式会社,東京都,港区,麻布十番２－１９－４シルバープラザ麻布十番４０３,,13,103,1050000,,,,,,,2024-09-24,1,,,,,ワンウィル,0
28,1010401185264,新規,0,2024-09-24,2024-09-24,世子株式会社,,株式会社,東京都,港区,南青山２丁目４番１１号ランド南青山２０１号室,,13,103,1070062,,,,,,,2024-09-24,1,,,,,セコ,0
29,1010401185280,新規,0,2024-09-24,2024-09-24,株式会社ＣａｒｅＶｏ,,株式会社,東京都,港区,南青山３丁目１番３６号青山丸竹ビル６Ｆ,,13,103,1070062,,,,,,,2024-09-24,1,,,,,ケアボ,0
33,1010403033462,新規,0,2024-09-24,2024-09-24,シルクリオ合同会社,,合同会社,東京都,港区,浜松町２丁目２番１５号浜松町ダイヤビル２Ｆ,,13,103,1050013,,,,,,,2024-09-24,1,,,,,シルクリオ,0
35,1010405023593,新規,0,2024-09-24,2024-09-24,ソーラーヤマドリ一般社団法人,,その他の設立登記法人,東京都,港区,南青山２丁目１３番２号サンライズ青山２Ｆ青山国際税理士法人内,,13,103,1070062,,,,,,,2024-09-24,1,,,,,ソーラーヤマドリ,0
40,1010601065951,新規,0,2024-09-24,2024-09-24,株式会社Ｙ’Ｓ,,株式会社,東京都,墨田区,太平４丁目１番１－４４１０号,,13,107,1300012,,,,,,,2024-09-24,1,,,,,ワイス,0
44,1010901056015,新規,0,2024-09-24,2024-09-24,株式会社ＳＵＮＤＲＹ,,株式会社,東京都,世田谷区,北沢２丁目３７番３号,,13,112,1550031,,,,,,,2024-09-24,1,,,,,サンドリー,0
45,1011001164749,新規,0,2024-09-24,2024-09-24,ｐａｃｋａｇｅ株式会社,,株式会社,東京都,渋谷区,代官山町３番１３－１０６号代官山エーデルハイム,,13,113,1500034,,,,,,,2024-09-24,1,,,,,パッケージ,0
48,1011201025809,新規,0,2024-09-24,2024-09-24,ＭＯＳＩ株式会社,,株式会社,東京都,中野区,上高田５丁目１１－９マイプラン中野上高田１０６号,,13,114,1640002,,,,,,,2024-09-24,1,,,,,モシ,0
49,1011203004488,新規,0,2024-09-24,2024-09-24,合同会社ａｌａｎｉ,,合同会社,東京都,中野区,大和町３丁目９番１５号,,13,114,1650034,,,,,,,2024-09-24,1,,,,,アラニ,0
52,1011401026425,新規,0,2024-09-24,2024-09-24,ＩＲＥＩ株式会社,,株式会社,東京都,板橋区,成増５丁目２２番９号,,13,119,1750094,,,,,,,2024-09-24,1,,,,,アイリイ,0
53,1011403004511,新規,0,2024-09-24,2024-09-24,合同会社こはる,,合同会社,東京都,板橋区,清水町５４番１５号エコヴィレッジ板橋本町９０４,,13,119,1740053,,,,,,,2024-09-24,1,,,,,コハル,0
56,1012403006753,新規,0,2024-09-24,2024-09-24,合同会社Ｍ２Ｋオフィス,,合同会社,東京都,武蔵野市,吉祥寺東町１丁目１２番１７号,,13,203,1800002,,,,,,,2024-09-24,1,,,,,エムツーケイオフィス,0
68,1020001158850,新規,0,2024-09-24,2024-09-24,株式会社ルーツプロダクト,,株式会社,神奈川県,川崎市宮前区,小台２丁目２３番地４ウェスタ鷺沼１０３,,14,136,2160007,,,,,,,2024-09-24,1,,,,,ルーツプロダクト,0
69,1020001159213,新規,0,2024-09-24,2024-09-24,株式会社オーソアート,,株式会社,神奈川県,横浜市西区,東ケ丘７５番地エルクール東丘３０５号,,14,103,2200033,,,,,,,2024-09-24,1,,,,,オーソアート,0
74,1020003026915,新規,0,2024-09-24,2024-09-24,合同会社ＪＯＪＩホールディングス,,合同会社,神奈川県,川崎市高津区,下作延４丁目２番１５号メゾンドヴェルジェ１０１,,14,134,2130033,,,,,,,2024-09-24,1,,,,,ジョージホールディングス,0
83,1030003025156,新規,0,2024-09-24,2024-09-24,合同会社アルカ・インベストメント・パートナーズ,,合同会社,埼玉県,さいたま市浦和区,仲町２丁目１９番１６－７０１号,,11,107,3300062,,,,,,,2024-09-24,1,,,,,アルカインベストメントパートナーズ,0
87,1040001135518,新規,0,2024-09-24,2024-09-24,株式会社Ｔｒａｖｅｌｉｎｇ,,株式会社,千葉県,船橋市,西習志野２丁目１７－７,,12,204,2740815,,,,,,,2024-09-24,1,,,,,トラベリング,0
96,1050001055442,新規,0,2024-09-24,2024-09-24,株式会社ＮＥＸＵＳ,,株式会社,茨城県,つくば市,高見原１丁目４番地１８４サンシャインＢ棟１０１号,,08,220,3001252,,,,,,,2024-09-24,1,,,,,ネクサス,0
103,1080101025012,新規,0,2024-09-24,2024-09-24,株式会社フェリス,,株式会社,静岡県,駿東郡長泉町,下土狩４５３番地の１,,22,342,4110943,,,,,,,2024-09-24,1,,,,,,0
116,1110005017135,新規,0,2024-09-24,2024-09-24,一般社団法人青と海と糸魚川,,その他の設立登記法人,新潟県,糸魚川市,押上１丁目１番３０号,,15,216,9410051,,,,,,,2024-09-24,1,,,,,アオトウミトイトイガワ,0
117,1120001268680,新規,0,2024-09-24,2024-09-24,宝成株式会社,,株式会社,大阪府,大阪市北区,樋之口町１番２０－３５１６号,,27,127,5300032,,,,,,,2024-09-24,1,,,,,ホウセイ,0
118,1120003027580,新規,0,2024-09-24,2024-09-24,合同会社ｎａｎｏｇｒａｐｈｙ,,合同会社,大阪府,大阪市北区,長柄東３丁目３－１２－４０１,,27,127,5310063,,,,,,,2024-09-24,1,,,,,ナノグラフィー,0
119,1120003027589,新規,0,2024-09-24,2024-09-24,合同会社ＳＫＧＫ,,合同会社,大阪府,大阪市浪速区,大国２丁目１６番２１号３階,,27,111,5560014,,,,,,,2024-09-24,1,,,,,サキガケ,0
121,1120005024543,新規,0,2024-09-24,2024-09-24,一般社団法人ＩＰＰ研究会,,その他の設立登記法人,大阪府,守口市,寺方元町１丁目２番１３号,,27,209,5700047,,,,,,,2024-09-24,1,,,,,アイピーピーケンキュウカイ,0
124,1120103006063,新規,0,2024-09-24,2024-09-24,合同会社希,,合同会社,大阪府,貝塚市,西町６番５号,,27,208,5970004,,,,,,,2024-09-24,1,,,,,ノゾミ,0
141,1140001135813,新規,0,2024-09-24,2024-09-24,神戸不動産株式会社,,株式会社,兵庫県,神戸市中央区,元町通５丁目２－３甲南サンシティー元町５０７号,,28,110,6500022,,,,,,,2024-09-24,1,,,,,コウベフドウサン,0
142,1140003021111,新規,0,2024-09-24,2024-09-24,合同会社Ｔレボ,,合同会社,兵庫県,姫路市,白浜町丙４８４番地３３,,28,201,6728023,,,,,,,2024-09-24,1,,,,,ティレボ,0
143,1140005027206,新規,0,2024-09-24,2024-09-24,一般社団法人ｖｉｖｅａｓ,,その他の設立登記法人,兵庫県,神戸市東灘区,御影中町３丁目２番４－４６０５号,,28,101,6580054,,,,,,,2024-09-24,1,,,,,ヴィヴェアス,0
150,1180001163307,新規,0,2024-09-24,2024-09-24,株式会社ＯＫＩＮＡＷＡ　ＴＲＡＤＩＮＧＳ,,株式会社,愛知県,名古屋市中区,大須２丁目１８番５５号ダイアパレス大須第二２０６号,,23,106,4600011,,,,,,,2024-09-24,1,,,,,オキナワトレイディングス,0
151,1180001163315,新規,0,2024-09-24,2024-09-24,株式会社Ｎｉｋｋｅ,,株式会社,愛知県,名古屋市東区,東桜２丁目３－７東カン名古屋キャスティール１１３６号,,23,102,4610005,,,,,,,2024-09-24,1,,,,,ニケ,0
154,1180301039074,新規,0,2024-09-24,2024-09-24,株式会社プロレンジ,,株式会社,愛知県,岡崎市,野畑町字下河原１６番地７,,23,202,4440211,,,,,,,2024-09-24,1,,,,,プロレンジ,0
168,1240001063839,新規,0,2024-09-24,2024-09-24,株式会社ＦＬＣ,,株式会社,広島県,三原市,大和町萩原４８９番地２,,34,204,7291403,,,,,,,2024-09-24,1,,,,,エフエルシー,0
175,1260003004896,新規,0,2024-09-24,2024-09-24,サニーフラッシュ合同会社,,合同会社,岡山県,笠岡市,西大島３２１７番地９,,33,205,7140032,,,,,,,2024-09-24,1,,,,,サニーフラッシュ,0
178,1290005019510,新規,0,2024-09-24,2024-09-24,一般社団法人Ｍｉｒａｉ,,その他の設立登記法人,福岡県,八女市,本町１２１番地１の４,,40,210,8340031,,,,,,,2024-09-24,1,,,,,ミライ,0
182,1320001020716,新規,0,2024-09-24,2024-09-24,株式会社バルジュン,,株式会社,大分県,由布市,湯布院町川上１０８６番地の２,,44,213,8795102,,,,,,,2024-09-24,1,,,,,バルジュン,0
185,1340001026810,新規,0,2024-09-24,2024-09-24,株式会社Ａｓｃｅｎｄａ,,株式会社,鹿児島県,指宿市,十二町６２番地１,,46,210,8910403,,,,,,,2024-09-24,1,,,,,アセンド,0
193,1370005010840,新規,0,2024-09-24,2024-09-24,一般社団法人きりかぶ,,その他の設立登記法人,宮城県,柴田郡柴田町,大字上川名字舘山５２番地２,,04,323,9891742,,,,,,,2024-09-24,1,,,,,キリカブ,0
212,1430001092711,新規,0,2024-09-24,2024-09-24,株式会社ロジクル,,株式会社,北海道,札幌市手稲区,明日風３丁目３番２５号,,01,109,0060861,,,,,,,2024-09-24,1,,,,,ロジクル,0
215,1450003002542,新規,0,2024-09-24,2024-09-24,合同会社宮崎建装,00136371,合同会社,北海道,旭川市,中常盤町２丁目１９７０番地,,01,204,0700042,,,,,,,2024-09-24,1,,,,,ミヤザキケンソウ,0
217,1470001020387,新規,0,2024-09-24,2024-09-24,株式会社ＦＵＵＧＡ,,株式会社,香川県,高松市,多賀町２丁目１番８号,,37,201,7600063,,,,,,,2024-09-24,1,,,,,フウガ,0
218,1700150127281,新規,0,2024-09-24,2024-09-24,ＶＥＨＩＣＬＥ　ＣＩＴＹ　ＬＡＮＫＡ　ＰＶＴ　ＬＴＤ,,外国会社等,千葉県,山武市,埴谷２４６３番地１８－２,,12,237,2891223,スリランカ民主社会主義共和国、キャンディ、バトゥゴダ、カサワッタ、Ｎｏ．４６４／４／Ａ１,,,,,,2024-09-24,1,,,,,ヴエイクルシテイランカプライベートリミテツド,0
220,2010001248412,新規,0,2024-09-24,2024-09-24,森家株式会社,,株式会社,東京都,中央区,月島１丁目１６－１－３Ｆ,,13,102,1040052,,,,,,,2024-09-24,1,,,,,モリケ,0
221,2010001248420,新規,0,2024-09-24,2024-09-24,株式会社プロップホールディングス,,株式会社,東京都,中央区,新川１丁目６番１号アステール茅場町２階,,13,102,1040033,,,,,,,2024-09-24,1,,,,,プロップホールディングス,0
222,2010001248461,新規,0,2024-09-24,2024-09-24,ＣＭＴ株式会社,,株式会社,東京都,中央区,銀座７丁目１５番８号タウンハイツ銀座４０６,,13,102,1040061,,,,,,,2024-09-24,1,,,,,シーエムティー,0
224,2010003044966,新規,0,2024-09-24,2024-09-24,日本橋ジョーカー合同会社,,合同会社,東京都,中央区,日本橋兜町１７番１号,,13,102,1030026,,,,,,,2024-09-24,1,,,,,ニホンバシジョーカー,0
232,2010401185081,新規,0,2024-09-24,2024-09-24,アールアンドアイ株式会社,,株式会社,東京都,港区,六本木６丁目１２－３－Ｃ１８０４,,13,103,1060032,,,,,,,2024-09-24,1,,,,,アールアンドアイ,0
233,2010401185247,新規,0,2024-09-24,2024-09-24,ＫＹＧホールディングス株式会社,,株式会社,東京都,港区,西新橋１丁目１番１号,,13,103,1050003,,,,,,,2024-09-24,1,,,,,ケイワイジーホールディングス,0
234,2010401185271,新規,0,2024-09-24,2024-09-24,株式会社Ｓｃｅｎｔｓ,,株式会社,東京都,港区,虎ノ門１丁目２番１１号ザ・パークレックス虎ノ門８Ｆ,,13,103,1050001,,,,,,,2024-09-24,1,,,,,センツ,0
238,2010405023535,新規,0,2024-09-24,2024-09-24,医療法人社団ＢＣ１６,,その他の設立登記法人,東京都,港区,六本木７丁目１４番８号アーツショップビルディング６階,,13,103,1060032,,,,,,,2024-09-24,1,,,,,ビーシージュウロク,0
244,2010601065959,新規,0,2024-09-24,2024-09-24,株式会社ライト・スタッフ,,株式会社,東京都,江東区,扇橋１丁目２１番２６号,,13,108,1350011,,,,,,,2024-09-24,1,,,,,ライトスタッフ,0
253,2011001164731,新規,0,2024-09-24,2024-09-24,Ｂｉｒｔｈ　Ｌｉｇｈｔ株式会社,,株式会社,東京都,渋谷区,道玄坂１丁目１０番８号渋谷道玄坂東急ビル２Ｆ－Ｃ,,13,113,1500043,,,,,,,2024-09-24,1,,,,,バースライト,0
254,2011001164780,新規,0,2024-09-24,2024-09-24,株式会社ＡＳＵ‐ｉｋｕ,,株式会社,東京都,目黒区,自由が丘２丁目１６番１２号ＲＪ３,,13,110,1520035,,,,,,,2024-09-24,1,,,,,アスイク,0
255,2011001164863,新規,0,2024-09-24,2024-09-24,株式会社スイセイ,,株式会社,東京都,渋谷区,千駄ヶ谷４丁目６番８－２１０７号パークコート神宮北参道ザタワー,,13,113,1510051,,,,,,,2024-09-24,1,,,,,スイセイ,0
257,2011003020008,新規,0,2024-09-24,2024-09-24,ＤＡＩＺＵ合同会社,,合同会社,東京都,渋谷区,渋谷２丁目１９‐１５宮益坂ビルディング６０９,,13,113,1500002,,,,,,,2024-09-24,1,,,,,ダイズ,0
259,2011101108869,新規,0,2024-09-24,2024-09-24,株式会社ＳＮＳ　ＨＡＣＫ,,株式会社,東京都,新宿区,高田馬場４丁目２６番４号ルネサンスコート高田馬場ｃａｌｍｅ４０４,,13,104,1690075,,,,,,,2024-09-24,1,,,,,エスエヌエスハック,0
260,2011101108885,新規,0,2024-09-24,2024-09-24,株式会社グローアップリンク,,株式会社,東京都,新宿区,新宿１丁目３６番２号新宿第七葉山ビル３階,,13,104,1600022,,,,,,,2024-09-24,1,,,,,グローアップリンク,0
263,2011201025808,新規,0,2024-09-24,2024-09-24,株式会社ＴｒｕｓｔＬｉｎｋ,,株式会社,東京都,中野区,中野６丁目２９－１,,13,114,1640001,,,,,,,2024-09-24,1,,,,,トラストリンク,0
264,2011301030006,新規,0,2024-09-24,2024-09-24,株式会社留パス,,株式会社,東京都,杉並区,高井戸東１丁目３１番３１号,,13,115,1680072,,,,,,,2024-09-24,1,,,,,リュウパス,0
265,2011401026440,新規,0,2024-09-24,2024-09-24,株式会社ＰＯＲＴＭＩＳＴ,,株式会社,東京都,板橋区,中板橋２０番１０号,,13,119,1730016,,,,,,,2024-09-24,1,,,,,ポートミスト,0
267,2011403004510,新規,0,2024-09-24,2024-09-24,合同会社ＴＨＥＫＥＹ,,合同会社,東京都,板橋区,蓮根３丁目２６番１２－１０２９号,,13,119,1740046,,,,,,,2024-09-24,1,,,,,ザキー,0
269,2011501031167,新規,0,2024-09-24,2024-09-24,株式会社フラットエイト,,株式会社,東京都,荒川区,西日暮里６丁目４５番５号スカイイトウビル１階,,13,118,1160013,,,,,,,2024-09-24,1,,,,,フラットエイト,0
272,2011703003963,新規,0,2024-09-24,2024-09-24,ＹＴ調査合同会社,,合同会社,東京都,江戸川区,平井７丁目４－２－７１０,,13,123,1320035,,,,,,,2024-09-24,1,,,,,ワイティチョウサ,0
291,2020003026939,新規,0,2024-09-24,2024-09-24,マハロエステート合同会社,,合同会社,神奈川県,横浜市都筑区,北山田７丁目４ララヒルズ２－７０２,,14,118,2240021,,,,,,,2024-09-24,1,,,,,マハロエステート,0
292,2020003026955,新規,0,2024-09-24,2024-09-24,合同会社ＨＱ,,合同会社,神奈川県,横浜市港北区,新吉田東５丁目４４番３号,,14,109,2230058,,,,,,,2024-09-24,1,,,,,エッチキュウ,0
294,2021001083294,新規,0,2024-09-24,2024-09-24,株式会社ＧＯＬＤＥＮ　ＴＳＵＢＡＳＡ,,株式会社,神奈川県,中郡大磯町,東小磯２２７番地１大磯シーサイドヒルズ３０３号,,14,341,2550004,,,,,,,2024-09-24,1,,,,,ゴールデンツバサ,0
304,2030001162561,新規,0,2024-09-24,2024-09-24,株式会社ＨＩＮＡＴＡ,,株式会社,埼玉県,大里郡寄居町,大字用土１７１４番地１６,,11,408,3691201,,,,,,,2024-09-24,1,,,,,ヒナタ,0
305,2030001162611,新規,0,2024-09-24,2024-09-24,株式会社三思堂,,株式会社,埼玉県,狭山市,鵜ノ木１９―２７,,11,215,3501323,,,,,,,2024-09-24,1,,,,,サンシドウ,0
308,2030005021854,新規,0,2024-09-24,2024-09-24,ＮＰＯ法人ＡＢＫ,,その他の設立登記法人,埼玉県,さいたま市岩槻区,南平野４丁目１１番地３２,,11,110,3390051,,,,,,,2024-09-24,1,,,,,エービーケー,0
313,2040001135475,新規,0,2024-09-24,2024-09-24,株式会社ＢＩＢＨＡＮ,,株式会社,千葉県,市原市,五井西４７６２番地,,12,219,2900000,,,,,,,2024-09-24,1,,,,,ビブハン,0
319,2050003008678,新規,0,2024-09-24,2024-09-24,アイ・サポート合同会社,,合同会社,茨城県,笠間市,吉岡９３番地３,,08,216,3190203,,,,,,,2024-09-24,1,,,,,アイサポート,0
321,2060001037505,新規,0,2024-09-24,2024-09-24,株式会社坪井建材,,株式会社,栃木県,佐野市,若宮上町４番地５,,09,204,3270833,,,,,,,2024-09-24,1,,,,,ツボイケンザイ,0
336,2090003002652,新規,0,2024-09-24,2024-09-24,合同会社エスティコミュニケーションズ,,合同会社,山梨県,南都留郡富士河口湖町,大石２１６１番地１９,,19,430,4010305,,,,,,,2024-09-24,1,,,,,エスティコミュニケーションズ,0
346,2120003027571,新規,0,2024-09-24,2024-09-24,合同会社Ｚ２,,合同会社,大阪府,門真市,千石東町８番１０号,,27,223,5710013,,,,,,,2024-09-24,1,,,,,ゼットツー,0
347,2120003027596,新規,0,2024-09-24,2024-09-24,合同会社Ｏｎｅ‐ｕｐ,,合同会社,大阪府,枚方市,招提南町３丁目１７番３－４０３号,,27,210,5731155,,,,,,,2024-09-24,1,,,,,ワンアップ,0
349,2120103006054,新規,0,2024-09-24,2024-09-24,合同会社栄心,,合同会社,大阪府,貝塚市,石才４５１－１５,,27,208,5970082,,,,,,,2024-09-24,1,,,,,エイコ,0
351,2120901049799,新規,0,2024-09-24,2024-09-24,株式会社盛和興業,,株式会社,大阪府,豊中市,夕日丘２丁目１０番１５の２号,,27,203,5610864,,,,,,,2024-09-24,1,,,,,セイワコウギョウ,0
358,2140001135853,新規,0,2024-09-24,2024-09-24,株式会社Ｂｅｅ　Ｇｒｅｅｎ　Ｇａｒｄｅｎ,,株式会社,兵庫県,姫路市,上手野４１５－１,,28,201,6700065,,,,,,,2024-09-24,1,,,,,ビィーグリーンガーデン,0
359,2140003021102,新規,0,2024-09-24,2024-09-24,合同会社どんぐりぽっけ,,合同会社,兵庫県,宍粟市,一宮町横山１６６番地,,28,227,6714102,,,,,,,2024-09-24,1,,,,,ドングリポッケ,0
360,2140003021110,新規,0,2024-09-24,2024-09-24,合同会社Ｊレボ,,合同会社,兵庫県,姫路市,白浜町宇佐崎南２丁目２１番地,,28,201,6728022,,,,,,,2024-09-24,1,,,,,ジェイレボ,0
361,2160001026225,新規,0,2024-09-24,2024-09-24,ＶＩＰＡＮ株式会社,,株式会社,滋賀県,蒲生郡日野町,大字大窪８００番地,,25,383,5291603,,,,,,,2024-09-24,1,,,,,ビパン,0
365,2180001163322,新規,0,2024-09-24,2024-09-24,株式会社彗光電設,,株式会社,愛知県,名古屋市守山区,小幡千代田６番３号（ダイナース千代田橋２０２号）,,23,113,4630053,,,,,,,2024-09-24,1,,,,,ケイコウデンセツ,0
366,2180001163330,新規,0,2024-09-24,2024-09-24,知多中央建材株式会社,,株式会社,愛知県,知多郡東浦町,大字藤江字南栄町１番地８２,,23,442,4702105,,,,,,,2024-09-24,1,,,,,チタチュウオウケンザイ,0
367,2180001163347,新規,0,2024-09-24,2024-09-24,株式会社ＢＯＬＹＧＡ　ＪＡＰＡＮ,,株式会社,愛知県,名古屋市中村区,松原町２丁目２０番地,,23,105,4530021,,,,,,,2024-09-24,1,,,,,ボリガジャパン,0
369,2180003027392,新規,0,2024-09-24,2024-09-24,合同会社Ｓｉｎ,,合同会社,愛知県,名古屋市中村区,名駅３丁目４番１０号アルティメイト名駅１ｓｔ２階,,23,105,4500002,,,,,,,2024-09-24,1,,,,,サイン,0
373,2200005013669,新規,0,2024-09-24,2024-09-24,特定非営利活動法人Ｌｉｎｏ,,その他の設立登記法人,岐阜県,岐阜市,田神８番９号,,21,201,5008158,,,,,,,2024-09-24,1,,,,,リノ,0
377,2240001063838,新規,0,2024-09-24,2024-09-24,株式会社うちだや,,株式会社,広島県,廿日市市,丸石４丁目１４番２４号,,34,213,7390452,,,,,,,2024-09-24,1,,,,,ウチダヤ,0
386,2290801030900,新規,0,2024-09-24,2024-09-24,株式会社Ｉｒｉｅ,,株式会社,福岡県,北九州市若松区,赤島町１６番７号,,40,103,8080073,,,,,,,2024-09-24,1,,,,,アイリー,0
392,2320001020723,新規,0,2024-09-24,2024-09-24,株式会社神龍,,株式会社,大分県,佐伯市,蒲江大字蒲江浦４５６３番地１,,44,205,8762401,,,,,,,2024-09-24,1,,,,,シェンロン,0
398,2370001051730,新規,0,2024-09-24,2024-09-24,株式会社ファロ,,株式会社,宮城県,亘理郡山元町,坂元字山作１,,04,362,9892111,,,,,,,2024-09-24,1,,,,,ファロ,0
406,2390001017746,新規,0,2024-09-24,2024-09-24,プチワーク株式会社,,株式会社,山形県,米沢市,アルカディア１丁目８０８番地の１７,,06,202,9920119,,,,,,,2024-09-24,1,,,,,プチワーク,0
410,2430001092710,新規,0,2024-09-24,2024-09-24,株式会社レイテストマンション札幌,,株式会社,北海道,札幌市中央区,大通東９丁目１－４０,,01,101,0600041,,,,,,,2024-09-24,1,,,,,レイテストマンションサッポロ,0
411,2430005015072,新規,0,2024-09-24,2024-09-24,医療法人社団東札幌眼科,,その他の設立登記法人,北海道,札幌市白石区,東札幌四条１丁目１番１号ラソラ札幌Ｂタウン２Ｆ,,01,104,0030004,,,,,,,2024-09-24,1,,,,,ヒガシサッポロガンカ,0
414,2450003002541,新規,0,2024-09-24,2024-09-24,Ｆｒｏｍ　ｔｈｅ　Ｎｏｒｔｈ　Ｓｔａｒ合同会社,,合同会社,北海道,紋別郡興部町,字興部６７８番地,,01,561,0981600,,,,,,,2024-09-24,1,,,,,フロムザノーススター,0
416,2490001010872,新規,0,2024-09-24,2024-09-24,株式会社大七不動産,,株式会社,高知県,高知市,北金田１２番１５号,,39,201,7810073,,,,,,,2024-09-24,1,,,,,ダイナナフドウサン,0
420,2700150127280,新規,0,2024-09-24,2024-09-24,ＨａｎｇＺｈｏｕＸｉｎｇＳｈｕＴａｉＮｉａｎＺｈｉＮｅｎｇＫｅｊｉＹｏｕＸｉａｎＧｏｎｇＳｉ,,外国会社等,,,,,,,,ｚｈｅｊｉａｎｇｓｈｅｎｇｈａｎｇｚｈｏｕｓｈｉｙｕｈａｎｇｑｕｃａｎｇｑｉａｎｊｉｅｄａｏｌｉａｎｇｍｕｌｕ１３９９ｈａｏ１９ｚｈｕａｎｇ１０３－５４ｓｈｉ,,,,,,2024-09-24,1,,,,,ハンジヨウシンシユータイニエンジーノンコージーヨウシエンゴンスー,0
430,3010001248460,新規,0,2024-09-24,2024-09-24,株式会社ＡＣＩＭＵＳ,,株式会社,東京都,千代田区,神田和泉町１番地６の１６ヤマトビル４０５,,13,101,1010024,,,,,,,2024-09-24,1,,,,,アキムス,0
439,3010401185031,新規,0,2024-09-24,2024-09-24,株式会社ＣｙｃｌｏＤｙｎａｍｉｃｓ　Ｌａｂ,,株式会社,東京都,港区,芝５丁目３６番４号,,13,103,1080014,,,,,,,2024-09-24,1,,,,,シクロダイナミクスラボ,0
440,3010401185122,新規,0,2024-09-24,2024-09-24,Ａｍｕｌｅｔ株式会社,,株式会社,東京都,港区,港南３丁目８番１号港南ハイツ１２１０,,13,103,1080075,,,,,,,2024-09-24,1,,,,,アミュレット,0
441,3010401185238,新規,0,2024-09-24,2024-09-24,株式会社１０．２,,株式会社,東京都,港区,南青山２丁目２－１５ＷｉｎＡｏｙａｍａビルＵＣＦ６３５,,13,103,1070062,,,,,,,2024-09-24,1,,,,,テンポイントツー,0
442,3010401185246,新規,0,2024-09-24,2024-09-24,ＤＮＫ　Ｊａｐａｎ株式会社,,株式会社,東京都,港区,西麻布１丁目４番４０号西麻布ＳＨＩＮＯビル４階,,13,103,1060031,,,,,,,2024-09-24,1,,,,,ディーエヌケージャパン,0
443,3010401185254,新規,0,2024-09-24,2024-09-24,株式会社ファーストパートナーズ・プロモーション,,株式会社,東京都,港区,赤坂３丁目１１番３号,,13,103,1070052,,,,,,,2024-09-24,1,,,,,ファーストパートナーズプロモーション,0
446,3010405023591,新規,0,2024-09-24,2024-09-24,ソーラータンチョウ一般社団法人,,その他の設立登記法人,東京都,港区,南青山２丁目１３番２号サンライズ青山２Ｆ青山国際税理士法人内,,13,103,1070062,,,,,,,2024-09-24,1,,,,,ソーラータンチョウ,0
458,3011001164747,新規,0,2024-09-24,2024-09-24,まごころ製薬株式会社,,株式会社,東京都,渋谷区,道玄坂１丁目１６－６二葉ビル８ｂ,,13,113,1500043,,,,,,,2024-09-24,1,,,,,マゴコロセイヤク,0
461,3011003020056,新規,0,2024-09-24,2024-09-24,Ｏｆｆｉｃｅ　Ｆｒｅｉｈｅｉｔ合同会社,,合同会社,東京都,渋谷区,恵比寿西２丁目８番４号ＥＸ恵比寿西ビル５階,,13,113,1500021,,,,,,,2024-09-24,1,,,,,オフィスフライハイト,0
469,3011101108868,新規,0,2024-09-24,2024-09-24,株式会社Ｌｅａｄ　Ｔｈｅ　Ｇｅｎｅｒａｔｉｏｎ,,株式会社,東京都,新宿区,西新宿３丁目３番１３号西新宿水間ビル６階,,13,104,1600023,,,,,,,2024-09-24,1,,,,,リードザジェネレーション,0
470,3011103014924,新規,0,2024-09-24,2024-09-24,合同会社ＴＹコンサルティング,,合同会社,東京都,新宿区,西新宿４丁目６番８号西新宿エスワイヒルズ２０９,,13,104,1600023,,,,,,,2024-09-24,1,,,,,ティーワイコンサルティング,0
473,3011301030013,新規,0,2024-09-24,2024-09-24,信幸株式会社,,株式会社,東京都,杉並区,上高井戸２丁目１番１７号１０４,,13,115,1680074,,,,,,,2024-09-24,1,,,,,シンコウ,0
474,3011303005293,新規,0,2024-09-24,2024-09-24,ＷＯＬＦＬＯＣＫ合同会社,,合同会社,東京都,杉並区,天沼３丁目３０番２号,,13,115,1670032,,,,,,,2024-09-24,1,,,,,フルフロック,0
476,3011403004501,新規,0,2024-09-24,2024-09-24,合同会社ＳＩＲＩＵＳ,,合同会社,東京都,板橋区,若木１丁目２３－７若木コーポ２０３,,13,119,1740065,,,,,,,2024-09-24,1,,,,,シリウス,0
478,3011503006232,新規,0,2024-09-24,2024-09-24,合同会社マスカット,,合同会社,東京都,荒川区,町屋４丁目１７－１７－２０２,,13,118,1160001,,,,,,,2024-09-24,1,,,,,マスカット,0
480,3011801044867,新規,0,2024-09-24,2024-09-24,株式会社ＫＩＣＨＩ,,株式会社,東京都,足立区,綾瀬１丁目３１番１１号Ａ－１ビル１０１,,13,121,1200005,,,,,,,2024-09-24,1,,,,,キチ,0
481,3012301014088,新規,0,2024-09-24,2024-09-24,株式会社Ｎｙｘ,,株式会社,東京都,町田市,三輪緑山１丁目２９番地１８,,13,209,1950055,,,,,,,2024-09-24,1,,,,,ニュクス,0
494,3020001159228,新規,0,2024-09-24,2024-09-24,イージアへジャパン株式会社,,株式会社,神奈川県,横浜市西区,中央１丁目３５－３三上ビル２Ｆ,,14,103,2200051,,,,,,,2024-09-24,1,,,,,イージアヘジャパン,0
495,3020001159236,新規,0,2024-09-24,2024-09-24,株式会社ＪＣＫ,,株式会社,神奈川県,横浜市中区,長者町２丁目５－１８－７０２,,14,104,2310033,,,,,,,2024-09-24,1,,,,,ジェイシーケイ,0
497,3020003026938,新規,0,2024-09-24,2024-09-24,Ｊｕｓｔｉｔｉａ　ｐａｒｔｎｅｒｓ合同会社,,合同会社,神奈川県,横浜市旭区,若葉台１丁目３番１３０１号,,14,112,2410801,,,,,,,2024-09-24,1,,,,,ユースティティアパートナーズ,0
499,3020005016549,新規,0,2024-09-24,2024-09-24,一般社団法人神奈川県演劇連盟,,その他の設立登記法人,神奈川県,横浜市保土ケ谷区,峰岡町２丁目３３８番地プリムヴェールＪ－１０８,,14,106,2400064,,,,,,,2024-09-24,1,,,,,カナガワケンエンゲキレンメイ,0
511,3030003025146,新規,0,2024-09-24,2024-09-24,エックスレゾネイト合同会社,,合同会社,埼玉県,北葛飾郡松伏町,田中３丁目１２番地２,,11,465,3430117,,,,,,,2024-09-24,1,,,,,エックスレゾネイト,0
515,3040001135367,新規,0,2024-09-24,2024-09-24,株式会社大成,,株式会社,千葉県,千葉市中央区,大森町５３５番地５２,,12,101,2600811,,,,,,,2024-09-24,1,,,,,タイセイ,0
536,3120001268588,新規,0,2024-09-24,2024-09-24,株式会社東プロ,,株式会社,大阪府,大阪市西区,京町堀１丁目１２５番地,,27,106,5500003,,,,,,,2024-09-24,1,,,,,トウプロ,0
537,3120001268712,新規,0,2024-09-24,2024-09-24,株式会社ルートコネクト,,株式会社,大阪府,大阪市中央区,農人橋２丁目３番８－９０５号,,27,128,5400011,,,,,,,2024-09-24,1,,,,,ルートコネクト,0
538,3120001268729,新規,0,2024-09-24,2024-09-24,株式会社ＪＳＴ,,株式会社,大阪府,大阪市西成区,松２丁目５－３,,27,122,5570034,,,,,,,2024-09-24,1,,,,,ジェイエスティー,0
539,3120001268745,新規,0,2024-09-24,2024-09-24,株式会社ヨロズ・トータルアクシア,,株式会社,大阪府,大阪市北区,長柄中２丁目６番２４号,,27,127,5310062,,,,,,,2024-09-24,1,,,,,ヨロズトータルアクシア,0
543,3120003027587,新規,0,2024-09-24,2024-09-24,合同会社藍,,合同会社,大阪府,大阪市東淀川区,東中島５丁目１６番７号２０２,,27,114,5330033,,,,,,,2024-09-24,1,,,,,アオ,0
544,3120005024541,新規,0,2024-09-24,2024-09-24,一般社団法人綾美会,,その他の設立登記法人,大阪府,大阪市中央区,西心斎橋１丁目１０番１６号３階,,27,128,5420086,,,,,,,2024-09-24,1,,,,,リョウビカイ,0
562,3140001135852,新規,0,2024-09-24,2024-09-24,ＭＩＮＨ　ＫＨＯＩ株式会社,,株式会社,兵庫県,神戸市中央区,八雲通５丁目３番７号,,28,110,6510078,,,,,,,2024-09-24,1,,,,,ミンコイ,0
574,3180003027367,新規,0,2024-09-24,2024-09-24,合同会社河合商事,,合同会社,愛知県,日進市,岩崎台１丁目５０６番地,,23,230,4700135,,,,,,,2024-09-24,1,,,,,カワイショウジ,0
575,3180003027383,新規,0,2024-09-24,2024-09-24,合同会社田村商店,,合同会社,愛知県,名古屋市中村区,十王町６－１２ＦＲＥＥＳＩＡ３Ｂ,,23,105,4530035,,,,,,,2024-09-24,1,,,,,タムラショウテン,0
584,3220001026218,新規,0,2024-09-24,2024-09-24,株式会社松本建築,,株式会社,石川県,金沢市,上荒屋５丁目４７３番地,,17,201,9218065,,,,,,,2024-09-24,1,,,,,マツモトケンチク,0
591,3290005019509,新規,0,2024-09-24,2024-09-24,一般社団法人九州みらい共創,,その他の設立登記法人,福岡県,久留米市,六ツ門町２１番地６久留米東町公園ビル１階くるめ創業ロケット内,,40,203,8300031,,,,,,,2024-09-24,1,,,,,キュウシュウミライキョウソウ,0
592,3290801030899,新規,0,2024-09-24,2024-09-24,株式会社ファースト,,株式会社,福岡県,北九州市八幡東区,西本町２丁目５番７号,,40,108,8050061,,,,,,,2024-09-24,1,,,,,ファースト,0
595,3320001020722,新規,0,2024-09-24,2024-09-24,地域ＳＯＺＯ株式会社,,株式会社,大分県,別府市,田の湯町３番７号アライアンスタワーＺ４階,,44,202,8740909,,,,,,,2024-09-24,1,,,,,チイキソウゾウ,0
599,3330003010571,新規,0,2024-09-24,2024-09-24,合同会社Ｎｉｔ,,合同会社,熊本県,人吉市,西間上町２５３２番地５,,43,203,8680071,,,,,,,2024-09-24,1,,,,,ニット,0
602,3330005010826,新規,0,2024-09-24,2024-09-24,医療法人一穂会,,その他の設立登記法人,熊本県,合志市,須屋７０６番２号ラポール柴田ＩＩ１０３号,00136374,43,216,8611102,,,,,,,2024-09-24,1,,,,,イッスイカイ,0
622,3440001009497,新規,0,2024-09-24,2024-09-24,株式会社大伸建設運輸,,株式会社,北海道,函館市,赤川町５５９番地４５,,01,202,0410804,,,,,,,2024-09-24,1,,,,,タイシンケンセツウンユ,0
632,4010001248393,新規,0,2024-09-24,2024-09-24,ＨＯＴＯ　ＴＥＣＨＮＯＬＯＧＹ　ＪＡＰＡＮ株式会社,,株式会社,東京都,中央区,銀座１丁目２２番１１号銀座大竹ビジデンス２Ｆ,,13,102,1040061,,,,,,,2024-09-24,1,,,,,ホトテクノロジージャパン,0
633,4010001248427,新規,0,2024-09-24,2024-09-24,星和ホールディングス株式会社,,株式会社,東京都,千代田区,平河町２丁目１６番９号永田町グラスゲート６階ＡＣＡ株式会社内,,13,101,1020093,,,,,,,2024-09-24,1,,,,,セイワホールディングス,0
634,4010001248468,新規,0,2024-09-24,2024-09-24,株式会社Ｃｒｅｗ　Ｓｈｉｎｅ,,株式会社,東京都,中央区,日本橋室町１丁目１１番１２号日本橋水野ビル７階,,13,102,1030022,,,,,,,2024-09-24,1,,,,,クルーシャイン,0
635,4010001248476,新規,0,2024-09-24,2024-09-24,株式会社Ｋ．Ｐ．ＪＡＰＡＮ,,株式会社,東京都,中央区,日本橋小網町３番１４号茅場町Ｋ－１ビル７階－Ａ,,13,102,1030016,,,,,,,2024-09-24,1,,,,,ケーピージャパン,0
636,4010001248484,新規,0,2024-09-24,2024-09-24,株式会社ＳＴＡＲ　ＳＥＥＫ,,株式会社,東京都,中央区,銀座６丁目６番１号銀座風月堂ビル５Ｆ,,13,102,1040061,,,,,,,2024-09-24,1,,,,,スターシーク,0
649,4010401185261,新規,0,2024-09-24,2024-09-24,ＰＡＲＡＭＡＴＲＩＸ　ＴＥＣＨＮＯＬＯＧＩＥＳ株式会社,,株式会社,東京都,港区,三田１丁目３番４０号麻布十番ＢＵＳＩＮＥＳＳＣＵＢＥ－Ｓ天翔オフィス麻布十番５階５１０号室,,13,103,1080073,,,,,,,2024-09-24,1,,,,,パラマトリックステクノロジーズ,0
651,4010503007578,新規,0,2024-09-24,2024-09-24,合同会社ＴＯＭＯＳ,,合同会社,東京都,台東区,浅草７丁目２―４,,13,106,1110032,,,,,,,2024-09-24,1,,,,,トモス,0
653,4010601065949,新規,0,2024-09-24,2024-09-24,株式会社ＮｅｗＢｌａｚｅ,,株式会社,東京都,江東区,亀戸９丁目１６番５－１２０４号,,13,108,1360071,,,,,,,2024-09-24,1,,,,,ニューブレイズ,0
654,4010601065957,新規,0,2024-09-24,2024-09-24,株式会社ＬＴＨ,,株式会社,東京都,墨田区,江東橋３丁目６番９号２階,,13,107,1300022,,,,,,,2024-09-24,1,,,,,エルティーエイチ,0
657,4010901056020,新規,0,2024-09-24,2024-09-24,株式会社楽,,株式会社,東京都,世田谷区,弦巻４丁目３番１３号グリーンキャピタル弦巻２０３号,,13,112,1540016,,,,,,,2024-09-24,1,,,,,ラク,0
661,4011001164597,新規,0,2024-09-24,2024-09-24,株式会社ＷＥＢＲＩＥＳ,,株式会社,東京都,渋谷区,代官山町１３番８号キャッスルマンション代官山５１３号,,13,113,1500034,,,,,,,2024-09-24,1,,,,,ウェブリーズ,0
662,4011001164770,新規,0,2024-09-24,2024-09-24,株式会社エムエイチ,,株式会社,東京都,渋谷区,広尾１丁目１１番２号ＢＬＯＣＫＳ恵比寿,,13,113,1500012,,,,,,,2024-09-24,1,,,,,エムエイチ,0
673,4011303005292,新規,0,2024-09-24,2024-09-24,合同会社ソニック,,合同会社,東京都,杉並区,下高井戸４丁目４番２号アクサス桜上水アジールコート２０２,,13,115,1680073,,,,,,,2024-09-24,1,,,,,ソニック,0
674,4011401026455,新規,0,2024-09-24,2024-09-24,株式会社Ｗｉｔｈ,,株式会社,東京都,板橋区,高島平１丁目７４番１４号,,13,119,1750082,,,,,,,2024-09-24,1,,,,,ウィズ,0
677,4012301014087,新規,0,2024-09-24,2024-09-24,株式会社ＲＥ　ｎａｍｅ,,株式会社,東京都,町田市,金井ヶ丘４丁目８番３号,,13,209,1950076,,,,,,,2024-09-24,1,,,,,リネーム,0
678,4012803003513,新規,0,2024-09-24,2024-09-24,合同会社プラトピエル,,合同会社,東京都,国分寺市,泉町３丁目３５番１－７０５号西国分寺レガ,,13,214,1850024,,,,,,,2024-09-24,1,,,,,プラトピエル,0
680,4013303007327,新規,0,2024-09-24,2024-09-24,合同会社ＧｒｏｗｔｈＢｕｉｌｄ,,合同会社,東京都,豊島区,池袋３丁目３４－７ビジネスパーク池袋２階,,13,116,1710014,,,,,,,2024-09-24,1,,,,,グロースビルド,0
692,4020001159202,新規,0,2024-09-24,2024-09-24,株式会社Ｎｏ．９,,株式会社,神奈川県,横浜市金沢区,町屋町３０番３号,,14,108,2360022,,,,,,,2024-09-24,1,,,,,ナンバーナイン,0
693,4020001159235,新規,0,2024-09-24,2024-09-24,株式会社せりさん,,株式会社,神奈川県,横浜市青葉区,あざみ野３丁目２番地あざみ野団地２４棟１０３号,,14,117,2250011,,,,,,,2024-09-24,1,,,,,セリサン,0
694,4020001159268,新規,0,2024-09-24,2024-09-24,アドヴィス株式会社,,株式会社,神奈川県,横浜市青葉区,桜台３１番地コスモ青葉台コートフォルム３０９号,,14,117,2270061,,,,,,,2024-09-24,1,,,,,アドヴィス,0
695,4020001159318,新規,0,2024-09-24,2024-09-24,株式会社ＹＡキャピタル,,株式会社,神奈川県,川崎市多摩区,登戸新町５４番地１,,14,135,2140013,,,,,,,2024-09-24,1,,,,,ワイエーキャピタル,0
696,4020001159342,新規,0,2024-09-24,2024-09-24,株式会社光学堂,,株式会社,神奈川県,横浜市西区,中央２丁目６番５号,,14,103,2200051,,,,,,,2024-09-24,1,,,,,コウガクドウ,0
699,4020003026912,新規,0,2024-09-24,2024-09-24,合同会社ｍｉｏｅｌ,,合同会社,神奈川県,川崎市宮前区,犬蔵２丁目１３番５８－４０４号エステ・スクエアたまプラーザ,,14,136,2160011,,,,,,,2024-09-24,1,,,,,ミオエル,0
707,4030001162543,新規,0,2024-09-24,2024-09-24,イカサービス株式会社,,株式会社,埼玉県,越谷市,蒲生旭町１番５６号コーポ西山１０２室,,11,222,3430842,,,,,,,2024-09-24,1,,,,,イカサービス,0
708,4030001162601,新規,0,2024-09-24,2024-09-24,ハイシン株式会社,,株式会社,埼玉県,さいたま市浦和区,上木崎２丁目２番１６号アイワビル２階,,11,107,3300071,,,,,,,2024-09-24,1,,,,,ハイシン,0
709,4030003025161,新規,0,2024-09-24,2024-09-24,合同会社エクワインガーデン,,合同会社,埼玉県,比企郡滑川町,大字土塩１８６番地,,11,341,3550801,,,,,,,2024-09-24,1,,,,,エクワインガーデン,0
715,4040001135416,新規,0,2024-09-24,2024-09-24,株式会社クレール,,株式会社,千葉県,船橋市,本中山３丁目１１－１９石塚ビル３階,,12,204,2730035,,,,,,,2024-09-24,1,,,,,クレール,0
716,4040001135457,新規,0,2024-09-24,2024-09-24,江川産業株式会社,,株式会社,千葉県,茂原市,中の島町５５２番地,,12,210,2970034,,,,,,,2024-09-24,1,,,,,エガワサンギョウ,0
717,4040001135473,新規,0,2024-09-24,2024-09-24,株式会社ＫＥＩＹＯ建設,,株式会社,千葉県,千葉市中央区,末広３丁目２５番１７－２号,,12,101,2600843,,,,,,,2024-09-24,1,,,,,ケイヨーケンセツ,0
718,4040001135481,新規,0,2024-09-24,2024-09-24,株式会社博愛,,株式会社,千葉県,流山市,西松ケ丘１丁目２１－４,,12,220,2700142,,,,,,,2024-09-24,1,,,,,ハクアイ,0
720,4050001055431,新規,0,2024-09-24,2024-09-24,Ｌ．Ｓ．Ｄｅｓｉｇｎ株式会社,,株式会社,茨城県,つくば市,横町３２６番地１,,08,220,3050017,,,,,,,2024-09-24,1,,,,,エルエスデザイン,0
731,4090001018913,新規,0,2024-09-24,2024-09-24,株式会社ＴＡＴＳＵＯ,,株式会社,山梨県,南都留郡富士河口湖町,船津５１２２番地,,19,430,4010301,,,,,,,2024-09-24,1,,,,,タツオ,0
748,4120001268736,新規,0,2024-09-24,2024-09-24,株式会社おひさま,,株式会社,大阪府,大阪市中央区,南船場３丁目２番２２号おおきに南船場ビル２０５,,27,128,5420081,,,,,,,2024-09-24,1,,,,,オヒサマ,0
754,4120101070315,新規,0,2024-09-24,2024-09-24,株式会社オール,,株式会社,大阪府,和泉市,府中町２丁目１番２４号,,27,219,5940071,,,,,,,2024-09-24,1,,,,,オール,0
761,4140001135843,新規,0,2024-09-24,2024-09-24,サザエセールス東日本株式会社,,株式会社,兵庫県,西宮市,上大市４丁目１７番１８号,,28,204,6638003,,,,,,,2024-09-24,1,,,,,サザエセールスヒガシニホン,0
765,4150001027577,新規,0,2024-09-24,2024-09-24,株式会社ＣＯＮＳＣＩＯＵＳ,,株式会社,奈良県,桜井市,大字三輪４８０番地６,,29,206,6330001,,,,,,,2024-09-24,1,,,,,コンシャス,0
770,4160001026223,新規,0,2024-09-24,2024-09-24,株式会社ビルカ,,株式会社,滋賀県,大津市,堅田１丁目５番４９号,,25,201,5200243,,,,,,,2024-09-24,1,,,,,ビルカ,0
776,4180001163329,新規,0,2024-09-24,2024-09-24,株式会社ひびきのき,,株式会社,愛知県,名古屋市中区,錦３丁目１番１４号プレサンス錦プレミアム１００３号,,23,106,4600003,,,,,,,2024-09-24,1,,,,,ヒビキノキ,0
777,4180001163337,新規,0,2024-09-24,2024-09-24,株式会社長田建設,,株式会社,愛知県,東海市,大田町上浜田１８５番地の２,,23,222,4770031,,,,,,,2024-09-24,1,,,,,オサダケンセツ,0
778,4180001163345,新規,0,2024-09-24,2024-09-24,株式会社ビジョンインサイト,,株式会社,愛知県,名古屋市千種区,池下町２丁目６３番地の２５（グランドメゾン池下ザ・タワー２１０３号）,,23,101,4640066,,,,,,,2024-09-24,1,,,,,ビジョンインサイト,0
779,4180001163361,新規,0,2024-09-24,2024-09-24,株式会社ｆｕｃｔ,,株式会社,愛知県,瀬戸市,西原町２丁目１番地１せと丸ビル２階２Ａ号室,,23,204,4890972,,,,,,,2024-09-24,1,,,,,ファクト,0
782,4180301039071,新規,0,2024-09-24,2024-09-24,株式会社ＳＵＮＬＩＮＯ,,株式会社,愛知県,豊田市,挙母町４丁目１０番地２,,23,211,4710023,,,,,,,2024-09-24,1,,,,,サンリノ,0
784,4200001042950,新規,0,2024-09-24,2024-09-24,株式会社シーアンドエス,,株式会社,岐阜県,各務原市,川島河田町２５５番地６,,21,213,5016025,,,,,,,2024-09-24,1,,,,,シーアンドエス,0
785,4200005013667,新規,0,2024-09-24,2024-09-24,一般社団法人しん託サポート協会,,その他の設立登記法人,岐阜県,恵那市,長島町正家１０５８番地３,,21,210,5097203,,,,,,,2024-09-24,1,,,,,シンタクサポートキョウカイ,0
786,4210001019915,新規,0,2024-09-24,2024-09-24,株式会社道端ホールディングス,,株式会社,福井県,福井市,長本町２０９番地,,18,201,9100844,,,,,,,2024-09-24,1,,,,,ミチバタホールディングス,0
787,4220001026217,新規,0,2024-09-24,2024-09-24,株式会社チョウナ縫製,,株式会社,石川県,河北郡内灘町,字西荒屋ロ３６番地,,17,365,9200262,,,,,,,2024-09-24,1,,,,,チョウナホウセイ,0
791,4240003006867,新規,0,2024-09-24,2024-09-24,ＰＮ合同会社,,合同会社,広島県,広島市西区,横川町３丁目３番７号,,34,104,7330011,,,,,,,2024-09-24,1,,,,,ピーエヌ,0
796,4290003015839,新規,0,2024-09-24,2024-09-24,合同会社はやぶさホーム,,合同会社,福岡県,福岡市博多区,吉塚２丁目３番８－２０２号,,40,132,8120041,,,,,,,2024-09-24,1,,,,,ハヤブサホーム,0
798,4290005019508,新規,0,2024-09-24,2024-09-24,一般社団法人日本華人不動産連合会,,その他の設立登記法人,福岡県,福岡市東区,香椎照葉３丁目３番１号,,40,131,8130017,,,,,,,2024-09-24,1,,,,,ニホンカジンフドウサンレンゴウカイ,0
799,4300001013909,新規,0,2024-09-24,2024-09-24,株式会社エスズプランニング,,株式会社,佐賀県,佐賀市,新郷本町１０番１０－１号,,41,201,8400017,,,,,,,2024-09-24,1,,,,,エスズプランニング,0
803,4310003004863,新規,0,2024-09-24,2024-09-24,合同会社アボカドプロジェクト,,合同会社,長崎県,長崎市,西町３１－５－１１０,,42,201,8528043,,,,,,,2024-09-24,1,,,,,アボカドプロジェクト,0
805,4330003010570,新規,0,2024-09-24,2024-09-24,ｈａｎａｉｚｕｍｉ合同会社,,合同会社,熊本県,熊本市中央区,九品寺３丁目２番２０号,,43,101,8620976,,,,,,,2024-09-24,1,,,,,ハナイズミ,0
807,4350001019190,新規,0,2024-09-24,2024-09-24,株式会社Ｍａｋｅミート,,株式会社,宮崎県,東諸県郡国富町,大字森永２４５４－５,,45,382,8801106,,,,,,,2024-09-24,1,,,,,メイクミート,0
808,4360003014321,新規,0,2024-09-24,2024-09-24,合同会社ムナゾン,,合同会社,沖縄県,那覇市,首里大名町１丁目１５０番地４,,47,201,9030802,,,,,,,2024-09-24,1,,,,,ムナゾン,0
822,4400001016793,新規,0,2024-09-24,2024-09-24,株式会社ワシオ,,株式会社,岩手県,北上市,常盤台３丁目１５番１９号,,03,206,0240012,,,,,,,2024-09-24,1,,,,,ワシオ,0
828,4430001092709,新規,0,2024-09-24,2024-09-24,株式会社匠建設,,株式会社,北海道,札幌市白石区,南郷通２丁目南２番１－２０１号,,01,104,0030022,,,,,,,2024-09-24,1,,,,,タクミケンセツ,0
830,4462501001014,新規,0,2024-09-24,2024-09-24,株式会社ＯＮＥ　ＲＥＰ,,株式会社,北海道,野付郡別海町,西春別幸町２３番地,,01,691,0882571,,,,,,,2024-09-24,1,,,,,ワンレップ,0
834,4700150127279,新規,0,2024-09-24,2024-09-24,Ｒｉｓｅ　Ｌａｎｄｓｃａｐｅ　Ｃｏ．，Ｌｔｄ．,,外国会社等,,,,,,,,Ｌｅ　Ｓａｎａｌｅｌｅ　Ｃｏｍｐｌｅｘ，Ｇｏｌｄ－Ｉｎ　Ｃｈａｍｂｅｒｓ，Ｖａｅａ　Ｓｔｒｅｅｔ，Ａｐｉａ，Ｓａｍｏａ,,,,,,2024-09-24,1,,,,,ライズランドスケープ,0
844,5010001248459,新規,0,2024-09-24,2024-09-24,株式会社シンセイ不動産管理,,株式会社,東京都,中央区,銀座６丁目５番８号,,13,102,1040061,,,,,,,2024-09-24,1,,,,,シンセイフドウサンカンリ,0
845,5010001248475,新規,0,2024-09-24,2024-09-24,株式会社正恒総合サービス,,株式会社,東京都,中央区,日本橋浜町２丁目１６番６－８０２号,,13,102,1030007,,,,,,,2024-09-24,1,,,,,セイコウソウゴウサービス,0
849,5010003044988,新規,0,2024-09-24,2024-09-24,Ｔａｉｌｏｒ２合同会社,,合同会社,東京都,千代田区,丸の内１丁目４番１号東京共同会計事務所内,,13,101,1000005,,,,,,,2024-09-24,1,,,,,テイラーツー,0
852,5010005038848,新規,0,2024-09-24,2024-09-24,一般財団法人傳通院文化村,,その他の設立登記法人,東京都,文京区,小石川３丁目１４番６号,,13,105,1120002,,,,,,,2024-09-24,1,,,,,デンツウインブンカムラ,0
862,5010401185260,新規,0,2024-09-24,2024-09-24,Ｓｅｎｃｈｉ　Ｖｅｎｔｕｒｅｓ株式会社,,株式会社,東京都,港区,芝大門１丁目１０番１１号,,13,103,1050012,,,,,,,2024-09-24,1,,,,,センチベンチャーズ,0
863,5010403033459,新規,0,2024-09-24,2024-09-24,合同会社アイズ,,合同会社,東京都,港区,麻布台３丁目５－５－６０１,,13,103,1060041,,,,,,,2024-09-24,1,,,,,アイズ,0
867,5010601065964,新規,0,2024-09-24,2024-09-24,株式会社ＳＨＵＫＵＲＩ,,株式会社,東京都,江東区,東雲１丁目９－１８－５１８,,13,108,1350062,,,,,,,2024-09-24,1,,,,,シュクリ,0
869,5010603011108,新規,0,2024-09-24,2024-09-24,合同会社ＵＢＡ,,合同会社,東京都,江東区,白河１丁目３番１号２階,,13,108,1350021,,,,,,,2024-09-24,1,,,,,ユービーエー,0
879,5011001164753,新規,0,2024-09-24,2024-09-24,株式会社半月社,,株式会社,東京都,渋谷区,本町１丁目２０番２号,,13,113,1510071,,,,,,,2024-09-24,1,,,,,ハンゲツシャ,0
882,5011005010672,新規,0,2024-09-24,2024-09-24,一般社団法人Ｓｋｉ　Ｃｒｏｓｓ　Ａｔｈｌｅｔｅｓ,,その他の設立登記法人,東京都,渋谷区,道玄坂１丁目１０番８号渋谷道玄坂東急ビル２Ｆ－Ｃ,,13,113,1500043,,,,,,,2024-09-24,1,,,,,スキークロスアスリーツ,0
886,5011101108866,新規,0,2024-09-24,2024-09-24,株式会社ＵＮＩＣＵＳ,,株式会社,東京都,新宿区,天神町６４－１４,,13,104,1620808,,,,,,,2024-09-24,1,,,,,ユニクス,0
887,5011101108874,新規,0,2024-09-24,2024-09-24,株式会社ホサカホールディングス,,株式会社,東京都,新宿区,西新宿６丁目６番３号,,13,104,1600023,,,,,,,2024-09-24,1,,,,,ホサカホールディングス,0
891,5011303005291,新規,0,2024-09-24,2024-09-24,合同会社ＭＡＲＣＨコンサルティング,,合同会社,東京都,杉並区,上井草２丁目１９番５号,,13,115,1670023,,,,,,,2024-09-24,1,,,,,マーチコンサルティング,0
898,5012301014086,新規,0,2024-09-24,2024-09-24,株式会社小田工業,,株式会社,東京都,町田市,三輪町１３４番地６,,13,209,1950054,,,,,,,2024-09-24,1,,,,,オダコウギョウ,0
902,5013303007318,新規,0,2024-09-24,2024-09-24,金陽光合同会社,,合同会社,東京都,豊島区,西池袋１丁目３１－５白井ビル３－１号室,,13,116,1710021,,,,,,,2024-09-24,1,,,,,キンヨウコウ,0
914,5020001159234,新規,0,2024-09-24,2024-09-24,株式会社魚有,,株式会社,神奈川県,横浜市港北区,綱島西２丁目６番２７号,,14,109,2230053,,,,,,,2024-09-24,1,,,,,ウオユウ,0
915,5020001159291,新規,0,2024-09-24,2024-09-24,エス・アイ・シー株式会社,,株式会社,神奈川県,横浜市旭区,中白根４丁目１番２－３２８号,,14,112,2410004,,,,,,,2024-09-24,1,,,,,エスアイシー,0
920,5021001083283,新規,0,2024-09-24,2024-09-24,株式会社ＫＭＣ,,株式会社,神奈川県,厚木市,下荻野３７２番地１仲居ハイツ,,14,212,2430203,,,,,,,2024-09-24,1,,,,,ケーエムシイ,0
927,5030003025152,新規,0,2024-09-24,2024-09-24,合同会社ＶＩＳＩＯＮ,,合同会社,埼玉県,東松山市,五領町１５番地２１ＣｉｅｌＩＩ,00136370,11,212,3550031,,,,,,,2024-09-24,1,,,,,ヴィジョン,0
930,5040001135398,新規,0,2024-09-24,2024-09-24,株式会社まなびーいんぐ,,株式会社,千葉県,千葉市中央区,中央２丁目５―１千葉中央ツインビル２号館７階,,12,101,2600013,,,,,,,2024-09-24,1,,,,,マナビーイング,0
933,5050001055439,新規,0,2024-09-24,2024-09-24,株式会社菱彩,,株式会社,茨城県,水戸市,千波町２０２８番地１,,08,201,3100851,,,,,,,2024-09-24,1,,,,,リョウサイ,0
936,5050003008675,新規,0,2024-09-24,2024-09-24,合同会社Ｐｅａｃｅ　Ｃｒｅａｔｅ,,合同会社,茨城県,水戸市,酒門町４２３７番地の５,,08,201,3100841,,,,,,,2024-09-24,1,,,,,ピースクリエイト,0
937,5050003008683,新規,0,2024-09-24,2024-09-24,合同会社和堂,,合同会社,茨城県,つくば市,大角豆２０１２番地７１４,,08,220,3050043,,,,,,,2024-09-24,1,,,,,ワドウ,0
938,5050003008700,新規,0,2024-09-24,2024-09-24,ＪＡＰＡＮＥＸＰＯＲＴ合同会社,,合同会社,茨城県,龍ケ崎市,久保台２丁目１－５,,08,208,3010001,,,,,,,2024-09-24,1,,,,,ジャパンエクスポート,0
944,5070001042195,新規,0,2024-09-24,2024-09-24,株式会社ＡＵＴＯ　ＴＳＵＲＵ,,株式会社,群馬県,佐波郡玉村町,大字飯倉１１２番地５,,10,464,3701116,,,,,,,2024-09-24,1,,,,,オートツル,0
949,5080101025017,新規,0,2024-09-24,2024-09-24,株式会社ＣＯＣＣＯ不動産,,株式会社,静岡県,三島市,三恵台３６番地の４,,22,206,4110017,,,,,,,2024-09-24,1,,,,,コッコフドウサン,0
958,5110001038718,新規,0,2024-09-24,2024-09-24,ひるのえんがわ株式会社,,株式会社,新潟県,五泉市,蛭野４６２番地,,15,218,9591735,,,,,,,2024-09-24,1,,,,,ヒルノエンガワ,0
972,5120101070314,新規,0,2024-09-24,2024-09-24,株式会社ＳＩＬＶＥＲ　ＣＩＲＣＬＥ,,株式会社,大阪府,堺市堺区,市之町東４丁２番１３－８０４号,,27,141,5900952,,,,,,,2024-09-24,1,,,,,シルバーサークル,0
974,5122003003005,新規,0,2024-09-24,2024-09-24,合同会社秀鉄,,合同会社,大阪府,東大阪市,岩田町４丁目３番４６－２８１０号,,27,227,5780941,,,,,,,2024-09-24,1,,,,,ヒデテツ,0
987,5140001135834,新規,0,2024-09-24,2024-09-24,株式会社Ｍｅｌｌｏｗ,,株式会社,兵庫県,姫路市,花影町３丁目７－２,,28,201,6700047,,,,,,,2024-09-24,1,,,,,メロウ,0
988,5140001135842,新規,0,2024-09-24,2024-09-24,あのんセールス株式会社,,株式会社,兵庫県,西宮市,上大市４丁目１７番１８号,,28,204,6638003,,,,,,,2024-09-24,1,,,,,アノンセールス,0
989,5140001135850,新規,0,2024-09-24,2024-09-24,ＳＲＡＳ株式会社,,株式会社,兵庫県,西宮市,苦楽園四番町８－１８,,28,204,6620088,,,,,,,2024-09-24,1,,,,,エスラス,0
991,5160001026222,新規,0,2024-09-24,2024-09-24,株式会社Ｇｒｅｅｎａｂｌｅ,,株式会社,滋賀県,長浜市,七条町１１４８番地,,25,203,5260817,,,,,,,2024-09-24,1,,,,,グリーナブル,0
994,5180001163336,新規,0,2024-09-24,2024-09-24,株式会社オダ工業,,株式会社,愛知県,名古屋市千種区,東山元町４丁目５３番地の１－２－３０２,,23,101,4640804,,,,,,,2024-09-24,1,,,,,オダコウギョウ,0
995,5180001163352,新規,0,2024-09-24,2024-09-24,株式会社スマイルＮ,,株式会社,愛知県,小牧市,中央１丁目４５２番地,,23,219,4850029,,,,,,,2024-09-24,1,,,,,スマイルエヌ,0
998,5180301039070,新規,0,2024-09-24,2024-09-24,株式会社ＮＩＣＯＴＴＯ,,株式会社,愛知県,豊田市,平戸橋町永和７３番地１１,,23,211,4700331,,,,,,,2024-09-24,1,,,,,ニコット,0
1002,5200001042958,新規,0,2024-09-24,2024-09-24,株式会社ＧＯＲＹＵ,,株式会社,岐阜県,岐阜市,下鵜飼１７３１番地８,,21,201,5011172,,,,,,,2024-09-24,1,,,,,ゴリュウ,0
1007,5230003002296,新規,0,2024-09-24,2024-09-24,合同会社グレイユ,,合同会社,富山県,富山市,西町８番１７号,,16,201,9300062,,,,,,,2024-09-24,1,,,,,グレイユ,0
1021,5290005019507,新規,0,2024-09-24,2024-09-24,一般社団法人飯塚国際教育センター,,その他の設立登記法人,福岡県,飯塚市,本町１０番２３号,,40,205,8200042,,,,,,,2024-09-24,1,,,,,イイヅカコクサイキョウイクセンター,0
1032,5360001034213,新規,0,2024-09-24,2024-09-24,株式会社ヴィラジュアップ,,株式会社,沖縄県,那覇市,松尾２丁目１２番１６－３０４号,,47,201,9000014,,,,,,,2024-09-24,1,,,,,ヴィラジュアップ,0
1033,5360001034221,新規,0,2024-09-24,2024-09-24,株式会社Ｊテック,,株式会社,沖縄県,うるま市,勝連南風原５１９４番７５（２階）,,47,213,9042311,,,,,,,2024-09-24,1,,,,,ジェイテック,0
1034,5360003014320,新規,0,2024-09-24,2024-09-24,ゆんゆん合同会社,,合同会社,沖縄県,国頭郡本部町,字備瀬２０３８番地１,,47,308,9050207,,,,,,,2024-09-24,1,,,,,ユンユン,0
1042,5400001016792,新規,0,2024-09-24,2024-09-24,株式会社ワークプラス,,株式会社,岩手県,北上市,青柳町１丁目７番２０号ＡＯＹＡＧＩ８０５ＢＩＬ３階Ｃ,,03,206,0240031,,,,,,,2024-09-24,1,,,,,ワークプラス,0
1049,5430001092708,新規,0,2024-09-24,2024-09-24,株式会社ｈｉｔｏｈａｎａ,,株式会社,北海道,札幌市白石区,平和通３丁目北５－８－７０７号,,01,104,0030029,,,,,,,2024-09-24,1,,,,,ヒトハナ,0
1051,5430003016805,新規,0,2024-09-24,2024-09-24,フックスレレ合同会社,,合同会社,北海道,札幌市中央区,北十八条西１５丁目３番１５号,,01,101,0600018,,,,,,,2024-09-24,1,,,,,フックスレレ,0
1052,5450001014412,新規,0,2024-09-24,2024-09-24,株式会社ＫＵＤＯ　ＨＯＬＤＩＮＧＳ,,株式会社,北海道,旭川市,三条通２丁目１４５１番地１,,01,204,0700033,,,,,,,2024-09-24,1,,,,,クドウホールディングス,0
1060,5490003001933,新規,0,2024-09-24,2024-09-24,ａｃｏｔｅ合同会社,,合同会社,高知県,高知市,土佐山１２０－７,,39,201,7813201,,,,,,,2024-09-24,1,,,,,アコテ,0
1061,5500001025890,新規,0,2024-09-24,2024-09-24,株式会社ＢＥＡＴＮＩＱ,,株式会社,愛媛県,松山市,旭町４７番地４,,38,201,7900876,,,,,,,2024-09-24,1,,,,,ビートニク,0
1070,6010001248458,新規,0,2024-09-24,2024-09-24,株式会社オンサイド,,株式会社,東京都,文京区,湯島１丁目１０番５号,,13,105,1130034,,,,,,,2024-09-24,1,,,,,オンサイド,0
1071,6010001248482,新規,0,2024-09-24,2024-09-24,ポラリス国際株式会社,,株式会社,東京都,中央区,日本橋本町４丁目１１－８日本橋本町ＲＳビル４０１号室,,13,102,1030023,,,,,,,2024-09-24,1,,,,,ポラリスコクサイ,0
1072,6010003044962,新規,0,2024-09-24,2024-09-24,合同会社トレーニングネクサス,,合同会社,東京都,中央区,日本橋人形町２丁目７番５－１５０４号,,13,102,1030013,,,,,,,2024-09-24,1,,,,,トレーニングネクサス,0
1074,6010005038847,新規,0,2024-09-24,2024-09-24,一般社団法人ワールドビューティアカデミー,,その他の設立登記法人,東京都,中央区,八丁堀２丁目３番２号小林ビル２Ｆ,,13,102,1040032,,,,,,,2024-09-24,1,,,,,ワールドビューティアカデミー,0
1075,6010101016327,新規,0,2024-09-24,2024-09-24,富川株式会社,,株式会社,東京都,八王子市,堀之内２５６－１７２東山２８－１－２Ｆ,,13,201,1920355,,,,,,,2024-09-24,1,,,,,トミカワ,0
1086,6010401185128,新規,0,2024-09-24,2024-09-24,株式会社ＳＳＬ,,株式会社,東京都,港区,港南４丁目２番７－２４１７号,,13,103,1080075,,,,,,,2024-09-24,1,,,,,エスエスエル,0
1087,6010403033425,新規,0,2024-09-24,2024-09-24,合同会社ＥＳＴトレーディング,,合同会社,東京都,港区,東麻布１丁目２３番５号ＰＭＣビル４階,,13,103,1060044,,,,,,,2024-09-24,1,,,,,イーエスティートレーディング,0
1088,6010403033441,新規,0,2024-09-24,2024-09-24,ソーラーヤマドリ合同会社,,合同会社,東京都,港区,南青山２丁目１３番２号サンライズ青山２Ｆ青山国際税理士法人内,,13,103,1070062,,,,,,,2024-09-24,1,,,,,ソーラーヤマドリ,0
1091,6010601065939,新規,0,2024-09-24,2024-09-24,株式会社ＮＩＦ,,株式会社,東京都,墨田区,業平５丁目１１番３－６０２号,,13,107,1300002,,,,,,,2024-09-24,1,,,,,エヌアイエフ,0
1095,6010901056010,新規,0,2024-09-24,2024-09-24,株式会社ＴＫモルド,,株式会社,東京都,世田谷区,喜多見３丁目１４番８号,,13,112,1570067,,,,,,,2024-09-24,1,,,,,ティーケーモルド,0
1100,6011001164760,新規,0,2024-09-24,2024-09-24,株式会社フラッグリード・パートナーズ,,株式会社,東京都,渋谷区,恵比寿西１丁目３０番２号,,13,113,1500021,,,,,,,2024-09-24,1,,,,,フラッグリードパートナーズ,0
1101,6011001164835,新規,0,2024-09-24,2024-09-24,株式会社Ｑｕｏｎｎ,,株式会社,東京都,渋谷区,道玄坂１丁目２１番１号３階,,13,113,1500043,,,,,,,2024-09-24,1,,,,,クオン,0
1109,6011101108849,新規,0,2024-09-24,2024-09-24,株式会社ＨＮＨコーポレーション,,株式会社,東京都,新宿区,百人町２丁目１番２号,,13,104,1690073,,,,,,,2024-09-24,1,,,,,エイチエンエイチコーポレーション,0
1110,6011101108865,新規,0,2024-09-24,2024-09-24,株式会社ゲンチアン,,株式会社,東京都,新宿区,西新宿３丁目３番１３号西新宿水間ビル,,13,104,1600023,,,,,,,2024-09-24,1,,,,,ゲンチアン,0
1113,6011201025804,新規,0,2024-09-24,2024-09-24,株式会社Ｆ,,株式会社,東京都,中野区,上高田４丁目１９番６－１０１号ＳＰＩＣＡ,,13,114,1640002,,,,,,,2024-09-24,1,,,,,エフ,0
1114,6011301030010,新規,0,2024-09-24,2024-09-24,ユーパリノス株式会社,,株式会社,東京都,杉並区,南荻窪２丁目５－１８－２０１,,13,115,1670052,,,,,,,2024-09-24,1,,,,,ユーパリノス,0
1116,6011401026445,新規,0,2024-09-24,2024-09-24,セブンルナス株式会社,,株式会社,東京都,板橋区,高島平３丁目８番３－１０５号東久南高島平ハイツ,,13,119,1750082,,,,,,,2024-09-24,1,,,,,セブンルナス,0
1121,6011801044856,新規,0,2024-09-24,2024-09-24,健和未来株式会社,,株式会社,東京都,足立区,東綾瀬３丁目１０番３－１０６号東綾瀬公園ハイライズシーズンスクエア,,13,121,1200004,,,,,,,2024-09-24,1,,,,,ケンワミライ,0
1127,6013301053131,新規,0,2024-09-24,2024-09-24,株式会社Ｗａｈ　Ｅｎｔｅｒｔａｉｎｍｅｎｔ,,株式会社,東京都,豊島区,東池袋１丁目４４番８号パークサイドビル６Ａ号,,13,116,1700013,,,,,,,2024-09-24,1,,,,,ワウエンターテインメント,0
1128,6013305003644,新規,0,2024-09-24,2024-09-24,レゾン行政書士法人,,その他の設立登記法人,東京都,豊島区,池袋２丁目３６番１,,13,116,1710014,,,,,,,2024-09-24,1,,,,,レゾン,0
1131,6020001159167,新規,0,2024-09-24,2024-09-24,トキタプロダクツ株式会社,,株式会社,神奈川県,横浜市西区,北幸１丁目１１番１号水信ビル７階,,14,103,2200004,,,,,,,2024-09-24,1,,,,,トキタプロダクツ,0
1132,6020001159217,新規,0,2024-09-24,2024-09-24,毅天国際株式会社,,株式会社,神奈川県,川崎市川崎区,砂子２丁目８番１号,,14,131,2100006,,,,,,,2024-09-24,1,,,,,キテンコクサイ,0
1133,6020001159241,新規,0,2024-09-24,2024-09-24,株式会社ＫＫライズ,,株式会社,神奈川県,川崎市川崎区,小田栄１丁目１２－１１－６,,14,131,2100843,,,,,,,2024-09-24,1,,,,,ケイケイライズ,0
1134,6020001159308,新規,0,2024-09-24,2024-09-24,株式会社０３３,,株式会社,神奈川県,川崎市麻生区,上麻生３丁目１４番１６号フルハウスループ１０１,,14,137,2150021,,,,,,,2024-09-24,1,,,,,ゼロサンサン,0
1137,6020003026935,新規,0,2024-09-24,2024-09-24,Ｈ　ＴＲＡＤＩＮＧ　ＪＡＰＡＮ合同会社,,合同会社,神奈川県,横浜市南区,井土ケ谷中町３０番地６,,14,105,2320052,,,,,,,2024-09-24,1,,,,,エイチトレーディングジャパン,0
1142,6021001083308,新規,0,2024-09-24,2024-09-24,株式会社ＨＭＳ,,株式会社,神奈川県,鎌倉市,岩瀬１丁目１９番３ー２号,,14,204,2470051,,,,,,,2024-09-24,1,,,,,エイチエムエス,0
1146,6021003015036,新規,0,2024-09-24,2024-09-24,合同会社Ｂｅ　ａｂｕｎｄａｎｃｅ,,合同会社,神奈川県,鎌倉市,大船１丁目１２番１０号湘南第５ビル４階,,14,204,2470056,,,,,,,2024-09-24,1,,,,,ビーアバンダンス,0
1150,6030001162590,新規,0,2024-09-24,2024-09-24,株式会社なわ,,株式会社,埼玉県,さいたま市浦和区,元町３丁目２２番１１－１号,,11,107,3300073,,,,,,,2024-09-24,1,,,,,ナワ,0
1160,6050001055438,新規,0,2024-09-24,2024-09-24,株式会社インハリット,,株式会社,茨城県,牛久市,東大和田町３１６番地,,08,219,3001205,,,,,,,2024-09-24,1,,,,,インハリット,0
1163,6050003008682,新規,0,2024-09-24,2024-09-24,合同会社アシスト,,合同会社,茨城県,龍ケ崎市,川原代町１０４２,,08,208,3010005,,,,,,,2024-09-24,1,,,,,アシスト,0
1165,6060005010248,新規,0,2024-09-24,2024-09-24,医療法人臼井歯科医院,,その他の設立登記法人,栃木県,宇都宮市,清住１丁目８番４号,,09,201,3200037,,,,,,,2024-09-24,1,,,,,ウスイシカイイン,0
1167,6070001042194,新規,0,2024-09-24,2024-09-24,株式会社ＦｌｕｘＲｅｎｔ,,株式会社,群馬県,高崎市,吉井町馬庭４２１,,10,202,3702104,,,,,,,2024-09-24,1,,,,,フラックスレント,0
1169,6080101025016,新規,0,2024-09-24,2024-09-24,株式会社ＳＯＩＬＷＩＳＨ,,株式会社,静岡県,富士市,今泉１９６１番地の１,,22,210,4170001,,,,,,,2024-09-24,1,,,,,ソイルウィッシュ,0
1170,6080401027455,新規,0,2024-09-24,2024-09-24,株式会社ロガープラス,,株式会社,静岡県,掛川市,東山１３６６番地,,22,213,4360001,,,,,,,2024-09-24,1,,,,,ロガープラス,0
1174,6090001018903,新規,0,2024-09-24,2024-09-24,甲斐特殊工業株式会社,,株式会社,山梨県,中央市,極楽寺９１２番地２,,19,214,4093811,,,,,,,2024-09-24,1,,,,,カイトクシュコウギョウ,0
1177,6090003002649,新規,0,2024-09-24,2024-09-24,合同会社京橋,,合同会社,山梨県,笛吹市,一宮町中尾字片瀬東割１０８１番２,,19,211,4050053,,,,,,,2024-09-24,1,,,,,キョウバシ,0
1189,6120001268627,新規,0,2024-09-24,2024-09-24,株式会社福間建設,,株式会社,大阪府,大阪市住吉区,殿辻１丁目３番２０号,,27,120,5580042,,,,,,,2024-09-24,1,,,,,フクマケンセツ,0
1190,6120001268767,新規,0,2024-09-24,2024-09-24,株式会社ＣＡＮＢＡＬホールディングス,,株式会社,大阪府,大阪市中央区,本町４丁目４番１７号ＲＥー０１２ビル５０３号,,27,128,5410053,,,,,,,2024-09-24,1,,,,,キャンバルホールディングス,0
1191,6120003027584,新規,0,2024-09-24,2024-09-24,Ｖａｌｕａｂｌｅ合同会社,,合同会社,大阪府,大阪市淀川区,木川西４丁目１番３３号木川ドリームハイツ５０２号,,27,123,5320013,,,,,,,2024-09-24,1,,,,,ヴァリュアブル,0
1192,6122001038464,新規,0,2024-09-24,2024-09-24,株式会社ケアン,,株式会社,大阪府,東大阪市,中新開１丁目６番１３号コムプラザ中新開,,27,227,5780911,,,,,,,2024-09-24,1,,,,,ケアン,0
1193,6122003003004,新規,0,2024-09-24,2024-09-24,ＮＹ合同会社,,合同会社,大阪府,八尾市,幸町１丁目７２番地の４,,27,212,5810821,,,,,,,2024-09-24,1,,,,,エヌワイ,0
1194,6130001077969,新規,0,2024-09-24,2024-09-24,青波株式会社,,株式会社,京都府,京都市山科区,東野舞台町９３番地１シャーメゾンシェーナ２０２,,26,110,6078146,,,,,,,2024-09-24,1,,,,,アオナミ,0
1199,6140003021115,新規,0,2024-09-24,2024-09-24,合同会社茶々,,合同会社,兵庫県,西宮市,東山台３丁目４番地１１,,28,204,6691133,,,,,,,2024-09-24,1,,,,,チャチャ,0
1201,6150001027575,新規,0,2024-09-24,2024-09-24,庭想人株式会社,,株式会社,奈良県,葛城市,太田２６２番地１,,29,211,6392153,,,,,,,2024-09-24,1,,,,,ニワオモイビト,0
1202,6150003003376,新規,0,2024-09-24,2024-09-24,合同会社ｎａｒａｉｅ,,合同会社,奈良県,吉野郡大淀町,大字北野１２４番地の６,,29,442,6393125,,,,,,,2024-09-24,1,,,,,ナライエ,0
1204,6160001026221,新規,0,2024-09-24,2024-09-24,株式会社まつかれ,,株式会社,滋賀県,大津市,本堅田５丁目２３番１８－１１０２号サンメゾン堅田駅前,,25,201,5200242,,,,,,,2024-09-24,1,,,,,マツカレ,0
1211,6180003027372,新規,0,2024-09-24,2024-09-24,合同会社キャッチボール,,合同会社,愛知県,一宮市,瀬部字四日市場４０番地１,,23,203,4910001,,,,,,,2024-09-24,1,,,,,キャッチボール,0
1219,6180303006274,新規,0,2024-09-24,2024-09-24,合同会社ハチナナ,,合同会社,愛知県,岡崎市,竜美西２丁目７番地２６,,23,202,4440875,,,,,,,2024-09-24,1,,,,,ハチナナ,0
1221,6200001042949,新規,0,2024-09-24,2024-09-24,株式会社安藤薬業,,株式会社,岐阜県,美濃市,大矢田１３８２番地１,,21,207,5013771,,,,,,,2024-09-24,1,,,,,アンドウヤクギョウ,0
1226,6240001063842,新規,0,2024-09-24,2024-09-24,株式会社ディーアライアンス,,株式会社,広島県,広島市安佐南区,祇園２丁目８番１８号,,34,105,7310138,,,,,,,2024-09-24,1,,,,,ディーアライアンス,0
1227,6250001020826,新規,0,2024-09-24,2024-09-24,株式会社尚華軒,,株式会社,山口県,下関市,長府川端２丁目３番３０－１０１号,,35,201,7520979,,,,,,,2024-09-24,1,,,,,ショウカケン,0
1231,6260001039469,新規,0,2024-09-24,2024-09-24,株式会社未来サポート,,株式会社,岡山県,浅口郡里庄町,大字里見６４７５番地５,,33,445,7190301,,,,,,,2024-09-24,1,,,,,ミライサポート,0
1233,6260003004900,新規,0,2024-09-24,2024-09-24,合同会社ＫＪＭ,,合同会社,岡山県,倉敷市,児島小川９丁目１番１５号,,33,202,7110911,,,,,,,2024-09-24,1,,,,,ケージェーエム,0
1238,6290005019506,新規,0,2024-09-24,2024-09-24,一般社団法人とらねこ図書館,,その他の設立登記法人,福岡県,糸島市,三雲９６４番地１,,40,230,8191583,,,,,,,2024-09-24,1,,,,,トラネコトショカン,0
1239,6290801030896,新規,0,2024-09-24,2024-09-24,株式会社皆栄商事,,株式会社,福岡県,北九州市小倉北区,上富野２丁目１１番４－１２０１号,,40,106,8020022,,,,,,,2024-09-24,1,,,,,カイエイショウジ,0
1246,6330003010569,新規,0,2024-09-24,2024-09-24,合同会社ＲＫ,,合同会社,熊本県,熊本市中央区,国府本町４番３号,,43,101,8620948,,,,,,,2024-09-24,1,,,,,アールケー,0
1250,6350001019189,新規,0,2024-09-24,2024-09-24,絆不動産株式会社,,株式会社,宮崎県,宮崎市,大字赤江２６５番地７,,45,201,8800912,,,,,,,2024-09-24,1,,,,,キズナフドウサン,0
1253,6360001034220,新規,0,2024-09-24,2024-09-24,株式会社ＮＯＨＩＮＡ,,株式会社,沖縄県,宮古島市,平良字東仲宗根６１７番地３のひなマンションＣ－１１,,47,214,9060007,,,,,,,2024-09-24,1,,,,,ノヒナ,0
1255,6360003014303,新規,0,2024-09-24,2024-09-24,ＳＥＳＬＩ合同会社,,合同会社,沖縄県,国頭郡金武町,字金武７９１８番地６ＶｉｌｌａｄｅｌＰｕｅｒｔｏ２,,47,314,9041201,,,,,,,2024-09-24,1,,,,,セスリ,0
1258,6370005010836,新規,0,2024-09-24,2024-09-24,一般社団法人全国フリーランス社会保険協会,,その他の設立登記法人,宮城県,岩沼市,竹の里２丁目７番地の４,,04,211,9892458,,,,,,,2024-09-24,1,,,,,ゼンコクフリーランスシャカイホケンキョウカイ,0
1275,6430001092698,新規,0,2024-09-24,2024-09-24,株式会社丸九,,株式会社,北海道,札幌市白石区,平和通９丁目北３－１,,01,104,0030029,,,,,,,2024-09-24,1,,,,,マルキュウ,0
1276,6430001092707,新規,0,2024-09-24,2024-09-24,株式会社ＢＨＣ,,株式会社,北海道,札幌市中央区,南一条西４丁目４番地１,,01,101,0600061,,,,,,,2024-09-24,1,,,,,ビーエイチシー,0
1295,7010001248408,新規,0,2024-09-24,2024-09-24,銀嵐株式会社,,株式会社,東京都,中央区,月島３丁目１３番４号５階,,13,102,1040052,,,,,,,2024-09-24,1,,,,,ギンラン,0
1296,7010003044953,新規,0,2024-09-24,2024-09-24,ＨＫＲＪ　Ｈｏｓｐｉｔａｌｉｔｙ　Ｍａｎａｇｅｍｅｎｔ合同会社,,合同会社,東京都,千代田区,丸の内３丁目３番１号新東京ビル６階６０３区,,13,101,1000005,,,,,,,2024-09-24,1,,,,,エイチケーアールジェイホスピタリティマネジメント,0
1298,7010005038846,新規,0,2024-09-24,2024-09-24,ムーン特定目的会社,,その他の設立登記法人,東京都,千代田区,麹町５丁目１番地ＮＫ真和ビル９階,,13,101,1020083,,,,,,,2024-09-24,1,,,,,ムーン,0
1308,7010401185259,新規,0,2024-09-24,2024-09-24,株式会社ＴＡ,,株式会社,東京都,港区,東麻布２丁目２９番４号,,13,103,1060044,,,,,,,2024-09-24,1,,,,,ティーエー,0
1316,7010601065938,新規,0,2024-09-24,2024-09-24,ＪＣ　Ｍｅｄｉｃａｌ株式会社,,株式会社,東京都,江東区,塩浜２丁目５番１号,,13,108,1350043,,,,,,,2024-09-24,1,,,,,ジェーシーメディカル,0
1317,7010601065970,新規,0,2024-09-24,2024-09-24,アールエル株式会社,,株式会社,東京都,江東区,海辺１５番５号サークルキューブ海辺１０３号室,,13,108,1350012,,,,,,,2024-09-24,1,,,,,アールエル,0
1318,7010603011106,新規,0,2024-09-24,2024-09-24,ソーシャルアシスタンス合同会社,,合同会社,東京都,墨田区,京島３丁目１４番２号,,13,107,1310046,,,,,,,2024-09-24,1,,,,,ソーシャルアシスタンス,0
1319,7010603011114,新規,0,2024-09-24,2024-09-24,合同会社エソラ,,合同会社,東京都,江東区,深川２丁目１４番１号,,13,108,1350033,,,,,,,2024-09-24,1,,,,,エソラ,0
1323,7010901056018,新規,0,2024-09-24,2024-09-24,株式会社アンビレ,,株式会社,東京都,世田谷区,等々力７丁目２０－２２－３０１,,13,112,1580082,,,,,,,2024-09-24,1,,,,,アンビレ,0
1328,7011001164628,新規,0,2024-09-24,2024-09-24,アールピーエーテナー株式会社,,株式会社,東京都,目黒区,碑文谷５丁目２－５Ｔ＆Ａビル５Ｆ,,13,110,1520003,,,,,,,2024-09-24,1,,,,,,0
1329,7011001164719,新規,0,2024-09-24,2024-09-24,株式会社カイズワンダーラボ,,株式会社,東京都,渋谷区,神宮前５丁目３９番６号,,13,113,1500001,,,,,,,2024-09-24,1,,,,,カイズワンダーラボ,0
1330,7011001164834,新規,0,2024-09-24,2024-09-24,株式会社Ａｌｔｕｓ　ｂｕｉｌｄｉｎｇ　ｍａｎａｇｅｍｅｎｔ,,株式会社,東京都,渋谷区,代々木５丁目３５番５号,,13,113,1510053,,,,,,,2024-09-24,1,,,,,アルタスビルディングマネジメント,0
1331,7011003019895,新規,0,2024-09-24,2024-09-24,合同会社ペカソ,,合同会社,東京都,渋谷区,渋谷１丁目１５番地１５テラス渋谷美竹７０９,,13,113,1500002,,,,,,,2024-09-24,1,,,,,ペカソ,0
1332,7011003020036,新規,0,2024-09-24,2024-09-24,ｋｉｋｋａｋｅ合同会社,,合同会社,東京都,渋谷区,渋谷２丁目１９番１５号宮益坂ビルディング６０９,,13,113,1500002,,,,,,,2024-09-24,1,,,,,キッカケ,0
1342,7011103014953,新規,0,2024-09-24,2024-09-24,合同会社玖陽,,合同会社,東京都,新宿区,西早稲田１丁目２１番２－１００４号,,13,104,1690051,,,,,,,2024-09-24,1,,,,,クヨウ,0
1345,7011401026452,新規,0,2024-09-24,2024-09-24,ＫＦアセット株式会社,,株式会社,東京都,板橋区,赤塚２丁目１０番１２号,,13,119,1750092,,,,,,,2024-09-24,1,,,,,ケーエフアセット,0
1347,7011503006229,新規,0,2024-09-24,2024-09-24,テーラードシステム合同会社,,合同会社,東京都,北区,赤羽１丁目７－９赤羽第一葉山ビル４Ｆ,,13,117,1150045,,,,,,,2024-09-24,1,,,,,テーラードシステム,0
1361,7020003026843,新規,0,2024-09-24,2024-09-24,合同会社Ｆｒｅｅｖｙ,,合同会社,神奈川県,川崎市川崎区,東田町１０番地２６ＳＹＦＯＲＭＥＫＡＷＡＳＡＫＩ１１０１,,14,131,2100005,,,,,,,2024-09-24,1,,,,,フリーヴィー,0
1363,7021001083182,新規,0,2024-09-24,2024-09-24,株式会社グリーンハウス,,株式会社,神奈川県,横須賀市,長井３丁目１３－７,,14,201,2380316,,,,,,,2024-09-24,1,,,,,グリーンハウス,0
1364,7021001083257,新規,0,2024-09-24,2024-09-24,株式会社ＲＩＯＮ,,株式会社,神奈川県,厚木市,恩名３丁目３番３８－５号,,14,212,2430032,,,,,,,2024-09-24,1,,,,,リオン,0
1367,7030001162557,新規,0,2024-09-24,2024-09-24,Ｓｔａｒｒｙｓｅａ　Ｊａｐａｎ株式会社,,株式会社,埼玉県,加須市,川口４丁目８番２号,,11,210,3470014,,,,,,,2024-09-24,1,,,,,スターリーシー,0
1368,7030001162565,新規,0,2024-09-24,2024-09-24,株式会社Ｙ＆Ａ,,株式会社,埼玉県,さいたま市中央区,円阿弥３丁目３番９－１号,,11,105,3380007,,,,,,,2024-09-24,1,,,,,ワイアンドエー,0
1369,7030001162573,新規,0,2024-09-24,2024-09-24,彩クラフト株式会社,,株式会社,埼玉県,狭山市,大字堀兼１９３６番地の７,,11,215,3501312,,,,,,,2024-09-24,1,,,,,サイクラフト,0
1373,7040001135479,新規,0,2024-09-24,2024-09-24,ＷＥＴＯＸ株式会社,,株式会社,千葉県,柏市,みどり台４丁目１７－７,,12,217,2770884,,,,,,,2024-09-24,1,,,,,ウェトックス,0
1378,7060005010247,新規,0,2024-09-24,2024-09-24,医療法人ＣＲＡＮＥ,,その他の設立登記法人,栃木県,宇都宮市,鶴田町７２０番地１,,09,201,3200851,,,,,,,2024-09-24,1,,,,,クレイン,0
1379,7070001042193,新規,0,2024-09-24,2024-09-24,ＫＢ株式会社,,株式会社,群馬県,伊勢崎市,下触町１０６番地１１,,10,204,3792214,,,,,,,2024-09-24,1,,,,,ケービー,0
1380,7070003005586,新規,0,2024-09-24,2024-09-24,ＲＥＨＡＮ　ＭＯＴＯＲＳ合同会社,,合同会社,群馬県,桐生市,相生町２丁目４７９番地７,,10,203,3760011,,,,,,,2024-09-24,1,,,,,レハンモータース,0
1385,7080405007659,新規,0,2024-09-24,2024-09-24,一般財団法人ミダック育英財団,,その他の設立登記法人,静岡県,浜松市中央区,有玉南町２１６３番地,,22,138,4313122,,,,,,,2024-09-24,1,,,,,ミダックイクエイザイダン,0
1386,7090003002648,新規,0,2024-09-24,2024-09-24,合同会社ＳＫＹ,,合同会社,山梨県,甲斐市,西八幡１１９１番地,,19,210,4000117,,,,,,,2024-09-24,1,,,,,スカイ,0
1391,7110001038716,新規,0,2024-09-24,2024-09-24,株式会社ＦＨＳ,,株式会社,新潟県,上越市,南城町１丁目１２番２号,,15,222,9430837,,,,,,,2024-09-24,1,,,,,エフエイチエス,0
1395,7120001268510,新規,0,2024-09-24,2024-09-24,日本智和株式会社,,株式会社,大阪府,大阪市生野区,巽北１丁目１番１号１Ｆ－Ａ,00136382,27,116,5440004,,,,,,,2024-09-24,1,,,,,ニホンチワ,0
1396,7120001268733,新規,0,2024-09-24,2024-09-24,株式会社吉昇,,株式会社,大阪府,大阪市天王寺区,大道４丁目１番５号,,27,109,5430052,,,,,,,2024-09-24,1,,,,,キッショウ,0
1397,7120003027583,新規,0,2024-09-24,2024-09-24,合同会社ＳＵＺＵＫＯ,,合同会社,大阪府,守口市,金田町６丁目１番１０号,,27,209,5700011,,,,,,,2024-09-24,1,,,,,スズコ,0
1401,7122001038463,新規,0,2024-09-24,2024-09-24,株式会社Ｏ‐ＮＥＳＴ,,株式会社,大阪府,大東市,三箇６丁目１１番１５－２０６号,,27,218,5740077,,,,,,,2024-09-24,1,,,,,オーネスト,0
1404,7130001077984,新規,0,2024-09-24,2024-09-24,水曜日株式会社,,株式会社,京都府,京都市左京区,田中飛鳥井町１１８番地,,26,103,6068226,,,,,,,2024-09-24,1,,,,,スイヨウビ,0
1407,7140001135857,新規,0,2024-09-24,2024-09-24,株式会社アストレックス,,株式会社,兵庫県,神戸市東灘区,向洋町中６丁目９番地神戸ファッションマート８Ｓ－１０,,28,101,6580032,,,,,,,2024-09-24,1,,,,,アストレックス,0
1410,7140003021106,新規,0,2024-09-24,2024-09-24,合同会社けろり,,合同会社,兵庫県,高砂市,高砂町狩網町７８９－１,,28,216,6760054,,,,,,,2024-09-24,1,,,,,ケロリ,0
1411,7140005027209,新規,0,2024-09-24,2024-09-24,一般社団法人サラーム,,その他の設立登記法人,兵庫県,姫路市,御国野町国分寺７２６番地１,,28,201,6710234,,,,,,,2024-09-24,1,,,,,サラーム,0
1413,7160005011342,新規,0,2024-09-24,2024-09-24,一般社団法人エネルギーエージェンシーこほく,,その他の設立登記法人,滋賀県,長浜市,細江町８６４番地４,,25,203,5260105,,,,,,,2024-09-24,1,,,,,エネルギーエージェンシーコホク,0
1421,7180001163326,新規,0,2024-09-24,2024-09-24,株式会社グリット,,株式会社,愛知県,一宮市,松降２丁目１番２０号,,23,203,4910042,,,,,,,2024-09-24,1,,,,,グリット,0
1422,7180001163334,新規,0,2024-09-24,2024-09-24,株式会社櫻総合事業,,株式会社,愛知県,春日井市,坂下町３丁目１０２５番地２シェモワＭ２０２号,,23,206,4800305,,,,,,,2024-09-24,1,,,,,サクラソウゴウジギョウ,0
1423,7180001163350,新規,0,2024-09-24,2024-09-24,トゥ・ドマーニ株式会社,,株式会社,愛知県,弥富市,五明４丁目６６番地,,23,235,4980014,,,,,,,2024-09-24,1,,,,,トゥドマーニ,0
1426,7180003027371,新規,0,2024-09-24,2024-09-24,合同会社マザーグース,,合同会社,愛知県,丹羽郡大口町,城屋敷１丁目２９７,,23,361,4800143,,,,,,,2024-09-24,1,,,,,マザーグース,0
1431,7210001019920,新規,0,2024-09-24,2024-09-24,株式会社ＲＥＩＷＡ,,株式会社,福井県,福井市,成和１丁目１００５番地９,,18,201,9188239,,,,,,,2024-09-24,1,,,,,レイワ,0
1432,7220005008885,新規,0,2024-09-24,2024-09-24,一般社団法人穴珠能輪,,その他の設立登記法人,石川県,輪島市,二ツ屋町１字１５番地,,17,204,9280021,,,,,,,2024-09-24,1,,,,,アスノワ,0
1433,7230001020521,新規,0,2024-09-24,2024-09-24,株式会社デリバード,,株式会社,富山県,高岡市,福岡町赤丸６５７,,16,202,9390101,,,,,,,2024-09-24,1,,,,,デリバード,0
1436,7240001063841,新規,0,2024-09-24,2024-09-24,株式会社ＥＮＮ,,株式会社,広島県,広島市東区,牛田東２丁目１１番１２－２０５号,,34,102,7320063,,,,,,,2024-09-24,1,,,,,エン,0
1439,7260001039476,新規,0,2024-09-24,2024-09-24,ｍｉｒａｃｌｅ株式会社,,株式会社,岡山県,岡山市北区,東古松３丁目１２番６－４０１号,,33,101,7000921,,,,,,,2024-09-24,1,,,,,ミラクル,0
1449,7290005019496,新規,0,2024-09-24,2024-09-24,一般社団法人日本マーケティングソリューション機構,,その他の設立登記法人,福岡県,福岡市東区,香椎照葉５丁目１番１１－７０５号,,40,131,8130017,,,,,,,2024-09-24,1,,,,,ニホンマーケティングソリューションキコウ,0
1450,7290005019505,新規,0,2024-09-24,2024-09-24,一般社団法人日本ケアサービス企業サポート協会,,その他の設立登記法人,福岡県,福岡市東区,唐原７丁目１５番５１号,,40,131,8130001,,,,,,,2024-09-24,1,,,,,ニホンケアサービスキギョウサポートキョウカイ,0
1451,7310001019217,新規,0,2024-09-24,2024-09-24,株式会社ｗｅｓｔｏｖｅｒ,,株式会社,長崎県,諫早市,猿崎町３７３９番地５,,42,204,8590305,,,,,,,2024-09-24,1,,,,,ウエストオーバー,0
1457,7340001026805,新規,0,2024-09-24,2024-09-24,株式会社クリモトＰＬＵＳ,,株式会社,鹿児島県,肝属郡肝付町,富山１７１５番地,,46,492,8931204,,,,,,,2024-09-24,1,,,,,クリモトプラス,0
1476,7430003016794,新規,0,2024-09-24,2024-09-24,合同会社ＴＯＰＡＺＯＳＥＥＤ,,合同会社,北海道,室蘭市,母恋南町３丁目１０番８号,,01,205,0510003,,,,,,,2024-09-24,1,,,,,トパゾシード,0
1482,7500005008733,新規,0,2024-09-24,2024-09-24,社会保険労務士法人猪羽事務所,,その他の設立登記法人,愛媛県,松山市,土居田町８番地２徳永ビル１０３号,,38,201,7900056,,,,,,,2024-09-24,1,,,,,イノハジムショ,0
1485,7700150127284,新規,0,2024-09-24,2024-09-24,山崎小学校ＰＴＡ,,その他,東京都,世田谷区,梅丘３丁目９－１,,13,112,1540022,,,,,,,2024-09-24,1,,,,,ヤマザキショウガッコウピーティーエー,0
1492,8010001248472,新規,0,2024-09-24,2024-09-24,株式会社いくみファクトリー,,株式会社,東京都,千代田区,神田神保町３丁目２番地２８ＡＣＮ神保町ビル１１階,,13,101,1010051,,,,,,,2024-09-24,1,,,,,イクミファクトリー,0
1493,8010003044952,新規,0,2024-09-24,2024-09-24,ｇｒｏｖｅ合同会社,,合同会社,東京都,文京区,千石３丁目２７番２号,,13,105,1120011,,,,,,,2024-09-24,1,,,,,グローヴ,0
1505,8010403033464,新規,0,2024-09-24,2024-09-24,合同会社ミヤビ,,合同会社,東京都,港区,南麻布４丁目１１番１７号,,13,103,1060047,,,,,,,2024-09-24,1,,,,,ミヤビ,0
1506,8010403033472,新規,0,2024-09-24,2024-09-24,合同会社ハセヨ,,合同会社,東京都,港区,赤坂４丁目３番１３－３０６号,,13,103,1070052,,,,,,,2024-09-24,1,,,,,ハセヨ,0
1507,8010405023604,新規,0,2024-09-24,2024-09-24,医療法人社団ＭＩＭ,,その他の設立登記法人,東京都,港区,三田５丁目２番１８号三田ハウス１０９号室,,13,103,1080073,,,,,,,2024-09-24,1,,,,,エムアイエム,0
1508,8010501052754,新規,0,2024-09-24,2024-09-24,浅草町株式会社,,株式会社,東京都,台東区,浅草５丁目４７番１０号,,13,106,1110032,,,,,,,2024-09-24,1,,,,,アサクサマチ,0
1511,8010603011096,新規,0,2024-09-24,2024-09-24,ザカリ光合同会社,,合同会社,東京都,江東区,越中島２丁目８番３号,,13,108,1350044,,,,,,,2024-09-24,1,,,,,ザカリヒカリ,0
1522,8011001164759,新規,0,2024-09-24,2024-09-24,株式会社ａｔｌａｓ,,株式会社,東京都,渋谷区,神宮前５丁目２７番８号,,13,113,1500001,,,,,,,2024-09-24,1,,,,,アトラス,0
1523,8011001164783,新規,0,2024-09-24,2024-09-24,株式会社テンスターズ,,株式会社,東京都,渋谷区,渋谷２丁目１９－１５宮益坂ビルディング６０９,,13,113,1500002,,,,,,,2024-09-24,1,,,,,テンスターズ,0
1529,8011101108855,新規,0,2024-09-24,2024-09-24,シダイ株式会社,,株式会社,東京都,新宿区,西新宿５丁目５番１－４０１３号,,13,104,1600023,,,,,,,2024-09-24,1,,,,,シダイ,0
1530,8011101108871,新規,0,2024-09-24,2024-09-24,株式会社ホームラン,,株式会社,東京都,新宿区,新宿５丁目１８番２０号ルックハイツ新宿８０３号,,13,104,1600022,,,,,,,2024-09-24,1,,,,,ホームラン,0
1532,8011103014960,新規,0,2024-09-24,2024-09-24,合同会社ＳＥＮＳＥ,,合同会社,東京都,新宿区,百人町１丁目１－２３矢島ビル３０１,,13,104,1690073,,,,,,,2024-09-24,1,,,,,センス,0
1533,8011201025802,新規,0,2024-09-24,2024-09-24,株式会社睦,,株式会社,東京都,中野区,新井２丁目３０番４号,,13,114,1650026,,,,,,,2024-09-24,1,,,,,ムツミ,0
1534,8011201025810,新規,0,2024-09-24,2024-09-24,ＳＥＤＭ株式会社,,株式会社,東京都,中野区,東中野２丁目２２－１３上ノ原住宅Ａ－１,,13,114,1640003,,,,,,,2024-09-24,1,,,,,エスイーディーエム,0
1536,8011401026443,新規,0,2024-09-24,2024-09-24,Ｌｉｇｈｔ　Ｖｉｓｉｏｎ　Ｊａｐａｎ株式会社,,株式会社,東京都,板橋区,板橋２丁目６３番４号グローリア初穂板橋５０１号ＥＡＳＹＯＦＦＩＣＥ,,13,119,1730004,,,,,,,2024-09-24,1,,,,,ライトビジョンジャパン,0
1539,8011403004513,新規,0,2024-09-24,2024-09-24,３ＱＨＬ合同会社,,合同会社,東京都,板橋区,志村１丁目２７番２１号,,13,119,1740056,,,,,,,2024-09-24,1,,,,,サンキューエイチエル,0
1558,8020001159223,新規,0,2024-09-24,2024-09-24,株式会社ＢＥＬＬＶＩＬＬＡＧＥ,,株式会社,神奈川県,横浜市港北区,大倉山７丁目２３番３２－１０４号,,14,109,2220037,,,,,,,2024-09-24,1,,,,,ベルヴィレッジ,0
1559,8020001159306,新規,0,2024-09-24,2024-09-24,Ｈ・Ｍ株式会社,,株式会社,神奈川県,横浜市港北区,日吉３丁目５番７号,,14,109,2230061,,,,,,,2024-09-24,1,,,,,エイチドットエム,0
1564,8020003026958,新規,0,2024-09-24,2024-09-24,合同会社ｈａｒｍｏｎｙＡＩ,,合同会社,神奈川県,横浜市神奈川区,金港町５―１４クアドリフォリオ８階,,14,102,2210056,,,,,,,2024-09-24,1,,,,,ハーモニーアイ,0
1565,8021001083256,新規,0,2024-09-24,2024-09-24,株式会社エイムグロープラス,,株式会社,神奈川県,藤沢市,鵠沼海岸５丁目１１番１５号琵琶ビル３０２号室,00136375,14,205,2510037,,,,,,,2024-09-24,1,,,,,エイムグロープラス,0
1566,8021001083272,新規,0,2024-09-24,2024-09-24,株式会社晴佳,,株式会社,神奈川県,藤沢市,鵠沼石上２丁目５番１号湘南鵠沼ＢＬＤ３階Ｃ号室,00136376,14,205,2510025,,,,,,,2024-09-24,1,,,,,ハルケイ,0
1567,8021001083289,新規,0,2024-09-24,2024-09-24,ＬｏｗＢａｓｉｃ株式会社,,株式会社,神奈川県,藤沢市,鵠沼藤が谷４丁目８番４号,,14,205,2510031,,,,,,,2024-09-24,1,,,,,ローベーシック,0
1571,8030001162548,新規,0,2024-09-24,2024-09-24,株式会社登翔,,株式会社,埼玉県,さいたま市北区,日進町３丁目９番地２,,11,102,3310823,,,,,,,2024-09-24,1,,,,,トウショウ,0
1572,8030001162606,新規,0,2024-09-24,2024-09-24,株式会社ＢＡＳＥ,,株式会社,埼玉県,所沢市,南住吉９番１６号,,11,208,3591125,,,,,,,2024-09-24,1,,,,,ベイス,0
1577,8030003025166,新規,0,2024-09-24,2024-09-24,合同会社アイホープ,,合同会社,埼玉県,川口市,飯塚２丁目９－１４,,11,203,3320023,,,,,,,2024-09-24,1,,,,,アイホープ,0
1584,8040001135478,新規,0,2024-09-24,2024-09-24,Ｄｒｅａｍ　ｌｉｖｉｎｇ株式会社,,株式会社,千葉県,松戸市,西馬橋蔵元町５５番地２Ｆ,,12,207,2710046,,,,,,,2024-09-24,1,,,,,ドリームリビング,0
1587,8040003025834,新規,0,2024-09-24,2024-09-24,合同会社ときめき,,合同会社,千葉県,長生郡白子町,古所５４４９番地１６,,12,424,2994212,,,,,,,2024-09-24,1,,,,,トキメキ,0
1591,8050001055436,新規,0,2024-09-24,2024-09-24,株式会社サイフィックスＴＲＣ,,株式会社,茨城県,つくば市,筑穂１丁目１４番地２,,08,220,3003257,,,,,,,2024-09-24,1,,,,,サイフィックスティーアールシー,0
1594,8070003005585,新規,0,2024-09-24,2024-09-24,ＡＬＳＡＴＨ　ＣＡＲＳ合同会社,,合同会社,群馬県,桐生市,相生町２丁目４７９番地７,,10,203,3760011,,,,,,,2024-09-24,1,,,,,アルサスカーズ,0
1605,8080401027453,新規,0,2024-09-24,2024-09-24,Ｎｃｏｎｎｅｃｔ株式会社,,株式会社,静岡県,袋井市,村松２１２８番地の１,,22,216,4370011,,,,,,,2024-09-24,1,,,,,エヌコネクト,0
1608,8090003002647,新規,0,2024-09-24,2024-09-24,合同会社シアン,,合同会社,山梨県,甲斐市,大下条１０８４番地２五十嵐アパート１０１,,19,210,4000126,,,,,,,2024-09-24,1,,,,,シアン,0
1618,8120005024545,新規,0,2024-09-24,2024-09-24,一般社団法人日本再生医療の会,,その他の設立登記法人,大阪府,大阪市中央区,南船場２丁目５番１７号,,27,128,5420081,,,,,,,2024-09-24,1,,,,,ニホンサイセイイリョウノカイ,0
1620,8120103006065,新規,0,2024-09-24,2024-09-24,合同会社柊季,,合同会社,大阪府,河内長野市,大矢船北町２番３号,,27,216,5860076,,,,,,,2024-09-24,1,,,,,ヒイラギ,0
1623,8130001077975,新規,0,2024-09-24,2024-09-24,株式会社佑京,,株式会社,京都府,京都市南区,西九条藤ノ木町９３番地,,26,107,6018421,,,,,,,2024-09-24,1,,,,,ウキョウ,0
1624,8130001077991,新規,0,2024-09-24,2024-09-24,株式会社ＪＭラボ,,株式会社,京都府,京都市下京区,松原通烏丸西入ル玉津島町２９４,,26,106,6000000,,,,,,,2024-09-24,1,,,,,ジェイエムラボ,0
1629,8140001135864,新規,0,2024-09-24,2024-09-24,株式会社プラウドジャパン,,株式会社,兵庫県,神戸市中央区,神若通１丁目４番１９－２０１号,,28,110,6510067,,,,,,,2024-09-24,1,,,,,プラウドジャパン,0
1633,8160005011341,新規,0,2024-09-24,2024-09-24,一般社団法人金亀パークマネージメント,,その他の設立登記法人,滋賀県,彦根市,後三条町２９８番地,,25,202,5220086,,,,,,,2024-09-24,1,,,,,コンキパークマネージメント,0
1637,8180001163291,新規,0,2024-09-24,2024-09-24,株式会社岩田モータース,,株式会社,愛知県,名古屋市北区,駒止町２丁目６７番地の１,,23,103,4620059,,,,,,,2024-09-24,1,,,,,イワタモータース,0
1638,8180001163325,新規,0,2024-09-24,2024-09-24,株式会社ベルスプレイド,,株式会社,愛知県,名古屋市南区,呼続２丁目１５番２２号,,23,112,4570014,,,,,,,2024-09-24,1,,,,,ベルスプレイド,0
1641,8180003027362,新規,0,2024-09-24,2024-09-24,合同会社ピースフルパーク,,合同会社,愛知県,名古屋市北区,大曽根３丁目１７番５号,,23,103,4620825,,,,,,,2024-09-24,1,,,,,ピースフルパーク,0
1642,8180003027379,新規,0,2024-09-24,2024-09-24,合同会社ＡＮＵＳＨＡ,,合同会社,愛知県,名古屋市中川区,小碓通３丁目３６番地,,23,110,4540856,,,,,,,2024-09-24,1,,,,,アヌシャ,0
1643,8180003027387,新規,0,2024-09-24,2024-09-24,合同会社エル・ウエスト,,合同会社,愛知県,一宮市,浅野字西大土７９番地１フェリシアアサノ２０５,,23,203,4910871,,,,,,,2024-09-24,1,,,,,エルウエスト,0
1644,8180301039068,新規,0,2024-09-24,2024-09-24,株式会社Ｋ・Ｈ・Ｆ,,株式会社,愛知県,安城市,御幸本町８番６号安城第８東海ビル１Ｆ,,23,212,4460032,,,,,,,2024-09-24,1,,,,,ケイエイチエフ,0
1652,8200001042955,新規,0,2024-09-24,2024-09-24,サンライズ株式会社,,株式会社,岐阜県,岐阜市,下竹町２１番地（メゾンミフク２Ｄ号室）,,21,201,5008056,,,,,,,2024-09-24,1,,,,,サンライズ,0
1664,8230001020537,新規,0,2024-09-24,2024-09-24,株式会社ＥＬＣＲＥ,,株式会社,富山県,富山市,三室荒屋５４１番地６５,,16,201,9301314,,,,,,,2024-09-24,1,,,,,エルクル,0
1668,8240001063832,新規,0,2024-09-24,2024-09-24,株式会社中新蔵,,株式会社,広島県,広島市南区,段原３丁目９番２５号,,34,103,7320811,,,,,,,2024-09-24,1,,,,,チュウシングラ,0
1669,8240001063840,新規,0,2024-09-24,2024-09-24,株式会社ＡＬＬＣＥＥＤ,,株式会社,広島県,広島市南区,皆実町１丁目１１番１８号ボヌール皆実１０３,,34,103,7340007,,,,,,,2024-09-24,1,,,,,オールシード,0
1687,8330001032472,新規,0,2024-09-24,2024-09-24,株式会社ガーデニングアソ,,株式会社,熊本県,阿蘇郡南阿蘇村,大字白川１９７０番地１,,43,433,8691502,,,,,,,2024-09-24,1,,,,,ガーデニングアソ,0
1691,8330003010567,新規,0,2024-09-24,2024-09-24,合同会社凪,,合同会社,熊本県,熊本市中央区,横手３丁目２２番１７号,,43,101,8600046,,,,,,,2024-09-24,1,,,,,ナギ,0
1694,8340001026804,新規,0,2024-09-24,2024-09-24,株式会社スノーフレークス,,株式会社,鹿児島県,鹿児島市,加治屋町１１番２０－５０３号,,46,201,8920846,,,,,,,2024-09-24,1,,,,,スノーフレークス,0
1699,8360003014301,新規,0,2024-09-24,2024-09-24,友心工業合同会社,,合同会社,沖縄県,中頭郡西原町,字兼久１３８番地の２アラタアパートＡ棟１階,,47,329,9030104,,,,,,,2024-09-24,1,,,,,ユウシンコウギョウ,0
1710,8430001092713,新規,0,2024-09-24,2024-09-24,株式会社イブカンパニー,,株式会社,北海道,札幌市中央区,南一条西２３丁目１番３３号,,01,101,0640801,,,,,,,2024-09-24,1,,,,,イブカンパニー,0
1714,8470001020389,新規,0,2024-09-24,2024-09-24,株式会社ジャスト・セイリョウ,,株式会社,香川県,高松市,春日町１２９番地,,37,201,7610101,,,,,,,2024-09-24,1,,,,,ジャストセイリョウ,0
1716,8480005007035,新規,0,2024-09-24,2024-09-24,一般社団法人相馬山上自然エネルギー,,その他の設立登記法人,徳島県,徳島市,沖浜町北畑５１３番地の３,,36,201,7708051,,,,,,,2024-09-24,1,,,,,ソウマヤマカミシゼンエネルギー,0
1718,8700150127283,新規,0,2024-09-24,2024-09-24,Ｍｏｖｅｒ　Ｎｅｐａｌ　Ｐｒｉｖａｔｅ　Ｌｉｍｉｔｅｄ,,外国会社等,東京都,杉並区,高円寺南５丁目１３番地ネオハイム中野１０１号室,,13,115,1660003,ネパール国、バグマティ州、カトマンズ群、カトマンズ大都市２６区、サマクシ,,,,,,2024-09-24,1,,,,,ムーバーネパールプライベートリミテツド,0
1725,9010001248249,新規,0,2024-09-24,2024-09-24,ＮＥＷ　ＬＩＧＨＴ日本株式会社,,株式会社,東京都,文京区,千石４丁目２６－２－４Ａ０６,,13,105,1120011,,,,,,,2024-09-24,1,,,,,ニューライトニッポン,0
1726,9010001248430,新規,0,2024-09-24,2024-09-24,株式会社ユア・エースエージェント,,株式会社,東京都,中央区,日本橋堀留町２丁目３番１４号堀留ＴＨビル２階,,13,102,1030012,,,,,,,2024-09-24,1,,,,,ユアエースエージェント,0
1727,9010001248455,新規,0,2024-09-24,2024-09-24,株式会社ＣＩＥＮ,,株式会社,東京都,中央区,日本橋茅場町１丁目８番１号,,13,102,1030025,,,,,,,2024-09-24,1,,,,,シエン,0
1728,9010003044951,新規,0,2024-09-24,2024-09-24,エスティーアール合同会社,,合同会社,東京都,中央区,日本橋室町１丁目１１番１２号日本橋水野ビル７階,,13,102,1030022,,,,,,,2024-09-24,1,,,,,エスティーアール,0
1729,9010003044976,新規,0,2024-09-24,2024-09-24,合同会社ＳＴＯＣＫ,,合同会社,東京都,中央区,入船２丁目１番１号,,13,102,1040042,,,,,,,2024-09-24,1,,,,,ストック,0
1731,9010105002304,新規,0,2024-09-24,2024-09-24,一般社団法人障害者総合アシスト,,その他の設立登記法人,東京都,八王子市,左入町４６７番地６,,13,201,1920012,,,,,,,2024-09-24,1,,,,,ショウガイシャソウゴウアシスト,0
1733,9010401185133,新規,0,2024-09-24,2024-09-24,株式会社ＭＡＩＳＯＮ　ＺＡＸ,,株式会社,東京都,港区,六本木１丁目７－２４－１３０２,,13,103,1060032,,,,,,,2024-09-24,1,,,,,メゾンザックス,0
1737,9010403033439,新規,0,2024-09-24,2024-09-24,ソーラータンチョウ合同会社,,合同会社,東京都,港区,南青山２丁目１３番２号サンライズ青山２Ｆ青山国際税理士法人内,,13,103,1070062,,,,,,,2024-09-24,1,,,,,ソーラータンチョウ,0
1738,9010403033463,新規,0,2024-09-24,2024-09-24,ＴＯＯＧＡＮＮ　ＴＥＣＨＮＯＬＯＧＩＥＳ　ＪＡＰＡＮ合同会社,,合同会社,東京都,港区,浜松町２丁目２番１５号浜松町ダイヤビル２Ｆ,,13,103,1050013,,,,,,,2024-09-24,1,,,,,トゥーガンテクロノジーズジャパン,0
1746,9010601065911,新規,0,2024-09-24,2024-09-24,ＡＬＬＥＧＩＡＮＣＥ　ＲＥＡＬ　ＥＳＴＡＴＥ株式会社,,株式会社,東京都,江東区,豊洲６丁目２番３１－１９１７号,,13,108,1350061,,,,,,,2024-09-24,1,,,,,アリージェンスレアルエステート,0
1747,9010601065952,新規,0,2024-09-24,2024-09-24,株式会社Ｓｅｃｔｉｏｎ,,株式会社,東京都,墨田区,亀沢１丁目８番６号堀江ビル３階,,13,107,1300014,,,,,,,2024-09-24,1,,,,,セクション,0
1748,9010601065960,新規,0,2024-09-24,2024-09-24,株式会社Ｓｍａｒｔ　ＪＵＫＵ,,株式会社,東京都,江東区,豊洲４丁目１番９号ＮＵＰ豊洲ビルディング１Ｆ,,13,108,1350061,,,,,,,2024-09-24,1,,,,,スマートジュク,0
1749,9010603011095,新規,0,2024-09-24,2024-09-24,合同会社サザナミ,,合同会社,東京都,江東区,大島６丁目１４―２―４０８,,13,108,1360072,,,,,,,2024-09-24,1,,,,,サザナミ,0
1755,9011001164782,新規,0,2024-09-24,2024-09-24,株式会社ＷＩＧ,,株式会社,東京都,渋谷区,神宮前６丁目２３－４桑野ビル２階,,13,113,1500001,,,,,,,2024-09-24,1,,,,,ウィグ,0
1760,9011101108813,新規,0,2024-09-24,2024-09-24,徳吉株式会社,,株式会社,東京都,新宿区,新宿５丁目１４－１２,,13,104,1600022,,,,,,,2024-09-24,1,,,,,トクヨシ,0
1761,9011101108870,新規,0,2024-09-24,2024-09-24,株式会社シナリッジ,,株式会社,東京都,新宿区,西新宿３丁目３番１３号西新宿水間ビル２Ｆ,,13,104,1600023,,,,,,,2024-09-24,1,,,,,シナリッジ,0
1762,9011101108887,新規,0,2024-09-24,2024-09-24,株式会社Ａｂｉｔｏ,,株式会社,東京都,新宿区,余丁町１１番１８号,,13,104,1620055,,,,,,,2024-09-24,1,,,,,アビト,0
1764,9011401026426,新規,0,2024-09-24,2024-09-24,株式会社ケイワン,,株式会社,東京都,板橋区,氷川町２０－８氷川ハウス１０５号,,13,119,1730013,,,,,,,2024-09-24,1,,,,,ケイワン,0
1772,9011701027636,新規,0,2024-09-24,2024-09-24,田辺生物製薬株式会社,,株式会社,東京都,江戸川区,平井５丁目４５番５号渡辺ハイツ１０１,,13,123,1320035,,,,,,,2024-09-24,1,,,,,タナベセイブツセイヤク,0
1775,9012301014090,新規,0,2024-09-24,2024-09-24,株式会社ＢＴＳ．ＳｏｌｕｔｉｏｎＳｅｒｖｉｃｅ,,株式会社,東京都,町田市,木曽東４丁目２７‐７,,13,209,1940036,,,,,,,2024-09-24,1,,,,,ビーティーエスソリューションサービス,0
1779,9020001159197,新規,0,2024-09-24,2024-09-24,株式会社８,,株式会社,神奈川県,横浜市神奈川区,星野町８番地３－４０５号,,14,102,2210035,,,,,,,2024-09-24,1,,,,,エイト,0
1780,9020001159305,新規,0,2024-09-24,2024-09-24,合道株式会社,,株式会社,神奈川県,川崎市多摩区,宿河原２丁目４４－３５ＧＡＲＤＥＮ・ＳＱＵＡＲＥ・ＭＵＫＯＵＧＡＯＫＡＩＩＩ・２０２号室,00136377,14,135,2140021,,,,,,,2024-09-24,1,,,,,ゴウドウ,0
1781,9020001159321,新規,0,2024-09-24,2024-09-24,株式会社ＲＩＺ,,株式会社,神奈川県,横浜市神奈川区,菅田町６０８番地１１,,14,102,2210864,,,,,,,2024-09-24,1,,,,,ライズ,0
1790,9021001083305,新規,0,2024-09-24,2024-09-24,株式会社大久保自動車,,株式会社,神奈川県,中郡二宮町,二宮８１５松本ビル３Ｆ,,14,342,2590123,,,,,,,2024-09-24,1,,,,,オオクボジドウシャ,0
1792,9030001162563,新規,0,2024-09-24,2024-09-24,ハルミ株式会社,,株式会社,埼玉県,春日部市,武里中野７２１番地５,,11,214,3440026,,,,,,,2024-09-24,1,,,,,ハルミ,0
1802,9050001055427,新規,0,2024-09-24,2024-09-24,株式会社大樹,,株式会社,茨城県,稲敷郡阿見町,大字曙１５１番地１１３,,08,443,3000306,,,,,,,2024-09-24,1,,,,,ダイジュ,0
1810,9060003005255,新規,0,2024-09-24,2024-09-24,ムーン企画合同会社,,合同会社,栃木県,塩谷郡高根沢町,光陽台２丁目５０番地１,,09,386,3291232,,,,,,,2024-09-24,1,,,,,ムーンキカク,0
1812,9070001042200,新規,0,2024-09-24,2024-09-24,あんど株式会社,,株式会社,群馬県,伊勢崎市,寿町６０番地２,,10,204,3720052,,,,,,,2024-09-24,1,,,,,アンド,0
1813,9070003005584,新規,0,2024-09-24,2024-09-24,ＲＩＳＡ　ＣＡＲＳ合同会社,,合同会社,群馬県,桐生市,相生町２丁目４７９番地７,,10,203,3760011,,,,,,,2024-09-24,1,,,,,リサカーズ,0
1820,9090001018909,新規,0,2024-09-24,2024-09-24,株式会社雅工業,,株式会社,山梨県,甲府市,小曲町１７番地１,,19,201,4000841,,,,,,,2024-09-24,1,,,,,ミヤビコウギョウ,0
1825,9090005007651,新規,0,2024-09-24,2024-09-24,一般社団法人事業承継協会山梨支部,,その他の設立登記法人,山梨県,甲府市,富士見１丁目２番２５号,,19,201,4000027,,,,,,,2024-09-24,1,,,,,ジギョウショウケイキョウカイヤマナシシブ,0
1828,9110003005522,新規,0,2024-09-24,2024-09-24,合同会社ＬＩＦＩＸ,,合同会社,新潟県,長岡市,千歳２丁目１番３９号,,15,202,9400082,,,,,,,2024-09-24,1,,,,,リフィックス,0
1835,9120001268731,新規,0,2024-09-24,2024-09-24,株式会社ｏｆｆｉｃｅ９５５５,,株式会社,大阪府,大阪市天王寺区,上本町１丁目１－１６メロディーハイム清水谷２０４号,,27,109,5430001,,,,,,,2024-09-24,1,,,,,オフィスキューゴーゴーゴー,0
1836,9120001268756,新規,0,2024-09-24,2024-09-24,高崎インターナショナル株式会社,,株式会社,大阪府,大阪市中央区,瓦屋町２丁目２番地１,,27,128,5420066,,,,,,,2024-09-24,1,,,,,タカサキインターナショナル,0
1839,9120005024544,新規,0,2024-09-24,2024-09-24,一般社団法人セーフティーウイングス大阪,,その他の設立登記法人,大阪府,交野市,私部３丁目８番９号,,27,230,5760052,,,,,,,2024-09-24,1,,,,,セーフティーウイングスオオサカ,0
1840,9120101070302,新規,0,2024-09-24,2024-09-24,金川株式会社,,株式会社,大阪府,堺市堺区,中瓦町１丁２－９－４０１,,27,141,5900077,,,,,,,2024-09-24,1,,,,,カネガワ,0
1845,9130001077990,新規,0,2024-09-24,2024-09-24,株式会社エス・マネジメント,,株式会社,京都府,宇治市,広野町新成田１０４番地の６,,26,204,6110031,,,,,,,2024-09-24,1,,,,,エスマネジメント,0
1846,9140001135839,新規,0,2024-09-24,2024-09-24,Ｂｅｓｔ　Ｑｕａｌｉｔｙ　Ｔｒａｄｅ株式会社,,株式会社,兵庫県,姫路市,飾磨区下野田２丁目４５３番地３,,28,201,6728044,,,,,,,2024-09-24,1,,,,,ベストクオリティートレイド,0
1848,9150005009625,新規,0,2024-09-24,2024-09-24,特定非営利活動法人住まいの福祉医療活用について考える会,,その他の設立登記法人,奈良県,奈良市,多門町１９番地の２,,29,201,6308112,,,,,,,2024-09-24,1,,,,,スマイノフクシイリョウカツヨウニツイテカンガエルカイ,0
1849,9160001026227,新規,0,2024-09-24,2024-09-24,今西工業株式会社,,株式会社,滋賀県,長浜市,永久寺町６４８番地,,25,203,5260833,,,,,,,2024-09-24,1,,,,,イマニシコウギョウ,0
1854,9180001163282,新規,0,2024-09-24,2024-09-24,株式会社優企画,,株式会社,愛知県,名古屋市瑞穂区,甲山町２丁目４０番地の１,,23,108,4670824,,,,,,,2024-09-24,1,,,,,ユウキカク,0
1855,9180001163308,新規,0,2024-09-24,2024-09-24,コペッツ株式会社,,株式会社,愛知県,大府市,柊山町７丁目５０番地,,23,223,4740053,,,,,,,2024-09-24,1,,,,,コペッツ,0
1856,9180001163316,新規,0,2024-09-24,2024-09-24,株式会社ＧＸ‐Ｗｏｒｌｄ　Ｃｏｒｐｏｒａｔｉｏｎ,,株式会社,愛知県,半田市,乙川末広町１６番地,,23,205,4750803,,,,,,,2024-09-24,1,,,,,ジーエックスワールドコーポレーション,0
1857,9180001163357,新規,0,2024-09-24,2024-09-24,ＨＲ株式会社,,株式会社,愛知県,稲沢市,野崎町手ケ島５番地１,,23,220,4928447,,,,,,,2024-09-24,1,,,,,エイチアール,0
1863,9180003027386,新規,0,2024-09-24,2024-09-24,合同会社Ａ＆Ｍコンサルティング,,合同会社,愛知県,名古屋市守山区,瀬古東２丁目２０１番地ナカハイツ瀬古２Ｅ,,23,113,4630090,,,,,,,2024-09-24,1,,,,,エーアンドエムコンサルティング,0
1867,9190001031661,新規,0,2024-09-24,2024-09-24,株式会社Ｒａｎｋｅｒ,,株式会社,三重県,四日市市,南納屋町３番２号,,24,202,5100043,,,,,,,2024-09-24,1,,,,,ランカー,0
1882,9240003006862,新規,0,2024-09-24,2024-09-24,金田合同会社,,合同会社,広島県,広島市南区,東雲１丁目１９－２１,,34,103,7340022,,,,,,,2024-09-24,1,,,,,カネダ,0
1884,9260001039482,新規,0,2024-09-24,2024-09-24,株式会社小松原創建,,株式会社,岡山県,岡山市南区,築港緑町１丁目２番５号,,33,104,7028055,,,,,,,2024-09-24,1,,,,,コマツバラソウケン,0
1890,9290001107303,新規,0,2024-09-24,2024-09-24,株式会社猫の手,,株式会社,福岡県,福岡市博多区,千代４丁目４番１６号２Ｆ,,40,132,8120044,,,,,,,2024-09-24,1,,,,,ネコノテ,0
1892,9290801030885,新規,0,2024-09-24,2024-09-24,トライ不動産販売株式会社,,株式会社,福岡県,北九州市小倉南区,下城野１丁目７番７ウェルカムネッツＣ棟－１１号室,,40,107,8020804,,,,,,,2024-09-24,1,,,,,トライフドウサンハンバイ,0
1903,9350001019186,新規,0,2024-09-24,2024-09-24,株式会社ＴＨＩＲＤ　ＴＥＣＨ,,株式会社,宮崎県,宮崎市,大字小松１０４３番地６,,45,201,8802112,,,,,,,2024-09-24,1,,,,,サードテック,0
1904,9360001034218,新規,0,2024-09-24,2024-09-24,株式会社やざわ屋,,株式会社,沖縄県,那覇市,おもろまち１丁目１番２５－４０７号,,47,201,9000006,,,,,,,2024-09-24,1,,,,,ヤザワヤ,0
1905,9370001051732,新規,0,2024-09-24,2024-09-24,株式会社アップビート古川,,株式会社,宮城県,大崎市,古川富長字山王４０番地４,,04,215,9896266,,,,,,,2024-09-24,1,,,,,アップビートフルカワ,0
1922,9430005015074,新規,0,2024-09-24,2024-09-24,特定非営利活動法人やうやう舎,,その他の設立登記法人,北海道,札幌市豊平区,平岸二条３丁目４番１－３０１号,,01,105,0620932,,,,,,,2024-09-24,1,,,,,ヨウヨウシャ,0
1923,9450003002543,新規,0,2024-09-24,2024-09-24,合同会社旭文堂,,合同会社,北海道,旭川市,常盤通３丁目１９７１番地１２,,01,204,0700043,,,,,,,2024-09-24,1,,,,,キョクブンドウ,0
1927,9700150127282,新規,0,2024-09-24,2024-09-24,ＳＨ　ＢＥＳＴ　ＢＵＹ　ＰＶＴ　ＬＴＤ,,外国会社等,千葉県,八街市,沖６０番地２０Ｂ,,12,230,2891126,スリランカ民主社会主義共和国、コロンボ、ハボラックロード、Ｎｏ．３０２,,,,,,2024-09-24,1,,,,,エスエイチベストバイプライベートリミテツド,0
