sequenceNumber,corporateNumber,process,correct,updateDate,changeDate,name,nameImageId,kind,prefectureName,cityName,streetNumber,addressImageId,prefectureCode,cityCode,postCode,addressOutside,addressOutsideImageId,closeDate,closeCause,successorCorporateNumber,changeCause,assignmentDate,latest,enName,enPrefectureName,enCityName,enAddressOutside,furigana,hihyoji
47,1010905001512,登記記録の閉鎖等,0,2021-07-16,2021-07-07,特定非営利活動法人せたがや環境推進２１,,その他の設立登記法人,東京都,世田谷区,八幡山１丁目１８番２５号,,13,112,1560056,,,2021-07-07,清算の結了等,,,2015-10-05,1,,,,,セタガヤカンキョウスイシンニジュウイチ,0
60,1011301015593,登記記録の閉鎖等,0,2021-07-16,2021-07-08,株式会社エスコシステム,,株式会社,東京都,杉並区,和田１丁目３９番３号,,13,115,1660012,,,2021-07-08,清算の結了等,,,2015-10-05,1,,,,,エスコシステム,0
62,1011301023381,登記記録の閉鎖等,0,2021-07-16,2021-07-08,三夢株式会社,,株式会社,東京都,杉並区,方南１丁目７番８号,,13,115,1680062,,,2021-07-08,合併による解散等,6011301023377,令和３年７月１日東京都杉並区方南一丁目８番２号株式会社貞和（6011301023377）に合併し解散,2017-07-26,1,,,,,サンム,0
64,1011401004389,登記記録の閉鎖等,0,2021-07-16,2021-07-13,東亜産業株式会社,,株式会社,東京都,板橋区,上板橋１丁目８番７号,,13,119,1740076,,,2021-07-13,清算の結了等,,,2015-10-05,1,,,,,トウアサンギョウ,0
84,1020002051848,登記記録の閉鎖等,0,2021-07-16,2021-07-07,有限会社水野谷,,有限会社,神奈川県,横浜市栄区,鍛冶ケ谷１丁目３番３５号,,14,115,2470009,,,2021-07-07,清算の結了等,,,2015-10-05,1,,,,,ミズノヤ,0
93,1021002054741,登記記録の閉鎖等,0,2021-07-16,2021-07-06,有限会社小泉建設,,有限会社,神奈川県,南足柄市,塚原４６４２番地２９,,14,217,2500117,,,2021-07-06,清算の結了等,,,2015-10-05,1,,,,,コイズミケンセツ,0
94,1021003006774,登記記録の閉鎖等,0,2021-07-16,2021-07-06,合同会社葉純商事,,合同会社,神奈川県,小田原市,鴨宮８２５番地の７,,14,206,2500874,,,2021-07-06,清算の結了等,,,2017-07-05,1,,,,,,0
97,1030001058802,登記記録の閉鎖等,0,2021-07-16,2021-07-02,株式会社セイワ,,株式会社,埼玉県,川越市,大字下赤坂６３４番地の４,,11,201,3501155,,,2021-07-02,清算の結了等,,,2015-10-05,1,,,,,,0
119,1040005014024,登記記録の閉鎖等,0,2021-07-16,2021-07-05,特定非営利活動法人アースフル,,その他の設立登記法人,千葉県,浦安市,当代島１丁目３０番２７号,,12,227,2790001,,,2021-07-05,清算の結了等,,,2015-10-05,1,,,,,アースフル,0
122,1050002041838,登記記録の閉鎖等,0,2021-07-16,2021-07-06,上野畜産有限会社,,有限会社,茨城県,筑西市,丙２０９番地,,08,227,3080031,,,2021-07-06,清算の結了等,,,2015-10-05,1,,,,,ウエノチクサン,0
161,1120102003961,登記記録の閉鎖等,0,2021-07-16,2021-07-14,有限会社初芝製材,,有限会社,大阪府,堺市東区,日置荘西町６丁２番１４号,,27,143,5998114,,,2021-07-14,清算の結了等,,,2015-10-05,1,,,,,ハツシバセイザイ,0
163,1120901024167,登記記録の閉鎖等,0,2021-07-16,2021-07-13,株式会社ジャニーバッグ,,株式会社,大阪府,豊中市,蛍池西町二丁目６番１６号,,27,203,5600000,,,2021-07-13,清算の結了等,,,2015-10-05,1,,,,,,0
209,1210001015487,登記記録の閉鎖等,0,2021-07-16,2021-07-12,リフォームバンク株式会社,,株式会社,福井県,福井市,米松２丁目２４番７号,,18,201,9100851,,,2021-07-12,清算の結了等,,,2015-10-05,1,,,,,リフォームバンク,0
211,1210005006648,登記記録の閉鎖等,0,2021-07-16,2021-07-01,社会福祉法人ウェルビーイングつるが,,その他の設立登記法人,福井県,敦賀市,桜ケ丘町８番６号,,18,202,9140144,,,2021-07-01,合併による解散等,9210005006450,令和３年７月１日福井県敦賀市開町３番３５号社会福祉法人敬仁会（9210005006450）に合併し解散,2015-10-05,1,,,,,ウェルビーイングツルガ,0
222,1260001005888,登記記録の閉鎖等,0,2021-07-16,2021-07-12,藤原建機株式会社,,株式会社,岡山県,岡山市南区,古新田１５７０番地１,,33,104,7010203,,,2021-07-12,清算の結了等,,,2015-10-05,1,,,,,フジワラケンキ,0
277,1380003004158,登記記録の閉鎖等,0,2021-07-16,2021-07-06,合同会社レイリー,,合同会社,福島県,南相馬市,小高区大井字観音前３３番地の１,,07,212,9792103,,,2021-07-06,清算の結了等,,,2017-12-11,1,,,,,レイリー,0
287,1400602000356,登記記録の閉鎖等,0,2021-07-16,2021-07-07,有限会社昭石水沢,,有限会社,岩手県,奥州市,水沢佐倉河字前田５０番地の２,,03,215,0230003,,,2021-07-07,清算の結了等,,,2015-10-05,1,,,,,ショウセキミズサワ,0
326,1500001007703,登記記録の閉鎖等,0,2021-07-16,2021-07-08,西部パレット株式会社,,株式会社,愛媛県,大洲市,菅田町菅田甲９８８番地,,38,207,7950081,,,2021-07-08,清算の結了等,,,2015-10-05,1,,,,,セイブパレット,0
327,1500001020169,登記記録の閉鎖等,0,2021-07-16,2021-07-09,株式会社へんくつや,,株式会社,愛媛県,伊予郡砥部町,拾町３６２番地１,,38,402,7912113,,,2021-07-09,清算の結了等,,,2016-10-27,1,,,,,,0
338,2010001156532,登記記録の閉鎖等,0,2021-07-16,2021-07-05,株式会社ヤクシン,,株式会社,東京都,中央区,銀座６丁目１３番７号,,13,102,1040061,,,2021-07-05,清算の結了等,,,2015-10-05,1,,,,,ヤクシン,0
339,2010001159171,登記記録の閉鎖等,0,2021-07-16,2021-07-13,ブラックスワン株式会社,,株式会社,東京都,港区,南麻布５丁目３番２３－２０２,,13,103,1060047,,,2021-07-13,合併による解散等,3040001024347,令和３年７月１日東京都渋谷区恵比寿一丁目５番８号アトランティス株式会社（3040001024347）に合併し解散,2015-10-05,1,,,,,ブラックスワン,0
363,2010702005228,登記記録の閉鎖等,0,2021-07-16,2021-07-13,有限会社千種鮨,,有限会社,東京都,品川区,上大崎３丁目３番５号,,13,109,1410021,,,2021-07-13,清算の結了等,,,2015-10-05,1,,,,,チグサズシ,0
389,2012302008453,登記記録の閉鎖等,0,2021-07-16,2021-07-01,有限会社ライフ研究所,,有限会社,東京都,町田市,忠生２丁目１５番地８８,,13,209,1940035,,,2021-07-01,清算の結了等,,,2015-10-05,1,,,,,ライフケンキュウジョ,0
399,2020001089285,登記記録の閉鎖等,0,2021-07-16,2021-07-12,横浜日野自動車株式会社,,株式会社,神奈川県,横浜市金沢区,幸浦２丁目６番地１,,14,108,2360003,,,2021-07-12,合併による解散等,5010401092060,令和３年７月１日東京都港区新橋五丁目１８番１号南関東日野自動車株式会社（5010401092060）に合併し解散,2015-10-05,1,,,,,ヨコハマヒノジドウシャ,0
408,2021001038505,登記記録の閉鎖等,0,2021-07-16,2021-07-06,株式会社ハウジングぴあ,,株式会社,神奈川県,平塚市,根坂間８２１番地１１船ビル２階,,14,203,2540904,,,2021-07-06,清算の結了等,,,2015-10-05,1,,,,,ハウジングピア,0
434,2040002044948,登記記録の閉鎖等,0,2021-07-16,2021-07-06,有限会社オフィスプロージット,,有限会社,千葉県,松戸市,古ケ崎８３３番地,,12,207,2710068,,,2021-07-06,清算の結了等,,,2015-10-05,1,,,,,オフィスプロージット,0
447,2050002029304,登記記録の閉鎖等,0,2021-07-16,2021-07-07,有限会社ストーンアップ,,有限会社,茨城県,鉾田市,鉾田２０３４番地１,,08,234,3111517,,,2021-07-07,清算の結了等,,,2015-10-05,1,,,,,,0
463,2080002006259,登記記録の閉鎖等,0,2021-07-16,2021-07-09,吉元商行有限会社,,有限会社,静岡県,静岡市駿河区,下川原４丁目２１番１７号,,22,102,4210113,,,2021-07-09,清算の結了等,,,2015-10-05,1,,,,,ヨシモトショウコウ,0
465,2080101019434,登記記録の閉鎖等,0,2021-07-16,2021-07-13,株式会社千’ｓコレクション,,株式会社,静岡県,沼津市,若葉町２０番２１号,,22,203,4100059,,,2021-07-13,清算の結了等,,,2016-10-31,1,,,,,センズコレクション,0
481,2120001123414,登記記録の閉鎖等,0,2021-07-16,2021-07-06,ＮＥＴインテリア株式会社,,株式会社,大阪府,大阪市大正区,鶴町３丁目１９番２１号,,27,108,5510023,,,2021-07-06,清算の結了等,,,2015-10-05,1,,,,,ネットインテリア,0
544,2180002031412,登記記録の閉鎖等,0,2021-07-16,2021-07-07,有限会社勢州館,,有限会社,愛知県,名古屋市名東区,桜が丘１番地,,23,115,4650096,,,2021-07-07,合併による解散等,9120001138827,令和３年７月１日大阪市中央区今橋二丁目５番８号アークレジデンシャル株式会社（9120001138827）に合併し解散,2015-10-05,1,,,,,セイシュウカン,0
547,2180302004308,登記記録の閉鎖等,0,2021-07-16,2021-07-15,有限会社稲電装,,有限会社,愛知県,岡崎市,鴨田町字向山２番地６,,23,202,4442121,,,2021-07-15,清算の結了等,,,2015-10-05,1,,,,,イナデンソウ,0
566,2290001019918,登記記録の閉鎖等,0,2021-07-16,2021-07-01,行政システムサービス株式会社,,株式会社,福岡県,福岡市博多区,東平尾１丁目３番３号,,40,132,8120853,,,2021-07-01,合併による解散等,8290001040100,令和３年７月１日福岡市博多区東平尾一丁目３番３号Ｇｃｏｍホールディングス株式会社（8290001040100）に合併し解散,2015-10-05,1,,,,,ギョウセイシステムサービス,0
578,2300001003374,登記記録の閉鎖等,0,2021-07-16,2021-07-12,坂井商事株式会社,,株式会社,佐賀県,小城市,牛津町牛津９０６番地,,41,208,8490303,,,2021-07-12,清算の結了等,,,2015-10-05,1,,,,,サカイショウジ,0
579,2300001006757,登記記録の閉鎖等,0,2021-07-16,2021-07-02,株式会社フェアネット,,株式会社,佐賀県,神埼郡吉野ヶ里町,大曲６０８４番地,,41,327,8420103,,,2021-07-02,清算の結了等,,,2015-10-05,1,,,,,フェアネット,0
584,2330003007627,登記記録の閉鎖等,0,2021-07-16,2021-07-06,合同会社藤真興建,,合同会社,熊本県,熊本市南区,城南町東阿高４４９番地６６,,43,104,8614225,,,2021-07-06,清算の結了等,,,2018-09-06,1,,,,,トウマコウケン,0
588,2340001009896,登記記録の閉鎖等,0,2021-07-16,2021-07-01,アイランド・イノベンチャー株式会社,,株式会社,鹿児島県,熊毛郡屋久島町,宮之浦４１５番地９,,46,505,8914205,,,2021-07-01,合併による解散等,3340001009887,令和３年７月１日鹿児島県熊毛郡屋久島町宮之浦１２０８番地１１屋久島海陸運輸株式会社（3340001009887）に合併し解散,2015-10-05,1,,,,,アイランドイノベンチャー,0
593,2350002008368,登記記録の閉鎖等,0,2021-07-16,2021-07-13,有限会社翔永クリエイト,,有限会社,宮崎県,宮崎市,高岡町花見１０６番地９,,45,201,8802211,,,2021-07-13,合併による解散等,9340001007308,令和３年７月１日鹿児島県霧島市国分下井２３００番地１永井クレーン工業株式会社（9340001007308）に合併し解散,2015-10-05,1,,,,,,0
605,2370001019819,登記記録の閉鎖等,0,2021-07-16,2021-07-01,株式会社東北不動産仲介センター,,株式会社,宮城県,仙台市泉区,高玉町２番地の２５,,04,105,9813116,,,2021-07-01,合併による解散等,1370001016354,令和３年７月１日仙台市泉区高玉町２番地の２５住販システムリビングサポート株式会社（1370001016354）に合併し解散,2015-10-05,1,,,,,トウホクフドウサンチュウカイセンター,0
621,2420005002294,登記記録の閉鎖等,0,2021-07-16,2021-07-02,特定非営利活動法人アートコアあおもり,,その他の設立登記法人,青森県,青森市,大字新城字平岡１６０番地の１０３９,,02,201,0380042,,,2021-07-02,清算の結了等,,,2015-10-05,1,,,,,アートコアアオモリ,0
632,2470002014197,登記記録の閉鎖等,0,2021-07-16,2021-07-12,有限会社昭和機工,,有限会社,香川県,綾歌郡宇多津町,浜七番丁９４番地２（ツインタワー瀬戸大橋３１－４０５）,,37,386,7690207,,,2021-07-12,清算の結了等,,,2015-10-05,1,,,,,ショウワキコウ,0
637,3010001001869,登記記録の閉鎖等,0,2021-07-16,2021-07-01,叶自動車工業株式会社,,株式会社,東京都,文京区,大塚２丁目８番６号,,13,105,1120012,,,2021-07-01,清算の結了等,,,2015-10-05,1,,,,,カノウジドウシャコウギョウ,0
658,3010501032901,登記記録の閉鎖等,0,2021-07-16,2021-07-07,株式会社ダンディライオン,,株式会社,千葉県,柏市,明原１丁目９番１２号向後ビル１Ｆ,,12,217,2770843,,,2021-07-07,清算の結了等,,,2015-10-05,1,,,,,ダンディライオン,0
667,3010701026018,登記記録の閉鎖等,0,2021-07-16,2021-07-07,株式会社プラザホーム管理,,株式会社,東京都,大田区,西蒲田７丁目１番３号,,13,111,1440051,,,2021-07-07,清算の結了等,,,2015-10-05,1,,,,,プラザホームカンリ,0
673,3010902023549,登記記録の閉鎖等,0,2021-07-16,2021-07-07,有限会社アタッカーズ,,有限会社,東京都,世田谷区,上野毛４丁目３３番１０号,,13,112,1580093,,,2021-07-07,清算の結了等,,,2015-10-05,1,,,,,アタッカーズ,0
697,3011502005524,登記記録の閉鎖等,0,2021-07-16,2021-07-14,有限会社牧野書店,,有限会社,東京都,北区,西ケ原３丁目６０番１８号,,13,117,1140024,,,2021-07-14,清算の結了等,,,2015-10-05,1,,,,,,0
712,3013301046063,登記記録の閉鎖等,0,2021-07-16,2021-07-12,株式会社アップストリーム,,株式会社,東京都,豊島区,東池袋１丁目４７番１２号,,13,116,1700013,,,2021-07-12,清算の結了等,,,2020-08-14,1,,,,,アップストリーム,0
715,3013401000746,登記記録の閉鎖等,0,2021-07-16,2021-07-05,株式会社宮原土建,,株式会社,東京都,日野市,栄町１丁目４０番地の３,,13,212,1910001,,,2021-07-05,清算の結了等,,,2015-10-05,1,,,,,,0
732,3030001119494,登記記録の閉鎖等,0,2021-07-16,2021-07-02,株式会社ソレイユ,,株式会社,埼玉県,春日部市,道口蛭田１７６番地１０,,11,214,3440045,,,2021-07-02,清算の結了等,,,2017-04-05,1,,,,,ソレイユ,0
737,3040001069078,登記記録の閉鎖等,0,2021-07-16,2021-07-06,株式会社ベルプランニング,,株式会社,千葉県,我孫子市,台田３丁目６番１６号,,12,222,2701167,,,2021-07-06,清算の結了等,,,2015-10-05,1,,,,,ベルプランニング,0
758,3060002032157,登記記録の閉鎖等,0,2021-07-16,2021-07-05,有限会社西陵,,有限会社,栃木県,栃木市,箱森町２６番６６号,,09,203,3280075,,,2021-07-05,清算の結了等,,,2015-10-05,1,,,,,セイリョウ,0
774,3110001013714,登記記録の閉鎖等,0,2021-07-16,2021-07-08,株式会社オーシャンコンストラクト,,株式会社,新潟県,新発田市,舟入町１丁目１６番２５号,,15,206,9570065,,,2021-07-08,清算の結了等,,,2015-10-05,1,,,,,,0
776,3110002000133,登記記録の閉鎖等,0,2021-07-16,2021-07-08,有限会社高助材木店,,有限会社,新潟県,新潟市西区,大野町２９２７番地,,15,107,9501111,,,2021-07-08,清算の結了等,,,2015-10-05,1,,,,,タカスケザイモクテン,0
777,3110002025799,登記記録の閉鎖等,0,2021-07-16,2021-07-08,有限会社ひのでや,,有限会社,新潟県,十日町市,川治３９５番地,,15,210,9480036,,,2021-07-08,清算の結了等,,,2015-10-05,1,,,,,ヒノデヤ,0
799,3120101033982,登記記録の閉鎖等,0,2021-07-16,2021-07-13,むくもと園芸株式会社,,株式会社,大阪府,河内長野市,栄町２６番１９号,,27,216,5860032,,,2021-07-13,清算の結了等,,,2015-10-05,1,,,,,ムクモトエンゲイ,0
818,3130001048502,登記記録の閉鎖等,0,2021-07-16,2021-07-08,株式会社ＳＡＫＵＲＡ　Ｄｉｎｉｎｇ,,株式会社,京都府,京都市中京区,河原町通三条東入中島町９０番地フェリチタ三条木屋町,,26,104,6048004,,,2021-07-08,清算の結了等,,,2015-10-05,1,,,,,サクラダイニング,0
819,3130001049541,登記記録の閉鎖等,0,2021-07-16,2021-07-08,株式会社エフオービー物流,,株式会社,京都府,宇治市,菟道東隼上り４８－１,,26,204,6110000,,,2021-07-08,清算の結了等,,,2015-10-05,1,,,,,,0
826,3140001035219,登記記録の閉鎖等,0,2021-07-16,2021-07-02,株式会社ドムール松谷,,株式会社,兵庫県,明石市,鍛治屋町３番１０号,,28,203,6730884,,,2021-07-02,清算の結了等,,,2015-10-05,1,,,,,ドムールマツタニ,0
827,3140001054334,登記記録の閉鎖等,0,2021-07-16,2021-07-08,株式会社輝機,,株式会社,兵庫県,尼崎市,長洲西通１丁目１３番２７号,,28,202,6600807,,,2021-07-08,清算の結了等,,,2015-10-05,1,,,,,コウキ,0
831,3140001094388,登記記録の閉鎖等,0,2021-07-16,2021-07-07,株式会社シャーロック,,株式会社,兵庫県,丹波篠山市,郡家２２５番地２,,28,221,6692341,,,2021-07-07,清算の結了等,,,2015-10-05,1,,,,,シャーロック,0
832,3140001098711,登記記録の閉鎖等,0,2021-07-16,2021-07-08,株式会社大岡,,株式会社,兵庫県,神戸市灘区,友田町１丁目４番１９－２号,,28,102,6570035,,,2021-07-08,清算の結了等,,,2015-10-05,1,,,,,オウオカ,0
849,3190001012213,登記記録の閉鎖等,0,2021-07-16,2021-07-12,株式会社コンサルタントカワチ,,株式会社,三重県,桑名市,大字矢田７５２番地の１,,24,205,5110821,,,2021-07-12,清算の結了等,,,2015-10-05,1,,,,,,0
875,3240002042402,登記記録の閉鎖等,0,2021-07-16,2021-07-01,有限会社パワーズ,,有限会社,広島県,福山市,今津町４丁目８番３－１号,,34,207,7290111,,,2021-07-01,清算の結了等,,,2015-10-05,1,,,,,,0
880,3260001021685,登記記録の閉鎖等,0,2021-07-16,2021-07-12,富士砕石工業株式会社,,株式会社,岡山県,備前市,日生町日生２４１番地の２３,,33,211,7013204,,,2021-07-12,清算の結了等,,,2015-10-05,1,,,,,フジサイセキコウギョウ,0
884,3290001073245,登記記録の閉鎖等,0,2021-07-16,2021-07-01,ＨＡＬ株式会社,,株式会社,福岡県,福岡市早良区,野芥６丁目５１番４５号,,40,137,8140171,,,2021-07-01,清算の結了等,,,2016-03-16,1,,,,,,0
897,3310002002687,登記記録の閉鎖等,0,2021-07-16,2021-07-05,西部開発有限会社,,有限会社,長崎県,長崎市,立岩町８番８号,,42,201,8528025,,,2021-07-05,清算の結了等,,,2015-10-05,1,,,,,セイブカイハツ,0
924,3430001012709,登記記録の閉鎖等,0,2021-07-16,2021-07-06,日三産業株式会社,,株式会社,北海道,札幌市清田区,北野五条３丁目４番１９号,,01,110,0040865,,,2021-07-06,清算の結了等,,,2015-10-05,1,,,,,ニチサンサンギョウ,0
928,3430001082173,登記記録の閉鎖等,0,2021-07-16,2021-07-15,株式会社Ｒ．ＴＲＵＳＴ,,株式会社,北海道,札幌市東区,北二十五条東１８丁目１番３号,,01,103,0650025,,,2021-07-15,清算の結了等,,,2020-08-24,1,,,,,アールトラスト,0
931,3430002039610,登記記録の閉鎖等,0,2021-07-16,2021-07-12,有限会社鎬エステート,,有限会社,東京都,杉並区,阿佐谷北６丁目４１番１０号,,13,115,1660001,,,2021-07-12,合併による解散等,7011101034664,令和３年７月１日東京都新宿区西新宿七丁目８番１１号美笠ビル７０１号株式会社雅コーポレーション（7011101034664）に合併し解散,2015-10-05,1,,,,,,0
932,3450002002814,登記記録の閉鎖等,0,2021-07-16,2021-07-15,翔土木有限会社,,有限会社,北海道,旭川市,永山八条２０丁目２番１号,,01,204,0798418,,,2021-07-15,清算の結了等,,,2015-10-05,1,,,,,ショウドボク,0
941,3490002008634,登記記録の閉鎖等,0,2021-07-16,2021-07-13,有限会社フレンドストアー山本,,有限会社,高知県,四万十市,下田１６２３番地,,39,210,7870155,,,2021-07-13,清算の結了等,,,2021-05-13,1,,,,,フレンドストアーヤマモト,0
995,4011601001563,登記記録の閉鎖等,0,2021-07-16,2021-07-01,関東医療電器株式会社,,株式会社,東京都,文京区,白山１丁目２３番１５号,,13,105,1130001,,,2021-07-01,合併による解散等,9010001000675,令和３年７月１日東京都文京区白山一丁目２３番１５号伊藤超短波株式会社（9010001000675）に合併し解散,2015-10-05,1,,,,,カントウイリョウデンキ,0
1021,4020002038669,登記記録の閉鎖等,0,2021-07-16,2021-07-05,有限会社鈴木熔接工業所,,有限会社,神奈川県,横浜市鶴見区,潮田町１丁目６３番地,,14,101,2300041,,,2021-07-05,清算の結了等,,,2015-10-05,1,,,,,スズキヨウセツコウギョウショ,0
1059,4050002042313,登記記録の閉鎖等,0,2021-07-16,2021-07-06,有限会社東友,,有限会社,茨城県,筑西市,東榎生９６８番地３,,08,227,3080831,,,2021-07-06,清算の結了等,,,2015-10-05,1,,,,,トウユウ,0
1062,4060001033056,登記記録の閉鎖等,0,2021-07-16,2021-07-05,株式会社魂胆,,株式会社,栃木県,足利市,伊勢町３丁目４番地８,,09,202,3260053,,,2021-07-05,清算の結了等,,,2020-10-20,1,,,,,コンタン,0
1066,4060002033229,登記記録の閉鎖等,0,2021-07-16,2021-07-06,有限会社晃新工業,,有限会社,神奈川県,川崎市川崎区,小田栄１丁目６番１９号,,14,131,2100843,,,2021-07-06,清算の結了等,,,2015-10-05,1,,,,,コウシンコウギョウ,0
1068,4070002017692,登記記録の閉鎖等,0,2021-07-16,2021-07-12,有限会社ビューティヨシダ,,有限会社,群馬県,藤岡市,藤岡甲７５番地の１,,10,209,3750024,,,2021-07-12,清算の結了等,,,2015-10-05,1,,,,,ビューティヨシダ,0
1071,4080002000508,登記記録の閉鎖等,0,2021-07-16,2021-07-09,有限会社石椛商店,,有限会社,静岡県,静岡市葵区,七番町３番地の２５,,22,101,4200077,,,2021-07-09,清算の結了等,,,2015-10-05,1,,,,,,0
1076,4080401000703,登記記録の閉鎖等,0,2021-07-16,2021-07-13,遠州ナイロン工業株式会社,,株式会社,静岡県,浜松市中区,神田町７５１番地,,22,131,4328047,,,2021-07-13,清算の結了等,,,2015-10-05,1,,,,,エンシュウナイロンコウギョウ,0
1083,4110001015214,登記記録の閉鎖等,0,2021-07-16,2021-07-05,斎平木工株式会社,,株式会社,新潟県,加茂市,番田２番１１号,,15,209,9591314,,,2021-07-05,清算の結了等,,,2015-10-05,1,,,,,サイヘイモッコウ,0
1110,4122001002042,登記記録の閉鎖等,0,2021-07-16,2021-07-12,株式会社北川工作所,,株式会社,大阪府,東大阪市,菱屋西２丁目５番２３号,,27,227,5770807,,,2021-07-12,清算の結了等,,,2015-10-05,1,,,,,キタガワコウサクショ,0
1133,4180002012294,登記記録の閉鎖等,0,2021-07-16,2021-07-06,有限会社幸乃屋,,有限会社,愛知県,名古屋市北区,上飯田西町３丁目９番地の１４,,23,103,4620809,,,2021-07-06,清算の結了等,,,2015-10-05,1,,,,,サチノヤ,0
1149,4200003004767,登記記録の閉鎖等,0,2021-07-16,2021-07-07,合同会社Ｋａｉ　Ｊａｐａｎ,,合同会社,岐阜県,岐阜市,金園町１丁目５番地,,21,201,5008113,,,2021-07-07,清算の結了等,,,2020-04-06,1,,,,,カイジャパン,0
1152,4210001016383,登記記録の閉鎖等,0,2021-07-16,2021-07-12,ビルドアップ株式会社,,株式会社,福井県,福井市,米松２丁目２４番７号,,18,201,9100851,,,2021-07-12,清算の結了等,,,2016-06-30,1,,,,,ビルドアップ,0
1160,4240002044703,登記記録の閉鎖等,0,2021-07-16,2021-07-01,有限会社アワツ工業,,有限会社,広島県,福山市,柳津町３丁目１番３４号,,34,207,7290114,,,2021-07-01,清算の結了等,,,2015-10-05,1,,,,,アワツコウギョウ,0
1175,4290001056125,登記記録の閉鎖等,0,2021-07-16,2021-07-01,株式会社さくら,,株式会社,福岡県,福岡市西区,野方２丁目１３番５号,,40,135,8190043,,,2021-07-01,清算の結了等,,,2015-10-05,1,,,,,サクラ,0
1184,4290805008890,登記記録の閉鎖等,0,2021-07-16,2021-07-09,農事組合法人奈古営農組合,,その他の設立登記法人,福岡県,築上郡築上町,大字奈古２６６番地１,,40,647,8290334,,,2021-07-09,清算の結了等,,,2016-08-15,1,,,,,ナゴエイノウクミアイ,0
1192,4330002026015,登記記録の閉鎖等,0,2021-07-16,2021-07-06,第一映画有限会社,,有限会社,熊本県,八代市,田中東町１６号２番地森口邸,,43,202,8660871,,,2021-07-06,清算の結了等,,,2015-10-05,1,,,,,ダイイチエイガ,0
1209,4380005010424,登記記録の閉鎖等,0,2021-07-16,2021-07-12,一般社団法人フェイス,,その他の設立登記法人,兵庫県,明石市,魚住町住吉２丁目１８番１６号,,28,203,6740083,,,2021-07-12,清算の結了等,,,2015-10-05,1,,,,,フェイス,0
1235,4450002010221,登記記録の閉鎖等,0,2021-07-16,2021-07-15,有限会社福音,,有限会社,北海道,士別市,西四条８丁目３２７番地３４,,01,220,0950024,,,2021-07-15,清算の結了等,,,2015-10-05,1,,,,,フクネ,0
1248,4500002017434,登記記録の閉鎖等,0,2021-07-16,2021-07-13,有限会社白石＿魚部,00008110,有限会社,愛媛県,新居浜市,西町２番２１号,,38,205,7920014,,,2021-07-13,清算の結了等,,,2015-10-05,1,,,,,シライシセンギョブ,0
1267,5010102003473,登記記録の閉鎖等,0,2021-07-16,2021-07-08,有限会社杉崎商店,,有限会社,東京都,八王子市,元横山町３丁目１２番７号,,13,201,1920063,,,2021-07-08,清算の結了等,,,2015-10-05,1,,,,,スギサキショウテン,0
1298,5011001055671,登記記録の閉鎖等,0,2021-07-16,2021-07-01,株式会社スマイルラボ,,株式会社,東京都,渋谷区,恵比寿南１丁目９番６号,,13,113,1500022,,,2021-07-01,合併による解散等,8011001105614,令和３年７月１日東京都渋谷区恵比寿南一丁目９番６号恵比寿パークプラザ１階株式会社リンクラボ（8011001105614）に合併し解散,2015-10-05,1,,,,,スマイルラボ,0
1348,5030001026986,登記記録の閉鎖等,0,2021-07-16,2021-07-02,清水建設株式会社,,株式会社,埼玉県,入間市,東藤沢３丁目１４番４５号,,11,225,3580012,,,2021-07-02,清算の結了等,,,2015-10-05,1,,,,,シミズケンセツ,0
1352,5030001058856,登記記録の閉鎖等,0,2021-07-16,2021-07-02,Ｊ．Ｓ．Ｃ．株式会社,,株式会社,埼玉県,富士見市,ふじみ野東２丁目１番地１グリーンテラスふじみ野３０６,,11,235,3540036,,,2021-07-02,清算の結了等,,,2015-10-05,1,,,,,,0
1360,5030005016570,登記記録の閉鎖等,0,2021-07-16,2021-07-05,特定非営利活動法人オルオル,,その他の設立登記法人,埼玉県,東松山市,大字東平１３８０番地６９,,11,212,3550002,,,2021-07-05,清算の結了等,,,2015-10-05,1,,,,,オルオル,0
1363,5040001062997,登記記録の閉鎖等,0,2021-07-16,2021-07-06,株式会社ヒロマゴ,,株式会社,千葉県,銚子市,新町５１０番地,,12,202,2880825,,,2021-07-06,清算の結了等,,,2015-10-05,1,,,,,ヒロマゴ,0
1385,5070002035644,登記記録の閉鎖等,0,2021-07-16,2021-07-12,有限会社モグハウス,,有限会社,群馬県,利根郡みなかみ町,藤原３５３４番地の２,,10,449,3791721,,,2021-07-12,清算の結了等,,,2015-10-05,1,,,,,モグハウス,0
1388,5080101010902,登記記録の閉鎖等,0,2021-07-16,2021-07-12,株式会社佐野組,,株式会社,静岡県,富士市,南松野１９９１番地,,22,210,4213303,,,2021-07-12,清算の結了等,,,2015-10-05,1,,,,,サノグミ,0
1396,5080405000269,登記記録の閉鎖等,0,2021-07-16,2021-07-12,医療法人社団高祐会,00068564,その他の設立登記法人,静岡県,浜松市南区,若林町１５３番地,,22,134,4328051,,,2021-07-12,清算の結了等,,,2015-10-05,1,,,,,コウユウカイ,0
1441,5140001094188,登記記録の閉鎖等,0,2021-07-16,2021-07-07,株式会社勇希運送,,株式会社,大阪府,大阪市西淀川区,竹島５丁目４番４３号,,27,113,5550011,,,2021-07-07,清算の結了等,,,2015-10-05,1,,,,,ユウキウンソウ,0
1443,5140002021950,登記記録の閉鎖等,0,2021-07-16,2021-07-06,有限会社レッツ,,有限会社,兵庫県,芦屋市,茶屋之町５番１８号,,28,206,6590067,,,2021-07-06,清算の結了等,,,2015-10-05,1,,,,,レッツ,0
1448,5150001015201,登記記録の閉鎖等,0,2021-07-16,2021-07-05,株式会社トーク,,株式会社,奈良県,北葛城郡河合町,広瀬台３丁目３番地９,,29,427,6360073,,,2021-07-05,清算の結了等,,,2015-10-05,1,,,,,トーク,0
1464,5180301013117,登記記録の閉鎖等,0,2021-07-16,2021-07-14,株式会社テクスマ,,株式会社,愛知県,安城市,今池町２丁目１番４２号,,23,212,4460071,,,2021-07-14,清算の結了等,,,2015-10-05,1,,,,,テクスマ,0
1467,5180305008492,登記記録の閉鎖等,0,2021-07-16,2021-07-14,一般社団法人トーカイ・フォト・ネットワーク,,その他の設立登記法人,愛知県,豊田市,栄町１丁目４２番地１,,23,211,4710066,,,2021-07-14,清算の結了等,,,2016-03-04,1,,,,,トーカイフォトネットワーク,0
1481,5230001012297,登記記録の閉鎖等,0,2021-07-16,2021-07-02,株式会社ＭＡＴＳＵ,,株式会社,富山県,高岡市,野村１７７５番地３,,16,202,9330014,,,2021-07-02,清算の結了等,,,2015-10-05,1,,,,,マツ,0
1507,5290805001044,登記記録の閉鎖等,0,2021-07-16,2021-07-09,医療法人社団片山循環器・内科クリニック,,その他の設立登記法人,福岡県,北九州市戸畑区,千防２丁目６番２４号,,40,105,8040081,,,2021-07-09,清算の結了等,,,2015-10-05,1,,,,,カタヤマジュンカンキナイカクリニック,0
1511,5310001010284,登記記録の閉鎖等,0,2021-07-16,2021-07-08,壱岐ビジョン株式会社,,株式会社,兵庫県,神戸市中央区,中町通２丁目３番２号,,28,110,6500027,,,2021-07-08,清算の結了等,,,2015-10-05,1,,,,,イキビジョン,0
1544,5400002001273,登記記録の閉鎖等,0,2021-07-16,2021-07-13,有限会社こまち薬局,,有限会社,岩手県,盛岡市,盛岡駅前通１０番１４号,,03,201,0200034,,,2021-07-13,合併による解散等,5010401134779,令和３年７月１日東京都港区虎ノ門四丁目３番１号城山トラストタワー３７階クオール株式会社（5010401134779）に合併し解散,2015-10-05,1,,,,,,0
1578,6010001158772,登記記録の閉鎖等,0,2021-07-16,2021-07-01,株式会社ＣＰＭ,,株式会社,東京都,中央区,京橋３丁目９番４号,,13,102,1040031,,,2021-07-01,清算の結了等,,,2015-10-05,1,,,,,シーピーエム,0
1582,6010003014767,登記記録の閉鎖等,0,2021-07-16,2021-07-05,タニガワ・プロパティーズ合同会社,,合同会社,東京都,中央区,日本橋１丁目４番１号,,13,102,1030027,,,2021-07-05,清算の結了等,,,2015-10-05,1,,,,,タニガワプロパティーズ,0
1584,6010005022306,登記記録の閉鎖等,0,2021-07-16,2021-07-02,一般社団法人リブストーリー,,その他の設立登記法人,東京都,中央区,日本橋本石町３丁目３番１６号,,13,102,1030021,,,2021-07-02,清算の結了等,,,2015-10-05,1,,,,,リブストーリー,0
1600,6010701015307,登記記録の閉鎖等,0,2021-07-16,2021-07-01,東京日産自動車販売株式会社,,株式会社,東京都,品川区,西五反田４丁目３２番１号,,13,109,1410031,,,2021-07-01,合併による解散等,3010701017000,令和３年７月１日東京都品川区西五反田四丁目３２番１号日産東京販売株式会社（3010701017000）に合併し解散,2015-10-05,1,,,,,トウキョウニッサンジドウシャハンバイ,0
1606,6010901040690,登記記録の閉鎖等,0,2021-07-16,2021-07-08,株式会社エミリ,,株式会社,東京都,世田谷区,砧８丁目２３番１１号,,13,112,1570073,,,2021-07-08,清算の結了等,,,2017-08-24,1,,,,,エミリ,0
1618,6011201001524,登記記録の閉鎖等,0,2021-07-16,2021-07-06,株式会社栗原ビルメンテナンス,,株式会社,東京都,中野区,本町４丁目４８番２０号,,13,114,1640012,,,2021-07-06,清算の結了等,,,2015-10-05,1,,,,,クリハラビルメンテナンス,0
1669,6040005017105,登記記録の閉鎖等,0,2021-07-16,2021-07-05,ＮＰＯ法人南外房環境クラブ,,その他の設立登記法人,千葉県,勝浦市,興津２６５６番地,,12,218,2995245,,,2021-07-05,清算の結了等,,,2015-10-05,1,,,,,ミナミソトボウカンキョウクラブ,0
1680,6080002006123,登記記録の閉鎖等,0,2021-07-16,2021-07-15,有限会社山梨荘,,有限会社,静岡県,静岡市駿河区,泉町７番３４号,,22,102,4228066,,,2021-07-15,清算の結了等,,,2015-10-05,1,,,,,ヤマナシソウ,0
1685,6080402006540,登記記録の閉鎖等,0,2021-07-16,2021-07-13,有限会社浜友,,有限会社,静岡県,浜松市東区,天龍川町８９１番地の５,,22,132,4350013,,,2021-07-13,清算の結了等,,,2015-10-05,1,,,,,ハマトモ,0
1710,6120101000492,登記記録の閉鎖等,0,2021-07-16,2021-07-08,株式会社アラセイ金属,,株式会社,大阪府,堺市,伏尾７２２番地,,27,201,5998254,,,2021-07-08,清算の結了等,,,2021-05-10,1,,,,,アラセイキンゾク,0
1723,6140001002760,登記記録の閉鎖等,0,2021-07-16,2021-07-08,ライラック商事株式会社,,株式会社,兵庫県,神戸市東灘区,本庄町３丁目７番２１号,,28,101,6580012,,,2021-07-08,清算の結了等,,,2015-10-05,1,,,,,ライラックショウジ,0
1730,6140001059891,登記記録の閉鎖等,0,2021-07-16,2021-07-01,株式会社高岡温泉満月城,,株式会社,兵庫県,姫路市,福沢町１４８番地,,28,201,6700992,,,2021-07-01,清算の結了等,,,2015-10-05,1,,,,,タカオカオンセンマンゲツジョウ,0
1738,6140002025224,登記記録の閉鎖等,0,2021-07-16,2021-07-08,有限会社ＰＡＧＩＮＡ　１,,有限会社,兵庫県,神戸市中央区,山本通１丁目７番９号,,28,110,6500003,,,2021-07-08,清算の結了等,,,2015-10-05,1,,,,,パージナワン,0
1762,6190001009743,登記記録の閉鎖等,0,2021-07-16,2021-07-12,株式会社岩木,,株式会社,三重県,名張市,夏見３３５７番地,,24,208,5180441,,,2021-07-12,清算の結了等,,,2015-10-05,1,,,,,イワキ,0
1801,6310001003436,登記記録の閉鎖等,0,2021-07-16,2021-07-06,株式会社ダイイチ企画,,株式会社,長崎県,西彼杵郡長与町,吉無田郷１４８９番地５６,,42,307,8512126,,,2021-07-06,清算の結了等,,,2015-10-05,1,,,,,ダイイチキカク,0
1804,6320003001288,登記記録の閉鎖等,0,2021-07-16,2021-07-01,合資会社計屋本店,,合資会社,大分県,日田市,川原町１番１６号,,44,204,8770043,,,2021-07-01,清算の結了等,,,2015-10-05,1,,,,,ハカリヤホンテン,0
1805,6330002016138,登記記録の閉鎖等,0,2021-07-16,2021-07-06,有限会社ケイエスシステム,,有限会社,熊本県,菊池郡大津町,大字大津１０６１番地,,43,403,8691233,,,2021-07-06,清算の結了等,,,2015-10-05,1,,,,,ケイエスシステム,0
1840,6440005000045,登記記録の閉鎖等,0,2021-07-16,2021-07-09,協同組合バザール湯川,,その他の設立登記法人,北海道,函館市,湯川町２丁目１８番８号,,01,202,0420932,,,2021-07-09,清算の結了等,,,2015-10-05,1,,,,,バザールユノカワ,0
1841,6450001007489,登記記録の閉鎖等,0,2021-07-16,2021-07-15,ファインソフト株式会社,,株式会社,北海道,名寄市,字豊栄１１９番地３,,01,221,0960072,,,2021-07-15,清算の結了等,,,2015-10-05,1,,,,,ファインソフト,0
1842,6460001001788,登記記録の閉鎖等,0,2021-07-16,2021-07-06,株式会社丸よ山田商店,,株式会社,北海道,釧路市,喜多町５番１４号,,01,206,0850043,,,2021-07-06,清算の結了等,,,2015-10-05,1,,,,,マルヨヤマダショウテン,0
1853,7010001094876,登記記録の閉鎖等,0,2021-07-16,2021-07-08,株式会社アライアンス・ドリーム,,株式会社,東京都,中央区,京橋１丁目４番１１号竹本ビル５階,,13,102,1040031,,,2021-07-08,合併による解散等,4013301013062,令和３年６月３０日東京都豊島区東池袋一丁目１番１号株式会社ユートク・ライフ（4013301013062）に合併し解散,2015-10-05,1,,,,,アライアンスドリーム,0
1868,7010401151500,登記記録の閉鎖等,0,2021-07-16,2021-07-05,Ｍｏｓａｉｃ　Ｊａｐａｎ株式会社,,株式会社,東京都,港区,赤坂２丁目１４番５号Ｄａｉｗａ赤坂ビル４階,,13,103,1070052,,,2021-07-05,清算の結了等,,,2020-03-06,1,,,,,モザイクジャパン,0
1882,7010801009587,登記記録の閉鎖等,0,2021-07-16,2021-07-07,株式会社ハウジングプラザ,,株式会社,東京都,大田区,西蒲田７丁目１番３号,,13,111,1440051,,,2021-07-07,清算の結了等,,,2015-10-05,1,,,,,ハウジングプラザ,0
1891,7011001100847,登記記録の閉鎖等,0,2021-07-16,2021-07-05,ＵＮＣＬＡＣＫ株式会社,,株式会社,東京都,中央区,築地２丁目１４番６号,,13,102,1040045,,,2021-07-05,清算の結了等,,,2015-10-05,1,,,,,アンクラック,0
1899,7011201001523,登記記録の閉鎖等,0,2021-07-16,2021-07-06,栗原建物株式会社,,株式会社,東京都,中野区,本町４丁目４８番１７号,,13,114,1640012,,,2021-07-06,清算の結了等,,,2015-10-05,1,,,,,クリハラタテモノ,0
1916,7013102007475,登記記録の閉鎖等,0,2021-07-16,2021-07-07,有限会社岩瀬電機,,有限会社,東京都,青梅市,千ヶ瀬町２丁目１７３番地の１５,,13,205,1980043,,,2021-07-07,清算の結了等,,,2015-10-05,1,,,,,イワセデンキ,0
1924,7020002051850,登記記録の閉鎖等,0,2021-07-16,2021-07-07,有限会社理容たかの,,有限会社,神奈川県,横浜市戸塚区,矢部町１６２５番地,,14,110,2440002,,,2021-07-07,清算の結了等,,,2015-10-05,1,,,,,リヨウタカノ,0
1939,7030001063037,登記記録の閉鎖等,0,2021-07-16,2021-07-05,株式会社アクセスプラス,,株式会社,埼玉県,北本市,東間５丁目９０番地サンマンション北本２－５１３,,11,233,3640007,,,2021-07-05,清算の結了等,,,2015-10-05,1,,,,,アクセスプラス,0
1954,7040002001580,登記記録の閉鎖等,0,2021-07-16,2021-07-05,有限会社エイエムモータース,,有限会社,千葉県,千葉市花見川区,千種町４９番地２１,,12,102,2620012,,,2021-07-05,清算の結了等,,,2015-10-05,1,,,,,エイエムモータース,0
1988,7100001007572,登記記録の閉鎖等,0,2021-07-16,2021-07-09,株式会社ノエビア佐久,,株式会社,長野県,佐久市,平賀４４２６番地５,,20,217,3850034,,,2021-07-09,清算の結了等,,,2015-10-05,1,,,,,ノエビアサク,0
2010,7120101039992,登記記録の閉鎖等,0,2021-07-16,2021-07-14,中庄住宅株式会社,,株式会社,大阪府,泉佐野市,中庄１９２番地,,27,213,5980002,,,2021-07-14,清算の結了等,,,2015-10-05,1,,,,,ナカショウジュウタク,0
2015,7120102005192,登記記録の閉鎖等,0,2021-07-16,2021-07-14,有限会社ルーモア・サービスフード,,有限会社,大阪府,堺市北区,南花田町３０２番地,,27,146,5918011,,,2021-07-14,清算の結了等,,,2015-10-05,1,,,,,ルーモアサービスフード,0
2021,7130001046758,登記記録の閉鎖等,0,2021-07-16,2021-07-08,株式会社ＳＡＫＵＲＡエンタープライズ,,株式会社,京都府,京都市中京区,河原町通三条東入中島町９０番地フェリチタ三条木屋町,,26,104,6048004,,,2021-07-08,清算の結了等,,,2015-10-05,1,,,,,,0
2031,7160001003913,登記記録の閉鎖等,0,2021-07-16,2021-07-06,株式会社Ｒａｙ　Ｔｒａｄｉｎｇ,,株式会社,滋賀県,大津市,南小松１５６番地の１,,25,201,5200502,,,2021-07-06,清算の結了等,,,2015-10-05,1,,,,,レイトレーディング,0
2035,7180001112927,登記記録の閉鎖等,0,2021-07-16,2021-07-09,株式会社サムシングＧ,,株式会社,三重県,津市,東丸之内６番１４号,,24,201,5140028,,,2021-07-09,清算の結了等,,,2015-10-05,1,,,,,サムシングジー,0
2051,7190002008792,登記記録の閉鎖等,0,2021-07-16,2021-07-07,有限会社サニーフルーツ,,有限会社,三重県,伊勢市,楠部町１９９番地３２,,24,203,5160014,,,2021-07-07,清算の結了等,,,2015-10-05,1,,,,,サニーフルーツ,0
2059,7220002000151,登記記録の閉鎖等,0,2021-07-16,2021-07-07,有限会社修景社,,有限会社,石川県,白山市,荒屋町と４８番２,,17,210,9202151,,,2021-07-07,清算の結了等,,,2015-10-05,1,,,,,シュウケイシャ,0
2108,7370002017692,登記記録の閉鎖等,0,2021-07-16,2021-06-30,有限会社ディアミール,,有限会社,宮城県,仙台市泉区,向陽台４丁目１１番２２号,,04,105,9813102,,,2021-06-30,清算の結了等,,,2015-10-05,1,,,,,ディアミール,0
2115,7380001022783,登記記録の閉鎖等,0,2021-07-16,2021-07-06,こころガーデン株式会社,,株式会社,福島県,福島市,鎌田字舟戸前１５番地１,,07,201,9600102,,,2021-07-06,合併による解散等,8380001003122,令和３年７月１日福島市鎌田字舟戸前１５番地１こころネット株式会社（8380001003122）に合併し解散,2015-10-05,1,,,,,ココロガーデン,0
2141,7490003000363,登記記録の閉鎖等,0,2021-07-16,2021-07-15,合同会社里,,合同会社,高知県,高知市,潮見台２丁目２２０１番地,,39,201,7815108,,,2021-07-15,清算の結了等,,,2015-10-05,1,,,,,サト,0
2146,8010001074563,登記記録の閉鎖等,0,2021-07-16,2021-07-05,日本インフォビューテクノロジス株式会社,,株式会社,東京都,中央区,日本橋浜町１丁目３番１２号第７センタープラザ６Ｆ,,13,102,1030007,,,2021-07-05,合併による解散等,2010401052620,令和３年７月１日東京都千代田区麹町二丁目５番１号株式会社ワークスアプリケーションズ・システムズ（2010401052620）に合併し解散,2015-10-05,1,,,,,ニホンインフォビューテクノロジス,0
2148,8010001078176,登記記録の閉鎖等,0,2021-07-16,2021-07-05,ジェーユースタイル株式会社,,株式会社,東京都,中央区,日本橋馬喰町１丁目１１番１号,,13,102,1030002,,,2021-07-05,清算の結了等,,,2015-10-05,1,,,,,ジェーユースタイル,0
2149,8010001109740,登記記録の閉鎖等,0,2021-07-16,2021-07-01,株式会社不二家フードサービス,,株式会社,東京都,中央区,銀座４丁目２番１２号,,13,102,1040061,,,2021-07-01,合併による解散等,3010001034910,令和３年７月１日東京都文京区大塚二丁目１５番６号株式会社不二家（3010001034910）に合併し解散,2015-10-05,1,,,,,フジヤフードサービス,0
2162,8010003028071,登記記録の閉鎖等,0,2021-07-16,2021-07-06,ＨＯＡＮＧ　ＨＵＹ合同会社,,合同会社,千葉県,旭市,川口５０番,,12,215,2892535,,,2021-07-06,清算の結了等,,,2018-08-13,1,,,,,ホホアンフィ,0
2165,8010401099689,登記記録の閉鎖等,0,2021-07-16,2021-07-05,ＨＲＢｏｓｓ　Ｊａｐａｎ株式会社,,株式会社,東京都,港区,虎ノ門５丁目１２－８クローバー神谷町１０階,,13,103,1050001,,,2021-07-05,清算の結了等,,,2015-10-05,1,,,,,エイチアールボスジャパン,0
2167,8010402002767,登記記録の閉鎖等,0,2021-07-16,2021-07-05,有限会社大仁不動産,,有限会社,東京都,港区,海岸３丁目１９番２－１０７号,,13,103,1080022,,,2021-07-05,清算の結了等,,,2015-10-05,1,,,,,ダイニフドウサン,0
2175,8010601047431,登記記録の閉鎖等,0,2021-07-16,2021-07-01,株式会社Ｄｏｕｂｌｅ－Ｄ,,株式会社,東京都,新宿区,西新宿６丁目１１番３号,,13,104,1600023,,,2021-07-01,合併による解散等,6010601042302,令和３年７月１日東京都新宿区西新宿六丁目１１番３号大和リビングマネジメント株式会社（6010601042302）に合併し解散,2015-10-05,1,,,,,ダブルディー,0
2187,8010902025623,登記記録の閉鎖等,0,2021-07-16,2021-07-07,有限会社八木商店,,有限会社,東京都,世田谷区,松原３丁目７番１４号,,13,112,1560043,,,2021-07-07,清算の結了等,,,2015-10-05,1,,,,,ヤギショウテン,0
2189,8011001070098,登記記録の閉鎖等,0,2021-07-16,2021-07-08,株式会社スーパーペット,,株式会社,東京都,港区,芝大門２丁目８番１３号,,13,103,1050012,,,2021-07-08,清算の結了等,,,2015-10-05,1,,,,,スーパーペット,0
2194,8011002009095,登記記録の閉鎖等,0,2021-07-16,2021-07-08,有限会社富田屋,,有限会社,東京都,世田谷区,玉川１丁目１５番２－２００５号,,13,112,1580094,,,2021-07-08,清算の結了等,,,2015-10-05,1,,,,,トミタヤ,0
2202,8011301024976,登記記録の閉鎖等,0,2021-07-16,2021-07-06,株式会社ＴＲＵＳＴ,,株式会社,東京都,杉並区,高円寺南３丁目２２番８号１０１,,13,115,1660003,,,2021-07-06,清算の結了等,,,2019-04-23,1,,,,,トラスト,0
2205,8011602023157,登記記録の閉鎖等,0,2021-07-16,2021-07-13,有限会社ネクサス,,有限会社,東京都,西東京市,ひばりが丘北４丁目８番２３号,,13,229,2020002,,,2021-07-13,清算の結了等,,,2015-10-05,1,,,,,ネクサス,0
2240,8030002025902,登記記録の閉鎖等,0,2021-07-16,2021-07-05,有限会社サンライズ,,有限会社,埼玉県,蕨市,南町４丁目３５番１号,,11,223,3350003,,,2021-07-05,清算の結了等,,,2015-10-05,1,,,,,サンライズ,0
2251,8040002080062,登記記録の閉鎖等,0,2021-07-16,2021-07-09,有限会社ブライト,,有限会社,東京都,江戸川区,平井６丁目３３番１６号,,13,123,1320035,,,2021-07-09,清算の結了等,,,2015-10-05,1,,,,,ブライト,0
2257,8050002043282,登記記録の閉鎖等,0,2021-07-16,2021-07-06,有限会社ニュー・レトロ・フーズ,,有限会社,茨城県,筑西市,丙２７４番地,,08,227,3080031,,,2021-07-06,清算の結了等,,,2015-10-05,1,,,,,ニューレトロフーズ,0
2259,8050002045626,登記記録の閉鎖等,0,2021-07-16,2021-07-06,有限会社宮崎機械工業商会,,有限会社,茨城県,筑西市,門井１１１番地の８,,08,227,3091107,,,2021-07-06,清算の結了等,,,2017-11-14,1,,,,,ミヤザキキカイコウギョウショウカイ,0
2273,8080101015064,登記記録の閉鎖等,0,2021-07-16,2021-07-08,株式会社ひまわり居宅介護支援センター,,株式会社,静岡県,下田市,西本郷２丁目１６番１０号,,22,219,4150036,,,2021-07-08,清算の結了等,,,2015-10-05,1,,,,,ヒマワリキョタクカイゴシエンセンター,0
2275,8080102000734,登記記録の閉鎖等,0,2021-07-16,2021-07-13,有限会社大藤工業所,,有限会社,静岡県,沼津市,三枚橋町１１番９号,,22,203,4100037,,,2021-07-13,清算の結了等,,,2015-10-05,1,,,,,オオフジコウギョウショ,0
2289,8120001164634,登記記録の閉鎖等,0,2021-07-16,2021-07-01,株式会社コーポレートイースト,,株式会社,大阪府,大阪市北区,本庄東２丁目５番１５号,,27,127,5310074,,,2021-07-01,清算の結了等,,,2015-10-05,1,,,,,コーポレートイースト,0
2307,8130001057218,登記記録の閉鎖等,0,2021-07-16,2021-07-07,株式会社京儀,,株式会社,京都府,亀岡市,篠町篠中北裏４２番地２,,26,206,6210826,,,2021-07-07,清算の結了等,,,2016-04-07,1,,,,,キョウギ,0
2326,8180301011860,登記記録の閉鎖等,0,2021-07-16,2021-07-14,株式会社アーティック,,株式会社,愛知県,豊川市,萩町雨田３番地,,23,207,4410201,,,2021-07-14,清算の結了等,,,2015-10-05,1,,,,,アーティック,0
2378,8300003000406,登記記録の閉鎖等,0,2021-07-16,2021-07-01,株式会社もろふじ工房,,株式会社,佐賀県,藤津郡太良町,大字糸岐１２１３番地,,41,441,8491603,,,2021-07-01,合併による解散等,7300005004026,令和３年７月１日佐賀県藤津郡太良町大字糸岐１２１２番地３株式会社もろふじ工房（7300005004026）に合併し解散,2015-10-05,1,,,,,モロフジコウボウ,0
2379,8310002014728,登記記録の閉鎖等,0,2021-07-16,2021-07-12,有限会社ジーブランド,,有限会社,長崎県,南松浦郡新上五島町,奈摩郷１２６９番地１０,,42,411,8574402,,,2021-07-12,清算の結了等,,,2015-10-05,1,,,,,ジーブランド,0
2419,8430001025284,登記記録の閉鎖等,0,2021-07-16,2021-07-15,札幌八おきフーズ株式会社,,株式会社,北海道,札幌市中央区,北九条西１９丁目３５番地１２２,,01,101,0600009,,,2021-07-15,清算の結了等,,,2015-10-05,1,,,,,サッポロヤオキフーズ,0
2423,8430002021282,登記記録の閉鎖等,0,2021-07-16,2021-07-05,有限会社吉田工業,,有限会社,北海道,札幌市東区,東苗穂十三条３丁目２３－２０,,01,103,0070813,,,2021-07-05,清算の結了等,,,2015-10-05,1,,,,,ヨシダコウギョウ,0
2439,8490002001691,登記記録の閉鎖等,0,2021-07-16,2021-07-15,有限会社小熊,,有限会社,高知県,高知市,幸崎１３番地,,39,201,7808033,,,2021-07-15,清算の結了等,,,2015-10-05,1,,,,,コグマ,0
2452,9010001044350,登記記録の閉鎖等,0,2021-07-16,2021-07-01,株式会社三協,,株式会社,東京都,中央区,日本橋浜町１丁目７番６号,,13,102,1030007,,,2021-07-01,合併による解散等,7010001059879,令和３年７月１日東京都中央区日本橋浜町一丁目７番６号ユモト興業株式会社（7010001059879）に合併し解散,2015-10-05,1,,,,,サンキョウ,0
2460,9010401097064,登記記録の閉鎖等,0,2021-07-16,2021-07-07,メンタルヘルスマネジメント株式会社,,株式会社,東京都,品川区,東五反田５丁目２２番１１号ＴＫ池田山ハイツ１５０４,,13,109,1410022,,,2021-07-07,清算の結了等,,,2015-10-05,1,,,,,メンタルヘルスマネジメント,0
2495,9011102003303,登記記録の閉鎖等,0,2021-07-16,2021-07-06,有限会社鴨田製印所,,有限会社,東京都,新宿区,若松町３８番２０号,,13,104,1620056,,,2021-07-06,清算の結了等,,,2015-10-05,1,,,,,カモタセイインショ,0
2520,9021002071317,登記記録の閉鎖等,0,2021-07-16,2021-07-06,有限会社伊澤工務店,,有限会社,神奈川県,三浦市,晴海町２１番３号,,14,210,2380232,,,2021-07-06,清算の結了等,,,2015-10-05,1,,,,,イザワコウムテン,0
2523,9030001033368,登記記録の閉鎖等,0,2021-07-16,2021-07-05,株式会社ラディックス,,株式会社,埼玉県,加須市,馬内８４番地１,,11,210,3470043,,,2021-07-05,清算の結了等,,,2015-10-05,1,,,,,ラディックス,0
2528,9030002084336,登記記録の閉鎖等,0,2021-07-16,2021-07-05,有限会社関口電気工業,,有限会社,埼玉県,鴻巣市,上会下５６３番地１,,11,217,3650012,,,2021-07-05,清算の結了等,,,2015-10-05,1,,,,,セキグチデンキコウギョウ,0
2534,9040001008220,登記記録の閉鎖等,0,2021-07-16,2021-07-06,株式会社トーコー,,株式会社,千葉県,千葉市花見川区,内山町６０番地１,,12,102,2620002,,,2021-07-06,清算の結了等,,,2015-10-05,1,,,,,トーコー,0
2541,9040001050973,登記記録の閉鎖等,0,2021-07-16,2021-07-07,株式会社みさわ鉄工,,株式会社,千葉県,木更津市,潮見７丁目３番地６,,12,206,2920834,,,2021-07-07,清算の結了等,,,2015-10-05,1,,,,,ミサワテッコウ,0
2547,9040002072810,登記記録の閉鎖等,0,2021-07-16,2021-07-06,有限会社金子商店,,有限会社,千葉県,市原市,朝生原１７３番地,,12,219,2900535,,,2021-07-06,清算の結了等,,,2015-10-05,1,,,,,カネコショウテン,0
2556,9060005003975,登記記録の閉鎖等,0,2021-07-16,2021-07-06,特定非営利活動法人ひだまり,,その他の設立登記法人,栃木県,那須塩原市,新緑町１２０番地３３,,09,213,3250066,,,2021-07-06,清算の結了等,,,2015-10-05,1,,,,,ヒダマリ,0
2563,9080401012784,登記記録の閉鎖等,0,2021-07-16,2021-07-12,株式会社花ちゃっと来る,,株式会社,静岡県,浜松市浜北区,新原２８５９番地,,22,136,4340003,,,2021-07-12,清算の結了等,,,2015-10-05,1,,,,,ハナチャットクル,0
2567,9100001009419,登記記録の閉鎖等,0,2021-07-16,2021-07-12,株式会社アネットシステム,,株式会社,長野県,佐久市,中込１２６７番地１,,20,217,3850051,,,2021-07-12,合併による解散等,9100001007505,令和３年７月１日長野県佐久市中込１８０３番地のイ株式会社アサマソフトウェア（9100001007505）に合併し解散,2015-10-05,1,,,,,アネットシステム,0
2572,9110001027898,登記記録の閉鎖等,0,2021-07-16,2021-07-07,マイテック株式会社,,株式会社,新潟県,長岡市,摂田屋町２６０５番地,,15,202,9401104,,,2021-07-07,清算の結了等,,,2015-10-05,1,,,,,マイテック,0
2575,9110002021066,登記記録の閉鎖等,0,2021-07-16,2021-07-07,有限会社吉田商事,,有限会社,新潟県,柏崎市,大字藤井７７６０番地,,15,205,9450114,,,2021-07-07,清算の結了等,,,2015-10-05,1,,,,,ヨシダショウジ,0
2590,9120101003476,登記記録の閉鎖等,0,2021-07-16,2021-07-14,株式会社甚木屋,,株式会社,大阪府,和泉市,あゆみ野２丁目１番２号,,27,219,5941157,,,2021-07-14,清算の結了等,,,2015-10-05,1,,,,,ジンキヤ,0
2596,9120101048406,登記記録の閉鎖等,0,2021-07-16,2021-07-12,株式会社ヤマタカテック,,株式会社,大阪府,富田林市,若松町東３丁目３番２９号,,27,214,5840023,,,2021-07-12,清算の結了等,,,2015-10-05,1,,,,,ヤマタカテック,0
2607,9120902009845,登記記録の閉鎖等,0,2021-07-16,2021-07-12,有限会社オクモト重機,,有限会社,大阪府,高槻市,安岡寺町４丁目１番１３号,,27,207,5691029,,,2021-07-12,清算の結了等,,,2015-10-05,1,,,,,オクモトジュウキ,0
2620,9160005003453,登記記録の閉鎖等,0,2021-07-16,2021-07-08,田戸生産森林組合,,その他の設立登記法人,滋賀県,長浜市,余呉町今市８４番地の１７,,25,203,5290535,,,2021-07-08,清算の結了等,,,2015-10-05,1,,,,,タド,0
2625,9180001089767,登記記録の閉鎖等,0,2021-07-16,2021-07-07,株式会社クリエ・プロダクツ,,株式会社,愛知県,名古屋市千種区,春岡通７丁目５９番地,,23,101,4640847,,,2021-07-07,清算の結了等,,,2015-10-05,1,,,,,クリエプロダクツ,0
2637,9210001015488,登記記録の閉鎖等,0,2021-07-16,2021-07-12,建材リユースシステム株式会社,,株式会社,福井県,福井市,米松２丁目２３番２５号,,18,201,9100851,,,2021-07-12,清算の結了等,,,2015-10-05,1,,,,,ケンザイリユースシステム,0
2639,9220001023969,登記記録の閉鎖等,0,2021-07-16,2021-07-07,株式会社洋菓子ケルン,,株式会社,石川県,加賀市,山代温泉２０の３４番地,,17,206,9220242,,,2021-07-07,清算の結了等,,,2021-02-05,1,,,,,ヨウガシケルン,0
2659,9250003002712,登記記録の閉鎖等,0,2021-07-16,2021-07-13,合同会社きらり,,合同会社,山口県,光市,浅江６丁目５番１６号セレーノⅡ番館１０１号室,00121125,35,210,7430021,,,2021-07-13,清算の結了等,,,2020-10-23,1,,,,,キラリ,0
2667,9260002029714,登記記録の閉鎖等,0,2021-07-16,2021-07-13,有限会社ヨリザネ,,有限会社,岡山県,勝田郡奈義町,豊沢２６６番地,,33,623,7081323,,,2021-07-13,清算の結了等,,,2015-10-05,1,,,,,ヨリザネ,0
2668,9260003001630,登記記録の閉鎖等,0,2021-07-16,2021-07-13,さいか合同会社,,合同会社,岡山県,岡山市北区,横井上５１７番地,,33,101,7011145,,,2021-07-13,清算の結了等,,,2015-10-05,1,,,,,サイカ,0
2670,9280005002559,登記記録の閉鎖等,0,2021-07-16,2021-07-09,特定非営利活動法人祥雲の会,,その他の設立登記法人,島根県,安来市,広瀬町下山佐２４３番地４,,32,206,6920412,,,2021-07-09,清算の結了等,,,2015-10-05,1,,,,,ショウウンノカイ,0
2675,9290801010136,登記記録の閉鎖等,0,2021-07-16,2021-07-08,正光建設株式会社,,株式会社,福岡県,北九州市八幡西区,浅川台１丁目６番２８号,,40,109,8070875,,,2021-07-08,清算の結了等,,,2015-10-05,1,,,,,セイコウケンセツ,0
2676,9290801019037,登記記録の閉鎖等,0,2021-07-16,2021-07-09,株式会社ウィズ,,株式会社,福岡県,田川市,大字伊田４００５番地１,,40,206,8250002,,,2021-07-09,清算の結了等,,,2015-10-05,1,,,,,ウィズ,0
2677,9290801024706,登記記録の閉鎖等,0,2021-07-16,2021-07-15,ルーフテック北九州株式会社,,株式会社,福岡県,北九州市小倉北区,東篠崎３丁目５番３５号,,40,106,8020072,,,2021-07-15,清算の結了等,,,2018-06-18,1,,,,,ルーフテックキタキュウシュウ,0
2697,9350002018278,登記記録の閉鎖等,0,2021-07-16,2021-07-12,有限会社末次建設工業,,有限会社,宮崎県,小林市,野尻町東麓１３８４番地２,,45,205,8860212,,,2021-07-12,清算の結了等,,,2015-10-05,1,,,,,スエツグケンセツコウギョウ,0
2698,9360001011654,登記記録の閉鎖等,0,2021-07-16,2021-07-06,株式会社ＨＩＫＯ企画,,株式会社,沖縄県,浦添市,宮城３丁目１８番５－１０２号,,47,208,9012126,,,2021-07-06,清算の結了等,,,2015-10-05,1,,,,,ヒコキカク,0
2701,9370001003527,登記記録の閉鎖等,0,2021-07-16,2021-07-05,株式会社タカマツ工業,,株式会社,宮城県,仙台市若林区,沖野７丁目１１番３２号,,04,103,9840831,,,2021-07-05,清算の結了等,,,2015-10-05,1,,,,,タカマツコウギョウ,0
2705,9370002013434,登記記録の閉鎖等,0,2021-07-16,2021-07-02,有限会社北菱,,有限会社,宮城県,仙台市青葉区,桜ケ丘１丁目８番２０号,,04,101,9810961,,,2021-07-02,清算の結了等,,,2015-10-05,1,,,,,ホクリョウ,0
2711,9380005008034,登記記録の閉鎖等,0,2021-07-16,2021-07-05,協同組合磐梯ショッピングセンター,,その他の設立登記法人,福島県,耶麻郡磐梯町,大字磐梯字山道３１１番地５５,,07,407,9693301,,,2021-07-05,清算の結了等,,,2015-10-05,1,,,,,バンダイショッピングセンター,0
2717,9410002012638,登記記録の閉鎖等,0,2021-07-16,2021-07-14,有限会社匠創建,,有限会社,秋田県,仙北市,角館町雲然田中２３８番地の１２,,05,215,0140341,,,2021-07-14,清算の結了等,,,2015-10-05,1,,,,,,0
2729,9462501000655,登記記録の閉鎖等,0,2021-07-16,2021-07-13,株式会社メガフロンティア,,株式会社,北海道,標津郡中標津町,字俣落２１１０番地３,,01,692,0861273,,,2021-07-13,清算の結了等,,,2015-10-05,1,,,,,メガフロンティア,0
2733,9480002016244,登記記録の閉鎖等,0,2021-07-16,2021-07-07,有限会社エヌ・エフ,,有限会社,徳島県,小松島市,小松島町字高須２８番地の１,,36,203,7730001,,,2021-07-07,清算の結了等,,,2021-02-05,1,,,,,エヌエフ,0
