sequenceNumber,corporateNumber,process,correct,updateDate,changeDate,name,nameImageId,kind,prefectureName,cityName,streetNumber,addressImageId,prefectureCode,cityCode,postCode,addressOutside,addressOutsideImageId,closeDate,closeCause,successorCorporateNumber,changeCause,assignmentDate,latest,enName,enPrefectureName,enCityName,enAddressOutside,furigana,hihyoji
1,1010001021274,登記記録の閉鎖等,0,2022-02-02,2022-01-18,株式会社ソーケン,,株式会社,東京都,千代田区,飯田橋２丁目８番９号,,13,101,1020072,,,2022-01-18,清算の結了等,,,2015-10-05,1,,,,,ソーケン,0
58,1013303001943,登記記録の閉鎖等,0,2022-02-02,2022-01-27,ＫＡＩＺＥＮ合同会社,,合同会社,東京都,豊島区,駒込１丁目１５－１－６０３,,13,116,1700003,,,2022-01-27,清算の結了等,,,2015-10-05,1,,,,,カイゼン,0
67,1020002050016,登記記録の閉鎖等,0,2022-02-02,2022-01-28,有限会社駿河屋,,有限会社,神奈川県,横浜市南区,高根町１丁目４番地,,14,105,2320022,,,2022-01-28,清算の結了等,,,2015-10-05,1,,,,,スルガヤ,0
70,1020003019836,登記記録の閉鎖等,0,2022-02-02,2022-01-31,ｔｏｍｏｓｕｚｕ合同会社,,合同会社,神奈川県,横浜市西区,みなとみらい４丁目４番２号横浜ブルーアベニュー１２Ｆ,,14,103,2200012,,,2022-01-31,清算の結了等,,,2021-05-20,1,,,,,トモスズ,0
73,1021001061326,登記記録の閉鎖等,0,2022-02-02,2022-01-31,峠屋漕泳商店株式会社,,株式会社,神奈川県,藤沢市,辻堂４丁目５番１号,,14,205,2510047,,,2022-01-31,清算の結了等,,,2017-02-07,1,,,,,トウゲヤソウエイショウテン,0
80,1021003007418,登記記録の閉鎖等,0,2022-02-02,2022-01-31,新進合同会社,,合同会社,神奈川県,相模原市中央区,上矢部５丁目１０番１６号,,14,152,2520201,,,2022-01-31,清算の結了等,,,2018-04-06,1,,,,,シンシン,0
89,1030002077561,登記記録の閉鎖等,0,2022-02-02,2022-01-31,有限会社狭山美装,,有限会社,埼玉県,比企郡川島町,大字吹塚７３３番地３,,11,346,3500164,,,2022-01-31,清算の結了等,,,2015-10-05,1,,,,,サヤマビソウ,0
90,1030003014316,登記記録の閉鎖等,0,2022-02-02,2022-01-27,ソフトバインド合同会社,,合同会社,埼玉県,草加市,氷川町３１６番地１４,,11,221,3400034,,,2022-01-27,清算の結了等,,,2019-11-01,1,,,,,ソフトバインド,0
105,1080001004990,登記記録の閉鎖等,0,2022-02-02,2022-01-26,丸仲化工機株式会社,,株式会社,沖縄県,島尻郡南風原町,字神里５４３番地５,,47,350,9011114,,,2022-01-26,清算の結了等,,,2015-10-05,1,,,,,マルナカカコウキ,0
114,1090001009080,登記記録の閉鎖等,0,2022-02-02,2022-01-31,株式会社ｅ－サービス,,株式会社,山梨県,甲州市,塩山牛奥１７６８番地の１,,19,213,4040034,,,2022-01-31,清算の結了等,,,2015-10-05,1,,,,,イーサービス,0
131,1120002026996,登記記録の閉鎖等,0,2022-02-02,2022-01-31,有限会社児玉電機商会,,有限会社,大阪府,大阪市淀川区,塚本１丁目３番１４号,,27,123,5320026,,,2022-01-31,清算の結了等,,,2015-10-05,1,,,,,コダマデンキショウカイ,0
132,1120002081637,登記記録の閉鎖等,0,2022-02-02,2022-01-31,有限会社細川創建,,有限会社,大阪府,守口市,菊水通２丁目３番４号,,27,209,5700032,,,2022-01-31,清算の結了等,,,2015-10-05,1,,,,,,0
152,1180001050810,登記記録の閉鎖等,0,2022-02-02,2022-01-26,日本ホスピカ株式会社,,株式会社,愛知県,名古屋市中区,丸の内３丁目７番９号,,23,106,4600002,,,2022-01-26,清算の結了等,,,2015-10-05,1,,,,,ニホンホスピカ,0
161,1190005008738,登記記録の閉鎖等,0,2022-02-02,2022-01-31,三泗商工協同組合,,その他の設立登記法人,三重県,四日市市,鵜の森１丁目１３番４３号,,24,202,5100074,,,2022-01-31,清算の結了等,,,2015-10-05,1,,,,,サンシショウコウ,0
189,1290802000259,登記記録の閉鎖等,0,2022-02-02,2022-01-28,有限会社アクア,,有限会社,福岡県,北九州市小倉南区,朽網東１丁目７番３５号,,40,107,8000232,,,2022-01-28,清算の結了等,,,2015-10-05,1,,,,,アクア,0
202,1340002006662,登記記録の閉鎖等,0,2022-02-02,2022-01-31,有限会社豚太郎,,有限会社,鹿児島県,鹿児島市,中央町２番地１２,,46,201,8900053,,,2022-01-31,清算の結了等,,,2015-10-05,1,,,,,トンタロウ,0
206,1350002001480,登記記録の閉鎖等,0,2022-02-02,2022-02-01,有限会社クリーン・デンタル,,有限会社,宮崎県,宮崎市,原町１２番６号,,45,201,8800007,,,2022-02-01,清算の結了等,,,2015-10-05,1,,,,,クリーンデンタル,0
208,1350005001800,登記記録の閉鎖等,0,2022-02-02,2022-02-01,エコアースクリエーション造園事業協同組合,,その他の設立登記法人,宮崎県,宮崎市,村角町阿波２４８８番地３,,45,201,8800837,,,2022-02-01,清算の結了等,,,2015-10-05,1,,,,,エコアースクリエーションゾウエン,0
227,1420001009014,登記記録の閉鎖等,0,2022-02-02,2022-01-28,株式会社ケミカルスクリーン,,株式会社,青森県,弘前市,大字土堂字長瀬２５３番地１,,02,202,0368374,,,2022-01-28,清算の結了等,,,2015-10-05,1,,,,,ケミカルスクリーン,0
228,1420001013965,登記記録の閉鎖等,0,2022-02-02,2022-01-31,株式会社トラスト・ワン,,株式会社,青森県,青森市,筒井２丁目８番６号,,02,201,0300944,,,2022-01-31,清算の結了等,,,2015-10-05,1,,,,,トラストワン,0
229,1420002009525,登記記録の閉鎖等,0,2022-02-02,2022-01-31,有限会社階上新聞販売所,,有限会社,青森県,三戸郡階上町,大字道仏字榊山１１番地２６６,00087636,02,446,0391201,,,2022-01-31,清算の結了等,,,2015-10-05,1,,,,,ハシカミシンブンハンバイジョ,0
232,1430001070304,登記記録の閉鎖等,0,2022-02-02,2022-01-28,株式会社Ｅｎａ,,株式会社,北海道,千歳市,東郊１丁目１９－１０,,01,224,0660021,,,2022-01-28,清算の結了等,,,2015-11-19,1,,,,,イーナ,0
237,1430003003427,登記記録の閉鎖等,0,2022-02-02,2022-01-31,北海道トラックスリゾートプロパティーズ合同会社,,合同会社,北海道,虻田郡倶知安町,字山田１９０番地１８,,01,400,0440081,,,2022-01-31,清算の結了等,,,2015-10-05,1,,,,,ホッカイドウトラックスリゾートプロパティーズ,0
241,1460005001525,登記記録の閉鎖等,0,2022-02-02,2022-01-25,一般社団法人サン・ファミリー,,その他の設立登記法人,北海道,釧路市,星が浦大通２丁目４番２９号,,01,206,0840912,,,2022-01-25,清算の結了等,,,2020-04-28,1,,,,,サンファミリー,0
243,1460302004569,登記記録の閉鎖等,0,2022-02-02,2022-01-31,メナード化粧品網走販売有限会社,,有限会社,北海道,網走市,駒場北６丁目２番１１号,,01,211,0930033,,,2022-01-31,清算の結了等,,,2015-10-05,1,,,,,メナードケショウヒンアバシリハンバイ,0
246,1470002004414,登記記録の閉鎖等,0,2022-02-02,2022-01-31,有限会社ダスキン木太,,有限会社,香川県,高松市,木太町１２１４番地３,,37,201,7600080,,,2022-01-31,清算の結了等,,,2015-10-05,1,,,,,ダスキンキタ,0
271,2010102010316,登記記録の閉鎖等,0,2022-02-02,2022-01-31,有限会社ホテルジュエル,,有限会社,東京都,八王子市,左入町６６７番地１,,13,201,1920012,,,2022-01-31,清算の結了等,,,2015-10-05,1,,,,,ホテルジュエル,0
274,2010401104611,登記記録の閉鎖等,0,2022-02-02,2022-01-26,マイスター・ファクトリー株式会社,,株式会社,東京都,港区,赤坂３丁目１２番７号,,13,103,1070052,,,2022-01-26,清算の結了等,,,2015-10-05,1,,,,,,0
277,2010401129311,登記記録の閉鎖等,0,2022-02-02,2022-01-26,株式会社黒木純事務所,,株式会社,東京都,港区,芝公園１丁目７番１０号,,13,103,1050011,,,2022-01-26,合併による解散等,9010001134358,令和４年１月２６日東京都港区芝公園一丁目７番１０号株式会社ＫＵＲＯＧＩ（9010001134358）に合併し解散,2017-01-26,1,,,,,クロキジュンジムショ,0
303,2011401004462,登記記録の閉鎖等,0,2022-02-02,2022-01-31,東新自動車整備株式会社,,株式会社,東京都,板橋区,舟渡２丁目１１番５号,,13,119,1740041,,,2022-01-31,清算の結了等,,,2015-10-05,1,,,,,トウシンジドウシャセイビ,0
347,2040001066852,登記記録の閉鎖等,0,2022-02-02,2022-01-26,株式会社ジェー・エー・エム,,株式会社,千葉県,我孫子市,柴崎台１丁目１７番１７号,,12,222,2701176,,,2022-01-26,清算の結了等,,,2015-10-05,1,,,,,ジェーエーエム,0
349,2040001103580,登記記録の閉鎖等,0,2022-02-02,2022-01-28,１号発電所株式会社,,株式会社,大阪府,大阪市中央区,内久宝寺町４丁目２番９号,,27,128,5400013,,,2022-01-28,清算の結了等,,,2018-02-22,1,,,,,イチゴウハツデンショ,0
364,2060002014866,登記記録の閉鎖等,0,2022-02-02,2022-01-28,有限会社グッディーマートフクダ,,有限会社,栃木県,日光市,今市本町２６番地１,,09,206,3211272,,,2022-01-28,清算の結了等,,,2015-10-05,1,,,,,グッディーマートフクダ,0
366,2070001001856,登記記録の閉鎖等,0,2022-02-02,2022-01-31,綜合保守防災株式会社,,株式会社,群馬県,前橋市,紅雲町２丁目１７番１５号,,10,201,3710025,,,2022-01-31,清算の結了等,,,2015-10-05,1,,,,,ソウゴウホシュボウサイ,0
369,2080003002521,登記記録の閉鎖等,0,2022-02-02,2022-01-31,丸三商店合同会社,,合同会社,静岡県,静岡市駿河区,小黒１丁目３番６号,,22,102,4228072,,,2022-01-31,清算の結了等,,,2020-12-21,1,,,,,マルサンショウテン,0
370,2080102017148,登記記録の閉鎖等,0,2022-02-02,2022-01-31,有限会社富士宮塗装工業所,,有限会社,静岡県,富士宮市,東町１４番４号,,22,207,4180077,,,2022-01-31,清算の結了等,,,2015-10-05,1,,,,,フジノミヤトソウコウギョウショ,0
377,2110002022046,登記記録の閉鎖等,0,2022-02-02,2022-01-31,有限会社高田ガスサービス,,有限会社,新潟県,岩船郡関川村,大字高田１４９番地４,,15,581,9593252,,,2022-01-31,清算の結了等,,,2015-10-05,1,,,,,タカダガスサービス,0
385,2120001153675,登記記録の閉鎖等,0,2022-02-02,2022-01-31,株式会社葉乃國,,株式会社,大阪府,枚方市,出口２丁目７番１２号,,27,210,5730065,,,2022-01-31,清算の結了等,,,2015-10-05,1,,,,,,0
392,2120002071777,登記記録の閉鎖等,0,2022-02-02,2022-01-28,有限会社松本保険サービス,,有限会社,大阪府,交野市,倉治２丁目３番５号,,27,230,5760051,,,2022-01-28,清算の結了等,,,2015-10-05,1,,,,,マツモトホケンサービス,0
420,2140001066925,登記記録の閉鎖等,0,2022-02-02,2022-01-31,株式会社タカハシ,,株式会社,兵庫県,三田市,さくら坂５番６号,,28,219,6691325,,,2022-01-31,清算の結了等,,,2015-10-05,1,,,,,タカハシ,0
440,2190003003442,登記記録の閉鎖等,0,2022-02-02,2022-01-31,合同会社ハートラム,,合同会社,三重県,津市,河芸町上野６６５番地１２,,24,201,5100304,,,2022-01-31,清算の結了等,,,2020-08-03,1,,,,,ハートラム,0
450,2240001054936,登記記録の閉鎖等,0,2022-02-02,2022-01-31,つむぎハウス株式会社,,株式会社,広島県,広島市佐伯区,千同２丁目１番１５号第三昭八ビル２階,,34,108,7315141,,,2022-01-31,清算の結了等,,,2019-09-13,1,,,,,ツムギハウス,0
500,2430001065609,登記記録の閉鎖等,0,2022-02-02,2022-01-28,金子不動産株式会社,,株式会社,北海道,札幌市中央区,北一条西２３丁目１番４０号,,01,101,0640821,,,2022-01-28,清算の結了等,,,2015-10-05,1,,,,,カネコフドウサン,0
524,3010005028875,登記記録の閉鎖等,0,2022-02-02,2022-01-28,一般社団法人神保町エナジーマネジメント,,その他の設立登記法人,東京都,千代田区,神田神保町１丁目１０５番地,,13,101,1010051,,,2022-01-28,清算の結了等,,,2018-08-01,1,,,,,ジンボウチョウエナジーマネジメント,0
529,3010401087392,登記記録の閉鎖等,0,2022-02-02,2022-01-26,アイジーティージャパン株式会社,,株式会社,東京都,港区,南麻布３丁目１９番２３号オーク南麻布ビル２階,,13,103,1060047,,,2022-01-26,清算の結了等,,,2015-10-05,1,,,,,アイジーティージャパン,0
550,3010701032965,登記記録の閉鎖等,0,2022-02-02,2022-01-27,Ｔａｋｅ　Ｉ管理株式会社,,株式会社,東京都,品川区,上大崎１丁目１２番１４号,,13,109,1410021,,,2022-01-27,合併による解散等,8010001127412,令和４年１月１日東京都中央区銀座一丁目１５番２号都パートナーズ・ワン株式会社（8010001127412）に合併し解散,2016-09-06,1,,,,,テイクアイ,0
560,3011101090075,登記記録の閉鎖等,0,2022-02-02,2022-01-28,株式会社ＳＥＩＣＡ,,株式会社,東京都,新宿区,揚場町１－１４安田ビル地下１階,,13,104,1620824,,,2022-01-28,清算の結了等,,,2020-01-15,1,,,,,セイカ,0
566,3011103010502,登記記録の閉鎖等,0,2022-02-02,2022-01-28,Ｔ－ｃｈｅｓｔ合同会社,,合同会社,東京都,新宿区,新宿７丁目１２番１号新宿平和ビル１階,,13,104,1600022,,,2022-01-28,清算の結了等,,,2021-03-19,1,,,,,ティチェスト,0
580,3012801009439,登記記録の閉鎖等,0,2022-02-02,2022-01-31,株式会社ＭＪＧ,,株式会社,東京都,新宿区,西新宿２丁目１番１号新宿三井ビルディング３６Ｆ,,13,104,1600023,,,2022-01-31,清算の結了等,,,2015-10-05,1,,,,,エムジェージー,0
584,3020001005456,登記記録の閉鎖等,0,2022-02-02,2022-01-26,株式会社日豊商事,,株式会社,神奈川県,横浜市旭区,上川井町２９２８番地の２,,14,112,2410802,,,2022-01-26,清算の結了等,,,2015-10-05,1,,,,,ニッポウショウジ,0
594,3020002043389,登記記録の閉鎖等,0,2022-02-02,2022-02-01,ゼネラルアシストサービス有限会社,,有限会社,神奈川県,横浜市中区,太田町６丁目７２番地１プレジール横濱馬車道アーバンライフ７０２号,,14,104,2310011,,,2022-02-01,清算の結了等,,,2015-10-05,1,,,,,ゼネラルアシストサービス,0
608,3030001087139,登記記録の閉鎖等,0,2022-02-02,2022-01-25,株式会社ヤザワ,,株式会社,埼玉県,行田市,大字埼玉４７９９番地５,,11,206,3610025,,,2022-01-25,清算の結了等,,,2015-10-05,1,,,,,ヤザワ,0
623,3040001081347,登記記録の閉鎖等,0,2022-02-02,2022-01-27,ディーエヌジェイ・エクスプレス・ジャパン株式会社,,株式会社,東京都,東村山市,野口町４丁目３２番地１,,13,213,1890022,,,2022-01-27,清算の結了等,,,2015-10-05,1,,,,,ディーエヌジェイエクスプレスジャパン,0
626,3040005007728,登記記録の閉鎖等,0,2022-02-02,2022-01-31,ＮＰＯ法人なのはなの里,,その他の設立登記法人,千葉県,八街市,四木１０３１番１,,12,230,2891122,,,2022-01-31,清算の結了等,,,2015-10-05,1,,,,,ナノハナノサト,0
638,3080002017874,登記記録の閉鎖等,0,2022-02-02,2022-01-31,ハラキ樹脂加工有限会社,,有限会社,静岡県,藤枝市,上当間２６８番地の１,,22,214,4260004,,,2022-01-31,清算の結了等,,,2015-10-05,1,,,,,ハラキジュシカコウ,0
658,3120001139434,登記記録の閉鎖等,0,2022-02-02,2022-01-28,株式会社ビジタス,,株式会社,大阪府,大阪市東淀川区,東中島１丁目１７番５号,,27,114,5330033,,,2022-01-28,清算の結了等,,,2015-10-05,1,,,,,ビジタス,0
671,3120002008563,登記記録の閉鎖等,0,2022-02-02,2022-01-31,有限会社治田,,有限会社,大阪府,大阪市城東区,成育４丁目７番２５号,,27,118,5360007,,,2022-01-31,清算の結了等,,,2015-10-05,1,,,,,ハルタ,0
701,3180002027657,登記記録の閉鎖等,0,2022-02-02,2022-01-27,有限会社五大,,有限会社,愛知県,名古屋市中村区,横井１丁目１２７番地,,23,105,4530866,,,2022-01-27,清算の結了等,,,2015-10-05,1,,,,,ゴダイ,0
702,3180002037846,登記記録の閉鎖等,0,2022-02-02,2022-01-24,有限会社ウイン,,有限会社,愛知県,名古屋市東区,筒井３丁目３１番２６号,,23,102,4610003,,,2022-01-24,合併による解散等,9180001056718,令和４年１月１７日名古屋市東区泉三丁目１５番８号株式会社Ｗｉｎ－Ｗｉｎアドバイザーズ（9180001056718）に合併し解散,2015-10-05,1,,,,,ウイン,0
722,3240002018690,登記記録の閉鎖等,0,2022-02-02,2022-01-21,有限会社インフォメーションセンター蘭,,有限会社,広島県,広島市安佐南区,伴西３丁目２２９６番地,,34,105,7313169,,,2022-01-21,清算の結了等,,,2015-10-05,1,,,,,インフォメーションセンターラン,0
758,3330001029102,登記記録の閉鎖等,0,2022-02-02,2022-01-28,田熊不動産株式会社,,株式会社,熊本県,熊本市中央区,紺屋今町２番２３号,,43,101,8600012,,,2022-01-28,合併による解散等,2290001002254,令和４年１月２５日福岡市博多区博多駅東二丁目６番２３号株式会社ダブリュコーポレーション（2290001002254）に合併し解散,2021-10-25,1,,,,,タグマフドウサン,0
761,3330002006249,登記記録の閉鎖等,0,2022-02-02,2022-01-27,大地土地建物有限会社,,有限会社,熊本県,熊本市中央区,新大江３丁目７７番７,,43,101,8620972,,,2022-01-27,清算の結了等,,,2015-10-05,1,,,,,オオチトチタテモノ,0
787,3470001017167,登記記録の閉鎖等,0,2022-02-02,2022-01-31,株式会社勇光工業,,株式会社,香川県,善通寺市,生野町１７７７番地２０,,37,204,7650053,,,2022-01-31,清算の結了等,,,2018-11-29,1,,,,,ユウコウコウギョウ,0
807,4010003019215,登記記録の閉鎖等,0,2022-02-02,2022-01-26,合同会社晴海インベストメント１,,合同会社,東京都,千代田区,九段南３丁目７番７号成和綜合会計事務所内,,13,101,1020074,,,2022-01-26,清算の結了等,,,2015-10-05,1,,,,,ハルミインベストメントワン,0
817,4010403012042,登記記録の閉鎖等,0,2022-02-02,2022-01-26,ビットク合同会社,,合同会社,東京都,港区,東麻布２丁目３５－１ＫＣビル６階,,13,103,1060044,,,2022-01-26,清算の結了等,,,2015-10-05,1,,,,,ビットク,0
854,4011601019878,登記記録の閉鎖等,0,2022-02-02,2022-01-28,株式会社システトラン,,株式会社,東京都,練馬区,豊玉北５丁目４番１３－８０１号,,13,120,1760012,,,2022-01-28,清算の結了等,,,2015-10-05,1,,,,,システトラン,0
863,4011802018381,登記記録の閉鎖等,0,2022-02-02,2022-01-31,有限会社細内梱包,,有限会社,東京都,足立区,弘道２丁目３０番５号,,13,121,1200013,,,2022-01-31,清算の結了等,,,2015-10-05,1,,,,,ホソウチコンポウ,0
875,4020002019116,登記記録の閉鎖等,0,2022-02-02,2022-01-31,有限会社添田工務店,,有限会社,神奈川県,横浜市港南区,日野６丁目２番２号,,14,111,2340051,,,2022-01-31,清算の結了等,,,2015-10-05,1,,,,,ソエダコウムテン,0
894,4030002004769,登記記録の閉鎖等,0,2022-02-02,2022-02-01,有限会社鯉沼製麺所,00015959,有限会社,埼玉県,さいたま市桜区,西堀６丁目１０番１９号,,11,106,3380832,,,2022-02-01,清算の結了等,,,2015-10-05,1,,,,,コイヌマセイメンジョ,0
908,4060002013024,登記記録の閉鎖等,0,2022-02-02,2022-01-31,有限会社すずき屋,,有限会社,栃木県,塩谷郡高根沢町,大字桑窪１０８５番地１,,09,386,3291216,,,2022-01-31,清算の結了等,,,2015-10-05,1,,,,,スズキヤ,0
911,4080002018673,登記記録の閉鎖等,0,2022-02-02,2022-01-31,三木産業有限会社,,有限会社,静岡県,静岡市清水区,桜橋町４番５号,,22,103,4240837,,,2022-01-31,清算の結了等,,,2015-10-05,1,,,,,ミキサンギョウ,0
913,4080102017328,登記記録の閉鎖等,0,2022-02-02,2022-01-31,有限会社ミヤキ,,有限会社,静岡県,富士宮市,宮町１２番１６号,,22,207,4180067,,,2022-01-31,清算の結了等,,,2015-10-05,1,,,,,ミヤキ,0
929,4120003014584,登記記録の閉鎖等,0,2022-02-02,2022-01-28,アドミックス合同会社,,合同会社,大阪府,大阪市中央区,瓦屋町３丁目７番３号イースマイルビル,,27,128,5420066,,,2022-01-28,清算の結了等,,,2018-08-06,1,,,,,アドミックス,0
965,4190002008259,登記記録の閉鎖等,0,2022-02-02,2022-01-31,有限会社いわ田ガーデン,,有限会社,三重県,伊勢市,御薗町高向４３３番地１,,24,203,5160805,,,2022-01-31,清算の結了等,,,2015-10-05,1,,,,,イワタガーデン,0
967,4200001005346,登記記録の閉鎖等,0,2022-02-02,2022-02-01,株式会社ムトー衣料,,株式会社,岐阜県,岐阜市,鷺山東２丁目５番４１号,,21,201,5020850,,,2022-02-01,清算の結了等,,,2015-10-05,1,,,,,ムトーイリョウ,0
981,4240001047673,登記記録の閉鎖等,0,2022-02-02,2022-01-31,株式会社小虎,,株式会社,広島県,広島市安佐北区,亀山南５丁目４１番１９号,,34,106,7310232,,,2022-01-31,清算の結了等,,,2015-10-05,1,,,,,コトラ,0
992,4290002017753,登記記録の閉鎖等,0,2022-02-02,2022-01-31,有限会社三鈴,,有限会社,福岡県,福岡市博多区,南本町２丁目４番１６－１０４号,,40,132,8120883,,,2022-01-31,清算の結了等,,,2015-10-05,1,,,,,ミスズ,0
999,4320001007594,登記記録の閉鎖等,0,2022-02-02,2022-01-31,宇佐ゴルフ株式会社,,株式会社,大分県,宇佐市,大字両戒４４８番地,,44,211,8791125,,,2022-01-31,清算の結了等,,,2015-10-05,1,,,,,ウサゴルフ,0
1002,4320002013724,登記記録の閉鎖等,0,2022-02-02,2022-02-01,石川屋有限会社,,有限会社,大分県,宇佐市,大字四日市４３番地の２,,44,211,8790471,,,2022-02-01,清算の結了等,,,2015-10-05,1,,,,,イシカワヤ,0
1005,4330001016603,登記記録の閉鎖等,0,2022-02-02,2022-01-31,三角マリン株式会社,,株式会社,熊本県,宇城市,三角町三角浦１１６０番地１７１,,43,213,8693207,,,2022-01-31,清算の結了等,,,2015-10-05,1,,,,,,0
1018,4360003007291,登記記録の閉鎖等,0,2022-02-02,2022-01-28,合同会社カンサイ,,合同会社,沖縄県,島尻郡八重瀬町,字宜次２３１番地６４,,47,362,9010416,,,2022-01-28,清算の結了等,,,2015-10-15,1,,,,,カンサイ,0
1021,4370001010718,登記記録の閉鎖等,0,2022-02-02,2022-01-31,株式会社ユニオン商行,,株式会社,宮城県,仙台市青葉区,中央３丁目８番５号,,04,101,9800021,,,2022-01-31,清算の結了等,,,2015-10-05,1,,,,,ユニオンショウコウ,0
1035,4420001000746,登記記録の閉鎖等,0,2022-02-02,2022-02-01,木村精肉株式会社,,株式会社,青森県,青森市,浪館前田１丁目２０番１８号,,02,201,0380024,,,2022-02-01,清算の結了等,,,2015-10-05,1,,,,,キムラセイニク,0
1081,5010401093959,登記記録の閉鎖等,0,2022-02-02,2022-01-26,株式会社ドゥーコミュニケーションズ,,株式会社,東京都,港区,南青山１丁目２０番２号乃木坂ビジネスコート１階,,13,103,1070062,,,2022-01-26,清算の結了等,,,2015-10-05,1,,,,,ドゥーコミニケーションズ,0
1082,5010401154067,登記記録の閉鎖等,0,2022-02-02,2022-01-26,ゼタルマ株式会社,,株式会社,東京都,港区,南青山３丁目１番３号スプライン青山東急ビル６Ｆ,,13,103,1070062,,,2022-01-26,清算の結了等,,,2020-07-16,1,,,,,ゼタルマ,0
1112,5011301002687,登記記録の閉鎖等,0,2022-02-02,2022-01-31,株式会社ササキ工業,,株式会社,東京都,杉並区,永福１丁目３２番１４号,,13,115,1680064,,,2022-01-31,清算の結了等,,,2021-12-22,1,,,,,,0
1126,5020001052562,登記記録の閉鎖等,0,2022-02-02,2022-01-27,株式会社浅和建設,,株式会社,神奈川県,横浜市瀬谷区,阿久和西４丁目２２番地,,14,114,2460025,,,2022-01-27,清算の結了等,,,2015-10-05,1,,,,,アサワケンセツ,0
1127,5020001069383,登記記録の閉鎖等,0,2022-02-02,2022-01-31,株式会社信和工業,,株式会社,神奈川県,川崎市中原区,市ノ坪６３１番地,,14,133,2110016,,,2022-01-31,清算の結了等,,,2015-10-05,1,,,,,シンワコウギョウ,0
1129,5020001093466,登記記録の閉鎖等,0,2022-02-02,2022-01-31,株式会社ＥＮＥＸＴ　ＣＯＲＰＯＲＡＴＩＯＮ,,株式会社,群馬県,伊勢崎市,田中島町５５７番地３,,10,204,3720802,,,2022-01-31,清算の結了等,,,2015-10-05,1,,,,,イーネクストコーポレーション,0
1147,5030002038064,登記記録の閉鎖等,0,2022-02-02,2022-01-31,有限会社酒巻人形,,有限会社,埼玉県,久喜市,本町４丁目１１番２号,,11,232,3460005,,,2022-01-31,清算の結了等,,,2015-10-05,1,,,,,サカマキニンギョウ,0
1148,5030002099263,登記記録の閉鎖等,0,2022-02-02,2022-01-28,有限会社二宮工業,,有限会社,埼玉県,川口市,桜町５丁目７番３１号,,11,203,3340001,,,2022-01-28,清算の結了等,,,2015-10-05,1,,,,,ニノミヤコウギョウ,0
1167,5070001018815,登記記録の閉鎖等,0,2022-02-02,2022-01-31,株式会社エノキ,,株式会社,群馬県,邑楽郡大泉町,大字古海３５６番地,,10,524,3700524,,,2022-01-31,清算の結了等,,,2015-10-05,1,,,,,エノキ,0
1172,5080102003566,登記記録の閉鎖等,0,2022-02-02,2022-01-31,有限会社基工務店,,有限会社,静岡県,沼津市,大塚８３番地,,22,203,4100306,,,2022-01-31,清算の結了等,,,2015-10-05,1,,,,,モトイコウムテン,0
1194,5120002075338,登記記録の閉鎖等,0,2022-02-02,2022-01-28,有限会社吉忠,,有限会社,大阪府,枚方市,中宮本町１１番５号,,27,210,5731196,,,2022-01-28,清算の結了等,,,2015-10-05,1,,,,,ヨシタダ,0
1195,5120101025846,登記記録の閉鎖等,0,2022-02-02,2022-01-26,塩野不動産株式会社,,株式会社,大阪府,松原市,田井城１丁目７番３５号,,27,217,5800044,,,2022-01-26,清算の結了等,,,2015-10-05,1,,,,,シオノフドウサン,0
1198,5120901000239,登記記録の閉鎖等,0,2022-02-02,2022-01-31,株式会社上田建設事務所,,株式会社,大阪府,茨木市,東福井３丁目１８番２号,,27,211,5670062,,,2022-01-31,清算の結了等,,,2015-10-05,1,,,,,ウエダケンセツジムショ,0
1215,5140002040298,登記記録の閉鎖等,0,2022-02-02,2022-01-28,有限会社緒方彫刻社,,有限会社,兵庫県,尼崎市,三反田町３丁目１番２０号,,28,202,6610024,,,2022-01-28,清算の結了等,,,2015-10-05,1,,,,,オガタチョウコクシャ,0
1238,5230001012339,登記記録の閉鎖等,0,2022-02-02,2022-01-31,クリックス商事株式会社,,株式会社,富山県,高岡市,角７４３番地３,,16,202,9330007,,,2022-01-31,清算の結了等,,,2015-10-05,1,,,,,,0
1240,5240001027427,登記記録の閉鎖等,0,2022-02-02,2022-01-31,株式会社どんと,,株式会社,広島県,呉市,広古新開２丁目１４－３５－１０１,,34,202,7370112,,,2022-01-31,清算の結了等,,,2015-10-05,1,,,,,ドント,0
1286,5380002026521,登記記録の閉鎖等,0,2022-02-02,2022-01-28,有限会社山久小松食品,,有限会社,福島県,いわき市,永崎字川畑４１番地,,07,204,9700315,,,2022-01-28,清算の結了等,,,2015-10-05,1,,,,,ヤマヒサコマツショクヒン,0
1294,5470001009022,登記記録の閉鎖等,0,2022-02-02,2022-01-31,新菱海運株式会社,,株式会社,香川県,坂出市,番の州町１番地,,37,203,7620064,,,2022-01-31,清算の結了等,,,2015-10-05,1,,,,,シンビシカイウン,0
1309,6010002008761,登記記録の閉鎖等,0,2022-02-02,2022-01-31,有限会社関東テクニカル,,有限会社,神奈川県,秦野市,蓑毛１６３番地,,14,211,2570021,,,2022-01-31,清算の結了等,,,2015-10-05,1,,,,,カントウテクニカル,0
1352,6011005007429,登記記録の閉鎖等,0,2022-02-02,2022-01-28,一般社団法人日本ホテル支援協会,,その他の設立登記法人,東京都,世田谷区,太子堂２丁目１４番３号,,13,112,1540004,,,2022-01-28,清算の結了等,,,2017-11-15,1,,,,,ニホンホテルシエンキョウカイ,0
1370,6013302005049,登記記録の閉鎖等,0,2022-02-02,2022-01-31,有限会社シャトレ．ナガシマ,,有限会社,東京都,足立区,竹の塚４丁目６番５号,,13,121,1210813,,,2022-01-31,清算の結了等,,,2015-10-05,1,,,,,シャトレナガシマ,0
1372,6013402000420,登記記録の閉鎖等,0,2022-02-02,2022-01-31,有限会社勝又青果,,有限会社,東京都,日野市,西平山１丁目１０番地の１,,13,212,1910055,,,2022-01-31,清算の結了等,,,2015-10-05,1,,,,,カツマタセイカ,0
1440,6080102016674,登記記録の閉鎖等,0,2022-02-02,2022-01-31,有限会社ケイエス・トータル,,有限会社,静岡県,富士宮市,西山２４７６番地の４,,22,207,4190313,,,2022-01-31,清算の結了等,,,2015-10-05,1,,,,,ケイエストータル,0
1485,6140001042542,登記記録の閉鎖等,0,2022-02-02,2022-01-27,株式会社オフィスアイランド,,株式会社,兵庫県,加古川市,加古川町粟津７１０番地の３,,28,210,6750039,,,2022-01-27,清算の結了等,,,2015-10-05,1,,,,,オフィスアイランド,0
1487,6140001056055,登記記録の閉鎖等,0,2022-02-02,2022-01-31,株式会社ニューオート豊岡,,株式会社,兵庫県,豊岡市,中陰５７０番地の９,,28,209,6680013,,,2022-01-31,清算の結了等,,,2015-10-05,1,,,,,ニューオートトヨオカ,0
1489,6140001094146,登記記録の閉鎖等,0,2022-02-02,2022-01-31,ＳＲ工業株式会社,,株式会社,兵庫県,加古川市,尾上町安田７５０番地,,28,210,6750021,,,2022-01-31,清算の結了等,,,2015-10-05,1,,,,,エスアールコウギョウ,0
1505,6180002014669,登記記録の閉鎖等,0,2022-02-02,2022-01-31,有限会社フジモト,,有限会社,愛知県,名古屋市南区,要町５丁目１３７番地,,23,112,4570802,,,2022-01-31,清算の結了等,,,2015-10-05,1,,,,,フジモト,0
1525,6220002002289,登記記録の閉鎖等,0,2022-02-02,2022-01-28,有限会社薬フアミリー,,有限会社,石川県,金沢市,松村２丁目１２１番地,,17,201,9200348,,,2022-01-28,清算の結了等,,,2015-10-05,1,,,,,クスリフアミリー,0
1531,6240002031880,登記記録の閉鎖等,0,2022-02-02,2022-02-01,有限会社くちわ,,有限会社,広島県,庄原市,口和町大月８０５番地の２,,34,210,7280503,,,2022-02-01,清算の結了等,,,2015-10-05,1,,,,,クチワ,0
1532,6240002052902,登記記録の閉鎖等,0,2022-02-02,2022-01-28,有限会社味,,有限会社,広島県,三原市,宮浦２丁目４番５号,,34,204,7230051,,,2022-01-28,清算の結了等,,,2015-10-05,1,,,,,アジ,0
1574,6360001006013,登記記録の閉鎖等,0,2022-02-02,2022-01-28,株式会社レンタワークス,,株式会社,沖縄県,豊見城市,字名嘉地２５９番地の５,,47,212,9010235,,,2022-01-28,清算の結了等,,,2015-10-05,1,,,,,レンタワークス,0
1576,6370001047444,登記記録の閉鎖等,0,2022-02-02,2022-01-31,いずみエステート株式会社,,株式会社,宮城県,仙台市泉区,山の寺２丁目２８番１３号エスポワール１０３号室,,04,105,9813103,,,2022-01-31,清算の結了等,,,2021-08-04,1,,,,,イズミエステート,0
1588,6420001012087,登記記録の閉鎖等,0,2022-02-02,2022-01-31,株式会社市川建設,,株式会社,青森県,上北郡東北町,大字大浦字舘野３０番地,,02,408,0392402,,,2022-01-31,清算の結了等,,,2015-10-05,1,,,,,イチカワケンセツ,0
1589,6420005006119,登記記録の閉鎖等,0,2022-02-02,2022-01-31,おいらせ町土地開発公社,,その他の設立登記法人,青森県,上北郡おいらせ町,中下田１３５番地２,,02,412,0392136,,,2022-01-31,清算の結了等,,,2015-10-05,1,,,,,オイラセチョウ,0
1594,6430001080703,登記記録の閉鎖等,0,2022-02-02,2022-01-27,株式会社ＥＸＩＳＴ,,株式会社,北海道,札幌市西区,西野九条８丁目１２番１６号,,01,107,0630039,,,2022-01-27,清算の結了等,,,2020-01-17,1,,,,,イグジスト,0
1597,6480002010456,登記記録の閉鎖等,0,2022-02-02,2022-02-01,有限会社コスモス,,有限会社,徳島県,鳴門市,撫養町立岩字六枚２０３番地,,36,202,7720017,,,2022-02-01,清算の結了等,,,2015-10-05,1,,,,,コスモス,0
1603,7010001191624,登記記録の閉鎖等,0,2022-02-02,2022-01-26,コネクトエッジ株式会社,,株式会社,千葉県,柏市,明原２丁目２番２０号,,12,217,2770843,,,2022-01-26,清算の結了等,,,2018-05-11,1,,,,,コネクトエッジ,0
1611,7010005029705,登記記録の閉鎖等,0,2022-02-02,2022-01-28,一般社団法人ＮＲＴグロース１４,,その他の設立登記法人,東京都,中央区,日本橋２丁目７番１号,,13,102,1030027,,,2022-01-28,清算の結了等,,,2019-02-06,1,,,,,エヌアールティーグロースフォーティーン,0
1630,7010601003633,登記記録の閉鎖等,0,2022-02-02,2022-01-25,株式会社大三不動産,,株式会社,東京都,江東区,平野１丁目１１番７号,,13,108,1350023,,,2022-01-25,清算の結了等,,,2015-10-05,1,,,,,ダイサンフドウサン,0
1634,7010601054692,登記記録の閉鎖等,0,2022-02-02,2022-01-19,日本永立株式会社,,株式会社,東京都,渋谷区,神宮前６丁目２３番４号,,13,113,1500001,,,2022-01-19,清算の結了等,,,2018-11-30,1,,,,,ニホンエイリツ,0
1646,7011001068374,登記記録の閉鎖等,0,2022-02-02,2022-01-31,神戸マルゼン株式会社,,株式会社,兵庫県,神戸市東灘区,住吉山手４丁目１４番１２－１０７号,,28,101,6580063,,,2022-01-31,清算の結了等,,,2015-10-05,1,,,,,コウベマルゼン,0
1647,7011001095162,登記記録の閉鎖等,0,2022-02-02,2022-01-28,株式会社三長,,株式会社,東京都,世田谷区,太子堂２丁目１４番３号,,13,112,1540004,,,2022-01-28,清算の結了等,,,2015-10-05,1,,,,,サンチョウ,0
1681,7020001016664,登記記録の閉鎖等,0,2022-02-02,2022-01-31,株式会社石塚商店,00009266,株式会社,神奈川県,横浜市鶴見区,下末吉５丁目１９番３４号,,14,101,2300012,,,2022-01-31,清算の結了等,,,2015-10-05,1,,,,,イシヅカショウテン,0
1682,7020001017480,登記記録の閉鎖等,0,2022-02-02,2022-01-31,三友工業株式会社,,株式会社,神奈川県,横浜市鶴見区,上末吉２丁目１８番４号,,14,101,2300011,,,2022-01-31,清算の結了等,,,2015-10-05,1,,,,,サンユウコウギョウ,0
1687,7020002090345,登記記録の閉鎖等,0,2022-02-02,2022-01-28,有限会社三建,,有限会社,神奈川県,川崎市宮前区,平６丁目２番２０号,,14,136,2160022,,,2022-01-28,清算の結了等,,,2015-10-05,1,,,,,サンケン,0
1710,7040002057144,登記記録の閉鎖等,0,2022-02-02,2022-01-28,有限会社オカダ,,有限会社,千葉県,白井市,谷田７９１番地,,12,232,2701414,,,2022-01-28,清算の結了等,,,2015-10-05,1,,,,,オカダ,0
1726,7100001017852,登記記録の閉鎖等,0,2022-02-02,2022-01-31,株式会社マルタク,,株式会社,長野県,木曽郡南木曽町,吾妻起シ２３３３番地,,20,423,3995302,,,2022-01-31,清算の結了等,,,2015-10-05,1,,,,,マルタク,0
1727,7100002021317,登記記録の閉鎖等,0,2022-02-02,2022-01-27,富士製本有限会社,,有限会社,長野県,松本市,大字芳川小屋５１８番地４,,20,202,3990031,,,2022-01-27,登記官による閉鎖,,,2015-10-05,1,,,,,,0
1741,7120002052418,登記記録の閉鎖等,0,2022-02-02,2022-01-28,有限会社日本アール・シー・ジー関西,,有限会社,大阪府,大阪市中央区,鎗屋町１丁目１番１１号,,27,128,5400027,,,2022-01-28,清算の結了等,,,2015-10-05,1,,,,,ニホンアールシージーカンサイ,0
1742,7120002072820,登記記録の閉鎖等,0,2022-02-02,2022-01-31,有限会社ニシオ建材興業,,有限会社,大阪府,寝屋川市,川勝町８番３号,,27,215,5720015,,,2022-01-31,清算の結了等,,,2015-10-05,1,,,,,ニシオケンザイコウギョウ,0
1748,7122001033043,登記記録の閉鎖等,0,2022-02-02,2022-01-28,株式会社ＪＮテクノ,,株式会社,大阪府,八尾市,末広町４丁目７番１－２０２号,,27,212,5810001,,,2022-01-28,清算の結了等,,,2019-10-11,1,,,,,ジェイエヌテクノ,0
1756,7140001001290,登記記録の閉鎖等,0,2022-02-02,2022-01-31,株式会社金沢,,株式会社,兵庫県,神戸市東灘区,御影山手１丁目２番１０－３０２号,,28,101,6580065,,,2022-01-31,清算の結了等,,,2015-10-05,1,,,,,カナザワ,0
1763,7140002005051,登記記録の閉鎖等,0,2022-02-02,2022-01-28,有限会社パイオニアサービス,,有限会社,兵庫県,神戸市西区,伊川谷町別府９３番地の１プレステージ西神戸ＩＩＩ１００４号,00040502,28,111,6512115,,,2022-01-28,清算の結了等,,,2015-10-05,1,,,,,パイオニアサービス,0
1787,7180003011169,登記記録の閉鎖等,0,2022-02-02,2022-01-27,合名会社三洋工業所,,合名会社,愛知県,丹羽郡大口町,萩島１丁目１２３番地,,23,361,4800124,,,2022-01-27,清算の結了等,,,2015-10-05,1,,,,,サンヨウコウギョウショ,0
1788,7180302027923,登記記録の閉鎖等,0,2022-02-02,2022-01-31,鳳来盆裁センター有限会社,,有限会社,愛知県,新城市,井代字大貝津８９番地,,23,221,4411616,,,2022-01-31,清算の結了等,,,2015-10-05,1,,,,,ホウライボンサイセンター,0
1796,7200001034895,登記記録の閉鎖等,0,2022-02-02,2022-01-31,五光工機株式会社,,株式会社,岐阜県,多治見市,根本町３丁目９９番地,,21,204,5070065,,,2022-01-31,清算の結了等,,,2018-02-16,1,,,,,ゴコウコウキ,0
1808,7240002047380,登記記録の閉鎖等,0,2022-02-02,2022-01-31,有限会社Ｙ企画,,有限会社,広島県,福山市,引野町５丁目４４番１２号,,34,207,7210942,,,2022-01-31,合併による解散等,9240002045960,令和４年１月３１日広島県福山市引野町五丁目４５番２６号株式会社Ｔ企画（9240002045960）に合併し解散,2015-10-05,1,,,,,ワイキカク,0
1832,7330002010247,登記記録の閉鎖等,0,2022-02-02,2022-01-31,有限会社ミトラシステム,,有限会社,熊本県,熊本市北区,武蔵ケ丘２丁目１６番７１号,,43,105,8618001,,,2022-01-31,清算の結了等,,,2015-10-05,1,,,,,ミトラシステム,0
1851,7380002023005,登記記録の閉鎖等,0,2022-02-02,2022-01-31,有限会社上遠野広土木,,有限会社,福島県,いわき市,遠野町滝字深山口１２８番地,,07,204,9720162,,,2022-01-31,清算の結了等,,,2015-10-05,1,,,,,カトオノヒロシドモク,0
1854,7390002002701,登記記録の閉鎖等,0,2022-02-02,2022-01-31,有限会社銘和,,有限会社,山形県,山形市,伊達城１丁目９番地の２,,06,201,9902163,,,2022-01-31,清算の結了等,,,2015-10-05,1,,,,,メイワ,0
1867,7430005004112,登記記録の閉鎖等,0,2022-02-02,2022-01-31,特定非営利活動法人源,,その他の設立登記法人,北海道,札幌市豊平区,西岡一条３丁目１４番１２号,,01,105,0620031,,,2022-01-31,清算の結了等,,,2015-10-05,1,,,,,ゲン,0
1886,8010003024475,登記記録の閉鎖等,0,2022-02-02,2022-01-20,モロイパートナーズ合同会社,,合同会社,東京都,文京区,本駒込６丁目１４番１４－５１１号,,13,105,1130021,,,2022-01-20,清算の結了等,,,2016-12-05,1,,,,,モロイパートナーズ,0
1891,8010102002539,登記記録の閉鎖等,0,2022-02-02,2022-01-31,有限会社晃和,,有限会社,東京都,八王子市,西片倉３丁目１番１４号,,13,201,1920917,,,2022-01-31,清算の結了等,,,2015-10-05,1,,,,,コウワ,0
1903,8010403014893,登記記録の閉鎖等,0,2022-02-02,2022-01-26,合同会社ファミタウン１号,,合同会社,東京都,港区,赤坂３丁目１２番７号,,13,103,1070052,,,2022-01-26,清算の結了等,,,2016-06-13,1,,,,,,0
1918,8010901028718,登記記録の閉鎖等,0,2022-02-02,2022-01-28,株式会社有賀住設,,株式会社,東京都,世田谷区,赤堤１丁目２２番１４号,,13,112,1560044,,,2022-01-28,清算の結了等,,,2015-10-05,1,,,,,アリガジュウセツ,0
1944,8013303005236,登記記録の閉鎖等,0,2022-02-02,2022-01-27,合同会社ｌｕｘｅ,,合同会社,東京都,豊島区,南池袋１丁目９番１８号,,13,116,1710022,,,2022-01-27,清算の結了等,,,2020-08-07,1,,,,,リュクス,0
1963,8020005006363,登記記録の閉鎖等,0,2022-02-02,2022-02-01,特定非営利活動法人発達障害者父親会,,その他の設立登記法人,神奈川県,横浜市泉区,弥生台５１番９号ＮＫビル２Ｆ,,14,116,2450008,,,2022-02-01,清算の結了等,,,2015-10-05,1,,,,,ハッタツショウガイシャチチオヤカイ,0
1969,8021001072011,登記記録の閉鎖等,0,2022-02-02,2022-01-28,株式会社原点回帰,,株式会社,神奈川県,座間市,入谷東３丁目８番３２号,,14,216,2520028,,,2022-01-28,清算の結了等,,,2021-02-03,1,,,,,ゲンテンカイキ,0
1970,8021002010176,登記記録の閉鎖等,0,2022-02-02,2022-01-31,有限会社石坂金物店,,有限会社,神奈川県,茅ヶ崎市,茅ヶ崎１丁目４番３号,,14,207,2530041,,,2022-01-31,清算の結了等,,,2015-10-05,1,,,,,イシザカカナモノテン,0
1973,8021002060923,登記記録の閉鎖等,0,2022-02-02,2022-01-31,有限会社平井テレビ商会,,有限会社,神奈川県,中郡二宮町,百合が丘２丁目２番１号,,14,342,2590133,,,2022-01-31,清算の結了等,,,2015-10-05,1,,,,,ヒライテレビショウカイ,0
1983,8030002079304,登記記録の閉鎖等,0,2022-02-02,2022-01-25,有限会社南鋼エンジニアリング,,有限会社,埼玉県,川越市,上戸新町２番地３０,,11,201,3500817,,,2022-01-25,清算の結了等,,,2015-10-05,1,,,,,ナンコウエンジニアリング,0
2006,8050002026527,登記記録の閉鎖等,0,2022-02-02,2022-01-28,有限会社額賀商事,,有限会社,茨城県,鹿嶋市,大字長栖３０７番地２,,08,222,3140022,,,2022-01-28,清算の結了等,,,2015-10-05,1,,,,,ヌカガショウジ,0
2012,8080005005541,登記記録の閉鎖等,0,2022-02-02,2022-01-31,協同組合焼津さかなセンター,,その他の設立登記法人,静岡県,焼津市,八楠４丁目１３番地の７,,22,212,4250091,,,2022-01-31,清算の結了等,,,2015-10-05,1,,,,,ヤイヅサカナセンター,0
2034,8120901025010,登記記録の閉鎖等,0,2022-02-02,2022-01-31,株式会社日本総合建築デザイン,,株式会社,大阪府,豊中市,服部寿町２丁目１１番１８号,,27,203,5610857,,,2022-01-31,清算の結了等,,,2015-10-05,1,,,,,ニホンソウゴウケンチクデザイン,0
2036,8120902009111,登記記録の閉鎖等,0,2022-02-02,2022-01-31,有限会社プランプラン,,有限会社,大阪府,摂津市,鳥飼野々３丁目３５番１３号,,27,224,5660053,,,2022-01-31,清算の結了等,,,2015-10-05,1,,,,,プランプラン,0
2046,8140001110710,登記記録の閉鎖等,0,2022-02-02,2022-01-28,株式会社ＡＬＬＥＹ　ＳＵＰＥＲＮＯＶＡ,,株式会社,兵庫県,神戸市長田区,久保町５丁目１－１－６０４,,28,106,6530041,,,2022-01-28,清算の結了等,,,2018-07-19,1,,,,,アレイスーパーノヴァ,0
2060,8180001134474,登記記録の閉鎖等,0,2022-02-02,2022-01-31,高木マネーカンパニー株式会社,00114983,株式会社,愛知県,愛西市,大野山町元余代２７番地,,23,232,4968017,,,2022-01-31,清算の結了等,,,2018-11-16,1,,,,,タカギマネーカンパニー,0
2063,8180002027181,登記記録の閉鎖等,0,2022-02-02,2022-01-28,有限会社内田オイル,,有限会社,愛知県,名古屋市中村区,八社１丁目９０番地,,23,105,4530863,,,2022-01-28,清算の結了等,,,2015-10-05,1,,,,,ウチダオイル,0
2072,8190001009576,登記記録の閉鎖等,0,2022-02-02,2022-01-31,株式会社東研ソフト,,株式会社,三重県,名張市,梅が丘北３番町５１番地,,24,208,5180748,,,2022-01-31,清算の結了等,,,2015-10-05,1,,,,,トウケンソフト,0
2077,8200002016917,登記記録の閉鎖等,0,2022-02-02,2022-01-20,有限会社可児精機製作所,,有限会社,岐阜県,可児市,下切３０７１番地の１,,21,214,5090245,,,2022-01-20,清算の結了等,,,2015-10-05,1,,,,,カニセイキセイサクショ,0
2086,8250005006794,登記記録の閉鎖等,0,2022-02-02,2022-01-31,永福寺,,その他の設立登記法人,山口県,柳井市,余田２０５番地,,35,212,7420034,,,2022-01-31,清算の結了等,,,2015-10-05,1,,,,,エイフクジ,0
2111,8330002007787,登記記録の閉鎖等,0,2022-02-02,2022-01-31,有限会社西川企業,,有限会社,熊本県,熊本市東区,御領５丁目６番６０号,,43,102,8618035,,,2022-01-31,清算の結了等,,,2015-10-05,1,,,,,ニシカワキギョウ,0
2123,8390001015380,登記記録の閉鎖等,0,2022-02-02,2022-01-26,株式会社ＲＥＢＡ,,株式会社,東京都,港区,元麻布２丁目１番２１号元麻布ＹＳビル４０１,,13,103,1060046,,,2022-01-26,清算の結了等,,,2018-07-06,1,,,,,リーバ,0
2134,8430005012700,登記記録の閉鎖等,0,2022-02-02,2022-01-31,社会保険労務士法人ＳＲ石川事務所,,その他の設立登記法人,北海道,札幌市清田区,清田一条２丁目４番３６号,,01,110,0040841,,,2022-01-31,清算の結了等,,,2016-02-05,1,,,,,エスアールイシカワジムショ,0
2154,9010005033234,登記記録の閉鎖等,0,2022-02-02,2022-01-27,一般社団法人在外邦人支援機構,,その他の設立登記法人,東京都,千代田区,二番町９番３号,,13,101,1020084,,,2022-01-27,清算の結了等,,,2021-04-19,1,,,,,ザイガイホウジンシエンキコウ,0
2177,9010601033455,登記記録の閉鎖等,0,2022-02-02,2022-01-26,株式会社ＭＡＹコミュニケーションズ,,株式会社,東京都,江東区,越中島３丁目２番１５号,,13,108,1350044,,,2022-01-26,清算の結了等,,,2015-10-05,1,,,,,,0
2200,9011101045016,登記記録の閉鎖等,0,2022-02-02,2022-01-26,ステラジャパン株式会社,,株式会社,東京都,港区,西新橋１丁目１９－８虎ノ門ＳＥビル５階,,13,103,1050003,,,2022-01-26,清算の結了等,,,2015-10-05,1,,,,,ステラジャパン,0
2213,9011802026900,登記記録の閉鎖等,0,2022-02-02,2022-01-31,有限会社福島工業所,,有限会社,東京都,葛飾区,東新小岩２丁目１番１６号,,13,122,1240023,,,2022-01-31,清算の結了等,,,2015-10-05,1,,,,,フクシマコウギョウショ,0
2219,9020001002191,登記記録の閉鎖等,0,2022-02-02,2022-01-31,株式会社高久酒販,,株式会社,神奈川県,横浜市緑区,十日市場町８２０番地１,,14,113,2260025,,,2022-01-31,清算の結了等,,,2015-10-05,1,,,,,タカキュウシュハン,0
2237,9021002020059,登記記録の閉鎖等,0,2022-02-02,2022-01-31,有限会社小島巖夫商店,,有限会社,神奈川県,相模原市中央区,相生４丁目５番１号,,14,152,2520235,,,2022-01-31,清算の結了等,,,2015-10-05,1,,,,,コジマイワオショウテン,0
2255,9050001000787,登記記録の閉鎖等,0,2022-02-02,2022-01-28,近代印刷工業株式会社,,株式会社,茨城県,水戸市,加倉井町２０９９番地,,08,201,3114163,,,2022-01-28,清算の結了等,,,2015-10-05,1,,,,,キンダイインサツコウギョウ,0
2272,9120001214859,登記記録の閉鎖等,0,2022-02-02,2022-02-01,株式会社大和,,株式会社,大阪府,大阪市生野区,巽中３丁目１９番２２号,00114025,27,116,5440013,,,2022-02-01,清算の結了等,,,2018-07-23,1,,,,,ダイワ,0
2280,9120005014322,登記記録の閉鎖等,0,2022-02-02,2022-01-28,特定非営利活動法人キリンさんのおうち,,その他の設立登記法人,大阪府,大阪市福島区,福島１丁目６番２５号,,27,103,5530003,,,2022-01-28,清算の結了等,,,2015-10-05,1,,,,,キリンサンノオウチ,0
2289,9130001010324,登記記録の閉鎖等,0,2022-02-02,2022-01-31,株式会社吉祥院サーヴィス・ステーション,,株式会社,京都府,京都市南区,吉祥院向田西町２番地,,26,107,6018307,,,2022-01-31,清算の結了等,,,2015-10-05,1,,,,,キッショウインサーヴィスステーション,0
2300,9140002066372,登記記録の閉鎖等,0,2022-02-02,2022-01-31,有限会社振興誠心会,,有限会社,兵庫県,川西市,久代５丁目２番２号,,28,217,6660024,,,2022-01-31,清算の結了等,,,2015-10-05,1,,,,,シンコウセイシンカイ,0
2304,9150005002522,登記記録の閉鎖等,0,2022-02-02,2022-01-31,医療法人カワサキ内科,,その他の設立登記法人,奈良県,大和郡山市,今国府町３８５－１,,29,203,6391031,,,2022-01-31,清算の結了等,,,2015-10-05,1,,,,,カワサキナイカ,0
2309,9180001019170,登記記録の閉鎖等,0,2022-02-02,2022-01-31,奥村工機株式会社,,株式会社,愛知県,名古屋市中川区,大塩町２丁目３５番地,,23,110,4540863,,,2022-01-31,清算の結了等,,,2015-10-05,1,,,,,オクムラコウキ,0
2317,9180001141610,登記記録の閉鎖等,0,2022-02-02,2022-01-28,株式会社ガスエコ,,株式会社,愛知県,津島市,金柳町字観音堂１６７番地,,23,208,4960014,,,2022-01-28,清算の結了等,,,2020-06-17,1,,,,,ガスエコ,0
2330,9180302005803,登記記録の閉鎖等,0,2022-02-02,2022-02-01,有限会社ＮＳＹ,,有限会社,愛知県,岡崎市,東大友町字塚本３６番地１３,,23,202,4440903,,,2022-02-01,清算の結了等,,,2015-10-05,1,,,,,エヌエスワイ,0
2360,9290001063059,登記記録の閉鎖等,0,2022-02-02,2022-01-31,株式会社あじあん,,株式会社,福岡県,福岡市博多区,比恵町１番１８号トーカン福岡第二ビル７０７号,,40,132,8120014,,,2022-01-31,清算の結了等,,,2015-10-05,1,,,,,アジアン,0
2369,9290002052382,登記記録の閉鎖等,0,2022-02-02,2022-01-27,有限会社山元工房,,有限会社,福岡県,久留米市,田主丸町秋成６３１番地５,,40,203,8391203,,,2022-01-27,清算の結了等,,,2015-10-05,1,,,,,ヤマゲンコウボウ,0
2371,9300001011577,登記記録の閉鎖等,0,2022-02-02,2022-01-31,株式会社日基,,株式会社,佐賀県,三養基郡基山町,大字小倉１７０１番地１,,41,341,8410201,,,2022-01-31,清算の結了等,,,2019-01-22,1,,,,,ニッキ,0
2375,9310003001609,登記記録の閉鎖等,0,2022-02-02,2022-01-31,株式会社小柳自動車,,株式会社,長崎県,諫早市,栄田町２２番３８号,,42,204,8540081,,,2022-01-31,清算の結了等,,,2015-10-05,1,,,,,コヤナギジドウシャ,0
2380,9330001011517,登記記録の閉鎖等,0,2022-02-02,2022-01-31,株式会社ワールド観光,,株式会社,熊本県,玉名市,岱明町野口１１０８－１,,43,206,8690222,,,2022-01-31,清算の結了等,,,2015-10-05,1,,,,,ワールドカンコウ,0
2381,9330001020154,登記記録の閉鎖等,0,2022-02-02,2022-01-31,株式会社さん,,株式会社,熊本県,熊本市中央区,下通１丁目１０番１２号,,43,101,8600807,,,2022-01-31,清算の結了等,,,2015-10-05,1,,,,,サン,0
2398,9410005002735,登記記録の閉鎖等,0,2022-02-02,2022-01-27,秋南企業協同組合,,その他の設立登記法人,秋田県,雄勝郡東成瀬村,岩井川字村中６５番地５,,05,464,0190802,,,2022-01-27,清算の結了等,,,2015-10-05,1,,,,,シュウナンキギョウ,0
2409,9460301001064,登記記録の閉鎖等,0,2022-02-02,2022-01-31,株式会社ミツフジ,,株式会社,北海道,北見市,西三輪５丁目１番地１２,,01,208,0900838,,,2022-01-31,清算の結了等,,,2015-10-05,1,,,,,ミツフジ,0
