sequenceNumber,corporateNumber,process,correct,updateDate,changeDate,name,nameImageId,kind,prefectureName,cityName,streetNumber,addressImageId,prefectureCode,cityCode,postCode,addressOutside,addressOutsideImageId,closeDate,closeCause,successorCorporateNumber,changeCause,assignmentDate,latest,enName,enPrefectureName,enCityName,enAddressOutside,furigana,hihyoji
18,1010001246887,新規,0,2024-07-30,2024-07-30,株式会社ＤＤＥ,,株式会社,東京都,千代田区,神田和泉町１番地６－１６ヤマトビル,,13,101,1010024,,,,,,,2024-07-30,1,,,,,ディディイー,0
19,1010001246895,新規,0,2024-07-30,2024-07-30,向島株式会社,,株式会社,東京都,千代田区,内神田１丁目１８－１１東京ロイヤルプラザ２１６号,,13,101,1010047,,,,,,,2024-07-30,1,,,,,コウジマ,0
20,1010001247019,新規,0,2024-07-30,2024-07-30,ＹＭＤ＆Ｃｏ．株式会社,,株式会社,東京都,中央区,銀座１丁目２２番１１号銀座大竹ビジデンス２Ｆ,,13,102,1040061,,,,,,,2024-07-30,1,,,,,ワイエムディアンドカンパニー,0
24,1010003044447,新規,0,2024-07-30,2024-07-30,合同会社ｍｉｅ　ｆｏｒｅｓｔ,,合同会社,東京都,中央区,銀座１丁目１２－４Ｎ＆ＥＢＬＤ．７階,,13,102,1040061,,,,,,,2024-07-30,1,,,,,ミーフォレスト,0
26,1010101016240,新規,0,2024-07-30,2024-07-30,永貞株式会社,,株式会社,東京都,八王子市,寺町４３－９,,13,201,1920073,,,,,,,2024-07-30,1,,,,,エイテイ,0
27,1010103002395,新規,0,2024-07-30,2024-07-30,合同会社田中アクターズ,,合同会社,東京都,八王子市,元本郷町４丁目５－１０カインドネス八王子元本郷１０１,,13,201,1920051,,,,,,,2024-07-30,1,,,,,タナカアクターズ,0
30,1010401184101,新規,0,2024-07-30,2024-07-30,株式会社矢掛町ワイン,,株式会社,東京都,港区,南青山７丁目１４番１０号,,13,103,1070062,,,,,,,2024-07-30,1,,,,,ヤカケチョウワイン,0
33,1010403033124,新規,0,2024-07-30,2024-07-30,合同会社ＣＯＬＥＳ,,合同会社,東京都,港区,南青山２丁目２番１５号,,13,103,1070062,,,,,,,2024-07-30,1,,,,,コールス,0
34,1010405023420,新規,0,2024-07-30,2024-07-30,一般社団法人ココファンド５,,その他の設立登記法人,東京都,港区,西新橋１丁目２番９号メンターキャピタル税理士法人内,,13,103,1050003,,,,,,,2024-07-30,1,,,,,ココファンドゴ,0
39,1010605004360,新規,0,2024-07-30,2024-07-30,特定非営利活動法人みみトモランド,,その他の設立登記法人,東京都,江東区,東陽２丁目２番５号４０６号室,,13,108,1350016,,,,,,,2024-07-30,1,,,,,ミミトモランド,0
49,1010901055719,新規,0,2024-07-30,2024-07-30,オンボード株式会社,,株式会社,東京都,世田谷区,池尻４丁目８番１－１２０３号,,13,112,1540001,,,,,,,2024-07-30,1,,,,,オンボード,0
56,1011101108201,新規,0,2024-07-30,2024-07-30,株式会社ＭＭＪ,,株式会社,東京都,新宿区,西新宿４丁目３２－１１新宿セントビラ永谷１０１５号室,,13,104,1600023,,,,,,,2024-07-30,1,,,,,エムエムジェー,0
58,1011203004455,新規,0,2024-07-30,2024-07-30,ＴＥＮＴ合同会社,,合同会社,東京都,中野区,大和町４丁目７番１５号,,13,114,1650034,,,,,,,2024-07-30,1,,,,,テント,0
63,1011801044588,新規,0,2024-07-30,2024-07-30,株式会社二継社,,株式会社,東京都,葛飾区,東新小岩２丁目２８－１－２階２２号室,,13,122,1240023,,,,,,,2024-07-30,1,,,,,ニケイシャ,0
64,1011801044596,新規,0,2024-07-30,2024-07-30,株式会社ＳＵＮＬＩＮＥ,,株式会社,東京都,足立区,千住柳町２５－１－３０２号室,,13,121,1200032,,,,,,,2024-07-30,1,,,,,サンライン,0
74,1012403006687,新規,0,2024-07-30,2024-07-30,Ｍ’ｓ合同会社,,合同会社,東京都,調布市,小島町３丁目６５－４,,13,208,1820026,,,,,,,2024-07-30,1,,,,,エムズ,0
90,1020003026535,新規,0,2024-07-30,2024-07-30,合同会社ＤＳＸ,,合同会社,神奈川県,川崎市高津区,梶ケ谷４丁目４番地２３,,14,134,2130015,,,,,,,2024-07-30,1,,,,,ディーエスエックス,0
94,1021001082834,新規,0,2024-07-30,2024-07-30,プラスマーケティング株式会社,,株式会社,神奈川県,逗子市,逗子７丁目１番５１号ナニワビル３Ｆ,,14,208,2490006,,,,,,,2024-07-30,1,,,,,プラスマーケティング,0
97,1021003014827,新規,0,2024-07-30,2024-07-30,合同会社ＷａＧＳ,,合同会社,神奈川県,秦野市,本町３丁目１１番１２－１号,,14,211,2570035,,,,,,,2024-07-30,1,,,,,ワグズ,0
102,1030001161614,新規,0,2024-07-30,2024-07-30,株式会社日和,,株式会社,埼玉県,草加市,新里町３０番地１２,,11,221,3400031,,,,,,,2024-07-30,1,,,,,ヒヨリ,0
103,1030001161630,新規,0,2024-07-30,2024-07-30,株式会社Ｃｒａｗｌ　ｕｐ,,株式会社,埼玉県,川口市,戸塚３丁目３７番８号Ａｒｉａ－ｎｏｐｓ２１１号,,11,203,3330811,,,,,,,2024-07-30,1,,,,,クロールアップ,0
111,1030003024810,新規,0,2024-07-30,2024-07-30,合同会社ＳＹＥＤ　Ｔｒａｄｉｎｇ　ＣＯ,,合同会社,埼玉県,越谷市,大字大林４５４番地３,,11,222,3430021,,,,,,,2024-07-30,1,,,,,ソヨッドトレーディングシーオー,0
120,1040003025460,新規,0,2024-07-30,2024-07-30,合同会社グリップアップ,,合同会社,千葉県,柏市,手賀９４３,,12,217,2701465,,,,,,,2024-07-30,1,,,,,グリップアップ,0
131,1060003005171,新規,0,2024-07-30,2024-07-30,合同会社ＲＯＡＮＡ,,合同会社,栃木県,小山市,西城南４丁目２５番地２０,,09,208,3230820,,,,,,,2024-07-30,1,,,,,ロアナ,0
134,1080003003264,新規,0,2024-07-30,2024-07-30,合同会社ＩＫＩＯＩ,,合同会社,静岡県,静岡市駿河区,聖一色４７４番地の１,,22,102,4228007,,,,,,,2024-07-30,1,,,,,イキオイ,0
135,1080101024922,新規,0,2024-07-30,2024-07-30,株式会社ＫｉＭａｒｕ,,株式会社,静岡県,沼津市,高島町１１番２２号,,22,203,4100056,,,,,,,2024-07-30,1,,,,,キマル,0
139,1100001037708,新規,0,2024-07-30,2024-07-30,株式会社北信幸業,,株式会社,長野県,長野市,大字大町１６番地２,,20,201,3810004,,,,,,,2024-07-30,1,,,,,ホクシンコウギョウ,0
140,1100003007675,新規,0,2024-07-30,2024-07-30,合同会社とも,,合同会社,長野県,小県郡青木村,大字奈良本７５９番地,,20,349,3861607,,,,,,,2024-07-30,1,,,,,トモ,0
141,1110001038597,新規,0,2024-07-30,2024-07-30,株式会社ＡＸＩＳ,,株式会社,新潟県,長岡市,松葉１丁目４番１７号,,15,202,9400091,,,,,,,2024-07-30,1,,,,,アクシス,0
153,1130001077560,新規,0,2024-07-30,2024-07-30,Ｋ２デザイニング株式会社,,株式会社,京都府,八幡市,橋本北浄土ケ原７４番地３９,,26,210,6148325,,,,,,,2024-07-30,1,,,,,ケーツーデザイニング,0
154,1130001077569,新規,0,2024-07-30,2024-07-30,オーシャンホールディングス株式会社,,株式会社,京都府,京都市中京区,六角通烏丸東入堂之前町２５４番地,,26,104,6048134,,,,,,,2024-07-30,1,,,,,オーシャンホールディングス,0
159,1140003020872,新規,0,2024-07-30,2024-07-30,合同会社凜,,合同会社,兵庫県,姫路市,飾磨区中野田３丁目７７番地,,28,201,6728045,,,,,,,2024-07-30,1,,,,,リン,0
160,1140003020897,新規,0,2024-07-30,2024-07-30,合同会社平澤裕紀子総合研究所,,合同会社,兵庫県,神戸市中央区,相生町４丁目３番１号神戸ストークビル,,28,110,6500025,,,,,,,2024-07-30,1,,,,,ヒラサワユキコソウゴウケンキュウジョ,0
169,1180001162449,新規,0,2024-07-30,2024-07-30,株式会社Ｒ,,株式会社,愛知県,名古屋市港区,油屋町２丁目３２番地の１,,23,111,4550815,,,,,,,2024-07-30,1,,,,,アール,0
177,1180003027105,新規,0,2024-07-30,2024-07-30,合同会社ＫＥＰＰＡＲＥ１０２８,,合同会社,愛知県,名古屋市昭和区,広路本町５丁目４０番地ドリーム川名２０２号,,23,107,4660841,,,,,,,2024-07-30,1,,,,,ケッパレイチゼロニハチ,0
188,1200001042739,新規,0,2024-07-30,2024-07-30,ＯＮＰ大日株式会社,,株式会社,岐阜県,郡上市,高鷲町西洞３３５６番地,,21,219,5015305,,,,,,,2024-07-30,1,,,,,オーエヌピーダイニチ,0
189,1200001042747,新規,0,2024-07-30,2024-07-30,昭和製陶株式会社,,株式会社,岐阜県,土岐市,駄知町４４０番地,,21,212,5095401,,,,,,,2024-07-30,1,,,,,ショウワセイトウ,0
197,1230001020460,新規,0,2024-07-30,2024-07-30,株式会社ＡＶＡＮＣＥＲ,,株式会社,富山県,富山市,総曲輪２丁目６番４号,,16,201,9300083,,,,,,,2024-07-30,1,,,,,アヴァンセ,0
203,1240005015803,新規,0,2024-07-30,2024-07-30,一般社団法人波動舘,,その他の設立登記法人,広島県,福山市,東村町４３番地２,,34,207,7290251,,,,,,,2024-07-30,1,,,,,ハドウカン,0
208,1270003001653,新規,0,2024-07-30,2024-07-30,合同会社ＥｘｐＡｎｄ,,合同会社,鳥取県,東伯郡湯梨浜町,大字田後２８７番地６,,31,370,6820721,,,,,,,2024-07-30,1,,,,,エクスパンド,0
210,1290801030736,新規,0,2024-07-30,2024-07-30,株式会社ＥＸ‐ＰＬＵＳ,,株式会社,福岡県,行橋市,西泉５丁目１０番３１号,,40,213,8240038,,,,,,,2024-07-30,1,,,,,イクスプラス,0
222,1330005010811,新規,0,2024-07-30,2024-07-30,一般社団法人ホリスティック量子ヒーリング協会,,その他の設立登記法人,熊本県,熊本市東区,長嶺南１丁目２番１０１－２０２号はぴふる長嶺南Ａ,,43,102,8618039,,,,,,,2024-07-30,1,,,,,ホリスティックリョウシヒーリングキョウカイ,0
233,1390001017689,新規,0,2024-07-30,2024-07-30,株式会社ＡＪＳ,,株式会社,山形県,山形市,あかねケ丘３丁目１番１－３０３号メゾンドワイズ,,06,201,9902481,,,,,,,2024-07-30,1,,,,,エージェイエス,0
237,1430001092331,新規,0,2024-07-30,2024-07-30,Ｄｏｒｅａｍ株式会社,,株式会社,北海道,札幌市手稲区,手稲本町一条３丁目３番１ー４０５号,,01,109,0060021,,,,,,,2024-07-30,1,,,,,ドリーム,0
241,1500001025762,新規,0,2024-07-30,2024-07-30,あおいトラストＡ＆Ｄ株式会社,,株式会社,愛媛県,新居浜市,八幡２丁目２－４６,,38,205,7920871,,,,,,,2024-07-30,1,,,,,アオイトラストエーアンドディー,0
242,1700150124238,新規,0,2024-07-30,2024-07-30,ｓｈｅｎｚｈｅｎｓｈｉ　ｘｕｙｕａｎｋｅｊｉ　ｙｏｕｘｉａｎｇｏｎｇｓｉ,,外国会社等,,,,,,,,１１１５，Ｙｉｎｈｏｎｇ　Ｂｕｉｌｄｉｎｇ，Ｗｅｓｔ　Ｓｉｄｅ，Ｉｎｔｅｒｓｅｃｔｉｏｎ　ｏｆ　Ｘｉｎａｎ　１ｓｔ　Ｒｏａｄ　ａｎｄ　Ｆａｎｓｈｅｎ　Ｒｏａｄ，Ｚｏｎｅ　４０，Ａｎｌｅ　Ｃｏｍｍｕｎｉｔｙ，Ｘｉｎａｎ　Ｓｔｒｅｅｔ，Ｂａｏａｎ　Ｄｉｓｔｒｉｃｔ　Ｓｈｅｎｚｈｅｎ,,,,,,2024-07-30,1,,,,,シエンジエンシーシーユエンコージーヨウシエンゴンスー,0
252,2010003044314,新規,0,2024-07-30,2024-07-30,ＮＩＳＳｙｏｕ合同会社,,合同会社,東京都,中央区,銀座１丁目２２番１１号銀座大竹ビジデンス２Ｆ,,13,102,1040061,,,,,,,2024-07-30,1,,,,,ニッシュ,0
253,2010003044339,新規,0,2024-07-30,2024-07-30,合同会社京都東山閣,,合同会社,東京都,千代田区,霞が関３丁目２番５号,,13,101,1000013,,,,,,,2024-07-30,1,,,,,キョウトトウザンカク,0
254,2010003044438,新規,0,2024-07-30,2024-07-30,合同会社パルテンザ,,合同会社,東京都,千代田区,神田佐久間町２丁目１３番地２７,,13,101,1010025,,,,,,,2024-07-30,1,,,,,パルテンザ,0
255,2010005038586,新規,0,2024-07-30,2024-07-30,京都東山閣特定目的会社,,その他の設立登記法人,東京都,千代田区,霞が関３丁目２番５号,,13,101,1000013,,,,,,,2024-07-30,1,,,,,キョウトトウザンカク,0
258,2010401184034,新規,0,2024-07-30,2024-07-30,株式会社Ｊａｐａｎ　Ａｓｓｅｔ,,株式会社,東京都,港区,浜松町２丁目２番１５号浜松町ダイヤビル２Ｆ,,13,103,1050013,,,,,,,2024-07-30,1,,,,,ジャパンアセット,0
259,2010401184091,新規,0,2024-07-30,2024-07-30,ＶＯＩＱ株式会社,,株式会社,東京都,港区,芝５丁目３１番１７号ＰＭＯ田町,,13,103,1080014,,,,,,,2024-07-30,1,,,,,ヴォイク,0
260,2010401184117,新規,0,2024-07-30,2024-07-30,Ｘｓｙｍ株式会社,,株式会社,東京都,港区,南青山２丁目２番１５号ＷｉｎＡｏｙａｍａビルＵＣＦ６Ｆ,,13,103,1070062,,,,,,,2024-07-30,1,,,,,エクシム,0
263,2010403033123,新規,0,2024-07-30,2024-07-30,合同会社アクティブ,,合同会社,東京都,港区,北青山１丁目３番１号アールキューブ青山３階,,13,103,1070061,,,,,,,2024-07-30,1,,,,,アクティブ,0
265,2010601065653,新規,0,2024-07-30,2024-07-30,株式会社ミラクルスイ,,株式会社,東京都,江東区,亀戸１丁目８番７号飯野ビル７階,,13,108,1360071,,,,,,,2024-07-30,1,,,,,ミラクルスイ,0
276,2010903009242,新規,0,2024-07-30,2024-07-30,合同会社ＯＤＤ　ＦＵＴＵＲＥ,,合同会社,東京都,世田谷区,若林３丁目３１－３Ｆｕｌｌｅａ２０１,,13,112,1540023,,,,,,,2024-07-30,1,,,,,オッドフューチャー,0
288,2011401026291,新規,0,2024-07-30,2024-07-30,敬美株式会社,,株式会社,東京都,板橋区,徳丸１丁目１７番２号ＸＯ財託第三ビル３０５号室,,13,119,1750083,,,,,,,2024-07-30,1,,,,,ケイビ,0
291,2011503006159,新規,0,2024-07-30,2024-07-30,ねこの手Ｅｓｕｚｕ合同会社,,合同会社,東京都,北区,赤羽１丁目７番９号赤羽第一葉山ビル４Ｆ,,13,117,1150045,,,,,,,2024-07-30,1,,,,,ネコノテエスズ,0
294,2011701027485,新規,0,2024-07-30,2024-07-30,株式会社ブルースター,,株式会社,東京都,江戸川区,中葛西４丁目９番２０－１０２号,,13,123,1340083,,,,,,,2024-07-30,1,,,,,ブルースター,0
295,2011703003922,新規,0,2024-07-30,2024-07-30,東設合同会社,,合同会社,東京都,江戸川区,南小岩２丁目１３番地１０号,,13,123,1330056,,,,,,,2024-07-30,1,,,,,トウセツ,0
296,2011801044604,新規,0,2024-07-30,2024-07-30,株式会社山田,,株式会社,東京都,葛飾区,亀有３丁目２７番２４号エスペランスＹＡＭＡＤＡ１０１,,13,122,1250061,,,,,,,2024-07-30,1,,,,,ヤマダ,0
302,2012401042139,新規,0,2024-07-30,2024-07-30,株式会社イロドリ,,株式会社,東京都,多摩市,永山２丁目１番地の９ザ・パークハウス多摩ニュータウン永山８０８号,,13,224,2060025,,,,,,,2024-07-30,1,,,,,イロドリ,0
304,2012703003053,新規,0,2024-07-30,2024-07-30,合同会社芸心,,合同会社,東京都,小平市,津田町２丁目２－４、３０２室,,13,211,1870025,,,,,,,2024-07-30,1,,,,,ゲイシン,0
319,2021001082825,新規,0,2024-07-30,2024-07-30,株式会社Ｎａｔｕｒｅ　ｔｒｅａｔ,,株式会社,神奈川県,平塚市,真田４丁目２１番１７号,,14,203,2591206,,,,,,,2024-07-30,1,,,,,ネイチャートリート,0
320,2021003014834,新規,0,2024-07-30,2024-07-30,合同会社システムデザイン,,合同会社,神奈川県,相模原市緑区,下九沢５２６番地２３,,14,151,2520134,,,,,,,2024-07-30,1,,,,,システムデザイン,0
323,2030003024792,新規,0,2024-07-30,2024-07-30,合同会社夢探方,,合同会社,埼玉県,鶴ヶ島市,富士見５丁目２２番３号,,11,241,3502201,,,,,,,2024-07-30,1,,,,,ユメタンポウ,0
327,2040001134733,新規,0,2024-07-30,2024-07-30,ＭＥＩ株式会社,,株式会社,千葉県,習志野市,藤崎２丁目９番２０号３０３号室,,12,216,2750017,,,,,,,2024-07-30,1,,,,,メイ,0
328,2050001055144,新規,0,2024-07-30,2024-07-30,株式会社中川ファーム,,株式会社,茨城県,土浦市,真鍋１丁目１６番１１号,,08,203,3000051,,,,,,,2024-07-30,1,,,,,ナカガワファーム,0
330,2070001042017,新規,0,2024-07-30,2024-07-30,株式会社栄和サービス,,株式会社,群馬県,太田市,新島町８２０番地,,10,205,3730819,,,,,,,2024-07-30,1,,,,,エイワサービス,0
331,2070001042033,新規,0,2024-07-30,2024-07-30,株式会社和檜塗,,株式会社,群馬県,伊勢崎市,長沼町４１番地１,,10,204,3720855,,,,,,,2024-07-30,1,,,,,,0
337,2080401027335,新規,0,2024-07-30,2024-07-30,株式会社Ｒｅｌａｔｉｏｎ,,株式会社,静岡県,浜松市中央区,葵東２丁目３番２６号キングスビレッジ１Ｆ,,22,138,4338114,,,,,,,2024-07-30,1,,,,,リレイション,0
338,2080401027343,新規,0,2024-07-30,2024-07-30,株式会社ＳＴＡＹＧＯＬＤ,,株式会社,静岡県,浜松市中央区,篠原町９５０４番地,,22,138,4310201,,,,,,,2024-07-30,1,,,,,ステイゴールド,0
341,2090005007641,新規,0,2024-07-30,2024-07-30,一般社団法人Ｊａｐａｎ　Ｆｏｒｃｉｂｌｅ　Ｅｎｔｒｙ韋駄天,,その他の設立登記法人,山梨県,上野原市,大野２５４２番地２,,19,212,4090123,,,,,,,2024-07-30,1,,,,,ジャパンフォーシブルエントリーイダテン,0
344,2110001038596,新規,0,2024-07-30,2024-07-30,株式会社あおい建築,,株式会社,新潟県,長岡市,藤橋２丁目４６１９番地１,,15,202,9402141,,,,,,,2024-07-30,1,,,,,アオイケンチク,0
353,2120001267194,新規,0,2024-07-30,2024-07-30,株式会社ＴｉｓＭｅ,,株式会社,大阪府,大阪市西区,江戸堀２丁目１番１号江戸堀センタービル９階,,27,106,5500002,,,,,,,2024-07-30,1,,,,,ティスミー,0
354,2120001267211,新規,0,2024-07-30,2024-07-30,株式会社ＫＯＵＫＩＳＨＩＮ,,株式会社,大阪府,大阪市浪速区,難波中３丁目９番３号ＲＥ－０２０－３０５号,,27,111,5560011,,,,,,,2024-07-30,1,,,,,コウキシン,0
355,2120001267293,新規,0,2024-07-30,2024-07-30,株式会社マルゴー,,株式会社,大阪府,大阪市西成区,玉出中１丁目４番１３号,,27,122,5570044,,,,,,,2024-07-30,1,,,,,マルゴー,0
358,2120003027159,新規,0,2024-07-30,2024-07-30,ＭＩＮＡＤＩ　ＩＮＴＥＲＮＡＴＩＯＮＡＬ合同会社,,合同会社,大阪府,大阪市生野区,小路３丁目５－１６－１０７,,27,116,5440002,,,,,,,2024-07-30,1,,,,,ミナディインターナショナル,0
360,2120103005980,新規,0,2024-07-30,2024-07-30,合同会社恵勝,,合同会社,大阪府,岸和田市,今木町１１４－６,,27,202,5960804,,,,,,,2024-07-30,1,,,,,ケイショウ,0
367,2130001077576,新規,0,2024-07-30,2024-07-30,株式会社ＷＩＳＴＥＲＩＡ　ＧＡＴＥ,,株式会社,京都府,京都市上京区,宮垣町９１－１０２,,26,102,6020853,,,,,,,2024-07-30,1,,,,,ウィステリアゲート,0
368,2130001077601,新規,0,2024-07-30,2024-07-30,株式会社Ｆａｓｔ　Ｃｒｅａｔｉｖｅ,,株式会社,京都府,京都市下京区,中堂寺粟田町９３ＫＲＰ４号館,,26,106,6008815,,,,,,,2024-07-30,1,,,,,ファストクリエイティブ,0
370,2130003009742,新規,0,2024-07-30,2024-07-30,みんまね合同会社,,合同会社,京都府,京田辺市,田辺中央３丁目３－９シークビル３階,,26,211,6100334,,,,,,,2024-07-30,1,,,,,ミンマネ,0
372,2140003020888,新規,0,2024-07-30,2024-07-30,重吉商会合同会社,,合同会社,兵庫県,神戸市灘区,鶴甲３丁目１２番４０－２１３号,,28,102,6570011,,,,,,,2024-07-30,1,,,,,シゲヨシショウカイ,0
373,2140003020896,新規,0,2024-07-30,2024-07-30,合同会社平澤裕紀子税務計算センター,,合同会社,兵庫県,神戸市中央区,相生町４丁目３番１号神戸ストークビル,,28,110,6500025,,,,,,,2024-07-30,1,,,,,ヒラサワユキコゼイムケイサンセンター,0
382,2160001026101,新規,0,2024-07-30,2024-07-30,株式会社もののみるめ,,株式会社,滋賀県,大津市,におの浜３丁目４番３９－１１０１号,,25,201,5200801,,,,,,,2024-07-30,1,,,,,モノノミルメ,0
385,2160005011322,新規,0,2024-07-30,2024-07-30,一般社団法人Ｖ　ＣＬＩＮＩＣ,,その他の設立登記法人,滋賀県,草津市,野路１丁目９番１７号,,25,206,5250059,,,,,,,2024-07-30,1,,,,,ブイクリニック,0
386,2170003002082,新規,0,2024-07-30,2024-07-30,合同会社ＭＳＯ,,合同会社,和歌山県,田辺市,下万呂１０６３番地の４,,30,206,6460004,,,,,,,2024-07-30,1,,,,,エムエスオー,0
396,2180001162448,新規,0,2024-07-30,2024-07-30,野澤タイル株式会社,,株式会社,愛知県,一宮市,萩原町朝宮字神ノ木８２０番地１６,,23,203,4910354,,,,,,,2024-07-30,1,,,,,ノザワタイル,0
397,2180001162464,新規,0,2024-07-30,2024-07-30,ＡＩＺＡＷＡ株式会社,,株式会社,愛知県,春日井市,石尾台２丁目９番地２４,,23,206,4870006,,,,,,,2024-07-30,1,,,,,アイザワ,0
398,2180001162489,新規,0,2024-07-30,2024-07-30,株式会社カミハシ,,株式会社,愛知県,名古屋市名東区,高社１丁目９９番地マストスクエア一社１０２号,,23,115,4650095,,,,,,,2024-07-30,1,,,,,カミハシ,0
410,2210003001823,新規,0,2024-07-30,2024-07-30,合同会社ＧｌｕｅＰｏｉｎｔ,,合同会社,福井県,越前市,大虫町６番２号,,18,209,9150885,,,,,,,2024-07-30,1,,,,,グルーポイント,0
417,2240001063549,新規,0,2024-07-30,2024-07-30,株式会社岡野工務店,,株式会社,広島県,広島市安佐北区,可部東３丁目３－５,,34,106,7310222,,,,,,,2024-07-30,1,,,,,オカノコウムテン,0
418,2240001063598,新規,0,2024-07-30,2024-07-30,グッドライフ株式会社,,株式会社,広島県,広島市中区,南竹屋町６番６－６０２号,,34,101,7300049,,,,,,,2024-07-30,1,,,,,グッドライフ,0
419,2240001063607,新規,0,2024-07-30,2024-07-30,株式会社ｎｉｎｅ,,株式会社,広島県,広島市安佐南区,大町東３丁目３１－２４－６,,34,105,7310124,,,,,,,2024-07-30,1,,,,,ナイン,0
420,2250003003543,新規,0,2024-07-30,2024-07-30,シナルワールドインドネシア合同会社,,合同会社,山口県,宇部市,大字上宇部２８４２－１３－１０１号,,35,202,7550091,,,,,,,2024-07-30,1,,,,,シナルワールドインドネシア,0
422,2270001009020,新規,0,2024-07-30,2024-07-30,株式会社薮内農場,,株式会社,鳥取県,岩美郡岩美町,大字高山７９３番地１,,31,302,6810061,,,,,,,2024-07-30,1,,,,,ヤブウチノウジョウ,0
423,2270003001652,新規,0,2024-07-30,2024-07-30,合同会社西ＮＯＮｃｏｍｐａｎｙ,,合同会社,鳥取県,西伯郡伯耆町,吉長３７５番地,,31,390,6894133,,,,,,,2024-07-30,1,,,,,ニシノンカンパニー,0
430,2310001019122,新規,0,2024-07-30,2024-07-30,ＫＩＮＧ’Ｓ　ＡＮＧＥＬ株式会社,,株式会社,長崎県,佐世保市,矢岳町５番３号コーポ井上３０２号,,42,202,8570047,,,,,,,2024-07-30,1,,,,,キングスエンジェル,0
432,2320001020608,新規,0,2024-07-30,2024-07-30,株式会社ＣｏＣｏ,,株式会社,大分県,由布市,湯布院町川上３６０８番地９セイバリーゆふ２０２,,44,213,8795102,,,,,,,2024-07-30,1,,,,,ココ,0
433,2320001020616,新規,0,2024-07-30,2024-07-30,株式会社ＳＴ裕,,株式会社,大分県,大分市,大字角子原１３３８番地の６,,44,201,8700271,,,,,,,2024-07-30,1,,,,,エスティーユウ,0
436,2340001026685,新規,0,2024-07-30,2024-07-30,株式会社ＴＥＮ‐Ｘ,,株式会社,鹿児島県,霧島市,国分中央５丁目１３－２５,,46,218,8994332,,,,,,,2024-07-30,1,,,,,テンエックス,0
442,2350003004713,新規,0,2024-07-30,2024-07-30,合同会社りんどう,,合同会社,宮崎県,宮崎市,大島町南窪８２２番地,,45,201,8800824,,,,,,,2024-07-30,1,,,,,リンドウ,0
446,2360003014182,新規,0,2024-07-30,2024-07-30,合同会社ナイスライフ,,合同会社,沖縄県,那覇市,安謝１丁目１５番１号パークサイド美清１０１,,47,201,9000003,,,,,,,2024-07-30,1,,,,,ナイスライフ,0
449,2390001017688,新規,0,2024-07-30,2024-07-30,株式会社サハンジ,,株式会社,山形県,最上郡真室川町,大字新町２８７－９,,06,364,9995312,,,,,,,2024-07-30,1,,,,,サハンジ,0
454,2430001092330,新規,0,2024-07-30,2024-07-30,南都株式会社,,株式会社,北海道,札幌市北区,新川二条１２丁目１番１７号,,01,102,0010922,,,,,,,2024-07-30,1,,,,,ナント,0
463,2490001010815,新規,0,2024-07-30,2024-07-30,株式会社デフォンテ・デザイン,,株式会社,高知県,高知市,高見町４０８番地,,39,201,7808027,,,,,,,2024-07-30,1,,,,,デフォンテデザイン,0
466,2700150124237,新規,0,2024-07-30,2024-07-30,Ｓｈｅｎｚｈｅｎｓｈｉｈｅｎｇｙｕｎｄｉａｎｚｉｓｈａｎｇｗｕｙｏｕｘｉａｎｇｏｎｇｓｉ,,外国会社等,,,,,,,,８１８，Ｆｌｏｏｒ　８，Ｂｕｉｌｄｉｎｇ　６Ｎｏ．２，Ｒｅｓｅｒｖｏｉｒ　Ｒｏａｄ，Ｎａｎｋｅｎｇ　Ｃｏｍｍｕｎｉｔｙ，Ｂａｎｔｉａｎ　Ｓｔｒｅｅｔ，Ｌｏｎｇｇａｎｇ　ＤｉｓｔｒｉｃｔＳｈｅｎｚｈｅｎ　Ｇｕａｎｇｄｏｎｇ,,,,,,2024-07-30,1,,,,,シエンジエンシーホンインデイエンズーシヤンウーヨウシエンゴンスー,0
487,3010003044437,新規,0,2024-07-30,2024-07-30,合同会社ＯＴＰ　ＴＯＫＹＯ,,合同会社,東京都,文京区,小石川５丁目１番１－２０４号,,13,105,1120002,,,,,,,2024-07-30,1,,,,,オーティーピートウキョウ,0
488,3010003044445,新規,0,2024-07-30,2024-07-30,合同会社ｍａｉｓｏｎｐｒｅｔｚｅｌ,,合同会社,東京都,千代田区,神田須田町１丁目７番８号ＶＯＲＴ秋葉原ＩＶ２Ｆ,00135726,13,101,1010041,,,,,,,2024-07-30,1,,,,,メゾンプレッツェル,0
489,3010003044453,新規,0,2024-07-30,2024-07-30,ジャスパー合同会社,,合同会社,東京都,中央区,日本橋箱崎町１－２ＴＨＥＳＨＯＲＥ日本橋茅場町２Ｆ,,13,102,1030015,,,,,,,2024-07-30,1,,,,,ジャスパー,0
490,3010003044461,新規,0,2024-07-30,2024-07-30,合同会社結匠,,合同会社,東京都,中央区,日本橋馬喰町１丁目１３－６－３Ｆ,,13,102,1030002,,,,,,,2024-07-30,1,,,,,ユイタク,0
494,3010103002393,新規,0,2024-07-30,2024-07-30,合同会社ｔｉｄａ,,合同会社,東京都,八王子市,横山町２４－７平ビル１Ｆ,,13,201,1920081,,,,,,,2024-07-30,1,,,,,ティダ,0
499,3010401184082,新規,0,2024-07-30,2024-07-30,フィヨルドホールディングス株式会社,,株式会社,東京都,港区,麻布十番１丁目１０番３号モンテプラザ麻布７０４号,,13,103,1060045,,,,,,,2024-07-30,1,,,,,フィヨルドホールディングス,0
500,3010401184090,新規,0,2024-07-30,2024-07-30,株式会社ティー・エル・エックス,,株式会社,東京都,港区,西麻布２丁目２３番９号,,13,103,1060031,,,,,,,2024-07-30,1,,,,,ティーエルエックス,0
501,3010403033122,新規,0,2024-07-30,2024-07-30,ＪＭＰ長野佐久合同会社,,合同会社,東京都,港区,芝公園２丁目２番１０号中和ビル３階,,13,103,1050011,,,,,,,2024-07-30,1,,,,,ジェイエムピーナガノサク,0
502,3010403033130,新規,0,2024-07-30,2024-07-30,合同会社ＹＴＳ‐Ｅｎｅｒｇｙ１号,,合同会社,東京都,港区,六本木６丁目１０番１号六本木ヒルズ森タワー１５Ｆ,,13,103,1060032,,,,,,,2024-07-30,1,,,,,ワイティーエスエナジーイチゴウ,0
507,3010605004359,新規,0,2024-07-30,2024-07-30,一般社団法人真武道心拳道,,その他の設立登記法人,東京都,墨田区,太平４丁目６番６－６０１号オリエンタルハイツ,,13,107,1300012,,,,,,,2024-07-30,1,,,,,シンブドウシンケンドウ,0
509,3010701046305,新規,0,2024-07-30,2024-07-30,ひまわり株式会社,,株式会社,東京都,品川区,東品川４丁目１２番８号品川シーサイドイーストタワー１５階,,13,109,1400002,,,,,,,2024-07-30,1,,,,,ヒマワリ,0
514,3010903009241,新規,0,2024-07-30,2024-07-30,合同会社ＴｈｕｎｄｅｒＨｏｕｓｅ,,合同会社,東京都,世田谷区,祖師谷１丁目１７番７号－３,,13,112,1570072,,,,,,,2024-07-30,1,,,,,サンダーハウス,0
522,3011001163229,新規,0,2024-07-30,2024-07-30,株式会社ＣｒｅａｔｉｖｅＧａｉｎ,,株式会社,東京都,渋谷区,渋谷２丁目１９‐１５宮益坂ビルディング６０９,,13,113,1500002,,,,,,,2024-07-30,1,,,,,クリエイティブゲイン,0
523,3011001163682,新規,0,2024-07-30,2024-07-30,株式会社ニジイロ,,株式会社,東京都,目黒区,下目黒１丁目１番１４号,,13,110,1530064,,,,,,,2024-07-30,1,,,,,ニジイロ,0
525,3011003019676,新規,0,2024-07-30,2024-07-30,合同会社大津ビル,,合同会社,東京都,渋谷区,神宮前１丁目５番８号,,13,113,1500001,,,,,,,2024-07-30,1,,,,,オオツビル,0
527,3011101108190,新規,0,2024-07-30,2024-07-30,ノーラン・エステートサービス株式会社,,株式会社,東京都,新宿区,大久保２丁目３番５－８０２号,,13,104,1690072,,,,,,,2024-07-30,1,,,,,ノーランエステートサービス,0
536,3011701027492,新規,0,2024-07-30,2024-07-30,株式会社涼夏,,株式会社,東京都,江戸川区,本一色２丁目２７－１,,13,123,1330044,,,,,,,2024-07-30,1,,,,,スズカ,0
541,3011801044594,新規,0,2024-07-30,2024-07-30,清之禾株式会社,,株式会社,東京都,足立区,新田３丁目３７－１１－９２０,,13,121,1230865,,,,,,,2024-07-30,1,,,,,セイノカ,0
542,3011801044603,新規,0,2024-07-30,2024-07-30,株式会社ＹＫコーポレーション,,株式会社,東京都,足立区,綾瀬２丁目２２番１５号サンクタス綾瀬８０２,,13,121,1200005,,,,,,,2024-07-30,1,,,,,ワイケーコーポレーション,0
543,3011803006361,新規,0,2024-07-30,2024-07-30,エナジーストレージ・インベストメント合同会社,,合同会社,東京都,足立区,一ツ家２丁目２０番４号ＦＩＯＲＥ六町１０１,,13,121,1210075,,,,,,,2024-07-30,1,,,,,エナジーストレージインベストメント,0
545,3012405005025,新規,0,2024-07-30,2024-07-30,一般社団法人リエゾンちょうふ,,その他の設立登記法人,東京都,調布市,多摩川２丁目２６番地１－５０３号,,13,208,1820025,,,,,,,2024-07-30,1,,,,,リエゾンチョウフ,0
547,3012801023365,新規,0,2024-07-30,2024-07-30,よつば不動産株式会社,,株式会社,東京都,立川市,羽衣町２丁目６番４号ラークヒルマンション１０１号,,13,202,1900021,,,,,,,2024-07-30,1,,,,,ヨツバフドウサン,0
564,3030001161595,新規,0,2024-07-30,2024-07-30,株式会社ＵＳＲＩＳＥ,,株式会社,埼玉県,川口市,川口１丁目２番２７－２０５号,,11,203,3320015,,,,,,,2024-07-30,1,,,,,アスライズ,0
565,3030001161612,新規,0,2024-07-30,2024-07-30,株式会社Ｔ‐ＳＨＩＢＡＳＡＫＩ管理,,株式会社,埼玉県,川口市,金山町９番２５号,,11,203,3320014,,,,,,,2024-07-30,1,,,,,ティーシバサキカンリ,0
566,3030001161620,新規,0,2024-07-30,2024-07-30,株式会社マーヴェラスマッチングカンパニー,,株式会社,埼玉県,さいたま市北区,宮原町１丁目２７０番地１－５０６,,11,102,3310812,,,,,,,2024-07-30,1,,,,,マーヴェラスマッチングカンパニー,0
567,3030001161629,新規,0,2024-07-30,2024-07-30,株式会社Ｎｉｍｙ,,株式会社,埼玉県,川口市,大字安行慈林９３８番地の１４,,11,203,3340071,,,,,,,2024-07-30,1,,,,,ニミィ,0
573,3040001134708,新規,0,2024-07-30,2024-07-30,株式会社ＴＡＡＮ,,株式会社,千葉県,千葉市稲毛区,長沼町９４番地３,,12,103,2630005,,,,,,,2024-07-30,1,,,,,ターン,0
586,3060001037347,新規,0,2024-07-30,2024-07-30,株式会社Ｐｏｎｏ,,株式会社,栃木県,栃木市,岩舟町和泉９８３番地３,,09,203,3294303,,,,,,,2024-07-30,1,,,,,ポノ,0
591,3070001042024,新規,0,2024-07-30,2024-07-30,株式会社ＹＴ　Ｃｏｎｎｅｃｔ,,株式会社,群馬県,高崎市,飯塚町１７４９番地２６ＩｚＬｏｃａｔｉｏｎ２Ｆ,,10,202,3700069,,,,,,,2024-07-30,1,,,,,ワイティコネクト,0
597,3080101024920,新規,0,2024-07-30,2024-07-30,ナチュラルナイン株式会社,,株式会社,静岡県,沼津市,我入道浜町３５２番地の３,,22,203,4100823,,,,,,,2024-07-30,1,,,,,ナチュラルナイン,0
598,3080103003105,新規,0,2024-07-30,2024-07-30,Ｓｏ‐Ｚｅｅ合同会社,,合同会社,静岡県,富士宮市,山本１２５－７,,22,207,4180023,,,,,,,2024-07-30,1,,,,,ソージー,0
601,3100001037648,新規,0,2024-07-30,2024-07-30,互恵株式会社,,株式会社,長野県,長野市,大字東和田８５７番地１,,20,201,3810038,,,,,,,2024-07-30,1,,,,,ゴケイ,0
602,3110001038595,新規,0,2024-07-30,2024-07-30,ｔｏｃｏｔｏｃｏ株式会社,,株式会社,新潟県,新潟市西蒲区,赤鏥９９８番地１,,15,108,9530042,,,,,,,2024-07-30,1,,,,,トコトコ,0
609,3120001267004,新規,0,2024-07-30,2024-07-30,ＤＰ　ＪＡＰＡＮ株式会社,,株式会社,大阪府,大阪市西成区,長橋３丁目６番１９新力荘１０１号室,,27,122,5570025,,,,,,,2024-07-30,1,,,,,ディーピージャパン,0
610,3120001267227,新規,0,2024-07-30,2024-07-30,株式会社茉侑,,株式会社,大阪府,大阪市北区,西天満２丁目８番５号西天満大治ビル５階Ｂ,,27,127,5300047,,,,,,,2024-07-30,1,,,,,マユ,0
611,3120001267251,新規,0,2024-07-30,2024-07-30,精麻傳株式会社,,株式会社,大阪府,大阪市中央区,高麗橋１丁目７番７号ＴｈｅＫｉｔａｈａｍａ１３１３号室,,27,128,5410043,,,,,,,2024-07-30,1,,,,,セイマデン,0
616,3120101070043,新規,0,2024-07-30,2024-07-30,ファーストペンギン株式会社,,株式会社,大阪府,泉佐野市,中町４丁目２番３６号,,27,213,5980013,,,,,,,2024-07-30,1,,,,,ファーストペンギン,0
618,3120905006639,新規,0,2024-07-30,2024-07-30,一般社団法人ペルル,,その他の設立登記法人,大阪府,茨木市,三島丘２丁目２１番３号ペルル三島丘２Ｆ,,27,211,5670021,,,,,,,2024-07-30,1,,,,,ペルル,0
620,3130001077559,新規,0,2024-07-30,2024-07-30,富星株式会社,,株式会社,京都府,京都市伏見区,竹田七瀬川町５２番地４－１０４号室,,26,109,6128422,,,,,,,2024-07-30,1,,,,,トミホシ,0
622,3130003009741,新規,0,2024-07-30,2024-07-30,合同会社マイクロディベロップメンツ京都,,合同会社,京都府,京都市下京区,突抜２丁目３５７番地,,26,106,6008364,,,,,,,2024-07-30,1,,,,,マイクロディベロップメンツキョウト,0
627,3140001135308,新規,0,2024-07-30,2024-07-30,株式会社エムコネクト,,株式会社,兵庫県,尼崎市,常松１丁目３番５号５４５号,,28,202,6610046,,,,,,,2024-07-30,1,,,,,エムコネクト,0
630,3140003020895,新規,0,2024-07-30,2024-07-30,合同会社やまねこ,,合同会社,兵庫県,神戸市須磨区,道正台１丁目３－６－６０７,,28,107,6540122,,,,,,,2024-07-30,1,,,,,ヤマネコ,0
633,3150001027454,新規,0,2024-07-30,2024-07-30,Ｍｅｄｉｐｈａｐｏｒｔ株式会社,,株式会社,奈良県,奈良市,鳥見町２丁目１１番地の１０,,29,201,6310065,,,,,,,2024-07-30,1,,,,,メディファポート,0
636,3180001162496,新規,0,2024-07-30,2024-07-30,株式会社コージートータルビューティー,,株式会社,愛知県,海部郡蟹江町,桜２丁目６５番地ＦｅｌｉｃｅＧａｒｄｅｎ１０１号,,23,425,4970038,,,,,,,2024-07-30,1,,,,,コージートータルビューティー,0
639,3180005020709,新規,0,2024-07-30,2024-07-30,特定非営利活動法人こねくと,,その他の設立登記法人,愛知県,名古屋市守山区,大森北２丁目１０１番地,,23,113,4630802,,,,,,,2024-07-30,1,,,,,コネクト,0
644,3180301038891,新規,0,2024-07-30,2024-07-30,株式会社六所堂,,株式会社,愛知県,豊田市,坂上町深山口２番地５,,23,211,4442201,,,,,,,2024-07-30,1,,,,,ロクショドウ,0
647,3190001031527,新規,0,2024-07-30,2024-07-30,株式会社シロタ工務店,,株式会社,三重県,津市,白塚町３３２３番地１３,,24,201,5140101,,,,,,,2024-07-30,1,,,,,シロタコウムテン,0
653,3200003006442,新規,0,2024-07-30,2024-07-30,合同会社西濃フード,,合同会社,岐阜県,養老郡養老町,三神町９３９番地,,21,341,5031312,,,,,,,2024-07-30,1,,,,,セイノウフード,0
655,3230001020459,新規,0,2024-07-30,2024-07-30,株式会社Ｓａｔｓｕｋｉ,,株式会社,富山県,富山市,磯部町３丁目６番８号,,16,201,9300077,,,,,,,2024-07-30,1,,,,,サツキ,0
657,3260001039307,新規,0,2024-07-30,2024-07-30,株式会社ＡＲＲＯＷコーポレーション,,株式会社,岡山県,岡山市南区,西市１１６－６,,33,104,7000953,,,,,,,2024-07-30,1,,,,,アローコーポレーション,0
659,3260003004829,新規,0,2024-07-30,2024-07-30,ＡｃｈｔＫｒｅｉｓ合同会社,,合同会社,岡山県,岡山市南区,藤田６５５番地４３,,33,104,7010221,,,,,,,2024-07-30,1,,,,,アハトクライス,0
664,3290001106590,新規,0,2024-07-30,2024-07-30,株式会社Ｔｒｙ　Ｆｏｒｃｅ,,株式会社,福岡県,福岡市博多区,比恵町７番２０号カーサスパジオ５０２,,40,132,8120014,,,,,,,2024-07-30,1,,,,,トライフォース,0
672,3330001032287,新規,0,2024-07-30,2024-07-30,ＫＦＬ株式会社,,株式会社,熊本県,熊本市中央区,水前寺公園７番４３号３Ｆ,,43,101,8620956,,,,,,,2024-07-30,1,,,,,ケイエフエル,0
674,3360001034000,新規,0,2024-07-30,2024-07-30,コネクトＨｏｍｅ’ｓ株式会社,,株式会社,沖縄県,うるま市,安慶名３丁目１４番１８号、１Ｆ,,47,213,9042214,,,,,,,2024-07-30,1,,,,,コネクトホームズ,0
679,3370001051556,新規,0,2024-07-30,2024-07-30,株式会社１０ＳＡ環境,,株式会社,宮城県,仙台市泉区,実沢字涌上り道合４番地の５,,04,105,9813217,,,,,,,2024-07-30,1,,,,,トーエイスカンキョウ,0
688,3430003016609,新規,0,2024-07-30,2024-07-30,ＮＣＯ合同会社,,合同会社,北海道,札幌市中央区,宮の森一条１０丁目３番４８－１０５号,,01,101,0640951,,,,,,,2024-07-30,1,,,,,エヌシーオー,0
689,3430003016617,新規,0,2024-07-30,2024-07-30,合同会社美湖,,合同会社,北海道,札幌市中央区,南七条西８丁目１０３２番地３南７西８ビル１０１棟３０２号,,01,101,0640807,,,,,,,2024-07-30,1,,,,,ミコ,0
697,3500005008720,新規,0,2024-07-30,2024-07-30,特定非営利活動法人終活と相続のひろば,,その他の設立登記法人,愛媛県,松山市,宮田町１８８番地８グランディア宮田２階１０号,,38,201,7900066,,,,,,,2024-07-30,1,,,,,シュウカツトソウゾクノヒロバ,0
706,4010001247016,新規,0,2024-07-30,2024-07-30,株式会社Ｉ＆ＢＳｏｌｕｔｉｏｎｓ,,株式会社,東京都,中央区,銀座１丁目１２番地４号Ｎ＆ＥＢＬＤ．７階,,13,102,1040061,,,,,,,2024-07-30,1,,,,,アイアンドビイソリューションズ,0
710,4010003044337,新規,0,2024-07-30,2024-07-30,サンライズ２合同会社,,合同会社,東京都,中央区,日本橋１丁目４番１号,,13,102,1030027,,,,,,,2024-07-30,1,,,,,サンライズツー,0
711,4010003044428,新規,0,2024-07-30,2024-07-30,合同会社ＲＥＤ,,合同会社,東京都,中央区,日本橋本町３丁目７－９日本橋ＭＯビル２階,,13,102,1030023,,,,,,,2024-07-30,1,,,,,レッド,0
712,4010003044444,新規,0,2024-07-30,2024-07-30,合同会社ＯＫＵＹＵＫＡＳＨＩ,,合同会社,東京都,中央区,日本橋兜町１７番２号兜町第６葉山ビル４階,,13,102,1030026,,,,,,,2024-07-30,1,,,,,オクユカシ,0
713,4010003044460,新規,0,2024-07-30,2024-07-30,合同会社ウルノワ,,合同会社,東京都,中央区,銀座１丁目１２番４号Ｎ＆ＥＢＬＤ．６Ｆ,,13,102,1040061,,,,,,,2024-07-30,1,,,,,ウルノワ,0
714,4010101016254,新規,0,2024-07-30,2024-07-30,株式会社ＯＦＦＩＣＥ　ＫＡＥＮＡ,,株式会社,東京都,八王子市,別所２丁目９－４－１０４,,13,201,1920363,,,,,,,2024-07-30,1,,,,,,0
716,4010401184073,新規,0,2024-07-30,2024-07-30,セレス・テクノロジー株式会社,,株式会社,東京都,港区,浜松町１丁目２７－８－３Ｆ,,13,103,1050013,,,,,,,2024-07-30,1,,,,,セレステクノロジー,0
718,4010403033138,新規,0,2024-07-30,2024-07-30,奥津会計Ａ合同会社,,合同会社,東京都,港区,西新橋２丁目１８番１号,,13,103,1050003,,,,,,,2024-07-30,1,,,,,オクツカイケイエー,0
719,4010405023293,新規,0,2024-07-30,2024-07-30,一般社団法人ＨＣＣ,,その他の設立登記法人,東京都,港区,六本木７丁目１３－２,,13,103,1060032,,,,,,,2024-07-30,1,,,,,エイチシーシー,0
722,4010501052683,新規,0,2024-07-30,2024-07-30,藝行者株式会社,,株式会社,東京都,台東区,浅草３丁目２９番３号,,13,106,1110032,,,,,,,2024-07-30,1,,,,,ゲイコウシャ,0
723,4010603010993,新規,0,2024-07-30,2024-07-30,合同会社ジャスミン,,合同会社,東京都,江東区,豊洲５丁目１－１３－１８１９,,13,108,1350061,,,,,,,2024-07-30,1,,,,,ジャスミン,0
729,4010805003119,新規,0,2024-07-30,2024-07-30,一般財団法人みかんせい小学校設立準備財団,,その他の設立登記法人,東京都,大田区,蒲田４丁目１６番８－５０５号,,13,111,1440052,,,,,,,2024-07-30,1,,,,,ミカンセイショウガッコウセツリツジュンビザイダン,0
735,4011001163681,新規,0,2024-07-30,2024-07-30,株式会社ＡＩｗｏｒｋｅｒ,,株式会社,東京都,渋谷区,神宮前３丁目５番２３号神宮前めぞぴあのＫ＆Ａ３０３,,13,113,1500001,,,,,,,2024-07-30,1,,,,,エーアイワーカー,0
736,4011001163748,新規,0,2024-07-30,2024-07-30,株式会社テンメイ,,株式会社,東京都,目黒区,碑文谷６丁目８番１４号,,13,110,1520003,,,,,,,2024-07-30,1,,,,,テンメイ,0
739,4011101108181,新規,0,2024-07-30,2024-07-30,株式会社文美会計サービス,,株式会社,東京都,新宿区,西新宿７丁目２２番３７号ストーク西新宿３０１,,13,104,1600023,,,,,,,2024-07-30,1,,,,,フミカイケイサービス,0
740,4011303005243,新規,0,2024-07-30,2024-07-30,Ｈｕｍｏｎｇｏｕｓ合同会社,,合同会社,東京都,杉並区,方南１丁目８番５号１階,,13,115,1680062,,,,,,,2024-07-30,1,,,,,ヒューモンガス,0
751,4011801044602,新規,0,2024-07-30,2024-07-30,株式会社ステラリンク,,株式会社,東京都,葛飾区,柴又５丁目４２－６,,13,122,1250052,,,,,,,2024-07-30,1,,,,,ステラリンク,0
755,4012401042129,新規,0,2024-07-30,2024-07-30,プラントエンジニアリング株式会社,,株式会社,東京都,府中市,栄町３丁目１４番地の５,,13,206,1830051,,,,,,,2024-07-30,1,,,,,プラントエンジニアリング,0
756,4012403006684,新規,0,2024-07-30,2024-07-30,合同会社ナレッジフロー,,合同会社,東京都,三鷹市,下連雀３丁目３３番２０号,,13,204,1810013,,,,,,,2024-07-30,1,,,,,ナレッジフロー,0
766,4020003026549,新規,0,2024-07-30,2024-07-30,ストーフジャパン合同会社,,合同会社,神奈川県,横浜市青葉区,たちばな台１丁目１５－３０,,14,117,2270046,,,,,,,2024-07-30,1,,,,,ストーフジャパン,0
769,4021001082823,新規,0,2024-07-30,2024-07-30,株式会社ピースアイランド,,株式会社,神奈川県,高座郡寒川町,一之宮４丁目２２番３２号,,14,321,2530111,,,,,,,2024-07-30,1,,,,,ピースアイランド,0
770,4021001082831,新規,0,2024-07-30,2024-07-30,株式会社丸一商事,,株式会社,神奈川県,足柄下郡湯河原町,宮上７７３番地の３３０,,14,384,2590314,,,,,,,2024-07-30,1,,,,,マルイチショウジ,0
771,4021003014824,新規,0,2024-07-30,2024-07-30,ＷＨＯＬＥ　ＬＩＦＥ合同会社,,合同会社,神奈川県,藤沢市,亀井野３３１０－１－３０７,,14,205,2520813,,,,,,,2024-07-30,1,,,,,ホールライフ,0
791,4040001134731,新規,0,2024-07-30,2024-07-30,株式会社ＭＩＴＡＳＨＩ,,株式会社,千葉県,千葉市若葉区,高品町１５８９－６－４０９,,12,104,2640024,,,,,,,2024-07-30,1,,,,,ミタシ,0
797,4050001055150,新規,0,2024-07-30,2024-07-30,株式会社月居温泉,,株式会社,茨城県,久慈郡大子町,大字小生瀬２８７９番地４,,08,364,3193512,,,,,,,2024-07-30,1,,,,,ツキオリオンセン,0
800,4070001042023,新規,0,2024-07-30,2024-07-30,株式会社ＫＯＧ,,株式会社,群馬県,高崎市,下小塙町１５５９－２１,,10,202,3700076,,,,,,,2024-07-30,1,,,,,コグ,0
806,4080401027341,新規,0,2024-07-30,2024-07-30,株式会社いちぐうテラス,,株式会社,静岡県,浜松市中央区,佐鳴台６丁目２番１８号,,22,138,4328021,,,,,,,2024-07-30,1,,,,,イチグウテラス,0
810,4100001037647,新規,0,2024-07-30,2024-07-30,株式会社ＢＪホールディングス,,株式会社,長野県,長野市,桜新町８０１番地７,,20,201,3810013,,,,,,,2024-07-30,1,,,,,ビージェイホールディングス,0
811,4100001037688,新規,0,2024-07-30,2024-07-30,株式会社ＡＬＩ　ＪＡＰＡＮＩ　ＴＲＡＤＩＮＧ,,株式会社,長野県,安曇野市,穂高北穂高２２１８番地１,,20,220,3998302,,,,,,,2024-07-30,1,,,,,アリジャパニトレーディング,0
815,4110005017116,新規,0,2024-07-30,2024-07-30,特定非営利活動法人とかげらいふ,,その他の設立登記法人,新潟県,村上市,藤沢７８番地１,,15,212,9593131,,,,,,,2024-07-30,1,,,,,トカゲライフ,0
822,4120001267151,新規,0,2024-07-30,2024-07-30,株式会社グリーンパーク,,株式会社,大阪府,大阪市西淀川区,中島２丁目１２番９６号,,27,113,5550041,,,,,,,2024-07-30,1,,,,,グリーンパーク,0
823,4120001267242,新規,0,2024-07-30,2024-07-30,株式会社ＳｅｅＤｅｖｉｃｅ　Ｊａｐａｎ,,株式会社,大阪府,大阪市淀川区,西中島７丁目１番２６号,,27,123,5320011,,,,,,,2024-07-30,1,,,,,シーデバイスジャパン,0
827,4120003027157,新規,0,2024-07-30,2024-07-30,Ｇｒｅｅｎ　Ｒｏｃｋ森林資源調査合同会社,,合同会社,大阪府,大阪市福島区,福島１丁目２番４号,,27,103,5530003,,,,,,,2024-07-30,1,,,,,グリーンロックシンリンシゲンチョウサ,0
829,4120103005946,新規,0,2024-07-30,2024-07-30,合同会社オン・ザ・ロード,,合同会社,大阪府,河内長野市,向野町６９１番地の３,,27,216,5860013,,,,,,,2024-07-30,1,,,,,オンザロード,0
831,4120901049517,新規,0,2024-07-30,2024-07-30,株式会社リベルＤＣ,,株式会社,大阪府,茨木市,西福井３丁目３０－３０,,27,211,5670067,,,,,,,2024-07-30,1,,,,,リベルディーシー,0
836,4130001077566,新規,0,2024-07-30,2024-07-30,株式会社Ｌｉｆｅ　Ｇａｒｄｅｎ,,株式会社,京都府,福知山市,和久市町３３４番地コンフォールビル１階,,26,201,6200062,,,,,,,2024-07-30,1,,,,,ライフガーデン,0
838,4130003009740,新規,0,2024-07-30,2024-07-30,合同会社ｉｌｌ　ｃｈａ　ｉｌｌ,,合同会社,京都府,綴喜郡井手町,大字井手小字野神７番地の２,,26,343,6100302,,,,,,,2024-07-30,1,,,,,イルチャイル,0
839,4130005017147,新規,0,2024-07-30,2024-07-30,司法書士法人日高事務所,,その他の設立登記法人,京都府,京都市下京区,楊梅通新町東入上柳町２２５番地５ランドマークシティ京都烏丸五条７０３号,,26,106,6008301,,,,,,,2024-07-30,1,,,,,ヒダカジムショ,0
842,4140005027161,新規,0,2024-07-30,2024-07-30,一般社団法人Ｏ’ｃｌｏｃｋ,,その他の設立登記法人,兵庫県,神戸市中央区,楠町５丁目４番２３号２０２号室,,28,110,6500017,,,,,,,2024-07-30,1,,,,,オクロック,0
844,4150001027453,新規,0,2024-07-30,2024-07-30,Ｍ’ｓ　Ｃｏｍｐａｎｙ株式会社,,株式会社,奈良県,奈良市,中登美ヶ丘６丁目９番１－３２３号,,29,201,6310003,,,,,,,2024-07-30,1,,,,,エムズカンパニー,0
846,4170001018236,新規,0,2024-07-30,2024-07-30,株式会社ＴＲＡｖｉｓ,,株式会社,和歌山県,和歌山市,木ノ本２１１番地１,,30,201,6408453,,,,,,,2024-07-30,1,,,,,トラヴィス,0
855,4180001162462,新規,0,2024-07-30,2024-07-30,森川株式会社,,株式会社,愛知県,名古屋市中区,新栄２丁目２４番４号利信ビル３１５号室,,23,106,4600007,,,,,,,2024-07-30,1,,,,,モリカワ,0
856,4180001162537,新規,0,2024-07-30,2024-07-30,株式会社与和’ｓ,,株式会社,愛知県,名古屋市西区,名駅１丁目１番１７号名駅ダイヤメイテツビル１１Ｆ,,23,104,4510045,,,,,,,2024-07-30,1,,,,,ヨワーズ,0
861,4180003027110,新規,0,2024-07-30,2024-07-30,合同会社ＩＳＨＩＫＡＷＡ,,合同会社,愛知県,一宮市,大和町馬引字古宮４５番地２０,,23,203,4910931,,,,,,,2024-07-30,1,,,,,イシカワ,0
875,4180301038890,新規,0,2024-07-30,2024-07-30,株式会社響,,株式会社,愛知県,豊川市,御津町西方松本２番地５,,23,207,4410312,,,,,,,2024-07-30,1,,,,,ヒビキ,0
879,4220005008871,新規,0,2024-07-30,2024-07-30,特定非営利活動法人なかのとから,,その他の設立登記法人,石川県,鹿島郡中能登町,能登部上ヲ部１２４番地,,17,407,9291602,,,,,,,2024-07-30,1,,,,,ナカノトカラ,0
880,4230001020458,新規,0,2024-07-30,2024-07-30,ＡＭＣＨ　ＢＯＵＮＣＹ株式会社,,株式会社,富山県,富山市,黒瀬北町１丁目４番地９,,16,201,9398216,,,,,,,2024-07-30,1,,,,,エイエムシーエイチバウンシー,0
883,4260001039314,新規,0,2024-07-30,2024-07-30,株式会社エムクリエイト,,株式会社,岡山県,美作市,土居３２７番地,,33,215,7094244,,,,,,,2024-07-30,1,,,,,エムクリエイト,0
887,4280003001872,新規,0,2024-07-30,2024-07-30,合同会社Ｄｏｕｂｌｅ　Ｗｉｎｇｓ,,合同会社,島根県,松江市,国屋町４２８番地２グランピアーノ１０１号,,32,201,6900859,,,,,,,2024-07-30,1,,,,,ダブルウィングス,0
898,4310001019129,新規,0,2024-07-30,2024-07-30,株式会社Ｈ．Ａ．ＣＣ,,株式会社,長崎県,諫早市,西郷町９２４番地６９ピコラカーサ１０２号,,42,204,8540044,,,,,,,2024-07-30,1,,,,,ハック,0
905,4340001026675,新規,0,2024-07-30,2024-07-30,株式会社浜田商店,,株式会社,鹿児島県,いちき串木野市,長崎町９５番地,,46,219,8960033,,,,,,,2024-07-30,1,,,,,ハマダショウテン,0
906,4340001026683,新規,0,2024-07-30,2024-07-30,株式会社米之津宇佐商会,,株式会社,鹿児島県,出水市,明神町１７４２番地,,46,208,8990131,,,,,,,2024-07-30,1,,,,,コメノツウサショウカイ,0
918,4390005009077,新規,0,2024-07-30,2024-07-30,特定非営利活動法人ヤマガタ未来塾,,その他の設立登記法人,山形県,東田川郡庄内町,余目字町１１７番地,,06,428,9997781,,,,,,,2024-07-30,1,,,,,,0
922,4430001092329,新規,0,2024-07-30,2024-07-30,株式会社ブラウニー,,株式会社,北海道,札幌市中央区,南五条西３丁目２番地,,01,101,0640805,,,,,,,2024-07-30,1,,,,,ブラウニー,0
924,4430003016608,新規,0,2024-07-30,2024-07-30,合同会社ＰＲＥＳＴＩＧＥ,,合同会社,北海道,苫小牧市,拓勇西町２丁目１１－２４,,01,213,0591302,,,,,,,2024-07-30,1,,,,,プレステージ,0
928,4470001020310,新規,0,2024-07-30,2024-07-30,株式会社ムラカミグループ,,株式会社,香川県,高松市,新田町甲２９７番地１,,37,201,7610102,,,,,,,2024-07-30,1,,,,,ムラカミグループ,0
937,4500003003292,新規,0,2024-07-30,2024-07-30,合同会社Ｗｈｉｔｅ　Ｒｏｓｅ,,合同会社,愛媛県,松山市,鷹子町７６９番地６,,38,201,7900925,,,,,,,2024-07-30,1,,,,,ホワイトローズ,0
946,5010001246958,新規,0,2024-07-30,2024-07-30,東京佳澤株式会社,,株式会社,東京都,千代田区,神田神保町２丁目３４番１鳴海ビル２２０号,,13,101,1010051,,,,,,,2024-07-30,1,,,,,トウキョウケイサワ,0
948,5010003044443,新規,0,2024-07-30,2024-07-30,合同会社インサイトプラス,,合同会社,東京都,中央区,銀座１丁目２２番１１号銀座大竹ビジデンス２Ｆ,,13,102,1040061,,,,,,,2024-07-30,1,,,,,インサイトプラス,0
949,5010101016261,新規,0,2024-07-30,2024-07-30,株式会社Ｈｉ‐Ｔｏサービス,,株式会社,東京都,八王子市,諏訪町３０７番地１,,13,201,1930812,,,,,,,2024-07-30,1,,,,,ヒトサービス,0
960,5010401184080,新規,0,2024-07-30,2024-07-30,株式会社ＤＦＡ,,株式会社,東京都,港区,南青山２丁目１１番６号モダンテラス南青山３０１,,13,103,1070062,,,,,,,2024-07-30,1,,,,,ディーエフエー,0
964,5010403033095,新規,0,2024-07-30,2024-07-30,合同会社ＴＳＭ１６４,,合同会社,東京都,港区,元赤坂１丁目１番７号,,13,103,1070051,,,,,,,2024-07-30,1,,,,,ティーエスエムヒャクロクジュウヨン,0
965,5010403033120,新規,0,2024-07-30,2024-07-30,ネットプライス事業再生合同会社,,合同会社,東京都,港区,新橋２丁目１６番１号ニュー新橋ビル９階,,13,103,1050004,,,,,,,2024-07-30,1,,,,,,0
966,5010405023441,新規,0,2024-07-30,2024-07-30,一般社団法人ＰＪ‐１,,その他の設立登記法人,東京都,港区,六本木６丁目１０番１号六本木ヒルズ森タワー１５Ｆ,,13,103,1060032,,,,,,,2024-07-30,1,,,,,ピージェイワン,0
970,5010601065634,新規,0,2024-07-30,2024-07-30,株式会社エデ・プロヴェルヴ,,株式会社,東京都,江東区,大島８丁目２２番１３号,,13,108,1360072,,,,,,,2024-07-30,1,,,,,エデプロヴェルヴ,0
984,5011001163648,新規,0,2024-07-30,2024-07-30,株式会社ＩＢＴ,,株式会社,東京都,目黒区,中央町１丁目４番７－４０２号,,13,110,1520001,,,,,,,2024-07-30,1,,,,,アイビーティー,0
985,5011001163680,新規,0,2024-07-30,2024-07-30,株式会社ＦＡＲＳＯＵＴＨ,,株式会社,東京都,渋谷区,恵比寿１丁目２２－１６ＢｒｅｚｚａＥｂｉｓｕ２０１,,13,113,1500013,,,,,,,2024-07-30,1,,,,,ファーサウス,0
987,5011003019666,新規,0,2024-07-30,2024-07-30,合同会社上原酒店,,合同会社,東京都,目黒区,下目黒２丁目１８番６号,,13,110,1530064,,,,,,,2024-07-30,1,,,,,ウエハラサケテン,0
988,5011005010607,新規,0,2024-07-30,2024-07-30,一般社団法人メディックス,,その他の設立登記法人,東京都,渋谷区,恵比寿西１丁目７番４号,,13,113,1500021,,,,,,,2024-07-30,1,,,,,メディックス,0
989,5011101108206,新規,0,2024-07-30,2024-07-30,ビズイージージャパン株式会社,,株式会社,東京都,新宿区,西新宿３丁目３番１３号西新宿水間ビル６階,,13,104,1600023,,,,,,,2024-07-30,1,,,,,ビズイージージャパン,0
991,5011103014724,新規,0,2024-07-30,2024-07-30,合同会社Ｔｒｅｅｈｏｕｓｅ　Ｓｔｕｄｉｏ,,合同会社,東京都,新宿区,西新宿３丁目３番１３号西新宿水間ビル６階,,13,104,1600023,,,,,,,2024-07-30,1,,,,,トゥリーハウススタジオ,0
992,5011105011109,新規,0,2024-07-30,2024-07-30,特定非営利活動法人ミンイー,,その他の設立登記法人,東京都,新宿区,大京町２番４号ＴｈｅＲｏｏｍ四谷大京町１０１号,,13,104,1600015,,,,,,,2024-07-30,1,,,,,ミンイー,0
1003,5012401042128,新規,0,2024-07-30,2024-07-30,ＭＡＣＣＩＲＯ株式会社,,株式会社,東京都,多摩市,豊ヶ丘３丁目１番地３号棟４０３号室,,13,224,2060031,,,,,,,2024-07-30,1,,,,,マッシーロ,0
1005,5012403006683,新規,0,2024-07-30,2024-07-30,東参道城山倶楽部合同会社,,合同会社,東京都,調布市,深大寺元町２丁目３８番地７,,13,208,1820017,,,,,,,2024-07-30,1,,,,,ヒガシサンドウシロヤマクラブ,0
1015,5021003014831,新規,0,2024-07-30,2024-07-30,合同会社おかげさま,,合同会社,神奈川県,大和市,中央林間１丁目１３番１９号,,14,213,2420007,,,,,,,2024-07-30,1,,,,,オカゲサマ,0
1020,5030003024807,新規,0,2024-07-30,2024-07-30,ＢＭ　ＴＲＡＤＩＮＧ合同会社,,合同会社,埼玉県,川口市,戸塚３丁目３０番１７号フラワーハイムキキョウ５０８号,,11,203,3330811,,,,,,,2024-07-30,1,,,,,ビーエムトレーディング,0
1022,5040001134680,新規,0,2024-07-30,2024-07-30,ＲＡＫＵ株式会社,,株式会社,千葉県,松戸市,小金３０１番地の１グランスイート北小金６０６号,,12,207,2700014,,,,,,,2024-07-30,1,,,,,ラク,0
1036,5070001042030,新規,0,2024-07-30,2024-07-30,株式会社堀口商店,,株式会社,群馬県,甘楽郡下仁田町,大字下仁田４１３番地８,,10,382,3702601,,,,,,,2024-07-30,1,,,,,ホリグチショウテン,0
1038,5070003005522,新規,0,2024-07-30,2024-07-30,合同会社Ｖｅｓｔａ,,合同会社,群馬県,前橋市,朝日町３丁目２９番４号,,10,201,3710014,,,,,,,2024-07-30,1,,,,,ヴェスタ,0
1041,5080001026404,新規,0,2024-07-30,2024-07-30,株式会社Ｋ．ＴＥＣＳ,,株式会社,静岡県,静岡市清水区,中河内９１３番地,,22,103,4240401,,,,,,,2024-07-30,1,,,,,ケイテックス,0
1044,5080101024852,新規,0,2024-07-30,2024-07-30,株式会社ＶＡＲＩＳＴＡ,,株式会社,静岡県,富士市,中丸５１１―１グランドソレイユ１０１,,22,210,4160933,,,,,,,2024-07-30,1,,,,,バリスタ,0
1045,5080101024919,新規,0,2024-07-30,2024-07-30,株式会社シーズ・エンジニアリング,,株式会社,静岡県,田方郡函南町,間宮６８番地,,22,325,4190123,,,,,,,2024-07-30,1,,,,,シーズエンジニアリング,0
1048,5080401027332,新規,0,2024-07-30,2024-07-30,株式会社２ＰＥＡＣＥ,,株式会社,静岡県,浜松市中央区,大蒲町８５番地の８,,22,138,4350014,,,,,,,2024-07-30,1,,,,,ツーピース,0
1049,5080401027340,新規,0,2024-07-30,2024-07-30,可美建築株式会社,,株式会社,静岡県,浜松市中央区,高塚町４４９０番地の５,,22,138,4328065,,,,,,,2024-07-30,1,,,,,カミケンチク,0
1050,5080405007652,新規,0,2024-07-30,2024-07-30,一般社団法人このため,,その他の設立登記法人,静岡県,菊川市,下平川１３１３番地の２（草笛の会職員宿舎）,,22,224,4371514,,,,,,,2024-07-30,1,,,,,コノタメ,0
1055,5120001267175,新規,0,2024-07-30,2024-07-30,株式会社蒲地総業,,株式会社,大阪府,大阪市旭区,太子橋１丁目１１番１８号Ｈ,,27,117,5350001,,,,,,,2024-07-30,1,,,,,カマチソウギョウ,0
1056,5120001267225,新規,0,2024-07-30,2024-07-30,株式会社Ｓａｎｋａｒａ,,株式会社,大阪府,大阪市阿倍野区,阪南町７丁目８番１５号,,27,119,5450021,,,,,,,2024-07-30,1,,,,,サンカラ,0
1060,5120003027172,新規,0,2024-07-30,2024-07-30,合同会社シナジー,,合同会社,大阪府,大阪市中央区,北浜２丁目２番２１－３８０５,,27,128,5410041,,,,,,,2024-07-30,1,,,,,シナジー,0
1062,5120101070000,新規,0,2024-07-30,2024-07-30,株式会社ブリッジ,,株式会社,大阪府,岸和田市,天神山町２丁目７番７号,,27,202,5960834,,,,,,,2024-07-30,1,,,,,ブリッジ,0
1063,5120103005978,新規,0,2024-07-30,2024-07-30,合同会社ｕｎ,,合同会社,大阪府,松原市,天美東７丁目１０番２０号,,27,217,5800032,,,,,,,2024-07-30,1,,,,,アン,0
1074,5140001135297,新規,0,2024-07-30,2024-07-30,シプラス株式会社,,株式会社,兵庫県,神戸市中央区,磯辺通１丁目１番１８号カサベラ国際プラザビル７０７,,28,110,6510084,,,,,,,2024-07-30,1,,,,,シプラス,0
1075,5140001135314,新規,0,2024-07-30,2024-07-30,株式会社ハレ,,株式会社,兵庫県,川西市,一庫３丁目３４番２号,,28,217,6660153,,,,,,,2024-07-30,1,,,,,ハレ,0
1079,5140003020910,新規,0,2024-07-30,2024-07-30,合同会社ＭＦアセットマネジメント,,合同会社,兵庫県,三田市,富士が丘２丁目４番地５,,28,219,6691547,,,,,,,2024-07-30,1,,,,,エムファムアセットマネジメント,0
1084,5170001018235,新規,0,2024-07-30,2024-07-30,株式会社聖,,株式会社,和歌山県,紀の川市,古和田３６２番地１４,,30,208,6496432,,,,,,,2024-07-30,1,,,,,キヨ,0
1088,5180001162461,新規,0,2024-07-30,2024-07-30,ＧＭＣ株式会社,,株式会社,愛知県,名古屋市北区,稚児宮通２丁目３８番地,,23,103,4620038,,,,,,,2024-07-30,1,,,,,ジーエムシー,0
1091,5180003027101,新規,0,2024-07-30,2024-07-30,ＨＲＮ　ＧＲＯＵＰ合同会社,,合同会社,愛知県,名古屋市昭和区,川原通４丁目９川原ハイツ２Ｂ,,23,107,4660853,,,,,,,2024-07-30,1,,,,,エーチアルーエングループ,0
1092,5180003027118,新規,0,2024-07-30,2024-07-30,合同会社観音葬祭,,合同会社,愛知県,名古屋市千種区,山門町１丁目５０番地,,23,101,4640064,,,,,,,2024-07-30,1,,,,,カンノンソウサイ,0
1098,5200001042743,新規,0,2024-07-30,2024-07-30,株式会社マナビヤサポート,,株式会社,岐阜県,岐阜市,清住町２丁目１８番１０１号室,,21,201,5008178,,,,,,,2024-07-30,1,,,,,マナビヤサポート,0
1099,5200001042751,新規,0,2024-07-30,2024-07-30,株式会社エムト,,株式会社,岐阜県,美濃市,松森２１５番地１インタースクウェアＩ　５０２,00135734,21,207,5013753,,,,,,,2024-07-30,1,,,,,エムト,0
1102,5230001020457,新規,0,2024-07-30,2024-07-30,鞍馬興業株式会社,,株式会社,富山県,高岡市,戸出町２丁目４番５８号,,16,202,9391104,,,,,,,2024-07-30,1,,,,,クラマコウギョウ,0
1103,5230001020465,新規,0,2024-07-30,2024-07-30,株式会社ＲＥＲＩＳＥ,,株式会社,富山県,富山市,町村９８番地１１,,16,201,9300952,,,,,,,2024-07-30,1,,,,,リライズ,0
1109,5240001063587,新規,0,2024-07-30,2024-07-30,株式会社カーサポート恵,,株式会社,広島県,広島市安佐南区,伴西６丁目７０５番地１,,34,105,7313169,,,,,,,2024-07-30,1,,,,,カーサポートケイ,0
1110,5240001063604,新規,0,2024-07-30,2024-07-30,株式会社Ｒｅ．Ａｎｔｅ,,株式会社,広島県,広島市中区,羽衣町６番１２号,,34,101,7300814,,,,,,,2024-07-30,1,,,,,リアンテ,0
1134,5310003004821,新規,0,2024-07-30,2024-07-30,合同会社長崎リテールサービス,,合同会社,長崎県,長崎市,出島町２番１３号,,42,201,8500862,,,,,,,2024-07-30,1,,,,,ナガサキリテールサービス,0
1137,5320001020613,新規,0,2024-07-30,2024-07-30,山口地所株式会社,,株式会社,大分県,大分市,都町２丁目７番１８号,,44,201,8700034,,,,,,,2024-07-30,1,,,,,ヤマグチジショ,0
1138,5320003004432,新規,0,2024-07-30,2024-07-30,合同会社ＥＳＳ,,合同会社,大分県,大分市,王子西町９番１１号レジーナ３０４号室,,44,201,8700008,,,,,,,2024-07-30,1,,,,,イーエスエス,0
1140,5330001032285,新規,0,2024-07-30,2024-07-30,株式会社ＥＮ　ＬＩＮＫ,,株式会社,熊本県,荒尾市,下井手１８８番地１,,43,204,8640011,,,,,,,2024-07-30,1,,,,,エンリンク,0
1145,5340001026674,新規,0,2024-07-30,2024-07-30,株式会社ｋｏｚｕｍａ‐ｆａｒｍ,,株式会社,鹿児島県,西之表市,桜が丘７７７９番地５,,46,213,8913117,,,,,,,2024-07-30,1,,,,,コウヅマファーム,0
1149,5360001033999,新規,0,2024-07-30,2024-07-30,株式会社セリオーレ沖縄,,株式会社,沖縄県,沖縄市,比屋根４丁目２２番３号５０５,,47,211,9042173,,,,,,,2024-07-30,1,,,,,セリオーレオキナワ,0
1151,5360003014171,新規,0,2024-07-30,2024-07-30,合同会社Ｅｘｔｒａ　Ｃａｒｅ,,合同会社,沖縄県,宜野湾市,長田３丁目２－１ネクステージ　ＳＳ１０２,,47,205,9012212,,,,,,,2024-07-30,1,,,,,エクストラケア,0
1159,5430001092328,新規,0,2024-07-30,2024-07-30,株式会社ＲＴＭ,,株式会社,北海道,白老郡白老町,字虎杖浜４２０番地１６９,,01,578,0590641,,,,,,,2024-07-30,1,,,,,リトム,0
1162,5430003016607,新規,0,2024-07-30,2024-07-30,合同会社ＭＹＳＴＹＬＥ,,合同会社,北海道,白老郡白老町,大町３丁目１番２号,,01,578,0590905,,,,,,,2024-07-30,1,,,,,マイスタイル,0
1164,5480001012553,新規,0,2024-07-30,2024-07-30,株式会社ぽっぷ・ジョイ石井,,株式会社,徳島県,名西郡石井町,高原字中須１６番１,,36,341,7793201,,,,,,,2024-07-30,1,,,,,ポップジョイイシイ,0
1167,5500005008719,新規,0,2024-07-30,2024-07-30,労働者協同組合Ｑｕａｒｔｅｔ‐カルテット,,その他の設立登記法人,愛媛県,松山市,水泥町８５,,38,201,7910244,,,,,,,2024-07-30,1,,,,,カルテットカルテット,0
1177,6010001246924,新規,0,2024-07-30,2024-07-30,株式会社ＰＧＫ,,株式会社,東京都,千代田区,丸の内１丁目１１－１号,,13,101,1000005,,,,,,,2024-07-30,1,,,,,ピージーケー,0
1182,6010003044418,新規,0,2024-07-30,2024-07-30,合同会社ＤＥＮＤＲＩＴＩＣ,,合同会社,東京都,中央区,日本橋室町１丁目１１番１２号日本橋水野ビル７階,,13,102,1030022,,,,,,,2024-07-30,1,,,,,デンドリティック,0
1183,6010003044434,新規,0,2024-07-30,2024-07-30,ｉプロパティ１７合同会社,,合同会社,東京都,千代田区,永田町２丁目１４番２号－３階スリーアイズキャピタル株式会社内,,13,101,1000014,,,,,,,2024-07-30,1,,,,,アイプロパティセブンティーン,0
1207,6010401184039,新規,0,2024-07-30,2024-07-30,ＲａｉＦｕ株式会社,,株式会社,東京都,港区,新橋５丁目８番４号,,13,103,1050004,,,,,,,2024-07-30,1,,,,,ライフ,0
1208,6010403033128,新規,0,2024-07-30,2024-07-30,ＳＥＫＩＴＥＩ合同会社,,合同会社,東京都,港区,南青山２丁目２番１５号,,13,103,1070062,,,,,,,2024-07-30,1,,,,,セキテイ,0
1211,6010405023440,新規,0,2024-07-30,2024-07-30,Ｂａｎｚａｉ　Ｇｉｎｚａ　Ｐｒｏｐ特定目的会社,,その他の設立登記法人,東京都,港区,虎ノ門５丁目１番５号,,13,103,1050001,,,,,,,2024-07-30,1,,,,,バンザイギンザプロップ,0
1215,6010603010991,新規,0,2024-07-30,2024-07-30,合同会社スタープラチナ,,合同会社,東京都,江東区,有明１丁目４号２０番,,13,108,1350063,,,,,,,2024-07-30,1,,,,,スタープラチナ,0
1217,6010701046302,新規,0,2024-07-30,2024-07-30,株式会社ゼネテック,,株式会社,東京都,品川区,上大崎１丁目１７番５号ディアナコート池田山公園３１１,,13,109,1410021,,,,,,,2024-07-30,1,,,,,ゼネテック,0
1218,6010801035270,新規,0,2024-07-30,2024-07-30,スターバーズ株式会社,,株式会社,東京都,大田区,田園調布３丁目７番１４号,,13,111,1450071,,,,,,,2024-07-30,1,,,,,スターバーズ,0
1228,6011001163655,新規,0,2024-07-30,2024-07-30,株式会社シエナＴＹ,,株式会社,東京都,渋谷区,代々木４丁目３１番４号キャッスル新宿１１０２,,13,113,1510053,,,,,,,2024-07-30,1,,,,,シエナティワイ,0
1229,6011001163671,新規,0,2024-07-30,2024-07-30,ユニオントップ株式会社,,株式会社,東京都,渋谷区,恵比寿西２丁目１９番９号フランセスビル,,13,113,1500021,,,,,,,2024-07-30,1,,,,,ユニオントップ,0
1233,6011101108155,新規,0,2024-07-30,2024-07-30,株式会社Ｒｅａｃｔ　Ｓｔｕｄｉｏ,,株式会社,東京都,新宿区,新宿７丁目２６番４０号アパガーデンズ新宿戸山公園００５,,13,104,1600022,,,,,,,2024-07-30,1,,,,,リアクトスタジオ,0
1250,6012403006690,新規,0,2024-07-30,2024-07-30,ＬＶＰ合同会社,,合同会社,東京都,多摩市,中沢２丁目３番地１ライオンズマンション多摩センター３０２号,,13,224,2060036,,,,,,,2024-07-30,1,,,,,エルブイピー,0
1253,6013301052926,新規,0,2024-07-30,2024-07-30,株式会社シーアールエムコネクト,,株式会社,東京都,豊島区,駒込１丁目３－４－１００１,,13,116,1700003,,,,,,,2024-07-30,1,,,,,シーアールエムコネクト,0
1260,6020001158251,新規,0,2024-07-30,2024-07-30,株式会社アンクル,,株式会社,神奈川県,横浜市都筑区,北山田４丁目１５番１４号,,14,118,2240021,,,,,,,2024-07-30,1,,,,,アンクル,0
1266,6030001161601,新規,0,2024-07-30,2024-07-30,株式会社ＭＯＳＡ,,株式会社,埼玉県,さいたま市大宮区,大成町２丁目３６３番地,,11,103,3300852,,,,,,,2024-07-30,1,,,,,モサ,0
1276,6040001134705,新規,0,2024-07-30,2024-07-30,株式会社ミタデン,,株式会社,千葉県,流山市,美田２１０番地の３,,12,220,2700131,,,,,,,2024-07-30,1,,,,,ミタデン,0
1282,6050001055140,新規,0,2024-07-30,2024-07-30,株式会社Ｄ＆Ｓ,,株式会社,茨城県,常総市,新石下４０９２番地１,,08,211,3002706,,,,,,,2024-07-30,1,,,,,ディーアンドエス,0
1283,6050003008567,新規,0,2024-07-30,2024-07-30,ＬＵＣＫＹ　ＴＲＡＤＥＲＳ合同会社,,合同会社,茨城県,下妻市,下妻丁３０３番地１３弁天ハイツ１０２号,,08,210,3040068,,,,,,,2024-07-30,1,,,,,ラッキートレーダーズ,0
1287,6070001042021,新規,0,2024-07-30,2024-07-30,株式会社オーシャンフィッシュハブ,,株式会社,群馬県,太田市,岩瀬川町４３５番地１,,10,205,3730841,,,,,,,2024-07-30,1,,,,,オーシャンフィッシュハブ,0
1288,6070003005521,新規,0,2024-07-30,2024-07-30,ＳＧＳ合同会社,,合同会社,群馬県,館林市,近藤町５６７－１,,10,207,3740042,,,,,,,2024-07-30,1,,,,,エスジーエス,0
1292,6080105006441,新規,0,2024-07-30,2024-07-30,一般財団法人熱海観光局,,その他の設立登記法人,静岡県,熱海市,上宿町１４番２０号,,22,205,4130018,,,,,,,2024-07-30,1,,,,,アタミカンコウキョク,0
1301,6110003005467,新規,0,2024-07-30,2024-07-30,合同会社ＴＡＲＯＵ,,合同会社,新潟県,新潟市中央区,東中通１番町８６番地８,,15,103,9518116,,,,,,,2024-07-30,1,,,,,タロウ,0
1311,6120001266977,新規,0,2024-07-30,2024-07-30,株式会社ｃｏｍｕｇｉ,,株式会社,大阪府,大阪市北区,梅田１丁目１番３号大阪駅前第３ビル２９階１－１－１号室,,27,127,5300001,,,,,,,2024-07-30,1,,,,,コムギ,0
1312,6120001267182,新規,0,2024-07-30,2024-07-30,ＹＨＦ株式会社,,株式会社,大阪府,大阪市中央区,東心斎橋２丁目５番地３１号月虎５１番館７階,,27,128,5420083,,,,,,,2024-07-30,1,,,,,ワイエイチエフ,0
1313,6120001267224,新規,0,2024-07-30,2024-07-30,株式会社Ａｍａｎ,,株式会社,大阪府,大阪市阿倍野区,阪南町７丁目８番１５号,,27,119,5450021,,,,,,,2024-07-30,1,,,,,アマン,0
1318,6120003027205,新規,0,2024-07-30,2024-07-30,合同会社ＴＯＳＡ事務所,,合同会社,大阪府,大阪市北区,天神橋１丁目２０番１６号サンウイング南森町４０７号室,,27,127,5300041,,,,,,,2024-07-30,1,,,,,トサジムショ,0
1321,6120101070057,新規,0,2024-07-30,2024-07-30,株式会社メニーフィールド,,株式会社,大阪府,堺市北区,中村町１０７０番地１富士ゴルフセンター内,,27,146,5918012,,,,,,,2024-07-30,1,,,,,メニーフィールド,0
1322,6120101070065,新規,0,2024-07-30,2024-07-30,株式会社Ｄａｒｗｉｎ,,株式会社,大阪府,泉南郡熊取町,若葉２丁目１６―１７,,27,361,5900433,,,,,,,2024-07-30,1,,,,,ダーウィン,0
1323,6120103005977,新規,0,2024-07-30,2024-07-30,ＨＩＩＲＡＧＩ合同会社,,合同会社,大阪府,泉南市,樽井１丁目９番３６号,,27,228,5900521,,,,,,,2024-07-30,1,,,,,ヒイラギ,0
1324,6120901049515,新規,0,2024-07-30,2024-07-30,株式会社Ｂｙａｌｌ,,株式会社,大阪府,豊中市,利倉２丁目２番２５－３０３号,,27,203,5610845,,,,,,,2024-07-30,1,,,,,バイアル,0
1326,6130001077564,新規,0,2024-07-30,2024-07-30,株式会社ＴＥＮＱ　ＳＹＳＴＥＭＳ,,株式会社,京都府,京都市上京区,小川町２０３ＶｉｎｅＯａｋＷｉｓｄｏｍ１０２号室,,26,102,6020000,,,,,,,2024-07-30,1,,,,,テンクーシステムズ,0
1330,6140003020884,新規,0,2024-07-30,2024-07-30,合同会社Ｍｕｋｕ,,合同会社,兵庫県,神戸市中央区,中山手通３丁目１０番８,,28,110,6500004,,,,,,,2024-07-30,1,,,,,ムク,0
1332,6150001027451,新規,0,2024-07-30,2024-07-30,株式会社むらい造園,,株式会社,奈良県,橿原市,上品寺町１４１番地の１,,29,205,6340803,,,,,,,2024-07-30,1,,,,,ムライゾウエン,0
1333,6150003003327,新規,0,2024-07-30,2024-07-30,合同会社陽,,合同会社,奈良県,奈良市,大宮町６丁目４番地の８ルミエール新大宮４０５号,,29,201,6308115,,,,,,,2024-07-30,1,,,,,ヒナタ,0
1336,6160001026106,新規,0,2024-07-30,2024-07-30,Ｅｎｔｏｕｒａｇｅ　Ｊａｐａｎ株式会社,,株式会社,滋賀県,草津市,下笠町１４４８番地３,,25,206,5250029,,,,,,,2024-07-30,1,,,,,アントラージュジャパン,0
1346,6180001162460,新規,0,2024-07-30,2024-07-30,株式会社ＩｎｓｐｉＡ,,株式会社,愛知県,名古屋市中川区,吉津３丁目２００３番地,,23,110,4540981,,,,,,,2024-07-30,1,,,,,インスパイア,0
1347,6180001162535,新規,0,2024-07-30,2024-07-30,ダイベル株式会社,,株式会社,愛知県,名古屋市中村区,名駅４丁目２４番５号第２森ビル４０１,,23,105,4500002,,,,,,,2024-07-30,1,,,,,ダイベル,0
1355,6180301038889,新規,0,2024-07-30,2024-07-30,株式会社平松自動車,,株式会社,愛知県,岡崎市,上地２丁目４３番地１６,,23,202,4440823,,,,,,,2024-07-30,1,,,,,ヒラマツジドウシャ,0
1362,6190001031516,新規,0,2024-07-30,2024-07-30,株式会社恒和,,株式会社,三重県,度会郡玉城町,原３４２６番地１９,,24,461,5190438,,,,,,,2024-07-30,1,,,,,コウワ,0
1365,6200001042750,新規,0,2024-07-30,2024-07-30,株式会社とき企劃,,株式会社,岐阜県,瑞浪市,釜戸町３０４３－１,,21,208,5096472,,,,,,,2024-07-30,1,,,,,トキキクワク,0
1374,6230001020464,新規,0,2024-07-30,2024-07-30,リアール不動産株式会社,,株式会社,富山県,砺波市,三島町３番８号,,16,208,9391365,,,,,,,2024-07-30,1,,,,,リアールフドウサン,0
1375,6230001020472,新規,0,2024-07-30,2024-07-30,株式会社ケイズテクノ,,株式会社,富山県,富山市,婦中町響の杜２６９番地８８,,16,201,9392729,,,,,,,2024-07-30,1,,,,,ケイズテクノ,0
1376,6240001063611,新規,0,2024-07-30,2024-07-30,株式会社Ｒｅｆｉｎｅ,,株式会社,広島県,安芸郡府中町,みくまり３丁目１０番２２－４号,,34,302,7350003,,,,,,,2024-07-30,1,,,,,リファイン,0
1380,6250001020751,新規,0,2024-07-30,2024-07-30,株式会社結蘭,,株式会社,山口県,大島郡周防大島町,大字久賀５１２４番地５,,35,305,7422301,,,,,,,2024-07-30,1,,,,,ユラン,0
1381,6260005011382,新規,0,2024-07-30,2024-07-30,一般社団法人ｚｅｒｏＰｒｏ協会,,その他の設立登記法人,岡山県,倉敷市,中庄２３０２番地１－１００６号,,33,202,7100016,,,,,,,2024-07-30,1,,,,,ゼロプロキョウカイ,0
1382,6270003001649,新規,0,2024-07-30,2024-07-30,ｉＲ合同会社,,合同会社,鳥取県,西伯郡南部町,東町３３３,,31,389,6830301,,,,,,,2024-07-30,1,,,,,アイアール,0
1387,6290001106679,新規,0,2024-07-30,2024-07-30,株式会社Ｆｉｅｌｄ　ＵＰ,,株式会社,福岡県,福岡市博多区,博多駅前１丁目２３番２号,,40,132,8120011,,,,,,,2024-07-30,1,,,,,フィールドアップ,0
1388,6290003015572,新規,0,2024-07-30,2024-07-30,合同会社ＮｅｗＴｒｕｓｔ,,合同会社,福岡県,福岡市博多区,博多駅東１丁目１１－１５博多駅東口ビル７０４号,,40,132,8120013,,,,,,,2024-07-30,1,,,,,ニュートラスト,0
1391,6290805009763,新規,0,2024-07-30,2024-07-30,一般社団法人ひだまり,,その他の設立登記法人,福岡県,中間市,太賀３丁目５番６号,,40,215,8090015,,,,,,,2024-07-30,1,,,,,ヒダマリ,0
1395,6360003014187,新規,0,2024-07-30,2024-07-30,ＧＤＩ　Ｅｎｇｉｎｅｅｒｓ合同会社,,合同会社,沖縄県,沖縄市,桃原３丁目１８番１０号,,47,211,9042164,,,,,,,2024-07-30,1,,,,,ジーディアイエンジニアーズ,0
1423,7010003044425,新規,0,2024-07-30,2024-07-30,エンバイオＣ・ウェスト合同会社,,合同会社,東京都,千代田区,鍛冶町２丁目２－２神田パークプラザ８階,,13,101,1010044,,,,,,,2024-07-30,1,,,,,エンバイオシーウェスト,0
1424,7010003044441,新規,0,2024-07-30,2024-07-30,合同会社スラッシュノット,,合同会社,東京都,中央区,銀座１丁目１２番４号Ｎ＆ＥＢＬＤ．６Ｆ,,13,102,1040061,,,,,,,2024-07-30,1,,,,,スラッシュノット,0
1425,7010005038565,新規,0,2024-07-30,2024-07-30,一般社団法人製造業総合支援,,その他の設立登記法人,東京都,中央区,佃２丁目１０番９－１７０７号,,13,102,1040051,,,,,,,2024-07-30,1,,,,,セイゾウギョウソウゴウシエン,0
1431,7010401184087,新規,0,2024-07-30,2024-07-30,株式会社Ｌｕｍｉ,,株式会社,東京都,港区,芝浦２丁目６番１６－１２０４号,,13,103,1080023,,,,,,,2024-07-30,1,,,,,ルミ,0
1436,7010403033069,新規,0,2024-07-30,2024-07-30,合同会社ココファンド５,,合同会社,東京都,港区,西新橋１丁目２番９号メンターキャピタル税理士法人内,,13,103,1050003,,,,,,,2024-07-30,1,,,,,ココファンドゴ,0
1437,7010403033127,新規,0,2024-07-30,2024-07-30,合同会社Ｆｌｏｗｅｒ,,合同会社,東京都,港区,南青山２丁目２番１５号,,13,103,1070062,,,,,,,2024-07-30,1,,,,,フラワー,0
1438,7010405023398,新規,0,2024-07-30,2024-07-30,一般社団法人日本エイジングケアピラティス協会,,その他の設立登記法人,東京都,港区,南青山２丁目２番１５号,,13,103,1070062,,,,,,,2024-07-30,1,,,,,ニホンエイジングケアピラティスキョウカイ,0
1440,7010501052672,新規,0,2024-07-30,2024-07-30,株式会社ＴＳＵＮＡＧＡＲＩ,,株式会社,東京都,台東区,北上野２丁目１番１２－１１０１号ニューイーストコート上野,,13,106,1100014,,,,,,,2024-07-30,1,,,,,ツナガリ,0
1441,7010501052680,新規,0,2024-07-30,2024-07-30,株式会社Ｄ‐ｃｏｄｅ,,株式会社,東京都,台東区,鳥越１丁目１６番８号,,13,106,1110054,,,,,,,2024-07-30,1,,,,,ディーコード,0
1443,7010601065649,新規,0,2024-07-30,2024-07-30,Ｓｕｂｌｉｍｅ株式会社,,株式会社,東京都,江東区,森下２丁目１７－７オークホテル江戸,,13,108,1350004,,,,,,,2024-07-30,1,,,,,サブライム,0
1451,7010905004633,新規,0,2024-07-30,2024-07-30,一般社団法人国際臨床歯科研究所,,その他の設立登記法人,東京都,世田谷区,新町２丁目３５－２７,,13,112,1540014,,,,,,,2024-07-30,1,,,,,コクサイリンショウシカケンキュウジョ,0
1454,7011001163638,新規,0,2024-07-30,2024-07-30,株式会社Ｇｌｏｂａｌ　ｃｈｅｆ,,株式会社,東京都,渋谷区,本町２丁目１２番７－２０７号ロアール渋谷本町,,13,113,1510071,,,,,,,2024-07-30,1,,,,,グローバルシェフ,0
1455,7011001163646,新規,0,2024-07-30,2024-07-30,ウィングス株式会社,,株式会社,東京都,渋谷区,渋谷２丁目１９番１５号宮益坂ビルディング６０９,,13,113,1500002,,,,,,,2024-07-30,1,,,,,ウィングス,0
1456,7011001163662,新規,0,2024-07-30,2024-07-30,株式会社ハルムスビ,,株式会社,東京都,渋谷区,道玄坂１丁目１０番８号渋谷道玄坂東急ビル２Ｆ－Ｃ,,13,113,1500043,,,,,,,2024-07-30,1,,,,,ハルムスビ,0
1461,7011101108146,新規,0,2024-07-30,2024-07-30,Ｓｐｅａｋｌｙ　ＡＩ株式会社,,株式会社,東京都,新宿区,百人町２丁目１３番１３号Ｊハウス２０３,,13,104,1690073,,,,,,,2024-07-30,1,,,,,スピークリエーアイ,0
1462,7011101108187,新規,0,2024-07-30,2024-07-30,田辺国際ビジネスサービス株式会社,,株式会社,東京都,新宿区,西新宿４丁目３１番３－１０１８号永谷リヴュール新宿,,13,104,1600023,,,,,,,2024-07-30,1,,,,,タナベコクサイビジネスサービス,0
1464,7011103014706,新規,0,2024-07-30,2024-07-30,合同会社ＧＲ,,合同会社,東京都,新宿区,西新宿３丁目３番１３号西新宿水間ビル２Ｆ,,13,104,1600023,,,,,,,2024-07-30,1,,,,,ジーアル,0
1465,7011103014722,新規,0,2024-07-30,2024-07-30,合同会社ミラージュ,,合同会社,東京都,新宿区,新宿２丁目１２番１３号新宿アントレサロンビル２階,,13,104,1600022,,,,,,,2024-07-30,1,,,,,ミラージュ,0
1467,7011201025654,新規,0,2024-07-30,2024-07-30,株式会社Ｍ＆Ｎ,,株式会社,東京都,中野区,中野５丁目５４番５号,,13,114,1640001,,,,,,,2024-07-30,1,,,,,エムアンドエヌ,0
1468,7011201025679,新規,0,2024-07-30,2024-07-30,株式会社ＦＵＴＴＴＯＣＨＯ,,株式会社,東京都,中野区,鷺宮５丁目１０－１２トモズハウス２０４,,13,114,1650032,,,,,,,2024-07-30,1,,,,,フトッチョ,0
1470,7011401026295,新規,0,2024-07-30,2024-07-30,際農株式会社,,株式会社,東京都,板橋区,前野町３丁目７番６号１０３号室,,13,119,1740063,,,,,,,2024-07-30,1,,,,,サイノウ,0
1471,7011501030973,新規,0,2024-07-30,2024-07-30,暄棟株式会社,,株式会社,東京都,荒川区,南千住１丁目４５番８－１０３号Ｆ,,13,118,1160003,,,,,,,2024-07-30,1,,,,,ケントウ,0
1477,7011803006366,新規,0,2024-07-30,2024-07-30,合同会社ライズフィスト,,合同会社,東京都,足立区,扇３丁目１８番１３‐１００７号,,13,121,1230873,,,,,,,2024-07-30,1,,,,,ライズフィスト,0
1479,7012401042134,新規,0,2024-07-30,2024-07-30,株式会社Ｆｕｒｏｓｉｋｉ,,株式会社,東京都,武蔵野市,吉祥寺本町１丁目５－１吉祥寺ＰＡＲＣＯ８ＦＳｋｉｉＭａ,,13,203,1800004,,,,,,,2024-07-30,1,,,,,フロシキ,0
1488,7021001082820,新規,0,2024-07-30,2024-07-30,株式会社ＴＡＴＳＵＫＩ,,株式会社,神奈川県,秦野市,西田原１９２番地の１,,14,211,2570027,,,,,,,2024-07-30,1,,,,,タツキ,0
1489,7021001082837,新規,0,2024-07-30,2024-07-30,株式会社渡辺エンジニアリング,,株式会社,神奈川県,高座郡寒川町,倉見１８１１番地２０,,14,321,2530101,,,,,,,2024-07-30,1,,,,,ワタナベエンジニアリング,0
1500,7030001161600,新規,0,2024-07-30,2024-07-30,株式会社ＴＲＢ,,株式会社,埼玉県,蕨市,中央２丁目１８番１２号プレシアール２０２号,,11,223,3350004,,,,,,,2024-07-30,1,,,,,ティーアールビー,0
1501,7030001161625,新規,0,2024-07-30,2024-07-30,株式会社Ｊ．Ｍ,,株式会社,埼玉県,北葛飾郡松伏町,田中３丁目２７番地１３,,11,465,3430117,,,,,,,2024-07-30,1,,,,,ジェイエム,0
1506,7030003024796,新規,0,2024-07-30,2024-07-30,合同会社ウタマル,,合同会社,埼玉県,鴻巣市,原馬室４２７番地２,,11,217,3650043,,,,,,,2024-07-30,1,,,,,ウタマル,0
1509,7040001134729,新規,0,2024-07-30,2024-07-30,株式会社Ｍｏｉｓ,,株式会社,千葉県,千葉市花見川区,花園１丁目７番２号,,12,102,2620025,,,,,,,2024-07-30,1,,,,,モイス,0
1523,7070001042020,新規,0,2024-07-30,2024-07-30,株式会社ディグライフ,,株式会社,群馬県,太田市,高林南町７７０番地４,,10,205,3730827,,,,,,,2024-07-30,1,,,,,ディグライフ,0
1539,7120001266976,新規,0,2024-07-30,2024-07-30,株式会社Ｌｅａ　ｌｅａ,,株式会社,大阪府,寝屋川市,八坂町２２番４号,,27,215,5720838,,,,,,,2024-07-30,1,,,,,レアレア,0
1540,7120001267132,新規,0,2024-07-30,2024-07-30,羽雲株式会社,,株式会社,大阪府,大阪市城東区,鴫野西１丁目１５－１－５Ｄ,,27,118,5360014,,,,,,,2024-07-30,1,,,,,ハウン,0
1541,7120001267223,新規,0,2024-07-30,2024-07-30,誉電設産業株式会社,,株式会社,大阪府,大阪市浪速区,桜川４丁目８番２－２０１号,,27,111,5560022,,,,,,,2024-07-30,1,,,,,ホマレデンセツサンギョウ,0
1542,7120001267231,新規,0,2024-07-30,2024-07-30,株式会社アドバンスエージェント,,株式会社,大阪府,大阪市中央区,北久宝寺町２丁目１番１０号ＳＤ船場ビル８０５,,27,128,5410057,,,,,,,2024-07-30,1,,,,,アドバンスエージェント,0
1543,7120005024455,新規,0,2024-07-30,2024-07-30,一般社団法人地域共創会議,,その他の設立登記法人,大阪府,大阪市天王寺区,大道１丁目１４番１４号,,27,109,5430052,,,,,,,2024-07-30,1,,,,,チイキキョウソウカイギ,0
1545,7120101070048,新規,0,2024-07-30,2024-07-30,株式会社リズムＷＥＳＴ,,株式会社,大阪府,堺市堺区,宿院町東４丁２－１フェニックス・ヴァン５０２,,27,141,5900955,,,,,,,2024-07-30,1,,,,,リズムウエスト,0
1547,7120103005976,新規,0,2024-07-30,2024-07-30,合同会社Ｋ．Ｉ．Ｔ,,合同会社,大阪府,堺市美原区,南余部２９１番地の１,,27,147,5870052,,,,,,,2024-07-30,1,,,,,ケーアイティー,0
1550,7120901049514,新規,0,2024-07-30,2024-07-30,株式会社ノース・フロント,,株式会社,大阪府,箕面市,如意谷１丁目５番１号Ｂ１０１,,27,220,5620011,,,,,,,2024-07-30,1,,,,,ノースフロント,0
1564,7140003020875,新規,0,2024-07-30,2024-07-30,合同会社ルビーインベストメント,,合同会社,兵庫県,神戸市東灘区,田中町３丁目１１番１号ハローグリーンハイツ岡本３０３号室,,28,101,6580081,,,,,,,2024-07-30,1,,,,,ルビーインベストメント,0
1565,7140005027167,新規,0,2024-07-30,2024-07-30,特定非営利活動法人地球の平和のための謎とき会,,その他の設立登記法人,兵庫県,三田市,狭間が丘５丁目４番地２棟１１０５号,,28,219,6691545,,,,,,,2024-07-30,1,,,,,チキュウノヘイワノタメノナゾトキカイ,0
1567,7150001027459,新規,0,2024-07-30,2024-07-30,株式会社Ｒ’５,,株式会社,奈良県,北葛城郡河合町,大字穴闇４０番地２１,,29,427,6360054,,,,,,,2024-07-30,1,,,,,アールファイブ,0
1570,7170003002078,新規,0,2024-07-30,2024-07-30,合同会社ＺＥＵＳ,,合同会社,和歌山県,田辺市,中芳養１５２４番地の７エスポワール２０２号,,30,206,6460057,,,,,,,2024-07-30,1,,,,,ゼウス,0
1578,7180001162451,新規,0,2024-07-30,2024-07-30,株式会社Ｆｏｒｍ,,株式会社,愛知県,一宮市,浅井町東浅井字大島５２番地８,,23,203,4910112,,,,,,,2024-07-30,1,,,,,フォーム,0
1579,7180001162501,新規,0,2024-07-30,2024-07-30,ＤＡＦ工房株式会社,,株式会社,愛知県,海部郡大治町,大字砂子字千手堂６５０番地アメニティ大治一番館６０１号,,23,424,4901143,,,,,,,2024-07-30,1,,,,,ディーエーエフコウボウ,0
1580,7180001162534,新規,0,2024-07-30,2024-07-30,株式会社エクステリアエムズ,,株式会社,愛知県,名古屋市緑区,細口２丁目８０８,,23,114,4580006,,,,,,,2024-07-30,1,,,,,エクステリアエムズ,0
1585,7180003027108,新規,0,2024-07-30,2024-07-30,合同会社ベストワーク,,合同会社,愛知県,名古屋市中区,平和２丁目７番１４号,,23,106,4600021,,,,,,,2024-07-30,1,,,,,ベストワーク,0
1586,7180003027124,新規,0,2024-07-30,2024-07-30,Ｎｉｎｊａ　Ｂａｌｌｏｏｎ合同会社,,合同会社,愛知県,名古屋市中村区,名駅４丁目２４番５号第２森ビル４０１,,23,105,4500002,,,,,,,2024-07-30,1,,,,,ニンジャバルーン,0
1596,7200001042758,新規,0,2024-07-30,2024-07-30,株式会社ピュアギフト,,株式会社,岐阜県,岐阜市,上加納山４７１７番地１０３,,21,201,5008121,,,,,,,2024-07-30,1,,,,,ピュアギフト,0
1597,7200001042766,新規,0,2024-07-30,2024-07-30,株式会社ＫＩＺＵＮＡ,,株式会社,岐阜県,多治見市,本町１丁目１２２番地ミッドライズタワー多治見２３０２,,21,204,5070033,,,,,,,2024-07-30,1,,,,,キズナ,0
1598,7220003003806,新規,0,2024-07-30,2024-07-30,合同会社ｅＮＡｉｉＭＡ,,合同会社,石川県,金沢市,安江町１９‐３三田村ビル２Ｆ,,17,201,9200854,,,,,,,2024-07-30,1,,,,,イーナイイマ,0
1600,7230003002261,新規,0,2024-07-30,2024-07-30,ＺＯＮＥ‐ＢＥＥ合同会社,,合同会社,富山県,富山市,大泉２９０番地３,,16,201,9398058,,,,,,,2024-07-30,1,,,,,ゾーンビー,0
1603,7240001063610,新規,0,2024-07-30,2024-07-30,株式会社アイムユアーズ,,株式会社,広島県,広島市中区,本通７－２９アイビービル７階,,34,101,7300035,,,,,,,2024-07-30,1,,,,,アイムユアーズ,0
1604,7240001063619,新規,0,2024-07-30,2024-07-30,株式会社ソノグラファーサービス,,株式会社,広島県,広島市安佐北区,口田３丁目４３番１５号,,34,106,7391734,,,,,,,2024-07-30,1,,,,,ソノグラファーサービス,0
1605,7260001039303,新規,0,2024-07-30,2024-07-30,株式会社ゆいまーる,,株式会社,岡山県,岡山市北区,津高５１１‐１,,33,101,7011152,,,,,,,2024-07-30,1,,,,,ユイマール,0
1606,7260001039311,新規,0,2024-07-30,2024-07-30,株式会社アクアフォーシー,,株式会社,岡山県,岡山市北区,上中野２丁目１２番５号,,33,101,7000972,,,,,,,2024-07-30,1,,,,,アクアフォーシー,0
1613,7320001020611,新規,0,2024-07-30,2024-07-30,株式会社ＴＣＮ,,株式会社,大分県,大分市,寿町１１番２号第３大成ビル５０５,,44,201,8700036,,,,,,,2024-07-30,1,,,,,ティーシーエヌ,0
1616,7330001032283,新規,0,2024-07-30,2024-07-30,株式会社ワイズスクエア,,株式会社,熊本県,熊本市中央区,九品寺６丁目６番３３－１号,,43,101,8620976,,,,,,,2024-07-30,1,,,,,ワイズスクエア,0
1619,7330003010485,新規,0,2024-07-30,2024-07-30,Ｅｉｓｆｌａｍｍｅ合同会社,,合同会社,熊本県,熊本市東区,上南部２丁目４番３２号,,43,102,8618010,,,,,,,2024-07-30,1,,,,,アイスフレーム,0
1620,7340001026672,新規,0,2024-07-30,2024-07-30,株式会社クラリファイ,,株式会社,鹿児島県,鹿児島市,東谷山２丁目８番１７号,,46,201,8910113,,,,,,,2024-07-30,1,,,,,クラリファイ,0
1621,7340001026680,新規,0,2024-07-30,2024-07-30,らいおん物流株式会社,,株式会社,鹿児島県,鹿児島市,清和４丁目８番９６号,,46,201,8910109,,,,,,,2024-07-30,1,,,,,ライオンブツリュウ,0
1626,7360001033997,新規,0,2024-07-30,2024-07-30,農地所有適格法人株式会社キジーの森,,株式会社,沖縄県,名護市,字源河１１３３番地,,47,209,9051141,,,,,,,2024-07-30,1,,,,,ノウチショユウテキカクホウジンキジーノモリ,0
1638,7430003016605,新規,0,2024-07-30,2024-07-30,合同会社Ａｂｓｏｌｕｔｅ,,合同会社,北海道,札幌市豊平区,平岸三条１４丁目２番１６号フロントコート南平岸２Ｆ,,01,105,0620933,,,,,,,2024-07-30,1,,,,,アブソリュート,0
1639,7430003016613,新規,0,2024-07-30,2024-07-30,合同会社依本,,合同会社,北海道,札幌市豊平区,月寒西一条９丁目１０番８０号サーム月寒中央１０３,,01,105,0620021,,,,,,,2024-07-30,1,,,,,ヨリモト,0
1658,7700150124538,新規,0,2024-07-30,2024-07-30,ＨＯＮＧ　ＫＯＮＧ　ＭＡＮＧＯ　ＭＯＢＩＬＥ　ＬＩＭＩＴＥＤ,,外国会社等,,,,,,,,ＲＯＯＭ　１２０２　ＯＮ　ＨＯＮＧ　ＣＯＭＭＥＲＣＩＡＬ　ＢＵＩＬＤＩＮＧ　１４５　ＨＥＮＮＥＳＳＹ　ＲＯＡＤ　ＷＡＮＣＨＡＩ，ＨＫ,,,,,,2024-07-30,1,,,,,シヤンガンマングオイードンコージーヨウシエンゴンスー,0
1683,8010403033126,新規,0,2024-07-30,2024-07-30,合同会社Ｎｕｓａ　Ｄｕａ,,合同会社,東京都,港区,南青山２丁目２番１５号,,13,103,1070062,,,,,,,2024-07-30,1,,,,,ヌサドゥア,0
1689,8010405023397,新規,0,2024-07-30,2024-07-30,一般社団法人日本エイジングケアヨガ協会,,その他の設立登記法人,東京都,港区,南青山２丁目２番１５号,,13,103,1070062,,,,,,,2024-07-30,1,,,,,ニホンエイジングケアヨガキョウカイ,0
1694,8011001163348,新規,0,2024-07-30,2024-07-30,株式会社ＤｏＩＴ,,株式会社,東京都,渋谷区,渋谷２丁目１９－１５宮益坂ビルディング６０９,,13,113,1500002,,,,,,,2024-07-30,1,,,,,ドゥーイット,0
1695,8011001163711,新規,0,2024-07-30,2024-07-30,株式会社グランディトラスト,,株式会社,東京都,渋谷区,初台２丁目２５番８－３０８号,,13,113,1510061,,,,,,,2024-07-30,1,,,,,グランディトラスト,0
1699,8011101108095,新規,0,2024-07-30,2024-07-30,ＵＭＯ　Ｔｏｋｙｏ株式会社,,株式会社,東京都,新宿区,西新宿７丁目１８番１６号トーシンハイム新宿９０３号,,13,104,1600023,,,,,,,2024-07-30,1,,,,,ユムオトウキョウ,0
1701,8011105011114,新規,0,2024-07-30,2024-07-30,一般社団法人情報経営イノベーション組織研究機構,,その他の設立登記法人,東京都,新宿区,高田馬場４丁目１３番１２号伊豆栄ビル３０１,,13,104,1690075,,,,,,,2024-07-30,1,,,,,ジョウホウケイエイイノベーションソシキケンキュウキコウ,0
1702,8011201025678,新規,0,2024-07-30,2024-07-30,ＰｌａｙｅｒＸ株式会社,,株式会社,東京都,中野区,弥生町１丁目１６－２スカイガーデン西新宿五丁目１０１,,13,114,1640013,,,,,,,2024-07-30,1,,,,,プレイヤーエックス,0
1705,8011701027488,新規,0,2024-07-30,2024-07-30,株式会社エルシーワークス,,株式会社,東京都,江戸川区,篠崎町７丁目２９番４号絹川ビル２Ｆ,,13,123,1330061,,,,,,,2024-07-30,1,,,,,エルシーワークス,0
1709,8012401042125,新規,0,2024-07-30,2024-07-30,株式会社ディノックス,,株式会社,東京都,府中市,寿町１丁目４番地１７,,13,206,1830056,,,,,,,2024-07-30,1,,,,,ディノックス,0
1725,8021003014829,新規,0,2024-07-30,2024-07-30,Ａｃｃｏｒｄ合同会社,,合同会社,神奈川県,鎌倉市,二階堂６６３－１,,14,204,2480002,,,,,,,2024-07-30,1,,,,,アコード,0
1735,8030001161582,新規,0,2024-07-30,2024-07-30,株式会社ＹＩ,,株式会社,埼玉県,さいたま市大宮区,三橋２丁目５３９番地３,,11,103,3300856,,,,,,,2024-07-30,1,,,,,ワイアイ,0
1736,8030001161608,新規,0,2024-07-30,2024-07-30,株式会社ＳＨＯ‐ＥＩ,,株式会社,埼玉県,吉川市,高久１丁目１番地３１,,11,243,3420035,,,,,,,2024-07-30,1,,,,,ショウエイ,0
1737,8030001161616,新規,0,2024-07-30,2024-07-30,上智ミライ株式会社,,株式会社,埼玉県,飯能市,本町１番１１号ＫＩＶオフィス飯能Ｃ号室,,11,209,3570032,,,,,,,2024-07-30,1,,,,,ジョウチミライ,0
1744,8030005021782,新規,0,2024-07-30,2024-07-30,一般財団法人アライ祈念財団,,その他の設立登記法人,埼玉県,さいたま市大宮区,吉敷町１丁目１３５,,11,103,3300843,,,,,,,2024-07-30,1,,,,,アライキネンザイダン,0
1748,8040003025495,新規,0,2024-07-30,2024-07-30,合同会社Ｎａｔ　Ｌｉｍｉｔ,,合同会社,千葉県,千葉市花見川区,朝日ケ丘４丁目２－２６－３０２,,12,102,2620019,,,,,,,2024-07-30,1,,,,,ナットリミット,0
1749,8040003025504,新規,0,2024-07-30,2024-07-30,ＪＡＮ’ｓ　ＧＡＲＡＧＥ合同会社,,合同会社,千葉県,千葉市若葉区,北谷津町３０５－１、４号区画,,12,104,2650067,,,,,,,2024-07-30,1,,,,,ジャンズガレージ,0
1758,8070003005528,新規,0,2024-07-30,2024-07-30,合同会社旗屋,,合同会社,群馬県,高崎市,成田町２番地１７グランファースト高崎２０２号室,,10,202,3700812,,,,,,,2024-07-30,1,,,,,,0
1762,8080401027338,新規,0,2024-07-30,2024-07-30,株式会社Ｋ．Ｐ．Ｅ,,株式会社,静岡県,浜松市中央区,富屋町６０番地の１,,22,138,4300824,,,,,,,2024-07-30,1,,,,,ケーピーイー,0
1766,8100003007669,新規,0,2024-07-30,2024-07-30,シャレセス合同会社,,合同会社,長野県,上田市,古里１０３番地３野竹ビル１０２号,,20,203,3860005,,,,,,,2024-07-30,1,,,,,シャレセス,0
1768,8110001038599,新規,0,2024-07-30,2024-07-30,株式会社Ｕｋｅ,,株式会社,新潟県,南魚沼郡湯沢町,大字神立１３５６番地２－５号,,15,461,9496102,,,,,,,2024-07-30,1,,,,,ウケ,0
1777,8120001267197,新規,0,2024-07-30,2024-07-30,ＲＥＯＬＡ株式会社,,株式会社,大阪府,大阪市中央区,博労町４丁目３番１２号ミドーエルファンビル１階,,27,128,5410059,,,,,,,2024-07-30,1,,,,,リオラ,0
1778,8120001267214,新規,0,2024-07-30,2024-07-30,ＹＧ吉川株式会社,,株式会社,大阪府,大阪市西成区,北津守４丁目５番１９号,,27,122,5570061,,,,,,,2024-07-30,1,,,,,ワイジーヨシカワ,0
1779,8120001267230,新規,0,2024-07-30,2024-07-30,ＢＯＮＶＯＹＡＧＥ株式会社,,株式会社,大阪府,大阪市淀川区,宮原５丁目４番２号,,27,123,5320003,,,,,,,2024-07-30,1,,,,,ボンボヤージュ,0
1780,8120001267239,新規,0,2024-07-30,2024-07-30,株式会社Ｃｏｌｏｒｉｓ,,株式会社,大阪府,大阪市福島区,福島７丁目１４番１８－８０５号,,27,103,5530003,,,,,,,2024-07-30,1,,,,,クロリ,0
1781,8120001267247,新規,0,2024-07-30,2024-07-30,ｔｅｃｈ　ＭＡＳＴＥＲ株式会社,,株式会社,大阪府,大阪市中央区,北浜３丁目１番１５号北浜高田ビル７階,,27,128,5410041,,,,,,,2024-07-30,1,,,,,テックマスター,0
1782,8120003027145,新規,0,2024-07-30,2024-07-30,合同会社キマイラ文庫,,合同会社,大阪府,大阪市北区,豊崎５丁目６番２号,,27,127,5310072,,,,,,,2024-07-30,1,,,,,キマイラブンコ,0
1784,8120101070039,新規,0,2024-07-30,2024-07-30,株式会社カスミ,,株式会社,大阪府,泉佐野市,羽倉崎上町１丁目１－２６－２０１,,27,213,5980037,,,,,,,2024-07-30,1,,,,,カスミ,0
1785,8120101070071,新規,0,2024-07-30,2024-07-30,株式会社ＹｕｕＫｅｎＨｏｍｅ,,株式会社,大阪府,堺市堺区,陵西通３番１２号,,27,141,5900041,,,,,,,2024-07-30,1,,,,,ユウケンホーム,0
1786,8120103005975,新規,0,2024-07-30,2024-07-30,合同会社はこ,,合同会社,大阪府,富田林市,平町２丁目７番６号,,27,214,5840002,,,,,,,2024-07-30,1,,,,,ハコ,0
1787,8120903005282,新規,0,2024-07-30,2024-07-30,合同会社四重奏,,合同会社,大阪府,豊中市,岡上の町３丁目１番１３－３０１号,,27,203,5600023,,,,,,,2024-07-30,1,,,,,シジュウソウ,0
1794,8130001077562,新規,0,2024-07-30,2024-07-30,株式会社ｇｅｍｓｔｏｎｅ,,株式会社,京都府,京都市中京区,河原町通四条上る米屋町３８５番地河原町オーパ３階,,26,104,6048026,,,,,,,2024-07-30,1,,,,,ジェムストーン,0
1798,8140001135088,新規,0,2024-07-30,2024-07-30,株式会社ＲＯＹＡＬ,,株式会社,兵庫県,神戸市須磨区,北落合２丁目５番１２号,,28,107,6540151,,,,,,,2024-07-30,1,,,,,ロイヤル,0
1800,8140003020890,新規,0,2024-07-30,2024-07-30,合同会社おむすび,,合同会社,兵庫県,神戸市中央区,元町通４丁目１番６号山田ビル２０２号室,,28,110,6500022,,,,,,,2024-07-30,1,,,,,オムスビ,0
1806,8180001162450,新規,0,2024-07-30,2024-07-30,ときわ株式会社,,株式会社,愛知県,名古屋市熱田区,伝馬２丁目１６番１５号,,23,109,4560034,,,,,,,2024-07-30,1,,,,,トキワ,0
1807,8180001162459,新規,0,2024-07-30,2024-07-30,株式会社藤山組,,株式会社,愛知県,名古屋市港区,木場町２番地の１３スペリア名南コンフォート３０５号,,23,111,4550021,,,,,,,2024-07-30,1,,,,,フジヤマグミ,0
1808,8180001162467,新規,0,2024-07-30,2024-07-30,株式会社ＫＲＫ,,株式会社,愛知県,一宮市,大毛字行友８８番地１,,23,203,4910132,,,,,,,2024-07-30,1,,,,,ケーアールケー,0
1809,8180001162500,新規,0,2024-07-30,2024-07-30,幸昇株式会社,,株式会社,愛知県,名古屋市東区,泉１丁目１２番２５号,,23,102,4610001,,,,,,,2024-07-30,1,,,,,コウショウ,0
1810,8180001162517,新規,0,2024-07-30,2024-07-30,株式会社グラヴィティスリー,,株式会社,愛知県,名古屋市瑞穂区,佐渡町４丁目１７コート佐渡２０１,,23,108,4670016,,,,,,,2024-07-30,1,,,,,グラヴィティスリー,0
1816,8190001031522,新規,0,2024-07-30,2024-07-30,株式会社３５８,,株式会社,三重県,鈴鹿市,安塚町１２７５番地の９７,,24,207,5130818,,,,,,,2024-07-30,1,,,,,サンゴハチ,0
1823,8200001042757,新規,0,2024-07-30,2024-07-30,株式会社大成工業,,株式会社,岐阜県,美濃加茂市,加茂川町１丁目３番３号,,21,211,5050044,,,,,,,2024-07-30,1,,,,,タイセイコウギョウ,0
1824,8200001042773,新規,0,2024-07-30,2024-07-30,和のもり春日株式会社,,株式会社,岐阜県,揖斐郡揖斐川町,春日小宮神１１５８番地の１,,21,401,5032505,,,,,,,2024-07-30,1,,,,,ナゴミノモリカスガ,0
1825,8200003006446,新規,0,2024-07-30,2024-07-30,合同会社ＧＬＯＶＥ　ＭＡＩＳＯＮ　Ｕ＆Ｓ,,合同会社,岐阜県,岐阜市,菅生８丁目２番１０号,,21,201,5020914,,,,,,,2024-07-30,1,,,,,グローブメゾンユーアンドエス,0
1827,8220001026122,新規,0,2024-07-30,2024-07-30,株式会社トルク,,株式会社,石川県,河北郡内灘町,字鶴ケ丘３丁目１３８番地５７,,17,365,9200271,,,,,,,2024-07-30,1,,,,,トルク,0
1836,8240003006780,新規,0,2024-07-30,2024-07-30,Ｓｏｌｕｎａ合同会社,,合同会社,広島県,安芸郡府中町,八幡３丁目１１番１‐６０１号,,34,302,7350012,,,,,,,2024-07-30,1,,,,,ソルーナ,0
1839,8260001039310,新規,0,2024-07-30,2024-07-30,株式会社奨平,,株式会社,岡山県,岡山市北区,京橋町９番２０号,,33,101,7000831,,,,,,,2024-07-30,1,,,,,ショウヘイ,0
1845,8290001106586,新規,0,2024-07-30,2024-07-30,株式会社ＥＴＯＩＬＥ,,株式会社,福岡県,福岡市中央区,大名２丁目１番４３号４０２号,,40,133,8100041,,,,,,,2024-07-30,1,,,,,エトワール,0
1848,8290005019446,新規,0,2024-07-30,2024-07-30,一般社団法人ＳＴＡＴＩＣＥ,,その他の設立登記法人,福岡県,福岡市博多区,光丘町２丁目２－１１,,40,132,8120874,,,,,,,2024-07-30,1,,,,,スターチス,0
1853,8330001032282,新規,0,2024-07-30,2024-07-30,Ｓｅａ　Ｆｏｕｒホールディングス株式会社,,株式会社,熊本県,山鹿市,方保田１０１３番地１,,43,208,8610382,,,,,,,2024-07-30,1,,,,,シーフォーホールディングス,0
1861,8360001034004,新規,0,2024-07-30,2024-07-30,株式会社奇才,,株式会社,沖縄県,うるま市,字宮里６２番地３,,47,213,9042243,,,,,,,2024-07-30,1,,,,,キサイ,0
1862,8360003014185,新規,0,2024-07-30,2024-07-30,合同会社ＴＳプラン,,合同会社,沖縄県,島尻郡八重瀬町,字東風平１４３３番地６,,47,362,9010401,,,,,,,2024-07-30,1,,,,,ティーエスプラン,0
1865,8370005010826,新規,0,2024-07-30,2024-07-30,一般社団法人リノレア,,その他の設立登記法人,宮城県,名取市,高舘熊野堂字岩口下４５番地３,,04,207,9811241,,,,,,,2024-07-30,1,,,,,リノレア,0
1870,8400005008429,新規,0,2024-07-30,2024-07-30,もりおか税理士法人,,その他の設立登記法人,岩手県,盛岡市,神明町１０番１５号,,03,201,0200884,,,,,,,2024-07-30,1,,,,,モリオカ,0
1882,8430001092325,新規,0,2024-07-30,2024-07-30,株式会社プラスワン,,株式会社,北海道,札幌市北区,新琴似六条１４丁目３番６号,,01,102,0010906,,,,,,,2024-07-30,1,,,,,プラスワン,0
1889,8500001025772,新規,0,2024-07-30,2024-07-30,株式会社山総合建設,,株式会社,愛媛県,松山市,南久米町７７０番地９,,38,201,7900924,,,,,,,2024-07-30,1,,,,,ヤマソウゴウケンセツ,0
1890,8500003003289,新規,0,2024-07-30,2024-07-30,合同会社ＭＨＴ,,合同会社,愛媛県,松山市,一番町１丁目６番１６号インペリアル一番町５０１,,38,201,7900001,,,,,,,2024-07-30,1,,,,,エムエイチティー,0
1892,9010001246954,新規,0,2024-07-30,2024-07-30,株式会社アイディール,,株式会社,東京都,中央区,日本橋室町１丁目１１番１２号日本橋室町７階,,13,102,1030022,,,,,,,2024-07-30,1,,,,,アイディール,0
1894,9010003044472,新規,0,2024-07-30,2024-07-30,Ｇｒｏｗｔｈ　ａｎｄ　Ｐｒｏｇｒｅｓｓ合同会社,,合同会社,東京都,中央区,京橋３丁目３－１３平和ビル３号館３Ｆ,,13,102,1040031,,,,,,,2024-07-30,1,,,,,グロースアンドプログレス,0
1895,9010103002396,新規,0,2024-07-30,2024-07-30,合同会社アルバライズ,,合同会社,東京都,八王子市,堀之内２丁目２８－１３,,13,201,1920355,,,,,,,2024-07-30,1,,,,,アルバライズ,0
1903,9010501052679,新規,0,2024-07-30,2024-07-30,東京怡和株式会社,,株式会社,東京都,台東区,千束３丁目２１－１２－２０１号室,,13,106,1110031,,,,,,,2024-07-30,1,,,,,トウキョウイワ,0
1908,9010603010989,新規,0,2024-07-30,2024-07-30,合同会社ＲＯＯＴＳ,,合同会社,東京都,江東区,白河４丁目９番１６－１４０３号,,13,108,1350021,,,,,,,2024-07-30,1,,,,,ルーツ,0
1912,9010801035268,新規,0,2024-07-30,2024-07-30,株式会社パッショナーズ,,株式会社,東京都,大田区,蒲田５丁目２２－３蒲田モーリス５０１,,13,111,1440052,,,,,,,2024-07-30,1,,,,,パッショナーズ,0
1915,9011001163636,新規,0,2024-07-30,2024-07-30,株式会社ｅｓｐｏ‐ｉｒ,,株式会社,東京都,目黒区,柿の木坂１丁目２７番２５号Ｎｅｍｏ柿の木坂Ｃ,,13,110,1520022,,,,,,,2024-07-30,1,,,,,エスポア,0
1916,9011001163693,新規,0,2024-07-30,2024-07-30,株式会社Ｒ＆Ｍアドバイザーズ,,株式会社,東京都,渋谷区,道玄坂２丁目１５番１－１０２０号,,13,113,1500043,,,,,,,2024-07-30,1,,,,,アールアンドエムアドバイザーズ,0
1917,9011001163710,新規,0,2024-07-30,2024-07-30,一文株式会社,,株式会社,東京都,渋谷区,神泉町８番１０号メゾン神泉１０２,,13,113,1500045,,,,,,,2024-07-30,1,,,,,イチブン,0
1922,9011101108219,新規,0,2024-07-30,2024-07-30,Ｌａｎｓｕｓ　Ｔｅｃｈｎｏｌｏｇｉｅｓ　Ｊａｐａｎ株式会社,,株式会社,東京都,新宿区,西新宿１丁目２０番３号西新宿高木ビル７Ｆ・８Ｆ,00135735,13,104,1600023,,,,,,,2024-07-30,1,,,,,ランサステクノロジーズジャパン,0
1928,9011501030971,新規,0,2024-07-30,2024-07-30,株式会社ＴＬＡＬＯＣ　ＢＬＵＥ,,株式会社,東京都,北区,西ケ原１丁目１番３号,,13,117,1140024,,,,,,,2024-07-30,1,,,,,トラロクブルー,0
1929,9011501030988,新規,0,2024-07-30,2024-07-30,ＰＩＥＣＥ　ＩＮＣＬＵＤＥ株式会社,,株式会社,東京都,北区,岩淵町２番２－２０１号,,13,117,1150041,,,,,,,2024-07-30,1,,,,,ピースインクルード,0
1934,9011801044597,新規,0,2024-07-30,2024-07-30,株式会社Ｅｅｅｚａ,,株式会社,東京都,葛飾区,東新小岩７丁目２１番４号,,13,122,1240023,,,,,,,2024-07-30,1,,,,,イーザ,0
1935,9012401042132,新規,0,2024-07-30,2024-07-30,Ｈｏｒｉｚｏｎ　Ｄｏｏｍ株式会社,,株式会社,東京都,多摩市,関戸１丁目２０番地の１ブリリアタワー聖蹟桜ヶ丘ブルーミングレジデンス２８１２,,13,224,2060011,,,,,,,2024-07-30,1,,,,,ホライゾンドゥーム,0
1942,9020001158249,新規,0,2024-07-30,2024-07-30,株式会社三和美,,株式会社,神奈川県,川崎市宮前区,西野川１丁目１７番２号,,14,136,2160044,,,,,,,2024-07-30,1,,,,,ミワビ,0
1943,9020001158257,新規,0,2024-07-30,2024-07-30,株式会社長融,,株式会社,神奈川県,横浜市中区,伊勢佐木町５丁目１２７番地１３伊勢佐木町ロイヤル４０２号室,,14,104,2310045,,,,,,,2024-07-30,1,,,,,チョウユウ,0
1947,9021001082827,新規,0,2024-07-30,2024-07-30,株式会社ロード,,株式会社,神奈川県,秦野市,南矢名８０６番地の１青葉ハイツ２０３号,,14,211,2570003,,,,,,,2024-07-30,1,,,,,ロード,0
1958,9040001134628,新規,0,2024-07-30,2024-07-30,隆盛再生資源株式会社,,株式会社,千葉県,市原市,犬成１０１９番地４,,12,219,2900166,,,,,,,2024-07-30,1,,,,,リュウセイサイセイシゲン,0
1959,9040001134727,新規,0,2024-07-30,2024-07-30,株式会社ｙｕｋａ,,株式会社,千葉県,市川市,東国分１丁目２５番８号,,12,203,2720833,,,,,,,2024-07-30,1,,,,,ユカ,0
1964,9040003025453,新規,0,2024-07-30,2024-07-30,ＭＹＧ合同会社,,合同会社,千葉県,柏市,十余二２４９－３５９,,12,217,2770872,,,,,,,2024-07-30,1,,,,,エムワイジー,0
1965,9040003025503,新規,0,2024-07-30,2024-07-30,合同会社成実企画,,合同会社,千葉県,市川市,南大野１丁目４３番６号,,12,203,2720804,,,,,,,2024-07-30,1,,,,,ナルミキカク,0
1971,9050001055154,新規,0,2024-07-30,2024-07-30,株式会社シャイン,,株式会社,茨城県,つくば市,要１６６番地２,,08,220,3002622,,,,,,,2024-07-30,1,,,,,シャイン,0
1978,9070001042027,新規,0,2024-07-30,2024-07-30,株式会社ｋａｌｏｎｓ１,,株式会社,群馬県,前橋市,関根町３丁目１２番地３０,,10,201,3710047,,,,,,,2024-07-30,1,,,,,カロンズワン,0
1979,9070003005527,新規,0,2024-07-30,2024-07-30,ブルームゲート合同会社,,合同会社,群馬県,渋川市,石原１８０６番地１,,10,208,3770007,,,,,,,2024-07-30,1,,,,,,0
1984,9080101024915,新規,0,2024-07-30,2024-07-30,株式会社富士山浪漫之旅,,株式会社,静岡県,沼津市,常盤町３丁目１２番地の２エンゼルハイム常盤町１０１室,,22,203,4100853,,,,,,,2024-07-30,1,,,,,フジサンロマンノタビ,0
1999,9120001267246,新規,0,2024-07-30,2024-07-30,ＭＫＴＳ株式会社,,株式会社,大阪府,大阪市中央区,淡路町２丁目１番１号,,27,128,5410047,,,,,,,2024-07-30,1,,,,,エムケーティーエス,0
2000,9120001267270,新規,0,2024-07-30,2024-07-30,株式会社豊栄管理,,株式会社,大阪府,大阪市西区,立売堀１丁目９番１３号,,27,106,5500012,,,,,,,2024-07-30,1,,,,,ホウエイカンリ,0
2004,9120101070070,新規,0,2024-07-30,2024-07-30,株式会社ＴＳＨ,,株式会社,大阪府,藤井寺市,大井３丁目２－３４,,27,226,5830008,,,,,,,2024-07-30,1,,,,,ティーエスエイチ,0
2005,9120901049520,新規,0,2024-07-30,2024-07-30,株式会社アウワ,,株式会社,大阪府,豊中市,新千里南町１丁目１０番７号,,27,203,5600084,,,,,,,2024-07-30,1,,,,,アウワ,0
2011,9130005017150,新規,0,2024-07-30,2024-07-30,医療法人たかあきクリニック,,その他の設立登記法人,京都府,京都市下京区,中堂寺坊城町３１番７,,26,106,6008811,,,,,,,2024-07-30,1,,,,,タカアキクリニック,0
2033,9180001162425,新規,0,2024-07-30,2024-07-30,Ｖｅｈｉｃｌｅ　Ｓｔｏｒｅ株式会社,,株式会社,愛知県,瀬戸市,幡野町３６２番地,,23,204,4890874,,,,,,,2024-07-30,1,,,,,ビークルストア,0
2034,9180001162466,新規,0,2024-07-30,2024-07-30,サンライズ開発株式会社,,株式会社,愛知県,瀬戸市,苗場町４８番地の２スペリア瀬戸１００６,,23,204,4890983,,,,,,,2024-07-30,1,,,,,サンライズカイハツ,0
2035,9180001162482,新規,0,2024-07-30,2024-07-30,株式会社ジラフ,,株式会社,愛知県,江南市,赤童子町良原９９番地,,23,217,4838227,,,,,,,2024-07-30,1,,,,,ジラフ,0
2036,9180001162490,新規,0,2024-07-30,2024-07-30,金陽株式会社,,株式会社,愛知県,名古屋市中区,錦２丁目１６番４号,,23,106,4600003,,,,,,,2024-07-30,1,,,,,キンヨウ,0
2037,9180001162499,新規,0,2024-07-30,2024-07-30,株式会社ＷＴＭコーポレーション,,株式会社,愛知県,瀬戸市,西米泉町９２番地,,23,204,4890943,,,,,,,2024-07-30,1,,,,,ダブルティーエムコーポレーション,0
2038,9180001162549,新規,0,2024-07-30,2024-07-30,株式会社陰キャラ４７,,株式会社,愛知県,あま市,二ツ寺三本松１２５番地２,,23,237,4901207,,,,,,,2024-07-30,1,,,,,インキャラフォーティーセブン,0
2051,9200001042756,新規,0,2024-07-30,2024-07-30,ＳＫ８株式会社,,株式会社,岐阜県,大垣市,上石津町一之瀬７４８番地,,21,202,5031614,,,,,,,2024-07-30,1,,,,,エスケーエイト,0
2052,9200001042764,新規,0,2024-07-30,2024-07-30,株式会社ＴＯＲＩＹＯＳＨＩ,,株式会社,岐阜県,羽島市,正木町新井８５７番地,,21,209,5016225,,,,,,,2024-07-30,1,,,,,トリヨシ,0
2058,9250001020740,新規,0,2024-07-30,2024-07-30,株式会社橋本組,,株式会社,山口県,岩国市,周東町下久原２５８１番地２,,35,208,7420417,,,,,,,2024-07-30,1,,,,,ハシモトグミ,0
2067,9290001106692,新規,0,2024-07-30,2024-07-30,宮城名酒株式会社,,株式会社,福岡県,福岡市東区,松島１丁目４３番８－７０７号アルファスマート松島,,40,131,8120062,,,,,,,2024-07-30,1,,,,,ミヤギメイシュ,0
2069,9290801030729,新規,0,2024-07-30,2024-07-30,株式会社ＧＯＯＤＷＥＬＬ,,株式会社,福岡県,北九州市若松区,浜町１丁目５番３号,,40,103,8080024,,,,,,,2024-07-30,1,,,,,グッドウェル,0
2070,9300001013846,新規,0,2024-07-30,2024-07-30,株式会社ＫＰＴ,,株式会社,佐賀県,佐賀市,巨勢町大字牛島４８３番地７,,41,201,8400008,,,,,,,2024-07-30,1,,,,,ケーピーティー,0
2074,9330001032281,新規,0,2024-07-30,2024-07-30,株式会社ＡｒｔＸ阿蘇,,株式会社,熊本県,阿蘇市,永草字堤１９４３番地２８,,43,214,8692231,,,,,,,2024-07-30,1,,,,,アートエックスアソ,0
2075,9330003010491,新規,0,2024-07-30,2024-07-30,合同会社クローバー,,合同会社,熊本県,山鹿市,鹿本町中川２１６番地,,43,208,8610314,,,,,,,2024-07-30,1,,,,,クローバー,0
2079,9360001034003,新規,0,2024-07-30,2024-07-30,株式会社ｃｏｅｂ,,株式会社,沖縄県,那覇市,銘苅２丁目３－６－２０２号,,47,201,9000004,,,,,,,2024-07-30,1,,,,,コエビィ,0
2081,9370003006692,新規,0,2024-07-30,2024-07-30,ルブリカント合同会社,,合同会社,宮城県,仙台市泉区,紫山５丁目１７番地の７,,04,105,9813205,,,,,,,2024-07-30,1,,,,,ルブリカント,0
2083,9420005007915,新規,0,2024-07-30,2024-07-30,農事組合法人北五ファーム,,その他の設立登記法人,青森県,北津軽郡中泊町,大字田茂木字望月３４４番地,,02,387,0370318,,,,,,,2024-07-30,1,,,,,キタゴファーム,0
2087,9430003016603,新規,0,2024-07-30,2024-07-30,合同会社訪問介護あさがお,,合同会社,北海道,苫小牧市,桜木町２丁目２３番２１号桜木コーポ１０１号,,01,213,0530832,,,,,,,2024-07-30,1,,,,,ホウモンカイゴアサガオ,0
2088,9430003016611,新規,0,2024-07-30,2024-07-30,合同会社Ｌｉｌａｎ,,合同会社,北海道,札幌市南区,澄川四条７丁目５番２０－１号,,01,106,0050004,,,,,,,2024-07-30,1,,,,,リラン,0
2093,9490001010825,新規,0,2024-07-30,2024-07-30,株式会社タケナカ,,株式会社,高知県,高岡郡日高村,下分１１５０番地,,39,410,7812151,,,,,,,2024-07-30,1,,,,,,0
2094,9700150029363,新規,0,2024-07-30,2015-10-09,網干交通安全協会,,その他,兵庫県,姫路市,網干区新在家１２８７－４,,28,201,6711234,,,,,,,2015-10-09,1,,,,,アボシコウツウアンゼンキヨウカイ,0
2095,9700150125807,新規,0,2024-07-30,2024-06-07,ロイヤルシャトー北５条管理組合,,その他,北海道,札幌市東区,北五条東１１丁目１６－２,,01,103,0650005,,,,,,,2024-06-07,1,,,,,ロイヤルシヤトーキタゴジヨウカンリクミアイ,0
