sequenceNumber,corporateNumber,process,correct,updateDate,changeDate,name,nameImageId,kind,prefectureName,cityName,streetNumber,addressImageId,prefectureCode,cityCode,postCode,addressOutside,addressOutsideImageId,closeDate,closeCause,successorCorporateNumber,changeCause,assignmentDate,latest,enName,enPrefectureName,enCityName,enAddressOutside,furigana,hihyoji
10,1010001261721,新規,0,2026-01-27,2026-01-27,サンゴバン・セキュリット・ジャパン株式会社,,株式会社,東京都,千代田区,麹町３丁目７番地,,13,101,1020083,,,,,,,2026-01-27,1,,,,,サンゴバンセキュリットジャパン,0
11,1010001261977,新規,0,2026-01-27,2026-01-27,株式会社エスリンク事業移管準備会社,,株式会社,東京都,千代田区,平河町１丁目１番８号,,13,101,1020093,,,,,,,2026-01-27,1,,,,,エスリンクジギョウイカンジュンビガイシャ,0
12,1010001262190,新規,0,2026-01-27,2026-01-27,株式会社ＢＣＭ４１,,株式会社,東京都,中央区,京橋２丁目２番１号,,13,102,1040031,,,,,,,2026-01-27,1,,,,,ビーシーエムヨンジュウイチ,0
13,1010001262249,新規,0,2026-01-27,2026-01-27,株式会社フィールドベース,,株式会社,東京都,中央区,日本橋小網町８番２号,,13,102,1030016,,,,,,,2026-01-27,1,,,,,フィールドベース,0
26,1010401195940,新規,0,2026-01-27,2026-01-27,広福日通株式会社,,株式会社,東京都,港区,東新橋２丁目１８番４号１２１１,,13,103,1050021,,,,,,,2026-01-27,1,,,,,ヒロフクニッツウ,0
27,1010401196071,新規,0,2026-01-27,2026-01-27,株式会社ショーグン,,株式会社,東京都,港区,赤坂９丁目７番２号ミッドタウン・イースト４階,,13,103,1070052,,,,,,,2026-01-27,1,,,,,ショーグン,0
28,1010401196088,新規,0,2026-01-27,2026-01-27,Ｂｏｓｓｊｏｂ　Ｊａｐａｎ株式会社,,株式会社,東京都,港区,浜松町２丁目１２－１１Ｂｉｚｆｌｅｘ浜松町７階,,13,103,1050013,,,,,,,2026-01-27,1,,,,,ボスジョブジャパン,0
33,1010403037133,新規,0,2026-01-27,2026-01-27,合同会社静,,合同会社,東京都,港区,南麻布１丁目６番３２号,,13,103,1060047,,,,,,,2026-01-27,1,,,,,シズ,0
34,1010403037166,新規,0,2026-01-27,2026-01-27,Ｎｙｘ　Ｃｒａｆｔ合同会社,,合同会社,東京都,港区,北青山１丁目３番１号,,13,103,1070061,,,,,,,2026-01-27,1,,,,,ニクスクラフト,0
37,1010505003677,新規,0,2026-01-27,2026-01-27,一般社団法人ＮＨ　ＷＡＴＣＨ　ＨＯＬＤＩＮＧＳ,,その他の設立登記法人,東京都,台東区,浅草橋１丁目３１番１２号,,13,106,1110053,,,,,,,2026-01-27,1,,,,,エヌエイチウォッチホールディングス,0
79,1010901058829,新規,0,2026-01-27,2026-01-27,株式会社ガンマン,,株式会社,東京都,世田谷区,世田谷２丁目２８番１１号,,13,112,1540017,,,,,,,2026-01-27,1,,,,,ガンマン,0
80,1010901058853,新規,0,2026-01-27,2026-01-27,株式会社ＳＥＮ　ＰＩＣＴＵＲＥＳ,,株式会社,東京都,世田谷区,成城５丁目１０番６号,,13,112,1570066,,,,,,,2026-01-27,1,,,,,センピクチャーズ,0
94,1011003023449,新規,0,2026-01-27,2026-01-27,ＹＹＨＢＢＦＭ合同会社,,合同会社,東京都,渋谷区,渋谷２丁目１９番１５号宮益坂ビルディング６０９,,13,113,1500002,,,,,,,2026-01-27,1,,,,,ワイワイエイチビービーエフエム,0
415,1011101114752,新規,0,2026-01-27,2026-01-27,株式会社ＨＰＬ,,株式会社,東京都,新宿区,西新宿３丁目３番１３号西新宿水間ビル２階,,13,104,1600023,,,,,,,2026-01-27,1,,,,,エイチピーエル,0
422,1011103016963,新規,0,2026-01-27,2026-01-27,合同会社ヒスイアセット,,合同会社,東京都,新宿区,四谷三栄町１２番４４－３号,,13,104,1600008,,,,,,,2026-01-27,1,,,,,ヒスイアセット,0
532,1011803007287,新規,0,2026-01-27,2026-01-27,合同会社Ａｎｏｒ,,合同会社,東京都,足立区,綾瀬５丁目１９番７－４０４号,,13,121,1200005,,,,,,,2026-01-27,1,,,,,アノール,0
540,1012801024497,新規,0,2026-01-27,2026-01-27,株式会社ＭａｒｋｅＦｕｌｌ,,株式会社,東京都,日野市,豊田４丁目３３番地の１０フェリーチェ豊田７０２,,13,212,1910053,,,,,,,2026-01-27,1,,,,,マーケフル,0
624,1020001166853,新規,0,2026-01-27,2026-01-27,翠電株式会社,,株式会社,神奈川県,横浜市栄区,笠間１丁目１０－３７,,14,115,2470006,,,,,,,2026-01-27,1,,,,,スイデン,0
625,1020001166903,新規,0,2026-01-27,2026-01-27,株式会社鴻禧,,株式会社,神奈川県,横浜市南区,中村町３丁目１９７番地２９,,14,105,2320033,,,,,,,2026-01-27,1,,,,,コウキ,0
701,1021001087338,新規,0,2026-01-27,2026-01-27,株式会社タナカ建築塗装,,株式会社,神奈川県,秦野市,南矢名５丁目２０番２０号,,14,211,2570003,,,,,,,2026-01-27,1,,,,,タナカケンチクトソウ,0
702,1021001087354,新規,0,2026-01-27,2026-01-27,コネクトパートナーズ株式会社,,株式会社,神奈川県,相模原市中央区,矢部１丁目２１番１７号,,14,152,2520232,,,,,,,2026-01-27,1,,,,,コネクトパートナーズ,0
750,1040001142225,新規,0,2026-01-27,2026-01-27,花守興産株式会社,,株式会社,千葉県,柏市,松葉町５丁目１番地１－８棟１０４号,,12,217,2770827,,,,,,,2026-01-27,1,,,,,ハナモリコウサン,0
754,1060001038958,新規,0,2026-01-27,2026-01-27,ラッコパートナーズ株式会社,,株式会社,栃木県,下野市,小金井１６４８番地,,09,216,3290414,,,,,,,2026-01-27,1,,,,,ラッコパートナーズ,0
755,1070001043759,新規,0,2026-01-27,2026-01-27,株式会社農ある暮らし,,株式会社,群馬県,高崎市,江木町５５９番地１,,10,202,3700046,,,,,,,2026-01-27,1,,,,,ノウアルクラシ,0
756,1070003006276,新規,0,2026-01-27,2026-01-27,ル・シャドール合同会社,,合同会社,群馬県,太田市,新野町９３３－２,,10,205,3730032,,,,,,,2026-01-27,1,,,,,ルシャドール,0
953,1120001283655,新規,0,2026-01-27,2026-01-27,Ｎｉｃｅ株式会社,,株式会社,大阪府,大阪市浪速区,難波中３丁目５番１７号８Ｆ,,27,111,5560011,,,,,,,2026-01-27,1,,,,,ナイス,0
968,1120003031748,新規,0,2026-01-27,2026-01-27,＿燦美粧国際合同会社,00142337,合同会社,大阪府,大阪市淀川区,木川西１丁目４番１９号ヴィラ木川５０２号,,27,123,5320013,,,,,,,2026-01-27,1,,,,,サイサンビショウコクサイ,0
986,1120005025376,新規,0,2026-01-27,2026-01-27,一般社団法人国際ボディケアセラピスト協会,,その他の設立登記法人,大阪府,大阪市北区,堂山町１７番８号,,27,127,5300027,,,,,,,2026-01-27,1,,,,,コクサイボディケアセラピストキョウカイ,0
1044,1120901052110,新規,0,2026-01-27,2026-01-27,株式会社Ｍｙ　Ｓｔｙｌｅ,,株式会社,大阪府,摂津市,新在家２丁目２７番２号,,27,224,5660055,,,,,,,2026-01-27,1,,,,,マイスタイル,0
1049,1122003003446,新規,0,2026-01-27,2026-01-27,合同会社ルメリス,,合同会社,大阪府,東大阪市,長堂２丁目４－８,,27,227,5770056,,,,,,,2026-01-27,1,,,,,ルメリス,0
1524,1180001170377,新規,0,2026-01-27,2026-01-27,株式会社ＰＬｉｎｋｓ,,株式会社,愛知県,名古屋市中村区,名駅３丁目４‐１０アルティメイト名駅１ｓｔ２階,,23,105,4500002,,,,,,,2026-01-27,1,,,,,ピーリンクス,0
1525,1180001170451,新規,0,2026-01-27,2026-01-27,株式会社ジックス,,株式会社,愛知県,名古屋市北区,田幡１丁目４番１２号,,23,103,4620843,,,,,,,2026-01-27,1,,,,,ジックス,0
1529,1180003029687,新規,0,2026-01-27,2026-01-27,合同会社Ｍ,,合同会社,愛知県,名古屋市守山区,瀬古３丁目１４０８番,,23,113,4630068,,,,,,,2026-01-27,1,,,,,エム,0
1544,1260005011569,新規,0,2026-01-27,2026-01-27,一般社団法人実育秀自然共栄研究所,,その他の設立登記法人,岡山県,瀬戸内市,邑久町庄田１１６４番地,,33,212,7014211,,,,,,,2026-01-27,1,,,,,ミクヒデシゼンキョウエイケンキュウショ,0
1929,1330003011407,新規,0,2026-01-27,2026-01-27,合同会社ミナト,,合同会社,熊本県,熊本市中央区,下通２丁目１０番１５－８０３号,,43,101,8600807,,,,,,,2026-01-27,1,,,,,,0
2012,1430001096126,新規,0,2026-01-27,2026-01-27,株式会社晴天,,株式会社,北海道,札幌市白石区,北郷四条２丁目９番１号,,01,104,0030834,,,,,,,2026-01-27,1,,,,,セイテン,0
2015,1460003001089,新規,0,2026-01-27,2026-01-27,合同会社Ｃｕｏｒｅ,,合同会社,北海道,釧路市,住吉１丁目７番９号リトルバードＩＩ２０２,00142339,01,206,0850831,,,,,,,2026-01-27,1,,,,,クオーレ,0
2069,1700150134138,新規,0,2026-01-27,2026-01-27,白山市石立町土地区画整理組合,,その他,石川県,白山市,石立町１２７番地,,17,210,9240058,,,,,,,2026-01-27,1,,,,,ハクサンシイシダテマチトチクカクセイリクミアイ,0
2079,2010001261951,新規,0,2026-01-27,2026-01-27,株式会社Ｕｎｉｔｅｄ　Ｐｙｌｏｎ,,株式会社,東京都,千代田区,飯田橋３丁目４－３エレガンス飯田橋８０２号室,,13,101,1020072,,,,,,,2026-01-27,1,,,,,ユナイテッドパイロン,0
2080,2010001262314,新規,0,2026-01-27,2026-01-27,パームヘルスケア株式会社,,株式会社,東京都,千代田区,丸の内２丁目３番１号,,13,101,1000005,,,,,,,2026-01-27,1,,,,,パームヘルスケア,0
2081,2010101017048,新規,0,2026-01-27,2026-01-27,株式会社ＣＲＡＦＴ,,株式会社,東京都,八王子市,中野上町２丁目６番１５号,,13,201,1920041,,,,,,,2026-01-27,1,,,,,クラフト,0
2082,2010101017056,新規,0,2026-01-27,2026-01-27,プライムデザインワークス株式会社,,株式会社,東京都,八王子市,八幡町３番６－１２０３号,,13,201,1920053,,,,,,,2026-01-27,1,,,,,プライムデザインワークス,0
2092,2010401196062,新規,0,2026-01-27,2026-01-27,株式会社ＴＷＩＮＤＲＩＬＬ,,株式会社,東京都,港区,北青山１丁目３番１号アールキューブ青山３階,,13,103,1070061,,,,,,,2026-01-27,1,,,,,ツインドリル,0
2093,2010501055300,新規,0,2026-01-27,2026-01-27,株式会社Ａｄｎｅｋｔ,,株式会社,東京都,台東区,上野１丁目１７番６号広小路ビル８Ｆ－Ｂ,,13,106,1100005,,,,,,,2026-01-27,1,,,,,アドネクト,0
2096,2010601068631,新規,0,2026-01-27,2026-01-27,ＶｉｖａＧａｉｎ株式会社,,株式会社,東京都,江東区,塩浜１丁目６番８－１０４号,,13,108,1350043,,,,,,,2026-01-27,1,,,,,ビバゲイン,0
2100,2010603012042,新規,0,2026-01-27,2026-01-27,ＬＹＮＥＲＡ合同会社,,合同会社,東京都,江東区,越中島２丁目１２番２号,,13,108,1350044,,,,,,,2026-01-27,1,,,,,リネラ,0
2456,2011101114529,新規,0,2026-01-27,2026-01-27,エデン株式会社,,株式会社,東京都,新宿区,西新宿３丁目３番１３号西新宿水間ビル２Ｆ,,13,104,1600023,,,,,,,2026-01-27,1,,,,,エデン,0
2457,2011101114545,新規,0,2026-01-27,2026-01-27,株式会社Ａｐｉｒ,,株式会社,東京都,新宿区,歌舞伎町１丁目１１番１１号杉山ビル２Ｆ,,13,104,1600021,,,,,,,2026-01-27,1,,,,,アピリ,0
2458,2011101114685,新規,0,2026-01-27,2026-01-27,株式会社ワールド２ジャパン,,株式会社,東京都,新宿区,西新宿３丁目９－２イマス西新宿第一ビル３Ｆ－Ｂ,,13,104,1600023,,,,,,,2026-01-27,1,,,,,ワールドトゥージャパン,0
2463,2011103016921,新規,0,2026-01-27,2026-01-27,合同会社ｆａｉｒｙ,,合同会社,東京都,新宿区,新宿３丁目２３番３号新宿サンビル８階Ｂ号室,,13,104,1600022,,,,,,,2026-01-27,1,,,,,フェアリー,0
2491,2011405002421,新規,0,2026-01-27,2026-01-27,一般社団法人ウィンゲートスポーツ教育研究所,,その他の設立登記法人,東京都,板橋区,志村３丁目３１番２５号,,13,119,1740056,,,,,,,2026-01-27,1,,,,,ウィンゲートスポーツキョウイクケンキュウジョ,0
2592,2011601029334,新規,0,2026-01-27,2026-01-27,辰永工業株式会社,,株式会社,東京都,練馬区,大泉町６丁目１３番１０－１２０１,,13,120,1780062,,,,,,,2026-01-27,1,,,,,シンエイコウギョウ,0
2594,2011701029110,新規,0,2026-01-27,2026-01-27,ＳＢ　Ｎｉｐｐｏｎ株式会社,,株式会社,東京都,江戸川区,西葛西５丁目１番１１号,,13,123,1340088,,,,,,,2026-01-27,1,,,,,エスビーニッポン,0
2602,2012805003389,新規,0,2026-01-27,2026-01-27,一般社団法人全国障害者地域生活支援事業者連絡会,,その他の設立登記法人,東京都,国立市,中１丁目２０番１号浅見ビル,,13,215,1860004,,,,,,,2026-01-27,1,,,,,ゼンコクショウガイシャチイキセイカツシエンジギョウシャレンラクカイ,0
2692,2020001166885,新規,0,2026-01-27,2026-01-27,株式会社４ＹＯＵ　ＰＲＯＪＥＣＴ,,株式会社,神奈川県,横浜市都筑区,高山６番２２号,,14,118,2240065,,,,,,,2026-01-27,1,,,,,フォーユープロジェクト,0
2721,2020003030180,新規,0,2026-01-27,2026-01-27,Ｙ‐Ａｒｋ合同会社,,合同会社,神奈川県,横浜市西区,みなとみらい５丁目３番２－１５０８号,,14,103,2200012,,,,,,,2026-01-27,1,,,,,ワイアーク,0
2771,2021001087320,新規,0,2026-01-27,2026-01-27,株式会社神奈川建設特別教育センター,,株式会社,神奈川県,相模原市中央区,千代田２丁目１２番５号,,14,152,2520237,,,,,,,2026-01-27,1,,,,,カナガワケンセツトクベツキョウイクセンター,0
2795,2021003017060,新規,0,2026-01-27,2026-01-27,合同会社ひろまる,,合同会社,神奈川県,平塚市,大神６丁目７番１１号,,14,203,2540012,,,,,,,2026-01-27,1,,,,,ヒロマル,0
2806,2030001170556,新規,0,2026-01-27,2026-01-27,株式会社こどもまんなか応援団,,株式会社,埼玉県,鴻巣市,雷電１丁目３番３５号,,11,217,3650077,,,,,,,2026-01-27,1,,,,,コドモマンナカオウエンダン,0
2809,2030003028513,新規,0,2026-01-27,2026-01-27,合同会社ＡＢＳ,,合同会社,埼玉県,川口市,弥平１丁目１９番地１１,,11,203,3320002,,,,,,,2026-01-27,1,,,,,エービーエス,0
2813,2040001142265,新規,0,2026-01-27,2026-01-27,株式会社ロジエステート,,株式会社,千葉県,千葉市緑区,おゆみ野有吉３番地２,,12,105,2660034,,,,,,,2026-01-27,1,,,,,ロジエステート,0
2854,2110003006056,新規,0,2026-01-27,2026-01-27,合同会社トリプルウィン・アドバイザーズ,,合同会社,新潟県,胎内市,西栄町７番２３号,,15,227,9592646,,,,,,,2026-01-27,1,,,,,トリプルウィンアドバイザーズ,0
3036,2120001283621,新規,0,2026-01-27,2026-01-27,株式会社こののキャリア,,株式会社,大阪府,大阪市港区,南市岡３丁目１０番２１－２２０号,,27,107,5520011,,,,,,,2026-01-27,1,,,,,コノノキャリア,0
3050,2120003031739,新規,0,2026-01-27,2026-01-27,合同会社ミライクリエイト,,合同会社,大阪府,大阪市淀川区,加島４丁目１０－１４,,27,123,5320031,,,,,,,2026-01-27,1,,,,,ミライクリエイト,0
3120,2130001081454,新規,0,2026-01-27,2026-01-27,株式会社Ｖａｎｉ＆Ｓａｌ,,株式会社,京都府,京都市伏見区,深草大亀谷安信町４５番地,,26,109,6120836,,,,,,,2026-01-27,1,,,,,バニアンドソル,0
3121,2130001081479,新規,0,2026-01-27,2026-01-27,株式会社エスト出版,,株式会社,京都府,京都市下京区,中堂寺櫛笥町１８番地１２,,26,106,6008802,,,,,,,2026-01-27,1,,,,,エストシュッパン,0
3514,2140001141488,新規,0,2026-01-27,2026-01-27,ワイルドフロント株式会社,,株式会社,兵庫県,加古川市,加古川町木村４８２番地の５,,28,210,6750038,,,,,,,2026-01-27,1,,,,,ワイルドフロント,0
3533,2150001028692,新規,0,2026-01-27,2026-01-27,株式会社ＥＬＰＩＳ,,株式会社,奈良県,大和郡山市,額田部北町２３６－１,,29,203,6391037,,,,,,,2026-01-27,1,,,,,エルピス,0
3534,2150005009755,新規,0,2026-01-27,2026-01-27,無限責任古大野負債整理組合,,その他の設立登記法人,奈良県,宇陀市,大字三本松,,29,212,6330200,,,,,,,2026-01-27,1,,,,,ムゲンセキニンフロノ,0
3562,2180003029538,新規,0,2026-01-27,2026-01-27,シェア・ミカルス合同会社,,合同会社,愛知県,小牧市,大字本庄５７―１２,,23,219,4850821,,,,,,,2026-01-27,1,,,,,シェアミカルス,0
3563,2180003029694,新規,0,2026-01-27,2026-01-27,合同会社ＥＮＥＲＧＹＣＯＮＮＥＣＴ,,合同会社,愛知県,名古屋市名東区,藤森２丁目２８９番地の１サングレイ本郷１０１号,,23,115,4650026,,,,,,,2026-01-27,1,,,,,エナジーコネクト,0
3564,2180005021410,新規,0,2026-01-27,2026-01-27,一般社団法人ＭＩＲＡＩＺ,,その他の設立登記法人,愛知県,名古屋市中区,栄２丁目６番１７号,,23,106,4600008,,,,,,,2026-01-27,1,,,,,ミライズ,0
3574,2230001021268,新規,0,2026-01-27,2026-01-27,株式会社オレンジフルール,,株式会社,富山県,富山市,布瀬本町１５番地１８,,16,201,9398207,,,,,,,2026-01-27,1,,,,,オレンジフルール,0
3578,2260001040934,新規,0,2026-01-27,2026-01-27,株式会社Ｅ‐ＳＥＣＴ,,株式会社,岡山県,笠岡市,白石島２６０番地,,33,205,7140036,,,,,,,2026-01-27,1,,,,,イーセクト,0
3582,2280001009572,新規,0,2026-01-27,2026-01-27,コダマホールディングス株式会社,,株式会社,島根県,松江市,西嫁島２丁目８番２３号,,32,201,6900048,,,,,,,2026-01-27,1,,,,,コダマホールディングス,0
3950,2300001014487,新規,0,2026-01-27,2026-01-27,株式会社大島電気管理サービス,,株式会社,佐賀県,三養基郡みやき町,大字寄人５５９番地,,41,346,8401105,,,,,,,2026-01-27,1,,,,,オオシマデンキカンリサービス,0
4055,2430001096117,新規,0,2026-01-27,2026-01-27,株式会社ＳＳＫＣ,,株式会社,北海道,札幌市豊平区,月寒東二条３丁目８番１８号,,01,105,0620052,,,,,,,2026-01-27,1,,,,,エスエスケーシー,0
4056,2430001096125,新規,0,2026-01-27,2026-01-27,株式会社サンホーム,,株式会社,北海道,札幌市北区,北三十五条西１０丁目３番１２－２１０号,,01,102,0010035,,,,,,,2026-01-27,1,,,,,サンホーム,0
4117,2470001021070,新規,0,2026-01-27,2026-01-27,株式会社Ｒｅｎｅｗ,,株式会社,香川県,高松市,川島東町８７８番地,,37,201,7610443,,,,,,,2026-01-27,1,,,,,リニュウ,0
4122,2480005007123,新規,0,2026-01-27,2026-01-27,一般財団法人姫野育英財団,,その他の設立登記法人,徳島県,徳島市,佐古八番町５番７号,,36,201,7700028,,,,,,,2026-01-27,1,,,,,ヒメノイクエイザイダン,0
4130,2500001026751,新規,0,2026-01-27,2026-01-27,株式会社ＫＡＳ,,株式会社,愛媛県,松山市,堀江町甲３３９番地２,,38,201,7992651,,,,,,,2026-01-27,1,,,,,ケイエーエス,0
4144,3010001261926,新規,0,2026-01-27,2026-01-27,株式会社Ｊｏｌｔ,,株式会社,東京都,千代田区,神田神保町２丁目１０－３１ＩＷビル１Ｆ,,13,101,1010051,,,,,,,2026-01-27,1,,,,,ジョルト,0
4145,3010001262263,新規,0,2026-01-27,2026-01-27,株式会社ドメーヌレイカ,,株式会社,東京都,中央区,銀座７丁目３番１３号ニューギンザビル１号館１０階４Ａ号室,,13,102,1040061,,,,,,,2026-01-27,1,,,,,ドメーヌレイカ,0
4152,3010005041283,新規,0,2026-01-27,2026-01-27,ホリデイ特定目的会社,,その他の設立登記法人,東京都,千代田区,丸の内１丁目４番１号東京共同会計事務所内,,13,101,1000005,,,,,,,2026-01-27,1,,,,,ホリデイ,0
4154,3010101017055,新規,0,2026-01-27,2026-01-27,株式会社ＬＵＸ　ＡＩＲ,,株式会社,東京都,八王子市,楢原町５５０番地２ＣＡＳＡ花の木Ｂ棟,,13,201,1930803,,,,,,,2026-01-27,1,,,,,ラックスエアー,0
4166,3010403037098,新規,0,2026-01-27,2026-01-27,ＩＦＲＳ‐ＬＡＢＯ合同会社,,合同会社,東京都,港区,六本木３丁目１６番２６号六本木ＫＳビル５Ｆ,,13,103,1060032,,,,,,,2026-01-27,1,,,,,イファースラボ,0
4171,3010603012041,新規,0,2026-01-27,2026-01-27,合同会社ｋｏｂａｋｏ,,合同会社,東京都,江東区,佐賀１丁目８番４－７０５号,,13,108,1350031,,,,,,,2026-01-27,1,,,,,コバコ,0
4172,3010605004549,新規,0,2026-01-27,2026-01-27,一般社団法人シームリンクメディカル,,その他の設立登記法人,東京都,江東区,東陽５丁目２９－３６－２０１,,13,108,1350016,,,,,,,2026-01-27,1,,,,,シームリンクメディカル,0
4180,3010801036998,新規,0,2026-01-27,2026-01-27,株式会社ヤオフジ,,株式会社,東京都,大田区,大森北２丁目１２－８－２０３,,13,111,1430016,,,,,,,2026-01-27,1,,,,,ヤオフジ,0
4217,3011001016898,新規,0,2026-01-27,2026-01-27,南住綜合開発株式会社,,株式会社,東京都,渋谷区,千駄ヶ谷２丁目２番１号,,13,113,1510051,,,,,,,2026-01-27,1,,,,,ナンジュウソウゴウカイハツ,0
4226,3011001174985,新規,0,2026-01-27,2026-01-27,株式会社Ｓｍａｓｈ　Ｓｃｕｄｅｒｉａ,,株式会社,東京都,目黒区,下目黒１丁目１－１４コノトラビル７階,,13,110,1530064,,,,,,,2026-01-27,1,,,,,スマッシュスクーデリア,0
4227,3011001175091,新規,0,2026-01-27,2026-01-27,株式会社Ａｚｏｔｅ　Ｔｒａｄｉｎｇ,,株式会社,東京都,渋谷区,道玄坂１丁目１０番８号渋谷道玄坂東急ビル２Ｆ－Ｃ,,13,113,1500043,,,,,,,2026-01-27,1,,,,,アゾートトレーディング,0
4228,3011001175133,新規,0,2026-01-27,2026-01-27,株式会社ＳＮＳプロモーション,,株式会社,東京都,渋谷区,代々木１丁目３１番１５号,,13,113,1510053,,,,,,,2026-01-27,1,,,,,エスエヌエスプロモーション,0
4229,3011001175182,新規,0,2026-01-27,2026-01-27,株式会社起源,,株式会社,東京都,渋谷区,道玄坂１丁目１０番８号渋谷道玄坂東急ビル２Ｆ－Ｃ,,13,113,1500043,,,,,,,2026-01-27,1,,,,,キゲン,0
4529,3011101114528,新規,0,2026-01-27,2026-01-27,ヘルスプラスケア株式会社,,株式会社,東京都,新宿区,西新宿７丁目３－１０・２１山京ビル２階,,13,104,1600023,,,,,,,2026-01-27,1,,,,,ヘルスプラスケア,0
4566,3011203004932,新規,0,2026-01-27,2026-01-27,合同会社マルサン商事,,合同会社,東京都,中野区,東中野４丁目１０番１７－２０１号,,13,114,1640003,,,,,,,2026-01-27,1,,,,,マルサンショウジ,0
4569,3011401027751,新規,0,2026-01-27,2026-01-27,武川商事株式会社,,株式会社,東京都,板橋区,板橋１丁目３３－７ラティエラ板橋１００７号室,,13,119,1730004,,,,,,,2026-01-27,1,,,,,ムカワショウジ,0
4570,3011405002420,新規,0,2026-01-27,2026-01-27,一般社団法人日本臨床アセスメント＆ケア看護学会,,その他の設立登記法人,東京都,板橋区,加賀２丁目１１－１,,13,119,1730003,,,,,,,2026-01-27,1,,,,,ニホンリンショウアセスメントアンドケアカンゴガッカイ,0
4651,3011503006843,新規,0,2026-01-27,2026-01-27,合同会社ジョブエージェント,,合同会社,東京都,北区,王子本町１丁目１４番１０－８０１号ＭＯＮＯＬＩＴＨ,,13,117,1140022,,,,,,,2026-01-27,1,,,,,ジョブエージェント,0
4659,3011801047366,新規,0,2026-01-27,2026-01-27,株式会社Ｎａｋａｍａ　Ｖｉｓｉｏｎ,,株式会社,東京都,足立区,加平３丁目１０番１１－６０２号,,13,121,1210055,,,,,,,2026-01-27,1,,,,,ナカマビジョン,0
4660,3012301014690,新規,0,2026-01-27,2026-01-27,株式会社Ｅｑｕｉｔｅｃｈ,,株式会社,東京都,町田市,中町１丁目２番５号ＳＨＥＬＬＭＩＹＡＫＯＶ３Ｆ,,13,209,1940021,,,,,,,2026-01-27,1,,,,,エクイテック,0
4661,3012401044068,新規,0,2026-01-27,2026-01-27,株式会社Ｃｒｅｚｉａ　Ｓｏｌｕｔｉｏｎｓ,,株式会社,東京都,多摩市,桜ヶ丘１丁目４９番地の２,,13,224,2060013,,,,,,,2026-01-27,1,,,,,クレジアソリューションズ,0
4662,3012701019265,新規,0,2026-01-27,2026-01-27,株式会社鋏の若菜,,株式会社,東京都,清瀬市,中里３丁目９７５番地１１,,13,221,2040003,,,,,,,2026-01-27,1,,,,,ハサミノワカナ,0
4750,3020001166835,新規,0,2026-01-27,2026-01-27,株式会社Ｒａｄｉｃａｌ　Ｐａｒｔｎｅｒｓ,,株式会社,神奈川県,横浜市神奈川区,片倉１丁目１７番１７－５０２号,,14,102,2210865,,,,,,,2026-01-27,1,,,,,ラジカルパートナーズ,0
4771,3020003030213,新規,0,2026-01-27,2026-01-27,ＦＥＬＩＸＡ合同会社,,合同会社,神奈川県,川崎市中原区,小杉町１丁目５４３番地２５,,14,133,2110063,,,,,,,2026-01-27,1,,,,,フェリクサ,0
4778,3020005017126,新規,0,2026-01-27,2026-01-27,一般社団法人日本東方芸術研究院,,その他の設立登記法人,神奈川県,川崎市幸区,中幸町４丁目２３－５北山画廊,,14,132,2120012,,,,,,,2026-01-27,1,,,,,ニホントウホウゲイジュツケンキュウイン,0
4850,3021003017027,新規,0,2026-01-27,2026-01-27,インターセクション合同会社,,合同会社,神奈川県,藤沢市,鵠沼松が岡３丁目２１番１１号,,14,205,2510038,,,,,,,2026-01-27,1,,,,,インターセクション,0
4861,3040001142207,新規,0,2026-01-27,2026-01-27,株式会社瑞桜解体,,株式会社,千葉県,香取市,八日市場３５番地６,,12,236,2890311,,,,,,,2026-01-27,1,,,,,ミオカイタイ,0
4864,3060001038964,新規,0,2026-01-27,2026-01-27,株式会社栃木日化ホールディングス,,株式会社,栃木県,宇都宮市,海道町５１１番地３,,09,201,3210971,,,,,,,2026-01-27,1,,,,,トチギニッカホールディングス,0
4865,3060003005938,新規,0,2026-01-27,2026-01-27,ナスライフ合同会社,,合同会社,栃木県,那須塩原市,東三島１丁目１０４番地１６５,,09,213,3292751,,,,,,,2026-01-27,1,,,,,ナスライフ,0
5062,3120001283389,新規,0,2026-01-27,2026-01-27,マツモトホーム株式会社,,株式会社,大阪府,大阪市北区,大淀中１丁目１２－２０,,27,127,5310076,,,,,,,2026-01-27,1,,,,,マツモトホーム,0
5063,3120001283678,新規,0,2026-01-27,2026-01-27,株式会社Ｓｔａｒ　ｏｆ　Ｗｏｒｌｄ,,株式会社,大阪府,大阪市北区,梅田１丁目１－３大阪駅前第３ビル２９階１－１－１号室,,27,127,5300001,,,,,,,2026-01-27,1,,,,,スターオブワールド,0
5064,3120001283686,新規,0,2026-01-27,2026-01-27,株式会社似錦国際,,株式会社,大阪府,大阪市中央区,日本橋１丁目１７番２０号日本一タカツビル１Ｆ,,27,128,5420073,,,,,,,2026-01-27,1,,,,,シキンコクサイ,0
5065,3120001283777,新規,0,2026-01-27,2026-01-27,ＡＰＴアセットマネジメント株式会社,,株式会社,大阪府,大阪市北区,西天満３丁目６番２８号オクタス西天満ビル４階,,27,127,5300047,,,,,,,2026-01-27,1,,,,,エーピーティーアセットマネジメント,0
5075,3120003031779,新規,0,2026-01-27,2026-01-27,リビルド企画合同会社,,合同会社,大阪府,大阪市北区,梅田１丁目１番３号大阪駅前第３ビル２９階１－１－１号室,,27,127,5300001,,,,,,,2026-01-27,1,,,,,リビルドキカク,0
5091,3120005025382,新規,0,2026-01-27,2026-01-27,一般社団法人佳英会,,その他の設立登記法人,大阪府,大阪市天王寺区,大道４丁目１０番４号たつみビル３階,,27,109,5430052,,,,,,,2026-01-27,1,,,,,カエイカイ,0
5145,3122005003871,新規,0,2026-01-27,2026-01-27,ＮＰＯ法人ドッグサポートなゆたの家,,その他の設立登記法人,大阪府,東大阪市,西堤１丁目９番２号,,27,227,5770042,,,,,,,2026-01-27,1,,,,,ドッグサポートナユタノイエ,0
5524,3140001141487,新規,0,2026-01-27,2026-01-27,株式会社ＵＮＩ,,株式会社,兵庫県,尼崎市,東難波町５丁目１７番２６号,,28,202,6600892,,,,,,,2026-01-27,1,,,,,ウニ,0
5525,3140001141495,新規,0,2026-01-27,2026-01-27,株式会社不動産コンサル,,株式会社,兵庫県,姫路市,御国野町国分寺７６６－６,,28,201,6710234,,,,,,,2026-01-27,1,,,,,フドウサンコンサル,0
5539,3140003023147,新規,0,2026-01-27,2026-01-27,合同会社グリーンリンク,,合同会社,兵庫県,神戸市中央区,磯辺通１丁目１番１８号カサベラ国際プラザビル７０７号室,,28,110,6510084,,,,,,,2026-01-27,1,,,,,グリーンリンク,0
5584,3180001170417,新規,0,2026-01-27,2026-01-27,株式会社八千代建装,,株式会社,愛知県,稲沢市,平和町下三宅郷内１８９番地,,23,220,4901312,,,,,,,2026-01-27,1,,,,,ヤチョウケンソウ,0
5585,3180001170425,新規,0,2026-01-27,2026-01-27,株式会社寿緑化,,株式会社,愛知県,半田市,板山町１５丁目８６番地の１,,23,205,4750936,,,,,,,2026-01-27,1,,,,,コトブキリョッカ,0
5593,3220001027133,新規,0,2026-01-27,2026-01-27,株式会社秋元建築設計室,,株式会社,石川県,金沢市,石引２丁目６番１２号まちかどビル２０１,,17,201,9200935,,,,,,,2026-01-27,1,,,,,アキモトケンチクセッケイシツ,0
5599,3240001066088,新規,0,2026-01-27,2026-01-27,株式会社ＲＴ醸造,,株式会社,広島県,福山市,神辺町大字川北６６０番地,,34,207,7202123,,,,,,,2026-01-27,1,,,,,アールティジョウゾウ,0
5600,3240001066096,新規,0,2026-01-27,2026-01-27,株式会社Ｌｕｎｅｔｔｅｓ,,株式会社,広島県,広島市南区,出島１丁目１番１１－１１０６号,,34,103,7340013,,,,,,,2026-01-27,1,,,,,リュネット,0
5601,3240003007569,新規,0,2026-01-27,2026-01-27,久光アセット合同会社,,合同会社,広島県,広島市安佐北区,口田南７丁目２０番４号,,34,106,7391733,,,,,,,2026-01-27,1,,,,,ヒサミツアセット,0
5605,3260001040933,新規,0,2026-01-27,2026-01-27,株式会社ロックアップ岡山,,株式会社,岡山県,岡山市中区,徳吉町２丁目１１番１７号,,33,102,7038291,,,,,,,2026-01-27,1,,,,,ロックアップオカヤマ,0
5946,3290801032202,新規,0,2026-01-27,2026-01-27,株式会社松岡塗装店,,株式会社,福岡県,京都郡苅田町,富久町１丁目１１番地１５,,40,621,8000352,,,,,,,2026-01-27,1,,,,,マツオカトソウテン,0
5956,3320003004888,新規,0,2026-01-27,2026-01-27,合同会社Ｏ．Ｃ．Ｋ,,合同会社,大分県,大分市,大字中戸次１２６１番地の１４,,44,201,8797761,,,,,,,2026-01-27,1,,,,,オーシーケイ,0
6057,3450001014843,新規,0,2026-01-27,2026-01-27,株式会社ＥｎＬｉｎｋ,,株式会社,北海道,旭川市,春光台三条１丁目７番１２号ホットピース１０１号室,,01,204,0718143,,,,,,,2026-01-27,1,,,,,エンリンク,0
6105,3480005007122,新規,0,2026-01-27,2026-01-27,一般社団法人徳島フリーランス協会,,その他の設立登記法人,徳島県,徳島市,南沖洲１丁目７－４８－２,,36,201,7700874,,,,,,,2026-01-27,1,,,,,,0
6106,3490001011267,新規,0,2026-01-27,2026-01-27,株式会社ＨＥＸＡ,,株式会社,高知県,高知市,横浜西町１９番２３－６号,,39,201,7810242,,,,,,,2026-01-27,1,,,,,ヘキサ,0
6107,3700150018116,新規,0,2026-01-27,2015-10-09,教育遺産世界遺産登録推進協議会,,その他,茨城県,水戸市,中央１丁目４－１,,08,201,3100805,,,,,,,2015-10-09,1,,,,,キヨウイクイサンセカイイサントウロクスイシンキヨウギカイ,0
6108,3700150134177,新規,0,2026-01-27,2026-01-27,Ｓｈｅｎ　Ｚｈｅｎ　Ｓｈｉ　Ｘｉａ　Ｙｏｕ　Ｘｉｎｇ　Ｈａｉ　Ｋｅ　Ｊｉ　Ｙｏｕ　Ｘｉａｎ　Ｇｏｎｇ,,外国会社等,,,,,,,,Ｓｈｅｎ　Ｚｈｅｎ　Ｓｈｉ　Ｌｏｎｇ　Ｈｕａ　Ｑｕ　Ｇｕａｎ　Ｈｕ　Ｊｉｅ　Ｄａｏ　Ｇｕａｎ　Ｃｈｅｎｇ　Ｓｈｅ　Ｑｕ　Ｈｅｎｇ　Ｋｅｎｇ　Ｌｕ　４２　Ｈａｏ　Ｑｉｎｇ　Ｓｈｅｎｇ　Ｇｏｎｇ　Ｙｅ　Ｃｈｅｎｇ　Ｂ　Ｄｏｎｇ　６１１，Ｃｈｉｎａ,,,,,,2026-01-27,1,,,,,シンセンシシャヨウシンハイカギユウゲンコン,0
6119,4010003050137,新規,0,2026-01-27,2026-01-27,旭橋マネージメント合同会社,,合同会社,東京都,千代田区,丸の内１丁目１１番１号,,13,101,1000005,,,,,,,2026-01-27,1,,,,,アサヒバシマネージメント,0
6121,4010101017054,新規,0,2026-01-27,2026-01-27,株式会社田中電機サービス,,株式会社,東京都,八王子市,打越町１１５７番地２５,,13,201,1920911,,,,,,,2026-01-27,1,,,,,タナカデンキサービス,0
6132,4010401196052,新規,0,2026-01-27,2026-01-27,ＪＯＭＥ株式会社,,株式会社,東京都,港区,浜松町２丁目７番１７号イーグル浜松町５０２号室,,13,103,1050013,,,,,,,2026-01-27,1,,,,,ジョミー,0
6133,4010401196060,新規,0,2026-01-27,2026-01-27,Ｍｅｅｔｕｎｅ　Ｅｎｔｅｒｔａｉｎｍｅｎｔ株式会社,,株式会社,東京都,港区,浜松町２丁目４－１世界貿易センタービルディング南館１７階,,13,103,1050013,,,,,,,2026-01-27,1,,,,,ミーチューンエンターテインメント,0
6134,4010401196151,新規,0,2026-01-27,2026-01-27,株式会社ルクサラパートナー,,株式会社,東京都,港区,北青山１丁目３番１号アールキューブ青山３階,,13,103,1070061,,,,,,,2026-01-27,1,,,,,ルクサラパートナー,0
6146,4010801036997,新規,0,2026-01-27,2026-01-27,株式会社フロンティア,,株式会社,東京都,大田区,大森南３丁目１０番５号２Ｆ,,13,111,1430013,,,,,,,2026-01-27,1,,,,,フロンティア,0
6194,4011005011317,新規,0,2026-01-27,2026-01-27,一般社団法人東京ホッケークラブ,,その他の設立登記法人,東京都,渋谷区,神泉町１０番１５号アネックス神泉３０１,,13,113,1500045,,,,,,,2026-01-27,1,,,,,トウキョウホッケークラブ,0
6494,4011101114535,新規,0,2026-01-27,2026-01-27,ＫＩＴ株式会社,,株式会社,東京都,新宿区,中里町６番地１パークハイム神楽坂４１６,,13,104,1620804,,,,,,,2026-01-27,1,,,,,キット,0
6495,4011101114568,新規,0,2026-01-27,2026-01-27,ｉｃｐａ株式会社,,株式会社,東京都,新宿区,大久保１丁目２番１号,,13,104,1690072,,,,,,,2026-01-27,1,,,,,アイシーピーエー,0
6499,4011103016977,新規,0,2026-01-27,2026-01-27,Ａｙａｄｅａ合同会社,,合同会社,東京都,新宿区,西早稲田２丁目１‐２３パシフィック西早稲田６０８,,13,104,1690051,,,,,,,2026-01-27,1,,,,,アヤディア,0
6500,4011103017018,新規,0,2026-01-27,2026-01-27,合同会社ジェイ・ジー・エックス,,合同会社,東京都,新宿区,下宮比町１番４号,,13,104,1620822,,,,,,,2026-01-27,1,,,,,ジェイジーエックス,0
6505,4011105011704,新規,0,2026-01-27,2026-01-27,一般社団法人福利厚生サポート倶楽部,,その他の設立登記法人,東京都,新宿区,新宿２丁目５番１２号クロスコープ新宿ＡＶＥＮＵＥオフィス７０１,,13,104,1600022,,,,,,,2026-01-27,1,,,,,フクリコウセイサポートクラブ,0
6506,4011105011720,新規,0,2026-01-27,2026-01-27,一般社団法人ＳＴＡＹ９,,その他の設立登記法人,東京都,新宿区,新宿１丁目５番３号シスナ・パートナーズ会計事務所内,,13,104,1600022,,,,,,,2026-01-27,1,,,,,ステイナイン,0
6523,4011301031225,新規,0,2026-01-27,2026-01-27,株式会社ＫＧＭ,,株式会社,東京都,杉並区,西荻南３丁目１２－１－４０４,,13,115,1670053,,,,,,,2026-01-27,1,,,,,ケージーエム,0
6687,4020001166801,新規,0,2026-01-27,2026-01-27,株式会社Ｃｏｒｄｅａ,,株式会社,神奈川県,横浜市中区,太田町１丁目１０番地ＮＧＳ太田町ビル３階,,14,104,2310011,,,,,,,2026-01-27,1,,,,,コルデア,0
6688,4020001166875,新規,0,2026-01-27,2026-01-27,株式会社ａｔａｒａｂｉ,,株式会社,神奈川県,横浜市西区,北幸１丁目１１番１号７階,,14,103,2200004,,,,,,,2026-01-27,1,,,,,アタラビ,0
6708,4020003030195,新規,0,2026-01-27,2026-01-27,横浜商事合同会社,,合同会社,神奈川県,横浜市鶴見区,馬場５丁目５－２７,,14,101,2300076,,,,,,,2026-01-27,1,,,,,ヨコハマショウジ,0
6709,4020003030220,新規,0,2026-01-27,2026-01-27,合同会社たくみ,,合同会社,神奈川県,横浜市南区,弘明寺町１３３－１,,14,105,2320067,,,,,,,2026-01-27,1,,,,,タクミ,0
6763,4021001087343,新規,0,2026-01-27,2026-01-27,株式会社プライムプラス,,株式会社,神奈川県,伊勢原市,坪ノ内２４０－２２,,14,214,2591104,,,,,,,2026-01-27,1,,,,,プライムプラス,0
6764,4021001087418,新規,0,2026-01-27,2026-01-27,株式会社Ｌｉｂｅｒｔｙ,,株式会社,神奈川県,相模原市中央区,中央１丁目１番１４号,,14,152,2520239,,,,,,,2026-01-27,1,,,,,リバティ,0
6786,4021003017026,新規,0,2026-01-27,2026-01-27,合同会社ＨＲＳ,,合同会社,神奈川県,相模原市南区,上鶴間本町７丁目１１番５号パラドーム相模大野２０６,,14,153,2520318,,,,,,,2026-01-27,1,,,,,,0
6793,4021005013527,新規,0,2026-01-27,2026-01-27,一般社団法人Ｐｒｏｊｅｃｔ８,,その他の設立登記法人,神奈川県,茅ヶ崎市,浜竹１丁目１８０４番５－１,,14,207,2530021,,,,,,,2026-01-27,1,,,,,プロジェクトエイト,0
6807,4040003029376,新規,0,2026-01-27,2026-01-27,合同会社ＴＢ,,合同会社,千葉県,佐倉市,城４０４－１７,,12,212,2850815,,,,,,,2026-01-27,1,,,,,ティービー,0
6808,4040005023006,新規,0,2026-01-27,2026-01-27,一般社団法人佐倉藩アーカイブス,,その他の設立登記法人,千葉県,佐倉市,木野子１５８番地,,12,212,2850801,,,,,,,2026-01-27,1,,,,,サクラハンアーカイブス,0
6812,4050003009889,新規,0,2026-01-27,2026-01-27,ＣＦテクノロジー合同会社,,合同会社,茨城県,土浦市,乙戸南１丁目４番３号,,08,203,3000845,,,,,,,2026-01-27,1,,,,,シーエフテクノロジー,0
6817,4070001043772,新規,0,2026-01-27,2026-01-27,株式会社ＨＥＡＲＴ　ＳＨＩＦＴ,,株式会社,群馬県,伊勢崎市,西田町２５番地９,,10,204,3720058,,,,,,,2026-01-27,1,,,,,,0
6843,4110001039865,新規,0,2026-01-27,2026-01-27,株式会社日に日に,,株式会社,新潟県,新潟市東区,石山５丁目２番８号,,15,102,9500852,,,,,,,2026-01-27,1,,,,,ヒニヒニ,0
6851,4110003006054,新規,0,2026-01-27,2026-01-27,合同会社ｎｉｃｏｔｏ,,合同会社,新潟県,新潟市中央区,天神１丁目１番地プラーカ３、２Ｆ,,15,103,9500917,,,,,,,2026-01-27,1,,,,,ニコット,0
7010,4120001283669,新規,0,2026-01-27,2026-01-27,株式会社アイズ,,株式会社,大阪府,大阪市天王寺区,上本町５丁目２番１１号上六新興産ビル９Ｆ,,27,109,5430001,,,,,,,2026-01-27,1,,,,,アイズ,0
7023,4120003031761,新規,0,2026-01-27,2026-01-27,青葉堂合同会社,,合同会社,大阪府,大阪市平野区,瓜破東３丁目７番３２号,,27,126,5470022,,,,,,,2026-01-27,1,,,,,アオバドウ,0
7024,4120003031778,新規,0,2026-01-27,2026-01-27,ＣＯＭＥＴ３合同会社,,合同会社,大阪府,大阪市北区,神山町３番４－３０７号,,27,127,5300026,,,,,,,2026-01-27,1,,,,,コメットスリー,0
7096,4120901052140,新規,0,2026-01-27,2026-01-27,新周商事株式会社,,株式会社,大阪府,豊中市,岡町南３丁目４番２１号,,27,203,5610883,,,,,,,2026-01-27,1,,,,,シンマルヨシショウジ,0
7104,4130003011110,新規,0,2026-01-27,2026-01-27,Ｍｕｇｉ合同会社,,合同会社,京都府,京都市下京区,七条通油小路東入大黒町２２７番地第２キョートビル４０２,,26,106,6008223,,,,,,,2026-01-27,1,,,,,ムギ,0
7499,4140003023039,新規,0,2026-01-27,2026-01-27,合同会社Ｖｏｌｔｉｅｒｒａ,,合同会社,兵庫県,尼崎市,東園田町５丁目３３番の１シャロル東園田２０１,,28,202,6610953,,,,,,,2026-01-27,1,,,,,ヴォルティエラ,0
7552,4180001170432,新規,0,2026-01-27,2026-01-27,株式会社大翔,,株式会社,愛知県,知多市,新知字門田１０番地の１,,23,224,4780017,,,,,,,2026-01-27,1,,,,,タイショウ,0
7553,4180001170449,新規,0,2026-01-27,2026-01-27,株式会社山ツ,,株式会社,愛知県,春日井市,上条町９丁目６０番地１,,23,206,4860833,,,,,,,2026-01-27,1,,,,,ヤマツ,0
7558,4180301040632,新規,0,2026-01-27,2026-01-27,株式会社ＡＬＬＹＣＡ,,株式会社,愛知県,みよし市,黒笹２丁目６－６,,23,236,4700231,,,,,,,2026-01-27,1,,,,,アリカ,0
7563,4200003007209,新規,0,2026-01-27,2026-01-27,合同会社ａｎｇｅｌ,,合同会社,岐阜県,大垣市,和合本町２丁目５３２番地１,,21,202,5030005,,,,,,,2026-01-27,1,,,,,エンジェル,0
7566,4240001066079,新規,0,2026-01-27,2026-01-27,株式会社シンカ工業,,株式会社,広島県,福山市,神辺町字下御領９７２番地４８,,34,207,7202117,,,,,,,2026-01-27,1,,,,,シンカコウギョウ,0
7567,4240003007568,新規,0,2026-01-27,2026-01-27,合同会社テックリゾート,,合同会社,広島県,広島市東区,光が丘１４番２７号,,34,102,7320051,,,,,,,2026-01-27,1,,,,,テックリゾート,0
7569,4260001040940,新規,0,2026-01-27,2026-01-27,株式会社ＴＩＭＥＬＥＳＳ,,株式会社,岡山県,岡山市中区,円山１４８－８,,33,102,7038271,,,,,,,2026-01-27,1,,,,,タイムレス,0
7570,4280003002029,新規,0,2026-01-27,2026-01-27,合同会社円を描く人,,合同会社,島根県,出雲市,大塚町７２２番地１メゾンまほろば１０８,,32,203,6930063,,,,,,,2026-01-27,1,,,,,エンヲエガクヒト,0
7909,4330001033953,新規,0,2026-01-27,2026-01-27,株式会社グリーンフィード,,株式会社,熊本県,菊池郡大津町,大字杉水３０９７番地２,,43,403,8691236,,,,,,,2026-01-27,1,,,,,グリーンフィード,0
8003,4360003015567,新規,0,2026-01-27,2026-01-27,猫楽合同会社,,合同会社,沖縄県,中頭郡西原町,上原２丁目２９番地の１１スリークロック２Ｃ,,47,329,9030125,,,,,,,2026-01-27,1,,,,,ネコラク,0
8004,4360003015583,新規,0,2026-01-27,2026-01-27,リゾーツ琉球合同会社,,合同会社,沖縄県,豊見城市,字瀬長１７４番地５,,47,212,9010233,,,,,,,2026-01-27,1,,,,,リゾーツリュウキュウ,0
8073,4500003003664,新規,0,2026-01-27,2026-01-27,合同会社近藤工業,,合同会社,愛媛県,今治市,近見町２丁目５－６,,38,202,7940007,,,,,,,2026-01-27,1,,,,,コンドウコウギョウ,0
8074,4700150134143,新規,0,2026-01-27,2026-01-27,山日ＹＢＳ健康保険組合,,その他,山梨県,甲府市,北口２丁目６－１０,,19,201,4000024,,,,,,,2026-01-27,1,,,,,サンニチワイビーエスケンコウホケンクミアイ,0
8075,4700150134176,新規,0,2026-01-27,2026-01-27,ＩＮＴＥＨＩＬＬ　ＴＥＣＨＮＯＬＯＧＹ　ＣＯ．，ＬＩＭＩＴＥＤ,,外国会社等,,,,,,,,ＦＬＡＴ　６　１９／Ｆ　ＢＬＫ　Ｆ　ＧＯＬＤＥＮ　ＢＥＡＲ　ＩＮＤＵＳＴＲＩＡＬ　ＣＥＮＴＲＥ　６６－８２　ＣＨＡＩＷＡＮ　ＫＯＫ　ＳＴ　ＴＳＵＥＮ　ＷＡＮ　ＮＴ，ＨＫ,,,,,,2026-01-27,1,,,,,インテヒルテクノロジーカンパニーリミテッド,0
8094,5010001262278,新規,0,2026-01-27,2026-01-27,株式会社ＪＥＳＴ,,株式会社,東京都,千代田区,神田須田町１丁目７番地１ウィン神田ビル４階,,13,101,1010041,,,,,,,2026-01-27,1,,,,,ジェスト,0
8098,5010101017053,新規,0,2026-01-27,2026-01-27,株式会社ＴＨＥＴＡ　ＬＡＢＯ,,株式会社,東京都,八王子市,東町１０番３号曽雌ビル２Ｆ,,13,201,1920082,,,,,,,2026-01-27,1,,,,,シータラボ,0
8109,5010401195706,新規,0,2026-01-27,2026-01-27,アイ・エヌ・キャピタル株式会社,,株式会社,東京都,港区,高輪２丁目１４番１７号グレイス高輪ビル９階,,13,103,1080074,,,,,,,2026-01-27,1,,,,,アイエヌキャピタル,0
8111,5010403037138,新規,0,2026-01-27,2026-01-27,やまなみ風力合同会社,,合同会社,東京都,港区,虎ノ門１丁目２３番１号,,13,103,1050001,,,,,,,2026-01-27,1,,,,,ヤマナミフウリョク,0
8116,5010503008154,新規,0,2026-01-27,2026-01-27,合同会社エスポワール,,合同会社,東京都,台東区,上野２丁目１２番２号,,13,106,1100005,,,,,,,2026-01-27,1,,,,,エスポワール,0
8123,5010701048951,新規,0,2026-01-27,2026-01-27,株式会社ストークネスト,,株式会社,東京都,品川区,北品川３丁目７番地７号,,13,109,1400001,,,,,,,2026-01-27,1,,,,,ストークネスト,0
8125,5010803005702,新規,0,2026-01-27,2026-01-27,合同会社ホワイトリバー,,合同会社,東京都,大田区,下丸子２丁目２４番１０号多摩川ハイム２－９０３,,13,111,1460092,,,,,,,2026-01-27,1,,,,,ホワイトリバー,0
8162,5010905004890,新規,0,2026-01-27,2026-01-27,一般社団法人自然物産学,,その他の設立登記法人,東京都,世田谷区,玉堤１丁目２２番１９－３０２号,,13,112,1580087,,,,,,,2026-01-27,1,,,,,シゼンブッサンガク,0
8168,5011003023412,新規,0,2026-01-27,2026-01-27,合同会社コーストインサイト,,合同会社,東京都,目黒区,自由が丘２丁目１６－１２ＬＣ１Ｆ,,13,110,1520035,,,,,,,2026-01-27,1,,,,,コーストインサイト,0
8461,5011103016919,新規,0,2026-01-27,2026-01-27,ＭＳコンサルティング合同会社,,合同会社,東京都,新宿区,高田馬場２丁目１４番５号第１いさみやビル７Ｆ,,13,104,1690075,,,,,,,2026-01-27,1,,,,,エムエスコンサルティング,0
8462,5011103016935,新規,0,2026-01-27,2026-01-27,グローアップ合同会社,,合同会社,東京都,新宿区,西新宿３丁目３番１３号西新宿水間ビル２Ｆ,,13,104,1600023,,,,,,,2026-01-27,1,,,,,グローアップ,0
8463,5011103017009,新規,0,2026-01-27,2026-01-27,合同会社ウィステリア・エステート,,合同会社,東京都,新宿区,四谷三栄町１１番１５－６０４号,,13,104,1600008,,,,,,,2026-01-27,1,,,,,ウィステリアエステート,0
8466,5011105011703,新規,0,2026-01-27,2026-01-27,一般社団法人国際合気道連盟,,その他の設立登記法人,東京都,新宿区,余丁町８番４号,,13,104,1620055,,,,,,,2026-01-27,1,,,,,コクサイアイキドウレンメイ,0
8586,5011801047356,新規,0,2026-01-27,2026-01-27,ヒカリン株式会社,,株式会社,東京都,葛飾区,東四つ木３丁目４９番２０－４０４号グランウィッシュ四ツ木,,13,122,1240014,,,,,,,2026-01-27,1,,,,,ヒカリン,0
8679,5020001166825,新規,0,2026-01-27,2026-01-27,株式会社Ｖａｌａｒ　Ｐａｒｔｎｅｒｓ,,株式会社,神奈川県,横浜市港北区,綱島東１丁目９－１０ドレッセタワー新綱島１８０１,,14,109,2230052,,,,,,,2026-01-27,1,,,,,ヴァラーパートナーズ,0
8711,5020003030211,新規,0,2026-01-27,2026-01-27,合同会社オフィスＡＤＡＣＨＩ,,合同会社,神奈川県,横浜市神奈川区,金港町５－１４クアドリフォリオ８階,,14,102,2210056,,,,,,,2026-01-27,1,,,,,オフィスアダチ,0
8712,5020003030228,新規,0,2026-01-27,2026-01-27,合同会社マスプラ,,合同会社,神奈川県,横浜市戸塚区,鳥が丘５５番地１５,,14,110,2440001,,,,,,,2026-01-27,1,,,,,マスプラ,0
8766,5021001087284,新規,0,2026-01-27,2026-01-27,株式会社ＭＭ２６Ｅｓｔａｔｅ,,株式会社,神奈川県,三浦市,三崎町諸磯８６０－１,,14,210,2380224,,,,,,,2026-01-27,1,,,,,エムエムニジュウロクエステート,0
8767,5021001087292,新規,0,2026-01-27,2026-01-27,Ｃ‐Ｓｅｒｅｃｔ株式会社,,株式会社,神奈川県,海老名市,中野２丁目２６番２３号,,14,215,2430425,,,,,,,2026-01-27,1,,,,,シーセレクト,0
8768,5021001087342,新規,0,2026-01-27,2026-01-27,プレミール株式会社,,株式会社,神奈川県,茅ヶ崎市,今宿８６５番地,,14,207,2530072,,,,,,,2026-01-27,1,,,,,プレミール,0
8769,5021001087359,新規,0,2026-01-27,2026-01-27,株式会社丸明大下,,株式会社,神奈川県,藤沢市,大庭５１４１番地の４,,14,205,2510861,,,,,,,2026-01-27,1,,,,,マルメイオオシモ,0
8788,5021003017066,新規,0,2026-01-27,2026-01-27,合同会社ＭＯＶＥＺ,,合同会社,神奈川県,平塚市,中里３６番２７－１号,,14,203,2540054,,,,,,,2026-01-27,1,,,,,ムーブズ,0
8793,5021005013518,新規,0,2026-01-27,2026-01-27,一般社団法人湘南理美容会,,その他の設立登記法人,神奈川県,藤沢市,本鵠沼３丁目１２番３０号藤沢ビル１階,,14,205,2510028,,,,,,,2026-01-27,1,,,,,ショウナンリビヨウカイ,0
8802,5030003028510,新規,0,2026-01-27,2026-01-27,合同会社Ｃｈａｔｉｅｎｃｅ,,合同会社,埼玉県,入間市,東町１丁目２番２５号豊岡ハウス１１０８,,11,225,3580002,,,,,,,2026-01-27,1,,,,,シャティヤンス,0
8812,5040001142238,新規,0,2026-01-27,2026-01-27,株式会社誠心住設,,株式会社,千葉県,千葉市若葉区,原町９１９－６ヴィレッヂ若葉,,12,104,2640034,,,,,,,2026-01-27,1,,,,,セイシンジュウセツ,0
8816,5060001038954,新規,0,2026-01-27,2026-01-27,株式会社ＳＥＡＳＯＮ　ＦＯＲ　ＴＯＵＲＳ,,株式会社,栃木県,下都賀郡野木町,大字丸林６５１番地１０メゾンルミエール２０１号,,09,364,3290111,,,,,,,2026-01-27,1,,,,,シーズンフォーツアーズ,0
8817,5060001038962,新規,0,2026-01-27,2026-01-27,株式会社楽永道,,株式会社,栃木県,河内郡上三川町,しらさぎ３丁目３５番地７,,09,301,3290618,,,,,,,2026-01-27,1,,,,,ラクエイドウ,0
8819,5060003005936,新規,0,2026-01-27,2026-01-27,合同会社鈴木建材,,合同会社,栃木県,矢板市,片俣４８５番地２２,,09,211,3292155,,,,,,,2026-01-27,1,,,,,スズキケンザイ,0
8854,5110003006045,新規,0,2026-01-27,2026-01-27,ＮＯＮＯ合同会社,,合同会社,新潟県,十日町市,新座甲４０３番地２６,,15,210,9480000,,,,,,,2026-01-27,1,,,,,ノノ,0
8855,5110003006053,新規,0,2026-01-27,2026-01-27,合同会社Ｕｐｒｏｃｋ　Ｃｏｒｐｏｒａｔｉｏｎ　Ａｎｅｌｌａ　Ｎｉｉｇａｔａ,,合同会社,新潟県,新発田市,新栄町１丁目６番１３号,,15,206,9570063,,,,,,,2026-01-27,1,,,,,アップロックコーポレーションアネラニイガタ,0
9003,5120001283684,新規,0,2026-01-27,2026-01-27,株式会社ＭＯＳ,,株式会社,大阪府,大阪市中央区,東高麗橋３－３０－１３０３,,27,128,5400039,,,,,,,2026-01-27,1,,,,,モス,0
9004,5120001283750,新規,0,2026-01-27,2026-01-27,株式会社やったらやるだけ,,株式会社,大阪府,大阪市淀川区,西中島１丁目９番２０号新中島ビル９階,,27,123,5320011,,,,,,,2026-01-27,1,,,,,ヤッタラヤルダケ,0
9019,5120003031752,新規,0,2026-01-27,2026-01-27,合同会社ｔｏｍａ３６ｏｆｆｉｃｅ,,合同会社,大阪府,大阪市北区,梅田１丁目２番２号大阪駅前第２ビル１２－１２,,27,127,5300001,,,,,,,2026-01-27,1,,,,,トマミルオフィス,0
9020,5120003031769,新規,0,2026-01-27,2026-01-27,嘉耀フェニックス合同会社,,合同会社,大阪府,大阪市浪速区,元町３丁目１番１１号弥生マンション１０１号,,27,111,5560016,,,,,,,2026-01-27,1,,,,,カヨウフェニックス,0
9035,5120005025380,新規,0,2026-01-27,2026-01-27,一般社団法人社会保険料適正化支援協会,,その他の設立登記法人,大阪府,大阪市北区,中津１丁目２－５ザ・パークハウス大阪梅田タワー１４０６,,27,127,5310071,,,,,,,2026-01-27,1,,,,,シャカイホケンリョウテキセイカシエンキョウカイ,0
9079,5120901052024,新規,0,2026-01-27,2026-01-27,株式会社ＫスリーＣＯＭＰＡＮＹ,,株式会社,大阪府,摂津市,鳥飼下２丁目３１－２０,,27,224,5660071,,,,,,,2026-01-27,1,,,,,ケースリーカンパニー,0
9085,5130001081501,新規,0,2026-01-27,2026-01-27,基石化成株式会社,,株式会社,京都府,京都市下京区,中堂寺南町１３４番地京都リサーチパークＫＩＳＴＩＣ１０７号,,26,106,6008813,,,,,,,2026-01-27,1,,,,,キセキカセイ,0
9506,5140001141485,新規,0,2026-01-27,2026-01-27,たつき産業株式会社,,株式会社,兵庫県,明石市,大久保町高丘５丁目３番地の２－４９棟１０８号,,28,203,6740057,,,,,,,2026-01-27,1,,,,,タツキサンギョウ,0
9565,5180001170398,新規,0,2026-01-27,2026-01-27,リンクス・ラボ株式会社,,株式会社,愛知県,名古屋市天白区,中平２丁目２９０１番地の１,,23,116,4680014,,,,,,,2026-01-27,1,,,,,リンクスラボ,0
9566,5180001170423,新規,0,2026-01-27,2026-01-27,株式会社ＭＫ商会,,株式会社,愛知県,東海市,富木島町新石根４３番地の２,,23,222,4760011,,,,,,,2026-01-27,1,,,,,エムケイショウカイ,0
9568,5180003029691,新規,0,2026-01-27,2026-01-27,合同会社あさひせとぷらす,,合同会社,愛知県,瀬戸市,陶原町６丁目１０番５号,,23,204,4890805,,,,,,,2026-01-27,1,,,,,アサヒセトプラス,0
9569,5180005021408,新規,0,2026-01-27,2026-01-27,愛知県コンクリート圧送事業協同組合,,その他の設立登記法人,愛知県,名古屋市中川区,服部町三丁目４１２番地,,23,110,4540000,,,,,,,2026-01-27,1,,,,,アイチケンコンクリートアッソウ,0
9572,5180301040631,新規,0,2026-01-27,2026-01-27,株式会社近藤倉庫,,株式会社,愛知県,豊田市,本地町５丁目４９番地１,,23,211,4710848,,,,,,,2026-01-27,1,,,,,コンドウソウコ,0
9573,5180305009763,新規,0,2026-01-27,2026-01-27,一般社団法人人間教育の会,,その他の設立登記法人,愛知県,安城市,桜井町桜西二丁目３番地１県営桜井住宅３０３,,23,212,4441154,,,,,,,2026-01-27,1,,,,,ニンゲンキョウイクノカイ,0
9576,5200001044657,新規,0,2026-01-27,2026-01-27,株式会社リノバト,,株式会社,岐阜県,養老郡養老町,横屋１２９,,21,341,5031278,,,,,,,2026-01-27,1,,,,,リノバト,0
9582,5220003004211,新規,0,2026-01-27,2026-01-27,Ａ　Ｉｍａｇｉｎａｌ　Ｂｌｏｏｍ合同会社,,合同会社,石川県,金沢市,西泉４丁目２７番地１,,17,201,9218043,,,,,,,2026-01-27,1,,,,,イマジナルブルーム,0
9583,5260001040931,新規,0,2026-01-27,2026-01-27,エムクリエイト株式会社,,株式会社,岡山県,岡山市東区,瀬戸町万富４８３番地１１,,33,103,7090841,,,,,,,2026-01-27,1,,,,,エムクリエイト,0
9584,5260003005494,新規,0,2026-01-27,2026-01-27,合同会社メディカルアシスト,,合同会社,岡山県,岡山市北区,柳町１丁目１３番１６号,,33,101,7000904,,,,,,,2026-01-27,1,,,,,メディカルアシスト,0
9947,5290805009905,新規,0,2026-01-27,2026-01-27,医療法人楽会,,その他の設立登記法人,福岡県,北九州市八幡西区,御開１丁目１－２０,,40,109,8070806,,,,,,,2026-01-27,1,,,,,タノシカイ,0
9948,5320003004886,新規,0,2026-01-27,2026-01-27,合同会社ぽーくらぼくす,,合同会社,大分県,玖珠郡玖珠町,大字山下１８９２番地,,44,462,8794522,,,,,,,2026-01-27,1,,,,,ポークラボクス,0
10042,5390003002487,新規,0,2026-01-27,2026-01-27,合同会社ノーマライプランニング,,合同会社,山形県,山形市,南館３丁目６番２１－３０２号レインボーセントラル南館,,06,201,9902461,,,,,,,2026-01-27,1,,,,,ノーマライプランニング,0
10047,5430001096130,新規,0,2026-01-27,2026-01-27,ＭａｉｓｏｎＰｌｕｓ株式会社,,株式会社,北海道,札幌市北区,屯田二条１丁目７－５－１０１,,01,102,0020852,,,,,,,2026-01-27,1,,,,,メゾンプラス,0
10094,5470001021068,新規,0,2026-01-27,2026-01-27,株式会社十策,,株式会社,香川県,高松市,南新町１１―７,,37,201,7600051,,,,,,,2026-01-27,1,,,,,ジュウサク,0
10098,5470003003056,新規,0,2026-01-27,2026-01-27,合同会社ｔｏｙ　ｆａｃｔｏｒｙ,,合同会社,香川県,丸亀市,富士見町１丁目８番２号オカモトハイツ１０１号,,37,202,7630011,,,,,,,2026-01-27,1,,,,,,0
10100,5480001013064,新規,0,2026-01-27,2026-01-27,株式会社ベルフォート,,株式会社,徳島県,美馬市,美馬町字谷ヨリ西３１番地１ウィステリア２０１,,36,207,7712106,,,,,,,2026-01-27,1,,,,,ベルフォート,0
10102,5500001026749,新規,0,2026-01-27,2026-01-27,タカハシ工業株式会社,,株式会社,愛媛県,松山市,木屋町２丁目７番地２１,,38,201,7900821,,,,,,,2026-01-27,1,,,,,タカハシコウギョウ,0
10103,5500003003663,新規,0,2026-01-27,2026-01-27,合同会社ＫＯＩＫＥＮ,,合同会社,愛媛県,今治市,波方町波方甲１９３３番地８５,,38,202,7992101,,,,,,,2026-01-27,1,,,,,コイケン,0
10107,5700150134175,新規,0,2026-01-27,2026-01-27,Ｓｈａｎｇｈａｉ　Ｎｏｒｗｉｉ　Ｅ－ｃｏｍｍｅｒｃｅ　Ｃｏ．，ＬＴＤ．,,外国会社等,,,,,,,,Ｎｏ．７７８　Ｃｈｕａｎｇｘｉｎ　Ｗｓｅｔ　Ｒｏａｄ，Ｃｈｉｎａ（Ｓｈａｎｇｈａｉ）Ｐｉｌｏｔ　Ｆｒｅｅ　Ｔｒａｄｅ　Ｚｏｎｅ,,,,,,2026-01-27,1,,,,,シャンハイノーウィイーコマースカンパニーリミテッド,0
10115,6010001261923,新規,0,2026-01-27,2026-01-27,株式会社みらい編集,,株式会社,東京都,文京区,向丘２丁目１８番２号,,13,105,1130023,,,,,,,2026-01-27,1,,,,,ミライヘンシュウ,0
10116,6010001261931,新規,0,2026-01-27,2026-01-27,ｃｏｇｎｉｒｏｂｏ株式会社,,株式会社,東京都,千代田区,神田須田町１丁目７番８号,,13,101,1010041,,,,,,,2026-01-27,1,,,,,コグニロボ,0
10117,6010001262244,新規,0,2026-01-27,2026-01-27,ＡＰＯＣＨＩＡ株式会社,,株式会社,東京都,文京区,白山１丁目６番４－２１６号,,13,105,1130001,,,,,,,2026-01-27,1,,,,,アポチア,0
10118,6010001262335,新規,0,2026-01-27,2026-01-27,五葉コンサルティング株式会社,,株式会社,東京都,千代田区,神田須田町１丁目７－８ＶＯＲＴ秋葉原２Ｆ,,13,101,1010041,,,,,,,2026-01-27,1,,,,,ゴヨウコンサルティング,0
10119,6010005041149,新規,0,2026-01-27,2026-01-27,一般社団法人日本ヘルスケアイノベーション学会,,その他の設立登記法人,東京都,中央区,銀座２丁目４－１８ＡＬＢＯＲＥＧＩＮＺＡ４階,,13,102,1040061,,,,,,,2026-01-27,1,,,,,,0
10120,6010101017052,新規,0,2026-01-27,2026-01-27,株式会社Ｎｅｘｕｓ　Ｉｎｎｏｖａｔｉｏｎ,,株式会社,東京都,八王子市,別所１丁目３８番地ビューコート別所３－４０６,,13,201,1920363,,,,,,,2026-01-27,1,,,,,ネクサスイノベーション,0
10126,6010401196042,新規,0,2026-01-27,2026-01-27,株式会社ＪＧ３７,,株式会社,東京都,港区,虎ノ門１丁目３番１号,,13,103,1050001,,,,,,,2026-01-27,1,,,,,ジェイジーサンジュウナナ,0
10129,6010403037137,新規,0,2026-01-27,2026-01-27,チェリー合同会社,,合同会社,東京都,港区,六本木１丁目６番１号泉ガーデンタワー,,13,103,1060032,,,,,,,2026-01-27,1,,,,,チェリー,0
10130,6010403037145,新規,0,2026-01-27,2026-01-27,合同会社ＨＭＤ　Ａｓｉａ　Ｇｒｏｗｔｈ　Ｆｕｎｄ２号,,合同会社,東京都,港区,南青山４丁目１８番１１号フォレストヒルズイーストウィング２Ｆ,,13,103,1070062,,,,,,,2026-01-27,1,,,,,エイチエムディアジアグロースファンドニゴウ,0
10131,6010405025189,新規,0,2026-01-27,2026-01-27,一般社団法人ヒルズリンク,,その他の設立登記法人,東京都,港区,赤坂４丁目２番１号,,13,103,1070052,,,,,,,2026-01-27,1,,,,,ヒルズリンク,0
10133,6010503008153,新規,0,2026-01-27,2026-01-27,合同会社サクセス,,合同会社,東京都,台東区,上野２丁目１２番２号,,13,106,1100005,,,,,,,2026-01-27,1,,,,,サクセス,0
10143,6010803005676,新規,0,2026-01-27,2026-01-27,ＫＰＴ　Ｃａｐｉｔａｌ　Ｍａｎａｇｅｍｅｎｔ合同会社,,合同会社,東京都,大田区,東雪谷５丁目３６－１０東雪谷ハイデンス４０４,,13,111,1450065,,,,,,,2026-01-27,1,,,,,ケイピイテイキャピタルマネジメント,0
10144,6010803005701,新規,0,2026-01-27,2026-01-27,合同会社ウンデキム,,合同会社,東京都,大田区,北嶺町４２番７号メゾン北嶺１０７,,13,111,1450073,,,,,,,2026-01-27,1,,,,,ウンデキム,0
10173,6010901058857,新規,0,2026-01-27,2026-01-27,株式会社Ｋ‐ＡＳＯＫＵ,,株式会社,東京都,世田谷区,太子堂４丁目１８番１５号マガザン三軒茶屋２・３Ｆ－３,,13,112,1540004,,,,,,,2026-01-27,1,,,,,カソク,0
10175,6010903010584,新規,0,2026-01-27,2026-01-27,ＫＫ　Ｇｅｍ　Ｅｓｔａｔｅｓ合同会社,,合同会社,東京都,世田谷区,新町３丁目９番２号,,13,112,1540014,,,,,,,2026-01-27,1,,,,,ケイケイジェムエステイツ,0
10486,6011101114525,新規,0,2026-01-27,2026-01-27,株式会社ＴＣＣ,,株式会社,東京都,新宿区,西新宿８丁目３番１号,,13,104,1600023,,,,,,,2026-01-27,1,,,,,ティーシーシー,0
10487,6011101114533,新規,0,2026-01-27,2026-01-27,株式会社Ｅｐｈａ,,株式会社,東京都,新宿区,富久町２７番２号レジデンスＭ２Ｆ,,13,104,1620067,,,,,,,2026-01-27,1,,,,,エファ,0
10607,6011703004504,新規,0,2026-01-27,2026-01-27,合同会社リツ,,合同会社,東京都,江戸川区,瑞江１丁目７番６号ＨＡＬＣ・ＥＡＳＴ２０１,,13,123,1320011,,,,,,,2026-01-27,1,,,,,リツ,0
10609,6011801047371,新規,0,2026-01-27,2026-01-27,株式会社聖一門,,株式会社,東京都,足立区,伊興２丁目３番８号第３若草ハイツ２０３,,13,121,1210823,,,,,,,2026-01-27,1,,,,,ヒジリイチモン,0
10612,6012301014688,新規,0,2026-01-27,2026-01-27,株式会社源,,株式会社,東京都,町田市,木曽東２丁目１０番１２号,,13,209,1940036,,,,,,,2026-01-27,1,,,,,ミナモト,0
10614,6012703003454,新規,0,2026-01-27,2026-01-27,Ｒｅｔｒｏ　Ｍｉｒａｉ合同会社,,合同会社,東京都,東村山市,秋津町３丁目３２番地１４,,13,213,1890001,,,,,,,2026-01-27,1,,,,,レトロミライ,0
10699,6020001166840,新規,0,2026-01-27,2026-01-27,株式会社Ｘ　ｐａｒｔｎｅｒｓ,,株式会社,神奈川県,横浜市西区,北幸２丁目１０番４８号むつみビル３階,,14,103,2200004,,,,,,,2026-01-27,1,,,,,エックスパートナーズ,0
10722,6020003030210,新規,0,2026-01-27,2026-01-27,合同会社さんぽコース,,合同会社,神奈川県,横浜市神奈川区,金港町５―１４クアドリフォリオ８階,,14,102,2210056,,,,,,,2026-01-27,1,,,,,サンポコース,0
10776,6021001087283,新規,0,2026-01-27,2026-01-27,Ｋｉｐｐｉｓ株式会社,,株式会社,神奈川県,藤沢市,並木台１丁目５番地の１,,14,205,2510005,,,,,,,2026-01-27,1,,,,,キッピス,0
10805,6021003017008,新規,0,2026-01-27,2026-01-27,合同会社Ｇ‐ＡＮＤ,,合同会社,神奈川県,三浦郡葉山町,堀内１２６１番地の４,,14,301,2400112,,,,,,,2026-01-27,1,,,,,ジイーアンド,0
10806,6021003017040,新規,0,2026-01-27,2026-01-27,行動科学合同会社,,合同会社,神奈川県,逗子市,逗子７丁目１番５１号ナニワビル３Ｆ,,14,208,2490006,,,,,,,2026-01-27,1,,,,,コウドウカガク,0
10822,6040001142220,新規,0,2026-01-27,2026-01-27,株式会社Ｋｙｔｅ　ｗｏｒｋｓ,,株式会社,千葉県,千葉市緑区,あすみが丘東１丁目１０番地４２,,12,105,2670067,,,,,,,2026-01-27,1,,,,,カイトワークス,0
10823,6040001142229,新規,0,2026-01-27,2026-01-27,株式会社あさの設計,,株式会社,千葉県,香取市,北３丁目４番地４,,12,236,2870002,,,,,,,2026-01-27,1,,,,,アサノセッケイ,0
10826,6040005023004,新規,0,2026-01-27,2026-01-27,一般社団法人日本エスクロー調査協会,,その他の設立登記法人,千葉県,千葉市中央区,中央４丁目１０番８号,,12,101,2600013,,,,,,,2026-01-27,1,,,,,ニホンエスクローチョウサキョウカイ,0
10829,6050001057896,新規,0,2026-01-27,2026-01-27,株式会社総研リサーチ,,株式会社,茨城県,水戸市,備前町６番４３号,,08,201,3100024,,,,,,,2026-01-27,1,,,,,ソウケンリサーチ,0
10830,6050003009895,新規,0,2026-01-27,2026-01-27,合同会社参睦九グループ,,合同会社,茨城県,つくば市,自由ケ丘４０１番地１７５,,08,220,3001266,,,,,,,2026-01-27,1,,,,,サンリクグループ,0
10833,6060001038961,新規,0,2026-01-27,2026-01-27,株式会社ヒロ,,株式会社,栃木県,河内郡上三川町,大字西汗１７７２番地１５,,09,301,3290607,,,,,,,2026-01-27,1,,,,,ヒロ,0
10835,6060003005935,新規,0,2026-01-27,2026-01-27,合同会社ＳＴＡＲ　ＬＩＮＥ,,合同会社,栃木県,真岡市,境９２１番地１,,09,209,3214534,,,,,,,2026-01-27,1,,,,,スターライン,0
10876,6110003006052,新規,0,2026-01-27,2026-01-27,エンカレッジ合同会社,,合同会社,新潟県,長岡市,大手通２丁目４番地１アルファステイツ大手通３０１号室,,15,202,9400062,,,,,,,2026-01-27,1,,,,,エンカレッジ,0
11062,6120001283642,新規,0,2026-01-27,2026-01-27,株式会社望礼,,株式会社,大阪府,大阪市北区,梅田１丁目２番２号大阪駅前第二ビル１２‐１２,,27,127,5300001,,,,,,,2026-01-27,1,,,,,ミライ,0
11063,6120001283675,新規,0,2026-01-27,2026-01-27,株式会社ＰＲＯＪＥＣＴ‐Ｃ,,株式会社,大阪府,大阪市中央区,南船場３丁目２番２２号２０５,,27,128,5420081,,,,,,,2026-01-27,1,,,,,プロジェクトシー,0
11064,6120001283683,新規,0,2026-01-27,2026-01-27,株式会社Ｍａｉｄｏ　Ｅｓｔａｔｅ,,株式会社,大阪府,大阪市西区,立売堀１丁目５番２号立売堀ビルディング３１号室,,27,106,5500012,,,,,,,2026-01-27,1,,,,,マイドエステート,0
11065,6120001283691,新規,0,2026-01-27,2026-01-27,株式会社ＦＢマネージメント,,株式会社,大阪府,大阪市中央区,南船場４丁目１０番１８号,,27,128,5420081,,,,,,,2026-01-27,1,,,,,エフビーマネージメント,0
11077,6120003031776,新規,0,2026-01-27,2026-01-27,合同会社アリス,,合同会社,大阪府,大阪市福島区,大開３丁目１番２－１３１号,,27,103,5530007,,,,,,,2026-01-27,1,,,,,アリス,0
11143,6120901052139,新規,0,2026-01-27,2026-01-27,株式会社ケイズシステム,,株式会社,大阪府,吹田市,山田東４丁目６番３号,,27,205,5650821,,,,,,,2026-01-27,1,,,,,ケイズシステム,0
11147,6130001081459,新規,0,2026-01-27,2026-01-27,株式会社京六助,,株式会社,京都府,綴喜郡宇治田原町,大字湯屋谷小字西塩谷９番地,,26,344,6100221,,,,,,,2026-01-27,1,,,,,キョウロクスケ,0
11572,6140001141427,新規,0,2026-01-27,2026-01-27,マインベル株式会社,,株式会社,兵庫県,西宮市,二見町１番２３号ソレイユ甲子園口２０Ｂ,,28,204,6638111,,,,,,,2026-01-27,1,,,,,マインベル,0
11573,6140001141484,新規,0,2026-01-27,2026-01-27,株式会社ＫｅｎＫｏ,,株式会社,兵庫県,神戸市灘区,赤松町１丁目１番１４号,,28,102,6570061,,,,,,,2026-01-27,1,,,,,ケンコウ,0
11582,6140003023111,新規,0,2026-01-27,2026-01-27,東和通商合同会社,,合同会社,兵庫県,三木市,芝町５－３,,28,215,6730414,,,,,,,2026-01-27,1,,,,,トウワツウショウ,0
11612,6160003003714,新規,0,2026-01-27,2026-01-27,合同会社レトア,,合同会社,滋賀県,大津市,北大路２丁目２３番３２号,,25,201,5200843,,,,,,,2026-01-27,1,,,,,レトア,0
11637,6170005007183,新規,0,2026-01-27,2026-01-27,医療法人創生,,その他の設立登記法人,和歌山県,岩出市,高塚１８８－１スーパーエバグリーンプラス岩出高塚店２Ｆ,,30,209,6496223,,,,,,,2026-01-27,1,,,,,ソウセイ,0
11641,6180001170422,新規,0,2026-01-27,2026-01-27,株式会社アルファサポート,,株式会社,愛知県,春日井市,中町９４番地１,,23,206,4860962,,,,,,,2026-01-27,1,,,,,アルファサポート,0
11651,6180305009762,新規,0,2026-01-27,2026-01-27,特定非営利活動法人ＳＫＩＰ,,その他の設立登記法人,愛知県,豊川市,御津町御馬加美１５番地,,23,207,4410311,,,,,,,2026-01-27,1,,,,,スキップ,0
11653,6200001044656,新規,0,2026-01-27,2026-01-27,株式会社ＴＳアセット,,株式会社,岐阜県,恵那市,長島町中野３０７番地,,21,210,5097205,,,,,,,2026-01-27,1,,,,,ティーエスアセット,0
11657,6240003007566,新規,0,2026-01-27,2026-01-27,クリーンエネルギー３号合同会社,,合同会社,広島県,広島市安佐南区,中筋１丁目１８番２５号２Ｆ,,34,105,7310122,,,,,,,2026-01-27,1,,,,,クリーンエネルギーサンゴウ,0
11660,6260003005493,新規,0,2026-01-27,2026-01-27,合同会社Ｈａｌｅｎｏ,,合同会社,岡山県,笠岡市,中央町３３番地５,,33,205,7140088,,,,,,,2026-01-27,1,,,,,ハレノ,0
11895,6290003017965,新規,0,2026-01-27,2026-01-27,合同会社ＡＣＴＩＶＥ,,合同会社,福岡県,福岡市博多区,中洲５丁目３番１８号ＴＭ－１６ＢＵＩＬＤＩＮＧ８階,,40,132,8100801,,,,,,,2026-01-27,1,,,,,アクティブ,0
12071,6340003005080,新規,0,2026-01-27,2026-01-27,合同会社Ｄｏｏｒｓ,,合同会社,鹿児島県,大島郡宇検村,大字芦検５１７番地,00142341,46,524,8943302,,,,,,,2026-01-27,1,,,,,ドアーズ,0
12088,6370003007454,新規,0,2026-01-27,2026-01-27,ＮＤＨＭ合同会社,,合同会社,宮城県,仙台市青葉区,中央２丁目１１－１９仙南ビル４階－Ａ,,04,101,9800021,,,,,,,2026-01-27,1,,,,,エヌディーエイチエム,0
12097,6400001017294,新規,0,2026-01-27,2026-01-27,ゆうがおせ株式会社,,株式会社,岩手県,花巻市,下幅１４番２８号,,03,205,0250068,,,,,,,2026-01-27,1,,,,,ユウガオセ,0
12104,6430001096121,新規,0,2026-01-27,2026-01-27,ｓａａｍｏｎ株式会社,,株式会社,北海道,札幌市白石区,菊水八条３丁目８番１７－４０２号,,01,104,0030808,,,,,,,2026-01-27,1,,,,,サーモン,0
12159,6700150134174,新規,0,2026-01-27,2026-01-27,ｊｉａｎｌｉｓｈｉｌｅｉｍｕｍａｏｙｉｙｏｕｘｉａｎｇｏｎｇｓｉ,,外国会社等,,,,,,,,Ｎｏ．２４，Ｇｒｏｕｐ　３，Ｙｏｎｇｈｏｎｇ　Ｖｉｌｌａｇｅ，Ｃｈｅｎｇｊｉ　Ｔｏｗｎ，Ｊｉａｎｌｉ　Ｃｉｔｙ，Ｊｉｎｇｚｈｏｕ　Ｃｉｔｙ，Ｈｕｂｅｉ　Ｐｒｏｖｉｎｃｅ,,,,,,2026-01-27,1,,,,,ジェンリシレイムマオイユウゲンコウシ,0
12171,7010001261922,新規,0,2026-01-27,2026-01-27,株式会社伊勢茶寮,,株式会社,東京都,千代田区,富士見２丁目１番１０号升本ビル１Ｆ,,13,101,1020071,,,,,,,2026-01-27,1,,,,,イセサリョウ,0
12172,7010001262235,新規,0,2026-01-27,2026-01-27,ＲＥＬＥＸソリューションズ株式会社,,株式会社,東京都,中央区,築地５丁目４番１９号,,13,102,1040045,,,,,,,2026-01-27,1,,,,,リレックスソリューションズ,0
12173,7010001262301,新規,0,2026-01-27,2026-01-27,ＣＳＲＩ６号株式会社,,株式会社,東京都,千代田区,大手町２丁目２番１号新大手町ビル８階,,13,101,1000004,,,,,,,2026-01-27,1,,,,,シーエスアールアイロクゴウ,0
12178,7010003050019,新規,0,2026-01-27,2026-01-27,合同会社エヌコレクション,,合同会社,東京都,千代田区,神田和泉町１番地６－１６ヤマトビル４０５,,13,101,1010024,,,,,,,2026-01-27,1,,,,,エヌコレクション,0
12179,7010005041271,新規,0,2026-01-27,2026-01-27,一般社団法人ＣＤＧ,,その他の設立登記法人,東京都,中央区,日本橋３丁目２番１５号１階,,13,102,1030027,,,,,,,2026-01-27,1,,,,,シーディージー,0
12184,7010401195613,新規,0,2026-01-27,2026-01-27,株式会社ＴＳＴ,,株式会社,東京都,港区,北青山１丁目３番１号アールキューブ青山３階,,13,103,1070061,,,,,,,2026-01-27,1,,,,,ティーエスティー,0
12185,7010401196009,新規,0,2026-01-27,2026-01-27,Ａｄ　Ｖｉｔａｍ　Ｔｏｋｙｏ株式会社,,株式会社,東京都,港区,赤坂７丁目５番４８－７０２号,,13,103,1070052,,,,,,,2026-01-27,1,,,,,アドヴィタムトウキョウ,0
12186,7010401196066,新規,0,2026-01-27,2026-01-27,Ａｚａｂｕ　Ｗｏｒｌｄ　Ｔｒａｄｅ株式会社,,株式会社,東京都,港区,麻布十番３丁目５番８－６０２号,,13,103,1060045,,,,,,,2026-01-27,1,,,,,アザブワールドトレード,0
12187,7010401196074,新規,0,2026-01-27,2026-01-27,ＲｅＤｉｇｉｔａｌ株式会社,,株式会社,東京都,港区,六本木１丁目９番９号六本木ファーストビル１４Ｆ,,13,103,1060032,,,,,,,2026-01-27,1,,,,,リデジタル,0
12188,7010401196124,新規,0,2026-01-27,2026-01-27,株式会社ＷＩＤＥＪ,,株式会社,東京都,港区,六本木６丁目１６番１１－１０３号,,13,103,1060032,,,,,,,2026-01-27,1,,,,,ワイドジェー,0
12190,7010403037078,新規,0,2026-01-27,2026-01-27,合同会社Ｐｏｌｙｇｏｎ　Ｗｏｒｋｓ,,合同会社,東京都,港区,新橋３丁目１９番４号新共ビル２Ｆ,,13,103,1050004,,,,,,,2026-01-27,1,,,,,ポリゴンワークス,0
12191,7010403037144,新規,0,2026-01-27,2026-01-27,合同会社ＨＭＤ　Ａｓｉａ　Ｇｒｏｗｔｈ　Ｆｕｎｄ１号,,合同会社,東京都,港区,南青山４丁目１８番１１号フォレストヒルズイーストウィング２Ｆ,,13,103,1070062,,,,,,,2026-01-27,1,,,,,エイチエムディアジアグロースファンドイチゴウ,0
12196,7010601068627,新規,0,2026-01-27,2026-01-27,高山フォーラム株式会社,00142344,株式会社,東京都,江東区,高橋１４番２３号３階,,13,108,1350005,,,,,,,2026-01-27,1,,,,,タカヤマフォーラム,0
12201,7010703008101,新規,0,2026-01-27,2026-01-27,合同会社コアアクシス,,合同会社,東京都,品川区,旗の台２丁目１０－２－７０７,,13,109,1420064,,,,,,,2026-01-27,1,,,,,コアアクシス,0
12231,7010901058823,新規,0,2026-01-27,2026-01-27,株式会社内藤体操倶楽部,,株式会社,東京都,世田谷区,若林２丁目１７番１２号１階,,13,112,1540023,,,,,,,2026-01-27,1,,,,,ナイトウタイソウクラブ,0
12235,7010903010575,新規,0,2026-01-27,2026-01-27,合同会社高木企画,00142338,合同会社,東京都,世田谷区,下馬５丁目５番９号,,13,112,1540002,,,,,,,2026-01-27,1,,,,,タカギキカク,0
12236,7010903010583,新規,0,2026-01-27,2026-01-27,Ｔ＆Ｅ合同会社,,合同会社,東京都,世田谷区,北沢４丁目９番１２号,,13,112,1550031,,,,,,,2026-01-27,1,,,,,ティーアンドイー,0
12244,7011003023352,新規,0,2026-01-27,2026-01-27,合同会社ＬａｕｇｈＴａｌｅ,,合同会社,東京都,渋谷区,桜丘町２９番３５号,,13,113,1500031,,,,,,,2026-01-27,1,,,,,ラフテル,0
12559,7011101114524,新規,0,2026-01-27,2026-01-27,株式会社ＵＮＩＢＬＡＮＣ,,株式会社,東京都,新宿区,新宿２丁目１１番４号ストークビル長崎３Ｆ,,13,104,1600022,,,,,,,2026-01-27,1,,,,,ユニブラン,0
12560,7011101114565,新規,0,2026-01-27,2026-01-27,株式会社いちじくＬＡＢＯ,,株式会社,東京都,新宿区,西新宿３丁目３番１３号西新宿水間ビル６階,,13,104,1600023,,,,,,,2026-01-27,1,,,,,イチジクラボ,0
12565,7011103016652,新規,0,2026-01-27,2026-01-27,合同会社丸五商事,,合同会社,東京都,新宿区,水道町４番１８号ＤＩＰＳ神楽坂６０４,,13,104,1620811,,,,,,,2026-01-27,1,,,,,マルゴショウジ,0
12566,7011103016933,新規,0,2026-01-27,2026-01-27,合同会社ＡＭＲ　ＳＯＬＵＴＩＯＮＳ,,合同会社,東京都,新宿区,新小川町六丁目２７番地飯田橋第二パークファミリア４０４,,13,104,1620814,,,,,,,2026-01-27,1,,,,,エーエムアールソリューションズ,0
12567,7011103016999,新規,0,2026-01-27,2026-01-27,合同会社ＳＴＡＹ９,,合同会社,東京都,新宿区,新宿１丁目５番３号シスナ・パートナーズ会計事務所内,,13,104,1600022,,,,,,,2026-01-27,1,,,,,ステイナイン,0
12594,7011203004937,新規,0,2026-01-27,2026-01-27,合同会社イマジン,,合同会社,東京都,中野区,中野５丁目４３－１０リバティヒルズ中野４０１,,13,114,1640001,,,,,,,2026-01-27,1,,,,,イマジン,0
12602,7011301031214,新規,0,2026-01-27,2026-01-27,株式会社ぜんくらし,,株式会社,東京都,杉並区,阿佐谷南１丁目４０番３１号,,13,115,1660004,,,,,,,2026-01-27,1,,,,,ゼンクラシ,0
12697,7011501033002,新規,0,2026-01-27,2026-01-27,株式会社平田不動産,,株式会社,東京都,荒川区,東日暮里２丁目４７番７号,,13,118,1160014,,,,,,,2026-01-27,1,,,,,ヒラタフドウサン,0
12707,7011801047370,新規,0,2026-01-27,2026-01-27,株式会社ケークラフトワン,,株式会社,東京都,葛飾区,東新小岩８丁目１４番２０号,,13,122,1240023,,,,,,,2026-01-27,1,,,,,ケークラフトワン,0
12708,7011803007298,新規,0,2026-01-27,2026-01-27,合同会社ＭＡＰＬＥ,,合同会社,東京都,足立区,千住旭町２０番４号,,13,121,1200026,,,,,,,2026-01-27,1,,,,,メープル,0
12710,7012303002277,新規,0,2026-01-27,2026-01-27,ＳＡＨ合同会社,,合同会社,東京都,町田市,原町田４丁目１１番１３号天野ビル４階,,13,209,1940013,,,,,,,2026-01-27,1,,,,,エスエイエイチ,0
12712,7012401044056,新規,0,2026-01-27,2026-01-27,株式会社ＦｒｅｅＱｕｅｓ,,株式会社,東京都,狛江市,中和泉３丁目１０‐７,,13,219,2010012,,,,,,,2026-01-27,1,,,,,フリークス,0
12713,7012401044064,新規,0,2026-01-27,2026-01-27,株式会社玲義,,株式会社,東京都,武蔵野市,西久保３丁目１９番１１号,,13,203,1800013,,,,,,,2026-01-27,1,,,,,レイギ,0
12789,7020001166807,新規,0,2026-01-27,2026-01-27,株式会社エーオーキューブ,,株式会社,神奈川県,川崎市中原区,市ノ坪１１８番地,,14,133,2110016,,,,,,,2026-01-27,1,,,,,エーオーキューブ,0
12790,7020001166906,新規,0,2026-01-27,2026-01-27,ＫＤＫ　Ｃｏｎｓｕｌｔｉｎｇ株式会社,,株式会社,神奈川県,川崎市高津区,下作延１丁目１１番８号,,14,134,2130033,,,,,,,2026-01-27,1,,,,,ケーディーケーコンサルティング,0
12867,7021001087299,新規,0,2026-01-27,2026-01-27,株式会社阿修羅技研,,株式会社,神奈川県,藤沢市,川名１丁目１１－４２,,14,205,2510015,,,,,,,2026-01-27,1,,,,,アシュラギケン,0
12868,7021001087365,新規,0,2026-01-27,2026-01-27,株式会社グリーンウィル,,株式会社,神奈川県,相模原市緑区,東橋本２丁目２１番６号,,14,151,2520144,,,,,,,2026-01-27,1,,,,,グリーンウィル,0
12911,7030003028509,新規,0,2026-01-27,2026-01-27,合同会社ミツイ,,合同会社,埼玉県,川越市,南大塚４丁目４－５,,11,201,3501162,,,,,,,2026-01-27,1,,,,,ミツイ,0
12912,7030003028525,新規,0,2026-01-27,2026-01-27,合同会社ヒューマンエーアイワークス,,合同会社,埼玉県,川口市,西青木１丁目８番２７号,,11,203,3320035,,,,,,,2026-01-27,1,,,,,ヒューマンエーアイワークス,0
12913,7040001142178,新規,0,2026-01-27,2026-01-27,株式会社Ｓａｎｍｏｃ,,株式会社,千葉県,大網白里市,季美の森南３丁目６－６,,12,239,2993241,,,,,,,2026-01-27,1,,,,,サンモック,0
12918,7060003005934,新規,0,2026-01-27,2026-01-27,Ｃ２ＴＲＡＤＥＲＳ合同会社,,合同会社,栃木県,小山市,駅東通り１丁目４０－３ベルディマンションＩ－２０３号,00142342,09,208,3230022,,,,,,,2026-01-27,1,,,,,シーツートレーダーズ,0
12921,7080001027400,新規,0,2026-01-27,2026-01-27,株式会社全国不動産情報センター,,株式会社,静岡県,静岡市葵区,安東３丁目１２番１５号,,22,101,4200882,,,,,,,2026-01-27,1,,,,,ゼンコクフドウサンジョウホウセンター,0
12925,7080401028403,新規,0,2026-01-27,2026-01-27,株式会社ヤマサ鈴木園,,株式会社,静岡県,御前崎市,上朝比奈１８６４番地の１,,22,223,4371601,,,,,,,2026-01-27,1,,,,,ヤマサスズキエン,0
12927,7100001039293,新規,0,2026-01-27,2026-01-27,株式会社高木広告社,00142340,株式会社,長野県,松本市,開智１丁目６番１７号,,20,202,3900876,,,,,,,2026-01-27,1,,,,,タカギコウコクシャ,0
12954,7110003006051,新規,0,2026-01-27,2026-01-27,合同会社ＲＡＮＫＥＩ,,合同会社,新潟県,三条市,長野１４５０番地,,15,204,9550132,,,,,,,2026-01-27,1,,,,,ランケイ,0
13127,7120001283591,新規,0,2026-01-27,2026-01-27,株式会社ｉｄｅａｌ,,株式会社,大阪府,大阪市中央区,瓦町４丁目６－８ローレルタワー御堂筋本町２３０６,,27,128,5410048,,,,,,,2026-01-27,1,,,,,アイディール,0
13128,7120001283641,新規,0,2026-01-27,2026-01-27,アライアンスベンダーズ株式会社,,株式会社,大阪府,大阪市北区,中之島２丁目２番７号,,27,127,5300005,,,,,,,2026-01-27,1,,,,,アライアンスベンダーズ,0
13145,7120003031742,新規,0,2026-01-27,2026-01-27,夢のほっこりハウス合同会社,,合同会社,大阪府,大阪市生野区,舎利寺３丁目３番２３号,,27,116,5440022,,,,,,,2026-01-27,1,,,,,ユメノホッコリハウス,0
13146,7120003031759,新規,0,2026-01-27,2026-01-27,合同会社シクミル,,合同会社,大阪府,大阪市北区,梅田１丁目１番３号大阪駅前第３ビル２９階,,27,127,5300001,,,,,,,2026-01-27,1,,,,,シクミル,0
13147,7120003031775,新規,0,2026-01-27,2026-01-27,合同会社ふく,,合同会社,大阪府,大阪市西成区,天下茶屋２丁目７番１７号ＫＩＫ天下茶屋ビル３Ａ,,27,122,5570014,,,,,,,2026-01-27,1,,,,,フク,0
13148,7120003031783,新規,0,2026-01-27,2026-01-27,アイランドセントラル合同会社,,合同会社,大阪府,大阪市北区,梅田１丁目１‐３大阪駅前第３ビル２９階１‐１‐１号室,,27,127,5300001,,,,,,,2026-01-27,1,,,,,アイランドセントラル,0
13149,7120003031791,新規,0,2026-01-27,2026-01-27,ＯＭ　ＥＮＥＲＧＹ合同会社,,合同会社,大阪府,大阪市阿倍野区,阪南町６丁目５番２号,,27,119,5450021,,,,,,,2026-01-27,1,,,,,オーエムエナジー,0
13157,7120005025379,新規,0,2026-01-27,2026-01-27,一般社団法人ちゅう右脳アカデミー,,その他の設立登記法人,大阪府,大阪市港区,八幡屋１丁目９－２１Ｍハウス２０２,,27,107,5520014,,,,,,,2026-01-27,1,,,,,チュウウノウアカデミー,0
13199,7120905006841,新規,0,2026-01-27,2026-01-27,一般社団法人ＮＵＶＩＯＮ,,その他の設立登記法人,大阪府,箕面市,半町２丁目３番１８号,,27,220,5620044,,,,,,,2026-01-27,1,,,,,ヌヴィオン,0
13633,7140001141335,新規,0,2026-01-27,2026-01-27,株式会社河野商事,,株式会社,兵庫県,神戸市北区,杉尾台２丁目１０－１,,28,109,6511146,,,,,,,2026-01-27,1,,,,,コウノショウジ,0
13634,7140001141475,新規,0,2026-01-27,2026-01-27,株式会社Ｈｏｎｅｓｔｗａｙ,,株式会社,兵庫県,神戸市中央区,磯上通４丁目１－３２ロイヤル磯上３０８号室,,28,110,6510086,,,,,,,2026-01-27,1,,,,,オネストウェイ,0
13635,7140001141483,新規,0,2026-01-27,2026-01-27,株式会社ＭｉＭｉ,,株式会社,兵庫県,川西市,火打２丁目１３番１９－１号,,28,217,6660017,,,,,,,2026-01-27,1,,,,,ミミ,0
13636,7140001141517,新規,0,2026-01-27,2026-01-27,株式会社オリシャン天龍,,株式会社,兵庫県,神戸市兵庫区,中道通６丁目４番１０号ＦＡＣＥ１０１号室,,28,105,6520801,,,,,,,2026-01-27,1,,,,,オリシャンテンリュウ,0
13637,7140001141525,新規,0,2026-01-27,2026-01-27,株式会社ＷＡＫＡ　ＪＡＰＡＮ,,株式会社,兵庫県,神戸市中央区,二宮町３丁目１２番３－１０１０号,,28,110,6510093,,,,,,,2026-01-27,1,,,,,ワカジャパン,0
13662,7140005027778,新規,0,2026-01-27,2026-01-27,一般社団法人回数券推進協会,,その他の設立登記法人,兵庫県,神戸市中央区,下山手通４丁目１５－１モンルポダフネビル,,28,110,6500011,,,,,,,2026-01-27,1,,,,,カイスウケンスイシンキョウカイ,0
13699,7180003029698,新規,0,2026-01-27,2026-01-27,合同会社ＦＵＴＥＳＴＡ,,合同会社,愛知県,大府市,桃山町２丁目２９４番地,,23,223,4740026,,,,,,,2026-01-27,1,,,,,フテスタ,0
13707,7230001021263,新規,0,2026-01-27,2026-01-27,株式会社ＪＪＹ’ｓ,,株式会社,富山県,高岡市,江尻３５９番地,,16,202,9330062,,,,,,,2026-01-27,1,,,,,ジェイジェイワイズ,0
13709,7240003007565,新規,0,2026-01-27,2026-01-27,クリーンエネルギー２号合同会社,,合同会社,広島県,広島市安佐南区,中筋１丁目１８番２５号２Ｆ,,34,105,7310122,,,,,,,2026-01-27,1,,,,,クリーンエネルギーニゴウ,0
13710,7240005016036,新規,0,2026-01-27,2026-01-27,一般社団法人ロイヤルアグリアカデミー,,その他の設立登記法人,広島県,福山市,松永町４丁目１５番８３号,,34,207,7290104,,,,,,,2026-01-27,1,,,,,ロイヤルアグリアカデミー,0
14055,7290801032207,新規,0,2026-01-27,2026-01-27,株式会社ヒューマンアシスト,,株式会社,福岡県,田川市,大字夏吉１９８－１アーバンハイツ桐ヶ丘Ｉ棟１２号,00142348,40,206,8250004,,,,,,,2026-01-27,1,,,,,ヒューマンアシスト,0
14067,7320003004868,新規,0,2026-01-27,2026-01-27,ｍｏｒｅｔｈａｎ合同会社,,合同会社,大分県,大分市,大字松岡７１７３番地の３,,44,201,8700125,,,,,,,2026-01-27,1,,,,,モアザン,0
14149,7350003005129,新規,0,2026-01-27,2026-01-27,合同会社ＲＩＫ,,合同会社,宮崎県,宮崎市,大字田吉姥ヶ島６３０４－１１,,45,201,8800911,,,,,,,2026-01-27,1,,,,,リック,0
14156,7370005011065,新規,0,2026-01-27,2026-01-27,特定非営利活動法人ＣＡＴＳ,,その他の設立登記法人,宮城県,仙台市泉区,南光台２丁目１３番１号,,04,105,9818003,,,,,,,2026-01-27,1,,,,,キャッツ,0
14167,7430003018519,新規,0,2026-01-27,2026-01-27,合同会社はれれあ,,合同会社,北海道,札幌市中央区,宮の森四条５丁目４－２１－３０３,,01,101,0640954,,,,,,,2026-01-27,1,,,,,ハレレア,0
14225,7700150034431,新規,0,2026-01-27,2015-10-09,日高町村会,,その他,北海道,浦河郡浦河町,栄丘東通５６日高振興局　内,,01,607,0570023,,,,,,,2015-10-09,1,,,,,ヒダカチヨウソンカイ,0
14226,7700150134140,新規,0,2026-01-27,2026-01-27,Ｓｎａｆ　Ｈｉｇｈ　Ｃｏｍｐａｎｙ　Ｐｖｔ　Ｌｔｄ,,外国会社等,神奈川県,厚木市,三田４４－２,,14,212,2430211,スリランカ民主社会主義共和国、ＮＯ．３４／Ｂ、キャンディロード、ワラカムラ、ウクウェラ,,,,,,2026-01-27,1,,,,,スナフハイカンパニープライベートリミテツド,0
14227,7700150134173,新規,0,2026-01-27,2026-01-27,Ｓｈｅｎｚｈｅｎ　Ｌｉａｎｒｕｉ　Ｅｌｅｃｔｒｏｎｉｃｓ　Ｃｏ．，Ｌｔｄ．,,外国会社等,,,,,,,,ｌｏｎｇｇａｎｇｑｕ　ｌｏｎｇｇａｎｇｊｉｅｄａｏ　ｘｉｎｓｈｅｎｇｓｈｅｑｕ　ｂｉｘｉｎｌｕ２３８０ｈａｏ　ｘｉｎｓｈｅｎｇｌｖｇｕ１ｄｏｎｇＢ９ｃｅｎｇＢ１０ｃｅｎｇ　ｓｈｅｎｚｈｅｎｓｈｉ,,,,,,2026-01-27,1,,,,,シンセンリェンルイエレクトロニクスカンパニーリミテッド,0
14237,8010001262176,新規,0,2026-01-27,2026-01-27,株式会社ＡＣ‐１３,,株式会社,東京都,千代田区,麹町３丁目５番地２,,13,101,1020083,,,,,,,2026-01-27,1,,,,,エーシーサーティーン,0
14238,8010001262275,新規,0,2026-01-27,2026-01-27,Ｋｙｌｉｎ芝株式会社,,株式会社,東京都,千代田区,大手町１丁目７番２号東京サンケイビル２７階,,13,101,1000004,,,,,,,2026-01-27,1,,,,,キリンシバ,0
14245,8010401195868,新規,0,2026-01-27,2026-01-27,株式会社ＡＲＧＯＮ,,株式会社,東京都,港区,麻布十番１丁目２番７号ラフィネ麻布十番７０１号室,,13,103,1060045,,,,,,,2026-01-27,1,,,,,アルゴン,0
14248,8010403037093,新規,0,2026-01-27,2026-01-27,ＹＡアセット合同会社,,合同会社,東京都,港区,三田１丁目６番３－１９０９号,,13,103,1080073,,,,,,,2026-01-27,1,,,,,ワイエイアセット,0
14250,8010405025294,新規,0,2026-01-27,2026-01-27,コスモス一般社団法人,,その他の設立登記法人,東京都,港区,六本木１丁目６番１号泉ガーデンタワー,,13,103,1060032,,,,,,,2026-01-27,1,,,,,コスモス,0
14258,8010601068634,新規,0,2026-01-27,2026-01-27,株式会社ライトディレクション,,株式会社,東京都,江東区,亀戸１丁目８番５号小林ビルディング６Ｆ,,13,108,1360071,,,,,,,2026-01-27,1,,,,,ライトディレクション,0
14259,8010603011947,新規,0,2026-01-27,2026-01-27,合同会社リロカ,,合同会社,東京都,江東区,有明３丁目７番２６号アリアケフロンティアビルＢ棟９階,,13,108,1350063,,,,,,,2026-01-27,1,,,,,リロカ,0
14260,8010703008109,新規,0,2026-01-27,2026-01-27,合同会社ＳｋｙＬｏｇｉｃ,,合同会社,東京都,品川区,西五反田１丁目２６番２号五反田サンハイツ９１１,,13,109,1410031,,,,,,,2026-01-27,1,,,,,スカイロジック,0
14295,8010903010582,新規,0,2026-01-27,2026-01-27,ＫＯＫＯＪＡＰＡＮＣＡＲＳ合同会社,,合同会社,東京都,世田谷区,弦巻２丁目３番２４号,,13,112,1540016,,,,,,,2026-01-27,1,,,,,ココジャパンカーズ,0
14597,8011101114523,新規,0,2026-01-27,2026-01-27,株式会社Ｚｅｎａｔｏ,,株式会社,東京都,新宿区,新宿５丁目２番７－５０３号,,13,104,1600022,,,,,,,2026-01-27,1,,,,,ゼナト,0
14598,8011101114572,新規,0,2026-01-27,2026-01-27,株式会社ｃｈｉｒｏｌｉａｎ,,株式会社,東京都,新宿区,西新宿３丁目３番１３号西新宿水間ビル２Ｆ,,13,104,1600023,,,,,,,2026-01-27,1,,,,,チロリアン,0
14602,8011103016924,新規,0,2026-01-27,2026-01-27,合同会社あわたね,,合同会社,東京都,新宿区,西新宿３丁目３番１３号西新宿水間ビル６階,,13,104,1600023,,,,,,,2026-01-27,1,,,,,アワタネ,0
14603,8011103016981,新規,0,2026-01-27,2026-01-27,合同会社三井建設,,合同会社,東京都,新宿区,西新宿３丁目３番１３号西新宿水間ビル２Ｆ,,13,104,1600023,,,,,,,2026-01-27,1,,,,,ミツイケンセツ,0
14715,8011605002686,新規,0,2026-01-27,2026-01-27,一般社団法人東京不動産再生機構,,その他の設立登記法人,東京都,練馬区,田柄５丁目２５番８号,,13,120,1790073,,,,,,,2026-01-27,1,,,,,トウキョウフドウサンサイセイキコウ,0
14718,8011803007297,新規,0,2026-01-27,2026-01-27,合同会社ＴＡＫＡＯ運送,,合同会社,東京都,足立区,神明３丁目３番１８号,,13,121,1210051,,,,,,,2026-01-27,1,,,,,タカオウンソウ,0
14726,8013301055662,新規,0,2026-01-27,2026-01-27,建設ロボティクス株式会社,,株式会社,東京都,豊島区,東池袋２丁目６２番８号ＢＩＧオフィスプラザ池袋１２０６,,13,116,1700013,,,,,,,2026-01-27,1,,,,,ケンセツロボティクス,0
14803,8020001166839,新規,0,2026-01-27,2026-01-27,ＫＣＫ株式会社,,株式会社,神奈川県,横浜市栄区,庄戸３丁目１０番１８号,,14,115,2470022,,,,,,,2026-01-27,1,,,,,ケーシーケー,0
14826,8020003030200,新規,0,2026-01-27,2026-01-27,Ｒｅｄ　Ｗａｇｏｎ　Ｔｒａｖｅｌ合同会社,,合同会社,神奈川県,横浜市中区,尾上町４丁目５７番地,,14,104,2310015,,,,,,,2026-01-27,1,,,,,レッドワゴントラベル,0
14827,8020003030217,新規,0,2026-01-27,2026-01-27,ＴＫコーポレーション合同会社,,合同会社,神奈川県,横浜市南区,平楽１４８番地３横浜ダイカンプラザスポーツメント９０７号,,14,105,2320035,,,,,,,2026-01-27,1,,,,,ティケーコーポレーション,0
14828,8020003030266,新規,0,2026-01-27,2026-01-27,Ｓｔａｙ　Ａｘｉａ合同会社,,合同会社,神奈川県,横浜市泉区,中田北１丁目１２番１１号ＮＥＸＵＳ３・３０１号,,14,116,2450012,,,,,,,2026-01-27,1,,,,,ステイアクシア,0
14885,8021001087307,新規,0,2026-01-27,2026-01-27,株式会社ＦａｒｍＷｉｔｈ,,株式会社,神奈川県,茅ヶ崎市,小和田２丁目１０番１５号,,14,207,2530012,,,,,,,2026-01-27,1,,,,,ファームウィズ,0
14886,8021001087364,新規,0,2026-01-27,2026-01-27,株式会社プロシードＨＤ,,株式会社,神奈川県,鎌倉市,大船３丁目２－１５プロシードＥａｓｔＩＩ,00142345,14,204,2470056,,,,,,,2026-01-27,1,,,,,プロシードホールディングス,0
14915,8040003029323,新規,0,2026-01-27,2026-01-27,合同会社ふくろう工務店,,合同会社,千葉県,いすみ市,岬町榎沢１８２９―１,,12,238,2994508,,,,,,,2026-01-27,1,,,,,フクロウコウムテン,0
14916,8040003029348,新規,0,2026-01-27,2026-01-27,ＩＮＳＩＤＥ　ＥＤＧＥ合同会社,,合同会社,千葉県,大網白里市,北飯塚１８２番地１３,,12,239,2993218,,,,,,,2026-01-27,1,,,,,インサイドエッジ,0
14917,8040003029356,新規,0,2026-01-27,2026-01-27,隼Ｓｋｙｌｉｎｅ合同会社,,合同会社,千葉県,成田市,宗吾２丁目２８４番地７,,12,211,2860004,,,,,,,2026-01-27,1,,,,,ハヤブサスカイライン,0
14923,8070001043744,新規,0,2026-01-27,2026-01-27,株式会社新日本規制北関東,,株式会社,群馬県,太田市,内ケ島町１０５４番地２,,10,205,3730813,,,,,,,2026-01-27,1,,,,,シンニホンキセイキタカントウ,0
14928,8080403005432,新規,0,2026-01-27,2026-01-27,合同会社Ａ３,,合同会社,静岡県,浜松市中央区,富塚町２５７５番地の７,,22,138,4328002,,,,,,,2026-01-27,1,,,,,エースリー,0
14970,8110003006050,新規,0,2026-01-27,2026-01-27,合同会社Ｎｅｘｅｎｔｒｙ,,合同会社,新潟県,長岡市,下山６丁目１７５番地９,,15,202,9402115,,,,,,,2026-01-27,1,,,,,ネクセントリー,0
15134,8120001283715,新規,0,2026-01-27,2026-01-27,株式会社二色浜Ｐｒｅｍｉｅｒｅ,,株式会社,大阪府,大阪市中央区,南船場１丁目７番８号,,27,128,5420081,,,,,,,2026-01-27,1,,,,,ニシキノハマプレミア,0
15146,8120003031774,新規,0,2026-01-27,2026-01-27,アップトラスト合同会社,,合同会社,大阪府,大阪市東淀川区,下新庄４丁目３番２６号,,27,114,5330021,,,,,,,2026-01-27,1,,,,,アップトラスト,0
15157,8120005025378,新規,0,2026-01-27,2026-01-27,一般社団法人雪待技工,,その他の設立登記法人,大阪府,大阪市中央区,東心斎橋１丁目９－１９－３０７号室,,27,128,5420083,,,,,,,2026-01-27,1,,,,,ユキマチギコウ,0
15220,8130001081457,新規,0,2026-01-27,2026-01-27,株式会社とらたつ,,株式会社,京都府,京都市左京区,鹿ケ谷上宮ノ前町４９番地,,26,103,6068447,,,,,,,2026-01-27,1,,,,,トラタツ,0
15221,8130001081481,新規,0,2026-01-27,2026-01-27,株式会社ＷＡＮＩ　ＤＥＳＩＧＮ,,株式会社,京都府,京都市下京区,大黒町２２７,,26,106,6008043,,,,,,,2026-01-27,1,,,,,ワニデザイン,0
15226,8130003011098,新規,0,2026-01-27,2026-01-27,合同会社巨尚,,合同会社,京都府,京都市左京区,下鴨夜光町２１番地,,26,103,6060837,,,,,,,2026-01-27,1,,,,,キョショウ,0
15678,8150001028695,新規,0,2026-01-27,2026-01-27,株式会社Ｍｅ‐ｓｍｉｌｅ,,株式会社,奈良県,天理市,備前町４２０番地,,29,204,6320066,,,,,,,2026-01-27,1,,,,,ミースマイル,0
15694,8170001018959,新規,0,2026-01-27,2026-01-27,株式会社ＲＯＮＧＹＩ,,株式会社,和歌山県,和歌山市,井戸１２０番地１,,30,201,6400352,,,,,,,2026-01-27,1,,,,,ロンイ,0
15702,8180001170412,新規,0,2026-01-27,2026-01-27,株式会社Ａｍｏｒｅ,,株式会社,愛知県,名古屋市名東区,一社４丁目２２３番地,,23,115,4650093,,,,,,,2026-01-27,1,,,,,エーモア,0
15703,8180001170420,新規,0,2026-01-27,2026-01-27,株式会社Ｋｅｙ’ｓ　Ｋｅｙ,,株式会社,愛知県,名古屋市西区,城西２丁目１５番１６号,,23,104,4510031,,,,,,,2026-01-27,1,,,,,キーズキー,0
15704,8180001170437,新規,0,2026-01-27,2026-01-27,株式会社アイトレ,,株式会社,愛知県,名古屋市西区,名駅３丁目７番４－２０６号,,23,104,4510045,,,,,,,2026-01-27,1,,,,,アイトレ,0
15705,8180001170445,新規,0,2026-01-27,2026-01-27,株式会社ＦＵＴＵＰ,,株式会社,愛知県,名古屋市中区,栄３丁目３５－２１菱谷ビル８０８号室,,23,106,4600008,,,,,,,2026-01-27,1,,,,,フットアップ,0
15711,8180301040629,新規,0,2026-01-27,2026-01-27,株式会社ＮＴリンク,,株式会社,愛知県,安城市,新田町小山西６８番地１小山ビルＡ－３０１－Ｂ,,23,212,4460061,,,,,,,2026-01-27,1,,,,,エヌティーリンク,0
15715,8200001044654,新規,0,2026-01-27,2026-01-27,株式会社パンダ農園,,株式会社,岐阜県,羽島市,舟橋町本町５丁目３２番地,,21,209,5016303,,,,,,,2026-01-27,1,,,,,パンダノウエン,0
15728,8260001040937,新規,0,2026-01-27,2026-01-27,株式会社ＲＩＳＥ,,株式会社,岡山県,倉敷市,茶屋町早沖１０７３番地４,,33,202,7101102,,,,,,,2026-01-27,1,,,,,ライズ,0
15729,8260003005491,新規,0,2026-01-27,2026-01-27,合同会社アスクレ,,合同会社,岡山県,岡山市北区,大学町２番１７号大枝ビル３０２号室,,33,101,7000906,,,,,,,2026-01-27,1,,,,,アスクレ,0
15962,8290001112799,新規,0,2026-01-27,2026-01-27,九州光ネットワーク株式会社,,株式会社,福岡県,宗像市,野坂２７２７―１,,40,220,8113423,,,,,,,2026-01-27,1,,,,,キュウシュウヒカリネットワーク,0
16077,8310003005172,新規,0,2026-01-27,2026-01-27,合同会社ＧＲＡＣＩＡ,,合同会社,長崎県,雲仙市,国見町多比良戊４５９番地,,42,213,8591325,,,,,,,2026-01-27,1,,,,,グラシア,0
16153,8350001019872,新規,0,2026-01-27,2026-01-27,株式会社ヒノカゲ,,株式会社,宮崎県,西臼杵郡日之影町,大字岩井川５０４７,,45,442,8820402,,,,,,,2026-01-27,1,,,,,ヒノカゲ,0
16160,8360001036289,新規,0,2026-01-27,2026-01-27,株式会社ＲＡＶＩＮＡＬＡ,,株式会社,沖縄県,島尻郡与那原町,字板良敷６５７番地の７アンソレイユＩＩ１０５,00142346,47,348,9011301,,,,,,,2026-01-27,1,,,,,ラビナラ,0
16163,8370005011064,新規,0,2026-01-27,2026-01-27,一般社団法人ちいさなひかり苑,,その他の設立登記法人,宮城県,宮城郡利府町,加瀬字十三本塚１６２番地９,,04,406,9810111,,,,,,,2026-01-27,1,,,,,チイサナヒカリエン,0
16169,8430001096128,新規,0,2026-01-27,2026-01-27,経営基盤支援センター株式会社,,株式会社,北海道,札幌市手稲区,富丘二条５丁目１番５７－５号,,01,109,0060012,,,,,,,2026-01-27,1,,,,,ケイエイキバンシエンセンター,0
16217,8700150134081,新規,0,2026-01-27,2026-01-27,ＡＣＴＣＯＭ　ＩＮＣ,,外国会社等,,,,,,,,１９００　Ｍｏｎｔｅｒｅｙ　Ｒｄ，Ｓｏｕｔｈ　Ｐａｓａｄｅｎａ，ＣＡ　９１０３０,,,,,,2026-01-27,1,,,,,アクトコムインク,0
16218,8700150134172,新規,0,2026-01-27,2026-01-27,ＳＵＺＨＯＵ　ＭＹＤ　Ｅ－ＣＯＭＭＥＲＣＥ　ＣＯ．，ＬＴＤ,,外国会社等,,,,,,,,Ｒｏｏｍ　２５０１，Ｂａｏｄｉ　Ｂｕｓｉｎｅｓｓ　Ｐｌａｚａ，Ｎｏ．８１８，Ｊｉａｙｕａｎ　Ｒｏａｄ，Ｙｕａｎｈｅ　Ｓｔｒｅｅｔ，Ｘｉａｎｇｃｈｅｎｇ　Ｄｉｓｔｒｉｃｔ，Ｓｕｚｈｏｕ　Ｃｉｔｙ，Ｊｉａｎｇｓｕ　Ｐｒｏｖｉｎｃｅ,,,,,,2026-01-27,1,,,,,スージョウエムワイディーイーコマースカンパニーリミテッド,0
16226,9010001261607,新規,0,2026-01-27,2026-01-27,株式会社コハラプロテイン,,株式会社,東京都,千代田区,内神田１丁目１１番１０号,,13,101,1010047,,,,,,,2026-01-27,1,,,,,コハラプロテイン,0
16227,9010001261680,新規,0,2026-01-27,2026-01-27,株式会社キャリアエディット,,株式会社,東京都,中央区,晴海５丁目６番７－３１０１号,,13,102,1040053,,,,,,,2026-01-27,1,,,,,キャリアエディット,0
16228,9010001261961,新規,0,2026-01-27,2026-01-27,ＵＭＡＸ株式会社,,株式会社,東京都,千代田区,外神田３丁目６番４号第一勧業信用組合秋葉原ビル,,13,101,1010021,,,,,,,2026-01-27,1,,,,,ユマクス,0
16229,9010001262175,新規,0,2026-01-27,2026-01-27,株式会社ＡＣ‐１４,,株式会社,東京都,千代田区,麹町３丁目５番地２,,13,101,1020083,,,,,,,2026-01-27,1,,,,,エーシーフォーティーン,0
16230,9010001262191,新規,0,2026-01-27,2026-01-27,株式会社ＢＣＭ４２,,株式会社,東京都,中央区,京橋２丁目２番１号,,13,102,1040031,,,,,,,2026-01-27,1,,,,,ビーシーエムヨンジュウニ,0
16233,9010003050149,新規,0,2026-01-27,2026-01-27,合同会社彩生社,,合同会社,東京都,中央区,湊２丁目１６番２５－８０１号,,13,102,1040043,,,,,,,2026-01-27,1,,,,,イロハシャ,0
16239,9010401196147,新規,0,2026-01-27,2026-01-27,真むすびカンパニー株式会社,,株式会社,東京都,港区,新橋２丁目１９番３号カシケイビル２階,,13,103,1050004,,,,,,,2026-01-27,1,,,,,マムスビカンパニー,0
16282,9010901058838,新規,0,2026-01-27,2026-01-27,美倫株式会社,,株式会社,東京都,世田谷区,深沢２丁目１０番２４号,,13,112,1580081,,,,,,,2026-01-27,1,,,,,ビリン,0
16295,9011001175012,新規,0,2026-01-27,2026-01-27,株式会社ヒータイズ,,株式会社,東京都,渋谷区,道玄坂１丁目１０－８渋谷道玄坂東急ビル２Ｆ－Ｃ,,13,113,1500043,,,,,,,2026-01-27,1,,,,,ヒータイズ,0
16296,9011001175177,新規,0,2026-01-27,2026-01-27,株式会社ＲＯＢＵＮＣ,,株式会社,東京都,渋谷区,桜丘町２３番１７号シティコート桜丘４０４,,13,113,1500031,,,,,,,2026-01-27,1,,,,,ロバンク,0
16622,9011101114687,新規,0,2026-01-27,2026-01-27,秋山クリエイト株式会社,,株式会社,東京都,新宿区,西新宿３丁目３‐１３西新宿水間ビル２Ｆ,,13,104,1600023,,,,,,,2026-01-27,1,,,,,アキヤマクリエイト,0
16634,9011105011699,新規,0,2026-01-27,2026-01-27,一般社団法人日本未来基盤機構,,その他の設立登記法人,東京都,新宿区,西新宿６丁目１５－１セントラルパークタワーラ・トゥール新宿５０５,,13,104,1600023,,,,,,,2026-01-27,1,,,,,ニホンミライキバンキコウ,0
16658,9011301031220,新規,0,2026-01-27,2026-01-27,株式会社Ｌｕｍｉｎｅｌｌｅ,,株式会社,東京都,杉並区,和泉３丁目５８番１５号,,13,115,1680063,,,,,,,2026-01-27,1,,,,,ルミネル,0
16741,9011601029336,新規,0,2026-01-27,2026-01-27,フジコンビジネスベンチャーズ株式会社,,株式会社,東京都,練馬区,田柄２丁目３６番１１号,,13,120,1790073,,,,,,,2026-01-27,1,,,,,フジコンビジネスベンチャーズ,0
16746,9011801047369,新規,0,2026-01-27,2026-01-27,株式会社カミオーゾ,,株式会社,東京都,足立区,大谷田３丁目２２－１５－５０２,,13,121,1200001,,,,,,,2026-01-27,1,,,,,カミオーゾ,0
16830,9020001166755,新規,0,2026-01-27,2026-01-27,練る株式会社,,株式会社,神奈川県,横浜市中区,桜木町１丁目１番７号コレットマーレ７階千花庵,,14,104,2310062,,,,,,,2026-01-27,1,,,,,ネル,0
16853,9020003030042,新規,0,2026-01-27,2026-01-27,合同会社ｉｉｆｕｆｕ,,合同会社,神奈川県,川崎市幸区,南加瀬３丁目４－２４,,14,132,2120055,,,,,,,2026-01-27,1,,,,,イイフウフ,0
16854,9020003030257,新規,0,2026-01-27,2026-01-27,合同会社ルミナス,,合同会社,神奈川県,川崎市中原区,上丸子天神町３５０番地１オリエンタル新丸子ＩＩＩ２０８,00142347,14,133,2110007,,,,,,,2026-01-27,1,,,,,ルミナス,0
16920,9021001087289,新規,0,2026-01-27,2026-01-27,株式会社キトスタック,,株式会社,神奈川県,藤沢市,辻堂神台２丁目２番１号アイクロス湘南５Ｅ号室,,14,205,2510041,,,,,,,2026-01-27,1,,,,,キトスタック,0
16921,9021001087347,新規,0,2026-01-27,2026-01-27,株式会社穂だか,,株式会社,神奈川県,茅ヶ崎市,元町４番５号,,14,207,2530043,,,,,,,2026-01-27,1,,,,,ホダカ,0
16922,9021001087355,新規,0,2026-01-27,2026-01-27,株式会社リオット,,株式会社,神奈川県,藤沢市,南藤沢９番１２－７０１号,,14,205,2510055,,,,,,,2026-01-27,1,,,,,リオット,0
16954,9030003028449,新規,0,2026-01-27,2026-01-27,ミモザパートナーズ合同会社,,合同会社,埼玉県,川口市,大字里４６８ー６,,11,203,3340005,,,,,,,2026-01-27,1,,,,,ミモザパートナーズ,0
16955,9030003028507,新規,0,2026-01-27,2026-01-27,合同会社ＡＩ,,合同会社,埼玉県,所沢市,小手指町５丁目８－３１,,11,208,3591141,,,,,,,2026-01-27,1,,,,,エーアイ,0
16958,9040001142102,新規,0,2026-01-27,2026-01-27,株式会社ウェルフェアハウジング,,株式会社,千葉県,千葉市中央区,新千葉１丁目７番２号ペリエ＋ｐｌｕｓビル３Ｆ,,12,101,2600031,,,,,,,2026-01-27,1,,,,,ウェルフェアハウジング,0
16959,9040001142127,新規,0,2026-01-27,2026-01-27,ＫＭサービス株式会社,,株式会社,千葉県,松戸市,古ケ崎８２５番地,,12,207,2710068,,,,,,,2026-01-27,1,,,,,ケイエムサービス,0
16960,9040001142201,新規,0,2026-01-27,2026-01-27,株式会社プラナステイ,,株式会社,千葉県,鴨川市,西町１１７９番地,,12,223,2960043,,,,,,,2026-01-27,1,,,,,プラナステイ,0
16975,9070003006277,新規,0,2026-01-27,2026-01-27,ＺＡ　ＴＲＡＤＩＮＧ合同会社,,合同会社,群馬県,伊勢崎市,日乃出町４５５番地３広陽ハイツＡ６,,10,204,3720022,,,,,,,2026-01-27,1,,,,,,0
16978,9080001027398,新規,0,2026-01-27,2026-01-27,株式会社ＥＶＯＬ,,株式会社,静岡県,藤枝市,駅前１丁目８番１５－１００５号,,22,214,4260034,,,,,,,2026-01-27,1,,,,,エヴォル,0
17194,9120001283557,新規,0,2026-01-27,2026-01-27,株式会社Ｒｉｂｅｒｔｅ,,株式会社,大阪府,大阪市中央区,道頓堀１丁目東４番７号小越ビル２０１号室,,27,128,5420071,,,,,,,2026-01-27,1,,,,,リベルテ,0
17195,9120001283689,新規,0,2026-01-27,2026-01-27,株式会社灰垣電気,,株式会社,大阪府,大阪市住之江区,新北島６丁目１番５－３０３号,,27,125,5590024,,,,,,,2026-01-27,1,,,,,ハイガキデンキ,0
17209,9120003031708,新規,0,2026-01-27,2026-01-27,合同会社ＨＩＢＩＫＩ　Ｌａｂ,,合同会社,大阪府,大阪市北区,梅田１丁目１番３号大阪駅前第３ビル２９階１－１－１号室,,27,127,5300001,,,,,,,2026-01-27,1,,,,,ヒビキラボ,0
17210,9120003031749,新規,0,2026-01-27,2026-01-27,合同会社Ｕマネジメント,,合同会社,大阪府,大阪市中央区,東心斎橋１丁目９－１９、３０７号室,,27,128,5420083,,,,,,,2026-01-27,1,,,,,ユーマネジメント,0
17211,9120003031765,新規,0,2026-01-27,2026-01-27,Ｒｅ　Ｊｏｕｒｎｅｙ合同会社,,合同会社,大阪府,大阪市中央区,道修町２丁目２番１１号Ｂｅｌｌｅｒｏａｄ道修町６階,,27,128,5410045,,,,,,,2026-01-27,1,,,,,リジャーニー,0
17212,9120003031773,新規,0,2026-01-27,2026-01-27,楽森商貿合同会社,,合同会社,大阪府,大阪市東住吉区,杭全５丁目１３番２９号エコーハイツ５０５号室,,27,121,5460002,,,,,,,2026-01-27,1,,,,,ラクシンショウボウ,0
17213,9120003031798,新規,0,2026-01-27,2026-01-27,合同会社てん,,合同会社,大阪府,大阪市鶴見区,横堤３丁目８‐４３,,27,124,5380052,,,,,,,2026-01-27,1,,,,,テン,0
17283,9120903006049,新規,0,2026-01-27,2026-01-27,ＵＮＰＡＩＲＥＤ合同会社,,合同会社,大阪府,吹田市,清水４番７－１１０６号,,27,205,5650805,,,,,,,2026-01-27,1,,,,,アンペアード,0
17684,9140001141481,新規,0,2026-01-27,2026-01-27,株式会社ｄｒｉｐ,,株式会社,兵庫県,川辺郡猪名川町,若葉１丁目１３７番地１１,,28,301,6660251,,,,,,,2026-01-27,1,,,,,ドリップ,0
17698,9140003023133,新規,0,2026-01-27,2026-01-27,合同会社ｉｇａｖｉｋ,,合同会社,兵庫県,神戸市中央区,磯辺通２丁目２－１０ｏｎｅｋｎｏｔｔｒａｄｅｓ神戸ビル１００６号室,,28,110,6510084,,,,,,,2026-01-27,1,,,,,イガヴィック,0
17708,9150001028678,新規,0,2026-01-27,2026-01-27,株式会社奈良軽貨物配送,,株式会社,奈良県,大和郡山市,小泉町７３２－１,,29,203,6391042,,,,,,,2026-01-27,1,,,,,ナラケイカモツハイソウ,0
17709,9150001028686,新規,0,2026-01-27,2026-01-27,株式会社Ｄｒｉｖｅ,,株式会社,奈良県,生駒郡斑鳩町,興留２丁目３番１７号,,29,344,6360123,,,,,,,2026-01-27,1,,,,,ドライブ,0
17736,9170003002373,新規,0,2026-01-27,2026-01-27,合同会社縁,,合同会社,和歌山県,和歌山市,松江北２丁目２０番２６号,,30,201,6408425,,,,,,,2026-01-27,1,,,,,エン,0
17758,9240001066090,新規,0,2026-01-27,2026-01-27,株式会社かわおか,,株式会社,広島県,安芸郡坂町,植田３丁目２０番２号,,34,309,7314321,,,,,,,2026-01-27,1,,,,,カワオカ,0
17761,9260003005490,新規,0,2026-01-27,2026-01-27,合同会社ｆｉｘｅｒ,,合同会社,岡山県,岡山市南区,新保４４１番地１７・１０２号,,33,104,7000945,,,,,,,2026-01-27,1,,,,,フィクサー,0
18017,9290001112798,新規,0,2026-01-27,2026-01-27,株式会社Ｌｉｓ,,株式会社,福岡県,福岡市博多区,美野島３丁目１－４０,,40,132,8120017,,,,,,,2026-01-27,1,,,,,リス,0
18115,9290801032213,新規,0,2026-01-27,2026-01-27,バリアントホールディングス株式会社,,株式会社,福岡県,北九州市小倉北区,魚町１丁目４番２１号,,40,106,8020006,,,,,,,2026-01-27,1,,,,,バリアントホールディングス,0
18119,9310003005171,新規,0,2026-01-27,2026-01-27,合同会社蒼,,合同会社,長崎県,五島市,三井楽町貝津３７９－２,,42,211,8530604,,,,,,,2026-01-27,1,,,,,ソウ,0
18208,9370001053423,新規,0,2026-01-27,2026-01-27,株式会社フィナポート,,株式会社,宮城県,仙台市泉区,泉中央３丁目１７番地の１サンクレスト泉中央３０４,,04,105,9813133,,,,,,,2026-01-27,1,,,,,フィナポート,0
18209,9370003007443,新規,0,2026-01-27,2026-01-27,合同会社バンブープロテクト協会,,合同会社,宮城県,仙台市太白区,富沢１丁目９番１号エクセル富沢４０７号室,,04,104,9820032,,,,,,,2026-01-27,1,,,,,バンブープロテクトキョウカイ,0
18215,9390001018226,新規,0,2026-01-27,2026-01-27,株式会社ＡＫＡＴＳＵＫＩ　ＢＲＩＤＧＥ,,株式会社,山形県,寒河江市,字夕カヘ３番地の１９,,06,206,9910006,,,,,,,2026-01-27,1,,,,,アカツキブリッジ,0
18218,9440003001752,新規,0,2026-01-27,2026-01-27,合同会社ＶＯＵＬＯＩＲ,,合同会社,北海道,函館市,千代台町２４番２０号,,01,202,0400013,,,,,,,2026-01-27,1,,,,,ヴロワール,0
18219,9450001014846,新規,0,2026-01-27,2026-01-27,株式会社齊藤不動産,,株式会社,北海道,旭川市,末広三条８丁目４番８号,,01,204,0718133,,,,,,,2026-01-27,1,,,,,サイトウフドウサン,0
