sequenceNumber,corporateNumber,process,correct,updateDate,changeDate,name,nameImageId,kind,prefectureName,cityName,streetNumber,addressImageId,prefectureCode,cityCode,postCode,addressOutside,addressOutsideImageId,closeDate,closeCause,successorCorporateNumber,changeCause,assignmentDate,latest,enName,enPrefectureName,enCityName,enAddressOutside,furigana,hihyoji
14,1010001226682,新規,0,2022-05-18,2022-05-18,株式会社ファーマインド茨城農園,,株式会社,東京都,千代田区,神田和泉町１番地,,13,101,1010024,,,,,,,2022-05-18,1,,,,,ファーマインドイバラキノウエン,0
25,1010101015184,新規,0,2022-05-18,2022-05-18,株式会社悠か,,株式会社,東京都,八王子市,犬目町１０３８番地６,,13,201,1930802,,,,,,,2022-05-18,1,,,,,ハルカ,0
36,1010401167023,新規,0,2022-05-18,2022-05-18,株式会社テックグロー,,株式会社,東京都,港区,南青山２丁目２番１５号,,13,103,1070062,,,,,,,2022-05-18,1,,,,,テックグロー,0
40,1010403027605,新規,0,2022-05-18,2022-05-18,アシスト合同会社,,合同会社,東京都,港区,南青山２丁目２番１５号,,13,103,1070062,,,,,,,2022-05-18,1,,,,,アシスト,0
44,1010501048791,新規,0,2022-05-18,2022-05-18,株式会社ビルドアップ,,株式会社,東京都,台東区,浅草橋２丁目２９番１１号マルケービル８階,,13,106,1110053,,,,,,,2022-05-18,1,,,,,ビルドアップ,0
46,1010601061166,新規,0,2022-05-18,2022-05-18,アップレイス株式会社,,株式会社,東京都,墨田区,文花１丁目１８番１３号,,13,107,1310044,,,,,,,2022-05-18,1,,,,,アップレイス,0
54,1010901050868,新規,0,2022-05-18,2022-05-18,株式会社ＭＳＴコンサルティング,,株式会社,東京都,世田谷区,砧２丁目１６番１－６４７号,,13,112,1570073,,,,,,,2022-05-18,1,,,,,エムエスティーコンサルティング,0
62,1011001147497,新規,0,2022-05-18,2022-05-18,株式会社ＴＨＳ,,株式会社,東京都,渋谷区,桜丘町１３－９,,13,113,1500031,,,,,,,2022-05-18,1,,,,,ティエイチエス,0
67,1011101098863,新規,0,2022-05-18,2022-05-18,Ｅｕｒｏｆｉｎｓ　Ｇｅｎｏｍｉｃ　Ｓｅｒｖｉｃｅｓ　Ｊａｐａｎ　Ｈｏｌｄｉｎｇ株式会社,,株式会社,東京都,新宿区,余丁町１０番１０号新宿余丁町ビル４階,,13,104,1620055,,,,,,,2022-05-18,1,,,,,ユーロフィンジェノミックサービシーズジャパンホールディング,0
68,1011103011758,新規,0,2022-05-18,2022-05-18,合同会社リベロ,,合同会社,東京都,新宿区,歌舞伎町２丁目２７番１２号Ｌｅｅ２ビル５階Ｃ室,,13,104,1600021,,,,,,,2022-05-18,1,,,,,リベロ,0
85,1013301049084,新規,0,2022-05-18,2022-05-18,丸全令和株式会社,,株式会社,東京都,豊島区,池袋４丁目２９番１１号トウセン池袋ビル５０３号室,,13,116,1710014,,,,,,,2022-05-18,1,,,,,マルゼンレイワ,0
86,1013303006158,新規,0,2022-05-18,2022-05-18,合同会社ＣＦＯアドバイザーズ,,合同会社,東京都,豊島区,西池袋２丁目９番６－３０１号,,13,116,1710021,,,,,,,2022-05-18,1,,,,,シーエフオーアドバイザーズ,0
91,1020001146434,新規,0,2022-05-18,2022-05-18,株式会社タカハシ工務店,,株式会社,神奈川県,川崎市麻生区,下麻生１丁目７番２７－２０２号麻生台団地,,14,137,2150022,,,,,,,2022-05-18,1,,,,,タカハシコウムテン,0
99,1020005015536,新規,0,2022-05-18,2022-05-18,一般社団法人フクシデザイン,,その他の設立登記法人,神奈川県,横浜市鶴見区,岸谷３丁目７番５０号,,14,101,2300078,,,,,,,2022-05-18,1,,,,,フクシデザイン,0
106,1030001148256,新規,0,2022-05-18,2022-05-18,株式会社ＵＮ機械販売,,株式会社,埼玉県,幸手市,中５丁目１６番２２号,,11,240,3400115,,,,,,,2022-05-18,1,,,,,ユーエヌキカイハンバイ,0
107,1030001148272,新規,0,2022-05-18,2022-05-18,サイボークリエイト株式会社,,株式会社,埼玉県,川口市,前川１丁目１番７０号,,11,203,3330842,,,,,,,2022-05-18,1,,,,,サイボークリエイト,0
113,1040001123191,新規,0,2022-05-18,2022-05-18,株式会社Ａｌｌ　ｉｎ,,株式会社,千葉県,市川市,押切１９番７－５０６号,,12,203,2720107,,,,,,,2022-05-18,1,,,,,オールイン,0
123,1060001034882,新規,0,2022-05-18,2022-05-18,桐樹株式会社,,株式会社,栃木県,小山市,駅東通り１丁目３４番１５号,,09,208,3230022,,,,,,,2022-05-18,1,,,,,トウキ,0
130,1070001039237,新規,0,2022-05-18,2022-05-18,株式会社アイキューグロースパートナーズ,,株式会社,群馬県,館林市,栄町１３番１０号,,10,207,3740052,,,,,,,2022-05-18,1,,,,,アイキューグロースパートナーズ,0
131,1070001039245,新規,0,2022-05-18,2022-05-18,ＲＥＰＲＯＮＯ株式会社,,株式会社,群馬県,渋川市,伊香保町水沢１８２－５,,10,208,3770103,,,,,,,2022-05-18,1,,,,,リプローノ,0
162,1120001245928,新規,0,2022-05-18,2022-05-18,株式会社ミライ,,株式会社,大阪府,大阪市中央区,安堂寺町２丁目６番１１－１５０７号,,27,128,5420061,,,,,,,2022-05-18,1,,,,,ミライ,0
163,1120001245944,新規,0,2022-05-18,2022-05-18,海鮮丼カー株式会社,,株式会社,大阪府,大阪市淀川区,西中島５丁目１２番１５号新大阪浪速ビル７０３号,,27,123,5320011,,,,,,,2022-05-18,1,,,,,カイセンドンカー,0
164,1120001245993,新規,0,2022-05-18,2022-05-18,Ｋｎｏｔ株式会社,,株式会社,大阪府,大阪市西区,立売堀５丁目８番２６号７０１,,27,106,5500012,,,,,,,2022-05-18,1,,,,,ノット,0
168,1120003021699,新規,0,2022-05-18,2022-05-18,合同会社大阪住宅総合サービス,,合同会社,大阪府,大阪市旭区,高殿２丁目９番２１,,27,117,5350031,,,,,,,2022-05-18,1,,,,,オオサカジュウタクソウゴウサービス,0
178,1122001035854,新規,0,2022-05-18,2022-05-18,株式会社Ｒｏｏｔｓｄｏｌｌ,,株式会社,大阪府,東大阪市,小若江３丁目６－１８アミティカジュアル１階,,27,227,5770818,,,,,,,2022-05-18,1,,,,,ルーツドール,0
184,1130001071794,新規,0,2022-05-18,2022-05-18,株式会社穂高,,株式会社,京都府,宇治市,木幡南山９９番地の２２,,26,204,6110002,,,,,,,2022-05-18,1,,,,,ホタカ,0
193,1140001126028,新規,0,2022-05-18,2022-05-18,セレスタ株式会社,,株式会社,兵庫県,姫路市,東今宿３丁目５番２５号姫路ガスビル３０２,,28,201,6700056,,,,,,,2022-05-18,1,,,,,セレスタ,0
195,1140003017695,新規,0,2022-05-18,2022-05-18,合同会社５４マネジメント,,合同会社,兵庫県,明石市,朝霧町３丁目１－２０,,28,203,6730866,,,,,,,2022-05-18,1,,,,,コシマネジメント,0
200,1150001025550,新規,0,2022-05-18,2022-05-18,アキュファイン株式会社,,株式会社,奈良県,生駒郡斑鳩町,興留９丁目５番５号法隆寺駅前ビル４Ｆ,,29,344,6360123,,,,,,,2022-05-18,1,,,,,アキュファイン,0
202,1160005011083,新規,0,2022-05-18,2022-05-18,一般社団法人比叡山・びわ湖ＤＭＯ,,その他の設立登記法人,滋賀県,大津市,山上町長等山７７６番地の３０,,25,201,5200038,,,,,,,2022-05-18,1,,,,,ヒエイザンビワコディーエムオー,0
203,1170001017109,新規,0,2022-05-18,2022-05-18,株式会社藤岡組,,株式会社,和歌山県,和歌山市,久右衛門丁１６番地１久右衛門丁Ｎビル３階２号室,,30,201,6408244,,,,,,,2022-05-18,1,,,,,フジオカグミ,0
210,1180001151311,新規,0,2022-05-18,2022-05-18,株式会社Ｔ２メンテ,,株式会社,愛知県,名古屋市守山区,天子田１丁目５０４番地２,,23,113,4630037,,,,,,,2022-05-18,1,,,,,ティーツーメンテ,0
211,1180001151336,新規,0,2022-05-18,2022-05-18,株式会社Ｓｅｃｏｎｄ　ｆｌｏｏｒ,,株式会社,愛知県,春日井市,篠木町６丁目２４４５番地１４,,23,206,4860851,,,,,,,2022-05-18,1,,,,,セカンドフロア,0
212,1180001151352,新規,0,2022-05-18,2022-05-18,株式会社ｆｅｄｏ,,株式会社,愛知県,名古屋市天白区,八事天道７０８番地,,23,116,4680061,,,,,,,2022-05-18,1,,,,,フェド,0
214,1180003023839,新規,0,2022-05-18,2022-05-18,Ｌｉｖｖｙ　ｓｔｕｄｉｏ合同会社,,合同会社,愛知県,名古屋市緑区,小坂２丁目７０１番地,,23,114,4580022,,,,,,,2022-05-18,1,,,,,リヴィスタジオ,0
224,1200005013348,新規,0,2022-05-18,2022-05-18,特定非営利活動法人ＳＨＯＧＡＩ　ＭＡＭＯＲＵ,,その他の設立登記法人,岐阜県,各務原市,蘇原東栄町２丁目１０２番地１,,21,213,5040815,,,,,,,2022-05-18,1,,,,,ショウガイマモル,0
226,1220003003282,新規,0,2022-05-18,2022-05-18,合同会社ａｄｖａｎｃｅｍｅｎｔ,,合同会社,石川県,金沢市,間明町１丁目６０,,17,201,9218005,,,,,,,2022-05-18,1,,,,,アドバンスメント,0
227,1230001019362,新規,0,2022-05-18,2022-05-18,株式会社川津,,株式会社,富山県,高岡市,古定塚３番１５号,,16,202,9330054,,,,,,,2022-05-18,1,,,,,カワツ,0
231,1240003005624,新規,0,2022-05-18,2022-05-18,カワセミアニメーション合同会社,,合同会社,広島県,東広島市,西条東北町８番１０号,,34,212,7390048,,,,,,,2022-05-18,1,,,,,カワセミアニメーション,0
240,1260003003915,新規,0,2022-05-18,2022-05-18,合同会社トーナ,,合同会社,岡山県,倉敷市,東町１番２１号,,33,202,7100053,,,,,,,2022-05-18,1,,,,,トーナ,0
250,1290801028524,新規,0,2022-05-18,2022-05-18,ＨＭコネクト株式会社,,株式会社,福岡県,北九州市若松区,ひびきの１－８事業化支援センター２０２,,40,103,8080135,,,,,,,2022-05-18,1,,,,,エイチエムコネクト,0
253,1330003009368,新規,0,2022-05-18,2022-05-18,合同会社結,,合同会社,熊本県,球磨郡相良村,大字川辺１６５４番地,,43,510,8680093,,,,,,,2022-05-18,1,,,,,ユイ,0
256,1340003003790,新規,0,2022-05-18,2022-05-18,合同会社おいもホーム,,合同会社,鹿児島県,鹿児島市,東千石町１０番１２号,,46,201,8920842,,,,,,,2022-05-18,1,,,,,オイモホーム,0
289,1490003001656,新規,0,2022-05-18,2022-05-18,合同会社中芸衛生,,合同会社,高知県,安芸郡奈半利町,乙８０７番地,,39,302,7816402,,,,,,,2022-05-18,1,,,,,チュウゲイエイセイ,0
296,1500003002834,新規,0,2022-05-18,2022-05-18,ＷＡＬＴＺ合同会社,,合同会社,愛媛県,松山市,持田町１丁目３番３０号,,38,201,7900855,,,,,,,2022-05-18,1,,,,,ワルツ,0
297,1700150108777,新規,0,2022-05-18,2022-05-18,千代町町内会,,その他,石川県,小松市,千代町甲２番地,,17,203,9230041,,,,,,,2022-05-18,1,,,,,センダイマチチヨウナイカイ,0
298,1700150108802,新規,0,2022-05-18,2022-05-18,Ｔｏｙａ　Ｌａｎｋａ　Ｗｈｅｅｌｓ,,外国会社等,千葉県,千葉市緑区,あすみが丘８丁目２４番１号（２）,,12,105,2670066,スリランカ民主社会主義共和国、キャンディ、カトゥガストタ、キャンディロード、２６８,,,,,,2022-05-18,1,,,,,トヤランカウイールス,0
299,1700150108851,新規,0,2022-05-18,2022-05-18,ＩｎｎｏＧａｍｅｓ　ＧｍｂＨ,,外国会社等,,,,,,,,１３　Ｆｒｉｅｓｅｎｓｔｒａｓｓｅ，Ｈａｍｂｕｒｇ　２００９７　Ｇｅｒｍａｎｙ,,,,,,2022-05-18,1,,,,,イノゲームスゲーエムベーハー,0
311,2010001226681,新規,0,2022-05-18,2022-05-18,株式会社ＩＣＨＩＺＥＮ　ＨＯＬＤＩＮＧＳ,,株式会社,東京都,千代田区,富士見２丁目６番９号雄山閣ビル５Ｆ,,13,101,1020071,,,,,,,2022-05-18,1,,,,,イチゼンホールディングス,0
323,2010005035014,新規,0,2022-05-18,2022-05-18,一般社団法人ＫＩ,,その他の設立登記法人,東京都,千代田区,霞が関３丁目２番１号,,13,101,1000013,,,,,,,2022-05-18,1,,,,,ケーアイ,0
348,2010901050875,新規,0,2022-05-18,2022-05-18,株式会社マネーツリー,,株式会社,東京都,世田谷区,駒沢１丁目２０番７号,,13,112,1540012,,,,,,,2022-05-18,1,,,,,,0
355,2011001147505,新規,0,2022-05-18,2022-05-18,株式会社ウィン,,株式会社,東京都,渋谷区,渋谷１丁目１５番１２号,,13,113,1500002,,,,,,,2022-05-18,1,,,,,,0
366,2011103011757,新規,0,2022-05-18,2022-05-18,合同会社ＬＯＴＵＳ,,合同会社,東京都,新宿区,大久保２丁目６－１０第二アルプスマンション９０２,,13,104,1690072,,,,,,,2022-05-18,1,,,,,ロータス,0
377,2011703003146,新規,0,2022-05-18,2022-05-18,合同会社セリナ,,合同会社,東京都,江戸川区,東葛西６丁目６番５号,,13,123,1340084,,,,,,,2022-05-18,1,,,,,セリナ,0
379,2011801040727,新規,0,2022-05-18,2022-05-18,株式会社Ｋｉｒａｎ,,株式会社,東京都,足立区,千住旭町４３番４号ＫＯビル１階,,13,121,1200026,,,,,,,2022-05-18,1,,,,,キラン,0
383,2012403005358,新規,0,2022-05-18,2022-05-18,合同会社ブレイン,,合同会社,東京都,三鷹市,下連雀４丁目１４番２０号（ピュアコート１０１号室）,,13,204,1810013,,,,,,,2022-05-18,1,,,,,ブレイン,0
384,2012403005374,新規,0,2022-05-18,2022-05-18,合同会社カンズコム,,合同会社,東京都,調布市,布田４丁目１７番地１０セントラルレジデンス調布８０７,,13,208,1820024,,,,,,,2022-05-18,1,,,,,カンズコム,0
386,2013103001135,新規,0,2022-05-18,2022-05-18,合同会社ジョイディヴィジョン,,合同会社,東京都,青梅市,野上町３丁目１０番地の１霞台第２住宅１９－３０４,,13,205,1980032,,,,,,,2022-05-18,1,,,,,,0
393,2020001146524,新規,0,2022-05-18,2022-05-18,株式会社ｓｏｉｌ＆ｓｋｙ,,株式会社,神奈川県,横浜市都筑区,川和町１７９２番地２,,14,118,2240057,,,,,,,2022-05-18,1,,,,,ソイルアンドスカイ,0
394,2020001146540,新規,0,2022-05-18,2022-05-18,株式会社セカンドステージ,,株式会社,神奈川県,川崎市多摩区,東三田３丁目１０番１号レイディアントシティー４１０,,14,135,2140033,,,,,,,2022-05-18,1,,,,,セカンドステージ,0
397,2020003021782,新規,0,2022-05-18,2022-05-18,合同会社川上,,合同会社,神奈川県,川崎市麻生区,王禅寺西２丁目１４番１０号,,14,137,2150017,,,,,,,2022-05-18,1,,,,,カワカミ,0
407,2021001075993,新規,0,2022-05-18,2022-05-18,株式会社ｇｒａｎｄｅ,,株式会社,神奈川県,厚木市,下荻野５６７番地２,,14,212,2430203,,,,,,,2022-05-18,1,,,,,グランデ,0
409,2021005012522,新規,0,2022-05-18,2022-05-18,特定非営利活動法人みんなの軽音部,,その他の設立登記法人,神奈川県,横須賀市,久里浜４丁目２１番１３号,,14,201,2390831,,,,,,,2022-05-18,1,,,,,ミンナノケイオンブ,0
415,2030001148214,新規,0,2022-05-18,2022-05-18,柚那美株式会社,00126597,株式会社,埼玉県,戸田市,下前２丁目１－２４,,11,224,3350016,,,,,,,2022-05-18,1,,,,,ユナビ,0
416,2030001148255,新規,0,2022-05-18,2022-05-18,株式会社大澤アグリサービス,,株式会社,埼玉県,川口市,大字安行領根岸１１２１番地１８,,11,203,3330834,,,,,,,2022-05-18,1,,,,,オオサワアグリサービス,0
417,2030001148263,新規,0,2022-05-18,2022-05-18,セイワファーム株式会社,,株式会社,埼玉県,春日部市,神間１１５９番地,,11,214,3440132,,,,,,,2022-05-18,1,,,,,セイワファーム,0
428,2040001123455,新規,0,2022-05-18,2022-05-18,株式会社仁孝,,株式会社,千葉県,市原市,大厩８８１番地１,,12,219,2900002,,,,,,,2022-05-18,1,,,,,ジンコウ,0
435,2040005021572,新規,0,2022-05-18,2022-05-18,特定非営利活動法人日本言語教育情報センター,,その他の設立登記法人,千葉県,浦安市,美浜５丁目４番１１０５号,,12,227,2790011,,,,,,,2022-05-18,1,,,,,ニホンゲンゴキョウイクジョウホウセンター,0
436,2050001051085,新規,0,2022-05-18,2022-05-18,株式会社ＲＴ,,株式会社,茨城県,坂東市,みむら６２０番地１,,08,228,3060655,,,,,,,2022-05-18,1,,,,,アールティー,0
437,2060001034881,新規,0,2022-05-18,2022-05-18,株式会社Ｗｏｏｄ　Ｌａｎｄ,,株式会社,栃木県,宇都宮市,中戸祭町２８９９番地２５,,09,201,3200052,,,,,,,2022-05-18,1,,,,,ウッドランド,0
438,2060003004073,新規,0,2022-05-18,2022-05-18,ＹＢＩグループ合同会社,,合同会社,栃木県,栃木市,城内町２丁目４４－３６,,09,203,3280033,,,,,,,2022-05-18,1,,,,,ワイビーアイグループ,0
442,2070001039244,新規,0,2022-05-18,2022-05-18,株式会社新前橋銘木,,株式会社,群馬県,前橋市,堀越町２５１番地の２１,,10,201,3710231,,,,,,,2022-05-18,1,,,,,シンマエバシメイボク,0
459,2120001245877,新規,0,2022-05-18,2022-05-18,陽明株式会社,,株式会社,大阪府,大阪市中央区,松屋町９番２０号ローレルステート松屋町３０１Ｃ,,27,128,5420067,,,,,,,2022-05-18,1,,,,,ヨウメイ,0
460,2120001245935,新規,0,2022-05-18,2022-05-18,株式会社時雨,,株式会社,大阪府,枚方市,黄金野１丁目２番３８－２０４号,,27,210,5731145,,,,,,,2022-05-18,1,,,,,ジウ,0
461,2120001245943,新規,0,2022-05-18,2022-05-18,株式会社ＭＳＷ縁,,株式会社,大阪府,大阪市都島区,大東町１丁目７番２２号,,27,102,5340002,,,,,,,2022-05-18,1,,,,,エムエスダブルエニシ,0
462,2120001245951,新規,0,2022-05-18,2022-05-18,株式会社ＭＫ　ＨＥＡＲＴＳ,,株式会社,大阪府,大阪市城東区,今福東２丁目１番３７－６１６号,,27,118,5360002,,,,,,,2022-05-18,1,,,,,エムケーハーツ,0
463,2120001245968,新規,0,2022-05-18,2022-05-18,株式会社アイ・ティ・エンヂニアリング,,株式会社,大阪府,枚方市,三栗２丁目１７番８号,,27,210,5731171,,,,,,,2022-05-18,1,,,,,アイティエンジニアリング,0
467,2120003021698,新規,0,2022-05-18,2022-05-18,合同会社Ｔ．Ｋプランニング,,合同会社,大阪府,大阪市中央区,島之内１丁目１５番２９号－７０６号,,27,128,5420082,,,,,,,2022-05-18,1,,,,,ティーケープランニング,0
470,2122001035878,新規,0,2022-05-18,2022-05-18,株式会社ソルブリンク,,株式会社,大阪府,東大阪市,山手町１０番１６号,,27,227,5798022,,,,,,,2022-05-18,1,,,,,ソルブリンク,0
475,2130001071793,新規,0,2022-05-18,2022-05-18,株式会社日本構造分析舎,,株式会社,京都府,京都市左京区,吉田本町３６番地１京都大学国際科学イノベーション棟,,26,103,6068317,,,,,,,2022-05-18,1,,,,,ニホンコウゾウブンセキシャ,0
480,2140001126027,新規,0,2022-05-18,2022-05-18,株式会社錦江ホールディングス,,株式会社,兵庫県,神戸市長田区,重池町２丁目３番９号,,28,106,6530802,,,,,,,2022-05-18,1,,,,,キンコウホールディングス,0
482,2140003017694,新規,0,2022-05-18,2022-05-18,みくまりの森合同会社,,合同会社,兵庫県,明石市,藤が丘１丁目９番５号,,28,203,6730046,,,,,,,2022-05-18,1,,,,,ミクマリノモリ,0
484,2140005026173,新規,0,2022-05-18,2022-05-18,一般社団法人日本クラウドファンディングキュレーター協会,,その他の設立登記法人,兵庫県,神戸市兵庫区,湊町４丁目２番１２－２１１号,,28,105,6520812,,,,,,,2022-05-18,1,,,,,ニホンクラウドファンディングキュレーターキョウカイ,0
485,2160001024212,新規,0,2022-05-18,2022-05-18,大迪産業株式会社,,株式会社,滋賀県,甲賀市,信楽町柞原字東垣外２４番地１,,25,209,5291836,,,,,,,2022-05-18,1,,,,,ダイテキサンギョウ,0
490,2180001151293,新規,0,2022-05-18,2022-05-18,株式会社エル・オー・エム,,株式会社,愛知県,名古屋市西区,城西４丁目５番４号浄心すみれビル４階４０３号室,,23,104,4510031,,,,,,,2022-05-18,1,,,,,エルオーエム,0
491,2180001151319,新規,0,2022-05-18,2022-05-18,株式会社鈴木総業,,株式会社,愛知県,あま市,七宝町鷹居６丁目９８番地２,,23,237,4970014,,,,,,,2022-05-18,1,,,,,スズキソウギョウ,0
492,2180001151343,新規,0,2022-05-18,2022-05-18,大西機工株式会社,,株式会社,愛知県,常滑市,矢田字烏田１番地の３９３,,23,216,4790001,,,,,,,2022-05-18,1,,,,,オオニシキコウ,0
493,2180001151368,新規,0,2022-05-18,2022-05-18,株式会社ＴＫ,,株式会社,愛知県,春日井市,白山町７丁目１２番地４,,23,206,4870034,,,,,,,2022-05-18,1,,,,,ティーケー,0
499,2180003023846,新規,0,2022-05-18,2022-05-18,合同会社アメマトエ,,合同会社,愛知県,名古屋市名東区,勢子坊１丁目２０８番地の５,,23,115,4650055,,,,,,,2022-05-18,1,,,,,アメマトエ,0
507,2200003005569,新規,0,2022-05-18,2022-05-18,合同会社ａｉｋａｔａ,,合同会社,岐阜県,不破郡垂井町,１２７８番地の８,,21,361,5032121,,,,,,,2022-05-18,1,,,,,アイカタ,0
508,2200005013347,新規,0,2022-05-18,2022-05-18,特定非営利活動法人ｌａ　ｃａｓｅｔｔａ,,その他の設立登記法人,岐阜県,高山市,西之一色町３丁目１０７７番地１マンション鴻巣Ａ‐３３,,21,203,5060031,,,,,,,2022-05-18,1,,,,,ラカゼッタ,0
511,2210001018935,新規,0,2022-05-18,2022-05-18,株式会社ＢＥＮＴＯ,,株式会社,福井県,福井市,照手２丁目４番５号,,18,201,9100024,,,,,,,2022-05-18,1,,,,,ベント,0
516,2240003005623,新規,0,2022-05-18,2022-05-18,ＴＭドアーズ合同会社,,合同会社,広島県,安芸郡海田町,日の出町２番４８－７０４号,,34,304,7360035,,,,,,,2022-05-18,1,,,,,ティーエムドアーズ,0
517,2240005015397,新規,0,2022-05-18,2022-05-18,一般社団法人西日本演劇文化振興会,,その他の設立登記法人,広島県,広島市西区,横川町３丁目５番２７号,,34,104,7330011,,,,,,,2022-05-18,1,,,,,ニシニホンエンゲキブンカシンコウカイ,0
519,2250001019566,新規,0,2022-05-18,2022-05-18,株式会社Ｍａｎａｇｅｍｅｎｔ　Ｉｎｔｅｌｌｉｇｅｎｃｅ　Ｓｅｒｖｉｃｅ,,株式会社,山口県,山口市,道場門前１丁目３番１号,,35,203,7530047,,,,,,,2022-05-18,1,,,,,マネジメントインテリジェンスサービス,0
530,2290001097567,新規,0,2022-05-18,2022-05-18,株式会社アシストプランニング,,株式会社,福岡県,福岡市南区,皿山４丁目１５番１４号,,40,134,8111365,,,,,,,2022-05-18,1,,,,,アシストプランニング,0
532,2290005018684,新規,0,2022-05-18,2022-05-18,医療法人日浅レディースクリニック,,その他の設立登記法人,福岡県,福岡市中央区,大名２丁目２番７号２階,,40,133,8100041,,,,,,,2022-05-18,1,,,,,ヒアサレディースクリニック,0
547,2330003009367,新規,0,2022-05-18,2022-05-18,合同会社ＤＡ　ＪＡＰＡＮ　ＴＲＡＤＩＮＧ,,合同会社,熊本県,宇土市,松山町１６４５番地２,,43,211,8690416,,,,,,,2022-05-18,1,,,,,ディーエージャパントレーディング,0
548,2330005010521,新規,0,2022-05-18,2022-05-18,一般社団法人天草１０００年の人と土の営み,,その他の設立登記法人,熊本県,天草市,五和町手野１丁目２６４６番地,,43,215,8632424,,,,,,,2022-05-18,1,,,,,アマクサセンネンノヒトトツチノイトナミ,0
551,2360003012013,新規,0,2022-05-18,2022-05-18,おきなわすまいねっと合同会社,,合同会社,沖縄県,那覇市,おもろまち４丁目１５番３－５０３号アルファステイツおもろまち,,47,201,9000006,,,,,,,2022-05-18,1,,,,,,0
552,2360003012021,新規,0,2022-05-18,2022-05-18,Ｓ・Ｋ企画合同会社,,合同会社,沖縄県,那覇市,松尾２丁目１６番４５号又吉ビル２０１,,47,201,9000014,,,,,,,2022-05-18,1,,,,,エスケイキカク,0
553,2360005006657,新規,0,2022-05-18,2022-05-18,トップエイム沖縄事業協同組合,,その他の設立登記法人,沖縄県,中頭郡西原町,字翁長２０５番地の１,,47,329,9030117,,,,,,,2022-05-18,1,,,,,トップエイムオキナワ,0
561,2370001048561,新規,0,2022-05-18,2022-05-18,株式会社Ｓｉｓｔｅｒ　Ｓｈｉｐ,,株式会社,宮城県,仙台市青葉区,花京院２丁目１番６１オークツリー仙台１階,,04,101,9800013,,,,,,,2022-05-18,1,,,,,シスターシップ,0
578,2450003002203,新規,0,2022-05-18,2022-05-18,合同会社工房そなも,,合同会社,北海道,上川郡鷹栖町,２１線十六号６番地,,01,452,0711261,,,,,,,2022-05-18,1,,,,,コウボウソナモ,0
596,3010001226680,新規,0,2022-05-18,2022-05-18,ストライプバード株式会社,,株式会社,東京都,中央区,日本橋２丁目１番３号,,13,102,1030027,,,,,,,2022-05-18,1,,,,,ストライプバード,0
597,3010001226714,新規,0,2022-05-18,2022-05-18,ＩＣＨＩＩＳＯＦＴ株式会社,,株式会社,東京都,中央区,銀座７丁目１３番６号サガミビル２階,,13,102,1040061,,,,,,,2022-05-18,1,,,,,イチイソフト,0
600,3010003037671,新規,0,2022-05-18,2022-05-18,Ｚｅｎｄｒｉｖｅ　Ｊａｐａｎ合同会社,,合同会社,東京都,千代田区,大手町１丁目５番１号大手町ファーストスクエア・イースト・タワー４階,,13,101,1000004,,,,,,,2022-05-18,1,,,,,ゼンドライブジャパン,0
601,3010003037696,新規,0,2022-05-18,2022-05-18,合同会社Ｙ‐Ｓｔａｒ　Ｍａｎａｇｅｍｅｎｔ,,合同会社,東京都,千代田区,九段南１丁目５番６号,,13,101,1020074,,,,,,,2022-05-18,1,,,,,ワイスターマネジメント,0
618,3010403027628,新規,0,2022-05-18,2022-05-18,Ｈｕｓｋｙｃａｒｔ合同会社,,合同会社,東京都,港区,南青山２丁目２－１５,,13,103,1070062,,,,,,,2022-05-18,1,,,,,ハスキーカート,0
623,3010605004078,新規,0,2022-05-18,2022-05-18,ホライズン税理士法人,,その他の設立登記法人,東京都,江東区,有明３丁目５番７号ＴＯＣ有明イーストタワー７階,,13,108,1350063,,,,,,,2022-05-18,1,,,,,ホライズン,0
629,3010903007377,新規,0,2022-05-18,2022-05-18,合同会社サマー,,合同会社,東京都,世田谷区,弦巻２丁目３５－３,,13,112,1540016,,,,,,,2022-05-18,1,,,,,サマー,0
645,3011401024237,新規,0,2022-05-18,2022-05-18,株式会社台湾トーク日本中国語センター,,株式会社,東京都,板橋区,東山町５２番１７－３０１号,,13,119,1740073,,,,,,,2022-05-18,1,,,,,タイワントークニホンチュウゴクゴセンター,0
648,3011703003145,新規,0,2022-05-18,2022-05-18,合同会社Ｋ．Ｉｎｆｉｎｉｔｙ,,合同会社,東京都,江戸川区,中葛西２丁目７番８号１０５,,13,123,1340083,,,,,,,2022-05-18,1,,,,,ケイインフィニティー,0
652,3011801040734,新規,0,2022-05-18,2022-05-18,健興業株式会社,,株式会社,東京都,葛飾区,水元２丁目１６番２３号,,13,122,1250032,,,,,,,2022-05-18,1,,,,,ケンコウギョウ,0
653,3012301012991,新規,0,2022-05-18,2022-05-18,株式会社Ｂｉｚｍａｒｑ,,株式会社,東京都,町田市,南町田５丁目４－７アレルヤ４０１,,13,209,1940005,,,,,,,2022-05-18,1,,,,,ビズマルク,0
663,3012403005373,新規,0,2022-05-18,2022-05-18,合同会社日華商事,,合同会社,東京都,三鷹市,下連雀３丁目３６番１－１４０９号,,13,204,1810013,,,,,,,2022-05-18,1,,,,,ニッカショウジ,0
665,3013103001134,新規,0,2022-05-18,2022-05-18,合同会社柳崎商社,,合同会社,東京都,青梅市,大門３丁目１１－４９,,13,205,1980014,,,,,,,2022-05-18,1,,,,,,0
685,3020003021740,新規,0,2022-05-18,2022-05-18,合同会社カウント・ゼロ,,合同会社,神奈川県,川崎市麻生区,五力田２丁目１－１プラウディア五月台ＩＩ５０５号,00126594,14,137,2150025,,,,,,,2022-05-18,1,,,,,カウントゼロ,0
686,3021001075984,新規,0,2022-05-18,2022-05-18,株式会社ＤＡＤＡ　ＧＬＯＢＡＬ,,株式会社,神奈川県,横須賀市,本町１丁目７番地,,14,201,2380041,,,,,,,2022-05-18,1,,,,,ダダグローバル,0
687,3021001076000,新規,0,2022-05-18,2022-05-18,株式会社トライベッカ,,株式会社,神奈川県,大和市,鶴間１丁目２８－１２ナカムラビル鶴間２０７,,14,213,2420004,,,,,,,2022-05-18,1,,,,,トライベッカ,0
698,3030001148246,新規,0,2022-05-18,2022-05-18,株式会社ＴＫカンパニー,,株式会社,埼玉県,富士見市,西みずほ台２丁目３番１７号,,11,235,3540018,,,,,,,2022-05-18,1,,,,,ティーケーカンパニー,0
699,3030001148254,新規,0,2022-05-18,2022-05-18,株式会社ＲｅＢＩＲＴＨ,,株式会社,埼玉県,川口市,大字里１０６６番地の１,,11,203,3340005,,,,,,,2022-05-18,1,,,,,,0
706,3040001123421,新規,0,2022-05-18,2022-05-18,エヌアールジ株式会社,,株式会社,千葉県,松戸市,常盤平４丁目１５番地Ｅ－５０－１０４,,12,207,2702261,,,,,,,2022-05-18,1,,,,,エヌアールジ,0
707,3040001123446,新規,0,2022-05-18,2022-05-18,株式会社ＷＩＮ　ＷＩＮ,,株式会社,千葉県,市川市,香取２丁目６番４号,,12,203,2720141,,,,,,,2022-05-18,1,,,,,ウィンウィン,0
711,3070001039202,新規,0,2022-05-18,2022-05-18,トライ・ドリーム株式会社,,株式会社,群馬県,前橋市,広瀬町１丁目３０番地６ウェルパークＩＩ３０２,00126598,10,201,3710812,,,,,,,2022-05-18,1,,,,,トライドリーム,0
712,3070001039235,新規,0,2022-05-18,2022-05-18,ＬＩＮＨ　ＤＡＮ株式会社,,株式会社,群馬県,伊勢崎市,今泉町２丁目３３２番地３－１０３号,,10,204,3720031,,,,,,,2022-05-18,1,,,,,リンダン,0
720,3100001035338,新規,0,2022-05-18,2022-05-18,株式会社アウェス,,株式会社,長野県,松本市,蟻ケ崎１丁目５番７号,,20,202,3900861,,,,,,,2022-05-18,1,,,,,アウェス,0
721,3100001035346,新規,0,2022-05-18,2022-05-18,株式会社裕,,株式会社,長野県,埴科郡坂城町,大字坂城１０２２７番地１,,20,521,3890601,,,,,,,2022-05-18,1,,,,,ユウ,0
737,3120001245926,新規,0,2022-05-18,2022-05-18,ＪＮＷＴ株式会社,,株式会社,大阪府,大阪市西成区,山王３丁目１６番２５号エスポワール１０２号室,,27,122,5570001,,,,,,,2022-05-18,1,,,,,ジェイエヌダブリュティー,0
738,3120001245934,新規,0,2022-05-18,2022-05-18,株式会社叶,,株式会社,大阪府,大阪市東成区,大今里南１丁目５番２３－１２０２号,,27,115,5370013,,,,,,,2022-05-18,1,,,,,カナウ,0
739,3120001245942,新規,0,2022-05-18,2022-05-18,アプリシエイト株式会社,,株式会社,大阪府,大阪市浪速区,幸町３丁目６番２７号,,27,111,5560021,,,,,,,2022-05-18,1,,,,,アプリシエイト,0
740,3120001245950,新規,0,2022-05-18,2022-05-18,株式会社尚珀軒,,株式会社,大阪府,大阪市浪速区,恵美須東３丁目２番９－５０２号,,27,111,5560002,,,,,,,2022-05-18,1,,,,,ショウハクケン,0
741,3120001245959,新規,0,2022-05-18,2022-05-18,株式会社ｔｅｌｔｔａ,,株式会社,大阪府,大阪市天王寺区,南河堀町一丁目１１番,,27,109,5430054,,,,,,,2022-05-18,1,,,,,テルッタ,0
742,3120001245975,新規,0,2022-05-18,2022-05-18,株式会社Ｉｎｆｉｒｓｔ,,株式会社,大阪府,大阪市北区,中津７丁目１番１－９０４号,,27,127,5310071,,,,,,,2022-05-18,1,,,,,インファースト,0
756,3120103004701,新規,0,2022-05-18,2022-05-18,合同会社ほほえみ,,合同会社,大阪府,富田林市,緑ケ丘町４番３８号,,27,214,5840026,,,,,,,2022-05-18,1,,,,,ホホエミ,0
759,3122003002330,新規,0,2022-05-18,2022-05-18,合同会社タイズサポート,,合同会社,大阪府,東大阪市,西堤１丁目１番２５号,,27,227,5770042,,,,,,,2022-05-18,1,,,,,タイズサポート,0
765,3130001071792,新規,0,2022-05-18,2022-05-18,株式会社ＫＧＳ,,株式会社,京都府,京都市山科区,勧修寺東堂田町１５０番地メゾンマロニエ２０３,,26,110,6078222,,,,,,,2022-05-18,1,,,,,ケージーエス,0
766,3130003007935,新規,0,2022-05-18,2022-05-18,合同会社アルス,,合同会社,京都府,京都市北区,小山下内河原町８７番地デリード北大路駅前１Ｆ,,26,101,6038132,,,,,,,2022-05-18,1,,,,,アルス,0
775,3140001125845,新規,0,2022-05-18,2022-05-18,株式会社こうはた,,株式会社,兵庫県,丹波市,氷上町石生２５１４－３,,28,223,6693464,,,,,,,2022-05-18,1,,,,,コウハタ,0
776,3140001126026,新規,0,2022-05-18,2022-05-18,株式会社栄成工業,,株式会社,兵庫県,明石市,貴崎１丁目８番２０号,,28,203,6730037,,,,,,,2022-05-18,1,,,,,エイセイコウギョウ,0
778,3140003017693,新規,0,2022-05-18,2022-05-18,合同会社ルピナスソフトウェア,,合同会社,兵庫県,たつの市,揖西町新宮１０４５番５号,,28,229,6794001,,,,,,,2022-05-18,1,,,,,ルピナスソフトウェア,0
786,3180001151318,新規,0,2022-05-18,2022-05-18,株式会社エアコンフレッシュポイント,,株式会社,愛知県,名古屋市中区,松原３丁目７－１５光葉ビル２階２０３号室,,23,106,4600017,,,,,,,2022-05-18,1,,,,,エアコンフレッシュポイント,0
787,3180001151334,新規,0,2022-05-18,2022-05-18,株式会社ＳＩＭＡ産業,,株式会社,愛知県,弥富市,三好４丁目１０番地２,,23,235,4980046,,,,,,,2022-05-18,1,,,,,シマサンギョウ,0
788,3180001151342,新規,0,2022-05-18,2022-05-18,株式会社Ｔ‐ＦＯＲＥＳＴ,,株式会社,愛知県,名古屋市中区,丸の内２丁目１７番２２号,,23,106,4600002,,,,,,,2022-05-18,1,,,,,ティーフォレスト,0
789,3180001151359,新規,0,2022-05-18,2022-05-18,株式会社Ｌｕｐｉｎｕｓ,,株式会社,愛知県,名古屋市東区,泉１丁目２０番２８号,,23,102,4610001,,,,,,,2022-05-18,1,,,,,ルピナス,0
790,3180001151375,新規,0,2022-05-18,2022-05-18,エニタイム株式会社,,株式会社,愛知県,名古屋市千種区,法王町２丁目５番地７－６０５,,23,101,4640057,,,,,,,2022-05-18,1,,,,,エニタイム,0
794,3180003023837,新規,0,2022-05-18,2022-05-18,合同会社ビーフロー,,合同会社,愛知県,日進市,香久山３丁目３０１－２－Ｓ棟１２０４,,23,230,4700134,,,,,,,2022-05-18,1,,,,,ビーフロー,0
798,3180005019775,新規,0,2022-05-18,2022-05-18,一般社団法人愛知子ども応援プロジェクト,,その他の設立登記法人,愛知県,名古屋市名東区,石が根町５番地,,23,115,4650023,,,,,,,2022-05-18,1,,,,,アイチコドモオウエンプロジェクト,0
804,3210001018934,新規,0,2022-05-18,2022-05-18,株式会社ＣＲＳ,,株式会社,福井県,福井市,花堂南２丁目１２番２４号,,18,201,9188015,,,,,,,2022-05-18,1,,,,,シーアールエス,0
806,3220001024840,新規,0,2022-05-18,2022-05-18,株式会社北陸ポータル,,株式会社,石川県,小松市,下粟津町ア１２２番地７,,17,203,9230304,,,,,,,2022-05-18,1,,,,,ホクリクポータル,0
811,3250001019565,新規,0,2022-05-18,2022-05-18,株式会社クナイホールディングス,,株式会社,山口県,周南市,橋本町１丁目７０番地,,35,215,7450022,,,,,,,2022-05-18,1,,,,,クナイホールディングス,0
823,3300001012936,新規,0,2022-05-18,2022-05-18,株式会社ＴＥＮＳＥＩ,,株式会社,佐賀県,佐賀市,光１丁目６番５号,,41,201,8400033,,,,,,,2022-05-18,1,,,,,テンセイ,0
829,3340003003789,新規,0,2022-05-18,2022-05-18,合同会社Ｒｅｓｔａ．,,合同会社,鹿児島県,出水市,緑町９番２４号,,46,208,8990201,,,,,,,2022-05-18,1,,,,,リスタ,0
831,3350003004084,新規,0,2022-05-18,2022-05-18,合同会社てげ,,合同会社,宮崎県,宮崎市,花ケ島町観音免９３３番地２４,,45,201,8800036,,,,,,,2022-05-18,1,,,,,テゲ,0
832,3360001030437,新規,0,2022-05-18,2022-05-18,ＧＯＤ　ＧＡＴＥ株式会社,,株式会社,沖縄県,豊見城市,字豊崎１番１２２３,,47,212,9010225,,,,,,,2022-05-18,1,,,,,ゴッドゲイト,0
835,3360003012020,新規,0,2022-05-18,2022-05-18,Ｇｏｌｄ＆Ｐｅａｃｈ合同会社,,合同会社,沖縄県,宜野湾市,大謝名５丁目１４番２３号,,47,205,9012225,,,,,,,2022-05-18,1,,,,,ゴールドアンドピーチ,0
837,3370001048569,新規,0,2022-05-18,2022-05-18,株式会社Ｕｎｓｅｅ,,株式会社,宮城県,仙台市若林区,大和町５丁目９番１７号ブリリアント大和１０２,,04,103,9840042,,,,,,,2022-05-18,1,,,,,アンシー,0
838,3370003005691,新規,0,2022-05-18,2022-05-18,ハタト合同会社,,合同会社,宮城県,仙台市青葉区,一番町２丁目６番１号シティハウス一番町中央２階,,04,101,9800811,,,,,,,2022-05-18,1,,,,,ハタト,0
846,3390001016895,新規,0,2022-05-18,2022-05-18,株式会社１３Ｓ,,株式会社,山形県,鶴岡市,播磨丁５９番地１,,06,203,9970002,,,,,,,2022-05-18,1,,,,,サーティーンエス,0
855,3430001086653,新規,0,2022-05-18,2022-05-18,イリス設計株式会社,,株式会社,北海道,札幌市北区,あいの里三条５丁目１６番３２号,,01,102,0028073,,,,,,,2022-05-18,1,,,,,イリスセッケイ,0
857,3430003013911,新規,0,2022-05-18,2022-05-18,合同会社ＸＲＯＳＳ,,合同会社,北海道,札幌市中央区,北六条西２０丁目１番８－１０５号,,01,101,0600006,,,,,,,2022-05-18,1,,,,,クロス,0
864,3500003002832,新規,0,2022-05-18,2022-05-18,合同会社アイリー,,合同会社,愛媛県,宇和島市,津島町高田丙３９６番地,,38,203,7983302,,,,,,,2022-05-18,1,,,,,アイリー,0
876,4010001226705,新規,0,2022-05-18,2022-05-18,株式会社ラジュニスマ,,株式会社,東京都,中央区,銀座１丁目１２－４Ｎ＆ＥＢＬＤ．７階,,13,102,1040061,,,,,,,2022-05-18,1,,,,,ラジュニスマ,0
887,4010401167235,新規,0,2022-05-18,2022-05-18,将来宇宙輸送システム株式会社,,株式会社,東京都,港区,赤坂１丁目１２番３２号,,13,103,1070052,,,,,,,2022-05-18,1,,,,,ショウライウチュウユソウシステム,0
888,4010401167367,新規,0,2022-05-18,2022-05-18,株式会社ＫＩＴＥ,,株式会社,東京都,港区,六本木６丁目２番３５号４階,,13,103,1060032,,,,,,,2022-05-18,1,,,,,カイト,0
892,4010403027651,新規,0,2022-05-18,2022-05-18,合同会社ＰＷＣプロモーション,,合同会社,東京都,港区,南青山２丁目２－１５ウィン青山９４２号室,,13,103,1070062,,,,,,,2022-05-18,1,,,,,ピーダブリューシープロモーション,0
894,4010501048830,新規,0,2022-05-18,2022-05-18,ネコズゥー株式会社,,株式会社,東京都,台東区,台東３丁目２１番５号ＶＥＮＩＴ御徒町３０２,,13,106,1100016,,,,,,,2022-05-18,1,,,,,ネコズゥー,0
899,4010601061163,新規,0,2022-05-18,2022-05-18,株式会社０１００,,株式会社,東京都,江東区,青海２丁目７－４ｔｈｅＳＯＨＯ７１２,,13,108,1350064,,,,,,,2022-05-18,1,,,,,ゼロヒャク,0
900,4010605004077,新規,0,2022-05-18,2022-05-18,一般社団法人未来家計研究所,,その他の設立登記法人,東京都,墨田区,業平２丁目１６番８号呂府ビル１Ｆ,,13,107,1300002,,,,,,,2022-05-18,1,,,,,ミライカケイケンキュウジョ,0
903,4010901050865,新規,0,2022-05-18,2022-05-18,株式会社ＮＭＲ,,株式会社,東京都,世田谷区,下馬３丁目２５番１０号グランドベル三軒茶屋Ｂ棟１０１,,13,112,1540002,,,,,,,2022-05-18,1,,,,,エヌエムアール,0
912,4011005009567,新規,0,2022-05-18,2022-05-18,一般社団法人ライフ・デザイン・アソシエイション・インターナショナル,,その他の設立登記法人,東京都,渋谷区,神宮前２丁目３３番８－１００１号,,13,113,1500001,,,,,,,2022-05-18,1,,,,,ライフデザインアソシエイションインターナショナル,0
916,4011101098860,新規,0,2022-05-18,2022-05-18,株式会社ピアステ,,株式会社,東京都,新宿区,西新宿３丁目１３西新宿水間ビル６階,,13,104,1600023,,,,,,,2022-05-18,1,,,,,ピアステ,0
943,4013303006155,新規,0,2022-05-18,2022-05-18,合同会社ＴＡＫＵ,,合同会社,東京都,豊島区,南大塚２丁目２５－２１ファーストブランチ１０３,,13,116,1700005,,,,,,,2022-05-18,1,,,,,タク,0
956,4020003021780,新規,0,2022-05-18,2022-05-18,合同会社いちにのやさい,,合同会社,神奈川県,横浜市神奈川区,反町２丁目１３－９フェリオコート８０４号室,,14,102,2210825,,,,,,,2022-05-18,1,,,,,イチニノヤサイ,0
959,4021001075983,新規,0,2022-05-18,2022-05-18,株式会社喜生,,株式会社,神奈川県,横須賀市,鴨居１丁目８番４号正工ビル,,14,201,2390813,,,,,,,2022-05-18,1,,,,,キキ,0
972,4030001148162,新規,0,2022-05-18,2022-05-18,株式会社迅皇興業,,株式会社,埼玉県,草加市,西町３９０番地５,,11,221,3400035,,,,,,,2022-05-18,1,,,,,ジンオウコウギョウ,0
986,4050003006564,新規,0,2022-05-18,2022-05-18,合同会社にはち,,合同会社,茨城県,ひたちなか市,大字足崎１５０４番地２１,,08,221,3120003,,,,,,,2022-05-18,1,,,,,ニハチ,0
992,4070001039250,新規,0,2022-05-18,2022-05-18,株式会社アクセス,,株式会社,群馬県,伊勢崎市,五目牛町３１８番地２,,10,204,3792213,,,,,,,2022-05-18,1,,,,,アクセス,0
1001,4080101023293,新規,0,2022-05-18,2022-05-18,株式会社ＴＯＴＡＬ４Ｅ,,株式会社,静岡県,富士市,松本３００番地の３６,,22,210,4160903,,,,,,,2022-05-18,1,,,,,トータルフォーイー,0
1005,4080401025808,新規,0,2022-05-18,2022-05-18,Ｓｏｌｕｔｉｏｎ　Ｃｏｒｐｏｒａｔｉｏｎ株式会社,,株式会社,静岡県,浜松市南区,三和町１３２番地ファミール三和１０１号,,22,134,4350038,,,,,,,2022-05-18,1,,,,,ソリューションコーポレーション,0
1008,4100001035345,新規,0,2022-05-18,2022-05-18,株式会社中興,,株式会社,長野県,長野市,大字稲葉１６９番地１,,20,201,3800911,,,,,,,2022-05-18,1,,,,,チュウコウ,0
1034,4120001245958,新規,0,2022-05-18,2022-05-18,株式会社３８５,,株式会社,大阪府,大阪市淀川区,東三国１丁目５番２３号,,27,123,5320002,,,,,,,2022-05-18,1,,,,,ミヤコ,0
1035,4120001245966,新規,0,2022-05-18,2022-05-18,株式会社大阪興業,,株式会社,大阪府,大阪市都島区,都島北通２丁目２３番２４号,,27,102,5340014,,,,,,,2022-05-18,1,,,,,オオサカコウギョウ,0
1036,4120001245974,新規,0,2022-05-18,2022-05-18,株式会社ＭＡＴＳＵＣｏｎｓｕｌｔｉｎｇ,,株式会社,大阪府,大阪市東成区,東小橋１丁目１５番２－３０２号,,27,115,5370024,,,,,,,2022-05-18,1,,,,,マツコンサルティング,0
1039,4120003021647,新規,0,2022-05-18,2022-05-18,合同会社Ｇｒｏｕｎｄ　Ｒｏｃｋ,,合同会社,大阪府,大阪市北区,梅田１丁目１－３大阪駅前第３ビル２９階１－１－１号室,,27,127,5300001,,,,,,,2022-05-18,1,,,,,グランドロック,0
1045,4120103004700,新規,0,2022-05-18,2022-05-18,リバーステート合同会社,,合同会社,大阪府,藤井寺市,岡１丁目３番１９号,,27,226,5830027,,,,,,,2022-05-18,1,,,,,リバーステート,0
1046,4120901045978,新規,0,2022-05-18,2022-05-18,株式会社アートリフォームコーポレートシェアードサービス,,株式会社,大阪府,吹田市,千里万博公園６番３号,,27,205,5650826,,,,,,,2022-05-18,1,,,,,アートリフォームコーポレートシェアードサービス,0
1047,4120903004148,新規,0,2022-05-18,2022-05-18,合同会社Ｔｗｉｎｋｌｅ,,合同会社,大阪府,高槻市,富田町４丁目１６番５号アルデール富田２０６号,,27,207,5690814,,,,,,,2022-05-18,1,,,,,トゥインクル,0
1049,4122001035851,新規,0,2022-05-18,2022-05-18,株式会社ｌｉｅｎ,,株式会社,大阪府,八尾市,志紀町南１丁目３０,,27,212,5810033,,,,,,,2022-05-18,1,,,,,リエン,0
1054,4130001071791,新規,0,2022-05-18,2022-05-18,株式会社Ｐｕｄｄｌｅ＆Ｆｌａｇ,,株式会社,京都府,京都市左京区,北白川堂ノ前町１番地デュ北白川１０３,,26,103,6068277,,,,,,,2022-05-18,1,,,,,パドルアンドフラッグ,0
1060,4140001125968,新規,0,2022-05-18,2022-05-18,株式会社プロスワン,,株式会社,兵庫県,宝塚市,中山桜台６丁目１５番１－１０３号,,28,214,6650877,,,,,,,2022-05-18,1,,,,,プロスワン,0
1061,4140001126009,新規,0,2022-05-18,2022-05-18,ＯＭＧ．株式会社,,株式会社,兵庫県,伊丹市,西台１丁目７番２１－７０３号,,28,207,6640858,,,,,,,2022-05-18,1,,,,,オーエムジードット,0
1062,4140001126017,新規,0,2022-05-18,2022-05-18,株式会社ＦＡＣＴＣＯＲＰＯＲＡＴＩＯＮ,,株式会社,兵庫県,神戸市兵庫区,大開通９丁目２番１４号ワコーレヴィアーレ２０２,,28,105,6520803,,,,,,,2022-05-18,1,,,,,ファクトコーポレーション,0
1065,4160003002569,新規,0,2022-05-18,2022-05-18,滋賀ロジックス合同会社,,合同会社,滋賀県,近江八幡市,魚屋町中３５番地,,25,204,5230868,,,,,,,2022-05-18,1,,,,,シガロジックス,0
1071,4180001151333,新規,0,2022-05-18,2022-05-18,株式会社アメリア,,株式会社,愛知県,名古屋市北区,金城３丁目６番１０号アニマーレ名城６０５,,23,103,4620847,,,,,,,2022-05-18,1,,,,,アメリア,0
1072,4180001151341,新規,0,2022-05-18,2022-05-18,株式会社東海コーポレーション,,株式会社,愛知県,東海市,名和町２丁目２９番地,,23,222,4760002,,,,,,,2022-05-18,1,,,,,トウカイコーポレーション,0
1073,4180001151358,新規,0,2022-05-18,2022-05-18,株式会社ＤＡＨＬＩＡ,,株式会社,愛知県,名古屋市東区,泉１丁目２０番２８号,,23,102,4610001,,,,,,,2022-05-18,1,,,,,ダリア,0
1074,4180001151366,新規,0,2022-05-18,2022-05-18,株式会社レイヴンＲａａＬ,,株式会社,愛知県,名古屋市中区,錦２丁目２０番１５号広小路クロスタワー１４Ｆ,,23,106,4600003,,,,,,,2022-05-18,1,,,,,レイブンラール,0
1076,4180003023836,新規,0,2022-05-18,2022-05-18,合同会社ウッドスリー,,合同会社,愛知県,尾張旭市,長坂町南山２８４５番地１５１,,23,226,4880821,,,,,,,2022-05-18,1,,,,,ウッドスリー,0
1086,4230003001852,新規,0,2022-05-18,2022-05-18,建幸合同会社,,合同会社,富山県,富山市,上野５２３番地,,16,201,9398195,,,,,,,2022-05-18,1,,,,,ケンコウ,0
1098,4250005008745,新規,0,2022-05-18,2022-05-18,一般社団法人みっどらいふ共育協会,,その他の設立登記法人,山口県,周南市,花園町２番８号,,35,215,7460021,,,,,,,2022-05-18,1,,,,,ミッドライフキョウイクキョウカイ,0
1111,4290003012514,新規,0,2022-05-18,2022-05-18,合同会社Ｏｈａｎａ,,合同会社,福岡県,福岡市東区,若宮２丁目９番２８号,,40,131,8130036,,,,,,,2022-05-18,1,,,,,オハナ,0
1112,4290005018682,新規,0,2022-05-18,2022-05-18,一般社団法人ＲｅｅＣｏｍ,,その他の設立登記法人,福岡県,太宰府市,宰府３丁目３番２号,,40,221,8180117,,,,,,,2022-05-18,1,,,,,リーコム,0
1122,4330001029753,新規,0,2022-05-18,2022-05-18,株式会社コペルニクス企画,,株式会社,熊本県,熊本市中央区,上鍛冶屋町２０ライズ呉服９０２,,43,101,8600021,,,,,,,2022-05-18,1,,,,,コペルニクスキカク,0
1124,4330003009365,新規,0,2022-05-18,2022-05-18,助ズ合同会社,,合同会社,熊本県,熊本市中央区,新町４丁目２―２８グランフィーネ新町５０４,,43,101,8600004,,,,,,,2022-05-18,1,,,,,ジョズ,0
1127,4340001024737,新規,0,2022-05-18,2022-05-18,株式会社おうちカンパニー,,株式会社,鹿児島県,鹿児島市,下荒田２丁目５２番５号,,46,201,8900056,,,,,,,2022-05-18,1,,,,,オウチカンパニー,0
1134,4370001048568,新規,0,2022-05-18,2022-05-18,株式会社ＳＴＥＰＯＮＥ,,株式会社,宮城県,仙台市青葉区,郷六字屋敷４－２２,,04,101,9893121,,,,,,,2022-05-18,1,,,,,ステップワン,0
1151,4430003013902,新規,0,2022-05-18,2022-05-18,合同会社アスター,,合同会社,北海道,札幌市北区,あいの里四条５丁目４番２０号,,01,102,0028074,,,,,,,2022-05-18,1,,,,,アスター,0
1154,4440001009083,新規,0,2022-05-18,2022-05-18,株式会社門脇塗装,,株式会社,北海道,函館市,赤川１丁目１５番８号,,01,202,0410805,,,,,,,2022-05-18,1,,,,,,0
1169,4700150108849,新規,0,2022-05-18,2022-05-18,ＭＶＱＸ　Ｃｏｒｐ．　東京支店,,外国会社等,東京都,大田区,蒲田５丁目７番８－８０３号,,13,111,1440052,アメリカ合衆国テキサス州ヒューストン市リッチモンド・アベニュー２９２５番１２００号,,,,,,2022-05-18,1,,,,,エムビーキユーエツクスコーポレーシヨントウキヨウシテン,0
1184,5010001226712,新規,0,2022-05-18,2022-05-18,株式会社ＧＲＩＰ,,株式会社,東京都,千代田区,岩本町３丁目１０－７東自機ビル７Ｆ,,13,101,1010032,,,,,,,2022-05-18,1,,,,,グリップ,0
1203,5010403027626,新規,0,2022-05-18,2022-05-18,合同会社ＴＹ＆Ｃｏ．,,合同会社,東京都,港区,白金１丁目１７番１－１８１１号,,13,103,1080072,,,,,,,2022-05-18,1,,,,,ティーワイアンドコー,0
1209,5010601061162,新規,0,2022-05-18,2022-05-18,株式会社ちま,,株式会社,東京都,江東区,亀戸９丁目１６番５－１２０１号,,13,108,1360071,,,,,,,2022-05-18,1,,,,,チマ,0
1234,5011103011762,新規,0,2022-05-18,2022-05-18,合同会社ノア,,合同会社,東京都,新宿区,下落合２丁目５－３千成ビル２０３,,13,104,1610033,,,,,,,2022-05-18,1,,,,,ノア,0
1241,5011501028045,新規,0,2022-05-18,2022-05-18,名成電子株式会社,,株式会社,東京都,北区,王子５丁目１番２－１２０６号,,13,117,1140002,,,,,,,2022-05-18,1,,,,,メイセイデンシ,0
1246,5012401039207,新規,0,2022-05-18,2022-05-18,株式会社Ｇｒｏｗ,,株式会社,東京都,調布市,布田２丁目２５番地１９,,13,208,1820024,,,,,,,2022-05-18,1,,,,,グロー,0
1247,5012401039215,新規,0,2022-05-18,2022-05-18,株式会社Ｓｏ　Ｙｏｕ　Ｔｈｉｎｋ,,株式会社,東京都,調布市,多摩川１丁目３８－１ブレスマーク調布多摩川１２２,,13,208,1820025,,,,,,,2022-05-18,1,,,,,ソーユーシンク,0
1252,5012703002457,新規,0,2022-05-18,2022-05-18,合同会社ＴＲＥＦＬＥ,,合同会社,東京都,東久留米市,前沢５丁目１－１５花小金井クリスタルコーポ１０４号,,13,222,2030032,,,,,,,2022-05-18,1,,,,,トレフル,0
1281,5030001148269,新規,0,2022-05-18,2022-05-18,株式会社ピオニエ,,株式会社,埼玉県,鶴ヶ島市,大字下新田１番地１Ａ,,11,241,3502222,,,,,,,2022-05-18,1,,,,,ピオニエ,0
1284,5030003019278,新規,0,2022-05-18,2022-05-18,ＳＤＰ不動産合同会社,,合同会社,埼玉県,富士見市,榎町２０番３０６号,,11,235,3540016,,,,,,,2022-05-18,1,,,,,エスディーピーフドウサン,0
1294,5040003020053,新規,0,2022-05-18,2022-05-18,ｏｎｊｐｎ合同会社,,合同会社,千葉県,千葉市美浜区,高洲３丁目２番６棟２０８号,,12,106,2610004,,,,,,,2022-05-18,1,,,,,オンジャパン,0
1298,5050001050919,新規,0,2022-05-18,2022-05-18,アングルプラス株式会社,,株式会社,茨城県,つくば市,二の宮１丁目２番地２酒井ビル３階,,08,220,3050051,,,,,,,2022-05-18,1,,,,,アングルプラス,0
1308,5100001035344,新規,0,2022-05-18,2022-05-18,株式会社エヌエス商事,,株式会社,長野県,塩尻市,大字広丘堅石１１９０－４,,20,215,3990705,,,,,,,2022-05-18,1,,,,,エヌエスショウジ,0
1324,5120001245940,新規,0,2022-05-18,2022-05-18,株式会社Ｂ．Ｋ．Ｊ,,株式会社,大阪府,大阪市中央区,南船場２丁目８番１１号,,27,128,5420081,,,,,,,2022-05-18,1,,,,,ビーケージェー,0
1325,5120001245949,新規,0,2022-05-18,2022-05-18,香学海文化株式会社,,株式会社,大阪府,大阪市東成区,玉津２丁目７－３,,27,115,5370023,,,,,,,2022-05-18,1,,,,,コウガクカイブンカ,0
1326,5120001245965,新規,0,2022-05-18,2022-05-18,株式会社鈴蘭,,株式会社,大阪府,大阪市東住吉区,駒川５丁目２２番１８号ビス鷹宮１Ｆ,,27,121,5460043,,,,,,,2022-05-18,1,,,,,スズラン,0
1327,5120001245973,新規,0,2022-05-18,2022-05-18,株式会社Ｅｂｉｓｕ　Ｊａｐａｎ,,株式会社,大阪府,大阪市西成区,鶴見橋３丁目４－２２グリーンコーポ１０２号室,,27,122,5570031,,,,,,,2022-05-18,1,,,,,エビスジャパン,0
1328,5120001245998,新規,0,2022-05-18,2022-05-18,株式会社ＭＩＬＩＦＥ,,株式会社,大阪府,大阪市西区,北堀江２丁目２番６－３０１号,,27,106,5500014,,,,,,,2022-05-18,1,,,,,ミライフ,0
1330,5120003021679,新規,0,2022-05-18,2022-05-18,合同会社ＮｅｗＳｕｒｇｅ,,合同会社,大阪府,大阪市北区,梅田１丁目２番２号大阪駅前第２ビル２階５－６号室,,27,127,5300001,,,,,,,2022-05-18,1,,,,,ニューサージ,0
1331,5120003021687,新規,0,2022-05-18,2022-05-18,合同会社フェアリー,,合同会社,大阪府,大阪市中央区,南久宝寺町１丁目１０番８号,,27,128,5410058,,,,,,,2022-05-18,1,,,,,フェアリー,0
1332,5120003021695,新規,0,2022-05-18,2022-05-18,合同会社アンドロジック,,合同会社,大阪府,大阪市西区,北堀江１丁目１０－１３－６０１,,27,106,5500014,,,,,,,2022-05-18,1,,,,,アンドロジック,0
1333,5120003021704,新規,0,2022-05-18,2022-05-18,合同会社イービルマーシャンズ,,合同会社,大阪府,大阪市西区,江戸堀２丁目１－１江戸堀センタービル９階,,27,106,5500002,,,,,,,2022-05-18,1,,,,,イービルマーシャンズ,0
1340,5120101065586,新規,0,2022-05-18,2022-05-18,株式会社勝谷計装,,株式会社,大阪府,泉南郡田尻町,嘉祥寺３６９８番地６,,27,362,5980091,,,,,,,2022-05-18,1,,,,,カツヤケイソウ,0
1343,5120901045977,新規,0,2022-05-18,2022-05-18,株式会社高商,,株式会社,大阪府,吹田市,江坂町２丁目２番２９号セントラルビル２０１号,,27,205,5640063,,,,,,,2022-05-18,1,,,,,タカショウ,0
1350,5130001071790,新規,0,2022-05-18,2022-05-18,株式会社フリーネット,,株式会社,京都府,宇治市,木幡南山９番地の２４６,,26,204,6110002,,,,,,,2022-05-18,1,,,,,,0
1351,5130003007933,新規,0,2022-05-18,2022-05-18,ＩＲＯＮ　ＷＯＯＤ合同会社,,合同会社,京都府,京都市右京区,京北周山町卯瀧谷５番地１,,26,108,6010251,,,,,,,2022-05-18,1,,,,,アイアンウッド,0
1362,5140003017691,新規,0,2022-05-18,2022-05-18,合同会社右腕,,合同会社,兵庫県,加古川市,加古川町河原４６８番地の５４,,28,210,6750067,,,,,,,2022-05-18,1,,,,,ミギウデ,0
1372,5180001151191,新規,0,2022-05-18,2022-05-18,マランエックス株式会社,,株式会社,愛知県,名古屋市中区,大須３丁目３０番４０号,,23,106,4600011,,,,,,,2022-05-18,1,,,,,マランエックス,0
1373,5180001151357,新規,0,2022-05-18,2022-05-18,ＱＲ　ＬＯＧＩＳＴＩＣＳ株式会社,,株式会社,愛知県,名古屋市中区,東桜２丁目２２－１８日興ビルヂング８０２号,,23,106,4600005,,,,,,,2022-05-18,1,,,,,キューアールロジスティクス,0
1375,5180003023843,新規,0,2022-05-18,2022-05-18,安吉貿易合同会社,,合同会社,愛知県,春日井市,中新町１丁目２９番地２,,23,206,4860956,,,,,,,2022-05-18,1,,,,,アンキチボウエキ,0
1382,5200003005566,新規,0,2022-05-18,2022-05-18,合同会社高林,,合同会社,岐阜県,美濃市,曽代８７番地４,,21,207,5013714,,,,,,,2022-05-18,1,,,,,タカバヤシ,0
1391,5230003001851,新規,0,2022-05-18,2022-05-18,和樂合同会社,,合同会社,富山県,高岡市,西町５番１６号,,16,202,9330848,,,,,,,2022-05-18,1,,,,,,0
1393,5240001059791,新規,0,2022-05-18,2022-05-18,株式会社エーライフサポート,,株式会社,広島県,広島市安佐北区,可部東２丁目９番１９号,,34,106,7310222,,,,,,,2022-05-18,1,,,,,エーライフサポート,0
1397,5260001036855,新規,0,2022-05-18,2022-05-18,株式会社クリエル,,株式会社,岡山県,岡山市南区,泉田４２１番地２０,,33,104,7000944,,,,,,,2022-05-18,1,,,,,クリエル,0
1412,5290003012488,新規,0,2022-05-18,2022-05-18,合同会社はれ企画,,合同会社,福岡県,大牟田市,大字倉永２２番地４,,40,202,8370906,,,,,,,2022-05-18,1,,,,,ハレキカク,0
1417,5310001017858,新規,0,2022-05-18,2022-05-18,株式会社ＡＫＯ　ｉｎｔｅｒｎａｔｉｏｎａｌ,,株式会社,長崎県,五島市,小泊町２５１番地,,42,211,8530025,,,,,,,2022-05-18,1,,,,,アコウインターナショナル,0
1419,5330001029752,新規,0,2022-05-18,2022-05-18,こころざし塗装株式会社,,株式会社,熊本県,菊池郡大津町,大字杉水８３６番地１,,43,403,8691236,,,,,,,2022-05-18,1,,,,,ココロザシトソウ,0
1420,5340001024736,新規,0,2022-05-18,2022-05-18,株式会社ネクスプラウド,,株式会社,鹿児島県,鹿児島市,東坂元１丁目５番２号,,46,201,8920861,,,,,,,2022-05-18,1,,,,,ネクスプラウド,0
1428,5370005010481,新規,0,2022-05-18,2022-05-18,一般社団法人子どものウェルビーイング協議会・みらトリア,,その他の設立登記法人,宮城県,仙台市青葉区,子平町１番１５－５０１号,,04,101,9810944,,,,,,,2022-05-18,1,,,,,コドモノウェルビーイングキョウギカイミラトリア,0
1429,5380001032818,新規,0,2022-05-18,2022-05-18,大熊石油ガス株式会社,,株式会社,福島県,双葉郡大熊町,大字野上字諏訪３１７番地１,,07,545,9791307,,,,,,,2022-05-18,1,,,,,オオクマセキユガス,0
1443,5430003013934,新規,0,2022-05-18,2022-05-18,合同会社ｋｉｔＨＯＫＫＡＩＤＯ,,合同会社,北海道,札幌市中央区,南二十四条西８丁目２番５号,,01,101,0640924,,,,,,,2022-05-18,1,,,,,キットホッカイドウ,0
1447,5490003001660,新規,0,2022-05-18,2022-05-18,合同会社ＬＩＦＥＬＡＢＯ,,合同会社,高知県,南国市,十市６２４５番地２１,,39,204,7830085,,,,,,,2022-05-18,1,,,,,ライフラボ,0
1451,5700150108781,新規,0,2022-05-18,2022-05-18,東五反田二丁目第３地区市街地再開発組合,,その他,東京都,品川区,東五反田２丁目１４－１８新倉本社ビル５階,,13,109,1410022,,,,,,,2022-05-18,1,,,,,ヒガシゴタンダニチヨウメダイサンチクシガイチサイカイハツクミアイ,0
1452,5700150108848,新規,0,2022-05-18,2022-05-18,神戸町西座倉土地区画整理組合,,その他,岐阜県,岐阜市,薮田南５丁目１４番１２号公益社団法人岐阜県都市整備協会内,,21,201,5008384,,,,,,,2022-05-18,1,,,,,ゴウドチヨウニシザクラトチクカクセイリクミアイ,0
1465,6010001226587,新規,0,2022-05-18,2022-05-18,ＭＩＧ総研株式会社,,株式会社,東京都,千代田区,二番町９番３号,,13,101,1020084,,,,,,,2022-05-18,1,,,,,エムアイジーソウケン,0
1466,6010001226629,新規,0,2022-05-18,2022-05-18,ハンズ不動産販売株式会社,,株式会社,東京都,文京区,本駒込１丁目２０番１５号,,13,105,1130021,,,,,,,2022-05-18,1,,,,,ハンズフドウサンハンバイ,0
1467,6010001226645,新規,0,2022-05-18,2022-05-18,ＩＳＭ株式会社,,株式会社,東京都,中央区,日本橋大伝馬町９－６,,13,102,1030011,,,,,,,2022-05-18,1,,,,,アイエスエム,0
1472,6010003037529,新規,0,2022-05-18,2022-05-18,合同会社きてん,,合同会社,東京都,中央区,日本橋室町１丁目１２－１３,,13,102,1030022,,,,,,,2022-05-18,1,,,,,キテン,0
1475,6010005035010,新規,0,2022-05-18,2022-05-18,一般社団法人ＪＪキャピタル,,その他の設立登記法人,東京都,千代田区,飯田橋４丁目７番１号結和税理士法人内,,13,101,1020072,,,,,,,2022-05-18,1,,,,,ジェイジェイキャピタル,0
1476,6010005035019,新規,0,2022-05-18,2022-05-18,シアトルプロパティー特定目的会社,,その他の設立登記法人,東京都,千代田区,丸の内１丁目１１番１号,,13,101,1000005,,,,,,,2022-05-18,1,,,,,シアトルプロパティー,0
1487,6010405021031,新規,0,2022-05-18,2022-05-18,萩一般社団法人,,その他の設立登記法人,東京都,港区,西新橋１丁目１番１号ＥＰコンサルティングサービス内,,13,103,1050003,,,,,,,2022-05-18,1,,,,,ハギ,0
1488,6010501048837,新規,0,2022-05-18,2022-05-18,株式会社よいひと,,株式会社,東京都,台東区,台東２丁目２６番８号若林ハイム２Ｆ,,13,106,1100016,,,,,,,2022-05-18,1,,,,,ヨイヒト,0
1489,6010501048845,新規,0,2022-05-18,2022-05-18,株式会社Ｐａｎｓｅ,,株式会社,東京都,台東区,東上野１丁目１４－１０翁堂ビル５階,,13,106,1100015,,,,,,,2022-05-18,1,,,,,パンセ,0
1493,6010701042664,新規,0,2022-05-18,2022-05-18,株式会社Ｄｒａｇａｍｉ　Ｇａｍｅｓ,,株式会社,東京都,品川区,東五反田１丁目２番３３号,,13,109,1410022,,,,,,,2022-05-18,1,,,,,ドラガミゲームス,0
1494,6010701042672,新規,0,2022-05-18,2022-05-18,株式会社マリアンレイ,,株式会社,東京都,品川区,豊町５丁目１２番１２号,,13,109,1420042,,,,,,,2022-05-18,1,,,,,マリアンレイ,0
1501,6010901050871,新規,0,2022-05-18,2022-05-18,株式会社ｅｃｒｕｄｅｓｉｇｎ,,株式会社,東京都,世田谷区,等々力７丁目２１番１４号コダヒルズ自由が丘３０１,,13,112,1580082,,,,,,,2022-05-18,1,,,,,エクリュデザイン,0
1507,6011003014699,新規,0,2022-05-18,2022-05-18,ＫＡＭ‐ＩＮＧ合同会社,,合同会社,東京都,目黒区,青葉台３丁目５番９－６０６号ノーツ目黒青葉台,,13,110,1530042,,,,,,,2022-05-18,1,,,,,,0
1508,6011101098867,新規,0,2022-05-18,2022-05-18,株式会社シマダ企画,,株式会社,東京都,新宿区,西新宿３丁目６番１８号,,13,104,1600023,,,,,,,2022-05-18,1,,,,,シマダキカク,0
1511,6011103011761,新規,0,2022-05-18,2022-05-18,ＳＡＮ　Ｄａｔａ　Ｓｙｓｔｅｍｓ　Ｊａｐａｎ合同会社,,合同会社,東京都,新宿区,西新宿７丁目４番３号,,13,104,1600023,,,,,,,2022-05-18,1,,,,,サンデータシステムズジャパン,0
1512,6011105010258,新規,0,2022-05-18,2022-05-18,弁護士法人ピクシーダ,,その他の設立登記法人,東京都,新宿区,市谷八幡町２－１ＤＳ市ヶ谷ビル９階,,13,104,1620844,,,,,,,2022-05-18,1,,,,,ピクシーダ,0
1522,6011801040731,新規,0,2022-05-18,2022-05-18,エクサジャパン株式会社,,株式会社,東京都,足立区,南花畑４丁目２８－１８,,13,121,1210062,,,,,,,2022-05-18,1,,,,,エクサジャパン,0
1524,6012301012989,新規,0,2022-05-18,2022-05-18,ＯＮＫＣ株式会社,,株式会社,東京都,町田市,玉川学園５丁目８番２２号,,13,209,1940041,,,,,,,2022-05-18,1,,,,,オーエヌケーシー,0
1525,6012303001676,新規,0,2022-05-18,2022-05-18,合同会社福井屋,,合同会社,東京都,町田市,高ヶ坂３丁目９－１５,,13,209,1940014,,,,,,,2022-05-18,1,,,,,フクイヤ,0
1527,6012401039214,新規,0,2022-05-18,2022-05-18,ＯＭＴマネジメント株式会社,,株式会社,東京都,府中市,寿町１丁目１番１１号第２福井ビル６０２,,13,206,1830056,,,,,,,2022-05-18,1,,,,,オーエムティーマネジメント,0
1529,6012803002777,新規,0,2022-05-18,2022-05-18,合同会社クレアケアサービスプラス,,合同会社,東京都,日野市,西平山２丁目９番地の２２,,13,212,1910055,,,,,,,2022-05-18,1,,,,,クレアケアサービスプラス,0
1541,6020003021779,新規,0,2022-05-18,2022-05-18,合同会社スマイル込山,,合同会社,神奈川県,横浜市保土ケ谷区,狩場町４５４番地７１,,14,106,2400025,,,,,,,2022-05-18,1,,,,,スマイルコミヤマ,0
1542,6020003021787,新規,0,2022-05-18,2022-05-18,合同会社Ｎアイプランニング,,合同会社,神奈川県,横浜市南区,宿町４丁目７２番地の２ライオンズマンション蒔田第３－１０４号,,14,105,2320017,,,,,,,2022-05-18,1,,,,,エヌアイプランニング,0
1553,6021003011704,新規,0,2022-05-18,2022-05-18,合同会社アジャスト,,合同会社,神奈川県,大和市,つきみ野１丁目１５－３６ラ・プランタン１０１,,14,213,2420002,,,,,,,2022-05-18,1,,,,,アジャスト,0
1556,6030001148235,新規,0,2022-05-18,2022-05-18,株式会社Ｙ・Ｈ企画,,株式会社,埼玉県,三郷市,戸ケ崎２丁目６７５番地１吹上マンション１０１号,,11,237,3410044,,,,,,,2022-05-18,1,,,,,ワイエイチキカク,0
1557,6030001148243,新規,0,2022-05-18,2022-05-18,株式会社加藤製作所キャリアサービス,,株式会社,埼玉県,坂戸市,大字塚越９１５番地２,,11,239,3500209,,,,,,,2022-05-18,1,,,,,カトウセイサクショキャリアサービス,0
1558,6030001148251,新規,0,2022-05-18,2022-05-18,ＪＥＷＥＬＳ株式会社,,株式会社,埼玉県,朝霞市,岡２丁目１１番９－６０１号,,11,227,3510007,,,,,,,2022-05-18,1,,,,,ジュエルズ,0
1571,6040001123369,新規,0,2022-05-18,2022-05-18,株式会社木更津Ａｒｂｏｒ,,株式会社,千葉県,袖ケ浦市,上泉１２０５番地７６,,12,229,2990205,,,,,,,2022-05-18,1,,,,,キサラズアーボ,0
1572,6040001123435,新規,0,2022-05-18,2022-05-18,株式会社ＰＯＳＴ,,株式会社,千葉県,成田市,囲護台１２５１番地３－１０１号,,12,211,2860035,,,,,,,2022-05-18,1,,,,,ポスト,0
1573,6040001123468,新規,0,2022-05-18,2022-05-18,インサイド・システム株式会社,,株式会社,千葉県,八千代市,村上南５丁目８番地６レクセルグランデ勝田台７１２号,,12,221,2760029,,,,,,,2022-05-18,1,,,,,インサイドシステム,0
1584,6050003006562,新規,0,2022-05-18,2022-05-18,合同会社ラサイ,,合同会社,茨城県,小美玉市,大谷８６７番地８,,08,236,3190126,,,,,,,2022-05-18,1,,,,,ラサイ,0
1586,6060001034878,新規,0,2022-05-18,2022-05-18,株式会社ＫＩＣＫＳ,,株式会社,栃木県,大田原市,北滝５６４番地,,09,210,3240224,,,,,,,2022-05-18,1,,,,,キックス,0
1591,6070001039249,新規,0,2022-05-18,2022-05-18,株式会社ＷＩＮ　ＷＩＮ　ＣＡＲＳ,,株式会社,群馬県,伊勢崎市,東小保方町３４８３番地６,,10,204,3792234,,,,,,,2022-05-18,1,,,,,ウィンウィンカーズ,0
1596,6090001017574,新規,0,2022-05-18,2022-05-18,株式会社Ｌｏｃａｌａｂｉｌｉｔｉｅｓ,,株式会社,山梨県,大月市,猿橋町猿橋５５番地,,19,206,4090614,,,,,,,2022-05-18,1,,,,,,0
1597,6100001035343,新規,0,2022-05-18,2022-05-18,株式会社Ｄａｒｔｉｎ,,株式会社,長野県,松本市,大字島立３５１３番地１,,20,202,3900852,,,,,,,2022-05-18,1,,,,,ダーティン,0
1617,6120001245964,新規,0,2022-05-18,2022-05-18,株式会社ＢＯＧ,,株式会社,大阪府,大阪市東住吉区,駒川４丁目１８番３号,,27,121,5460043,,,,,,,2022-05-18,1,,,,,ボグ,0
1618,6120001245980,新規,0,2022-05-18,2022-05-18,ＨＥ商会株式会社,,株式会社,大阪府,大阪市東成区,大今里４丁目４番９号,,27,115,5370012,,,,,,,2022-05-18,1,,,,,エイチイーショウカイ,0
1621,6120003021587,新規,0,2022-05-18,2022-05-18,合同会社ＭＡＲＣＲＥＡＳ,,合同会社,大阪府,大阪市浪速区,桜川２丁目６－１７,,27,111,5560022,,,,,,,2022-05-18,1,,,,,マークリース,0
1622,6120003021661,新規,0,2022-05-18,2022-05-18,Ｆｕｕｓ　Ｈｏｔｄｏｇ合同会社,,合同会社,大阪府,大阪市港区,南市岡３丁目１１番２４号,,27,107,5520011,,,,,,,2022-05-18,1,,,,,フーズホットドッグ,0
1623,6120003021694,新規,0,2022-05-18,2022-05-18,エルピーペイ合同会社,,合同会社,大阪府,大阪市北区,梅田１丁目１番３号大阪駅前第３ビル２９階１－１－１号室,,27,127,5300001,,,,,,,2022-05-18,1,,,,,エルピーペイ,0
1626,6120901045976,新規,0,2022-05-18,2022-05-18,株式会社ＡＫスマイル,,株式会社,大阪府,箕面市,西宿３丁目１０番２０号,,27,220,5620034,,,,,,,2022-05-18,1,,,,,エーケースマイル,0
1627,6120903004154,新規,0,2022-05-18,2022-05-18,合同会社ローテック,,合同会社,大阪府,吹田市,佐竹台１丁目７番１－３１２号,,27,205,5650855,,,,,,,2022-05-18,1,,,,,ローテック,0
1645,6130003007932,新規,0,2022-05-18,2022-05-18,合同会社京都ベストアワード,,合同会社,京都府,京都市下京区,烏丸通仏光寺下る大政所町６７３番地１峯ビル３Ｆ,,26,106,6008413,,,,,,,2022-05-18,1,,,,,キョウトベストアワード,0
1663,6180001151281,新規,0,2022-05-18,2022-05-18,プライム・チョイス株式会社,,株式会社,愛知県,岩倉市,東町掛目１２４番地,,23,228,4820041,,,,,,,2022-05-18,1,,,,,プライムチョイス,0
1664,6180001151348,新規,0,2022-05-18,2022-05-18,株式会社Ｇａｌｌｅ‐ｄｅ‐ｗａｔａｎａｂｅ,,株式会社,愛知県,江南市,小折町八反畑８番地,,23,217,4838131,,,,,,,2022-05-18,1,,,,,ガレドゥワタナベ,0
1665,6180001151364,新規,0,2022-05-18,2022-05-18,Ｏｒａｎｇｅ　Ｄａｙｓ株式会社,,株式会社,愛知県,名古屋市西区,名駅２丁目３４番１７号セントラル名古屋１１０１号,,23,104,4510045,,,,,,,2022-05-18,1,,,,,オレンジデイズ,0
1669,6180003023842,新規,0,2022-05-18,2022-05-18,ＡＳＩＲＩ　ＬＡＮＫＡ　ＪＡＰＡＮ　ＣＯＭＰＡＮＹ合同会社,,合同会社,愛知県,名古屋市中村区,白子町４丁目４８番地の１０,,23,105,4530817,,,,,,,2022-05-18,1,,,,,アシリランカジャパンカンパニー,0
1687,6250001019570,新規,0,2022-05-18,2022-05-18,株式会社３ｉｎ,,株式会社,山口県,長門市,東深川１４１２番地２,,35,211,7594101,,,,,,,2022-05-18,1,,,,,サンイン,0
1700,6290001097555,新規,0,2022-05-18,2022-05-18,株式会社アイデアマーケット,,株式会社,福岡県,春日市,須玖南５丁目２０番地６０１号,,40,218,8160863,,,,,,,2022-05-18,1,,,,,アイデアマーケット,0
1705,6290801028544,新規,0,2022-05-18,2022-05-18,株式会社ＳＡＮＥＩ,,株式会社,福岡県,北九州市小倉南区,上葛原２丁目１３番１４号,,40,107,8000255,,,,,,,2022-05-18,1,,,,,サンエイ,0
1724,6370003005697,新規,0,2022-05-18,2022-05-18,合同会社コンパーニョ,,合同会社,宮城県,岩沼市,たけくま３丁目９番６号,,04,211,9892459,,,,,,,2022-05-18,1,,,,,,0
1730,6380001032817,新規,0,2022-05-18,2022-05-18,株式会社ピアノハウス福島,,株式会社,福島県,福島市,八木田字神明４２番地５,,07,201,9608164,,,,,,,2022-05-18,1,,,,,ピアノハウスフクシマ,0
1744,6430003013909,新規,0,2022-05-18,2022-05-18,合同会社ＦａｒｍＦｉｅｌｄ,,合同会社,北海道,夕張郡長沼町,東３線北１７,,01,428,0691317,,,,,,,2022-05-18,1,,,,,ファームフィールド,0
1745,6430003013925,新規,0,2022-05-18,2022-05-18,合同会社クエリズ,,合同会社,北海道,札幌市中央区,南十八条西１７丁目１番１―３０２号,,01,101,0640918,,,,,,,2022-05-18,1,,,,,クエリズ,0
1747,6450001013702,新規,0,2022-05-18,2022-05-18,株式会社１１１,,株式会社,北海道,名寄市,風連町字日進３１５２番地,,01,221,0980631,,,,,,,2022-05-18,1,,,,,ワンワンワン,0
1759,6700150108847,新規,0,2022-05-18,2022-05-18,白水井路土地改良区,,その他,大分県,竹田市,荻町宮平３６５４番地,,44,208,8796123,,,,,,,2022-05-18,1,,,,,ハクスイイロトチカイリヨウク,0
1783,7010003037701,新規,0,2022-05-18,2022-05-18,ネットセーフ合同会社,,合同会社,東京都,文京区,関口１丁目４２－６リブリグラン関口５０１,,13,105,1120014,,,,,,,2022-05-18,1,,,,,ネットセーフ,0
1786,7010005035018,新規,0,2022-05-18,2022-05-18,一般社団法人ファンドドゥ１０号,,その他の設立登記法人,東京都,千代田区,霞が関３丁目２番５号,,13,101,1000013,,,,,,,2022-05-18,1,,,,,ファンドドゥジュウゴウ,0
1800,7010403027673,新規,0,2022-05-18,2022-05-18,合同会社ＧＫ０５７,,合同会社,東京都,港区,虎ノ門３丁目２２番１０－２０１号,,13,103,1050001,,,,,,,2022-05-18,1,,,,,ジーケイゼロファイブセブン,0
1801,7010405020973,新規,0,2022-05-18,2022-05-18,特定非営利活動法人Ｂｒｉｌｌｉａｎｔ　Ｃａｒｅｅｒ,,その他の設立登記法人,東京都,港区,東麻布２丁目３５番１号ＫＣビル６Ｆ,,13,103,1060044,,,,,,,2022-05-18,1,,,,,ブリリアントキャリア,0
1804,7010601061169,新規,0,2022-05-18,2022-05-18,淀屋橋ホテルマネジメント株式会社,,株式会社,東京都,江東区,亀戸６丁目５６番１５号,,13,108,1360071,,,,,,,2022-05-18,1,,,,,ヨドヤバシホテルマネジメント,0
1820,7011001147566,新規,0,2022-05-18,2022-05-18,株式会社ｗａｌｋｅｙ,,株式会社,東京都,目黒区,自由が丘１丁目１４番地１４号原田ビル２階,,13,110,1520035,,,,,,,2022-05-18,1,,,,,ウォーキー,0
1821,7011001147599,新規,0,2022-05-18,2022-05-18,株式会社ＨＹＵ‐Ｚ,,株式会社,東京都,渋谷区,渋谷２丁目１９番１５号,,13,113,1500002,,,,,,,2022-05-18,1,,,,,ヒューズ,0
1829,7011101098833,新規,0,2022-05-18,2022-05-18,株式会社ＮＳＬｉｎｋ,,株式会社,東京都,新宿区,新宿１丁目３６番２号新宿第七葉山ビル３階,,13,104,1600022,,,,,,,2022-05-18,1,,,,,エヌエスリンク,0
1830,7011103011760,新規,0,2022-05-18,2022-05-18,合同会社ＬＡＩＲ,,合同会社,東京都,新宿区,新宿７丁目１２番１号新宿平和ビル１階,,13,104,1600022,,,,,,,2022-05-18,1,,,,,レア,0
1846,7011701025303,新規,0,2022-05-18,2022-05-18,株式会社ＣＨＯＵ　ＣＨＯＵ,,株式会社,東京都,江戸川区,篠崎町４丁目２－１３,,13,123,1330061,,,,,,,2022-05-18,1,,,,,シュシュ,0
1850,7011801040730,新規,0,2022-05-18,2022-05-18,株式会社Ｊ２Ｋ,,株式会社,東京都,足立区,中央本町１丁目１８番１４－９０１号,,13,121,1200011,,,,,,,2022-05-18,1,,,,,ジェイツーケイ,0
1851,7012303001675,新規,0,2022-05-18,2022-05-18,合同会社南天,,合同会社,東京都,町田市,三輪緑山４丁目２０番地４,,13,209,1950055,,,,,,,2022-05-18,1,,,,,ナンテン,0
1857,7013301049112,新規,0,2022-05-18,2022-05-18,株式会社ウッドポンド,,株式会社,東京都,豊島区,池袋４丁目２７番４号渡辺ビル２Ｆ,,13,116,1710014,,,,,,,2022-05-18,1,,,,,ウッドポンド,0
1862,7020001146346,新規,0,2022-05-18,2022-05-18,株式会社ピースグリーン,,株式会社,神奈川県,横浜市泉区,和泉中央北３丁目３番２７号,,14,116,2450024,,,,,,,2022-05-18,1,,,,,ピースグリーン,0
1863,7020001146544,新規,0,2022-05-18,2022-05-18,ＥＶＥＲＥＳＴ株式会社,,株式会社,神奈川県,横浜市鶴見区,元宮１丁目１７－２６鶴元マンション３０１,,14,101,2300004,,,,,,,2022-05-18,1,,,,,エヴェレスト,0
1870,7020003021786,新規,0,2022-05-18,2022-05-18,ＭＯＯＮ設計合同会社,,合同会社,神奈川県,横浜市都筑区,茅ケ崎南５丁目１９番２１号－５０１,,14,118,2240037,,,,,,,2022-05-18,1,,,,,ムーンセッケイ,0
1872,7021001075997,新規,0,2022-05-18,2022-05-18,株式会社ＡＢＣ,,株式会社,神奈川県,相模原市南区,上鶴間本町３丁目６番１６号,,14,153,2520318,,,,,,,2022-05-18,1,,,,,エービーシー,0
1881,7030001148201,新規,0,2022-05-18,2022-05-18,ＭＡＳＨＦｉｖｅ株式会社,,株式会社,埼玉県,ふじみ野市,南台２丁目１０番１１号,,11,245,3560036,,,,,,,2022-05-18,1,,,,,マッシュファイブ,0
1882,7030001148250,新規,0,2022-05-18,2022-05-18,ＶＩＧＯＲＰＯＯＬ株式会社,,株式会社,埼玉県,さいたま市北区,吉野町１丁目４１１－９,,11,102,3310811,,,,,,,2022-05-18,1,,,,,ヴィガプール,0
1887,7030003019433,新規,0,2022-05-18,2022-05-18,合同会社庄,,合同会社,埼玉県,さいたま市岩槻区,西原台１丁目５番９２号,,11,110,3390082,,,,,,,2022-05-18,1,,,,,ショウ,0
1897,7040001123475,新規,0,2022-05-18,2022-05-18,株式会社Ｇ‐ＱＵＥＥＮ,,株式会社,千葉県,茂原市,清水２２０５番地８４,,12,210,2994101,,,,,,,2022-05-18,1,,,,,ジークィーン,0
1903,7050003006561,新規,0,2022-05-18,2022-05-18,マーチランカ合同会社,,合同会社,茨城県,結城郡八千代町,大字若１２９３番地１,,08,521,3003544,,,,,,,2022-05-18,1,,,,,マーチランカ,0
1905,7060001034877,新規,0,2022-05-18,2022-05-18,株式会社はるさん,,株式会社,栃木県,佐野市,越名町２８３番地３,,09,204,3270822,,,,,,,2022-05-18,1,,,,,ハルサン,0
1906,7060001034885,新規,0,2022-05-18,2022-05-18,ＤＭテック株式会社,,株式会社,栃木県,河内郡上三川町,大字上三川３４３６番地,,09,301,3290611,,,,,,,2022-05-18,1,,,,,ディーエムテック,0
1910,7070001039248,新規,0,2022-05-18,2022-05-18,株式会社トッパード,,株式会社,群馬県,前橋市,南町３丁目５０－２プラザアン２階Ｃ,,10,201,3710805,,,,,,,2022-05-18,1,,,,,トッパード,0
1911,7070003004489,新規,0,2022-05-18,2022-05-18,合同会社ブライトアップ,,合同会社,群馬県,前橋市,紅雲町１丁目２２番７号,,10,201,3710025,,,,,,,2022-05-18,1,,,,,ブライトアップ,0
1913,7080003002797,新規,0,2022-05-18,2022-05-18,合同会社ＦＵＪＩＬＡＢ,,合同会社,静岡県,静岡市清水区,草薙９９０番地の９４,,22,103,4240886,,,,,,,2022-05-18,1,,,,,フジラボ,0
1936,7120001245914,新規,0,2022-05-18,2022-05-18,梵建設株式会社,,株式会社,大阪府,大阪市天王寺区,国分町５番３号サンロード国分５０２号,,27,109,5430044,,,,,,,2022-05-18,1,,,,,ソヨギケンセツ,0
1937,7120001245939,新規,0,2022-05-18,2022-05-18,株式会社ジャパンノーブル,,株式会社,大阪府,大阪市北区,西天満３丁目２番４号大三ビル６０６,,27,127,5300047,,,,,,,2022-05-18,1,,,,,ジャパンノーブル,0
1938,7120001245955,新規,0,2022-05-18,2022-05-18,株式会社ＮＥ‐ｐｌａｎｓ,,株式会社,大阪府,大阪市東淀川区,東中島１丁目１７－５ストゥディオ新大阪６３０,,27,114,5330033,,,,,,,2022-05-18,1,,,,,エヌイープランズ,0
1939,7120003021702,新規,0,2022-05-18,2022-05-18,合同会社ＣｏＭｅ　ｏＮ,,合同会社,大阪府,交野市,藤が尾３丁目１０－２,,27,230,5760022,,,,,,,2022-05-18,1,,,,,カモン,0
1951,7140001126039,新規,0,2022-05-18,2022-05-18,株式会社Ｖｅｃｔｏｒａｎｅ,,株式会社,兵庫県,尼崎市,大庄北３丁目３－５,,28,202,6600063,,,,,,,2022-05-18,1,,,,,ベクトレーン,0
1965,7180001151339,新規,0,2022-05-18,2022-05-18,株式会社久屋,,株式会社,愛知県,名古屋市東区,東桜１丁目１０番３４号,,23,102,4610005,,,,,,,2022-05-18,1,,,,,ヒサヤ,0
1966,7180001151347,新規,0,2022-05-18,2022-05-18,株式会社ＮＹコーポレーション,,株式会社,愛知県,名古屋市中区,上前津２丁目２番２１号パレス上前津９Ｃ号,,23,106,4600013,,,,,,,2022-05-18,1,,,,,エヌワイコーポレーション,0
1967,7180001151371,新規,0,2022-05-18,2022-05-18,株式会社ＧＡＲＡＧＥ　ＹＡＭＡＤＡ,,株式会社,愛知県,あま市,七宝町川部二屋敷４０番地１,,23,237,4970013,,,,,,,2022-05-18,1,,,,,ガレージヤマダ,0
1969,7180003023841,新規,0,2022-05-18,2022-05-18,合同会社ＬＳＣ,,合同会社,愛知県,一宮市,浅野字西大土７９番地１フェリシア浅野１階,,23,203,4910871,,,,,,,2022-05-18,1,,,,,エルエスシー,0
1972,7180303005333,新規,0,2022-05-18,2022-05-18,Ｓｈｉｍｏｎｓ合同会社,,合同会社,愛知県,豊橋市,東小田原町２４番地,,23,201,4400886,,,,,,,2022-05-18,1,,,,,シモンズ,0
1976,7190001029419,新規,0,2022-05-18,2022-05-18,ティースリー株式会社,,株式会社,三重県,四日市市,波木町１９４８番地１,,24,202,5100961,,,,,,,2022-05-18,1,,,,,ティースリー,0
1977,7190003003990,新規,0,2022-05-18,2022-05-18,合同会社もくれん,,合同会社,三重県,四日市市,三ツ谷町１６番２６号－１０２号,,24,202,5100802,,,,,,,2022-05-18,1,,,,,モクレン,0
1993,7250003003068,新規,0,2022-05-18,2022-05-18,合同会社防長,,合同会社,山口県,光市,上島田２丁目１２番１－３０１号,,35,210,7430065,,,,,,,2022-05-18,1,,,,,ボウチョウ,0
2000,7260001036853,新規,0,2022-05-18,2022-05-18,株式会社ハルノヒ,,株式会社,岡山県,岡山市北区,津島福居２丁目２番２７－３号,,33,101,7000080,,,,,,,2022-05-18,1,,,,,ハルノヒ,0
2005,7280001008693,新規,0,2022-05-18,2022-05-18,株式会社セープハーズ,,株式会社,島根県,鹿足郡津和野町,後田ロ７１０番地内１,,32,501,6995605,,,,,,,2022-05-18,1,,,,,,0
2011,7290001097513,新規,0,2022-05-18,2022-05-18,株式会社ＴＮプラン,,株式会社,福岡県,福岡市南区,長丘２丁目１８－１－１０２,,40,134,8150075,,,,,,,2022-05-18,1,,,,,ティーエヌプラン,0
2012,7290001097554,新規,0,2022-05-18,2022-05-18,株式会社アフマド・トレーディング,,株式会社,福岡県,小郡市,三沢４１５９番地１７,,40,216,8380106,,,,,,,2022-05-18,1,,,,,アフマドトレーディング,0
2013,7290001097570,新規,0,2022-05-18,2022-05-18,株式会社ヤリミズデンキ,,株式会社,福岡県,久留米市,北野町稲数２２１番地１１,,40,203,8301126,,,,,,,2022-05-18,1,,,,,ヤリミズデンキ,0
2021,7320001019075,新規,0,2022-05-18,2022-05-18,株式会社エフテック,,株式会社,大分県,大分市,大字宮河内３８３０番地の１０７,,44,201,8700276,,,,,,,2022-05-18,1,,,,,エフテック,0
2024,7330001029750,新規,0,2022-05-18,2022-05-18,株式会社ＭＳＲ,,株式会社,熊本県,熊本市中央区,水前寺６丁目４１番５号,,43,101,8620950,,,,,,,2022-05-18,1,,,,,エムエスアール,0
2033,7360003012000,新規,0,2022-05-18,2022-05-18,合同会社Ａｏｚｏｒａ,,合同会社,沖縄県,糸満市,西崎町３丁目２１６セカンドコア２０２号室,,47,210,9010306,,,,,,,2022-05-18,1,,,,,,0
2049,7430005014466,新規,0,2022-05-18,2022-05-18,エヌ社会保険労務士法人,,その他の設立登記法人,北海道,札幌市厚別区,厚別中央三条１丁目１２番１号,,01,108,0040053,,,,,,,2022-05-18,1,,,,,エヌ,0
2054,7450001013701,新規,0,2022-05-18,2022-05-18,株式会社アンドシープ,,株式会社,北海道,旭川市,豊岡五条２丁目７番１９号,,01,204,0788235,,,,,,,2022-05-18,1,,,,,アンドシープ,0
2056,7460301005067,新規,0,2022-05-18,2022-05-18,株式会社翼,,株式会社,北海道,網走市,北二条東１丁目２番地の２,,01,211,0930052,,,,,,,2022-05-18,1,,,,,ツバサ,0
2057,7480003001833,新規,0,2022-05-18,2022-05-18,合同会社スケッチファームズ,,合同会社,徳島県,鳴門市,里浦町里浦字坂田６３番地１,,36,202,7720021,,,,,,,2022-05-18,1,,,,,スケッチファームズ,0
2061,7500001024214,新規,0,2022-05-18,2022-05-18,株式会社クローバー不動産,,株式会社,愛媛県,今治市,野間甲１２１３番地８,,38,202,7940082,,,,,,,2022-05-18,1,,,,,クローバーフドウサン,0
2065,7700150108796,新規,0,2022-05-18,2022-05-18,ＦＹＮＯＴＡ　ＥＮＴＥＲＰＲＩＳＥＳ,,外国会社等,千葉県,東金市,下武射田８８８－２４,,12,213,2830012,スリランカ民主社会主義共和国、キャンディ、コロンボストリト、５４,,,,,,2022-05-18,1,,,,,フイノタエンタープライズ,0
2066,7700150108846,新規,0,2022-05-18,2022-05-18,ＮＩＣＥＨＡＳＨ　Ｌｔｄ,,外国会社等,,,,,,,,Ｉｎｔｅｒｓｈｏｒｅ　Ｃｈａｍｂｅｒｓ，Ｒｏａｄ　Ｔｏｗｎ，Ｔｏｒｔｏｌａ，Ｂｒｉｔｉｓｈ　Ｖｉｒｇｉｎ　Ｉｓｌａｎｄｓ,,,,,,2022-05-18,1,,,,,ナイスハツシユリミテツド,0
2076,8010001226701,新規,0,2022-05-18,2022-05-18,株式会社Ｎ２ビューティーアンドクリニック,,株式会社,東京都,中央区,銀座２丁目６番５号ＧＩＮＺＡＴＲＥＣＩＯＵＳビル３Ｆ,,13,102,1040061,,,,,,,2022-05-18,1,,,,,エヌツービューティーアンドクリニック,0
2077,8010001226718,新規,0,2022-05-18,2022-05-18,リニアロジック株式会社,,株式会社,東京都,千代田区,神田神保町２丁目２０－３２アイエムビル２０２,,13,101,1010051,,,,,,,2022-05-18,1,,,,,リニアロジック,0
2090,8010401167173,新規,0,2022-05-18,2022-05-18,セブンスター株式会社,,株式会社,東京都,港区,赤坂６丁目８－１４ガーラヒルズ赤坂９０２,,13,103,1070052,,,,,,,2022-05-18,1,,,,,セブンスター,0
2094,8010403027680,新規,0,2022-05-18,2022-05-18,合同会社Ｍａｒｔｈ,,合同会社,東京都,港区,海岸３丁目１３番１２号－６０６,,13,103,1080022,,,,,,,2022-05-18,1,,,,,マース,0
2101,8010601061168,新規,0,2022-05-18,2022-05-18,株式会社ミクスチャー,,株式会社,東京都,江東区,大島５丁目４９番３－９０２号,,13,108,1360072,,,,,,,2022-05-18,1,,,,,ミクスチャー,0
2114,8011001147136,新規,0,2022-05-18,2022-05-18,株式会社Ｈａｒｒｙ＆Ｇｕｃｃｉ,,株式会社,東京都,渋谷区,恵比寿南２丁目１９番７号,,13,113,1500022,,,,,,,2022-05-18,1,,,,,ハリーアンドグッチ,0
2115,8011001147466,新規,0,2022-05-18,2022-05-18,株式会社Ａ‐ｔｒｕｓｔ,,株式会社,東京都,渋谷区,松濤１丁目２８番２号ＷＯＲＫＣＯＵＲＴ渋谷松濤,,13,113,1500046,,,,,,,2022-05-18,1,,,,,エートラスト,0
2117,8011101098873,新規,0,2022-05-18,2022-05-18,株式会社百計画,,株式会社,東京都,新宿区,西新宿３丁目３番１３号西新宿水間ビル６階,,13,104,1600023,,,,,,,2022-05-18,1,,,,,ヒャクケイカク,0
2128,8011401024240,新規,0,2022-05-18,2022-05-18,株式会社ＴＲＥＳ,,株式会社,東京都,板橋区,弥生町７３番６号,,13,119,1730021,,,,,,,2022-05-18,1,,,,,トーレス,0
2134,8011503005163,新規,0,2022-05-18,2022-05-18,８ＲＡＩＳＥ合同会社,,合同会社,東京都,北区,赤羽３丁目３番３号ドミール赤羽２０２－２,,13,117,1150045,,,,,,,2022-05-18,1,,,,,エイトレイズ,0
2146,8013301049103,新規,0,2022-05-18,2022-05-18,株式会社テックフォー,,株式会社,東京都,豊島区,東池袋３丁目２番７－９０５号,,13,116,1700013,,,,,,,2022-05-18,1,,,,,テックフォー,0
2150,8020001146551,新規,0,2022-05-18,2022-05-18,株式会社Ｆｅｌｎｉｓ,,株式会社,神奈川県,横浜市青葉区,美しが丘４丁目２２番地２８号,,14,117,2250002,,,,,,,2022-05-18,1,,,,,フェーニス,0
2156,8021003011710,新規,0,2022-05-18,2022-05-18,合同会社光福,,合同会社,神奈川県,相模原市南区,東大沼２丁目２２番５号コーポ明林１０７,,14,153,2520333,,,,,,,2022-05-18,1,,,,,コウフク,0
2161,8030001148225,新規,0,2022-05-18,2022-05-18,新皇和貿易株式会社,,株式会社,埼玉県,蕨市,南町４丁目７番７号,,11,223,3350003,,,,,,,2022-05-18,1,,,,,シンコウワボウエキ,0
2162,8030001148258,新規,0,2022-05-18,2022-05-18,株式会社クロスバックヤード,,株式会社,埼玉県,川口市,飯塚３丁目３－７川口グレースマンションＢ１１２,,11,203,3320023,,,,,,,2022-05-18,1,,,,,クロスバックヤード,0
2167,8030003019432,新規,0,2022-05-18,2022-05-18,合同会社優陸,,合同会社,埼玉県,行田市,中央１３番１０号,,11,206,3610078,,,,,,,2022-05-18,1,,,,,ユウリ,0
2170,8040001123425,新規,0,2022-05-18,2022-05-18,株式会社みさとタイヤ松戸,,株式会社,千葉県,松戸市,上本郷２８９４番地の１,,12,207,2710064,,,,,,,2022-05-18,1,,,,,ミサトタイヤマツド,0
2174,8040005021617,新規,0,2022-05-18,2022-05-18,一般社団法人習志野市インフラ協議会,,その他の設立登記法人,千葉県,習志野市,鷺沼３丁目４番３号,,12,216,2750014,,,,,,,2022-05-18,1,,,,,ナラシノシインフラキョウギカイ,0
2177,8060001034884,新規,0,2022-05-18,2022-05-18,齊藤鉄工株式会社,,株式会社,栃木県,栃木市,岩舟町静戸２１２番地２,,09,203,3294305,,,,,,,2022-05-18,1,,,,,サイトウテッコウ,0
2180,8060003004076,新規,0,2022-05-18,2022-05-18,ＡＳＭＩＴＡ合同会社,,合同会社,栃木県,小山市,西城南２丁目２９番地１４,,09,208,3230820,,,,,,,2022-05-18,1,,,,,アスミタ,0
2183,8070001039247,新規,0,2022-05-18,2022-05-18,株式会社Ｋ‐ｐｒｉｓｍ,,株式会社,群馬県,太田市,東本町５３番１０号太田レジデンス１０２号室,,10,205,3730026,,,,,,,2022-05-18,1,,,,,ケープリズム,0
2185,8080401025812,新規,0,2022-05-18,2022-05-18,株式会社ＮＧＡ,,株式会社,静岡県,浜松市南区,卸本町２０００番地の２０,,22,134,4328055,,,,,,,2022-05-18,1,,,,,ナーガ,0
2188,8090001017548,新規,0,2022-05-18,2022-05-18,株式会社ウエルネス,,株式会社,山梨県,甲府市,国母８丁目３１－９,,19,201,4000043,,,,,,,2022-05-18,1,,,,,ウエルネス,0
2196,8110001036660,新規,0,2022-05-18,2022-05-18,株式会社川崎車体,00126593,株式会社,新潟県,新潟市北区,太田甲２６７０番地５,,15,101,9503313,,,,,,,2022-05-18,1,,,,,カワサキシャタイ,0
2214,8120001245987,新規,0,2022-05-18,2022-05-18,東卓株式会社,,株式会社,大阪府,大阪市生野区,小路東４丁目３－２０,,27,116,5440003,,,,,,,2022-05-18,1,,,,,トウタク,0
2216,8120003021701,新規,0,2022-05-18,2022-05-18,南商事合同会社,,合同会社,大阪府,大阪市天王寺区,上本町５丁目２－１１上六新興産ビル４Ｆ２Ｂ,,27,109,5430001,,,,,,,2022-05-18,1,,,,,ミナミショウジ,0
2218,8120101065583,新規,0,2022-05-18,2022-05-18,株式会社サヤマＰｌａｃｅ,,株式会社,大阪府,大阪狭山市,茱萸木８丁目１５９０番地の１,,27,231,5890013,,,,,,,2022-05-18,1,,,,,サヤマプレイス,0
2221,8120901045982,新規,0,2022-05-18,2022-05-18,株式会社ｗｕｂｏ,,株式会社,大阪府,高槻市,芥川町１丁目１５－２３ヨシタケビル２階,,27,207,5691123,,,,,,,2022-05-18,1,,,,,,0
2222,8120903004152,新規,0,2022-05-18,2022-05-18,合同会社Ｅｎａｂｌｅｒ,,合同会社,大阪府,茨木市,竹橋町３番３－５０１号,,27,211,5670815,,,,,,,2022-05-18,1,,,,,イネーブラー,0
2229,8130001071796,新規,0,2022-05-18,2022-05-18,株式会社アトラスゲート,,株式会社,京都府,京都市伏見区,横大路下三栖里ノ内７８番地６,,26,109,6128236,,,,,,,2022-05-18,1,,,,,アトラスゲート,0
2242,8140003017689,新規,0,2022-05-18,2022-05-18,Ｓａｉｄｏ　Ｓｕｔｅｐｐｕ合同会社,,合同会社,兵庫県,神戸市中央区,琴ノ緒町５丁目２番２号三信ビル４０１,,28,110,6510094,,,,,,,2022-05-18,1,,,,,サイドステップ,0
2244,8150005009394,新規,0,2022-05-18,2022-05-18,医療法人広晴会,,その他の設立登記法人,奈良県,北葛城郡広陵町,大字南郷６７６－１,,29,426,6350814,,,,,,,2022-05-18,1,,,,,コウセイカイ,0
2251,8180001151321,新規,0,2022-05-18,2022-05-18,株式会社愛知マンションリノベーション機構,,株式会社,愛知県,一宮市,木曽川町里小牧字西青木６７番地,,23,203,4930005,,,,,,,2022-05-18,1,,,,,アイチマンションリノベーションキコウ,0
2252,8180001151354,新規,0,2022-05-18,2022-05-18,株式会社Ｍｉｓｓｉｏｎ,,株式会社,愛知県,名古屋市中区,丸の内３丁目２０番２２号桜通大津ＫＴビル２階,,23,106,4600002,,,,,,,2022-05-18,1,,,,,ミッション,0
2253,8180001151362,新規,0,2022-05-18,2022-05-18,株式会社ＯＺＫＡＮ工業,,株式会社,愛知県,愛西市,勝幡町林７６番地,,23,232,4968001,,,,,,,2022-05-18,1,,,,,オズカンコウギョウ,0
2257,8180003023790,新規,0,2022-05-18,2022-05-18,合同会社稲冨急送,,合同会社,愛知県,清須市,春日砂賀東１２４番地２,,23,233,4520962,,,,,,,2022-05-18,1,,,,,イナトミキュウソウ,0
2264,8180301036206,新規,0,2022-05-18,2022-05-18,株式会社ライツヒューマン,,株式会社,愛知県,岡崎市,康生町５６５番地１４,,23,202,4440052,,,,,,,2022-05-18,1,,,,,ライツヒューマン,0
2265,8180303005332,新規,0,2022-05-18,2022-05-18,合同会社Ｂｅｒｌｉｎ　ｒｅｃｏｒｄｉｎｇｓ,,合同会社,愛知県,豊田市,曙町４丁目２３番地,,23,211,4710835,,,,,,,2022-05-18,1,,,,,ベルリンレコーディングス,0
2268,8210003001512,新規,0,2022-05-18,2022-05-18,合同会社ｍｉｋｅＬａｂ,,合同会社,福井県,越前市,北町３２－３１,,18,209,9150004,,,,,,,2022-05-18,1,,,,,ミケラボ,0
2271,8230003001849,新規,0,2022-05-18,2022-05-18,合同会社永森工業,,合同会社,富山県,高岡市,下麻生伸町５４６６番地２０,,16,202,9391271,,,,,,,2022-05-18,1,,,,,,0
2275,8240001059789,新規,0,2022-05-18,2022-05-18,株式会社巧明,,株式会社,広島県,広島市安佐北区,亀山３丁目１番２２－２３号,,34,106,7310231,,,,,,,2022-05-18,1,,,,,コウメイ,0
2277,8250003003067,新規,0,2022-05-18,2022-05-18,合同会社サラダ館長門中央店,,合同会社,山口県,長門市,東深川９０１番５,,35,211,7594101,,,,,,,2022-05-18,1,,,,,サラダカンナガトチュウオウテン,0
2287,8290001097561,新規,0,2022-05-18,2022-05-18,ケンルイ株式会社,,株式会社,福岡県,福岡市南区,大楠２丁目２１番１７号,,40,134,8150082,,,,,,,2022-05-18,1,,,,,ケンルイ,0
2288,8290003012519,新規,0,2022-05-18,2022-05-18,合同会社ＭＩＫＡ,,合同会社,福岡県,福岡市博多区,博多駅前１丁目１９番３‐１００２号,,40,132,8120011,,,,,,,2022-05-18,1,,,,,ミカ,0
2299,8320001019074,新規,0,2022-05-18,2022-05-18,株式会社ｃｒｅｗ,,株式会社,大分県,大分市,西新地１丁目１０番１２号,,44,201,8700901,,,,,,,2022-05-18,1,,,,,クルー,0
2328,8420001017852,新規,0,2022-05-18,2022-05-18,株式会社青森ハッピー食品,,株式会社,青森県,三沢市,谷地頭３丁目６０番地１号,,02,207,0330164,,,,,,,2022-05-18,1,,,,,アオモリハッピーショクヒン,0
2335,8450003002206,新規,0,2022-05-18,2022-05-18,合同会社Ｎｏａ,,合同会社,北海道,旭川市,神居七条１３丁目２番１７号,,01,204,0708017,,,,,,,2022-05-18,1,,,,,ノア,0
2337,8460301005066,新規,0,2022-05-18,2022-05-18,株式会社アウル,,株式会社,北海道,網走市,字稲富５番地の１５,,01,211,0993115,,,,,,,2022-05-18,1,,,,,アウル,0
2338,8480003001832,新規,0,2022-05-18,2022-05-18,合同会社ＡＬＩＶＥ,,合同会社,徳島県,徳島市,住吉１丁目２番２９号,,36,201,7700861,,,,,,,2022-05-18,1,,,,,アライブ,0
2354,9010001226717,新規,0,2022-05-18,2022-05-18,株式会社Ｍａｒｋ　Ａｃｃｏｒｄ,,株式会社,東京都,中央区,銀座６丁目１３番１６号銀座ＷａｌｌビルＵＣＦ５階,,13,102,1040061,,,,,,,2022-05-18,1,,,,,マークアコード,0
2357,9010003037682,新規,0,2022-05-18,2022-05-18,六本木リアルティ・スリー合同会社,,合同会社,東京都,中央区,日本橋１丁目４番１号,,13,102,1030027,,,,,,,2022-05-18,1,,,,,ロッポンギリアルティスリー,0
2358,9010003037690,新規,0,2022-05-18,2022-05-18,合同会社まなふる,,合同会社,東京都,千代田区,神田錦町２丁目５番地クラッシィハウス神田錦町２０５号,,13,101,1010054,,,,,,,2022-05-18,1,,,,,マナフル,0
2360,9010005035008,新規,0,2022-05-18,2022-05-18,弁理士法人酒井総合特許事務所,,その他の設立登記法人,東京都,千代田区,二番町１１番３号,,13,101,1020084,,,,,,,2022-05-18,1,,,,,サカイソウゴウトッキョジムショ,0
2375,9010401167288,新規,0,2022-05-18,2022-05-18,株式会社ＳｍａｒｔＬＩＮＫ,,株式会社,東京都,港区,南青山２丁目２番１５号,,13,103,1070062,,,,,,,2022-05-18,1,,,,,スマートリンク,0
2382,9010501048842,新規,0,2022-05-18,2022-05-18,株式会社カイマナ,,株式会社,東京都,台東区,上野５丁目１６－１７千代田ビル２階,,13,106,1100005,,,,,,,2022-05-18,1,,,,,カイマナ,0
2391,9010605004080,新規,0,2022-05-18,2022-05-18,一般社団法人ユリシス・バタフライ,,その他の設立登記法人,東京都,江東区,東雲１丁目９番４２－１５０８号,,13,108,1350062,,,,,,,2022-05-18,1,,,,,ユリシスバタフライ,0
2401,9011001147366,新規,0,2022-05-18,2022-05-18,ソフトアズテクノロジーズ株式会社,,株式会社,東京都,渋谷区,道玄坂１丁目１０番８号渋谷道玄坂東急ビル２Ｆ－Ｃ,,13,113,1500043,,,,,,,2022-05-18,1,,,,,ソフトアズテクノロジーズ,0
2423,9011503005162,新規,0,2022-05-18,2022-05-18,合同会社ＰＦＧ,,合同会社,東京都,荒川区,町屋３丁目２－１－５１０ライオンズプラザ町屋,,13,118,1160001,,,,,,,2022-05-18,1,,,,,,0
2434,9011801040729,新規,0,2022-05-18,2022-05-18,シゲミツ株式会社,,株式会社,東京都,足立区,栗原２丁目１９番７－１０２号,,13,121,1230842,,,,,,,2022-05-18,1,,,,,シゲミツ,0
2435,9011803005093,新規,0,2022-05-18,2022-05-18,合同会社ＬＯＬＬＡＰＡＬＯＯＺＡ,,合同会社,東京都,足立区,綾瀬５丁目１３－７リミクスアヤセ４０４,,13,121,1200005,,,,,,,2022-05-18,1,,,,,ロラパルーザ,0
2443,9013301049102,新規,0,2022-05-18,2022-05-18,株式会社Ｎ　ｗｉｔｈ　ｙｏｕ,,株式会社,東京都,豊島区,東池袋３丁目２０番１０号ヴィラ貝坂５０２号,,13,116,1700013,,,,,,,2022-05-18,1,,,,,エヌウィズユー,0
2470,9030001148257,新規,0,2022-05-18,2022-05-18,株式会社ＬＯＡ,,株式会社,埼玉県,熊谷市,筑波２丁目２０番地木村ビル３階,,11,202,3600037,,,,,,,2022-05-18,1,,,,,,0
2471,9030001148281,新規,0,2022-05-18,2022-05-18,株式会社ＡＣＥ５７８,,株式会社,埼玉県,鶴ヶ島市,大字下新田３番地３,,11,241,3502222,,,,,,,2022-05-18,1,,,,,エーシーイーファイブセブンエイト,0
2482,9040001123457,新規,0,2022-05-18,2022-05-18,株式会社リプレイス,,株式会社,千葉県,船橋市,西船４丁目１９番１第１１花園ビル５０１号室,,12,204,2730031,,,,,,,2022-05-18,1,,,,,リプレイス,0
2483,9040001123473,新規,0,2022-05-18,2022-05-18,株式会社ｓｏＬｕａ,,株式会社,千葉県,松戸市,松戸１３０７－１松戸ビル１３Ｆ,,12,207,2710092,,,,,,,2022-05-18,1,,,,,ソルア,0
2488,9040003020041,新規,0,2022-05-18,2022-05-18,テオリア合同会社,,合同会社,千葉県,松戸市,本町１７―１１芹澤ビル６Ｆ,,12,207,2710091,,,,,,,2022-05-18,1,,,,,テオリア,0
2492,9060001034883,新規,0,2022-05-18,2022-05-18,セイシン株式会社,,株式会社,栃木県,真岡市,高勢町３丁目２０５番地２,,09,209,3214341,,,,,,,2022-05-18,1,,,,,セイシン,0
2496,9070001039246,新規,0,2022-05-18,2022-05-18,株式会社ｅｎ　ｔｏ　Ｕ,,株式会社,群馬県,高崎市,箕郷町柏木沢１４４１－７,,10,202,3703101,,,,,,,2022-05-18,1,,,,,エントゥーユー,0
2507,9100001035349,新規,0,2022-05-18,2022-05-18,株式会社Ｉ．Ｋ．Ｃ,,株式会社,長野県,長野市,篠ノ井布施五明２９１番地５メルベーユ１０１,,20,201,3888011,,,,,,,2022-05-18,1,,,,,アイケーシー,0
2510,9110003004763,新規,0,2022-05-18,2022-05-18,合同会社星の糸,,合同会社,新潟県,新潟市北区,すみれ野１丁目１番２１号メゾンヌーベル１０７号,,15,101,9503133,,,,,,,2022-05-18,1,,,,,ホシノイト,0
2520,9120001245937,新規,0,2022-05-18,2022-05-18,株式会社ＹＵ,,株式会社,大阪府,大阪市天王寺区,国分町１３番８号３Ｆ,,27,109,5430044,,,,,,,2022-05-18,1,,,,,ユウ,0
2521,9120001245953,新規,0,2022-05-18,2022-05-18,株式会社アクコム,,株式会社,大阪府,大阪市東淀川区,淡路４丁目９番１４号６階,,27,114,5330032,,,,,,,2022-05-18,1,,,,,アクコム,0
2522,9120001245961,新規,0,2022-05-18,2022-05-18,株式会社アールエムジャパン,,株式会社,大阪府,大阪市西区,南堀江１丁目１８番１１－７０７号,,27,106,5500015,,,,,,,2022-05-18,1,,,,,アールエムジャパン,0
2523,9120001245978,新規,0,2022-05-18,2022-05-18,株式会社ＭＡＳＡコーポレーション,,株式会社,大阪府,大阪市北区,錦町３－８,,27,127,5300034,,,,,,,2022-05-18,1,,,,,マサコーポレーション,0
2524,9120001245986,新規,0,2022-05-18,2022-05-18,株式会社ＨＡＮＡＯＫＡ,,株式会社,大阪府,大阪市住之江区,新北島１丁目２番１８－４０３号,,27,125,5590024,,,,,,,2022-05-18,1,,,,,ハナオカ,0
2527,9120005022952,新規,0,2022-05-18,2022-05-18,ＮＰＯ法人輪母ネットワーク,,その他の設立登記法人,大阪府,大阪市生野区,勝山北５丁目１１番１８号１Ｆ,,27,116,5440033,,,,,,,2022-05-18,1,,,,,ワハハネットワーク,0
2529,9120101065590,新規,0,2022-05-18,2022-05-18,株式会社ＰＳＹＣＨＩＣ,,株式会社,大阪府,堺市北区,新金岡町２丁５番１号,,27,146,5918021,,,,,,,2022-05-18,1,,,,,サイキック,0
2534,9122003002341,新規,0,2022-05-18,2022-05-18,ｓｏｌａｒｓｔｏｎｅ　ｄｅｓｉｇｎ　ｓｔｕｄｉｏ合同会社,,合同会社,大阪府,東大阪市,六万寺町１丁目１４番２号,,27,227,5798061,,,,,,,2022-05-18,1,,,,,ソーラーストーンデザインスタジオ,0
2546,9150001025551,新規,0,2022-05-18,2022-05-18,株式会社コトワザ,,株式会社,奈良県,奈良市,六条西２丁目１１番４４号,,29,201,6308044,,,,,,,2022-05-18,1,,,,,コトワザ,0
2547,9160001024214,新規,0,2022-05-18,2022-05-18,株式会社ＫＲＩＺ,,株式会社,滋賀県,大津市,清風町１０番９号,,25,201,5200225,,,,,,,2022-05-18,1,,,,,クリーズ,0
2554,9180001151270,新規,0,2022-05-18,2022-05-18,Ｔａｃｌｅ株式会社,,株式会社,愛知県,名古屋市天白区,八事山３７３番地（パークハウス八事の丘７０７号）,,23,116,4680077,,,,,,,2022-05-18,1,,,,,タックル,0
2555,9180001151329,新規,0,2022-05-18,2022-05-18,株式会社エイトワン,,株式会社,愛知県,名古屋市北区,天道町３丁目２４番地Ｄ’クラディア城北５０５号,,23,103,4620034,,,,,,,2022-05-18,1,,,,,エイトワン,0
2556,9180001151337,新規,0,2022-05-18,2022-05-18,株式会社ＤＡＯ,,株式会社,愛知県,江南市,宮後町砂場東２７３番地モアグレイス３号,,23,217,4838044,,,,,,,2022-05-18,1,,,,,ダオ,0
2564,9190003003989,新規,0,2022-05-18,2022-05-18,ＮＦＫジャパン合同会社,,合同会社,三重県,員弁郡東員町,笹尾東３丁目２７番１３,,24,324,5110232,,,,,,,2022-05-18,1,,,,,エヌエフケイジャパン,0
2574,9210003001511,新規,0,2022-05-18,2022-05-18,合同会社なをき商會,,合同会社,福井県,三方郡美浜町,新庄第７９号２番地の３,,18,442,9191144,,,,,,,2022-05-18,1,,,,,ナヲキショウカイ,0
2576,9220001024851,新規,0,2022-05-18,2022-05-18,株式会社キャリアアップ,,株式会社,石川県,金沢市,野町３丁目８番２号,,17,201,9218031,,,,,,,2022-05-18,1,,,,,キャリアアップ,0
2585,9250001019568,新規,0,2022-05-18,2022-05-18,株式会社いちただ,,株式会社,山口県,山口市,大内中央１丁目８番１号,,35,203,7530252,,,,,,,2022-05-18,1,,,,,イチタダ,0
2600,9290001097569,新規,0,2022-05-18,2022-05-18,大電株式会社,,株式会社,福岡県,福岡市西区,大字金武２１４８番地１６,,40,135,8190035,,,,,,,2022-05-18,1,,,,,ダイデン,0
2603,9290003012518,新規,0,2022-05-18,2022-05-18,合同会社みのうのみ,,合同会社,福岡県,久留米市,善導寺町木塚３０３－２８,,40,203,8390822,,,,,,,2022-05-18,1,,,,,ミノウノミ,0
2608,9310001017862,新規,0,2022-05-18,2022-05-18,株式会社オノウエ,,株式会社,長崎県,長崎市,五島町２番２９号,,42,201,8500036,,,,,,,2022-05-18,1,,,,,オノウエ,0
2610,9320001019073,新規,0,2022-05-18,2022-05-18,株式会社Ｇｒｅｅｎガーデン大分,,株式会社,大分県,大分市,上田町１丁目１２番５号,,44,201,8700886,,,,,,,2022-05-18,1,,,,,グリーンガーデンオオイタ,0
2614,9330001029749,新規,0,2022-05-18,2022-05-18,カーケアウエノ株式会社,,株式会社,熊本県,宇土市,花園町５１７番地４,,43,211,8690413,,,,,,,2022-05-18,1,,,,,カーケアウエノ,0
2615,9330003009369,新規,0,2022-05-18,2022-05-18,合同会社マルイ農業,,合同会社,熊本県,熊本市北区,植木町辺田野１０７８番地,,43,105,8610146,,,,,,,2022-05-18,1,,,,,マルイノウギョウ,0
2621,9360001030407,新規,0,2022-05-18,2022-05-18,株式会社ＪＭワールド,,株式会社,沖縄県,宜野湾市,嘉数２丁目１番６－１０３号ピースフル２１,,47,205,9012226,,,,,,,2022-05-18,1,,,,,ジェイエムワールド,0
2622,9360003012015,新規,0,2022-05-18,2022-05-18,くさかんむり合同会社,,合同会社,沖縄県,宜野湾市,大山６丁目４６番５－２０２号,,47,205,9012223,,,,,,,2022-05-18,1,,,,,クサカンムリ,0
2634,9420003002521,新規,0,2022-05-18,2022-05-18,合同会社メディカル縁,,合同会社,青森県,弘前市,大字門外３丁目２番の２,,02,202,0368111,,,,,,,2022-05-18,1,,,,,メディカルエン,0
2642,9430003013922,新規,0,2022-05-18,2022-05-18,合同会社ＢｕｈｉＳｉｂａ,,合同会社,北海道,小樽市,新光町２２７番地２３,,01,203,0470153,,,,,,,2022-05-18,1,,,,,ブヒシバ,0
2643,9430005014464,新規,0,2022-05-18,2022-05-18,特定非営利活動法人ココロネ,,その他の設立登記法人,北海道,札幌市白石区,東札幌二条６丁目７番１４号第２トーホービル４０５号,,01,104,0030002,,,,,,,2022-05-18,1,,,,,ココロネ,0
2648,9470003002186,新規,0,2022-05-18,2022-05-18,合同会社Ｄｏｇ　Ｈｏｕｓｅジジ,,合同会社,香川県,坂出市,江尻町１０２６番地,,37,203,7620011,,,,,,,2022-05-18,1,,,,,ドッグハウスジジ,0
2660,9700150108118,新規,0,2022-05-18,2022-04-19,豊嶋晃嗣後援会,,その他,京都府,京都市上京区,武者小路通室町東入梅屋町４６６番地ジオグランデ御所西４０７号,,26,102,6020902,,,,,,,2022-04-19,1,,,,,テシマコウジコウエンカイ,0
2661,9700150108836,新規,0,2022-05-18,2022-05-18,ＭＡＮＡＭＡ　ＣＯＭＰＡＮＹ　ＰＶＴ　ＬＴＤ,,外国会社等,神奈川県,厚木市,飯山３０５１－２こがねハイツ１０３,,14,212,2430213,スリランカ民主社会主義共和国、キャンディ、マワタ、パトゥマ、ヤティヌワラ、Ｎｏ．５３,,,,,,2022-05-18,1,,,,,マナマカンパニー,0
