sequenceNumber,corporateNumber,process,correct,updateDate,changeDate,name,nameImageId,kind,prefectureName,cityName,streetNumber,addressImageId,prefectureCode,cityCode,postCode,addressOutside,addressOutsideImageId,closeDate,closeCause,successorCorporateNumber,changeCause,assignmentDate,latest,enName,enPrefectureName,enCityName,enAddressOutside,furigana,hihyoji
4,1010001250427,新規,0,2024-12-06,2024-12-06,株式会社プロスペラス,,株式会社,東京都,中央区,新川１丁目７番１号天翔オフィス日本橋茅場町３階,,13,102,1040033,,,,,,,2024-12-06,1,,,,,プロスペラス,0
5,1010001250443,新規,0,2024-12-06,2024-12-06,株式会社ＡＮＹＹ,,株式会社,東京都,千代田区,九段南１丁目５番６号りそな九段ビル５階ＫＳフロア３４０６,,13,101,1020074,,,,,,,2024-12-06,1,,,,,エニー,0
6,1010001250468,新規,0,2024-12-06,2024-12-06,株式会社アーキテクト・イノベーション,,株式会社,東京都,中央区,銀座１丁目２２番１１号,,13,102,1040061,,,,,,,2024-12-06,1,,,,,アーキテクトイノベーション,0
7,1010001250550,新規,0,2024-12-06,2024-12-06,東聯国際株式会社,,株式会社,東京都,中央区,日本橋３丁目８番１３号華蓮日本橋ビル９０２号室,,13,102,1030027,,,,,,,2024-12-06,1,,,,,トウレンコクサイ,0
13,1010003045602,新規,0,2024-12-06,2024-12-06,合同会社ＣＯ．ＲＥ,,合同会社,東京都,中央区,銀座１丁目１２－４Ｎ＆ＥＢＬＤ．７階,,13,102,1040061,,,,,,,2024-12-06,1,,,,,コア,0
17,1010101016439,新規,0,2024-12-06,2024-12-06,株式会社ファイン,,株式会社,東京都,八王子市,長沼町２６８番地２,,13,201,1920907,,,,,,,2024-12-06,1,,,,,ファイン,0
22,1010401186849,新規,0,2024-12-06,2024-12-06,Ｔｒａｄｉｏ株式会社,,株式会社,東京都,港区,南青山４丁目１８番１１号フォレストヒルズイーストウイング２Ｆ,,13,103,1070062,,,,,,,2024-12-06,1,,,,,トラディオ,0
23,1010401186865,新規,0,2024-12-06,2024-12-06,ｔｈｒｅｅ株式会社,,株式会社,東京都,港区,高輪３丁目１４番２１号,,13,103,1080074,,,,,,,2024-12-06,1,,,,,スリー,0
24,1010401186898,新規,0,2024-12-06,2024-12-06,Ｒｅａｌ　Ｄｅａｌ　Ｔｒａｄｅｒｓ株式会社,,株式会社,東京都,港区,東麻布２丁目２４番９号１Ｆ,,13,103,1060044,,,,,,,2024-12-06,1,,,,,リアルディールトレーダーズ,0
31,1010701046934,新規,0,2024-12-06,2024-12-06,株式会社ＭＹＴＯＮＥ,,株式会社,東京都,品川区,上大崎３丁目６番４号,,13,109,1410021,,,,,,,2024-12-06,1,,,,,マイトーン,0
32,1010701046942,新規,0,2024-12-06,2024-12-06,株式会社キミタンハウス,,株式会社,東京都,品川区,北品川２丁目２５番５号レガリス品川サウス８０６,,13,109,1400001,,,,,,,2024-12-06,1,,,,,キミタンハウス,0
33,1010701046950,新規,0,2024-12-06,2024-12-06,株式会社ＮＳ　ＷＯＲＫＳ,,株式会社,東京都,品川区,北品川５丁目１２番４号,,13,109,1410001,,,,,,,2024-12-06,1,,,,,エヌエスワークス,0
46,1011101109827,新規,0,2024-12-06,2024-12-06,株式会社シミズキカク,,株式会社,東京都,新宿区,西新宿１丁目１４番１６号,,13,104,1600023,,,,,,,2024-12-06,1,,,,,シミズキカク,0
47,1011105011252,新規,0,2024-12-06,2024-12-06,一般社団法人デジタル教育推進機構,,その他の設立登記法人,東京都,新宿区,西新宿１丁目６番１０号,,13,104,1600023,,,,,,,2024-12-06,1,,,,,デジタルキョウイクスイシンキコウ,0
48,1011501031424,新規,0,2024-12-06,2024-12-06,株式会社アルカス設備,,株式会社,東京都,北区,中里１丁目４番５号２Ｆ,,13,117,1140015,,,,,,,2024-12-06,1,,,,,アルカスセツビ,0
49,1011501031449,新規,0,2024-12-06,2024-12-06,株式会社アイディーラボ,,株式会社,東京都,北区,上十条１丁目２２番２１号,,13,117,1140034,,,,,,,2024-12-06,1,,,,,アイディーラボ,0
50,1011601028238,新規,0,2024-12-06,2024-12-06,株式会社ＴＡＭＢＯ,,株式会社,東京都,練馬区,田柄１丁目２３－１３,,13,120,1790073,,,,,,,2024-12-06,1,,,,,タンボ,0
58,1012805003299,新規,0,2024-12-06,2024-12-06,一般社団法人ＣＨＵＯ　ＨＡＮＤＢＡＬＬ　ＳＵＰＰＯＲＴ　ＣＬＵＢ,,その他の設立登記法人,東京都,日野市,日野本町４丁目１４番地３,,13,212,1910011,,,,,,,2024-12-06,1,,,,,チュウオウハンドボールサポートクラブ,0
68,1020001160492,新規,0,2024-12-06,2024-12-06,株式会社ｍ,,株式会社,神奈川県,横浜市神奈川区,松本町３丁目２４番,,14,102,2210841,,,,,,,2024-12-06,1,,,,,エム,0
69,1020001160501,新規,0,2024-12-06,2024-12-06,株式会社北怜,,株式会社,神奈川県,川崎市多摩区,長沢４丁目３７番１７号テラス長沢Ｅ,,14,135,2140035,,,,,,,2024-12-06,1,,,,,ホクレイ,0
70,1020001160526,新規,0,2024-12-06,2024-12-06,株式会社ルジアム,,株式会社,神奈川県,横浜市泉区,和泉町５６２７番地１,,14,116,2450016,,,,,,,2024-12-06,1,,,,,ルジアム,0
74,1020003027327,新規,0,2024-12-06,2024-12-06,ＬＩＣ合同会社,,合同会社,神奈川県,横浜市青葉区,美しが丘３丁目３８－４４,,14,117,2250002,,,,,,,2024-12-06,1,,,,,,0
75,1020005016633,新規,0,2024-12-06,2024-12-06,一般社団法人エグゼクティブシニア倶楽部,,その他の設立登記法人,神奈川県,横浜市磯子区,岡村４丁目３５－１０,,14,107,2350021,,,,,,,2024-12-06,1,,,,,エグゼクティブシニアクラブ,0
78,1021001083915,新規,0,2024-12-06,2024-12-06,株式会社ＬＯＣＵＳ　ＯＮＥ,,株式会社,神奈川県,茅ヶ崎市,東海岸南２丁目８番４４－８号,,14,207,2530054,,,,,,,2024-12-06,1,,,,,ローカスワン,0
79,1021001083931,新規,0,2024-12-06,2024-12-06,株式会社ライトクル,,株式会社,神奈川県,相模原市中央区,相模原３丁目７番３号,,14,152,2520231,,,,,,,2024-12-06,1,,,,,ライトクル,0
88,1030001163767,新規,0,2024-12-06,2024-12-06,株式会社コンフィアンス,,株式会社,埼玉県,富士見市,大字鶴馬３４６５番地－１０３号,,11,235,3540021,,,,,,,2024-12-06,1,,,,,コンフィアンス,0
93,1030003025627,新規,0,2024-12-06,2024-12-06,合同会社タックルボックス,,合同会社,埼玉県,志木市,幸町１丁目６番５２号,,11,228,3530005,,,,,,,2024-12-06,1,,,,,タックルボックス,0
94,1030003025635,新規,0,2024-12-06,2024-12-06,シャトルウェスト合同会社,,合同会社,埼玉県,さいたま市大宮区,桜木町２丁目４０１番地,,11,103,3300854,,,,,,,2024-12-06,1,,,,,シャトルウェスト,0
100,1040001136441,新規,0,2024-12-06,2024-12-06,株式会社ＯＫＩＧＡＬ,,株式会社,千葉県,山武市,埴谷１９３６番地１,,12,237,2891223,,,,,,,2024-12-06,1,,,,,オキガル,0
101,1040001136458,新規,0,2024-12-06,2024-12-06,株式会社ＡＭＭ,,株式会社,千葉県,浦安市,北栄１丁目１－３柳内ビル３０１,,12,227,2790002,,,,,,,2024-12-06,1,,,,,エーエムエム,0
102,1040001136474,新規,0,2024-12-06,2024-12-06,株式会社畠山事務所,,株式会社,千葉県,千葉市若葉区,千城台西１丁目３４番１０号,,12,104,2640004,,,,,,,2024-12-06,1,,,,,ハタケヤマジムショ,0
105,1040003026327,新規,0,2024-12-06,2024-12-06,合同会社Ｗ,,合同会社,千葉県,市原市,五井中央西２丁目７番地１５ウルマ駅前ビル２階,,12,219,2900081,,,,,,,2024-12-06,1,,,,,ダブリュー,0
107,1040005022596,新規,0,2024-12-06,2024-12-06,一般社団法人ＮＵＲＴＵＲＥＳ,,その他の設立登記法人,千葉県,佐倉市,上志津１６６８番地９,,12,212,2850846,,,,,,,2024-12-06,1,,,,,ナーチャーズ,0
111,1050001055855,新規,0,2024-12-06,2024-12-06,株式会社ボルテックス,,株式会社,茨城県,水戸市,白梅１丁目９番５号,,08,201,3100804,,,,,,,2024-12-06,1,,,,,ボルテックス,0
118,1060003005353,新規,0,2024-12-06,2024-12-06,合同会社アクセスクリエイト,,合同会社,栃木県,宇都宮市,小幡２丁目３番１０号コーポつかさ１０２号室,,09,201,3200036,,,,,,,2024-12-06,1,,,,,アクセスクリエイト,0
131,1100001038086,新規,0,2024-12-06,2024-12-06,株式会社エミタスメディカル,,株式会社,長野県,佐久市,長土呂１１８３番地７７,,20,217,3850021,,,,,,,2024-12-06,1,,,,,エミタスメディカル,0
132,1100001038094,新規,0,2024-12-06,2024-12-06,真田屋株式会社,,株式会社,長野県,上田市,真田町本原６２６番地１,,20,203,3862202,,,,,,,2024-12-06,1,,,,,サナダヤ,0
133,1100001038103,新規,0,2024-12-06,2024-12-06,株式会社ＤＫＭ,,株式会社,長野県,下伊那郡松川町,生田７０７番地１７,,20,402,3993302,,,,,,,2024-12-06,1,,,,,ディーケーエム,0
155,1120001270843,新規,0,2024-12-06,2024-12-06,株式会社ｆ’ｔｅＴｅｔ,,株式会社,大阪府,大阪市都島区,東野田町３丁目１２番１号ＷＳＴＡＲビルＩＩ３Ｆ,00137261,27,102,5340024,,,,,,,2024-12-06,1,,,,,エフテテット,0
156,1120001270876,新規,0,2024-12-06,2024-12-06,株式会社ＲｕＬｉｎｎｅ,,株式会社,大阪府,寝屋川市,仁和寺本町４丁目２番１８号,,27,215,5720076,,,,,,,2024-12-06,1,,,,,ルリンネ,0
157,1120001270918,新規,0,2024-12-06,2024-12-06,株式会社Ｆｏｕｒｔｈ　Ｐｌａｃｅ,,株式会社,大阪府,大阪市西成区,天下茶屋北１丁目６番１７－５０４号,,27,122,5570003,,,,,,,2024-12-06,1,,,,,フォースプレイス,0
159,1120003028026,新規,0,2024-12-06,2024-12-06,パブサー合同会社,,合同会社,大阪府,大阪市北区,梅田１丁目１‐３大阪駅前第３ビル２９階１‐１‐１号室,,27,127,5300001,,,,,,,2024-12-06,1,,,,,パブサー,0
168,1120901050130,新規,0,2024-12-06,2024-12-06,株式会社ＦＬＡＴＰＬＵＳ,,株式会社,大阪府,高槻市,富田丘町１３番１７号,,27,207,5691145,,,,,,,2024-12-06,1,,,,,フラットプラス,0
169,1122001038691,新規,0,2024-12-06,2024-12-06,ＭＩＲＡＩ株式会社,,株式会社,大阪府,八尾市,南本町７丁目５番３０号,,27,212,5810081,,,,,,,2024-12-06,1,,,,,ミライ,0
174,1130001078534,新規,0,2024-12-06,2024-12-06,株式会社リゴレット,,株式会社,京都府,舞鶴市,字森８７０番地１,,26,202,6250062,,,,,,,2024-12-06,1,,,,,リゴレット,0
175,1130001078542,新規,0,2024-12-06,2024-12-06,株式会社ＫＯＲＥＡＮ　ＡＲＴ,,株式会社,京都府,京都市東山区,福稲高原町７番地１０－２０４,,26,105,6050984,,,,,,,2024-12-06,1,,,,,コリアンアート,0
186,1140001136613,新規,0,2024-12-06,2024-12-06,株式会社ＭＥＥＤ,,株式会社,兵庫県,神戸市長田区,細田町２丁目１番２０号,,28,106,6530835,,,,,,,2024-12-06,1,,,,,ミード,0
187,1140001136704,新規,0,2024-12-06,2024-12-06,株式会社ＥＳＴＡＴＥ‐Ｕ,,株式会社,兵庫県,神戸市兵庫区,熊野町５丁目４－１３、２Ｆ,,28,105,6520064,,,,,,,2024-12-06,1,,,,,エステートユー,0
193,1140003021391,新規,0,2024-12-06,2024-12-06,ＦＩＮＥＥｎａｄｏｒｉ合同会社,,合同会社,兵庫県,淡路市,志筑１２０番地１ブルーマリン７０５号,,28,226,6562131,,,,,,,2024-12-06,1,,,,,ファインナドリ,0
194,1140003021400,新規,0,2024-12-06,2024-12-06,合同会社ＴＯＭＯＹＡＳＵ,,合同会社,兵庫県,西宮市,戸崎町２番１０－１５５号,,28,204,6638121,,,,,,,2024-12-06,1,,,,,トモヤス,0
198,1170001018404,新規,0,2024-12-06,2024-12-06,藍きのかわエステート株式会社,,株式会社,和歌山県,紀の川市,貴志川町前田２２４番地２,,30,208,6400411,,,,,,,2024-12-06,1,,,,,アオイキノカワエステート,0
201,1180001164494,新規,0,2024-12-06,2024-12-06,株式会社ａＸｓｈ,,株式会社,愛知県,名古屋市中村区,名駅３丁目４‐１０アルティメイト名駅１ｓｔ２階,,23,105,4500002,,,,,,,2024-12-06,1,,,,,アクシュ,0
204,1180003027682,新規,0,2024-12-06,2024-12-06,合同会社ＸＷＸ,,合同会社,愛知県,名古屋市南区,桜台１丁目１０番１４号１階,,23,112,4570005,,,,,,,2024-12-06,1,,,,,エクスダブリューエクス,0
205,1180003027716,新規,0,2024-12-06,2024-12-06,合同会社ＲｉＮＳｕＮ,,合同会社,愛知県,弥富市,寛延２丁目５７番地５,,23,235,4980043,,,,,,,2024-12-06,1,,,,,リンサン,0
208,1180301039289,新規,0,2024-12-06,2024-12-06,株式会社ソネット安城,,株式会社,愛知県,安城市,今本町７丁目８番地８,,23,212,4460008,,,,,,,2024-12-06,1,,,,,ソネットアンジョウ,0
209,1180301039314,新規,0,2024-12-06,2024-12-06,株式会社ネクストチェンジ,,株式会社,愛知県,豊橋市,西幸町字浜池２３８番地の５,,23,201,4418113,,,,,,,2024-12-06,1,,,,,ネクストチェンジ,0
212,1190001031859,新規,0,2024-12-06,2024-12-06,株式会社エイテック,,株式会社,三重県,三重郡菰野町,大字田光２０１番地８,,24,341,5101324,,,,,,,2024-12-06,1,,,,,エイテック,0
214,1200001043200,新規,0,2024-12-06,2024-12-06,株式会社ｍ’ｓ　ｆａｍｉｌｙ,,株式会社,岐阜県,土岐市,駄知町９０２番地の２２９,,21,212,5095401,,,,,,,2024-12-06,1,,,,,エムズファミリー,0
222,1230001020650,新規,0,2024-12-06,2024-12-06,株式会社熊乃輪,,株式会社,富山県,富山市,東老田６５番地,,16,201,9300161,,,,,,,2024-12-06,1,,,,,クマノワ,0
226,1240001064226,新規,0,2024-12-06,2024-12-06,株式会社ヒラノ製作所,,株式会社,広島県,尾道市,向東町１４７０３番地１２２,,34,205,7220062,,,,,,,2024-12-06,1,,,,,ヒラノセイサクショ,0
230,1260001039705,新規,0,2024-12-06,2024-12-06,株式会社Ｎｙｊ,,株式会社,岡山県,岡山市北区,上中野２丁目７－６,,33,101,7000972,,,,,,,2024-12-06,1,,,,,エヌワイジェー,0
253,1370001052011,新規,0,2024-12-06,2024-12-06,株式会社晴陽,,株式会社,宮城県,仙台市若林区,沖野７丁目３５番３０号,,04,103,9840831,,,,,,,2024-12-06,1,,,,,セイヨウ,0
255,1380001034958,新規,0,2024-12-06,2024-12-06,葵空株式会社,,株式会社,福島県,白河市,中田１００番地１０,,07,205,9610053,,,,,,,2024-12-06,1,,,,,アオゾラ,0
259,1420001018948,新規,0,2024-12-06,2024-12-06,株式会社ＭＡＯ,,株式会社,青森県,弘前市,大字三世寺字月見野１１９番１,,02,202,0368312,,,,,,,2024-12-06,1,,,,,マオ,0
267,1430001093230,新規,0,2024-12-06,2024-12-06,株式会社一陽,,株式会社,北海道,札幌市中央区,南十三条西１８丁目２番５号,,01,101,0640913,,,,,,,2024-12-06,1,,,,,イチヨウ,0
275,1480001012672,新規,0,2024-12-06,2024-12-06,株式会社ＥＴＥＥＮＰＡＩＮ,,株式会社,徳島県,徳島市,丈六町丈領１５８番地の２,,36,201,7714263,,,,,,,2024-12-06,1,,,,,エテンパイン,0
279,1700150128123,新規,0,2024-12-06,2024-12-06,高野井土地改良区,,その他,三重県,津市,一志町八太１３５８番地１,,24,201,5152515,,,,,,,2024-12-06,1,,,,,タカノイトチカイリヨウク,0
280,1700150128148,新規,0,2024-12-06,2024-12-06,ＴＯＫＹＯ　ＫＥＳＳＨＯ　ＭＯＴＯＲＳ　ＰＶＴ　ＬＴＤ,,外国会社等,三重県,四日市市,鹿間町４６１番地５,,24,202,5121113,スリランカ民主社会主義共和国、マダワラバザール、テルデニヤロード、Ｎｏ．３５／６,,,,,,2024-12-06,1,,,,,トウキヨウケツシヨウモータースプライベートリミテツド,0
286,2010001250426,新規,0,2024-12-06,2024-12-06,株式会社グラッド,,株式会社,東京都,中央区,日本橋馬喰町１丁目６番１７号,,13,102,1030002,,,,,,,2024-12-06,1,,,,,グラッド,0
287,2010001250450,新規,0,2024-12-06,2024-12-06,Ｅｄｇｅ　Ｌｉｎｋ１株式会社,,株式会社,東京都,中央区,銀座２丁目１５番２号ＫＲＧｉｎｚａＩＩ４Ｆ,00137259,13,102,1040061,,,,,,,2024-12-06,1,,,,,エッジリンクワン,0
288,2010001250459,新規,0,2024-12-06,2024-12-06,株式会社セカンドライフ,,株式会社,東京都,千代田区,神田淡路町２丁目２３番１号,,13,101,1010063,,,,,,,2024-12-06,1,,,,,セカンドライフ,0
289,2010001250467,新規,0,2024-12-06,2024-12-06,ブックヴォックス株式会社,,株式会社,東京都,千代田区,神田神保町２丁目３８番地いちご九段ビル２Ｆ,,13,101,1010051,,,,,,,2024-12-06,1,,,,,ブックヴォックス,0
290,2010001250475,新規,0,2024-12-06,2024-12-06,株式会社Ｈａｇａｋｕｒｅ,,株式会社,東京都,中央区,銀座１丁目１２－４Ｎ＆ＥＢＬＤ．７階,,13,102,1040061,,,,,,,2024-12-06,1,,,,,ハガクレ,0
291,2010001250483,新規,0,2024-12-06,2024-12-06,株式会社ＥｍｐｌｉｆＡＩ,,株式会社,東京都,千代田区,神田小川町１丁目８番３号小川町北ビル,,13,101,1010052,,,,,,,2024-12-06,1,,,,,エンプリファイ,0
295,2010005039246,新規,0,2024-12-06,2024-12-06,一般社団法人ＫＲ　Ｉｎｖｅｓｔｍｅｎｔ３,,その他の設立登記法人,東京都,中央区,京橋２丁目１２番６号ＡＯＪ税理士法人内,,13,102,1040031,,,,,,,2024-12-06,1,,,,,ケーアールインベストメントスリー,0
303,2010401186880,新規,0,2024-12-06,2024-12-06,株式会社ｓａｎｄｓ,,株式会社,東京都,港区,三田４丁目１７番１７－５０５号,,13,103,1080073,,,,,,,2024-12-06,1,,,,,サンズ,0
305,2010403033973,新規,0,2024-12-06,2024-12-06,Ｓｔｕｄｉｏ９Ｌｉｖｅｓ　Ｊａｐａｎ合同会社,,合同会社,東京都,港区,元赤坂１丁目７番１０号,,13,103,1070051,,,,,,,2024-12-06,1,,,,,スタジオナインライブスジャパン,0
310,2010503007662,新規,0,2024-12-06,2024-12-06,エンブレイスユニオン合同会社,,合同会社,東京都,台東区,三ノ輪１丁目６番５－５０１号,,13,106,1100011,,,,,,,2024-12-06,1,,,,,エンブレイスユニオン,0
313,2010601066420,新規,0,2024-12-06,2024-12-06,株式会社ＹＵＮＯＡ,,株式会社,東京都,江東区,亀戸７丁目４３－５－４０２,,13,108,1360071,,,,,,,2024-12-06,1,,,,,ユノア,0
317,2010701046933,新規,0,2024-12-06,2024-12-06,株式会社ＫＯＴＯＫ,,株式会社,東京都,品川区,上大崎３丁目６番４号,,13,109,1410021,,,,,,,2024-12-06,1,,,,,コートク,0
320,2010801035638,新規,0,2024-12-06,2024-12-06,株式会社ＴＡＭ,,株式会社,東京都,大田区,西馬込２丁目３０番４号,,13,111,1430026,,,,,,,2024-12-06,1,,,,,ティーエーエム,0
323,2010901056451,新規,0,2024-12-06,2024-12-06,株式会社ＰＯＬＩＢＯＵＴＩＱＵＥ,,株式会社,東京都,世田谷区,桜上水１丁目７―１０―３０４,,13,112,1560045,,,,,,,2024-12-06,1,,,,,ポリブティック,0
333,2011001166331,新規,0,2024-12-06,2024-12-06,株式会社８Ｈｏｌｉｃ,,株式会社,東京都,渋谷区,桜丘町２６番１号セルリアンタワー１５階,,13,113,1500031,,,,,,,2024-12-06,1,,,,,エイトホリック,0
334,2011003020552,新規,0,2024-12-06,2024-12-06,合同会社ＹＯＵＰＲＯ,,合同会社,東京都,渋谷区,円山町２３‐９‐１２０１,,13,113,1500044,,,,,,,2024-12-06,1,,,,,ユープロ,0
342,2011101109867,新規,0,2024-12-06,2024-12-06,株式会社ＬＧＢＴＱ　Ｏｒｄｉｎａｒｙ,,株式会社,東京都,新宿区,西新宿３丁目３番１３号西新宿水間ビル６階,,13,104,1600023,,,,,,,2024-12-06,1,,,,,エルジービーティーキューオーディナリー,0
351,2011503006324,新規,0,2024-12-06,2024-12-06,宏源合同会社,,合同会社,東京都,北区,東田端２丁目３番１号美好ビル１Ｆ,,13,117,1140013,,,,,,,2024-12-06,1,,,,,コウゲン,0
353,2011601028253,新規,0,2024-12-06,2024-12-06,株式会社ＨＡＬＯ,,株式会社,東京都,練馬区,光が丘３丁目３番７－２０５号,,13,120,1790072,,,,,,,2024-12-06,1,,,,,ハロー,0
362,2012403006868,新規,0,2024-12-06,2024-12-06,合同会社かんぱにお,,合同会社,東京都,稲城市,坂浜４丁目３２番地の７,,13,225,2060822,,,,,,,2024-12-06,1,,,,,カンパニオ,0
377,2020001160467,新規,0,2024-12-06,2024-12-06,ＥＶＥＮ株式会社,,株式会社,神奈川県,川崎市高津区,二子１丁目１７番１－７２６号ドレッセ二子新地,,14,134,2130002,,,,,,,2024-12-06,1,,,,,イブン,0
378,2020001160566,新規,0,2024-12-06,2024-12-06,Ｒｅｐｕｎｉｔ株式会社,,株式会社,神奈川県,横浜市青葉区,美しが丘１丁目１３番地１０吉村ビル１０７号,,14,117,2250002,,,,,,,2024-12-06,1,,,,,レピュニット,0
383,2020005016632,新規,0,2024-12-06,2024-12-06,一般社団法人日本プレイセラピー協会,,その他の設立登記法人,神奈川県,横浜市栄区,桂台中７番２２号,,14,115,2470034,,,,,,,2024-12-06,1,,,,,ニホンプレイセラピーキョウカイ,0
387,2021001083930,新規,0,2024-12-06,2024-12-06,株式会社メツリーン,,株式会社,神奈川県,相模原市中央区,相模原３丁目７番３号,,14,152,2520231,,,,,,,2024-12-06,1,,,,,メツリーン,0
388,2021001083955,新規,0,2024-12-06,2024-12-06,株式会社お貸しの家,,株式会社,神奈川県,相模原市南区,東林間１丁目１５番１６号サニーハウス３－２０２,,14,153,2520311,,,,,,,2024-12-06,1,,,,,オカシノイエ,0
393,2030001163766,新規,0,2024-12-06,2024-12-06,株式会社幸陽レストラン,,株式会社,埼玉県,春日部市,西宝珠花４２２番地１,,11,214,3440102,,,,,,,2024-12-06,1,,,,,コウヨウレストラン,0
394,2030001163774,新規,0,2024-12-06,2024-12-06,株式会社プラスワン,,株式会社,埼玉県,さいたま市岩槻区,大字長宮１８４番地５,,11,110,3390011,,,,,,,2024-12-06,1,,,,,プラスワン,0
395,2030001163840,新規,0,2024-12-06,2024-12-06,株式会社ＯＳＥ,,株式会社,埼玉県,桶川市,大字川田谷１６９１番地の１４,,11,231,3630027,,,,,,,2024-12-06,1,,,,,オーエスイー,0
401,2030003025626,新規,0,2024-12-06,2024-12-06,合同会社十駒,,合同会社,埼玉県,熊谷市,村岡３９９番地５ダイアパレスリバーコート熊谷７１３,,11,202,3600162,,,,,,,2024-12-06,1,,,,,トコマ,0
402,2030003025650,新規,0,2024-12-06,2024-12-06,ＮＯＭＯ　ｈｏｌｄｉｎｇｓ合同会社,,合同会社,埼玉県,北葛飾郡杉戸町,大字目沼６６４,,11,464,3450005,,,,,,,2024-12-06,1,,,,,ノモホールディングス,0
407,2040001136432,新規,0,2024-12-06,2024-12-06,株式会社ＫＯＣＯ,,株式会社,千葉県,君津市,東坂田３丁目３番１５号富士クラスタービル２Ａ,,12,225,2991144,,,,,,,2024-12-06,1,,,,,ココ,0
408,2040001136449,新規,0,2024-12-06,2024-12-06,株式会社ｂｉｔ,,株式会社,千葉県,佐倉市,大崎台１丁目１６番地２－２０１,,12,212,2850817,,,,,,,2024-12-06,1,,,,,ビット,0
409,2040001136457,新規,0,2024-12-06,2024-12-06,株式会社ＹＡＭＡＢＵＫＩ　ＢＡＳＥ,,株式会社,千葉県,市川市,行徳駅前３丁目１２－１２,,12,203,2720133,,,,,,,2024-12-06,1,,,,,ヤマブキベース,0
410,2040001136473,新規,0,2024-12-06,2024-12-06,株式会社〇,,株式会社,千葉県,千葉市緑区,越智町８２２番地１６,,12,105,2670055,,,,,,,2024-12-06,1,,,,,マル,0
412,2040003026326,新規,0,2024-12-06,2024-12-06,合同会社ハーモニックフロー,,合同会社,千葉県,市川市,八幡３丁目７番２号ｍｏｔｏ８,,12,203,2720021,,,,,,,2024-12-06,1,,,,,ハーモニックフロー,0
424,2070003005698,新規,0,2024-12-06,2024-12-06,合同会社彪虎,,合同会社,群馬県,桐生市,広沢町４丁目２２９３番地の５,,10,203,3760013,,,,,,,2024-12-06,1,,,,,ヒョウトラ,0
426,2080001026646,新規,0,2024-12-06,2024-12-06,株式会社増田ハウジング,,株式会社,静岡県,焼津市,下小田中町５番地の１４,,22,212,4250056,,,,,,,2024-12-06,1,,,,,マスダハウジング,0
437,2100001038102,新規,0,2024-12-06,2024-12-06,株式会社ナインヤード,,株式会社,長野県,下伊那郡松川町,元大島５８６８番地９,,20,402,3993303,,,,,,,2024-12-06,1,,,,,ナインヤード,0
442,2110003005603,新規,0,2024-12-06,2024-12-06,合同会社Ｆ・Ｐ,,合同会社,新潟県,南魚沼市,六日町１８１６番地２,,15,226,9496680,,,,,,,2024-12-06,1,,,,,エフピー,0
449,2120001270867,新規,0,2024-12-06,2024-12-06,株式会社ＤＡＮ,,株式会社,大阪府,大阪市城東区,蒲生１丁目８番２１号,,27,118,5360016,,,,,,,2024-12-06,1,,,,,ダン,0
450,2120001270917,新規,0,2024-12-06,2024-12-06,株式会社ＹＯＵ,,株式会社,大阪府,大阪市西区,京町堀１丁目８番３５－８０１号,,27,106,5500003,,,,,,,2024-12-06,1,,,,,ユー,0
453,2120003028108,新規,0,2024-12-06,2024-12-06,合同会社Ｖｅｒｔｅｘ,,合同会社,大阪府,大阪市中央区,南船場３丁目２番２２号２０５号室,,27,128,5420081,,,,,,,2024-12-06,1,,,,,バーテックス,0
454,2120003028116,新規,0,2024-12-06,2024-12-06,姫路パワートレーディング合同会社,,合同会社,大阪府,大阪市中央区,道修町３丁目５番１１号,,27,128,5410045,,,,,,,2024-12-06,1,,,,,ヒメジパワートレーディング,0
463,2120901050146,新規,0,2024-12-06,2024-12-06,株式会社フェアウェイ,,株式会社,大阪府,高槻市,沢良木町１３番４号ハイツ沢良木店舗Ｃ,,27,207,5690084,,,,,,,2024-12-06,1,,,,,フェアウェイ,0
465,2120903005445,新規,0,2024-12-06,2024-12-06,ファシリテーターＹ＆Ｙ合同会社,,合同会社,大阪府,高槻市,芥川町１丁目２番Ａ－２４０９号,,27,207,5691123,,,,,,,2024-12-06,1,,,,,ファシリテーターワイアンドワイ,0
471,2130001078525,新規,0,2024-12-06,2024-12-06,株式会社Ｊ・Ｏ・エイト,,株式会社,京都府,京都市南区,唐橋井園町３３番地８,,26,107,6018462,,,,,,,2024-12-06,1,,,,,ジェイオーエイト,0
478,2140001136637,新規,0,2024-12-06,2024-12-06,株式会社悠穏,,株式会社,兵庫県,神戸市中央区,磯辺通１丁目１番１８号カサベラ国際プラザビル７０７号室,,28,110,6510084,,,,,,,2024-12-06,1,,,,,ユノン,0
480,2140003021382,新規,0,2024-12-06,2024-12-06,合同会社ｍｉｋｙケアプラン,,合同会社,兵庫県,神戸市長田区,高取山町２丁目２２番６－４０３号,,28,106,6530856,,,,,,,2024-12-06,1,,,,,マイキーケアプラン,0
481,2140003021399,新規,0,2024-12-06,2024-12-06,合同会社ＤＩＧＩ　ＴＯＳＨＡＮＦＵ　Ｌ,,合同会社,兵庫県,姫路市,山野井町１４７番地リノーバ山野井２０１,,28,201,6700021,,,,,,,2024-12-06,1,,,,,デジトゥーシャンフール,0
484,2170001018403,新規,0,2024-12-06,2024-12-06,株式会社フォンテーヌ,,株式会社,和歌山県,御坊市,熊野９１２番地,,30,205,6440033,,,,,,,2024-12-06,1,,,,,フォンテーヌ,0
491,2180301039305,新規,0,2024-12-06,2024-12-06,株式会社ＬＵＴＲＡ,,株式会社,愛知県,刈谷市,場割町１丁目２番地２,,23,210,4480810,,,,,,,2024-12-06,1,,,,,ルトラ,0
492,2180301039313,新規,0,2024-12-06,2024-12-06,Ｈｏｓｈｏ　Ｇｒｏｕｐ株式会社,,株式会社,愛知県,豊田市,東梅坪町１０丁目５番地８,,23,211,4710071,,,,,,,2024-12-06,1,,,,,ホーショウグループ,0
498,2200005013693,新規,0,2024-12-06,2024-12-06,医療法人恵那歯科医院,,その他の設立登記法人,岐阜県,恵那市,長島町中野２丁目３番地４,,21,210,5097205,,,,,,,2024-12-06,1,,,,,エナシカイイン,0
504,2240001064209,新規,0,2024-12-06,2024-12-06,慎株式会社,,株式会社,広島県,福山市,坪生町３４２１番地,,34,207,7210903,,,,,,,2024-12-06,1,,,,,マコト,0
508,2260001039704,新規,0,2024-12-06,2024-12-06,株式会社かがやき,,株式会社,岡山県,倉敷市,玉島乙島８２３４－３１,,33,202,7138103,,,,,,,2024-12-06,1,,,,,カガヤキ,0
517,2290001108191,新規,0,2024-12-06,2024-12-06,ｉｓｌｅ．株式会社,,株式会社,福岡県,福岡市城南区,鳥飼６丁目９番１４－３号,,40,136,8140103,,,,,,,2024-12-06,1,,,,,アイル,0
522,2290801031106,新規,0,2024-12-06,2024-12-06,株式会社ＥＬＣ,,株式会社,福岡県,北九州市戸畑区,中原西２丁目１番１５一１Ｆ,,40,105,8040011,,,,,,,2024-12-06,1,,,,,イーエルシー,0
525,2300001014000,新規,0,2024-12-06,2024-12-06,株式会社餃子ハイ酒場,,株式会社,佐賀県,佐賀市,鍋島２丁目１番４号,,41,201,8490937,,,,,,,2024-12-06,1,,,,,ギョウザハイサカバ,0
526,2310001019353,新規,0,2024-12-06,2024-12-06,やまのうち水産株式会社,,株式会社,長崎県,佐世保市,鹿町町長串３７１番地１２,,42,202,8596206,,,,,,,2024-12-06,1,,,,,ヤマノウチスイサン,0
533,2330003010671,新規,0,2024-12-06,2024-12-06,ＶＩＳＬＡ合同会社,,合同会社,熊本県,熊本市中央区,保田窪１丁目１０番１０－１１０号,,43,101,8620926,,,,,,,2024-12-06,1,,,,,ヴィスラ,0
535,2350003004795,新規,0,2024-12-06,2024-12-06,合同会社ヒガシ,,合同会社,宮崎県,宮崎市,権現町７４番地２,,45,201,8800822,,,,,,,2024-12-06,1,,,,,ヒガシ,0
540,2370001052027,新規,0,2024-12-06,2024-12-06,株式会社Ｌｏｃｏｗａ,,株式会社,宮城県,仙台市宮城野区,榴岡１丁目１番１号,,04,102,9830852,,,,,,,2024-12-06,1,,,,,ロコワ,0
541,2370003006848,新規,0,2024-12-06,2024-12-06,ＢＬＩＳＳ．合同会社,,合同会社,宮城県,大崎市,古川旭６丁目２－８ガーデンシティ・Ｓ２１０号室,,04,215,9896117,,,,,,,2024-12-06,1,,,,,ブリス,0
546,2390001017812,新規,0,2024-12-06,2024-12-06,株式会社ハヤサカアルミ,,株式会社,山形県,最上郡金山町,大字金山５０５番地３３,,06,361,9995402,,,,,,,2024-12-06,1,,,,,ハヤサカアルミ,0
555,2430003017054,新規,0,2024-12-06,2024-12-06,合同会社ＴＭＣ,,合同会社,北海道,札幌市豊平区,西岡五条１丁目１２番１号,,01,105,0620035,,,,,,,2024-12-06,1,,,,,ティエムシー,0
556,2440001009531,新規,0,2024-12-06,2024-12-06,ＡｂｏａｒｄＶｉｓａＰａｒｔｎｅｒｓＪａｐａｎ株式会社,,株式会社,北海道,函館市,東雲町１番８号,,01,202,0400036,,,,,,,2024-12-06,1,,,,,アボードビザパートナーズジャパン,0
563,2700150041151,新規,0,2024-12-06,2015-10-09,鶴岡市京田地区自治振興会,,その他,山形県,鶴岡市,高田字下村３３６－１,,06,203,9970054,,,,,,,2015-10-09,1,,,,,ツルオカシキヨウデンチクジチシンコウカイ,0
565,2700150128147,新規,0,2024-12-06,2024-12-06,ＧＲＥＡＴＷＡＹ　ＡＵＴＯ　ＴＲＡＤＩＮＧ,,外国会社等,千葉県,山武市,雨坪６５番地１０１,,12,237,2891213,スリランカ民主社会主義共和国、マタレ、キングストリート、Ｎｏ．６６／２０,,,,,,2024-12-06,1,,,,,グレートウエイオートトレーデイング,0
569,3010001250433,新規,0,2024-12-06,2024-12-06,ＩＷＴホールディングス株式会社,,株式会社,東京都,中央区,八丁堀４丁目１０番１号,,13,102,1040032,,,,,,,2024-12-06,1,,,,,アイダブルティーホールディングス,0
570,3010001250458,新規,0,2024-12-06,2024-12-06,ホワイトベース株式会社,,株式会社,東京都,千代田区,九段北１丁目９番１６号九段ＫＡビル４階,,13,101,1020073,,,,,,,2024-12-06,1,,,,,ホワイトベース,0
571,3010001250466,新規,0,2024-12-06,2024-12-06,株式会社トンジール,,株式会社,東京都,中央区,日本橋室町１丁目１１番１２号日本橋水野ビル７階,,13,102,1030022,,,,,,,2024-12-06,1,,,,,トンジール,0
572,3010001250482,新規,0,2024-12-06,2024-12-06,クオンタムフィナンシャルイノベーションズ株式会社,,株式会社,東京都,千代田区,大手町１丁目６－１大手町ビル２Ｆ・４Ｆ,,13,101,1000004,,,,,,,2024-12-06,1,,,,,クオンタムフィナンシャルイノベーションズ,0
576,3010003045699,新規,0,2024-12-06,2024-12-06,合同会社萌黄,,合同会社,東京都,千代田区,霞が関３丁目２番５号,,13,101,1000013,,,,,,,2024-12-06,1,,,,,モエギ,0
577,3010103002468,新規,0,2024-12-06,2024-12-06,合同会社シャンクス,,合同会社,東京都,八王子市,川口町１５１４番地１３,,13,201,1930801,,,,,,,2024-12-06,1,,,,,シャンクス,0
580,3010401186847,新規,0,2024-12-06,2024-12-06,株式会社モスタル,,株式会社,東京都,港区,芝１丁目２番１号,,13,103,1050014,,,,,,,2024-12-06,1,,,,,モスタル,0
581,3010401186888,新規,0,2024-12-06,2024-12-06,株式会社ＳＸＤ,,株式会社,東京都,港区,虎ノ門４丁目１番２８号,,13,103,1050001,,,,,,,2024-12-06,1,,,,,エスエックスディー,0
582,3010403033972,新規,0,2024-12-06,2024-12-06,合同会社ＮＥＸＬＥＡＰ,,合同会社,東京都,港区,港南３丁目９番３３－１９１４号,,13,103,1080075,,,,,,,2024-12-06,1,,,,,ネクスリープ,0
585,3010503007653,新規,0,2024-12-06,2024-12-06,合同会社Ｕ．Ｅ．Ｎ,,合同会社,東京都,台東区,上野２丁目８番９号元黒門立田ビル１階,,13,106,1100005,,,,,,,2024-12-06,1,,,,,ユーイーエヌ,0
587,3010601066428,新規,0,2024-12-06,2024-12-06,株式会社ＹＲｗｏｒｋｓ,,株式会社,東京都,江東区,北砂４丁目３３番９号,,13,108,1360073,,,,,,,2024-12-06,1,,,,,ワイアールワークス,0
593,3010801035629,新規,0,2024-12-06,2024-12-06,株式会社ＲＳＩＲＩＳ,,株式会社,東京都,大田区,東糀谷１丁目１－１０,,13,111,1440033,,,,,,,2024-12-06,1,,,,,リリス,0
594,3010801035637,新規,0,2024-12-06,2024-12-06,株式会社ＡＤＶＡＮＣＥ,,株式会社,東京都,大田区,西馬込２丁目３０番４号,,13,111,1430026,,,,,,,2024-12-06,1,,,,,アドバンス,0
602,3011001166140,新規,0,2024-12-06,2024-12-06,株式会社ＳＯＤＡＣＨＩ,,株式会社,東京都,渋谷区,千駄ヶ谷５丁目１３番１８号オフィスコート代々木Ｃ２,,13,113,1510051,,,,,,,2024-12-06,1,,,,,ソダチ,0
603,3011001166173,新規,0,2024-12-06,2024-12-06,株式会社ヨイヒト,,株式会社,東京都,渋谷区,桜丘町２３番１７号シティコート桜丘４０８,,13,113,1500031,,,,,,,2024-12-06,1,,,,,ヨイヒト,0
609,3011101109809,新規,0,2024-12-06,2024-12-06,Ｎｏｖａｇｒｉｄ株式会社,,株式会社,東京都,新宿区,西新宿３丁目３番１３号西新宿水間ビル２Ｆ,,13,104,1600023,,,,,,,2024-12-06,1,,,,,ノヴァグリッド,0
610,3011101109833,新規,0,2024-12-06,2024-12-06,株式会社岡本兄弟社,,株式会社,東京都,新宿区,西新宿５丁目５番１号ザ・パークハウス西新宿タワー６０・４７０５号,,13,104,1600023,,,,,,,2024-12-06,1,,,,,オカモトキョウダイシャ,0
622,3012401042550,新規,0,2024-12-06,2024-12-06,ｅＭＩＲＡＩ不動産株式会社,,株式会社,東京都,多摩市,落合１丁目６番地４バルキープラザ７０３,,13,224,2060033,,,,,,,2024-12-06,1,,,,,イーミライフドウサン,0
635,3020001160458,新規,0,2024-12-06,2024-12-06,株式会社ＧｅｔＭｕｓｉｃ,,株式会社,神奈川県,横浜市金沢区,大川７番５－８０５号,,14,108,2360043,,,,,,,2024-12-06,1,,,,,ゲットミュージック,0
644,3021001083913,新規,0,2024-12-06,2024-12-06,株式会社ＴＡＫＡＮＡＲＩ,,株式会社,神奈川県,厚木市,上荻野２８２４,,14,212,2430201,,,,,,,2024-12-06,1,,,,,タカナリ,0
652,3030001163749,新規,0,2024-12-06,2024-12-06,株式会社Ｃｌｏｃｈｅｔｔｅ,,株式会社,埼玉県,草加市,苗塚町６２１番地５,,11,221,3400036,,,,,,,2024-12-06,1,,,,,クロシェット,0
655,3030003025625,新規,0,2024-12-06,2024-12-06,合同会社ＳＫ　ｈａｉｒ,,合同会社,埼玉県,朝霞市,仲町１丁目１０番１号,,11,227,3510006,,,,,,,2024-12-06,1,,,,,エスケーヘア,0
656,3030005021969,新規,0,2024-12-06,2024-12-06,一般社団法人寿活基金,,その他の設立登記法人,埼玉県,狭山市,大字水野４５８番地の５５,,11,215,3501317,,,,,,,2024-12-06,1,,,,,ジュカツキキン,0
660,3040001136456,新規,0,2024-12-06,2024-12-06,誠蟻商事株式会社,,株式会社,千葉県,佐倉市,西御門１６７番地２,,12,212,2850074,,,,,,,2024-12-06,1,,,,,セイイショウジ,0
661,3040001136489,新規,0,2024-12-06,2024-12-06,株式会社白鞘,,株式会社,千葉県,富里市,七栄１７９番地４５,,12,233,2860221,,,,,,,2024-12-06,1,,,,,シロサヤ,0
662,3040001136514,新規,0,2024-12-06,2024-12-06,株式会社Ｃｕｒｔａｉｎ　Ｃａｌｌ,,株式会社,千葉県,習志野市,大久保１丁目２３番１５号,,12,216,2750011,,,,,,,2024-12-06,1,,,,,カーテンコール,0
665,3040003026325,新規,0,2024-12-06,2024-12-06,合同会社あすなろＲＳＯ,,合同会社,千葉県,千葉市美浜区,幸町１丁目８番２棟６０９号,,12,106,2610001,,,,,,,2024-12-06,1,,,,,アスナロアールエスオー,0
677,3060001037710,新規,0,2024-12-06,2024-12-06,ＬＡＮＤ　ＣＯＮＮＥＣＴ株式会社,,株式会社,栃木県,那須塩原市,埼玉６番地１０９２,,09,213,3250033,,,,,,,2024-12-06,1,,,,,ランドコネクト,0
680,3070003005689,新規,0,2024-12-06,2024-12-06,天合同会社,,合同会社,群馬県,高崎市,通町３４番地イッコウビル１Ｆ,,10,202,3700053,,,,,,,2024-12-06,1,,,,,テン,0
681,3080001026645,新規,0,2024-12-06,2024-12-06,株式会社ｃｏｓａ,,株式会社,静岡県,静岡市葵区,御幸町２０番地,,22,101,4200857,,,,,,,2024-12-06,1,,,,,コーサ,0
682,3080003003337,新規,0,2024-12-06,2024-12-06,合同会社Ｃｏｚｙｔｉｍｅｚ,,合同会社,静岡県,藤枝市,志太１丁目５番１０号,,22,214,4260071,,,,,,,2024-12-06,1,,,,,コージータイムズ,0
683,3080101025175,新規,0,2024-12-06,2024-12-06,株式会社リレイズ,,株式会社,静岡県,沼津市,岡一色２０－２－２階,,22,203,4100012,,,,,,,2024-12-06,1,,,,,リレイズ,0
684,3080103003212,新規,0,2024-12-06,2024-12-06,合同会社東部トラスト,,合同会社,静岡県,三島市,旭ヶ丘１９番１２号,,22,206,4110020,,,,,,,2024-12-06,1,,,,,,0
688,3080401027615,新規,0,2024-12-06,2024-12-06,株式会社てらだや,,株式会社,静岡県,浜松市中央区,丸塚町２１４番地の１,,22,138,4350046,,,,,,,2024-12-06,1,,,,,テラダヤ,0
692,3110001038901,新規,0,2024-12-06,2024-12-06,株式会社ＣＡＲ　ＤＡＹＳ新潟,,株式会社,新潟県,上越市,春日山町１丁目１９番４３号,,15,222,9430807,,,,,,,2024-12-06,1,,,,,カーデイズニイガタ,0
699,3120001270767,新規,0,2024-12-06,2024-12-06,株式会社Ｒｅａｌｕｓ,,株式会社,大阪府,大阪市北区,中崎西４丁目３番３２－１００３号,,27,127,5300015,,,,,,,2024-12-06,1,,,,,リアルス,0
700,3120001270825,新規,0,2024-12-06,2024-12-06,欣華株式会社,,株式会社,大阪府,大阪市淀川区,東三国５丁目１３番８号ユニライフ東三国ＩＩ１０２号,00137267,27,123,5320002,,,,,,,2024-12-06,1,,,,,キンカ,0
701,3120001270874,新規,0,2024-12-06,2024-12-06,哲一株式会社,,株式会社,大阪府,大阪市住吉区,南住吉２丁目６番２１号ホワイトコーポ南住吉１０３号室,,27,120,5580041,,,,,,,2024-12-06,1,,,,,テツイチ,0
702,3120001270882,新規,0,2024-12-06,2024-12-06,株式会社Ｃｏｎｆｉｄｅｎｃｅ,,株式会社,大阪府,大阪市城東区,関目１丁目１６番２１号,,27,118,5360008,,,,,,,2024-12-06,1,,,,,コンフィデンス,0
703,3120001270899,新規,0,2024-12-06,2024-12-06,株式会社ＭＯ錫マテリアル,,株式会社,大阪府,大阪市阿倍野区,阿倍野筋１丁目１番４３号あべのハルカス３１階,,27,119,5450052,,,,,,,2024-12-06,1,,,,,エムオースズマテリアル,0
704,3120001270924,新規,0,2024-12-06,2024-12-06,桜和株式会社,,株式会社,大阪府,大阪市西淀川区,佃３丁目１８番２５境ハイツ１０９号,,27,113,5550001,,,,,,,2024-12-06,1,,,,,オウワ,0
706,3120003028098,新規,0,2024-12-06,2024-12-06,合同会社幸生会,,合同会社,大阪府,大阪市中央区,上町１丁目２番２８－７０４号,,27,128,5400005,,,,,,,2024-12-06,1,,,,,コウセイカイ,0
707,3120003028115,新規,0,2024-12-06,2024-12-06,姫路天然ガス発電３号合同会社,,合同会社,大阪府,大阪市中央区,道修町３丁目５番１１号,,27,128,5410045,,,,,,,2024-12-06,1,,,,,ヒメジテンネンガスハツデンサンゴウ,0
710,3120101070712,新規,0,2024-12-06,2024-12-06,Ｈ‐ＬＩＮＥ株式会社,,株式会社,大阪府,泉南郡熊取町,高田３丁目２２０５番地,,27,361,5900436,,,,,,,2024-12-06,1,,,,,エイチライン,0
716,3130001078383,新規,0,2024-12-06,2024-12-06,株式会社４２１ｓｏｕｎｄｗｏｒｋｓ,,株式会社,京都府,京都市右京区,花園伊町３２番地の７,,26,108,6168042,,,,,,,2024-12-06,1,,,,,ヨンニイチサウンドワークス,0
717,3130001078516,新規,0,2024-12-06,2024-12-06,株式会社駒井貞治の事務所,,株式会社,京都府,京都市左京区,松ケ崎樋ノ上町１１番地２,,26,103,6060942,,,,,,,2024-12-06,1,,,,,コマイサダハルノジムショ,0
718,3130001078549,新規,0,2024-12-06,2024-12-06,株式会社アスタネ,,株式会社,京都府,京都市下京区,鶏鉾町４９３番地ムーンバットビル７階,,26,106,6008491,,,,,,,2024-12-06,1,,,,,アスタネ,0
719,3130001078557,新規,0,2024-12-06,2024-12-06,株式会社Ｗｅｅｄ,,株式会社,京都府,舞鶴市,溝尻町１５番地２,,26,202,6250042,,,,,,,2024-12-06,1,,,,,ウィード,0
737,3180301039304,新規,0,2024-12-06,2024-12-06,株式会社ＨＯＰＥ,,株式会社,愛知県,安城市,三河安城本町１丁目８番地５,,23,212,4460059,,,,,,,2024-12-06,1,,,,,ホープ,0
743,3190001031857,新規,0,2024-12-06,2024-12-06,株式会社スマイルライン,,株式会社,三重県,桑名市,大字西金井６０５番地,,24,205,5110922,,,,,,,2024-12-06,1,,,,,スマイルライン,0
744,3190005012003,新規,0,2024-12-06,2024-12-06,土地家屋調査士法人西口事務所,,その他の設立登記法人,三重県,桑名市,矢田磧４８番地,,24,205,5110051,,,,,,,2024-12-06,1,,,,,ニシグチジムショ,0
748,3220001026374,新規,0,2024-12-06,2024-12-06,株式会社ＥＭＭＥ,,株式会社,石川県,金沢市,長町１丁目３番５４号ライオンズマンション・１０２号,,17,201,9200865,,,,,,,2024-12-06,1,,,,,エンメ,0
755,3230001020649,新規,0,2024-12-06,2024-12-06,株式会社大樹ホールディングス,,株式会社,富山県,射水市,布目沢２０１番地,,16,211,9390418,,,,,,,2024-12-06,1,,,,,ダイキホールディングス,0
759,3240001064224,新規,0,2024-12-06,2024-12-06,廣幸株式会社,,株式会社,広島県,福山市,大門町野々浜甲４５７番地３,,34,207,7210923,,,,,,,2024-12-06,1,,,,,ヒロコウ,0
762,3240003006967,新規,0,2024-12-06,2024-12-06,ＨＴＣ　ＪＡＰＡＮ合同会社,,合同会社,広島県,東広島市,西条町寺家５５２５番地２フレグランス西条寺家２０１号,,34,212,7390041,,,,,,,2024-12-06,1,,,,,エイチティーシージャパン,0
763,3240003006975,新規,0,2024-12-06,2024-12-06,合同会社ＲａＤｉｏｓ,,合同会社,広島県,広島市東区,牛田新町４丁目７番２１－１２０２号,,34,102,7320068,,,,,,,2024-12-06,1,,,,,ラディオス,0
765,3250003003609,新規,0,2024-12-06,2024-12-06,合同会社アドクルー,,合同会社,山口県,周南市,大字徳山４９６４番地の２ジュネス２１－２０Ｂ,,35,215,7450851,,,,,,,2024-12-06,1,,,,,アドクルー,0
773,3290801031105,新規,0,2024-12-06,2024-12-06,株式会社里見不動産,,株式会社,福岡県,北九州市八幡西区,田町１丁目１番２２号,,40,109,8060003,,,,,,,2024-12-06,1,,,,,サトミフドウサン,0
789,3360003014504,新規,0,2024-12-06,2024-12-06,ＮＤＫ合同会社,,合同会社,沖縄県,那覇市,おもろまち３丁目４番６－２０５号Ｃｈｕｌａ　Ｖｉｓｔａおもろテラス,,47,201,9000006,,,,,,,2024-12-06,1,,,,,エヌディーケー,0
790,3370001052026,新規,0,2024-12-06,2024-12-06,株式会社ライフモア,,株式会社,宮城県,仙台市泉区,南光台１丁目１１番１９号,,04,105,9818003,,,,,,,2024-12-06,1,,,,,ライフモア,0
794,3380001034956,新規,0,2024-12-06,2024-12-06,株式会社高萩電設,,株式会社,福島県,いわき市,小川町上平字竹ノ内５番地の７,,07,204,9793112,,,,,,,2024-12-06,1,,,,,タカハギデンセツ,0
796,3380005012900,新規,0,2024-12-06,2024-12-06,特定非営利活動法人愛マキシマ会,,その他の設立登記法人,福島県,いわき市,常磐関船町矢津２番１３,,07,204,9728318,,,,,,,2024-12-06,1,,,,,アイマキシマカイ,0
797,3390005009094,新規,0,2024-12-06,2024-12-06,医療法人社団紗成会,,その他の設立登記法人,山形県,米沢市,東３丁目４番３６号,,06,202,9920026,,,,,,,2024-12-06,1,,,,,スズナリカイ,0
810,3430001093229,新規,0,2024-12-06,2024-12-06,株式会社Ｋ．Ｔ．Ｃ,,株式会社,北海道,札幌市南区,澄川四条２丁目１１番３０号吉田ハウスＦ－１０５号,,01,106,0050004,,,,,,,2024-12-06,1,,,,,ケーティーシー,0
811,3430003017029,新規,0,2024-12-06,2024-12-06,Ｆｕｔｕｒｅ　Ｋｏｎｏｈａ合同会社,,合同会社,北海道,日高郡新ひだか町,三石本町２７０番地２マルニマンション１１,,01,610,0593108,,,,,,,2024-12-06,1,,,,,フューチャーコノハ,0
812,3430003017053,新規,0,2024-12-06,2024-12-06,合同会社Ｂｕｄｄｙ’ｓ,,合同会社,北海道,苫小牧市,ときわ町１丁目１３番２号,,01,213,0591261,,,,,,,2024-12-06,1,,,,,バディーズ,0
815,3500001026032,新規,0,2024-12-06,2024-12-06,株式会社上限,,株式会社,愛媛県,西条市,喜多川７７９番地５スカール喜多川Ａ棟８０４号室,,38,206,7930042,,,,,,,2024-12-06,1,,,,,ジョウゲン,0
817,3700150128138,新規,0,2024-12-06,2024-12-06,Ｇ．Ｇ　ＥＮＴＥＲＰＲＩＳＥＳ,,外国会社等,茨城県,行方市,両宿１０６２番地１１０,,08,233,3111721,スリランカ民主社会主義共和国、アンバテンナ、カハワッタ、Ｎｏ．３７／７Ａ,,,,,,2024-12-06,1,,,,,ジージーエンタープライズ,0
818,3700150128146,新規,0,2024-12-06,2024-12-06,ＰＴ．ＩＭＰＩＡＮ　ＰＲＯＦＥＳＩ　ＩＮＴＥＲＮＡＳＩＯＮＡＬ,,外国会社等,東京都,江戸川区,南小岩７丁目３３番１７号,,13,123,1330056,インドネシア共和国，ルコダイアモンドグリーンパークビュールコダイアモンドノモルＲＤ５６，ジャランダーンモゴットＫＭ．１４，ＲＴ．００１，ＲＷ．００５，ケルラハンドゥリコサンビ，ケカマタンチェンカレン，コタアディミニストラシジャカルタバル，プロビンシＤＫＩジャカルタ,,,,,,2024-12-06,1,,,,,ピーテイーインピアンプロフエシインターナシヨナル,0
824,4010001250498,新規,0,2024-12-06,2024-12-06,株式会社ＴＫＡ,,株式会社,東京都,中央区,東日本橋２丁目２８番４号日本橋ＣＥＴビル２階,,13,102,1030004,,,,,,,2024-12-06,1,,,,,ティーケーエー,0
825,4010001250515,新規,0,2024-12-06,2024-12-06,Ｆ＆Ｄグローバル株式会社,,株式会社,東京都,中央区,銀座４丁目８番２号,,13,102,1040061,,,,,,,2024-12-06,1,,,,,エフアンドディーグローバル,0
827,4010003045707,新規,0,2024-12-06,2024-12-06,ＫＳＫ合同会社,,合同会社,東京都,中央区,銀座１丁目１２番４号Ｎ＆ＥＢＬＤ．６Ｆ,,13,102,1040061,,,,,,,2024-12-06,1,,,,,ケイエスケイ,0
828,4010003045723,新規,0,2024-12-06,2024-12-06,合同会社ユーマー商事,,合同会社,東京都,中央区,銀座１丁目１２番４号Ｎ＆ＥＢＬＤ．６Ｆ,,13,102,1040061,,,,,,,2024-12-06,1,,,,,ユーマーショウジ,0
832,4010005039236,新規,0,2024-12-06,2024-12-06,特定非営利活動法人ＨＰＰ　ＨＯＰＥ,,その他の設立登記法人,東京都,千代田区,外神田６丁目６番１号斎藤ビル２階,,13,101,1010021,,,,,,,2024-12-06,1,,,,,エイチピーピーホープ,0
833,4010101016428,新規,0,2024-12-06,2024-12-06,日本泓＿国際株式会社,00137257,株式会社,東京都,八王子市,寺町４３－９,,13,201,1920073,,,,,,,2024-12-06,1,,,,,ニホンコウヨウコクサイ,0
836,4010401186854,新規,0,2024-12-06,2024-12-06,ＢｅＤｅ株式会社,,株式会社,東京都,港区,虎ノ門１丁目１７番１号,,13,103,1050001,,,,,,,2024-12-06,1,,,,,ベデ,0
837,4010403033947,新規,0,2024-12-06,2024-12-06,合同会社フクジー,,合同会社,東京都,港区,浜松町２丁目２番１５号浜松町ダイヤビル２Ｆ,,13,103,1050013,,,,,,,2024-12-06,1,,,,,フクジー,0
838,4010403033955,新規,0,2024-12-06,2024-12-06,Ｇａｒｎｅｔ　Ｃａｐｉｔａｌ合同会社,,合同会社,東京都,港区,虎ノ門５丁目９－１麻布台ヒルズガーデンプラザＢ５Ｆ,,13,103,1050001,,,,,,,2024-12-06,1,,,,,ガーネットキャピタル,0
846,4010801035652,新規,0,2024-12-06,2024-12-06,株式会社スタジオＨＢ,,株式会社,東京都,大田区,久が原３丁目６番４号,,13,111,1460085,,,,,,,2024-12-06,1,,,,,スタジオエイチビー,0
851,4010903009538,新規,0,2024-12-06,2024-12-06,ＭｅｇＭｉｋ合同会社,,合同会社,東京都,世田谷区,太子堂４丁目１８番１５号マガザン三軒茶屋２・３Ｆ－３,,13,112,1540004,,,,,,,2024-12-06,1,,,,,メグミク,0
858,4011001166222,新規,0,2024-12-06,2024-12-06,株式会社ＨＫＲＵ．,,株式会社,東京都,渋谷区,神宮前６丁目２３番４号桑野ビル２階,,13,113,1500001,,,,,,,2024-12-06,1,,,,,エイチケーアールユー,0
866,4011101109849,新規,0,2024-12-06,2024-12-06,Ｂｒｏｔｈｅｒ　Ｌｅｇｅｎｄ株式会社,,株式会社,東京都,新宿区,百人町２丁目２１－３ハイネス野上ビル３階,,13,104,1690073,,,,,,,2024-12-06,1,,,,,ブラザーレジェンド,0
873,4011203004551,新規,0,2024-12-06,2024-12-06,マク・レミー合同会社,,合同会社,東京都,中野区,東中野２丁目１０番１０号,,13,114,1640003,,,,,,,2024-12-06,1,,,,,マクレミー,0
885,4011803006583,新規,0,2024-12-06,2024-12-06,合同会社ＳＴパートナーズ,,合同会社,東京都,葛飾区,南水元３丁目４番１－３１２号ミディオンソレイユレジデンス,,13,122,1250035,,,,,,,2024-12-06,1,,,,,エスティーパートナーズ,0
888,4012703003150,新規,0,2024-12-06,2024-12-06,合同会社Ｐｒｏｓｐｅｒ,,合同会社,東京都,小平市,花小金井３丁目１番２１－３０号,,13,211,1870002,,,,,,,2024-12-06,1,,,,,プロスパー,0
890,4012801023620,新規,0,2024-12-06,2024-12-06,株式会社カナウプラス,,株式会社,東京都,立川市,錦町６丁目１２番３号,,13,202,1900022,,,,,,,2024-12-06,1,,,,,カナウプラス,0
905,4020001160473,新規,0,2024-12-06,2024-12-06,伍栄道路株式会社,,株式会社,神奈川県,横浜市保土ケ谷区,常盤台１７番１－１１５号,,14,106,2400067,,,,,,,2024-12-06,1,,,,,ゴエイドウロ,0
909,4021001083929,新規,0,2024-12-06,2024-12-06,株式会社マーコロム,,株式会社,神奈川県,相模原市中央区,相模原３丁目７番３号,,14,152,2520231,,,,,,,2024-12-06,1,,,,,マーコロム,0
919,4030001163839,新規,0,2024-12-06,2024-12-06,マネジメント・ファースト株式会社,,株式会社,埼玉県,さいたま市緑区,大字中尾１１０３番地８,,11,109,3360932,,,,,,,2024-12-06,1,,,,,マネジメントファースト,0
924,4040001136380,新規,0,2024-12-06,2024-12-06,株式会社キャピタル・プラス・コンサルティング,,株式会社,千葉県,印西市,中央南２丁目１番地５０２号,,12,231,2701340,,,,,,,2024-12-06,1,,,,,キャピタルプラスコンサルティング,0
925,4040001136455,新規,0,2024-12-06,2024-12-06,ハッピーカラフル株式会社,,株式会社,千葉県,市川市,八幡３丁目４番１号アクス本八幡１０５,,12,203,2720021,,,,,,,2024-12-06,1,,,,,ハッピーカラフル,0
926,4040001136471,新規,0,2024-12-06,2024-12-06,株式会社ミデン,,株式会社,千葉県,市原市,大厩１１６６番地５,,12,219,2900002,,,,,,,2024-12-06,1,,,,,ミデン,0
932,4040003026316,新規,0,2024-12-06,2024-12-06,合同会社クローバー,,合同会社,千葉県,柏市,逆井２丁目２１番２５号,,12,217,2770042,,,,,,,2024-12-06,1,,,,,クローバー,0
933,4040003026324,新規,0,2024-12-06,2024-12-06,ＢｅｓｔＨｉｇｈ　Ａｒｃ合同会社,,合同会社,千葉県,佐倉市,宮ノ台３丁目１８番５号,,12,212,2850857,,,,,,,2024-12-06,1,,,,,ベストハイアーク,0
942,4090003002691,新規,0,2024-12-06,2024-12-06,合同会社ギャラリーカナモリ,,合同会社,山梨県,南都留郡山中湖村,平野５０６番地の２９６中区五丁目２４２,,19,425,4010502,,,,,,,2024-12-06,1,,,,,ギャラリーカナモリ,0
947,4100005013264,新規,0,2024-12-06,2024-12-06,特定非営利活動法人ＷＡＩＷＡＩキッズ,,その他の設立登記法人,長野県,上水内郡飯綱町,大字平出７４８番地１,,20,590,3891213,,,,,,,2024-12-06,1,,,,,ワイワイキッズ,0
950,4110001038883,新規,0,2024-12-06,2024-12-06,瘋雪株式会社,,株式会社,新潟県,南魚沼郡湯沢町,大字湯沢２８０－４,,15,461,9496101,,,,,,,2024-12-06,1,,,,,フウユキ,0
960,4120001270915,新規,0,2024-12-06,2024-12-06,株式会社Ｒｅｑｕｉｒｅｕｓ,,株式会社,大阪府,大阪市東成区,大今里南３丁目２番１２－３０８号,,27,115,5370013,,,,,,,2024-12-06,1,,,,,リクワイアス,0
962,4120003028114,新規,0,2024-12-06,2024-12-06,ＳＹＮＳＥ合同会社,,合同会社,大阪府,大阪市浪速区,大国１丁目１１番７－６０４号,,27,111,5560014,,,,,,,2024-12-06,1,,,,,シンス,0
964,4120101070711,新規,0,2024-12-06,2024-12-06,株式会社Ａ‐Ｔｅｃｈ,,株式会社,大阪府,貝塚市,麻生中６８０,,27,208,5970081,,,,,,,2024-12-06,1,,,,,エーテック,0
966,4120901050144,新規,0,2024-12-06,2024-12-06,ＳｗｅｅｔＬｅａｐ株式会社,,株式会社,大阪府,豊中市,豊南町東３丁目２－８,,27,203,5610814,,,,,,,2024-12-06,1,,,,,スウィートリープ,0
974,4130001078548,新規,0,2024-12-06,2024-12-06,株式会社ブラックブック,,株式会社,京都府,京都市伏見区,深草ヲカヤ町３２番地１５,,26,109,6128403,,,,,,,2024-12-06,1,,,,,ブラックブック,0
976,4130003010062,新規,0,2024-12-06,2024-12-06,Ａ＆Ｍ合同会社,,合同会社,京都府,京都市山科区,日ノ岡堤谷町２４番地２２,,26,110,6078494,,,,,,,2024-12-06,1,,,,,エーアンドエム,0
988,4140001136593,新規,0,2024-12-06,2024-12-06,株式会社カコガワークス,,株式会社,兵庫県,加古川市,野口町長砂７５７－３,,28,210,6750016,,,,,,,2024-12-06,1,,,,,カコガワークス,0
989,4140001136643,新規,0,2024-12-06,2024-12-06,株式会社梅本組,,株式会社,兵庫県,南あわじ市,広田中筋７７１番地２,,28,224,6560131,,,,,,,2024-12-06,1,,,,,ウメモトグミ,0
990,4140001136676,新規,0,2024-12-06,2024-12-06,株式会社前原重量,,株式会社,兵庫県,神戸市東灘区,住吉宮町１丁目１４番１３号,,28,101,6580053,,,,,,,2024-12-06,1,,,,,マエハラジュウリョウ,0
991,4140005027293,新規,0,2024-12-06,2024-12-06,特定非営利活動法人学生団体スピカ,,その他の設立登記法人,兵庫県,神戸市長田区,宮川町１丁目１６－１西本アパート１階北号,,28,106,6530813,,,,,,,2024-12-06,1,,,,,ガクセイダンタイスピカ,0
992,4150001027726,新規,0,2024-12-06,2024-12-06,株式会社Ｃサンライズ,,株式会社,奈良県,生駒市,俵口町１８６８番地４,,29,209,6300243,,,,,,,2024-12-06,1,,,,,シーサンライズ,0
1003,4180001164434,新規,0,2024-12-06,2024-12-06,株式会社ＥＡＲＴＨ　ＰＲＯＦＩＴ,,株式会社,愛知県,名古屋市東区,泉２丁目２６番１０号Ｊ．Ｓｋｙ．Ｂｌｄｇビル３Ｆ,,23,102,4610001,,,,,,,2024-12-06,1,,,,,アースプロフィット,0
1004,4180001164483,新規,0,2024-12-06,2024-12-06,株式会社ワイプアウト,,株式会社,愛知県,名古屋市緑区,四本木９０３番地の１,,23,114,4580039,,,,,,,2024-12-06,1,,,,,ワイプアウト,0
1008,4180003027713,新規,0,2024-12-06,2024-12-06,合同会社すずらん薬局,,合同会社,愛知県,名古屋市港区,港栄４丁目２番３号,,23,111,4550015,,,,,,,2024-12-06,1,,,,,スズランヤッキョク,0
1011,4180301039311,新規,0,2024-12-06,2024-12-06,アトラクティッド株式会社,,株式会社,愛知県,みよし市,三好町湯ノ前１０１番地１,,23,236,4700224,,,,,,,2024-12-06,1,,,,,アトラクティッド,0
1015,4190001031856,新規,0,2024-12-06,2024-12-06,株式会社ＰＢＬ,,株式会社,三重県,桑名市,多度町香取３６番地１,,24,205,5110102,,,,,,,2024-12-06,1,,,,,ピービーエル,0
1021,4230001020648,新規,0,2024-12-06,2024-12-06,富山無線パーツ株式会社,,株式会社,富山県,富山市,藤木２３９０番地４,,16,201,9300936,,,,,,,2024-12-06,1,,,,,トヤマムセンパーツ,0
1023,4240001064215,新規,0,2024-12-06,2024-12-06,株式会社眞田会計,,株式会社,広島県,福山市,南蔵王町５丁目２２番３５号１０２,,34,207,7210973,,,,,,,2024-12-06,1,,,,,サナダカイケイ,0
1026,4240003006974,新規,0,2024-12-06,2024-12-06,合同会社ハッピースター,,合同会社,広島県,広島市西区,大芝１丁目１９番２９－６０２号,,34,104,7330001,,,,,,,2024-12-06,1,,,,,ハッピースター,0
1027,4250003003608,新規,0,2024-12-06,2024-12-06,合同会社ＡＫＩＲＡＣＬＵＢ,,合同会社,山口県,下関市,上新地町１丁目１番１０号,,35,201,7500061,,,,,,,2024-12-06,1,,,,,アキラクラブ,0
1037,4290803004909,新規,0,2024-12-06,2024-12-06,合同会社Ａｒｉｄ,,合同会社,福岡県,北九州市若松区,片山２丁目１－２０,,40,103,8080106,,,,,,,2024-12-06,1,,,,,アライド,0
1039,4300001013999,新規,0,2024-12-06,2024-12-06,きばる泰山株式会社,,株式会社,佐賀県,武雄市,北方町大字大崎４９１５番地の５,,41,206,8492204,,,,,,,2024-12-06,1,,,,,キバルタイザン,0
1052,4370001052009,新規,0,2024-12-06,2024-12-06,株式会社トモゲイン,,株式会社,宮城県,宮城郡松島町,幡谷字くぬぎ台１番地３１,,04,401,9810205,,,,,,,2024-12-06,1,,,,,トモゲイン,0
1053,4370001052017,新規,0,2024-12-06,2024-12-06,株式会社オウバイトウリ,,株式会社,宮城県,仙台市宮城野区,宮城野１丁目１番２８号,,04,102,9830045,,,,,,,2024-12-06,1,,,,,オウバイトウリ,0
1056,4380001034955,新規,0,2024-12-06,2024-12-06,株式会社ＢＭＯ,,株式会社,福島県,会津若松市,中町１－１１,,07,202,9650878,,,,,,,2024-12-06,1,,,,,ビーエムオー,0
1058,4380003005905,新規,0,2024-12-06,2024-12-06,合同会社小野,,合同会社,福島県,会津若松市,門田町大字一ノ堰字村西７０８番地９,,07,202,9650844,,,,,,,2024-12-06,1,,,,,オノ,0
1065,4430001093203,新規,0,2024-12-06,2024-12-06,ドウナン株式会社,,株式会社,北海道,苫小牧市,澄川町５丁目１１番１３号,,01,213,0591271,,,,,,,2024-12-06,1,,,,,ドウナン,0
1066,4430001093228,新規,0,2024-12-06,2024-12-06,株式会社チアーズ,,株式会社,北海道,江別市,西野幌６６８番地,,01,217,0690832,,,,,,,2024-12-06,1,,,,,チアーズ,0
1067,4430003017052,新規,0,2024-12-06,2024-12-06,ニセコトラベル合同会社,,合同会社,北海道,虻田郡倶知安町,南十条西２－１６,,01,400,0440000,,,,,,,2024-12-06,1,,,,,ニセコトラベル,0
1069,4460001005956,新規,0,2024-12-06,2024-12-06,株式会社キタカラ,,株式会社,北海道,釧路市,興津５丁目１２番１６号,,01,206,0850811,,,,,,,2024-12-06,1,,,,,キタカラ,0
1080,4700150128145,新規,0,2024-12-06,2024-12-06,ＣＡＲＺ　ＥＮＴＥＲＰＲＩＳＥＳ,,外国会社等,千葉県,八街市,東吉田７２５番地オフィス３１号,,12,230,2891114,スリランカ民主社会主義共和国、ガンポラ、カハタピティヤ、キャンディロード、Ｎｏ．３６１／１,,,,,,2024-12-06,1,,,,,カーズエンタープライズ,0
1090,5010001250448,新規,0,2024-12-06,2024-12-06,長睿株式会社,,株式会社,東京都,文京区,本駒込４丁目３９番４－３０１号,,13,105,1130021,,,,,,,2024-12-06,1,,,,,チョウエイ,0
1091,5010001250464,新規,0,2024-12-06,2024-12-06,ネオフレーム株式会社,,株式会社,東京都,中央区,築地７丁目２番１号,,13,102,1040045,,,,,,,2024-12-06,1,,,,,ネオフレーム,0
1092,5010001250489,新規,0,2024-12-06,2024-12-06,株式会社かみなりふぁくとり,,株式会社,東京都,千代田区,神田和泉町１番地６－１６ヤマトビル４０５,,13,101,1010024,,,,,,,2024-12-06,1,,,,,カミナリファクトリ,0
1093,5010001250497,新規,0,2024-12-06,2024-12-06,株式会社ＮＷＬ,,株式会社,東京都,中央区,日本橋室町１丁目１１－１２日本橋水野ビル７階,,13,102,1030022,,,,,,,2024-12-06,1,,,,,エヌダブリュウエル,0
1094,5010001250522,新規,0,2024-12-06,2024-12-06,株式会社ハルカス,,株式会社,東京都,千代田区,神田和泉町１番地６の１６ヤマトビル４０５,,13,101,1010024,,,,,,,2024-12-06,1,,,,,ハルカス,0
1095,5010001250555,新規,0,2024-12-06,2024-12-06,ＡＥＴＥＲＮＥＸ株式会社,,株式会社,東京都,中央区,銀座１丁目２２番１１号銀座大竹ビジデンス２Ｆ,,13,102,1040061,,,,,,,2024-12-06,1,,,,,アテルネックス,0
1108,5010401186746,新規,0,2024-12-06,2024-12-06,Ｖｉｎｃｅ株式会社,,株式会社,東京都,港区,赤坂７丁目８番１１－６０１号,,13,103,1070052,,,,,,,2024-12-06,1,,,,,ヴィンス,0
1109,5010401186820,新規,0,2024-12-06,2024-12-06,弘勝工業株式会社,,株式会社,東京都,港区,赤坂２丁目２３番１号アークヒルズ・フロントタワーＩｎＣｏｎｔｒｏｌ内,,13,103,1070052,,,,,,,2024-12-06,1,,,,,コウショウコウギョウ,0
1110,5010401186837,新規,0,2024-12-06,2024-12-06,イワマ環境開発株式会社,,株式会社,東京都,港区,赤坂３丁目１４番１０号,,13,103,1070052,,,,,,,2024-12-06,1,,,,,イワマカンキョウカイハツ,0
1111,5010401186861,新規,0,2024-12-06,2024-12-06,Ｊ株式会社,,株式会社,東京都,港区,麻布十番２丁目１６－８－８０１室,,13,103,1060045,,,,,,,2024-12-06,1,,,,,ジェイ,0
1112,5010401186886,新規,0,2024-12-06,2024-12-06,株式会社マイマップ,,株式会社,東京都,港区,北青山２丁目７番２５号,,13,103,1070061,,,,,,,2024-12-06,1,,,,,マイマップ,0
1113,5010401186928,新規,0,2024-12-06,2024-12-06,株式会社グロースリンク,,株式会社,東京都,港区,南青山２丁目２－８ＤＦビル５０８,,13,103,1070062,,,,,,,2024-12-06,1,,,,,グロースリンク,0
1114,5010403033946,新規,0,2024-12-06,2024-12-06,合同会社水町プライバシー影響評価研究所,,合同会社,東京都,港区,赤坂１丁目３番１９号芳明ビル８階,,13,103,1070052,,,,,,,2024-12-06,1,,,,,ミズマチプライバシーエイキョウヒョウカケンキュウジョ,0
1115,5010403033954,新規,0,2024-12-06,2024-12-06,パシフィコ・エナジー第１０合同会社,,合同会社,東京都,港区,六本木３丁目２番１号六本木グランドタワー,,13,103,1060032,,,,,,,2024-12-06,1,,,,,パシフィコエナジーダイジュウ,0
1116,5010403033970,新規,0,2024-12-06,2024-12-06,合同会社ヤシ・エア,,合同会社,東京都,港区,南青山３丁目１番３６号青山丸竹ビル６Ｆ,,13,103,1070062,,,,,,,2024-12-06,1,,,,,ヤシエア,0
1120,5010601066442,新規,0,2024-12-06,2024-12-06,株式会社ＲＲＳ,,株式会社,東京都,江東区,豊洲３丁目６番５－１００２号,,13,108,1350061,,,,,,,2024-12-06,1,,,,,アールアールエス,0
1133,5011001166171,新規,0,2024-12-06,2024-12-06,株式会社Ｌｉｆｅ　Ｓｔａｇｅ,,株式会社,東京都,渋谷区,東１丁目１３番１号,,13,113,1500011,,,,,,,2024-12-06,1,,,,,ライフステージ,0
1134,5011001166353,新規,0,2024-12-06,2024-12-06,株式会社テンポトラスト,,株式会社,東京都,渋谷区,千駄ヶ谷５丁目１６番１０号代々木エアハイツ６０２,,13,113,1510051,,,,,,,2024-12-06,1,,,,,テンポトラスト,0
1135,5011001166428,新規,0,2024-12-06,2024-12-06,株式会社ブルーモーメント,,株式会社,東京都,目黒区,大橋１丁目５番１－２０１９号,,13,110,1530044,,,,,,,2024-12-06,1,,,,,ブルーモーメント,0
1137,5011003020475,新規,0,2024-12-06,2024-12-06,合同会社アイアンドティ,,合同会社,東京都,渋谷区,笹塚１丁目２３番７号プレシティーＩ１０２,00137256,13,113,1510073,,,,,,,2024-12-06,1,,,,,アイアンドティ,0
1138,5011003020491,新規,0,2024-12-06,2024-12-06,合同会社Ｖｏｉｃｅ　ｏｆ　Ｊａｐａｎ,,合同会社,東京都,目黒区,鷹番１丁目１番５号４Ｆ,,13,110,1520004,,,,,,,2024-12-06,1,,,,,ボイスオブジャパン,0
1139,5011003020582,新規,0,2024-12-06,2024-12-06,ａｉ０３　Ｄｅｓｉｇｎ　Ｓｔｕｄｉｏ合同会社,,合同会社,東京都,渋谷区,道玄坂１丁目１６‐６二葉ビル８ｂ,,13,113,1500043,,,,,,,2024-12-06,1,,,,,エイアイゼロサンデザインスタジオ,0
1147,5011603004539,新規,0,2024-12-06,2024-12-06,エラーブル合同会社,,合同会社,東京都,練馬区,石神井町１丁目２５番７号ジュールジュコウ３０１,,13,120,1770041,,,,,,,2024-12-06,1,,,,,エラーブル,0
1152,5012701018587,新規,0,2024-12-06,2024-12-06,株式会社Ｓｔａｒｔｕｐ　Ｒｉｎｇｓ,,株式会社,東京都,清瀬市,野塩１丁目４３０,,13,221,2040004,,,,,,,2024-12-06,1,,,,,スタートアップリングス,0
1155,5013101009581,新規,0,2024-12-06,2024-12-06,株式会社ＨＡＳＳＹ,,株式会社,東京都,福生市,大字熊川２０３番地１－１０３号,,13,218,1970003,,,,,,,2024-12-06,1,,,,,ハッシー,0
1169,5020001160480,新規,0,2024-12-06,2024-12-06,株式会社Ｔｒａｖｉｓ,,株式会社,神奈川県,横浜市旭区,下川井町１番地２６,,14,112,2410806,,,,,,,2024-12-06,1,,,,,トラビス,0
1170,5020001160530,新規,0,2024-12-06,2024-12-06,株式会社ＢＡＮＥＢＡＳＥ,,株式会社,神奈川県,横浜市戸塚区,品濃町５５３番地１,,14,110,2440801,,,,,,,2024-12-06,1,,,,,バネベース,0
1175,5020003027380,新規,0,2024-12-06,2024-12-06,ＯＭＧ　ＬＬＣ合同会社,,合同会社,神奈川県,川崎市高津区,梶ケ谷６丁目１７番４号,,14,134,2130015,,,,,,,2024-12-06,1,,,,,オーエムジーエルエルシー,0
1179,5021001083928,新規,0,2024-12-06,2024-12-06,株式会社ステージフライト,,株式会社,神奈川県,相模原市中央区,上溝２５９０番地１５,,14,152,2520243,,,,,,,2024-12-06,1,,,,,ステージフライト,0
1186,5030001163747,新規,0,2024-12-06,2024-12-06,株式会社ＵＮＩ,,株式会社,埼玉県,蕨市,錦町２丁目１０番１４号光コーポ２０７号,,11,223,3350005,,,,,,,2024-12-06,1,,,,,ウニ,0
1187,5030001163755,新規,0,2024-12-06,2024-12-06,株式会社ＡＩＭ,,株式会社,埼玉県,鶴ヶ島市,大字上広谷７０７番地１,,11,241,3502203,,,,,,,2024-12-06,1,,,,,アイム,0
1188,5030001163838,新規,0,2024-12-06,2024-12-06,ＴＯＨＯサポートサービス株式会社,,株式会社,埼玉県,川越市,大字今福７０５－１６,,11,201,3501151,,,,,,,2024-12-06,1,,,,,トーホーサポートサービス,0
1193,5030003025648,新規,0,2024-12-06,2024-12-06,合同会社ｚａｔｔｏｚａｔｔｏ,,合同会社,埼玉県,加須市,柳生２３０８,,11,210,3491201,,,,,,,2024-12-06,1,,,,,ザットザット,0
1194,5030005021967,新規,0,2024-12-06,2024-12-06,ＮＰＯ法人ＢＥＹＯＮＤ,,その他の設立登記法人,埼玉県,朝霞市,根岸台３丁目５番３－２０号,,11,227,3510005,,,,,,,2024-12-06,1,,,,,ビヨンド,0
1198,5040001136470,新規,0,2024-12-06,2024-12-06,株式会社ＨＡＳＥＧＡＷＡ．,,株式会社,千葉県,船橋市,湊町３丁目２０番７号東京ストマック１０３,,12,204,2730011,,,,,,,2024-12-06,1,,,,,ハセガワ,0
1199,5040001136479,新規,0,2024-12-06,2024-12-06,株式会社小さな音の設計室,,株式会社,千葉県,佐倉市,中尾余町２２番地,,12,212,2850022,,,,,,,2024-12-06,1,,,,,チイサナオトノセッケイシツ,0
1203,5040003026348,新規,0,2024-12-06,2024-12-06,小柳通商合同会社,,合同会社,千葉県,佐倉市,井野１１０１－４,,12,212,2850855,,,,,,,2024-12-06,1,,,,,コヤナギツウショウ,0
1211,5060001037709,新規,0,2024-12-06,2024-12-06,Ｐ＆Ｐ株式会社,,株式会社,栃木県,那須塩原市,方京２丁目１番地１ＤＩグランドスクエア那須塩原４０５号,,09,213,3293156,,,,,,,2024-12-06,1,,,,,ピーアンドピー,0
1212,5060001037717,新規,0,2024-12-06,2024-12-06,外山不動産株式会社,,株式会社,栃木県,宇都宮市,池上町４番２３号,,09,201,3200801,,,,,,,2024-12-06,1,,,,,トヤマフドウサン,0
1218,5080101025181,新規,0,2024-12-06,2024-12-06,株式会社ハイフン,,株式会社,静岡県,沼津市,岡一色７２５番地の１Ｂ－５,,22,203,4100012,,,,,,,2024-12-06,1,,,,,ハイフン,0
1219,5080103003210,新規,0,2024-12-06,2024-12-06,合同会社ＳＨＩＮ　ＭＩＲＡＩ,,合同会社,静岡県,富士宮市,野中町４１０－１２,,22,207,4180038,,,,,,,2024-12-06,1,,,,,シンミライ,0
1221,5080403005154,新規,0,2024-12-06,2024-12-06,合同会社たゆたう,,合同会社,静岡県,掛川市,連雀１－１,,22,213,4360093,,,,,,,2024-12-06,1,,,,,タユタウ,0
1223,5090003002690,新規,0,2024-12-06,2024-12-06,合同会社Ｂｏｂ,,合同会社,山梨県,南都留郡富士河口湖町,船津４７８４番１号,,19,430,4010301,,,,,,,2024-12-06,1,,,,,,0
1226,5100001038099,新規,0,2024-12-06,2024-12-06,Ｓｙｎｅｒｇｙ　Ｐｌａｃｅｍｅｎｔｓ株式会社,,株式会社,長野県,北佐久郡軽井沢町,大字長倉２９５番地２,,20,321,3890111,,,,,,,2024-12-06,1,,,,,シナジープレイスメンツ,0
1228,5100005013263,新規,0,2024-12-06,2024-12-06,税理士法人諏訪湖会計,,その他の設立登記法人,長野県,諏訪市,大字中洲７０２番地４,,20,206,3920015,,,,,,,2024-12-06,1,,,,,スワコカイケイ,0
1229,5110001038899,新規,0,2024-12-06,2024-12-06,Ｅｃｈｉｇｏｙａ株式会社,,株式会社,新潟県,妙高市,大字赤倉４６９番地１４,,15,217,9492111,,,,,,,2024-12-06,1,,,,,エチゴヤ,0
1242,5120001270848,新規,0,2024-12-06,2024-12-06,ナイツオブラウンド株式会社,,株式会社,大阪府,大阪市西区,靱本町１丁目１８番６－５０７号,,27,106,5500004,,,,,,,2024-12-06,1,,,,,ナイツオブラウンド,0
1243,5120001270906,新規,0,2024-12-06,2024-12-06,株式会社クレアス,,株式会社,大阪府,大阪市浪速区,元町１丁目４番２２－５０５号,,27,111,5560016,,,,,,,2024-12-06,1,,,,,クレアス,0
1244,5120001270914,新規,0,2024-12-06,2024-12-06,ｆｉｃｏ株式会社,,株式会社,大阪府,大阪市住吉区,長峡町２－１６,,27,120,5580044,,,,,,,2024-12-06,1,,,,,フィコ,0
1245,5120001270922,新規,0,2024-12-06,2024-12-06,株式会社ｃｏｃｏｗａ,,株式会社,大阪府,大阪市住吉区,庭井２丁目１１番１２号,,27,120,5580012,,,,,,,2024-12-06,1,,,,,ココワ,0
1246,5120001270930,新規,0,2024-12-06,2024-12-06,株式会社マイファースト,,株式会社,大阪府,大阪市浪速区,大国１丁目１３番１－４０３号,,27,111,5560014,,,,,,,2024-12-06,1,,,,,マイファースト,0
1247,5120001270947,新規,0,2024-12-06,2024-12-06,株式会社あゆの,,株式会社,大阪府,寝屋川市,葛原１丁目２７番７号,,27,215,5720075,,,,,,,2024-12-06,1,,,,,アユノ,0
1249,5120003028096,新規,0,2024-12-06,2024-12-06,ＴｒｉｎｋｅｔＣｒａｆｔ合同会社,,合同会社,大阪府,大阪市西区,江戸堀２丁目１－１江戸堀センタービル９Ｆ,,27,106,5500002,,,,,,,2024-12-06,1,,,,,トリンケットクラフト,0
1250,5120003028105,新規,0,2024-12-06,2024-12-06,合同会社ジェイアイワイ,,合同会社,大阪府,大阪市住吉区,帝塚山中２丁目５番１７－４０６号,,27,120,5580053,,,,,,,2024-12-06,1,,,,,ジェイアイワイ,0
1253,5120901050127,新規,0,2024-12-06,2024-12-06,株式会社Ｖａｕｌｔ,,株式会社,大阪府,箕面市,石丸３丁目２６番Ｗ－５０５号,,27,220,5620027,,,,,,,2024-12-06,1,,,,,ボルト,0
1254,5120901050143,新規,0,2024-12-06,2024-12-06,株式会社ｆｒａｎｊａ,,株式会社,大阪府,豊中市,東泉丘１丁目１０番２４号,,27,203,5610861,,,,,,,2024-12-06,1,,,,,フランハ,0
1255,5120903005434,新規,0,2024-12-06,2024-12-06,合同会社Ｔ・Ｈ,,合同会社,大阪府,吹田市,津雲台２丁目３番３号,,27,205,5650862,,,,,,,2024-12-06,1,,,,,,0
1257,5122003003054,新規,0,2024-12-06,2024-12-06,ＰＡ合同会社,,合同会社,大阪府,東大阪市,太平寺１丁目７－８－１０１号,,27,227,5770844,,,,,,,2024-12-06,1,,,,,ピーエイ,0
1258,5130001078547,新規,0,2024-12-06,2024-12-06,煦悉株式会社,,株式会社,京都府,京都市右京区,嵯峨鳥居本仙翁町３－１８,,26,108,6168437,,,,,,,2024-12-06,1,,,,,クシツ,0
1266,5140001136592,新規,0,2024-12-06,2024-12-06,株式会社ＨＩＪ,,株式会社,兵庫県,神戸市長田区,苅藻通７丁目３番７号,,28,106,6530032,,,,,,,2024-12-06,1,,,,,エイチアイジェイ,0
1267,5140001136691,新規,0,2024-12-06,2024-12-06,株式会社行雲流水,,株式会社,兵庫県,神戸市北区,藤原台北町５丁目２番６－５０２号,,28,109,6511301,,,,,,,2024-12-06,1,,,,,,0
1270,5140003021396,新規,0,2024-12-06,2024-12-06,合同会社ルアングループ,,合同会社,兵庫県,川西市,南花屋敷１丁目４番１８－６号,,28,217,6660026,,,,,,,2024-12-06,1,,,,,ルアングループ,0
1274,5180001164474,新規,0,2024-12-06,2024-12-06,株式会社１０１,,株式会社,愛知県,名古屋市西区,城西３丁目１７番７号スノーランド城西３０５号,,23,104,4510031,,,,,,,2024-12-06,1,,,,,イチマルイチ,0
1277,5180003027729,新規,0,2024-12-06,2024-12-06,合同会社ガンツエフピー研究所,,合同会社,愛知県,愛西市,根高町古堤己新田９９番地２,,23,232,4968012,,,,,,,2024-12-06,1,,,,,ガンツエフピーケンキュウジョ,0
1280,5190001031855,新規,0,2024-12-06,2024-12-06,株式会社Ｌａｇｅｔ　ｏｍ,,株式会社,三重県,四日市市,富田一色町３０番５８号,,24,202,5108004,,,,,,,2024-12-06,1,,,,,ラーゲトオム,0
1281,5200001043205,新規,0,2024-12-06,2024-12-06,株式会社Ｒｏｃｋｅａｕ,,株式会社,岐阜県,岐阜市,加納西広江町１丁目６番地６,,21,201,5008418,,,,,,,2024-12-06,1,,,,,ロックオー,0
1285,5230001020647,新規,0,2024-12-06,2024-12-06,株式会社Ｌｉｂｅｒｔｅ　ｅｔ　ｌｉｅｎ,,株式会社,富山県,富山市,桜町１丁目１番３６号,,16,201,9300003,,,,,,,2024-12-06,1,,,,,リベルテエリヤン,0
1287,5240001064206,新規,0,2024-12-06,2024-12-06,株式会社ライフサービス・リオ,,株式会社,広島県,広島市中区,大手町２丁目５番４－４０１号,,34,101,7300051,,,,,,,2024-12-06,1,,,,,ライフサービスリオ,0
1288,5240003006965,新規,0,2024-12-06,2024-12-06,合同会社なお,,合同会社,広島県,福山市,内海町ロ３３７７番地１,,34,207,7222632,,,,,,,2024-12-06,1,,,,,ナオ,0
1290,5250001020926,新規,0,2024-12-06,2024-12-06,株式会社心幸,,株式会社,山口県,宇部市,中央町２丁目５番１７新光産業株式会社中央町ビル３階,,35,202,7550045,,,,,,,2024-12-06,1,,,,,シンコウ,0
1296,5320003004531,新規,0,2024-12-06,2024-12-06,合同会社希関,,合同会社,大分県,大分市,大字東上野６１番地の９,,44,201,8700306,,,,,,,2024-12-06,1,,,,,キセキ,0
1298,5330001032715,新規,0,2024-12-06,2024-12-06,株式会社ビルドワーク,,株式会社,熊本県,熊本市南区,出仲間９丁目５番１０号,,43,104,8620963,,,,,,,2024-12-06,1,,,,,ビルドワーク,0
1302,5340001026988,新規,0,2024-12-06,2024-12-06,小川警備株式会社,,株式会社,鹿児島県,西之表市,西之表１４４５２番地２,,46,213,8913101,,,,,,,2024-12-06,1,,,,,オガワケイビ,0
1313,5370001052024,新規,0,2024-12-06,2024-12-06,ｔｈｒｅｅ　ｄｅｌｉｇｈｔ株式会社,,株式会社,宮城県,仙台市青葉区,中山８丁目６番９号,,04,101,9810952,,,,,,,2024-12-06,1,,,,,スリーディライト,0
1314,5370003006845,新規,0,2024-12-06,2024-12-06,キュリアル合同会社,,合同会社,宮城県,仙台市青葉区,吉成台１丁目５番５号エスポワールＢ２０２,,04,101,9893206,,,,,,,2024-12-06,1,,,,,キュリアル,0
1322,5380003005904,新規,0,2024-12-06,2024-12-06,合同会社桔梗企画,,合同会社,福島県,伊達市,保原町字中村町１０番地１,,07,213,9600621,,,,,,,2024-12-06,1,,,,,キキョウキカク,0
1332,5430001093219,新規,0,2024-12-06,2024-12-06,株式会社三ッ輪,,株式会社,北海道,札幌市中央区,南五条西１５丁目２番地３リズム医大前５０３号室,,01,101,0640805,,,,,,,2024-12-06,1,,,,,ミツワ,0
1334,5440003001649,新規,0,2024-12-06,2024-12-06,合同会社飛翼,,合同会社,北海道,北斗市,中野通２丁目１９番１１号,,01,236,0490156,,,,,,,2024-12-06,1,,,,,ヒヨク,0
1336,5470001020482,新規,0,2024-12-06,2024-12-06,株式会社宮地創業,,株式会社,香川県,善通寺市,生野町１７７７番地２３リバーハウス３号,,37,204,7650053,,,,,,,2024-12-06,1,,,,,,0
1343,5700150128144,新規,0,2024-12-06,2024-12-06,ＤＨＡＮＩＹＡ　ＰＶＴ　ＬＴＤ,,外国会社等,千葉県,八街市,東吉田７２５番地オフィス２７号,,12,230,2891114,スリランカ民主社会主義共和国、キャンディ、アンバテンナ、ムッレガマ、Ｎｏ．３０４／１／Ａ,,,,,,2024-12-06,1,,,,,ダニヤプライベートリミテツド,0
1350,6010001250430,新規,0,2024-12-06,2024-12-06,株式会社パダシム,,株式会社,東京都,中央区,銀座１丁目１２番４号Ｎ＆Ｅ．ＢＬＤ．７階,,13,102,1040061,,,,,,,2024-12-06,1,,,,,パダシム,0
1351,6010001250488,新規,0,2024-12-06,2024-12-06,株式会社コラソン・パートナーズ,,株式会社,東京都,千代田区,飯田橋３丁目４番３号エレガンス飯田橋８０１,,13,101,1020072,,,,,,,2024-12-06,1,,,,,コラソンパートナーズ,0
1355,6010101016442,新規,0,2024-12-06,2024-12-06,株式会社Ｏｎｅ　Ｓｉｄｅ　Ｆｉｅｌｄ,,株式会社,東京都,八王子市,台町２丁目１２番２８号富士森ハイツ４０１,,13,201,1930931,,,,,,,2024-12-06,1,,,,,ワンサイドフィールド,0
1363,6010401186811,新規,0,2024-12-06,2024-12-06,株式会社ＮＩＮＥ　ＴＨＥ　ＳＥＥ,,株式会社,東京都,港区,北青山１丁目３番１号アールキューブ青山３階,,13,103,1070061,,,,,,,2024-12-06,1,,,,,ナインザシー,0
1364,6010401186828,新規,0,2024-12-06,2024-12-06,ＧｒａＭｉｃ株式会社,,株式会社,東京都,港区,三田２丁目１番２８号,,13,103,1080073,,,,,,,2024-12-06,1,,,,,グラミク,0
1365,6010401186836,新規,0,2024-12-06,2024-12-06,株式会社アルベロアズッロ,,株式会社,東京都,港区,六本木３丁目３番８号,,13,103,1060032,,,,,,,2024-12-06,1,,,,,アルベロアズッロ,0
1370,6010501053317,新規,0,2024-12-06,2024-12-06,Ｓｏｌａｒ　Ｎｅｓｔ株式会社,,株式会社,東京都,台東区,柳橋２丁目１０番２号宮田ビル２階,,13,106,1110052,,,,,,,2024-12-06,1,,,,,ソーラーネスト,0
1384,6010803005189,新規,0,2024-12-06,2024-12-06,ワタナベ合同会社,,合同会社,東京都,大田区,山王３丁目５番２－６０９号,,13,111,1430023,,,,,,,2024-12-06,1,,,,,ワタナベ,0
1394,6011101109839,新規,0,2024-12-06,2024-12-06,Ａｅｒｉａｌ株式会社,,株式会社,東京都,新宿区,新小川町３番３号,,13,104,1620814,,,,,,,2024-12-06,1,,,,,エアリアル,0
1395,6011101109847,新規,0,2024-12-06,2024-12-06,株式会社ＮＴＣ,,株式会社,東京都,新宿区,大久保１丁目５番１３号桜井ビル５０２,,13,104,1690072,,,,,,,2024-12-06,1,,,,,エヌティーシー,0
1396,6011103015250,新規,0,2024-12-06,2024-12-06,ねびる・ジャパン合同会社,,合同会社,東京都,新宿区,新宿３丁目２－１京王新宿３２１ビル７Ｆ,,13,104,1600022,,,,,,,2024-12-06,1,,,,,ネビルジャパン,0
1403,6011701027886,新規,0,2024-12-06,2024-12-06,ユズキ株式会社,,株式会社,東京都,江戸川区,中央２丁目３３番６号,,13,123,1320021,,,,,,,2024-12-06,1,,,,,ユズキ,0
1434,6020001160488,新規,0,2024-12-06,2024-12-06,株式会社Ｆｕｎｔｉｖｅ,,株式会社,神奈川県,横浜市神奈川区,鶴屋町１丁目４１番地３１１７号,,14,102,2210835,,,,,,,2024-12-06,1,,,,,ファンティブ,0
1439,6021001083927,新規,0,2024-12-06,2024-12-06,株式会社コメットカンパニー,,株式会社,神奈川県,座間市,相武台２丁目４３番１０－６０４号,,14,216,2520011,,,,,,,2024-12-06,1,,,,,コメットカンパニー,0
1440,6021001083943,新規,0,2024-12-06,2024-12-06,株式会社オフグリッドフィールド,,株式会社,神奈川県,小田原市,栄町１丁目１６番３７号,,14,206,2500011,,,,,,,2024-12-06,1,,,,,オフグリッドフィールド,0
1454,6030001163770,新規,0,2024-12-06,2024-12-06,Ｔｒａｄｉｔｉｏｎ・Ｌｅｇｉｔ株式会社,,株式会社,埼玉県,久喜市,河原代６７７番地,,11,232,3491114,,,,,,,2024-12-06,1,,,,,トラディションレジット,0
1455,6030001163837,新規,0,2024-12-06,2024-12-06,株式会社ＮＯＡＨＬ,,株式会社,埼玉県,上尾市,上町２丁目２－２３,,11,219,3620037,,,,,,,2024-12-06,1,,,,,ノアル,0
1456,6030001163845,新規,0,2024-12-06,2024-12-06,株式会社大和水産,,株式会社,埼玉県,川口市,芝新町１２－２０ジェム蕨プランドル３０２,,11,203,3330851,,,,,,,2024-12-06,1,,,,,ヤマトスイサン,0
1457,6030001163853,新規,0,2024-12-06,2024-12-06,株式会社フクセイ興業,,株式会社,埼玉県,川口市,赤井４丁目６－１４,,11,203,3340073,,,,,,,2024-12-06,1,,,,,フクセイコウギョウ,0
1464,6030003025647,新規,0,2024-12-06,2024-12-06,合同会社Ｋセット,,合同会社,埼玉県,幸手市,大字下吉羽１５１４－２,,11,240,3400126,,,,,,,2024-12-06,1,,,,,ケーセット,0
1466,6030005021966,新規,0,2024-12-06,2024-12-06,農事組合法人鈴木梨園,,その他の設立登記法人,埼玉県,久喜市,原４９５番地５,,11,232,3460026,,,,,,,2024-12-06,1,,,,,スズキナシエン,0
1470,6040001136420,新規,0,2024-12-06,2024-12-06,株式会社自分快放アシスト,,株式会社,千葉県,市原市,ちはら台西５丁目２３番地５丸藤会館１０７号室,,12,219,2900143,,,,,,,2024-12-06,1,,,,,ジブンカイホウアシスト,0
1471,6040001136437,新規,0,2024-12-06,2024-12-06,株式会社グリーンエッセンス,,株式会社,千葉県,野田市,岩名２丁目６番地の２０ラフィーネ岩名１０１,,12,208,2780055,,,,,,,2024-12-06,1,,,,,グリーンエッセンス,0
1472,6040001136486,新規,0,2024-12-06,2024-12-06,ＴｏＵ株式会社,,株式会社,千葉県,松戸市,殿平賀１０７番地の１ダイアパレス北小金１０９号,,12,207,2700004,,,,,,,2024-12-06,1,,,,,ティーオーユー,0
1475,6040003026322,新規,0,2024-12-06,2024-12-06,合同会社ワンクエスト,,合同会社,千葉県,佐倉市,中志津７丁目４番１０号,,12,212,2850843,,,,,,,2024-12-06,1,,,,,ワンクエスト,0
1476,6040003026330,新規,0,2024-12-06,2024-12-06,合同会社ＭｏＣｈａ,,合同会社,千葉県,柏市,新逆井１丁目６番２２号,,12,217,2770044,,,,,,,2024-12-06,1,,,,,モカ,0
1480,6050001055850,新規,0,2024-12-06,2024-12-06,株式会社アルーアクラブ,,株式会社,茨城県,筑西市,幸町１丁目３番１号,,08,227,3080848,,,,,,,2024-12-06,1,,,,,アルーアクラブ,0
1489,6080001026642,新規,0,2024-12-06,2024-12-06,株式会社リリーブド,,株式会社,静岡県,静岡市駿河区,西中原２丁目８番３－１号,,22,102,4228053,,,,,,,2024-12-06,1,,,,,リリーブド,0
1490,6080001026650,新規,0,2024-12-06,2024-12-06,株式会社なまけもの,,株式会社,静岡県,静岡市駿河区,谷田５２番１号,,22,102,4228002,,,,,,,2024-12-06,1,,,,,ナマケモノ,0
1491,6080003003342,新規,0,2024-12-06,2024-12-06,合同会社さつきの郷,,合同会社,静岡県,牧之原市,大沢５２０番地６,,22,226,4210526,,,,,,,2024-12-06,1,,,,,サツキノサト,0
1499,6090005007662,新規,0,2024-12-06,2024-12-06,特定非営利活動法人富士山アウトドアミュージアム,,その他の設立登記法人,山梨県,南都留郡富士河口湖町,船津６７８４番地１,,19,430,4010301,,,,,,,2024-12-06,1,,,,,,0
1502,6100001038081,新規,0,2024-12-06,2024-12-06,株式会社マザーズアイ,,株式会社,長野県,北佐久郡軽井沢町,大字長倉３０６２番３号,,20,321,3890111,,,,,,,2024-12-06,1,,,,,マザーズアイ,0
1509,6120001270632,新規,0,2024-12-06,2024-12-06,明洲株式会社,,株式会社,大阪府,大阪市生野区,巽北１丁目１番１号３Ｆ－Ｄ,00137268,27,116,5440004,,,,,,,2024-12-06,1,,,,,メイシュウ,0
1510,6120001270822,新規,0,2024-12-06,2024-12-06,株式会社ｋｐｉエンジニア,,株式会社,大阪府,枚方市,牧野北町５番２－１１４号,,27,210,5731149,,,,,,,2024-12-06,1,,,,,ケーピーアイエンジニア,0
1511,6120001270830,新規,0,2024-12-06,2024-12-06,株式会社０．３ｃｔ,,株式会社,大阪府,大阪市北区,梅田２丁目５番４号千代田ビル西館１０階,,27,127,5300001,,,,,,,2024-12-06,1,,,,,レイテンサンカラット,0
1512,6120001270888,新規,0,2024-12-06,2024-12-06,株式会社プラスワン,,株式会社,大阪府,門真市,岸和田２丁目５番１１号,,27,223,5710002,,,,,,,2024-12-06,1,,,,,プラスワン,0
1513,6120001270921,新規,0,2024-12-06,2024-12-06,ＨＥＬＡＴＨ株式会社,,株式会社,大阪府,大阪市中央区,南本町２丁目３番１２号ＥＤＧＥ本町,,27,128,5410054,,,,,,,2024-12-06,1,,,,,ヘラス,0
1518,6120901050142,新規,0,2024-12-06,2024-12-06,株式会社アルファテック,,株式会社,大阪府,茨木市,水尾３丁目３番３７号,,27,211,5670891,,,,,,,2024-12-06,1,,,,,アルファテック,0
1520,6130001078546,新規,0,2024-12-06,2024-12-06,株式会社美山ヴィレッジ,,株式会社,京都府,南丹市,美山町豊郷１９,,26,213,6010763,,,,,,,2024-12-06,1,,,,,ミヤマヴィレッジ,0
1522,6130003010060,新規,0,2024-12-06,2024-12-06,合同会社山岡,,合同会社,京都府,八幡市,西山和気８番地５,,26,210,6148352,,,,,,,2024-12-06,1,,,,,ヤマオカ,0
1532,6140001136550,新規,0,2024-12-06,2024-12-06,大興株式会社,,株式会社,兵庫県,神戸市北区,有野町唐櫃４０２９番３－３０５号室,,28,109,6511331,,,,,,,2024-12-06,1,,,,,ダイコウ,0
1533,6140001136591,新規,0,2024-12-06,2024-12-06,Ｈｅｎｓｏｎ株式会社,,株式会社,兵庫県,姫路市,白鳥台１丁目１９番２８号,,28,201,6712245,,,,,,,2024-12-06,1,,,,,ヘンソン,0
1534,6140001136625,新規,0,2024-12-06,2024-12-06,株式会社大樹園,,株式会社,兵庫県,伊丹市,野間１丁目７番１３－２０２号,,28,207,6640873,,,,,,,2024-12-06,1,,,,,タイジュエン,0
1535,6140001136633,新規,0,2024-12-06,2024-12-06,株式会社丸但,,株式会社,兵庫県,丹波市,山南町小野尻６９２番地１,,28,223,6693166,,,,,,,2024-12-06,1,,,,,マルタン,0
1536,6140001136658,新規,0,2024-12-06,2024-12-06,株式会社ｈｉｍａｗａｒｉ,,株式会社,兵庫県,伊丹市,池尻１丁目２７番２階,,28,207,6640027,,,,,,,2024-12-06,1,,,,,ヒマワリ,0
1540,6140003021404,新規,0,2024-12-06,2024-12-06,ミドリ合同会社,,合同会社,兵庫県,加古川市,西神吉町大国６９３番地２１,,28,210,6750044,,,,,,,2024-12-06,1,,,,,ミドリ,0
1545,6180003027703,新規,0,2024-12-06,2024-12-06,合同会社メディアーツ,,合同会社,愛知県,一宮市,浅野字南之川３８番,,23,203,4910871,,,,,,,2024-12-06,1,,,,,メディアーツ,0
1552,6180303006365,新規,0,2024-12-06,2024-12-06,合同会社ＨＫＡ,,合同会社,愛知県,岡崎市,竜美東２丁目６番地１９,,23,202,4440878,,,,,,,2024-12-06,1,,,,,エイチケーエー,0
1560,6230001020646,新規,0,2024-12-06,2024-12-06,株式会社ＤＵＣＫ,,株式会社,富山県,富山市,水橋辻ヶ堂９５番地,00137258,16,201,9393515,,,,,,,2024-12-06,1,,,,,ダック,0
1561,6240001064221,新規,0,2024-12-06,2024-12-06,株式会社エスサポート,,株式会社,広島県,福山市,春日町１丁目９番４号,,34,207,7210907,,,,,,,2024-12-06,1,,,,,エスサポート,0
1582,6320001020851,新規,0,2024-12-06,2024-12-06,ＥＩＥ　ＯＩＴＡ株式会社,,株式会社,大分県,速見郡日出町,大字川崎２９５１番地５,,44,341,8791505,,,,,,,2024-12-06,1,,,,,イーアイイーオオイタ,0
1583,6320003004530,新規,0,2024-12-06,2024-12-06,合同会社桑原興業,,合同会社,大分県,大分市,大字志生木３８９５－５,,44,201,8792115,,,,,,,2024-12-06,1,,,,,クワハラコウギョウ,0
1585,6330003010676,新規,0,2024-12-06,2024-12-06,合同会社ＹＡＭＡＳＨＯ,,合同会社,熊本県,熊本市北区,清水本町１４番３１号,,43,105,8618074,,,,,,,2024-12-06,1,,,,,ヤマショウ,0
1588,6340001026987,新規,0,2024-12-06,2024-12-06,株式会社友喜デザイン事務所,,株式会社,鹿児島県,鹿児島市,吉野２丁目１１番５号,,46,201,8920877,,,,,,,2024-12-06,1,,,,,ユウキデザインジムショ,0
1591,6350001019313,新規,0,2024-12-06,2024-12-06,株式会社Ｔｅｌｅｓａ,,株式会社,宮崎県,宮崎市,上野町８番２３号トーニンビル６階,,45,201,8800011,,,,,,,2024-12-06,1,,,,,テレサ,0
1594,6360001034492,新規,0,2024-12-06,2024-12-06,株式会社Ａｓｃｅｎｄ,,株式会社,沖縄県,沖縄市,比屋根７丁目６番１－１０２号,,47,211,9042173,,,,,,,2024-12-06,1,,,,,アセンド,0
1595,6360001034518,新規,0,2024-12-06,2024-12-06,株式会社リビングＨＯＭＥ,,株式会社,沖縄県,浦添市,当山２丁目８－１広栄ビル３０２,,47,208,9012104,,,,,,,2024-12-06,1,,,,,リビングホーム,0
1598,6370001052015,新規,0,2024-12-06,2024-12-06,株式会社エスケーワイ,,株式会社,宮城県,石巻市,あゆみ野４丁目２番地１,,04,202,9860850,,,,,,,2024-12-06,1,,,,,エスケーワイ,0
1604,6400001016874,新規,0,2024-12-06,2024-12-06,株式会社Ｓライナー,,株式会社,岩手県,一関市,三関字仲田７８番地,,03,209,0210821,,,,,,,2024-12-06,1,,,,,エスライナー,0
1606,6420001018943,新規,0,2024-12-06,2024-12-06,既凋園株式会社,,株式会社,青森県,弘前市,大字高杉字神原２５０番地１１,,02,202,0368302,,,,,,,2024-12-06,1,,,,,キチョウエン,0
1614,6430001093218,新規,0,2024-12-06,2024-12-06,株式会社佑成,,株式会社,北海道,札幌市南区,川沿十五条２丁目１番１１号,,01,106,0050815,,,,,,,2024-12-06,1,,,,,ユウセイ,0
1619,6460101007636,新規,0,2024-12-06,2024-12-06,株式会社カントリーファーマーズ藤田牧場,,株式会社,北海道,河東郡鹿追町,瓜幕西２８線２６番地,,01,634,0810341,,,,,,,2024-12-06,1,,,,,カントリーフアーマーズフジタボクジョウ,0
1627,6700150128143,新規,0,2024-12-06,2024-12-06,ＹＪ　ＥＮＴＥＲＰＲＩＳＥＳ,,外国会社等,千葉県,八街市,東吉田７２５番地オフィス３０号,,12,230,2891114,スリランカ民主社会主義共和国、ガンポラ、ボタラピティヤ、デワラジャマワタ、Ｎｏ．４／３７,,,,,,2024-12-06,1,,,,,ワイジエイエンタープライズ,0
1628,6700150128168,新規,0,2024-12-06,2024-12-06,Ｈａｒｍｏｎｙ　Ｓｅｒｖｉｃｅｓ　Ｃｏｍｐａｎｙ　Ｌｉｍｉｔｅｄ,,外国会社等,三重県,津市,大谷町２５５　オフィス金子２階,,24,201,5140007,ミャンマー連邦共和国ヤンゴン市キャウクタダ区４０番道２５４‐２階,,,,,,2024-12-06,1,,,,,ハーモニーサービスカンパニーリミテツド,0
1636,7010001250446,新規,0,2024-12-06,2024-12-06,思創科技株式会社,,株式会社,東京都,中央区,銀座８丁目１０－１佛蘭西屋ビル２Ｆ,,13,102,1040061,,,,,,,2024-12-06,1,,,,,シソウカギ,0
1637,7010001250454,新規,0,2024-12-06,2024-12-06,株式会社ＲｅｔａＡｇｏｒａ,,株式会社,東京都,中央区,銀座１丁目１２番４号Ｎ＆ＥＢＬＤ．６Ｆ,,13,102,1040061,,,,,,,2024-12-06,1,,,,,リタアゴラ,0
1638,7010001250487,新規,0,2024-12-06,2024-12-06,株式会社ＴＫＲホールディングス,,株式会社,東京都,千代田区,丸の内１丁目１１番１号パシフィックセンチュリープレイス丸の内１３階,,13,101,1000005,,,,,,,2024-12-06,1,,,,,ティーケーアールホールディングス,0
1639,7010001250495,新規,0,2024-12-06,2024-12-06,株式会社深水社,,株式会社,東京都,中央区,日本橋３丁目２番１４号,,13,102,1030027,,,,,,,2024-12-06,1,,,,,シンスイシャ,0
1657,7010401186868,新規,0,2024-12-06,2024-12-06,株式会社Ｏｆｆｐｒｏ,,株式会社,東京都,港区,芝浦３丁目９番１号芝浦ルネサイトタワー２Ｆ,,13,103,1080023,,,,,,,2024-12-06,1,,,,,オフプロ,0
1658,7010401186892,新規,0,2024-12-06,2024-12-06,フジファシリティーマネジメント株式会社,,株式会社,東京都,港区,赤坂４丁目９番１９号,,13,103,1070052,,,,,,,2024-12-06,1,,,,,フジファシリティーマネジメント,0
1661,7010403033804,新規,0,2024-12-06,2024-12-06,Ｐｒｉｍｅ　Ｓｅｅｄ合同会社,,合同会社,東京都,港区,南青山２丁目２番１５号,,13,103,1070062,,,,,,,2024-12-06,1,,,,,プライムシード,0
1662,7010403033969,新規,0,2024-12-06,2024-12-06,合同会社ＫａｓｏｋｕＬａｎｄ,,合同会社,東京都,港区,芝浦２丁目１４番１３号ＭＣＫ芝浦ビル４階,,13,103,1080023,,,,,,,2024-12-06,1,,,,,カソクランド,0
1666,7010501053274,新規,0,2024-12-06,2024-12-06,株式会社アスタリスク,,株式会社,東京都,台東区,上野１丁目５番４－３０２号ルミネ湯島,,13,106,1100005,,,,,,,2024-12-06,1,,,,,アスタリスク,0
1674,7010603011254,新規,0,2024-12-06,2024-12-06,みなとや合同会社,,合同会社,東京都,江東区,清澄３丁目１番１４号コンフォールガーデン３０１,,13,108,1350024,,,,,,,2024-12-06,1,,,,,ミナトヤ,0
1676,7010701046953,新規,0,2024-12-06,2024-12-06,百富株式会社,,株式会社,東京都,品川区,旗の台５丁目１６番２号－１Ｆ,,13,109,1420064,,,,,,,2024-12-06,1,,,,,ハクトミ,0
1678,7010801035641,新規,0,2024-12-06,2024-12-06,道ホールディングス株式会社,,株式会社,東京都,大田区,東矢口１丁目６番１８号,,13,111,1460094,,,,,,,2024-12-06,1,,,,,ミチホールディングス,0
1688,7011001166269,新規,0,2024-12-06,2024-12-06,株式会社ソル・トラディション・ジャパン,,株式会社,東京都,渋谷区,渋谷２丁目１９－１５宮益坂ビルディング６０９,,13,113,1500002,,,,,,,2024-12-06,1,,,,,,0
1693,7011101109788,新規,0,2024-12-06,2024-12-06,株式会社ＴＧ,,株式会社,東京都,新宿区,四谷２丁目１４番地４ミツヤ四谷ビル８０２,,13,104,1600004,,,,,,,2024-12-06,1,,,,,ティージー,0
1694,7011101109870,新規,0,2024-12-06,2024-12-06,株式会社キュイエ,,株式会社,東京都,新宿区,西新宿７丁目１５－１４,,13,104,1600023,,,,,,,2024-12-06,1,,,,,キュイエ,0
1701,7011501031451,新規,0,2024-12-06,2024-12-06,ＩＴＣ株式会社,,株式会社,東京都,荒川区,西日暮里４丁目１６－３－１０１,,13,118,1160013,,,,,,,2024-12-06,1,,,,,アイティーシー,0
1709,7012401042547,新規,0,2024-12-06,2024-12-06,株式会社ＬｉｎＫ,,株式会社,東京都,小金井市,貫井北町３丁目１９番７号,,13,210,1840015,,,,,,,2024-12-06,1,,,,,リンク,0
1715,7012703003148,新規,0,2024-12-06,2024-12-06,にゃんこ大不動産合同会社,,合同会社,東京都,西東京市,東町５丁目６番９号,,13,229,2020012,,,,,,,2024-12-06,1,,,,,ニャンコダイフドウサン,0
1727,7020001160470,新規,0,2024-12-06,2024-12-06,株式会社グットゴウ,,株式会社,神奈川県,横浜市中区,山下町１３６番地,,14,104,2310023,,,,,,,2024-12-06,1,,,,,グットゴウ,0
1728,7020001160529,新規,0,2024-12-06,2024-12-06,株式会社ワルドン,,株式会社,神奈川県,横浜市泉区,和泉町５６２７番地１,,14,116,2450016,,,,,,,2024-12-06,1,,,,,ワルドン,0
1735,7021001083926,新規,0,2024-12-06,2024-12-06,ケードット株式会社,,株式会社,神奈川県,高座郡寒川町,倉見２２１７番地４,,14,321,2530101,,,,,,,2024-12-06,1,,,,,ケードット,0
1736,7021001083934,新規,0,2024-12-06,2024-12-06,株式会社Ｌｉｔｔｌｅ　ｍｏｒｅ,,株式会社,神奈川県,藤沢市,辻堂元町２丁目１９番８号,,14,205,2510043,,,,,,,2024-12-06,1,,,,,リトルモア,0
1737,7021001083942,新規,0,2024-12-06,2024-12-06,ライブホーム株式会社,,株式会社,神奈川県,相模原市南区,南台２丁目５番４号－３０１,,14,153,2520314,,,,,,,2024-12-06,1,,,,,ライブホーム,0
1746,7030001163761,新規,0,2024-12-06,2024-12-06,株式会社ロード,,株式会社,埼玉県,北葛飾郡杉戸町,高野台南２丁目１番地１２,,11,464,3450046,,,,,,,2024-12-06,1,,,,,ロード,0
1747,7030001163844,新規,0,2024-12-06,2024-12-06,株式会社アライズ,,株式会社,埼玉県,八潮市,大字大瀬３８６番地１レオパレスサリーレＩＩ２０２,00137262,11,234,3400822,,,,,,,2024-12-06,1,,,,,アライズ,0
1748,7030001163852,新規,0,2024-12-06,2024-12-06,株式会社ファイター,,株式会社,埼玉県,蕨市,中央５丁目１３番７号,,11,223,3350004,,,,,,,2024-12-06,1,,,,,ファイター,0
1757,7040001136452,新規,0,2024-12-06,2024-12-06,建築工房ＳＯＲＡ株式会社,,株式会社,千葉県,鎌ケ谷市,西佐津間２丁目９番６号,,12,224,2730134,,,,,,,2024-12-06,1,,,,,ケンチクコウボウソラ,0
1758,7040001136460,新規,0,2024-12-06,2024-12-06,株式会社Ｈａｒｖｅｓｔ　Ｗｏｒｋｓ,,株式会社,千葉県,船橋市,宮本６丁目１４番７号関ビル２階,,12,204,2730003,,,,,,,2024-12-06,1,,,,,ハーベストワークス,0
1759,7040001136485,新規,0,2024-12-06,2024-12-06,株式会社ｓｅｕｌ　ｅｔ　ｎｕｒ,,株式会社,千葉県,柏市,柏５丁目２－１１ａｒｔｉｓｔａ１Ｆ,,12,217,2770005,,,,,,,2024-12-06,1,,,,,ソルエヌーア,0
1763,7040003026321,新規,0,2024-12-06,2024-12-06,合同会社ＳＫＩフーズ,,合同会社,千葉県,成田市,本城１５１番地６,,12,211,2860114,,,,,,,2024-12-06,1,,,,,エスケーアイフーズ,0
1764,7040003026338,新規,0,2024-12-06,2024-12-06,Ｓｎｏｗａｙ　Ａｃａｄｅｍｙ合同会社,,合同会社,千葉県,船橋市,上山町１丁目１５４番地１８コーポ小野参番館１０２号,,12,204,2730046,,,,,,,2024-12-06,1,,,,,スノーウェイアカデミー,0
1771,7060001037715,新規,0,2024-12-06,2024-12-06,株式会社Ｋ＆Ｋカンパニー,,株式会社,栃木県,小山市,大字梁８６番地１,,09,208,3230158,,,,,,,2024-12-06,1,,,,,ケーアンドケーカンパニー,0
1775,7070001042417,新規,0,2024-12-06,2024-12-06,株式会社ＣＵＤＤＬｅ　ＥＡＲＴｈ,,株式会社,群馬県,高崎市,箕郷町上芝１９番地２１,,10,202,3703104,,,,,,,2024-12-06,1,,,,,カドルアース,0
1777,7080103003209,新規,0,2024-12-06,2024-12-06,合同会社独創舎,,合同会社,静岡県,駿東郡長泉町,下長窪５４２番地の８,,22,342,4110934,,,,,,,2024-12-06,1,,,,,ドクソウシャ,0
1786,7100001038097,新規,0,2024-12-06,2024-12-06,株式会社トライセル,,株式会社,長野県,北佐久郡軽井沢町,大字長倉５５４７番地７,,20,321,3890111,,,,,,,2024-12-06,1,,,,,トライセル,0
1792,7110001038897,新規,0,2024-12-06,2024-12-06,株式会社ｔｅＡ,,株式会社,新潟県,新潟市中央区,東大通２丁目３番２３号道頓堀ビル３階,,15,103,9500087,,,,,,,2024-12-06,1,,,,,,0
1800,7120001270854,新規,0,2024-12-06,2024-12-06,易貿通株式会社,,株式会社,大阪府,大阪市中央区,松屋町９番２０号ローレルステート松屋町１００３Ａ,,27,128,5420067,,,,,,,2024-12-06,1,,,,,イボウツウ,0
1801,7120001270862,新規,0,2024-12-06,2024-12-06,株式会社ＣＯＮＤＯＲ　ＯＵＴＤＯＯＲ　ＪＡＰＡＮ,,株式会社,大阪府,大阪市淀川区,十八条３丁目９番３５号,,27,123,5320001,,,,,,,2024-12-06,1,,,,,コンドルアウトドアージャパン,0
1802,7120001270887,新規,0,2024-12-06,2024-12-06,東和薬品ヘルスケア株式会社,,株式会社,大阪府,門真市,新橋町２番１１号,,27,223,5710048,,,,,,,2024-12-06,1,,,,,トウワヤクヒンヘルスケア,0
1803,7120001270920,新規,0,2024-12-06,2024-12-06,徳瑪吉株式会社,,株式会社,大阪府,大阪市西成区,鶴見橋１丁目１０番１４号１０６室,,27,122,5570031,,,,,,,2024-12-06,1,,,,,トクバキチ,0
1804,7120001270945,新規,0,2024-12-06,2024-12-06,ディア・ブライトエステート株式会社,,株式会社,大阪府,大阪市北区,天神橋２丁目北２－１８－２０３,,27,127,5300041,,,,,,,2024-12-06,1,,,,,ディアブライトエステート,0
1807,7120003028103,新規,0,2024-12-06,2024-12-06,合同会社ａｍｏ,,合同会社,大阪府,大阪市東住吉区,西今川１丁目２５番１０号,,27,121,5460042,,,,,,,2024-12-06,1,,,,,アモ,0
1808,7120003028111,新規,0,2024-12-06,2024-12-06,合同会社ＴＲ,,合同会社,大阪府,大阪市北区,中津７丁目６番９号エステムコート新梅田４０１号室,,27,127,5310071,,,,,,,2024-12-06,1,,,,,ティーアール,0
1813,7120101070717,新規,0,2024-12-06,2024-12-06,株式会社弘の会,,株式会社,大阪府,貝塚市,三ツ松１７２６－３５,,27,208,5970105,,,,,,,2024-12-06,1,,,,,コウノカイ,0
1815,7120901050091,新規,0,2024-12-06,2024-12-06,株式会社フォーナインソリューション,,株式会社,大阪府,箕面市,粟生間谷東５丁目１３－１２,,27,220,5620022,,,,,,,2024-12-06,1,,,,,フォーナインソリューション,0
1816,7120901050133,新規,0,2024-12-06,2024-12-06,株式会社リトルフィールド,,株式会社,大阪府,豊中市,稲津町２丁目１番２３号,,27,203,5610854,,,,,,,2024-12-06,1,,,,,リトルフィールド,0
1817,7120903005440,新規,0,2024-12-06,2024-12-06,合同会社ＳＭｉＴＨ,,合同会社,大阪府,吹田市,上山手町２３番３３－Ｂ１号,,27,205,5650841,,,,,,,2024-12-06,1,,,,,スミス,0
1820,7122001038686,新規,0,2024-12-06,2024-12-06,アスヨシ株式会社,,株式会社,大阪府,東大阪市,箕輪１丁目６番６号,,27,227,5780914,,,,,,,2024-12-06,1,,,,,アスヨシ,0
1827,7130001078537,新規,0,2024-12-06,2024-12-06,株式会社ＲｅＨｏｒｏｓ,,株式会社,京都府,京田辺市,松井ケ丘４丁目３番１２号,,26,211,6100353,,,,,,,2024-12-06,1,,,,,リホロス,0
1836,7140001136657,新規,0,2024-12-06,2024-12-06,株式会社神戸垂水小麦庵,,株式会社,兵庫県,神戸市垂水区,神田町４番２６号,,28,108,6550027,,,,,,,2024-12-06,1,,,,,コウベタルミコムギアン,0
1840,7140003021403,新規,0,2024-12-06,2024-12-06,グローバルブリッジ合同会社,,合同会社,兵庫県,神戸市中央区,熊内町５丁目２番３０、８０５号,,28,110,6510056,,,,,,,2024-12-06,1,,,,,グローバルブリッジ,0
1850,7180001164407,新規,0,2024-12-06,2024-12-06,オンコケア株式会社,,株式会社,愛知県,名古屋市中区,丸の内２丁目１２番１５勝川ビル２Ｆ,,23,106,4600002,,,,,,,2024-12-06,1,,,,,オンコケア,0
1854,7180303006364,新規,0,2024-12-06,2024-12-06,フューチャーワークス合同会社,,合同会社,愛知県,西尾市,吉良町上横須賀五反田５０番地２木村ハイツ２０２号室,,23,213,4440521,,,,,,,2024-12-06,1,,,,,フューチャーワークス,0
1860,7190001031861,新規,0,2024-12-06,2024-12-06,株式会社ｉｎｄａｈｏｕｓｅ,,株式会社,三重県,津市,藤方１５１４番地サニー藤水１０３号室,,24,201,5140815,,,,,,,2024-12-06,1,,,,,インダハウス,0
1864,7200001043203,新規,0,2024-12-06,2024-12-06,エスエス株式会社,,株式会社,岐阜県,岐阜市,尻毛１丁目１５６番地９,,21,201,5011147,,,,,,,2024-12-06,1,,,,,エスエス,0
1878,7240001064204,新規,0,2024-12-06,2024-12-06,株式会社Ｅｃｌａｔ,,株式会社,広島県,広島市中区,新天地６番１号,,34,101,7300034,,,,,,,2024-12-06,1,,,,,エクラ,0
1879,7240001064220,新規,0,2024-12-06,2024-12-06,株式会社ＰＡＲＩ星,,株式会社,広島県,福山市,春日台１番２３号,,34,207,7210916,,,,,,,2024-12-06,1,,,,,パリホシ,0
1885,7240005015863,新規,0,2024-12-06,2024-12-06,弁護士法人ＯＫＡＮＯ法律事務所,,その他の設立登記法人,広島県,広島市中区,基町１３番１３号広島基町ＮＳビル６階,,34,101,7300011,,,,,,,2024-12-06,1,,,,,オカノホウリツジムショ,0
1894,7290001108187,新規,0,2024-12-06,2024-12-06,株式会社Ｂｅｌｌｅｔｅｘ,,株式会社,福岡県,福岡市博多区,中洲４丁目１番３５号第２タワービル２階,,40,132,8100801,,,,,,,2024-12-06,1,,,,,ベルテックス,0
1900,7330005010847,新規,0,2024-12-06,2024-12-06,一般社団法人全国フリーランス協会,,その他の設立登記法人,熊本県,熊本市東区,若葉３丁目１５番８号,,43,102,8620903,,,,,,,2024-12-06,1,,,,,ゼンコクフリーランスキョウカイ,0
1901,7340001026978,新規,0,2024-12-06,2024-12-06,センサツオート株式会社,,株式会社,鹿児島県,薩摩川内市,樋脇町塔之原８４３番地４,,46,215,8951202,,,,,,,2024-12-06,1,,,,,センサツオート,0
1905,7370001052014,新規,0,2024-12-06,2024-12-06,株式会社ワイズディッシュ,,株式会社,宮城県,宮城郡利府町,花園２丁目２２番地１６,,04,406,9810132,,,,,,,2024-12-06,1,,,,,ワイズディッシュ,0
1907,7370003006851,新規,0,2024-12-06,2024-12-06,合同会社ｅｃｌａｔ,,合同会社,宮城県,名取市,手倉田１４２番地の１遊飲館１０９,,04,207,9811231,,,,,,,2024-12-06,1,,,,,エクレ,0
1910,7380001034960,新規,0,2024-12-06,2024-12-06,株式会社ユニテ,,株式会社,福島県,白河市,新白河３丁目４９番地ライフビルＩＩ２－Ｃ,00137260,07,205,9610856,,,,,,,2024-12-06,1,,,,,ユニテ,0
1915,7400003003358,新規,0,2024-12-06,2024-12-06,合同会社松本,,合同会社,岩手県,奥州市,前沢字赤面６７番地２,,03,215,0294207,,,,,,,2024-12-06,1,,,,,マツモト,0
1919,7420001018942,新規,0,2024-12-06,2024-12-06,リキューブ株式会社,,株式会社,青森県,弘前市,大字学園町１番地１,,02,202,0368152,,,,,,,2024-12-06,1,,,,,リキューブ,0
1937,7500001026020,新規,0,2024-12-06,2024-12-06,株式会社Ｐ．,,株式会社,愛媛県,松山市,小栗５丁目２番７号,,38,201,7900036,,,,,,,2024-12-06,1,,,,,ピードット,0
1938,7500001026029,新規,0,2024-12-06,2024-12-06,ＳＫクラフティング株式会社,,株式会社,愛媛県,西条市,大町１６６０番地２マルイラベンダーヒルズ１４０２号,,38,206,7930030,,,,,,,2024-12-06,1,,,,,エスケークラフティング,0
1939,7500002024502,新規,0,2024-12-06,2024-12-06,赤峰農林有限会社,,有限会社,愛媛県,西宇和郡伊方町,川永田甲８５３番地,,38,442,7960312,,,,,,,2024-12-06,1,,,,,アカミネノウリン,0
1940,7700150128142,新規,0,2024-12-06,2024-12-06,ＹＡＡＺ　ＬＡＮＫＡ　ＨＯＬＤＩＮＧＳ　ＰＶＴ　ＬＴＤ,,外国会社等,千葉県,八街市,東吉田７２５番地オフィス２８号,,12,230,2891114,スリランカ民主社会主義共和国、キャンディ、アクラナ、ブルゴハテンナ、Ｎｏ．２７０／Ａ／１,,,,,,2024-12-06,1,,,,,ヤアズランカホールデイングスプライベートリミテツド,0
1941,7700150128150,新規,0,2024-12-06,2024-12-06,ＰＲＯ　ＣＡＲＳ　ＥＮＴＥＲＰＲＩＳＥＳ,,外国会社等,千葉県,東金市,二又３４４番地オフィス１,,12,213,2830004,スリランカ民主社会主義共和国、マルタムナイ、メインストリート、Ｎｏ．９４Ｂ,,,,,,2024-12-06,1,,,,,プロカーズエンタープライズ,0
1949,8010001250429,新規,0,2024-12-06,2024-12-06,星川不動産株式会社,,株式会社,東京都,中央区,日本橋２丁目９－１０ＬＢｉｚ日本橋９Ｆ,,13,102,1030027,,,,,,,2024-12-06,1,,,,,ホシガワフドウサン,0
1950,8010001250453,新規,0,2024-12-06,2024-12-06,株式会社ＣＯＬＬＩＺＥ,,株式会社,東京都,千代田区,丸の内１丁目４番１号丸の内永楽ビルディング２６階,,13,101,1000005,,,,,,,2024-12-06,1,,,,,コライズ,0
1951,8010001250461,新規,0,2024-12-06,2024-12-06,株式会社ＡＳ　Ｇｌｏｂａｌ,,株式会社,東京都,中央区,築地１丁目９番２号イセツネビル８階,,13,102,1040045,,,,,,,2024-12-06,1,,,,,エーエスグローバル,0
1952,8010001250503,新規,0,2024-12-06,2024-12-06,株式会社レクス,,株式会社,東京都,中央区,日本橋箱崎町３２－７ＤＨビル２Ａ,,13,102,1030015,,,,,,,2024-12-06,1,,,,,レクス,0
1953,8010001250511,新規,0,2024-12-06,2024-12-06,株式会社ファーマインドアグリ,,株式会社,東京都,千代田区,神田和泉町１番地,,13,101,1010024,,,,,,,2024-12-06,1,,,,,ファーマインドアグリ,0
1954,8010003045637,新規,0,2024-12-06,2024-12-06,諏訪山バッテリーパワー合同会社,,合同会社,東京都,中央区,京橋２丁目２番１号京橋エドグラン,,13,102,1040031,,,,,,,2024-12-06,1,,,,,,0
1955,8010003045694,新規,0,2024-12-06,2024-12-06,合同会社ＺＴＩＷＡ,,合同会社,東京都,中央区,銀座１丁目１２－４Ｎ＆ＥＢＬＤ．７階,,13,102,1040061,,,,,,,2024-12-06,1,,,,,ゼティワ,0
1961,8010401186727,新規,0,2024-12-06,2024-12-06,シリウスキャピタル株式会社,,株式会社,東京都,港区,東新橋２丁目７番３号,,13,103,1050021,,,,,,,2024-12-06,1,,,,,シリウスキャピタル,0
1962,8010401186834,新規,0,2024-12-06,2024-12-06,株式会社ＡＣＮソリューション,,株式会社,東京都,港区,芝大門２丁目２番１号,,13,103,1050012,,,,,,,2024-12-06,1,,,,,エーシーエヌソリューション,0
1965,8010403033968,新規,0,2024-12-06,2024-12-06,合同会社清水２,,合同会社,東京都,港区,白金台１丁目１番２１－４０３号,,13,103,1080071,,,,,,,2024-12-06,1,,,,,シミズニ,0
1975,8010601066398,新規,0,2024-12-06,2024-12-06,ＳＯＲＡ　ＨＯＬＤＩＮＧＳ株式会社,,株式会社,東京都,江東区,大島７丁目２９番１２号,,13,108,1360072,,,,,,,2024-12-06,1,,,,,ソラホールディングス,0
1976,8010601066431,新規,0,2024-12-06,2024-12-06,サンプファイル株式会社,,株式会社,東京都,墨田区,本所４丁目２５－８－７０４,,13,107,1300004,,,,,,,2024-12-06,1,,,,,サンプファイル,0
1980,8010701046936,新規,0,2024-12-06,2024-12-06,株式会社ビーフソムリエ,,株式会社,東京都,品川区,南品川２丁目２番５号リードシー南品川ビル２階ＢＩＺｃｏｍｆｏｒｔ品川大井町Ｎｏ．３４,,13,109,1400004,,,,,,,2024-12-06,1,,,,,ビーフソムリエ,0
1981,8010701046952,新規,0,2024-12-06,2024-12-06,株式会社エレベイト,,株式会社,東京都,品川区,北品川５丁目１３番１９号エステージ御殿山３０２,,13,109,1410001,,,,,,,2024-12-06,1,,,,,エレベイト,0
1997,8011001166136,新規,0,2024-12-06,2024-12-06,株式会社ＧＯ,,株式会社,東京都,渋谷区,恵比寿西２丁目８番４号ＥＸ恵比寿西ビル５階,,13,113,1500021,,,,,,,2024-12-06,1,,,,,ゴー,0
1998,8011001166144,新規,0,2024-12-06,2024-12-06,株式会社アセファル,,株式会社,東京都,渋谷区,道玄坂１丁目１０番８号渋谷道玄坂東急ビル２Ｆ－Ｃ,,13,113,1500043,,,,,,,2024-12-06,1,,,,,アセファル,0
1999,8011001166243,新規,0,2024-12-06,2024-12-06,株式会社４１１,,株式会社,東京都,渋谷区,恵比寿西１丁目２１番７号レジディア恵比寿ＩＩ１４０１,00137269,13,113,1500021,,,,,,,2024-12-06,1,,,,,ヨンイチイチ,0
2003,8011101109845,新規,0,2024-12-06,2024-12-06,株式会社ＭＡＩ,,株式会社,東京都,新宿区,西新宿３丁目３番１３号西新宿水間ビル２Ｆ,,13,104,1600023,,,,,,,2024-12-06,1,,,,,マイ,0
2006,8011301030215,新規,0,2024-12-06,2024-12-06,Ｃｒｅｆｉｓ株式会社,,株式会社,東京都,杉並区,井草１丁目１５－１４グランディール２０１,,13,115,1670021,,,,,,,2024-12-06,1,,,,,サイトウフドウサン,0
2008,8011501031442,新規,0,2024-12-06,2024-12-06,株式会社ヒトリエ,,株式会社,東京都,北区,赤羽１丁目７番９号赤羽第一葉山ビル４Ｆ,,13,117,1150045,,,,,,,2024-12-06,1,,,,,ヒトリエ,0
2011,8011503006327,新規,0,2024-12-06,2024-12-06,合同会社ミラシア,,合同会社,東京都,北区,西ケ原１丁目４３番４－１０１号アイランダー駒込,,13,117,1140024,,,,,,,2024-12-06,1,,,,,ミラシア,0
2014,8011601028264,新規,0,2024-12-06,2024-12-06,サンスリー株式会社,,株式会社,東京都,練馬区,小竹町１丁目２０－９,,13,120,1760004,,,,,,,2024-12-06,1,,,,,サンスリー,0
2015,8011701027876,新規,0,2024-12-06,2024-12-06,株式会社満天,,株式会社,東京都,江戸川区,中央２丁目２２番２２号,,13,123,1320021,,,,,,,2024-12-06,1,,,,,マンテン,0
2018,8011803006588,新規,0,2024-12-06,2024-12-06,合同会社モンステラ,,合同会社,東京都,葛飾区,宝町２丁目２２番１４号ニックハイムお花茶屋２１０号,,13,122,1240005,,,,,,,2024-12-06,1,,,,,モンステラ,0
2019,8012401042546,新規,0,2024-12-06,2024-12-06,株式会社Ｆ　ａｎｄ　Ｗ,,株式会社,東京都,府中市,清水が丘１丁目１番地の３第一勇心ビル２０２号,,13,206,1830015,,,,,,,2024-12-06,1,,,,,エフアンドダブリュー,0
2020,8012403006862,新規,0,2024-12-06,2024-12-06,合同会社Ｉ・Ｏ・Ｓ,,合同会社,東京都,武蔵野市,吉祥寺本町１丁目３１番１３号朝河ビル２階,,13,203,1800004,,,,,,,2024-12-06,1,,,,,アイオーエス,0
2027,8012801023609,新規,0,2024-12-06,2024-12-06,サンシャイン株式会社,,株式会社,東京都,日野市,日野本町３丁目１４番１８号谷井ビル４階４１２号,,13,212,1910011,,,,,,,2024-12-06,1,,,,,サンシャイン,0
2040,8020001160486,新規,0,2024-12-06,2024-12-06,崇重工業株式会社,,株式会社,神奈川県,川崎市幸区,塚越１丁目６０番地１４４,,14,132,2120024,,,,,,,2024-12-06,1,,,,,タカエコウギョウ,0
2041,8020001160494,新規,0,2024-12-06,2024-12-06,ユウキジャパン株式会社,,株式会社,神奈川県,横浜市南区,吉野町４丁目１９番地６イーリス吉野町８０２,,14,105,2320014,,,,,,,2024-12-06,1,,,,,ユウキジャパン,0
2042,8020001160528,新規,0,2024-12-06,2024-12-06,株式会社ワイシーム,,株式会社,神奈川県,横浜市泉区,和泉町５６２７番地１,,14,116,2450016,,,,,,,2024-12-06,1,,,,,ワイシーム,0
2055,8021001083917,新規,0,2024-12-06,2024-12-06,株式会社湊測量設計,,株式会社,神奈川県,相模原市中央区,陽光台３丁目１６番９号,,14,152,2520226,,,,,,,2024-12-06,1,,,,,ミナトソクリョウセッケイ,0
2057,8021003015323,新規,0,2024-12-06,2024-12-06,合同会社ｄａｙ５,,合同会社,神奈川県,横須賀市,林５丁目６番２２号,,14,201,2380315,,,,,,,2024-12-06,1,,,,,デイファイブ,0
2061,8030001163819,新規,0,2024-12-06,2024-12-06,吉利株式会社,,株式会社,埼玉県,さいたま市西区,大字水判土４６９－１５,,11,101,3310059,,,,,,,2024-12-06,1,,,,,キチリ,0
2062,8030001163843,新規,0,2024-12-06,2024-12-06,ファースト商事株式会社,,株式会社,埼玉県,川口市,芝西２丁目８－１２,,11,203,3330855,,,,,,,2024-12-06,1,,,,,ファーストショウジ,0
2063,8030001163851,新規,0,2024-12-06,2024-12-06,ＭＥ株式会社,,株式会社,埼玉県,さいたま市西区,大字内野本郷９２７番地３－１０３,,11,101,3310045,,,,,,,2024-12-06,1,,,,,エムイー,0
2066,8030003025620,新規,0,2024-12-06,2024-12-06,合同会社ワンエモーション,,合同会社,埼玉県,川口市,青木３丁目５番８－１１０３号ルクレ川口ウエスト,,11,203,3320031,,,,,,,2024-12-06,1,,,,,ワンエモーション,0
2067,8030003025637,新規,0,2024-12-06,2024-12-06,合同会社ＦＩＶＥ　ＲＯＳＥＳ,,合同会社,埼玉県,さいたま市中央区,上峰３丁目９番６号,,11,105,3380014,,,,,,,2024-12-06,1,,,,,ファイブローゼズ,0
2068,8030005021964,新規,0,2024-12-06,2024-12-06,ＴＨＰ社会保険労務士法人,,その他の設立登記法人,埼玉県,さいたま市浦和区,上木崎１丁目１０番１７号三村Ｋ２ビル５Ｆ,,11,107,3300071,,,,,,,2024-12-06,1,,,,,ティーエイチピー,0
2078,8040001136476,新規,0,2024-12-06,2024-12-06,ふりぽす株式会社,,株式会社,千葉県,白井市,池の上１丁目１５－１２,,12,232,2701425,,,,,,,2024-12-06,1,,,,,フリポス,0
2079,8040001136484,新規,0,2024-12-06,2024-12-06,ＭＫ福住株式会社,,株式会社,千葉県,松戸市,中和倉３０８－５３,,12,207,2700025,,,,,,,2024-12-06,1,,,,,エムケイフクズミ,0
2081,8040003026320,新規,0,2024-12-06,2024-12-06,合同会社タナベ,,合同会社,千葉県,流山市,おおたかの森西１丁目８番地の５ラフィーヌ・おおたかの森７０２,,12,220,2700128,,,,,,,2024-12-06,1,,,,,タナベ,0
2082,8040003026329,新規,0,2024-12-06,2024-12-06,合同会社ｄｏｒｅ,,合同会社,千葉県,市原市,五井中央西２丁目７番地１５ウルマ駅前ビル２階,,12,219,2900081,,,,,,,2024-12-06,1,,,,,ドレ,0
2089,8050001055849,新規,0,2024-12-06,2024-12-06,Ｓｈｉｍａｄａ　Ｐａｔｅｎｔｓ株式会社,,株式会社,茨城県,つくば市,苅間２０２０番地４,,08,220,3050822,,,,,,,2024-12-06,1,,,,,シマダパテンツ,0
2101,8100001038096,新規,0,2024-12-06,2024-12-06,株式会社ＧＡテクト,,株式会社,長野県,松本市,梓川上野８６０番地１,,20,202,3901703,,,,,,,2024-12-06,1,,,,,ジーエーテクト,0
2103,8110001038888,新規,0,2024-12-06,2024-12-06,株式会社匠企画,,株式会社,新潟県,新潟市西蒲区,高畑３０２番地,,15,108,9530112,,,,,,,2024-12-06,1,,,,,タクミキカク,0
2104,8110001038896,新規,0,2024-12-06,2024-12-06,株式会社トンボアグリ,,株式会社,新潟県,長岡市,宮本町１丁目８３１番地,,15,202,9402042,,,,,,,2024-12-06,1,,,,,トンボアグリ,0
2107,8110005017161,新規,0,2024-12-06,2024-12-06,花立部落農事実行組合,,その他の設立登記法人,新潟県,村上市,,,15,212,9580000,,,,,,,2024-12-06,1,,,,,ハナダテブラク,0
2114,8120001270829,新規,0,2024-12-06,2024-12-06,株式会社Ｍｅｌｅ,,株式会社,大阪府,大阪市北区,梅田２丁目５番４号千代田ビル西館１０階,,27,127,5300001,,,,,,,2024-12-06,1,,,,,メレ,0
2115,8120001270853,新規,0,2024-12-06,2024-12-06,花鳥風月株式会社,,株式会社,大阪府,大阪市城東区,関目５丁目１９番９号関目花博公館５０９Ｂ,,27,118,5360008,,,,,,,2024-12-06,1,,,,,カチョウフウゲツ,0
2116,8120001270928,新規,0,2024-12-06,2024-12-06,株式会社エスタディオ,,株式会社,大阪府,大阪市都島区,都島南通２丁目１０番１２－７０５号,,27,102,5340023,,,,,,,2024-12-06,1,,,,,エスタディオ,0
2118,8120003028127,新規,0,2024-12-06,2024-12-06,合同会社ＡＸＩＡＴＥ,,合同会社,大阪府,大阪市中央区,北新町２番６号ツムラ谷町ビル２Ｆ,,27,128,5400023,,,,,,,2024-12-06,1,,,,,アクシエイト,0
2119,8120005024644,新規,0,2024-12-06,2024-12-06,天満橋税理士法人,,その他の設立登記法人,大阪府,大阪市中央区,石町１丁目２番９号,,27,128,5400033,,,,,,,2024-12-06,1,,,,,テンマバシ,0
2127,8120901050132,新規,0,2024-12-06,2024-12-06,株式会社ａｃｃｅｎｔ,,株式会社,大阪府,吹田市,垂水町３丁目２４番１－５０１号,,27,205,5640062,,,,,,,2024-12-06,1,,,,,アクセント,0
2132,8120903005448,新規,0,2024-12-06,2024-12-06,ＪＡＰＡＮＩＦＹ合同会社,,合同会社,大阪府,茨木市,上穂東町２番３号サンハーレ上穂４０２号,,27,211,5670037,,,,,,,2024-12-06,1,,,,,ジャパニファイ,0
2138,8130001078536,新規,0,2024-12-06,2024-12-06,ブルーオーシャン株式会社,,株式会社,京都府,京田辺市,薪東沢４４番１－１０４号,,26,211,6100341,,,,,,,2024-12-06,1,,,,,ブルーオーシャン,0
2139,8130001078544,新規,0,2024-12-06,2024-12-06,京都インターホールディングス株式会社,,株式会社,京都府,宇治市,木幡御園２０番地の１０６,,26,204,6110002,,,,,,,2024-12-06,1,,,,,キョウトインターホールディングス,0
2140,8130001078560,新規,0,2024-12-06,2024-12-06,株式会社Ｈｉｇｈ　Ｍａｒｋ,,株式会社,京都府,京都市下京区,小坂町１番地１,,26,106,6008821,,,,,,,2024-12-06,1,,,,,ハイマーク,0
2141,8130001078569,新規,0,2024-12-06,2024-12-06,株式会社Ｒｉｓｅｒ,,株式会社,京都府,京都市下京区,中堂寺北町１５番地,,26,106,6008812,,,,,,,2024-12-06,1,,,,,ライザー,0
2155,8140003021385,新規,0,2024-12-06,2024-12-06,ＨＯＰＥ合同会社,,合同会社,兵庫県,神戸市兵庫区,荒田町１丁目１１－１０ニューヤングハイツ南館１０７号室,,28,105,6520032,,,,,,,2024-12-06,1,,,,,ホップ,0
2156,8140003021393,新規,0,2024-12-06,2024-12-06,合同会社エンジェルマーク,,合同会社,兵庫県,神戸市北区,山田町小部字南山２番地の５４５,,28,109,6511101,,,,,,,2024-12-06,1,,,,,エンジェルマーク,0
2162,8180001164430,新規,0,2024-12-06,2024-12-06,株式会社グラッター,,株式会社,愛知県,豊明市,栄町梶田８番地１,,23,229,4701161,,,,,,,2024-12-06,1,,,,,グラッター,0
2164,8180005020852,新規,0,2024-12-06,2024-12-06,馬引農事實行組合,,その他の設立登記法人,愛知県,一宮市,（愛知県中島郡大和村）,,23,203,4910000,,,,,,,2024-12-06,1,,,,,マビキ,0
2167,8180301039316,新規,0,2024-12-06,2024-12-06,株式会社トムワークス,,株式会社,愛知県,豊田市,小坂町１３丁目５８番地,,23,211,4710035,,,,,,,2024-12-06,1,,,,,トムワークス,0
2179,8240001064104,新規,0,2024-12-06,2024-12-06,株式会社オーエム,,株式会社,広島県,広島市佐伯区,石内東１丁目１番１－１０４号,,34,108,7315162,,,,,,,2024-12-06,1,,,,,オーエム,0
2180,8240003006970,新規,0,2024-12-06,2024-12-06,合同会社三和,,合同会社,広島県,三原市,和田２丁目２７－３１－２０２,,34,204,7230041,,,,,,,2024-12-06,1,,,,,サンワ,0
2186,8270005005621,新規,0,2024-12-06,2024-12-06,医療法人社団鈴木クリニック,,その他の設立登記法人,鳥取県,米子市,上福原５８２番地５,,31,202,6830004,,,,,,,2024-12-06,1,,,,,スズキクリニック,0
2193,8310001019356,新規,0,2024-12-06,2024-12-06,株式会社マネキ,,株式会社,長崎県,長崎市,浜町１０番１９号,,42,201,8500853,,,,,,,2024-12-06,1,,,,,マネキ,0
2202,8330003010674,新規,0,2024-12-06,2024-12-06,春信産業合同会社,,合同会社,熊本県,阿蘇郡南阿蘇村,大字河陽１９３２番地下西原第２団地１号,,43,433,8691404,,,,,,,2024-12-06,1,,,,,ハルノブサンギョウ,0
2203,8340001026985,新規,0,2024-12-06,2024-12-06,Ｗｉｎｄ　ｉｎハウス株式会社,,株式会社,鹿児島県,鹿児島市,吉野町５６５９番地１３,,46,201,8920871,,,,,,,2024-12-06,1,,,,,ウインドインハウス,0
2206,8360001034516,新規,0,2024-12-06,2024-12-06,株式会社インビジ,,株式会社,沖縄県,沖縄市,美里仲原町８番２号,,47,211,9042156,,,,,,,2024-12-06,1,,,,,インビジ,0
2207,8360003014499,新規,0,2024-12-06,2024-12-06,合同会社紅音,,合同会社,沖縄県,島尻郡八重瀬町,字東風平１４４０番地１,,47,362,9010401,,,,,,,2024-12-06,1,,,,,アカネ,0
2208,8360005007138,新規,0,2024-12-06,2024-12-06,一般社団法人Ｓｏｕｎｄ　ｏｆ　Ｐｒａｉｓｅ,,その他の設立登記法人,沖縄県,うるま市,字江洲３８８番地１,,47,213,9042244,,,,,,,2024-12-06,1,,,,,サウンドオブプレイズ,0
2211,8370001052021,新規,0,2024-12-06,2024-12-06,株式会社ＭＤアカウンティング,,株式会社,宮城県,仙台市宮城野区,二の森１５番２９号,,04,102,9830838,,,,,,,2024-12-06,1,,,,,エムディーアカウンティング,0
2213,8380001034968,新規,0,2024-12-06,2024-12-06,株式会社ＧＯＡＴ,,株式会社,福島県,福島市,八島田字中干損田１番地の１３,,07,201,9608056,,,,,,,2024-12-06,1,,,,,ゴート,0
2215,8390001017815,新規,0,2024-12-06,2024-12-06,菅名土木株式会社,,株式会社,山形県,米沢市,金池２丁目１番３４号,,06,202,9920012,,,,,,,2024-12-06,1,,,,,スガナドボク,0
2218,8430001093232,新規,0,2024-12-06,2024-12-06,株式会社クローリスト,,株式会社,北海道,札幌市東区,中沼町１１８番地７０１,,01,103,0070890,,,,,,,2024-12-06,1,,,,,クローリスト,0
2227,8500001026028,新規,0,2024-12-06,2024-12-06,株式会社四国中央電設工業所,,株式会社,愛媛県,四国中央市,豊岡町長田３５７番地１,,38,213,7990435,,,,,,,2024-12-06,1,,,,,シコクチュウオウデンセツコウギョウショ,0
2228,8700150128125,新規,0,2024-12-06,2024-12-06,井関土地改良区,,その他,三重県,津市,一志町八太１３５８番地１,,24,201,5152515,,,,,,,2024-12-06,1,,,,,イゼキトチカイリヨウク,0
2229,8700150128141,新規,0,2024-12-06,2024-12-06,Ｒ．Ｒ．Ｒ．ＥＮＴＥＲＰＲＩＳＥＳ　ＰＲＩＶＡＴＥ　ＬＩＭＩＴＥＤ,,外国会社等,千葉県,八街市,東吉田７２５番地オフィス２９号,,12,230,2891114,スリランカ民主社会主義共和国、キャンディ、アンバテンナ、クドゥガラ、Ｎｏ．３４／Ｃ,,,,,,2024-12-06,1,,,,,アールアールアールエンタープライズプライベートリミテツド,0
2235,9010001250345,新規,0,2024-12-06,2024-12-06,株式会社ＨＳＣＯＭＰＡＮＹ,,株式会社,東京都,文京区,関口２丁目４番４号グランドメゾン目白坂テラス３０２,,13,105,1120014,,,,,,,2024-12-06,1,,,,,エイチエスカンパニー,0
2236,9010001250493,新規,0,2024-12-06,2024-12-06,プライオリティ・パートナーズ株式会社,,株式会社,東京都,中央区,日本橋室町１丁目１１番１２号日本橋水野ビル７階,,13,102,1030022,,,,,,,2024-12-06,1,,,,,プライオリティパートナーズ,0
2237,9010001250502,新規,0,2024-12-06,2024-12-06,Ｄ’ｌｉｇｈｔ　Ｓｔｒａｔｅｇｙ　Ｃｏｎｓｕｌｔｉｎｇ株式会社,,株式会社,東京都,中央区,銀座１丁目１５番４号銀座一丁目ビル７階,,13,102,1040061,,,,,,,2024-12-06,1,,,,,ディライトストラテジーコンサルティング,0
2239,9010003045702,新規,0,2024-12-06,2024-12-06,合同会社ＳＲＦ２号,,合同会社,東京都,中央区,日本橋１丁目４番１号日本橋一丁目ビルディング,,13,102,1030027,,,,,,,2024-12-06,1,,,,,エスアールエフニゴウ,0
2243,9010401186206,新規,0,2024-12-06,2024-12-06,株式会社ｏｒａｎｇｅ,,株式会社,東京都,港区,三田１丁目６番３号シティータワー麻布十番２１１１,,13,103,1080073,,,,,,,2024-12-06,1,,,,,オレンジ,0
2244,9010401186825,新規,0,2024-12-06,2024-12-06,株式会社ＢＬＯＯＭ　ＣＯＭＰＡＳＳ,,株式会社,東京都,港区,北青山１丁目３番１号,,13,103,1070061,,,,,,,2024-12-06,1,,,,,ブルームコンパス,0
2246,9010405023818,新規,0,2024-12-06,2024-12-06,一般社団法人ブロッコリー多糖体研究会,,その他の設立登記法人,東京都,港区,南青山３丁目１番３６号青山丸竹ビル６Ｆ,,13,103,1070062,,,,,,,2024-12-06,1,,,,,ブロッコリータトウタイケンキュウカイ,0
2258,9010803005186,新規,0,2024-12-06,2024-12-06,合同会社百不知百不会,,合同会社,東京都,大田区,北馬込１丁目１９番３号ボンヴェールＦ,,13,111,1430021,,,,,,,2024-12-06,1,,,,,ヒャクフチヒャクエ,0
2271,9011101109828,新規,0,2024-12-06,2024-12-06,株式会社ｙｕｇｅ,,株式会社,東京都,新宿区,市谷本村町２番１号クイーポビル７０１号室,,13,104,1620845,,,,,,,2024-12-06,1,,,,,ユージュ,0
2272,9011101109844,新規,0,2024-12-06,2024-12-06,リヨン株式会社,,株式会社,東京都,新宿区,西新宿６丁目１５番１－１５０８号,,13,104,1600023,,,,,,,2024-12-06,1,,,,,リヨン,0
2281,9011703004047,新規,0,2024-12-06,2024-12-06,ＮＨＹＴ合同会社,,合同会社,東京都,江戸川区,中央１丁目７番３号,,13,123,1320021,,,,,,,2024-12-06,1,,,,,エヌエイチワイティ,0
2285,9011801045273,新規,0,2024-12-06,2024-12-06,株式会社Ａａｎｄ,,株式会社,東京都,足立区,竹の塚１丁目２８番４－３０３号,,13,121,1210813,,,,,,,2024-12-06,1,,,,,エイアンド,0
2290,9012401042553,新規,0,2024-12-06,2024-12-06,株式会社Ｄｅｅ’ｓ‐Ｋ,,株式会社,東京都,三鷹市,下連雀２丁目１４番４８号,,13,204,1810013,,,,,,,2024-12-06,1,,,,,ディースケー,0
2294,9012801023608,新規,0,2024-12-06,2024-12-06,株式会社ＥＭＩ,,株式会社,東京都,立川市,羽衣町１丁目１７番９号アネックス羽衣１０１号,,13,202,1900021,,,,,,,2024-12-06,1,,,,,イーエムアイ,0
2295,9013101009578,新規,0,2024-12-06,2024-12-06,松尾造園株式会社,,株式会社,東京都,西多摩郡瑞穂町,大字高根２２０番地１,,13,303,1901203,,,,,,,2024-12-06,1,,,,,マツオゾウエン,0
2303,9020001160485,新規,0,2024-12-06,2024-12-06,株式会社蕾,,株式会社,神奈川県,横浜市青葉区,市ケ尾町１０５３－２４,,14,117,2250024,,,,,,,2024-12-06,1,,,,,レイ,0
2304,9020001160519,新規,0,2024-12-06,2024-12-06,株式会社喜恭,,株式会社,神奈川県,川崎市多摩区,宿河原４丁目２５番３７－５０１号,,14,135,2140021,,,,,,,2024-12-06,1,,,,,キキョウ,0
2305,9020001160527,新規,0,2024-12-06,2024-12-06,株式会社レフラーク,,株式会社,神奈川県,横浜市泉区,和泉町５６２７番地１,,14,116,2450016,,,,,,,2024-12-06,1,,,,,レフラーク,0
2312,9021001083882,新規,0,2024-12-06,2024-12-06,株式会社マニャーニャ,,株式会社,神奈川県,鎌倉市,西鎌倉１丁目３番１０号,,14,204,2480035,,,,,,,2024-12-06,1,,,,,マニャーニャ,0
2313,9021001083932,新規,0,2024-12-06,2024-12-06,株式会社ラファエル,,株式会社,神奈川県,相模原市中央区,相模原３丁目７番３号,,14,152,2520231,,,,,,,2024-12-06,1,,,,,ラファエル,0
2314,9021001083957,新規,0,2024-12-06,2024-12-06,株式会社アドキャリア,,株式会社,神奈川県,相模原市中央区,上溝３９８５－１１,,14,152,2520243,,,,,,,2024-12-06,1,,,,,アドキャリア,0
2315,9021003015314,新規,0,2024-12-06,2024-12-06,プラスエナジー合同会社,,合同会社,神奈川県,鎌倉市,大町３丁目４番３号,,14,204,2480007,,,,,,,2024-12-06,1,,,,,プラスエナジー,0
2320,9030001163850,新規,0,2024-12-06,2024-12-06,ＮＢ株式会社,,株式会社,埼玉県,さいたま市西区,大字内野本郷９２７番地３－２０３,,11,101,3310045,,,,,,,2024-12-06,1,,,,,エヌビー,0
2323,9030003025628,新規,0,2024-12-06,2024-12-06,ＬＡＸ合同会社,,合同会社,埼玉県,朝霞市,幸町１丁目３番２６号,,11,227,3510015,,,,,,,2024-12-06,1,,,,,ラックス,0
2332,9040001136426,新規,0,2024-12-06,2024-12-06,トリプルトラックス株式会社,,株式会社,千葉県,野田市,目吹８１１番地１,,12,208,2780001,,,,,,,2024-12-06,1,,,,,トリプルトラックス,0
2333,9040001136442,新規,0,2024-12-06,2024-12-06,興泓株式会社,,株式会社,千葉県,成田市,宝田２２５２,,12,211,2860844,,,,,,,2024-12-06,1,,,,,コウコウ,0
2334,9040001136450,新規,0,2024-12-06,2024-12-06,イル・プロモーション株式会社,,株式会社,千葉県,松戸市,本町１７－１１芹澤ビル６Ｆ,,12,207,2710091,,,,,,,2024-12-06,1,,,,,イルプロモーション,0
2335,9040001136475,新規,0,2024-12-06,2024-12-06,株式会社ＦＲＥＥＤＯＭ,,株式会社,千葉県,東金市,南上宿４０番地１８,,12,213,2830066,,,,,,,2024-12-06,1,,,,,フリーダム,0
2340,9040003026311,新規,0,2024-12-06,2024-12-06,合同会社テクエム,,合同会社,千葉県,市川市,南八幡５丁目１１番１７－６１２号（グランヒルズ本八幡）,,12,203,2720023,,,,,,,2024-12-06,1,,,,,テクエム,0
2341,9040003026328,新規,0,2024-12-06,2024-12-06,合同会社ＣＲＯＣＯ,,合同会社,千葉県,松戸市,五香西５丁目５番地の２４,,12,207,2702218,,,,,,,2024-12-06,1,,,,,クロコ,0
2343,9040005022589,新規,0,2024-12-06,2024-12-06,行政書士法人木村会計,,その他の設立登記法人,千葉県,旭市,ロの１５５１番地,,12,215,2892516,,,,,,,2024-12-06,1,,,,,キムラカイケイ,0
2354,9070003005691,新規,0,2024-12-06,2024-12-06,合同会社コックス,,合同会社,群馬県,佐波郡玉村町,大字角渕４５９６番地３,,10,464,3701124,,,,,,,2024-12-06,1,,,,,コックス,0
2355,9080101025178,新規,0,2024-12-06,2024-12-06,株式会社恵エンジニアリング,,株式会社,静岡県,富士市,大淵３４５０番地の３,,22,210,4170801,,,,,,,2024-12-06,1,,,,,メグミエンジニアリング,0
2360,9100001038087,新規,0,2024-12-06,2024-12-06,株式会社Ｈｉｎｏｋｉ,,株式会社,長野県,飯山市,大字緑１１１２ロ,,20,213,3892416,,,,,,,2024-12-06,1,,,,,ヒノキ,0
2361,9100001038095,新規,0,2024-12-06,2024-12-06,株式会社ＳＨＩＮＴＥＣ,,株式会社,長野県,千曲市,大字戸倉３５９番地,,20,218,3890804,,,,,,,2024-12-06,1,,,,,シンテック,0
2363,9100003007899,新規,0,2024-12-06,2024-12-06,杜の不動産合同会社,,合同会社,長野県,長野市,篠ノ井布施高田７９６番地２書店すぐじ２Ｆ－Ａ,,20,201,3888007,,,,,,,2024-12-06,1,,,,,モリノフドウサン,0
2367,9110001038904,新規,0,2024-12-06,2024-12-06,株式会社ＹＮＮホールディングス,,株式会社,新潟県,長岡市,宝２丁目１番地１２,,15,202,9400016,,,,,,,2024-12-06,1,,,,,ワイエヌエヌホールディングス,0
2372,9110005017160,新規,0,2024-12-06,2024-12-06,一般財団法人ＡｍｂｉｔｉｏｕｓＮＩＩＧＡＴＡ,,その他の設立登記法人,新潟県,新潟市中央区,万代３丁目１番１号,,15,103,9500088,,,,,,,2024-12-06,1,,,,,アンビシャスニイガタ,0
2379,9120001270844,新規,0,2024-12-06,2024-12-06,大星土地建物管理株式会社,,株式会社,大阪府,大阪市中央区,本町４丁目５番１５号,,27,128,5410053,,,,,,,2024-12-06,1,,,,,タイセイトチタテモノカンリ,0
2380,9120001270860,新規,0,2024-12-06,2024-12-06,株式会社つなぐアグリ,,株式会社,大阪府,大阪市西淀川区,中島１丁目３４番５３号,,27,113,5550041,,,,,,,2024-12-06,1,,,,,ツナグアグリ,0
2381,9120001270885,新規,0,2024-12-06,2024-12-06,京阪神不動産開発株式会社,,株式会社,大阪府,大阪市北区,西天満３丁目６番２２号,,27,127,5300047,,,,,,,2024-12-06,1,,,,,ケイハンシンフドウサンカイハツ,0
2382,9120001270919,新規,0,2024-12-06,2024-12-06,ＫＵＮＹＵ株式会社,,株式会社,大阪府,大阪市西成区,天下茶屋２丁目２１番６号パインリーフ天下茶屋４０７号室,,27,122,5570014,,,,,,,2024-12-06,1,,,,,コンギョク,0
2383,9120001270935,新規,0,2024-12-06,2024-12-06,株式会社ＣｕｒｉｏＣｉｔｙ,,株式会社,大阪府,大阪市北区,梅田１丁目２番２号大阪駅前第２ビル１２－１２,,27,127,5300001,,,,,,,2024-12-06,1,,,,,キュリオシティ,0
2385,9120903005447,新規,0,2024-12-06,2024-12-06,合同会社ノースヒルズ,,合同会社,大阪府,豊中市,新千里北町３丁目１番２号,,27,203,5600081,,,,,,,2024-12-06,1,,,,,ノースヒルズ,0
2386,9130001078519,新規,0,2024-12-06,2024-12-06,株式会社ＴＲＡＣＫ　ＦＩＸ,,株式会社,京都府,京都市伏見区,羽束師志水町１５番地５,,26,109,6128485,,,,,,,2024-12-06,1,,,,,トラックフィックス,0
2392,9140001136597,新規,0,2024-12-06,2024-12-06,ディーク・ワン株式会社,,株式会社,兵庫県,宝塚市,高司５丁目６番９号,,28,214,6650051,,,,,,,2024-12-06,1,,,,,ディークワン,0
2393,9140001136647,新規,0,2024-12-06,2024-12-06,シティ・ソーシャルワーク株式会社,,株式会社,兵庫県,明石市,大久保町大窪２１９６番地の６,,28,203,6740051,,,,,,,2024-12-06,1,,,,,シティソーシャルワーク,0
2396,9140003021384,新規,0,2024-12-06,2024-12-06,合同会社みつ,,合同会社,兵庫県,西宮市,北六甲台３丁目２１番８号,,28,204,6511413,,,,,,,2024-12-06,1,,,,,ミツ,0
2397,9140003021401,新規,0,2024-12-06,2024-12-06,合同会社エルケア,,合同会社,兵庫県,姫路市,余部区下余部３９２番地１フロレスタ２０４号,,28,201,6711261,,,,,,,2024-12-06,1,,,,,エルケア,0
2399,9170001018405,新規,0,2024-12-06,2024-12-06,ハートライフ・エンジニアリング株式会社,,株式会社,和歌山県,和歌山市,鳴神７８８番地８,,30,201,6408303,,,,,,,2024-12-06,1,,,,,ハートライフエンジニアリング,0
2411,9180301039315,新規,0,2024-12-06,2024-12-06,株式会社丸実建設,,株式会社,愛知県,豊橋市,下地町字橋口１１７番地の１,,23,201,4400086,,,,,,,2024-12-06,1,,,,,マルミケンセツ,0
2414,9190003004871,新規,0,2024-12-06,2024-12-06,ホコラム合同会社,,合同会社,三重県,四日市市,小古曽６丁目６番１３号,,24,202,5100958,,,,,,,2024-12-06,1,,,,,ホコラム,0
2415,9200005013695,新規,0,2024-12-06,2024-12-06,医療法人ＨＲＯ,,その他の設立登記法人,岐阜県,岐阜市,神田町９丁目２７番地,,21,201,5008833,,,,,,,2024-12-06,1,,,,,エイチアールオー,0
2417,9210001019992,新規,0,2024-12-06,2024-12-06,株式会社新九頭竜橋コンタクト,,株式会社,福井県,坂井市,坂井町若宮第３号６番地５,,18,210,9190515,,,,,,,2024-12-06,1,,,,,シンクズリュウバシコンタクト,0
2420,9220003003903,新規,0,2024-12-06,2024-12-06,合同会社睦,,合同会社,石川県,白山市,石同新町１４３番地,,17,210,9240806,,,,,,,2024-12-06,1,,,,,ムツミ,0
2421,9230001020651,新規,0,2024-12-06,2024-12-06,光急便株式会社,,株式会社,富山県,射水市,戸破７１０番地２,,16,211,9390351,,,,,,,2024-12-06,1,,,,,ヒカリキュウビン,0
2426,9240001064152,新規,0,2024-12-06,2024-12-06,ＡＫＯ株式会社,,株式会社,広島県,広島市中区,三川町２番７号,,34,101,7300029,,,,,,,2024-12-06,1,,,,,アコ,0
2427,9250003003611,新規,0,2024-12-06,2024-12-06,合同会社岡村商会,,合同会社,山口県,下関市,新地町４番５－１２０５号,,35,201,7500063,,,,,,,2024-12-06,1,,,,,オカムラショウカイ,0
2431,9280003001901,新規,0,2024-12-06,2024-12-06,合同会社楽,,合同会社,島根県,益田市,高津町ロ４３７番地５４,,32,204,6980041,,,,,,,2024-12-06,1,,,,,ラク,0
2435,9290001108235,新規,0,2024-12-06,2024-12-06,株式会社ＪＡＹ,,株式会社,福岡県,福岡市中央区,大名１丁目１４番２０号,,40,133,8100041,,,,,,,2024-12-06,1,,,,,ジェイ,0
2437,9290803004912,新規,0,2024-12-06,2024-12-06,合同会社ピュアラス,,合同会社,福岡県,豊前市,大字恒富５５番地１,,40,214,8280025,,,,,,,2024-12-06,1,,,,,ピュアラス,0
2439,9300001014002,新規,0,2024-12-06,2024-12-06,株式会社雅工房,,株式会社,佐賀県,神埼市,神埼町本告牟田１３７６番地１,,41,210,8420013,,,,,,,2024-12-06,1,,,,,ミヤビコウボウ,0
2444,9330003010673,新規,0,2024-12-06,2024-12-06,合同会社ウエストウォーク,,合同会社,熊本県,上益城郡御船町,大字小坂２４７０番地１０,,43,441,8613202,,,,,,,2024-12-06,1,,,,,ウエストウォーク,0
2451,9360001034498,新規,0,2024-12-06,2024-12-06,株式会社和光設備,,株式会社,沖縄県,中頭郡中城村,字奥間４０番地１,,47,328,9012412,,,,,,,2024-12-06,1,,,,,ワコウセツビ,0
2452,9360005007137,新規,0,2024-12-06,2024-12-06,一般社団法人ＷＳＫ協会,,その他の設立登記法人,沖縄県,那覇市,繁多川１丁目３番１７号コートブッレジ繁多川２０４,,47,201,9020071,,,,,,,2024-12-06,1,,,,,ダブリューエスケイキョウカイ,0
2455,9370001052012,新規,0,2024-12-06,2024-12-06,株式会社クローバープロ,,株式会社,宮城県,仙台市若林区,河原町１丁目２番２２－５号,,04,103,9840816,,,,,,,2024-12-06,1,,,,,クローバープロ,0
2456,9370001052029,新規,0,2024-12-06,2024-12-06,宮城ＫＴサービス株式会社,,株式会社,宮城県,仙台市太白区,茂庭台４丁目３番５－２０２号,,04,104,9820252,,,,,,,2024-12-06,1,,,,,ミヤギケーティーサービス,0
2461,9380001034967,新規,0,2024-12-06,2024-12-06,株式会社ＯＬＯ,,株式会社,福島県,いわき市,泉滝尻３丁目２番地の１２ＳＯＲＡＮＡ１Ａ,,07,204,9718189,,,,,,,2024-12-06,1,,,,,オーロ,0
2463,9390003002319,新規,0,2024-12-06,2024-12-06,合同会社ＰｌｕｓＯｎｅＮｅｘｔＳｔａｇｅ米沢,,合同会社,山形県,米沢市,桜木町１番６２号,,06,202,9920017,,,,,,,2024-12-06,1,,,,,プラスワンネクストステージヨネザワ,0
2474,9430001093223,新規,0,2024-12-06,2024-12-06,株式会社エム・ツー,,株式会社,北海道,室蘭市,中島町３丁目１４番１３号,,01,205,0500074,,,,,,,2024-12-06,1,,,,,エムツー,0
2478,9430003017048,新規,0,2024-12-06,2024-12-06,合同会社Ｎｉｇｒｏｎ　Ｗｏｒｋｓ,,合同会社,北海道,札幌市中央区,北十三条西１６丁目１番１９－１０１号,,01,101,0600013,,,,,,,2024-12-06,1,,,,,ニグロンワークス,0
2492,9700150128124,新規,0,2024-12-06,2024-12-06,其村土地改良区,,その他,三重県,津市,一志町八太１３５８番地１,,24,201,5152515,,,,,,,2024-12-06,1,,,,,ソノムラトチカイリヨウク,0
2493,9700150128140,新規,0,2024-12-06,2024-12-06,ＣＡＲＺＯＮＥ　ＥＮＴＥＲＰＲＩＳＥＳ,,外国会社等,千葉県,佐倉市,大篠塚２７７番地オフィス７,,12,212,2850806,スリランカ民主社会主義共和国、ウクウェラ、ライタラウェラ、Ｎｏ．９４,,,,,,2024-12-06,1,,,,,カーゾーンエンタープライズ,0
2494,9700150128149,新規,0,2024-12-06,2024-12-06,ＬＵＸＵＲＹ　ＭＯＴＯＲＳ,,外国会社等,神奈川県,愛甲郡愛川町,角田４６３８番地,,14,401,2430301,スリランカ民主社会主義共和国、コロンボ０２、ケウロード、５６／２９Ａ,,,,,,2024-12-06,1,,,,,ラグジユアリーモータース,0
