sequenceNumber,corporateNumber,process,correct,updateDate,changeDate,name,nameImageId,kind,prefectureName,cityName,streetNumber,addressImageId,prefectureCode,cityCode,postCode,addressOutside,addressOutsideImageId,closeDate,closeCause,successorCorporateNumber,changeCause,assignmentDate,latest,enName,enPrefectureName,enCityName,enAddressOutside,furigana,hihyoji
12,1010001226906,新規,0,2022-05-27,2022-05-27,Ａコモンズ株式会社,,株式会社,東京都,文京区,本駒込５丁目７３番９ジョイフル六義園９０３号,,13,105,1130021,,,,,,,2022-05-27,1,,,,,エーコモンズ,0
19,1010401167502,新規,0,2022-05-27,2022-05-27,Ｚｅｐｏｃｈ　Ｈｏｍｅ株式会社,,株式会社,東京都,港区,赤坂９丁目６－４２パレドール乃木坂２０２,,13,103,1070052,,,,,,,2022-05-27,1,,,,,ゼポックホーム,0
21,1010403027753,新規,0,2022-05-27,2022-05-27,Ｊａｌａｎ　Ｊａｌａｎ合同会社,,合同会社,東京都,港区,南青山２丁目２－１５ＷＩＮ青山５３１,,13,103,1070062,,,,,,,2022-05-27,1,,,,,ジャランジャラン,0
22,1010403027778,新規,0,2022-05-27,2022-05-27,合同会社ＩＭＥＸ北参道,,合同会社,東京都,港区,白金６丁目２１番１５号アイメックス白金５階,,13,103,1080072,,,,,,,2022-05-27,1,,,,,アイメックスキタサンドウ,0
26,1010503006599,新規,0,2022-05-27,2022-05-27,合同会社ＤＩインターナショナル,,合同会社,東京都,台東区,竜泉３丁目５－５－２０２,,13,106,1100012,,,,,,,2022-05-27,1,,,,,ディーアイインターナショナル,0
34,1010603009551,新規,0,2022-05-27,2022-05-27,合同会社ベンチャーパートナー,,合同会社,東京都,墨田区,業平５丁目１－１２,,13,107,1300002,,,,,,,2022-05-27,1,,,,,ベンチャーパートナー,0
35,1010701042710,新規,0,2022-05-27,2022-05-27,株式会社Ｔｏｍｏａｓｕ,,株式会社,東京都,品川区,上大崎２丁目１５番１９－８２５号,,13,109,1410021,,,,,,,2022-05-27,1,,,,,トモアス,0
39,1011001147596,新規,0,2022-05-27,2022-05-27,株式会社ＳＴＵＤＩＯ　ＨＵＩＴ,,株式会社,東京都,渋谷区,本町４丁目４２番９号３０８号室,,13,113,1510071,,,,,,,2022-05-27,1,,,,,スタジオユイット,0
40,1011001147704,新規,0,2022-05-27,2022-05-27,株式会社ＰｒｏｏｆＸ,,株式会社,東京都,渋谷区,渋谷２丁目１９－１５宮益坂ビルディング６０９,,13,113,1500002,,,,,,,2022-05-27,1,,,,,プルーフエックス,0
41,1011001147720,新規,0,2022-05-27,2022-05-27,ユーエフティー株式会社,,株式会社,東京都,渋谷区,道玄坂１丁目１０番８号渋谷道玄坂東急ビル２Ｆ－Ｃ,,13,113,1500043,,,,,,,2022-05-27,1,,,,,,0
42,1011001147737,新規,0,2022-05-27,2022-05-27,株式会社ＵＮＤＲＥＡＭ,,株式会社,東京都,渋谷区,神宮前６丁目２３－４桑野ビル２階,,13,113,1500001,,,,,,,2022-05-27,1,,,,,,0
52,1011101098970,新規,0,2022-05-27,2022-05-27,ＳＮ株式会社,,株式会社,東京都,新宿区,榎町３４－３榎町ビル５階,,13,104,1620806,,,,,,,2022-05-27,1,,,,,エスエヌ,0
54,1011103011790,新規,0,2022-05-27,2022-05-27,合同会社ジェイ・エス・エフ,,合同会社,東京都,新宿区,下宮比町１番４号,,13,104,1620822,,,,,,,2022-05-27,1,,,,,ジェイエスエフ,0
58,1011203003820,新規,0,2022-05-27,2022-05-27,伊予合同会社,,合同会社,東京都,中野区,江原町２丁目２１番７－５０４号,,13,114,1650023,,,,,,,2022-05-27,1,,,,,イヨ,0
69,1012801021602,新規,0,2022-05-27,2022-05-27,株式会社アフィフ,,株式会社,東京都,東大和市,清原４丁目１番地の１６－５０８,,13,220,2070011,,,,,,,2022-05-27,1,,,,,アフィフ,0
70,1012801021610,新規,0,2022-05-27,2022-05-27,株式会社ＡＲＣかつき,,株式会社,東京都,日野市,神明３丁目１７番地の９,,13,212,1910016,,,,,,,2022-05-27,1,,,,,エーアールシーカツキ,0
73,1013101008926,新規,0,2022-05-27,2022-05-27,株式会社ＳＦＩＤＡ,,株式会社,東京都,西多摩郡瑞穂町,大字長岡下師岡３９７番地５,,13,303,1901233,,,,,,,2022-05-27,1,,,,,スフィーダ,0
78,1013301049150,新規,0,2022-05-27,2022-05-27,太極株式会社,,株式会社,東京都,豊島区,池袋本町２丁目２３番１０－３０４号,,13,116,1700011,,,,,,,2022-05-27,1,,,,,タイキョク,0
84,1020001146632,新規,0,2022-05-27,2022-05-27,横浜ベイファクトリー株式会社,,株式会社,神奈川県,横浜市中区,花咲町３丁目９６番地１,,14,104,2310063,,,,,,,2022-05-27,1,,,,,ヨコハマベイファクトリー,0
86,1020003021833,新規,0,2022-05-27,2022-05-27,Ｍａｘｉｍａｌ　Ｐｏｗｅｒ合同会社,,合同会社,神奈川県,川崎市中原区,新丸子東２丁目８９７番地ルミエールハウス２０２,,14,133,2110004,,,,,,,2022-05-27,1,,,,,マキシマルパワー,0
89,1021001076068,新規,0,2022-05-27,2022-05-27,株式会社ＡＺＣ　ＳＴＥＰ,,株式会社,神奈川県,海老名市,大谷南４丁目１９番１３－２０２号,,14,215,2430418,,,,,,,2022-05-27,1,,,,,エーゼットシーステップ,0
94,1021003011741,新規,0,2022-05-27,2022-05-27,ミヤノハラ新電力販売合同会社,,合同会社,神奈川県,相模原市中央区,すすきの町１１―１,,14,152,2520213,,,,,,,2022-05-27,1,,,,,ミヤノハラシンデンリョクハンバイ,0
100,1030001148396,新規,0,2022-05-27,2022-05-27,株式会社メディカルリンク,,株式会社,埼玉県,八潮市,大瀬１丁目２番１１カーサヴェルデ八潮４０３号,,11,234,3400822,,,,,,,2022-05-27,1,,,,,メディカルリンク,0
109,1040001123596,新規,0,2022-05-27,2022-05-27,株式会社ＳＥＴＩＮ,,株式会社,千葉県,千葉市緑区,あすみが丘７丁目２番地１サンクレイドルあすみが丘４０１号,,12,105,2670066,,,,,,,2022-05-27,1,,,,,セットイン,0
112,1060001034908,新規,0,2022-05-27,2022-05-27,株式会社日本経営労務コンサルティンググループ,,株式会社,栃木県,足利市,山下町１３２９番地１２,,09,202,3260846,,,,,,,2022-05-27,1,,,,,ニホンケイエイロウムコンサルティンググループ,0
114,1070001039261,新規,0,2022-05-27,2022-05-27,株式会社マルダ,,株式会社,群馬県,高崎市,福島町７０４番地８,,10,202,3703523,,,,,,,2022-05-27,1,,,,,マルダ,0
117,1080001024964,新規,0,2022-05-27,2022-05-27,株式会社リージョン・フォース,,株式会社,静岡県,静岡市葵区,紺屋町１７番地の１葵タワー１Ｆ,,22,101,4200852,,,,,,,2022-05-27,1,,,,,リージョンフォース,0
118,1080101023305,新規,0,2022-05-27,2022-05-27,株式会社東海伝送アクト,,株式会社,静岡県,沼津市,若葉町１０番１３号フリッシュ・フレッタ１０６号,,22,203,4100059,,,,,,,2022-05-27,1,,,,,トウカイデンソウアクト,0
144,1120001246174,新規,0,2022-05-27,2022-05-27,平和教育動画株式会社,,株式会社,大阪府,大阪市西成区,千本南１丁目１３番２１号,,27,122,5570055,,,,,,,2022-05-27,1,,,,,ヘイワキョウイクドウガ,0
145,1120001246190,新規,0,2022-05-27,2022-05-27,株式会社Ｎｅｃｈｏ,,株式会社,大阪府,枚方市,北船橋町３９番地,,27,210,5731117,,,,,,,2022-05-27,1,,,,,エヌエコー,0
146,1120001246208,新規,0,2022-05-27,2022-05-27,株式会社ＬＩＮＥＣＴ,,株式会社,大阪府,大阪市生野区,小路東５丁目２番２４号,,27,116,5440003,,,,,,,2022-05-27,1,,,,,リネクト,0
151,1120903004167,新規,0,2022-05-27,2022-05-27,合同会社ｖｅｒｔｒｅｎｄ,,合同会社,大阪府,豊中市,上新田２丁目９－５－８０９,,27,203,5600085,,,,,,,2022-05-27,1,,,,,ヴェルトレンド,0
153,1122003002349,新規,0,2022-05-27,2022-05-27,Ａｃｒｏｓｓ合同会社,,合同会社,大阪府,東大阪市,大蓮東１丁目２３番２４号,00126679,27,227,5770824,,,,,,,2022-05-27,1,,,,,アクロス,0
157,1130001071844,新規,0,2022-05-27,2022-05-27,ｋｉｗａｍｉ株式会社,,株式会社,京都府,宇治市,伊勢田町大谷２２番地６１７号,,26,204,6110043,,,,,,,2022-05-27,1,,,,,キワミ,0
158,1130003007945,新規,0,2022-05-27,2022-05-27,Ｇ‐ｃａｓｔ　ｃｏｍｐａｎｙ合同会社,,合同会社,京都府,京都市中京区,柿本町３８７－１浦上ビル３階,,26,104,6048173,,,,,,,2022-05-27,1,,,,,ジーキャストカンパニー,0
163,1140001126135,新規,0,2022-05-27,2022-05-27,ＳＯＲＡ株式会社,,株式会社,兵庫県,姫路市,四郷町上鈴２５０番地２,,28,201,6710241,,,,,,,2022-05-27,1,,,,,ソラ,0
165,1140003017720,新規,0,2022-05-27,2022-05-27,合同会社アキコトレーディング,,合同会社,兵庫県,神戸市中央区,磯上通８丁目１番２９号カサベラビルＣ＆Ｍ４０３号室,,28,110,6510086,,,,,,,2022-05-27,1,,,,,アキコトレーディング,0
196,1210001018944,新規,0,2022-05-27,2022-05-27,株式会社恒潤,,株式会社,福井県,福井市,大町２丁目８０７番地３Ｆ,,18,201,9188116,,,,,,,2022-05-27,1,,,,,コウジュン,0
207,1240001059820,新規,0,2022-05-27,2022-05-27,株式会社ＡＩＴ,,株式会社,広島県,三原市,宗郷３丁目１４番６号,,34,204,7230044,,,,,,,2022-05-27,1,,,,,エーアイティー,0
219,1290001097667,新規,0,2022-05-27,2022-05-27,株式会社Ｄｅｓｉｇｎｓｈｉｐ,,株式会社,福岡県,飯塚市,伊岐須３８７番地１ＨＩＬＬ　ＳＩＤＥ１９号,,40,205,8200053,,,,,,,2022-05-27,1,,,,,デザインシップ,0
220,1290001097675,新規,0,2022-05-27,2022-05-27,株式会社樋口技建,00126682,株式会社,福岡県,福岡市早良区,田隈３丁目２３番８号,,40,137,8140174,,,,,,,2022-05-27,1,,,,,ヒグチギケン,0
221,1290001097683,新規,0,2022-05-27,2022-05-27,ＰＳＫ衣料株式会社,,株式会社,福岡県,福岡市早良区,田隈１丁目２３番９号,,40,137,8140174,,,,,,,2022-05-27,1,,,,,ピーエスケーイリョウ,0
225,1290003012558,新規,0,2022-05-27,2022-05-27,合同会社Ｇｏｌｄ　Ｓｔａｒ　Ｓｈｉｐ,,合同会社,福岡県,福岡市城南区,樋井川１丁目２番２９号,,40,136,8140153,,,,,,,2022-05-27,1,,,,,ゴールドスターシップ,0
227,1290801028565,新規,0,2022-05-27,2022-05-27,ｍｉｅｕｘ株式会社,,株式会社,福岡県,北九州市小倉北区,室町２丁目９番１号小倉Ｄ．Ｃ．ＴＯＷＥＲ１０１Ｂ,,40,106,8030812,,,,,,,2022-05-27,1,,,,,ミュウ,0
229,1300005007083,新規,0,2022-05-27,2022-05-27,医療法人真晴会,,その他の設立登記法人,佐賀県,佐賀市,木原１丁目２４番３８号,,41,201,8400015,,,,,,,2022-05-27,1,,,,,シンセイカイ,0
233,1330003009376,新規,0,2022-05-27,2022-05-27,合同会社ＡＳＯＶＥＮＴＵＲＡ,,合同会社,熊本県,阿蘇郡南阿蘇村,大字下野４５１－１,,43,433,8691402,,,,,,,2022-05-27,1,,,,,アソヴェントゥーラ,0
237,1340001024748,新規,0,2022-05-27,2022-05-27,株式会社ＡＴＡＲＩ技研,,株式会社,鹿児島県,鹿児島市,桜ヶ丘５丁目３３番地９,,46,201,8910175,,,,,,,2022-05-27,1,,,,,アタリギケン,0
239,1340005009464,新規,0,2022-05-27,2022-05-27,一般社団法人屋久島アカデミー,,その他の設立登記法人,鹿児島県,熊毛郡屋久島町,安房２５７１番地７７,,46,505,8914311,,,,,,,2022-05-27,1,,,,,ヤクシマアカデミー,0
240,1360001030455,新規,0,2022-05-27,2022-05-27,株式会社みやぎ農園ＡｇｒｉＰｌａｎ,,株式会社,沖縄県,南城市,大里字大里４９９番地,,47,215,9011202,,,,,,,2022-05-27,1,,,,,ミヤギノウエンアグリプラン,0
249,1370001048595,新規,0,2022-05-27,2022-05-27,株式会社ＰＡＲＡＤＩＧＭ　ＳＨＩＦＴ,,株式会社,宮城県,仙台市青葉区,宮町３丁目７番６－３号トゥリパーノ上杉３０１,,04,101,9800004,,,,,,,2022-05-27,1,,,,,パラダイムシフト,0
268,1450001013707,新規,0,2022-05-27,2022-05-27,株式会社エフアール企画,,株式会社,北海道,旭川市,三条通７丁目左７号,,01,204,0700033,,,,,,,2022-05-27,1,,,,,エフアールキカク,0
280,1500001024236,新規,0,2022-05-27,2022-05-27,ゆう企画株式会社,,株式会社,愛媛県,松山市,鷹子町５７７番地１４,,38,201,7900925,,,,,,,2022-05-27,1,,,,,ユウキカク,0
303,2010001226772,新規,0,2022-05-27,2022-05-27,株式会社Ｍｕｓａ,,株式会社,東京都,千代田区,大手町１丁目１番１号,,13,101,1000004,,,,,,,2022-05-27,1,,,,,ムーサ,0
304,2010001226830,新規,0,2022-05-27,2022-05-27,ＮＥ　Ｍａｒｉｎｅ　Ｓｅｒｖｉｃｅ株式会社,,株式会社,東京都,千代田区,内幸町１丁目２番２号,,13,101,1000011,,,,,,,2022-05-27,1,,,,,エヌイーマリーンサービス,0
305,2010001226913,新規,0,2022-05-27,2022-05-27,株式会社ＫＨＬ,,株式会社,東京都,中央区,築地６丁目１８番１０号,,13,102,1040045,,,,,,,2022-05-27,1,,,,,ケーエッチエル,0
306,2010001226954,新規,0,2022-05-27,2022-05-27,株式会社いくら,,株式会社,東京都,千代田区,一番町１３番１２号日興ロイヤルパレス一番町第二３０１号,,13,101,1020082,,,,,,,2022-05-27,1,,,,,イクラ,0
310,2010003037755,新規,0,2022-05-27,2022-05-27,ＴＯＭＯ　Ａｓｓｅｔ　Ｍａｎａｇｅｍｅｎｔ合同会社,,合同会社,東京都,文京区,西片２丁目１４番１３号,,13,105,1130024,,,,,,,2022-05-27,1,,,,,トモアセットマネジメント,0
321,2010501048881,新規,0,2022-05-27,2022-05-27,株式会社ＹＡＭＡＫＡＴＳＵ,,株式会社,東京都,台東区,元浅草４丁目１番１３号,,13,106,1110041,,,,,,,2022-05-27,1,,,,,ヤマカツ,0
326,2010603009550,新規,0,2022-05-27,2022-05-27,Ｐ＆Ｈ合同会社,,合同会社,東京都,江東区,富岡２丁目１１番１８号,,13,108,1350047,,,,,,,2022-05-27,1,,,,,ピーアンドエイチ,0
335,2010801032998,新規,0,2022-05-27,2022-05-27,株式会社ＲＥＲＵＬＥ,,株式会社,東京都,大田区,北糀谷１丁目１９番６号,,13,111,1440032,,,,,,,2022-05-27,1,,,,,リルール,0
341,2010903007403,新規,0,2022-05-27,2022-05-27,合同会社いとう,,合同会社,東京都,世田谷区,駒沢５丁目１５番１６号Ｙハウス２０１,,13,112,1540012,,,,,,,2022-05-27,1,,,,,イトウ,0
355,2011001147711,新規,0,2022-05-27,2022-05-27,株式会社ユークアンド,,株式会社,東京都,渋谷区,代官山町８－７Ｄａｉｗａ代官山ビル,,13,113,1500034,,,,,,,2022-05-27,1,,,,,ユークアンド,0
361,2011101098953,新規,0,2022-05-27,2022-05-27,株式会社グッドコムアセット投資顧問,,株式会社,東京都,新宿区,西新宿７丁目２０番１号住友不動産西新宿ビル,,13,104,1600023,,,,,,,2022-05-27,1,,,,,グッドコムアセットトウシコモン,0
363,2011301027803,新規,0,2022-05-27,2022-05-27,株式会社Ｍｅｉ　ｌｉ,,株式会社,東京都,杉並区,高円寺南２丁目４３－１０Ｒ．Ｓ．ＧＡＲＥＤＥＮ高円寺南１０３号室,,13,115,1660003,,,,,,,2022-05-27,1,,,,,メイリ,0
370,2011501028080,新規,0,2022-05-27,2022-05-27,クラウドフォース株式会社,,株式会社,東京都,北区,赤羽北１丁目８番１７号メインステージ赤羽北ＩＩ３０３号,00126674,13,117,1150052,,,,,,,2022-05-27,1,,,,,クラウドフォース,0
379,2013303006165,新規,0,2022-05-27,2022-05-27,夢合同会社,,合同会社,東京都,豊島区,南大塚２丁目１１番１０号ミモザビル３階,,13,116,1700005,,,,,,,2022-05-27,1,,,,,ユメ,0
384,2020001146615,新規,0,2022-05-27,2022-05-27,株式会社川崎不動産,,株式会社,神奈川県,川崎市川崎区,小川町１３番地８,,14,131,2100023,,,,,,,2022-05-27,1,,,,,,0
385,2020001146648,新規,0,2022-05-27,2022-05-27,株式会社ＴＳＤ,,株式会社,神奈川県,川崎市川崎区,中島３丁目１４番３号,,14,131,2100806,,,,,,,2022-05-27,1,,,,,ティーエスディー,0
390,2020005015543,新規,0,2022-05-27,2022-05-27,一般社団法人お名前書道協会,,その他の設立登記法人,神奈川県,横浜市南区,万世町１丁目１８番地１グランドガーラ横濱万世町２０５号,,14,105,2320032,,,,,,,2022-05-27,1,,,,,オナマエショドウキョウカイ,0
392,2021001076050,新規,0,2022-05-27,2022-05-27,株式会社ＵＰ　ＦＬＡＴ,,株式会社,神奈川県,平塚市,東真土４丁目２番５４号,,14,203,2540018,,,,,,,2022-05-27,1,,,,,アップフラット,0
393,2021001076059,新規,0,2022-05-27,2022-05-27,ＫＩ　Ｍｏｒｉｔｏ株式会社,,株式会社,神奈川県,三浦郡葉山町,堀内９９８シーサイド葉山２１１,,14,301,2400112,,,,,,,2022-05-27,1,,,,,ケーアイモリト,0
401,2030001148395,新規,0,2022-05-27,2022-05-27,株式会社ＡＶＲＩＬ,,株式会社,埼玉県,川口市,桜町２丁目５－９ニューさくらハイツ１０２号,,11,203,3340001,,,,,,,2022-05-27,1,,,,,アヴリル,0
419,2040001123570,新規,0,2022-05-27,2022-05-27,グルーヴィット株式会社,,株式会社,千葉県,習志野市,藤崎５丁目７番３号,,12,216,2750017,,,,,,,2022-05-27,1,,,,,グルーヴィット,0
422,2040005021630,新規,0,2022-05-27,2022-05-27,小金原第５コーポラス管理組合法人,,その他の設立登記法人,千葉県,松戸市,小金原２丁目１３番地５,,12,207,2700021,,,,,,,2022-05-27,1,,,,,コガネハラダイゴコーポラス,0
430,2070001039260,新規,0,2022-05-27,2022-05-27,千代田エステート株式会社,,株式会社,群馬県,邑楽郡千代田町,舞木東１５番地の２０,,10,523,3700507,,,,,,,2022-05-27,1,,,,,チヨダエステート,0
431,2080001024963,新規,0,2022-05-27,2022-05-27,株式会社静浜建工,,株式会社,静岡県,焼津市,宗高５３８番地,,22,212,4210205,,,,,,,2022-05-27,1,,,,,シズハマケンコウ,0
432,2080101023304,新規,0,2022-05-27,2022-05-27,株式会社Ｑｉｌｏｔ,,株式会社,静岡県,三島市,壱町田１１３番地の３７コウハイムＩＩ１０２,00126672,22,206,4110025,,,,,,,2022-05-27,1,,,,,キュイロット,0
435,2100001035363,新規,0,2022-05-27,2022-05-27,株式会社阿智総業,,株式会社,長野県,下伊那郡阿智村,伍和５３６１番地７,,20,407,3950302,,,,,,,2022-05-27,1,,,,,アチソウギョウ,0
436,2100003006560,新規,0,2022-05-27,2022-05-27,合同会社あにめ東京,,合同会社,長野県,松本市,埋橋１丁目１番１２号,,20,202,3900813,,,,,,,2022-05-27,1,,,,,アニメトウキョウ,0
442,2120001246149,新規,0,2022-05-27,2022-05-27,株式会社ＬＡＣ　ＨＯＮＧ,,株式会社,大阪府,大阪市浪速区,難波中３丁目８番１９号天扇ビル３０２号室,,27,111,5560011,,,,,,,2022-05-27,1,,,,,ラックホン,0
443,2120001246157,新規,0,2022-05-27,2022-05-27,株式会社ＴＭＴ,,株式会社,大阪府,大阪市北区,堂島浜１丁目１番１８号堂浜ビルディング３階,,27,127,5300004,,,,,,,2022-05-27,1,,,,,ティーエムティー,0
444,2120001246165,新規,0,2022-05-27,2022-05-27,株式会社ディーフード・ホールディングス,,株式会社,大阪府,大阪市福島区,福島７丁目２１番７号,,27,103,5530003,,,,,,,2022-05-27,1,,,,,ディーフードホールディングス,0
445,2120001246198,新規,0,2022-05-27,2022-05-27,ユニオンクラフト株式会社,,株式会社,大阪府,枚方市,上野３丁目８番１号,,27,210,5731175,,,,,,,2022-05-27,1,,,,,ユニオンクラフト,0
446,2120001246207,新規,0,2022-05-27,2022-05-27,株式会社ＦＬＹ,,株式会社,大阪府,大阪市中央区,東心斎橋１丁目３番５－９０１号,,27,128,5420083,,,,,,,2022-05-27,1,,,,,フライ,0
447,2120001246215,新規,0,2022-05-27,2022-05-27,株式会社Ｉｎｆｉｅｌｄ　Ｍａｎａｇｅｍｅｎｔ,,株式会社,大阪府,大阪市生野区,巽西３丁目７番２３号,00126680,27,116,5440012,,,,,,,2022-05-27,1,,,,,インフィールドマネジメント,0
453,2120901046020,新規,0,2022-05-27,2022-05-27,ＧＣ株式会社,,株式会社,大阪府,箕面市,粟生間谷東７丁目１番２１号,,27,220,5620022,,,,,,,2022-05-27,1,,,,,ジーシー,0
463,2130001071843,新規,0,2022-05-27,2022-05-27,株式会社プエンテ,,株式会社,京都府,向日市,上植野町鴨田８番８,,26,208,6170006,,,,,,,2022-05-27,1,,,,,プエンテ,0
464,2130003007952,新規,0,2022-05-27,2022-05-27,合同会社サンフェニックス,,合同会社,京都府,舞鶴市,字余部上５４番地の２５,,26,202,6250083,,,,,,,2022-05-27,1,,,,,サンフェニックス,0
471,2160001024229,新規,0,2022-05-27,2022-05-27,株式会社ジェイライズ,,株式会社,滋賀県,大津市,南郷上山町１２番２１号,,25,201,5200871,,,,,,,2022-05-27,1,,,,,ジェイライズ,0
488,2180001151442,新規,0,2022-05-27,2022-05-27,株式会社ＡＬＢＥＲＡ,,株式会社,愛知県,名古屋市名東区,名東本通３丁目５５－２メゾン・ド・星ケ丘セーヌ１階,,23,115,4650087,,,,,,,2022-05-27,1,,,,,アルベラ,0
492,2180003023870,新規,0,2022-05-27,2022-05-27,合同会社優好,,合同会社,愛知県,一宮市,東五城字寺廓２６６番地５つぐみ１０２号,,23,203,4940008,,,,,,,2022-05-27,1,,,,,ユズキ,0
494,2180301036260,新規,0,2022-05-27,2022-05-27,株式会社エクステリア中山,,株式会社,愛知県,みよし市,三好丘桜４丁目２番地９,,23,236,4700204,,,,,,,2022-05-27,1,,,,,エクステリアナカヤマ,0
502,2200003005577,新規,0,2022-05-27,2022-05-27,アクルックス合同会社,,合同会社,岐阜県,岐阜市,下鵜飼１８４３－１１,,21,201,5011172,,,,,,,2022-05-27,1,,,,,アクルックス,0
517,2260001036882,新規,0,2022-05-27,2022-05-27,株式会社パブス,,株式会社,岡山県,岡山市南区,泉田２丁目６番８号ポレスター芳泉７０４号,,33,104,7000944,,,,,,,2022-05-27,1,,,,,,0
521,2290001097674,新規,0,2022-05-27,2022-05-27,Ａｐｏｌｌｏ　ｗｏｒｋ株式会社,,株式会社,福岡県,福岡市博多区,対馬小路１番３号,,40,132,8120020,,,,,,,2022-05-27,1,,,,,アポロワーク,0
522,2290001097682,新規,0,2022-05-27,2022-05-27,株式会社Ｅｍ,,株式会社,福岡県,福岡市中央区,清川２丁目１番２１号,,40,133,8100005,,,,,,,2022-05-27,1,,,,,イーマイナー,0
523,2290003012549,新規,0,2022-05-27,2022-05-27,ａｒｃｈ　ｇｍ合同会社,,合同会社,福岡県,大川市,大字三丸３８番地３,,40,212,8310026,,,,,,,2022-05-27,1,,,,,アーチジーエム,0
525,2290801028564,新規,0,2022-05-27,2022-05-27,株式会社旬緑花建設,,株式会社,福岡県,北九州市戸畑区,中原東１丁目２０番１１－３０３号,,40,105,8040012,,,,,,,2022-05-27,1,,,,,シュンリョッカケンセツ,0
530,2320003003809,新規,0,2022-05-27,2022-05-27,合同会社クオリティアップ,,合同会社,大分県,臼杵市,大字末広７８８番地,,44,206,8750022,,,,,,,2022-05-27,1,,,,,クオリティアップ,0
538,2380005012587,新規,0,2022-05-27,2022-05-27,一般社団法人道乃風絆の会,,その他の設立登記法人,福島県,二本松市,安達ケ原１丁目１１１番地１,,07,210,9640938,,,,,,,2022-05-27,1,,,,,ミチノカゼキズナノカイ,0
539,2420001017866,新規,0,2022-05-27,2022-05-27,株式会社クリエイトＸ,,株式会社,青森県,八戸市,西白山台５丁目３番１７号,,02,203,0391113,,,,,,,2022-05-27,1,,,,,クリエイトエックス,0
543,2430001086712,新規,0,2022-05-27,2022-05-27,株式会社楓,,株式会社,北海道,札幌市北区,北二十五条西６丁目２番１グロリア２５　２０３号,,01,102,0010025,,,,,,,2022-05-27,1,,,,,カエデ,0
549,2430003013961,新規,0,2022-05-27,2022-05-27,合同会社カクサンドリーム,,合同会社,北海道,札幌市清田区,清田七条３丁目２４番２３号,,01,110,0040847,,,,,,,2022-05-27,1,,,,,カクサンドリーム,0
551,2430005014479,新規,0,2022-05-27,2022-05-27,一般社団法人日本少数民族文化経済交流協会,,その他の設立登記法人,北海道,千歳市,錦町２丁目３０番地１　２Ｆ,,01,224,0660064,,,,,,,2022-05-27,1,,,,,ニッポンショウスウミンゾクブンカケイザイコウリュウキョウカイ,0
554,2450001013706,新規,0,2022-05-27,2022-05-27,株式会社エスレーベン,,株式会社,北海道,旭川市,末広東二条２丁目５番１１号,,01,204,0718122,,,,,,,2022-05-27,1,,,,,エスレーベン,0
563,2500001024235,新規,0,2022-05-27,2022-05-27,株式会社Ｎｎ．ｋｍ,,株式会社,愛媛県,松山市,安城寺町４８４番地１・２Ｆ,,38,201,7918006,,,,,,,2022-05-27,1,,,,,エヌエヌドットコム,0
571,3010001226895,新規,0,2022-05-27,2022-05-27,株式会社ハック,,株式会社,東京都,中央区,新川１丁目１６番７－５０３号,,13,102,1040033,,,,,,,2022-05-27,1,,,,,ハック,0
576,3010003037762,新規,0,2022-05-27,2022-05-27,ＵＮＶ　ＤＩＧＩＴＡＬ　ＴＥＣＨＮＯＬＯＧＩＥＳ　ＪＡＰＡＮ合同会社,,合同会社,東京都,中央区,銀座１丁目２２番１１号銀座大竹ビジデンス２階,,13,102,1040061,,,,,,,2022-05-27,1,,,,,ユーエヌヴィーデジタルテクノロジーズジャパン,0
577,3010103001924,新規,0,2022-05-27,2022-05-27,ＴＭ．Ｓｔｙｌｅ合同会社,,合同会社,東京都,八王子市,別所１丁目１７番１６号,,13,201,1920363,,,,,,,2022-05-27,1,,,,,ティーエムスタイル,0
586,3010403027454,新規,0,2022-05-27,2022-05-27,合同会社エイジングライフデザイン,,合同会社,東京都,港区,南青山２丁目２番１５号ウィン青山１３２９,,13,103,1070062,,,,,,,2022-05-27,1,,,,,エイジングライフデザイン,0
587,3010403027669,新規,0,2022-05-27,2022-05-27,合同会社はぴ音,,合同会社,東京都,港区,六本木７丁目２１番２１号ウォーカー２１,,13,103,1060032,,,,,,,2022-05-27,1,,,,,ハピオン,0
588,3010403027751,新規,0,2022-05-27,2022-05-27,ＴＹＹＴ合同会社,,合同会社,東京都,港区,六本木７丁目６番１８－２６０１号,,13,103,1060032,,,,,,,2022-05-27,1,,,,,ティーワイワイティー,0
595,3010601061206,新規,0,2022-05-27,2022-05-27,株式会社三惺,,株式会社,東京都,江東区,古石場２丁目１４番１－１０５号,,13,108,1350045,,,,,,,2022-05-27,1,,,,,サンセイ,0
599,3010903007393,新規,0,2022-05-27,2022-05-27,合同会社Ｒｏｕｔｅ７２３,,合同会社,東京都,世田谷区,赤堤２丁目８番１３号,,13,112,1560044,,,,,,,2022-05-27,1,,,,,ルートナナニサン,0
600,3010903007402,新規,0,2022-05-27,2022-05-27,レストレード合同会社,,合同会社,東京都,世田谷区,等々力３丁目２３－３,,13,112,1580082,,,,,,,2022-05-27,1,,,,,,0
604,3011003014743,新規,0,2022-05-27,2022-05-27,合同会社Ｄｏｒｏｔｈｙ,,合同会社,東京都,渋谷区,笹塚３丁目１１－４オリーブ笹塚Ａ棟２０１,,13,113,1510073,,,,,,,2022-05-27,1,,,,,ドロシー,0
609,3011101098969,新規,0,2022-05-27,2022-05-27,株式会社エイト,,株式会社,東京都,新宿区,西新宿３丁目３番１３号西新宿水間ビル６階,,13,104,1600023,,,,,,,2022-05-27,1,,,,,エイト,0
614,3011103011789,新規,0,2022-05-27,2022-05-27,合同会社ジェイ・エス・イー,,合同会社,東京都,新宿区,下宮比町１番４号,,13,104,1620822,,,,,,,2022-05-27,1,,,,,ジェイエスイー,0
644,3020001146647,新規,0,2022-05-27,2022-05-27,株式会社Ｏｎｅ　Ａｆｔｅｒ　Ｎｅｘｔ,,株式会社,神奈川県,横浜市中区,長者町９丁目１５８番地ニューシティビル５０７号,,14,104,2310033,,,,,,,2022-05-27,1,,,,,ワンアフターネクスト,0
645,3020001146655,新規,0,2022-05-27,2022-05-27,株式会社ケアセンターカノア,,株式会社,神奈川県,川崎市中原区,井田１丁目７番３０号,,14,133,2110035,,,,,,,2022-05-27,1,,,,,ケアセンターカノア,0
650,3020003021823,新規,0,2022-05-27,2022-05-27,グレート・コンサルティング合同会社,,合同会社,神奈川県,横浜市瀬谷区,五貫目町１０番地１２９,,14,114,2460008,,,,,,,2022-05-27,1,,,,,グレートコンサルティング,0
670,3040001123545,新規,0,2022-05-27,2022-05-27,Ｆｒａｃｔｉｏｎａｌ　Ｃｏｏｐｅｒａｔｉｏｎ株式会社,,株式会社,千葉県,柏市,高田５５番地３７号,,12,217,2770861,,,,,,,2022-05-27,1,,,,,フラクショナルコオペレイション,0
671,3040001123594,新規,0,2022-05-27,2022-05-27,株式会社ＦＡＲｏｕｔｅｒ,,株式会社,千葉県,千葉市若葉区,千城台南２丁目３番１号,,12,104,2640003,,,,,,,2022-05-27,1,,,,,ファーアウター,0
676,3040003020113,新規,0,2022-05-27,2022-05-27,合同会社Ｆｌｏｗｉｓｍ,,合同会社,千葉県,鴨川市,貝渚８５１番地９,,12,223,2960004,,,,,,,2022-05-27,1,,,,,フローウィズム,0
681,3060001034914,新規,0,2022-05-27,2022-05-27,株式会社グッドヴィレッジ,,株式会社,栃木県,鹿沼市,西茂呂４丁目２７番地２１,,09,205,3220029,,,,,,,2022-05-27,1,,,,,グッドヴィレッジ,0
694,3110003004769,新規,0,2022-05-27,2022-05-27,ＳＡＫＵＲＡ美合同会社,,合同会社,新潟県,五泉市,三本木１丁目６番２３号,,15,218,9591811,,,,,,,2022-05-27,1,,,,,サクラビ,0
702,3120001246131,新規,0,2022-05-27,2022-05-27,幸縁株式会社,,株式会社,大阪府,大阪市鶴見区,緑１丁目７番５号４０６号,,27,124,5380054,,,,,,,2022-05-27,1,,,,,コウエン,0
703,3120001246148,新規,0,2022-05-27,2022-05-27,株式会社ジョブスマ,,株式会社,大阪府,大阪市中央区,南船場２丁目１０番２１号日宝サンキュービル６階２号,,27,128,5420081,,,,,,,2022-05-27,1,,,,,ジョブスマ,0
704,3120001246156,新規,0,2022-05-27,2022-05-27,株式会社アドモット,,株式会社,大阪府,大阪市福島区,福島４丁目３番２３－３４０２号,,27,103,5530003,,,,,,,2022-05-27,1,,,,,アドモット,0
706,3120003021697,新規,0,2022-05-27,2022-05-27,合同会社かつお,,合同会社,大阪府,大阪市北区,梅田１丁目２番２号大阪駅前第２ビル２階５－６号,,27,127,5300001,,,,,,,2022-05-27,1,,,,,カツオ,0
726,3140001126100,新規,0,2022-05-27,2022-05-27,株式会社神戸ＭＪＷ,,株式会社,兵庫県,神戸市中央区,北長狭通２丁目３０番４９号,,28,110,6500012,,,,,,,2022-05-27,1,,,,,コウベエムジェイダブリュウ,0
727,3140001126133,新規,0,2022-05-27,2022-05-27,株式会社ちょっと恋,,株式会社,兵庫県,豊岡市,城崎町湯島７５０番地,,28,209,6696101,,,,,,,2022-05-27,1,,,,,チョットコイ,0
730,3140005026189,新規,0,2022-05-27,2022-05-27,一般社団法人関西プロアスリートベースボール倶楽部,,その他の設立登記法人,兵庫県,西脇市,西脇８９１番地,,28,213,6770015,,,,,,,2022-05-27,1,,,,,カンサイプロアスリートベースボールクラブ,0
742,3180301036251,新規,0,2022-05-27,2022-05-27,ポノス株式会社,,株式会社,愛知県,豊田市,広路町２丁目２０番地,,23,211,4710864,,,,,,,2022-05-27,1,,,,,ポノス,0
745,3200001040096,新規,0,2022-05-27,2022-05-27,株式会社信和,,株式会社,岐阜県,岐阜市,三田洞東５丁目１５番地３,,21,201,5020003,,,,,,,2022-05-27,1,,,,,シンワ,0
758,3240001059810,新規,0,2022-05-27,2022-05-27,株式会社雅,,株式会社,広島県,世羅郡世羅町,大字本郷１８２番地１,,34,462,7221112,,,,,,,2022-05-27,1,,,,,ミヤビ,0
764,3260001036881,新規,0,2022-05-27,2022-05-27,ＨＡＴＥＮＡＳＨＩ株式会社,,株式会社,岡山県,岡山市北区,本町６番３６号第一セントラルビル４Ｆ,,33,101,7000901,,,,,,,2022-05-27,1,,,,,ハテナシ,0
768,3290001097673,新規,0,2022-05-27,2022-05-27,株式会社ケース・ラーニング,,株式会社,福岡県,福岡市中央区,小笹２丁目１１番２９－４１０号,,40,133,8100033,,,,,,,2022-05-27,1,,,,,ケースラーニング,0
769,3290001097681,新規,0,2022-05-27,2022-05-27,株式会社ＬＩＤＥＡＭ,,株式会社,福岡県,福岡市南区,那の川１丁目２３番２４－２０２号,,40,134,8150081,,,,,,,2022-05-27,1,,,,,リデアム,0
777,3320003003816,新規,0,2022-05-27,2022-05-27,山栗のさと合同会社,,合同会社,大分県,佐伯市,宇目大字小野市４４４８番地５,,44,205,8793301,,,,,,,2022-05-27,1,,,,,ヤマグリノサト,0
778,3330001029762,新規,0,2022-05-27,2022-05-27,株式会社プレシア,,株式会社,熊本県,山鹿市,鹿校通１丁目１９番１６号,,43,208,8610532,,,,,,,2022-05-27,1,,,,,プレシア,0
792,3410003003666,新規,0,2022-05-27,2022-05-27,合同会社ショクタク,,合同会社,秋田県,秋田市,牛島西４丁目２３番６号,,05,201,0100063,,,,,,,2022-05-27,1,,,,,ショクタク,0
794,3420001017865,新規,0,2022-05-27,2022-05-27,株式会社日興ＩＮ商事,,株式会社,青森県,三戸郡三戸町,大字川守田字沖中５１番地１５,,02,441,0390141,,,,,,,2022-05-27,1,,,,,ニッコウアイエヌショウジ,0
798,3430001086736,新規,0,2022-05-27,2022-05-27,株式会社豊沢商会,,株式会社,北海道,勇払郡厚真町,字豊沢１２４番地４,,01,581,0591624,,,,,,,2022-05-27,1,,,,,トヨサワショウカイ,0
799,3430001086744,新規,0,2022-05-27,2022-05-27,株式会社グリーンジャパン,,株式会社,北海道,札幌市中央区,南八条西２０丁目１番２１号,,01,101,0640808,,,,,,,2022-05-27,1,,,,,グリーンジャパン,0
801,3430003013960,新規,0,2022-05-27,2022-05-27,合同会社セルシム,,合同会社,北海道,札幌市豊平区,月寒中央通７丁目３番２０－７０５号,,01,105,0620020,,,,,,,2022-05-27,1,,,,,セルシム,0
817,3500001024234,新規,0,2022-05-27,2022-05-27,株式会社小椋美術,,株式会社,愛媛県,松山市,平井町甲２５１０番地７,,38,201,7910243,,,,,,,2022-05-27,1,,,,,オグラビジュツ,0
819,3700150108775,新規,0,2022-05-27,2022-05-18,柊会,,その他,東京都,大田区,田園調布５丁目１１－１６,,13,111,1450071,,,,,,,2022-05-18,1,,,,,ヒイラギカイ,0
820,3700150108932,新規,0,2022-05-27,2022-05-24,いきなり　Ｄａｎｃｅ　Ｆｕｎｃｔｉｏｎ　Ｍ,,その他,埼玉県,朝霞市,泉水１丁目３－３－５０２,,11,227,3510024,,,,,,,2022-05-24,1,,,,,イキナリダンスフアンクシヨンエム,0
830,4010001226820,新規,0,2022-05-27,2022-05-27,ＡｎｄＣＯＬＯＲＳ株式会社,,株式会社,東京都,中央区,銀座１丁目２２番１１号,,13,102,1040061,,,,,,,2022-05-27,1,,,,,アンドカラーズ,0
833,4010003037761,新規,0,2022-05-27,2022-05-27,花純ナチュラルズ合同会社,,合同会社,東京都,中央区,新川１丁目２７番８号新川大原ビル８階,,13,102,1040033,,,,,,,2022-05-27,1,,,,,カスミナチュラルズ,0
838,4010103001923,新規,0,2022-05-27,2022-05-27,フォレストガーデン合同会社,,合同会社,東京都,八王子市,鑓水１９４０番３号,,13,201,1920375,,,,,,,2022-05-27,1,,,,,,0
848,4010403027750,新規,0,2022-05-27,2022-05-27,Ａｌｃａｎｆｏｒｅｒｏ合同会社,,合同会社,東京都,港区,南青山２丁目２番１５号,,13,103,1070062,,,,,,,2022-05-27,1,,,,,アルカンフォレロ,0
849,4010501048888,新規,0,2022-05-27,2022-05-27,不動産管理乃安株式会社,,株式会社,東京都,台東区,谷中７丁目１９番３号,,13,106,1100001,,,,,,,2022-05-27,1,,,,,フドウサンカンリノア,0
853,4010901050915,新規,0,2022-05-27,2022-05-27,株式会社マグノリア,,株式会社,東京都,世田谷区,上北沢１丁目３５番８号－２,,13,112,1560057,,,,,,,2022-05-27,1,,,,,マグノリア,0
855,4011001147692,新規,0,2022-05-27,2022-05-27,Ｊａｔｅｋ株式会社,,株式会社,東京都,目黒区,中町２丁目１３番１５号ミッドテラス祐天寺１０３,,13,110,1530065,,,,,,,2022-05-27,1,,,,,ジャテック,0
866,4011403003675,新規,0,2022-05-27,2022-05-27,ＢＫＹ合同会社,,合同会社,東京都,板橋区,大山西町１０番８号,,13,119,1730033,,,,,,,2022-05-27,1,,,,,ビーケーワイ,0
867,4011601025991,新規,0,2022-05-27,2022-05-27,株式会社千,,株式会社,東京都,練馬区,羽沢２丁目２３－２７,,13,120,1760003,,,,,,,2022-05-27,1,,,,,セン,0
871,4012401039240,新規,0,2022-05-27,2022-05-27,株式会社愛永福,,株式会社,東京都,調布市,染地３丁目１番地１３３多摩川住宅ロ７－４０４号,,13,208,1820023,,,,,,,2022-05-27,1,,,,,アイエイフク,0
875,4013303006171,新規,0,2022-05-27,2022-05-27,ｃｈｉｌｌｉｎｇ合同会社,,合同会社,東京都,豊島区,西池袋２丁目２４番７号,,13,116,1710021,,,,,,,2022-05-27,1,,,,,チリング,0
880,4020001146646,新規,0,2022-05-27,2022-05-27,株式会社ハイドロー,,株式会社,神奈川県,横浜市青葉区,恩田町９８５番地３ＢＥＬＬＣＯＵＲＴ３－２Ｆ,,14,117,2270065,,,,,,,2022-05-27,1,,,,,ハイドロー,0
886,4021003011722,新規,0,2022-05-27,2022-05-27,合同会社Ｍ＆Ｍ,,合同会社,神奈川県,座間市,緑ケ丘６丁目１１－１９中沢倉庫２階２０２,,14,216,2520021,,,,,,,2022-05-27,1,,,,,エムアンドエム,0
902,4030003019460,新規,0,2022-05-27,2022-05-27,合同会社原田,,合同会社,埼玉県,久喜市,久喜東２丁目５番８号,,11,232,3460016,,,,,,,2022-05-27,1,,,,,ハラダ,0
903,4030003019485,新規,0,2022-05-27,2022-05-27,合同会社ＦＩＥＬＤ　ＣＨＡＩＮ　ＩＮＮＯＶＡＴＩＯＮ,,合同会社,埼玉県,さいたま市中央区,鈴谷５丁目９番３２号,,11,105,3380013,,,,,,,2022-05-27,1,,,,,フィールドチェインイノヴェーション,0
910,4040003020104,新規,0,2022-05-27,2022-05-27,雅音貿易合同会社,,合同会社,千葉県,佐倉市,井野１５８６番地２５Ａ棟２０５号,,12,212,2850855,,,,,,,2022-05-27,1,,,,,カノンボウエキ,0
924,4080403004545,新規,0,2022-05-27,2022-05-27,合同会社ＡＴＳＵＭＡＩ,,合同会社,静岡県,浜松市中区,佐藤１丁目１０番３号,,22,131,4300807,,,,,,,2022-05-27,1,,,,,アツマイ,0
925,4090001017592,新規,0,2022-05-27,2022-05-27,株式会社３Ｐｉｅｃｅ,,株式会社,山梨県,甲府市,後屋町７３７番地３－２Ｆ,,19,201,4000045,,,,,,,2022-05-27,1,,,,,スリーピース,0
933,4120001246097,新規,0,2022-05-27,2022-05-27,安蓮商事株式会社,,株式会社,大阪府,大阪市中央区,内本町２丁目３－１１内本町グリーンビル７Ｆ,,27,128,5400026,,,,,,,2022-05-27,1,,,,,アンレンショウジ,0
934,4120001246122,新規,0,2022-05-27,2022-05-27,元品貿易株式会社,,株式会社,大阪府,大阪市中央区,島之内２丁目５－３３－１階,,27,128,5420082,,,,,,,2022-05-27,1,,,,,ゲンピンボウエキ,0
935,4120001246130,新規,0,2022-05-27,2022-05-27,株式会社クリエイト,,株式会社,大阪府,大阪市天王寺区,筆ケ崎町２番１７号,,27,109,5430027,,,,,,,2022-05-27,1,,,,,クリエイト,0
936,4120001246188,新規,0,2022-05-27,2022-05-27,ＶＡＣＩＯ株式会社,,株式会社,大阪府,大阪市北区,浪花町１３－３８,,27,127,5300022,,,,,,,2022-05-27,1,,,,,バシオ,0
937,4120001246205,新規,0,2022-05-27,2022-05-27,株式会社つきのわ,,株式会社,大阪府,大阪市阿倍野区,北畠１丁目６番３２号,,27,119,5450035,,,,,,,2022-05-27,1,,,,,ツキノワ,0
939,4120003021770,新規,0,2022-05-27,2022-05-27,合同会社遠藤,,合同会社,大阪府,大阪市北区,曾根崎新地１丁目６番８号,,27,127,5300002,,,,,,,2022-05-27,1,,,,,エンドウ,0
952,4130001071841,新規,0,2022-05-27,2022-05-27,株式会社ティケイアセット,,株式会社,京都府,京都市中京区,河原町通二条下る二丁目下丸屋町４０３番地,,26,104,6040000,,,,,,,2022-05-27,1,,,,,ティケイアセット,0
957,4170001017122,新規,0,2022-05-27,2022-05-27,株式会社ＳＫホーム,,株式会社,和歌山県,和歌山市,東高松２丁目５番１８号,,30,201,6410052,,,,,,,2022-05-27,1,,,,,エスケーホーム,0
959,4170003001727,新規,0,2022-05-27,2022-05-27,合同会社フリーファミリーズ,,合同会社,和歌山県,西牟婁郡上富田町,岩田２８３７番地の４,,30,404,6492102,,,,,,,2022-05-27,1,,,,,フリーファミリーズ,0
965,4190001029438,新規,0,2022-05-27,2022-05-27,西條工業株式会社,,株式会社,三重県,四日市市,桜町６９６２番地５,,24,202,5121211,,,,,,,2022-05-27,1,,,,,サイジョウコウギョウ,0
978,4260001036880,新規,0,2022-05-27,2022-05-27,カイロス不動産株式会社,,株式会社,岡山県,倉敷市,福田町古新田１２０９番地１１,,33,202,7128046,,,,,,,2022-05-27,1,,,,,カイロスフドウサン,0
979,4260003003920,新規,0,2022-05-27,2022-05-27,合同会社美真,,合同会社,岡山県,岡山市北区,京橋町４番５号,,33,101,7000831,,,,,,,2022-05-27,1,,,,,ビシン,0
984,4290001097672,新規,0,2022-05-27,2022-05-27,株式会社ホームねット,,株式会社,福岡県,福岡市博多区,住吉５丁目２７番４号,,40,132,8120018,,,,,,,2022-05-27,1,,,,,ホームネット,0
985,4290001097680,新規,0,2022-05-27,2022-05-27,株式会社いの,,株式会社,福岡県,福岡市西区,愛宕浜１丁目１１番１１号,,40,135,8190013,,,,,,,2022-05-27,1,,,,,イノ,0
989,4290803004132,新規,0,2022-05-27,2022-05-27,合同会社しるべ,,合同会社,福岡県,北九州市小倉北区,朝日ケ丘２番１－６０３号,,40,106,8030833,,,,,,,2022-05-27,1,,,,,シルベ,0
992,4320001019086,新規,0,2022-05-27,2022-05-27,株式会社Ｌｉｖｉｎｇ　Ｐｌａｚａ,,株式会社,大分県,大分市,大字津守１１９５番地,,44,201,8700945,,,,,,,2022-05-27,1,,,,,リビングプラザ,0
994,4340001024745,新規,0,2022-05-27,2022-05-27,株式会社前園工業,,株式会社,鹿児島県,鹿児島市,南郡元町９番７－２０３号,,46,201,8900069,,,,,,,2022-05-27,1,,,,,マエゾノコウギョウ,0
996,4370003005708,新規,0,2022-05-27,2022-05-27,ＯＭＩＴＳＵ合同会社,,合同会社,宮城県,仙台市宮城野区,原町２丁目５－５７,,04,102,9830841,,,,,,,2022-05-27,1,,,,,オミツ,0
998,4390003001960,新規,0,2022-05-27,2022-05-27,合同会社コンサポ,,合同会社,山形県,東村山郡山辺町,大字山辺１９４３番地２,,06,301,9900301,,,,,,,2022-05-27,1,,,,,コンサポ,0
1010,4430001086727,新規,0,2022-05-27,2022-05-27,株式会社Ｒｏｏｆｔｅｃｈ‐Ａｄｖａｎｃｅ,,株式会社,北海道,江別市,文京台南町４５番地の２,,01,217,0690835,,,,,,,2022-05-27,1,,,,,ルーフテックアドバンス,0
1015,4430005014477,新規,0,2022-05-27,2022-05-27,協同組合ジェイサポート,,その他の設立登記法人,北海道,札幌市中央区,南一条東４丁目７番地,,01,101,0600051,,,,,,,2022-05-27,1,,,,,ジェイサポート,0
1017,4480001011746,新規,0,2022-05-27,2022-05-27,株式会社エカッソ,,株式会社,徳島県,徳島市,中島田町３丁目３１稲原ハイツ１０１号,,36,201,7700052,,,,,,,2022-05-27,1,,,,,エカッソ,0
1018,4500001024233,新規,0,2022-05-27,2022-05-27,株式会社ＵＥ,,株式会社,愛媛県,宇和島市,中央町２丁目４番８号２階,,38,203,7980040,,,,,,,2022-05-27,1,,,,,ユーイー,0
1039,5010001226885,新規,0,2022-05-27,2022-05-27,シンギュラリティ・アセットマネジメント株式会社,,株式会社,東京都,中央区,日本橋３丁目６番２号,,13,102,1030027,,,,,,,2022-05-27,1,,,,,シンギュラリティアセットマネジメント,0
1040,5010001226919,新規,0,2022-05-27,2022-05-27,Ｎｏｔｔａ株式会社,,株式会社,東京都,中央区,日本橋１丁目２番１０号東洋ビル５階,,13,102,1030027,,,,,,,2022-05-27,1,,,,,ノッタ,0
1041,5010001226943,新規,0,2022-05-27,2022-05-27,株式会社ＡＫインベストメント,,株式会社,東京都,中央区,銀座１丁目２２番１１号銀座大竹ビジデンス２階,,13,102,1040061,,,,,,,2022-05-27,1,,,,,エーケーインベストメント,0
1042,5010001226951,新規,0,2022-05-27,2022-05-27,株式会社Ｋａｒｅｎ’ｓ,,株式会社,東京都,中央区,勝どき１丁目１３－６プラザタワー勝どき１７０３,,13,102,1040054,,,,,,,2022-05-27,1,,,,,カレンズ,0
1061,5010401167291,新規,0,2022-05-27,2022-05-27,株式会社スチェッソ,,株式会社,東京都,港区,赤坂２丁目２０番７号第２成光ビル３０６,,13,103,1070052,,,,,,,2022-05-27,1,,,,,スチェッソ,0
1062,5010401167564,新規,0,2022-05-27,2022-05-27,ビズアップホールディングス株式会社,,株式会社,東京都,港区,東新橋１丁目５番２号,,13,103,1050021,,,,,,,2022-05-27,1,,,,,ビズアップホールディングス,0
1067,5010501048887,新規,0,2022-05-27,2022-05-27,ＭＳ万紫株式会社,,株式会社,東京都,台東区,東上野５丁目１－８上野富士ビル８階,,13,106,1100015,,,,,,,2022-05-27,1,,,,,エムエスバンシ,0
1072,5010603009548,新規,0,2022-05-27,2022-05-27,合同会社さくら不動産,,合同会社,東京都,江東区,豊洲６丁目２番２９－５１７号,,13,108,1350061,,,,,,,2022-05-27,1,,,,,サクラフドウサン,0
1076,5010901050930,新規,0,2022-05-27,2022-05-27,株式会社ＢＡＲ’Ｓ,,株式会社,東京都,世田谷区,太子堂４丁目２０番３号ひのき三軒茶屋ビルＢ１,,13,112,1540004,,,,,,,2022-05-27,1,,,,,バーズ,0
1081,5011001147717,新規,0,2022-05-27,2022-05-27,株式会社シンクエンタ,,株式会社,東京都,目黒区,目黒本町４丁目２０番３８号,,13,110,1520002,,,,,,,2022-05-27,1,,,,,,0
1082,5011001147741,新規,0,2022-05-27,2022-05-27,株式会社ＲＩＮＧ,,株式会社,東京都,渋谷区,渋谷２丁目１９番１５号宮益坂ビルディング６０９,,13,113,1500002,,,,,,,2022-05-27,1,,,,,リング,0
1083,5011001147758,新規,0,2022-05-27,2022-05-27,株式会社エンガード,,株式会社,東京都,渋谷区,渋谷１丁目３番９号,,13,113,1500002,,,,,,,2022-05-27,1,,,,,エンガード,0
1084,5011001147766,新規,0,2022-05-27,2022-05-27,株式会社あくとえいと,,株式会社,東京都,渋谷区,円山町５番５号Ｎａｖｉ渋谷Ｖ３階,00126677,13,113,1500044,,,,,,,2022-05-27,1,,,,,アクトエイト,0
1088,5011103011795,新規,0,2022-05-27,2022-05-27,合同会社エムズアート,,合同会社,東京都,新宿区,新小川町５－４,,13,104,1620814,,,,,,,2022-05-27,1,,,,,エムズアート,0
1090,5011403003674,新規,0,2022-05-27,2022-05-27,合同会社ＭＺＫ,,合同会社,東京都,板橋区,大谷口１丁目３７－１２,,13,119,1730035,,,,,,,2022-05-27,1,,,,,エムゼットケイ,0
1095,5011703003151,新規,0,2022-05-27,2022-05-27,合同会社ＮＰＧコンサルティング,,合同会社,東京都,江戸川区,中央２丁目１６番２１号,,13,123,1320021,,,,,,,2022-05-27,1,,,,,エヌピージーコンサルティング,0
1099,5012301012998,新規,0,2022-05-27,2022-05-27,株式会社Ｇｏｏｒｉａｔｅ,,株式会社,東京都,町田市,玉川学園７丁目２８番１７号,,13,209,1940041,,,,,,,2022-05-27,1,,,,,ゴリアテ,0
1112,5020001146645,新規,0,2022-05-27,2022-05-27,鈴木塗装株式会社,,株式会社,神奈川県,横浜市中区,大芝台２６番地９,,14,104,2310858,,,,,,,2022-05-27,1,,,,,スズキトソウ,0
1118,5020005015540,新規,0,2022-05-27,2022-05-27,一般社団法人日本スポーツ交流振興会,,その他の設立登記法人,神奈川県,横浜市都筑区,中川中央１丁目６番４号－１０１,,14,118,2240003,,,,,,,2022-05-27,1,,,,,ニホンスポーツコウリュウシンコウカイ,0
1135,5030001148244,新規,0,2022-05-27,2022-05-27,株式会社Ｄ．Ｒ．ＦＯＵＲ,,株式会社,埼玉県,草加市,青柳２丁目６番９号,,11,221,3400002,,,,,,,2022-05-27,1,,,,,ディーアールフォー,0
1136,5030001148392,新規,0,2022-05-27,2022-05-27,株式会社ニアショア秩父,,株式会社,埼玉県,秩父市,熊木町３６－６,,11,207,3680032,,,,,,,2022-05-27,1,,,,,ニアショアチチブ,0
1147,5040001123592,新規,0,2022-05-27,2022-05-27,株式会社ＨＭＳ,,株式会社,千葉県,松戸市,本町１７番地１１号,,12,207,2710091,,,,,,,2022-05-27,1,,,,,エイチエムエス,0
1148,5040003020103,新規,0,2022-05-27,2022-05-27,オールマイティー合同会社,,合同会社,千葉県,柏市,弥生町８番３３号,,12,217,2770015,,,,,,,2022-05-27,1,,,,,オールマイティー,0
1149,5050001051124,新規,0,2022-05-27,2022-05-27,株式会社Ｌｕｃｅ,,株式会社,茨城県,神栖市,横瀬１１５９番地,,08,232,3140113,,,,,,,2022-05-27,1,,,,,ルーチェ,0
1151,5060001034904,新規,0,2022-05-27,2022-05-27,株式会社ＭＵＳＡ　ＴＲＡＤＩＮＧ,,株式会社,栃木県,小山市,城北２丁目１１番地４アーバンハイツ城北１０７号室,,09,208,3230029,,,,,,,2022-05-27,1,,,,,ムーサトレーディング,0
1159,5080401025823,新規,0,2022-05-27,2022-05-27,Ｓｉｍｐｔｅｃｈ株式会社,,株式会社,静岡県,浜松市中区,田町２２３－２１ビオラ田町３Ｆ、ＢＩＺｃｏｍｆｏｒｔ浜松,,22,131,4300944,,,,,,,2022-05-27,1,,,,,シンプテック,0
1160,5080403004544,新規,0,2022-05-27,2022-05-27,合同会社Ｓｕｎｎｙ　Ｌｅｏ,,合同会社,静岡県,浜松市東区,笠井町２２９番地,,22,132,4313107,,,,,,,2022-05-27,1,,,,,サニーレオ,0
1177,5120001246162,新規,0,2022-05-27,2022-05-27,株式会社ケネックス,,株式会社,大阪府,大阪市淀川区,西中島３丁目７番２－３０３号,,27,123,5320011,,,,,,,2022-05-27,1,,,,,ケネックス,0
1178,5120001246187,新規,0,2022-05-27,2022-05-27,株式会社アンズワン,,株式会社,大阪府,大阪市北区,野崎町１番３０－２５０４号,,27,127,5300055,,,,,,,2022-05-27,1,,,,,アンズワン,0
1179,5120001246204,新規,0,2022-05-27,2022-05-27,株式会社タナカ,,株式会社,大阪府,大阪市天王寺区,寺田町１丁目７番１７－１２０４号,,27,109,5430045,,,,,,,2022-05-27,1,,,,,タナカ,0
1180,5120001246212,新規,0,2022-05-27,2022-05-27,株式会社アグロス,,株式会社,大阪府,大阪市住吉区,苅田５丁目１５番２－１３０４号,,27,120,5580011,,,,,,,2022-05-27,1,,,,,アグロス,0
1187,5120101065644,新規,0,2022-05-27,2022-05-27,株式会社アドラボ０３５８,,株式会社,大阪府,松原市,小川１丁目８番１９号,,27,217,5800002,,,,,,,2022-05-27,1,,,,,アドラボゼロサンゴハチ,0
1197,5130001071840,新規,0,2022-05-27,2022-05-27,株式会社宝風,,株式会社,京都府,京丹後市,峰山町杉谷１０７番地の乙コーポラスＴ１０５号,,26,212,6270012,,,,,,,2022-05-27,1,,,,,ホウフウ,0
1202,5140001126081,新規,0,2022-05-27,2022-05-27,シーエイチアイ・ソフトウェア株式会社,,株式会社,兵庫県,神戸市中央区,磯上通４丁目１番１４号,,28,110,6510086,,,,,,,2022-05-27,1,,,,,シーエイチアイソフトウェア,0
1205,5140005026187,新規,0,2022-05-27,2022-05-27,一般社団法人ひょうごラテンコミュニティ,,その他の設立登記法人,兵庫県,神戸市長田区,海運町３丁目３番８号,,28,106,6530052,,,,,,,2022-05-27,1,,,,,ヒョウゴラテンコミュニティ,0
1206,5140005026195,新規,0,2022-05-27,2022-05-27,ＮＰＯ法人日本家族関係・人間関係サポート協会,,その他の設立登記法人,兵庫県,南あわじ市,阿那賀１６０３番地４１７,,28,224,6560661,,,,,,,2022-05-27,1,,,,,ニホンカゾクカンケイニンゲンカンケイサポートキョウカイ,0
1216,5180001151407,新規,0,2022-05-27,2022-05-27,株式会社ＧＬＣ,,株式会社,愛知県,名古屋市港区,港北町２丁目４１番地,,23,111,4550067,,,,,,,2022-05-27,1,,,,,ジーエルシー,0
1217,5180001151448,新規,0,2022-05-27,2022-05-27,株式会社ＹＭＤ,,株式会社,愛知県,稲沢市,下津丹下田町１１９番地１,,23,220,4928085,,,,,,,2022-05-27,1,,,,,ワイエムディ,0
1223,5180003023868,新規,0,2022-05-27,2022-05-27,シンワ合同会社,,合同会社,愛知県,名古屋市中区,錦１丁目１７番２６号,,23,106,4600003,,,,,,,2022-05-27,1,,,,,シンワ,0
1227,5190001029453,新規,0,2022-05-27,2022-05-27,株式会社長井不動産,,株式会社,三重県,四日市市,別名２丁目１番１５号,,24,202,5100007,,,,,,,2022-05-27,1,,,,,ナガイフドウサン,0
1243,5240001059817,新規,0,2022-05-27,2022-05-27,株式会社ａｒｒｏｗｆｉｅｌｄ,,株式会社,広島県,三次市,吉舎町清綱４９０－１,,34,209,7294221,,,,,,,2022-05-27,1,,,,,アローフィールド,0
1247,5260001036871,新規,0,2022-05-27,2022-05-27,株式会社エネマネ,,株式会社,岡山県,岡山市北区,平野８２９番地１,,33,101,7010151,,,,,,,2022-05-27,1,,,,,エネマネ,0
1252,5290001097647,新規,0,2022-05-27,2022-05-27,株式会社ＴＳＵＢＡＭＥ,,株式会社,福岡県,福岡市東区,香椎照葉２丁目５番３－５０４号照葉テラスマリナコート３番館,,40,131,8130017,,,,,,,2022-05-27,1,,,,,ツバメ,0
1253,5290001097671,新規,0,2022-05-27,2022-05-27,ＲＭＪ福岡株式会社,,株式会社,福岡県,福岡市博多区,下川端町３番２号,,40,132,8120027,,,,,,,2022-05-27,1,,,,,アールエムジェイフクオカ,0
1254,5290001097688,新規,0,2022-05-27,2022-05-27,株式会社ＨＫＴＧＩ,,株式会社,福岡県,福岡市博多区,下呉服町４番３１号,,40,132,8120034,,,,,,,2022-05-27,1,,,,,エイチケイティジーアイ,0
1257,5290003012546,新規,0,2022-05-27,2022-05-27,合同会社Ａｅｇｉｓ,,合同会社,福岡県,糟屋郡宇美町,大字井野６１９番地１ベースメント宇美４０１号,,40,341,8112104,,,,,,,2022-05-27,1,,,,,イージス,0
1258,5290003012562,新規,0,2022-05-27,2022-05-27,三奈木ソーラー合同会社,,合同会社,福岡県,大野城市,大城３丁目６番３号,,40,219,8160911,,,,,,,2022-05-27,1,,,,,ミナギソーラー,0
1261,5290005018698,新規,0,2022-05-27,2022-05-27,一般財団法人ＡＬＯＨＡ　ＳＨＲＩＮＥＲＳ　ＪＡＰＡＮ,,その他の設立登記法人,福岡県,福岡市博多区,諸岡４丁目３番９号,,40,132,8120894,,,,,,,2022-05-27,1,,,,,アロハシュライナーズジャパン,0
1266,5310001017874,新規,0,2022-05-27,2022-05-27,株式会社マローズ,,株式会社,長崎県,長崎市,三和町１３１番地１,,42,201,8500975,,,,,,,2022-05-27,1,,,,,マローズ,0
1268,5310003004375,新規,0,2022-05-27,2022-05-27,合同会社ジパングクオッカ,,合同会社,長崎県,大村市,本町３９２番地１,,42,205,8560832,,,,,,,2022-05-27,1,,,,,ジパングクオッカ,0
1275,5360001030468,新規,0,2022-05-27,2022-05-27,ともに不動産株式会社,,株式会社,沖縄県,名護市,字伊差川１９番地１,,47,209,9051152,,,,,,,2022-05-27,1,,,,,トモニフドウサン,0
1280,5370001048591,新規,0,2022-05-27,2022-05-27,株式会社ＧＡＭ,,株式会社,宮城県,仙台市泉区,野村字二重袋前５番１,,04,105,9813124,,,,,,,2022-05-27,1,,,,,ガム,0
1281,5370001048600,新規,0,2022-05-27,2022-05-27,株式会社アローズ構造設計室,,株式会社,宮城県,仙台市青葉区,二日町１７番２０－７０４号,,04,101,9800802,,,,,,,2022-05-27,1,,,,,アローズコウゾウセッケイシツ,0
1284,5410003003664,新規,0,2022-05-27,2022-05-27,合同会社楽たろう,,合同会社,秋田県,秋田市,桜ガ丘１丁目３番地９,,05,201,0100043,,,,,,,2022-05-27,1,,,,,ラクタロウ,0
1295,5480001011745,新規,0,2022-05-27,2022-05-27,リナード株式会社,,株式会社,徳島県,板野郡上板町,引野字鍛冶屋前２５番地３６,,36,405,7711311,,,,,,,2022-05-27,1,,,,,リナード,0
1298,5500001024232,新規,0,2022-05-27,2022-05-27,テックアシスト株式会社,,株式会社,愛媛県,新居浜市,松神子２丁目６番６号,,38,205,7920881,,,,,,,2022-05-27,1,,,,,テックアシスト,0
1299,5500003002839,新規,0,2022-05-27,2022-05-27,伊予キャンバス合同会社,,合同会社,愛媛県,松山市,北井門３丁目１６番８号,,38,201,7911105,,,,,,,2022-05-27,1,,,,,イヨキャンバス,0
1302,5700150107503,新規,0,2022-05-27,2022-03-25,絆機械利用組合,,その他,熊本県,球磨郡錦町,大字木上東５９９－１,,43,501,8680301,,,,,,,2022-03-25,1,,,,,キズナキカイリヨウクミアイ,0
1303,5700150107569,新規,0,2022-05-27,2022-03-31,劇団　ＺＴＯＮ,,その他,京都府,京都市中京区,西ノ京樋ノ口町１１９ネオブルームＩＩ　２Ｆ,00126067,26,104,6048424,,,,,,,2022-03-31,1,,,,,ゲキダンゼツトン,0
1320,6010001226736,新規,0,2022-05-27,2022-05-27,ＡＰＶｅｎｔｉｏｎ・ＨＤ株式会社,,株式会社,東京都,千代田区,麹町３丁目１番１５号,,13,101,1020083,,,,,,,2022-05-27,1,,,,,エーピーヴェンションホールディングス,0
1321,6010001226802,新規,0,2022-05-27,2022-05-27,株式会社ａｉｌｅｓ,,株式会社,東京都,中央区,銀座１丁目２２番１１号銀座大竹ビジデンス２階,,13,102,1040061,,,,,,,2022-05-27,1,,,,,エール,0
1322,6010001226835,新規,0,2022-05-27,2022-05-27,株式会社みやじま,,株式会社,東京都,文京区,湯島３丁目４２番１１号ミハマビル１階,,13,105,1130034,,,,,,,2022-05-27,1,,,,,ミヤジマ,0
1323,6010001226918,新規,0,2022-05-27,2022-05-27,三軒貿易株式会社,,株式会社,東京都,文京区,関口１丁目９－１１－１００１号江戸川橋センチュリープラザ２１,,13,105,1120014,,,,,,,2022-05-27,1,,,,,サンケンボウエキ,0
1327,6010005035068,新規,0,2022-05-27,2022-05-27,誠国際税理士法人,,その他の設立登記法人,東京都,中央区,日本橋人形町１丁目７番１０号,,13,102,1030013,,,,,,,2022-05-27,1,,,,,マコトコクサイ,0
1329,6010101015188,新規,0,2022-05-27,2022-05-27,イモトの介護株式会社,,株式会社,東京都,八王子市,大楽寺町１８９番地９第２江塚ビル３０２,,13,201,1930816,,,,,,,2022-05-27,1,,,,,イモトノカイゴ,0
1336,6010401167571,新規,0,2022-05-27,2022-05-27,株式会社ＸＸＸＸ,,株式会社,東京都,港区,芝４丁目１６番１－９２０号,,13,103,1080014,,,,,,,2022-05-27,1,,,,,クアトロエックス,0
1337,6010401167588,新規,0,2022-05-27,2022-05-27,株式会社エニワン,,株式会社,東京都,港区,南麻布５丁目１－１１レジデンスＱｉｚ広尾９０２号,,13,103,1060047,,,,,,,2022-05-27,1,,,,,エニワン,0
1343,6010501048886,新規,0,2022-05-27,2022-05-27,ＲＲ　ＴＷＩＮＺ株式会社,,株式会社,東京都,台東区,上野４丁目２番１１号スインガービル４０２号,,13,106,1100005,,,,,,,2022-05-27,1,,,,,アールアールツインズ,0
1345,6010601061203,新規,0,2022-05-27,2022-05-27,銀の宿株式会社,,株式会社,東京都,江東区,亀戸１丁目７番２－７０４号,,13,108,1360071,,,,,,,2022-05-27,1,,,,,ギンノヤド,0
1362,6011001147699,新規,0,2022-05-27,2022-05-27,コリストン株式会社,,株式会社,東京都,渋谷区,神宮前１丁目２３－２８,,13,113,1500001,,,,,,,2022-05-27,1,,,,,コリストン,0
1363,6011001147765,新規,0,2022-05-27,2022-05-27,ＡｄＴｅｃｈ　Ｉｎｎｏｖａｔｉｏｎ株式会社,,株式会社,東京都,渋谷区,道玄坂１丁目１２番１号渋谷マークシティＷ２２階,,13,113,1500043,,,,,,,2022-05-27,1,,,,,アドテックイノベーション,0
1364,6011001147781,新規,0,2022-05-27,2022-05-27,株式会社ｃｌａｙｓ,,株式会社,東京都,渋谷区,渋谷２丁目１９－１５宮益坂ビルディング６０９,,13,113,1500002,,,,,,,2022-05-27,1,,,,,クレイズ,0
1365,6011003014740,新規,0,2022-05-27,2022-05-27,合同会社ｉｉｋｏｅ,,合同会社,東京都,渋谷区,渋谷２丁目１９－１５宮益坂ビルディング６０９,,13,113,1500002,,,,,,,2022-05-27,1,,,,,イイコエ,0
1369,6011101098990,新規,0,2022-05-27,2022-05-27,山南株式会社,,株式会社,東京都,新宿区,榎町３４－３榎町ビル５階,,13,104,1620806,,,,,,,2022-05-27,1,,,,,ヤマナミ,0
1371,6011103011794,新規,0,2022-05-27,2022-05-27,合同会社ｘｙｌｏ　ｅｆｆｏｒｔ,,合同会社,東京都,新宿区,西新宿６丁目１０番１号日土地西新宿ビル８階,,13,104,1600023,,,,,,,2022-05-27,1,,,,,シーロエフォート,0
1372,6011401024267,新規,0,2022-05-27,2022-05-27,株式会社ｅｙｅ　ｍｏｏｎ,,株式会社,東京都,板橋区,前野町５丁目２９番１号６０４,,13,119,1740063,,,,,,,2022-05-27,1,,,,,アイムーン,0
1383,6012401039230,新規,0,2022-05-27,2022-05-27,礼和国際株式会社,,株式会社,東京都,武蔵野市,境４丁目４－５,,13,203,1800022,,,,,,,2022-05-27,1,,,,,レイワコクサイ,0
1393,6020001146636,新規,0,2022-05-27,2022-05-27,株式会社フェリシアンス,,株式会社,神奈川県,横浜市港北区,新横浜３丁目７－１８日総第１８ビル・エキスパートオフィス内,,14,109,2220033,,,,,,,2022-05-27,1,,,,,フェリシアンス,0
1394,6020001146685,新規,0,2022-05-27,2022-05-27,株式会社Ｓｏｕｔｈ　ｌｉｎｅ,,株式会社,神奈川県,横浜市西区,紅葉ケ丘６番地１－７０５号,,14,103,2200044,,,,,,,2022-05-27,1,,,,,サウスライン,0
1401,6020005015548,新規,0,2022-05-27,2022-05-27,一般社団法人セヤミツラボ,,その他の設立登記法人,神奈川県,横浜市瀬谷区,相沢２丁目１９番地１,,14,114,2460013,,,,,,,2022-05-27,1,,,,,セヤミツラボ,0
1409,6030001148367,新規,0,2022-05-27,2022-05-27,カンプロ株式会社,,株式会社,埼玉県,和光市,下新倉３丁目２０番３２号,,11,229,3510111,,,,,,,2022-05-27,1,,,,,カンプロ,0
1415,6030003019483,新規,0,2022-05-27,2022-05-27,合同会社ＳＵＭＭＩＴ,,合同会社,埼玉県,草加市,原町１丁目７番７－１号,,11,221,3400048,,,,,,,2022-05-27,1,,,,,サミット,0
1421,6040001123518,新規,0,2022-05-27,2022-05-27,株式会社シーアンドサン,,株式会社,千葉県,大網白里市,季美の森南５丁目１７番地４,,12,239,2993241,,,,,,,2022-05-27,1,,,,,シーアンドサン,0
1424,6040003020102,新規,0,2022-05-27,2022-05-27,合同会社アドキューブ,,合同会社,千葉県,船橋市,西船４丁目１９番５号アルテミラ西船橋７０５,,12,204,2730031,,,,,,,2022-05-27,1,,,,,アドキューブ,0
1432,6080401025822,新規,0,2022-05-27,2022-05-27,株式会社Ｏｒｅｏ　Ｄｅｓｉｇｎ,,株式会社,静岡県,浜松市北区,新都田２丁目６番９号,,22,135,4312103,,,,,,,2022-05-27,1,,,,,オレオデザイン,0
1433,6080401025830,新規,0,2022-05-27,2022-05-27,株式会社マイグランツ,,株式会社,静岡県,浜松市東区,大蒲町８７番地の１９,,22,132,4350014,,,,,,,2022-05-27,1,,,,,マイグランツ,0
1434,6080403004543,新規,0,2022-05-27,2022-05-27,合同会社ＡＹＵＭＩＮＡ,,合同会社,静岡県,浜松市中区,船越町４１番１０号,,22,131,4300913,,,,,,,2022-05-27,1,,,,,アユミナ,0
1453,6120001246137,新規,0,2022-05-27,2022-05-27,株式会社トチトチ,,株式会社,大阪府,大阪市天王寺区,堂ケ芝１丁目９番３号,,27,109,5430033,,,,,,,2022-05-27,1,,,,,トチトチ,0
1454,6120001246161,新規,0,2022-05-27,2022-05-27,株式会社ランド・エミーレ,,株式会社,大阪府,大阪市天王寺区,東高津町１１番７号上本町グランディムビル,,27,109,5430021,,,,,,,2022-05-27,1,,,,,ランドエミーレ,0
1455,6120001246178,新規,0,2022-05-27,2022-05-27,株式会社にゅーびじょん,,株式会社,大阪府,大阪市中央区,西心斎橋１丁目１０番１７号ポポロビル４階Ｓ号,,27,128,5420086,,,,,,,2022-05-27,1,,,,,ニュービジョン,0
1456,6120001246203,新規,0,2022-05-27,2022-05-27,ムンテラワン株式会社,,株式会社,大阪府,大阪市北区,天神橋１丁目９番５号アドバンス天神橋３Ｆ,,27,127,5300041,,,,,,,2022-05-27,1,,,,,ムンテラワン,0
1457,6120001246211,新規,0,2022-05-27,2022-05-27,株式会社Ｒ‐ＨＯＭＥ,,株式会社,大阪府,大阪市平野区,長吉出戸２丁目５番１３－６０３号,,27,126,5470011,,,,,,,2022-05-27,1,,,,,アールホーム,0
1464,6120101065643,新規,0,2022-05-27,2022-05-27,高橋金属株式会社,,株式会社,大阪府,泉南市,兎田８０６番地の３,,27,228,5900501,,,,,,,2022-05-27,1,,,,,タカハシキンゾク,0
1465,6120103004715,新規,0,2022-05-27,2022-05-27,合同会社大福,,合同会社,大阪府,和泉市,肥子町２丁目４番１８号,,27,219,5940076,,,,,,,2022-05-27,1,,,,,ダイフク,0
1466,6120903004162,新規,0,2022-05-27,2022-05-27,文元商店合同会社,,合同会社,大阪府,吹田市,津雲台５丁目１８番３０－４１３号,,27,205,5650862,,,,,,,2022-05-27,1,,,,,フミモトショウテン,0
1468,6122001035899,新規,0,2022-05-27,2022-05-27,株式会社リアライズ,,株式会社,大阪府,大東市,新田東本町３番３号,,27,218,5740054,,,,,,,2022-05-27,1,,,,,リアライズ,0
1472,6130003007949,新規,0,2022-05-27,2022-05-27,合同会社ＫＡＺＡＭＩＤＲＥＡＭ,,合同会社,京都府,久世郡久御山町,佐山双置３番地３,,26,322,6130034,,,,,,,2022-05-27,1,,,,,カザミドリーム,0
1476,6160005011087,新規,0,2022-05-27,2022-05-27,湖南不動産業協同組合,,その他の設立登記法人,滋賀県,湖南市,岩根４９９番地１０１,,25,211,5203252,,,,,,,2022-05-27,1,,,,,コナンフドウサンギョウ,0
1487,6180001151439,新規,0,2022-05-27,2022-05-27,ＮＩＰＰＯＮ　ＴＲＵＳＴ株式会社,,株式会社,愛知県,津島市,中一色町弥六山３１番,,23,208,4960025,,,,,,,2022-05-27,1,,,,,ニッポントラスト,0
1494,6180003023867,新規,0,2022-05-27,2022-05-27,はやふぁん合同会社,,合同会社,愛知県,名古屋市中区,栄５丁目２６番３９号ＧＳ栄ビル３Ｆ,,23,106,4600008,,,,,,,2022-05-27,1,,,,,ハヤファン,0
1497,6190001029436,新規,0,2022-05-27,2022-05-27,株式会社アップクラフト,,株式会社,三重県,伊賀市,上野桑町１５１０番地の３,,24,216,5180842,,,,,,,2022-05-27,1,,,,,アップクラフト,0
1498,6200001040093,新規,0,2022-05-27,2022-05-27,株式会社Ｃａｎｄｙ　Ｍａｇｉｃ,,株式会社,岐阜県,各務原市,大野町２丁目２０２番地１（Ｓｏｌｅｉｌ・ＩＷＡＴＡ・１０３）,,21,213,5040934,,,,,,,2022-05-27,1,,,,,キャンディーマジック,0
1510,6240001059799,新規,0,2022-05-27,2022-05-27,株式会社センチュリー２２,,株式会社,広島県,福山市,瀬戸町大字長和２８７４番地１,,34,207,7200836,,,,,,,2022-05-27,1,,,,,センチュリーニジュウニ,0
1518,6260001036879,新規,0,2022-05-27,2022-05-27,株式会社ファイブリング,,株式会社,岡山県,岡山市中区,湯迫６０４番地,,33,102,7038202,,,,,,,2022-05-27,1,,,,,ファイブリング,0
1521,6290001097687,新規,0,2022-05-27,2022-05-27,株式会社志喜,,株式会社,福岡県,福岡市中央区,渡辺通１丁目８番３６－１２０２号レジデンシャルヒルズデュオプレイス,,40,133,8100004,,,,,,,2022-05-27,1,,,,,シキ,0
1522,6290003012561,新規,0,2022-05-27,2022-05-27,ＷＡＬＮＡＴ合同会社,,合同会社,福岡県,福岡市城南区,友丘３丁目１４－７－１０３,,40,136,8140112,,,,,,,2022-05-27,1,,,,,ウォルナット,0
1525,6310003004374,新規,0,2022-05-27,2022-05-27,花みずき合同会社,,合同会社,長崎県,西彼杵郡長与町,吉無田郷２０７１－７,,42,307,8512126,,,,,,,2022-05-27,1,,,,,,0
1531,6360001030475,新規,0,2022-05-27,2022-05-27,株式会社オリエンスハウジング,,株式会社,沖縄県,島尻郡八重瀬町,字具志頭４１１番地１,,47,362,9010512,,,,,,,2022-05-27,1,,,,,オリエンスハウジング,0
1545,6410001013193,新規,0,2022-05-27,2022-05-27,株式会社あーるずてん,,株式会社,秋田県,大仙市,神宮寺字館ノ北５－７,,05,212,0191701,,,,,,,2022-05-27,1,,,,,アールズテン,0
1556,6450003002208,新規,0,2022-05-27,2022-05-27,ＣＹＨ合同会社,,合同会社,北海道,旭川市,東光二条１０丁目５番５号,,01,204,0788342,,,,,,,2022-05-27,1,,,,,,0
1561,6470001019094,新規,0,2022-05-27,2022-05-27,株式会社坂口電設,,株式会社,香川県,高松市,香川町浅野５５１番地１３,,37,201,7611703,,,,,,,2022-05-27,1,,,,,サカグチデンセツ,0
1570,6700150108467,新規,0,2022-05-27,2022-05-02,舞踊・芸術振興会ひろしま,,その他,広島県,福山市,曙町６丁目１４－１５－３Ｆ,,34,207,7210952,,,,,,,2022-05-02,1,,,,,ブヨウゲイジユツシンコウカイヒロシマ,0
1571,6700150108649,新規,0,2022-05-27,2022-05-12,にしのみやオペラ実行委員会,,その他,兵庫県,西宮市,剣谷町１－３８,,28,204,6620099,,,,,,,2022-05-12,1,,,,,ニシノミヤオペラジツコウイインカイ,0
1572,6700150109052,新規,0,2022-05-27,2022-05-27,秋田県立聴覚支援学校ＰＴＡ,,その他,秋田県,秋田市,南ケ丘１丁目１番１号,,05,201,0101409,,,,,,,2022-05-27,1,,,,,アキタケンリツチョウカクシエンガッコウピーティーエー,0
1583,7010001226925,新規,0,2022-05-27,2022-05-27,株式会社トーションメディトロニクス,,株式会社,東京都,中央区,日本橋富沢町１０番１６号,,13,102,1030006,,,,,,,2022-05-27,1,,,,,トーションメディトロニクス,0
1586,7010003037750,新規,0,2022-05-27,2022-05-27,合同会社ゆるらぼ,,合同会社,東京都,中央区,銀座１丁目２２番１１号銀座大竹ビジデンス２階,,13,102,1040061,,,,,,,2022-05-27,1,,,,,ユルラボ,0
1587,7010005035067,新規,0,2022-05-27,2022-05-27,一般社団法人日本ネクストパーソン支援育成協会,,その他の設立登記法人,東京都,中央区,銀座１丁目２２番１１号銀座大竹ビジデンス２階,,13,102,1040061,,,,,,,2022-05-27,1,,,,,ニホンネクストパーソンシエンイクセイキョウカイ,0
1594,7010401167455,新規,0,2022-05-27,2022-05-27,株式会社ＰＬＵＳＴ,,株式会社,東京都,港区,南青山２丁目２番１５号,,13,103,1070062,,,,,,,2022-05-27,1,,,,,プラスト,0
1606,7010801032993,新規,0,2022-05-27,2022-05-27,株式会社田村電機,,株式会社,東京都,大田区,西六郷２丁目６－１０,,13,111,1440056,,,,,,,2022-05-27,1,,,,,タムラデンキ,0
1615,7011001147723,新規,0,2022-05-27,2022-05-27,ＳｔｅｍＣｅｌｌｓ知財管理株式会社,,株式会社,東京都,目黒区,上目黒１丁目１６番１２号,,13,110,1530051,,,,,,,2022-05-27,1,,,,,ステムセルズチザイカンリ,0
1618,7011101098932,新規,0,2022-05-27,2022-05-27,株式会社アルパカワールド,,株式会社,東京都,新宿区,岩戸町１９番地一五屋ビル１０１,,13,104,1620832,,,,,,,2022-05-27,1,,,,,アルパカワールド,0
1619,7011103011785,新規,0,2022-05-27,2022-05-27,合同会社Ｓｕｎ　Ｂｅａｕｔｉｆｕｌ,,合同会社,東京都,新宿区,百人町１丁目３－１２,,13,104,1690073,,,,,,,2022-05-27,1,,,,,サンビューティフル,0
1620,7011103011793,新規,0,2022-05-27,2022-05-27,合同会社ブラッシースターズ,,合同会社,東京都,新宿区,西新宿６丁目２５番８号,,13,104,1600023,,,,,,,2022-05-27,1,,,,,ブラッシースターズ,0
1621,7011201023856,新規,0,2022-05-27,2022-05-27,株式会社マカロニ,,株式会社,東京都,中野区,中野４丁目２０番６号,,13,114,1640001,,,,,,,2022-05-27,1,,,,,マカロニ,0
1626,7011605002456,新規,0,2022-05-27,2022-05-27,特定非営利活動法人日本サステナブルスポーツ協会,,その他の設立登記法人,東京都,練馬区,大泉学園町７丁目１番３号,,13,120,1780061,,,,,,,2022-05-27,1,,,,,ニホンサステナブルスポーツキョウカイ,0
1633,7012403005394,新規,0,2022-05-27,2022-05-27,合同会社サムシーズ,,合同会社,東京都,狛江市,和泉本町３丁目２３番４６号,,13,219,2010003,,,,,,,2022-05-27,1,,,,,サムシーズ,0
1635,7012703002463,新規,0,2022-05-27,2022-05-27,合同会社インテリアケン,,合同会社,東京都,西東京市,新町５丁目１０番４号,,13,229,2020023,,,,,,,2022-05-27,1,,,,,インテリアケン,0
1647,7020001146619,新規,0,2022-05-27,2022-05-27,株式会社アプメド,,株式会社,神奈川県,横浜市都筑区,仲町台１丁目７番１８号ビュロー仲町台３０４,,14,118,2240041,,,,,,,2022-05-27,1,,,,,アプメド,0
1648,7020001146635,新規,0,2022-05-27,2022-05-27,株式会社エス・マネジメント,,株式会社,神奈川県,川崎市宮前区,宮崎１６７番地,,14,136,2160033,,,,,,,2022-05-27,1,,,,,エスマネジメント,0
1649,7020001146668,新規,0,2022-05-27,2022-05-27,フジテック株式会社,,株式会社,神奈川県,横浜市中区,初音町３丁目５９番地１－３０２号室,,14,104,2310053,,,,,,,2022-05-27,1,,,,,フジテック,0
1667,7040001123558,新規,0,2022-05-27,2022-05-27,揚川株式会社,,株式会社,千葉県,印旛郡酒々井町,中川５０－１岡田第２ビル２Ｆ,,12,322,2850921,,,,,,,2022-05-27,1,,,,,アカワ,0
1668,7040001123574,新規,0,2022-05-27,2022-05-27,株式会社松本商事,,株式会社,千葉県,船橋市,大穴北１丁目２０番２２号,,12,204,2740068,,,,,,,2022-05-27,1,,,,,マツモトショウジ,0
1669,7040001123590,新規,0,2022-05-27,2022-05-27,株式会社志紅,,株式会社,千葉県,佐倉市,直弥３３３－１,,12,212,2850065,,,,,,,2022-05-27,1,,,,,シグレ,0
1672,7040003020101,新規,0,2022-05-27,2022-05-27,Ｏｎ　Ｌｉｇｈｔ合同会社,,合同会社,千葉県,船橋市,大穴北３丁目２２番１２号,,12,204,2740068,,,,,,,2022-05-27,1,,,,,オンライト,0
1673,7040003020118,新規,0,2022-05-27,2022-05-27,合同会社ＬＯＫＯＭＡＩＫＡＩ,,合同会社,千葉県,佐倉市,染井野３丁目２５番地５,,12,212,2850831,,,,,,,2022-05-27,1,,,,,ロコマイカイ,0
1676,7050001051089,新規,0,2022-05-27,2022-05-27,東宇充株式会社,,株式会社,茨城県,小美玉市,堅倉１５４３－８,,08,236,3190106,,,,,,,2022-05-27,1,,,,,トウウジュウ,0
1682,7060003004085,新規,0,2022-05-27,2022-05-27,合同会社Ｓａｋｉｗａｉ,,合同会社,栃木県,栃木市,都賀町大柿４４９番地,,09,203,3280101,,,,,,,2022-05-27,1,,,,,サキワイ,0
1684,7070001039264,新規,0,2022-05-27,2022-05-27,株式会社ＨＭＣ,,株式会社,群馬県,高崎市,栄町３番１１号高崎バナーズビル３階‐５階,,10,202,3700841,,,,,,,2022-05-27,1,,,,,エッチエムシー,0
1689,7080001024959,新規,0,2022-05-27,2022-05-27,株式会社チームフォワード,,株式会社,静岡県,静岡市駿河区,小鹿４６９－１,,22,102,4228021,,,,,,,2022-05-27,1,,,,,チームフォワード,0
1710,7120001246144,新規,0,2022-05-27,2022-05-27,株式会社Ｋａｎｏｎ,,株式会社,大阪府,大阪市浪速区,難波中１丁目１２番１６号オーエムなんばビル４０１,,27,111,5560011,,,,,,,2022-05-27,1,,,,,カノン,0
1711,7120001246152,新規,0,2022-05-27,2022-05-27,株式会社シャルールエム,,株式会社,大阪府,大阪市東住吉区,矢田４丁目８番１２号３０１,,27,121,5460023,,,,,,,2022-05-27,1,,,,,シャルールエム,0
1712,7120001246185,新規,0,2022-05-27,2022-05-27,株式会社ＢＲＡＩＮ,,株式会社,大阪府,大阪市北区,西天満６丁目２－１４,,27,127,5300047,,,,,,,2022-05-27,1,,,,,ブレイン,0
1713,7120001246193,新規,0,2022-05-27,2022-05-27,株式会社エッセンシャル,,株式会社,大阪府,大阪市天王寺区,夕陽丘町四丁目２番地,,27,109,5430075,,,,,,,2022-05-27,1,,,,,エッセンシャル,0
1715,7120003021768,新規,0,2022-05-27,2022-05-27,ＰＨＡＮ　ＨＯＡＮＧ合同会社,,合同会社,大阪府,大阪市浪速区,敷津西１丁目５番１２号中原ビル６０１号,,27,111,5560015,,,,,,,2022-05-27,1,,,,,ファンホアン,0
1716,7120003021776,新規,0,2022-05-27,2022-05-27,合同会社Ｇｌｏｂａｌ　Ｆｉｅｌｄ　Ｊａｐａｎ,,合同会社,大阪府,大阪市天王寺区,堂ケ芝１丁目３番３７号,,27,109,5430033,,,,,,,2022-05-27,1,,,,,グローバルフィールドジャパン,0
1717,7120003021784,新規,0,2022-05-27,2022-05-27,合同会社ＡＦＴＥＲ　ＬＩＦＥ,,合同会社,大阪府,大阪市住吉区,帝塚山東２丁目４番１４号,,27,120,5580054,,,,,,,2022-05-27,1,,,,,アフターライフ,0
1719,7120005022962,新規,0,2022-05-27,2022-05-27,一般社団法人新技術協議会,,その他の設立登記法人,大阪府,大阪市天王寺区,上本町６丁目９番１０号青山ビル本館３０６号,,27,109,5430001,,,,,,,2022-05-27,1,,,,,シンギジュツキョウギカイ,0
1723,7120903004161,新規,0,2022-05-27,2022-05-27,合同会社ＧＲＡＣＥ,,合同会社,大阪府,吹田市,豊津町４４番１５号,,27,205,5640051,,,,,,,2022-05-27,1,,,,,グレース,0
1732,7130003007948,新規,0,2022-05-27,2022-05-27,合同会社Ｂｒｕｓｈ　ＵＰ,,合同会社,京都府,京都市西京区,桂野里町４１番地７７桂野里町ビル２階,,26,111,6158073,,,,,,,2022-05-27,1,,,,,ブラッシュアップ,0
1733,7140001126138,新規,0,2022-05-27,2022-05-27,株式会社ワードワーク,,株式会社,兵庫県,姫路市,南町７６番地,,28,201,6700912,,,,,,,2022-05-27,1,,,,,ワードワーク,0
1739,7150003002690,新規,0,2022-05-27,2022-05-27,合同会社ＨＩＲＡＫＵ,,合同会社,奈良県,生駒市,山崎町４－５ＮＤＡビル５階,,29,209,6300252,,,,,,,2022-05-27,1,,,,,ヒラク,0
1740,7160001024232,新規,0,2022-05-27,2022-05-27,Ｃａｓ‐Ｗｏｒｋｓ株式会社,,株式会社,滋賀県,野洲市,比江４５８番地１,,25,210,5202434,,,,,,,2022-05-27,1,,,,,キャスワークス,0
1741,7170005006960,新規,0,2022-05-27,2022-05-27,一般社団法人集義会,,その他の設立登記法人,和歌山県,紀の川市,貴志川町国主２７１番地１１２,,30,208,6400414,,,,,,,2022-05-27,1,,,,,シュウギカイ,0
1752,7180001151446,新規,0,2022-05-27,2022-05-27,株式会社フリーダムコール,,株式会社,愛知県,瀬戸市,陶原町２丁目２８番地の１,,23,204,4890805,,,,,,,2022-05-27,1,,,,,フリーダムコール,0
1753,7180001151454,新規,0,2022-05-27,2022-05-27,株式会社バリス,,株式会社,愛知県,名古屋市北区,楠味鋺５丁目１１０９番地の１,,23,103,4620014,,,,,,,2022-05-27,1,,,,,バリス,0
1754,7180001151462,新規,0,2022-05-27,2022-05-27,株式会社Ｌｉｂｒｅ,,株式会社,愛知県,名古屋市中区,栄５丁目１９番３１号Ｔ＆Ｍビル,,23,106,4600008,,,,,,,2022-05-27,1,,,,,リブレ,0
1761,7200001040092,新規,0,2022-05-27,2022-05-27,ひかり＆ホープ株式会社,,株式会社,岐阜県,岐阜市,都通３丁目１９番地４,,21,201,5008309,,,,,,,2022-05-27,1,,,,,ヒカリアンドホープ,0
1764,7210001018947,新規,0,2022-05-27,2022-05-27,ｆ．ｔａｓｔｅ株式会社,,株式会社,福井県,福井市,西方１丁目１番８号,,18,201,9100855,,,,,,,2022-05-27,1,,,,,エフテイスト,0
1771,7240001059815,新規,0,2022-05-27,2022-05-27,株式会社ティーランス,,株式会社,広島県,広島市安佐南区,長束３丁目２番４－１０６号,,34,105,7310135,,,,,,,2022-05-27,1,,,,,ティーランス,0
1772,7240005015401,新規,0,2022-05-27,2022-05-27,一般社団法人ＳＩＭＯＳＥ財産管理,,その他の設立登記法人,広島県,広島市西区,商工センター１丁目１番４６号,,34,104,7330833,,,,,,,2022-05-27,1,,,,,シモセザイサンカンリ,0
1776,7250005008750,新規,0,2022-05-27,2022-05-27,ウェブクリエイターｗｅｂｅｖｙ協同組合,,その他の設立登記法人,山口県,山口市,吉敷下東２丁目１３番５号,,35,203,7530814,,,,,,,2022-05-27,1,,,,,ウェブクリエイターウェビー,0
1779,7260001036878,新規,0,2022-05-27,2022-05-27,株式会社Ｐａｉｎｔ　Ａｃｅ,,株式会社,岡山県,岡山市南区,新保８２０番地２６,,33,104,7000945,,,,,,,2022-05-27,1,,,,,ペイントエース,0
1790,7310001017872,新規,0,2022-05-27,2022-05-27,株式会社宇森商事,,株式会社,長崎県,長崎市,多以良町１９４６番地２フォレストアプラス１Ｆ,,42,201,8512213,,,,,,,2022-05-27,1,,,,,ウシンショウジ,0
1793,7310003004373,新規,0,2022-05-27,2022-05-27,合同会社テン・フォー,,合同会社,長崎県,西海市,西彼町八木原郷９４０番地,,42,212,8513423,,,,,,,2022-05-27,1,,,,,テンフォー,0
1798,7340001024750,新規,0,2022-05-27,2022-05-27,株式会社ルーエコーポレーション,,株式会社,鹿児島県,鹿児島市,小松原１丁目１１番２３号イステートＩ,00126676,46,201,8910114,,,,,,,2022-05-27,1,,,,,ルーエコーポレーション,0
1801,7340003003802,新規,0,2022-05-27,2022-05-27,カインドハート合同会社,,合同会社,鹿児島県,鹿児島市,伊敷台３丁目２１番５号,,46,201,8900007,,,,,,,2022-05-27,1,,,,,カインドハート,0
1802,7350001017761,新規,0,2022-05-27,2022-05-27,株式会社Ｆｏｕｒ　Ｍｕｄ　Ａｒｒｏｗｓ,,株式会社,宮崎県,児湯郡高鍋町,大字上江２１５９番地１,,45,401,8840006,,,,,,,2022-05-27,1,,,,,フォーマッドアロウズ,0
1811,7380001032840,新規,0,2022-05-27,2022-05-27,株式会社興晋,,株式会社,福島県,双葉郡浪江町,大字権現堂字反町１４番地２,,07,547,9791521,,,,,,,2022-05-27,1,,,,,コウシン,0
1816,7420003002523,新規,0,2022-05-27,2022-05-27,ＡＲ　ＣＯＲＰＯＲＡＴＩＯＮ合同会社,,合同会社,青森県,八戸市,柏崎６丁目２５番３号,,02,203,0310081,,,,,,,2022-05-27,1,,,,,エーアールコーポレーション,0
1825,7460401001247,新規,0,2022-05-27,2022-05-27,ＨＹＷＡＴＴ株式会社,,株式会社,北海道,根室市,緑町１丁目８番地,,01,223,0870051,,,,,,,2022-05-27,1,,,,,ハイワット,0
1833,7700150109068,新規,0,2022-05-27,2022-05-27,ＮＯＯＦ　ＣＯＭＰＡＮＹ,,外国会社等,千葉県,東金市,東金４０５－１アイケイハイムＢ１０１,,12,213,2830802,スリランカ民主社会主義共和国、アッカライパトゥ－１５、メインストリート、Ｎｏ：１４２／Ａ／Ｓ,,,,,,2022-05-27,1,,,,,ヌーフカンパニー,0
1854,8010001226965,新規,0,2022-05-27,2022-05-27,株式会社ボードサポート,,株式会社,東京都,中央区,銀座１丁目１２番４号Ｎ＆Ｅ・ＢＬＤ７階,,13,102,1040061,,,,,,,2022-05-27,1,,,,,ボードサポート,0
1856,8010005035033,新規,0,2022-05-27,2022-05-27,一般社団法人東京美容協会,,その他の設立登記法人,東京都,千代田区,外神田３丁目１６番１４号,,13,101,1010021,,,,,,,2022-05-27,1,,,,,トウキョウビヨウキョウカイ,0
1857,8010005035066,新規,0,2022-05-27,2022-05-27,弁理士法人木戸特許事務所,,その他の設立登記法人,東京都,千代田区,鍛冶町１丁目１０番４号丸石ビル,,13,101,1010044,,,,,,,2022-05-27,1,,,,,キドトッキョジムショ,0
1861,8010401167289,新規,0,2022-05-27,2022-05-27,株式会社８ｐｏｉｎｔ,,株式会社,東京都,港区,南青山２丁目２－１５ウィン青山内,,13,103,1070062,,,,,,,2022-05-27,1,,,,,エイトポイント,0
1862,8010401167553,新規,0,2022-05-27,2022-05-27,株式会社Ｆｒａｋｔａｌ,,株式会社,東京都,港区,赤坂４丁目８番１９号赤坂フロントタウン３階,,13,103,1070052,,,,,,,2022-05-27,1,,,,,フラクタル,0
1864,8010405021046,新規,0,2022-05-27,2022-05-27,一般社団法人ＨＲ２,,その他の設立登記法人,東京都,港区,赤坂９丁目６番２８－１００２号麻布総合会計事務所内,,13,103,1070052,,,,,,,2022-05-27,1,,,,,エイチアールツー,0
1866,8010501048884,新規,0,2022-05-27,2022-05-27,株式会社ＤＩＳＫ,,株式会社,東京都,台東区,駒形２丁目１番５号ＭＯＯＮＰＬＡＣＥ４Ｆ,,13,106,1110043,,,,,,,2022-05-27,1,,,,,ディスク,0
1871,8010601061218,新規,0,2022-05-27,2022-05-27,株式会社ひとのわ,,株式会社,東京都,墨田区,立花５丁目１４番３号,,13,107,1310043,,,,,,,2022-05-27,1,,,,,ヒトノワ,0
1876,8010703006252,新規,0,2022-05-27,2022-05-27,合同会社Ｗｏｒｋ　Ａｓ　Ｈｏｂｂｙ,,合同会社,東京都,品川区,大崎５丁目７番１４号五反田ロイヤルハイツ３０１号,,13,109,1410032,,,,,,,2022-05-27,1,,,,,ワークアズホビー,0
1880,8010901050936,新規,0,2022-05-27,2022-05-27,株式会社Ｋｉｔｓｕｎｅ　Ｆｉｌｍ,,株式会社,東京都,世田谷区,大原１丁目６番１５号,,13,112,1560041,,,,,,,2022-05-27,1,,,,,キツネフィルム,0
1886,8011001147664,新規,0,2022-05-27,2022-05-27,株式会社ＧＲＡＮＤＩ,,株式会社,東京都,目黒区,自由が丘２丁目１６番１８－２０４号,,13,110,1520035,,,,,,,2022-05-27,1,,,,,グランディ,0
1887,8011001147714,新規,0,2022-05-27,2022-05-27,株式会社ＭＵＳＩＣＯ,,株式会社,東京都,渋谷区,恵比寿１丁目５番７号昭和えびすビル６０１,,13,113,1500013,,,,,,,2022-05-27,1,,,,,,0
1888,8011001147722,新規,0,2022-05-27,2022-05-27,ＹＡＲＯＣＡ株式会社,,株式会社,東京都,渋谷区,渋谷２丁目１９番１５号宮益坂ビルディング６０９,,13,113,1500002,,,,,,,2022-05-27,1,,,,,,0
1889,8011001147747,新規,0,2022-05-27,2022-05-27,ＪＮＫコンサルティング株式会社,,株式会社,東京都,渋谷区,渋谷２丁目１９番１５宮益坂ビルディング６０９,,13,113,1500002,,,,,,,2022-05-27,1,,,,,ジェーエヌケーコンサルティング,0
1890,8011001147763,新規,0,2022-05-27,2022-05-27,株式会社Ａ‐ｓｔｙｌｅ,,株式会社,東京都,渋谷区,道玄坂２丁目２０番９号リアライズ道玄坂ビルＲ階（５Ｆ）,,13,113,1500043,,,,,,,2022-05-27,1,,,,,エースタイル,0
1891,8011003014747,新規,0,2022-05-27,2022-05-27,合同会社よつば教室,,合同会社,東京都,渋谷区,猿楽町２－３コーポアマギ４０２,,13,113,1500033,,,,,,,2022-05-27,1,,,,,ヨツバキョウシツ,0
1895,8011101098980,新規,0,2022-05-27,2022-05-27,株式会社ＰＤ,,株式会社,東京都,新宿区,西新宿６丁目１０番１号日土地西新宿ビル８階,,13,104,1600023,,,,,,,2022-05-27,1,,,,,ピーディー,0
1896,8011101098989,新規,0,2022-05-27,2022-05-27,株式会社ＳＴＳ,,株式会社,東京都,新宿区,歌舞伎町２丁目３０番２号,,13,104,1600021,,,,,,,2022-05-27,1,,,,,,0
1898,8011103011784,新規,0,2022-05-27,2022-05-27,ノースイーストアングルアンド合同会社,,合同会社,東京都,新宿区,北新宿１丁目３番１３号１階,,13,104,1690074,,,,,,,2022-05-27,1,,,,,ノースイーストアングルアンド,0
1899,8011103011792,新規,0,2022-05-27,2022-05-27,合同会社ジェイ・エス・エイチ,,合同会社,東京都,新宿区,下宮比町１番４号,,13,104,1620822,,,,,,,2022-05-27,1,,,,,ジェイエスエイチ,0
1901,8011105010264,新規,0,2022-05-27,2022-05-27,キークレア社会保険労務士法人,,その他の設立登記法人,東京都,新宿区,四谷三栄町１１番２２号,,13,104,1600008,,,,,,,2022-05-27,1,,,,,キークレア,0
1904,8011203003830,新規,0,2022-05-27,2022-05-27,合同会社アラジンダンススクール,,合同会社,東京都,中野区,大和町２丁目８番３３－２１２号,,13,114,1650034,,,,,,,2022-05-27,1,,,,,アラジンダンススクール,0
1917,8012401039220,新規,0,2022-05-27,2022-05-27,株式会社ＦＩＳＴ　ＰＬＡＴ,,株式会社,東京都,三鷹市,下連雀５丁目１－１－５１０,,13,204,1810013,,,,,,,2022-05-27,1,,,,,フィストプラット,0
1918,8012401039237,新規,0,2022-05-27,2022-05-27,ＧＯＴＯ　ｉｍａｇｅｗｏｒｋｓ株式会社,,株式会社,東京都,府中市,矢崎町４丁目１６番地,,13,206,1830025,,,,,,,2022-05-27,1,,,,,ゴトウイメージワークス,0
1919,8012403005393,新規,0,2022-05-27,2022-05-27,Ｐａｒａｂｏｌａ合同会社,,合同会社,東京都,武蔵野市,関前３丁目３７－２１,,13,203,1800014,,,,,,,2022-05-27,1,,,,,パラボラ,0
1921,8012801021604,新規,0,2022-05-27,2022-05-27,株式会社Ｂｌｏｏｍ　Ｈｏｐｅ,,株式会社,東京都,日野市,日野本町４丁目２２番地の５,,13,212,1910011,,,,,,,2022-05-27,1,,,,,ブルームホープ,0
1931,8020001146642,新規,0,2022-05-27,2022-05-27,株式会社Ｒ‐ｏｒｂｉｔ,,株式会社,神奈川県,横浜市神奈川区,三枚町１３８番地３３,,14,102,2210862,,,,,,,2022-05-27,1,,,,,アールオービット,0
1936,8020005015546,新規,0,2022-05-27,2022-05-27,一般社団法人Ｋａｌｉｈｉ‐Ｐａｌａｍａ　Ｃｕｌｔｕｒｅ＆Ａｒｔｓ　Ｓｏｃｉｅｔｙ‐Ｊａｐａｎ,,その他の設立登記法人,神奈川県,横浜市神奈川区,栄町１０番地３５ザ・ヨコハマタワーズＥ３２０８号,,14,102,2210052,,,,,,,2022-05-27,1,,,,,カリヒパラマカルチャーアンドアーツソサエティジャパン,0
1938,8021001076045,新規,0,2022-05-27,2022-05-27,株式会社Ｔｏｐ　Ｃｒｅｅｐ,,株式会社,神奈川県,海老名市,上今泉６丁目８番３３－１号,,14,215,2430431,,,,,,,2022-05-27,1,,,,,,0
1939,8021001076053,新規,0,2022-05-27,2022-05-27,株式会社佐伯商事,,株式会社,神奈川県,座間市,東原４丁目１２番５７号,,14,216,2520004,,,,,,,2022-05-27,1,,,,,サエキショウジ,0
1940,8021001076061,新規,0,2022-05-27,2022-05-27,Ｒ　ＷＯＲＫＳ株式会社,,株式会社,神奈川県,茅ヶ崎市,東海岸北５丁目１０番５４号,,14,207,2530053,,,,,,,2022-05-27,1,,,,,アールワークス,0
1945,8021003011743,新規,0,2022-05-27,2022-05-27,合同会社フエフ・オッパショ,,合同会社,神奈川県,相模原市南区,豊町２番２６号メゾンアスカ２０２,,14,153,2520305,,,,,,,2022-05-27,1,,,,,フエフオッパショ,0
1968,8040001123367,新規,0,2022-05-27,2022-05-27,株式会社ＡＭコーポレーション,,株式会社,千葉県,市川市,湊１０番５号,,12,203,2720131,,,,,,,2022-05-27,1,,,,,エーエムコーポレーション,0
1969,8040001123557,新規,0,2022-05-27,2022-05-27,株式会社銚子漁業共生センター,,株式会社,千葉県,銚子市,川口町２丁目６５２８番地,,12,202,2880001,,,,,,,2022-05-27,1,,,,,チョウシギョギョウキョウセイセンター,0
1970,8040001123565,新規,0,2022-05-27,2022-05-27,ＡＭＩＮＩ株式会社,,株式会社,千葉県,八街市,東吉田５６７－２グリーンハイツ１０６号室,,12,230,2891114,,,,,,,2022-05-27,1,,,,,アミニ,0
1971,8040001123573,新規,0,2022-05-27,2022-05-27,関宿中央サービス株式会社,,株式会社,千葉県,野田市,平井２３７－２,,12,208,2700225,,,,,,,2022-05-27,1,,,,,セキヤドチュウオウサービス,0
1972,8040001123598,新規,0,2022-05-27,2022-05-27,株式会社Ｄａｎｄｅｌｉｏｎ　Ｊａｐａｎ,,株式会社,千葉県,白井市,桜台２丁目１７－５,,12,232,2701412,,,,,,,2022-05-27,1,,,,,ダンデライオンジャパン,0
1975,8040003020067,新規,0,2022-05-27,2022-05-27,いすみ大原発電所合同会社,,合同会社,千葉県,いすみ市,大原１０８９４番地,,12,238,2980004,,,,,,,2022-05-27,1,,,,,イスミオオハラハツデンショ,0
1976,8040003020117,新規,0,2022-05-27,2022-05-27,合同会社こころケア,,合同会社,千葉県,印西市,木下１５２１－２７,,12,231,2701326,,,,,,,2022-05-27,1,,,,,ココロケア,0
1980,8060001034901,新規,0,2022-05-27,2022-05-27,株式会社北真工業,,株式会社,栃木県,大田原市,紫塚１丁目１１番４号猪瀬アパート５号,,09,210,3240058,,,,,,,2022-05-27,1,,,,,ホクシンコウギョウ,0
1981,8060003004084,新規,0,2022-05-27,2022-05-27,ＲＥＧＡＮ合同会社,,合同会社,栃木県,栃木市,平柳町１丁目１１番５号,,09,203,3280012,,,,,,,2022-05-27,1,,,,,リーガン,0
1983,8080001024966,新規,0,2022-05-27,2022-05-27,株式会社Ｓｅｖｅｎ　Ｂｒｉｇｈｔ,,株式会社,静岡県,静岡市葵区,伝馬町９番地の４,,22,101,4200858,,,,,,,2022-05-27,1,,,,,セブンブライト,0
1996,8120001246077,新規,0,2022-05-27,2022-05-27,株式会社ＬＩＯＡＳ,,株式会社,大阪府,大阪市中央区,本町２丁目３番４号,,27,128,5410053,,,,,,,2022-05-27,1,,,,,リオアス,0
1997,8120001246093,新規,0,2022-05-27,2022-05-27,株式会社アークス,,株式会社,大阪府,大阪市福島区,吉野１丁目１番２号,,27,103,5530006,,,,,,,2022-05-27,1,,,,,アークス,0
1998,8120001246127,新規,0,2022-05-27,2022-05-27,株式会社Ｓｏｄａ,,株式会社,大阪府,大阪市天王寺区,大道２丁目２番６号ホーユウコンフォルト天王寺東４０１号,,27,109,5430052,,,,,,,2022-05-27,1,,,,,ソーダ,0
1999,8120001246151,新規,0,2022-05-27,2022-05-27,株式会社ＧＥＮ,,株式会社,大阪府,大阪市生野区,林寺４丁目５番５号－４０２号,,27,116,5440023,,,,,,,2022-05-27,1,,,,,ゲン,0
2000,8120001246176,新規,0,2022-05-27,2022-05-27,株式会社トライスター,,株式会社,大阪府,大阪市浪速区,桜川２丁目７番２号１４０５号室,,27,111,5560022,,,,,,,2022-05-27,1,,,,,トライスター,0
2001,8120001246184,新規,0,2022-05-27,2022-05-27,恒輝国際株式会社,,株式会社,大阪府,大阪市浪速区,日本橋５丁目１３番２０号５Ｆ,,27,111,5560005,,,,,,,2022-05-27,1,,,,,コウキコクサイ,0
2002,8120001246192,新規,0,2022-05-27,2022-05-27,株式会社ＶＳＤホールディングス,,株式会社,大阪府,大阪市中央区,谷町２丁目９番３号,,27,128,5400012,,,,,,,2022-05-27,1,,,,,ブイエスディホールディングス,0
2003,8120001246201,新規,0,2022-05-27,2022-05-27,株式会社Ｏ．Ｋスチール,,株式会社,大阪府,大阪市住之江区,新北島１丁目９番１１－１５０１号,,27,125,5590024,,,,,,,2022-05-27,1,,,,,オーケースチール,0
2004,8120001246218,新規,0,2022-05-27,2022-05-27,株式会社ロックキャッスルズ,,株式会社,大阪府,大阪市北区,浪花町２番１－３０１号,,27,127,5300022,,,,,,,2022-05-27,1,,,,,ロックキャッスルズ,0
2006,8120003021775,新規,0,2022-05-27,2022-05-27,合同会社Ｔｈｉｒｄ　Ｐｌａｃｅ,,合同会社,大阪府,大阪市浪速区,桜川４丁目１０番１２－２０７号,,27,111,5560022,,,,,,,2022-05-27,1,,,,,サードプレイス,0
2008,8120005022953,新規,0,2022-05-27,2022-05-27,一般社団法人ＧＰＲ協会,,その他の設立登記法人,大阪府,枚方市,宮之阪３丁目１４番２３号,,27,210,5730022,,,,,,,2022-05-27,1,,,,,ジーピーアールキョウカイ,0
2013,8122001035897,新規,0,2022-05-27,2022-05-27,株式会社コムティーズ,,株式会社,大阪府,東大阪市,若江西新町４丁目７番３号,,27,227,5780944,,,,,,,2022-05-27,1,,,,,コムティーズ,0
2022,8140001126137,新規,0,2022-05-27,2022-05-27,株式会社ＥＭＵＤＡ,,株式会社,兵庫県,西宮市,名塩木之元２０－２５,,28,204,6691136,,,,,,,2022-05-27,1,,,,,エムダ,0
2024,8140003017706,新規,0,2022-05-27,2022-05-27,Ｌｉｖｅｌｙ　Ｈｉｎａ・Ｃｏｏ　ａｎｄ　Ｍａｒｏｎ合同会社,,合同会社,兵庫県,加古川市,加古川町美乃利３１０－６２,,28,210,6750062,,,,,,,2022-05-27,1,,,,,ライブリーヒナクーアンドマロン,0
2025,8140003017722,新規,0,2022-05-27,2022-05-27,ＷＩＮ合同会社,,合同会社,兵庫県,神戸市長田区,東尻池町１丁目１番１０号,,28,106,6530022,,,,,,,2022-05-27,1,,,,,ウィン,0
2031,8180001151445,新規,0,2022-05-27,2022-05-27,株式会社笹倉製作所,,株式会社,愛知県,一宮市,北方町北方字内沼３０番地１,,23,203,4938001,,,,,,,2022-05-27,1,,,,,ササクラセイサクショ,0
2032,8180001151461,新規,0,2022-05-27,2022-05-27,匠工機株式会社,,株式会社,愛知県,名古屋市緑区,大清水東１０２６番地,,23,114,4580849,,,,,,,2022-05-27,1,,,,,タクミコウキ,0
2036,8190001029442,新規,0,2022-05-27,2022-05-27,株式会社吉原建設,,株式会社,三重県,松阪市,甚目町５３９番地１,,24,204,5152108,,,,,,,2022-05-27,1,,,,,ヨシハラケンセツ,0
2039,8200001040100,新規,0,2022-05-27,2022-05-27,株式会社アセンドラボ,,株式会社,岐阜県,岐阜市,長住町５丁目４番地１０,,21,201,5008175,,,,,,,2022-05-27,1,,,,,アセンドラボ,0
2045,8240001059797,新規,0,2022-05-27,2022-05-27,株式会社かいんど,,株式会社,広島県,福山市,津之郷町大字津之郷８１０番地７,,34,207,7200841,,,,,,,2022-05-27,1,,,,,カインド,0
2046,8240001059814,新規,0,2022-05-27,2022-05-27,株式会社ＥＩＧＨＴ,,株式会社,広島県,広島市佐伯区,八幡東３丁目２０番６号,,34,108,7315115,,,,,,,2022-05-27,1,,,,,エイト,0
2050,8260003003925,新規,0,2022-05-27,2022-05-27,合同会社Ｃａｒ　Ｆａｃｔｏｒｙ　Ｓ＆Ｋ,,合同会社,岡山県,小田郡矢掛町,東三成２８４１番地の１,,33,461,7141211,,,,,,,2022-05-27,1,,,,,,0
2051,8270001008529,新規,0,2022-05-27,2022-05-27,株式会社太陽メタル,,株式会社,鳥取県,東伯郡湯梨浜町,大字園１８０９番地４,,31,370,6890605,,,,,,,2022-05-27,1,,,,,タイヨウメタル,0
2055,8290001097677,新規,0,2022-05-27,2022-05-27,株式会社カツキ,,株式会社,福岡県,福岡市西区,今宿駅前１丁目９番１９号,,40,135,8190168,,,,,,,2022-05-27,1,,,,,カツキ,0
2056,8290001097685,新規,0,2022-05-27,2022-05-27,イデアハウス不動産株式会社,,株式会社,福岡県,福岡市早良区,城西３丁目１７番１８号,,40,137,8140003,,,,,,,2022-05-27,1,,,,,イデアハウスフドウサン,0
2057,8290001097693,新規,0,2022-05-27,2022-05-27,株式会社西村設備,,株式会社,福岡県,嘉麻市,泉河内３７４番地１,,40,227,8200334,,,,,,,2022-05-27,1,,,,,ニシムラセツビ,0
2063,8290801028567,新規,0,2022-05-27,2022-05-27,株式会社コラレ,,株式会社,福岡県,中間市,岩瀬西町４１番１０号,,40,215,8090041,,,,,,,2022-05-27,1,,,,,コラレ,0
2066,8330001029766,新規,0,2022-05-27,2022-05-27,グリット・カートレーディング株式会社,,株式会社,熊本県,熊本市中央区,下通１丁目３－８下通ＮＳビル６Ｆ,,43,101,8600807,,,,,,,2022-05-27,1,,,,,グリットカートレーディング,0
2086,8430001086723,新規,0,2022-05-27,2022-05-27,株式会社Ｆｉｅｌｄ’ｓ　ｌｉｎｅ,,株式会社,北海道,札幌市豊平区,平岸二条３丁目６番３０号コーポラス柳田１Ｆ,,01,105,0620932,,,,,,,2022-05-27,1,,,,,フィールズライン,0
2101,8700150108762,新規,0,2022-05-27,2022-05-16,彩鳳会,,その他,東京都,中野区,上高田１丁目３５－４第二昭和ビル２２,,13,114,1640002,,,,,,,2022-05-16,1,,,,,サイホウカイ,0
2109,9010001226923,新規,0,2022-05-27,2022-05-27,株式会社ミカタ,,株式会社,東京都,千代田区,九段南１丁目５番６号りそな九段ビル５階ＫＳフロア,,13,101,1020074,,,,,,,2022-05-27,1,,,,,ミカタ,0
2112,9010005035065,新規,0,2022-05-27,2022-05-27,一般社団法人ＬＩＭ印西,,その他の設立登記法人,東京都,中央区,日本橋１丁目４番１号日本橋一丁目ビルディング,,13,102,1030027,,,,,,,2022-05-27,1,,,,,リムインザイ,0
2113,9010103001919,新規,0,2022-05-27,2022-05-27,ＨｉｌｌＢｉｇ合同会社,,合同会社,東京都,八王子市,万町１２３‐７‐１０６,,13,201,1920903,,,,,,,2022-05-27,1,,,,,ヒルビッグ,0
2117,9010401167552,新規,0,2022-05-27,2022-05-27,タンデムゲイン株式会社,,株式会社,東京都,港区,南青山３丁目１０番４１号ジュエル青山ビル２０２号,,13,103,1070062,,,,,,,2022-05-27,1,,,,,タンデムゲイン,0
2120,9010405021045,新規,0,2022-05-27,2022-05-27,ＴＯＫＹＯ２３レジデンシャルファンド２特定目的会社,,その他の設立登記法人,東京都,港区,赤坂９丁目６番２８－１００２号麻布総合会計事務所内,,13,103,1070052,,,,,,,2022-05-27,1,,,,,トウキョウニジュウサンレジデンシャルファンドツー,0
2144,9011001147738,新規,0,2022-05-27,2022-05-27,株式会社みらいスタジオ,,株式会社,東京都,渋谷区,恵比寿西１丁目３３番６号,,13,113,1500021,,,,,,,2022-05-27,1,,,,,,0
2146,9011003014639,新規,0,2022-05-27,2022-05-27,合同会社青い空,,合同会社,東京都,渋谷区,道玄坂１丁目１０番８号渋谷道玄坂東急ビル２Ｆ－Ｃ,,13,113,1500043,,,,,,,2022-05-27,1,,,,,アオイソラ,0
2153,9011101098955,新規,0,2022-05-27,2022-05-27,株式会社ＶＥＲＴＥＸ,,株式会社,東京都,新宿区,西新宿７丁目１０番１７,,13,104,1600023,,,,,,,2022-05-27,1,,,,,ヴァーテックス,0
2154,9011103011791,新規,0,2022-05-27,2022-05-27,合同会社ジェイ・エス・ジー,,合同会社,東京都,新宿区,下宮比町１番４号,,13,104,1620822,,,,,,,2022-05-27,1,,,,,ジェイエスジー,0
2155,9011203003821,新規,0,2022-05-27,2022-05-27,葛城合同会社,,合同会社,東京都,中野区,江原町２丁目２１番７－５０４号,,13,114,1650023,,,,,,,2022-05-27,1,,,,,カツラギ,0
2162,9011603003611,新規,0,2022-05-27,2022-05-27,ＳＴＡＲＴ　ＤＡＹ１合同会社,,合同会社,東京都,練馬区,富士見台２丁目１７番４号,,13,120,1770034,,,,,,,2022-05-27,1,,,,,スタートデイワン,0
2164,9011803005102,新規,0,2022-05-27,2022-05-27,合同会社赤,,合同会社,東京都,足立区,千住河原町１３番４号,,13,121,1200037,,,,,,,2022-05-27,1,,,,,アカ,0
2173,9012701017073,新規,0,2022-05-27,2022-05-27,株式会社Ｋ‐ＢＩＧ　ＲｅＨｏｍｅ,,株式会社,東京都,西東京市,住吉町１丁目１５番１号,,13,229,2020005,,,,,,,2022-05-27,1,,,,,ケービッグリホーム,0
2175,9012801021611,新規,0,2022-05-27,2022-05-27,株式会社Ｓｔａｙ　Ｆｏｃｕｓ,,株式会社,東京都,国分寺市,北町４丁目５－５北町パルハイツ１０１,,13,214,1850001,,,,,,,2022-05-27,1,,,,,ステイフォーカス,0
2200,9021001076044,新規,0,2022-05-27,2022-05-27,株式会社這寄影,,株式会社,神奈川県,厚木市,森の里２丁目２８番１６号,,14,212,2430122,,,,,,,2022-05-27,1,,,,,,0
2203,9021003011742,新規,0,2022-05-27,2022-05-27,合同会社アールエススリー,,合同会社,神奈川県,厚木市,愛甲２丁目６番１８号,,14,212,2430035,,,,,,,2022-05-27,1,,,,,アールエススリー,0
2228,9040001123572,新規,0,2022-05-27,2022-05-27,株式会社三福,,株式会社,千葉県,松戸市,小山８１６番地の６,,12,207,2710093,,,,,,,2022-05-27,1,,,,,サンフク,0
2229,9040001123606,新規,0,2022-05-27,2022-05-27,株式会社脇屋左官,,株式会社,千葉県,長生郡長生村,一松１９７０番地２,,12,423,2994327,,,,,,,2022-05-27,1,,,,,ワキヤサカン,0
2231,9040003020058,新規,0,2022-05-27,2022-05-27,全順合同会社,,合同会社,千葉県,松戸市,稔台１丁目１２番地の１５第二山田ビル１０１,,12,207,2702231,,,,,,,2022-05-27,1,,,,,ゼンジュン,0
2232,9040003020099,新規,0,2022-05-27,2022-05-27,合同会社Ｎ’ｓ　Ｌｉｆｅ,,合同会社,千葉県,松戸市,五香７丁目５９番地の１２,,12,207,2702213,,,,,,,2022-05-27,1,,,,,エヌズライフ,0
2240,9060001034909,新規,0,2022-05-27,2022-05-27,ビアルベロ株式会社,,株式会社,栃木県,宇都宮市,飯田町３４０番地１,,09,201,3210347,,,,,,,2022-05-27,1,,,,,ビアルベロ,0
2245,9060003004075,新規,0,2022-05-27,2022-05-27,Ｇｒｅｅｎ　ｉｎｓｉｇｈｔ合同会社,,合同会社,栃木県,那須塩原市,太夫塚４丁目２０９番地２０,,09,213,3292735,,,,,,,2022-05-27,1,,,,,グリーンインサイト,0
2246,9060003004083,新規,0,2022-05-27,2022-05-27,ＧＲＴ合同会社,,合同会社,栃木県,下野市,薬師寺２１０１番地２,,09,216,3290431,,,,,,,2022-05-27,1,,,,,ジーアールティー,0
2247,9070003004495,新規,0,2022-05-27,2022-05-27,合同会社プロパティ,,合同会社,群馬県,佐波郡玉村町,大字上之手１５４３番地１ダイアパレス県立女子大前３１６号,,10,464,3701127,,,,,,,2022-05-27,1,,,,,プロパティ,0
2248,9080001024965,新規,0,2022-05-27,2022-05-27,株式会社Ｓｕｎｎｙ,,株式会社,静岡県,静岡市葵区,伝馬町９番地の４,,22,101,4200858,,,,,,,2022-05-27,1,,,,,サニー,0
2257,9120001246134,新規,0,2022-05-27,2022-05-27,享趣株式会社,,株式会社,大阪府,大阪市西淀川区,柏里２丁目７－２６ラ・ピース塚本５０２号室,,27,113,5550022,,,,,,,2022-05-27,1,,,,,キョウシュ,0
2258,9120001246191,新規,0,2022-05-27,2022-05-27,ＭＩＮ　ＭＩＮ株式会社,,株式会社,大阪府,大阪市西成区,鶴見橋１丁目１６－１８,,27,122,5570031,,,,,,,2022-05-27,1,,,,,ミンミン,0
2259,9120001246217,新規,0,2022-05-27,2022-05-27,株式会社ＣＯＯ,,株式会社,大阪府,大阪市中央区,安土町２丁目５番５号,,27,128,5410052,,,,,,,2022-05-27,1,,,,,クー,0
2261,9120003021758,新規,0,2022-05-27,2022-05-27,合同会社ヘブンリーハナ,,合同会社,大阪府,大阪市北区,中崎西１丁目１１－１７,,27,127,5300015,,,,,,,2022-05-27,1,,,,,ヘブンリーハナ,0
2263,9120005022969,新規,0,2022-05-27,2022-05-27,ＮＰＯ法人さぁネット,,その他の設立登記法人,大阪府,寝屋川市,大利元町１２番８号,,27,215,5720047,,,,,,,2022-05-27,1,,,,,サァネット,0
2270,9122001035905,新規,0,2022-05-27,2022-05-27,ジャパンソリューション株式会社,,株式会社,大阪府,八尾市,太田新町４丁目１００番地,,27,212,5810039,,,,,,,2022-05-27,1,,,,,ジャパンソリューション,0
2273,9130001071861,新規,0,2022-05-27,2022-05-27,京石油株式会社,,株式会社,京都府,京都市北区,紫野下門前町６３番地３,,26,101,6038215,,,,,,,2022-05-27,1,,,,,ミヤコセキユ,0
2280,9140001126136,新規,0,2022-05-27,2022-05-27,株式会社ウィスツリー,,株式会社,兵庫県,西宮市,名塩さくら台３丁目８－６,,28,204,6691146,,,,,,,2022-05-27,1,,,,,ウィスツリー,0
2286,9170005006959,新規,0,2022-05-27,2022-05-27,一般社団法人幹らんど,,その他の設立登記法人,和歌山県,和歌山市,冬野７０３番地９,,30,201,6400332,,,,,,,2022-05-27,1,,,,,ミキランド,0
2302,9180001151394,新規,0,2022-05-27,2022-05-27,株式会社鈴や商店,,株式会社,愛知県,愛西市,諏訪町郷東９３番地６、２Ｆ,,23,232,4968011,,,,,,,2022-05-27,1,,,,,スズヤショウテン,0
2308,9180003023864,新規,0,2022-05-27,2022-05-27,合同会社ａｔ　Ｆｉｒｓｔ,,合同会社,愛知県,名古屋市中村区,西栄町２７番地,,23,105,4530846,,,,,,,2022-05-27,1,,,,,アットファースト,0
2310,9180301036262,新規,0,2022-05-27,2022-05-27,株式会社アパート工房ジャパン,,株式会社,愛知県,額田郡幸田町,大字坂崎字石ノ塔１１７番地７,,23,501,4440104,,,,,,,2022-05-27,1,,,,,アパートコウボウジャパン,0
2312,9190001029441,新規,0,2022-05-27,2022-05-27,希米神株式会社,,株式会社,三重県,鈴鹿市,野村町５５３番地１,,24,207,5100203,,,,,,,2022-05-27,1,,,,,キマイシン,0
2314,9200001040099,新規,0,2022-05-27,2022-05-27,株式会社和手,,株式会社,岐阜県,岐阜市,則武中１丁目２５番１０号,,21,201,5020932,,,,,,,2022-05-27,1,,,,,ニコデ,0
2322,9230003001856,新規,0,2022-05-27,2022-05-27,ｅｍｉｋｏ　ｏｆｆｉｃｅ合同会社,,合同会社,富山県,富山市,桜橋通り３番１号富山電気ビルディング本館２階,,16,201,9300004,,,,,,,2022-05-27,1,,,,,エミコオフィス,0
2324,9240001059813,新規,0,2022-05-27,2022-05-27,巧光工業株式会社,,株式会社,広島県,広島市安佐南区,長束１丁目２１番２６号,,34,105,7310135,,,,,,,2022-05-27,1,,,,,タクミコウギョウ,0
2325,9240001059821,新規,0,2022-05-27,2022-05-27,株式会社ＮＫ技建,,株式会社,広島県,広島市安佐南区,大町東１丁目１２番１３－１４０３号,,34,105,7310124,,,,,,,2022-05-27,1,,,,,エヌケイギケン,0
2330,9260001036868,新規,0,2022-05-27,2022-05-27,ＬＵＭＥ株式会社,,株式会社,岡山県,岡山市東区,藤井１７５番地１２,,33,103,7038213,,,,,,,2022-05-27,1,,,,,ルーメ,0
2332,9260003003924,新規,0,2022-05-27,2022-05-27,合同会社Ｈｉｇｈ　Ｆｉｅｌｄ,,合同会社,岡山県,岡山市東区,神崎町１８３０－１,,33,103,7048138,,,,,,,2022-05-27,1,,,,,ハイフィールド,0
2333,9260005011090,新規,0,2022-05-27,2022-05-27,グレースタワー管理組合法人,,その他の設立登記法人,岡山県,岡山市北区,野田屋町１丁目１１番１号,,33,101,7000815,,,,,,,2022-05-27,1,,,,,グレースタワー,0
2339,9290001097668,新規,0,2022-05-27,2022-05-27,株式会社ピコラボ,,株式会社,福岡県,福岡市中央区,天神１丁目１番１号,,40,133,8100001,,,,,,,2022-05-27,1,,,,,ピコラボ,0
2341,9290003012550,新規,0,2022-05-27,2022-05-27,ａｒｃｈ　ｐｌｕｓ合同会社,,合同会社,福岡県,久留米市,東合川町１２３番地７,,40,203,8390807,,,,,,,2022-05-27,1,,,,,アーチプラス,0
2342,9290801028566,新規,0,2022-05-27,2022-05-27,ラシルフィード株式会社,,株式会社,福岡県,北九州市八幡西区,藤田１丁目８番１５号,,40,109,8060022,,,,,,,2022-05-27,1,,,,,,0
2347,9320001019081,新規,0,2022-05-27,2022-05-27,株式会社直北,,株式会社,大分県,豊後大野市,大野町北園１７０１番地,,44,212,8796435,,,,,,,2022-05-27,1,,,,,ナオキタ,0
2351,9340001024749,新規,0,2022-05-27,2022-05-27,株式会社慶,,株式会社,鹿児島県,鹿児島市,上之園町１４番地６カールトン７０１号,,46,201,8900052,,,,,,,2022-05-27,1,,,,,ケイ,0
2354,9340005009465,新規,0,2022-05-27,2022-05-27,一般社団法人ｋｉ．ｚｕ．ｎａ,,その他の設立登記法人,鹿児島県,鹿児島市,宇宿１丁目２７番１－５０５,,46,201,8900073,,,,,,,2022-05-27,1,,,,,キズナ,0
2358,9370001048596,新規,0,2022-05-27,2022-05-27,株式会社サカキ自動車商会,,株式会社,宮城県,仙台市若林区,卸町東３丁目３－３,,04,103,9840002,,,,,,,2022-05-27,1,,,,,サカキジドウシャショウカイ,0
2359,9370001048605,新規,0,2022-05-27,2022-05-27,株式会社クレイヴ,,株式会社,宮城県,柴田郡柴田町,北船岡１丁目１２番１７号,,04,323,9891623,,,,,,,2022-05-27,1,,,,,クレイヴ,0
2374,9430001086739,新規,0,2022-05-27,2022-05-27,株式会社建鐵,,株式会社,北海道,札幌市北区,新琴似六条１５丁目１番１２号,,01,102,0010906,,,,,,,2022-05-27,1,,,,,ケンテツ,0
2386,9700150101089,新規,0,2022-05-27,2020-11-17,労働協同組合　くろーばー,,その他,大分県,別府市,内竈８５－１,,44,202,8740011,,,,,,,2020-11-17,1,,,,,ロウドウキヨウドウクミアイクローバー,0
2388,9700150108563,新規,0,2022-05-27,2022-05-09,潤星会,,その他,東京都,武蔵野市,境南町５丁目３－１７,,13,203,1800023,,,,,,,2022-05-09,1,,,,,ジユンセイカイ,0
