sequenceNumber,corporateNumber,process,correct,updateDate,changeDate,name,nameImageId,kind,prefectureName,cityName,streetNumber,addressImageId,prefectureCode,cityCode,postCode,addressOutside,addressOutsideImageId,closeDate,closeCause,successorCorporateNumber,changeCause,assignmentDate,latest,enName,enPrefectureName,enCityName,enAddressOutside,furigana,hihyoji
5,1010001107156,登記記録の閉鎖等,0,2025-02-21,2025-02-06,アイシーピー株式会社,,株式会社,東京都,中央区,勝どき５丁目１２番４－４０２号,,13,102,1040054,,,2025-02-06,清算の結了等,,,2015-10-05,1,,,,,アイシーピー,0
14,1010003032534,登記記録の閉鎖等,0,2025-02-21,2025-02-06,板垣ゲームズ合同会社,,合同会社,東京都,中央区,入船２丁目１０番７号,,13,102,1040042,,,2025-02-06,清算の結了等,,,2020-07-13,1,,,,,イタガキゲームズ,0
21,1010401004812,登記記録の閉鎖等,0,2025-02-21,2025-01-28,株式会社越中屋,,株式会社,東京都,港区,白金２丁目３番１号,,13,103,1080072,,,2025-01-28,清算の結了等,,,2015-10-05,1,,,,,,0
31,1010401187087,登記記録の閉鎖等,0,2025-02-21,2025-02-19,株式会社ＡＲＥマンション一括受電３５５,,株式会社,東京都,港区,芝浦３丁目４番１号,,13,103,1080023,,,2025-02-19,合併による解散等,1122001007449,令和７年１月３１日東京都千代田区丸の内一丁目８番１号丸の内トラストタワーＮ館１４階レジル株式会社（1122001007449）に合併し解散,2024-12-19,1,,,,,エーアールイーマンションイッカツジュデンサンゴーゴー,0
67,1011501017398,登記記録の閉鎖等,0,2025-02-21,2025-02-18,福盛商事株式会社,,株式会社,埼玉県,川口市,本町１丁目９番４号－１Ｆ,,11,203,3320012,,,2025-02-18,清算の結了等,,,2015-10-05,1,,,,,フクモリショウジ,0
96,1021005010361,登記記録の閉鎖等,0,2025-02-21,2025-02-20,一般社団法人Ｃｏ‐Ｃｒｅａｔｉｏｎ　Ｎｅｔｗｏｒｋ,,その他の設立登記法人,神奈川県,鎌倉市,今泉台２丁目１０番３号,,14,204,2470053,,,2025-02-20,清算の結了等,,,2015-10-05,1,,,,,コクリエーションネットワーク,0
102,1030001083775,登記記録の閉鎖等,0,2025-02-21,2025-02-19,株式会社すまいポート２１埼玉,,株式会社,埼玉県,さいたま市緑区,美園５丁目４８番地９,,11,109,3360967,,,2025-02-19,清算の結了等,,,2015-10-05,1,,,,,スマイポートニジュウイチサイタマ,0
114,1040001003229,登記記録の閉鎖等,0,2025-02-21,2025-02-17,株式会社島商車体,,株式会社,千葉県,千葉市若葉区,小倉町１８０８番地１６,,12,104,2640007,,,2025-02-17,清算の結了等,,,2015-10-05,1,,,,,シマショウシャタイ,0
116,1040001103012,登記記録の閉鎖等,0,2025-02-21,2025-02-17,株式会社ヒューマンアクアリウムボンド,,株式会社,千葉県,成田市,東町８２番地２,,12,211,2860025,,,2025-02-17,清算の結了等,,,2018-01-04,1,,,,,ヒューマンアクアリウムボンド,0
122,1040002092601,登記記録の閉鎖等,0,2025-02-21,2025-02-17,有限会社コンプレックス,,有限会社,千葉県,我孫子市,白山１丁目８番１号,,12,222,2701154,,,2025-02-17,清算の結了等,,,2015-10-05,1,,,,,コンプレックス,0
126,1050002006238,登記記録の閉鎖等,0,2025-02-21,2025-02-14,有限会社健伸,,有限会社,茨城県,水戸市,笠原町１６０２番地の４,,08,201,3100852,,,2025-02-14,清算の結了等,,,2015-10-05,1,,,,,ケンシン,0
138,1080401018616,登記記録の閉鎖等,0,2025-02-21,2025-02-20,株式会社ＨＫＮ,,株式会社,静岡県,浜松市中央区,大島町６５４番地の２,,22,138,4313112,,,2025-02-20,清算の結了等,,,2015-10-05,1,,,,,エイチケイエヌ,0
139,1090001018081,登記記録の閉鎖等,0,2025-02-21,2025-02-17,Ｒ．Ｄｅｓｉｇｎ株式会社,,株式会社,山梨県,中巨摩郡昭和町,河東中島１７４２番地４,,19,384,4093863,,,2025-02-17,清算の結了等,,,2023-04-19,1,,,,,アールデザイン,0
174,1122001015294,登記記録の閉鎖等,0,2025-02-21,2025-02-20,小出エンジニアリング株式会社,,株式会社,大阪府,大東市,新田中町７番１３号,,27,218,5740056,,,2025-02-20,清算の結了等,,,2015-10-05,1,,,,,コイデエンジニアリング,0
175,1122003001904,登記記録の閉鎖等,0,2025-02-21,2025-02-12,合同会社ＵＲｙｕ,,合同会社,長野県,駒ヶ根市,中沢１１９９８番地,,20,210,3994231,,,2025-02-12,清算の結了等,,,2020-08-07,1,,,,,ウリュウ,0
205,1200002018639,登記記録の閉鎖等,0,2025-02-21,2025-02-20,有限会社岐阜ガイド・トラベル企画,,有限会社,岐阜県,関市,小瀬２９番地の１,,21,205,5013265,,,2025-02-20,清算の結了等,,,2015-10-05,1,,,,,ギフガイドトラベル,0
225,1290003011312,登記記録の閉鎖等,0,2025-02-21,2025-02-10,合同会社ラグーン商会,,合同会社,福岡県,みやま市,瀬高町小田３０３５番地６,,40,229,8350002,,,2025-02-10,清算の結了等,,,2021-06-18,1,,,,,ラグーンショウカイ,0
255,1460101004547,登記記録の閉鎖等,0,2025-02-21,2025-02-17,株式会社グリル,,株式会社,北海道,河西郡中札内村,元札内東４線３１１番地６,,01,638,0891372,,,2025-02-17,合併による解散等,7430001047932,令和７年２月１日北海道夕張市社光１番地８株式会社グリーンロジスティクス（7430001047932）に合併し解散,2015-10-05,1,,,,,グリル,0
289,2010503004255,登記記録の閉鎖等,0,2025-02-21,2025-02-13,合同会社観光創造ラボ,,合同会社,東京都,台東区,花川戸１丁目３番３号矢吹ビル１Ｆ,,13,106,1110033,,,2025-02-13,清算の結了等,,,2015-10-05,1,,,,,カンコウソウゾウラボ,0
300,2011001022030,登記記録の閉鎖等,0,2025-02-21,2025-01-28,株式会社マザーシップ,,株式会社,東京都,渋谷区,恵比寿西１丁目３２番２６号,,13,113,1500021,,,2025-01-28,清算の結了等,,,2015-10-05,1,,,,,マザーシップ,0
331,2012805002655,登記記録の閉鎖等,0,2025-02-21,2025-02-18,一般社団法人ゼロポイントファシリテーター協会,,その他の設立登記法人,新潟県,村上市,山辺里９０１番地６・１階Ａ号室,,15,212,9580821,,,2025-02-18,清算の結了等,,,2017-03-27,1,,,,,ゼロポイントファシリテーターキョウカイ,0
347,2021001025412,登記記録の閉鎖等,0,2025-02-21,2025-02-20,スタッフインターナショナル株式会社,,株式会社,神奈川県,大和市,上和田１０９０番地の１４,,14,213,2420014,,,2025-02-20,清算の結了等,,,2015-10-05,1,,,,,スタッフインターナショナル,0
355,2021002021451,登記記録の閉鎖等,0,2025-02-21,2025-02-18,有限会社スズカワ企画,,有限会社,神奈川県,相模原市中央区,上溝５丁目５番１３号,,14,152,2520243,,,2025-02-18,清算の結了等,,,2015-10-05,1,,,,,スズカワキカク,0
357,2021003003449,登記記録の閉鎖等,0,2025-02-21,2025-02-20,合同会社ロングショット,,合同会社,神奈川県,横須賀市,大矢部２丁目８番１１号,,14,201,2380024,,,2025-02-20,清算の結了等,,,2015-10-05,1,,,,,,0
384,2060001016541,登記記録の閉鎖等,0,2025-02-21,2025-02-18,株式会社栃木カルテック,,株式会社,栃木県,栃木市,河合町５番３号岡ビル３階,,09,203,3280041,,,2025-02-18,清算の結了等,,,2015-10-05,1,,,,,トチギカルテック,0
391,2090001016753,登記記録の閉鎖等,0,2025-02-21,2025-02-18,Ｍａｆｏｒａ　ｅｓｔａｔｅ株式会社,,株式会社,山梨県,甲府市,里吉４丁目３番１２号,,19,201,4000822,,,2025-02-18,清算の結了等,,,2020-12-16,1,,,,,マフォラエステート,0
396,2110005013835,登記記録の閉鎖等,0,2025-02-21,2025-02-18,農事組合法人あぐり山田下,,その他の設立登記法人,新潟県,魚沼市,山田１０８８番地,,15,225,9460055,,,2025-02-18,清算の結了等,,,2015-10-05,1,,,,,アグリヤマダシタ,0
399,2120001188647,登記記録の閉鎖等,0,2025-02-21,2025-02-17,イーサイド株式会社,,株式会社,大阪府,大阪市阿倍野区,桃ケ池町２丁目７番４号メゾン南桃園２０３号,,27,119,5450012,,,2025-02-17,清算の結了等,,,2015-10-05,1,,,,,イーサイド,0
419,2120901022087,登記記録の閉鎖等,0,2025-02-21,2025-02-14,株式会社アイシスジェニー,,株式会社,大阪府,箕面市,牧落２丁目１４番１３号,,27,220,5620004,,,2025-02-14,清算の結了等,,,2015-10-05,1,,,,,アイシスジェニー,0
428,2122001004643,登記記録の閉鎖等,0,2025-02-21,2025-02-20,竹村化成工業株式会社,,株式会社,大阪府,東大阪市,本庄２丁目２－１２,,27,227,5780953,,,2025-02-20,清算の結了等,,,2015-10-05,1,,,,,タケムラカセイコウギョウ,0
435,2130005011102,登記記録の閉鎖等,0,2025-02-21,2025-01-28,丸山神社,,その他の設立登記法人,京都府,京丹後市,弥栄町野中３３１番地の１,,26,212,6270101,,,2025-01-28,合併による解散等,4130005010952,令和７年１月２８日京都府京丹後市弥栄町野中１９８５番地大宮神社（4130005010952）に合併し解散,2015-10-05,1,,,,,マルヤマジンジャ,0
436,2130005015771,登記記録の閉鎖等,0,2025-02-21,2025-02-20,司法書士法人御池事務所,,その他の設立登記法人,京都府,京都市中京区,柳馬場通御池下る柳八幡町６５番地,,26,104,6048101,,,2025-02-20,清算の結了等,,,2019-12-13,1,,,,,オイケジムショ,0
457,2180301022715,登記記録の閉鎖等,0,2025-02-21,2025-02-17,株式会社西尾水産卸売市場,,株式会社,愛知県,西尾市,須田町２番地の３,,23,213,4450862,,,2025-02-17,清算の結了等,,,2015-10-05,1,,,,,ニシオスイサンオロシウリイチバ,0
465,2210001001008,登記記録の閉鎖等,0,2025-02-21,2025-02-20,株式会社協栄印刷,,株式会社,福井県,福井市,足羽４丁目２番１１号,,18,201,9188007,,,2025-02-20,清算の結了等,,,2015-10-05,1,,,,,キョウエイインサツ,0
479,2240002039688,登記記録の閉鎖等,0,2025-02-21,2025-02-17,有限会社エムケーエイチ,,有限会社,広島県,福山市,丸之内１丁目２番７－８０４号,,34,207,7200061,,,2025-02-17,清算の結了等,,,2015-10-05,1,,,,,エムケーエイチ,0
485,2280001003030,登記記録の閉鎖等,0,2025-02-21,2025-02-20,藍株式会社,,株式会社,島根県,安来市,植田町２９５番地２,,32,206,6920063,,,2025-02-20,清算の結了等,,,2015-10-05,1,,,,,アイ,0
494,2290002054947,登記記録の閉鎖等,0,2025-02-21,2025-02-06,有限会社有働耕介商店,,有限会社,福岡県,大牟田市,沖田町４５６番地の１,,40,202,8360091,,,2025-02-06,清算の結了等,,,2015-10-05,1,,,,,ウドウコウスケショウテン,0
522,2410001008511,登記記録の閉鎖等,0,2025-02-21,2025-02-03,秋南デンカ生コン株式会社,,株式会社,秋田県,仙北市,角館町西長野月見堂７３番地の３,,05,215,0140344,,,2025-02-03,合併による解散等,5410001002734,令和７年２月１日秋田市川尻町字大川反１７０番地１４秋田合同生コン株式会社（5410001002734）に合併し解散,2015-10-05,1,,,,,シュウナンデンカナマコン,0
541,3010001241556,登記記録の閉鎖等,0,2025-02-21,2025-02-13,株式会社ＳＡＴＴＯＮ,,株式会社,広島県,広島市中区,鶴見町１１番８－６０６号,,34,101,7300045,,,2025-02-13,清算の結了等,,,2024-01-22,1,,,,,サットン,0
577,3011001146596,登記記録の閉鎖等,0,2025-02-21,2025-01-27,株式会社Ｍａｘｗｅｌｌ,,株式会社,東京都,渋谷区,神宮前６丁目２３番４号桑野ビル２Ｆ,,13,113,1500001,,,2025-01-27,清算の結了等,,,2022-03-30,1,,,,,マックスウェル,0
616,3020001097774,登記記録の閉鎖等,0,2025-02-21,2025-02-05,アウターガーデン株式会社,,株式会社,神奈川県,横浜市保土ケ谷区,権太坂３丁目９番１－２０９号,,14,106,2400026,,,2025-02-05,清算の結了等,,,2015-10-05,1,,,,,アウターガーデン,0
625,3021002044105,登記記録の閉鎖等,0,2025-02-21,2025-02-19,有限会社原屋根工事店,,有限会社,神奈川県,座間市,相模が丘２丁目１８番８号,,14,216,2520001,,,2025-02-19,清算の結了等,,,2015-10-05,1,,,,,ハラヤネコウジテン,0
627,3030001026360,登記記録の閉鎖等,0,2025-02-21,2025-02-19,株式会社島村板金工業所,,株式会社,埼玉県,狭山市,入間川２丁目５番７号,,11,215,3501305,,,2025-02-19,清算の結了等,,,2015-10-05,1,,,,,シマムラバンキンコウギョウショ,0
644,3040001073682,登記記録の閉鎖等,0,2025-02-21,2025-02-14,株式会社エスプランニング,,株式会社,千葉県,船橋市,薬円台５丁目１１番３号２０２,,12,204,2740077,,,2025-02-14,清算の結了等,,,2015-10-05,1,,,,,エスプランニング,0
648,3040001086981,登記記録の閉鎖等,0,2025-02-21,2025-02-17,株式会社ＮＥＯ企画,,株式会社,千葉県,野田市,中根２２５番地の１５,,12,208,2780031,,,2025-02-17,清算の結了等,,,2015-10-05,1,,,,,ネオキカク,0
674,3120001188571,登記記録の閉鎖等,0,2025-02-21,2025-02-19,株式会社オプティ・プラス,,株式会社,大阪府,大阪市福島区,福島３丁目９番１４号,,27,103,5530003,,,2025-02-19,清算の結了等,,,2015-10-05,1,,,,,オプティプラス,0
699,3180001014680,登記記録の閉鎖等,0,2025-02-21,2025-02-17,新和興業株式会社,,株式会社,愛知県,名古屋市緑区,大高町字折戸２６番地４,,23,114,4598001,,,2025-02-17,清算の結了等,,,2015-10-05,1,,,,,シンワコウギョウ,0
710,3180002010729,登記記録の閉鎖等,0,2025-02-21,2025-02-18,有限会社イトー,,有限会社,愛知県,名古屋市北区,東水切町２丁目１７番地,,23,103,4620828,,,2025-02-18,清算の結了等,,,2015-10-05,1,,,,,イトー,0
719,3220002004478,登記記録の閉鎖等,0,2025-02-21,2025-02-12,有限会社ニューライフみつわ,,有限会社,石川県,金沢市,八日市出町５５６番地,,17,201,9218063,,,2025-02-12,清算の結了等,,,2015-10-05,1,,,,,ニューライフミツワ,0
761,3370002004414,登記記録の閉鎖等,0,2025-02-21,2025-02-19,有限会社あけぼのサービスステーション,,有限会社,宮城県,仙台市若林区,卸町４丁目３番地の１,,04,103,9840015,,,2025-02-19,清算の結了等,,,2015-10-05,1,,,,,,0
764,3420001006991,登記記録の閉鎖等,0,2025-02-21,2025-02-19,メノアース株式会社,,株式会社,宮城県,石巻市,千石町８番６号,,04,202,9860827,,,2025-02-19,清算の結了等,,,2015-10-05,1,,,,,メノアース,0
773,3430002066464,登記記録の閉鎖等,0,2025-02-21,2025-02-13,有限会社信徳,,有限会社,東京都,港区,六本木１丁目９番１０号アークヒルズ仙石山森タワー４０階,,13,103,1060032,,,2025-02-13,清算の結了等,,,2015-10-05,1,,,,,シントク,0
781,4010001077099,登記記録の閉鎖等,0,2025-02-21,2025-02-06,株式会社アザトメックス,,株式会社,東京都,文京区,本郷１丁目５番１７号,,13,105,1130033,,,2025-02-06,清算の結了等,,,2015-10-05,1,,,,,アザトメックス,0
782,4010001102939,登記記録の閉鎖等,0,2025-02-21,2025-02-06,株式会社ＬＥＣ,,株式会社,東京都,千代田区,神田三崎町２丁目２番１２号,,13,101,1010061,,,2025-02-06,清算の結了等,,,2015-10-05,1,,,,,レック,0
783,4010001124710,登記記録の閉鎖等,0,2025-02-21,2025-02-17,株式会社フードリンケージ,,株式会社,千葉県,八街市,八街ほ４２７番地１,,12,230,2891115,,,2025-02-17,清算の結了等,,,2015-10-05,1,,,,,フードリンケージ,0
784,4010001130576,登記記録の閉鎖等,0,2025-02-21,2025-02-03,八重山振興株式会社,,株式会社,東京都,中央区,日本橋１丁目１３番１号,,13,102,1030027,,,2025-02-03,合併による解散等,7010001143138,令和７年２月１日東京都中央区日本橋一丁目１３番１号丹鶴株式会社（7010001143138）に合併し解散,2015-10-05,1,,,,,ヤエヤマシンコウ,0
786,4010001209536,登記記録の閉鎖等,0,2025-02-21,2025-02-20,株式会社ゼットオース,,株式会社,沖縄県,南城市,玉城字百名１２８４－５,,47,215,9010603,,,2025-02-20,清算の結了等,,,2020-05-18,1,,,,,ゼットオース,0
789,4010002046895,登記記録の閉鎖等,0,2025-02-21,2025-02-13,有限会社信山,,有限会社,東京都,港区,六本木１丁目９番１０号アークヒルズ仙石山森タワー４０階,,13,103,1060032,,,2025-02-13,清算の結了等,,,2015-10-05,1,,,,,シンザン,0
794,4010005032686,登記記録の閉鎖等,0,2025-02-21,2025-02-03,一般社団法人環境対策災害支援協会,,その他の設立登記法人,東京都,港区,西新橋２丁目３３番４号プレイアデ虎ノ門９Ｆ,,13,103,1050003,,,2025-02-03,清算の結了等,,,2020-12-18,1,,,,,カンキョウタイサクサイガイシエンキョウカイ,0
795,4010005032959,登記記録の閉鎖等,0,2025-02-21,2025-02-14,一般社団法人オーシャン,,その他の設立登記法人,東京都,中央区,銀座２丁目１０番８号マニエラ銀座ビル４階,,13,102,1040061,,,2025-02-14,清算の結了等,,,2021-02-18,1,,,,,オーシャン,0
798,4010401110137,登記記録の閉鎖等,0,2025-02-21,2025-02-06,株式会社エフアールテックジャパン,,株式会社,東京都,千代田区,内幸町２丁目２番２号富国生命ビル渥美坂井法律事務所・外国法共同事業内,,13,101,1000011,,,2025-02-06,清算の結了等,,,2015-10-05,1,,,,,エフアールテックジャパン,0
819,4011001094010,登記記録の閉鎖等,0,2025-02-21,2025-01-27,株式会社興髪,,株式会社,東京都,渋谷区,代々木２丁目１６－７,,13,113,1510053,,,2025-01-27,清算の結了等,,,2015-10-05,1,,,,,コウハツ,0
832,4011101081271,登記記録の閉鎖等,0,2025-02-21,2025-02-06,株式会社ＩＥＣ,,株式会社,福岡県,福岡市中央区,港１丁目８番４号ラ・メール港１階,,40,133,8100075,,,2025-02-06,清算の結了等,,,2017-07-31,1,,,,,アイイーシー,0
850,4011803000875,登記記録の閉鎖等,0,2025-02-21,2025-02-18,合資会社ワイ・エフ流通サービス,,合資会社,埼玉県,草加市,谷塚町１６０８番地１０,,11,221,3400023,,,2025-02-18,清算の結了等,,,2015-10-05,1,,,,,ワイエフリュウツウサービス,0
852,4012401020563,登記記録の閉鎖等,0,2025-02-21,2025-02-10,株式会社ドローフォーチュン・コーポレーション,,株式会社,東京都,国立市,西１丁目８番地の２９,,13,215,1860005,,,2025-02-10,清算の結了等,,,2015-10-05,1,,,,,,0
856,4013201011232,登記記録の閉鎖等,0,2025-02-21,2025-01-28,株式会社ウイズ・リアルエステート,,株式会社,東京都,目黒区,下目黒６丁目１９番７号,,13,110,1530064,,,2025-01-28,清算の結了等,,,2015-10-05,1,,,,,ウイズリアルエステート,0
858,4020001024265,登記記録の閉鎖等,0,2025-02-21,2025-02-03,平本陸運株式会社,,株式会社,神奈川県,横浜市神奈川区,羽沢町５２６番地,,14,102,2210863,,,2025-02-03,清算の結了等,,,2015-10-05,1,,,,,ヒラモトリクウン,0
867,4020001132877,登記記録の閉鎖等,0,2025-02-21,2025-02-03,レジリエンスジャパン株式会社,,株式会社,神奈川県,横浜市港北区,日吉１丁目２４番１８号,,14,109,2230061,,,2025-02-03,清算の結了等,,,2019-09-26,1,,,,,レジリエンスジャパン,0
869,4020002035022,登記記録の閉鎖等,0,2025-02-21,2025-02-05,有限会社巴屋,,有限会社,神奈川県,横浜市港北区,師岡町４２６番地の５,,14,109,2220002,,,2025-02-05,清算の結了等,,,2015-10-05,1,,,,,トモエヤ,0
870,4020003020683,登記記録の閉鎖等,0,2025-02-21,2025-02-04,カブラ合同会社,,合同会社,神奈川県,横浜市港南区,上大岡西１丁目１８番５号,,14,111,2330002,,,2025-02-04,清算の結了等,,,2021-10-20,1,,,,,カブラ,0
877,4021001024858,登記記録の閉鎖等,0,2025-02-21,2025-02-20,アキュレート株式会社,,株式会社,神奈川県,大和市,上和田１０９０番地の１４,,14,213,2420014,,,2025-02-20,清算の結了等,,,2015-10-05,1,,,,,アキュレート,0
883,4030001054286,登記記録の閉鎖等,0,2025-02-21,2025-02-17,株式会社アルフィークラブ,,株式会社,埼玉県,入間郡三芳町,大字藤久保６００番地１０,,11,324,3540041,,,2025-02-17,清算の結了等,,,2015-10-05,1,,,,,アルフィークラブ,0
904,4040001086857,登記記録の閉鎖等,0,2025-02-21,2025-02-17,株式会社ＬＩＭＥ,,株式会社,千葉県,市川市,大野町３丁目１５１番地５,,12,203,2720805,,,2025-02-17,清算の結了等,,,2015-10-05,1,,,,,ライム,0
911,4040003017827,登記記録の閉鎖等,0,2025-02-21,2025-02-17,合同会社ハーヴァシティ,,合同会社,千葉県,流山市,加５丁目１６７９番地の２,,12,220,2700176,,,2025-02-17,清算の結了等,,,2021-05-27,1,,,,,ハーヴァシティ,0
917,4050002033907,登記記録の閉鎖等,0,2025-02-21,2025-02-12,岡澤造園土木有限会社,,有限会社,茨城県,稲敷市,高田１３９６番地,,08,229,3000511,,,2025-02-12,清算の結了等,,,2015-10-05,1,,,,,オカザワゾウエンドボク,0
933,4120001042579,登記記録の閉鎖等,0,2025-02-21,2025-02-17,株式会社喜多商店,,株式会社,大阪府,大阪市西区,新町３丁目８番４号,,27,106,5500013,,,2025-02-17,清算の結了等,,,2015-10-05,1,,,,,キタショウテン,0
954,4122001017908,登記記録の閉鎖等,0,2025-02-21,2025-02-14,株式会社エムティーエス,,株式会社,大阪府,八尾市,刑部２丁目１５５番地の１,,27,212,5810015,,,2025-02-14,清算の結了等,,,2015-10-05,1,,,,,エムティーエス,0
960,4140001120531,登記記録の閉鎖等,0,2025-02-21,2025-02-03,株式会社塩大醤,,株式会社,兵庫県,三田市,南が丘１丁目５１番２号,,28,219,6691535,,,2025-02-03,合併による解散等,3140001067286,令和７年２月１日兵庫県三田市須磨田７９４番地３６株式会社Ｓａｂｕｒｏｋｕ（3140001067286）に合併し解散,2021-02-25,1,,,,,シオダイショウ,0
963,4140002023700,登記記録の閉鎖等,0,2025-02-21,2025-02-19,有限会社Ｓｕｚｕｋｉ　Ｉｎｔｅｒｎａｔｉｏｎａｌ　Ｌｔｄ．,,有限会社,兵庫県,神戸市灘区,篠原伯母野山町３丁目１９番８号,,28,102,6570015,,,2025-02-19,清算の結了等,,,2015-10-05,1,,,,,スズキインターナショナルリミテッド,0
966,4140003013353,登記記録の閉鎖等,0,2025-02-21,2025-02-14,合同会社オーパーツデリベーション,,合同会社,兵庫県,西宮市,甲子園洲鳥町６番１７－２０４号,,28,204,6638151,,,2025-02-14,清算の結了等,,,2018-10-03,1,,,,,オーパーツデリベーション,0
972,4180001112616,登記記録の閉鎖等,0,2025-02-21,2025-02-19,株式会社Ｋｃｏｒｐｏｒａｔｉｏｎ,,株式会社,愛知県,名古屋市北区,丸新町２１５番地,,23,103,4620063,,,2025-02-19,清算の結了等,,,2015-10-05,1,,,,,ケイコーポレーション,0
975,4180003024124,登記記録の閉鎖等,0,2025-02-21,2025-02-17,合同会社Ｍ‐ＴＥＣ,,合同会社,愛知県,名古屋市中区,錦２丁目１２番３２号,,23,106,4600003,,,2025-02-17,清算の結了等,,,2022-08-08,1,,,,,エムテック,0
992,4240002033053,登記記録の閉鎖等,0,2025-02-21,2025-02-19,有限会社シミズ内装,,有限会社,広島県,呉市,神山３丁目３３番６号,,34,202,7370923,,,2025-02-19,清算の結了等,,,2015-10-05,1,,,,,シミズナイソウ,0
1002,4290001029205,登記記録の閉鎖等,0,2025-02-21,2025-02-07,株式会社ＯＰプランニング,,株式会社,福岡県,福岡市早良区,高取１丁目２１番２２号,,40,137,8140011,,,2025-02-07,清算の結了等,,,2015-10-05,1,,,,,オーピープランニング,0
1017,4300001008702,登記記録の閉鎖等,0,2025-02-21,2025-02-19,株式会社シーガル,,株式会社,福岡県,北九州市戸畑区,元宮町８番１１号,,40,105,8040072,,,2025-02-19,清算の結了等,,,2015-10-05,1,,,,,シーガル,0
1022,4330001026577,登記記録の閉鎖等,0,2025-02-21,2025-02-14,株式会社ティーアール,,株式会社,熊本県,荒尾市,一部２１５７番地１０８,,43,204,8640021,,,2025-02-14,清算の結了等,,,2019-07-16,1,,,,,ティーアール,0
1032,4370001051415,登記記録の閉鎖等,0,2025-02-21,2025-02-18,ビズロットキャピタルリンク株式会社,,株式会社,宮城県,富谷市,成田７丁目１３番地５,,04,216,9813341,,,2025-02-18,清算の結了等,,,2024-06-13,1,,,,,ビズロットキャピタルリンク,0
1044,4430005010930,登記記録の閉鎖等,0,2025-02-21,2025-02-20,特定非営利活動法人キャリア・カウンセラー札幌,,その他の設立登記法人,北海道,札幌市中央区,南二条東６丁目２番地１ギャラリーハイツ南２条Ｂ棟２０５号,,01,101,0600052,,,2025-02-20,清算の結了等,,,2015-10-05,1,,,,,,0
1048,4480002011794,登記記録の閉鎖等,0,2025-02-21,2025-02-19,有限会社伸栄建設,,有限会社,徳島県,板野郡板野町,下庄字栄寿６９番地,,36,404,7790118,,,2025-02-19,清算の結了等,,,2015-10-05,1,,,,,,0
1049,4490001002216,登記記録の閉鎖等,0,2025-02-21,2025-02-18,株式会社ホンダカーズ高知,,株式会社,高知県,高知市,薊野東町９番２５号,,39,201,7810012,,,2025-02-18,合併による解散等,5470001003735,令和７年２月１日岡山市北区今保１４４番地１株式会社ホンダモビリティ中四国（5470001003735）に合併し解散,2015-10-05,1,,,,,ホンダカーズコウチ,0
1072,5010401133913,登記記録の閉鎖等,0,2025-02-21,2025-01-31,株式会社ＢＭホールディングス,,株式会社,東京都,中央区,銀座３丁目１０番７号ヒューリック銀座三丁目ビル,,13,102,1040061,,,2025-01-31,合併による解散等,5010401126850,令和７年１月１日東京都中央区銀座三丁目１０番７号ヒューリック銀座三丁目ビル株式会社ヴァージニア（5010401126850）に合併し解散,2017-09-21,1,,,,,ビーエムホールディングス,0
1108,5011401022395,登記記録の閉鎖等,0,2025-02-21,2025-02-10,株式会社トプコンポジショニングアジア,,株式会社,東京都,板橋区,蓮沼町７５番１号,,13,119,1740052,,,2025-02-10,合併による解散等,4011401004725,令和７年２月１日東京都板橋区蓮沼町７５番１号株式会社トプコン（4011401004725）に合併し解散,2020-02-14,1,"Topcon Positioning Asia Co., Ltd.",Tokyo,"75-1, Hasunuma cho, Itabashi ku",,トプコンポジショニングアジア,0
1112,5011601024175,登記記録の閉鎖等,0,2025-02-21,2025-02-17,東京野菜ネットワーク株式会社,,株式会社,東京都,練馬区,大泉町１丁目４９番５号,,13,120,1780062,,,2025-02-17,清算の結了等,,,2020-05-08,1,,,,,トウキョウヤサイネットワーク,0
1132,5020001111574,登記記録の閉鎖等,0,2025-02-21,2025-02-03,ＳＩＧＮＥＴ株式会社,,株式会社,神奈川県,横浜市保土ケ谷区,瀬戸ケ谷町１５１番地の１サンヴェール保土ヶ谷８０１号,,14,106,2400024,,,2025-02-03,清算の結了等,,,2015-10-05,1,,,,,エスアイジーネット,0
1145,5021003014550,登記記録の閉鎖等,0,2025-02-21,2025-02-19,みちむら合同会社,,合同会社,神奈川県,三浦郡葉山町,堀内１２５０－２１,,14,301,2400112,,,2025-02-19,清算の結了等,,,2024-05-27,1,,,,,ミチムラ,0
1147,5021005009986,登記記録の閉鎖等,0,2025-02-21,2025-02-19,一般財団法人横須賀ユニヴァーサルデザイン研究所,,その他の設立登記法人,神奈川県,横須賀市,大滝町１丁目７番地７エクセレント横須賀５０３号,,14,201,2380008,,,2025-02-19,清算の結了等,,,2015-10-05,1,,,,,ヨコスカユニヴァーサルデザインケンキュウジョ,0
1153,5030002101053,登記記録の閉鎖等,0,2025-02-21,2025-02-14,有限会社エムテック,,有限会社,埼玉県,川口市,大字西立野１０９２番地の１９,,11,203,3330813,,,2025-02-14,清算の結了等,,,2015-10-05,1,,,,,エムテック,0
1154,5030002117132,登記記録の閉鎖等,0,2025-02-21,2025-02-18,有限会社福井屋商店,,有限会社,埼玉県,深谷市,稲荷町１丁目１９番１６号,,11,218,3660026,,,2025-02-18,清算の結了等,,,2015-10-05,1,,,,,フクイヤショウテン,0
1170,5040003018881,登記記録の閉鎖等,0,2025-02-21,2025-02-17,合同会社Ｃｏｎｎｅｘｔｉｏｎ,,合同会社,千葉県,松戸市,六高台４丁目７９－５,,12,207,2702203,,,2025-02-17,清算の結了等,,,2021-11-11,1,,,,,コネクション,0
1186,5070002028409,登記記録の閉鎖等,0,2025-02-21,2025-02-19,有限会社大島製作所,,有限会社,群馬県,太田市,亀岡町４３６番地の１,,10,205,3700411,,,2025-02-19,清算の結了等,,,2015-10-05,1,,,,,オオシマセイサクショ,0
1188,5080101006875,登記記録の閉鎖等,0,2025-02-21,2025-02-17,株式会社佐藤工業,,株式会社,静岡県,三島市,中２５９番地の９エンゼルハイム藤代第２－１０３,,22,206,4110833,,,2025-02-17,清算の結了等,,,2015-10-05,1,,,,,サトウコウギョウ,0
1221,5130003008452,登記記録の閉鎖等,0,2025-02-21,2025-02-20,ＳＴＶ合同会社,,合同会社,京都府,京都市下京区,油小路町２９１ボックス七条１階１０７号室,,26,106,6008231,,,2025-02-20,清算の結了等,,,2023-01-17,1,,,,,エスティヴイ,0
1223,5140001090699,登記記録の閉鎖等,0,2025-02-21,2025-02-10,スパイスキングカンパニー株式会社,,株式会社,兵庫県,豊岡市,中央町１２番２３号,,28,209,6680033,,,2025-02-10,清算の結了等,,,2015-10-05,1,,,,,スパイスキングカンパニー,0
1236,5180001136465,登記記録の閉鎖等,0,2025-02-21,2025-02-03,株式会社ＢｉｚＭｏ,,株式会社,愛知県,名古屋市東区,泉１丁目２３番３０号,,23,102,4610001,,,2025-02-03,合併による解散等,3180001056979,令和７年２月１日名古屋市東区泉一丁目２３番３０号株式会社三光アド（3180001056979）に合併し解散,2019-05-15,1,,,,,ビズモ,0
1237,5180001138429,登記記録の閉鎖等,0,2025-02-21,2025-02-19,株式会社ＭＯＮＯＬＩＴＨ,,株式会社,愛知県,名古屋市西区,あし原町３０５番地,,23,104,4520823,,,2025-02-19,清算の結了等,,,2019-10-08,1,,,,,モノリス,0
1239,5180001151191,登記記録の閉鎖等,0,2025-02-21,2025-02-17,マランエックス株式会社,,株式会社,愛知県,名古屋市中区,大須３丁目３０番４０号,,23,106,4600011,,,2025-02-17,清算の結了等,,,2022-05-18,1,,,,,マランエックス,0
1262,5220005001859,登記記録の閉鎖等,0,2025-02-21,2025-02-17,医療法人社団津田歯科医院,,その他の設立登記法人,石川県,金沢市,長坂１丁目１番１号,,17,201,9218112,,,2025-02-17,清算の結了等,,,2015-10-05,1,,,,,,0
1292,5330005009684,登記記録の閉鎖等,0,2025-02-21,2025-02-05,一般社団法人奥球磨スマートタウン研究所,,その他の設立登記法人,熊本県,球磨郡湯前町,中里１７８９番地１,,43,506,8680606,,,2025-02-05,清算の結了等,,,2017-06-06,1,,,,,オククマスマートタウンケンキュウショ,0
1305,5410001004045,登記記録の閉鎖等,0,2025-02-21,2025-02-03,男鹿合同生コン株式会社,,株式会社,秋田県,男鹿市,脇本脇本字前野１４７番地の１,,05,206,0100342,,,2025-02-03,合併による解散等,5410001002734,令和７年２月１日秋田市川尻町字大川反１７０番地１４秋田合同生コン株式会社（5410001002734）に合併し解散,2015-10-05,1,,,,,オガゴウドウナマコン,0
1308,5430001035674,登記記録の閉鎖等,0,2025-02-21,2025-02-20,株式会社クリーン・アート,,株式会社,北海道,札幌市北区,新琴似六条６丁目４番３号,,01,102,0010906,,,2025-02-20,清算の結了等,,,2015-10-05,1,,,,,クリーンアート,0
1313,5430002006823,登記記録の閉鎖等,0,2025-02-21,2025-02-20,有限会社クランツクーヘン,,有限会社,北海道,札幌市豊平区,西岡二条８丁目１番３０号,,01,105,0620032,,,2025-02-20,清算の結了等,,,2015-10-05,1,,,,,クランツクーヘン,0
1324,6010001162007,登記記録の閉鎖等,0,2025-02-21,2025-02-06,株式会社Ｓ．Ｉ．Ｔ,,株式会社,東京都,中央区,東日本橋２丁目２５番６号シェルプリーズビル７階,,13,102,1030004,,,2025-02-06,清算の結了等,,,2015-10-05,1,,,,,エスアイティー,0
1327,6010001222826,登記記録の閉鎖等,0,2025-02-21,2025-02-06,株式会社住宅ローンデスク,,株式会社,東京都,中央区,日本橋３丁目３番５号,,13,102,1030027,,,2025-02-06,清算の結了等,,,2021-11-30,1,,,,,ジュウタクローンデスク,0
1337,6010005015425,登記記録の閉鎖等,0,2025-02-21,2025-01-29,税理士法人税務総合事務所,,その他の設立登記法人,東京都,千代田区,神田和泉町１番地１２の１７,,13,101,1010024,,,2025-01-29,合併による解散等,2010005006163,令和７年１月６日東京都港区赤坂八丁目４番１４号青山合同税理士法人（2010005006163）に合併し解散,2015-10-05,1,,,,,ゼイムソウゴウジムショ,0
1338,6010005034862,登記記録の閉鎖等,0,2025-02-21,2025-02-18,特定非営利活動法人ＡＫＳＩ　ＣＥＰＡＴ　ＴＡＮＧＧＡＰ　ＪＡＰＡＮ,,その他の設立登記法人,東京都,中央区,新川２丁目１３番１１号内田ビル４階,,13,102,1040033,,,2025-02-18,清算の結了等,,,2022-04-13,1,,,,,アクシチェパトタンガップジャパン,0
1349,6010502015885,登記記録の閉鎖等,0,2025-02-21,2025-02-13,有限会社栄弘社,,有限会社,東京都,台東区,千束１丁目９番６号,,13,106,1110031,,,2025-02-13,清算の結了等,,,2015-10-05,1,,,,,エイコウシャ,0
1350,6010601041089,登記記録の閉鎖等,0,2025-02-21,2025-02-17,株式会社東名,,株式会社,東京都,江東区,塩浜２丁目２番１０号,,13,108,1350043,,,2025-02-17,清算の結了等,,,2015-10-05,1,,,,,トウメイ,0
1405,6021001022455,登記記録の閉鎖等,0,2025-02-21,2025-02-20,株式会社カセローレ,,株式会社,神奈川県,厚木市,長谷３６３番地の２,,14,212,2430036,,,2025-02-20,清算の結了等,,,2015-10-05,1,,,,,カセローレ,0
1413,6030001065793,登記記録の閉鎖等,0,2025-02-21,2025-02-18,吉川木材株式会社,00015122,株式会社,埼玉県,吉川市,中井３丁目２０１番地,,11,243,3420015,,,2025-02-18,清算の結了等,,,2015-10-05,1,,,,,ヨシカワモクザイ,0
1439,6050001052047,登記記録の閉鎖等,0,2025-02-21,2025-02-06,株式会社エヌユー,,株式会社,茨城県,龍ケ崎市,藤ケ丘４丁目５番地３５,,08,208,3010855,,,2025-02-06,合併による解散等,5050001039788,令和７年１月３１日茨城県龍ケ崎市藤ケ丘四丁目５番地３５株式会社アッペストサービス（5050001039788）に合併し解散,2022-12-06,1,,,,,エヌユー,0
1463,6120001230693,登記記録の閉鎖等,0,2025-02-21,2025-02-20,株式会社鶴亀,,株式会社,大阪府,大阪市中央区,久太郎町１丁目５番１５－９０５号,,27,128,5410056,,,2025-02-20,清算の結了等,,,2020-08-03,1,,,,,ツルカメ,0
1476,6120901023313,登記記録の閉鎖等,0,2025-02-21,2025-02-14,鹿島産業株式会社,,株式会社,大阪府,豊中市,中桜塚３丁目１０番２１号,,27,203,5610881,,,2025-02-14,清算の結了等,,,2015-10-05,1,,,,,カシマサンギョウ,0
1483,6130003007271,登記記録の閉鎖等,0,2025-02-21,2025-02-20,ｍｉｃｏ合同会社,,合同会社,京都府,京都市上京区,宮垣町９１－１０２,,26,102,6020853,,,2025-02-20,清算の結了等,,,2021-06-01,1,,,,,ミコ,0
1485,6140001041420,登記記録の閉鎖等,0,2025-02-21,2025-02-18,株式会社アクア・アルス,,株式会社,兵庫県,丹波市,市島町上牧６３１番地,,28,223,6694317,,,2025-02-18,清算の結了等,,,2015-10-05,1,,,,,アクアアルス,0
1489,6140003018945,登記記録の閉鎖等,0,2025-02-21,2025-02-17,合同会社ワタナベカンパニー,,合同会社,兵庫県,丹波市,氷上町市辺６８３,,28,223,6693461,,,2025-02-17,清算の結了等,,,2023-04-10,1,,,,,ワタナベカンパニー,0
1493,6170001008805,登記記録の閉鎖等,0,2025-02-21,2025-02-19,株式会社ナカタ・エムアンドケイ,,株式会社,和歌山県,田辺市,高雄１丁目２０番２９号,,30,206,6460028,,,2025-02-19,清算の結了等,,,2015-10-05,1,,,,,ナカタエムアンドケイ,0
1495,6180001029313,登記記録の閉鎖等,0,2025-02-21,2025-02-17,株式会社安達商店,,株式会社,愛知県,名古屋市中村区,大正町３丁目３６番地,,23,105,4530806,,,2025-02-17,清算の結了等,,,2015-10-05,1,,,,,アダチショウテン,0
1503,6180002045391,登記記録の閉鎖等,0,2025-02-21,2025-02-14,有限会社新貴,,有限会社,愛知県,名古屋市南区,白雲町１３番地,,23,112,4570025,,,2025-02-14,清算の結了等,,,2015-10-05,1,,,,,シンキ,0
1521,6240001016833,登記記録の閉鎖等,0,2025-02-21,2025-02-20,株式会社エステック,,株式会社,広島県,広島市安佐南区,伴中央５丁目１７番５号,,34,105,7313165,,,2025-02-20,清算の結了等,,,2015-10-05,1,,,,,エステック,0
1525,6240002049378,登記記録の閉鎖等,0,2025-02-21,2025-02-19,有限会社入川組,,有限会社,広島県,竹原市,忠海東町１丁目７番１６号,,34,203,7292317,,,2025-02-19,清算の結了等,,,2015-10-05,1,,,,,イリカワグミ,0
1526,6240005004636,登記記録の閉鎖等,0,2025-02-21,2025-02-18,医療法人社団中村医院,,その他の設立登記法人,広島県,三次市,布野町上布野１４８５番地の１,,34,209,7280201,,,2025-02-18,清算の結了等,,,2015-10-05,1,,,,,ナカムライイン,0
1552,6320001005893,登記記録の閉鎖等,0,2025-02-21,2025-02-19,豊友保険共同株式会社,,株式会社,大分県,大分市,花津留１丁目４番３０号,,44,201,8700933,,,2025-02-19,清算の結了等,,,2015-10-05,1,,,,,ホウユウホケンキョウドウ,0
1563,6400001009085,登記記録の閉鎖等,0,2025-02-21,2025-02-10,株式会社ユニオンパーツ,,株式会社,岩手県,北上市,北鬼柳３３地割８０番地５,,03,206,0240072,,,2025-02-10,清算の結了等,,,2015-10-05,1,,,,,ユニオンパーツ,0
1576,7010001108149,登記記録の閉鎖等,0,2025-02-21,2025-02-06,モンブランジャパン株式会社,,株式会社,東京都,千代田区,麹町１丁目４番地,,13,101,1020083,,,2025-02-06,清算の結了等,,,2015-10-05,1,,,,,モンブランジャパン,0
1587,7010102006631,登記記録の閉鎖等,0,2025-02-21,2025-02-19,有限会社水先案内,,有限会社,東京都,八王子市,明神町１丁目８番１３号エクセレンス八王子４０４号,,13,201,1920046,,,2025-02-19,清算の結了等,,,2015-10-05,1,,,,,ミズサキアンナイ,0
1593,7010401158157,登記記録の閉鎖等,0,2025-02-21,2025-02-04,株式会社シルエット,,株式会社,東京都,港区,南青山２丁目２番１５号ウィン青山９４２,,13,103,1070062,,,2025-02-04,清算の結了等,,,2021-02-15,1,,,,,シルエット,0
1594,7010601004284,登記記録の閉鎖等,0,2025-02-21,2025-02-18,株式会社タカラサイン,,株式会社,東京都,江東区,佐賀２丁目６番７号,,13,108,1350031,,,2025-02-18,清算の結了等,,,2015-10-05,1,,,,,タカラサイン,0
1599,7010701038372,登記記録の閉鎖等,0,2025-02-21,2025-02-04,株式会社Ｏｈ　ｍｙ　ｔｅｅｔｈ,,株式会社,東京都,新宿区,西新宿３丁目６番４号,,13,104,1600023,,,2025-02-04,合併による解散等,4010401180337,令和７年１月１日東京都港区虎ノ門一丁目２３番１号ジャフコグループ株式会社内株式会社ジャフコグループＳＩＤ‐５（4010401180337）に合併し解散,2019-10-25,1,,,,,オーマイティース,0
1608,7011001070306,登記記録の閉鎖等,0,2025-02-21,2025-02-17,ＡＢＳ環境株式会社,,株式会社,愛知県,豊田市,広路町２丁目３６番１,,23,211,4710864,,,2025-02-17,清算の結了等,,,2015-10-05,1,,,,,エービーエスカンキョウ,0
1633,7011601005264,登記記録の閉鎖等,0,2025-02-21,2025-02-17,日正機械株式会社,,株式会社,東京都,練馬区,大泉町３丁目５番１８－３０４号,,13,120,1780062,,,2025-02-17,清算の結了等,,,2015-10-05,1,,,,,ニッショウキカイ,0
1643,7012403006112,登記記録の閉鎖等,0,2025-02-21,2025-02-19,合同会社ＡＫメディア企画,,合同会社,東京都,武蔵野市,緑町１丁目２番２１号,,13,203,1800012,,,2025-02-19,清算の結了等,,,2023-08-07,1,,,,,エーケーメディアキカク,0
1662,7020001118213,登記記録の閉鎖等,0,2025-02-21,2025-02-07,株式会社藍彩工房,,株式会社,神奈川県,横浜市保土ケ谷区,月見台９番８号,,14,106,2400012,,,2025-02-07,清算の結了等,,,2016-10-11,1,,,,,アイサイコウボウ,0
1664,7020001159380,登記記録の閉鎖等,0,2025-02-21,2025-02-04,株式会社ボーヤンジャパン,,株式会社,神奈川県,横浜市青葉区,たちばな台１丁目８番地２,,14,117,2270046,,,2025-02-04,清算の結了等,,,2024-10-03,1,,,,,ボーヤンジャパン,0
1668,7020002059092,登記記録の閉鎖等,0,2025-02-21,2025-02-03,有限会社エ・アール・シー,,有限会社,神奈川県,横浜市青葉区,青葉台１丁目２８番地４０,,14,117,2270062,,,2025-02-03,清算の結了等,,,2015-10-05,1,,,,,エアールシー,0
1675,7021001024129,登記記録の閉鎖等,0,2025-02-21,2025-02-20,株式会社ＳＥＡＬＳ,,株式会社,神奈川県,海老名市,国分北３丁目１６番２４号サニーキャッスル１０２,,14,215,2430406,,,2025-02-20,清算の結了等,,,2015-10-05,1,,,,,,0
1677,7021001053128,登記記録の閉鎖等,0,2025-02-21,2025-01-28,株式会社ＡＩＲＩＡ,,株式会社,東京都,港区,南麻布２丁目１３番１４ステージグランデ南麻布６０６号,,13,103,1060047,,,2025-01-28,清算の結了等,,,2015-10-05,1,,,,,,0
1684,7030001136775,登記記録の閉鎖等,0,2025-02-21,2025-02-17,株式会社スタジオキマイラ,,株式会社,埼玉県,草加市,弁天１丁目８番１３号,,11,221,3400004,,,2025-02-17,清算の結了等,,,2020-06-05,1,,,,,スタジオキマイラ,0
1702,7040001072805,登記記録の閉鎖等,0,2025-02-21,2025-02-17,株式会社千葉南海,,株式会社,千葉県,八街市,榎戸６９０番地１８,,12,230,2891106,,,2025-02-17,清算の結了等,,,2015-10-05,1,,,,,チバナンカイ,0
1706,7040002020597,登記記録の閉鎖等,0,2025-02-21,2025-02-17,有限会社インテリア豊,,有限会社,千葉県,船橋市,宮本４丁目１８番１０号,,12,204,2730003,,,2025-02-17,清算の結了等,,,2015-10-05,1,,,,,インテリアユタカ,0
1722,7080401026209,登記記録の閉鎖等,0,2025-02-21,2025-02-13,株式会社愛ノ宮プラス,,株式会社,静岡県,袋井市,国本２４６３番地の６,,22,216,4370012,,,2025-02-13,清算の結了等,,,2022-12-21,1,,,,,アイノミヤプラス,0
1723,7080402015870,登記記録の閉鎖等,0,2025-02-21,2025-02-13,有限会社竹内商店,,有限会社,静岡県,浜松市浜名区,細江町気賀８８番地の８,,22,139,4311305,,,2025-02-13,清算の結了等,,,2015-10-05,1,,,,,タケウチショウテン,0
1742,7120005009869,登記記録の閉鎖等,0,2025-02-21,2025-02-20,特定非営利活動法人つばさ,,その他の設立登記法人,大阪府,大阪市北区,国分寺２丁目２番４４号,,27,127,5310064,,,2025-02-20,清算の結了等,,,2015-10-05,1,,,,,ツバサ,0
1752,7130005010958,登記記録の閉鎖等,0,2025-02-21,2025-01-28,金山神社,,その他の設立登記法人,京都府,京丹後市,弥栄町須川１２５番地,,26,212,6270102,,,2025-01-28,合併による解散等,4130005010952,令和７年１月２８日京都府京丹後市弥栄町野中１９８５番地大宮神社（4130005010952）に合併し解散,2015-10-05,1,,,,,カナヤマジンジャ,0
1780,7250003000461,登記記録の閉鎖等,0,2025-02-21,2025-01-31,ビジテック合同会社,,合同会社,山口県,宇部市,末広町４番３６－６号,,35,202,7550014,,,2025-01-31,清算の結了等,,,2015-10-05,1,,,,,ビジテック,0
1781,7260001020329,登記記録の閉鎖等,0,2025-02-21,2025-02-19,株式会社山本鉄工所,,株式会社,岡山県,苫田郡鏡野町,小座１６９４番地の１,,33,606,7080363,,,2025-02-19,清算の結了等,,,2015-10-05,1,,,,,ヤマモトテッコウショ,0
1789,7280003000938,登記記録の閉鎖等,0,2025-02-21,2025-02-20,合同会社ＥＣＧ,,合同会社,島根県,雲南市,三刀屋町三刀屋１０６５番地,,32,209,6902404,,,2025-02-20,清算の結了等,,,2015-10-05,1,,,,,イーシージー,0
1797,7290803001515,登記記録の閉鎖等,0,2025-02-21,2025-02-18,合同会社中西商店,,合同会社,福岡県,直方市,大字中泉１１９８番地３,,40,204,8220011,,,2025-02-18,清算の結了等,,,2015-10-05,1,,,,,ナカニシショウテン,0
1801,7340002006871,登記記録の閉鎖等,0,2025-02-21,2025-02-19,有限会社ナガタケ,,有限会社,鹿児島県,鹿児島市,武岡１丁目２３番地７,,46,201,8900031,,,2025-02-19,清算の結了等,,,2015-10-05,1,,,,,ナガタケ,0
1811,7370001020202,登記記録の閉鎖等,0,2025-02-21,2025-02-20,株式会社シスナビア,,株式会社,宮城県,仙台市青葉区,本町１丁目９番６号,,04,101,9800014,,,2025-02-20,清算の結了等,,,2015-10-05,1,,,,,シスナビア,0
1815,7370002019268,登記記録の閉鎖等,0,2025-02-21,2025-02-20,有限会社三友工業,,有限会社,宮城県,仙台市若林区,荒井８丁目２番地の１０,,04,103,9840032,,,2025-02-20,清算の結了等,,,2015-10-05,1,,,,,サンユウコウギョウ,0
1823,7430001004330,登記記録の閉鎖等,0,2025-02-21,2025-02-20,北一食品株式会社,,株式会社,北海道,札幌市北区,新琴似十一条７丁目７番２８号,,01,102,0010911,,,2025-02-20,清算の結了等,,,2015-10-05,1,,,,,キタイチショクヒン,0
1829,7460101005036,登記記録の閉鎖等,0,2025-02-21,2025-02-17,株式会社エントランス,,株式会社,北海道,河西郡中札内村,元札内東４線３１１番地６,,01,638,0891372,,,2025-02-17,合併による解散等,7430001047932,令和７年２月１日北海道夕張市社光１番地８株式会社グリーンロジスティクス（7430001047932）に合併し解散,2015-10-05,1,,,,,エントランス,0
1830,7480002001082,登記記録の閉鎖等,0,2025-02-21,2025-02-19,有限会社キュービック,,有限会社,徳島県,徳島市,沖浜町北川７３０番地７,,36,201,7708051,,,2025-02-19,清算の結了等,,,2015-10-05,1,,,,,キュービック,0
1843,8010002049597,登記記録の閉鎖等,0,2025-02-21,2025-02-13,有限会社信源,,有限会社,東京都,港区,六本木１丁目９番１０号アークヒルズ仙石山森タワー４０階,,13,103,1060032,,,2025-02-13,清算の結了等,,,2015-10-05,1,,,,,シンゲン,0
1848,8010005038102,登記記録の閉鎖等,0,2025-02-21,2025-02-18,ＦＫＧ一般社団法人,,その他の設立登記法人,東京都,中央区,八丁堀４丁目２番１０号ＡＯＪ税理士法人内,,13,102,1040032,,,2025-02-18,清算の結了等,,,2024-03-29,1,,,,,エフケイジー,0
1853,8010401083247,登記記録の閉鎖等,0,2025-02-21,2025-02-04,株式会社アシスタジア,,株式会社,東京都,品川区,東品川４丁目２番２号,,13,109,1400002,,,2025-02-04,清算の結了等,,,2015-10-05,1,,,,,アシスタジア,0
1854,8010401096661,登記記録の閉鎖等,0,2025-02-21,2025-02-10,株式会社アイ・トラスト,,株式会社,東京都,千代田区,九段南１丁目５番６号りそな九段ビル５Ｆ,,13,101,1020074,,,2025-02-10,清算の結了等,,,2015-10-05,1,,,,,アイトラスト,0
1870,8011001034235,登記記録の閉鎖等,0,2025-02-21,2025-01-27,ラファエルエンライトメントジャパン株式会社,,株式会社,東京都,渋谷区,幡ヶ谷３丁目３３番１－６０２号,,13,113,1510072,,,2025-01-27,清算の結了等,,,2015-10-05,1,,,,,ラファエルエンライトメントジャパン,0
1871,8011001047154,登記記録の閉鎖等,0,2025-02-21,2025-02-18,株式会社フォルムス,,株式会社,東京都,杉並区,高井戸東２丁目１３番３号,,13,115,1680072,,,2025-02-18,清算の結了等,,,2015-10-05,1,,,,,フォルムス,0
1894,8011201024688,登記記録の閉鎖等,0,2025-02-21,2025-02-18,株式会社てとて,,株式会社,東京都,中野区,中央３丁目１２番１７－６０１号,,13,114,1640011,,,2025-02-18,合併による解散等,7011001106274,令和７年１月１日東京都渋谷区東一丁目４番１号尚豊ビル３０６株式会社メディステップ（7011001106274）に合併し解散,2023-06-05,1,,,,,テトテ,0
1907,8011705001778,登記記録の閉鎖等,0,2025-02-21,2025-02-14,一般社団法人ミヤ企画,,その他の設立登記法人,東京都,江戸川区,鹿骨３丁目１５番１４号,,13,123,1330073,,,2025-02-14,清算の結了等,,,2023-04-11,1,,,,,ミヤキカク,0
1913,8012703001167,登記記録の閉鎖等,0,2025-02-21,2025-02-17,合同会社アイケイエネルギー,,合同会社,東京都,東久留米市,中央町３丁目１１番２号,,13,222,2030054,,,2025-02-17,清算の結了等,,,2015-10-05,1,,,,,アイケイエネルギー,0
1914,8012703002834,登記記録の閉鎖等,0,2025-02-21,2025-02-17,Ａｃｔｉｏ合同会社,,合同会社,東京都,西東京市,東町５丁目５番２５号梨苑ハイツＢ棟２０７号,,13,229,2020012,,,2025-02-17,清算の結了等,,,2023-10-24,1,,,,,アクティオ,0
1927,8021001026859,登記記録の閉鎖等,0,2025-02-21,2025-02-20,相模車輛株式会社,,株式会社,神奈川県,海老名市,泉２丁目２番１４号,,14,215,2430437,,,2025-02-20,清算の結了等,,,2015-10-05,1,,,,,サガミシャリョウ,0
1929,8021001053374,登記記録の閉鎖等,0,2025-02-21,2025-02-19,株式会社シックス,,株式会社,神奈川県,横須賀市,日の出町３丁目１７番地,,14,201,2380006,,,2025-02-19,清算の結了等,,,2015-10-05,1,,,,,シックス,0
1937,8030001121958,登記記録の閉鎖等,0,2025-02-21,2025-02-14,アイオールオプト株式会社,,株式会社,埼玉県,上尾市,大字小敷谷７１０番地７,,11,219,3620064,,,2025-02-14,清算の結了等,,,2017-08-29,1,,,,,アイオールオプト,0
1957,8040002061351,登記記録の閉鎖等,0,2025-02-21,2025-02-17,有限会社能勢工務店,,有限会社,千葉県,佐倉市,藤治台１０番地６,,12,212,2850816,,,2025-02-17,清算の結了等,,,2015-10-05,1,,,,,ノセコウムテン,0
1959,8040003015125,登記記録の閉鎖等,0,2025-02-21,2025-02-12,合同会社フローラ,,合同会社,千葉県,千葉市若葉区,源町３８７－１－３０１,,12,104,2640037,,,2025-02-12,清算の結了等,,,2020-03-27,1,,,,,フローラ,0
1970,8070002005504,登記記録の閉鎖等,0,2025-02-21,2025-02-18,有限会社矢端商店,,有限会社,群馬県,前橋市,広瀬町２丁目２番地の５,,10,201,3710812,,,2025-02-18,清算の結了等,,,2015-10-05,1,,,,,ヤバタショウテン,0
1976,8110002015382,登記記録の閉鎖等,0,2025-02-21,2025-02-18,有限会社日新電気,,有限会社,新潟県,新発田市,上石川甲１３２番地,,15,206,9592514,,,2025-02-18,清算の結了等,,,2015-10-05,1,,,,,ニッシンデンキ,0
1979,8110003002743,登記記録の閉鎖等,0,2025-02-21,2025-02-19,合同会社ふわふわ,,合同会社,新潟県,新潟市西区,小針上山１３番３号中仙ビル１Ｆ,,15,107,9502011,,,2025-02-19,清算の結了等,,,2015-10-05,1,,,,,フワフワ,0
1983,8120001125405,登記記録の閉鎖等,0,2025-02-21,2025-01-21,株式会社色彩舎,,株式会社,兵庫県,神戸市中央区,磯上通４丁目１番１４号,,28,110,6510086,,,2025-01-21,清算の結了等,,,2015-10-05,1,,,,,シキサイシャ,0
1992,8120101034365,登記記録の閉鎖等,0,2025-02-21,2025-02-19,株式会社大日不動産,,株式会社,大阪府,羽曳野市,広瀬３７６番地,,27,222,5830845,,,2025-02-19,清算の結了等,,,2015-10-05,1,,,,,ダイニチフドウサン,0
2006,8130005011088,登記記録の閉鎖等,0,2025-02-21,2025-01-28,聖神社,,その他の設立登記法人,京都府,京丹後市,弥栄町須川１２５番地の２,,26,212,6270102,,,2025-01-28,合併による解散等,4130005010952,令和７年１月２８日京都府京丹後市弥栄町野中１９８５番地大宮神社（4130005010952）に合併し解散,2015-10-05,1,,,,,ヒジリジンジャ,0
2020,8140002027747,登記記録の閉鎖等,0,2025-02-21,2025-02-17,有限会社アミークス,,有限会社,兵庫県,芦屋市,浜風町８番１４－１号,,28,206,6590032,,,2025-02-17,清算の結了等,,,2015-10-05,1,,,,,アミークス,0
2026,8170002000107,登記記録の閉鎖等,0,2025-02-21,2025-02-20,有限会社相須海運,,有限会社,和歌山県,和歌山市,湊３０１０番地,,30,201,6408404,,,2025-02-20,清算の結了等,,,2015-10-05,1,,,,,アイスカイウン,0
2038,8180002051470,登記記録の閉鎖等,0,2025-02-21,2025-02-19,サン・グラッド有限会社,,有限会社,愛知県,名古屋市緑区,黒沢台２丁目４２３番地,,23,114,4580003,,,2025-02-19,清算の結了等,,,2015-10-05,1,,,,,サングラッド,0
2041,8180003018832,登記記録の閉鎖等,0,2025-02-21,2025-02-17,合同会社Ｖａｒｉｏｓ,,合同会社,愛知県,名古屋市中川区,打中２丁目１５３番地の３,,23,110,4540927,,,2025-02-17,清算の結了等,,,2018-04-06,1,,,,,ヴァリオス,0
2059,8240002035806,登記記録の閉鎖等,0,2025-02-21,2025-02-17,緑建設有限会社,,有限会社,広島県,江田島市,大柿町大原３９１５番地４,,34,215,7372213,,,2025-02-17,清算の結了等,,,2015-10-05,1,,,,,ミドリケンセツ,0
2063,8250001019619,登記記録の閉鎖等,0,2025-02-21,2025-02-13,株式会社あいおい不動産,,株式会社,東京都,新宿区,西新宿３丁目３番１３号西新宿水間ビル２階,,13,104,1600023,,,2025-02-13,清算の結了等,,,2022-06-16,1,,,,,アイオイフドウサン,0
2067,8290002033672,登記記録の閉鎖等,0,2025-02-21,2025-02-06,有限会社北九エンジニアリング,,有限会社,福岡県,宗像市,徳重１丁目９番３号,,40,220,8114164,,,2025-02-06,清算の結了等,,,2015-10-05,1,,,,,キタキュウエンジニアリング,0
2080,8360005002394,登記記録の閉鎖等,0,2025-02-21,2025-02-20,税理士法人八幡会計事務所,,その他の設立登記法人,沖縄県,那覇市,銘苅１丁目１０番８号,,47,201,9000004,,,2025-02-20,清算の結了等,,,2015-10-05,1,,,,,ハチマンカイケイジムショ,0
2087,8410002002524,登記記録の閉鎖等,0,2025-02-21,2025-02-17,有限会社田村商店,,有限会社,秋田県,秋田市,中通４丁目７番３５号,,05,201,0100001,,,2025-02-17,清算の結了等,,,2015-10-05,1,,,,,タムラショウテン,0
2093,8430002017124,登記記録の閉鎖等,0,2025-02-21,2025-02-18,有限会社フジヨシ,,有限会社,北海道,札幌市中央区,南一条西１２丁目丙１号,,01,101,0600061,,,2025-02-18,清算の結了等,,,2015-10-05,1,,,,,フジヨシ,0
2097,8460101004565,登記記録の閉鎖等,0,2025-02-21,2025-02-18,十勝バイオ環境株式会社,,株式会社,北海道,帯広市,東一条南２４丁目１９番地,,01,207,0800801,,,2025-02-18,清算の結了等,,,2015-10-05,1,,,,,トカチバイオカンキョウ,0
2099,8480002003532,登記記録の閉鎖等,0,2025-02-21,2025-02-20,有限会社布村コンタクトレンズ研究所,,有限会社,徳島県,徳島市,助任本町４丁目１番地,,36,201,7700816,,,2025-02-20,清算の結了等,,,2015-10-05,1,,,,,ヌノムラコンタクトレンズケンキュウショ,0
2100,9010001131248,登記記録の閉鎖等,0,2025-02-21,2025-02-03,株式会社ＨＩＤＥ秀虎ＴＯＲＡ,,株式会社,東京都,大島町,岡田字沢立１１１番７,,13,361,1000102,,,2025-02-03,合併による解散等,6010001196475,令和７年２月１日東京都大島町元町字地の岡６４番９６株式会社ＪＳオートレンタカー（6010001196475）に合併し解散,2015-10-05,1,,,,,ヒデトラ,0
2101,9010001133888,登記記録の閉鎖等,0,2025-02-21,2025-02-06,サザンハイランド石油開発株式会社,,株式会社,東京都,千代田区,大手町１丁目１番２号,,13,101,1000004,,,2025-02-06,清算の結了等,,,2015-10-05,1,,,,,サザンハイランドセキユカイハツ,0
2105,9010001238150,登記記録の閉鎖等,0,2025-02-21,2025-02-06,ＣＢＩ　ＨＯＬＤＩＮＧＳ株式会社,,株式会社,東京都,千代田区,神田小川町２丁目４番地１６,,13,101,1010052,,,2025-02-06,清算の結了等,,,2023-09-06,1,,,,,シービーアイホールディングス,0
2113,9010401155805,登記記録の閉鎖等,0,2025-02-21,2025-02-03,株式会社キャピタルウィン開発,,株式会社,東京都,千代田区,神田須田町１丁目１９番地１０,,13,101,1010041,,,2025-02-03,合併による解散等,5011601018508,令和７年２月１日東京都千代田区神田須田町一丁目１９番地１０株式会社キャピタルウィンパートナーズ（5011601018508）に合併し解散,2020-10-15,1,,,,,キャピタルウィンカイハツ,0
2127,9010901010864,登記記録の閉鎖等,0,2025-02-21,2025-02-17,株式会社フレンドモータース,,株式会社,東京都,世田谷区,等々力６丁目１１番９号,,13,112,1580082,,,2025-02-17,清算の結了等,,,2015-10-05,1,,,,,,0
2131,9010902016134,登記記録の閉鎖等,0,2025-02-21,2025-02-17,有限会社ライフメンテナンス,,有限会社,東京都,世田谷区,太子堂１丁目１３番１１号ファミール三軒茶屋８０５,,13,112,1540004,,,2025-02-17,清算の結了等,,,2015-10-05,1,,,,,,0
2155,9011101105868,登記記録の閉鎖等,0,2025-02-21,2025-02-13,株式会社ＡｐｐＭｅｄｉｃｓ,,株式会社,東京都,新宿区,西新宿３丁目３番１３号西新宿水間ビル６階,,13,104,1600023,,,2025-02-13,清算の結了等,,,2024-01-19,1,,,,,アップメディクス,0
2161,9011301027441,登記記録の閉鎖等,0,2025-02-21,2025-02-19,日本生命科学研究院テクノロジー株式会社,,株式会社,東京都,杉並区,天沼２丁目７番７号マンション大竹３０１,,13,115,1670032,,,2025-02-19,清算の結了等,,,2021-12-21,1,,,,,ニホンセイメイカガクケンキュウインテクノロジー,0
2188,9021002015868,登記記録の閉鎖等,0,2025-02-21,2025-02-18,有限会社友希工務店,,有限会社,神奈川県,鎌倉市,津西１丁目１７番１３号２,,14,204,2480034,,,2025-02-18,清算の結了等,,,2015-10-05,1,,,,,ユウキコウムテン,0
2193,9030002062738,登記記録の閉鎖等,0,2025-02-21,2025-02-17,有限会社味新,,有限会社,埼玉県,富士見市,東みずほ台２丁目７番地４,,11,235,3540015,,,2025-02-17,清算の結了等,,,2015-10-05,1,,,,,アジシン,0
2195,9030002117839,登記記録の閉鎖等,0,2025-02-21,2025-02-18,有限会社シンワ電機,,有限会社,埼玉県,行田市,大字堤根１０８２番地２,,11,206,3610035,,,2025-02-18,清算の結了等,,,2015-10-05,1,,,,,シンワデンキ,0
2206,9040002101800,登記記録の閉鎖等,0,2025-02-21,2025-01-27,有限会社三世社,,有限会社,東京都,渋谷区,道玄坂１丁目１５番３号,,13,113,1500043,,,2025-01-27,清算の結了等,,,2015-10-05,1,,,,,サンセイシャ,0
2216,9080001014537,登記記録の閉鎖等,0,2025-02-21,2025-02-14,株式会社暮水,,株式会社,静岡県,島田市,金谷天王町１７３２番地の１,,22,209,4280032,,,2025-02-14,清算の結了等,,,2015-10-05,1,,,,,クレスイ,0
2220,9080102015574,登記記録の閉鎖等,0,2025-02-21,2025-02-17,有限会社プロテクトサービス,,有限会社,静岡県,富士市,石坂６４０番地の１,,22,210,4170862,,,2025-02-17,清算の結了等,,,2015-10-05,1,,,,,,0
2223,9080401026529,登記記録の閉鎖等,0,2025-02-21,2025-02-13,株式会社Ｋデザイン,,株式会社,静岡県,磐田市,豊岡３９４６番地１,,22,211,4380231,,,2025-02-13,清算の結了等,,,2023-06-08,1,,,,,ケイデザイン,0
2230,9110002019705,登記記録の閉鎖等,0,2025-02-21,2025-02-19,有限会社エヌ・ゼット・ケイ,,有限会社,新潟県,燕市,横田９９５６番地,,15,213,9590111,,,2025-02-19,清算の結了等,,,2015-10-05,1,,,,,エヌゼットケイ,0
2235,9120001187997,登記記録の閉鎖等,0,2025-02-21,2025-02-17,株式会社Ｗ－ＥＮＤＬＥＳＳ,,株式会社,大阪府,大阪市西区,新町１丁目４番２４号大阪四ツ橋新町ビル７階,,27,106,5500013,,,2025-02-17,合併による解散等,3010401178126,令和７年２月１日東京都港区元赤坂一丁目１番８号株式会社赤坂国際会計内株式会社Ｗ‐ＥＮＤＬＥＳＳ（3010401178126）に合併し解散,2015-10-05,1,,,,,ウェンドレス,0
2257,9130005015609,登記記録の閉鎖等,0,2025-02-21,2025-02-20,一般社団法人御池リーガルサポート機構,,その他の設立登記法人,京都府,京都市中京区,柳馬場通御池下る柳八幡町６５,,26,104,6048101,,,2025-02-20,清算の結了等,,,2019-05-29,1,,,,,オイケリーガルサポートキコウ,0
2259,9140001048553,登記記録の閉鎖等,0,2025-02-21,2025-02-14,株式会社薫陶舎,,株式会社,兵庫県,尼崎市,東園田町３丁目３７番地の１１,,28,202,6610953,,,2025-02-14,清算の結了等,,,2015-10-05,1,,,,,クントウシャ,0
2272,9180001155676,登記記録の閉鎖等,0,2025-02-21,2025-02-18,株式会社グリーンルーム,,株式会社,愛知県,名古屋市名東区,八前２丁目１７０２番地,,23,115,4650018,,,2025-02-18,清算の結了等,,,2023-04-07,1,,,,,グリーンルーム,0
2273,9180001160255,登記記録の閉鎖等,0,2025-02-21,2025-02-18,サイエステート株式会社,,株式会社,愛知県,名古屋市天白区,表山３丁目２００３番地,,23,116,4680069,,,2025-02-18,清算の結了等,,,2024-02-22,1,,,,,サイエステート,0
2279,9180003024425,登記記録の閉鎖等,0,2025-02-21,2025-02-19,合同会社アルゴダックス,,合同会社,愛知県,名古屋市瑞穂区,中山町１丁目９番地１アーバンライフ桜山１階,,23,108,4670803,,,2025-02-19,清算の結了等,,,2022-11-02,1,,,,,アルゴダックス,0
2286,9190002001003,登記記録の閉鎖等,0,2025-02-21,2025-02-20,有限会社津設計室,,有限会社,三重県,津市,西丸之内１８番２６号,,24,201,5140035,,,2025-02-20,清算の結了等,,,2015-10-05,1,,,,,ツセッケイシツ,0
2290,9200005002112,登記記録の閉鎖等,0,2025-02-21,2025-02-04,天理教岐富分教会,,その他の設立登記法人,岐阜県,山県市,東深瀬１１２０番地,,21,215,5012104,,,2025-02-04,合併による解散等,6200005002123,令和７年２月４日岐阜県山県市岩佐６２７番地天理教武藝分教会（6200005002123）に合併し解散,2015-10-05,1,,,,,テンリキョウギトミブンキョウカイ,0
2306,9280002000202,登記記録の閉鎖等,0,2025-02-21,2025-02-20,丸勝運輸有限会社,,有限会社,島根県,松江市,八幡町７８４番地１,,32,201,6900025,,,2025-02-20,清算の結了等,,,2015-10-05,1,,,,,マルカツウンユ,0
2313,9290803001513,登記記録の閉鎖等,0,2025-02-21,2025-02-18,合同会社中西石油,,合同会社,福岡県,直方市,大字中泉１１８２番地１６,,40,204,8220011,,,2025-02-18,清算の結了等,,,2015-10-05,1,,,,,ナカニシセキユ,0
2321,9370001020670,登記記録の閉鎖等,0,2025-02-21,2025-02-19,クロスイン株式会社,,株式会社,宮城県,仙台市青葉区,中央２丁目７番３０号,,04,101,9800021,,,2025-02-19,清算の結了等,,,2015-10-05,1,,,,,クロスイン,0
2332,9430001076748,登記記録の閉鎖等,0,2025-02-21,2025-02-20,株式会社プロス,,株式会社,北海道,札幌市北区,新川二条１丁目２番５１号,,01,102,0010922,,,2025-02-20,清算の結了等,,,2018-06-06,1,,,,,プロス,0
