sequenceNumber,corporateNumber,process,correct,updateDate,changeDate,name,nameImageId,kind,prefectureName,cityName,streetNumber,addressImageId,prefectureCode,cityCode,postCode,addressOutside,addressOutsideImageId,closeDate,closeCause,successorCorporateNumber,changeCause,assignmentDate,latest,enName,enPrefectureName,enCityName,enAddressOutside,furigana,hihyoji
4,1010001251895,新規,0,2025-02-13,2025-02-13,ＫＳＳＫ株式会社,,株式会社,東京都,中央区,日本橋横山町４番１５号日本橋横山町スクエア９１７号,,13,102,1030003,,,,,,,2025-02-13,1,,,,,ケイエスエスケイ,0
5,1010001252175,新規,0,2025-02-13,2025-02-13,株式会社ｍｕｄｓｎａｉｌ,,株式会社,東京都,文京区,千石４丁目２２番８号,,13,105,1120011,,,,,,,2025-02-13,1,,,,,マッドスネイル,0
8,1010003046294,新規,0,2025-02-13,2025-02-13,Ｍｏｎｊａｓａ合同会社,,合同会社,東京都,千代田区,大手町１丁目７番２号東京サンケイビル２７階,,13,101,1000004,,,,,,,2025-02-13,1,,,,,モンジャサ,0
9,1010003046369,新規,0,2025-02-13,2025-02-13,１２００合同会社,,合同会社,東京都,文京区,小石川２丁目１８－１,,13,105,1120002,,,,,,,2025-02-13,1,,,,,イチニゼロゼロ,0
10,1010003046385,新規,0,2025-02-13,2025-02-13,合同会社ＡＤＡＭＡＳ,,合同会社,東京都,中央区,銀座１丁目２２番１１号銀座大竹ビジデンス２階,,13,102,1040061,,,,,,,2025-02-13,1,,,,,アダマス,0
11,1010005039560,新規,0,2025-02-13,2025-02-13,一般社団法人ＬＥＶＥＣＨＹ２２号,,その他の設立登記法人,東京都,千代田区,紀尾井町３－８第２紀尾井町ビル９０１アクシス綜合会計事務所内,,13,101,1020094,,,,,,,2025-02-13,1,,,,,レベチーニジュウニゴウ,0
12,1010103002511,新規,0,2025-02-13,2025-02-13,合同会社アンブレイカブル,,合同会社,東京都,八王子市,七国４丁目１１－１３,,13,201,1920919,,,,,,,2025-02-13,1,,,,,アンブレイカブル,0
17,1010401187698,新規,0,2025-02-13,2025-02-13,株式会社Ｗａｙｎｅ,,株式会社,東京都,港区,浜松町２丁目２－１５ダイヤビル２Ｆ,,13,103,1050013,,,,,,,2025-02-13,1,,,,,ウェイン,0
18,1010401188176,新規,0,2025-02-13,2025-02-13,株式会社Ｒｅ,,株式会社,東京都,港区,南麻布３丁目１１番１２号,,13,103,1060047,,,,,,,2025-02-13,1,,,,,アールイー,0
19,1010401188234,新規,0,2025-02-13,2025-02-13,株式会社ＯＺＵ,,株式会社,東京都,港区,南青山２丁目２１－３５南青山ヒルズ１Ｆ,,13,103,1070062,,,,,,,2025-02-13,1,,,,,オズ,0
21,1010403034213,新規,0,2025-02-13,2025-02-13,合同会社インベストメント・ラボ,,合同会社,東京都,港区,南青山２丁目２番１５号,,13,103,1070062,,,,,,,2025-02-13,1,,,,,インベストメントラボ,0
22,1010403034378,新規,0,2025-02-13,2025-02-13,合同会社バテリア八戸,,合同会社,東京都,港区,虎ノ門１丁目２番８号リニューアブル・ジャパン株式会社内,,13,103,1050001,,,,,,,2025-02-13,1,,,,,バテリアハチノヘ,0
27,1010701047230,新規,0,2025-02-13,2025-02-13,株式会社ウイン,,株式会社,東京都,品川区,大崎１丁目６番４号新大崎勧業ビルディング,,13,109,1410032,,,,,,,2025-02-13,1,,,,,ウイン,0
29,1010901056816,新規,0,2025-02-13,2025-02-13,Ｓｕｉコンサルティング株式会社,,株式会社,東京都,世田谷区,代田１丁目２―９―３０１,,13,112,1550033,,,,,,,2025-02-13,1,,,,,スイコンサルティング,0
31,1010903009706,新規,0,2025-02-13,2025-02-13,合同会社桜花水月,,合同会社,東京都,世田谷区,野沢２丁目１４－１雨宮ビル３０３,,13,112,1540003,,,,,,,2025-02-13,1,,,,,キョウカスイゲツ,0
40,1011001167784,新規,0,2025-02-13,2025-02-13,株式会社ＯＷＬ　ＶＩＳＩＯＮ．,,株式会社,東京都,渋谷区,道玄坂１丁目１０番８号渋谷道玄坂東急ビル２Ｆ‐Ｃ,,13,113,1500043,,,,,,,2025-02-13,1,,,,,アウルビジョン,0
42,1011003020958,新規,0,2025-02-13,2025-02-13,合同会社Ｌ＆ｓｃａｐｅ,,合同会社,東京都,渋谷区,広尾２丁目５‐３３アッシュダール広尾３０２,,13,113,1500012,,,,,,,2025-02-13,1,,,,,ランドスケープ,0
56,1011801045628,新規,0,2025-02-13,2025-02-13,株式会社コモアミカシステムズ,,株式会社,東京都,足立区,千住緑町１丁目２１番２９－３０６号,,13,121,1200044,,,,,,,2025-02-13,1,,,,,コモアミカシステムズ,0
58,1012305002116,新規,0,2025-02-13,2025-02-13,一般社団法人東京イスラーム文化アンド教育センター,,その他の設立登記法人,東京都,町田市,木曽西１丁目２－３４－２０２号,,13,209,1940037,,,,,,,2025-02-13,1,,,,,トウキョウイスラームブンカアンドキョウイクセンター,0
60,1012403006968,新規,0,2025-02-13,2025-02-13,合同会社ピドナトレード,,合同会社,東京都,調布市,調布ケ丘３丁目６６‐１ライオンズガーデン調布ヶ丘３０１,,13,208,1820021,,,,,,,2025-02-13,1,,,,,ピドナトレード,0
67,1013301053771,新規,0,2025-02-13,2025-02-13,株式会社未来の郷,,株式会社,東京都,豊島区,上池袋１丁目２６－６上池袋タワーレジデンス２０４号室,,13,116,1700012,,,,,,,2025-02-13,1,,,,,ミライノサト,0
75,1020001161409,新規,0,2025-02-13,2025-02-13,ブラスト・スチール株式会社,,株式会社,神奈川県,横浜市金沢区,福浦２丁目１６番８号,,14,108,2360004,,,,,,,2025-02-13,1,,,,,ブラストスチール,0
85,1021001084450,新規,0,2025-02-13,2025-02-13,株式会社ＬＩＧＡＲＥ２７,,株式会社,神奈川県,逗子市,沼間３丁目１５番１号,,14,208,2490004,,,,,,,2025-02-13,1,,,,,リガーレニイナナ,0
86,1021001084467,新規,0,2025-02-13,2025-02-13,株式会社ＹＯＳＥＢＡ,,株式会社,神奈川県,中郡二宮町,一色１３１０番７号杉崎テナント２ＦＨＯＮＥＹＣＯＭＢ,,14,342,2590134,,,,,,,2025-02-13,1,,,,,ヨセバ,0
89,1030003026105,新規,0,2025-02-13,2025-02-13,合同会社ステップ,,合同会社,埼玉県,羽生市,北１丁目１０番３９号,,11,216,3480057,,,,,,,2025-02-13,1,,,,,ステップ,0
91,1040001137340,新規,0,2025-02-13,2025-02-13,株式会社スキルワン,,株式会社,千葉県,柏市,布施８２６番地１５,,12,217,2770825,,,,,,,2025-02-13,1,,,,,スキルワン,0
92,1040001137365,新規,0,2025-02-13,2025-02-13,株式会社ビーエムプラス,,株式会社,千葉県,柏市,根戸４６４－１５,,12,217,2770831,,,,,,,2025-02-13,1,,,,,ビーエムプラス,0
94,1040005022662,新規,0,2025-02-13,2025-02-13,一般社団法人未来準備,,その他の設立登記法人,千葉県,船橋市,海神５丁目２９番３５号メゾンアムール船橋１０３号,,12,204,2730021,,,,,,,2025-02-13,1,,,,,ミライジュンビ,0
96,1060001037902,新規,0,2025-02-13,2025-02-13,ベル石油販売株式会社,,株式会社,栃木県,小山市,大字喜沢６８２番地４,,09,208,3230014,,,,,,,2025-02-13,1,,,,,ベルセキユハンバイ,0
105,1080401027740,新規,0,2025-02-13,2025-02-13,株式会社住まいのホンネ研究所,,株式会社,静岡県,袋井市,川井８７３番地の４,,22,216,4370064,,,,,,,2025-02-13,1,,,,,スマイノホンネケンキュウジョ,0
121,1120001272856,新規,0,2025-02-13,2025-02-13,ＦＵＦＵ　ＪＡＰＡＮ株式会社,,株式会社,大阪府,大阪市西成区,北津守１丁目４番３７号,,27,122,5570061,,,,,,,2025-02-13,1,,,,,フフジャパン,0
122,1120001272864,新規,0,2025-02-13,2025-02-13,株式会社ＫＳＫ,,株式会社,大阪府,大阪市阿倍野区,共立通１丁目２番１４号,,27,119,5450041,,,,,,,2025-02-13,1,,,,,ケイエスケイ,0
127,1120003028587,新規,0,2025-02-13,2025-02-13,合同会社ｅｍｐｕｓａ,,合同会社,大阪府,大阪市西区,南堀江１丁目２０－４,,27,106,5500015,,,,,,,2025-02-13,1,,,,,エンプサ,0
128,1120005024790,新規,0,2025-02-13,2025-02-13,一般社団法人ＧＯＨＡＮ,,その他の設立登記法人,大阪府,大阪市旭区,太子橋１丁目４番８号,,27,117,5350001,,,,,,,2025-02-13,1,,,,,ゴハン,0
135,1130001078988,新規,0,2025-02-13,2025-02-13,株式会社詠西,,株式会社,京都府,京都市西京区,御陵荒木町１３番地５,,26,111,6158233,,,,,,,2025-02-13,1,,,,,エニシ,0
140,1140001137388,新規,0,2025-02-13,2025-02-13,サムジング株式会社,,株式会社,兵庫県,宍粟市,山崎町野４１１番地５,,28,227,6712543,,,,,,,2025-02-13,1,,,,,サムジング,0
141,1140001137396,新規,0,2025-02-13,2025-02-13,株式会社プラスワン,,株式会社,兵庫県,神戸市中央区,浜辺通３丁目１－５２アミーグランコート三宮１１１１,,28,110,6510083,,,,,,,2025-02-13,1,,,,,プラスワン,0
142,1140001137421,新規,0,2025-02-13,2025-02-13,柳田設備工業株式会社,,株式会社,兵庫県,姫路市,飾磨区今在家９４２番地,,28,201,6728079,,,,,,,2025-02-13,1,,,,,ヤナギタセツビコウギョウ,0
144,1140003021648,新規,0,2025-02-13,2025-02-13,Ｄｉｖｅｒｓｅ合同会社,,合同会社,兵庫県,洲本市,宇山１丁目３番３０号,,28,205,6560012,,,,,,,2025-02-13,1,,,,,ディバース,0
146,1150005009665,新規,0,2025-02-13,2025-02-13,ＴＥＩＢＡＮ事業協同組合,,その他の設立登記法人,奈良県,磯城郡田原本町,２４５番地,,29,363,6360300,,,,,,,2025-02-13,1,,,,,テイバン,0
155,1180001165344,新規,0,2025-02-13,2025-02-13,株式会社Ｔ’ｓ　ＳｏｌｕｔｉｏＮ,,株式会社,愛知県,春日井市,高蔵寺北四丁目１番地１５号高蔵寺ファーストビル５階,,23,206,4860000,,,,,,,2025-02-13,1,,,,,ティーズソリューション,0
156,1180001165377,新規,0,2025-02-13,2025-02-13,株式会社クリミア天使,,株式会社,愛知県,名古屋市中区,丸の内３丁目１６番２号第２２プロスパー丸の内６０２号,,23,106,4600002,,,,,,,2025-02-13,1,,,,,クリミアテンシ,0
157,1180001165385,新規,0,2025-02-13,2025-02-13,株式会社ジオ・エース,,株式会社,愛知県,一宮市,木曽川町玉ノ井字丹波山１０番地４,,23,203,4930004,,,,,,,2025-02-13,1,,,,,ジオエース,0
160,1180003027988,新規,0,2025-02-13,2025-02-13,ＫＯＫＩＳＩＮ合同会社,,合同会社,愛知県,名古屋市中村区,名駅４丁目２４番５号第２森ビル４０１,,23,105,4500002,,,,,,,2025-02-13,1,,,,,コウキシン,0
161,1180003027996,新規,0,2025-02-13,2025-02-13,合同会社Ｔｒｅｓｉｃｋ,,合同会社,愛知県,春日井市,朝宮町３丁目１２番地４エステート朝宮１０１,,23,206,4860846,,,,,,,2025-02-13,1,,,,,トレシック,0
168,1200001043431,新規,0,2025-02-13,2025-02-13,株式会社Ｓ．Ｆａｃｔｏｒｙ,,株式会社,岐阜県,関市,中之保５７６８―２,,21,205,5013511,,,,,,,2025-02-13,1,,,,,エスファクトリー,0
176,1240001064523,新規,0,2025-02-13,2025-02-13,株式会社Ｋ‐ＳＷＡＴ,,株式会社,広島県,廿日市市,地御前２丁目２３－３４,,34,213,7380042,,,,,,,2025-02-13,1,,,,,ケースワット,0
182,1260001039903,新規,0,2025-02-13,2025-02-13,株式会社ＮＡＧＡＹＯ,,株式会社,岡山県,岡山市中区,浜１丁目８番１３号,,33,102,7038256,,,,,,,2025-02-13,1,,,,,ナガヨ,0
187,1290001108952,新規,0,2025-02-13,2025-02-13,株式会社ＡＭＡＧＡＭＩ,,株式会社,福岡県,糸島市,志摩新町２１番３,,40,230,8191333,,,,,,,2025-02-13,1,,,,,アマガミ,0
188,1290001108960,新規,0,2025-02-13,2025-02-13,株式会社ＨｉｒｏＳｔａｙ,,株式会社,福岡県,古賀市,花見東１丁目１４－４６,,40,223,8113112,,,,,,,2025-02-13,1,,,,,ヒロステイ,0
189,1290801031271,新規,0,2025-02-13,2025-02-13,株式会社８４５ＤＥＳＩＧＮ,,株式会社,福岡県,北九州市小倉北区,泉台２丁目８番１０号,,40,106,8030842,,,,,,,2025-02-13,1,,,,,ハチヨンゴデザイン,0
193,1300003002227,新規,0,2025-02-13,2025-02-13,合同会社みちひらき,,合同会社,佐賀県,鳥栖市,宿町１１０１番地１６,,41,203,8410052,,,,,,,2025-02-13,1,,,,,ミチヒラキ,0
200,1330001032859,新規,0,2025-02-13,2025-02-13,株式会社Ｓｏｌａｃｅ,,株式会社,熊本県,玉名市,六田４７番地５レジデンス・ドリームＩＩ－２０２号,00137983,43,206,8650058,,,,,,,2025-02-13,1,,,,,ソレース,0
203,1330003010771,新規,0,2025-02-13,2025-02-13,合同会社ｍｏｎｔａｇｅ,,合同会社,熊本県,熊本市中央区,出水８丁目３番３５号フィオーレいずみＢ２０１,,43,101,8620941,,,,,,,2025-02-13,1,,,,,モンタージュ,0
204,1330003010796,新規,0,2025-02-13,2025-02-13,合同会社Ｎ軽運送,,合同会社,熊本県,八代市,松崎町６００番地１,,43,202,8660884,,,,,,,2025-02-13,1,,,,,エヌケイウンソウ,0
209,1360001034778,新規,0,2025-02-13,2025-02-13,株式会社クラメイト,,株式会社,沖縄県,沖縄市,知花４丁目４９番６号,,47,211,9042143,,,,,,,2025-02-13,1,,,,,クラメイト,0
215,1370003006931,新規,0,2025-02-13,2025-02-13,合同会社ＭＨ,,合同会社,宮城県,仙台市青葉区,錦町２丁目４番６２号,,04,101,9800012,,,,,,,2025-02-13,1,,,,,エムエイチ,0
222,1440001009565,新規,0,2025-02-13,2025-02-13,株式会社エンジェルキッズ,,株式会社,北海道,函館市,陣川町８６番地１８８,,01,202,0410833,,,,,,,2025-02-13,1,,,,,エンジェルキッズ,0
226,1700150129179,新規,0,2025-02-13,2025-02-13,Ｋａｉｌａｎｉ　Ｉｎｖｅｓｔｍｅｎｔｓ　ＬＬＣ,,外国会社等,,,,,,,,４３２９　Ｋａｉｋｏｏ　Ｐｌａｃｅ，　Ｈｏｎｏｌｕｌｕ，ＨＩ　９６８１６,,,,,,2025-02-13,1,,,,,カイラニインベストメンツエルエルシー,0
236,2010001252190,新規,0,2025-02-13,2025-02-13,株式会社日本ＧＸ総合研究所,,株式会社,東京都,中央区,月島３丁目２４番６号,,13,102,1040052,,,,,,,2025-02-13,1,,,,,ニホンジーエックスソウゴウケンキュウジョ,0
237,2010001252224,新規,0,2025-02-13,2025-02-13,株式会社ＭＺ,,株式会社,東京都,中央区,築地２丁目１１番１２－２０１号,,13,102,1040045,,,,,,,2025-02-13,1,,,,,エムゼット,0
238,2010001252240,新規,0,2025-02-13,2025-02-13,株式会社東美,,株式会社,東京都,文京区,水道２丁目９番８号江戸川ハイツ２０８号室,,13,105,1120005,,,,,,,2025-02-13,1,,,,,トウビ,0
241,2010005039551,新規,0,2025-02-13,2025-02-13,一般社団法人予防医学推進協会,,その他の設立登記法人,東京都,中央区,銀座１丁目１２番４号Ｎ＆Ｅ－ＢＬＤ．７階,,13,102,1040061,,,,,,,2025-02-13,1,,,,,ヨボウイガクスイシンキョウカイ,0
246,2010401188118,新規,0,2025-02-13,2025-02-13,株式会社ＡＮＡアセット,,株式会社,東京都,港区,六本木４丁目８番７号六本木三河台ビル５階,,13,103,1060032,,,,,,,2025-02-13,1,,,,,エーエヌエーアセット,0
247,2010401188159,新規,0,2025-02-13,2025-02-13,ＲＹＵＳＥＩ興業株式会社,,株式会社,東京都,港区,赤坂４丁目１３－５赤坂オフィスハイツ３８号室,,13,103,1070052,,,,,,,2025-02-13,1,,,,,リュウセイコウギョウ,0
248,2010403034154,新規,0,2025-02-13,2025-02-13,合同会社赤穂商店,,合同会社,東京都,港区,西新橋２丁目３４番８－１１０３号,,13,103,1050003,,,,,,,2025-02-13,1,,,,,アコウショウテン,0
249,2010403034294,新規,0,2025-02-13,2025-02-13,合同会社ＨａｙａｂｕｓａＤｅｓｉｇｎ,,合同会社,東京都,港区,南青山２丁目２番１５号,,13,103,1070062,,,,,,,2025-02-13,1,,,,,ハヤブサデザイン,0
250,2010403034328,新規,0,2025-02-13,2025-02-13,合同会社Ｈｅｒｏ式えいご,,合同会社,東京都,港区,南青山２丁目２番１５号ウィン青山１２１４号,,13,103,1070062,,,,,,,2025-02-13,1,,,,,ヒロシキエイゴ,0
251,2010403034344,新規,0,2025-02-13,2025-02-13,合同会社ＸＩＺ１,,合同会社,東京都,港区,新橋４丁目１４番１新橋ＡＵＮＢＬＤＧ４階,,13,103,1050004,,,,,,,2025-02-13,1,,,,,エックスアイジーワン,0
253,2010405024087,新規,0,2025-02-13,2025-02-13,一般社団法人日本サクラ国際支援機構,,その他の設立登記法人,東京都,港区,赤坂５丁目４番１５号ＡＲＡプレイス８階,,13,103,1070052,,,,,,,2025-02-13,1,,,,,ニホンサクラコクサイシエンキコウ,0
258,2010501053618,新規,0,2025-02-13,2025-02-13,株式会社縁,,株式会社,東京都,台東区,東上野１丁目６－３東上野関根ビル２階,,13,106,1100015,,,,,,,2025-02-13,1,,,,,エン,0
266,2010703007561,新規,0,2025-02-13,2025-02-13,ハマリーフ合同会社,,合同会社,東京都,品川区,東五反田１丁目８番１１号,,13,109,1410022,,,,,,,2025-02-13,1,,,,,ハマリーフ,0
267,2010801035836,新規,0,2025-02-13,2025-02-13,ＹＵＲＲＩ株式会社,,株式会社,東京都,大田区,矢口１丁目１６－１９コスモビルＩＩ３１１,00137979,13,111,1460093,,,,,,,2025-02-13,1,,,,,ユリ,0
268,2010801035844,新規,0,2025-02-13,2025-02-13,株式会社ＯＵＲ　ＯＦＦＩＣＥ,,株式会社,東京都,大田区,北千束２丁目１３番１号,,13,111,1450062,,,,,,,2025-02-13,1,,,,,アワーオフィス,0
269,2010803005283,新規,0,2025-02-13,2025-02-13,サンガ合同会社,,合同会社,東京都,大田区,大森北４丁目４番１１号錦ビル２０１,,13,111,1430016,,,,,,,2025-02-13,1,,,,,サンガ,0
272,2010901056815,新規,0,2025-02-13,2025-02-13,株式会社ＮｅｗＣｌａｓｓｉｃ,,株式会社,東京都,世田谷区,経堂４丁目３８－９,,13,112,1560052,,,,,,,2025-02-13,1,,,,,ニュークラシック,0
284,2011101110602,新規,0,2025-02-13,2025-02-13,日本住宅機工株式会社,,株式会社,東京都,新宿区,西新宿３丁目３番１３号西新宿水間ビル２Ｆ,,13,104,1600023,,,,,,,2025-02-13,1,,,,,ニホンジュウタクキコウ,0
287,2011105011326,新規,0,2025-02-13,2025-02-13,一般社団法人日本民泊推進協会,,その他の設立登記法人,東京都,新宿区,住吉町３－１１,,13,104,1620065,,,,,,,2025-02-13,1,,,,,ニホンミンパクスイシンキョウカイ,0
289,2011801045593,新規,0,2025-02-13,2025-02-13,株式会社５ｌａｐ,,株式会社,東京都,足立区,本木南町１１番１１号,,13,121,1230855,,,,,,,2025-02-13,1,,,,,スラップ,0
290,2011805003432,新規,0,2025-02-13,2025-02-13,一般社団法人豊かな街づくり,,その他の設立登記法人,東京都,足立区,千住曙町４０番１－１９１２号,00137978,13,121,1200023,,,,,,,2025-02-13,1,,,,,ユタカナマチヅクリ,0
291,2012401042758,新規,0,2025-02-13,2025-02-13,株式会社普楽,,株式会社,東京都,三鷹市,中原１丁目３番３２号オリーブコート２０２,,13,204,1810005,,,,,,,2025-02-13,1,,,,,フガク,0
292,2012401042774,新規,0,2025-02-13,2025-02-13,Ｄｅｊｉｍａ　Ｉｎｔｅｌｌｉｇｅｎｃｅ株式会社,,株式会社,東京都,府中市,晴見町３丁目８番１号,,13,206,1830057,,,,,,,2025-02-13,1,,,,,デジマインテリジェンス,0
298,2013101009626,新規,0,2025-02-13,2025-02-13,株式会社Ａｍｍｏｎ,,株式会社,東京都,西多摩郡瑞穂町,大字殿ケ谷７６３,,13,303,1901212,,,,,,,2025-02-13,1,,,,,アモン,0
307,2020001161341,新規,0,2025-02-13,2025-02-13,株式会社響ホールディングス,,株式会社,神奈川県,横浜市中区,太田町４丁目４９番地,,14,104,2310011,,,,,,,2025-02-13,1,,,,,ヒビキホールディングス,0
311,2020003027763,新規,0,2025-02-13,2025-02-13,合同会社Ｔコンサルタント,,合同会社,神奈川県,横浜市港南区,港南４丁目１２－３７シャルマンコーポ上大岡４０４号,,14,111,2330003,,,,,,,2025-02-13,1,,,,,ティコンサルタント,0
319,2021001084466,新規,0,2025-02-13,2025-02-13,株式会社ＴＳＣダイヤ,,株式会社,神奈川県,茅ヶ崎市,萩園２１９２番地１５,,14,207,2530071,,,,,,,2025-02-13,1,,,,,ティーエスシーダイヤ,0
321,2021003015584,新規,0,2025-02-13,2025-02-13,Ｍｉｒａ合同会社,,合同会社,神奈川県,鎌倉市,材木座３丁目１０番１８号,,14,204,2480013,,,,,,,2025-02-13,1,,,,,ミラ,0
326,2030001164830,新規,0,2025-02-13,2025-02-13,株式会社東京セミコンダクタ,,株式会社,埼玉県,さいたま市緑区,芝原３丁目２９番地５,,11,109,3360917,,,,,,,2025-02-13,1,,,,,トウキョウセミコンダクタ,0
327,2030001164839,新規,0,2025-02-13,2025-02-13,株式会社オリーブファム,,株式会社,埼玉県,戸田市,中町２丁目１７番５－１０９号,,11,224,3350012,,,,,,,2025-02-13,1,,,,,オリーブファム,0
328,2030001164847,新規,0,2025-02-13,2025-02-13,株式会社クローバー,,株式会社,埼玉県,入間市,大字下藤沢１０４５番地４,,11,225,3580011,,,,,,,2025-02-13,1,,,,,クローバー,0
331,2030003026104,新規,0,2025-02-13,2025-02-13,ＭＩＲＡＩ　Ｋ＆Ｋ合同会社,,合同会社,埼玉県,さいたま市見沼区,堀崎町５１２番地９,,11,104,3370052,,,,,,,2025-02-13,1,,,,,ミライケーアンドケー,0
332,2030005022043,新規,0,2025-02-13,2025-02-13,特定非営利活動法人サーチライト,,その他の設立登記法人,埼玉県,さいたま市南区,鹿手袋７丁目１９－１７アーデル武蔵浦和アルセーヌ４０２,,11,108,3360031,,,,,,,2025-02-13,1,,,,,サーチライト,0
340,2040005022661,新規,0,2025-02-13,2025-02-13,農事組合法人ブルーワールド,,その他の設立登記法人,千葉県,袖ケ浦市,蔵波９９５番地２８,,12,229,2990243,,,,,,,2025-02-13,1,,,,,ブルーワールド,0
343,2060003005419,新規,0,2025-02-13,2025-02-13,イロドリ合同会社,,合同会社,栃木県,宇都宮市,若草１丁目９番１０号,,09,201,3200072,,,,,,,2025-02-13,1,,,,,イロドリ,0
347,2070001042628,新規,0,2025-02-13,2025-02-13,株式会社ＲＡＫＵＳＨＩＮ,,株式会社,群馬県,桐生市,広沢町３丁目３９９０番地の３,,10,203,3760013,,,,,,,2025-02-13,1,,,,,ラクシン,0
350,2080101025309,新規,0,2025-02-13,2025-02-13,株式会社ＴＡＳＨＩＭＡ　ＳＥＩＺＯ,,株式会社,静岡県,伊東市,八幡野１３４６番地の２２,,22,208,4130232,,,,,,,2025-02-13,1,,,,,タシマセイゾウ,0
355,2090001019137,新規,0,2025-02-13,2025-02-13,株式会社富士旅人,,株式会社,山梨県,富士吉田市,上吉田５丁目１２番６号,,19,202,4030005,,,,,,,2025-02-13,1,,,,,フジタビビト,0
356,2100001038291,新規,0,2025-02-13,2025-02-13,株式会社イエライフ,,株式会社,長野県,北安曇郡白馬村,大字北城６０３０番地,,20,485,3999301,,,,,,,2025-02-13,1,,,,,イエライフ,0
367,2120001272764,新規,0,2025-02-13,2025-02-13,聯合瑞株式会社,,株式会社,大阪府,大阪市東住吉区,湯里５丁目１６番地５号３Ｆ－Ｃ,,27,121,5460013,,,,,,,2025-02-13,1,,,,,レンゴウズイ,0
368,2120001272797,新規,0,2025-02-13,2025-02-13,青谷智能株式会社,,株式会社,大阪府,大阪市生野区,田島５丁目１５番１７－１０１号室,,27,116,5440011,,,,,,,2025-02-13,1,,,,,アオタニチノウ,0
369,2120001272814,新規,0,2025-02-13,2025-02-13,株式会社夢,,株式会社,大阪府,大阪市淀川区,加島４丁目９番１２号,,27,123,5320031,,,,,,,2025-02-13,1,,,,,ユメ,0
373,2120003028603,新規,0,2025-02-13,2025-02-13,合同会社グローバルリンク,,合同会社,大阪府,大阪市西成区,出城１丁目９－８メルベージュ難波サウスＩＩＩ９０３号,00137975,27,122,5570024,,,,,,,2025-02-13,1,,,,,グローバルリンク,0
382,2140001137395,新規,0,2025-02-13,2025-02-13,トリプルゆう株式会社,,株式会社,兵庫県,宝塚市,桜ガ丘１８番３５号,,28,214,6650846,,,,,,,2025-02-13,1,,,,,トリプルユウ,0
385,2140003021647,新規,0,2025-02-13,2025-02-13,合同会社ＳＴＡＲＳ,,合同会社,兵庫県,神戸市中央区,旭通４丁目１番３－４００４号,,28,110,6510095,,,,,,,2025-02-13,1,,,,,スターズ,0
396,2180001165343,新規,0,2025-02-13,2025-02-13,ＦＣラボ株式会社,,株式会社,愛知県,北名古屋市,久地野郷廻１９２番地,,23,234,4810012,,,,,,,2025-02-13,1,,,,,エフシーラボ,0
397,2180001165376,新規,0,2025-02-13,2025-02-13,ｉＷｏｒｔｈ　Ｃｏｒｐｏｒａｔｉｏｎ　Ｊａｐａｎ株式会社,,株式会社,愛知県,津島市,南本町７丁目４４番地４,,23,208,4960834,,,,,,,2025-02-13,1,,,,,アイワースコーポレーションジャパン,0
404,2180003027962,新規,0,2025-02-13,2025-02-13,福源合同会社,,合同会社,愛知県,名古屋市南区,要町２丁目２３番地の５,,23,112,4570802,,,,,,,2025-02-13,1,,,,,フクゲン,0
415,2200001043430,新規,0,2025-02-13,2025-02-13,株式会社ＴＡＫＡＳＥ,,株式会社,岐阜県,中津川市,日の出町２番３４号シティータワー昴ＩＩＩ５－Ａ,00137973,21,206,5080005,,,,,,,2025-02-13,1,,,,,タカセ,0
420,2240001064522,新規,0,2025-02-13,2025-02-13,株式会社アキラル,,株式会社,広島県,広島市安芸区,瀬野西３丁目１２番３１号,,34,107,7390313,,,,,,,2025-02-13,1,,,,,アキラル,0
424,2270001009144,新規,0,2025-02-13,2025-02-13,Ｍライブプロジェクト株式会社,,株式会社,鳥取県,米子市,夜見町２８６７番地６,,31,202,6830851,,,,,,,2025-02-13,1,,,,,エムライブプロジェクト,0
430,2290001108968,新規,0,2025-02-13,2025-02-13,アセットマネジメント＆空間デザイン株式会社,,株式会社,福岡県,那珂川市,五郎丸４丁目３番１－６０１号,,40,231,8111252,,,,,,,2025-02-13,1,,,,,アセットマネジメントアンドクウカンデザイン,0
434,2290801031270,新規,0,2025-02-13,2025-02-13,株式会社Ｔｈｅ　ｃａｐｔｉｖａｔｅ　ｃｏｒｐｏｒａｔｉｏｎ,,株式会社,福岡県,北九州市小倉北区,浅野２丁目１３番２３号幹線ビル４０１号,,40,106,8020001,,,,,,,2025-02-13,1,,,,,ザキャプティベイトコーポレーション,0
436,2290803004968,新規,0,2025-02-13,2025-02-13,北九州マシナリー合同会社,,合同会社,福岡県,北九州市小倉北区,浅野３丁目８番１号ＡＩＭビル６階,,40,106,8020001,,,,,,,2025-02-13,1,,,,,キタキュウシュウマシナリー,0
437,2320003004575,新規,0,2025-02-13,2025-02-13,合同会社小出農園,,合同会社,大分県,竹田市,荻町高練木２２４２番地,,44,208,8796128,,,,,,,2025-02-13,1,,,,,コイデノウエン,0
446,2370003006930,新規,0,2025-02-13,2025-02-13,合同会社ＨＯＰＥ,,合同会社,宮城県,大崎市,三本木新沼字二又１６５番地,,04,215,9896315,,,,,,,2025-02-13,1,,,,,ホープ,0
456,2480001012746,新規,0,2025-02-13,2025-02-13,株式会社とくしま経理代行オフィス,,株式会社,徳島県,板野郡藍住町,奥野字前川６番地１,,36,403,7711202,,,,,,,2025-02-13,1,,,,,トクシマケイリダイコウオフィス,0
460,2500003003435,新規,0,2025-02-13,2025-02-13,合同会社たいようの子,,合同会社,愛媛県,松山市,北条辻１２２番地１,00137982,38,201,7992430,,,,,,,2025-02-13,1,,,,,タイヨウノコ,0
462,2700150129186,新規,0,2025-02-13,2025-02-13,Ｓｉｒｏｎａ　Ｄｅｎｔａｌ　Ｓｙｓｔｅｍｓ　ＧｍｂＨ,,外国会社等,,,,,,,,Ｆａｂｒｉｋｓｔｒａｓｓｅ　３１　６４６２５　Ｂｅｎｓｈｅｉｍ，Ｇｅｒｍａｎｙ,,,,,,2025-02-13,1,,,,,シロナデンタルシステムズゲーエムベーハー,0
473,3010001251992,新規,0,2025-02-13,2025-02-13,株式会社ＣＭＯ１号,,株式会社,東京都,中央区,日本橋大伝馬町３－１０－７０６,,13,102,1030011,,,,,,,2025-02-13,1,,,,,シーエムオーイチゴウ,0
474,3010001252181,新規,0,2025-02-13,2025-02-13,株式会社セールスアレイ,,株式会社,東京都,中央区,銀座１丁目１２番４号Ｎ＆Ｅ．ＢＬＤ．７階,,13,102,1040061,,,,,,,2025-02-13,1,,,,,セールスアレイ,0
475,3010001252207,新規,0,2025-02-13,2025-02-13,Ａ　Ｃａｐｉｔａｌ株式会社,,株式会社,東京都,千代田区,九段南２丁目８番１号,,13,101,1020074,,,,,,,2025-02-13,1,,,,,エーキャピタル,0
477,3010005039550,新規,0,2025-02-13,2025-02-13,一般社団法人耐災害デジタルコーディネーションセンター,,その他の設立登記法人,東京都,千代田区,平河町２丁目１２番２号ニュー福井ビル２Ｆ,,13,101,1020093,,,,,,,2025-02-13,1,,,,,タイサイガイデジタルコーディネーションセンター,0
478,3010005039559,新規,0,2025-02-13,2025-02-13,一般社団法人ＬＥＶＥＣＨＹ２１号,,その他の設立登記法人,東京都,千代田区,紀尾井町３－８第２紀尾井町ビル９０１アクシス綜合会計事務所内,,13,101,1020094,,,,,,,2025-02-13,1,,,,,レベチーニジュウイチゴウ,0
487,3010401188034,新規,0,2025-02-13,2025-02-13,株式会社Ｌｕｃｅｒａ,,株式会社,東京都,港区,北青山１丁目３－１,,13,103,1070061,,,,,,,2025-02-13,1,,,,,ルセラ,0
488,3010401188158,新規,0,2025-02-13,2025-02-13,株式会社グリーンメディカル,,株式会社,東京都,港区,赤坂２丁目１２番１２号赤坂フローラビル２Ｆ,,13,103,1070052,,,,,,,2025-02-13,1,,,,,グリーンメディカル,0
492,3010501053617,新規,0,2025-02-13,2025-02-13,株式会社トゥルーテック・ホールディングス,,株式会社,東京都,台東区,東上野２丁目１１番３号ＳＴＹビル４Ｆ,,13,106,1100015,,,,,,,2025-02-13,1,,,,,トゥルーテックホールディングス,0
495,3010503007728,新規,0,2025-02-13,2025-02-13,合同会社アップサイドアセット,,合同会社,東京都,台東区,下谷２丁目３－１杉浦ビル３階,,13,106,1100004,,,,,,,2025-02-13,1,,,,,アップサイドアセット,0
499,3010703007560,新規,0,2025-02-13,2025-02-13,合同会社神源商事,,合同会社,東京都,品川区,東大井５丁目１２番１０号１Ｆ,,13,109,1400011,,,,,,,2025-02-13,1,,,,,シンゲンショウジ,0
502,3010901056797,新規,0,2025-02-13,2025-02-13,ＳＲＨマネジメント株式会社,,株式会社,東京都,世田谷区,成城５丁目２１番２０－１０７号,,13,112,1570066,,,,,,,2025-02-13,1,,,,,エスアールエイチマネジメント,0
503,3010901056806,新規,0,2025-02-13,2025-02-13,株式会社ＹＯＬＫＰＬＵＳ,,株式会社,東京都,世田谷区,北沢２丁目３６番１４号,,13,112,1550031,,,,,,,2025-02-13,1,,,,,ヨークプラス,0
504,3010901056814,新規,0,2025-02-13,2025-02-13,Ｍｉｃｒｏｊａｐａｎ株式会社,,株式会社,東京都,世田谷区,祖師谷３丁目８－１１リエゾンＭ１階,,13,112,1570072,,,,,,,2025-02-13,1,,,,,マイクロジャパン,0
517,3011101110527,新規,0,2025-02-13,2025-02-13,株式会社フタミ管理,,株式会社,東京都,新宿区,新宿２丁目１６番１１号,,13,104,1600022,,,,,,,2025-02-13,1,,,,,フタミカンリ,0
518,3011103015261,新規,0,2025-02-13,2025-02-13,合同会社ＫＫＫ,,合同会社,東京都,新宿区,山吹町１２－４ハーモニーレジデンス神楽坂３ｒｄ２０８,,13,104,1620801,,,,,,,2025-02-13,1,,,,,トリプルケー,0
519,3011105011325,新規,0,2025-02-13,2025-02-13,一般社団法人東京医療健康促進会,,その他の設立登記法人,東京都,新宿区,住吉町３－１１,,13,104,1620065,,,,,,,2025-02-13,1,,,,,トウキョウイリョウケンコウソクシンカイ,0
529,3011601028418,新規,0,2025-02-13,2025-02-13,株式会社Ｈ,,株式会社,東京都,練馬区,大泉町３丁目６９３番地家屋１階,,13,120,1780062,,,,,,,2025-02-13,1,,,,,エイチ,0
530,3011801045527,新規,0,2025-02-13,2025-02-13,安富盛国際株式会社,,株式会社,東京都,葛飾区,東金町３丁目１７番１０号ＫＢＳＡ－６,,13,122,1250041,,,,,,,2025-02-13,1,,,,,アントモリコクサイ,0
531,3011801045618,新規,0,2025-02-13,2025-02-13,ネイチャーリーダーズ株式会社,,株式会社,東京都,葛飾区,金町２丁目２１－５プラーズ金町４１６,,13,122,1250042,,,,,,,2025-02-13,1,,,,,ネイチャーリーダーズ,0
533,3012303002090,新規,0,2025-02-13,2025-02-13,合同会社エイムフォー,,合同会社,東京都,町田市,山崎町２２００番地山崎団地４－８－３０８,,13,209,1950074,,,,,,,2025-02-13,1,,,,,エイムフォー,0
539,3013103001398,新規,0,2025-02-13,2025-02-13,ほしの合同会社,,合同会社,東京都,青梅市,東青梅１丁目４番６－４０１Ｄ号室,,13,205,1980042,,,,,,,2025-02-13,1,,,,,ホシノ,0
551,3020001161299,新規,0,2025-02-13,2025-02-13,株式会社ＥＭＴ,,株式会社,神奈川県,横浜市西区,みなとみらい３丁目７番１号,,14,103,2200012,,,,,,,2025-02-13,1,,,,,イーエムティ,0
552,3020001161407,新規,0,2025-02-13,2025-02-13,シダコーポレーション株式会社,,株式会社,神奈川県,横浜市港北区,日吉本町５丁目５番１２号,,14,109,2230062,,,,,,,2025-02-13,1,,,,,シダコーポレーション,0
556,3020003027746,新規,0,2025-02-13,2025-02-13,合同会社大,,合同会社,神奈川県,横浜市青葉区,奈良町２８２４－１ワコーレ玉川学園Ｂ－７０９,,14,117,2270036,,,,,,,2025-02-13,1,,,,,ダイ,0
557,3020003027795,新規,0,2025-02-13,2025-02-13,合同会社あさひ,,合同会社,神奈川県,川崎市多摩区,長沢２丁目１２番８号,,14,135,2140035,,,,,,,2025-02-13,1,,,,,アサヒ,0
558,3020003027820,新規,0,2025-02-13,2025-02-13,ｓ‐ｍａｎａｇｅｍｅｎｔ合同会社,,合同会社,神奈川県,横浜市都筑区,勝田町１２８０番地８,,14,118,2240034,,,,,,,2025-02-13,1,,,,,エスマネージメント,0
561,3021001084457,新規,0,2025-02-13,2025-02-13,Ｋｅｙ　Ｉｎｖｅｓｔｍｅｎｔｓ株式会社,,株式会社,神奈川県,藤沢市,辻堂元町６丁目１２番２１号,,14,205,2510043,,,,,,,2025-02-13,1,,,,,キーインベストメンツ,0
562,3021001084465,新規,0,2025-02-13,2025-02-13,温泉ロジスティクス株式会社,,株式会社,神奈川県,足柄下郡湯河原町,宮上７７３番２５７,,14,384,2590314,,,,,,,2025-02-13,1,,,,,オンセンロジスティクス,0
569,3021003015575,新規,0,2025-02-13,2025-02-13,合同会社大城工務店,,合同会社,神奈川県,相模原市中央区,共和４丁目２１番１号リリオＪ３０５,,14,152,2520234,,,,,,,2025-02-13,1,,,,,オオシロコウムテン,0
570,3021003015583,新規,0,2025-02-13,2025-02-13,Ａｒｉｏｎ合同会社,,合同会社,神奈川県,相模原市緑区,又野３２６番地１３,,14,151,2520158,,,,,,,2025-02-13,1,,,,,アリオン,0
575,3030001164846,新規,0,2025-02-13,2025-02-13,株式会社ＳＰＬＡＮ,,株式会社,埼玉県,さいたま市西区,大字佐知川１２２４番地６,,11,101,3310064,,,,,,,2025-02-13,1,,,,,エスプラン,0
576,3030001164862,新規,0,2025-02-13,2025-02-13,株式会社栄辰,,株式会社,埼玉県,蕨市,北町３丁目９番１号,,11,223,3350001,,,,,,,2025-02-13,1,,,,,エイシン,0
578,3030005022042,新規,0,2025-02-13,2025-02-13,特定非営利活動法人蔵と現代美術展実行委員会,,その他の設立登記法人,埼玉県,大里郡寄居町,大字末野４９１番地２,,11,408,3691205,,,,,,,2025-02-13,1,,,,,クラトゲンダイビジュツテンジッコウイインカイ,0
588,3040003026820,新規,0,2025-02-13,2025-02-13,合同会社川壱,,合同会社,千葉県,銚子市,唐子町２８番地の１５,,12,202,2880801,,,,,,,2025-02-13,1,,,,,カワイチ,0
589,3040003026837,新規,0,2025-02-13,2025-02-13,Ａｉｎｉ　Ｅｎｔｅｒｐｒｉｓｅｓ合同会社,,合同会社,千葉県,富里市,十倉２４５０－５６,,12,233,2860212,,,,,,,2025-02-13,1,,,,,アニエンタープライズ,0
600,3100001038290,新規,0,2025-02-13,2025-02-13,株式会社カワサキ,,株式会社,長野県,千曲市,大字八幡５７６８番地１サープラス８３Ｂ２０１号,,20,218,3870023,,,,,,,2025-02-13,1,,,,,カワサキ,0
612,3120001272581,新規,0,2025-02-13,2025-02-13,株式会社ワークネクスト,,株式会社,大阪府,大阪市浪速区,敷津東２丁目４番１７号ザ・クロスシティタワー２８０６号,,27,111,5560012,,,,,,,2025-02-13,1,,,,,ワークネクスト,0
613,3120001272755,新規,0,2025-02-13,2025-02-13,晶明ジャパン株式会社,,株式会社,大阪府,大阪市住之江区,緑木１丁目２番３１－３０２号,,27,125,5590022,,,,,,,2025-02-13,1,,,,,ショウメイジャパン,0
614,3120001272788,新規,0,2025-02-13,2025-02-13,株式会社ＭａｒｋｅｔＸ,,株式会社,大阪府,大阪市福島区,福島６丁目１３番２２号リリィベル梅田西４０２号,,27,103,5530003,,,,,,,2025-02-13,1,,,,,マーケットエックス,0
615,3120001272904,新規,0,2025-02-13,2025-02-13,Ａｎｃｈｅ　Ｓｔｕｄｉｏ株式会社,,株式会社,大阪府,大阪市港区,市岡元町２丁目１５番１５－１Ｆ,,27,107,5520002,,,,,,,2025-02-13,1,,,,,アンチェスタジオ,0
616,3120001272920,新規,0,2025-02-13,2025-02-13,株式会社ｅｐｔ,,株式会社,大阪府,大阪市西区,江戸堀１丁目１４‐１平和相互肥後橋ビル４０１号,,27,106,5500002,,,,,,,2025-02-13,1,,,,,エプト,0
617,3120001272929,新規,0,2025-02-13,2025-02-13,株式会社ＺｅｎｎＡＩ,,株式会社,大阪府,大阪市北区,梅田１丁目２番２号大阪駅前第２ビル１２‐１２,,27,127,5300001,,,,,,,2025-02-13,1,,,,,ゼンアイ,0
618,3120003028619,新規,0,2025-02-13,2025-02-13,合同会社ｔａｔｅＬＡＢ,,合同会社,大阪府,大阪市西区,京町堀３丁目９‐２４プレサンス京町堀ノース１１０６,,27,106,5500003,,,,,,,2025-02-13,1,,,,,タテラボ,0
625,3122001038888,新規,0,2025-02-13,2025-02-13,株式会社ｄｉｅｃｉ,,株式会社,大阪府,四條畷市,岡山４丁目９番７号,,27,229,5750002,,,,,,,2025-02-13,1,,,,,ディエーチ,0
631,3130003010204,新規,0,2025-02-13,2025-02-13,合同会社ＫＣ．Ｌａｂ,,合同会社,京都府,京都市下京区,七条通油小路東入大黒町２２７番地第２キョートビル４０２,,26,106,6008223,,,,,,,2025-02-13,1,,,,,ケーシーラボ,0
641,3180001165383,新規,0,2025-02-13,2025-02-13,株式会社ＯＦＦＩＣＥ　ＭＡＴＳＵＤＡ,,株式会社,愛知県,名古屋市中区,千代田３丁目２１番１０号,,23,106,4600012,,,,,,,2025-02-13,1,,,,,オフィスマツダ,0
642,3180001165417,新規,0,2025-02-13,2025-02-13,遊礼株式会社,,株式会社,愛知県,名古屋市中区,錦２丁目１６番４号,,23,106,4600003,,,,,,,2025-02-13,1,,,,,ユウライ,0
649,3180305009658,新規,0,2025-02-13,2025-02-13,行政書士法人浅井事務所,,その他の設立登記法人,愛知県,豊田市,足助町久井戸９５番地１０,,23,211,4442424,,,,,,,2025-02-13,1,,,,,アサイジムショ,0
657,3240001064521,新規,0,2025-02-13,2025-02-13,株式会社Ｌ．Ｔ,,株式会社,広島県,広島市中区,流川町４番１９号６０２,,34,101,7300028,,,,,,,2025-02-13,1,,,,,エルティー,0
666,3260003005059,新規,0,2025-02-13,2025-02-13,Ｍｕｋａｒａｍ　Ｔｒａｄｉｎｇ合同会社,,合同会社,岡山県,岡山市北区,宿４００番地８,,33,101,7000001,,,,,,,2025-02-13,1,,,,,ムカラムトレーディング,0
673,3290001108934,新規,0,2025-02-13,2025-02-13,ＢＤＦ株式会社,,株式会社,福岡県,福岡市博多区,博多駅前３丁目２７番２５号,,40,132,8120011,,,,,,,2025-02-13,1,,,,,ビーディーエフ,0
674,3290001108942,新規,0,2025-02-13,2025-02-13,株式会社ウマミＪＰ,,株式会社,福岡県,福岡市中央区,天神１丁目９番１７号福岡天神フコク生命ビル１５階,,40,133,8100001,,,,,,,2025-02-13,1,,,,,ウマミジェイピー,0
675,3290001108959,新規,0,2025-02-13,2025-02-13,天華株式会社,,株式会社,福岡県,糟屋郡志免町,別府４丁目１番３号,,40,343,8112205,,,,,,,2025-02-13,1,,,,,テンカ,0
680,3290003016400,新規,0,2025-02-13,2025-02-13,合同会社結,,合同会社,福岡県,宗像市,自由ヶ丘３丁目１１番地４５,,40,220,8114163,,,,,,,2025-02-13,1,,,,,ユイ,0
681,3290005019640,新規,0,2025-02-13,2025-02-13,福岡県海外人材育成協同組合,,その他の設立登記法人,福岡県,福岡市博多区,博多駅東２丁目１７番５号ＡＲＫビル３Ｆ,,40,132,8120013,,,,,,,2025-02-13,1,,,,,フクオカケンカイガイジンザイイクセイ,0
684,3300001014081,新規,0,2025-02-13,2025-02-13,株式会社上田不動産,,株式会社,佐賀県,武雄市,武雄町大字富岡８２７２番地１,,41,206,8430024,,,,,,,2025-02-13,1,,,,,ウエダフドウサン,0
686,3310003004947,新規,0,2025-02-13,2025-02-13,合同会社ｐｏｃｋｅｔ　ｓｕｎ,,合同会社,長崎県,長崎市,松原町２５１５番地１,,42,201,8510131,,,,,,,2025-02-13,1,,,,,ポケットサン,0
695,3330003010794,新規,0,2025-02-13,2025-02-13,合同会社プレジャーベル,,合同会社,熊本県,熊本市西区,戸坂町２番３２号,,43,103,8600045,,,,,,,2025-02-13,1,,,,,プレジャーベル,0
696,3340003004746,新規,0,2025-02-13,2025-02-13,合同会社ＴＲＧトランスポート,,合同会社,鹿児島県,鹿児島市,西田２丁目２７番２３号,,46,201,8900046,,,,,,,2025-02-13,1,,,,,ティーアールジートランスポート,0
699,3360001034776,新規,0,2025-02-13,2025-02-13,株式会社ナカテック,,株式会社,沖縄県,那覇市,高良２丁目９番４３号（２０５）,,47,201,9010145,,,,,,,2025-02-13,1,,,,,ナカテック,0
703,3370001052240,新規,0,2025-02-13,2025-02-13,東日本水産株式会社,,株式会社,宮城県,石巻市,小渕浜カント３番地１,,04,202,9862415,,,,,,,2025-02-13,1,,,,,ヒガシニホンスイサン,0
704,3370001052249,新規,0,2025-02-13,2025-02-13,株式会社安藤自動車工業,,株式会社,宮城県,仙台市宮城野区,日の出町１丁目４番１５号,,04,102,9830035,,,,,,,2025-02-13,1,,,,,アンドウジドウシャコウギョウ,0
717,3480001012745,新規,0,2025-02-13,2025-02-13,ＫＹＭＪコンサルティング株式会社,,株式会社,徳島県,徳島市,八万町大野１２０番地,,36,201,7708070,,,,,,,2025-02-13,1,,,,,ケイワイエムジェイコンサルティング,0
721,3700150129185,新規,0,2025-02-13,2025-02-13,シンテックリサーチグループインク駐在員事務所,,外国会社等,東京都,多摩市,関戸２丁目３２－１９,,13,224,2060011,米国カンザス州スティルウェル、メトカーフ通り１７７４５番地,,,,,,2025-02-13,1,,,,,シンテツクリサーチグループインクチユウザイインジムシヨ,0
724,4010001252206,新規,0,2025-02-13,2025-02-13,すっぽん球株式会社,,株式会社,東京都,中央区,銀座８丁目１５番１０号,,13,102,1040061,,,,,,,2025-02-13,1,,,,,スッポンキュウ,0
727,4010003046358,新規,0,2025-02-13,2025-02-13,Ｇｒｅｅｎ　ｕｐ合同会社,,合同会社,東京都,中央区,銀座１丁目１２番４号Ｎ＆ＥＢＬＤ６Ｆ,,13,102,1040061,,,,,,,2025-02-13,1,,,,,グリーンアップ,0
728,4010005039566,新規,0,2025-02-13,2025-02-13,一般社団法人中日学術教育支援機構,,その他の設立登記法人,東京都,千代田区,神田佐久間町３丁目２１番地２６Ａ＆Ｔ・Ｓｑｕａｒｅｂｌｄｇ．４Ｆ,,13,101,1010025,,,,,,,2025-02-13,1,,,,,チュウニチガクジュツキョウイクシエンキコウ,0
732,4010401188009,新規,0,2025-02-13,2025-02-13,株式会社ＮＧＦＣ,,株式会社,東京都,港区,芝４丁目５番１０号ＡＣＮ田町ビル１０階,,13,103,1080014,,,,,,,2025-02-13,1,,,,,エヌジーエフシー,0
733,4010401188058,新規,0,2025-02-13,2025-02-13,株式会社Ｓｔｕｄｉｏ　Ｃａｂａｒｅｔ,,株式会社,東京都,港区,赤坂２丁目１６－８ＨＡＧＡビル２、３Ｆ,,13,103,1070052,,,,,,,2025-02-13,1,,,,,スタジオキャバレー,0
734,4010401188207,新規,0,2025-02-13,2025-02-13,株式会社ＡＰ８３,,株式会社,東京都,港区,虎ノ門４丁目１番２８号虎ノ門タワーズオフィス１７階,,13,103,1050001,,,,,,,2025-02-13,1,,,,,エーピーハチジュウサン,0
735,4010401188231,新規,0,2025-02-13,2025-02-13,ＬＣＪ　Ｃｈａｍｐｉｏｎ株式会社,,株式会社,東京都,港区,赤坂５丁目３番１号赤坂Ｂｉｚタワー２９階,,13,103,1070052,,,,,,,2025-02-13,1,,,,,エルシージェーチャンピオン,0
737,4010403034219,新規,0,2025-02-13,2025-02-13,合同会社ギヤナクリエイト,,合同会社,東京都,港区,南青山３丁目１番３６号青山丸竹ビル６Ｆ,,13,103,1070062,,,,,,,2025-02-13,1,,,,,ギヤナクリエイト,0
746,4010603011380,新規,0,2025-02-13,2025-02-13,ｔｅｉｔｅｉ合同会社,,合同会社,東京都,江東区,有明１丁目４番２０－４２６号,,13,108,1350063,,,,,,,2025-02-13,1,,,,,テイテイ,0
751,4010903009678,新規,0,2025-02-13,2025-02-13,Ｏｋｕｓａｗａ　Ｐｌａｎｎｉｎｇ合同会社,,合同会社,東京都,世田谷区,奥沢５丁目３６番２８号,,13,112,1580083,,,,,,,2025-02-13,1,,,,,オクサワプランニング,0
753,4011001167567,新規,0,2025-02-13,2025-02-13,株式会社エヌエルティー,,株式会社,東京都,渋谷区,恵比寿西２丁目８番４号,,13,113,1500021,,,,,,,2025-02-13,1,,,,,エヌエルティー,0
754,4011001167740,新規,0,2025-02-13,2025-02-13,株式会社ｙｕｐ,,株式会社,東京都,渋谷区,富ヶ谷２丁目２５－１２,,13,113,1510063,,,,,,,2025-02-13,1,,,,,ヤップ,0
758,4011005010863,新規,0,2025-02-13,2025-02-13,一般財団法人浜教育財団,,その他の設立登記法人,東京都,渋谷区,神宮前２丁目４番７号,,13,113,1500001,,,,,,,2025-02-13,1,,,,,ハマキョウイクザイダン,0
759,4011005010905,新規,0,2025-02-13,2025-02-13,司法書士法人クロシェット,,その他の設立登記法人,東京都,渋谷区,東１丁目２６番３１号,,13,113,1500011,,,,,,,2025-02-13,1,,,,,クロシェット,0
763,4011101110625,新規,0,2025-02-13,2025-02-13,株式会社Ｐｒｏｆｉｔ,,株式会社,東京都,新宿区,大久保１丁目２番１号天翔オフィス東新宿８１２,,13,104,1690072,,,,,,,2025-02-13,1,,,,,プロフィット,0
772,4011603004606,新規,0,2025-02-13,2025-02-13,合同会社ＴＡＫＵＭＩ‐ＥＤＩＴ,,合同会社,東京都,練馬区,関町北２丁目２３番４号Ａ号室,,13,120,1770051,,,,,,,2025-02-13,1,,,,,タクミエディット,0
774,4011801045567,新規,0,2025-02-13,2025-02-13,京澤株式会社,,株式会社,東京都,葛飾区,堀切７丁目２－７名橋ビル３０６号室,,13,122,1240006,,,,,,,2025-02-13,1,,,,,キョウザワ,0
775,4011801045617,新規,0,2025-02-13,2025-02-13,株式会社ｆｒｅｅ　ｍａｎ,,株式会社,東京都,足立区,中央本町３丁目４番６－１０７号,,13,121,1210011,,,,,,,2025-02-13,1,,,,,フリーマン,0
784,4012803003629,新規,0,2025-02-13,2025-02-13,富士見台ヘルスケア研究所合同会社,,合同会社,東京都,国立市,富士見台２丁目３１番地の２０,,13,215,1860003,,,,,,,2025-02-13,1,,,,,,0
790,4020001161315,新規,0,2025-02-13,2025-02-13,株式会社ヒューマンリバイブ,,株式会社,神奈川県,横浜市都筑区,中川中央１丁目３３番３号ビューローパラッツオ２０１,,14,118,2240003,,,,,,,2025-02-13,1,,,,,ヒューマンリバイブ,0
791,4020001161348,新規,0,2025-02-13,2025-02-13,Ｒｉｓｈｉ　ＦＩＢＣ　Ｊａｐａｎ株式会社,,株式会社,神奈川県,横浜市中区,尾上町３丁目３５番地,,14,104,2310015,,,,,,,2025-02-13,1,,,,,リシエフアイビーシージャパン,0
793,4020003027737,新規,0,2025-02-13,2025-02-13,合同会社ＦＭエンターテイメント,,合同会社,神奈川県,横浜市中区,曙町１丁目６,,14,104,2310057,,,,,,,2025-02-13,1,,,,,エフエムエンターテイメント,0
798,4021001084464,新規,0,2025-02-13,2025-02-13,株式会社アークス,,株式会社,神奈川県,厚木市,愛名８５７番３,,14,212,2430038,,,,,,,2025-02-13,1,,,,,アークス,0
800,4021003015582,新規,0,2025-02-13,2025-02-13,タイドアップ合同会社,,合同会社,神奈川県,海老名市,さつき町１－８－１０３,,14,215,2430421,,,,,,,2025-02-13,1,,,,,タイドアップ,0
805,4030001164853,新規,0,2025-02-13,2025-02-13,與神株式会社,,株式会社,埼玉県,戸田市,下前１丁目１１番２０－４５４号,,11,224,3350016,,,,,,,2025-02-13,1,,,,,エジン,0
808,4030003026093,新規,0,2025-02-13,2025-02-13,合同会社ＨＡＺＥ,,合同会社,埼玉県,熊谷市,筑波２丁目６１番地大谷ビルヂィング４階Ｂ室,,11,202,3600037,,,,,,,2025-02-13,1,,,,,ハゼ,0
810,4030005022041,新規,0,2025-02-13,2025-02-13,一般社団法人新しい風,,その他の設立登記法人,埼玉県,川口市,大字新堀４１５－１,,11,203,3340061,,,,,,,2025-02-13,1,,,,,アタラシイカゼ,0
812,4040001137354,新規,0,2025-02-13,2025-02-13,株式会社シンカヌチャー,,株式会社,千葉県,船橋市,大穴北１丁目３番１３号,,12,204,2740068,,,,,,,2025-02-13,1,,,,,シンカヌチャー,0
813,4040003026828,新規,0,2025-02-13,2025-02-13,ＮＩＰＰＯＮ　ＤＲＩＶＥ合同会社,,合同会社,千葉県,佐倉市,坪山新田２３番地２４,,12,212,2850056,,,,,,,2025-02-13,1,,,,,ニッポンドライブ,0
814,4040003026836,新規,0,2025-02-13,2025-02-13,安達朝陽合同会社,,合同会社,千葉県,千葉市稲毛区,穴川３丁目１３番１１号,,12,103,2630024,,,,,,,2025-02-13,1,,,,,アダチチョウヨウ,0
816,4050001056173,新規,0,2025-02-13,2025-02-13,株式会社ＳＲＫ販売,,株式会社,茨城県,牛久市,ひたち野東３丁目１８番地２２,,08,219,3001207,,,,,,,2025-02-13,1,,,,,エスアールケーハンバイ,0
817,4050003008998,新規,0,2025-02-13,2025-02-13,ＢＩＲＤＹ合同会社,,合同会社,茨城県,つくば市,学園の森２丁目１３－２,,08,220,3050816,,,,,,,2025-02-13,1,,,,,バーディ,0
827,4100001038298,新規,0,2025-02-13,2025-02-13,株式会社Ｄａｔｅ　Ｈｉｋｅ,,株式会社,長野県,北佐久郡軽井沢町,大字長倉５６番地１８,,20,321,3890111,,,,,,,2025-02-13,1,,,,,データハイク,0
839,4120001272507,新規,0,2025-02-13,2025-02-13,株式会社トラストリンク,,株式会社,大阪府,大阪市北区,梅田２丁目５番１３号桜橋第一ビル３０４号,,27,127,5300001,,,,,,,2025-02-13,1,,,,,トラストリンク,0
840,4120001272779,新規,0,2025-02-13,2025-02-13,株式会社Ｆｉｒｓｔ　Ｓｔｅｐ,,株式会社,大阪府,大阪市住之江区,東加賀屋３丁目５番３号,,27,125,5590012,,,,,,,2025-02-13,1,,,,,ファーストステップ,0
841,4120001272845,新規,0,2025-02-13,2025-02-13,株式会社ＭＪ,,株式会社,大阪府,大阪市天王寺区,玉造元町８番４－３００７号,,27,109,5430014,,,,,,,2025-02-13,1,,,,,エムジェイ,0
842,4120001272861,新規,0,2025-02-13,2025-02-13,株式会社ＫＦ,,株式会社,大阪府,大阪市西淀川区,歌島２丁目１０番２０号,,27,113,5550021,,,,,,,2025-02-13,1,,,,,ケイエフ,0
845,4120003028601,新規,0,2025-02-13,2025-02-13,合同会社ＴＫ,,合同会社,大阪府,大阪市淀川区,木川西１丁目１３番１７－６０２号,,27,123,5320013,,,,,,,2025-02-13,1,,,,,ティーケー,0
846,4120003028618,新規,0,2025-02-13,2025-02-13,ＹＪ合同会社,,合同会社,大阪府,大阪市北区,梅田１丁目２番２号大阪駅前第２ビル１２－１２,,27,127,5300001,,,,,,,2025-02-13,1,,,,,ワイジェイ,0
850,4120903005542,新規,0,2025-02-13,2025-02-13,合同会社ＫＢ,,合同会社,大阪府,茨木市,東太田４丁目７番９号の１６,,27,211,5670012,,,,,,,2025-02-13,1,,,,,ケービー,0
851,4120903005550,新規,0,2025-02-13,2025-02-13,合同会社ｔｅａｍ５５,,合同会社,大阪府,吹田市,千里山西２丁目１１－５ヴェルデュール西弐番館２０１,,27,205,5650851,,,,,,,2025-02-13,1,,,,,チームゴジュウゴ,0
853,4122001038887,新規,0,2025-02-13,2025-02-13,株式会社美販ＨＤ,,株式会社,大阪府,東大阪市,布市町１丁目４番３０号,,27,227,5798004,,,,,,,2025-02-13,1,,,,,ビハンホールディングス,0
858,4130005017287,新規,0,2025-02-13,2025-02-13,一般財団法人敦篤会,,その他の設立登記法人,京都府,船井郡京丹波町,口八田百合ノ下６番７番合地,,26,407,6220223,,,,,,,2025-02-13,1,,,,,トントクカイ,0
870,4180001165399,新規,0,2025-02-13,2025-02-13,株式会社ＳＡＭ,,株式会社,愛知県,名古屋市守山区,守牧町１９,,23,113,4630073,,,,,,,2025-02-13,1,,,,,サム,0
871,4180001165416,新規,0,2025-02-13,2025-02-13,ウィステリア株式会社,,株式会社,愛知県,名古屋市東区,泉３丁目１７番１０泉ビル６０２号室,,23,102,4610001,,,,,,,2025-02-13,1,,,,,ウィステリア,0
872,4180001165432,新規,0,2025-02-13,2025-02-13,株式会社ＦＬＯＷ　ＬＩＮＫ,,株式会社,愛知県,名古屋市中村区,名駅３丁目４－１０アルティメイト名駅１ｓｔ２階,,23,105,4500002,,,,,,,2025-02-13,1,,,,,フロウリンク,0
877,4180003027977,新規,0,2025-02-13,2025-02-13,合同会社ブラット,,合同会社,愛知県,名古屋市熱田区,伝馬２丁目６－３－２０１,,23,109,4560034,,,,,,,2025-02-13,1,,,,,ブラット,0
878,4180003027985,新規,0,2025-02-13,2025-02-13,合同会社ＮＥＸＳＴＡＲ,,合同会社,愛知県,津島市,鹿伏兎町下春日台４番地２,,23,208,4960023,,,,,,,2025-02-13,1,,,,,ネクスター,0
883,4180005020947,新規,0,2025-02-13,2025-02-13,一般社団法人ＳＡＶＥ　ＴＨＥ　ＨＯＲＳＥ,,その他の設立登記法人,愛知県,あま市,花長川内２０番地１レインボービル３階,,23,237,4901204,,,,,,,2025-02-13,1,,,,,セイヴザホース,0
888,4190001031996,新規,0,2025-02-13,2025-02-13,株式会社Ａｓ,,株式会社,三重県,津市,南丸之内１３番４４号,,24,201,5140034,,,,,,,2025-02-13,1,,,,,アズ,0
891,4200001043429,新規,0,2025-02-13,2025-02-13,株式会社サンロードぎふ,,株式会社,岐阜県,岐阜市,茜部菱野４丁目６４番地,,21,201,5008268,,,,,,,2025-02-13,1,,,,,サンロードギフ,0
894,4220001026489,新規,0,2025-02-13,2025-02-13,ｓｅｖｅｎ‐ｆ株式会社,,株式会社,石川県,金沢市,長田町３番１号ファーストレーベン長田・２０２号,,17,201,9200042,,,,,,,2025-02-13,1,,,,,セブンエフ,0
895,4240001064512,新規,0,2025-02-13,2025-02-13,藤井工業株式会社,,株式会社,広島県,東広島市,西条町御薗宇８５６８番地１,,34,212,7390024,,,,,,,2025-02-13,1,,,,,フジイコウギョウ,0
896,4240003007064,新規,0,2025-02-13,2025-02-13,合同会社ＤｅＳＫ,,合同会社,広島県,大竹市,白石２丁目４番２３号,,34,211,7390614,,,,,,,2025-02-13,1,,,,,デスク,0
901,4290001108941,新規,0,2025-02-13,2025-02-13,株式会社大北産業,,株式会社,福岡県,大牟田市,大字唐船１０４番地３,,40,202,8360003,,,,,,,2025-02-13,1,,,,,オオキタサンギョウ,0
902,4290001108966,新規,0,2025-02-13,2025-02-13,株式会社Ｂｒｏａ,,株式会社,福岡県,福岡市中央区,大名１丁目８番２５－４０５号,,40,133,8100041,,,,,,,2025-02-13,1,,,,,ブロア,0
906,4290003016358,新規,0,2025-02-13,2025-02-13,合同会社Ｙｏｕｒ　ｓｍｉｌｅ,,合同会社,福岡県,福岡市博多区,博多駅前１丁目２３番２号ＰａｒｋＦｒｏｎｔ博多駅前１丁目５Ｆ－Ｂ,,40,132,8120011,,,,,,,2025-02-13,1,,,,,ユアスマイル,0
910,4300001014080,新規,0,2025-02-13,2025-02-13,株式会社ダイヤモンドセミコンダクター,,株式会社,佐賀県,佐賀市,水ヶ江６丁目４番１１号,,41,201,8400054,,,,,,,2025-02-13,1,,,,,ダイヤモンドセミコンダクター,0
921,4360001034775,新規,0,2025-02-13,2025-02-13,株式会社ＹＳ,,株式会社,沖縄県,宮古島市,平良字下里１０８番地１７,,47,214,9060013,,,,,,,2025-02-13,1,,,,,ワイエス,0
922,4360005007166,新規,0,2025-02-13,2025-02-13,一般社団法人大きな和同志会,,その他の設立登記法人,沖縄県,中頭郡北谷町,字桑江６８８番地２,,47,326,9040103,,,,,,,2025-02-13,1,,,,,オオキナワドウシカイ,0
927,4390003002348,新規,0,2025-02-13,2025-02-13,合同会社ブバスティス,,合同会社,山形県,新庄市,大字鳥越２４３０番地の８,,06,205,9960041,,,,,,,2025-02-13,1,,,,,ビバスティス,0
928,4400003003393,新規,0,2025-02-13,2025-02-13,合同会社バルーンポケット,,合同会社,岩手県,盛岡市,上田４丁目１１番１２号,,03,201,0200066,,,,,,,2025-02-13,1,,,,,バルーンポケット,0
933,4460001005972,新規,0,2025-02-13,2025-02-13,株式会社ホクマル,,株式会社,北海道,釧路市,昭和中央３丁目３８番１５号ピースファクトリー２０１,,01,206,0840910,,,,,,,2025-02-13,1,,,,,ホクマル,0
941,5010001252155,新規,0,2025-02-13,2025-02-13,ＣＡＬＭ株式会社,,株式会社,東京都,中央区,銀座１丁目１２番４号Ｎ＆ＥＢＬＤ．６Ｆ,,13,102,1040061,,,,,,,2025-02-13,1,,,,,カーム,0
946,5010005039565,新規,0,2025-02-13,2025-02-13,八尾３ロジスティック特定目的会社,,その他の設立登記法人,東京都,中央区,八重洲２丁目２番１号,,13,102,1040028,,,,,,,2025-02-13,1,,,,,ヤオスリーロジスティック,0
950,5010401187975,新規,0,2025-02-13,2025-02-13,株式会社ＢｌｕｅＨｏｕｒ　Ｓｔｕｄｉｏ,,株式会社,東京都,港区,港南２丁目４－１４ＫＩＤＳ００３ビル４１１号,,13,103,1080075,,,,,,,2025-02-13,1,,,,,ブルーアワースタジオ,0
954,5010403034374,新規,0,2025-02-13,2025-02-13,ネクサスアーク合同会社,,合同会社,東京都,港区,北青山１丁目３番１号アールキューブ青山３階,,13,103,1070061,,,,,,,2025-02-13,1,,,,,ネクサスアーク,0
958,5010503007726,新規,0,2025-02-13,2025-02-13,にかほグリーンエナジー合同会社,,合同会社,東京都,台東区,浅草橋５丁目２０番８号,,13,106,1110053,,,,,,,2025-02-13,1,,,,,ニカホグリーンエナジー,0
965,5010901056787,新規,0,2025-02-13,2025-02-13,株式会社装飾不動産,,株式会社,東京都,世田谷区,豪徳寺１丁目４６番１５号Ｂ１Ｆ,,13,112,1540021,,,,,,,2025-02-13,1,,,,,ソウショクフドウサン,0
966,5010901056820,新規,0,2025-02-13,2025-02-13,株式会社ＳＯＭＥＴＨＩＮＧ,,株式会社,東京都,世田谷区,松原３丁目２１番２８号,,13,112,1560043,,,,,,,2025-02-13,1,,,,,サムシング,0
973,5011003020979,新規,0,2025-02-13,2025-02-13,合同会社ＩＮＴＥＲＥＳＴ,,合同会社,東京都,渋谷区,道玄坂１丁目１６番６号二葉ビル８ｂ,,13,113,1500043,,,,,,,2025-02-13,1,,,,,インタレスト,0
978,5011101110599,新規,0,2025-02-13,2025-02-13,ティー・エンジニアリング株式会社,,株式会社,東京都,新宿区,西新宿３丁目３番１３号西新宿水間ビル２Ｆ,,13,104,1600023,,,,,,,2025-02-13,1,,,,,ティーエンジニアリング,0
981,5011103015524,新規,0,2025-02-13,2025-02-13,合同会社Ｔ＆Ｃ,,合同会社,東京都,新宿区,高田馬場１丁目５番２１－５０７号,,13,104,1690075,,,,,,,2025-02-13,1,,,,,ティーアンドシー,0
993,5011801045616,新規,0,2025-02-13,2025-02-13,株式会社Ｖａｍｏｓ,,株式会社,東京都,足立区,竹の塚５丁目３１番８号ウェルフェアＭ６０２,,13,121,1210813,,,,,,,2025-02-13,1,,,,,バモス,0
1008,5020001161289,新規,0,2025-02-13,2025-02-13,コスモイレブン株式会社,,株式会社,神奈川県,横浜市泉区,中田西３丁目１０番３号,,14,116,2450015,,,,,,,2025-02-13,1,,,,,コスモイレブン,0
1010,5020003027711,新規,0,2025-02-13,2025-02-13,合同会社ＮＥＶＥＲＬＡＮＤ,,合同会社,神奈川県,横浜市西区,北幸２丁目１０－４８むつみビル３階,,14,103,2200004,,,,,,,2025-02-13,1,,,,,ネバーランド,0
1014,5021001084471,新規,0,2025-02-13,2025-02-13,株式会社ＳＡＩＥＮ,,株式会社,神奈川県,鎌倉市,笛田１丁目１０－１,,14,204,2480027,,,,,,,2025-02-13,1,,,,,サイエン,0
1023,5030001164828,新規,0,2025-02-13,2025-02-13,株式会社ｎｅｘｊｏｉｎ,,株式会社,埼玉県,志木市,本町５丁目２３番２４号第３本吉ビル４１７,,11,228,3530004,,,,,,,2025-02-13,1,,,,,ネックスジョイン,0
1024,5030001164860,新規,0,2025-02-13,2025-02-13,株式会社Ｋ．ＯＭＥＲ,,株式会社,埼玉県,所沢市,大字北秋津２０６番地の１４ブルーハイツ２０１号室,,11,208,3590038,,,,,,,2025-02-13,1,,,,,コメル,0
1025,5030003026118,新規,0,2025-02-13,2025-02-13,あおき制作所合同会社,,合同会社,埼玉県,朝霞市,田島２丁目１５番地４４号,,11,227,3510032,,,,,,,2025-02-13,1,,,,,アオキセイサクジョ,0
1033,5040003026835,新規,0,2025-02-13,2025-02-13,Ｍ＆Ｔ合同会社,,合同会社,千葉県,柏市,旭町１丁目４番１１号,,12,217,2770852,,,,,,,2025-02-13,1,,,,,エムアンドティー,0
1034,5050001056172,新規,0,2025-02-13,2025-02-13,株式会社春夏秋冬ＴＯＭＯＢＥ,,株式会社,茨城県,笠間市,吉岡２３４番地２クローバーハイツＢ－２,,08,216,3190203,,,,,,,2025-02-13,1,,,,,シュンカシュウトウトモベ,0
1036,5050003008997,新規,0,2025-02-13,2025-02-13,ＩＳＨＡＡＮＡ合同会社,,合同会社,茨城県,つくば市,学園の森２丁目１４－４２,,08,220,3050816,,,,,,,2025-02-13,1,,,,,イシャナ,0
1042,5080005007672,新規,0,2025-02-13,2025-02-13,特定非営利活動法人小島文化財を守る会,,その他の設立登記法人,静岡県,静岡市清水区,小島本町１３０番地の１,,22,103,4240306,,,,,,,2025-02-13,1,,,,,オジマブンカザイヲマモルカイ,0
1045,5080101025306,新規,0,2025-02-13,2025-02-13,株式会社ＣｕｒｉｏＢａｓｅ,,株式会社,静岡県,三島市,北田町４－２５ザ・仲次郎１階南,,22,206,4110854,,,,,,,2025-02-13,1,,,,,キュリオベース,0
1046,5080101025314,新規,0,2025-02-13,2025-02-13,株式会社８ｃｏｒｅ　ｌｅａｄ　ｔｏ　Ｊａｐａｎ,,株式会社,静岡県,三島市,徳倉３丁目３１番１９号,,22,206,4110044,,,,,,,2025-02-13,1,,,,,エイトコアリードトゥジャパン,0
1050,5080401027737,新規,0,2025-02-13,2025-02-13,ＪＤＩ株式会社,,株式会社,静岡県,浜松市中央区,板屋町１０２番地の１５,,22,138,4300928,,,,,,,2025-02-13,1,,,,,ジェイディーアイ,0
1051,5100001038297,新規,0,2025-02-13,2025-02-13,株式会社チームイイジマ,,株式会社,長野県,伊那市,東春近１３７７番地２,,20,209,3994432,,,,,,,2025-02-13,1,,,,,チイムイイジマ,0
1060,5120001272761,新規,0,2025-02-13,2025-02-13,エデュメーカー株式会社,,株式会社,大阪府,大阪市住之江区,南港北２丁目１－１０,,27,125,5590034,,,,,,,2025-02-13,1,,,,,エデュメーカー,0
1061,5120001272786,新規,0,2025-02-13,2025-02-13,株式会社マイプロトレーディング,,株式会社,大阪府,大阪市東成区,大今里南６丁目２番１８号第二岩本コーポ５０１号室,,27,115,5370013,,,,,,,2025-02-13,1,,,,,マイプロトレーディング,0
1062,5120001272794,新規,0,2025-02-13,2025-02-13,播磨コンサルティング株式会社,,株式会社,大阪府,大阪市北区,大深町１番１号ＷｅＷｏｒｋ・ＬＩＮＫＳ・ＵＭＥＤＡ８Ｆ,,27,127,5300011,,,,,,,2025-02-13,1,,,,,ハリマコンサルティング,0
1063,5120001272844,新規,0,2025-02-13,2025-02-13,泰宕商事株式会社,,株式会社,大阪府,大阪市都島区,片町２丁目５番６－３０６号,,27,102,5340025,,,,,,,2025-02-13,1,,,,,タイゴショウジ,0
1064,5120001272877,新規,0,2025-02-13,2025-02-13,株式会社ＳＥＳ,,株式会社,大阪府,大阪市北区,梅田２丁目２番２号ヒルトンプラザウエスト１９階,,27,127,5300001,,,,,,,2025-02-13,1,,,,,エスイーエス,0
1070,5120101071056,新規,0,2025-02-13,2025-02-13,株式会社ちうり,,株式会社,大阪府,藤井寺市,小山１丁目１４番４１－１０１号,,27,226,5830033,,,,,,,2025-02-13,1,,,,,チウリ,0
1076,5120903005541,新規,0,2025-02-13,2025-02-13,合同会社グロバディマネジメント,,合同会社,大阪府,吹田市,豊津町６０番３号,,27,205,5640051,,,,,,,2025-02-13,1,,,,,グロバディマネジメント,0
1088,5140001137376,新規,0,2025-02-13,2025-02-13,畑休グリーンテクノロジー株式会社,,株式会社,兵庫県,丹波篠山市,東新町８１番地,,28,221,6692324,,,,,,,2025-02-13,1,,,,,ハタキュウグリーンテクノロジー,0
1092,5150001027873,新規,0,2025-02-13,2025-02-13,株式会社Ｍ．Ａ．Ｔ　ｔｒａｎｓｐｏｒｔ,,株式会社,奈良県,奈良市,尼辻中町４番３０－Ｂ２０２号,00137984,29,201,6308024,,,,,,,2025-02-13,1,,,,,マッティトランスポート,0
1106,5180003027976,新規,0,2025-02-13,2025-02-13,Ｙｕｐｐｉｆｙ合同会社,,合同会社,愛知県,名古屋市中村区,名駅４丁目２４番５号　第２森ビル４０１,,23,105,4500002,,,,,,,2025-02-13,1,,,,,ヤピファイ,0
1107,5180005020938,新規,0,2025-02-13,2025-02-13,一般社団法人アヴニール・ラディウ,,その他の設立登記法人,愛知県,名古屋市緑区,乗鞍２丁目１７１１番地,,23,114,4580004,,,,,,,2025-02-13,1,,,,,アヴニールラディウ,0
1109,5180301039517,新規,0,2025-02-13,2025-02-13,株式会社Ｈ２,,株式会社,愛知県,安城市,高棚町井池９５番地１２,,23,212,4460053,,,,,,,2025-02-13,1,,,,,エイチツー,0
1119,5240003007063,新規,0,2025-02-13,2025-02-13,合同会社ライフパック,,合同会社,広島県,庄原市,口和町大月１７２番地,,34,210,7280503,,,,,,,2025-02-13,1,,,,,ライフパック,0
1122,5260001039899,新規,0,2025-02-13,2025-02-13,株式会社ドー,,株式会社,岡山県,真庭市,蒜山下和２１２,,33,214,7170513,,,,,,,2025-02-13,1,,,,,ドー,0
1123,5260003005057,新規,0,2025-02-13,2025-02-13,桜が丘ラボ合同会社,,合同会社,岡山県,赤磐市,桜が丘東３丁目３番地５７０,,33,213,7090721,,,,,,,2025-02-13,1,,,,,サクラガオカラボ,0
1136,5290001108949,新規,0,2025-02-13,2025-02-13,株式会社ティーナイン,,株式会社,福岡県,太宰府市,白川２１－７,,40,221,8180102,,,,,,,2025-02-13,1,,,,,ティーナイン,0
1137,5290001108957,新規,0,2025-02-13,2025-02-13,株式会社ライズ,,株式会社,福岡県,福岡市博多区,上呉服町９番６号１階,,40,132,8120036,,,,,,,2025-02-13,1,,,,,ライズ,0
1150,5330003010801,新規,0,2025-02-13,2025-02-13,合同会社Ｙ＆Ｓカンパニー,,合同会社,熊本県,八代市,松崎町４４３番地２,,43,202,8660884,,,,,,,2025-02-13,1,,,,,ワイアンドエスカンパニー,0
1165,5450001014528,新規,0,2025-02-13,2025-02-13,株式会社ＴＯ　ＢＥ　ＦＡＲＭＩＮＧ,,株式会社,北海道,旭川市,東鷹栖七線十四号２５３９番地の１４,,01,204,0718157,,,,,,,2025-02-13,1,,,,,トゥービーファーミング,0
1168,5460001005971,新規,0,2025-02-13,2025-02-13,サクラワークス株式会社,,株式会社,北海道,釧路市,星が浦北１丁目２番３０号ハイツ山彦５号室,,01,206,0840911,,,,,,,2025-02-13,1,,,,,サクラワークス,0
1176,5490001010960,新規,0,2025-02-13,2025-02-13,株式会社晃時丸,,株式会社,高知県,幡多郡黒潮町,佐賀４５７番地,,39,428,7891720,,,,,,,2025-02-13,1,,,,,コウトキマル,0
1178,5500001026138,新規,0,2025-02-13,2025-02-13,株式会社ＢｒｉｄｇｅＢｉｃ,,株式会社,愛媛県,松山市,久保４２４番地１,,38,201,7992462,,,,,,,2025-02-13,1,,,,,ブリジビック,0
1179,5700150049290,新規,0,2025-02-13,2015-10-09,三馬地区社会福祉協議会三馬デイサービスセンター南風苑,,その他,石川県,金沢市,久安６丁目５９－１,,17,201,9218164,,,,,,,2015-10-09,1,,,,,ミンマチクシヤカイフクシキヨウギカイミンマデイサービスセンターナンプウエン,0
1180,5700150129175,新規,0,2025-02-13,2025-02-13,ＧＯＯＤＦＯＵＴＡＩＮＭＡＲＩＮＥＰＴＥ．ＬＴＤ．,,外国会社等,,,,,,,,中華人民共和国香港特別行政区カウルーン、カウルーンベイ、ワンコンロード８メガキューブ２階フラット／ルーム２２５－０６,,,,,,2025-02-13,1,,,,,グツトフアウンテンマリンピーテイーリミテツド,0
1181,5700150129200,新規,0,2025-02-13,2025-02-13,東金市十文字川土地改良区,,その他,千葉県,東金市,松之郷９８９番地,,12,213,2830805,,,,,,,2025-02-13,1,,,,,トウガネシジユウモンジガワトチカイリヨウク,0
1186,6010001252162,新規,0,2025-02-13,2025-02-13,ＧｌｏＸｅｅｅ株式会社,,株式会社,東京都,中央区,日本橋蛎殻町１丁目２０番地９号,,13,102,1030014,,,,,,,2025-02-13,1,,,,,グロクシー,0
1187,6010001252195,新規,0,2025-02-13,2025-02-13,株式会社Ｇｏｌｄｅｎ　Ｃｅｄａｒ,,株式会社,東京都,中央区,銀座１丁目２２番１１号銀座大竹ビジデンス２Ｆ,,13,102,1040061,,,,,,,2025-02-13,1,,,,,ゴールデンシダー,0
1189,6010003046331,新規,0,2025-02-13,2025-02-13,合同会社ＥＺ　ＬＯＴ,,合同会社,東京都,中央区,銀座１丁目１２番４号Ｎ＆ＥＢＬＤ．６Ｆ,,13,102,1040061,,,,,,,2025-02-13,1,,,,,イージーロット,0
1195,6010401188080,新規,0,2025-02-13,2025-02-13,株式会社ａ　ｍａｎａｇｅｍｅｎｔ,,株式会社,東京都,港区,麻布十番２丁目１３番９号ＣＯＣＯハウス十番６階,,13,103,1060045,,,,,,,2025-02-13,1,,,,,アールマネジメント,0
1196,6010401188163,新規,0,2025-02-13,2025-02-13,株式会社Ｍｏｋｒｏｍ,,株式会社,東京都,港区,北青山１丁目３番１号アールキューブ青山３階,,13,103,1070061,,,,,,,2025-02-13,1,,,,,モクロム,0
1197,6010401188171,新規,0,2025-02-13,2025-02-13,株式会社卓越,,株式会社,東京都,港区,高輪１丁目１６－１２コート高輪２０３号,,13,103,1080074,,,,,,,2025-02-13,1,,,,,タクエツ,0
1198,6010401188213,新規,0,2025-02-13,2025-02-13,株式会社シニアファクトリー,,株式会社,東京都,港区,虎ノ門４丁目３番１号,,13,103,1050001,,,,,,,2025-02-13,1,,,,,シニアファクトリー,0
1199,6010401188246,新規,0,2025-02-13,2025-02-13,株式会社ロクス,,株式会社,東京都,港区,北青山１丁目３番１号,,13,103,1070061,,,,,,,2025-02-13,1,,,,,ロクス,0
1200,6010405024026,新規,0,2025-02-13,2025-02-13,一般社団法人Ｇｒａｎｄｍｏｔｈｅｒ,,その他の設立登記法人,東京都,港区,南青山３丁目１７番３号,,13,103,1070062,,,,,,,2025-02-13,1,,,,,グランドマザー,0
1202,6010501053606,新規,0,2025-02-13,2025-02-13,株式会社Ｓｋｙ,,株式会社,東京都,台東区,浅草５丁目２番８号,,13,106,1110032,,,,,,,2025-02-13,1,,,,,スカイ,0
1203,6010501053639,新規,0,2025-02-13,2025-02-13,株式会社ゆい,,株式会社,東京都,台東区,谷中２丁目１７番１０号てっぱん谷中ビル１Ｆ,,13,106,1100001,,,,,,,2025-02-13,1,,,,,ユイ,0
1208,6010701047234,新規,0,2025-02-13,2025-02-13,株式会社ＹＯＬＯ,,株式会社,東京都,品川区,小山３丁目１４番２－１１１０号,,13,109,1420062,,,,,,,2025-02-13,1,,,,,ヨーロー,0
1221,6011001167697,新規,0,2025-02-13,2025-02-13,株式会社Ｇａｒａｂａｔｏ　Ｇｒｏｕｐ,,株式会社,東京都,目黒区,上目黒３丁目３６番１２－４０３号,,13,110,1530051,,,,,,,2025-02-13,1,,,,,ガラバトグループ,0
1225,6011103015523,新規,0,2025-02-13,2025-02-13,合同会社クロローグ,,合同会社,東京都,新宿区,北新宿３丁目２１番１０号－３０３,,13,104,1690074,,,,,,,2025-02-13,1,,,,,クロローグ,0
1226,6011103015531,新規,0,2025-02-13,2025-02-13,合同会社ＦｕｎＡＭＰ,,合同会社,東京都,新宿区,西新宿３丁目３番１３号西新宿水間ビル２Ｆ,,13,104,1600023,,,,,,,2025-02-13,1,,,,,ファンアンプ,0
1231,6011203004608,新規,0,2025-02-13,2025-02-13,合同会社Ｎｅｏｎ　Ｋｎｉｇｈｔ,,合同会社,東京都,中野区,中野５丁目６７－７プラザ中野８０１,,13,114,1640001,,,,,,,2025-02-13,1,,,,,ネオンナイト,0
1234,6011301030340,新規,0,2025-02-13,2025-02-13,Ｃｏｒｄ　Ｊａｐａｎ株式会社,,株式会社,東京都,杉並区,荻窪１丁目３４番２号－３０２,,13,115,1670051,,,,,,,2025-02-13,1,,,,,コードジャパン,0
1236,6011501031667,新規,0,2025-02-13,2025-02-13,株式会社凛と論,,株式会社,東京都,荒川区,東日暮里４丁目７番２号エクセレント・カーサ菜３０３号室,,13,118,1160014,,,,,,,2025-02-13,1,,,,,リントロン,0
1237,6011601028423,新規,0,2025-02-13,2025-02-13,株式会社スタジオＦＲ,,株式会社,東京都,練馬区,石神井台５丁目２８番７号,,13,120,1770045,,,,,,,2025-02-13,1,,,,,スタジオエフアール,0
1240,6011803006680,新規,0,2025-02-13,2025-02-13,嘉豪合同会社,,合同会社,東京都,足立区,青井４丁目４６番２２－４０８号,,13,121,1210012,,,,,,,2025-02-13,1,,,,,カコウ,0
1250,6012805003311,新規,0,2025-02-13,2025-02-13,一般社団法人国際眼科医療支援協会,,その他の設立登記法人,東京都,立川市,羽衣町２丁目４９番６号森山眼科クリニック内,,13,202,1900021,,,,,,,2025-02-13,1,,,,,コクサイガンカイリョウシエンキョウカイ,0
1251,6013301053767,新規,0,2025-02-13,2025-02-13,株式会社ヒラタ,,株式会社,東京都,豊島区,南大塚１丁目２３番２０号,,13,116,1700005,,,,,,,2025-02-13,1,,,,,ヒラタ,0
1259,6021001084421,新規,0,2025-02-13,2025-02-13,株式会社アバントレース,,株式会社,神奈川県,小田原市,府川１８８－１カプリコルニオ２０１,,14,206,2500052,,,,,,,2025-02-13,1,,,,,アバントレース,0
1260,6021001084462,新規,0,2025-02-13,2025-02-13,ＤｙｎａＭＩＸ株式会社,,株式会社,神奈川県,相模原市南区,東林間８丁目７番２９号,,14,153,2520311,,,,,,,2025-02-13,1,,,,,ダイナミクス,0
1261,6021001084470,新規,0,2025-02-13,2025-02-13,株式会社Ａｄｄ　ｇｒｅｅｅｎ,,株式会社,神奈川県,厚木市,寿町３丁目４番５号米山ビル１０４,,14,212,2430003,,,,,,,2025-02-13,1,,,,,アドグリーン,0
1270,6030001164819,新規,0,2025-02-13,2025-02-13,株式会社リラホーム,,株式会社,埼玉県,上尾市,大字瓦葺３３３５番地,,11,219,3620022,,,,,,,2025-02-13,1,,,,,リラホーム,0
1271,6030001164827,新規,0,2025-02-13,2025-02-13,田芳株式会社,,株式会社,埼玉県,川口市,並木２丁目４１－９－２０２室,,11,203,3320034,,,,,,,2025-02-13,1,,,,,デンホウ,0
1274,6030003026100,新規,0,2025-02-13,2025-02-13,ココロケア合同会社,,合同会社,埼玉県,深谷市,原郷２１１６番地４,,11,218,3660035,,,,,,,2025-02-13,1,,,,,ココロケア,0
1280,6050003009004,新規,0,2025-02-13,2025-02-13,ＮＡＫＡＹＡＭＡ合同会社,,合同会社,茨城県,北相馬郡利根町,大字布川１３８９番地４,,08,564,3001622,,,,,,,2025-02-13,1,,,,,ナカヤマ,0
1283,6070001042624,新規,0,2025-02-13,2025-02-13,株式会社のあ,,株式会社,群馬県,伊勢崎市,下植木町１４番地１,,10,204,3720024,,,,,,,2025-02-13,1,,,,,ノア,0
1285,6080401027728,新規,0,2025-02-13,2025-02-13,株式会社Ｒｅｌｙ‐Ｌｉｇｈｔ,,株式会社,静岡県,浜松市中央区,上島７丁目２番１号,,22,138,4338122,,,,,,,2025-02-13,1,,,,,リライライト,0
1303,6120001272843,新規,0,2025-02-13,2025-02-13,星瑩株式会社,,株式会社,大阪府,大阪市北区,南森町１丁目１番１－２１９号,,27,127,5300054,,,,,,,2025-02-13,1,,,,,セイエイ,0
1306,6120105009968,新規,0,2025-02-13,2025-02-13,一般社団法人大阪日台交流協会,,その他の設立登記法人,大阪府,河内長野市,美加の台７丁目２４番２号,,27,216,5860044,,,,,,,2025-02-13,1,,,,,オオサカニッタイコウリュウキョウカイ,0
1318,6140001137391,新規,0,2025-02-13,2025-02-13,ゴールドバレー株式会社,,株式会社,兵庫県,神戸市西区,伊川谷町有瀬１３１－１－２－４０８,,28,111,6512113,,,,,,,2025-02-13,1,,,,,ゴールドバレー,0
1328,6180001165356,新規,0,2025-02-13,2025-02-13,株式会社ＡｒｉａＴｏｎｅ,,株式会社,愛知県,一宮市,大毛字小松寺東３５番地５,,23,203,4910132,,,,,,,2025-02-13,1,,,,,アリアトーン,0
1330,6180003027983,新規,0,2025-02-13,2025-02-13,合同会社奏,,合同会社,愛知県,愛西市,西川端町兼ケ角７２番地２,,23,232,4968019,,,,,,,2025-02-13,1,,,,,カナデ,0
1336,6200001043427,新規,0,2025-02-13,2025-02-13,株式会社絆,,株式会社,岐阜県,関市,西旭ケ丘４番４号,,21,205,5013828,,,,,,,2025-02-13,1,,,,,キズナ,0
1342,6230001020745,新規,0,2025-02-13,2025-02-13,オオサワ株式会社,,株式会社,富山県,富山市,向新庄町６丁目８番１４号,,16,201,9300916,,,,,,,2025-02-13,1,,,,,オオサワ,0
1344,6240001064502,新規,0,2025-02-13,2025-02-13,高木不動産株式会社,00137976,株式会社,広島県,広島市西区,観音本町１丁目２１番８号,,34,104,7330033,,,,,,,2025-02-13,1,,,,,タカギフドウサン,0
1357,6290001108931,新規,0,2025-02-13,2025-02-13,Ｆａｍ株式会社,,株式会社,福岡県,福岡市中央区,渡辺通５丁目２番８号,,40,133,8100004,,,,,,,2025-02-13,1,,,,,ファム,0
1358,6290001108948,新規,0,2025-02-13,2025-02-13,株式会社グリーン,,株式会社,福岡県,福岡市南区,高宮５丁目７番７－３０１号,,40,134,8150083,,,,,,,2025-02-13,1,,,,,グリーン,0
1359,6290001108964,新規,0,2025-02-13,2025-02-13,株式会社ＤｒａｎＷｅｉｓｅｒ,,株式会社,福岡県,福岡市中央区,天神２丁目２番１２号Ｔ＆Ｊビルディング７Ｆ,,40,133,8100001,,,,,,,2025-02-13,1,,,,,ドランバイザー,0
1360,6290001108972,新規,0,2025-02-13,2025-02-13,株式会社在雅Ｐａｒｔｎｅｒｓ,,株式会社,福岡県,福岡市中央区,春吉３丁目２３番２７－４０７号,,40,133,8100003,,,,,,,2025-02-13,1,,,,,ジェアパートナーズ,0
1362,6290003016389,新規,0,2025-02-13,2025-02-13,合同会社Ｒａｋｕｄｅｒｕ　Ｅｎｔｅｒｐｒｉｓｅ,,合同会社,福岡県,福岡市中央区,天神４丁目６－２８天神ファーストビル７階,,40,133,8100001,,,,,,,2025-02-13,1,,,,,ラクデルエンタープライズ,0
1363,6290003016397,新規,0,2025-02-13,2025-02-13,合同会社Ｄ’ｚｅｒｏ．,,合同会社,福岡県,福岡市中央区,那の川２丁目７－３－ニューガイアリルームＮｏ．２４，７０２号,,40,133,8100015,,,,,,,2025-02-13,1,,,,,ディゼロ,0
1367,6310001019449,新規,0,2025-02-13,2025-02-13,株式会社タナカ企画,,株式会社,長崎県,大村市,小路口本町４２１番地５,,42,205,8560020,,,,,,,2025-02-13,1,,,,,タナカキカク,0
1376,6330003010800,新規,0,2025-02-13,2025-02-13,合同会社ＭＨＤパワーバンク１号,,合同会社,熊本県,阿蘇市,永草１９４３番地２８,,43,214,8692231,,,,,,,2025-02-13,1,,,,,エムエイチディーパワーバンクイチゴウ,0
1379,6360001034773,新規,0,2025-02-13,2025-02-13,エイム・ディーアイ株式会社,,株式会社,沖縄県,島尻郡久米島町,字謝名堂５８３番地４,,47,361,9013107,,,,,,,2025-02-13,1,,,,,エイムディーアイ,0
1381,6360005007172,新規,0,2025-02-13,2025-02-13,一般社団法人北谷町マリンレジャー協会,,その他の設立登記法人,沖縄県,中頭郡北谷町,字港４番地,,47,326,9040114,,,,,,,2025-02-13,1,,,,,チャタンマリンレジャーキョウカイ,0
1396,6700150129174,新規,0,2025-02-13,2025-02-13,ＬＩＭ　ＰＲＯＰＥＲＴＹ　ＭＡＮＡＧＥＭＥＮＴ　ＰＴＥ．ＬＴＤ,,外国会社等,,,,,,,,１　ＡＭＢＥＲ　ＧＡＲＤＥＮＳ＃０４－０３　ＯＮＥ　ＡＭＢＥＲ　ＳＩＮＧＡＰＯＲＥ,,,,,,2025-02-13,1,,,,,リムプロパテイマネジメントピーテイーイーエルテイーデイー,0
1397,6700150129182,新規,0,2025-02-13,2025-02-13,Ｗｉｎ　Ｎａｔｕｒｅ　Ｅｎｔｅｒｐｒｉｓｅ　Ｌｉｍｉｔｅｄ,,外国会社等,,,,,,,,ＰｏｒｔｃｕｌｌｉｓＣｈａｍｂｅｒｓ，４Ｆ，ＥｌｌｅｎＳｋｅｌｔｏｎＢｕｉｌｄｉｎｇ，３０７６ＳｉｒＦｒａｎｃｉｓＤｒａｋｅＨｉｇｈｗａｙ，ＲｏａｄＴｏｗｎ，Ｔｏｒｔｏｌａ，ＢＶＩＶＧ１１１０,,,,,,2025-02-13,1,,,,,ウインネイチヤーエンタープライズリミテツド,0
1402,7010001252302,新規,0,2025-02-13,2025-02-13,Ｖｉｋｉｎｇ　Ｊａｐａｎ株式会社,,株式会社,東京都,千代田区,丸の内１丁目４番１号丸の内永楽ビルディング「ｘＬＩＮＫ丸の内永楽ビル」個室Ｎｏ．３７,,13,101,1000005,,,,,,,2025-02-13,1,,,,,バイキングジャパン,0
1403,7010003046421,新規,0,2025-02-13,2025-02-13,合同会社Ｒｏｕｔｅ２,,合同会社,東京都,千代田区,平河町１丁目６番１５号シルスフィア会計事務所内,,13,101,1020093,,,,,,,2025-02-13,1,,,,,ルートツー,0
1405,7010005039563,新規,0,2025-02-13,2025-02-13,中洲一般社団法人,,その他の設立登記法人,東京都,中央区,日本橋１丁目４番１号,,13,102,1030027,,,,,,,2025-02-13,1,,,,,ナカス,0
1410,7010401188047,新規,0,2025-02-13,2025-02-13,株式会社Ｒ,,株式会社,東京都,港区,南青山３丁目１番３６号青山丸竹ビル６Ｆ,,13,103,1070062,,,,,,,2025-02-13,1,,,,,アール,0
1411,7010401188170,新規,0,2025-02-13,2025-02-13,ｍＴｍ　Ｌａｂ株式会社,,株式会社,東京都,港区,南青山５丁目１１番２３号,,13,103,1070062,,,,,,,2025-02-13,1,,,,,エムティーエムラボ,0
1412,7010401188220,新規,0,2025-02-13,2025-02-13,ＥＭＩＪＯＡ株式会社,,株式会社,東京都,港区,西麻布２丁目２４番３１－１０９号,,13,103,1060031,,,,,,,2025-02-13,1,,,,,エミジョア,0
1413,7010401188237,新規,0,2025-02-13,2025-02-13,株式会社Ｆａｒｍ,,株式会社,東京都,港区,西麻布４丁目８番２２号ＭＮ４８２２ビル１０６号室,,13,103,1060031,,,,,,,2025-02-13,1,,,,,ファーム,0
1414,7010403034331,新規,0,2025-02-13,2025-02-13,Ｗａｋｎｏｓ合同会社,,合同会社,東京都,港区,新橋４丁目１４番１新橋ＡＵＮＢＬＤＧ４階,,13,103,1050004,,,,,,,2025-02-13,1,,,,,ワクノス,0
1415,7010405024025,新規,0,2025-02-13,2025-02-13,一般社団法人ＬＣ　ＧＲＯＵＰ,,その他の設立登記法人,東京都,港区,浜松町２丁目１番２０号ＳＶＡＸ大門ビル５階,,13,103,1050013,,,,,,,2025-02-13,1,,,,,エルシーグループ,0
1419,7010701047225,新規,0,2025-02-13,2025-02-13,アルカスブリッジ株式会社,,株式会社,東京都,品川区,西五反田５丁目２３番３号,,13,109,1410031,,,,,,,2025-02-13,1,,,,,アルカスブリッジ,0
1420,7010701047233,新規,0,2025-02-13,2025-02-13,株式会社Ｒｅｙ　Ｒｅａｌ　Ｅｓｔａｔｅ,,株式会社,東京都,品川区,西五反田４丁目２７番１号－４０１,,13,109,1410031,,,,,,,2025-02-13,1,,,,,レイリアルエステート,0
1427,7010805003157,新規,0,2025-02-13,2025-02-13,一般社団法人白ゆり,,その他の設立登記法人,東京都,大田区,上池台２丁目３２番１３号ニューブリード洗足池３０１,,13,111,1450064,,,,,,,2025-02-13,1,,,,,シラユリ,0
1429,7010901056810,新規,0,2025-02-13,2025-02-13,株式会社千歳,,株式会社,東京都,世田谷区,千歳台１丁目３９番１６－２０５号,,13,112,1570071,,,,,,,2025-02-13,1,,,,,チトセ,0
1430,7010903009709,新規,0,2025-02-13,2025-02-13,合同会社ＴＫＴの杜,,合同会社,東京都,世田谷区,北烏山９丁目２番９―１０２号,,13,112,1570061,,,,,,,2025-02-13,1,,,,,ティーケーティーノモリ,0
1448,7011601028422,新規,0,2025-02-13,2025-02-13,株式会社ＮＡＧＵＲＥＳ,,株式会社,東京都,練馬区,練馬２丁目１８番１２－３０６号,,13,120,1760001,,,,,,,2025-02-13,1,,,,,ナグリス,0
1449,7011603004603,新規,0,2025-02-13,2025-02-13,合同会社エスペランサ,,合同会社,東京都,練馬区,氷川台３丁目３０番８－１０７号,,13,120,1790084,,,,,,,2025-02-13,1,,,,,,0
1452,7011801045589,新規,0,2025-02-13,2025-02-13,株式会社つちのとひつじ,,株式会社,東京都,葛飾区,奥戸４丁目２２番１１号,,13,122,1240022,,,,,,,2025-02-13,1,,,,,ツチノトヒツジ,0
1453,7011801045614,新規,0,2025-02-13,2025-02-13,ＦＳＳ株式会社,,株式会社,東京都,足立区,南花畑２丁目１７番１９号,,13,121,1210062,,,,,,,2025-02-13,1,,,,,エフエスエス,0
1454,7011801045630,新規,0,2025-02-13,2025-02-13,株式会社ＶＥＲＳＥ,,株式会社,東京都,足立区,谷在家２丁目５番１５－４０１号,,13,121,1230863,,,,,,,2025-02-13,1,,,,,ヴァース,0
1461,7012403006970,新規,0,2025-02-13,2025-02-13,ジャパンタスティックス合同会社,,合同会社,東京都,三鷹市,下連雀３丁目３４番２２－７０６号,,13,204,1810013,,,,,,,2025-02-13,1,,,,,ジャパンタスティックス,0
1463,7012801023741,新規,0,2025-02-13,2025-02-13,株式会社Ｄｏｔｌｉｎｅ,,株式会社,東京都,立川市,錦町１丁目４番２８号ＮＫ第１ビル４Ｆ,,13,202,1900022,,,,,,,2025-02-13,1,,,,,ドットライン,0
1464,7013301053766,新規,0,2025-02-13,2025-02-13,ｒｏｏｔ９株式会社,,株式会社,東京都,豊島区,池袋３丁目１番１１号セレクトガーデン池袋１００２号,,13,116,1710014,,,,,,,2025-02-13,1,,,,,ルートナイン,0
1465,7013301053774,新規,0,2025-02-13,2025-02-13,エビアン株式会社,,株式会社,東京都,豊島区,池袋２丁目５０番４号７０７号室,,13,116,1710014,,,,,,,2025-02-13,1,,,,,エビアン,0
1481,7020003027817,新規,0,2025-02-13,2025-02-13,合同会社ＶＥＬＩＸ,,合同会社,神奈川県,横浜市神奈川区,片倉５丁目４３番１－６０６号,,14,102,2210865,,,,,,,2025-02-13,1,,,,,ヴェリックス,0
1487,7021001084461,新規,0,2025-02-13,2025-02-13,株式会社Ｎｅｘｕｓ,,株式会社,神奈川県,相模原市中央区,上溝２０６番地３プティモンターニュ２０２,,14,152,2520243,,,,,,,2025-02-13,1,,,,,ネクサス,0
1504,7030003026099,新規,0,2025-02-13,2025-02-13,合同会社ＦＴミュージックオフィス,,合同会社,埼玉県,ふじみ野市,鶴ケ岡３丁目２番３５号グレアム山崎３０１,,11,245,3560045,,,,,,,2025-02-13,1,,,,,エフティミュージックオフィス,0
1511,7040005022665,新規,0,2025-02-13,2025-02-13,医療法人社団Ｑｕｅｌｌｅ,,その他の設立登記法人,千葉県,我孫子市,つくし野４丁目１番２号フォルテ我孫子内,,12,222,2701164,,,,,,,2025-02-13,1,,,,,クヴェレ,0
1513,7050001056162,新規,0,2025-02-13,2025-02-13,豊華株式会社,,株式会社,茨城県,常総市,菅生町６２４番地,,08,211,3030044,,,,,,,2025-02-13,1,,,,,トヨカ,0
1514,7050001056170,新規,0,2025-02-13,2025-02-13,コモンセンス株式会社,,株式会社,茨城県,つくば市,榎戸４３３－２,,08,220,3050853,,,,,,,2025-02-13,1,,,,,コモンセンス,0
1518,7060001037905,新規,0,2025-02-13,2025-02-13,株式会社ＥＶＥ,,株式会社,栃木県,宇都宮市,インターパーク２丁目９番地２,,09,201,3210118,,,,,,,2025-02-13,1,,,,,イヴ,0
1521,7060005010305,新規,0,2025-02-13,2025-02-13,一般社団法人向日葵,,その他の設立登記法人,栃木県,那須郡那須町,大字高久乙１９６番地３,,09,407,3250303,,,,,,,2025-02-13,1,,,,,ヒマワリ,0
1532,7110001039053,新規,0,2025-02-13,2025-02-13,メンテナンスサービス株式会社,,株式会社,新潟県,上越市,三和区窪６４７番地１,,15,222,9430235,,,,,,,2025-02-13,1,,,,,メンテナンスサービス,0
1539,7120001272751,新規,0,2025-02-13,2025-02-13,シェルフィールド株式会社,,株式会社,大阪府,大阪市中央区,安土町１丁目４番５－６０５号,,27,128,5410052,,,,,,,2025-02-13,1,,,,,シェルフィールド,0
1540,7120001272792,新規,0,2025-02-13,2025-02-13,株式会社小新,,株式会社,大阪府,大阪市中央区,瓦屋町１丁目１４番１７号ＳａｋｕｒａＳｕｎｓｈｉｎｅＴｏｗｅｒ２０２号室,,27,128,5420066,,,,,,,2025-02-13,1,,,,,ショウシン,0
1541,7120001272818,新規,0,2025-02-13,2025-02-13,株式会社ワイズ・ラボーロ,,株式会社,大阪府,大阪市浪速区,幸町１丁目３番１９号,,27,111,5560021,,,,,,,2025-02-13,1,,,,,ワイズラボーロ,0
1542,7120001272834,新規,0,2025-02-13,2025-02-13,株式会社２ＷＥＳＴ,,株式会社,大阪府,大阪市中央区,千日前１丁目５番１２号４Ｆ,,27,128,5420074,,,,,,,2025-02-13,1,,,,,ツーウエスト,0
1543,7120001272842,新規,0,2025-02-13,2025-02-13,株式会社龍の鎧,,株式会社,大阪府,大阪市淀川区,西中島４丁目６番３０－１００５号,,27,123,5320011,,,,,,,2025-02-13,1,,,,,タツノヨロイ,0
1544,7120001272875,新規,0,2025-02-13,2025-02-13,極輝株式会社,,株式会社,大阪府,大阪市生野区,小路１丁目１６番５号,,27,116,5440002,,,,,,,2025-02-13,1,,,,,キョクキ,0
1548,7120903005548,新規,0,2025-02-13,2025-02-13,合同会社ＳＡＫＵＲＡ,,合同会社,大阪府,摂津市,東別府２丁目２０－２６,,27,224,5660042,,,,,,,2025-02-13,1,,,,,サクラ,0
1554,7130001078990,新規,0,2025-02-13,2025-02-13,三凡株式会社,,株式会社,京都府,京都市伏見区,竹田桶ノ井町２５－２６,,26,109,6128421,,,,,,,2025-02-13,1,,,,,サンボン,0
1559,7140001137192,新規,0,2025-02-13,2025-02-13,株式会社桝野組,,株式会社,兵庫県,姫路市,車崎２丁目１１番１７号,,28,201,6700058,,,,,,,2025-02-13,1,,,,,マスノグミ,0
1560,7140001137390,新規,0,2025-02-13,2025-02-13,株式会社ｆｌｅｅｔ,,株式会社,兵庫県,神戸市中央区,磯辺通１丁目１番１８号カサベラ国際プラザビル７０７,,28,110,6510084,,,,,,,2025-02-13,1,,,,,フリート,0
1563,7140003021650,新規,0,2025-02-13,2025-02-13,合同会社セレン,,合同会社,兵庫県,丹波篠山市,小枕１０８番３,,28,221,6692461,,,,,,,2025-02-13,1,,,,,セレン,0
1566,7150003003499,新規,0,2025-02-13,2025-02-13,合同会社まきむら,,合同会社,奈良県,桜井市,大字桜井１７８－２３Ｆ,,29,206,6330091,,,,,,,2025-02-13,1,,,,,マキムラ,0
1568,7160003003399,新規,0,2025-02-13,2025-02-13,合同会社ｔｏｋｉｎｏｎｅ,,合同会社,滋賀県,長浜市,新庄中町２９８番地,,25,203,5260012,,,,,,,2025-02-13,1,,,,,トキノネ,0
1575,7180001165413,新規,0,2025-02-13,2025-02-13,株式会社ＣＯＭＥ　ＯＮ,,株式会社,愛知県,瀬戸市,仲切町３番地,,23,204,4890042,,,,,,,2025-02-13,1,,,,,カモン,0
1583,7180303006455,新規,0,2025-02-13,2025-02-13,ＨＮ合同会社,,合同会社,愛知県,豊橋市,多米東町３丁目３８番地８,,23,201,4400028,,,,,,,2025-02-13,1,,,,,エイチエヌ,0
1587,7200001043434,新規,0,2025-02-13,2025-02-13,ＫＡＹ　ＳＡＲＡＰ株式会社,,株式会社,岐阜県,岐阜市,雨踊町１３番地,,21,201,5008337,,,,,,,2025-02-13,1,,,,,ケイサラップ,0
1591,7210001020060,新規,0,2025-02-13,2025-02-13,株式会社福井総合サポート,,株式会社,福井県,越前市,粟田部町第６７号１１番地１,,18,209,9150242,,,,,,,2025-02-13,1,,,,,フクイソウゴウサポート,0
1604,7290001108947,新規,0,2025-02-13,2025-02-13,ＱＵＡＳＡＲ＆ＳＴＲＩＰＥＳ株式会社,,株式会社,福岡県,福岡市早良区,飯倉４丁目３０番４－２号,,40,137,8140161,,,,,,,2025-02-13,1,,,,,クエーサーアンドストライプス,0
1605,7290001108955,新規,0,2025-02-13,2025-02-13,株式会社でんずムロゾノ,,株式会社,福岡県,筑後市,大字山ノ井３０４番地７,,40,211,8330031,,,,,,,2025-02-13,1,,,,,デンズムロゾノ,0
1606,7310001019448,新規,0,2025-02-13,2025-02-13,株式会社プロシード,,株式会社,長崎県,島原市,弁天町２丁目７３５１－１,,42,203,8550802,,,,,,,2025-02-13,1,,,,,プロシード,0
1611,7330003010799,新規,0,2025-02-13,2025-02-13,ＶＵ　ＧＩＡ　ＧＲＯＵＰ合同会社,,合同会社,熊本県,熊本市中央区,九品寺１丁目１９番５号,,43,101,8620976,,,,,,,2025-02-13,1,,,,,ヴウジャグループ,0
1621,7360001034772,新規,0,2025-02-13,2025-02-13,エイム・モビリティ・オペレーションズ株式会社,,株式会社,沖縄県,うるま市,字川崎４６８番地いちゅい具志川じんぶん館２０７号室,,47,213,9042203,,,,,,,2025-02-13,1,,,,,エイムモビリティオペレーションズ,0
1624,7370001052245,新規,0,2025-02-13,2025-02-13,株式会社ｓｔｕｄｉｏ　ＨｉＭ,,株式会社,宮城県,仙台市太白区,八本松２丁目３番６７号,,04,104,9820001,,,,,,,2025-02-13,1,,,,,スタジオハイム,0
1625,7370003006868,新規,0,2025-02-13,2025-02-13,合同会社オールド・リバー,,合同会社,宮城県,大崎市,古川十日町９番２８号菅原ビル１階,,04,215,9896165,,,,,,,2025-02-13,1,,,,,オールドリバー,0
1629,7400003003390,新規,0,2025-02-13,2025-02-13,合同会社ポロリア,,合同会社,岩手県,盛岡市,紅葉が丘３６－２１,,03,201,0200005,,,,,,,2025-02-13,1,,,,,ポロリア,0
1633,7700150056392,新規,0,2025-02-13,2015-10-09,弦打校区コミュニティ協議会,,その他,香川県,高松市,鶴市町３５６－３,,37,201,7618032,,,,,,,2015-10-09,1,,,,,ツルウチコウクコミユニテイキヨウギカイ,0
1634,7700150129181,新規,0,2025-02-13,2025-02-13,ＥＸＰＯＬＩＮＥ　ＣＯ．，ＬＴＤ．,,外国会社等,,,,,,,,＃３１９，Ｗｅｓｔｅｒｎ　Ｔｏｗｅｒ　ＩＶ，２４，Ｊｅｏｎｇｂａｌｓａｎ－ｒｏ，Ｉｌｓａｎｄｏｎｇ－ｇｕ，Ｇｏｙａｎｇ－ｓｉ，Ｇｙｅｏｎｇｇｉ－ｄｏ，Ｒｅｐｕｂｌｉｃ　ｏｆ　Ｋｏｒｅａ,00137936,,,,,2025-02-13,1,,,,,エキスポラインコーポレーシヨンリミテツド,0
1640,8010003046255,新規,0,2025-02-13,2025-02-13,グリーンスプライト合同会社,,合同会社,東京都,中央区,日本橋箱崎町１５－７,,13,102,1030015,,,,,,,2025-02-13,1,,,,,グリーンスプライト,0
1644,8010005039562,新規,0,2025-02-13,2025-02-13,一般社団法人ＬＥＶＥＣＨＹ２３号,,その他の設立登記法人,東京都,千代田区,紀尾井町３－８第２紀尾井町ビル９０１アクシス綜合会計事務所内,,13,101,1020094,,,,,,,2025-02-13,1,,,,,レベチーニジュウサンゴウ,0
1645,8010005039570,新規,0,2025-02-13,2025-02-13,一般社団法人ＫＲＦ１１２,,その他の設立登記法人,東京都,千代田区,内幸町２丁目１番６号,,13,101,1000011,,,,,,,2025-02-13,1,,,,,ケイアールエフヒャクジュウニ,0
1646,8010101016515,新規,0,2025-02-13,2025-02-13,株式会社じんし,,株式会社,東京都,八王子市,八木町６番９号,,13,201,1920055,,,,,,,2025-02-13,1,,,,,,0
1655,8010401188104,新規,0,2025-02-13,2025-02-13,株式会社エブリシングステージ,,株式会社,東京都,港区,新橋２丁目４番５号不二ビルディング新橋８Ｆ,,13,103,1050004,,,,,,,2025-02-13,1,,,,,エブリシングステージ,0
1656,8010401188194,新規,0,2025-02-13,2025-02-13,株式会社アロマノヴァ,,株式会社,東京都,港区,南青山２丁目２番１５号,,13,103,1070062,,,,,,,2025-02-13,1,,,,,アロマノヴァ,0
1657,8010401188236,新規,0,2025-02-13,2025-02-13,株式会社Ｓｗａｍｐ　Ｆａｒｍ,,株式会社,東京都,港区,南青山７丁目１番２１－４０７号,,13,103,1070062,,,,,,,2025-02-13,1,,,,,スワンプファーム,0
1660,8010403034339,新規,0,2025-02-13,2025-02-13,ガネーシャ合同会社,,合同会社,東京都,港区,南麻布４丁目２番４２号,,13,103,1060047,,,,,,,2025-02-13,1,,,,,ガネーシャ,0
1661,8010403034396,新規,0,2025-02-13,2025-02-13,合同会社ＬＩＦＥ　ＩＳ　ＷＯＮＤＥＲＦＵＬ,,合同会社,東京都,港区,北青山１丁目３番１号アールキューブ青山３階,,13,103,1070061,,,,,,,2025-02-13,1,,,,,ライフイズワンダフル,0
1688,8011001167778,新規,0,2025-02-13,2025-02-13,株式会社ＦａｎＣ,,株式会社,東京都,渋谷区,渋谷２丁目１９‐１５宮益坂ビルディング６０９,,13,113,1500002,,,,,,,2025-02-13,1,,,,,ファンク,0
1692,8011701028065,新規,0,2025-02-13,2025-02-13,株式会社ＳＫＳ,,株式会社,東京都,江戸川区,松島４丁目９番１０号,,13,123,1320031,,,,,,,2025-02-13,1,,,,,エスケイエス,0
1693,8011801045621,新規,0,2025-02-13,2025-02-13,株式会社マイソール,,株式会社,東京都,葛飾区,水元５丁目１１番２３号,,13,122,1250032,,,,,,,2025-02-13,1,,,,,マイソール,0
1694,8012303002111,新規,0,2025-02-13,2025-02-13,ＳＫ合同会社,,合同会社,東京都,町田市,藤の台２丁目２番２０－２０４号,,13,209,1940039,,,,,,,2025-02-13,1,,,,,エスケー,0
1698,8013303007538,新規,0,2025-02-13,2025-02-13,合同会社ＩＳＳ,,合同会社,東京都,豊島区,南長崎１丁目２４－１－３０２,,13,116,1710052,,,,,,,2025-02-13,1,,,,,アイエスエス,0
1703,8020001161385,新規,0,2025-02-13,2025-02-13,株式会社グリーンファースト,,株式会社,神奈川県,川崎市麻生区,多摩美１丁目６番４号,,14,137,2150002,,,,,,,2025-02-13,1,,,,,グリーンファースト,0
1704,8020001161393,新規,0,2025-02-13,2025-02-13,株式会社Ｃｏｎｓｕｍｅｒ　ｉｓ　Ｂｏｓｓ,,株式会社,神奈川県,横浜市旭区,中沢３丁目４２－５,,14,112,2410814,,,,,,,2025-02-13,1,,,,,コンシューマーイズボス,0
1705,8020001161451,新規,0,2025-02-13,2025-02-13,株式会社ディー・ゲート,,株式会社,神奈川県,横浜市港南区,下永谷１丁目３７番１７号,,14,111,2330016,,,,,,,2025-02-13,1,,,,,ディーゲート,0
1718,8021001084452,新規,0,2025-02-13,2025-02-13,リンケージョナル株式会社,,株式会社,神奈川県,藤沢市,大庭５０４２番地の６グレーシア湘南ライフタウン１００３号,,14,205,2510861,,,,,,,2025-02-13,1,,,,,リンケージョナル,0
1719,8021001084469,新規,0,2025-02-13,2025-02-13,ＢＬＩＳＳＦＵＬ　ＨＯＬＤＩＮＧＳ株式会社,,株式会社,神奈川県,伊勢原市,下糟屋３０３０番地の２１,,14,214,2591143,,,,,,,2025-02-13,1,,,,,ブリスフルホールディングス,0
1723,8030001164800,新規,0,2025-02-13,2025-02-13,株式会社うさぎアセット,,株式会社,埼玉県,さいたま市大宮区,仲町２丁目７１ソシオ大宮６Ｆ,,11,103,3300845,,,,,,,2025-02-13,1,,,,,ウサギアセット,0
1724,8030001164841,新規,0,2025-02-13,2025-02-13,株式会社ＮＡＶＹＡ,,株式会社,埼玉県,蕨市,中央６丁目１２番２号セジュールＴＭ３０２号,,11,223,3350004,,,,,,,2025-02-13,1,,,,,ナビヤ,0
1728,8030003026008,新規,0,2025-02-13,2025-02-13,Ｌａｙａｌｉ　Ｓｈｏｋａｉ合同会社,,合同会社,埼玉県,羽生市,大字藤井下組３４８番地４ビレッジアニマルＦＳ,,11,216,3480065,,,,,,,2025-02-13,1,,,,,ラヤリショウカイ,0
1729,8030003026098,新規,0,2025-02-13,2025-02-13,合同会社ＭＮＲクルー,,合同会社,埼玉県,さいたま市大宮区,桜木町２丁目３番地大宮マルイ７階,,11,103,3300854,,,,,,,2025-02-13,1,,,,,エムエヌアールクルー,0
1730,8030003026107,新規,0,2025-02-13,2025-02-13,合同会社アディスジャパン,,合同会社,埼玉県,川口市,大字安行吉岡１７６５番地１プレジール２０１号,,11,203,3340072,,,,,,,2025-02-13,1,,,,,アディスジャパン,0
1735,8040003026832,新規,0,2025-02-13,2025-02-13,合同会社ＳＯＳＨＩＺＩ,,合同会社,千葉県,柏市,旭町６丁目４番５１－２４号,,12,217,2770852,,,,,,,2025-02-13,1,,,,,ソシジ,0
1737,8060005010304,新規,0,2025-02-13,2025-02-13,特定非営利活動法人Ｔｏｃｈｉｇｉ　Ｌａｎｄ　Ｆｕｔｕｒｅ,,その他の設立登記法人,栃木県,宇都宮市,屋板町２９８番地８,,09,201,3210112,,,,,,,2025-02-13,1,,,,,トチギランドフューチャー,0
1747,8100003007990,新規,0,2025-02-13,2025-02-13,合同会社Ａｍｕｎｏ,,合同会社,長野県,北佐久郡御代田町,大字御代田３９１２番地２４,,20,323,3890206,,,,,,,2025-02-13,1,,,,,アムーノ,0
1748,8110001039044,新規,0,2025-02-13,2025-02-13,レイズテクノ株式会社,,株式会社,新潟県,新潟市中央区,親松１６６番地２１,,15,103,9500952,,,,,,,2025-02-13,1,,,,,レイズテクノ,0
1755,8120001272809,新規,0,2025-02-13,2025-02-13,株式会社Ｈｕｇｍｅｎｔ,,株式会社,大阪府,大阪市北区,南扇町１－３－２階,,27,127,5300052,,,,,,,2025-02-13,1,,,,,ハグメント,0
1756,8120001272841,新規,0,2025-02-13,2025-02-13,株式会社ペペロンチーノ,,株式会社,大阪府,寝屋川市,下神田町２番２０－１０２号,,27,215,5720054,,,,,,,2025-02-13,1,,,,,ペペロンチーノ,0
1759,8120003028597,新規,0,2025-02-13,2025-02-13,合同会社進輝,,合同会社,大阪府,大阪市東成区,大今里西１丁目２８番１２号,,27,115,5370014,,,,,,,2025-02-13,1,,,,,シンキ,0
1765,8122001038883,新規,0,2025-02-13,2025-02-13,株式会社オオサカポテト,,株式会社,大阪府,八尾市,都塚北２丁目１２番地,,27,212,5810010,,,,,,,2025-02-13,1,,,,,オオサカポテト,0
1774,8140001137398,新規,0,2025-02-13,2025-02-13,株式会社インナーストレングス,,株式会社,兵庫県,芦屋市,三条南町７－１０,,28,206,6590086,,,,,,,2025-02-13,1,,,,,インナーストレングス,0
1778,8150003003498,新規,0,2025-02-13,2025-02-13,合同会社Ｏｆｆｉｃｅ　Ｙ,,合同会社,奈良県,橿原市,小槻町３１７番地の１０,,29,205,6340846,,,,,,,2025-02-13,1,,,,,オフィスワイ,0
1779,8160003003398,新規,0,2025-02-13,2025-02-13,合同会社ワールドベーカリー,,合同会社,滋賀県,彦根市,大東町２番２８号アル・プラザ彦根店内１Ｆ,,25,202,5220074,,,,,,,2025-02-13,1,,,,,ワールドベーカリー,0
1788,8180001165379,新規,0,2025-02-13,2025-02-13,横澤総業株式会社,,株式会社,愛知県,名古屋市港区,本宮町８丁目２０番地の１クラーレ錦１０３号,,23,111,4550064,,,,,,,2025-02-13,1,,,,,ヨコザワソウギョウ,0
1789,8180001165387,新規,0,2025-02-13,2025-02-13,株式会社エスティ,,株式会社,愛知県,岩倉市,中本町東葭原３４番地１,,23,228,4820042,,,,,,,2025-02-13,1,,,,,エスティ,0
1790,8180001165395,新規,0,2025-02-13,2025-02-13,レベルワークス株式会社,,株式会社,愛知県,知多郡東浦町,大字森岡字杉之内１８番地の１,,23,442,4702101,,,,,,,2025-02-13,1,,,,,レベルワークス,0
1791,8180001165429,新規,0,2025-02-13,2025-02-13,株式会社日本ユリシス,,株式会社,愛知県,津島市,愛宕町９丁目４６番地１,,23,208,4960036,,,,,,,2025-02-13,1,,,,,ニホンユリシス,0
1796,8180303006454,新規,0,2025-02-13,2025-02-13,合同会社クラストリート,,合同会社,愛知県,岡崎市,康生通東１丁目２３番地,,23,202,4440045,,,,,,,2025-02-13,1,,,,,クラストリート,0
1799,8230001020735,新規,0,2025-02-13,2025-02-13,大宇テック株式会社,,株式会社,富山県,中新川郡立山町,岩峅寺２７６番地９‐１階,,16,323,9301368,,,,,,,2025-02-13,1,,,,,ダイウテック,0
1805,8260003005054,新規,0,2025-02-13,2025-02-13,合同会社ｍａｎｍａ　ｆａｒｍ,,合同会社,岡山県,岡山市北区,万成東町２－２４－１０１,,33,101,7000072,,,,,,,2025-02-13,1,,,,,マンマファーム,0
1813,8290001108954,新規,0,2025-02-13,2025-02-13,福恩株式会社,,株式会社,福岡県,福岡市中央区,平尾１丁目１１－６－４１３,,40,133,8100014,,,,,,,2025-02-13,1,,,,,フクオン,0
1814,8290001108962,新規,0,2025-02-13,2025-02-13,株式会社ｉＲｏｒｉ,,株式会社,福岡県,朝倉郡筑前町,朝日８０３番地５,,40,447,8380227,,,,,,,2025-02-13,1,,,,,イロリ,0
1815,8290003016404,新規,0,2025-02-13,2025-02-13,合同会社廣瀬電気,,合同会社,福岡県,宗像市,田久６丁目７番１９－１号,,40,220,8114175,,,,,,,2025-02-13,1,,,,,ヒロセデンキ,0
1817,8310001019447,新規,0,2025-02-13,2025-02-13,株式会社アンドプロテクト,,株式会社,長崎県,諫早市,飯盛町平古場３８８番地４４,,42,204,8541111,,,,,,,2025-02-13,1,,,,,アンドプロテクト,0
1820,8320001020940,新規,0,2025-02-13,2025-02-13,株式会社Ｂｌｏｓｓｏｍ,,株式会社,大分県,津久見市,大字津久見４６２１番地,,44,207,8792421,,,,,,,2025-02-13,1,,,,,ブロッサム,0
1825,8360001034763,新規,0,2025-02-13,2025-02-13,株式会社上美,,株式会社,沖縄県,那覇市,長田２丁目５番２１号,,47,201,9020077,,,,,,,2025-02-13,1,,,,,ジョウビ,0
1832,8400001016939,新規,0,2025-02-13,2025-02-13,株式会社わかば酒店,,株式会社,岩手県,花巻市,若葉町１丁目１番１６号,,03,205,0250097,,,,,,,2025-02-13,1,,,,,ワカバサケテン,0
1836,8430003017271,新規,0,2025-02-13,2025-02-13,合同会社ノートリエ,,合同会社,北海道,札幌市中央区,南六条西１６丁目１番１－７０５号,,01,101,0640806,,,,,,,2025-02-13,1,,,,,ノートリエ,0
1837,8450001014533,新規,0,2025-02-13,2025-02-13,株式会社古山建築設計室,,株式会社,北海道,旭川市,永山四条１７丁目３番８号,,01,204,0798414,,,,,,,2025-02-13,1,,,,,フルヤマケンチクセッケイシツ,0
1844,8700150129172,新規,0,2025-02-13,2025-02-13,Ｓｏｆｔｗａｒｅ　Ａｃｈｋａｒ駐在員事務所,,外国会社等,兵庫県,神戸市東灘区,西岡本２丁目２５番３－２０５号,,28,101,6580073,シュトレーゼマン通り６８番地，１０９６３，ベルリン，ドイツ,,,,,,2025-02-13,1,,,,,ソフトウエアアシユカーチユウザイインジムシヨ,0
1845,8700150129180,新規,0,2025-02-13,2025-02-13,Ｇｕａｎｇｚｈｏｕｒｏｎｇｔｕｏｄｉａｎｚｉｓｈａｎｇｗｕｙｏｕｘｉａｎｇｏｎｇｓｉ,,外国会社等,,,,,,,,Ｒｏｏｍ　５１３Ｂ２１２，Ｎｏ．１，Ｑｉｆｕ　Ｒｏａｄ，Ｂａｉｙｕｎ　Ｄｉｓｔｒｉｃｔ，Ｇｕａｎｇｚｈｏｕ,,,,,,2025-02-13,1,,,,,コウシユウヨウタクイーコマースカンパニーリミテツド,0
1851,9010001251987,新規,0,2025-02-13,2025-02-13,Ｖｉｒｉｄｉａｎ　Ｍａｒｉｔｉｍｅ株式会社,,株式会社,東京都,千代田区,有楽町１丁目５番２号,,13,101,1000006,,,,,,,2025-02-13,1,,,,,ヴィリディアンマリタイム,0
1852,9010001252052,新規,0,2025-02-13,2025-02-13,株式会社ＺＥＮＯＶＡ,,株式会社,東京都,中央区,京橋１丁目１４番９号,,13,102,1040031,,,,,,,2025-02-13,1,,,,,ゼノバ,0
1863,9010401188078,新規,0,2025-02-13,2025-02-13,株式会社ＨＩＲＡＫＵＴＯ,,株式会社,東京都,港区,赤坂２丁目１６－６,,13,103,1070052,,,,,,,2025-02-13,1,,,,,ヒラクト,0
1864,9010401188094,新規,0,2025-02-13,2025-02-13,株式会社ｌｅｍｍｙ,,株式会社,東京都,港区,南青山３丁目１番３６号青山丸竹ビル６Ｆ,,13,103,1070062,,,,,,,2025-02-13,1,,,,,レミー,0
1865,9010401188103,新規,0,2025-02-13,2025-02-13,株式会社アートリープ,,株式会社,東京都,港区,元麻布２丁目１－７,,13,103,1060046,,,,,,,2025-02-13,1,,,,,アートリープ,0
1866,9010401188202,新規,0,2025-02-13,2025-02-13,株式会社ｂｕｆｆ,,株式会社,東京都,港区,赤坂６丁目９－１７赤坂メープルヒル７階,,13,103,1070052,,,,,,,2025-02-13,1,,,,,バフ,0
1867,9010401188235,新規,0,2025-02-13,2025-02-13,株式会社ＰｒｉｍｅＡＩ,,株式会社,東京都,港区,六本木６丁目１０番１号六本木ヒルズ森タワー３９階,,13,103,1060032,,,,,,,2025-02-13,1,,,,,プライムエーアイ,0
1868,9010401188243,新規,0,2025-02-13,2025-02-13,株式会社ミチテル,,株式会社,東京都,港区,南青山３丁目１番３６号青山丸竹ビル６Ｆ,,13,103,1070062,,,,,,,2025-02-13,1,,,,,ミチテル,0
1870,9010403034354,新規,0,2025-02-13,2025-02-13,ＢｌｕＷａｖｅ　Ｉｎｃ．Ｊａｐａｎ合同会社,,合同会社,東京都,港区,虎ノ門１丁目１７－１虎ノ門ヒルズビジネスタワー１５Ｆ,,13,103,1050001,,,,,,,2025-02-13,1,,,,,ブルーウェイブインクジャパン,0
1871,9010403034370,新規,0,2025-02-13,2025-02-13,ＲＳＡ合同会社,,合同会社,東京都,港区,白金１丁目２番１－Ｅ４１２号,,13,103,1080072,,,,,,,2025-02-13,1,,,,,アールエスエー,0
1872,9010403034404,新規,0,2025-02-13,2025-02-13,東山三条インベストメント合同会社,,合同会社,東京都,港区,元赤坂１丁目１番８号赤坂コミュニティビル４階,,13,103,1070051,,,,,,,2025-02-13,1,,,,,ヒガシサンジョウインベストメント,0
1876,9010501053603,新規,0,2025-02-13,2025-02-13,東京嘉禾株式会社,,株式会社,東京都,台東区,上野１丁目１０番８－１Ｆ,,13,106,1100005,,,,,,,2025-02-13,1,,,,,トウキョウカコウ,0
1878,9010601066769,新規,0,2025-02-13,2025-02-13,株式会社Ｌｉｖｉｅｌパートナー,,株式会社,東京都,江東区,豊洲３丁目６番８－１３０６号,,13,108,1350061,,,,,,,2025-02-13,1,,,,,リヴィエルパートナー,0
1879,9010605004411,新規,0,2025-02-13,2025-02-13,一般社団法人日本ＹＯＵ．ＦＯ協会,,その他の設立登記法人,東京都,墨田区,江東橋４丁目２７番１４号楽天地ビル３階,,13,107,1300022,,,,,,,2025-02-13,1,,,,,ニホンユーフォーキョウカイ,0
1882,9010703007563,新規,0,2025-02-13,2025-02-13,ＲｕｍａｈＩｎｎｏ合同会社,,合同会社,東京都,品川区,西大井６丁目１６番３－３０１号,,13,109,1400015,,,,,,,2025-02-13,1,,,,,ルマイノ,0
1887,9010901056809,新規,0,2025-02-13,2025-02-13,Ｐｒｅｔｉｕｍ　Ｓ株式会社,,株式会社,東京都,世田谷区,用賀４丁目９－１２,,13,112,1580097,,,,,,,2025-02-13,1,,,,,プラティウムエス,0
1888,9010903009698,新規,0,2025-02-13,2025-02-13,Ｓｋｏｏｓｈ＆Ｃｏｍｐａｎｙ合同会社,,合同会社,東京都,世田谷区,粕谷２丁目５番３号,,13,112,1570063,,,,,,,2025-02-13,1,,,,,スクーシアンドカンパニー,0
1889,9010903009707,新規,0,2025-02-13,2025-02-13,バイオ・フレームワークス合同会社,,合同会社,東京都,世田谷区,玉川３丁目１１－１柳小路東角３Ｆ,,13,112,1580094,,,,,,,2025-02-13,1,,,,,バイオフレームワークス,0
1898,9011001167777,新規,0,2025-02-13,2025-02-13,ｚｉｒａｋ株式会社,,株式会社,東京都,目黒区,下目黒１丁目１番１４号コノトラビル７Ｆ,,13,110,1530064,,,,,,,2025-02-13,1,,,,,ザイラック,0
1909,9011101110612,新規,0,2025-02-13,2025-02-13,株式会社Ｍｏｍｅｎｔｕｒｅ,,株式会社,東京都,新宿区,四谷坂町８番８－１０４号,,13,104,1600002,,,,,,,2025-02-13,1,,,,,モーメンチャー,0
1914,9011301030346,新規,0,2025-02-13,2025-02-13,シームアライアンス株式会社,,株式会社,東京都,杉並区,上井草１丁目１４番１８号,,13,115,1670023,,,,,,,2025-02-13,1,,,,,シームアライアンス,0
1923,9011701028056,新規,0,2025-02-13,2025-02-13,Ｋｅｅｐ株式会社,,株式会社,東京都,江戸川区,西葛西５丁目７番６号－５０４,,13,123,1340088,,,,,,,2025-02-13,1,,,,,キープ,0
1924,9011701028064,新規,0,2025-02-13,2025-02-13,アーバンリンク株式会社,,株式会社,東京都,江戸川区,西葛西４丁目２番５－２０１号コンドミニアム葛西,,13,123,1340088,,,,,,,2025-02-13,1,,,,,アーバンリンク,0
1926,9011801045620,新規,0,2025-02-13,2025-02-13,株式会社Ｄｉｓｈ,,株式会社,東京都,足立区,鹿浜２丁目３０番１４号,,13,121,1230864,,,,,,,2025-02-13,1,,,,,ディッシュ,0
1927,9011801045629,新規,0,2025-02-13,2025-02-13,株式会社リングラント,,株式会社,東京都,足立区,梅田５丁目２５－３３－６０６,,13,121,1230851,,,,,,,2025-02-13,1,,,,,リングラント,0
1931,9012305002117,新規,0,2025-02-13,2025-02-13,一般社団法人地域創生教育デザイン,,その他の設立登記法人,東京都,町田市,相原町８９９番地１２,,13,209,1940211,,,,,,,2025-02-13,1,,,,,チイキソウセイキョウイクデザイン,0
1933,9012401042776,新規,0,2025-02-13,2025-02-13,ＪＯＭコンサルタント株式会社,,株式会社,東京都,武蔵野市,関前２丁目１２－１４,,13,203,1800014,,,,,,,2025-02-13,1,,,,,ジェイオーエムコンサルタント,0
1934,9012403006960,新規,0,2025-02-13,2025-02-13,合同会社伊藤,,合同会社,東京都,稲城市,大丸２２６番地の５,,13,225,2060801,,,,,,,2025-02-13,1,,,,,イトウ,0
1935,9012403006969,新規,0,2025-02-13,2025-02-13,合同会社ＢＲＥＡＴＨ　ＭＯＴＯＲ,,合同会社,東京都,府中市,住吉町５丁目９番地の５ボヌール府中１０２,,13,206,1830034,,,,,,,2025-02-13,1,,,,,ブレスモーター,0
1942,9013301053772,新規,0,2025-02-13,2025-02-13,ＭＯＬＩ株式会社,,株式会社,東京都,豊島区,東池袋１丁目３３番４－５１２号,,13,116,1700013,,,,,,,2025-02-13,1,,,,,モリ,0
1943,9013305003690,新規,0,2025-02-13,2025-02-13,特定非営利活動法人ひろば椎名町,,その他の設立登記法人,東京都,豊島区,南長崎４丁目２９番地１０号,,13,116,1710052,,,,,,,2025-02-13,1,,,,,ヒロバシイナマチ,0
1952,9020001161260,新規,0,2025-02-13,2025-02-13,ＣＸ工業株式会社,,株式会社,神奈川県,横浜市南区,南太田３丁目３番７－２０６号,,14,105,2320006,,,,,,,2025-02-13,1,,,,,シエクスコウギョウ,0
1954,9020003027807,新規,0,2025-02-13,2025-02-13,合同会社アヤワ,,合同会社,神奈川県,横浜市西区,浅間町１丁目４番３号ウィザードビル４０２,,14,103,2200072,,,,,,,2025-02-13,1,,,,,アヤワ,0
1955,9020003027856,新規,0,2025-02-13,2025-02-13,合同会社日葉,,合同会社,神奈川県,横浜市西区,北幸２丁目１０番４８号むつみビル３階,,14,103,2200004,,,,,,,2025-02-13,1,,,,,ヒバ,0
1961,9030001164849,新規,0,2025-02-13,2025-02-13,株式会社Ｇ‐ＬＩＮＥ,,株式会社,埼玉県,三郷市,戸ケ崎３丁目６４番地２,,11,237,3410044,,,,,,,2025-02-13,1,,,,,ジーライン,0
1964,9030003026097,新規,0,2025-02-13,2025-02-13,小野アセットマネジメント合同会社,,合同会社,埼玉県,越谷市,大字袋山１５３８番地４７,,11,222,3430032,,,,,,,2025-02-13,1,,,,,オノアセットマネジメント,0
1969,9040005022663,新規,0,2025-02-13,2025-02-13,一般社団法人ジュニアイレブンサッカー連盟,,その他の設立登記法人,千葉県,千葉市美浜区,磯辺３丁目１４番８号イワナビル２０１,,12,106,2610012,,,,,,,2025-02-13,1,,,,,ジュニアイレブンサッカーレンメイ,0
1972,9060001037903,新規,0,2025-02-13,2025-02-13,ＧＯＡＴ　ＭＯＤＥ株式会社,,株式会社,栃木県,宇都宮市,平松町５２５オレンジハイツパート５・１０３,,09,201,3210931,,,,,,,2025-02-13,1,,,,,ゴートモード,0
1974,9060003005420,新規,0,2025-02-13,2025-02-13,合同会社と,,合同会社,栃木県,那須塩原市,下永田１丁目９９８番地２スタートライン１１号,,09,213,3292712,,,,,,,2025-02-13,1,,,,,ト,0
1975,9070001042621,新規,0,2025-02-13,2025-02-13,株式会社Ｙ‐２,,株式会社,群馬県,高崎市,新町１９０６－７,,10,202,3701301,,,,,,,2025-02-13,1,,,,,ワイツー,0
1977,9080003003389,新規,0,2025-02-13,2025-02-13,合同会社Ｄ．Ｓｃａｌｅ,,合同会社,静岡県,静岡市葵区,北２丁目８番７号,,22,101,4200961,,,,,,,2025-02-13,1,,,,,ディースケール,0
1978,9080401027725,新規,0,2025-02-13,2025-02-13,ＳＭＧＣＬ株式会社,,株式会社,静岡県,浜松市中央区,板屋町１１０番地の５浜松第一生命日通ビル１３階,,22,138,4300928,,,,,,,2025-02-13,1,,,,,エスエムジーシーエル,0
1993,9120001272873,新規,0,2025-02-13,2025-02-13,大阪遠創株式会社,,株式会社,大阪府,大阪市西成区,南津守１丁目５番２８号,,27,122,5570063,,,,,,,2025-02-13,1,,,,,オオサカエンソウ,0
1994,9120003028555,新規,0,2025-02-13,2025-02-13,ＡＺ　ＭＵＮＤＯ合同会社,,合同会社,大阪府,大阪市北区,梅田１丁目２番２号大阪駅前第２ビル１２－１２,,27,127,5300001,,,,,,,2025-02-13,1,,,,,アズムンド,0
1995,9120003028605,新規,0,2025-02-13,2025-02-13,アドベンシャル合同会社,,合同会社,大阪府,大阪市北区,梅田１丁目２番２号大阪駅前第２ビル１２－１２,,27,127,5300001,,,,,,,2025-02-13,1,,,,,アドベンシャル,0
1998,9120101071052,新規,0,2025-02-13,2025-02-13,株式会社Ｍ２Ｋ,,株式会社,大阪府,藤井寺市,津堂２丁目７番１７号,,27,226,5830037,,,,,,,2025-02-13,1,,,,,エムツーケー,0
2006,9130001078989,新規,0,2025-02-13,2025-02-13,Ｔａｋｕｍｉ　Ｍｏｔｉｏｎ　Ｃｏｎｔｒｏｌｓ株式会社,,株式会社,京都府,京都市下京区,七条通油小路東入大黒町２２７番地第２キョートビル４０２,,26,106,6008223,,,,,,,2025-02-13,1,,,,,タクミモーションコントロールズ,0
2015,9140001137380,新規,0,2025-02-13,2025-02-13,Ｐｒｉｍａ　Ｅｓｔａｔｅ株式会社,,株式会社,兵庫県,宝塚市,千種３丁目２０番１号,,28,214,6650072,,,,,,,2025-02-13,1,,,,,プリーマエステート,0
2016,9140001137397,新規,0,2025-02-13,2025-02-13,株式会社ＴＳＣ,,株式会社,兵庫県,尼崎市,武庫之荘東２丁目３番２４号,,28,202,6610032,,,,,,,2025-02-13,1,,,,,ティーエスシー,0
2022,9150003003497,新規,0,2025-02-13,2025-02-13,合同会社天翔,,合同会社,奈良県,磯城郡田原本町,大字十六面３３５－１,,29,363,6360304,,,,,,,2025-02-13,1,,,,,テンショウ,0
2024,9150005009666,新規,0,2025-02-13,2025-02-13,農事組合法人田原農業アカデミー,,その他の設立登記法人,奈良県,奈良市,茗荷町１０２５,,29,201,6302175,,,,,,,2025-02-13,1,,,,,タワラノウギョウアカデミー,0
2031,9180001165361,新規,0,2025-02-13,2025-02-13,株式会社Ｍａｇｉｃ　Ｄｒｅａｍ　Ｆａｃｔｏｒｙ,,株式会社,愛知県,江南市,前飛保町西町２０７番地,,23,217,4838349,,,,,,,2025-02-13,1,,,,,マジックドリームファクトリー,0
2032,9180001165378,新規,0,2025-02-13,2025-02-13,株式会社Ｆｕｎｎｉｅｓｔ,,株式会社,愛知県,名古屋市南区,元鳴尾町２１６番地１０,,23,112,4570065,,,,,,,2025-02-13,1,,,,,ファニエスト,0
2034,9180003027997,新規,0,2025-02-13,2025-02-13,合同会社ｅｅらいふ,,合同会社,愛知県,大府市,森岡町８丁目８７番地,,23,223,4740038,,,,,,,2025-02-13,1,,,,,イーライフ,0
2035,9180005020942,新規,0,2025-02-13,2025-02-13,一般社団法人ＩＸＡＳ国際商会,,その他の設立登記法人,愛知県,名古屋市天白区,中平３丁目２０２番地,,23,116,4680014,,,,,,,2025-02-13,1,,,,,イクサスコクサイショウカイ,0
2040,9200001043424,新規,0,2025-02-13,2025-02-13,ＫＳＪ株式会社,,株式会社,岐阜県,羽島市,桑原町八神２０３１番地,,21,209,5016321,,,,,,,2025-02-13,1,,,,,ケイエスジェイ,0
2045,9230001020742,新規,0,2025-02-13,2025-02-13,株式会社ラフラフ,,株式会社,富山県,南砺市,田中３９番地１,,16,210,9391704,,,,,,,2025-02-13,1,,,,,ラフラフ,0
2049,9240005015894,新規,0,2025-02-13,2025-02-13,一般社団法人プエルト,,その他の設立登記法人,広島県,広島市安佐北区,亀山８丁目１９番１８号,,34,106,7310231,,,,,,,2025-02-13,1,,,,,プエルト,0
2053,9270001009146,新規,0,2025-02-13,2025-02-13,株式会社ＡＲＣ,,株式会社,鳥取県,八頭郡八頭町,富枝２３５番地２２,,31,329,6800611,,,,,,,2025-02-13,1,,,,,アーク,0
2067,9290001108937,新規,0,2025-02-13,2025-02-13,株式会社Ｓｐｉｃｅ　ｆｏｒ　Ｔｏｍｏｒｒｏｗ,,株式会社,福岡県,福岡市博多区,豊１丁目８番１７－８０６号,,40,132,8120042,,,,,,,2025-02-13,1,,,,,スパイスフォートゥモロー,0
2068,9290001108945,新規,0,2025-02-13,2025-02-13,株式会社Ｍａｍｍａ．Ｌｉｎｋ,,株式会社,福岡県,福岡市南区,大池２丁目１２番１９－１号,,40,134,8150073,,,,,,,2025-02-13,1,,,,,マンマリンク,0
2069,9290001108953,新規,0,2025-02-13,2025-02-13,株式会社ＫＩＳＡＲＡＧＩ,,株式会社,福岡県,糸島市,志摩新町２１番３,,40,230,8191333,,,,,,,2025-02-13,1,,,,,キサラギ,0
2072,9290003016403,新規,0,2025-02-13,2025-02-13,百年ソーラー九州合同会社,,合同会社,福岡県,福岡市博多区,博多駅前１丁目２３番２号ＰａｒｋＦｒｏｎｔ博多駅前一丁目５Ｆ－Ｂ,,40,132,8120011,,,,,,,2025-02-13,1,,,,,ヒャクネンソーラーキュウシュウ,0
2086,9370001052243,新規,0,2025-02-13,2025-02-13,株式会社ＰＥＴＲＩＰ,,株式会社,宮城県,仙台市若林区,卸町２丁目１－８パークホームズ仙台卸町１７０５,,04,103,9840015,,,,,,,2025-02-13,1,,,,,ペットリップ,0
2090,9400003003389,新規,0,2025-02-13,2025-02-13,合同会社ｃｏｎｓｅｉｌ,,合同会社,岩手県,盛岡市,南大通１丁目３番８号,,03,201,0200874,,,,,,,2025-02-13,1,,,,,コンセイユ,0
2105,9500001026134,新規,0,2025-02-13,2025-02-13,株式会社ジェイシーティー・グループ,,株式会社,愛媛県,宇和島市,下波２９４４番地,,38,203,7980104,,,,,,,2025-02-13,1,,,,,ジェイシーティーグループ,0
