sequenceNumber,corporateNumber,process,correct,updateDate,changeDate,name,nameImageId,kind,prefectureName,cityName,streetNumber,addressImageId,prefectureCode,cityCode,postCode,addressOutside,addressOutsideImageId,closeDate,closeCause,successorCorporateNumber,changeCause,assignmentDate,latest,enName,enPrefectureName,enCityName,enAddressOutside,furigana,hihyoji
8,1010001240485,新規,0,2023-12-05,2023-12-05,エンフィニティ・エナジー株式会社,,株式会社,東京都,千代田区,麹町４丁目５番２１号,,13,101,1020083,,,,,,,2023-12-05,1,,,,,エンフィニティエナジー,0
9,1010001240493,新規,0,2023-12-05,2023-12-05,株式会社ピースガーデン,,株式会社,東京都,千代田区,丸の内２丁目４番１号丸の内ビルディング９階９１１区,,13,101,1000005,,,,,,,2023-12-05,1,,,,,ピースガーデン,0
10,1010001240527,新規,0,2023-12-05,2023-12-05,株式会社Ｙｏｊｉｂｅｅ,,株式会社,東京都,中央区,銀座１丁目１２番４号Ｎ＆ＥＢＬＤ．６Ｆ,,13,102,1040061,,,,,,,2023-12-05,1,,,,,ヨジベエ,0
11,1010001240535,新規,0,2023-12-05,2023-12-05,ハロームービー株式会社,,株式会社,東京都,中央区,新川１丁目１７番２２号,,13,102,1040033,,,,,,,2023-12-05,1,,,,,ハロームービー,0
12,1010003042368,新規,0,2023-12-05,2023-12-05,佃コーポレーション合同会社,,合同会社,東京都,中央区,銀座１丁目１２番４号Ｎ＆ＥＢＬＤ．６Ｆ,,13,102,1040061,,,,,,,2023-12-05,1,,,,,ツクダコーポレーション,0
14,1010005037606,新規,0,2023-12-05,2023-12-05,一般社団法人八紘会,,その他の設立登記法人,東京都,中央区,晴海３丁目１３番１号,,13,102,1040053,,,,,,,2023-12-05,1,,,,,ハチコウカイ,0
19,1010401178887,新規,0,2023-12-05,2023-12-05,株式会社スパイクスタジオ,,株式会社,東京都,港区,西新橋２丁目２１ー２,,13,103,1050003,,,,,,,2023-12-05,1,,,,,スパイクスタジオ,0
20,1010401178895,新規,0,2023-12-05,2023-12-05,タッチストーン・キャピタル・パートナーズ株式会社,,株式会社,東京都,港区,赤坂２丁目５番８号,,13,103,1070052,,,,,,,2023-12-05,1,,,,,タッチストーンキャピタルパートナーズ,0
22,1010501051465,新規,0,2023-12-05,2023-12-05,株式会社リッジリフト,,株式会社,東京都,台東区,上野桜木１丁目１４番２０号渡辺方３Ｆ,,13,106,1100002,,,,,,,2023-12-05,1,,,,,リッジリフト,0
26,1010601064243,新規,0,2023-12-05,2023-12-05,株式会社ＳＯＨ,,株式会社,東京都,墨田区,江東橋４丁目２４番９号,,13,107,1300022,,,,,,,2023-12-05,1,,,,,エスオーエイチ,0
27,1010601064251,新規,0,2023-12-05,2023-12-05,株式会社ＴＹコーポレーション,,株式会社,東京都,江東区,有明３丁目７番１１号有明パークビル２０Ｆ,,13,108,1350063,,,,,,,2023-12-05,1,,,,,ティーワイコーポレーション,0
31,1010703006977,新規,0,2023-12-05,2023-12-05,合同会社ｃｏｎｔ,,合同会社,東京都,品川区,大崎１丁目２－３－２３０７,,13,109,1410032,,,,,,,2023-12-05,1,,,,,コント,0
33,1010803004757,新規,0,2023-12-05,2023-12-05,金林貿易合同会社,,合同会社,東京都,大田区,大森北１丁目２－１ＴＨＥ・ＣＥＮＴＲＡＬ・ＯＭＯＲＩ地下１階,,13,111,1430016,,,,,,,2023-12-05,1,,,,,キンリンボウエキ,0
44,1011001158610,新規,0,2023-12-05,2023-12-05,ＤＩＳＪ株式会社,,株式会社,東京都,渋谷区,鶯谷町２番３号,,13,113,1500032,,,,,,,2023-12-05,1,,,,,ディーアイエスジェイ,0
45,1011001158619,新規,0,2023-12-05,2023-12-05,株式会社ＫＪＴＥＣＨｊａｐａｎ,,株式会社,東京都,渋谷区,富ヶ谷１丁目３０番１０号,,13,113,1510063,,,,,,,2023-12-05,1,,,,,ケイジェイテックジャパン,0
46,1011003017921,新規,0,2023-12-05,2023-12-05,合同会社ヴォーチェ．ＭＹ,,合同会社,東京都,渋谷区,道玄坂１丁目１０番８号渋谷道玄坂東急ビル２Ｆ－Ｃ,,13,113,1500043,,,,,,,2023-12-05,1,,,,,ヴォーチェエムワイ,0
47,1011003018036,新規,0,2023-12-05,2023-12-05,合同会社ｓｅｐｔ,,合同会社,東京都,渋谷区,神宮前４丁目２６番２８号原宿Ｖ２ビル２階,,13,113,1500001,,,,,,,2023-12-05,1,,,,,セプト,0
49,1011005010296,新規,0,2023-12-05,2023-12-05,一般社団法人清水会,,その他の設立登記法人,東京都,渋谷区,道玄坂１丁目１２番１号渋谷マークシティＷ２２階,,13,113,1500043,,,,,,,2023-12-05,1,,,,,シミズカイ,0
55,1011101105223,新規,0,2023-12-05,2023-12-05,株式会社Ｓｈｉ．Ｒ．Ｎ,,株式会社,東京都,新宿区,北新宿１丁目３５－４－２０３,,13,104,1690074,,,,,,,2023-12-05,1,,,,,シャーン,0
57,1011103013820,新規,0,2023-12-05,2023-12-05,ｐｕａ　ｋｅｌｉ　ａｓｓｅｔ合同会社,,合同会社,東京都,新宿区,西新宿３丁目３番１３号西新宿水間ビル６階,,13,104,1600023,,,,,,,2023-12-05,1,,,,,プアケリアセット,0
59,1011301029230,新規,0,2023-12-05,2023-12-05,株式会社ｓｍｉｔｈ,,株式会社,東京都,杉並区,本天沼２丁目５番１０号荻窪ロウハウスＢ,,13,115,1670031,,,,,,,2023-12-05,1,,,,,スミス,0
62,1011601027347,新規,0,2023-12-05,2023-12-05,株式会社ＥＭＭＡ,,株式会社,東京都,練馬区,中村３丁目３９番６号,,13,120,1760024,,,,,,,2023-12-05,1,,,,,エマ,0
70,1012703002865,新規,0,2023-12-05,2023-12-05,合同会社Ｒ・Ｄ・Ｇ,,合同会社,東京都,東村山市,恩多町２丁目４４番地３１,,13,213,1890011,,,,,,,2023-12-05,1,,,,,アールディージー,0
73,1013301051726,新規,0,2023-12-05,2023-12-05,フォルトナ・キャリア株式会社,,株式会社,東京都,豊島区,池袋２丁目３６番１号インフィニティ池袋６Ｆ,,13,116,1710014,,,,,,,2023-12-05,1,,,,,フォルトナキャリア,0
80,1020001154750,新規,0,2023-12-05,2023-12-05,株式会社ジャストホールズ,,株式会社,神奈川県,横浜市神奈川区,白幡西町２０番３７号ＮＳハイツ１０４号,,14,102,2210074,,,,,,,2023-12-05,1,,,,,ジャストホールズ,0
81,1020001154767,新規,0,2023-12-05,2023-12-05,株式会社ＲＡＶＥＮ,,株式会社,神奈川県,横浜市神奈川区,台町７－２ハイツ横浜７０４,,14,102,2210834,,,,,,,2023-12-05,1,,,,,レイヴン,0
82,1020001154775,新規,0,2023-12-05,2023-12-05,株式会社プロミネンス,,株式会社,神奈川県,横浜市港北区,高田西１丁目８番３７－３１５号,,14,109,2230066,,,,,,,2023-12-05,1,,,,,プロミネンス,0
95,1030003023093,新規,0,2023-12-05,2023-12-05,合同会社Ｒｅｎｔａ‐Ｃａｒｓ,,合同会社,埼玉県,和光市,下新倉５丁目７番３３号,,11,229,3510111,,,,,,,2023-12-05,1,,,,,レンタカーズ,0
100,1040001131203,新規,0,2023-12-05,2023-12-05,株式会社エムツー,,株式会社,千葉県,野田市,木間ケ瀬４３１９番地３,,12,208,2700222,,,,,,,2023-12-05,1,,,,,エムツー,0
106,1040003023844,新規,0,2023-12-05,2023-12-05,合同会社コヒノール,,合同会社,千葉県,船橋市,前原西４丁目３４番５－４０１号,,12,204,2740825,,,,,,,2023-12-05,1,,,,,コヒノール,0
108,1040005022217,新規,0,2023-12-05,2023-12-05,一般社団法人ごわす,,その他の設立登記法人,千葉県,松戸市,二十世紀が丘丸山町１３１,,12,207,2710084,,,,,,,2023-12-05,1,,,,,ゴワス,0
112,1050001053900,新規,0,2023-12-05,2023-12-05,株式会社翔和,,株式会社,茨城県,牛久市,牛久町１２１９番地１,,08,219,3001221,,,,,,,2023-12-05,1,,,,,ショウワ,0
116,1060003004826,新規,0,2023-12-05,2023-12-05,合同会社ミライフル不動産,,合同会社,栃木県,宇都宮市,天神２丁目４―３９ウイングステイツ御本丸公園１０１号室,,09,201,3200816,,,,,,,2023-12-05,1,,,,,ミライフルフドウサン,0
121,1070001041143,新規,0,2023-12-05,2023-12-05,株式会社ななとも,,株式会社,群馬県,太田市,大原町２１９３番地１２,,10,205,3792304,,,,,,,2023-12-05,1,,,,,ナナトモ,0
125,1080001026011,新規,0,2023-12-05,2023-12-05,大瀧重工株式会社,,株式会社,静岡県,焼津市,高新田２７７番地の６,,22,212,4210204,,,,,,,2023-12-05,1,,,,,オオタキジュウコウ,0
131,1090001018445,新規,0,2023-12-05,2023-12-05,株式会社Ｒ．ＥＤＧＥ．ＣＯＲＮＥＲ,,株式会社,山梨県,甲府市,中小河原町１５１番地２,,19,201,4000854,,,,,,,2023-12-05,1,,,,,アールエッジコーナー,0
137,1110001038011,新規,0,2023-12-05,2023-12-05,株式会社クレアス,,株式会社,新潟県,新潟市北区,太郎代４９９番地,,15,101,9503101,,,,,,,2023-12-05,1,,,,,クレアス,0
154,1120001260381,新規,0,2023-12-05,2023-12-05,海商テクノロジーズ株式会社,,株式会社,大阪府,大阪市中央区,本町２丁目６番８号,,27,128,5410053,,,,,,,2023-12-05,1,,,,,カイショウテクノロジーズ,0
155,1120001260398,新規,0,2023-12-05,2023-12-05,株式会社絆,,株式会社,大阪府,大阪市浪速区,湊町２丁目２－４５オンテックス難波ビル９階,,27,111,5560017,,,,,,,2023-12-05,1,,,,,キズナ,0
158,1120003025378,新規,0,2023-12-05,2023-12-05,合同会社藍,,合同会社,大阪府,枚方市,東香里元町１６番３９号,,27,210,5730076,,,,,,,2023-12-05,1,,,,,ラン,0
162,1120901048447,新規,0,2023-12-05,2023-12-05,株式会社ユー企画,,株式会社,大阪府,三島郡島本町,百山２２番１－６１９号,,27,301,6180021,,,,,,,2023-12-05,1,,,,,ユーキカク,0
168,1130001075804,新規,0,2023-12-05,2023-12-05,京都園居生活株式会社,,株式会社,京都府,京都市右京区,梅ケ畑清水町１５番地５１番,,26,108,6168276,,,,,,,2023-12-05,1,,,,,キョウトエンキョセイカツ,0
169,1130001075845,新規,0,2023-12-05,2023-12-05,ＮＹＴｗｅｌｄｉｎｇ株式会社,,株式会社,京都府,京都市伏見区,竹田七瀬川町４８番地,,26,109,6128422,,,,,,,2023-12-05,1,,,,,エヌワイティウェルディング,0
176,1140001132538,新規,0,2023-12-05,2023-12-05,株式会社ＴＨＲＥＥ　ＨＯＬＤＩＮＧＳ,,株式会社,兵庫県,芦屋市,浜芦屋町２番８号,00132879,28,206,6590054,,,,,,,2023-12-05,1,,,,,スリーホールディングス,0
177,1140001132546,新規,0,2023-12-05,2023-12-05,ＵＭＡＲ　ＴＲＡＤＩＮＧ株式会社,,株式会社,兵庫県,神戸市東灘区,青木５丁目４番２１号,,28,101,6580027,,,,,,,2023-12-05,1,,,,,ウマルトレーディング,0
194,1180001159172,新規,0,2023-12-05,2023-12-05,株式会社あさひ,,株式会社,愛知県,瀬戸市,南山町３丁目１２８番地の１,,23,204,4890986,,,,,,,2023-12-05,1,,,,,アサヒ,0
195,1180001159206,新規,0,2023-12-05,2023-12-05,株式会社ＭＩＯ,,株式会社,愛知県,名古屋市港区,小碓４丁目３５８番地,,23,111,4550801,,,,,,,2023-12-05,1,,,,,ミオ,0
196,1180001159222,新規,0,2023-12-05,2023-12-05,ダレでも富動産株式会社,,株式会社,愛知県,名古屋市港区,多加良浦町４丁目１６４番地,,23,111,4550825,,,,,,,2023-12-05,1,,,,,ダレデモフドウサン,0
206,1190003004524,新規,0,2023-12-05,2023-12-05,名阪ホームサービス合同会社,,合同会社,三重県,伊賀市,上神戸３５６２番地の１３,,24,216,5180116,,,,,,,2023-12-05,1,,,,,メイハンホームサービス,0
208,1200001041947,新規,0,2023-12-05,2023-12-05,株式会社山装,,株式会社,岐阜県,各務原市,川島松原町３７５番地,,21,213,5016026,,,,,,,2023-12-05,1,,,,,ヤマソウ,0
210,1210001019562,新規,0,2023-12-05,2023-12-05,ウィズダム株式会社,,株式会社,福井県,越前市,芝原３丁目５番４２号,,18,209,9150805,,,,,,,2023-12-05,1,,,,,ウィズダム,0
214,1220001025717,新規,0,2023-12-05,2023-12-05,ＡＳＭＥＤＩＡ株式会社,,株式会社,石川県,金沢市,森山１丁目２番地１号（２１９）,,17,201,9200843,,,,,,,2023-12-05,1,,,,,アスメディア,0
219,1240005015687,新規,0,2023-12-05,2023-12-05,一般社団法人Ｄｔｗｏ,,その他の設立登記法人,広島県,福山市,山手町１２５０番地,,34,207,7200092,,,,,,,2023-12-05,1,,,,,ディーツー,0
227,1280003001792,新規,0,2023-12-05,2023-12-05,合同会社Ｑｒｅａｌ,,合同会社,島根県,松江市,伊勢宮町５３５番地６,,32,201,6900006,,,,,,,2023-12-05,1,,,,,クリアル,0
229,1290001103937,新規,0,2023-12-05,2023-12-05,グーマー株式会社,,株式会社,福岡県,福岡市博多区,博多駅前３丁目３０番１５－７１０号ライオンズマンション博多,,40,132,8120011,,,,,,,2023-12-05,1,,,,,グーマー,0
230,1290005019213,新規,0,2023-12-05,2023-12-05,九州ひっこし専門協同組合,,その他の設立登記法人,福岡県,福岡市博多区,博多駅前２丁目４番１２号タイセイビル３Ｆ,,40,132,8120011,,,,,,,2023-12-05,1,,,,,,0
232,1290801030091,新規,0,2023-12-05,2023-12-05,ＴＧＯ　ＧＬＯＢＡＬ株式会社,,株式会社,福岡県,北九州市小倉北区,赤坂海岸７番７号,,40,106,8020031,,,,,,,2023-12-05,1,,,,,ティージーオーグローバル,0
233,1300005007166,新規,0,2023-12-05,2023-12-05,一般社団法人てのひら,,その他の設立登記法人,佐賀県,杵島郡江北町,大字惣領分５１２２番地２,,41,424,8490503,,,,,,,2023-12-05,1,,,,,テノヒラ,0
238,1310001018736,新規,0,2023-12-05,2023-12-05,株式会社アグリサービス,,株式会社,長崎県,西海市,西彼町下岳郷字前島９８３番地２,,42,212,8513311,,,,,,,2023-12-05,1,,,,,アグリサービス,0
241,1320001020170,新規,0,2023-12-05,2023-12-05,株式会社桑原商会,,株式会社,大分県,中津市,豊田町１４番地２０,,44,203,8710058,,,,,,,2023-12-05,1,,,,,クワバラショウカイ,0
245,1330001031539,新規,0,2023-12-05,2023-12-05,株式会社坂本不動産,,株式会社,熊本県,熊本市中央区,本山町２１１番地３,,43,101,8600822,,,,,,,2023-12-05,1,,,,,サカモトフドウサン,0
246,1340005009679,新規,0,2023-12-05,2023-12-05,特定非営利活動法人木繋プロジェクト,,その他の設立登記法人,鹿児島県,熊毛郡屋久島町,安房２７３９番地３４３,,46,505,8914311,,,,,,,2023-12-05,1,,,,,キズナプロジェクト,0
247,1360001032889,新規,0,2023-12-05,2023-12-05,株式会社秀施工,,株式会社,沖縄県,那覇市,首里石嶺町４丁目１５８番地２,,47,201,9030804,,,,,,,2023-12-05,1,,,,,シュウセコウ,0
248,1360005006955,新規,0,2023-12-05,2023-12-05,一般社団法人沖縄ハーブ協会,,その他の設立登記法人,沖縄県,那覇市,上之屋１丁目１８番１２号,,47,201,9000011,,,,,,,2023-12-05,1,,,,,オキナワハーブキョウカイ,0
263,1430001090566,新規,0,2023-12-05,2023-12-05,株式会社ピザドゥ北海道,,株式会社,北海道,千歳市,白樺６丁目９番地の３,,01,224,0660056,,,,,,,2023-12-05,1,,,,,ピザドゥホッカイドウ,0
264,1430001090574,新規,0,2023-12-05,2023-12-05,株式会社ブイアップ,,株式会社,北海道,札幌市中央区,南二条西３丁目１２－５,,01,101,0600062,,,,,,,2023-12-05,1,,,,,ブイアップ,0
277,1500001025341,新規,0,2023-12-05,2023-12-05,株式会社ＳＫＯ国際人材サービス,,株式会社,愛媛県,今治市,常盤町４丁目５番地４今治中央ビル１階－Ｂ,,38,202,7940015,,,,,,,2023-12-05,1,,,,,エスケーオーコクサイジンザイサービス,0
279,1700150024578,新規,0,2023-12-05,2015-10-09,大阪ホームレス就業支援センター運営協議会,,その他,大阪府,大阪市西成区,萩之茶屋３丁目６－２９,,27,122,5570004,,,,,,,2015-10-09,1,,,,,オオサカホームレスシユウギヨウシエンセンターウンエイキヨウギカイ,0
280,1700150122522,新規,0,2023-12-05,2023-12-05,Ｐｅｎｇ　Ｃｈｅｎ　ｉｎｄｕｓｔｒｉａｌ　ｃｏ．，ＬＴＤ,,外国会社等,,,,,,,,１ｓｔ　ｆｌｏｏｒ，Ｎｏ．７６，ｌａｎｅ　２９　ｆｉｒｓｔ　ｓｔｒｅｅｔ，ｑｉａｏｔｏｕ　ｌｉｍｉｎｚｈｉ，ｑｉｎｇｓｈｕｉ　ｄｉｓｔｒｉｃｔ　ｔａｉｃｈｕｎｇ　Ｔａｉｗａｎ,,,,,,2023-12-05,1,,,,,ペンチエンインダストリアルカンパニリミテツド,0
291,2010003042367,新規,0,2023-12-05,2023-12-05,合同会社ＫＩＴＡ,,合同会社,東京都,中央区,勝どき５丁目３番１号,,13,102,1040054,,,,,,,2023-12-05,1,,,,,キタ,0
294,2010005037596,新規,0,2023-12-05,2023-12-05,一般社団法人ソーラーオークション協議会,,その他の設立登記法人,東京都,千代田区,九段北１丁目１３番１号,,13,101,1020073,,,,,,,2023-12-05,1,,,,,ソーラーオークションキョウギカイ,0
296,2010401178886,新規,0,2023-12-05,2023-12-05,株式会社歓尽,,株式会社,東京都,港区,新橋４丁目３１番３号第３名和ビル８階,,13,103,1050004,,,,,,,2023-12-05,1,,,,,カンジン,0
298,2010503007233,新規,0,2023-12-05,2023-12-05,合同会社海遊堂,,合同会社,東京都,台東区,浅草３丁目２１番９号トーラス浅草２０７,,13,106,1110032,,,,,,,2023-12-05,1,,,,,カイユウドウ,0
299,2010601064267,新規,0,2023-12-05,2023-12-05,株式会社８ＨＡＣＨＩ,,株式会社,東京都,江東区,亀戸７丁目７番１０号,,13,108,1360071,,,,,,,2023-12-05,1,,,,,ハチ,0
300,2010601064275,新規,0,2023-12-05,2023-12-05,株式会社ＡＦＤ,,株式会社,東京都,江東区,東砂８丁目３－１３－１Ｆ,,13,108,1360074,,,,,,,2023-12-05,1,,,,,エーエフディー,0
302,2010603010509,新規,0,2023-12-05,2023-12-05,アバディーンパブリック合同会社,,合同会社,東京都,墨田区,東向島６丁目５３番１７－２０２号レリア東向島,,13,107,1310032,,,,,,,2023-12-05,1,,,,,アバディーンパブリック,0
304,2010701045217,新規,0,2023-12-05,2023-12-05,株式会社ＣＯＳＭＯ・ＴＥＣ,,株式会社,東京都,品川区,東五反田４丁目３番２０号,,13,109,1410022,,,,,,,2023-12-05,1,,,,,コスモテック,0
307,2010801034573,新規,0,2023-12-05,2023-12-05,株式会社ＭＧ,,株式会社,東京都,大田区,京浜島２丁目１８番１０号,,13,111,1430003,,,,,,,2023-12-05,1,,,,,エムジー,0
309,2010903008624,新規,0,2023-12-05,2023-12-05,合同会社ａｒｓ　ｉｎｖｅｓｔｍｅｎｔ,,合同会社,東京都,世田谷区,成城６丁目１６番２９号,,13,112,1570066,,,,,,,2023-12-05,1,,,,,アルスインベストメント,0
318,2011003018043,新規,0,2023-12-05,2023-12-05,合同会社Ｋｉｒａｂｏｓｈｉ,,合同会社,東京都,目黒区,南２丁目４番２０号,,13,110,1520013,,,,,,,2023-12-05,1,,,,,キラボシ,0
319,2011101105362,新規,0,2023-12-05,2023-12-05,株式会社フィールズ,,株式会社,東京都,新宿区,新宿１丁目１９番１０号,,13,104,1600022,,,,,,,2023-12-05,1,,,,,フィールズ,0
325,2011503005870,新規,0,2023-12-05,2023-12-05,ＲＹ合同会社,,合同会社,東京都,荒川区,西日暮里２丁目６－１８－６２０,,13,118,1160013,,,,,,,2023-12-05,1,,,,,アールワイ,0
326,2011601027346,新規,0,2023-12-05,2023-12-05,株式会社ＹＣＷ,,株式会社,東京都,練馬区,春日町４丁目２５番１７号ジュール・ド・プランタンＤ－１０２,,13,120,1790074,,,,,,,2023-12-05,1,,,,,ワイシーダブリュウ,0
333,2012401041297,新規,0,2023-12-05,2023-12-05,株式会社府中リフォーム,,株式会社,東京都,府中市,西府町１丁目４８－１９,,13,206,1830031,,,,,,,2023-12-05,1,,,,,フチュウリフォーム,0
336,2013105001835,新規,0,2023-12-05,2023-12-05,特定非営利活動法人デジタルフォロー,,その他の設立登記法人,東京都,青梅市,今井１丁目４８０番地の１,,13,205,1980023,,,,,,,2023-12-05,1,,,,,,0
346,2020001154774,新規,0,2023-12-05,2023-12-05,株式会社Ｙ’ｓＴＲＵＳＴＹ,,株式会社,神奈川県,横浜市磯子区,岡村５丁目２１番２１－３１１号,,14,107,2350021,,,,,,,2023-12-05,1,,,,,ワイズトラスティ,0
351,2020003025115,新規,0,2023-12-05,2023-12-05,合同会社ＭＫキャリア総合研究所,,合同会社,神奈川県,横浜市中区,吉浜町１番地２パークスクエア横浜１２１０号室,,14,104,2310024,,,,,,,2023-12-05,1,,,,,エムケイキャリアソウゴウケンキュウジョ,0
365,2030001157454,新規,0,2023-12-05,2023-12-05,株式会社徳信,,株式会社,埼玉県,南埼玉郡宮代町,本田５丁目８番２１号四季ハイツ２０７号室,,11,442,3450827,,,,,,,2023-12-05,1,,,,,トクシン,0
366,2030001157495,新規,0,2023-12-05,2023-12-05,株式会社トータルリユース,,株式会社,埼玉県,さいたま市西区,大字水判土２４９番地１９,,11,101,3310059,,,,,,,2023-12-05,1,,,,,トータルリユース,0
374,2040001131185,新規,0,2023-12-05,2023-12-05,ディーラインシッピング株式会社,,株式会社,千葉県,千葉市美浜区,高洲３丁目７番１－１３０５号,,12,106,2610004,,,,,,,2023-12-05,1,,,,,ディーラインシッピング,0
375,2040001131202,新規,0,2023-12-05,2023-12-05,らいとコミュニケーション株式会社,,株式会社,千葉県,香取郡東庄町,石出１５９９,,12,349,2890612,,,,,,,2023-12-05,1,,,,,ライトコミュニケーション,0
377,2040005022216,新規,0,2023-12-05,2023-12-05,一般社団法人おしごとの和,,その他の設立登記法人,千葉県,鎌ケ谷市,富岡３丁目２２番３号,,12,224,2730101,,,,,,,2023-12-05,1,,,,,オシゴトノワ,0
378,2050001053890,新規,0,2023-12-05,2023-12-05,株式会社ツリーベル,,株式会社,茨城県,つくば市,館野４番地２,,08,220,3050067,,,,,,,2023-12-05,1,,,,,ツリーベル,0
395,2090001018444,新規,0,2023-12-05,2023-12-05,山梨観光不動産株式会社,,株式会社,山梨県,北杜市,小淵沢町７６８４番地１,,19,209,4080044,,,,,,,2023-12-05,1,,,,,ヤマナシカンコウフドウサン,0
413,2120001260331,新規,0,2023-12-05,2023-12-05,ＡＫＡＭＯ株式会社,,株式会社,大阪府,大阪市東住吉区,杭全１丁目１７－１７－５０４,,27,121,5460002,,,,,,,2023-12-05,1,,,,,アカモ,0
414,2120001260389,新規,0,2023-12-05,2023-12-05,Ｊ＆Ｒ　Ａｓｓｅｔ　Ｍａｎａｇｅｍｅｎｔ株式会社,,株式会社,大阪府,大阪市都島区,善源寺町２丁目２番３－１３１０号,,27,102,5340015,,,,,,,2023-12-05,1,,,,,ジェイアンドアールアセットマネジメント,0
415,2120001260430,新規,0,2023-12-05,2023-12-05,稲田株式会社,,株式会社,大阪府,大阪市中央区,徳井町２丁目４－５－２０２号,,27,128,5400025,,,,,,,2023-12-05,1,,,,,イナダ,0
416,2120003025443,新規,0,2023-12-05,2023-12-05,ＰＬＡＮＥＴ　ＯＲＧＡＮＩＣ合同会社,,合同会社,大阪府,大阪市阿倍野区,昭和町５丁目１０番２４－２０８号室,,27,119,5450011,,,,,,,2023-12-05,1,,,,,プラネットオーガニック,0
423,2122001037627,新規,0,2023-12-05,2023-12-05,株式会社フォーミ・コーポレーション,,株式会社,大阪府,八尾市,神宮寺１丁目８２番地の１５,,27,212,5810885,,,,,,,2023-12-05,1,,,,,フォーミコーポレーション,0
425,2130001075844,新規,0,2023-12-05,2023-12-05,株式会社ブルク,,株式会社,京都府,宮津市,字波路８２６番地,,26,205,6260061,,,,,,,2023-12-05,1,,,,,ブルク,0
433,2140001132512,新規,0,2023-12-05,2023-12-05,優味屋株式会社,,株式会社,兵庫県,神戸市北区,有野町唐櫃４０２９番３－２００１号室,,28,109,6511331,,,,,,,2023-12-05,1,,,,,,0
434,2140001132529,新規,0,2023-12-05,2023-12-05,株式会社シップスター,,株式会社,兵庫県,神戸市兵庫区,駅南通５丁目２番６－６０５号,,28,105,6520897,,,,,,,2023-12-05,1,,,,,シップスター,0
435,2140001132537,新規,0,2023-12-05,2023-12-05,株式会社ＯＭＧ,,株式会社,兵庫県,神戸市中央区,中山手通３丁目７番３０－５０３号,,28,110,6500004,,,,,,,2023-12-05,1,,,,,オーエムジー,0
436,2140001132578,新規,0,2023-12-05,2023-12-05,植田電機工業株式会社,,株式会社,兵庫県,伊丹市,鴻池３丁目１９番１０号,,28,207,6640006,,,,,,,2023-12-05,1,,,,,ウエタデンキコウギョウ,0
437,2140001132586,新規,0,2023-12-05,2023-12-05,株式会社Ｂｅ‐ＺＥＲＯ,,株式会社,兵庫県,尼崎市,南塚口町１丁目１２番８号５０３号室,,28,202,6610012,,,,,,,2023-12-05,1,,,,,ビーゼロ,0
440,2140003019880,新規,0,2023-12-05,2023-12-05,合同会社クリエ・デ・リヤン,,合同会社,兵庫県,西宮市,羽衣町７番３１－１４０５号,,28,204,6620051,,,,,,,2023-12-05,1,,,,,クリエデリヤン,0
448,2160001025532,新規,0,2023-12-05,2023-12-05,株式会社エンロール,,株式会社,滋賀県,東近江市,桜川東町２４８番地,,25,213,5291511,,,,,,,2023-12-05,1,,,,,エンロール,0
449,2160001025540,新規,0,2023-12-05,2023-12-05,株式会社ＮＹ　ＦＡＭＩＬＩＡＲ,,株式会社,滋賀県,守山市,播磨田町１０００番地８,,25,207,5240012,,,,,,,2023-12-05,1,,,,,エヌワイファミリア,0
460,2180001159106,新規,0,2023-12-05,2023-12-05,株式会社ＳｙｎｅｒＣｒｅａｔｅ,,株式会社,愛知県,清須市,西枇杷島町旭１丁目３１番地第一早川ビルＤ１,,23,233,4520064,,,,,,,2023-12-05,1,,,,,サイナークリエイト,0
461,2180001159188,新規,0,2023-12-05,2023-12-05,株式会社悠久クリエイト,,株式会社,愛知県,名古屋市北区,光音寺町４丁目３５番地,,23,103,4620053,,,,,,,2023-12-05,1,,,,,ユウキュウクリエイト,0
481,2200003006170,新規,0,2023-12-05,2023-12-05,合同会社ライフサポートネクスト,,合同会社,岐阜県,可児市,川合２７９３番地３７,,21,214,5090201,,,,,,,2023-12-05,1,,,,,ライフサポートネクスト,0
482,2220001025716,新規,0,2023-12-05,2023-12-05,株式会社ヨネダ建築板金,,株式会社,石川県,かほく市,木津ニ９５番地,,17,209,9291171,,,,,,,2023-12-05,1,,,,,ヨネダケンチクバンキン,0
491,2260001038532,新規,0,2023-12-05,2023-12-05,Ｋｅｙ　Ｐｒｏｍｏｔｉｏｎ株式会社,,株式会社,岡山県,岡山市北区,富田町１丁目１０－２５ボヌールスクエアアコオＶ番館４０１,00132874,33,101,7000816,,,,,,,2023-12-05,1,,,,,キープロモーション,0
493,2290001103911,新規,0,2023-12-05,2023-12-05,株式会社Ｈｉ‐ｗｅｂ,,株式会社,福岡県,福岡市南区,柳河内２丁目７－２,,40,134,8150063,,,,,,,2023-12-05,1,,,,,ハイウェブ,0
498,2290003014677,新規,0,2023-12-05,2023-12-05,合同会社レジューム,,合同会社,福岡県,福岡市城南区,友丘５丁目２０番１８－２０１号エリーレンス城南,,40,136,8140112,,,,,,,2023-12-05,1,,,,,レジューム,0
499,2290801030108,新規,0,2023-12-05,2023-12-05,さち子株式会社,,株式会社,福岡県,田川郡福智町,赤池３３０番地４５,,40,610,8221101,,,,,,,2023-12-05,1,,,,,サチコ,0
502,2320003004245,新規,0,2023-12-05,2023-12-05,合同会社ＯＭＵ,,合同会社,大分県,大分市,中央町１丁目２番１０号タジマヤビル,,44,201,8700035,,,,,,,2023-12-05,1,,,,,オーエムユー,0
503,2330001031538,新規,0,2023-12-05,2023-12-05,株式会社遊星工業,,株式会社,熊本県,宇城市,豊野町山崎２１８８番地９,,43,213,8614305,,,,,,,2023-12-05,1,,,,,ユウセイコウギョウ,0
505,2330003010110,新規,0,2023-12-05,2023-12-05,合同会社リンリン,,合同会社,熊本県,合志市,幾久富１８８５番地２,,43,216,8611112,,,,,,,2023-12-05,1,,,,,リンリン,0
510,2360001032896,新規,0,2023-12-05,2023-12-05,株式会社沖縄ソーシャルビジネス戦略ホールディングス,,株式会社,沖縄県,浦添市,城間１丁目１５番１号,,47,208,9012133,,,,,,,2023-12-05,1,,,,,オキナワソーシャルビジネスセンリャクホールディングス,0
515,2370005010716,新規,0,2023-12-05,2023-12-05,特定非営利活動法人せんだい映画資料室,,その他の設立登記法人,宮城県,仙台市若林区,西新丁５番２号西新丁マンション１０１号室,,04,103,9840045,,,,,,,2023-12-05,1,,,,,センダイエイガシリョウシツ,0
522,2390001017432,新規,0,2023-12-05,2023-12-05,株式会社ループロ,,株式会社,山形県,山形市,馬見ケ崎３丁目７番１０号,,06,201,9900810,,,,,,,2023-12-05,1,,,,,ループロ,0
534,2430003015710,新規,0,2023-12-05,2023-12-05,合同会社ＳＥＨ,,合同会社,北海道,札幌市北区,あいの里二条８丁目５番８号,,01,102,0028072,,,,,,,2023-12-05,1,,,,,エスイーエイチ,0
538,2480003002051,新規,0,2023-12-05,2023-12-05,ＡＬＩ　ＴＲＡＤＩＮＧ合同会社,,合同会社,徳島県,徳島市,国府町和田字原淵３５－６－６,,36,201,7793121,,,,,,,2023-12-05,1,,,,,,0
544,2500001025340,新規,0,2023-12-05,2023-12-05,株式会社Ｃｒｅｄｏ,,株式会社,愛媛県,伊予郡松前町,大字神崎８５０番地７,,38,401,7913161,,,,,,,2023-12-05,1,,,,,クレド,0
549,2700150122471,新規,0,2023-12-05,2023-11-30,大波下農事組合,,その他,京都府,舞鶴市,字大波下４１１,,26,202,6250007,,,,,,,2023-11-30,1,,,,,オオバシモノウジクミアイ,0
550,2700150122513,新規,0,2023-12-05,2023-12-05,にぃま,,その他,大阪府,東大阪市,大蓮東２丁目１０－２７,,27,227,5770824,,,,,,,2023-12-05,1,,,,,ニイマ,0
551,2700150122521,新規,0,2023-12-05,2023-12-05,Ｑｕａｎｚｈｏｕ　Ｓｅｎｌｉｎ　Ｅ－ｃｏｍｍｅｒｃｅ　Ｃｏ．Ｌｔｄ,,外国会社等,,,,,,,,４Ａ６０５，Ｅａｓｔ　Ｂａｙ　Ｌｉｙｕａｎ，Ｆｅｎｇｚｅ　Ｄｉｓｔｒｉｃｔ，Ｑｕａｎｚｈｏｕ　Ｃｉｔｙ,,,,,,2023-12-05,1,,,,,センシユウセンリンイーコマースカンパニリミテツド,0
559,3010003042366,新規,0,2023-12-05,2023-12-05,合同会社ｎｅｏｏｎｅ,,合同会社,東京都,中央区,日本橋室町１丁目１１番１２号日本橋水野ビル７階,,13,102,1030022,,,,,,,2023-12-05,1,,,,,ネオワン,0
561,3010005037562,新規,0,2023-12-05,2023-12-05,一般社団法人日中経済産業交流促進協会,,その他の設立登記法人,東京都,中央区,銀座７丁目１３番２０号,,13,102,1040061,,,,,,,2023-12-05,1,,,,,ニチチュウケイザイサンギョウコウリュウソクシンキョウカイ,0
569,3010401178885,新規,0,2023-12-05,2023-12-05,ＫＳＪ７株式会社,,株式会社,東京都,港区,麻布台１丁目７番２号,,13,103,1060041,,,,,,,2023-12-05,1,,,,,ケイエスジェーセブン,0
570,3010401178902,新規,0,2023-12-05,2023-12-05,株式会社スペースシャワーネットワーク分割準備会社,,株式会社,東京都,港区,六本木３丁目１６番３５号,,13,103,1060032,,,,,,,2023-12-05,1,,,,,スペースシャワーネットワークブンカツジュンビカイシャ,0
571,3010403031497,新規,0,2023-12-05,2023-12-05,合同会社大山,,合同会社,東京都,港区,北青山１丁目２番３号,,13,103,1070061,,,,,,,2023-12-05,1,,,,,オオヤマ,0
575,3010501051455,新規,0,2023-12-05,2023-12-05,日昇株式会社,,株式会社,東京都,台東区,浅草３丁目２１－９トーラス浅草２１１号室,,13,106,1110032,,,,,,,2023-12-05,1,,,,,ニッショウ,0
577,3010601064258,新規,0,2023-12-05,2023-12-05,株式会社藤工業,,株式会社,東京都,墨田区,立花４丁目３７番１８号,,13,107,1310043,,,,,,,2023-12-05,1,,,,,フジコウギョウ,0
586,3011001158617,新規,0,2023-12-05,2023-12-05,株式会社ｓｕｍｉ,,株式会社,東京都,渋谷区,広尾５丁目１４番２号,,13,113,1500012,,,,,,,2023-12-05,1,,,,,スミ,0
588,3011003018042,新規,0,2023-12-05,2023-12-05,大西ビル合同会社,,合同会社,東京都,渋谷区,神宮前１丁目１３番１１号,,13,113,1500001,,,,,,,2023-12-05,1,,,,,オオニシビル,0
595,3011101105329,新規,0,2023-12-05,2023-12-05,匡正株式会社,,株式会社,東京都,新宿区,高田馬場１丁目３３番６号,,13,104,1690075,,,,,,,2023-12-05,1,,,,,キョウセイ,0
596,3011101105345,新規,0,2023-12-05,2023-12-05,ＩＴキャリアアップシステム株式会社,,株式会社,東京都,新宿区,西新宿３丁目３番１３号西新宿水間ビル２Ｆ,,13,104,1600023,,,,,,,2023-12-05,1,,,,,アイティーキャリアアップシステム,0
597,3011101105361,新規,0,2023-12-05,2023-12-05,株式会社スカイベーカリー,,株式会社,東京都,新宿区,四谷４丁目１３番地３６,,13,104,1600004,,,,,,,2023-12-05,1,,,,,スカイベーカリー,0
601,3011103013819,新規,0,2023-12-05,2023-12-05,合同会社マオマオ,,合同会社,東京都,新宿区,大久保１丁目１番１１－４０８号,,13,104,1690072,,,,,,,2023-12-05,1,,,,,マオマオ,0
602,3011501030077,新規,0,2023-12-05,2023-12-05,株式会社ＭＹ．ｈ,,株式会社,東京都,荒川区,西日暮里６丁目３７番１号,,13,118,1160013,,,,,,,2023-12-05,1,,,,,マイドットエイチ,0
605,3011603004160,新規,0,2023-12-05,2023-12-05,合同会社綿ヶ屋,,合同会社,東京都,練馬区,豊玉北１丁目８番１０号桜の杜レジデンス１１２号室,,13,120,1760012,,,,,,,2023-12-05,1,,,,,ワタガヤ,0
606,3011701026825,新規,0,2023-12-05,2023-12-05,ブレイブドリーム株式会社,,株式会社,東京都,江戸川区,西葛西７丁目１１－１７第三豊栄ビル３０２,,13,123,1340088,,,,,,,2023-12-05,1,,,,,ブレイブドリーム,0
610,3012401041296,新規,0,2023-12-05,2023-12-05,株式会社ＤＡＩＹＡ,,株式会社,東京都,三鷹市,中原３丁目８番２２号,,13,204,1810005,,,,,,,2023-12-05,1,,,,,ダイヤ,0
611,3012403006306,新規,0,2023-12-05,2023-12-05,やこ藤合同会社,,合同会社,東京都,三鷹市,井の頭２丁目７番８号,,13,204,1810001,,,,,,,2023-12-05,1,,,,,ヤコフジ,0
619,3013301051732,新規,0,2023-12-05,2023-12-05,株式会社ＩＴＯ,,株式会社,東京都,豊島区,西池袋３丁目２１番１３－２１０１号,,13,116,1710021,,,,,,,2023-12-05,1,,,,,アイティーオー,0
620,3013303006908,新規,0,2023-12-05,2023-12-05,Ｔ２‐Ｖａｌｕｅ合同会社,,合同会社,東京都,豊島区,千川２丁目９番４－１０６号,,13,116,1710041,,,,,,,2023-12-05,1,,,,,ティーツーバリュー,0
627,3020001154757,新規,0,2023-12-05,2023-12-05,ＫＴアセットコンサル株式会社,,株式会社,神奈川県,川崎市川崎区,榎町３番１５号２Ｆ,,14,131,2100002,,,,,,,2023-12-05,1,,,,,ケーティーアセットコンサル,0
628,3020001154765,新規,0,2023-12-05,2023-12-05,株式会社石橋電機工業,,株式会社,神奈川県,横浜市港北区,師岡町９６番地２－２０１号室,,14,109,2220002,,,,,,,2023-12-05,1,,,,,イシバシデンキコウギョウ,0
630,3020003025114,新規,0,2023-12-05,2023-12-05,ベタープラクティスコンサルティング合同会社,,合同会社,神奈川県,横浜市港北区,篠原北２丁目１７番５－１号,,14,109,2220021,,,,,,,2023-12-05,1,,,,,ベタープラクティスコンサルティング,0
632,3021001080836,新規,0,2023-12-05,2023-12-05,湘南くらしラボ株式会社,,株式会社,神奈川県,鎌倉市,扇ガ谷２丁目２４ー９,,14,204,2480011,,,,,,,2023-12-05,1,,,,,ショウナンクラシラボ,0
633,3021001080885,新規,0,2023-12-05,2023-12-05,株式会社テクノモビリティ,,株式会社,神奈川県,綾瀬市,本蓼川３２６－３,,14,218,2521102,,,,,,,2023-12-05,1,,,,,テクノモビリティ,0
651,3040001131184,新規,0,2023-12-05,2023-12-05,株式会社Ｄ　Ｓｃｈｅｉｎｅｎ,,株式会社,千葉県,成田市,高岡１１２４番地,,12,211,2890108,,,,,,,2023-12-05,1,,,,,ディーシャイネン,0
652,3040001131192,新規,0,2023-12-05,2023-12-05,エコ・グローバル株式会社,,株式会社,千葉県,松戸市,栄町６丁目４７３番地の１２,,12,207,2710062,,,,,,,2023-12-05,1,,,,,エコグローバル,0
657,3040003023859,新規,0,2023-12-05,2023-12-05,タカノス合同会社,,合同会社,千葉県,野田市,中根３４－１１,,12,208,2780031,,,,,,,2023-12-05,1,,,,,タカノス,0
662,3050001053898,新規,0,2023-12-05,2023-12-05,ＲＡＳＨＩＤ　ＩＮＴＥＲＮＡＴＩＯＮＡＬ株式会社,,株式会社,茨城県,東茨城郡茨城町,大字上石崎６３９番地３０,,08,302,3113122,,,,,,,2023-12-05,1,,,,,ラシドインターナショナル,0
663,3050001053907,新規,0,2023-12-05,2023-12-05,株式会社大吉産業,,株式会社,茨城県,東茨城郡大洗町,成田町４３４４番地,,08,309,3111313,,,,,,,2023-12-05,1,,,,,ダイキチサンギョウ,0
690,3120001260355,新規,0,2023-12-05,2023-12-05,株式会社ＭＫＳ,,株式会社,大阪府,門真市,沖町１６番５号,,27,223,5710022,,,,,,,2023-12-05,1,,,,,エムケーエス,0
691,3120001260388,新規,0,2023-12-05,2023-12-05,株式会社堀川商事,,株式会社,大阪府,大阪市天王寺区,大道４丁目５番１６号,,27,109,5430052,,,,,,,2023-12-05,1,,,,,ホリカワショウジ,0
692,3120001260413,新規,0,2023-12-05,2023-12-05,株式会社ワ,,株式会社,大阪府,大阪市淀川区,宮原５丁目６番３２－１０６号,,27,123,5320003,,,,,,,2023-12-05,1,,,,,ワ,0
693,3120003025459,新規,0,2023-12-05,2023-12-05,合同会社オフィスるり,,合同会社,大阪府,寝屋川市,寿町４４番３－２号,,27,215,5720029,,,,,,,2023-12-05,1,,,,,オフィスルリ,0
702,3120101068624,新規,0,2023-12-05,2023-12-05,株式会社ｒ’ｅ　ｂｌａｎｃ,,株式会社,大阪府,羽曳野市,島泉８丁目１３番１号,,27,222,5830881,,,,,,,2023-12-05,1,,,,,レブラン,0
703,3120901048445,新規,0,2023-12-05,2023-12-05,株式会社ＴＡＩＨＯＵ,,株式会社,大阪府,吹田市,津雲台１丁目１番３０号,,27,205,5650862,,,,,,,2023-12-05,1,,,,,タイホウ,0
714,3140001132528,新規,0,2023-12-05,2023-12-05,株式会社エムエイチ,,株式会社,兵庫県,神戸市西区,玉津町田中５８８－１,,28,111,6512147,,,,,,,2023-12-05,1,,,,,エムエイチ,0
715,3140001132544,新規,0,2023-12-05,2023-12-05,海利建装株式会社,,株式会社,兵庫県,神戸市兵庫区,菊水町９丁目１３番１５号,,28,105,6520058,,,,,,,2023-12-05,1,,,,,カイリケンソウ,0
718,3140003019896,新規,0,2023-12-05,2023-12-05,合同会社ＣＨＡＩＮＯＮ,,合同会社,兵庫県,洲本市,本町５丁目４－１８,,28,205,6560025,,,,,,,2023-12-05,1,,,,,シェノン,0
735,3180001159204,新規,0,2023-12-05,2023-12-05,株式会社Ｓｏｌｉｏｎ　ＢＭＸ２,,株式会社,愛知県,丹羽郡大口町,豊田２丁目５１番地２,,23,361,4800134,,,,,,,2023-12-05,1,,,,,ソリオンビーエムエックスツー,0
741,3180301038082,新規,0,2023-12-05,2023-12-05,株式会社ＫＡＩＺＥＮ　ＧＲＯＵＰ,,株式会社,愛知県,碧南市,照光町４丁目５４番地３,,23,209,4470027,,,,,,,2023-12-05,1,,,,,カイゼングループ,0
743,3190001030933,新規,0,2023-12-05,2023-12-05,株式会社クリエイティブＨＯＭＥ,,株式会社,三重県,津市,神戸７６９番地２,,24,201,5140824,,,,,,,2023-12-05,1,,,,,クリエイティブホーム,0
745,3200001041945,新規,0,2023-12-05,2023-12-05,株式会社アオキＥＰ,,株式会社,岐阜県,岐阜市,柳津町上佐波１丁目３９０番地,,21,201,5016121,,,,,,,2023-12-05,1,,,,,アオキイーピー,0
755,3230001020129,新規,0,2023-12-05,2023-12-05,株式会社ワライズ,,株式会社,富山県,富山市,婦中町下条７４７番地,,16,201,9392758,,,,,,,2023-12-05,1,,,,,ワライズ,0
757,3240003006439,新規,0,2023-12-05,2023-12-05,合同会社ＫＵＲＯＤＡ,,合同会社,広島県,広島市安佐南区,長束１丁目１０－３１ＧｒａｎｄｔｉｃＭｉｓｔｏａ１０２,,34,105,7310135,,,,,,,2023-12-05,1,,,,,クロダ,0
764,3260001038523,新規,0,2023-12-05,2023-12-05,株式会社ＡＧＣ,,株式会社,岡山県,岡山市東区,古都南方３２９９番地１,,33,103,7038215,,,,,,,2023-12-05,1,,,,,エージーシー,0
765,3260001038531,新規,0,2023-12-05,2023-12-05,株式会社アイビー,,株式会社,岡山県,岡山市南区,浦安南町５１４番地２１,,33,104,7028024,,,,,,,2023-12-05,1,,,,,アイビー,0
767,3270003001577,新規,0,2023-12-05,2023-12-05,合同会社山本電工,,合同会社,鳥取県,西伯郡大山町,佐摩３３４番地,,31,386,6893313,,,,,,,2023-12-05,1,,,,,ヤマモトデンコウ,0
769,3290001103919,新規,0,2023-12-05,2023-12-05,株式会社Ｔ＆Ｍ,,株式会社,福岡県,久留米市,三潴町福光５５５番地１,,40,203,8300114,,,,,,,2023-12-05,1,,,,,ティーアンドエム,0
770,3290003014668,新規,0,2023-12-05,2023-12-05,合同会社オールマイティ,,合同会社,福岡県,春日市,春日公園５丁目１３番地カーサミーア１０２号,,40,218,8160811,,,,,,,2023-12-05,1,,,,,,0
771,3290003014692,新規,0,2023-12-05,2023-12-05,合同会社徳田商会,,合同会社,福岡県,福岡市東区,松崎２丁目５番１０号,,40,131,8130035,,,,,,,2023-12-05,1,,,,,トクダショウカイ,0
777,3310001018734,新規,0,2023-12-05,2023-12-05,株式会社ガーデンテラスホテルズ,,株式会社,長崎県,長崎市,稲佐町２番２号,,42,201,8528011,,,,,,,2023-12-05,1,,,,,ガーデンテラスホテルズ,0
781,3330001031537,新規,0,2023-12-05,2023-12-05,株式会社内外Ｔｒａｖｅｌ　Ｊａｐａｎ,,株式会社,熊本県,熊本市中央区,水道町１４番２１号,,43,101,8600844,,,,,,,2023-12-05,1,,,,,ナイガイトラベルジャパン,0
782,3330001031545,新規,0,2023-12-05,2023-12-05,まつもとホールディングス株式会社,,株式会社,熊本県,熊本市中央区,上水前寺１丁目１番３１号,,43,101,8620951,,,,,,,2023-12-05,1,,,,,マツモトホールディングス,0
788,3340001026115,新規,0,2023-12-05,2023-12-05,株式会社辰真建築工業,,株式会社,鹿児島県,鹿屋市,川東町８５１０番地１１,,46,203,8930031,,,,,,,2023-12-05,1,,,,,タツマサケンチクコウギョウ,0
796,3360005006953,新規,0,2023-12-05,2023-12-05,一般社団法人沖縄ソーシャルビジネス研究チーム,,その他の設立登記法人,沖縄県,浦添市,城間１丁目１５番１号,,47,208,9012133,,,,,,,2023-12-05,1,,,,,オキナワソーシャルビジネスケンキュウチーム,0
804,3390001017431,新規,0,2023-12-05,2023-12-05,株式会社ゼロエヌ,,株式会社,山形県,山形市,双葉町１丁目３番２６号ヤマガタミッドランドタワーウエスト１７０６,,06,201,9900828,,,,,,,2023-12-05,1,,,,,ゼロエヌ,0
806,3390005009045,新規,0,2023-12-05,2023-12-05,医療法人ホームデンタルクリニック,,その他の設立登記法人,山形県,天童市,南小畑４丁目１０番３０号,,06,210,9940081,,,,,,,2023-12-05,1,,,,,ホームデンタルクリニック,0
826,3700150121539,新規,0,2023-12-05,2023-10-30,佐世保シニアオープンゴルフ実行委員会,,その他,長崎県,佐世保市,知見寺町１４１０番地,,42,202,8570101,,,,,,,2023-10-30,1,,,,,サセボシニアオープンゴルフジツコウイインカイ,0
827,3700150122512,新規,0,2023-12-05,2023-12-05,Ａｕｒｉａ　Ｓｏｌｕｔｉｏｎｓ　Ｉｎｔｅｒｎａｔｉｏｎａｌ　Ｉｎｃ．,,外国会社等,東京都,八王子市,館町４７３番地４－Ｂ号,,13,201,1930944,アメリカ合衆国デラウェア州ウィルミントン、リトル・フォールズ・ドライブ２５１,,,,,,2023-12-05,1,,,,,オーリアソリユーシヨンズインターナシヨナルインコーポレーテツド,0
828,3700150122520,新規,0,2023-12-05,2023-12-05,Ｓｈａｎｇｈａｉ　Ｇｕａｎｄｕｏ　Ｅｌｅｃｔｒｉｃ　Ｃｏ．，Ｌｔｄ．,,外国会社等,,,,,,,,Ｒｏｏｍ　１８７，Ｂｕｉｌｄｉｎｇ　３，Ｎｏ．２１８　Ｘｉａｎｊｕ　Ｒｏａｄ，Ｚｈｕｊｉｎｇ　Ｔｏｗｎ，Ｊｉｎｓｈａｎ　Ｄｉｓｔｒｉｃｔ，Ｓｈａｎｇｈａｉ,,,,,,2023-12-05,1,,,,,シヤンハイカンタイレクトウリイクカンパニリミテツド,0
835,4010003042349,新規,0,2023-12-05,2023-12-05,合同会社ユアーズ,,合同会社,東京都,文京区,大塚１丁目１番２０号,00132872,13,105,1120012,,,,,,,2023-12-05,1,,,,,ユアーズ,0
836,4010003042365,新規,0,2023-12-05,2023-12-05,合同会社アズユニ,,合同会社,東京都,文京区,本郷７丁目３番１号工１２号館２１４Ｂ,,13,105,1130033,,,,,,,2023-12-05,1,,,,,アズユニ,0
840,4010005037603,新規,0,2023-12-05,2023-12-05,税理士法人サードステージ,,その他の設立登記法人,東京都,中央区,銀座１丁目１８番６号井門銀座一丁目ビル８階８１号室,,13,102,1040061,,,,,,,2023-12-05,1,,,,,サードステージ,0
846,4010401178884,新規,0,2023-12-05,2023-12-05,株式会社Ｂｒｉｇｈｔ　Ｆｕｔｕｒｅ　Ｆａｍｉｌｙ,,株式会社,東京都,港区,南青山３丁目１番３６号青山丸竹ビル６Ｆ,,13,103,1070062,,,,,,,2023-12-05,1,,,,,ブライトフューチャーファミリー,0
847,4010403031488,新規,0,2023-12-05,2023-12-05,ＮｅｗＰＬＡＮ合同会社,,合同会社,東京都,港区,芝大門２丁目１２－６ボーン芝パーク５０１,,13,103,1050012,,,,,,,2023-12-05,1,,,,,ニュープラン,0
848,4010403031505,新規,0,2023-12-05,2023-12-05,合同会社ラストマンシップ,,合同会社,東京都,港区,六本木３丁目３－１６クレアシオン六本木８０１,,13,103,1060032,,,,,,,2023-12-05,1,,,,,ラストマンシップ,0
849,4010405022758,新規,0,2023-12-05,2023-12-05,一般社団法人防衛装備移転推進機構,,その他の設立登記法人,東京都,港区,白金台５丁目２２番１２号前田道路白金ビル４Ｆ,,13,103,1080071,,,,,,,2023-12-05,1,,,,,ボウエイソウビイテンスイシンキコウ,0
851,4010501051462,新規,0,2023-12-05,2023-12-05,株式会社Ｎｅｕｋ,,株式会社,東京都,台東区,蔵前４丁目３５－８,,13,106,1110051,,,,,,,2023-12-05,1,,,,,ニューク,0
853,4010503007231,新規,0,2023-12-05,2023-12-05,マローネ・アセット合同会社,,合同会社,東京都,台東区,雷門２丁目７番２号,,13,106,1110034,,,,,,,2023-12-05,1,,,,,マローネアセット,0
856,4010601064249,新規,0,2023-12-05,2023-12-05,茶悠株式会社,,株式会社,東京都,江東区,亀戸７丁目５０番２号１０４,,13,108,1360071,,,,,,,2023-12-05,1,,,,,チャユウ,0
857,4010601064281,新規,0,2023-12-05,2023-12-05,株式会社オプティロー・テクノロジーズ,,株式会社,東京都,江東区,青海２丁目７－４ｔｈｅＳＯＨＯ８１８号室,,13,108,1350064,,,,,,,2023-12-05,1,,,,,オプティローテクノロジーズ,0
858,4010703006982,新規,0,2023-12-05,2023-12-05,Ｇｌｏｃｋｅｎｂｌｕｍｅ合同会社,,合同会社,東京都,品川区,東品川４丁目５番８－１３０５号,,13,109,1400002,,,,,,,2023-12-05,1,,,,,グロッケンブルーム,0
861,4010801034571,新規,0,2023-12-05,2023-12-05,株式会社ＡＮＫｅｒ,,株式会社,東京都,大田区,北千束２丁目２０番２号,,13,111,1450062,,,,,,,2023-12-05,1,,,,,アンカー,0
863,4010803004770,新規,0,2023-12-05,2023-12-05,ワークワーク合同会社,,合同会社,東京都,大田区,西蒲田７丁目４番４号小山第二ビル６Ｆ,,13,111,1440051,,,,,,,2023-12-05,1,,,,,ワークワーク,0
872,4010905004545,新規,0,2023-12-05,2023-12-05,特定非営利活動法人Ｈｙｄｒｏｇｅｎ　ｔｏｘ,,その他の設立登記法人,東京都,世田谷区,鎌田３丁目２４番４号,,13,112,1570077,,,,,,,2023-12-05,1,,,,,ハイドロジェントゥエックス,0
875,4011001158599,新規,0,2023-12-05,2023-12-05,株式会社クレインシーク,,株式会社,東京都,目黒区,青葉台２丁目６番１７号,,13,110,1530042,,,,,,,2023-12-05,1,,,,,クレインシーク,0
876,4011001158608,新規,0,2023-12-05,2023-12-05,株式会社ＺＵＺＵ,,株式会社,東京都,渋谷区,恵比寿南１丁目１番１号,,13,113,1500022,,,,,,,2023-12-05,1,,,,,ズズ,0
877,4011001158632,新規,0,2023-12-05,2023-12-05,株式会社深沢フィナンシャル,,株式会社,東京都,目黒区,青葉台３丁目６番２８－３００４号,,13,110,1530042,,,,,,,2023-12-05,1,,,,,フカザワフィナンシャル,0
882,4011003018033,新規,0,2023-12-05,2023-12-05,合同会社ベルーガ,,合同会社,東京都,目黒区,目黒本町２丁目１７番１７－３０８号シティハウス目黒学芸大学,,13,110,1520002,,,,,,,2023-12-05,1,,,,,ベルーガ,0
888,4011101105328,新規,0,2023-12-05,2023-12-05,力和株式会社,,株式会社,東京都,新宿区,大久保１丁目１番３８号ＧＬＯＵ東新宿１０１号室,,13,104,1690072,,,,,,,2023-12-05,1,,,,,リワボ,0
889,4011101105352,新規,0,2023-12-05,2023-12-05,株式会社ＧＢＭ,,株式会社,東京都,新宿区,西新宿３丁目３番１３号西新宿水間ビル２Ｆ,,13,104,1600023,,,,,,,2023-12-05,1,,,,,ジービーエム,0
891,4011103013818,新規,0,2023-12-05,2023-12-05,ＭＸ合同会社,,合同会社,東京都,新宿区,榎町３４－３榎町ビル７階－２１室,,13,104,1620806,,,,,,,2023-12-05,1,,,,,イシ,0
897,4011205002578,新規,0,2023-12-05,2023-12-05,一般社団法人池岡会,,その他の設立登記法人,東京都,中野区,中央１丁目４４番４号,,13,114,1640011,,,,,,,2023-12-05,1,,,,,イケオカカイ,0
899,4011501030068,新規,0,2023-12-05,2023-12-05,Ｆｏｉ　Ｂｅａｕｔｙ株式会社,,株式会社,東京都,荒川区,南千住６丁目３７番１０－７０３号,,13,118,1160003,,,,,,,2023-12-05,1,,,,,フォアビューティー,0
900,4011501030076,新規,0,2023-12-05,2023-12-05,株式会社ＳＮＯＷＦＬＡＫＥ,,株式会社,東京都,荒川区,西日暮里６丁目３７番１号,,13,118,1160013,,,,,,,2023-12-05,1,,,,,スノウフレイク,0
901,4011503005869,新規,0,2023-12-05,2023-12-05,合同会社Ｓｏｕｎｄ　Ｐｒｅｓｔ,,合同会社,東京都,北区,志茂３丁目３３番５－３０８号ＲＥＬＵＸＩＡ赤羽志茂,,13,117,1150042,,,,,,,2023-12-05,1,,,,,サウンドプレスト,0
902,4011603004151,新規,0,2023-12-05,2023-12-05,合同会社ＢＬＵＥ　ＳＫＹ,,合同会社,東京都,練馬区,高野台４丁目１番８号,,13,120,1770033,,,,,,,2023-12-05,1,,,,,ブルースカイ,0
904,4011703003680,新規,0,2023-12-05,2023-12-05,合同会社ｏｎ,,合同会社,東京都,江戸川区,西葛西６丁目１３番１号西葛西たかみビル５階,,13,123,1340088,,,,,,,2023-12-05,1,,,,,オン,0
914,4013303006907,新規,0,2023-12-05,2023-12-05,合同会社新帝都企画,,合同会社,東京都,豊島区,北大塚１丁目１６番５号パークアクシス大塚ステーションゲートタワー２１０２号,,13,116,1700004,,,,,,,2023-12-05,1,,,,,シンテイトキカク,0
916,4020001154723,新規,0,2023-12-05,2023-12-05,株式会社プレイリー,,株式会社,神奈川県,横浜市中区,太田町４丁目４６番地,,14,104,2310011,,,,,,,2023-12-05,1,,,,,プレイリー,0
923,4030001157485,新規,0,2023-12-05,2023-12-05,株式会社Ｓ＆Ｈ,,株式会社,埼玉県,さいたま市大宮区,桜木町１丁目１８８番１,,11,103,3300854,,,,,,,2023-12-05,1,,,,,エスアンドエイチ,0
933,4040001131191,新規,0,2023-12-05,2023-12-05,津栄商事株式会社,,株式会社,千葉県,柏市,戸張９１１番地３３,,12,217,2770008,,,,,,,2023-12-05,1,,,,,シンエイショウジ,0
934,4040001131209,新規,0,2023-12-05,2023-12-05,株式会社Ｓｏｏｈｅａｌ,,株式会社,千葉県,柏市,南逆井６丁目１１番３６号,,12,217,2770043,,,,,,,2023-12-05,1,,,,,スーヒール,0
935,4040001131225,新規,0,2023-12-05,2023-12-05,ＫＹＫエンジニアリング株式会社,,株式会社,千葉県,佐倉市,中志津３丁目２０番地１０号,,12,212,2850843,,,,,,,2023-12-05,1,,,,,ケイワイケイエンジニアリング,0
941,4050001053914,新規,0,2023-12-05,2023-12-05,株式会社常磐ヒラメディカル,,株式会社,茨城県,日立市,久慈町３丁目４番２２号,,08,202,3191222,,,,,,,2023-12-05,1,,,,,ジョウバンヒラメディカル,0
942,4060001036604,新規,0,2023-12-05,2023-12-05,富成勝株式会社,,株式会社,栃木県,宇都宮市,今泉３０２０番地１ＭＵＳＡＳＨＩ・ＩＭＡＩＺＵ・ＢＡＳＥ,,09,201,3210000,,,,,,,2023-12-05,1,,,,,トミセイショウ,0
947,4070001041140,新規,0,2023-12-05,2023-12-05,中山不動産株式会社,,株式会社,群馬県,桐生市,堤町１丁目１２番９号,,10,203,3760042,,,,,,,2023-12-05,1,,,,,ナカヤマフドウサン,0
948,4070001041149,新規,0,2023-12-05,2023-12-05,株式会社弌心,,株式会社,群馬県,前橋市,池端町１６２番地１ラ・フィーナ・ディオスＩＩ１０２号,00132876,10,201,3703571,,,,,,,2023-12-05,1,,,,,イッシン,0
951,4080001026009,新規,0,2023-12-05,2023-12-05,株式会社ＭＡＴＳＵＫＥＮ松永建築,,株式会社,静岡県,焼津市,中新田８４３番地の１,,22,212,4250068,,,,,,,2023-12-05,1,,,,,マツケンマツナガケンチク,0
952,4080001026017,新規,0,2023-12-05,2023-12-05,株式会社ＭＳＴ,,株式会社,静岡県,静岡市清水区,天王西３番１３号,,22,103,4240016,,,,,,,2023-12-05,1,,,,,エムエスティー,0
962,4110001038009,新規,0,2023-12-05,2023-12-05,株式会社グリーンハウス,,株式会社,新潟県,新発田市,中央町３丁目１０番３号,,15,206,9570053,,,,,,,2023-12-05,1,,,,,グリーンハウス,0
976,4120001260346,新規,0,2023-12-05,2023-12-05,天満フィナンシャルグループ株式会社,,株式会社,大阪府,大阪市中央区,大手前１丁目７－３１ＯＭＭ１５Ｆ,,27,128,5400008,,,,,,,2023-12-05,1,,,,,テンマフィナンシャルグループ,0
977,4120001260354,新規,0,2023-12-05,2023-12-05,株式会社比嘉商店,,株式会社,大阪府,大阪市大正区,千鳥一丁目２６番４号,,27,108,5510000,,,,,,,2023-12-05,1,,,,,ヒガショウテン,0
978,4120001260379,新規,0,2023-12-05,2023-12-05,株式会社ＴＣＲ,,株式会社,大阪府,大阪市西淀川区,柏里３丁目１番３８号,,27,113,5550022,,,,,,,2023-12-05,1,,,,,ティーシーアール,0
979,4120001260404,新規,0,2023-12-05,2023-12-05,株式会社楓,,株式会社,大阪府,大阪市北区,豊崎５丁目５番２４－１００４号,,27,127,5310072,,,,,,,2023-12-05,1,,,,,カエデ,0
987,4120003025458,新規,0,2023-12-05,2023-12-05,合同会社レシオ,,合同会社,大阪府,大阪市中央区,久太郎町３丁目３番１１号,,27,128,5410056,,,,,,,2023-12-05,1,,,,,レシオ,0
993,4120901048436,新規,0,2023-12-05,2023-12-05,株式会社８ｓａｉ,,株式会社,大阪府,豊中市,東豊中町３丁目９番２８号,,27,203,5600003,,,,,,,2023-12-05,1,,,,,ヤサイ,0
995,4120903004940,新規,0,2023-12-05,2023-12-05,合同会社ＫＭ通,,合同会社,大阪府,吹田市,千里丘上３５番Ｂ－２０１号,,27,205,5650811,,,,,,,2023-12-05,1,,,,,ケイエムツー,0
997,4122001037625,新規,0,2023-12-05,2023-12-05,株式会社Ｙ’ｓｒｍ,,株式会社,大阪府,四條畷市,岡山東２丁目１番２７号,,27,229,5750003,,,,,,,2023-12-05,1,,,,,ワイズリミ,0
998,4122001037633,新規,0,2023-12-05,2023-12-05,株式会社Ｂ．Ｉ．Ｙ,,株式会社,大阪府,東大阪市,御厨東１丁目６番２１号,,27,227,5770033,,,,,,,2023-12-05,1,,,,,ビーアイワイ,0
1004,4130001075842,新規,0,2023-12-05,2023-12-05,浅草株式会社,,株式会社,京都府,京都市左京区,二条通川端東入ル三筋目大文字町１５８番,,26,103,6060000,,,,,,,2023-12-05,1,,,,,アサクサ,0
1005,4130001075859,新規,0,2023-12-05,2023-12-05,シンウェア株式会社,,株式会社,京都府,京都市下京区,大黒町２２７番地第２キョートビル４０２,,26,106,6008043,,,,,,,2023-12-05,1,,,,,シンウェア,0
1006,4130001075867,新規,0,2023-12-05,2023-12-05,株式会社はたらくわたし,,株式会社,京都府,京都市山科区,音羽八ノ坪５１－４,,26,110,6078064,,,,,,,2023-12-05,1,,,,,ハタラクワタシ,0
1016,4140003019895,新規,0,2023-12-05,2023-12-05,Ｊｏｂ　Ｐｌｕｓ合同会社,,合同会社,兵庫県,丹波篠山市,今田町下小野原５９－５３,,28,221,6692133,,,,,,,2023-12-05,1,,,,,ジョブプラス,0
1018,4150001026918,新規,0,2023-12-05,2023-12-05,八紘自動車株式会社,,株式会社,奈良県,大和高田市,大字池尻１００番地４,,29,202,6350021,,,,,,,2023-12-05,1,,,,,ハッコウジドウシャ,0
1020,4160001025539,新規,0,2023-12-05,2023-12-05,株式会社オンリーシャイン,,株式会社,滋賀県,近江八幡市,千僧供町１７３番地,,25,204,5230016,,,,,,,2023-12-05,1,,,,,オンリーシャイン,0
1022,4170001017907,新規,0,2023-12-05,2023-12-05,株式会社ＺＯＵ,,株式会社,和歌山県,東牟婁郡串本町,串本２０８０番地５,,30,428,6493503,,,,,,,2023-12-05,1,,,,,ゾウ,0
1034,4180001159203,新規,0,2023-12-05,2023-12-05,株式会社ＧＲＩＴ　ＡＳＳＯＣＩＡＴＥ,,株式会社,愛知県,名古屋市中区,栄５丁目２７番１２号,,23,106,4600008,,,,,,,2023-12-05,1,,,,,グリットアソシエイト,0
1046,4220001025714,新規,0,2023-12-05,2023-12-05,株式会社イーアンドエフ,,株式会社,石川県,白山市,水島町５７７番地１,,17,210,9240855,,,,,,,2023-12-05,1,,,,,イーアンドエフ,0
1047,4220001025722,新規,0,2023-12-05,2023-12-05,株式会社ｔｒｕｎｋ,,株式会社,石川県,金沢市,保古１丁目３２番地,,17,201,9218052,,,,,,,2023-12-05,1,,,,,トランク,0
1050,4250001020415,新規,0,2023-12-05,2023-12-05,株式会社浜花クレーン,,株式会社,山口県,周南市,室尾２丁目８番１０号,,35,215,7460053,,,,,,,2023-12-05,1,,,,,ハマハナクレーン,0
1055,4290001103950,新規,0,2023-12-05,2023-12-05,株式会社ＴＩＭＥＬＥＳＳ,,株式会社,福岡県,太宰府市,連歌屋２丁目９番１７号,,40,221,8180119,,,,,,,2023-12-05,1,,,,,タイムレス,0
1059,4290801030106,新規,0,2023-12-05,2023-12-05,株式会社ナマゴマトレーディングカンパニー,,株式会社,福岡県,宮若市,平６５５,,40,226,8220141,,,,,,,2023-12-05,1,,,,,ナマゴマトレーディングカンパニー,0
1061,4310001018733,新規,0,2023-12-05,2023-12-05,株式会社フォレストテラスウェディングス,,株式会社,長崎県,長崎市,稲佐町２番２号,,42,201,8528011,,,,,,,2023-12-05,1,,,,,フォレストテラスウェディングス,0
1067,4330003010109,新規,0,2023-12-05,2023-12-05,合同会社ＧＥＮＵＩＮＥ　ＰＡＲＴＳ,,合同会社,熊本県,菊池郡菊陽町,武蔵ヶ丘北２丁目１７番７号,,43,404,8691112,,,,,,,2023-12-05,1,,,,,ジュニュインパーツ,0
1068,4340001026106,新規,0,2023-12-05,2023-12-05,奄美アイランドドローン株式会社,,株式会社,鹿児島県,大島郡瀬戸内町,大字古仁屋字船津２３番地,,46,525,8941506,,,,,,,2023-12-05,1,,,,,アマミアイランドドローン,0
1069,4350005006193,新規,0,2023-12-05,2023-12-05,一般社団法人朝山牧場,,その他の設立登記法人,宮崎県,宮崎市,橘通東４丁目１－４,,45,201,8800805,,,,,,,2023-12-05,1,,,,,,0
1072,4360001032903,新規,0,2023-12-05,2023-12-05,スリーエフ沖縄株式会社,,株式会社,沖縄県,中頭郡中城村,字北上原４４９番地３,,47,328,9012423,,,,,,,2023-12-05,1,,,,,スリーエフオキナワ,0
1073,4370001050697,新規,0,2023-12-05,2023-12-05,サンライト株式会社,,株式会社,宮城県,仙台市青葉区,一番町１丁目６番４－２号３Ｆ,,04,101,9800811,,,,,,,2023-12-05,1,,,,,サンライト,0
1079,4410001013658,新規,0,2023-12-05,2023-12-05,株式会社おんわあど,,株式会社,秋田県,横手市,条里１丁目１６番６号,,05,203,0130060,,,,,,,2023-12-05,1,,,,,オンワアド,0
1084,4430001090563,新規,0,2023-12-05,2023-12-05,ランベルジャパン株式会社,,株式会社,北海道,札幌市中央区,北九条西１８丁目３５番地８７,,01,101,0600009,,,,,,,2023-12-05,1,,,,,ランベルジャパン,0
1085,4430001090571,新規,0,2023-12-05,2023-12-05,ＫＮホールディングス株式会社,,株式会社,北海道,札幌市手稲区,曙二条４丁目４番１５号,,01,109,0060832,,,,,,,2023-12-05,1,,,,,ケーエヌホールディングス,0
1092,4460101007472,新規,0,2023-12-05,2023-12-05,健康堂株式会社,,株式会社,北海道,河東郡音更町,大通７丁目３番地,,01,631,0800101,,,,,,,2023-12-05,1,,,,,,0
1093,4460103001580,新規,0,2023-12-05,2023-12-05,合同会社Ｉ　ＳＥＥＤ,,合同会社,北海道,河東郡音更町,木野西通１０丁目１－９ラフォーレ待夢１０３,,01,631,0800302,,,,,,,2023-12-05,1,,,,,,0
1096,4480001012307,新規,0,2023-12-05,2023-12-05,フューチャーズ株式会社,,株式会社,徳島県,徳島市,庄町３丁目５３番地の３,,36,201,7700044,,,,,,,2023-12-05,1,,,,,フューチャーズ,0
1106,5010001240449,新規,0,2023-12-05,2023-12-05,千戸株式会社,,株式会社,東京都,文京区,本郷１丁目５番１７号三洋ビル５５号室,,13,105,1130033,,,,,,,2023-12-05,1,,,,,センド,0
1107,5010001240515,新規,0,2023-12-05,2023-12-05,テクノブレイブホールディングス株式会社,,株式会社,東京都,千代田区,内神田１丁目２番８号,,13,101,1010047,,,,,,,2023-12-05,1,,,,,テクノブレイブホールディングス,0
1115,5010003042356,新規,0,2023-12-05,2023-12-05,合同会社ｃｔｗ,,合同会社,東京都,千代田区,平河町１丁目８－２山京半蔵門パレス９階,,13,101,1020093,,,,,,,2023-12-05,1,,,,,シーティーダブリュー,0
1116,5010005037593,新規,0,2023-12-05,2023-12-05,一般社団法人キャリアスポンサーシップ協会,,その他の設立登記法人,東京都,千代田区,六番町６番地４ＬＨ番町スクエア５階,,13,101,1020085,,,,,,,2023-12-05,1,,,,,キャリアスポンサーシップ,0
1119,5010401178891,新規,0,2023-12-05,2023-12-05,株式会社Ｇｌｏｂａｌ　Ｅｔｈｎｏｇｒａｐｈｙ　Ａｓｓｏｃｉａｔｉｏｎ,,株式会社,東京都,港区,六本木３丁目１５番３号,,13,103,1060032,,,,,,,2023-12-05,1,,,,,グローバルエスノグラフィアソシエーション,0
1141,5011001158524,新規,0,2023-12-05,2023-12-05,Ｉ．Ｊ．Ｓ．株式会社,,株式会社,東京都,渋谷区,神宮前６丁目２３番４号桑野ビル２階,,13,113,1500001,,,,,,,2023-12-05,1,,,,,アイジェイエス,0
1142,5011001158598,新規,0,2023-12-05,2023-12-05,株式会社Ｒｅｍｅｄｉｃ,,株式会社,東京都,渋谷区,恵比寿４丁目２０番３号恵比寿ガーデンプレイスタワー８階,,13,113,1500013,,,,,,,2023-12-05,1,,,,,レメディック,0
1146,5011005010284,新規,0,2023-12-05,2023-12-05,一般社団法人モイスト,,その他の設立登記法人,東京都,渋谷区,恵比寿西１丁目２番１号エビスマンション６１０,,13,113,1500021,,,,,,,2023-12-05,1,,,,,モイスト,0
1149,5011101105351,新規,0,2023-12-05,2023-12-05,株式会社クラシックモダン,,株式会社,東京都,新宿区,新宿１丁目３６番２号新宿第七葉山ビル３Ｆ,,13,104,1600022,,,,,,,2023-12-05,1,,,,,クラシックモダン,0
1151,5011103013817,新規,0,2023-12-05,2023-12-05,合同会社ソガム,,合同会社,東京都,新宿区,大久保１丁目１５－１８号みゆきビル１０２号,,13,104,1690072,,,,,,,2023-12-05,1,,,,,ソガム,0
1155,5011501030067,新規,0,2023-12-05,2023-12-05,株式会社Ｔ‐Ｃｌｅａｎ,,株式会社,東京都,荒川区,荒川１丁目５６番７－６０１号,,13,118,1160002,,,,,,,2023-12-05,1,,,,,ティークリーン,0
1158,5011601027351,新規,0,2023-12-05,2023-12-05,株式会社絋真,,株式会社,東京都,練馬区,大泉学園町３丁目７番２５－３０６号,,13,120,1780061,,,,,,,2023-12-05,1,,,,,ヒロシン,0
1163,5012701017985,新規,0,2023-12-05,2023-12-05,株式会社ＯＳＫ,,株式会社,東京都,東久留米市,新川町２丁目３－１２新川ガーデンハウス１０５,,13,222,2030013,,,,,,,2023-12-05,1,,,,,オーエスケイ,0
1169,5013301051730,新規,0,2023-12-05,2023-12-05,エルフォルク不動産株式会社,,株式会社,東京都,豊島区,巣鴨５丁目１５－１３,,13,116,1700002,,,,,,,2023-12-05,1,,,,,エルフォルクリアルエステート,0
1176,5020001154739,新規,0,2023-12-05,2023-12-05,株式会社ＫＡＮＥＭＯＴＯ,,株式会社,神奈川県,横浜市磯子区,岡村２丁目７番２８号,,14,107,2350021,,,,,,,2023-12-05,1,,,,,,0
1187,5021001080850,新規,0,2023-12-05,2023-12-05,株式会社セブンシックス,,株式会社,神奈川県,鎌倉市,鎌倉山１丁目９番２４号,,14,204,2480031,,,,,,,2023-12-05,1,,,,,セブンシックス,0
1195,5030001157501,新規,0,2023-12-05,2023-12-05,ＳＯＮＧ　ＤＵＯＮＧ株式会社,,株式会社,埼玉県,川口市,西川口３丁目３０番１７号,,11,203,3320021,,,,,,,2023-12-05,1,,,,,ソンズオン,0
1207,5040001131182,新規,0,2023-12-05,2023-12-05,株式会社Ｓ‐ｃｏｍ,,株式会社,千葉県,君津市,常代５丁目３番１号,,12,225,2991121,,,,,,,2023-12-05,1,,,,,エスコム,0
1208,5040001131208,新規,0,2023-12-05,2023-12-05,太陽光発電相続相談所株式会社,,株式会社,千葉県,松戸市,根本１１９番地の３,,12,207,2710077,,,,,,,2023-12-05,1,,,,,タイヨウコウハツデンソウゾクソウダンショ,0
1209,5040001131216,新規,0,2023-12-05,2023-12-05,株式会社プラス・マーケティング,,株式会社,千葉県,佐倉市,ユーカリが丘４丁目１番１号スカイプラザ・モール３Ｆ佐倉市スマートオフィスプレイス内,,12,212,2850858,,,,,,,2023-12-05,1,,,,,プラスマーケティング,0
1210,5040001131224,新規,0,2023-12-05,2023-12-05,住吉建設株式会社,,株式会社,千葉県,流山市,大字西深井１０３番地の６,,12,220,2700107,,,,,,,2023-12-05,1,,,,,スミヨシケンセツ,0
1212,5040003023840,新規,0,2023-12-05,2023-12-05,ＬＩＮＺＡ　ＴＲＡＤＩＮＧ合同会社,,合同会社,千葉県,八街市,八街ろ１８５番地１４３、２階２０２号室,,12,230,2891144,,,,,,,2023-12-05,1,,,,,リンザトレーディング,0
1213,5040003023873,新規,0,2023-12-05,2023-12-05,合同会社エムズリンクス,,合同会社,千葉県,松戸市,胡録台３６３番地の７サニー松戸６０９号,,12,207,2710075,,,,,,,2023-12-05,1,,,,,エムズリンクス,0
1221,5060001036594,新規,0,2023-12-05,2023-12-05,ＮＭＳ株式会社,,株式会社,栃木県,足利市,大月町６６番地３,,09,202,3260005,,,,,,,2023-12-05,1,,,,,エヌエムエス,0
1238,5120001260304,新規,0,2023-12-05,2023-12-05,楽地株式会社,,株式会社,大阪府,大阪市西成区,玉出中２丁目１４番９号２０２室,,27,122,5570044,,,,,,,2023-12-05,1,,,,,ラクチ,0
1239,5120001260312,新規,0,2023-12-05,2023-12-05,株式会社マサゴ電工,,株式会社,大阪府,門真市,岸和田２丁目５番２号,,27,223,5710002,,,,,,,2023-12-05,1,,,,,マサゴデンコウ,0
1240,5120001260337,新規,0,2023-12-05,2023-12-05,誠都株式会社,,株式会社,大阪府,大阪市中央区,松屋町９番２０号ローレルステート松屋町６０９Ａ,,27,128,5420067,,,,,,,2023-12-05,1,,,,,マサト,0
1241,5120001260403,新規,0,2023-12-05,2023-12-05,俊合株式会社,,株式会社,大阪府,大阪市中央区,島之内２丁目１７番２２号,,27,128,5420082,,,,,,,2023-12-05,1,,,,,ジュンワ,0
1245,5120901048435,新規,0,2023-12-05,2023-12-05,株式会社ＲＡＮＺ,,株式会社,大阪府,摂津市,鳥飼中２丁目９番７号２Ａ,,27,224,5660064,,,,,,,2023-12-05,1,,,,,ランズ,0
1246,5120903004948,新規,0,2023-12-05,2023-12-05,Ｚｅｒｏ　Ｃ　Ｐｏｗｅｒ合同会社,,合同会社,大阪府,吹田市,津雲台１丁目１番３０－１１４号,,27,205,5650862,,,,,,,2023-12-05,1,,,,,ゼロシーパワー,0
1249,5122001037624,新規,0,2023-12-05,2023-12-05,株式会社日高硝子工業,,株式会社,大阪府,八尾市,山本町北７丁目２番６号,,27,212,5810831,,,,,,,2023-12-05,1,,,,,ヒダカガラスコウギョウ,0
1250,5122003002741,新規,0,2023-12-05,2023-12-05,ＰＨ合同会社,,合同会社,大阪府,東大阪市,吉田８丁目６番３号,,27,227,5780924,,,,,,,2023-12-05,1,,,,,ピーエイチ,0
1258,5140001132534,新規,0,2023-12-05,2023-12-05,株式会社総合陸運,,株式会社,兵庫県,尼崎市,大島１丁目３１－９,,28,202,6600076,,,,,,,2023-12-05,1,,,,,ソウゴウリクウン,0
1259,5140001132559,新規,0,2023-12-05,2023-12-05,株式会社永江建築設計事務所,,株式会社,兵庫県,西宮市,本町９－２２本町平成ビル２０１号,,28,204,6620914,,,,,,,2023-12-05,1,,,,,ナガエケンチクセッケイジムショ,0
1264,5140003019886,新規,0,2023-12-05,2023-12-05,合同会社豊,,合同会社,兵庫県,神戸市中央区,中山手通１丁目２２－２３藤正ファインクラフト２０３,,28,110,6500004,,,,,,,2023-12-05,1,,,,,ユタカ,0
1266,5140005026823,新規,0,2023-12-05,2023-12-05,一般社団法人ｍｉｋｋｅ．ｐｒｏｊｅｃｔ,,その他の設立登記法人,兵庫県,多可郡多可町,中区高岸２３１番地,,28,365,6791106,,,,,,,2023-12-05,1,,,,,ミッケプロジェクト,0
1268,5160001025538,新規,0,2023-12-05,2023-12-05,株式会社ＩＲＥ,,株式会社,滋賀県,栗東市,下鈎９２７番地,,25,208,5203026,,,,,,,2023-12-05,1,,,,,アイアールイー,0
1269,5160001025546,新規,0,2023-12-05,2023-12-05,三ツ星不動産株式会社,,株式会社,滋賀県,大津市,藤尾奥町１６－３３,,25,201,5200067,,,,,,,2023-12-05,1,,,,,ミツボシフドウサン,0
1283,5180001159111,新規,0,2023-12-05,2023-12-05,株式会社ピースワイドフィールド,,株式会社,愛知県,名古屋市緑区,藤塚３丁目１１１５番地の５,,23,114,4580813,,,,,,,2023-12-05,1,,,,,ピースワイドフィールド,0
1284,5180001159193,新規,0,2023-12-05,2023-12-05,株式会社フジシンＵＮＩＴＹ,,株式会社,愛知県,名古屋市北区,東味鋺１丁目２２３３番地ニワビレッジＴ１０２号,,23,103,4620013,,,,,,,2023-12-05,1,,,,,フジシンユニティ,0
1285,5180001159202,新規,0,2023-12-05,2023-12-05,株式会社Ｍｏｕｖｅｍｅｎｔ,,株式会社,愛知県,名古屋市中区,錦３丁目２２番２４号,,23,106,4600003,,,,,,,2023-12-05,1,,,,,ムーヴマン,0
1286,5180001159210,新規,0,2023-12-05,2023-12-05,株式会社オルフェーブル,,株式会社,愛知県,名古屋市中村区,城屋敷町１丁目２２番地（ファミリータイズ２０５号）,,23,105,4530058,,,,,,,2023-12-05,1,,,,,オルフェーブル,0
1289,5190001030931,新規,0,2023-12-05,2023-12-05,株式会社ＴＡＩＺＡＮ,,株式会社,三重県,松阪市,鎌田町４１７番地１,,24,204,5150005,,,,,,,2023-12-05,1,,,,,タイザン,0
1298,5220001025721,新規,0,2023-12-05,2023-12-05,株式会社フューシャス,,株式会社,石川県,金沢市,彦三町１丁目２番１号アソルティ金沢彦三１階,,17,201,9200901,,,,,,,2023-12-05,1,,,,,フューシャス,0
1302,5240001062498,新規,0,2023-12-05,2023-12-05,株式会社モギュ企画,,株式会社,広島県,広島市中区,大手町１丁目１番２６号大手町一番ビル３０５,,34,101,7300051,,,,,,,2023-12-05,1,,,,,モギュキカク,0
1318,5290001103891,新規,0,2023-12-05,2023-12-05,株式会社九州ＣＥ,,株式会社,福岡県,朝倉市,千手３８番地３,,40,228,8380017,,,,,,,2023-12-05,1,,,,,キュウシュウシーイー,0
1319,5290001103925,新規,0,2023-12-05,2023-12-05,株式会社ＭａＲｉＳａ,,株式会社,福岡県,福岡市東区,香椎照葉２丁目３番８０号,,40,131,8130017,,,,,,,2023-12-05,1,,,,,マリサ,0
1320,5290001103933,新規,0,2023-12-05,2023-12-05,株式会社サークル,,株式会社,福岡県,福岡市中央区,赤坂１丁目８番２３号,,40,133,8100042,,,,,,,2023-12-05,1,,,,,サークル,0
1326,5320001020175,新規,0,2023-12-05,2023-12-05,株式会社ファンブリッジ,,株式会社,大分県,宇佐市,大字南宇佐２１６７番地の６,,44,211,8720102,,,,,,,2023-12-05,1,,,,,ファンブリッジ,0
1328,5330001031543,新規,0,2023-12-05,2023-12-05,株式会社羯磨興業,,株式会社,熊本県,合志市,御代志１６６５番地１３６,,43,216,8611104,,,,,,,2023-12-05,1,,,,,カツマコウギョウ,0
1329,5340001026105,新規,0,2023-12-05,2023-12-05,株式会社牧畜産,,株式会社,鹿児島県,大島郡与論町,大字立長２４００番地１,,46,535,8919302,,,,,,,2023-12-05,1,,,,,マキチクサン,0
1330,5350003004512,新規,0,2023-12-05,2023-12-05,合同会社ミレイ,,合同会社,宮崎県,宮崎市,大坪西２丁目１０番１３号,,45,201,8800932,,,,,,,2023-12-05,1,,,,,ミレイ,0
1335,5360001032885,新規,0,2023-12-05,2023-12-05,株式会社ＮＡＫＡ総合リフォーム,,株式会社,沖縄県,那覇市,首里桃原町１丁目２番地コーポなかむら４０２,,47,201,9030822,,,,,,,2023-12-05,1,,,,,ナカソウゴウリフォーム,0
1336,5360001032902,新規,0,2023-12-05,2023-12-05,株式会社カフークリエイト,,株式会社,沖縄県,沖縄市,泡瀬４丁目１番７号,,47,211,9042172,,,,,,,2023-12-05,1,,,,,カフークリエイト,0
1340,5360003013512,新規,0,2023-12-05,2023-12-05,合同会社ＣＯＰＡＣＡＢＡＮＡ　ＥＮＴＥＲＴＡＩＮＭＥＮＴ,,合同会社,沖縄県,国頭郡金武町,字金武４２６８－１２－１Ｆ,,47,314,9041201,,,,,,,2023-12-05,1,,,,,コパカバナエンターテイメント,0
1345,5370001050688,新規,0,2023-12-05,2023-12-05,株式会社イースト,,株式会社,宮城県,仙台市宮城野区,高砂２丁目２０番地の９,,04,102,9830014,,,,,,,2023-12-05,1,,,,,イースト,0
1353,5430001090570,新規,0,2023-12-05,2023-12-05,株式会社Ｍ’ｓ　ＣＯＭＰＡＮＹ,,株式会社,北海道,札幌市東区,北三十五条東６丁目３－２１,,01,103,0070835,,,,,,,2023-12-05,1,,,,,エムズカンパニー,0
1354,5430003015716,新規,0,2023-12-05,2023-12-05,合同会社バリースノルテ,,合同会社,北海道,札幌市北区,屯田五条１１丁目１番２号,,01,102,0020855,,,,,,,2023-12-05,1,,,,,バリースノルテ,0
1357,5450001014164,新規,0,2023-12-05,2023-12-05,株式会社ＬＩＧ,,株式会社,北海道,旭川市,南八条通２６丁目５８９番地の１４,,01,204,0788338,,,,,,,2023-12-05,1,,,,,リグ,0
1358,5470003002520,新規,0,2023-12-05,2023-12-05,合同会社四国まちづくり＆おもてなしプランニング,,合同会社,香川県,高松市,丸の内２番５号,,37,201,7600033,,,,,,,2023-12-05,1,,,,,シコクマチヅクリアンドオモテナシプランニング,0
1360,5480001012314,新規,0,2023-12-05,2023-12-05,株式会社ＲＩＮＯ,,株式会社,徳島県,吉野川市,川島町山田字中須賀１９番地１８,,36,205,7793302,,,,,,,2023-12-05,1,,,,,リノ,0
1368,5700150122510,新規,0,2023-12-05,2023-12-05,Ｓｈｅｎｚｈｅｎ　Ｈｕａｈｏｎｇ　Ｅｌｅｃｔｒｏｎｉｃ　Ｃｏｍｍｅｒｃｅ　Ｃｏ．，Ｌｔｄ．,,外国会社等,,,,,,,,Ｒｏｏｍ　５００６Ｆ，Ｂｌｏｃｋ　３，Ｅａｓｔ　Ｗｉｎｇ，Ｌａｏ　Ｂｉｎｇ　Ｂｕｉｌｄｉｎｇ，Ｎｏ．３０１２　Ｘｉｎｇｙｅ　Ｒｏａｄ，Ｘｉｘｉａｎｇ　Ｓｔｒｅｅｔ，Ｂａｏ’ａｎ　Ｄｉｓｔｒｉｃｔ，Ｓｈｅｎｚｈｅｎ　Ｃｉｔｙ,,,,,,2023-12-05,1,,,,,シエンジエンシーフワーホンデイエンズーシヤンウーヨウシエンゾーレンゴンスー,0
1369,5700150122519,新規,0,2023-12-05,2023-12-05,Ｓｈｅｎｚｈｅｎｓｈｉｄｏｎｇｆａｎｇｌａｎｔｏｎｇｘｕｎｋｅｊｉｙｏｕｘｉａｎｇｏｎｇｓｉ,,外国会社等,,,,,,,,ｆｕｈａｉｊｉｅｄａｏｈｅｐｉｎｇｓｈｅｑｕｙｏｎｇｈｅｌｕ４１ｈａｏ　ｔｏｎｇｆｕｙｕｇｏｎｇｙｅｑｕｈｅｐｉｎｇｄａｙｏｕｇｏｎｇｍａｏｄａｓｈａ７０２　ｓｈｅｎｚｈｅｎｓｈｉ，ｂａｏａｎｑｕ，Ｇｕａｎｇｄｏｎｇｓｈｅｎｇ,,,,,,2023-12-05,1,,,,,シンセンシウエストブルーコミユニケーシヨンテクノロジーカンパニリミテツド,0
1382,6010003042347,新規,0,2023-12-05,2023-12-05,嬬恋蓄電所合同会社,,合同会社,東京都,千代田区,内幸町１丁目１番３号,,13,101,1000011,,,,,,,2023-12-05,1,,,,,ツマゴイチクデンショ,0
1383,6010003042355,新規,0,2023-12-05,2023-12-05,合同会社ＰＯＮＩＸ,,合同会社,東京都,中央区,日本橋室町１丁目１１番１２号日本橋水野ビル７階,,13,102,1030022,,,,,,,2023-12-05,1,,,,,ポニックス,0
1387,6010005037584,新規,0,2023-12-05,2023-12-05,一般社団法人史蹟将門塚保存会,,その他の設立登記法人,東京都,千代田区,外神田２丁目１６番２号,,13,101,1010021,,,,,,,2023-12-05,1,,,,,シセキマサカドヅカホゾンカイ,0
1388,6010101015907,新規,0,2023-12-05,2023-12-05,株式会社キャリウェル,,株式会社,東京都,八王子市,新町２番５号,,13,201,1920065,,,,,,,2023-12-05,1,,,,,キャリウェル,0
1396,6010405022756,新規,0,2023-12-05,2023-12-05,一般社団法人讃えよう,,その他の設立登記法人,東京都,港区,赤坂９丁目５－２６ヴェラハイツ赤坂４０３号室,,13,103,1070052,,,,,,,2023-12-05,1,,,,,タタエヨウ,0
1406,6010703006980,新規,0,2023-12-05,2023-12-05,合同会社ｎａｎｏ　Ｄｅｓｉｇｎ,,合同会社,東京都,品川区,西五反田３丁目１５－６リードシー目黒不動前ビルＭＩＤＰＯＩＮＴ７－１,,13,109,1410031,,,,,,,2023-12-05,1,,,,,ナノデザイン,0
1408,6010803004769,新規,0,2023-12-05,2023-12-05,エフソリューション合同会社,,合同会社,東京都,大田区,蒲田４丁目３９番１号蒲田ステラＩＩ７０２,00132873,13,111,1440052,,,,,,,2023-12-05,1,,,,,エフソリューション,0
1414,6011001158507,新規,0,2023-12-05,2023-12-05,株式会社鈴木商店,,株式会社,東京都,渋谷区,恵比寿西１丁目３３番６号１階,,13,113,1500021,,,,,,,2023-12-05,1,,,,,スズキショウテン,0
1415,6011001158564,新規,0,2023-12-05,2023-12-05,株式会社ピギーバンク,,株式会社,東京都,渋谷区,道玄坂１丁目１０番８号渋谷道玄坂東急ビル２Ｆ－Ｃ,,13,113,1500043,,,,,,,2023-12-05,1,,,,,ピギーバンク,0
1416,6011001158597,新規,0,2023-12-05,2023-12-05,株式会社Ｐ．ＴＩＥＳ．ＰＳ,,株式会社,東京都,目黒区,祐天寺２丁目１５番１７号祐天寺サンタビル３０１,,13,110,1530052,,,,,,,2023-12-05,1,,,,,ピータイズピース,0
1421,6011101105334,新規,0,2023-12-05,2023-12-05,世通国際株式会社,,株式会社,東京都,新宿区,西新宿５丁目５－１－１６１２,,13,104,1600023,,,,,,,2023-12-05,1,,,,,セツウコクサイ,0
1422,6011101105359,新規,0,2023-12-05,2023-12-05,ＵＰＳＴＡＲＴ株式会社,,株式会社,東京都,新宿区,新宿６丁目２７番２９－２８０７号,,13,104,1600022,,,,,,,2023-12-05,1,,,,,アップスタート,0
1423,6011101105367,新規,0,2023-12-05,2023-12-05,株式会社ファルサムカレン,,株式会社,東京都,新宿区,高田馬場４丁目２６番１０号ハウス高田馬場２０３,,13,104,1690075,,,,,,,2023-12-05,1,,,,,ファルサムカレン,0
1426,6011105010877,新規,0,2023-12-05,2023-12-05,ＬＲＦ３ホールディングス一般社団法人,,その他の設立登記法人,東京都,新宿区,四谷２丁目９番地１５東京ユナイテッド綜合事務所内,,13,104,1600004,,,,,,,2023-12-05,1,,,,,エルアールエフスリープロパティーズ,0
1430,6011301029234,新規,0,2023-12-05,2023-12-05,株式会社結ぶ,,株式会社,東京都,杉並区,高円寺南２丁目８番１－４０４号ダイヤモンドマンション,,13,115,1660003,,,,,,,2023-12-05,1,,,,,ムスブ,0
1438,6011601027350,新規,0,2023-12-05,2023-12-05,株式会社コンテーゼ,,株式会社,東京都,練馬区,桜台６丁目３１番７号,,13,120,1760002,,,,,,,2023-12-05,1,,,,,コンテーゼ,0
1442,6011801043453,新規,0,2023-12-05,2023-12-05,ＭＡＴＲＩＸ株式会社,,株式会社,東京都,足立区,栗原３丁目２６番１号２Ｆ,,13,121,1230842,,,,,,,2023-12-05,1,,,,,マトリックス,0
1445,6012403006303,新規,0,2023-12-05,2023-12-05,合同会社ＣＯＲＥ,,合同会社,東京都,三鷹市,井の頭１丁目３―１４―２０２,,13,204,1810001,,,,,,,2023-12-05,1,,,,,コア,0
1472,6030001157517,新規,0,2023-12-05,2023-12-05,株式会社ｍｕｔｅ　ｆｕｒｎｉｔｕｒｅ,,株式会社,埼玉県,八潮市,大字浮塚８４５番地５,,11,234,3400835,,,,,,,2023-12-05,1,,,,,ミュートファニチャー,0
1473,6030001157533,新規,0,2023-12-05,2023-12-05,株式会社大濱美容アカデミー,,株式会社,埼玉県,さいたま市浦和区,北浦和１丁目１９番９号,,11,107,3300074,,,,,,,2023-12-05,1,,,,,オオハマビヨウアカデミー,0
1477,6030003023122,新規,0,2023-12-05,2023-12-05,ＡＨＳＡＮ　ＡＵＴＯ　ＴＲＡＤＩＮＧ合同会社,,合同会社,埼玉県,南埼玉郡宮代町,本田５丁目１３番１０号メゾン３番館１階１０１号室,,11,442,3450827,,,,,,,2023-12-05,1,,,,,アフサンオートトレーディング,0
1481,6040001131099,新規,0,2023-12-05,2023-12-05,スマイルホーム株式会社,,株式会社,千葉県,銚子市,清川町３丁目３番地９,,12,202,2880817,,,,,,,2023-12-05,1,,,,,スマイルホーム,0
1482,6040001131207,新規,0,2023-12-05,2023-12-05,大賢株式会社,,株式会社,千葉県,松戸市,上本郷３５２－１京葉ハイツ１０３号室,,12,207,2710064,,,,,,,2023-12-05,1,,,,,ヒロサト,0
1483,6040001131215,新規,0,2023-12-05,2023-12-05,株式会社ＧｒａｎＶａｌｏｒ,,株式会社,千葉県,鎌ケ谷市,富岡２丁目７番６６－２号,,12,224,2730101,,,,,,,2023-12-05,1,,,,,グランバロー,0
1484,6040001131231,新規,0,2023-12-05,2023-12-05,株式会社ＤＥＳＵ,,株式会社,千葉県,八街市,八街い９９番地２０２,,12,230,2891143,,,,,,,2023-12-05,1,,,,,デス,0
1489,6040003023848,新規,0,2023-12-05,2023-12-05,ヤスゼンデザインワークス合同会社,,合同会社,千葉県,千葉市美浜区,打瀬１丁目７番５号,,12,106,2610013,,,,,,,2023-12-05,1,,,,,ヤスゼンデザインワークス,0
1491,6050001053904,新規,0,2023-12-05,2023-12-05,株式会社スズキフーズカンパニー,,株式会社,茨城県,土浦市,有明町２番地３１関鉄ビル１階,,08,203,3000035,,,,,,,2023-12-05,1,,,,,スズキフーズカンパニー,0
1493,6060001036602,新規,0,2023-12-05,2023-12-05,株式会社ＡＤＡＰＴ　ｄｅｓｉｇｎ　ｏｆｆｉｃｅ,,株式会社,栃木県,宇都宮市,宮原４丁目４番１３号,,09,201,3200835,,,,,,,2023-12-05,1,,,,,アダプトデザインオフィス,0
1498,6070001041139,新規,0,2023-12-05,2023-12-05,株式会社Ｅｐｅｒｓ,,株式会社,群馬県,みどり市,笠懸町鹿４００３番地７,,10,212,3792313,,,,,,,2023-12-05,1,,,,,エパーズ,0
1503,6080003003103,新規,0,2023-12-05,2023-12-05,合同会社ＳＤＣＣ,,合同会社,静岡県,静岡市清水区,築地町５番６号,,22,103,4240944,,,,,,,2023-12-05,1,,,,,エスディーシーシー,0
1507,6090003002442,新規,0,2023-12-05,2023-12-05,Ｌｅｂｂ合同会社,,合同会社,山梨県,南都留郡富士河口湖町,小立８００４番地６,,19,430,4010302,,,,,,,2023-12-05,1,,,,,レブ,0
1510,6110001038015,新規,0,2023-12-05,2023-12-05,株式会社魚沼未来ファーム,,株式会社,新潟県,魚沼市,原１８１０番地,,15,225,9497422,,,,,,,2023-12-05,1,,,,,ウオヌマミライファーム,0
1520,6120001260336,新規,0,2023-12-05,2023-12-05,株式会社ＫＭ,,株式会社,大阪府,大阪市淀川区,十八条２丁目１８番１１０号,,27,123,5320001,,,,,,,2023-12-05,1,,,,,ケーエム,0
1521,6120001260377,新規,0,2023-12-05,2023-12-05,軽エクス株式会社,,株式会社,大阪府,大阪市生野区,巽北２丁目１８番２０号,00132882,27,116,5440004,,,,,,,2023-12-05,1,,,,,ケイエクス,0
1522,6120001260393,新規,0,2023-12-05,2023-12-05,株式会社ユズレイカ,,株式会社,大阪府,大阪市鶴見区,鶴見４丁目１０－２９大拓メゾン鶴見７０２,,27,124,5380053,,,,,,,2023-12-05,1,,,,,ユズレイカ,0
1526,6120103005556,新規,0,2023-12-05,2023-12-05,合同会社ＷＩＮＧＯＯＤ,,合同会社,大阪府,堺市東区,白鷺町３丁１２－１,,27,143,5998107,,,,,,,2023-12-05,1,,,,,ウィングッド,0
1534,6130001075840,新規,0,2023-12-05,2023-12-05,京都中聯株式会社,,株式会社,京都府,京都市伏見区,醍醐下端山町２－２２,,26,109,6011332,,,,,,,2023-12-05,1,,,,,キョウトチュウレン,0
1535,6130003009177,新規,0,2023-12-05,2023-12-05,合同会社苅谷,,合同会社,京都府,京都市中京区,西ノ京円町８番地,,26,104,6048463,,,,,,,2023-12-05,1,,,,,カリタニ,0
1541,6140001132525,新規,0,2023-12-05,2023-12-05,ＪＭ．Ａｒｔｅｃ株式会社,,株式会社,兵庫県,加古川市,尾上町今福３４１番地の１６,,28,210,6750027,,,,,,,2023-12-05,1,,,,,ジェイエムアーテック,0
1542,6140001132541,新規,0,2023-12-05,2023-12-05,三光株式会社,,株式会社,兵庫県,神戸市中央区,北長狭通４丁目２番１９号,,28,110,6500012,,,,,,,2023-12-05,1,,,,,サンコウ,0
1545,6140003019877,新規,0,2023-12-05,2023-12-05,合同会社ＯＮＥ　ＯＮ　ＯＮＥ,,合同会社,兵庫県,尼崎市,栗山町１丁目２２番１０号,,28,202,6610013,,,,,,,2023-12-05,1,,,,,ワンオンワン,0
1549,6150003003129,新規,0,2023-12-05,2023-12-05,合同会社ウチダ,,合同会社,奈良県,奈良市,学園大和町５丁目１３４番地,,29,201,6310041,,,,,,,2023-12-05,1,,,,,ウチダ,0
1553,6160001025537,新規,0,2023-12-05,2023-12-05,澤うるわし株式会社,,株式会社,滋賀県,長浜市,野寺町２０番地,,25,203,5260106,,,,,,,2023-12-05,1,,,,,サワウルワシ,0
1561,6180003026077,新規,0,2023-12-05,2023-12-05,合同会社カフナネア,,合同会社,愛知県,江南市,布袋下山町東４７番地レスポワールエス２０３号,,23,217,4838142,,,,,,,2023-12-05,1,,,,,カフナネア,0
1576,6220001025720,新規,0,2023-12-05,2023-12-05,株式会社スライヴ,,株式会社,石川県,金沢市,赤土町ト８７番地,,17,201,9200353,,,,,,,2023-12-05,1,,,,,スライヴ,0
1578,6220005008795,新規,0,2023-12-05,2023-12-05,一般社団法人不動産終活支援機構石川,,その他の設立登記法人,石川県,金沢市,久安１丁目４０５番地,,17,201,9218164,,,,,,,2023-12-05,1,,,,,フドウサンシュウカツシエンキコウイシカワ,0
1580,6230003002106,新規,0,2023-12-05,2023-12-05,合同会社長山古美術,,合同会社,富山県,富山市,城村新町１２１,,16,201,9398115,,,,,,,2023-12-05,1,,,,,ナガヤマコビジュツ,0
1582,6240001062506,新規,0,2023-12-05,2023-12-05,株式会社プラスアルファ,,株式会社,広島県,広島市安佐南区,相田２丁目４番１７号,,34,105,7310141,,,,,,,2023-12-05,1,,,,,プラスアルファ,0
1590,6250001020413,新規,0,2023-12-05,2023-12-05,株式会社Ｃｒｙｓｔａｌ,,株式会社,山口県,下松市,古川町４丁目３－４明正ビル２０３,,35,207,7440005,,,,,,,2023-12-05,1,,,,,クリスタル,0
1594,6260001038520,新規,0,2023-12-05,2023-12-05,株式会社ＡＲＲＯＷＳ　ＮＥＸＴ,,株式会社,岡山県,岡山市北区,東古松４８８番地１３（２０３）,,33,101,7000921,,,,,,,2023-12-05,1,,,,,アローズネクスト,0
1596,6270003001582,新規,0,2023-12-05,2023-12-05,ｍｏｄｅｒｎ　ｒｏｏｍ合同会社,,合同会社,鳥取県,鳥取市,行徳１丁目１２２番地５,,31,201,6800824,,,,,,,2023-12-05,1,,,,,モダンルーム,0
1598,6290001103932,新規,0,2023-12-05,2023-12-05,株式会社ＴｒｙＡｒｔ,,株式会社,福岡県,福岡市南区,野間１丁目１番１－１４０８号,,40,134,8150041,,,,,,,2023-12-05,1,,,,,トライアート,0
1607,6300001013543,新規,0,2023-12-05,2023-12-05,株式会社江越住建,,株式会社,佐賀県,佐賀市,諸富町大字徳富１９１２番地２,,41,201,8402104,,,,,,,2023-12-05,1,,,,,エゴシジュウケン,0
1618,6340001026112,新規,0,2023-12-05,2023-12-05,株式会社おおぞら,,株式会社,鹿児島県,姶良市,加治木町新生町１１６番地,,46,225,8995223,,,,,,,2023-12-05,1,,,,,オオゾラ,0
1624,6360003013528,新規,0,2023-12-05,2023-12-05,合同会社０９,,合同会社,沖縄県,島尻郡八重瀬町,字安里１００番地２,,47,362,9010514,,,,,,,2023-12-05,1,,,,,ゼロキュー,0
1625,6360005006950,新規,0,2023-12-05,2023-12-05,一般社団法人おおそこ助産院,,その他の設立登記法人,沖縄県,石垣市,八島町２丁目１２番地６,,47,207,9070011,,,,,,,2023-12-05,1,,,,,オオソコジョサンイン,0
1626,6370001050695,新規,0,2023-12-05,2023-12-05,株式会社晴々,,株式会社,宮城県,仙台市青葉区,国分町２丁目１３番２１号,,04,101,9800803,,,,,,,2023-12-05,1,,,,,ハレバレ,0
1631,6380005012773,新規,0,2023-12-05,2023-12-05,司法書士法人あおい法務事務所,,その他の設立登記法人,福島県,田村市,常葉町常葉字常光寺１番地１,,07,211,9634602,,,,,,,2023-12-05,1,,,,,アオイホウムジムショ,0
1632,6390003002172,新規,0,2023-12-05,2023-12-05,合同会社Ｂｉｌｌｉｏｎ,,合同会社,山形県,山形市,旅篭町２丁目１番５号２０４号レーベン山形旅篭町,,06,201,9900047,,,,,,,2023-12-05,1,,,,,ビリオン,0
1638,6430003015715,新規,0,2023-12-05,2023-12-05,ＳＡＧＡ合同会社,,合同会社,北海道,虻田郡倶知安町,字末広４１番地５,,01,400,0440063,,,,,,,2023-12-05,1,,,,,サガ,0
1642,6480001012313,新規,0,2023-12-05,2023-12-05,株式会社パーソナルワークスラボ,,株式会社,徳島県,那賀郡那賀町,木頭助字蔭１６６番地,,36,368,7716401,,,,,,,2023-12-05,1,,,,,パーソナルワークスラボ,0
1647,6500001025337,新規,0,2023-12-05,2023-12-05,株式会社ＮｅｗＬｉｆｅ,,株式会社,愛媛県,松山市,大手町１丁目１３－１２チェリー大手町ビル４階,,38,201,7900067,,,,,,,2023-12-05,1,,,,,ニューライフ,0
1652,6700150122518,新規,0,2023-12-05,2023-12-05,Ｍｉｓｕ　Ｔｅｃｈｎｏｌｏｇｙ　ＴＯＷＡ　ＣＯ．，ＬＴＤ,,外国会社等,,,,,,,,ｓｈｅｎｚｈｅｎｓｈｉｂａｏａｎｑｕｆｕｙｏｎｇｊｉｅｄａｏｆｕｗｅｉｓｈｅｑｕｄｏｎｇｆｕｗｅｉｄｏｎｇｊｉｅ９９ｈａｏ２１２,,,,,,2023-12-05,1,,,,,ミイステクノロジートウワカンパニリミテツド,0
1657,7010001240505,新規,0,2023-12-05,2023-12-05,株式会社Ｋｕｍｏｒｉ　Ｌａｂｏ,,株式会社,東京都,千代田区,神田淡路町１丁目９番５号,,13,101,1010063,,,,,,,2023-12-05,1,,,,,クモリラボ,0
1659,7010003042296,新規,0,2023-12-05,2023-12-05,合同会社デザインマネジメントパートナーズ,,合同会社,東京都,中央区,銀座１丁目２２－１１銀座大竹ビジデンス２階,,13,102,1040061,,,,,,,2023-12-05,1,,,,,デザインマネジメントパートナーズ,0
1660,7010003042370,新規,0,2023-12-05,2023-12-05,ＭＳＰコンサルティング合同会社,,合同会社,東京都,中央区,新富１丁目１１番１０－１００６号,,13,102,1040041,,,,,,,2023-12-05,1,,,,,エムエスピーコンサルティング,0
1667,7010401178790,新規,0,2023-12-05,2023-12-05,株式会社ディープグリーンジャパン,,株式会社,東京都,港区,東麻布３丁目７番３号,,13,103,1060044,,,,,,,2023-12-05,1,,,,,ディープグリーンジャパン,0
1668,7010401178832,新規,0,2023-12-05,2023-12-05,株式会社ライジング,,株式会社,東京都,港区,赤坂１丁目１４番５号ＡＲＫＨＩＬＬＳＥＸＥＣＵＴＩＶＥＴＯＷＥＲ３０２,,13,103,1070052,,,,,,,2023-12-05,1,,,,,ライジング,0
1669,7010401178915,新規,0,2023-12-05,2023-12-05,築館アライアンス株式会社,,株式会社,東京都,港区,虎ノ門１丁目３番１号,,13,103,1050001,,,,,,,2023-12-05,1,,,,,ツキダテアライアンス,0
1671,7010403031493,新規,0,2023-12-05,2023-12-05,合同会社ＦＯＵＲ　ＳＥＡＳＯＮＳ,,合同会社,東京都,港区,南青山２丁目６番１５号南青山ガーデンコート８０１,,13,103,1070062,,,,,,,2023-12-05,1,,,,,フォーシーズンズ,0
1672,7010501051468,新規,0,2023-12-05,2023-12-05,ファンウェイブ株式会社,,株式会社,東京都,台東区,西浅草３丁目２番４号,,13,106,1110035,,,,,,,2023-12-05,1,,,,,ファンウェイブ,0
1677,7010601064254,新規,0,2023-12-05,2023-12-05,先端株式会社,,株式会社,東京都,墨田区,向島４丁目１番１－３０６号,,13,107,1310033,,,,,,,2023-12-05,1,,,,,センタン,0
1680,7010603010504,新規,0,2023-12-05,2023-12-05,合同会社華咲軽配,,合同会社,東京都,墨田区,八広４丁目４６番１１号,,13,107,1310041,,,,,,,2023-12-05,1,,,,,ハナサキケイハイ,0
1683,7010801034569,新規,0,2023-12-05,2023-12-05,Ｔｈｒｅｅ　Ｔｒｅｅｓ　Ｔｏｋｙｏ株式会社,,株式会社,東京都,大田区,池上７丁目２番７号,,13,111,1460082,,,,,,,2023-12-05,1,,,,,スリーツリーズトウキョウ,0
1687,7010803004768,新規,0,2023-12-05,2023-12-05,合同会社明海トレード企画,,合同会社,東京都,大田区,西蒲田５丁目１９番１４号ハイツ中村２０３,,13,111,1440051,,,,,,,2023-12-05,1,,,,,メイカイトレードキカク,0
1702,7011001158605,新規,0,2023-12-05,2023-12-05,株式会社ＶＡＭＯＳ,,株式会社,東京都,渋谷区,桜丘町２３番１７号シティコート桜丘４０８,,13,113,1500031,,,,,,,2023-12-05,1,,,,,バモス,0
1706,7011101105341,新規,0,2023-12-05,2023-12-05,株式会社Ｊ,,株式会社,東京都,新宿区,山吹町３０６番地１,,13,104,1620801,,,,,,,2023-12-05,1,,,,,ジェイ,0
1707,7011101105366,新規,0,2023-12-05,2023-12-05,株式会社ＫｏｎＫｏｎ　Ｃｏｍｐａｎｙ,,株式会社,東京都,新宿区,北新宿２丁目３番２１－２１０号,,13,104,1690074,,,,,,,2023-12-05,1,,,,,コンコンカンパニー,0
1712,7011105010876,新規,0,2023-12-05,2023-12-05,一般社団法人ダンデライオン,,その他の設立登記法人,東京都,新宿区,四谷２丁目９番地１５東京ユナイテッド綜合事務所内,,13,104,1600004,,,,,,,2023-12-05,1,,,,,ダンデライオン,0
1713,7011201025084,新規,0,2023-12-05,2023-12-05,株式会社ＡＲＫ,,株式会社,東京都,中野区,東中野４丁目１８番１号ニュー最上２０２号,,13,114,1640003,,,,,,,2023-12-05,1,,,,,アーク,0
1717,7011401025652,新規,0,2023-12-05,2023-12-05,株式会社ファースト,,株式会社,東京都,板橋区,成増５丁目１６番９－２０３号,,13,119,1750094,,,,,,,2023-12-05,1,,,,,ファースト,0
1719,7011601027341,新規,0,2023-12-05,2023-12-05,株式会社ＫＳＰ,,株式会社,東京都,練馬区,高松４丁目２４番１２号,,13,120,1790075,,,,,,,2023-12-05,1,,,,,ケーエスピー,0
1721,7011801043444,新規,0,2023-12-05,2023-12-05,株式会社豊栄グループ,,株式会社,東京都,足立区,古千谷本町２丁目２番１７号ベルウッド２０３,,13,121,1210832,,,,,,,2023-12-05,1,,,,,ホウエイグループ,0
1724,7012401041292,新規,0,2023-12-05,2023-12-05,株式会社ＨＬＳ,,株式会社,東京都,三鷹市,上連雀２丁目３番１－２０６号,,13,204,1810012,,,,,,,2023-12-05,1,,,,,エイチエルエス,0
1725,7012801022801,新規,0,2023-12-05,2023-12-05,株式会社ＳＥＶＥＮ,,株式会社,東京都,立川市,柴崎町３丁目４番３号,,13,202,1900023,,,,,,,2023-12-05,1,,,,,セブン,0
1727,7013301051729,新規,0,2023-12-05,2023-12-05,株式会社ＮＯＭＡ,,株式会社,東京都,豊島区,東池袋１丁目４４番１０号,,13,116,1700013,,,,,,,2023-12-05,1,,,,,ノマ,0
1728,7013303006904,新規,0,2023-12-05,2023-12-05,ＤＡＩＳＵＫＩ　ＭＹＡＮＭＡＲ合同会社,,合同会社,東京都,豊島区,南大塚１丁目３３－１２アドゥーブ南大塚３０３,,13,116,1700005,,,,,,,2023-12-05,1,,,,,ダイスキミャンマー,0
1731,7020001154737,新規,0,2023-12-05,2023-12-05,株式会社Ｔｈｒｅｅ　Ｔｒｅｅ,,株式会社,神奈川県,横浜市中区,野毛町２丁目８７番地１－９１１号,,14,104,2310064,,,,,,,2023-12-05,1,,,,,スリーツリー,0
1732,7020001154761,新規,0,2023-12-05,2023-12-05,株式会社ＩＢＪ,,株式会社,神奈川県,横浜市旭区,上川井町１１４５番地１,,14,112,2410802,,,,,,,2023-12-05,1,,,,,アイビージェイ,0
1736,7021003013864,新規,0,2023-12-05,2023-12-05,合同会社カセイ,,合同会社,神奈川県,小田原市,荻窪５４２番地の８,,14,206,2500042,,,,,,,2023-12-05,1,,,,,カセイ,0
1737,7030001157474,新規,0,2023-12-05,2023-12-05,パワー不動産株式会社,,株式会社,埼玉県,鴻巣市,本町８丁目５番３０号,,11,217,3650038,,,,,,,2023-12-05,1,,,,,パワーフドウサン,0
1738,7030001157482,新規,0,2023-12-05,2023-12-05,ＰＬパッケージ株式会社,,株式会社,埼玉県,吉川市,大字高久５５５番地,,11,243,3420035,,,,,,,2023-12-05,1,,,,,ピーエルパッケージ,0
1739,7030001157516,新規,0,2023-12-05,2023-12-05,株式会社フロンティア,,株式会社,埼玉県,春日部市,緑町１丁目１４番６０号,,11,214,3440063,,,,,,,2023-12-05,1,,,,,フロンティア,0
1746,7040001131197,新規,0,2023-12-05,2023-12-05,株式会社グルサポ,,株式会社,千葉県,鎌ケ谷市,東初富５丁目８番９－５号,,12,224,2730122,,,,,,,2023-12-05,1,,,,,グルサポ,0
1747,7040001131214,新規,0,2023-12-05,2023-12-05,株式会社ＨＯＷＡＲＤ　ＮＥＸＴ,,株式会社,千葉県,市川市,南八幡４丁目６番１８号,,12,203,2720023,,,,,,,2023-12-05,1,,,,,ホワードネクスト,0
1751,7040003023847,新規,0,2023-12-05,2023-12-05,ＨｔｏＹ合同会社,,合同会社,千葉県,柏市,正連寺２９５番地８２街区９,,12,217,2770814,,,,,,,2023-12-05,1,,,,,エイチトゥーワイ,0
1752,7040003023855,新規,0,2023-12-05,2023-12-05,合同会社コーシェリ,,合同会社,千葉県,千葉市花見川区,さつきが丘２丁目２３番地１３,,12,102,2620014,,,,,,,2023-12-05,1,,,,,コーシェリ,0
1753,7050001053886,新規,0,2023-12-05,2023-12-05,株式会社ＨＪ　Ｌｉｎｋ‐ｄｏ,,株式会社,茨城県,水戸市,宮町１丁目２番４号,,08,201,3100015,,,,,,,2023-12-05,1,,,,,エイチジェイリンクドゥ,0
1756,7060001036601,新規,0,2023-12-05,2023-12-05,Ａｓｉａ　Ｆｏｏｄ　Ｍａｒｔ株式会社,,株式会社,栃木県,栃木市,大平町富田３９９番地１５サンコーポ平成１－１０２,,09,203,3294404,,,,,,,2023-12-05,1,,,,,アジアフードマート,0
1762,7070001041146,新規,0,2023-12-05,2023-12-05,株式会社明陽商事,,株式会社,群馬県,前橋市,鳥羽町８１７番地１５,,10,201,3710845,,,,,,,2023-12-05,1,,,,,メイヨウショウジ,0
1767,7070003005181,新規,0,2023-12-05,2023-12-05,みち合同会社,,合同会社,群馬県,前橋市,亀里町８０４番地３,,10,201,3792147,,,,,,,2023-12-05,1,,,,,ミチ,0
1768,7080001026006,新規,0,2023-12-05,2023-12-05,ＳＭＥＸ株式会社,,株式会社,静岡県,島田市,大柳１３５８番地,,22,209,4270101,,,,,,,2023-12-05,1,,,,,エスメックス,0
1769,7080001026014,新規,0,2023-12-05,2023-12-05,ＫＡＭＮｇｒｏｗ株式会社,,株式会社,静岡県,静岡市葵区,柳町１５７番地コート・リヴィエール柳町４０２号,,22,101,4200007,,,,,,,2023-12-05,1,,,,,カミングロウ,0
1773,7100001037025,新規,0,2023-12-05,2023-12-05,株式会社塵表閣,,株式会社,長野県,下高井郡山ノ内町,大字平穏１４０９番地,,20,561,3810401,,,,,,,2023-12-05,1,,,,,ジンピョウカク,0
1776,7110001038006,新規,0,2023-12-05,2023-12-05,振嘉日本株式会社,,株式会社,新潟県,南魚沼郡湯沢町,大字三国２０５－１０西武ヴィラ３号館３３０９号室,,15,461,9496212,,,,,,,2023-12-05,1,,,,,シンカニホン,0
1782,7120001260244,新規,0,2023-12-05,2023-12-05,エムシーレフィラ株式会社,,株式会社,大阪府,大阪市淀川区,宮原１丁目１９－２３－６２７,,27,123,5320003,,,,,,,2023-12-05,1,,,,,エムシーレフィラ,0
1783,7120001260310,新規,0,2023-12-05,2023-12-05,昌鼎株式会社,,株式会社,大阪府,大阪市中央区,瓦町４丁目３－９－５０２号,,27,128,5410048,,,,,,,2023-12-05,1,,,,,ショウテイ,0
1784,7120001260392,新規,0,2023-12-05,2023-12-05,株式会社快速Ｌａｂｏ,,株式会社,大阪府,大阪市中央区,南船場１丁目１０番１２号１０１号室,,27,128,5420081,,,,,,,2023-12-05,1,,,,,カイソクラボ,0
1785,7120001260426,新規,0,2023-12-05,2023-12-05,也也株式会社,,株式会社,大阪府,大阪市中央区,南船場２丁目２番１３－１００１号,,27,128,5420081,,,,,,,2023-12-05,1,,,,,コレヤ,0
1787,7120003025463,新規,0,2023-12-05,2023-12-05,ＦＡＩＲ合同会社,,合同会社,大阪府,大阪市都島区,友渕町１丁目３番１２－８０１号,,27,102,5340016,,,,,,,2023-12-05,1,,,,,フェア,0
1788,7120005024026,新規,0,2023-12-05,2023-12-05,一般社団法人ウンガー村,,その他の設立登記法人,大阪府,大阪市東淀川区,相川２丁目１７番５号,,27,114,5330007,,,,,,,2023-12-05,1,,,,,ウンガームラ,0
1790,7120101068595,新規,0,2023-12-05,2023-12-05,株式会社ｋｏｋｏｒｏ,,株式会社,大阪府,泉南市,新家１３１５番地の１６,,27,228,5900503,,,,,,,2023-12-05,1,,,,,ココロ,0
1795,7122001037630,新規,0,2023-12-05,2023-12-05,株式会社ナチュレリテイリング,,株式会社,大阪府,八尾市,山本高安町２丁目４番５号,,27,212,5810021,,,,,,,2023-12-05,1,,,,,ナチュレリテイリング,0
1797,7130001075856,新規,0,2023-12-05,2023-12-05,プロエンジニア株式会社,,株式会社,京都府,京都市下京区,小稲荷町８５－６－６０３号,,26,106,6008208,,,,,,,2023-12-05,1,,,,,プロエンジニア,0
1798,7130003009176,新規,0,2023-12-05,2023-12-05,合同会社ＷＴ,,合同会社,京都府,京都市下京区,傘鉾町５４番地光月堂ビル５階,,26,106,6008494,,,,,,,2023-12-05,1,,,,,ダブルティ,0
1799,7130003009184,新規,0,2023-12-05,2023-12-05,合同会社ｗａｆｆｕｌ　ｄｅｓｉｇｎ,,合同会社,京都府,相楽郡精華町,精華台４丁目２７－１,,26,366,6190238,,,,,,,2023-12-05,1,,,,,ワッフルデザイン,0
1805,7140001132549,新規,0,2023-12-05,2023-12-05,株式会社ノア,,株式会社,兵庫県,姫路市,飾磨区阿成植木３９７番地,,28,201,6728030,,,,,,,2023-12-05,1,,,,,ノア,0
1806,7140001132581,新規,0,2023-12-05,2023-12-05,株式会社アイエスビー,,株式会社,兵庫県,神戸市灘区,下河原通２丁目１番５号３０２,,28,102,6570045,,,,,,,2023-12-05,1,,,,,アイエスビー,0
1810,7150001026915,新規,0,2023-12-05,2023-12-05,ＴＡＣ株式会社,,株式会社,奈良県,北葛城郡広陵町,大字平尾２３３番地,,29,426,6350822,,,,,,,2023-12-05,1,,,,,タック,0
1811,7160001025536,新規,0,2023-12-05,2023-12-05,株式会社Ｒａｓｅｅｋ,,株式会社,滋賀県,大津市,大江５丁目１番８号,,25,201,5202141,,,,,,,2023-12-05,1,,,,,ラシーク,0
1812,7160003003052,新規,0,2023-12-05,2023-12-05,丸金合同会社,,合同会社,滋賀県,長浜市,常喜町６６８,,25,203,5260823,,,,,,,2023-12-05,1,,,,,マルキン,0
1824,7180001159175,新規,0,2023-12-05,2023-12-05,株式会社アイジー,,株式会社,愛知県,名古屋市港区,寛政町７丁目２２番地の１,,23,111,4550066,,,,,,,2023-12-05,1,,,,,アイジー,0
1838,7210001019565,新規,0,2023-12-05,2023-12-05,株式会社ＬＥＭ,,株式会社,福井県,勝山市,昭和町１丁目８番２５号,,18,206,9110802,,,,,,,2023-12-05,1,,,,,レム,0
1846,7240001062505,新規,0,2023-12-05,2023-12-05,株式会社ｓｅｅｋｓ,,株式会社,広島県,広島市安佐南区,祇園１丁目１４番５－５０１号,,34,105,7310138,,,,,,,2023-12-05,1,,,,,シークス,0
1850,7240003006435,新規,0,2023-12-05,2023-12-05,Ｔｕｒｎｋｅｙ合同会社,,合同会社,広島県,福山市,南手城町２丁目１５―６モデルノ３０１,,34,207,7210963,,,,,,,2023-12-05,1,,,,,ターンキー,0
1855,7270001008884,新規,0,2023-12-05,2023-12-05,株式会社ＡＲＫ,,株式会社,鳥取県,境港市,麦垣町３３４５番地２,,31,204,6840052,,,,,,,2023-12-05,1,,,,,エイアールケイ,0
1858,7290001103907,新規,0,2023-12-05,2023-12-05,ツクリテ株式会社,,株式会社,福岡県,福岡市中央区,大名１丁目９番２４号ＭｏｔｈｅｒｈｏｕｓｅＤＡＩＭＹＯ４Ｆ－１,,40,133,8100041,,,,,,,2023-12-05,1,,,,,ツクリテ,0
1859,7290001103915,新規,0,2023-12-05,2023-12-05,株式会社アルコマネジメント,,株式会社,福岡県,福岡市南区,向野１丁目２１番６号,,40,134,8150035,,,,,,,2023-12-05,1,,,,,アルコマネジメント,0
1865,7310001018730,新規,0,2023-12-05,2023-12-05,株式会社ファインドシステム,,株式会社,長崎県,大村市,溝陸町１０２９番地１３９,,42,205,8560844,,,,,,,2023-12-05,1,,,,,ファインドシステム,0
1868,7330001031541,新規,0,2023-12-05,2023-12-05,株式会社深水,,株式会社,熊本県,八代市,八幡町７番３４号,,43,202,8660041,,,,,,,2023-12-05,1,,,,,フカミ,0
1871,7340003004321,新規,0,2023-12-05,2023-12-05,ガッツ合同会社,,合同会社,鹿児島県,鹿児島市,下荒田４丁目１６－２０,,46,201,8900056,,,,,,,2023-12-05,1,,,,,ガッツ,0
1875,7360001032891,新規,0,2023-12-05,2023-12-05,株式会社ナンブソバ,,株式会社,沖縄県,糸満市,潮崎町３丁目２－２,,47,210,9010364,,,,,,,2023-12-05,1,,,,,ナンブソバ,0
1876,7360003013527,新規,0,2023-12-05,2023-12-05,合同会社ＥＰＩＥ,,合同会社,沖縄県,沖縄市,泡瀬４丁目４７番２６号,,47,211,9042172,,,,,,,2023-12-05,1,,,,,エピイ,0
1878,7380001034168,新規,0,2023-12-05,2023-12-05,株式会社ＩＴレスキュー福島,,株式会社,福島県,郡山市,喜久田町堀之内字北原４,,07,203,9630541,,,,,,,2023-12-05,1,,,,,アイティーレスキューフクシマ,0
1884,7400001016477,新規,0,2023-12-05,2023-12-05,株式会社キクサー,,株式会社,岩手県,盛岡市,茶畑２丁目２４番１０号チャバタケｄｏｏｒｓ３Ｆ,,03,201,0200822,,,,,,,2023-12-05,1,,,,,キクサー,0
1889,7430001090544,新規,0,2023-12-05,2023-12-05,ＫＴＲエンタープライズ株式会社,,株式会社,北海道,虻田郡洞爺湖町,入江３７番地１,,01,584,0495603,,,,,,,2023-12-05,1,,,,,ケイテイアールエンタープライズ,0
1890,7430001090569,新規,0,2023-12-05,2023-12-05,株式会社悠生,,株式会社,北海道,札幌市西区,八軒三条西４丁目３番１８号,,01,107,0630843,,,,,,,2023-12-05,1,,,,,ユウセイ,0
1897,7450001014162,新規,0,2023-12-05,2023-12-05,株式会社クロップフィールド,,株式会社,北海道,雨竜郡北竜町,字板谷１２２番地１３,,01,437,0782511,,,,,,,2023-12-05,1,,,,,クロップフィールド,0
1903,7480003002055,新規,0,2023-12-05,2023-12-05,合同会社Ｎクロス,,合同会社,徳島県,徳島市,佐古一番町２番１５号,,36,201,7700021,,,,,,,2023-12-05,1,,,,,エヌクロス,0
1904,7490001010653,新規,0,2023-12-05,2023-12-05,株式会社高知ジオドクタ,,株式会社,高知県,高知市,大津乙１８２２番地１サーパス大津８０２,,39,201,7815103,,,,,,,2023-12-05,1,,,,,コウチジオドクタ,0
1909,7700150122509,新規,0,2023-12-05,2023-12-05,ｓｈｅｎｚｈｅｎｓｈｉｐａｎｌｅｉｚｈｉｎｅｎｇｋｅｊｉｙｏｕｘｉａｎｇｏｎｇｓｉ,,外国会社等,,,,,,,,ｌｏｎｇｈｕａｑｕｄａｌａｎｇｊｉｅｄａｏｌｉｒｏｎｇｌｕ５ｈａｏｗｅｉｈｕａｄａｇｏｎｇｙｅｙｕａｎＡｄｏｎｇ５０１　ｓｈｅｎｚｈｅｎ　ｇｕａｎｇｄｏｎｇ,,,,,,2023-12-05,1,,,,,シンセンシパンライインテリジエトテクノロジーカンパニリミテツド,0
1910,7700150122517,新規,0,2023-12-05,2023-12-05,Ｏｎｅ　Ｒｅｔａｉｌ　Ｇｒｏｕｐ　Ｌｉｍｉｔｅｄ,,外国会社等,,,,,,,,５　Ｔｅｃｈｎｏｌｏｇｙ　Ｐａｒｋ，Ｃｏｌｉｎｄｅｅｐ　Ｌａｎｅ，Ｃｏｌｉｎｄａｌｅ，Ｌｏｎｄｏｎ，Ｕｎｉｔｅｄ　Ｋｉｎｇｄｏｍ，ＮＷ９　６ＢＸ,,,,,,2023-12-05,1,,,,,ワンリテイルグループリミテツド,0
1911,7700150122525,新規,0,2023-12-05,2023-12-05,Ｈａｎｇｚｈｏｕ　Ｈｕａｃｈｅｎｇ　Ｎｅｔｗｏｒｋ　Ｔｅｃｈｎｏｌｏｇｙ　Ｃｏ．，Ｌｔｄ．,,外国会社等,,,,,,,,１３ｔｈ　Ｆｌｏｏｒ，Ｂｕｉｌｄｉｎｇ　３，Ｎｏ．５８２，Ｌｉｙｅ　Ｒｏａｄ，Ｃｈａｎｇｈｅ　Ｓｔｒｅｅｔ，Ｂｉｎｊｉａｎｇ　Ｄｉｓｔｒｉｃｔ，Ｈａｎｇｚｈｏｕ，Ｃｈｉｎａ（Ｚｈｅｊｉａｎｇ）Ｐｉｌｏｔ　Ｆｒｅｅ　Ｔｒａｄｅ　Ｚｏｎｅ,,,,,,2023-12-05,1,,,,,フアチエンネツトワーツクテクノロジーカンパニリミテツド,0
1915,8010001240504,新規,0,2023-12-05,2023-12-05,ＫＩＣＫコンサルティング株式会社,,株式会社,東京都,中央区,銀座１丁目１２番４号Ｎ＆ＥＢＬＤ．６Ｆ,,13,102,1040061,,,,,,,2023-12-05,1,,,,,キックコンサルティング,0
1916,8010001240512,新規,0,2023-12-05,2023-12-05,株式会社ＲｅＧＥＮＥＴ,,株式会社,東京都,中央区,銀座１丁目１２－４Ｎ＆ＥＢＬＤ．７階,,13,102,1040061,,,,,,,2023-12-05,1,,,,,リジェネット,0
1917,8010001240545,新規,0,2023-12-05,2023-12-05,ゴールドリードサプライチェーンデベロップメントジャパン株式会社,,株式会社,東京都,千代田区,霞が関３丁目２番１号,,13,101,1000013,,,,,,,2023-12-05,1,,,,,ゴールドリードサプライチェーンデベロップメントジャパン,0
1924,8010003042353,新規,0,2023-12-05,2023-12-05,合同会社バーディ,,合同会社,東京都,中央区,銀座７丁目５番５号長谷第一ビルＢ１,,13,102,1040061,,,,,,,2023-12-05,1,,,,,バーディ,0
1926,8010005037582,新規,0,2023-12-05,2023-12-05,一般社団法人サクセッション協会,,その他の設立登記法人,東京都,中央区,銀座６丁目２番１Ｄａｉｗａ銀座ビル８Ｆ,,13,102,1040061,,,,,,,2023-12-05,1,,,,,サクセッションキョウカイ,0
1927,8010005037590,新規,0,2023-12-05,2023-12-05,一般社団法人デジタル終活推進協議会,,その他の設立登記法人,東京都,千代田区,紀尾井町３番３３号,,13,101,1020094,,,,,,,2023-12-05,1,,,,,デジタルシュウカツスイシンキョウギカイ,0
1929,8010101015905,新規,0,2023-12-05,2023-12-05,株式会社清風,,株式会社,東京都,八王子市,鑓水２丁目８１番地２、１－１３０３,,13,201,1920375,,,,,,,2023-12-05,1,,,,,セイフウ,0
1939,8010401178889,新規,0,2023-12-05,2023-12-05,株式会社Ａｙ‐ｎｏｂｌｅ,,株式会社,東京都,港区,浜松町２丁目２番１５号浜松町ダイヤビル２Ｆ,,13,103,1050013,,,,,,,2023-12-05,1,,,,,エーワイノーブル,0
1944,8010403031484,新規,0,2023-12-05,2023-12-05,Ａｎｕｐａｍ　Ｊａｐａｎ合同会社,,合同会社,東京都,港区,港南２丁目１５番１号品川インターシティＡ棟２８階,,13,103,1080075,,,,,,,2023-12-05,1,,,,,アヌパムジャパン,0
1949,8010603010511,新規,0,2023-12-05,2023-12-05,合同会社オクイ,,合同会社,東京都,墨田区,太平１丁目１６‐５‐４０１,,13,107,1300012,,,,,,,2023-12-05,1,,,,,オクイ,0
1954,8010901054276,新規,0,2023-12-05,2023-12-05,株式会社ねむの木,,株式会社,東京都,世田谷区,等々力５丁目６番８号辻ビル１階,,13,112,1580082,,,,,,,2023-12-05,1,,,,,ネムノキ,0
1955,8010901054292,新規,0,2023-12-05,2023-12-05,株式会社エニィエッジ,,株式会社,東京都,世田谷区,経堂１丁目１７番１１号アペックス経堂１階・２階,,13,112,1560052,,,,,,,2023-12-05,1,,,,,エニィエッジ,0
1972,8011101105340,新規,0,2023-12-05,2023-12-05,株式会社Ｅｉｇｈｔ　Ｇｒｏｕｐ,,株式会社,東京都,新宿区,歌舞伎町２丁目２０番９号,,13,104,1600021,,,,,,,2023-12-05,1,,,,,エイトグループ,0
1977,8011103013772,新規,0,2023-12-05,2023-12-05,合同会社ＡＯ,,合同会社,東京都,新宿区,西新宿３丁目３番１３号西新宿水間ビル２Ｆ,,13,104,1600023,,,,,,,2023-12-05,1,,,,,エーオー,0
1980,8011201025083,新規,0,2023-12-05,2023-12-05,株式会社ＫＯＭＩ,,株式会社,東京都,中野区,中野３丁目１５番４号,,13,114,1640001,,,,,,,2023-12-05,1,,,,,コミ,0
1982,8011301029224,新規,0,2023-12-05,2023-12-05,株式会社ＫＧＶ,,株式会社,東京都,杉並区,和泉２丁目２番８号,,13,115,1680063,,,,,,,2023-12-05,1,,,,,ケージーブイ,0
1985,8011401025577,新規,0,2023-12-05,2023-12-05,＿潤昊商事株式会社,00132875,株式会社,東京都,板橋区,前野町３丁目１８番１号ファーストヴィレッジ１０１号室,,13,119,1740063,,,,,,,2023-12-05,1,,,,,ブンジュンコウショウジ,0
1987,8011501030031,新規,0,2023-12-05,2023-12-05,ＳＡＮＴＩＭＥ株式会社,,株式会社,東京都,荒川区,西尾久８丁目４４番３０－９０７号,,13,118,1160011,,,,,,,2023-12-05,1,,,,,サンティーミ,0
1994,8012401041283,新規,0,2023-12-05,2023-12-05,株式会社ＰＡＲＡＬＬＥＬ　ＣＲＯＳＳ　ＤＥＳＩＧＮ,,株式会社,東京都,府中市,天神町１丁目１２番地の１２フィール天神町１号棟３０３,,13,206,1830053,,,,,,,2023-12-05,1,,,,,パラレルクロスデザイン,0
1998,8013303006894,新規,0,2023-12-05,2023-12-05,合同会社たーしゃん,,合同会社,東京都,豊島区,北大塚１丁目１６番５号パークアクシス大塚ステーションゲートタワー７１０号,,13,116,1700004,,,,,,,2023-12-05,1,,,,,ターシャン,0
2002,8020001154645,新規,0,2023-12-05,2023-12-05,株式会社エヌエス企画,,株式会社,神奈川県,川崎市川崎区,鋼管通４丁目９番１３号２,,14,131,2100852,,,,,,,2023-12-05,1,,,,,エヌエスキカク,0
2005,8020003025118,新規,0,2023-12-05,2023-12-05,ゴールデンマッシュ合同会社,,合同会社,神奈川県,川崎市麻生区,高石３丁目３５番４－２０１号,,14,137,2150003,,,,,,,2023-12-05,1,,,,,ゴールデンマッシュ,0
2007,8020005016189,新規,0,2023-12-05,2023-12-05,横浜建設一般労働組合港南支部,,その他の設立登記法人,神奈川県,横浜市港南区,港南５丁目１番３０号,,14,111,2330003,,,,,,,2023-12-05,1,,,,,ヨコハマケンセツイッパンコウナンシブ,0
2026,8030001157457,新規,0,2023-12-05,2023-12-05,株式会社谷塚警備隊,,株式会社,埼玉県,草加市,谷塚町５５０番地,,11,221,3400023,,,,,,,2023-12-05,1,,,,,ヤツカケイビタイ,0
2027,8030001157498,新規,0,2023-12-05,2023-12-05,株式会社一人親方部会グループ,,株式会社,埼玉県,さいたま市岩槻区,本町６丁目１番３２号,,11,110,3390057,,,,,,,2023-12-05,1,,,,,ヒトリオヤカタブカイグループ,0
2035,8040001131196,新規,0,2023-12-05,2023-12-05,Ｋ２トランスポート株式会社,,株式会社,千葉県,印西市,松崎台２丁目３番地５,,12,231,2701338,,,,,,,2023-12-05,1,,,,,ケーツートランスポート,0
2036,8040001131221,新規,0,2023-12-05,2023-12-05,株式会社Ｅｉｇｈｔ　ａｒｃｓ,,株式会社,千葉県,野田市,上花輪新町４番地の２１,,12,208,2780034,,,,,,,2023-12-05,1,,,,,エイトアークス,0
2043,8040003023796,新規,0,2023-12-05,2023-12-05,合同会社ＮＤＭ,,合同会社,千葉県,印西市,草深１０３８番地１６,,12,231,2701337,,,,,,,2023-12-05,1,,,,,エヌディエム,0
2049,8060001036600,新規,0,2023-12-05,2023-12-05,株式会社巴工建,,株式会社,栃木県,那須塩原市,若草町１１８番地５０８,,09,213,3250032,,,,,,,2023-12-05,1,,,,,トモエコウケン,0
2051,8070003005180,新規,0,2023-12-05,2023-12-05,１９８５合同会社,,合同会社,群馬県,伊勢崎市,韮塚町４２７番地１メゾンドパレ２１－２０３,00132871,10,204,3720813,,,,,,,2023-12-05,1,,,,,イチキューハチゴー,0
2056,8080003003101,新規,0,2023-12-05,2023-12-05,合同会社マキノ企画,,合同会社,静岡県,静岡市清水区,由比北田１１０番地の６,,22,103,4213104,,,,,,,2023-12-05,1,,,,,マキノキカク,0
2060,8090003002440,新規,0,2023-12-05,2023-12-05,合同会社お寺のちから,,合同会社,山梨県,南巨摩郡身延町,身延３５１０番地,,19,365,4092524,,,,,,,2023-12-05,1,,,,,オテラノチカラ,0
2066,8110001038013,新規,0,2023-12-05,2023-12-05,グランレーヴ株式会社,,株式会社,新潟県,長岡市,来迎寺４０４０番地,,15,202,9495411,,,,,,,2023-12-05,1,,,,,グランレーヴ,0
2080,8120001260391,新規,0,2023-12-05,2023-12-05,株式会社太陽,,株式会社,大阪府,大阪市中央区,南船場１丁目３－１０サンライズ長堀５０６,,27,128,5420081,,,,,,,2023-12-05,1,,,,,タイヨウ,0
2081,8120001260409,新規,0,2023-12-05,2023-12-05,車屋株式会社,,株式会社,大阪府,大阪市西区,江戸堀１丁目２４番１５号,,27,106,5500002,,,,,,,2023-12-05,1,,,,,クルマヤ,0
2082,8120001260466,新規,0,2023-12-05,2023-12-05,株式会社あとむ,,株式会社,大阪府,大阪市西成区,千本南１丁目３－２４,,27,122,5570055,,,,,,,2023-12-05,1,,,,,アトム,0
2087,8120003025446,新規,0,2023-12-05,2023-12-05,リートシステム合同会社,,合同会社,大阪府,大阪市北区,梅田１丁目２番２号大阪駅前第２ビル１２－１２,,27,127,5300001,,,,,,,2023-12-05,1,,,,,リートシステム,0
2093,8120101068628,新規,0,2023-12-05,2023-12-05,株式会社ｔｏｎｅ．,,株式会社,大阪府,堺市東区,北野田５９番地１,,27,143,5998123,,,,,,,2023-12-05,1,,,,,トーン,0
2094,8120101068644,新規,0,2023-12-05,2023-12-05,株式会社ｋｎｏｓｐｅ,,株式会社,大阪府,南河内郡河南町,大字一須賀１７３番地の３,,27,382,5850002,,,,,,,2023-12-05,1,,,,,クノスペ,0
2095,8120105009792,新規,0,2023-12-05,2023-12-05,一般社団法人いきいきライフ協会南大阪,,その他の設立登記法人,大阪府,堺市堺区,三国ヶ丘御幸通１５４番地（２０１３号）,,27,141,5900028,,,,,,,2023-12-05,1,,,,,イキイキライフキョウカイミナミオオサカ,0
2104,8120901048440,新規,0,2023-12-05,2023-12-05,株式会社ファミーリエケア,,株式会社,大阪府,高槻市,弥生が丘町２８－２８,,27,207,5691021,,,,,,,2023-12-05,1,,,,,ファミーリエケア,0
2106,8120903004945,新規,0,2023-12-05,2023-12-05,ＫａｉＤｅｅ合同会社,,合同会社,大阪府,箕面市,桜１丁目１番２０号（２０３号）,,27,220,5620041,,,,,,,2023-12-05,1,,,,,カイディー,0
2109,8130001075847,新規,0,2023-12-05,2023-12-05,医食農同源株式会社,,株式会社,京都府,亀岡市,保津町訳目３６番地,,26,206,6210005,,,,,,,2023-12-05,1,,,,,イショクノウドウゲン,0
2110,8130001075863,新規,0,2023-12-05,2023-12-05,株式会社ＴＡＫＥＹＡ,,株式会社,京都府,京都市中京区,麩屋町通夷川上る笹屋町４５９番地１Ｆ,,26,104,6040983,,,,,,,2023-12-05,1,,,,,タケヤ,0
2111,8130003009175,新規,0,2023-12-05,2023-12-05,合同会社ＴＡＰ,,合同会社,京都府,京都市伏見区,深草野手町２０番地１４,,26,109,6120887,,,,,,,2023-12-05,1,,,,,タップ,0
2116,8140001132564,新規,0,2023-12-05,2023-12-05,株式会社Ｎｏａ,,株式会社,兵庫県,神戸市長田区,神楽町２丁目３番６号４Ｆ,,28,106,6530836,,,,,,,2023-12-05,1,,,,,ノア,0
2121,8140003019891,新規,0,2023-12-05,2023-12-05,合同会社健康プラス,,合同会社,兵庫県,加古川市,加古川町北在家７４９－１,,28,210,6750031,,,,,,,2023-12-05,1,,,,,ケンコウプラス,0
2126,8160001025535,新規,0,2023-12-05,2023-12-05,株式会社ラブーケ,,株式会社,滋賀県,草津市,追分７丁目７番１５号,,25,206,5250047,,,,,,,2023-12-05,1,,,,,,0
2128,8160003003051,新規,0,2023-12-05,2023-12-05,Ｊ＆Ｊ　ＦＯＯＤ合同会社,,合同会社,滋賀県,大津市,中庄１丁目１９－１２－１３０５,,25,201,5200837,,,,,,,2023-12-05,1,,,,,ジェイアンドジェイフード,0
2130,8170001017911,新規,0,2023-12-05,2023-12-05,株式会社豪商,,株式会社,和歌山県,和歌山市,吉田４７０番地ＡＳＡビルズ吉田ＩＩ２階２階南号室,00132883,30,201,6408343,,,,,,,2023-12-05,1,,,,,ゴウショウ,0
2131,8170003001954,新規,0,2023-12-05,2023-12-05,合同会社ヒュッゲ,,合同会社,和歌山県,東牟婁郡古座川町,長追２５５番地４,,30,424,6494444,,,,,,,2023-12-05,1,,,,,ヒュッゲ,0
2141,8180001159190,新規,0,2023-12-05,2023-12-05,株式会社タイセー,,株式会社,愛知県,名古屋市中村区,名駅４丁目２４番５号第２森ビル４０１,,23,105,4500002,,,,,,,2023-12-05,1,,,,,タイセー,0
2142,8180001159216,新規,0,2023-12-05,2023-12-05,株式会社グルスタ,,株式会社,愛知県,名古屋市中区,丸の内３丁目１３番１２号ＲＥＳＩＤＥＮＣＥ丸の内七間町８０１号,,23,106,4600002,,,,,,,2023-12-05,1,,,,,グルスタ,0
2146,8180003026075,新規,0,2023-12-05,2023-12-05,合同会社ＡｔｏＺ,,合同会社,愛知県,半田市,亀崎高根町６丁目８２番地の１１,,23,205,4750024,,,,,,,2023-12-05,1,,,,,エイトゥゼット,0
2150,8190005011891,新規,0,2023-12-05,2023-12-05,一般社団法人ＧＡＴＨＥＲＳ,,その他の設立登記法人,三重県,伊賀市,問屋町５２番地,,24,216,5180822,,,,,,,2023-12-05,1,,,,,ギャザーズ,0
2154,8200001041949,新規,0,2023-12-05,2023-12-05,株式会社リプラス,,株式会社,岐阜県,羽島郡岐南町,徳田１丁目２２４番地,,21,302,5016016,,,,,,,2023-12-05,1,,,,,リプラス,0
2159,8210001019564,新規,0,2023-12-05,2023-12-05,株式会社恐竜の森,,株式会社,福井県,勝山市,村岡町寺尾５１－１１公園管理事務所内,,18,206,9110023,,,,,,,2023-12-05,1,,,,,キョウリュウノモリ,0
2161,8230001020132,新規,0,2023-12-05,2023-12-05,株式会社リアルグッド,,株式会社,富山県,砺波市,高波１２６８番地,,16,208,9391341,,,,,,,2023-12-05,1,,,,,リアルグッド,0
2173,8260003004510,新規,0,2023-12-05,2023-12-05,合同会社Ｓ２,,合同会社,岡山県,岡山市北区,中央町９番１０号ＴＭ２２ビル２階,,33,101,7000836,,,,,,,2023-12-05,1,,,,,エスツー,0
2182,8290001103922,新規,0,2023-12-05,2023-12-05,ＣＣＥ株式会社,,株式会社,福岡県,福岡市西区,姪の浜２丁目３番１１号,,40,135,8190002,,,,,,,2023-12-05,1,,,,,シーシーイー,0
2183,8290001103939,新規,0,2023-12-05,2023-12-05,百年煮込み麺株式会社,,株式会社,福岡県,福岡市中央区,西中洲６番１５号,,40,133,8100002,,,,,,,2023-12-05,1,,,,,ヒャクネンニコミメン,0
2185,8290003014688,新規,0,2023-12-05,2023-12-05,ＬＡＹＵＰ合同会社,,合同会社,福岡県,福岡市中央区,赤坂１丁目１３番２８号ロマネスク赤坂６０１,,40,133,8100042,,,,,,,2023-12-05,1,,,,,レイアップ,0
2186,8300001013541,新規,0,2023-12-05,2023-12-05,株式会社香,,株式会社,佐賀県,三養基郡みやき町,大字簑原５８４６番地３,,41,346,8490102,,,,,,,2023-12-05,1,,,,,カオリ,0
2190,8310003004686,新規,0,2023-12-05,2023-12-05,合同会社ロザリウム,,合同会社,長崎県,長崎市,東町２４９１番地４３,,42,201,8510116,,,,,,,2023-12-05,1,,,,,ロザリウム,0
2193,8330001031540,新規,0,2023-12-05,2023-12-05,ＹＳＥＴ株式会社,,株式会社,熊本県,熊本市中央区,本山町２１１番地３,,43,101,8600822,,,,,,,2023-12-05,1,,,,,ワイエスイーティー,0
2199,8340001026110,新規,0,2023-12-05,2023-12-05,株式会社榮,,株式会社,鹿児島県,鹿児島市,新栄町１４番３０－５０１号,,46,201,8900072,,,,,,,2023-12-05,1,,,,,サカエ,0
2200,8360003013526,新規,0,2023-12-05,2023-12-05,合同会社ＴＭＲ,,合同会社,沖縄県,石垣市,新栄町１７番地１３,,47,207,9070014,,,,,,,2023-12-05,1,,,,,ティーエムアール,0
2205,8380003005629,新規,0,2023-12-05,2023-12-05,合名会社愛しかない,,合名会社,福島県,いわき市,平上荒川字桜町１番地１,,07,204,9708034,,,,,,,2023-12-05,1,,,,,アイシカナイ,0
2208,8410001013662,新規,0,2023-12-05,2023-12-05,株式会社クマイカンパニー,,株式会社,秋田県,秋田市,楢山城南新町３０番２４号,,05,201,0100038,,,,,,,2023-12-05,1,,,,,クマイカンパニー,0
2218,8430001090502,新規,0,2023-12-05,2023-12-05,株式会社エフズサービス,,株式会社,北海道,札幌市中央区,北三条西２８丁目１番２３号,,01,101,0640823,,,,,,,2023-12-05,1,,,,,エフズサービス,0
2220,8440003001563,新規,0,2023-12-05,2023-12-05,合同会社イーズ訪問看護ステーション,,合同会社,北海道,亀田郡七飯町,本町３丁目４番１６号,,01,337,0411111,,,,,,,2023-12-05,1,,,,,イーズホウモンカンゴステーション,0
2222,8470001019927,新規,0,2023-12-05,2023-12-05,株式会社ＲＡＧＡＩＮ,,株式会社,香川県,丸亀市,土器町東９丁目１２２番地１,,37,202,7630082,,,,,,,2023-12-05,1,,,,,ラゲイン,0
2223,8480001012311,新規,0,2023-12-05,2023-12-05,株式会社ＭＭＩ,,株式会社,徳島県,板野郡藍住町,徳命字前須東６１番地１,,36,403,7711212,,,,,,,2023-12-05,1,,,,,エムエムアイ,0
2224,8480003002054,新規,0,2023-12-05,2023-12-05,合同会社まどか,,合同会社,徳島県,徳島市,国府町芝原字天満１６番地の５,,36,201,7793112,,,,,,,2023-12-05,1,,,,,マドカ,0
2226,8500001025343,新規,0,2023-12-05,2023-12-05,株式会社ボディーチェンジャー,,株式会社,愛媛県,今治市,中寺１０５０番地１,,38,202,7940840,,,,,,,2023-12-05,1,,,,,,0
2229,8700150122516,新規,0,2023-12-05,2023-12-05,Ｆｏｕｒａ　Ｆｕｔｕｒｅｓ　Ｌｉｍｉｔｅｄ,,外国会社等,,,,,,,,Ｓｕｉｔｅ　３０９，Ｃａｐｉｔａｌ　Ｃｉｔｙ　Ｂｕｉｌｄｉｎｇ，Ｉｎｄｅｐｅｎｄｅｎｃｅ　Ａｖｅｎｕｅ，Ｖｉｃｔｏｒｉａ，Ｍａｈｅ，Ｒｅｐｕｂｌｉｃ　ｏｆ　Ｓｅｙｃｈｅｌｌｅｓ,,,,,,2023-12-05,1,,,,,フオーラフユーチヤーズリミテツド,0
2230,8700150122524,新規,0,2023-12-05,2023-12-05,ＺＨＥＪＩＡＮＧ　ＹＵＡＮＹＩ　ＨＯＵＳＥＨＯＬＤ　ＧＲＯＵＰ　ＣＯ．，ＬＴＤ．,,外国会社等,,,,,,,,Ｋｅｑｉａｏ　Ｗｏｒｌｄ　Ｔｒａｄｅ　Ｃｅｎｔｅｒ　（Ｓｏｕｔｈ　Ｄｉｓｔｒｉｃｔ），Ｋｅｑｉａｏ　Ｄｉｓｔｒｉｃｔ　ＳｈａｏｘｉｎｇＲｏｏｍ　２４０６，Ｂｕｉｌｄｉｎｇ　１６,,,,,,2023-12-05,1,,,,,セツコウユアンイーハウスホールドグループカンパニリミテツド,0
2237,9010001240536,新規,0,2023-12-05,2023-12-05,株式会社ヒューミート,,株式会社,東京都,中央区,日本橋箱崎町３１番４号４階,,13,102,1030015,,,,,,,2023-12-05,1,,,,,ヒューミート,0
2238,9010001240552,新規,0,2023-12-05,2023-12-05,株式会社ＩＣＥＬＡＮＤＣＯＯＬＥＲ,,株式会社,東京都,中央区,日本橋室町１丁目１１番１２号日本橋水野ビル７階,,13,102,1030022,,,,,,,2023-12-05,1,,,,,アイスランドクーラー,0
2245,9010003042294,新規,0,2023-12-05,2023-12-05,Ｔｈｅ　Ｐｅａｋ　Ｓｅｒｉｅｓ合同会社,,合同会社,東京都,千代田区,四番町４番地９新東京国際リーガル内,,13,101,1020081,,,,,,,2023-12-05,1,,,,,ザピークシリーズ,0
2246,9010003042369,新規,0,2023-12-05,2023-12-05,Ｄｕｏ合同会社,,合同会社,東京都,中央区,銀座１丁目２２番１１号銀座大竹ビジデンス２Ｆ,,13,102,1040061,,,,,,,2023-12-05,1,,,,,デュオ,0
2248,9010005037607,新規,0,2023-12-05,2023-12-05,一般社団法人東京セントラルリアルティ,,その他の設立登記法人,東京都,中央区,日本橋１丁目４番１号,,13,102,1030027,,,,,,,2023-12-05,1,,,,,トウキョウセントラルリアルティ,0
2263,9010401178822,新規,0,2023-12-05,2023-12-05,株式会社ｏｇｎ,,株式会社,東京都,港区,高輪３丁目１１番８－４０４号,,13,103,1080074,,,,,,,2023-12-05,1,,,,,オージーエヌ,0
2264,9010401178871,新規,0,2023-12-05,2023-12-05,株式会社ＬＥＶＡＮＳ,,株式会社,東京都,港区,南青山２丁目７番２７号フォレストサイド１地下１階,,13,103,1070062,,,,,,,2023-12-05,1,,,,,レヴァンス,0
2265,9010401178888,新規,0,2023-12-05,2023-12-05,株式会社Ｈａｎｊｉｎ　Ｇｌｏｂａｌ　Ｌｏｇｉｓｔｉｃｓ　Ｊａｐａｎ,,株式会社,東京都,港区,芝３丁目４番１５号東京ＫＡＬビル,,13,103,1050014,,,,,,,2023-12-05,1,,,,,ハンジングローバルロジティクスジャパン,0
2266,9010401178913,新規,0,2023-12-05,2023-12-05,株式会社ＹＯＧＯ,,株式会社,東京都,港区,南青山２丁目２番１５号ウィン９４２,,13,103,1070062,,,,,,,2023-12-05,1,,,,,ヨゴ,0
2267,9010403031491,新規,0,2023-12-05,2023-12-05,合同会社フィンテックサービス,,合同会社,東京都,港区,麻布十番３丁目１１番８－６０３号,,13,103,1060045,,,,,,,2023-12-05,1,,,,,フィンテックサービス,0
2270,9010503007235,新規,0,2023-12-05,2023-12-05,合同会社ＦＵＬＬ　ＨＯＵＳＥ,,合同会社,東京都,台東区,西浅草３丁目２２－３－２６２０,,13,106,1110035,,,,,,,2023-12-05,1,,,,,フルハウス,0
2271,9010601064244,新規,0,2023-12-05,2023-12-05,株式会社ハードワーク,,株式会社,東京都,江東区,南砂３丁目１４番２４号,,13,108,1360076,,,,,,,2023-12-05,1,,,,,ハードワーク,0
2275,9010703006978,新規,0,2023-12-05,2023-12-05,１ＵＰ合同会社,,合同会社,東京都,品川区,戸越３丁目８番２号Ｒ１０５４－００号室,,13,109,1420041,,,,,,,2023-12-05,1,,,,,ワンナップ,0
2278,9010901054275,新規,0,2023-12-05,2023-12-05,株式会社ビーマウントフィルム,,株式会社,東京都,世田谷区,北沢５丁目２６番１２号,,13,112,1550031,,,,,,,2023-12-05,1,,,,,ビーマウントフィルム,0
2294,9011001158529,新規,0,2023-12-05,2023-12-05,株式会社フェルナ,,株式会社,東京都,渋谷区,道玄坂１丁目１０番８号渋谷道玄坂東急ビル２Ｆ－Ｃ,,13,113,1500043,,,,,,,2023-12-05,1,,,,,フェルナ,0
2295,9011001158545,新規,0,2023-12-05,2023-12-05,株式会社猫ひげ,,株式会社,東京都,渋谷区,渋谷２丁目１９番１５号宮益坂ビルディング６０９,,13,113,1500002,,,,,,,2023-12-05,1,,,,,ネコヒゲ,0
2296,9011001158594,新規,0,2023-12-05,2023-12-05,日本コンサルタントアソシエーション株式会社,,株式会社,東京都,渋谷区,渋谷３丁目１番４号,,13,113,1500002,,,,,,,2023-12-05,1,,,,,ニホンコンサルタントアソシエーション,0
2298,9011003018020,新規,0,2023-12-05,2023-12-05,合同会社ＹＵＫＩＡ,,合同会社,東京都,渋谷区,本町４丁目３８番８号,,13,113,1510071,,,,,,,2023-12-05,1,,,,,ユキア,0
2303,9011103013796,新規,0,2023-12-05,2023-12-05,合同会社石川実業,,合同会社,東京都,新宿区,新宿７丁目１２番１号新宿平和ビル１階,,13,104,1600022,,,,,,,2023-12-05,1,,,,,イシカワジツギョウ,0
2307,9011301029215,新規,0,2023-12-05,2023-12-05,株式会社Ｗｈｉｔｅ　Ｍｏｏｎ,,株式会社,東京都,杉並区,高井戸東４丁目１１番２８号パールハイツ４０１,,13,115,1680072,,,,,,,2023-12-05,1,,,,,ホワイトムーン,0
2308,9011401025642,新規,0,2023-12-05,2023-12-05,株式会社現場シルク,,株式会社,東京都,板橋区,高島平３丁目１１番１０－３０１号,,13,119,1750082,,,,,,,2023-12-05,1,,,,,ゲンバシルク,0
2309,9011401025659,新規,0,2023-12-05,2023-12-05,株式会社ＳＯＮＧ　ＳＴＵＤＩＯ,,株式会社,東京都,板橋区,蓮沼町二丁目３１番２７号,,13,119,1740052,,,,,,,2023-12-05,1,,,,,ソンスタジオ,0
2311,9011501030071,新規,0,2023-12-05,2023-12-05,大恒商事株式会社,,株式会社,東京都,北区,中里１丁目２１番２号中里ビル１Ｆ,,13,117,1140015,,,,,,,2023-12-05,1,,,,,ダイコウショウジ,0
2317,9011801043442,新規,0,2023-12-05,2023-12-05,株式会社木村内装,,株式会社,東京都,葛飾区,高砂３丁目２９番１１号,,13,122,1250054,,,,,,,2023-12-05,1,,,,,キムラナイソウ,0
2318,9011801043459,新規,0,2023-12-05,2023-12-05,株式会社和田電気,,株式会社,東京都,足立区,江北７丁目７番１号プレミール江北３０１,,13,121,1230872,,,,,,,2023-12-05,1,,,,,ワダデンキ,0
2320,9012301013687,新規,0,2023-12-05,2023-12-05,町田フロッグエステート株式会社,,株式会社,東京都,町田市,南成瀬１丁目８番地１１芳栄ビル２－Ｄ,,13,209,1940045,,,,,,,2023-12-05,1,,,,,マチダフロッグエステート,0
2333,9013301051710,新規,0,2023-12-05,2023-12-05,株式会社クリアシステム,,株式会社,東京都,豊島区,南大塚２丁目１５番６号金文字ビル５０２号,,13,116,1700005,,,,,,,2023-12-05,1,,,,,クリアシステム,0
2340,9020001154751,新規,0,2023-12-05,2023-12-05,湘南ホールディングス株式会社,,株式会社,神奈川県,横浜市鶴見区,鶴見中央１丁目２６番１号,,14,101,2300051,,,,,,,2023-12-05,1,,,,,ショウナンホールディングス,0
2341,9020001154776,新規,0,2023-12-05,2023-12-05,株式会社ワイルドホーム,,株式会社,神奈川県,横浜市都筑区,川和町２２９６－８,,14,118,2240057,,,,,,,2023-12-05,1,,,,,ワイルドホーム,0
2347,9020003025117,新規,0,2023-12-05,2023-12-05,合同会社ミロク,,合同会社,神奈川県,横浜市旭区,今宿町２６５９番地２８,,14,112,2410813,,,,,,,2023-12-05,1,,,,,ミロク,0
2348,9020003025141,新規,0,2023-12-05,2023-12-05,合同会社さくら,,合同会社,神奈川県,横浜市泉区,弥生台５６―１５,,14,116,2450008,,,,,,,2023-12-05,1,,,,,サクラ,0
2358,9030003023128,新規,0,2023-12-05,2023-12-05,合同会社サンＧＨ,,合同会社,埼玉県,さいたま市岩槻区,大字小溝１１４７番地,,11,110,3390003,,,,,,,2023-12-05,1,,,,,サングリーンホールディングス,0
2361,9040001131204,新規,0,2023-12-05,2023-12-05,助工業株式会社,,株式会社,千葉県,千葉市花見川区,内山町８７番地,,12,102,2620002,,,,,,,2023-12-05,1,,,,,タスクコウギョウ,0
2363,9040003023829,新規,0,2023-12-05,2023-12-05,合同会社ルシェリア,,合同会社,千葉県,浦安市,弁天２丁目１－１－６１６,,12,227,2790026,,,,,,,2023-12-05,1,,,,,ルシェリア,0
2367,9060001036599,新規,0,2023-12-05,2023-12-05,株式会社ＬＩＦＥ　ｃｏｎｆｅｒｅｎｃｅ,,株式会社,栃木県,大田原市,紫塚１丁目１１番１４号山本アパート１３号,,09,210,3240058,,,,,,,2023-12-05,1,,,,,ライフカンファレンス,0
2373,9070001041136,新規,0,2023-12-05,2023-12-05,テクニカルウッド株式会社,,株式会社,群馬県,邑楽郡大泉町,坂田５丁目１４番１０号,,10,524,3700532,,,,,,,2023-12-05,1,,,,,テクニカルウッド,0
2374,9070001041144,新規,0,2023-12-05,2023-12-05,株式会社Ｈｏｌｏｍｕａ,,株式会社,群馬県,太田市,脇屋町８２６番地１,,10,205,3730031,,,,,,,2023-12-05,1,,,,,ホロムア,0
2381,9080001026012,新規,0,2023-12-05,2023-12-05,ドットアンドノード株式会社,,株式会社,静岡県,静岡市葵区,西門町２番１３号,,22,101,4200044,,,,,,,2023-12-05,1,,,,,ドットアンドノード,0
2391,9110001038012,新規,0,2023-12-05,2023-12-05,Ｍ２株式会社,,株式会社,新潟県,新潟市中央区,姥ケ山５丁目１２番１０号,,15,103,9500923,,,,,,,2023-12-05,1,,,,,エムツー,0
2400,9120001260374,新規,0,2023-12-05,2023-12-05,ＭＡＤＩＬＹＮ株式会社,,株式会社,大阪府,大阪市阿倍野区,阪南町１丁目５５番６号,,27,119,5450021,,,,,,,2023-12-05,1,,,,,マディリン,0
2401,9120001260382,新規,0,2023-12-05,2023-12-05,株式会社ＭＯＲＫＢＲＵＮ,,株式会社,大阪府,大阪市港区,弁天１丁目６番１７－１０５号,,27,107,5520007,,,,,,,2023-12-05,1,,,,,モルクブルン,0
2402,9120001260390,新規,0,2023-12-05,2023-12-05,株式会社Ｂａｒｏｎ,,株式会社,大阪府,大阪市西区,本田２丁目１３－１４ファーストフィオーレ九条ＩＩ１１０１号室,00132877,27,106,5500022,,,,,,,2023-12-05,1,,,,,バロン,0
2403,9120001260416,新規,0,2023-12-05,2023-12-05,株式会社楽旅トラベル,,株式会社,大阪府,大阪市西淀川区,中島１丁目３６－１,,27,113,5550041,,,,,,,2023-12-05,1,,,,,ラクタビトラベル,0
2405,9120003025445,新規,0,2023-12-05,2023-12-05,ｍＯｖｅ　Ｏｎ合同会社,,合同会社,大阪府,大阪市中央区,南船場４丁目１０番５号南船場ＳＯＨＯビル７０２,,27,128,5420081,,,,,,,2023-12-05,1,,,,,ムーブオン,0
2406,9120003025453,新規,0,2023-12-05,2023-12-05,合同会社屋根人,,合同会社,大阪府,大阪市淀川区,田川北２丁目５番４５号,,27,123,5320021,,,,,,,2023-12-05,1,,,,,ヤネジン,0
2407,9120005024008,新規,0,2023-12-05,2023-12-05,ＮＰＯ法人エンジョイキッズ,,その他の設立登記法人,大阪府,大阪市東淀川区,豊里７丁目２番７号,,27,114,5330013,,,,,,,2023-12-05,1,,,,,エンジョイキッズ,0
2408,9120101068635,新規,0,2023-12-05,2023-12-05,堺市ファーマシー株式会社,,株式会社,大阪府,堺市中区,深井沢町３２６５番地ミラージュ昌栄ビル１Ｆ,,27,142,5998236,,,,,,,2023-12-05,1,,,,,サカイシファーマシー,0
2410,9120901048448,新規,0,2023-12-05,2023-12-05,音楽事務所Ｕ字工房株式会社,,株式会社,大阪府,三島郡島本町,百山２２番１－６１９号,,27,301,6180021,,,,,,,2023-12-05,1,,,,,オンガクジムショユージコウボウ,0
2413,9122001037629,新規,0,2023-12-05,2023-12-05,株式会社ユーエス,,株式会社,大阪府,大東市,明美の里町３番４－１０１号,,27,218,5740003,,,,,,,2023-12-05,1,,,,,ユーエス,0
2415,9130003009182,新規,0,2023-12-05,2023-12-05,合同会社ファブル,,合同会社,京都府,京都市伏見区,深草鞍ケ谷４０番地１、３１０号,,26,109,6120822,,,,,,,2023-12-05,1,,,,,ファブル,0
2416,9130005016945,新規,0,2023-12-05,2023-12-05,一般社団法人清心会,,その他の設立登記法人,京都府,京都市東山区,三条通大橋東入大橋町１０２番地田中ビル３Ｆ,,26,105,6050009,,,,,,,2023-12-05,1,,,,,セイシンカイ,0
2427,9140001132588,新規,0,2023-12-05,2023-12-05,西関工業株式会社,,株式会社,兵庫県,加古川市,加古川町粟津３０１番地の９,,28,210,6750039,,,,,,,2023-12-05,1,,,,,ニシセキコウギョウ,0
2428,9140001132596,新規,0,2023-12-05,2023-12-05,株式会社あすなろ,,株式会社,兵庫県,西宮市,甲子園口２丁目２５番５－６０３号,,28,204,6638113,,,,,,,2023-12-05,1,,,,,アスナロ,0
2433,9140003019874,新規,0,2023-12-05,2023-12-05,合同会社サファイア経営事務所,,合同会社,兵庫県,神戸市中央区,加納町４丁目１０－３０,,28,110,6500001,,,,,,,2023-12-05,1,,,,,サファイアケイエイジムショ,0
2436,9160003003050,新規,0,2023-12-05,2023-12-05,ＣＯＣＯＫＡＲＡ　ＨＥＡＬＴＨ　ＰＲＯＭＯＴＩＯＮ合同会社,,合同会社,滋賀県,近江八幡市,鷹飼町５６４番地,,25,204,5230891,,,,,,,2023-12-05,1,,,,,ココカラヘルスプロモーション,0
2455,9180001159149,新規,0,2023-12-05,2023-12-05,株式会社吉禾,,株式会社,愛知県,名古屋市北区,中味鋺３丁目５１７番地,,23,103,4620015,,,,,,,2023-12-05,1,,,,,ヨシノギ,0
2456,9180001159181,新規,0,2023-12-05,2023-12-05,株式会社亜来住建,,株式会社,愛知県,清須市,春日砂賀東１０８番地,,23,233,4520962,,,,,,,2023-12-05,1,,,,,アライジュウケン,0
2464,9180003026066,新規,0,2023-12-05,2023-12-05,ＣＲＡＳＩＡＳ合同会社,,合同会社,愛知県,名古屋市守山区,金屋１丁目８番６号,,23,113,4630072,,,,,,,2023-12-05,1,,,,,クラシアス,0
2465,9180003026074,新規,0,2023-12-05,2023-12-05,アジャスト・モダーン合同会社,,合同会社,愛知県,名古屋市千種区,汁谷町１１番地（リーデンススクエア茶屋ケ坂７０４号）,,23,101,4640013,,,,,,,2023-12-05,1,,,,,アジャストモダーン,0
2466,9180301038085,新規,0,2023-12-05,2023-12-05,株式会社ファンファーレ,,株式会社,愛知県,豊川市,小田渕町４丁目７３番地,,23,207,4420844,,,,,,,2023-12-05,1,,,,,ファンファーレ,0
2476,9250001020419,新規,0,2023-12-05,2023-12-05,株式会社ＳＥＡＤＳ　ＣＯＭＰＡＮＹ,,株式会社,山口県,防府市,桑南２丁目１２番９－５号,,35,206,7470807,,,,,,,2023-12-05,1,,,,,シーズカンパニー,0
2481,9280003001793,新規,0,2023-12-05,2023-12-05,合同会社なかや企画,,合同会社,島根県,大田市,長久町稲用２５２番地４,,32,205,6940042,,,,,,,2023-12-05,1,,,,,ナカヤキカク,0
2496,9350001018691,新規,0,2023-12-05,2023-12-05,株式会社ＭＤＤ,,株式会社,宮崎県,宮崎市,中央通３番４６号松竹ビル２階,,45,201,8800002,,,,,,,2023-12-05,1,,,,,エムディーディー,0
2513,9400003003182,新規,0,2023-12-05,2023-12-05,合同会社ＰＲＯＰ　ＨＥＡＲＴＳ,,合同会社,岩手県,花巻市,高木第１３地割３番地,,03,205,0250016,,,,,,,2023-12-05,1,,,,,プロップハーツ,0
2514,9420001018503,新規,0,2023-12-05,2023-12-05,株式会社ＫＭＫ　ｐｒｅｖｉｓｉｏｎ,,株式会社,青森県,青森市,問屋町１丁目２番１０号,,02,201,0300131,,,,,,,2023-12-05,1,,,,,ケーエムケープレビジョン,0
2519,9440003001562,新規,0,2023-12-05,2023-12-05,合同会社フォースＢＷＹ,,合同会社,北海道,北斗市,東浜１丁目１０番１２号,,01,236,0490122,,,,,,,2023-12-05,1,,,,,フォースビーダブリューワイ,0
2525,9480001012310,新規,0,2023-12-05,2023-12-05,小橋設備株式会社,,株式会社,徳島県,板野郡板野町,大寺字岡山路８番地２５,,36,404,7790105,,,,,,,2023-12-05,1,,,,,オバシセツビ,0
2526,9500001025342,新規,0,2023-12-05,2023-12-05,株式会社リエゾンファーマシー,,株式会社,愛媛県,八幡浜市,矢野町徳雲坊４１６,,38,204,7968005,,,,,,,2023-12-05,1,,,,,リエゾンファーマシー,0
2530,9700150121946,新規,0,2023-12-05,2023-11-09,山形県庄内地区羽越新幹線整備実現同盟会,,その他,山形県,東田川郡三川町,大字横山字袖東１９－１,,06,426,9971301,,,,,,,2023-11-09,1,,,,,ヤマガタケンシヨウナイチクウエツシンカンセンセイビジツゲンドウメイカイ,0
2531,9700150122110,新規,0,2023-12-05,2023-11-14,中野坂上シティハウス管理組合,,その他,東京都,中野区,東中野２丁目６番２７,,13,114,1640003,,,,,,,2023-11-14,1,,,,,ナカノサカウエシテイハウスカンリクミアイ,0
2532,9700150122507,新規,0,2023-12-05,2023-12-04,千葉市中心市街地まちづくり協議会,,その他,千葉県,千葉市中央区,中央２丁目５－１,,12,101,2600013,,,,,,,2023-12-04,1,,,,,チバシチユウシンシガイチマチヅクリキヨウギカイ,0
2533,9700150122523,新規,0,2023-12-05,2023-12-05,Ｓｈａｎｇｈａｉ　Ｂｉｇ　Ｒｉｖｅｒ　Ｔｒａｄｉｎｇ　Ｓｅｒｖｉｃｅ　Ｃｏ．，Ｌｔｄ．,,外国会社等,,,,,,,,６０２－Ｃ０３，２　ｚｈｕａｎｇ，Ｎｏ．５６８，Ｔｉａｎｓｈａｎｘｉｌｕ，Ｃｈａｎｇｎｉｎｇ，Ｓｈａｎｇｈａｉ,,,,,,2023-12-05,1,,,,,シヤンハイビツグリバートレーテイングカンパニリミテツド,0
