sequenceNumber,corporateNumber,process,correct,updateDate,changeDate,name,nameImageId,kind,prefectureName,cityName,streetNumber,addressImageId,prefectureCode,cityCode,postCode,addressOutside,addressOutsideImageId,closeDate,closeCause,successorCorporateNumber,changeCause,assignmentDate,latest,enName,enPrefectureName,enCityName,enAddressOutside,furigana,hihyoji
7,1010001224711,新規,0,2022-03-01,2022-03-01,株式会社ＴｒａｎｓＭｅｄ,,株式会社,東京都,千代田区,九段南１丁目５番６号りそな九段ビル５Ｆ・ＫＳフロア,,13,101,1020074,,,,,,,2022-03-01,1,,,,,トランスメッド,0
8,1010001224760,新規,0,2022-03-01,2022-03-01,株式会社フルドリーム,,株式会社,東京都,千代田区,内神田２丁目３－７栗原ビル３Ｆ,,13,101,1010047,,,,,,,2022-03-01,1,,,,,フルドリーム,0
9,1010001224819,新規,0,2022-03-01,2022-03-01,ＥＡＲＴＨ株式会社,,株式会社,東京都,中央区,日本橋浜町２丁目５０－１Ｓ－ＲＥＳＩＤＥＮＣＥ日本橋浜町７０２号室,,13,102,1030007,,,,,,,2022-03-01,1,,,,,アース,0
10,1010001224827,新規,0,2022-03-01,2022-03-01,株式会社ＢＬＵＭＥ,,株式会社,東京都,千代田区,神田神保町３丁目４番地２９九段下ＳＳＴビル１階,,13,101,1010051,,,,,,,2022-03-01,1,,,,,ブルーメ,0
11,1010001224892,新規,0,2022-03-01,2022-03-01,Ｏｂｒａｓ株式会社,,株式会社,東京都,千代田区,大手町１丁目１番１号,,13,101,1000004,,,,,,,2022-03-01,1,,,,,オーブラス,0
12,1010001224926,新規,0,2022-03-01,2022-03-01,アバウトアス株式会社,,株式会社,東京都,中央区,日本橋浜町２丁目５４－５,,13,102,1030007,,,,,,,2022-03-01,1,,,,,アバウトアス,0
13,1010003037062,新規,0,2022-03-01,2022-03-01,合同会社Ｓ＆Ｍ,,合同会社,東京都,千代田区,麹町２丁目１０番地４,,13,101,1020083,,,,,,,2022-03-01,1,,,,,エスアンドエム,0
22,1010401165852,新規,0,2022-03-01,2022-03-01,株式会社ｓｔｅｌｌａ．Ｊ,,株式会社,東京都,港区,東麻布３丁目４番１９号パークアビタシオン１１０３,,13,103,1060044,,,,,,,2022-03-01,1,,,,,ステラジェイ,0
23,1010401165877,新規,0,2022-03-01,2022-03-01,株式会社ＲＲＲ,,株式会社,東京都,港区,六本木４丁目３番１１－１０１号,,13,103,1060032,,,,,,,2022-03-01,1,,,,,トリプルアール,0
25,1010403027175,新規,0,2022-03-01,2022-03-01,合同会社Ｏｒａｎｇｅ,,合同会社,東京都,港区,虎ノ門５丁目１番４号,,13,103,1050001,,,,,,,2022-03-01,1,,,,,オレンジ,0
26,1010503006517,新規,0,2022-03-01,2022-03-01,合同会社向丘ビジネスサポート,,合同会社,東京都,台東区,池之端２丁目９番４－３０２号,,13,106,1100008,,,,,,,2022-03-01,1,,,,,ムコウガオカビジネスサポート,0
31,1010901050414,新規,0,2022-03-01,2022-03-01,楽天あと株式会社,,株式会社,東京都,世田谷区,玉川１丁目１４番１号,,13,112,1580094,,,,,,,2022-03-01,1,,,,,ラクテンアト,0
37,1011001145955,新規,0,2022-03-01,2022-03-01,株式会社ｏｆｆｅｒ,,株式会社,東京都,渋谷区,神宮前６丁目２３番４号桑野ビル２階,,13,113,1500001,,,,,,,2022-03-01,1,,,,,オファー,0
39,1011005009454,新規,0,2022-03-01,2022-03-01,一般社団法人百番地,,その他の設立登記法人,東京都,渋谷区,渋谷３丁目２７番１号,,13,113,1500002,,,,,,,2022-03-01,1,,,,,ヒャクバンチ,0
46,1011103011519,新規,0,2022-03-01,2022-03-01,合同会社Ｓａｔｓｕｋｉ,,合同会社,東京都,新宿区,西新宿３丁目３番１３号西新宿水間ビル６階,,13,104,1600023,,,,,,,2022-03-01,1,,,,,サツキ,0
53,1011303004322,新規,0,2022-03-01,2022-03-01,合同会社ＶＩＳＩＯＮＤ,,合同会社,東京都,杉並区,荻窪１丁目２１－１６ビバリーハウスＮｏ．７Ｂ１,,13,115,1670051,,,,,,,2022-03-01,1,,,,,ビジョンド,0
59,1012703002411,新規,0,2022-03-01,2022-03-01,合同会社Ｗｉｌｌｐｉｎｅ,,合同会社,東京都,西東京市,向台町３丁目６番７号,,13,229,1880013,,,,,,,2022-03-01,1,,,,,ウィルパイン,0
62,1013301048747,新規,0,2022-03-01,2022-03-01,ムーンライト株式会社,,株式会社,東京都,豊島区,雑司が谷２丁目８－４－２０３,,13,116,1710032,,,,,,,2022-03-01,1,,,,,ムーンライト,0
66,1020001145436,新規,0,2022-03-01,2022-03-01,株式会社ＹＯＵＲ　ＬＩＦＥ,,株式会社,神奈川県,横浜市都筑区,牛久保西１丁目８番８号,,14,118,2240015,,,,,,,2022-03-01,1,,,,,ユアライフ,0
75,1020005015395,新規,0,2022-03-01,2022-03-01,一般社団法人ＰＳＰ・ＣＢＤのぞみの会,,その他の設立登記法人,神奈川県,横浜市中区,元町４丁目１６８ＢＩＺｃｏｍｆｏｒｔ元町ビルＢ１Ｆ,,14,104,2310861,,,,,,,2022-03-01,1,,,,,,0
76,1021001075301,新規,0,2022-03-01,2022-03-01,株式会社登建設,,株式会社,神奈川県,海老名市,めぐみ町５番６－２２０２,,14,215,2430438,,,,,,,2022-03-01,1,,,,,ノボルケンセツ,0
81,1030001146879,新規,0,2022-03-01,2022-03-01,株式会社ＨＩＲＯＵ,,株式会社,埼玉県,川口市,仲町８番１８号,,11,203,3320022,,,,,,,2022-03-01,1,,,,,ヒロウ,0
95,1040001122342,新規,0,2022-03-01,2022-03-01,株式会社松野フーズ,,株式会社,千葉県,千葉市中央区,新千葉１丁目６番１号千葉駅ビル第２別館,,12,101,2600031,,,,,,,2022-03-01,1,,,,,マツノフーズ,0
96,1040001122367,新規,0,2022-03-01,2022-03-01,株式会社ＢＴＪ,,株式会社,千葉県,松戸市,新松戸１丁目３６７番地の２－４階,,12,207,2700034,,,,,,,2022-03-01,1,,,,,ビーティージェイ,0
99,1040003019578,新規,0,2022-03-01,2022-03-01,アイザロッジング合同会社,,合同会社,千葉県,千葉市若葉区,都賀の台１丁目５－２,,12,104,2640033,,,,,,,2022-03-01,1,,,,,アイザロッジング,0
100,1040003019586,新規,0,2022-03-01,2022-03-01,Ｙａｈｔｅｃ　Ｊａｐａｎ合同会社,,合同会社,千葉県,柏市,篠籠田１３９３－１３,,12,217,2770862,,,,,,,2022-03-01,1,,,,,ヤハテックジャパン,0
107,1050003006402,新規,0,2022-03-01,2022-03-01,龍騰商事合同会社,,合同会社,茨城県,土浦市,大畑１６０４－１０,,08,203,3004111,,,,,,,2022-03-01,1,,,,,リュウトウショウジ,0
116,1080101023123,新規,0,2022-03-01,2022-03-01,アキシオン株式会社,,株式会社,静岡県,伊東市,宇佐美２９４０番地の１,,22,208,4140001,,,,,,,2022-03-01,1,,,,,アキシオン,0
129,1120001243980,新規,0,2022-03-01,2022-03-01,株式会社Ｐｕｓｈ　Ｕｐ,,株式会社,大阪府,大阪市北区,中津１丁目２－２１,,27,127,5310071,,,,,,,2022-03-01,1,,,,,,0
130,1120001244095,新規,0,2022-03-01,2022-03-01,株式会社Ｊｕｍｐ　Ｂｏａｒｄ,,株式会社,大阪府,大阪市北区,芝田２丁目８番１１号光栄ビル３Ｆ,,27,127,5300012,,,,,,,2022-03-01,1,,,,,ジャンプボード,0
131,1120001244104,新規,0,2022-03-01,2022-03-01,ＤＷ　Ｐａｒｋ黛和園株式会社,,株式会社,大阪府,大阪市中央区,船場中央２丁目１番４号船場センタービル４号館地下一階Ｂ１０８ＲＯＹＡＬＯＦＦＩＣＥ内,,27,128,5410055,,,,,,,2022-03-01,1,,,,,ディーダビュルパークタイワエン,0
132,1120001244112,新規,0,2022-03-01,2022-03-01,山水先端技術株式会社,,株式会社,大阪府,大阪市中央区,内久宝寺町２丁目３番２９－６０５号,,27,128,5400013,,,,,,,2022-03-01,1,,,,,サンスイセンタンギジュツ,0
145,1122001035615,新規,0,2022-03-01,2022-03-01,株式会社谷田自動車,,株式会社,大阪府,八尾市,南太子堂２丁目３番７号,,27,212,5810056,,,,,,,2022-03-01,1,,,,,タニダジドウシャ,0
151,1140001125005,新規,0,2022-03-01,2022-03-01,株式会社ＧＬＪ,,株式会社,兵庫県,神戸市兵庫区,水木通１丁目１番２号福田ビル２階Ａ南号室,,28,105,6520802,,,,,,,2022-03-01,1,,,,,ジーエルジェイ,0
152,1140001125070,新規,0,2022-03-01,2022-03-01,株式会社Ｓｅａ,,株式会社,兵庫県,川西市,東多田２丁目３０番３２号,,28,217,6660122,,,,,,,2022-03-01,1,,,,,シー,0
156,1140005026050,新規,0,2022-03-01,2022-03-01,一般社団法人さんぴぃす,,その他の設立登記法人,兵庫県,芦屋市,大桝町７番２－３０１号,,28,206,6590066,,,,,,,2022-03-01,1,,,,,サンピィス,0
157,1150003002630,新規,0,2022-03-01,2022-03-01,ＣＡＮＯＰＵＳ合同会社,,合同会社,奈良県,大和高田市,大字土庫１４９－１,,29,202,6350003,,,,,,,2022-03-01,1,,,,,カノープス,0
158,1170003001688,新規,0,2022-03-01,2022-03-01,合同会社ｅｃｃｅｎｔｒｉｃ,,合同会社,和歌山県,有田郡有田川町,大字天満４７３番地２フェリーチェＢ,,30,366,6430032,,,,,,,2022-03-01,1,,,,,エキセントリック,0
168,1180001150131,新規,0,2022-03-01,2022-03-01,株式会社サンターシー,,株式会社,愛知県,名古屋市名東区,猪子石３丁目１１０１番地の１,,23,115,4650021,,,,,,,2022-03-01,1,,,,,サンターシー,0
169,1180001150156,新規,0,2022-03-01,2022-03-01,株式会社イトマサ,,株式会社,愛知県,名古屋市千種区,御棚町１丁目３０番地,00125837,23,101,4640835,,,,,,,2022-03-01,1,,,,,イトマサ,0
170,1180001150164,新規,0,2022-03-01,2022-03-01,けやき庵株式会社,,株式会社,愛知県,北名古屋市,六ツ師松戸７６番地,,23,234,4810001,,,,,,,2022-03-01,1,,,,,ケヤキアン,0
171,1180003023541,新規,0,2022-03-01,2022-03-01,カラーコネクト合同会社,,合同会社,愛知県,名古屋市中村区,太閤通５丁目２０後藤ビル２Ｆ,,23,105,4530811,,,,,,,2022-03-01,1,,,,,カラーコネクト,0
174,1180301035957,新規,0,2022-03-01,2022-03-01,株式会社ｋｉｎｏｍｉ,,株式会社,愛知県,碧南市,松本町１２番地２,,23,209,4470878,,,,,,,2022-03-01,1,,,,,キノミ,0
177,1190005011675,新規,0,2022-03-01,2022-03-01,特定非営利活動法人のん・ぼっち,,その他の設立登記法人,三重県,桑名市,一色町６９番地１,,24,205,5110046,,,,,,,2022-03-01,1,,,,,ノンボッチ,0
180,1200001039776,新規,0,2022-03-01,2022-03-01,株式会社桜井オートサービス,,株式会社,岐阜県,岐阜市,東栄町１丁目１７番地,,21,201,5008144,,,,,,,2022-03-01,1,,,,,サクライオートサービス,0
196,1240001059382,新規,0,2022-03-01,2022-03-01,株式会社ネコラボ,,株式会社,広島県,広島市中区,大手町１丁目１番２６号大手町一番ビル３０５,,34,101,7300051,,,,,,,2022-03-01,1,,,,,ネコラボ,0
197,1240001059390,新規,0,2022-03-01,2022-03-01,株式会社ｙｏｕｒｅｓ　Ｇｒｏｕｐ　Ｐｌｕｓ,,株式会社,広島県,広島市中区,本通１番７号３Ｆ,,34,101,7300035,,,,,,,2022-03-01,1,,,,,ユアーズグループプラス,0
199,1240005015340,新規,0,2022-03-01,2022-03-01,医療法人よつば,,その他の設立登記法人,広島県,呉市,和庄登町１３番３号,,34,202,7370043,,,,,,,2022-03-01,1,,,,,ヨツバ,0
203,1260005011040,新規,0,2022-03-01,2022-03-01,行政書士法人パートナーズ,,その他の設立登記法人,岡山県,岡山市北区,下中野１２２２番地９,,33,101,7000973,,,,,,,2022-03-01,1,,,,,パートナーズ,0
208,1290001096586,新規,0,2022-03-01,2022-03-01,相馬株式会社,,株式会社,福岡県,福岡市東区,香椎照葉１丁目２番６号４０２,,40,131,8130017,,,,,,,2022-03-01,1,,,,,ソウマ,0
211,1290801028284,新規,0,2022-03-01,2022-03-01,株式会社ＲＥＲＩＳＥ,,株式会社,福岡県,北九州市門司区,大字恒見５１５番地１１,,40,101,8000117,,,,,,,2022-03-01,1,,,,,リライズ,0
213,1290805009529,新規,0,2022-03-01,2022-03-01,宮本英将社会保険労務士法人,,その他の設立登記法人,福岡県,北九州市八幡西区,本城３丁目１６番１号,,40,109,8070801,,,,,,,2022-03-01,1,,,,,ミヤモトヒデマサ,0
215,1310003004288,新規,0,2022-03-01,2022-03-01,合同会社愛訪問看護ステーション,,合同会社,長崎県,長崎市,葉山２丁目５番１７号松葉コーポ２０２号,,42,201,8528053,,,,,,,2022-03-01,1,,,,,アイホウモンカンゴステーション,0
221,1320001018925,新規,0,2022-03-01,2022-03-01,株式会社ＦＯＲＣＥ,,株式会社,大分県,大分市,富士見が丘西１丁目３番１号,,44,201,8701177,,,,,,,2022-03-01,1,,,,,フォース,0
226,1360003011833,新規,0,2022-03-01,2022-03-01,合同会社ＳＲＵ,,合同会社,沖縄県,沖縄市,古謝津嘉山町２４番８号ひまわり４０５号,,47,211,9042166,,,,,,,2022-03-01,1,,,,,エスアールユー,0
227,1360003011841,新規,0,2022-03-01,2022-03-01,農業生産法人合同会社しもじファーム,,合同会社,沖縄県,宮古島市,平良字下里１５１７番地１４,,47,214,9060013,,,,,,,2022-03-01,1,,,,,ノウギョウセイサンホウジンシモジファーム,0
241,1430001086044,新規,0,2022-03-01,2022-03-01,株式会社Ｏｎｅ　Ｆｌｏｗｅｒ,,株式会社,北海道,札幌市東区,東苗穂五条２丁目２番７号エステート林２０３号,,01,103,0070805,,,,,,,2022-03-01,1,,,,,ワンフラワー,0
242,1430001086077,新規,0,2022-03-01,2022-03-01,株式会社リスター,,株式会社,北海道,札幌市中央区,南十六条西９丁目２－４３－１００１,,01,101,0640916,,,,,,,2022-03-01,1,,,,,リスター,0
249,1490003001631,新規,0,2022-03-01,2022-03-01,合同会社フィッシャーマンズ・ワーフ高知,,合同会社,高知県,高知市,はりまや町２丁目１－１１,,39,201,7800822,,,,,,,2022-03-01,1,,,,,フィッシャーマンズワーフコウチ,0
260,2010001224818,新規,0,2022-03-01,2022-03-01,株式会社ＡＶＥＬＡＧＥ,,株式会社,東京都,千代田区,神田駿河台１丁目５番６号コトー駿河台７０２号,,13,101,1010062,,,,,,,2022-03-01,1,,,,,アベレッジ,0
261,2010001224826,新規,0,2022-03-01,2022-03-01,ＧＯエナジー株式会社,,株式会社,東京都,千代田区,九段北１丁目４番７号,,13,101,1020073,,,,,,,2022-03-01,1,,,,,ゴーエナジー,0
262,2010001224850,新規,0,2022-03-01,2022-03-01,ＳｔｏｒｙＴｅｃｈ株式会社,,株式会社,東京都,中央区,日本橋茅場町２丁目３－８,,13,102,1030025,,,,,,,2022-03-01,1,,,,,ストーリーテック,0
263,2010003037086,新規,0,2022-03-01,2022-03-01,合同会社ＴＨＥ　ＦＯＵＲＴＨ　ＷＩＮＤＯＷ,,合同会社,東京都,中央区,銀座１丁目２２番１１号銀座大竹ビジデンス２Ｆ,,13,102,1040061,,,,,,,2022-03-01,1,,,,,ザフォースウィンドウ,0
264,2010003037094,新規,0,2022-03-01,2022-03-01,合同会社ワンダーシップ,,合同会社,東京都,千代田区,九段南１丁目５番６号りそな九段ビル５Ｆ・ＫＳフロア,,13,101,1020074,,,,,,,2022-03-01,1,,,,,ワンダーシップ,0
265,2010003037111,新規,0,2022-03-01,2022-03-01,サステナブルパワー合同会社,,合同会社,東京都,中央区,銀座８丁目１３番１号,,13,102,1040061,,,,,,,2022-03-01,1,,,,,サステナブルパワー,0
274,2010401165892,新規,0,2022-03-01,2022-03-01,株式会社ＥＳＣＡＬＡ,,株式会社,東京都,港区,南青山３丁目１８番１号マミーワールドビル地下１階,,13,103,1070062,,,,,,,2022-03-01,1,,,,,エスカーラ,0
278,2010403027174,新規,0,2022-03-01,2022-03-01,ＫＯＫＯ　ＨＯＴＥＬ日本橋浜町合同会社,,合同会社,東京都,港区,虎ノ門５丁目１番４号,,13,103,1050001,,,,,,,2022-03-01,1,,,,,ココホテルニホンバシハマチョウ,0
279,2010403027182,新規,0,2022-03-01,2022-03-01,合同会社ステップアップスタッフ,,合同会社,東京都,港区,三田２丁目７番７号ザ・パームス三田２０３,,13,103,1080073,,,,,,,2022-03-01,1,,,,,ステップアップスタッフ,0
280,2010405020763,新規,0,2022-03-01,2022-03-01,Ｌｉｆｅｓｔｙｌｅ１特定目的会社,,その他の設立登記法人,東京都,港区,六本木１丁目６番１号泉ガーデンタワー,,13,103,1060032,,,,,,,2022-03-01,1,,,,,ライフスタイルワン,0
282,2010601060695,新規,0,2022-03-01,2022-03-01,株式会社８,,株式会社,東京都,墨田区,錦糸１丁目２－１アルカセントラル１４Ｆ,,13,107,1300013,,,,,,,2022-03-01,1,,,,,エイト,0
283,2010601060745,新規,0,2022-03-01,2022-03-01,株式会社ファイブ,,株式会社,東京都,墨田区,菊川２丁目６番１４号,,13,107,1300024,,,,,,,2022-03-01,1,,,,,ファイブ,0
284,2010701042288,新規,0,2022-03-01,2022-03-01,東京ソフトＢＰＯ株式会社,,株式会社,東京都,品川区,西五反田７丁目２４番５号,,13,109,1410031,,,,,,,2022-03-01,1,,,,,トウキョウソフトビーピーオー,0
286,2010903007188,新規,0,2022-03-01,2022-03-01,Ｍａｒｓ　Ｏｌｙｍｐｕｓ合同会社,,合同会社,東京都,世田谷区,等々力４丁目１４番１３号,,13,112,1580082,,,,,,,2022-03-01,1,,,,,マーズオリンポス,0
293,2011001145979,新規,0,2022-03-01,2022-03-01,株式会社あんきいず,,株式会社,東京都,目黒区,五本木２丁目８番６号,,13,110,1530053,,,,,,,2022-03-01,1,,,,,アンキイズ,0
296,2011005009453,新規,0,2022-03-01,2022-03-01,一般社団法人メンタルクリア協会,,その他の設立登記法人,東京都,渋谷区,渋谷３丁目１番９号Ｙａｚａｗａビル４階,,13,113,1500002,,,,,,,2022-03-01,1,,,,,メンタルクリアキョウカイ,0
301,2011101097939,新規,0,2022-03-01,2022-03-01,株式会社ＨＳＥ研究所,,株式会社,東京都,新宿区,西新宿６丁目１２番４号,,13,104,1600023,,,,,,,2022-03-01,1,,,,,エイチエスイーケンキュウジョ,0
302,2011101097971,新規,0,2022-03-01,2022-03-01,奈良の風株式会社,,株式会社,東京都,新宿区,新宿２丁目２番１－４０５号,,13,104,1600022,,,,,,,2022-03-01,1,,,,,ナラノカゼ,0
303,2011103011518,新規,0,2022-03-01,2022-03-01,合同会社ルシュム,,合同会社,東京都,新宿区,新宿１丁目２番１号－１００１号,,13,104,1600022,,,,,,,2022-03-01,1,,,,,ルシュム,0
308,2011203003761,新規,0,2022-03-01,2022-03-01,合同会社Ｒｉｚｅ,,合同会社,東京都,中野区,南台５丁目３番７号鷲田ハイツ３０１,,13,114,1640014,,,,,,,2022-03-01,1,,,,,ライズ,0
312,2011401024056,新規,0,2022-03-01,2022-03-01,株式会社メゾンマリアンヌ,,株式会社,東京都,板橋区,常盤台２丁目１７番１２号,,13,119,1740071,,,,,,,2022-03-01,1,,,,,メゾンマリアンヌ,0
313,2011401024064,新規,0,2022-03-01,2022-03-01,株式会社ＨＩＵアセットマネジメント,,株式会社,東京都,板橋区,成増５丁目１１番３０号,,13,119,1750094,,,,,,,2022-03-01,1,,,,,エイチアイユーアセットマネジメント,0
322,2012301012902,新規,0,2022-03-01,2022-03-01,ＳｈｉｒａＫａｗａ株式会社,,株式会社,東京都,町田市,金井２丁目３７番地５メゾン・オ・ソレイユＣ号,,13,209,1950072,,,,,,,2022-03-01,1,,,,,シラカワ,0
324,2012401038913,新規,0,2022-03-01,2022-03-01,株式会社関東ハウジング,,株式会社,東京都,小金井市,中町４丁目３番２５号シグネチャー武蔵小金井２０４,,13,210,1840012,,,,,,,2022-03-01,1,,,,,カントウハウジング,0
331,2013303006058,新規,0,2022-03-01,2022-03-01,合同会社オアシス,,合同会社,東京都,豊島区,西池袋３丁目１７番３号２Ｆ,,13,116,1710021,,,,,,,2022-03-01,1,,,,,オアシス,0
338,2021001075300,新規,0,2022-03-01,2022-03-01,ｅｎａｓ株式会社,,株式会社,神奈川県,相模原市緑区,原宿南１丁目１２－１０,,14,151,2520103,,,,,,,2022-03-01,1,,,,,エナス,0
341,2021003011443,新規,0,2022-03-01,2022-03-01,合同会社ＦＤＣ,,合同会社,神奈川県,大和市,下鶴間２３３５番地１リエスつきみ野１０３号室,,14,213,2420001,,,,,,,2022-03-01,1,,,,,エフディーシー,0
349,2030001147001,新規,0,2022-03-01,2022-03-01,株式会社ＣＢＮ　Ｓｔｏｒｅ,,株式会社,埼玉県,川口市,末広１丁目４番９－５０２号ＹＳＤ,,11,203,3320006,,,,,,,2022-03-01,1,,,,,シービーエヌストア,0
362,2040001122366,新規,0,2022-03-01,2022-03-01,ｒｅｃｋ株式会社,,株式会社,千葉県,千葉市若葉区,小倉台３丁目２０番６－２０１号,,12,104,2640006,,,,,,,2022-03-01,1,,,,,レク,0
363,2040001122374,新規,0,2022-03-01,2022-03-01,株式会社Ｍ,,株式会社,千葉県,松戸市,紙敷３丁目３２番４,,12,207,2702221,,,,,,,2022-03-01,1,,,,,エム,0
367,2040003019577,新規,0,2022-03-01,2022-03-01,合同会社ｈｉｆａｃｅＹ,,合同会社,千葉県,市川市,妙典５丁目１３－３３,,12,203,2720111,,,,,,,2022-03-01,1,,,,,ハイフェイス,0
369,2050003006401,新規,0,2022-03-01,2022-03-01,合同会社アジャスト,,合同会社,茨城県,龍ケ崎市,佐貫１丁目８－１三好ビル２階,,08,208,3010032,,,,,,,2022-03-01,1,,,,,アジャスト,0
379,2090001017438,新規,0,2022-03-01,2022-03-01,株式会社シーショアシルク,,株式会社,山梨県,甲斐市,竜王２８３２－７,,19,210,4000118,,,,,,,2022-03-01,1,,,,,シーショアシルク,0
400,2120001244103,新規,0,2022-03-01,2022-03-01,株式会社ｅｌｅ,,株式会社,大阪府,大阪市中央区,久太郎町３丁目１番１１号ＶＯＲＴ御堂筋本町ＩＩ１１階,00125828,27,128,5410056,,,,,,,2022-03-01,1,,,,,エレ,0
402,2120003021178,新規,0,2022-03-01,2022-03-01,合同会社ＭｏｏＮＬｏＡｄ,,合同会社,大阪府,大阪市西区,京町堀２丁目１４番２６－２０２号,,27,106,5500003,,,,,,,2022-03-01,1,,,,,ムーンロード,0
408,2122001035614,新規,0,2022-03-01,2022-03-01,株式会社ＳＩＭＳ,,株式会社,大阪府,四條畷市,蔀屋本町２番１０号,,27,229,5750042,,,,,,,2022-03-01,1,,,,,シムス,0
422,2140001124939,新規,0,2022-03-01,2022-03-01,関西興商株式会社,,株式会社,兵庫県,尼崎市,西難波町４丁目６番２６号,,28,202,6600893,,,,,,,2022-03-01,1,,,,,カンサイコウショウ,0
423,2140001125029,新規,0,2022-03-01,2022-03-01,株式会社ともに経営研究所,,株式会社,兵庫県,川西市,丸山台３丁目１番地の１６,,28,217,6660152,,,,,,,2022-03-01,1,,,,,トモニケイエイケンキュウジョ,0
427,2150001025368,新規,0,2022-03-01,2022-03-01,豪株式会社,,株式会社,奈良県,大和高田市,蔵之宮町１８番２－３号,,29,202,6350044,,,,,,,2022-03-01,1,,,,,ゴウ,0
429,2160001024014,新規,0,2022-03-01,2022-03-01,株式会社イタクラステーブル,,株式会社,滋賀県,東近江市,川合寺町６０７番地,,25,213,5270041,,,,,,,2022-03-01,1,,,,,イタクラステーフブル,0
436,2180001150130,新規,0,2022-03-01,2022-03-01,株式会社アロック・インターナショナル,,株式会社,愛知県,北名古屋市,熊之庄御榊３番地１,,23,234,4810006,,,,,,,2022-03-01,1,,,,,アロックインターナショナル,0
440,2180003023549,新規,0,2022-03-01,2022-03-01,合同会社あすかＤＣ,,合同会社,愛知県,名古屋市千種区,内山１丁目２２番９号,,23,101,4640075,,,,,,,2022-03-01,1,,,,,アスカディーシー,0
441,2180003023557,新規,0,2022-03-01,2022-03-01,合同会社真白,,合同会社,愛知県,名古屋市西区,名駅２丁目３４番１７号セントラル名古屋１１０１号,,23,104,4510045,,,,,,,2022-03-01,1,,,,,マシロ,0
457,2230001019254,新規,0,2022-03-01,2022-03-01,アンフェーデ株式会社,,株式会社,富山県,富山市,本郷町１９７番地１創Ｂ－１０６号,,16,201,9398045,,,,,,,2022-03-01,1,,,,,アンフェーデ,0
462,2240003005516,新規,0,2022-03-01,2022-03-01,合同会社８８８８,,合同会社,広島県,広島市西区,三滝町４番１２号,,34,104,7330005,,,,,,,2022-03-01,1,,,,,タムタムタムタム,0
468,2260001036577,新規,0,2022-03-01,2022-03-01,株式会社佐山,,株式会社,岡山県,岡山市北区,今２丁目４番１０号２階,,33,101,7000975,,,,,,,2022-03-01,1,,,,,サヤマ,0
482,2290001096552,新規,0,2022-03-01,2022-03-01,株式会社Ｃ＆Ｋ,,株式会社,福岡県,福岡市東区,三苫１丁目３－６６－Ｂ２０１,,40,131,8110201,,,,,,,2022-03-01,1,,,,,シーアンドケイ,0
483,2290001096585,新規,0,2022-03-01,2022-03-01,株式会社Ｓ．Ｇ．Ｉ．,,株式会社,福岡県,福岡市南区,若久５丁目３５－１５,,40,134,8150042,,,,,,,2022-03-01,1,,,,,エスジーアイ,0
486,2290003012185,新規,0,2022-03-01,2022-03-01,合同会社華音,,合同会社,福岡県,久留米市,合川町１１９８番地２佐々木ハイツ２０２号,,40,203,8390861,,,,,,,2022-03-01,1,,,,,カノン,0
490,2310003004287,新規,0,2022-03-01,2022-03-01,合同会社キャッツアイ,,合同会社,長崎県,大村市,諏訪３丁目４６５番地２,,42,205,8560024,,,,,,,2022-03-01,1,,,,,キャッツアイ,0
492,2320001018924,新規,0,2022-03-01,2022-03-01,株式会社日隈商事,,株式会社,大分県,日田市,本町１０番３６号,,44,204,8770014,,,,,,,2022-03-01,1,,,,,ヒグマショウジ,0
496,2330001029490,新規,0,2022-03-01,2022-03-01,株式会社レガリス,,株式会社,熊本県,熊本市東区,若葉６丁目３番３６号,,43,102,8612103,,,,,,,2022-03-01,1,,,,,レガリス,0
504,2360001030058,新規,0,2022-03-01,2022-03-01,株式会社リンク沖縄,,株式会社,沖縄県,那覇市,安謝１丁目２番２１－２０２号,,47,201,9000003,,,,,,,2022-03-01,1,,,,,リンクオキナワ,0
505,2360003011840,新規,0,2022-03-01,2022-03-01,キーストーンコネクト合同会社,,合同会社,沖縄県,うるま市,字田場１８０７番地ネクスコート宮里ＩＩ４０１,00125831,47,213,9042213,,,,,,,2022-03-01,1,,,,,キーストーンコネクト,0
518,2430001086076,新規,0,2022-03-01,2022-03-01,株式会社ＳＡＩソフトウェア,,株式会社,北海道,札幌市豊平区,月寒西一条９丁目９番６－１０２号,,01,105,0620021,,,,,,,2022-03-01,1,,,,,エスエーアイソフトウェア,0
521,2430003013664,新規,0,2022-03-01,2022-03-01,イーエスファイン合同会社,,合同会社,北海道,札幌市厚別区,厚別東二条１丁目３番２０‐５０２号,,01,108,0040002,,,,,,,2022-03-01,1,,,,,イーエスファイン,0
538,2700150107209,新規,0,2022-03-01,2022-03-01,Ａｏｂａｄａｉ　Ｐｒｏｐｅｒｔｙ　Ｌｉｍｉｔｅｄ,,外国会社等,東京都,目黒区,青葉台２丁目３－２２,,13,110,1530042,Ｖｉｓｔｒａ　Ｃｏｒｐｏｒａｔｅ　Ｓｅｒｖｉｃｅｓ　Ｃｅｎｔｒｅ，　Ｗｉｃｋｈａｍｓ　Ｃａｙ　ＩＩ，　Ｒｏａｄ　Ｔｏｗｎ，　Ｔｏｒｔｏｌａ，　ＶＧ１１１０，　Ｂｒｉｔｉｓｈ　Ｖｉｒｇｉｎ　Ｉｓｌａｎｄｓ,00125826,,,,,2022-03-01,1,,,,,アオバダイプロパテイリミテツド,0
544,3010001224767,新規,0,2022-03-01,2022-03-01,株式会社ホワイト・ブレイン,,株式会社,東京都,中央区,銀座６丁目１０番１号ギンザシックス１３Ｆ,,13,102,1040061,,,,,,,2022-03-01,1,,,,,ホワイトブレイン,0
545,3010001224858,新規,0,2022-03-01,2022-03-01,諸戸アセットマネジメント株式会社,,株式会社,東京都,千代田区,丸の内３丁目３番１号新東京ビル２階２３１区,,13,101,1000005,,,,,,,2022-03-01,1,,,,,モロトアセットマネジメント,0
546,3010001224866,新規,0,2022-03-01,2022-03-01,株式会社ダーウィンウイング,,株式会社,東京都,千代田区,飯田橋１丁目８番９号ニューシティハイツ飯田橋７０７,,13,101,1020072,,,,,,,2022-03-01,1,,,,,ダーウィンウイング,0
547,3010001224908,新規,0,2022-03-01,2022-03-01,株式会社ＣＡＬＥＮＤＡＲ,,株式会社,東京都,千代田区,神田神保町２丁目３番１号岩波書店アネックス１Ｆ,,13,101,1010051,,,,,,,2022-03-01,1,,,,,カレンダー,0
556,3010401165776,新規,0,2022-03-01,2022-03-01,株式会社ｇｏｄ,,株式会社,東京都,港区,西新橋３丁目１７番７－２００１号,,13,103,1050003,,,,,,,2022-03-01,1,,,,,ゴッド,0
557,3010401165826,新規,0,2022-03-01,2022-03-01,株式会社Ｍａｒｋｅｔ　Ｐｌａｎｎｉｎｇ　Ｇ,,株式会社,東京都,港区,新橋２丁目１６番１号ニュー新橋ビル７０２－Ｂ,,13,103,1050004,,,,,,,2022-03-01,1,,,,,マーケットプランニングジー,0
558,3010401165834,新規,0,2022-03-01,2022-03-01,株式会社Ｌｅｏ　Ｇｏｌｆ,,株式会社,東京都,港区,東新橋１丁目１０番２号東京ツインパークスＲ７０３,,13,103,1050021,,,,,,,2022-03-01,1,,,,,レオゴルフ,0
559,3010401165842,新規,0,2022-03-01,2022-03-01,サンリンク株式会社,,株式会社,東京都,港区,高輪１丁目４番１０－７０６号,,13,103,1080074,,,,,,,2022-03-01,1,,,,,サンリンク,0
561,3010403027157,新規,0,2022-03-01,2022-03-01,合同会社ＢＬＡＣＫ　ＣＯＭＰＡＮＹ,,合同会社,東京都,港区,浜松町２丁目２番１５号浜松町ダイヤビル２Ｆ,,13,103,1050013,,,,,,,2022-03-01,1,,,,,ブラックカンパニー,0
562,3010403027165,新規,0,2022-03-01,2022-03-01,合同会社温泉旅館２号,,合同会社,東京都,港区,虎ノ門３丁目２２番１０－２０１号,,13,103,1050001,,,,,,,2022-03-01,1,,,,,オンセンリョカンニゴウ,0
563,3010403027173,新規,0,2022-03-01,2022-03-01,ＫＯＫＯ　ＨＯＴＥＬ神戸三宮合同会社,,合同会社,東京都,港区,虎ノ門５丁目１番４号,,13,103,1050001,,,,,,,2022-03-01,1,,,,,ココホテルコウベサンノミヤ,0
564,3010403027181,新規,0,2022-03-01,2022-03-01,合同会社タイトスタッフ,,合同会社,東京都,港区,三田２丁目７番７号ザ・パームス三田２０３,,13,103,1080073,,,,,,,2022-03-01,1,,,,,タイトスタッフ,0
565,3010405020746,新規,0,2022-03-01,2022-03-01,一般社団法人小顔リハビリテーション協会,,その他の設立登記法人,東京都,港区,麻布十番３丁目７番５号デシモ麻布３０１,,13,103,1060045,,,,,,,2022-03-01,1,,,,,コガオリハビリテーションキョウカイ,0
571,3010601060736,新規,0,2022-03-01,2022-03-01,ＳＨＯＧＵＮ　ＡＵＴＯＳＰＯＲＴ株式会社,,株式会社,東京都,江東区,新木場１丁目８番１１号,,13,108,1360082,,,,,,,2022-03-01,1,,,,,ショウグンオートスポート,0
572,3010601060744,新規,0,2022-03-01,2022-03-01,株式会社ＡＡＡＭ,,株式会社,東京都,江東区,豊洲１丁目３番１－４０７号,,13,108,1350061,,,,,,,2022-03-01,1,,,,,アーム,0
573,3010701042304,新規,0,2022-03-01,2022-03-01,株式会社ｃｏｎｔｒｏｎｙｍ,,株式会社,東京都,品川区,西五反田２丁目９－７ドルミ五反田４０７,,13,109,1410031,,,,,,,2022-03-01,1,,,,,コントロニム,0
574,3010703006133,新規,0,2022-03-01,2022-03-01,ＳＱｅａｓｅ合同会社,,合同会社,東京都,品川区,上大崎２丁目１３番２２－１２０１号,,13,109,1410021,,,,,,,2022-03-01,1,,,,,スクイーズ,0
594,3011003014215,新規,0,2022-03-01,2022-03-01,合同会社オールインアクト,,合同会社,東京都,渋谷区,渋谷１丁目３－１８,,13,113,1500002,,,,,,,2022-03-01,1,,,,,オールインアクト,0
600,3011101097921,新規,0,2022-03-01,2022-03-01,株式会社ＪＳＯ,,株式会社,東京都,新宿区,西新宿７丁目２２番４５号ＫＤＸ西新宿ビル１０２,,13,104,1600023,,,,,,,2022-03-01,1,,,,,ジェイエスオー,0
601,3011101097954,新規,0,2022-03-01,2022-03-01,Ｈａｍａｍａｔｓｕ　Ｎｉｓｈｉｊｉｍａ　Ｒｅａｌ　Ｅｓｔａｔｅ株式会社,,株式会社,東京都,新宿区,余丁町１０番１０号新宿余丁町ビル４階,,13,104,1620055,,,,,,,2022-03-01,1,,,,,ハママツニシジマリアルエステート,0
602,3011101097962,新規,0,2022-03-01,2022-03-01,Ｃａｎ　Ｗａｔｅｒ株式会社,,株式会社,東京都,新宿区,山吹町２６１番５,,13,104,1620801,,,,,,,2022-03-01,1,,,,,カンウォーター,0
603,3011101097979,新規,0,2022-03-01,2022-03-01,株式会社惠,,株式会社,東京都,新宿区,四谷２丁目８番地８第５三和ビル３０１,,13,104,1600004,,,,,,,2022-03-01,1,,,,,ケイ,0
612,3011403003577,新規,0,2022-03-01,2022-03-01,合同会社あみ,,合同会社,東京都,板橋区,高島平３丁目４番１－３０９号,,13,119,1750082,,,,,,,2022-03-01,1,,,,,アミ,0
614,3011503005085,新規,0,2022-03-01,2022-03-01,合同会社三九六,,合同会社,東京都,荒川区,東日暮里６丁目５８番５－１３０２号,,13,118,1160014,,,,,,,2022-03-01,1,,,,,ザクロ,0
616,3011701025083,新規,0,2022-03-01,2022-03-01,新潮国際株式会社,,株式会社,東京都,江戸川区,東葛西５丁目４－５,,13,123,1340084,,,,,,,2022-03-01,1,,,,,シンチョウコクサイ,0
617,3012301012901,新規,0,2022-03-01,2022-03-01,株式会社ＡｎＳｔａｎ,,株式会社,東京都,町田市,中町１丁目２番５号ＳＨＥＬＬＭＩＹＡＫＯＶ３Ｆ,,13,209,1940021,,,,,,,2022-03-01,1,,,,,アンスタン,0
631,3020001145310,新規,0,2022-03-01,2022-03-01,ＪＥＭホールディングス株式会社,,株式会社,神奈川県,横浜市青葉区,荏子田１丁目１４番地３７,,14,117,2250005,,,,,,,2022-03-01,1,,,,,ジェイイーエムホールディングス,0
638,3020003021352,新規,0,2022-03-01,2022-03-01,オフィス杉咲合同会社,,合同会社,神奈川県,横浜市西区,宮ケ谷２５番地１パークスクエア三ツ沢公園Ｂ３１４号,,14,103,2200006,,,,,,,2022-03-01,1,,,,,オフィススギサキ,0
642,3021003011426,新規,0,2022-03-01,2022-03-01,Ｗｉｎｄ　Ｐｏｗｅｒ０１合同会社,,合同会社,神奈川県,平塚市,御殿３丁目７番５－１０３号,,14,203,2540061,,,,,,,2022-03-01,1,,,,,ウインドパワーゼロイチ,0
661,3040001122349,新規,0,2022-03-01,2022-03-01,５９２株式会社,,株式会社,千葉県,木更津市,下内橋１３５番地,,12,206,2920213,,,,,,,2022-03-01,1,,,,,ゴーキューニ,0
666,3040003019584,新規,0,2022-03-01,2022-03-01,ｙｏｊｏ庵合同会社,,合同会社,千葉県,船橋市,前貝塚町１００１－５前貝塚町ビル１０３,,12,204,2730042,,,,,,,2022-03-01,1,,,,,ヨウジョウアン,0
671,3050001050689,新規,0,2022-03-01,2022-03-01,株式会社かげとら住工,,株式会社,茨城県,常総市,内守谷町きぬの里３丁目３０番地１６,,08,211,3030046,,,,,,,2022-03-01,1,,,,,カゲトラジュウコウ,0
674,3060001034600,新規,0,2022-03-01,2022-03-01,ゴールドアルファー株式会社,,株式会社,栃木県,宇都宮市,宿郷２丁目１０番１６号,,09,201,3210945,,,,,,,2022-03-01,1,,,,,ゴールドアルファー,0
707,3120001244052,新規,0,2022-03-01,2022-03-01,株式会社ＬａｐｉｓＮｏｖａ,,株式会社,大阪府,大阪市北区,梅田１丁目３番１号大阪駅前第１ビル８階５号,,27,127,5300001,,,,,,,2022-03-01,1,,,,,ラピスノヴァ,0
716,3120103004593,新規,0,2022-03-01,2022-03-01,合同会社エーティーフーズ,,合同会社,大阪府,泉大津市,下之町６－５ヴィラージュ・ヌフＢ号,,27,206,5950045,,,,,,,2022-03-01,1,,,,,エーティーフーズ,0
718,3120901045649,新規,0,2022-03-01,2022-03-01,株式会社美軒,,株式会社,大阪府,箕面市,船場東２丁目４－１フレスデザインビル３Ｆ,,27,220,5620035,,,,,,,2022-03-01,1,,,,,ミケン,0
721,3122003002280,新規,0,2022-03-01,2022-03-01,合同会社フェアリーテイル,,合同会社,大阪府,四條畷市,田原台４丁目１２番８号,,27,229,5750013,,,,,,,2022-03-01,1,,,,,フェアリーテイル,0
724,3130001071207,新規,0,2022-03-01,2022-03-01,株式会社ＹＵＫＩＮＯＳＨＩＴＡ,,株式会社,京都府,京都市伏見区,深草僧坊町３２番地,,26,109,6120877,,,,,,,2022-03-01,1,,,,,ユキノシタ,0
725,3130003007778,新規,0,2022-03-01,2022-03-01,合同会社空ト大チノ光’ト音,,合同会社,京都府,舞鶴市,白浜台６４番地１０６,,26,202,6250084,,,,,,,2022-03-01,1,,,,,ソラトダイチノヒカリトオト,0
727,3130005016397,新規,0,2022-03-01,2022-03-01,一般社団法人中高進学研究会,,その他の設立登記法人,京都府,京都市伏見区,久我石原町５番地３,,26,109,6128491,,,,,,,2022-03-01,1,,,,,チュウコウシンガクケンキュウカイ,0
734,3140001125011,新規,0,2022-03-01,2022-03-01,株式会社ユニカ,,株式会社,兵庫県,芦屋市,岩園町３５番２１号,,28,206,6590013,,,,,,,2022-03-01,1,,,,,ユニカ,0
735,3140001125069,新規,0,2022-03-01,2022-03-01,株式会社きゆら,,株式会社,兵庫県,尼崎市,武庫之荘１丁目２番１４－３０１号,,28,202,6610035,,,,,,,2022-03-01,1,,,,,キユラ,0
741,3150001025367,新規,0,2022-03-01,2022-03-01,吉野興材株式会社,,株式会社,奈良県,吉野郡吉野町,大字河原屋２３６番地の３,,29,441,6393102,,,,,,,2022-03-01,1,,,,,ヨシノコウザイ,0
742,3160005011049,新規,0,2022-03-01,2022-03-01,一般社団法人東近江メディカルケアネットワーク,,その他の設立登記法人,滋賀県,東近江市,八日市緑町１０番５号,,25,213,5270023,,,,,,,2022-03-01,1,,,,,ヒガシオウミメディカルケアネットワーク,0
747,3180001150113,新規,0,2022-03-01,2022-03-01,株式会社ねこ,,株式会社,愛知県,名古屋市北区,大杉２丁目１５番５号ＯＳプリンスハイツ白壁北１０５号,,23,103,4620837,,,,,,,2022-03-01,1,,,,,ネコ,0
748,3180001150154,新規,0,2022-03-01,2022-03-01,ｔｒｉｂｕｔｅ株式会社,,株式会社,愛知県,名古屋市東区,東桜１丁目１０番９号,,23,102,4610005,,,,,,,2022-03-01,1,,,,,トリビュート,0
752,3180003023498,新規,0,2022-03-01,2022-03-01,合同会社ＩＫＫＳ,,合同会社,愛知県,名古屋市中村区,名駅南５丁目１２番２８号,,23,105,4500003,,,,,,,2022-03-01,1,,,,,イックス,0
766,3240001059389,新規,0,2022-03-01,2022-03-01,株式会社Ｃｏｇｕ,,株式会社,広島県,福山市,明王台４丁目８－２３,,34,207,7200834,,,,,,,2022-03-01,1,,,,,コグ,0
770,3250001019425,新規,0,2022-03-01,2022-03-01,株式会社ＲＡＩＤＥＮ,,株式会社,山口県,下関市,竹崎町４丁目４－１下関開発ビルディング１Ｆ,,35,201,7500025,,,,,,,2022-03-01,1,,,,,ライデン,0
772,3260001036576,新規,0,2022-03-01,2022-03-01,株式会社ｎｏｒｍ,,株式会社,岡山県,岡山市南区,豊成３丁目１１番１号,,33,104,7000942,,,,,,,2022-03-01,1,,,,,,0
779,3270001008459,新規,0,2022-03-01,2022-03-01,株式会社ＯＲＣＡ．ＩＣＴ,,株式会社,鳥取県,米子市,加茂町２丁目１１２番地,,31,202,6830823,,,,,,,2022-03-01,1,,,,,オルカドットアイシーティー,0
784,3290001096543,新規,0,2022-03-01,2022-03-01,株式会社ＡＣＴ　ＥＸＰＥＲＴ,,株式会社,福岡県,朝倉市,甘木３０７番地１,,40,228,8380068,,,,,,,2022-03-01,1,,,,,アクトエキスパート,0
792,3310003004286,新規,0,2022-03-01,2022-03-01,合同会社ナイアガラ,,合同会社,長崎県,大村市,諏訪３丁目４６５番地２,,42,205,8560024,,,,,,,2022-03-01,1,,,,,ナイアガラ,0
811,3380005012545,新規,0,2022-03-01,2022-03-01,一般社団法人ちいきん会,,その他の設立登記法人,福島県,福島市,本町２番１０号,,07,201,9608035,,,,,,,2022-03-01,1,,,,,チイキンカイ,0
816,3430003013655,新規,0,2022-03-01,2022-03-01,合同会社Ｇｉｖｉｎｇ,,合同会社,北海道,千歳市,緑町３丁目２番８号,,01,224,0660074,,,,,,,2022-03-01,1,,,,,ギビング,0
821,3470001018982,新規,0,2022-03-01,2022-03-01,ＩＧＳ株式会社,,株式会社,香川県,高松市,天神前１０番５号高松セントラルスカイビルディング３Ｆｓｏｕｔｈ,,37,201,7600018,,,,,,,2022-03-01,1,,,,,アイジーエス,0
834,4010001224865,新規,0,2022-03-01,2022-03-01,ＡＭＳ　ＲＥＳＯＵＲＣＥＳ株式会社,,株式会社,東京都,中央区,晴海２丁目３番２－１００９号,,13,102,1040053,,,,,,,2022-03-01,1,,,,,エーエムエスリソース,0
835,4010001224881,新規,0,2022-03-01,2022-03-01,株式会社ゴンバーガーイースト,,株式会社,東京都,文京区,本郷１丁目１０番１４号,,13,105,1130033,,,,,,,2022-03-01,1,,,,,ゴンバーガーイースト,0
844,4010401165825,新規,0,2022-03-01,2022-03-01,株式会社アクシオンバロール,,株式会社,東京都,港区,南青山２丁目２番１５号,,13,103,1070062,,,,,,,2022-03-01,1,,,,,アクシオンバロール,0
846,4010403027164,新規,0,2022-03-01,2022-03-01,合同会社鳴川,,合同会社,東京都,港区,白金台２丁目２７番９－３１０号,,13,103,1080071,,,,,,,2022-03-01,1,,,,,ナルカワ,0
847,4010403027180,新規,0,2022-03-01,2022-03-01,いすみ洋上風力発電合同会社,,合同会社,東京都,港区,新橋６丁目１７番２１号住友不動産御成門駅前ビル１０階,,13,103,1050004,,,,,,,2022-03-01,1,,,,,イスミヨウジョウフウリョクハツデン,0
849,4010405020753,新規,0,2022-03-01,2022-03-01,一般社団法人コンビナート連携推進機構,,その他の設立登記法人,東京都,港区,西新橋２丁目７番４号ＣＪビル５階,,13,103,1050003,,,,,,,2022-03-01,1,,,,,コンビナートレンケイスイシンキコウ,0
850,4010501048517,新規,0,2022-03-01,2022-03-01,株式会社フォーサイトジャパン,,株式会社,東京都,台東区,台東４丁目２９番１０号さたけ第二ビル８Ｆ,,13,106,1100016,,,,,,,2022-03-01,1,,,,,フォーサイトジャパン,0
856,4010601060693,新規,0,2022-03-01,2022-03-01,株式会社えんぱわ,,株式会社,東京都,墨田区,立花１丁目１１－１－７０２,,13,107,1310043,,,,,,,2022-03-01,1,,,,,エンパワ,0
857,4010601060719,新規,0,2022-03-01,2022-03-01,株式会社アトリエアール,,株式会社,東京都,江東区,扇橋１丁目２１番２６号,,13,108,1350011,,,,,,,2022-03-01,1,,,,,アトリエアール,0
858,4010601060735,新規,0,2022-03-01,2022-03-01,株式会社Ｃｏｎｎｅｃｔ,,株式会社,東京都,江東区,南砂７丁目２－６－８０９号,,13,108,1360076,,,,,,,2022-03-01,1,,,,,コネクト,0
859,4010601060743,新規,0,2022-03-01,2022-03-01,株式会社ＤＤ　ＦＡＳ,,株式会社,東京都,墨田区,東向島６丁目６０番６号,,13,107,1310032,,,,,,,2022-03-01,1,,,,,ディディファス,0
863,4010801032773,新規,0,2022-03-01,2022-03-01,外村商店株式会社,,株式会社,東京都,大田区,東六郷１丁目２８番１４号ベルヴィサンハイツ３０１,,13,111,1440046,,,,,,,2022-03-01,1,,,,,トノムラショウテン,0
867,4010901050444,新規,0,2022-03-01,2022-03-01,株式会社アンテポルタ,,株式会社,東京都,世田谷区,中町４丁目２０番７号,,13,112,1580091,,,,,,,2022-03-01,1,,,,,アンテポルタ,0
875,4011001145985,新規,0,2022-03-01,2022-03-01,株式会社未来工房,,株式会社,東京都,渋谷区,神宮前６丁目２３番４号桑野ビル２階,,13,113,1500001,,,,,,,2022-03-01,1,,,,,ミライコウボウ,0
878,4011003014263,新規,0,2022-03-01,2022-03-01,合同会社ひまねこ,,合同会社,東京都,渋谷区,渋谷２丁目１９－１５宮益坂ビルディング６０９,,13,113,1500002,,,,,,,2022-03-01,1,,,,,ヒマネコ,0
882,4011101097953,新規,0,2022-03-01,2022-03-01,日本水木株式会社,,株式会社,東京都,新宿区,中井１丁目９番地９,,13,104,1610035,,,,,,,2022-03-01,1,,,,,ニホンスイモク,0
883,4011101097961,新規,0,2022-03-01,2022-03-01,株式会社Ｔｕｎｅ　ｐｌａｔｆｏｒｍ,,株式会社,東京都,新宿区,北新宿１丁目２０番１３号アーバネックス西新宿１１０２,,13,104,1690074,,,,,,,2022-03-01,1,,,,,チューンプラットフォーム,0
885,4011103011516,新規,0,2022-03-01,2022-03-01,神楽坂文庫合同会社,,合同会社,東京都,新宿区,袋町５番地１ＦＡＲＯ神楽坂１階,,13,104,1620828,,,,,,,2022-03-01,1,,,,,カグラザカブンコ,0
890,4011401024062,新規,0,2022-03-01,2022-03-01,株式会社ｅｎｕｍａｎｕ,,株式会社,東京都,板橋区,大山西町８番１号,,13,119,1730033,,,,,,,2022-03-01,1,,,,,エヌマヌ,0
899,4011701025082,新規,0,2022-03-01,2022-03-01,株式会社ユーザーイン,,株式会社,東京都,江戸川区,瑞江３丁目２９－２、１ヴィルドミール瑞江３０２号室,,13,123,1320011,,,,,,,2022-03-01,1,,,,,ユーザーイン,0
910,4013301048736,新規,0,2022-03-01,2022-03-01,株式会社メイケン,,株式会社,東京都,豊島区,南大塚２丁目３７番１２号和田ビル５０１号,,13,116,1700005,,,,,,,2022-03-01,1,,,,,メイケン,0
917,4020001145326,新規,0,2022-03-01,2022-03-01,株式会社オフグリッドビレッジ,,株式会社,神奈川県,横浜市港北区,大曽根２丁目２３番４号,,14,109,2220003,,,,,,,2022-03-01,1,,,,,オフグリッドビレッジ,0
918,4020001145417,新規,0,2022-03-01,2022-03-01,株式会社ウィズユー企画,,株式会社,神奈川県,横浜市戸塚区,平戸２丁目２１番２１号,,14,110,2440802,,,,,,,2022-03-01,1,,,,,ウィズユーキカク,0
919,4020001145425,新規,0,2022-03-01,2022-03-01,株式会社ｇａｔＸ,,株式会社,神奈川県,横浜市金沢区,鳥浜町１番地１ブランチ横浜南部市場花板食堂,,14,108,2360002,,,,,,,2022-03-01,1,,,,,ガッテン,0
920,4020001145441,新規,0,2022-03-01,2022-03-01,株式会社ひのきロードアシスタンス,,株式会社,神奈川県,横浜市瀬谷区,阿久和西１丁目５番地２,,14,114,2460025,,,,,,,2022-03-01,1,,,,,ヒノキロードアシスタンス,0
928,4021001075265,新規,0,2022-03-01,2022-03-01,エリマ株式会社,,株式会社,神奈川県,三浦郡葉山町,下山口１９８２番地の１プライム葉山１０４,,14,301,2400116,,,,,,,2022-03-01,1,,,,,エリマ,0
931,4021003011425,新規,0,2022-03-01,2022-03-01,Ｓ－Ｒｏａｄ合同会社,,合同会社,神奈川県,平塚市,紅谷町２番２４号,,14,203,2540043,,,,,,,2022-03-01,1,,,,,エスロード,0
932,4021003011433,新規,0,2022-03-01,2022-03-01,Ｍｙ　ｆａｍｉｌｙ合同会社,,合同会社,神奈川県,相模原市緑区,橋本台１丁目２３番１－４１０号,,14,151,2520132,,,,,,,2022-03-01,1,,,,,マイファミリー,0
952,4040001122364,新規,0,2022-03-01,2022-03-01,株式会社ＳＳＩＥＲ,,株式会社,千葉県,松戸市,本町１７番１１号芹澤ビル６階,,12,207,2710091,,,,,,,2022-03-01,1,,,,,エスエスアイラー,0
956,4040003019583,新規,0,2022-03-01,2022-03-01,合同会社ソイシア,,合同会社,千葉県,八千代市,大和田新田２３９番地１２,,12,221,2760046,,,,,,,2022-03-01,1,,,,,ソイシア,0
957,4050001050688,新規,0,2022-03-01,2022-03-01,株式会社エム・エイチコーポレーション,,株式会社,茨城県,坂東市,長谷９８９番地６５,,08,228,3060642,,,,,,,2022-03-01,1,,,,,エムエイチコーポレーション,0
964,4060003003965,新規,0,2022-03-01,2022-03-01,ＮＩＳＭＯ　ＴＲＡＤＩＮＧ合同会社,,合同会社,栃木県,足利市,鹿島町５９１番地第１増栄荘１１５号棟,,09,202,3260844,,,,,,,2022-03-01,1,,,,,ニスモトレーディング,0
981,4120001244035,新規,0,2022-03-01,2022-03-01,株式会社一心,,株式会社,大阪府,大阪市淀川区,西宮原１丁目７番４－７１１号,,27,123,5320004,,,,,,,2022-03-01,1,,,,,イッシン,0
982,4120001244076,新規,0,2022-03-01,2022-03-01,株式会社グランドリオン,,株式会社,大阪府,大阪市住之江区,東加賀屋２丁目１３番１４号,,27,125,5590012,,,,,,,2022-03-01,1,,,,,グランドリオン,0
983,4120001244118,新規,0,2022-03-01,2022-03-01,フジＴＥＣ株式会社,,株式会社,大阪府,大阪市西区,阿波座１丁目１２番２１号,,27,106,5500011,,,,,,,2022-03-01,1,,,,,フジテック,0
984,4120001244134,新規,0,2022-03-01,2022-03-01,株式会社サブライム,,株式会社,大阪府,大阪市天王寺区,空清町１番２５－５０２号,,27,109,5430018,,,,,,,2022-03-01,1,,,,,サブライム,0
985,4120003021192,新規,0,2022-03-01,2022-03-01,コイロン合同会社,,合同会社,大阪府,大阪市北区,梅田１丁目１番地３号大阪駅前第３ビル２９階１－１－１号室,,27,127,5300001,,,,,,,2022-03-01,1,,,,,コイロン,0
990,4122001035620,新規,0,2022-03-01,2022-03-01,株式会社ハイセキュリティー,,株式会社,大阪府,八尾市,恩智北町３丁目３２番地の１６,,27,212,5810882,,,,,,,2022-03-01,1,,,,,ハイセキュリティー,0
996,4130005016388,新規,0,2022-03-01,2022-03-01,一般社団法人吉水,,その他の設立登記法人,京都府,京都市北区,小山堀池町２８番５号,,26,101,6038145,,,,,,,2022-03-01,1,,,,,ヨシミズ,0
1006,4140001125035,新規,0,2022-03-01,2022-03-01,株式会社テックラボ関西,,株式会社,兵庫県,神戸市兵庫区,和田山通１丁目２番２５号Ｂ棟４１０,,28,105,6520884,,,,,,,2022-03-01,1,,,,,テックラボカンサイ,0
1007,4140001125051,新規,0,2022-03-01,2022-03-01,株式会社嶺亜樹,,株式会社,兵庫県,芦屋市,山芦屋町４番６号,00125840,28,206,6590082,,,,,,,2022-03-01,1,,,,,レアージュ,0
1018,4150003002628,新規,0,2022-03-01,2022-03-01,合名会社奈良俵屋工房,,合名会社,奈良県,吉野郡黒滝村,大字赤滝１５７番地,,29,444,6380211,,,,,,,2022-03-01,1,,,,,ナラタワラヤコウボウ,0
1025,4180001150120,新規,0,2022-03-01,2022-03-01,株式会社ｃｈｅｂｌｏ,,株式会社,愛知県,名古屋市港区,小碓３丁目９５番地,,23,111,4550801,,,,,,,2022-03-01,1,,,,,チェブロ,0
1026,4180001150129,新規,0,2022-03-01,2022-03-01,株式会社ＩＧＡ,,株式会社,愛知県,知多郡武豊町,大字冨貴字南新川１２４番地１,,23,447,4702531,,,,,,,2022-03-01,1,,,,,アイジーエー,0
1027,4180001150137,新規,0,2022-03-01,2022-03-01,株式会社ＮＯＲＴＨ　ＨＩＬＬ,,株式会社,愛知県,名古屋市中区,大須３丁目１番７６号大須本町ビル１Ｆ,,23,106,4600011,,,,,,,2022-03-01,1,,,,,ノースヒル,0
1028,4180001150153,新規,0,2022-03-01,2022-03-01,ＩＭＰＬＵＳ　ＮＥＴ－ＷＯＲＫＳ株式会社,,株式会社,愛知県,名古屋市中区,丸の内２丁目３番３１号,,23,106,4600002,,,,,,,2022-03-01,1,,,,,インプラスネットワークス,0
1029,4180001150161,新規,0,2022-03-01,2022-03-01,株式会社角甚,,株式会社,愛知県,瀬戸市,五位塚町１１番地の６１,,23,204,4890031,,,,,,,2022-03-01,1,,,,,カドジン,0
1030,4180003023555,新規,0,2022-03-01,2022-03-01,日陶マネジメント合同会社,,合同会社,愛知県,名古屋市西区,那古野１丁目２番１号,00125832,23,104,4510042,,,,,,,2022-03-01,1,,,,,ニットウマネジメント,0
1031,4190001029165,新規,0,2022-03-01,2022-03-01,ＧｉｇａｎｔｅＢｌｕ株式会社,,株式会社,三重県,鈴鹿市,稲生町８８３０番地２５,,24,207,5100201,,,,,,,2022-03-01,1,,,,,ジガンテブル,0
1060,4290001096583,新規,0,2022-03-01,2022-03-01,株式会社フィットライズ,,株式会社,福岡県,福岡市中央区,港２丁目７番３号,,40,133,8100075,,,,,,,2022-03-01,1,,,,,フィットライズ,0
1072,4360001030056,新規,0,2022-03-01,2022-03-01,株式会社Ｍ’ｓ　Ｓｗｅｅｔｓ,,株式会社,沖縄県,浦添市,城間４丁目３９番３号,,47,208,9012133,,,,,,,2022-03-01,1,,,,,エムズスイーツ,0
1085,4430001086074,新規,0,2022-03-01,2022-03-01,株式会社Ｏｐｅｒａｒｅ,,株式会社,北海道,伊達市,館山下町２番地２４０,,01,233,0520034,,,,,,,2022-03-01,1,,,,,オペラーレ,0
1088,4430003013662,新規,0,2022-03-01,2022-03-01,こころの学校ｍｏｔｈｅｒｌｙ　ｃａｒｅ合同会社,,合同会社,北海道,札幌市中央区,北二条東３丁目２番地３パルティーレセント７０２号,,01,101,0600032,,,,,,,2022-03-01,1,,,,,ココロノガッコウマザリーケア,0
1093,4480003001794,新規,0,2022-03-01,2022-03-01,合同会社ｓｍｉｌｅｙ　ｍｏｎｋｅｙ　ｗｏｒｋｓ,,合同会社,徳島県,美馬郡つるぎ町,貞光字西浦１０９,,36,468,7794101,,,,,,,2022-03-01,1,,,,,スマイリーモンキーワークス,0
1098,4500001024027,新規,0,2022-03-01,2022-03-01,株式会社ＭＤＨ,,株式会社,愛媛県,松山市,平和通１丁目５番地３６,,38,201,7900807,,,,,,,2022-03-01,1,,,,,エムディーエイチ,0
1104,5010001224732,新規,0,2022-03-01,2022-03-01,ＺｅｅＤｉａ　ｌｉｆｅ　ｓｃｉｅｎｃｅ株式会社,,株式会社,東京都,中央区,日本橋本町１丁目８番１３号日本橋滄浪閣ビル２階西,,13,102,1030023,,,,,,,2022-03-01,1,,,,,ジーディアライフサイエンス,0
1105,5010001224773,新規,0,2022-03-01,2022-03-01,株式会社ｋｏｔｏｂａ,,株式会社,東京都,千代田区,一ツ橋２丁目３番１号,,13,101,1010003,,,,,,,2022-03-01,1,,,,,コトバ,0
1106,5010001224807,新規,0,2022-03-01,2022-03-01,東洋ロジスティクス株式会社,,株式会社,東京都,千代田区,神田神保町２丁目１４番１１号神保町プラザ,,13,101,1010051,,,,,,,2022-03-01,1,,,,,トウヨウロジスティクス,0
1107,5010001224848,新規,0,2022-03-01,2022-03-01,ＷＡＺＡＹＡ株式会社,,株式会社,東京都,千代田区,九段北１丁目１４番１６号,,13,101,1020073,,,,,,,2022-03-01,1,,,,,ワザヤ,0
1108,5010001224880,新規,0,2022-03-01,2022-03-01,株式会社デュクシエンジニアリング,,株式会社,東京都,中央区,新富２丁目５番地２－８０１号,,13,102,1040041,,,,,,,2022-03-01,1,,,,,デュクシエンジニアリング,0
1109,5010001224922,新規,0,2022-03-01,2022-03-01,株式会社ＫＳＦＲ２,,株式会社,東京都,千代田区,内幸町２丁目１番６号,,13,101,1000011,,,,,,,2022-03-01,1,,,,,ケイエスエフアールツー,0
1113,5010003037109,新規,0,2022-03-01,2022-03-01,合同会社今ここ,,合同会社,東京都,中央区,日本橋堀留町１丁目１０番１号カクタビル２階,,13,102,1030012,,,,,,,2022-03-01,1,,,,,イマココ,0
1114,5010003037125,新規,0,2022-03-01,2022-03-01,合同会社ＫＡＩＤＡＮ,,合同会社,東京都,中央区,日本橋１丁目４番１号日本橋一丁目ビルディング,,13,102,1030027,,,,,,,2022-03-01,1,,,,,カイダン,0
1116,5010005034640,新規,0,2022-03-01,2022-03-01,一般社団法人キャンバス,,その他の設立登記法人,東京都,千代田区,平河町１丁目３番６号ＢＩＺＭＡＲＫＳ麹町,,13,101,1020093,,,,,,,2022-03-01,1,,,,,キャンバス,0
1117,5010005034649,新規,0,2022-03-01,2022-03-01,一般社団法人サポートホールディングス４３号,,その他の設立登記法人,東京都,千代田区,丸の内３丁目１番１号東京共同会計事務所内,,13,101,1000005,,,,,,,2022-03-01,1,,,,,サポートホールディングスヨンジュウサンゴウ,0
1124,5010401165790,新規,0,2022-03-01,2022-03-01,株式会社ノーマーク,,株式会社,東京都,港区,南青山６丁目６番２２号２Ｆ南青山グリーンランドビル,,13,103,1070062,,,,,,,2022-03-01,1,,,,,ノーマーク,0
1125,5010401165832,新規,0,2022-03-01,2022-03-01,エンダーズ株式会社,,株式会社,東京都,港区,南青山２丁目２番１５号,,13,103,1070062,,,,,,,2022-03-01,1,,,,,エンダーズ,0
1126,5010401165849,新規,0,2022-03-01,2022-03-01,株式会社ドルチェ,,株式会社,東京都,港区,白金５丁目８番７号,,13,103,1080072,,,,,,,2022-03-01,1,,,,,ドルチェ,0
1127,5010401165873,新規,0,2022-03-01,2022-03-01,ワラビー・メディカル・ジャパン株式会社,,株式会社,東京都,港区,赤坂２丁目２３番１号アークヒルズ・フロントタワーＲｏＰ８０６,,13,103,1070052,,,,,,,2022-03-01,1,,,,,ワラビーメディカルジャパン,0
1128,5010401165881,新規,0,2022-03-01,2022-03-01,未来創造キャピタル株式会社,,株式会社,東京都,港区,虎ノ門１丁目２番６号,,13,103,1050001,,,,,,,2022-03-01,1,,,,,ミライソウゾウキャピタル,0
1132,5010405020760,新規,0,2022-03-01,2022-03-01,一般社団法人浜町神戸運営,,その他の設立登記法人,東京都,港区,虎ノ門５丁目１番４号,,13,103,1050001,,,,,,,2022-03-01,1,,,,,ハマチョウコウベウンエイ,0
1137,5010601060742,新規,0,2022-03-01,2022-03-01,ｓｏｅｌｌ株式会社,,株式会社,東京都,江東区,豊洲４丁目９番１３－４０６号,,13,108,1350061,,,,,,,2022-03-01,1,,,,,ソエル,0
1142,5010803004076,新規,0,2022-03-01,2022-03-01,合同会社ｉｒｏｎｉｃａｌ　ｔｅｃｈｎｉｃａｌ,,合同会社,東京都,大田区,池上８丁目２１－９－２０４,,13,111,1460082,,,,,,,2022-03-01,1,,,,,アイロニカルテクニカル,0
1146,5010903007185,新規,0,2022-03-01,2022-03-01,合同会社ＲＥＶＩＦ,,合同会社,東京都,世田谷区,桜上水１丁目３番１１号,,13,112,1560045,,,,,,,2022-03-01,1,,,,,ルヴィフ,0
1152,5011001145976,新規,0,2022-03-01,2022-03-01,ＫＳパートナーズ株式会社,,株式会社,東京都,目黒区,下目黒４丁目２番１７号,,13,110,1530064,,,,,,,2022-03-01,1,,,,,ケーエスパートナーズ,0
1153,5011003014238,新規,0,2022-03-01,2022-03-01,ＡＴＥＮ合同会社,,合同会社,東京都,目黒区,上目黒１丁目１６番１２号,,13,110,1530051,,,,,,,2022-03-01,1,,,,,アテン,0
1164,5011101097894,新規,0,2022-03-01,2022-03-01,株式会社ｉＤＥｉ,,株式会社,東京都,新宿区,西新宿８丁目８－２０－１２０７,,13,104,1600023,,,,,,,2022-03-01,1,,,,,アイディー,0
1165,5011101097952,新規,0,2022-03-01,2022-03-01,株式会社トクショウ,,株式会社,東京都,新宿区,早稲田鶴巻町５５３番地,,13,104,1620041,,,,,,,2022-03-01,1,,,,,トクショウ,0
1166,5011101097969,新規,0,2022-03-01,2022-03-01,株式会社ＴＣＨＯ,,株式会社,東京都,新宿区,新宿２丁目１２番１３号新宿アントレサロンビル２階,,13,104,1600022,,,,,,,2022-03-01,1,,,,,チョウ,0
1167,5011101097985,新規,0,2022-03-01,2022-03-01,株式会社ＡＢＡＧｒｉｐ,,株式会社,東京都,新宿区,新宿１丁目１８番１４号廣田ビル２階,,13,104,1600022,,,,,,,2022-03-01,1,,,,,アバグリップ,0
1168,5011103011515,新規,0,2022-03-01,2022-03-01,合同会社ジェイ・エス・シー,,合同会社,東京都,新宿区,下宮比町１番４号,,13,104,1620822,,,,,,,2022-03-01,1,,,,,ジェイエスシー,0
1170,5011201023676,新規,0,2022-03-01,2022-03-01,Ｒｅｇｅｎｅｘｔ株式会社,,株式会社,東京都,中野区,中野２丁目１８番３号,,13,114,1640001,,,,,,,2022-03-01,1,,,,,リジェネクスト,0
1175,5011703003077,新規,0,2022-03-01,2022-03-01,Ｒｅｓｔａｒｔ合同会社,,合同会社,東京都,江戸川区,南篠崎町５丁目１３－４１－１００２,,13,123,1330065,,,,,,,2022-03-01,1,,,,,リスタート,0
1177,5011803004982,新規,0,2022-03-01,2022-03-01,合同会社アンブレラ,,合同会社,東京都,足立区,江北１丁目３１番２０－２０５号,,13,121,1230872,,,,,,,2022-03-01,1,,,,,アンブレラ,0
1179,5012301012890,新規,0,2022-03-01,2022-03-01,株式会社Ｓｅｎｒｏ,,株式会社,東京都,町田市,つくし野１丁目１７番地８４,,13,209,1940001,,,,,,,2022-03-01,1,,,,,センロ,0
1181,5013301048735,新規,0,2022-03-01,2022-03-01,株式会社ＭＧＨ,,株式会社,東京都,豊島区,東池袋４丁目２１番１－８０７号,,13,116,1700013,,,,,,,2022-03-01,1,,,,,エムジーエイチ,0
1191,5020001145424,新規,0,2022-03-01,2022-03-01,株式会社てる,,株式会社,神奈川県,川崎市中原区,新丸子町７６９番地２サンリュミエＳＥＩＫＯＨ１階左,,14,133,2110005,,,,,,,2022-03-01,1,,,,,テル,0
1207,5030005020738,新規,0,2022-03-01,2022-03-01,小鹿野町特定地域づくり事業協同組合,,その他の設立登記法人,埼玉県,秩父郡小鹿野町,両神薄２３８０番地,,11,365,3680201,,,,,,,2022-03-01,1,,,,,オガノマチトクテイチイキヅクリ,0
1208,5040001122355,新規,0,2022-03-01,2022-03-01,株式会社アバンティ,,株式会社,千葉県,船橋市,西船６丁目８番３２－２号,,12,204,2730031,,,,,,,2022-03-01,1,,,,,アバンティ,0
1209,5040001122363,新規,0,2022-03-01,2022-03-01,株式会社Ｆａｒ　Ｅａｓｔ　Ｍｏｔｏｒｓ,,株式会社,千葉県,船橋市,芝山１丁目４８番１４号,,12,204,2740816,,,,,,,2022-03-01,1,,,,,ファーイーストモーターズ,0
1210,5040001122371,新規,0,2022-03-01,2022-03-01,株式会社サクラエクスポート,,株式会社,千葉県,船橋市,東船橋４丁目４０番１５－４０１号シンエイ第８東船橋マンション,,12,204,2730002,,,,,,,2022-03-01,1,,,,,サクラエクスポート,0
1211,5040001122405,新規,0,2022-03-01,2022-03-01,株式会社Ｍａｋｅ　ｉｔ　ｂｅｔｔｅｒ,,株式会社,千葉県,印西市,牧の原５丁目３０２番地４４,,12,231,2701331,,,,,,,2022-03-01,1,,,,,メイクイットベター,0
1212,5040003019566,新規,0,2022-03-01,2022-03-01,合同会社ＥＳＭ,,合同会社,千葉県,柏市,松ケ崎１２９番地３５,,12,217,2770835,,,,,,,2022-03-01,1,,,,,イーエスエム,0
1213,5040003019574,新規,0,2022-03-01,2022-03-01,合同会社アマデウス,,合同会社,千葉県,千葉市中央区,富士見２丁目７番９号富士見ビル６０９号,,12,101,2600015,,,,,,,2022-03-01,1,,,,,アマデウス,0
1217,5060001034598,新規,0,2022-03-01,2022-03-01,株式会社なおひで,,株式会社,栃木県,足利市,堀込町２７６４番地２,,09,202,3260831,,,,,,,2022-03-01,1,,,,,ナオヒデ,0
1221,5060003003964,新規,0,2022-03-01,2022-03-01,ディライトイノベーション合同会社,,合同会社,栃木県,宇都宮市,下川俣町２０６番地１０８下川俣町貸事務所Ａ号室,,09,201,3210972,,,,,,,2022-03-01,1,,,,,ディライトイノベーション,0
1223,5070001038986,新規,0,2022-03-01,2022-03-01,株式会社ＡＩＤ,,株式会社,群馬県,伊勢崎市,連取町１７７６番地シターレ１０２号,,10,204,3720812,,,,,,,2022-03-01,1,,,,,エイド,0
1229,5080003002741,新規,0,2022-03-01,2022-03-01,アジアビジネス合同会社,,合同会社,静岡県,島田市,日之出町２番の３,,22,209,4270029,,,,,,,2022-03-01,1,,,,,アジアビジネス,0
1234,5080403004478,新規,0,2022-03-01,2022-03-01,合同会社エクエス,,合同会社,静岡県,浜松市浜北区,宮口６１４番地の５,,22,136,4340004,,,,,,,2022-03-01,1,,,,,エクエス,0
1255,5120001244109,新規,0,2022-03-01,2022-03-01,株式会社国際ツーリズム,,株式会社,大阪府,大阪市都島区,都島本通２丁目７番３－８０３号,,27,102,5340021,,,,,,,2022-03-01,1,,,,,コクサイツーリズム,0
1256,5120003021200,新規,0,2022-03-01,2022-03-01,合同会社ＫＭＡＳ,,合同会社,大阪府,大阪市城東区,中央２丁目４番１３－５０６号,,27,118,5360005,,,,,,,2022-03-01,1,,,,,ケーエムエーエス,0
1258,5120101065132,新規,0,2022-03-01,2022-03-01,株式会社闊野,,株式会社,大阪府,阪南市,箱作２８７４－１０４,,27,232,5990232,,,,,,,2022-03-01,1,,,,,カツノ,0
1263,5120901045639,新規,0,2022-03-01,2022-03-01,株式会社ＲｉＴｏＬｕ,,株式会社,大阪府,高槻市,寿町１丁目１－１０,,27,207,5690826,,,,,,,2022-03-01,1,,,,,リトル,0
1267,5122001035594,新規,0,2022-03-01,2022-03-01,ディパーチャーズ・ジャパン関西株式会社,,株式会社,大阪府,八尾市,若林町３丁目５３藤田コンパクトオフィスＤ号,,27,212,5810038,,,,,,,2022-03-01,1,,,,,ディパーチャーズジャパンカンサイ,0
1268,5122001035603,新規,0,2022-03-01,2022-03-01,株式会社阿部工務店,,株式会社,大阪府,四條畷市,北出町３１番１６号,,27,229,5750043,,,,,,,2022-03-01,1,,,,,アベコウムテン,0
1272,5130001024245,新規,0,2022-03-01,2022-03-01,近畿保全工事株式会社,,株式会社,京都府,京都市中京区,西ノ京樋ノ口町１１６番地,00125803,26,104,6048424,,,,,,,2022-03-01,1,,,,,キンキホゼンコウジ,0
1279,5140001125059,新規,0,2022-03-01,2022-03-01,株式会社光和管財明石,,株式会社,兵庫県,明石市,魚住町清水１１０６－４,,28,203,6740074,,,,,,,2022-03-01,1,,,,,コウワカンザイアカシ,0
1281,5140003017378,新規,0,2022-03-01,2022-03-01,合同会社トラゆーり健康塾,,合同会社,兵庫県,神戸市東灘区,魚崎中町２丁目１４－８,,28,101,6580083,,,,,,,2022-03-01,1,,,,,トラユーリケンコウジュク,0
1284,5140005026047,新規,0,2022-03-01,2022-03-01,一般社団法人Ａｌｔｅｒｎａｔｉｖｅ　Ｃｈｏｉｃｅ,,その他の設立登記法人,兵庫県,尼崎市,大西町３丁目１２番１２号,,28,202,6610023,,,,,,,2022-03-01,1,,,,,オルタナティブチョイス,0
1290,5180001150128,新規,0,2022-03-01,2022-03-01,株式会社Ｄｉｇｉｎａｌ,,株式会社,愛知県,名古屋市昭和区,福江２丁目１－２９,,23,107,4660059,,,,,,,2022-03-01,1,,,,,デジナル,0
1291,5180001150144,新規,0,2022-03-01,2022-03-01,株式会社正木商会,,株式会社,愛知県,名古屋市千種区,清住町２丁目３７番地,,23,101,4640034,,,,,,,2022-03-01,1,,,,,マサキショウカイ,0
1292,5180001150160,新規,0,2022-03-01,2022-03-01,株式会社ＨＡＰＰＩＮＥＳＳＪＡＰＡＮ,,株式会社,愛知県,名古屋市千種区,東山通４丁目１１番地の７,,23,101,4640807,,,,,,,2022-03-01,1,,,,,ハピネスジャパン,0
1293,5180001150169,新規,0,2022-03-01,2022-03-01,株式会社アシスト,,株式会社,愛知県,名古屋市中区,松原１丁目１３番２０号,,23,106,4600017,,,,,,,2022-03-01,1,,,,,アシスト,0
1297,5180003023521,新規,0,2022-03-01,2022-03-01,合同会社ＰｒｅｖｅｎＳｈａｌｌ,,合同会社,愛知県,東海市,富貴ノ台３丁目２１５フォレナ富貴ノ台２０２号,,23,222,4760014,,,,,,,2022-03-01,1,,,,,プレベンシャル,0
1298,5180003023538,新規,0,2022-03-01,2022-03-01,アイムホッピング合同会社,,合同会社,愛知県,名古屋市名東区,扇町２丁目１番地の１ヴィラス星ヶ丘の森７３４,,23,115,4650076,,,,,,,2022-03-01,1,,,,,アイムホッピング,0
1299,5180003023546,新規,0,2022-03-01,2022-03-01,シーオール合同会社,,合同会社,愛知県,名古屋市北区,上飯田西町２丁目４２番地,,23,103,4620809,,,,,,,2022-03-01,1,,,,,シーオール,0
1304,5190003003910,新規,0,2022-03-01,2022-03-01,ＷｅｂＯｎＤｅｍａｎｄ合同会社,,合同会社,三重県,松阪市,西町１１２３番地,,24,204,5150815,,,,,,,2022-03-01,1,,,,,ウェブオンデマンド,0
1309,5210001018825,新規,0,2022-03-01,2022-03-01,株式会社グローバルハーツ,,株式会社,福井県,鯖江市,横越町第１６号２６番地１１,,18,207,9160036,,,,,,,2022-03-01,1,,,,,グローバルハーツ,0
1310,5210003001465,新規,0,2022-03-01,2022-03-01,合同会社アイウインド,,合同会社,福井県,大野市,美川町４番２２号,,18,205,9120036,,,,,,,2022-03-01,1,,,,,アイウインド,0
1320,5240005015337,新規,0,2022-03-01,2022-03-01,ソアレ社会保険労務士法人,,その他の設立登記法人,広島県,広島市中区,橋本町１０番１号４Ｆ,,34,101,7300015,,,,,,,2022-03-01,1,,,,,ソアレ,0
1333,5290003012208,新規,0,2022-03-01,2022-03-01,合同会社ナナマルナナ,,合同会社,福岡県,福岡市博多区,築港本町３－８博多プレイス７０７,,40,132,8120021,,,,,,,2022-03-01,1,,,,,ナナマルナナ,0
1335,5290005018582,新規,0,2022-03-01,2022-03-01,福岡県畜産事業協同組合,,その他の設立登記法人,福岡県,福岡市博多区,千代４丁目２９番２４号,,40,132,8120044,,,,,,,2022-03-01,1,,,,,フクオカケンチクサンジギョウ,0
1341,5320001018913,新規,0,2022-03-01,2022-03-01,株式会社ＳＴＥＡＨ,,株式会社,大分県,別府市,田の湯町３番７号４階,,44,202,8740909,,,,,,,2022-03-01,1,,,,,ステア,0
1345,5360001030055,新規,0,2022-03-01,2022-03-01,株式会社寅だるま,,株式会社,沖縄県,宜野湾市,新城１丁目５番１６号,,47,205,9012201,,,,,,,2022-03-01,1,,,,,トラダルマ,0
1346,5360003011838,新規,0,2022-03-01,2022-03-01,合同会社ＨｉＴｉＭｉＴｉ,,合同会社,沖縄県,南城市,字つきしろ１５３９番地１７０,,47,215,9011407,,,,,,,2022-03-01,1,,,,,ヒティミティ,0
1354,5380003005111,新規,0,2022-03-01,2022-03-01,合同会社ＢｉｇＦｌａｔ,,合同会社,福島県,いわき市,常磐西郷町金山１１８,,07,204,9728316,,,,,,,2022-03-01,1,,,,,ビッグフラット,0
1369,5490001010127,新規,0,2022-03-01,2022-03-01,株式会社絆塗装,,株式会社,高知県,高知市,高見町２３７番地１２,,39,201,7808027,,,,,,,2022-03-01,1,,,,,キズナトソウ,0
1383,6010001224822,新規,0,2022-03-01,2022-03-01,株式会社アンバーノート,,株式会社,東京都,千代田区,二番町９番３号ＴＨＥ・ＢＡＳＥ麹町１階,,13,101,1020084,,,,,,,2022-03-01,1,,,,,アンバーノート,0
1384,6010001224839,新規,0,2022-03-01,2022-03-01,Ｓａｖａｎｎａ　Ｊａｐａｎ株式会社,,株式会社,東京都,文京区,湯島１丁目１２番６号,,13,105,1130034,,,,,,,2022-03-01,1,,,,,サバンナジャパン,0
1385,6010001224863,新規,0,2022-03-01,2022-03-01,エンハンスド株式会社,,株式会社,東京都,中央区,日本橋箱崎町一丁目２番,,13,102,1030015,,,,,,,2022-03-01,1,,,,,エンハンスド,0
1386,6010003037082,新規,0,2022-03-01,2022-03-01,合同会社ヒミツ基地,,合同会社,東京都,文京区,本駒込１丁目２４番９－２０２号,,13,105,1130021,,,,,,,2022-03-01,1,,,,,ヒミツキチ,0
1397,6010401165864,新規,0,2022-03-01,2022-03-01,株式会社ｂ－Ｅｄｕｃａｔｉｏｎ　Ｃｏｍｐａｎｙ,,株式会社,東京都,港区,浜松町２丁目１３番地５号２階,,13,103,1050013,,,,,,,2022-03-01,1,,,,,ビーエデュケーションカンパニー,0
1401,6010601060741,新規,0,2022-03-01,2022-03-01,株式会社ゼロイチプリント,,株式会社,東京都,江東区,塩浜２丁目２４番１０－４０７号,,13,108,1350043,,,,,,,2022-03-01,1,,,,,ゼロイチプリント,0
1402,6010601060758,新規,0,2022-03-01,2022-03-01,株式会社Ｅｎｚｙｍｅ　Ｌａｂｏ,,株式会社,東京都,墨田区,横川１丁目１６番３号横川倉庫センターオブガレージ,,13,107,1300003,,,,,,,2022-03-01,1,,,,,エンザイムラボ,0
1420,6011101097976,新規,0,2022-03-01,2022-03-01,株式会社ＳＳＯ,,株式会社,東京都,新宿区,新宿２丁目５番１号,,13,104,1600022,,,,,,,2022-03-01,1,,,,,エスエスオー,0
1421,6011103011497,新規,0,2022-03-01,2022-03-01,合同会社ＳａｎｄＥ,,合同会社,東京都,新宿区,西新宿８丁目１１番１０号星野ビル３階,,13,104,1600023,,,,,,,2022-03-01,1,,,,,エスアンドイー,0
1422,6011103011514,新規,0,2022-03-01,2022-03-01,合同会社ひまわりケア,,合同会社,東京都,新宿区,西落合３丁目１－２４－３１４,,13,104,1610031,,,,,,,2022-03-01,1,,,,,ヒマワリケア,0
1432,6011801040368,新規,0,2022-03-01,2022-03-01,株式会社ササデン,,株式会社,東京都,足立区,青井３丁目３４番１１号１階,,13,121,1200012,,,,,,,2022-03-01,1,,,,,ササデン,0
1435,6012301012898,新規,0,2022-03-01,2022-03-01,ｅ－ｗｉｎｗｉｎ株式会社,,株式会社,東京都,町田市,原町田４丁目９番８－２９０４号,,13,209,1940013,,,,,,,2022-03-01,1,,,,,イーウインウイン,0
1441,6012701016945,新規,0,2022-03-01,2022-03-01,株式会社ウェルグラウンド,,株式会社,東京都,西東京市,柳沢５丁目２番３２－２１８号,,13,229,2020022,,,,,,,2022-03-01,1,,,,,ウェルグラウンド,0
1449,6020001145423,新規,0,2022-03-01,2022-03-01,ＤＫ株式会社,,株式会社,神奈川県,川崎市中原区,小杉御殿町２丁目９７番６号スカイコート武蔵小杉第五４０２,,14,133,2110068,,,,,,,2022-03-01,1,,,,,ディケ,0
1453,6020003021382,新規,0,2022-03-01,2022-03-01,合同会社ＵＮＡ,,合同会社,神奈川県,横浜市青葉区,新石川３丁目５番地１１コンフォートたまプラーザ１０２,,14,117,2250003,,,,,,,2022-03-01,1,,,,,ウナ,0
1466,6030001146998,新規,0,2022-03-01,2022-03-01,株式会社アプリティプレザ,,株式会社,埼玉県,入間市,宮寺２８６１番地８,,11,225,3580014,,,,,,,2022-03-01,1,,,,,アプリティプレザ,0
1467,6030001147014,新規,0,2022-03-01,2022-03-01,ＭＩＪ株式会社,,株式会社,埼玉県,草加市,栄町３丁目１番１１－９０２号,,11,221,3400011,,,,,,,2022-03-01,1,,,,,エムアイジェイ,0
1468,6030003018907,新規,0,2022-03-01,2022-03-01,ＭＹＳＵ　ｄｉｒｅｃｔｉｏｎ合同会社,,合同会社,埼玉県,さいたま市見沼区,春岡３丁目４番地１２,,11,104,3370008,,,,,,,2022-03-01,1,,,,,ミースーディレクション,0
1470,6030005020737,新規,0,2022-03-01,2022-03-01,一般社団法人インクルラボ,,その他の設立登記法人,埼玉県,さいたま市南区,大字大谷口６７５番地７ブルーヴィラ３０２,,11,108,3360042,,,,,,,2022-03-01,1,,,,,インクルラボ,0
1475,6040001122354,新規,0,2022-03-01,2022-03-01,株式会社猫々堂,,株式会社,千葉県,佐倉市,井野１６５４番地９,,12,212,2850855,,,,,,,2022-03-01,1,,,,,ネコネコドウ,0
1478,6040003019549,新規,0,2022-03-01,2022-03-01,Ｔａｋｔ．ｇ合同会社,,合同会社,千葉県,柏市,手賀の杜１丁目１６番地３,,12,217,2701447,,,,,,,2022-03-01,1,,,,,タクトジー,0
1483,6070001038985,新規,0,2022-03-01,2022-03-01,株式会社上州不動産,,株式会社,群馬県,高崎市,稲荷町１１番地市住１号棟１２２号,,10,202,3700062,,,,,,,2022-03-01,1,,,,,ジョウシュウフドウサン,0
1501,6120001244066,新規,0,2022-03-01,2022-03-01,株式会社ＭｙＲＥＶＯ,,株式会社,大阪府,大阪市北区,堂山町１－５三共梅田ビル７階,,27,127,5300027,,,,,,,2022-03-01,1,,,,,マイレボ,0
1502,6120003021190,新規,0,2022-03-01,2022-03-01,合同会社２１１,,合同会社,大阪府,大阪市西淀川区,姫島６丁目１０番３０号,,27,113,5550033,,,,,,,2022-03-01,1,,,,,ニイチイチ,0
1506,6120101065131,新規,0,2022-03-01,2022-03-01,株式会社ウィズリンケージ,,株式会社,大阪府,羽曳野市,駒ケ谷１６６－１２,,27,222,5830841,,,,,,,2022-03-01,1,,,,,ウィズリンケージ,0
1509,6120901045621,新規,0,2022-03-01,2022-03-01,株式会社ＯＮ　ＴＳＵＮＡＧＵ,,株式会社,大阪府,豊中市,螢池西町１丁目１４番２０号,,27,203,5600036,,,,,,,2022-03-01,1,,,,,オンツナグ,0
1526,6140003017344,新規,0,2022-03-01,2022-03-01,合同会社Ｇｒａｎｄｉｌｌ,,合同会社,兵庫県,神戸市須磨区,磯馴町６丁目２－１８－１０２,,28,107,6540047,,,,,,,2022-03-01,1,,,,,グランディール,0
1535,6180001150060,新規,0,2022-03-01,2022-03-01,ＡＳＵＲＡＫＵ株式会社,,株式会社,愛知県,名古屋市中区,正木４丁目８番８号メゾン金山８０１,,23,106,4600024,,,,,,,2022-03-01,1,,,,,アスラク,0
1536,6180001150151,新規,0,2022-03-01,2022-03-01,株式会社ｋｌｕｔｃｈ,,株式会社,愛知県,名古屋市中区,千代田３丁目８－３,,23,106,4600012,,,,,,,2022-03-01,1,,,,,クラッチ,0
1539,6180003023537,新規,0,2022-03-01,2022-03-01,ＳＨＩＮＥ合同会社,,合同会社,愛知県,名古屋市昭和区,滝川町２６番地の１杁中スカイタウンＡ棟１２０１号,,23,107,4660826,,,,,,,2022-03-01,1,,,,,シャイン,0
1540,6180003023545,新規,0,2022-03-01,2022-03-01,合同会社ｃｏｍ,,合同会社,愛知県,あま市,篠田八原９０番地２,,23,237,4901211,,,,,,,2022-03-01,1,,,,,コム,0
1554,6210003001464,新規,0,2022-03-01,2022-03-01,臨海コンサルタント合同会社,,合同会社,福井県,福井市,八重巻東町６の８番地,,18,201,9100157,,,,,,,2022-03-01,1,,,,,リンカイコンサルタント,0
1556,6230001019250,新規,0,2022-03-01,2022-03-01,株式会社クリエイト,,株式会社,富山県,富山市,中市２丁目３番３１号,,16,201,9398005,,,,,,,2022-03-01,1,,,,,クリエイト,0
1574,6290001096581,新規,0,2022-03-01,2022-03-01,株式会社Ｂｃａｐ,,株式会社,福岡県,福岡市中央区,港２丁目７番３号,,40,133,8100075,,,,,,,2022-03-01,1,,,,,ビーキャップ,0
1578,6290003012207,新規,0,2022-03-01,2022-03-01,合同会社ｍｉｙａｂｉ,,合同会社,福岡県,福岡市博多区,博多駅南３丁目２番３号,,40,132,8120016,,,,,,,2022-03-01,1,,,,,ミヤビ,0
1581,6300002011075,新規,0,2022-03-01,2022-03-01,有限会社新屋,,有限会社,佐賀県,唐津市,呼子町殿ノ浦１６３０番地第１イ,,41,202,8470304,,,,,,,2022-03-01,1,,,,,,0
1593,6350003004032,新規,0,2022-03-01,2022-03-01,合同会社杏柚,,合同会社,宮崎県,都城市,吉尾町２０４４番地３,,45,202,8850006,,,,,,,2022-03-01,1,,,,,アンズ,0
1594,6360001030054,新規,0,2022-03-01,2022-03-01,株式会社クレアサポート,,株式会社,沖縄県,那覇市,若狭１丁目２２番１５号アイゼン若狭ビル３０２号室,,47,201,9000031,,,,,,,2022-03-01,1,,,,,クレアサポート,0
1600,6400003002906,新規,0,2022-03-01,2022-03-01,合同会社ＣＡＲＲＹ,,合同会社,岩手県,一関市,萩荘字袋田１４５番地１メゾン・袋田Ｂ１０１,,03,209,0210902,,,,,,,2022-03-01,1,,,,,キャリー,0
1601,6420001017747,新規,0,2022-03-01,2022-03-01,株式会社ナユーズ,,株式会社,青森県,弘前市,大字松森町６５番地１,,02,202,0368184,,,,,,,2022-03-01,1,,,,,ナユーズ,0
1616,6500001024025,新規,0,2022-03-01,2022-03-01,ミールラボラトリー株式会社,,株式会社,愛媛県,松山市,針田町１００番地４,,38,201,7900055,,,,,,,2022-03-01,1,,,,,ミールラボラトリー,0
1622,7010001224763,新規,0,2022-03-01,2022-03-01,虎ぷろ株式会社,,株式会社,東京都,中央区,日本橋本町４丁目２番１号,,13,102,1030023,,,,,,,2022-03-01,1,,,,,トラプロ,0
1623,7010001224879,新規,0,2022-03-01,2022-03-01,株式会社ＦＰＣ,,株式会社,東京都,千代田区,外神田６丁目５番９号,,13,101,1010021,,,,,,,2022-03-01,1,,,,,エフピーシー,0
1627,7010003037065,新規,0,2022-03-01,2022-03-01,ＬｉｎＣｒｅａｔｉｏｎ合同会社,,合同会社,東京都,千代田区,岩本町３丁目１０番地７号東自機ビル７ＦイーオフィスＡＫＩＢＡ５番館３６号室,,13,101,1010032,,,,,,,2022-03-01,1,,,,,リンクリエイション,0
1628,7010005034655,新規,0,2022-03-01,2022-03-01,一般社団法人かかりつけ温泉を守る会,,その他の設立登記法人,東京都,千代田区,神田富山町７番地,,13,101,1010043,,,,,,,2022-03-01,1,,,,,カカリツケオンセンヲマモルカイ,0
1629,7010005034663,新規,0,2022-03-01,2022-03-01,一般社団法人エスカリエ,,その他の設立登記法人,東京都,中央区,日本橋１丁目４番１号日本橋一丁目ビルディング,,13,102,1030027,,,,,,,2022-03-01,1,,,,,エスカリエ,0
1639,7010403027153,新規,0,2022-03-01,2022-03-01,合同会社已己巳己,,合同会社,東京都,港区,南青山２丁目２番１５号,,13,103,1070062,,,,,,,2022-03-01,1,,,,,イコミキ,0
1645,7010601060732,新規,0,2022-03-01,2022-03-01,株式会社ＬＩＮＯ,,株式会社,東京都,江東区,亀戸５丁目１６番５号１５ビル２０１,,13,108,1360071,,,,,,,2022-03-01,1,,,,,リノ,0
1646,7010601060740,新規,0,2022-03-01,2022-03-01,株式会社ＳＨＵＵＨＯ,,株式会社,東京都,江東区,大島５丁目３２番５－１１０８号,,13,108,1360072,,,,,,,2022-03-01,1,,,,,シュウホウ,0
1650,7010703006121,新規,0,2022-03-01,2022-03-01,合同会社ソラボ,,合同会社,東京都,品川区,東品川３丁目２２番２０－５０１号,,13,109,1400002,,,,,,,2022-03-01,1,,,,,ソラボ,0
1651,7010705003323,新規,0,2022-03-01,2022-03-01,一般社団法人東亜芸術協会,,その他の設立登記法人,東京都,品川区,中延６丁目３番８号,,13,109,1420053,,,,,,,2022-03-01,1,,,,,トウアゲイジュツキョウカイ,0
1652,7010801032770,新規,0,2022-03-01,2022-03-01,株式会社弥勒,,株式会社,東京都,大田区,東糀谷４丁目４番５号,,13,111,1440033,,,,,,,2022-03-01,1,,,,,ミロク,0
1656,7010901050417,新規,0,2022-03-01,2022-03-01,株式会社ＳＴＧ,,株式会社,東京都,世田谷区,南烏山６丁目７－１６,,13,112,1570062,,,,,,,2022-03-01,1,,,,,エスティージー,0
1662,7011001145859,新規,0,2022-03-01,2022-03-01,株式会社Ｉｎ　ｍｉｎｄ,,株式会社,東京都,目黒区,下目黒２丁目９－２－８２４,,13,110,1530064,,,,,,,2022-03-01,1,,,,,インマインド,0
1663,7011001145982,新規,0,2022-03-01,2022-03-01,株式会社Ｄｏｌｃｅ　Ｍｏｎｄｏ,,株式会社,東京都,渋谷区,広尾１丁目１３番１号,,13,113,1500012,,,,,,,2022-03-01,1,,,,,ドルチェモンド,0
1665,7011101097926,新規,0,2022-03-01,2022-03-01,株式会社壱式,,株式会社,東京都,新宿区,百人町１丁目２０番１６号,,13,104,1690073,,,,,,,2022-03-01,1,,,,,イッシキ,0
1666,7011101097942,新規,0,2022-03-01,2022-03-01,株式会社ＡＰＣ,,株式会社,東京都,新宿区,歌舞伎町２丁目２９番８号,,13,104,1600021,,,,,,,2022-03-01,1,,,,,,0
1667,7011101097991,新規,0,2022-03-01,2022-03-01,株式会社Ｃｏｎｃｙ,,株式会社,東京都,新宿区,西新宿３丁目３番１３号西新宿水間ビル６階,,13,104,1600023,,,,,,,2022-03-01,1,,,,,コンシー,0
1669,7011103011521,新規,0,2022-03-01,2022-03-01,合同会社Ｏｌｄ　Ｏｎｅ,,合同会社,東京都,新宿区,新宿５丁目２－２３ドルーチェＮ３号室,,13,104,1600022,,,,,,,2022-03-01,1,,,,,オールドワン,0
1673,7011301027591,新規,0,2022-03-01,2022-03-01,株式会社バーミリオンライト,,株式会社,東京都,杉並区,松ノ木３丁目１４番３号,,13,115,1660014,,,,,,,2022-03-01,1,,,,,バーミリオンライト,0
1682,7011501027796,新規,0,2022-03-01,2022-03-01,株式会社Ｋ２,,株式会社,東京都,北区,浮間３丁目３４－２４－２０１,,13,117,1150051,,,,,,,2022-03-01,1,,,,,ケーツー,0
1684,7011703003075,新規,0,2022-03-01,2022-03-01,合同会社ＳＨＥＬＬＦＩＳＨ,,合同会社,東京都,江戸川区,南篠崎町４丁目３０番８号,,13,123,1330065,,,,,,,2022-03-01,1,,,,,シェルフィッシュ,0
1689,7012301012897,新規,0,2022-03-01,2022-03-01,株式会社ミトマ企画,,株式会社,東京都,町田市,木曽西４丁目５番４６号,,13,209,1940037,,,,,,,2022-03-01,1,,,,,,0
1698,7013301048733,新規,0,2022-03-01,2022-03-01,マスタリーヒューマン株式会社,,株式会社,東京都,豊島区,西池袋５丁目１７番１１号ルート西池袋ビル７階,,13,116,1710021,,,,,,,2022-03-01,1,,,,,マスタリーヒューマン,0
1711,7020001145414,新規,0,2022-03-01,2022-03-01,株式会社ｌｉｎｄｅｎ　ｉｎｖｅｓｔｍｅｎｔ,,株式会社,神奈川県,横浜市戸塚区,吉田町１０１０番地１,,14,110,2440817,,,,,,,2022-03-01,1,,,,,リンデンインベストメント,0
1725,7040001122353,新規,0,2022-03-01,2022-03-01,株式会社ＫＵＭＡ,,株式会社,千葉県,柏市,松葉町３丁目８番地７,,12,217,2770827,,,,,,,2022-03-01,1,,,,,クマ,0
1732,7040003019580,新規,0,2022-03-01,2022-03-01,Ａ－ｔｒａｄｉｎｇ合同会社,,合同会社,千葉県,船橋市,夏見５丁目５番４号,,12,204,2730865,,,,,,,2022-03-01,1,,,,,エートレーディング,0
1733,7040003019589,新規,0,2022-03-01,2022-03-01,合同会社Ｈ．Ｐ．Ｆ,,合同会社,千葉県,匝瑳市,今泉７９２８,,12,235,2893182,,,,,,,2022-03-01,1,,,,,エイチピーエフ,0
1736,7050003006396,新規,0,2022-03-01,2022-03-01,合同会社くー＆ぽん,,合同会社,茨城県,つくば市,研究学園６丁目２３番地１８,,08,220,3050817,,,,,,,2022-03-01,1,,,,,クーアンドポン,0
1753,7090003002045,新規,0,2022-03-01,2022-03-01,合同会社クオン薬局,,合同会社,山梨県,南巨摩郡身延町,身延３７１８番地,,19,365,4092524,,,,,,,2022-03-01,1,,,,,,0
1756,7110001036463,新規,0,2022-03-01,2022-03-01,株式会社わかば,,株式会社,新潟県,新潟市秋葉区,小須戸町１０６番地１,,15,105,9560101,,,,,,,2022-03-01,1,,,,,ワカバ,0
1766,7120001243991,新規,0,2022-03-01,2022-03-01,株式会社Ｇ．Ｉ．Ｎ．,,株式会社,大阪府,大阪市生野区,巽北３丁目７番４号,00125833,27,116,5440004,,,,,,,2022-03-01,1,,,,,ジーアイエヌ,0
1767,7120001244032,新規,0,2022-03-01,2022-03-01,株式会社Ｍｅｔａｔｒｏｎ８,,株式会社,大阪府,大阪市西区,南堀江２丁目４番８－１４０１号,,27,106,5500015,,,,,,,2022-03-01,1,,,,,メタトロンエイト,0
1768,7120001244065,新規,0,2022-03-01,2022-03-01,株式会社ファースト,,株式会社,大阪府,大阪市中央区,南船場３丁目１番１６号日宝ラッキービル６階５号室,,27,128,5420081,,,,,,,2022-03-01,1,,,,,ファースト,0
1769,7120001244098,新規,0,2022-03-01,2022-03-01,メタ不動産株式会社,,株式会社,大阪府,大阪市天王寺区,烏ケ辻２丁目１０番１８号,00125829,27,109,5430042,,,,,,,2022-03-01,1,,,,,メタフドウサン,0
1770,7120001244123,新規,0,2022-03-01,2022-03-01,アールージュ株式会社,,株式会社,大阪府,大阪市中央区,博労町４丁目２番８号,,27,128,5410059,,,,,,,2022-03-01,1,,,,,アールージュ,0
1771,7120001244131,新規,0,2022-03-01,2022-03-01,株式会社ＩＮＩ,,株式会社,大阪府,大阪市住吉区,苅田１丁目４番１６－５０４号,,27,120,5580011,,,,,,,2022-03-01,1,,,,,アイエヌアイ,0
1775,7120003021207,新規,0,2022-03-01,2022-03-01,合同会社マストプロモート,,合同会社,大阪府,大阪市北区,梅田１丁目１－３大阪駅前第３ビル２９階１－１－１号室,,27,127,5300001,,,,,,,2022-03-01,1,,,,,マストプロモート,0
1779,7120901045637,新規,0,2022-03-01,2022-03-01,株式会社ＹｏｕＩｍｉｔ,,株式会社,大阪府,豊中市,岡上の町１丁目２番６号,,27,203,5600023,,,,,,,2022-03-01,1,,,,,ユーアイミット,0
1786,7130001071194,新規,0,2022-03-01,2022-03-01,株式会社Ｈｕｔｚｐａｈ,,株式会社,京都府,京都市下京区,中堂寺南町１３４番地ＡＳＴＥＭビル８階,,26,106,6008813,,,,,,,2022-03-01,1,,,,,フツパ,0
1791,7140003017401,新規,0,2022-03-01,2022-03-01,ジーテック合同会社,,合同会社,兵庫県,神戸市西区,桜が丘中町１丁目５－１１,,28,111,6512226,,,,,,,2022-03-01,1,,,,,ジーテック,0
1793,7140005026053,新規,0,2022-03-01,2022-03-01,社会福祉法人ワーキングにしはりま,,その他の設立登記法人,兵庫県,相生市,旭１丁目５番１５号,,28,208,6780031,,,,,,,2022-03-01,1,,,,,ワーキングニシハリマ,0
1801,7170003001690,新規,0,2022-03-01,2022-03-01,合同会社ＦＭＫ,,合同会社,和歌山県,和歌山市,有本５１２,,30,201,6408390,,,,,,,2022-03-01,1,,,,,エフエムケー,0
1805,7180001150134,新規,0,2022-03-01,2022-03-01,株式会社ｎａｇｏｙａ　ｉｍｐｏｒｔ,,株式会社,愛知県,名古屋市北区,成願寺１丁目６番地Ａ‐２８１０号（ザ・シーン城北）,,23,103,4620021,,,,,,,2022-03-01,1,,,,,ナゴヤインポート,0
1806,7180001150150,新規,0,2022-03-01,2022-03-01,株式会社じゅんれい,,株式会社,愛知県,日進市,折戸町稲荷７番地,,23,230,4700115,,,,,,,2022-03-01,1,,,,,ジュンレイ,0
1807,7180001150159,新規,0,2022-03-01,2022-03-01,株式会社山水電気工事,,株式会社,愛知県,一宮市,西萩原字東浦１２８３番地４,,23,203,4940011,,,,,,,2022-03-01,1,,,,,サンスイデンキコウジ,0
1808,7180001150167,新規,0,2022-03-01,2022-03-01,株式会社Ｆｕｔｕｒｅ　Ａｓｓｉｇｎｍｅｎｔｓ,,株式会社,愛知県,名古屋市昭和区,山手通１丁目１７番地の１,,23,107,4660815,,,,,,,2022-03-01,1,,,,,フューチャーアサインメント,0
1811,7180003023528,新規,0,2022-03-01,2022-03-01,ＫＯＴＯＷＡ　ＰＬＡＮ合同会社,,合同会社,愛知県,名古屋市名東区,高針５丁目８１４番地,,23,115,4650061,,,,,,,2022-03-01,1,,,,,コトワプラン,0
1812,7180003023544,新規,0,2022-03-01,2022-03-01,オンサイド合同会社,,合同会社,愛知県,東海市,富貴ノ台３丁目１１番地,,23,222,4760014,,,,,,,2022-03-01,1,,,,,オンサイド,0
1813,7180005019656,新規,0,2022-03-01,2022-03-01,一般社団法人ペットと人の幸せ研究所,,その他の設立登記法人,愛知県,名古屋市中区,上前津２丁目１０番２０号,,23,106,4600013,,,,,,,2022-03-01,1,,,,,ペットトヒトノシアワセケンキュウジョ,0
1818,7190003003909,新規,0,2022-03-01,2022-03-01,合同会社ＴＯＭＯＮＥＥＬ,,合同会社,三重県,亀山市,関町古厩１９２,00125839,24,210,5191113,,,,,,,2022-03-01,1,,,,,トモニール,0
1822,7200001039779,新規,0,2022-03-01,2022-03-01,株式会社ａｌｔｉｓ,,株式会社,岐阜県,岐阜市,徹明通５丁目２６番地１,,21,201,5008879,,,,,,,2022-03-01,1,,,,,アルティス,0
1839,7240001059393,新規,0,2022-03-01,2022-03-01,株式会社ＨＩＦ‐Ｅ,,株式会社,広島県,広島市中区,八丁堀６番１６－３０３号,,34,101,7300013,,,,,,,2022-03-01,1,,,,,エイチアイエフイー,0
1845,7260001036580,新規,0,2022-03-01,2022-03-01,株式会社トラックオフ,,株式会社,岡山県,倉敷市,川西町１７番１２アルファライフ倉敷駅西９０４号,,33,202,7100821,,,,,,,2022-03-01,1,,,,,トラックオフ,0
1854,7280005007469,新規,0,2022-03-01,2022-03-01,おおなん地域づくり事業協同組合,,その他の設立登記法人,島根県,邑智郡邑南町,下田所９２９番地１,,32,449,6960222,,,,,,,2022-03-01,1,,,,,オオナンチイキヅクリ,0
1857,7290001096580,新規,0,2022-03-01,2022-03-01,株式会社ｎ‐ｔｏｙ,,株式会社,福岡県,福岡市中央区,港２丁目７番３号,,40,133,8100075,,,,,,,2022-03-01,1,,,,,エヌトイ,0
1859,7290801028287,新規,0,2022-03-01,2022-03-01,株式会社ＮＡＲＡＦＵ,,株式会社,福岡県,北九州市小倉南区,長尾２丁目１－２０,,40,107,8030274,,,,,,,2022-03-01,1,,,,,ナラフ,0
1862,7310003004290,新規,0,2022-03-01,2022-03-01,ＧＥＭバンビーナ合同会社,,合同会社,長崎県,島原市,万町５００番地,,42,203,8550804,,,,,,,2022-03-01,1,,,,,,0
1875,7360005006603,新規,0,2022-03-01,2022-03-01,一般社団法人ＣｏＡｒ,,その他の設立登記法人,沖縄県,中頭郡読谷村,字宇座１８６１（残波岬いこいの広場内）,,47,324,9040328,,,,,,,2022-03-01,1,,,,,コア,0
1886,7430001086063,新規,0,2022-03-01,2022-03-01,株式会社ＦＭＧ,,株式会社,北海道,日高郡新ひだか町,静内末広町３丁目１番６１号,,01,610,0560026,,,,,,,2022-03-01,1,,,,,エフエムジー,0
1899,7500001024024,新規,0,2022-03-01,2022-03-01,株式会社ＴＥＮＺＩＮ,,株式会社,愛媛県,松山市,竹原２丁目２番１８号サーパス竹原１２０１号,,38,201,7900053,,,,,,,2022-03-01,1,,,,,テンジン,0
1901,7500003002779,新規,0,2022-03-01,2022-03-01,花と花合同会社,,合同会社,愛媛県,大洲市,若宮１９５番地３,,38,207,7950052,,,,,,,2022-03-01,1,,,,,ハナトハナ,0
1902,7700150106874,新規,0,2022-03-01,2022-01-31,ＮＧＯ・外務省定期協議会連携推進委員会ＮＧＯ側委員会,,その他,山形県,山形市,荒楯町１丁目１７－４０ＩＶＹ,,06,201,9902432,,,,,,,2022-01-31,1,,,,,エヌジーオーガイムシヨウテイキキヨウギカイレンケイスイシンイインカイエヌジーオーガワイインカイ,0
1906,8010001224837,新規,0,2022-03-01,2022-03-01,株式会社ＤＩＰＲＯ,,株式会社,東京都,千代田区,大手町１丁目７番２号東京サンケイビル,,13,101,1000004,,,,,,,2022-03-01,1,,,,,ディプロ,0
1907,8010001224886,新規,0,2022-03-01,2022-03-01,株式会社アプリブ,,株式会社,東京都,千代田区,二番町７－１５,,13,101,1020084,,,,,,,2022-03-01,1,,,,,アプリブ,0
1909,8010105002148,新規,0,2022-03-01,2022-03-01,一般社団法人ＢＬＡＳＴ　ＷＡＶＥ　ａｑｕａｔｉｃｓ,,その他の設立登記法人,東京都,八王子市,片倉町９３７番地４７,,13,201,1920914,,,,,,,2022-03-01,1,,,,,ブラストウェーブアクアティックス,0
1913,8010403027160,新規,0,2022-03-01,2022-03-01,合同会社ＧＲＥＥＮ　ＬＩＧＨＴ,,合同会社,東京都,港区,元麻布３丁目１番６号,,13,103,1060046,,,,,,,2022-03-01,1,,,,,グリーンライト,0
1916,8010405020733,新規,0,2022-03-01,2022-03-01,一般財団法人先端医療及びＳＤＧｓ推進協会,,その他の設立登記法人,東京都,港区,高輪３丁目９－１１－７０１,,13,103,1080074,,,,,,,2022-03-01,1,,,,,センタンイリョウオヨビエスディージーズスイシンキョウカイ,0
1918,8010501048521,新規,0,2022-03-01,2022-03-01,Ｂｌｕｅ　Ｓｈｏｅｓ株式会社,,株式会社,東京都,台東区,柳橋１丁目８番１－９０１号ワンルーフレジデンス浅草橋,,13,106,1110052,,,,,,,2022-03-01,1,,,,,ブルーシューズ,0
1921,8010601060731,新規,0,2022-03-01,2022-03-01,晴天株式会社,,株式会社,東京都,江東区,東陽７丁目３番１－６０１号,,13,108,1350016,,,,,,,2022-03-01,1,,,,,ブライト,0
1922,8010601060748,新規,0,2022-03-01,2022-03-01,エヌスリー株式会社,,株式会社,東京都,墨田区,業平２丁目１２番３号プティアムススカイツリー前１０３号,,13,107,1300002,,,,,,,2022-03-01,1,,,,,エヌスリー,0
1931,8010903007182,新規,0,2022-03-01,2022-03-01,Ｉｔｏ　Ｔｏｋｙｏ合同会社,,合同会社,東京都,世田谷区,尾山台１丁目１３番２６号,,13,112,1580086,,,,,,,2022-03-01,1,,,,,イトトウキョウ,0
1942,8011005009456,新規,0,2022-03-01,2022-03-01,一般社団法人もみの木の会,,その他の設立登記法人,東京都,渋谷区,恵比寿１丁目１９番１５号,,13,113,1500013,,,,,,,2022-03-01,1,,,,,モミノキノカイ,0
1943,8011101097966,新規,0,2022-03-01,2022-03-01,株式会社ウイング,,株式会社,東京都,新宿区,下落合３丁目１９番２号井関ビル３階,,13,104,1610033,,,,,,,2022-03-01,1,,,,,ウイング,0
1944,8011101097974,新規,0,2022-03-01,2022-03-01,株式会社千,,株式会社,東京都,新宿区,歌舞伎町１丁目３番１０号,,13,104,1600021,,,,,,,2022-03-01,1,,,,,セン,0
1945,8011103011512,新規,0,2022-03-01,2022-03-01,合同会社トレカン,,合同会社,東京都,新宿区,新宿１丁目３６番２号新宿第七葉山ビル３階,,13,104,1600022,,,,,,,2022-03-01,1,,,,,トレカン,0
1952,8011401024050,新規,0,2022-03-01,2022-03-01,株式会社月亮商店,,株式会社,東京都,板橋区,小茂根２丁目１２－１０－１階,,13,119,1730037,,,,,,,2022-03-01,1,,,,,ゲツリョウショウテン,0
1953,8011401024059,新規,0,2022-03-01,2022-03-01,都心アセットマネジメント株式会社,,株式会社,東京都,板橋区,志村３丁目１７－２－３階,,13,119,1740056,,,,,,,2022-03-01,1,,,,,トシンアセットマネジメント,0
1955,8011605002430,新規,0,2022-03-01,2022-03-01,一般社団法人未熟児家族支援・がんばりっこ,,その他の設立登記法人,東京都,練馬区,東大泉１丁目９番１４号,,13,120,1780063,,,,,,,2022-03-01,1,,,,,ミジュクジカゾクシエンガンバリッコ,0
1965,8013301048740,新規,0,2022-03-01,2022-03-01,株式会社リザラズ,,株式会社,東京都,豊島区,南池袋２丁目８番１７号第一豊南ビル３０３号,,13,116,1710022,,,,,,,2022-03-01,1,,,,,リザラズ,0
1975,8020005015397,新規,0,2022-03-01,2022-03-01,一般社団法人ＩＰＡかわさき,,その他の設立登記法人,神奈川県,川崎市麻生区,細山４丁目２７番１７号,,14,137,2150001,,,,,,,2022-03-01,1,,,,,アイピーエーカワサキ,0
1984,8021003011421,新規,0,2022-03-01,2022-03-01,合同会社ＪＣ商事,,合同会社,神奈川県,大和市,鶴間２丁目２番２２号,,14,213,2420004,,,,,,,2022-03-01,1,,,,,ジェイシーショウジ,0
1985,8030001147012,新規,0,2022-03-01,2022-03-01,株式会社一晴,,株式会社,埼玉県,川越市,大字寺尾２５番地３４,,11,201,3501141,,,,,,,2022-03-01,1,,,,,イッセイ,0
1995,8040001122369,新規,0,2022-03-01,2022-03-01,株式会社Ｆｏｒｔｕｎｅ,,株式会社,千葉県,千葉市若葉区,都賀１丁目２６番１号,,12,104,2640025,,,,,,,2022-03-01,1,,,,,フォーチューン,0
1996,8040001122393,新規,0,2022-03-01,2022-03-01,株式会社ＭＩＲＡＩ・ＲＡＮ,,株式会社,千葉県,市川市,相之川２丁目４番１２号トップ行徳１０５号,,12,203,2720143,,,,,,,2022-03-01,1,,,,,ミライラン,0
2001,8040003019571,新規,0,2022-03-01,2022-03-01,合同会社ＵＫ　ＢＡＳＥ,,合同会社,千葉県,柏市,東中新宿３丁目２番３号,,12,217,2770061,,,,,,,2022-03-01,1,,,,,ユーケーベース,0
2006,8050003006395,新規,0,2022-03-01,2022-03-01,ＫＩＳＥＫＩ合同会社,,合同会社,茨城県,石岡市,杉並３丁目７番１１号,,08,205,3150027,,,,,,,2022-03-01,1,,,,,キセキ,0
2007,8050003006404,新規,0,2022-03-01,2022-03-01,合同会社草草カンパニー,,合同会社,茨城県,龍ケ崎市,貝原塚町３７１７番地１,,08,208,3010856,,,,,,,2022-03-01,1,,,,,クサクサカンパニー,0
2025,8110002000070,新規,0,2022-03-01,2022-03-01,有限会社黒埼不動産,,有限会社,新潟県,新潟市西区,金巻１０９８番地１,,15,107,9501112,,,,,,,2022-03-01,1,,,,,クロサキフドウサン,0
2035,8120001244031,新規,0,2022-03-01,2022-03-01,株式会社ゴンバーガーウェスト,,株式会社,大阪府,大阪市浪速区,日本橋東１丁目１４番８号,,27,111,5560006,,,,,,,2022-03-01,1,,,,,ゴンバーガーウェスト,0
2036,8120001244097,新規,0,2022-03-01,2022-03-01,株式会社ｈｏｎｍａｒｕ,,株式会社,大阪府,寝屋川市,香里北之町２番６号４０３,,27,215,5720080,,,,,,,2022-03-01,1,,,,,ホンマル,0
2037,8120001244114,新規,0,2022-03-01,2022-03-01,株式会社カズホ,,株式会社,大阪府,大阪市淀川区,西宮原３丁目２番１－５２７号,,27,123,5320004,,,,,,,2022-03-01,1,,,,,カズホ,0
2038,8120001244130,新規,0,2022-03-01,2022-03-01,株式会社グッドワークス,,株式会社,大阪府,大阪市東住吉区,今川５丁目３番８－４０６号,,27,121,5460003,,,,,,,2022-03-01,1,,,,,グッドワークス,0
2042,8120003021206,新規,0,2022-03-01,2022-03-01,合同会社ＭＡＲＵ,,合同会社,大阪府,大阪市中央区,玉造２丁目１０－２－７０２,,27,128,5400004,,,,,,,2022-03-01,1,,,,,マル,0
2051,8130001071160,新規,0,2022-03-01,2022-03-01,ＮＹＳ商会株式会社,,株式会社,京都府,木津川市,木津八ケ坪２５－２２,,26,214,6190214,,,,,,,2022-03-01,1,,,,,ニーズショウカイ,0
2053,8130005016392,新規,0,2022-03-01,2022-03-01,一般社団法人Ｓｐｅａｋ　Ｙｏｕｒ　Ｈｅａｒｔ,,その他の設立登記法人,京都府,京都市北区,西賀茂今原町４８番地１,,26,101,6038842,,,,,,,2022-03-01,1,,,,,スピークユアハート,0
2062,8140003017400,新規,0,2022-03-01,2022-03-01,合同会社ＳＴＥＡＭ,,合同会社,兵庫県,神戸市灘区,琵琶町１丁目６番６号,,28,102,6570041,,,,,,,2022-03-01,1,,,,,スティーム,0
2067,8160003002499,新規,0,2022-03-01,2022-03-01,合同会社Ｗｒｉｔｅｒｓ－ｈｕｂ,,合同会社,滋賀県,彦根市,小泉町３１０－１６,,25,202,5220043,,,,,,,2022-03-01,1,,,,,ライターズハブ,0
2077,8180003023543,新規,0,2022-03-01,2022-03-01,合同会社キャディー,,合同会社,愛知県,名古屋市名東区,大針３丁目２１９－２０３,,23,115,4650064,,,,,,,2022-03-01,1,,,,,キャディー,0
2078,8180003023551,新規,0,2022-03-01,2022-03-01,テックシステム合同会社,,合同会社,愛知県,一宮市,猿海道２丁目１７番１２号スタジオーネリーヴァＢ２０１,,23,203,4910838,,,,,,,2022-03-01,1,,,,,テックシステム,0
2079,8180005019655,新規,0,2022-03-01,2022-03-01,特定非営利活動法人たんぽぽの風,,その他の設立登記法人,愛知県,春日井市,玉野町１４８６番地２,,23,206,4870004,,,,,,,2022-03-01,1,,,,,タンポポノカゼ,0
2087,8190003003908,新規,0,2022-03-01,2022-03-01,合同会社ＴＡＯ,,合同会社,三重県,北牟婁郡紀北町,東長島４１６番地５,,24,543,5193204,,,,,,,2022-03-01,1,,,,,タオ,0
2107,8240001059392,新規,0,2022-03-01,2022-03-01,株式会社ｂａｅ,,株式会社,広島県,東広島市,西条中央１丁目６番９－１００２号,,34,212,7390025,,,,,,,2022-03-01,1,,,,,ベイ,0
2114,8250001019429,新規,0,2022-03-01,2022-03-01,株式会社アノニモ,,株式会社,山口県,宇部市,西宇部南２丁目１２番４１号,,35,202,7590208,,,,,,,2022-03-01,1,,,,,アノニモ,0
2121,8270003001390,新規,0,2022-03-01,2022-03-01,合同会社ｂａｓｅ,,合同会社,鳥取県,倉吉市,穴沢１４２番地３,,31,203,6820901,,,,,,,2022-03-01,1,,,,,ベース,0
2122,8270005005497,新規,0,2022-03-01,2022-03-01,ＮＰＯ法人ぴーす,,その他の設立登記法人,鳥取県,米子市,彦名町４１４５番地,,31,202,6830854,,,,,,,2022-03-01,1,,,,,ピース,0
2140,8370001048242,新規,0,2022-03-01,2022-03-01,株式会社春瑠商社,,株式会社,宮城県,仙台市泉区,寺岡４丁目１６番９,,04,105,9813204,,,,,,,2022-03-01,1,,,,,ハルショウシャ,0
2144,8400001015791,新規,0,2022-03-01,2022-03-01,株式会社プレシードビル管理事務所,,株式会社,岩手県,盛岡市,上堂３丁目４番３１号,,03,201,0200125,,,,,,,2022-03-01,1,,,,,プレシードビルカンリジムショ,0
2153,8470003002138,新規,0,2022-03-01,2022-03-01,合同会社ＭＩＲＡＴＵＲＵ,,合同会社,香川県,丸亀市,土居町２丁目１５－６メゾニティ２０１号,,37,202,7630012,,,,,,,2022-03-01,1,,,,,ミラツル,0
2158,8480002009793,新規,0,2022-03-01,2022-03-01,有限会社トータクアパレル,,有限会社,徳島県,阿波市,阿波町居屋敷２０３番地１,,36,206,7711705,,,,,,,2022-03-01,1,,,,,トータクアパレル,0
2159,8490001010124,新規,0,2022-03-01,2022-03-01,エリオクエスト株式会社,,株式会社,高知県,高知市,大津甲２０７－５,,39,201,7815102,,,,,,,2022-03-01,1,,,,,エリオクエスト,0
2160,8500001024023,新規,0,2022-03-01,2022-03-01,株式会社ＹＫコンタクト,,株式会社,愛媛県,八幡浜市,産業通１番３号,,38,204,7968004,,,,,,,2022-03-01,1,,,,,ワイケーコンタクト,0
2162,8700150107211,新規,0,2022-03-01,2022-03-01,Ａｔａｍｉ　Ｄｅｖｅｌｏｐｍｅｎｔ　Ｇｒｏｕｐ　Ｌｉｍｉｔｅｄ,,外国会社等,,,,,,,,Ｖｉｓｔｒａ　Ｃｏｒｐｏｒａｔｅ　Ｓｅｒｖｉｃｅｓ　Ｃｅｎｔｒｅ，　Ｗｉｃｋｈａｍｓ　Ｃａｙ　ＩＩ，　Ｒｏａｄ　Ｔｏｗｎ，　Ｔｏｒｔｏｌａ，　ＶＧ１１１０,00125827,,,,,2022-03-01,1,,,,,アタミデベロツプメントグループリミテツド,0
2173,9010001224761,新規,0,2022-03-01,2022-03-01,株式会社ベーセ,,株式会社,東京都,文京区,小石川５丁目２４番３号,,13,105,1120002,,,,,,,2022-03-01,1,,,,,ベーセ,0
2174,9010001224811,新規,0,2022-03-01,2022-03-01,株式会社Ｒｏｕｉｓｅ,,株式会社,東京都,中央区,新川１丁目１５番１１号,,13,102,1040033,,,,,,,2022-03-01,1,,,,,ルイズ,0
2175,9010001224852,新規,0,2022-03-01,2022-03-01,株式会社２ＰＬＵＳ２,,株式会社,東京都,中央区,八丁堀４丁目１４番７号,,13,102,1040032,,,,,,,2022-03-01,1,,,,,ツープラスツー,0
2176,9010001224893,新規,0,2022-03-01,2022-03-01,Ｏｂｒａｓ　Ｈｏｌｄｉｎｇｓ株式会社,,株式会社,東京都,千代田区,大手町１丁目１番１号,,13,101,1000004,,,,,,,2022-03-01,1,,,,,オーブラスホールディングス,0
2177,9010003037096,新規,0,2022-03-01,2022-03-01,オアシステム合同会社,,合同会社,東京都,中央区,日本橋３丁目２番１４号新槇町ビル別館第一２階,,13,102,1030027,,,,,,,2022-03-01,1,,,,,オアシステム,0
2184,9010401165787,新規,0,2022-03-01,2022-03-01,株式会社スタジオかわベーコン,,株式会社,東京都,港区,六本木４丁目１番１６号六本木ハイツ７０５,,13,103,1060032,,,,,,,2022-03-01,1,,,,,スタジオカワベーコン,0
2185,9010401165845,新規,0,2022-03-01,2022-03-01,株式会社ＫＸホールディングス,,株式会社,東京都,港区,赤坂９丁目７番１号,,13,103,1070052,,,,,,,2022-03-01,1,,,,,ケーエックスホールディングス,0
2186,9010401165861,新規,0,2022-03-01,2022-03-01,スカイバルーン・クリエイティブ株式会社,,株式会社,東京都,港区,芝浦１丁目６番４１－１３１１号,,13,103,1050023,,,,,,,2022-03-01,1,,,,,スカイバルーンクリエイティブ,0
2187,9010403027168,新規,0,2022-03-01,2022-03-01,合同会社ＤＭＹＫ,,合同会社,東京都,港区,赤坂３丁目９－１２メトロビル２階Ｊ,,13,103,1070052,,,,,,,2022-03-01,1,,,,,ディーエムワイケー,0
2190,9010405020757,新規,0,2022-03-01,2022-03-01,一般社団法人温泉旅館２号,,その他の設立登記法人,東京都,港区,虎ノ門３丁目２２番１０－２０１号,,13,103,1050001,,,,,,,2022-03-01,1,,,,,オンセンリョカンニゴウ,0
2193,9010501048487,新規,0,2022-03-01,2022-03-01,君合貿易株式会社,,株式会社,東京都,台東区,東上野３丁目２１－７福井ビル４０２,,13,106,1100015,,,,,,,2022-03-01,1,,,,,,0
2196,9010601060739,新規,0,2022-03-01,2022-03-01,東億株式会社,,株式会社,東京都,墨田区,横川３丁目６番７号２－Ｍ室,,13,107,1300003,,,,,,,2022-03-01,1,,,,,トウオク,0
2197,9010601060747,新規,0,2022-03-01,2022-03-01,株式会社Ｒａｄｉａｎｔｓ,,株式会社,東京都,江東区,豊洲３丁目５番３号豊洲レジデンスＤ３４０,,13,108,1350061,,,,,,,2022-03-01,1,,,,,レイディアンズ,0
2198,9010601060755,新規,0,2022-03-01,2022-03-01,株式会社ｌｉｖｅ　ｌｏｎｇ　ｄｒｕｇ,,株式会社,東京都,墨田区,菊川３丁目６番６－５０６号,,13,107,1300024,,,,,,,2022-03-01,1,,,,,ライブロングドラッグ,0
2199,9010605004048,新規,0,2022-03-01,2022-03-01,一般社団法人豊洲ベイクラブ,,その他の設立登記法人,東京都,江東区,豊洲５丁目１番１３号,,13,108,1350061,,,,,,,2022-03-01,1,,,,,トヨスベイクラブ,0
2222,9011003014234,新規,0,2022-03-01,2022-03-01,ＳＴＲグローバルトレーディング合同会社,,合同会社,東京都,渋谷区,道玄坂１丁目１０番８号渋谷道玄坂東急ビル２Ｆ－Ｃ,,13,113,1500043,,,,,,,2022-03-01,1,,,,,エスティーアールグローバルトレーディング,0
2223,9011005009455,新規,0,2022-03-01,2022-03-01,一般社団法人あにファン,,その他の設立登記法人,東京都,渋谷区,道玄坂１丁目１０番８号,,13,113,1500043,,,,,,,2022-03-01,1,,,,,アニファン,0
2229,9011101097932,新規,0,2022-03-01,2022-03-01,株式会社Ａｍｐｌｉｆｙ　Ｔｅｃｈｎｏｌｏｇｙ,,株式会社,東京都,新宿区,西新宿３丁目７－１新宿パークタワーＮ３０,,13,104,1600023,,,,,,,2022-03-01,1,,,,,アンプリファイテクノロジー,0
2230,9011101097949,新規,0,2022-03-01,2022-03-01,株式会社ＵＬＴＩ－ＭＥ,,株式会社,東京都,新宿区,西新宿６丁目２５番８－２００３号,,13,104,1600023,,,,,,,2022-03-01,1,,,,,アルティム,0
2231,9011101097973,新規,0,2022-03-01,2022-03-01,株式会社ＳＰＡＣＥホールディングス,,株式会社,東京都,新宿区,西新宿７丁目１９番２２号新宿ダイカンプラザシティーＩ４０９号室,,13,104,1600023,,,,,,,2022-03-01,1,,,,,スペースホールディングス,0
2232,9011101097981,新規,0,2022-03-01,2022-03-01,株式会社Ｈ　ＳＥＡＲＣＨ,,株式会社,東京都,新宿区,西早稲田１丁目８番１２号アサヒパレス早稲田６０２,,13,104,1690051,,,,,,,2022-03-01,1,,,,,エイチサーチ,0
2233,9011105010156,新規,0,2022-03-01,2022-03-01,一般社団法人不動産相続サポート協会,,その他の設立登記法人,東京都,新宿区,西新宿７丁目１番７号,,13,104,1600023,,,,,,,2022-03-01,1,,,,,フドウサンソウゾクサポートキョウカイ,0
2238,9011503005088,新規,0,2022-03-01,2022-03-01,合同会社Ｅｒｕｐｔｉｏｎ薩摩,,合同会社,東京都,北区,上十条５丁目１２番１１号ペガサスマンション十条４０８,,13,117,1140034,,,,,,,2022-03-01,1,,,,,イラプションサツマ,0
2244,9011801040381,新規,0,2022-03-01,2022-03-01,株式会社ＦＬ－ｆｏｒｅｖｅｒｌｏｖｅ,,株式会社,東京都,足立区,興野２丁目２８番４１号オルテンシア２０１,,13,121,1230844,,,,,,,2022-03-01,1,,,,,エフエルフォーエバーラブ,0
2247,9012401038915,新規,0,2022-03-01,2022-03-01,ボナルト株式会社,,株式会社,東京都,調布市,緑ケ丘２丁目４７番地６３,,13,208,1820001,,,,,,,2022-03-01,1,,,,,ボナルト,0
2249,9013301048748,新規,0,2022-03-01,2022-03-01,株式会社富士見グローバル,,株式会社,東京都,豊島区,西池袋３丁目５番６－５０６号,,13,116,1710021,,,,,,,2022-03-01,1,,,,,フジミグローバル,0
2251,9013305003311,新規,0,2022-03-01,2022-03-01,一般社団法人日中文化振興協会,,その他の設立登記法人,東京都,豊島区,南池袋２丁目３５番７－３０１号磐田光建ビル,,13,116,1710022,,,,,,,2022-03-01,1,,,,,ニッチュウブンカシンコウキョウカイ,0
2253,9020001065676,新規,0,2022-03-01,2022-03-01,百合丘不動産株式会社,,株式会社,神奈川県,川崎市麻生区,高石１丁目１番５号,,14,137,2150003,,,,,,,2022-03-01,1,,,,,,0
2259,9020003021371,新規,0,2022-03-01,2022-03-01,合同会社三和,,合同会社,神奈川県,横浜市青葉区,黒須田３２－１３・２０１号,,14,117,2250022,,,,,,,2022-03-01,1,,,,,サンワ,0
2262,9021001075302,新規,0,2022-03-01,2022-03-01,拓実技建株式会社,,株式会社,神奈川県,小田原市,曽比１４０４番地の２,,14,206,2500851,,,,,,,2022-03-01,1,,,,,タクミギケン,0
2270,9030001146855,新規,0,2022-03-01,2022-03-01,株式会社共生,,株式会社,埼玉県,さいたま市緑区,原山４丁目４番１号,,11,109,3360931,,,,,,,2022-03-01,1,,,,,キョウセイ,0
2271,9030001146970,新規,0,2022-03-01,2022-03-01,株式会社小林興業,,株式会社,埼玉県,川口市,北原台２丁目２１番１２号,,11,203,3330815,,,,,,,2022-03-01,1,,,,,コバヤシコウギョウ,0
2272,9030001147011,新規,0,2022-03-01,2022-03-01,株式会社ランド計画,,株式会社,埼玉県,坂戸市,大字戸宮５２３番地３,,11,239,3500208,,,,,,,2022-03-01,1,,,,,ランドケイカク,0
2277,9030003018904,新規,0,2022-03-01,2022-03-01,合同会社クレアリフォーム,,合同会社,埼玉県,さいたま市桜区,栄和３丁目２番２５－４０３号,,11,106,3380823,,,,,,,2022-03-01,1,,,,,クレアリフォーム,0
2284,9040001122351,新規,0,2022-03-01,2022-03-01,株式会社ＨＩＨ,,株式会社,千葉県,成田市,加良部２丁目４番地１５,,12,211,2860036,,,,,,,2022-03-01,1,,,,,エイチアイエイチ,0
2287,9040003019579,新規,0,2022-03-01,2022-03-01,Ｍ．Ｉ．Ｍ合同会社,,合同会社,千葉県,佐倉市,王子台５丁目７番地２２Ａ－２号室,,12,212,2850837,,,,,,,2022-03-01,1,,,,,エムアイエム,0
2288,9040003019587,新規,0,2022-03-01,2022-03-01,合同会社ＪＫインターナショナル,,合同会社,千葉県,白井市,中２７８番地の８,,12,232,2701406,,,,,,,2022-03-01,1,,,,,ジェーケーインターナショナル,0
2290,9040005021533,新規,0,2022-03-01,2022-03-01,８１協同組合,,その他の設立登記法人,千葉県,船橋市,習志野台８丁目４５番１５号,,12,204,2740063,,,,,,,2022-03-01,1,,,,,エイトワン,0
2292,9050001050667,新規,0,2022-03-01,2022-03-01,株式会社ＲＩＳＥ　ＵＰ　ＦＩＲＳＴ,,株式会社,茨城県,日立市,西成沢町４丁目７番３７号,,08,202,3160032,,,,,,,2022-03-01,1,,,,,ライズアップファースト,0
2293,9050001050700,新規,0,2022-03-01,2022-03-01,株式会社ＲＡＮＪＡ　ＩＮＴＥＲＮＡＴＩＯＮＡＬ,,株式会社,茨城県,坂東市,菅谷１４６６番地１,,08,228,3060505,,,,,,,2022-03-01,1,,,,,ランジャインターナショナル,0
2294,9050003006403,新規,0,2022-03-01,2022-03-01,工風堂合同会社,,合同会社,茨城県,土浦市,藤沢字田土部廊１８６２番地４,,08,203,3004115,,,,,,,2022-03-01,1,,,,,クフウドウ,0
2295,9070003004396,新規,0,2022-03-01,2022-03-01,ＪＭＫ　ＴＲＡＤＩＮＧ合同会社,,合同会社,群馬県,前橋市,南町３丁目６５番地１２カルチャーヒルズＢ１０２号,,10,201,3710805,,,,,,,2022-03-01,1,,,,,ジェイエムケートレーディング,0
2318,9120001244105,新規,0,2022-03-01,2022-03-01,株式会社ＴＨＡＮＫＳ,,株式会社,大阪府,大阪市北区,中之島３丁目５番８号,,27,127,5300005,,,,,,,2022-03-01,1,,,,,サンクス,0
2319,9120001244138,新規,0,2022-03-01,2022-03-01,株式会社ＴＩＭ,,株式会社,大阪府,大阪市東住吉区,住道矢田５丁目５－２７,,27,121,5460022,,,,,,,2022-03-01,1,,,,,ティーアイエム,0
2327,9120101065129,新規,0,2022-03-01,2022-03-01,株式会社イーセブン,,株式会社,大阪府,堺市南区,小代６０５番地,,27,145,5900151,,,,,,,2022-03-01,1,,,,,イーセブン,0
2330,9130005016391,新規,0,2022-03-01,2022-03-01,一般社団法人ナーシングアソシエイト,,その他の設立登記法人,京都府,京都市伏見区,深草大亀谷東久宝寺町９番地８,,26,109,6120841,,,,,,,2022-03-01,1,,,,,ナーシングアソシエイト,0
2336,9160001024008,新規,0,2022-03-01,2022-03-01,株式会社Ｎ＆Ｓ,,株式会社,滋賀県,東近江市,八日市東本町１番２２号,,25,213,5270025,,,,,,,2022-03-01,1,,,,,エヌアンドエス,0
2347,9180001150066,新規,0,2022-03-01,2022-03-01,株式会社サポート愛知,,株式会社,愛知県,一宮市,多加木１丁目１６番１８号,,23,203,4910837,,,,,,,2022-03-01,1,,,,,サポートアイチ,0
2348,9180001150124,新規,0,2022-03-01,2022-03-01,株式会社ＯＺ．,,株式会社,愛知県,名古屋市西区,花の木１丁目９番１７号,,23,104,4510062,,,,,,,2022-03-01,1,,,,,オズ,0
2349,9180001150132,新規,0,2022-03-01,2022-03-01,株式会社Ｌｉｆｕｎ,,株式会社,愛知県,名古屋市中区,錦１丁目１７－１３名興ビル２Ｆ,,23,106,4600003,,,,,,,2022-03-01,1,,,,,ライファン,0
2350,9180001150140,新規,0,2022-03-01,2022-03-01,株式会社丸総グループ,,株式会社,愛知県,半田市,宮本町５丁目３２９番地の５,,23,205,4750925,,,,,,,2022-03-01,1,,,,,マルソウグループ,0
2351,9180001150149,新規,0,2022-03-01,2022-03-01,株式会社マルショウ,,株式会社,愛知県,名古屋市名東区,香流１丁目３１９番地,,23,115,4650005,,,,,,,2022-03-01,1,,,,,マルショウ,0
2352,9180003023550,新規,0,2022-03-01,2022-03-01,合同会社ｍｉｎｅｒａｌ　ｖｅｉｎ,,合同会社,愛知県,愛知郡東郷町,白鳥２丁目４番地６,,23,302,4700155,,,,,,,2022-03-01,1,,,,,ミネラルベイン,0
2357,9190001029169,新規,0,2022-03-01,2022-03-01,三重食販株式会社,,株式会社,三重県,鈴鹿市,若松北１丁目３５番３号,,24,207,5100223,,,,,,,2022-03-01,1,,,,,ミエショクハン,0
2358,9190001029177,新規,0,2022-03-01,2022-03-01,株式会社りのむ,,株式会社,三重県,津市,片田町３６３番地１,,24,201,5140084,,,,,,,2022-03-01,1,,,,,リノム,0
2369,9240001059391,新規,0,2022-03-01,2022-03-01,株式会社ＳＡＢＯ,,株式会社,広島県,呉市,中央１丁目６－３メゾンフェニックスＩＩＩ３０２号,00125830,34,202,7370051,,,,,,,2022-03-01,1,,,,,サボ,0
2375,9240003005526,新規,0,2022-03-01,2022-03-01,合同会社ｕｉｔｔｏ,,合同会社,広島県,広島市中区,上八丁堀８番２６－８０９号,,34,101,7300012,,,,,,,2022-03-01,1,,,,,ユイット,0
2377,9250005008724,新規,0,2022-03-01,2022-03-01,はぎ地域づくり協同組合,,その他の設立登記法人,山口県,萩市,大字吉部下３３０５番地,,35,204,7580305,,,,,,,2022-03-01,1,,,,,ハギチイキヅクリ,0
2387,9290005018579,新規,0,2022-03-01,2022-03-01,一般社団法人有明月,,その他の設立登記法人,福岡県,みやま市,山川町重富１２１番地,,40,229,8350000,,,,,,,2022-03-01,1,,,,,アリアケヅキ,0
2392,9310003004289,新規,0,2022-03-01,2022-03-01,合同会社ｌｉｎｏ,,合同会社,長崎県,佐世保市,大塔町６４８番地６９,,42,202,8571161,,,,,,,2022-03-01,1,,,,,リノ,0
2394,9320001018926,新規,0,2022-03-01,2022-03-01,株式会社ｙｅｔ,,株式会社,大分県,別府市,田の湯町７番２４号サンレスコ別府駅前６０２号室,,44,202,8740909,,,,,,,2022-03-01,1,,,,,イェット,0
2396,9330001029484,新規,0,2022-03-01,2022-03-01,光建設工業株式会社,,株式会社,熊本県,熊本市北区,麻生田３丁目３番６０号２Ｆ,,43,105,8618081,,,,,,,2022-03-01,1,,,,,ヒカリケンセツコウギョウ,0
2400,9360001030051,新規,0,2022-03-01,2022-03-01,株式会社大工業,,株式会社,沖縄県,中頭郡北谷町,字玉上２０５番地１５,,47,326,9040106,,,,,,,2022-03-01,1,,,,,ダイコウギョウ,0
2406,9390001016799,新規,0,2022-03-01,2022-03-01,株式会社らじょうもん,,株式会社,山形県,山形市,平清水２１０番地,,06,201,,,,,,,,2022-03-01,1,,,,,ラジョウモン,0
2407,9400003002894,新規,0,2022-03-01,2022-03-01,合同会社海と鳥と泉のカンパニー,,合同会社,岩手県,下閉伊郡岩泉町,岩泉字三本松１１番地１８,,03,483,0270501,,,,,,,2022-03-01,1,,,,,ウミトトリトイズミノカンパニー,0
2411,9430003013658,新規,0,2022-03-01,2022-03-01,合同会社Ｃｌｏｕｄ,,合同会社,北海道,苫小牧市,明野元町２丁目４番１０号,,01,213,0530051,,,,,,,2022-03-01,1,,,,,クラウド,0
2413,9450001013625,新規,0,2022-03-01,2022-03-01,匠ソフト株式会社,,株式会社,北海道,旭川市,永山六条９丁目３－１５,,01,204,0798416,,,,,,,2022-03-01,1,,,,,タクミソフト,0
2418,9480005006886,新規,0,2022-03-01,2022-03-01,ＴＳＳＴ協同組合,,その他の設立登記法人,徳島県,徳島市,鷹匠町４丁目５番地,,36,201,7700922,,,,,,,2022-03-01,1,,,,,ティエスエスティ,0
2424,9700150107210,新規,0,2022-03-01,2022-03-01,ＡＲ　ＡＵＴＯ　ＬＡＮＫＡ,,外国会社等,新潟県,妙高市,大字小濁７３１レンタルスペース１Ｆ－２,,15,217,9440221,スリランカ民主社会主義共和国、カータンクディ６、アブドゥル、ジャワード、アーリム、ロード,,,,,,2022-03-01,1,,,,,エアルオートランカー,0
