sequenceNumber,corporateNumber,process,correct,updateDate,changeDate,name,nameImageId,kind,prefectureName,cityName,streetNumber,addressImageId,prefectureCode,cityCode,postCode,addressOutside,addressOutsideImageId,closeDate,closeCause,successorCorporateNumber,changeCause,assignmentDate,latest,enName,enPrefectureName,enCityName,enAddressOutside,furigana,hihyoji
9,1010001232631,新規,0,2023-02-01,2023-02-01,株式会社ハイブリッジ,,株式会社,東京都,中央区,晴海２丁目３番２－３００５号,,13,102,1040053,,,,,,,2023-02-01,1,,,,,ハイブリッジ,0
11,1010003039736,新規,0,2023-02-01,2023-02-01,合同会社西新宿ファーストプロパティーズ,,合同会社,東京都,中央区,日本橋１丁目４番１号,,13,102,1030027,,,,,,,2023-02-01,1,,,,,ニシシンジュクファーストプロパティーズ,0
15,1010005036186,新規,0,2023-02-01,2023-02-01,一般社団法人スポーツウェルビーイング推進協議会,,その他の設立登記法人,東京都,千代田区,神田錦町３丁目２０番地,,13,101,1010054,,,,,,,2023-02-01,1,,,,,スポーツウェルビーイングスイシンキョウギカイ,0
29,1010401172155,新規,0,2023-02-01,2023-02-01,株式会社ボンザ,,株式会社,東京都,港区,芝大門２丁目１番１９号協栄ビル５Ｆ,,13,103,1050012,,,,,,,2023-02-01,1,,,,,ボンザ,0
32,1010403029428,新規,0,2023-02-01,2023-02-01,乃木坂キャピタルマネジメント合同会社,,合同会社,東京都,港区,赤坂９丁目５番１ー６０３号,,13,103,1070052,,,,,,,2023-02-01,1,,,,,ノギザカキャピタルマネジメント,0
59,1010901052427,新規,0,2023-02-01,2023-02-01,Ｍｏｍｅｎｔ　ｏｆ　Ｔｒｕｔｈ株式会社,,株式会社,東京都,世田谷区,上馬１丁目１２番５号,,13,112,1540011,,,,,,,2023-02-01,1,,,,,モーメントオブトゥルース,0
70,1011001152274,新規,0,2023-02-01,2023-02-01,株式会社街中文学,,株式会社,東京都,渋谷区,道玄坂１丁目１０番８号渋谷道玄坂東急ビル２Ｆ－Ｃ,,13,113,1500043,,,,,,,2023-02-01,1,,,,,マチナカブンガク,0
71,1011001152290,新規,0,2023-02-01,2023-02-01,Ｇｏｔｏｇａｔｅ　Ｊａｐａｎ株式会社,,株式会社,東京都,渋谷区,南平台町１６番２８号Ｄａｉｗａ渋谷スクエア６階,,13,113,1500036,,,,,,,2023-02-01,1,,,,,ゴートゥーゲートジャパン,0
72,1011001152299,新規,0,2023-02-01,2023-02-01,株式会社ＬｉＫＧ,,株式会社,東京都,渋谷区,東１丁目２－２４菱和パレス青山南５０７,,13,113,1500011,,,,,,,2023-02-01,1,,,,,リク,0
73,1011001152308,新規,0,2023-02-01,2023-02-01,株式会社ＳＦ　Ｓｍａｒｔ　Ｆｏｒｃｅ,,株式会社,東京都,渋谷区,千駄ヶ谷５丁目２７番３号やまとビル８Ｆ,,13,113,1510051,,,,,,,2023-02-01,1,,,,,エスエフスマートフォース,0
74,1011001152332,新規,0,2023-02-01,2023-02-01,株式会社ウミン,,株式会社,東京都,渋谷区,渋谷２丁目１９番１５－６０９号,,13,113,1500002,,,,,,,2023-02-01,1,,,,,ウミン,0
78,1011101101684,新規,0,2023-02-01,2023-02-01,株式会社ＭｅｅｔＡ,,株式会社,東京都,新宿区,大久保２丁目１７－４５メゾンセイガ１０１号室,,13,104,1690072,,,,,,,2023-02-01,1,,,,,ミテイ,0
84,1011501028916,新規,0,2023-02-01,2023-02-01,株式会社ＪＯＹＭＡＰ,,株式会社,東京都,北区,田端新町１丁目２６番１３号,,13,117,1140012,,,,,,,2023-02-01,1,,,,,ジョイマップ,0
92,1013301050265,新規,0,2023-02-01,2023-02-01,株式会社ルートユー,,株式会社,東京都,豊島区,目白２丁目２３番７号,,13,116,1710031,,,,,,,2023-02-01,1,,,,,ルートユー,0
122,1040001126475,新規,0,2023-02-01,2023-02-01,永盛株式会社,,株式会社,千葉県,千葉市花見川区,三角町３番地１６,,12,102,2620011,,,,,,,2023-02-01,1,,,,,エイセイ,0
123,1040001126871,新規,0,2023-02-01,2023-02-01,株式会社ｃｏｍｅｃｏ,,株式会社,千葉県,流山市,江戸川台西２丁目１１８番地,,12,220,2700115,,,,,,,2023-02-01,1,,,,,コメコ,0
128,1040005021895,新規,0,2023-02-01,2023-02-01,袖ケ浦ビルメンテナンス協同組合,,その他の設立登記法人,千葉県,袖ケ浦市,蔵波２６番地２,,12,229,2990243,,,,,,,2023-02-01,1,,,,,ソデガウラビルメンテナンス,0
129,1050001052316,新規,0,2023-02-01,2023-02-01,Ｉビューティラボ株式会社,,株式会社,茨城県,つくば市,東２丁目２６番地１９,,08,220,3050046,,,,,,,2023-02-01,1,,,,,アイビューティラボ,0
131,1050003007193,新規,0,2023-02-01,2023-02-01,Ｍｏｂｉｕｓ合同会社,,合同会社,茨城県,取手市,藤代４４番地１０,,08,217,3001512,,,,,,,2023-02-01,1,,,,,メビウス,0
132,1060005010046,新規,0,2023-02-01,2023-02-01,一般社団法人チアタンブリング協会,,その他の設立登記法人,栃木県,足利市,伊勢町１丁目７番地９,,09,202,3260053,,,,,,,2023-02-01,1,,,,,チアタンブリングキョウカイ,0
133,1070001040079,新規,0,2023-02-01,2023-02-01,小渕興業株式会社,,株式会社,群馬県,渋川市,北橘町小室８７番地４,,10,208,3770065,,,,,,,2023-02-01,1,,,,,オブチコウギョウ,0
138,1100001036098,新規,0,2023-02-01,2023-02-01,株式会社グローバルホテルサービス,,株式会社,長野県,諏訪市,大字豊田３０７番地５,,20,206,3920016,,,,,,,2023-02-01,1,,,,,グローバルホテルサービス,0
154,1120001252115,新規,0,2023-02-01,2023-02-01,アシスト株式会社,,株式会社,大阪府,枚方市,星丘２丁目１３番１１号,,27,210,5730013,,,,,,,2023-02-01,1,,,,,アシスト,0
155,1120001252172,新規,0,2023-02-01,2023-02-01,株式会社内山,,株式会社,大阪府,大阪市生野区,中川西２丁目４番１２号,,27,116,5440032,,,,,,,2023-02-01,1,,,,,ウチヤマ,0
156,1120001252189,新規,0,2023-02-01,2023-02-01,株式会社ＪＰＸＧＲＯＵＰ,,株式会社,大阪府,大阪市天王寺区,南河堀町８－１２エクセル天王寺１０２号,,27,109,5430054,,,,,,,2023-02-01,1,,,,,ジェイピーエックスグループ,0
161,1120003023357,新規,0,2023-02-01,2023-02-01,Ｐｅｒｆｏｒｍａｒｔ合同会社,,合同会社,大阪府,大阪市都島区,都島本通１丁目１９番６号山口ビル３０２号,,27,102,5340021,,,,,,,2023-02-01,1,,,,,パフォーマート,0
164,1120105009683,新規,0,2023-02-01,2023-02-01,医療法人勇愛会,,その他の設立登記法人,大阪府,堺市西区,上野芝向ヶ丘町６丁１番３４号パルファン上野芝１階,,27,144,5938303,,,,,,,2023-02-01,1,,,,,ユウアイカイ,0
167,1120901047060,新規,0,2023-02-01,2023-02-01,株式会社花菱,,株式会社,大阪府,池田市,伏尾台１丁目７番地の１,,27,204,5630017,,,,,,,2023-02-01,1,,,,,ハナビシ,0
178,1140003018652,新規,0,2023-02-01,2023-02-01,合同会社田中企画,,合同会社,兵庫県,尼崎市,戸ノ内町１丁目６番１３号,,28,202,6610961,,,,,,,2023-02-01,1,,,,,タナカキカク,0
179,1140003018669,新規,0,2023-02-01,2023-02-01,ｎｏｔｅ合同会社,,合同会社,兵庫県,神戸市中央区,下山手通３丁目１２番１－４０３号,,28,110,6500011,,,,,,,2023-02-01,1,,,,,ノオト,0
182,1150001026136,新規,0,2023-02-01,2023-02-01,株式会社山元商事,,株式会社,奈良県,香芝市,穴虫３２６７番地,,29,210,6390252,,,,,,,2023-02-01,1,,,,,ヤマモトショウジ,0
186,1180001154751,新規,0,2023-02-01,2023-02-01,株式会社Ｙ’ｓ　ＥＳＤ,,株式会社,愛知県,名古屋市天白区,元植田１丁目２５０３番地（ヒルズシンフォニー３０２）,,23,116,4680009,,,,,,,2023-02-01,1,,,,,ワイズイーエスディー,0
187,1180001154776,新規,0,2023-02-01,2023-02-01,ＡＰＯＧＥＥ株式会社,,株式会社,愛知県,一宮市,起字河田揚１６番地,,23,203,4940006,,,,,,,2023-02-01,1,,,,,アポジェ,0
193,1180005020099,新規,0,2023-02-01,2023-02-01,ザ・フューチャー協同組合,,その他の設立登記法人,愛知県,名古屋市西区,比良４丁目３０３番地,,23,104,4520802,,,,,,,2023-02-01,1,,,,,ザフューチャー,0
197,1200001040916,新規,0,2023-02-01,2023-02-01,株式会社Ｍ＆Ａ,,株式会社,岐阜県,羽島市,竹鼻町丸の内１丁目４５,,21,209,5016244,,,,,,,2023-02-01,1,,,,,エムアンドエイ,0
201,1240001061000,新規,0,2023-02-01,2023-02-01,株式会社ＹＯＬＯ,,株式会社,広島県,福山市,新涯町１丁目２５番地４６号,,34,207,7210955,,,,,,,2023-02-01,1,,,,,ヨーロー,0
202,1240002017843,新規,0,2023-02-01,2023-02-01,有限会社米澤不動産,,有限会社,広島県,広島市安佐北区,口田南１丁目８番３８号,,34,106,7391733,,,,,,,2023-02-01,1,,,,,ヨネザワフドウサン,0
222,1290001100389,新規,0,2023-02-01,2023-02-01,ＵＥＥ株式会社,,株式会社,福岡県,春日市,春日４丁目３３番地,,40,218,8160814,,,,,,,2023-02-01,1,,,,,ユイイ,0
223,1290001100406,新規,0,2023-02-01,2023-02-01,株式会社三協コーポレーション,,株式会社,福岡県,福岡市南区,横手南町１０番１０号,,40,134,8111312,,,,,,,2023-02-01,1,,,,,サンキョウコーポレーション,0
224,1290001100414,新規,0,2023-02-01,2023-02-01,ゼロジム３６９株式会社,,株式会社,福岡県,福岡市博多区,博多駅中央街１－１アミュプラザ博多地下１階「Ｑ」,,40,132,8120012,,,,,,,2023-02-01,1,,,,,ゼロジムサンロクキュー,0
226,1290003013481,新規,0,2023-02-01,2023-02-01,合同会社ＬＩＮＫＸ,,合同会社,福岡県,福岡市中央区,天神３丁目５番２２号ＯＡＫＶＩＬＬＡ天神プラストロワ７Ｆ,,40,133,8100001,,,,,,,2023-02-01,1,,,,,リンクス,0
237,1360003012674,新規,0,2023-02-01,2023-02-01,合同会社ＷＥＳＴＬＩＮＥ,,合同会社,沖縄県,南城市,玉城字船越１３３９番地の２,,47,215,9010618,,,,,,,2023-02-01,1,,,,,ウエストライン,0
238,1360003012682,新規,0,2023-02-01,2023-02-01,合同会社琉球ネット,,合同会社,沖縄県,那覇市,松山２丁目５番１０号－９０２号室,,47,201,9000032,,,,,,,2023-02-01,1,,,,,リュウキュウネット,0
258,1430003014696,新規,0,2023-02-01,2023-02-01,合同会社Ｒｅｃｏｒｅ,,合同会社,北海道,札幌市北区,屯田七条９丁目１３番１５号,,01,102,0020857,,,,,,,2023-02-01,1,,,,,リコア,0
272,2010001232416,新規,0,2023-02-01,2023-02-01,株式会社生活と舞踊,,株式会社,東京都,中央区,銀座１丁目９番１２号西山興業東銀座ビル４Ｆ,,13,102,1040061,,,,,,,2023-02-01,1,,,,,セイカツトブヨウ,0
273,2010001232655,新規,0,2023-02-01,2023-02-01,ＫＡＮＫＡＮ株式会社,,株式会社,東京都,中央区,晴海３丁目１３番１－２１０５号,,13,102,1040053,,,,,,,2023-02-01,1,,,,,カンカン,0
274,2010003039719,新規,0,2023-02-01,2023-02-01,ＥＸ　ＷＯＲＬＤ合同会社,,合同会社,東京都,中央区,銀座７丁目１３番２０号銀座ＴＨビル９階,,13,102,1040061,,,,,,,2023-02-01,1,,,,,イーエックスワールド,0
275,2010003039735,新規,0,2023-02-01,2023-02-01,合同会社キロバイト,,合同会社,東京都,中央区,八丁堀４丁目２番１０号ＡＯＪ税理士法人内,,13,102,1040032,,,,,,,2023-02-01,1,,,,,キロバイト,0
276,2010003039743,新規,0,2023-02-01,2023-02-01,Ｉｎｓｐｉｒｅ　Ｍｅｄｉｃａｌ　Ｓｙｓｔｅｍｓ　Ｊａｐａｎ合同会社,,合同会社,東京都,千代田区,丸の内１丁目８番３号丸の内トラストタワー本館２０階,,13,101,1000005,,,,,,,2023-02-01,1,,,,,インスパイアメディカルシステムズジャパン,0
278,2010101015506,新規,0,2023-02-01,2023-02-01,ＫＯＡＬＶＡ株式会社,,株式会社,東京都,八王子市,元八王子町１丁目５１４番地石井ハイツ１０３号,,13,201,1930826,,,,,,,2023-02-01,1,,,,,コアルバ,0
288,2010401172154,新規,0,2023-02-01,2023-02-01,株式会社ｄｏｕｂｌｅ,,株式会社,東京都,港区,六本木３丁目４番７号ＫＹビルＢ１Ｆ,,13,103,1060032,,,,,,,2023-02-01,1,,,,,ダブル,0
289,2010401172170,新規,0,2023-02-01,2023-02-01,株式会社Ｍ‐ＬＡＢＯ検査機構,,株式会社,東京都,港区,麻布十番１丁目１０番３号モンテプラザ麻布８０５号室,,13,103,1060045,,,,,,,2023-02-01,1,,,,,エムラボケンサキコウ,0
290,2010401172220,新規,0,2023-02-01,2023-02-01,株式会社Ｔａｌｅｎｔ　Ｉｎｎｏｖａｔｉｏｎ,,株式会社,東京都,港区,三田２丁目２１番１６号,,13,103,1080073,,,,,,,2023-02-01,1,,,,,タレントイノベーション,0
330,2011001152307,新規,0,2023-02-01,2023-02-01,株式会社ウェリエンス,,株式会社,東京都,渋谷区,恵比寿１丁目２９番１５号シティプラザ恵比寿８０４,,13,113,1500013,,,,,,,2023-02-01,1,,,,,ウェリエンス,0
342,2011103012656,新規,0,2023-02-01,2023-02-01,アンドシガー合同会社,,合同会社,東京都,新宿区,西新宿３丁目３番１３号西新宿水間ビル２階,,13,104,1600023,,,,,,,2023-02-01,1,,,,,アンドシガー,0
347,2011501028907,新規,0,2023-02-01,2023-02-01,株式会社ＲＯＵＮ,,株式会社,東京都,北区,赤羽北２丁目２４番２０号,,13,117,1150052,,,,,,,2023-02-01,1,,,,,ロウン,0
348,2011501028915,新規,0,2023-02-01,2023-02-01,松凪建工株式会社,,株式会社,東京都,北区,浮間２丁目１０－７,,13,117,1150051,,,,,,,2023-02-01,1,,,,,マツナギケンコウ,0
349,2011503005458,新規,0,2023-02-01,2023-02-01,オリーブエンターテイメント合同会社,,合同会社,東京都,北区,豊島７丁目２８番８号,,13,117,1140003,,,,,,,2023-02-01,1,,,,,オリーブエンターテイメント,0
351,2011601026554,新規,0,2023-02-01,2023-02-01,株式会社ＦＡＯ,,株式会社,東京都,練馬区,練馬１丁目３８番３号成塚方２０１号,,13,120,1760001,,,,,,,2023-02-01,1,,,,,ファオ,0
362,2021001078096,新規,0,2023-02-01,2023-02-01,株式会社へうげ,,株式会社,神奈川県,秦野市,北矢名３９０番地の１１,,14,211,2570006,,,,,,,2023-02-01,1,,,,,ヘウゲ,0
363,2021001078105,新規,0,2023-02-01,2023-02-01,株式会社庭寿苑,,株式会社,神奈川県,相模原市中央区,上溝５丁目１０番１０号,,14,152,2520243,,,,,,,2023-02-01,1,,,,,テイジュエン,0
367,2030001152075,新規,0,2023-02-01,2023-02-01,株式会社ＯＳＡＭＡ,,株式会社,埼玉県,川越市,霞ケ関東１丁目１０番地１６－１０６号室,,11,201,3501103,,,,,,,2023-02-01,1,,,,,オサマ,0
373,2030003021055,新規,0,2023-02-01,2023-02-01,ＴＥＧＡＭＩ　Ｒｏｂｏｔｉｃｓ合同会社,,合同会社,埼玉県,所沢市,くすのき台１丁目１３－２ガーデンシティ所沢２Ｆ,,11,208,3590037,,,,,,,2023-02-01,1,,,,,テガミロボティクス,0
377,2040001126805,新規,0,2023-02-01,2023-02-01,株式会社マークブロドリー,,株式会社,千葉県,市川市,下貝塚２丁目２２番１３号（ＳＴＥＬＬＡ２０９号）,,12,203,2720821,,,,,,,2023-02-01,1,,,,,マークブロドリー,0
379,2040003021789,新規,0,2023-02-01,2023-02-01,マックスアンドアソシエイツ合同会社,,合同会社,千葉県,柏市,増尾８丁目３番２号,,12,217,2770033,,,,,,,2023-02-01,1,,,,,マックスアンドアソシエイツ,0
380,2040003021814,新規,0,2023-02-01,2023-02-01,ＲＡＨＯＢＯＴ合同会社,,合同会社,千葉県,市川市,大洲４丁目９－３３,,12,203,2720032,,,,,,,2023-02-01,1,,,,,ラホボト,0
381,2040003021830,新規,0,2023-02-01,2023-02-01,合同会社ＦＲＡＮＫ　ＶＥＮＴＵＲＥＳ,,合同会社,千葉県,野田市,中戸６８－３,,12,208,2700215,,,,,,,2023-02-01,1,,,,,フランクベンチャーズ,0
385,2050003007201,新規,0,2023-02-01,2023-02-01,合同会社Ｈａｒｓｈａ　Ｍｏｔｏｒｓ,,合同会社,茨城県,坂東市,神田山２２７２番地,,08,228,3060617,,,,,,,2023-02-01,1,,,,,ハルシャモータース,0
387,2060001035657,新規,0,2023-02-01,2023-02-01,株式会社ガンルームシモン,,株式会社,栃木県,芳賀郡芳賀町,祖母井南１丁目１６番地８,,09,345,3213307,,,,,,,2023-02-01,1,,,,,ガンルームシモン,0
395,2070001040078,新規,0,2023-02-01,2023-02-01,株式会社吉原シーリング,,株式会社,群馬県,伊勢崎市,太田町１１４５番地４,,10,204,3720006,,,,,,,2023-02-01,1,,,,,ヨシハラシーリング,0
413,2120001251999,新規,0,2023-02-01,2023-02-01,金溢株式会社,,株式会社,大阪府,大阪市東淀川区,東淡路４丁目２４番３９号Ｐ・ＰＯＩＮＴ２０５,,27,114,5330023,,,,,,,2023-02-01,1,,,,,キンイツ,0
416,2120105009682,新規,0,2023-02-01,2023-02-01,医療法人ＪＯＹクリニック,,その他の設立登記法人,大阪府,泉南郡田尻町,嘉祥寺６６５番地１,,27,362,5980091,,,,,,,2023-02-01,1,,,,,ジョイクリニック,0
419,2122001036653,新規,0,2023-02-01,2023-02-01,株式会社グランドリバー,,株式会社,大阪府,大東市,三箇２丁目４番１７号,,27,218,5740077,,,,,,,2023-02-01,1,,,,,グランドリバー,0
423,2130003008488,新規,0,2023-02-01,2023-02-01,合同会社発酵人間,,合同会社,京都府,南丹市,美山町大野文字＿地５番地２,00129286,26,213,6010772,,,,,,,2023-02-01,1,,,,,ハッコウニンゲン,0
424,2130003008496,新規,0,2023-02-01,2023-02-01,合同会社ＨＲ企画,,合同会社,京都府,福知山市,篠尾新町４丁目２６番地,,26,201,6200055,,,,,,,2023-02-01,1,,,,,エイチアールキカク,0
427,2140001128923,新規,0,2023-02-01,2023-02-01,株式会社ＪＯＪＯ　ＣＬＵＢ,,株式会社,兵庫県,芦屋市,山手町１０番１号,,28,206,6590096,,,,,,,2023-02-01,1,,,,,ジョージョークラブ,0
440,2180303005585,新規,0,2023-02-01,2023-02-01,合同会社ＡＫＩＴＯＭＯ,,合同会社,愛知県,豊田市,平戸橋町永和１４番地６,,23,211,4700331,,,,,,,2023-02-01,1,,,,,アキトモ,0
441,2180303005593,新規,0,2023-02-01,2023-02-01,合同会社河津企画,,合同会社,愛知県,豊田市,美里４丁目３番地７７,,23,211,4710805,,,,,,,2023-02-01,1,,,,,カワヅキカク,0
451,2240001061008,新規,0,2023-02-01,2023-02-01,ウィキュー・オプトロニクス・ジャパン株式会社,,株式会社,広島県,庄原市,西城町中野字本郷３１３番１,,34,210,7295742,,,,,,,2023-02-01,1,,,,,ウィキューオプトロニクスジャパン,0
466,2260001037617,新規,0,2023-02-01,2023-02-01,株式会社桃子,,株式会社,岡山県,倉敷市,本町１番３４号,,33,202,7100054,,,,,,,2023-02-01,1,,,,,モモコ,0
471,2290001100413,新規,0,2023-02-01,2023-02-01,株式会社Ｇｒｏｏｖｅ　Ｍｏｕｔｈ,,株式会社,福岡県,飯塚市,弁分１１番地１,,40,205,8200088,,,,,,,2023-02-01,1,,,,,グルーヴマウス,0
473,2290003013480,新規,0,2023-02-01,2023-02-01,エナジー１号合同会社,,合同会社,福岡県,久留米市,中央町３８番地２３ユーズビル３２号,,40,203,8300023,,,,,,,2023-02-01,1,,,,,エナジーイチゴウ,0
484,2340003004037,新規,0,2023-02-01,2023-02-01,合同会社結び,,合同会社,鹿児島県,鹿児島市,西田１丁目１５番地６銀屋ビル２０１号,,46,201,8900046,,,,,,,2023-02-01,1,,,,,ムスビ,0
486,2360001031502,新規,0,2023-02-01,2023-02-01,Ｔｏｙ‐ｗａｖｅ　Ｊａｐａｎ株式会社,,株式会社,沖縄県,沖縄市,高原７丁目２６番２０号,,47,211,9042171,,,,,,,2023-02-01,1,,,,,トイウェーブジャパン,0
488,2360003012681,新規,0,2023-02-01,2023-02-01,合同会社ＭＡＫＩ,,合同会社,沖縄県,島尻郡八重瀬町,字東風平１１６０番地６,,47,362,9010401,,,,,,,2023-02-01,1,,,,,マキ,0
492,2370001049551,新規,0,2023-02-01,2023-02-01,株式会社ＳＨＡＫＥ　ＨＡＮＤＳ,,株式会社,宮城県,仙台市若林区,若林６丁目３番１号,,04,103,9840826,,,,,,,2023-02-01,1,,,,,シェイクハンズ,0
493,2370003005973,新規,0,2023-02-01,2023-02-01,合同会社江田鉄筋,,合同会社,宮城県,黒川郡大和町,吉田字沢渡東１６番地の３,,04,421,9813625,,,,,,,2023-02-01,1,,,,,エダテッキン,0
498,2380003005378,新規,0,2023-02-01,2023-02-01,合同会社あいサポ,,合同会社,福島県,郡山市,町東１丁目８８ノーブルハイツ１Ａ棟１０３号室,,07,203,9638046,,,,,,,2023-02-01,1,,,,,,0
515,2700150113479,新規,0,2023-02-01,2023-02-01,Ｓｈｅｎｚｈｅｎ　Ｌｉｎｇｄｅｃｈｕａｎｇ　Ｔｅｃｈｎｏｌｏｇｙ　Ｃｏ．，Ｌｔｄ,,外国会社等,,,,,,,,ｌｏｎｇｈｕａｑｕ，ｇｕａｎｌａｎｊｉｄａｏ，ｇｕｉｈｕａｓｈｅｑｕ，ｈｕｉｍｉｎｙｉｌｕ　３２ｈａｏ　ｃａｎｇｆａｎｇｗｕ　５０１　Ｓｈｅｎｚｈｅｎ，ｇｕａｎｇｄｏｎｇ，Ｃｈｉｎａ,,,,,,2023-02-01,1,,,,,シェンチェンリンデシュアンテクノロジーカンパニーリミテッド,0
516,2700150114080,新規,0,2023-02-01,2023-02-01,Ｐｒｉｎｃｅｔｏｎ　Ｄｉｇｉｔａｌ　Ｇｒｏｕｐ　Ｊａｐａｎ　Ａｌｐｈａ　ＴＭＫ　Ｐｔｅ．Ｌｉｍｉｔｅｄ,,外国会社等,東京都,港区,虎ノ門３丁目２２番１０－２０１号,,13,103,1050001,シンガポール共和国０６８８９８、＃０２－００、ロビンソンロード８０,,,,,,2023-02-01,1,,,,,プリンストンデジタルグループジヤパンアルフアテイーエムケーピーテイーイーリミテツド,0
517,2700150114089,新規,0,2023-02-01,2023-02-01,ＲＥＥＳＥＲ　ＴＥＣＨＮＯＬＯＧＹ　ＬＩＭＩＴＥＤ,,外国会社等,,,,,,,,ＦＬＡＴ／ＲＭ　１４　８／Ｆ　ＲＩＳＥ　ＣＯＭＭＥＲＣＩＡＬ　ＢＵＩＬＤＩＮＧ　５－１１　ＧＲＡＮＶＩＬＬＥ　ＣＩＲＣＵＩＴ　ＫＬ　ＨＫ,,,,,,2023-02-01,1,,,,,リーザーテクノロジーリミテツド,0
526,3010001232489,新規,0,2023-02-01,2023-02-01,オーシャンビューアパートメント株式会社,,株式会社,東京都,小笠原村,父島字吹上谷,,13,421,1002101,,,,,,,2023-02-01,1,,,,,オーシャンビューアパートメント,0
527,3010001232547,新規,0,2023-02-01,2023-02-01,日本ＪＤＶコントロールバルブ株式会社,,株式会社,東京都,千代田区,丸の内１丁目１１番１号パシフィックセンチュリープレイス１３階,,13,101,1000005,,,,,,,2023-02-01,1,,,,,ニホンジェイディヴィコントロールバルブ,0
528,3010001232563,新規,0,2023-02-01,2023-02-01,コム・エスペリエンシア株式会社,,株式会社,東京都,中央区,京橋１丁目６番１号三井住友海上テプコビル７Ｆ,,13,102,1040031,,,,,,,2023-02-01,1,,,,,コムエスペリエンシア,0
529,3010001232571,新規,0,2023-02-01,2023-02-01,株式会社ワークプレイスデジタルサービス,,株式会社,東京都,中央区,新富１丁目１５－１３－２０２号,,13,102,1040041,,,,,,,2023-02-01,1,,,,,ワークプレイスデジタルサービス,0
530,3010001232621,新規,0,2023-02-01,2023-02-01,株式会社ＷＯＬＦ,,株式会社,東京都,文京区,湯島３丁目３８番１５号伸協ビル２階Ａ号,,13,105,1130034,,,,,,,2023-02-01,1,,,,,ウルフ,0
531,3010001232646,新規,0,2023-02-01,2023-02-01,株式会社ＡＬＭＩＧＯ,,株式会社,東京都,千代田区,岩本町２丁目１９番９号丸栄ビル４階,,13,101,1010032,,,,,,,2023-02-01,1,,,,,アルミゴ,0
533,3010003039742,新規,0,2023-02-01,2023-02-01,合同会社山岸会計事務所,,合同会社,東京都,中央区,佃３丁目４－１１－１１０２,,13,102,1040051,,,,,,,2023-02-01,1,,,,,ヤマギシカイケイジムショ,0
535,3010005036192,新規,0,2023-02-01,2023-02-01,一般社団法人ウェルスファンドツー,,その他の設立登記法人,東京都,千代田区,丸の内３丁目１番１号東京共同会計事務所内,,13,101,1000005,,,,,,,2023-02-01,1,,,,,ウェルスファンドツー,0
536,3010101015505,新規,0,2023-02-01,2023-02-01,八王子ミライテラスパートナーズ株式会社,,株式会社,東京都,八王子市,子安町３丁目２６番１号,,13,201,1920904,,,,,,,2023-02-01,1,,,,,ハチオウジミライテラスパートナーズ,0
537,3010103002071,新規,0,2023-02-01,2023-02-01,ＴＨＲＥＥ　ＳＴＥＰ合同会社,,合同会社,東京都,八王子市,東町２－５ＴＭビル５Ｆ,,13,201,1920082,,,,,,,2023-02-01,1,,,,,スリーステップ,0
564,3010701043624,新規,0,2023-02-01,2023-02-01,ｆｒｅｅｅｖｅｎｔ株式会社,,株式会社,東京都,品川区,大崎１丁目２番２号,,13,109,1410032,,,,,,,2023-02-01,1,,,,,フリーベント,0
565,3010701043789,新規,0,2023-02-01,2023-02-01,株式会社ｓｔｙｌｅ,,株式会社,東京都,品川区,大崎３丁目１番５号ルミネ五反田第２・２０２号室,,13,109,1410032,,,,,,,2023-02-01,1,,,,,スタイル,0
566,3010701043797,新規,0,2023-02-01,2023-02-01,昊昇株式会社,,株式会社,東京都,品川区,東大井５丁目１９－６鈴の家ビル７０３,,13,109,1400011,,,,,,,2023-02-01,1,,,,,ゴウショウ,0
573,3011001152314,新規,0,2023-02-01,2023-02-01,株式会社イチナナ,,株式会社,東京都,渋谷区,代々木１丁目５３番１号ＭＹＴＯＷＥＲＲＥＳＩＤＥＮＣＥ１８１２,,13,113,1510053,,,,,,,2023-02-01,1,,,,,イチナナ,0
575,3011103012655,新規,0,2023-02-01,2023-02-01,合同会社レース・ノアエ,,合同会社,東京都,新宿区,若松町９番１４－１００１号,,13,104,1620056,,,,,,,2023-02-01,1,,,,,レースノアエ,0
584,3012705002341,新規,0,2023-02-01,2023-02-01,一般社団法人座キューピーマジック,,その他の設立登記法人,東京都,東村山市,野口町３丁目３０番地２１,,13,213,1890022,,,,,,,2023-02-01,1,,,,,ザキューピーマジック,0
586,3012805003173,新規,0,2023-02-01,2023-02-01,一般社団法人生産性向上推進機構,,その他の設立登記法人,東京都,昭島市,昭和町５丁目１番１２号,,13,207,1960015,,,,,,,2023-02-01,1,,,,,セイサンセイコウジョウスイシンキコウ,0
600,3021001078104,新規,0,2023-02-01,2023-02-01,株式会社アイノス,,株式会社,神奈川県,横須賀市,安浦町３丁目１６番地しんわ本社ビル５階,,14,201,2380012,,,,,,,2023-02-01,1,,,,,アイノス,0
609,3030001152181,新規,0,2023-02-01,2023-02-01,株式会社神連,,株式会社,埼玉県,新座市,野火止１丁目７番２７号プレアデスＡ棟２０２号室,,11,230,3520011,,,,,,,2023-02-01,1,,,,,カミツレ,0
615,3030003021079,新規,0,2023-02-01,2023-02-01,合同会社Ｍｉｒａｒｃｈ,,合同会社,埼玉県,所沢市,東狭山ケ丘２丁目２９１７番地の３３,,11,208,3591106,,,,,,,2023-02-01,1,,,,,ミラーチ,0
620,3040002065027,新規,0,2023-02-01,2023-02-01,有限会社ミツワプロセス,,有限会社,千葉県,八街市,吉倉３５７番地２１,,12,230,2891133,,,,,,,2023-02-01,1,,,,,ミツワプロセス,0
622,3040003021813,新規,0,2023-02-01,2023-02-01,ＢＡＧＬＵＮＧ　ＫＡＬＩＫＡ合同会社,,合同会社,千葉県,千葉市稲毛区,山王町３７０番地,,12,103,2630002,,,,,,,2023-02-01,1,,,,,バグルングカリカ,0
627,3050003007200,新規,0,2023-02-01,2023-02-01,合同会社Ｅｇｏｄａｗａｔｈｔｈａ　Ｅｎｔｅｒｐｒｉｓｅｓ,,合同会社,茨城県,筑西市,野４４８番地２,,08,227,3080016,,,,,,,2023-02-01,1,,,,,エゴダワッタエンタープライゼズ,0
630,3080101023773,新規,0,2023-02-01,2023-02-01,株式会社ビビアナ,,株式会社,静岡県,沼津市,岡宮６４２番地の４,,22,203,4100011,,,,,,,2023-02-01,1,,,,,ビビアナ,0
631,3090001017949,新規,0,2023-02-01,2023-02-01,万事お助け株式会社,,株式会社,山梨県,甲州市,塩山赤尾５３９番地１,,19,213,4040033,,,,,,,2023-02-01,1,,,,,ヨロズオタスケ,0
632,3090005007541,新規,0,2023-02-01,2023-02-01,一般社団法人Ｃ２Ｃ　Ｆｏｏｔｂａｌｌ　Ａｃａｄｅｍｙ,,その他の設立登記法人,山梨県,甲府市,和戸町７３５番地,,19,201,4000812,,,,,,,2023-02-01,1,,,,,シートゥーシーフットボールアカデミー,0
633,3100001036105,新規,0,2023-02-01,2023-02-01,而立株式会社,,株式会社,長野県,北安曇郡白馬村,大字北城８３０－９２,,20,485,3999301,,,,,,,2023-02-01,1,,,,,ジリツ,0
657,3120005023444,新規,0,2023-02-01,2023-02-01,一般社団法人ピース,,その他の設立登記法人,大阪府,大阪市東淀川区,豊新３丁目７番１号セントラルコート豊新４０１号,,27,114,5330014,,,,,,,2023-02-01,1,,,,,ピース,0
659,3120101066909,新規,0,2023-02-01,2023-02-01,株式会社総進,,株式会社,大阪府,南河内郡河南町,大字中１７８番地の７,,27,382,5850031,,,,,,,2023-02-01,1,,,,,ソウシン,0
661,3120103005055,新規,0,2023-02-01,2023-02-01,スベオ合同会社,,合同会社,大阪府,富田林市,若松町５丁目１５番８号エイト富田林１０４,,27,214,5840024,,,,,,,2023-02-01,1,,,,,スベオ,0
663,3120901047059,新規,0,2023-02-01,2023-02-01,株式会社ｕｋｉｕｋｉ,,株式会社,大阪府,豊中市,服部西町１丁目２番１９号,,27,203,5610858,,,,,,,2023-02-01,1,,,,,ウキウキ,0
666,3122001036652,新規,0,2023-02-01,2023-02-01,株式会社ＬＩＮＯＡＳ,,株式会社,大阪府,東大阪市,花園東町１丁目４番１５号,,27,227,5780931,,,,,,,2023-02-01,1,,,,,リノアス,0
669,3130001073459,新規,0,2023-02-01,2023-02-01,株式会社ｂｕｎｎｙ,,株式会社,京都府,京都市下京区,富小路通六条下る栄町５１５番地ＮｅＯｓ１０１,,26,106,6008194,,,,,,,2023-02-01,1,,,,,バニー,0
670,3130001073558,新規,0,2023-02-01,2023-02-01,ワイトナイル株式会社,,株式会社,京都府,京都市東山区,慈法院庵町５９８番１８,,26,105,6050871,,,,,,,2023-02-01,1,,,,,ワイトナイル,0
671,3130001073590,新規,0,2023-02-01,2023-02-01,大唐国開株式会社,,株式会社,京都府,京都市左京区,上高野東田町２８番６,,26,103,6060078,,,,,,,2023-02-01,1,,,,,ダイトウコッカイ,0
672,3130003008495,新規,0,2023-02-01,2023-02-01,Ａｉｄｏ合同会社,,合同会社,京都府,京都市右京区,山ノ内赤山町２番地２８,,26,108,6150082,,,,,,,2023-02-01,1,,,,,エイド,0
675,3140001128914,新規,0,2023-02-01,2023-02-01,株式会社ＲＥＤ　ＲＥＸ,,株式会社,兵庫県,神戸市灘区,楠丘町６丁目４番４－１０１号,,28,102,6570024,,,,,,,2023-02-01,1,,,,,レッドレックス,0
679,3170001017461,新規,0,2023-02-01,2023-02-01,株式会社ワイズガレージ,,株式会社,和歌山県,和歌山市,岩橋７３４番地７,,30,201,6408301,,,,,,,2023-02-01,1,,,,,ワイズガレージ,0
685,3180003024777,新規,0,2023-02-01,2023-02-01,合同会社ｓｈａｒｏｎ,,合同会社,愛知県,名古屋市中川区,十一番町２丁目２０－７,,23,110,4540056,,,,,,,2023-02-01,1,,,,,シャロン,0
686,3180003024785,新規,0,2023-02-01,2023-02-01,合同会社想わ,,合同会社,愛知県,名古屋市守山区,小幡千代田１７―１４ファミーユ千代田４Ｂ,,23,113,4630053,,,,,,,2023-02-01,1,,,,,ソウワ,0
695,3190003004217,新規,0,2023-02-01,2023-02-01,エムビーシーシー合同会社,,合同会社,三重県,伊勢市,本町３－４,,24,203,5160074,,,,,,,2023-02-01,1,,,,,エムビーシーシー,0
704,3220001025244,新規,0,2023-02-01,2023-02-01,スチールサービスセンター中部株式会社,,株式会社,石川県,羽咋郡志賀町,甘田ロの９６番地,,17,384,9250146,,,,,,,2023-02-01,1,,,,,スチールサービスセンターチュウブ,0
711,3240005015512,新規,0,2023-02-01,2023-02-01,一般社団法人日本メディカルトレーニングセラピー協会,,その他の設立登記法人,広島県,広島市安佐南区,沼田町大字阿戸３３４３番地６,,34,105,7313271,,,,,,,2023-02-01,1,,,,,ニホンメディカルトレーニングセラピーキョウカイ,0
729,3290001100395,新規,0,2023-02-01,2023-02-01,株式会社ジェイアンドディー,,株式会社,福岡県,福岡市城南区,片江５丁目１３番１０号コーポエム１０２号室,,40,136,8140142,,,,,,,2023-02-01,1,,,,,ジェイアンドディー,0
730,3290001100404,新規,0,2023-02-01,2023-02-01,ライトテクニカル株式会社,,株式会社,福岡県,福岡市南区,清水３丁目１１番７号,,40,134,8150031,,,,,,,2023-02-01,1,,,,,ライトテクニカル,0
731,3290001100412,新規,0,2023-02-01,2023-02-01,株式会社ＦＧＳ,,株式会社,福岡県,福岡市博多区,吉塚６丁目５番２５－８０５号,,40,132,8120041,,,,,,,2023-02-01,1,,,,,エフジーエス,0
733,3290003013463,新規,0,2023-02-01,2023-02-01,エキスポートファクトリー合同会社,,合同会社,福岡県,福岡市東区,千早１丁目９番１－６０１号,,40,131,8130044,,,,,,,2023-02-01,1,,,,,エキスポートファクトリー,0
735,3300001013208,新規,0,2023-02-01,2023-02-01,久池井林業緑化株式会社,,株式会社,佐賀県,佐賀市,大和町大字久池井３９６番地１,,41,201,8400202,,,,,,,2023-02-01,1,,,,,クチイリンギョウリョクカ,0
739,3340001025331,新規,0,2023-02-01,2023-02-01,株式会社ひかり,,株式会社,鹿児島県,鹿屋市,笠之原町１８番２６号,,46,203,8930023,,,,,,,2023-02-01,1,,,,,ヒカリ,0
742,3340005009553,新規,0,2023-02-01,2023-02-01,一般社団法人かごしま未来創生ラボ,,その他の設立登記法人,鹿児島県,鹿児島市,上之園町４番地２０トーカンマンション共研公園６０１号,,46,201,8900052,,,,,,,2023-02-01,1,,,,,カゴシマミライソウセイラボ,0
744,3360001031501,新規,0,2023-02-01,2023-02-01,株式会社ＡＴＴＥＯ,,株式会社,沖縄県,国頭郡恩納村,字真栄田２６５５番地,,47,311,9040417,,,,,,,2023-02-01,1,,,,,アテオ,0
751,3380001033438,新規,0,2023-02-01,2023-02-01,株式会社Ｗａｃ,,株式会社,福島県,会津若松市,大町１丁目２番１２号,,07,202,9650042,,,,,,,2023-02-01,1,,,,,ワック,0
763,3430001088336,新規,0,2023-02-01,2023-02-01,株式会社ランド,,株式会社,北海道,札幌市清田区,清田一条３丁目７番５５号,,01,110,0040841,,,,,,,2023-02-01,1,,,,,ランド,0
770,3490001010392,新規,0,2023-02-01,2023-02-01,株式会社ＧＵＴ,,株式会社,高知県,高知市,仁井田４５６３番地１,,39,201,7810112,,,,,,,2023-02-01,1,,,,,ジーユーティー,0
771,3490003001737,新規,0,2023-02-01,2023-02-01,合同会社ほっとステーション,,合同会社,高知県,高知市,横浜東町２番４７号,,39,201,7810243,,,,,,,2023-02-01,1,,,,,,0
773,3700150114088,新規,0,2023-02-01,2023-02-01,Ｓｈｅｎｚｈｅｎ　Ｙａｏｘｉｎ　Ｅｌｅｃｔｒｏｎｉｃｓ　Ｃｏ．，Ｌｔｄ,,外国会社等,,,,,,,,４０１Ｒｏｏｍ，１１　Ｂｕｉｌｄｉｎｇ，Ｘｉｆａ　Ｃ　Ａｒｅａ，Ｙｉｎｔｉａｎ　ｉｎｄｕｓｔｒｉａｌ　ａｒｅａ，Ｇｏｎｇｌｅ　Ｃｏｍｍｕｎｉｔｙ，Ｘｉｘｉａｎｇ　Ｓｕｂ－ｄｉｓｔｒｉｃｔ，Ｂａｏ’ａｎ　Ｄｉｓｔｒｉｃｔ，Ｓｈｅｎｚｈｅｎ　Ｃｉｔｙ,,,,,,2023-02-01,1,,,,,シエンチエンヤオシンエレクトロニクスカンパニーリミテツド,0
778,4010001232645,新規,0,2023-02-01,2023-02-01,ＵＴロジスティクス株式会社,,株式会社,東京都,千代田区,神田須田町１丁目５番地１０,,13,101,1010041,,,,,,,2023-02-01,1,,,,,ユーティーロジスティクス,0
780,4010003039709,新規,0,2023-02-01,2023-02-01,ししもも合同会社,,合同会社,東京都,中央区,銀座１丁目１２番４号,,13,102,1040061,,,,,,,2023-02-01,1,,,,,シシモモ,0
781,4010005036183,新規,0,2023-02-01,2023-02-01,一般社団法人ソーラーパーク,,その他の設立登記法人,東京都,千代田区,平河町１丁目３番１３号平河町フロントビル７階株式会社シリウス・アドバイザリー内,,13,101,1020093,,,,,,,2023-02-01,1,,,,,ソーラーパーク,0
782,4010005036191,新規,0,2023-02-01,2023-02-01,一般社団法人西新宿ファーストプロパティーズ,,その他の設立登記法人,東京都,中央区,日本橋１丁目４番１号,,13,102,1030027,,,,,,,2023-02-01,1,,,,,ニシシンジュクファーストプロパティーズ,0
783,4010101015504,新規,0,2023-02-01,2023-02-01,株式会社ＤＸＳＥＳ,,株式会社,東京都,八王子市,狭間町１４６４－１、２号棟９０７,,13,201,1930941,,,,,,,2023-02-01,1,,,,,ディーエックスエスイーエス,0
791,4010401172169,新規,0,2023-02-01,2023-02-01,株式会社ｆｉｇｈｔｉｎｇ　ｓｐｉｒｉｔ５１,,株式会社,東京都,港区,芝浦１丁目４番２－２１１号,,13,103,1050023,,,,,,,2023-02-01,1,,,,,ファイティングスピリットゴジュウイチ,0
792,4010401172177,新規,0,2023-02-01,2023-02-01,妄想アーキテクツ株式会社,,株式会社,東京都,港区,浜松町２丁目２－１５浜松町ダイヤビル２Ｆ,,13,103,1050013,,,,,,,2023-02-01,1,,,,,モウソウアーキテクツ,0
805,4010701043796,新規,0,2023-02-01,2023-02-01,ＳｔｅｍＷｏｒｋｓ株式会社,,株式会社,東京都,品川区,東五反田５丁目１２－１－３０１,,13,109,1410022,,,,,,,2023-02-01,1,,,,,ステムワークス,0
811,4011001152271,新規,0,2023-02-01,2023-02-01,ＧＣメディカル株式会社,,株式会社,東京都,渋谷区,富ヶ谷１丁目１４番９号,,13,113,1510063,,,,,,,2023-02-01,1,,,,,ジーシーメディカル,0
812,4011001152288,新規,0,2023-02-01,2023-02-01,ナセナル株式会社,,株式会社,東京都,渋谷区,神宮前６丁目２３－４桑野ビル２階,,13,113,1500001,,,,,,,2023-02-01,1,,,,,ナセナル,0
813,4011001152305,新規,0,2023-02-01,2023-02-01,株式会社ｃｏｍｍｉｓｓｕｒｅ,,株式会社,東京都,渋谷区,道玄坂１丁目１０番８号渋谷道玄坂東急ビル２Ｆ－Ｃ,,13,113,1500043,,,,,,,2023-02-01,1,,,,,コミシュア,0
814,4011001152313,新規,0,2023-02-01,2023-02-01,株式会社ＴＯＲＡ,,株式会社,東京都,渋谷区,道玄坂２丁目１９－１０,,13,113,1500043,,,,,,,2023-02-01,1,,,,,トラ,0
827,4011601026536,新規,0,2023-02-01,2023-02-01,株式会社ＭＨＴ,,株式会社,東京都,練馬区,春日町４丁目１－１春日ペガサスマンション,,13,120,1790074,,,,,,,2023-02-01,1,,,,,エムエイチティ,0
831,4012401040132,新規,0,2023-02-01,2023-02-01,株式会社Ｊｕｎｇｌｅｅ,,株式会社,東京都,多摩市,関戸４丁目２４番地の６,,13,224,2060011,,,,,,,2023-02-01,1,,,,,ジャングリー,0
832,4012805003172,新規,0,2023-02-01,2023-02-01,一般社団法人ＲＵＲＵＤＡＳＨ,,その他の設立登記法人,東京都,昭島市,緑町２丁目１９番５号２０１号,,13,207,1960004,,,,,,,2023-02-01,1,,,,,ルルダッシュ,0
848,4020005015839,新規,0,2023-02-01,2023-02-01,一般社団法人ギガスクールサポーター,,その他の設立登記法人,神奈川県,横浜市神奈川区,片倉５丁目１４－６,,14,102,2210865,,,,,,,2023-02-01,1,,,,,ギガスクールサポーター,0
852,4021001078078,新規,0,2023-02-01,2023-02-01,株式会社ラナ’リンク,,株式会社,神奈川県,厚木市,岡田４丁目５番２７号,,14,212,2430021,,,,,,,2023-02-01,1,,,,,ラナリンク,0
853,4021001078103,新規,0,2023-02-01,2023-02-01,小田原ビジネスアドバイザリー株式会社,,株式会社,神奈川県,小田原市,荻窪８８２番地,,14,206,2500042,,,,,,,2023-02-01,1,,,,,オダワラビジネスアドバイザリー,0
855,4021003012679,新規,0,2023-02-01,2023-02-01,Ａ’Ｋコーポレーション合同会社,,合同会社,神奈川県,厚木市,田村町１１番２４－１０３号,,14,212,2430016,,,,,,,2023-02-01,1,,,,,エーケーコーポレーション,0
863,4030003021061,新規,0,2023-02-01,2023-02-01,合同会社Ｒｙｕｋｋａ＆Ｃｏ．,,合同会社,埼玉県,本庄市,小島１丁目６番３号,,11,211,3670061,,,,,,,2023-02-01,1,,,,,リュッカアンドカンパニー,0
867,4040003021795,新規,0,2023-02-01,2023-02-01,合同会社光曜,,合同会社,千葉県,松戸市,河原塚４２８,,12,207,2702254,,,,,,,2023-02-01,1,,,,,コウヨウ,0
868,4040003021812,新規,0,2023-02-01,2023-02-01,合同会社前田設備,,合同会社,千葉県,船橋市,海神３丁目２９番２３号,,12,204,2730021,,,,,,,2023-02-01,1,,,,,マエダセツビ,0
869,4040003021829,新規,0,2023-02-01,2023-02-01,ＳＭＡＲＴ　ＡＵＴＯ　ＬＩＮＫ合同会社,,合同会社,千葉県,山武市,木原８７番地Ｄ－２,,12,237,2891212,,,,,,,2023-02-01,1,,,,,スマートオートリンク,0
871,4050001052305,新規,0,2023-02-01,2023-02-01,サブロク不動産ＧＸ株式会社,,株式会社,茨城県,守谷市,本町６５２番地の６グラン・フォーシーズンズ２０２,,08,224,3020109,,,,,,,2023-02-01,1,,,,,サブロクフドウサンジーエックス,0
872,4050003007199,新規,0,2023-02-01,2023-02-01,合同会社あらい牧場,,合同会社,茨城県,東茨城郡茨城町,大字若宮８８５番地,,08,302,3113123,,,,,,,2023-02-01,1,,,,,アライボクジョウ,0
881,4090003002238,新規,0,2023-02-01,2023-02-01,三立合同会社,,合同会社,山梨県,上野原市,コモアしおつ３丁目１８番１号,,19,212,4090126,,,,,,,2023-02-01,1,,,,,サンリツ,0
897,4120001252038,新規,0,2023-02-01,2023-02-01,株式会社Ｎｅｙａｃｏ,,株式会社,大阪府,大阪市城東区,新喜多東２丁目５番３０号,,27,118,5360017,,,,,,,2023-02-01,1,,,,,ネヤコ,0
898,4120001252137,新規,0,2023-02-01,2023-02-01,ＪＡＢ株式会社,,株式会社,大阪府,大阪市港区,弁天４丁目７番６－１００号室,,27,107,5520007,,,,,,,2023-02-01,1,,,,,ジェイエービー,0
899,4120001252178,新規,0,2023-02-01,2023-02-01,ＯＮＴＩＭＥＳ株式会社,,株式会社,大阪府,大阪市北区,天神橋４丁目７番１３号,,27,127,5300041,,,,,,,2023-02-01,1,,,,,オンタイムズ,0
900,4120001252186,新規,0,2023-02-01,2023-02-01,株式会社Ｕｎｉｏｎａｇｅ,,株式会社,大阪府,守口市,藤田町１丁目２８－９,,27,209,5700014,,,,,,,2023-02-01,1,,,,,ユニオネイジ,0
901,4120001252194,新規,0,2023-02-01,2023-02-01,大宇株式会社,,株式会社,大阪府,大阪市北区,神山町１番５号扇町公園ビル６０２,,27,127,5300026,,,,,,,2023-02-01,1,,,,,ダイウ,0
910,4120003023362,新規,0,2023-02-01,2023-02-01,合同会社スマートワイズ,,合同会社,大阪府,大阪市西区,新町１丁目１４番３９号４０５,,27,106,5500013,,,,,,,2023-02-01,1,,,,,スマートワイズ,0
911,4120005023443,新規,0,2023-02-01,2023-02-01,医療法人秋山歯科クリニック,,その他の設立登記法人,大阪府,枚方市,北中振３丁目２０番３６号秋山ビル１階,,27,210,5730064,,,,,,,2023-02-01,1,,,,,アキヤマシカクリニック,0
913,4120101066916,新規,0,2023-02-01,2023-02-01,株式会社Ｆｏｕ　ａｍｏｕｒ,,株式会社,大阪府,藤井寺市,小山１丁目１５－３プリュクレール４０７,,27,226,5830033,,,,,,,2023-02-01,1,,,,,フーアムール,0
929,4140003018658,新規,0,2023-02-01,2023-02-01,合同会社ミンク,,合同会社,兵庫県,三田市,対中町２５番２０号,,28,219,6691525,,,,,,,2023-02-01,1,,,,,ミンク,0
930,4140003018666,新規,0,2023-02-01,2023-02-01,合同会社ＨＹＤ,,合同会社,兵庫県,尼崎市,南塚口町２丁目１番３－１６２４号,,28,202,6610012,,,,,,,2023-02-01,1,,,,,エイチワイディー,0
931,4150005009456,新規,0,2023-02-01,2023-02-01,特定非営利活動法人ピースホープ,,その他の設立登記法人,奈良県,奈良市,富雄川西２丁目２番２０号,,29,201,6310077,,,,,,,2023-02-01,1,,,,,ピースホープ,0
933,4170001017460,新規,0,2023-02-01,2023-02-01,紀の川工業株式会社,,株式会社,和歌山県,紀の川市,貴志川町丸栖１５６７番地４３,,30,208,6400401,,,,,,,2023-02-01,1,,,,,キノカワコウギョウ,0
938,4180003024792,新規,0,2023-02-01,2023-02-01,合同会社マガリ,,合同会社,愛知県,春日井市,上条町６丁目３５番地２０,,23,206,4860833,,,,,,,2023-02-01,1,,,,,マガリ,0
950,4240003006000,新規,0,2023-02-01,2023-02-01,合同会社グッドマンスリー,,合同会社,広島県,広島市東区,牛田早稲田４丁目２番３２－２０７,,34,102,7320062,,,,,,,2023-02-01,1,,,,,,0
951,4240005015511,新規,0,2023-02-01,2023-02-01,一般社団法人広島イノベーションベース,,その他の設立登記法人,広島県,広島市佐伯区,倉重１丁目１２５６番地,,34,108,7315156,,,,,,,2023-02-01,1,,,,,ヒロシマイノベーションベース,0
967,4290001100394,新規,0,2023-02-01,2023-02-01,ＬＣＲ株式会社,,株式会社,福岡県,福岡市中央区,薬院３丁目１４番２６号,,40,133,8100022,,,,,,,2023-02-01,1,,,,,エルシーアール,0
968,4290001100403,新規,0,2023-02-01,2023-02-01,株式会社ＩＳ　ＰＬＡＣＥ,,株式会社,福岡県,糟屋郡篠栗町,大字乙犬９９７番地３門松駅前ウエストサイド１０１号,,40,342,8112412,,,,,,,2023-02-01,1,,,,,アイエスプレイス,0
979,4340001025330,新規,0,2023-02-01,2023-02-01,株式会社ＣＲＡＮＥ,,株式会社,鹿児島県,鹿児島市,真砂本町２３番１１号Ｙ’ｓＢＬＤＩＶ１０１号,00129285,46,201,8900067,,,,,,,2023-02-01,1,,,,,クレイン,0
980,4340003004035,新規,0,2023-02-01,2023-02-01,合同会社ＡＳＨ　ＨＥＡＤ　ＢＲＥＷＥＲＹ,,合同会社,鹿児島県,霧島市,隼人町小浜３７番１,,46,218,8995103,,,,,,,2023-02-01,1,,,,,アッシュヘッドブリュワリー,0
984,4360001031500,新規,0,2023-02-01,2023-02-01,ＨＩＲＡＫＵＬＡＢＯ農業生産法人株式会社,,株式会社,沖縄県,石垣市,字桃里１６５番地１２,,47,207,9070241,,,,,,,2023-02-01,1,,,,,ヒラクラボノウギョウセイサンホウジン,0
985,4360005006762,新規,0,2023-02-01,2023-02-01,特定非営利活動法人ドリスカッ,,その他の設立登記法人,沖縄県,那覇市,銘苅２丁目３番１号なは産業支援センター４０４号室ブルームーンパートナーズ株式会社内,,47,201,9000004,,,,,,,2023-02-01,1,,,,,ドリスカッ,0
1013,4700150114087,新規,0,2023-02-01,2023-02-01,永盛一雄相続財産管理法人,,その他,東京都,豊島区,南池袋２丁目３３番６号佐藤ビルディング６階　東京はやぶさ法律事務所,,13,116,1710022,,,,,,,2023-02-01,1,,,,,ナガモリカズオソウゾクザイサンカンリホウジン,0
1019,5010001232545,新規,0,2023-02-01,2023-02-01,アビスジャパン株式会社,,株式会社,東京都,文京区,湯島２丁目７番３号,,13,105,1130034,,,,,,,2023-02-01,1,,,,,アビスジャパン,0
1020,5010001232561,新規,0,2023-02-01,2023-02-01,株式会社さざれ,,株式会社,東京都,中央区,日本橋小伝馬町１８－１内田ビル６階,,13,102,1030001,,,,,,,2023-02-01,1,,,,,サザレ,0
1021,5010001232594,新規,0,2023-02-01,2023-02-01,ＡＴＭＥＣＳ　Ｊａｐａｎ株式会社,,株式会社,東京都,中央区,銀座６丁目１３番１６号銀座ＷａｌｌビルＵＣＦ５０１,,13,102,1040061,,,,,,,2023-02-01,1,,,,,アトメクスジャパン,0
1022,5010001232644,新規,0,2023-02-01,2023-02-01,株式会社Ｍｉｒａｉｅホールディングス,,株式会社,東京都,千代田区,丸の内３丁目４番１号新国際ビル６階,,13,101,1000005,,,,,,,2023-02-01,1,,,,,ミライエホールディングス,0
1023,5010001232652,新規,0,2023-02-01,2023-02-01,ＣＯＬＬＩＮＳ株式会社,,株式会社,東京都,中央区,日本橋蛎殻町１丁目１３－１ユニゾ蛎殻町北島ビルＢ１Ｆ,,13,102,1030014,,,,,,,2023-02-01,1,,,,,コリンズ,0
1024,5010003039708,新規,0,2023-02-01,2023-02-01,合同会社ＳＭＭ２,,合同会社,東京都,中央区,銀座１丁目１２番４号Ｎ＆ＥＢＬＤ．７階,,13,102,1040061,,,,,,,2023-02-01,1,,,,,エスエムエムツー,0
1025,5010003039724,新規,0,2023-02-01,2023-02-01,神谷町合同会社,,合同会社,東京都,千代田区,神田小川町３丁目２６番８号神田小川町三丁目ビル６階,,13,101,1010052,,,,,,,2023-02-01,1,,,,,カミヤチョウ,0
1027,5010005036083,新規,0,2023-02-01,2023-02-01,特定非営利活動法人Ｚｅｎｉｔｈ　Ｋｅｙ,,その他の設立登記法人,東京都,千代田区,丸の内２丁目３番２号郵船ビルディング１階,,13,101,1000005,,,,,,,2023-02-01,1,,,,,ゼニスキー,0
1028,5010005036182,新規,0,2023-02-01,2023-02-01,一般社団法人ソーラーガーデン,,その他の設立登記法人,東京都,千代田区,平河町１丁目３番１３号平河町フロントビル７階株式会社シリウス・アドバイザリー内,,13,101,1020093,,,,,,,2023-02-01,1,,,,,ソーラーガーデン,0
1035,5010401172176,新規,0,2023-02-01,2023-02-01,株式会社メディアマーケット,,株式会社,東京都,港区,六本木７丁目１２番２号,,13,103,1060032,,,,,,,2023-02-01,1,,,,,メディアマーケット,0
1036,5010401172184,新規,0,2023-02-01,2023-02-01,Ｘｖｅｒｓｅ株式会社,,株式会社,東京都,港区,六本木５丁目２番１号,,13,103,1060032,,,,,,,2023-02-01,1,,,,,エクスバース,0
1063,5010703006569,新規,0,2023-02-01,2023-02-01,合同会社ライジングサン,,合同会社,東京都,品川区,東品川３丁目８－８ラグナタワー１７０６,,13,109,1400002,,,,,,,2023-02-01,1,,,,,ライジングサン,0
1076,5011001152287,新規,0,2023-02-01,2023-02-01,株式会社Ｔｅｃｈ　Ｐｌｕｓ,,株式会社,東京都,渋谷区,渋谷３丁目１１番７号第２ミネギシビル９階,,13,113,1500002,,,,,,,2023-02-01,1,,,,,テックプラス,0
1077,5011001152304,新規,0,2023-02-01,2023-02-01,株式会社スペースダイナミクス,,株式会社,東京都,渋谷区,代々木４丁目５１番２－２０１,,13,113,1510053,,,,,,,2023-02-01,1,,,,,スペースダイナミクス,0
1081,5011101101706,新規,0,2023-02-01,2023-02-01,株式会社Ｌｉ’ｒｕｋｉａ,,株式会社,東京都,新宿区,西新宿７丁目５番８号ＧＯＷＡ西新宿５階,,13,104,1600023,,,,,,,2023-02-01,1,,,,,リルキア,0
1083,5011103012653,新規,0,2023-02-01,2023-02-01,合同会社友来屋,,合同会社,東京都,新宿区,箪笥町１８番地３コスモシティ市ヶ谷３０６,,13,104,1620833,,,,,,,2023-02-01,1,,,,,ウレヤ,0
1085,5011303004657,新規,0,2023-02-01,2023-02-01,合同会社ｄｉｇｎｏ,,合同会社,東京都,杉並区,高井戸東４丁目９番１－６０４号,,13,115,1680072,,,,,,,2023-02-01,1,,,,,ディグノ,0
1091,5011801041870,新規,0,2023-02-01,2023-02-01,株式会社あおぬまエコエナジー,,株式会社,東京都,葛飾区,小菅２丁目２０番１１号,,13,122,1240001,,,,,,,2023-02-01,1,,,,,,0
1095,5013301050261,新規,0,2023-02-01,2023-02-01,エムサンステップ株式会社,,株式会社,東京都,豊島区,東池袋１丁目３４－５,,13,116,1700013,,,,,,,2023-02-01,1,,,,,エムサンステップ,0
1107,5020003023215,新規,0,2023-02-01,2023-02-01,合同会社ＨａｒｐＳｅａｌ,,合同会社,神奈川県,横浜市西区,西戸部町２丁目１２８,,14,103,2200046,,,,,,,2023-02-01,1,,,,,ハープシール,0
1117,5021003012694,新規,0,2023-02-01,2023-02-01,８０ｔｅｃｈ合同会社,,合同会社,神奈川県,大和市,林間１丁目１５番３２号神代ビル３Ｆ,,14,213,2420003,,,,,,,2023-02-01,1,,,,,ハチマルテック,0
1131,5030001152196,新規,0,2023-02-01,2023-02-01,株式会社ＨＯＰＥトランスポート,,株式会社,埼玉県,三郷市,早稲田３丁目２１番地１号棟３０６号,,11,237,3410018,,,,,,,2023-02-01,1,,,,,ホープトランスポート,0
1135,5030003021060,新規,0,2023-02-01,2023-02-01,ＭＩＲＡＩ合同会社,,合同会社,埼玉県,川口市,西川口３丁目３２番１９号コテージ竹葉３号,,11,203,3320021,,,,,,,2023-02-01,1,,,,,ミライ,0
1136,5030003021077,新規,0,2023-02-01,2023-02-01,ＫＨＡＤＫＡ合同会社,,合同会社,埼玉県,鶴ヶ島市,大字鶴ヶ丘６２番地２２,,11,241,3502204,,,,,,,2023-02-01,1,,,,,カドカ,0
1137,5030003021085,新規,0,2023-02-01,2023-02-01,エムイーアイ合同会社,,合同会社,埼玉県,朝霞市,西弁財１丁目９－１１,,11,227,3510021,,,,,,,2023-02-01,1,,,,,エムイーアイ,0
1138,5030005021133,新規,0,2023-02-01,2023-02-01,一般社団法人権現堂にぎわい委員会,,その他の設立登記法人,埼玉県,幸手市,東５丁目１９番７号,,11,240,3400114,,,,,,,2023-02-01,1,,,,,ゴンゲンドウニギワイイインカイ,0
1146,5040001126876,新規,0,2023-02-01,2023-02-01,株式会社ＪＥプロパティ,,株式会社,千葉県,千葉市中央区,富士見２丁目７番９号富士見ビル６０９号,,12,101,2600015,,,,,,,2023-02-01,1,,,,,ジェイイープロパティ,0
1147,5040001126892,新規,0,2023-02-01,2023-02-01,株式会社ＴＲＩＢＥ,,株式会社,千葉県,柏市,東山２丁目１０番２０号,,12,217,2770064,,,,,,,2023-02-01,1,,,,,トライブ,0
1151,5040003021803,新規,0,2023-02-01,2023-02-01,合同会社スラストアップ,,合同会社,千葉県,市川市,八幡１丁目２番１９－４０３号,,12,203,2720021,,,,,,,2023-02-01,1,,,,,スラストアップ,0
1152,5040003021811,新規,0,2023-02-01,2023-02-01,トライセラ合同会社,,合同会社,千葉県,浦安市,高洲４丁目３番１－１０３５号,,12,227,2790023,,,,,,,2023-02-01,1,,,,,トライセラ,0
1153,5040003021828,新規,0,2023-02-01,2023-02-01,Ｄ　ＲＨＹＴＨＭ　ＴＲＡＤＩＮＧ合同会社,,合同会社,千葉県,印旛郡酒々井町,下岩橋８７番地４,,12,322,2850907,,,,,,,2023-02-01,1,,,,,ディーリズムトレーディング,0
1155,5050003007181,新規,0,2023-02-01,2023-02-01,合同会社茨城の地酒販売,,合同会社,茨城県,水戸市,見和１丁目３１７－５花工房ビル,,08,201,3100911,,,,,,,2023-02-01,1,,,,,イバラキノジザケハンバイ,0
1160,5070001040059,新規,0,2023-02-01,2023-02-01,株式会社セントライト,,株式会社,群馬県,前橋市,城東町１丁目３番６号,,10,201,3710016,,,,,,,2023-02-01,1,,,,,セントライト,0
1167,5100001036094,新規,0,2023-02-01,2023-02-01,株式会社ｉＧＫ,,株式会社,長野県,北佐久郡軽井沢町,大字長倉２１０３番地７,,20,321,3890111,,,,,,,2023-02-01,1,,,,,アイジーケー,0
1175,5120001252144,新規,0,2023-02-01,2023-02-01,株式会社Ｓａｌｅｓ　Ｃｏｍｍｉｔｍｅｎｔ,,株式会社,大阪府,大阪市北区,堂山町１５番２３－８０３号,,27,127,5300027,,,,,,,2023-02-01,1,,,,,セールスコミットメント,0
1176,5120001252152,新規,0,2023-02-01,2023-02-01,創優Ｔｅｃｈｎｏｌｏｇｙ株式会社,,株式会社,大阪府,大阪市西成区,玉出中２丁目１４番９－２０３号,,27,122,5570044,,,,,,,2023-02-01,1,,,,,ソウユウテクノロジー,0
1177,5120001252193,新規,0,2023-02-01,2023-02-01,株式会社ＰｌｅｉａＢａｓｅ,,株式会社,大阪府,大阪市北区,梅田１丁目２番２号大阪駅前第２ビル１２－１２,,27,127,5300001,,,,,,,2023-02-01,1,,,,,プレアベース,0
1179,5120003023361,新規,0,2023-02-01,2023-02-01,Ｆｒｉｅｎｄｌｙ合同会社,,合同会社,大阪府,大阪市浪速区,大国１丁目７－１,,27,111,5560014,,,,,,,2023-02-01,1,,,,,フレンドリー,0
1182,5120901047065,新規,0,2023-02-01,2023-02-01,株式会社スウィープＥＸ,,株式会社,大阪府,豊中市,南桜塚２丁目７番１－４０２,,27,203,5610882,,,,,,,2023-02-01,1,,,,,スウィープイーエックス,0
1183,5120903004485,新規,0,2023-02-01,2023-02-01,合同会社Ｓ‐ｐｌａｎｎｉｎｇ,,合同会社,大阪府,茨木市,横江１丁目１７－３４,,27,211,5670865,,,,,,,2023-02-01,1,,,,,エスプランニング,0
1184,5120905006422,新規,0,2023-02-01,2023-02-01,一般社団法人ひと・福祉・社会をつなぐ総合研究所,,その他の設立登記法人,大阪府,豊中市,上野東３丁目１４番２８号,,27,203,5600013,,,,,,,2023-02-01,1,,,,,ヒトフクシシャカイヲツナグソウゴウケンキュウジョ,0
1186,5122005003663,新規,0,2023-02-01,2023-02-01,ＨＲＤ事業協同組合,,その他の設立登記法人,大阪府,東大阪市,長田東１丁目２番１７号センターロイヤル２０２号,,27,227,5770012,,,,,,,2023-02-01,1,,,,,エイチアールディージギョウ,0
1197,5130003008485,新規,0,2023-02-01,2023-02-01,合同会社ＵＮ,,合同会社,京都府,京都市下京区,大黒町２２７番地第２キョートビル４０２,,26,106,6008043,,,,,,,2023-02-01,1,,,,,ウン,0
1202,5140001128929,新規,0,2023-02-01,2023-02-01,ＴＡＮＡＫＥＮ株式会社,,株式会社,兵庫県,小野市,西脇町６２５－１,,28,218,6751341,,,,,,,2023-02-01,1,,,,,タナケン,0
1212,5180005020095,新規,0,2023-02-01,2023-02-01,一般社団法人山櫻,,その他の設立登記法人,愛知県,海部郡大治町,大字東條字中切６７－１,,23,424,4901134,,,,,,,2023-02-01,1,,,,,ヤマザクラ,0
1215,5180303005582,新規,0,2023-02-01,2023-02-01,合同会社フクユウ,,合同会社,愛知県,豊橋市,有楽町２１番地,,23,201,4418035,,,,,,,2023-02-01,1,,,,,フクユウ,0
1216,5180303005590,新規,0,2023-02-01,2023-02-01,合同会社Ｆａｍ,,合同会社,愛知県,岡崎市,針崎町字朱印地６番地１１,,23,202,4440827,,,,,,,2023-02-01,1,,,,,ファム,0
1248,5290001100393,新規,0,2023-02-01,2023-02-01,株式会社ディーエア,,株式会社,福岡県,太宰府市,青山３丁目３２番１４号,,40,221,8180121,,,,,,,2023-02-01,1,,,,,ディーエア,0
1249,5290003013478,新規,0,2023-02-01,2023-02-01,合同会社千富,,合同会社,福岡県,筑後市,大字西牟田３９９０－３,,40,211,8330053,,,,,,,2023-02-01,1,,,,,チトミ,0
1250,5290005018938,新規,0,2023-02-01,2023-02-01,医療法人英友会,,その他の設立登記法人,福岡県,久留米市,宮ノ陣町若松字柿添１６４２番地１,,40,203,8390804,,,,,,,2023-02-01,1,,,,,エイユウカイ,0
1252,5310003004508,新規,0,2023-02-01,2023-02-01,合同会社ａ,,合同会社,長崎県,長崎市,旭町９番１２号杉元ビル２階,,42,201,8528003,,,,,,,2023-02-01,1,,,,,エー,0
1262,5360003012670,新規,0,2023-02-01,2023-02-01,合同会社ＮＡＬＳ,,合同会社,沖縄県,浦添市,字前田１３２６－２,,47,208,9012102,,,,,,,2023-02-01,1,,,,,ナルス,0
1263,5360003012687,新規,0,2023-02-01,2023-02-01,合同会社アルテ,,合同会社,沖縄県,沖縄市,海邦１丁目１７番１９号,,47,211,9042162,,,,,,,2023-02-01,1,,,,,アルテ,0
1270,5370001049549,新規,0,2023-02-01,2023-02-01,株式会社プラスターター古川,,株式会社,宮城県,仙台市太白区,袋原字堰場５７番地の３,,04,104,9811102,,,,,,,2023-02-01,1,,,,,プラスターターフルカワ,0
1284,6010001232651,新規,0,2023-02-01,2023-02-01,晴天株式会社,,株式会社,東京都,文京区,小石川１丁目５番１号ＰＣ４０２,,13,105,1120002,,,,,,,2023-02-01,1,,,,,アオゾラ,0
1287,6010003039723,新規,0,2023-02-01,2023-02-01,宇田川総研合同会社,,合同会社,東京都,文京区,目白台２丁目７－１２－１００１,,13,105,1120015,,,,,,,2023-02-01,1,,,,,ウタガワソウケン,0
1292,6010401172167,新規,0,2023-02-01,2023-02-01,株式会社ＤｉｇｉｔａｌＨ２,,株式会社,東京都,港区,北青山２丁目７番２６号,,13,103,1070061,,,,,,,2023-02-01,1,,,,,デジタルエイチツー,0
1293,6010401172183,新規,0,2023-02-01,2023-02-01,Ｅｍｉｌｙ＆ｃｏ株式会社,,株式会社,東京都,港区,港南３丁目６－２１，３４０８,,13,103,1080075,,,,,,,2023-02-01,1,,,,,エミリーアンドコー,0
1295,6010403029415,新規,0,2023-02-01,2023-02-01,Ａｂｉｔ　Ｊａｐａｎ合同会社,,合同会社,東京都,港区,六本木７丁目１２－２Ｒ７ビルディング,,13,103,1060032,,,,,,,2023-02-01,1,,,,,アビットジャパン,0
1315,6010703006568,新規,0,2023-02-01,2023-02-01,合同会社ＵＲＡ,,合同会社,東京都,品川区,荏原１丁目４－２リベール１０１,,13,109,1420063,,,,,,,2023-02-01,1,,,,,ウラ,0
1316,6010803004439,新規,0,2023-02-01,2023-02-01,合同会社創友社,,合同会社,東京都,大田区,萩中２丁目１６番１７号,,13,111,1440047,,,,,,,2023-02-01,1,,,,,ソウユウシャ,0
1325,6011001152278,新規,0,2023-02-01,2023-02-01,ＴｏｐＫｎｏｔ株式会社,,株式会社,東京都,渋谷区,道玄坂１丁目１０番８号渋谷道玄坂東急ビル２Ｆ－Ｃ,,13,113,1500043,,,,,,,2023-02-01,1,,,,,トップノット,0
1329,6011003016217,新規,0,2023-02-01,2023-02-01,ＯｆｆｉｃｅＫ８合同会社,,合同会社,東京都,目黒区,下目黒３丁目２２番９号,,13,110,1530064,,,,,,,2023-02-01,1,,,,,オフィスキョウヤ,0
1335,6011303004656,新規,0,2023-02-01,2023-02-01,合同会社ＴＭネットホールディングス,,合同会社,東京都,杉並区,高円寺南３丁目３６番８号サウスヒルズ・Ａ２０５,,13,115,1660003,,,,,,,2023-02-01,1,,,,,ティーエムネットホールディングス,0
1342,6011601026550,新規,0,2023-02-01,2023-02-01,株式会社ＯＥＤＯ,,株式会社,東京都,練馬区,高松４丁目２３番９号,,13,120,1790075,,,,,,,2023-02-01,1,,,,,オエド,0
1345,6011701025964,新規,0,2023-02-01,2023-02-01,興盛株式会社,,株式会社,東京都,江戸川区,平井７丁目２０番１３－３０２,,13,123,1320035,,,,,,,2023-02-01,1,,,,,コウセイ,0
1350,6012401040130,新規,0,2023-02-01,2023-02-01,株式会社キューファースト,,株式会社,東京都,武蔵野市,吉祥寺北町３丁目５番９号ＪｕｎＫＥＹＡＫＩ２０１,,13,203,1800001,,,,,,,2023-02-01,1,,,,,キューファースト,0
1351,6012401040139,新規,0,2023-02-01,2023-02-01,株式会社林琳商事,,株式会社,東京都,武蔵野市,御殿山１丁目５番３－２１０号,,13,203,1800005,,,,,,,2023-02-01,1,,,,,リンリンショウジ,0
1352,6012801022117,新規,0,2023-02-01,2023-02-01,株式会社ＴＴアートメディカル,,株式会社,東京都,国立市,東１丁目１番地の３０,,13,215,1860002,,,,,,,2023-02-01,1,,,,,ティーティーアートメディカル,0
1363,6020005015837,新規,0,2023-02-01,2023-02-01,一般社団法人未来環境プロジェクト普及協議会,,その他の設立登記法人,神奈川県,横浜市中区,海岸通５丁目２５番地２号－２１,,14,104,2310002,,,,,,,2023-02-01,1,,,,,ミライカンキョウプロジェクトフキュウキョウギカイ,0
1376,6030001152113,新規,0,2023-02-01,2023-02-01,株式会社ＬＯＳＨＡ,,株式会社,埼玉県,さいたま市浦和区,上木崎１丁目１２番１号,,11,107,3300071,,,,,,,2023-02-01,1,,,,,ロシャ,0
1377,6030001152187,新規,0,2023-02-01,2023-02-01,株式会社Ｒｉｎｋ,,株式会社,埼玉県,所沢市,大字荒幡２４１番地の２９,,11,208,3591133,,,,,,,2023-02-01,1,,,,,リンク,0
1386,6030005021124,新規,0,2023-02-01,2023-02-01,特定非営利活動法人くーねるあそぶ,,その他の設立登記法人,埼玉県,吉川市,中曽根２丁目５番地１,,11,243,3420033,,,,,,,2023-02-01,1,,,,,クーネルアソブ,0
1392,6040003021793,新規,0,2023-02-01,2023-02-01,Ｇｏｏｄ　Ｄａｙ合同会社,,合同会社,千葉県,千葉市花見川区,横戸台４５番地５,,12,102,2620006,,,,,,,2023-02-01,1,,,,,グッデイ,0
1393,6040003021810,新規,0,2023-02-01,2023-02-01,スターシップ合同会社,,合同会社,千葉県,流山市,東初石２丁目９１番地の６レクセルプラッツァ初石１１１,,12,220,2700114,,,,,,,2023-02-01,1,,,,,スターシップ,0
1401,6050003007180,新規,0,2023-02-01,2023-02-01,Ｃｌｕｂ　Ａｔｌｅｔｉｃｏ　Ａｕｒｏｒａ合同会社,,合同会社,茨城県,水戸市,元吉田町１１１１－３,,08,201,3100836,,,,,,,2023-02-01,1,,,,,クラブアトレティコアウローラ,0
1402,6050003007197,新規,0,2023-02-01,2023-02-01,Ｉｍａｐｉｃ合同会社,,合同会社,茨城県,つくば市,西高野１８６５番地,,08,220,3002613,,,,,,,2023-02-01,1,,,,,イマピック,0
1407,6060003004391,新規,0,2023-02-01,2023-02-01,ハレノヒ合同会社,,合同会社,栃木県,宇都宮市,中岡本町２９１９番地３１５,,09,201,3291105,,,,,,,2023-02-01,1,,,,,ハレノヒ,0
1416,6080401026283,新規,0,2023-02-01,2023-02-01,株式会社ＮＥＸＴＧＡＺＥ,,株式会社,静岡県,浜松市中区,田町３３１番地の１０、２階東側,,22,131,4300944,,,,,,,2023-02-01,1,,,,,ネクストゲイズ,0
1423,6110003004972,新規,0,2023-02-01,2023-02-01,合同会社Ｅｌｌｅ,,合同会社,新潟県,五泉市,村松甲１６３７番地の１,,15,218,9591704,,,,,,,2023-02-01,1,,,,,エル,0
1424,6110005016891,新規,0,2023-02-01,2023-02-01,ＮＰＯ法人身寄りなし問題研究会,,その他の設立登記法人,新潟県,新潟市中央区,本町通６番町１１１５番地,,15,103,9518067,,,,,,,2023-02-01,1,,,,,ミヨリナシモンダイケンキュウカイ,0
1433,6120001251847,新規,0,2023-02-01,2023-02-01,株式会社ＮＥＸＴＪＡＰＡＮホールディングス,,株式会社,大阪府,大阪市北区,梅田１丁目１番３号大阪駅前第３ビル２５階,,27,127,5300001,,,,,,,2023-02-01,1,,,,,ネクストジャパンホールディングス,0
1434,6120001252143,新規,0,2023-02-01,2023-02-01,Ｓｆｉｄａ株式会社,,株式会社,大阪府,大阪市東成区,神路１丁目７－５神路一丁目ビル３０３,,27,115,5370003,,,,,,,2023-02-01,1,,,,,エスフィーダ,0
1435,6120001252151,新規,0,2023-02-01,2023-02-01,愛凌株式会社,,株式会社,大阪府,大阪市都島区,都島南通１丁目１９番１０－３０２号,,27,102,5340023,,,,,,,2023-02-01,1,,,,,アイリョウ,0
1440,6120901047048,新規,0,2023-02-01,2023-02-01,株式会社オネスト,,株式会社,大阪府,茨木市,五十鈴町１４番２８号の２,,27,211,5670842,,,,,,,2023-02-01,1,,,,,オネスト,0
1441,6120903004484,新規,0,2023-02-01,2023-02-01,合同会社Ｒｅｂｕｉｌｄｅｒ,,合同会社,大阪府,高槻市,西町５０番７号,,27,207,5690854,,,,,,,2023-02-01,1,,,,,リビルダー,0
1445,6130001073588,新規,0,2023-02-01,2023-02-01,株式会社シンフォワード,,株式会社,京都府,京都市南区,上鳥羽南花名町３５－３,,26,107,6018126,,,,,,,2023-02-01,1,,,,,シンフォワード,0
1450,6140001128936,新規,0,2023-02-01,2023-02-01,株式会社富士,,株式会社,兵庫県,神戸市長田区,鶯町３丁目４－１－１０２号,,28,106,6530871,,,,,,,2023-02-01,1,,,,,フジ,0
1460,6160001024803,新規,0,2023-02-01,2023-02-01,株式会社ＭＹ２,,株式会社,滋賀県,大津市,大平２丁目４－５ヴィラプログレス３０２,,25,201,5200867,,,,,,,2023-02-01,1,,,,,エムワイツー,0
1470,6190001030138,新規,0,2023-02-01,2023-02-01,株式会社カケル,,株式会社,三重県,鈴鹿市,三日市町９６０番地１,,24,207,5130803,,,,,,,2023-02-01,1,,,,,カケル,0
1475,6230003001966,新規,0,2023-02-01,2023-02-01,合同会社ライフサービス,,合同会社,富山県,富山市,東町２丁目４番５－４０２号福一ビル,,16,201,9300039,,,,,,,2023-02-01,1,,,,,ライフサービス,0
1478,6240001061012,新規,0,2023-02-01,2023-02-01,株式会社エスエーブライト,,株式会社,広島県,広島市南区,東雲本町１丁目１番３０号,,34,103,7340023,,,,,,,2023-02-01,1,,,,,エスエーブライト,0
1479,6240001061029,新規,0,2023-02-01,2023-02-01,株式会社亀尾造園,,株式会社,広島県,廿日市市,永原１１２７番地１,,34,213,7380201,,,,,,,2023-02-01,1,,,,,カメオゾウエン,0
1497,6290803004329,新規,0,2023-02-01,2023-02-01,合同会社訪問介護春花,,合同会社,福岡県,田川郡川崎町,大字川崎７１２番地の１５,,40,605,8270003,,,,,,,2023-02-01,1,,,,,ホウモンカイゴハルカ,0
1499,6310001018244,新規,0,2023-02-01,2023-02-01,株式会社ＨＳ,,株式会社,長崎県,西彼杵郡時津町,西時津郷１０００番地１５１,,42,308,8512101,,,,,,,2023-02-01,1,,,,,エイチエス,0
1504,6360003012678,新規,0,2023-02-01,2023-02-01,合同会社くら,,合同会社,沖縄県,豊見城市,字嘉数２０２番地１１,,47,212,9010202,,,,,,,2023-02-01,1,,,,,クラ,0
1511,6380001033435,新規,0,2023-02-01,2023-02-01,株式会社先崎畜産,00129282,株式会社,福島県,田村郡小野町,大字塩庭字向永志田６０番地,,07,522,9633314,,,,,,,2023-02-01,1,,,,,センザキチクサン,0
1522,6430001088333,新規,0,2023-02-01,2023-02-01,株式会社ＲＣ,,株式会社,北海道,札幌市西区,八軒一条西２丁目５番２２－１０３号,,01,107,0630841,,,,,,,2023-02-01,1,,,,,アールシー,0
1524,6430005014632,新規,0,2023-02-01,2023-02-01,一般社団法人日本ビジネス教育協会,,その他の設立登記法人,北海道,札幌市中央区,北五条西１３丁目１番地１１６,,01,101,0600005,,,,,,,2023-02-01,1,,,,,ニホンビジネスキョウイクキョウカイ,0
1528,6470001019441,新規,0,2023-02-01,2023-02-01,株式会社Ｄ‐ｙｏｒｏｚｕ,,株式会社,香川県,三豊市,財田町財田上２１７１番地１財田庁舎２階,,37,208,7690401,,,,,,,2023-02-01,1,,,,,ディーヨロズ,0
1540,7010001232592,新規,0,2023-02-01,2023-02-01,株式会社ヴァイロン,,株式会社,東京都,千代田区,有楽町２丁目１０－１東京交通会館６０８,,13,101,1000006,,,,,,,2023-02-01,1,,,,,ヴァイロン,0
1545,7010003039722,新規,0,2023-02-01,2023-02-01,合同会社ソーラーパーク,,合同会社,東京都,千代田区,平河町１丁目３番１３号平河町フロントビル７階株式会社シリウス・アドバイザリー内,,13,101,1020093,,,,,,,2023-02-01,1,,,,,ソーラーパーク,0
1546,7010003039739,新規,0,2023-02-01,2023-02-01,幸造設備合同会社,,合同会社,東京都,中央区,銀座６丁目１３番１６号銀座ＷａｌｌビルＵＣＦ５階,,13,102,1040061,,,,,,,2023-02-01,1,,,,,コウゾウセツビ,0
1549,7010005036131,新規,0,2023-02-01,2023-02-01,特定非営利活動法人日本ビジネスケースコンペティション実行委員会,,その他の設立登記法人,東京都,中央区,銀座１丁目２２番１１号銀座大竹ビジデンス２階,,13,102,1040061,,,,,,,2023-02-01,1,,,,,ニホンビジネスケースコンペティションジッコウイインカイ,0
1550,7010005036189,新規,0,2023-02-01,2023-02-01,一般社団法人キロビット,,その他の設立登記法人,東京都,中央区,八丁堀４丁目２番１０号ＡＯＪ税理士法人内,,13,102,1040032,,,,,,,2023-02-01,1,,,,,キロビット,0
1553,7010401172166,新規,0,2023-02-01,2023-02-01,ＹｏｕＣｏｄｅ株式会社,,株式会社,東京都,港区,麻布十番２丁目２－８麻布十番クラウンビル４階,,13,103,1060045,,,,,,,2023-02-01,1,,,,,ユーコード,0
1555,7010403029364,新規,0,2023-02-01,2023-02-01,ユニクレイジー合同会社,,合同会社,東京都,港区,南青山３丁目１番３６号青山丸竹ビル,,13,103,1070062,,,,,,,2023-02-01,1,,,,,ユニクレイジー,0
1556,7010403029414,新規,0,2023-02-01,2023-02-01,ＡＩＬＥ合同会社,,合同会社,東京都,港区,南青山１丁目２１－７,,13,103,1070062,,,,,,,2023-02-01,1,,,,,エール,0
1557,7010403029422,新規,0,2023-02-01,2023-02-01,ＭＥＴＡＴＥＣＨ　ＴＯＫＹＯ合同会社,,合同会社,東京都,港区,浜松町２丁目２番１５号浜松町ダイヤビル２Ｆ,,13,103,1050013,,,,,,,2023-02-01,1,,,,,メタテクトウキョウ,0
1573,7010701043777,新規,0,2023-02-01,2023-02-01,株式会社グローバルリノベーション,,株式会社,東京都,品川区,小山２丁目５番１０号,,13,109,1420062,,,,,,,2023-02-01,1,,,,,グローバルリノベーション,0
1574,7010703006567,新規,0,2023-02-01,2023-02-01,合同会社Ｓｎｏｗｂａｌｌ,,合同会社,東京都,品川区,東品川１丁目１１番６－４０１号,,13,109,1400002,,,,,,,2023-02-01,1,,,,,スノーボール,0
1588,7011001152277,新規,0,2023-02-01,2023-02-01,Ｍａｔｅｔ株式会社,,株式会社,東京都,渋谷区,神南１丁目２３番地１４号,,13,113,1500041,,,,,,,2023-02-01,1,,,,,マテット,0
1589,7011001152285,新規,0,2023-02-01,2023-02-01,Ｌｕｚ株式会社,,株式会社,東京都,渋谷区,恵比寿４丁目７番２号ＳｕｎｎｙＤａｙ,,13,113,1500013,,,,,,,2023-02-01,1,,,,,ルース,0
1590,7011001152302,新規,0,2023-02-01,2023-02-01,ＳＡＣＨＩＥＹ株式会社,,株式会社,東京都,目黒区,鷹番２丁目１４番１４－１０２号,,13,110,1520004,,,,,,,2023-02-01,1,,,,,サチエイ,0
1591,7011001152310,新規,0,2023-02-01,2023-02-01,株式会社フロンティアデジタル,,株式会社,東京都,渋谷区,渋谷３丁目３番５号,,13,113,1500002,,,,,,,2023-02-01,1,,,,,フロンティアデジタル,0
1596,7011003016199,新規,0,2023-02-01,2023-02-01,ＣｈｅｃｋＲａｉｓｅ合同会社,,合同会社,東京都,渋谷区,道玄坂１丁目１０番８号渋谷道玄坂東急ビル２Ｆ－Ｃ,,13,113,1500043,,,,,,,2023-02-01,1,,,,,チェックレイズ,0
1603,7011201024383,新規,0,2023-02-01,2023-02-01,ハロ麒麟株式会社,,株式会社,東京都,中野区,南台５丁目５番７号ＧＳハイム中野南台１０４,,13,114,1640014,,,,,,,2023-02-01,1,,,,,ハロキリン,0
1604,7011201024391,新規,0,2023-02-01,2023-02-01,株式会社サンライズ,,株式会社,東京都,中野区,松が丘２丁目１２番１２－３０２号,,13,114,1650024,,,,,,,2023-02-01,1,,,,,サンライズ,0
1605,7011301028417,新規,0,2023-02-01,2023-02-01,ＤＯＤＯ株式会社,,株式会社,東京都,杉並区,高円寺南４丁目２－２グランデュオ高円寺５－４０２,,13,115,1660003,,,,,,,2023-02-01,1,,,,,ドド,0
1611,7011501028919,新規,0,2023-02-01,2023-02-01,株式会社シーゴールド,,株式会社,東京都,荒川区,町屋１丁目３０番６号,,13,118,1160001,,,,,,,2023-02-01,1,,,,,シーゴールド,0
1620,7012801022116,新規,0,2023-02-01,2023-02-01,株式会社ＳＫＴ,,株式会社,東京都,武蔵村山市,三ツ木１丁目１９番地の１４,,13,223,2080032,,,,,,,2023-02-01,1,,,,,エスケーティ,0
1629,7020001150059,新規,0,2023-02-01,2023-02-01,株式会社Ｐｒｏｊｅｃｔ‐Ａ,,株式会社,神奈川県,横浜市保土ケ谷区,桜ケ丘１丁目１９番１５号,,14,106,2400011,,,,,,,2023-02-01,1,,,,,プロジェクトエース,0
1630,7020001150075,新規,0,2023-02-01,2023-02-01,株式会社ＦＵＴＥＣ,,株式会社,神奈川県,川崎市中原区,苅宿２２番３２号,,14,133,2110022,,,,,,,2023-02-01,1,,,,,フューテック,0
1638,7021003012684,新規,0,2023-02-01,2023-02-01,レッドアイ合同会社,,合同会社,神奈川県,大和市,つきみ野１丁目６－９－６４５,,14,213,2420002,,,,,,,2023-02-01,1,,,,,レッドアイ,0
1655,7040001126783,新規,0,2023-02-01,2023-02-01,四街道貿易株式会社,,株式会社,千葉県,四街道市,鹿放ケ丘２８３番２,,12,228,2840008,,,,,,,2023-02-01,1,,,,,ヨツカイドウボウエキ,0
1656,7040001126858,新規,0,2023-02-01,2023-02-01,株式会社アットロジコム関東,,株式会社,千葉県,成田市,大袋３０６番地６,,12,211,2860043,,,,,,,2023-02-01,1,,,,,アットロジコムカントウ,0
1657,7040001126874,新規,0,2023-02-01,2023-02-01,株式会社ｂ＆ｂｅａｕｔｙ,,株式会社,千葉県,流山市,駒木４９１－５－４０２,,12,220,2700132,,,,,,,2023-02-01,1,,,,,ビーアンドビューティー,0
1660,7040003021826,新規,0,2023-02-01,2023-02-01,グローバルエクスプレス合同会社,,合同会社,千葉県,千葉市美浜区,若葉３丁目１－１－２８０６,,12,106,2610014,,,,,,,2023-02-01,1,,,,,グローバルエクスプレス,0
1661,7050001052319,新規,0,2023-02-01,2023-02-01,株式会社協伸工業,,株式会社,茨城県,土浦市,乙戸１１００番地１７,,08,203,3000844,,,,,,,2023-02-01,1,,,,,キョウシンコウギョウ,0
1668,7080001025437,新規,0,2023-02-01,2023-02-01,ＣＴＴ株式会社,,株式会社,静岡県,静岡市葵区,川辺町２丁目２番３号センチュリーするが２階,,22,101,4200043,,,,,,,2023-02-01,1,,,,,シーティーティー,0
1671,7080401026282,新規,0,2023-02-01,2023-02-01,株式会社Ｍｅｄｉｃａｌ　Ｓｎｏｗｄｒｏｐ,,株式会社,静岡県,浜松市中区,砂山町３２９番地の１,,22,131,4300926,,,,,,,2023-02-01,1,,,,,メディカルスノードロップ,0
1688,7120001252142,新規,0,2023-02-01,2023-02-01,日麗株式会社,,株式会社,大阪府,大阪市東成区,神路１丁目７－５神路一丁目ビル３０１,,27,115,5370003,,,,,,,2023-02-01,1,,,,,ニチレイ,0
1689,7120001252167,新規,0,2023-02-01,2023-02-01,ＫＣ株式会社,,株式会社,大阪府,大阪市中央区,松屋町住吉３番２－７０８号,,27,128,5400017,,,,,,,2023-02-01,1,,,,,ケーシー,0
1694,7120005023440,新規,0,2023-02-01,2023-02-01,弁理士法人ナビジョン国際特許事務所,,その他の設立登記法人,大阪府,大阪市中央区,城見２丁目１－６１ツイン２１ＭＩＤタワー２５階,,27,128,5400001,,,,,,,2023-02-01,1,,,,,ナビジョンコクサイトッキョジムショ,0
1695,7120101066913,新規,0,2023-02-01,2023-02-01,森下工業株式会社,,株式会社,大阪府,堺市中区,福田１７９番地３グリーンコート杉ＩＩＩ２０２号,00129283,27,142,5998241,,,,,,,2023-02-01,1,,,,,モリシタコウギョウ,0
1701,7130001073570,新規,0,2023-02-01,2023-02-01,株式会社華陽志,,株式会社,京都府,京都市伏見区,羽束師菱川町５８２－４３,,26,109,6128487,,,,,,,2023-02-01,1,,,,,ハナヒシ,0
1713,7140003018655,新規,0,2023-02-01,2023-02-01,合同会社セカンドワークス,,合同会社,兵庫県,神戸市兵庫区,水木通５丁目３番１９号カサパロマ１階,,28,105,6520802,,,,,,,2023-02-01,1,,,,,セカンドワークス,0
1714,7140003018663,新規,0,2023-02-01,2023-02-01,あわじ楽農倶楽部合同会社,,合同会社,兵庫県,洲本市,木戸５０９番地２,,28,205,6560045,,,,,,,2023-02-01,1,,,,,アワジラクノウクラブ,0
1715,7140005014520,新規,0,2023-02-01,2023-02-01,兵庫プロパン瓦斯企業組合,,その他の設立登記法人,兵庫県,姫路市,元塩町６８番地,,28,201,6700937,,,,,,,2023-02-01,1,,,,,ヒョウゴプロパンガス,0
1716,7150001026139,新規,0,2023-02-01,2023-02-01,ｙｕｍｅｔｏｗａ株式会社,,株式会社,奈良県,生駒市,壱分町７３－３２,,29,209,6300222,,,,,,,2023-02-01,1,,,,,,0
1717,7150003002872,新規,0,2023-02-01,2023-02-01,あの合同会社,,合同会社,奈良県,奈良市,大宮町３丁目２－３９－２０７,,29,201,6308115,,,,,,,2023-02-01,1,,,,,,0
1728,7190003004213,新規,0,2023-02-01,2023-02-01,ＴＩＧ合同会社,,合同会社,三重県,伊勢市,船江３丁目１７―１４,,24,203,5160008,,,,,,,2023-02-01,1,,,,,ティーアイジー,0
1731,7200005013441,新規,0,2023-02-01,2023-02-01,一般社団法人ＤＡ‐Ｎ‐ＲＯ,,その他の設立登記法人,岐阜県,大垣市,旭町３丁目１０番地旭ビル１Ｃ,,21,202,5030824,,,,,,,2023-02-01,1,,,,,ダンロ,0
1737,7240003005998,新規,0,2023-02-01,2023-02-01,合同会社Ｓｐｙｄｅｒ,,合同会社,広島県,福山市,今町２番１８号,,34,207,7200046,,,,,,,2023-02-01,1,,,,,スパイダー,0
1750,7290001100400,新規,0,2023-02-01,2023-02-01,渋谷オーガニゼーション株式会社,,株式会社,福岡県,大牟田市,新勝立町１丁目４８番地１渋谷ビル,,40,202,8360895,,,,,,,2023-02-01,1,,,,,シブヤオーガニゼーション,0
1751,7290001100409,新規,0,2023-02-01,2023-02-01,株式会社グロースハックラボ,,株式会社,福岡県,福岡市西区,小戸３丁目２８－１－３０２,,40,135,8190001,,,,,,,2023-02-01,1,,,,,グロースハックラボ,0
1754,7290003013476,新規,0,2023-02-01,2023-02-01,合同会社ＫＲＩＳＨＡＮ　ＥＮＴＥＲＰＲＩＳＥＳ,,合同会社,福岡県,福岡市南区,折立町１番２８号ハーベスト大橋南ＩＩ２階２０１号室,00129284,40,134,8111303,,,,,,,2023-02-01,1,,,,,クリシャンエンタープライゼズ,0
1755,7290003013484,新規,0,2023-02-01,2023-02-01,合同会社みらい,,合同会社,福岡県,太宰府市,坂本３丁目７番２５号（２０１号）,,40,221,8180133,,,,,,,2023-02-01,1,,,,,ミライ,0
1758,7290803004328,新規,0,2023-02-01,2023-02-01,ＤＴＳ合同会社,,合同会社,福岡県,北九州市八幡西区,小嶺台１丁目１２－２ピアチューレ園１０８号,,40,109,8070082,,,,,,,2023-02-01,1,,,,,ディーティーエス,0
1761,7320001019546,新規,0,2023-02-01,2023-02-01,株式会社日本海ファーム,,株式会社,大分県,臼杵市,野津町大字吉田３９０６番地２,,44,206,8750222,,,,,,,2023-02-01,1,,,,,ニホンカイファーム,0
1763,7330001030543,新規,0,2023-02-01,2023-02-01,スキマテック株式会社,,株式会社,熊本県,上益城郡山都町,南田４９番地３,,43,447,8613546,,,,,,,2023-02-01,1,,,,,スキマテック,0
1775,7360003012611,新規,0,2023-02-01,2023-02-01,合同会社ＨＡＲＢＯＲ,,合同会社,沖縄県,沖縄市,中央２丁目１６－１,,47,211,9040004,,,,,,,2023-02-01,1,,,,,ハーバー,0
1786,7430001088332,新規,0,2023-02-01,2023-02-01,双葉ホールディングス株式会社,,株式会社,北海道,札幌市北区,南あいの里７丁目２０番２５号,,01,102,0028091,,,,,,,2023-02-01,1,,,,,フタバホールディングス,0
1793,7460301005125,新規,0,2023-02-01,2023-02-01,株式会社ティーオーのむら,,株式会社,北海道,北見市,錦町６１０番地８,,01,208,0900827,,,,,,,2023-02-01,1,,,,,ティーオーノムラ,0
1800,8010001232534,新規,0,2023-02-01,2023-02-01,株式会社ＢｅｔｔｅｒＣｌｉｃｋ,,株式会社,東京都,中央区,日本橋２丁目１６番１３号,,13,102,1030027,,,,,,,2023-02-01,1,,,,,ベタークリック,0
1801,8010001232641,新規,0,2023-02-01,2023-02-01,株式会社ＲｅＰＥａＴ,,株式会社,東京都,千代田区,霞が関３丁目２番１号,,13,101,1000013,,,,,,,2023-02-01,1,,,,,リピート,0
1803,8010003039705,新規,0,2023-02-01,2023-02-01,Ｇｒａｓｓ　ｆｉｅｌｄ合同会社,,合同会社,東京都,中央区,日本橋兜町１７番２号兜町第６葉山ビル４Ｆ,,13,102,1030026,,,,,,,2023-02-01,1,,,,,グラスフィールド,0
1804,8010003039713,新規,0,2023-02-01,2023-02-01,アイエスピー合同会社,,合同会社,東京都,中央区,八重洲１丁目８―１７新槇町ビル６階,,13,102,1030028,,,,,,,2023-02-01,1,,,,,アイエスピー,0
1805,8010003039721,新規,0,2023-02-01,2023-02-01,合同会社ソーラーガーデン,,合同会社,東京都,千代田区,平河町１丁目３番１３号平河町フロントビル７階株式会社シリウス・アドバイザリー内,,13,101,1020093,,,,,,,2023-02-01,1,,,,,ソーラーガーデン,0
1807,8010005036188,新規,0,2023-02-01,2023-02-01,東京レジ３５一般社団法人,,その他の設立登記法人,東京都,千代田区,丸の内３丁目１番１号東京共同会計事務所内,,13,101,1000005,,,,,,,2023-02-01,1,,,,,トウキョウレジサーティファイブ,0
1820,8010403029413,新規,0,2023-02-01,2023-02-01,にこにこ合同会社,,合同会社,東京都,港区,東新橋２丁目４－８ピアネッタ汐留１２０２,,13,103,1050021,,,,,,,2023-02-01,1,,,,,ニコニコ,0
1822,8010501049940,新規,0,2023-02-01,2023-02-01,新仁商事株式会社,,株式会社,東京都,台東区,東上野４丁目２０－５－１０１,,13,106,1100015,,,,,,,2023-02-01,1,,,,,シンジンショウジ,0
1843,8010701043792,新規,0,2023-02-01,2023-02-01,株式会社カメラマン,,株式会社,東京都,品川区,西五反田５丁目１番１０－３１１号,,13,109,1410031,,,,,,,2023-02-01,1,,,,,カメラマン,0
1847,8010901052453,新規,0,2023-02-01,2023-02-01,株式会社ＧＥＯＭＡＲＵ,,株式会社,東京都,世田谷区,成城８丁目３３番１１号メゾンローゼ成城Ａ棟３０８号室,,13,112,1570066,,,,,,,2023-02-01,1,,,,,ジェオマル,0
1851,8011001152318,新規,0,2023-02-01,2023-02-01,株式会社ロウファイ,,株式会社,東京都,渋谷区,恵比寿西２丁目３番１１－８０８号,,13,113,1500021,,,,,,,2023-02-01,1,,,,,ロウファイ,0
1852,8011003016207,新規,0,2023-02-01,2023-02-01,合同会社ラビッシュ,,合同会社,東京都,渋谷区,道玄坂１丁目１０番８号渋谷道玄坂東急ビル２Ｆ－Ｃ,,13,113,1500043,,,,,,,2023-02-01,1,,,,,ラビッシュ,0
1853,8011003016215,新規,0,2023-02-01,2023-02-01,Ｇｏｏｄ　Ｍｉｌｅ合同会社,,合同会社,東京都,渋谷区,渋谷２丁目１９―１５宮益坂ビルディング６０９,,13,113,1500002,,,,,,,2023-02-01,1,,,,,グッドマイル,0
1856,8011101101694,新規,0,2023-02-01,2023-02-01,株式会社エバエージェン,,株式会社,東京都,新宿区,西新宿７丁目１番７号新宿ダイカンプラザＡ館６１９,,13,104,1600023,,,,,,,2023-02-01,1,,,,,エバエージェン,0
1857,8011103012650,新規,0,2023-02-01,2023-02-01,合同会社ＮＳＢＣ,,合同会社,東京都,新宿区,弁天町２１番地７－６０１,,13,104,1620851,,,,,,,2023-02-01,1,,,,,エヌエスビーシー,0
1859,8011203003995,新規,0,2023-02-01,2023-02-01,合同会社ＫＡＷＡ,,合同会社,東京都,中野区,中野５丁目５９番１３号１Ｆ,,13,114,1640001,,,,,,,2023-02-01,1,,,,,カワ,0
1866,8011601026549,新規,0,2023-02-01,2023-02-01,株式会社ｍ．,,株式会社,東京都,練馬区,田柄２丁目３１番地２４号１０３,,13,120,1790073,,,,,,,2023-02-01,1,,,,,エムドット,0
1873,8012403005798,新規,0,2023-02-01,2023-02-01,合同会社野谷,,合同会社,東京都,府中市,府中町２丁目１―１プレミスト府中１２０１,,13,206,1830055,,,,,,,2023-02-01,1,,,,,ノヤ,0
1876,8013301050143,新規,0,2023-02-01,2023-02-01,株式会社ＬＥＡＤ　ＦＩＴ,,株式会社,東京都,豊島区,西巣鴨１丁目５番２号プリマヴェーラ大塚４０５号,,13,116,1700001,,,,,,,2023-02-01,1,,,,,リードフィット,0
1886,8021003012691,新規,0,2023-02-01,2023-02-01,ビーオンウェブ合同会社,,合同会社,神奈川県,平塚市,西八幡１丁目１１番３７号－３０３号シャーメゾン,,14,203,2540073,,,,,,,2023-02-01,1,,,,,ビーオンウェブ,0
1895,8030001152185,新規,0,2023-02-01,2023-02-01,株式会社アイテック,,株式会社,埼玉県,さいたま市中央区,大戸３丁目１３番１５号Ｋ＆Ｓ１０１,,11,105,3380012,,,,,,,2023-02-01,1,,,,,アイテック,0
1898,8030003021074,新規,0,2023-02-01,2023-02-01,合同会社ＳＡＭＡＲＡ　ＩＮＴＥＲＮＡＴＩＯＮＡＬ,,合同会社,埼玉県,蕨市,塚越５丁目４８番１３号ハイム竹山１０２,,11,223,3350002,,,,,,,2023-02-01,1,,,,,サマラインターナショナル,0
1899,8030005021130,新規,0,2023-02-01,2023-02-01,一般社団法人秩父・正昭集古館,,その他の設立登記法人,埼玉県,秩父市,上町３丁目１２番４５号,,11,207,3680035,,,,,,,2023-02-01,1,,,,,チチブセイショウシュウコカン,0
1907,8040003021800,新規,0,2023-02-01,2023-02-01,アテリーズグローバルマネジメント合同会社,,合同会社,千葉県,茂原市,本納２２８４番地１,,12,210,2994114,,,,,,,2023-02-01,1,,,,,アテリーズグローバルマネジメント,0
1908,8040003021809,新規,0,2023-02-01,2023-02-01,合同会社メリーきてや,,合同会社,千葉県,松戸市,新松戸１丁目２１６番地の１,,12,207,2700034,,,,,,,2023-02-01,1,,,,,メリーキテヤ,0
1909,8040003021817,新規,0,2023-02-01,2023-02-01,ＨＡＮＥＤＡ　ＭＯＴＯＲＳ合同会社,,合同会社,千葉県,八街市,用草１７４番地２、２階２０２号室,,12,230,2891138,,,,,,,2023-02-01,1,,,,,ハネダモータース,0
1913,8050001052318,新規,0,2023-02-01,2023-02-01,株式会社ＷＡＬＫＥＲ,,株式会社,茨城県,神栖市,知手６３９０番地６,,08,232,3140115,,,,,,,2023-02-01,1,,,,,ウォーカー,0
1917,8070001040080,新規,0,2023-02-01,2023-02-01,ＧＡＫＵ株式会社,,株式会社,群馬県,高崎市,江木町１７０番地２,,10,202,3700046,,,,,,,2023-02-01,1,,,,,ガク,0
1920,8080403004715,新規,0,2023-02-01,2023-02-01,合同会社ジャパンシステム,,合同会社,静岡県,浜松市中区,砂山町３５７－５砂山ビル３Ｆ,,22,131,4300926,,,,,,,2023-02-01,1,,,,,ジャパンシステム,0
1921,8090001017952,新規,0,2023-02-01,2023-02-01,株式会社シマトミ企画,,株式会社,山梨県,甲府市,朝気２丁目１番１６号,,19,201,4000862,,,,,,,2023-02-01,1,,,,,シマトミキカク,0
1923,8100001036100,新規,0,2023-02-01,2023-02-01,株式会社ｋｉｓｏ　ｅｄｉｔ,,株式会社,長野県,木曽郡木曽町,福島１３２０番地,,20,432,3970001,,,,,,,2023-02-01,1,,,,,キソエディット,0
1932,8120001252125,新規,0,2023-02-01,2023-02-01,鹿鳴株式会社,,株式会社,大阪府,大阪市浪速区,芦原１丁目１番２３号ＮＡＭＢＡウエストＩＩ５０２号室,00129290,27,111,5560029,,,,,,,2023-02-01,1,,,,,ロクメイ,0
1933,8120001252158,新規,0,2023-02-01,2023-02-01,株式会社ＳＩＥＮＷＯ,,株式会社,大阪府,大阪市東淀川区,東中島１丁目１７－５,,27,114,5330033,,,,,,,2023-02-01,1,,,,,シエンヲ,0
1934,8120001252166,新規,0,2023-02-01,2023-02-01,青木マーケ株式会社,,株式会社,大阪府,大阪市中央区,谷町５丁目６－１５－２０１,,27,128,5400012,,,,,,,2023-02-01,1,,,,,アオキマーケ,0
1936,8120003023350,新規,0,2023-02-01,2023-02-01,ＴｏｐＦｉｅｌｄ合同会社,,合同会社,大阪府,大阪市鶴見区,浜２丁目２番４０号,,27,124,5380035,,,,,,,2023-02-01,1,,,,,トップフィールド,0
1937,8120003023359,新規,0,2023-02-01,2023-02-01,合同会社Ｈｏｎｕａ　Ｗｅｂ　Ｓｔｕｄｉｏ,,合同会社,大阪府,大阪市中央区,南船場３丁目１１－２７日宝シルバービル４０２,,27,128,5420081,,,,,,,2023-02-01,1,,,,,ホヌアウェブスタジオ,0
1940,8120901047062,新規,0,2023-02-01,2023-02-01,株式会社ばーすでい,,株式会社,大阪府,摂津市,鳥飼銘木町１番３号,,27,224,5660063,,,,,,,2023-02-01,1,,,,,バースデイ,0
1943,8130001073578,新規,0,2023-02-01,2023-02-01,ソラリスバイオ株式会社,,株式会社,京都府,相楽郡精華町,光台１丁目７番地けいはんなプラザ・ラボ棟,,26,366,6190237,,,,,,,2023-02-01,1,,,,,ソラリスバイオ,0
1945,8130003008490,新規,0,2023-02-01,2023-02-01,ＭＡＮＤＥ合同会社,,合同会社,京都府,京都市伏見区,深草西伊達町８７－９２,,26,109,6120876,,,,,,,2023-02-01,1,,,,,マンデ,0
1950,8140003018662,新規,0,2023-02-01,2023-02-01,合同会社萩岡自動車,,合同会社,兵庫県,神戸市中央区,北本町通３丁目２番２－１０１号,,28,110,6510075,,,,,,,2023-02-01,1,,,,,ハギオカジドウシャ,0
1964,8200001040918,新規,0,2023-02-01,2023-02-01,株式会社クリーン・ビジネス,,株式会社,岐阜県,大垣市,波須２丁目１４９番地１,,21,202,5030811,,,,,,,2023-02-01,1,,,,,クリーンビジネス,0
1967,8240001061027,新規,0,2023-02-01,2023-02-01,株式会社ナカセイウエスト,,株式会社,広島県,広島市中区,橋本町７番１４号,,34,101,7300015,,,,,,,2023-02-01,1,,,,,ナカセイウエスト,0
1983,8260005011190,新規,0,2023-02-01,2023-02-01,一般社団法人ののねこ,,その他の設立登記法人,岡山県,岡山市東区,広谷４３４番地３０,,33,103,7048182,,,,,,,2023-02-01,1,,,,,ノノネコ,0
1994,8320001019545,新規,0,2023-02-01,2023-02-01,株式会社ミスターエル,,株式会社,大分県,大分市,中島中央３丁目４番４号中島ｓａｔｅｌｌｉｔｅ,,44,201,8700049,,,,,,,2023-02-01,1,,,,,ミスターエル,0
1998,8330001030550,新規,0,2023-02-01,2023-02-01,Ｎ‐ＴＥＣ株式会社,,株式会社,熊本県,熊本市東区,神園２丁目３番４０号,,43,102,8618044,,,,,,,2023-02-01,1,,,,,エヌテック,0
2005,8360001031505,新規,0,2023-02-01,2023-02-01,真喜志塗装株式会社,,株式会社,沖縄県,浦添市,西原２丁目１８番８号,,47,208,9012101,,,,,,,2023-02-01,1,,,,,マキシトソウ,0
2006,8360003012684,新規,0,2023-02-01,2023-02-01,合同会社リカバー,,合同会社,沖縄県,南城市,玉城字船越７７３番地１,,47,215,9010618,,,,,,,2023-02-01,1,,,,,リカバー,0
2019,8380001033433,新規,0,2023-02-01,2023-02-01,株式会社繁盛商事,,株式会社,福島県,南相馬市,原町区日の出町２３８番地の１,,07,212,9750038,,,,,,,2023-02-01,1,,,,,ハンジョウショウジ,0
2020,8380001033441,新規,0,2023-02-01,2023-02-01,株式会社ＳｉｎｏｂｉＪａｐａｎ,,株式会社,福島県,二本松市,竹田２丁目３番地１松風庵１０２号,,07,210,9640902,,,,,,,2023-02-01,1,,,,,シノビジャパン,0
2026,8400001016146,新規,0,2023-02-01,2023-02-01,株式会社ＡＸＬＥ,,株式会社,岩手県,紫波郡矢巾町,大字高田第１５地割３４番地１１,,03,322,0283601,,,,,,,2023-02-01,1,,,,,アクセル,0
2033,8430001088323,新規,0,2023-02-01,2023-02-01,株式会社ＳＴＨ,,株式会社,北海道,札幌市手稲区,新発寒七条１丁目２番１５号,,01,109,0060807,,,,,,,2023-02-01,1,,,,,エスティーエイチ,0
2038,8460101007295,新規,0,2023-02-01,2023-02-01,株式会社Ｐｒｅ　Ｈｕｂ,,株式会社,北海道,上川郡清水町,字旭山基線２４番４,,01,636,0890355,,,,,,,2023-02-01,1,,,,,プレハブ,0
2053,9010001232574,新規,0,2023-02-01,2023-02-01,ＢａｎＫｅｒｓ‐Ｅｙｅ株式会社,,株式会社,東京都,中央区,日本橋蛎殻町１丁目３９番７号ハイツ水天宮前２０１,,13,102,1030014,,,,,,,2023-02-01,1,,,,,バンカーズアイ,0
2054,9010001232590,新規,0,2023-02-01,2023-02-01,株式会社ＩＴＯＳＨＩＯ,,株式会社,東京都,千代田区,九段南１丁目５番６号りそな九段ビル５階ＫＳフロア,,13,101,1020074,,,,,,,2023-02-01,1,,,,,イトシオ,0
2055,9010001232624,新規,0,2023-02-01,2023-02-01,株式会社ＡＺＮＩＣＳ,,株式会社,東京都,文京区,本郷６丁目２５番１４号,,13,105,1130033,,,,,,,2023-02-01,1,,,,,アズニクス,0
2056,9010001232632,新規,0,2023-02-01,2023-02-01,カフベンテックジャパン株式会社,,株式会社,東京都,文京区,本郷３丁目４２番５号,,13,105,1130033,,,,,,,2023-02-01,1,,,,,カフベンテックジャパン,0
2057,9010001232649,新規,0,2023-02-01,2023-02-01,株式会社天限,,株式会社,東京都,中央区,東日本橋２丁目２８番４号日本橋ＣＥＴビル２階,,13,102,1030004,,,,,,,2023-02-01,1,,,,,アメカギ,0
2061,9010003039687,新規,0,2023-02-01,2023-02-01,ＹＧＫＮ合同会社,,合同会社,東京都,千代田区,神田和泉町一丁目６番１６号ヤマトビル４０５,,13,101,1010024,,,,,,,2023-02-01,1,,,,,ワイジーケーエヌ,0
2065,9010005036187,新規,0,2023-02-01,2023-02-01,東京レジ３４一般社団法人,,その他の設立登記法人,東京都,千代田区,丸の内３丁目１番１号東京共同会計事務所内,,13,101,1000005,,,,,,,2023-02-01,1,,,,,トウキョウレジサーティフォー,0
2072,9010405021747,新規,0,2023-02-01,2023-02-01,麻布霞町行政書士法人,,その他の設立登記法人,東京都,港区,港南２丁目３番１号ＴＨＥＨＵＢ品川３０４大信秋山ビル,,13,103,1080075,,,,,,,2023-02-01,1,,,,,アザブカスミチョウ,0
2073,9010405021771,新規,0,2023-02-01,2023-02-01,ＳｉｌｋＲｏａｄ　Ｃｅｎｔｒａｌ特定目的会社,,その他の設立登記法人,東京都,港区,六本木１丁目６番１号泉ガーデンタワーＫＰＭＧ税理士法人内,,13,103,1060032,,,,,,,2023-02-01,1,,,,,シルクロードセントラル,0
2074,9010501049931,新規,0,2023-02-01,2023-02-01,地震保険調査事務所株式会社,,株式会社,東京都,台東区,東上野２丁目１３番１１号増田ビル４Ｆ,,13,106,1100015,,,,,,,2023-02-01,1,,,,,ジシンホケンチョウサジムショ,0
2090,9010701043783,新規,0,2023-02-01,2023-02-01,株式会社Ｐａｗｈａｔａｎ,,株式会社,東京都,品川区,東品川１丁目３番１５号ＴｈｅＰａｒｋＲｅｘＴＥＮＮＯＺｔｈｅＤＯＣＫ,,13,109,1400002,,,,,,,2023-02-01,1,,,,,ポウハタン,0
2105,9011001152283,新規,0,2023-02-01,2023-02-01,株式会社山川音楽事務所,,株式会社,東京都,目黒区,柿の木坂２丁目２番５－３０４号,,13,110,1520022,,,,,,,2023-02-01,1,,,,,ヤマカワオンガクジムショ,0
2106,9011001152317,新規,0,2023-02-01,2023-02-01,株式会社オフィス・ファン,,株式会社,東京都,渋谷区,本町３丁目７番６号パレ・ソレイユ西新宿８０１,,13,113,1510071,,,,,,,2023-02-01,1,,,,,オフィスファン,0
2107,9011001152333,新規,0,2023-02-01,2023-02-01,キンツギグローバルジャパン株式会社,,株式会社,東京都,渋谷区,松濤１丁目２８番２号,,13,113,1500046,,,,,,,2023-02-01,1,,,,,キンツギグローバルジャパン,0
2112,9011101101685,新規,0,2023-02-01,2023-02-01,株式会社パウパッド,,株式会社,東京都,新宿区,西新宿３丁目３番１３号西新宿水間ビル２Ｆ,,13,104,1600023,,,,,,,2023-02-01,1,,,,,パウパッド,0
2113,9011101101702,新規,0,2023-02-01,2023-02-01,株式会社Ｌｕｎａｓｅａ,,株式会社,東京都,新宿区,新宿３丁目３２番２号ＭＯＴＯビル６Ｆ,,13,104,1600022,,,,,,,2023-02-01,1,,,,,ルナシア,0
2115,9011301028423,新規,0,2023-02-01,2023-02-01,ｎｏｋＮｏｋ株式会社,,株式会社,東京都,杉並区,永福３丁目５４－４カワセ本店ビル２０７,,13,115,1680064,,,,,,,2023-02-01,1,,,,,ノックノック,0
2125,9013101009108,新規,0,2023-02-01,2023-02-01,株式会社長嶺建設興業,,株式会社,東京都,青梅市,藤橋２丁目１３０番地の４０,,13,205,1980022,,,,,,,2023-02-01,1,,,,,ナガミネケンセツコウギョウ,0
2127,9013301050233,新規,0,2023-02-01,2023-02-01,株式会社ＴＨｇｒｏｕｐ,,株式会社,東京都,豊島区,上池袋１丁目３７番２２号レジディアタワー上池袋タワー棟３２２,,13,116,1700012,,,,,,,2023-02-01,1,,,,,ティーエイチグループ,0
2132,9020001150073,新規,0,2023-02-01,2023-02-01,株式会社Ｋ‐ＳＴＥＥＬ,,株式会社,神奈川県,川崎市川崎区,四谷上町１４－４－２ルミナス四谷１０２,,14,131,2100828,,,,,,,2023-02-01,1,,,,,ケースティール,0
2136,9020003023228,新規,0,2023-02-01,2023-02-01,合同会社蔵商,,合同会社,神奈川県,横浜市中区,宮川町１丁目１－１シーガルパレス５０３,,14,104,2310065,,,,,,,2023-02-01,1,,,,,クラショウ,0
2139,9021001078049,新規,0,2023-02-01,2023-02-01,Ｄ‐９株式会社,,株式会社,神奈川県,大和市,上和田３１番地１Ｃ－２０１,,14,213,2420014,,,,,,,2023-02-01,1,,,,,ディーナイン,0
2145,9030003021065,新規,0,2023-02-01,2023-02-01,合同会社Ｇａｍｅ　Ｃｈａｎｇｅｒ,,合同会社,埼玉県,和光市,白子３丁目２０番３４号,,11,229,3510101,,,,,,,2023-02-01,1,,,,,ゲームチェンジャー,0
2146,9030003021081,新規,0,2023-02-01,2023-02-01,合同会社誠サポート,,合同会社,埼玉県,越谷市,新越谷１丁目３８９番地５,,11,222,3430857,,,,,,,2023-02-01,1,,,,,マコトサポート,0
2154,9040001126864,新規,0,2023-02-01,2023-02-01,詩遠株式会社,,株式会社,千葉県,柏市,花野井１６５２番地２８,,12,217,2770812,,,,,,,2023-02-01,1,,,,,シエン,0
2155,9040001126889,新規,0,2023-02-01,2023-02-01,Ｈａｎａ　Ｇｌｏｂａｌ　Ｊａｐａｎ株式会社,,株式会社,千葉県,野田市,みずき１丁目１６番地の２０,,12,208,2780027,,,,,,,2023-02-01,1,,,,,ハナグローバルジャパン,0
2160,9040003021808,新規,0,2023-02-01,2023-02-01,ＮＡＳＨＡ　ＭＯＴＯＲＳ合同会社,,合同会社,千葉県,八街市,山田台４９４－５,,12,230,2891124,,,,,,,2023-02-01,1,,,,,ナシャモーターズ,0
2161,9040003021816,新規,0,2023-02-01,2023-02-01,合同会社ＮＥＸ,,合同会社,千葉県,浦安市,入船３丁目２０番２０６号,,12,227,2790012,,,,,,,2023-02-01,1,,,,,ネックス,0
2163,9050001052291,新規,0,2023-02-01,2023-02-01,株式会社ＮＯ　ＬＩＭＩＴ,,株式会社,茨城県,神栖市,神栖１丁目８番７号グレイスメゾン－２０３,,08,232,3140143,,,,,,,2023-02-01,1,,,,,ノーリミット,0
2164,9060001035659,新規,0,2023-02-01,2023-02-01,株式会社ＹｏｖＳｔｕｄｉｏ,,株式会社,栃木県,小山市,中久喜１丁目７－４,,09,208,3230806,,,,,,,2023-02-01,1,,,,,ヨブスタジオ,0
2166,9080001025435,新規,0,2023-02-01,2023-02-01,株式会社静岡海洋文化ネットワーク,,株式会社,静岡県,静岡市清水区,松原町５番１７号,,22,103,4240825,,,,,,,2023-02-01,1,,,,,シズオカカイヨウブンカネットワーク,0
2173,9100001036099,新規,0,2023-02-01,2023-02-01,株式会社ＡＲＴＯＮ,,株式会社,長野県,上伊那郡箕輪町,大字中箕輪２６７３番地１,,20,383,3994601,,,,,,,2023-02-01,1,,,,,アートン,0
2174,9100001036108,新規,0,2023-02-01,2023-02-01,株式会社スリーエス,,株式会社,長野県,北佐久郡軽井沢町,大字長倉４６１２番地１４,,20,321,3890111,,,,,,,2023-02-01,1,,,,,スリーエス,0
2189,9120001251976,新規,0,2023-02-01,2023-02-01,信惠株式会社,,株式会社,大阪府,大阪市港区,築港４丁目５－１０サンハイツ港１０２号室,,27,107,5520021,,,,,,,2023-02-01,1,,,,,シンケイ,0
2190,9120001252099,新規,0,2023-02-01,2023-02-01,株式会社Ｋ・ＰＡＤＤＹ,,株式会社,大阪府,大阪市北区,浪花町３番２４号,,27,127,5300022,,,,,,,2023-02-01,1,,,,,ケイパディ,0
2191,9120001252149,新規,0,2023-02-01,2023-02-01,株式会社ＹＭＡ,,株式会社,大阪府,寝屋川市,香里北之町１番６号,,27,215,5720080,,,,,,,2023-02-01,1,,,,,ワイエムエイ,0
2192,9120001252157,新規,0,2023-02-01,2023-02-01,ジョージ・アンド・サンズ株式会社,,株式会社,大阪府,大阪市中央区,谷町２丁目７番４号谷町スリースリーズビル４Ｃ,,27,128,5400012,,,,,,,2023-02-01,1,,,,,ジョージアンドサンズ,0
2193,9120001252165,新規,0,2023-02-01,2023-02-01,株式会社ＣＬＯＶＩＣ　ＣＡＲＥＥＲ,,株式会社,大阪府,大阪市中央区,平野町２丁目３番７号アーバンエース北浜ビル１階,,27,128,5410046,,,,,,,2023-02-01,1,,,,,クロービックキャリア,0
2195,9120003023358,新規,0,2023-02-01,2023-02-01,合同会社クロエース,,合同会社,大阪府,大阪市西区,新町１丁目３４番２号クロスレジデンス大阪新町６０１,,27,106,5500013,,,,,,,2023-02-01,1,,,,,クロエース,0
2198,9120005023439,新規,0,2023-02-01,2023-02-01,無憂山法観寺,,その他の設立登記法人,大阪府,大阪市阿倍野区,阪南町３丁目４１番１７号,,27,119,5450021,,,,,,,2023-02-01,1,,,,,ムユウザンホウカンジ,0
2199,9120101066911,新規,0,2023-02-01,2023-02-01,株式会社ＧＨＡＴｓ,,株式会社,大阪府,堺市北区,新金岡町５丁４番４０２号シャーメゾンＧＲＡＮＤＬＥＡＰ１０２号,,27,146,5918021,,,,,,,2023-02-01,1,,,,,ガーツ,0
2203,9122001036647,新規,0,2023-02-01,2023-02-01,株式会社東大阪ワンチーム,,株式会社,大阪府,東大阪市,花園東町２丁目４番２６号,,27,227,5780931,,,,,,,2023-02-01,1,,,,,ヒガシオオサカワンチーム,0
2204,9122003002507,新規,0,2023-02-01,2023-02-01,合同会社ＨＵＧＳＰＯ,,合同会社,大阪府,東大阪市,若草町３番１０号,,27,227,5798056,,,,,,,2023-02-01,1,,,,,ハグスポ,0
2206,9130003008498,新規,0,2023-02-01,2023-02-01,合同会社Ｒ,,合同会社,京都府,京都市左京区,東丸太町７,,26,103,6068395,,,,,,,2023-02-01,1,,,,,アール,0
2212,9140001128900,新規,0,2023-02-01,2023-02-01,株式会社神鷲,,株式会社,兵庫県,神戸市灘区,薬師通２丁目２番１１－３０２号,,28,102,6570815,,,,,,,2023-02-01,1,,,,,カムワシ,0
2214,9140005007506,新規,0,2023-02-01,2023-02-01,伸屋工業協同組合,,その他の設立登記法人,兵庫県,たつの市,揖保町門前３６９番地の１,,28,229,6794153,,,,,,,2023-02-01,1,,,,,,0
2215,9150001026137,新規,0,2023-02-01,2023-02-01,株式会社ジョイアス・コネクション,,株式会社,奈良県,橿原市,縄手町２７４番地,,29,205,6340073,,,,,,,2023-02-01,1,,,,,ジョイアスコネクション,0
2222,9180001154752,新規,0,2023-02-01,2023-02-01,株式会社ミライアス,,株式会社,愛知県,名古屋市中村区,名駅４丁目２４番５号第２森ビル４０１,,23,105,4500002,,,,,,,2023-02-01,1,,,,,ミライアス,0
2227,9180003024771,新規,0,2023-02-01,2023-02-01,合同会社メディマティクス,,合同会社,愛知県,名古屋市中区,栄２丁目２番１号,,23,106,4600008,,,,,,,2023-02-01,1,,,,,メディマティクス,0
2240,9240001061026,新規,0,2023-02-01,2023-02-01,株式会社永成シーリング,,株式会社,広島県,広島市東区,中山中町６番５６号,,34,102,7320026,,,,,,,2023-02-01,1,,,,,エイセイシーリング,0
2250,9260003004187,新規,0,2023-02-01,2023-02-01,合同会社ａｇ,,合同会社,岡山県,岡山市北区,下石井２丁目１０－３０杜の街グレース岡山ザ・タワー８１６号,,33,101,7000907,,,,,,,2023-02-01,1,,,,,エージー,0
2255,9290001100365,新規,0,2023-02-01,2023-02-01,株式会社レモン,,株式会社,福岡県,古賀市,今の庄１丁目１４番３６号,,40,223,8113117,,,,,,,2023-02-01,1,,,,,レモン,0
2256,9290001100407,新規,0,2023-02-01,2023-02-01,株式会社ＲＦＧ,,株式会社,福岡県,糟屋郡新宮町,桜山手１丁目１番５号,,40,345,8110113,,,,,,,2023-02-01,1,,,,,アールエフジー,0
2258,9290003013482,新規,0,2023-02-01,2023-02-01,ＫＨＵＯＮＧ　ＬＹ合同会社,,合同会社,福岡県,福岡市東区,箱崎２丁目３６番２２号,,40,131,8120053,,,,,,,2023-02-01,1,,,,,クォンリ,0
2265,9330003009699,新規,0,2023-02-01,2023-02-01,合同会社ＭＳＩ,,合同会社,熊本県,熊本市中央区,中央街６番１９号,,43,101,8600802,,,,,,,2023-02-01,1,,,,,エムエスアイ,0
2270,9350001018155,新規,0,2023-02-01,2023-02-01,株式会社Ｇｏｏｆｅｅ,,株式会社,宮崎県,宮崎市,大字小松３２３７番地８,,45,201,8802112,,,,,,,2023-02-01,1,,,,,グーフィー,0
2272,9360003012675,新規,0,2023-02-01,2023-02-01,ＴＲＩＡＤ合同会社,,合同会社,沖縄県,那覇市,久茂地１丁目１番１号９階,,47,201,9000015,,,,,,,2023-02-01,1,,,,,トライアド,0
2278,9380001033440,新規,0,2023-02-01,2023-02-01,福島ケアサービス株式会社,,株式会社,福島県,須賀川市,台１６６番地アルフェックスビル２０１,,07,207,9620005,,,,,,,2023-02-01,1,,,,,フクシマケアサービス,0
2283,9410003003751,新規,0,2023-02-01,2023-02-01,サンアグリ合同会社,,合同会社,秋田県,大仙市,神宮寺字館ノ南１９番地,,05,212,0191701,,,,,,,2023-02-01,1,,,,,サンアグリ,0
2299,9700150114090,新規,0,2023-02-01,2023-02-01,ｘｉａｎｑｉｎｇｋｏｎｇｃｈｉｆｅｎｇｋｅｊｉｙｏｕｘｉａｎｇｏｎｇｓｉ,,外国会社等,,,,,,,,Ｓｈａｎｘｉｓｈｅｎｇ　ｘｉａｎｓｈｉ　ｃｈａｎｇａｎｑｕ　ｗｅｉｑｕｊｉｅｂａｎ　ｃｈａｎｇａｎｇｕａｎｇｃｈａｎｇ　ｔａｉｙａｎｇｘｉｎｃｈｅｎｇ　６１０８２ｈａｏ,,,,,,2023-02-01,1,,,,,シアンチンクウツフエンカギユウゲンコウシ,0
