sequenceNumber,corporateNumber,process,correct,updateDate,changeDate,name,nameImageId,kind,prefectureName,cityName,streetNumber,addressImageId,prefectureCode,cityCode,postCode,addressOutside,addressOutsideImageId,closeDate,closeCause,successorCorporateNumber,changeCause,assignmentDate,latest,enName,enPrefectureName,enCityName,enAddressOutside,furigana,hihyoji
31,1010705002529,登記記録の閉鎖等,0,2022-09-30,2022-09-27,浜田メガソーラー一般社団法人,,その他の設立登記法人,東京都,品川区,大井１丁目２３番４号ＯＶＡＬビル７階,,13,109,1400014,,,2022-09-27,清算の結了等,,,2016-11-09,1,,,,,ハマダメガソーラー,0
49,1011101026584,登記記録の閉鎖等,0,2022-09-30,2022-09-22,株式会社創トータルサービス,,株式会社,福岡県,福岡市中央区,舞鶴１丁目６番１－９０５号,,40,133,8100073,,,2022-09-22,清算の結了等,,,2015-10-05,1,,,,,ソウトータルサービス,0
61,1011802000549,登記記録の閉鎖等,0,2022-09-30,2022-09-26,有限会社石井,,有限会社,東京都,葛飾区,金町４丁目６番１８号,,13,122,1250042,,,2022-09-26,清算の結了等,,,2015-10-05,1,,,,,イシイ,0
83,1040002018003,登記記録の閉鎖等,0,2022-09-30,2022-09-20,有限会社イソカワ商事,,有限会社,千葉県,習志野市,津田沼２丁目１１番２０－２０２号,,12,216,2750016,,,2022-09-20,清算の結了等,,,2015-10-05,1,,,,,イソカワショウジ,0
98,1060001011766,登記記録の閉鎖等,0,2022-09-30,2022-09-22,株式会社高永商事,,株式会社,栃木県,那須郡那須町,大字高久甲字喰木原５３７５番地７,,09,407,3250001,,,2022-09-22,清算の結了等,,,2015-10-05,1,,,,,コウエイショウジ,0
110,1090003000640,登記記録の閉鎖等,0,2022-09-30,2022-09-15,在宅支援・結合同会社,,合同会社,山梨県,北杜市,小淵沢町上笹尾３３３１番地６４１,,19,209,4080041,,,2022-09-15,清算の結了等,,,2015-10-05,1,,,,,,0
131,1120101049394,登記記録の閉鎖等,0,2022-09-30,2022-09-22,株式会社桧家住宅大阪,,株式会社,大阪府,堺市北区,北花田町４丁１１０番地８,,27,146,5918002,,,2022-09-22,合併による解散等,9120101009473,令和４年９月２１日大阪府堺市北区北花田町四丁１１１番地１８株式会社アイ・リンク（9120101009473）に合併し解散,2015-10-05,1,,,,,ヒノキヤジュウタクオオサカ,0
151,1140001013408,登記記録の閉鎖等,0,2022-09-30,2022-09-22,株式会社ソーワ,,株式会社,兵庫県,神戸市兵庫区,湊町３丁目４番４号,,28,105,6520812,,,2022-09-22,清算の結了等,,,2019-04-24,1,,,,,ソーワ,0
154,1150005008279,登記記録の閉鎖等,0,2022-09-30,2022-09-27,特定非営利活動法人Ｒａｉｎｂｏｗ　Ｃｈｉｌｄｒｅｎ　Ｊａｐａｎ,,その他の設立登記法人,奈良県,生駒市,小平尾町１０７番地２４,,29,209,6300226,,,2022-09-27,清算の結了等,,,2015-10-05,1,,,,,レインボーチルドレンジャパン,0
163,1180002070642,登記記録の閉鎖等,0,2022-09-30,2022-09-26,有限会社ワークサポート,,有限会社,愛知県,春日井市,白山町４丁目８番地１０,,23,206,4870034,,,2022-09-26,清算の結了等,,,2015-10-05,1,,,,,ワークサポート,0
171,1180005015842,登記記録の閉鎖等,0,2022-09-30,2022-09-27,一般社団法人こととも,,その他の設立登記法人,愛知県,名古屋市中村区,名駅５丁目３３番２１号,,23,105,4500002,,,2022-09-27,清算の結了等,,,2015-10-05,1,,,,,コトトモ,0
172,1180302002989,登記記録の閉鎖等,0,2022-09-30,2022-09-16,有限会社都路商事,,有限会社,愛知県,岡崎市,中島中町４丁目３番地１７,,23,202,4440224,,,2022-09-16,清算の結了等,,,2015-10-05,1,,,,,ミヤコジショウジ,0
176,1200001023540,登記記録の閉鎖等,0,2022-09-30,2022-09-27,平和興産株式会社,,株式会社,岐阜県,中津川市,本町２丁目６番１２号,,21,206,5080041,,,2022-09-27,清算の結了等,,,2015-10-05,1,,,,,ヘイワコウサン,0
184,1250001012753,登記記録の閉鎖等,0,2022-09-30,2022-09-27,共榮汽船株式会社,,株式会社,山口県,熊毛郡上関町,大字長島３９３１番地,,35,341,7421402,,,2022-09-27,清算の結了等,,,2015-10-05,1,,,,,キョウエイキセン,0
189,1260005004977,登記記録の閉鎖等,0,2022-09-30,2022-09-26,笠岡本通商店街振興組合,,その他の設立登記法人,岡山県,笠岡市,中央町２２番地の６,,33,205,7140088,,,2022-09-26,清算の結了等,,,2015-10-05,1,,,,,カサオカホンドオリショウテンガイ,0
198,1290003002410,登記記録の閉鎖等,0,2022-09-30,2022-09-26,合資会社悠貴設計,,合資会社,福岡県,飯塚市,平塚１９７番地の４,,40,205,8200702,,,2022-09-26,清算の結了等,,,2015-10-05,1,,,,,ユウキセッケイ,0
219,1370105001392,登記記録の閉鎖等,0,2022-09-30,2022-09-20,白石中央通り商店街振興組合,,その他の設立登記法人,宮城県,白石市,字柳町１番地,,04,206,9890242,,,2022-09-20,清算の結了等,,,2015-10-05,1,,,,,シロイシチュウオウトオリ,0
220,1380001032887,登記記録の閉鎖等,0,2022-09-30,2022-09-21,エム・ケー企画株式会社,,株式会社,福島県,伊達市,保原町字鉄炮町１３番地の１８,,07,213,9600606,,,2022-09-21,清算の結了等,,,2022-06-15,1,,,,,エムケーキカク,0
223,1380005009741,登記記録の閉鎖等,0,2022-09-30,2022-09-26,下郷町商店振興協同組合,,その他の設立登記法人,福島県,南会津郡下郷町,大字豊成字下モ６３５６番地,,07,362,9695311,,,2022-09-26,清算の結了等,,,2015-10-05,1,,,,,シモゴウマチショウテンシンコウ,0
232,1430002012321,登記記録の閉鎖等,0,2022-09-30,2022-09-20,タカヤ工業有限会社,,有限会社,北海道,札幌市南区,澄川四条９丁目１８番１９号,,01,106,0050004,,,2022-09-20,清算の結了等,,,2015-10-05,1,,,,,タカヤコウギョウ,0
237,1460302000163,登記記録の閉鎖等,0,2022-09-30,2022-09-28,有限会社市川鉄工所,,有限会社,北海道,北見市,留辺蘂町旭中央２６番地３９,,01,208,0910023,,,2022-09-28,清算の結了等,,,2015-10-05,1,,,,,イチカワテッコウジョ,0
246,2010001135916,登記記録の閉鎖等,0,2022-09-30,2022-09-27,株式会社アイコールシステム,,株式会社,東京都,目黒区,碑文谷４丁目２４番１５号,,13,110,1520003,,,2022-09-27,合併による解散等,7010401095730,令和４年９月１日東京都港区新橋六丁目１３番１号第３長谷川ビル３階株式会社メディ・ウェブ（7010401095730）に合併し解散,2015-10-05,1,,,,,アイコールシステム,0
281,2010705002528,登記記録の閉鎖等,0,2022-09-30,2022-09-27,ＣＣ　Ｈａｍａｄａ　Ｓｏｌａｒ一般社団法人,,その他の設立登記法人,東京都,品川区,大井１丁目２３番４号ＯＶＡＬビル７階,,13,109,1400014,,,2022-09-27,清算の結了等,,,2016-11-09,1,,,,,シーシーハマダソーラー,0
301,2011103010346,登記記録の閉鎖等,0,2022-09-30,2022-09-29,合同会社Ａｂｉｌｉｔｙ,,合同会社,東京都,新宿区,北新宿１丁目２４番１１－５０８１号,,13,104,1690074,,,2022-09-29,清算の結了等,,,2021-01-25,1,,,,,アビリティー,0
339,2040002043603,登記記録の閉鎖等,0,2022-09-30,2022-09-21,第一東亜産業有限会社,,有限会社,千葉県,市川市,稲越１丁目２２番２６号,,12,203,2720831,,,2022-09-21,清算の結了等,,,2015-10-05,1,,,,,,0
352,2070001003472,登記記録の閉鎖等,0,2022-09-30,2022-09-26,株式会社リビングガイド群馬,,株式会社,群馬県,前橋市,上新田町６２６番地１,,10,201,3710821,,,2022-09-26,清算の結了等,,,2015-10-05,1,,,,,リビングガイドグンマ,0
362,2100002005126,登記記録の閉鎖等,0,2022-09-30,2022-09-27,有限会社宮寿し,,有限会社,長野県,長野市,篠ノ井二ツ柳２４４１番地３６,,20,201,3888012,,,2022-09-27,清算の結了等,,,2015-10-05,1,,,,,ミヤズシ,0
374,2120001083831,登記記録の閉鎖等,0,2022-09-30,2022-09-28,タカラ興産株式会社,,株式会社,大阪府,大阪市中央区,南新町２丁目４番１４号,,27,128,5400024,,,2022-09-28,清算の結了等,,,2015-10-05,1,,,,,タカラコウサン,0
388,2120101062917,登記記録の閉鎖等,0,2022-09-30,2022-09-28,株式会社ふらっと,,株式会社,大阪府,高石市,綾園１丁目６番１９号,,27,225,5920014,,,2022-09-28,清算の結了等,,,2021-01-14,1,,,,,フラット,0
401,2140001083631,登記記録の閉鎖等,0,2022-09-30,2022-09-22,フタツイシスペック株式会社,,株式会社,兵庫県,伊丹市,西台５丁目１番１６号モアビル４階,,28,207,6640858,,,2022-09-22,清算の結了等,,,2015-10-05,1,,,,,フタツイシスペック,0
406,2140002012218,登記記録の閉鎖等,0,2022-09-30,2022-09-26,マルカ青果有限会社,,有限会社,兵庫県,神戸市兵庫区,中之島１丁目１番１号,,28,105,6520844,,,2022-09-26,清算の結了等,,,2015-10-05,1,,,,,,0
412,2150002001046,登記記録の閉鎖等,0,2022-09-30,2022-09-27,有限会社大和屋本家,,有限会社,奈良県,奈良市,池田町２０３番地の５,,29,201,6308445,,,2022-09-27,清算の結了等,,,2015-10-05,1,,,,,,0
469,2340001016141,登記記録の閉鎖等,0,2022-09-30,2022-09-29,株式会社大匠ファミリーズ,,株式会社,鹿児島県,鹿児島市,上本町３番９号,,46,201,8920818,,,2022-09-29,清算の結了等,,,2015-10-05,1,,,,,ダイショウファミリーズ,0
486,2420002017493,登記記録の閉鎖等,0,2022-09-30,2022-09-26,有限会社リッツ・ワールド,,有限会社,青森県,上北郡おいらせ町,洗平６番地の３,,02,412,0392172,,,2022-09-26,清算の結了等,,,2015-10-05,1,,,,,,0
497,2450001000489,登記記録の閉鎖等,0,2022-09-30,2022-09-28,株式会社一水,,株式会社,北海道,旭川市,七条通１５丁目右８号,,01,204,0700037,,,2022-09-28,清算の結了等,,,2015-10-05,1,,,,,イッスイ,0
498,2480002006103,登記記録の閉鎖等,0,2022-09-30,2022-09-28,株式会社ウイズ,,株式会社,徳島県,徳島市,佐古五番町３番１４号,,36,201,7700025,,,2022-09-28,清算の結了等,,,2015-10-05,1,,,,,ウイズ,0
499,2480002010344,登記記録の閉鎖等,0,2022-09-30,2022-09-28,有限会社大石建設,,有限会社,徳島県,板野郡藍住町,乙瀬字中田１０３番地１３,,36,403,7711240,,,2022-09-28,清算の結了等,,,2015-10-05,1,,,,,オオイシケンセツ,0
500,2480002012183,登記記録の閉鎖等,0,2022-09-30,2022-09-28,有限会社ラック,,有限会社,徳島県,板野郡北島町,新喜来字砂原３５番地１６,,36,402,7710207,,,2022-09-28,清算の結了等,,,2015-10-05,1,,,,,ラック,0
504,3010001125701,登記記録の閉鎖等,0,2022-09-30,2022-09-16,株式会社ＡＩＲＩＳ,,株式会社,東京都,杉並区,永福４丁目１９番３２－３０９号,,13,115,1680064,,,2022-09-16,清算の結了等,,,2015-10-05,1,,,,,アイリス,0
505,3010001179730,登記記録の閉鎖等,0,2022-09-30,2022-09-26,事業創出推進機構株式会社,,株式会社,東京都,中央区,入船２丁目１０－７八弘ビル５階,,13,102,1040042,,,2022-09-26,合併による解散等,4010001221862,令和４年９月２５日東京都千代田区飯田橋四丁目４番９号ダイアパレス飯田橋４１０号室ＤａｎｄＹ　ｍｅｄｉｃａｌ株式会社（4010001221862）に合併し解散,2016-11-21,1,,,,,ジギョウソウシュツスイシンキコウ,0
551,3011501010797,登記記録の閉鎖等,0,2022-09-30,2022-09-27,株式会社アイネットサービス,,株式会社,東京都,荒川区,西日暮里２丁目１７番１０号アクセスキクヤビル４０１,,13,118,1160013,,,2022-09-27,清算の結了等,,,2015-10-05,1,,,,,アイネットサービス,0
559,3012702001107,登記記録の閉鎖等,0,2022-09-30,2022-09-26,有限会社竹内園芸,,有限会社,東京都,小平市,小川町１丁目３８６番地,,13,211,1870032,,,2022-09-26,清算の結了等,,,2015-10-05,1,,,,,,0
564,3020001009911,登記記録の閉鎖等,0,2022-09-30,2022-09-22,興伸建設株式会社,,株式会社,神奈川県,横浜市保土ケ谷区,今井町３９番地の１,,14,106,2400035,,,2022-09-22,清算の結了等,,,2015-10-05,1,,,,,コウシンケンセツ,0
567,3020001094581,登記記録の閉鎖等,0,2022-09-30,2022-09-22,パレット株式会社,,株式会社,神奈川県,横浜市神奈川区,三ツ沢上町７番８号ハイツジュネス２０３,,14,102,2210856,,,2022-09-22,清算の結了等,,,2015-10-05,1,,,,,パレット,0
595,3070001005187,登記記録の閉鎖等,0,2022-09-30,2022-09-26,株式会社小熊工業,,株式会社,群馬県,前橋市,広瀬町１丁目９番地９,,10,201,3710812,,,2022-09-26,清算の結了等,,,2015-10-05,1,,,,,,0
641,3120903003010,登記記録の閉鎖等,0,2022-09-30,2022-09-26,合同会社アドバンスデザイン,,合同会社,大阪府,茨木市,彩都あさぎ６丁目１３番１７号,,27,211,5670085,,,2022-09-26,清算の結了等,,,2019-10-28,1,,,,,アドバンスデザイン,0
643,3130001014058,登記記録の閉鎖等,0,2022-09-30,2022-09-22,株式会社大弥電機工業,,株式会社,京都府,京都市山科区,勧修寺御所内町４４番地８,,26,110,6078218,,,2022-09-22,清算の結了等,,,2015-10-05,1,,,,,オオヤデンキコウギョウ,0
669,3180002055261,登記記録の閉鎖等,0,2022-09-30,2022-09-26,有限会社ＳＵＩＪＩＮ　ＷＯＲＫＳ,,有限会社,愛知県,名古屋市南区,赤坪町１５４番地の１,,23,112,4570024,,,2022-09-26,清算の結了等,,,2015-10-05,1,,,,,スイジンワークス,0
671,3180002091752,登記記録の閉鎖等,0,2022-09-30,2022-09-27,有限会社プロショップ設備巧業,,有限会社,愛知県,あま市,甚目寺沖田６５番地の２,,23,237,4901111,,,2022-09-27,清算の結了等,,,2015-10-05,1,,,,,プロショップセツビコウギョウ,0
683,3230005008087,登記記録の閉鎖等,0,2022-09-30,2022-09-27,特定非営利活動法人アピア買い物応援団,,その他の設立登記法人,富山県,富山市,稲荷元町２丁目１１番１号,,16,201,9300010,,,2022-09-27,清算の結了等,,,2015-10-05,1,,,,,アピアカイモノオウエンダン,0
687,3240002046064,登記記録の閉鎖等,0,2022-09-30,2022-09-28,宮脇建設株式会社,,株式会社,広島県,神石郡神石高原町,下豊松８６５番地,,34,545,7201704,,,2022-09-28,清算の結了等,,,2015-10-05,1,,,,,ミヤワキケンセツ,0
699,3280002002740,登記記録の閉鎖等,0,2022-09-30,2022-09-29,有限会社徳島資材,,有限会社,島根県,松江市,南平台１８番１９号,,32,201,6900854,,,2022-09-29,清算の結了等,,,2015-10-05,1,,,,,トクシマシザイ,0
701,3290001007640,登記記録の閉鎖等,0,2022-09-30,2022-09-26,株式会社栄堂商事,,株式会社,福岡県,福岡市中央区,平和３丁目１９番１３号,,40,133,8100016,,,2022-09-26,清算の結了等,,,2015-10-05,1,,,,,サカエドウショウジ,0
706,3290001090827,登記記録の閉鎖等,0,2022-09-30,2022-09-09,株式会社シンパシー,,株式会社,福岡県,福岡市博多区,博多駅前３丁目９番５号チサンマンション第一博多７０３号,,40,132,8120011,,,2022-09-09,清算の結了等,,,2020-11-10,1,,,,,シンパシー,0
722,3310002020202,登記記録の閉鎖等,0,2022-09-30,2022-09-28,有限会社兵頭長太郎商店,,有限会社,長崎県,対馬市,峰町佐賀５３１番地,,42,209,8171412,,,2022-09-28,清算の結了等,,,2015-10-05,1,,,,,ヒョウドウチョウタロウショウテン,0
753,3470002017802,登記記録の閉鎖等,0,2022-09-30,2022-09-28,有限会社網野工務店,,有限会社,香川県,さぬき市,志度４５５９番地１１,,37,206,7692101,,,2022-09-28,清算の結了等,,,2015-10-05,1,,,,,アミノコウムテン,0
798,4010901044330,登記記録の閉鎖等,0,2022-09-30,2022-09-26,株式会社Ｆｕｌｆｉｌｌｍｅｎｔ,,株式会社,東京都,世田谷区,奥沢４丁目１５番１５号ブランシェ自由が丘３０３,,13,112,1580083,,,2022-09-26,清算の結了等,,,2019-06-10,1,,,,,フルフィルメント,0
804,4011001130005,登記記録の閉鎖等,0,2022-09-30,2022-09-16,株式会社Ｄｅｌｉｇｈｔ　Ｂｕｉｌｄｅｒ,,株式会社,東京都,渋谷区,円山町２８番１号渋谷道玄坂スカイビル１１Ｆ,,13,113,1500044,,,2022-09-16,清算の結了等,,,2019-09-18,1,,,,,デライトビルダー,0
832,4012801002599,登記記録の閉鎖等,0,2022-09-30,2022-09-26,株式会社三ツ矢,,株式会社,東京都,昭島市,玉川町１丁目７番地２－１１３,,13,207,1960034,,,2022-09-26,清算の結了等,,,2015-10-05,1,,,,,ミツヤ,0
833,4012801016624,登記記録の閉鎖等,0,2022-09-30,2022-09-27,株式会社大野企画,,株式会社,東京都,国分寺市,西町１丁目２３番地２６,,13,214,1850035,,,2022-09-27,清算の結了等,,,2015-10-05,1,,,,,オオノキカク,0
848,4020002077287,登記記録の閉鎖等,0,2022-09-30,2022-09-22,有限会社手造り農場,,有限会社,神奈川県,横浜市神奈川区,斎藤分町２番３０号,,14,102,2210811,,,2022-09-22,清算の結了等,,,2015-10-05,1,,,,,テヅクリノウジョウ,0
867,4040001092194,登記記録の閉鎖等,0,2022-09-30,2022-09-20,ゼノー・テック幕張株式会社,,株式会社,千葉県,習志野市,茜浜１丁目１３番２号,,12,216,2750024,,,2022-09-20,清算の結了等,,,2015-10-05,1,,,,,ゼノーテックマクハリ,0
872,4040002047131,登記記録の閉鎖等,0,2022-09-30,2022-09-20,有限会社田中家,,有限会社,千葉県,松戸市,松戸１８３４番地の１４,,12,207,2710092,,,2022-09-20,清算の結了等,,,2015-10-05,1,,,,,タナカヤ,0
876,4050001009370,登記記録の閉鎖等,0,2022-09-30,2022-09-16,株式会社國長金属工業所,,株式会社,茨城県,土浦市,並木３丁目９番２８号,,08,203,3000061,,,2022-09-16,清算の結了等,,,2015-10-05,1,,,,,クニオサキンゾクコウギョウショ,0
894,4110002025385,登記記録の閉鎖等,0,2022-09-30,2022-09-28,有限会社イグチ工業,,有限会社,新潟県,十日町市,伊達乙４４番地,,15,210,9498522,,,2022-09-28,清算の結了等,,,2015-10-05,1,,,,,イグチコウギョウ,0
913,4120101060737,登記記録の閉鎖等,0,2022-09-30,2022-09-22,株式会社Ｍａｃｈｉｄａインベスティング,,株式会社,大阪府,堺市北区,北花田町４丁１１０番地８,,27,146,5918002,,,2022-09-22,合併による解散等,5120101008066,令和４年９月２１日大阪府堺市北区北花田町四丁１１０番地８株式会社町田工務店（5120101008066）に合併し解散,2019-11-05,1,,,,,マチダインベスティング,0
925,4140001105400,登記記録の閉鎖等,0,2022-09-30,2022-09-26,株式会社マーケティング・クリエイト,,株式会社,兵庫県,神戸市兵庫区,大開通３丁目１番４－４０５号,,28,105,6520803,,,2022-09-26,清算の結了等,,,2017-03-14,1,,,,,マーケティングクリエイト,0
940,4180302022142,登記記録の閉鎖等,0,2022-09-30,2022-09-16,有限会社サン・サン,,有限会社,愛知県,豊田市,保見ケ丘３丁目２１２番地,,23,211,4700353,,,2022-09-16,清算の結了等,,,2015-10-05,1,,,,,サンサン,0
958,4240002035000,登記記録の閉鎖等,0,2022-09-30,2022-09-28,有限会社クレデン,,有限会社,広島県,呉市,川尻町東１丁目２３番２０号,,34,202,7372607,,,2022-09-28,清算の結了等,,,2015-10-05,1,,,,,クレデン,0
978,4310002012058,登記記録の閉鎖等,0,2022-09-30,2022-09-27,有限会社吉田組,00096023,有限会社,長崎県,佐世保市,野中町４７８番地,,42,202,8570142,,,2022-09-27,清算の結了等,,,2015-10-05,1,,,,,ヨシダグミ,0
999,4420001001273,登記記録の閉鎖等,0,2022-09-30,2022-09-28,株式会社大萬大澤洋装店,,株式会社,青森県,青森市,堤町１丁目１２番４号,,02,201,0300812,,,2022-09-28,清算の結了等,,,2015-10-05,1,,,,,ダイマンオオサワヨウソウテン,0
1021,5010102006781,登記記録の閉鎖等,0,2022-09-30,2022-09-27,有限会社ミヤヨシ,,有限会社,東京都,八王子市,元八王子町２丁目１９８８番地,,13,201,1930826,,,2022-09-27,清算の結了等,,,2015-10-05,1,,,,,ミヤヨシ,0
1052,5011301006812,登記記録の閉鎖等,0,2022-09-30,2022-09-26,株式会社三重学生会館,,株式会社,東京都,杉並区,上荻３丁目１７番４号,,13,115,1670043,,,2022-09-26,清算の結了等,,,2015-10-05,1,,,,,ミエガクセイカイカン,0
1072,5013301044552,登記記録の閉鎖等,0,2022-09-30,2022-09-28,株式会社千野時計店,,株式会社,東京都,豊島区,池袋２丁目１番１号,,13,116,1710014,,,2022-09-28,清算の結了等,,,2019-10-07,1,,,,,チノトケイテン,0
1076,5020001043603,登記記録の閉鎖等,0,2022-09-30,2022-09-22,株式会社港南台リタイアメントヴィレッジプロジェクト,,株式会社,神奈川県,横浜市栄区,上郷町７２５番地,,14,115,2470013,,,2022-09-22,清算の結了等,,,2015-10-05,1,,,,,コウナンダイリタイアメントヴィレッジプロジェクト,0
1093,5021002035036,登記記録の閉鎖等,0,2022-09-30,2022-09-28,有限会社食堂とんぼ,,有限会社,神奈川県,伊勢原市,伊勢原１丁目３番５号,,14,214,2591131,,,2022-09-28,清算の結了等,,,2015-10-05,1,,,,,ショクドウトンボ,0
1095,5030001039674,登記記録の閉鎖等,0,2022-09-30,2022-09-16,株式会社橋本商会,,株式会社,埼玉県,草加市,金明町４８５番地１,,11,221,3400052,,,2022-09-16,清算の結了等,,,2015-10-05,1,,,,,ハシモトショウカイ,0
1111,5040003015391,登記記録の閉鎖等,0,2022-09-30,2022-09-22,合同会社スカイフーズ,,合同会社,千葉県,千葉市花見川区,畑町１３２２番地２,,12,102,2620018,,,2022-09-22,清算の結了等,,,2020-05-21,1,,,,,スカイフーズ,0
1137,5100001003219,登記記録の閉鎖等,0,2022-09-30,2022-09-28,株式会社松島塾,,株式会社,長野県,長野市,大字長野横町９５番地,,20,201,3800856,,,2022-09-28,清算の結了等,,,2015-10-05,1,,,,,マツシマジュク,0
1143,5110002024287,登記記録の閉鎖等,0,2022-09-30,2022-09-28,有限会社ディーエムアンドエム,,有限会社,新潟県,上越市,北城町１丁目２番３０号,,15,222,9430824,,,2022-09-28,清算の結了等,,,2015-10-05,1,,,,,ディーエムアンドエム,0
1185,5140001125835,登記記録の閉鎖等,0,2022-09-30,2022-09-22,株式会社ＹＯＵスマイル,,株式会社,兵庫県,神戸市西区,天が岡６７９番地の３４,,28,111,6512141,,,2022-09-22,清算の結了等,,,2022-05-02,1,,,,,ユースマイル,0
1188,5150005004092,登記記録の閉鎖等,0,2022-09-30,2022-09-29,特定非営利活動法人森と人のネットワーク・奈良,,その他の設立登記法人,奈良県,宇陀市,大宇陀下出口２２４７番地の１,,29,212,6332177,,,2022-09-29,清算の結了等,,,2015-10-05,1,,,,,モリトヒトノネットワークナラ,0
1195,5180001058552,登記記録の閉鎖等,0,2022-09-30,2022-09-26,株式会社ＫＡＮＧ　ＦＵ,,株式会社,愛知県,名古屋市西区,城西３丁目２１番６号,,23,104,4510031,,,2022-09-26,清算の結了等,,,2015-10-05,1,,,,,カンフ,0
1231,5290001043634,登記記録の閉鎖等,0,2022-09-30,2022-09-22,株式会社マルミツテクノ,,株式会社,福岡県,太宰府市,都府楼南２丁目６番２０号,,40,221,8180105,,,2022-09-22,清算の結了等,,,2015-10-05,1,,,,,マルミツテクノ,0
1239,5290802011574,登記記録の閉鎖等,0,2022-09-30,2022-09-29,有限会社松井建設,,有限会社,福岡県,北九州市小倉北区,大手町１３番１３－７０８号,,40,106,8030814,,,2022-09-29,清算の結了等,,,2015-10-05,1,,,,,マツイケンセツ,0
1242,5330001002882,登記記録の閉鎖等,0,2022-09-30,2022-09-27,高森興産株式会社,,株式会社,熊本県,熊本市西区,島崎７丁目１１番２０号,,43,103,8600073,,,2022-09-27,清算の結了等,,,2015-10-05,1,,,,,タカモリコウサン,0
1253,5370402002172,登記記録の閉鎖等,0,2022-09-30,2022-09-15,有限会社南方製畳,,有限会社,宮城県,登米市,南方町後屋敷待井７１番地の１,,04,212,9870402,,,2022-09-15,清算の結了等,,,2015-10-05,1,,,,,ミナミカタセイジョウ,0
1261,5410002003913,登記記録の閉鎖等,0,2022-09-30,2022-09-27,有限会社和興工業所,,有限会社,秋田県,秋田市,飯島川端１丁目３番１０号,,05,201,0110912,,,2022-09-27,清算の結了等,,,2015-10-05,1,,,,,ワコウコウギョウショ,0
1275,5490001006653,登記記録の閉鎖等,0,2022-09-30,2022-09-26,松木建設株式会社,,株式会社,高知県,香南市,野市町東野１２３１番地,,39,211,7815213,,,2022-09-26,清算の結了等,,,2015-10-05,1,,,,,マツギケンセツ,0
1290,6010101002038,登記記録の閉鎖等,0,2022-09-30,2022-09-26,株式会社桑都電材,,株式会社,東京都,八王子市,中野上町４丁目２５番２１号,,13,201,1920041,,,2022-09-26,清算の結了等,,,2015-10-05,1,,,,,ソウトデンザイ,0
1292,6010401030903,登記記録の閉鎖等,0,2022-09-30,2022-09-12,株式会社八芳園グループ総本社,,株式会社,東京都,港区,白金台１丁目３番１９号,,13,103,1080071,,,2022-09-12,清算の結了等,,,2015-10-05,1,,,,,ハッポウエングループソウホンシャ,0
1295,6010403016314,登記記録の閉鎖等,0,2022-09-30,2022-09-12,東西開発合同会社,,合同会社,東京都,港区,新橋５丁目２３番１０号片山ビル８階,,13,103,1050004,,,2022-09-12,清算の結了等,,,2017-03-15,1,,,,,トウザイカイハツ,0
1299,6010502001828,登記記録の閉鎖等,0,2022-09-30,2022-09-29,有限会社ゑり豊,,有限会社,東京都,台東区,上野４丁目５番６号,,13,106,1100005,,,2022-09-29,清算の結了等,,,2015-10-05,1,,,,,エリトヨ,0
1304,6010802002039,登記記録の閉鎖等,0,2022-09-30,2022-09-22,有限会社栄楠,,有限会社,千葉県,船橋市,浜町２丁目３番３７－８０６号,,12,204,2730012,,,2022-09-22,清算の結了等,,,2015-10-05,1,,,,,エイナン,0
1310,6011001006038,登記記録の閉鎖等,0,2022-09-30,2022-09-09,株式会社キシダ,,株式会社,東京都,渋谷区,神宮前６丁目３番７号,,13,113,1500001,,,2022-09-09,合併による解散等,2011001023540,令和４年９月１日東京都渋谷区神宮前六丁目３番７号株式会社ヤマオカ（2011001023540）に合併し解散,2015-10-05,1,,,,,キシダ,0
1326,6011605001731,登記記録の閉鎖等,0,2022-09-30,2022-09-27,一般財団法人日本電子治療器学会,,その他の設立登記法人,東京都,文京区,白山１丁目２３番１５号,,13,105,1130001,,,2022-09-27,清算の結了等,,,2015-10-05,1,,,,,ニホンデンシチリョウキガッカイ,0
1339,6012705001695,登記記録の閉鎖等,0,2022-09-30,2022-09-28,一般財団法人山根奨学基金,,その他の設立登記法人,東京都,小平市,津田町２丁目１番１号津田塾大学内,,13,211,1870025,,,2022-09-28,清算の結了等,,,2015-10-05,1,,,,,ヤマネショウガクキキン,0
1362,6030001031135,登記記録の閉鎖等,0,2022-09-30,2022-09-16,株式会社電創,,株式会社,埼玉県,久喜市,河原井町１９番地,,11,232,3460028,,,2022-09-16,清算の結了等,,,2015-10-05,1,,,,,デンソウ,0
1363,6030001033635,登記記録の閉鎖等,0,2022-09-30,2022-09-16,株式会社むさしの村わくわくファーム,,株式会社,埼玉県,羽生市,北３丁目４番３４号,,11,216,3480057,,,2022-09-16,清算の結了等,,,2015-10-05,1,,,,,ムサシノムラワクワクファーム,0
1381,6050002020556,登記記録の閉鎖等,0,2022-09-30,2022-09-22,有限会社金久保板金,,有限会社,茨城県,猿島郡境町,大字志鳥１０７３番地,,08,546,3060401,,,2022-09-22,清算の結了等,,,2015-10-05,1,,,,,カナクボバンキン,0
1409,6120001100731,登記記録の閉鎖等,0,2022-09-30,2022-09-26,株式会社タック・インターナショナル名古屋,,株式会社,兵庫県,三田市,あかしあ台５丁目３番地９,,28,219,6691323,,,2022-09-26,清算の結了等,,,2015-10-05,1,,,,,タックインターナショナルナゴヤ,0
1410,6120001118286,登記記録の閉鎖等,0,2022-09-30,2022-09-29,株式会社ＲＪ,,株式会社,大阪府,大阪市中央区,島之内１丁目１３番２８号ユラヌス２１ビル１階,,27,128,5420082,,,2022-09-29,清算の結了等,,,2015-10-05,1,,,,,アールジェイ,0
1424,6120005000390,登記記録の閉鎖等,0,2022-09-30,2022-09-15,天理教中惠分教会,,その他の設立登記法人,大阪府,大阪市西成区,山王２丁目３番２１号,,27,122,5570001,,,2022-09-15,合併による解散等,4122005002063,令和４年９月８日大阪府八尾市恩智中町二丁目９４番地天理教中河大教会（4122005002063）に合併し解散,2015-10-05,1,,,,,,0
1425,6120101004246,登記記録の閉鎖等,0,2022-09-30,2022-09-28,株式会社大和土木工業,,株式会社,大阪府,堺市西区,鳳北町７丁６３,,27,144,5938328,,,2022-09-28,清算の結了等,,,2015-10-05,1,,,,,ダイワドボクコウギョウ,0
1433,6130001051354,登記記録の閉鎖等,0,2022-09-30,2022-09-21,エコナ技研株式会社,,株式会社,京都府,京都市山科区,椥辻西浦町１番地６ウィズフィール京都山科４１１号,,26,110,6078169,,,2022-09-21,清算の結了等,,,2015-10-05,1,,,,,エコナギケン,0
1453,6160001010191,登記記録の閉鎖等,0,2022-09-30,2022-09-14,富士フレックス株式会社,,株式会社,滋賀県,東近江市,大森町字豊道１８０３番地,,25,213,5270063,,,2022-09-14,合併による解散等,8120001096869,令和４年９月１０日大阪市北区天満橋一丁目８番３０号カナフレックスコーポレーション株式会社（8120001096869）に合併し解散,2015-10-05,1,,,,,フジフレックス,0
1461,6180002057866,登記記録の閉鎖等,0,2022-09-30,2022-09-27,有限会社ケーワイジェイ,,有限会社,愛知県,名古屋市天白区,高島２丁目１８０１ライオンズマンション島田高島公園２０５号,,23,116,4680022,,,2022-09-27,清算の結了等,,,2015-10-05,1,,,,,ケーワイジェイ,0
1468,6200003005615,登記記録の閉鎖等,0,2022-09-30,2022-09-28,合同会社三河,,合同会社,岐阜県,可児市,土田字大池５１１５番地２,,21,214,5090206,,,2022-09-28,清算の結了等,,,2022-07-13,1,,,,,ミカワ,0
1483,6260002008258,登記記録の閉鎖等,0,2022-09-30,2022-09-28,有限会社一柳運輸,,有限会社,岡山県,岡山市南区,東畦７２番地の７,,33,104,7010211,,,2022-09-28,清算の結了等,,,2015-10-05,1,,,,,イチヤナギウンユ,0
1485,6270003000155,登記記録の閉鎖等,0,2022-09-30,2022-09-26,太陽テクノス合同会社,,合同会社,鳥取県,鳥取市,用瀬町鷹狩３番地５,,31,201,6891213,,,2022-09-26,合併による解散等,2270002004706,令和４年９月２５日鳥取県八頭郡智頭町大字山根３７２番地太陽テクノス株式会社（2270002004706）に合併し解散,2015-10-05,1,,,,,タイヨウテクノス,0
1492,6290001089305,登記記録の閉鎖等,0,2022-09-30,2022-09-22,春和株式会社,,株式会社,福岡県,福岡市博多区,博多駅前２丁目１７番１４－３０６号,,40,132,8120011,,,2022-09-22,清算の結了等,,,2020-06-24,1,,,,,シュンワ,0
1517,6370401000110,登記記録の閉鎖等,0,2022-09-30,2022-09-22,株式会社ヤマサ建設,,株式会社,宮城県,登米市,豊里町長根前４０番地の１,,04,212,9870500,,,2022-09-22,清算の結了等,,,2015-10-05,1,,,,,ヤマサケンセツ,0
1531,6430002037405,登記記録の閉鎖等,0,2022-09-30,2022-09-20,有限会社春光トータルサービス,,有限会社,北海道,札幌市北区,新琴似七条７丁目７番２６号,,01,102,0010907,,,2022-09-20,清算の結了等,,,2015-10-05,1,,,,,シュンコウ,0
1559,7010005013386,登記記録の閉鎖等,0,2022-09-30,2022-09-28,特定非営利活動法人日本ＰＮＦ協会,,その他の設立登記法人,東京都,千代田区,神田駿河台３丁目５番地サンジュ共和十番館５Ｆ,,13,101,1010062,,,2022-09-28,清算の結了等,,,2015-10-05,1,,,,,ニホンピーエヌエフキョウカイ,0
1571,7010701001108,登記記録の閉鎖等,0,2022-09-30,2022-09-27,株式会社伊セ六,,株式会社,東京都,品川区,上大崎３丁目１番１号目黒セントラルスクエア１５階,,13,109,1410021,,,2022-09-27,合併による解散等,6010703006329,令和４年９月２７日東京都品川区上大崎三丁目１番１号目黒セントラルスクエア１５階伊セ六ホールディングス合同会社（6010703006329）に合併し解散,2015-10-05,1,,,,,イセロク,0
1586,7011101022990,登記記録の閉鎖等,0,2022-09-30,2022-09-29,株式会社六月書房,,株式会社,東京都,新宿区,高田馬場１丁目７番１号,,13,104,1690075,,,2022-09-29,清算の結了等,,,2015-10-05,1,,,,,ロクガツショボウ,0
1621,7011805001051,登記記録の閉鎖等,0,2022-09-30,2022-09-26,伊興商店街振興組合,,その他の設立登記法人,東京都,足立区,西竹の塚１丁目１７番２１号,,13,121,1210822,,,2022-09-26,清算の結了等,,,2015-10-05,1,,,,,イコウ,0
1623,7012302005173,登記記録の閉鎖等,0,2022-09-30,2022-09-22,有限会社リカーズだるまや,,有限会社,東京都,町田市,高ヶ坂３丁目１番１号,,13,209,1940014,,,2022-09-22,清算の結了等,,,2015-10-05,1,,,,,リカーズダルマヤ,0
1629,7013302009073,登記記録の閉鎖等,0,2022-09-30,2022-09-28,有限会社保田美装,,有限会社,東京都,豊島区,長崎５丁目１９番８号,,13,116,1710051,,,2022-09-28,清算の結了等,,,2015-10-05,1,,,,,ヤスダビソウ,0
1631,7020001091451,登記記録の閉鎖等,0,2022-09-30,2022-09-26,株式会社Ｊ・ＳＴＹＬＥ,,株式会社,神奈川県,横浜市都筑区,茅ケ崎南４丁目１２番１５－３０２号,,14,118,2240037,,,2022-09-26,清算の結了等,,,2015-10-05,1,,,,,ジェイスタイル,0
1655,7030002033096,登記記録の閉鎖等,0,2022-09-30,2022-09-15,有限会社アベ動物病院,,有限会社,埼玉県,狭山市,大字水野４０５番地の２２,,11,215,3501317,,,2022-09-15,清算の結了等,,,2015-10-05,1,,,,,アベドウブツビョウイン,0
1665,7040001114037,登記記録の閉鎖等,0,2022-09-30,2022-09-26,株式会社ＪＡＰＡＮ　ＢＵＬＬＳ,,株式会社,千葉県,八千代市,勝田台２丁目６番地５石橋ビル２０２,,12,221,2760023,,,2022-09-26,清算の結了等,,,2020-06-18,1,,,,,ジャパンブルズ,0
1666,7040002031710,登記記録の閉鎖等,0,2022-09-30,2022-09-20,有限会社シティー・アド・ニジュウイチ,,有限会社,千葉県,船橋市,丸山５丁目２７番８号,,12,204,2730048,,,2022-09-20,清算の結了等,,,2015-10-05,1,,,,,シティーアドニジュウイチ,0
1667,7040002085970,登記記録の閉鎖等,0,2022-09-30,2022-09-20,有限会社マルヤス製作所,,有限会社,千葉県,銚子市,忍町３９３番地,,12,202,2880867,,,2022-09-20,清算の結了等,,,2015-10-05,1,,,,,マルヤスセイサクショ,0
1671,7050001014707,登記記録の閉鎖等,0,2022-09-30,2022-09-22,株式会社アンシャンテ,,株式会社,茨城県,下妻市,半谷２１２番地４,,08,210,3040005,,,2022-09-22,清算の結了等,,,2015-10-05,1,,,,,アンシャンテ,0
1672,7050001023633,登記記録の閉鎖等,0,2022-09-30,2022-09-22,株式会社松尾,,株式会社,茨城県,日立市,大みか町１丁目３４番１０号,,08,202,3191221,,,2022-09-22,清算の結了等,,,2015-10-05,1,,,,,マツオ,0
1689,7080105003280,登記記録の閉鎖等,0,2022-09-30,2022-09-29,特定非営利活動法人富士市子育てサークルネットワークふじママネット,,その他の設立登記法人,静岡県,富士市,宮島８５６番地の１５,,22,210,4160945,,,2022-09-29,清算の結了等,,,2015-10-05,1,,,,,フジシコソダテサークルネットワークフジママネット,0
1697,7100002020401,登記記録の閉鎖等,0,2022-09-30,2022-09-27,有限会社スズキ装飾,,有限会社,長野県,松本市,清水２丁目６番３５号,,20,202,3900805,,,2022-09-27,清算の結了等,,,2015-10-05,1,,,,,スズキソウショク,0
1718,7120102016529,登記記録の閉鎖等,0,2022-09-30,2022-09-22,有限会社タカヨシ,,有限会社,沖縄県,那覇市,宇栄原１丁目６番１６号,,47,201,9010153,,,2022-09-22,清算の結了等,,,2015-10-05,1,,,,,タカヨシ,0
1736,7140002037747,登記記録の閉鎖等,0,2022-09-30,2022-09-22,有限会社東播商会,,有限会社,兵庫県,加古郡稲美町,野寺８５３番地の１,,28,381,6751104,,,2022-09-22,清算の結了等,,,2015-10-05,1,,,,,トウバンショウカイ,0
1741,7180001140523,登記記録の閉鎖等,0,2022-09-30,2022-09-22,株式会社９０２０,,株式会社,愛知県,名古屋市中川区,細米町１丁目７番地,,23,110,4540847,,,2022-09-22,清算の結了等,,,2020-03-23,1,,,,,キュウマルニイマル,0
1744,7180002000024,登記記録の閉鎖等,0,2022-09-30,2022-09-26,有限会社愛建ホーム,,有限会社,愛知県,名古屋市守山区,今尻町１２０８番地,,23,113,4630023,,,2022-09-26,清算の結了等,,,2015-10-05,1,,,,,アイケンホーム,0
1764,7260001033982,登記記録の閉鎖等,0,2022-09-30,2022-09-29,株式会社Ｆｏｒｃｅ,,株式会社,岡山県,岡山市北区,問屋町２４番地１０４,,33,101,7000977,,,2022-09-29,清算の結了等,,,2020-01-28,1,,,,,フォース,0
1798,7370302002766,登記記録の閉鎖等,0,2022-09-30,2022-09-21,有限会社ファミリーネット,,有限会社,宮城県,石巻市,新館１丁目３番５１号,,04,202,9860848,,,2022-09-21,清算の結了等,,,2015-10-05,1,,,,,,0
1818,7460001000500,登記記録の閉鎖等,0,2022-09-30,2022-09-28,ケー・エヌサービス株式会社,,株式会社,北海道,釧路市,星が浦大通２丁目７番２８号,,01,206,0840912,,,2022-09-28,清算の結了等,,,2015-10-05,1,,,,,ケーエヌサービス,0
1825,8010001094826,登記記録の閉鎖等,0,2022-09-30,2022-09-22,セントラルトレーディング株式会社,,株式会社,東京都,千代田区,神田淡路町１丁目５番地,,13,101,1010063,,,2022-09-22,清算の結了等,,,2015-10-05,1,,,,,セントラルトレーディング,0
1833,8010003032908,登記記録の閉鎖等,0,2022-09-30,2022-09-22,合同会社ガーディアン,,合同会社,東京都,中央区,日本橋１丁目４番１号日本橋一丁目ビルディング,,13,102,1030027,,,2022-09-22,清算の結了等,,,2020-08-25,1,,,,,ガーディアン,0
1871,8011301023961,登記記録の閉鎖等,0,2022-09-30,2022-09-16,にこにこホーム株式会社,,株式会社,東京都,中野区,東中野４丁目２７番３２号,,13,114,1640003,,,2022-09-16,清算の結了等,,,2018-03-13,1,,,,,ニコニコホーム,0
1873,8011702017711,登記記録の閉鎖等,0,2022-09-30,2022-09-22,有限会社エス・アイ・エフ,,有限会社,神奈川県,横浜市港北区,下田町３丁目３１番５－２号,,14,109,2230064,,,2022-09-22,清算の結了等,,,2015-10-05,1,,,,,エスアイエフ,0
1878,8012402021425,登記記録の閉鎖等,0,2022-09-30,2022-09-15,有限会社寺館倶楽部,,有限会社,宮城県,仙台市青葉区,東照宮１丁目１７番１－７１６号,,04,101,9810908,,,2022-09-15,清算の結了等,,,2015-10-05,1,,,,,テラダテクラブ,0
1879,8013202012449,登記記録の閉鎖等,0,2022-09-30,2022-09-12,有限会社ＯｆｆｉｃｅＣａｍｅｌｏｔ,,有限会社,東京都,目黒区,緑が丘１丁目２番２号,,13,110,1520034,,,2022-09-12,清算の結了等,,,2015-10-05,1,,,,,オフィスキャメロット,0
1890,8021001041528,登記記録の閉鎖等,0,2022-09-30,2022-09-27,株式会社新幸建設,,株式会社,神奈川県,逗子市,山の根３丁目５番２２号,,14,208,2490002,,,2022-09-27,清算の結了等,,,2015-10-05,1,,,,,シンコウケンセツ,0
1892,8021002030983,登記記録の閉鎖等,0,2022-09-30,2022-09-28,有限会社エヌ・エム・ジー,,有限会社,神奈川県,厚木市,幸町五丁目１番,,14,212,2430012,,,2022-09-28,清算の結了等,,,2015-10-05,1,,,,,エヌエムジー,0
1907,8030005001058,登記記録の閉鎖等,0,2022-09-30,2022-09-15,医療法人ふくいく会,,その他の設立登記法人,埼玉県,さいたま市緑区,太田窪３丁目３番２２号,,11,109,3360936,,,2022-09-15,清算の結了等,,,2015-10-05,1,,,,,フクイクカイ,0
1922,8040002070757,登記記録の閉鎖等,0,2022-09-30,2022-09-14,山七住設有限会社,,有限会社,千葉県,君津市,北久保２丁目４番２０号,,12,225,2991164,,,2022-09-14,清算の結了等,,,2015-10-05,1,,,,,ヤマシチジューセツ,0
1929,8050002021981,登記記録の閉鎖等,0,2022-09-30,2022-09-21,有限会社広瀬製作所,,有限会社,茨城県,つくば市,今泉２００番地の６,,08,220,3050855,,,2022-09-21,清算の結了等,,,2015-10-05,1,,,,,ヒロセセイサクショ,0
1931,8060002015529,登記記録の閉鎖等,0,2022-09-30,2022-09-26,有限会社あかしや,,有限会社,栃木県,日光市,所野９５４番地８,,09,206,3211421,,,2022-09-26,清算の結了等,,,2015-10-05,1,,,,,アカシヤ,0
1976,8120905003284,登記記録の閉鎖等,0,2022-09-30,2022-09-27,協同組合池田中央市場,,その他の設立登記法人,大阪府,池田市,室町１番６号,,27,204,5630047,,,2022-09-27,清算の結了等,,,2015-10-05,1,,,,,イケダチュウオウイチバ,0
1987,8130005014314,登記記録の閉鎖等,0,2022-09-30,2022-09-16,一般社団法人ＪＰＮ美容矯正セラピスト協会,,その他の設立登記法人,京都府,京都市中京区,室町通三条下る烏帽子屋町４９８番地２,,26,104,6048165,,,2022-09-16,清算の結了等,,,2015-10-05,1,,,,,ジェイピーエヌビヨウキョウセイセラピストキョウカイ,0
1999,8180001091047,登記記録の閉鎖等,0,2022-09-30,2022-09-22,株式会社ＭＴ＆Ｒデザイン,,株式会社,福岡県,福岡市東区,香椎３丁目２３番２０号,,40,131,8130011,,,2022-09-22,清算の結了等,,,2015-10-05,1,,,,,エムティーアンドアールデザイン,0
2005,8180001134193,登記記録の閉鎖等,0,2022-09-30,2022-09-26,株式会社平菫堂,,株式会社,愛知県,名古屋市千種区,春岡通６丁目１番地の１６,,23,101,4640847,,,2022-09-26,清算の結了等,,,2018-10-25,1,,,,,ヘイキンドウ,0
2009,8180002002242,登記記録の閉鎖等,0,2022-09-30,2022-09-27,有限会社サンキ,,有限会社,愛知県,名古屋市名東区,一社２丁目１７０番地,,23,115,4650093,,,2022-09-27,清算の結了等,,,2015-10-05,1,,,,,サンキ,0
2016,8190002002051,登記記録の閉鎖等,0,2022-09-30,2022-09-28,有限会社渡辺加工所,,有限会社,三重県,津市,森町１６１１番地の５,,24,201,5141254,,,2022-09-28,清算の結了等,,,2015-10-05,1,,,,,ワタナベカコウショ,0
2021,8220002015264,登記記録の閉鎖等,0,2022-09-30,2022-09-28,有限会社北陸機販,,有限会社,石川県,羽咋市,東的場町雁田２７番地１,,17,207,9250031,,,2022-09-28,清算の結了等,,,2015-10-05,1,,,,,ホクリクキハン,0
2025,8230005002481,登記記録の閉鎖等,0,2022-09-30,2022-09-28,協同組合おわらスタンプ会,,その他の設立登記法人,富山県,富山市,八尾町東町２１４９番地,,16,201,9392354,,,2022-09-28,清算の結了等,,,2015-10-05,1,,,,,オワラスタンプカイ,0
2064,8370003001447,登記記録の閉鎖等,0,2022-09-30,2022-09-26,合同会社ライフゲートせんだい,,合同会社,宮城県,仙台市泉区,南光台３丁目２０番２０号,,04,105,9818003,,,2022-09-26,清算の結了等,,,2015-10-05,1,,,,,ライフゲートセンダイ,0
2069,8380002030644,登記記録の閉鎖等,0,2022-09-30,2022-09-22,有限会社なみえ医療,,有限会社,福島県,双葉郡浪江町,大字権現堂字上川原６３番地１,,07,547,9791521,,,2022-09-22,清算の結了等,,,2015-10-05,1,,,,,ナミエイリョウ,0
2079,8440002004492,登記記録の閉鎖等,0,2022-09-30,2022-09-26,有限会社まるじん松くら中道,,有限会社,北海道,函館市,中道１丁目２６番３５号,,01,202,0410853,,,2022-09-26,清算の結了等,,,2015-10-05,1,,,,,マルジンマツクラナカミチ,0
2089,9010001151799,登記記録の閉鎖等,0,2022-09-30,2022-09-26,農林水産業協同投資株式会社,,株式会社,東京都,千代田区,大手町１丁目２番１号,,13,101,1000004,,,2022-09-26,清算の結了等,,,2015-10-05,1,,,,,ノウリンスイサンギョウキョウドウトウシ,0
2097,9010003027857,登記記録の閉鎖等,0,2022-09-30,2022-09-22,合同会社Ｓｕｎｒｉｓｅ,,合同会社,東京都,千代田区,内幸町１丁目１番１号,,13,101,1000011,,,2022-09-22,清算の結了等,,,2018-07-06,1,,,,,サンライズ,0
2098,9010005030207,登記記録の閉鎖等,0,2022-09-30,2022-09-28,一般社団法人ＴＫブリッジ,,その他の設立登記法人,東京都,中央区,日本橋１丁目４番１号日本橋一丁目ビルディング,,13,102,1030027,,,2022-09-28,清算の結了等,,,2019-05-23,1,,,,,ティケイブリッジ,0
2101,9010401092718,登記記録の閉鎖等,0,2022-09-30,2022-09-28,株式会社スターエステートジャパン,,株式会社,東京都,渋谷区,神宮前１丁目２３番８－１１４号ブリスベージュ神宮前,,13,113,1500001,,,2022-09-28,清算の結了等,,,2015-10-05,1,,,,,スターエステートジャパン,0
2105,9010403020503,登記記録の閉鎖等,0,2022-09-30,2022-09-12,株式会社ヒロプロ,,株式会社,東京都,港区,南青山６丁目３番１３－８０３号サーラ南青山,,13,103,1070062,,,2022-09-12,清算の結了等,,,2019-04-08,1,,,,,ヒロプロ,0
2117,9010702011756,登記記録の閉鎖等,0,2022-09-30,2022-09-27,有限会社やまのて青果,,有限会社,東京都,品川区,北品川２丁目７番１９号,,13,109,1400001,,,2022-09-27,清算の結了等,,,2015-10-05,1,,,,,ヤマノテセイカ,0
2139,9011201022559,登記記録の閉鎖等,0,2022-09-30,2022-09-14,Ｍｅｖｉｕｓ－ＷＡ株式会社,,株式会社,東京都,中野区,松が丘１丁目１９番７号園池コーポ２０７,,13,114,1650024,,,2022-09-14,清算の結了等,,,2020-12-02,1,,,,,メビウスノワ,0
2159,9013202003959,登記記録の閉鎖等,0,2022-09-30,2022-09-13,有限会社竹彦,,有限会社,東京都,目黒区,鷹番１丁目１０番３号,,13,110,1520004,,,2022-09-13,清算の結了等,,,2015-10-05,1,,,,,タケヒコ,0
2176,9030001098634,登記記録の閉鎖等,0,2022-09-30,2022-09-15,株式会社イーテクノロジー,,株式会社,埼玉県,熊谷市,妻沼東２丁目７７番地１１,,11,202,3600202,,,2022-09-15,清算の結了等,,,2015-10-05,1,,,,,イーテクノロジー,0
2190,9040001023070,登記記録の閉鎖等,0,2022-09-30,2022-09-20,株式会社アシスト,,株式会社,千葉県,船橋市,東中山１丁目１６番１２号,,12,204,2730036,,,2022-09-20,清算の結了等,,,2015-10-05,1,,,,,アシスト,0
2194,9040002025421,登記記録の閉鎖等,0,2022-09-30,2022-09-21,有限会社丸伊製作所,,有限会社,千葉県,船橋市,栄町１丁目１８番１７号,,12,204,2730018,,,2022-09-21,清算の結了等,,,2015-10-05,1,,,,,マルイセイサクジョ,0
2195,9040003007261,登記記録の閉鎖等,0,2022-09-30,2022-09-20,合同会社ＭＨＰ,,合同会社,千葉県,市川市,南八幡１丁目２１番１０号,,12,203,2720023,,,2022-09-20,清算の結了等,,,2015-10-05,1,,,,,エムエイチピー,0
2243,9120005015080,登記記録の閉鎖等,0,2022-09-30,2022-09-21,一般社団法人環境評価研究機構,,その他の設立登記法人,大阪府,大阪市中央区,北浜３丁目２番２５号,,27,128,5410041,,,2022-09-21,清算の結了等,,,2015-10-05,1,,,,,カンキョウヒョウカケンキュウキコウ,0
2244,9120005018216,登記記録の閉鎖等,0,2022-09-30,2022-09-16,一般社団法人Ｌａｐｉｎ,,その他の設立登記法人,大阪府,大阪市住之江区,中加賀屋２丁目１１番４号,,27,125,5590017,,,2022-09-16,清算の結了等,,,2015-10-22,1,,,,,ラパン,0
2249,9120101057472,登記記録の閉鎖等,0,2022-09-30,2022-09-22,株式会社Ｍａｃｈｉｄａプロパティ,,株式会社,大阪府,堺市堺区,少林寺町東４丁１番２０号,,27,141,5900963,,,2022-09-22,合併による解散等,9120101009473,令和４年９月２１日大阪府堺市北区北花田町四丁１１１番地１８株式会社アイ・リンク（9120101009473）に合併し解散,2017-12-07,1,,,,,マチダプロパティ,0
2265,9130001069724,登記記録の閉鎖等,0,2022-09-30,2022-09-21,関西京仁交通株式会社,,株式会社,京都府,木津川市,加茂町大野大野１０番地,,26,214,6191142,,,2022-09-21,清算の結了等,,,2021-07-13,1,,,,,カンサイキョウジンコウツウ,0
2268,9130002010728,登記記録の閉鎖等,0,2022-09-30,2022-09-28,有限会社キモト,,有限会社,京都府,京都市南区,東九条南河辺町７２番３,,26,107,6018034,,,2022-09-28,清算の結了等,,,2015-10-05,1,,,,,キモト,0
2281,9160002009858,登記記録の閉鎖等,0,2022-09-30,2022-09-28,有限会社マルゴ産業,,有限会社,滋賀県,東近江市,八日市金屋３丁目４番１１号,,25,213,5270028,,,2022-09-28,清算の結了等,,,2015-10-05,1,,,,,マルゴサンギョウ,0
2294,9180002023238,登記記録の閉鎖等,0,2022-09-30,2022-09-27,有限会社コーテック,,有限会社,愛知県,名古屋市西区,砂原町２７０番地,,23,104,4520811,,,2022-09-27,清算の結了等,,,2015-10-05,1,,,,,コーテック,0
2295,9180003016281,登記記録の閉鎖等,0,2022-09-30,2022-09-26,合同会社飛翔,,合同会社,愛知県,半田市,新川町２２番地の１ＪＵＳ半田７Ｂ号,,23,205,4750886,,,2022-09-26,清算の結了等,,,2015-10-05,1,,,,,ヒショウ,0
2296,9180003024012,登記記録の閉鎖等,0,2022-09-30,2022-09-26,合同会社スイレイ,,合同会社,愛知県,名古屋市港区,入場１丁目２０６番地の２,,23,111,4550803,,,2022-09-26,清算の結了等,,,2022-07-06,1,,,,,スイレイ,0
2318,9250001003778,登記記録の閉鎖等,0,2022-09-30,2022-09-26,小野田中央青果株式会社,,株式会社,山口県,山陽小野田市,大字西高泊１１８４番地の１,,35,216,7560057,,,2022-09-26,清算の結了等,,,2015-10-05,1,,,,,,0
2322,9250001005824,登記記録の閉鎖等,0,2022-09-30,2022-09-13,大平株式会社,,株式会社,山口県,下関市,貴船町４丁目９番１７号,,35,201,7510823,,,2022-09-13,清算の結了等,,,2015-10-05,1,,,,,タイヘイ,0
2324,9250001013884,登記記録の閉鎖等,0,2022-09-30,2022-09-26,株式会社ＫＤＡ,,株式会社,山口県,山口市,小郡金堀町２９番１３号,,35,203,7540004,,,2022-09-26,清算の結了等,,,2015-10-05,1,,,,,,0
2329,9250005006265,登記記録の閉鎖等,0,2022-09-30,2022-09-12,天理教奉中分教会,,その他の設立登記法人,山口県,岩国市,岩国２丁目１２番２０号,,35,208,7410062,,,2022-09-12,合併による解散等,7150005004181,令和４年９月７日奈良県宇陀市大宇陀春日１００番地天理教宇陀分教会（7150005004181）に合併し解散,2015-10-05,1,,,,,テンリキョウホウチュウブンキョウカイ,0
2336,9270002010053,登記記録の閉鎖等,0,2022-09-30,2022-09-28,光進電気工事有限会社,,有限会社,鳥取県,倉吉市,和田７番地の５,,31,203,6820912,,,2022-09-28,清算の結了等,,,2015-10-05,1,,,,,コウシンデンキコウジ,0
2364,9330005003576,登記記録の閉鎖等,0,2022-09-30,2022-09-08,天理教植古閑分教会,,その他の設立登記法人,熊本県,熊本市北区,植木町古閑１１２１番地１,,43,105,8610122,,,2022-09-08,合併による解散等,1330005003542,令和４年９月８日熊本県熊本市北区植木町滴水４４５番地天理教植木分教会（1330005003542）に合併し解散,2015-10-05,1,,,,,テンリキョウウエコガブンキョウカイ,0
2378,9370001045156,登記記録の閉鎖等,0,2022-09-30,2022-09-20,株式会社みやこ運輸産業,,株式会社,宮城県,岩沼市,藤浪１丁目９番１６号,,04,211,9892434,,,2022-09-20,清算の結了等,,,2019-12-17,1,,,,,ミヤコウンユサンギョウ,0
2379,9370003000159,登記記録の閉鎖等,0,2022-09-30,2022-09-16,合資会社大友総研,,合資会社,宮城県,仙台市青葉区,昭和町３番３３－６０１号,,04,101,9810913,,,2022-09-16,清算の結了等,,,2015-10-05,1,,,,,オオトモソウケン,0
2388,9400002009593,登記記録の閉鎖等,0,2022-09-30,2022-09-27,有限会社日三エンジニアリング,,有限会社,岩手県,北上市,藤沢２１地割９３番地,,03,206,0240013,,,2022-09-27,清算の結了等,,,2015-10-05,1,,,,,ニッサンエンジニアリング,0
2395,9430001009914,登記記録の閉鎖等,0,2022-09-30,2022-09-16,株式会社エルピスコンサルタント,,株式会社,北海道,札幌市北区,北十条西２丁目１３番地２ダイヤビル４階,,01,102,0010010,,,2022-09-16,清算の結了等,,,2015-10-05,1,,,,,エルピスコンサルタント,0
2401,9460003000777,登記記録の閉鎖等,0,2022-09-30,2022-09-27,ヘセド合同会社,,合同会社,北海道,釧路市,春採８丁目１３番１８号,,01,206,0850813,,,2022-09-27,清算の結了等,,,2019-11-15,1,,,,,ヘセド,0
