sequenceNumber,corporateNumber,process,correct,updateDate,changeDate,name,nameImageId,kind,prefectureName,cityName,streetNumber,addressImageId,prefectureCode,cityCode,postCode,addressOutside,addressOutsideImageId,closeDate,closeCause,successorCorporateNumber,changeCause,assignmentDate,latest,enName,enPrefectureName,enCityName,enAddressOutside,furigana,hihyoji
6,1010001190862,登記記録の閉鎖等,0,2025-04-14,2025-04-01,株式会社金属積層造形サポートシステム,,株式会社,東京都,千代田区,鍛冶町１丁目１０番４号,,13,101,1010044,,,2025-04-01,清算の結了等,,,2018-04-06,1,,,,,キンゾクセキソウゾウケイサポートシステム,0
7,1010001218795,登記記録の閉鎖等,0,2025-04-14,2025-04-08,感染症創薬研究所株式会社,,株式会社,東京都,中央区,日本橋本町３丁目４番１８号,,13,102,1030023,,,2025-04-08,合併による解散等,1180001035811,令和７年４月１日名古屋市中区錦三丁目６番２９号興和株式会社（1180001035811）に合併し解散,2021-06-14,1,,,,,カンセンショウソウヤクケンキュウショ,0
19,1010401057059,登記記録の閉鎖等,0,2025-04-14,2025-03-17,株式会社ジェイアイシー,,株式会社,東京都,港区,南青山３丁目１番３０号,,13,103,1070062,,,2025-03-17,清算の結了等,,,2015-10-05,1,,,,,ジェイアイシー,0
22,1010401103333,登記記録の閉鎖等,0,2025-04-14,2025-03-31,株式会社グローバルホールディングス,,株式会社,東京都,中央区,日本橋室町４丁目６番２号,,13,102,1030022,,,2025-03-31,合併による解散等,5010401094750,令和７年３月３１日東京都中央区日本橋室町四丁目６番２号株式会社ストライダーズ（5010401094750）に合併し解散,2015-10-05,1,,,,,グローバルホールディングス,0
25,1010401170720,登記記録の閉鎖等,0,2025-04-14,2025-03-17,株式会社ＢｌａｃｋＲａｂｂｉｔ,,株式会社,東京都,港区,南青山３丁目１番３６号青山丸竹ビル６Ｆ,,13,103,1070062,,,2025-03-17,清算の結了等,,,2022-11-09,1,,,,,ブラックラビット,0
27,1010401184349,登記記録の閉鎖等,0,2025-04-14,2025-04-07,ＡＤＸ株式会社,,株式会社,東京都,港区,虎ノ門４丁目３番１号城山トラストタワー３３階,,13,103,1050001,,,2025-04-07,清算の結了等,,,2024-08-08,1,,,,,エイディーエックス,0
38,1010405021655,登記記録の閉鎖等,0,2025-04-14,2025-03-25,社会保険労務士法人港国際社会保険労務士事務所,,その他の設立登記法人,東京都,港区,港南２丁目１２番２８－１８０１号室,,13,103,1080075,,,2025-03-25,清算の結了等,,,2022-12-28,1,,,,,ミナトコクサイシャカイホケンロウムシジムショ,0
43,1010601038379,登記記録の閉鎖等,0,2025-04-14,2025-04-09,株式会社スエヒロ,,株式会社,東京都,江東区,亀戸１丁目４２番１８号日高ビル３階,,13,108,1360071,,,2025-04-09,合併による解散等,7290801025383,令和７年４月１日北九州市小倉北区京町三丁目１番１号ＮＣ建材株式会社（7290801025383）に合併し解散,2015-10-05,1,,,,,スエヒロ,0
67,1011103009315,登記記録の閉鎖等,0,2025-04-14,2025-03-31,合同会社ＳｕｇｅｒＲｏｃｋ,,合同会社,東京都,新宿区,新宿１丁目１６番７号ＫＩビル１階,,13,104,1600022,,,2025-03-31,清算の結了等,,,2019-12-05,1,,,,,シュガーロック,0
88,1013301019756,登記記録の閉鎖等,0,2025-04-14,2025-03-19,株式会社ファミリーマート・チャイナ・ホールディング,,株式会社,東京都,港区,芝浦３丁目１番２１号,,13,103,1080023,,,2025-03-19,清算の結了等,,,2015-10-05,1,,,,,ファミリーマートチャイナホールディング,0
142,1070002028791,登記記録の閉鎖等,0,2025-04-14,2025-04-03,有限会社機工配送センター,,有限会社,群馬県,太田市,東矢島町１３０４番地の５,,10,205,3730816,,,2025-04-03,清算の結了等,,,2015-10-05,1,,,,,キコウハイソウセンター,0
185,1120003025097,登記記録の閉鎖等,0,2025-04-14,2025-04-03,Ｅｘｃｅｌ　Ｌｉｆｅ合同会社,,合同会社,大阪府,大阪市生野区,小路東６丁目５番１７号,,27,116,5440003,,,2025-04-03,清算の結了等,,,2023-10-17,1,,,,,エクセルライフ,0
197,1140001023704,登記記録の閉鎖等,0,2025-04-14,2025-04-07,株式会社タスクトレーニング,,株式会社,兵庫県,神戸市中央区,北長狭通８丁目１番８号,,28,110,6500012,,,2025-04-07,清算の結了等,,,2015-10-05,1,,,,,タスクトレーニング,0
199,1140001046515,登記記録の閉鎖等,0,2025-04-14,2025-04-09,こがね味噌株式会社,00039621,株式会社,兵庫県,養父市,八鹿町八鹿３４３番地の１,,28,222,6670021,,,2025-04-09,清算の結了等,,,2015-10-05,1,,,,,,0
221,1180005020462,登記記録の閉鎖等,0,2025-04-14,2025-04-02,一般社団法人日本国再建研究会,,その他の設立登記法人,愛知県,名古屋市千種区,城山町１丁目３５番地,,23,101,4640045,,,2025-04-02,清算の結了等,,,2023-12-15,1,,,,,ニッポンコクサイケンケンキュウカイ,0
225,1180301016057,登記記録の閉鎖等,0,2025-04-14,2025-04-01,豊通非鉄センター株式会社,,株式会社,愛知県,安城市,尾崎町大縄１番地,,23,212,4460004,,,2025-04-01,合併による解散等,6180301023651,令和７年４月１日愛知県西尾市下羽角町大縄１６番地１日本ＡＰＴ株式会社（6180301023651）に合併し解散,2015-10-05,1,,,,,トヨツウヒテツセンター,0
233,1200001000614,登記記録の閉鎖等,0,2025-04-14,2025-04-08,株式会社エスティプラン,,株式会社,岐阜県,岐阜市,西中島５丁目１番３号,,21,201,5020916,,,2025-04-08,清算の結了等,,,2015-10-05,1,,,,,エスティプラン,0
234,1200001018334,登記記録の閉鎖等,0,2025-04-14,2025-04-01,鳥羽工研株式会社,,株式会社,岐阜県,可児市,姫ケ丘４丁目１番地５,,21,214,5090249,,,2025-04-01,合併による解散等,1200001007345,令和７年４月１日岐阜県各務原市各務おがせ町九丁目２６０番地鳥羽工産株式会社（1200001007345）に合併し解散,2015-10-05,1,,,,,トバコウケン,0
236,1200005001096,登記記録の閉鎖等,0,2025-04-14,2025-04-04,岐阜県自動車解体部品協同組合,,その他の設立登記法人,岐阜県,岐阜市,福光東１丁目２４番８号エクセル長良１－Ｂ,,21,201,5020813,,,2025-04-04,清算の結了等,,,2015-10-05,1,,,,,ギフケンジドウシャカイタイブヒン,0
243,1240001051447,登記記録の閉鎖等,0,2025-04-14,2025-04-03,日本テクノロジー株式会社,,株式会社,広島県,福山市,大門町４丁目１３番２７号,,34,207,7210926,,,2025-04-03,清算の結了等,,,2017-07-25,1,,,,,ニホンテクノロジー,0
247,1260001011985,登記記録の閉鎖等,0,2025-04-14,2025-04-02,株式会社アムズユニティー,,株式会社,岡山県,岡山市北区,北長瀬１２０１番地１,,33,101,7000963,,,2025-04-02,合併による解散等,6260001013820,令和７年４月１日岡山市北区北長瀬１２０１番地１株式会社アムズブレーン（6260001013820）に合併し解散,2015-10-05,1,,,,,アムズユニティー,0
251,1270002009739,登記記録の閉鎖等,0,2025-04-14,2025-04-10,有限会社東伯環境設備工業,,有限会社,鳥取県,東伯郡琴浦町,大字赤碕１９７３番地７,,31,371,6892501,,,2025-04-10,清算の結了等,,,2015-10-05,1,,,,,トウハクカンキョウセツビコウギョウ,0
265,1290801000680,登記記録の閉鎖等,0,2025-04-14,2025-04-03,株式会社北九州システム鑑定,,株式会社,福岡県,北九州市小倉北区,田町１２番１９－２０２号,,40,106,8030817,,,2025-04-03,清算の結了等,,,2015-10-05,1,,,,,キタキュウシュウシステムカンテイ,0
291,1390001000959,登記記録の閉鎖等,0,2025-04-14,2025-04-09,山形スバル株式会社,,株式会社,山形県,山形市,荒楯町２丁目１番８８号,,06,201,9902432,,,2025-04-09,合併による解散等,3370001006543,令和７年４月１日仙台市宮城野区日の出町一丁目５番２６号スバル東北株式会社（3370001006543）に合併し解散,2015-10-05,1,,,,,ヤマガタスバル,0
292,1390002015469,登記記録の閉鎖等,0,2025-04-14,2025-04-09,株式会社かとう,,株式会社,山形県,南陽市,郡山８７７番地３,,06,213,9992241,,,2025-04-09,合併による解散等,8010001172986,令和７年４月１日東京都千代田区丸の内二丁目２番２号株式会社アイセイ薬局（8010001172986）に合併し解散,2015-10-05,1,,,,,カトウ,0
319,2010001034639,登記記録の閉鎖等,0,2025-04-14,2025-03-31,株式会社西陣,,株式会社,東京都,千代田区,平河町１丁目４番３号,,13,101,1020093,,,2025-03-31,清算の結了等,,,2015-10-05,1,,,,,ニシジン,0
320,2010001044687,登記記録の閉鎖等,0,2025-04-14,2025-04-01,株式会社佐野時計店,,株式会社,東京都,中央区,日本橋人形町１丁目１６番１０号,,13,102,1030013,,,2025-04-01,清算の結了等,,,2015-10-05,1,,,,,サノトケイテン,0
334,2010003032806,登記記録の閉鎖等,0,2025-04-14,2025-03-17,合同会社ヒラフ,,合同会社,東京都,千代田区,霞が関３丁目２番５号,,13,101,1000013,,,2025-03-17,清算の結了等,,,2020-08-20,1,,,,,ヒラフ,0
377,2010902002784,登記記録の閉鎖等,0,2025-04-14,2025-04-10,有限会社エフ・ピー・オー,,有限会社,東京都,世田谷区,弦巻３丁目１３番１８－２０１号,,13,112,1540016,,,2025-04-10,清算の結了等,,,2015-10-05,1,,,,,エフピーオー,0
392,2011101027656,登記記録の閉鎖等,0,2025-04-14,2025-04-09,ＭＳＫ安心ステーション株式会社,,株式会社,東京都,新宿区,荒木町１３番地４,,13,104,1600007,,,2025-04-09,合併による解散等,6010001008795,令和７年４月１日東京都千代田区神田駿河台三丁目９番地三井住友海上火災保険株式会社（6010001008795）に合併し解散,2015-10-05,1,,,,,エムエスケーアンシンステーション,0
393,2011101033910,登記記録の閉鎖等,0,2025-04-14,2025-03-28,株式会社エスディ・リアルネット,,株式会社,東京都,新宿区,新宿５丁目６番１１号,,13,104,1600022,,,2025-03-28,清算の結了等,,,2015-10-05,1,,,,,エスディリアルネット,0
395,2011101099687,登記記録の閉鎖等,0,2025-04-14,2025-03-31,株式会社Ｐｒｅｃｉｏｕｓ,,株式会社,東京都,新宿区,西新宿７丁目３番１号三光パークビル４Ｆ,,13,104,1600023,,,2025-03-31,清算の結了等,,,2022-08-01,1,,,,,プレシャス,0
412,2012403004087,登記記録の閉鎖等,0,2025-04-14,2025-04-04,合同会社伸,,合同会社,東京都,世田谷区,玉川１丁目１７番１２号ハイクレスト高田３０３,,13,112,1580094,,,2025-04-04,清算の結了等,,,2019-11-06,1,,,,,シン,0
431,2021001024604,登記記録の閉鎖等,0,2025-04-14,2025-04-03,カマックス株式会社,,株式会社,神奈川県,川崎市幸区,堀川町５８０番地１６川崎テックセンター１Ｆ，１０３－１,,14,132,2120013,,,2025-04-03,清算の結了等,,,2015-10-05,1,,,,,カマックス,0
448,2050001026260,登記記録の閉鎖等,0,2025-04-14,2025-04-02,エイトウェーブ株式会社,,株式会社,茨城県,龍ケ崎市,久保台４丁目１番地５,,08,208,3010001,,,2025-04-02,清算の結了等,,,2015-10-05,1,,,,,エイトウェーブ,0
456,2070001041365,登記記録の閉鎖等,0,2025-04-14,2025-04-04,株式会社ＬＵＣＫ,,株式会社,群馬県,高崎市,藤塚町５１番地４,,10,202,3700875,,,2025-04-04,清算の結了等,,,2024-02-09,1,,,,,ラック,0
468,2100002011751,登記記録の閉鎖等,0,2025-04-14,2025-04-07,有限会社浅陽,,有限会社,長野県,佐久市,岩村田３７３６番地３,,20,217,3850022,,,2025-04-07,清算の結了等,,,2015-10-05,1,,,,,アサヒ,0
500,2120101040658,登記記録の閉鎖等,0,2025-04-14,2025-03-31,株式会社ジャスティス,,株式会社,愛知県,名古屋市中区,丸の内２丁目１３番１６号－２,,23,106,4600002,,,2025-03-31,合併による解散等,9180001154629,令和７年３月３１日名古屋市中区丸の内二丁目１３番１６号－２ＳＩＶＡホールディングス株式会社（9180001154629）に合併し解散,2015-10-05,1,,,,,ジャスティス,0
518,2140001127157,登記記録の閉鎖等,0,2025-04-14,2025-04-10,株式会社ｇｒｏｗ　ｕｐ,,株式会社,兵庫県,尼崎市,神田北通２丁目１２番地の１大陽ビルディング１Ｆ,,28,202,6600883,,,2025-04-10,合併による解散等,3120901040963,令和７年４月１日大阪市住之江区泉二丁目１番８０号株式会社ｍｅｅｔ　ｕｐ（3120901040963）に合併し解散,2022-08-24,1,,,,,グロウアップ,0
531,2150002010344,登記記録の閉鎖等,0,2025-04-14,2025-04-10,有限会社ウィード,,有限会社,奈良県,香芝市,真美ヶ丘６丁目１０番地,,29,210,6390223,,,2025-04-10,清算の結了等,,,2015-10-05,1,,,,,ウィード,0
540,2180001128127,登記記録の閉鎖等,0,2025-04-14,2025-04-03,株式会社正鳳,,株式会社,愛知県,名古屋市南区,浜田町３丁目９２番地３０７号,,23,112,4570822,,,2025-04-03,清算の結了等,,,2017-06-07,1,,,,,セイホウ,0
553,2180302028182,登記記録の閉鎖等,0,2025-04-14,2025-04-01,三河総合有限会社,,有限会社,愛知県,新城市,川田字平３０番地５,,23,221,4411346,,,2025-04-01,清算の結了等,,,2015-10-05,1,,,,,ミカワソウゴウ,0
557,2180305004560,登記記録の閉鎖等,0,2025-04-14,2025-04-08,医療法人静陵会,,その他の設立登記法人,愛知県,安城市,住吉町７丁目２３番地３,,23,212,4460072,,,2025-04-08,清算の結了等,,,2015-10-05,1,,,,,セイリョウカイ,0
560,2200002000819,登記記録の閉鎖等,0,2025-04-14,2025-04-07,有限会社オールの建物管理,,有限会社,岐阜県,岐阜市,南蝉１丁目３９番地１イセットグループビル１階,,21,201,5020852,,,2025-04-07,清算の結了等,,,2015-10-05,1,,,,,オールノタテモノカンリ,0
567,2230005001423,登記記録の閉鎖等,0,2025-04-14,2025-03-12,知足寺,,その他の設立登記法人,富山県,富山市,小泉町１５番地,,16,201,9398082,,,2025-03-12,合併による解散等,4230005002931,令和７年３月１２日富山市東福沢７９９番地徳林寺（4230005002931）に合併し解散,2015-10-05,1,,,,,チソクジ,0
569,2240002009749,登記記録の閉鎖等,0,2025-04-14,2025-04-04,有限会社隆見,,有限会社,広島県,広島市安佐南区,沼田町大字吉山８４８番地の４２,,34,105,7313272,,,2025-04-04,清算の結了等,,,2015-10-05,1,,,,,タカミ,0
582,2290001002205,登記記録の閉鎖等,0,2025-04-14,2025-04-01,双葉産業株式会社,,株式会社,福岡県,福岡市東区,箱崎ふ頭６丁目８番３６号,,40,131,8120051,,,2025-04-01,合併による解散等,1290001077306,令和７年４月１日福岡市博多区博多駅東二丁目１３番３４号エコービルデリカＳＦホールディングス株式会社（1290001077306）に合併し解散,2015-10-05,1,,,,,フタバサンギョウ,0
583,2290001030379,登記記録の閉鎖等,0,2025-04-14,2025-04-01,株式会社クリアライン,,株式会社,福岡県,福岡市博多区,金の隈３丁目１４番３号,,40,132,8120863,,,2025-04-01,合併による解散等,3290001071100,令和７年４月１日福岡県糟屋郡宇美町ゆりが丘二丁目１４番１号株式会社ＣＬライン（3290001071100）に合併し解散,2015-10-05,1,,,,,クリアライン,0
584,2290001032730,登記記録の閉鎖等,0,2025-04-14,2025-03-31,株式会社古賀建設,,株式会社,福岡県,福岡市南区,長丘３丁目２１番１０号,,40,134,8150075,,,2025-03-31,清算の結了等,,,2015-10-05,1,,,,,コガケンセツ,0
601,2290805004438,登記記録の閉鎖等,0,2025-04-14,2025-04-01,天理教八幡大蔵分教会,,その他の設立登記法人,福岡県,北九州市八幡東区,勝山１丁目３番１４号,,40,108,8050043,,,2025-04-01,合併による解散等,2290805004388,令和７年４月１日北九州市八幡東区尾倉三丁目２番２８号天理教尾倉分教会（2290805004388）に合併し解散,2015-10-05,1,,,,,テンリキョウヤハタオオクラブンキョウカイ,0
605,2320003004237,登記記録の閉鎖等,0,2025-04-14,2025-04-08,合同会社フロー,,合同会社,大分県,大分市,大字光吉９１３番地４エスポワール光吉１０２,,44,201,8701132,,,2025-04-08,清算の結了等,,,2023-11-21,1,,,,,フロー,0
607,2330002008873,登記記録の閉鎖等,0,2025-04-14,2025-04-04,有限会社フォーティーラブ,,有限会社,熊本県,熊本市中央区,上通町３番３３号ペンギンビル３Ｆ,,43,101,8600845,,,2025-04-04,清算の結了等,,,2015-10-05,1,,,,,フォーティーラブ,0
617,2370002018638,登記記録の閉鎖等,0,2025-04-14,2025-04-03,有限会社アットホーム仙台,,有限会社,宮城県,仙台市宮城野区,榴岡３丁目９－１５－３０６,,04,102,9830852,,,2025-04-03,清算の結了等,,,2015-10-05,1,,,,,アットホームセンダイ,0
619,2380005006853,登記記録の閉鎖等,0,2025-04-14,2025-03-31,田人おふくろの宿企業組合,,その他の設立登記法人,福島県,いわき市,田人町旅人字江尻７１番地,,07,204,9740152,,,2025-03-31,清算の結了等,,,2015-10-05,1,,,,,,0
621,2400001000163,登記記録の閉鎖等,0,2025-04-14,2025-04-09,岩手スバル自動車株式会社,,株式会社,岩手県,盛岡市,上堂３丁目７番１０号,,03,201,0200125,,,2025-04-09,合併による解散等,3370001006543,令和７年４月１日仙台市宮城野区日の出町一丁目５番２６号スバル東北株式会社（3370001006543）に合併し解散,2015-10-05,1,,,,,イワテスバルジドウシャ,0
631,2450001007798,登記記録の閉鎖等,0,2025-04-14,2025-04-01,安田自動車株式会社,,株式会社,北海道,枝幸郡枝幸町,南浜町６３６番地９,,01,514,0985804,,,2025-04-01,合併による解散等,6450001007695,令和７年４月１日北海道枝幸郡枝幸町幸町５７番地５アート設備株式会社（6450001007695）に合併し解散,2015-10-05,1,,,,,ヤスダジドウシャ,0
634,2460105002208,登記記録の閉鎖等,0,2025-04-14,2025-04-07,一般社団法人大樹自然機構,,その他の設立登記法人,北海道,広尾郡大樹町,字芽武６５６番地３,,01,641,0892113,,,2025-04-07,清算の結了等,,,2020-12-21,1,,,,,タイキシゼンキコウ,0
649,3010001003221,登記記録の閉鎖等,0,2025-04-14,2025-04-03,サン・ブライトインターナシヨナル株式会社,,株式会社,神奈川県,横浜市中区,本町３丁目２４番地本町中央ビル６０１号,,14,104,2310005,,,2025-04-03,清算の結了等,,,2015-10-05,1,,,,,サンブライトインターナシヨナル,0
650,3010001017592,登記記録の閉鎖等,0,2025-04-14,2025-03-31,株式会社サンカイプラニング,,株式会社,東京都,千代田区,神田神保町１丁目６４番地,,13,101,1010051,,,2025-03-31,清算の結了等,,,2015-10-05,1,,,,,サンカイプラニング,0
665,3010401138831,登記記録の閉鎖等,0,2025-04-14,2025-03-31,株式会社ＳＴＡＲＩＤＥＲ,,株式会社,東京都,港区,赤坂５丁目２番２０号,,13,103,1070052,,,2025-03-31,清算の結了等,,,2018-06-08,1,,,,,スタライダー,0
666,3010401150596,登記記録の閉鎖等,0,2025-04-14,2025-03-25,株式会社Ｋｓ　ＧＲＯＵＰ　ＴＯＫＹＯ,,株式会社,東京都,港区,赤坂３丁目２１番５号三銀ビル４０５号室,,13,103,1070052,,,2025-03-25,清算の結了等,,,2020-01-28,1,,,,,ケーズグループトウキョウ,0
671,3010403025318,登記記録の閉鎖等,0,2025-04-14,2025-04-01,ＳＫ　ｈｙｎｉｘ　ＮＡＮＤ　Ｐｒｏｄｕｃｔ　Ｓｏｌｕｔｉｏｎｓ　Ｊａｐａｎ合同会社,,合同会社,東京都,中央区,銀座３丁目４番１号大倉別館５階,,13,102,1040061,,,2025-04-01,清算の結了等,,,2021-05-19,1,,,,,エスケーハイニックスナンドプロダクトソリューションズジャパン,0
673,3010405019788,登記記録の閉鎖等,0,2025-04-14,2025-03-26,一般社団法人ＳＡＰ　Ｓａｋｕｒａｇａｗａ,,その他の設立登記法人,東京都,港区,虎ノ門５丁目１番４号,,13,103,1050001,,,2025-03-26,清算の結了等,,,2021-05-10,1,,,,,エスエーピーサクラガワ,0
681,3010701006382,登記記録の閉鎖等,0,2025-04-14,2025-04-01,東芝エレベータサービス株式会社,,株式会社,神奈川県,川崎市幸区,堀川町７２番地３４,,14,132,2120013,,,2025-04-01,合併による解散等,5010701006785,令和７年４月１日川崎市幸区堀川町７２番地３４東芝エレベータ株式会社（5010701006785）に合併し解散,2015-10-05,1,,,,,トウシバエレベータサービス,0
684,3010801014351,登記記録の閉鎖等,0,2025-04-14,2025-04-01,エミリーズバルーン株式会社,,株式会社,東京都,大田区,蒲田本町１丁目２番５号,,13,111,1440053,,,2025-04-01,合併による解散等,4010801007032,令和７年４月１日東京都大田区蒲田本町一丁目２番５号株式会社ＴａｋａｒａＴｅｃ（4010801007032）に合併し解散,2015-10-05,1,,,,,エミリーズバルーン,0
692,3011001058288,登記記録の閉鎖等,0,2025-04-14,2025-03-13,株式会社ニューフォリア,,株式会社,東京都,渋谷区,東１丁目２６番３０号,,13,113,1500011,,,2025-03-13,清算の結了等,,,2015-10-05,1,,,,,ニューフォリア,0
710,3011101020932,登記記録の閉鎖等,0,2025-04-14,2025-03-28,明新興産株式会社,,株式会社,東京都,新宿区,大久保２丁目７番１号,,13,104,1690072,,,2025-03-28,清算の結了等,,,2015-10-05,1,,,,,メイシンコウサン,0
736,3012701008771,登記記録の閉鎖等,0,2025-04-14,2025-04-03,株式会社佐元,,株式会社,東京都,西東京市,下保谷４丁目１番１３号,,13,229,2020004,,,2025-04-03,清算の結了等,,,2015-10-05,1,,,,,サゲン,0
737,3012701016270,登記記録の閉鎖等,0,2025-04-14,2025-04-03,ＴＡ綜合サービス株式会社,,株式会社,東京都,東村山市,富士見町５丁目５番地４４,,13,213,1890024,,,2025-04-03,清算の結了等,,,2021-01-15,1,,,,,ティーエーソウゴウサービス,0
742,3012805002514,登記記録の閉鎖等,0,2025-04-14,2025-03-31,特定非営利活動法人日本国際キャリア形成支援協会,,その他の設立登記法人,東京都,立川市,富士見町５丁目１２番１５号,,13,202,1900013,,,2025-03-31,清算の結了等,,,2015-10-05,1,,,,,ニホンコクサイキャリアケイセイシエンキョウカイ,0
744,3013202014482,登記記録の閉鎖等,0,2025-04-14,2025-03-27,有限会社ローズ牧場,,有限会社,神奈川県,横浜市港北区,日吉３丁目８番１号,,14,109,2230061,,,2025-03-27,清算の結了等,,,2015-10-05,1,,,,,,0
747,3020001037251,登記記録の閉鎖等,0,2025-04-14,2025-04-01,株式会社パレットワン,,株式会社,神奈川県,横浜市中区,不老町１丁目６番１３号,,14,104,2310032,,,2025-04-01,合併による解散等,1020001038565,令和７年４月１日横浜市中区不老町一丁目６番１３号株式会社白寿会（1020001038565）に合併し解散,2015-10-05,1,,,,,パレットワン,0
772,3030002068724,登記記録の閉鎖等,0,2025-04-14,2025-04-07,有限会社大成企画,,有限会社,埼玉県,春日部市,粕壁東５丁目２番３３号,,11,214,3440062,,,2025-04-07,清算の結了等,,,2015-10-05,1,,,,,タイセイキカク,0
774,3030002122299,登記記録の閉鎖等,0,2025-04-14,2025-04-07,有限会社ワイエス工業,,有限会社,埼玉県,秩父郡皆野町,大字皆野１４９２番地４,,11,362,3691412,,,2025-04-07,清算の結了等,,,2015-10-05,1,,,,,ワイエスコウギョウ,0
793,3080002002471,登記記録の閉鎖等,0,2025-04-14,2025-04-02,有限会社ジェーディーアイ,,有限会社,愛知県,豊橋市,大村町字東沖１５番地の１,,23,201,4400081,,,2025-04-02,清算の結了等,,,2015-10-05,1,,,,,ジェーディーアイ,0
795,3080102010671,登記記録の閉鎖等,0,2025-04-14,2025-04-02,有限会社晴耕園種苗店,,有限会社,静岡県,三島市,中央町４番１４号,,22,206,4110858,,,2025-04-02,清算の結了等,,,2015-10-05,1,,,,,セイコウエンシュビョウテン,0
815,3120001261089,登記記録の閉鎖等,0,2025-04-14,2025-04-07,株式会社アフェール,,株式会社,大阪府,大阪市中央区,谷町３丁目２番８号,,27,128,5400012,,,2025-04-07,清算の結了等,,,2024-01-09,1,,,,,アフェール,0
828,3120003023859,登記記録の閉鎖等,0,2025-04-14,2025-03-31,合同会社マルケイ屋,,合同会社,大阪府,大阪市北区,梅田１丁目２‐２大阪駅前第２ビル１２‐１２,,27,127,5300001,,,2025-03-31,清算の結了等,,,2023-04-21,1,,,,,マルケイヤ,0
833,3120005009121,登記記録の閉鎖等,0,2025-04-14,2025-04-10,医療法人太讃会,,その他の設立登記法人,大阪府,大阪市中央区,難波４丁目２番４号,,27,128,5420076,,,2025-04-10,清算の結了等,,,2015-10-05,1,,,,,タイサンカイ,0
848,3140001061660,登記記録の閉鎖等,0,2025-04-14,2025-04-09,松本運輸株式会社,,株式会社,兵庫県,姫路市,四郷町見野字岸ノ上５１１番地の１０,,28,201,6710244,,,2025-04-09,清算の結了等,,,2015-10-05,1,,,,,マツモトウンユ,0
852,3140001093778,登記記録の閉鎖等,0,2025-04-14,2025-04-07,株式会社ＣＯＣＯ,,株式会社,兵庫県,伊丹市,中央５丁目３番３９号,,28,207,6640851,,,2025-04-07,清算の結了等,,,2015-10-05,1,,,,,ココ,0
854,3140002013181,登記記録の閉鎖等,0,2025-04-14,2025-04-07,有限会社エムエムシー,,有限会社,兵庫県,神戸市中央区,中山手通３丁目１２番６号,,28,110,6500004,,,2025-04-07,清算の結了等,,,2015-10-05,1,,,,,エムエムシー,0
860,3180001086539,登記記録の閉鎖等,0,2025-04-14,2025-04-01,株式会社ベストライフ,,株式会社,愛知県,一宮市,瀬部字流３４番地１,,23,203,4910001,,,2025-04-01,合併による解散等,9180001082268,令和７年４月１日愛知県一宮市瀬部字流３４番地１株式会社エイム（9180001082268）に合併し解散,2015-10-05,1,,,,,ベストライフ,0
862,3180001097164,登記記録の閉鎖等,0,2025-04-14,2025-04-03,株式会社正栄,,株式会社,愛知県,愛西市,日置町上川田１４６番地の１,,23,232,4960906,,,2025-04-03,清算の結了等,,,2015-10-05,1,,,,,ショウエイ,0
874,3180301007954,登記記録の閉鎖等,0,2025-04-14,2025-04-01,サンクスオート株式会社,,株式会社,愛知県,豊橋市,下五井町字沖田１６１番地の１,,23,201,4400091,,,2025-04-01,合併による解散等,1180301005729,令和７年４月１日愛知県豊橋市下五井町字沖田１６１番地の１サンクスモビリティ株式会社（1180301005729）に合併し解散,2015-10-05,1,,,,,サンクスオート,0
877,3180301023480,登記記録の閉鎖等,0,2025-04-14,2025-04-01,株式会社ドットヒルズ,,株式会社,愛知県,西尾市,高畠町３丁目５８番地１,,23,213,4450064,,,2025-04-01,清算の結了等,,,2015-10-05,1,,,,,ドットヒルズ,0
891,3220003002431,登記記録の閉鎖等,0,2025-04-14,2025-04-07,ＡＭＤ合同会社,,合同会社,石川県,金沢市,中川除町５１,,17,201,9200975,,,2025-04-07,清算の結了等,,,2018-06-08,1,,,,,,0
893,3230001001277,登記記録の閉鎖等,0,2025-04-14,2025-04-01,昭和工業株式会社,,株式会社,富山県,富山市,秋吉１３５番３,,16,201,9300953,,,2025-04-01,合併による解散等,5230001002298,令和７年４月１日富山市八日町２４７番地２４ＧＲＮテクノソリューション株式会社（5230001002298）に合併し解散,2015-10-05,1,,,,,ショウワコウギョウ,0
909,3290001050640,登記記録の閉鎖等,0,2025-04-14,2025-03-31,株式会社ホスピタリティビジネスコンサルティング,,株式会社,福岡県,久留米市,合川町１１２７番地４,,40,203,8390861,,,2025-03-31,清算の結了等,,,2015-10-05,1,,,,,ホスピタリティビジネスコンサルティング,0
926,3290002004496,登記記録の閉鎖等,0,2025-04-14,2025-03-31,有限会社オフィス・ハチニィハチ,,有限会社,福岡県,福岡市東区,千早５丁目１３番２６－７０２号,,40,131,8130044,,,2025-03-31,清算の結了等,,,2015-10-05,1,,,,,オフィスハチニィハチ,0
927,3290002045219,登記記録の閉鎖等,0,2025-04-14,2025-03-28,有限会社秋吉電機,,有限会社,福岡県,飯塚市,川津４０４番地の１,,40,205,8200067,,,2025-03-28,清算の結了等,,,2015-10-05,1,,,,,アキヨシデンキ,0
931,3290801024876,登記記録の閉鎖等,0,2025-04-14,2025-04-09,ナカノ興産株式会社,,株式会社,福岡県,直方市,大字永満寺２４７７番地１,,40,204,8220005,,,2025-04-09,清算の結了等,,,2018-08-20,1,,,,,ナカノコウサン,0
957,3390005003766,登記記録の閉鎖等,0,2025-04-14,2025-04-01,農事組合法人添津肉用牛生産組合,,その他の設立登記法人,山形県,東田川郡庄内町,添津字石橋１番地,,06,428,9996603,,,2025-04-01,清算の結了等,,,2015-10-05,1,,,,,ソエヅニクヨウギュウセイサンクミアイ,0
960,3410001000590,登記記録の閉鎖等,0,2025-04-14,2025-04-01,秋田レアメタル株式会社,,株式会社,秋田県,秋田市,飯島字砂田１番地,,05,201,0110911,,,2025-04-01,合併による解散等,4410001004517,令和７年４月１日秋田市飯島字古道下川端２１７番地９秋田製錬株式会社（4410001004517）に合併し解散,2015-10-05,1,,,,,アキタレアメタル,0
968,3480002001029,登記記録の閉鎖等,0,2025-04-14,2025-04-03,有限会社金万,,有限会社,徳島県,徳島市,明神町１丁目３５番地１,,36,201,7700938,,,2025-04-03,清算の結了等,,,2015-10-05,1,,,,,カネマン,0
991,4010001174821,登記記録の閉鎖等,0,2025-04-14,2025-03-21,ＮＣホールディングス株式会社,,株式会社,東京都,千代田区,神田鍛冶町３丁目６番地３,,13,101,1010045,,,2025-03-21,合併による解散等,1010001245195,令和７年３月１日東京都千代田区有楽町一丁目１３番２号第一生命日比谷ファースト１２階ネイビー１株式会社（1010001245195）に合併し解散,2016-04-11,1,,,,,エヌシーホールディングス,0
1013,4010402021119,登記記録の閉鎖等,0,2025-04-14,2025-03-25,有限会社オフィス・久野,,有限会社,東京都,港区,西麻布４丁目１８番１２号,,13,103,1060031,,,2025-03-25,清算の結了等,,,2015-10-05,1,,,,,オフィスクノ,0
1014,4010403021233,登記記録の閉鎖等,0,2025-04-14,2025-03-19,合同会社ペガサス,,合同会社,東京都,港区,元赤坂１丁目１番８号株式会社赤坂国際会計内,,13,103,1070051,,,2025-03-19,清算の結了等,,,2019-08-05,1,,,,,ペガサス,0
1017,4010405021140,登記記録の閉鎖等,0,2025-04-14,2025-03-24,ヘクター特定目的会社,,その他の設立登記法人,東京都,港区,六本木１丁目６番１号泉ガーデンタワーＫＰＭＧ税理士法人内,,13,103,1060032,,,2025-03-24,清算の結了等,,,2022-06-27,1,,,,,ヘクター,0
1019,4010602033236,登記記録の閉鎖等,0,2025-04-14,2025-03-31,有限会社ドクターズオフィス,,有限会社,東京都,墨田区,石原３丁目１１番４号,,13,107,1300011,,,2025-03-31,清算の結了等,,,2015-10-05,1,,,,,ドクターズオフィス,0
1050,4011602022328,登記記録の閉鎖等,0,2025-04-14,2025-04-01,有限会社広津自動車,,有限会社,東京都,練馬区,豊玉南２丁目２４番１４号,,13,120,1760014,,,2025-04-01,清算の結了等,,,2015-10-05,1,,,,,ヒロツジドウシャ,0
1055,4012705001739,登記記録の閉鎖等,0,2025-04-14,2025-03-25,特定非営利活動法人スマイルほうや,,その他の設立登記法人,東京都,西東京市,栄町１丁目１７番４号,,13,229,2020006,,,2025-03-25,清算の結了等,,,2015-10-05,1,,,,,スマイルホウヤ,0
1056,4012803001351,登記記録の閉鎖等,0,2025-04-14,2025-03-31,モービーハウス合同会社,,合同会社,東京都,国立市,富士見台１丁目４８番地の２８,,13,215,1860003,,,2025-03-31,清算の結了等,,,2015-10-29,1,,,,,モービーハウス,0
1065,4020001135599,登記記録の閉鎖等,0,2025-04-14,2025-04-01,株式会社Ｈｏｇｅｔｉｃ　Ｌａｂ,,株式会社,東京都,千代田区,一番町４番地４ＴＨＥＣＲＯＳＳ一番町４階,,13,101,1020082,,,2025-04-01,合併による解散等,2011001104200,令和７年４月１日東京都千代田区内神田二丁目３番４号Ｓ－ＧＡＴＥ大手町北株式会社ＭＢＫデジタル（2011001104200）に合併し解散,2020-04-07,1,,,,,ホゲティックラボ,0
1067,4020002028645,登記記録の閉鎖等,0,2025-04-14,2025-04-02,有限会社吉富商事,,有限会社,神奈川県,横浜市神奈川区,泉町１５番地の５,,14,102,2210842,,,2025-04-02,清算の結了等,,,2015-10-05,1,,,,,ヨシトミショウジ,0
1082,4050002045134,登記記録の閉鎖等,0,2025-04-14,2025-04-02,有限会社渡辺電設,,有限会社,茨城県,結城市,大字上山川２４５５番地の２,,08,207,3070021,,,2025-04-02,清算の結了等,,,2015-10-05,1,,,,,ワタナベデンセツ,0
1098,4080403003126,登記記録の閉鎖等,0,2025-04-14,2025-04-01,合同会社オー・エム,,合同会社,静岡県,浜松市中央区,豊岡町５９番地,,22,138,4338103,,,2025-04-01,合併による解散等,4080401027498,令和７年４月１日静岡県浜松市中央区豊岡町５９番地株式会社玉澤オオタヤミート（4080401027498）に合併し解散,2015-10-05,1,,,,,オーエム,0
1113,4120001246808,登記記録の閉鎖等,0,2025-04-14,2025-03-31,株式会社堀技術研究所,,株式会社,大阪府,大阪市城東区,今福南１丁目２番６号１０３,,27,118,5360003,,,2025-03-31,清算の結了等,,,2022-06-22,1,,,,,ホリギジュツケンキュウショ,0
1126,4120101040417,登記記録の閉鎖等,0,2025-04-14,2025-04-07,株式会社じばしん,,株式会社,大阪府,泉南郡熊取町,野田２丁目９番２０号,,27,361,5900451,,,2025-04-07,清算の結了等,,,2015-10-05,1,,,,,ジバシン,0
1128,4120102024229,登記記録の閉鎖等,0,2025-04-14,2025-04-01,義本本家酒造有限会社,,有限会社,大阪府,泉南郡熊取町,小垣内３丁目２番２５号,,27,361,5900432,,,2025-04-01,清算の結了等,,,2015-10-05,1,,,,,ヨシモトホンケシュゾウ,0
1139,4130001000627,登記記録の閉鎖等,0,2025-04-14,2025-04-10,近畿報知機株式会社,,株式会社,京都府,京都市右京区,嵯峨野嵯峨ノ段町１番地の１７,,26,108,6168311,,,2025-04-10,清算の結了等,,,2015-10-05,1,,,,,キンキホウチキ,0
1148,4140001073102,登記記録の閉鎖等,0,2025-04-14,2025-04-08,株式会社テクノミューコン,,株式会社,兵庫県,西宮市,高塚町１１番３０号,,28,204,6620066,,,2025-04-08,清算の結了等,,,2015-10-05,1,,,,,テクノミューコン,0
1155,4140002050983,登記記録の閉鎖等,0,2025-04-14,2025-04-04,有限会社丸一建設,,有限会社,兵庫県,姫路市,勝原区山戸２５５番地１,,28,201,6711214,,,2025-04-04,清算の結了等,,,2015-10-05,1,,,,,マルイチケンセツ,0
1177,4180301030732,登記記録の閉鎖等,0,2025-04-14,2025-04-03,株式会社ＶＥＲＳＵＳ,,株式会社,愛知県,東海市,名和町石塚１５番地の１,00128311,23,222,4760002,,,2025-04-03,清算の結了等,,,2017-09-12,1,,,,,バーサス,0
1180,4180303005609,登記記録の閉鎖等,0,2025-04-14,2025-04-02,ＤＯＣＥＬＯＪＡ合同会社,,合同会社,愛知県,刈谷市,野田町陣戸池７２番地１グローリアス東刈谷弐番館３０４号,,23,210,4480803,,,2025-04-02,清算の結了等,,,2023-02-13,1,,,,,ドセロジャ,0
1184,4220001013017,登記記録の閉鎖等,0,2025-04-14,2025-04-03,株式会社アサヒ,,株式会社,石川県,加賀市,作見町ワ１０番地,,17,206,9220423,,,2025-04-03,清算の結了等,,,2015-10-05,1,,,,,,0
1211,4290801023720,登記記録の閉鎖等,0,2025-04-14,2025-04-01,株式会社シャンティ,,株式会社,福岡県,直方市,大字知古１２２５番地４４,,40,204,8220022,,,2025-04-01,合併による解散等,3290801013103,令和７年４月１日北九州市八幡西区野面一丁目６番１２号株式会社リーベ介護サービス（3290801013103）に合併し解散,2017-06-14,1,,,,,シャンティ,0
1222,4340002016717,登記記録の閉鎖等,0,2025-04-14,2025-04-10,株式会社白十字総合薬局,,株式会社,鹿児島県,薩摩川内市,原田町５番１号,,46,215,8950074,,,2025-04-10,合併による解散等,3290001036375,令和７年４月１日福岡県糟屋郡新宮町緑ケ浜四丁目１７番２２号株式会社なの花九州（3290001036375）に合併し解散,2015-10-05,1,,,,,ハクジュウジソウゴウヤッキョク,0
1233,4360003009783,登記記録の閉鎖等,0,2025-04-14,2025-04-03,合同会社積善会,,合同会社,沖縄県,沖縄市,胡屋７丁目１番２号喜屋武アパート１０１号,,47,211,9040021,,,2025-04-03,清算の結了等,,,2019-09-27,1,,,,,セキゼンカイ,0
1237,4380001030946,登記記録の閉鎖等,0,2025-04-14,2025-04-10,テストデータシステム株式会社,,株式会社,福島県,福島市,伏拝字沖２７番地の１,,07,201,9608154,,,2025-04-10,合併による解散等,8011601003630,令和７年４月１日東京都世田谷区池尻三丁目１番３号株式会社セコニック（8011601003630）に合併し解散,2020-05-28,1,,,,,テストデータシステム,0
1239,4380002015525,登記記録の閉鎖等,0,2025-04-14,2025-03-28,有限会社三春モータース,,有限会社,福島県,田村郡三春町,字鶴蒔田１２番地,,07,521,9637742,,,2025-03-28,清算の結了等,,,2015-10-05,1,,,,,,0
1240,4380003005186,登記記録の閉鎖等,0,2025-04-14,2025-03-31,ハッピー合同会社,,合同会社,福島県,会津若松市,御旗町５番４１号,,07,202,9650851,,,2025-03-31,清算の結了等,,,2022-06-06,1,,,,,ハッピー,0
1241,4400001001614,登記記録の閉鎖等,0,2025-04-14,2025-03-31,株式会社盛岡土地開発,,株式会社,岩手県,盛岡市,本町通１丁目１１番２５号,,03,201,0200015,,,2025-03-31,清算の結了等,,,2015-10-05,1,,,,,モリオカトチカイハツ,0
1243,4410001004211,登記記録の閉鎖等,0,2025-04-14,2025-04-01,秋田ジンクリサイクリング株式会社,,株式会社,秋田県,秋田市,飯島字古道下川端２１７番地９,,05,201,0110911,,,2025-04-01,合併による解散等,4410001004517,令和７年４月１日秋田市飯島字古道下川端２１７番地９秋田製錬株式会社（4410001004517）に合併し解散,2015-10-05,1,,,,,アキタジンクリサイクリング,0
1258,4490002011372,登記記録の閉鎖等,0,2025-04-14,2025-04-10,有限会社藤原林業,,有限会社,高知県,香美市,物部町久保沼井５８番地,,39,212,7814531,,,2025-04-10,清算の結了等,,,2015-10-05,1,,,,,フジワラリンギョウ,0
1269,5010001014316,登記記録の閉鎖等,0,2025-04-14,2025-04-02,株式会社金融ジャーナル社,,株式会社,東京都,千代田区,九段南４丁目３番１５号,,13,101,1020074,,,2025-04-02,合併による解散等,2010001033021,令和７年４月１日東京都千代田区九段南四丁目３番１５号株式会社日本金融通信社（2010001033021）に合併し解散,2015-10-05,1,,,,,キンユウジャーナルシャ,0
1293,5010003041250,登記記録の閉鎖等,0,2025-04-14,2025-03-31,合同会社プロステージ,,合同会社,東京都,中央区,日本橋室町１丁目１１番１２号日本橋水野ビル７階,,13,102,1030022,,,2025-03-31,清算の結了等,,,2023-08-03,1,,,,,プロステージ,0
1298,5010401115473,登記記録の閉鎖等,0,2025-04-14,2025-03-17,株式会社サンバースト,,株式会社,東京都,港区,南青山３丁目１番３０号,,13,103,1070062,,,2025-03-17,清算の結了等,,,2015-10-05,1,,,,,サンバースト,0
1301,5010401148671,登記記録の閉鎖等,0,2025-04-14,2025-04-01,株式会社アート・オブ・コーチング,,株式会社,東京都,港区,南青山２丁目２番１５号ウィン青山１２１４号,,13,103,1070062,,,2025-04-01,清算の結了等,,,2019-10-17,1,,,,,アートオブコーチング,0
1313,5010403012082,登記記録の閉鎖等,0,2025-04-14,2025-03-19,合同会社ＪＲＥ相良村,,合同会社,東京都,港区,六本木６丁目２番３１号六本木ヒルズノースタワー１５階,,13,103,1060032,,,2025-03-19,清算の結了等,,,2015-10-05,1,,,,,ジェーアールイーサガラムラ,0
1319,5010502009211,登記記録の閉鎖等,0,2025-04-14,2025-03-31,有限会社早川商店,,有限会社,東京都,台東区,三筋２丁目１７番１号,,13,106,1110055,,,2025-03-31,清算の結了等,,,2015-10-05,1,,,,,,0
1357,5012301011901,登記記録の閉鎖等,0,2025-04-14,2025-04-01,株式会社メドムーブ,,株式会社,東京都,千代田区,麹町３丁目５番地４麹町インテリジェントビルＢ－１,,13,101,1020083,,,2025-04-01,清算の結了等,,,2019-11-05,1,,,,,メドムーブ,0
1359,5012803003396,登記記録の閉鎖等,0,2025-04-14,2025-03-31,合同会社ユーティリティ,,合同会社,東京都,立川市,西砂町６丁目６２番地の１１,,13,202,1900034,,,2025-03-31,清算の結了等,,,2024-05-17,1,,,,,ユーティリティ,0
1388,5030002051199,登記記録の閉鎖等,0,2025-04-14,2025-04-08,有限会社坂本機工,,有限会社,埼玉県,八潮市,大字木曽根字上１０８０番地１,,11,234,3400813,,,2025-04-08,清算の結了等,,,2015-10-05,1,,,,,サカモトキコウ,0
1398,5040001001567,登記記録の閉鎖等,0,2025-04-14,2025-04-01,株式会社ライジング,,株式会社,千葉県,八街市,八街ほ８１２番地３７,,12,230,2891115,,,2025-04-01,清算の結了等,,,2015-10-05,1,,,,,ライジング,0
1402,5040002023882,登記記録の閉鎖等,0,2025-04-14,2025-04-01,有限会社輝テクニカル,,有限会社,千葉県,船橋市,前原西５丁目１４番１２号,,12,204,2740825,,,2025-04-01,清算の結了等,,,2015-10-05,1,,,,,ヒカリテクニカル,0
1407,5050001017760,登記記録の閉鎖等,0,2025-04-14,2025-04-01,株式会社グルメアート,,株式会社,茨城県,つくば市,苅間３４９番地１３,,08,220,3050822,,,2025-04-01,清算の結了等,,,2015-10-05,1,,,,,グルメアート,0
1417,5090001007221,登記記録の閉鎖等,0,2025-04-14,2025-04-02,株式会社ｃｏｕｌｅｕｒ,,株式会社,山梨県,中巨摩郡昭和町,西条４１８２番地１６,,19,384,4093866,,,2025-04-02,清算の結了等,,,2015-10-05,1,,,,,クルール,0
1431,5120001008232,登記記録の閉鎖等,0,2025-04-14,2025-03-31,浪華絹綿株式会社,,株式会社,大阪府,大阪市都島区,毛馬町４丁目３番２６号,,27,102,5340001,,,2025-03-31,清算の結了等,,,2015-10-05,1,,,,,ナニワケンメン,0
1432,5120001019733,登記記録の閉鎖等,0,2025-04-14,2025-04-07,オーワン香辛食品株式会社,,株式会社,大阪府,大阪市平野区,加美南４丁目１番１１号,,27,126,5470003,,,2025-04-07,清算の結了等,,,2015-10-05,1,,,,,オーワンコウシンショクヒン,0
1444,5120001268603,登記記録の閉鎖等,0,2025-04-14,2025-03-31,ＣＵＲＥＺ株式会社,,株式会社,大阪府,大阪市淀川区,宮原１丁目１９－２３－８２５,,27,123,5320003,,,2025-03-31,清算の結了等,,,2024-09-13,1,,,,,キュアーズ,0
1445,5120001269907,登記記録の閉鎖等,0,2025-04-14,2025-04-07,株式会社あさひ・フィナンシャル・コンサルティング,,株式会社,大阪府,大阪市北区,梅田２丁目２番２号１８階,,27,127,5300001,,,2025-04-07,清算の結了等,,,2024-10-30,1,,,,,アサヒフィナンシャルコンサルティング,0
1467,5120101034731,登記記録の閉鎖等,0,2025-04-14,2025-04-04,ＳＫマネジメントサポート株式会社,,株式会社,大阪府,河内長野市,あかしあ台１丁目１４番８号,,27,216,5860095,,,2025-04-04,清算の結了等,,,2015-10-05,1,,,,,,0
1468,5120101043162,登記記録の閉鎖等,0,2025-04-14,2025-04-10,泉北高速鉄道株式会社,,株式会社,大阪府,和泉市,いぶき野５丁目１番１号,,27,219,5940041,,,2025-04-10,合併による解散等,6120001077499,令和７年４月１日大阪市中央区難波五丁目１番６０号南海電気鉄道株式会社（6120001077499）に合併し解散,2015-10-05,1,,,,,センボクコウソクテツドウ,0
1476,5120901031614,登記記録の閉鎖等,0,2025-04-14,2025-04-07,株式会社デプロ,,株式会社,大阪府,高槻市,城西町９番６号大和ビル２階,,27,207,5690065,,,2025-04-07,清算の結了等,,,2015-10-05,1,,,,,,0
1480,5120901046389,登記記録の閉鎖等,0,2025-04-14,2025-04-10,株式会社ＰＯＮＹＯＮＧ,,株式会社,大阪府,吹田市,江坂町２丁目２番９号１Ｆ,,27,205,5640063,,,2025-04-10,合併による解散等,3120901040963,令和７年４月１日大阪市住之江区泉二丁目１番８０号株式会社ｍｅｅｔ　ｕｐ（3120901040963）に合併し解散,2022-08-23,1,,,,,,0
1485,5122002009548,登記記録の閉鎖等,0,2025-04-14,2025-04-08,有限会社日興サービス,,有限会社,大阪府,東大阪市,菱江１丁目１５番４８号,,27,227,5780984,,,2025-04-08,清算の結了等,,,2015-10-05,1,,,,,ニッコウサービス,0
1488,5130001038930,登記記録の閉鎖等,0,2025-04-14,2025-04-09,吉兆味噌株式会社,00036369,株式会社,京都府,京田辺市,河原食田１０番地の９,,26,211,6100361,,,2025-04-09,清算の結了等,,,2015-10-05,1,,,,,キッチョウミソ,0
1489,5130001064786,登記記録の閉鎖等,0,2025-04-14,2025-04-09,株式会社東洞院美粧堂,,株式会社,京都府,京都市中京区,錦小路通東洞院東入西魚屋町６００番地Ｂｒｉｓｅビル４階,,26,104,6048142,,,2025-04-09,合併による解散等,2010401137784,令和７年４月１日東京都港区高輪３－２３－１４シャトー高輪３０５株式会社東洞院美粧堂（2010401137784）に合併し解散,2019-07-05,1,,,,,ヒガシノトウインビショウドウ,0
1499,5140001101720,登記記録の閉鎖等,0,2025-04-14,2025-04-09,株式会社ミヤビ．トランスポート,,株式会社,兵庫県,姫路市,四郷町見野５１１番地１０,,28,201,6710244,,,2025-04-09,清算の結了等,,,2016-04-14,1,,,,,ミヤビトランスポート,0
1509,5140005014241,登記記録の閉鎖等,0,2025-04-14,2025-03-31,天理教扇姫分教会,,その他の設立登記法人,兵庫県,姫路市,野里８３番地,,28,201,6700811,,,2025-03-31,合併による解散等,2140005001250,令和７年３月３１日神戸市須磨区若木町一丁目５番３号天理教扇南分教会（2140005001250）に合併し解散,2015-10-05,1,,,,,テンリキョウオオギヒメブンキョウカイ,0
1516,5160005009792,登記記録の閉鎖等,0,2025-04-14,2025-04-07,公益社団法人障害者雇用資格認定機構,,その他の設立登記法人,滋賀県,近江八幡市,土田町１３２５番地１,,25,204,5230082,,,2025-04-07,清算の結了等,,,2015-10-05,1,,,,,ショウガイシャコヨウシカクニンテイキコウ,0
1532,5180003025550,登記記録の閉鎖等,0,2025-04-14,2025-04-04,合同会社五常,,合同会社,静岡県,静岡市葵区,羽鳥７丁目４番５号,,22,101,4211215,,,2025-04-04,清算の結了等,,,2023-08-01,1,,,,,ゴジョウ,0
1541,5210002012579,登記記録の閉鎖等,0,2025-04-14,2025-04-07,有限会社アイ・エヌ・ジ調査設計,,有限会社,福井県,丹生郡越前町,朝日第７号６８番地の７,,18,423,9160146,,,2025-04-07,清算の結了等,,,2015-10-05,1,,,,,アイエヌジチョウサセッケイ,0
1542,5220003003329,登記記録の閉鎖等,0,2025-04-14,2025-04-08,合同会社ＴＵＲＮ　ＵＰ,,合同会社,石川県,加賀市,上河崎町１９０番地３,,17,206,9220013,,,2025-04-08,清算の結了等,,,2022-07-25,1,,,,,ターンアップ,0
1553,5260001030379,登記記録の閉鎖等,0,2025-04-14,2025-04-03,川崎商会株式会社,00108941,株式会社,岡山県,備前市,日生町日生８８９番地７,,33,211,7013204,,,2025-04-03,清算の結了等,,,2017-01-16,1,,,,,カワサキショウカイ,0
1557,5280002005097,登記記録の閉鎖等,0,2025-04-14,2025-04-07,有限会社飯塚自転車商会,,有限会社,島根県,出雲市,姫原町１２３番地２,,32,203,6930061,,,2025-04-07,清算の結了等,,,2015-10-05,1,,,,,イイツカジテンシャショウカイ,0
1558,5290001027612,登記記録の閉鎖等,0,2025-04-14,2025-03-31,株式会社ＨＹＳ,,株式会社,福岡県,福岡市南区,高宮５丁目１０－１８－１０２ロイヤルイン高宮,,40,134,8150083,,,2025-03-31,清算の結了等,,,2015-10-05,1,,,,,エイチワイエス,0
1559,5290001037009,登記記録の閉鎖等,0,2025-04-14,2025-03-31,高山商事株式会社,00137359,株式会社,福岡県,宗像市,吉留３６３９番地１,,40,220,8114153,,,2025-03-31,清算の結了等,,,2025-01-06,1,,,,,,0
1571,5290003009311,登記記録の閉鎖等,0,2025-04-14,2025-03-31,合同会社キウイ,,合同会社,福岡県,八女市,立花町白木５５８２番地,,40,210,8340084,,,2025-03-31,清算の結了等,,,2019-09-02,1,,,,,キウイ,0
1573,5290005003907,登記記録の閉鎖等,0,2025-04-14,2025-04-04,特定非営利活動法人健康ネット福岡,,その他の設立登記法人,福岡県,福岡市早良区,次郎丸１丁目１９番１７号,,40,137,8140165,,,2025-04-04,清算の結了等,,,2015-10-05,1,,,,,ケンコウネットフクオカ,0
1590,5340002007590,登記記録の閉鎖等,0,2025-04-14,2025-04-07,有限会社ハート・インプルーブ,,有限会社,鹿児島県,鹿児島市,山田町３４６２番地,,46,201,8910104,,,2025-04-07,清算の結了等,,,2015-10-05,1,,,,,ハートインプルーブ,0
1594,5380002023543,登記記録の閉鎖等,0,2025-04-14,2025-03-25,有限会社コスモ制御,,有限会社,福島県,いわき市,好間町中好間字下川原１２番地の８,,07,204,9701152,,,2025-03-25,清算の結了等,,,2015-10-05,1,,,,,コスモセイギョ,0
1603,5410001002981,登記記録の閉鎖等,0,2025-04-14,2025-04-01,秋田ジンクソリューションズ株式会社,,株式会社,秋田県,秋田市,飯島字砂田１番地,,05,201,0110911,,,2025-04-01,合併による解散等,4410001004517,令和７年４月１日秋田市飯島字古道下川端２１７番地９秋田製錬株式会社（4410001004517）に合併し解散,2015-10-05,1,,,,,アキタジンクソリューションズ,0
1620,5480002000796,登記記録の閉鎖等,0,2025-04-14,2025-04-03,有限会社大畠柔整サービス,,有限会社,徳島県,徳島市,伊月町２丁目３６番地,,36,201,7700935,,,2025-04-03,清算の結了等,,,2015-10-05,1,,,,,オオハタジュウセイサービス,0
1643,6010001145382,登記記録の閉鎖等,0,2025-04-14,2025-04-01,Ａｍｅｌｉａ　Ｊａｐａｎ株式会社,,株式会社,東京都,千代田区,平河町２丁目６番１号平河町ビル７階,,13,101,1020093,,,2025-04-01,清算の結了等,,,2015-10-05,1,,,,,アメリアジャパン,0
1646,6010001197903,登記記録の閉鎖等,0,2025-04-14,2025-03-26,株式会社ティーエフ・ワン,,株式会社,東京都,千代田区,大手町１丁目４番２号,,13,101,1000004,,,2025-03-26,清算の結了等,,,2019-01-21,1,,,,,ティーエフワン,0
1652,6010001226158,登記記録の閉鎖等,0,2025-04-14,2025-04-10,ＦＭホールディングス株式会社,,株式会社,東京都,千代田区,大手町１丁目１番１号,,13,101,1000004,,,2025-04-10,合併による解散等,9020001135553,令和７年３月３１日神奈川県横浜市港北区新横浜三丁目９番１号ＲＡＭＸＥＥＤ株式会社（9020001135553）に合併し解散,2022-04-28,1,,,,,エフエムホールディングス,0
1663,6010401111190,登記記録の閉鎖等,0,2025-04-14,2025-03-19,株式会社モバイルライフジャパン,,株式会社,東京都,港区,赤坂１丁目１２番３２号,,13,103,1070052,,,2025-03-19,合併による解散等,2010401060466,令和７年３月１日東京都港区赤坂一丁目１２番３２号株式会社インタラクティブ・コミュニケーション・デザイン（2010401060466）に合併し解散,2015-10-05,1,,,,,モバイルライフジャパン,0
1670,6010405022582,登記記録の閉鎖等,0,2025-04-14,2025-03-24,六甲ホールディングス一般社団法人,,その他の設立登記法人,東京都,港区,虎ノ門３丁目２２番１０－２０１号,,13,103,1050001,,,2025-03-24,清算の結了等,,,2023-10-13,1,,,,,ロッコウホールディングス,0
1721,6020001016839,登記記録の閉鎖等,0,2025-04-14,2025-04-02,株式会社扇屋酒店,,株式会社,神奈川県,横浜市鶴見区,潮田町３丁目１４２番地の９,,14,101,2300041,,,2025-04-02,清算の結了等,,,2015-10-05,1,,,,,オウギヤサケテン,0
1725,6020001118453,登記記録の閉鎖等,0,2025-04-14,2025-04-01,株式会社ブルースター,,株式会社,神奈川県,横浜市中区,太田町６丁目７９アブソルート横浜馬車道ビル３０４,,14,104,2310011,,,2025-04-01,合併による解散等,2020001107484,令和７年４月１日横浜市中区太田町６－７９アブソルート横浜馬車道ビル３０４株式会社センター（2020001107484）に合併し解散,2016-11-02,1,,,,,ブルースター,0
1728,6020002007606,登記記録の閉鎖等,0,2025-04-14,2025-04-03,有限会社ウィン,,有限会社,神奈川県,横浜市金沢区,谷津町４１１番地の２,,14,108,2360016,,,2025-04-03,清算の結了等,,,2015-10-05,1,,,,,ウィン,0
1731,6020005015853,登記記録の閉鎖等,0,2025-04-14,2025-04-11,一般社団法人歯科サポートサービスかながわ,,その他の設立登記法人,神奈川県,相模原市南区,新磯野１丁目８番地８号,,14,153,2520325,,,2025-04-11,清算の結了等,,,2023-02-22,1,,,,,シカサポートサービスカナガワ,0
1738,6021002006011,登記記録の閉鎖等,0,2025-04-14,2025-04-09,有限会社須藤電設,,有限会社,神奈川県,藤沢市,善行７丁目７番８－４０５号,,14,205,2510871,,,2025-04-09,清算の結了等,,,2015-10-05,1,,,,,スドウデンセツ,0
1750,6030002119078,登記記録の閉鎖等,0,2025-04-14,2025-04-07,有限会社相互企画,,有限会社,埼玉県,行田市,大字馬見塚６３９番地,,11,206,3610082,,,2025-04-07,清算の結了等,,,2015-10-05,1,,,,,ソウゴキカク,0
1765,6060001024177,登記記録の閉鎖等,0,2025-04-14,2025-04-03,成美工業株式会社,,株式会社,栃木県,栃木市,箱森町７番３３号,,09,203,3280075,,,2025-04-03,清算の結了等,,,2015-10-05,1,,,,,ナルミコウギョウ,0
1766,6070001026676,登記記録の閉鎖等,0,2025-04-14,2025-04-04,株式会社Ｔ・Ｆムラオカ,,株式会社,群馬県,太田市,新田木崎町１０３番地,,10,205,3700321,,,2025-04-04,清算の結了等,,,2015-10-05,1,,,,,,0
1778,6110001001914,登記記録の閉鎖等,0,2025-04-14,2025-04-01,コープエンジニアリング株式会社,,株式会社,新潟県,新潟市北区,太郎代１４４８番地３,,15,101,9503101,,,2025-04-01,合併による解散等,5110001002302,令和７年４月１日新潟市北区太郎代１４４８番地３ＫＣＡ　Ｌ＆Ｅ株式会社（5110001002302）に合併し解散,2015-10-05,1,,,,,コープエンジニアリング,0
1780,6120001015896,登記記録の閉鎖等,0,2025-04-14,2025-04-02,ネクスタパッケイ株式会社,,株式会社,大阪府,大阪市城東区,今福西３丁目２番２４号,,27,118,5360004,,,2025-04-02,合併による解散等,7120001015895,令和７年４月１日大阪市城東区今福西三丁目２番２４号ネクスタラッピイ株式会社（7120001015895）に合併し解散,2015-10-05,1,,,,,ネクスタパッケイ,0
1787,6120001180633,登記記録の閉鎖等,0,2025-04-14,2025-04-10,株式会社Ｙ＆ＫＭＳ,,株式会社,大阪府,大阪市淀川区,西中島７丁目１番３－４１４号,,27,123,5320011,,,2025-04-10,清算の結了等,,,2015-10-05,1,,,,,ワイアンドケイエムエス,0
1788,6120001228977,登記記録の閉鎖等,0,2025-04-14,2025-03-31,株式会社ＳＴＡＲＲＹ　ＳＫＹ,,株式会社,大阪府,枚方市,東香里２丁目２７番２１号３０１号室,,27,210,5730075,,,2025-03-31,清算の結了等,,,2020-05-14,1,,,,,,0
1819,6122002011098,登記記録の閉鎖等,0,2025-04-14,2025-04-07,有限会社カワグチ企画,,有限会社,大阪府,大東市,諸福２丁目４番１４号,,27,218,5740044,,,2025-04-07,清算の結了等,,,2015-10-05,1,,,,,カワグチキカク,0
1851,6180003024667,登記記録の閉鎖等,0,2025-04-14,2025-04-02,合同会社ＦＡＩ　ＰＡＣ　ＪＡＰＡＮ,,合同会社,愛知県,名古屋市西区,名西２丁目３４－２４,,23,104,4510064,,,2025-04-02,清算の結了等,,,2023-01-04,1,,,,,ファイパックジャパン,0
1856,6180301007794,登記記録の閉鎖等,0,2025-04-14,2025-04-04,丸山電子株式会社,,株式会社,愛知県,田原市,神戸町大坪１０番地１,,23,231,4413415,,,2025-04-04,清算の結了等,,,2015-10-05,1,,,,,マルヤマデンシ,0
1859,6180303002091,登記記録の閉鎖等,0,2025-04-14,2025-03-31,合資会社大幸製作所,,合資会社,愛知県,刈谷市,大正町７丁目２２５番地,,23,210,4480855,,,2025-03-31,清算の結了等,,,2015-10-05,1,,,,,タイコウセイサクショ,0
1862,6180305007246,登記記録の閉鎖等,0,2025-04-14,2025-04-03,医療法人高須皮膚科,,その他の設立登記法人,愛知県,西尾市,一色町味浜北乾地３６番地１,,23,213,4440422,,,2025-04-03,清算の結了等,,,2015-10-05,1,,,,,タカスヒフカ,0
1895,6290002002365,登記記録の閉鎖等,0,2025-04-14,2025-03-27,有限会社しの商会,,有限会社,福岡県,福岡市南区,折立町８番１２号,,40,134,8111303,,,2025-03-27,清算の結了等,,,2015-10-05,1,,,,,シノショウカイ,0
1901,6290002046107,登記記録の閉鎖等,0,2025-04-14,2025-04-01,有限会社吉田工務店,,有限会社,福岡県,飯塚市,上三緒３４６番地の７９,,40,205,8200013,,,2025-04-01,清算の結了等,,,2015-10-05,1,,,,,,0
1920,6370001000543,登記記録の閉鎖等,0,2025-04-14,2025-04-01,株式会社オーエムピー,,株式会社,宮城県,仙台市泉区,泉中央１丁目７番地の１,,04,105,9813133,,,2025-04-01,合併による解散等,4370001013217,令和７年４月１日仙台市泉区泉中央一丁目７番地の１シップヘルスケアファーマシー株式会社（4370001013217）に合併し解散,2015-10-05,1,,,,,オーエムピー,0
1921,6370001010245,登記記録の閉鎖等,0,2025-04-14,2025-04-01,株式会社ホームワード,,株式会社,宮城県,仙台市青葉区,本町１丁目１０番１２号,,04,101,9800014,,,2025-04-01,合併による解散等,9370001007313,令和７年４月１日仙台市青葉区本町一丁目１０番１２号株式会社ＧＯＯＤ　ＬＩＦＥ　ＷＯＲＫＳ（9370001007313）に合併し解散,2015-10-05,1,,,,,ホームワード,0
1925,6370202003618,登記記録の閉鎖等,0,2025-04-14,2025-04-01,有限会社秋保左官店,,有限会社,宮城県,加美郡加美町,字新小路１８０番地の１,,04,445,9814335,,,2025-04-01,清算の結了等,,,2015-10-05,1,,,,,アキホサカンテン,0
1927,6380001007199,登記記録の閉鎖等,0,2025-04-14,2025-03-18,ソニーエナジー・デバイス株式会社,,株式会社,東京都,港区,港南１丁目７番１号,,13,103,1080075,,,2025-03-18,清算の結了等,,,2015-10-05,1,,,,,ソニーエナジーデバイス,0
1952,6480001011397,登記記録の閉鎖等,0,2025-04-14,2025-04-03,あいいろ企画株式会社,,株式会社,徳島県,小松島市,大林町字岩戸１８－３３,,36,203,7730022,,,2025-04-03,清算の結了等,,,2021-06-22,1,,,,,アイイロキカク,0
1953,6480002008839,登記記録の閉鎖等,0,2025-04-14,2025-04-03,有限会社シルク,,有限会社,徳島県,徳島市,住吉１丁目６番１０号,,36,201,7700861,,,2025-04-03,清算の結了等,,,2015-10-05,1,,,,,シルク,0
1955,6490001010588,登記記録の閉鎖等,0,2025-04-14,2025-04-10,株式会社セイシン,,株式会社,高知県,高知市,介良４１０番地,,39,201,7815104,,,2025-04-10,清算の結了等,,,2023-09-12,1,,,,,セイシン,0
1976,7010001197902,登記記録の閉鎖等,0,2025-04-14,2025-03-26,株式会社ティーエフ・ツー,,株式会社,東京都,千代田区,大手町１丁目４番２号,,13,101,1000004,,,2025-03-26,清算の結了等,,,2019-01-21,1,,,,,ティーエフツー,0
1979,7010001225670,登記記録の閉鎖等,0,2025-04-14,2025-04-04,株式会社ＵＰ　ＳＰＩＣＥ,,株式会社,東京都,千代田区,外神田５丁目１番５号ＡＣＮ秋葉原ＰＬＡＣＥ８階,,13,101,1010021,,,2025-04-04,合併による解散等,9120001109596,令和７年４月１日大阪市東成区東小橋三丁目８番９号株式会社ウィズオノウェア（9120001109596）に合併し解散,2022-04-11,1,,,,,アップスパイス,0
1993,7010401171696,登記記録の閉鎖等,0,2025-04-14,2025-03-21,株式会社グロース,,株式会社,東京都,港区,新橋６丁目４番３－４１２号,,13,103,1050004,,,2025-03-21,清算の結了等,,,2023-01-10,1,,,,,グロース,0
2006,7010601042004,登記記録の閉鎖等,0,2025-04-14,2025-03-21,株式会社アピロス,,株式会社,東京都,港区,白金台５丁目３番６号,,13,103,1080071,,,2025-03-21,清算の結了等,,,2015-10-05,1,,,,,アピロス,0
2008,7010701027417,登記記録の閉鎖等,0,2025-04-14,2025-03-27,タグリ工業株式会社,,株式会社,東京都,品川区,大井７丁目１９番１９号,,13,109,1400014,,,2025-03-27,清算の結了等,,,2015-10-05,1,,,,,タグリコウギョウ,0
2017,7010905004170,登記記録の閉鎖等,0,2025-04-14,2025-04-07,一般社団法人光のサイエンス協会,,その他の設立登記法人,東京都,世田谷区,玉川１丁目５番８号,,13,112,1580094,,,2025-04-07,清算の結了等,,,2021-07-12,1,,,,,ヒカリノサイエンスキョウカイ,0
2037,7011101082639,登記記録の閉鎖等,0,2025-04-14,2025-03-27,ＰＳＣＰ株式会社,,株式会社,東京都,品川区,東五反田１丁目２０番７号,,13,109,1410022,,,2025-03-27,清算の結了等,,,2017-12-21,1,,,,,ピイーエスシーピー,0
2051,7011801041101,登記記録の閉鎖等,0,2025-04-14,2025-04-01,株式会社ｒａｍｓ　ｈｅａｄ,,株式会社,東京都,文京区,小石川２丁目２５－１６,,13,105,1120002,,,2025-04-01,清算の結了等,,,2022-08-09,1,,,,,ラムズヘッド,0
2061,7020001014833,登記記録の閉鎖等,0,2025-04-14,2025-04-01,サンアクセス株式会社,,株式会社,神奈川県,横浜市神奈川区,金港町１番地７,,14,102,2210056,,,2025-04-01,合併による解散等,9020001024186,令和７年４月１日神奈川県横浜市神奈川区金港町１番地７株式会社パシオン（9020001024186）に合併し解散,2015-10-05,1,,,,,サンアクセス,0
2064,7020001109872,登記記録の閉鎖等,0,2025-04-14,2025-04-01,株式会社小玉屋,,株式会社,神奈川県,横浜市青葉区,鴨志田町５４４番地９,,14,117,2270033,,,2025-04-01,合併による解散等,5020001061101,令和７年４月１日横浜市都筑区茅ケ崎中央３番１号コダマホールディングス株式会社（5020001061101）に合併し解散,2015-10-05,1,,,,,コダマヤ,0
2070,7020003000278,登記記録の閉鎖等,0,2025-04-14,2025-04-03,本郷企画合名会社,,合名会社,神奈川県,横浜市金沢区,釜利谷東２丁目２番２２号,,14,108,2360042,,,2025-04-03,清算の結了等,,,2015-10-05,1,,,,,ホンゴウキカク,0
2084,7030001159693,登記記録の閉鎖等,0,2025-04-14,2025-04-07,株式会社リリアン,,株式会社,埼玉県,春日部市,大沼４丁目４３番地２－６０４号,,11,214,3440038,,,2025-04-07,清算の結了等,,,2024-04-08,1,,,,,リリアン,0
2086,7030002006267,登記記録の閉鎖等,0,2025-04-14,2025-04-07,有限会社更級屋,,有限会社,埼玉県,さいたま市大宮区,仲町２丁目４９番地,,11,103,3300845,,,2025-04-07,清算の結了等,,,2015-10-05,1,,,,,サラシナヤ,0
2089,7030002085294,登記記録の閉鎖等,0,2025-04-14,2025-04-09,有限会社大内食品,,有限会社,埼玉県,越谷市,神明町２丁目３８１番地３,,11,222,3430805,,,2025-04-09,清算の結了等,,,2015-10-05,1,,,,,オオウチショクヒン,0
2108,7080001012088,登記記録の閉鎖等,0,2025-04-14,2025-04-03,株式会社フォーユー２９,,株式会社,静岡県,静岡市駿河区,八幡３丁目５番１７号,,22,102,4228076,,,2025-04-03,合併による解散等,7080001000448,令和７年４月１日静岡市駿河区八幡三丁目５番１７号株式会社インテック（7080001000448）に合併し解散,2015-10-05,1,,,,,フォーユーニーキュー,0
2109,7080001012773,登記記録の閉鎖等,0,2025-04-14,2025-04-04,株式会社伊東商店,,株式会社,静岡県,静岡市清水区,西久保１丁目１１番１８号,,22,103,4240038,,,2025-04-04,清算の結了等,,,2015-10-05,1,,,,,イトウショウテン,0
2112,7080405000523,登記記録の閉鎖等,0,2025-04-14,2025-04-11,協同組合浜松三新工業団地,,その他の設立登記法人,静岡県,浜松市中央区,三新町５０５番地１,,22,138,4300833,,,2025-04-11,清算の結了等,,,2015-10-05,1,,,,,ハママツサンシンコウギョウダンチ,0
2117,7100001025509,登記記録の閉鎖等,0,2025-04-14,2025-04-09,株式会社御嶽リゾート,,株式会社,長野県,木曽郡王滝村,３１６２番地,,20,429,3970201,,,2025-04-09,合併による解散等,4160001012297,令和７年４月１日兵庫県養父市丹戸８９６番地の２株式会社マックアース（4160001012297）に合併し解散,2015-10-05,1,,,,,オンタケリゾート,0
2125,7120001037122,登記記録の閉鎖等,0,2025-04-14,2025-03-31,株式会社アサヒ総本店,,株式会社,愛知県,名古屋市中区,丸の内２丁目１３番１６号－２,,23,106,4600002,,,2025-03-31,合併による解散等,9180001154629,令和７年３月３１日名古屋市中区丸の内二丁目１３番１６号－２ＳＩＶＡホールディングス株式会社（9180001154629）に合併し解散,2015-10-05,1,,,,,アサヒソウホンテン,0
2127,7120001173289,登記記録の閉鎖等,0,2025-04-14,2025-04-10,株式会社ジャガーインターナショナルコーポレーション,,株式会社,大阪府,守口市,佐太東町２丁目６番８号,,27,209,5700017,,,2025-04-10,清算の結了等,,,2015-10-05,1,,,,,ジャガーインターナショナルコーポレーション,0
2149,7120002055874,登記記録の閉鎖等,0,2025-04-14,2025-04-04,清城興産有限会社,,有限会社,大阪府,大阪市生野区,巽北１丁目２０番２６号,00031129,27,116,5440004,,,2025-04-04,清算の結了等,,,2015-10-05,1,,,,,セイジョウコウサン,0
2152,7120101003684,登記記録の閉鎖等,0,2025-04-14,2025-04-10,泉陽ディーゼル株式会社,,株式会社,大阪府,堺市西区,浜寺石津町西１丁４番５号,,27,144,5928333,,,2025-04-10,合併による解散等,2120901008185,令和７年４月１日大阪府吹田市西御旅町７番７１号株式会社フジ技工（2120901008185）に合併し解散,2015-10-05,1,,,,,センヨウディーゼル,0
2159,7120901034103,登記記録の閉鎖等,0,2025-04-14,2025-04-10,株式会社テクニカルワールド,,株式会社,大阪府,摂津市,鳥飼中２丁目２番６８号,,27,224,5660064,,,2025-04-10,清算の結了等,,,2015-10-05,1,,,,,,0
2163,7140001100984,登記記録の閉鎖等,0,2025-04-14,2025-04-09,株式会社ヘレナ,,株式会社,兵庫県,神戸市中央区,加納町２丁目９番２号,,28,110,6500001,,,2025-04-09,清算の結了等,,,2016-02-10,1,,,,,ヘレナ,0
2169,7140002040882,登記記録の閉鎖等,0,2025-04-14,2025-04-08,有限会社コマ屋商店,,有限会社,兵庫県,尼崎市,神田中通３丁目３８番地,,28,202,6600884,,,2025-04-08,清算の結了等,,,2015-10-05,1,,,,,コマヤショウテン,0
2171,7140002054692,登記記録の閉鎖等,0,2025-04-14,2025-04-09,有限会社角勝建材,,有限会社,兵庫県,三田市,三輪１丁目４番１８号,,28,219,6691513,,,2025-04-09,清算の結了等,,,2015-10-05,1,,,,,,0
2174,7140002068635,登記記録の閉鎖等,0,2025-04-14,2025-04-09,有限会社育恵アーニス,,有限会社,兵庫県,伊丹市,荒牧５丁目９番４号,,28,207,6640001,,,2025-04-09,清算の結了等,,,2015-10-05,1,,,,,イクエアーニス,0
2195,7190001020889,登記記録の閉鎖等,0,2025-04-14,2025-03-31,株式会社さくら,,株式会社,愛知県,名古屋市中川区,下之一色町字松蔭３丁目９番地,,23,110,4540945,,,2025-03-31,清算の結了等,,,2015-10-05,1,,,,,サクラ,0
2200,7200002013964,登記記録の閉鎖等,0,2025-04-14,2025-04-07,有限会社他田電気,,有限会社,岐阜県,養老郡養老町,大坪１６２番地,,21,341,5031302,,,2025-04-07,清算の結了等,,,2015-10-05,1,,,,,タダデンキ,0
2202,7210001008824,登記記録の閉鎖等,0,2025-04-14,2025-04-03,株式会社福福交通,,株式会社,福井県,福井市,高木中央２丁目４１１０番地レジレンスＭＡＫＩ１階,,18,201,9100804,,,2025-04-03,清算の結了等,,,2015-10-05,1,,,,,フクフクコウツウ,0
2212,7230001010522,登記記録の閉鎖等,0,2025-04-14,2025-04-08,東新自動車工業株式会社,,株式会社,富山県,高岡市,吉久１丁目２番３６号,,16,202,9330002,,,2025-04-08,清算の結了等,,,2015-10-05,1,,,,,トウシンジドウシャコウギョウ,0
2219,7240001055450,登記記録の閉鎖等,0,2025-04-14,2025-03-31,株式会社ＲＥＧＩＯＮＯ,,株式会社,広島県,福山市,木之庄町４丁目５番２５号,,34,207,7200082,,,2025-03-31,清算の結了等,,,2020-01-06,1,,,,,レギオーノ,0
2236,7290001077275,登記記録の閉鎖等,0,2025-04-14,2025-04-01,株式会社ＦＫＫファームかほ,,株式会社,福岡県,嘉麻市,大力１００３番地４,,40,227,8200333,,,2025-04-01,合併による解散等,7290001077572,令和７年４月１日福岡県嘉麻市牛隈１４１２番地４株式会社ＦＫＫファーム（7290001077572）に合併し解散,2017-04-03,1,,,,,エフケイケイファームカホ,0
2246,7290002047260,登記記録の閉鎖等,0,2025-04-14,2025-03-31,有限会社青春ファームきしかわ,,有限会社,福岡県,八女市,黒木町大淵４４８０番地の２,,40,210,8341202,,,2025-03-31,清算の結了等,,,2015-10-05,1,,,,,セイシュンファームキシカワ,0
2267,7410001000315,登記記録の閉鎖等,0,2025-04-14,2025-04-01,秋田総合リース株式会社,,株式会社,秋田県,秋田市,川尻大川町９番４８号,,05,201,0100942,,,2025-04-01,合併による解散等,8410001001139,令和７年４月１日秋田市川尻大川町９番４８号コマツ秋田株式会社（8410001001139）に合併し解散,2015-10-05,1,,,,,アキタソウゴウリース,0
2273,7430001020195,登記記録の閉鎖等,0,2025-04-14,2025-04-01,札幌トヨペット株式会社,,株式会社,北海道,札幌市豊平区,月寒東一条１４丁目１番１号,,01,105,0620051,,,2025-04-01,合併による解散等,5430001012450,令和７年４月１日札幌市豊平区美園三条六丁目３番１０号ＡＧＨトヨタ札幌株式会社（5430001012450）に合併し解散,2015-10-05,1,,,,,サッポロトヨペット,0
2281,7470002004680,登記記録の閉鎖等,0,2025-04-14,2025-04-03,有限会社筒井商会,,有限会社,香川県,高松市,木太町３１０４番地の３,,37,201,7600080,,,2025-04-03,清算の結了等,,,2015-10-05,1,,,,,ツツイショウカイ,0
2283,7490001002139,登記記録の閉鎖等,0,2025-04-14,2025-04-01,株式会社メディア・エーシー,,株式会社,高知県,高知市,杉井流８番１号,,39,201,7800072,,,2025-04-01,合併による解散等,1490001007374,令和７年４月１日高知市北本町一丁目１０番２８号株式会社ａｄｅａｒ（1490001007374）に合併し解散,2015-10-05,1,,,,,メディアエーシー,0
2288,7500002004248,登記記録の閉鎖等,0,2025-04-14,2025-04-09,有限会社高本工業,,有限会社,愛媛県,松山市,福角町甲４８４番地１,,38,201,7992652,,,2025-04-09,清算の結了等,,,2015-10-05,1,,,,,タカモトコウギョウ,0
2306,8010001164876,登記記録の閉鎖等,0,2025-04-14,2025-03-31,ＬＵＮＡ　Ｐｉｃｔｕｒｅｓ　Ｓｔｕｄｉｏ株式会社,,株式会社,東京都,千代田区,岩本町２丁目１１番１号,,13,101,1010032,,,2025-03-31,清算の結了等,,,2015-10-05,1,,,,,ルナピクチャーズスタジオ,0
2323,8010403019827,登記記録の閉鎖等,0,2025-04-14,2025-03-21,ワイ＆アイホールディングス合同会社,,合同会社,東京都,港区,元赤坂１丁目２番７号,,13,103,1070051,,,2025-03-21,清算の結了等,,,2018-12-17,1,,,,,ワイアンドアイホールディングス,0
2325,8010405011947,登記記録の閉鎖等,0,2025-04-14,2025-03-19,一般社団法人エアバンク九州,,その他の設立登記法人,東京都,港区,六本木１丁目６番１号,,13,103,1060032,,,2025-03-19,清算の結了等,,,2015-10-05,1,,,,,エアバンクキュウシュウ,0
2351,8011203003954,登記記録の閉鎖等,0,2025-04-14,2025-04-09,合同会社ＳＧＩＮ,,合同会社,東京都,中野区,中野５丁目５８番９号ソシアルビル山田２０１,,13,114,1640001,,,2025-04-09,清算の結了等,,,2022-11-30,1,,,,,エスジーアイエヌ,0
2376,8020002021563,登記記録の閉鎖等,0,2025-04-14,2025-03-31,有限会社ジヤパンアート,,有限会社,神奈川県,横浜市旭区,都岡町７５番地,,14,112,2410805,,,2025-03-31,清算の結了等,,,2015-10-05,1,,,,,ジヤパンアート,0
2382,8021001060478,登記記録の閉鎖等,0,2025-04-14,2025-04-01,株式会社麺ｓエンジョイ,,株式会社,神奈川県,平塚市,東豊田４８０番地の６２,,14,203,2540082,,,2025-04-01,合併による解散等,6021001036075,令和７年４月１日神奈川県平塚市宝町１２番１号株式会社麻生（6021001036075）に合併し解散,2016-10-20,1,,,,,メンズエンジョイ,0
2386,8030001029516,登記記録の閉鎖等,0,2025-04-14,2025-04-07,フジトレーディング株式会社,,株式会社,埼玉県,所沢市,有楽町１６番８号,,11,208,3591117,,,2025-04-07,清算の結了等,,,2015-10-05,1,,,,,フジトレーディング,0
2389,8030001073225,登記記録の閉鎖等,0,2025-04-14,2025-03-26,株式会社なかの,,株式会社,東京都,港区,芝浦４丁目５番４号,,13,103,1080023,,,2025-03-26,清算の結了等,,,2015-10-05,1,,,,,ナカノ,0
2392,8030001151765,登記記録の閉鎖等,0,2025-04-14,2025-04-07,株式会社医修館,,株式会社,埼玉県,鶴ヶ島市,大字上広谷３８２番地１－２０２号,,11,241,3502203,,,2025-04-07,清算の結了等,,,2023-01-11,1,,,,,イシュウカン,0
2406,8040001087629,登記記録の閉鎖等,0,2025-04-14,2025-04-01,株式会社東葛ボディーファクトリー,00019594,株式会社,千葉県,松戸市,小金きよしケ丘３丁目２１番地の１,,12,207,2700013,,,2025-04-01,合併による解散等,8040001039902,令和７年４月１日千葉県松戸市小金きよしケ丘三丁目２１番地の１株式会社ホンダカーズ東葛（8040001039902）に合併し解散,2015-10-05,1,,,,,トウカツボディーファクトリー,0
2418,8060001000507,登記記録の閉鎖等,0,2025-04-14,2025-04-07,北関東ヒノデサービス販売株式会社,,株式会社,栃木県,宇都宮市,城南２丁目４番１１号,,09,201,3210117,,,2025-04-07,合併による解散等,9040001000061,令和７年４月１日東京都日野市旭が丘六丁目１１番地の８ヒノデサービス販売株式会社（9040001000061）に合併し解散,2015-10-05,1,,,,,キタカントウヒノデサービスハンバイ,0
2432,8080405006684,登記記録の閉鎖等,0,2025-04-14,2025-04-02,特定非営利活動法人岩井里山の会,,その他の設立登記法人,静岡県,磐田市,岩井１３９８番地,,22,211,4380016,,,2025-04-02,清算の結了等,,,2015-10-05,1,,,,,イワイサトヤマノカイ,0
2472,8122001000455,登記記録の閉鎖等,0,2025-04-14,2025-04-08,イシバシテック株式会社,,株式会社,大阪府,東大阪市,横枕西１番１３－６０３号,,27,227,5780956,,,2025-04-08,清算の結了等,,,2015-10-05,1,,,,,イシバシテック,0
2477,8140001008153,登記記録の閉鎖等,0,2025-04-14,2025-04-03,シンエービジネス株式会社,,株式会社,兵庫県,神戸市東灘区,渦森台４丁目１６番４号,,28,101,6580066,,,2025-04-03,清算の結了等,,,2015-10-05,1,,,,,シンエービジネス,0
2494,8180001067195,登記記録の閉鎖等,0,2025-04-14,2025-04-01,株式会社ハートランド,,株式会社,愛知県,豊田市,住吉町１丁目１５番１１号,,23,211,4730905,,,2025-04-01,合併による解散等,8180301019185,令和７年４月１日愛知県豊田市住吉町一丁目１５番１１号富士開発株式会社（8180301019185）に合併し解散,2015-10-05,1,,,,,ハートランド,0
2496,8180001130300,登記記録の閉鎖等,0,2025-04-14,2025-03-31,株式会社ナットソーラーマネジメント,,株式会社,愛知県,名古屋市中村区,靖国町２丁目１１０番地の３,,23,105,4530065,,,2025-03-31,合併による解散等,7180001126893,令和７年３月３１日名古屋市中村区靖国町二丁目１１０番地の３株式会社ナットアセットマネジメント（7180001126893）に合併し解散,2017-12-05,1,,,,,ナットソーラーマネジメント,0
2511,8190002001813,登記記録の閉鎖等,0,2025-04-14,2025-04-03,有限会社岡山物産,,有限会社,三重県,津市,久居明神町１１８０番地,,24,201,5141101,,,2025-04-03,清算の結了等,,,2015-10-05,1,,,,,オカヤマブッサン,0
2518,8220002015669,登記記録の閉鎖等,0,2025-04-14,2025-03-31,有限会社風傍,,有限会社,石川県,鳳珠郡穴水町,字根木イの１番地１,,17,461,9270037,,,2025-03-31,清算の結了等,,,2015-10-05,1,,,,,,0
2559,8290802019094,登記記録の閉鎖等,0,2025-04-14,2025-04-10,有限会社山光園,,有限会社,福岡県,北九州市戸畑区,新池１丁目３番７号,,40,105,8040082,,,2025-04-10,清算の結了等,,,2015-10-05,1,,,,,サンコウエン,0
2564,8320001005363,登記記録の閉鎖等,0,2025-04-14,2025-04-08,株式会社オフィス・聖一,,株式会社,大分県,大分市,王子西町４番１－１４０２号,,44,201,8700008,,,2025-04-08,清算の結了等,,,2015-10-05,1,,,,,オフィスセイイチ,0
2574,8340002006350,登記記録の閉鎖等,0,2025-04-14,2025-04-10,株式会社鶴丸調剤薬局,,株式会社,鹿児島県,鹿児島市,田上台３丁目１６番８号,,46,201,8900036,,,2025-04-10,合併による解散等,3290001036375,令和７年４月１日福岡県糟屋郡新宮町緑ケ浜四丁目１７番２２号株式会社なの花九州（3290001036375）に合併し解散,2015-10-05,1,,,,,ツルマルチョウザイヤッキョク,0
2575,8350001007332,登記記録の閉鎖等,0,2025-04-14,2025-04-09,旭化成エヌエスエネルギー株式会社,,株式会社,宮崎県,延岡市,旭町４丁目３４００番地１,,45,203,8820847,,,2025-04-09,合併による解散等,5120001059606,令和７年４月１日東京都千代田区有楽町一丁目１番２号旭化成株式会社（5120001059606）に合併し解散,2015-10-05,1,,,,,アサヒカセイエヌエスエネルギー,0
2589,8420001015030,登記記録の閉鎖等,0,2025-04-14,2025-04-09,株式会社アサヒ建築塗装,,株式会社,青森県,青森市,久須志２丁目１０番１１号,,02,201,0380013,,,2025-04-09,清算の結了等,,,2016-01-06,1,,,,,アサヒケンチクトソウ,0
2601,8500001020261,登記記録の閉鎖等,0,2025-04-14,2025-04-09,株式会社やました真珠,,株式会社,愛媛県,宇和島市,吉田町白浦外５７３番地,,38,203,7993741,,,2025-04-09,清算の結了等,,,2016-12-09,1,,,,,ヤマシタシンジュ,0
2609,9010001073639,登記記録の閉鎖等,0,2025-04-14,2025-04-02,シャーロック株式会社,,株式会社,東京都,中央区,日本橋３丁目１番８号,,13,102,1030027,,,2025-04-02,清算の結了等,,,2015-10-05,1,,,,,シャーロック,0
2611,9010001116827,登記記録の閉鎖等,0,2025-04-14,2025-03-31,株式会社ＮｅＮｅ,,株式会社,東京都,千代田区,岩本町２丁目１１番１号,,13,101,1010032,,,2025-03-31,清算の結了等,,,2015-10-05,1,,,,,ネネ,0
2614,9010001137583,登記記録の閉鎖等,0,2025-04-14,2025-04-01,株式会社日建ハウジングシステム,,株式会社,東京都,文京区,後楽１丁目４番２７号,,13,105,1120004,,,2025-04-01,合併による解散等,9010001006111,令和７年４月１日東京都千代田区飯田橋二丁目１８番３号株式会社日建設計（9010001006111）に合併し解散,2015-10-05,1,,,,,ニッケンハウジングシステム,0
2626,9010003027428,登記記録の閉鎖等,0,2025-04-14,2025-03-31,合同会社モモカンジ,,合同会社,東京都,文京区,本駒込５丁目３５番８号,,13,105,1130021,,,2025-03-31,清算の結了等,,,2018-05-01,1,,,,,モモカンジ,0
2630,9010102008386,登記記録の閉鎖等,0,2025-04-14,2025-04-09,有限会社Ｎ,,有限会社,東京都,八王子市,椚田町５２８番地の２,,13,201,1930942,,,2025-04-09,清算の結了等,,,2015-10-05,1,,,,,,0
2638,9010401158659,登記記録の閉鎖等,0,2025-04-14,2025-03-31,株式会社Ｈａｋｕｈｏｄｏ　ＤＹ　Ｍａｔｒｉｘ,,株式会社,東京都,港区,芝２丁目１４番５号,,13,103,1050014,,,2025-03-31,清算の結了等,,,2021-03-09,1,,,,,ハクホウドウディーワイマトリックス,0
2690,9012401011723,登記記録の閉鎖等,0,2025-04-14,2025-04-01,株式会社ヒーロー,,株式会社,東京都,国立市,東１丁目１５番３０号第５ビル３階,,13,215,1860002,,,2025-04-01,合併による解散等,7011101043649,令和７年３月１日千葉県安房郡鋸南町大六１０３２株式会社Ｒ．ｐｒｏｊｅｃｔ（7011101043649）に合併し解散,2015-10-05,1,,,,,ヒーロー,0
2694,9013102006021,登記記録の閉鎖等,0,2025-04-14,2025-04-04,有限会社小峯工務店,,有限会社,東京都,青梅市,今井２丁目１０８６番地の４,,13,205,1980023,,,2025-04-04,清算の結了等,,,2015-10-05,1,,,,,コミネコウムテン,0
2719,9021001038309,登記記録の閉鎖等,0,2025-04-14,2025-04-01,株式会社エンジョイフーズ,,株式会社,神奈川県,平塚市,東豊田４８０番地の６２,,14,203,2540082,,,2025-04-01,合併による解散等,6021001036075,令和７年４月１日神奈川県平塚市宝町１２番１号株式会社麻生（6021001036075）に合併し解散,2015-10-05,1,,,,,エンジョイフーズ,0
2720,9021001040925,登記記録の閉鎖等,0,2025-04-14,2025-04-04,橋場商事株式会社,,株式会社,神奈川県,横須賀市,上町２丁目４７番地,,14,201,2380017,,,2025-04-04,清算の結了等,,,2015-10-05,1,,,,,ハシバショウジ,0
2732,9030002063406,登記記録の閉鎖等,0,2025-04-14,2025-04-07,有限会社東京モダンデンタルユニオン,,有限会社,埼玉県,富士見市,針ケ谷２丁目８番地１０,,11,235,3540017,,,2025-04-07,清算の結了等,,,2015-10-05,1,,,,,トウキョウモダンデンタルユニオン,0
2752,9080001026573,登記記録の閉鎖等,0,2025-04-14,2025-04-04,株式会社静岡双健,,株式会社,静岡県,静岡市駿河区,用宗４丁目３番８号,,22,102,4210122,,,2025-04-04,清算の結了等,,,2024-11-14,1,,,,,シズオカソウケン,0
2756,9100001005120,登記記録の閉鎖等,0,2025-04-14,2025-04-01,株式会社長野ムトウ,,株式会社,長野県,長野市,合戦場３丁目９５番地,,20,201,3888008,,,2025-04-01,合併による解散等,1100001018798,令和７年４月１日長野県諏訪市大字中洲字三ッ俣５７０９番地３１株式会社ハトヤ・ムトウ（1100001018798）に合併し解散,2015-10-05,1,,,,,ナガノムトウ,0
2758,9100002030175,登記記録の閉鎖等,0,2025-04-14,2025-04-07,茅野食品有限会社,,有限会社,長野県,茅野市,仲町１４番１１号,,20,214,3910005,,,2025-04-07,清算の結了等,,,2015-10-05,1,,,,,チノショクヒン,0
2759,9110001032246,登記記録の閉鎖等,0,2025-04-14,2025-04-01,株式会社アークＨ．Ｄ,,株式会社,新潟県,長岡市,西千手１丁目１番１号,,15,202,9400086,,,2025-04-01,合併による解散等,2010401171206,令和７年４月１日新潟県長岡市西千手一丁目１番１号株式会社アスプロ（2010401171206）に合併し解散,2017-03-21,1,,,,,アークホールディングス,0
2769,9120001264549,登記記録の閉鎖等,0,2025-04-14,2025-03-03,株式会社娯楽倶楽部,,株式会社,大阪府,大阪市城東区,成育１丁目８番２３号Ｆｌｏｗｅｒｓ・花２０２,,27,118,5360007,,,2025-03-03,清算の結了等,,,2024-05-15,1,,,,,ゴラククラブ,0
2800,9140001095769,登記記録の閉鎖等,0,2025-04-14,2025-04-08,株式会社さかうえ保険企画,,株式会社,兵庫県,宍粟市,山崎町須賀沢５３８番地３０,,28,227,6712533,,,2025-04-08,清算の結了等,,,2015-10-05,1,,,,,サカウエホケンキカク,0
2806,9140003019619,登記記録の閉鎖等,0,2025-04-14,2025-04-08,愛本合同会社,,合同会社,兵庫県,加西市,北条町北条１０００番地,,28,220,6752312,,,2025-04-08,清算の結了等,,,2023-10-06,1,,,,,アイホン,0
2809,9150001019974,登記記録の閉鎖等,0,2025-04-14,2025-04-04,ＫＹＬＡＳ　Ｉｎｔｅｒｎａｔｉｏｎａｌ株式会社,,株式会社,奈良県,磯城郡三宅町,大字屏風４４０番地の８８,,29,362,6360217,,,2025-04-04,清算の結了等,,,2015-10-05,1,,,,,カイラスインターナショナル,0
2815,9180001128756,登記記録の閉鎖等,0,2025-04-14,2025-03-31,株式会社ジョブスイッチ,,株式会社,東京都,千代田区,鍛冶町２丁目１０－４神田奥野ビル４Ｆ,,13,101,1010044,,,2025-03-31,清算の結了等,,,2017-07-26,1,,,,,ジョブスイッチ,0
2833,9200001007296,登記記録の閉鎖等,0,2025-04-14,2025-04-01,大通商事株式会社,,株式会社,岐阜県,各務原市,各務おがせ町９丁目２６０番地,,21,213,5090104,,,2025-04-01,合併による解散等,1200001007345,令和７年４月１日岐阜県各務原市各務おがせ町九丁目２６０番地鳥羽工産株式会社（1200001007345）に合併し解散,2015-10-05,1,,,,,ダイツウショウジ,0
2854,9270002010037,登記記録の閉鎖等,0,2025-04-14,2025-04-10,有限会社小山商事,,有限会社,鳥取県,倉吉市,幸町４６１番地,,31,203,6820807,,,2025-04-10,清算の結了等,,,2015-10-05,1,,,,,コヤマショウジ,0
2868,9290002006149,登記記録の閉鎖等,0,2025-04-14,2025-03-31,牟田商事有限会社,,有限会社,福岡県,福岡市東区,香住ケ丘２丁目２８番１０号,,40,131,8130003,,,2025-03-31,清算の結了等,,,2015-10-05,1,,,,,ムタショウジ,0
2876,9290801026974,登記記録の閉鎖等,0,2025-04-14,2025-04-01,株式会社農業法人サンビレッジ,,株式会社,福岡県,行橋市,大字中津熊４６６番地１,,40,213,8240063,,,2025-04-01,合併による解散等,1290801015984,令和７年４月１日福岡県行橋市大字中津熊４６６番地１株式会社ビレッジフィールド（1290801015984）に合併し解散,2020-11-20,1,,,,,ノウギョウホウジンサンビレッジ,0
2906,9420002008841,登記記録の閉鎖等,0,2025-04-14,2025-04-07,有限会社マルヤ製菓,,有限会社,青森県,八戸市,大字尻内町字尻内河原１０番地５,,02,203,0391101,,,2025-04-07,清算の結了等,,,2015-10-05,1,,,,,マルヤセイカ,0
2908,9430001038129,登記記録の閉鎖等,0,2025-04-14,2025-02-28,株式会社フィースト,,株式会社,北海道,札幌市白石区,本通２丁目南６番１号,,01,104,0030026,,,2025-02-28,合併による解散等,9430001045273,令和７年２月２８日札幌市東区北二十二条東十六丁目１番１５号ＳＴＹビル株式会社アドレボ（9430001045273）に合併し解散,2015-10-05,1,,,,,フィースト,0
