sequenceNumber,corporateNumber,process,correct,updateDate,changeDate,name,nameImageId,kind,prefectureName,cityName,streetNumber,addressImageId,prefectureCode,cityCode,postCode,addressOutside,addressOutsideImageId,closeDate,closeCause,successorCorporateNumber,changeCause,assignmentDate,latest,enName,enPrefectureName,enCityName,enAddressOutside,furigana,hihyoji
4,1010001260673,新規,0,2025-11-28,2025-11-28,株式会社ｔｓｕｎａｇｕ,,株式会社,東京都,中央区,築地７丁目１３番５－４０２号,,13,102,1040045,,,,,,,2025-11-28,1,,,,,ツナグ,0
5,1010001260698,新規,0,2025-11-28,2025-11-28,株式会社あらたよ,,株式会社,東京都,中央区,銀座７丁目７番１２号,,13,102,1040061,,,,,,,2025-11-28,1,,,,,,0
6,1010001260715,新規,0,2025-11-28,2025-11-28,株式会社シューウィン,,株式会社,東京都,中央区,銀座１丁目１６番７号銀座大栄ビル５階,,13,102,1040061,,,,,,,2025-11-28,1,,,,,シューウィン,0
7,1010003049330,新規,0,2025-11-28,2025-11-28,ＲＡＩＯＮ　ＣＡＰＩＴＡＬ　ＪＡＰＡＮ９合同会社,,合同会社,東京都,中央区,東日本橋３丁目９番２号サンクビル８階,,13,102,1030004,,,,,,,2025-11-28,1,,,,,ライオンキャピタルジャパンナイン,0
8,1010003049504,新規,0,2025-11-28,2025-11-28,福島西白河矢吹１２０高圧蓄電所合同会社,,合同会社,東京都,中央区,日本橋兜町５－１第一平和ビル３Ｆ－１３８,,13,102,1030026,,,,,,,2025-11-28,1,,,,,フクシマニシシラカワヤブキイチニゼロコウアツチクデンショ,0
9,1010003049545,新規,0,2025-11-28,2025-11-28,合同会社かっちゃん本舗,,合同会社,東京都,中央区,日本橋室町１丁目１１番１２号日本橋水野ビル７階,,13,102,1030022,,,,,,,2025-11-28,1,,,,,カッチャンホンポ,0
24,1010401194777,新規,0,2025-11-28,2025-11-28,株式会社巳梅,,株式会社,東京都,港区,南青山２丁目２番１５号,,13,103,1070062,,,,,,,2025-11-28,1,,,,,ミウメ,0
27,1010403036671,新規,0,2025-11-28,2025-11-28,ＭＳＯＮ合同会社,,合同会社,東京都,港区,海岸１丁目１６－１ニューピア竹芝サウスタワー６階,,13,103,1050022,,,,,,,2025-11-28,1,,,,,エムソン,0
32,1010601068343,新規,0,2025-11-28,2025-11-28,株式会社ｉｋｎｏｗ,,株式会社,東京都,江東区,平野２丁目２番３２－５０５号,,13,108,1350023,,,,,,,2025-11-28,1,,,,,アイノウ,0
34,1010701048641,新規,0,2025-11-28,2025-11-28,株式会社Ｈａｚｋｙ,,株式会社,東京都,品川区,上大崎１丁目１－１７,,13,109,1410021,,,,,,,2025-11-28,1,,,,,ハヅキ,0
39,1010901058523,新規,0,2025-11-28,2025-11-28,株式会社ららぱんぱん,,株式会社,東京都,世田谷区,喜多見５丁目１０番１６号カーサポモドーロＡ１１,,13,112,1570067,,,,,,,2025-11-28,1,,,,,ララパンパン,0
40,1010901058556,新規,0,2025-11-28,2025-11-28,株式会社ＴＡＭＯＴＯ,,株式会社,東京都,世田谷区,太子堂４丁目１８番１５号マガザン三軒茶屋２―３Ｆ―３,,13,112,1540004,,,,,,,2025-11-28,1,,,,,タモト,0
60,1011101114117,新規,0,2025-11-28,2025-11-28,株式会社Ｓｅｌｅｎｅ,,株式会社,東京都,新宿区,新宿２丁目３番１３号,,13,104,1600022,,,,,,,2025-11-28,1,,,,,セレーネ,0
67,1011303005782,新規,0,2025-11-28,2025-11-28,坂本ＣＭＣコンサルティング合同会社,,合同会社,東京都,杉並区,宮前５丁目５番６号,,13,115,1680081,,,,,,,2025-11-28,1,,,,,サカモトシーエムシーコンサルティング,0
71,1011503006787,新規,0,2025-11-28,2025-11-28,文和堂学院合同会社,,合同会社,東京都,荒川区,南千住２丁目６番７号みそらハイツ２０１,,13,118,1160003,,,,,,,2025-11-28,1,,,,,ブンワドウガクイン,0
75,1011703004467,新規,0,2025-11-28,2025-11-28,Ｎｅｘｕｓ　Ｃｏｒｅ合同会社,,合同会社,東京都,江戸川区,江戸川１丁目１１番８号,,13,123,1320013,,,,,,,2025-11-28,1,,,,,ネクサスコア,0
77,1011801047104,新規,0,2025-11-28,2025-11-28,株式会社ｍｃ　ｃｏｍｐａｎｙ,,株式会社,東京都,足立区,中央本町２丁目１９番１１号山田ハイツ１０１,,13,121,1200011,,,,,,,2025-11-28,1,,,,,エムシーカンパニー,0
78,1011801047120,新規,0,2025-11-28,2025-11-28,福原商事株式会社,,株式会社,東京都,葛飾区,亀有３丁目３０番１３号１階,,13,122,1250061,,,,,,,2025-11-28,1,,,,,フクハラショウジ,0
86,1020001165707,新規,0,2025-11-28,2025-11-28,株式会社Ｄ　ａｎｄ　ＤＫ,,株式会社,神奈川県,横浜市港北区,新羽町５４３番地１,,14,109,2230057,,,,,,,2025-11-28,1,,,,,ディアンドディケー,0
87,1020001165921,新規,0,2025-11-28,2025-11-28,株式会社ＤＯＨＯ,,株式会社,神奈川県,横浜市西区,北幸２丁目１０番４８号,,14,103,2200004,,,,,,,2025-11-28,1,,,,,ドーホー,0
88,1020001166044,新規,0,2025-11-28,2025-11-28,Ｓｕｎ’ｓ　Ｓｍｉｌｅ株式会社,,株式会社,神奈川県,横浜市中区,野毛町３丁目１３６番地リストレジデンス横濱桜木町９０５号室,,14,104,2310064,,,,,,,2025-11-28,1,,,,,サンズスマイル,0
93,1020003029843,新規,0,2025-11-28,2025-11-28,Ｋアセット合同会社,,合同会社,神奈川県,横浜市港南区,上大岡東１丁目７－２０,,14,111,2330001,,,,,,,2025-11-28,1,,,,,ケーアセット,0
94,1020003029868,新規,0,2025-11-28,2025-11-28,合同会社ＢｅｒｒｙＧｌａｚｅ,,合同会社,神奈川県,横浜市西区,北幸２丁目１０番４８号　むつみビル３階,,14,103,2200004,,,,,,,2025-11-28,1,,,,,ベリーグレーズ,0
96,1021001086918,新規,0,2025-11-28,2025-11-28,グリーナＨＤ株式会社,,株式会社,神奈川県,藤沢市,長後２４９１,,14,205,2520801,,,,,,,2025-11-28,1,,,,,グリーナホールディングス,0
98,1021003016864,新規,0,2025-11-28,2025-11-28,Ａｉｖｉｚｅ合同会社,,合同会社,神奈川県,平塚市,西八幡２丁目１１―１７―３０２,,14,203,2540073,,,,,,,2025-11-28,1,,,,,アイビズ,0
99,1021003016872,新規,0,2025-11-28,2025-11-28,Ｄｅ　Ｂｒｅ合同会社,,合同会社,神奈川県,相模原市緑区,橋本３丁目２７―６Ｓ＆Ｙビル４Ｆ・５Ｆ,,14,151,2520143,,,,,,,2025-11-28,1,,,,,ディブリ,0
107,1030003028175,新規,0,2025-11-28,2025-11-28,合同会社ＨＭ企画,,合同会社,埼玉県,蓮田市,西新宿４丁目１６番地６,,11,238,3490141,,,,,,,2025-11-28,1,,,,,エイチエムキカク,0
113,1040001141598,新規,0,2025-11-28,2025-11-28,株式会社Ｌｕｃｅ,,株式会社,千葉県,富津市,下飯野１２３９－１１,,12,226,2930006,,,,,,,2025-11-28,1,,,,,ルーチェ,0
124,1050005013735,新規,0,2025-11-28,2025-11-28,一般社団法人いきいきライフ協会こがもも,,その他の設立登記法人,茨城県,古河市,雷電町１３番２６号,,08,204,3060004,,,,,,,2025-11-28,1,,,,,イキイキライフキョウカイコガモモ,0
128,1060002039740,新規,0,2025-11-28,2025-11-28,有限会社岡桐材工業,,有限会社,栃木県,佐野市,戸奈良町８１２番地,,09,204,3270323,,,,,,,2025-11-28,1,,,,,オカキリザイコウギョウ,0
136,1070003006202,新規,0,2025-11-28,2025-11-28,合同会社ルミナス,,合同会社,群馬県,伊勢崎市,境平塚８８０番地１,,10,204,3700132,,,,,,,2025-11-28,1,,,,,,0
142,1100003008500,新規,0,2025-11-28,2025-11-28,リンフィネル合同会社,,合同会社,長野県,北佐久郡軽井沢町,大字追分１４１７番地１２,,20,321,3890115,,,,,,,2025-11-28,1,,,,,リンフィネル,0
158,1120001282228,新規,0,2025-11-28,2025-11-28,株式会社Ｓｔｅｅｌ　Ｈｅａｒｔ,,株式会社,大阪府,大阪市旭区,今市２丁目１５番２７号,,27,117,5350011,,,,,,,2025-11-28,1,,,,,スチールハート,0
159,1120001282252,新規,0,2025-11-28,2025-11-28,株式会社エムズ,,株式会社,大阪府,大阪市平野区,平野元町５番５号,,27,126,5470047,,,,,,,2025-11-28,1,,,,,エムズ,0
160,1120001282260,新規,0,2025-11-28,2025-11-28,ＳｕｎＮｅｏｓ株式会社,,株式会社,大阪府,枚方市,茄子作１丁目３１番１２号,,27,210,5730071,,,,,,,2025-11-28,1,,,,,サンネオス,0
161,1120001282269,新規,0,2025-11-28,2025-11-28,株式会社マーク,,株式会社,大阪府,大阪市北区,豊崎３丁目１５－５ＴＫビル２Ｆ,,27,127,5310072,,,,,,,2025-11-28,1,,,,,マーク,0
162,1120001282293,新規,0,2025-11-28,2025-11-28,株式会社Ｈ＆Ｂ,,株式会社,大阪府,大阪市大正区,南恩加島５丁目５番８号,,27,108,5510021,,,,,,,2025-11-28,1,,,,,エイチアンドビー,0
163,1120001282310,新規,0,2025-11-28,2025-11-28,株式会社イーコーポレーション,,株式会社,大阪府,大阪市中央区,徳井町２丁目４番１４号,,27,128,5400025,,,,,,,2025-11-28,1,,,,,イーコーポレーション,0
169,1120101072859,新規,0,2025-11-28,2025-11-28,株式会社まめ,,株式会社,大阪府,岸和田市,上野町東２５番１２号,,27,202,5960047,,,,,,,2025-11-28,1,,,,,マメ,0
175,1122001039954,新規,0,2025-11-28,2025-11-28,株式会社トラスト,,株式会社,大阪府,八尾市,老原８丁目１０２,,27,212,5810092,,,,,,,2025-11-28,1,,,,,トラスト,0
177,1130001081100,新規,0,2025-11-28,2025-11-28,株式会社Ｒｅｌｉｏｎ,,株式会社,京都府,京都市下京区,下魚棚通堀川西入南八百屋町３３,,26,106,6008251,,,,,,,2025-11-28,1,,,,,リリオン,0
183,1140001140755,新規,0,2025-11-28,2025-11-28,株式会社翔海,,株式会社,兵庫県,西宮市,豊楽町１２番３３号シャーメゾン豊楽Ａ棟１０２号室,,28,204,6620072,,,,,,,2025-11-28,1,,,,,ショウカイ,0
184,1140001140912,新規,0,2025-11-28,2025-11-28,有賀株式会社,,株式会社,兵庫県,神戸市兵庫区,荒田町１丁目１９番７号,,28,105,6520032,,,,,,,2025-11-28,1,,,,,アリガ,0
188,1160001027240,新規,0,2025-11-28,2025-11-28,ＫＨホールディングス株式会社,,株式会社,滋賀県,高島市,勝野２０２番地３,,25,212,5201121,,,,,,,2025-11-28,1,,,,,ケイエイチホールディングス,0
200,1180003029423,新規,0,2025-11-28,2025-11-28,合同会社みやこ商店,,合同会社,愛知県,岩倉市,大地新町２丁目５０番地,,23,228,4820025,,,,,,,2025-11-28,1,,,,,ミヤコショウテン,0
208,1200003007153,新規,0,2025-11-28,2025-11-28,昌平電力合同会社,,合同会社,岐阜県,各務原市,那加山後町１丁目１番地,,21,213,5040042,,,,,,,2025-11-28,1,,,,,ショウヘイデンリョク,0
219,1240001065835,新規,0,2025-11-28,2025-11-28,株式会社ｈａｒｍｏｎｙ,,株式会社,広島県,広島市中区,十日市町２丁目１番２５－５０２号,,34,101,7300805,,,,,,,2025-11-28,1,,,,,ハーモニー,0
221,1250001021432,新規,0,2025-11-28,2025-11-28,株式会社Ｎｏｒｔａ,,株式会社,山口県,宇部市,小松原町２丁目３－１０,,35,202,7550066,,,,,,,2025-11-28,1,,,,,ノルタ,0
225,1260003005432,新規,0,2025-11-28,2025-11-28,合同会社ニチゴー,,合同会社,岡山県,岡山市北区,中山下１丁目１１番１５号新田第１ビル４０２,,33,101,7000821,,,,,,,2025-11-28,1,,,,,ニチゴー,0
228,1290001112260,新規,0,2025-11-28,2025-11-28,株式会社ＧＳＴｅｃｈ　Ｊａｐａｎ,,株式会社,福岡県,糸島市,二丈深江７丁目１９番２９号,,40,230,8191601,,,,,,,2025-11-28,1,,,,,ジーエステックジャパン,0
229,1290001112277,新規,0,2025-11-28,2025-11-28,龍ＴＡＫＡＨＡＲＡ株式会社,,株式会社,福岡県,古賀市,駅東２丁目７番３号,,40,223,8113102,,,,,,,2025-11-28,1,,,,,リュウタカハラ,0
230,1290001112285,新規,0,2025-11-28,2025-11-28,諾雅天和株式会社,,株式会社,福岡県,福岡市東区,多の津４丁目５番１０－４０６室,,40,131,8130034,,,,,,,2025-11-28,1,,,,,ダクガテンワ,0
231,1290001112319,新規,0,2025-11-28,2025-11-28,ピープリンク株式会社,,株式会社,福岡県,福岡市東区,多の津１丁目１４－１,,40,131,8130034,,,,,,,2025-11-28,1,,,,,ピープリンク,0
235,1290003017763,新規,0,2025-11-28,2025-11-28,輝竹合同会社,,合同会社,福岡県,福岡市中央区,春吉２丁目９－２５ラ・レジダンス・ドレーヌ１１０８号,,40,133,8100003,,,,,,,2025-11-28,1,,,,,テルヤ,0
240,1300001014422,新規,0,2025-11-28,2025-11-28,大丸商事株式会社,,株式会社,佐賀県,武雄市,武雄町大字富岡７５６３番地９,,41,206,8430024,,,,,,,2025-11-28,1,,,,,ダイマルショウジ,0
245,1320001021466,新規,0,2025-11-28,2025-11-28,株式会社ＴＮ　ｃａｒｇｏ,,株式会社,大分県,大分市,大字廻栖野２１８８番地,,44,201,8701201,,,,,,,2025-11-28,1,,,,,ティーエヌカーゴ,0
247,1330001033782,新規,0,2025-11-28,2025-11-28,株式会社メモリアルアート,,株式会社,熊本県,熊本市東区,戸島５丁目１７番７３号,,43,102,8618041,,,,,,,2025-11-28,1,,,,,メモリアルアート,0
251,1350003005084,新規,0,2025-11-28,2025-11-28,合同会社ＧＲＡＮＤ　ＤＥ　ＯＳＨＩＭＡ,,合同会社,宮崎県,宮崎市,東大宮３丁目３番３１号,,45,201,8800825,,,,,,,2025-11-28,1,,,,,グランデオオシマ,0
274,1700150070894,新規,0,2025-11-28,2016-02-17,白滝自治会,,その他,愛媛県,大洲市,白滝甲３１番地１,,38,207,7993431,,,,,,,2016-02-17,1,,,,,シラタキジチカイ,0
275,1700150133107,新規,0,2025-11-28,2025-11-28,Ｋ．Ｌ　ＧＵＮＡＳＩＲＩ＆ＳＯＮＳ　ＰＶＴ　ＬＴＤ,,外国会社等,千葉県,佐倉市,上勝田４５９番地１０,,12,212,2850054,スリランカ民主社会主義共和国、ゴール、アナガリカ・ダルマパーラ・ロード３２／２６ｓ,,,,,,2025-11-28,1,,,,,ケイエルグナシリアンドサンズピーブイテイリミテツド,0
281,2010001260623,新規,0,2025-11-28,2025-11-28,光奕株式会社,,株式会社,東京都,千代田区,外神田２丁目２番１７号７７号室,,13,101,1010021,,,,,,,2025-11-28,1,,,,,エクリップ,0
282,2010001260672,新規,0,2025-11-28,2025-11-28,Ｇｅｎｅ　Ａｎｄ　Ｓｅｒｖｅ株式会社,,株式会社,東京都,中央区,銀座１丁目１２番４号Ｎ＆ＥＢＬＤ．６Ｆ,,13,102,1040061,,,,,,,2025-11-28,1,,,,,ジンアンドサーブ,0
283,2010001260706,新規,0,2025-11-28,2025-11-28,智易日本株式会社,,株式会社,東京都,千代田区,大手町１丁目５番１号大手町ファーストスクエアイーストタワー４階,,13,101,1000004,,,,,,,2025-11-28,1,,,,,チイニホン,0
284,2010003049503,新規,0,2025-11-28,2025-11-28,奈良佐保台８７４高圧蓄電所合同会社,,合同会社,東京都,中央区,区日本橋兜町５－１第一平和ビル３Ｆ－１３８,,13,102,1030000,,,,,,,2025-11-28,1,,,,,ナラサホダイハチナナヨンコウアツチクデンショ,0
287,2010005041004,新規,0,2025-11-28,2025-11-28,一般社団法人ＳＭＬ　Ｊ　ＨＯＴＥＬ２,,その他の設立登記法人,東京都,中央区,新川１丁目１７番１８号,,13,102,1040033,,,,,,,2025-11-28,1,,,,,エスエムエルジェイホテルツー,0
288,2010005041020,新規,0,2025-11-28,2025-11-28,一般社団法人ＤＡＩＤＡＩ,,その他の設立登記法人,東京都,千代田区,丸の内１丁目４番１号東京共同会計事務所内,,13,101,1000005,,,,,,,2025-11-28,1,,,,,ダイダイ,0
302,2010401194751,新規,0,2025-11-28,2025-11-28,Ｏｒｌｙ　Ａｓｓｅｔ　Ｍａｎａｇｅｍｅｎｔ株式会社,,株式会社,東京都,港区,南麻布１丁目５番２０号１０１,,13,103,1060047,,,,,,,2025-11-28,1,,,,,オーリーアセットマネジメント,0
307,2010501055085,新規,0,2025-11-28,2025-11-28,ＧＯＯＭＡＸエナジー株式会社,,株式会社,東京都,台東区,浅草橋３丁目２２番２号ＧＯＯＭＡＸビル２Ｆ,,13,106,1110053,,,,,,,2025-11-28,1,,,,,グーマックスエナジー,0
308,2010501055093,新規,0,2025-11-28,2025-11-28,株式会社Ｔｒｙ＆Ｓｕｃｃｅｓｓ,,株式会社,東京都,台東区,寿２丁目１番６号アイステージ寿６０２号室,,13,106,1110042,,,,,,,2025-11-28,1,,,,,トライアンドサクセス,0
310,2010503008099,新規,0,2025-11-28,2025-11-28,合同会社朝陽テック,,合同会社,東京都,台東区,上野４丁目２７番９ハーモニーレジデンス上野の杜８０１号,,13,106,1100005,,,,,,,2025-11-28,1,,,,,アサヒテック,0
317,2010901058547,新規,0,2025-11-28,2025-11-28,株式会社ＳｈｏｗＭａｎ,,株式会社,東京都,世田谷区,梅丘１丁目７番１号,,13,112,1540022,,,,,,,2025-11-28,1,,,,,ショーマン,0
318,2010901058555,新規,0,2025-11-28,2025-11-28,株式会社ｎｏｎｕ,,株式会社,東京都,世田谷区,砧５丁目２０番１１号,,13,112,1570073,,,,,,,2025-11-28,1,,,,,ノヌ,0
330,2011001174053,新規,0,2025-11-28,2025-11-28,株式会社無双,,株式会社,東京都,渋谷区,恵比寿西１丁目３３番６号ＪＰｎｏｉｅ恵比寿西１Ｆ,,13,113,1500021,,,,,,,2025-11-28,1,,,,,ムソウ,0
332,2011005011293,新規,0,2025-11-28,2025-11-28,一般社団法人空間体験カンファレンス協会,,その他の設立登記法人,東京都,渋谷区,神山町９番１０－１０６号,,13,113,1500047,,,,,,,2025-11-28,1,,,,,クウカンタイケンカンファレンスキョウカイ,0
336,2011101114009,新規,0,2025-11-28,2025-11-28,ＧＬＯＢＡＬ　ＧＯＤ株式会社,,株式会社,東京都,新宿区,西新宿６丁目５－１新宿アイランドタワー２階,,13,104,1600023,,,,,,,2025-11-28,1,,,,,グローバルゴッド,0
337,2011101114140,新規,0,2025-11-28,2025-11-28,未来沢点株式会社,,株式会社,東京都,新宿区,市谷八幡町８番地ＴＫＰ市ヶ谷ビル２Ｆ,,13,104,1620844,,,,,,,2025-11-28,1,,,,,ミライタクテン,0
338,2011103016707,新規,0,2025-11-28,2025-11-28,合同会社ヤマイクノ,,合同会社,東京都,新宿区,下落合３丁目２０―２０,,13,104,1610033,,,,,,,2025-11-28,1,,,,,ヤマイクノ,0
342,2011303005781,新規,0,2025-11-28,2025-11-28,合同会社テンセン,,合同会社,東京都,杉並区,成田東１丁目３３番４号,,13,115,1660015,,,,,,,2025-11-28,1,,,,,テンセン,0
343,2011401027612,新規,0,2025-11-28,2025-11-28,株式会社Ｓｅｒｅｎｄｉａ,,株式会社,東京都,板橋区,成増１丁目２１－１１メゾンドゥ・ヴォヌール２０４,,13,119,1750094,,,,,,,2025-11-28,1,,,,,セレンディア,0
350,2011803007212,新規,0,2025-11-28,2025-11-28,合同会社Ｌｉｅｎｋａ,,合同会社,東京都,葛飾区,立石６丁目３４番１９号,,13,122,1240012,,,,,,,2025-11-28,1,,,,,リアンカ,0
352,2012303002249,新規,0,2025-11-28,2025-11-28,合同会社ナギホームグループ,,合同会社,東京都,町田市,原町田４丁目１１番１３号天野ビル４階,,13,209,1940013,,,,,,,2025-11-28,1,,,,,ナギホームグループ,0
371,2020001166043,新規,0,2025-11-28,2025-11-28,株式会社エンパシア,,株式会社,神奈川県,川崎市多摩区,枡形２丁目２１－９－１０１,,14,135,2140032,,,,,,,2025-11-28,1,,,,,エンパシア,0
380,2030001169813,新規,0,2025-11-28,2025-11-28,ＡＳＣＥＮＤ株式会社,,株式会社,埼玉県,志木市,館２丁目６番３－１０４号,,11,228,3530006,,,,,,,2025-11-28,1,,,,,アセンド,0
393,2040001141548,新規,0,2025-11-28,2025-11-28,株式会社青海商事,,株式会社,千葉県,千葉市中央区,登戸１丁目２４番１９号ベイランド登戸ビル４０１号,,12,101,2600032,,,,,,,2025-11-28,1,,,,,セイカイショウジ,0
394,2040001141589,新規,0,2025-11-28,2025-11-28,＿源株式会社,00141669,株式会社,千葉県,君津市,笹１７４３番地４,,12,225,2920526,,,,,,,2025-11-28,1,,,,,キンゲン,0
397,2050001057603,新規,0,2025-11-28,2025-11-28,エヴァワークス株式会社,,株式会社,茨城県,取手市,桜が丘２丁目１５番２号,,08,217,3001525,,,,,,,2025-11-28,1,,,,,エヴァワークス,0
398,2050001057644,新規,0,2025-11-28,2025-11-28,株式会社蓮,,株式会社,茨城県,土浦市,神立中央５丁目２６番９号フェニックスＡ１０２,,08,203,3000011,,,,,,,2025-11-28,1,,,,,レン,0
403,2070003006201,新規,0,2025-11-28,2025-11-28,合同会社ＣＯＲＥＶＩＴＹ,,合同会社,群馬県,高崎市,箕郷町矢原１９０４－１,,10,202,3703107,,,,,,,2025-11-28,1,,,,,,0
407,2080103003477,新規,0,2025-11-28,2025-11-28,オーバーズ合同会社,,合同会社,静岡県,駿東郡小山町,藤曲５７７―２０,,22,344,4101304,,,,,,,2025-11-28,1,,,,,オーバーズ,0
427,2120001282227,新規,0,2025-11-28,2025-11-28,ひまわり運送株式会社,,株式会社,大阪府,大阪市大正区,南恩加島３丁目１２番２４号,,27,108,5510021,,,,,,,2025-11-28,1,,,,,ヒマワリウンソウ,0
428,2120001282268,新規,0,2025-11-28,2025-11-28,株式会社アイザックランゲージ＆キャリア,,株式会社,大阪府,大阪市中央区,瓦町２丁目２番７号瓦路ビル４階,,27,128,5410048,,,,,,,2025-11-28,1,,,,,アイザックランゲージアンドキャリア,0
429,2120001282284,新規,0,2025-11-28,2025-11-28,株式会社服部,,株式会社,大阪府,大阪市北区,天神橋２丁目３番３号,,27,127,5300041,,,,,,,2025-11-28,1,,,,,ハットリ,0
430,2120001282292,新規,0,2025-11-28,2025-11-28,株式会社ＬＩＭＩＮＡＬ　ＧＡＴＥ,,株式会社,大阪府,大阪市城東区,鴫野東３丁目２６番３３－２０３号,,27,118,5360013,,,,,,,2025-11-28,1,,,,,リミナルゲート,0
431,2120001282301,新規,0,2025-11-28,2025-11-28,株式会社花ちょうちん,,株式会社,大阪府,大阪市北区,天神橋４丁目４番１０号,,27,127,5300041,,,,,,,2025-11-28,1,,,,,ハナチョウチン,0
436,2120003031326,新規,0,2025-11-28,2025-11-28,８１６式合同会社,,合同会社,大阪府,大阪市北区,梅田１丁目２番２号大阪駅前第２ビル１２－１２,,27,127,5300001,,,,,,,2025-11-28,1,,,,,ハチイチロクシキ,0
437,2120003031334,新規,0,2025-11-28,2025-11-28,いしみ合同会社,,合同会社,大阪府,守口市,大宮通２丁目１番１２号,,27,209,5700033,,,,,,,2025-11-28,1,,,,,イシミ,0
446,2122001039953,新規,0,2025-11-28,2025-11-28,株式会社ＮＥＳＴ　ＳＴＵＤＩＯＵＳ,,株式会社,大阪府,東大阪市,小若江３丁目６番９号近畿大学ＫＩＮＣＵＢＡＢａｓｅｃａｍｐ,,27,227,5770818,,,,,,,2025-11-28,1,,,,,ネストストゥディオス,0
447,2122001039961,新規,0,2025-11-28,2025-11-28,株式会社慶和プランニング,,株式会社,大阪府,大東市,平野屋２丁目８番３０号５０５号,,27,218,5740022,,,,,,,2025-11-28,1,,,,,ケイワプランニング,0
450,2122003003404,新規,0,2025-11-28,2025-11-28,ＮＩＮＯＵＤＥ合同会社,,合同会社,大阪府,大東市,灰塚５丁目６番８号,00141676,27,218,5740043,,,,,,,2025-11-28,1,,,,,ニノウデ,0
452,2130001081090,新規,0,2025-11-28,2025-11-28,株式会社ファイブベアグロース,,株式会社,京都府,京都市北区,大宮東小野堀町２５－２－２階,,26,101,6038406,,,,,,,2025-11-28,1,,,,,ファイブベアグロース,0
453,2130001081099,新規,0,2025-11-28,2025-11-28,株式会社紫野籾井造園,,株式会社,京都府,京都市北区,紫野下鳥田町９番地１,,26,101,6038175,,,,,,,2025-11-28,1,,,,,ムラサキノモミイゾウエン,0
459,2140001140911,新規,0,2025-11-28,2025-11-28,ジュエリーサンワ株式会社,,株式会社,兵庫県,神戸市兵庫区,荒田町１丁目１６番２号湊川センタービルＡ棟１Ｆ,,28,105,6520032,,,,,,,2025-11-28,1,,,,,ジュエリーサンワ,0
462,2150001028569,新規,0,2025-11-28,2025-11-28,株式会社Ｌｉｒｉｏ,,株式会社,奈良県,奈良市,帝塚山南４丁目１３番１８号,,29,201,6310064,,,,,,,2025-11-28,1,,,,,リリオ,0
464,2170001018881,新規,0,2025-11-28,2025-11-28,株式会社ＦＬＣ,,株式会社,和歌山県,和歌山市,島８３番地１３,,30,201,6496314,,,,,,,2025-11-28,1,,,,,エフエルシー,0
470,2180001169674,新規,0,2025-11-28,2025-11-28,アームズ株式会社,,株式会社,愛知県,名古屋市南区,大堀町２１番４号,,23,112,4570002,,,,,,,2025-11-28,1,,,,,アームズ,0
477,2190001032716,新規,0,2025-11-28,2025-11-28,株式会社ＳＩＫＩ,,株式会社,三重県,三重郡朝日町,向陽台２丁目１６番地３－２Ｆ,,24,343,5108105,,,,,,,2025-11-28,1,,,,,シキ,0
478,2190005012094,新規,0,2025-11-28,2025-11-28,一般社団法人アクイユ,,その他の設立登記法人,三重県,津市,久居野村町１９７３番地２１,,24,201,5141113,,,,,,,2025-11-28,1,,,,,アクイユ,0
489,2240001065834,新規,0,2025-11-28,2025-11-28,株式会社彩生,,株式会社,広島県,広島市中区,住吉町１６番２０号７階,,34,101,7300813,,,,,,,2025-11-28,1,,,,,イロハ,0
497,2260003005431,新規,0,2025-11-28,2025-11-28,望満合同会社,,合同会社,岡山県,岡山市中区,新京橋２丁目９－２９,,33,102,7038294,,,,,,,2025-11-28,1,,,,,モチマロ,0
498,2260005011551,新規,0,2025-11-28,2025-11-28,特定非営利活動法人グリーンフィールド,,その他の設立登記法人,岡山県,岡山市中区,倉益３９番地,,33,102,7038263,,,,,,,2025-11-28,1,,,,,グリーンフィールド,0
499,2270001009334,新規,0,2025-11-28,2025-11-28,株式会社Ｓｅｌｅｎｅ,,株式会社,鳥取県,東伯郡北栄町,大谷１３２３番地２,,31,372,6892223,,,,,,,2025-11-28,1,,,,,セレネ,0
504,2290001112251,新規,0,2025-11-28,2025-11-28,株式会社ＡｕｔｏＭｅｃｈａｎｉｃａ,,株式会社,福岡県,福岡市西区,九大新町５番地７,,40,135,8190388,,,,,,,2025-11-28,1,,,,,オートメカニッカ,0
515,2320001021457,新規,0,2025-11-28,2025-11-28,株式会社英リース,,株式会社,大分県,大分市,大字杉原１２３５番地の１８,,44,201,8797882,,,,,,,2025-11-28,1,,,,,ヒデリース,0
516,2320001021465,新規,0,2025-11-28,2025-11-28,株式会社Ｂｏｎｄ,,株式会社,大分県,別府市,北浜１丁目１番１５号北浜プラザビル３０１,,44,202,8740920,,,,,,,2025-11-28,1,,,,,ボンド,0
517,2330001033781,新規,0,2025-11-28,2025-11-28,株式会社ＭＥＲＡＮＯ不動産,,株式会社,熊本県,熊本市東区,尾ノ上１丁目１－８－１０３,,43,102,8620913,,,,,,,2025-11-28,1,,,,,メラノフドウサン,0
518,2330005010975,新規,0,2025-11-28,2025-11-28,ＮＰＯ法人ＳＯＺＯ　Ｌａｂ．,,その他の設立登記法人,熊本県,下益城郡美里町,川越３４９９,,43,348,8614707,,,,,,,2025-11-28,1,,,,,ソゾラボ,0
530,2430001095754,新規,0,2025-11-28,2025-11-28,さくらネクスト株式会社,,株式会社,北海道,札幌市清田区,清田七条１丁目９番５号,,01,110,0040847,,,,,,,2025-11-28,1,,,,,サクラネクスト,0
532,2430003018341,新規,0,2025-11-28,2025-11-28,ＣＲステーブル合同会社,,合同会社,北海道,日高郡新ひだか町,静内目名４５９番地の５８,,01,610,0560001,,,,,,,2025-11-28,1,,,,,シーアールステーブル,0
538,2500001026644,新規,0,2025-11-28,2025-11-28,ＳＥＮ　ＬＥＡＤ株式会社,,株式会社,愛媛県,松山市,三番町３丁目５番地１０ＧＲＡＣＥＰＲＥＭＩＥＲ７０１号,,38,201,7900003,,,,,,,2025-11-28,1,,,,,センリード,0
539,2700150133114,新規,0,2025-11-28,2025-11-28,ｓｈａｎｇｈａｉｓａｉｋｅｃｈｉｄｉａｎｚｉｙｏｕｘｉａｎｇｏｎｇｓｉ,,外国会社等,,,,,,,,Ｒｏｏｍ　５０６，Ｎｏｒｔｈ　Ｔｏｗｅｒ，Ｂｕｉｌｄｉｎｇ　１，Ｎｏ．３６　ａｎｄ　５６　Ｘｉｎｊｉｎｑｉａｏ　Ｒｏａｄ，Ｃｈｉｎａ（Ｓｈａｎｇｈａｉ）Ｐｉｌｏｔ　Ｆｒｅｅ　Ｔｒａｄｅ　Ｚｏｎｅ，Ｓｈａｎｇｈａｉ，Ｃｈｉｎａ．,,,,,,2025-11-28,1,,,,,シャンハイカチデンシユウゲンコウシ,0
548,3010001260622,新規,0,2025-11-28,2025-11-28,株式会社ＤＷ戦略研究所,,株式会社,東京都,中央区,銀座１丁目１２－４Ｎ＆ＥＢＬＤ．７階,,13,102,1040061,,,,,,,2025-11-28,1,,,,,ディダブリュセンリャクケンキュウショ,0
549,3010003049329,新規,0,2025-11-28,2025-11-28,ＲＡＩＯＮ　ＣＡＰＩＴＡＬ　ＪＡＰＡＮ８合同会社,,合同会社,東京都,中央区,東日本橋３丁目９番２号サンクビル８階,,13,102,1030004,,,,,,,2025-11-28,1,,,,,ライオンキャピタルジャパンエイト,0
550,3010003049502,新規,0,2025-11-28,2025-11-28,合同会社Ｃｏｎｅｋｏ,,合同会社,東京都,文京区,湯島２丁目３２番８－２０５号,,13,105,1130034,,,,,,,2025-11-28,1,,,,,コネコ,0
551,3010003049543,新規,0,2025-11-28,2025-11-28,合同会社ＫＡＨＤ,,合同会社,東京都,中央区,銀座１丁目２２－１１銀座大竹ビジデンス２階,,13,102,1040061,,,,,,,2025-11-28,1,,,,,ケイエイエイチディ,0
557,3010401194701,新規,0,2025-11-28,2025-11-28,株式会社補助金クラウドファイナンス,,株式会社,東京都,港区,芝浦３丁目７－８エスパース田町２０２,,13,103,1080023,,,,,,,2025-11-28,1,,,,,ホジョキンクラウドファイナンス,0
558,3010401194759,新規,0,2025-11-28,2025-11-28,１ＤＸ株式会社,,株式会社,東京都,港区,西新橋２丁目１１－１３虎ノ門リンク３Ｆ,,13,103,1050003,,,,,,,2025-11-28,1,,,,,ワンディーエックス,0
559,3010401194825,新規,0,2025-11-28,2025-11-28,コアテックス株式会社,,株式会社,東京都,港区,虎ノ門１丁目１０番５号ＫＤＸ虎ノ門一丁目ビル１１階,,13,103,1050001,,,,,,,2025-11-28,1,,,,,コアテックス,0
563,3010403036661,新規,0,2025-11-28,2025-11-28,ＡＰ　Ｘ３合同会社,,合同会社,東京都,港区,虎ノ門４丁目１－１７アリサ・パートナーズ・ジャパン株式会社内,,13,103,1050001,,,,,,,2025-11-28,1,,,,,エーピーエックススリー,0
564,3010403036678,新規,0,2025-11-28,2025-11-28,合同会社ＣｒｅｓｔＡＩ,,合同会社,東京都,港区,北青山１丁目３番１号アールキューブ青山３階,,13,103,1070061,,,,,,,2025-11-28,1,,,,,クレストエーアイ,0
567,3010501055092,新規,0,2025-11-28,2025-11-28,株式会社ＴＡＩＰＡ,,株式会社,東京都,台東区,上野３丁目１４番２号Ｕｅｎｏｙｏｕｒ２ｎｄ－３１３,,13,106,1100005,,,,,,,2025-11-28,1,,,,,ティエイアイピーエイ,0
575,3010901058546,新規,0,2025-11-28,2025-11-28,株式会社Ｒｏｏｍｉｎｏｕｓ,,株式会社,東京都,世田谷区,上北沢４丁目２１番１５号,,13,112,1560057,,,,,,,2025-11-28,1,,,,,ルーミナス,0
583,3011001173921,新規,0,2025-11-28,2025-11-28,株式会社レリーサ,,株式会社,東京都,渋谷区,神泉町１０番１５号アネックス神泉３０１,,13,113,1500045,,,,,,,2025-11-28,1,,,,,レリーサ,0
593,3011101113975,新規,0,2025-11-28,2025-11-28,株式会社ＦＡＢｉＣ,,株式会社,東京都,新宿区,西新宿３丁目３番１３号西新宿水間ビル２Ｆ,,13,104,1600023,,,,,,,2025-11-28,1,,,,,ファビック,0
594,3011101114098,新規,0,2025-11-28,2025-11-28,ＨＩＧＯ株式会社,,株式会社,東京都,新宿区,山吹町３６２－６江戸川橋ＲｅｔａｗＨｉｌｌｓ３０３号,,13,104,1620801,,,,,,,2025-11-28,1,,,,,ヒゴ,0
599,3011401027611,新規,0,2025-11-28,2025-11-28,株式会社セレーノ,,株式会社,東京都,板橋区,高島平９丁目４５番５－３１０号,,13,119,1750082,,,,,,,2025-11-28,1,,,,,セレーノ,0
606,3011801047110,新規,0,2025-11-28,2025-11-28,株式会社響不動産,,株式会社,東京都,足立区,梅島１丁目２４番７号ＫＡＮＲＡ梅島０４,,13,121,1210816,,,,,,,2025-11-28,1,,,,,ヒビキフドウサン,0
607,3011801047119,新規,0,2025-11-28,2025-11-28,株式会社Ｆｒｅｅｎｙ,,株式会社,東京都,葛飾区,高砂５丁目４８番１１号１Ｆ,,13,122,1250054,,,,,,,2025-11-28,1,,,,,フリーニー,0
609,3012303002248,新規,0,2025-11-28,2025-11-28,合同会社ＬＵＭＩＮＸ,,合同会社,東京都,町田市,大蔵町２０４７番地３４,,13,209,1950062,,,,,,,2025-11-28,1,,,,,ルミンクス,0
616,3013301055378,新規,0,2025-11-28,2025-11-28,トラフィックサポート株式会社,,株式会社,東京都,豊島区,池袋４丁目１番７号,,13,116,1710014,,,,,,,2025-11-28,1,,,,,トラフィックサポート,0
617,3013303007971,新規,0,2025-11-28,2025-11-28,合同会社Ａｍｅｌｉｏｒａ,,合同会社,東京都,豊島区,東池袋２丁目６２番８号ＢＩＧオフィスプラザ池袋１２０６,,13,116,1700013,,,,,,,2025-11-28,1,,,,,アメリオラ,0
623,3020001165960,新規,0,2025-11-28,2025-11-28,國本商事株式会社,,株式会社,神奈川県,横浜市南区,万世町１丁目１６－５ワイドリバー万世４０３,,14,105,2320032,,,,,,,2025-11-28,1,,,,,クニモトショウジ,0
624,3020001165985,新規,0,2025-11-28,2025-11-28,産業建築研究所株式会社,,株式会社,神奈川県,横浜市西区,浅間台１５番地２６,,14,103,2200071,,,,,,,2025-11-28,1,,,,,サンギョウケンチクケンキュウジョ,0
625,3020003029841,新規,0,2025-11-28,2025-11-28,合同会社ＢＡＳＥ,,合同会社,神奈川県,横浜市保土ケ谷区,岩井町３９７コート保土ヶ谷Ｂ３０５,,14,106,2400023,,,,,,,2025-11-28,1,,,,,ベース,0
626,3020005017051,新規,0,2025-11-28,2025-11-28,一般社団法人日本健康ゴルフ共創機構,,その他の設立登記法人,神奈川県,横浜市金沢区,福浦２丁目１７番地１６,,14,108,2360004,,,,,,,2025-11-28,1,,,,,ニホンケンコウゴルフキョウソウキコウ,0
628,3021001086809,新規,0,2025-11-28,2025-11-28,ＭＥＳＵＣＡ株式会社,,株式会社,神奈川県,茅ヶ崎市,萩園２３３９番地３８,,14,207,2530071,,,,,,,2025-11-28,1,,,,,メスカ,0
629,3021001086899,新規,0,2025-11-28,2025-11-28,東来繁盛株式会社,,株式会社,神奈川県,大和市,下鶴間３００１番地４６エミネンス林間Ｉ－３０３,00141674,14,213,2420001,,,,,,,2025-11-28,1,,,,,トウライハンジョウ,0
639,3030001169820,新規,0,2025-11-28,2025-11-28,株式会社匠陽内装,,株式会社,埼玉県,戸田市,喜沢南２丁目３番２６号,,11,224,3350014,,,,,,,2025-11-28,1,,,,,ショウヨウナイソウ,0
648,3040001141547,新規,0,2025-11-28,2025-11-28,株式会社Ｔｏｄａｓｔａ,,株式会社,千葉県,千葉市中央区,都町８丁目４番１号,,12,101,2600001,,,,,,,2025-11-28,1,,,,,トゥデスタ,0
651,3040003029047,新規,0,2025-11-28,2025-11-28,大宮基地合同会社,,合同会社,千葉県,千葉市若葉区,大宮町３２１３－１２,,12,104,2640016,,,,,,,2025-11-28,1,,,,,オオミヤベース,0
665,3070005010448,新規,0,2025-11-28,2025-11-28,弁護士法人杉本法律事務所,,その他の設立登記法人,群馬県,高崎市,栄町３番１１号高崎バナーズビル５階,,10,202,3700841,,,,,,,2025-11-28,1,,,,,スギモトホウリツジムショ,0
667,3080101025919,新規,0,2025-11-28,2025-11-28,オーシャンフロー株式会社,,株式会社,静岡県,富士宮市,西町５番１８号,,22,207,4180056,,,,,,,2025-11-28,1,,,,,オーシャンフロー,0
668,3090001019623,新規,0,2025-11-28,2025-11-28,株式会社河口湖音楽と森の美術館,,株式会社,山梨県,南都留郡富士河口湖町,河口３０７７番地の２０,,19,430,4010304,,,,,,,2025-11-28,1,,,,,カワグチコオンガクトモリノビジュツカン,0
670,3100003008465,新規,0,2025-11-28,2025-11-28,合同会社ＮＯＴＯ軽井沢,,合同会社,長野県,北佐久郡軽井沢町,大字長倉３７１０番地６,,20,321,3890111,,,,,,,2025-11-28,1,,,,,ノトカルイザワ,0
672,3110001039742,新規,0,2025-11-28,2025-11-28,株式会社みのりやホールディングス,,株式会社,新潟県,新潟市西蒲区,大関９番地,,15,108,9590417,,,,,,,2025-11-28,1,,,,,ミノリヤホールディングス,0
680,3120001282085,新規,0,2025-11-28,2025-11-28,文化構想株式会社,,株式会社,大阪府,大阪市中央区,東心斎橋２丁目９番１９－３０７号,,27,128,5420083,,,,,,,2025-11-28,1,,,,,ブンカコウソウ,0
681,3120001282234,新規,0,2025-11-28,2025-11-28,株式会社結いの杜,,株式会社,大阪府,大阪市福島区,海老江５丁目３番１１号,,27,103,5530001,,,,,,,2025-11-28,1,,,,,ユイノモリ,0
682,3120001282259,新規,0,2025-11-28,2025-11-28,ココレコンサルティング株式会社,,株式会社,大阪府,大阪市天王寺区,夕陽丘町４－２,,27,109,5430075,,,,,,,2025-11-28,1,,,,,ココレコンサルティング,0
683,3120001282275,新規,0,2025-11-28,2025-11-28,株式会社エクラ,,株式会社,大阪府,大阪市阿倍野区,松崎町２丁目１０番８号,,27,119,5450053,,,,,,,2025-11-28,1,,,,,エクラ,0
684,3120001282283,新規,0,2025-11-28,2025-11-28,株式会社ＲＥＦＩＮＡ,,株式会社,大阪府,大阪市浪速区,下寺３丁目３番２０－３１２号,,27,111,5560001,,,,,,,2025-11-28,1,,,,,レフィナ,0
685,3120001282300,新規,0,2025-11-28,2025-11-28,株式会社ＭＦＤ,,株式会社,大阪府,大阪市旭区,赤川２丁目９番９号,,27,117,5350005,,,,,,,2025-11-28,1,,,,,エムエフディー,0
686,3120001282358,新規,0,2025-11-28,2025-11-28,友株式会社,,株式会社,大阪府,大阪市西成区,千本北１丁目２０番１５号,,27,122,5570053,,,,,,,2025-11-28,1,,,,,ユウ,0
689,3120003031242,新規,0,2025-11-28,2025-11-28,合同会社ラパンプラス,,合同会社,大阪府,大阪市都島区,中野町４丁目５番１３号プレジデントハイツ２０７号室,,27,102,5340027,,,,,,,2025-11-28,1,,,,,ラパンプラス,0
690,3120003031309,新規,0,2025-11-28,2025-11-28,朱雀合同会社,,合同会社,大阪府,大阪市西成区,松２丁目２番９号,,27,122,5570034,,,,,,,2025-11-28,1,,,,,アカ,0
691,3120003031317,新規,0,2025-11-28,2025-11-28,合同会社あいあい,,合同会社,大阪府,大阪市淀川区,三津屋北２丁目１５番４５－２０８号,,27,123,5320032,,,,,,,2025-11-28,1,,,,,アイアイ,0
692,3120003031325,新規,0,2025-11-28,2025-11-28,ＡＲＣＭＥＣ合同会社,,合同会社,大阪府,大阪市淀川区,西中島３丁目２２番２０号,,27,123,5320011,,,,,,,2025-11-28,1,,,,,エーアールシーメック,0
698,3120103006870,新規,0,2025-11-28,2025-11-28,檸檬合同会社,,合同会社,大阪府,富田林市,甲田３丁目７番２２―６０４号,,27,214,5840036,,,,,,,2025-11-28,1,,,,,レモン,0
700,3120901051878,新規,0,2025-11-28,2025-11-28,ファクトリーホールディングス株式会社,,株式会社,大阪府,箕面市,船場東１丁目１２番５号,,27,220,5620035,,,,,,,2025-11-28,1,,,,,ファクトリーホールディングス,0
720,3140001140869,新規,0,2025-11-28,2025-11-28,株式会社Ｃｏｃｏ　Ｓｔｙｌｅ,,株式会社,兵庫県,尼崎市,猪名寺３丁目５番４７号,,28,202,6610981,,,,,,,2025-11-28,1,,,,,ココスタイル,0
721,3140001140902,新規,0,2025-11-28,2025-11-28,株式会社Ａｕｒａｌｉｓ,,株式会社,兵庫県,宝塚市,高司４丁目４番７－Ｄ１０７号,,28,214,6650051,,,,,,,2025-11-28,1,,,,,オーラリス,0
722,3140001140910,新規,0,2025-11-28,2025-11-28,ミネルヴァ神戸株式会社,,株式会社,兵庫県,神戸市兵庫区,荒田町１丁目１６番２号湊川センタービルＡ棟３Ｆ,,28,105,6520032,,,,,,,2025-11-28,1,,,,,,0
726,3140003022883,新規,0,2025-11-28,2025-11-28,合同会社トゥルーライズ,,合同会社,兵庫県,神戸市中央区,脇浜海岸通４丁目３番８－７０６号,,28,110,6510073,,,,,,,2025-11-28,1,,,,,トゥルーライズ,0
727,3140003022900,新規,0,2025-11-28,2025-11-28,合同会社百舌鳥,,合同会社,兵庫県,尼崎市,潮江１丁目７番１号,,28,202,6610976,,,,,,,2025-11-28,1,,,,,モズ,0
728,3150001028568,新規,0,2025-11-28,2025-11-28,株式会社ＮＲ,,株式会社,奈良県,生駒郡斑鳩町,目安４丁目８番２１号,,29,344,6360132,,,,,,,2025-11-28,1,,,,,エヌアール,0
745,3180001169673,新規,0,2025-11-28,2025-11-28,ＭＡＧＩＣ　ＪＯＨＮ株式会社,,株式会社,愛知県,大府市,共和町３丁目２１番地の７エシール共和２０２号,,23,223,4740061,,,,,,,2025-11-28,1,,,,,マジックジョン,0
749,3180301040451,新規,0,2025-11-28,2025-11-28,株式会社梨野,,株式会社,愛知県,豊田市,大野瀬町ミヤノコシ４番地,,23,211,4412511,,,,,,,2025-11-28,1,,,,,,0
752,3190005012093,新規,0,2025-11-28,2025-11-28,一般社団法人Ｂｉｚ　Ｋｉｄｓ　Ｃｏｎｎｅｃｔ三重,,その他の設立登記法人,三重県,四日市市,伊坂町１６７０番地の１８,,24,202,5128064,,,,,,,2025-11-28,1,,,,,ビズキッズコネクトミエ,0
753,3200001044469,新規,0,2025-11-28,2025-11-28,株式会社ＵＥＭＡＴＳＵボーリング,,株式会社,岐阜県,岐阜市,西荘２丁目５番２７－２０３号（プレジャー西荘）,,21,201,5008362,,,,,,,2025-11-28,1,,,,,ウエマツボーリング,0
765,3270001009333,新規,0,2025-11-28,2025-11-28,Ｈオフィス株式会社,,株式会社,鳥取県,鳥取市,覚寺６３番地５,,31,201,6800003,,,,,,,2025-11-28,1,,,,,エイチオフィス,0
768,3290001112242,新規,0,2025-11-28,2025-11-28,Ｈ＆Ｍ　ｈｏｌｄｉｎｇｓ株式会社,,株式会社,福岡県,福岡市中央区,天神３丁目１０番１号,,40,133,8100001,,,,,,,2025-11-28,1,,,,,エイチアンドエムホールディングス,0
769,3290001112291,新規,0,2025-11-28,2025-11-28,ｋｏａｌａｋｕｎ株式会社,,株式会社,福岡県,糟屋郡志免町,片峰中央３丁目８番３４号,,40,343,8112246,,,,,,,2025-11-28,1,,,,,コアラクン,0
771,3290003017737,新規,0,2025-11-28,2025-11-28,合同会社ＴＥＲＵ,,合同会社,福岡県,福岡市東区,香椎照葉１丁目４番２－７０５号ラサンテ照葉オーシャンテラス,,40,131,8130017,,,,,,,2025-11-28,1,,,,,テル,0
778,3320001021448,新規,0,2025-11-28,2025-11-28,株式会社ＫＳＹサービス,,株式会社,大分県,大分市,大字田尻６８６番地の３ウィンダム平ノ前３０１,,44,201,8701143,,,,,,,2025-11-28,1,,,,,ケイエスワイサービス,0
779,3320005010273,新規,0,2025-11-28,2025-11-28,医療法人ゆうき皮ふ科クリニック,,その他の設立登記法人,大分県,臼杵市,大字市浜７４３番地９,,44,206,8750052,,,,,,,2025-11-28,1,,,,,ユウキヒフカクリニック,0
788,3360003015436,新規,0,2025-11-28,2025-11-28,大芽サポート合同会社,,合同会社,沖縄県,沖縄市,宮里４丁目４－１０,,47,211,9042165,,,,,,,2025-11-28,1,,,,,オオメサポート,0
790,3370003007382,新規,0,2025-11-28,2025-11-28,合同会社七福,,合同会社,宮城県,塩竈市,袖野田町２０番４号Ｓ・Ｋハイツ１０３号,,04,203,9850043,,,,,,,2025-11-28,1,,,,,シチフク,0
801,3430003018316,新規,0,2025-11-28,2025-11-28,ＶＯＬＵＮＴ合同会社,,合同会社,北海道,札幌市東区,本町二条４丁目７番１２号,,01,103,0650042,,,,,,,2025-11-28,1,,,,,ヴォラント,0
802,3440003001733,新規,0,2025-11-28,2025-11-28,合同会社ユーコネクト,,合同会社,北海道,函館市,石川町５３９番地４,,01,202,0410802,,,,,,,2025-11-28,1,,,,,ユーコネクト,0
821,4010401194758,新規,0,2025-11-28,2025-11-28,サンテイテクノロジーズ株式会社,,株式会社,東京都,港区,西新橋２丁目１１－１３虎ノ門リンク３Ｆ,,13,103,1050003,,,,,,,2025-11-28,1,,,,,サンテイテクノロジーズ,0
825,4010403036660,新規,0,2025-11-28,2025-11-28,鈴木産業合同会社,,合同会社,東京都,港区,浜松町２丁目２番１５号浜松町ダイヤビル２Ｆ,,13,103,1050013,,,,,,,2025-11-28,1,,,,,スズキサンギョウ,0
827,4010405024977,新規,0,2025-11-28,2025-11-28,一般社団法人Ｔｏｉ,,その他の設立登記法人,東京都,港区,北青山１丁目３番１号アールキューブ青山３階,,13,103,1070061,,,,,,,2025-11-28,1,,,,,トイ,0
834,4010701048663,新規,0,2025-11-28,2025-11-28,株式会社ハッピー企画グループ,,株式会社,東京都,品川区,北品川５丁目６番１６号,,13,109,1410001,,,,,,,2025-11-28,1,,,,,ハッピーキカクグループ,0
837,4010703007997,新規,0,2025-11-28,2025-11-28,ＣＥＣＩＬ合同会社,,合同会社,東京都,品川区,西五反田２丁目１８番地３グレイス西五反田３１２,,13,109,1410031,,,,,,,2025-11-28,1,,,,,セシル,0
846,4010901058545,新規,0,2025-11-28,2025-11-28,株式会社Ｈ＆Ｔ　Ｍａｎａｇｅｍｅｎｔ,,株式会社,東京都,世田谷区,砧４丁目２８番３号,,13,112,1570073,,,,,,,2025-11-28,1,,,,,エイチアンドティーマネジメント,0
847,4010903010421,新規,0,2025-11-28,2025-11-28,Ｓ．Ｔａｋｅｎａｋａ商事合同会社,,合同会社,東京都,世田谷区,桜上水１丁目１番１－２０５号,,13,112,1560045,,,,,,,2025-11-28,1,,,,,エスタケナカショウジ,0
854,4011003023009,新規,0,2025-11-28,2025-11-28,合同会社渋家広藝,,合同会社,東京都,渋谷区,渋谷３丁目１５番３号,,13,113,1500002,,,,,,,2025-11-28,1,,,,,シブヤコウゲイ,0
855,4011003023025,新規,0,2025-11-28,2025-11-28,ＲＤＲ　ＪＡＰＡＮ合同会社,,合同会社,東京都,渋谷区,恵比寿西２丁目４番８号ウィンド恵比寿ビル８Ｆ,,13,113,1500021,,,,,,,2025-11-28,1,,,,,アールディーアールジャパン,0
856,4011003023033,新規,0,2025-11-28,2025-11-28,やきへねろん合同会社,,合同会社,東京都,渋谷区,道玄坂１丁目１０番８号渋谷道玄坂東急ビル２Ｆ―Ｃ,,13,113,1500043,,,,,,,2025-11-28,1,,,,,ヤキヘネロン,0
859,4011101113917,新規,0,2025-11-28,2025-11-28,株式会社Ｐｒｉｍｅ　Ｌｕｘ,,株式会社,東京都,新宿区,西新宿３丁目３番１３号西新宿水間ビル２階,,13,104,1600023,,,,,,,2025-11-28,1,,,,,プライムルクス,0
860,4011101113933,新規,0,2025-11-28,2025-11-28,株式会社ＧＦＣ　ｂｒｉｄｇｅ,,株式会社,東京都,新宿区,西新宿３丁目３番１３号西新宿水間ビル６階,,13,104,1600023,,,,,,,2025-11-28,1,,,,,ジーエフシーブリッジ,0
861,4011101113990,新規,0,2025-11-28,2025-11-28,株式会社ｐｒｏｄＥＸ,,株式会社,東京都,新宿区,神楽坂２丁目１３末よしビル３Ｆ,,13,104,1620825,,,,,,,2025-11-28,1,,,,,プロデックス,0
862,4011101114007,新規,0,2025-11-28,2025-11-28,ＰＥＮＴＡ株式会社,,株式会社,東京都,新宿区,揚場町１番１４号,,13,104,1620824,,,,,,,2025-11-28,1,,,,,,0
863,4011101114106,新規,0,2025-11-28,2025-11-28,株式会社Ｖａｌｕｅ　Ｆｏｒ　Ｔｉｍｅ,,株式会社,東京都,新宿区,北新宿２丁目２－１９,,13,104,1690074,,,,,,,2025-11-28,1,,,,,バリューフォータイム,0
866,4011103016804,新規,0,2025-11-28,2025-11-28,ＩＨ２合同会社,,合同会社,東京都,新宿区,富久町１５番１－５２１３号,,13,104,1620067,,,,,,,2025-11-28,1,,,,,アイエイチツー,0
867,4011201026804,新規,0,2025-11-28,2025-11-28,ビズローグ株式会社,,株式会社,東京都,中野区,本町４丁目３８－２５ナイスアーバン新中野１３０３,,13,114,1640012,,,,,,,2025-11-28,1,,,,,ビズローグ,0
868,4011203004898,新規,0,2025-11-28,2025-11-28,ＫＡＳＵ合同会社,,合同会社,東京都,中野区,南台５丁目１２－１１,,13,114,1640014,,,,,,,2025-11-28,1,,,,,カス,0
872,4011501032840,新規,0,2025-11-28,2025-11-28,株式会社えんちゃんと,,株式会社,東京都,荒川区,東尾久５丁目３２番８－４０４号,,13,118,1160012,,,,,,,2025-11-28,1,,,,,エンチャント,0
873,4011601029200,新規,0,2025-11-28,2025-11-28,マネジメントＡｎ株式会社,,株式会社,東京都,練馬区,豊玉中１丁目３０－９,,13,120,1760013,,,,,,,2025-11-28,1,,,,,マネジメントアン,0
877,4012301014566,新規,0,2025-11-28,2025-11-28,Ｓｋｙ　Ｅａｇｌｅ　Ｇｌｏｂａｌ　Ｐｒｏｐｅｒｔｙ　Ｃｏｎｓｕｌｔｉｎｇ株式会社,,株式会社,東京都,町田市,南つくし野２丁目３１番地３６,,13,209,1940002,,,,,,,2025-11-28,1,,,,,スカイイーグルグローバルプロパティコンサルティング,0
880,4012803003934,新規,0,2025-11-28,2025-11-28,美健日和合同会社,,合同会社,東京都,国立市,中１丁目９－１２－７０３,,13,215,1860004,,,,,,,2025-11-28,1,,,,,ビケンビヨリ,0
885,4013301055369,新規,0,2025-11-28,2025-11-28,豊沢株式会社,,株式会社,東京都,豊島区,巣鴨３丁目３６番２の１０１,,13,116,1700002,,,,,,,2025-11-28,1,,,,,トヨザワ,0
901,4020005017059,新規,0,2025-11-28,2025-11-28,一般社団法人まるみ,,その他の設立登記法人,神奈川県,横浜市泉区,緑園３丁目１３番１５クレフォート緑園２０１号室,,14,116,2450002,,,,,,,2025-11-28,1,,,,,マルミ,0
904,4021001086915,新規,0,2025-11-28,2025-11-28,ＳＥＣＯＮＤ　ＳＣＥＮＥ株式会社,,株式会社,神奈川県,相模原市南区,新磯野１丁目２７番２号,,14,153,2520325,,,,,,,2025-11-28,1,,,,,セカンドシーン,0
920,4030003028131,新規,0,2025-11-28,2025-11-28,大地合同会社,,合同会社,埼玉県,南埼玉郡宮代町,本田５丁目２番２２号,,11,442,3450827,,,,,,,2025-11-28,1,,,,,ダイチ,0
924,4040001141546,新規,0,2025-11-28,2025-11-28,株式会社ＧＲＡＮＤＡＳ,,株式会社,千葉県,市川市,市川１丁目３番１８号,,12,203,2720034,,,,,,,2025-11-28,1,,,,,グランダス,0
925,4040001141562,新規,0,2025-11-28,2025-11-28,株式会社カッターズ,,株式会社,千葉県,市原市,山口字不動下５０４番地１７,,12,219,2900558,,,,,,,2025-11-28,1,,,,,カッターズ,0
930,4040003028956,新規,0,2025-11-28,2025-11-28,レディグラ合同会社,,合同会社,千葉県,浦安市,当代島１丁目３番７号フレンドハウス（１０２）,,12,227,2790001,,,,,,,2025-11-28,1,,,,,レディグラ,0
931,4040005022957,新規,0,2025-11-28,2025-11-28,一般社団法人ウクライナ復興支援協会,,その他の設立登記法人,千葉県,千葉市中央区,要町２番１２号豊和東千葉ビル６階,,12,101,2600017,,,,,,,2025-11-28,1,,,,,ウクライナフッコウシエンキョウカイ,0
933,4050001057634,新規,0,2025-11-28,2025-11-28,ＴＡＩ・ＳＨＯビルド株式会社,,株式会社,茨城県,つくばみらい市,伊奈東５８－１２０,,08,235,3002308,,,,,,,2025-11-28,1,,,,,タイショービルド,0
936,4050003009773,新規,0,2025-11-28,2025-11-28,合同会社エールパートナーズ,,合同会社,茨城県,日立市,中成沢町２丁目２６－１,,08,202,3160033,,,,,,,2025-11-28,1,,,,,エールパートナーズ,0
941,4080401028281,新規,0,2025-11-28,2025-11-28,株式会社ＳＩＫ,,株式会社,静岡県,御前崎市,池新田３１５９番地の３,,22,223,4371612,,,,,,,2025-11-28,1,,,,,エスアイケー,0
943,4100001039148,新規,0,2025-11-28,2025-11-28,信州ＰＲＩＤＥ株式会社,,株式会社,長野県,松本市,中央１丁目５－２,,20,202,3900811,,,,,,,2025-11-28,1,,,,,シンシュウプライド,0
957,4120001282200,新規,0,2025-11-28,2025-11-28,株式会社Ｓａｌｅｓ　Ｄｏｃｋ,,株式会社,大阪府,大阪市中央区,久太郎町４丁目１番３号,,27,128,5410056,,,,,,,2025-11-28,1,,,,,セールスドック,0
958,4120001282258,新規,0,2025-11-28,2025-11-28,株式会社ファクトリーヒロ,,株式会社,大阪府,大阪市大正区,三軒家東３丁目１１番３４号,,27,108,5510002,,,,,,,2025-11-28,1,,,,,ファクトリーヒロ,0
959,4120001282266,新規,0,2025-11-28,2025-11-28,株式会社ソルタドール,,株式会社,大阪府,大阪市淀川区,西中島４丁目７－２０日宝新大阪第一ビル１０４号室,,27,123,5320011,,,,,,,2025-11-28,1,,,,,ソルタドール,0
962,4120003031308,新規,0,2025-11-28,2025-11-28,ＧＨ．合同会社,,合同会社,大阪府,大阪市北区,梅田１丁目２番２号大阪駅前第２ビル１２－１２,,27,127,5300001,,,,,,,2025-11-28,1,,,,,ジーエイチ,0
963,4120003031316,新規,0,2025-11-28,2025-11-28,クリエイト合同会社,,合同会社,大阪府,大阪市西区,京町堀１丁目４番９号京町橋八千代ビル２階,,27,106,5500003,,,,,,,2025-11-28,1,,,,,クリエイト,0
975,4122001039943,新規,0,2025-11-28,2025-11-28,ストラーダ株式会社,,株式会社,大阪府,東大阪市,菱江３丁目１６－１８,,27,227,5780984,,,,,,,2025-11-28,1,,,,,ストラーダ,0
976,4122001039951,新規,0,2025-11-28,2025-11-28,株式会社Ｓｍｉｌｅ,,株式会社,大阪府,八尾市,桜ヶ丘３丁目１１２番地の４,,27,212,5810869,,,,,,,2025-11-28,1,,,,,スマイル,0
980,4130001081089,新規,0,2025-11-28,2025-11-28,ＯＲＧＡＩＴＳＵ株式会社,,株式会社,京都府,京都市北区,紫竹北大門町１０番地２,,26,101,6038416,,,,,,,2025-11-28,1,,,,,オルガイツ,0
981,4130001081114,新規,0,2025-11-28,2025-11-28,株式会社いつき通商,,株式会社,京都府,京都市下京区,中堂寺壬生川町１７番地の１５,,26,106,6008806,,,,,,,2025-11-28,1,,,,,イツキツウショウ,0
987,4140001140876,新規,0,2025-11-28,2025-11-28,株式会社吉岡設備,,株式会社,兵庫県,神戸市北区,星和台７丁目７番地の２,,28,109,6511121,,,,,,,2025-11-28,1,,,,,ヨシオカセツビ,0
988,4160001027238,新規,0,2025-11-28,2025-11-28,株式会社フェリシア,,株式会社,滋賀県,長浜市,香花寺町４１４番地１,,25,203,5260132,,,,,,,2025-11-28,1,,,,,フェリシア,0
998,4180001169648,新規,0,2025-11-28,2025-11-28,株式会社クロスワン,,株式会社,愛知県,名古屋市中村区,松原町２丁目４８番地３グランドハイツ３Ｂ,,23,105,4530021,,,,,,,2025-11-28,1,,,,,クロスワン,0
999,4180001169672,新規,0,2025-11-28,2025-11-28,株式会社Ｈｏｒｉｏ　Ｄｅｓｉｇｎ,,株式会社,愛知県,春日井市,八田町７丁目１８－８アベニューＩＩ１０２,00141671,23,206,4860849,,,,,,,2025-11-28,1,,,,,ホリオデザイン,0
1000,4180001169680,新規,0,2025-11-28,2025-11-28,株式会社吉光,,株式会社,愛知県,名古屋市中区,栄４丁目１４０３番の１４,,23,106,4600008,,,,,,,2025-11-28,1,,,,,ヨシミツ,0
1006,4180301040450,新規,0,2025-11-28,2025-11-28,株式会社ムラタ電工,,株式会社,愛知県,知立市,谷田町西２丁目７番地７,,23,225,4720014,,,,,,,2025-11-28,1,,,,,ムラタデンコウ,0
1011,4230005009506,新規,0,2025-11-28,2025-11-28,一般社団法人日本ペアレントトレーニング子育て支援協会,,その他の設立登記法人,富山県,富山市,中央通り２丁目３番２２号中教院モルティ２階,,16,201,9300044,,,,,,,2025-11-28,1,,,,,,0
1024,4290001112308,新規,0,2025-11-28,2025-11-28,クオリウム株式会社,,株式会社,福岡県,福岡市中央区,天神１丁目１－１,,40,133,8100001,,,,,,,2025-11-28,1,,,,,クオリウム,0
1025,4290001112324,新規,0,2025-11-28,2025-11-28,株式会社エントップ,,株式会社,福岡県,福岡市早良区,四箇２丁目２番１０－２０３号,,40,137,8111103,,,,,,,2025-11-28,1,,,,,エントップ,0
1027,4290003017744,新規,0,2025-11-28,2025-11-28,合同会社アイラボ,,合同会社,福岡県,福岡市西区,横浜１丁目３３番５－１０３号メゾン松本Ｉ,00141672,40,135,8190166,,,,,,,2025-11-28,1,,,,,アイラボ,0
1031,4290801032060,新規,0,2025-11-28,2025-11-28,株式会社総建,,株式会社,福岡県,北九州市若松区,白山２丁目１３番３３号,,40,103,8080035,,,,,,,2025-11-28,1,,,,,ソウケン,0
1032,4290803005213,新規,0,2025-11-28,2025-11-28,合同会社パレッド,,合同会社,福岡県,北九州市八幡西区,光明２丁目６－１５ガンバードＤ,,40,109,8070824,,,,,,,2025-11-28,1,,,,,パレッド,0
1038,4320003004838,新規,0,2025-11-28,2025-11-28,合同会社ＳＬＯＣ　ＷＯＲＫＳ総合研究所,,合同会社,大分県,別府市,駅前本町９－２０オフィスＨＯＯＤ,,44,202,8740934,,,,,,,2025-11-28,1,,,,,スロックワークスソウゴウケンキュウジョ,0
1043,4360001036086,新規,0,2025-11-28,2025-11-28,こうのぶ株式会社,,株式会社,沖縄県,那覇市,字小禄２７９番地,,47,201,9010152,,,,,,,2025-11-28,1,,,,,コウノブ,0
1046,4360003015419,新規,0,2025-11-28,2025-11-28,合同会社ＡＰコネクト,,合同会社,沖縄県,那覇市,字上間４２５番地Ｃ－１０,,47,201,9020073,,,,,,,2025-11-28,1,,,,,エーピーコネクト,0
1050,4370001053246,新規,0,2025-11-28,2025-11-28,コードルート株式会社,,株式会社,宮城県,仙台市宮城野区,鉄砲町東４番地の４レーベン仙台ＳＩＬＶＩＳＴＡ１１０１,,04,102,9830867,,,,,,,2025-11-28,1,,,,,コードルート,0
1051,4370001053254,新規,0,2025-11-28,2025-11-28,株式会社ＴＲＵＳＴ,,株式会社,宮城県,仙台市青葉区,三条町１２番１８号,,04,101,9810935,,,,,,,2025-11-28,1,,,,,トラスト,0
1052,4370001053262,新規,0,2025-11-28,2025-11-28,株式会社ハイライトウェルネス,,株式会社,宮城県,仙台市宮城野区,小田原１丁目７番２３－１０１号ラフィーネ小田原,,04,102,9830803,,,,,,,2025-11-28,1,,,,,ハイライトウェルネス,0
1078,5010001260587,新規,0,2025-11-28,2025-11-28,株式会社ＳＷＩＴＣＨ,,株式会社,東京都,中央区,日本橋室町１丁目１１番１２号日本橋水野ビル７階,,13,102,1030022,,,,,,,2025-11-28,1,,,,,スイッチ,0
1079,5010001260612,新規,0,2025-11-28,2025-11-28,株式会社ピクニック・ラボ,,株式会社,東京都,千代田区,神田松永町１３番地ＶＯＲＴ秋葉原ＩＩ,00141673,13,101,1010023,,,,,,,2025-11-28,1,,,,,ピクニックラボ,0
1086,5010003049442,新規,0,2025-11-28,2025-11-28,合同会社リンク流通,,合同会社,東京都,千代田区,神田和泉町１番地６－１６ヤマトビル４０５,,13,101,1010024,,,,,,,2025-11-28,1,,,,,リンクリュウツウ,0
1088,5010101016988,新規,0,2025-11-28,2025-11-28,株式会社Ｄ．Ｏ．ＲＥＸ,,株式会社,東京都,八王子市,南陽台３丁目１番２４号,,13,201,1920371,,,,,,,2025-11-28,1,,,,,ディーオーレックス,0
1094,5010401194617,新規,0,2025-11-28,2025-11-28,アーバンワークス株式会社,,株式会社,東京都,港区,東麻布２丁目２８番１号,,13,103,1060044,,,,,,,2025-11-28,1,,,,,アーバンワークス,0
1095,5010401194749,新規,0,2025-11-28,2025-11-28,株式会社ルフル,,株式会社,東京都,港区,北青山１丁目３番１号アールキューブ青山３階,,13,103,1070061,,,,,,,2025-11-28,1,,,,,ルフル,0
1104,5010503008096,新規,0,2025-11-28,2025-11-28,合同会社ｓａｉｒｅｎ,,合同会社,東京都,台東区,東浅草１丁目３－７－１０１,,13,106,1110025,,,,,,,2025-11-28,1,,,,,サイレン,0
1106,5010601068348,新規,0,2025-11-28,2025-11-28,株式会社ＥＬＡ,,株式会社,東京都,江東区,亀戸７丁目４４番２号,,13,108,1360071,,,,,,,2025-11-28,1,,,,,エラ,0
1108,5010603011933,新規,0,2025-11-28,2025-11-28,合同会社ＳＹＮＥＳ,,合同会社,東京都,墨田区,亀沢４丁目１６－５－１Ｆ,,13,107,1300014,,,,,,,2025-11-28,1,,,,,シネス,0
1113,5010901058536,新規,0,2025-11-28,2025-11-28,株式会社Ｎａｎａｉｒｏ,,株式会社,東京都,世田谷区,船橋６丁目２６番１１号１０１,,13,112,1560055,,,,,,,2025-11-28,1,,,,,ナナイロ,0
1116,5011001173837,新規,0,2025-11-28,2025-11-28,株式会社ピーナッツグループ,,株式会社,東京都,渋谷区,恵比寿西２丁目８番４号ＥＸ恵比寿西ビル５階,,13,113,1500021,,,,,,,2025-11-28,1,,,,,ピーナッツグループ,0
1118,5011003023073,新規,0,2025-11-28,2025-11-28,合同会社Ｒｉｎｃｏｔａ,,合同会社,東京都,渋谷区,桜丘町３番１－１８１７号ブランズ渋谷桜丘,,13,113,1500031,,,,,,,2025-11-28,1,,,,,リンコタ,0
1123,5011101113998,新規,0,2025-11-28,2025-11-28,株式会社Ｃｕｓｔｙｐｅ　Ｊａｐａｎ,,株式会社,東京都,新宿区,西新宿３丁目３番１３号西新宿水間ビル６階,,13,104,1600023,,,,,,,2025-11-28,1,,,,,カスタイプジャパン,0
1124,5011101114006,新規,0,2025-11-28,2025-11-28,株式会社Ｅｖｅｒｉａ,,株式会社,東京都,新宿区,市谷砂土原町３丁目１７番地１ラ・トゥール市谷砂土原Ｅ２０１,,13,104,1620842,,,,,,,2025-11-28,1,,,,,エヴェリア,0
1127,5011301031075,新規,0,2025-11-28,2025-11-28,株式会社ＹＡＳＨＩＮＫＡ,,株式会社,東京都,杉並区,桃井２丁目１９番８号プレサンスロジェ荻窪桃井３１３,,13,115,1670034,,,,,,,2025-11-28,1,,,,,ヤシンカ,0
1133,5011801047117,新規,0,2025-11-28,2025-11-28,株式会社Ａｓｓｅｔ．８,,株式会社,東京都,足立区,東和５丁目８番９－６０１号,,13,121,1200003,,,,,,,2025-11-28,1,,,,,アセットエイト,0
1136,5012301014615,新規,0,2025-11-28,2025-11-28,株式会社スタジオ鶴川,,株式会社,東京都,町田市,金井ヶ丘４丁目１８番６号,,13,209,1950076,,,,,,,2025-11-28,1,,,,,スタジオツルカワ,0
1145,5013303007978,新規,0,2025-11-28,2025-11-28,グローバルリンク合同会社,,合同会社,東京都,豊島区,池袋本町４丁目２５－４－２０１,,13,116,1700011,,,,,,,2025-11-28,1,,,,,グローバルリンク,0
1151,5020001165918,新規,0,2025-11-28,2025-11-28,株式会社住まいナビ．ｃｏｍ,,株式会社,神奈川県,横浜市西区,平沼１丁目５－２５－７０３,,14,103,2200023,,,,,,,2025-11-28,1,,,,,スマイナビドットコム,0
1152,5020001165934,新規,0,2025-11-28,2025-11-28,翡翠研究会株式会社,,株式会社,神奈川県,横浜市神奈川区,金港町５－１４クアドリフォリオ８階,,14,102,2210056,,,,,,,2025-11-28,1,,,,,ヒスイケンキュウカイ,0
1153,5020001165991,新規,0,2025-11-28,2025-11-28,株式会社Ｈｉｃｒａｆｔ,,株式会社,神奈川県,横浜市神奈川区,神之木町１４－２２コーポ雅１０２号室,,14,102,2210015,,,,,,,2025-11-28,1,,,,,ハイクラフト,0
1154,5020001166024,新規,0,2025-11-28,2025-11-28,株式会社ラルゴ,,株式会社,神奈川県,川崎市宮前区,神木本町３丁目７番２３号,,14,136,2160031,,,,,,,2025-11-28,1,,,,,ラルゴ,0
1158,5020003029831,新規,0,2025-11-28,2025-11-28,Ｙ’ｓ　Ｔｒｕｓｔ合同会社,,合同会社,神奈川県,川崎市麻生区,高石５丁目２７番１２－２号,,14,137,2150003,,,,,,,2025-11-28,1,,,,,ワイズトラスト,0
1159,5020003029856,新規,0,2025-11-28,2025-11-28,Ｙｏｋｏｈａｍａ　ｇｌｏｂａｌ　ａｃａｄｅｍｙ合同会社,,合同会社,神奈川県,横浜市神奈川区,金港町５番地１４クアドリフォリオ８階,,14,102,2210056,,,,,,,2025-11-28,1,,,,,ヨコハマグローバルアカデミー,0
1181,5040001141537,新規,0,2025-11-28,2025-11-28,株式会社御成エステート,,株式会社,千葉県,千葉市若葉区,金親町９７４番地３９,,12,104,2640001,,,,,,,2025-11-28,1,,,,,オナリエステート,0
1182,5040001141545,新規,0,2025-11-28,2025-11-28,株式会社エスエムホーム,,株式会社,千葉県,流山市,江戸川台西１丁目１０６番地の１,,12,220,2700115,,,,,,,2025-11-28,1,,,,,エスエムホーム,0
1186,5050001057641,新規,0,2025-11-28,2025-11-28,株式会社ＬＩＮＫ　ＯＮ,,株式会社,茨城県,つくば市,東光台２丁目６番地５,,08,220,3002635,,,,,,,2025-11-28,1,,,,,リンクオン,0
1212,5120001282232,新規,0,2025-11-28,2025-11-28,株式会社ウェリナ・アセット,,株式会社,大阪府,大阪市北区,堂島２丁目４番４－４８０２号,,27,127,5300003,,,,,,,2025-11-28,1,,,,,ウェリナアセット,0
1213,5120001282298,新規,0,2025-11-28,2025-11-28,株式会社しずくそう,,株式会社,大阪府,大阪市城東区,中央３丁目７番１８号シャルマンコーポ野江第ＩＩ期１１７号室,00141677,27,118,5360005,,,,,,,2025-11-28,1,,,,,シズクソウ,0
1218,5120003031307,新規,0,2025-11-28,2025-11-28,ピーチーキャピタル合同会社,,合同会社,大阪府,大阪市北区,梅田１丁目２番２号大阪駅前第２ビル１２－１２,,27,127,5300001,,,,,,,2025-11-28,1,,,,,ピーチーキャピタル,0
1219,5120003031315,新規,0,2025-11-28,2025-11-28,合同会社Ｂｌｏｏｍ,,合同会社,大阪府,守口市,文園町６番６号,,27,209,5700074,,,,,,,2025-11-28,1,,,,,ブルーム,0
1220,5120003031323,新規,0,2025-11-28,2025-11-28,合同会社ＲＳＰ,,合同会社,大阪府,大阪市北区,兎我野町１０番６号平田第二レジャービル５１０,,27,127,5300056,,,,,,,2025-11-28,1,,,,,アールエスピー,0
1222,5120005025273,新規,0,2025-11-28,2025-11-28,一般社団法人日本ＡＩ機構,,その他の設立登記法人,大阪府,大阪市西区,立売堀２丁目１番９号日建ビル６階,,27,106,5500012,,,,,,,2025-11-28,1,,,,,ニッポンエーアイキコウ,0
1232,5122001039934,新規,0,2025-11-28,2025-11-28,株式会社ＤＹＮＡ,,株式会社,大阪府,東大阪市,小阪本町１丁目２－８小阪ビル２０３,,27,227,5770802,,,,,,,2025-11-28,1,,,,,ダイナ,0
1243,5130001081113,新規,0,2025-11-28,2025-11-28,株式会社ＡＹＡＴＡＣＲＥＡＴＩＯＮ,,株式会社,京都府,京都市山科区,東野百拍子町２１番地２大翔第二ビル４０７号,,26,110,6078153,,,,,,,2025-11-28,1,,,,,アヤタクリエイション,0
1244,5130003010961,新規,0,2025-11-28,2025-11-28,山口配送合同会社,,合同会社,京都府,八幡市,男山金振２３番地５前川ハイツＡ棟１０５号室,,26,210,6148365,,,,,,,2025-11-28,1,,,,,ヤマグチハイソウ,0
1248,5140001140875,新規,0,2025-11-28,2025-11-28,株式会社ＶＩＶＡＮＴ,,株式会社,兵庫県,姫路市,朝日町２３２番地３,,28,201,6700934,,,,,,,2025-11-28,1,,,,,ヴィヴァン,0
1249,5140001140909,新規,0,2025-11-28,2025-11-28,ヒカリ防災株式会社,,株式会社,兵庫県,尼崎市,北竹谷町１丁目５番地の４,,28,202,6600878,,,,,,,2025-11-28,1,,,,,ヒカリボウサイ,0
1258,5140003022840,新規,0,2025-11-28,2025-11-28,合同会社昇縁,,合同会社,兵庫県,宝塚市,月見山１丁目４番４号ベルグラン宝塚３０５,,28,214,6650002,,,,,,,2025-11-28,1,,,,,ショウエン,0
1259,5140003022898,新規,0,2025-11-28,2025-11-28,合同会社みらい樹,,合同会社,兵庫県,加東市,厚利８６番地,,28,228,6731338,,,,,,,2025-11-28,1,,,,,ミライジュ,0
1265,5180001169663,新規,0,2025-11-28,2025-11-28,極東都市開発株式会社,,株式会社,愛知県,名古屋市東区,東桜２丁目３番７号東カン名古屋キャステール９２５号室,,23,102,4610005,,,,,,,2025-11-28,1,,,,,キョクトウトシカイハツ,0
1267,5180003029428,新規,0,2025-11-28,2025-11-28,合同会社藤本,,合同会社,愛知県,名古屋市千種区,内山１丁目１５番４号,,23,101,4640075,,,,,,,2025-11-28,1,,,,,フジモト,0
1276,5220001027040,新規,0,2025-11-28,2025-11-28,株式会社Ｒｏｉ　ｉｎｎｏｖａｔｅ,,株式会社,石川県,金沢市,片町１丁目６番２号,,17,201,9200981,,,,,,,2025-11-28,1,,,,,ロワイノベイト,0
1292,5290001112281,新規,0,2025-11-28,2025-11-28,株式会社Ｍプラス,,株式会社,福岡県,福岡市東区,青葉７丁目４４番１４号,,40,131,8130025,,,,,,,2025-11-28,1,,,,,エムプラス,0
1295,5290003017735,新規,0,2025-11-28,2025-11-28,コクリア合同会社,,合同会社,福岡県,福岡市南区,曰佐４丁目１０－３４－２０２,,40,134,8111313,,,,,,,2025-11-28,1,,,,,コクリア,0
1296,5290003017768,新規,0,2025-11-28,2025-11-28,サンクガトリア合同会社,,合同会社,福岡県,福岡市西区,今宿上ノ原２４５番地１,,40,135,8190163,,,,,,,2025-11-28,1,,,,,サンクガトリア,0
1303,5290803005212,新規,0,2025-11-28,2025-11-28,合同会社ＥＩＴＡＩ,,合同会社,福岡県,北九州市八幡西区,鷹の巣２丁目４番７号,,40,109,8060047,,,,,,,2025-11-28,1,,,,,エイタイ,0
1310,5350001019826,新規,0,2025-11-28,2025-11-28,株式会社都城クラフト蒸留所,,株式会社,宮崎県,都城市,山田町中霧島２４５３番地,,45,202,8894602,,,,,,,2025-11-28,1,,,,,ミヤコノジョウクラフトジョウリュウジョ,0
1311,5360001036085,新規,0,2025-11-28,2025-11-28,株式会社宮本工務店,,株式会社,沖縄県,宜野湾市,普天間２丁目１番２０－１号,,47,205,9012202,,,,,,,2025-11-28,1,,,,,ミヤモトコウムテン,0
1314,5370001053261,新規,0,2025-11-28,2025-11-28,株式会社Ｎｅｃｏ　ＴＥＣＨ,,株式会社,宮城県,仙台市宮城野区,福田町４丁目１１番１７号,,04,102,9830023,,,,,,,2025-11-28,1,,,,,ネコテック,0
1317,5400001017238,新規,0,2025-11-28,2025-11-28,株式会社不動ウエストファーム,,株式会社,岩手県,紫波郡矢巾町,大字和味第１３地割４３番地１,,03,322,0283627,,,,,,,2025-11-28,1,,,,,フドウウエストファーム,0
1328,5460101007785,新規,0,2025-11-28,2025-11-28,株式会社オカモト・エコアース・ジャパン,,株式会社,北海道,河東郡音更町,木野西通８丁目３番地９,,01,631,0800302,,,,,,,2025-11-28,1,,,,,オカモトエコアースジャパン,0
1329,5460105002329,新規,0,2025-11-28,2025-11-28,一般社団法人ＣＨＩＭＥ,,その他の設立登記法人,北海道,帯広市,西八条南３３丁目１番地３０,,01,207,0800018,,,,,,,2025-11-28,1,,,,,チャイム,0
1335,5700150070882,新規,0,2025-11-28,2016-02-17,柳沢自治会,,その他,愛媛県,大洲市,柳沢甲７３８番地１,,38,207,7950077,,,,,,,2016-02-17,1,,,,,ヤナギサワジチカイ,0
1344,6010001260693,新規,0,2025-11-28,2025-11-28,株式会社エム・シー・エス,,株式会社,東京都,中央区,銀座１丁目３番３号Ｇ１ビル７階,,13,102,1040061,,,,,,,2025-11-28,1,,,,,エムシーエス,0
1345,6010001260710,新規,0,2025-11-28,2025-11-28,株式会社ＧＳＣＷ２,,株式会社,東京都,千代田区,外神田３丁目１６番１２号アキバＣＯビル８Ｆ,,13,101,1010021,,,,,,,2025-11-28,1,,,,,ジーエスシーダブリューツー,0
1346,6010003049508,新規,0,2025-11-28,2025-11-28,合同会社ブラックレーベルＲ２,,合同会社,東京都,中央区,日本橋１丁目４番１号日本橋一丁目ビルディング,,13,102,1030027,,,,,,,2025-11-28,1,,,,,ブラックレーベルアールツー,0
1347,6010003049516,新規,0,2025-11-28,2025-11-28,第１期系統用蓄電合同会社,,合同会社,東京都,中央区,京橋２丁目１２番６号ＡＯＪ税理士法人内,,13,102,1040031,,,,,,,2025-11-28,1,,,,,ダイイッキケイトウヨウチクデン,0
1348,6010003049524,新規,0,2025-11-28,2025-11-28,合同会社やたがらす,,合同会社,東京都,中央区,日本橋蛎殻町１丁目２１番１１号ガリシア日本橋水天宮６０１,,13,102,1030014,,,,,,,2025-11-28,1,,,,,ヤタガラス,0
1349,6010003049549,新規,0,2025-11-28,2025-11-28,ＧＲＩＤ　ＣＡＰＩＴＡＬ合同会社,,合同会社,東京都,千代田区,丸の内２丁目２番１号岸本ビルヂング６階Ｒ４８,,13,101,1000005,,,,,,,2025-11-28,1,,,,,グリッドキャピタル,0
1351,6010103002705,新規,0,2025-11-28,2025-11-28,ＷＩＸＹ合同会社,,合同会社,東京都,八王子市,みなみ野５丁目３０番１１４号,,13,201,1920916,,,,,,,2025-11-28,1,,,,,ウィクシー,0
1359,6010401194500,新規,0,2025-11-28,2025-11-28,和然株式会社,,株式会社,東京都,港区,芝浦２丁目４－６－１０３号室,,13,103,1080023,,,,,,,2025-11-28,1,,,,,ワゼン,0
1367,6010501055098,新規,0,2025-11-28,2025-11-28,株式会社Ｕｎｉｖｅｒｓｉｏｎ　Ｃｌｏｓｕｒｅ　Ｌｏｇｉｃ,,株式会社,東京都,台東区,上野１丁目１７番６号広小路ビル８Ｆ－Ｂ,,13,106,1100005,,,,,,,2025-11-28,1,,,,,ユニバーシオンクロージャーロジック,0
1373,6010601068347,新規,0,2025-11-28,2025-11-28,ヒーローバース株式会社,,株式会社,東京都,江東区,豊洲６丁目２番３１－４２２１号,,13,108,1350061,,,,,,,2025-11-28,1,,,,,ヒーローバース,0
1379,6010803005627,新規,0,2025-11-28,2025-11-28,ＬａＬａ　ＡＩ　Ｄｅｓｉｇｎ　Ｌａｂｏ合同会社,,合同会社,東京都,大田区,西糀谷４丁目２９番１６－１２０３号,,13,111,1440034,,,,,,,2025-11-28,1,,,,,ララエーアイデザインラボ,0
1381,6010901058535,新規,0,2025-11-28,2025-11-28,株式会社ＷＯＬＯ,,株式会社,東京都,世田谷区,玉川田園調布２丁目８番４号,,13,112,1580085,,,,,,,2025-11-28,1,,,,,ウォロ,0
1382,6010903010444,新規,0,2025-11-28,2025-11-28,合同会社ＮＦ,,合同会社,東京都,世田谷区,駒沢５丁目１８番１０号,,13,112,1540012,,,,,,,2025-11-28,1,,,,,エヌエフ,0
1388,6011001173753,新規,0,2025-11-28,2025-11-28,株式会社ＴＡＯＫＩ,,株式会社,東京都,渋谷区,松濤１丁目２９番１号渋谷クロスロードビル６Ｆ,,13,113,1500046,,,,,,,2025-11-28,1,,,,,タオキ,0
1390,6011005011273,新規,0,2025-11-28,2025-11-28,タンバ特定目的会社,,その他の設立登記法人,東京都,渋谷区,恵比寿１丁目２０番２号７０４号室嶋本公認会計士事務所気付,,13,113,1500013,,,,,,,2025-11-28,1,,,,,タンバ,0
1398,6011101114062,新規,0,2025-11-28,2025-11-28,Ｙｕｍｅｌｉａ株式会社,,株式会社,東京都,新宿区,西新宿６丁目２５番８‐３０１号,,13,104,1600023,,,,,,,2025-11-28,1,,,,,ユメリア,0
1407,6011701028975,新規,0,2025-11-28,2025-11-28,メインテイン株式会社,,株式会社,東京都,江戸川区,小松川１丁目５番２号,,13,123,1320034,,,,,,,2025-11-28,1,,,,,メインテイン,0
1413,6012403007482,新規,0,2025-11-28,2025-11-28,井出工務店合同会社,,合同会社,東京都,調布市,深大寺東町４丁目２５番地２１,,13,208,1820012,,,,,,,2025-11-28,1,,,,,イデコウムテン,0
1426,6020001165990,新規,0,2025-11-28,2025-11-28,株式会社グレイス,,株式会社,神奈川県,横浜市保土ケ谷区,狩場町２１４番地,,14,106,2400025,,,,,,,2025-11-28,1,,,,,グレイス,0
1427,6020001166015,新規,0,2025-11-28,2025-11-28,株式会社ＴＳワールド,,株式会社,神奈川県,横浜市港北区,篠原台町８番３号,,14,109,2220024,,,,,,,2025-11-28,1,,,,,ティーエスワールド,0
1428,6020003029822,新規,0,2025-11-28,2025-11-28,合同会社クリキンディ,,合同会社,神奈川県,横浜市瀬谷区,阿久和西２丁目３８番地の１ハイツ向原Ｂ１０２,,14,114,2460025,,,,,,,2025-11-28,1,,,,,,0
1429,6020003029839,新規,0,2025-11-28,2025-11-28,合同会社Ｇｅｎｉｅ,,合同会社,神奈川県,横浜市磯子区,中原４丁目６－１６,,14,107,2350036,,,,,,,2025-11-28,1,,,,,ジーニー,0
1430,6020003029863,新規,0,2025-11-28,2025-11-28,合同会社ＭＪ,,合同会社,神奈川県,川崎市中原区,新丸子東３丁目１１００番地１２Ｍ１３０２,,14,133,2110004,,,,,,,2025-11-28,1,,,,,エムジェー,0
1431,6020005017057,新規,0,2025-11-28,2025-11-28,特定非営利活動法人福祉と社会の架け橋,,その他の設立登記法人,神奈川県,横浜市青葉区,桂台２丁目１３番地２５,,14,117,2270034,,,,,,,2025-11-28,1,,,,,フクシトシャカイノカケハシ,0
1439,6030001169834,新規,0,2025-11-28,2025-11-28,ＳＤＣｏｍｐａｃｔ株式会社,,株式会社,埼玉県,川口市,朝日６丁目２３番２３号,,11,203,3320001,,,,,,,2025-11-28,1,,,,,エスディーコンパクト,0
1455,6040003029036,新規,0,2025-11-28,2025-11-28,合同会社０５０７,,合同会社,千葉県,流山市,おおたかの森北１丁目４番地の１ソライエグラン流山おおたかの森８１５,,12,220,2700119,,,,,,,2025-11-28,1,,,,,ゼロゴゼロナナ,0
1462,6080101025916,新規,0,2025-11-28,2025-11-28,株式会社ＮＹＰＨ,,株式会社,静岡県,駿東郡小山町,須走２０６番地,,22,344,4101431,,,,,,,2025-11-28,1,,,,,ニーファ,0
1480,6120001282223,新規,0,2025-11-28,2025-11-28,株式会社フードドラフト,,株式会社,大阪府,大阪市中央区,東心斎橋１丁目１９番１５号,,27,128,5420083,,,,,,,2025-11-28,1,,,,,フードドラフト,0
1481,6120001282231,新規,0,2025-11-28,2025-11-28,株式会社エムティ・マシナリー,,株式会社,大阪府,大阪市北区,堂島２丁目４番４－４８０２号,,27,127,5300003,,,,,,,2025-11-28,1,,,,,エムティーマシナリー,0
1482,6120001282264,新規,0,2025-11-28,2025-11-28,心花日和株式会社,,株式会社,大阪府,大阪市東住吉区,湯里２丁目１４番２６－２０２号,,27,121,5460013,,,,,,,2025-11-28,1,,,,,シンカビヨリ,0
1483,6120001282297,新規,0,2025-11-28,2025-11-28,ＣＯｃａｎｖａｓ株式会社,,株式会社,大阪府,大阪市北区,天神橋２丁目４番１７号,,27,127,5300041,,,,,,,2025-11-28,1,,,,,コーキャンバス,0
1487,6120003031314,新規,0,2025-11-28,2025-11-28,Ｗｈｉｔｅ　Ｌｉｎｋ合同会社,,合同会社,大阪府,大阪市北区,国分寺２丁目３番２３号,,27,127,5310064,,,,,,,2025-11-28,1,,,,,ホワイトリンク,0
1488,6120003031322,新規,0,2025-11-28,2025-11-28,合同会社ＨＳＰ,,合同会社,大阪府,大阪市北区,西天満６丁目９番２号Ｗｉｎ西天満２０１,,27,127,5300047,,,,,,,2025-11-28,1,,,,,エイチエスピー,0
1499,6122003003400,新規,0,2025-11-28,2025-11-28,ＴＨＡＮＨ　ＮＨＡＮ合同会社,,合同会社,大阪府,東大阪市,寿町２丁目１番３号,,27,227,5770837,,,,,,,2025-11-28,1,,,,,タィンニャン,0
1504,6130001081104,新規,0,2025-11-28,2025-11-28,株式会社ＦＬＡＧ　ＳＨＩＰ,,株式会社,京都府,宇治市,広野町新成田１００番地の２０８,,26,204,6110031,,,,,,,2025-11-28,1,,,,,フラッグシップ,0
1506,6130003010960,新規,0,2025-11-28,2025-11-28,Ｋ．Ｆ．アセットマネジメント合同会社,,合同会社,京都府,京都市下京区,小稲荷町８５－２Ｇｒａｎｄ－Ｋ京都駅前ビル２０１,,26,106,6008208,,,,,,,2025-11-28,1,,,,,ケイエフアセットマネジメント,0
1507,6130005017525,新規,0,2025-11-28,2025-11-28,一般社団法人ＡＭＩ,,その他の設立登記法人,京都府,京都市伏見区,深草越後屋敷町６５番地１１,,26,109,6128431,,,,,,,2025-11-28,1,,,,,アミ,0
1515,6140001140874,新規,0,2025-11-28,2025-11-28,株式会社ハンドオフ,,株式会社,兵庫県,神戸市垂水区,狩口台６丁目５番２２－１号,,28,108,6550049,,,,,,,2025-11-28,1,,,,,ハンドオフ,0
1516,6140001140890,新規,0,2025-11-28,2025-11-28,Ｌｉｎｋｔａｌｅ株式会社,,株式会社,兵庫県,神戸市中央区,海岸通５丁目２番１４－６０２号,,28,110,6500024,,,,,,,2025-11-28,1,,,,,リンクテイル,0
1517,6140001140908,新規,0,2025-11-28,2025-11-28,株式会社ＨＡＮＡＲＩ,,株式会社,兵庫県,神戸市須磨区,南落合１丁目１４番１７号,,28,107,6540153,,,,,,,2025-11-28,1,,,,,ハナリ,0
1522,6170001018886,新規,0,2025-11-28,2025-11-28,株式会社ひこうき雲,,株式会社,和歌山県,田辺市,東山２丁目４番１３号,,30,206,6460022,,,,,,,2025-11-28,1,,,,,ヒコウキグモ,0
1529,6180001169621,新規,0,2025-11-28,2025-11-28,システムメトリックスＨＤ株式会社,,株式会社,愛知県,名古屋市中区,丸の内１丁目１５番２０号,,23,106,4600002,,,,,,,2025-11-28,1,,,,,システムメトリックスホールディングス,0
1533,6180003029419,新規,0,2025-11-28,2025-11-28,合同会社Ｄｏｏｒ’ｓ,,合同会社,愛知県,名古屋市北区,平安２丁目２４番８６号ダイアパレス平安通５０１号,,23,103,4620819,,,,,,,2025-11-28,1,,,,,ドアーズ,0
1535,6180301040449,新規,0,2025-11-28,2025-11-28,ＵＮＩＴＳＵＮＡ株式会社,,株式会社,愛知県,安城市,篠目町本郷９３番地,,23,212,4460073,,,,,,,2025-11-28,1,,,,,ウニツナ,0
1536,6190001032729,新規,0,2025-11-28,2025-11-28,株式会社ウタゲカンパニー,,株式会社,三重県,鈴鹿市,三宅町２２７８‐１０,,24,207,5100265,,,,,,,2025-11-28,1,,,,,ウタゲカンパニー,0
1537,6190003005278,新規,0,2025-11-28,2025-11-28,ｔｏｒｃｈ合同会社,,合同会社,三重県,伊勢市,宇治浦田３丁目５番２１号,,24,203,5160026,,,,,,,2025-11-28,1,,,,,トーチ,0
1538,6200001044466,新規,0,2025-11-28,2025-11-28,株式会社ルーチェ,,株式会社,岐阜県,岐阜市,野一色２丁目５番１５,,21,201,5008226,,,,,,,2025-11-28,1,,,,,ルーチェ,0
1555,6260001040765,新規,0,2025-11-28,2025-11-28,株式会社Ｙ‐ＡＲＫ,,株式会社,岡山県,倉敷市,日畑４２７番地３,,33,202,7010101,,,,,,,2025-11-28,1,,,,,ワイアーク,0
1560,6290001112231,新規,0,2025-11-28,2025-11-28,株式会社Ｔｅｎ,,株式会社,福岡県,福岡市博多区,中洲５丁目２－５－３Ｆ,,40,132,8100801,,,,,,,2025-11-28,1,,,,,テン,0
1561,6290001112248,新規,0,2025-11-28,2025-11-28,株式会社ＶＥＧＡ,,株式会社,福岡県,福岡市早良区,飯倉２丁目１３－８－１Ｆ,,40,137,8140161,,,,,,,2025-11-28,1,,,,,ヴェガ,0
1562,6290001112280,新規,0,2025-11-28,2025-11-28,子玉株式会社,,株式会社,福岡県,福岡市早良区,大字飯場９３８,,40,137,8111134,,,,,,,2025-11-28,1,,,,,コダマ,0
1563,6290001112306,新規,0,2025-11-28,2025-11-28,Ｔｉｍｅ　Ｈｏｕｓｅ株式会社,,株式会社,福岡県,福岡市早良区,室見１丁目１－２０－４０３号室,,40,137,8140015,,,,,,,2025-11-28,1,,,,,タイムハウス,0
1579,6350001019825,新規,0,2025-11-28,2025-11-28,クリーンビル管理株式会社,,株式会社,宮崎県,宮崎市,中央通２番２６号エレガンス中央ビル３Ｆ,,45,201,8800002,,,,,,,2025-11-28,1,,,,,クリーンビルカンリ,0
1582,6360003015433,新規,0,2025-11-28,2025-11-28,合同会社Ｎｏａｈ,,合同会社,沖縄県,中頭郡北中城村,字仲順２５９番地１比嘉アパート２階２０３号室,,47,327,9012303,,,,,,,2025-11-28,1,,,,,ノア,0
1589,6410001014332,新規,0,2025-11-28,2025-11-28,オノまちイノベーション株式会社,,株式会社,秋田県,秋田市,新屋日吉町１４番４０号,,05,201,0101622,,,,,,,2025-11-28,1,,,,,オノマチイノベーション,0
1602,6700150070898,新規,0,2025-11-28,2016-02-17,大谷自治会,,その他,愛媛県,大洲市,肱川町大谷２９４５番地１,,38,207,7971507,,,,,,,2016-02-17,1,,,,,オオタニジチカイ,0
1608,7010001260701,新規,0,2025-11-28,2025-11-28,株式会社イニティウム,,株式会社,東京都,中央区,銀座１丁目１２番４号・Ｎ＆ＥＢＬＤ．６Ｆ,,13,102,1040061,,,,,,,2025-11-28,1,,,,,イニティウム,0
1622,7010401194664,新規,0,2025-11-28,2025-11-28,株式会社アルク,,株式会社,東京都,港区,南青山２丁目２－１５ＷｉｎＡｏｙａｍａビルＵＣＦ６階,,13,103,1070062,,,,,,,2025-11-28,1,,,,,アルク,0
1623,7010401194755,新規,0,2025-11-28,2025-11-28,オニワ株式会社,,株式会社,東京都,港区,芝浦２丁目１７－２田町竹芝ハイツ２０１,,13,103,1080023,,,,,,,2025-11-28,1,,,,,オニワ,0
1624,7010401194788,新規,0,2025-11-28,2025-11-28,株式会社ＦＭＣ,,株式会社,東京都,港区,南麻布５丁目１５番２７号,,13,103,1060047,,,,,,,2025-11-28,1,,,,,エフエムシー,0
1626,7010601068346,新規,0,2025-11-28,2025-11-28,株式会社ＢＣ,,株式会社,東京都,江東区,住吉２丁目２６番５号アズキ・マ・メゾン住吉１０１,,13,108,1350002,,,,,,,2025-11-28,1,,,,,ビーシー,0
1628,7010703008010,新規,0,2025-11-28,2025-11-28,合同会社桐が谷パートナーズ,,合同会社,東京都,品川区,小山１丁目３番２８－４０８号,,13,109,1420062,,,,,,,2025-11-28,1,,,,,キリガヤパートナーズ,0
1630,7010801036813,新規,0,2025-11-28,2025-11-28,Ｔｒｕｓｔｉｖｅ　Ｗｏｒｋｓ株式会社,,株式会社,東京都,大田区,南馬込２丁目２２番５号,,13,111,1430025,,,,,,,2025-11-28,1,,,,,トラスティブワークス,0
1631,7010803005618,新規,0,2025-11-28,2025-11-28,合同会社キハラモトユキ,,合同会社,東京都,大田区,東嶺町４４－７－２０３,,13,111,1450074,,,,,,,2025-11-28,1,,,,,キハラモトユキ,0
1636,7010901058550,新規,0,2025-11-28,2025-11-28,株式会社Ｗ,,株式会社,東京都,世田谷区,太子堂４丁目１８－１５マガザン三軒茶屋２－３階３,,13,112,1540004,,,,,,,2025-11-28,1,,,,,ダブリュー,0
1640,7011001173777,新規,0,2025-11-28,2025-11-28,株式会社デジ政,,株式会社,東京都,渋谷区,道玄坂１丁目１０番８号渋谷道玄坂東急ビル２Ｆ－Ｃ,,13,113,1500043,,,,,,,2025-11-28,1,,,,,デジセイ,0
1641,7011001173884,新規,0,2025-11-28,2025-11-28,ＨＡＬＯ　ＳＨＯＵＴ株式会社,,株式会社,東京都,渋谷区,道玄坂１丁目１０番８号渋谷道玄坂東急ビル２Ｆ－Ｃ,,13,113,1500043,,,,,,,2025-11-28,1,,,,,ハローシャウト,0
1642,7011001173983,新規,0,2025-11-28,2025-11-28,Ｖｉｏｌｅｔ　Ｂｕｉｌｄ株式会社,,株式会社,東京都,渋谷区,渋谷３丁目２７－１５,,13,113,1500002,,,,,,,2025-11-28,1,,,,,バイオレットビルド,0
1647,7011101113781,新規,0,2025-11-28,2025-11-28,株式会社ＢＥＳＴ,,株式会社,東京都,新宿区,大久保１丁目１２－３カーサ第２新宿４０３号,,13,104,1690072,,,,,,,2025-11-28,1,,,,,ベスト,0
1648,7011205002716,新規,0,2025-11-28,2025-11-28,特定非営利活動法人ＧＯＯＰＡ発達の気になる子と楽しむイベントサークル,,その他の設立登記法人,東京都,中野区,新井１丁目２０番７号ＭＴハイム２階,,13,114,1650026,,,,,,,2025-11-28,1,,,,,グーパハッタツノキニナルコトタノシムイベントサークル,0
1651,7011701028974,新規,0,2025-11-28,2025-11-28,ＬＯホールディングス株式会社,,株式会社,東京都,江戸川区,中央４丁目１１番８号,,13,123,1320021,,,,,,,2025-11-28,1,,,,,エルオーホールディングス,0
1659,7012401043669,新規,0,2025-11-28,2025-11-28,株式会社ネイチャーツアーズ,,株式会社,東京都,多摩市,豊ヶ丘２丁目５番地１－５０４,,13,224,2060031,,,,,,,2025-11-28,1,,,,,ネイチャーツアーズ,0
1671,7020003029838,新規,0,2025-11-28,2025-11-28,合同会社横網,,合同会社,神奈川県,川崎市高津区,溝口５丁目１６番１８号,,14,134,2130001,,,,,,,2025-11-28,1,,,,,ヨコアミ,0
1672,7020003029870,新規,0,2025-11-28,2025-11-28,ｔｏｋｙｏ　ＢＯＴＡＮＩＣＡＬ　ＨＵＢ合同会社,,合同会社,神奈川県,川崎市麻生区,向原１丁目９番７号,,14,137,2150007,,,,,,,2025-11-28,1,,,,,トウキョウボタニカルハブ,0
1679,7021005013466,新規,0,2025-11-28,2025-11-28,一般社団法人ＳＡＳＰ,,その他の設立登記法人,神奈川県,藤沢市,鵠沼石上１丁目５番９号メガサンエスビル６階,,14,205,2510025,,,,,,,2025-11-28,1,,,,,サスプ,0
1709,7080401028270,新規,0,2025-11-28,2025-11-28,株式会社中部メディカルサポート浜松,,株式会社,静岡県,浜松市中央区,田町３２３番地７ＨＩ・ｂｌｄｇ．ＴＡＭＡＣＨＩ３階Ａ号室,,22,138,4300944,,,,,,,2025-11-28,1,,,,,チュウブメディカルサポートハママツ,0
1710,7080401028279,新規,0,2025-11-28,2025-11-28,株式会社薫宝,,株式会社,静岡県,御前崎市,池新田３１０２番地の８,,22,223,4371612,,,,,,,2025-11-28,1,,,,,カホ,0
1715,7100003008494,新規,0,2025-11-28,2025-11-28,合同会社Ａｚ．ｉ,,合同会社,長野県,佐久市,臼田２２１０番地１,,20,217,3840301,,,,,,,2025-11-28,1,,,,,エーゼットアイ,0
1727,7120001282247,新規,0,2025-11-28,2025-11-28,ライム株式会社,,株式会社,大阪府,枚方市,西禁野２丁目３８番１２号,,27,210,5731192,,,,,,,2025-11-28,1,,,,,ライム,0
1728,7120001282255,新規,0,2025-11-28,2025-11-28,グランサ警備保障株式会社,,株式会社,大阪府,大阪市平野区,長吉出戸４丁目５－５０,,27,126,5470011,,,,,,,2025-11-28,1,,,,,グランサケイビホショウ,0
1729,7120001282370,新規,0,2025-11-28,2025-11-28,株式会社Ａｉｏｎｉｘ,,株式会社,大阪府,大阪市淀川区,宮原５丁目９番３６号グランデージ新大阪４０２号,,27,123,5320003,,,,,,,2025-11-28,1,,,,,アイオニクス,0
1734,7120101072853,新規,0,2025-11-28,2025-11-28,株式会社サンヘリックス,,株式会社,大阪府,高石市,羽衣３丁目４番１７号,,27,225,5920002,,,,,,,2025-11-28,1,,,,,サンヘリックス,0
1735,7120101072861,新規,0,2025-11-28,2025-11-28,彩虹堂貿易株式会社,,株式会社,大阪府,泉佐野市,日根野４３３９番地の７（３階）,,27,213,5980021,,,,,,,2025-11-28,1,,,,,サイコウドウボウエキ,0
1738,7120901051882,新規,0,2025-11-28,2025-11-28,株式会社マークスホールディングス,,株式会社,大阪府,箕面市,船場東３丁目４番１７号,,27,220,5620035,,,,,,,2025-11-28,1,,,,,マークスホールディングス,0
1741,7122001039957,新規,0,2025-11-28,2025-11-28,ＮｅｘｔＤｅａｌ株式会社,,株式会社,大阪府,東大阪市,西堤本通西１丁目４番２５号,,27,227,5770046,,,,,,,2025-11-28,1,,,,,ネクストディール,0
1745,7130001080955,新規,0,2025-11-28,2025-11-28,株式会社Ｏｈａｎａ,,株式会社,京都府,京丹後市,大宮町河辺３４５６番地の７,,26,212,6292502,,,,,,,2025-11-28,1,,,,,オハナ,0
1746,7130001081086,新規,0,2025-11-28,2025-11-28,株式会社Ｎｏ．ＦＩＶＥ,,株式会社,京都府,向日市,寺戸町岸ノ下１３番地の１９,,26,208,6170002,,,,,,,2025-11-28,1,,,,,ナンバーファイブ,0
1747,7130001081094,新規,0,2025-11-28,2025-11-28,株式会社ＫＡＮＯＶＡ,,株式会社,京都府,京都市右京区,北嵯峨北ノ段町２３番地７,,26,108,6168441,,,,,,,2025-11-28,1,,,,,カノヴァ,0
1756,7140003022896,新規,0,2025-11-28,2025-11-28,合同会社縁,,合同会社,兵庫県,神戸市中央区,熊内町３丁目３番１号アルテ新神戸５０１室,,28,110,6510056,,,,,,,2025-11-28,1,,,,,エニシ,0
1759,7160001027243,新規,0,2025-11-28,2025-11-28,株式会社わえん,,株式会社,滋賀県,野洲市,北野１丁目６番１号,,25,210,5202361,,,,,,,2025-11-28,1,,,,,ワエン,0
1767,7180003029426,新規,0,2025-11-28,2025-11-28,合同会社ＭＹＣ,,合同会社,愛知県,名古屋市中村区,名駅４丁目２４番５号第２森ビル４０１,,23,105,4500002,,,,,,,2025-11-28,1,,,,,エムワイシー,0
1768,7180003029434,新規,0,2025-11-28,2025-11-28,合同会社ＺＥＮＩＹＡ,,合同会社,愛知県,あま市,七宝町下田下才当治５番地２,,23,237,4970012,,,,,,,2025-11-28,1,,,,,ゼニヤ,0
1772,7180303006827,新規,0,2025-11-28,2025-11-28,合同会社ｎ‐Ｌａｂｏ,,合同会社,愛知県,豊田市,水源町１丁目２３番地５,,23,211,4710822,,,,,,,2025-11-28,1,,,,,エヌラボ,0
1777,7220001027039,新規,0,2025-11-28,2025-11-28,株式会社福光商会,,株式会社,石川県,金沢市,西念４丁目５番３号,,17,201,9200024,,,,,,,2025-11-28,1,,,,,フクミツショウカイ,0
1802,7290803005210,新規,0,2025-11-28,2025-11-28,合同会社ＬＩＦＴＯＮＥ,,合同会社,福岡県,北九州市小倉北区,泉台２丁目２３番５号,,40,106,8030842,,,,,,,2025-11-28,1,,,,,リフトワン,0
1805,7330001033785,新規,0,2025-11-28,2025-11-28,国土株式会社,,株式会社,熊本県,熊本市西区,春日４丁目２－７４－３３,,43,103,8600047,,,,,,,2025-11-28,1,,,,,コクド,0
1806,7330003011335,新規,0,2025-11-28,2025-11-28,満室不動産合同会社,,合同会社,熊本県,天草市,下浦町３４５２番地,,43,215,8616551,,,,,,,2025-11-28,1,,,,,マンシツフドウサン,0
1824,7430003018353,新規,0,2025-11-28,2025-11-28,合同会社ゆうにじ,,合同会社,北海道,札幌市中央区,大通東１丁目２番地,,01,101,0600041,,,,,,,2025-11-28,1,,,,,ユウニジ,0
1835,8010001260667,新規,0,2025-11-28,2025-11-28,Ｌｏｎｇ　Ｂｒｉｄｇｅ　Ｊａｐａｎ株式会社,,株式会社,東京都,千代田区,霞が関３丁目２番５号霞が関ビルディング３６階,,13,101,1000013,,,,,,,2025-11-28,1,,,,,ロングブリッジジャパン,0
1836,8010001260683,新規,0,2025-11-28,2025-11-28,Ｈｕｍａｎ　Ｒｅｖｏｌｕｔｉｏｎ株式会社,,株式会社,東京都,中央区,京橋２丁目４番１２号,,13,102,1040031,,,,,,,2025-11-28,1,,,,,ヒューマンレボリューション,0
1840,8010003049522,新規,0,2025-11-28,2025-11-28,ＫＪアセット合同会社,,合同会社,東京都,文京区,千石３丁目２４番８号,,13,105,1120011,,,,,,,2025-11-28,1,,,,,ケージェーアセット,0
1841,8010003049530,新規,0,2025-11-28,2025-11-28,合同会社ヒカリ管理,,合同会社,東京都,中央区,日本橋人形町３丁目３番１３－３Ｆ,,13,102,1030013,,,,,,,2025-11-28,1,,,,,ヒカリカンリ,0
1842,8010003049547,新規,0,2025-11-28,2025-11-28,合同会社アップテック,,合同会社,東京都,千代田区,神田美土代町１１番地６ＬａｎｇＢｏａｔＫａｎｄａ１６号,,13,101,1010053,,,,,,,2025-11-28,1,,,,,アップテック,0
1843,8010003049555,新規,0,2025-11-28,2025-11-28,サステナブルローンファンド３６号合同会社,,合同会社,東京都,中央区,京橋２丁目１２番６号ＡＯＪ税理士法人内,,13,102,1040031,,,,,,,2025-11-28,1,,,,,サステナブルローンファンドサンジュウロクゴウ,0
1844,8010005041007,新規,0,2025-11-28,2025-11-28,税理士法人リーガルコモンズ,,その他の設立登記法人,東京都,千代田区,九段南１丁目６番１７号千代田会館４階,,13,101,1020074,,,,,,,2025-11-28,1,,,,,リーガルコモンズ,0
1850,8010401194614,新規,0,2025-11-28,2025-11-28,ＳＨＲＯＯＭ株式会社,,株式会社,東京都,港区,南青山３丁目１番３４号７０２,,13,103,1070062,,,,,,,2025-11-28,1,,,,,シュルーム,0
1855,8010601068345,新規,0,2025-11-28,2025-11-28,株式会社ｔｅｂａｔａ,,株式会社,東京都,江東区,三好１丁目８－３－２Ｆ,,13,108,1350022,,,,,,,2025-11-28,1,,,,,テバタ,0
1856,8010601068353,新規,0,2025-11-28,2025-11-28,株式会社米恭,,株式会社,東京都,江東区,豊洲６丁目５番１号ハ－５０,,13,108,1350061,,,,,,,2025-11-28,1,,,,,コメキョウ,0
1859,8010701048676,新規,0,2025-11-28,2025-11-28,株式会社日本国際貿易センター,,株式会社,東京都,品川区,西五反田７丁目２５－９五反田フラットアイアンビル５階,,13,109,1410031,,,,,,,2025-11-28,1,,,,,ニホンコクサイボウエキコクサイセンター,0
1862,8010803005625,新規,0,2025-11-28,2025-11-28,Ｆｉｅｌｄ　ＡＩ　Ｊａｐａｎ合同会社,,合同会社,東京都,大田区,羽田空港１丁目１番４号ＨＩＣｉｔｙＣ棟,,13,111,1440041,,,,,,,2025-11-28,1,,,,,フィールドエーアイ,0
1864,8010901058533,新規,0,2025-11-28,2025-11-28,ＧＲＩＴ　ＳＰＯＲＴＳ株式会社,,株式会社,東京都,世田谷区,太子堂４丁目１８－１５マガザン三軒茶屋２－３Ｆ－３,,13,112,1540004,,,,,,,2025-11-28,1,,,,,グリットスポーツ,0
1872,8011001173859,新規,0,2025-11-28,2025-11-28,アトムロボティクス株式会社,,株式会社,東京都,渋谷区,円山町５番３号ＭＩＥＵＸ渋谷ビル８階,,13,113,1500044,,,,,,,2025-11-28,1,,,,,アトムロボティクス,0
1876,8011101114003,新規,0,2025-11-28,2025-11-28,仕事真相株式会社,,株式会社,東京都,新宿区,西新宿３丁目３－１３西新宿水間２Ｆ,,13,104,1600023,,,,,,,2025-11-28,1,,,,,シゴトシンソウ,0
1877,8011201026809,新規,0,2025-11-28,2025-11-28,株式会社情報開発ウィズ,,株式会社,東京都,中野区,中野５丁目６７番７号プラザ中野８０１,,13,114,1640001,,,,,,,2025-11-28,1,,,,,ジョウホウカイハツウィズ,0
1882,8011501032853,新規,0,2025-11-28,2025-11-28,株式会社ＭｅｇａＰｏｗｅｒ　Ｔｅｃｈｎｏｌｏｇｙ,,株式会社,東京都,荒川区,東日暮里３丁目２－１４ガーデンヒルズ東日暮里１０１－Ｈ,,13,118,1160014,,,,,,,2025-11-28,1,,,,,メガパワーテクノロジー,0
1883,8011701028973,新規,0,2025-11-28,2025-11-28,ＰＲＩＭＥ　ＯＮＥ株式会社,,株式会社,東京都,江戸川区,東小松川４丁目５６－１７－１０３,,13,123,1320033,,,,,,,2025-11-28,1,,,,,プライムワン,0
1884,8011801047122,新規,0,2025-11-28,2025-11-28,ヤマト衛生株式会社,,株式会社,東京都,足立区,中川４丁目１０番３号,,13,121,1200002,,,,,,,2025-11-28,1,,,,,ヤマトエイセイ,0
1887,8012405005193,新規,0,2025-11-28,2025-11-28,一般社団法人日本フィジカル・イノベーション機構,,その他の設立登記法人,東京都,武蔵野市,吉祥寺南町２丁目６番５号Ｙ’ｓビル３階,,13,203,1800003,,,,,,,2025-11-28,1,,,,,ニホンフィジカルイノベーションキコウ,0
1897,8020001165931,新規,0,2025-11-28,2025-11-28,株式会社将棋のすゝめ,,株式会社,神奈川県,横浜市青葉区,新石川３丁目１３番地３,,14,117,2250003,,,,,,,2025-11-28,1,,,,,ショウギノススメ,0
1902,8020005017055,新規,0,2025-11-28,2025-11-28,一般社団法人売れるＡＩ広告プロデュース協会,,その他の設立登記法人,神奈川県,横浜市都筑区,茅ケ崎南２丁目９番６号２０６,,14,118,2240037,,,,,,,2025-11-28,1,,,,,ウレルエーアイコウコクプロデュースキョウカイ,0
1909,8030001169849,新規,0,2025-11-28,2025-11-28,株式会社ビーポート,,株式会社,埼玉県,越谷市,蒲生南町１２番９号,,11,222,3430833,,,,,,,2025-11-28,1,,,,,ビーポート,0
1910,8030001169898,新規,0,2025-11-28,2025-11-28,株式会社ＫＥＳ総合設備,,株式会社,埼玉県,朝霞市,膝折町４丁目１１番２７号,,11,227,3510014,,,,,,,2025-11-28,1,,,,,ケーイーエスソウゴウセツビ,0
1925,8040001141542,新規,0,2025-11-28,2025-11-28,ＭＭＳ株式会社,,株式会社,千葉県,袖ケ浦市,三箇１２９８番地２,,12,229,2990212,,,,,,,2025-11-28,1,,,,,エムエムエス,0
1926,8040001141575,新規,0,2025-11-28,2025-11-28,株式会社誠和企画,,株式会社,千葉県,茂原市,緑ケ丘５丁目６番地１１,,12,210,2970065,,,,,,,2025-11-28,1,,,,,セイワキカク,0
1942,8110001039746,新規,0,2025-11-28,2025-11-28,株式会社さかぎし,,株式会社,新潟県,長岡市,殿町２丁目５番地７,,15,202,9400064,,,,,,,2025-11-28,1,,,,,サカギシ,0
1954,8120001282221,新規,0,2025-11-28,2025-11-28,ＡＨＱ　Ｉｎｔｅｒｎａｔｉｏｎａｌ株式会社,,株式会社,大阪府,大阪市中央区,船場中央３丁目２番８号船場センタービル８号館,,27,128,5410055,,,,,,,2025-11-28,1,,,,,エーエイチキューインターナショナル,0
1955,8120001282254,新規,0,2025-11-28,2025-11-28,株式会社ナチュラル,,株式会社,大阪府,大阪市阿倍野区,阿倍野筋５丁目３番１３号阿倍野筋五丁目テラス,,27,119,5450052,,,,,,,2025-11-28,1,,,,,ナチュラル,0
1956,8120001282270,新規,0,2025-11-28,2025-11-28,株式会社ＳＧ　ＧＯＬＦ,,株式会社,大阪府,大阪市天王寺区,東高津町１１番９号,,27,109,5430021,,,,,,,2025-11-28,1,,,,,エスジーゴルフ,0
1957,8120001282312,新規,0,2025-11-28,2025-11-28,株式会社ＰＯＮＯＡ,,株式会社,大阪府,大阪市住之江区,浜口東３丁目５番２６号,,27,125,5590002,,,,,,,2025-11-28,1,,,,,ポノア,0
1960,8120003031320,新規,0,2025-11-28,2025-11-28,合同会社Ｉ＆Ｈエステート,,合同会社,大阪府,大阪市北区,豊崎３丁目１８番３－４３０５号,,27,127,5310072,,,,,,,2025-11-28,1,,,,,アイアンドエイチエステート,0
1962,8120101072852,新規,0,2025-11-28,2025-11-28,株式会社誠信,,株式会社,大阪府,岸和田市,沼町３番２６号,,27,202,5960053,,,,,,,2025-11-28,1,,,,,セイシン,0
1970,8130001081110,新規,0,2025-11-28,2025-11-28,株式会社京栖,,株式会社,京都府,京都市中京区,聚楽廻南町８番地２３,,26,104,6048411,,,,,,,2025-11-28,1,,,,,キョウスミ,0
1972,8130003010934,新規,0,2025-11-28,2025-11-28,合同会社ヤマリッツ,,合同会社,京都府,京都市下京区,大黒町２２７番地第２キョートビル４０２,,26,106,6008043,,,,,,,2025-11-28,1,,,,,ヤマリッツ,0
1983,8140001140864,新規,0,2025-11-28,2025-11-28,株式会社ワールド・ブランズ,,株式会社,兵庫県,神戸市中央区,港島中町６丁目８番１,,28,110,6500046,,,,,,,2025-11-28,1,,,,,ワールドブランズ,0
1984,8140001140906,新規,0,2025-11-28,2025-11-28,株式会社Ｗｅｓｔ　Ｓｔｏｎｅ,,株式会社,兵庫県,神戸市中央区,磯上通４丁目１番２３－１４０７号,,28,110,6510086,,,,,,,2025-11-28,1,,,,,ウエストストーン,0
2002,8180001169644,新規,0,2025-11-28,2025-11-28,株式会社ＬｕｃＸ,,株式会社,愛知県,名古屋市千種区,丸山町３丁目５５－３,,23,101,4640843,,,,,,,2025-11-28,1,,,,,ラックス,0
2003,8180001169685,新規,0,2025-11-28,2025-11-28,株式会社ｏｏｎａ　Ｅｓｔａｔｅ,,株式会社,愛知県,名古屋市名東区,一社２丁目１６２番地１,,23,115,4650093,,,,,,,2025-11-28,1,,,,,オオナエステート,0
2023,8280003002009,新規,0,2025-11-28,2025-11-28,合同会社はじまり,,合同会社,島根県,雲南市,木次町木次２９番地三日市ラボ,,32,209,6991332,,,,,,,2025-11-28,1,,,,,ハジマリ,0
2024,8290001112312,新規,0,2025-11-28,2025-11-28,株式会社ＹＵＩＣＯ,,株式会社,福岡県,福岡市東区,香椎浜４丁目５番４－５２４号,,40,131,8130016,,,,,,,2025-11-28,1,,,,,ユイコ,0
2027,8290003017732,新規,0,2025-11-28,2025-11-28,Ｖｉｅｌ　Ｓｐａｓｓ　Ｊａｐａｎ合同会社,,合同会社,福岡県,大川市,大字三丸１４６４－１５,,40,212,8310026,,,,,,,2025-11-28,1,,,,,フィールシュパースジャパン,0
2028,8290003017765,新規,0,2025-11-28,2025-11-28,合同会社マラコア,,合同会社,福岡県,宗像市,神湊１３９番地３,,40,220,8113501,,,,,,,2025-11-28,1,,,,,マラコア,0
2029,8290003017773,新規,0,2025-11-28,2025-11-28,ＳＩＥＧ　ＡＳＳＥＴ　ＭＡＮＡＧＥＭＥＮＴ合同会社,,合同会社,福岡県,福岡市中央区,草香江１丁目７番１３号ＬＭ大濠タワー１８階,,40,133,8100045,,,,,,,2025-11-28,1,,,,,ジークアセットマネジメント,0
2034,8310001019868,新規,0,2025-11-28,2025-11-28,株式会社キチ・アグリ,,株式会社,長崎県,雲仙市,国見町多比良甲６９３番地,,42,213,8591321,,,,,,,2025-11-28,1,,,,,キチアグリ,0
2035,8310003005131,新規,0,2025-11-28,2025-11-28,合同会社ＡＢＵＮＤＡＮＴＩＡ,,合同会社,長崎県,大村市,野岳町９６６番地１,,42,205,8560003,,,,,,,2025-11-28,1,,,,,アバンダンシア,0
2043,8330001033776,新規,0,2025-11-28,2025-11-28,株式会社Ｕｒａｎｉｗａ,,株式会社,熊本県,八代市,日置町３９５１番地３,,43,202,8660896,,,,,,,2025-11-28,1,,,,,ウラニワ,0
2054,8380001035719,新規,0,2025-11-28,2025-11-28,バイオデリバリー株式会社,,株式会社,福島県,福島市,上鳥渡字しのぶ台５８番地の４,,07,201,9601107,,,,,,,2025-11-28,1,,,,,バイオデリバリー,0
2056,8380003006189,新規,0,2025-11-28,2025-11-28,輝穂テックファーム合同会社,,合同会社,福島県,会津若松市,河東町金田字金沢６番地,,07,202,9693462,,,,,,,2025-11-28,1,,,,,キホテックファーム,0
2066,8490001011221,新規,0,2025-11-28,2025-11-28,株式会社ＳＩＮ,,株式会社,高知県,高知市,追手筋１丁目９番１号,,39,201,7800842,,,,,,,2025-11-28,1,,,,,シン,0
2072,8700150133109,新規,0,2025-11-28,2025-11-28,ルカデザインズ・インク,,外国会社等,東京都,渋谷区,神宮前６丁目２３番４号桑野ビル２階,,13,113,1500001,カナダ国オンタリオ州サンダーベイ市、レジーナ通り１３１７番地,,,,,,2025-11-28,1,,,,,ルカデザインズインク,0
2078,9010001260410,新規,0,2025-11-28,2025-11-28,ＮＹＣＩ１６ＨＤ株式会社,,株式会社,東京都,中央区,新川１丁目６番１１号,,13,102,1040033,,,,,,,2025-11-28,1,,,,,エヌワイシーアイシックスティーンエイチディー,0
2079,9010001260699,新規,0,2025-11-28,2025-11-28,株式会社ＳＮＦテクノロジー,,株式会社,東京都,千代田区,神田和泉町１番地６の１６ヤマトビル４０５,,13,101,1010024,,,,,,,2025-11-28,1,,,,,エスエヌエフテクノロジー,0
2080,9010001260724,新規,0,2025-11-28,2025-11-28,株式会社ＡＧ　Ｉｎｖｅｓｔｍｅｎｔ,,株式会社,東京都,中央区,銀座２丁目６番５号,,13,102,1040061,,,,,,,2025-11-28,1,,,,,エージーインベストメント,0
2081,9010003049505,新規,0,2025-11-28,2025-11-28,緑電社合同会社,,合同会社,東京都,中央区,日本橋兜町５－１第一平和ビル３Ｆ－１３８,,13,102,1030026,,,,,,,2025-11-28,1,,,,,リョクデンシャ,0
2082,9010003049538,新規,0,2025-11-28,2025-11-28,Ｃａｐｎｏｖａ合同会社,,合同会社,東京都,中央区,日本橋本町２丁目２－２在日フランス商工会議所,,13,102,1030023,,,,,,,2025-11-28,1,,,,,キャプノヴァ,0
2083,9010003049546,新規,0,2025-11-28,2025-11-28,合同会社Ａｒｋ,,合同会社,東京都,文京区,大塚６丁目４番２号,,13,105,1120012,,,,,,,2025-11-28,1,,,,,アーク,0
2088,9010401194571,新規,0,2025-11-28,2025-11-28,ｕｎｏｕ株式会社,,株式会社,東京都,港区,南青山２丁目２番１５号,,13,103,1070062,,,,,,,2025-11-28,1,,,,,ウノウ,0
2089,9010401194745,新規,0,2025-11-28,2025-11-28,株式会社Ｍｏｒｅ　Ｖｉｓｉｏｎ　Ｌａｂ,,株式会社,東京都,港区,北青山１丁目３番１号アールキューブ青山３階,,13,103,1070061,,,,,,,2025-11-28,1,,,,,モアビジョンラボ,0
2108,9010901058524,新規,0,2025-11-28,2025-11-28,株式会社ＥＮＬＩＮＫ,,株式会社,東京都,世田谷区,太子堂４丁目１８番１５号マガザン三軒茶屋２、３Ｆ－３,,13,112,1540004,,,,,,,2025-11-28,1,,,,,エンリンク,0
2114,9011005011270,新規,0,2025-11-28,2025-11-28,一般社団法人日本ママキャリ秘書協会,,その他の設立登記法人,東京都,渋谷区,恵比寿西２丁目４番８号ウィンド恵比寿ビル８階,,13,113,1500021,,,,,,,2025-11-28,1,,,,,ニホンママキャリヒショキョウカイ,0
2124,9011101114019,新規,0,2025-11-28,2025-11-28,株式会社Ｗｉｌｌ　Ｂｅａｒ,,株式会社,東京都,新宿区,西早稲田１丁目２２番３号,,13,104,1690051,,,,,,,2025-11-28,1,,,,,ウィルベアー,0
2131,9011501032852,新規,0,2025-11-28,2025-11-28,豊源グローバル株式会社,,株式会社,東京都,荒川区,東日暮里３丁目２－１４ガーデンヒルズ東日暮里１０１－Ｅ,,13,118,1160014,,,,,,,2025-11-28,1,,,,,トヨゲングローバル,0
2133,9011701028972,新規,0,2025-11-28,2025-11-28,株式会社ふるさとグローバル,,株式会社,東京都,江戸川区,東葛西７丁目２５番７－５０４号,,13,123,1340084,,,,,,,2025-11-28,1,,,,,フルサトグローバル,0
2134,9011801047113,新規,0,2025-11-28,2025-11-28,株式会社将綾,,株式会社,東京都,足立区,本木南町１６番３号,,13,121,1230855,,,,,,,2025-11-28,1,,,,,ショウリョウ,0
2138,9012303002250,新規,0,2025-11-28,2025-11-28,ＵＭＡ合同会社,,合同会社,東京都,町田市,南成瀬３丁目１５番地５プレリ２０１,,13,209,1940045,,,,,,,2025-11-28,1,,,,,ユウマ,0
2139,9012305002158,新規,0,2025-11-28,2025-11-28,一般社団法人播磨会,,その他の設立登記法人,東京都,町田市,原町田６丁目１１－１６ツブラアダチＢｌｄｇ３階,,13,209,1940013,,,,,,,2025-11-28,1,,,,,ハリマカイ,0
2152,9013303007974,新規,0,2025-11-28,2025-11-28,合同会社パドラーズ,,合同会社,東京都,豊島区,東池袋２丁目６２番８号ＢＩＧオフィスプラザ池袋１２０６,,13,116,1700013,,,,,,,2025-11-28,1,,,,,パドラーズ,0
2160,9020001165906,新規,0,2025-11-28,2025-11-28,株式会社Ｂａｙｆｒｏｎｔ　Ｐａｒｔｎｅｒｓ,,株式会社,神奈川県,横浜市神奈川区,星野町８番地３クリオレジダンス横濱ベイサイド９１６号,,14,102,2210035,,,,,,,2025-11-28,1,,,,,ベイフロントパートナーズ,0
2163,9020005017062,新規,0,2025-11-28,2025-11-28,特定非営利活動法人いらっしゃい,,その他の設立登記法人,神奈川県,横浜市南区,六ツ川１丁目６７９番地の５７,,14,105,2320066,,,,,,,2025-11-28,1,,,,,イラッシャイ,0
2168,9021001086803,新規,0,2025-11-28,2025-11-28,新三光マスク株式会社,,株式会社,神奈川県,高座郡寒川町,一之宮７丁目１０番１号,,14,321,2530111,,,,,,,2025-11-28,1,,,,,シンサンコウマスク,0
2171,9021003016857,新規,0,2025-11-28,2025-11-28,合同会社ＭＥＴＲＡＬ,,合同会社,神奈川県,藤沢市,神奈川県藤沢市南藤沢１５番１５号ウェルビィ一番館５Ｆ,,14,205,2510000,,,,,,,2025-11-28,1,,,,,メトラル,0
2173,9030001169807,新規,0,2025-11-28,2025-11-28,株式会社リバブル,,株式会社,埼玉県,さいたま市北区,宮原町４丁目１０２番地１０本田コーポ２０３号室,,11,102,3310812,,,,,,,2025-11-28,1,,,,,リバブル,0
2174,9030001169831,新規,0,2025-11-28,2025-11-28,株式会社とらまる建装,,株式会社,埼玉県,川越市,藤木町３５番地１,,11,201,3500018,,,,,,,2025-11-28,1,,,,,トラマルケンソウ,0
2175,9030001169848,新規,0,2025-11-28,2025-11-28,株式会社カン・コーポレーション,,株式会社,埼玉県,川口市,大字石神９３８番地１,,11,203,3330823,,,,,,,2025-11-28,1,,,,,カンコーポレーション,0
2177,9030003028143,新規,0,2025-11-28,2025-11-28,合同会社みやび,,合同会社,埼玉県,川口市,飯塚２丁目８番１７号,,11,203,3320023,,,,,,,2025-11-28,1,,,,,ミヤビ,0
2178,9030005022350,新規,0,2025-11-28,2025-11-28,リベ大司法書士法人,,その他の設立登記法人,埼玉県,さいたま市中央区,下落合５丁目１０番５号,,11,105,3380002,,,,,,,2025-11-28,1,,,,,リベダイ,0
2186,9040001141533,新規,0,2025-11-28,2025-11-28,株式会社ＮＯＶＡ　ＬＩＮＫ,,株式会社,千葉県,野田市,岩名２丁目４４番地の１９,,12,208,2780055,,,,,,,2025-11-28,1,,,,,ノヴァリンク,0
2187,9040001141541,新規,0,2025-11-28,2025-11-28,公平不動産株式会社,,株式会社,千葉県,千葉市中央区,富士見２丁目２３番１０号５Ｆ,,12,101,2600015,,,,,,,2025-11-28,1,,,,,コウヘイフドウサン,0
2189,9040003028828,新規,0,2025-11-28,2025-11-28,合同会社ＲＳ　ＥＮＴＥＲＰＲＩＳＥＳ,,合同会社,千葉県,大網白里市,清名幸谷１２１１番地１,,12,239,2993267,,,,,,,2025-11-28,1,,,,,アールエスエンタープライゼス,0
2190,9040003029009,新規,0,2025-11-28,2025-11-28,Ｓ．Ａ　ＬＡＮＫＡ合同会社,,合同会社,千葉県,富里市,中沢１６９７番地１１６,,12,233,2860222,,,,,,,2025-11-28,1,,,,,エスエーランカ,0
2196,9070001043520,新規,0,2025-11-28,2025-11-28,株式会社せき,,株式会社,群馬県,渋川市,渋川１７７８番地２１,,10,208,3770008,,,,,,,2025-11-28,1,,,,,セキ,0
2197,9070001043586,新規,0,2025-11-28,2025-11-28,株式会社ＣＲＯＳＳ　ＶＡＬＬＥＹ,,株式会社,群馬県,沼田市,横塚町４３番地２,,10,206,3780002,,,,,,,2025-11-28,1,,,,,クロスヴァリー,0
2199,9070003006203,新規,0,2025-11-28,2025-11-28,ラクトセル合同会社,,合同会社,群馬県,前橋市,駒形町１０７５－５,,10,201,3792122,,,,,,,2025-11-28,1,,,,,,0
2208,9100001039135,新規,0,2025-11-28,2025-11-28,株式会社Ｒｕｖｅｒｓ,,株式会社,長野県,下高井郡山ノ内町,大字夜間瀬２２７２番地６,,20,561,3810405,,,,,,,2025-11-28,1,,,,,ルヴァリス,0
2210,9100003008492,新規,0,2025-11-28,2025-11-28,合同会社Ｒｃｏｃｏ,,合同会社,長野県,上田市,常磐城６丁目１０番５号,,20,203,3860027,,,,,,,2025-11-28,1,,,,,アールココ,0
2214,9120001074816,新規,0,2025-11-28,2025-11-28,株式会社イワタ商会,,株式会社,大阪府,大阪市中央区,徳井町１丁目１番７号,,27,128,5400025,,,,,,,2025-11-28,1,,,,,イワタショウカイ,0
2221,9120001282261,新規,0,2025-11-28,2025-11-28,株式会社彩の看,,株式会社,大阪府,大阪市平野区,長吉長原西２丁目６－２,,27,126,5470015,,,,,,,2025-11-28,1,,,,,アヤノカン,0
2222,9120001282303,新規,0,2025-11-28,2025-11-28,株式会社にしかわタイル,,株式会社,大阪府,寝屋川市,黒原橘町２６番７号,,27,215,5720058,,,,,,,2025-11-28,1,,,,,ニシカワタイル,0
2227,9120101072851,新規,0,2025-11-28,2025-11-28,株式会社ＤＡＩＺＯエステート,,株式会社,大阪府,堺市北区,百舌鳥陵南町２丁６００番地１,,27,146,5918034,,,,,,,2025-11-28,1,,,,,ダイゾーエステート,0
2230,9122001039955,新規,0,2025-11-28,2025-11-28,日輪テクノロジー株式会社,,株式会社,大阪府,東大阪市,長堂１丁目１０番８号ハピネスふせ２０５号,,27,227,5770056,,,,,,,2025-11-28,1,,,,,ニチリンテクノロジー,0
2233,9130001081092,新規,0,2025-11-28,2025-11-28,株式会社ＺＥＮＳＨＩＮ,,株式会社,京都府,京都市伏見区,革屋町７８１番地,,26,109,6128356,,,,,,,2025-11-28,1,,,,,ゼンシン,0
2234,9130001081101,新規,0,2025-11-28,2025-11-28,株式会社アーツアンドプレイ,,株式会社,京都府,京都市伏見区,深草中ノ島町８番地３,,26,109,6120049,,,,,,,2025-11-28,1,,,,,アーツアンドプレイ,0
2236,9130005017522,新規,0,2025-11-28,2025-11-28,一般社団法人京都シニアカレッジ,,その他の設立登記法人,京都府,京都市南区,西九条針小路町９８番地６,,26,107,6018422,,,,,,,2025-11-28,1,,,,,キョウトシニアカレッジ,0
2243,9140001140855,新規,0,2025-11-28,2025-11-28,ＴＭＦ株式会社,,株式会社,兵庫県,神戸市垂水区,塩屋町４丁目１番８号シーシェル塩屋１０２号,,28,108,6550872,,,,,,,2025-11-28,1,,,,,ティーエムエフ,0
2244,9140001140913,新規,0,2025-11-28,2025-11-28,株式会社売りと買いの相棒,,株式会社,兵庫県,神戸市灘区,桜口町１丁目３番２４－２号,,28,102,6570036,,,,,,,2025-11-28,1,,,,,ウリトカイノアイボウ,0
2249,9140003022878,新規,0,2025-11-28,2025-11-28,Ｓｐｅａｋ　ＧＫ合同会社,,合同会社,兵庫県,姫路市,四郷町東阿保１２１番地,,28,201,6710247,,,,,,,2025-11-28,1,,,,,スピークジーケー,0
2250,9140005027710,新規,0,2025-11-28,2025-11-28,一般社団法人ＭＯＫＳＴＯＣＫ,,その他の設立登記法人,兵庫県,西宮市,日野町４番５０号,,28,204,6638022,,,,,,,2025-11-28,1,,,,,モックストック,0
2251,9150001028570,新規,0,2025-11-28,2025-11-28,株式会社ＳＴＯＲＹ,,株式会社,奈良県,生駒郡斑鳩町,龍田北５丁目１番７号,00141675,29,344,6360151,,,,,,,2025-11-28,1,,,,,ストーリー,0
2259,9180001169593,新規,0,2025-11-28,2025-11-28,株式会社ＷＩＬＬ,,株式会社,愛知県,名古屋市瑞穂区,彌富ケ丘町１丁目４０番地の３,,23,108,4670048,,,,,,,2025-11-28,1,,,,,ウィル,0
2261,9180003029432,新規,0,2025-11-28,2025-11-28,合同会社クボタアセットマネジメント,,合同会社,愛知県,一宮市,大和町妙興寺字伊勢田３１番地１,,23,203,4910922,,,,,,,2025-11-28,1,,,,,クボタアセットマネジメント,0
2266,9180303006825,新規,0,2025-11-28,2025-11-28,合同会社伸栄,,合同会社,愛知県,豊橋市,一色町字西内張５番地４,,23,201,4418148,,,,,,,2025-11-28,1,,,,,,0
2274,9220001027037,新規,0,2025-11-28,2025-11-28,株式会社ＮＫＴ,,株式会社,石川県,野々市市,二日市５丁目５３番地,,17,212,9218809,,,,,,,2025-11-28,1,,,,,エヌケーティー,0
2276,9230001021195,新規,0,2025-11-28,2025-11-28,株式会社ＴＢＳ,,株式会社,富山県,富山市,小杉５６９番地１,,16,201,9398063,,,,,,,2025-11-28,1,,,,,ティービーエス,0
2281,9240003007497,新規,0,2025-11-28,2025-11-28,耕遊堂合同会社,,合同会社,広島県,広島市西区,己斐本町３丁目１番１４－４０２号,,34,104,7330812,,,,,,,2025-11-28,1,,,,,コウユウドウ,0
2284,9260003005425,新規,0,2025-11-28,2025-11-28,合同会社Ｋ３エンジニアリング,,合同会社,岡山県,総社市,中央６丁目２７番地９,,33,208,7191131,,,,,,,2025-11-28,1,,,,,ケースリーエンジニアリング,0
2286,9270003001811,新規,0,2025-11-28,2025-11-28,合同会社風馨,,合同会社,鳥取県,鳥取市,鹿野町今市１６６３番地,,31,201,6890425,,,,,,,2025-11-28,1,,,,,,0
2302,9310001019867,新規,0,2025-11-28,2025-11-28,フェニックス建設株式会社,,株式会社,長崎県,長崎市,西海町１９７３－１２,,42,201,8513101,,,,,,,2025-11-28,1,,,,,フェニックスケンセツ,0
2303,9310003005130,新規,0,2025-11-28,2025-11-28,合同会社ＢｅｙｏｎｄＡｘｉｓ　Ｐａｒｔｎｅｒｓ,,合同会社,長崎県,佐世保市,万津町７番３号木原海運ビル２Ｆ,,42,202,8570877,,,,,,,2025-11-28,1,,,,,ビヨンドアクシスパートナーズ,0
2305,9320001021459,新規,0,2025-11-28,2025-11-28,株式会社ＸＵＰＲＡ,,株式会社,大分県,豊後大野市,朝地町上尾塚３０００番地,,44,212,8796213,,,,,,,2025-11-28,1,,,,,スープラ,0
2307,9330001033783,新規,0,2025-11-28,2025-11-28,ギガ・ファーム株式会社,,株式会社,熊本県,八代郡氷川町,高塚１０５０番地,,43,468,8694802,,,,,,,2025-11-28,1,,,,,ギガファーム,0
2309,9340003005029,新規,0,2025-11-28,2025-11-28,桃源ラーメン合同会社,,合同会社,鹿児島県,鹿児島市,小川町１９番１－８０６号,,46,201,8920817,,,,,,,2025-11-28,1,,,,,トウゲンラーメン,0
2310,9350001019822,新規,0,2025-11-28,2025-11-28,そだてるよ株式会社,,株式会社,宮崎県,宮崎市,大字内海７４７１番地１００,,45,201,8892301,,,,,,,2025-11-28,1,,,,,ソダテルヨ,0
2316,9380001035718,新規,0,2025-11-28,2025-11-28,株式会社蓮林業,,株式会社,福島県,福島市,荒井字原宿南２８番地の２,,07,201,9602156,,,,,,,2025-11-28,1,,,,,ハスリンギョウ,0
2331,9470001020990,新規,0,2025-11-28,2025-11-28,株式会社わつくる,,株式会社,香川県,綾歌郡綾川町,千疋５５１番地１,,37,387,7612102,,,,,,,2025-11-28,1,,,,,,0
2334,9500001026646,新規,0,2025-11-28,2025-11-28,株式会社ＳＯＬＵＳ,,株式会社,愛媛県,松山市,三番町５丁目５番地１０和泉ビル２０１号,,38,201,7900003,,,,,,,2025-11-28,1,,,,,ソルス,0
2335,9700150133108,新規,0,2025-11-28,2025-11-28,ＡＢＩ　ＥＮＴＥＲＰＲＩＳＥＳ,,外国会社等,千葉県,八街市,八街は６５番地７５,,12,230,2891107,スリランカ民主社会主義共和国、クルネガラ、メヒエッラ、ワドゥゲダラワスタ、Ｎｏ．５２,,,,,,2025-11-28,1,,,,,エービーアイエンタープライズ,0
