sequenceNumber,corporateNumber,process,correct,updateDate,changeDate,name,nameImageId,kind,prefectureName,cityName,streetNumber,addressImageId,prefectureCode,cityCode,postCode,addressOutside,addressOutsideImageId,closeDate,closeCause,successorCorporateNumber,changeCause,assignmentDate,latest,enName,enPrefectureName,enCityName,enAddressOutside,furigana,hihyoji
9,1010003036626,新規,0,2021-12-27,2021-12-27,合同会社アセットＯＮＥ,,合同会社,東京都,千代田区,二番町１－２番町ハイム７１３号,,13,101,1020084,,,,,,,2021-12-27,1,,,,,アセットワン,0
20,1010405020533,新規,0,2021-12-27,2021-12-27,一般社団法人データサイエンティスト育成機構,,その他の設立登記法人,東京都,港区,東新橋２丁目１０番１０号東新橋ビル２Ｆ,,13,103,1050021,,,,,,,2021-12-27,1,,,,,データサイエンティストイクセイキコウ,0
27,1010601060440,新規,0,2021-12-27,2021-12-27,鈴銀株式会社,,株式会社,東京都,江東区,亀戸４丁目４６番１２号Ａ－ＰＬＡＣＥビル８ＦＡ,,13,108,1360071,,,,,,,2021-12-27,1,,,,,スズギン,0
28,1010701041943,新規,0,2021-12-27,2021-12-27,株式会社ＴＯＮＬＹ,,株式会社,東京都,品川区,西五反田３丁目１６－１１マイキャッスル目黒不動前５０３号室,,13,109,1410031,,,,,,,2021-12-27,1,,,,,トンリー,0
30,1010801032611,新規,0,2021-12-27,2021-12-27,株式会社ＦＤＣ,,株式会社,東京都,大田区,大森北２丁目１３番３１－１６１８号,,13,111,1430016,,,,,,,2021-12-27,1,,,,,エフディーシー,0
31,1010803003973,新規,0,2021-12-27,2021-12-27,合同会社ＦＥＤ－Ｂ,,合同会社,東京都,大田区,北千束２丁目１７－４,,13,111,1450062,,,,,,,2021-12-27,1,,,,,フェドビー,0
40,1011001144783,新規,0,2021-12-27,2021-12-27,株式会社トキ,,株式会社,東京都,目黒区,東が丘１丁目１６番１７－１０２号,,13,110,1520021,,,,,,,2021-12-27,1,,,,,トキ,0
41,1011001144791,新規,0,2021-12-27,2021-12-27,株式会社Ｓａｄｏ,,株式会社,東京都,渋谷区,恵比寿２丁目１３番１５号,,13,113,1500013,,,,,,,2021-12-27,1,,,,,サドー,0
42,1011001144825,新規,0,2021-12-27,2021-12-27,株式会社Ｆｉｒｓｔ　Ｕｎｉｔｅｄ,,株式会社,東京都,渋谷区,西原３丁目１番４号市川ビル３階,,13,113,1510066,,,,,,,2021-12-27,1,,,,,ファーストユナイテッド,0
48,1011101097254,新規,0,2021-12-27,2021-12-27,株式会社ＣＩＭＡ,,株式会社,東京都,新宿区,歌舞伎町２丁目１３－２、２Ｆ,,13,104,1600021,,,,,,,2021-12-27,1,,,,,シーマ,0
49,1011101097304,新規,0,2021-12-27,2021-12-27,アルカ商事株式会社,,株式会社,東京都,新宿区,高田馬場４丁目３番７号,,13,104,1690075,,,,,,,2021-12-27,1,,,,,アルカショウジ,0
50,1011101097329,新規,0,2021-12-27,2021-12-27,株式会社ビッグパートナーズ,,株式会社,東京都,新宿区,西新宿３丁目３番１３号西新宿水間ビル６階,,13,104,1600023,,,,,,,2021-12-27,1,,,,,ビッグパートナーズ,0
51,1011101097337,新規,0,2021-12-27,2021-12-27,株式会社宮北商事,,株式会社,東京都,新宿区,西新宿３丁目３番地１３号西新宿水間ビル６階,,13,104,1600023,,,,,,,2021-12-27,1,,,,,ミヤキタショウジ,0
52,1011103011320,新規,0,2021-12-27,2021-12-27,合同会社セルパンコーポレーション,,合同会社,東京都,新宿区,西早稲田２丁目２０番５－３０３号,,13,104,1690051,,,,,,,2021-12-27,1,,,,,セルパンコーポレーション,0
53,1011103011329,新規,0,2021-12-27,2021-12-27,ｔｏａ．合同会社,,合同会社,東京都,新宿区,改代町３９番地６コスモＡｏｉ神楽坂１０２,,13,104,1620802,,,,,,,2021-12-27,1,,,,,トーア,0
57,1011201023507,新規,0,2021-12-27,2021-12-27,株式会社アクト,,株式会社,東京都,中野区,東中野２丁目６番１３－４０２号,,13,114,1640003,,,,,,,2021-12-27,1,,,,,アクト,0
62,1011601025631,新規,0,2021-12-27,2021-12-27,株式会社Ｋ－ＴＥＣ,,株式会社,東京都,練馬区,西大泉３丁目２６番８号エトワール２０１,,13,120,1780065,,,,,,,2021-12-27,1,,,,,ケーテック,0
77,1020001144405,新規,0,2021-12-27,2021-12-27,株式会社レグルス,,株式会社,神奈川県,川崎市川崎区,駅前本町１１番地２,,14,131,2100007,,,,,,,2021-12-27,1,,,,,レグルス,0
78,1020001144479,新規,0,2021-12-27,2021-12-27,株式会社森田工務店,,株式会社,神奈川県,横浜市神奈川区,三枚町１９８番地１ライオンズマンション片倉町７０９号,,14,102,2210862,,,,,,,2021-12-27,1,,,,,モリタコウムテン,0
79,1020001144487,新規,0,2021-12-27,2021-12-27,Ｓｔｏｎｅ　Ｒａｎｃｈ株式会社,,株式会社,神奈川県,横浜市瀬谷区,本郷４丁目２８番地１７,,14,114,2460015,,,,,,,2021-12-27,1,,,,,ストーンランチ,0
80,1020001144495,新規,0,2021-12-27,2021-12-27,ゴットレイス株式会社,,株式会社,神奈川県,横浜市神奈川区,幸ケ谷１２番地９,,14,102,2210051,,,,,,,2021-12-27,1,,,,,ゴットレイス,0
81,1020001144512,新規,0,2021-12-27,2021-12-27,株式会社シズカフーズ,,株式会社,神奈川県,横浜市中区,日本大通３６番地シティタワー横濱２２０５,,14,104,2310021,,,,,,,2021-12-27,1,,,,,シズカフーズ,0
83,1020003021032,新規,0,2021-12-27,2021-12-27,合同会社ＫＯＵＳＥＩ,,合同会社,神奈川県,川崎市多摩区,堰１丁目１７－３７－３,,14,135,2140022,,,,,,,2021-12-27,1,,,,,,0
84,1020005015321,新規,0,2021-12-27,2021-12-27,アルス溝口ヒルトップステージ弐番館管理組合法人,,その他の設立登記法人,神奈川県,川崎市高津区,溝口２丁目３２番２号アルス溝口ヒルトップステージ弐番館管理事務所内,,14,134,2130001,,,,,,,2021-12-27,1,,,,,,0
87,1021001074823,新規,0,2021-12-27,2021-12-27,株式会社ＧＺＯＫ,,株式会社,神奈川県,厚木市,旭町１丁目３３番５号本多ビル３Ｆ,,14,212,2430014,,,,,,,2021-12-27,1,,,,,ジゾク,0
92,1021003011213,新規,0,2021-12-27,2021-12-27,ｋｕｍａｎｏ合同会社,,合同会社,神奈川県,相模原市中央区,水郷田名２丁目２１番１８号,,14,152,2520246,,,,,,,2021-12-27,1,,,,,クマノ,0
106,1040001121550,新規,0,2021-12-27,2021-12-27,オルブライト株式会社,,株式会社,千葉県,印西市,木刈１丁目１－５－３０１,,12,231,2701359,,,,,,,2021-12-27,1,,,,,オルブライト,0
111,1040003019207,新規,0,2021-12-27,2021-12-27,ＢＥＡＴ３０２合同会社,,合同会社,千葉県,習志野市,香澄３丁目１０－２－２,,12,216,2750022,,,,,,,2021-12-27,1,,,,,ビートスリーオーツー,0
113,1050001050360,新規,0,2021-12-27,2021-12-27,株式会社平部工業,,株式会社,茨城県,水戸市,鯉淵町４２１０－８,,08,201,3190323,,,,,,,2021-12-27,1,,,,,ヒラベコウギョウ,0
114,1050001050369,新規,0,2021-12-27,2021-12-27,株式会社Ｔｈｅ　Ｒ．,,株式会社,茨城県,石岡市,石岡２３１３番２１,,08,205,3150001,,,,,,,2021-12-27,1,,,,,ザアール,0
120,1070001038767,新規,0,2021-12-27,2021-12-27,株式会社ＭＡＲＩＮ’Ｓ,,株式会社,群馬県,伊勢崎市,宮子町３０４４番地２,,10,204,3720801,,,,,,,2021-12-27,1,,,,,マリンズ,0
124,1080401025546,新規,0,2021-12-27,2021-12-27,株式会社絆ＩＮＦＩＮＩ,,株式会社,静岡県,浜松市中区,文丘町３番１５号,,22,131,4328004,,,,,,,2021-12-27,1,,,,,キズナアンフィニ,0
131,1100001034928,新規,0,2021-12-27,2021-12-27,Ｒ２ＥＳＴＡＴＥ株式会社,,株式会社,長野県,下高井郡山ノ内町,大字平穏３２６２番地グラントピア志賀高原８０２号室,,20,561,3810401,,,,,,,2021-12-27,1,,,,,アールツーエステート,0
134,1110001036287,新規,0,2021-12-27,2021-12-27,株式会社Ｕｎｉｔｅｄ　ＣＨ,,株式会社,新潟県,新潟市中央区,日の出３丁目４番１５号,,15,103,9500073,,,,,,,2021-12-27,1,,,,,ユナイテッドシーエイチ,0
135,1110001036295,新規,0,2021-12-27,2021-12-27,株式会社Ｈａｐｐｙｐｒｅｓｅｎｔｌｉｆｅ,,株式会社,新潟県,新潟市中央区,四ッ屋町三丁目５１３２番地,,15,103,9500000,,,,,,,2021-12-27,1,,,,,ハッピープレゼントライフ,0
137,1110003004663,新規,0,2021-12-27,2021-12-27,合同会社ぐれち,,合同会社,新潟県,胎内市,築地２０４１番地,,15,227,9592712,,,,,,,2021-12-27,1,,,,,グレチ,0
151,1120001242719,新規,0,2021-12-27,2021-12-27,株式会社ストラーダ,,株式会社,大阪府,大阪市阿倍野区,阿倍野筋３丁目１０番１－１１０２号,,27,119,5450052,,,,,,,2021-12-27,1,,,,,ストラーダ,0
152,1120001242735,新規,0,2021-12-27,2021-12-27,株式会社マサケン,,株式会社,大阪府,門真市,島頭２丁目３番６号,,27,223,5710016,,,,,,,2021-12-27,1,,,,,マサケン,0
153,1120001242751,新規,0,2021-12-27,2021-12-27,株式会社ＢＡＮＤＥ,,株式会社,大阪府,大阪市中央区,島之内１丁目２２番２０号,,27,128,5420082,,,,,,,2021-12-27,1,,,,,バンデ,0
160,1120101064848,新規,0,2021-12-27,2021-12-27,ＡＲＫＡＮ株式会社,,株式会社,大阪府,富田林市,大字伏見堂７番地１,,27,214,5840055,,,,,,,2021-12-27,1,,,,,アルカーン,0
161,1120101064856,新規,0,2021-12-27,2021-12-27,株式会社播建,,株式会社,大阪府,松原市,丹南２丁目２４９番地の１９,,27,217,5800013,,,,,,,2021-12-27,1,,,,,ハリケン,0
162,1120101064864,新規,0,2021-12-27,2021-12-27,株式会社Ｓ＆Ｔ　ＣＯＭＰＡＮＹ,,株式会社,大阪府,和泉市,太町４２６番地の９,,27,219,5940003,,,,,,,2021-12-27,1,,,,,エスアンドティーカンパニー,0
169,1120901045386,新規,0,2021-12-27,2021-12-27,株式会社ＴＢＲ,,株式会社,大阪府,箕面市,坊島５丁目４番２６号,,27,220,5620013,,,,,,,2021-12-27,1,,,,,ティービーアール,0
170,1120901045403,新規,0,2021-12-27,2021-12-27,株式会社中井,,株式会社,大阪府,箕面市,石丸１丁目２３番２１号,,27,220,5620027,,,,,,,2021-12-27,1,,,,,ナカイ,0
178,1130001070771,新規,0,2021-12-27,2021-12-27,株式会社関塗料,,株式会社,京都府,京都市南区,東九条東御霊町２２番地の１５,,26,107,6018028,,,,,,,2021-12-27,1,,,,,セキトリョウ,0
179,1130001070796,新規,0,2021-12-27,2021-12-27,株式会社風雅,,株式会社,京都府,京都市右京区,西京極東町２９番地８,,26,108,6150816,,,,,,,2021-12-27,1,,,,,フウガ,0
182,1130003007656,新規,0,2021-12-27,2021-12-27,合同会社Ｖｉｓｉｏｎｅ　ＤＯＣ,,合同会社,京都府,京都市左京区,岡崎南御所町３５番地１グランドメゾン京都岡崎２０８号,,26,103,6068334,,,,,,,2021-12-27,1,,,,,ビジオーネディーオーシー,0
188,1140001124320,新規,0,2021-12-27,2021-12-27,株式会社アクアシステム,,株式会社,兵庫県,西宮市,名塩１丁目１番３２－９１１号,,28,204,6691147,,,,,,,2021-12-27,1,,,,,アクアシステム,0
205,1180001149264,新規,0,2021-12-27,2021-12-27,株式会社ＷＥＣ,,株式会社,愛知県,一宮市,丹陽町九日市場字北出１６２７番地,,23,203,4910824,,,,,,,2021-12-27,1,,,,,ウエック,0
206,1180001149280,新規,0,2021-12-27,2021-12-27,株式会社ＴＩＴＡＮ　ＷＯＲＫＳ,,株式会社,愛知県,名古屋市天白区,横町２０１番地天白第３住宅３棟１００１号,,23,116,4680054,,,,,,,2021-12-27,1,,,,,タイタンワークス,0
213,1180003023244,新規,0,2021-12-27,2021-12-27,合同会社ＡＬＬＱＵＥＥＮ,,合同会社,愛知県,名古屋市中区,丸の内１丁目１１番２９号,,23,106,4600002,,,,,,,2021-12-27,1,,,,,オールクイーン,0
214,1180301035742,新規,0,2021-12-27,2021-12-27,株式会社ナカガミホールディング,,株式会社,愛知県,田原市,加治町新田６７番地の１,,23,231,4413427,,,,,,,2021-12-27,1,,,,,ナカガミホールディング,0
215,1180301035759,新規,0,2021-12-27,2021-12-27,水の森ＳＴ株式会社,,株式会社,愛知県,安城市,百石町１丁目１５番地１０ベルエスポア石ナ曽根５０４,,23,212,4460044,,,,,,,2021-12-27,1,,,,,ミズノモリエスティ,0
218,1190001028979,新規,0,2021-12-27,2021-12-27,株式会社Ｒｉｔｚ＆Ａｌｏｈａ　Ｃｏｍｐａｎｙ,,株式会社,三重県,桑名市,星見ヶ丘９丁目１０９番地,,24,205,5110912,,,,,,,2021-12-27,1,,,,,リッツアンドアロハカンパニー,0
228,1220003003175,新規,0,2021-12-27,2021-12-27,合同会社ｃｏｎｎｅｘｉｏｎ,,合同会社,石川県,河北郡津幡町,字中須加ぬ１番地１５,,17,361,9290332,,,,,,,2021-12-27,1,,,,,コネクション,0
232,1230001019156,新規,0,2021-12-27,2021-12-27,株式会社エマーブル,,株式会社,富山県,富山市,久方町１番３２号アイ・ハウス久方ビル１Ｆ,,16,201,9300848,,,,,,,2021-12-27,1,,,,,エマーブル,0
234,1240001059077,新規,0,2021-12-27,2021-12-27,株式会社ＲＡＺＯＣＫ,,株式会社,広島県,三原市,旭町２丁目６番１１号,,34,204,7230012,,,,,,,2021-12-27,1,,,,,ラゾック,0
235,1240001059102,新規,0,2021-12-27,2021-12-27,株式会社アンファング,,株式会社,広島県,東広島市,八本松町飯田７３６番地１１,,34,212,7390141,,,,,,,2021-12-27,1,,,,,アンファング,0
244,1290001095828,新規,0,2021-12-27,2021-12-27,株式会社ＦＯＲＥＳＴＯＶＥ,,株式会社,福岡県,糸島市,二丈長石３７９番地７,,40,230,8191625,,,,,,,2021-12-27,1,,,,,フォレストーブ,0
247,1290003011964,新規,0,2021-12-27,2021-12-27,合同会社トリプルイー・パートナーズ,,合同会社,福岡県,福岡市中央区,薬院２丁目５番３９‐１１０２号,,40,133,8100022,,,,,,,2021-12-27,1,,,,,トリプルイーパートナーズ,0
248,1290005018495,新規,0,2021-12-27,2021-12-27,博多アイランドシティ特定目的会社,,その他の設立登記法人,福岡県,福岡市博多区,博多駅前１丁目１５番２０号ＮＭＦ博多駅前ビル２階,,40,132,8120011,,,,,,,2021-12-27,1,,,,,ハカタアイランドシティ,0
264,1350001017494,新規,0,2021-12-27,2021-12-27,株式会社ＡＩフーズ,,株式会社,宮崎県,東臼杵郡門川町,中須４丁目２９番地,,45,421,8890612,,,,,,,2021-12-27,1,,,,,アイフーズ,0
266,1350003003996,新規,0,2021-12-27,2021-12-27,合同会社ＫｅｅｐＳｍｉｌｉｎｇ,,合同会社,宮崎県,えびの市,大字原田２１３９番地,,45,209,8894301,,,,,,,2021-12-27,1,,,,,キープスマイリング,0
271,1360001029811,新規,0,2021-12-27,2021-12-27,株式会社ＳＮクラフト,,株式会社,沖縄県,那覇市,松島２丁目７番３号,,47,201,9020069,,,,,,,2021-12-27,1,,,,,エスエヌクラフト,0
272,1360005006575,新規,0,2021-12-27,2021-12-27,一般社団法人シラハマコイナ,,その他の設立登記法人,沖縄県,八重山郡竹富町,字西表１４９９番（白浜集落内）,,47,381,9071542,,,,,,,2021-12-27,1,,,,,シラハマコイナ,0
273,1370003005529,新規,0,2021-12-27,2021-12-27,合同会社Ｍｏｒｎｉｎｇ　Ｓｕｎ,,合同会社,宮城県,仙台市宮城野区,西宮城野１１－２平和マンション榴ケ岡４０６,,04,102,9830046,,,,,,,2021-12-27,1,,,,,モーニングサン,0
283,1390001016732,新規,0,2021-12-27,2021-12-27,株式会社ＳＵＧＡＮＯ通商,,株式会社,山形県,天童市,北久野本１丁目６番１１号,,06,210,9940011,,,,,,,2021-12-27,1,,,,,スガノツウショウ,0
291,1430001085681,新規,0,2021-12-27,2021-12-27,株式会社ＥＭＡ　ＪＡＰＡＮ,,株式会社,北海道,札幌市中央区,南五条西１０丁目１０１３番地３,,01,101,0640805,,,,,,,2021-12-27,1,,,,,エマジャパン,0
300,1430003013483,新規,0,2021-12-27,2021-12-27,期間工合同会社,,合同会社,北海道,札幌市北区,北七条西４丁目１番１号トーカン札幌第一キャステール６０７,,01,102,0600807,,,,,,,2021-12-27,1,,,,,キカンコウ,0
301,1450001013566,新規,0,2021-12-27,2021-12-27,株式会社ＮＧＩ,,株式会社,北海道,旭川市,神楽岡一条６丁目３番７号,,01,204,0788311,,,,,,,2021-12-27,1,,,,,エヌジーアイ,0
309,1700150105353,新規,0,2021-12-27,2021-10-18,橋の下世界音楽祭実行委員会,,その他,愛知県,豊田市,西町２丁目８コンテンツニシマチ２Ｆ　橋ノ下舎,,23,211,4710025,,,,,,,2021-10-18,1,,,,,ハシノシタセカイオンガクサイジツコウイインカイ,0
310,1700150106434,新規,0,2021-12-27,2021-12-27,ＣＡＲ　ＷＯＲＬＤ　ＴＲＡＤＩＮＧ,,外国会社等,茨城県,神栖市,日川１６９９番地２７ビジネスオフィス１８号,,08,232,3140114,スリランカ民主社会主義共和国、キャンディ、マダワラバザール、ビッドヤラヤロード、２９６－４,,,,,,2021-12-27,1,,,,,カーワールドトレーデイング,0
325,2010001223456,新規,0,2021-12-27,2021-12-27,株式会社ＧＥＮＲＹＵ,,株式会社,東京都,中央区,銀座１丁目１２－４Ｎ＆ＥＢＬＤ．７階,,13,102,1040061,,,,,,,2021-12-27,1,,,,,ゲンリュウ,0
326,2010001223472,新規,0,2021-12-27,2021-12-27,株式会社パイシーズインベスコ,,株式会社,東京都,中央区,日本橋茅場町３丁目２番２号ＥＫＫビル,,13,102,1030025,,,,,,,2021-12-27,1,,,,,パイシーズインベスコ,0
340,2010401164639,新規,0,2021-12-27,2021-12-27,株式会社ＴｏｒｕｓＭｏｄ,,株式会社,東京都,港区,芝大門１丁目４番４－３０３号,,13,103,1050012,,,,,,,2021-12-27,1,,,,,トーラスモッド,0
341,2010401164655,新規,0,2021-12-27,2021-12-27,株式会社イノベーションエッジパートナーズ,,株式会社,東京都,港区,虎ノ門１丁目１７番１号虎ノ門ヒルズビジネスタワー１５階,,13,103,1050001,,,,,,,2021-12-27,1,,,,,イノベーションエッジパートナーズ,0
346,2010403026770,新規,0,2021-12-27,2021-12-27,合同会社ｄｏｔ　ｍｏＶｅ,,合同会社,東京都,港区,南青山２丁目２番１５号,,13,103,1070062,,,,,,,2021-12-27,1,,,,,ドットムーブ,0
347,2010403026804,新規,0,2021-12-27,2021-12-27,合同会社アドバンス,,合同会社,東京都,港区,南青山２丁目２番１５号,,13,103,1070062,,,,,,,2021-12-27,1,,,,,アドバンス,0
349,2010405020549,新規,0,2021-12-27,2021-12-27,一般社団法人Ａｎｓｅｉ,,その他の設立登記法人,東京都,港区,虎ノ門５丁目１番４号,,13,103,1050001,,,,,,,2021-12-27,1,,,,,アンセイ,0
367,2011001144626,新規,0,2021-12-27,2021-12-27,株式会社Ｉ－ＢＡＳＥ,,株式会社,東京都,渋谷区,千駄ヶ谷５丁目２７－５リンクスクエア新宿１６階,,13,113,1510051,,,,,,,2021-12-27,1,,,,,アイベイス,0
368,2011001144717,新規,0,2021-12-27,2021-12-27,株式会社Ｗｈｉｔｅ　ｆｌｏｗｅｒ,,株式会社,東京都,渋谷区,神宮前６丁目２３－４－２Ｆ,,13,113,1500001,,,,,,,2021-12-27,1,,,,,ホワイトフラワー,0
369,2011001144790,新規,0,2021-12-27,2021-12-27,株式会社ＶＯＬＩＣ,,株式会社,東京都,渋谷区,松濤１丁目２８番２号,,13,113,1500046,,,,,,,2021-12-27,1,,,,,ヴォリック,0
370,2011001144799,新規,0,2021-12-27,2021-12-27,株式会社ＮＥＸＴ　ＣＲＥＡＴＩＶＥ,,株式会社,東京都,渋谷区,富ヶ谷１丁目９番１６号－２Ｆ,,13,113,1510063,,,,,,,2021-12-27,1,,,,,ネクストクリエイティブ,0
372,2011003013886,新規,0,2021-12-27,2021-12-27,合同会社スケルトンキーボード,,合同会社,東京都,渋谷区,渋谷２丁目１９―１５宮益坂ビルディング６０９,,13,113,1500002,,,,,,,2021-12-27,1,,,,,スケルトンキーボード,0
379,2011101097286,新規,0,2021-12-27,2021-12-27,株式会社シーエーパーキング,,株式会社,東京都,新宿区,西新宿７丁目１番７号,,13,104,1600023,,,,,,,2021-12-27,1,,,,,シーエーパーキング,0
380,2011101097328,新規,0,2021-12-27,2021-12-27,株式会社花結び,,株式会社,東京都,新宿区,上落合１丁目２１番３号オセアーノ３０１,,13,104,1610034,,,,,,,2021-12-27,1,,,,,ハナムスビ,0
381,2011101097352,新規,0,2021-12-27,2021-12-27,株式会社スプリガン,,株式会社,東京都,新宿区,舟町７番地４６ＬＡＮＤＤＥＮ舟町９０１,,13,104,1600006,,,,,,,2021-12-27,1,,,,,スプリガン,0
382,2011201023506,新規,0,2021-12-27,2021-12-27,株式会社ウィザード,,株式会社,東京都,中野区,中央４丁目２番１３号,,13,114,1640011,,,,,,,2021-12-27,1,,,,,ウィザード,0
391,2011801040108,新規,0,2021-12-27,2021-12-27,株式会社ＡＣＥ,,株式会社,東京都,足立区,千住２丁目５０番地１グランフラッツ北千住３０９,,13,121,1200034,,,,,,,2021-12-27,1,,,,,エース,0
392,2011803004903,新規,0,2021-12-27,2021-12-27,合同会社ｔｉｍｉｎｇ,,合同会社,東京都,足立区,日ノ出町２５番２号２０３,,13,121,1200021,,,,,,,2021-12-27,1,,,,,タイミング,0
399,2013301048481,新規,0,2021-12-27,2021-12-27,株式会社リバレス,,株式会社,東京都,豊島区,池袋２丁目４０番２号,,13,116,1710014,,,,,,,2021-12-27,1,,,,,リバレス,0
406,2020001144395,新規,0,2021-12-27,2021-12-27,ミコネクサス株式会社,,株式会社,神奈川県,横浜市青葉区,美しが丘１丁目１１番地８,,14,117,2250002,,,,,,,2021-12-27,1,,,,,ミコネクサス,0
407,2020001144478,新規,0,2021-12-27,2021-12-27,株式会社ＦＵＬＬＨＯＵＳＥ,,株式会社,神奈川県,横浜市鶴見区,潮田町１丁目２３番地４クリオ横浜鶴見２０２号,,14,101,2300041,,,,,,,2021-12-27,1,,,,,フルハウス,0
408,2020001144486,新規,0,2021-12-27,2021-12-27,株式会社Ｓｈａｌｏｍ　Ｈｏｍｅｓ,,株式会社,神奈川県,横浜市神奈川区,子安台１丁目１２番１３号,,14,102,2210012,,,,,,,2021-12-27,1,,,,,シャロームホームズ,0
409,2020001144494,新規,0,2021-12-27,2021-12-27,株式会社Ｏｖｅｒｃｏｍｅ　Ｐｒｏｊｅｃｔ,,株式会社,神奈川県,川崎市幸区,柳町５５番地３,,14,132,2120015,,,,,,,2021-12-27,1,,,,,オーバーカムプロジェクト,0
410,2020001144536,新規,0,2021-12-27,2021-12-27,ＡｄｖａｎｔＦ　Ｇｒｏｕｐ株式会社,,株式会社,神奈川県,横浜市港北区,新横浜１丁目２５番地５プラーズ新横浜５０６,,14,109,2220033,,,,,,,2021-12-27,1,,,,,アドヴァントエフグループ,0
412,2020003021023,新規,0,2021-12-27,2021-12-27,合同会社伝グループ,,合同会社,神奈川県,川崎市多摩区,西生田１丁目１１番３号,,14,135,2140037,,,,,,,2021-12-27,1,,,,,デングループ,0
413,2020005015329,新規,0,2021-12-27,2021-12-27,一般社団法人黒川里山倶楽部,,その他の設立登記法人,神奈川県,川崎市麻生区,黒川１５３１番地２,,14,137,2150035,,,,,,,2021-12-27,1,,,,,クロカワサトヤマクラブ,0
416,2021001074806,新規,0,2021-12-27,2021-12-27,株式会社リシェス,,株式会社,神奈川県,横須賀市,大津町５丁目１５－１２,,14,201,2390808,,,,,,,2021-12-27,1,,,,,リシェス,0
417,2021003011220,新規,0,2021-12-27,2021-12-27,ＴＨＥ　ＢＯＸ　ＯＦＦＩＣＥ合同会社,,合同会社,神奈川県,藤沢市,辻堂元町４丁目３番３号,,14,205,2510043,,,,,,,2021-12-27,1,,,,,ボックスオフィス,0
418,2021003011229,新規,0,2021-12-27,2021-12-27,合同会社ＦＳＹ,,合同会社,神奈川県,座間市,栗原中央５丁目２９－１２アルドーレ芹沢３０７,,14,216,2520014,,,,,,,2021-12-27,1,,,,,エスエフワイ,0
422,2030001146044,新規,0,2021-12-27,2021-12-27,株式会社ＡＴＬＡＳ,,株式会社,埼玉県,川越市,中台南１丁目５番地１７,,11,201,3501150,,,,,,,2021-12-27,1,,,,,アトラス,0
423,2030001146052,新規,0,2021-12-27,2021-12-27,株式会社プラスプレッド,,株式会社,埼玉県,さいたま市桜区,大字上大久保５９９番地１７,,11,106,3380824,,,,,,,2021-12-27,1,,,,,プラスプレッド,0
424,2030001146077,新規,0,2021-12-27,2021-12-27,トーキン株式会社,,株式会社,埼玉県,草加市,氷川町２１５８‐１８,,11,221,3400034,,,,,,,2021-12-27,1,,,,,トーキン,0
434,2040001121533,新規,0,2021-12-27,2021-12-27,株式会社濱孝,00125242,株式会社,千葉県,市原市,ちはら台南４丁目２２番地４,,12,219,2900142,,,,,,,2021-12-27,1,,,,,ハマコウ,0
439,2040003019156,新規,0,2021-12-27,2021-12-27,合同会社はちわれ,,合同会社,千葉県,柏市,根戸４０３－２３,,12,217,2770831,,,,,,,2021-12-27,1,,,,,ハチワレ,0
445,2070001038766,新規,0,2021-12-27,2021-12-27,株式会社北栄,,株式会社,群馬県,渋川市,金井１１３５番地２,,10,208,3770027,,,,,,,2021-12-27,1,,,,,ホクエイ,0
446,2070001038774,新規,0,2021-12-27,2021-12-27,株式会社時宝舎,,株式会社,群馬県,高崎市,高砂町９０番地,,10,202,3700047,,,,,,,2021-12-27,1,,,,,,0
449,2070003004345,新規,0,2021-12-27,2021-12-27,合同会社カリカマイ,,合同会社,群馬県,前橋市,南町４丁目１９番地６,,10,201,3710805,,,,,,,2021-12-27,1,,,,,カリカマイ,0
456,2080103002487,新規,0,2021-12-27,2021-12-27,ファクトプランニング合同会社,,合同会社,静岡県,熱海市,昭和町２‐１０,,22,205,4130022,,,,,,,2021-12-27,1,,,,,ファクトプランニング,0
458,2080401025545,新規,0,2021-12-27,2021-12-27,株式会社そま工房,,株式会社,静岡県,袋井市,中新田３４３番地,,22,216,4371111,,,,,,,2021-12-27,1,,,,,ソマコウボウ,0
480,2120001242734,新規,0,2021-12-27,2021-12-27,株式会社ＶＶ,,株式会社,大阪府,大阪市北区,本庄西２丁目２２番１６－６０３号,,27,127,5310073,,,,,,,2021-12-27,1,,,,,ブイツー,0
481,2120001242775,新規,0,2021-12-27,2021-12-27,株式会社Ｆｏｏｄｉｓｍ　ｗｏｒｋｓ,,株式会社,大阪府,寝屋川市,石津南町７番１８号,,27,215,5720024,,,,,,,2021-12-27,1,,,,,フーディズムワークス,0
486,2120003020832,新規,0,2021-12-27,2021-12-27,ｂｏｏｋ合同会社,,合同会社,大阪府,大阪市東成区,東小橋３丁目１３番２８号,,27,115,5370024,,,,,,,2021-12-27,1,,,,,ブック,0
487,2120003020849,新規,0,2021-12-27,2021-12-27,合同会社ヘベズ,,合同会社,大阪府,大阪市浪速区,元町２丁目３番１号,,27,111,5560016,,,,,,,2021-12-27,1,,,,,ヘベズ,0
489,2120101064855,新規,0,2021-12-27,2021-12-27,株式会社サウスプロ,,株式会社,大阪府,岸和田市,上町２４番１１号,,27,202,5960077,,,,,,,2021-12-27,1,,,,,サウスプロ,0
490,2120101064863,新規,0,2021-12-27,2021-12-27,隼外装株式会社,,株式会社,大阪府,高石市,西取石１丁目２２番３９号－Ａ,,27,225,5920012,,,,,,,2021-12-27,1,,,,,ハヤブサガイソウ,0
491,2120103004487,新規,0,2021-12-27,2021-12-27,合同会社しあわせの会,,合同会社,大阪府,和泉市,黒鳥町３丁目８番３４号,,27,219,5940022,,,,,,,2021-12-27,1,,,,,シアワセノカイ,0
492,2120103004495,新規,0,2021-12-27,2021-12-27,ＡｌｌＧｒｅｅｎ合同会社,,合同会社,大阪府,堺市堺区,南三国ヶ丘町５丁３－８,,27,141,5900023,,,,,,,2021-12-27,1,,,,,オールグリーン,0
494,2120901045402,新規,0,2021-12-27,2021-12-27,株式会社えびすアセットマネジメント,,株式会社,大阪府,箕面市,小野原西３丁目７番３号,,27,220,5620032,,,,,,,2021-12-27,1,,,,,エビスアセットマネジメント,0
496,2122001035457,新規,0,2021-12-27,2021-12-27,株式会社川村パッキング,,株式会社,大阪府,東大阪市,玉串町東３丁目３番８３号,,27,227,5780932,,,,,,,2021-12-27,1,,,,,カワムラパッキング,0
500,2130001070770,新規,0,2021-12-27,2021-12-27,株式会社ＰＩＮ,,株式会社,京都府,京都市東山区,唐戸鼻町５５５番地１,,26,105,6050069,,,,,,,2021-12-27,1,,,,,ピン,0
501,2130001070787,新規,0,2021-12-27,2021-12-27,株式会社ｎｕｋｕｍｏｒｉ,,株式会社,京都府,京都市北区,小山下内河原町１０９番地４,,26,101,6038132,,,,,,,2021-12-27,1,,,,,ヌクモリ,0
502,2130001070795,新規,0,2021-12-27,2021-12-27,株式会社ＵＲＯ,,株式会社,京都府,京都市下京区,楊梅通西洞院東入八百屋町５８番地,,26,106,6008321,,,,,,,2021-12-27,1,,,,,ユーアールオー,0
513,2140001124311,新規,0,2021-12-27,2021-12-27,株式会社ミザンプラス,,株式会社,兵庫県,西宮市,南越木岩町１４番２号,,28,204,6620075,,,,,,,2021-12-27,1,,,,,ミザンプラス,0
516,2140003017141,新規,0,2021-12-27,2021-12-27,合同会社ＡＮ　ＮＡＭ,,合同会社,兵庫県,神戸市灘区,船寺通１丁目３番３号,,28,102,6570842,,,,,,,2021-12-27,1,,,,,アンナム,0
517,2150001025203,新規,0,2021-12-27,2021-12-27,田原本金属株式会社,,株式会社,奈良県,磯城郡田原本町,大字松本１０２番地１,,29,363,6360351,,,,,,,2021-12-27,1,,,,,タハラモトキンゾク,0
526,2180001149255,新規,0,2021-12-27,2021-12-27,株式会社ＴＲＡＮＳＩＴ,,株式会社,愛知県,名古屋市中区,大須１丁目７番１４号パークＩＭビル２階,,23,106,4600011,,,,,,,2021-12-27,1,,,,,トランジット,0
527,2180001149263,新規,0,2021-12-27,2021-12-27,みどりホールディングス株式会社,,株式会社,愛知県,名古屋市緑区,鳴海町字杜若２６番地,,23,114,4580801,,,,,,,2021-12-27,1,,,,,ミドリホールディングス,0
528,2180001149288,新規,0,2021-12-27,2021-12-27,株式会社ｇｏ－ｐｌａｃｅ,,株式会社,愛知県,名古屋市守山区,瀬古東３丁目７２５番地２,,23,113,4630090,,,,,,,2021-12-27,1,,,,,ゴープレイス,0
533,2180301035758,新規,0,2021-12-27,2021-12-27,株式会社村重工務店,,株式会社,愛知県,岡崎市,城南町３丁目２番地１１,,23,202,4440835,,,,,,,2021-12-27,1,,,,,ムラシゲコウムテン,0
538,2180305009279,新規,0,2021-12-27,2021-12-27,医療法人芳精会,,その他の設立登記法人,愛知県,額田郡幸田町,大字坂崎字石ノ塔８番地,,23,501,4440104,,,,,,,2021-12-27,1,,,,,ホウセイカイ,0
542,2200001039577,新規,0,2021-12-27,2021-12-27,株式会社技研ウェルネス,,株式会社,岐阜県,岐阜市,宇佐南３丁目６番２０号,,21,201,5008367,,,,,,,2021-12-27,1,,,,,ギケンウェルネス,0
543,2210003001435,新規,0,2021-12-27,2021-12-27,合同会社メディカルハーブスクールｎｅ・ｍｕ,,合同会社,福井県,あわら市,田中々３０－１０,,18,208,9104124,,,,,,,2021-12-27,1,,,,,メディカルハーブスクールネム,0
549,2240001059101,新規,0,2021-12-27,2021-12-27,株式会社ＹＵＥ,,株式会社,広島県,山県郡北広島町,石井谷１７００番地,,34,369,7311525,,,,,,,2021-12-27,1,,,,,ユイ,0
556,2260005011015,新規,0,2021-12-27,2021-12-27,農事組合法人軽部東営農組合,,その他の設立登記法人,岡山県,総社市,清音三因５６４番地,,33,208,7191171,,,,,,,2021-12-27,1,,,,,カルベヒガシエイノウクミアイ,0
557,2280001008590,新規,0,2021-12-27,2021-12-27,ＳＡＴＯＫＯ＆ＣＯ株式会社,,株式会社,島根県,浜田市,相生町３７６５番地１１,,32,202,6970034,,,,,,,2021-12-27,1,,,,,サトコアンドコー,0
559,2290001095835,新規,0,2021-12-27,2021-12-27,株式会社アイフィック,,株式会社,福岡県,宗像市,自由ヶ丘南４丁目３番３１号,,40,220,8114156,,,,,,,2021-12-27,1,,,,,アイフィック,0
561,2290003011963,新規,0,2021-12-27,2021-12-27,合同会社びんすた,,合同会社,福岡県,福岡市西区,姪の浜６丁目１番１２－６０３号ウェルスグローリー姪浜,,40,135,8190002,,,,,,,2021-12-27,1,,,,,ビンスタ,0
562,2290801028119,新規,0,2021-12-27,2021-12-27,プロジェクト九州株式会社,,株式会社,福岡県,田川郡福智町,弁城３５９３番地７,,40,610,8221212,,,,,,,2021-12-27,1,,,,,プロジェクトキュウシュウ,0
573,2340001024359,新規,0,2021-12-27,2021-12-27,株式会社オルトアム,,株式会社,鹿児島県,鹿児島市,東千石町１４－１６,,46,201,8920842,,,,,,,2021-12-27,1,,,,,オルトアム,0
578,2360005006574,新規,0,2021-12-27,2021-12-27,一般財団法人ローカルＳＤＧｓ推進支援機構,,その他の設立登記法人,沖縄県,石垣市,字川平９６７番地１,,47,207,9070453,,,,,,,2021-12-27,1,,,,,ローカルエスディージーズスイシンシエンキコウ,0
582,2370001047984,新規,0,2021-12-27,2021-12-27,株式会社ＲＡＳＣＨ,,株式会社,宮城県,仙台市青葉区,八幡３丁目１４番１７－５０１号,,04,101,9800871,,,,,,,2021-12-27,1,,,,,ラッシュ,0
600,2430001085672,新規,0,2021-12-27,2021-12-27,株式会社ＨＭホールディングス,,株式会社,北海道,札幌市中央区,大通西２０丁目２番１８号,,01,101,0640820,,,,,,,2021-12-27,1,,,,,エイチエムホールディングス,0
606,2460101007111,新規,0,2021-12-27,2021-12-27,株式会社Ｇｏｏｄ　Ｒｅｖｉｖｅ　Ｊａｐａｎ,,株式会社,北海道,帯広市,西五条南５丁目４番地４,,01,207,0800015,,,,,,,2021-12-27,1,,,,,グッドリバイブジャパン,0
617,2700150106458,新規,0,2021-12-27,2021-12-27,ＪＡＰＯＷ　ＨＯＮＧ　ＫＯＮＧ　ＬＩＭＩＴＥＤ,,外国会社等,長野県,北安曇郡白馬村,大字北城３０２０－５５０,,20,485,3999301,中華人民共和国香港特別行政区ワンチャイ，ヘネシーロード，チャイナ香港タワー８，１４／Ｆ,,,,,,2021-12-27,1,,,,,ジヤパウホンコンリミテツド,0
631,3010101014993,新規,0,2021-12-27,2021-12-27,株式会社荒井工務店,,株式会社,東京都,八王子市,打越町１０３７番地,,13,201,1920911,,,,,,,2021-12-27,1,,,,,アライコウムテン,0
637,3010401164646,新規,0,2021-12-27,2021-12-27,株式会社ルテハ,,株式会社,東京都,港区,六本木５丁目１２番１８号,,13,103,1060032,,,,,,,2021-12-27,1,,,,,ルテハ,0
643,3010403026803,新規,0,2021-12-27,2021-12-27,合同会社瀬田玉川堂,,合同会社,東京都,港区,六本木５丁目９番２０－８０１号,,13,103,1060032,,,,,,,2021-12-27,1,,,,,セタタマガワドウ,0
645,3010405020440,新規,0,2021-12-27,2021-12-27,一般社団法人全日本自家焙煎珈琲協会,,その他の設立登記法人,東京都,港区,南青山２丁目２番１５号,,13,103,1070062,,,,,,,2021-12-27,1,,,,,ゼンニホンジカバイセンコーヒーキョウカイ,0
649,3010601060439,新規,0,2021-12-27,2021-12-27,株式会社Ａ－ＤＯＧ－ＰＬＵＳ,,株式会社,東京都,墨田区,京島１丁目１番地２イーストコア曳舟２５１４号室,,13,107,1310046,,,,,,,2021-12-27,1,,,,,エードックプラス,0
652,3010701041982,新規,0,2021-12-27,2021-12-27,株式会社ＵｌｔｒａＢｌａｃｋ,,株式会社,東京都,品川区,東品川３丁目８番８号,,13,109,1400002,,,,,,,2021-12-27,1,,,,,ウルトラブラック,0
674,3011101097351,新規,0,2021-12-27,2021-12-27,株式会社ホログラフィック,,株式会社,東京都,新宿区,舟町７番地４６ＬＡＮＤＤＥＮ舟町９０１,,13,104,1600006,,,,,,,2021-12-27,1,,,,,ホログラフィック,0
675,3011101097368,新規,0,2021-12-27,2021-12-27,株式会社Ｈａｐｐｉｎｅｓｓ,,株式会社,東京都,新宿区,高田馬場４丁目１７－１５－７１０,,13,104,1690075,,,,,,,2021-12-27,1,,,,,ハピネス,0
676,3011101097376,新規,0,2021-12-27,2021-12-27,株式会社ＪＩＮ,,株式会社,東京都,新宿区,大久保２丁目３番１６号サニー大久保３０５,,13,104,1690072,,,,,,,2021-12-27,1,,,,,ジン,0
679,3011103011327,新規,0,2021-12-27,2021-12-27,合同会社ＲＡＶＩＧＡ,,合同会社,東京都,新宿区,西新宿３丁目３番１３号西新宿水間ビル６階,,13,104,1600023,,,,,,,2021-12-27,1,,,,,ラヴィーガ,0
690,3011403003528,新規,0,2021-12-27,2021-12-27,ユユカ合同会社,,合同会社,東京都,板橋区,高島平２丁目２６番１－８０５号,,13,119,1750082,,,,,,,2021-12-27,1,,,,,ユユカ,0
692,3011603003484,新規,0,2021-12-27,2021-12-27,Ｊ－Ｍｅ合同会社,,合同会社,東京都,練馬区,中村南２丁目２１－１２,,13,120,1760025,,,,,,,2021-12-27,1,,,,,ジェイミー,0
698,3011801040115,新規,0,2021-12-27,2021-12-27,株式会社エム・アール・ディ,,株式会社,東京都,葛飾区,立石５丁目２４番１２号,,13,122,1240012,,,,,,,2021-12-27,1,,,,,エムアールディ,0
708,3013101008809,新規,0,2021-12-27,2021-12-27,株式会社ミフリス,,株式会社,東京都,青梅市,勝沼２丁目２９２番地,,13,205,1980041,,,,,,,2021-12-27,1,,,,,ミフリス,0
709,3013301013914,新規,0,2021-12-27,2021-12-27,株式会社三晃,,株式会社,東京都,豊島区,南池袋３丁目１８番３５号,,13,116,1710022,,,,,,,2021-12-27,1,,,,,サンコウ,0
717,3020001144485,新規,0,2021-12-27,2021-12-27,株式会社むつらぼし,,株式会社,神奈川県,川崎市多摩区,菅稲田堤１丁目１番２号,,14,135,2140003,,,,,,,2021-12-27,1,,,,,ムツラボシ,0
718,3020001144502,新規,0,2021-12-27,2021-12-27,株式会社ニシタニ機械,,株式会社,神奈川県,川崎市高津区,久末１７７８番地１,,14,134,2130026,,,,,,,2021-12-27,1,,,,,ニシタニキカイ,0
719,3020001144510,新規,0,2021-12-27,2021-12-27,株式会社スマートガレージ,,株式会社,神奈川県,横浜市金沢区,能見台通７番１４号,,14,108,2360053,,,,,,,2021-12-27,1,,,,,スマートガレージ,0
720,3020001144527,新規,0,2021-12-27,2021-12-27,心和興業株式会社,,株式会社,神奈川県,横浜市鶴見区,生麦５丁目７番４８号,,14,101,2300052,,,,,,,2021-12-27,1,,,,,シンワコウギョウ,0
721,3020003021022,新規,0,2021-12-27,2021-12-27,合同会社Ｎｏ８,,合同会社,神奈川県,川崎市幸区,南加瀬４丁目２６番１２号,,14,132,2120055,,,,,,,2021-12-27,1,,,,,ナンバーエイト,0
722,3020003021030,新規,0,2021-12-27,2021-12-27,合同会社Ｔ＆Ｋ,,合同会社,神奈川県,川崎市麻生区,高石１丁目１５－１３－２０２,,14,137,2150003,,,,,,,2021-12-27,1,,,,,ティーアンドケー,0
725,3021001074821,新規,0,2021-12-27,2021-12-27,株式会社高津土木,00125240,株式会社,神奈川県,伊勢原市,伊勢原３丁目４番２号,,14,214,2591131,,,,,,,2021-12-27,1,,,,,タカツドボク,0
727,3021003011228,新規,0,2021-12-27,2021-12-27,ＧＯＯＤＷＯＲＫＳ合同会社,,合同会社,神奈川県,鎌倉市,大町６丁目６－１９,,14,204,2480007,,,,,,,2021-12-27,1,,,,,グッドワークス,0
740,3030001146010,新規,0,2021-12-27,2021-12-27,Ｋ．Ｓホールディングス株式会社,,株式会社,埼玉県,越谷市,千間台西２丁目５番地７,,11,222,3430041,,,,,,,2021-12-27,1,,,,,ケーエスホールディングス,0
741,3030001146043,新規,0,2021-12-27,2021-12-27,株式会社ＣＡＭＥＬ,,株式会社,埼玉県,川越市,稲荷町１７番地４エマーユ稲荷町３０７号室,,11,201,3501144,,,,,,,2021-12-27,1,,,,,キャメル,0
742,3030001146051,新規,0,2021-12-27,2021-12-27,株式会社Ｓｈｉｎｙ　Ｅ．ｌｉｆｅ,,株式会社,埼玉県,さいたま市北区,宮原町３丁目９０１番地１,,11,102,3310812,,,,,,,2021-12-27,1,,,,,シャイニーイーライフ,0
748,3040001121490,新規,0,2021-12-27,2021-12-27,株式会社エムイーワーク,,株式会社,千葉県,船橋市,本中山５丁目１番１号,,12,204,2730035,,,,,,,2021-12-27,1,,,,,エムイーワーク,0
749,3040001121508,新規,0,2021-12-27,2021-12-27,株式会社喜代建設,,株式会社,千葉県,柏市,松ケ崎５１７番地３山沢マンション３０２号,,12,217,2770835,,,,,,,2021-12-27,1,,,,,キシロケンセツ,0
750,3040001121549,新規,0,2021-12-27,2021-12-27,株式会社ＦＯＲＴＵＮＡ,,株式会社,千葉県,流山市,東初石２丁目７５番地の６１,,12,220,2700114,,,,,,,2021-12-27,1,,,,,フォルトゥナ,0
754,3040003019205,新規,0,2021-12-27,2021-12-27,合同会社ＹＴＳ,,合同会社,千葉県,千葉市美浜区,打瀬３丁目６ミラマール一番館４１３,,12,106,2610013,,,,,,,2021-12-27,1,,,,,ワイティーエス,0
756,3060001034402,新規,0,2021-12-27,2021-12-27,ＪＵＮＡＩＤ　ＴＲＡＤＩＮＧ株式会社,,株式会社,栃木県,栃木市,岩舟町新里１３０４,,09,203,3294316,,,,,,,2021-12-27,1,,,,,ジュナイドトレーディング,0
757,3060001034427,新規,0,2021-12-27,2021-12-27,株式会社小倉建設,,株式会社,栃木県,真岡市,原町２７８番地３,,09,209,3214403,,,,,,,2021-12-27,1,,,,,オグラケンセツ,0
761,3070001038773,新規,0,2021-12-27,2021-12-27,株式会社ニッタル運輸,,株式会社,群馬県,太田市,大原町２４５６番地,,10,205,3792304,,,,,,,2021-12-27,1,,,,,ニッタルウンユ,0
762,3070003004344,新規,0,2021-12-27,2021-12-27,オレンジ合同会社,,合同会社,群馬県,伊勢崎市,南千木町１７５５番地３,,10,204,3720033,,,,,,,2021-12-27,1,,,,,オレンジ,0
764,3080101023006,新規,0,2021-12-27,2021-12-27,株式会社ＯＲＤＩＮＡＲＹ,,株式会社,静岡県,駿東郡清水町,堂庭８番地の７,,22,341,4110903,,,,,,,2021-12-27,1,,,,,オーディナリー,0
765,3080105006205,新規,0,2021-12-27,2021-12-27,一般社団法人エルエスシー,,その他の設立登記法人,静岡県,御殿場市,御殿場２７２‐６,,22,215,4120028,,,,,,,2021-12-27,1,,,,,エルエスシー,0
768,3090001017338,新規,0,2021-12-27,2021-12-27,株式会社Ｙ・Ｙコーポレーション,,株式会社,山梨県,甲斐市,下今井２８２６番地,,19,210,4000105,,,,,,,2021-12-27,1,,,,,ワイワイコーポレーション,0
773,3100003006329,新規,0,2021-12-27,2021-12-27,合同会社サニプレイス,,合同会社,長野県,松本市,大字入山辺６３０番地,,20,202,3900222,,,,,,,2021-12-27,1,,,,,サニプレイス,0
794,3120001242709,新規,0,2021-12-27,2021-12-27,株式会社ＭＷＣ,,株式会社,大阪府,大阪市西区,靱本町２丁目５番１８号,,27,106,5500004,,,,,,,2021-12-27,1,,,,,エムダブリューシー,0
795,3120001242741,新規,0,2021-12-27,2021-12-27,株式会社咲建装,,株式会社,大阪府,大阪市生野区,巽西３丁目５番１８号,,27,116,5440012,,,,,,,2021-12-27,1,,,,,サクケンソウ,0
796,3120001242758,新規,0,2021-12-27,2021-12-27,算研株式会社,,株式会社,大阪府,大阪市淀川区,宮原１丁目１９－２３ステュディオ新御堂４２３号室,,27,123,5320003,,,,,,,2021-12-27,1,,,,,サンケン,0
797,3120001242774,新規,0,2021-12-27,2021-12-27,Ｊａｎｎａｔ　Ｃｏｒｐｏｒａｔｉｏｎ株式会社,,株式会社,大阪府,大阪市西淀川区,大和田４丁目１番２２号アーバンハイツ大和田３０２号室,,27,113,5550032,,,,,,,2021-12-27,1,,,,,ジャンナットコーポレーション,0
798,3120001242782,新規,0,2021-12-27,2021-12-27,株式会社ＨＧＯ　ａｌｌｉａｎｃｅ,,株式会社,大阪府,大阪市中央区,北浜２丁目２番２２号,,27,128,5410041,,,,,,,2021-12-27,1,,,,,エイチジーオーアライアンス,0
800,3120003020848,新規,0,2021-12-27,2021-12-27,合同会社ＮＥＣＯ,,合同会社,大阪府,大阪市浪速区,恵美須西２丁目１１－１１,,27,111,5560003,,,,,,,2021-12-27,1,,,,,ネコ,0
801,3120103004494,新規,0,2021-12-27,2021-12-27,合同会社ＭＩＹＡＫＥ,,合同会社,大阪府,岸和田市,土生町４丁目６番１０号,,27,202,5960825,,,,,,,2021-12-27,1,,,,,,0
803,3120901045392,新規,0,2021-12-27,2021-12-27,株式会社ｏｋｕｒｕ　ｄｅｓｉｇｎ,,株式会社,大阪府,豊中市,東豊中町５丁目２番１１０―５０２号,,27,203,5600003,,,,,,,2021-12-27,1,,,,,オクルデザイン,0
804,3120901045401,新規,0,2021-12-27,2021-12-27,萱野東開発株式会社,,株式会社,大阪府,箕面市,石丸２丁目６番３１号,,27,220,5620027,,,,,,,2021-12-27,1,,,,,カヤノヒガシカイハツ,0
810,3130001070778,新規,0,2021-12-27,2021-12-27,株式会社ぼんぼん,,株式会社,京都府,与謝郡伊根町,字日出５５２番地１,,26,463,6260425,,,,,,,2021-12-27,1,,,,,ボンボン,0
811,3130001070786,新規,0,2021-12-27,2021-12-27,株式会社ＭＥＤｉｏｒ,,株式会社,京都府,京都市北区,上賀茂岩ケ垣内町５番地１,,26,101,6038053,,,,,,,2021-12-27,1,,,,,メディオ,0
812,3130001070794,新規,0,2021-12-27,2021-12-27,株式会社テクノコネクト,,株式会社,京都府,宇治市,大久保町平盛１８－１－１０１,,26,204,6110033,,,,,,,2021-12-27,1,,,,,テクノコネクト,0
818,3130003007654,新規,0,2021-12-27,2021-12-27,合同会社月ノ雫,,合同会社,京都府,舞鶴市,字朝代４８番地１－２０２号,,26,202,6240842,,,,,,,2021-12-27,1,,,,,ツキノシズク,0
833,3160001023898,新規,0,2021-12-27,2021-12-27,株式会社ＰＥ－Ｔｅｃｈラボラトリー,,株式会社,滋賀県,守山市,今宿３丁目２番１５号,,25,207,5240046,,,,,,,2021-12-27,1,,,,,ピーイーテックラボラトリー,0
842,3180001149238,新規,0,2021-12-27,2021-12-27,株式会社Ｍ’ｓＦａｃｔｏｒｙ,,株式会社,愛知県,名古屋市守山区,大牧町７番１８号－１,,23,113,4630085,,,,,,,2021-12-27,1,,,,,エムズファクトリー,0
843,3180001149254,新規,0,2021-12-27,2021-12-27,東洋良品株式会社,,株式会社,愛知県,名古屋市東区,東大曽根町２９番１１号共栄ビル西棟２０５号室,,23,102,4610022,,,,,,,2021-12-27,1,,,,,トウヨウリョウヒン,0
844,3180001149270,新規,0,2021-12-27,2021-12-27,株式会社ＦＵＴＵＲＯ　ＪＡＰＡＮ,,株式会社,愛知県,名古屋市東区,泉１丁目２０番１２号,,23,102,4610001,,,,,,,2021-12-27,1,,,,,フトロジャパン,0
845,3180001149279,新規,0,2021-12-27,2021-12-27,株式会社スギモト電気工事,,株式会社,愛知県,津島市,莪原町字宮東１０,,23,208,4960011,,,,,,,2021-12-27,1,,,,,スギモトデンキコウジ,0
846,3180001149287,新規,0,2021-12-27,2021-12-27,株式会社フォーライフ,,株式会社,愛知県,名古屋市天白区,中平４丁目１７２４番地,,23,116,4680014,,,,,,,2021-12-27,1,,,,,フォーライフ,0
853,3180005019577,新規,0,2021-12-27,2021-12-27,ＳＲＧ協同組合,,その他の設立登記法人,愛知県,名古屋市千種区,自由ケ丘１丁目１５番１６号,,23,101,4640044,,,,,,,2021-12-27,1,,,,,エスアールジー,0
856,3180301035757,新規,0,2021-12-27,2021-12-27,株式会社ｍｏｎｏａｎｄ,,株式会社,愛知県,額田郡幸田町,大字深溝字一ノ瀬６０番地,,23,501,4440124,,,,,,,2021-12-27,1,,,,,モノアンド,0
857,3180301035765,新規,0,2021-12-27,2021-12-27,株式会社フューチャーマップ,,株式会社,愛知県,蒲郡市,大塚町岸脇２８番地５,,23,214,4430013,,,,,,,2021-12-27,1,,,,,フューチャーマップ,0
859,3180303005205,新規,0,2021-12-27,2021-12-27,合同会社エゼドジャパン,,合同会社,愛知県,岡崎市,中町５丁目６‐３サンアメニティ中町フィエルテ３０２号,,23,202,4440015,,,,,,,2021-12-27,1,,,,,エゼドジャパン,0
861,3210003001434,新規,0,2021-12-27,2021-12-27,合同会社ノカテ,,合同会社,福井県,福井市,居倉町第３８号２番地,,18,201,9103555,,,,,,,2021-12-27,1,,,,,ノカテ,0
863,3210005010004,新規,0,2021-12-27,2021-12-27,一般社団法人三国港市場,,その他の設立登記法人,福井県,坂井市,三国町宿１丁目１７番３３号,,18,210,9130056,,,,,,,2021-12-27,1,,,,,ミクニミナトイチバ,0
865,3230001019154,新規,0,2021-12-27,2021-12-27,株式会社Ｕ３,,株式会社,富山県,魚津市,駅前新町１１番５号,,16,204,9370051,,,,,,,2021-12-27,1,,,,,ユースリー,0
866,3240001059100,新規,0,2021-12-27,2021-12-27,株式会社リーチェット,,株式会社,広島県,広島市中区,大手町４丁目６番３１号,,34,101,7300051,,,,,,,2021-12-27,1,,,,,リーチェット,0
877,3290001095826,新規,0,2021-12-27,2021-12-27,Ａ‐ＣＯ株式会社,,株式会社,福岡県,福岡市中央区,赤坂１丁目２番１号シャンボール赤坂１００７号,,40,133,8100042,,,,,,,2021-12-27,1,,,,,エーシーオー,0
885,3290801028118,新規,0,2021-12-27,2021-12-27,英彦山神宮総合開発株式会社,,株式会社,福岡県,田川郡添田町,大字英彦山１番地,,40,602,8240721,,,,,,,2021-12-27,1,,,,,ヒコサンジングウソウゴウカイハツ,0
886,3310003004237,新規,0,2021-12-27,2021-12-27,合同会社Ｔａｓｔｅ　ｏｆ対馬,,合同会社,長崎県,対馬市,厳原町大手橋１０７４,,42,209,8170024,,,,,,,2021-12-27,1,,,,,テイストオブツシマ,0
889,3340005009388,新規,0,2021-12-27,2021-12-27,一般社団法人ＳＤＧｓ　ＫＡＧＯＳＨＩＭＡ,,その他の設立登記法人,鹿児島県,鹿児島市,東谷山４丁目５番１１号,,46,201,8910113,,,,,,,2021-12-27,1,,,,,エスディージーズカゴシマ,0
894,3360003011682,新規,0,2021-12-27,2021-12-27,合同会社翔栄工業,,合同会社,沖縄県,島尻郡八重瀬町,字具志頭１１７１番地,,47,362,9010512,,,,,,,2021-12-27,1,,,,,ショウエイコウギョウ,0
903,3380001032423,新規,0,2021-12-27,2021-12-27,株式会社Ｐａｓｏ　ａ　Ｐａｓｏ,,株式会社,福島県,相馬市,西山字水沢１１２番地,,07,209,9760041,,,,,,,2021-12-27,1,,,,,パソアパソ,0
918,3430001085647,新規,0,2021-12-27,2021-12-27,マリアヴァレリア株式会社,,株式会社,北海道,札幌市北区,北三十五条西１０丁目３番１０号ＥＣＯＵＲＴＮ３５－３０５,,01,102,0010035,,,,,,,2021-12-27,1,,,,,マリアヴァレリア,0
926,3500001023896,新規,0,2021-12-27,2021-12-27,株式会社カラーズエンジニアリング,,株式会社,愛媛県,松山市,堀江町甲９４０番地１２,,38,201,7992651,,,,,,,2021-12-27,1,,,,,カラーズエンジニアリング,0
930,3700150034988,新規,0,2021-12-27,2015-10-09,帯広・南十勝通年雇用促進協議会,,その他,北海道,帯広市,西五条南７丁目１帯広市役所内,,01,207,0800015,,,,,,,2015-10-09,1,,,,,オビヒロミナミトカチツウネンコヨウソクシンキヨウギカイ,0
931,3700150068895,新規,0,2021-12-27,2015-12-22,京都紫明ライオンズクラブ,,その他,京都府,京都市中京区,油小路通御池下る式阿弥町１３９番地ジョイ御池２０３号室,,26,104,6048261,,,,,,,2015-12-22,1,,,,,キヨウトシメイライオンズクラブ,0
946,4010001223479,新規,0,2021-12-27,2021-12-27,株式会社Ｓｔｕｄｉｏ　ＳＣＡＰＥ,,株式会社,東京都,千代田区,鍛冶町１丁目１０－４丸石ビルディング６Ｆ,,13,101,1010044,,,,,,,2021-12-27,1,,,,,スタジオスケイプ,0
949,4010003036631,新規,0,2021-12-27,2021-12-27,合同会社ＦＦＳ,,合同会社,東京都,中央区,銀座８丁目５番６号,,13,102,1040061,,,,,,,2021-12-27,1,,,,,エフエフエス,0
950,4010101015000,新規,0,2021-12-27,2021-12-27,株式会社Ａｎｙｔｈｉｎｇ,,株式会社,東京都,八王子市,横川町７０１番地１４,,13,201,1930823,,,,,,,2021-12-27,1,,,,,エニシング,0
955,4010401164505,新規,0,2021-12-27,2021-12-27,株式会社ＤＯＬＬ,,株式会社,東京都,港区,白金台５丁目５番２号マンション白金苑１０４号,,13,103,1080071,,,,,,,2021-12-27,1,,,,,ドール,0
956,4010401164637,新規,0,2021-12-27,2021-12-27,株式会社河村建夫事務所,,株式会社,東京都,港区,赤坂２丁目６番１５号パークハビオ赤坂タワー２１０４,,13,103,1070052,,,,,,,2021-12-27,1,,,,,カワムラタケオジムショ,0
957,4010401164645,新規,0,2021-12-27,2021-12-27,メジャーエキスパート株式会社,,株式会社,東京都,港区,芝３丁目２２番７号,,13,103,1050014,,,,,,,2021-12-27,1,,,,,メジャーエキスパート,0
958,4010401164703,新規,0,2021-12-27,2021-12-27,ホライズン・エナジー株式会社,,株式会社,東京都,港区,赤坂１丁目１２番３２号アーク森ビル１２階,,13,103,1070052,,,,,,,2021-12-27,1,,,,,ホライズンエナジー,0
961,4010403026793,新規,0,2021-12-27,2021-12-27,合同会社高輪建物,,合同会社,東京都,港区,高輪３丁目１４番２７号,,13,103,1080074,,,,,,,2021-12-27,1,,,,,タカナワタテモノ,0
964,4010501048260,新規,0,2021-12-27,2021-12-27,ＴＥＴＵＹＩ株式会社,,株式会社,東京都,台東区,北上野２丁目２５番９号－４０５号室,,13,106,1100014,,,,,,,2021-12-27,1,,,,,テツイィ,0
971,4010801032617,新規,0,2021-12-27,2021-12-27,株式会社とーと,,株式会社,東京都,大田区,羽田５丁目１３－１ドミール羽田３０１,,13,111,1440043,,,,,,,2021-12-27,1,,,,,トート,0
974,4010901050064,新規,0,2021-12-27,2021-12-27,株式会社ケイデザイン,,株式会社,東京都,世田谷区,鎌田３丁目６番１４号,,13,112,1570077,,,,,,,2021-12-27,1,,,,,ケイデザイン,0
978,4011001144723,新規,0,2021-12-27,2021-12-27,株式会社ＭＡＲＢＬＥ,,株式会社,東京都,目黒区,上目黒２丁目４５番１４号高架下７９,,13,110,1530051,,,,,,,2021-12-27,1,,,,,マーブル,0
980,4011101097326,新規,0,2021-12-27,2021-12-27,ＰＩＩＴ株式会社,,株式会社,東京都,新宿区,納戸町３７番地２,,13,104,1620837,,,,,,,2021-12-27,1,,,,,ピット,0
981,4011101097359,新規,0,2021-12-27,2021-12-27,株式会社ぼっちり,,株式会社,東京都,新宿区,神楽坂６丁目８番地１２滝澤店舗１Ｆ,,13,104,1620825,,,,,,,2021-12-27,1,,,,,ボッチリ,0
982,4011101097367,新規,0,2021-12-27,2021-12-27,株式会社オリーブの木,,株式会社,東京都,新宿区,西落合４丁目２５番１６－５０６号,,13,104,1610031,,,,,,,2021-12-27,1,,,,,オリーブノキ,0
991,4011501027592,新規,0,2021-12-27,2021-12-27,株式会社Ｃｌｅａｒｉ,,株式会社,東京都,北区,赤羽北３丁目２１番１５号,,13,117,1150052,,,,,,,2021-12-27,1,,,,,,0
995,4011601025637,新規,0,2021-12-27,2021-12-27,株式会社Ｔｒｅｅ　Ｃｏｎｆｉｄｅｎｃｅ,,株式会社,東京都,練馬区,豊玉北６丁目１番８号,,13,120,1760012,,,,,,,2021-12-27,1,,,,,ツリーコンフィデンス,0
996,4011705001708,新規,0,2021-12-27,2021-12-27,社会保険労務士法人レイバーセクション,,その他の設立登記法人,東京都,江戸川区,中葛西３丁目３７番３号,,13,123,1340083,,,,,,,2021-12-27,1,,,,,レイバーセクション,0
999,4011801040114,新規,0,2021-12-27,2021-12-27,株式会社ＨｉＲｏ,,株式会社,東京都,葛飾区,東水元３丁目９番１６号,,13,122,1250033,,,,,,,2021-12-27,1,,,,,ヒロ,0
1004,4012301012818,新規,0,2021-12-27,2021-12-27,株式会社せとぎわ,,株式会社,東京都,町田市,原町田１丁目２－９小林ビル３０２,,13,209,1940013,,,,,,,2021-12-27,1,,,,,セトギワ,0
1005,4012401038688,新規,0,2021-12-27,2021-12-27,株式会社ミッドモースト,,株式会社,東京都,三鷹市,下連雀４丁目１６番４７号,,13,204,1810013,,,,,,,2021-12-27,1,,,,,ミッドモースト,0
1006,4012801009108,新規,0,2021-12-27,2021-12-27,株式会社日本電話広告,,株式会社,東京都,昭島市,美堀町４丁目１１番２号小川荘２０２号,,13,207,1960001,,,,,,,2021-12-27,1,,,,,ニホンデンワコウコク,0
1018,4020001144518,新規,0,2021-12-27,2021-12-27,株式会社ノースウォーク,,株式会社,神奈川県,横浜市南区,大岡４丁目１番１６号エスポワール大岡６０１,,14,105,2320061,,,,,,,2021-12-27,1,,,,,ノースウォーク,0
1032,4030001146034,新規,0,2021-12-27,2021-12-27,株式会社リベラル,,株式会社,埼玉県,さいたま市浦和区,常盤６丁目１７番９号,,11,107,3300061,,,,,,,2021-12-27,1,,,,,リベラル,0
1033,4030001146059,新規,0,2021-12-27,2021-12-27,株式会社アルファワン,,株式会社,埼玉県,川口市,戸塚東３丁目１３番１９号ブライトガーデン２０６号,,11,203,3330802,,,,,,,2021-12-27,1,,,,,アルファワン,0
1042,4040001121507,新規,0,2021-12-27,2021-12-27,株式会社ＡＩ－ＬＩＮＥ,,株式会社,千葉県,野田市,清水４５４番地の４Ｂ－２０１,,12,208,2780043,,,,,,,2021-12-27,1,,,,,アイライン,0
1045,4040005021471,新規,0,2021-12-27,2021-12-27,特定非営利活動法人Ｒｅ－Ｌｉｎｋｌｅ,,その他の設立登記法人,千葉県,市川市,中山３丁目２番１５号,,12,203,2720813,,,,,,,2021-12-27,1,,,,,リリンクル,0
1052,4070001038772,新規,0,2021-12-27,2021-12-27,ヤマナカ設備サービス株式会社,,株式会社,群馬県,高崎市,棟高町１１２番地２,,10,202,3703521,,,,,,,2021-12-27,1,,,,,ヤマナカセツビサービス,0
1057,4070003004343,新規,0,2021-12-27,2021-12-27,Ｄ．Ｈ　Ｉｎｔｅｒｎａｔｉｏｎａｌ合同会社,,合同会社,群馬県,太田市,山之神町４６番地４,,10,205,3792302,,,,,,,2021-12-27,1,,,,,ディーエイチインターナショナル,0
1069,4110001036292,新規,0,2021-12-27,2021-12-27,株式会社ＳＫ　ＤＥＳＩＧＮ,,株式会社,新潟県,長岡市,滝谷町２０８９番地２,,15,202,9401138,,,,,,,2021-12-27,1,,,,,エスケーデザイン,0
1089,4120001242732,新規,0,2021-12-27,2021-12-27,株式会社マザーハウス,,株式会社,大阪府,大阪市東成区,大今里南６丁目１６番９号,,27,115,5370013,,,,,,,2021-12-27,1,,,,,マザーハウス,0
1090,4120001242740,新規,0,2021-12-27,2021-12-27,株式会社リードエックス,,株式会社,大阪府,大阪市北区,豊崎３丁目１５番５号ＴＫビル２Ｆ,,27,127,5310072,,,,,,,2021-12-27,1,,,,,リードエックス,0
1091,4120001242773,新規,0,2021-12-27,2021-12-27,株式会社Ｆ　Ｐｒｏｄｕｃｔｉｏｎ　Ｊａｐａｎ,,株式会社,大阪府,大阪市西成区,玉出中２丁目９番６号２０２号室,,27,122,5570044,,,,,,,2021-12-27,1,,,,,エフプロダクションジャパン,0
1092,4120101064853,新規,0,2021-12-27,2021-12-27,美滝株式会社,,株式会社,大阪府,河内長野市,加賀田２１１,,27,216,5860071,,,,,,,2021-12-27,1,,,,,ミタキ,0
1095,4120903003959,新規,0,2021-12-27,2021-12-27,合同会社Ａｉｄｅ　ｊｏｌｉｅ,,合同会社,大阪府,高槻市,川添２丁目６番１５号,,27,207,5690824,,,,,,,2021-12-27,1,,,,,エデジョリィ,0
1100,4130001070777,新規,0,2021-12-27,2021-12-27,ＮＥＸＴ　ＣＵＥ株式会社,,株式会社,京都府,八幡市,欽明台東３番地１Ｅ－３０７号,,26,210,6148296,,,,,,,2021-12-27,1,,,,,ネクストキュー,0
1101,4130001070785,新規,0,2021-12-27,2021-12-27,株式会社フォトクロス,,株式会社,京都府,京都市左京区,岩倉南大鷺町１７－２０３,,26,103,6060003,,,,,,,2021-12-27,1,,,,,フォトクロス,0
1108,4140001124318,新規,0,2021-12-27,2021-12-27,株式会社ＰＩＴ　ＩＮ,,株式会社,兵庫県,明石市,大久保町駅前１丁目１１－８水田ビル２Ｆ,,28,203,6740058,,,,,,,2021-12-27,1,,,,,ピットイン,0
1111,4140003017131,新規,0,2021-12-27,2021-12-27,ＡＰＰＬＥＣＯＮＳＵＬＴＩＮＧ合同会社,,合同会社,兵庫県,姫路市,南町６３番地ミツワビル３Ｆ,,28,201,6700912,,,,,,,2021-12-27,1,,,,,,0
1121,4180001149204,新規,0,2021-12-27,2021-12-27,中京秘色株式会社,,株式会社,愛知県,名古屋市熱田区,千代田町１３－４三木ビル５階,,23,109,4560073,,,,,,,2021-12-27,1,,,,,チュウキョウヒショク,0
1122,4180001149253,新規,0,2021-12-27,2021-12-27,株式会社ワンダイニングイノベーション,,株式会社,愛知県,名古屋市名東区,大針２丁目９７番地（ＧｒｅｅｎＥａｒｔｈ大針１０２号）,,23,115,4650064,,,,,,,2021-12-27,1,,,,,ワンダイニングイノベーション,0
1123,4180001149278,新規,0,2021-12-27,2021-12-27,ＭＡＨＡＬＯ株式会社,,株式会社,愛知県,半田市,土井山町１丁目２０２番地の１,,23,205,4750914,,,,,,,2021-12-27,1,,,,,マハロ,0
1124,4180001149294,新規,0,2021-12-27,2021-12-27,株式会社ヴェルデ,,株式会社,愛知県,東海市,加木屋町２丁目２２４番地２,,23,222,4770032,,,,,,,2021-12-27,1,,,,,ヴェルデ,0
1125,4180001149303,新規,0,2021-12-27,2021-12-27,株式会社キャッスル,,株式会社,愛知県,名古屋市中村区,日比津町３丁目１０番２号,,23,105,4530061,,,,,,,2021-12-27,1,,,,,キャッスル,0
1131,4180005019576,新規,0,2021-12-27,2021-12-27,あんしん労働保険協同組合,,その他の設立登記法人,愛知県,名古屋市中区,栄２丁目９番５号,,23,106,4600008,,,,,,,2021-12-27,1,,,,,アンシンロウドウホケン,0
1133,4190001028976,新規,0,2021-12-27,2021-12-27,株式会社ＮａｎｄＮ,,株式会社,三重県,松阪市,立野町５１１番地３,,24,204,5150054,,,,,,,2021-12-27,1,,,,,エヌアンドエヌ,0
1136,4200005013295,新規,0,2021-12-27,2021-12-27,一般社団法人きのねこ,,その他の設立登記法人,岐阜県,中津川市,落合８９番地の１,,21,206,5080006,,,,,,,2021-12-27,1,,,,,キノネコ,0
1142,4230001019153,新規,0,2021-12-27,2021-12-27,株式会社Ｔ３,,株式会社,富山県,高岡市,末広町１０１４番地,,16,202,9330023,,,,,,,2021-12-27,1,,,,,ティースリー,0
1143,4230003001778,新規,0,2021-12-27,2021-12-27,ＺＩＮＥＮ合同会社,,合同会社,富山県,射水市,本町１丁目１５番２号,,16,211,9340011,,,,,,,2021-12-27,1,,,,,ジネン,0
1145,4240001059090,新規,0,2021-12-27,2021-12-27,株式会社Ｊ,,株式会社,広島県,広島市中区,大手町５丁目１８番５－１００１号,,34,101,7300051,,,,,,,2021-12-27,1,,,,,ジェイ,0
1156,4290001095817,新規,0,2021-12-27,2021-12-27,株式会社ルーシェ,,株式会社,福岡県,福岡市博多区,千代２丁目２２番８号一豊ビル２０２,,40,132,8120044,,,,,,,2021-12-27,1,,,,,ルーシェ,0
1157,4290001095825,新規,0,2021-12-27,2021-12-27,株式会社ステイボー,,株式会社,福岡県,福岡市中央区,荒戸３丁目５番６５号,,40,133,8100062,,,,,,,2021-12-27,1,,,,,ステイボー,0
1165,4310005008573,新規,0,2021-12-27,2021-12-27,雲仙市地域づくり事業協同組合,,その他の設立登記法人,長崎県,雲仙市,千々石町戊４１４番地１,,42,213,8540405,,,,,,,2021-12-27,1,,,,,ウンゼンシチイキヅクリ,0
1169,4340001024357,新規,0,2021-12-27,2021-12-27,ミレニアム株式会社,,株式会社,鹿児島県,垂水市,田神３４９８番地２,,46,214,8912104,,,,,,,2021-12-27,1,,,,,ミレニアム,0
1170,4340005009387,新規,0,2021-12-27,2021-12-27,特定非営利活動法人徳之島元気創造プロジェクト,,その他の設立登記法人,鹿児島県,大島郡伊仙町,大字伊仙４４３番地２,,46,532,8918201,,,,,,,2021-12-27,1,,,,,トクノシマゲンキソウゾウプロジェクト,0
1177,4370003005526,新規,0,2021-12-27,2021-12-27,アグリエネルギー合同会社,,合同会社,宮城県,登米市,登米町寺池上町９７番地,,04,212,9870702,,,,,,,2021-12-27,1,,,,,アグリエネルギー,0
1181,4420001017682,新規,0,2021-12-27,2021-12-27,株式会社ビッツ,,株式会社,青森県,十和田市,西四番町８番４１号,,02,206,0340084,,,,,,,2021-12-27,1,,,,,ビッツ,0
1185,4430001085679,新規,0,2021-12-27,2021-12-27,株式会社ＮＯＷＴ,,株式会社,北海道,札幌市東区,北三十四条東４丁目１－２２,,01,103,0070834,,,,,,,2021-12-27,1,,,,,ノウト,0
1190,4430003013489,新規,0,2021-12-27,2021-12-27,合同会社Ｒｉｃｅ　ｅａｒｓ,,合同会社,北海道,小樽市,最上１丁目１３番３号,,01,203,0470023,,,,,,,2021-12-27,1,,,,,ライスイヤーズ,0
1197,4490003001612,新規,0,2021-12-27,2021-12-27,合同会社桜コーポレーション,,合同会社,高知県,高知市,桜井町２丁目７番３２－６０７号,,39,201,7800821,,,,,,,2021-12-27,1,,,,,サクラコーポレーション,0
1202,4700150106423,新規,0,2021-12-27,2021-12-27,Ｆｌｅｅｔ　Ｍａｎａｇｅｍｅｎｔ　Ｌｉｍｉｔｅｄ,,外国会社等,東京都,世田谷区,松原２丁目４１番１１号明治安田生命明大前ビル４階,,13,112,1560043,中華人民共和国香港特別行政区ウォン・チャック・ハン・ロード８サウス・アイランド・プレイス２７Ｆ,,,,,,2021-12-27,1,,,,,フリートマネジメントリミテツド,0
1203,4700150106464,新規,0,2021-12-27,2021-12-27,北谷土地改良区,,その他,三重県,松阪市,小片野町１５４５－２,,24,204,5151204,,,,,,,2021-12-27,1,,,,,キタダニトチカイリヨウク,0
1213,5010001223494,新規,0,2021-12-27,2021-12-27,株式会社Ｎａｖｄ,,株式会社,東京都,中央区,東日本橋２丁目２４番９号,,13,102,1030004,,,,,,,2021-12-27,1,,,,,ナブド,0
1214,5010001223503,新規,0,2021-12-27,2021-12-27,株式会社松浦不動産,,株式会社,東京都,文京区,西片２丁目１８番２４号,,13,105,1130024,,,,,,,2021-12-27,1,,,,,マツウラフドウサン,0
1217,5010003036630,新規,0,2021-12-27,2021-12-27,合同会社Ｕｎｉｔｅ,,合同会社,東京都,千代田区,二番町１－２番町ハイム１１２,,13,101,1020084,,,,,,,2021-12-27,1,,,,,ユナイト,0
1231,5010403026685,新規,0,2021-12-27,2021-12-27,合同会社Ｑｏｏ,,合同会社,東京都,港区,浜松町２丁目２番１５号浜松町ダイヤビル２Ｆ,,13,103,1050013,,,,,,,2021-12-27,1,,,,,クー,0
1232,5010403026751,新規,0,2021-12-27,2021-12-27,ＴＩＮ合同会社,,合同会社,東京都,港区,六本木６丁目１０番１号六本木ヒルズ森タワー３７階,,13,103,1060032,,,,,,,2021-12-27,1,,,,,ティーアイエヌ,0
1233,5010403026784,新規,0,2021-12-27,2021-12-27,合同会社ＮＥＭＯＰＨＩＬＡ,,合同会社,東京都,港区,芝浦２丁目８番９－２０４号,,13,103,1080023,,,,,,,2021-12-27,1,,,,,ネモフィラ,0
1234,5010403026792,新規,0,2021-12-27,2021-12-27,合同会社Ｃｏｍｒａｄｅ,,合同会社,東京都,港区,虎ノ門５丁目１番４号,,13,103,1050001,,,,,,,2021-12-27,1,,,,,カムラッド,0
1239,5010501048268,新規,0,2021-12-27,2021-12-27,株式会社Ｙｏｕｓｐｒｉｎｇ,,株式会社,東京都,台東区,上野５丁目１６番９号Ｂ１,,13,106,1100005,,,,,,,2021-12-27,1,,,,,ユースプリング,0
1243,5010701041972,新規,0,2021-12-27,2021-12-27,株式会社ＧＲＯＷＩＮＧ　ＣＯＭＰＡＮＹ,,株式会社,東京都,品川区,西大井４丁目３番５号,,13,109,1400015,,,,,,,2021-12-27,1,,,,,グローイングカンパニー,0
1246,5010801032616,新規,0,2021-12-27,2021-12-27,株式会社両角新聞店,,株式会社,東京都,大田区,久が原３丁目３９番２３号,,13,111,1460085,,,,,,,2021-12-27,1,,,,,モロズミシンブンテン,0
1247,5010803004002,新規,0,2021-12-27,2021-12-27,合同会社下町倶楽部,,合同会社,東京都,大田区,西六郷２丁目１６－５,,13,111,1440056,,,,,,,2021-12-27,1,,,,,シタマチクラブ,0
1252,5011001144722,新規,0,2021-12-27,2021-12-27,Ｓｅｅｂｅｌ株式会社,,株式会社,東京都,渋谷区,神宮前６丁目２３番４号桑野ビル２階,,13,113,1500001,,,,,,,2021-12-27,1,,,,,シーベル,0
1253,5011001144805,新規,0,2021-12-27,2021-12-27,株式会社１４１,,株式会社,東京都,目黒区,自由が丘２丁目１４番１号とり正ビル３Ｆ,,13,110,1520035,,,,,,,2021-12-27,1,,,,,イチヨンイチ,0
1260,5011003013925,新規,0,2021-12-27,2021-12-27,合同会社トリツクシマ,,合同会社,東京都,渋谷区,神宮前１丁目１０番３４号,,13,113,1500001,,,,,,,2021-12-27,1,,,,,トリツクシマ,0
1262,5011101097283,新規,0,2021-12-27,2021-12-27,株式会社ｎｅｕｔｒａｌ,,株式会社,東京都,新宿区,高田馬場４丁目９－１０鈴木ビル７階,,13,104,1690075,,,,,,,2021-12-27,1,,,,,ニュートラル,0
1263,5011101097325,新規,0,2021-12-27,2021-12-27,株式会社ＧＷＴ,,株式会社,東京都,新宿区,袋町２５番地,,13,104,1620828,,,,,,,2021-12-27,1,,,,,ジーダブリューティー,0
1264,5011101097341,新規,0,2021-12-27,2021-12-27,株式会社大家Ｄｅ介護村,,株式会社,東京都,新宿区,西新宿３丁目２番９号ＴＨＥＨＵＢ新宿ワシントン２３０号室,,13,104,1600023,,,,,,,2021-12-27,1,,,,,オオヤノカイゴムラ,0
1265,5011101097366,新規,0,2021-12-27,2021-12-27,株式会社Ｒａｕｎｚ,,株式会社,東京都,新宿区,西新宿３丁目３番１３号,,13,104,1600023,,,,,,,2021-12-27,1,,,,,ラウンズ,0
1266,5011101097374,新規,0,2021-12-27,2021-12-27,株式会社ｎｏｎａｄｉｓ．,,株式会社,東京都,新宿区,西新宿３丁目３番１３号西新宿水間ビル６階,,13,104,1600023,,,,,,,2021-12-27,1,,,,,ノナディス,0
1275,5011703003036,新規,0,2021-12-27,2021-12-27,オフィス岩間合同会社,,合同会社,東京都,江戸川区,東瑞江２丁目１１番１５－５０６号,,13,123,1320014,,,,,,,2021-12-27,1,,,,,オフィスイワマ,0
1280,5012403005173,新規,0,2021-12-27,2021-12-27,合同会社ダウンズ,,合同会社,東京都,武蔵野市,吉祥寺東町４丁目６番１３号オークヒルズ１階,,13,203,1800002,,,,,,,2021-12-27,1,,,,,ダウンズ,0
1291,5020001144483,新規,0,2021-12-27,2021-12-27,株式会社水野商事,,株式会社,神奈川県,川崎市川崎区,京町１丁目１６番１１号,,14,131,2100848,,,,,,,2021-12-27,1,,,,,ミズノショウジ,0
1292,5020001144500,新規,0,2021-12-27,2021-12-27,桓銘垣株式会社,,株式会社,神奈川県,横浜市中区,山元町２丁目７２－５,,14,104,2310851,,,,,,,2021-12-27,1,,,,,カンメイエン,0
1293,5020001144509,新規,0,2021-12-27,2021-12-27,株式会社Ｓａｎｔａｒｅｓ,,株式会社,神奈川県,横浜市戸塚区,平戸町１１５４番地１６,,14,110,2440803,,,,,,,2021-12-27,1,,,,,サンタレス,0
1297,5020003021029,新規,0,2021-12-27,2021-12-27,ＳａｍＳｔｙｌｅ合同会社,,合同会社,神奈川県,川崎市宮前区,土橋１丁目２番地１４クリエール宮前平３０８,,14,136,2160005,,,,,,,2021-12-27,1,,,,,サムスタイル,0
1298,5020005015326,新規,0,2021-12-27,2021-12-27,医療法人ＷＤＣＴ,,その他の設立登記法人,神奈川県,横浜市磯子区,新杉田町８番地８－３階,,14,107,2350032,,,,,,,2021-12-27,1,,,,,ダブルディーシーティー,0
1300,5021001074836,新規,0,2021-12-27,2021-12-27,株式会社城州,,株式会社,神奈川県,相模原市南区,南台５丁目１０番６－１４号,,14,153,2520314,,,,,,,2021-12-27,1,,,,,ジョウシュウ,0
1301,5021003011226,新規,0,2021-12-27,2021-12-27,合同会社カメラモールＫＡＩＳＥＩ,,合同会社,神奈川県,足柄上郡開成町,牛島１６５番地２,,14,366,2580022,,,,,,,2021-12-27,1,,,,,カメラモールカイセイ,0
1304,5021005012404,新規,0,2021-12-27,2021-12-27,一般社団法人ぼあいコンサル,,その他の設立登記法人,神奈川県,大和市,深見西２丁目１番１号,,14,213,2420018,,,,,,,2021-12-27,1,,,,,ボアイコンサル,0
1309,5030001146066,新規,0,2021-12-27,2021-12-27,株式会社ＮＩＳＨＩＸ,,株式会社,埼玉県,吉川市,大字富新田２９番地３－１Ｆ,,11,243,3420037,,,,,,,2021-12-27,1,,,,,ニシックス,0
1311,5030005020671,新規,0,2021-12-27,2021-12-27,特定非営利活動法人住居生活支援センター,,その他の設立登記法人,埼玉県,所沢市,大字荒幡１０４番地の１,,11,208,3591133,,,,,,,2021-12-27,1,,,,,ジュウキョセイカツシエンセンター,0
1314,5040001121506,新規,0,2021-12-27,2021-12-27,利輝株式会社,,株式会社,千葉県,千葉市稲毛区,長沼町２９３番地４６,,12,103,2630005,,,,,,,2021-12-27,1,,,,,リテル,0
1315,5040001121514,新規,0,2021-12-27,2021-12-27,ＭＯＣＣＩ株式会社,,株式会社,千葉県,君津市,岩出３５９番地１,,12,225,2920442,,,,,,,2021-12-27,1,,,,,エムオーシーシーアイ,0
1321,5060001034417,新規,0,2021-12-27,2021-12-27,株式会社テクノサービス,,株式会社,栃木県,下都賀郡壬生町,至宝２丁目１０番１０号,,09,361,3210217,,,,,,,2021-12-27,1,,,,,テクノサービス,0
1322,5060001034425,新規,0,2021-12-27,2021-12-27,株式会社ＩＮＦＩＮＩＴＥ　ＰＯＳＳＩＢＩＬＩＴＹ,,株式会社,栃木県,日光市,下鉢石町９５２－３,,09,206,3211403,,,,,,,2021-12-27,1,,,,,インフィニットポッシビリティ,0
1329,5070001038763,新規,0,2021-12-27,2021-12-27,株式会社中山組,,株式会社,群馬県,伊勢崎市,波志江町４０６３番地２,,10,204,3720001,,,,,,,2021-12-27,1,,,,,ナカヤマグミ,0
1330,5070001038771,新規,0,2021-12-27,2021-12-27,株式会社勇賢,,株式会社,群馬県,太田市,高瀬町１１２番地２,,10,205,3730072,,,,,,,2021-12-27,1,,,,,ユウケン,0
1334,5080403004437,新規,0,2021-12-27,2021-12-27,トムス合同会社,,合同会社,静岡県,浜松市中区,佐藤３丁目１２番６号,,22,131,4300807,,,,,,,2021-12-27,1,,,,,トムス,0
1335,5090001017336,新規,0,2021-12-27,2021-12-27,株式会社下吉田中野新聞販売,,株式会社,山梨県,富士吉田市,新町２丁目７番１１号,,19,202,4030019,,,,,,,2021-12-27,1,,,,,シモヨシダナカノシンブンハンバイ,0
1337,5100005012802,新規,0,2021-12-27,2021-12-27,一般社団法人ワンアンドオンリー,,その他の設立登記法人,長野県,長野市,大字高田７１３番地３,,20,201,3810034,,,,,,,2021-12-27,1,,,,,ワンアンドオンリー,0
1340,5110001036291,新規,0,2021-12-27,2021-12-27,株式会社インデコ・ジャパン,,株式会社,新潟県,新潟市南区,根岸１５１４番地１,,15,106,9501234,,,,,,,2021-12-27,1,,,,,インデコジャパン,0
1341,5110001036300,新規,0,2021-12-27,2021-12-27,株式会社ケンメンテ,,株式会社,新潟県,新潟市江南区,横越上町１丁目４番２０号,,15,104,9500210,,,,,,,2021-12-27,1,,,,,ケンメンテ,0
1357,5120001242723,新規,0,2021-12-27,2021-12-27,株式会社アイモバイル,,株式会社,大阪府,大阪市北区,梅田２丁目４番９号ブリーゼタワー１階,,27,127,5300001,,,,,,,2021-12-27,1,,,,,アイモバイル,0
1358,5120001242780,新規,0,2021-12-27,2021-12-27,株式会社ＫＷＳ,,株式会社,大阪府,大阪市西区,靱本町１丁目７－１３アレグリアレジデンス靭パーク８０１,,27,106,5500004,,,,,,,2021-12-27,1,,,,,ケーダブルエス,0
1359,5120003020838,新規,0,2021-12-27,2021-12-27,合資会社ＴＮＫ,,合資会社,大阪府,大阪市淀川区,宮原１丁目２番１０号,,27,123,5320003,,,,,,,2021-12-27,1,,,,,ティエヌケイ,0
1362,5120101064828,新規,0,2021-12-27,2021-12-27,華瀛国際タクシー株式会社,,株式会社,大阪府,堺市西区,草部２０６番１０,,27,144,5938312,,,,,,,2021-12-27,1,,,,,カエイコクサイタクシー,0
1363,5120103004435,新規,0,2021-12-27,2021-12-27,合同会社ガルム,,合同会社,大阪府,阪南市,自然田６６６番地の１,,27,232,5990212,,,,,,,2021-12-27,1,,,,,ガルム,0
1366,5120901045390,新規,0,2021-12-27,2021-12-27,株式会社これこれフーズ,,株式会社,大阪府,吹田市,江坂町１丁目２０番３０号,,27,205,5640063,,,,,,,2021-12-27,1,,,,,コレコレフーズ,0
1367,5120901045399,新規,0,2021-12-27,2021-12-27,マツムランド株式会社,,株式会社,大阪府,豊中市,刀根山６丁目９番１３号,,27,203,5600045,,,,,,,2021-12-27,1,,,,,マツムランド,0
1368,5120903003958,新規,0,2021-12-27,2021-12-27,合同会社ＷｅｓｔＳｉｄｅＡｃｃｏｕｎｔｉｎｇＦｉｒｍ,,合同会社,大阪府,箕面市,半町４丁目１６番３号,,27,220,5620044,,,,,,,2021-12-27,1,,,,,ウエストサイドアカウンティングファーム,0
1377,5130001070776,新規,0,2021-12-27,2021-12-27,株式会社Ｎ企画,,株式会社,京都府,久世郡久御山町,市田珠城２１－３,,26,322,6130022,,,,,,,2021-12-27,1,,,,,エヌキカク,0
1378,5130003007660,新規,0,2021-12-27,2021-12-27,西村電業合同会社,,合同会社,京都府,福知山市,三和町大身１１０１番地の１,,26,201,6201421,,,,,,,2021-12-27,1,,,,,ニシムラデンギョウ,0
1379,5130005016346,新規,0,2021-12-27,2021-12-27,一般社団法人近畿厚生協会,,その他の設立登記法人,京都府,京都市中京区,烏丸通六角下る七観音町６２３番地第１１長谷ビル,,26,104,6048162,,,,,,,2021-12-27,1,,,,,キンキコウセイキョウカイ,0
1385,5140001124309,新規,0,2021-12-27,2021-12-27,株式会社大伸,,株式会社,兵庫県,西宮市,和上町５番７号ホワイエ西宮６階,,28,204,6620971,,,,,,,2021-12-27,1,,,,,ダイシン,0
1406,5180001149252,新規,0,2021-12-27,2021-12-27,株式会社エモーション,,株式会社,愛知県,名古屋市中区,新栄３丁目５－７フローラル千種２０３号,,23,106,4600007,,,,,,,2021-12-27,1,,,,,エモーション,0
1407,5180001149260,新規,0,2021-12-27,2021-12-27,株式会社Ｔｒａｄｉｎｇ　ＪＡＣ,,株式会社,愛知県,名古屋市中村区,畑江通７丁目３５番地の１ドゥナーレ畑江通４０１号,,23,105,4530851,,,,,,,2021-12-27,1,,,,,トレーディングジェーエーシー,0
1408,5180001149277,新規,0,2021-12-27,2021-12-27,株式会社創造館,,株式会社,愛知県,北名古屋市,熊之庄登り戸１０４番地,,23,234,4810006,,,,,,,2021-12-27,1,,,,,ソウゾウカン,0
1415,5180003023323,新規,0,2021-12-27,2021-12-27,合同会社スタジオ・た,,合同会社,愛知県,尾張旭市,印場元町１丁目３番地１９,,23,226,4880840,,,,,,,2021-12-27,1,,,,,スタジオタ,0
1416,5180005019575,新規,0,2021-12-27,2021-12-27,医療法人リリア会,,その他の設立登記法人,愛知県,名古屋市西区,浅間１丁目１番４号伊藤ビル２Ｆ,,23,104,4510035,,,,,,,2021-12-27,1,,,,,リリアカイ,0
1435,5230001019152,新規,0,2021-12-27,2021-12-27,株式会社Ｙ３,,株式会社,富山県,高岡市,御旅屋町２２番地２,,16,202,9330029,,,,,,,2021-12-27,1,,,,,ワイスリー,0
1436,5230003001777,新規,0,2021-12-27,2021-12-27,合同会社ＧＡＫＵ,,合同会社,富山県,富山市,東岩瀬町１４６番地,,16,201,9318358,,,,,,,2021-12-27,1,,,,,ガク,0
1443,5260001036343,新規,0,2021-12-27,2021-12-27,エヌディーディー工業株式会社,,株式会社,岡山県,岡山市東区,西大寺中２丁目２０－８,,33,103,7048116,,,,,,,2021-12-27,1,,,,,エヌディーディーコウギョウ,0
1444,5260001036351,新規,0,2021-12-27,2021-12-27,株式会社美作マテリアル,,株式会社,岡山県,美作市,福本６５６番地２,,33,215,7012604,,,,,,,2021-12-27,1,,,,,ミマサカマテリアル,0
1449,5280005007454,新規,0,2021-12-27,2021-12-27,医療法人漢方女性クリニックｍｉｏ,,その他の設立登記法人,島根県,松江市,朝日町４９８番地松江センタービル２階,,32,201,6900003,,,,,,,2021-12-27,1,,,,,カンポウジョセイクリニックミオ,0
1451,5290001095824,新規,0,2021-12-27,2021-12-27,クレール株式会社,,株式会社,福岡県,福岡市中央区,今泉１丁目２１番９号７Ｆ,,40,133,8100021,,,,,,,2021-12-27,1,,,,,クレール,0
1452,5290001095832,新規,0,2021-12-27,2021-12-27,Ｕｎｄｅｒｗｏｏｄ株式会社,,株式会社,福岡県,福岡市東区,馬出５丁目３５番１５号,,40,131,8120054,,,,,,,2021-12-27,1,,,,,アンダーウッド,0
1453,5290001095840,新規,0,2021-12-27,2021-12-27,株式会社Ｖａｌｕｅ　Ｃｒｅａｔｉｏｎ,,株式会社,福岡県,福岡市南区,長住５丁目９番２７号,,40,134,8111362,,,,,,,2021-12-27,1,,,,,バリュークリエイション,0
1458,5310001017651,新規,0,2021-12-27,2021-12-27,皓辰株式会社,,株式会社,長崎県,長崎市,出島町１２番１号ひまわりビル２階,,42,201,8500862,,,,,,,2021-12-27,1,,,,,コウシン,0
1462,5340001024356,新規,0,2021-12-27,2021-12-27,株式会社Ｐｅｒｉｏｄ．,,株式会社,鹿児島県,鹿児島市,加治屋町２番１号パークサイド加治屋町１－２,,46,201,8920846,,,,,,,2021-12-27,1,,,,,ピリオド,0
1465,5340005009386,新規,0,2021-12-27,2021-12-27,特定非営利活動法人脇本海岸ウミガメ・シロチドリ会,,その他の設立登記法人,鹿児島県,阿久根市,脇本７３３２番地,,46,206,8991131,,,,,,,2021-12-27,1,,,,,ワキモトカイガンウミガメシロチドリカイ,0
1466,5350001017490,新規,0,2021-12-27,2021-12-27,株式会社誠電設,,株式会社,宮崎県,都城市,安久町６４６０番地１,,45,202,8850044,,,,,,,2021-12-27,1,,,,,マコトデンセツ,0
1470,5360001029808,新規,0,2021-12-27,2021-12-27,株式会社Ｇｙ,,株式会社,沖縄県,石垣市,字登野城５７６番地１マンションＴＡＫＥＨＡＩＩＩ、４－Ｅ,00125250,47,207,9070004,,,,,,,2021-12-27,1,,,,,ジーワイ,0
1478,5380003005078,新規,0,2021-12-27,2021-12-27,合同会社ＭＡＮＡ,,合同会社,福島県,いわき市,小名浜玉川町北９番地２,,07,204,9718127,,,,,,,2021-12-27,1,,,,,マナ,0
1486,5390001016729,新規,0,2021-12-27,2021-12-27,月光川蒸留所株式会社,,株式会社,山形県,酒田市,山楯字清水田２７番地,,06,204,9996724,,,,,,,2021-12-27,1,,,,,ガッコウガワジョウリュウジョ,0
1487,5410001013046,新規,0,2021-12-27,2021-12-27,株式会社成田施設,,株式会社,秋田県,北秋田市,鷹巣字北中家下１３番地１,,05,213,0183331,,,,,,,2021-12-27,1,,,,,ナリタシセツ,0
1488,5410003003598,新規,0,2021-12-27,2021-12-27,合同会社ＶＥＧＡ,,合同会社,秋田県,大館市,清水２丁目３番７７－２号,,05,204,0170046,,,,,,,2021-12-27,1,,,,,ヴェガ,0
1490,5430001085678,新規,0,2021-12-27,2021-12-27,株式会社ユーディーエー,,株式会社,北海道,札幌市東区,北三十条東６丁目２番２９号,,01,103,0650030,,,,,,,2021-12-27,1,,,,,ユーディーエー,0
1497,5500001023894,新規,0,2021-12-27,2021-12-27,株式会社ユーエムラボ,,株式会社,愛媛県,松山市,南斎院町１１０８番地２－３０２号,,38,201,7918032,,,,,,,2021-12-27,1,,,,,ユーエムラボ,0
1499,5700150051791,新規,0,2021-12-27,2015-10-09,中国地方港運協会,,その他,広島県,広島市南区,宇品海岸２丁目２３番２５号,,34,103,7340011,,,,,,,2015-10-09,1,,,,,チユウゴクチホウコウウンキヨウカイ,0
1500,5700150106463,新規,0,2021-12-27,2021-12-27,西尾天神前土地区画整理組合,,その他,愛知県,西尾市,神下町８番地,,23,213,4450823,,,,,,,2021-12-27,1,,,,,ニシオテンジンマエトチクカクセイリクミアイ,0
1502,6010001223493,新規,0,2021-12-27,2021-12-27,株式会社アミコ・データ・アンド・デザイン,,株式会社,東京都,千代田区,丸の内１丁目１１番１号,,13,101,1000005,,,,,,,2021-12-27,1,,,,,アミコデータアンドデザイン,0
1505,6010003036621,新規,0,2021-12-27,2021-12-27,合同会社Ａｍｅｌｉａ,,合同会社,東京都,千代田区,九段南１丁目５番６号りそな九段ビル５階ＫＳフロア,,13,101,1020074,,,,,,,2021-12-27,1,,,,,アミリア,0
1508,6010401164643,新規,0,2021-12-27,2021-12-27,株式会社ｍｏｃｏ,,株式会社,東京都,港区,東新橋２丁目１４番１号,,13,103,1050021,,,,,,,2021-12-27,1,,,,,モコ,0
1509,6010401164684,新規,0,2021-12-27,2021-12-27,ｎａｖｙ株式会社,,株式会社,東京都,港区,東麻布１丁目９番１１号,,13,103,1060044,,,,,,,2021-12-27,1,,,,,ネイビー,0
1515,6010403026775,新規,0,2021-12-27,2021-12-27,合同会社ＨｉＪｏＪｏ　Ｆｕｎｄ２３,,合同会社,東京都,港区,麻布十番２丁目２０番７号,,13,103,1060045,,,,,,,2021-12-27,1,,,,,ヒジョージョーファンドニジュウサン,0
1516,6010403026783,新規,0,2021-12-27,2021-12-27,合同会社ＤｅｅｒＤｅｅｒ,,合同会社,東京都,港区,赤坂７丁目６－４３ＰＬＡＮＥＴ赤坂３０２,,13,103,1070052,,,,,,,2021-12-27,1,,,,,ディアディア,0
1517,6010403026791,新規,0,2021-12-27,2021-12-27,合同会社アンティーク不動産,,合同会社,東京都,港区,南青山２丁目７番３号,,13,103,1070062,,,,,,,2021-12-27,1,,,,,アンティークフドウサン,0
1519,6010405020537,新規,0,2021-12-27,2021-12-27,一般社団法人地球環境水と音,,その他の設立登記法人,東京都,港区,赤坂２丁目１０番７－９０４号,,13,103,1070052,,,,,,,2021-12-27,1,,,,,チキュウカンキョウミズトオト,0
1522,6010801032607,新規,0,2021-12-27,2021-12-27,株式会社ＧＩＢ,,株式会社,東京都,大田区,千鳥１丁目９番１６号－３Ｆ,,13,111,1460083,,,,,,,2021-12-27,1,,,,,ジーアイビー,0
1523,6010901050070,新規,0,2021-12-27,2021-12-27,エラベル株式会社,,株式会社,東京都,世田谷区,太子堂１丁目４番２４号萩藤ビル５階,,13,112,1540004,,,,,,,2021-12-27,1,,,,,,0
1531,6011001144754,新規,0,2021-12-27,2021-12-27,株式会社ネクスト,,株式会社,東京都,目黒区,下目黒１丁目８番１号目黒アルコタワー７階,,13,110,1530064,,,,,,,2021-12-27,1,,,,,ネクスト,0
1532,6011001144787,新規,0,2021-12-27,2021-12-27,株式会社ケイズインベストメント,,株式会社,東京都,渋谷区,宇田川町１９番５号,,13,113,1500042,,,,,,,2021-12-27,1,,,,,ケイズインベストメント,0
1533,6011001144795,新規,0,2021-12-27,2021-12-27,株式会社千金,,株式会社,東京都,渋谷区,広尾５丁目４番７ー１２０１号,,13,113,1500012,,,,,,,2021-12-27,1,,,,,センキン,0
1534,6011001144804,新規,0,2021-12-27,2021-12-27,株式会社Ｃｒｅｅｍ　Ｐａｎ,,株式会社,東京都,渋谷区,宇田川町３６番６号,,13,113,1500042,,,,,,,2021-12-27,1,,,,,クリームパン,0
1535,6011003013908,新規,0,2021-12-27,2021-12-27,合同会社ブレイン,,合同会社,東京都,目黒区,五本木２丁目２５番２号テラス五本木１０３号室,,13,110,1530053,,,,,,,2021-12-27,1,,,,,ブレイン,0
1538,6011101097308,新規,0,2021-12-27,2021-12-27,株式会社ケイアール,,株式会社,東京都,新宿区,歌舞伎町２丁目４番１４号東新宿レジデンシャルタワー４０７号室,,13,104,1600021,,,,,,,2021-12-27,1,,,,,ケイアール,0
1539,6011101097332,新規,0,2021-12-27,2021-12-27,株式会社ＮＥＸＴ　ＮＯＡ,,株式会社,東京都,新宿区,西新宿３丁目３番１３号西新宿水間ビル６階,,13,104,1600023,,,,,,,2021-12-27,1,,,,,ネクストノア,0
1540,6011101097349,新規,0,2021-12-27,2021-12-27,株式会社Ｂａｒ　Ｐａｌｉｎｋａ,,株式会社,東京都,新宿区,神楽坂３丁目６番６３号佐藤ビル２階,,13,104,1620825,,,,,,,2021-12-27,1,,,,,バーパーリンカ,0
1541,6011101097365,新規,0,2021-12-27,2021-12-27,日本インターナショナル・マーケティング協会株式会社,,株式会社,東京都,新宿区,若松町２４番１０－５０６号,,13,104,1620056,,,,,,,2021-12-27,1,,,,,ニホンインターナショナルマーケティングキョウカイ,0
1542,6011101097373,新規,0,2021-12-27,2021-12-27,ＩｎｓｉｄｅＭｅ株式会社,,株式会社,東京都,新宿区,新宿５丁目８－１１ラ・グロワール新宿３０２,,13,104,1600022,,,,,,,2021-12-27,1,,,,,インサイドミー,0
1546,6011601025635,新規,0,2021-12-27,2021-12-27,株式会社ＳＡＷＡ,,株式会社,東京都,練馬区,豊玉南３丁目１８番３号サンパレス豊玉２０２,,13,120,1760014,,,,,,,2021-12-27,1,,,,,サワ,0
1547,6011801040104,新規,0,2021-12-27,2021-12-27,＿慧ジャパン株式会社,00125241,株式会社,東京都,足立区,興野２丁目３１番２３－８号,,13,121,1230844,,,,,,,2021-12-27,1,,,,,レイケイジャパン,0
1555,6012801021300,新規,0,2021-12-27,2021-12-27,株式会社誠亘会,,株式会社,東京都,日野市,高幡１００５番地の８ディグニータ２００号室,,13,212,1910031,,,,,,,2021-12-27,1,,,,,セイコウカイ,0
1559,6020001144482,新規,0,2021-12-27,2021-12-27,株式会社宇佐美販売,,株式会社,神奈川県,横浜市港北区,日吉２丁目１３番２０号,,14,109,2230061,,,,,,,2021-12-27,1,,,,,ウサミハンバイ,0
1560,6020003021028,新規,0,2021-12-27,2021-12-27,合同会社福田工業,,合同会社,神奈川県,横浜市都筑区,川向町９２２番地３,,14,118,2240044,,,,,,,2021-12-27,1,,,,,フクダコウギョウ,0
1563,6021003011217,新規,0,2021-12-27,2021-12-27,合同会社ｗａｂｉｓａｂｉ,,合同会社,神奈川県,藤沢市,大庭５４４０番地の１フォレスコート１０２号室,,14,205,2510861,,,,,,,2021-12-27,1,,,,,ワビサビ,0
1564,6021003011225,新規,0,2021-12-27,2021-12-27,合同会社しるし,,合同会社,神奈川県,座間市,緑ケ丘５丁目９番１３号,,14,216,2520021,,,,,,,2021-12-27,1,,,,,シルシ,0
1565,6021003011233,新規,0,2021-12-27,2021-12-27,合同会社ヘンケンラボ,,合同会社,神奈川県,厚木市,旭町１丁目１５番８号県央ビル２Ｆ,,14,212,2430014,,,,,,,2021-12-27,1,,,,,ヘンケンラボ,0
1566,6030001146032,新規,0,2021-12-27,2021-12-27,真運送株式会社,,株式会社,埼玉県,新座市,菅沢１丁目２番９号,,11,230,3520017,,,,,,,2021-12-27,1,,,,,マコトウンソウ,0
1567,6030001146040,新規,0,2021-12-27,2021-12-27,株式会社Ｕ２,,株式会社,埼玉県,白岡市,西７丁目３番３１,,11,246,3490205,,,,,,,2021-12-27,1,,,,,ユーツー,0
1568,6030001146049,新規,0,2021-12-27,2021-12-27,株式会社東洋化学焼付塗装,,株式会社,埼玉県,川越市,大字吉田６７７番地２３,,11,201,3500807,,,,,,,2021-12-27,1,,,,,トウヨウカガクヤキツケトソウ,0
1569,6030001146057,新規,0,2021-12-27,2021-12-27,アークマネジメント株式会社,,株式会社,埼玉県,さいたま市北区,別所町１０００番地６５,,11,102,3310821,,,,,,,2021-12-27,1,,,,,アークマネジメント,0
1570,6030001146065,新規,0,2021-12-27,2021-12-27,円升株式会社,,株式会社,埼玉県,八潮市,大字大瀬１６６６－３－２０２,,11,234,3400822,,,,,,,2021-12-27,1,,,,,マドマス,0
1583,6040001121496,新規,0,2021-12-27,2021-12-27,株式会社ＩＣＯ,,株式会社,千葉県,市川市,市川１丁目８番１号今泉ビル５階,,12,203,2720034,,,,,,,2021-12-27,1,,,,,イコ,0
1584,6040001121505,新規,0,2021-12-27,2021-12-27,株式会社Ｌｉｌｌａ,,株式会社,千葉県,松戸市,殿平賀１１３番地の３,,12,207,2700004,,,,,,,2021-12-27,1,,,,,リッラ,0
1591,6060001034416,新規,0,2021-12-27,2021-12-27,株式会社幸電工,,株式会社,栃木県,鹿沼市,池ノ森６２２番地５,,09,205,3220018,,,,,,,2021-12-27,1,,,,,ユキデンコウ,0
1592,6060001034424,新規,0,2021-12-27,2021-12-27,株式会社ＢｏｎｕｓＱｕｅｓｔ,,株式会社,栃木県,宇都宮市,上戸祭町７０７－６,,09,201,3200051,,,,,,,2021-12-27,1,,,,,,0
1595,6060003003914,新規,0,2021-12-27,2021-12-27,合同会社ラビリーホーム,,合同会社,栃木県,塩谷郡塩谷町,大字肘内６１７番地２,,09,384,3292333,,,,,,,2021-12-27,1,,,,,,0
1600,6080001024662,新規,0,2021-12-27,2021-12-27,みちろ株式会社,,株式会社,静岡県,静岡市葵区,北安東１丁目１７番１２号,,22,101,4200881,,,,,,,2021-12-27,1,,,,,ミチロ,0
1602,6090001017335,新規,0,2021-12-27,2021-12-27,株式会社味源,,株式会社,山梨県,北杜市,長坂町長坂上条１５３１番地８,,19,209,4080021,,,,,,,2021-12-27,1,,,,,アジゲン,0
1607,6110001036290,新規,0,2021-12-27,2021-12-27,株式会社柄澤鉄工,,株式会社,新潟県,南魚沼市,片田３８８番地３,,15,226,9496404,,,,,,,2021-12-27,1,,,,,カラサワテッコウ,0
1617,6120001242714,新規,0,2021-12-27,2021-12-27,株式会社ＲＫＭイノベーション,,株式会社,大阪府,大阪市福島区,福島１丁目２番１２－１５０１号,,27,103,5530003,,,,,,,2021-12-27,1,,,,,アールケイエムイノベーション,0
1618,6120001242722,新規,0,2021-12-27,2021-12-27,株式会社Ｋ．Ｔ．Ｃ．Ｕ,,株式会社,大阪府,大阪市北区,西天満６丁目６番１８－１３０４号,,27,127,5300047,,,,,,,2021-12-27,1,,,,,ケーティーシーユー,0
1619,6120001242755,新規,0,2021-12-27,2021-12-27,勝愛建設株式会社,,株式会社,大阪府,寝屋川市,堀溝北町１３番１３号,,27,215,5720810,,,,,,,2021-12-27,1,,,,,ショウアケンセツ,0
1620,6120001242763,新規,0,2021-12-27,2021-12-27,株式会社大矢加工,,株式会社,大阪府,大阪市平野区,加美東１丁目１４番１号,,27,126,5470002,,,,,,,2021-12-27,1,,,,,オオヤカコウ,0
1623,6120003020845,新規,0,2021-12-27,2021-12-27,合同会社カヤズリテイリング,,合同会社,大阪府,枚方市,山之上５丁目２０番１８号,,27,210,5730047,,,,,,,2021-12-27,1,,,,,カヤズリテイリング,0
1628,6120903003957,新規,0,2021-12-27,2021-12-27,合同会社ミルヴァン,,合同会社,大阪府,豊中市,本町３丁目２－３東洋ビル１Ｆ,,27,203,5600021,,,,,,,2021-12-27,1,,,,,ミルヴァン,0
1631,6122003002237,新規,0,2021-12-27,2021-12-27,合同会社山家,,合同会社,大阪府,八尾市,西高安町１丁目６３－２－３０１,,27,212,5810852,,,,,,,2021-12-27,1,,,,,ヤマヤ,0
1642,6130001070775,新規,0,2021-12-27,2021-12-27,株式会社かけっこ,,株式会社,京都府,京都市下京区,恵美須之町５２１,,26,106,6008033,,,,,,,2021-12-27,1,,,,,カケッコ,0
1643,6130001070783,新規,0,2021-12-27,2021-12-27,株式会社Ｉ－Ｋ,,株式会社,京都府,京都市右京区,太秦樋ノ内町７番地１０,00125254,26,108,6168142,,,,,,,2021-12-27,1,,,,,アイケー,0
1651,6140003017138,新規,0,2021-12-27,2021-12-27,Ｌ．ｃａｒｇｏ合同会社,,合同会社,兵庫県,神戸市西区,押部谷町福住５７９番地の１８,,28,111,6512213,,,,,,,2021-12-27,1,,,,,エルカーゴ,0
1665,6180001149292,新規,0,2021-12-27,2021-12-27,株式会社ＳＨＵ,,株式会社,愛知県,名古屋市中区,栄４丁目１３番１５号ハットリビル６階,,23,106,4600008,,,,,,,2021-12-27,1,,,,,シュウ,0
1672,6180003023322,新規,0,2021-12-27,2021-12-27,合同会社Ｉ．ＣＡＮ,,合同会社,愛知県,半田市,亀崎常盤町１丁目５２番地の１プランタントキワＢ棟１０１号,,23,205,4750029,,,,,,,2021-12-27,1,,,,,アイキャン,0
1675,6180301035762,新規,0,2021-12-27,2021-12-27,株式会社三建興業,,株式会社,愛知県,豊田市,配津町矢通３２番地１,,23,211,4701204,,,,,,,2021-12-27,1,,,,,サンケンコウギョウ,0
1677,6180303005202,新規,0,2021-12-27,2021-12-27,ストリートマシーンズ合同会社,,合同会社,愛知県,豊田市,西中山町太田７０番地３２,,23,211,4700431,,,,,,,2021-12-27,1,,,,,ストリートマシーンズ,0
1680,6200001039573,新規,0,2021-12-27,2021-12-27,株式会社ノバ,,株式会社,岐阜県,岐阜市,六条南３丁目６番１８号,,21,201,5008358,,,,,,,2021-12-27,1,,,,,ノバ,0
1684,6220001024615,新規,0,2021-12-27,2021-12-27,株式会社カクイ設備,,株式会社,石川県,加賀市,大聖寺敷地リ１番地５５,,17,206,9220011,,,,,,,2021-12-27,1,,,,,カクイセツビ,0
1686,6230001019151,新規,0,2021-12-27,2021-12-27,株式会社Ｎ３,,株式会社,富山県,滑川市,田中町８３番地１,,16,206,9360057,,,,,,,2021-12-27,1,,,,,エヌスリー,0
1690,6240001059097,新規,0,2021-12-27,2021-12-27,株式会社レゴリス,,株式会社,広島県,呉市,苗代町１１６５番地１,,34,202,7370921,,,,,,,2021-12-27,1,,,,,レゴリス,0
1694,6250001019315,新規,0,2021-12-27,2021-12-27,結‐ＹＵＩ株式会社,,株式会社,山口県,宇部市,明神町３丁目６番３号,,35,202,7550008,,,,,,,2021-12-27,1,,,,,ユイユイ,0
1704,6290001095823,新規,0,2021-12-27,2021-12-27,ｐｌｕｓ　ｄ株式会社,,株式会社,福岡県,福岡市中央区,舞鶴１丁目８番２６－９１７号,,40,133,8100073,,,,,,,2021-12-27,1,,,,,プラスディー,0
1705,6290001095831,新規,0,2021-12-27,2021-12-27,株式会社ＡＢＣビジョン,,株式会社,福岡県,福岡市博多区,板付４丁目７番２８号,,40,132,8120888,,,,,,,2021-12-27,1,,,,,エービーシービジョン,0
1706,6290001095872,新規,0,2021-12-27,2021-12-27,ＰＡＯコンサルティング株式会社,,株式会社,福岡県,福岡市西区,今宿東３丁目６番３８－２０１号,,40,135,8190161,,,,,,,2021-12-27,1,,,,,ピーエーオーコンサルティング,0
1707,6290003011927,新規,0,2021-12-27,2021-12-27,ＭＡＴｅｃｈｎｏｌｏｇｉｅｓ合同会社,,合同会社,福岡県,福岡市博多区,博多駅前４丁目３１－１グランピア博多駅前３階３号,,40,132,8120011,,,,,,,2021-12-27,1,,,,,エムエーテクノロジーズ,0
1708,6290003011968,新規,0,2021-12-27,2021-12-27,合同会社久子クリニック,,合同会社,福岡県,福岡市西区,太郎丸１丁目７番３号,,40,135,8190384,,,,,,,2021-12-27,1,,,,,ヒサコクリニック,0
1712,6300003001769,新規,0,2021-12-27,2021-12-27,合同会社Ｂｅａｕｔｉｆｕｌ　ｌｉｆｅ,,合同会社,佐賀県,西松浦郡有田町,古木場甲１０６６番地,,41,401,8440015,,,,,,,2021-12-27,1,,,,,ビューティフルライフ,0
1716,6330001029289,新規,0,2021-12-27,2021-12-27,ダンレイホールディングス株式会社,,株式会社,熊本県,熊本市南区,近見７丁目３番１４号,,43,104,8614101,,,,,,,2021-12-27,1,,,,,ダンレイホールディングス,0
1720,6340001024363,新規,0,2021-12-27,2021-12-27,山翔海運株式会社,,株式会社,鹿児島県,指宿市,山川福元５７６３番地,,46,210,8910511,,,,,,,2021-12-27,1,,,,,サンショウカイウン,0
1726,6360001029807,新規,0,2021-12-27,2021-12-27,ライン電工株式会社,,株式会社,沖縄県,沖縄市,室川１丁目６番４号（１Ｆ）,,47,211,9040013,,,,,,,2021-12-27,1,,,,,ラインデンコウ,0
1727,6360001029815,新規,0,2021-12-27,2021-12-27,株式会社コトナッツ,,株式会社,沖縄県,うるま市,字安慶名１０３５－１Ａ－２号,,47,213,9042214,,,,,,,2021-12-27,1,,,,,コトナッツ,0
1737,6380001032429,新規,0,2021-12-27,2021-12-27,株式会社大竹林業,,株式会社,福島県,東白川郡塙町,大字川上字清水９番地２,,07,483,9635536,,,,,,,2021-12-27,1,,,,,オオタケリンギョウ,0
1741,6380003005077,新規,0,2021-12-27,2021-12-27,合同会社ＣＯＮＮＥＣＴ,,合同会社,福島県,郡山市,熱海町熱海５丁目２７１,,07,203,9631309,,,,,,,2021-12-27,1,,,,,コネクト,0
1748,6390001016728,新規,0,2021-12-27,2021-12-27,株式会社もりのこみち舎,,株式会社,山形県,新庄市,末広町１４番６２号コーポ藤テナントＢ,,06,205,9960031,,,,,,,2021-12-27,1,,,,,モリノコミチシャ,0
1759,6430001085660,新規,0,2021-12-27,2021-12-27,株式会社ＮＡＣＥＬＬ,,株式会社,北海道,苫小牧市,小糸井町１丁目２番２６号,,01,213,0530813,,,,,,,2021-12-27,1,,,,,ナセル,0
1760,6430001085677,新規,0,2021-12-27,2021-12-27,株式会社鳴嵐科技,,株式会社,北海道,苫小牧市,有明町２丁目１１番９号,,01,213,0530812,,,,,,,2021-12-27,1,,,,,メイランカギ,0
1764,6430003013487,新規,0,2021-12-27,2021-12-27,合同会社ＲｉｃｈＦｕｌｌ,,合同会社,北海道,札幌市東区,伏古十三条４丁目５－２４,,01,103,0070873,,,,,,,2021-12-27,1,,,,,リッチフル,0
1769,6460103001414,新規,0,2021-12-27,2021-12-27,ｆａｖｏｃｒｅａｓｅ合同会社,,合同会社,北海道,帯広市,西二十四条南２丁目２５番地１８,,01,207,0802474,,,,,,,2021-12-27,1,,,,,ファボクリース,0
1774,6480003001776,新規,0,2021-12-27,2021-12-27,合同会社マツタニ,,合同会社,徳島県,板野郡上板町,鍛冶屋原字北原４８番地,,36,405,7711301,,,,,,,2021-12-27,1,,,,,マツタニ,0
1776,6490001010068,新規,0,2021-12-27,2021-12-27,株式会社カムス・クリエイト,,株式会社,高知県,吾川郡いの町,天王南４丁目１０－４,,39,386,7812123,,,,,,,2021-12-27,1,,,,,カムスクリエイト,0
1782,6700150106462,新規,0,2021-12-27,2021-12-27,貝塚市堀新町会,,その他,大阪府,貝塚市,堀３丁目１４番１５号,,27,208,5970015,,,,,,,2021-12-27,1,,,,,カイヅカシホリシンチヨウカイ,0
1792,7010001223443,新規,0,2021-12-27,2021-12-27,株式会社ＫＹＴＫ,,株式会社,東京都,文京区,湯島３丁目２０番６号,,13,105,1130034,,,,,,,2021-12-27,1,,,,,ケイワイティーケイ,0
1793,7010001223492,新規,0,2021-12-27,2021-12-27,株式会社ＡＡ,,株式会社,東京都,中央区,新富２丁目４－６,,13,102,1040041,,,,,,,2021-12-27,1,,,,,エーシーズ,0
1794,7010001223518,新規,0,2021-12-27,2021-12-27,ＹＹＫインベストメント株式会社,,株式会社,東京都,千代田区,丸の内２丁目１番１号明治安田生命ビル１１階,,13,101,1000005,,,,,,,2021-12-27,1,,,,,ワイワイケーインベストメント,0
1795,7010001223526,新規,0,2021-12-27,2021-12-27,株式会社シェノンエール,,株式会社,東京都,中央区,銀座２丁目１３番１８号,,13,102,1040061,,,,,,,2021-12-27,1,,,,,シェノンエール,0
1800,7010003036629,新規,0,2021-12-27,2021-12-27,ＨＣＪＩホールディングス合同会社,,合同会社,東京都,千代田区,丸の内２丁目１番１号,,13,101,1000005,,,,,,,2021-12-27,1,,,,,エイチシージェイアイホールディングス,0
1802,7010101014998,新規,0,2021-12-27,2021-12-27,株式会社クーマ,,株式会社,東京都,八王子市,松木３４番地の２７,,13,201,1920362,,,,,,,2021-12-27,1,,,,,クーマ,0
1807,7010403026774,新規,0,2021-12-27,2021-12-27,合同会社ＨｉＪｏＪｏ　Ｆｕｎｄ２２,,合同会社,東京都,港区,麻布十番２丁目２０番７号,,13,103,1060045,,,,,,,2021-12-27,1,,,,,ヒジョージョーファンドニジュウニ,0
1812,7010501048266,新規,0,2021-12-27,2021-12-27,株式会社アンドエー,,株式会社,東京都,台東区,根岸４丁目１８番４号,,13,106,1100003,,,,,,,2021-12-27,1,,,,,アンドエー,0
1819,7010701041987,新規,0,2021-12-27,2021-12-27,デサフィオ株式会社,,株式会社,東京都,品川区,旗の台１丁目１番１４号グランヒルズ旗の台２０３,,13,109,1420064,,,,,,,2021-12-27,1,,,,,デサフィオ,0
1823,7010801032614,新規,0,2021-12-27,2021-12-27,株式会社キャトルシステム,,株式会社,東京都,大田区,矢口２丁目２９番１２号,,13,111,1460093,,,,,,,2021-12-27,1,,,,,キャトルシステム,0
1833,7011001144778,新規,0,2021-12-27,2021-12-27,株式会社Ｇ．Ｉパートナーズ,,株式会社,東京都,渋谷区,恵比寿４丁目５番２３号５０７号室,,13,113,1500013,,,,,,,2021-12-27,1,,,,,ジーアイパートナーズ,0
1834,7011001144786,新規,0,2021-12-27,2021-12-27,株式会社ＪＵＮＫＳ,,株式会社,東京都,目黒区,駒場１丁目１９番１８号第５竹皮屋ビル４０３,,13,110,1530041,,,,,,,2021-12-27,1,,,,,ジャンクス,0
1836,7011003013907,新規,0,2021-12-27,2021-12-27,合同会社ＭＫコーポレーション,,合同会社,東京都,渋谷区,代々木１丁目２１番１６号アジリア代々木Ｊ’ｓ６０３号室,,13,113,1510053,,,,,,,2021-12-27,1,,,,,エムケーコーポレーション,0
1837,7011003013923,新規,0,2021-12-27,2021-12-27,合同会社中村寛事務所,,合同会社,東京都,渋谷区,元代々木町２１番１２号,,13,113,1510062,,,,,,,2021-12-27,1,,,,,ナカムラヒロシジムショ,0
1839,7011101097315,新規,0,2021-12-27,2021-12-27,株式会社ベリースリーピー,,株式会社,東京都,新宿区,西新宿１丁目２６番２号新宿野村ビル３２階,,13,104,1600023,,,,,,,2021-12-27,1,,,,,ベリースリーピー,0
1840,7011101097331,新規,0,2021-12-27,2021-12-27,ｅｖｅｎｔ－ｌｉｎｋｓ株式会社,,株式会社,東京都,新宿区,水道町１－１２ｔｒｉａｓ１１２・２０３号,,13,104,1620811,,,,,,,2021-12-27,1,,,,,イベントリンクス,0
1841,7011101097372,新規,0,2021-12-27,2021-12-27,ＢＬＥＳＳ株式会社,,株式会社,東京都,新宿区,西新宿７丁目２２番３７号,,13,104,1600023,,,,,,,2021-12-27,1,,,,,ブレス,0
1842,7011103011307,新規,0,2021-12-27,2021-12-27,アクティブワークス合同会社,,合同会社,東京都,新宿区,西新宿７丁目５番９号,,13,104,1600023,,,,,,,2021-12-27,1,,,,,アクティブワークス,0
1843,7011103011323,新規,0,2021-12-27,2021-12-27,岡野健康マネジメント合同会社,,合同会社,東京都,新宿区,矢来町２３番地１５,,13,104,1620805,,,,,,,2021-12-27,1,,,,,オカノケンコウマネジメント,0
1848,7011303004259,新規,0,2021-12-27,2021-12-27,ＦＲＩＳＣＯ　ＳＰＯＲＴＳ合同会社,,合同会社,東京都,杉並区,高井戸西３丁目８番１５号,,13,115,1680071,,,,,,,2021-12-27,1,,,,,フリスコスポーツ,0
1857,7011603003480,新規,0,2021-12-27,2021-12-27,Ａｏ　Ａｋｕａ合同会社,,合同会社,東京都,練馬区,桜台１丁目４０番３号コーポ大同１０１,,13,120,1760002,,,,,,,2021-12-27,1,,,,,アオアクア,0
1864,7012801021299,新規,0,2021-12-27,2021-12-27,株式会社岸澤屋,,株式会社,東京都,立川市,若葉町２丁目８番地の１１４,,13,202,1900001,,,,,,,2021-12-27,1,,,,,キシザワヤ,0
1865,7012803002669,新規,0,2021-12-27,2021-12-27,ＢＤＴ合同会社,,合同会社,東京都,日野市,程久保３丁目２０番７号,,13,212,1910042,,,,,,,2021-12-27,1,,,,,ビーディーティー,0
1872,7020001144515,新規,0,2021-12-27,2021-12-27,株式会社ＶＡＥＴＨ,,株式会社,神奈川県,横浜市保土ケ谷区,岩崎町２４－１７－５,,14,106,2400015,,,,,,,2021-12-27,1,,,,,バース,0
1873,7020003021027,新規,0,2021-12-27,2021-12-27,ＧＲＵ　ＪＡＰＡＮ合同会社,,合同会社,神奈川県,横浜市鶴見区,鶴見中央４丁目１９番９号,,14,101,2300051,,,,,,,2021-12-27,1,,,,,グルージャパン,0
1879,7021001074826,新規,0,2021-12-27,2021-12-27,株式会社Ｔｈｅニューボーン,,株式会社,神奈川県,藤沢市,高倉８３８番地の１,,14,205,2520802,,,,,,,2021-12-27,1,,,,,ザニューボーン,0
1885,7030001146031,新規,0,2021-12-27,2021-12-27,ＳＯＮＧ　ＡＮＨ株式会社,,株式会社,埼玉県,八潮市,中央１丁目３番地１８シスボア１０１,,11,234,3400816,,,,,,,2021-12-27,1,,,,,ソンアイン,0
1886,7030001146048,新規,0,2021-12-27,2021-12-27,株式会社ＳＭＬ,,株式会社,埼玉県,さいたま市西区,大字指扇１２７０番地ＨＡＲＭＯＮＹＨＩＬＬＳＩＩ１０２,00125239,11,101,3310047,,,,,,,2021-12-27,1,,,,,エスエムエル,0
1887,7030001146064,新規,0,2021-12-27,2021-12-27,株式会社スノーボールド,,株式会社,埼玉県,川口市,青木２丁目１４番７号,,11,203,3320031,,,,,,,2021-12-27,1,,,,,スノーボールド,0
1888,7030001146072,新規,0,2021-12-27,2021-12-27,株式会社吉寅,00125252,株式会社,埼玉県,所沢市,三ケ島５丁目１６１１番地の２,,11,208,3591164,,,,,,,2021-12-27,1,,,,,ヨシトラ,0
1897,7040001121504,新規,0,2021-12-27,2021-12-27,株式会社シラトリアセットマネジメント,,株式会社,千葉県,習志野市,津田沼６丁目１１番２４号,,12,216,2750016,,,,,,,2021-12-27,1,,,,,シラトリアセットマネジメント,0
1898,7040003019168,新規,0,2021-12-27,2021-12-27,エミサイト合同会社,,合同会社,千葉県,柏市,高田１０１０番地３３,,12,217,2770861,,,,,,,2021-12-27,1,,,,,エミサイト,0
1899,7050001050347,新規,0,2021-12-27,2021-12-27,株式会社モアーク,,株式会社,茨城県,つくば市,上郷１１０８番地２,,08,220,3002645,,,,,,,2021-12-27,1,,,,,モアーク,0
1902,7080001024661,新規,0,2021-12-27,2021-12-27,株式会社香空桜,,株式会社,静岡県,静岡市清水区,渋川１丁目８番２７号,,22,103,4240053,,,,,,,2021-12-27,1,,,,,カラサ,0
1904,7080101023002,新規,0,2021-12-27,2021-12-27,株式会社ａｎｙ,,株式会社,静岡県,熱海市,中央町１２－８,,22,205,4130015,,,,,,,2021-12-27,1,,,,,エニー,0
1906,7080405007411,新規,0,2021-12-27,2021-12-27,一般社団法人オハナ,,その他の設立登記法人,静岡県,浜松市中区,上島５丁目４番２５号クレアトゥールＩＩ１０６号,00125237,22,131,4338122,,,,,,,2021-12-27,1,,,,,オハナ,0
1908,7100001034922,新規,0,2021-12-27,2021-12-27,Ｆ－Ｆａｍｉｌｙ株式会社,,株式会社,長野県,埴科郡坂城町,大字南条１７７２番地,,20,521,3890603,,,,,,,2021-12-27,1,,,,,エフファミリー,0
1912,7110001036298,新規,0,2021-12-27,2021-12-27,株式会社ソウルメイトプロ,,株式会社,新潟県,新潟市中央区,東万代町１番２２号風間ビル２Ｆ,,15,103,9500082,,,,,,,2021-12-27,1,,,,,,0
1927,7120001242713,新規,0,2021-12-27,2021-12-27,ＤｅｅｐＥｘｐｅｒｉｅｎｃｅ株式会社,,株式会社,大阪府,大阪市北区,中崎２丁目１番４号嶌野ビル７階,,27,127,5300016,,,,,,,2021-12-27,1,,,,,ディープエクスペリエンス,0
1928,7120001242721,新規,0,2021-12-27,2021-12-27,株式会社ＢＲＡＩＮ,,株式会社,大阪府,大阪市阿倍野区,松崎町４丁目１番５号,,27,119,5450053,,,,,,,2021-12-27,1,,,,,ブレイン,0
1929,7120001242746,新規,0,2021-12-27,2021-12-27,株式会社ユメイク,,株式会社,大阪府,大阪市中央区,本町橋６番１９－１１０３号,,27,128,5400029,,,,,,,2021-12-27,1,,,,,ユメイク,0
1930,7120001242762,新規,0,2021-12-27,2021-12-27,株式会社ＷＩＮ　ＳＨＩＰ,,株式会社,大阪府,大阪市浪速区,難波中３丁目１５番７号,,27,111,5560011,,,,,,,2021-12-27,1,,,,,ウィンシップ,0
1931,7120001242770,新規,0,2021-12-27,2021-12-27,株式会社やどかり興業,,株式会社,大阪府,大阪市中央区,北久宝寺町３丁目６番１号本町南ガーデンシティ７階,,27,128,5410057,,,,,,,2021-12-27,1,,,,,ヤドカリコウギョウ,0
1932,7120001242779,新規,0,2021-12-27,2021-12-27,株式会社展新,,株式会社,大阪府,大阪市北区,豊崎３丁目１５番５号ＴＫビル２Ｆ,,27,127,5310072,,,,,,,2021-12-27,1,,,,,テンシン,0
1936,7120003020844,新規,0,2021-12-27,2021-12-27,合同会社ＨＲ,,合同会社,大阪府,大阪市天王寺区,東高津町１２番７－１３０２号,,27,109,5430021,,,,,,,2021-12-27,1,,,,,エイチアール,0
1941,7120101064850,新規,0,2021-12-27,2021-12-27,株式会社汀,,株式会社,大阪府,泉大津市,東助松二丁目９番２１号,,27,206,5950000,,,,,,,2021-12-27,1,,,,,ミギワ,0
1942,7120105009488,新規,0,2021-12-27,2021-12-27,和泉聖書教会,,その他の設立登記法人,大阪府,和泉市,池田下町１９１８番地の９,,27,219,5940032,,,,,,,2021-12-27,1,,,,,イズミセイショキョウカイ,0
1943,7120901045397,新規,0,2021-12-27,2021-12-27,株式会社ＬＩＮＫ－Ｓ,,株式会社,大阪府,豊中市,熊野町４丁目１１番１号,,27,203,5600014,,,,,,,2021-12-27,1,,,,,リンクス,0
1945,7122001035460,新規,0,2021-12-27,2021-12-27,ポスティッチ株式会社,,株式会社,大阪府,東大阪市,宝持２丁目１番９号宝持ホワイトハイツ３－Ｓ,,27,227,5770805,,,,,,,2021-12-27,1,,,,,ポスティッチ,0
1947,7122005003595,新規,0,2021-12-27,2021-12-27,一般社団法人安心老後設計,,その他の設立登記法人,大阪府,八尾市,跡部北の町２丁目１番３２－４０８号,,27,212,5810068,,,,,,,2021-12-27,1,,,,,アンシンロウゴセッケイ,0
1953,7130001070782,新規,0,2021-12-27,2021-12-27,株式会社ネクストツリー,,株式会社,京都府,木津川市,城山台１３丁目２番地５,,26,214,6190218,,,,,,,2021-12-27,1,,,,,ネクストツリー,0
1959,7140001124307,新規,0,2021-12-27,2021-12-27,株式会社ＬＨ．ｗｏｒｋｓ,,株式会社,兵庫県,加古川市,加古川町粟津１０７６番地,,28,210,6750039,,,,,,,2021-12-27,1,,,,,エルエイチドットワークス,0
1960,7140001124315,新規,0,2021-12-27,2021-12-27,株式会社ＩＮＦ,,株式会社,兵庫県,姫路市,広畑区蒲田３１７番地３,,28,201,6711102,,,,,,,2021-12-27,1,,,,,アイエヌエフ,0
1961,7150003002575,新規,0,2021-12-27,2021-12-27,Ｍｔ．ＧＬｉＭ合同会社,,合同会社,奈良県,宇陀市,大宇陀小附３９５番地,,29,212,6332112,,,,,,,2021-12-27,1,,,,,マウントグリム,0
1963,7160003002459,新規,0,2021-12-27,2021-12-27,合同会社ｔｏｔａｌ　ｓｕｐｐｏｒｔ　ｄｒｉｖｅｒ’ｓ,,合同会社,滋賀県,大津市,柳が崎３番１－６０１号,,25,201,5200022,,,,,,,2021-12-27,1,,,,,,0
1973,7180001149267,新規,0,2021-12-27,2021-12-27,クレインフィールドホールディングス株式会社,,株式会社,愛知県,名古屋市西区,牛島町６番１号名古屋ルーセントタワー４０階,,23,104,4510046,,,,,,,2021-12-27,1,,,,,クレインフィールドホールディングス,0
1974,7180001149283,新規,0,2021-12-27,2021-12-27,株式会社ＺＡＹＴ,,株式会社,愛知県,名古屋市中村区,則武１丁目１３番９号,,23,105,4530014,,,,,,,2021-12-27,1,,,,,ザイト,0
1989,7220001024614,新規,0,2021-12-27,2021-12-27,株式会社バランス,,株式会社,石川県,金沢市,太陽が丘２丁目８０番地,,17,201,9201154,,,,,,,2021-12-27,1,,,,,バランス,0
1991,7240001059096,新規,0,2021-12-27,2021-12-27,株式会社ヒロイチ,,株式会社,広島県,安芸郡海田町,南大正町５番２２号,,34,304,7360042,,,,,,,2021-12-27,1,,,,,ヒロイチ,0
2002,7290001095814,新規,0,2021-12-27,2021-12-27,株式会社リアルシングス,,株式会社,福岡県,福岡市城南区,長尾４丁目２０－１,,40,136,8140123,,,,,,,2021-12-27,1,,,,,リアルシングス,0
2003,7290001095830,新規,0,2021-12-27,2021-12-27,株式会社田畑工務店,,株式会社,福岡県,糟屋郡新宮町,大字原上１８１４番地３－４１０,,40,345,8110101,,,,,,,2021-12-27,1,,,,,タバタコウムテン,0
2004,7290001095847,新規,0,2021-12-27,2021-12-27,Ｖｅｋｏｄｏｖ株式会社,,株式会社,福岡県,福岡市中央区,春吉１丁目９－１６－５０７,,40,133,8100003,,,,,,,2021-12-27,1,,,,,ヴェコドフ,0
2011,7290801028122,新規,0,2021-12-27,2021-12-27,株式会社Ｈ．Ｋ産業,,株式会社,福岡県,田川郡添田町,大字添田１９６１番地１,,40,602,8240602,,,,,,,2021-12-27,1,,,,,エイチケイサンギョウ,0
2012,7290803004014,新規,0,2021-12-27,2021-12-27,合同会社サンライズ,,合同会社,福岡県,北九州市小倉北区,木町２丁目８番４号,,40,106,8030851,,,,,,,2021-12-27,1,,,,,サンライズ,0
2021,7340001024362,新規,0,2021-12-27,2021-12-27,株式会社ＫｙｏｕＳａｎ,,株式会社,鹿児島県,鹿児島市,上福元町５６７１番地２７,,46,201,8910116,,,,,,,2021-12-27,1,,,,,キョウサン,0
2024,7350001017497,新規,0,2021-12-27,2021-12-27,株式会社Ｓｃｈｏｎ　Ｌｅａｄ,,株式会社,宮崎県,児湯郡高鍋町,大字持田１７０８番地１１,,45,401,8840005,,,,,,,2021-12-27,1,,,,,シャンリード,0
2026,7360001029814,新規,0,2021-12-27,2021-12-27,株式会社ＣＯＮＮＥＣＴ　ＨＯＰＥ,,株式会社,沖縄県,うるま市,みどり町５丁目１０番８号,,47,213,9042215,,,,,,,2021-12-27,1,,,,,コネクトホープ,0
2028,7360003011679,新規,0,2021-12-27,2021-12-27,糸数工業合同会社,,合同会社,沖縄県,名護市,字伊差川１００７番地、１０１号,,47,209,9051152,,,,,,,2021-12-27,1,,,,,イトカズコウギョウ,0
2032,7380001032428,新規,0,2021-12-27,2021-12-27,株式会社斎津ゴルフリゾート,,株式会社,福島県,二本松市,小浜字反町３９番地,,07,210,9640313,,,,,,,2021-12-27,1,,,,,サイズゴルフリゾート,0
2033,7380001032436,新規,0,2021-12-27,2021-12-27,株式会社ＦＩＲＳＴＥＤＩＴＩＯＮ,,株式会社,福島県,南相馬市,原町区日の出町１７１番地の３,,07,212,9750038,,,,,,,2021-12-27,1,,,,,,0
2035,7380003005076,新規,0,2021-12-27,2021-12-27,ノスタル合同会社,,合同会社,福島県,いわき市,三和町渡戸字峠平７２－２,,07,204,9701261,,,,,,,2021-12-27,1,,,,,ノスタル,0
2039,7380005012517,新規,0,2021-12-27,2021-12-27,一般社団法人むすび,,その他の設立登記法人,福島県,福島市,栄町１２番１０号ひかりビル６階,,07,201,9608031,,,,,,,2021-12-27,1,,,,,ムスビ,0
2043,7430001085651,新規,0,2021-12-27,2021-12-27,株式会社Ａｏｉ,,株式会社,北海道,札幌市豊平区,豊平三条４丁目１番３１号,,01,105,0620903,,,,,,,2021-12-27,1,,,,,アオイ,0
2046,7490001010067,新規,0,2021-12-27,2021-12-27,高知グリーンプロジェクト株式会社,,株式会社,高知県,高知市,大津甲２００２番地１１,,39,201,7815102,,,,,,,2021-12-27,1,,,,,コウチグリーンプロジェクト,0
2048,7700150106429,新規,0,2021-12-27,2021-12-27,ＬＩＢＥＲＴＹ　ＴＲＡＤＥ　ＣＥＮＴＥＲ,,外国会社等,茨城県,神栖市,日川１６９９番地２７ビジネスオフィス１４号,,08,232,3140114,スリランカ民主社会主義共和国、ハプガスタラワ、メインストリート、７９,,,,,,2021-12-27,1,,,,,リバテイートレードセンター,0
2049,7700150106461,新規,0,2021-12-27,2021-12-27,Ｓｍａｒｔ　Ｉｓｌａｎｄｅｒｓ　Ｌｉｍｉｔｅｄ,,外国会社等,北海道,虻田郡倶知安町,南六条西１丁目６－１,,01,400,0440036,１８／Ｆ　Ｔｅｓｂｕｒｙ　Ｃｅｎｔｅｒ，２８　Ｑｕｅｅｎ’ｓ　Ｒｏａｄ　Ｅａｓｔ　Ｗａｎｃｈａｉ　ＨＫ,,,,,,2021-12-27,1,,,,,スマートアイランダーズリミテツド,0
2063,8010001223525,新規,0,2021-12-27,2021-12-27,株式会社ネイキッド,,株式会社,東京都,中央区,銀座１丁目２２番１１号銀座大竹ビジデンス２Ｆ,,13,102,1040061,,,,,,,2021-12-27,1,,,,,ネイキッド,0
2066,8010003036561,新規,0,2021-12-27,2021-12-27,合同会社ＢＲＩＤＧＥＬＡＷ,,合同会社,東京都,中央区,晴海３丁目１３番２－２３０５号,,13,102,1040053,,,,,,,2021-12-27,1,,,,,ブリジロウ,0
2067,8010003036628,新規,0,2021-12-27,2021-12-27,合同会社ローカルワン,,合同会社,東京都,中央区,銀座７丁目１３番６号サガミビル２階,,13,102,1040061,,,,,,,2021-12-27,1,,,,,ローカルワン,0
2074,8010401164641,新規,0,2021-12-27,2021-12-27,新エム・シー・ヘルスケア株式会社,,株式会社,東京都,港区,港南２丁目１６番１号,,13,103,1080075,,,,,,,2021-12-27,1,,,,,シンエムシーヘルスケア,0
2075,8010401164666,新規,0,2021-12-27,2021-12-27,株式会社クローバー,,株式会社,東京都,港区,南青山２丁目２番１５号,,13,103,1070062,,,,,,,2021-12-27,1,,,,,クローバー,0
2076,8010401164674,新規,0,2021-12-27,2021-12-27,ＩＦＴパートナーズ株式会社,,株式会社,東京都,港区,芝２丁目３番２０－４０１号,,13,103,1050014,,,,,,,2021-12-27,1,,,,,アイエフティパートナーズ,0
2085,8010403026419,新規,0,2021-12-27,2021-12-27,合同会社ＴＫＫ,,合同会社,東京都,港区,六本木４丁目３番６号三河台ハイツ３Ｆ,,13,103,1060032,,,,,,,2021-12-27,1,,,,,ティーケーケー,0
2086,8010403026781,新規,0,2021-12-27,2021-12-27,ポーカーアカデミー合同会社,,合同会社,東京都,港区,南青山２丁目２番１５号ＷｉｎＡｏｙａｍａビルＵＣＦ６３５,,13,103,1070062,,,,,,,2021-12-27,1,,,,,ポーカーアカデミー,0
2089,8010501048265,新規,0,2021-12-27,2021-12-27,株式会社ラテラス,,株式会社,東京都,台東区,上野５丁目１５番１４号ＯＮＥＳＴ上野御徒町ビル９階,,13,106,1100005,,,,,,,2021-12-27,1,,,,,ラテラス,0
2097,8010901050060,新規,0,2021-12-27,2021-12-27,フルクラムシステムズ株式会社,,株式会社,東京都,世田谷区,代沢５丁目３４－１８－１０３,,13,112,1550032,,,,,,,2021-12-27,1,,,,,フルクラムシステムズ,0
2098,8010901050069,新規,0,2021-12-27,2021-12-27,株式会社イージスコーポレーション,,株式会社,東京都,世田谷区,宮坂３丁目１２番１８号ヴェノス経堂３０３,,13,112,1560051,,,,,,,2021-12-27,1,,,,,イージスコーポレーション,0
2110,8011001144728,新規,0,2021-12-27,2021-12-27,株式会社ケイプロフィット,,株式会社,東京都,渋谷区,宇田川町２８番４９号,,13,113,1500042,,,,,,,2021-12-27,1,,,,,ケイプロフィット,0
2111,8011001144744,新規,0,2021-12-27,2021-12-27,株式会社カテコールアミン,,株式会社,東京都,渋谷区,恵比寿４丁目２０番３号恵比寿ガーデンプレイスタワー１８階,,13,113,1500013,,,,,,,2021-12-27,1,,,,,,0
2112,8011001144752,新規,0,2021-12-27,2021-12-27,令和アセットマネージメント株式会社,,株式会社,東京都,渋谷区,代々木１丁目５４番２号小林ビル３階,,13,113,1510053,,,,,,,2021-12-27,1,,,,,レイワアセットマネージメント,0
2113,8011001144785,新規,0,2021-12-27,2021-12-27,株式会社富士,,株式会社,東京都,目黒区,下目黒３丁目１９番８号センチュリーコート４０１,,13,110,1530064,,,,,,,2021-12-27,1,,,,,フジ,0
2114,8011001144793,新規,0,2021-12-27,2021-12-27,Ｓ＆Ｃインベストメント株式会社,,株式会社,東京都,渋谷区,神山町１１番１５号神山フォレスト２Ｆ,,13,113,1500047,,,,,,,2021-12-27,1,,,,,エスアンドシーインベストメント,0
2116,8011003013930,新規,0,2021-12-27,2021-12-27,合同会社ＨＥＡＲＴＳ　ＳＵＰＰＯＲＴＥＲＳ,,合同会社,東京都,渋谷区,代々木２丁目２０番１２号呉羽小野木ビル１階Ａ号,,13,113,1510053,,,,,,,2021-12-27,1,,,,,ハーツサポーターズ,0
2119,8011101097207,新規,0,2021-12-27,2021-12-27,株式会社ユーレム,,株式会社,東京都,新宿区,西新宿３丁目３番１３号西新宿水間ビル６階,,13,104,1600023,,,,,,,2021-12-27,1,,,,,,0
2120,8011101097330,新規,0,2021-12-27,2021-12-27,株式会社ＭＮＣ,,株式会社,東京都,新宿区,西新宿７丁目５番５号Ｐｌａｚａ西新宿ＵＣＦ４階,,13,104,1600023,,,,,,,2021-12-27,1,,,,,エムエヌシー,0
2121,8011101097339,新規,0,2021-12-27,2021-12-27,株式会社新宿東急ホテルズ,,株式会社,東京都,新宿区,歌舞伎町１丁目２９番,,13,104,1600021,,,,,,,2021-12-27,1,,,,,シンジュクトウキュウホテルズ,0
2122,8011101097355,新規,0,2021-12-27,2021-12-27,株式会社ＬＩＮＬＥＥ　ＬＡＮＤ３３,,株式会社,東京都,新宿区,百人町２丁目２４番２８号アーバンコート新宿２０３,,13,104,1690073,,,,,,,2021-12-27,1,,,,,リンリーランドミミー,0
2123,8011101097371,新規,0,2021-12-27,2021-12-27,株式会社Ａ．Ｔ,,株式会社,東京都,新宿区,北新宿３丁目１０番３－２０７号,,13,104,1690074,,,,,,,2021-12-27,1,,,,,エーティー,0
2124,8011103011322,新規,0,2021-12-27,2021-12-27,合同会社ＣＯＲＡＬ　ＣＩＴＹ　ＰＯＯＨ,,合同会社,東京都,新宿区,歌舞伎町２丁目２７番７号第７金嶋ビル,,13,104,1600021,,,,,,,2021-12-27,1,,,,,コーラルシティプー,0
2125,8011301027450,新規,0,2021-12-27,2021-12-27,株式会社創健,,株式会社,東京都,杉並区,高円寺南４丁目３８番７号,,13,115,1660003,,,,,,,2021-12-27,1,,,,,ソウケン,0
2134,8011803004906,新規,0,2021-12-27,2021-12-27,ＤＥＣＯＨＵＢ合同会社,,合同会社,東京都,足立区,梅田１丁目１３番４号,,13,121,1230851,,,,,,,2021-12-27,1,,,,,デコハブ,0
2139,8012401038692,新規,0,2021-12-27,2021-12-27,株式会社サンモール,,株式会社,東京都,三鷹市,大沢２丁目１４番５号,,13,204,1810015,,,,,,,2021-12-27,1,,,,,サンモール,0
2142,8013301048468,新規,0,2021-12-27,2021-12-27,株式会社ＨＡＬＥＥＮ,,株式会社,東京都,豊島区,南池袋２丁目８－１７第一豊南ビル２０１,,13,116,1710022,,,,,,,2021-12-27,1,,,,,ハリーン,0
2144,8013303005962,新規,0,2021-12-27,2021-12-27,合同会社ナレッジ・ラボ,,合同会社,東京都,豊島区,南池袋２丁目８番１号,,13,116,1710022,,,,,,,2021-12-27,1,,,,,ナレッジラボ,0
2152,8020001144489,新規,0,2021-12-27,2021-12-27,株式会社よしひろ住建,,株式会社,神奈川県,横浜市鶴見区,梶山１丁目２５番４０号,,14,101,2300072,,,,,,,2021-12-27,1,,,,,ヨシヒロジュウケン,0
2153,8020001144497,新規,0,2021-12-27,2021-12-27,株式会社丸五警備,,株式会社,神奈川県,横浜市磯子区,上町８番２６号スミカ横浜根岸２０１,,14,107,2350001,,,,,,,2021-12-27,1,,,,,マルゴケイビ,0
2154,8020001144514,新規,0,2021-12-27,2021-12-27,株式会社高塚技建,,株式会社,神奈川県,横浜市泉区,和泉中央南４丁目１番１－４０４号,,14,116,2450023,,,,,,,2021-12-27,1,,,,,タカツカギケン,0
2164,8030001146047,新規,0,2021-12-27,2021-12-27,株式会社ｔｒａｎｓｉｔｉｏｎ,,株式会社,埼玉県,桶川市,北１丁目１８番１９－４号,,11,231,3630011,,,,,,,2021-12-27,1,,,,,トランジション,0
2165,8030001146071,新規,0,2021-12-27,2021-12-27,株式会社ヘリクリサム,,株式会社,埼玉県,久喜市,本町４丁目４番３６号丸冨本町四丁目店舗１４号室,,11,232,3460005,,,,,,,2021-12-27,1,,,,,ヘリクリサム,0
2169,8040001121503,新規,0,2021-12-27,2021-12-27,株式会社イシカワ,,株式会社,千葉県,千葉市中央区,宮崎町６０６番地,,12,101,2600805,,,,,,,2021-12-27,1,,,,,イシカワ,0
2170,8040001121552,新規,0,2021-12-27,2021-12-27,株式会社Ｐｅｒｆｅｃｔ　Ｓｈｉｎｅ,,株式会社,千葉県,習志野市,花咲１丁目１７番２１号,,12,216,2750013,,,,,,,2021-12-27,1,,,,,パーフェクトシャイン,0
2176,8060001034430,新規,0,2021-12-27,2021-12-27,株式会社Ｆｃｏｌｏｒｓ,,株式会社,栃木県,栃木市,川原田町８６８番地,,09,203,3280123,,,,,,,2021-12-27,1,,,,,エフカラーズ,0
2179,8060003003912,新規,0,2021-12-27,2021-12-27,合同会社リメンテ,,合同会社,栃木県,河内郡上三川町,大字西汗１７４４番地１４８,,09,301,3290607,,,,,,,2021-12-27,1,,,,,リメンテ,0
2186,8070005009931,新規,0,2021-12-27,2021-12-27,一般社団法人尾瀬アウトドアスポーツ振興会,,その他の設立登記法人,群馬県,利根郡片品村,大字東小川４６５８番地４７,,10,443,3780414,,,,,,,2021-12-27,1,,,,,オゼアウトドアスポーツシンコウカイ,0
2192,8110001036297,新規,0,2021-12-27,2021-12-27,株式会社ジャパンアスリートマネジメント,,株式会社,新潟県,長岡市,長町１丁目３番地８,,15,202,9400053,,,,,,,2021-12-27,1,,,,,ジャパンアスリートマネジメント,0
2205,8120001242712,新規,0,2021-12-27,2021-12-27,株式会社ｋａｎａＤｅ,,株式会社,大阪府,大阪市都島区,都島本通３丁目２６番６号,,27,102,5340021,,,,,,,2021-12-27,1,,,,,カナデ,0
2206,8120001242720,新規,0,2021-12-27,2021-12-27,株式会社アドフォクシー,,株式会社,大阪府,大阪市西区,土佐堀１丁目１番３２号日宝リバービル５０２,,27,106,5500001,,,,,,,2021-12-27,1,,,,,アドフォクシー,0
2207,8120001242729,新規,0,2021-12-27,2021-12-27,株式会社ＥＴＩ,,株式会社,大阪府,大阪市中央区,久太郎町４丁目２番９号,,27,128,5410056,,,,,,,2021-12-27,1,,,,,イーティーアイ,0
2208,8120001242737,新規,0,2021-12-27,2021-12-27,アクリトータルカーサービス株式会社,,株式会社,大阪府,大阪市平野区,長吉川辺３丁目８番１２号,,27,126,5470014,,,,,,,2021-12-27,1,,,,,アクリトータルカーサビス,0
2209,8120001242745,新規,0,2021-12-27,2021-12-27,株式会社水秀園芸,,株式会社,大阪府,大阪市阿倍野区,西田辺町２丁目２番２３号５Ａ,,27,119,5450014,,,,,,,2021-12-27,1,,,,,ミズヒデエンゲイ,0
2210,8120001242778,新規,0,2021-12-27,2021-12-27,株式会社近畿テクノ,,株式会社,大阪府,大阪市西区,靱本町１丁目７番３号ＰＡＸ本町ビル４階,,27,106,5500004,,,,,,,2021-12-27,1,,,,,キンキテクノ,0
2215,8120003020827,新規,0,2021-12-27,2021-12-27,合同会社絡合グループ,,合同会社,大阪府,大阪市西区,本田４丁目１１番３号,,27,106,5500022,,,,,,,2021-12-27,1,,,,,ラクゴウグループ,0
2216,8120003020843,新規,0,2021-12-27,2021-12-27,合同会社カンエイドリーム,,合同会社,大阪府,大阪市中央区,谷町９丁目２番２７号,,27,128,5420012,,,,,,,2021-12-27,1,,,,,カンエイドリーム,0
2222,8120901045388,新規,0,2021-12-27,2021-12-27,株式会社辻建築,00125238,株式会社,大阪府,吹田市,広芝町１１番１号石田ビル６０５,,27,205,5640052,,,,,,,2021-12-27,1,,,,,ツジケンチク,0
2233,8130003007658,新規,0,2021-12-27,2021-12-27,宇治金属商会合同会社,,合同会社,京都府,宇治市,伊勢田町毛語８４番地,,26,204,6110043,,,,,,,2021-12-27,1,,,,,ウジキンゾクショウカイ,0
2245,8140001124231,新規,0,2021-12-27,2021-12-27,株式会社ラ・メールＭ,,株式会社,兵庫県,南あわじ市,市三條１２４５番地４,,28,224,6560475,,,,,,,2021-12-27,1,,,,,ラメールエム,0
2246,8140001124339,新規,0,2021-12-27,2021-12-27,株式会社Ｉｃｏｎｉｃ　Ｓｐｉｒｉｔｓ　Ｊａｐａｎ,,株式会社,兵庫県,美方郡香美町,香住区下浜６５３番地の５,,28,585,6696564,,,,,,,2021-12-27,1,,,,,アイコニックスピリッツジャパン,0
2251,8150001025197,新規,0,2021-12-27,2021-12-27,株式会社ＳＥＩＫＥＮ,,株式会社,奈良県,葛城市,兵家１４６９番地２,,29,211,6392154,,,,,,,2021-12-27,1,,,,,セイケン,0
2252,8150005009361,新規,0,2021-12-27,2021-12-27,一般社団法人ＳＯＮＩ　ＳＵＭＭＩＴ,,その他の設立登記法人,奈良県,宇陀郡曽爾村,大字今井４９５番地の１,,29,385,6331212,,,,,,,2021-12-27,1,,,,,ソニサミット,0
2259,8170001016913,新規,0,2021-12-27,2021-12-27,株式会社たどん,,株式会社,和歌山県,岩出市,野上野２１０番地の１０,,30,209,6496216,,,,,,,2021-12-27,1,,,,,タドン,0
2261,8180001149258,新規,0,2021-12-27,2021-12-27,株式会社ゼロホワイト,,株式会社,愛知県,名古屋市中川区,柳森町１６０１番地の４,,23,110,4540871,,,,,,,2021-12-27,1,,,,,ゼロホワイト,0
2262,8180001149274,新規,0,2021-12-27,2021-12-27,株式会社ＹＯＲＩ,,株式会社,愛知県,あま市,七宝町秋竹西堤３０７番地２９,,23,237,4970003,,,,,,,2021-12-27,1,,,,,ヨリ,0
2263,8180001149282,新規,0,2021-12-27,2021-12-27,株式会社ｉｌｌｕ,,株式会社,愛知県,名古屋市東区,泉１丁目１６番２０号,,23,102,4610001,,,,,,,2021-12-27,1,,,,,アイエルエルユー,0
2264,8180001149290,新規,0,2021-12-27,2021-12-27,彦建株式会社,,株式会社,愛知県,大府市,追分町４丁目４９番地の６３,,23,223,4740027,,,,,,,2021-12-27,1,,,,,ヒコケン,0
2268,8180003023320,新規,0,2021-12-27,2021-12-27,ＳＵＮｔｒｕｎｋ合同会社,,合同会社,愛知県,半田市,桐ケ丘３丁目１番地の２,,23,205,4750928,,,,,,,2021-12-27,1,,,,,サントランク,0
2279,8190001028972,新規,0,2021-12-27,2021-12-27,株式会社安田興業,,株式会社,三重県,鈴鹿市,柳町１３３０番地の４,,24,207,5130811,,,,,,,2021-12-27,1,,,,,ヤスダコウギョウ,0
2280,8190001028980,新規,0,2021-12-27,2021-12-27,株式会社ＹＭＪ,,株式会社,三重県,松阪市,虹が丘町５３番地８,,24,204,5150042,,,,,,,2021-12-27,1,,,,,ワイエムジェイ,0
2282,8190005011660,新規,0,2021-12-27,2021-12-27,行政書士法人あさあけ,,その他の設立登記法人,三重県,津市,広明町３２８番地津ビル２Ｆ,,24,201,5140006,,,,,,,2021-12-27,1,,,,,アサアケ,0
2283,8200001039571,新規,0,2021-12-27,2021-12-27,エムテク株式会社,,株式会社,岐阜県,美濃市,長瀬２０７番地,,21,207,5013782,,,,,,,2021-12-27,1,,,,,エムテク,0
2303,8290001095846,新規,0,2021-12-27,2021-12-27,株式会社ｅ‐ｍｏｔｏ,,株式会社,福岡県,大川市,大字向島２０８１番地,,40,212,8310005,,,,,,,2021-12-27,1,,,,,イーモト,0
2307,8290003011966,新規,0,2021-12-27,2021-12-27,合同会社ウルプラｐｌｕｓ,,合同会社,福岡県,福岡市中央区,高砂２丁目２３番地８号Ｍｓ高砂ＩＩ９０２,00125251,40,133,8100011,,,,,,,2021-12-27,1,,,,,ウルプラプラス,0
2309,8290005018497,新規,0,2021-12-27,2021-12-27,医療法人若葉会,,その他の設立登記法人,福岡県,小郡市,小郡１１６０番地１,,40,216,8380141,,,,,,,2021-12-27,1,,,,,ワカバカイ,0
2310,8290801028121,新規,0,2021-12-27,2021-12-27,株式会社アカーシヤ,,株式会社,福岡県,北九州市八幡西区,岡田町３番２６－７０４号,,40,109,8060033,,,,,,,2021-12-27,1,,,,,アカーシヤ,0
2326,8340001024345,新規,0,2021-12-27,2021-12-27,株式会社きたやまエステート,,株式会社,鹿児島県,日置市,伊集院町徳重３丁目５番地１,,46,216,8992502,,,,,,,2021-12-27,1,,,,,キタヤマエステート,0
2327,8340003003660,新規,0,2021-12-27,2021-12-27,合同会社ｎｉｃｏｔｔｏ,,合同会社,鹿児島県,姶良市,西餅田６９番地１４,,46,225,8995431,,,,,,,2021-12-27,1,,,,,ニコット,0
2330,8360001029805,新規,0,2021-12-27,2021-12-27,株式会社レモンファクトリー,,株式会社,沖縄県,中頭郡読谷村,字喜名２３４６番地１１地域振興センター２階,,47,324,9040302,,,,,,,2021-12-27,1,,,,,レモンファクトリー,0
2331,8360003011678,新規,0,2021-12-27,2021-12-27,合同会社Ｎ‐ＢＡＳＥ,,合同会社,沖縄県,那覇市,真嘉比１丁目２５番１４号サン・リベルテ３０１,,47,201,9020068,,,,,,,2021-12-27,1,,,,,エヌベース,0
2355,8460105002227,新規,0,2021-12-27,2021-12-27,一般社団法人かしわ野,,その他の設立登記法人,北海道,河西郡中札内村,東一条北５丁目３０番地３,,01,638,0891321,,,,,,,2021-12-27,1,,,,,カシワノ,0
2362,8490001010066,新規,0,2021-12-27,2021-12-27,株式会社ＷｅｓｔＦｏｒｅｓｔ,,株式会社,高知県,高知市,神田２１８番地５,,39,201,7808040,,,,,,,2021-12-27,1,,,,,ウエストフォレスト,0
2367,8700150012171,新規,0,2021-12-27,2015-10-09,横浜トリエンナーレ組織委員会,,その他,神奈川県,横浜市中区,本町６丁目５０番地の１０横浜市役所内,,14,104,2310005,,,,,,,2015-10-09,1,,,,,ヨコハマトリエンナーレソシキイインカイ,0
2378,9010001223375,新規,0,2021-12-27,2021-12-27,株式会社ＥＧＮＩＴＥ,,株式会社,東京都,千代田区,九段南１丁目５番６号りそな九段ビル５Ｆ＿ＫＳフロア,,13,101,1020074,,,,,,,2021-12-27,1,,,,,イグナイト,0
2385,9010003036585,新規,0,2021-12-27,2021-12-27,合同会社メディカル・インベストメント８号,,合同会社,東京都,中央区,日本橋兜町３番１１号三田証券株式会社内,,13,102,1030026,,,,,,,2021-12-27,1,,,,,,0
2387,9010103001836,新規,0,2021-12-27,2021-12-27,合同会社ＢＩＳＨＮＵ,,合同会社,東京都,八王子市,大塚１７３４番地１Ｍ．ＦＩＥＬＤ２０２号,,13,201,1920352,,,,,,,2021-12-27,1,,,,,ビスヌ,0
2400,9010401164649,新規,0,2021-12-27,2021-12-27,株式会社エネフ,,株式会社,東京都,港区,三田２丁目５番３５－２０２号,,13,103,1080073,,,,,,,2021-12-27,1,,,,,エネフ,0
2401,9010401164665,新規,0,2021-12-27,2021-12-27,太陽サービス株式会社,,株式会社,東京都,港区,新橋５丁目２１番１号,,13,103,1050004,,,,,,,2021-12-27,1,,,,,タイヨウサービス,0
2407,9010405020534,新規,0,2021-12-27,2021-12-27,一般社団法人産官学連携ネットワーク,,その他の設立登記法人,東京都,港区,赤坂２丁目１１－１－３,,13,103,1070052,,,,,,,2021-12-27,1,,,,,サンカンガクレンケイネットワーク,0
2415,9010801032595,新規,0,2021-12-27,2021-12-27,良友実業株式会社,,株式会社,東京都,大田区,東海３丁目７－１,,13,111,1430001,,,,,,,2021-12-27,1,,,,,リョウユウジツギョウ,0
2420,9010901050068,新規,0,2021-12-27,2021-12-27,ＨａｂｉＦｉｌｌ株式会社,,株式会社,東京都,世田谷区,三軒茶屋１丁目３５－４三軒茶屋ホーム１０２,,13,112,1540024,,,,,,,2021-12-27,1,,,,,ハビフィル,0
2425,9011001144784,新規,0,2021-12-27,2021-12-27,株式会社Ｃａｕｇｈｔ,,株式会社,東京都,目黒区,東が丘１丁目１０番１０－２０１号,,13,110,1520021,,,,,,,2021-12-27,1,,,,,コート,0
2426,9011001144792,新規,0,2021-12-27,2021-12-27,株式会社ＣＩＳ,,株式会社,東京都,渋谷区,鶯谷町３番１号ＳＵビル６０１号,,13,113,1500032,,,,,,,2021-12-27,1,,,,,シーアイエス,0
2427,9011001144801,新規,0,2021-12-27,2021-12-27,株式会社Ｋｎｉｇｈｔｌｙ,,株式会社,東京都,渋谷区,神宮前６丁目２３番４号桑野ビル２階,,13,113,1500001,,,,,,,2021-12-27,1,,,,,,0
2428,9011001144826,新規,0,2021-12-27,2021-12-27,株式会社１．１ＢＩＲＴＨＳ,,株式会社,東京都,目黒区,五本木１丁目１２番１７号,,13,110,1530053,,,,,,,2021-12-27,1,,,,,ワンピリオドワンバース,0
2429,9011003013913,新規,0,2021-12-27,2021-12-27,アズマリサーチ合同会社,,合同会社,東京都,目黒区,八雲３丁目３－１２,,13,110,1520023,,,,,,,2021-12-27,1,,,,,アズマリサーチ,0
2433,9011101097271,新規,0,2021-12-27,2021-12-27,株式会社Ｒｉｚｅ,,株式会社,東京都,新宿区,西新宿３丁目３番１３号西新宿水間ビル６Ｆ,,13,104,1600023,,,,,,,2021-12-27,1,,,,,ライズ,0
2434,9011101097313,新規,0,2021-12-27,2021-12-27,株式会社アイオタテック,,株式会社,東京都,新宿区,新宿２丁目３番１６－６０３号室,,13,104,1600022,,,,,,,2021-12-27,1,,,,,アイオタテック,0
2435,9011101097354,新規,0,2021-12-27,2021-12-27,株式会社白黒,,株式会社,東京都,新宿区,舟町７番地４６ＬＡＮＤＤＥＮ舟町９０１,,13,104,1600006,,,,,,,2021-12-27,1,,,,,,0
2442,9011803004905,新規,0,2021-12-27,2021-12-27,合同会社トムス,,合同会社,東京都,足立区,江北６丁目１９番４号マストＣ棟１０３号室,,13,121,1230872,,,,,,,2021-12-27,1,,,,,トムス,0
2444,9012801021297,新規,0,2021-12-27,2021-12-27,株式会社Ｇｒｏｕｎｄ　ｐｌｕｓ,,株式会社,東京都,立川市,柴崎町３丁目７番２４号ＭＹビル４階,,13,202,1900023,,,,,,,2021-12-27,1,,,,,グラウンドプラス,0
2455,9020001144488,新規,0,2021-12-27,2021-12-27,株式会社グロビアンストレーディング,,株式会社,神奈川県,川崎市多摩区,生田８丁目１６番４号,,14,135,2140038,,,,,,,2021-12-27,1,,,,,グロビアンストレーディング,0
2456,9020001144496,新規,0,2021-12-27,2021-12-27,ｇｅｎｔｅｎ株式会社,,株式会社,神奈川県,横浜市西区,北幸１丁目１１番１号水信ビル７階,,14,103,2200004,,,,,,,2021-12-27,1,,,,,ゲンテン,0
2457,9020001144521,新規,0,2021-12-27,2021-12-27,Ａ．Ｆａｍｉｌｙ株式会社,,株式会社,神奈川県,横浜市青葉区,荏田町１４７６番地１カーサビラ５Ｈ,,14,117,2250013,,,,,,,2021-12-27,1,,,,,エイドットファミリー,0
2458,9020003021033,新規,0,2021-12-27,2021-12-27,合同会社ダイアウルフ,,合同会社,神奈川県,横浜市港北区,新横浜２丁目１４番８号オフィス新横浜６０９号,,14,109,2220033,,,,,,,2021-12-27,1,,,,,ダイアウルフ,0
2467,9021001074824,新規,0,2021-12-27,2021-12-27,株式会社テレコム湘南,,株式会社,神奈川県,茅ヶ崎市,香川７丁目７番２４号,,14,207,2530082,,,,,,,2021-12-27,1,,,,,テレコムショウナン,0
2476,9030001145997,新規,0,2021-12-27,2021-12-27,株式会社鈴勝ファーム,,株式会社,埼玉県,北葛飾郡杉戸町,大字佐左ヱ門５２４番地,,11,464,3450033,,,,,,,2021-12-27,1,,,,,スズカツファーム,0
2477,9030001146046,新規,0,2021-12-27,2021-12-27,株式会社マルメ,,株式会社,埼玉県,鴻巣市,雷電２丁目１番２６号,,11,217,3650077,,,,,,,2021-12-27,1,,,,,マルメ,0
2478,9030001146054,新規,0,2021-12-27,2021-12-27,オークプラス株式会社,,株式会社,埼玉県,さいたま市南区,太田窪２丁目１２番１号,,11,108,3360015,,,,,,,2021-12-27,1,,,,,オークプラス,0
2484,9040001121502,新規,0,2021-12-27,2021-12-27,株式会社タケクラ,,株式会社,千葉県,野田市,関宿台町２１５番地１,,12,208,2700202,,,,,,,2021-12-27,1,,,,,タケクラ,0
2485,9040001121543,新規,0,2021-12-27,2021-12-27,株式会社ｇｌａｓｓｅａ,,株式会社,千葉県,四街道市,鹿渡６９６番地９,,12,228,2840003,,,,,,,2021-12-27,1,,,,,グラッシー,0
2490,9060001034421,新規,0,2021-12-27,2021-12-27,株式会社オフィス古賀,,株式会社,栃木県,下都賀郡野木町,大字丸林３８６番地２プレシーン野木ハイライズ３０７号,,09,364,3290111,,,,,,,2021-12-27,1,,,,,オフィスコガ,0
2494,9070001038768,新規,0,2021-12-27,2021-12-27,株式会社リッチ,,株式会社,群馬県,桐生市,堤町３丁目２番２３号,,10,203,3760042,,,,,,,2021-12-27,1,,,,,リッチ,0
2499,9080401025547,新規,0,2021-12-27,2021-12-27,株式会社丸豊,,株式会社,静岡県,浜松市中区,千歳町５８－２ＫＩＹＯビル２Ｆ,,22,131,4300934,,,,,,,2021-12-27,1,,,,,マルトヨ,0
2504,9100003006331,新規,0,2021-12-27,2021-12-27,シンエイ合同会社,,合同会社,長野県,伊那市,西箕輪８０６番地１,,20,209,3994501,,,,,,,2021-12-27,1,,,,,シンエイ,0
2520,9120001242736,新規,0,2021-12-27,2021-12-27,クアドロ株式会社,,株式会社,大阪府,寝屋川市,池田本町１９番２１－８０１号,,27,215,5720030,,,,,,,2021-12-27,1,,,,,クアドロ,0
2521,9120001242752,新規,0,2021-12-27,2021-12-27,Ａ・Ｔクラフト株式会社,,株式会社,大阪府,大阪市平野区,瓜破南２丁目４番１０４号,,27,126,5470023,,,,,,,2021-12-27,1,,,,,エイティークラフト,0
2522,9120001242760,新規,0,2021-12-27,2021-12-27,株式会社トライアングルスタイル,,株式会社,大阪府,大阪市西淀川区,大和田３丁目２番８号,,27,113,5550032,,,,,,,2021-12-27,1,,,,,トライアングルスタイル,0
2523,9120001242785,新規,0,2021-12-27,2021-12-27,株式会社Ｂｕｌｌｅｌ,,株式会社,大阪府,大阪市浪速区,難波中１丁目１０－８,,27,111,5560011,,,,,,,2021-12-27,1,,,,,ブルエル,0
2528,9120103004489,新規,0,2021-12-27,2021-12-27,和泉ロングライフ合同会社,,合同会社,大阪府,和泉市,池上町３丁目１４番９６号,,27,219,5940083,,,,,,,2021-12-27,1,,,,,イズミロングライフ,0
2529,9120105009494,新規,0,2021-12-27,2021-12-27,特定非営利活動法人関西軽音楽振興会,,その他の設立登記法人,大阪府,大阪狭山市,半田１丁目４５番地の１（５０９号）,,27,231,5890011,,,,,,,2021-12-27,1,,,,,,0
2530,9120901045370,新規,0,2021-12-27,2021-12-27,株式会社ＭｉＹａＶｉ,,株式会社,大阪府,豊中市,利倉東１丁目１番５号,,27,203,5610846,,,,,,,2021-12-27,1,,,,,ミヤビ,0
2531,9120901045395,新規,0,2021-12-27,2021-12-27,株式会社ＮＡＲＩ,,株式会社,大阪府,茨木市,竹橋町２番２号王子ビル３１０号,,27,211,5670815,,,,,,,2021-12-27,1,,,,,ナリ,0
2541,9130001070780,新規,0,2021-12-27,2021-12-27,株式会社西川製作所,,株式会社,京都府,京都市北区,上賀茂松本町４５番地５,,26,101,6038052,,,,,,,2021-12-27,1,,,,,ニシカワセイサクショ,0
2548,9140001124313,新規,0,2021-12-27,2021-12-27,Ｋ・フィールド株式会社,,株式会社,兵庫県,南あわじ市,湊里１４８４番地,,28,224,6560331,,,,,,,2021-12-27,1,,,,,ケイフィールド,0
2549,9140003017143,新規,0,2021-12-27,2021-12-27,合同会社未来,,合同会社,兵庫県,宝塚市,山本丸橋２丁目１５番３号,,28,214,6650815,,,,,,,2021-12-27,1,,,,,ミライ,0
2554,9150001025205,新規,0,2021-12-27,2021-12-27,ＫＯ．ＣＲＥＡＴＥＳ株式会社,,株式会社,奈良県,橿原市,雲梯町１４９番地の８,,29,205,6340834,,,,,,,2021-12-27,1,,,,,コウクリエイツ,0
2556,9150005009360,新規,0,2021-12-27,2021-12-27,一般社団法人新斎苑を支える市民の会,,その他の設立登記法人,奈良県,奈良市,高畑町６７９番地,,29,201,6308301,,,,,,,2021-12-27,1,,,,,シンサイエンヲササエルシミンノカイ,0
2557,9160001023901,新規,0,2021-12-27,2021-12-27,株式会社ささき洋品店,,株式会社,滋賀県,守山市,守山２丁目１０番２７号,,25,207,5240022,,,,,,,2021-12-27,1,,,,,ササキヨウヒンテン,0
2559,9180001149273,新規,0,2021-12-27,2021-12-27,株式会社徳神,,株式会社,愛知県,名古屋市港区,神宮寺１丁目５１３番地,,23,111,4550834,,,,,,,2021-12-27,1,,,,,トクシン,0
2560,9180001149281,新規,0,2021-12-27,2021-12-27,株式会社ヨシオカ,,株式会社,愛知県,一宮市,更屋敷字門４３番地２,,23,203,4910134,,,,,,,2021-12-27,1,,,,,ヨシオカ,0
2570,9210001018739,新規,0,2021-12-27,2021-12-27,株式会社恐竜総研,,株式会社,福井県,吉田郡永平寺町,松岡兼定島第４号１番地１公立大学法人福井県立大学,,18,322,9101142,,,,,,,2021-12-27,1,,,,,キョウリュウソウケン,0
2573,9220001024612,新規,0,2021-12-27,2021-12-27,株式会社しろやまさん,,株式会社,石川県,かほく市,高松ヤ３３番地１,,17,209,9291215,,,,,,,2021-12-27,1,,,,,シロヤマサン,0
2579,9240001059103,新規,0,2021-12-27,2021-12-27,株式会社ｖｏｙａｇｅ,,株式会社,広島県,広島市南区,松原町５番２－２９０５号,,34,103,7320822,,,,,,,2021-12-27,1,,,,,ボヤージュ,0
2581,9240003005427,新規,0,2021-12-27,2021-12-27,ＧｉｆＴｅｃｔ合同会社,,合同会社,広島県,廿日市市,地御前５丁目１８エスティーム地御前２０１,,34,213,7380042,,,,,,,2021-12-27,1,,,,,ギフテクト,0
2588,9260001036348,新規,0,2021-12-27,2021-12-27,株式会社すぺーすＫ,,株式会社,岡山県,津山市,神戸６８８番地１,,33,203,7080015,,,,,,,2021-12-27,1,,,,,スペースケイ,0
2598,9290001095829,新規,0,2021-12-27,2021-12-27,株式会社松尾,,株式会社,福岡県,大野城市,仲畑１丁目５番２３号オフィスパレア仲畑ＶＡ棟３号,00125253,40,219,8160921,,,,,,,2021-12-27,1,,,,,マツオ,0
2614,9330001029294,新規,0,2021-12-27,2021-12-27,３ＢｌｉｃＫ株式会社,,株式会社,熊本県,熊本市中央区,新屋敷２丁目４番１５号コーポ保仁１０１号室,,43,101,8620975,,,,,,,2021-12-27,1,,,,,スリーブリック,0
2616,9340001024360,新規,0,2021-12-27,2021-12-27,リン奄美株式会社,,株式会社,鹿児島県,奄美市,名瀬小浜町２０番１号,,46,222,8940006,,,,,,,2021-12-27,1,,,,,リンアマミ,0
2626,9380001032426,新規,0,2021-12-27,2021-12-27,株式会社テクノエース,,株式会社,福島県,伊達市,保原町上保原字細田入５番地３,,07,213,9600684,,,,,,,2021-12-27,1,,,,,テクノエース,0
2627,9380001032434,新規,0,2021-12-27,2021-12-27,株式会社サクラ住建,,株式会社,福島県,須賀川市,山寺町３５番地,,07,207,9620062,,,,,,,2021-12-27,1,,,,,サクラジュウケン,0
2644,9430005014349,新規,0,2021-12-27,2021-12-27,一般社団法人いなせ会,,その他の設立登記法人,北海道,札幌市豊平区,平岸二条１４丁目１番２２号,,01,105,0620932,,,,,,,2021-12-27,1,,,,,イナセカイ,0
