sequenceNumber,corporateNumber,process,correct,updateDate,changeDate,name,nameImageId,kind,prefectureName,cityName,streetNumber,addressImageId,prefectureCode,cityCode,postCode,addressOutside,addressOutsideImageId,closeDate,closeCause,successorCorporateNumber,changeCause,assignmentDate,latest,enName,enPrefectureName,enCityName,enAddressOutside,furigana,hihyoji
4,1010002017783,登記記録の閉鎖等,0,2025-12-24,2025-12-10,有限会社ＡＤＰ税務会計コミュニティー,,有限会社,東京都,千代田区,東神田１丁目４番１３号芙蓉東神田ビル五階,,13,101,1010031,,,2025-12-10,清算の結了等,,,2015-10-05,1,,,,,エイディピーゼイムカイケイコミュニティー,0
10,1010003038300,登記記録の閉鎖等,0,2025-12-24,2025-12-11,合同会社オルタナ１４,,合同会社,東京都,千代田区,丸の内１丁目４番１号東京共同会計事務所内,,13,101,1000005,,,2025-12-11,清算の結了等,,,2022-08-01,1,,,,,オルタナフォーティーン,0
20,1010403029279,登記記録の閉鎖等,0,2025-12-24,2025-12-03,０１合同会社,,合同会社,東京都,港区,南青山３丁目１番３６号青山丸竹ビル６階,,13,103,1070062,,,2025-12-03,清算の結了等,,,2023-01-13,1,,,,,ゼロイチ,0
23,1010502017878,登記記録の閉鎖等,0,2025-12-24,2025-12-17,有限会社エヌ・エー・オー,,有限会社,東京都,練馬区,大泉町２丁目５３番４号,,13,120,1780062,,,2025-12-17,清算の結了等,,,2015-10-05,1,,,,,,0
31,1010702012175,登記記録の閉鎖等,0,2025-12-24,2025-12-01,Ｍ’ｓ　ＰＬＡＮＮＩＮＧ　ＯＦＦＩＣＥ株式会社,,株式会社,東京都,渋谷区,富ヶ谷２丁目１４番５号プルミエール２０１,,13,113,1510063,,,2025-12-01,清算の結了等,,,2015-10-05,1,,,,,エムズプランニングオフィス,0
39,1011001060568,登記記録の閉鎖等,0,2025-12-24,2025-12-01,株式会社ベストアンドブライティスト,,株式会社,東京都,渋谷区,猿楽町２番１３号メッツ代官山５階,,13,113,1500033,,,2025-12-01,合併による解散等,4010701029052,令和７年１２月１日東京都渋谷区道玄坂二丁目２８番５号株式会社ＯＮＥＭａｒｋ（4010701029052）に合併し解散,2015-10-05,1,,,,,ベストアンドブライティスト,0
53,1011301006246,登記記録の閉鎖等,0,2025-12-24,2025-12-16,株式会社プランニングプラザ,,株式会社,東京都,杉並区,梅里１丁目２１番２２号,,13,115,1660011,,,2025-12-16,清算の結了等,,,2015-10-05,1,,,,,プランニングプラザ,0
54,1011301016105,登記記録の閉鎖等,0,2025-12-24,2025-12-16,株式会社インターリーフ,,株式会社,東京都,杉並区,上荻４丁目２０番１０号,,13,115,1670043,,,2025-12-16,清算の結了等,,,2015-10-05,1,,,,,インターリーフ,0
62,1011605002395,登記記録の閉鎖等,0,2025-12-24,2025-12-18,特定非営利活動法人あるるハイツ,,その他の設立登記法人,東京都,練馬区,高松５丁目１３番１号,,13,120,1790075,,,2025-12-18,清算の結了等,,,2021-09-07,1,,,,,アルルハイツ,0
86,1021002037845,登記記録の閉鎖等,0,2025-12-24,2025-12-08,有限会社ケイ．オフィス,,有限会社,神奈川県,秦野市,柳町１丁目１０番２６号,,14,211,2591315,,,2025-12-08,清算の結了等,,,2015-10-05,1,,,,,ケイオフィス,0
90,1021003010108,登記記録の閉鎖等,0,2025-12-24,2025-12-05,たね埜合同会社,,合同会社,神奈川県,藤沢市,藤沢１０１番地の１アルスクリオ藤沢５０１号,,14,205,2510052,,,2025-12-05,清算の結了等,,,2021-02-02,1,,,,,タネヤ,0
108,1050002036680,登記記録の閉鎖等,0,2025-12-24,2025-12-15,有限会社マルサ企業,,有限会社,茨城県,取手市,井野台５丁目８番２３号,,08,217,3020015,,,2025-12-15,清算の結了等,,,2015-10-05,1,,,,,マルサキギョウ,0
110,1060001002402,登記記録の閉鎖等,0,2025-12-24,2025-12-22,スパーク株式会社,,株式会社,栃木県,宇都宮市,竹下町４３５番地２４５,,09,201,3213236,,,2025-12-22,清算の結了等,,,2015-10-05,1,,,,,スパーク,0
120,1110001008179,登記記録の閉鎖等,0,2025-12-24,2025-12-19,株式会社ミズテック,,株式会社,新潟県,新潟市江南区,大淵６２６番地１,,15,104,9500000,,,2025-12-19,清算の結了等,,,2015-10-05,1,,,,,ミズテック,0
121,1110001032781,登記記録の閉鎖等,0,2025-12-24,2025-12-18,株式会社三宝商事,,株式会社,新潟県,新潟市西区,鳥原１８３０番地１,,15,107,9501115,,,2025-12-18,清算の結了等,,,2017-10-19,1,,,,,サンポウショウジ,0
145,1120101046053,登記記録の閉鎖等,0,2025-12-24,2025-12-05,株式会社ＴＥＨ整理会社,,株式会社,東京都,千代田区,神田神保町３丁目２番地,,13,101,1010051,,,2025-12-05,清算の結了等,,,2015-10-05,1,,,,,,0
147,1120102002047,登記記録の閉鎖等,0,2025-12-24,2025-12-12,サンゴコー有限会社,,有限会社,大阪府,堺市中区,毛穴町９７番地,,27,142,5998266,,,2025-12-12,清算の結了等,,,2015-10-05,1,,,,,サンゴコー,0
192,1180005004358,登記記録の閉鎖等,0,2025-12-24,2025-12-18,愛知県染加工業協同組合,,その他の設立登記法人,愛知県,名古屋市天白区,池場４丁目１３０９番地,,23,116,4680055,,,2025-12-18,清算の結了等,,,2015-10-05,1,,,,,アイチケンソメカコウギョウ,0
200,1230001004447,登記記録の閉鎖等,0,2025-12-24,2025-12-17,株式会社オータニ,,株式会社,富山県,富山市,本町２番１７号,,16,201,9300029,,,2025-12-17,合併による解散等,5230001003321,令和７年１２月１日富山市本町２番１７号マンテンホテル株式会社（5230001003321）に合併し解散,2015-10-05,1,,,,,オータニ,0
202,1240001001443,登記記録の閉鎖等,0,2025-12-24,2025-12-04,エバルスオーディエス株式会社,,株式会社,広島県,広島市南区,大州５丁目２番１０号,,34,103,7320802,,,2025-12-04,合併による解散等,9240001001527,令和７年１２月１日広島市南区大州五丁目２番１０号株式会社エバルス（9240001001527）に合併し解散,2015-10-05,1,,,,,エバルスオーディエス,0
218,1290001039529,登記記録の閉鎖等,0,2025-12-24,2025-12-18,株式会社ＴＯＪＯ,,株式会社,福岡県,糟屋郡粕屋町,内橋東１丁目２１番１号,,40,349,8112320,,,2025-12-18,清算の結了等,,,2015-10-05,1,,,,,トージョー,0
225,1290005017927,登記記録の閉鎖等,0,2025-12-24,2025-12-01,ＮＰＯ法人玄辰館剣道道場,,その他の設立登記法人,福岡県,古賀市,花見東７丁目１４番５１号,,40,223,8113112,,,2025-12-01,清算の結了等,,,2020-10-23,1,,,,,ゲンタツカンケンドウドウジョウ,0
227,1290805009454,登記記録の閉鎖等,0,2025-12-24,2025-12-10,一般社団法人日本リハビリテーション支援協会,,その他の設立登記法人,福岡県,田川郡糸田町,２２４１番地９,,40,604,8221300,,,2025-12-10,清算の結了等,,,2021-07-28,1,,,,,ニホンリハビリテーションシエンキョウカイ,0
245,1430002000771,登記記録の閉鎖等,0,2025-12-24,2025-12-19,有限会社アサノリフォーム,,有限会社,北海道,札幌市手稲区,富丘三条４丁目７番８号,,01,109,0060013,,,2025-12-19,清算の結了等,,,2015-10-05,1,,,,,アサノリフォーム,0
247,1430002007544,登記記録の閉鎖等,0,2025-12-24,2025-12-18,有限会社晧不動産,,有限会社,北海道,札幌市豊平区,豊平七条１０丁目４番１７号,,01,105,0620907,,,2025-12-18,清算の結了等,,,2015-10-05,1,,,,,ヒノデフドウサン,0
252,1480001000495,登記記録の閉鎖等,0,2025-12-24,2025-12-22,株式会社ケイエス,,株式会社,徳島県,徳島市,津田海岸町５番４３号,,36,201,7708001,,,2025-12-22,清算の結了等,,,2015-10-05,1,,,,,ケイエス,0
253,1480001003226,登記記録の閉鎖等,0,2025-12-24,2025-12-22,株式会社ＦＳサービス,,株式会社,徳島県,徳島市,川内町沖島６００番地,,36,201,7710142,,,2025-12-22,清算の結了等,,,2015-10-05,1,,,,,エフエスサービス,0
273,2010005023687,登記記録の閉鎖等,0,2025-12-24,2025-12-22,一般社団法人創新ホールディングス,,その他の設立登記法人,東京都,中央区,新川２丁目２７番１号,,13,102,1040033,,,2025-12-22,清算の結了等,,,2015-10-05,1,,,,,ソウシンホールディングス,0
275,2010401176485,登記記録の閉鎖等,0,2025-12-24,2025-12-03,ＢＢＣ一号株式会社,,株式会社,東京都,港区,芝５丁目３６－４札の辻スクエア９階,,13,103,1080014,,,2025-12-03,清算の結了等,,,2023-08-18,1,,,,,ビービーシーイチゴウ,0
278,2010402013068,登記記録の閉鎖等,0,2025-12-24,2025-12-04,有限会社矢崎商亊,,有限会社,東京都,港区,六本木３丁目１１番６号,,13,103,1060032,,,2025-12-04,清算の結了等,,,2015-10-05,1,,,,,ヤザキショウジ,0
279,2010403023925,登記記録の閉鎖等,0,2025-12-24,2025-12-03,合同会社大阪レジデンシャルマスターリース,,合同会社,東京都,港区,元赤坂１丁目１番７－１００６号,,13,103,1070051,,,2025-12-03,清算の結了等,,,2020-10-15,1,,,,,オオサカレジデンシャルマスターリース,0
286,2010701039607,登記記録の閉鎖等,0,2025-12-24,2025-12-01,株式会社ｅ‐ｎｅｘｔ,,株式会社,東京都,渋谷区,千駄ヶ谷３丁目２０番１０号,,13,113,1510051,,,2025-12-01,合併による解散等,2011001135014,令和７年１２月１日東京都渋谷区千駄ヶ谷三丁目２０番１０号ＧＲＡＮ株式会社（2011001135014）に合併し解散,2020-07-29,1,,,,,イーネクスト,0
329,2011601005756,登記記録の閉鎖等,0,2025-12-24,2025-12-18,株式会社ビゴラス,,株式会社,東京都,練馬区,旭町１丁目４１番２号,,13,120,1790071,,,2025-12-18,清算の結了等,,,2015-10-05,1,,,,,ビゴラス,0
339,2012403005110,登記記録の閉鎖等,0,2025-12-24,2025-12-18,合同会社一旬,,合同会社,東京都,武蔵野市,吉祥寺南町２丁目４番３号,,13,203,1800003,,,2025-12-18,清算の結了等,,,2021-11-16,1,,,,,イッシュン,0
348,2030001111717,登記記録の閉鎖等,0,2025-12-24,2025-12-03,株式会社ＭＩＮＤ　ＯＮＥ　ＳＴＹＬＥ,,株式会社,東京都,港区,浜松町２丁目２番１５号浜松町ダイヤビル２Ｆ,,13,103,1050013,,,2025-12-03,清算の結了等,,,2015-12-04,1,,,,,マインドワンスタイル,0
361,2060002009115,登記記録の閉鎖等,0,2025-12-24,2025-12-23,柳空調有限会社,,有限会社,栃木県,宇都宮市,東浦町７番１５号,,09,201,3210167,,,2025-12-23,清算の結了等,,,2015-10-05,1,,,,,ヤナギクウチョウ,0
365,2090002004947,登記記録の閉鎖等,0,2025-12-24,2025-12-22,有限会社ケイズニット,,有限会社,山梨県,甲府市,上石田３丁目１９番２２号,,19,201,4000041,,,2025-12-22,清算の結了等,,,2015-10-05,1,,,,,ケイズニット,0
376,2120002022937,登記記録の閉鎖等,0,2025-12-24,2025-12-15,有限会社藤村ビル,,有限会社,大阪府,大阪市西区,北堀江４丁目１４番６号,,27,106,5500014,,,2025-12-15,清算の結了等,,,2015-10-05,1,,,,,,0
386,2130003007465,登記記録の閉鎖等,0,2025-12-24,2025-12-16,合同会社Ｅｓｐｏｉｒ,,合同会社,京都府,木津川市,梅美台２丁目１９番地５,,26,214,6190215,,,2025-12-16,清算の結了等,,,2021-09-08,1,,,,,エスポワール,0
388,2130005015697,登記記録の閉鎖等,0,2025-12-24,2025-12-22,揚重事業協同組合,,その他の設立登記法人,京都府,京都市下京区,高辻通堀川西入ル富永町６８５番地ＭＭＳ－Ｉ,,26,106,6000000,,,2025-12-22,清算の結了等,,,2019-10-02,1,,,,,ヨウジュウ,0
391,2140001128989,登記記録の閉鎖等,0,2025-12-24,2025-12-22,タミファーマシー株式会社,,株式会社,大阪府,大阪市港区,夕凪１丁目１７番２８号トキハイツ夕凪１階,,27,107,5520004,,,2025-12-22,清算の結了等,,,2023-02-07,1,,,,,タミファーマシー,0
396,2180001096431,登記記録の閉鎖等,0,2025-12-24,2025-12-19,株式会社サンエイ電機,,株式会社,愛知県,津島市,江東町２丁目６８番地の１,,23,208,4960855,,,2025-12-19,清算の結了等,,,2015-10-05,1,,,,,サンエイデンキ,0
406,2180002081226,登記記録の閉鎖等,0,2025-12-24,2025-12-19,有限会社横田製作所,,有限会社,愛知県,稲沢市,祖父江町祖父江居中１番１,,23,220,4950001,,,2025-12-19,清算の結了等,,,2015-10-05,1,,,,,ヨコタセイサクショ,0
409,2180301011024,登記記録の閉鎖等,0,2025-12-24,2025-12-15,三装観光株式会社,,株式会社,愛知県,蒲郡市,元町１３番３号,,23,214,4430043,,,2025-12-15,清算の結了等,,,2015-10-05,1,,,,,サンソウカンコウ,0
421,2240001043096,登記記録の閉鎖等,0,2025-12-24,2025-12-19,株式会社オフィス・エムエム,,株式会社,広島県,尾道市,久保町２２８８番地,,34,205,7220042,,,2025-12-19,清算の結了等,,,2015-10-05,1,,,,,オフィスエムエム,0
424,2250002007495,登記記録の閉鎖等,0,2025-12-24,2025-12-22,有限会社美祢ゼネラルサービス,,有限会社,山口県,美祢市,大嶺町東分２７０１番地の１,,35,213,7592212,,,2025-12-22,清算の結了等,,,2015-10-05,1,,,,,ミネゼネラルサービス,0
427,2270001005894,登記記録の閉鎖等,0,2025-12-24,2025-12-22,メタルリボーン株式会社,,株式会社,鳥取県,米子市,夜見町２８４５番地,,31,202,6830851,,,2025-12-22,清算の結了等,,,2015-10-05,1,,,,,メタルリボーン,0
442,2330003004327,登記記録の閉鎖等,0,2025-12-24,2025-12-12,合資会社白石自動車整備工場,,合資会社,熊本県,球磨郡あさぎり町,免田東４２２９番地の１,,43,514,8680408,,,2025-12-12,清算の結了等,,,2025-11-17,1,,,,,,0
453,2370002012302,登記記録の閉鎖等,0,2025-12-24,2025-12-22,有限会社つぎも,,有限会社,宮城県,仙台市青葉区,中央４丁目３番２８号,,04,101,9800021,,,2025-12-22,清算の結了等,,,2015-10-05,1,,,,,ツギモ,0
458,2380001001362,登記記録の閉鎖等,0,2025-12-24,2025-12-18,株式会社フレックス,,株式会社,福島県,福島市,飯坂町平野字乱東後１９番地の２,,07,201,9600231,,,2025-12-18,清算の結了等,,,2015-10-05,1,,,,,フレックス,0
461,2390001014917,登記記録の閉鎖等,0,2025-12-24,2025-12-23,株式会社ラ・ストラーダ,,株式会社,山形県,天童市,久野本３丁目１２番１４－２２２号ブレインくのもとＩＩ,00127490,06,210,9940012,,,2025-12-23,清算の結了等,,,2017-05-15,1,,,,,ラストラーダ,0
462,2410001011399,登記記録の閉鎖等,0,2025-12-24,2025-12-22,株式会社ＧＲＡＮＤ　ＤＥＳＩＧＮ,,株式会社,秋田県,秋田市,泉北２丁目１０番７号,,05,201,0100916,,,2025-12-22,清算の結了等,,,2017-01-11,1,,,,,グランドデザイン,0
499,3010402010064,登記記録の閉鎖等,0,2025-12-24,2025-12-04,有限会社野澤電気商会,,有限会社,東京都,港区,六本木３丁目１１番６号,,13,103,1060032,,,2025-12-04,清算の結了等,,,2015-10-05,1,,,,,ノザワデンキショウカイ,0
500,3010403032371,登記記録の閉鎖等,0,2025-12-24,2025-11-18,メトロホールディングス合同会社,,合同会社,東京都,江東区,豊洲５丁目６番２９－１２３０号,,13,108,1350061,,,2025-11-18,清算の結了等,,,2024-04-05,1,,,,,メトロホールディングス,0
517,3011003019619,登記記録の閉鎖等,0,2025-12-24,2025-11-27,合同会社ＡＫ　Ｅｓｔａｔｅ,,合同会社,東京都,渋谷区,渋谷２丁目１９‐１５宮益坂ビルディング６０９,,13,113,1500002,,,2025-11-27,清算の結了等,,,2024-07-18,1,,,,,エーケーエステート,0
531,3012401010020,登記記録の閉鎖等,0,2025-12-24,2025-12-19,株式会社ＡＷＡ－Ｓ,,株式会社,東京都,狛江市,西野川４丁目３９番６号,,13,219,2010001,,,2025-12-19,清算の結了等,,,2015-10-05,1,,,,,アワーズ,0
544,3020001081489,登記記録の閉鎖等,0,2025-12-24,2025-12-05,株式会社Ｈｅｍｉｓｐｈｅｒｅ　Ｊａｐａｎ,,株式会社,神奈川県,厚木市,中町３丁目２番６号厚木Ｔビル７階,,14,212,2430018,,,2025-12-05,清算の結了等,,,2015-10-05,1,,,,,,0
555,3040001070754,登記記録の閉鎖等,0,2025-12-24,2025-12-04,株式会社ＪＶ,,株式会社,千葉県,野田市,山崎１８６９番地の６,,12,208,2780022,,,2025-12-04,清算の結了等,,,2015-10-05,1,,,,,ジェイブイ,0
558,3040001103596,登記記録の閉鎖等,0,2025-12-24,2025-12-04,株式会社アリッサム,,株式会社,千葉県,千葉市美浜区,高洲３丁目１５番１棟１１０１号,,12,106,2610004,,,2025-12-04,清算の結了等,,,2018-02-20,1,,,,,アリッサム,0
563,3040002008002,登記記録の閉鎖等,0,2025-12-24,2025-12-04,有限会社鉄筋家,,有限会社,千葉県,千葉市緑区,おゆみ野中央６丁目３番地４,,12,105,2660032,,,2025-12-04,清算の結了等,,,2015-10-05,1,,,,,テッキンヤ,0
572,3060002006425,登記記録の閉鎖等,0,2025-12-24,2025-12-22,東和商事有限会社,,有限会社,栃木県,鹿沼市,中田町１１７２番地１,,09,205,3220037,,,2025-12-22,清算の結了等,,,2015-10-05,1,,,,,トウワショウジ,0
575,3060003003223,登記記録の閉鎖等,0,2025-12-24,2025-12-22,贅楽商事合同会社,,合同会社,栃木県,足利市,赤松台２丁目８番地１,,09,202,3260062,,,2025-12-22,清算の結了等,,,2019-11-13,1,,,,,ゼイラクショウジ,0
589,3100001033944,登記記録の閉鎖等,0,2025-12-24,2025-12-22,シューマートコミュニケーションデザイン株式会社,,株式会社,長野県,長野市,稲里町中央３丁目２３番２号,,20,201,3812217,,,2025-12-22,清算の結了等,,,2021-02-09,1,,,,,シューマートコミュニケーションデザイン,0
592,3120001171635,登記記録の閉鎖等,0,2025-12-24,2025-12-22,株式会社堀田,,株式会社,大阪府,大阪市城東区,成育４丁目２０番４号,,27,118,5360007,,,2025-12-22,清算の結了等,,,2015-10-05,1,,,,,ホリタ,0
610,3120905005112,登記記録の閉鎖等,0,2025-12-24,2025-12-23,特定非営利活動法人こころのケアネットワークＩＮおおさか,,その他の設立登記法人,大阪府,高槻市,栄町２丁目７番１６号,,27,207,5690825,,,2025-12-23,清算の結了等,,,2015-10-05,1,,,,,ココロノケアネットワークインオオサカ,0
621,3160001024038,登記記録の閉鎖等,0,2025-12-24,2025-12-22,株式会社江洲経済研究所,,株式会社,滋賀県,高島市,新旭町安井川３００番地７,,25,212,5201533,,,2025-12-22,清算の結了等,,,2022-03-09,1,,,,,ゴウシュウケイザイケンキュウショ,0
632,3180002038530,登記記録の閉鎖等,0,2025-12-24,2025-12-22,有限会社水野自動車,,有限会社,愛知県,名古屋市中川区,打出２丁目３０２番地,,23,110,4540926,,,2025-12-22,清算の結了等,,,2015-10-05,1,,,,,ミズノジドウシャ,0
647,3200003001922,登記記録の閉鎖等,0,2025-12-24,2025-12-17,合資会社飯沼運輸,,合資会社,岐阜県,揖斐郡大野町,大字野１１４６番地,,21,403,5010504,,,2025-12-17,清算の結了等,,,2015-10-05,1,,,,,イイヌマウンユ,0
649,3210001011575,登記記録の閉鎖等,0,2025-12-24,2025-12-22,北日本建設株式会社,,株式会社,福井県,越前市,小野谷町１号２番地,,18,209,9150054,,,2025-12-22,清算の結了等,,,2015-10-05,1,,,,,キタニホンケンセツ,0
653,3240001019120,登記記録の閉鎖等,0,2025-12-24,2025-12-23,株式会社住研建築設計事務所,,株式会社,広島県,広島市佐伯区,八幡東２丁目５番５号,,34,108,7315115,,,2025-12-23,清算の結了等,,,2015-10-05,1,,,,,ジュウケンケンチクセッケイジムショ,0
661,3240005009885,登記記録の閉鎖等,0,2025-12-24,2025-12-05,マピック協同組合,,その他の設立登記法人,東京都,品川区,北品川１丁目１３番７長栄ビル７階,,13,109,1400001,,,2025-12-05,清算の結了等,,,2015-10-05,1,,,,,マピック,0
664,3250005007310,登記記録の閉鎖等,0,2025-12-24,2025-12-19,特定非営利活動法人やまぐち里山環境プロジェクト,,その他の設立登記法人,山口県,山口市,仁保上郷１５６７番第２地,,35,203,7530301,,,2025-12-19,清算の結了等,,,2015-10-05,1,,,,,ヤマグチサトヤマカンキョウプロジェクト,0
690,3340003000976,登記記録の閉鎖等,0,2025-12-24,2025-12-11,合同会社ピュア,,合同会社,鹿児島県,奄美市,名瀬平田町２番９号,,46,222,8940014,,,2025-12-11,清算の結了等,,,2015-10-05,1,,,,,ピュア,0
703,3400003001019,登記記録の閉鎖等,0,2025-12-24,2025-12-18,アスリーエル合同会社,,合同会社,岩手県,盛岡市,西仙北１丁目３２番６号,,03,201,0200864,,,2025-12-18,清算の結了等,,,2015-10-05,1,,,,,アスリーエル,0
708,3430001083535,登記記録の閉鎖等,0,2025-12-24,2025-12-22,株式会社Ｔｈｒｅｅ　ｇｒｏｕｐ,,株式会社,北海道,札幌市中央区,南八条西６丁目７番地２４アン・セリジェ壱番館１Ｆ,,01,101,0640808,,,2025-12-22,清算の結了等,,,2021-03-05,1,,,,,スリーグループ,0
713,3450002007838,登記記録の閉鎖等,0,2025-12-24,2025-12-22,有限会社旭川会計計算サービス,,有限会社,北海道,旭川市,五条通１２丁目左６号,,01,204,0700035,,,2025-12-22,清算の結了等,,,2015-10-05,1,,,,,アサヒカワカイケケイサンサービス,0
715,3470001000420,登記記録の閉鎖等,0,2025-12-24,2025-12-22,株式会社アーネスト・マネジメント北野会計,,株式会社,香川県,高松市,鬼無町鬼無８２６番地,,37,201,7618026,,,2025-12-22,清算の結了等,,,2015-10-05,1,,,,,アーネストマネジメントキタノカイケイ,0
720,3500002009457,登記記録の閉鎖等,0,2025-12-24,2025-12-23,有限会社アクセス,,有限会社,愛媛県,松山市,安城寺町９７番地１３,,38,201,7918006,,,2025-12-23,清算の結了等,,,2015-10-05,1,,,,,アクセス,0
731,4010001041823,登記記録の閉鎖等,0,2025-12-24,2025-12-05,紀州フエルト株式会社,,株式会社,東京都,中央区,晴海１丁目６番６－１８０３号,,13,102,1040053,,,2025-12-05,清算の結了等,,,2015-10-05,1,,,,,キシュウフエルト,0
743,4010003022994,登記記録の閉鎖等,0,2025-12-24,2025-12-05,ＦＭＩＴ合同会社,,合同会社,東京都,中央区,日本橋小伝馬町１４－５,,13,102,1030001,,,2025-12-05,清算の結了等,,,2016-02-01,1,,,,,エフエムアイティ,0
785,4011601027633,登記記録の閉鎖等,0,2025-12-24,2025-11-07,鴻徳商事株式会社,,株式会社,東京都,練馬区,豊玉北４丁目２２－３－４０６号,,13,120,1760012,,,2025-11-07,清算の結了等,,,2024-03-25,1,,,,,コウトクショウジ,0
786,4011602003154,登記記録の閉鎖等,0,2025-12-24,2025-12-19,有限会社草間特殊ミシン商会,,有限会社,東京都,練馬区,南田中４丁目２５番１６－１０５号,,13,120,1770035,,,2025-12-19,清算の結了等,,,2015-10-05,1,,,,,クサマトクシュミシンショウカイ,0
787,4011602005555,登記記録の閉鎖等,0,2025-12-24,2025-12-18,有限会社スペース・コア,,有限会社,東京都,練馬区,中村３丁目１８番３－３０１号,,13,120,1760024,,,2025-12-18,清算の結了等,,,2015-10-05,1,,,,,スペースコア,0
808,4021001006591,登記記録の閉鎖等,0,2025-12-24,2025-12-05,井上工業株式会社,,株式会社,神奈川県,茅ヶ崎市,円蔵３７０番地,,14,207,2530084,,,2025-12-05,清算の結了等,,,2015-10-05,1,,,,,イノウエコウギョウ,0
818,4030001160786,登記記録の閉鎖等,0,2025-12-24,2025-12-01,ｒｉｍａｄ株式会社,,株式会社,東京都,渋谷区,渋谷３丁目１２番２２号,,13,113,1500002,,,2025-12-01,合併による解散等,3011001051128,令和７年１２月１日東京都渋谷区渋谷三丁目１２番２２号株式会社アイズ（3011001051128）に合併し解散,2024-06-12,1,,,,,リマド,0
828,4040003011755,登記記録の閉鎖等,0,2025-12-24,2025-12-03,合同会社小川ブロックアート,,合同会社,千葉県,船橋市,緑台２丁目９番５棟５０３号,,12,204,2740818,,,2025-12-03,清算の結了等,,,2018-06-07,1,,,,,オガワブロックアート,0
834,4060002020128,登記記録の閉鎖等,0,2025-12-24,2025-12-22,有限会社斎藤農園,,有限会社,栃木県,鹿沼市,加園２８２９番地１,,09,205,3220252,,,2025-12-22,清算の結了等,,,2015-10-05,1,,,,,サイトウノウエン,0
835,4060002021308,登記記録の閉鎖等,0,2025-12-24,2025-12-18,有限会社美容室フサコ,,有限会社,栃木県,鹿沼市,幸町１丁目３番２号,,09,205,3220023,,,2025-12-18,清算の結了等,,,2015-10-05,1,,,,,ビヨウシツフサコ,0
840,4080405000336,登記記録の閉鎖等,0,2025-12-24,2025-12-16,医療法人社団ひまわり会,,その他の設立登記法人,静岡県,浜松市中央区,高丘東５丁目１２番１号,,22,138,4338117,,,2025-12-16,清算の結了等,,,2015-10-05,1,,,,,ヒマワリカイ,0
843,4110005010780,登記記録の閉鎖等,0,2025-12-24,2025-12-15,社会福祉法人専修会,,その他の設立登記法人,新潟県,糸魚川市,大字能生小泊１７７２番地１,,15,216,9491351,,,2025-12-15,清算の結了等,,,2015-10-05,1,,,,,センシュウカイ,0
845,4120001159720,登記記録の閉鎖等,0,2025-12-24,2025-12-22,株式会社鈴翔,,株式会社,大阪府,守口市,西郷通４丁目１１番１０号,,27,209,5700034,,,2025-12-22,清算の結了等,,,2015-10-05,1,,,,,スズショウ,0
870,4140001124441,登記記録の閉鎖等,0,2025-12-24,2025-12-22,株式会社ブローノ,,株式会社,大阪府,大阪市西区,南堀江３丁目１番２２号リンクハウス南堀江７０１号,,27,106,5500015,,,2025-12-22,清算の結了等,,,2022-01-07,1,,,,,ブローノ,0
871,4140002037717,登記記録の閉鎖等,0,2025-12-24,2025-12-18,有限会社スポーツターフ研究所,,有限会社,兵庫県,加古郡稲美町,加古１２４３番地,,28,381,6751105,,,2025-12-18,清算の結了等,,,2015-10-05,1,,,,,スポーツターフケンキュウショ,0
888,4190001016816,登記記録の閉鎖等,0,2025-12-24,2025-12-22,株式会社渡辺工機,,株式会社,三重県,四日市市,富士町３番２４号,,24,202,5100013,,,2025-12-22,清算の結了等,,,2015-10-05,1,,,,,ワタナベコウキ,0
892,4210005010003,登記記録の閉鎖等,0,2025-12-24,2025-12-10,一般社団法人日本ダイエット心理学協会,,その他の設立登記法人,福井県,敦賀市,中央町２丁目１１番３３－１０２号センタービル１階,,18,202,9140811,,,2025-12-10,清算の結了等,,,2021-12-08,1,,,,,ニホンダイエットシンリガクキョウカイ,0
895,4230002014194,登記記録の閉鎖等,0,2025-12-24,2025-12-19,有限会社Ｓ・Ｄ産業,,有限会社,富山県,高岡市,戸出吉住６１８番地１,,16,202,9391116,,,2025-12-19,清算の結了等,,,2015-10-05,1,,,,,エスディーサンギョウ,0
905,4260002009398,登記記録の閉鎖等,0,2025-12-24,2025-12-18,有限会社満多夢興業,,有限会社,岡山県,岡山市南区,妹尾８８３番地６,,33,104,7010205,,,2025-12-18,清算の結了等,,,2015-10-05,1,,,,,マンダムコウギョウ,0
907,4270002000281,登記記録の閉鎖等,0,2025-12-24,2025-12-23,有限会社エイダン事務機,,有限会社,鳥取県,鳥取市,南安長３丁目４７番地,,31,201,6800914,,,2025-12-23,清算の結了等,,,2015-10-05,1,,,,,,0
922,4300001006094,登記記録の閉鎖等,0,2025-12-24,2025-12-22,株式会社池田工業,,株式会社,佐賀県,西松浦郡有田町,本町丙１５２２番地,,41,401,8440018,,,2025-12-22,清算の結了等,,,2015-10-05,1,,,,,イケダコウギョウ,0
925,4320001015597,登記記録の閉鎖等,0,2025-12-24,2025-12-18,株式会社楓工業,,株式会社,大分県,大分市,大字関園５１４番地の２,,44,201,8700115,,,2025-12-18,清算の結了等,,,2017-04-14,1,,,,,カエデコウギョウ,0
930,4330002025883,登記記録の閉鎖等,0,2025-12-24,2025-12-22,有限会社瀬崎鮮魚店,,有限会社,熊本県,八代市,大手町２丁目１番１号,,43,202,8660852,,,2025-12-22,清算の結了等,,,2015-10-05,1,,,,,セザキセンギョテン,0
935,4360001015379,登記記録の閉鎖等,0,2025-12-24,2025-12-17,ＦＢＭＣ株式会社,,株式会社,福岡県,福岡市中央区,御所ヶ谷１番６－２０５号Ｄ’グランセ御所ヶ谷,,40,133,8100027,,,2025-12-17,清算の結了等,,,2015-10-05,1,,,,,エフビーエムシー,0
948,4430003012210,登記記録の閉鎖等,0,2025-12-24,2025-12-18,サンエステート合同会社,,合同会社,北海道,札幌市北区,新琴似七条１４丁目２番４号,,01,102,0010907,,,2025-12-18,清算の結了等,,,2020-12-04,1,,,,,サンエステート,0
950,4430005006301,登記記録の閉鎖等,0,2025-12-24,2025-12-22,特定非営利活動法人建設スクエア北海道,,その他の設立登記法人,北海道,札幌市白石区,菊水元町三条２丁目３番２１号,,01,104,0030823,,,2025-12-22,清算の結了等,,,2015-10-05,1,,,,,ケンセツスクエアホッカイドウ,0
951,4430005010906,登記記録の閉鎖等,0,2025-12-24,2025-12-22,公益社団法人夕張市シルバー人材センター,,その他の設立登記法人,北海道,夕張市,南清水沢１丁目１２３番地,,01,209,0680536,,,2025-12-22,清算の結了等,,,2015-10-05,1,,,,,ユウバリシシルバージンザイセンター,0
955,4470005005076,登記記録の閉鎖等,0,2025-12-24,2025-12-22,株式会社リフォ建,,株式会社,香川県,高松市,太田下町２６０２番地５,,37,201,7618073,,,2025-12-22,清算の結了等,,,2015-10-05,1,,,,,リフォケン,0
956,4480001010632,登記記録の閉鎖等,0,2025-12-24,2025-12-22,株式会社ＦＵＪＩＴＡＫＥ,,株式会社,徳島県,那賀郡那賀町,木頭西宇字森廻り８番,,36,368,7716405,,,2025-12-22,清算の結了等,,,2019-03-06,1,,,,,フジタケ,0
982,5010401094552,登記記録の閉鎖等,0,2025-12-24,2025-12-03,株式会社ホログラム,,株式会社,東京都,港区,南青山３丁目１番３１号,,13,103,1070062,,,2025-12-03,合併による解散等,7010401068397,令和７年１２月１日東京都港区南青山三丁目１番３１号株式会社ジェーピーディーエイチ（7010401068397）に合併し解散,2015-10-05,1,,,,,ホログラム,0
985,5010401172853,登記記録の閉鎖等,0,2025-12-24,2025-12-04,株式会社Ｄｒｏｎｅ　Ａｕｔｏｐｉｌｏｔ　Ｌａｂ,,株式会社,東京都,港区,芝浦３丁目１番１号,,13,103,1080023,,,2025-12-04,清算の結了等,,,2023-03-08,1,,,,,ドローンオートパイロットラボ,0
1000,5010601044951,登記記録の閉鎖等,0,2025-12-24,2025-12-15,杉本食品容器株式会社,,株式会社,東京都,墨田区,業平１丁目２番６号,,13,107,1300002,,,2025-12-15,清算の結了等,,,2015-10-05,1,,,,,,0
1021,5011201010848,登記記録の閉鎖等,0,2025-12-24,2025-12-17,株式会社ＮＴコーポレーション,,株式会社,東京都,中野区,新井５丁目２９番１号,,13,114,1650026,,,2025-12-17,清算の結了等,,,2015-10-05,1,,,,,エヌティコーポレーション,0
1022,5011203002125,登記記録の閉鎖等,0,2025-12-24,2025-12-02,タガ商店合同会社,,合同会社,千葉県,柏市,柏１０１５番地１４,,12,217,2770005,,,2025-12-02,清算の結了等,,,2015-10-05,1,,,,,タガショウテン,0
1025,5011401017321,登記記録の閉鎖等,0,2025-12-24,2025-12-22,株式会社リノセンス,,株式会社,東京都,板橋区,新河岸３丁目６番１号,,13,119,1750081,,,2025-12-22,清算の結了等,,,2015-10-05,1,,,,,リノセンス,0
1026,5011401024441,登記記録の閉鎖等,0,2025-12-24,2025-12-17,Ｆ・Ｉ・Ａ情報株式会社,,株式会社,東京都,板橋区,三園１丁目２９番１７－２０９号,,13,119,1750091,,,2025-12-17,清算の結了等,,,2022-07-29,1,,,,,エフアイエイジョウホウ,0
1037,5013301036079,登記記録の閉鎖等,0,2025-12-24,2025-12-18,株式会社ゼンシン,,株式会社,東京都,練馬区,西大泉４丁目１番２２号,,13,120,1780065,,,2025-12-18,清算の結了等,,,2015-10-05,1,,,,,ゼンシン,0
1039,5020001033570,登記記録の閉鎖等,0,2025-12-24,2025-12-04,株式会社エス・アンド・イー,,株式会社,神奈川県,鎌倉市,岡本１丁目１５番３号,,14,204,2470072,,,2025-12-04,清算の結了等,,,2015-10-05,1,,,,,エスアンドイー,0
1041,5020001110543,登記記録の閉鎖等,0,2025-12-24,2025-12-22,株式会社ミヤザワ,,株式会社,神奈川県,川崎市麻生区,細山６丁目６番５号,,14,137,2150001,,,2025-12-22,清算の結了等,,,2015-10-05,1,,,,,ミヤザワ,0
1047,5020002036572,登記記録の閉鎖等,0,2025-12-24,2025-12-19,有限会社和光輸送,,有限会社,神奈川県,横浜市港北区,新羽町１７３番地,,14,109,2230057,,,2025-12-19,清算の結了等,,,2015-10-05,1,,,,,ワコウユソウ,0
1054,5021001060654,登記記録の閉鎖等,0,2025-12-24,2025-12-04,株式会社Ｃｅ‐ｎｅｘｔ,,株式会社,神奈川県,相模原市中央区,中央３丁目１４番１２号山久第一ビル５Ｆ,,14,152,2520239,,,2025-12-04,清算の結了等,,,2016-11-10,1,,,,,,0
1070,5040001074134,登記記録の閉鎖等,0,2025-12-24,2025-12-01,株式会社青木商店,,株式会社,千葉県,鴨川市,江見青木８６番地の１,,12,223,2992842,,,2025-12-01,合併による解散等,6040001074133,令和７年１１月３０日千葉県鴨川市江見青木８６番地の１青木総業株式会社（6040001074133）に合併し解散,2015-10-05,1,,,,,アオキショウテン,0
1077,5040005002231,登記記録の閉鎖等,0,2025-12-24,2025-12-04,特定非営利活動法人医療・福祉ネットワーク千葉,,その他の設立登記法人,千葉県,千葉市中央区,仁戸名町１０７番地５,,12,101,2600801,,,2025-12-04,清算の結了等,,,2015-10-05,1,,,,,イリョウフクシネットワークチバ,0
1083,5080002009738,登記記録の閉鎖等,0,2025-12-24,2025-12-19,有限会社グローアップハウス,,有限会社,静岡県,静岡市清水区,大手１丁目７番１６号,,22,103,4240808,,,2025-12-19,清算の結了等,,,2015-10-05,1,,,,,グローアップハウス,0
1086,5100001021922,登記記録の閉鎖等,0,2025-12-24,2025-12-22,株式会社恵プランニング,,株式会社,長野県,上伊那郡辰野町,中央１９２番地,,20,382,3990427,,,2025-12-22,清算の結了等,,,2015-10-05,1,,,,,ケイプランニング,0
1090,5110005001713,登記記録の閉鎖等,0,2025-12-24,2025-12-16,新潟魚市場仲買協同組合,,その他の設立登記法人,新潟県,新潟市江南区,茗荷谷７１１番地,,15,104,9500114,,,2025-12-16,清算の結了等,,,2015-10-05,1,,,,,ニイガタウオイチバナカガイ,0
1093,5120001227583,登記記録の閉鎖等,0,2025-12-24,2025-12-22,Ｔａｓｔｙ　Ｌｅｍｏｎ株式会社,,株式会社,大阪府,大阪市生野区,巽中３丁目１１番４号,00119105,27,116,5440013,,,2025-12-22,清算の結了等,,,2020-03-04,1,,,,,テイスティーレモン,0
1108,5120102001706,登記記録の閉鎖等,0,2025-12-24,2025-12-17,有限会社光伸設計,,有限会社,大阪府,堺市西区,家原寺町２丁１６番３号,,27,144,5938304,,,2025-12-17,清算の結了等,,,2015-10-05,1,,,,,コウシンセッケイ,0
1119,5130002034490,登記記録の閉鎖等,0,2025-12-24,2025-12-17,有限会社西田仏香堂,,有限会社,京都府,舞鶴市,字浜４２２番地,,26,202,6250036,,,2025-12-17,清算の結了等,,,2015-10-05,1,,,,,ニシダブッコウドウ,0
1120,5130003004022,登記記録の閉鎖等,0,2025-12-24,2025-12-19,合同会社ＳＯＮＡＥ,,合同会社,京都府,向日市,寺戸町八ノ坪１４１番地,,26,208,6170002,,,2025-12-19,清算の結了等,,,2015-10-05,1,,,,,ソナエ,0
1125,5160001023979,登記記録の閉鎖等,0,2025-12-24,2025-12-22,株式会社奥川商店,,株式会社,滋賀県,東近江市,神郷町６５番地,,25,213,5211213,,,2025-12-22,清算の結了等,,,2022-02-04,1,,,,,,0
1127,5170005001889,登記記録の閉鎖等,0,2025-12-24,2025-12-23,特定非営利活動法人キャリア・サポート和歌山,,その他の設立登記法人,和歌山県,和歌山市,六番丁１３番地,,30,201,6408154,,,2025-12-23,清算の結了等,,,2015-10-05,1,,,,,キャリアサポートワカヤマ,0
1130,5180001061647,登記記録の閉鎖等,0,2025-12-24,2025-12-18,株式会社ビーベスト,,株式会社,愛知県,名古屋市南区,大堀町７番１３号,,23,112,4570002,,,2025-12-18,清算の結了等,,,2015-10-05,1,,,,,ビーベスト,0
1142,5220001020680,登記記録の閉鎖等,0,2025-12-24,2025-12-22,株式会社五大陸,,株式会社,石川県,金沢市,新保本４丁目２７番地ＳＵＮＺＥＵＳビル１３０２号室,,17,201,9218062,,,2025-12-22,清算の結了等,,,2015-12-01,1,,,,,ゴタイリク,0
1150,5240002015315,登記記録の閉鎖等,0,2025-12-24,2025-12-19,有限会社創妍,,有限会社,広島県,広島市安佐南区,伴東２丁目２番２０号,,34,105,7313164,,,2025-12-19,清算の結了等,,,2015-10-05,1,,,,,ソウケン,0
1156,5250001013327,登記記録の閉鎖等,0,2025-12-24,2025-12-22,長和運送株式会社,,株式会社,山口県,岩国市,本郷町本郷１７４０番１地,,35,208,7400602,,,2025-12-22,清算の結了等,,,2015-10-05,1,,,,,,0
1163,5290001080108,登記記録の閉鎖等,0,2025-12-24,2025-12-08,株式会社クリエイティブおおき,,株式会社,福岡県,三潴郡大木町,大字横溝１７７番地,,40,522,8300405,,,2025-12-08,清算の結了等,,,2018-01-10,1,,,,,クリエイティブオオキ,0
1180,5320201000076,登記記録の閉鎖等,0,2025-12-24,2025-12-17,児玉産業株式会社,,株式会社,大分県,臼杵市,大字臼杵７２番地の２９,,44,206,8750041,,,2025-12-17,清算の結了等,,,2015-10-05,1,,,,,コダマサンギョウ,0
1184,5330003009901,登記記録の閉鎖等,0,2025-12-24,2025-12-17,合同会社天草蝶鮫,,合同会社,熊本県,天草市,五和町城河原１丁目２８００番地１,,43,215,8632114,,,2025-12-17,清算の結了等,,,2023-07-07,1,,,,,アマクサチョウザメ,0
1188,5370002001161,登記記録の閉鎖等,0,2025-12-24,2025-12-22,有限会社たいよう藥局,,有限会社,宮城県,仙台市泉区,山の寺３丁目７番１号,,04,105,9813103,,,2025-12-22,清算の結了等,,,2015-10-05,1,,,,,タイヨウヤッキョク,0
1189,5370002005146,登記記録の閉鎖等,0,2025-12-24,2025-12-22,有限会社佐藤葬儀社,,有限会社,宮城県,仙台市若林区,河原町２丁目１５番８号,,04,103,9840816,,,2025-12-22,清算の結了等,,,2015-10-05,1,,,,,サトウソウギシャ,0
1197,5370205001883,登記記録の閉鎖等,0,2025-12-24,2025-12-16,特定非営利活動法人美里町体育協会,,その他の設立登記法人,宮城県,遠田郡美里町,北浦字下新田９７番地１美里町農業者トレーニングセンター内,,04,505,9870005,,,2025-12-16,清算の結了等,,,2015-10-05,1,,,,,ミサトマチタイイクキョウカイ,0
1204,5390002003148,登記記録の閉鎖等,0,2025-12-24,2025-12-22,有限会社ロジステーション,,有限会社,山形県,天童市,駅西２丁目１番２号,,06,210,9940047,,,2025-12-22,清算の結了等,,,2015-10-05,1,,,,,ロジステーション,0
1209,5430002054491,登記記録の閉鎖等,0,2025-12-24,2025-12-19,有限会社サワヤ食品,,有限会社,北海道,小樽市,花園２丁目２番２号,,01,203,0470024,,,2025-12-19,清算の結了等,,,2015-10-05,1,,,,,サワヤショクヒン,0
1214,5460101007736,登記記録の閉鎖等,0,2025-12-24,2025-12-18,ゆいまーる株式会社,,株式会社,北海道,帯広市,西六条南１３丁目１２番地１,,01,207,0800016,,,2025-12-18,清算の結了等,,,2025-07-31,1,,,,,ユイマール,0
1217,5462502000055,登記記録の閉鎖等,0,2025-12-24,2025-12-22,有限会社和泉薬局,,有限会社,北海道,目梨郡羅臼町,富士見町３２番地８,,01,694,0861831,,,2025-12-22,清算の結了等,,,2015-10-05,1,,,,,イズミヤッキョク,0
1219,5470005001628,登記記録の閉鎖等,0,2025-12-24,2025-12-23,医療法人社団住谷小児科医院,,その他の設立登記法人,香川県,高松市,郷東町２５番地４,,37,201,7618031,,,2025-12-23,清算の結了等,,,2015-10-05,1,,,,,スミタニショウニカイイン,0
1237,6010003020311,登記記録の閉鎖等,0,2025-12-24,2025-12-10,合同会社山口彦島メガソーラー,,合同会社,東京都,千代田区,丸の内１丁目４番１号東京共同会計事務所内,,13,101,1000005,,,2025-12-10,清算の結了等,,,2015-10-05,1,,,,,ヤマグチヒコシマメガソーラー,0
1240,6010003028552,登記記録の閉鎖等,0,2025-12-24,2025-12-08,Ｉｎｔｅｒｔａｐｅ　Ｐｏｌｙｍｅｒ　Ｊａｐａｎ合同会社,,合同会社,東京都,千代田区,神田小川町１丁目１０番地２ＡＴＥＬＩＥＲ－ＹＯＵＲＳ小川町９０２号室,,13,101,1010052,,,2025-12-08,清算の結了等,,,2018-10-26,1,,,,,,0
1259,6010601050123,登記記録の閉鎖等,0,2025-12-24,2025-12-15,Ｃ＆Ｊ株式会社,,株式会社,東京都,江東区,豊洲３丁目６番５－３１１４号,,13,108,1350061,,,2025-12-15,清算の結了等,,,2016-07-29,1,,,,,シーアンドジェイ,0
1265,6010901037150,登記記録の閉鎖等,0,2025-12-24,2025-12-23,株式会社キララ,,株式会社,東京都,世田谷区,北沢４丁目３２番２５号,,13,112,1550031,,,2025-12-23,清算の結了等,,,2015-12-03,1,,,,,キララ,0
1269,6011001092846,登記記録の閉鎖等,0,2025-12-24,2025-11-28,株式会社ＭｏｔｙＪｅｅＬ,,株式会社,東京都,渋谷区,渋谷２丁目１９－１５宮益坂ビルディング６０９,,13,113,1500002,,,2025-11-28,清算の結了等,,,2015-10-05,1,,,,,モティジール,0
1277,6011002008140,登記記録の閉鎖等,0,2025-12-24,2025-12-01,有限会社千和企画,,有限会社,東京都,渋谷区,千駄ヶ谷１丁目３０番１０号,,13,113,1510051,,,2025-12-01,合併による解散等,9011001021604,令和７年１２月１日東京都渋谷区千駄ケ谷一丁目２８番１号北ア地熱開発株式会社（9011001021604）に合併し解散,2015-10-05,1,,,,,センワキカク,0
1288,6011402004433,登記記録の閉鎖等,0,2025-12-24,2025-12-22,有限会社しなのや洋服店,,有限会社,東京都,板橋区,大山町３５番１号,,13,119,1730023,,,2025-12-22,清算の結了等,,,2015-10-05,1,,,,,シナノヤヨウフクテン,0
1293,6011801024602,登記記録の閉鎖等,0,2025-12-24,2025-12-19,株式会社大誠電設,,株式会社,東京都,葛飾区,水元５丁目５番３７号,,13,122,1250032,,,2025-12-19,清算の結了等,,,2015-10-05,1,,,,,タイセイケンセツ,0
1298,6012401030197,登記記録の閉鎖等,0,2025-12-24,2025-12-22,クレッシェンド株式会社,,株式会社,東京都,三鷹市,下連雀７丁目３番１－８０４号,,13,204,1810013,,,2025-12-22,清算の結了等,,,2015-10-05,1,,,,,クレッシェンド,0
1301,6012405002993,登記記録の閉鎖等,0,2025-12-24,2025-12-22,特定非営利活動法人ＡＣＴたま,,その他の設立登記法人,東京都,三鷹市,下連雀３丁目１２番２号サンラックイトー３０１,,13,204,1810013,,,2025-12-22,清算の結了等,,,2015-10-05,1,,,,,エーティーシータマ,0
1312,6020002066841,登記記録の閉鎖等,0,2025-12-24,2025-12-23,有限会社メゾンド岸井,,有限会社,神奈川県,横浜市泉区,岡津町１５７９番地,,14,116,2450003,,,2025-12-23,清算の結了等,,,2015-10-05,1,,,,,メゾンドキシイ,0
1313,6020002072740,登記記録の閉鎖等,0,2025-12-24,2025-12-18,有限会社十倉プランニング,,有限会社,神奈川県,横浜市神奈川区,片倉３丁目２９番７－５０１号,,14,102,2210865,,,2025-12-18,清算の結了等,,,2015-10-05,1,,,,,トクラプランニング,0
1324,6040001062212,登記記録の閉鎖等,0,2025-12-24,2025-12-12,株式会社相互自動車,,株式会社,千葉県,香取市,小見川１９５番地２,,12,236,2890313,,,2025-12-12,清算の結了等,,,2015-10-05,1,,,,,ソウゴジドウシャ,0
1326,6040001113618,登記記録の閉鎖等,0,2025-12-24,2025-12-04,蟻コーポレーション株式会社,,株式会社,千葉県,四街道市,四街道１丁目２番６号なでしこビル１階,,12,228,2840005,,,2025-12-04,清算の結了等,,,2020-05-14,1,,,,,アリコーポレーション,0
1340,6080101013160,登記記録の閉鎖等,0,2025-12-24,2025-12-19,株式会社アールシー,,株式会社,静岡県,伊東市,吉田１０２６番地の３０,,22,208,4140051,,,2025-12-19,清算の結了等,,,2015-10-05,1,,,,,アールシー,0
1347,6110002029574,登記記録の閉鎖等,0,2025-12-24,2025-12-19,ライン精工有限会社,,有限会社,新潟県,長岡市,浦瀬町１９１番地,,15,202,9400805,,,2025-12-19,清算の結了等,,,2015-10-05,1,,,,,ラインセイコウ,0
1353,6120001239082,登記記録の閉鎖等,0,2025-12-24,2025-12-22,ウィズライト株式会社,,株式会社,大阪府,大阪市浪速区,日本橋東３丁目１５番３－４０１,,27,111,5560006,,,2025-12-22,清算の結了等,,,2021-07-16,1,,,,,ウィズライト,0
1365,6130001023601,登記記録の閉鎖等,0,2025-12-24,2025-12-22,株式会社ビー・エッチ・シー,,株式会社,滋賀県,草津市,笠山１丁目１番２５号,,25,206,5250072,,,2025-12-22,清算の結了等,,,2015-10-05,1,,,,,,0
1386,6180003026523,登記記録の閉鎖等,0,2025-12-24,2025-12-15,合同会社ＨＩＭＡＲＩＮＯ,,合同会社,愛知県,名古屋市名東区,猪高台１丁目１０２６番地（チサンマンションアルコート上社ＩＩ番館５０１号）,00134187,23,115,4650028,,,2025-12-15,清算の結了等,,,2024-03-25,1,,,,,,0
1388,6180302014377,登記記録の閉鎖等,0,2025-12-24,2025-12-16,有限会社丸山軽合金鋳造所,,有限会社,愛知県,豊川市,一宮町上新切４４３番地,,23,207,4411231,,,2025-12-16,清算の結了等,,,2015-10-05,1,,,,,マルヤマケイゴウキンチュウゾウショ,0
1396,6210003001943,登記記録の閉鎖等,0,2025-12-24,2025-12-18,合同会社ＴｈｅｒａＷｅｌｌ,,合同会社,福井県,吉田郡永平寺町,飯島第１８号６８番地,,18,322,9101217,,,2025-12-18,清算の結了等,,,2025-08-07,1,,,,,セラウェル,0
1399,6220002002363,登記記録の閉鎖等,0,2025-12-24,2025-12-23,有限会社倉下工務店,,有限会社,石川県,金沢市,西金沢２丁目１７８番地１３,,17,201,9218054,,,2025-12-23,清算の結了等,,,2015-10-05,1,,,,,クラシタコウムテン,0
1403,6240002000836,登記記録の閉鎖等,0,2025-12-24,2025-12-19,有限会社アミコーポレーション,,有限会社,広島県,広島市安佐北区,落合南１丁目１１番３４号,,34,106,7391732,,,2025-12-19,清算の結了等,,,2015-10-05,1,,,,,アミコーポレーション,0
1414,6290002055248,登記記録の閉鎖等,0,2025-12-24,2025-12-18,有限会社境熔接所,,有限会社,福岡県,大牟田市,大字三池７４６番地の３,,40,202,8370921,,,2025-12-18,清算の結了等,,,2015-10-05,1,,,,,サカイヨウセツショ,0
1433,6380002001102,登記記録の閉鎖等,0,2025-12-24,2025-12-18,有限会社熊坂興産,,有限会社,福島県,福島市,松川町沼袋字戸ノ内５６番地,,07,201,9601231,,,2025-12-18,清算の結了等,,,2015-10-05,1,,,,,クマサカコウサン,0
1435,6380005002386,登記記録の閉鎖等,0,2025-12-24,2025-12-23,特定非営利活動法人福島県松川運動記念会,,その他の設立登記法人,福島県,福島市,舟場町３番２６号,,07,201,9608103,,,2025-12-23,清算の結了等,,,2015-10-05,1,,,,,フクシマケンマツカワウンドウキネンカイ,0
1437,6390002006182,登記記録の閉鎖等,0,2025-12-24,2025-12-23,有限会社サトウ設備工業,,有限会社,山形県,山形市,蔵王半郷６４２番地３,,06,201,9902305,,,2025-12-23,清算の結了等,,,2015-10-05,1,,,,,サトウセツビコウギョウ,0
1443,6430001082113,登記記録の閉鎖等,0,2025-12-24,2025-12-22,産興企画株式会社,,株式会社,北海道,札幌市豊平区,美園七条６丁目１番２８－４０２号,,01,105,0620007,,,2025-12-22,清算の結了等,,,2020-08-12,1,,,,,サンコウキカク,0
1468,7010001163078,登記記録の閉鎖等,0,2025-12-24,2025-12-01,グローバルペットニュートリション株式会社,,株式会社,東京都,新宿区,西新宿８丁目１７番１号,,13,104,1600023,,,2025-12-01,合併による解散等,2010001146847,令和７年１２月１日東京都新宿区西新宿八丁目１７番１号マーケティングパートナー株式会社（2010001146847）に合併し解散,2015-10-05,1,,,,,グローバルペットニュートリション,0
1478,7010002012721,登記記録の閉鎖等,0,2025-12-24,2025-12-05,東和工業有限会社,,有限会社,東京都,千代田区,神田多町２丁目４番地１６,,13,101,1010046,,,2025-12-05,清算の結了等,,,2015-10-05,1,,,,,トウワコウギョウ,0
1479,7010003039490,登記記録の閉鎖等,0,2025-12-24,2025-12-01,Ｔｏｋｙｏ　Ｃｏｎｆｉｄｅｎｔｉａｌ株式会社,,株式会社,東京都,渋谷区,恵比寿１丁目５番９号,,13,113,1500013,,,2025-12-01,合併による解散等,8010001246955,令和７年１２月１日東京都渋谷区恵比寿一丁目５番９号Ｅａｔ　Ｍｅ株式会社（8010001246955）に合併し解散,2023-01-10,1,,,,,トウキョウコンフィデンシャル,0
1495,7010403009259,登記記録の閉鎖等,0,2025-12-24,2025-12-04,合同会社アントレサポート,,合同会社,東京都,港区,赤坂９丁目１番７号,,13,103,1070052,,,2025-12-04,清算の結了等,,,2015-10-05,1,,,,,,0
1510,7010603009488,登記記録の閉鎖等,0,2025-12-24,2025-12-16,合同会社猫の手,,合同会社,東京都,江東区,塩浜１丁目１番１３－３１１号,,13,108,1350043,,,2025-12-16,清算の結了等,,,2022-04-12,1,,,,,ネコノテ,0
1522,7011001114888,登記記録の閉鎖等,0,2025-12-24,2025-12-16,株式会社アニュータ,,株式会社,東京都,豊島区,東池袋３丁目２２番１７号東池袋セントラルプレイス４Ｆ,,13,116,1700013,,,2025-12-16,清算の結了等,,,2017-02-14,1,,,,,アニュータ,0
1538,7011501027004,登記記録の閉鎖等,0,2025-12-24,2025-12-17,オーディー株式会社,,株式会社,埼玉県,草加市,氷川町２１４８番地１９,,11,221,3400034,,,2025-12-17,清算の結了等,,,2021-06-09,1,,,,,オーディー,0
1543,7011802013909,登記記録の閉鎖等,0,2025-12-24,2025-12-16,有限会社柴山製菓,,有限会社,東京都,足立区,古千谷本町１丁目２番２０号,,13,121,1210832,,,2025-12-16,清算の結了等,,,2015-10-05,1,,,,,シバヤマセイカ,0
1583,7050001014789,登記記録の閉鎖等,0,2025-12-24,2025-12-17,株式会社エムフーズ,,株式会社,茨城県,坂東市,逆井３１２５番地４,,08,228,3060501,,,2025-12-17,清算の結了等,,,2015-10-05,1,,,,,エムフーズ,0
1602,7120001167332,登記記録の閉鎖等,0,2025-12-24,2025-12-22,株式会社今村,,株式会社,大阪府,大阪市鶴見区,今津北１丁目６－３８,,27,124,5380041,,,2025-12-22,清算の結了等,,,2015-10-05,1,,,,,イマムラ,0
1618,7120102011199,登記記録の閉鎖等,0,2025-12-24,2025-12-17,有限会社ライフステア,,有限会社,大阪府,堺市東区,野尻町３８２番地７,,27,143,5998116,,,2025-12-17,清算の結了等,,,2015-10-05,1,,,,,ライフステア,0
1619,7120103001769,登記記録の閉鎖等,0,2025-12-24,2025-12-16,合同会社ナンバーワン,,合同会社,大阪府,堺市南区,豊田５８７番地,,27,145,5900106,,,2025-12-16,清算の結了等,,,2015-10-05,1,,,,,ナンバーワン,0
1636,7150002011503,登記記録の閉鎖等,0,2025-12-24,2025-12-22,有限会社エス・アンド・ケー,,有限会社,奈良県,葛城市,新庄２４番地,,29,211,6392147,,,2025-12-22,清算の結了等,,,2015-10-05,1,,,,,エスアンドケー,0
1643,7180001149655,登記記録の閉鎖等,0,2025-12-24,2025-12-19,株式会社大輝建創,,株式会社,愛知県,一宮市,常願通７丁目９番地３,,23,203,4910063,,,2025-12-19,清算の結了等,,,2022-01-20,1,,,,,ダイキケンソウ,0
1659,7190002011937,登記記録の閉鎖等,0,2025-12-24,2025-12-22,有限会社オクムラ自動車,,有限会社,三重県,志摩市,磯部町穴川８４０番地１７４,,24,215,5170213,,,2025-12-22,清算の結了等,,,2015-10-05,1,,,,,オクムラジドウシャ,0
1660,7220001004624,登記記録の閉鎖等,0,2025-12-24,2025-12-22,株式会社どんすきー,,株式会社,石川県,金沢市,石引４丁目２番１号,,17,201,9200935,,,2025-12-22,清算の結了等,,,2015-10-05,1,,,,,ドンスキー,0
1665,7250001019165,登記記録の閉鎖等,0,2025-12-24,2025-12-22,株式会社シーエスサービス,,株式会社,山口県,防府市,大字台道字後地１５６２番１,,35,206,7471232,,,2025-12-22,清算の結了等,,,2021-10-04,1,,,,,シーエスサービス,0
1686,7350002015599,登記記録の閉鎖等,0,2025-12-24,2025-12-19,有限会社都城フーズ,,有限会社,宮崎県,都城市,高崎町縄瀬２５３番地,,45,202,8894503,,,2025-12-19,清算の結了等,,,2015-10-05,1,,,,,ミヤコノジョウフーズ,0
1690,7360003007941,登記記録の閉鎖等,0,2025-12-24,2025-12-12,合同会社仁愛,,合同会社,沖縄県,名護市,大南２丁目９番３号新田アパート１０１号,,47,209,9050015,,,2025-12-12,合併による解散等,7360001027280,令和７年１１月３０日沖縄県名護市大中三丁目２１番１号株式会社ＰＡＳ（7360001027280）に合併し解散,2016-12-21,1,,,,,トア,0
1691,7370002004006,登記記録の閉鎖等,0,2025-12-24,2025-12-17,有限会社メディカル仙台,,有限会社,宮城県,仙台市太白区,金剛沢３丁目１番１号,,04,104,9820803,,,2025-12-17,清算の結了等,,,2015-10-05,1,,,,,メディカルセンダイ,0
1698,7390001014788,登記記録の閉鎖等,0,2025-12-24,2025-12-22,株式会社くらがね,,株式会社,山形県,南陽市,三間通１４４番地８くらがね荘月山,,06,213,9992232,,,2025-12-22,清算の結了等,,,2017-02-06,1,,,,,クラガネ,0
1729,8010003017314,登記記録の閉鎖等,0,2025-12-24,2025-12-10,赤坂二丁目合同会社,,合同会社,東京都,千代田区,丸の内１丁目４番１号東京共同会計事務所内,,13,101,1000005,,,2025-12-10,清算の結了等,,,2015-10-05,1,,,,,アカサカニチョウメ,0
1735,8010401190480,登記記録の閉鎖等,0,2025-12-24,2025-12-11,ムニノ株式会社,,株式会社,東京都,港区,六本木６丁目１０番１号,,13,103,1060032,,,2025-12-11,清算の結了等,,,2025-05-23,1,,,,,ムニノ,0
1742,8010601041120,登記記録の閉鎖等,0,2025-12-24,2025-12-15,株式会社志,,株式会社,東京都,墨田区,京島２丁目２１番５号,,13,107,1310046,,,2025-12-15,清算の結了等,,,2015-10-05,1,,,,,ココロザシ,0
1744,8010801032472,登記記録の閉鎖等,0,2025-12-24,2025-12-16,モカハウス株式会社,,株式会社,東京都,大田区,東雪谷２丁目２８番７号,,13,111,1450065,,,2025-12-16,清算の結了等,,,2021-11-09,1,,,,,モカハウス,0
1751,8011001109805,登記記録の閉鎖等,0,2025-12-24,2025-12-01,株式会社Ｍｕｎｃｈｉｅｓ,,株式会社,東京都,渋谷区,恵比寿１丁目５番９号,,13,113,1500013,,,2025-12-01,合併による解散等,8010001246955,令和７年１２月１日東京都渋谷区恵比寿一丁目５番９号Ｅａｔ　Ｍｅ株式会社（8010001246955）に合併し解散,2016-03-02,1,,,,,マンチーズ,0
1757,8011005000761,登記記録の閉鎖等,0,2025-12-24,2025-12-01,渋谷ユニオン住宅協同組合,,その他の設立登記法人,東京都,渋谷区,神南１丁目３番１０号,,13,113,1500041,,,2025-12-01,清算の結了等,,,2015-10-05,1,,,,,ジブヤユニオンジュウタク,0
1758,8011101090129,登記記録の閉鎖等,0,2025-12-24,2025-11-26,日本三花薬粧株式会社,,株式会社,東京都,新宿区,喜久井町６２番地３－３１０号,,13,104,1620044,,,2025-11-26,清算の結了等,,,2020-01-16,1,,,,,ニホンサンカヤクショウ,0
1760,8011101099608,登記記録の閉鎖等,0,2025-12-24,2025-12-15,四谷倶楽部株式会社,,株式会社,東京都,新宿区,四谷１丁目１１番地,,13,104,1600004,,,2025-12-15,清算の結了等,,,2022-07-21,1,,,,,ヨツヤクラブ,0
1761,8011201001720,登記記録の閉鎖等,0,2025-12-24,2025-12-18,興和サイン株式会社,,株式会社,東京都,中野区,松が丘２丁目１９番１１号,,13,114,1650024,,,2025-12-18,清算の結了等,,,2015-10-05,1,,,,,コウワサイン,0
1765,8011403004075,登記記録の閉鎖等,0,2025-12-24,2025-12-22,合同会社ＣＮＧシステム,,合同会社,東京都,板橋区,大谷口北町８６番９－２０１号,,13,119,1730031,,,2025-12-22,清算の結了等,,,2023-08-10,1,,,,,シーエヌジーシステム,0
1788,8020003013741,登記記録の閉鎖等,0,2025-12-24,2025-12-19,合同会社レッドベリル,,合同会社,神奈川県,川崎市中原区,木月１丁目３２番３号,,14,133,2110025,,,2025-12-19,合併による解散等,9010403017482,令和７年１１月３０日東京都港区南青山二丁目２番１５号合同会社モルガナイト（9010403017482）に合併し解散,2018-01-12,1,,,,,レッドベリル,0
1790,8021001010136,登記記録の閉鎖等,0,2025-12-24,2025-12-08,株式会社インフォミックス,,株式会社,神奈川県,鎌倉市,七里ガ浜１丁目１５番１８号,,14,204,2480026,,,2025-12-08,清算の結了等,,,2015-10-05,1,,,,,インフォミックス,0
1791,8021001024276,登記記録の閉鎖等,0,2025-12-24,2025-12-08,株式会社ロジック・システムズ,,株式会社,神奈川県,秦野市,曽屋１１５２番地の５,,14,211,2570031,,,2025-12-08,清算の結了等,,,2015-10-05,1,,,,,ロジックシステムズ,0
1792,8021001028541,登記記録の閉鎖等,0,2025-12-24,2025-12-05,株式会社創研,,株式会社,神奈川県,海老名市,本郷２３４８番地３,,14,215,2430417,,,2025-12-05,清算の結了等,,,2015-10-05,1,,,,,ソウケン,0
1796,8021002010721,登記記録の閉鎖等,0,2025-12-24,2025-12-08,有限会社黒澤製作所,,有限会社,神奈川県,茅ヶ崎市,鶴が台９番７－１０１号,,14,207,2530003,,,2025-12-08,清算の結了等,,,2015-10-05,1,,,,,クロサワセイサクショ,0
1812,8040001024177,登記記録の閉鎖等,0,2025-12-24,2025-12-04,株式会社アキテック,,株式会社,千葉県,船橋市,旭町１丁目１５番２１号,,12,204,2730041,,,2025-12-04,清算の結了等,,,2015-10-05,1,,,,,アキテック,0
1813,8040001125446,登記記録の閉鎖等,0,2025-12-24,2025-12-18,株式会社Ｘ‐ＧＯＬＦ　ＪＡＰＡＮ,,株式会社,東京都,江戸川区,中央２丁目１－２０,,13,123,1320021,,,2025-12-18,清算の結了等,,,2022-10-18,1,,,,,エックスゴルフジャパン,0
1818,8050001007817,登記記録の閉鎖等,0,2025-12-24,2025-12-17,株式会社菊池運送,,株式会社,茨城県,ひたちなか市,大字金上１１５４番地１,,08,221,3120022,,,2025-12-17,清算の結了等,,,2015-10-05,1,,,,,キクチウンソウ,0
1824,8060002009984,登記記録の閉鎖等,0,2025-12-24,2025-12-23,有限会社アドバス,,有限会社,栃木県,宇都宮市,西の宮１丁目１０番２１号,,09,201,3200064,,,2025-12-23,清算の結了等,,,2015-10-05,1,,,,,アドバス,0
1833,8080401017462,登記記録の閉鎖等,0,2025-12-24,2025-12-12,株式会社島商店,,株式会社,静岡県,周智郡森町,向天方８７４番地の２,,22,461,4370212,,,2025-12-12,清算の結了等,,,2015-10-05,1,,,,,シマショウテン,0
1845,8120001213878,登記記録の閉鎖等,0,2025-12-24,2025-12-23,株式会社皆縁隊,,株式会社,香川県,丸亀市,飯山町東小川１６６０－１５,,37,202,7620085,,,2025-12-23,清算の結了等,,,2018-06-07,1,,,,,カイエンタイ,0
1853,8120101005432,登記記録の閉鎖等,0,2025-12-24,2025-12-18,株式会社ニコウ,,株式会社,大阪府,堺市西区,鳳中町１０丁９番地の５,,27,144,5938327,,,2025-12-18,清算の結了等,,,2015-10-05,1,,,,,ニコウ,0
1854,8120101033607,登記記録の閉鎖等,0,2025-12-24,2025-12-18,北尻運輸株式会社,,株式会社,大阪府,河内長野市,下里町４５９番地の４,,27,216,5860087,,,2025-12-18,清算の結了等,,,2015-10-05,1,,,,,,0
1871,8160001023539,登記記録の閉鎖等,0,2025-12-24,2025-12-22,株式会社ループワン,,株式会社,滋賀県,彦根市,鳥居本町１８４８,,25,202,5220004,,,2025-12-22,清算の結了等,,,2021-08-04,1,,,,,ループワン,0
1874,8160002005107,登記記録の閉鎖等,0,2025-12-24,2025-12-19,有限会社キムラ,,有限会社,滋賀県,湖南市,平松北２丁目６０番地,,25,211,5203235,,,2025-12-19,清算の結了等,,,2015-10-05,1,,,,,キムラ,0
1875,8170002011938,登記記録の閉鎖等,0,2025-12-24,2025-12-23,有限会社宮脇ガスショップ・設備,,有限会社,和歌山県,西牟婁郡上富田町,岩田２８４７番地の３,,30,404,6492102,,,2025-12-23,清算の結了等,,,2017-10-20,1,,,,,ミヤワキガスショップセツビ,0
1894,8240002032035,登記記録の閉鎖等,0,2025-12-24,2025-12-19,有限会社アイシン設計事務所,,有限会社,広島県,呉市,中央６丁目３番２６号,,34,202,7370051,,,2025-12-19,清算の結了等,,,2015-10-05,1,,,,,アイシンセッケイジムショ,0
1899,8280001004683,登記記録の閉鎖等,0,2025-12-24,2025-12-22,株式会社ほんき村,,株式会社,島根県,浜田市,黒川町３７３３番地１,,32,202,6970024,,,2025-12-22,清算の結了等,,,2015-10-05,1,,,,,ホンキムラ,0
1903,8290001095607,登記記録の閉鎖等,0,2025-12-24,2025-12-18,株式会社ナイスメッツ,,株式会社,福岡県,春日市,平田台４丁目４７番地１,,40,218,8160812,,,2025-12-18,清算の結了等,,,2021-12-02,1,,,,,ナイスメッツ,0
1907,8330002009239,登記記録の閉鎖等,0,2025-12-24,2025-12-18,有限会社プライムコンサルタント,,有限会社,熊本県,熊本市東区,東野３丁目１４番２６号,,43,102,8612106,,,2025-12-18,清算の結了等,,,2015-10-05,1,,,,,プライムコンサルタント,0
1908,8350001012555,登記記録の閉鎖等,0,2025-12-24,2025-12-19,株式会社涼風,,株式会社,宮崎県,宮崎市,大字小松字上川原１１１９番２６,,45,201,8802112,,,2025-12-19,清算の結了等,,,2015-10-05,1,,,,,スズカゼ,0
1915,8380001023401,登記記録の閉鎖等,0,2025-12-24,2025-12-17,株式会社ニッコウレン,,株式会社,福島県,いわき市,平字下の町３番地の１,,07,204,9708026,,,2025-12-17,清算の結了等,,,2015-10-05,1,,,,,ニッコウレン,0
1937,8480001000200,登記記録の閉鎖等,0,2025-12-24,2025-12-22,株式会社石本洋品店,,株式会社,徳島県,徳島市,東新町２丁目３１番地１,,36,201,7700912,,,2025-12-22,清算の結了等,,,2015-10-05,1,,,,,イシモトヨウヒンテン,0
1940,8500001022539,登記記録の閉鎖等,0,2025-12-24,2025-12-19,株式会社ビーエムアソシエイツ,,株式会社,徳島県,板野郡北島町,江尻字柳池２８番地５,,36,402,7710205,,,2025-12-19,合併による解散等,8500001013562,令和７年１２月１８日徳島県板野郡北島町江尻字柳池２８番地５株式会社ビーエムファクトリー（8500001013562）に合併し解散,2020-02-25,1,,,,,ビーエムアソシエイツ,0
1941,8500005007668,登記記録の閉鎖等,0,2025-12-24,2025-12-22,松前水産加工協同組合,,その他の設立登記法人,愛媛県,伊予郡松前町,大字筒井１０３９番地１,,38,401,7913120,,,2025-12-22,清算の結了等,,,2015-10-05,1,,,,,マサキスイサンカコウ,0
1946,9010001067855,登記記録の閉鎖等,0,2025-12-24,2025-12-05,イー・アソシエイツ株式会社,,株式会社,東京都,千代田区,一番町８番地住友不動産一番町ビル８階,,13,101,1020082,,,2025-12-05,合併による解散等,2010001152589,令和７年１２月１日東京都千代田区一番町８番地住友不動産一番町ビル８階Ｃｈｏｒｕｓ　Ｃａｌｌ　Ａｓｉａ株式会社（2010001152589）に合併し解散,2015-10-05,1,,,,,イーアソシエイツ,0
1949,9010001139563,登記記録の閉鎖等,0,2025-12-24,2025-12-19,東和ＳＰＣ株式会社,,株式会社,東京都,中央区,日本橋茅場町１丁目１３番１２号,,13,102,1030025,,,2025-12-19,清算の結了等,,,2015-10-05,1,,,,,トウワエスピーシー,0
1964,9010402000217,登記記録の閉鎖等,0,2025-12-24,2025-12-02,有限会社アールジービーコーポレーション,,有限会社,東京都,渋谷区,上原１丁目３番９号,,13,113,1510064,,,2025-12-02,清算の結了等,,,2015-10-05,1,,,,,アールジービーコーポレーション,0
1972,9010701038916,登記記録の閉鎖等,0,2025-12-24,2025-12-19,株式会社ＩＴＳＵＭＯ,,株式会社,群馬県,吾妻郡中之条町,大字山田乙５７７,,10,421,3770434,,,2025-12-19,清算の結了等,,,2020-02-28,1,,,,,イツモ,0
1993,9011101072233,登記記録の閉鎖等,0,2025-12-24,2025-12-01,株式会社シャリオン,,株式会社,東京都,港区,麻布台１丁目１１番９号,,13,103,1060041,,,2025-12-01,合併による解散等,1010401187013,令和７年１２月１日東京都港区麻布台一丁目１１番９号株式会社シャリオン（1010401187013）に合併し解散,2015-10-05,1,,,,,シャリオン,0
2015,9011801029391,登記記録の閉鎖等,0,2025-12-24,2025-12-19,株式会社システムタカ,,株式会社,青森県,弘前市,大字石渡２丁目４番地２コーポ石渡２０２号室,,02,202,0368316,,,2025-12-19,清算の結了等,,,2015-10-05,1,,,,,システムタカ,0
2025,9013302000071,登記記録の閉鎖等,0,2025-12-24,2025-12-18,有限会社池袋生花市場,,有限会社,東京都,練馬区,春日町１丁目３２番２０号,,13,120,1790074,,,2025-12-18,清算の結了等,,,2015-10-05,1,,,,,イケブクロセイカイチバ,0
2034,9021002003609,登記記録の閉鎖等,0,2025-12-24,2025-12-08,有限会社トミーウエイ,,有限会社,神奈川県,藤沢市,遠藤４０３５番地,,14,205,2520816,,,2025-12-08,清算の結了等,,,2015-10-05,1,,,,,トミーウェイ,0
2040,9030001070956,登記記録の閉鎖等,0,2025-12-24,2025-12-15,株式会社中山鉄工所,,株式会社,埼玉県,東松山市,大字古凍９８７番地１,,11,212,3550035,,,2025-12-15,清算の結了等,,,2015-10-05,1,,,,,ナカヤマテッコウジョ,0
2049,9040005011526,登記記録の閉鎖等,0,2025-12-24,2025-12-03,特定非営利活動法人たすけあい・なごみ,,その他の設立登記法人,千葉県,茂原市,高師２３５番１,,12,210,2970029,,,2025-12-03,清算の結了等,,,2015-10-05,1,,,,,タスケアイナゴミ,0
2051,9050001025512,登記記録の閉鎖等,0,2025-12-24,2025-12-18,株式会社ふるさとかわち,,株式会社,茨城県,稲敷郡河内町,長竿１８８番地,,08,447,3001312,,,2025-12-18,清算の結了等,,,2015-10-05,1,,,,,フルサトカワチ,0
2054,9060003004372,登記記録の閉鎖等,0,2025-12-24,2025-12-23,合同会社ＺＥＮＲＹＯＫＵ,,合同会社,栃木県,宇都宮市,戸祭町２２２９番地,,09,201,3200053,,,2025-12-23,清算の結了等,,,2023-01-11,1,,,,,ゼンリョク,0
2061,9080101014585,登記記録の閉鎖等,0,2025-12-24,2025-12-18,芳野株式会社,,株式会社,静岡県,下田市,二丁目３番１５号,,22,219,4150022,,,2025-12-18,清算の結了等,,,2015-10-05,1,,,,,ヨシノ,0
2066,9080403004227,登記記録の閉鎖等,0,2025-12-24,2025-12-16,シーファースト合同会社,,合同会社,静岡県,浜松市中央区,中山町８７番地,,22,138,4328016,,,2025-12-16,清算の結了等,,,2021-03-26,1,,,,,シーファースト,0
2075,9120001154650,登記記録の閉鎖等,0,2025-12-24,2025-12-19,株式会社Ｌｏｊｅｔ,,株式会社,大阪府,大阪市中央区,南船場４丁目４－３,,27,128,5420081,,,2025-12-19,清算の結了等,,,2015-10-05,1,,,,,ロジェット,0
2082,9120002068049,登記記録の閉鎖等,0,2025-12-24,2025-12-19,有限会社テクノファーマ,,有限会社,大阪府,大阪市東淀川区,下新庄５丁目１１番１２号,,27,114,5330021,,,2025-12-19,清算の結了等,,,2015-10-05,1,,,,,テクノファーマ,0
2103,9140005017810,登記記録の閉鎖等,0,2025-12-24,2025-12-22,特定非営利活動法人みょうけん,,その他の設立登記法人,兵庫県,多可郡多可町,加美区的場２９４番地,,28,365,6791214,,,2025-12-22,清算の結了等,,,2015-10-05,1,,,,,ミョウケン,0
2122,9180302015942,登記記録の閉鎖等,0,2025-12-24,2025-12-15,有限会社ミユキ,,有限会社,愛知県,蒲郡市,緑町７番１６号,,23,214,4430048,,,2025-12-15,清算の結了等,,,2015-10-05,1,,,,,ミユキ,0
2123,9180302024266,登記記録の閉鎖等,0,2025-12-24,2025-12-15,有限会社平成建設,,有限会社,愛知県,みよし市,三好町上７５番地５,,23,236,4700224,,,2025-12-15,清算の結了等,,,2015-10-05,1,,,,,ヘイセイケンセツ,0
2129,9210003001577,登記記録の閉鎖等,0,2025-12-24,2025-12-22,合同会社ＯＮＥ,,合同会社,福井県,福井市,北今泉町２－１－４１,,18,201,9188212,,,2025-12-22,清算の結了等,,,2022-11-08,1,,,,,ワン,0
2134,9240001055085,登記記録の閉鎖等,0,2025-12-24,2025-12-19,株式会社ＡＷＡＲＤ,,株式会社,広島県,広島市中区,広瀬町６番２５－６０１号広瀬ビル,,34,101,7300804,,,2025-12-19,清算の結了等,,,2019-10-04,1,,,,,アワード,0
2136,9240002049417,登記記録の閉鎖等,0,2025-12-24,2025-12-22,有限会社岡組,,有限会社,広島県,竹原市,下野町上条２７４７番地,,34,203,7250012,,,2025-12-22,清算の結了等,,,2015-10-05,1,,,,,オカグミ,0
2147,9320003002639,登記記録の閉鎖等,0,2025-12-24,2025-10-31,合同会社ミチリョウ,,合同会社,大分県,大分市,高松１丁目７番２１号,,44,201,8700917,,,2025-10-31,清算の結了等,,,2017-07-24,1,,,,,ミチリョウ,0
2155,9370002007130,登記記録の閉鎖等,0,2025-12-24,2025-12-22,有限会社桃太郎サービス,,有限会社,宮城県,仙台市青葉区,台原４丁目３番２号,,04,101,9810911,,,2025-12-22,清算の結了等,,,2015-10-05,1,,,,,モモタロウサービス,0
2161,9380002018572,登記記録の閉鎖等,0,2025-12-24,2025-12-17,有限会社矢萩食品,,有限会社,福島県,白河市,旭町２丁目１５４番地,,07,205,9610912,,,2025-12-17,清算の結了等,,,2015-10-05,1,,,,,ヤハギショクヒン,0
2162,9380002027722,登記記録の閉鎖等,0,2025-12-24,2025-12-17,有限会社田町コンタクトレンズ,,有限会社,福島県,いわき市,平字田町７５番地の１,,07,204,9708026,,,2025-12-17,清算の結了等,,,2015-10-05,1,,,,,タマチコンタクトレンズ,0
2166,9420003002991,登記記録の閉鎖等,0,2025-12-24,2025-12-18,佐藤商事合同会社,,合同会社,青森県,上北郡七戸町,字笊田３４番地１,,02,402,0392512,,,2025-12-18,清算の結了等,,,2024-09-11,1,,,,,サトウショウジ,0
2167,9430001030424,登記記録の閉鎖等,0,2025-12-24,2025-12-22,株式会社トランスカーゴ,,株式会社,北海道,石狩市,新港西２丁目７９９番地２,,01,235,0613241,,,2025-12-22,清算の結了等,,,2015-10-05,1,,,,,トランスカーゴ,0
2168,9430001042766,登記記録の閉鎖等,0,2025-12-24,2025-12-22,株式会社中小屋温泉,,株式会社,北海道,石狩郡当別町,字中小屋４８９番地,,01,303,0610211,,,2025-12-22,清算の結了等,,,2015-10-05,1,,,,,ナカゴヤオンセン,0
2171,9430002032931,登記記録の閉鎖等,0,2025-12-24,2025-12-19,有限会社アスタファクトリィ,,有限会社,北海道,札幌市西区,西町北１１丁目１番１７－１００１,,01,107,0630061,,,2025-12-19,清算の結了等,,,2015-10-05,1,,,,,アスタファクトリィ,0
