sequenceNumber,corporateNumber,process,correct,updateDate,changeDate,name,nameImageId,kind,prefectureName,cityName,streetNumber,addressImageId,prefectureCode,cityCode,postCode,addressOutside,addressOutsideImageId,closeDate,closeCause,successorCorporateNumber,changeCause,assignmentDate,latest,enName,enPrefectureName,enCityName,enAddressOutside,furigana,hihyoji
8,1010001176985,登記記録の閉鎖等,0,2021-07-27,2021-07-20,株式会社メイクボディ,,株式会社,東京都,品川区,上大崎２丁目２３番７号ホテルプリンセスガーデン内２階,,13,109,1410021,,,2021-07-20,合併による解散等,3010001143100,令和３年７月１日東京都渋谷区恵比寿四丁目２２番１号サンハウスＢ号株式会社ＢｙＴｈｉｎｋ（3010001143100）に合併し解散,2016-07-19,1,,,,,メイクボディ,0
21,1010403020907,登記記録の閉鎖等,0,2021-07-27,2021-07-08,ＨａｋｕＳｔｅａｋ合同会社,,合同会社,東京都,港区,虎ノ門５丁目１番４号,,13,103,1050001,,,2021-07-08,清算の結了等,,,2019-06-18,1,,,,,ハクステーキ,0
22,1010501024966,登記記録の閉鎖等,0,2021-07-27,2021-07-20,株式会社スタート,,株式会社,東京都,台東区,浅草橋２丁目２番１０号,,13,106,1110053,,,2021-07-20,合併による解散等,5010401076220,令和３年７月１日東京都墨田区石原三丁目２番３号株式会社玉光堂（5010401076220）に合併し解散,2015-10-05,1,,,,,スタート,0
31,1010901024186,登記記録の閉鎖等,0,2021-07-27,2021-07-13,株式会社エスエーエル,,株式会社,東京都,世田谷区,瀬田４丁目４０番７号,,13,112,1580095,,,2021-07-13,清算の結了等,,,2015-10-05,1,,,,,エスエーエル,0
57,1011702003528,登記記録の閉鎖等,0,2021-07-27,2021-07-19,有限会社グッチーズ,,有限会社,東京都,江戸川区,西一之江４丁目１５番２１号,,13,123,1320023,,,2021-07-19,清算の結了等,,,2015-10-05,1,,,,,グッチーズ,0
61,1012705000181,登記記録の閉鎖等,0,2021-07-27,2021-07-21,清瀬商工協同組合,,その他の設立登記法人,東京都,清瀬市,松山２丁目６番２３号,,13,221,2040022,,,2021-07-21,清算の結了等,,,2015-10-05,1,,,,,キヨセショウコウ,0
78,1021003006270,登記記録の閉鎖等,0,2021-07-27,2021-07-13,田原章子資産管理合同会社,,合同会社,神奈川県,平塚市,田村２丁目１０番７－７２３号県公社田村第２共同住宅三澤様方,,14,203,2540013,,,2021-07-13,清算の結了等,,,2016-10-28,1,,,,,タハラアキコシサンカンリゴウドウカイシャ,0
120,1100002017304,登記記録の閉鎖等,0,2021-07-27,2021-07-19,有限会社ブルーアンドホワイト,,有限会社,長野県,飯山市,大字飯山字八坊塚１１４９２番地３,,20,213,3892253,,,2021-07-19,清算の結了等,,,2015-10-05,1,,,,,ブルーアンドホワイト,0
121,1110002021890,登記記録の閉鎖等,0,2021-07-27,2021-07-16,有限会社アストン荒川,,有限会社,新潟県,村上市,佐々木１０５番地,,15,212,9593121,,,2021-07-16,清算の結了等,,,2015-10-05,1,,,,,アストンアラカワ,0
122,1110003002337,登記記録の閉鎖等,0,2021-07-27,2021-07-16,合同会社村上屋旅館,,合同会社,新潟県,魚沼市,大湯温泉３０４番地,,15,225,9460088,,,2021-07-16,清算の結了等,,,2015-10-05,1,,,,,,0
124,1110005005940,登記記録の閉鎖等,0,2021-07-27,2021-07-15,医療法人社団皆川小児科医院,,その他の設立登記法人,新潟県,加茂市,神明町２丁目７番９号,,15,209,9591325,,,2021-07-15,清算の結了等,,,2015-10-05,1,,,,,ミナガワショウニカイイン,0
137,1120002039701,登記記録の閉鎖等,0,2021-07-27,2021-07-12,有限会社シャンス,,有限会社,大阪府,大阪市鶴見区,今津北４丁目１２番２１号,,27,124,5380041,,,2021-07-12,清算の結了等,,,2015-10-05,1,,,,,シャンス,0
144,1120105004346,登記記録の閉鎖等,0,2021-07-27,2021-07-26,特定非営利活動法人ワーカーズふろむさやま,,その他の設立登記法人,大阪府,大阪狭山市,西山台５丁目２番１３－１０２,,27,231,5890022,,,2021-07-26,清算の結了等,,,2015-10-05,1,,,,,ワーカーズフロムサヤマ,0
173,1180001089948,登記記録の閉鎖等,0,2021-07-27,2021-07-15,株式会社名邦組ホールディングス,,株式会社,愛知県,名古屋市千種区,宮根台２丁目１５番２０号,,23,101,4640008,,,2021-07-15,清算の結了等,,,2015-10-05,1,,,,,メイホウグミホールディングス,0
179,1180002078198,登記記録の閉鎖等,0,2021-07-27,2021-07-15,有限会社栗本呉服店,,有限会社,愛知県,一宮市,小信中島字南平口１３番地の１,,23,203,4940007,,,2021-07-15,清算の結了等,,,2015-10-05,1,,,,,クリモトゴフクテン,0
181,1180005002345,登記記録の閉鎖等,0,2021-07-27,2021-07-19,医療法人井上耳鼻咽喉科医院,,その他の設立登記法人,愛知県,名古屋市北区,元志賀町２丁目１２３番地,,23,103,4620044,,,2021-07-19,清算の結了等,,,2015-10-05,1,,,,,イノウエジビインコウカイイン,0
206,1260001000237,登記記録の閉鎖等,0,2021-07-27,2021-07-21,株式会社明日香クリエイション,,株式会社,岡山県,岡山市中区,今在家１７３番地の５,,33,102,7038208,,,2021-07-21,清算の結了等,,,2015-10-05,1,,,,,アスカクリエイション,0
213,1290005006921,登記記録の閉鎖等,0,2021-07-27,2021-07-13,特定非営利活動法人ハンディキャップサポーター,,その他の設立登記法人,福岡県,春日市,春日公園１丁目１９番地,,40,218,8160811,,,2021-07-13,清算の結了等,,,2015-10-05,1,,,,,ハンディキャップサポーター,0
236,1380001025916,登記記録の閉鎖等,0,2021-07-27,2021-07-13,株式会社山本開発,,株式会社,福島県,相馬市,粟津字粟津４０番地の４１,,07,209,9760152,,,2021-07-13,清算の結了等,,,2015-10-05,1,,,,,ヤマモトカイハツ,0
241,1380002011626,登記記録の閉鎖等,0,2021-07-27,2021-07-14,有限会社針貝家具工芸,,有限会社,福島県,郡山市,咲田２丁目２３番２号,,07,203,9638012,,,2021-07-14,清算の結了等,,,2015-10-05,1,,,,,ハリガイカグコウゲイ,0
252,1430001033896,登記記録の閉鎖等,0,2021-07-27,2021-07-07,株式会社コアテック,,株式会社,北海道,札幌市白石区,北郷二条２丁目１番２０号,,01,104,0030832,,,2021-07-07,清算の結了等,,,2015-10-05,1,,,,,コアテック,0
253,1430001052962,登記記録の閉鎖等,0,2021-07-27,2021-07-09,新正工業株式会社,,株式会社,北海道,苫小牧市,住吉町１丁目６番１３号,,01,213,0530046,,,2021-07-09,清算の結了等,,,2015-10-05,1,,,,,シンセイコウギョウ,0
256,1430002026833,登記記録の閉鎖等,0,2021-07-27,2021-07-12,有限会社古田測量,,有限会社,北海道,札幌市北区,屯田五条９丁目１番５－２号,,01,102,0020855,,,2021-07-12,清算の結了等,,,2015-10-05,1,,,,,フルタソクリョウ,0
271,1470001001115,登記記録の閉鎖等,0,2021-07-27,2021-07-19,株式会社兼松商店,,株式会社,香川県,高松市,瀬戸内町３０番８０号,,37,201,7600012,,,2021-07-19,清算の結了等,,,2015-10-05,1,,,,,カネマツショウテン,0
282,2010001150007,登記記録の閉鎖等,0,2021-07-27,2021-07-08,株式会社ベジテーブル,,株式会社,東京都,中央区,日本橋大伝馬町１番３号アスカⅤ日本橋ビル６階,00049517,13,102,1030011,,,2021-07-08,清算の結了等,,,2015-10-05,1,,,,,ベジテーブル,0
291,2010003023111,登記記録の閉鎖等,0,2021-07-27,2021-07-13,Ｏｓａｋａ　ＹＭ　Ｊａｐａｎ合同会社,,合同会社,東京都,千代田区,霞が関３丁目２番５号霞が関ビル,,13,101,1000013,,,2021-07-13,清算の結了等,,,2016-02-24,1,,,,,,0
300,2010601007267,登記記録の閉鎖等,0,2021-07-27,2021-07-06,株式会社山本製本所,,株式会社,東京都,江東区,福住１丁目１１番５号,,13,108,1350032,,,2021-07-06,清算の結了等,,,2015-10-05,1,,,,,ヤマモトセイホンジョ,0
310,2010702015400,登記記録の閉鎖等,0,2021-07-27,2021-07-19,有限会社新東商事,,有限会社,東京都,品川区,東大井４丁目８番１０号２０２,,13,109,1400011,,,2021-07-19,清算の結了等,,,2015-10-05,1,,,,,シントウショウジ,0
366,2020002067414,登記記録の閉鎖等,0,2021-07-27,2021-07-13,ライフサポート有限会社,,有限会社,神奈川県,横浜市神奈川区,台町７番地２,,14,102,2210834,,,2021-07-13,清算の結了等,,,2015-10-05,1,,,,,ライフサポート,0
368,2020002103739,登記記録の閉鎖等,0,2021-07-27,2021-07-08,有限会社ユザワ,,有限会社,神奈川県,川崎市宮前区,有馬９丁目７番１５号,,14,136,2160003,,,2021-07-08,清算の結了等,,,2015-10-05,1,,,,,ユザワ,0
390,2030005016961,登記記録の閉鎖等,0,2021-07-27,2021-07-08,ＮＰＯ法人加須ふれあいセンター,,その他の設立登記法人,埼玉県,加須市,正能１１番地５,,11,210,3470107,,,2021-07-08,清算の結了等,,,2015-10-05,1,,,,,カゾフレアイセンター,0
408,2050002002814,登記記録の閉鎖等,0,2021-07-27,2021-07-14,有限会社フジタ産業,,有限会社,茨城県,水戸市,西原３丁目１番４５号,,08,201,3100044,,,2021-07-14,清算の結了等,,,2015-10-05,1,,,,,,0
434,2120001040568,登記記録の閉鎖等,0,2021-07-27,2021-07-15,大阪木津市場株式会社,,株式会社,大阪府,大阪市浪速区,敷津東２丁目２番８号,,27,111,5560012,,,2021-07-15,合併による解散等,2120001030585,令和３年７月１日大阪市住之江区北加賀屋三丁目４番７号株式会社グルメ杵屋（2120001030585）に合併し解散,2015-10-05,1,,,,,オオサカキヅイチバ,0
445,2120002021253,登記記録の閉鎖等,0,2021-07-27,2021-07-09,有限会社エイキー,,有限会社,大阪府,大阪市西区,九条２丁目１５番１３号,,27,106,5500027,,,2021-07-09,清算の結了等,,,2015-10-05,1,,,,,エイキー,0
463,2130001034379,登記記録の閉鎖等,0,2021-07-27,2021-07-16,株式会社栄真,,株式会社,京都府,宇治市,小倉町山際５５番地の２３恵美寿ビル２階,,26,204,6110042,,,2021-07-16,清算の結了等,,,2015-10-05,1,,,,,,0
506,2180301033225,登記記録の閉鎖等,0,2021-07-27,2021-07-21,株式会社一縫製,,株式会社,愛知県,西尾市,下町下山１８番地２４,,23,213,4450891,,,2021-07-21,清算の結了等,,,2019-12-10,1,,,,,ハジメホウセイ,0
532,2270001002578,登記記録の閉鎖等,0,2021-07-27,2021-07-12,スリーワイ株式会社,,株式会社,鳥取県,鳥取市,賀露町南４丁目１１番１４号,,31,201,6800909,,,2021-07-12,清算の結了等,,,2015-10-05,1,,,,,スリーワイ,0
564,2420002018244,登記記録の閉鎖等,0,2021-07-27,2021-07-15,有限会社モーテル下田,,有限会社,青森県,上北郡おいらせ町,中平下長根山１番地６６９,,02,412,0392129,,,2021-07-15,清算の結了等,,,2015-10-05,1,,,,,モーテルシモダ,0
622,3010705002444,登記記録の閉鎖等,0,2021-07-27,2021-07-20,イーシェアリング協同組合,,その他の設立登記法人,東京都,品川区,大崎３丁目５番２号,,13,109,1410032,,,2021-07-20,清算の結了等,,,2016-04-26,1,,,,,イーシェアリング,0
630,3011001063214,登記記録の閉鎖等,0,2021-07-27,2021-07-06,株式会社Ｑｗａｄａｔｅ,,株式会社,東京都,渋谷区,千駄ヶ谷２丁目２８番３号１３０１号室,,13,113,1510051,,,2021-07-06,清算の結了等,,,2015-10-05,1,,,,,クワダテ,0
674,3021001027960,登記記録の閉鎖等,0,2021-07-27,2021-07-13,ダイシン建設株式会社,,株式会社,神奈川県,大和市,深見西６丁目３番２８号,,14,213,2420018,,,2021-07-13,清算の結了等,,,2015-10-05,1,,,,,ダイシンケンセツカブシキカイシャ,0
679,3021001060581,登記記録の閉鎖等,0,2021-07-27,2021-07-14,株式会社ＹＭカンパニー,,株式会社,神奈川県,藤沢市,鵠沼橘１丁目１６番５号,,14,205,2510024,,,2021-07-14,清算の結了等,,,2016-11-04,1,,,,,ワイエムカンパニー,0
680,3021002004645,登記記録の閉鎖等,0,2021-07-27,2021-07-13,有限会社マタノ企画,,有限会社,神奈川県,藤沢市,西俣野２０１２番地の２,,14,205,2520812,,,2021-07-13,清算の結了等,,,2015-10-05,1,,,,,マタノキカク,0
686,3030001092956,登記記録の閉鎖等,0,2021-07-27,2021-07-08,株式会社深浩会,,株式会社,埼玉県,児玉郡美里町,大字沼上７０番地,,11,381,3670105,,,2021-07-08,清算の結了等,,,2015-10-05,1,,,,,シンコウカイ,0
708,3080001011663,登記記録の閉鎖等,0,2021-07-27,2021-07-26,橋本情報サービス株式会社,,株式会社,静岡県,焼津市,一色５２１－６,,22,212,4250054,,,2021-07-26,清算の結了等,,,2015-10-05,1,,,,,ハシモトジョウホウサービス,0
709,3080003002207,登記記録の閉鎖等,0,2021-07-27,2021-07-21,オフィスＫＡＷＡＧＵＣＨＩ合同会社,,合同会社,静岡県,静岡市清水区,千歳町６番１１－１１０６号,,22,103,4240828,,,2021-07-21,清算の結了等,,,2018-12-21,1,,,,,オフィスカワグチ,0
716,3100001010373,登記記録の閉鎖等,0,2021-07-27,2021-07-19,柳屋不動産株式会社,,株式会社,長野県,上田市,中央１丁目９番４号,,20,203,3860012,,,2021-07-19,清算の結了等,,,2015-10-05,1,,,,,ヤナギヤフドウサン,0
721,3110001033588,登記記録の閉鎖等,0,2021-07-27,2021-07-15,直江津工材株式会社,,株式会社,新潟県,上越市,川原町１０番２９号,,15,222,9420065,,,2021-07-15,清算の結了等,,,2018-10-18,1,,,,,ナオエツコウザイ,0
729,3120001179546,登記記録の閉鎖等,0,2021-07-27,2021-07-13,株式会社ＥＲＥＡＤ,,株式会社,大阪府,守口市,大日町３丁目２４番１号,,27,209,5700003,,,2021-07-13,清算の結了等,,,2015-10-05,1,,,,,,0
766,3180001068735,登記記録の閉鎖等,0,2021-07-27,2021-07-16,株式会社テイエフエンジニアリング,,株式会社,愛知県,名古屋市千種区,桜が丘２３０番地フタバビル２Ｆ,,23,101,4640025,,,2021-07-16,清算の結了等,,,2015-10-05,1,,,,,テイエフエンジニアリング,0
769,3180001074675,登記記録の閉鎖等,0,2021-07-27,2021-07-15,株式会社新美経営,,株式会社,愛知県,春日井市,大手町１０９４番地の６,,23,206,4860807,,,2021-07-15,清算の結了等,,,2015-10-05,1,,,,,ニイミケイエイ,0
787,3190002009134,登記記録の閉鎖等,0,2021-07-27,2021-07-19,有限会社中日新聞奥田店,,有限会社,三重県,伊勢市,古市町２６番地,,24,203,5160033,,,2021-07-19,清算の結了等,,,2015-10-05,1,,,,,チュウニチシンブンオクダテン,0
802,3260001010812,登記記録の閉鎖等,0,2021-07-27,2021-07-21,株式会社コーラル,,株式会社,岡山県,岡山市北区,谷万成１丁目５番２７号,,33,101,7000071,,,2021-07-21,清算の結了等,,,2015-10-05,1,,,,,コーラル,0
803,3260002031337,登記記録の閉鎖等,0,2021-07-27,2021-07-26,有限会社片山石油店,,有限会社,岡山県,瀬戸内市,牛窓町鹿忍９１９番地,,33,212,7014303,,,2021-07-26,清算の結了等,,,2015-10-05,1,,,,,カタヤマセキユテン,0
807,3280002000216,登記記録の閉鎖等,0,2021-07-27,2021-07-20,有限会社伊藤行人商店,,有限会社,島根県,松江市,栄町４２番地７,,32,201,6900042,,,2021-07-20,清算の結了等,,,2015-10-05,1,,,,,イトウユキヒトショウテン,0
829,3330001014640,登記記録の閉鎖等,0,2021-07-27,2021-07-12,株式会社タサキ,,株式会社,熊本県,八代市,郡築三番町１３６番地２,,43,202,8660022,,,2021-07-12,清算の結了等,,,2015-10-05,1,,,,,タサキ,0
846,3380002032975,登記記録の閉鎖等,0,2021-07-27,2021-07-13,有限会社船石商店,,有限会社,福島県,会津若松市,蚕養町８番４号,,07,202,9650023,,,2021-07-13,清算の結了等,,,2015-10-05,1,,,,,フナイシショウテン,0
858,3430001038431,登記記録の閉鎖等,0,2021-07-27,2021-07-07,株式会社電測,,株式会社,北海道,札幌市白石区,北郷二条２丁目１番２０号,,01,104,0030832,,,2021-07-07,清算の結了等,,,2015-10-05,1,,,,,デンソク,0
869,3450002011014,登記記録の閉鎖等,0,2021-07-27,2021-07-26,有限会社高道水産,,有限会社,北海道,稚内市,大黒３丁目４番３６号,,01,214,0970005,,,2021-07-26,清算の結了等,,,2015-10-05,1,,,,,タカミチスイサン,0
887,4010001142258,登記記録の閉鎖等,0,2021-07-27,2021-07-13,ビービーセールス株式会社,,株式会社,東京都,中央区,東日本橋２丁目２８番４号日本橋ＣＥＴビル２階,,13,102,1030004,,,2021-07-13,清算の結了等,,,2015-10-05,1,,,,,ビービーセールス,0
896,4010002019752,登記記録の閉鎖等,0,2021-07-27,2021-07-14,有限会社小西,,有限会社,東京都,中央区,日本橋人形町２丁目２７番３号,,13,102,1030013,,,2021-07-14,清算の結了等,,,2015-10-05,1,,,,,コニシ,0
923,4010901043290,登記記録の閉鎖等,0,2021-07-27,2021-07-12,ＣＲＥＦＵＳマーケティング株式会社,,株式会社,東京都,世田谷区,玉川３丁目２０－１３,,13,112,1580094,,,2021-07-12,清算の結了等,,,2018-12-12,1,,,,,クレファスマーケティング,0
929,4011001130979,登記記録の閉鎖等,0,2021-07-27,2021-07-09,株式会社Ｒｅｓｉｇｎ,,株式会社,東京都,港区,南青山２丁目２番１５号ウィン青山９４２,,13,103,1070062,,,2021-07-09,清算の結了等,,,2019-11-20,1,,,,,リザイン,0
954,4013301026510,登記記録の閉鎖等,0,2021-07-27,2021-07-19,ブルーミーインターナショナル株式会社,,株式会社,大阪府,豊中市,本町４丁目１１番１１号,,27,203,5600021,,,2021-07-19,清算の結了等,,,2015-10-05,1,,,,,ブルーミーインターナショナル,0
957,4020001108258,登記記録の閉鎖等,0,2021-07-27,2021-07-13,横浜測量設計株式会社,,株式会社,神奈川県,横浜市泉区,上飯田町９４９番地２,,14,116,2450018,,,2021-07-13,清算の結了等,,,2015-10-05,1,,,,,ヨコハマソクリョウセッケイ,0
968,4030003013819,登記記録の閉鎖等,0,2021-07-27,2021-07-19,合同会社ステップ,,合同会社,東京都,台東区,上野６丁目１番６号御徒町グリーンハイツ１００５号,,13,106,1100005,,,2021-07-19,清算の結了等,,,2019-07-17,1,,,,,ステップ,0
981,4070002024251,登記記録の閉鎖等,0,2021-07-27,2021-07-20,有限会社友成商事,,有限会社,群馬県,桐生市,相生町２丁目７７７番地の７,,10,203,3760011,,,2021-07-20,清算の結了等,,,2015-10-05,1,,,,,トモナリショウジ,0
1013,4130001015996,登記記録の閉鎖等,0,2021-07-27,2021-07-20,株式会社ユーシン,,株式会社,京都府,京都市南区,東九条西明田町４８番地１０,,26,107,6018045,,,2021-07-20,清算の結了等,,,2015-10-05,1,,,,,ユーシン,0
1014,4130001027942,登記記録の閉鎖等,0,2021-07-27,2021-07-19,株式会社ファースト,,株式会社,京都府,京都市南区,西九条大国町１２番地２,,26,107,6018449,,,2021-07-19,清算の結了等,,,2015-10-05,1,,,,,ファースト,0
1034,4140002008180,登記記録の閉鎖等,0,2021-07-27,2021-07-16,有限会社インテリアタカギ,,有限会社,兵庫県,神戸市長田区,五番町１丁目５番地の２,,28,106,6530003,,,2021-07-16,清算の結了等,,,2015-10-05,1,,,,,インテリアタカギ,0
1036,4150001013148,登記記録の閉鎖等,0,2021-07-27,2021-07-16,中村靴下株式会社,,株式会社,奈良県,香芝市,逢坂４丁目９９７番地,00043001,29,210,6390251,,,2021-07-16,清算の結了等,,,2015-10-05,1,,,,,ナカムラクツシタ,0
1042,4170001015431,登記記録の閉鎖等,0,2021-07-27,2021-07-21,ナプト株式会社,,株式会社,和歌山県,紀の川市,平野１３８２番地,,30,208,6496602,,,2021-07-21,清算の結了等,,,2018-12-21,1,,,,,ナプト,0
1048,4180001089648,登記記録の閉鎖等,0,2021-07-27,2021-07-15,株式会社ティ・エス・ケー,,株式会社,愛知県,小牧市,久保一色南１丁目２４５番地,,23,219,4850007,,,2021-07-15,清算の結了等,,,2015-10-05,1,,,,,ティエスケー,0
1067,4180301000743,登記記録の閉鎖等,0,2021-07-27,2021-07-02,株式会社クライム,,株式会社,愛知県,岡崎市,八幡町１丁目３８番地,,23,202,4440047,,,2021-07-02,清算の結了等,,,2015-10-05,1,,,,,クライム,0
1096,4280002010065,登記記録の閉鎖等,0,2021-07-27,2021-07-19,大共水産有限会社,,有限会社,島根県,益田市,木部町イ２２８８番地１３,,32,204,6993502,,,2021-07-19,清算の結了等,,,2015-10-05,1,,,,,ダイキョウスイサン,0
1105,4290003007885,登記記録の閉鎖等,0,2021-07-27,2021-07-05,合同会社ＺＥＲＯ,,合同会社,福岡県,福岡市中央区,清川２丁目５番１－３０１号,,40,133,8100005,,,2021-07-05,清算の結了等,,,2018-03-06,1,,,,,ゼロ,0
1107,4290005015911,登記記録の閉鎖等,0,2021-07-27,2021-06-14,一般社団法人ＦＣＯ,,その他の設立登記法人,福岡県,大川市,大字小保４７０番地１２,,40,212,8310041,,,2021-06-14,清算の結了等,,,2016-04-28,1,,,,,エフシーオー,0
1116,4330001025521,登記記録の閉鎖等,0,2021-07-27,2021-07-13,株式会社ＳＵＮ－ＲＩＳＥ,,株式会社,熊本県,八代市,宮地町１８８１番地１園川ビル１Ｆ,,43,202,8660805,,,2021-07-13,清算の結了等,,,2018-07-23,1,,,,,サンライズ,0
1137,4400005000926,登記記録の閉鎖等,0,2021-07-27,2021-07-14,岩手県生コンクリート協同組合連合会,,その他の設立登記法人,岩手県,盛岡市,中野２丁目１５番１５号,,03,201,0200816,,,2021-07-14,清算の結了等,,,2015-10-05,1,,,,,イワテケンナマコンクリート,0
1147,4450001006831,登記記録の閉鎖等,0,2021-07-27,2021-07-26,株式会社グラシアス,,株式会社,北海道,旭川市,大町一条３丁目９番地２８,,01,204,0700841,,,2021-07-26,清算の結了等,,,2015-10-05,1,,,,,グラシアス,0
1150,4460001004891,登記記録の閉鎖等,0,2021-07-27,2021-07-21,株式会社川又商店,,株式会社,北海道,釧路市,新川町１２番６号,,01,206,0850047,,,2021-07-21,清算の結了等,,,2015-10-05,1,,,,,カワマタショウテン,0
1153,4480002012504,登記記録の閉鎖等,0,2021-07-27,2021-07-16,有限会社ＡＩＡサポート,,有限会社,徳島県,鳴門市,撫養町南浜字東浜３４番地７,,36,202,7720003,,,2021-07-16,清算の結了等,,,2015-10-05,1,,,,,エーアイエーサポート,0
1171,5010001139996,登記記録の閉鎖等,0,2021-07-27,2021-07-14,メイフェア・インターナショナル・インヴェスティング株式会社,,株式会社,兵庫県,神戸市中央区,山本通３丁目１７番１－３０４号,,28,110,6500003,,,2021-07-14,清算の結了等,,,2015-10-05,1,,,,,メイフェアインターナショナルインヴェスティング,0
1185,5010003029774,登記記録の閉鎖等,0,2021-07-27,2021-07-13,合同会社小野山口発電所,,合同会社,東京都,中央区,日本橋１丁目３番１３号東京建物日本橋ビル１１階,,13,102,1030027,,,2021-07-13,清算の結了等,,,2019-05-10,1,,,,,オノヤマグチハツデンショ,0
1197,5010602000821,登記記録の閉鎖等,0,2021-07-27,2021-07-06,有限会社及川鉄工建設,,有限会社,東京都,江東区,北砂６丁目２０番２１号,,13,108,1360073,,,2021-07-06,清算の結了等,,,2015-10-05,1,,,,,オイカワテッコウケンセツ,0
1234,5013301031336,登記記録の閉鎖等,0,2021-07-27,2021-07-21,株式会社ティエスエース,,株式会社,静岡県,富士宮市,富士見ケ丘１５０６番地,,22,207,4180014,,,2021-07-21,清算の結了等,,,2015-10-05,1,,,,,ティエスエース,0
1251,5021001052008,登記記録の閉鎖等,0,2021-07-27,2021-07-14,株式会社ｉｓ,,株式会社,神奈川県,鎌倉市,御成町５番３１号,,14,204,2480012,,,2021-07-14,清算の結了等,,,2015-10-05,1,,,,,イズ,0
1315,5110002000858,登記記録の閉鎖等,0,2021-07-27,2021-07-16,有限会社一建工業,,有限会社,新潟県,新潟市西区,中権寺２４０６番地,,15,107,9502251,,,2021-07-16,清算の結了等,,,2015-10-05,1,,,,,イチケンコウギョウ,0
1319,5110002032075,登記記録の閉鎖等,0,2021-07-27,2021-07-16,魚沼建材有限会社,,有限会社,新潟県,小千谷市,城内３丁目２番２３号,,15,208,9470028,,,2021-07-16,清算の結了等,,,2015-10-05,1,,,,,,0
1337,5120101042536,登記記録の閉鎖等,0,2021-07-27,2021-07-20,東邦エンジニアリング株式会社,,株式会社,大阪府,泉大津市,河原町７番５号,,27,206,5950044,,,2021-07-20,合併による解散等,9010401009424,令和３年７月１日神奈川県横浜市鶴見区鶴見中央四丁目３３番５号原子燃料工業株式会社（9010401009424）に合併し解散,2015-10-05,1,,,,,トウホウエンジニアリング,0
1369,5140001028518,登記記録の閉鎖等,0,2021-07-27,2021-07-14,株式会社センシャス,,株式会社,兵庫県,神戸市北区,山田町原野字城ケ岡２－６,,28,109,6511252,,,2021-07-14,清算の結了等,,,2015-10-05,1,,,,,センシャス,0
1370,5140001036867,登記記録の閉鎖等,0,2021-07-27,2021-07-16,株式会社プラトゥー,,株式会社,兵庫県,姫路市,広畑区吾妻町１丁目３５番地の３,,28,201,6711154,,,2021-07-16,清算の結了等,,,2015-10-05,1,,,,,プラトゥー,0
1400,5240002007485,登記記録の閉鎖等,0,2021-07-27,2021-07-09,新起不動産有限会社,,有限会社,広島県,広島市中区,榎町１２番１２号,,34,101,7300851,,,2021-07-09,清算の結了等,,,2015-10-05,1,,,,,シンキフドウサン,0
1406,5250002014539,登記記録の閉鎖等,0,2021-07-27,2021-07-21,有限会社共和商会,,有限会社,山口県,周南市,戎町３丁目２６番地,,35,215,7450041,,,2021-07-21,清算の結了等,,,2015-10-05,1,,,,,キョウワショウカイ,0
1435,5330002021543,登記記録の閉鎖等,0,2021-07-27,2021-07-13,有限会社丸國百貨店,,有限会社,熊本県,玉名市,天水町小天１２４７番地,,43,206,8615401,,,2021-07-13,清算の結了等,,,2015-10-05,1,,,,,マルクニヒャッカテン,0
1442,5370002001079,登記記録の閉鎖等,0,2021-07-27,2021-07-07,有限会社泉光,,有限会社,宮城県,仙台市泉区,長命ケ丘４丁目１番地の１,,04,105,9813212,,,2021-07-07,清算の結了等,,,2015-10-05,1,,,,,センコウ,0
1444,5380001017827,登記記録の閉鎖等,0,2021-07-27,2021-07-07,北都工業株式会社,,株式会社,福島県,会津若松市,花畑東５番７号,,07,202,9650027,,,2021-07-07,清算の結了等,,,2015-10-05,1,,,,,ホクトコウギョウ,0
1456,5420002016427,登記記録の閉鎖等,0,2021-07-27,2021-07-14,有限会社イチロウインターナショナル,,有限会社,青森県,十和田市,東二十二番町１７番１３号,,02,206,0340015,,,2021-07-14,清算の結了等,,,2015-10-05,1,,,,,イチロウインターナショナル,0
1525,6010801007096,登記記録の閉鎖等,0,2021-07-27,2021-07-19,株式会社ダイシン百貨店,,株式会社,東京都,大田区,山王３丁目６番３号,,13,111,1430023,,,2021-07-19,合併による解散等,3011001096370,令和３年７月１日東京都目黒区青葉台二丁目１９番１０号株式会社ドン・キホーテ（3011001096370）に合併し解散,2015-10-05,1,,,,,,0
1557,6011703000825,登記記録の閉鎖等,0,2021-07-27,2021-07-21,合同会社ＳｉＧ,,合同会社,東京都,江戸川区,南小岩８丁目１０番１号,,13,123,1330056,,,2021-07-21,清算の結了等,,,2015-10-05,1,,,,,エスアイジー,0
1563,6012802010310,登記記録の閉鎖等,0,2021-07-27,2021-07-14,アクト有限会社,,有限会社,東京都,昭島市,拝島町２丁目９番９号,,13,207,1960002,,,2021-07-14,清算の結了等,,,2015-10-05,1,,,,,アクト,0
1581,6021002062698,登記記録の閉鎖等,0,2021-07-27,2021-07-14,有限会社石国産業,,有限会社,神奈川県,横須賀市,上町３丁目３３番地,,14,201,2380017,,,2021-07-14,清算の結了等,,,2015-10-05,1,,,,,イシグニサンギョウ,0
1607,6060002013105,登記記録の閉鎖等,0,2021-07-27,2021-07-09,株式会社エル交通,,株式会社,栃木県,那須烏山市,南大和久１０９６番地２,,09,215,3210533,,,2021-07-09,清算の結了等,,,2015-10-05,1,,,,,,0
1622,6080401013389,登記記録の閉鎖等,0,2021-07-27,2021-07-26,株式会社リード,,株式会社,静岡県,浜松市北区,都田町９６３９番地の１,,22,135,4312102,,,2021-07-26,清算の結了等,,,2015-10-05,1,,,,,リード,0
1630,6110001021755,登記記録の閉鎖等,0,2021-07-27,2021-07-16,大滝木材株式会社,,株式会社,新潟県,糸魚川市,大字百川８０７番地乙,,15,216,9491304,,,2021-07-16,清算の結了等,,,2015-10-05,1,,,,,オオタキモクザイ,0
1635,6110003003297,登記記録の閉鎖等,0,2021-07-27,2021-07-16,成果報酬管理合同会社,,合同会社,新潟県,新潟市西区,寺尾東１丁目７番３２号,,15,107,9502054,,,2021-07-16,清算の結了等,,,2016-05-02,1,,,,,セイカホウシュウカンリ,0
1701,6180003007944,登記記録の閉鎖等,0,2021-07-27,2021-07-14,合名会社白鷹鋳造所,,合名会社,愛知県,清須市,土田郷上切９９番地,,23,233,4520945,,,2021-07-14,清算の結了等,,,2015-10-05,1,,,,,シラタカチュウゾウショ,0
1708,6200005011256,登記記録の閉鎖等,0,2021-07-27,2021-07-13,一般社団法人海津の安全,,その他の設立登記法人,岐阜県,海津市,平田町三郷１０８５番地,,21,221,5030312,,,2021-07-13,清算の結了等,,,2015-10-05,1,,,,,カイヅノアンゼン,0
1731,6250005008198,登記記録の閉鎖等,0,2021-07-27,2021-07-20,一般社団法人山口県マルチコプター安全協会,,その他の設立登記法人,山口県,周南市,橋本町１丁目７０番地,,35,215,7450022,,,2021-07-20,清算の結了等,,,2016-01-27,1,,,,,ヤマグチケンマルチコプターアンゼンキョウカイ,0
1735,6260005004923,登記記録の閉鎖等,0,2021-07-27,2021-07-15,特定非営利活動法人宇喜多堤見守り監視隊,,その他の設立登記法人,岡山県,都窪郡早島町,前潟５９８番地９,,33,423,7010303,,,2021-07-15,清算の結了等,,,2015-10-05,1,,,,,ウキタツツミミマモリカンシタイ,0
1746,6320001005118,登記記録の閉鎖等,0,2021-07-27,2021-07-16,株式会社力石水産,,株式会社,大分県,大分市,大字中判田１７０８番地の６,,44,201,8701113,,,2021-07-16,清算の結了等,,,2015-10-05,1,,,,,リキイシスイサン,0
1755,6360002009485,登記記録の閉鎖等,0,2021-07-27,2021-07-15,有限会社栄産業,,有限会社,沖縄県,島尻郡八重瀬町,字東風平２２２番地,,47,362,9010401,,,2021-07-15,清算の結了等,,,2015-10-05,1,,,,,,0
1772,6390001013353,登記記録の閉鎖等,0,2021-07-27,2021-07-12,株式会社雅乃杜,,株式会社,山形県,米沢市,中央１丁目１１番２３号,,06,202,9920045,,,2021-07-12,清算の結了等,,,2015-10-05,1,,,,,,0
1781,6400002004250,登記記録の閉鎖等,0,2021-07-27,2021-07-15,有限会社太田物産,,有限会社,岩手県,盛岡市,玉山字一笠６番地,,03,201,0200202,,,2021-07-15,清算の結了等,,,2015-10-05,1,,,,,オオタブッサン,0
1787,6420002000405,登記記録の閉鎖等,0,2021-07-27,2021-07-14,有限会社一番星,,有限会社,青森県,青森市,新町１丁目８番２０号,,02,201,0300801,,,2021-07-14,清算の結了等,,,2015-10-05,1,,,,,イチバンホシ,0
1799,6430003001475,登記記録の閉鎖等,0,2021-07-27,2021-07-12,合資会社トラベルサポート,,合資会社,北海道,北広島市,東共栄３丁目３番地９,,01,234,0611114,,,2021-07-12,清算の結了等,,,2015-10-05,1,,,,,トラベルサポート,0
1801,6430003011664,登記記録の閉鎖等,0,2021-07-27,2021-07-08,フレンドＱ合同会社,,合同会社,北海道,千歳市,春日町４丁目１番地１０号,,01,224,0660065,,,2021-07-08,清算の結了等,,,2020-06-23,1,,,,,フレンドキュー,0
1833,7010401050454,登記記録の閉鎖等,0,2021-07-27,2021-07-12,セントビラ・フォールディング株式会社,,株式会社,東京都,台東区,池之端３丁目５番２号,,13,106,1100008,,,2021-07-12,清算の結了等,,,2015-10-05,1,,,,,セントビラフォールディング,0
1848,7010901044377,登記記録の閉鎖等,0,2021-07-27,2021-07-13,Ｒａｋｕｔｅｎ　Ｍｏｏｖｅ株式会社,,株式会社,東京都,世田谷区,玉川１丁目１４番１号,,13,112,1580094,,,2021-07-13,清算の結了等,,,2019-06-17,1,,,,,ラクテンムーブ,0
1866,7011102024375,登記記録の閉鎖等,0,2021-07-27,2021-07-12,有限会社シンワ物流,,有限会社,東京都,新宿区,早稲田鶴巻町５０９番地,,13,104,1620041,,,2021-07-12,清算の結了等,,,2015-10-05,1,,,,,シンワブツリュウ,0
1913,7021002002488,登記記録の閉鎖等,0,2021-07-27,2021-07-13,有限会社滋,,有限会社,神奈川県,藤沢市,藤が岡２丁目１５番１－５０１号,,14,205,2510004,,,2021-07-13,清算の結了等,,,2015-10-05,1,,,,,シゲル,0
1915,7030001092399,登記記録の閉鎖等,0,2021-07-27,2021-07-14,株式会社Ｓ＆Ｋ,,株式会社,埼玉県,大里郡寄居町,大字富田２８６１番地１０,,11,408,3691216,,,2021-07-14,清算の結了等,,,2015-10-05,1,,,,,エスアンドケイ,0
1939,7060001016578,登記記録の閉鎖等,0,2021-07-27,2021-07-12,株式会社日向野商店,,株式会社,栃木県,栃木市,大町１１番１２号,,09,203,3280071,,,2021-07-12,清算の結了等,,,2015-10-05,1,,,,,ヒガノショウテン,0
1948,7080101019784,登記記録の閉鎖等,0,2021-07-27,2021-07-21,株式会社ブリングアップ,,株式会社,静岡県,富士宮市,富士見ケ丘１５０６番地,,22,207,4180014,,,2021-07-21,清算の結了等,,,2017-05-16,1,,,,,ブリングアップ,0
1966,7120001203814,登記記録の閉鎖等,0,2021-07-27,2021-07-13,株式会社ｅｃｌａｔ　ｖｉｆ,,株式会社,大阪府,大阪市北区,中津１丁目６番２９号ザ・セントラルマークタワー３３１５,,27,127,5310071,,,2021-07-13,清算の結了等,,,2017-02-20,1,,,,,,0
2000,7120105004407,登記記録の閉鎖等,0,2021-07-27,2021-07-26,ＮＰＯ法人パル松原,,その他の設立登記法人,大阪府,松原市,南新町５丁目１３番４２号,,27,217,5800023,,,2021-07-26,清算の結了等,,,2015-10-05,1,,,,,パルマツバラ,0
2025,7160001007518,登記記録の閉鎖等,0,2021-07-27,2021-07-13,株式会社ＪＶＡ,,株式会社,滋賀県,長浜市,末広町２４０－６,,25,203,5260063,,,2021-07-13,清算の結了等,,,2015-10-05,1,,,,,ジェイヴィエー,0
2043,7180301010244,登記記録の閉鎖等,0,2021-07-27,2021-07-26,株式会社丸和運送,,株式会社,愛知県,豊川市,市田町上新屋４８番地,,23,207,4420862,,,2021-07-26,清算の結了等,,,2015-10-05,1,,,,,マルワウンソウ,0
2053,7200003005102,登記記録の閉鎖等,0,2021-07-27,2021-07-20,ＹＮアセットマネジメント合同会社,,合同会社,岐阜県,中津川市,加子母１７９７番地,,21,206,5080421,,,2021-07-20,清算の結了等,,,2021-03-05,1,,,,,ワイエヌアセットマネジメント,0
2059,7240005013710,登記記録の閉鎖等,0,2021-07-27,2021-07-05,特定非営利活動法人ふくやま子ども造形教育研究所,,その他の設立登記法人,広島県,福山市,東川口町３丁目８番５０号ガーデンハイム弐番館２０３,,34,207,7200821,,,2021-07-05,清算の結了等,,,2015-10-05,1,,,,,フクヤマコドモゾウケイキョウイクケンキュウショ,0
2092,7370301000102,登記記録の閉鎖等,0,2021-07-27,2021-07-05,株式会社石巻プロパン,,株式会社,宮城県,石巻市,南浜町３丁目１２番２号,,04,202,9860835,,,2021-07-05,清算の結了等,,,2015-10-05,1,,,,,イシノマキプロパン,0
2103,7400005005393,登記記録の閉鎖等,0,2021-07-27,2021-07-14,特定非営利活動法人サンガ岩手,,その他の設立登記法人,岩手県,盛岡市,本宮５丁目１０番１３号,,03,201,0200866,,,2021-07-14,清算の結了等,,,2015-10-05,1,,,,,サンガイワテ,0
2169,8010801018133,登記記録の閉鎖等,0,2021-07-27,2021-07-14,武蔵野ウオーターリング株式会社,,株式会社,東京都,大田区,北千束３丁目２番７号,,13,111,1450062,,,2021-07-14,清算の結了等,,,2015-10-05,1,,,,,ムサシノウオーターリング,0
2173,8010901043790,登記記録の閉鎖等,0,2021-07-27,2021-07-20,天行株式会社,,株式会社,東京都,世田谷区,桜丘２丁目５番２０号,,13,112,1560054,,,2021-07-20,清算の結了等,,,2019-03-11,1,,,,,テンコウ,0
2184,8011103007031,登記記録の閉鎖等,0,2021-07-27,2021-07-12,クロサポ・ハンズオン・コンサルティング合同会社,,合同会社,東京都,新宿区,新宿５丁目１５番１４号,,13,104,1600022,,,2021-07-12,清算の結了等,,,2017-05-08,1,,,,,クロサポハンズオンコンサルティング,0
2196,8011701010469,登記記録の閉鎖等,0,2021-07-27,2021-07-20,株式会社スタジオキャッスル,,株式会社,東京都,江戸川区,中葛西４丁目１２番２号,,13,123,1340083,,,2021-07-20,清算の結了等,,,2015-10-05,1,,,,,スタジオキャッスル,0
2246,8021002069659,登記記録の閉鎖等,0,2021-07-27,2021-07-09,有限会社アークデザインスタジオ,,有限会社,神奈川県,横須賀市,追浜東町１丁目１０番地１２,,14,201,2370063,,,2021-07-09,清算の結了等,,,2015-10-05,1,,,,,アークデザインスタジオ,0
2255,8030005015990,登記記録の閉鎖等,0,2021-07-27,2021-07-09,特定非営利活動法人暮楽創,,その他の設立登記法人,埼玉県,所沢市,大字荒幡５３４番地の２７,,11,208,3591133,,,2021-07-09,清算の結了等,,,2015-10-05,1,,,,,クラソウ,0
2261,8040002058455,登記記録の閉鎖等,0,2021-07-27,2021-07-12,有限会社柳屋洋品店,,有限会社,千葉県,白井市,白井４２９番地,,12,232,2701421,,,2021-07-12,清算の結了等,,,2015-10-05,1,,,,,ヤナギヤヨウヒンテン,0
2349,8180001084587,登記記録の閉鎖等,0,2021-07-27,2021-07-19,大塚毛織株式会社,,株式会社,愛知県,一宮市,木曽川町黒田字酉新田西ノ切２８番地,,23,203,4930001,,,2021-07-19,清算の結了等,,,2015-10-05,1,,,,,オオツカケオリ,0
2367,8220001014969,登記記録の閉鎖等,0,2021-07-27,2021-07-12,株式会社サンエスライン,,株式会社,石川県,白山市,小柳町ろ１６６番地１,,17,210,9202103,,,2021-07-12,清算の結了等,,,2015-10-05,1,,,,,サンエスライン,0
2375,8260001034352,登記記録の閉鎖等,0,2021-07-27,2021-07-21,株式会社オール・イン物産,,株式会社,岡山県,岡山市北区,今保６２９番地Ｅ棟,,33,101,7010145,,,2021-07-21,清算の結了等,,,2020-05-22,1,,,,,オールインブッサン,0
2381,8270001003075,登記記録の閉鎖等,0,2021-07-27,2021-07-16,株式会社エコクマ,,株式会社,鳥取県,鳥取市,東今在家６１番地１９,,31,201,6800852,,,2021-07-16,清算の結了等,,,2015-10-05,1,,,,,エコクマ,0
2408,8370001016125,登記記録の閉鎖等,0,2021-07-27,2021-07-07,ＮＡＶＩＸサービス株式会社,,株式会社,宮城県,仙台市若林区,卸町東１丁目１番５５号,,04,103,9840002,,,2021-07-07,清算の結了等,,,2015-10-05,1,,,,,ナビックスサービス,0
2425,8400001007013,登記記録の閉鎖等,0,2021-07-27,2021-07-16,宮古地方卸売市場株式会社宮古青果,,株式会社,岩手県,宮古市,宮町３丁目１０番４８号,,03,202,0270052,,,2021-07-16,清算の結了等,,,2015-10-05,1,,,,,ミヤコチホウオロシウリイチバミヤコセイカ,0
2427,8400002004249,登記記録の閉鎖等,0,2021-07-27,2021-07-15,有限会社太田農産,,有限会社,岩手県,盛岡市,玉山字一笠６番地,,03,201,0200202,,,2021-07-15,清算の結了等,,,2015-10-05,1,,,,,オオタノウサン,0
2428,8410002009998,登記記録の閉鎖等,0,2021-07-27,2021-07-14,有限会社サンコーサービス,,有限会社,秋田県,鹿角市,花輪字扇ノ間１２６番地６,,05,209,0185201,,,2021-07-14,清算の結了等,,,2015-10-05,1,,,,,サンコーサービス,0
2445,8500001014115,登記記録の閉鎖等,0,2021-07-27,2021-07-16,株式会社サンピュア,,株式会社,愛媛県,西予市,野村町野村１４号３５７番地,,38,214,7971212,,,2021-07-16,清算の結了等,,,2015-10-05,1,,,,,,0
2449,8500002014064,登記記録の閉鎖等,0,2021-07-27,2021-07-19,有限会社加藤工業,,有限会社,愛媛県,西条市,下島山２５１５番地,,38,206,7930000,,,2021-07-19,清算の結了等,,,2015-10-05,1,,,,,カトウコウギョウ,0
2478,9010501017194,登記記録の閉鎖等,0,2021-07-27,2021-07-16,システム・ソリューションズ・ディストリビューション株式会社,,株式会社,東京都,品川区,大崎２丁目１番１号,,13,109,1410032,,,2021-07-16,清算の結了等,,,2015-10-05,1,,,,,システムソリューションズディストリビューション,0
2479,9010501020446,登記記録の閉鎖等,0,2021-07-27,2021-07-06,株式会社リジュー,,株式会社,東京都,文京区,湯島３丁目３１番３号,,13,105,1130034,,,2021-07-06,合併による解散等,2010001003387,令和３年７月１日東京都文京区湯島三丁目３１番３号株式会社ジェイメック（2010001003387）に合併し解散,2015-10-05,1,,,,,リジュー,0
2499,9011002011232,登記記録の閉鎖等,0,2021-07-27,2021-06-30,有限会社古瀬工務店,,有限会社,東京都,渋谷区,笹塚３丁目１６番４号,00064820,13,113,1510073,,,2021-06-30,清算の結了等,,,2015-10-05,1,,,,,フルセコウムテン,0
2502,9011101087090,登記記録の閉鎖等,0,2021-07-27,2021-07-07,株式会社ＡＩ　Ｈｏｔｅｌ,,株式会社,東京都,新宿区,百人町２丁目８－２金子ビル１０２号室,,13,104,1690073,,,2021-07-07,清算の結了等,,,2019-03-15,1,,,,,エーアイホテル,0
2504,9011201011660,登記記録の閉鎖等,0,2021-07-27,2021-07-16,株式会社シービーエー,,株式会社,東京都,中野区,江古田２丁目１１番１４号,,13,114,1650022,,,2021-07-16,清算の結了等,,,2015-10-05,1,,,,,シービーエー,0
2534,9020001061956,登記記録の閉鎖等,0,2021-07-27,2021-07-13,アクアミント株式会社,,株式会社,神奈川県,横浜市神奈川区,新浦島町２丁目２番地１－６３３号,,14,102,2210031,,,2021-07-13,清算の結了等,,,2015-10-05,1,,,,,アクアミント,0
2538,9020001131734,登記記録の閉鎖等,0,2021-07-27,2021-07-13,株式会社ライノプロダクツ,,株式会社,神奈川県,横浜市鶴見区,鶴見中央４丁目３４番２６－４１０号,,14,101,2300051,,,2021-07-13,清算の結了等,,,2019-06-25,1,,,,,ライノプロダクツ,0
2540,9020001135446,登記記録の閉鎖等,0,2021-07-27,2021-07-09,ＩＭＴ株式会社,,株式会社,東京都,港区,芝浦３丁目１７番１１号,,13,103,1080023,,,2021-07-09,清算の結了等,,,2020-03-25,1,,,,,アイエムティー,0
2541,9020002049554,登記記録の閉鎖等,0,2021-07-27,2021-07-12,有限会社羽賀電機商会,,有限会社,神奈川県,横浜市鶴見区,駒岡４丁目１３番２６号,,14,101,2300071,,,2021-07-12,清算の結了等,,,2015-10-05,1,,,,,ハガデンキショウカイ,0
2555,9021002022278,登記記録の閉鎖等,0,2021-07-27,2021-07-15,有限会社玉寿司,,有限会社,神奈川県,相模原市南区,相模大野５丁目８番６号,,14,153,2520303,,,2021-07-15,清算の結了等,,,2015-10-05,1,,,,,タマズシ,0
2586,9080001010387,登記記録の閉鎖等,0,2021-07-27,2021-07-21,株式会社コピング,,株式会社,静岡県,静岡市駿河区,中田３丁目８番５号,,22,102,4228041,,,2021-07-21,清算の結了等,,,2015-10-05,1,,,,,,0
2606,9110005012533,登記記録の閉鎖等,0,2021-07-27,2021-07-15,公益財団法人山の暮らし再生機構,,その他の設立登記法人,新潟県,長岡市,大手通１丁目４番地１１,,15,202,9400062,,,2021-07-15,清算の結了等,,,2015-10-05,1,,,,,ヤマノクラシサイセイキコウ,0
2611,9120001129801,登記記録の閉鎖等,0,2021-07-27,2021-07-13,株式会社ＳＨＥＡＲＴＹ,,株式会社,大阪府,大阪市西区,新町４丁目２－３Ｗ．Ｏ．Ｂ．ＳＨＩＮＭＡＣＨＩ１００２,,27,106,5500013,,,2021-07-13,清算の結了等,,,2015-10-05,1,,,,,,0
2612,9120001165012,登記記録の閉鎖等,0,2021-07-27,2021-07-14,日本インドネシア・エル・エヌ・ジー株式会社,,株式会社,大阪府,大阪市中央区,今橋３丁目３番１３号,,27,128,5410042,,,2021-07-14,清算の結了等,,,2015-10-05,1,,,,,ニホンインドネシアエルエヌジー,0
2632,9120901017287,登記記録の閉鎖等,0,2021-07-27,2021-07-19,株式会社アプラスパーソナルローン,,株式会社,大阪府,吹田市,豊津町９番１号,,27,205,5640051,,,2021-07-19,合併による解散等,8011101034928,令和３年７月１日東京都千代田区外神田三丁目１２番８号株式会社アプラスインベストメント（8011101034928）に合併し解散,2015-10-05,1,,,,,アプラスパーソナルローン,0
2636,9130001024786,登記記録の閉鎖等,0,2021-07-27,2021-07-16,株式会社もも,,株式会社,京都府,京都市山科区,小野弓田町２０番地,,26,110,6078253,,,2021-07-16,清算の結了等,,,2015-10-05,1,,,,,モモ,0
2649,9130002014035,登記記録の閉鎖等,0,2021-07-27,2021-07-19,有限会社丈六工務店,,有限会社,京都府,京都市伏見区,石田大山町５番地の６９,,26,109,6011433,,,2021-07-19,清算の結了等,,,2015-10-05,1,,,,,ジョウロクコウムテン,0
2667,9160002012424,登記記録の閉鎖等,0,2021-07-27,2021-07-15,有限会社三島技研,,有限会社,滋賀県,草津市,平井５丁目１３番４号,,25,206,5250023,,,2021-07-15,清算の結了等,,,2015-10-05,1,,,,,ミシマギケン,0
2671,9180001024625,登記記録の閉鎖等,0,2021-07-27,2021-07-16,株式会社旭,,株式会社,愛知県,名古屋市西区,比良３丁目１２３番地,,23,104,4520802,,,2021-07-16,清算の結了等,,,2015-10-05,1,,,,,アサヒ,0
2672,9180001091616,登記記録の閉鎖等,0,2021-07-27,2021-07-15,カネサン商事株式会社,,株式会社,愛知県,半田市,清城町１丁目１０番地の５,,23,205,4750917,,,2021-07-15,清算の結了等,,,2015-10-05,1,,,,,カネサンショウジ,0
2673,9180001101234,登記記録の閉鎖等,0,2021-07-27,2021-07-15,株式会社ワイテック,,株式会社,愛知県,春日井市,森山田町６４番地,,23,206,4860935,,,2021-07-15,清算の結了等,,,2015-10-05,1,,,,,ワイテック,0
2677,9180001138169,登記記録の閉鎖等,0,2021-07-27,2021-07-19,株式会社生活サポートあいち,,株式会社,愛知県,名古屋市西区,江向町６丁目３０番地１３号室,,23,104,4510013,,,2021-07-19,清算の結了等,,,2019-09-26,1,,,,,サポートアイチ,0
2737,9420001015599,登記記録の閉鎖等,0,2021-07-27,2021-07-14,種市株式会社,,株式会社,青森県,三沢市,大字三沢字戸崎１０１番地１４３０号,,02,207,0330022,,,2021-07-14,清算の結了等,,,2017-02-10,1,,,,,タネイチ,0
