sequenceNumber,corporateNumber,process,correct,updateDate,changeDate,name,nameImageId,kind,prefectureName,cityName,streetNumber,addressImageId,prefectureCode,cityCode,postCode,addressOutside,addressOutsideImageId,closeDate,closeCause,successorCorporateNumber,changeCause,assignmentDate,latest,enName,enPrefectureName,enCityName,enAddressOutside,furigana,hihyoji
11,1010001193304,登記記録の閉鎖等,0,2022-03-10,2022-03-07,株式会社ＩＰＭジャパン,,株式会社,東京都,千代田区,麹町５丁目３番４号,,13,101,1020083,,,2022-03-07,清算の結了等,,,2018-07-13,1,,,,,アイピーエムジャパン,0
12,1010001193790,登記記録の閉鎖等,0,2022-03-10,2022-03-08,株式会社Ｔｒｅｅ　Ｆｉｅｌｄ,,株式会社,東京都,中央区,京橋３丁目１番１号東京スクエアガーデン,,13,102,1040031,,,2022-03-08,合併による解散等,7010501023269,令和４年３月１日東京都台東区東上野一丁目１番１４号株式会社大都技研（7010501023269）に合併し解散,2018-08-02,1,,,,,ツリーフィールド,0
13,1010001194269,登記記録の閉鎖等,0,2022-03-10,2022-03-03,大日本貿易株式会社,,株式会社,東京都,港区,虎ノ門５丁目１３番１号虎ノ門４０ＭＴビル,,13,103,1050001,,,2022-03-03,清算の結了等,,,2018-08-22,1,,,,,ダイニッポンボウエキ,0
82,1020005013738,登記記録の閉鎖等,0,2022-03-10,2022-03-07,ＮＰＯ法人能見台南キッズクラブ,,その他の設立登記法人,神奈川県,横浜市金沢区,釜利谷東４丁目２０番１２号,,14,108,2360042,,,2022-03-07,清算の結了等,,,2018-06-27,1,,,,,ノウケンダイミナミキッズクラブ,0
90,1030001068512,登記記録の閉鎖等,0,2022-03-10,2022-03-07,ラーニング・システムズ株式会社,,株式会社,埼玉県,越谷市,南越谷１丁目２８７６番１－１階Ａ５－１号室,,11,222,3430845,,,2022-03-07,清算の結了等,,,2015-10-05,1,,,,,ラーニングシステムズ,0
91,1030001085342,登記記録の閉鎖等,0,2022-03-10,2022-03-07,ＪＦＥ建材加工株式会社,,株式会社,埼玉県,熊谷市,三ヶ尻６１００番地,,11,202,3600843,,,2022-03-07,合併による解散等,2010001101505,令和４年３月１日東京都港区港南一丁目２番７０号ＪＦＥ建材株式会社（2010001101505）に合併し解散,2015-10-05,1,,,,,ジェイエフイーケンザイカコウ,0
97,1040001096883,登記記録の閉鎖等,0,2022-03-10,2022-03-02,株式会社アクシア,,株式会社,千葉県,君津市,東坂田４丁目３番３号,,12,225,2991144,,,2022-03-02,合併による解散等,9040001051658,令和４年３月１日千葉県君津市東坂田四丁目３番３号株式会社新昭和（9040001051658）に合併し解散,2016-09-12,1,,,,,アクシア,0
163,1140001115261,登記記録の閉鎖等,0,2022-03-10,2022-03-04,株式会社シェイシェイパール兵庫,,株式会社,兵庫県,神戸市中央区,北長狭通１丁目３０番３５号,,28,110,6500012,,,2022-03-04,清算の結了等,,,2019-10-31,1,,,,,シェイシェイパールヒョウゴ,0
166,1140002050103,登記記録の閉鎖等,0,2022-03-10,2022-03-07,有限会社パートナーズ,,有限会社,兵庫県,姫路市,青山西５丁目１番２１号,,28,201,6712224,,,2022-03-07,清算の結了等,,,2015-10-05,1,,,,,パートナーズ,0
195,1180305007580,登記記録の閉鎖等,0,2022-03-10,2022-02-14,天理教八樂分教会,,その他の設立登記法人,愛知県,新城市,八束穂字家前７７１番地,,23,221,4411318,,,2022-02-14,合併による解散等,5180305007577,令和４年２月１４日愛知県新城市字西入船１２番地天理教新城分教会（5180305007577）に合併し解散,2015-10-05,1,,,,,,0
196,1190001014558,登記記録の閉鎖等,0,2022-03-10,2022-03-08,関西工業株式会社,,株式会社,三重県,三重郡川越町,大字高松１２０番地,,24,344,5108121,,,2022-03-08,清算の結了等,,,2015-10-05,1,,,,,カンサイコウギョウ,0
208,1240001025533,登記記録の閉鎖等,0,2022-03-10,2022-03-02,呉宇部石灰株式会社,,株式会社,広島県,呉市,昭和町１１番１号,,34,202,7370027,,,2022-03-02,清算の結了等,,,2015-10-05,1,,,,,クレウベセッカイ,0
214,1240005007148,登記記録の閉鎖等,0,2022-03-10,2022-02-17,天理教宮島口分教会,,その他の設立登記法人,広島県,廿日市市,大野２７４５番地の１,,34,213,7390488,,,2022-02-17,合併による解散等,8250005006258,令和４年２月１０日山口県岩国市麻里布町三丁目１９番２９号天理教周東大教会（8250005006258）に合併し解散,2015-10-05,1,,,,,テンリキョウミヤジマグチブンキョウカイ,0
232,1320001001658,登記記録の閉鎖等,0,2022-03-10,2022-03-02,株式会社ダイナックス,,株式会社,大分県,大分市,中島西２丁目１番２号,,44,201,8700047,,,2022-03-02,清算の結了等,,,2015-10-05,1,,,,,,0
239,1370002008053,登記記録の閉鎖等,0,2022-03-10,2022-03-04,株式会社タンノ,,株式会社,宮城県,仙台市宮城野区,原町２丁目５番４６号,,04,102,9830841,,,2022-03-04,清算の結了等,,,2015-10-05,1,,,,,タンノ,0
274,1500002016703,登記記録の閉鎖等,0,2022-03-10,2022-03-04,有限会社立花,,有限会社,愛媛県,新居浜市,坂井町３丁目３番５５号,,38,205,7920812,,,2022-03-04,清算の結了等,,,2015-10-05,1,,,,,タチバナ,0
286,2010005013036,登記記録の閉鎖等,0,2022-03-10,2022-03-04,タニガワ・ホールディングス一般社団法人,,その他の設立登記法人,東京都,中央区,日本橋１丁目４番１号,,13,102,1030027,,,2022-03-04,清算の結了等,,,2015-10-05,1,,,,,タニガワホールディングス,0
338,2012801018259,登記記録の閉鎖等,0,2022-03-10,2022-03-07,株式会社フロンティア,,株式会社,東京都,立川市,錦町３丁目１番２号３階,,13,202,1900022,,,2022-03-07,清算の結了等,,,2017-09-13,1,,,,,フロンティア,0
340,2013302006447,登記記録の閉鎖等,0,2022-03-10,2022-03-03,有限会社ティーエムケーコーポレーション,,有限会社,東京都,豊島区,南長崎６丁目３０番９号,,13,116,1710052,,,2022-03-03,清算の結了等,,,2015-10-05,1,,,,,ティーエムケーコーポレーション,0
346,2020001082372,登記記録の閉鎖等,0,2022-03-10,2022-03-07,株式会社セブンスコード,,株式会社,神奈川県,川崎市幸区,堀川町５８０－１６,,14,132,2120013,,,2022-03-07,清算の結了等,,,2015-10-05,1,,,,,セブンスコード,0
354,2021001029009,登記記録の閉鎖等,0,2022-03-10,2022-03-07,株式会社アルカディア,,株式会社,神奈川県,大和市,南林間２丁目１０－１７２Ｆ,,14,213,2420006,,,2022-03-07,清算の結了等,,,2015-10-05,1,,,,,アルカディア,0
368,2030001101395,登記記録の閉鎖等,0,2022-03-10,2022-03-01,株式会社愛喜,,株式会社,埼玉県,春日部市,赤沼１４１４番地,,11,214,3440015,,,2022-03-01,清算の結了等,,,2015-10-05,1,,,,,アイキ,0
387,2120001026063,登記記録の閉鎖等,0,2022-03-10,2022-03-04,アサヒエンジニアリング株式会社,,株式会社,大阪府,大阪市此花区,梅香３丁目２４番９号,,27,104,5540013,,,2022-03-04,清算の結了等,,,2015-10-05,1,,,,,,0
391,2120001135665,登記記録の閉鎖等,0,2022-03-10,2022-03-07,株式会社マルイチ,,株式会社,大阪府,大阪市中央区,南船場４丁目１１番２３号,,27,128,5420081,,,2022-03-07,清算の結了等,,,2015-10-05,1,,,,,マルイチ,0
394,2120001215442,登記記録の閉鎖等,0,2022-03-10,2022-02-15,株式会社ケイテック,,株式会社,大阪府,大阪市西区,京町堀１丁目１４番２８号４０３号室,,27,106,5500003,,,2022-02-15,清算の結了等,,,2018-08-17,1,,,,,ケイテック,0
403,2120102015106,登記記録の閉鎖等,0,2022-03-10,2022-03-04,有限会社井出コンタクトレンズ研究所,,有限会社,大阪府,大阪狭山市,金剛２丁目９番１７号,,27,231,5890006,,,2022-03-04,清算の結了等,,,2015-10-05,1,,,,,イデコンタクトレンズ,0
426,2140001070935,登記記録の閉鎖等,0,2022-03-10,2022-03-07,ティー・エス・ディーインペリアル株式会社,,株式会社,兵庫県,西宮市,甲風園１丁目７番３号,,28,204,6620832,,,2022-03-07,清算の結了等,,,2015-10-05,1,,,,,ティーエスディーインペリアル,0
428,2140001120046,登記記録の閉鎖等,0,2022-03-10,2022-03-07,株式会社協和機工,,株式会社,兵庫県,尼崎市,西昆陽２丁目９番１号パレ武庫川プルミエール２０８３号,,28,202,6610047,,,2022-03-07,清算の結了等,,,2021-01-08,1,,,,,キョウワキコウ,0
430,2140002000932,登記記録の閉鎖等,0,2022-03-10,2022-03-04,六稜有限会社,,有限会社,兵庫県,芦屋市,三条町６番１－５０２号,,28,206,6590087,,,2022-03-04,清算の結了等,,,2015-10-05,1,,,,,リクリョウ,0
433,2140005011134,登記記録の閉鎖等,0,2022-03-10,2022-02-24,天理教西神木分教会,00042263,その他の設立登記法人,兵庫県,尼崎市,武庫川町１丁目１５番地の２３,,28,202,6600084,,,2022-02-24,合併による解散等,8140005001311,令和４年２月２４日神戸市灘区城内通一丁目３番１４号天理教西神明分教会（8140005001311）に合併し解散,2015-10-05,1,,,,,テンリキョウニシシンボクブンキョウカイ,0
449,2180003017740,登記記録の閉鎖等,0,2022-03-10,2022-03-07,アトム合同会社,,合同会社,愛知県,名古屋市中区,大須２丁目１８番地５５号,,23,106,4600011,,,2022-03-07,清算の結了等,,,2017-02-27,1,,,,,アトム,0
459,2190005006897,登記記録の閉鎖等,0,2022-03-10,2022-02-24,天理教宮栄分教会,,その他の設立登記法人,三重県,松阪市,大津町３４番地の１０,,24,204,5150031,,,2022-02-24,合併による解散等,2190005005230,令和４年２月２４日三重県度会郡南伊勢町伊勢路１２４５番地天理教南勢町分教会（2190005005230）に合併し解散,2015-10-05,1,,,,,テンリキョウミヤエイブンキョウカイ,0
473,2250005000299,登記記録の閉鎖等,0,2022-03-10,2022-02-25,天理教陶分教会,,その他の設立登記法人,山口県,山口市,陶第８３９番地,,35,203,7540891,,,2022-02-25,合併による解散等,6250005000378,令和４年２月２５日山口県山口市小郡下郷２８６８番地１天理教鴻郷分教会（6250005000378）に合併し解散,2015-10-05,1,,,,,,0
492,2300005003973,登記記録の閉鎖等,0,2022-03-10,2022-03-07,特定非営利活動法人臥竜塾,,その他の設立登記法人,佐賀県,武雄市,武雄町大字昭和２４番地２９,,41,206,8430023,,,2022-03-07,清算の結了等,,,2015-10-05,1,,,,,ガリョウジュク,0
502,2330005009547,登記記録の閉鎖等,0,2022-03-10,2022-03-04,ＮＰＯ法人ユニスポ熊本,,その他の設立登記法人,熊本県,熊本市南区,薄場２丁目６番１号,,43,104,8614131,,,2022-03-04,清算の結了等,,,2016-10-14,1,,,,,ユニスポクマモト,0
524,2420002007214,登記記録の閉鎖等,0,2022-03-10,2022-03-08,有限会社新星タイヤ商会,,有限会社,青森県,八戸市,大字糠塚字土取場１９番地３９,,02,203,0310022,,,2022-03-08,清算の結了等,,,2015-10-05,1,,,,,シンセイタイヤショウカイ,0
558,3010401156643,登記記録の閉鎖等,0,2022-03-10,2022-03-02,Ｒ＆Ａ株式会社,,株式会社,東京都,港区,南青山７丁目８－８南青山ロイヤルハイツ２０３号室,,13,103,1070062,,,2022-03-02,清算の結了等,,,2020-11-26,1,,,,,アールアンドエー,0
572,3010701038211,登記記録の閉鎖等,0,2022-03-10,2022-03-03,タメニーパーティーエージェント株式会社,,株式会社,東京都,品川区,大崎１丁目２０番３号,,13,109,1410032,,,2022-03-03,合併による解散等,3010701024252,令和４年３月１日東京都品川区大崎一丁目２０番３号タメニー株式会社（3010701024252）に合併し解散,2019-09-24,1,,,,,タメニーパーティーエージェント,0
574,3010801031413,登記記録の閉鎖等,0,2022-03-10,2022-03-03,株式会社ＭａｓｔｅｒＸ,,株式会社,東京都,大田区,南蒲田３丁目１２番８号１０１号室,,13,111,1440035,,,2022-03-03,清算の結了等,,,2020-11-19,1,,,,,マスターエックス,0
580,3011001050419,登記記録の閉鎖等,0,2022-03-10,2022-03-07,株式会社ＹＯＵＲ　ＳＡＮＣＴＵＡＲＹ,,株式会社,東京都,新宿区,岩戸町１８番地,,13,104,1620832,,,2022-03-07,合併による解散等,7010401157200,令和４年３月１日東京都港区北青山三丁目５番１２号株式会社ストラスブルゴ（7010401157200）に合併し解散,2015-10-05,1,,,,,ユアサンクチュアリー,0
590,3011201002260,登記記録の閉鎖等,0,2022-03-10,2022-03-03,株式会社ＪＭＣ,,株式会社,東京都,中野区,本町２丁目４６番１号,,13,114,1640012,,,2022-03-03,清算の結了等,,,2015-10-05,1,,,,,ジェイエムシー,0
599,3012401016298,登記記録の閉鎖等,0,2022-03-10,2022-03-08,株式会社ソネックス,,株式会社,東京都,国分寺市,西町２丁目７番地３９,,13,214,1850035,,,2022-03-08,清算の結了等,,,2015-10-05,1,,,,,ソネックス,0
615,3020001138842,登記記録の閉鎖等,0,2022-03-10,2022-03-08,株式会社横浜ヘルバ樹木医事務所,,株式会社,神奈川県,横浜市都筑区,見花山一丁目３０番見花山ビル３Ｆ,,14,118,2240066,,,2022-03-08,清算の結了等,,,2020-12-02,1,,,,,ヨコハマヘルバジュモクイジムショ,0
627,3021002029543,登記記録の閉鎖等,0,2022-03-10,2022-03-08,有限会社クリーン,,有限会社,神奈川県,相模原市緑区,原宿南２丁目４４番地４,,14,151,2520103,,,2022-03-08,清算の結了等,,,2015-10-05,1,,,,,クリーン,0
630,3021002056967,登記記録の閉鎖等,0,2022-03-10,2022-03-07,有限会社エイワイ物流,,有限会社,神奈川県,平塚市,纒５０２－１,,14,203,2540901,,,2022-03-07,清算の結了等,,,2015-10-05,1,,,,,,0
634,3021003009759,登記記録の閉鎖等,0,2022-03-10,2022-03-07,ＭＡＧＩＡ．ｊｐ合同会社,,合同会社,神奈川県,中郡二宮町,二宮９２番地の１１１,,14,342,2590123,,,2022-03-07,清算の結了等,,,2020-10-08,1,,,,,マギアドットジェーピー,0
643,3030002095421,登記記録の閉鎖等,0,2022-03-10,2022-03-03,有限会社サニー工業,,有限会社,埼玉県,鶴ヶ島市,松ヶ丘３丁目３２番８号,,11,241,3502205,,,2022-03-03,清算の結了等,,,2015-10-05,1,,,,,サニーコウギョウ,0
660,3050002007192,登記記録の閉鎖等,0,2022-03-10,2022-03-04,有限会社那珂富士ドライブ,,有限会社,茨城県,那珂郡東海村,大字舟石川８８０番地の８,,08,341,3191111,,,2022-03-04,清算の結了等,,,2015-10-05,1,,,,,ナカフジドライブ,0
662,3070003001812,登記記録の閉鎖等,0,2022-03-10,2022-03-08,アーバン８８４合同会社,,合同会社,群馬県,桐生市,境野町７丁目１７７９番地の７,,10,203,3760002,,,2022-03-08,清算の結了等,,,2015-10-05,1,,,,,アーバンハヤシ,0
667,3080102016388,登記記録の閉鎖等,0,2022-03-10,2022-03-08,有限会社あおぞら,,有限会社,静岡県,富士宮市,中央町１１番７号,,22,207,4180065,,,2022-03-08,清算の結了等,,,2015-10-05,1,,,,,アオゾラ,0
672,3110005013990,登記記録の閉鎖等,0,2022-03-10,2022-03-07,相川町商品券協同組合,,その他の設立登記法人,新潟県,佐渡市,相川塩屋町２５番地,,15,224,9521542,,,2022-03-07,清算の結了等,,,2015-10-05,1,,,,,アイカワマチショウヒンケン,0
676,3120001108249,登記記録の閉鎖等,0,2022-03-10,2022-03-03,株式会社ＫＭ．コーポレーション,,株式会社,大阪府,大阪市北区,天満橋１丁目８番１０－２５０２号,,27,127,5300042,,,2022-03-03,清算の結了等,,,2015-10-05,1,,,,,ケーエムコーポレーション,0
721,3180001118606,登記記録の閉鎖等,0,2022-03-10,2022-03-07,株式会社トップ,,株式会社,愛知県,半田市,瑞穂町７丁目１番地４,,23,205,4750828,,,2022-03-07,清算の結了等,,,2015-10-05,1,,,,,トップ,0
728,3190005010551,登記記録の閉鎖等,0,2022-03-10,2022-03-09,農事組合法人鈴鹿国府の会,,その他の設立登記法人,三重県,亀山市,能褒野町３番地１３,,24,210,5190212,,,2022-03-09,清算の結了等,,,2015-10-05,1,,,,,スズカコウノカイ,0
742,3270005003258,登記記録の閉鎖等,0,2022-03-10,2022-03-02,協同組合やよいデパート,,その他の設立登記法人,鳥取県,米子市,角盤町１丁目１６８番地,,31,202,6830812,,,2022-03-02,清算の結了等,,,2015-10-05,1,,,,,ヤヨイデパート,0
760,3360002001346,登記記録の閉鎖等,0,2022-03-10,2022-03-07,有限会社川重建設工業,,有限会社,沖縄県,那覇市,首里大名町２丁目２４番地５,,47,201,9030802,,,2022-03-07,清算の結了等,,,2015-10-05,1,,,,,カワジュウケンセツコウギョウ,0
767,3380001010610,登記記録の閉鎖等,0,2022-03-10,2022-03-04,株式会社ミズ,,株式会社,福島県,東白川郡棚倉町,大字流字豊先１番地,,07,481,9635663,,,2022-03-04,清算の結了等,,,2015-10-05,1,,,,,ミズ,0
780,3400001010021,登記記録の閉鎖等,0,2022-03-10,2022-03-09,株式会社Ｔａｋｅ　Ｂｏａｔ,,株式会社,岩手県,下閉伊郡岩泉町,岩泉字太田１０番地５　１０１号室,,03,483,0270501,,,2022-03-09,清算の結了等,,,2015-10-05,1,,,,,,0
784,3430001026948,登記記録の閉鎖等,0,2022-03-10,2022-03-07,株式会社コーケン,,株式会社,北海道,札幌市清田区,有明１１７番地,,01,110,0040821,,,2022-03-07,清算の結了等,,,2015-10-05,1,,,,,コーケン,0
796,3480001004486,登記記録の閉鎖等,0,2022-03-10,2022-03-07,四國開発株式会社,,株式会社,徳島県,吉野川市,川島町児島字下女辻１４番地２,00005796,36,205,7793305,,,2022-03-07,清算の結了等,,,2015-10-05,1,,,,,シコクカイハツ,0
800,4010001165928,登記記録の閉鎖等,0,2022-03-10,2022-02-22,株式会社ｎｅｘｔ　ｉｎｎｏｖａｔｉｏｎ,,株式会社,東京都,文京区,春日２丁目１９番１１号ライオンズマンション小石川台２Ｆ,,13,105,1120003,,,2022-02-22,合併による解散等,3010401144986,令和４年２月１日東京都港区愛宕二丁目５番１号愛宕グリーンヒルズＭＯＲＩタワー株式会社ＮＳＳＫ－Ｊ（3010401144986）に合併し解散,2015-10-05,1,,,,,ネクストイノベーション,0
809,4010002012856,登記記録の閉鎖等,0,2022-03-10,2022-03-04,有限会社トリトン,,有限会社,東京都,千代田区,神田三崎町２丁目１番１６号,,13,101,1010061,,,2022-03-04,清算の結了等,,,2015-10-05,1,,,,,トリトン,0
834,4011003005262,登記記録の閉鎖等,0,2022-03-10,2022-03-03,合同会社棚倉ソーラーパーク,,合同会社,東京都,中央区,銀座１丁目１８番２号太平ビル８階,,13,102,1040061,,,2022-03-03,清算の結了等,,,2015-10-05,1,,,,,タナクラソーラーパーク,0
843,4011601024580,登記記録の閉鎖等,0,2022-03-10,2022-03-03,株式会社Ｋｃａｓｔ,,株式会社,東京都,練馬区,大泉町１丁目３番２０号,,13,120,1780062,,,2022-03-03,清算の結了等,,,2020-10-22,1,,,,,ケイキャスト,0
854,4012802007300,登記記録の閉鎖等,0,2022-03-10,2022-03-04,有限会社マスコビジネス,,有限会社,東京都,武蔵村山市,榎２丁目５７番地の２,,13,223,2080022,,,2022-03-04,清算の結了等,,,2015-10-05,1,,,,,マスコビジネス,0
861,4020001097154,登記記録の閉鎖等,0,2022-03-10,2022-03-07,ケー・フラッグス株式会社,,株式会社,神奈川県,横浜市瀬谷区,本郷３丁目１２番地２２,,14,114,2460015,,,2022-03-07,清算の結了等,,,2015-10-05,1,,,,,ケーフラッグス,0
877,4030003014321,登記記録の閉鎖等,0,2022-03-10,2022-03-04,合同会社Ｐ４Ｅ,,合同会社,埼玉県,川越市,大字古谷上６０８３－８グリーンパークＰ１－４０４,,11,201,3500001,,,2022-03-04,清算の結了等,,,2019-10-30,1,,,,,ピーフォーイー,0
879,4040001057858,登記記録の閉鎖等,0,2022-03-10,2022-03-03,株式会社東金銀行,,株式会社,千葉県,東金市,東金１０５９番地,,12,213,2830802,,,2022-03-03,清算の結了等,,,2015-10-05,1,,,,,,0
917,4120001030096,登記記録の閉鎖等,0,2022-03-10,2022-03-07,株式会社大阪港共同配船所,,株式会社,大阪府,八尾市,荘内町１丁目２番２０－４０６号,,27,212,5810005,,,2022-03-07,清算の結了等,,,2015-10-05,1,,,,,オオサカコウキョウドウハイセンショ,0
919,4120001083012,登記記録の閉鎖等,0,2022-03-10,2022-03-07,株式会社ソフトパス,,株式会社,大阪府,大阪市中央区,南船場３丁目８番７号,,27,128,5420081,,,2022-03-07,清算の結了等,,,2015-10-05,1,,,,,ソフトパス,0
929,4120001235934,登記記録の閉鎖等,0,2022-03-10,2022-03-03,Ｆｌｏｒｅｓｃｅｎｃｅ株式会社,,株式会社,大阪府,大阪市港区,市岡元町２丁目６番１１号－２０６,,27,107,5520002,,,2022-03-03,清算の結了等,,,2021-03-15,1,,,,,フロレセンス,0
935,4120101047040,登記記録の閉鎖等,0,2022-03-10,2022-03-04,株式会社ａｊ,,株式会社,大阪府,和泉市,黒鳥町２丁目１３番１４号,,27,219,5940022,,,2022-03-04,清算の結了等,,,2015-10-05,1,,,,,エージェー,0
939,4120901034444,登記記録の閉鎖等,0,2022-03-10,2022-03-03,Ｕ－ＴＥＣ興産株式会社,,株式会社,東京都,港区,西新橋２丁目８番６号,,13,103,1050003,,,2022-03-03,合併による解散等,1010401149888,令和４年３月１日東京都港区西新橋二丁目８番６号Ｕ－ＴＥＣ興産株式会社（1010401149888）に合併し解散,2015-10-05,1,,,,,ユーテックコウサン,0
969,4180001033671,登記記録の閉鎖等,0,2022-03-10,2022-03-02,株式会社エーエルイー,,株式会社,愛知県,名古屋市名東区,藤見が丘６番地,,23,115,4650048,,,2022-03-02,清算の結了等,,,2015-10-05,1,,,,,エーエルイー,0
1011,4280001006774,登記記録の閉鎖等,0,2022-03-10,2022-03-08,大石塗装株式会社,,株式会社,島根県,益田市,久城町１０５６番地１５,,32,204,6980001,,,2022-03-08,清算の結了等,,,2015-10-05,1,,,,,オオイシトソウ,0
1022,4330001005366,登記記録の閉鎖等,0,2022-03-10,2022-03-07,神一産業株式会社,,株式会社,熊本県,合志市,須屋２４６４番地３,,43,216,8611102,,,2022-03-07,清算の結了等,,,2018-11-29,1,,,,,シンイチサンギョウ,0
1046,4420005000230,登記記録の閉鎖等,0,2022-03-10,2022-03-09,青森牛乳企業組合,,その他の設立登記法人,青森県,青森市,長島４丁目２２番５号,,02,201,0300861,,,2022-03-09,清算の結了等,,,2015-10-05,1,,,,,アオモリギュウニュウ,0
1051,4450002007416,登記記録の閉鎖等,0,2022-03-10,2022-03-08,有限会社エヌ・エフ・ケイ,,有限会社,北海道,旭川市,東光十四条６丁目３番２１号,,01,204,0788354,,,2022-03-08,清算の結了等,,,2015-10-05,1,,,,,エヌエフケイ,0
1073,5010002048750,登記記録の閉鎖等,0,2022-03-10,2022-03-02,シネマ・アライアンス有限会社,,有限会社,東京都,渋谷区,代々木１丁目４０番１２号代々木チェリー２０２,,13,113,1510053,,,2022-03-02,清算の結了等,,,2015-10-05,1,,,,,シネマアライアンス,0
1075,5010401148903,登記記録の閉鎖等,0,2022-03-10,2022-03-03,株式会社はし田たい吉,,株式会社,東京都,港区,西新橋１丁目１５番７号,,13,103,1050003,,,2022-03-03,清算の結了等,,,2019-10-31,1,,,,,ハシダタイキチ,0
1087,5011001006311,登記記録の閉鎖等,0,2022-03-10,2022-03-03,協立デザイン株式会社,,株式会社,東京都,中央区,入船１丁目８番２号,,13,102,1040042,,,2022-03-03,合併による解散等,5010001036987,令和４年３月１日東京都中央区入船一丁目８番２号株式会社イトーキエンジニアリングサービス（5010001036987）に合併し解散,2015-10-05,1,,,,,キョウリツデザイン,0
1089,5011001094819,登記記録の閉鎖等,0,2022-03-10,2022-03-03,株式会社キャリーオン,,株式会社,東京都,目黒区,東山１丁目８－１４,,13,110,1530043,,,2022-03-03,合併による解散等,7260001001717,令和４年３月１日岡山市北区昭和町３番１２号株式会社カイタックファミリー（7260001001717）に合併し解散,2015-10-05,1,,,,,キャリーオン,0
1114,5013201003996,登記記録の閉鎖等,0,2022-03-10,2022-03-04,株式会社東光商亊,,株式会社,東京都,目黒区,中目黒３丁目１２番５号,,13,110,1530061,,,2022-03-04,清算の結了等,,,2022-01-13,1,,,,,トウコウショウジ,0
1131,5020002011740,登記記録の閉鎖等,0,2022-03-10,2022-03-07,有限会社高榮設備,00010292,有限会社,神奈川県,横浜市西区,南浅間町１４番地４コスモ８６,,14,103,2200074,,,2022-03-07,清算の結了等,,,2015-10-05,1,,,,,コウエイセツビ,0
1132,5020002039030,登記記録の閉鎖等,0,2022-03-10,2022-03-07,有限会社たむら,,有限会社,神奈川県,横浜市鶴見区,豊岡町２－２フーガ２３階,,14,101,2300062,,,2022-03-07,清算の結了等,,,2015-10-05,1,,,,,タムラ,0
1136,5021002061940,登記記録の閉鎖等,0,2022-03-10,2022-03-08,有限会社高久タイル工業,00013825,有限会社,神奈川県,平塚市,南豊田５番地の５,,14,203,2540084,,,2022-03-08,清算の結了等,,,2015-10-05,1,,,,,タカクタイルコウギョウ,0
1141,5030005015630,登記記録の閉鎖等,0,2022-03-10,2022-03-07,特定非営利活動法人クリエイティブアクト,,その他の設立登記法人,埼玉県,狭山市,中央４丁目２３番１６号,,11,215,3501308,,,2022-03-07,清算の結了等,,,2015-10-05,1,,,,,クリエイティブアクト,0
1163,5100002012053,登記記録の閉鎖等,0,2022-03-10,2022-03-08,有限会社テクノ,,有限会社,長野県,南佐久郡佐久穂町,大宇平林１０１番地１,,20,309,3840600,,,2022-03-08,清算の結了等,,,2015-10-05,1,,,,,テクノ,0
1182,5120902021283,登記記録の閉鎖等,0,2022-03-10,2022-03-03,有限会社アンクル・ＫＡＴＳＵ,,有限会社,大阪府,豊中市,南桜塚１丁目１番６号,,27,203,5610882,,,2022-03-03,清算の結了等,,,2015-10-05,1,,,,,アンクルカツ,0
1185,5130001052477,登記記録の閉鎖等,0,2022-03-10,2022-03-04,株式会社大地,,株式会社,京都府,京都市南区,上鳥羽八王神町５９－４,,26,107,6018173,,,2022-03-04,清算の結了等,,,2015-10-05,1,,,,,ダイチ,0
1194,5140001113419,登記記録の閉鎖等,0,2022-03-10,2022-03-07,株式会社アサンハ,,株式会社,兵庫県,尼崎市,神田中通８丁目２６１番地,,28,202,6600884,,,2022-03-07,清算の結了等,,,2019-04-19,1,"ASANHA Co.,Ltd.",Hyogo,"8-261 Kandanakadori, Amagasaki shi",,アサンハ,0
1214,5180002080373,登記記録の閉鎖等,0,2022-03-10,2022-03-07,有限会社石黒建築,,有限会社,愛知県,稲沢市,中之庄町辻畑１２９番地,00073474,23,220,4928435,,,2022-03-07,清算の結了等,,,2015-10-05,1,,,,,イシグロケンチク,0
1252,5290002038906,登記記録の閉鎖等,0,2022-03-10,2022-03-07,有限会社川原事務所,,有限会社,福岡県,春日市,千歳町３丁目１２番地,,40,218,8160805,,,2022-03-07,清算の結了等,,,2015-10-05,1,,,,,カワハラジムショ,0
1255,5290801011220,登記記録の閉鎖等,0,2022-03-10,2022-03-04,株式会社中司建設,,株式会社,福岡県,北九州市八幡西区,陣山１丁目２番２３号,,40,109,8060012,,,2022-03-04,清算の結了等,,,2015-10-05,1,,,,,ナカツカサケンセツ,0
1263,5330005008083,登記記録の閉鎖等,0,2022-03-10,2022-03-04,ＮＰＯ法人人吉球磨陽だまりの会,,その他の設立登記法人,熊本県,人吉市,九日町７６番地,,43,203,8680004,,,2022-03-04,清算の結了等,,,2015-10-05,1,,,,,ヒトヨシクマヒダマリノカイ,0
1278,5390002007462,登記記録の閉鎖等,0,2022-03-10,2022-03-08,有限会社庄内農場,,有限会社,山形県,酒田市,広岡新田字前林３９６番,,06,204,9980113,,,2022-03-08,清算の結了等,,,2015-10-05,1,,,,,ショウナイノウジョウ,0
1279,5400002012031,登記記録の閉鎖等,0,2022-03-10,2022-03-03,有限会社山巳建設,,有限会社,岩手県,上閉伊郡大槌町,栄町１４番８号,,03,461,0281114,,,2022-03-03,清算の結了等,,,2015-10-05,1,,,,,ヤマミケンセツ,0
1286,5420002007987,登記記録の閉鎖等,0,2022-03-10,2022-03-08,有限会社トーナン産業,,有限会社,青森県,八戸市,長根３丁目１番１３号,,02,203,0310077,,,2022-03-08,清算の結了等,,,2015-10-05,1,,,,,トーナンサンギョウ,0
1302,6010001097401,登記記録の閉鎖等,0,2022-03-10,2022-03-03,株式会社日東紡インターライニング,,株式会社,東京都,千代田区,麹町２丁目４番地１,00060668,13,101,1020083,,,2022-03-03,清算の結了等,,,2015-10-05,1,,,,,ニットウボウインターライニング,0
1327,6010901017292,登記記録の閉鎖等,0,2022-03-10,2022-03-09,株式会社イエロードラゴン,,株式会社,東京都,世田谷区,深沢１丁目１３番３号,,13,112,1580081,,,2022-03-09,清算の結了等,,,2015-10-05,1,,,,,イエロードラゴン,0
1329,6010905002448,登記記録の閉鎖等,0,2022-03-10,2022-03-08,東京都害虫防除協同組合,,その他の設立登記法人,東京都,世田谷区,奥沢２丁目２番２２号,,13,112,1580083,,,2022-03-08,清算の結了等,,,2015-10-05,1,,,,,トウキョウトガイチュウボウジョ,0
1341,6011102001020,登記記録の閉鎖等,0,2022-03-10,2022-02-22,有限会社石川解体,,有限会社,東京都,新宿区,西早稲田１丁目９番１４－３０３号,,13,104,1690051,,,2022-02-22,清算の結了等,,,2015-10-05,1,,,,,イシカワカイタイ,0
1345,6011303002973,登記記録の閉鎖等,0,2022-03-10,2022-03-02,ゴビュロ合同会社,,合同会社,東京都,杉並区,高円寺南１丁目７番３号,,13,115,1660003,,,2022-03-02,清算の結了等,,,2018-04-25,1,,,,,ゴビュロ,0
1353,6012701014214,登記記録の閉鎖等,0,2022-03-10,2022-03-07,株式会社小林宅建士事務所,,株式会社,東京都,東大和市,仲原４丁目７番２号Ｇｒａｎ　ＢｅｌｌＩＩＩ２０２号,00118295,13,220,2070016,,,2022-03-07,清算の結了等,,,2017-04-05,1,,,,,コバヤシタッケンシジムショ,0
1356,6013302003531,登記記録の閉鎖等,0,2022-03-10,2022-03-03,有限会社小次郎,,有限会社,東京都,豊島区,巣鴨１丁目１５番２－６０５号,,13,116,1700002,,,2022-03-03,清算の結了等,,,2015-10-05,1,,,,,コジロウ,0
1359,6020001108900,登記記録の閉鎖等,0,2022-03-10,2022-03-07,株式会社番長,,株式会社,神奈川県,横浜市中区,尾上町３丁目３５番地横浜第一有楽ビル,,14,104,2310015,,,2022-03-07,清算の結了等,,,2015-10-05,1,,,,,,0
1364,6020002060316,登記記録の閉鎖等,0,2022-03-10,2022-03-07,有限会社キーズ,,有限会社,神奈川県,横浜市鶴見区,獅子ケ谷２丁目３２番４８号,,14,101,2300073,,,2022-03-07,清算の結了等,,,2015-10-05,1,,,,,キーズ,0
1365,6020005001928,登記記録の閉鎖等,0,2022-03-10,2022-02-21,宗教法人天理教神名川分教会,,その他の設立登記法人,神奈川県,横浜市神奈川区,平川町９番地の３,,14,102,2210812,,,2022-02-21,合併による解散等,4080405005054,令和４年２月１０日静岡県菊川市半済１６２６番地天理教城東分教会（4080405005054）に合併し解散,2015-10-05,1,,,,,,0
1372,6021002022322,登記記録の閉鎖等,0,2022-03-10,2022-03-07,有限会社中央コピー,,有限会社,神奈川県,相模原市中央区,中央１丁目１番１８号,,14,152,2520239,,,2022-03-07,清算の結了等,,,2015-10-05,1,,,,,チュウオウコピー,0
1378,6030001003191,登記記録の閉鎖等,0,2022-03-10,2022-03-07,株式会社桜グリーン,,株式会社,埼玉県,さいたま市浦和区,針ヶ谷１丁目１２番３号,,11,107,3300075,,,2022-03-07,合併による解散等,3030001002840,令和４年３月４日埼玉県さいたま市見沼区片柳二丁目７６番１株式会社光風園（3030001002840）に合併し解散,2015-10-05,1,,,,,サクラグリーン,0
1400,6040002031736,登記記録の閉鎖等,0,2022-03-10,2022-03-03,有限会社コスモス,,有限会社,東京都,千代田区,飯田橋３丁目１０番１０号,,13,101,1020072,,,2022-03-03,清算の結了等,,,2015-10-05,1,,,,,コスモス,0
1423,6120001057856,登記記録の閉鎖等,0,2022-03-10,2022-03-03,株式会社ビー・エム・デンタル,,株式会社,大阪府,大阪市淀川区,東三国１丁目５番１７号,,27,123,5320002,,,2022-03-03,清算の結了等,,,2015-10-05,1,,,,,ビーエムデンタル,0
1463,6140001101546,登記記録の閉鎖等,0,2022-03-10,2022-03-04,株式会社Ｒｉｏ,,株式会社,兵庫県,神戸市東灘区,岡本３丁目８番１号,,28,101,6580072,,,2022-03-04,清算の結了等,,,2016-04-06,1,,,,,リオ,0
1465,6140001107221,登記記録の閉鎖等,0,2022-03-10,2022-03-07,株式会社Ｐａｙ　Ｉｔ　Ｆｏｒｗａｒｄ,,株式会社,兵庫県,神戸市中央区,元町通３丁目１７番８号ＴＯＷＡ神戸元町ビル８階,,28,110,6500022,,,2022-03-07,清算の結了等,,,2017-08-09,1,,,,,ペイイットフォワード,0
1469,6150005003985,登記記録の閉鎖等,0,2022-03-10,2022-02-25,天理教長修分教会,,その他の設立登記法人,奈良県,桜井市,大字萱森１４２６番地,,29,206,6330106,,,2022-02-25,合併による解散等,6150005004018,令和４年２月２５日奈良県桜井市大字慈恩寺２９６番地天理教長谷川分教会（6150005004018）に合併し解散,2015-10-05,1,,,,,テンリキョウチョウシュウブンキョウカイ,0
1482,6180302003966,登記記録の閉鎖等,0,2022-03-10,2022-03-09,有限会社土地ショップ,,有限会社,愛知県,岡崎市,牧御堂町字水洗３８番地１,,23,202,4440205,,,2022-03-09,清算の結了等,,,2015-10-05,1,,,,,トチショップ,0
1483,6190002019295,登記記録の閉鎖等,0,2022-03-10,2022-03-08,有限会社岩崎,,有限会社,三重県,四日市市,諏訪町１３番２号,,24,202,5100085,,,2022-03-08,清算の結了等,,,2015-10-05,1,,,,,イワサキ,0
1484,6190005003387,登記記録の閉鎖等,0,2022-03-10,2022-03-09,特定非営利活動法人三郷の華,,その他の設立登記法人,三重県,津市,白山町八対野９６６番地１,,24,201,5152615,,,2022-03-09,清算の結了等,,,2015-10-05,1,,,,,ミサトノハナ,0
1488,6200002016605,登記記録の閉鎖等,0,2022-03-10,2022-03-01,有限会社榊間石油川辺給油所,00076999,有限会社,岐阜県,加茂郡川辺町,上川辺上細田７２９番地の１,,21,503,5090302,,,2022-03-01,合併による解散等,5200001018487,令和４年３月１日岐阜県加茂郡白川町黒川２０９番地株式会社榊間石油（5200001018487）に合併し解散,2015-10-05,1,,,,,サカキマセキユカワベキュウユショ,0
1499,6240002012055,登記記録の閉鎖等,0,2022-03-10,2022-03-08,有限会社日本倉庫,,有限会社,広島県,広島市安佐北区,大林町６０７番地,,34,106,7310202,,,2022-03-08,清算の結了等,,,2015-10-05,1,,,,,ニホンソウコ,0
1506,6280001007606,登記記録の閉鎖等,0,2022-03-10,2022-03-09,株式会社阜林商事,,株式会社,島根県,安来市,門生町５５２番地,,32,206,6920027,,,2022-03-09,清算の結了等,,,2017-11-02,1,,,,,フーリンショウジ,0
1508,6290001038245,登記記録の閉鎖等,0,2022-03-10,2022-03-03,国際スポーツ振興株式会社,,株式会社,福岡県,福岡市南区,清水２丁目８番１０号第５幸田ビル２０１号（池田税理士事務所内）,,40,134,8150031,,,2022-03-03,清算の結了等,,,2015-10-05,1,,,,,コクサイスポーツシンコウ,0
1511,6290005003815,登記記録の閉鎖等,0,2022-03-10,2022-03-08,特定非営利活動法人ＮＰＯクローバー福祉安全機構,,その他の設立登記法人,福岡県,福岡市中央区,小笹４丁目１４番８号,,40,133,8100033,,,2022-03-08,清算の結了等,,,2015-10-05,1,,,,,エヌピーオークローバーフクシアンゼンキコウ,0
1513,6290801008298,登記記録の閉鎖等,0,2022-03-10,2022-03-04,株式会社グリーンロジスティックス,,株式会社,福岡県,北九州市小倉南区,舞ケ丘３丁目７番８号,,40,107,8020823,,,2022-03-04,清算の結了等,,,2015-10-05,1,,,,,グリーンロジスティックス,0
1542,6380005004374,登記記録の閉鎖等,0,2022-03-10,2022-03-07,特定非営利活動法人自然代替医療研究センター,,その他の設立登記法人,福島県,二本松市,馬場平１４１番地,,07,210,9640055,,,2022-03-07,清算の結了等,,,2015-10-05,1,,,,,シゼンダイタイイリョウケンキュウセンター,0
1559,6470002005911,登記記録の閉鎖等,0,2022-03-10,2022-03-08,有限会社藤原住器,,有限会社,香川県,高松市,屋島中町４８０番地３,,37,201,7610112,,,2022-03-08,清算の結了等,,,2015-10-05,1,,,,,,0
1626,7011503004224,登記記録の閉鎖等,0,2022-03-10,2022-03-03,合同会社Ｓｉｎ,,合同会社,東京都,北区,赤羽西４丁目３１番１１号ダイアパレス赤羽２０１号,,13,117,1150055,,,2022-03-03,清算の結了等,,,2019-12-17,1,,,,,シン,0
1635,7013301032951,登記記録の閉鎖等,0,2022-03-10,2022-03-03,株式会社想伝社,,株式会社,東京都,豊島区,高田３丁目１０番２１号,,13,116,1710033,,,2022-03-03,清算の結了等,,,2015-10-05,1,,,,,,0
1647,7021005001256,登記記録の閉鎖等,0,2022-03-10,2022-03-07,ＮＰＯ法人ワーカーズポパイ,,その他の設立登記法人,神奈川県,藤沢市,大庭５６８３番地の７駒寄３９～２０４,,14,205,2510861,,,2022-03-07,清算の結了等,,,2015-10-05,1,,,,,ワーカーズポパイ,0
1676,7080402018171,登記記録の閉鎖等,0,2022-03-10,2022-03-04,有限会社大石電工社,,有限会社,静岡県,掛川市,大坂１０３９番地の１,,22,213,4371421,,,2022-03-04,清算の結了等,,,2015-10-05,1,,,,,オオイシデンコウシャ,0
1678,7100002017323,登記記録の閉鎖等,0,2022-03-10,2022-03-07,有限会社北東,,有限会社,長野県,飯山市,大字瑞穂４２２０番地５,,20,213,3892322,,,2022-03-07,清算の結了等,,,2015-10-05,1,,,,,ホクトウ,0
1690,7120001105440,登記記録の閉鎖等,0,2022-03-10,2022-02-21,株式会社住地ゴルフ,,株式会社,大阪府,大阪市北区,梅田１丁目３番大阪駅前第一ビル８階５号８２７号室,,27,127,5300001,,,2022-02-21,合併による解散等,3013201010656,令和４年２月１日東京都目黒区東が丘二丁目９番６号株式会社住地ゴルフ（3013201010656）に合併し解散,2015-10-05,1,,,,,,0
1706,7120005013838,登記記録の閉鎖等,0,2022-03-10,2022-02-28,天理教東大道分教会,,その他の設立登記法人,大阪府,守口市,高瀬町４丁目２４番地,,27,209,5700053,,,2022-02-28,合併による解散等,6150005004018,令和４年２月２５日奈良県桜井市大字慈恩寺２９６番地天理教長谷川分教会（6150005004018）に合併し解散,2015-10-05,1,,,,,,0
1722,7130001061757,登記記録の閉鎖等,0,2022-03-10,2022-03-04,株式会社帝禅,,株式会社,京都府,京都市上京区,真倉町７３９－３,,26,102,6028488,,,2022-03-04,清算の結了等,,,2018-03-27,1,,,,,テイゼン,0
1742,7180001126588,登記記録の閉鎖等,0,2022-03-10,2022-03-07,株式会社井田工業,,株式会社,愛知県,名古屋市港区,宝神２丁目２００８番地レジデンス港西４０１号,,23,111,4550832,,,2022-03-07,清算の結了等,,,2017-02-14,1,,,,,イダコウギョウ,0
1747,7180002033767,登記記録の閉鎖等,0,2022-03-10,2022-03-07,有限会社丸林会館,,有限会社,愛知県,名古屋市南区,港東通１丁目２番地の４,,23,112,4570834,,,2022-03-07,清算の結了等,,,2015-10-05,1,,,,,マルバヤシカイカン,0
1768,7240005007142,登記記録の閉鎖等,0,2022-03-10,2022-02-17,天理教安芸大浜分教会,,その他の設立登記法人,広島県,廿日市市,林が原１丁目１０番１４号,,34,213,7390444,,,2022-02-17,合併による解散等,8250005006258,令和４年２月１４日山口県岩国市麻里布町三丁目１９番２９号天理教周東大教会（8250005006258）に合併し解散,2015-10-05,1,,,,,テンリキョウアキオオハマブンキョウカイ,0
1773,7250005000311,登記記録の閉鎖等,0,2022-03-10,2022-02-21,天理教吉之實分教会,,その他の設立登記法人,山口県,山口市,白石２丁目４番９号,,35,203,7530070,,,2022-02-21,合併による解散等,3250005000307,令和４年２月２１日山口市東山一丁目６番１８号天理教吉敷分教会（3250005000307）に合併し解散,2015-10-05,1,,,,,,0
1798,7370802000617,登記記録の閉鎖等,0,2022-03-10,2022-03-03,有限会社丸三建材,,有限会社,宮城県,名取市,高舘吉田字前内舘１番地の３,,04,207,9811242,,,2022-03-03,清算の結了等,,,2015-10-05,1,,,,,マルサンケンザイ,0
1820,8010001146024,登記記録の閉鎖等,0,2022-03-10,2022-03-07,ＡＰＣ株式会社,,株式会社,愛知県,愛西市,元赤目町川並２４８番地３,,23,232,4968045,,,2022-03-07,清算の結了等,,,2015-10-05,1,,,,,エーピーシー,0
1852,8011001109763,登記記録の閉鎖等,0,2022-03-10,2022-03-04,ＬＩＮＥモバイル株式会社,,株式会社,東京都,新宿区,四谷１丁目６番１号,,13,104,1600004,,,2022-03-04,合併による解散等,9010401052465,令和４年３月１日東京都港区海岸一丁目７番１号ソフトバンク株式会社（9010401052465）に合併し解散,2016-03-01,1,,,,,ラインモバイル,0
1877,8011501010322,登記記録の閉鎖等,0,2022-03-10,2022-03-07,株式会社東日本物流サービス,,株式会社,東京都,荒川区,西日暮里６丁目６５番１号,,13,118,1160013,,,2022-03-07,合併による解散等,9010601022169,令和４年３月１日東京都墨田区錦糸三丁目２番１号株式会社ジェイアール東日本物流（9010601022169）に合併し解散,2015-10-05,1,,,,,ヒガシニホンブツリュウサービス,0
1902,8020003017429,登記記録の閉鎖等,0,2022-03-10,2022-03-08,合同会社東京人世,,合同会社,神奈川県,横浜市中区,桜木町１丁目１０１番１号クロスゲート７階,,14,104,2310062,,,2022-03-08,清算の結了等,,,2020-02-25,1,,,,,トウキョウジンセイ,0
1925,8050001010333,登記記録の閉鎖等,0,2022-03-10,2022-03-03,株式会社ミタニビューティコーポレーション,,株式会社,茨城県,土浦市,木田余東台５丁目１９番８号,,08,203,3000027,,,2022-03-03,清算の結了等,,,2015-10-05,1,,,,,ミタニビューティコーポレーション,0
1930,8050002045824,登記記録の閉鎖等,0,2022-03-10,2022-03-03,有限会社和光建設,,有限会社,茨城県,稲敷市,江戸崎甲２２２８番地１,,08,229,3000504,,,2022-03-03,清算の結了等,,,2022-01-07,1,,,,,ワコウケンセツ,0
1937,8080002014248,登記記録の閉鎖等,0,2022-03-10,2022-03-08,有限会社上野製作所,,有限会社,静岡県,榛原郡川根本町,徳山１８５０番地の１,,22,429,4280301,,,2022-03-08,清算の結了等,,,2015-10-05,1,,,,,ウエノセイサクショ,0
1960,8130001003353,登記記録の閉鎖等,0,2022-03-10,2022-03-04,株式会社種田商店,,株式会社,京都府,京都市上京区,烏丸通り上御霊前下る東入る相国寺門前町６７０番地の７,,26,102,6020000,,,2022-03-04,清算の結了等,,,2015-10-05,1,,,,,タネダショウテン,0
1964,8140001034050,登記記録の閉鎖等,0,2022-03-10,2022-03-03,株式会社ネクサス,,株式会社,兵庫県,明石市,朝霧南町１丁目１８０番地の１,,28,203,6730870,,,2022-03-03,清算の結了等,,,2015-10-05,1,,,,,ネクサス,0
1965,8140001080986,登記記録の閉鎖等,0,2022-03-10,2022-03-04,株式会社伊丹庵,,株式会社,兵庫県,伊丹市,平松２丁目２番１８号,,28,207,6640853,,,2022-03-04,清算の結了等,,,2015-10-05,1,,,,,イタミアン,0
1983,8160001016947,登記記録の閉鎖等,0,2022-03-10,2022-03-09,株式会社エミックス,,株式会社,滋賀県,東近江市,佐野町８４番地１７,,25,213,5211222,,,2022-03-09,清算の結了等,,,2015-10-05,1,,,,,エミックス,0
1998,8180002082284,登記記録の閉鎖等,0,2022-03-10,2022-03-07,有限会社リード,,有限会社,愛知県,江南市,大海道町神明１３１番地の２,,23,217,4838185,,,2022-03-07,清算の結了等,,,2015-10-05,1,,,,,リード,0
2011,8200002001571,登記記録の閉鎖等,0,2022-03-10,2022-03-09,有限会社グラスハウス・ナダ,,有限会社,岐阜県,岐阜市,神田町４丁目１６番地（プレサンスロジェ岐阜長良橋通り１４０３号室）,,21,201,5008833,,,2022-03-09,清算の結了等,,,2015-10-05,1,,,,,グラスハウスナダ,0
2018,8240001041350,登記記録の閉鎖等,0,2022-03-10,2022-03-07,ブリリアント株式会社,,株式会社,広島県,呉市,仁方町４４００番地の２,,34,202,7370157,,,2022-03-07,清算の結了等,,,2015-10-05,1,,,,,ブリリアント,0
2023,8250005000293,登記記録の閉鎖等,0,2022-03-10,2022-02-21,天理教吉朝分教会,00002861,その他の設立登記法人,山口県,山口市,湯田温泉６丁目２番２９号,,35,203,7530056,,,2022-02-21,合併による解散等,3250005000307,令和４年２月２１日山口市東山一丁目６番１８号天理教吉敷分教会（3250005000307）に合併し解散,2015-10-05,1,,,,,,0
2028,8290001042518,登記記録の閉鎖等,0,2022-03-10,2022-03-07,株式会社金子正,,株式会社,福岡県,筑紫野市,大字下見５７８番地１,,40,217,8180021,,,2022-03-07,清算の結了等,,,2015-10-05,1,,,,,カネコマサ,0
2031,8290002016289,登記記録の閉鎖等,0,2022-03-10,2022-03-04,有限会社長府サービス,,有限会社,福岡県,福岡市博多区,上川端町１３番１５号,,40,132,8120026,,,2022-03-04,清算の結了等,,,2015-10-05,1,,,,,チョウフサービス,0
2037,8330003006020,登記記録の閉鎖等,0,2022-03-10,2022-03-07,合同会社トータルサロン・ハート八代,,合同会社,熊本県,八代市,東片町２５５番地,,43,202,8660814,,,2022-03-07,清算の結了等,,,2015-10-05,1,,,,,トータルサロンハートヤツシロ,0
2085,9010001132196,登記記録の閉鎖等,0,2022-03-10,2022-03-07,株式会社ＨＮＴ,,株式会社,東京都,千代田区,麹町４丁目５番１０号,,13,101,1020083,,,2022-03-07,清算の結了等,,,2015-10-05,1,,,,,エイチエヌテイ,0
2092,9010003022494,登記記録の閉鎖等,0,2022-03-10,2022-03-07,ＶＣＬ＆Ｈｕａｚｈｕ合同会社,,合同会社,東京都,中央区,日本橋１丁目１３番１号日鉄日本橋ビル３階ファイブスター・パートナーズ株式会社内,,13,102,1030027,,,2022-03-07,清算の結了等,,,2015-10-14,1,,,,,ヴィシーエルアンドファーズー,0
2098,9010401022162,登記記録の閉鎖等,0,2022-03-10,2022-03-03,日新汽船株式会社,,株式会社,東京都,港区,赤坂５丁目５番９号,,13,103,1070052,,,2022-03-03,清算の結了等,,,2015-10-05,1,,,,,ニッシンキセン,0
2103,9010401123290,登記記録の閉鎖等,0,2022-03-10,2022-02-18,株式会社Ｃ＆Ｓ　Ｃｏｍｐａｎｙ,,株式会社,東京都,港区,芝大門１丁目６番９号,,13,103,1050012,,,2022-02-18,合併による解散等,7011001110111,令和４年２月１日東京都渋谷区鶯谷町１５番９号株式会社スターリーグ（7011001110111）に合併し解散,2016-02-25,1,,,,,シーアンドエスカンパニー,0
2120,9010605001268,登記記録の閉鎖等,0,2022-03-10,2022-03-07,公益社団法人墨田区勤労者福祉サービスセンター,,その他の設立登記法人,東京都,墨田区,押上２丁目１２番７－２１５号,,13,107,1310045,,,2022-03-07,清算の結了等,,,2015-10-05,1,,,,,スミダクキンロウシャフクシサービスセンター,0
2121,9010701032092,登記記録の閉鎖等,0,2022-03-10,2022-03-08,株式会社二階堂,,株式会社,東京都,品川区,上大崎３丁目１４番１７－４０４号,,13,109,1410021,,,2022-03-08,清算の結了等,,,2016-03-02,1,,,,,ニカイドウ,0
2146,9011501007045,登記記録の閉鎖等,0,2022-03-10,2022-03-03,株式会社白百合マネキン紹介所,,株式会社,東京都,荒川区,西日暮里２丁目２６番６号,,13,118,1160013,,,2022-03-03,清算の結了等,,,2015-10-05,1,,,,,シラユリマネキンショウカイジョ,0
2169,9021002050196,登記記録の閉鎖等,0,2022-03-10,2022-03-07,有限会社箱根きのこ園,,有限会社,神奈川県,足柄下郡湯河原町,中央４丁目２３番地２,,14,384,2590301,,,2022-03-07,清算の結了等,,,2015-10-05,1,,,,,ハコネキノコエン,0
2182,9040001094104,登記記録の閉鎖等,0,2022-03-10,2022-03-02,株式会社齋藤興業,,株式会社,千葉県,市川市,柏井町４丁目３６４番地３,,12,203,2720802,,,2022-03-02,清算の結了等,,,2016-02-24,1,,,,,サイトウコウギョウ,0
2238,9130005008117,登記記録の閉鎖等,0,2022-03-10,2022-02-16,天理教丹湯分教会,,その他の設立登記法人,京都府,亀岡市,東別院町湯谷下ノ前７番地,,26,206,6210112,,,2022-02-16,合併による解散等,3120905003545,令和４年２月１０日大阪府豊能郡能勢町宿野６４５番地天理教能勢分教会（3120905003545）に合併し解散,2015-10-05,1,,,,,テンリキョウタンユブンキョウカイ,0
2241,9140001021907,登記記録の閉鎖等,0,2022-03-10,2022-03-04,株式会社Ｇ７リテールジャパン,,株式会社,兵庫県,神戸市須磨区,弥栄台３丁目１番地の６,,28,107,6540161,,,2022-03-04,清算の結了等,,,2015-10-05,1,,,,,ジーセブンリテールジャパン,0
2242,9140001026699,登記記録の閉鎖等,0,2022-03-10,2022-03-07,株式会社ザッピィ,,株式会社,兵庫県,神戸市北区,藤原台中町１丁目２番１号北神中央ビル６０９号,,28,109,6511302,,,2022-03-07,清算の結了等,,,2015-10-05,1,,,,,ザッピィ,0
2259,9180001052386,登記記録の閉鎖等,0,2022-03-10,2022-03-07,株式会社松本,,株式会社,愛知県,常滑市,保示町１丁目１９番地,,23,216,4790827,,,2022-03-07,清算の結了等,,,2015-10-05,1,,,,,マツモト,0
2261,9180001060703,登記記録の閉鎖等,0,2022-03-10,2022-03-03,株式会社カプリスＮＧＣ,,株式会社,愛知県,名古屋市東区,出来町３丁目２０番１５号,,23,102,4610032,,,2022-03-03,清算の結了等,,,2015-10-05,1,,,,,カプリスエヌジーシー,0
2302,9260003002686,登記記録の閉鎖等,0,2022-03-10,2022-03-09,合同会社ｆｏｒｅｉｇｎ　ｃａｒ,,合同会社,岡山県,岡山市北区,宿４３５番地２,,33,101,7000001,,,2022-03-09,清算の結了等,,,2018-10-22,1,,,,,フォーリンカー,0
2317,9290801011745,登記記録の閉鎖等,0,2022-03-10,2022-03-08,横工務店株式会社,,株式会社,山口県,下関市,竹崎町２丁目１３番１２号,,35,201,7500025,,,2022-03-08,清算の結了等,,,2015-10-05,1,,,,,ヨココウムテン,0
2328,9370001041213,登記記録の閉鎖等,0,2022-03-10,2022-03-04,株式会社Ｖｉｎｔａｇｅ　ｓｔｙｌｅ,,株式会社,宮城県,仙台市宮城野区,原町３丁目２番５３号,,04,102,9830841,,,2022-03-04,清算の結了等,,,2017-04-05,1,,,,,ビインテージスタイル,0
2357,9470005003604,登記記録の閉鎖等,0,2022-03-10,2022-02-28,天理教明聖喜分教会,,その他の設立登記法人,香川県,坂出市,青葉町１番２４号,,37,203,7620037,,,2022-02-28,合併による解散等,2470005000335,令和４年２月２８日香川県高松市太田上町１００１番地の２天理教明聖分教会（2470005000335）に合併し解散,2015-10-05,1,,,,,テンリキョウメイセイキブンキョウカイ,0
