sequenceNumber,corporateNumber,process,correct,updateDate,changeDate,name,nameImageId,kind,prefectureName,cityName,streetNumber,addressImageId,prefectureCode,cityCode,postCode,addressOutside,addressOutsideImageId,closeDate,closeCause,successorCorporateNumber,changeCause,assignmentDate,latest,enName,enPrefectureName,enCityName,enAddressOutside,furigana,hihyoji
14,1010401180901,新規,0,2024-03-08,2024-03-08,株式会社日本工作機械ホールディングス,,株式会社,東京都,港区,麻布台１丁目１１番１０号,,13,103,1060041,,,,,,,2024-03-08,1,,,,,ニホンコウサクキカイホールディングス,0
38,1010901054811,新規,0,2024-03-08,2024-03-08,ＴＫ＆Ｃｏｍｐａｎｙ株式会社,,株式会社,東京都,世田谷区,弦巻２丁目３３番２０－４０７号,,13,112,1540016,,,,,,,2024-03-08,1,,,,,ティーケイアンドカンパニー,0
41,1010903008872,新規,0,2024-03-08,2024-03-08,合同会社ラ・ラ・ランド,,合同会社,東京都,世田谷区,代沢３丁目１５－１４,,13,112,1550032,,,,,,,2024-03-08,1,,,,,ララランド,0
47,1011001160351,新規,0,2024-03-08,2024-03-08,株式会社ジェイビー,,株式会社,東京都,渋谷区,恵比寿１丁目２４番１４号,,13,113,1500013,,,,,,,2024-03-08,1,,,,,ジェイビー,0
48,1011001160426,新規,0,2024-03-08,2024-03-08,レインメーカーズ株式会社,,株式会社,東京都,目黒区,三田２丁目１番５－２０２号,,13,110,1530062,,,,,,,2024-03-08,1,,,,,レインメーカーズ,0
49,1011001160509,新規,0,2024-03-08,2024-03-08,株式会社ＭＡＧＭＡ,,株式会社,東京都,渋谷区,広尾５丁目４番１２号大成綱機ビル５Ｆ,,13,113,1500012,,,,,,,2024-03-08,1,,,,,マグマ,0
50,1011005010404,新規,0,2024-03-08,2024-03-08,一般社団法人アート・シフト・コーチング協会,,その他の設立登記法人,東京都,渋谷区,神宮前５丁目５１番６号,,13,113,1500001,,,,,,,2024-03-08,1,,,,,アートシフトコーチングキョウカイ,0
54,1011101106469,新規,0,2024-03-08,2024-03-08,株式会社ブラックセブン,,株式会社,東京都,新宿区,中井１丁目４番３号サニーコート１０１,,13,104,1610035,,,,,,,2024-03-08,1,,,,,ブラックセブン,0
55,1011101106485,新規,0,2024-03-08,2024-03-08,株式会社Ｐｅｔｅｒ　Ｃｈｒｙｓａｎｔｈｅｍｕｍ,,株式会社,東京都,新宿区,高田馬場４丁目２２番１５号,,13,104,1690075,,,,,,,2024-03-08,1,,,,,ピータークリサンサマム,0
57,1011103014182,新規,0,2024-03-08,2024-03-08,合同会社ベータ,,合同会社,東京都,新宿区,西新宿３丁目３－１３西新宿水間ビル６階,,13,104,1600023,,,,,,,2024-03-08,1,,,,,ベータ,0
58,1011201025288,新規,0,2024-03-08,2024-03-08,株式会社スピンカラーズ,,株式会社,東京都,中野区,東中野４丁目９番２２号,,13,114,1640003,,,,,,,2024-03-08,1,,,,,スピンカラーズ,0
59,1011201025296,新規,0,2024-03-08,2024-03-08,株式会社ホワイトナイトプロジェクト,,株式会社,東京都,中野区,本町６丁目２５番８号,,13,114,1640012,,,,,,,2024-03-08,1,,,,,ホワイトナイトプロジェクト,0
61,1011403004296,新規,0,2024-03-08,2024-03-08,わっはる合同会社,,合同会社,東京都,板橋区,蓮沼町７番１号,,13,119,1740052,,,,,,,2024-03-08,1,,,,,ワッハル,0
67,1011703003766,新規,0,2024-03-08,2024-03-08,合同会社Ｋ‐ＰＣ,,合同会社,東京都,江戸川区,江戸川３丁目１３番地１０,,13,123,1320013,,,,,,,2024-03-08,1,,,,,ケイピーシー,0
69,1011801043895,新規,0,2024-03-08,2024-03-08,株式会社Ｗｉｎｇｓ,,株式会社,東京都,葛飾区,四つ木２丁目３０番９－２階,,13,122,1240011,,,,,,,2024-03-08,1,,,,,ウイングス,0
70,1011803006124,新規,0,2024-03-08,2024-03-08,宜佳商事合同会社,,合同会社,東京都,葛飾区,西新小岩３丁目１４番９号,,13,122,1240025,,,,,,,2024-03-08,1,,,,,ギカショウジ,0
72,1012401041604,新規,0,2024-03-08,2024-03-08,株式会社サン・テクノス,,株式会社,東京都,府中市,北山町４丁目３０番地の１,,13,206,1830041,,,,,,,2024-03-08,1,,,,,,0
75,1012705002392,新規,0,2024-03-08,2024-03-08,一般社団法人共生会,,その他の設立登記法人,東京都,清瀬市,旭が丘２丁目５番４－６号,,13,221,2040002,,,,,,,2024-03-08,1,,,,,キョウセイカイ,0
85,1020001156086,新規,0,2024-03-08,2024-03-08,株式会社ワンスマイル,,株式会社,神奈川県,横浜市磯子区,岡村７丁目３番３１号,,14,107,2350021,,,,,,,2024-03-08,1,,,,,ワンスマイル,0
90,1020003025693,新規,0,2024-03-08,2024-03-08,合同会社ＥａｓｙＲｅｎｔａｌＪＰ,,合同会社,神奈川県,川崎市高津区,久末５６４番地エクシード久末２０４,,14,134,2130026,,,,,,,2024-03-08,1,,,,,イージーレンタルジャパン,0
109,1030001159006,新規,0,2024-03-08,2024-03-08,株式会社ＮＥＸＵＳ関西,,株式会社,埼玉県,川口市,東領家１丁目１６番１７号,,11,203,3320003,,,,,,,2024-03-08,1,,,,,ネクサスカンサイ,0
110,1030001159146,新規,0,2024-03-08,2024-03-08,株式会社銘沢商事,,株式会社,埼玉県,さいたま市岩槻区,大字釣上８番地１,,11,110,3390024,,,,,,,2024-03-08,1,,,,,メイザワショウジ,0
119,1040001132481,新規,0,2024-03-08,2024-03-08,株式会社竣一,,株式会社,千葉県,市川市,新田３丁目２２番１１－４０３号,,12,203,2720035,,,,,,,2024-03-08,1,,,,,シュンイチ,0
120,1040001132556,新規,0,2024-03-08,2024-03-08,株式会社Ｓｅｐｔ,,株式会社,千葉県,佐倉市,表町１丁目１番地３皆信ビル１階１号,,12,212,2850811,,,,,,,2024-03-08,1,,,,,セット,0
121,1040001132572,新規,0,2024-03-08,2024-03-08,株式会社クロノプラン,,株式会社,千葉県,千葉市中央区,都町３丁目２１番２号シャトードラペ２０５号室,,12,101,2600001,,,,,,,2024-03-08,1,,,,,クロノプラン,0
129,1060001036895,新規,0,2024-03-08,2024-03-08,ＧＵＬ　ＫＩＴＣＨＥＮ株式会社,,株式会社,栃木県,小山市,大字飯塚１５６４番地１,,09,208,3230017,,,,,,,2024-03-08,1,,,,,グルキッチン,0
131,1080001026168,新規,0,2024-03-08,2024-03-08,株式会社Ｓ‐Ｆｉｅｌｄ,,株式会社,静岡県,静岡市葵区,東鷹匠町３番４３－２０６,,22,101,4200833,,,,,,,2024-03-08,1,,,,,エスフィールド,0
132,1080003003149,新規,0,2024-03-08,2024-03-08,合同会社ツナギメ,,合同会社,静岡県,静岡市葵区,城北２丁目９番３６号,,22,101,4200805,,,,,,,2024-03-08,1,,,,,ツナギメ,0
167,1120001262485,新規,0,2024-03-08,2024-03-08,日本松菱重工株式会社,,株式会社,大阪府,大阪市浪速区,芦原１丁目１番７号フォレスト難波西１階,00134012,27,111,5560029,,,,,,,2024-03-08,1,,,,,ニホンマツビシジュウコウ,0
168,1120001262816,新規,0,2024-03-08,2024-03-08,株式会社Ｂａｂｙインベストメント,,株式会社,大阪府,大阪市阿倍野区,松崎町２丁目９番２９－５０２号,,27,119,5450053,,,,,,,2024-03-08,1,,,,,ベイビーインベストメント,0
169,1120001262849,新規,0,2024-03-08,2024-03-08,株式会社ＬＥＯＮＩＡ,,株式会社,大阪府,大阪市天王寺区,石ケ辻町１６－１８－２２０３,00134009,27,109,5430031,,,,,,,2024-03-08,1,,,,,レオニア,0
170,1120001262857,新規,0,2024-03-08,2024-03-08,ＩＣ　ｇｌｏｂａｌ株式会社,,株式会社,大阪府,大阪市北区,大淀南２丁目２番９－１２１３号,,27,127,5310075,,,,,,,2024-03-08,1,,,,,アイシーグローバル,0
171,1120001262881,新規,0,2024-03-08,2024-03-08,株式会社ハルイロ,,株式会社,大阪府,大阪市東淀川区,西淡路１丁目１番２８号ライオンズマンション新大阪２０５号室,,27,114,5330031,,,,,,,2024-03-08,1,,,,,ハルイロ,0
172,1120001262907,新規,0,2024-03-08,2024-03-08,株式会社光和サービス大阪,,株式会社,大阪府,大阪市北区,中崎２丁目２番２０号,,27,127,5300016,,,,,,,2024-03-08,1,,,,,コウワサービスオオサカ,0
174,1120003026104,新規,0,2024-03-08,2024-03-08,合同会社常勝,,合同会社,大阪府,寝屋川市,河北中町３５番１６号,,27,215,5720816,,,,,,,2024-03-08,1,,,,,ジョウショウ,0
175,1120003026112,新規,0,2024-03-08,2024-03-08,Ｂａｓｈｉｓｔａ合同会社,,合同会社,大阪府,大阪市中央区,北浜東１－１３大森ビルＢ１,,27,128,5400031,,,,,,,2024-03-08,1,,,,,バシスタ,0
176,1120003026120,新規,0,2024-03-08,2024-03-08,家具レンタルサード合同会社,,合同会社,大阪府,大阪市中央区,北浜３丁目５番２２号オリックス淀屋橋ビル７階,,27,128,5410041,,,,,,,2024-03-08,1,,,,,カグレンタルサード,0
179,1120901048851,新規,0,2024-03-08,2024-03-08,株式会社ＡＳＳＩＳＴＡＲＴ,,株式会社,大阪府,豊中市,走井１丁目１－６,,27,203,5610891,,,,,,,2024-03-08,1,,,,,アシスタート,0
188,1130003009355,新規,0,2024-03-08,2024-03-08,ｍｏｏｎｇａｚｅ合同会社,,合同会社,京都府,京都市左京区,浄土寺西田町３８番地ｔｅｄｅ２号室,,26,103,6068417,,,,,,,2024-03-08,1,,,,,ムーンゲイズ,0
189,1130003009363,新規,0,2024-03-08,2024-03-08,Ｎｏｎａｋａ‐Ｈｉｌｌ合同会社,,合同会社,京都府,京都市東山区,新門前通大和大路東入西之町２０１番地４,,26,105,6050088,,,,,,,2024-03-08,1,,,,,ノナカヒル,0
194,1130005017026,新規,0,2024-03-08,2024-03-08,一般社団法人ＫＹＯＴＯ　ＥＸＰＥＲＩＭＥＮＴ,,その他の設立登記法人,京都府,京都市中京区,烏丸通夷川上る少将井町２２９番２第７長谷ビル６Ｆ,,26,104,6040862,,,,,,,2024-03-08,1,,,,,キョウトエクスペリメント,0
202,1140001133610,新規,0,2024-03-08,2024-03-08,株式会社ロックビルド,,株式会社,兵庫県,川西市,日高町６番２－２１０号,,28,217,6660032,,,,,,,2024-03-08,1,,,,,ロックビルド,0
210,1180001160460,新規,0,2024-03-08,2024-03-08,ベストテックシステム株式会社,,株式会社,愛知県,名古屋市西区,名駅２丁目３４番１７号,,23,104,4510045,,,,,,,2024-03-08,1,,,,,ベストテックシステム,0
211,1180001160485,新規,0,2024-03-08,2024-03-08,株式会社みまる,,株式会社,愛知県,名古屋市港区,須成町３丁目３８番地４Ｆ,,23,111,4550072,,,,,,,2024-03-08,1,,,,,ミマル,0
214,1180003026445,新規,0,2024-03-08,2024-03-08,合同会社Ｓｔａｙ　Ｆｏｏｌｉｓｈ,,合同会社,愛知県,名古屋市中村区,名駅３丁目４番１０アルティメイト名駅１ｓｔ２階,,23,105,4500002,,,,,,,2024-03-08,1,,,,,ステイフーリッシュ,0
215,1180005020537,新規,0,2024-03-08,2024-03-08,一般社団法人ここからベースボールアカデミー,,その他の設立登記法人,愛知県,一宮市,牛野通４丁目１５番地,,23,203,4910846,,,,,,,2024-03-08,1,,,,,ココカラベースボールアカデミー,0
219,1180301038398,新規,0,2024-03-08,2024-03-08,株式会社大栄建材,,株式会社,愛知県,豊川市,平尾町天間２７番地１,,23,207,4420863,,,,,,,2024-03-08,1,,,,,ダイエイケンザイ,0
225,1200001042235,新規,0,2024-03-08,2024-03-08,株式会社ＳＡ,,株式会社,岐阜県,安八郡神戸町,大字横井７４０番地の３２,,21,381,5032301,,,,,,,2024-03-08,1,,,,,エスエー,0
236,1240001062898,新規,0,2024-03-08,2024-03-08,リベラグループ株式会社,,株式会社,広島県,呉市,中央１丁目４番２４号（リベラビル）,,34,202,7370051,,,,,,,2024-03-08,1,,,,,リベラグループ,0
239,1270003001604,新規,0,2024-03-08,2024-03-08,ＢＩＫＡＮ合同会社,,合同会社,鳥取県,鳥取市,湖山町西３丁目１０４番地,,31,201,6800947,,,,,,,2024-03-08,1,,,,,ビカン,0
244,1290001104927,新規,0,2024-03-08,2024-03-08,株式会社ひかるな商会,,株式会社,福岡県,春日市,白水池１丁目１７７番地,,40,218,8160848,,,,,,,2024-03-08,1,,,,,ヒカルナショウカイ,0
245,1290001104976,新規,0,2024-03-08,2024-03-08,株式会社福岡臨床医学,,株式会社,福岡県,福岡市博多区,博多駅南３丁目１０番３０号,,40,132,8120016,,,,,,,2024-03-08,1,,,,,フクオカリンショウイガク,0
246,1290003015032,新規,0,2024-03-08,2024-03-08,合同会社ＡＩＲ　ＢＯＲＤＥＲ,,合同会社,福岡県,那珂川市,松木５丁目５番９号,,40,231,8111251,,,,,,,2024-03-08,1,,,,,エアボーダー,0
249,1290803004639,新規,0,2024-03-08,2024-03-08,合同会社ＯｒａｎｇｅＺｅｌｙ,,合同会社,福岡県,北九州市八幡西区,八千代町八千代１－７サンヒルズ八千代７０２,,40,109,8060023,,,,,,,2024-03-08,1,,,,,オレンジゼリー,0
250,1300003002086,新規,0,2024-03-08,2024-03-08,ＲＥＡＹ合同会社,,合同会社,佐賀県,杵島郡白石町,大字福吉１１５４番地１,,41,425,8491113,,,,,,,2024-03-08,1,,,,,レイ,0
262,1340001026348,新規,0,2024-03-08,2024-03-08,株式会社ハッピー不動産,,株式会社,鹿児島県,鹿児島市,和田１丁目８－１サンシティ２１　３Ｆ,,46,201,8910143,,,,,,,2024-03-08,1,,,,,ハッピーフドウサン,0
267,1360001033301,新規,0,2024-03-08,2024-03-08,株式会社ＳＫＹ’Ｓ　ＴＨＥ　ＬＩＭＩＴ,,株式会社,沖縄県,那覇市,字与儀３７３番地１５シャトレＫＩＩ２０１,00134002,47,201,9020076,,,,,,,2024-03-08,1,,,,,スカイズザリミット,0
272,1370001051013,新規,0,2024-03-08,2024-03-08,株式会社Ｍｏｎｄｅ　Ｍａｇ,,株式会社,宮城県,仙台市太白区,袋原字内手５４番地の１２,,04,104,9811102,,,,,,,2024-03-08,1,,,,,モンドマグ,0
274,1370003006510,新規,0,2024-03-08,2024-03-08,ＡＩ合同会社,,合同会社,宮城県,仙台市青葉区,中央４丁目９番１５号,,04,101,9800021,,,,,,,2024-03-08,1,,,,,エーアイ,0
276,1380001034347,新規,0,2024-03-08,2024-03-08,株式会社エンドー,,株式会社,福島県,いわき市,平下神谷字立田帯１番地の３,,07,204,9700101,,,,,,,2024-03-08,1,,,,,エンドー,0
281,1390003002210,新規,0,2024-03-08,2024-03-08,合同会社スクラッチ,,合同会社,山形県,新庄市,大字本合海字丸森１０７２番地３,,06,205,9960112,,,,,,,2024-03-08,1,,,,,スクラッチ,0
286,1420003002883,新規,0,2024-03-08,2024-03-08,合同会社アンジュエ８８,,合同会社,青森県,三戸郡三戸町,大字二日町９２番地５,,02,441,0390131,,,,,,,2024-03-08,1,,,,,アンジュエエイティーンエイト,0
291,1430001091218,新規,0,2024-03-08,2024-03-08,株式会社春藤工業,,株式会社,北海道,札幌市東区,東苗穂十三条２丁目１３番１０号,,01,103,0070813,,,,,,,2024-03-08,1,,,,,シュンドウコウギョウ,0
292,1430001091226,新規,0,2024-03-08,2024-03-08,株式会社集惠,,株式会社,北海道,恵庭市,島松本町３丁目３番６号,,01,231,0611353,,,,,,,2024-03-08,1,,,,,シュウケイ,0
293,1430001091234,新規,0,2024-03-08,2024-03-08,株式会社Ｎ‐ＫＥＮ,,株式会社,北海道,札幌市南区,石山二条７丁目４番２号,,01,106,0050842,,,,,,,2024-03-08,1,,,,,エヌケン,0
294,1430003016032,新規,0,2024-03-08,2024-03-08,合同会社ＱＯＬ,,合同会社,北海道,札幌市中央区,南一条西１６丁目１番地春野ビル３Ｆ３２３,,01,101,0600061,,,,,,,2024-03-08,1,,,,,キューオーエル,0
300,1490003001870,新規,0,2024-03-08,2024-03-08,合同会社Ｂｕｎギャラリー,,合同会社,高知県,土佐市,宇佐町宇佐３１６１番地２４,,39,205,7811161,,,,,,,2024-03-08,1,,,,,バンギャラリー,0
303,1700150124361,新規,0,2024-03-08,2024-03-08,三ヶ島工業団地周辺土地区画整理組合,,その他,埼玉県,所沢市,林１丁目２９９－１０株式会社キノシタ　２階,,11,208,3591167,,,,,,,2024-03-08,1,,,,,ミカシマコウギヨウダンチシユウヘントチクカクセイリクミアイ,0
313,2010001242869,新規,0,2024-03-08,2024-03-08,株式会社オオツカホールディングス,,株式会社,東京都,千代田区,九段南３丁目２番１５号,,13,101,1020074,,,,,,,2024-03-08,1,,,,,オオツカホールディングス,0
314,2010103002320,新規,0,2024-03-08,2024-03-08,合同会社金青,,合同会社,東京都,八王子市,西片倉１丁目２番１２号,,13,201,1920917,,,,,,,2024-03-08,1,,,,,コンジョウ,0
320,2010401180578,新規,0,2024-03-08,2024-03-08,Ｂｏａｒ株式会社,,株式会社,東京都,港区,赤坂８丁目５－２８アクシア青山６０２,,13,103,1070052,,,,,,,2024-03-08,1,,,,,ボアー,0
321,2010401180891,新規,0,2024-03-08,2024-03-08,Ａｃｅｒ　Ｓｙｎｅｒｇｙ　Ｍａｎｐｏｗｅｒ　Ｊａｐａｎ株式会社,,株式会社,東京都,港区,浜松町２丁目２番１５号浜松町ダイヤビル２Ｆ,,13,103,1050013,,,,,,,2024-03-08,1,,,,,エイサーシナジーメンパワージャパン,0
324,2010403032117,新規,0,2024-03-08,2024-03-08,合同会社ＪＷ,,合同会社,東京都,港区,元麻布１丁目１番１５－１０１号,,13,103,1060046,,,,,,,2024-03-08,1,,,,,ジェイダブリュー,0
325,2010403032125,新規,0,2024-03-08,2024-03-08,合同会社ＳＫ‐ＩＩ,,合同会社,東京都,港区,芝５丁目２０番７－２１１号,,13,103,1080014,,,,,,,2024-03-08,1,,,,,エスケーツー,0
330,2010405023048,新規,0,2024-03-08,2024-03-08,一般社団法人ダンテ,,その他の設立登記法人,東京都,港区,虎ノ門５丁目１番４号,,13,103,1050001,,,,,,,2024-03-08,1,,,,,ダンテ,0
334,2010601064770,新規,0,2024-03-08,2024-03-08,ＧＬ　Ｂｉｏｃｈｅｍ　Ｊａｐａｎ株式会社,,株式会社,東京都,江東区,常盤１丁目１６番６号ニコモモビル２階,,13,108,1350006,,,,,,,2024-03-08,1,,,,,ジーエルバイオケムジャパン,0
335,2010601064779,新規,0,2024-03-08,2024-03-08,アンドグロウ株式会社,,株式会社,東京都,墨田区,太平３丁目１－２ＫＯＷＡ５ビル３階,,13,107,1300012,,,,,,,2024-03-08,1,,,,,アンドグロウ,0
345,2010901054835,新規,0,2024-03-08,2024-03-08,株式会社ＭＡＫＥ　ＳＥＮＣＥ,,株式会社,東京都,世田谷区,池尻２丁目９番１３号－３０１,,13,112,1540001,,,,,,,2024-03-08,1,,,,,メイクセンス,0
358,2011005010403,新規,0,2024-03-08,2024-03-08,一般社団法人ＡＩ産業基盤,,その他の設立登記法人,東京都,目黒区,中央町２丁目４番１８－４１４号,,13,110,1520001,,,,,,,2024-03-08,1,,,,,エーアイサンギョウキバン,0
361,2011101106484,新規,0,2024-03-08,2024-03-08,ｌｅｉ　ｃｒｅｗ株式会社,,株式会社,東京都,新宿区,歌舞伎町１丁目１３番６号ＹＯビル３０２,,13,104,1600021,,,,,,,2024-03-08,1,,,,,レイクルー,0
366,2011501030409,新規,0,2024-03-08,2024-03-08,株式会社形山住建,,株式会社,東京都,荒川区,東尾久３丁目１６番１６－７０３号,,13,118,1160012,,,,,,,2024-03-08,1,,,,,カタヤマジュウケン,0
367,2011503005978,新規,0,2024-03-08,2024-03-08,ＣＨＥＮ一級建築士事務所合同会社,,合同会社,東京都,荒川区,西尾久８丁目１２番２７号,,13,118,1160011,,,,,,,2024-03-08,1,,,,,シーエイチイーエヌイッキュウケンチクシジムショ,0
368,2011701027089,新規,0,2024-03-08,2024-03-08,株式会社ＣＨＥＥＲＳ　ＧＯＬＦ,,株式会社,東京都,江戸川区,西小松川町１番１９号,,13,123,1320032,,,,,,,2024-03-08,1,,,,,チアーズゴルフ,0
369,2011701027097,新規,0,2024-03-08,2024-03-08,ドラゴンバンク株式会社,,株式会社,東京都,江戸川区,平井４丁目１２番１号立花屋ビル３階,,13,123,1320035,,,,,,,2024-03-08,1,,,,,ドラゴンバンク,0
377,2011803006123,新規,0,2024-03-08,2024-03-08,合同会社Ｌｉｅｎｓ,,合同会社,東京都,足立区,足立３丁目２４－１２サンガーデン１０１,,13,121,1200015,,,,,,,2024-03-08,1,,,,,リアン,0
383,2012701018128,新規,0,2024-03-08,2024-03-08,株式会社達美,,株式会社,東京都,西東京市,芝久保町３丁目２４番３号,,13,229,1880014,,,,,,,2024-03-08,1,,,,,タツミ,0
386,2012705002391,新規,0,2024-03-08,2024-03-08,医療法人社団定夢会,,その他の設立登記法人,東京都,東久留米市,学園町２丁目１８番２号沢村屋ビルＡ店舗,,13,222,2030021,,,,,,,2024-03-08,1,,,,,サダムカイ,0
389,2013103001317,新規,0,2024-03-08,2024-03-08,合同会社ＫＮＮ,,合同会社,東京都,西多摩郡日の出町,大字平井２５６２番地１グリーンコーポラス３０１号,,13,305,1900182,,,,,,,2024-03-08,1,,,,,,0
394,2020001156127,新規,0,2024-03-08,2024-03-08,株式会社ビーエィツゥ,,株式会社,神奈川県,川崎市幸区,大宮町２８番－８号大宮住宅２０５,,14,132,2120014,,,,,,,2024-03-08,1,,,,,ビーエィツゥ,0
395,2020001156143,新規,0,2024-03-08,2024-03-08,株式会社スペースオペレーション,,株式会社,神奈川県,川崎市宮前区,南平台８番２－７０２号,,14,136,2160024,,,,,,,2024-03-08,1,,,,,スペースオペレーション,0
396,2020001156168,新規,0,2024-03-08,2024-03-08,株式会社リーフエステート,,株式会社,神奈川県,横浜市泉区,中田南３丁目１８番２４号,,14,116,2450014,,,,,,,2024-03-08,1,,,,,リーフエステート,0
404,2030001159005,新規,0,2024-03-08,2024-03-08,株式会社ＨＥＲＯ,,株式会社,埼玉県,川越市,新富町１丁目１８番地７Ｒ３ビル２階,,11,201,3500043,,,,,,,2024-03-08,1,,,,,ヒーロー,0
405,2030001159013,新規,0,2024-03-08,2024-03-08,株式会社牧丘,,株式会社,埼玉県,深谷市,田中７６３番地,,11,218,3691108,,,,,,,2024-03-08,1,,,,,マキオカ,0
406,2030001159021,新規,0,2024-03-08,2024-03-08,バーテックス株式会社,,株式会社,埼玉県,熊谷市,千代１８５番地１１温庫Ｆ,,11,202,3600107,,,,,,,2024-03-08,1,,,,,バーテックス,0
407,2030001159145,新規,0,2024-03-08,2024-03-08,株式会社Ｅｌｅｉｎ,,株式会社,埼玉県,志木市,中宗岡２丁目２０番１６号,,11,228,3530002,,,,,,,2024-03-08,1,,,,,エレイン,0
408,2030003023778,新規,0,2024-03-08,2024-03-08,ＬＩＦＡＬＬＹグループ合同会社,,合同会社,埼玉県,川口市,西川口６丁目７番２１号,,11,203,3320021,,,,,,,2024-03-08,1,,,,,ライファリーグループ,0
414,2040001132448,新規,0,2024-03-08,2024-03-08,東方産業株式会社,,株式会社,千葉県,千葉市若葉区,千城台東２丁目２８番地１号森山ビル２階,,12,104,2640002,,,,,,,2024-03-08,1,,,,,トウホウサンギョウ,0
415,2040001132489,新規,0,2024-03-08,2024-03-08,株式会社Ｗｉｎｇ,,株式会社,千葉県,四街道市,もねの里１丁目５番８号,,12,228,2840016,,,,,,,2024-03-08,1,,,,,ウイング,0
416,2040001132555,新規,0,2024-03-08,2024-03-08,株式会社杜建,,株式会社,千葉県,柏市,豊四季９４５番５９２,,12,217,2770863,,,,,,,2024-03-08,1,,,,,モリケン,0
417,2040001132571,新規,0,2024-03-08,2024-03-08,株式会社ＡＳＦ,,株式会社,千葉県,千葉市中央区,道場北１丁目９番１号Ｇ－ＨＡＮＧＡＲＩＩ３号,00134007,12,101,2600006,,,,,,,2024-03-08,1,,,,,エーエスエフ,0
424,2040003024503,新規,0,2024-03-08,2024-03-08,合同会社Ｒｉｌａ,,合同会社,千葉県,千葉市緑区,高田町１７３２番地,,12,105,2660003,,,,,,,2024-03-08,1,,,,,リラ,0
427,2060001036894,新規,0,2024-03-08,2024-03-08,株式会社鈴屋電気,,株式会社,栃木県,塩谷郡塩谷町,大字田所２２１４番地４７,,09,384,3292331,,,,,,,2024-03-08,1,,,,,スズヤデンキ,0
429,2080101024574,新規,0,2024-03-08,2024-03-08,株式会社アリビオ,,株式会社,静岡県,富士市,松岡２３６２番地の１６,,22,210,4160909,,,,,,,2024-03-08,1,,,,,アリビオ,0
430,2080105006404,新規,0,2024-03-08,2024-03-08,一般社団法人丸正,,その他の設立登記法人,静岡県,三島市,梅名４２８番地の１,,22,206,4110816,,,,,,,2024-03-08,1,,,,,マルセイ,0
449,2090003002512,新規,0,2024-03-08,2024-03-08,足心漢合同会社,,合同会社,山梨県,中巨摩郡昭和町,西条３７９６,,19,384,4093866,,,,,,,2024-03-08,1,,,,,ソクシンカン,0
454,2110003005314,新規,0,2024-03-08,2024-03-08,合同会社浅野建設,,合同会社,新潟県,妙高市,大字吉木４４２－１,,15,217,9440022,,,,,,,2024-03-08,1,,,,,アサノケンセツ,0
465,2120001262889,新規,0,2024-03-08,2024-03-08,株式会社オーバルシステムサポート,,株式会社,大阪府,寝屋川市,萱島南町５番１１号,,27,215,5720825,,,,,,,2024-03-08,1,,,,,オーバルシステムサポート,0
466,2120001262922,新規,0,2024-03-08,2024-03-08,ａｔ株式会社,,株式会社,大阪府,大阪市阿倍野区,美章園２丁目２７－１２－７０１,,27,119,5450003,,,,,,,2024-03-08,1,,,,,アット,0
467,2120001262947,新規,0,2024-03-08,2024-03-08,サスティナボール株式会社,,株式会社,大阪府,枚方市,藤阪中町３３－６,,27,210,5730152,,,,,,,2024-03-08,1,,,,,サスティナボール,0
468,2120001262955,新規,0,2024-03-08,2024-03-08,株式会社イネイトサミーシー,,株式会社,大阪府,大阪市中央区,安土町１丁目７番１３号トヤマ本館９階,,27,128,5410052,,,,,,,2024-03-08,1,,,,,イネイトサミーシー,0
469,2120001262963,新規,0,2024-03-08,2024-03-08,株式会社Ｎａｎａ．７,,株式会社,大阪府,大阪市西区,新町１丁目５番７号５Ｆ,,27,106,5500013,,,,,,,2024-03-08,1,,,,,ナナドットナナ,0
470,2120001262971,新規,0,2024-03-08,2024-03-08,株式会社Ｐｅａｃｅｓｎｏｗ,,株式会社,大阪府,門真市,古川町２番５号２階,,27,223,5710031,,,,,,,2024-03-08,1,,,,,ピーススノー,0
471,2120001262996,新規,0,2024-03-08,2024-03-08,株式会社ＫＳプロダクツ,,株式会社,大阪府,大阪市福島区,福島２丁目１０番１９－１２１６号,,27,103,5530003,,,,,,,2024-03-08,1,,,,,ケイエスプロダクツ,0
472,2120001263029,新規,0,2024-03-08,2024-03-08,和港薬品株式会社,,株式会社,大阪府,大阪市中央区,久太郎町１丁目９番２８号５Ｆ,,27,128,5410056,,,,,,,2024-03-08,1,,,,,ワコウヤクヒン,0
475,2120003026029,新規,0,2024-03-08,2024-03-08,キョウト・ア・ヴェロ合同会社,,合同会社,大阪府,大阪市北区,堂島１丁目６番２０号堂島アバンザ６階在日フランス商工会議所内,,27,127,5300003,,,,,,,2024-03-08,1,,,,,キョウトアヴェロ,0
476,2120003026111,新規,0,2024-03-08,2024-03-08,合同会社ｉＲｉｓ,,合同会社,大阪府,寝屋川市,豊里町１４番１７号（２０１号）,,27,215,5720071,,,,,,,2024-03-08,1,,,,,イーリス,0
497,2140005026966,新規,0,2024-03-08,2024-03-08,医療法人社団皓葵会,,その他の設立登記法人,兵庫県,佐用郡佐用町,上三河１４１番地４,,28,501,6795225,,,,,,,2024-03-08,1,,,,,コウキカイ,0
508,2180001160427,新規,0,2024-03-08,2024-03-08,株式会社ギアス,,株式会社,愛知県,名古屋市西区,比良４丁目１４番地,,23,104,4520802,,,,,,,2024-03-08,1,,,,,ギアス,0
509,2180001160435,新規,0,2024-03-08,2024-03-08,株式会社Ａ‐ＴｒｕｓＥｄｇｅ,,株式会社,愛知県,名古屋市南区,汐田町９番２９号,,23,112,4570016,,,,,,,2024-03-08,1,,,,,アトラスエッジ,0
510,2180001160492,新規,0,2024-03-08,2024-03-08,株式会社青山農園,,株式会社,愛知県,大府市,北崎町福池６２番地,,23,223,4740001,,,,,,,2024-03-08,1,,,,,アオヤマノウエン,0
511,2180001160501,新規,0,2024-03-08,2024-03-08,株式会社たにぐち自動車,,株式会社,愛知県,一宮市,大和町宮地花池字出町裏４４番地１,,23,203,4910847,,,,,,,2024-03-08,1,,,,,タニグチジドウシャ,0
520,2220005008816,新規,0,2024-03-08,2024-03-08,一般社団法人アースフィールド能登,,その他の設立登記法人,石川県,羽咋郡宝達志水町,荻市ね３９番地１サンパレス宝達２０８号室,,17,386,9291426,,,,,,,2024-03-08,1,,,,,アースフィールドノト,0
527,2240001062906,新規,0,2024-03-08,2024-03-08,株式会社アセット・マン,,株式会社,広島県,広島市中区,舟入中町２番３－１００３号,,34,101,7300842,,,,,,,2024-03-08,1,,,,,アセットマン,0
538,2290001104942,新規,0,2024-03-08,2024-03-08,株式会社寺崎地下工業,,株式会社,福岡県,朝倉市,上浦４８３番地５,,40,228,8380057,,,,,,,2024-03-08,1,,,,,テラザキチカコウギョウ,0
539,2290001104967,新規,0,2024-03-08,2024-03-08,株式会社海凪塗装,,株式会社,福岡県,福岡市城南区,樋井川６丁目１５番１６－１０２号,,40,136,8140153,,,,,,,2024-03-08,1,,,,,カイナギトソウ,0
542,2290005019311,新規,0,2024-03-08,2024-03-08,特定非営利活動法人さくらピアプレイス,,その他の設立登記法人,福岡県,福岡市中央区,天神４丁目１番２８号天神リベラ７０２号,,40,133,8100001,,,,,,,2024-03-08,1,,,,,サクラピアプレイス,0
553,2330001031835,新規,0,2024-03-08,2024-03-08,株式会社ＨＡＮＡＭＩＺＵＫＩ,,株式会社,熊本県,熊本市東区,榎町１５番３４号,,43,102,8620917,,,,,,,2024-03-08,1,,,,,ハナミズキ,0
554,2340001026347,新規,0,2024-03-08,2024-03-08,グッドフェイス株式会社,,株式会社,鹿児島県,鹿児島市,城山町３番２４－２０１号,,46,201,8920853,,,,,,,2024-03-08,1,,,,,グッドフェイス,0
557,2360003013779,新規,0,2024-03-08,2024-03-08,合同会社西原衛生社,,合同会社,沖縄県,中頭郡西原町,字兼久３２８番地の５,,47,329,9030104,,,,,,,2024-03-08,1,,,,,ニシハラエイセイシャ,0
563,2380001034346,新規,0,2024-03-08,2024-03-08,株式会社龍,,株式会社,福島県,郡山市,八山田１丁目６９マリーバーランド２－１０１,,07,203,9638052,,,,,,,2024-03-08,1,,,,,リュウ,0
571,2420001018625,新規,0,2024-03-08,2024-03-08,株式会社スポルタアオモリ,,株式会社,青森県,青森市,古川１丁目１４番５号,,02,201,0300862,,,,,,,2024-03-08,1,,,,,スポルタアオモリ,0
572,2430001091225,新規,0,2024-03-08,2024-03-08,株式会社Ｆｉｌｌ,,株式会社,北海道,恵庭市,黄金南７丁目１２番地８,,01,231,0611409,,,,,,,2024-03-08,1,,,,,フィル,0
578,2490001010716,新規,0,2024-03-08,2024-03-08,株式会社ＭＥＤＩＡＺ,,株式会社,高知県,高知市,梅ノ辻２番４号,00134011,39,201,7808011,,,,,,,2024-03-08,1,,,,,メディアズ,0
590,3010001242819,新規,0,2024-03-08,2024-03-08,株式会社Ｆｕｋｕｒａｍ,,株式会社,東京都,中央区,八丁堀３丁目９番８号高木ビル３階,,13,102,1040032,,,,,,,2024-03-08,1,,,,,フクラム,0
591,3010001242868,新規,0,2024-03-08,2024-03-08,ＲＩＴＡ株式会社,,株式会社,東京都,中央区,銀座１丁目１２番４号Ｎ＆ＥＢＬＤ．６Ｆ,,13,102,1040061,,,,,,,2024-03-08,1,,,,,リタ,0
600,3010403032124,新規,0,2024-03-08,2024-03-08,合同会社ＧＫ０７３,,合同会社,東京都,港区,虎ノ門３丁目２２番１０－２０１号,,13,103,1050001,,,,,,,2024-03-08,1,,,,,ジーケイゼロセブンスリー,0
601,3010403032132,新規,0,2024-03-08,2024-03-08,ＬＤ１合同会社,,合同会社,東京都,港区,虎ノ門５丁目１番４号,,13,103,1050001,,,,,,,2024-03-08,1,,,,,エルディワン,0
602,3010405023030,新規,0,2024-03-08,2024-03-08,医療法人社団ＳＡＳＡＫＩ　ＣＬＩＮＩＣ,,その他の設立登記法人,東京都,港区,芝公園１丁目７番１５号池田ビル３階,,13,103,1050011,,,,,,,2024-03-08,1,,,,,ササキクリニック,0
603,3010405023039,新規,0,2024-03-08,2024-03-08,一般社団法人ＬＤ１,,その他の設立登記法人,東京都,港区,虎ノ門５丁目１番４号,,13,103,1050001,,,,,,,2024-03-08,1,,,,,エルディワン,0
606,3010601064753,新規,0,2024-03-08,2024-03-08,株式会社ＳｐａｃｅＸ,,株式会社,東京都,江東区,有明１丁目６番３０－９１１号,,13,108,1350063,,,,,,,2024-03-08,1,,,,,スペースエックス,0
608,3010701045653,新規,0,2024-03-08,2024-03-08,ｃｕｒｅｗｉｔｈ株式会社,,株式会社,東京都,品川区,南品川２丁目２番５号,,13,109,1400004,,,,,,,2024-03-08,1,,,,,キュアウィズ,0
609,3010701045661,新規,0,2024-03-08,2024-03-08,株式会社よりみち,,株式会社,東京都,品川区,西中延１丁目６番９号,,13,109,1420054,,,,,,,2024-03-08,1,,,,,ヨリミチ,0
616,3010905004579,新規,0,2024-03-08,2024-03-08,ＮＰＯ法人Ａｓｉａｎ　Ｌｅｇａｃｙ　Ｌｉｂｒａｒｙ　Ｊａｐａｎ,,その他の設立登記法人,東京都,世田谷区,世田谷４丁目１６番９号,,13,112,1540017,,,,,,,2024-03-08,1,,,,,アジアンレガシーライブラリージャパン,0
620,3011001160416,新規,0,2024-03-08,2024-03-08,株式会社イノマッチ,,株式会社,東京都,目黒区,上目黒３丁目２７番１７号,,13,110,1530051,,,,,,,2024-03-08,1,,,,,イノマッチ,0
622,3011003018637,新規,0,2024-03-08,2024-03-08,合同会社ＣＳＰ２,,合同会社,東京都,渋谷区,桜丘町２０番１号,,13,113,1500031,,,,,,,2024-03-08,1,,,,,シーエスピーツー,0
625,3011101106442,新規,0,2024-03-08,2024-03-08,株式会社タイムメイク,,株式会社,東京都,新宿区,西新宿３丁目３番１３号西新宿水間ビル６階,,13,104,1600023,,,,,,,2024-03-08,1,,,,,タイムメイク,0
626,3011101106483,新規,0,2024-03-08,2024-03-08,公表システム・サポート株式会社,,株式会社,東京都,新宿区,高田馬場１丁目３２番１０号,,13,104,1690075,,,,,,,2024-03-08,1,,,,,コウヒョウシステムサポート,0
632,3011501030408,新規,0,2024-03-08,2024-03-08,日本コベッタテクノロジー株式会社,,株式会社,東京都,荒川区,東日暮里５丁目５０番５号アートホテル日暮里ラングウッド３Ｆ,,13,118,1160014,,,,,,,2024-03-08,1,,,,,ニホンコベッタテクノロジー,0
636,3011701027088,新規,0,2024-03-08,2024-03-08,興達株式会社,,株式会社,東京都,江戸川区,平井１丁目２３番１５号,,13,123,1320035,,,,,,,2024-03-08,1,,,,,キョウタツ,0
637,3011701027096,新規,0,2024-03-08,2024-03-08,穏健株式会社,,株式会社,東京都,江戸川区,南小岩３丁目１３番１０号,,13,123,1330056,,,,,,,2024-03-08,1,,,,,オンケン,0
644,3012401041602,新規,0,2024-03-08,2024-03-08,株式会社Ｓｏｕｐｌｅ,,株式会社,東京都,小金井市,貫井北町３丁目２９番２０号,,13,210,1840015,,,,,,,2024-03-08,1,,,,,スプル,0
645,3012401041610,新規,0,2024-03-08,2024-03-08,株式会社Ｒｅｂｕｉｌｄ,,株式会社,東京都,三鷹市,新川５丁目１５番１号,,13,204,1810004,,,,,,,2024-03-08,1,,,,,リビルド,0
649,3012805003256,新規,0,2024-03-08,2024-03-08,一般社団法人まなびたかまり,,その他の設立登記法人,東京都,立川市,富士見町６丁目４３番５号ランドシティ立川多摩川テラス２０６号,,13,202,1900013,,,,,,,2024-03-08,1,,,,,マナビタカマリ,0
653,3020001156159,新規,0,2024-03-08,2024-03-08,株式会社福建サポート,,株式会社,神奈川県,横浜市中区,長者町９丁目１６６番地１ソフィアヨコハマビル,,14,104,2310033,,,,,,,2024-03-08,1,,,,,フッケンサポート,0
654,3020001156183,新規,0,2024-03-08,2024-03-08,株式会社Ｄａｍｉ,,株式会社,神奈川県,川崎市中原区,丸子通１丁目４７５番１号,,14,133,2110006,,,,,,,2024-03-08,1,,,,,ダミ,0
659,3020003025691,新規,0,2024-03-08,2024-03-08,ＣＲＡＮＥ‐ＬＯＯＫ合同会社,,合同会社,神奈川県,川崎市麻生区,高石５丁目１―３,,14,137,2150003,,,,,,,2024-03-08,1,,,,,クレインルック,0
660,3020003025700,新規,0,2024-03-08,2024-03-08,合同会社のぞみ,,合同会社,神奈川県,川崎市幸区,中幸町１丁目５８－１ソレーユ川崎１０３,,14,132,2120012,,,,,,,2024-03-08,1,,,,,ノゾミ,0
664,3021001081644,新規,0,2024-03-08,2024-03-08,株式会社Ｂｕｄｄｙ,,株式会社,神奈川県,大和市,深見西８丁目８番２－１号,,14,213,2420018,,,,,,,2024-03-08,1,,,,,バディ,0
679,3030001159061,新規,0,2024-03-08,2024-03-08,株式会社京極,,株式会社,埼玉県,草加市,栄町３丁目８番３７号,,11,221,3400011,,,,,,,2024-03-08,1,,,,,キョウゴク,0
680,3030001159103,新規,0,2024-03-08,2024-03-08,株式会社トール,,株式会社,埼玉県,所沢市,大字中富５８２番地の３,,11,208,3590002,,,,,,,2024-03-08,1,,,,,トール,0
681,3030001159136,新規,0,2024-03-08,2024-03-08,株式会社ＳＡＮＹＡ,,株式会社,埼玉県,さいたま市岩槻区,東町２丁目１－４イーストＰＪ２０１,,11,110,3390055,,,,,,,2024-03-08,1,,,,,サンヤ,0
686,3030005021572,新規,0,2024-03-08,2024-03-08,一般社団法人ファルケＳＶ,,その他の設立登記法人,埼玉県,北足立郡伊奈町,中央３丁目３３０番地１,,11,301,3620809,,,,,,,2024-03-08,1,,,,,ファルケエスファウ,0
690,3040001132554,新規,0,2024-03-08,2024-03-08,株式会社ＤＲＥＡＭ　ＡＵＴＯ,,株式会社,千葉県,船橋市,二子町５９６番地１８,,12,204,2730034,,,,,,,2024-03-08,1,,,,,ドリームオート,0
691,3040001132562,新規,0,2024-03-08,2024-03-08,株式会社ＫＤＣ,,株式会社,千葉県,千葉市若葉区,若松町２３６８番地２,,12,104,2640021,,,,,,,2024-03-08,1,,,,,ケーディーシー,0
692,3040001132570,新規,0,2024-03-08,2024-03-08,ＩＭＡＧＥＮＴ株式会社,,株式会社,千葉県,千葉市中央区,中央４丁目９番８号エムズビル２０２,,12,101,2600013,,,,,,,2024-03-08,1,,,,,イメージェント,0
693,3040001132579,新規,0,2024-03-08,2024-03-08,テスコムエンジニアリング株式会社,,株式会社,千葉県,浦安市,富士見５丁目６番３７号,,12,227,2790043,,,,,,,2024-03-08,1,,,,,テスコムエンジニアリング,0
694,3040003024485,新規,0,2024-03-08,2024-03-08,合同会社野田市フットボールクラブ,,合同会社,千葉県,柏市,あけぼの２丁目３番２２－１０４号,,12,217,2770841,,,,,,,2024-03-08,1,,,,,ノダシフットボールクラブ,0
696,3050003008181,新規,0,2024-03-08,2024-03-08,Ａｖｅｎｇｅ合同会社,,合同会社,茨城県,鹿嶋市,大字下塙６６０－１グランドサンＢ－２０３,,08,222,3140025,,,,,,,2024-03-08,1,,,,,アベンジ,0
697,3050005013394,新規,0,2024-03-08,2024-03-08,一般社団法人ＢＣ‐ｂｏｄｙ,,その他の設立登記法人,茨城県,つくば市,二の宮４丁目８番１号,,08,220,3050051,,,,,,,2024-03-08,1,,,,,ビイシイボデイ,0
700,3060001036893,新規,0,2024-03-08,2024-03-08,菊池運送株式会社,,株式会社,栃木県,宇都宮市,下栗町７５１番地６ＧＲＥＥＮＦＯＲＥＳＴ２０３,,09,201,3210923,,,,,,,2024-03-08,1,,,,,キクチウンソウ,0
712,3080103002998,新規,0,2024-03-08,2024-03-08,合同会社ＣＫＱコーポレーション,,合同会社,静岡県,熱海市,山手町２番１号１－１０８,,22,205,4130042,,,,,,,2024-03-08,1,,,,,シーケーキューコーポレーション,0
714,3080405007613,新規,0,2024-03-08,2024-03-08,社会保険労務士法人ＥＬＯ,,その他の設立登記法人,静岡県,浜松市中央区,佐鳴台１丁目２番３０号,,22,138,4328021,,,,,,,2024-03-08,1,,,,,イーエルオー,0
715,3090001018583,新規,0,2024-03-08,2024-03-08,Ａ＆Ｍコンサルティング株式会社,,株式会社,山梨県,甲府市,西田町３番５３号,,19,201,4000004,,,,,,,2024-03-08,1,,,,,エーアンドエムコンサルティング,0
719,3100005013133,新規,0,2024-03-08,2024-03-08,医療法人スマイル＆スマイル,,その他の設立登記法人,長野県,大町市,常盤３５８７番地１,,20,212,3980004,,,,,,,2024-03-08,1,,,,,スマイルアンドスマイル,0
723,3120001262748,新規,0,2024-03-08,2024-03-08,Ｆｉｒｓｔ　Ｄｏｏｒ株式会社,,株式会社,大阪府,大阪市都島区,内代町２丁目１０番７号Ｃａｓｅｔｔａｎｏｉ２０１号,,27,102,5340013,,,,,,,2024-03-08,1,,,,,ファーストドア,0
724,3120001262871,新規,0,2024-03-08,2024-03-08,株式会社アネット,,株式会社,大阪府,守口市,寺方元町４丁目５番１号,,27,209,5700047,,,,,,,2024-03-08,1,,,,,アネット,0
725,3120001262888,新規,0,2024-03-08,2024-03-08,株式会社Ｗｅｌａｂ,,株式会社,大阪府,大阪市中央区,島之内１丁目１１－６グレイス長堀９０６,,27,128,5420082,,,,,,,2024-03-08,1,,,,,ウイラボ,0
726,3120001262905,新規,0,2024-03-08,2024-03-08,株式会社エコリゾート,,株式会社,大阪府,大阪市西区,新町１丁目１４番３９号三恵ビル３０１号室,,27,106,5500013,,,,,,,2024-03-08,1,,,,,エコリゾート,0
727,3120001262913,新規,0,2024-03-08,2024-03-08,株式会社エムズ,,株式会社,大阪府,大阪市福島区,野田６丁目３番１８号グランシャリオモア３０４号,,27,103,5530005,,,,,,,2024-03-08,1,,,,,エムズ,0
728,3120001262938,新規,0,2024-03-08,2024-03-08,ＩＢＵＫＩ　ＪＡＰＡＮ株式会社,,株式会社,大阪府,大阪市西区,江之子島２丁目１番３７－２７０９号,,27,106,5500006,,,,,,,2024-03-08,1,,,,,イブキジャパン,0
729,3120001262946,新規,0,2024-03-08,2024-03-08,甘蘭分割準備株式会社,,株式会社,大阪府,大阪市北区,天満２丁目１－１２,,27,127,5300043,,,,,,,2024-03-08,1,,,,,カンランブンカツジュンビ,0
730,3120001262979,新規,0,2024-03-08,2024-03-08,カイロン株式会社,,株式会社,大阪府,大阪市浪速区,難波中３丁目７番１７－５０８号,,27,111,5560011,,,,,,,2024-03-08,1,,,,,カイロン,0
731,3120001263028,新規,0,2024-03-08,2024-03-08,アイヨシケン株式会社,,株式会社,大阪府,寝屋川市,高柳１丁目４番６号,,27,215,5720051,,,,,,,2024-03-08,1,,,,,アイヨシケン,0
732,3120001263036,新規,0,2024-03-08,2024-03-08,川手商事株式会社,,株式会社,大阪府,大阪市住吉区,庭井２丁目１番２９号１０３号,,27,120,5580012,,,,,,,2024-03-08,1,,,,,カワテショウジ,0
734,3120003026093,新規,0,2024-03-08,2024-03-08,合同会社ＨａｒｍｏｎｉＱ,,合同会社,大阪府,大阪市平野区,長吉出戸３丁目２番５２号,,27,126,5470011,,,,,,,2024-03-08,1,,,,,ハーモニック,0
735,3120003026110,新規,0,2024-03-08,2024-03-08,合同会社Ｂｌｏｓｓｏｍ,,合同会社,大阪府,枚方市,東山２丁目４３番地２－２０６,,27,210,5731114,,,,,,,2024-03-08,1,,,,,ブロッサム,0
739,3120103005708,新規,0,2024-03-08,2024-03-08,合同会社ＡＢＮ,,合同会社,大阪府,堺市西区,浜寺南町３丁８－２２,,27,144,5928344,,,,,,,2024-03-08,1,,,,,エービーエヌ,0
742,3122003002826,新規,0,2024-03-08,2024-03-08,合同会社ｍｏｃｍｏｃ,,合同会社,大阪府,東大阪市,小若江１丁目１０番１４号,,27,227,5770818,,,,,,,2024-03-08,1,,,,,モクモク,0
749,3130001076544,新規,0,2024-03-08,2024-03-08,株式会社ＮＷ　Ｗｏｒｋｓ,,株式会社,京都府,宇治市,広野町西裏９９－３６,,26,204,6110031,,,,,,,2024-03-08,1,,,,,エヌダブリュワークス,0
760,3140001133550,新規,0,2024-03-08,2024-03-08,株式会社ルルコネクト,,株式会社,兵庫県,神戸市東灘区,住吉本町２丁目２４番３２号,,28,101,6580051,,,,,,,2024-03-08,1,,,,,ルルコネクト,0
761,3140001133583,新規,0,2024-03-08,2024-03-08,株式会社リンク,,株式会社,兵庫県,姫路市,西二階町２２番地,,28,201,6700901,,,,,,,2024-03-08,1,,,,,リンク,0
762,3140001133600,新規,0,2024-03-08,2024-03-08,神戸健康科学株式会社,,株式会社,兵庫県,神戸市長田区,大谷町３丁目１番１２号－３,,28,106,6530838,,,,,,,2024-03-08,1,,,,,コウベケンコウカガク,0
763,3140001133609,新規,0,2024-03-08,2024-03-08,株式会社ＳＰＲ,,株式会社,兵庫県,神戸市中央区,加納町４丁目１０－２３－７０２,,28,110,6500001,,,,,,,2024-03-08,1,,,,,エスピーアール,0
769,3160001025738,新規,0,2024-03-08,2024-03-08,延聖江北刻経処株式会社,,株式会社,滋賀県,大津市,長等２丁目２番２３号,,25,201,5200046,,,,,,,2024-03-08,1,,,,,エンセイコウホクコクキョウショ,0
770,3170001018039,新規,0,2024-03-08,2024-03-08,株式会社グリーン,,株式会社,和歌山県,田辺市,上万呂３番地,,30,206,6460002,,,,,,,2024-03-08,1,,,,,グリーン,0
782,3180001160376,新規,0,2024-03-08,2024-03-08,北岡商事株式会社,,株式会社,愛知県,名古屋市中村区,靖国町２丁目９０ハイツゾンネ２Ｄ,,23,105,4530065,,,,,,,2024-03-08,1,,,,,キタオカショウジ,0
783,3180001160392,新規,0,2024-03-08,2024-03-08,ゾーム株式会社,,株式会社,愛知県,名古屋市東区,代官町３２番８号,,23,102,4610002,,,,,,,2024-03-08,1,,,,,ゾーム,0
785,3180003026451,新規,0,2024-03-08,2024-03-08,合同会社久保板金,,合同会社,愛知県,名古屋市南区,呼続３丁目１５番３５号,,23,112,4570014,,,,,,,2024-03-08,1,,,,,クボバンキン,0
789,3180301038405,新規,0,2024-03-08,2024-03-08,株式会社Ａｕｔｈｏｒ‐Ｗｅｂ,,株式会社,愛知県,額田郡幸田町,大字大草字北川後１番地１（Ｂ－３０７）,,23,501,4440103,,,,,,,2024-03-08,1,,,,,オーサーウェブ,0
790,3190001031155,新規,0,2024-03-08,2024-03-08,株式会社オートサービスフクヤマ,,株式会社,三重県,南牟婁郡紀宝町,鮒田１２番地５,,24,562,5195714,,,,,,,2024-03-08,1,,,,,オートサービスフクヤマ,0
793,3200001042233,新規,0,2024-03-08,2024-03-08,株式会社山陽,,株式会社,岐阜県,揖斐郡揖斐川町,谷汲岐礼１０５０番地２,,21,401,5011302,,,,,,,2024-03-08,1,,,,,サンヨウ,0
802,3240005015743,新規,0,2024-03-08,2024-03-08,特定非営利活動法人進徳ジュニア・ユース,,その他の設立登記法人,広島県,広島市南区,皆実町１丁目１番５８号,,34,103,7340007,,,,,,,2024-03-08,1,,,,,シントクジュニアユース,0
815,3290001104933,新規,0,2024-03-08,2024-03-08,コクドグローバルマネジメント九州株式会社,,株式会社,福岡県,糟屋郡志免町,別府４丁目１１番１１号藤ファミールハイツＩＩ－２０１号,00134000,40,343,8112205,,,,,,,2024-03-08,1,,,,,コクドグローバルマネジメントキュウシュウ,0
816,3290001104999,新規,0,2024-03-08,2024-03-08,株式会社Ｓｈｅｅｎａ,,株式会社,福岡県,福岡市中央区,薬院３丁目１４－３西鉄薬院ビル５階真永,,40,133,8100022,,,,,,,2024-03-08,1,,,,,シーナ,0
826,3320003004302,新規,0,2024-03-08,2024-03-08,合同会社こばと公司,,合同会社,大分県,大分市,高崎３丁目６番９号,,44,201,8700872,,,,,,,2024-03-08,1,,,,,コバトコンス,0
834,3370001051011,新規,0,2024-03-08,2024-03-08,大和企画株式会社,,株式会社,宮城県,宮城郡利府町,青葉台３丁目１番地３１４,,04,406,9810133,,,,,,,2024-03-08,1,,,,,ヤマトキカク,0
838,3380001034320,新規,0,2024-03-08,2024-03-08,株式会社耕福,,株式会社,福島県,双葉郡双葉町,大字長塚字町３９－２,,07,546,9791471,,,,,,,2024-03-08,1,,,,,コウフク,0
845,3420001018624,新規,0,2024-03-08,2024-03-08,株式会社フクシスポーツ,,株式会社,青森県,青森市,古川１丁目１４番５号,,02,201,0300862,,,,,,,2024-03-08,1,,,,,フクシスポーツ,0
847,3420003002881,新規,0,2024-03-08,2024-03-08,合同会社ＳＴＲＡＩＴ,,合同会社,青森県,弘前市,大字稲田１丁目１番地２,,02,202,0368097,,,,,,,2024-03-08,1,,,,,ストレイト,0
850,3430001091216,新規,0,2024-03-08,2024-03-08,株式会社建翔,,株式会社,北海道,札幌市清田区,真栄二条２丁目１４番１８号,,01,110,0040832,,,,,,,2024-03-08,1,,,,,ケンショウ,0
851,3430001091257,新規,0,2024-03-08,2024-03-08,株式会社Ｃｒｅａ,,株式会社,北海道,札幌市清田区,里塚緑ケ丘１２丁目３番２号,,01,110,0040805,,,,,,,2024-03-08,1,,,,,クレア,0
853,3430003015981,新規,0,2024-03-08,2024-03-08,合同会社アキュレートエンジニアリング,,合同会社,北海道,札幌市北区,屯田七条８丁目４番７号,,01,102,0020857,,,,,,,2024-03-08,1,,,,,アキュレートエンジニアリング,0
854,3430003016030,新規,0,2024-03-08,2024-03-08,大道合同会社,,合同会社,北海道,札幌市北区,北十九条西６丁目１－２５－５０３,,01,102,0010019,,,,,,,2024-03-08,1,,,,,ダイドウ,0
857,3460101007507,新規,0,2024-03-08,2024-03-08,クロス・ウインズ・ネットワークス株式会社,,株式会社,北海道,河西郡芽室町,東三条６丁目２－８,,01,637,0820013,,,,,,,2024-03-08,1,,,,,クロスウインズネットワークス,0
870,4010001242834,新規,0,2024-03-08,2024-03-08,ＴＨＥ　ＦＲＥＥ　ＡＧＥＮＴ　ＬＡＢ株式会社,,株式会社,東京都,千代田区,九段南２丁目３番２５号平安堂ビル４Ｆ,,13,101,1020074,,,,,,,2024-03-08,1,,,,,ザフリーエージェントラボ,0
871,4010001242859,新規,0,2024-03-08,2024-03-08,ＬＥＰＲＡ株式会社,,株式会社,東京都,中央区,銀座１丁目１２番４号Ｎ＆ＥＢＬＤ．６Ｆ,,13,102,1040061,,,,,,,2024-03-08,1,,,,,レプラ,0
883,4010401180956,新規,0,2024-03-08,2024-03-08,アズール株式会社,,株式会社,東京都,港区,北青山３丁目６－７青山パラシオタワー１１階,,13,103,1070061,,,,,,,2024-03-08,1,,,,,アズール,0
884,4010403032123,新規,0,2024-03-08,2024-03-08,オルタンシア合同会社,,合同会社,東京都,港区,芝浦４丁目５番１３－１２０６号,,13,103,1080023,,,,,,,2024-03-08,1,,,,,オルタンシア,0
885,4010403032131,新規,0,2024-03-08,2024-03-08,ＬＤ２合同会社,,合同会社,東京都,港区,虎ノ門５丁目１番４号,,13,103,1050001,,,,,,,2024-03-08,1,,,,,エルディツー,0
889,4010405023038,新規,0,2024-03-08,2024-03-08,一般社団法人ＳＳ　Ｉｎｖｅｓｔｍｅｎｔ,,その他の設立登記法人,東京都,港区,元赤坂１丁目１番８号株式会社赤坂国際会計内,,13,103,1070051,,,,,,,2024-03-08,1,,,,,エスエスインベストメント,0
898,4010601064777,新規,0,2024-03-08,2024-03-08,株式会社ＰＲＯＶＩＥ,,株式会社,東京都,江東区,古石場３丁目１１番１４号ＳＫ門前仲町ＩＩ,00134003,13,108,1350045,,,,,,,2024-03-08,1,,,,,プロヴィー,0
920,4011001160497,新規,0,2024-03-08,2024-03-08,株式会社ｃｌｉｍｂ,,株式会社,東京都,渋谷区,道玄坂１丁目１０番８号渋谷道玄坂東急ビル２Ｆ－Ｃ,,13,113,1500043,,,,,,,2024-03-08,1,,,,,クライム,0
921,4011001160506,新規,0,2024-03-08,2024-03-08,株式会社Ａｚｕｒｉｔｅ,,株式会社,東京都,渋谷区,神宮前３丁目２７番２３号,,13,113,1500001,,,,,,,2024-03-08,1,,,,,アズライト,0
922,4011001160514,新規,0,2024-03-08,2024-03-08,株式会社Ｋ２１,,株式会社,東京都,渋谷区,本町６丁目８番６－５０１号,,13,113,1510071,,,,,,,2024-03-08,1,,,,,ケイニジュウイチ,0
928,4011101106482,新規,0,2024-03-08,2024-03-08,株式会社ＭＡＳＨＩ　ＭＡＳＨＩクリエイト,,株式会社,東京都,新宿区,箪笥町２８番地,,13,104,1620833,,,,,,,2024-03-08,1,,,,,マシマシクリエイト,0
929,4011103014171,新規,0,2024-03-08,2024-03-08,Ｎｉｓｈｉｋｉ　Ｄｉｇｉｔａｌ　Ｍｅｄｉａ　Ｊａｐａｎ合同会社,,合同会社,東京都,新宿区,西新宿５丁目８番２号惠徳ビル５０３号室,,13,104,1600023,,,,,,,2024-03-08,1,,,,,ニシキデジタルメディアジャパン,0
941,4011401025911,新規,0,2024-03-08,2024-03-08,徳恒律師株式会社,00134004,株式会社,東京都,板橋区,常盤台４丁目６番１２－３０１号,,13,119,1740071,,,,,,,2024-03-08,1,,,,,トクコウリッシ,0
943,4011501030415,新規,0,2024-03-08,2024-03-08,株式会社ＫＡＳＵＭＩ,,株式会社,東京都,荒川区,荒川３丁目６１－４－３０２,,13,118,1160002,,,,,,,2024-03-08,1,,,,,カスミ,0
945,4011703003730,新規,0,2024-03-08,2024-03-08,合同会社ディレクトソーシング,,合同会社,東京都,江戸川区,松江５丁目２６番５号,,13,123,1320025,,,,,,,2024-03-08,1,,,,,ディレクトソーシング,0
947,4011805003348,新規,0,2024-03-08,2024-03-08,医療法人社団楡真会,,その他の設立登記法人,東京都,足立区,千住旭町１番１９号ｙｐｏｉｎｔ２階２０１号室,,13,121,1200026,,,,,,,2024-03-08,1,,,,,ユシンカイ,0
959,4020001156166,新規,0,2024-03-08,2024-03-08,株式会社アンカー,,株式会社,神奈川県,横浜市戸塚区,上倉田町２２２番地１横浜サウス１１１号室,,14,110,2440816,,,,,,,2024-03-08,1,,,,,アンカー,0
963,4020003025666,新規,0,2024-03-08,2024-03-08,合同会社ファーム,,合同会社,神奈川県,川崎市高津区,蟹ケ谷２３７番地３５,,14,134,2130025,,,,,,,2024-03-08,1,,,,,ファーム,0
964,4020003025682,新規,0,2024-03-08,2024-03-08,合同会社Ｌｉｏｎｅｌ,,合同会社,神奈川県,横浜市港北区,綱島西５丁目２０番３５号シャルマン横浜３０２,,14,109,2230053,,,,,,,2024-03-08,1,,,,,ライオネル,0
978,4030001159003,新規,0,2024-03-08,2024-03-08,Ｅ・ＦＯＲＵ株式会社,,株式会社,埼玉県,川口市,並木元町１番６７－１５０５号リボンシティレジデンスＡ棟,,11,203,3320033,,,,,,,2024-03-08,1,,,,,イーフォル,0
979,4030001159119,新規,0,2024-03-08,2024-03-08,株式会社Ｇ‐ＫＥＮ,,株式会社,埼玉県,上尾市,愛宕２丁目２０番２２－１９号,,11,219,3620034,,,,,,,2024-03-08,1,,,,,ジーケン,0
980,4030001159127,新規,0,2024-03-08,2024-03-08,株式会社エコ・プロジェクト,,株式会社,埼玉県,さいたま市緑区,大字三室２０４番地４,,11,109,3360911,,,,,,,2024-03-08,1,,,,,エコプロジェクト,0
985,4030003023743,新規,0,2024-03-08,2024-03-08,ｉｎｖｅｒｓｔｉｇａｔｉｏｎｆｉｒｍＲＥＰＲＯｏｆＪｕｎこねくと合同会社,,合同会社,埼玉県,さいたま市南区,大字大谷口２５６６番地６,,11,108,3360042,,,,,,,2024-03-08,1,,,,,インヴェスティゲイションファームリプロオヴジュンコネクト,0
986,4030003023776,新規,0,2024-03-08,2024-03-08,合同会社えるせると,,合同会社,埼玉県,越谷市,北越谷２丁目２番１－１０５号,,11,222,3430026,,,,,,,2024-03-08,1,,,,,エルセルト,0
987,4030003023792,新規,0,2024-03-08,2024-03-08,合同会社菊地商会,,合同会社,埼玉県,富士見市,鶴馬１丁目４－２０,,11,235,3540021,,,,,,,2024-03-08,1,,,,,キクチショウカイ,0
990,4040001132553,新規,0,2024-03-08,2024-03-08,株式会社ケンテックス,,株式会社,千葉県,柏市,南増尾５丁目２５番２３号,,12,217,2770054,,,,,,,2024-03-08,1,,,,,ケンテックス,0
991,4040001132561,新規,0,2024-03-08,2024-03-08,株式会社日本賃貸管理,,株式会社,千葉県,船橋市,夏見１丁目１３番３２－２１３号,,12,204,2730865,,,,,,,2024-03-08,1,,,,,ニホンチンタイカンリ,0
992,4040001132578,新規,0,2024-03-08,2024-03-08,ピーチブルーム株式会社,,株式会社,千葉県,市原市,荻作５３０番地４,,12,219,2900177,,,,,,,2024-03-08,1,,,,,ピーチブルーム,0
1004,4050001054417,新規,0,2024-03-08,2024-03-08,株式会社ＮＴＣ,,株式会社,茨城県,日立市,滑川本町１丁目２２番１号,,08,202,3170051,,,,,,,2024-03-08,1,,,,,エヌティシー,0
1008,4060001036884,新規,0,2024-03-08,2024-03-08,株式会社宮崎商店,,株式会社,栃木県,栃木市,片柳町１丁目１６番１４号,,09,203,3280053,,,,,,,2024-03-08,1,,,,,ミヤザキショウテン,0
1011,4060005010175,新規,0,2024-03-08,2024-03-08,一般社団法人ラナ・マリー,,その他の設立登記法人,栃木県,那須郡那須町,大字寺子乙８８９－４１,,09,407,3293215,,,,,,,2024-03-08,1,,,,,ラナマリー,0
1015,4080003003146,新規,0,2024-03-08,2024-03-08,合同会社ＢＡＳＮＥＴ　ＣＨＡＵＴＡＲＩ,,合同会社,静岡県,静岡市葵区,紺屋町７番地７サンピアレビル地下１階,,22,101,4200852,,,,,,,2024-03-08,1,,,,,バスネットチョウタリ,0
1022,4080405007612,新規,0,2024-03-08,2024-03-08,一般社団法人自然共生塾百世,,その他の設立登記法人,静岡県,磐田市,豊岡１７０１番地２,,22,211,4380231,,,,,,,2024-03-08,1,,,,,シゼンキョウセイジュクヒャクセ,0
1026,4100003007441,新規,0,2024-03-08,2024-03-08,合同会社Ｒｅｖｅ,,合同会社,長野県,長野市,大字三才４１３番地１０,,20,201,3810081,,,,,,,2024-03-08,1,,,,,レーヴ,0
1035,4120001262870,新規,0,2024-03-08,2024-03-08,株式会社Ｌｉｆｅｈａｃｋｅｒ,,株式会社,大阪府,大阪市福島区,鷺洲６丁目１番５－１００１号,,27,103,5530002,,,,,,,2024-03-08,1,,,,,ライフハッカー,0
1036,4120001262904,新規,0,2024-03-08,2024-03-08,泰平答株式会社,,株式会社,大阪府,大阪市生野区,新今里３丁目４番１７号ＯＧビル２０１Ｂ,,27,116,5440001,,,,,,,2024-03-08,1,,,,,タイヘイトウ,0
1037,4120001262912,新規,0,2024-03-08,2024-03-08,嵩島株式会社,,株式会社,大阪府,大阪市港区,三先２丁目２０番５８号,,27,107,5520016,,,,,,,2024-03-08,1,,,,,カサシマ,0
1038,4120001262937,新規,0,2024-03-08,2024-03-08,株式会社交通電業持株会社,,株式会社,大阪府,大阪市平野区,西脇２丁目１２番２６号,,27,126,5470035,,,,,,,2024-03-08,1,,,,,コウツウデンギョウモチカブガイシャ,0
1039,4120001262961,新規,0,2024-03-08,2024-03-08,株式会社ＨＩＲＡＴＯ,,株式会社,大阪府,大阪市北区,浮田２丁目６番５号,,27,127,5300021,,,,,,,2024-03-08,1,,,,,ヒラト,0
1040,4120001262978,新規,0,2024-03-08,2024-03-08,株式会社ＭＤ,,株式会社,大阪府,大阪市東成区,深江南１丁目９番１８号,,27,115,5370002,,,,,,,2024-03-08,1,,,,,エムディ,0
1041,4120001263002,新規,0,2024-03-08,2024-03-08,Ｃ．ｅｓｔａｔｅ株式会社,,株式会社,大阪府,大阪市東住吉区,針中野２丁目１２番１１号,,27,121,5460011,,,,,,,2024-03-08,1,,,,,シーエステイト,0
1042,4120001263035,新規,0,2024-03-08,2024-03-08,仁和株式会社,,株式会社,大阪府,大阪市住吉区,墨江３丁目１７－１８申野オフィス１０１号室,,27,120,5580043,,,,,,,2024-03-08,1,,,,,ジンワ,0
1047,4120003026076,新規,0,2024-03-08,2024-03-08,ＡＭＣ合同会社,,合同会社,大阪府,大阪市中央区,本町２丁目３番４号アソルティ本町４階,,27,128,5410053,,,,,,,2024-03-08,1,,,,,エーエムシー,0
1048,4120003026092,新規,0,2024-03-08,2024-03-08,合同会社ヤムログ,,合同会社,大阪府,交野市,私部西３丁目２１番１号,,27,230,5760041,,,,,,,2024-03-08,1,,,,,ヤムログ,0
1049,4120003026101,新規,0,2024-03-08,2024-03-08,ＶＴＣ合同会社,,合同会社,大阪府,大阪市西成区,南津守７丁目８番６号,,27,122,5570063,,,,,,,2024-03-08,1,,,,,ブイティーシー,0
1050,4120003026118,新規,0,2024-03-08,2024-03-08,合同会社ＳｙＵＮｉ,,合同会社,大阪府,大阪市中央区,内淡路町２丁目１－１０アストレア内淡路３０１号室,,27,128,5400038,,,,,,,2024-03-08,1,,,,,シュニー,0
1054,4120005024185,新規,0,2024-03-08,2024-03-08,一般社団法人関西土地建物管理協会,,その他の設立登記法人,大阪府,大阪市西淀川区,姫島２丁目１４番１１号,,27,113,5550033,,,,,,,2024-03-08,1,,,,,カンサイトチタテモノカンリキョウカイ,0
1055,4120101069183,新規,0,2024-03-08,2024-03-08,株式会社ＳＵＣＣＥＳＳ,,株式会社,大阪府,富田林市,須賀１丁目１番２０号,,27,214,5840062,,,,,,,2024-03-08,1,,,,,サクセス,0
1068,4130003009352,新規,0,2024-03-08,2024-03-08,合同会社ＢＥＥＳ・ＦＡＣＴＯＲＹ,,合同会社,京都府,京都市中京区,壬生西土居ノ内町２９番地,,26,104,6048847,,,,,,,2024-03-08,1,,,,,ビーズファクトリ,0
1070,4140001133541,新規,0,2024-03-08,2024-03-08,株式会社いこそけ,,株式会社,兵庫県,丹波市,山南町岡本１３４番地,,28,223,6693127,,,,,,,2024-03-08,1,,,,,イコソケ,0
1071,4140001133608,新規,0,2024-03-08,2024-03-08,株式会社ヒトカゾク,,株式会社,兵庫県,神戸市中央区,北長狭通４丁目９番２６号西北神ビル２階Ａ,,28,110,6500012,,,,,,,2024-03-08,1,,,,,ヒトカゾク,0
1075,4160005011279,新規,0,2024-03-08,2024-03-08,一般社団法人琵琶湖スポーツ振興協議会,,その他の設立登記法人,滋賀県,長浜市,弥高町２４９番地３ヴィラドハンスブランＡ－３,,25,203,5260034,,,,,,,2024-03-08,1,,,,,ビワコスポーツシンコウキョウギカイ,0
1082,4180001160409,新規,0,2024-03-08,2024-03-08,株式会社ＨＩ　ＴＥＣ,,株式会社,愛知県,名古屋市北区,楠３丁目４２４番地,,23,103,4620012,,,,,,,2024-03-08,1,,,,,ハイテック,0
1083,4180001160425,新規,0,2024-03-08,2024-03-08,株式会社前建,,株式会社,愛知県,犬山市,大字栗栖字瀬ノ上１８６番地３,,23,215,4840002,,,,,,,2024-03-08,1,,,,,マエケン,0
1084,4180001160433,新規,0,2024-03-08,2024-03-08,ＨＭＵ山本スポーツ株式会社,,株式会社,愛知県,一宮市,佐千原字北切野７７番地,,23,203,4910124,,,,,,,2024-03-08,1,,,,,エイチエムユーヤマモトスポーツ,0
1085,4180001160482,新規,0,2024-03-08,2024-03-08,株式会社東海テクセル,,株式会社,愛知県,名古屋市昭和区,福江２丁目９番３３号名古屋ビジネスインキュベータ白金,,23,107,4660059,,,,,,,2024-03-08,1,,,,,トウカイテクセル,0
1086,4180001160490,新規,0,2024-03-08,2024-03-08,株式会社ＹＭＨＭ,,株式会社,愛知県,名古屋市中村区,沖田町２４３番地,,23,105,4530825,,,,,,,2024-03-08,1,,,,,ワイエムエッチエム,0
1094,4180003026450,新規,0,2024-03-08,2024-03-08,合同会社ＳＡＫＡＴＡ,,合同会社,愛知県,瀬戸市,八幡台７丁目１０１番地,,23,204,4890861,,,,,,,2024-03-08,1,,,,,サカタ,0
1099,4190005011912,新規,0,2024-03-08,2024-03-08,農事組合法人伊賀ファーム,,その他の設立登記法人,三重県,名張市,鴻之台２番町１２６番地,,24,208,5180702,,,,,,,2024-03-08,1,,,,,イガファーム,0
1103,4200001042232,新規,0,2024-03-08,2024-03-08,株式会社ＡＳ企画,,株式会社,岐阜県,可児市,久々利柿下入会３番地５２３,,21,214,5090234,,,,,,,2024-03-08,1,,,,,アスキカク,0
1110,4240001062904,新規,0,2024-03-08,2024-03-08,株式会社ムロタ,,株式会社,広島県,広島市安佐南区,祇園２丁目１４番５号,,34,105,7310138,,,,,,,2024-03-08,1,,,,,ムロタ,0
1113,4240005015718,新規,0,2024-03-08,2024-03-08,一般財団法人神原・ツネイシ文化財団,,その他の設立登記法人,広島県,福山市,沼隈町大字常石１０８３番地,,34,207,7200313,,,,,,,2024-03-08,1,,,,,カンバラツネイシブンカザイダン,0
1114,4250001020547,新規,0,2024-03-08,2024-03-08,株式会社坂田クレーン,,株式会社,山口県,長門市,三隅中１６９８番地１８,,35,211,7593802,,,,,,,2024-03-08,1,,,,,サカタクレーン,0
1120,4260003004605,新規,0,2024-03-08,2024-03-08,ＥＹ合同会社,,合同会社,岡山県,浅口市,寄島町６６６０－２,,33,216,7140101,,,,,,,2024-03-08,1,,,,,イーワイ,0
1121,4270001008929,新規,0,2024-03-08,2024-03-08,Ｈ・Ｓ・Ｃ株式会社,,株式会社,鳥取県,鳥取市,南隈２４７番地,,31,201,6800903,,,,,,,2024-03-08,1,,,,,エイチエスシー,0
1124,4290001104973,新規,0,2024-03-08,2024-03-08,株式会社Ｂｅｃｃｌｅ,,株式会社,福岡県,福岡市中央区,平尾４丁目１８－３５－３０６,,40,133,8100014,,,,,,,2024-03-08,1,,,,,ベックル,0
1125,4290001104998,新規,0,2024-03-08,2024-03-08,株式会社ｓｈｉｒｏｋａ,,株式会社,福岡県,福岡市博多区,住吉２丁目１７番２５号ダイナコートグランデュール博多５０１号室,,40,132,8120018,,,,,,,2024-03-08,1,,,,,シロカ,0
1128,4290005019301,新規,0,2024-03-08,2024-03-08,一般社団法人西日本オペラ協会コンセル・ピエール,,その他の設立登記法人,福岡県,太宰府市,石坂２丁目８番２１号,,40,221,8180118,,,,,,,2024-03-08,1,,,,,ニシニホンオペラキョウカイコンセルピエール,0
1131,4320002002347,新規,0,2024-03-08,2024-03-08,有限会社工藤工業,,有限会社,大分県,大分市,末広町１丁目６番３３号三和コーポＮｏ．１８末広２０１,,44,201,8700027,,,,,,,2024-03-08,1,,,,,,0
1133,4340003004398,新規,0,2024-03-08,2024-03-08,合同会社ハレノヒ,,合同会社,鹿児島県,鹿児島市,東谷山７丁目１６番１号,,46,201,8910113,,,,,,,2024-03-08,1,,,,,ハレノヒ,0
1144,4380001034344,新規,0,2024-03-08,2024-03-08,株式会社ＮＴホールディングス,,株式会社,福島県,白河市,向新蔵１１１番地,,07,205,9610925,,,,,,,2024-03-08,1,,,,,エヌティーホールディングス,0
1151,4430001091215,新規,0,2024-03-08,2024-03-08,株式会社礎,,株式会社,北海道,札幌市中央区,北五条西１１丁目１４番地,,01,101,0600005,,,,,,,2024-03-08,1,,,,,イシズエ,0
1159,4500005008686,新規,0,2024-03-08,2024-03-08,特定非営利活動法人愛Ｃａｔ,,その他の設立登記法人,愛媛県,松山市,室町２丁目６番１８号,,38,201,7900026,,,,,,,2024-03-08,1,,,,,アイキャット,0
1161,4700150124350,新規,0,2024-03-08,2024-03-08,ＡＩ－ＰＲＯＭＡＸ　ＥＮＴＥＲＰＲＩＳＥ　ＣＯ．，ＬＴＤ．,,外国会社等,東京都,中央区,銀座７丁目１７－１８ジュエル銀座４０５号室,,13,102,1040061,１２Ｆｌ．，ＮＯ．１００，Ｓｅｃ．２，Ｃｈｕｎｇ　Ｈｓｉａｏ　Ｅａｓｔ　Ｒｏａｄ，Ｔａｉｐｅｉ，Ｔａｉｗａｎ，Ｒ．Ｏ．Ｃ．,,,,,,2024-03-08,1,,,,,エーアイプロマツクスエンタープライズ,0
1166,5010001242874,新規,0,2024-03-08,2024-03-08,ａｎｄ　ｏｎｅ　Ｉｎｃ．株式会社,,株式会社,東京都,中央区,京橋２丁目７番８号,,13,102,1040031,,,,,,,2024-03-08,1,,,,,アンドワン,0
1167,5010001242899,新規,0,2024-03-08,2024-03-08,株式会社Ｍ‐ｓｅｎｃｅ,,株式会社,東京都,中央区,銀座７丁目１３番２０号銀座ＴＨビル９階,,13,102,1040061,,,,,,,2024-03-08,1,,,,,エムセンス,0
1171,5010003043131,新規,0,2024-03-08,2024-03-08,合同会社山代,,合同会社,東京都,千代田区,丸の内２丁目２番２号,,13,101,1000005,,,,,,,2024-03-08,1,,,,,ヤマシロ,0
1176,5010401180880,新規,0,2024-03-08,2024-03-08,株式会社Ｓａｍｕｒａｉ　Ｇｒｏｕｐ,,株式会社,東京都,港区,赤坂３丁目１０番１２－１３０６号,,13,103,1070052,,,,,,,2024-03-08,1,,,,,サムライグループ,0
1177,5010401180930,新規,0,2024-03-08,2024-03-08,株式会社ジニアス２,,株式会社,東京都,港区,南麻布３丁目９－２５,,13,103,1060047,,,,,,,2024-03-08,1,,,,,ジニアスツー,0
1180,5010403032130,新規,0,2024-03-08,2024-03-08,合同会社ＳＳＩ００１,,合同会社,東京都,港区,元赤坂１丁目１番８号株式会社赤坂国際会計内,,13,103,1070051,,,,,,,2024-03-08,1,,,,,エスエスアイゼロゼロイチ,0
1181,5010403032139,新規,0,2024-03-08,2024-03-08,合同会社ダンテ,,合同会社,東京都,港区,虎ノ門５丁目１番４号,,13,103,1050001,,,,,,,2024-03-08,1,,,,,ダンテ,0
1185,5010501051890,新規,0,2024-03-08,2024-03-08,株式会社ＤＲＥＳＳ,,株式会社,東京都,台東区,上野４丁目４番４号日清堂ビル,,13,106,1100005,,,,,,,2024-03-08,1,,,,,ドレス,0
1196,5010901054832,新規,0,2024-03-08,2024-03-08,株式会社ＴＮＢ,,株式会社,東京都,世田谷区,下馬６丁目３２番１８号,,13,112,1540002,,,,,,,2024-03-08,1,,,,,ティーエヌビー,0
1217,5011401025910,新規,0,2024-03-08,2024-03-08,株式会社ＴＥＡＭ２５４,,株式会社,東京都,板橋区,常盤台１丁目４０番９－３０３号,,13,119,1740071,,,,,,,2024-03-08,1,,,,,チームニゴヨン,0
1222,5011501030414,新規,0,2024-03-08,2024-03-08,株式会社ｃｌｅａｎｕｐ．,,株式会社,東京都,荒川区,南千住４丁目７番３－２８０９号,,13,118,1160003,,,,,,,2024-03-08,1,,,,,クリーンアップ,0
1223,5011501030422,新規,0,2024-03-08,2024-03-08,株式会社Ｌ＆Ｙ,,株式会社,東京都,荒川区,東日暮里６丁目１番１－１２０４号,,13,118,1160014,,,,,,,2024-03-08,1,,,,,エルアンドワイ,0
1240,5020001156140,新規,0,2024-03-08,2024-03-08,株式会社ＮＡリーディング,,株式会社,神奈川県,横浜市泉区,新橋町１２９０番地１,,14,116,2450009,,,,,,,2024-03-08,1,,,,,エヌエーリーディング,0
1241,5020001156157,新規,0,2024-03-08,2024-03-08,株式会社エムコレット,,株式会社,神奈川県,横浜市栄区,笠間１丁目１番１－６０２号,,14,115,2470006,,,,,,,2024-03-08,1,,,,,エムコレット,0
1246,5020003025707,新規,0,2024-03-08,2024-03-08,土居システムラボ合同会社,,合同会社,神奈川県,横浜市西区,北幸２丁目１０番４８号むつみビル３階,,14,103,2200004,,,,,,,2024-03-08,1,,,,,ドイシステムラボ,0
1251,5021001081675,新規,0,2024-03-08,2024-03-08,エスエス工業株式会社,,株式会社,神奈川県,三浦郡葉山町,上山口１８７８－６,,14,301,2400115,,,,,,,2024-03-08,1,,,,,エスエスコウギョウ,0
1258,5030001159010,新規,0,2024-03-08,2024-03-08,株式会社タグス,,株式会社,埼玉県,東松山市,小松原町１０番地１１,,11,212,3550013,,,,,,,2024-03-08,1,,,,,タグス,0
1262,5030003023775,新規,0,2024-03-08,2024-03-08,合同会社パヴォーネ,,合同会社,埼玉県,狭山市,大字水野４５３番地の１ヒルグランデ４０１,,11,215,3501317,,,,,,,2024-03-08,1,,,,,パヴォーネ,0
1265,5030005021570,新規,0,2024-03-08,2024-03-08,医療法人拓心会,,その他の設立登記法人,埼玉県,川口市,栄町３丁目１０番１８号第２リーヴァビル１階,,11,203,3320017,,,,,,,2024-03-08,1,,,,,タクシンカイ,0
1268,5040001132569,新規,0,2024-03-08,2024-03-08,株式会社Ｋコーポレーション,,株式会社,千葉県,浦安市,東野２丁目２０－３,,12,227,2790042,,,,,,,2024-03-08,1,,,,,ケーコーポレーション,0
1269,5040003024467,新規,0,2024-03-08,2024-03-08,合同会社こがねもち,,合同会社,千葉県,千葉市稲毛区,長沼町２３９番地２２,,12,103,2630005,,,,,,,2024-03-08,1,,,,,コガネモチ,0
1281,5060001036891,新規,0,2024-03-08,2024-03-08,株式会社ＮａｓｕＡＩ,,株式会社,栃木県,那須塩原市,北弥六２７番地１,,09,213,3293132,,,,,,,2024-03-08,1,,,,,ナスエーアイ,0
1282,5060001036900,新規,0,2024-03-08,2024-03-08,株式会社高橋不動産鑑定所,,株式会社,栃木県,宇都宮市,桜５丁目４番２４号,,09,201,3200043,,,,,,,2024-03-08,1,,,,,タカハシフドウサンカンテイショ,0
1289,5080401027043,新規,0,2024-03-08,2024-03-08,オークデザインハウス株式会社,,株式会社,静岡県,浜松市中央区,安間町２５７番地の１,,22,138,4350012,,,,,,,2024-03-08,1,,,,,オークデザインハウス,0
1297,5110001038230,新規,0,2024-03-08,2024-03-08,株式会社ゆうきアソシエイト,,株式会社,新潟県,新潟市中央区,鳥屋野４５３番地２１,,15,103,9500951,,,,,,,2024-03-08,1,,,,,ユウキアソシエイト,0
1305,5120001262787,新規,0,2024-03-08,2024-03-08,果彌株式会社,,株式会社,大阪府,大阪市中央区,南船場２丁目１１番９号,,27,128,5420081,,,,,,,2024-03-08,1,,,,,カヤ,0
1306,5120001262853,新規,0,2024-03-08,2024-03-08,株式会社Ｃｒｉｓｔａ,,株式会社,大阪府,大阪市中央区,南船場３丁目２番２８号ＮＩＰＰＯタイヨービル４Ｆ１号室,,27,128,5420081,,,,,,,2024-03-08,1,,,,,クリスタ,0
1307,5120001262861,新規,0,2024-03-08,2024-03-08,株式会社オネスト,,株式会社,大阪府,大阪市城東区,中央２丁目１０番１０号ハイムジュネス１０１,,27,118,5360005,,,,,,,2024-03-08,1,,,,,オネスト,0
1308,5120001262903,新規,0,2024-03-08,2024-03-08,米多株式会社,,株式会社,大阪府,大阪市東成区,深江北３丁目４番２１号エクラ深江橋２１５Ｃ,,27,115,5370001,,,,,,,2024-03-08,1,,,,,ベイタ,0
1309,5120001262936,新規,0,2024-03-08,2024-03-08,本智株式会社,,株式会社,大阪府,大阪市西淀川区,野里１丁目３１－７ダイアパレス塚本２番館１０６,,27,113,5550024,,,,,,,2024-03-08,1,,,,,ホンチ,0
1310,5120001262969,新規,0,2024-03-08,2024-03-08,シズカホールディングス株式会社,,株式会社,大阪府,大阪市淀川区,西中島４丁目１３番２４号花原第３ビル３０１号室,,27,123,5320011,,,,,,,2024-03-08,1,,,,,シズカホールディングス,0
1311,5120001262993,新規,0,2024-03-08,2024-03-08,万仁株式会社,,株式会社,大阪府,大阪市中央区,備後町１丁目２番１４－１１０２号,,27,128,5410051,,,,,,,2024-03-08,1,,,,,マンニン,0
1312,5120001263026,新規,0,2024-03-08,2024-03-08,株式会社アルミラ,,株式会社,大阪府,大阪市北区,鶴野町四丁目１１番朝日プラザ梅田２Ｆ－５４－２５１号室,,27,127,5300014,,,,,,,2024-03-08,1,,,,,アルミラ,0
1313,5120001263034,新規,0,2024-03-08,2024-03-08,かわいいペット株式会社,,株式会社,大阪府,大阪市天王寺区,悲田院町９－１７阪和ビル４０３号室,,27,109,5430055,,,,,,,2024-03-08,1,,,,,カワイイペット,0
1317,5120003026117,新規,0,2024-03-08,2024-03-08,Ｋ．Ｙ．Ｋ合同会社,,合同会社,大阪府,大阪市北区,梅田１丁目２番２号大阪駅前第２ビル１２－１２,,27,127,5300001,,,,,,,2024-03-08,1,,,,,ケイワイケイ,0
1319,5120101069190,新規,0,2024-03-08,2024-03-08,沐程株式会社,,株式会社,大阪府,泉大津市,なぎさ町２番ファミールハイツ泉大津６番館１４０７,,27,206,5950055,,,,,,,2024-03-08,1,,,,,モクノリ,0
1329,5130001076468,新規,0,2024-03-08,2024-03-08,株式会社初の果,,株式会社,京都府,長岡京市,久貝３丁目１番５号２０３,,26,209,6170837,,,,,,,2024-03-08,1,,,,,ハツノカ,0
1330,5130001076526,新規,0,2024-03-08,2024-03-08,株式会社秋岡,,株式会社,京都府,京都市東山区,本町新５丁目１６５番地１,,26,105,6050989,,,,,,,2024-03-08,1,,,,,アキオカ,0
1331,5130003009368,新規,0,2024-03-08,2024-03-08,合同会社トップ,,合同会社,京都府,京都市伏見区,深草下川原町５２番地８－２階,,26,109,6128401,,,,,,,2024-03-08,1,,,,,トップ,0
1335,5140001133549,新規,0,2024-03-08,2024-03-08,泰＿金属株式会社,00134001,株式会社,兵庫県,揖保郡太子町,阿曽４４３番地,,28,464,6711557,,,,,,,2024-03-08,1,,,,,タイシンキンゾク,0
1336,5140001133607,新規,0,2024-03-08,2024-03-08,株式会社蒼翔,,株式会社,兵庫県,相生市,若狭野町上松８１－２,,28,208,6780081,,,,,,,2024-03-08,1,,,,,アオト,0
1341,5170001018037,新規,0,2024-03-08,2024-03-08,株式会社花えみ,,株式会社,和歌山県,和歌山市,狐島３５６番地１,,30,201,6408412,,,,,,,2024-03-08,1,,,,,ハナエミ,0
1342,5180001160440,新規,0,2024-03-08,2024-03-08,株式会社ＢＲＯＴＨＥＲＳ．ＢＡＳＥ,,株式会社,愛知県,東海市,荒尾町水深４０番地５,,23,222,4760004,,,,,,,2024-03-08,1,,,,,ブラザーズベース,0
1343,5180003026474,新規,0,2024-03-08,2024-03-08,ＮＮＫブロック合同会社,,合同会社,愛知県,春日井市,東野町５丁目１５番地１８,,23,206,4860817,,,,,,,2024-03-08,1,,,,,エヌエヌケイブロック,0
1344,5180301038403,新規,0,2024-03-08,2024-03-08,株式会社ＭＩＮＡＭＩオフィス,,株式会社,愛知県,安城市,南町１１番１８号,,23,212,4460034,,,,,,,2024-03-08,1,,,,,ミナミオフィス,0
1350,5200001042231,新規,0,2024-03-08,2024-03-08,株式会社ファクトリーサービスサポート,,株式会社,岐阜県,羽島市,舟橋町６３６番地１２,,21,209,5016302,,,,,,,2024-03-08,1,,,,,ファクトリーサービスサポート,0
1351,5210003001762,新規,0,2024-03-08,2024-03-08,三里浜オリーブ合同会社,,合同会社,福井県,福井市,白方町１１字２０番１,,18,201,9103131,,,,,,,2024-03-08,1,,,,,サンリハマオリーブ,0
1352,5220003003691,新規,0,2024-03-08,2024-03-08,ＳＴ‐Ｇｒｏｕｐ合同会社,,合同会社,石川県,金沢市,押野３丁目６０４番地２０３号,,17,201,9218056,,,,,,,2024-03-08,1,,,,,エスティグループ,0
1357,5240003006560,新規,0,2024-03-08,2024-03-08,合同会社西田,,合同会社,広島県,広島市南区,翠５丁目１４番８号,,34,103,7340005,,,,,,,2024-03-08,1,,,,,ニシダ,0
1360,5260001038810,新規,0,2024-03-08,2024-03-08,株式会社ＹＭＧアシスト,,株式会社,岡山県,岡山市南区,古新田２４０番地２,,33,104,7010203,,,,,,,2024-03-08,1,,,,,ワイエムジーアシスト,0
1361,5260001038819,新規,0,2024-03-08,2024-03-08,株式会社児島金属,,株式会社,岡山県,倉敷市,林５６６番地２,,33,202,7100142,,,,,,,2024-03-08,1,,,,,コジマキンゾク,0
1365,5290001105005,新規,0,2024-03-08,2024-03-08,ＴＨＥ　ＢＯＳＡＩ株式会社,,株式会社,福岡県,福岡市中央区,白金１丁目２１番１６号２Ｆ,,40,133,8100012,,,,,,,2024-03-08,1,,,,,ザボーサイ,0
1376,5330001031832,新規,0,2024-03-08,2024-03-08,Ｐａｕｌ　Ａｒｔ株式会社,,株式会社,熊本県,合志市,幾久富１８３３番４９,,43,216,8611112,,,,,,,2024-03-08,1,,,,,ポールアート,0
1379,5330003010256,新規,0,2024-03-08,2024-03-08,合同会社Ｊｏｉｎ　ＦｏｒｃＥＳ,,合同会社,熊本県,熊本市東区,長嶺東１丁目５－２７,,43,102,8618038,,,,,,,2024-03-08,1,,,,,ジョインフォーシーズ,0
1383,5340003004397,新規,0,2024-03-08,2024-03-08,合同会社ＣＰ,,合同会社,鹿児島県,曽於市,財部町南俣４５７番地１,,46,217,8994101,,,,,,,2024-03-08,1,,,,,シーピー,0
1384,5350003004586,新規,0,2024-03-08,2024-03-08,農業生産法人ＵＴＡＭＡ合同会社,,合同会社,宮崎県,都城市,安久町５９５１番地１６,,45,202,8850044,,,,,,,2024-03-08,1,,,,,ノウギョウセイサンホウジンウタマ,0
1388,5360003013768,新規,0,2024-03-08,2024-03-08,ＴＡＫＡＺＡＴＯ合同会社,,合同会社,沖縄県,島尻郡久米島町,字儀間１９７番地,,47,361,9013115,,,,,,,2024-03-08,1,,,,,タカザト,0
1389,5360003013776,新規,0,2024-03-08,2024-03-08,合同会社チギラオートワークス,,合同会社,沖縄県,石垣市,字川平１０３３－７１,,47,207,9070453,,,,,,,2024-03-08,1,,,,,チギラオートワークス,0
1402,5430001091214,新規,0,2024-03-08,2024-03-08,株式会社むかい農園,,株式会社,北海道,樺戸郡浦臼町,字ウラウシナイ１７９番地の２６７,,01,431,0610600,,,,,,,2024-03-08,1,,,,,ムカイノウエン,0
1403,5430001091230,新規,0,2024-03-08,2024-03-08,株式会社ＫＴプランニング,,株式会社,北海道,札幌市豊平区,平岸六条１６丁目２番５５－９０７号,,01,105,0620936,,,,,,,2024-03-08,1,,,,,ケーティープランニング,0
1404,5430001091255,新規,0,2024-03-08,2024-03-08,株式会社シンパティカ,,株式会社,北海道,札幌市豊平区,豊平四条９丁目２番１２－７０６号,,01,105,0620904,,,,,,,2024-03-08,1,,,,,シンパティカ,0
1410,5500005008685,新規,0,2024-03-08,2024-03-08,一般社団法人くろーばー,,その他の設立登記法人,愛媛県,今治市,常磐町八丁目４番地２４号,,38,202,7940000,,,,,,,2024-03-08,1,,,,,クローバー,0
1418,6010001242873,新規,0,2024-03-08,2024-03-08,株式会社ｋａｎｋａｎトラベル,,株式会社,東京都,千代田区,九段南４丁目６番１４号,,13,101,1020074,,,,,,,2024-03-08,1,,,,,カンカントラベル,0
1429,6010405023028,新規,0,2024-03-08,2024-03-08,医療法人社団桜柊会,,その他の設立登記法人,東京都,港区,白金台３丁目８番３号,,13,103,1080071,,,,,,,2024-03-08,1,,,,,オウシュウカイ,0
1432,6010601064775,新規,0,2024-03-08,2024-03-08,きっかけ株式会社,,株式会社,東京都,江東区,有明３丁目７－１１有明パークビル２０Ｆ,,13,108,1350063,,,,,,,2024-03-08,1,,,,,キッカケ,0
1449,6011001160504,新規,0,2024-03-08,2024-03-08,ＭＧａｔｅ株式会社,,株式会社,東京都,渋谷区,神宮前６丁目２３番４号桑野ビル２階,,13,113,1500001,,,,,,,2024-03-08,1,,,,,エムゲート,0
1453,6011003018634,新規,0,2024-03-08,2024-03-08,ＳＥＮＴウェルネス合同会社,,合同会社,東京都,渋谷区,道玄坂１丁目１６－６二葉ビル８ｂ,,13,113,1500043,,,,,,,2024-03-08,1,,,,,セントウェルネス,0
1459,6011101106464,新規,0,2024-03-08,2024-03-08,ＳＨＷＥ　ＭＯＥ株式会社,,株式会社,東京都,新宿区,高田馬場２丁目１９番７号,,13,104,1690075,,,,,,,2024-03-08,1,,,,,シェーモー,0
1460,6011201025291,新規,0,2024-03-08,2024-03-08,株式会社ＢＪ,,株式会社,東京都,中野区,中野３丁目３７番７号,,13,114,1640001,,,,,,,2024-03-08,1,,,,,ビージェイ,0
1461,6011501030413,新規,0,2024-03-08,2024-03-08,ＳＲＴ　Ｉｎｄｕｓｔｒｙ　Ｊａｐａｎ株式会社,,株式会社,東京都,荒川区,南千住３丁目２７－２浅草ビル,,13,118,1160003,,,,,,,2024-03-08,1,,,,,エスアールティーインダストリジャパン,0
1462,6011503005982,新規,0,2024-03-08,2024-03-08,合同会社アイズ,,合同会社,東京都,北区,中十条１丁目２７－１４－２０１,,13,117,1140032,,,,,,,2024-03-08,1,,,,,アイズ,0
1466,6011701027102,新規,0,2024-03-08,2024-03-08,株式会社ＳＯＩＬＹ,,株式会社,東京都,江戸川区,南小岩６丁目１８番８号,,13,123,1330056,,,,,,,2024-03-08,1,,,,,ソイリー,0
1480,6020001156156,新規,0,2024-03-08,2024-03-08,株式会社エルプライズ,,株式会社,神奈川県,川崎市中原区,木月大町３番２８号,,14,133,2110031,,,,,,,2024-03-08,1,,,,,エルプライズ,0
1485,6020003025631,新規,0,2024-03-08,2024-03-08,ＬＩＶＥＭＡＸ合同会社,,合同会社,神奈川県,横浜市鶴見区,馬場２丁目２５番１０号,,14,101,2300076,,,,,,,2024-03-08,1,,,,,ライブマックス,0
1486,6020003025689,新規,0,2024-03-08,2024-03-08,合同会社ＯＧ,,合同会社,神奈川県,川崎市川崎区,大島４丁目１４番１０－２０５号リブリ・ハナノミ,,14,131,2100834,,,,,,,2024-03-08,1,,,,,オージー,0
1497,6030001159083,新規,0,2024-03-08,2024-03-08,株式会社ＯＺＺＹ,,株式会社,埼玉県,ふじみ野市,うれし野２丁目１番６号,,11,245,3560056,,,,,,,2024-03-08,1,,,,,オジー,0
1498,6030001159125,新規,0,2024-03-08,2024-03-08,株式会社バドアス,,株式会社,埼玉県,草加市,北谷２丁目２７番３３－３号,,11,221,3400046,,,,,,,2024-03-08,1,,,,,バドアス,0
1499,6030001159133,新規,0,2024-03-08,2024-03-08,株式会社孝福堂,,株式会社,埼玉県,飯能市,茜台１丁目１番地１０,,11,209,3570069,,,,,,,2024-03-08,1,,,,,コウフクドウ,0
1500,6030001159166,新規,0,2024-03-08,2024-03-08,株式会社ＲＡＮＧ,,株式会社,埼玉県,蕨市,北町１丁目８番３－１１１号,,11,223,3350001,,,,,,,2024-03-08,1,,,,,ラン,0
1507,6040001132551,新規,0,2024-03-08,2024-03-08,株式会社晴れやか,,株式会社,千葉県,香取市,市和田８８９番地,,12,236,2870804,,,,,,,2024-03-08,1,,,,,ハレヤカ,0
1513,6040003024482,新規,0,2024-03-08,2024-03-08,星輝合同会社,,合同会社,千葉県,船橋市,緑台１丁目４番９棟５０４号,,12,204,2740818,,,,,,,2024-03-08,1,,,,,ホウキ,0
1514,6040003024490,新規,0,2024-03-08,2024-03-08,合同会社エメス,,合同会社,千葉県,市川市,香取２丁目１２番１号,,12,203,2720141,,,,,,,2024-03-08,1,,,,,エメス,0
1515,6040003024499,新規,0,2024-03-08,2024-03-08,Ｗｅｌｌｎｅｓｓ　Ｊｏｕｒｎｅｙ　Ｊａｐａｎ合同会社,,合同会社,千葉県,浦安市,北栄２丁目２２番３２号,,12,227,2790002,,,,,,,2024-03-08,1,,,,,ウェルネスジャーニージャパン,0
1516,6040003024516,新規,0,2024-03-08,2024-03-08,合同会社ＤＴ,,合同会社,千葉県,柏市,柏６丁目５番３５－３－１０３号,,12,217,2770005,,,,,,,2024-03-08,1,,,,,ディーティー,0
1520,6050001054415,新規,0,2024-03-08,2024-03-08,貴照命堂株式会社,,株式会社,茨城県,鹿嶋市,緑ヶ丘３丁目２番地５,,08,222,3140039,,,,,,,2024-03-08,1,,,,,タカテルメイドウ,0
1521,6050001054423,新規,0,2024-03-08,2024-03-08,株式会社Ｋｕｒｏｂｕｓｈｉ,,株式会社,茨城県,水戸市,五軒町３丁目２番４０－４０１号セ・デオール五軒町,,08,201,3100063,,,,,,,2024-03-08,1,,,,,クロブシ,0
1524,6060003004953,新規,0,2024-03-08,2024-03-08,合同会社かなで,,合同会社,栃木県,宇都宮市,南大通り３丁目２番１３号,,09,201,3210963,,,,,,,2024-03-08,1,,,,,カナデ,0
1542,6120001262869,新規,0,2024-03-08,2024-03-08,株式会社ＷＶ,,株式会社,大阪府,大阪市淀川区,西中島６丁目６－６ＮＬＣ新大阪１１号館４０１号,,27,123,5320011,,,,,,,2024-03-08,1,,,,,ダブリュブイ,0
1543,6120001262902,新規,0,2024-03-08,2024-03-08,Ｑ＆Ｋ株式会社,,株式会社,大阪府,大阪市都島区,中野町４丁目３番６号Ｈ２Ｈ大阪桜之宮邸３Ｅ－４,,27,102,5340027,,,,,,,2024-03-08,1,,,,,キュゥーアンドケイ,0
1544,6120001262935,新規,0,2024-03-08,2024-03-08,株式会社ＴＧマネジメント,,株式会社,大阪府,大阪市中央区,日本橋１丁目１４番１３号,,27,128,5420073,,,,,,,2024-03-08,1,,,,,ティージーマネジメント,0
1545,6120001262968,新規,0,2024-03-08,2024-03-08,大星不動産株式会社,,株式会社,大阪府,大阪市中央区,本町４丁目５番１５号,,27,128,5410053,,,,,,,2024-03-08,1,,,,,タイセイフドウサン,0
1546,6120001262976,新規,0,2024-03-08,2024-03-08,株式会社Ｈｉｂａｒｏｎ,,株式会社,大阪府,大阪市西成区,梅南３丁目７番３０号,,27,122,5570033,,,,,,,2024-03-08,1,,,,,ヒバロン,0
1547,6120001262984,新規,0,2024-03-08,2024-03-08,株式会社セノパクス,,株式会社,大阪府,大阪市東成区,神路１丁目５番１号今井商事２７ビル３０４号,,27,115,5370003,,,,,,,2024-03-08,1,,,,,セノパクス,0
1548,6120001262992,新規,0,2024-03-08,2024-03-08,株式会社Ｄｅｌｉｖｅｒｙ　Ｍｏｌｅ,,株式会社,大阪府,大阪市大正区,三軒家東１丁目２番４号ダイトビル３０２,,27,108,5510002,,,,,,,2024-03-08,1,,,,,デリバリーモール,0
1549,6120001263017,新規,0,2024-03-08,2024-03-08,株式会社アクスト,,株式会社,大阪府,枚方市,田口１丁目３８番７－２１号,,27,210,5731162,,,,,,,2024-03-08,1,,,,,アクスト,0
1550,6120001263041,新規,0,2024-03-08,2024-03-08,株式会社さびねこ屋,,株式会社,大阪府,大阪市中央区,島町２丁目４番,,27,128,5400034,,,,,,,2024-03-08,1,,,,,サビネコヤ,0
1555,6122003002815,新規,0,2024-03-08,2024-03-08,合同会社ＬｕｄｙＷｏｒｋｓ,,合同会社,大阪府,東大阪市,吉松１丁目４－２１,,27,227,5770821,,,,,,,2024-03-08,1,,,,,ルーディワークス,0
1556,6122003002823,新規,0,2024-03-08,2024-03-08,はればれ合同会社,,合同会社,大阪府,八尾市,高安町北６丁目１６４番地,,27,212,5810871,,,,,,,2024-03-08,1,,,,,ハレバレ,0
1559,6130001076541,新規,0,2024-03-08,2024-03-08,株式会社ＰＡＭ,,株式会社,京都府,亀岡市,篠町夕日ケ丘１丁目４番１２号,,26,206,6210829,,,,,,,2024-03-08,1,,,,,パム,0
1564,6150001027121,新規,0,2024-03-08,2024-03-08,株式会社Ｓｗｉｎｇ,,株式会社,奈良県,吉野郡吉野町,大字御園３６７番地,,29,441,6393444,,,,,,,2024-03-08,1,,,,,スウィング,0
1567,6160001025735,新規,0,2024-03-08,2024-03-08,ＯｎｅＷａｖｅ株式会社,,株式会社,滋賀県,甲賀市,甲南町野田４５１番地,,25,209,5203308,,,,,,,2024-03-08,1,,,,,ワンウェーブ,0
1569,6170001018036,新規,0,2024-03-08,2024-03-08,田中衛生株式会社,,株式会社,和歌山県,橋本市,高野口町名古曽４９７番地の８,,30,203,6497203,,,,,,,2024-03-08,1,,,,,タナカエイセイ,0
1571,6170002012005,新規,0,2024-03-08,2024-03-08,有限会社巴商会,,有限会社,和歌山県,新宮市,元鍛治町１丁目５番地の３,,30,207,6470005,,,,,,,2024-03-08,1,,,,,トモエショウカイ,0
1576,6180001160472,新規,0,2024-03-08,2024-03-08,ローカル・スポーツイノベーション株式会社,,株式会社,愛知県,名古屋市中村区,名駅４丁目２４番５号第２森ビル４０１,,23,105,4500002,,,,,,,2024-03-08,1,,,,,ローカルスポーツイノベーション,0
1581,6180301038402,新規,0,2024-03-08,2024-03-08,Ａ．Ｈ．Ｆ．株式会社,,株式会社,愛知県,蒲郡市,三谷北通１丁目１２１番地１,,23,214,4430022,,,,,,,2024-03-08,1,,,,,エーエッチエフ,0
1582,6190001031160,新規,0,2024-03-08,2024-03-08,株式会社みえまち,,株式会社,三重県,四日市市,芝田１丁目２番４４号,,24,202,5100822,,,,,,,2024-03-08,1,,,,,ミエマチ,0
1592,6240001062902,新規,0,2024-03-08,2024-03-08,ＡＳＴ株式会社,,株式会社,広島県,江田島市,大柿町飛渡瀬２１６７番地,,34,215,7372101,,,,,,,2024-03-08,1,,,,,エーエスティー,0
1594,6260001038801,新規,0,2024-03-08,2024-03-08,株式会社アコール,,株式会社,岡山県,浅口市,鴨方町六条院中字西濁田３９４８番地１,,33,216,7190252,,,,,,,2024-03-08,1,,,,,アコール,0
1603,6290001104988,新規,0,2024-03-08,2024-03-08,Ｓｍａｒｔ　Ｌｉｆｅ株式会社,,株式会社,福岡県,福岡市城南区,七隈１丁目５番１８号,,40,136,8140133,,,,,,,2024-03-08,1,,,,,スマートライフ,0
1612,6310003004746,新規,0,2024-03-08,2024-03-08,長崎未来研究所合同会社,,合同会社,長崎県,長崎市,伊良林３丁目１番１２号,,42,201,8500802,,,,,,,2024-03-08,1,,,,,ナガサキミライケンキュウジョ,0
1615,6320005010139,新規,0,2024-03-08,2024-03-08,特定非営利活動法人Ｏｉｔａ　Ｓｏｃｉａｌ　Ｉｎｎｏｖａｔｉｏｎ　Ｌａｂｏｒａｔｏｒｙ,,その他の設立登記法人,大分県,大分市,金池南１丁目５番１号コレジオ大分,,44,201,8700839,,,,,,,2024-03-08,1,,,,,オオイタソーシャルイノベーションラボラトリ,0
1617,6330001031831,新規,0,2024-03-08,2024-03-08,株式会社ＡＺ‐ｏｎｅ,,株式会社,熊本県,熊本市西区,春日８丁目９番７号,,43,103,8600047,,,,,,,2024-03-08,1,,,,,アズワン,0
1624,6340003004388,新規,0,2024-03-08,2024-03-08,合同会社伊藤,,合同会社,鹿児島県,大島郡天城町,大字平土野３９番地６,,46,531,8917612,,,,,,,2024-03-08,1,,,,,イトウ,0
1631,6370001051000,新規,0,2024-03-08,2024-03-08,株式会社ハタヤマ組,,株式会社,宮城県,仙台市青葉区,西勝山５番６号ネオハイツ西勝山中央公園２０６,,04,101,9810953,,,,,,,2024-03-08,1,,,,,ハタヤマグミ,0
1639,6380003005705,新規,0,2024-03-08,2024-03-08,ＩＲＩＳ合同会社,,合同会社,福島県,白河市,中田１４０番地,,07,205,9610053,,,,,,,2024-03-08,1,,,,,アイリス,0
1644,6420001018621,新規,0,2024-03-08,2024-03-08,株式会社泰考,,株式会社,青森県,青森市,虹ケ丘１丁目５番地６,,02,201,0300948,,,,,,,2024-03-08,1,,,,,タイコウ,0
1646,6430001091254,新規,0,2024-03-08,2024-03-08,株式会社ＢＡＬＥＳ,,株式会社,北海道,札幌市中央区,北一条東２丁目５番１１号エバーハイツ３０６号室,,01,101,0600031,,,,,,,2024-03-08,1,,,,,バレス,0
1665,7010001242897,新規,0,2024-03-08,2024-03-08,エヌビービースタンモアリース株式会社,,株式会社,東京都,中央区,日本橋浜町３丁目３番２号,,13,102,1030007,,,,,,,2024-03-08,1,,,,,エヌビービースタンモアリース,0
1666,7010001242906,新規,0,2024-03-08,2024-03-08,インシュアデザイン株式会社,,株式会社,東京都,中央区,新川１丁目３番地２１号,,13,102,1040033,,,,,,,2024-03-08,1,,,,,インシュアデザイン,0
1676,7010401180895,新規,0,2024-03-08,2024-03-08,株式会社エヌコーポレーション,,株式会社,東京都,港区,港南２丁目１６番７号,,13,103,1080075,,,,,,,2024-03-08,1,,,,,エヌコーポレーション,0
1677,7010401180904,新規,0,2024-03-08,2024-03-08,株式会社Ｔｈｉｓ　Ｉｓ　Ｅａｒｔｈ,,株式会社,東京都,港区,南青山２丁目２番１５号ウィン青山９４２,,13,103,1070062,,,,,,,2024-03-08,1,,,,,ディスイズアース,0
1679,7010403032112,新規,0,2024-03-08,2024-03-08,合同会社メタメタ,,合同会社,東京都,港区,新橋４丁目１９番４－１３０４号,,13,103,1050004,,,,,,,2024-03-08,1,,,,,メタメタ,0
1680,7010403032129,新規,0,2024-03-08,2024-03-08,合同会社月島インベストメント,,合同会社,東京都,港区,新橋５丁目１２番１１号,,13,103,1050004,,,,,,,2024-03-08,1,,,,,ツキシマインベストメント,0
1682,7010405023035,新規,0,2024-03-08,2024-03-08,一般社団法人ＳＨ０７３,,その他の設立登記法人,東京都,港区,虎ノ門３丁目２２番１０－２０１号,,13,103,1050001,,,,,,,2024-03-08,1,,,,,エスエイチゼロセブンスリー,0
1685,7010605004297,新規,0,2024-03-08,2024-03-08,医療法人社団青仙会,,その他の設立登記法人,東京都,江東区,潮見２丁目７番１号潮見駅前プラザ二番街１階,,13,108,1350052,,,,,,,2024-03-08,1,,,,,セイセンカイ,0
1689,7010801034833,新規,0,2024-03-08,2024-03-08,株式会社Ｖａｌｈａｌｌａ,,株式会社,東京都,大田区,大森北１丁目１６番１２－１０１号,,13,111,1430016,,,,,,,2024-03-08,1,,,,,ヴァルハラ,0
1691,7010901054839,新規,0,2024-03-08,2024-03-08,株式会社ワインエキスプレス,,株式会社,東京都,世田谷区,深沢２丁目１番７号深沢ハウスＧ５０３,,13,112,1580081,,,,,,,2024-03-08,1,,,,,ワインエキスプレス,0
1693,7010905004583,新規,0,2024-03-08,2024-03-08,一般社団法人新極真会塚本道場,,その他の設立登記法人,東京都,世田谷区,野沢３丁目３０－６,,13,112,1540003,,,,,,,2024-03-08,1,,,,,シンキョクシンカイツカモトドウジョウ,0
1697,7011003018617,新規,0,2024-03-08,2024-03-08,アイフレンズ合同会社,,合同会社,東京都,目黒区,東山３丁目１５－１出光池尻ビル７階,,13,110,1530043,,,,,,,2024-03-08,1,,,,,アイフレンズ,0
1698,7011003018633,新規,0,2024-03-08,2024-03-08,合同会社ＰＩＸＥＬ　ＢＹ　ＰＩＸＥＬ,,合同会社,東京都,渋谷区,恵比寿西２丁目８－４ＥＸ恵比寿西ビル５階,,13,113,1500021,,,,,,,2024-03-08,1,,,,,ピクセルバイピクセル,0
1699,7011003018641,新規,0,2024-03-08,2024-03-08,ＬＵＭＩＦＬＯＲＥ合同会社,,合同会社,東京都,渋谷区,桜丘町２６番１号セルリアンタワー１５階,,13,113,1500031,,,,,,,2024-03-08,1,,,,,ルミフローレ,0
1700,7011005010407,新規,0,2024-03-08,2024-03-08,医療法人社団捲土重来会,,その他の設立登記法人,東京都,渋谷区,神南１丁目２０番１７号ＢＣ神南ＰＲＯＰＥＲＴＹ７階,,13,113,1500041,,,,,,,2024-03-08,1,,,,,ケンドチョウライカイ,0
1706,7011101106455,新規,0,2024-03-08,2024-03-08,株式会社エンタフォース,,株式会社,東京都,新宿区,新宿２丁目１３番１０号武蔵野ビル５階３２,,13,104,1600022,,,,,,,2024-03-08,1,,,,,エンタフォース,0
1707,7011101106463,新規,0,2024-03-08,2024-03-08,株式会社エフケリア,,株式会社,東京都,新宿区,新宿１丁目３６番２号新宿第七葉山ビル３Ｆ,,13,104,1600022,,,,,,,2024-03-08,1,,,,,エフケリア,0
1713,7011501030412,新規,0,2024-03-08,2024-03-08,日本糖烟貿易株式会社,,株式会社,東京都,荒川区,南千住３丁目２７－２浅草ビル,,13,118,1160003,,,,,,,2024-03-08,1,,,,,ジャパンシュガータバコトレード,0
1717,7011505002614,新規,0,2024-03-08,2024-03-08,医療法人社団エール,,その他の設立登記法人,東京都,北区,西ケ原１丁目２０番１６号クレストヒルズ駒込１階,,13,117,1140024,,,,,,,2024-03-08,1,,,,,エール,0
1721,7011703003769,新規,0,2024-03-08,2024-03-08,豊生合同会社,,合同会社,東京都,江戸川区,松江２丁目１－１３－２０５号室,,13,123,1320025,,,,,,,2024-03-08,1,,,,,ホウセイ,0
1742,7020001156147,新規,0,2024-03-08,2024-03-08,よこはまルナコンサルティング株式会社,,株式会社,神奈川県,横浜市港北区,篠原町１１５８番地６２,,14,109,2220026,,,,,,,2024-03-08,1,,,,,ヨコハマルナコンサルティング,0
1743,7020001156155,新規,0,2024-03-08,2024-03-08,東林商事株式会社,,株式会社,神奈川県,横浜市南区,中村町１丁目２５番地１２,,14,105,2320033,,,,,,,2024-03-08,1,,,,,トウリンショウジ,0
1744,7020001156163,新規,0,2024-03-08,2024-03-08,ＴＯＫＩメディカル株式会社,,株式会社,神奈川県,横浜市金沢区,大川７番１－７０５号,,14,108,2360043,,,,,,,2024-03-08,1,,,,,トキメディカル,0
1753,7021001081657,新規,0,2024-03-08,2024-03-08,株式会社ＤＰＳ,,株式会社,神奈川県,大和市,福田１８４３番地,,14,213,2420024,,,,,,,2024-03-08,1,,,,,ディーピーエス,0
1755,7021005013037,新規,0,2024-03-08,2024-03-08,特定非営利活動法人Ａｎｉｓｍａ,,その他の設立登記法人,神奈川県,三浦市,三崎５丁目１２番３号－３０２,,14,210,2380243,,,,,,,2024-03-08,1,,,,,アニスマ,0
1761,7030001159009,新規,0,2024-03-08,2024-03-08,信儀株式会社,,株式会社,埼玉県,所沢市,くすのき台３丁目１１番地の１,,11,208,3590037,,,,,,,2024-03-08,1,,,,,シンギ,0
1762,7030001159066,新規,0,2024-03-08,2024-03-08,株式会社ヒュートムＥＡＳＴ,,株式会社,埼玉県,東松山市,大字石橋２０２４番地１２,,11,212,3550072,,,,,,,2024-03-08,1,,,,,ヒュートムイースト,0
1763,7030001159099,新規,0,2024-03-08,2024-03-08,株式会社ＲＥＯ,,株式会社,埼玉県,新座市,東北２丁目３７番１０号,,11,230,3520001,,,,,,,2024-03-08,1,,,,,レオ,0
1764,7030001159124,新規,0,2024-03-08,2024-03-08,株式会社Ｂ．Ｊトランザ,,株式会社,埼玉県,越谷市,瓦曽根２丁目８番５３号ウェルフェアグリーン越谷７２０号,,11,222,3430821,,,,,,,2024-03-08,1,,,,,ビージェイトランザ,0
1765,7030001159132,新規,0,2024-03-08,2024-03-08,ｇｂｃ株式会社,,株式会社,埼玉県,熊谷市,佐谷田２５１８番地１,,11,202,3600023,,,,,,,2024-03-08,1,,,,,ジービーシー,0
1767,7030005021577,新規,0,2024-03-08,2024-03-08,松伏町環境事業協同組合,,その他の設立登記法人,埼玉県,北葛飾郡松伏町,大字築比地９４３番地の１,,11,465,3430102,,,,,,,2024-03-08,1,,,,,マツブシマチカンキョウジギョウ,0
1769,7040001132484,新規,0,2024-03-08,2024-03-08,株式会社リュウズ,,株式会社,千葉県,習志野市,谷津２丁目２０番１１号ボア・クレールＡ２０１,,12,216,2750026,,,,,,,2024-03-08,1,,,,,リュウズ,0
1770,7040001132542,新規,0,2024-03-08,2024-03-08,株式会社ＰＩＮＵＳ,,株式会社,千葉県,千葉市中央区,都町５丁目１１番１２号,,12,101,2600001,,,,,,,2024-03-08,1,,,,,ピヌス,0
1771,7040001132559,新規,0,2024-03-08,2024-03-08,株式会社青希,,株式会社,千葉県,我孫子市,布佐２５８７番地の３２,,12,222,2701101,,,,,,,2024-03-08,1,,,,,アオキ,0
1772,7040001132583,新規,0,2024-03-08,2024-03-08,株式会社Ｋ＆Ｋ,,株式会社,千葉県,館山市,竹原３１８番地の２,,12,205,2940001,,,,,,,2024-03-08,1,,,,,ケーアンドケー,0
1779,7040003024498,新規,0,2024-03-08,2024-03-08,合同会社マチタク,,合同会社,千葉県,千葉市花見川区,柏井町１６９番地,,12,102,2620041,,,,,,,2024-03-08,1,,,,,マチタク,0
1782,7050001054414,新規,0,2024-03-08,2024-03-08,株式会社ルリアンジュ,,株式会社,茨城県,水戸市,見和３丁目５９６－１３ＳＳ姫子ビル２Ｆ,,08,201,3100911,,,,,,,2024-03-08,1,,,,,ルリアンジュ,0
1794,7080101024578,新規,0,2024-03-08,2024-03-08,株式会社ジェネシス,,株式会社,静岡県,駿東郡清水町,新宿８２３番地の１,,22,341,4110901,,,,,,,2024-03-08,1,,,,,ジェネシス,0
1799,7090001018588,新規,0,2024-03-08,2024-03-08,株式会社ＳＤ　Ｇｌｏｂａｌ　ＡｇｒｏＴｅｃ　Ｊａｐａｎ,,株式会社,山梨県,甲斐市,大下条７９３－３,,19,210,4000126,,,,,,,2024-03-08,1,,,,,エスディーグローバルアグロテックジャパン,0
1809,7110005017063,新規,0,2024-03-08,2024-03-08,企業組合川谷もより農産加工所,,その他の設立登記法人,新潟県,上越市,吉川区川谷３１５６番地１,,15,222,9493553,,,,,,,2024-03-08,1,,,,,カワタニモヨリノウサンカコウジョ,0
1819,7120001262843,新規,0,2024-03-08,2024-03-08,大和ケミファ株式会社,,株式会社,大阪府,大阪市住之江区,南港北２丁目１番１０号４－Ｎ－２,,27,125,5590034,,,,,,,2024-03-08,1,,,,,ダイワケミファ,0
1820,7120001262892,新規,0,2024-03-08,2024-03-08,Ｓｕｎプラザ株式会社,,株式会社,大阪府,大阪市中央区,大手前１丁目６番４号リップル天満橋ビル７０１号室,,27,128,5400008,,,,,,,2024-03-08,1,,,,,サンプラザ,0
1821,7120001262934,新規,0,2024-03-08,2024-03-08,株式会社Ｙｏｎｋｕｃｈｉ,,株式会社,大阪府,大阪市浪速区,難波中３丁目５番１２号難波中八代ビル３階,,27,111,5560011,,,,,,,2024-03-08,1,,,,,ヨンクチ,0
1822,7120001262950,新規,0,2024-03-08,2024-03-08,株式会社ベストコンサルティング,,株式会社,大阪府,大阪市北区,西天満１丁目９番１２号９０１号,,27,127,5300047,,,,,,,2024-03-08,1,,,,,ベストコンサルティング,0
1823,7120001262959,新規,0,2024-03-08,2024-03-08,株式会社ｒｉｋｋａ,,株式会社,大阪府,大阪市北区,曾根崎新地１丁目８番１９号,,27,127,5300002,,,,,,,2024-03-08,1,,,,,リッカ,0
1824,7120001262975,新規,0,2024-03-08,2024-03-08,Ｅ・Ｇ・Ｃ株式会社,,株式会社,大阪府,守口市,八雲北町３丁目４１番１２号,,27,209,5700008,,,,,,,2024-03-08,1,,,,,イージーシー,0
1825,7120001262983,新規,0,2024-03-08,2024-03-08,Ｄｒｅａｍ　Ｃｏｍｅｓ　Ｔｒｕｅ株式会社,,株式会社,大阪府,大阪市北区,豊崎１丁目９－１０－４０２,,27,127,5310072,,,,,,,2024-03-08,1,,,,,ドリームカムズトゥルー,0
1826,7120001263024,新規,0,2024-03-08,2024-03-08,株式会社Ｒｅｖ　Ｕｐ,,株式会社,大阪府,大阪市西区,南堀江３丁目９－２８,,27,106,5500015,,,,,,,2024-03-08,1,,,,,レブアップ,0
1827,7120001263032,新規,0,2024-03-08,2024-03-08,株式会社ＬＩＬＹ,,株式会社,大阪府,大阪市中央区,天満橋京町２番６号天満橋八千代ビル別館７階Ａ号室,,27,128,5400032,,,,,,,2024-03-08,1,,,,,リリー,0
1829,7120003026107,新規,0,2024-03-08,2024-03-08,合同会社貞観,,合同会社,大阪府,大阪市浪速区,浪速東２丁目１０番１１号１０８号室,,27,111,5560025,,,,,,,2024-03-08,1,,,,,ジョウガン,0
1835,7130001076508,新規,0,2024-03-08,2024-03-08,株式会社進和,,株式会社,京都府,向日市,寺戸町中村垣内２５－９４,,26,208,6170002,,,,,,,2024-03-08,1,,,,,シンワ,0
1836,7130001076524,新規,0,2024-03-08,2024-03-08,株式会社シーエステック,,株式会社,京都府,京都市右京区,西院下花田町２９番地,,26,108,6150004,,,,,,,2024-03-08,1,,,,,シーエステック,0
1842,7140001133539,新規,0,2024-03-08,2024-03-08,株式会社姫匠,,株式会社,兵庫県,たつの市,新宮町吉島４２６番地１,,28,229,6794305,,,,,,,2024-03-08,1,,,,,ヒメショウ,0
1843,7140001133571,新規,0,2024-03-08,2024-03-08,株式会社Ｃｕｒｉｏｘ　Ｊａｐａｎ,,株式会社,兵庫県,神戸市垂水区,塩屋台２丁目１９番９号,,28,108,6550864,,,,,,,2024-03-08,1,,,,,キュリオックスジャパン,0
1844,7140001133596,新規,0,2024-03-08,2024-03-08,株式会社オモロイ,,株式会社,兵庫県,三田市,南が丘１丁目５１番２号,,28,219,6691535,,,,,,,2024-03-08,1,,,,,オモロイ,0
1848,7150001027120,新規,0,2024-03-08,2024-03-08,株式会社田村不動産,,株式会社,奈良県,大和高田市,大字池田２４９番地４,,29,202,6350077,,,,,,,2024-03-08,1,,,,,タムラフドウサン,0
1852,7160001025734,新規,0,2024-03-08,2024-03-08,株式会社ｇｒａｔｅｆｕｌ,,株式会社,滋賀県,東近江市,大森町２１７８番６号,,25,213,5270063,,,,,,,2024-03-08,1,,,,,グレイトフル,0
1853,7170003001996,新規,0,2024-03-08,2024-03-08,合同会社シーニュ,,合同会社,和歌山県,田辺市,新庄町２９０１番１号,,30,206,6460011,,,,,,,2024-03-08,1,,,,,シーニュ,0
1861,7180001160380,新規,0,2024-03-08,2024-03-08,Ｔｒａｄｅ　Ｄａｎｃｅ株式会社,,株式会社,愛知県,津島市,中一色町弥六山１９６番地１４,,23,208,4960025,,,,,,,2024-03-08,1,,,,,トレードダンス,0
1862,7180001160406,新規,0,2024-03-08,2024-03-08,株式会社九月,,株式会社,愛知県,一宮市,上祖父江字南川原４番地２,,23,203,4940014,,,,,,,2024-03-08,1,,,,,クガツ,0
1863,7180001160422,新規,0,2024-03-08,2024-03-08,株式会社アーイラ,,株式会社,愛知県,名古屋市中川区,供米田３丁目１００３番地,,23,110,4540984,,,,,,,2024-03-08,1,,,,,アーイラ,0
1864,7180001160439,新規,0,2024-03-08,2024-03-08,株式会社プラスケイ,,株式会社,愛知県,愛西市,諏訪町郷東１４５番地２,,23,232,4968011,,,,,,,2024-03-08,1,,,,,プラスケイ,0
1865,7180001160447,新規,0,2024-03-08,2024-03-08,株式会社Ｍａｒｑｕｅ　Ｐａｇｅ,,株式会社,愛知県,名古屋市中村区,名駅３丁目４－１０アルティメイト名駅１ｓｔ２階,,23,105,4500002,,,,,,,2024-03-08,1,,,,,マルクパージュ,0
1866,7180001160471,新規,0,2024-03-08,2024-03-08,株式会社新菱和,,株式会社,愛知県,名古屋市緑区,鳴海町字中汐田２６５番地,,23,114,4580801,,,,,,,2024-03-08,1,,,,,シンリョウワ,0
1867,7180001160488,新規,0,2024-03-08,2024-03-08,株式会社ステイアーネスト,,株式会社,愛知県,名古屋市緑区,鳴海町字伝治山１番地の２４,,23,114,4580844,,,,,,,2024-03-08,1,,,,,ステイアーネスト,0
1881,7240001062901,新規,0,2024-03-08,2024-03-08,株式会社リビルドワークスポット,,株式会社,広島県,尾道市,西久保町１３番２３号,,34,205,7220044,,,,,,,2024-03-08,1,,,,,リビルドワークスポット,0
1887,7260001038817,新規,0,2024-03-08,2024-03-08,株式会社ＦＵＫＵ,,株式会社,岡山県,岡山市北区,中山下１丁目６番２５号ロイヤルガーデン中山下３０６,,33,101,7000821,,,,,,,2024-03-08,1,,,,,フク,0
1897,7290001104913,新規,0,2024-03-08,2024-03-08,株式会社ヤベームラ,,株式会社,福岡県,八女市,矢部村北矢部１０５１６番地１,,40,210,8341401,,,,,,,2024-03-08,1,,,,,ヤベームラ,0
1898,7290001104970,新規,0,2024-03-08,2024-03-08,ａＲｍ株式会社,,株式会社,福岡県,福岡市中央区,西公園９－２０,,40,133,8100061,,,,,,,2024-03-08,1,,,,,アーム,0
1899,7290001104987,新規,0,2024-03-08,2024-03-08,方舟国際株式会社,,株式会社,福岡県,福岡市中央区,舞鶴１丁目２番３３－９０３号,,40,133,8100073,,,,,,,2024-03-08,1,,,,,ホウシュウコクサイ,0
1903,7290003015043,新規,0,2024-03-08,2024-03-08,合同会社Ｇｒａｂ　Ｈａｐｐｉｎｅｓｓ,,合同会社,福岡県,大牟田市,中白川町３丁目８３,,40,202,8370927,,,,,,,2024-03-08,1,,,,,グラブハピネス,0
1905,7290803004641,新規,0,2024-03-08,2024-03-08,ＢＢＳ合同会社,,合同会社,福岡県,築上郡上毛町,大字下唐原１６４９番地１６,,40,646,8710923,,,,,,,2024-03-08,1,,,,,ビービーエス,0
1907,7320001020339,新規,0,2024-03-08,2024-03-08,ＴＳＳ株式会社,,株式会社,大分県,臼杵市,大字佐志生３９３７,,44,206,8750001,,,,,,,2024-03-08,1,,,,,ティエスエス,0
1909,7330001031822,新規,0,2024-03-08,2024-03-08,株式会社Ｒｅｂｏｄｙ,,株式会社,熊本県,阿蘇郡南阿蘇村,大字吉田４６５番地２,,43,433,8691503,,,,,,,2024-03-08,1,,,,,リボディ,0
1912,7330003010254,新規,0,2024-03-08,2024-03-08,苓州ダイニング合同会社,,合同会社,熊本県,上天草市,大矢野町中１０７６４番地１,,43,212,8693603,,,,,,,2024-03-08,1,,,,,レイシュウダイニング,0
1915,7360001033312,新規,0,2024-03-08,2024-03-08,株式会社興和グローリー,,株式会社,沖縄県,那覇市,繁多川１丁目２４番２９－３０１号目取真荘,,47,201,9020071,,,,,,,2024-03-08,1,,,,,コウワグローリー,0
1916,7360003013758,新規,0,2024-03-08,2024-03-08,合同会社うみいろ,,合同会社,沖縄県,沖縄市,古謝３丁目２８－１７－２,,47,211,9042161,,,,,,,2024-03-08,1,,,,,ウミイロ,0
1918,7370001051016,新規,0,2024-03-08,2024-03-08,宏栄貿易株式会社,,株式会社,宮城県,仙台市青葉区,上愛子字蛇台原２７番地の３２ハイルザーム参番館ＩＩ,00134010,04,101,9893124,,,,,,,2024-03-08,1,,,,,コウエイボウエキ,0
1923,7380003005704,新規,0,2024-03-08,2024-03-08,合同会社本多工業,,合同会社,福島県,いわき市,四倉町上仁井田字穴狐原２２番地の８,,07,204,9790202,,,,,,,2024-03-08,1,,,,,ホンタコウギョウ,0
1924,7400001016576,新規,0,2024-03-08,2024-03-08,株式会社ＢｅａｕｔｙＳＫＹ,,株式会社,岩手県,下閉伊郡山田町,大沢第８地割２３番地９,,03,482,0281311,,,,,,,2024-03-08,1,,,,,ビューティースカイ,0
1925,7410001004753,新規,0,2024-03-08,2024-03-08,かねこ株式会社,,株式会社,秋田県,にかほ市,両前寺字山田下１４番地,,05,214,0180401,,,,,,,2024-03-08,1,,,,,カネコ,0
1937,7430001091212,新規,0,2024-03-08,2024-03-08,株式会社ＲＯＤＥＭ,,株式会社,北海道,札幌市中央区,南四条東４丁目１番地３６,,01,101,0600054,,,,,,,2024-03-08,1,,,,,ロデム,0
1939,7430003016035,新規,0,2024-03-08,2024-03-08,合同会社めぐみメディカル,,合同会社,北海道,札幌市南区,川沿四条３丁目１番１５号,,01,106,0050804,,,,,,,2024-03-08,1,,,,,メグミメディカル,0
1940,7430003016051,新規,0,2024-03-08,2024-03-08,ＭＫ空調合同会社,,合同会社,北海道,札幌市東区,東雁来十四条２丁目５番１号,,01,103,0070034,,,,,,,2024-03-08,1,,,,,エムケークウチョウ,0
1946,7480005007011,新規,0,2024-03-08,2024-03-08,一般社団法人ＳＴＯＲＹ,,その他の設立登記法人,徳島県,徳島市,川内町富吉１０番地９,,36,201,7710112,,,,,,,2024-03-08,1,,,,,ストーリー,0
1948,7500003003199,新規,0,2024-03-08,2024-03-08,合同会社ＤＯＳ‐ｓｙｓｔｅｍ,,合同会社,愛媛県,松山市,宇和間甲９２７番地,,38,201,7914506,,,,,,,2024-03-08,1,,,,,ドスシステム,0
1949,7500005008683,新規,0,2024-03-08,2024-03-08,社会保険労務士法人さんごう,,その他の設立登記法人,愛媛県,松山市,愛光町９番４号黒川ビル１Ｆ,,38,201,7900064,,,,,,,2024-03-08,1,,,,,,0
1950,7700150124372,新規,0,2024-03-08,2024-03-08,福井駅前南通り地区市街地再開発組合,,その他,福井県,福井市,中央１丁目１１－５,,18,201,9100006,,,,,,,2024-03-08,1,,,,,フクイエキマエミナミトオリチクシガイチサイカイハツクミアイ,0
1956,8010001242871,新規,0,2024-03-08,2024-03-08,株式会社Ｃａｒｕｓ　Ｍｅｄｉｃａｌ　Ｇｒｏｕｐ,,株式会社,東京都,千代田区,丸の内２丁目２番１号岸本ビルヂング６階,,13,101,1000005,,,,,,,2024-03-08,1,,,,,カルスメディカルグループ,0
1957,8010001242905,新規,0,2024-03-08,2024-03-08,株式会社シーエックス,,株式会社,東京都,中央区,銀座１丁目１２－４Ｎ＆ＥＢＬＤ．７階,,13,102,1040061,,,,,,,2024-03-08,1,,,,,シーエックス,0
1958,8010001242913,新規,0,2024-03-08,2024-03-08,リモ鉄サービス株式会社,,株式会社,東京都,千代田区,神田和泉町１番地６－１６ヤマトビル４０５,,13,101,1010024,,,,,,,2024-03-08,1,,,,,リモテツサービス,0
1960,8010003043161,新規,0,2024-03-08,2024-03-08,合同会社小田急鶴間駅前ブリッジプロジェクト,,合同会社,東京都,千代田区,平河町１丁目６番１５号シルスフィア会計事務所内,,13,101,1020093,,,,,,,2024-03-08,1,,,,,オダキュウツルマエキマエブリッジプロジェクト,0
1969,8010403032136,新規,0,2024-03-08,2024-03-08,合同会社ＹＣＨ１５,,合同会社,東京都,港区,南青山２丁目２番１５－８２５号,,13,103,1070062,,,,,,,2024-03-08,1,,,,,ワイシーエイチフィフティーン,0
1979,8010901054755,新規,0,2024-03-08,2024-03-08,株式会社ＴＹＹＴ,,株式会社,東京都,世田谷区,経堂２丁目１８番１３号,,13,112,1560052,,,,,,,2024-03-08,1,,,,,ティーワイワイティー,0
1980,8010901054838,新規,0,2024-03-08,2024-03-08,株式会社ハイライト,,株式会社,東京都,世田谷区,駒沢２丁目４３番２０号カリラ駒沢２０３,,13,112,1540012,,,,,,,2024-03-08,1,,,,,ハイライト,0
1982,8010903008841,新規,0,2024-03-08,2024-03-08,合同会社ＫＵエステート,,合同会社,東京都,世田谷区,玉川台２丁目２０－１４,,13,112,1580096,,,,,,,2024-03-08,1,,,,,ケイユウエステート,0
1983,8010903008874,新規,0,2024-03-08,2024-03-08,ＫＤＬ合同会社,,合同会社,東京都,世田谷区,下馬４丁目７番９号,,13,112,1540002,,,,,,,2024-03-08,1,,,,,ケイディーエル,0
1995,8011103014168,新規,0,2024-03-08,2024-03-08,合同会社クロスアド,,合同会社,東京都,新宿区,西新宿３丁目３番１３号西新宿水間ビル６Ｆ,,13,104,1600023,,,,,,,2024-03-08,1,,,,,クロスアド,0
1999,8011105010966,新規,0,2024-03-08,2024-03-08,医療法人社団皓歯会,,その他の設立登記法人,東京都,新宿区,住吉町１番１５号四谷ＴＴビル５階,,13,104,1620065,,,,,,,2024-03-08,1,,,,,コウシカイ,0
2001,8011201025298,新規,0,2024-03-08,2024-03-08,株式会社ＴＵＬＰＥ,,株式会社,東京都,中野区,中野２丁目１９番２号３Ｆ,,13,114,1640001,,,,,,,2024-03-08,1,,,,,トルペ,0
2006,8011501030403,新規,0,2024-03-08,2024-03-08,株式会社Ｆｏｏｔｂａｌｌ　Ｓｋｉｌｌｓ　Ｌａｂ,,株式会社,東京都,北区,滝野川２丁目２番１６号,,13,117,1140023,,,,,,,2024-03-08,1,,,,,フットボールスキルスラボ,0
2010,8011701027083,新規,0,2024-03-08,2024-03-08,株式会社大健優,,株式会社,東京都,江戸川区,西葛西１丁目９番５号,,13,123,1340088,,,,,,,2024-03-08,1,,,,,ダイケンユウ,0
2012,8011801043880,新規,0,2024-03-08,2024-03-08,株式会社イーファスト,,株式会社,東京都,足立区,千住関屋町９番１号２Ｆ,,13,121,1200024,,,,,,,2024-03-08,1,,,,,イーファスト,0
2013,8011801043897,新規,0,2024-03-08,2024-03-08,金泉株式会社,,株式会社,東京都,足立区,宮城１丁目１番２３－１０１６号,,13,121,1200047,,,,,,,2024-03-08,1,,,,,キンセン,0
2015,8012801023014,新規,0,2024-03-08,2024-03-08,株式会社アトミック,,株式会社,東京都,日野市,万願寺６丁目１番地の１６,,13,212,1910024,,,,,,,2024-03-08,1,,,,,アトムック,0
2016,8012801023022,新規,0,2024-03-08,2024-03-08,株式会社タチカワファッションラボ,,株式会社,東京都,立川市,曙町２丁目８―２８ミライズ立川,,13,202,1900012,,,,,,,2024-03-08,1,,,,,タチカワファッションラボ,0
2035,8020001156096,新規,0,2024-03-08,2024-03-08,株式会社Ｏｗｌサービス,,株式会社,神奈川県,横浜市旭区,上白根２丁目４３番２０号,,14,112,2410002,,,,,,,2024-03-08,1,,,,,オウルサービス,0
2036,8020001156138,新規,0,2024-03-08,2024-03-08,ＹＭエステート株式会社,,株式会社,神奈川県,横浜市保土ケ谷区,川辺町３番地１パークシティ横濱Ｄ棟１０１２号,,14,106,2400001,,,,,,,2024-03-08,1,,,,,ワイエムエステート,0
2037,8020001156170,新規,0,2024-03-08,2024-03-08,株式会社プログレアル,,株式会社,神奈川県,川崎市高津区,溝口１丁目２０番２１号,,14,134,2130001,,,,,,,2024-03-08,1,,,,,プログレアル,0
2041,8020003025704,新規,0,2024-03-08,2024-03-08,合同会社ルーモス,,合同会社,神奈川県,横浜市金沢区,東朝比奈１丁目５７－２－１１１,,14,108,2360033,,,,,,,2024-03-08,1,,,,,ルーモス,0
2052,8030001158991,新規,0,2024-03-08,2024-03-08,株式会社ヨコオエステート,,株式会社,埼玉県,狭山市,広瀬東１丁目４番１３号,,11,215,3501320,,,,,,,2024-03-08,1,,,,,ヨコオエステート,0
2053,8030001159098,新規,0,2024-03-08,2024-03-08,株式会社ＮＯ．５,,株式会社,埼玉県,川口市,元郷３丁目９番７号,,11,203,3320011,,,,,,,2024-03-08,1,,,,,ナンバーファイブ,0
2054,8030001159123,新規,0,2024-03-08,2024-03-08,株式会社丸沼,,株式会社,埼玉県,朝霞市,大字上内間木７８９番地,,11,227,3510001,,,,,,,2024-03-08,1,,,,,マルヌマ,0
2055,8030001159148,新規,0,2024-03-08,2024-03-08,ライキホールディングス株式会社,,株式会社,埼玉県,草加市,青柳１丁目５番４１号,,11,221,3400002,,,,,,,2024-03-08,1,,,,,ライキホールディングス,0
2057,8030003023748,新規,0,2024-03-08,2024-03-08,ＥＰＲＩＳ合同会社,,合同会社,埼玉県,三郷市,彦成３丁目７番２－１０５号,,11,237,3410003,,,,,,,2024-03-08,1,,,,,エプリス,0
2058,8030003023780,新規,0,2024-03-08,2024-03-08,合同会社めるもか,,合同会社,埼玉県,越谷市,大字大房６９３番地９,,11,222,3430027,,,,,,,2024-03-08,1,,,,,メルモカ,0
2062,8040001132533,新規,0,2024-03-08,2024-03-08,株式会社ＳＳＭＪ,,株式会社,千葉県,船橋市,本郷町６１５番地９,,12,204,2730033,,,,,,,2024-03-08,1,,,,,エスエスエムジェイ,0
2063,8040001132541,新規,0,2024-03-08,2024-03-08,株式会社ＴＧセカンド,,株式会社,千葉県,船橋市,二和東３丁目２０番１９号,,12,204,2740805,,,,,,,2024-03-08,1,,,,,ティージーセカンド,0
2064,8040001132558,新規,0,2024-03-08,2024-03-08,株式会社ＪＯＩＥａｕｌｉｉ,,株式会社,千葉県,佐倉市,上志津１５９９番地３５,,12,212,2850846,,,,,,,2024-03-08,1,,,,,ジョワアウリー,0
2065,8040001132582,新規,0,2024-03-08,2024-03-08,長生建設株式会社,,株式会社,千葉県,市原市,犬成１０５８番地１,,12,219,2900166,,,,,,,2024-03-08,1,,,,,チョウセイケンセツ,0
2068,8040003024506,新規,0,2024-03-08,2024-03-08,合同会社にじのはな訪問看護,,合同会社,千葉県,木更津市,高柳３５３２番地１サリサ．ｄ２号室,,12,206,2920014,,,,,,,2024-03-08,1,,,,,ニジノハナホウモンカンゴ,0
2077,8070005010237,新規,0,2024-03-08,2024-03-08,一般社団法人ラルコンシャ,,その他の設立登記法人,群馬県,北群馬郡榛東村,大字長岡１７３１－３,,10,344,3703501,,,,,,,2024-03-08,1,,,,,,0
2081,8100001037255,新規,0,2024-03-08,2024-03-08,株式会社ケン・コーポレーション,,株式会社,長野県,佐久市,田口６３１６番地５,,20,217,3840412,,,,,,,2024-03-08,1,,,,,ケンコーポレーション,0
2082,8100001037263,新規,0,2024-03-08,2024-03-08,株式会社しげの興産,,株式会社,長野県,飯山市,大字木島１１２番地,,20,213,3892234,,,,,,,2024-03-08,1,,,,,シゲノコウサン,0
2094,8120001262850,新規,0,2024-03-08,2024-03-08,秋株式会社,,株式会社,大阪府,大阪市中央区,安堂寺町２丁目６番１４号ＯｓａｋａＭｅｔｒｏ松屋町ビル８Ｆ－１２,,27,128,5420061,,,,,,,2024-03-08,1,,,,,アキ,0
2095,8120001262891,新規,0,2024-03-08,2024-03-08,株式会社Ｔ．Ｒ．Ｙ,,株式会社,大阪府,大阪市福島区,大開２丁目１７番２７－１３０５号,,27,103,5530007,,,,,,,2024-03-08,1,,,,,ティーアールワイ,0
2096,8120001262900,新規,0,2024-03-08,2024-03-08,Ｖｉｖａｃｅ株式会社,,株式会社,大阪府,大阪市中央区,石町１丁目１番１５号,,27,128,5400033,,,,,,,2024-03-08,1,,,,,ヴィヴァーチェ,0
2097,8120001262917,新規,0,2024-03-08,2024-03-08,株式会社Ｅｎｄｅａｖｏｒ　Ｃａｐｉｔａｌ,,株式会社,大阪府,大阪市中央区,東心斎橋１丁目４番１号オリエンタル東心斎橋５０１号,,27,128,5420083,,,,,,,2024-03-08,1,,,,,エンデバーキャピタル,0
2098,8120001262941,新規,0,2024-03-08,2024-03-08,株式会社タキイチ,,株式会社,大阪府,大阪市平野区,加美正覚寺２丁目６番５号,,27,126,5470006,,,,,,,2024-03-08,1,,,,,タキイチ,0
2099,8120001262982,新規,0,2024-03-08,2024-03-08,ライズアップ株式会社,,株式会社,大阪府,大阪市福島区,玉川２丁目１０番２１号ハイツブラウン５０２号室,,27,103,5530004,,,,,,,2024-03-08,1,,,,,ライズアップ,0
2100,8120001263007,新規,0,2024-03-08,2024-03-08,株式会社ＫＳＴ,,株式会社,大阪府,大阪市阿倍野区,文の里１丁目８番２１号アークビル５階,,27,119,5450004,,,,,,,2024-03-08,1,,,,,ケイエスティ,0
2101,8120001263031,新規,0,2024-03-08,2024-03-08,株式会社ＢＫ,,株式会社,大阪府,大阪市東成区,東今里３丁目２２番１５号石頭記１号室,,27,115,5370011,,,,,,,2024-03-08,1,,,,,ビーケー,0
2107,8120003026097,新規,0,2024-03-08,2024-03-08,量寛合同会社,,合同会社,大阪府,大阪市中央区,南久宝寺町１丁目９－７船場ツタダビル４０２室,,27,128,5410058,,,,,,,2024-03-08,1,,,,,リョウカン,0
2108,8120003026114,新規,0,2024-03-08,2024-03-08,４ｍｅｄ合同会社,,合同会社,大阪府,大阪市北区,大淀南２丁目２番９号グランドメゾンタワークラブレジデンス４００６,,27,127,5310075,,,,,,,2024-03-08,1,,,,,フォーメッド,0
2109,8120103005711,新規,0,2024-03-08,2024-03-08,３７合同会社,,合同会社,大阪府,貝塚市,澤６４５番地１,,27,208,5970062,,,,,,,2024-03-08,1,,,,,ミナ,0
2113,8120905006576,新規,0,2024-03-08,2024-03-08,一般社団法人国際人材定着支援機構,,その他の設立登記法人,大阪府,豊中市,刀根山元町５番４１－４０５号,,27,203,5600044,,,,,,,2024-03-08,1,,,,,コクサイジンザイテイチャクシエンキコウ,0
2119,8130001076382,新規,0,2024-03-08,2024-03-08,ＡＴ　ＩＰマネジメント株式会社,,株式会社,京都府,相楽郡精華町,光台１丁目７番地けいはんなプラザラボ棟,,26,366,6190237,,,,,,,2024-03-08,1,,,,,エーティーアイピーマネジメント,0
2121,8130003009324,新規,0,2024-03-08,2024-03-08,合同会社ハッピーライフ,,合同会社,京都府,京都市中京区,三条通西洞院西入塩屋町５１番地,,26,104,6048247,,,,,,,2024-03-08,1,,,,,ハッピーライフ,0
2136,8140001133587,新規,0,2024-03-08,2024-03-08,株式会社ＨＡＹＡＳＨＩＤＡ,,株式会社,兵庫県,加古川市,加古川町篠原町１４番地の３,,28,210,6750065,,,,,,,2024-03-08,1,,,,,ハヤシダ,0
2137,8140001133604,新規,0,2024-03-08,2024-03-08,株式会社建築ＭＯＮＯ設計,,株式会社,兵庫県,西宮市,上甲子園１丁目１－２４ダイドーメゾン上甲子園３０２号室,,28,204,6638114,,,,,,,2024-03-08,1,,,,,ケンチクモノセッケイ,0
2138,8140001133612,新規,0,2024-03-08,2024-03-08,株式会社カレワラ,,株式会社,兵庫県,西宮市,甲陽園西山町４番３８号,,28,204,6620017,,,,,,,2024-03-08,1,,,,,カレワラ,0
2141,8150001027128,新規,0,2024-03-08,2024-03-08,ネクシア株式会社,,株式会社,奈良県,大和郡山市,九条町５２４番地１７,,29,203,6391001,,,,,,,2024-03-08,1,,,,,ネクシア,0
2143,8160003003126,新規,0,2024-03-08,2024-03-08,みたちフーズ合同会社,,合同会社,滋賀県,大津市,梅林１丁目２－２,,25,201,5200051,,,,,,,2024-03-08,1,,,,,ミタチフーズ,0
2146,8180001160462,新規,0,2024-03-08,2024-03-08,エイナン技術通商株式会社,,株式会社,愛知県,名古屋市中村区,下中村町２丁目２７番地の２,,23,105,4530827,,,,,,,2024-03-08,1,,,,,エイナンギジュツツウショウ,0
2151,8180301038400,新規,0,2024-03-08,2024-03-08,株式会社ＡＤＥＬＩＳ,,株式会社,愛知県,安城市,今池町１丁目１７番２号,,23,212,4460071,,,,,,,2024-03-08,1,,,,,アデリス,0
2153,8190001031167,新規,0,2024-03-08,2024-03-08,株式会社藤原運輸,,株式会社,三重県,桑名市,新西方３丁目３９番地,,24,205,5110863,,,,,,,2024-03-08,1,,,,,フジワラウンユ,0
2156,8200001042237,新規,0,2024-03-08,2024-03-08,株式会社岐南幸運,,株式会社,岐阜県,羽島郡岐南町,下印食１丁目１１０番地,,21,302,5016018,,,,,,,2024-03-08,1,,,,,ギナン,0
2161,8240001062900,新規,0,2024-03-08,2024-03-08,ＡＮＧあきおおた２０２４株式会社,,株式会社,広島県,山県郡安芸太田町,大字加計２３９番地１,,34,368,7313501,,,,,,,2024-03-08,1,,,,,エーエヌジーアキオオタニーマルニーヨン,0
2163,8250001020543,新規,0,2024-03-08,2024-03-08,株式会社リハピスファーム,,株式会社,山口県,下関市,王司上町２丁目５番９号,,35,201,7520916,,,,,,,2024-03-08,1,,,,,リハピスファーム,0
2176,8290001104945,新規,0,2024-03-08,2024-03-08,ＨＡＲＥ株式会社,,株式会社,福岡県,福岡市博多区,青木１丁目１３番３０号,,40,132,8120851,,,,,,,2024-03-08,1,,,,,ハレ,0
2177,8290001105002,新規,0,2024-03-08,2024-03-08,株式会社ニライカナイアド,,株式会社,福岡県,福岡市西区,姪浜駅南１丁目５番３号,,40,135,8190006,,,,,,,2024-03-08,1,,,,,ニライカナイアド,0
2178,8290001105010,新規,0,2024-03-08,2024-03-08,株式会社Ｆｉｒｓｔ,,株式会社,福岡県,福岡市早良区,田村２丁目１３番２７－１０６号,,40,137,8140175,,,,,,,2024-03-08,1,,,,,ファースト,0
2179,8290005019306,新規,0,2024-03-08,2024-03-08,ワーカーズコープ陽明舎労働者協同組合,,その他の設立登記法人,福岡県,嘉麻市,下臼井１１３０番地１,,40,227,8200504,,,,,,,2024-03-08,1,,,,,ワーカーズコープヨウメイシャ,0
2180,8290801030366,新規,0,2024-03-08,2024-03-08,株式会社ＫＫホールディングス,,株式会社,福岡県,北九州市小倉北区,貴船町１３番９号,,40,106,8020073,,,,,,,2024-03-08,1,,,,,ケイケイホールディングス,0
2181,8290801030382,新規,0,2024-03-08,2024-03-08,株式会社クロワール,,株式会社,福岡県,北九州市小倉南区,長野３丁目１－２,,40,107,8000228,,,,,,,2024-03-08,1,,,,,クロワール,0
2182,8290803004640,新規,0,2024-03-08,2024-03-08,合同会社松竹梅,,合同会社,福岡県,北九州市八幡西区,熊手１丁目２－２２,,40,109,8060028,,,,,,,2024-03-08,1,,,,,ショウチクバイ,0
2185,8310001018894,新規,0,2024-03-08,2024-03-08,株式会社エスケイアール,,株式会社,長崎県,長崎市,扇町４番６－５０４号,,42,201,8528132,,,,,,,2024-03-08,1,,,,,エスケイアール,0
2188,8330001031838,新規,0,2024-03-08,2024-03-08,株式会社ニュウスフィーダ,,株式会社,熊本県,熊本市中央区,新市街３番６号いしはらビル３階,,43,101,8600803,,,,,,,2024-03-08,1,,,,,ニュウスフィーダ,0
2191,8360001033286,新規,0,2024-03-08,2024-03-08,株式会社ＧＲＯＶＥ,,株式会社,沖縄県,国頭郡恩納村,字仲泊１９５２番地１,,47,311,9040415,,,,,,,2024-03-08,1,,,,,グローブ,0
2192,8360001033311,新規,0,2024-03-08,2024-03-08,株式会社グローリー・ファン,,株式会社,沖縄県,那覇市,繁多川１丁目２４番２９－３０１号目取真荘,,47,201,9020071,,,,,,,2024-03-08,1,,,,,グローリーファン,0
2198,8380001034349,新規,0,2024-03-08,2024-03-08,株式会社ハイドシーク,,株式会社,福島県,福島市,南矢野目字鼓田１３番地の４,,07,201,9600112,,,,,,,2024-03-08,1,,,,,ハイドシーク,0
2202,8390003002212,新規,0,2024-03-08,2024-03-08,ＨＯＭＥプラス合同会社,,合同会社,山形県,山形市,新開２丁目８－７０,,06,201,9902164,,,,,,,2024-03-08,1,,,,,ホームプラス,0
2207,8430003016026,新規,0,2024-03-08,2024-03-08,合同会社イワデン,,合同会社,北海道,札幌市北区,新川四条１７丁目４番９号,,01,102,0010924,,,,,,,2024-03-08,1,,,,,イワデン,0
2208,8430003016034,新規,0,2024-03-08,2024-03-08,三馬合同会社,,合同会社,北海道,札幌市豊平区,平岸四条１３丁目９番１５－１４０４,,01,105,0620934,,,,,,,2024-03-08,1,,,,,ミツマ,0
2209,8450005004398,新規,0,2024-03-08,2024-03-08,一般財団法人しもかわ地域振興機構,,その他の設立登記法人,北海道,上川郡下川町,共栄町１番地１,,01,468,0981203,,,,,,,2024-03-08,1,,,,,シモカワチイキシンコウキコウ,0
2212,8480003002104,新規,0,2024-03-08,2024-03-08,合同会社ＫＴＭＫ,,合同会社,徳島県,吉野川市,鴨島町内原３３番地１,,36,205,7760003,,,,,,,2024-03-08,1,,,,,ケイティエムケイ,0
2215,8500003003198,新規,0,2024-03-08,2024-03-08,合同会社なな建装,,合同会社,愛媛県,松山市,苞木１７５番地５７,,38,201,7992460,,,,,,,2024-03-08,1,,,,,ナナケンソウ,0
2227,9010003043160,新規,0,2024-03-08,2024-03-08,合同会社ひのえたつファームトゥキッチン,,合同会社,東京都,中央区,日本橋室町１丁目１１番１２号日本橋水野ビル７階,,13,102,1030022,,,,,,,2024-03-08,1,,,,,ヒノエタツファームトゥキッチン,0
2236,9010401180885,新規,0,2024-03-08,2024-03-08,スプラメンター株式会社,,株式会社,東京都,港区,北青山２丁目７番１３号,,13,103,1070061,,,,,,,2024-03-08,1,,,,,スプラメンター,0
2237,9010401180910,新規,0,2024-03-08,2024-03-08,株式会社オーシャンズ,,株式会社,東京都,港区,浜松町２丁目２番１５号浜松町ダイヤビル２Ｆ,,13,103,1050013,,,,,,,2024-03-08,1,,,,,オーシャンズ,0
2249,9010601064780,新規,0,2024-03-08,2024-03-08,永済株式会社,,株式会社,東京都,墨田区,両国３丁目２０番６号小林ビル２階,,13,107,1300026,,,,,,,2024-03-08,1,,,,,エイサイ,0
2261,9010901054845,新規,0,2024-03-08,2024-03-08,ＰＥＡＲＬ株式会社,,株式会社,東京都,世田谷区,桜２丁目１８番４号ツインパレス経堂１０５号室,,13,112,1560053,,,,,,,2024-03-08,1,,,,,パール,0
2264,9011001160451,新規,0,2024-03-08,2024-03-08,Ｂｏｔａｎｉｃａｌ　Ａｓｓｏｃｉａｔｅｓ株式会社,,株式会社,東京都,渋谷区,神宮前３丁目１６番６号,,13,113,1500001,,,,,,,2024-03-08,1,,,,,ボタニカルアソシエイツ,0
2272,9011101106461,新規,0,2024-03-08,2024-03-08,株式会社ファストヘルスケア,,株式会社,東京都,新宿区,高田馬場３丁目２５番２３号,,13,104,1690075,,,,,,,2024-03-08,1,,,,,ファストヘルスケア,0
2273,9011101106478,新規,0,2024-03-08,2024-03-08,株式会社ネオビズ,,株式会社,東京都,新宿区,西新宿３丁目３番１３号西新宿水間ビル２Ｆ,,13,104,1600023,,,,,,,2024-03-08,1,,,,,ネオビズ,0
2279,9011501030410,新規,0,2024-03-08,2024-03-08,株式会社プラレール・サクシード,,株式会社,東京都,荒川区,東日暮里６丁目１４番１号,,13,118,1160014,,,,,,,2024-03-08,1,,,,,プラレールサクシード,0
2280,9011505002612,新規,0,2024-03-08,2024-03-08,医療法人社団香栄会,,その他の設立登記法人,東京都,荒川区,西尾久８丁目２７番６号石神ビル１階,,13,118,1160011,,,,,,,2024-03-08,1,,,,,コウエイカイ,0
2284,9011702003512,新規,0,2024-03-08,2024-03-08,有限会社クサナギビル,,有限会社,東京都,江戸川区,篠崎町２丁目６番１号,,13,123,1330061,,,,,,,2024-03-08,1,,,,,,0
2286,9011703003767,新規,0,2024-03-08,2024-03-08,合同会社清和コンサルタント,,合同会社,東京都,江戸川区,瑞江１丁目４５番５－２０３号,,13,123,1320011,,,,,,,2024-03-08,1,,,,,セイワコンサルタント,0
2287,9011801043896,新規,0,2024-03-08,2024-03-08,星光株式会社,,株式会社,東京都,葛飾区,小菅４丁目２１番３７号,,13,122,1240001,,,,,,,2024-03-08,1,,,,,セイコウ,0
2294,9012801023005,新規,0,2024-03-08,2024-03-08,Ａ‐Ｔｒｕｓｔ株式会社,,株式会社,東京都,昭島市,大神町１丁目１番５号,,13,207,1960013,,,,,,,2024-03-08,1,,,,,エートラスト,0
2295,9012803003335,新規,0,2024-03-08,2024-03-08,合同会社４ｌｉｆｅ,,合同会社,東京都,国立市,東４丁目１３－６９,,13,215,1860002,,,,,,,2024-03-08,1,,,,,フォーライフ,0
2303,9020001156153,新規,0,2024-03-08,2024-03-08,Ｇ＆Ｇ株式会社,,株式会社,神奈川県,横浜市中区,尾上町５丁目７１シティタワー馬車道１Ｆ,,14,104,2310015,,,,,,,2024-03-08,1,,,,,ジーアンドジー,0
2308,9020003025703,新規,0,2024-03-08,2024-03-08,カリュプス合同会社,,合同会社,神奈川県,横浜市緑区,長津田町３０１６番地１南長津田団地４２１,,14,113,2260026,,,,,,,2024-03-08,1,,,,,カリュプス,0
2310,9021001081548,新規,0,2024-03-08,2024-03-08,株式会社サンシャイン,,株式会社,神奈川県,鎌倉市,台２丁目７番１９号,,14,204,2470061,,,,,,,2024-03-08,1,,,,,サンシャイン,0
2311,9021001081647,新規,0,2024-03-08,2024-03-08,紀億株式会社,,株式会社,神奈川県,鎌倉市,材木座５丁目６番１１号,,14,204,2480013,,,,,,,2024-03-08,1,,,,,キオク,0
2312,9021001081671,新規,0,2024-03-08,2024-03-08,株式会社藤煌商工,,株式会社,神奈川県,平塚市,公所３８８番地の２,,14,203,2540906,,,,,,,2024-03-08,1,,,,,フジキショウコウ,0
2320,9030001158990,新規,0,2024-03-08,2024-03-08,株式会社塚田タイル,,株式会社,埼玉県,入間郡三芳町,大字上富４２９番地１６,,11,324,3540045,,,,,,,2024-03-08,1,,,,,ツカダタイル,0
2321,9030001159072,新規,0,2024-03-08,2024-03-08,株式会社ＭＥＴ,,株式会社,埼玉県,志木市,中宗岡４丁目１４番３１号,,11,228,3530002,,,,,,,2024-03-08,1,,,,,エムイーティー,0
2322,9030001159114,新規,0,2024-03-08,2024-03-08,株式会社ポライト,,株式会社,埼玉県,川越市,大字今福１０２４番地１４,,11,201,3501151,,,,,,,2024-03-08,1,,,,,ポライト,0
2323,9030001159122,新規,0,2024-03-08,2024-03-08,株式会社川浪総業,,株式会社,埼玉県,所沢市,東狭山ケ丘６丁目７９９番地１１,,11,208,3591106,,,,,,,2024-03-08,1,,,,,カワナミソウギョウ,0
2324,9030001159147,新規,0,2024-03-08,2024-03-08,株式会社大東京建設,,株式会社,埼玉県,川口市,川口５丁目１３番４号ガーデンハイツ川口２０２号,,11,203,3320015,,,,,,,2024-03-08,1,,,,,ダイトウキョウケンセツ,0
2329,9030003023763,新規,0,2024-03-08,2024-03-08,合同会社ＭＡＳＡＹＵＭＥ,,合同会社,埼玉県,草加市,栄町２丁目１２－１ステーションプラザ５階,,11,221,3400011,,,,,,,2024-03-08,1,,,,,マサユメ,0
2330,9030003023771,新規,0,2024-03-08,2024-03-08,合同会社インフィニット,,合同会社,埼玉県,所沢市,大字北秋津１４９番地の８,,11,208,3590038,,,,,,,2024-03-08,1,,,,,インフィニット,0
2336,9040001132532,新規,0,2024-03-08,2024-03-08,株式会社川野辺工業,,株式会社,千葉県,市川市,柏井町１丁目１７８９番地１４,,12,203,2720802,,,,,,,2024-03-08,1,,,,,カワノベコウギョウ,0
2337,9040001132565,新規,0,2024-03-08,2024-03-08,株式会社Ｂ‐ＰＰＬＩＦＥ,,株式会社,千葉県,千葉市中央区,蘇我２丁目２３番１１号,,12,101,2600822,,,,,,,2024-03-08,1,,,,,ビーピーピーライフ,0
2338,9040001132573,新規,0,2024-03-08,2024-03-08,株式会社清野商事,,株式会社,千葉県,匝瑳市,八日市場ホ１５２１番地,,12,235,2892146,,,,,,,2024-03-08,1,,,,,セイノショウジ,0
2340,9040003024496,新規,0,2024-03-08,2024-03-08,壮エンタープライズ合同会社,,合同会社,千葉県,浦安市,東野１丁目２３番１２－２０２号,,12,227,2790042,,,,,,,2024-03-08,1,,,,,ソウエンタープライズ,0
2341,9040003024505,新規,0,2024-03-08,2024-03-08,イツキメンテナンス合同会社,,合同会社,千葉県,柏市,豊住１丁目４,,12,217,2770071,,,,,,,2024-03-08,1,,,,,イツキメンテナンス,0
2345,9050001054412,新規,0,2024-03-08,2024-03-08,株式会社Ｕｎｉｔｓ,,株式会社,茨城県,龍ケ崎市,平台５丁目１０番地１２,,08,208,3010003,,,,,,,2024-03-08,1,,,,,ユニッツ,0
2348,9060001036896,新規,0,2024-03-08,2024-03-08,株式会社ワイエムオート,,株式会社,栃木県,小山市,大字中久喜１５２４番地３,,09,208,3230806,,,,,,,2024-03-08,1,,,,,ワイエムオート,0
2350,9070003005304,新規,0,2024-03-08,2024-03-08,合同会社ヒロミベース,,合同会社,群馬県,桐生市,菱町３丁目２１０７番地５,,10,203,3760001,,,,,,,2024-03-08,1,,,,,ヒロミベース,0
2357,9090001018586,新規,0,2024-03-08,2024-03-08,株式会社シャッフル,,株式会社,山梨県,中巨摩郡昭和町,飯喰１５５４番地２,,19,384,4093852,,,,,,,2024-03-08,1,,,,,シャッフル,0
2363,9110003005316,新規,0,2024-03-08,2024-03-08,合同会社Ｏ１３６,,合同会社,新潟県,長岡市,高見町１６６８番地１,,15,202,9400004,,,,,,,2024-03-08,1,,,,,オーイチサンロク,0
2372,9120001262866,新規,0,2024-03-08,2024-03-08,株式会社ＡＣＮホールディングス,,株式会社,大阪府,大阪市中央区,城見２丁目１番６１号,,27,128,5400001,,,,,,,2024-03-08,1,,,,,エーシーエヌホールディングス,0
2373,9120001262899,新規,0,2024-03-08,2024-03-08,ＫＡＳ株式会社,,株式会社,大阪府,大阪市中央区,谷町６丁目４番３４号,,27,128,5420012,,,,,,,2024-03-08,1,,,,,カス,0
2374,9120001262932,新規,0,2024-03-08,2024-03-08,株式会社ｏｎｅ　ｈｏｍｅ,,株式会社,大阪府,大阪市淀川区,宮原２丁目１１番６号,,27,123,5320003,,,,,,,2024-03-08,1,,,,,ワンホーム,0
2375,9120001262973,新規,0,2024-03-08,2024-03-08,八達株式会社,,株式会社,大阪府,大阪市東成区,中道１丁目１２－１０－５１１号,,27,115,5370025,,,,,,,2024-03-08,1,,,,,ハッタツ,0
2376,9120001262998,新規,0,2024-03-08,2024-03-08,株式会社Ｉ．Ｉ　Ｃａｒｅ　Ｓｏｌｕｔｉｏｎｓ,,株式会社,大阪府,大阪市東成区,中本４丁目１３番５号,,27,115,5370022,,,,,,,2024-03-08,1,,,,,アイアイケアソリューションズ,0
2377,9120001263006,新規,0,2024-03-08,2024-03-08,株式会社ナガトモ不動産,,株式会社,大阪府,大阪市北区,梅田１丁目１番３－２００号,,27,127,5300001,,,,,,,2024-03-08,1,,,,,ナガトモフドウサン,0
2378,9120001263014,新規,0,2024-03-08,2024-03-08,株式会社三山工務店,,株式会社,大阪府,大阪市生野区,巽北３丁目１０番８号,00134006,27,116,5440004,,,,,,,2024-03-08,1,,,,,ミヤマコウムテン,0
2379,9120001263030,新規,0,2024-03-08,2024-03-08,株式会社Ｒｅｐａｒｉｅｒｅｎ,,株式会社,大阪府,寝屋川市,黒原城内町１８番８号,,27,215,5720050,,,,,,,2024-03-08,1,,,,,レパリーレン,0
2382,9120003026096,新規,0,2024-03-08,2024-03-08,合同会社ＬＱ　ＳＴＯＲＥ,,合同会社,大阪府,大阪市東成区,大今里南３丁目６番７号,,27,115,5370013,,,,,,,2024-03-08,1,,,,,エルキューストアー,0
2383,9120003026105,新規,0,2024-03-08,2024-03-08,合同会社ＦＷＳ,,合同会社,大阪府,大阪市東住吉区,桑津３丁目２６番２号天王寺ジェイオービル３Ｆ,,27,121,5460041,,,,,,,2024-03-08,1,,,,,エフダブルエス,0
2384,9120005024180,新規,0,2024-03-08,2024-03-08,社会福祉法人孝栄会,,その他の設立登記法人,大阪府,交野市,幾野３丁目２６番１６－１０２号,,27,230,5760054,,,,,,,2024-03-08,1,,,,,コウエイカイ,0
2386,9120101069179,新規,0,2024-03-08,2024-03-08,株式会社ケアフォーオール,,株式会社,大阪府,大阪狭山市,狭山１丁目８３１番地の１、１０６号室,,27,231,5890005,,,,,,,2024-03-08,1,,,,,ケアフォーオール,0
2398,9130001076522,新規,0,2024-03-08,2024-03-08,株式会社ＫＰＧ　Ｗｅｌｌｎｅｓｓ　Ｋｙｏｔｏ,,株式会社,京都府,南丹市,園部町大河内広谷１番地の１４,,26,213,6220065,,,,,,,2024-03-08,1,,,,,ケーピージーウェルネスキョウト,0
2399,9130001076530,新規,0,2024-03-08,2024-03-08,株式会社おおきに,,株式会社,京都府,京都市上京区,室町通上長者町上る花立町５０４番地,,26,102,6020914,,,,,,,2024-03-08,1,,,,,オオキニ,0
2400,9130001076547,新規,0,2024-03-08,2024-03-08,株式会社十一,,株式会社,京都府,京都市左京区,吉田上阿達町５１番地,,26,103,6068307,,,,,,,2024-03-08,1,,,,,ジュウイチ,0
2401,9130005017027,新規,0,2024-03-08,2024-03-08,一般社団法人メドグラティアム,,その他の設立登記法人,京都府,京都市伏見区,桃山町大蔵１７１番地,,26,109,6120853,,,,,,,2024-03-08,1,,,,,メドグラティアム,0
2405,9140001133611,新規,0,2024-03-08,2024-03-08,株式会社ｚｏｉＬｅ,,株式会社,兵庫県,加東市,社１５３６－１－２Ｆ,,28,228,6731431,,,,,,,2024-03-08,1,,,,,ゾイレ,0
2409,9140003020246,新規,0,2024-03-08,2024-03-08,合同会社ＯＮＥ,,合同会社,兵庫県,明石市,大久保町大窪９５８－２－Ｊ２０１,,28,203,6740051,,,,,,,2024-03-08,1,,,,,ワン,0
2410,9140003020254,新規,0,2024-03-08,2024-03-08,エヌプラン合同会社,,合同会社,兵庫県,伊丹市,池尻６丁目１２６番地５,,28,207,6640027,,,,,,,2024-03-08,1,,,,,エヌプラン,0
2412,9150001027127,新規,0,2024-03-08,2024-03-08,株式会社わきたに葬祭,,株式会社,奈良県,桜井市,大字外山６２５番地,,29,206,6330007,,,,,,,2024-03-08,1,,,,,ワキタニソウサイ,0
2414,9160005011282,新規,0,2024-03-08,2024-03-08,医療法人社団ナオデンタルオフィス竹村歯科,,その他の設立登記法人,滋賀県,草津市,南草津２丁目３番地６プリエールソシア１０２号室,,25,206,5250050,,,,,,,2024-03-08,1,,,,,ナオデンタルオフィスタケムラシカ,0
2418,9170001018041,新規,0,2024-03-08,2024-03-08,株式会社ＮＡＧＯＭＩ,,株式会社,和歌山県,日高郡日高川町,大字坂野川２０３番地,,30,392,6441161,,,,,,,2024-03-08,1,,,,,ナゴミ,0
2419,9170003001994,新規,0,2024-03-08,2024-03-08,合同会社Ｆｋｏｋｉ,,合同会社,和歌山県,紀の川市,尾崎１１８番地１１,,30,208,6496423,,,,,,,2024-03-08,1,,,,,エフコーキ,0
2426,9180001160486,新規,0,2024-03-08,2024-03-08,株式会社ｍａｎａｂｉＹａ,,株式会社,愛知県,名古屋市西区,那古野２丁目１４番１号なごのキャンパス,,23,104,4510042,,,,,,,2024-03-08,1,,,,,マナビヤ,0
2430,9180003026462,新規,0,2024-03-08,2024-03-08,合同会社円,,合同会社,愛知県,名古屋市中村区,名駅３丁目４－１０アルティメイト名駅１ｓｔ２階,,23,105,4500002,,,,,,,2024-03-08,1,,,,,マドカ,0
2431,9180303006024,新規,0,2024-03-08,2024-03-08,合同会社Ｋ．Ｐ．Ｉ,,合同会社,愛知県,刈谷市,稲場町４丁目２１４番地,,23,210,4480038,,,,,,,2024-03-08,1,,,,,ケーピーアイ,0
2432,9190001031166,新規,0,2024-03-08,2024-03-08,株式会社ＮＩＫＫＥＮ,,株式会社,三重県,いなべ市,員弁町北金井１８０９番地１,,24,214,5110223,,,,,,,2024-03-08,1,,,,,ニッケン,0
2438,9200003006255,新規,0,2024-03-08,2024-03-08,合同会社ＭＵＳＵＢＩ,,合同会社,岐阜県,揖斐郡池田町,下東野５７３番地の１４,,21,404,5032414,,,,,,,2024-03-08,1,,,,,ムスビ,0
2445,9240005015738,新規,0,2024-03-08,2024-03-08,特定非営利活動法人魂むすひ,,その他の設立登記法人,広島県,東広島市,西条中央７丁目３番１７号新井ビル２０３号,,34,212,7390025,,,,,,,2024-03-08,1,,,,,タマムスビ,0
2457,9290001104936,新規,0,2024-03-08,2024-03-08,株式会社タナキヨ,,株式会社,福岡県,福岡市中央区,高砂１丁目１９番１６－２０６号,,40,133,8100011,,,,,,,2024-03-08,1,,,,,タナキヨ,0
2458,9290001104969,新規,0,2024-03-08,2024-03-08,株式会社結会計事務所,,株式会社,福岡県,福津市,中央２丁目８番１－２２３号,,40,224,8113217,,,,,,,2024-03-08,1,,,,,ユイカイケイジムショ,0
2459,9290001104993,新規,0,2024-03-08,2024-03-08,株式会社丸恵,,株式会社,福岡県,福岡市西区,今宿東１丁目１６番２２号,,40,135,8190161,,,,,,,2024-03-08,1,,,,,マルケイ,0
2463,9290003015033,新規,0,2024-03-08,2024-03-08,合同会社ＲＥＤＡＹ,,合同会社,福岡県,糸島市,二丈深江７丁目１７番１４号,,40,230,8191601,,,,,,,2024-03-08,1,,,,,リディ,0
2466,9290801030381,新規,0,2024-03-08,2024-03-08,株式会社ネクストページ,,株式会社,福岡県,北九州市小倉北区,浅野３丁目８番１号ＡＩＭビル６階,,40,106,8020001,,,,,,,2024-03-08,1,,,,,ネクストページ,0
2468,9310005008750,新規,0,2024-03-08,2024-03-08,医療法人博豊会,,その他の設立登記法人,長崎県,諫早市,多良見町化屋４８１番地３,,42,204,8590401,,,,,,,2024-03-08,1,,,,,ハクホウカイ,0
2472,9330001031829,新規,0,2024-03-08,2024-03-08,株式会社フモト,,株式会社,熊本県,球磨郡錦町,大字西６２２番地４,,43,501,8680303,,,,,,,2024-03-08,1,,,,,フモト,0
2478,9360001033293,新規,0,2024-03-08,2024-03-08,株式会社心アセットマネジメント,,株式会社,沖縄県,那覇市,おもろまち２丁目５番３８－４０３号プレサンスロジェおもろまちレーヴ,,47,201,9000006,,,,,,,2024-03-08,1,,,,,ココロアセットマネジメント,0
2479,9360001033302,新規,0,2024-03-08,2024-03-08,ＣＬＥＡＲ株式会社,,株式会社,沖縄県,沖縄市,泡瀬４丁目２番７号１０２,,47,211,9042172,,,,,,,2024-03-08,1,,,,,クリア,0
2491,9390003002211,新規,0,2024-03-08,2024-03-08,合同会社Ｂｅａ,,合同会社,山形県,飽海郡遊佐町,野沢字野沢１９１番地の１,,06,461,9998303,,,,,,,2024-03-08,1,,,,,ベア,0
2493,9420001018627,新規,0,2024-03-08,2024-03-08,長内建築研究所株式会社,,株式会社,青森県,北津軽郡鶴田町,大字鶴泊字東田４５番地２,,02,384,0383522,,,,,,,2024-03-08,1,,,,,オサナイケンチクケンキュウジョ,0
2498,9430001091235,新規,0,2024-03-08,2024-03-08,株式会社加藤,,株式会社,北海道,札幌市手稲区,手稲本町三条４丁目５番５号,,01,109,0060023,,,,,,,2024-03-08,1,,,,,カトウ,0
2499,9430001091251,新規,0,2024-03-08,2024-03-08,ｔｅｍａｎｅｋｉ株式会社,,株式会社,北海道,札幌市白石区,東札幌五条１丁目１番１号,,01,104,0030005,,,,,,,2024-03-08,1,,,,,テマネキ,0
2500,9430003016033,新規,0,2024-03-08,2024-03-08,合同会社畔,,合同会社,北海道,虻田郡洞爺湖町,洞爺町７番地１８,,01,584,0495802,,,,,,,2024-03-08,1,,,,,ハン,0
2503,9500001025499,新規,0,2024-03-08,2024-03-08,キョクヨーマリン愛南株式会社,,株式会社,愛媛県,南宇和郡愛南町,久良３９２番２,,38,506,7984353,,,,,,,2024-03-08,1,,,,,,0
