sequenceNumber,corporateNumber,process,correct,updateDate,changeDate,name,nameImageId,kind,prefectureName,cityName,streetNumber,addressImageId,prefectureCode,cityCode,postCode,addressOutside,addressOutsideImageId,closeDate,closeCause,successorCorporateNumber,changeCause,assignmentDate,latest,enName,enPrefectureName,enCityName,enAddressOutside,furigana,hihyoji
10,1010003047870,新規,0,2025-07-18,2025-07-18,合同会社フォレストマスター,,合同会社,東京都,千代田区,神田須田町１丁目７番８号ＶＯＲＴ秋葉原ＩＶ２Ｆ,00139986,13,101,1010041,,,,,,,2025-07-18,1,,,,,フォレストマスター,0
11,1010003048076,新規,0,2025-07-18,2025-07-18,東京レジＳＲ１３合同会社,,合同会社,東京都,千代田区,丸の内１丁目４番１号東京共同会計事務所内,,13,101,1000005,,,,,,,2025-07-18,1,,,,,トウキョウレジエスアールサーティーン,0
25,1010401191808,新規,0,2025-07-18,2025-07-18,株式会社ＧＸ　ＬＡＢ,,株式会社,東京都,港区,赤坂４丁目１３番５号２５０号室,,13,103,1070052,,,,,,,2025-07-18,1,,,,,ジーエックスラボ,0
26,1010401191849,新規,0,2025-07-18,2025-07-18,株式会社ｈｕｄｄｌｅ　ｆｏｒ,,株式会社,東京都,港区,高輪４丁目２３番８号シオンプラザ３階,,13,103,1080074,,,,,,,2025-07-18,1,,,,,ハドルフォー,0
29,1010403035616,新規,0,2025-07-18,2025-07-18,Ｒｅ．Ｓｐｉｒｒ合同会社,,合同会社,東京都,港区,南麻布１丁目７番４０－１００３号,,13,103,1060047,,,,,,,2025-07-18,1,,,,,レスピールル,0
30,1010405024534,新規,0,2025-07-18,2025-07-18,一般社団法人健全ＡＩ教育協会,,その他の設立登記法人,東京都,港区,新橋４丁目１４番１号新橋ＡＵＮＢＬＤＧ．４Ｆ,,13,103,1050004,,,,,,,2025-07-18,1,,,,,ケンゼンエーアイキョウイクキョウカイ,0
36,1010701048006,新規,0,2025-07-18,2025-07-18,株式会社Ｍ＆Ｙ,,株式会社,東京都,品川区,西五反田１丁目４番８号秀和五反田駅前レジデンス３０９,,13,109,1410031,,,,,,,2025-07-18,1,,,,,エムアンドワイ,0
37,1010703007810,新規,0,2025-07-18,2025-07-18,合同会社ＬＡＬＡＶ,,合同会社,東京都,品川区,二葉１丁目８番１０号品川法務・登記総合事務所内,,13,109,1420043,,,,,,,2025-07-18,1,,,,,ララブ,0
41,1010901057764,新規,0,2025-07-18,2025-07-18,株式会社スリー・イーＨＤ,,株式会社,東京都,世田谷区,深沢７丁目１６番２０号ラレースフォレスト深沢Ｈ棟,,13,112,1580081,,,,,,,2025-07-18,1,,,,,スリーイーホールディングス,0
48,1011001170870,新規,0,2025-07-18,2025-07-18,Ｅｓｈｋａ株式会社,,株式会社,東京都,目黒区,碑文谷５丁目２番５号Ｔ＆Ａビル５階,,13,110,1520003,,,,,,,2025-07-18,1,,,,,エシュカ,0
49,1011001170920,新規,0,2025-07-18,2025-07-18,株式会社ＳＡＲＡＴＥＣ．Ｍｅ,,株式会社,東京都,渋谷区,円山町５番３号ＭＩＥＵＸ渋谷ビル８階,,13,113,1500044,,,,,,,2025-07-18,1,,,,,サラテックミー,0
50,1011001170953,新規,0,2025-07-18,2025-07-18,株式会社インフレーション,,株式会社,東京都,目黒区,下目黒１丁目１番１４号コノトラビル７Ｆ,,13,110,1530064,,,,,,,2025-07-18,1,,,,,インフレーション,0
51,1011001171002,新規,0,2025-07-18,2025-07-18,株式会社ラテル,,株式会社,東京都,目黒区,下目黒５丁目１１番１７号,,13,110,1530064,,,,,,,2025-07-18,1,,,,,ラテル,0
52,1011001171019,新規,0,2025-07-18,2025-07-18,株式会社ＡＩＳ　Ｃｏｎｓｕｌｔｉｎｇ,,株式会社,東京都,渋谷区,道玄坂１丁目１０番８号渋谷道玄坂東急ビル２Ｆ－Ｃ,,13,113,1500043,,,,,,,2025-07-18,1,,,,,アイズコンサルティング,0
53,1011003022038,新規,0,2025-07-18,2025-07-18,合同会社Ｎｅｘｕｓ,,合同会社,東京都,渋谷区,恵比寿西２丁目１１－２５メゾン代官山３０１,,13,113,1500021,,,,,,,2025-07-18,1,,,,,ネクサス,0
54,1011003022046,新規,0,2025-07-18,2025-07-18,Ｍａｉｓｏｎ　Ｅｎｊｕｒｅ合同会社,,合同会社,東京都,目黒区,南１丁目３番９－１０１号グランシティ目黒碑文谷,,13,110,1520013,,,,,,,2025-07-18,1,,,,,メゾンアンジュール,0
58,1011503006614,新規,0,2025-07-18,2025-07-18,合同会社未来,,合同会社,東京都,北区,東十条４丁目６番１２号－１０３,,13,117,1140001,,,,,,,2025-07-18,1,,,,,ミライ,0
59,1011701028526,新規,0,2025-07-18,2025-07-18,株式会社テクノホールディングス,,株式会社,東京都,江戸川区,篠崎町７丁目２６番２号プロヴァンスファーム５０２,,13,123,1330061,,,,,,,2025-07-18,1,,,,,テクノホールディングス,0
60,1011703004319,新規,0,2025-07-18,2025-07-18,合同会社ユキ,,合同会社,東京都,江戸川区,南小岩８丁目２３－９ダイヤモンドレジデンス南小岩４０２,,13,123,1330056,,,,,,,2025-07-18,1,,,,,ユキ,0
61,1011801046477,新規,0,2025-07-18,2025-07-18,栄騰株式会社,,株式会社,東京都,足立区,足立４丁目１３番６,,13,121,1200015,,,,,,,2025-07-18,1,,,,,エイトウ,0
65,1012401043311,新規,0,2025-07-18,2025-07-18,ＫｉｍＰａｘ株式会社,,株式会社,東京都,稲城市,長峰３丁目２杜の一番街２―１２０８,,13,225,2060821,,,,,,,2025-07-18,1,,,,,キンパクス,0
75,1020005016930,新規,0,2025-07-18,2025-07-18,特定非営利活動法人神奈川ボッチャ協会,,その他の設立登記法人,神奈川県,横浜市鶴見区,馬場３丁目１０番１９号,,14,101,2300076,,,,,,,2025-07-18,1,,,,,カナガワボッチャキョウカイ,0
78,1021001085820,新規,0,2025-07-18,2025-07-18,株式会社ＮＩＮＥ,,株式会社,神奈川県,座間市,ひばりが丘１丁目１番２５号１０３号室,,14,216,2520003,,,,,,,2025-07-18,1,,,,,ナイン,0
80,1021003016294,新規,0,2025-07-18,2025-07-18,岩田防水合同会社,,合同会社,神奈川県,相模原市中央区,矢部３丁目４番１２号ビラージュ矢部１０１,,14,152,2520232,,,,,,,2025-07-18,1,,,,,イワタボウスイ,0
90,1030001167727,新規,0,2025-07-18,2025-07-18,株式会社Ｔスタイル,,株式会社,埼玉県,川口市,大字西新井宿１２１番地の６,,11,203,3330833,,,,,,,2025-07-18,1,,,,,ティースタイル,0
94,1030003027210,新規,0,2025-07-18,2025-07-18,アシナエンタープライズ合同会社,,合同会社,埼玉県,熊谷市,東別府２４２３番地１１,,11,202,3600852,,,,,,,2025-07-18,1,,,,,アシナエンタープライズ,0
97,1060001038413,新規,0,2025-07-18,2025-07-18,株式会社Ｓａｖｅ　Ｂｅｅｓ,,株式会社,栃木県,宇都宮市,豊郷台３丁目５４番地１,,09,201,3200003,,,,,,,2025-07-18,1,,,,,セイブビーズ,0
101,1080403005307,新規,0,2025-07-18,2025-07-18,朗道金合同会社,,合同会社,静岡県,浜松市中央区,城北２丁目５番１０号リアライズ城北４１２,,22,138,4328011,,,,,,,2025-07-18,1,,,,,ロドキン,0
112,1120001277970,新規,0,2025-07-18,2025-07-18,株式会社原運送,,株式会社,大阪府,大阪市此花区,春日出中２丁目５番１６－４０３号,,27,104,5540022,,,,,,,2025-07-18,1,,,,,ハラウンソウ,0
119,1120003030015,新規,0,2025-07-18,2025-07-18,合同会社中立,,合同会社,大阪府,大阪市住吉区,長居東４丁目７－１,,27,120,5580004,,,,,,,2025-07-18,1,,,,,チュウリツ,0
120,1120003030023,新規,0,2025-07-18,2025-07-18,Ｔｕｌｉｐｓ合同会社,,合同会社,大阪府,大阪市平野区,加美鞍作３丁目１２番１９号,,27,126,5470004,,,,,,,2025-07-18,1,,,,,チューリップス,0
121,1120005025054,新規,0,2025-07-18,2025-07-18,医療法人桃縁会,,その他の設立登記法人,大阪府,大阪市中央区,瓦町１丁目７番２号ＭＦＧ中央ビル１Ｆ,,27,128,5410048,,,,,,,2025-07-18,1,,,,,トウエンカイ,0
123,1120103006583,新規,0,2025-07-18,2025-07-18,サンアグリビレッジ合同会社,,合同会社,大阪府,堺市美原区,真福寺２４０,,27,147,5870013,,,,,,,2025-07-18,1,,,,,サンアグリビレッジ,0
127,1130001080110,新規,0,2025-07-18,2025-07-18,桃花源株式会社,,株式会社,京都府,京都市左京区,下鴨貴船町４９番地２－３０３,,26,103,6060813,,,,,,,2025-07-18,1,,,,,トウカゲン,0
129,1130003010593,新規,0,2025-07-18,2025-07-18,合同会社ＷＯＷ,,合同会社,京都府,京都市中京区,新町通三条上る町頭町１１２番地菊三ビル２階２０１号,,26,104,6048206,,,,,,,2025-07-18,1,,,,,ワヲ,0
131,1140001139252,新規,0,2025-07-18,2025-07-18,株式会社ＫＡＴＡＤＡ,,株式会社,兵庫県,姫路市,本町２２４番地,,28,201,6700012,,,,,,,2025-07-18,1,,,,,カタダ,0
132,1140001139319,新規,0,2025-07-18,2025-07-18,株式会社ＣＢＳクリエイト,,株式会社,兵庫県,神戸市中央区,海岸通６番地,,28,110,6500024,,,,,,,2025-07-18,1,,,,,シービーエスクリエイト,0
137,1150003003661,新規,0,2025-07-18,2025-07-18,合同会社Ｐｏｃｋｅｔ　Ｓｈｉｓｈａ,,合同会社,奈良県,香芝市,鎌田４３８番地９０,,29,210,6390227,,,,,,,2025-07-18,1,,,,,ポケットシーシャ,0
144,1180301040024,新規,0,2025-07-18,2025-07-18,ＣＲＥＡクリーンアンバサダー株式会社,,株式会社,愛知県,豊田市,若宮町７丁目１番地１１,,23,211,4710026,,,,,,,2025-07-18,1,,,,,クレアクリーンアンバサダー,0
146,1180303006659,新規,0,2025-07-18,2025-07-18,合同会社リント,,合同会社,愛知県,蒲郡市,大塚町半後４０番地１３,,23,214,4430013,,,,,,,2025-07-18,1,,,,,リント,0
161,1290001110727,新規,0,2025-07-18,2025-07-18,株式会社絆工業,,株式会社,福岡県,嘉穂郡桂川町,大字吉隈８２３番地２,,40,421,8200609,,,,,,,2025-07-18,1,,,,,キズナコウギョウ,0
162,1290001110776,新規,0,2025-07-18,2025-07-18,株式会社ｎ,,株式会社,福岡県,久留米市,中央町７番地１０,,40,203,8300023,,,,,,,2025-07-18,1,,,,,エヌ,0
166,1290003017094,新規,0,2025-07-18,2025-07-18,合同会社Ｒ,,合同会社,福岡県,福岡市博多区,博多駅前２丁目１０－１２ハイラーク博多駅前２１０号,,40,132,8120011,,,,,,,2025-07-18,1,,,,,アール,0
168,1290801031726,新規,0,2025-07-18,2025-07-18,株式会社ノーブルベット,,株式会社,福岡県,北九州市八幡東区,桃園２丁目１４番１１号,,40,108,8050068,,,,,,,2025-07-18,1,,,,,ノーブルベット,0
172,1340003004905,新規,0,2025-07-18,2025-07-18,合同会社ＣＡＬＩＣＯ,,合同会社,鹿児島県,鹿児島市,西田１丁目３番地２－１３０８号,,46,201,8900046,,,,,,,2025-07-18,1,,,,,キャリコ,0
174,1350001019664,新規,0,2025-07-18,2025-07-18,株式会社木花リアルティ,,株式会社,宮崎県,宮崎市,学園木花台南３丁目２９－９,,45,201,8892153,,,,,,,2025-07-18,1,,,,,キバナリアルティ,0
176,1350003004978,新規,0,2025-07-18,2025-07-18,合同会社旅と９３０ＫＩ,,合同会社,宮崎県,都城市,上川東４丁目５９７５－１ＣＯＮＮＥＣＴ２Ｆ,,45,202,8850012,,,,,,,2025-07-18,1,,,,,タビトクスノキ,0
189,1380001035469,新規,0,2025-07-18,2025-07-18,ケーオーアール株式会社,,株式会社,福島県,本宮市,仁井田字村山３番地１７７,,07,214,9691103,,,,,,,2025-07-18,1,,,,,ケーオーアール,0
200,1430001094864,新規,0,2025-07-18,2025-07-18,ＫＡＩＪＵ　ＧＲＯＵＰ株式会社,,株式会社,北海道,札幌市中央区,南十四条西７丁目３番４０－６０８号,,01,101,0640914,,,,,,,2025-07-18,1,,,,,カイジュウグループ,0
201,1430001094889,新規,0,2025-07-18,2025-07-18,株式会社コモリク,,株式会社,北海道,札幌市中央区,北四条西７丁目５番地緑苑第２ビル,,01,101,0600004,,,,,,,2025-07-18,1,,,,,コモリク,0
208,1500001026414,新規,0,2025-07-18,2025-07-18,株式会社七福,,株式会社,愛媛県,松山市,千舟町５丁目１番地６三宅ビル６階,,38,201,7900011,,,,,,,2025-07-18,1,,,,,シチフク,0
216,2010003048075,新規,0,2025-07-18,2025-07-18,東京レジＳＲ１２合同会社,,合同会社,東京都,千代田区,丸の内１丁目４番１号東京共同会計事務所内,,13,101,1000005,,,,,,,2025-07-18,1,,,,,トウキョウレジエスアールトゥエルブ,0
217,2010005040344,新規,0,2025-07-18,2025-07-18,一般社団法人カーボンクレジットトラスト,,その他の設立登記法人,東京都,中央区,銀座１丁目２２番１１号銀座大竹ビジデンス２階,,13,102,1040061,,,,,,,2025-07-18,1,,,,,カーボンクレジットトラスト,0
220,2010401191732,新規,0,2025-07-18,2025-07-18,ラキセリア株式会社,,株式会社,東京都,港区,赤坂２丁目２１番４号天翔オフィス赤坂ＡＮＮＥＸ３０５－Ｂ,,13,103,1070052,,,,,,,2025-07-18,1,,,,,ラキセリア,0
221,2010401191765,新規,0,2025-07-18,2025-07-18,株式会社ｒａｐｉｄｏ１,,株式会社,東京都,港区,南青山３丁目１番３６号青山丸竹ビル６Ｆ,,13,103,1070062,,,,,,,2025-07-18,1,,,,,ラピドワン,0
222,2010401191773,新規,0,2025-07-18,2025-07-18,Ｈｅｌｌｏ　Ｃｌｅｖｅｒ　Ｊａｐａｎ株式会社,,株式会社,東京都,港区,北青山１丁目３－３三橋ビル３階,,13,103,1070061,,,,,,,2025-07-18,1,,,,,ハロークレバージャパン,0
223,2010401191781,新規,0,2025-07-18,2025-07-18,株式会社ＳＹＮＫＥＮ,,株式会社,東京都,港区,西麻布４丁目１４番１９号サットンアームズ３０１,,13,103,1060031,,,,,,,2025-07-18,1,,,,,シンケン,0
224,2010401191864,新規,0,2025-07-18,2025-07-18,株式会社ＭａＭａ,,株式会社,東京都,港区,北青山１丁目３番１号,,13,103,1070061,,,,,,,2025-07-18,1,,,,,ママ,0
227,2010403035623,新規,0,2025-07-18,2025-07-18,ａｊｍａｌ　ｗｏｒｋｓ合同会社,,合同会社,東京都,港区,北青山１丁目３－３三橋ビル３階,,13,103,1070061,,,,,,,2025-07-18,1,,,,,アジマルワークス,0
232,2010701048005,新規,0,2025-07-18,2025-07-18,株式会社テコ,,株式会社,東京都,品川区,西五反田３丁目１５番６号リードシー目黒不動前ビル５－２２,,13,109,1410031,,,,,,,2025-07-18,1,,,,,テコ,0
233,2010701048013,新規,0,2025-07-18,2025-07-18,株式会社Ｈｙａｋｕ,,株式会社,東京都,品川区,西五反田１丁目１３番７号マルキビル３階,,13,109,1410031,,,,,,,2025-07-18,1,,,,,ヒャク,0
249,2011001170696,新規,0,2025-07-18,2025-07-18,株式会社ｂｅ　ｂｏｒｎ,,株式会社,東京都,目黒区,中央町１丁目１５－２１,,13,110,1520001,,,,,,,2025-07-18,1,,,,,ビーボーン,0
250,2011001170886,新規,0,2025-07-18,2025-07-18,株式会社Ｆａｎｉｔｙ,,株式会社,東京都,渋谷区,恵比寿南１丁目１－１ヒューマックス恵比寿ビル７階,,13,113,1500022,,,,,,,2025-07-18,1,,,,,ファニティー,0
251,2011001170952,新規,0,2025-07-18,2025-07-18,ＵＮＩＣＯＲＥ株式会社,,株式会社,東京都,渋谷区,神南１丁目１１番４号ＦＰＧリンクス神南５階,,13,113,1500041,,,,,,,2025-07-18,1,,,,,ユニコア,0
252,2011003022012,新規,0,2025-07-18,2025-07-18,ｉｗｉ合同会社,,合同会社,東京都,渋谷区,道玄坂１丁目１０番８号渋谷道玄坂東急ビル２Ｆ－Ｃ,,13,113,1500043,,,,,,,2025-07-18,1,,,,,アイウィー,0
253,2011003022053,新規,0,2025-07-18,2025-07-18,プロパティケア合同会社,,合同会社,東京都,目黒区,碑文谷３丁目１６番７号,,13,110,1520003,,,,,,,2025-07-18,1,,,,,プロパティケア,0
262,2011101112607,新規,0,2025-07-18,2025-07-18,株式会社ＫＢクリーニング,,株式会社,東京都,新宿区,西新宿４丁目１７番１３号４０１,,13,104,1600023,,,,,,,2025-07-18,1,,,,,ケービークリーニング,0
263,2011103016145,新規,0,2025-07-18,2025-07-18,合同会社Ｎｏｃｔｉｒ,,合同会社,東京都,新宿区,大久保２丁目８－７宮本マンション１０２号,,13,104,1690072,,,,,,,2025-07-18,1,,,,,ノクティア,0
271,2011501032330,新規,0,2025-07-18,2025-07-18,株式会社バリューワン,,株式会社,東京都,北区,浮間３丁目３５番３号２０１,,13,117,1150051,,,,,,,2025-07-18,1,,,,,バリューワン,0
274,2011703004318,新規,0,2025-07-18,2025-07-18,合同会社ＰＥＡＣＯＣＫＥＧＧ,,合同会社,東京都,江戸川区,西篠崎２丁目２３－５エヴァーグリーンＢ－１,,13,123,1330055,,,,,,,2025-07-18,1,,,,,ピーコックエッグ,0
280,2012401043351,新規,0,2025-07-18,2025-07-18,株式会社ディアスタット,,株式会社,東京都,三鷹市,上連雀３丁目６番１７号,,13,204,1810012,,,,,,,2025-07-18,1,,,,,ディアスタット,0
282,2012705002466,新規,0,2025-07-18,2025-07-18,一般社団法人ｋｕｕ,,その他の設立登記法人,東京都,東村山市,野口町３丁目８番地３８,,13,213,1890022,,,,,,,2025-07-18,1,,,,,クウ,0
299,2020003028927,新規,0,2025-07-18,2025-07-18,Ｐｕｌｓｅｔｅｃｈ　ＪＰ合同会社,,合同会社,神奈川県,横浜市中区,桜木町１丁目１番７号ヒューリックみなとみらい１０階,,14,104,2310062,,,,,,,2025-07-18,1,,,,,パルステックジェーピー,0
300,2020003028943,新規,0,2025-07-18,2025-07-18,ＴｒｅｅＰｌａｎｔ合同会社,,合同会社,神奈川県,横浜市栄区,飯島町３１４－３ダイアパレスワンダースケープ３１４,,14,115,2440842,,,,,,,2025-07-18,1,,,,,ツリープラント,0
306,2021003016277,新規,0,2025-07-18,2025-07-18,ＹＲＯ合同会社,,合同会社,神奈川県,小田原市,城山１丁目４番１－１６０６号,,14,206,2500045,,,,,,,2025-07-18,1,,,,,ワイアールオー,0
311,2030001167461,新規,0,2025-07-18,2025-07-18,株式会社ＪＡＭ,,株式会社,埼玉県,さいたま市中央区,鈴谷４丁目１１番１５号,,11,105,3380013,,,,,,,2025-07-18,1,,,,,ジャム,0
312,2030001167718,新規,0,2025-07-18,2025-07-18,株式会社ｃｒｅａｔｉｖｅ２００,,株式会社,埼玉県,さいたま市大宮区,仲町１丁目７１番地東京レジャービル２Ｆ,,11,103,3300845,,,,,,,2025-07-18,1,,,,,クリエイティブニヒャク,0
318,2030003027201,新規,0,2025-07-18,2025-07-18,ＫＯＮＥＴＨ合同会社,,合同会社,埼玉県,南埼玉郡宮代町,中央３丁目４番９－２０３,,11,442,3450821,,,,,,,2025-07-18,1,,,,,コネツ,0
323,2040001139716,新規,0,2025-07-18,2025-07-18,株式会社あかつき,,株式会社,千葉県,千葉市中央区,新宿２丁目５番６号エクセレントシティ千葉中央ステーションフロント１４０４号,,12,101,2600021,,,,,,,2025-07-18,1,,,,,アカツキ,0
324,2040001139724,新規,0,2025-07-18,2025-07-18,玲和工業株式会社,,株式会社,千葉県,市原市,五井５８００番地７９,,12,219,2900056,,,,,,,2025-07-18,1,,,,,レイワコウギョウ,0
327,2040005022827,新規,0,2025-07-18,2025-07-18,司法書士法人大平事務所,,その他の設立登記法人,千葉県,鎌ケ谷市,中央１丁目１番３２号,,12,224,2730124,,,,,,,2025-07-18,1,,,,,オオヒラジムショ,0
329,2050001056951,新規,0,2025-07-18,2025-07-18,Ｉｇｎｉｔｏ株式会社,,株式会社,茨城県,小美玉市,上吉影７９番地,,08,236,3113403,,,,,,,2025-07-18,1,,,,,イグニート,0
330,2050001056976,新規,0,2025-07-18,2025-07-18,株式会社高木設計,00139979,株式会社,茨城県,稲敷市,上須田５６７番地２,,08,229,3000737,,,,,,,2025-07-18,1,,,,,タカギセッケイ,0
333,2080101025663,新規,0,2025-07-18,2025-07-18,株式会社ＳＫＰトレーディングジャパン,,株式会社,静岡県,沼津市,鳥谷１４１番地の１,,22,203,4100305,,,,,,,2025-07-18,1,,,,,エスケーピートレーディングジャパン,0
341,2100005013373,新規,0,2025-07-18,2025-07-18,一般社団法人ＮＴＹ,,その他の設立登記法人,長野県,長野市,大字栗田１８８１番地,,20,201,3800921,,,,,,,2025-07-18,1,,,,,エヌティーワイ,0
350,2120001277838,新規,0,2025-07-18,2025-07-18,ＫＢＣグループ株式会社,,株式会社,大阪府,寝屋川市,早子町２１番１号,,27,215,5720837,,,,,,,2025-07-18,1,,,,,ケイビーシーグループ,0
351,2120001277937,新規,0,2025-07-18,2025-07-18,サラスワティ株式会社,,株式会社,大阪府,枚方市,町楠葉１丁目４番５号愛染ビル１階１０２号室,,27,210,5731106,,,,,,,2025-07-18,1,,,,,サラスワティ,0
355,2120005025037,新規,0,2025-07-18,2025-07-18,一般社団法人九菊流風水宗,,その他の設立登記法人,大阪府,大阪市中央区,島之内１丁目４番８－６０４号,,27,128,5420082,,,,,,,2025-07-18,1,,,,,キュウギクリュフウスイソウ,0
362,2130003010618,新規,0,2025-07-18,2025-07-18,京らいふブレース合同会社,,合同会社,京都府,京都市南区,久世上久世町６００番地６,,26,107,6018212,,,,,,,2025-07-18,1,,,,,キョウライフブレース,0
366,2140001139276,新規,0,2025-07-18,2025-07-18,株式会社Ｂｅ　ｗａｖｅ,,株式会社,兵庫県,神戸市中央区,中山手通１丁目４－５－４Ｃ,,28,110,6500004,,,,,,,2025-07-18,1,,,,,ビーウェイブ,0
373,2180005021162,新規,0,2025-07-18,2025-07-18,医療法人栄賀会,,その他の設立登記法人,愛知県,名古屋市千種区,今池３丁目１６番１２号三貴ビル２階,,23,101,4640850,,,,,,,2025-07-18,1,,,,,エイガカイ,0
375,2190001032410,新規,0,2025-07-18,2025-07-18,株式会社ＦＩＮＥＳＴ,,株式会社,三重県,津市,芸濃町椋本３０４０番地,,24,201,5142211,,,,,,,2025-07-18,1,,,,,ファイネスト,0
389,2230003002464,新規,0,2025-07-18,2025-07-18,合同会社ＬａＬａコンサルティング,,合同会社,富山県,高岡市,千石町１番３号,,16,202,9330847,,,,,,,2025-07-18,1,,,,,ララコンサルティング,0
391,2250001021258,新規,0,2025-07-18,2025-07-18,株式会社ビズフォース,,株式会社,山口県,宇部市,山門５丁目８番２５号,,35,202,7550077,,,,,,,2025-07-18,1,,,,,ビズフォース,0
406,2290001110734,新規,0,2025-07-18,2025-07-18,ＹＵＭＯＳＡ株式会社,,株式会社,福岡県,飯塚市,椋本５２５番地１６,,40,205,8200077,,,,,,,2025-07-18,1,,,,,ユモサ,0
407,2290001110775,新規,0,2025-07-18,2025-07-18,福岡民泊運営代行株式会社,,株式会社,福岡県,福岡市早良区,曙２丁目３－１８プレイス曙１０１,,40,137,8140004,,,,,,,2025-07-18,1,,,,,フクオカミンパクウンエイダイコウ,0
408,2290001110783,新規,0,2025-07-18,2025-07-18,株式会社アスピシャス,,株式会社,福岡県,福岡市東区,和白東５丁目５番５号,,40,131,8110214,,,,,,,2025-07-18,1,,,,,アスピシャス,0
412,2290801031725,新規,0,2025-07-18,2025-07-18,株式会社Ｈａｒｕｎｅｓｓ,,株式会社,福岡県,北九州市小倉北区,清水３丁目３番２１－１０１号,,40,106,8030841,,,,,,,2025-07-18,1,,,,,ハルネス,0
414,2300003002317,新規,0,2025-07-18,2025-07-18,合同会社Ｓｐａｒｋ,,合同会社,佐賀県,佐賀市,大和町大字久池井４００３番地１,,41,201,8400202,,,,,,,2025-07-18,1,,,,,スパーク,0
424,2330001033410,新規,0,2025-07-18,2025-07-18,アルファーＮ株式会社,,株式会社,熊本県,熊本市中央区,慶徳堀町１３番地１－５０３号,,43,101,8600014,,,,,,,2025-07-18,1,,,,,アルファーエヌ,0
425,2330003011133,新規,0,2025-07-18,2025-07-18,合同会社Ｆｏｒｙｏｕ企画,,合同会社,熊本県,熊本市中央区,帯山３丁目４８番２４号,,43,101,8620924,,,,,,,2025-07-18,1,,,,,フォーユーキカク,0
426,2330005010934,新規,0,2025-07-18,2025-07-18,一般社団法人Ｇｏ　Ｆｏｒ　Ｌｉｆｅ,,その他の設立登記法人,熊本県,熊本市中央区,帯山９丁目４番２９号,,43,101,8620924,,,,,,,2025-07-18,1,,,,,ゴーフォーライフ,0
439,2370001052860,新規,0,2025-07-18,2025-07-18,Ｉｓｌａｍ　Ｔｒａｄｉｎｇ株式会社,,株式会社,宮城県,登米市,登米町登米字寺池荒町５８－１,,04,212,9870500,,,,,,,2025-07-18,1,,,,,イスラムトレーディング,0
441,2380003006087,新規,0,2025-07-18,2025-07-18,合同会社ＢＡＮＴＥ,,合同会社,福島県,郡山市,土瓜１丁目２０番地,,07,203,9630204,,,,,,,2025-07-18,1,,,,,バンテ,0
448,2430001094921,新規,0,2025-07-18,2025-07-18,株式会社フロイデン・ボーデン,,株式会社,北海道,札幌市中央区,北二条西１０丁目２番地７Ｗａｌｌ２０１号,,01,101,0600002,,,,,,,2025-07-18,1,,,,,フロイデンボーデン,0
449,2430003017921,新規,0,2025-07-18,2025-07-18,合同会社ｆａｉｒ,,合同会社,北海道,札幌市東区,北十二条東１１丁目３番１１号グランヒル北１２条ＩＩ－１０１号室,00139985,01,103,0650012,,,,,,,2025-07-18,1,,,,,フェア,0
470,3010003048074,新規,0,2025-07-18,2025-07-18,東京レジＳＲ１１合同会社,,合同会社,東京都,千代田区,丸の内１丁目４番１号東京共同会計事務所内,,13,101,1000005,,,,,,,2025-07-18,1,,,,,トウキョウレジエスアールイレブン,0
474,3010005040327,新規,0,2025-07-18,2025-07-18,一般社団法人日本・アジア産学振興支援機構,,その他の設立登記法人,東京都,千代田区,丸の内１丁目８番３号丸ノ内トラストタワー本館２０階,,13,101,1000005,,,,,,,2025-07-18,1,,,,,ニホンアジアサンガクシンコウシエンキコウ,0
475,3010005040335,新規,0,2025-07-18,2025-07-18,一般社団法人Ｍｉｒａｉ,,その他の設立登記法人,東京都,中央区,銀座１丁目１５番７号ＭＡＣ銀座ビル３階,,13,102,1040061,,,,,,,2025-07-18,1,,,,,ミライ,0
476,3010005040343,新規,0,2025-07-18,2025-07-18,一般社団法人全日本理美容事業者協会,,その他の設立登記法人,東京都,中央区,日本橋小舟町６番３号,,13,102,1030024,,,,,,,2025-07-18,1,,,,,ゼンニホンリビヨウジギョウシャキョウカイ,0
477,3010101016775,新規,0,2025-07-18,2025-07-18,株式会社Ｒｅｖ美建,,株式会社,東京都,八王子市,泉町１９０７－６２,,13,201,1930814,,,,,,,2025-07-18,1,,,,,レヴビケン,0
492,3010401191608,新規,0,2025-07-18,2025-07-18,ＢｌｏｏｍＡＩ株式会社,,株式会社,東京都,港区,赤坂４丁目８番１９号赤坂フロントタウン３階,,13,103,1070052,,,,,,,2025-07-18,1,,,,,ブルームエーアイ,0
493,3010401191772,新規,0,2025-07-18,2025-07-18,ＴａｍｏｔｏＦｏｏｄＤｅｓｉｇｎ株式会社,,株式会社,東京都,港区,北青山１丁目３－３三橋ビル３階,,13,103,1070061,,,,,,,2025-07-18,1,,,,,タモトフードデザイン,0
494,3010401191839,新規,0,2025-07-18,2025-07-18,株式会社ヨルト,,株式会社,東京都,港区,浜松町２丁目２番１５号浜松町ダイヤビル２Ｆ,,13,103,1050013,,,,,,,2025-07-18,1,,,,,ヨルト,0
507,3010701048012,新規,0,2025-07-18,2025-07-18,ｉｎｃｌｅ株式会社,,株式会社,東京都,品川区,西五反田１丁目１３番７号マルキビル３階,,13,109,1410031,,,,,,,2025-07-18,1,,,,,インクル,0
508,3010703007809,新規,0,2025-07-18,2025-07-18,アールズ・サポート合同会社,,合同会社,東京都,品川区,東大井１丁目４番１７号三栄ビル２０３,,13,109,1400011,,,,,,,2025-07-18,1,,,,,アールズサポート,0
511,3010901057762,新規,0,2025-07-18,2025-07-18,ｈｉｒａｇｉ株式会社,,株式会社,東京都,世田谷区,世田谷２丁目２９番８号アドヴァンス世田谷３０２,,13,112,1540017,,,,,,,2025-07-18,1,,,,,ヒイラギ,0
512,3010905004802,新規,0,2025-07-18,2025-07-18,特定非営利活動法人楽しい健康マージャンの会,,その他の設立登記法人,東京都,世田谷区,南烏山３丁目１３番２２－５０３号,,13,112,1570062,,,,,,,2025-07-18,1,,,,,タノシイケンコウマージャンノカイ,0
517,3011001170902,新規,0,2025-07-18,2025-07-18,株式会社ＡＩパートナーズ,,株式会社,東京都,渋谷区,道玄坂１丁目１０番８号渋谷道玄坂東急ビル２Ｆ－Ｃ,,13,113,1500043,,,,,,,2025-07-18,1,,,,,エーアイパートナーズ,0
518,3011001170992,新規,0,2025-07-18,2025-07-18,ＮＥＸＡＲＴＡ株式会社,,株式会社,東京都,渋谷区,道玄坂１丁目１０番８号渋谷道玄坂東急ビル２階Ｃ,,13,113,1500043,,,,,,,2025-07-18,1,,,,,ネクサルタ,0
519,3011001171339,新規,0,2025-07-18,2025-07-18,株式会社ケイル,,株式会社,東京都,渋谷区,恵比寿南１丁目２０番６号プレファス恵比寿南４Ｆ,,13,113,1500022,,,,,,,2025-07-18,1,,,,,ケイル,0
520,3011003022028,新規,0,2025-07-18,2025-07-18,綾リビング合同会社,,合同会社,東京都,渋谷区,道玄坂１丁目１０－８渋谷道玄坂東急ビル２Ｆ－Ｃ,,13,113,1500043,,,,,,,2025-07-18,1,,,,,アヤリビング,0
521,3011003022044,新規,0,2025-07-18,2025-07-18,合同会社Ｍ＆Ｎ,,合同会社,東京都,目黒区,緑が丘１丁目１５番１７号,,13,110,1520034,,,,,,,2025-07-18,1,,,,,エムアンドエヌ,0
522,3011003022168,新規,0,2025-07-18,2025-07-18,Ｎｏｄｉ合同会社,,合同会社,東京都,目黒区,碑文谷６丁目６－８Ｃ１,,13,110,1520003,,,,,,,2025-07-18,1,,,,,ノディ,0
530,3011105011531,新規,0,2025-07-18,2025-07-18,一般社団法人関越欧友社,,その他の設立登記法人,東京都,新宿区,新小川町９番２１号,,13,104,1620814,,,,,,,2025-07-18,1,,,,,カンエツオウユウシャ,0
532,3011203004767,新規,0,2025-07-18,2025-07-18,ＷｏｎｄｅｒＲｏｕｔｅｓ合同会社,,合同会社,東京都,中野区,弥生町６丁目２―１―１１０１,,13,114,1640013,,,,,,,2025-07-18,1,,,,,ワンダールーツ,0
534,3011401027264,新規,0,2025-07-18,2025-07-18,株式会社ＲＯＯＴＳ,,株式会社,東京都,板橋区,南常盤台１丁目３番１２－１０３号,,13,119,1740072,,,,,,,2025-07-18,1,,,,,ルーツ,0
542,3011701028532,新規,0,2025-07-18,2025-07-18,ＩＮＶＥＲＦＩＳＨ株式会社,,株式会社,東京都,江戸川区,江戸川６丁目４０番１４号大吉ビル２２１号室,,13,123,1340013,,,,,,,2025-07-18,1,,,,,インヴァフィッシュ,0
547,3011801046467,新規,0,2025-07-18,2025-07-18,Ｒｅｖｉｖｅ　Ｂｏｄｙ　Ｗｏｒｋｓ株式会社,,株式会社,東京都,葛飾区,鎌倉２丁目６番２４号,,13,122,1250053,,,,,,,2025-07-18,1,,,,,リバイブボディーワークス,0
548,3011803006972,新規,0,2025-07-18,2025-07-18,合同会社ブランパクト,,合同会社,東京都,足立区,千住仲町２７番１４－４０３号,,13,121,1200036,,,,,,,2025-07-18,1,,,,,ブランパクト,0
549,3012403007246,新規,0,2025-07-18,2025-07-18,Ｗｉｎｇｓ　Ｕ合同会社,,合同会社,東京都,小金井市,貫井北町１丁目２０番１２号,,13,210,1840015,,,,,,,2025-07-18,1,,,,,ウィングスユー,0
553,3013303007773,新規,0,2025-07-18,2025-07-18,合同会社ｎｅｘｔｅｃｈ,,合同会社,東京都,豊島区,東池袋１丁目１７番１１号パークハイツ池袋１１０５号,,13,116,1700013,,,,,,,2025-07-18,1,,,,,ネクステック,0
561,3021003016292,新規,0,2025-07-18,2025-07-18,ＡＩ設備価値創造合同会社,,合同会社,神奈川県,相模原市緑区,二本松３丁目１９―２６,,14,151,2520137,,,,,,,2025-07-18,1,,,,,エーアイセツビカチソウゾウ,0
563,3030001167675,新規,0,2025-07-18,2025-07-18,株式会社海羽,,株式会社,埼玉県,北葛飾郡杉戸町,杉戸３丁目１１番１０号－２Ｆ,,11,464,3450036,,,,,,,2025-07-18,1,,,,,ミウ,0
564,3030001167683,新規,0,2025-07-18,2025-07-18,株式会社ｔ３,,株式会社,埼玉県,坂戸市,南町２１番１０号,,11,239,3500233,,,,,,,2025-07-18,1,,,,,ティースリー,0
565,3030001167700,新規,0,2025-07-18,2025-07-18,株式会社嗣,,株式会社,埼玉県,川口市,芝富士１丁目６番２号フルハウス１Ｆ,,11,203,3330854,,,,,,,2025-07-18,1,,,,,ツグ,0
579,3040001139723,新規,0,2025-07-18,2025-07-18,株式会社ＫＹＯＤＡＩ,,株式会社,千葉県,野田市,東宝珠花２４７－２鶴岡ビル３階Ａ号室,,12,208,2700226,,,,,,,2025-07-18,1,,,,,キョウダイ,0
581,3040003028065,新規,0,2025-07-18,2025-07-18,合同会社ベルペア,,合同会社,千葉県,市川市,幸２丁目６番１－２０８号（行徳南スカイハイツＢ棟）,,12,203,2720123,,,,,,,2025-07-18,1,,,,,ベルペア,0
583,3050003009428,新規,0,2025-07-18,2025-07-18,ＱＵＯＣ　ＣＵＯＮＧ合同会社,,合同会社,茨城県,常総市,水海道栄町２６１５番地,,08,211,3030024,,,,,,,2025-07-18,1,,,,,コツククオン,0
602,3120001277639,新規,0,2025-07-18,2025-07-18,株式会社Ｔ２Ｋ２Ａｒｋ,,株式会社,大阪府,大阪市天王寺区,国分町１５番１２号ヴェルデノア３０２号,,27,109,5430044,,,,,,,2025-07-18,1,,,,,ティーツーケーツーアーク,0
603,3120001277886,新規,0,2025-07-18,2025-07-18,株式会社ＳＡＧＮＩＫＡ,,株式会社,大阪府,大阪市西区,本田４丁目４番３号２０３,,27,106,5500022,,,,,,,2025-07-18,1,,,,,サグニカ,0
604,3120001277911,新規,0,2025-07-18,2025-07-18,株式会社Ｖｅｎｕｓ　ｂｅａｕｔｅ,,株式会社,大阪府,大阪市西区,靱本町３丁目１０－１３,,27,106,5500004,,,,,,,2025-07-18,1,,,,,ヴィーナスボーテ,0
605,3120003030013,新規,0,2025-07-18,2025-07-18,ワンダフル・ワールド合同会社,,合同会社,大阪府,大阪市住吉区,東粉浜１丁目１２番１２－４０２号,,27,120,5580051,,,,,,,2025-07-18,1,,,,,ワンダフルワールド,0
606,3120003030046,新規,0,2025-07-18,2025-07-18,合同会社ＥＣサポート,,合同会社,大阪府,大阪市此花区,四貫島２丁目２４番７号アドベ９３－６０６号,,27,104,5540014,,,,,,,2025-07-18,1,,,,,イーシーサポート,0
607,3120003030079,新規,0,2025-07-18,2025-07-18,合同会社坂本商店,,合同会社,大阪府,大阪市北区,梅田１丁目２番２号大阪駅前第２ビル１２‐１２,,27,127,5300001,,,,,,,2025-07-18,1,,,,,サカモトショウテン,0
608,3120005025060,新規,0,2025-07-18,2025-07-18,一般社団法人京阪同志会,,その他の設立登記法人,大阪府,大阪市北区,天神橋２丁目北１番２１号八千代ビル東館８階,,27,127,5300041,,,,,,,2025-07-18,1,,,,,ケイハンドウシカイ,0
613,3120103006581,新規,0,2025-07-18,2025-07-18,Ｓｈａｒｉｆ　Ｔｒａｄｉｎｇ合同会社,,合同会社,大阪府,堺市堺区,三宝町５丁２７６番地１７,,27,141,5900906,,,,,,,2025-07-18,1,,,,,シャリフトレーディング,0
618,3130001080109,新規,0,2025-07-18,2025-07-18,株式会社ＲＥＢＯＲＮ,,株式会社,京都府,京都市伏見区,向島二ノ丸町１５１番地４・２ブロックＣ棟５０３号,,26,109,6128141,,,,,,,2025-07-18,1,,,,,リボーン,0
619,3130001080199,新規,0,2025-07-18,2025-07-18,一夕株式会社,,株式会社,京都府,京都市伏見区,深草下川原町５０番地４未来ビル２０１号室,,26,109,6128401,,,,,,,2025-07-18,1,,,,,イチユウ,0
621,3130003010609,新規,0,2025-07-18,2025-07-18,合同会社ビッグポット,,合同会社,京都府,木津川市,相楽大徳６８番地９,,26,214,6190222,,,,,,,2025-07-18,1,,,,,ビッグポット,0
630,3140001139234,新規,0,2025-07-18,2025-07-18,ケイテック株式会社,,株式会社,兵庫県,尼崎市,西難波町４丁目６番２６号,,28,202,6600893,,,,,,,2025-07-18,1,,,,,ケイテック,0
631,3140001139267,新規,0,2025-07-18,2025-07-18,株式会社かっぱ太郎,,株式会社,兵庫県,神戸市長田区,大塚町９丁目３番１３号,,28,106,6530811,,,,,,,2025-07-18,1,,,,,カッパタロウ,0
632,3140001139309,新規,0,2025-07-18,2025-07-18,洋崎株式会社,,株式会社,兵庫県,神戸市東灘区,深江南町２丁目１３番６－１０１号,,28,101,6580022,,,,,,,2025-07-18,1,,,,,ヨウサキ,0
643,3180005021145,新規,0,2025-07-18,2025-07-18,一般社団法人明鈴会,,その他の設立登記法人,愛知県,東海市,大田町下前田２２番地の１,,23,222,4770031,,,,,,,2025-07-18,1,,,,,メイリンカイ,0
644,3180301040022,新規,0,2025-07-18,2025-07-18,株式会社ＧＰＳ,,株式会社,愛知県,岡崎市,秦梨町字神谷１０１番地,,23,202,4443343,,,,,,,2025-07-18,1,,,,,ジーピーエス,0
645,3180301040030,新規,0,2025-07-18,2025-07-18,株式会社Ｃａｔｃｈ　Ｅｙｅ,,株式会社,愛知県,岡崎市,中町字長狭間８番地７１,,23,202,4440015,,,,,,,2025-07-18,1,,,,,キャッチアイ,0
647,3180305009708,新規,0,2025-07-18,2025-07-18,一般社団法人浄化槽再活用協会,,その他の設立登記法人,愛知県,蒲郡市,三谷町若宮１００番地,,23,214,4430021,,,,,,,2025-07-18,1,,,,,ジョウカソウサイカツヨウキョウカイ,0
651,3200003006921,新規,0,2025-07-18,2025-07-18,合同会社ＭＫ‐ｏｎｅ,,合同会社,岐阜県,岐阜市,則松４丁目１９６番地,,21,201,5011183,,,,,,,2025-07-18,1,,,,,エムケーワン,0
665,3260001040388,新規,0,2025-07-18,2025-07-18,創株式会社,,株式会社,岡山県,岡山市南区,豊成３丁目２２番１５号,,33,104,7000942,,,,,,,2025-07-18,1,,,,,ソウ,0
670,3290001110709,新規,0,2025-07-18,2025-07-18,Ｎ２株式会社,,株式会社,福岡県,福岡市東区,青葉５丁目１３番１号,,40,131,8130025,,,,,,,2025-07-18,1,,,,,エヌツー,0
671,3290001110733,新規,0,2025-07-18,2025-07-18,株式会社ステラリオ,,株式会社,福岡県,糟屋郡新宮町,花立花１丁目８番７号,,40,345,8110103,,,,,,,2025-07-18,1,,,,,ステラリオ,0
672,3290001110741,新規,0,2025-07-18,2025-07-18,Ｋ　Ｆａｒｍｉｎｇ株式会社,,株式会社,福岡県,柳川市,大和町中島３５０番地,,40,207,8390254,,,,,,,2025-07-18,1,,,,,ケイファーミング,0
673,3290001110774,新規,0,2025-07-18,2025-07-18,株式会社ブルーム,,株式会社,福岡県,福岡市東区,香椎駅東４丁目６２番４３号,,40,131,8130012,,,,,,,2025-07-18,1,,,,,,0
675,3290003017092,新規,0,2025-07-18,2025-07-18,ＵＳＭ合同会社,,合同会社,福岡県,福岡市東区,香椎照葉３丁目３番１号Ｂ３０１２,,40,131,8130017,,,,,,,2025-07-18,1,,,,,ユーエスエム,0
681,3330001033376,新規,0,2025-07-18,2025-07-18,株式会社松村機械,,株式会社,熊本県,熊本市西区,中島町８１３番地３,,43,103,8615272,,,,,,,2025-07-18,1,,,,,マツムラキカイ,0
685,3330003011116,新規,0,2025-07-18,2025-07-18,合同会社ＲＫＭ,,合同会社,熊本県,菊池市,隈府１８８番地２,,43,210,8611331,,,,,,,2025-07-18,1,,,,,アールケーエム,0
686,3330003011132,新規,0,2025-07-18,2025-07-18,合同会社ＡＳＯ　ＥＮＬＩＦＥ,,合同会社,熊本県,阿蘇市,黒川１３００番地１,,43,214,8692225,,,,,,,2025-07-18,1,,,,,アソエンライフ,0
693,3360001035510,新規,0,2025-07-18,2025-07-18,株式会社本部電工,,株式会社,沖縄県,島尻郡南風原町,字本部１番地,,47,350,9011112,,,,,,,2025-07-18,1,,,,,モトブデンコウ,0
695,3360003015106,新規,0,2025-07-18,2025-07-18,Ｏｋｉｎａｗａ碧合同会社,,合同会社,沖縄県,那覇市,松尾１丁目１０ー２４,,47,201,9000014,,,,,,,2025-07-18,1,,,,,オキナワアオイ,0
704,3400001017116,新規,0,2025-07-18,2025-07-18,株式会社Ｎｅｘｔ　ＩＷＡＴＥ,,株式会社,岩手県,一関市,萩荘字高梨南方１１４番地４,,03,209,0210902,,,,,,,2025-07-18,1,,,,,ネクストイワテ,0
705,3410003004128,新規,0,2025-07-18,2025-07-18,合同会社ＲＯＮＫＡ,,合同会社,秋田県,秋田市,東通観音前１３番８号,,05,201,0100004,,,,,,,2025-07-18,1,,,,,ロンカ,0
707,3430003017912,新規,0,2025-07-18,2025-07-18,合同会社ルビーアンドクッキーズ,,合同会社,北海道,札幌市北区,屯田八条４丁目３番１５号,,01,102,0020858,,,,,,,2025-07-18,1,,,,,ルビーアンドクッキーズ,0
720,4010003048073,新規,0,2025-07-18,2025-07-18,東京レジＳＲ１０合同会社,,合同会社,東京都,千代田区,丸の内１丁目４番１号東京共同会計事務所内,,13,101,1000005,,,,,,,2025-07-18,1,,,,,トウキョウレジエスアールテン,0
722,4010005040342,新規,0,2025-07-18,2025-07-18,川越開発特定目的会社,,その他の設立登記法人,東京都,千代田区,飯田橋４丁目７番１号結和税理士法人内,,13,101,1020072,,,,,,,2025-07-18,1,,,,,カワゴエカイハツ,0
725,4010401191656,新規,0,2025-07-18,2025-07-18,Ｂｒｏａｄｗａｙ　Ｃａｐｉｔａｌ株式会社,,株式会社,東京都,港区,三田１丁目７番１－２３０５号,,13,103,1080073,,,,,,,2025-07-18,1,,,,,ブロードウェイキャピタル,0
733,4010403035588,新規,0,2025-07-18,2025-07-18,エイチユー・エデュケーションサービシズ合同会社,,合同会社,東京都,港区,南青山７丁目１４番１１南青山アンクレ２０２号,,13,103,1070062,,,,,,,2025-07-18,1,,,,,エイチユーエデュケーションサービシズ,0
746,4011001170942,新規,0,2025-07-18,2025-07-18,株式会社ｎａｖｉｌｅ,,株式会社,東京都,渋谷区,千駄ヶ谷４丁目５－１０コンフォリア北参道１３１１,,13,113,1510051,,,,,,,2025-07-18,1,,,,,ネイヴィル,0
748,4011003022010,新規,0,2025-07-18,2025-07-18,合同会社Ｈ２ＷＭ,,合同会社,東京都,渋谷区,恵比寿南１丁目１番１号,,13,113,1500022,,,,,,,2025-07-18,1,,,,,エイチツーダブルエム,0
751,4011105011530,新規,0,2025-07-18,2025-07-18,一般社団法人コア・テン,,その他の設立登記法人,東京都,新宿区,西新宿８丁目５番１号,,13,104,1600023,,,,,,,2025-07-18,1,,,,,コアテン,0
767,4012801024115,新規,0,2025-07-18,2025-07-18,ジェニーステック精密株式会社,,株式会社,東京都,立川市,幸町４丁目２２番地の６ＯＳビル１Ｆ,,13,202,1900002,,,,,,,2025-07-18,1,,,,,ジェニーステックセイミツ,0
769,4013303007772,新規,0,2025-07-18,2025-07-18,合同会社ｋｏｙｏｉ,,合同会社,東京都,豊島区,東池袋２丁目６２番８号ＢＩＧオフィスプラザ池袋１２０６,,13,116,1700013,,,,,,,2025-07-18,1,,,,,コヨイ,0
780,4020001163393,新規,0,2025-07-18,2025-07-18,株式会社Ｍｏｄｅｖｅｎｔ,,株式会社,神奈川県,横浜市西区,浅間町１丁目４番３号ウィザードビル４０２,,14,103,2200072,,,,,,,2025-07-18,1,,,,,モードベント,0
781,4020001163798,新規,0,2025-07-18,2025-07-18,株式会社ＦＵＵ,,株式会社,神奈川県,横浜市西区,みなとみらい３丁目３番１号ＫＤＸ横浜みなとみらいタワー８階,,14,103,2200012,,,,,,,2025-07-18,1,,,,,フウ,0
782,4020001163947,新規,0,2025-07-18,2025-07-18,美内装株式会社,,株式会社,神奈川県,横浜市南区,宿町１丁目２２番地ポンドワール蒔田３－Ｅ,,14,105,2320017,,,,,,,2025-07-18,1,,,,,ビナイソウ,0
792,4020005016936,新規,0,2025-07-18,2025-07-18,一般社団法人スマートライフ教育研究所,,その他の設立登記法人,神奈川県,横浜市西区,高島１丁目２番５号,,14,103,2200011,,,,,,,2025-07-18,1,,,,,スマートライフキョウイクケンキュウジョ,0
794,4021001085818,新規,0,2025-07-18,2025-07-18,株式会社スマイルジョブズ,,株式会社,神奈川県,平塚市,片岡３６７番地の４－２階,,14,203,2591213,,,,,,,2025-07-18,1,,,,,スマイルジョブズ,0
795,4021003016250,新規,0,2025-07-18,2025-07-18,合同会社燈,,合同会社,神奈川県,足柄下郡湯河原町,鍛冶屋７１７番地の１５,,14,384,2590313,,,,,,,2025-07-18,1,,,,,トモシビ,0
801,4030001167690,新規,0,2025-07-18,2025-07-18,株式会社輝,,株式会社,埼玉県,東松山市,大字大谷３０７３番地１５,,11,212,3550008,,,,,,,2025-07-18,1,,,,,ヒカル,0
802,4030001167724,新規,0,2025-07-18,2025-07-18,株式会社Ｗｉｎｇ,,株式会社,埼玉県,さいたま市西区,大字中野林８４７番地１０,,11,101,3310057,,,,,,,2025-07-18,1,,,,,ウイング,0
809,4040003028064,新規,0,2025-07-18,2025-07-18,だいほう合同会社,,合同会社,千葉県,船橋市,市場４丁目１番１棟６１０号,,12,204,2730001,,,,,,,2025-07-18,1,,,,,ダイホウ,0
811,4050003009427,新規,0,2025-07-18,2025-07-18,合同会社ＪＤＭ２４７,,合同会社,茨城県,坂東市,岩井４８７０番地１,,08,228,3060631,,,,,,,2025-07-18,1,,,,,ジェイディーエムトゥエンティーフォーセブン,0
812,4060001038410,新規,0,2025-07-18,2025-07-18,ＮＯＶＡ　ＩＮＴＥＲＮＡＴＩＯＮＡＬ株式会社,,株式会社,栃木県,栃木市,惣社町８８６－３,,09,203,3280002,,,,,,,2025-07-18,1,,,,,ノバインターナショナル,0
815,4080001027048,新規,0,2025-07-18,2025-07-18,株式会社はぎわら,,株式会社,静岡県,焼津市,惣右衛門７９番地の４,,22,212,4250065,,,,,,,2025-07-18,1,,,,,ハギワラ,0
817,4090003002857,新規,0,2025-07-18,2025-07-18,合同会社華傑商事,,合同会社,山梨県,富士吉田市,上吉田東１丁目９番２４号１Ｆ,,19,202,4030032,,,,,,,2025-07-18,1,,,,,カケツショウジ,0
820,4100001038777,新規,0,2025-07-18,2025-07-18,株式会社長野財託,,株式会社,長野県,長野市,大字北尾張部４０７番地２,,20,201,3810014,,,,,,,2025-07-18,1,,,,,ナガノザイタク,0
822,4100003008299,新規,0,2025-07-18,2025-07-18,合同会社アトリエ・ラーム,,合同会社,長野県,佐久市,協和６３２１番地１,,20,217,3842204,,,,,,,2025-07-18,1,,,,,アトリエラーム,0
826,4120001277935,新規,0,2025-07-18,2025-07-18,ａｃｃｕｅｉｌ　ＪＡＰＡＮ株式会社,,株式会社,大阪府,大阪市天王寺区,上汐５丁目７番１８－６０１号,,27,109,5430002,,,,,,,2025-07-18,1,,,,,アクーユジャパン,0
828,4120003030012,新規,0,2025-07-18,2025-07-18,合同会社Ｄｅｃ．,,合同会社,大阪府,大阪市東住吉区,中野４丁目１２番２３号,,27,121,5460012,,,,,,,2025-07-18,1,,,,,デック,0
829,4120003030029,新規,0,2025-07-18,2025-07-18,合同会社セラピカ,,合同会社,大阪府,大阪市中央区,農人橋２丁目１－６レジデンス中央３Ａ号室,,27,128,5400011,,,,,,,2025-07-18,1,,,,,セラピカ,0
830,4120003030045,新規,0,2025-07-18,2025-07-18,ＭＥＣＨＡ　ＬＩＶＥ　ＪＡＰＡＮ合同会社,,合同会社,大阪府,大阪市住吉区,万代３丁目１２番１号,,27,120,5580055,,,,,,,2025-07-18,1,,,,,メチャライブジャパン,0
831,4120005025051,新規,0,2025-07-18,2025-07-18,医療法人エムアンドイー,,その他の設立登記法人,大阪府,大阪市浪速区,元町１丁目１０番１３号イルミナルグランデ１階,,27,111,5560016,,,,,,,2025-07-18,1,,,,,エムアンドイー,0
837,4120903005740,新規,0,2025-07-18,2025-07-18,合同会社ＭＩＹＡＫＯ,,合同会社,大阪府,箕面市,船場東１丁目２－２２－５０２,,27,220,5620035,,,,,,,2025-07-18,1,,,,,ミヤコ,0
838,4120903005781,新規,0,2025-07-18,2025-07-18,Ｄｅｌｉｖｅｒｙ　ａｎｄ　Ｓｕｒｇｅｒｙ合同会社,,合同会社,大阪府,豊中市,少路１丁目２―７―６０１,,27,203,5600004,,,,,,,2025-07-18,1,,,,,デリバリーアンドサージェリー,0
841,4130003010608,新規,0,2025-07-18,2025-07-18,合同会社日興コンサルティング,,合同会社,京都府,宇治市,広野町丸山６番地の２３,,26,204,6110031,,,,,,,2025-07-18,1,,,,,ニッコウコンサルティング,0
844,4140001139150,新規,0,2025-07-18,2025-07-18,修梱包株式会社,,株式会社,兵庫県,神戸市東灘区,渦森台４丁目６番３号,,28,101,6580066,,,,,,,2025-07-18,1,,,,,オサムコンポウ,0
848,4160003003534,新規,0,2025-07-18,2025-07-18,合同会社すぎな,,合同会社,滋賀県,愛知郡愛荘町,東円堂２４８１番地,,25,425,5291325,,,,,,,2025-07-18,1,,,,,スギナ,0
856,4180001167676,新規,0,2025-07-18,2025-07-18,株式会社星が丘コンサルティング,,株式会社,愛知県,名古屋市千種区,井上町１１９－１星ヶ丘森ビル３階,,23,101,4640026,,,,,,,2025-07-18,1,,,,,ホシガオカコンサルティング,0
857,4180005021160,新規,0,2025-07-18,2025-07-18,一般社団法人ＢＬＵＥＣＨＩＰ　ＦＡＲＭＥＲＳ　ＵＮＩＯＮ,,その他の設立登記法人,愛知県,常滑市,金山字上白田１３０,,23,216,4790003,,,,,,,2025-07-18,1,,,,,ブルーチップファーマーズユニオン,0
862,4190001032400,新規,0,2025-07-18,2025-07-18,サブレウイスキー株式会社,,株式会社,三重県,伊賀市,諏訪４６５番地,,24,216,5180021,,,,,,,2025-07-18,1,,,,,サブレウイスキー,0
879,4240001065246,新規,0,2025-07-18,2025-07-18,Ｈ＆Ｆリテール株式会社,,株式会社,広島県,広島市安佐南区,長束西３丁目８番４号,,34,105,7310136,,,,,,,2025-07-18,1,,,,,エイチアンドエフリテール,0
883,4280001009463,新規,0,2025-07-18,2025-07-18,ＡＲＩＶＥＲ株式会社,,株式会社,島根県,出雲市,西林木町１５１番地島根県立大学出雲キャンパス３２７研究室,,32,203,6930073,,,,,,,2025-07-18,1,,,,,アリバー,0
887,4290001110781,新規,0,2025-07-18,2025-07-18,謙達商事株式会社,,株式会社,福岡県,福岡市南区,井尻１丁目２６番１７－３０３号,,40,134,8111302,,,,,,,2025-07-18,1,,,,,ケンタツショウジ,0
905,4330003011131,新規,0,2025-07-18,2025-07-18,合同会社ｔａｓｈｉ,,合同会社,熊本県,熊本市西区,池田３丁目３３番２１号,,43,103,8600082,,,,,,,2025-07-18,1,,,,,タシ,0
908,4350001019661,新規,0,2025-07-18,2025-07-18,三ツ矢技建株式会社,,株式会社,宮崎県,宮崎市,田野町乙１２７８６番地,,45,201,8891702,,,,,,,2025-07-18,1,,,,,ミツヤギケン,0
909,4350005006318,新規,0,2025-07-18,2025-07-18,一般社団法人ＭＩＮＡＴＯ,,その他の設立登記法人,宮崎県,宮崎市,永楽町２１２番地１,,45,201,8800872,,,,,,,2025-07-18,1,,,,,ミナト,0
916,4360005007257,新規,0,2025-07-18,2025-07-18,沖縄県宮古地区整備士育成事業協同組合,,その他の設立登記法人,沖縄県,宮古島市,平良字下里２１３７番地１,,47,214,9060013,,,,,,,2025-07-18,1,,,,,オキナワケンミヤコチクセイビシイクセイ,0
918,4370001052850,新規,0,2025-07-18,2025-07-18,株式会社ＡＲＴ,,株式会社,宮城県,仙台市青葉区,国分町２丁目５番１号ゴロク参番館Ｂ１,,04,101,9800803,,,,,,,2025-07-18,1,,,,,アート,0
919,4370001052859,新規,0,2025-07-18,2025-07-18,岩沼土地開発不動産株式会社,,株式会社,宮城県,岩沼市,中央１丁目５番２４号,,04,211,9892432,,,,,,,2025-07-18,1,,,,,イワヌマトチカイハツフドウサン,0
937,4440001009653,新規,0,2025-07-18,2025-07-18,東出建設株式会社,,株式会社,北海道,上磯郡知内町,字重内６８番地,,01,333,0491103,,,,,,,2025-07-18,1,,,,,ヒガシデケンセツ,0
951,5010001256882,新規,0,2025-07-18,2025-07-18,株式会社鶴水,,株式会社,東京都,中央区,築地３丁目１７－１０ＢＡＮＨＯＴＥＬ築地銀座６０５号室,,13,102,1040045,,,,,,,2025-07-18,1,,,,,カクスイ,0
955,5010003048072,新規,0,2025-07-18,2025-07-18,東京レジＳＲ９合同会社,,合同会社,東京都,千代田区,丸の内１丁目４番１号東京共同会計事務所内,,13,101,1000005,,,,,,,2025-07-18,1,,,,,トウキョウレジエスアールナイン,0
956,5010003048080,新規,0,2025-07-18,2025-07-18,東京レジＳＲ１７合同会社,,合同会社,東京都,千代田区,丸の内１丁目４番１号東京共同会計事務所内,,13,101,1000005,,,,,,,2025-07-18,1,,,,,トウキョウレジエスアールセブンティーン,0
957,5010005040333,新規,0,2025-07-18,2025-07-18,一般社団法人松山一番町ホテルプロジェクト,,その他の設立登記法人,東京都,中央区,日本橋１丁目４番１号,,13,102,1030027,,,,,,,2025-07-18,1,,,,,マツヤマイチバンチョウホテルプロジェクト,0
971,5010401191779,新規,0,2025-07-18,2025-07-18,株式会社ｊｙｕｇｏｅｍ,,株式会社,東京都,港区,南青山６丁目３番１１号ＰＡＮ南青山３０５,,13,103,1070062,,,,,,,2025-07-18,1,,,,,ジュウゴエン,0
972,5010401191795,新規,0,2025-07-18,2025-07-18,株式会社うるわし,,株式会社,東京都,港区,西麻布４丁目１６番３－１８０２号,,13,103,1060031,,,,,,,2025-07-18,1,,,,,ウルワシ,0
973,5010401191804,新規,0,2025-07-18,2025-07-18,株式会社セルノア,,株式会社,東京都,港区,浜松町２丁目２番１５号浜松町ダイヤビル２Ｆ,,13,103,1050013,,,,,,,2025-07-18,1,,,,,セルノア,0
974,5010401191878,新規,0,2025-07-18,2025-07-18,株式会社Ａｘｉｓ　Ｃａｐｉｔａｌ,,株式会社,東京都,港区,虎ノ門５丁目１１番１号オランダヒルズ森タワーＲｏＰ,,13,103,1050001,,,,,,,2025-07-18,1,,,,,アクシスキャピタル,0
976,5010403035587,新規,0,2025-07-18,2025-07-18,Ｍｇｅｎｔａ合同会社,,合同会社,東京都,港区,西麻布１丁目２番１３号デゥオ・スカーラ西麻布タワーＣＥＮＴＲＡＬ２０１号室,,13,103,1060031,,,,,,,2025-07-18,1,,,,,ムジェンタ,0
977,5010403035595,新規,0,2025-07-18,2025-07-18,ＳＧＴ合同会社,,合同会社,東京都,港区,新橋４丁目２９－１－１００４,,13,103,1050004,,,,,,,2025-07-18,1,,,,,エスジーティー,0
978,5010403035604,新規,0,2025-07-18,2025-07-18,合同会社ＳＣＨ,,合同会社,東京都,港区,南麻布２丁目８番１号,,13,103,1060047,,,,,,,2025-07-18,1,,,,,エスシーエイチ,0
979,5010403035612,新規,0,2025-07-18,2025-07-18,ＤＤソーラー合同会社,,合同会社,東京都,港区,芝大門２丁目１２番３号共生ビル２号館７階,,13,103,1050012,,,,,,,2025-07-18,1,,,,,ディーディーソーラー,0
987,5010701048010,新規,0,2025-07-18,2025-07-18,株式会社Ｇｒｏｗｉｔｈ,,株式会社,東京都,品川区,上大崎２丁目１７番６号千里馬ビル６０１,,13,109,1410021,,,,,,,2025-07-18,1,,,,,グローウィズ,0
988,5010701048019,新規,0,2025-07-18,2025-07-18,株式会社誠和マネジメント,,株式会社,東京都,品川区,東大井５丁目１９－６鈴の家ビル６Ｆ,,13,109,1400011,,,,,,,2025-07-18,1,,,,,セイワマネジメント,0
992,5010703007807,新規,0,2025-07-18,2025-07-18,合同会社時空Ｄｅｓｉｇｎ,,合同会社,東京都,品川区,西品川３丁目２１番８号インザガーデン６０２,,13,109,1410033,,,,,,,2025-07-18,1,,,,,ジクウデザイン,0
1004,5011001170909,新規,0,2025-07-18,2025-07-18,株式会社Ｐｌｕｓ　ｔｏ　Ｏｎｅ,,株式会社,東京都,目黒区,自由が丘１丁目３番１９号,,13,110,1520035,,,,,,,2025-07-18,1,,,,,プラスツゥワン,0
1005,5011001170982,新規,0,2025-07-18,2025-07-18,株式会社スモールコレクティブ,,株式会社,東京都,渋谷区,恵比寿３丁目２９番８号,,13,113,1500013,,,,,,,2025-07-18,1,,,,,スモールコレクティブ,0
1006,5011001170999,新規,0,2025-07-18,2025-07-18,株式会社ユアストライド,,株式会社,東京都,目黒区,上目黒３丁目２４番３号,,13,110,1530051,,,,,,,2025-07-18,1,,,,,ユアストライド,0
1012,5011103016175,新規,0,2025-07-18,2025-07-18,長田ＡＩ商事合同会社,,合同会社,東京都,新宿区,西新宿３丁目３－１３西新宿水間ビル６Ｆ,,13,104,1600023,,,,,,,2025-07-18,1,,,,,オサダエーアイショウジ,0
1015,5011501032352,新規,0,2025-07-18,2025-07-18,株式会社クラスミオ,,株式会社,東京都,北区,中十条３丁目３５番２３号,,13,117,1140032,,,,,,,2025-07-18,1,,,,,クラスミオ,0
1017,5011601028804,新規,0,2025-07-18,2025-07-18,株式会社ディーアイエー,,株式会社,東京都,練馬区,東大泉２丁目４２番８－７０９号,,13,120,1780063,,,,,,,2025-07-18,1,,,,,ディーアイエー,0
1019,5011801046481,新規,0,2025-07-18,2025-07-18,株式会社ｐａｇｅ　ｂｌａｎｃｈｅ,,株式会社,東京都,葛飾区,水元１丁目２番８号,,13,122,1250032,,,,,,,2025-07-18,1,,,,,パージュブランシュ,0
1022,5012401043349,新規,0,2025-07-18,2025-07-18,京拓エネルギー株式会社,,株式会社,東京都,多摩市,落合６丁目１５番地の３第３椎の木ビル２０３号,,13,224,2060033,,,,,,,2025-07-18,1,,,,,キョウタクエネルギー,0
1023,5012401043357,新規,0,2025-07-18,2025-07-18,株式会社Ｌｅｔｔｅｒ,,株式会社,東京都,稲城市,平尾１丁目５２番地の１５,,13,225,2060823,,,,,,,2025-07-18,1,,,,,レター,0
1024,5012403007244,新規,0,2025-07-18,2025-07-18,合同会社ＴＡＫＡＨＡ,,合同会社,東京都,狛江市,中和泉１丁目２１番９号ドミ－ル中和泉２０１号,,13,219,2010012,,,,,,,2025-07-18,1,,,,,タカハ,0
1026,5013303007771,新規,0,2025-07-18,2025-07-18,ＴＣ合同会社,,合同会社,東京都,豊島区,東池袋１丁目３６番３号池袋陽光ハイツ５０７号室,,13,116,1700013,,,,,,,2025-07-18,1,,,,,ティーシー,0
1028,5013305003736,新規,0,2025-07-18,2025-07-18,土地家屋調査士法人根岸事務所,,その他の設立登記法人,東京都,豊島区,池袋３丁目２４番８号,,13,116,1710014,,,,,,,2025-07-18,1,,,,,,0
1034,5021001085783,新規,0,2025-07-18,2025-07-18,株式会社アイベル,,株式会社,神奈川県,平塚市,四之宮５丁目１２番１９号,,14,203,2540014,,,,,,,2025-07-18,1,,,,,アイベル,0
1047,5030001167698,新規,0,2025-07-18,2025-07-18,ＦＲＡＮＺ株式会社,,株式会社,埼玉県,春日部市,中央１丁目８－１５春日部セントラル２９号室,,11,214,3440067,,,,,,,2025-07-18,1,,,,,フランズ,0
1048,5030001167731,新規,0,2025-07-18,2025-07-18,晟禾商事株式会社,,株式会社,埼玉県,川口市,芝新町３番２６シティインデックス蕨１４０７号,,11,203,3330851,,,,,,,2025-07-18,1,,,,,セイカショウジ,0
1053,5030003027223,新規,0,2025-07-18,2025-07-18,ＨＡＢＩＴＵＳ合同会社,,合同会社,埼玉県,さいたま市北区,奈良町４６‐５サニーガーデン２０２,,11,102,3310822,,,,,,,2025-07-18,1,,,,,ハビタス,0
1054,5030003027231,新規,0,2025-07-18,2025-07-18,合同会社ＭＡセンター,,合同会社,埼玉県,戸田市,喜沢１丁目３２番地の２１,,11,224,3350013,,,,,,,2025-07-18,1,,,,,エムエーセンター,0
1062,5040001139721,新規,0,2025-07-18,2025-07-18,株式会社ＺＥＡＬ,,株式会社,千葉県,松戸市,六実６丁目１３番地の３０,,12,207,2702204,,,,,,,2025-07-18,1,,,,,ジール,0
1066,5040003028063,新規,0,2025-07-18,2025-07-18,ＹＩＫ合同会社,,合同会社,千葉県,佐倉市,上志津１０６８番地３６,,12,212,2850846,,,,,,,2025-07-18,1,,,,,ワイアイケー,0
1067,5040003028071,新規,0,2025-07-18,2025-07-18,クロベエンジ合同会社,,合同会社,千葉県,印西市,滝野６丁目１５番４号,,12,231,2702329,,,,,,,2025-07-18,1,,,,,クロベエンジ,0
1069,5050001056924,新規,0,2025-07-18,2025-07-18,ＲＩＣＨＯ　ＳＯＴＯ株式会社,,株式会社,茨城県,稲敷郡阿見町,大字若栗１３０７‐２１‐２号室,,08,443,3000333,,,,,,,2025-07-18,1,,,,,リチョソト,0
1070,5050001056973,新規,0,2025-07-18,2025-07-18,株式会社セレンディピティ,,株式会社,茨城県,水戸市,千波町１１５６番地,,08,201,3100851,,,,,,,2025-07-18,1,,,,,セレンディピティ,0
1099,5120001277661,新規,0,2025-07-18,2025-07-18,マアル株式会社,,株式会社,大阪府,大阪市西区,川口３丁目１番２１－２０３号,,27,106,5500021,,,,,,,2025-07-18,1,,,,,マアル,0
1100,5120001277694,新規,0,2025-07-18,2025-07-18,株式会社藤由建設,,株式会社,大阪府,大阪市中央区,南船場１丁目６－１７－２０２号,,27,128,5420081,,,,,,,2025-07-18,1,,,,,フジヨシケンセツ,0
1101,5120001277942,新規,0,2025-07-18,2025-07-18,株式会社パダティ交通,,株式会社,大阪府,枚方市,町楠葉１丁目１７－１０,,27,210,5731106,,,,,,,2025-07-18,1,,,,,パダティコウツウ,0
1105,5120003030044,新規,0,2025-07-18,2025-07-18,合同会社ＭＫクリエイティブ,,合同会社,大阪府,大阪市東住吉区,北田辺６丁目２番２５号,,27,121,5460044,,,,,,,2025-07-18,1,,,,,エムケイクリエイティブ,0
1106,5120003030077,新規,0,2025-07-18,2025-07-18,ＪＸＴ壱号合同会社,,合同会社,大阪府,大阪市北区,梅田１丁目１‐３大阪駅前第３ビル２９階１‐１‐１,,27,127,5300001,,,,,,,2025-07-18,1,,,,,ジェイエックスティーイチゴウ,0
1109,5120005025059,新規,0,2025-07-18,2025-07-18,一般社団法人日本メガネフィッター協会,,その他の設立登記法人,大阪府,大阪市中央区,南船場２丁目６番２０号,,27,128,5420081,,,,,,,2025-07-18,1,,,,,ニホンメガネフィッターキョウカイ,0
1117,5122001039422,新規,0,2025-07-18,2025-07-18,株式会社ＲＵＢＯ,,株式会社,大阪府,八尾市,長池町５丁目３番地の４,,27,212,5810836,,,,,,,2025-07-18,1,,,,,ルボ,0
1121,5130001080115,新規,0,2025-07-18,2025-07-18,株式会社夏雪,,株式会社,京都府,京都市上京区,駒之町５３７－１,,26,102,6020872,,,,,,,2025-07-18,1,,,,,ナツユキ,0
1122,5130003010607,新規,0,2025-07-18,2025-07-18,合同会社Ｈ＆Ａ　Ｗｅｌｌｂｅｉｎｇ,,合同会社,京都府,京都市下京区,朱雀宝蔵町４４番地協栄ビル２階京都朱雀スタジオＡＲ－２０３,,26,106,6008846,,,,,,,2025-07-18,1,,,,,エイチアンドエーウェルビーイング,0
1126,5140003022312,新規,0,2025-07-18,2025-07-18,合同会社ＫＬＳ,,合同会社,兵庫県,宝塚市,安倉南３丁目３番５－３０４号,,28,214,6650823,,,,,,,2025-07-18,1,,,,,ケーエルエス,0
1130,5150001028277,新規,0,2025-07-18,2025-07-18,株式会社関西印刷,,株式会社,奈良県,天理市,櫟本町２２７２番地２,,29,204,6320004,,,,,,,2025-07-18,1,,,,,カンサイインサツ,0
1134,5180301040029,新規,0,2025-07-18,2025-07-18,株式会社三浦土木,,株式会社,愛知県,額田郡幸田町,大字坂崎字次見９番地２,,23,501,4440104,,,,,,,2025-07-18,1,,,,,ミウラドボク,0
1148,5250001021255,新規,0,2025-07-18,2025-07-18,株式会社ＣＨＡＲＡＣＴ,,株式会社,山口県,山陽小野田市,大字山川１３４４－１５,,35,216,7570004,,,,,,,2025-07-18,1,,,,,キャラクト,0
1149,5250005009016,新規,0,2025-07-18,2025-07-18,一般社団法人ＵＢＥ　ＧＡＲＮＥＴ,,その他の設立登記法人,山口県,宇部市,大小路３丁目８番５－３号,,35,202,7550076,,,,,,,2025-07-18,1,,,,,ウベガーネット,0
1158,5290001110715,新規,0,2025-07-18,2025-07-18,株式会社ステントッテ,,株式会社,福岡県,久留米市,田主丸町上原５８－１神代店舗東棟,,40,203,8391221,,,,,,,2025-07-18,1,,,,,ステントッテ,0
1159,5290001110764,新規,0,2025-07-18,2025-07-18,株式会社あめあがり,,株式会社,福岡県,筑紫野市,紫１丁目１９番８号,,40,217,8180061,,,,,,,2025-07-18,1,,,,,アメアガリ,0
1160,5290001110780,新規,0,2025-07-18,2025-07-18,株式会社アーレン,,株式会社,福岡県,糟屋郡須惠町,大字新原３９９番地７,,40,344,8112111,,,,,,,2025-07-18,1,,,,,アーレン,0
1161,5290001110830,新規,0,2025-07-18,2025-07-18,株式会社ヒカリ,,株式会社,福岡県,福岡市西区,愛宕浜２丁目２番６－９０２号,,40,135,8190013,,,,,,,2025-07-18,1,,,,,ヒカリ,0
1162,5290001110847,新規,0,2025-07-18,2025-07-18,株式会社三日月ホールディングス,,株式会社,福岡県,太宰府市,水城２丁目２１－３０,,40,221,8180131,,,,,,,2025-07-18,1,,,,,ミカヅキホールディングス,0
1172,5330001033408,新規,0,2025-07-18,2025-07-18,株式会社御幸金属,,株式会社,熊本県,熊本市南区,田井島２丁目２－８９,,43,104,8620965,,,,,,,2025-07-18,1,,,,,ミユキキンゾク,0
1177,5330003011122,新規,0,2025-07-18,2025-07-18,合同会社クラッチ,,合同会社,熊本県,熊本市東区,小山７丁目２番２１号ＢＩＬＬＣＯＭ小山東倉庫４号,,43,102,8618045,,,,,,,2025-07-18,1,,,,,クラッチ,0
1179,5350001019660,新規,0,2025-07-18,2025-07-18,株式会社ＴＡＢＬＥＳ,,株式会社,宮崎県,宮崎市,広島２丁目１１番８号パレインヴィラ６９－１０１号室,,45,201,8800806,,,,,,,2025-07-18,1,,,,,テーブルス,0
1182,5360001035517,新規,0,2025-07-18,2025-07-18,株式会社ニクロッツ,,株式会社,沖縄県,那覇市,曙３丁目１９番２－７０３号センチュリー那覇曙,,47,201,9000002,,,,,,,2025-07-18,1,,,,,ニクロッツ,0
1188,5390001018056,新規,0,2025-07-18,2025-07-18,株式会社田中ライフライン,,株式会社,山形県,天童市,大字乱川１０番地３７,,06,210,9940002,,,,,,,2025-07-18,1,,,,,タナカライフライン,0
1192,5430001094844,新規,0,2025-07-18,2025-07-18,株式会社久門,,株式会社,北海道,札幌市北区,百合が原８丁目１９番１０号,,01,102,0028081,,,,,,,2025-07-18,1,,,,,ヒサカド,0
1201,5700150131453,新規,0,2025-07-18,2025-07-18,金沢とリトアニアをつなぐ会,,その他,石川県,金沢市,油車５－３,,17,201,9200996,,,,,,,2025-07-18,1,,,,,カナザワトリトアニアヲツナグカイ,0
1205,6010003048063,新規,0,2025-07-18,2025-07-18,合同会社Ａｔｂａｓｅ,,合同会社,東京都,中央区,銀座１丁目１２番４号Ｎ＆ＥＢＬＤ．６Ｆ,,13,102,1040061,,,,,,,2025-07-18,1,,,,,アトベース,0
1206,6010003048071,新規,0,2025-07-18,2025-07-18,東京レジＳＲ８合同会社,,合同会社,東京都,千代田区,丸の内１丁目４番１号東京共同会計事務所内,,13,101,1000005,,,,,,,2025-07-18,1,,,,,トウキョウレジエスアールエイト,0
1211,6010103002614,新規,0,2025-07-18,2025-07-18,ＪＷパソコン合同会社,,合同会社,東京都,八王子市,散田町２丁目６９番１４号,,13,201,1930832,,,,,,,2025-07-18,1,,,,,ジェイダブリューパソコン,0
1217,6010401191803,新規,0,2025-07-18,2025-07-18,株式会社ＩＶ　Ｃｏｎｓｕｌｔｉｎｇ,,株式会社,東京都,港区,芝浦４丁目１６－２５,,13,103,1080023,,,,,,,2025-07-18,1,,,,,アイヴイコンサルティング,0
1218,6010401191811,新規,0,2025-07-18,2025-07-18,Ｃａｍｉ　Ｇｌｏｂａｌ株式会社,,株式会社,東京都,港区,赤坂９丁目２番１８号ロイヤルシーズン六本木檜町公園３０１,,13,103,1070052,,,,,,,2025-07-18,1,,,,,カミグローバル,0
1219,6010401191852,新規,0,2025-07-18,2025-07-18,株式会社グローバル・アクシス,,株式会社,東京都,港区,南麻布２丁目１４番１３号,,13,103,1060047,,,,,,,2025-07-18,1,,,,,グローバルアクシス,0
1220,6010401191877,新規,0,2025-07-18,2025-07-18,株式会社ＦｉｎＳｙｓＸ,,株式会社,東京都,港区,芝浦２丁目６番１６－１６０２号,,13,103,1080023,,,,,,,2025-07-18,1,,,,,フィンシスエックス,0
1221,6010401191919,新規,0,2025-07-18,2025-07-18,ＭＩＲＡＩ株式会社,,株式会社,東京都,港区,六本木３丁目１６番１２号六本木ＫＳビル５Ｆ,,13,103,1060032,,,,,,,2025-07-18,1,,,,,ミライ,0
1223,6010403035611,新規,0,2025-07-18,2025-07-18,未來視角合同会社,,合同会社,東京都,港区,赤坂２丁目８番１４－４０７号,,13,103,1070052,,,,,,,2025-07-18,1,,,,,ミライシカク,0
1232,6010705003778,新規,0,2025-07-18,2025-07-18,一般社団法人日本医療協会,,その他の設立登記法人,東京都,品川区,西五反田８丁目８－１６,,13,109,1410031,,,,,,,2025-07-18,1,,,,,ニホンイリョウキョウカイ,0
1236,6010903010114,新規,0,2025-07-18,2025-07-18,合同会社サンテ,,合同会社,東京都,世田谷区,池尻３丁目２９番４号,,13,112,1540001,,,,,,,2025-07-18,1,,,,,サンテ,0
1243,6011001170981,新規,0,2025-07-18,2025-07-18,ＰｒｉｍａｒｙＬｉｎｋ株式会社,,株式会社,東京都,渋谷区,恵比寿４丁目３番１４号,,13,113,1500013,,,,,,,2025-07-18,1,,,,,プライマリーリンク,0
1244,6011001170998,新規,0,2025-07-18,2025-07-18,株式会社超勝,,株式会社,東京都,渋谷区,神宮前６丁目９番１４号美鈴ビル１階,,13,113,1500001,,,,,,,2025-07-18,1,,,,,チョウショウ,0
1245,6011001171014,新規,0,2025-07-18,2025-07-18,株式会社日本不動産センター,,株式会社,東京都,渋谷区,道玄坂２丁目２５番１２号道玄坂通４階,,13,113,1500043,,,,,,,2025-07-18,1,,,,,ニホンフドウサンセンター,0
1247,6011003022000,新規,0,2025-07-18,2025-07-18,家事レンジャー合同会社,,合同会社,東京都,目黒区,下目黒１丁目１番１４号コノトラビル７Ｆ,,13,110,1530064,,,,,,,2025-07-18,1,,,,,カジレンジャー,0
1248,6011003022009,新規,0,2025-07-18,2025-07-18,合同会社ｔｒｏｉｓ,,合同会社,東京都,渋谷区,恵比寿西２丁目４番８号ウィンド恵比寿ビル８Ｆ,,13,113,1500021,,,,,,,2025-07-18,1,,,,,トワ,0
1249,6011003022017,新規,0,2025-07-18,2025-07-18,Ｒｉｉｎｏｎ合同会社,,合同会社,東京都,目黒区,自由が丘２丁目１６番１２号Ｒ・Ｊ３,,13,110,1520035,,,,,,,2025-07-18,1,,,,,リノーン,0
1250,6011003022025,新規,0,2025-07-18,2025-07-18,ｄｏｐｐｅｌｐａｃｋ合同会社,,合同会社,東京都,目黒区,五本木２丁目１６－５クレストアベニュー祐天寺２０２,,13,110,1530053,,,,,,,2025-07-18,1,,,,,ドッペルパック,0
1253,6011101112479,新規,0,2025-07-18,2025-07-18,株式会社Ｕｃａ,,株式会社,東京都,新宿区,西新宿３丁目３番１３号西新宿水間ビル２Ｆ,,13,104,1600023,,,,,,,2025-07-18,1,,,,,ウカ,0
1259,6011201026521,新規,0,2025-07-18,2025-07-18,株式会社ｉｒａｋａ,,株式会社,東京都,中野区,上高田２丁目４７番６号,,13,114,1640002,,,,,,,2025-07-18,1,,,,,イラカ,0
1261,6011403004762,新規,0,2025-07-18,2025-07-18,ＴＯＰ　ＯＮＥ合同会社,,合同会社,東京都,板橋区,赤塚新町１丁目１１番１０－１０３号,,13,119,1750093,,,,,,,2025-07-18,1,,,,,トップワン,0
1263,6011501032310,新規,0,2025-07-18,2025-07-18,株式会社ｎｂｅ,,株式会社,東京都,荒川区,東日暮里３丁目２６－４ヴィレッタ日暮里３Ｆ,,13,118,1160014,,,,,,,2025-07-18,1,,,,,エヌビーイー,0
1264,6011501032335,新規,0,2025-07-18,2025-07-18,ｉＳＳ株式会社,,株式会社,東京都,北区,東十条４丁目１２番２号,,13,117,1140001,,,,,,,2025-07-18,1,,,,,アイエスエス,0
1266,6011701028538,新規,0,2025-07-18,2025-07-18,ＹＬスターウェイ株式会社,,株式会社,東京都,江戸川区,東小岩６丁目３３番１号４０１号室,,13,123,1330052,,,,,,,2025-07-18,1,,,,,ワイエルスターウェイ,0
1269,6011801046472,新規,0,2025-07-18,2025-07-18,株式会社べあぱう,,株式会社,東京都,足立区,西新井７丁目１２番５号セルティス西新井５０２,,13,121,1230841,,,,,,,2025-07-18,1,,,,,ベアパウ,0
1273,6012401043364,新規,0,2025-07-18,2025-07-18,株式会社ＭＥＧＵＲＵ,,株式会社,東京都,武蔵野市,吉祥寺南町３丁目７番１４号,,13,203,1800003,,,,,,,2025-07-18,1,,,,,メグル,0
1282,6020001163929,新規,0,2025-07-18,2025-07-18,サウンド・インスティンクト株式会社,,株式会社,神奈川県,横浜市西区,浅間町１丁目４番３号ウィザードビル４０２,,14,103,2200072,,,,,,,2025-07-18,1,,,,,サウンドインスティンクト,0
1292,6030001167648,新規,0,2025-07-18,2025-07-18,株式会社三田国際,,株式会社,埼玉県,北葛飾郡松伏町,大字大川戸８７８－１０１号室,,11,465,3430106,,,,,,,2025-07-18,1,,,,,ミタコクサイ,0
1293,6030001167706,新規,0,2025-07-18,2025-07-18,株式会社エラコネクト,,株式会社,埼玉県,川口市,幸町３丁目１２番３号ｔｒｅｖｅｎｔｏ２０３,,11,203,3320016,,,,,,,2025-07-18,1,,,,,エラコネクト,0
1294,6030001167714,新規,0,2025-07-18,2025-07-18,株式会社ＳＵＧＡＲＦＩＴ,,株式会社,埼玉県,さいたま市浦和区,北浦和３丁目８番２号メリア北浦和１Ｆ,,11,107,3300074,,,,,,,2025-07-18,1,,,,,シュガーフィット,0
1295,6030001167730,新規,0,2025-07-18,2025-07-18,株式会社心愛メモリアル,,株式会社,埼玉県,さいたま市南区,大字太田窪２３１３番地１８,,11,108,3360015,,,,,,,2025-07-18,1,,,,,シンアイメモリアル,0
1304,6040001050720,新規,0,2025-07-18,2025-07-18,株式会社宝不動産,,株式会社,千葉県,木更津市,文京３丁目１番９号,,12,206,2920804,,,,,,,2025-07-18,1,,,,,,0
1307,6040001139588,新規,0,2025-07-18,2025-07-18,株式会社梁設備設計,,株式会社,千葉県,市川市,欠真間２丁目１７番４号,,12,203,2720142,,,,,,,2025-07-18,1,,,,,リョウセツビセッケイ,0
1308,6040001139720,新規,0,2025-07-18,2025-07-18,株式会社旺晟建設,,株式会社,千葉県,八千代市,ゆりのき台４丁目１番地６長岡ビル４０３号,,12,221,2760042,,,,,,,2025-07-18,1,,,,,オウセイケンセツ,0
1309,6040001139745,新規,0,2025-07-18,2025-07-18,株式会社ｈａｍｏｒｕ,,株式会社,千葉県,千葉市中央区,中央２丁目５－１千葉中央ツインビル２号館７階ＣＨＩＢＡ－ＬＡＢＯ内,,12,101,2600013,,,,,,,2025-07-18,1,,,,,ハモル,0
1311,6040003028062,新規,0,2025-07-18,2025-07-18,合同会社喜運堂,,合同会社,千葉県,千葉市美浜区,若葉３丁目１番地１１幕張ベイパークミッドスクエアタワー３９１７号,,12,106,2610014,,,,,,,2025-07-18,1,,,,,キウンドウ,0
1312,6040003028070,新規,0,2025-07-18,2025-07-18,ＴＷＯ　ＮＩＮＥ合同会社,,合同会社,千葉県,浦安市,当代島１丁目２１番１１号,,12,227,2790001,,,,,,,2025-07-18,1,,,,,トゥーナイン,0
1314,6050001056956,新規,0,2025-07-18,2025-07-18,ＵＭＩファーム株式会社,,株式会社,茨城県,つくば市,今鹿島２７０８番地１,,08,220,3002641,,,,,,,2025-07-18,1,,,,,ウミファーム,0
1315,6050001056972,新規,0,2025-07-18,2025-07-18,徳鳳建設株式会社,,株式会社,茨城県,石岡市,山崎３７５２番地８,,08,205,3150125,,,,,,,2025-07-18,1,,,,,トクホウケンセツ,0
1317,6060001038425,新規,0,2025-07-18,2025-07-18,株式会社フラックス,,株式会社,栃木県,佐野市,植下町５９４番地ローズハイツ２０５,,09,204,3270835,,,,,,,2025-07-18,1,,,,,フラックス,0
1323,6080001027046,新規,0,2025-07-18,2025-07-18,株式会社リバイク,,株式会社,静岡県,静岡市清水区,三保２１７５番地２,,22,103,4240901,,,,,,,2025-07-18,1,,,,,リバイク,0
1336,6120001277925,新規,0,2025-07-18,2025-07-18,環博産業株式会社,,株式会社,大阪府,大阪市中央区,南船場３丁目２－２２おおきに南船場ビル８０３号室,,27,128,5420081,,,,,,,2025-07-18,1,,,,,カンハクサンギョウ,0
1337,6120001277990,新規,0,2025-07-18,2025-07-18,一森堂株式会社,,株式会社,大阪府,大阪市住之江区,北島３丁目１２－１２北島三丁目一戸建事務所,00139983,27,125,5590014,,,,,,,2025-07-18,1,,,,,イッシンドウ,0
1350,6140001139363,新規,0,2025-07-18,2025-07-18,株式会社羅針舎,,株式会社,兵庫県,川西市,萩原台西３丁目２０３番地,,28,217,6660006,,,,,,,2025-07-18,1,,,,,ラシンシャ,0
1356,6160001026881,新規,0,2025-07-18,2025-07-18,株式会社ウエーブ,,株式会社,滋賀県,守山市,勝部６丁目２番１号,,25,207,5240041,,,,,,,2025-07-18,1,,,,,ウエーブ,0
1363,6180001167609,新規,0,2025-07-18,2025-07-18,株式会社シンクエイト,,株式会社,愛知県,名古屋市中区,東桜２丁目２２番１８号,,23,106,4600005,,,,,,,2025-07-18,1,,,,,シンクエイト,0
1364,6180001167848,新規,0,2025-07-18,2025-07-18,株式会社ゴールドエステート,,株式会社,愛知県,名古屋市中区,金山２丁目６番１４号ＨＡＴビル１階,,23,106,4600022,,,,,,,2025-07-18,1,,,,,ゴールドエステート,0
1366,6180003028775,新規,0,2025-07-18,2025-07-18,Ｔｈｅｒｏｃｉｃ　Ｍｅｄ合同会社,,合同会社,愛知県,一宮市,大和町馬引字西出１９番地パビリオン桔梗ケ丘Ａ棟５０６号,,23,203,4910931,,,,,,,2025-07-18,1,,,,,ソラシックメッド,0
1368,6180301040028,新規,0,2025-07-18,2025-07-18,ＬＬＡ株式会社,,株式会社,愛知県,豊橋市,三ノ輪町２丁目４１番地４,,23,201,4400838,,,,,,,2025-07-18,1,,,,,エルエルエー,0
1370,6190001032407,新規,0,2025-07-18,2025-07-18,株式会社吉田,,株式会社,三重県,四日市市,日永西１丁目７番１号,,24,202,5100891,,,,,,,2025-07-18,1,,,,,ヨシダ,0
1373,6200001044037,新規,0,2025-07-18,2025-07-18,株式会社枇杷電機,,株式会社,岐阜県,可児市,下切３０７３番地４,,21,214,5090245,,,,,,,2025-07-18,1,,,,,ビワデンキ,0
1384,6260001040385,新規,0,2025-07-18,2025-07-18,株式会社スタジオオンライン,,株式会社,岡山県,岡山市中区,住吉町２丁目６９番地１,,33,102,7038238,,,,,,,2025-07-18,1,,,,,スタジオオンライン,0
1386,6260003005254,新規,0,2025-07-18,2025-07-18,合同会社やっぱ中華,,合同会社,岡山県,岡山市北区,大供２丁目１番９号１Ｆ,,33,101,7000913,,,,,,,2025-07-18,1,,,,,ヤッパチュウカ,0
1389,6290001110714,新規,0,2025-07-18,2025-07-18,株式会社朋遊,,株式会社,福岡県,福岡市博多区,美野島３丁目５番２プリメゾン博多４０１号,,40,132,8120017,,,,,,,2025-07-18,1,,,,,ホウユウ,0
1390,6290001110755,新規,0,2025-07-18,2025-07-18,Ｒｅａｌｉｚｅ　Ｘ株式会社,,株式会社,福岡県,福岡市博多区,博多駅前３丁目２３番２０－１００４号ウェルブライト博多ステーション,,40,132,8120011,,,,,,,2025-07-18,1,,,,,リアライズクロス,0
1395,6330001033415,新規,0,2025-07-18,2025-07-18,株式会社越山,,株式会社,熊本県,熊本市中央区,大江４丁目１１番１号１階,,43,101,8620971,,,,,,,2025-07-18,1,,,,,コシヤマ,0
1406,6360001035516,新規,0,2025-07-18,2025-07-18,沖縄ドライブ株式会社,,株式会社,沖縄県,那覇市,おもろまち１丁目１番２５号東棟１０３０,,47,201,9000006,,,,,,,2025-07-18,1,,,,,オキナワドライブ,0
1412,6370001052857,新規,0,2025-07-18,2025-07-18,株式会社佐知栄会計,,株式会社,宮城県,仙台市青葉区,本町１丁目９番６号,,04,101,9800014,,,,,,,2025-07-18,1,,,,,サチエカイケイ,0
1413,6370001052865,新規,0,2025-07-18,2025-07-18,株式会社栄翔不動産,,株式会社,宮城県,仙台市泉区,旭丘堤２丁目９番１０号,,04,105,9818004,,,,,,,2025-07-18,1,,,,,エイトフドウサン,0
1414,6370003007198,新規,0,2025-07-18,2025-07-18,合同会社ＶＥＬＭＯ,,合同会社,宮城県,仙台市青葉区,荒巻本沢３丁目１６番２－２０３号,,04,101,9810966,,,,,,,2025-07-18,1,,,,,ヴェルモ,0
1427,6450001014675,新規,0,2025-07-18,2025-07-18,アルティメイト株式会社,,株式会社,北海道,旭川市,三条通８丁目１７０５番地６０,,01,204,0700033,,,,,,,2025-07-18,1,,,,,アルティメイト,0
1433,6700150131452,新規,0,2025-07-18,2025-07-18,ｑｉｎｇｄａｏｈｕｏｇｕａｎｇｍａｏｙｉｙｏｕｘｉａｎｇｏｎｇｓｉ,,外国会社等,,,,,,,,ｈｕａｎｘｉｕｊｉｅｄａｏｂａｎｓｈｉｃｈｕｇｕｏｊｉａｂｏｚｉｃｕｎ１５０ｈａｏ　Ｑｉｎｇｄａｏｓｈｉ　ｊｉｍｏｑｕ　Ｓｈａｎｄｏｎｇｓｈｅｎｇ,,,,,,2025-07-18,1,,,,,チンダオフオグワンマオイーヨウシエンゴンスー,0
1438,7010003048054,新規,0,2025-07-18,2025-07-18,ユートピア合同会社,,合同会社,東京都,中央区,銀座１丁目１２－４Ｎ＆ＥＢＬＤ．７階,,13,102,1040061,,,,,,,2025-07-18,1,,,,,ユートピア,0
1439,7010003048070,新規,0,2025-07-18,2025-07-18,東京レジＳＲ７合同会社,,合同会社,東京都,千代田区,丸の内１丁目４番１号東京共同会計事務所内,,13,101,1000005,,,,,,,2025-07-18,1,,,,,トウキョウレジエスアールセブン,0
1440,7010003048079,新規,0,2025-07-18,2025-07-18,東京レジＳＲ１６合同会社,,合同会社,東京都,千代田区,丸の内１丁目４番１号東京共同会計事務所内,,13,101,1000005,,,,,,,2025-07-18,1,,,,,トウキョウレジエスアールシックスティーン,0
1448,7010401191777,新規,0,2025-07-18,2025-07-18,株式会社ＥＫＪ,,株式会社,東京都,港区,浜松町１丁目１９－１２ＹＯＵＮＧＥＲ７浜松町ビル５階,,13,103,1050013,,,,,,,2025-07-18,1,,,,,イーケージェー,0
1449,7010401191876,新規,0,2025-07-18,2025-07-18,株式会社ＣｏＬＬＭａｔｅ,,株式会社,東京都,港区,北青山１丁目３番３号三橋ビル３階,,13,103,1070061,,,,,,,2025-07-18,1,,,,,コルメイト,0
1450,7010403035627,新規,0,2025-07-18,2025-07-18,水晶岳合同会社,,合同会社,東京都,港区,六本木１丁目６番１号泉ガーデンタワーＫＰＭＧ税理士法人内,,13,103,1060032,,,,,,,2025-07-18,1,,,,,スイショウダケ,0
1456,7010701047992,新規,0,2025-07-18,2025-07-18,常青商事株式会社,,株式会社,東京都,品川区,大崎３丁目１－５ルミネ五反田第２－２０２号室,,13,109,1410032,,,,,,,2025-07-18,1,,,,,ジョウセイショウジ,0
1457,7010701048009,新規,0,2025-07-18,2025-07-18,株式会社ＭａＮｏ　Ｓｔｕｄｉｏ,,株式会社,東京都,品川区,南品川１丁目３番８号サザンテラス品川ＩＩ３０２,00139984,13,109,1400004,,,,,,,2025-07-18,1,,,,,マノスタジオ,0
1458,7010705003777,新規,0,2025-07-18,2025-07-18,一般社団法人建築不動産土地活用ビジネス推進機構,,その他の設立登記法人,東京都,品川区,豊町２丁目６番１０－３０３号,,13,109,1420042,,,,,,,2025-07-18,1,,,,,ケンチクフドウサントチカツヨウビジネススイシンキコウ,0
1468,7011001170832,新規,0,2025-07-18,2025-07-18,中英株式会社,,株式会社,東京都,渋谷区,渋谷４丁目２－６クレマージュ南青山６０２号,,13,113,1500002,,,,,,,2025-07-18,1,,,,,チュウエイ,0
1469,7011001170964,新規,0,2025-07-18,2025-07-18,Ｆｅｅｌ　Ｇｏｏｄ株式会社,,株式会社,東京都,渋谷区,円山町５番３号ＭＩＥＵＸ渋谷ビル８階,,13,113,1500044,,,,,,,2025-07-18,1,,,,,フィールグッド,0
1470,7011001171351,新規,0,2025-07-18,2025-07-18,株式会社Ｃｏｎｃｅｐｔ　Ｋ,,株式会社,東京都,渋谷区,神宮前１丁目５－８神宮前タワービルディング１４Ｆ,,13,113,1500001,,,,,,,2025-07-18,1,,,,,コンセプトケー,0
1472,7011003022032,新規,0,2025-07-18,2025-07-18,合同会社ゆまぴ,,合同会社,東京都,目黒区,青葉台２丁目１－８,,13,110,1530042,,,,,,,2025-07-18,1,,,,,ユマピ,0
1473,7011003022049,新規,0,2025-07-18,2025-07-18,合同会社Ｎａｌｏｈａ,,合同会社,東京都,渋谷区,広尾１丁目２番地１号ヒカリビル４階,,13,113,1500012,,,,,,,2025-07-18,1,,,,,ナロハ,0
1474,7011005011082,新規,0,2025-07-18,2025-07-18,一般社団法人全国自営業者支援協会,,その他の設立登記法人,東京都,渋谷区,神南１丁目１１－４ＦＰＧリンクス神南５階,,13,113,1500041,,,,,,,2025-07-18,1,,,,,ゼンコクジエイギョウシャシエンキョウカイ,0
1476,7011101112478,新規,0,2025-07-18,2025-07-18,宝創和光株式会社,,株式会社,東京都,新宿区,百人町１丁目１８－８大久保カドビルＬｉｎｋＳｐａｃｅ百人町Ａ１２,,13,104,1690073,,,,,,,2025-07-18,1,,,,,ホウソウワコウ,0
1478,7011301030744,新規,0,2025-07-18,2025-07-18,株式会社傳田建築設計事務所,,株式会社,東京都,杉並区,阿佐谷北１丁目３番４号小堺ビル４０２,,13,115,1660001,,,,,,,2025-07-18,1,,,,,デンダケンチクセッケイジムショ,0
1483,7011403004761,新規,0,2025-07-18,2025-07-18,合同会社ＴＭ,,合同会社,東京都,板橋区,高島平９丁目１８－１８,,13,119,1750082,,,,,,,2025-07-18,1,,,,,ティーエム,0
1486,7011501032334,新規,0,2025-07-18,2025-07-18,醍醐味日本株式会社,,株式会社,東京都,北区,赤羽北３丁目２６番４－１５０４号,,13,117,1150052,,,,,,,2025-07-18,1,,,,,ダイゴミニホン,0
1487,7011601028810,新規,0,2025-07-18,2025-07-18,蔵村株式会社,,株式会社,東京都,練馬区,春日町６丁目１６番１１フォーチュン光が丘２１９号室,,13,120,1790074,,,,,,,2025-07-18,1,,,,,クラムラ,0
1489,7011701028520,新規,0,2025-07-18,2025-07-18,和鋼工業株式会社,,株式会社,東京都,江戸川区,宇喜田町１１０９番地６,,13,123,1340082,,,,,,,2025-07-18,1,,,,,ワコウコウギョウ,0
1490,7011703004313,新規,0,2025-07-18,2025-07-18,ＧＩＦＵ　ＳＯＬＡＲ　ＰＡＲＫ１合同会社,,合同会社,東京都,江戸川区,船堀２丁目２０番７号シティハウスＡ棟２０４,,13,123,1340091,,,,,,,2025-07-18,1,,,,,ギフソーラーパークワン,0
1491,7011703004321,新規,0,2025-07-18,2025-07-18,ＮＥＸＵＳ合同会社,,合同会社,東京都,江戸川区,西一之江２丁目９番４号,,13,123,1320023,,,,,,,2025-07-18,1,,,,,ネクサス,0
1495,7011801046439,新規,0,2025-07-18,2025-07-18,株式会社日翔人財交流,,株式会社,東京都,足立区,江北１丁目４－８,,13,121,1230872,,,,,,,2025-07-18,1,,,,,ニッショウジンザイコウリュウ,0
1496,7011801046488,新規,0,2025-07-18,2025-07-18,株式会社高橋工業,,株式会社,東京都,足立区,六町４丁目４番１４号プラティーク六町３０１号室,,13,121,1210073,,,,,,,2025-07-18,1,,,,,タカハシコウギョウ,0
1500,7012801024120,新規,0,2025-07-18,2025-07-18,株式会社山昇商店,,株式会社,東京都,昭島市,松原町５丁目１８番６号,,13,207,1960003,,,,,,,2025-07-18,1,,,,,ヤマショウショウテン,0
1501,7013301054640,新規,0,2025-07-18,2025-07-18,ＢＡＣＫＮＩＮＥ株式会社,,株式会社,東京都,豊島区,池袋４丁目１番３－１００６号,,13,116,1710014,,,,,,,2025-07-18,1,,,,,バックナイン,0
1508,7020003028996,新規,0,2025-07-18,2025-07-18,合同会社唯惺社,,合同会社,神奈川県,横浜市中区,蓬莱町１丁目１‐８プレシス横浜関内パークアベニュー３０５,,14,104,2310048,,,,,,,2025-07-18,1,,,,,ユイセイシャ,0
1516,7030001167688,新規,0,2025-07-18,2025-07-18,豊華国際株式会社,,株式会社,埼玉県,戸田市,喜沢１丁目５０番５３号１０１,,11,224,3350013,,,,,,,2025-07-18,1,,,,,トヨカコクサイ,0
1517,7030001167713,新規,0,2025-07-18,2025-07-18,株式会社進誠建設,,株式会社,埼玉県,八潮市,大字大瀬１６５７番地,,11,234,3400822,,,,,,,2025-07-18,1,,,,,シンセイケンセツ,0
1518,7030001167721,新規,0,2025-07-18,2025-07-18,株式会社Ｌｉｅｎ,,株式会社,埼玉県,川口市,南鳩ヶ谷２丁目１８番６号,,11,203,3340013,,,,,,,2025-07-18,1,,,,,リアン,0
1526,7050001056930,新規,0,2025-07-18,2025-07-18,Ｍｉｒａｉａｎｄ株式会社,,株式会社,茨城県,つくば市,研究学園４丁目３４番地２,,08,220,3050817,,,,,,,2025-07-18,1,,,,,ミライアンド,0
1528,7050005013671,新規,0,2025-07-18,2025-07-18,一般社団法人Ｇｒｅｅｎ　Ｃａｍｐｕｓ,,その他の設立登記法人,茨城県,日立市,下深荻町７７７番地１,,08,202,3110404,,,,,,,2025-07-18,1,,,,,グリーンキャンパス,0
1535,7080105006523,新規,0,2025-07-18,2025-07-18,一般社団法人里山サステナブル伊豆の国,,その他の設立登記法人,静岡県,伊豆の国市,田中山４７９,,22,225,4102301,,,,,,,2025-07-18,1,,,,,サトヤマサステナブルイズノクニ,0
1537,7100001038782,新規,0,2025-07-18,2025-07-18,Ｓｎｏｗｂａｌｌ　Ｉｃｈｉｂｕ株式会社,,株式会社,長野県,飯山市,大字飯山１１４９２番地３３１,,20,213,3892253,,,,,,,2025-07-18,1,,,,,スノーボールイチブ,0
1554,7120001277965,新規,0,2025-07-18,2025-07-18,株式会社李成,,株式会社,大阪府,大阪市東成区,玉津２丁目１９番２５号,,27,115,5370023,,,,,,,2025-07-18,1,,,,,イソン,0
1555,7120001277973,新規,0,2025-07-18,2025-07-18,心和株式会社,,株式会社,大阪府,大阪市城東区,蒲生３丁目１５番１２号セザンヌ藤４０３Ａ,,27,118,5360016,,,,,,,2025-07-18,1,,,,,シンワ,0
1564,7130001080113,新規,0,2025-07-18,2025-07-18,崇実株式会社,,株式会社,京都府,京都市上京区,東竪町１１５番地の１１,,26,102,6028377,,,,,,,2025-07-18,1,,,,,スウジツ,0
1565,7130003010605,新規,0,2025-07-18,2025-07-18,合同会社アンフル,,合同会社,京都府,京都市上京区,武者小路通室町東入梅屋町４６６番地ジオグランデ御所西５０１,,26,102,6020902,,,,,,,2025-07-18,1,,,,,アンフル,0
1566,7140001139057,新規,0,2025-07-18,2025-07-18,ＴＷＩＮ　ＬＩＧＨＴ株式会社,,株式会社,兵庫県,西宮市,津門大箇町７番３０－５０５号,,28,204,6638243,,,,,,,2025-07-18,1,,,,,ツインライト,0
1568,7140005027563,新規,0,2025-07-18,2025-07-18,一般社団法人ｅｃｏｔｏｎｅ,,その他の設立登記法人,兵庫県,明石市,魚住町西岡１８６２番地カーネギー７０７号,,28,203,6740084,,,,,,,2025-07-18,1,,,,,エコトーン,0
1576,7180001167731,新規,0,2025-07-18,2025-07-18,石河電工株式会社,,株式会社,愛知県,名古屋市緑区,大清水５丁目４０７番地の１,,23,114,4580805,,,,,,,2025-07-18,1,,,,,イシカワデンコウ,0
1577,7180001167748,新規,0,2025-07-18,2025-07-18,株式会社トキノスタイル,,株式会社,愛知県,名古屋市千種区,今池３丁目１３番５号,,23,101,4640850,,,,,,,2025-07-18,1,,,,,トキノスタイル,0
1580,7180303006661,新規,0,2025-07-18,2025-07-18,合同会社ＫＦＯ,,合同会社,愛知県,豊橋市,弥生町字中原３８番地の１エスポール弥生４０２号,,23,201,4418106,,,,,,,2025-07-18,1,,,,,ケーエフオー,0
1582,7190001032406,新規,0,2025-07-18,2025-07-18,株式会社ＶＥＮＣＥＤＯＲ,,株式会社,三重県,津市,河芸町上野１０５７番地４,,24,201,5100304,,,,,,,2025-07-18,1,,,,,ベンセドール,0
1599,7240001065235,新規,0,2025-07-18,2025-07-18,株式会社広島建設,,株式会社,広島県,福山市,春日町１丁目１５番１４－４号,,34,207,7210907,,,,,,,2025-07-18,1,,,,,ヒロシマケンセツ,0
1603,7260001040368,新規,0,2025-07-18,2025-07-18,千田モノレール株式会社,,株式会社,岡山県,瀬戸内市,邑久町福山４８７番地１,,33,212,7014245,,,,,,,2025-07-18,1,,,,,センダモノレール,0
1604,7260001040384,新規,0,2025-07-18,2025-07-18,株式会社ミマサカ産業,,株式会社,岡山県,美作市,海田３７２０番地,,33,215,7070044,,,,,,,2025-07-18,1,,,,,ミマサカサンギョウ,0
1606,7260003005261,新規,0,2025-07-18,2025-07-18,ＤＥＭＩＳ合同会社,,合同会社,岡山県,倉敷市,福田町福田２３９６番地４,,33,202,7128041,,,,,,,2025-07-18,1,,,,,デミス,0
1614,7290001110762,新規,0,2025-07-18,2025-07-18,株式会社ＺＥＲＡ,,株式会社,福岡県,福岡市中央区,天神４丁目６－２８いちご天神ノースビル７階,,40,133,8100001,,,,,,,2025-07-18,1,,,,,ゼーラ,0
1615,7290001110779,新規,0,2025-07-18,2025-07-18,株式会社Ｇｒｏｗｔｈ　Ｐａｒｔｎｅｒｓ　Ｊａｐａｎ,,株式会社,福岡県,福岡市中央区,西中州三丁目２６番,,40,133,8100000,,,,,,,2025-07-18,1,,,,,グロウスパートナーズジャパン,0
1616,7290001110795,新規,0,2025-07-18,2025-07-18,株式会社スタジオクアノス,,株式会社,福岡県,福岡市博多区,博多駅東３丁目３番３号,,40,132,8120013,,,,,,,2025-07-18,1,,,,,スタジオクアノス,0
1618,7290005019785,新規,0,2025-07-18,2025-07-18,一般社団法人幸袋まちまちづくり協議会,,その他の設立登記法人,福岡県,飯塚市,目尾１０２０番地１飯塚市幸袋交流センター,,40,205,8200062,,,,,,,2025-07-18,1,,,,,コウブクロマチマチヅクリキョウギカイ,0
1620,7290801031720,新規,0,2025-07-18,2025-07-18,株式会社Ｇｒｅｅｎ　Ｓａｓｈ,,株式会社,福岡県,北九州市門司区,東新町１丁目７番１－８０１号,,40,101,8000055,,,,,,,2025-07-18,1,,,,,グリーンサッシュ,0
1632,7330003011129,新規,0,2025-07-18,2025-07-18,合同会社松寿,,合同会社,熊本県,八代市,古閑中町２４３７番地,,43,202,8660898,,,,,,,2025-07-18,1,,,,,ショウジュ,0
1644,7370003007197,新規,0,2025-07-18,2025-07-18,合同会社ＴＡＬＶＯ,,合同会社,宮城県,仙台市泉区,南光台１丁目５２番２１号,,04,105,9818003,,,,,,,2025-07-18,1,,,,,タルヴォ,0
1659,7450001014674,新規,0,2025-07-18,2025-07-18,ＳＴＹ株式会社,,株式会社,北海道,旭川市,神楽岡十四条５丁目３番２３号,,01,204,0788324,,,,,,,2025-07-18,1,,,,,エスティーワイ,0
1665,7500003003554,新規,0,2025-07-18,2025-07-18,合同会社結さぽ,,合同会社,愛媛県,西条市,楠甲３０８番地１,,38,206,7991302,,,,,,,2025-07-18,1,,,,,ユイサポ,0
1668,7700150131451,新規,0,2025-07-18,2025-07-18,門真市駅前地区市街地再開発組合,,その他,大阪府,門真市,新橋町３番１－１００７号,,27,223,5710048,,,,,,,2025-07-18,1,,,,,カドマシエキマエチクシガイチサイカイハツクミアイ,0
1676,8010003048078,新規,0,2025-07-18,2025-07-18,東京レジＳＲ１５合同会社,,合同会社,東京都,千代田区,丸の内１丁目４番１号東京共同会計事務所内,,13,101,1000005,,,,,,,2025-07-18,1,,,,,トウキョウレジエスアールフィフティーン,0
1677,8010005040330,新規,0,2025-07-18,2025-07-18,特定非営利活動法人Ｃｏｆｆｅｅ　Ｓｅｅｄｓ　Ｌａｂ,,その他の設立登記法人,東京都,中央区,東日本橋３丁目４番１８号東日本ＥＸビル６Ｆ,,13,102,1030004,,,,,,,2025-07-18,1,,,,,コーヒーシーズラボ,0
1690,8010405024585,新規,0,2025-07-18,2025-07-18,一般社団法人ＤＤソーラー,,その他の設立登記法人,東京都,港区,芝大門２丁目１２番３号共生ビル２号館７階,,13,103,1050012,,,,,,,2025-07-18,1,,,,,ディーディーソーラー,0
1694,8010701048008,新規,0,2025-07-18,2025-07-18,株式会社ＥＮｐａｔｈ,,株式会社,東京都,品川区,西五反田８丁目１番２号第２平森ビル１階,,13,109,1410031,,,,,,,2025-07-18,1,,,,,エンパス,0
1695,8010705003776,新規,0,2025-07-18,2025-07-18,一般社団法人品川ベース,,その他の設立登記法人,東京都,品川区,西大井５丁目１１番５号,,13,109,1400015,,,,,,,2025-07-18,1,,,,,シナガワベース,0
1703,8011001170699,新規,0,2025-07-18,2025-07-18,株式会社国士無双,,株式会社,東京都,渋谷区,道玄坂１丁目１０番８号渋谷道玄坂東急ビル２Ｆ－Ｃ,,13,113,1500043,,,,,,,2025-07-18,1,,,,,コクシムソウ,0
1704,8011001170889,新規,0,2025-07-18,2025-07-18,ＷＩＮＤ株式会社,,株式会社,東京都,渋谷区,道玄坂１丁目１０番８号,,13,113,1500043,,,,,,,2025-07-18,1,,,,,ウインド,0
1705,8011001170930,新規,0,2025-07-18,2025-07-18,株式会社Ｆｌｏｗ,,株式会社,東京都,渋谷区,恵比寿西２丁目４番８号ウィンド恵比寿ビル８Ｆ,,13,113,1500021,,,,,,,2025-07-18,1,,,,,フロー,0
1706,8011001170939,新規,0,2025-07-18,2025-07-18,株式会社ｃｏ‐ｃｒｅｘ,,株式会社,東京都,渋谷区,神山町１７番３－４０６号ネイバーズ渋谷神山町,,13,113,1500047,,,,,,,2025-07-18,1,,,,,コークレックス,0
1707,8011001170988,新規,0,2025-07-18,2025-07-18,株式会社ハースティス,,株式会社,東京都,渋谷区,恵比寿南３丁目２番２号アサンブレ恵比寿５０１,,13,113,1500022,,,,,,,2025-07-18,1,,,,,ハースティス,0
1708,8011001171012,新規,0,2025-07-18,2025-07-18,株式会社スタイルエヌ,,株式会社,東京都,渋谷区,神宮前６丁目２３番４号桑名ビル２Ｆ,,13,113,1500001,,,,,,,2025-07-18,1,,,,,スタイルエヌ,0
1714,8011103016148,新規,0,2025-07-18,2025-07-18,合同会社ＥＮＮＯＶＡ,,合同会社,東京都,新宿区,北新宿３丁目１２番２６号アートヒルズ北新宿１０１,,13,104,1690074,,,,,,,2025-07-18,1,,,,,エンノヴァ,0
1719,8011301030735,新規,0,2025-07-18,2025-07-18,株式会社心育社,,株式会社,東京都,杉並区,久我山４丁目３１番２１号,,13,115,1680082,,,,,,,2025-07-18,1,,,,,シンイクシャ,0
1721,8011503006616,新規,0,2025-07-18,2025-07-18,江東合同会社,,合同会社,東京都,北区,栄町７番８号,,13,117,1140005,,,,,,,2025-07-18,1,,,,,コウトウ,0
1726,8011801046479,新規,0,2025-07-18,2025-07-18,ＫＭＣＨ株式会社,,株式会社,東京都,足立区,千住曙町４０番１号,,13,121,1200023,,,,,,,2025-07-18,1,,,,,ケーエムシーエイチ,0
1730,8013303007777,新規,0,2025-07-18,2025-07-18,合同会社ＲＲＲ,,合同会社,東京都,豊島区,東池袋２丁目６２番８号,,13,116,1700013,,,,,,,2025-07-18,1,,,,,アールアールアール,0
1743,8020001163893,新規,0,2025-07-18,2025-07-18,トリプルコンボ株式会社,,株式会社,神奈川県,横浜市鶴見区,下末吉５丁目８－４３,,14,101,2300012,,,,,,,2025-07-18,1,,,,,トリプルコンボ,0
1748,8020003028946,新規,0,2025-07-18,2025-07-18,合同会社ＵＮＢＥＳＴＡＴＥ,,合同会社,神奈川県,横浜市旭区,さちが丘１５０番地４１,,14,112,2410822,,,,,,,2025-07-18,1,,,,,アンベステート,0
1752,8021001085599,新規,0,2025-07-18,2025-07-18,株式会社八雲,,株式会社,神奈川県,小田原市,酒匂１４１４―１鴨宮グランドコート２、４１０号,,14,206,2560816,,,,,,,2025-07-18,1,,,,,ヤクモ,0
1753,8021001085772,新規,0,2025-07-18,2025-07-18,千架株式会社,,株式会社,神奈川県,座間市,相模が丘５丁目２８番１３号,,14,216,2520001,,,,,,,2025-07-18,1,,,,,センカ,0
1764,8030001167687,新規,0,2025-07-18,2025-07-18,ＹｕｉＶｅｒｓｅ株式会社,,株式会社,埼玉県,戸田市,本町３丁目６番８－１０１号,,11,224,3350023,,,,,,,2025-07-18,1,,,,,ユイバース,0
1765,8030001167712,新規,0,2025-07-18,2025-07-18,株式会社ＦｏｕｒＨ,,株式会社,埼玉県,鶴ヶ島市,大字藤金８７８番地１０エバーグリーン若葉６０１号,,11,241,3502206,,,,,,,2025-07-18,1,,,,,フォーエイチ,0
1766,8030001167729,新規,0,2025-07-18,2025-07-18,株式会社ＪＶカンパニー,,株式会社,埼玉県,新座市,池田３丁目４番９号,,11,230,3520015,,,,,,,2025-07-18,1,,,,,ジェーブイカンパニー,0
1772,8040001139735,新規,0,2025-07-18,2025-07-18,ＪＡＰＡＮ３６０株式会社,,株式会社,千葉県,印西市,東の原１丁目４番地１４,,12,231,2701336,,,,,,,2025-07-18,1,,,,,ジャパンサンビャクロクジュウ,0
1789,8080001027044,新規,0,2025-07-18,2025-07-18,株式会社ＶＥＬＮＯＡ,,株式会社,静岡県,静岡市駿河区,馬渕２丁目１１番１９号,,22,102,4228063,,,,,,,2025-07-18,1,,,,,ヴェルノア,0
1790,8080101025666,新規,0,2025-07-18,2025-07-18,株式会社駿河中央水産,,株式会社,静岡県,富士市,中央町２丁目２番２５号２階,,22,210,4170052,,,,,,,2025-07-18,1,,,,,スルガチュウオウスイサン,0
1791,8090003002853,新規,0,2025-07-18,2025-07-18,ＲＮデータ合同会社,,合同会社,山梨県,中央市,浅利３０２８,,19,214,4001514,,,,,,,2025-07-18,1,,,,,,0
1798,8110003005820,新規,0,2025-07-18,2025-07-18,Ｙ　Ｓｈｉｅｌｄ合同会社,,合同会社,新潟県,新潟市中央区,南笹口１丁目１番３８号コープオリンピア８０８,,15,103,9500912,,,,,,,2025-07-18,1,,,,,ワイシールド,0
1808,8120001277980,新規,0,2025-07-18,2025-07-18,ＴＣＭ株式会社,,株式会社,大阪府,大阪市中央区,島之内２丁目４番１６号ケイアンドテイ道頓堀７１１号室,,27,128,5420082,,,,,,,2025-07-18,1,,,,,ティーシーエム,0
1809,8120001277989,新規,0,2025-07-18,2025-07-18,五条株式会社,,株式会社,大阪府,大阪市阿倍野区,阿倍野筋あべのハルカス３１階,,27,119,5450000,,,,,,,2025-07-18,1,,,,,ゴジョウ,0
1810,8120003030041,新規,0,2025-07-18,2025-07-18,ＳＫｐｌａｎ合同会社,,合同会社,大阪府,大阪市住吉区,東粉浜１丁目１２－８－５０１,,27,120,5580051,,,,,,,2025-07-18,1,,,,,エスケイプラン,0
1818,8122001039403,新規,0,2025-07-18,2025-07-18,株式会社水堂,,株式会社,大阪府,大東市,中垣内１丁目１１番１８－１０２号室,,27,218,5740013,,,,,,,2025-07-18,1,,,,,スイドウ,0
1824,8130001080112,新規,0,2025-07-18,2025-07-18,株式会社京つけもの新町三宅,,株式会社,京都府,京都市北区,小山下初音町３５番地５,,26,101,6038173,,,,,,,2025-07-18,1,,,,,キョウツケモノシンマチミヤケ,0
1825,8130001080129,新規,0,2025-07-18,2025-07-18,株式会社ＵＲ,,株式会社,京都府,城陽市,寺田宮ノ谷２９番地の１３９,,26,207,6100121,,,,,,,2025-07-18,1,,,,,ユーアール,0
1828,8130003010604,新規,0,2025-07-18,2025-07-18,合同会社Ｌｉｂｅｒ　Ａｘｉｏ,,合同会社,京都府,亀岡市,紺屋町１４番地５,,26,206,6210852,,,,,,,2025-07-18,1,,,,,リーベルアクシオ,0
1829,8130003010645,新規,0,2025-07-18,2025-07-18,合同会社料理理念サービス,,合同会社,京都府,亀岡市,篠町馬堀伊賀ノ辻１２番地１,00139980,26,206,6210823,,,,,,,2025-07-18,1,,,,,リョウリリネンサービス,0
1830,8130005017399,新規,0,2025-07-18,2025-07-18,一般社団法人京都知的障害者福祉施設協議会,,その他の設立登記法人,京都府,京都市中京区,壬生坊城町４８番地６京都社会福祉会館３階３０１号室,,26,104,6048804,,,,,,,2025-07-18,1,,,,,キョウトチテキショウガイシャフクシシセツキョウギカイ,0
1837,8140005027554,新規,0,2025-07-18,2025-07-18,一般社団法人食ｄｅつながろ,,その他の設立登記法人,兵庫県,伊丹市,平松３丁目１番３－１０１号,,28,207,6640853,,,,,,,2025-07-18,1,,,,,ショクデツナガロ,0
1842,8180301040026,新規,0,2025-07-18,2025-07-18,株式会社快晴調剤薬局,,株式会社,愛知県,岡崎市,土井町字荒井甲２６番地１,,23,202,4440204,,,,,,,2025-07-18,1,,,,,カイセイチョウザイヤッキョク,0
1843,8180303006660,新規,0,2025-07-18,2025-07-18,イエッサンス合同会社,,合同会社,愛知県,額田郡幸田町,大字菱池字岩堀２７番地１,,23,501,4440113,,,,,,,2025-07-18,1,,,,,イエッサンス,0
1844,8190001032405,新規,0,2025-07-18,2025-07-18,株式会社フジ,,株式会社,三重県,津市,長岡町８００番地１８８,,24,201,5140064,,,,,,,2025-07-18,1,,,,,フジ,0
1857,8230005009485,新規,0,2025-07-18,2025-07-18,一般社団法人リスタート,,その他の設立登記法人,富山県,富山市,銀嶺町７番１７号,,16,201,9318451,,,,,,,2025-07-18,1,,,,,リスタート,0
1859,8240001065242,新規,0,2025-07-18,2025-07-18,センシン建設株式会社,,株式会社,広島県,東広島市,黒瀬町川角５６０番地,,34,212,7392623,,,,,,,2025-07-18,1,,,,,センシンケンセツ,0
1861,8250001021252,新規,0,2025-07-18,2025-07-18,株式会社ＨＩＴ　ｗａｙｓ,,株式会社,山口県,岩国市,麻里布町５丁目８番２０－２０８号,,35,208,7400018,,,,,,,2025-07-18,1,,,,,ヒットウェイズ,0
1863,8250003003769,新規,0,2025-07-18,2025-07-18,合同会社Ｆａｍｉｌｉａｒ　Ｒａｂｂｉｔｒｙ,,合同会社,山口県,下松市,旗岡４丁目１４番３２号,,35,207,7440006,,,,,,,2025-07-18,1,,,,,ファミリアラビトリー,0
1867,8260003005260,新規,0,2025-07-18,2025-07-18,ＳｍａｒｔＣｌａｓｓ合同会社,,合同会社,岡山県,岡山市北区,大安寺南町１丁目８番３６号,,33,101,7000064,,,,,,,2025-07-18,1,,,,,スマートクラス,0
1871,8290001110679,新規,0,2025-07-18,2025-07-18,薫神株式会社,00139978,株式会社,福岡県,福岡市中央区,渡辺通２丁目３－８渡辺通カステリア２０２,,40,133,8100004,,,,,,,2025-07-18,1,,,,,クニカミ,0
1872,8290001110729,新規,0,2025-07-18,2025-07-18,株式会社エポカトラスト,,株式会社,福岡県,福岡市南区,寺塚２丁目２６番１９－６０１号ヒルクレスト寺塚,,40,134,8150074,,,,,,,2025-07-18,1,,,,,エポカトラスト,0
1873,8290001110737,新規,0,2025-07-18,2025-07-18,株式会社ＤＫカンパニー,,株式会社,福岡県,福岡市早良区,大字西入部４０７－２４－１Ｆ２号,,40,137,8111121,,,,,,,2025-07-18,1,,,,,ディーケーカンパニー,0
1879,8310001019711,新規,0,2025-07-18,2025-07-18,株式会社Ｓ＆Ｍ,,株式会社,長崎県,長崎市,西山台１丁目２２番７号,,42,201,8528122,,,,,,,2025-07-18,1,,,,,エスアンドエム,0
1889,8360001035506,新規,0,2025-07-18,2025-07-18,株式会社優玄商事,,株式会社,沖縄県,浦添市,字沢岻１２５１番地,,47,208,9012112,,,,,,,2025-07-18,1,,,,,ユウゲンショウジ,0
1891,8370001052855,新規,0,2025-07-18,2025-07-18,株式会社Ｔａｂｉｃｅｂｕ　Ｊａｐａｎ,,株式会社,宮城県,仙台市宮城野区,苦竹３丁目１番１４号,,04,102,9830036,,,,,,,2025-07-18,1,,,,,タビセブジャパン,0
1898,8420001019213,新規,0,2025-07-18,2025-07-18,株式会社ニイヤマ,,株式会社,青森県,十和田市,西十一番町１６番５号,,02,206,0340091,,,,,,,2025-07-18,1,,,,,ニイヤマ,0
1905,8430001094858,新規,0,2025-07-18,2025-07-18,ノースラン株式会社,,株式会社,北海道,札幌市西区,八軒八条東４丁目２番１７号,,01,107,0630868,,,,,,,2025-07-18,1,,,,,ノースラン,0
1907,8430003017874,新規,0,2025-07-18,2025-07-18,Ｎウェルネス合同会社,,合同会社,北海道,札幌市豊平区,月寒中央通２丁目２－１５,,01,105,0620020,,,,,,,2025-07-18,1,,,,,エヌウェルネス,0
1908,8430003017882,新規,0,2025-07-18,2025-07-18,ＴＨＥ　ＥＳＴＡＴＥ合同会社,,合同会社,北海道,虻田郡ニセコ町,字富士見３１番地３５,,01,395,0481501,,,,,,,2025-07-18,1,,,,,ザエステイト,0
1910,8440005002799,新規,0,2025-07-18,2025-07-18,一般社団法人八雲熊彫伝承保存振興会,,その他の設立登記法人,北海道,二海郡八雲町,本町８７番地,,01,346,0493107,,,,,,,2025-07-18,1,,,,,ヤクモクマボリデンショウホゾンシンコウカイ,0
1914,8460101007733,新規,0,2025-07-18,2025-07-18,株式会社とかち中札内アンドカンパニー,,株式会社,北海道,河西郡中札内村,南常盤東５線２８６番地２６,,01,638,0891368,,,,,,,2025-07-18,1,,,,,トカチナカサツナイアンドカンパニー,0
1917,8480001012897,新規,0,2025-07-18,2025-07-18,株式会社ＨＡＲＵＫＡＮＡ,,株式会社,徳島県,徳島市,吉野本町６丁目３４番地の１サーパス吉野橋１００２号,,36,201,7700802,,,,,,,2025-07-18,1,,,,,ハルカナ,0
1925,9010003047954,新規,0,2025-07-18,2025-07-18,合同会社ＹＷＥ,,合同会社,東京都,中央区,勝どき４丁目６番１－５０１９号,,13,102,1040054,,,,,,,2025-07-18,1,,,,,ワイダブリューイー,0
1926,9010003048069,新規,0,2025-07-18,2025-07-18,東京レジＳＲ６合同会社,,合同会社,東京都,千代田区,丸の内１丁目４番１号東京共同会計事務所内,,13,101,1000005,,,,,,,2025-07-18,1,,,,,トウキョウレジエスアールシックス,0
1927,9010003048077,新規,0,2025-07-18,2025-07-18,東京レジＳＲ１４合同会社,,合同会社,東京都,千代田区,丸の内１丁目４番１号東京共同会計事務所内,,13,101,1000005,,,,,,,2025-07-18,1,,,,,トウキョウレジエスアールフォーティーン,0
1928,9010005040354,新規,0,2025-07-18,2025-07-18,一般社団法人メモリーリンク１９８５,,その他の設立登記法人,東京都,中央区,銀座１丁目１２番４号Ｎ＆ＥＢＬＤ．６Ｆ,,13,102,1040061,,,,,,,2025-07-18,1,,,,,メモリーリンクイチキュウハチゴ,0
1931,9010401191775,新規,0,2025-07-18,2025-07-18,株式会社ＡＰＯ,,株式会社,東京都,港区,北青山１丁目３－３三橋ビル３階,,13,103,1070061,,,,,,,2025-07-18,1,,,,,アポ,0
1932,9010401191800,新規,0,2025-07-18,2025-07-18,株式会社ＫＫ＆Ｐａｒｔｎｅｒｓ,,株式会社,東京都,港区,北青山１丁目３－３三橋ビル３階,,13,103,1070061,,,,,,,2025-07-18,1,,,,,ケーケーアンドパートナーズ,0
1933,9010401191866,新規,0,2025-07-18,2025-07-18,株式会社Ｔ＆Ｃ,,株式会社,東京都,港区,赤坂３丁目８番８号赤坂フローラルプラザビル２階,,13,103,1070052,,,,,,,2025-07-18,1,,,,,ティーアンドシー,0
1935,9010403035518,新規,0,2025-07-18,2025-07-18,合同会社江口地所,,合同会社,東京都,港区,六本木１丁目９―３５―１７０２,,13,103,1060032,,,,,,,2025-07-18,1,,,,,エグチジショ,0
1936,9010405024535,新規,0,2025-07-18,2025-07-18,一般社団法人Ｎａｄｅｓｈｉｋｏ　Ｆｕｔｕｒｅｓ,,その他の設立登記法人,東京都,港区,台場２丁目３番５号台場ガーデンシティビル１１Ｆ,,13,103,1350091,,,,,,,2025-07-18,1,,,,,ナデシコフューチャーズ,0
1941,9010703007811,新規,0,2025-07-18,2025-07-18,合同会社Ｍ＆ＲＬａｂ,,合同会社,東京都,品川区,二葉１丁目８番１０号品川法務・登記総合事務所内,,13,109,1420043,,,,,,,2025-07-18,1,,,,,エムアンドアールラボ,0
1944,9010705003775,新規,0,2025-07-18,2025-07-18,一般社団法人優,,その他の設立登記法人,東京都,品川区,南大井３丁目３０番９号なあ・ま成岩５０１号室,,13,109,1400013,,,,,,,2025-07-18,1,,,,,ユウ,0
1949,9010903010103,新規,0,2025-07-18,2025-07-18,合同会社Ｍｏｏｎｌｅａｐ,,合同会社,東京都,世田谷区,玉川台１丁目１０―１６―２０５,,13,112,1580096,,,,,,,2025-07-18,1,,,,,ムーンリープ,0
1953,9011001170905,新規,0,2025-07-18,2025-07-18,株式会社ニューベーツ,,株式会社,東京都,渋谷区,千駄ヶ谷１丁目７番１４号ｍｈｏｕｓｅ２Ｆ,,13,113,1510051,,,,,,,2025-07-18,1,,,,,ニューベーツ,0
1954,9011001170921,新規,0,2025-07-18,2025-07-18,株式会社スピードファースト,,株式会社,東京都,渋谷区,代々木４丁目３３番１０号トーシンビル,,13,113,1510053,,,,,,,2025-07-18,1,,,,,スピードファースト,0
1955,9011001170987,新規,0,2025-07-18,2025-07-18,Ｍ＆アーク株式会社,,株式会社,東京都,渋谷区,恵比寿西２丁目８番４号ＥＸ恵比寿西ビル５階,,13,113,1500021,,,,,,,2025-07-18,1,,,,,エムアンドアーク,0
1956,9011101001729,新規,0,2025-07-18,2025-07-18,フジ企画株式会社,,株式会社,東京都,新宿区,大京町９番２０号,,13,104,1600015,,,,,,,2025-07-18,1,,,,,フジキカク,0
1964,9011503006615,新規,0,2025-07-18,2025-07-18,合同会社Ｖ・Ｑ・ＪＡＰＡＮ,,合同会社,東京都,北区,豊島４丁目１６番３４－７１１号王子ビューハイツ,,13,117,1140003,,,,,,,2025-07-18,1,,,,,ブイキュウジャパン,0
1966,9012301014470,新規,0,2025-07-18,2025-07-18,株式会社華月,,株式会社,東京都,町田市,玉川学園２丁目７－５,,13,209,1940041,,,,,,,2025-07-18,1,,,,,カゲツ,0
1967,9012403007240,新規,0,2025-07-18,2025-07-18,吉祥経営合同会社,,合同会社,東京都,武蔵野市,中町３丁目１８番１２号,,13,203,1800006,,,,,,,2025-07-18,1,,,,,キッショウケイエイ,0
1968,9012403007249,新規,0,2025-07-18,2025-07-18,あずさ不動産合同会社,,合同会社,東京都,三鷹市,下連雀３丁目３６番１,,13,204,1810013,,,,,,,2025-07-18,1,,,,,アズサフドウサン,0
1980,9020001163901,新規,0,2025-07-18,2025-07-18,コンサクラ株式会社,,株式会社,神奈川県,横浜市西区,北幸２丁目１０番４８号,,14,103,2200004,,,,,,,2025-07-18,1,,,,,コンサクラ,0
1984,9021003016295,新規,0,2025-07-18,2025-07-18,合同会社Ｍｏｎｏｌｉｔｈ,,合同会社,神奈川県,相模原市中央区,相生２丁目９番７－４０５号,,14,152,2520235,,,,,,,2025-07-18,1,,,,,モノリス,0
1990,9030001167538,新規,0,2025-07-18,2025-07-18,ＨａｐｐｙＯｎｅ株式会社,,株式会社,埼玉県,戸田市,本町１丁目２５番６－２０１号,,11,224,3350023,,,,,,,2025-07-18,1,,,,,ハッピーワン,0
1991,9030001167711,新規,0,2025-07-18,2025-07-18,ジャパンワークアドバンス株式会社,,株式会社,埼玉県,さいたま市見沼区,深作２丁目１０番地１９,,11,104,3370003,,,,,,,2025-07-18,1,,,,,ジャパンワークアドバンス,0
2003,9040001139742,新規,0,2025-07-18,2025-07-18,株式会社島田工業,,株式会社,千葉県,君津市,貞元１０９１－４,,12,225,2991133,,,,,,,2025-07-18,1,,,,,シマダコウギョウ,0
2008,9060001038414,新規,0,2025-07-18,2025-07-18,株式会社ブイレコード,,株式会社,栃木県,宇都宮市,今泉町２９９５番地９,,09,201,3210962,,,,,,,2025-07-18,1,,,,,ブイレコード,0
2024,9080403005308,新規,0,2025-07-18,2025-07-18,ＣＡＲＩＮ火輪合同会社,,合同会社,静岡県,浜松市中央区,新津町１７６番地ネオステージ新津９０２,,22,138,4300911,,,,,,,2025-07-18,1,,,,,カリン,0
2026,9100001038780,新規,0,2025-07-18,2025-07-18,株式会社峰,,株式会社,長野県,岡谷市,湖畔４丁目１番２号,,20,204,3940034,,,,,,,2025-07-18,1,,,,,ミネ,0
2033,9120001277872,新規,0,2025-07-18,2025-07-18,株式会社ＪＣＴＹ,,株式会社,大阪府,大阪市西区,北堀江２丁目７番７号、７０３号室,,27,106,5500014,,,,,,,2025-07-18,1,,,,,ジェイシーティーワイ,0
2034,9120001277939,新規,0,2025-07-18,2025-07-18,株式会社セレブ・ワン,,株式会社,大阪府,大阪市北区,天満橋１丁目６番８号ヴィルブーケ天満橋３０３号室,,27,127,5300042,,,,,,,2025-07-18,1,,,,,セレブワン,0
2035,9120001277963,新規,0,2025-07-18,2025-07-18,株式会社ＲｅＰｈａｓｅ,,株式会社,大阪府,大阪市西区,江之子島１丁目７番３号１１０６,,27,106,5500006,,,,,,,2025-07-18,1,,,,,リフェーズ,0
2036,9120001277971,新規,0,2025-07-18,2025-07-18,株式会社ＴＡＯ,,株式会社,大阪府,大阪市北区,梅田１丁目２番２,,27,127,5300001,,,,,,,2025-07-18,1,,,,,タオ,0
2038,9120003030016,新規,0,2025-07-18,2025-07-18,合同会社ＮＯＢＵ,,合同会社,大阪府,大阪市旭区,中宮５丁目２番２６号中宮ビル５階,,27,117,5350003,,,,,,,2025-07-18,1,,,,,ノブ,0
2041,9120101072125,新規,0,2025-07-18,2025-07-18,株式会社ＢＲＯＯＫ,,株式会社,大阪府,堺市南区,若松台３丁３３番３号,,27,145,5900116,,,,,,,2025-07-18,1,,,,,ブルック,0
2043,9122001039419,新規,0,2025-07-18,2025-07-18,スロッホ株式会社,,株式会社,大阪府,東大阪市,長田１丁目３番９号ビルズ１０２号,,27,227,5770015,,,,,,,2025-07-18,1,,,,,スロッホ,0
2044,9122003003249,新規,0,2025-07-18,2025-07-18,合同会社永保工業,,合同会社,大阪府,東大阪市,上小阪４丁目９番４号,,27,227,5770806,,,,,,,2025-07-18,1,,,,,エイホコウギョウ,0
2046,9130001080086,新規,0,2025-07-18,2025-07-18,バリューアッドエステート株式会社,,株式会社,京都府,京都市中京区,東洞院通御池下る笹屋町４３６番地２,,26,104,6048187,,,,,,,2025-07-18,1,,,,,バリューアッドエステート,0
2047,9130001080103,新規,0,2025-07-18,2025-07-18,株式会社あねさん,,株式会社,京都府,京都市中京区,六角通堀川東入越後町１９８番地,,26,104,6048256,,,,,,,2025-07-18,1,,,,,アネサン,0
2048,9130001080152,新規,0,2025-07-18,2025-07-18,株式会社日商ＳＩＧＮ,,株式会社,京都府,京都市南区,久世殿城町１１４番地１１,,26,107,6018205,,,,,,,2025-07-18,1,,,,,ニッショウサイン,0
2050,9130005017398,新規,0,2025-07-18,2025-07-18,一般社団法人京都生活サポート協会,,その他の設立登記法人,京都府,京都市中京区,壬生坊城町４８番地６京都社会福祉会館３階３０１号室,,26,104,6048804,,,,,,,2025-07-18,1,,,,,キョウトセイカツサポートキョウカイ,0
2056,9140001139278,新規,0,2025-07-18,2025-07-18,株式会社デントリペア・フルカワ,,株式会社,兵庫県,神戸市北区,長尾町宅原１８４８番４,,28,109,6511511,,,,,,,2025-07-18,1,,,,,デントリペアフルカワ,0
2057,9140003022325,新規,0,2025-07-18,2025-07-18,ドラゴン合同会社,,合同会社,兵庫県,尼崎市,神崎町３８－１６フィーカ神崎１階北号室,,28,202,6610964,,,,,,,2025-07-18,1,,,,,ドラゴン,0
2058,9140003022341,新規,0,2025-07-18,2025-07-18,ＳＯＬＡＣＥ合同会社,,合同会社,兵庫県,神戸市中央区,旭通１丁目２番６－６０３号,,28,110,6510095,,,,,,,2025-07-18,1,,,,,ソーラス,0
2060,9160003003546,新規,0,2025-07-18,2025-07-18,合同会社Ｄ．Ｔ　ＳＴＡＲ,,合同会社,滋賀県,草津市,若竹町４番３－２０１,,25,206,5250031,,,,,,,2025-07-18,1,,,,,ディティスター,0
2068,9180301040025,新規,0,2025-07-18,2025-07-18,株式会社ディグナクト,,株式会社,愛知県,岡崎市,上六名４丁目７番地１７,,23,202,4440858,,,,,,,2025-07-18,1,,,,,ディグクト,0
2069,9190003005119,新規,0,2025-07-18,2025-07-18,合同会社食育,,合同会社,三重県,度会郡度会町,棚橋２７５番地,,24,470,5162103,,,,,,,2025-07-18,1,,,,,ショクイク,0
2071,9200001044050,新規,0,2025-07-18,2025-07-18,カモスグレイス株式会社,,株式会社,岐阜県,岐阜市,芋島２丁目２番２２号,,21,201,5008234,,,,,,,2025-07-18,1,,,,,カモスグレイス,0
2074,9210001020240,新規,0,2025-07-18,2025-07-18,株式会社越前ファーム来田,,株式会社,福井県,丹生郡越前町,岩開第１７号２６番地甲,,18,423,9160145,,,,,,,2025-07-18,1,,,,,エチゼンファームキダ,0
2082,9230001021006,新規,0,2025-07-18,2025-07-18,株式会社清環,,株式会社,富山県,富山市,八町中３２３番地２,,16,201,9302226,,,,,,,2025-07-18,1,,,,,セイカン,0
2083,9240001065233,新規,0,2025-07-18,2025-07-18,株式会社成野,,株式会社,広島県,東広島市,西条土与丸３丁目４番２３－１３号,,34,212,7390007,,,,,,,2025-07-18,1,,,,,ナリノ,0
2094,9290001110678,新規,0,2025-07-18,2025-07-18,薫楽株式会社,00139977,株式会社,福岡県,福岡市博多区,美野島３丁目１４－１ステイツ博多駅南１０２,,40,132,8120017,,,,,,,2025-07-18,1,,,,,クンラク,0
2095,9290001110711,新規,0,2025-07-18,2025-07-18,株式会社網商,,株式会社,福岡県,福岡市東区,千早５丁目１６番２号,,40,131,8130044,,,,,,,2025-07-18,1,,,,,アミショウ,0
2096,9290001110736,新規,0,2025-07-18,2025-07-18,株式会社サンタ,,株式会社,福岡県,筑紫野市,石崎３丁目２４番１７号,,40,217,8180068,,,,,,,2025-07-18,1,,,,,サンタ,0
2097,9290001110777,新規,0,2025-07-18,2025-07-18,株式会社ＳｏｃｉａｌＢｏｏｓｔ,,株式会社,福岡県,福岡市中央区,天神４丁目６－２８いちご天神ノースビル７階,,40,133,8100001,,,,,,,2025-07-18,1,,,,,ソーシャルブースト,0
2098,9290001110793,新規,0,2025-07-18,2025-07-18,株式会社ＭＩＹＡＢＩ,,株式会社,福岡県,福岡市東区,東浜１丁目１１番３０－４０３号サントノーレ箱崎西,,40,131,8120055,,,,,,,2025-07-18,1,,,,,ミヤビ,0
2101,9290003017120,新規,0,2025-07-18,2025-07-18,合同会社倉,,合同会社,福岡県,太宰府市,水城６丁目１３番２４号,,40,221,8180131,,,,,,,2025-07-18,1,,,,,クラ,0
2103,9310001019710,新規,0,2025-07-18,2025-07-18,株式会社辰幸,,株式会社,長崎県,長崎市,清水町３－１９,,42,201,8528041,,,,,,,2025-07-18,1,,,,,タツコウ,0
2107,9330001033412,新規,0,2025-07-18,2025-07-18,株式会社緒方組,,株式会社,熊本県,上益城郡御船町,大字辺田見３８９番地３,,43,441,8613206,,,,,,,2025-07-18,1,,,,,オガタグミ,0
2109,9330003011127,新規,0,2025-07-18,2025-07-18,合同会社ＹＵＴＡＫＡ,,合同会社,熊本県,熊本市西区,中島町７８０－１１,,43,103,8615272,,,,,,,2025-07-18,1,,,,,ユタカ,0
2113,9350001019657,新規,0,2025-07-18,2025-07-18,株式会社小野原,,株式会社,宮崎県,日南市,瀬貝２丁目２－３６,,45,204,8870011,,,,,,,2025-07-18,1,,,,,オノハラ,0
2114,9360001035505,新規,0,2025-07-18,2025-07-18,株式会社夢月,,株式会社,沖縄県,宮古島市,平良字下里１０８番地１１,,47,214,9060013,,,,,,,2025-07-18,1,,,,,ムツキ,0
2115,9360001035513,新規,0,2025-07-18,2025-07-18,ＥＮリゾート株式会社,,株式会社,沖縄県,国頭郡本部町,字辺名地１９４番地１さくらアパート３０２,,47,308,9050224,,,,,,,2025-07-18,1,,,,,エンリゾート,0
2118,9360003015109,新規,0,2025-07-18,2025-07-18,合同会社ＰＨＡＫＣＨＥＥＳＥ,,合同会社,沖縄県,宮古島市,城辺字友利３０６番地４,,47,214,9060107,,,,,,,2025-07-18,1,,,,,パクチーズ,0
2130,9430001002745,新規,0,2025-07-18,2025-07-18,株式会社エムティー企画,,株式会社,北海道,札幌市中央区,南十三条西１７丁目１４９０番地２０,,01,101,0640913,,,,,,,2025-07-18,1,,,,,エムティーキカク,0
2132,9430001094907,新規,0,2025-07-18,2025-07-18,アイティフィックス株式会社,,株式会社,北海道,札幌市東区,北十九条東７丁目３番１５号,,01,103,0650019,,,,,,,2025-07-18,1,,,,,アイティフィックス,0
2133,9430003017873,新規,0,2025-07-18,2025-07-18,合同会社ＭＫ,,合同会社,北海道,札幌市中央区,南六条西４丁目５‐８山形会館３階,,01,101,0640806,,,,,,,2025-07-18,1,,,,,エムケー,0
