sequenceNumber,corporateNumber,process,correct,updateDate,changeDate,name,nameImageId,kind,prefectureName,cityName,streetNumber,addressImageId,prefectureCode,cityCode,postCode,addressOutside,addressOutsideImageId,closeDate,closeCause,successorCorporateNumber,changeCause,assignmentDate,latest,enName,enPrefectureName,enCityName,enAddressOutside,furigana,hihyoji
9,1010001236467,新規,0,2023-06-27,2023-06-27,株式会社エルモサ・ジャパン,,株式会社,東京都,千代田区,神田佐久間町３丁目２９－２リヨンドール秋葉原２０１,,13,101,1010025,,,,,,,2023-06-27,1,,,,,エルモサジャパン,0
10,1010001236475,新規,0,2023-06-27,2023-06-27,株式会社将星,,株式会社,東京都,中央区,新川１丁目６番６号,,13,102,1040033,,,,,,,2023-06-27,1,,,,,ショウセイ,0
13,1010003040925,新規,0,2023-06-27,2023-06-27,カリンソーラー合同会社,,合同会社,東京都,千代田区,九段南３丁目７番７号成和綜合会計事務所内,,13,101,1020074,,,,,,,2023-06-27,1,,,,,カリンソーラー,0
17,1010103002164,新規,0,2023-06-27,2023-06-27,合同会社ヨシプラス,,合同会社,東京都,八王子市,山田町１９５６番地４,,13,201,1930933,,,,,,,2023-06-27,1,,,,,ヨシプラス,0
24,1010401175182,新規,0,2023-06-27,2023-06-27,ＮｅｗＭｅ株式会社,,株式会社,東京都,港区,南青山３丁目３－３リビエラ南青山ビル１Ｆ,,13,103,1070062,,,,,,,2023-06-27,1,,,,,ニューミー,0
25,1010401175257,新規,0,2023-06-27,2023-06-27,株式会社麻布リサーチ,,株式会社,東京都,港区,麻布十番１丁目２－７,,13,103,1060045,,,,,,,2023-06-27,1,,,,,アザブリサーチ,0
26,1010401175315,新規,0,2023-06-27,2023-06-27,ＹＢＫ株式会社,,株式会社,東京都,港区,港南２丁目１６番１号品川イーストワンタワー４Ｆ,,13,103,1080075,,,,,,,2023-06-27,1,,,,,ワイビーケー,0
30,1010503007060,新規,0,2023-06-27,2023-06-27,合同会社アーステック,,合同会社,東京都,台東区,花川戸１丁目７番５号,,13,106,1110033,,,,,,,2023-06-27,1,,,,,アーステック,0
34,1010703006746,新規,0,2023-06-27,2023-06-27,ＩＷ‐ＰＲ合同会社,,合同会社,東京都,品川区,東五反田４丁目６－７－８０１,,13,109,1410022,,,,,,,2023-06-27,1,,,,,アイダブリューピーアール,0
46,1011101103383,新規,0,2023-06-27,2023-06-27,株式会社ＱＰＳ,,株式会社,東京都,新宿区,四谷４丁目２７－６ラインビルド新宿御苑１０４,,13,104,1600004,,,,,,,2023-06-27,1,,,,,キューピーエス,0
47,1011101103400,新規,0,2023-06-27,2023-06-27,Ｒａｔａｔａ　Ａｒｔｓ株式会社,,株式会社,東京都,新宿区,新宿５丁目１８番２０－８０３号,,13,104,1600022,,,,,,,2023-06-27,1,,,,,ラタタアーツ,0
54,1011803005712,新規,0,2023-06-27,2023-06-27,ＫＵＲ合同会社,,合同会社,東京都,葛飾区,金町３丁目６－６木村ビル２Ｆ,,13,122,1250042,,,,,,,2023-06-27,1,,,,,ケーユーアール,0
57,1012403006043,新規,0,2023-06-27,2023-06-27,翼出北合同会社,,合同会社,東京都,小金井市,本町５丁目３８番２７号ヴィラシャローム２０２,,13,210,1840004,,,,,,,2023-06-27,1,,,,,ヨクデキタ,0
58,1012701017717,新規,0,2023-06-27,2023-06-27,株式会社羊緑園,,株式会社,東京都,小平市,学園西町３丁目３番５号ファミール学園西Ｂ棟１０１号,,13,211,1870045,,,,,,,2023-06-27,1,,,,,ヨウリョクエン,0
68,1020001152192,新規,0,2023-06-27,2023-06-27,株式会社ＭＨ　Ｃｏｒｐｏｒａｔｉｏｎ,,株式会社,神奈川県,横浜市中区,北仲通５丁目５７－２ザ・タワー横浜北仲２２１７号,,14,104,2310003,,,,,,,2023-06-27,1,,,,,エムエイチコーポレーション,0
69,1020001152250,新規,0,2023-06-27,2023-06-27,株式会社システムコア,,株式会社,神奈川県,横浜市旭区,白根５丁目３８番３号,,14,112,2410005,,,,,,,2023-06-27,1,,,,,システムコア,0
78,1030001154584,新規,0,2023-06-27,2023-06-27,株式会社ロビン,,株式会社,埼玉県,川口市,戸塚東２丁目２６番３５号,,11,203,3330802,,,,,,,2023-06-27,1,,,,,ロビン,0
79,1030001154618,新規,0,2023-06-27,2023-06-27,ＭＴコンサルティング株式会社,,株式会社,埼玉県,さいたま市大宮区,下町２丁目５１番８号コーポＫＥＮ２０５号室,,11,103,3300844,,,,,,,2023-06-27,1,,,,,エムティコンサルティング,0
80,1030001154626,新規,0,2023-06-27,2023-06-27,Ｆｅｌｉｚ株式会社,,株式会社,埼玉県,児玉郡上里町,大字堤６０４番地３,,11,385,3690313,,,,,,,2023-06-27,1,,,,,フェリス,0
85,1030003021980,新規,0,2023-06-27,2023-06-27,合同会社ピチポ,,合同会社,埼玉県,和光市,白子１丁目２４番３３号,,11,229,3510101,,,,,,,2023-06-27,1,,,,,ピチポ,0
94,1040001128991,新規,0,2023-06-27,2023-06-27,株式会社ＷｉＬＬファシリティ,,株式会社,千葉県,印旛郡酒々井町,酒々井５６番地の３,,12,322,2850927,,,,,,,2023-06-27,1,,,,,ウィルファシリティ,0
100,1050001053033,新規,0,2023-06-27,2023-06-27,株式会社ＳＵＲＥ,,株式会社,茨城県,古河市,松並２丁目１１番３号,,08,204,3060021,,,,,,,2023-06-27,1,,,,,シュアー,0
132,1120001256041,新規,0,2023-06-27,2023-06-27,株式会社徳超電気,,株式会社,大阪府,大阪市東淀川区,北江口３丁目４番１２－２０１号,,27,114,5330002,,,,,,,2023-06-27,1,,,,,トクチョウデンキ,0
133,1120001256082,新規,0,2023-06-27,2023-06-27,品介株式会社,,株式会社,大阪府,大阪市西区,京町堀２丁目６番２０－２２０５号,,27,106,5500003,,,,,,,2023-06-27,1,,,,,シナスケ,0
134,1120005023702,新規,0,2023-06-27,2023-06-27,一般社団法人Ｒｅ‐Ｇｅｎｅｒａｔｉｏｎ,,その他の設立登記法人,大阪府,大阪市北区,梅田１丁目１番３号大阪駅前第３ビル２９階１－１－１号室,,27,127,5300001,,,,,,,2023-06-27,1,,,,,リジェネレーション,0
136,1120901047713,新規,0,2023-06-27,2023-06-27,株式会社グランツ,,株式会社,大阪府,豊中市,利倉２丁目２番１６号,,27,203,5610845,,,,,,,2023-06-27,1,,,,,グランツ,0
138,1122001037116,新規,0,2023-06-27,2023-06-27,株式会社オフィスＮ,,株式会社,大阪府,東大阪市,長栄寺１７番３号,,27,227,5770055,,,,,,,2023-06-27,1,,,,,オフィスエヌ,0
145,1150001026508,新規,0,2023-06-27,2023-06-27,株式会社葛城エイト,00130981,株式会社,奈良県,葛城市,山田１２３番地１,,29,211,6392138,,,,,,,2023-06-27,1,,,,,カツラギエイト,0
165,1220003003539,新規,0,2023-06-27,2023-06-27,合同会社たき火,,合同会社,石川県,金沢市,額乙丸町ハ１７２,,17,201,9218146,,,,,,,2023-06-27,1,,,,,タキビ,0
172,1240003006201,新規,0,2023-06-27,2023-06-27,合同会社もみ亭,,合同会社,広島県,広島市西区,三篠町２丁目７－３原田ビル１階,,34,104,7330003,,,,,,,2023-06-27,1,,,,,モミテイ,0
178,1280001008971,新規,0,2023-06-27,2023-06-27,株式会社アドバンス,,株式会社,島根県,松江市,法吉町１８６番地７,,32,201,6900861,,,,,,,2023-06-27,1,,,,,アドバンス,0
187,1290001102063,新規,0,2023-06-27,2023-06-27,株式会社ＵｐＲｉｖｅｒ,,株式会社,福岡県,小郡市,大保１３９９番地１－１０１号室,,40,216,8380115,,,,,,,2023-06-27,1,,,,,アップリバー,0
193,1310003004593,新規,0,2023-06-27,2023-06-27,合同会社吹崎民宿,,合同会社,長崎県,対馬市,美津島町吹崎２６番地１,,42,209,8170434,,,,,,,2023-06-27,1,,,,,フクザキミンシュク,0
195,1320003004114,新規,0,2023-06-27,2023-06-27,合同会社アイビック,,合同会社,大分県,大分市,大字千歳２０８２番地の５３,,44,201,8700132,,,,,,,2023-06-27,1,,,,,アイビック,0
199,1340001025671,新規,0,2023-06-27,2023-06-27,株式会社銀の葉,,株式会社,鹿児島県,鹿児島市,下福元町３６１０番地１,,46,201,8910144,,,,,,,2023-06-27,1,,,,,ギンノハ,0
204,1360005006856,新規,0,2023-06-27,2023-06-27,一般社団法人ＴＳＵＮＡＧＵ,,その他の設立登記法人,沖縄県,名護市,字宇茂佐１５２８番地４,,47,209,9050006,,,,,,,2023-06-27,1,,,,,ツナグ,0
206,1370001050106,新規,0,2023-06-27,2023-06-27,株式会社ウィズグロース,,株式会社,宮城県,仙台市青葉区,中央２丁目２番３０号,,04,101,9800021,,,,,,,2023-06-27,1,,,,,ウィズグロース,0
207,1370001050114,新規,0,2023-06-27,2023-06-27,株式会社ましら,,株式会社,宮城県,仙台市太白区,柳生４丁目１５番５号,,04,104,9811106,,,,,,,2023-06-27,1,,,,,マシラ,0
217,1430001089385,新規,0,2023-06-27,2023-06-27,株式会社アスカム,,株式会社,北海道,小樽市,望洋台３丁目１３番７号,,01,203,0470155,,,,,,,2023-06-27,1,,,,,アスカム,0
222,1430003015182,新規,0,2023-06-27,2023-06-27,合同会社ＳＡＮＹＵ,,合同会社,北海道,札幌市南区,藤野二条６丁目６番１４号,,01,106,0612282,,,,,,,2023-06-27,1,,,,,サンユー,0
223,1430003015190,新規,0,2023-06-27,2023-06-27,ＱＵＲＥＳＨＩ　ＴＲＡＤＩＮＧ合同会社,,合同会社,北海道,江別市,東光町１０４番地の１４,,01,217,0670023,,,,,,,2023-06-27,1,,,,,クレシトレーディング,0
232,1700150105700,新規,0,2023-06-27,2021-11-11,中東遠総合医療センター職員労働組合,,その他,静岡県,掛川市,菖蒲ヶ池１－１,,22,213,4360040,,,,,,,2021-11-11,1,,,,,チユウトウエンソウゴウイリヨウセンターシヨクインロウドウクミアイ,0
233,1700150115162,新規,0,2023-06-27,2023-06-09,ワーカーズ・コレクティブ　ふくの輪,,その他,埼玉県,越谷市,南越谷１丁目２９０４－３,,11,222,3430845,,,,,,,2023-06-09,1,,,,,ワーカーズコレクテイブフクノワ,0
234,1700150117638,新規,0,2023-06-27,2023-06-23,沖縄空手世界大会実行委員会,,その他,沖縄県,那覇市,泉崎１丁目２－２本庁舎１２階,,47,201,9000021,,,,,,,2023-06-23,1,,,,,オキナワカラテセカイタイカイジツコウイインカイ,0
247,2010001236334,新規,0,2023-06-27,2023-06-27,ＳＩＬＫ　ＴＥＣＨ株式会社,,株式会社,東京都,中央区,明石町１番７－７１１号,,13,102,1040044,,,,,,,2023-06-27,1,,,,,シルクテック,0
248,2010001236474,新規,0,2023-06-27,2023-06-27,奥川フーズコンサルティング株式会社,,株式会社,東京都,中央区,京橋３丁目３番１３号平和ビル３号館３Ｆ,,13,102,1040031,,,,,,,2023-06-27,1,,,,,オクカワフーズコンサルティング,0
250,2010003040882,新規,0,2023-06-27,2023-06-27,Ｔｗｏ　Ｆａｃｅ合同会社,,合同会社,東京都,中央区,日本橋室町１丁目１１番１２号７階,,13,102,1030022,,,,,,,2023-06-27,1,,,,,ツーフェース,0
251,2010003040899,新規,0,2023-06-27,2023-06-27,ベストパートナーズ合同会社,,合同会社,東京都,中央区,銀座１丁目１２番４号Ｎ＆Ｅ・ＢＬＤ．７階,,13,102,1040061,,,,,,,2023-06-27,1,,,,,ベストパートナーズ,0
252,2010003040924,新規,0,2023-06-27,2023-06-27,ポプラソーラー合同会社,,合同会社,東京都,千代田区,九段南３丁目７番７号成和綜合会計事務所内,,13,101,1020074,,,,,,,2023-06-27,1,,,,,ポプラソーラー,0
257,2010401175207,新規,0,2023-06-27,2023-06-27,株式会社ＹＺ　ＰＡＲＴＮＥＲＳ,,株式会社,東京都,港区,南麻布３丁目１９－１８－４０２,,13,103,1060047,,,,,,,2023-06-27,1,,,,,ワイジーパートナーズ,0
258,2010401175264,新規,0,2023-06-27,2023-06-27,株式会社ライフ,,株式会社,東京都,港区,南麻布３丁目２０番１号Ｄａｉｗａ麻布テラス５Ｆ,,13,103,1060047,,,,,,,2023-06-27,1,,,,,ライフ,0
259,2010401175322,新規,0,2023-06-27,2023-06-27,トミオー通商株式会社,,株式会社,東京都,港区,赤坂４丁目８番１９号赤坂フロントタウン３階,,13,103,1070052,,,,,,,2023-06-27,1,,,,,トミオーツウショウ,0
261,2010403030384,新規,0,2023-06-27,2023-06-27,合同会社厚岸ソーラー,,合同会社,東京都,港区,六本木６丁目１０番１号六本木ヒルズ森タワー,,13,103,1060032,,,,,,,2023-06-27,1,,,,,アッケシソーラー,0
263,2010501050656,新規,0,2023-06-27,2023-06-27,株式会社Ｆａｒｍａｃｉａ　Ｄａｙｓ,,株式会社,東京都,台東区,蔵前３丁目１４番６号シティーカーム２０４,,13,106,1110051,,,,,,,2023-06-27,1,,,,,ファルマシアデイズ,0
293,2011105010674,新規,0,2023-06-27,2023-06-27,一般社団法人全国ペットシッター協会,,その他の設立登記法人,東京都,新宿区,新宿５丁目４番１号新宿Ｑフラットビル７０７,,13,104,1600022,,,,,,,2023-06-27,1,,,,,ゼンコクペットシッターキョウカイ,0
299,2012401040679,新規,0,2023-06-27,2023-06-27,株式会社Ｒｅｌｍｓ,,株式会社,東京都,府中市,四谷３丁目６３番地の３８,,13,206,1830035,,,,,,,2023-06-27,1,,,,,リルムス,0
301,2012403006042,新規,0,2023-06-27,2023-06-27,ＫＴＶ　Ｅｎｔｅｒｐｒｉｓｅｓ合同会社,,合同会社,東京都,三鷹市,新川２丁目７番４号ジブリィ三鷹３０６,,13,204,1810004,,,,,,,2023-06-27,1,,,,,ケイティーブイエンタープライセス,0
306,2013303006677,新規,0,2023-06-27,2023-06-27,テクナビ合同会社,,合同会社,東京都,豊島区,目白１丁目４－１５アーバンライフ目白駅前１５０３,,13,116,1710031,,,,,,,2023-06-27,1,,,,,テクナビ,0
313,2020005016046,新規,0,2023-06-27,2023-06-27,一般社団法人らくご米多朗,,その他の設立登記法人,神奈川県,川崎市多摩区,菅稲田堤３丁目１９番４７号,,14,135,2140003,,,,,,,2023-06-27,1,,,,,ラクゴヨネタロウ,0
327,2030001154583,新規,0,2023-06-27,2023-06-27,株式会社ＤＥＮＮＹＳ,,株式会社,埼玉県,川口市,大字芝６４９９番地,,11,203,3330866,,,,,,,2023-06-27,1,,,,,デニス,0
328,2030001154591,新規,0,2023-06-27,2023-06-27,株式会社Ｌｉｂｅｒ,,株式会社,埼玉県,川越市,大字下赤坂７５２番地１８,,11,201,3501155,,,,,,,2023-06-27,1,,,,,リーベル,0
332,2030003022029,新規,0,2023-06-27,2023-06-27,合同会社Ｊ＆Ｋ　Ｊａｐａｎ　Ｓｕｒｐｌｕｓ,,合同会社,埼玉県,川越市,大字藤間５２７番地１,,11,201,3501142,,,,,,,2023-06-27,1,,,,,ジェーアンドケージャパンサープラス,0
335,2040001128990,新規,0,2023-06-27,2023-06-27,株式会社萬利商事,,株式会社,千葉県,千葉市若葉区,若松町４１１番地９７,,12,104,2640021,,,,,,,2023-06-27,1,,,,,マンリショウジ,0
339,2040003022853,新規,0,2023-06-27,2023-06-27,Ｆａｍｉｌｙ合同会社,,合同会社,千葉県,柏市,東柏１丁目２３番２３号,,12,217,2770017,,,,,,,2023-06-27,1,,,,,ファミリー,0
343,2050001053032,新規,0,2023-06-27,2023-06-27,鹿島エコクリエイション株式会社,,株式会社,茨城県,神栖市,東和田２１番地１１,,08,232,3140102,,,,,,,2023-06-27,1,,,,,カシマエコクリエイション,0
358,2080103002834,新規,0,2023-06-27,2023-06-27,合同会社ＴＫ企画,,合同会社,静岡県,伊豆市,戸倉野下川原３０７－１,,22,222,4102519,,,,,,,2023-06-27,1,,,,,ティーケーキカク,0
362,2100003007071,新規,0,2023-06-27,2023-06-27,ハクミサービス合同会社,,合同会社,長野県,伊那市,西春近３７９４番地７,,20,209,3994431,,,,,,,2023-06-27,1,,,,,ハクミサービス,0
373,2120001255959,新規,0,2023-06-27,2023-06-27,株式会社ｔｅｔｏｔｅ,,株式会社,大阪府,大阪市阿倍野区,昭和町２丁目９番２２号,,27,119,5450011,,,,,,,2023-06-27,1,,,,,テトテ,0
374,2120001256016,新規,0,2023-06-27,2023-06-27,幸健株式会社,,株式会社,大阪府,大阪市生野区,林寺２丁目８番２号Ｂ２０２号室,,27,116,5440023,,,,,,,2023-06-27,1,,,,,サチケン,0
379,2120103005287,新規,0,2023-06-27,2023-06-27,合同会社Ｍ＆Ａ,,合同会社,大阪府,堺市堺区,出島町２丁６番２９号,,27,141,5900834,,,,,,,2023-06-27,1,,,,,エムアンドエイ,0
380,2120103005295,新規,0,2023-06-27,2023-06-27,紅星貿易合同会社,,合同会社,大阪府,河内長野市,緑ケ丘北町７番１１号,,27,216,5860081,,,,,,,2023-06-27,1,,,,,コウセイボウエキ,0
385,2120903004711,新規,0,2023-06-27,2023-06-27,合同会社レイアート,,合同会社,大阪府,三島郡島本町,山崎１丁目３番１６－７号,,27,301,6180001,,,,,,,2023-06-27,1,,,,,レイアート,0
391,2122003002612,新規,0,2023-06-27,2023-06-27,合同会社リエゾン,,合同会社,大阪府,東大阪市,寿町１丁目１番８号,,27,227,5770837,,,,,,,2023-06-27,1,,,,,リエゾン,0
393,2140001130648,新規,0,2023-06-27,2023-06-27,株式会社銀雅ライン,,株式会社,兵庫県,神戸市須磨区,桜の杜２丁目１０番３０号,,28,107,6540114,,,,,,,2023-06-27,1,,,,,ギンガライン,0
394,2140001130656,新規,0,2023-06-27,2023-06-27,株式会社慧光,,株式会社,兵庫県,芦屋市,六麓荘町６番３０号,,28,206,6590011,,,,,,,2023-06-27,1,,,,,エコウ,0
395,2140001130664,新規,0,2023-06-27,2023-06-27,株式会社ＲＯＸ　ｍａｎａｇｅｍｅｎｔ,,株式会社,兵庫県,神戸市中央区,中山手通２丁目１０番５号永都ビル神戸本館６階６Ｂ,,28,110,6500004,,,,,,,2023-06-27,1,,,,,ロックスマネジメント,0
401,2180001156796,新規,0,2023-06-27,2023-06-27,株式会社ＫＡＧＳｃｒｅａｔｉｏｎ,,株式会社,愛知県,常滑市,金山字坊田１番１,,23,216,4790003,,,,,,,2023-06-27,1,,,,,ガグスクリエイション,0
404,2180003025388,新規,0,2023-06-27,2023-06-27,嘉和合同会社,,合同会社,愛知県,名古屋市中村区,八社２丁目１１２番地１０５号室,,23,105,4530863,,,,,,,2023-06-27,1,,,,,カワ,0
406,2180005020263,新規,0,2023-06-27,2023-06-27,医療法人蓮華会,,その他の設立登記法人,愛知県,丹羽郡大口町,中小口２丁目２３８番地ダイナリッチ水野２０３号室,,23,361,4800142,,,,,,,2023-06-27,1,,,,,レンゲカイ,0
426,2290001102070,新規,0,2023-06-27,2023-06-27,株式会社ガレージ零,,株式会社,福岡県,糸島市,板持１０４番地２,,40,230,8191101,,,,,,,2023-06-27,1,,,,,ガレージゼロ,0
434,2310003004592,新規,0,2023-06-27,2023-06-27,合同会社わっしょい,,合同会社,長崎県,佐世保市,大塔町６３２番地３２,,42,202,8571161,,,,,,,2023-06-27,1,,,,,ワッショイ,0
441,2370001050113,新規,0,2023-06-27,2023-06-27,株式会社鎌商コンシェル,,株式会社,宮城県,仙台市宮城野区,白鳥２丁目８番１６号,,04,102,9830006,,,,,,,2023-06-27,1,,,,,カマショウコンシェル,0
458,2460005001573,新規,0,2023-06-27,2023-06-27,特定非営利活動法人弟子屈自然共生協会サロルンカムイ,,その他の設立登記法人,北海道,川上郡弟子屈町,字熊牛原野二十線西８－１,,01,665,0883200,,,,,,,2023-06-27,1,,,,,テシカガシゼンキョウセイキョウカイサロルンカムイ,0
466,2490001010518,新規,0,2023-06-27,2023-06-27,株式会社韓サム,,株式会社,高知県,高知市,帯屋町２丁目１番２５号新生ビル２Ｆ,,39,201,7800841,,,,,,,2023-06-27,1,,,,,ハンサム,0
477,3010001236424,新規,0,2023-06-27,2023-06-27,株式会社寛圓来,,株式会社,東京都,中央区,銀座１丁目３番３号Ｇ１ビル７階,,13,102,1040061,,,,,,,2023-06-27,1,,,,,カンエンライ,0
488,3010401175255,新規,0,2023-06-27,2023-06-27,プレイス株式会社,,株式会社,東京都,港区,南青山３丁目１番３６号青山丸竹ビル６Ｆ,,13,103,1070062,,,,,,,2023-06-27,1,,,,,プレイス,0
489,3010403030375,新規,0,2023-06-27,2023-06-27,Ｓｅｎｎａ　Ｖ合同会社,,合同会社,東京都,港区,元麻布３丁目１番６号,,13,103,1060046,,,,,,,2023-06-27,1,,,,,セナファイブ,0
490,3010403030383,新規,0,2023-06-27,2023-06-27,合同会社由利本荘ソーラー,,合同会社,東京都,港区,六本木６丁目１０番１号六本木ヒルズ森タワー,,13,103,1060032,,,,,,,2023-06-27,1,,,,,ユリホンジョウソーラー,0
493,3010503007059,新規,0,2023-06-27,2023-06-27,合同会社ＫＳパートナー,,合同会社,東京都,台東区,花川戸１丁目７番５号,,13,106,1110033,,,,,,,2023-06-27,1,,,,,ケーエスパートナー,0
494,3010601063326,新規,0,2023-06-27,2023-06-27,福汀株式会社,,株式会社,東京都,墨田区,東駒形２丁目２－１３東駒形二丁目ビル４０３号室,,13,107,1300005,,,,,,,2023-06-27,1,,,,,フクディン,0
508,3011001155242,新規,0,2023-06-27,2023-06-27,星野商会株式会社,,株式会社,東京都,渋谷区,富ヶ谷１丁目１４－１４スタンフォードアネックスビル３Ｆ,,13,113,1510063,,,,,,,2023-06-27,1,,,,,ホシノショウカイ,0
509,3011001155267,新規,0,2023-06-27,2023-06-27,株式会社ｔａｇ　ｓｔａｎｄａｒｄ,,株式会社,東京都,渋谷区,道玄坂１丁目１７番５号オリンピックビル２Ｆ,,13,113,1500043,,,,,,,2023-06-27,1,,,,,タグスタンダード,0
510,3011001155283,新規,0,2023-06-27,2023-06-27,株式会社Ｂａｃｋ　Ｃａｓｔ．Ｄｅｓｉｇｎ,,株式会社,東京都,渋谷区,道玄坂１丁目１０番８号渋谷道玄坂東急ビル２Ｆ－Ｃ,,13,113,1500043,,,,,,,2023-06-27,1,,,,,バックキャストデザイン,0
511,3011001155291,新規,0,2023-06-27,2023-06-27,株式会社ネクストライフジャパン,,株式会社,東京都,渋谷区,恵比寿３丁目３５番１－１０３号,,13,113,1500013,,,,,,,2023-06-27,1,,,,,ネクストライフジャパン,0
519,3011101103398,新規,0,2023-06-27,2023-06-27,株式会社Ｈｅａｒｔ　ＪＡＰＡＮ,,株式会社,東京都,新宿区,西新宿３丁目９番７－１１１４号,,13,104,1600023,,,,,,,2023-06-27,1,,,,,ハートジャパン,0
532,3011803005710,新規,0,2023-06-27,2023-06-27,合同会社万事屋小林,,合同会社,東京都,足立区,西伊興３丁目７番２３号,,13,121,1210824,,,,,,,2023-06-27,1,,,,,ヨロズヤコバヤシ,0
535,3012401040645,新規,0,2023-06-27,2023-06-27,株式会社Ｃｈｉｎｏｏｋ,,株式会社,東京都,三鷹市,下連雀３丁目４２－１８－５０８,,13,204,1810013,,,,,,,2023-06-27,1,,,,,チヌーク,0
543,3013301050957,新規,0,2023-06-27,2023-06-27,慶栄株式会社,,株式会社,東京都,豊島区,西池袋１丁目３１－５白井ビル３０９号室,,13,116,1710021,,,,,,,2023-06-27,1,,,,,ケイエイ,0
544,3013301050973,新規,0,2023-06-27,2023-06-27,株式会社ＣＡＲＰＥ　ＤＩＥＭ,,株式会社,東京都,豊島区,池袋１丁目７－３１,,13,116,1700014,,,,,,,2023-06-27,1,,,,,カルペディエム,0
550,3020001152224,新規,0,2023-06-27,2023-06-27,株式会社ｃａｌｉｎ,,株式会社,神奈川県,横浜市港北区,綱島西１丁目６番６号,,14,109,2230053,,,,,,,2023-06-27,1,,,,,カラン,0
551,3020001152232,新規,0,2023-06-27,2023-06-27,エスダブリューエイチジャパン株式会社,,株式会社,神奈川県,横浜市港北区,新横浜２丁目６－１２ＳＴＡＦビル７階,,14,109,2220033,,,,,,,2023-06-27,1,,,,,エスダブリューエイチジャパン,0
573,3030001154541,新規,0,2023-06-27,2023-06-27,Ａａｒｙａｄｅｖ株式会社,,株式会社,埼玉県,坂戸市,末広町９－１９坂戸ダイカンプラザＣＩＴＹＩＩ３１１号室,00130985,11,239,3500272,,,,,,,2023-06-27,1,,,,,アリヤデフ,0
574,3030001154599,新規,0,2023-06-27,2023-06-27,浦和土地開発株式会社,,株式会社,埼玉県,さいたま市浦和区,東高砂町１０番２９号,,11,107,3300055,,,,,,,2023-06-27,1,,,,,ウラワトチカイハツ,0
575,3030001154616,新規,0,2023-06-27,2023-06-27,株式会社Ｗｉｌｌｏｗ３８,,株式会社,埼玉県,さいたま市中央区,本町東７丁目２番１－７１０号,,11,105,3380003,,,,,,,2023-06-27,1,,,,,ウィロウスリーエイト,0
577,3030003022003,新規,0,2023-06-27,2023-06-27,合同会社ＳＰＩＤＥＡ,,合同会社,埼玉県,さいたま市浦和区,岸町２丁目３番１３－１号Ｄｕｐｌｅｘ岸町Ａ２,,11,107,3300064,,,,,,,2023-06-27,1,,,,,スパイディア,0
578,3030003022011,新規,0,2023-06-27,2023-06-27,合同会社やすらぎ,,合同会社,埼玉県,川口市,上青木３丁目１８番１０号タケヤハイツ２０３号,,11,203,3330844,,,,,,,2023-06-27,1,,,,,ヤスラギ,0
579,3030003022044,新規,0,2023-06-27,2023-06-27,リーイズム合同会社,,合同会社,埼玉県,ふじみ野市,ふじみ野２丁目２０―１０―２０９,,11,245,3560050,,,,,,,2023-06-27,1,,,,,リーイズム,0
586,3040001128916,新規,0,2023-06-27,2023-06-27,株式会社ＤＲＥＡＭ,,株式会社,千葉県,船橋市,前原東５丁目２４－６,,12,204,2740824,,,,,,,2023-06-27,1,,,,,ドリーム,0
588,3040003022844,新規,0,2023-06-27,2023-06-27,合同会社ミシェルトータルビューティー,,合同会社,千葉県,松戸市,金ケ作１８番地の６４,,12,207,2702251,,,,,,,2023-06-27,1,,,,,ミシェルトータルビューティー,0
589,3040003022852,新規,0,2023-06-27,2023-06-27,合同会社Ｂ．ｅ,,合同会社,千葉県,千葉市緑区,高田町４１６番地５８９,,12,105,2660003,,,,,,,2023-06-27,1,,,,,ビー,0
590,3040005022058,新規,0,2023-06-27,2023-06-27,一般社団法人千葉ユニバーサルスポーツ倶楽部,,その他の設立登記法人,千葉県,千葉市中央区,富士見２丁目７－９富士見ビル６階千葉ビジネスセンター,,12,101,2600015,,,,,,,2023-06-27,1,,,,,チバユニバーサルスポーツクラブ,0
616,3100001036534,新規,0,2023-06-27,2023-06-27,ＺＸＷ株式会社,,株式会社,長野県,安曇野市,穂高４７５番地９,,20,220,3998303,,,,,,,2023-06-27,1,,,,,ゼットエックスダブリュー,0
617,3100003007070,新規,0,2023-06-27,2023-06-27,合同会社住まいのべんり屋,,合同会社,長野県,茅野市,宮川４８２２番地４,,20,214,3910013,,,,,,,2023-06-27,1,,,,,スマイノベンリヤ,0
619,3110001037622,新規,0,2023-06-27,2023-06-27,株式会社ＰＯＲＴＥ,,株式会社,新潟県,長岡市,坂之上町３丁目１番地９エクスコート今井５階,,15,202,9400065,,,,,,,2023-06-27,1,,,,,ポルト,0
628,3120001255909,新規,0,2023-06-27,2023-06-27,株式会社ＬＵＣＡ,,株式会社,大阪府,枚方市,藤阪元町２丁目５０番４－１０２号,,27,210,5730157,,,,,,,2023-06-27,1,,,,,ルカ,0
630,3120003024378,新規,0,2023-06-27,2023-06-27,合同会社日本再生医療促進機構,,合同会社,大阪府,大阪市東成区,大今里３丁目１６番２－３０２号,,27,115,5370012,,,,,,,2023-06-27,1,,,,,ニホンサイセイイリョウソクシンキコウ,0
631,3120003024386,新規,0,2023-06-27,2023-06-27,合同会社なごみ,,合同会社,大阪府,大阪市西成区,千本北１丁目１３番３号エルメゾン５ｔｈ１０１号室,,27,122,5570053,,,,,,,2023-06-27,1,,,,,ナゴミ,0
636,3120103005294,新規,0,2023-06-27,2023-06-27,合同会社ＯＴ,,合同会社,大阪府,泉南郡熊取町,小垣内４丁目２５７６番地の１１,,27,361,5900432,,,,,,,2023-06-27,1,,,,,オーティー,0
637,3120901047711,新規,0,2023-06-27,2023-06-27,ＲＩＣＨ株式会社,,株式会社,大阪府,箕面市,粟生間谷西３丁目１７番１８－２０１号,,27,220,5620023,,,,,,,2023-06-27,1,,,,,リッチ,0
644,3140003019236,新規,0,2023-06-27,2023-06-27,Ｔ．Ｄ　ＴＲＡＮＳＰＯＲＴ合同会社,,合同会社,兵庫県,神戸市中央区,多聞通１丁目３番１１号ハイツ神戸２０２号室,,28,110,6500015,,,,,,,2023-06-27,1,,,,,ティーディートランスポート,0
660,3180001156878,新規,0,2023-06-27,2023-06-27,トミヨ株式会社,,株式会社,愛知県,名古屋市中村区,賑町２４－４,,23,105,4530025,,,,,,,2023-06-27,1,,,,,トミヨ,0
663,3180301037497,新規,0,2023-06-27,2023-06-27,山日株式会社,,株式会社,愛知県,碧南市,若宮町２丁目６１,,23,209,4470818,,,,,,,2023-06-27,1,,,,,ヤマヒ,0
676,3240001061725,新規,0,2023-06-27,2023-06-27,株式会社ヒカリ,,株式会社,広島県,広島市中区,舟入町２番２０号,,34,101,7300841,,,,,,,2023-06-27,1,,,,,ヒカリ,0
679,3250005008837,新規,0,2023-06-27,2023-06-27,社会福祉法人力水会,,その他の設立登記法人,山口県,岩国市,美和町生見字石兼２４８９番地１,,35,208,7401231,,,,,,,2023-06-27,1,,,,,リッスイカイ,0
692,3290001102053,新規,0,2023-06-27,2023-06-27,Ｎ＆Ｋトレーディング株式会社,,株式会社,福岡県,古賀市,天神５丁目１番５号－１０１号室,,40,223,8113101,,,,,,,2023-06-27,1,,,,,エヌアンドケートレーディング,0
693,3290001102061,新規,0,2023-06-27,2023-06-27,株式会社ＢＯＣホールディングス,,株式会社,福岡県,福岡市博多区,博多駅南４丁目１４番１５号,,40,132,8120016,,,,,,,2023-06-27,1,,,,,ビーオーシーホールディングス,0
696,3310003004591,新規,0,2023-06-27,2023-06-27,合同会社ＴＯＵ,,合同会社,長崎県,西彼杵郡長与町,高田郷２１２５番地２,,42,307,8512127,,,,,,,2023-06-27,1,,,,,トウ,0
702,3340003004168,新規,0,2023-06-27,2023-06-27,合同会社ｈｉｍａｗａｒｉ,,合同会社,鹿児島県,霧島市,隼人町姫城３丁目１５１番地,,46,218,8995111,,,,,,,2023-06-27,1,,,,,ヒマワリ,0
713,3400001016290,新規,0,2023-06-27,2023-06-27,株式会社トータルブリッジ,,株式会社,岩手県,盛岡市,永井１６地割８７番地,,03,201,0200834,,,,,,,2023-06-27,1,,,,,トータルブリッジ,0
728,3430003015189,新規,0,2023-06-27,2023-06-27,合同会社雄健,,合同会社,北海道,札幌市北区,篠路五条３丁目６番２１号,,01,102,0028025,,,,,,,2023-06-27,1,,,,,ユウケン,0
741,4010001236415,新規,0,2023-06-27,2023-06-27,シリコンバンクエナジーシンクタンク株式会社,,株式会社,東京都,中央区,銀座６丁目１３番５号東武銀座第２ビル８階,,13,102,1040061,,,,,,,2023-06-27,1,,,,,シリコンバンクエナジーシンクタンク,0
742,4010001236423,新規,0,2023-06-27,2023-06-27,栴檀アソシエイツ株式会社,,株式会社,東京都,千代田区,神田駿河台４丁目２－５－１６０３,,13,101,1010062,,,,,,,2023-06-27,1,,,,,センダンアソシエイツ,0
744,4010003040963,新規,0,2023-06-27,2023-06-27,合同会社Ｎｏｖａｌｉｓ,,合同会社,東京都,中央区,銀座１丁目１２番４号Ｎ＆ＥＢＬＤ．６Ｆ,,13,102,1040061,,,,,,,2023-06-27,1,,,,,ノバリス,0
745,4010003040971,新規,0,2023-06-27,2023-06-27,合同会社真登商店,,合同会社,東京都,中央区,日本橋兜町１１番１２－２０２号,,13,102,1030026,,,,,,,2023-06-27,1,,,,,マサトショウテン,0
748,4010005036877,新規,0,2023-06-27,2023-06-27,一般社団法人ヨグネット,,その他の設立登記法人,東京都,千代田区,神田和泉町１番地６－１６ヤマトビル４０５,,13,101,1010024,,,,,,,2023-06-27,1,,,,,ヨグネット,0
755,4010401175254,新規,0,2023-06-27,2023-06-27,株式会社ＮＥＸＴ,,株式会社,東京都,港区,南青山３丁目１番３６号青山丸竹ビル６Ｆ,,13,103,1070062,,,,,,,2023-06-27,1,,,,,ネクスト,0
756,4010401175270,新規,0,2023-06-27,2023-06-27,ＬＩＧＨＴＴＥＣＨ　ＪＡＰＡＮ株式会社,,株式会社,東京都,港区,赤坂２丁目５－８ヒューリックＪＰ赤坂ビル３Ｆ,,13,103,1070052,,,,,,,2023-06-27,1,,,,,ライテックジャパン,0
757,4010401175329,新規,0,2023-06-27,2023-06-27,ＢｏｓｔｏｎＧｅｎｅ　Ｊａｐａｎ株式会社,,株式会社,東京都,港区,浜松町２丁目４番１号世界貿易センタービルディング南館１７階,,13,103,1050013,,,,,,,2023-06-27,1,,,,,ボストンジーンジャパン,0
759,4010403030374,新規,0,2023-06-27,2023-06-27,Ｓｅｎｎａ　ＩＶ合同会社,,合同会社,東京都,港区,元麻布３丁目１番６号,,13,103,1060046,,,,,,,2023-06-27,1,,,,,セナフォー,0
760,4010403030382,新規,0,2023-06-27,2023-06-27,合同会社夷隅ソーラー,,合同会社,東京都,港区,六本木６丁目１０番１号六本木ヒルズ森タワー,,13,103,1060032,,,,,,,2023-06-27,1,,,,,イスミソーラー,0
761,4010501050662,新規,0,2023-06-27,2023-06-27,株式会社静安,,株式会社,東京都,台東区,浅草５丁目４７番２号匯金・浅草ビル１１９,,13,106,1110032,,,,,,,2023-06-27,1,,,,,セイアン,0
764,4010801034092,新規,0,2023-06-27,2023-06-27,株式会社ＭＴＢ,,株式会社,東京都,大田区,田園調布本町４１番１６号,,13,111,1450072,,,,,,,2023-06-27,1,,,,,エムティービー,0
778,4011001155290,新規,0,2023-06-27,2023-06-27,株式会社ＴＯＮＯ,,株式会社,東京都,渋谷区,神泉町２２番３号ピアース渋谷ＷＥＳＴ４０５,,13,113,1500045,,,,,,,2023-06-27,1,,,,,トノ,0
780,4011003017051,新規,0,2023-06-27,2023-06-27,Ｐｕｚｚｌｅ合同会社,,合同会社,東京都,渋谷区,代々木５丁目６７番３号グロワール代々木２０２,,13,113,1510053,,,,,,,2023-06-27,1,,,,,パズル,0
783,4011101103364,新規,0,2023-06-27,2023-06-27,株式会社三金建設,,株式会社,東京都,新宿区,西新宿４丁目１１番２０号,,13,104,1600023,,,,,,,2023-06-27,1,,,,,サンキンケンセツ,0
784,4011101103389,新規,0,2023-06-27,2023-06-27,株式会社ダブルベリー,,株式会社,東京都,新宿区,歌舞伎町１丁目２２番９号,,13,104,1600021,,,,,,,2023-06-27,1,,,,,ダブルベリー,0
791,4011801042630,新規,0,2023-06-27,2023-06-27,株式会社シン遊,,株式会社,東京都,足立区,六月２丁目２１－１５,,13,121,1210814,,,,,,,2023-06-27,1,,,,,シンユウ,0
801,4013301050956,新規,0,2023-06-27,2023-06-27,小番茄株式会社,,株式会社,東京都,豊島区,西池袋１丁目３１－５白井ビル３－１３号室,,13,116,1710021,,,,,,,2023-06-27,1,,,,,コバナ,0
802,4013301050972,新規,0,2023-06-27,2023-06-27,株式会社Ｌ’ｓ　ＣＲＥＡＴＥ,,株式会社,東京都,豊島区,南池袋２丁目４番３号池袋ホウライビル３－Ｃ,,13,116,1710022,,,,,,,2023-06-27,1,,,,,エルズクリエイト,0
822,4030001154516,新規,0,2023-06-27,2023-06-27,株式会社ケーズパートナー,,株式会社,埼玉県,さいたま市浦和区,高砂３丁目１０番４号,,11,107,3300063,,,,,,,2023-06-27,1,,,,,ケーズパートナー,0
825,4030003022010,新規,0,2023-06-27,2023-06-27,合同会社ＡＳＨ,,合同会社,埼玉県,朝霞市,栄町３丁目８番１８号,,11,227,3510012,,,,,,,2023-06-27,1,,,,,アッシュ,0
835,4040003022851,新規,0,2023-06-27,2023-06-27,Ｂｒａｎｄｃｏｒｅ合同会社,,合同会社,千葉県,香取郡多古町,十余三３７１番地１５４,,12,347,2892306,,,,,,,2023-06-27,1,,,,,ブランドコア,0
839,4050003007595,新規,0,2023-06-27,2023-06-27,合同会社エンスージアストシステムテック,,合同会社,茨城県,つくば市,みどりの２丁目３６番地３,,08,220,3050881,,,,,,,2023-06-27,1,,,,,エンスージアストシステムテック,0
840,4050003007604,新規,0,2023-06-27,2023-06-27,合同会社シンカーディー,,合同会社,茨城県,取手市,新川２３７番地１,,08,217,3001502,,,,,,,2023-06-27,1,,,,,シンカーディー,0
852,4080101024093,新規,0,2023-06-27,2023-06-27,株式会社富士商社,,株式会社,静岡県,富士市,大淵１４３２３番１,,22,210,4170801,,,,,,,2023-06-27,1,,,,,フジショウシャ,0
864,4120001255998,新規,0,2023-06-27,2023-06-27,株式会社ブレイブ,,株式会社,大阪府,大阪市西淀川区,中島１丁目３８番１０号１１,,27,113,5550041,,,,,,,2023-06-27,1,,,,,ブレイブ,0
865,4120003024328,新規,0,2023-06-27,2023-06-27,ユゼンピクチャースタイル合同会社,,合同会社,大阪府,大阪市中央区,本町２丁目３－４アソルティ本町４階,,27,128,5410053,,,,,,,2023-06-27,1,,,,,ユゼンピクチャースタイル,0
866,4120003024385,新規,0,2023-06-27,2023-06-27,ＭＳＨラソラ川西合同会社,,合同会社,大阪府,大阪市中央区,北浜３丁目５番２２号,,27,128,5410041,,,,,,,2023-06-27,1,,,,,エムエスエイチラソラカワニシ,0
869,4122001037113,新規,0,2023-06-27,2023-06-27,株式会社丸福,,株式会社,大阪府,東大阪市,瓢箪山町３番１０号,,27,227,5798051,,,,,,,2023-06-27,1,,,,,マルフク,0
873,4130001074588,新規,0,2023-06-27,2023-06-27,エスコートラン株式会社,,株式会社,京都府,京都市右京区,西院六反田町４７－３０３,,26,108,6150047,,,,,,,2023-06-27,1,,,,,エスコートラン,0
877,4140001130613,新規,0,2023-06-27,2023-06-27,株式会社Ｋａｃｈｉｂｉｎ,,株式会社,兵庫県,神戸市垂水区,神陵台９丁目１３番２５号,,28,108,6550041,,,,,,,2023-06-27,1,,,,,カチビン,0
878,4140001130646,新規,0,2023-06-27,2023-06-27,株式会社ホームドライホールディングス,,株式会社,兵庫県,神戸市北区,鈴蘭台北町７丁目４番２２号,,28,109,6511111,,,,,,,2023-06-27,1,,,,,ホームドライホールディングス,0
880,4140003019235,新規,0,2023-06-27,2023-06-27,合同会社ｎｕｃｍａｍ,,合同会社,兵庫県,宝塚市,宝梅２丁目７番５－４０６号,,28,214,6650013,,,,,,,2023-06-27,1,,,,,ヌクマム,0
883,4180001156860,新規,0,2023-06-27,2023-06-27,ＰＥＡＣＥ株式会社,,株式会社,愛知県,東海市,富木島町伏見２丁目１３番地の１１,,23,222,4760012,,,,,,,2023-06-27,1,,,,,ピース,0
889,4220001025474,新規,0,2023-06-27,2023-06-27,株式会社スカイ通信,,株式会社,石川県,金沢市,横山町１５番６号,,17,201,9200922,,,,,,,2023-06-27,1,,,,,スカイツウシン,0
893,4240001061724,新規,0,2023-06-27,2023-06-27,ＴＳＴ株式会社,,株式会社,広島県,広島市安佐北区,上深川町４３９番地,,34,106,7391752,,,,,,,2023-06-27,1,,,,,ティーエスティー,0
896,4260003004349,新規,0,2023-06-27,2023-06-27,合同会社Ｗｉｌｌ,,合同会社,岡山県,倉敷市,寿町５－６,,33,202,7100813,,,,,,,2023-06-27,1,,,,,ウィル,0
915,4340003004167,新規,0,2023-06-27,2023-06-27,谷口アセットマネジメント合同会社,,合同会社,鹿児島県,志布志市,有明町野神２６９０番地８,,46,221,8997512,,,,,,,2023-06-27,1,,,,,タニグチアセットマネジメント,0
936,4430001089399,新規,0,2023-06-27,2023-06-27,株式会社ＴＲＹ＆ＢＵＹ,,株式会社,北海道,札幌市清田区,平岡八条３丁目６番１号,,01,110,0040878,,,,,,,2023-06-27,1,,,,,トライアンドバイ,0
937,4430001089408,新規,0,2023-06-27,2023-06-27,株式会社ＤＵＳＴＢＯＸ,,株式会社,北海道,札幌市中央区,北三条西２８丁目２番１号,,01,101,0640823,,,,,,,2023-06-27,1,,,,,ダストボックス,0
944,4430003015205,新規,0,2023-06-27,2023-06-27,北海道地域ＩＣＴ研究開発合同会社,,合同会社,北海道,室蘭市,水元町２７番１号室蘭工業大学教育・研究１３号館,,01,205,0500071,,,,,,,2023-06-27,1,,,,,ホッカイドウチイキアイシーティケンキュウカイハツ,0
962,5010001236430,新規,0,2023-06-27,2023-06-27,ＮＣＣＡＰ１‐１株式会社,,株式会社,東京都,千代田区,大手町１丁目３番１号,,13,101,1000004,,,,,,,2023-06-27,1,,,,,エヌシーキャップイチノイチ,0
975,5010401175229,新規,0,2023-06-27,2023-06-27,株式会社秋根製薬,,株式会社,東京都,港区,南麻布３丁目９番１５号,,13,103,1060047,,,,,,,2023-06-27,1,,,,,アキネセイヤク,0
976,5010401175253,新規,0,2023-06-27,2023-06-27,富惟工業株式会社,,株式会社,東京都,港区,三田１丁目２番１８号ＴＴＤビル,,13,103,1080073,,,,,,,2023-06-27,1,,,,,トミユイコウギョウ,0
980,5010403030373,新規,0,2023-06-27,2023-06-27,Ｓｅｎｎａ　ＩＩＩ合同会社,,合同会社,東京都,港区,元麻布３丁目１番６号,,13,103,1060046,,,,,,,2023-06-27,1,,,,,セナスリー,0
989,5010601063316,新規,0,2023-06-27,2023-06-27,株式会社曼京,,株式会社,東京都,墨田区,業平２丁目１６番４号ホーユウコンフォルト隅田公園６０３号室,,13,107,1300002,,,,,,,2023-06-27,1,,,,,マンキョウ,0
990,5010601063332,新規,0,2023-06-27,2023-06-27,みんなの福祉株式会社,,株式会社,東京都,江東区,亀戸１丁目２番３－６０１号亀戸テンビル,,13,108,1360071,,,,,,,2023-06-27,1,,,,,ミンナノフクシ,0
998,5010805003035,新規,0,2023-06-27,2023-06-27,雑色中央ビル管理組合法人,,その他の設立登記法人,東京都,大田区,仲六郷２丁目２９番３号,,13,111,1440055,,,,,,,2023-06-27,1,,,,,ゾウシキチュウオウビル,0
1002,5011001155216,新規,0,2023-06-27,2023-06-27,徳潤株式会社,,株式会社,東京都,渋谷区,円山町６番７号,,13,113,1500044,,,,,,,2023-06-27,1,,,,,トクジュン,0
1003,5011001155224,新規,0,2023-06-27,2023-06-27,株式会社Ｋｎｉｔ,,株式会社,東京都,目黒区,大橋２丁目２２番２号エメロード大坂１階,,13,110,1530044,,,,,,,2023-06-27,1,,,,,ニット,0
1004,5011001155265,新規,0,2023-06-27,2023-06-27,株式会社エルキャット,,株式会社,東京都,渋谷区,道玄坂１丁目１０番８号渋谷道玄坂東急ビル２Ｆ－Ｃ,,13,113,1500043,,,,,,,2023-06-27,1,,,,,エルキャット,0
1005,5011001155273,新規,0,2023-06-27,2023-06-27,株式会社Ｕアライアンス,,株式会社,東京都,目黒区,目黒３丁目１番２－５０５号,,13,110,1530063,,,,,,,2023-06-27,1,,,,,ユーアライアンス,0
1007,5011101103371,新規,0,2023-06-27,2023-06-27,八方日進株式会社,,株式会社,東京都,新宿区,内藤町１番地６－７０７号,,13,104,1600014,,,,,,,2023-06-27,1,,,,,ハッポウニッシン,0
1008,5011101103405,新規,0,2023-06-27,2023-06-27,株式会社Ｃｌａｓｓ,,株式会社,東京都,新宿区,若葉２丁目１２番地１アンベリール新宿若葉２０１,,13,104,1600011,,,,,,,2023-06-27,1,,,,,クラス,0
1009,5011103013189,新規,0,2023-06-27,2023-06-27,ＴＨＸ　ＡＲＴ合同会社,,合同会社,東京都,新宿区,山吹町１３０番５－２０５号,,13,104,1620801,,,,,,,2023-06-27,1,,,,,ティーエイチエックスアート,0
1011,5011301028815,新規,0,2023-06-27,2023-06-27,ＴＡＯ株式会社,,株式会社,東京都,杉並区,高円寺南３丁目２６番１３号,,13,115,1660003,,,,,,,2023-06-27,1,,,,,ティーエーオー,0
1026,5020001152164,新規,0,2023-06-27,2023-06-27,株式会社ティーアイデザイン,,株式会社,神奈川県,川崎市中原区,下小田中６丁目１４番３６号,,14,133,2110041,,,,,,,2023-06-27,1,,,,,ティーアイデザイン,0
1034,5021001079430,新規,0,2023-06-27,2023-06-27,ａ４２ｘ株式会社,,株式会社,神奈川県,茅ヶ崎市,中海岸４丁目１番４２号２０５,,14,207,2530055,,,,,,,2023-06-27,1,,,,,エーヨンジュウニエックス,0
1035,5021003013255,新規,0,2023-06-27,2023-06-27,サラテック合同会社,,合同会社,神奈川県,三浦市,南下浦町金田２２３－２３,,14,210,2380103,,,,,,,2023-06-27,1,,,,,サラテック,0
1039,5030001154580,新規,0,2023-06-27,2023-06-27,株式会社ビルドラム,,株式会社,埼玉県,春日部市,本田町２丁目４４番地３,,11,214,3440016,,,,,,,2023-06-27,1,,,,,ビルドラム,0
1040,5030001154597,新規,0,2023-06-27,2023-06-27,株式会社Ｕ．Ｍ．Ｅ,,株式会社,埼玉県,さいたま市浦和区,常盤１丁目３番９号ロイヤルプラザ常盤３０８号,,11,107,3300061,,,,,,,2023-06-27,1,,,,,ユーエムイー,0
1041,5030001154606,新規,0,2023-06-27,2023-06-27,株式会社ＲＩＳＥ,,株式会社,埼玉県,さいたま市桜区,大字大久保領家４２２番地２８,,11,106,3380826,,,,,,,2023-06-27,1,,,,,ライズ,0
1046,5030003021993,新規,0,2023-06-27,2023-06-27,ＮＳＡＭＢＡ　ＴＲＡＶＥＬ　ＳＯＬＵＴＩＯＮ合同会社,,合同会社,埼玉県,所沢市,松葉町１３番５－３０１号アーガスヒルズ６７,,11,208,3590044,,,,,,,2023-06-27,1,,,,,ンサンバトラベルソリューション,0
1047,5030003022001,新規,0,2023-06-27,2023-06-27,フェアリーフィール合同会社,,合同会社,埼玉県,越谷市,越ヶ谷３丁目３番１６号２階,,11,222,3430813,,,,,,,2023-06-27,1,,,,,フェアリーフィール,0
1048,5030003022034,新規,0,2023-06-27,2023-06-27,ＴａｋＴｅｃｈ合同会社,,合同会社,埼玉県,新座市,野火止５丁目２番５５－８０６号,,11,230,3520011,,,,,,,2023-06-27,1,,,,,タックテック,0
1076,5080001025686,新規,0,2023-06-27,2023-06-27,きづきアセット株式会社,,株式会社,静岡県,静岡市葵区,両替町１丁目６－８第一松永ビル,,22,101,4200032,,,,,,,2023-06-27,1,,,,,キヅキアセット,0
1082,5100001036532,新規,0,2023-06-27,2023-06-27,株式会社米山興業,,株式会社,長野県,須坂市,大字小山字南原３番地２３４,,20,207,3820000,,,,,,,2023-06-27,1,,,,,ヨネヤマコウギョウ,0
1085,5100003007077,新規,0,2023-06-27,2023-06-27,合同会社までな,,合同会社,長野県,安曇野市,豊科２２４８番地１,,20,220,3998205,,,,,,,2023-06-27,1,,,,,マデナ,0
1086,5100005013040,新規,0,2023-06-27,2023-06-27,一般社団法人松本国際高等学校同窓会,,その他の設立登記法人,長野県,松本市,村井町南３丁目６番２５号,,20,202,3990036,,,,,,,2023-06-27,1,,,,,マツモトコクサイコウトウガッコウドウソウカイ,0
1091,5120001255972,新規,0,2023-06-27,2023-06-27,株式会社ブラネス,,株式会社,大阪府,大阪市淀川区,新高５丁目１６番１２号,,27,123,5320033,,,,,,,2023-06-27,1,,,,,ブラネス,0
1092,5120001255997,新規,0,2023-06-27,2023-06-27,シーケンス株式会社,,株式会社,大阪府,大阪市阿倍野区,丸山通１丁目３番３２号,,27,119,5450042,,,,,,,2023-06-27,1,,,,,シーケンス,0
1093,5120001256021,新規,0,2023-06-27,2023-06-27,理想株式会社,,株式会社,大阪府,大阪市中央区,船場中央２丁目１番４号船場センタービル４号館地下一階Ｂ１０８ＲＯＹＡＬＯＦＦＩＣＥ内,,27,128,5410055,,,,,,,2023-06-27,1,,,,,リソウ,0
1096,5120003024384,新規,0,2023-06-27,2023-06-27,合同会社ｐｅａｃｈ,,合同会社,大阪府,大阪市住吉区,遠里小野４丁目７番１６号,,27,120,5580032,,,,,,,2023-06-27,1,,,,,ピーチ,0
1104,5122001037112,新規,0,2023-06-27,2023-06-27,株式会社ＳＨＩＮＥＩ,,株式会社,大阪府,東大阪市,長田西４丁目３番２９昌園ビル４０１号,,27,227,5770016,,,,,,,2023-06-27,1,,,,,シンエイ,0
1108,5130001074587,新規,0,2023-06-27,2023-06-27,株式会社上長島崎,,株式会社,京都府,京都市下京区,七条御所ノ内本町４４番地,,26,106,6008863,,,,,,,2023-06-27,1,,,,,カミチョウシマザキ,0
1113,5140001130637,新規,0,2023-06-27,2023-06-27,株式会社Ｄ’ｓ　ＡＳＳＥＴＳ,,株式会社,兵庫県,神戸市灘区,高羽町３丁目１２番２号,,28,102,6570023,,,,,,,2023-06-27,1,,,,,ディーズアセッツ,0
1114,5140001130645,新規,0,2023-06-27,2023-06-27,株式会社インフィニティー,,株式会社,兵庫県,神戸市長田区,御屋敷通３丁目１番３４－１００３号,,28,106,6530843,,,,,,,2023-06-27,1,,,,,インフィニティー,0
1120,5140005026666,新規,0,2023-06-27,2023-06-27,一般社団法人ワクチン問題研究会,,その他の設立登記法人,兵庫県,宝塚市,川面５丁目１０番３２－２０５号,,28,214,6650842,,,,,,,2023-06-27,1,,,,,ワクチンモンダイケンキュウカイ,0
1139,5220001025473,新規,0,2023-06-27,2023-06-27,株式会社Ｗｉｓｔｅｒｉａ,,株式会社,石川県,鳳珠郡能登町,字崎山１丁目５７番地,,17,463,9270434,,,,,,,2023-06-27,1,,,,,ウィステリア,0
1142,5230001019895,新規,0,2023-06-27,2023-06-27,シーテック富山株式会社,,株式会社,富山県,富山市,中島３丁目７番２０号,,16,201,9300801,,,,,,,2023-06-27,1,,,,,シーテックトヤマ,0
1146,5240003006189,新規,0,2023-06-27,2023-06-27,合同会社Ｎａｊａ,,合同会社,広島県,庄原市,西城町油木１１６４,,34,210,7295602,,,,,,,2023-06-27,1,,,,,ナジャ,0
1157,5290003014055,新規,0,2023-06-27,2023-06-27,合同会社サニーデイ,,合同会社,福岡県,糸島市,高田１丁目２９番７号,,40,230,8191102,,,,,,,2023-06-27,1,,,,,サニーデイ,0
1173,5370001050110,新規,0,2023-06-27,2023-06-27,株式会社Ｋ‐ファクトリーソリューション,,株式会社,宮城県,柴田郡川崎町,大字今宿字叺畑１６番地,,04,324,9891502,,,,,,,2023-06-27,1,,,,,ケーファクトリーソリューション,0
1175,5380001033808,新規,0,2023-06-27,2023-06-27,株式会社エイチ・プランニング,,株式会社,福島県,田村市,船引町船引字四城内前３５番地,,07,211,9634312,,,,,,,2023-06-27,1,,,,,エイチプランニング,0
1205,6010003040986,新規,0,2023-06-27,2023-06-27,合同会社ＭＩＴＡＳ,,合同会社,東京都,千代田区,神田須田町１丁目２４－３０,,13,101,1010041,,,,,,,2023-06-27,1,,,,,ミタス,0
1213,6010401175211,新規,0,2023-06-27,2023-06-27,Ｓｕｐｒｅｍｏｌｏｇｙ　Ｓｏｆｔｗａｒｅ　Ｓｅｒｖｉｃｅｓ　Ｊａｐａｎ株式会社,,株式会社,東京都,港区,芝大門２丁目１２番１０号Ｔ＆Ｇ浜松町ビル６階,,13,103,1050012,,,,,,,2023-06-27,1,,,,,スプリモロジーソフトウェアサービスジャパン,0
1214,6010401175269,新規,0,2023-06-27,2023-06-27,株式会社ごはんデリ,,株式会社,東京都,港区,新橋２丁目２０番１５号新橋駅前ビル１号館４階,,13,103,1050004,,,,,,,2023-06-27,1,,,,,ゴハンデリ,0
1217,6010403030372,新規,0,2023-06-27,2023-06-27,Ｓｅｎｎａ　ＩＩ合同会社,,合同会社,東京都,港区,元麻布３丁目１番６号,,13,103,1060046,,,,,,,2023-06-27,1,,,,,セナツー,0
1221,6010805003034,新規,0,2023-06-27,2023-06-27,一般社団法人ＡＳＡＭＩ,,その他の設立登記法人,東京都,大田区,西蒲田７丁目４３番９号ザ・シティ西蒲田ＩＩ,00130983,13,111,1440051,,,,,,,2023-06-27,1,,,,,アサミ,0
1226,6011001155264,新規,0,2023-06-27,2023-06-27,Ｌｉｏｘｅ株式会社,,株式会社,東京都,渋谷区,神宮前６丁目２３番４号桑野ビル２階,,13,113,1500001,,,,,,,2023-06-27,1,,,,,リオクス,0
1227,6011001155272,新規,0,2023-06-27,2023-06-27,株式会社Ｍｒ．ＳＴＩＣＫ,,株式会社,東京都,渋谷区,道玄坂１丁目１６番６号二葉ビル８Ｂ,,13,113,1500043,,,,,,,2023-06-27,1,,,,,ミスタースティック,0
1228,6011001155289,新規,0,2023-06-27,2023-06-27,株式会社ＳＯＭＡ,,株式会社,東京都,渋谷区,上原１丁目３２番３号,,13,113,1510064,,,,,,,2023-06-27,1,,,,,ソーマ,0
1229,6011003017058,新規,0,2023-06-27,2023-06-27,合同会社ｓｏｔｔａ,,合同会社,東京都,渋谷区,恵比寿２丁目３２番１０号ベラカーサ広尾３０５,,13,113,1500013,,,,,,,2023-06-27,1,,,,,ソッタ,0
1233,6011101103395,新規,0,2023-06-27,2023-06-27,株式会社ディーシックス,,株式会社,東京都,新宿区,百人町１丁目１７番６号成田ビルＢ１,,13,104,1690073,,,,,,,2023-06-27,1,,,,,ディーシックス,0
1237,6011601026914,新規,0,2023-06-27,2023-06-27,株式会社協友国際,,株式会社,東京都,練馬区,北町３丁目１７番１－３０２号,,13,120,1790081,,,,,,,2023-06-27,1,,,,,キォウユウコクサイ,0
1238,6011603003969,新規,0,2023-06-27,2023-06-27,栩林合同会社,,合同会社,東京都,練馬区,桜台１丁目７番７－４１２号,,13,120,1760002,,,,,,,2023-06-27,1,,,,,クリン,0
1241,6011701026368,新規,0,2023-06-27,2023-06-27,株式会社Ｎ．Ｂ．Ｃ,,株式会社,東京都,江戸川区,上篠崎３丁目８－７、２Ｆ,,13,123,1330054,,,,,,,2023-06-27,1,,,,,ニトロボーイズクラブ,0
1249,6012401040659,新規,0,2023-06-27,2023-06-27,株式会社ソワネ,,株式会社,東京都,武蔵野市,吉祥寺南町５丁目１４番５号グリーンヒルズミナミ２０１,,13,203,1800003,,,,,,,2023-06-27,1,,,,,ソワネ,0
1251,6012403006047,新規,0,2023-06-27,2023-06-27,合同会社ＥＮＺＯ　ＧＡＭＥＳ,,合同会社,東京都,多摩市,永山６丁目９番地の１５ハイム永山ＩＩ１０５,00130989,13,224,2060025,,,,,,,2023-06-27,1,,,,,エンゾーゲームス,0
1255,6020001152196,新規,0,2023-06-27,2023-06-27,株式会社サニー,,株式会社,神奈川県,川崎市多摩区,西生田１丁目１３－４,,14,135,2140037,,,,,,,2023-06-27,1,,,,,サニー,0
1256,6020001152221,新規,0,2023-06-27,2023-06-27,株式会社ｍａｎｙｏｎｅ,,株式会社,神奈川県,横浜市西区,みなとみらい５丁目３番１－Ｏ－２９０５号,,14,103,2200012,,,,,,,2023-06-27,1,,,,,メニーワン,0
1260,6020003024113,新規,0,2023-06-27,2023-06-27,合同会社パラソル,,合同会社,神奈川県,川崎市中原区,宮内１丁目１－３０－２松永方,,14,133,2110051,,,,,,,2023-06-27,1,,,,,パラソル,0
1272,6030001154514,新規,0,2023-06-27,2023-06-27,株式会社柏原工業,,株式会社,埼玉県,所沢市,大字北岩岡３５０番地２５,,11,208,3590007,,,,,,,2023-06-27,1,,,,,カシワバラコウギョウ,0
1273,6030001154571,新規,0,2023-06-27,2023-06-27,学習塾経営コンサルティング株式会社,,株式会社,埼玉県,上尾市,向山２丁目３９番地１,,11,219,3620045,,,,,,,2023-06-27,1,,,,,ガクシュウジュクケイエイコンサルティング,0
1274,6030001154588,新規,0,2023-06-27,2023-06-27,スター株式会社,,株式会社,埼玉県,さいたま市南区,文蔵４丁目２５番１２－２０１号,,11,108,3360025,,,,,,,2023-06-27,1,,,,,スター,0
1275,6030001154596,新規,0,2023-06-27,2023-06-27,ＬＵＭＩＮ教育株式会社,,株式会社,埼玉県,さいたま市桜区,山久保２丁目１６番１号,,11,106,3380821,,,,,,,2023-06-27,1,,,,,ルーミンキョウイク,0
1276,6030001154621,新規,0,2023-06-27,2023-06-27,Ｒ・Ｈ・Ｓ株式会社,,株式会社,埼玉県,吉川市,大字下内川３６０番地１,,11,243,3420002,,,,,,,2023-06-27,1,,,,,アールエイチエス,0
1280,6030003022000,新規,0,2023-06-27,2023-06-27,合同会社ＲＩＺＩＮＧ,,合同会社,埼玉県,さいたま市桜区,大字神田１８８番地ヴァンベール神山Ｉ－２０３,00130982,11,106,3380812,,,,,,,2023-06-27,1,,,,,ライジング,0
1285,6040003022825,新規,0,2023-06-27,2023-06-27,合同会社ＧＯＢ,,合同会社,千葉県,市川市,妙典５丁目１３番３３号ａ＆ｙビル３Ｆ,,12,203,2720111,,,,,,,2023-06-27,1,,,,,ジーオービー,0
1288,6040005022055,新規,0,2023-06-27,2023-06-27,医療法人社団西仁会,,その他の設立登記法人,千葉県,銚子市,小浜町２０１７番地８,,12,202,2880821,,,,,,,2023-06-27,1,,,,,セイジンカイ,0
1289,6050001053020,新規,0,2023-06-27,2023-06-27,株式会社樹,,株式会社,茨城県,筑西市,向川澄５１番地５,,08,227,3091117,,,,,,,2023-06-27,1,,,,,イツキ,0
1293,6050003007610,新規,0,2023-06-27,2023-06-27,合同会社豚さま,,合同会社,茨城県,つくば市,二の宮２丁目１２番６号,,08,220,3050051,,,,,,,2023-06-27,1,,,,,トンサマ,0
1303,6080001025685,新規,0,2023-06-27,2023-06-27,株式会社ベンターナ,,株式会社,静岡県,静岡市駿河区,稲川３丁目１２番２－３０４号,,22,102,4228062,,,,,,,2023-06-27,1,,,,,ベンターナ,0
1307,6080401026556,新規,0,2023-06-27,2023-06-27,株式会社リペックス,,株式会社,静岡県,浜松市浜北区,高畑７５７番地の１,,22,136,4340034,,,,,,,2023-06-27,1,,,,,リペックス,0
1318,6100001036531,新規,0,2023-06-27,2023-06-27,株式会社皓,,株式会社,長野県,上田市,中野６８４番地２７,,20,203,3861325,,,,,,,2023-06-27,1,,,,,ヒカル,0
1332,6120001256029,新規,0,2023-06-27,2023-06-27,株式会社スマイル,,株式会社,大阪府,大阪市浪速区,幸町２丁目１番１７号８０５,,27,111,5560021,,,,,,,2023-06-27,1,,,,,スマイル,0
1335,6120003024359,新規,0,2023-06-27,2023-06-27,ＭＯＴＩ　ＧＲＯＵＰ合同会社,,合同会社,大阪府,大阪市生野区,新今里５丁目１番８号,,27,116,5440001,,,,,,,2023-06-27,1,,,,,モティグループ,0
1336,6120003024375,新規,0,2023-06-27,2023-06-27,合同会社慈光,,合同会社,大阪府,大阪市西成区,南津守１丁目５番２０号,,27,122,5570063,,,,,,,2023-06-27,1,,,,,ジコウ,0
1339,6120901047709,新規,0,2023-06-27,2023-06-27,ｃｒａｍ株式会社,,株式会社,大阪府,池田市,石橋１丁目１１番１３号,,27,204,5630032,,,,,,,2023-06-27,1,,,,,クラム,0
1353,6140003019233,新規,0,2023-06-27,2023-06-27,合同会社水登舎,,合同会社,兵庫県,川西市,向陽台１丁目６番地の３３,,28,217,6660115,,,,,,,2023-06-27,1,,,,,スイトウシャ,0
1360,6180001156867,新規,0,2023-06-27,2023-06-27,ｓｏＬｉｆｅ株式会社,,株式会社,愛知県,稲沢市,平和町勝幡新田２５９番地,,23,220,4901323,,,,,,,2023-06-27,1,,,,,ソーライフ,0
1361,6180001156875,新規,0,2023-06-27,2023-06-27,株式会社西友,,株式会社,愛知県,名古屋市守山区,瀬古東２丁目３２６番地の６,,23,113,4630090,,,,,,,2023-06-27,1,,,,,セイユウ,0
1369,6180301037503,新規,0,2023-06-27,2023-06-27,株式会社エムアンドディー,,株式会社,愛知県,碧南市,中町３丁目７０番地,,23,209,4470846,,,,,,,2023-06-27,1,,,,,エムアンドディー,0
1373,6190003004362,新規,0,2023-06-27,2023-06-27,ＳＬ　ＴＯＫＡＩ合同会社,,合同会社,三重県,四日市市,西日野町４９１８番地,,24,202,5100943,,,,,,,2023-06-27,1,,,,,エスエルトウカイ,0
1384,6280003001739,新規,0,2023-06-27,2023-06-27,合同会社ドルフィン,,合同会社,島根県,出雲市,浜町１３３１番地１,,32,203,6930054,,,,,,,2023-06-27,1,,,,,ドルフィン,0
1404,6400001016288,新規,0,2023-06-27,2023-06-27,株式会社岩手日報久慈センター,,株式会社,岩手県,宮古市,保久田８番１２号,,03,202,0270074,,,,,,,2023-06-27,1,,,,,イワテニッポウクジセンター,0
1408,6430001089397,新規,0,2023-06-27,2023-06-27,株式会社ＭＯＯＮ,,株式会社,北海道,札幌市白石区,菊水四条２丁目２番地１リバーライト菊水１Ｆ,,01,104,0030804,,,,,,,2023-06-27,1,,,,,ムーン,0
1410,6430003015186,新規,0,2023-06-27,2023-06-27,合同会社スリーアローズ,,合同会社,北海道,札幌市中央区,南十七条西１２丁目１番１７－２０１号,,01,101,0640917,,,,,,,2023-06-27,1,,,,,スリーアローズ,0
1411,6430003015194,新規,0,2023-06-27,2023-06-27,合同会社ｂｒｉｃｋｓｔａｃｋ,,合同会社,北海道,江別市,野幌寿町７番地の１２,,01,217,0690802,,,,,,,2023-06-27,1,,,,,ブリックスタック,0
1422,6700150117344,新規,0,2023-06-27,2023-06-14,災害支援ネットワークちば,,その他,千葉県,千葉市美浜区,真砂５丁目２１－１２（ＮＰＯクラブ内）,,12,106,2610011,,,,,,,2023-06-14,1,,,,,サイガイシエンネツトワークチバ,0
1436,7010001236206,新規,0,2023-06-27,2023-06-27,株式会社Ｗｅｌｂｙヘルスケアソリューションズ,,株式会社,東京都,中央区,京橋１丁目１１番１号,,13,102,1040031,,,,,,,2023-06-27,1,,,,,ウェルビーヘルスケアソリューションズ,0
1437,7010001236445,新規,0,2023-06-27,2023-06-27,株式会社Ｙａｂａｉｉ,,株式会社,東京都,中央区,銀座１丁目１２－４Ｎ＆Ｅ－ＢＬＤ．７階,,13,102,1040061,,,,,,,2023-06-27,1,,,,,ヤバイ,0
1443,7010403030371,新規,0,2023-06-27,2023-06-27,Ｓｅｎｎａ　Ｉ合同会社,,合同会社,東京都,港区,元麻布３丁目１番６号,,13,103,1060046,,,,,,,2023-06-27,1,,,,,セナワン,0
1444,7010403030396,新規,0,2023-06-27,2023-06-27,Ｌｅｖｅｒａｇｅ　ｌｉｆｅ合同会社,,合同会社,東京都,港区,南青山３丁目１番３６号青山丸竹ビル６Ｆ,,13,103,1070062,,,,,,,2023-06-27,1,,,,,レバレッジライフ,0
1447,7010501050635,新規,0,2023-06-27,2023-06-27,株式会社ゆいダイアモンド,,株式会社,東京都,台東区,上野５丁目２２－４ＲＴビル４階,,13,106,1100005,,,,,,,2023-06-27,1,,,,,ユイダイアモンド,0
1455,7011001155214,新規,0,2023-06-27,2023-06-27,株式会社Ｓｏｌｏ,,株式会社,東京都,渋谷区,道玄坂１丁目１０番８号渋谷道玄坂東急ビル２Ｆ－Ｃ,,13,113,1500043,,,,,,,2023-06-27,1,,,,,ソロ,0
1459,7011301028805,新規,0,2023-06-27,2023-06-27,あんこ株式会社,,株式会社,東京都,杉並区,梅里１丁目４番４７号,,13,115,1660011,,,,,,,2023-06-27,1,,,,,アンコ,0
1464,7011601026913,新規,0,2023-06-27,2023-06-27,株式会社Ｍｉｎｄ　Ｔｏｎｉｃ,,株式会社,東京都,練馬区,三原台１丁目４２－７,,13,120,1770031,,,,,,,2023-06-27,1,,,,,マインドトニック,0
1465,7011801042628,新規,0,2023-06-27,2023-06-27,株式会社トラス・エー,,株式会社,東京都,葛飾区,堀切６丁目２８番１５号,,13,122,1240006,,,,,,,2023-06-27,1,,,,,トラスエー,0
1467,7012403006046,新規,0,2023-06-27,2023-06-27,シゲル合同会社,,合同会社,東京都,調布市,多摩川５丁目１０番地２,,13,208,1820025,,,,,,,2023-06-27,1,,,,,シゲル,0
1480,7020001152170,新規,0,2023-06-27,2023-06-27,株式会社Ｇｒｏｗ　Ｗａｖｅ,,株式会社,神奈川県,川崎市中原区,木月４丁目５９番１５－４号,,14,133,2110025,,,,,,,2023-06-27,1,,,,,,0
1481,7020001152204,新規,0,2023-06-27,2023-06-27,株式会社Ｔｗｉｎｇｓ,,株式会社,神奈川県,横浜市中区,長者町２丁目５－４夕陽ヶ丘ニュースカイマンション８０６,,14,104,2310033,,,,,,,2023-06-27,1,,,,,ツウィングス,0
1482,7020001152220,新規,0,2023-06-27,2023-06-27,株式会社山田の窓口,,株式会社,神奈川県,川崎市中原区,上丸子天神町３０５番地２,,14,133,2110007,,,,,,,2023-06-27,1,,,,,ヤマダノマドグチ,0
1483,7020001152253,新規,0,2023-06-27,2023-06-27,株式会社杉田幼児園,,株式会社,神奈川県,横浜市磯子区,杉田４丁目６番３１号,,14,107,2350033,,,,,,,2023-06-27,1,,,,,スギタヨウジエン,0
1492,7021003013245,新規,0,2023-06-27,2023-06-27,合同会社稲作,,合同会社,神奈川県,相模原市中央区,相模原３丁目１１番４号８０５号室,,14,152,2520231,,,,,,,2023-06-27,1,,,,,イナサク,0
1501,7030001154595,新規,0,2023-06-27,2023-06-27,株式会社Ａｉｒ　Ｇｒｏｏｖｅ,,株式会社,埼玉県,川越市,砂新田５丁目３６番地２２,,11,201,3501137,,,,,,,2023-06-27,1,,,,,エアグルーヴ,0
1505,7030005021313,新規,0,2023-06-27,2023-06-27,一般財団法人花まる・伸生育英財団,,その他の設立登記法人,埼玉県,さいたま市浦和区,常盤９丁目１９番１０号,,11,107,3300061,,,,,,,2023-06-27,1,,,,,ハナマルシンセイイクエイザイダン,0
1507,7040001128978,新規,0,2023-06-27,2023-06-27,株式会社ＭＭ,,株式会社,千葉県,松戸市,岩瀬１１４－１９ヒルズ岩瀬１０３号室,,12,207,2710076,,,,,,,2023-06-27,1,,,,,エムエム,0
1508,7040001128994,新規,0,2023-06-27,2023-06-27,株式会社ローブワールド,,株式会社,千葉県,船橋市,金杉台２丁目２番１１棟５０４号,,12,204,2730852,,,,,,,2023-06-27,1,,,,,ローブワールド,0
1514,7040003022832,新規,0,2023-06-27,2023-06-27,合同会社神木陽凪,,合同会社,千葉県,船橋市,緑台２丁目９番船橋グリーンハイツ５棟３０３号,,12,204,2740818,,,,,,,2023-06-27,1,,,,,カミキヒナグ,0
1515,7040003022849,新規,0,2023-06-27,2023-06-27,イベート農業合同会社,,合同会社,千葉県,富津市,青木３丁目１７番地７,,12,226,2930012,,,,,,,2023-06-27,1,,,,,イベートノウギョウ,0
1516,7040003022857,新規,0,2023-06-27,2023-06-27,合同会社ワトクハウス,,合同会社,千葉県,野田市,中里１１６４番地,,12,208,2700237,,,,,,,2023-06-27,1,,,,,ワトクハウス,0
1517,7040005022054,新規,0,2023-06-27,2023-06-27,一般社団法人国際文化交流協会素食会,,その他の設立登記法人,千葉県,松戸市,新作１０５７－２,,12,207,2710052,,,,,,,2023-06-27,1,,,,,コクサイブンカコウリュウキョウカイソショクカイ,0
1519,7050003007601,新規,0,2023-06-27,2023-06-27,合同会社フォリクロ,,合同会社,茨城県,鹿嶋市,宮中１丁目６番１０号,,08,222,3140031,,,,,,,2023-06-27,1,,,,,フォリクロ,0
1532,7100005013039,新規,0,2023-06-27,2023-06-27,一般社団法人日本アビバメント箕輪福音教会,,その他の設立登記法人,長野県,上伊那郡箕輪町,大字中箕輪１１３８８番地１,,20,383,3994601,,,,,,,2023-06-27,1,,,,,ニホンアビバメントフクインキョウカイ,0
1545,7120001256003,新規,0,2023-06-27,2023-06-27,株式会社Ｓｌａｎｇ,,株式会社,大阪府,大阪市鶴見区,今津中３丁目２番３６－４０７号,,27,124,5380042,,,,,,,2023-06-27,1,,,,,スラング,0
1546,7120003024366,新規,0,2023-06-27,2023-06-27,一休合同会社,,合同会社,大阪府,大阪市淀川区,塚本５丁目９－４－３０１,,27,123,5320026,,,,,,,2023-06-27,1,,,,,イッキュウ,0
1565,7140001130635,新規,0,2023-06-27,2023-06-27,株式会社寺尾装飾,,株式会社,兵庫県,西宮市,中島町７番９号,,28,204,6638105,,,,,,,2023-06-27,1,,,,,テラオソウショク,0
1566,7140001130668,新規,0,2023-06-27,2023-06-27,株式会社ｕｎｃｒｅｄｉｔ,,株式会社,兵庫県,淡路市,岩屋９２５－５メゾン岩屋４０３号室,,28,226,6562401,,,,,,,2023-06-27,1,,,,,アンクレディット,0
1569,7140003019240,新規,0,2023-06-27,2023-06-27,合同会社ｎｏｚｅｉ‐ｊｕｍｐ,,合同会社,兵庫県,加古郡播磨町,北野添３丁目６番２４号,,28,382,6750158,,,,,,,2023-06-27,1,,,,,ノーゼイジャンプ,0
1574,7180001156882,新規,0,2023-06-27,2023-06-27,株式会社エンパワーリンク,,株式会社,愛知県,名古屋市西区,菊井２丁目１９番８号（エステムプラザ名古屋駅前プライムタワー１１０３号）,,23,104,4510044,,,,,,,2023-06-27,1,,,,,エンパワーリンク,0
1602,7250001020156,新規,0,2023-06-27,2023-06-27,株式会社ＨＩＲＯＷＡＹ,,株式会社,山口県,光市,光井２丁目８番地１２号,,35,210,7430011,,,,,,,2023-06-27,1,,,,,ヒロウェイ,0
1605,7290001102066,新規,0,2023-06-27,2023-06-27,株式会社三松ホールディングス,,株式会社,福岡県,筑紫野市,岡田３丁目１０番９号,,40,217,8180013,,,,,,,2023-06-27,1,,,,,サンマツホールディングス,0
1614,7350003004386,新規,0,2023-06-27,2023-06-27,合同会社ＳＴＣＥ,,合同会社,宮崎県,都城市,姫城町１５街区７の１号,,45,202,8850073,,,,,,,2023-06-27,1,,,,,エスティーシーイー,0
1645,7430003015185,新規,0,2023-06-27,2023-06-27,合同会社ＨＩＩＲＡＧＩ,,合同会社,北海道,札幌市南区,北ノ沢１７５２番地６,,01,106,0050832,,,,,,,2023-06-27,1,,,,,ヒイラギ,0
1646,7440001009279,新規,0,2023-06-27,2023-06-27,株式会社ディールス,,株式会社,北海道,函館市,石川町１２２番地８５,,01,202,0410802,,,,,,,2023-06-27,1,,,,,ディールス,0
1656,8010003040927,新規,0,2023-06-27,2023-06-27,ヒノキソーラー合同会社,,合同会社,東京都,千代田区,九段南３丁目７番７号成和綜合会計事務所内,,13,101,1020074,,,,,,,2023-06-27,1,,,,,ヒノキソーラー,0
1662,8010501050667,新規,0,2023-06-27,2023-06-27,株式会社ＬＩＶＥＳＴ,,株式会社,東京都,台東区,浅草橋５丁目２番３号鈴和ビル９階,,13,106,1110053,,,,,,,2023-06-27,1,,,,,リベスト,0
1663,8010503007062,新規,0,2023-06-27,2023-06-27,合同会社Ｄ‐ｐｌａｃｅ,,合同会社,東京都,台東区,根岸５丁目９－２２ライオンズ東京根岸レジデンス８０９号室,,13,106,1100003,,,,,,,2023-06-27,1,,,,,ディプレイス,0
1668,8010801034089,新規,0,2023-06-27,2023-06-27,ＧＡＩＡ‐ＫＡＩＧＡ株式会社,,株式会社,東京都,大田区,中央６丁目３０番２号,,13,111,1430024,,,,,,,2023-06-27,1,,,,,ガイアカイガ,0
1685,8011503005659,新規,0,2023-06-27,2023-06-27,ＭＯＲＩ商事合同会社,,合同会社,東京都,北区,西ケ原３丁目５４番８号２Ｆ,,13,117,1140024,,,,,,,2023-06-27,1,,,,,モリショウジ,0
1703,8020001152054,新規,0,2023-06-27,2023-06-27,株式会社Ｃｌｏｓｅ　Ｔａｂｌｅ,,株式会社,神奈川県,横浜市西区,みなとみらい４丁目２番１号,,14,103,2200012,,,,,,,2023-06-27,1,,,,,クローズテーブル,0
1704,8020001152236,新規,0,2023-06-27,2023-06-27,株式会社たいてぃー,,株式会社,神奈川県,川崎市高津区,二子６丁目１番７号,,14,134,2130002,,,,,,,2023-06-27,1,,,,,タイティー,0
1709,8021001079386,新規,0,2023-06-27,2023-06-27,株式会社リナチュレジャパン,,株式会社,神奈川県,逗子市,小坪１丁目１１－１－１０３,,14,208,2490008,,,,,,,2023-06-27,1,,,,,リナチュレジャパン,0
1715,8030001154553,新規,0,2023-06-27,2023-06-27,スマイノコト株式会社,,株式会社,埼玉県,上尾市,中妻３丁目８番地６ＲＹＯ１Ｆ,,11,219,3620072,,,,,,,2023-06-27,1,,,,,スマイノコト,0
1716,8030001154586,新規,0,2023-06-27,2023-06-27,株式会社ＣＲＡＦＴ,,株式会社,埼玉県,さいたま市見沼区,大字中川１０７番地４スモールベアマンション５０１,,11,104,3370043,,,,,,,2023-06-27,1,,,,,クラフト,0
1718,8030003021999,新規,0,2023-06-27,2023-06-27,合同会社小松事務所,,合同会社,埼玉県,川越市,伊勢原町２丁目１９番地６,,11,201,3501108,,,,,,,2023-06-27,1,,,,,コマツジムショ,0
1719,8030003022007,新規,0,2023-06-27,2023-06-27,コンフォータブル合同会社,,合同会社,埼玉県,川口市,朝日３丁目９番９号,,11,203,3320001,,,,,,,2023-06-27,1,,,,,コンフォータブル,0
1726,8040003022856,新規,0,2023-06-27,2023-06-27,Ｉｎｖｅｓｔｍｅｎｔ　Ｅｘｃｅｌｌｅｎｃｅ　Ｊａｐａｎ合同会社,,合同会社,千葉県,千葉市花見川区,花園３丁目９番１７号,,12,102,2620025,,,,,,,2023-06-27,1,,,,,インベストメントエクセレンスジャパン,0
1730,8050001053019,新規,0,2023-06-27,2023-06-27,株式会社千景,,株式会社,茨城県,水戸市,千波町１９５番地の３,,08,201,3100851,,,,,,,2023-06-27,1,,,,,チカゲ,0
1739,8080105006349,新規,0,2023-06-27,2023-06-27,一般社団法人伊豆石文化探究会,,その他の設立登記法人,静岡県,沼津市,本田町５番１７号,,22,203,4100004,,,,,,,2023-06-27,1,,,,,イズイシブンカタンキュウカイ,0
1743,8100003007074,新規,0,2023-06-27,2023-06-27,合同会社ＳＯ‐ＧＡ,,合同会社,長野県,塩尻市,大門三番町３番６号,,20,215,3990733,,,,,,,2023-06-27,1,,,,,ソウガ,0
1744,8100005013038,新規,0,2023-06-27,2023-06-27,一般社団法人ひまわり応援隊,,その他の設立登記法人,長野県,飯田市,鼎中平１９０９番地３,,20,205,3950801,,,,,,,2023-06-27,1,,,,,ヒマワリオウエンタイ,0
1757,8120001255961,新規,0,2023-06-27,2023-06-27,株式会社ＮＩＫＡ,,株式会社,大阪府,大阪市北区,梅田１丁目１－３大阪駅前第３ビル２９階１－１－１号室,,27,127,5300001,,,,,,,2023-06-27,1,,,,,ニカ,0
1759,8120101067778,新規,0,2023-06-27,2023-06-27,株式会社イエダコーポレーション,,株式会社,大阪府,松原市,天美我堂４丁目７番５号（Ｄ号）,,27,217,5800026,,,,,,,2023-06-27,1,,,,,イエダコーポレーション,0
1761,8120901047707,新規,0,2023-06-27,2023-06-27,株式会社ＥＶＲＡＣ,,株式会社,大阪府,高槻市,富田町１丁目１３番２６号,,27,207,5690814,,,,,,,2023-06-27,1,,,,,エブラック,0
1762,8120901047715,新規,0,2023-06-27,2023-06-27,株式会社ｌａｎｄ．ｎｉｃｏ,,株式会社,大阪府,摂津市,鳥飼本町３丁目１６－６３,,27,224,5660052,,,,,,,2023-06-27,1,,,,,ランドニコ,0
1769,8130001074601,新規,0,2023-06-27,2023-06-27,株式会社ベンティ,,株式会社,京都府,京都市中京区,東洞院御池下る笹屋町４４５番地日宝烏丸ビル４Ｆ,,26,104,6040000,,,,,,,2023-06-27,1,,,,,ベンテイ,0
1782,8140003019231,新規,0,2023-06-27,2023-06-27,ＭＥＣＣＨＡ　ＬＵＣＫ合同会社,,合同会社,兵庫県,明石市,小久保６丁目１番地の１０,,28,203,6730005,,,,,,,2023-06-27,1,,,,,メッチャラック,0
1789,8180001156881,新規,0,2023-06-27,2023-06-27,快進株式会社,,株式会社,愛知県,名古屋市西区,菊井２丁目１９番８号（エステムプラザ名古屋駅前プライムタワー１１０３号）,,23,104,4510044,,,,,,,2023-06-27,1,,,,,カイシン,0
1797,8200001041404,新規,0,2023-06-27,2023-06-27,株式会社岐匠,,株式会社,岐阜県,岐阜市,鏡島精華１丁目４－２０,,21,201,5010112,,,,,,,2023-06-27,1,,,,,ギショウ,0
1798,8210003001660,新規,0,2023-06-27,2023-06-27,合同会社ルー,,合同会社,福井県,福井市,堂島町第６号３番地,,18,201,9100818,,,,,,,2023-06-27,1,,,,,ルー,0
1810,8250003003298,新規,0,2023-06-27,2023-06-27,合同会社コネクト・ハーツ,,合同会社,山口県,宇部市,則貞５丁目１０番９号,,35,202,7550003,,,,,,,2023-06-27,1,,,,,コネクトハーツ,0
1815,8280005007559,新規,0,2023-06-27,2023-06-27,税理士法人アステール・アジュール,,その他の設立登記法人,島根県,松江市,母衣町９５番地古田ビル,,32,201,6900886,,,,,,,2023-06-27,1,,,,,アステールアジュール,0
1818,8290001102065,新規,0,2023-06-27,2023-06-27,株式会社ｅｎ,,株式会社,福岡県,筑紫野市,石崎３丁目１２番２９号（ヴェルヴィルイノウエ２０３号）,,40,217,8180068,,,,,,,2023-06-27,1,,,,,エン,0
1819,8290001102073,新規,0,2023-06-27,2023-06-27,株式会社ｒｅｇａｌｉｎｏ,,株式会社,福岡県,福岡市城南区,茶山６丁目１番２６号,,40,136,8140111,,,,,,,2023-06-27,1,,,,,レガリーノ,0
1820,8290003014052,新規,0,2023-06-27,2023-06-27,合同会社フィノボ,,合同会社,福岡県,福岡市東区,香椎１丁目２６－３１－４０３,,40,131,8130011,,,,,,,2023-06-27,1,,,,,フィノボ,0
1821,8290003014069,新規,0,2023-06-27,2023-06-27,合同会社ＳＴＯＲＥＳ,,合同会社,福岡県,福岡市博多区,博多駅前３丁目１１－２４ピュアドームパラジオ７０１,,40,132,8120011,,,,,,,2023-06-27,1,,,,,ストアーズ,0
1825,8320003004116,新規,0,2023-06-27,2023-06-27,合同会社弥生,,合同会社,大分県,速見郡日出町,大字豊岡６１００番地６９,,44,341,8791507,,,,,,,2023-06-27,1,,,,,,0
1830,8340005009623,新規,0,2023-06-27,2023-06-27,一般社団法人ｍｅ,,その他の設立登記法人,鹿児島県,奄美市,名瀬末広町６－１３,,46,222,8940027,,,,,,,2023-06-27,1,,,,,ミー,0
1840,8380001033813,新規,0,2023-06-27,2023-06-27,株式会社いやさか研究所,,株式会社,福島県,須賀川市,栄町２００ピュア３、２０１号,,07,207,9620858,,,,,,,2023-06-27,1,,,,,イヤサカケンキュウジョ,0
1855,8430001089395,新規,0,2023-06-27,2023-06-27,株式会社フィールド・ストーン,,株式会社,北海道,札幌市豊平区,月寒西三条７丁目４番２０－３１６号,,01,105,0620023,,,,,,,2023-06-27,1,,,,,フィールドストーン,0
1865,8490001010512,新規,0,2023-06-27,2023-06-27,株式会社チョンマゲ,,株式会社,高知県,高知市,追手筋１丁目８番１５号大原ビル１階,,39,201,7800842,,,,,,,2023-06-27,1,,,,,チョンマゲ,0
1879,9010001236435,新規,0,2023-06-27,2023-06-27,株式会社エクソキネシス,,株式会社,東京都,千代田区,神田小川町２丁目２番８号天下堂ビル３階,,13,101,1010052,,,,,,,2023-06-27,1,,,,,エクソキネシス,0
1882,9010003040926,新規,0,2023-06-27,2023-06-27,ヤナギソーラー合同会社,,合同会社,東京都,千代田区,九段南３丁目７番７号成和綜合会計事務所内,,13,101,1020074,,,,,,,2023-06-27,1,,,,,ヤナギソーラー,0
1885,9010005036872,新規,0,2023-06-27,2023-06-27,加須施設開発特定目的会社,,その他の設立登記法人,東京都,千代田区,飯田橋４丁目７番１号結和税理士法人内,,13,101,1020072,,,,,,,2023-06-27,1,,,,,カゾシセツカイハツ,0
1895,9010403030378,新規,0,2023-06-27,2023-06-27,合同会社ＬＬＦ,,合同会社,東京都,港区,浜松町２丁目２番１５号浜松町ダイヤビル２Ｆ,,13,103,1050013,,,,,,,2023-06-27,1,,,,,エルエルエフ,0
1896,9010503007061,新規,0,2023-06-27,2023-06-27,ＸＵＳＯＦＴ合同会社,,合同会社,東京都,台東区,北上野２丁目１０番５－６０４号藤和シティコープ上野ＩＩ,00130984,13,106,1100014,,,,,,,2023-06-27,1,,,,,エックスユーソフト,0
1900,9010701044468,新規,0,2023-06-27,2023-06-27,Ｎ‐ＬＩＮＥ株式会社,,株式会社,東京都,品川区,八潮３丁目２番２３号フラットヒルズ２０８,,13,109,1400003,,,,,,,2023-06-27,1,,,,,エヌライン,0
1917,9011101103401,新規,0,2023-06-27,2023-06-27,株式会社アンドホームズ,,株式会社,東京都,新宿区,北新宿２丁目２番２０号シャトレサンシャインＧ３０１,,13,104,1690074,,,,,,,2023-06-27,1,,,,,アンドホームズ,0
1923,9011703003511,新規,0,2023-06-27,2023-06-27,Ｓａｉ　Ｋｉｎｇｄｏｍ合同会社,,合同会社,東京都,江戸川区,篠崎町４丁目１２番８号,,13,123,1330061,,,,,,,2023-06-27,1,,,,,サイキングダム,0
1934,9020001152144,新規,0,2023-06-27,2023-06-27,株式会社ＬＣｃｏｎｎｅｃｔ,,株式会社,神奈川県,横浜市青葉区,美しが丘１丁目１３番地１０吉村ビル１０７号,,14,117,2250002,,,,,,,2023-06-27,1,,,,,エルシーコネクト,0
1937,9020003024093,新規,0,2023-06-27,2023-06-27,合同会社ｆｕｎＧｌａｚｅ,,合同会社,神奈川県,横浜市金沢区,能見台４丁目３―１５つどいの街弐番館９０１号室,,14,108,2360057,,,,,,,2023-06-27,1,,,,,ファングレイズ,0
1941,9021001079410,新規,0,2023-06-27,2023-06-27,株式会社ヒューマリビューション,,株式会社,神奈川県,座間市,南栗原５丁目１４番５８号,,14,216,2520015,,,,,,,2023-06-27,1,,,,,ヒューマリビューション,0
1946,9030001154585,新規,0,2023-06-27,2023-06-27,株式会社ＥＸ‐Ｓｔｙｌｅ,,株式会社,埼玉県,さいたま市見沼区,大字蓮沼３３９番地２ＰａｒｃｖｅｒｔＤ館１０３号室,,11,104,3370015,,,,,,,2023-06-27,1,,,,,エックススタイル,0
1947,9030001154593,新規,0,2023-06-27,2023-06-27,中野ホーム株式会社,,株式会社,埼玉県,比企郡鳩山町,大字泉井９６６番地２,,11,348,3500305,,,,,,,2023-06-27,1,,,,,ナカノホーム,0
1948,9030001154602,新規,0,2023-06-27,2023-06-27,株式会社片桐設備,,株式会社,埼玉県,さいたま市北区,吉野町２丁目２２０番地６１－１０２,,11,102,3310811,,,,,,,2023-06-27,1,,,,,カタギリセツビ,0
1950,9030003021965,新規,0,2023-06-27,2023-06-27,合同会社きぶな商会,,合同会社,埼玉県,所沢市,花園１丁目２４２９番地の７,,11,208,3590047,,,,,,,2023-06-27,1,,,,,キブナショウカイ,0
1951,9030003021998,新規,0,2023-06-27,2023-06-27,合同会社ＳｕｂｌｉｍｅＶｉｓｉｏｎ,,合同会社,埼玉県,さいたま市南区,大字大谷口８７５番地１６,,11,108,3360042,,,,,,,2023-06-27,1,,,,,サブライムビジョン,0
1952,9030003022014,新規,0,2023-06-27,2023-06-27,ＴＮＡ　Ｇｒｏｕｐ合同会社,,合同会社,埼玉県,さいたま市桜区,南元宿１丁目３－３元宿ストアＢ号室,,11,106,3380831,,,,,,,2023-06-27,1,,,,,ティエンエグループ,0
1953,9030003022022,新規,0,2023-06-27,2023-06-27,合同会社ＲＯＳＡ,,合同会社,埼玉県,所沢市,大字荒幡８５４番地の８エクシード下山口２０２,,11,208,3591133,,,,,,,2023-06-27,1,,,,,ローサ,0
1957,9040001128951,新規,0,2023-06-27,2023-06-27,株式会社Ｃａｎｏａ,,株式会社,千葉県,山武郡横芝光町,屋形２４２９番地１４,,12,410,2891735,,,,,,,2023-06-27,1,,,,,カノア,0
1964,9050001053034,新規,0,2023-06-27,2023-06-27,株式会社アイ・ピー・エス,,株式会社,茨城県,稲敷郡阿見町,うずら野１丁目５番３ＭＺＡ壱番館１０６号室,,08,443,3000341,,,,,,,2023-06-27,1,,,,,アイピーエス,0
1983,9110001037641,新規,0,2023-06-27,2023-06-27,株式会社アプリコット商会,,株式会社,新潟県,柏崎市,桜木町２１番６号,,15,205,9450073,,,,,,,2023-06-27,1,,,,,アプリコットショウカイ,0
1989,9120001255977,新規,0,2023-06-27,2023-06-27,星元資訊株式会社,00130988,株式会社,大阪府,大阪市中央区,南船場１丁目１０番１２号－７０２号,,27,128,5420081,,,,,,,2023-06-27,1,,,,,セイゲンシジン,0
1990,9120001256018,新規,0,2023-06-27,2023-06-27,Ｓｕｂｓｅｔ株式会社,,株式会社,大阪府,大阪市中央区,谷町４丁目８番１号８０１,,27,128,5400012,,,,,,,2023-06-27,1,,,,,サブセット,0
1994,9120003024380,新規,0,2023-06-27,2023-06-27,合同会社金盛,,合同会社,大阪府,大阪市中央区,東心斎橋１丁目２－１（２６０３室）,,27,128,5420083,,,,,,,2023-06-27,1,,,,,キンセイ,0
1995,9120003024389,新規,0,2023-06-27,2023-06-27,合同会社Ｙｕｒａｋｏ　Ｏｆｆｉｃｅ,,合同会社,大阪府,大阪市北区,西天満３丁目６番３５号リアライズ西天満ビル２階,,27,127,5300047,,,,,,,2023-06-27,1,,,,,ユラコオフィス,0
1999,9120901047706,新規,0,2023-06-27,2023-06-27,株式会社ＦｏｏＭ,,株式会社,大阪府,高槻市,桜ケ丘南町１０番１１号,,27,207,5690818,,,,,,,2023-06-27,1,,,,,フーム,0
2000,9120901047714,新規,0,2023-06-27,2023-06-27,株式会社燈々庵コーポレーション,,株式会社,大阪府,高槻市,奈佐原２丁目１４番１５－４０６号,,27,207,5691041,,,,,,,2023-06-27,1,,,,,トウトウアンコーポレーション,0
2002,9120903004705,新規,0,2023-06-27,2023-06-27,合同会社ｌｅａｆ,,合同会社,大阪府,高槻市,南芥川町２番１４－２０２号,,27,207,5691124,,,,,,,2023-06-27,1,,,,,リーフ,0
2009,9140001130633,新規,0,2023-06-27,2023-06-27,株式会社全空警,,株式会社,兵庫県,神戸市灘区,永手町５丁目２番７－３０２号,,28,102,6570027,,,,,,,2023-06-27,1,,,,,ゼンクウケイ,0
2010,9140001130658,新規,0,2023-06-27,2023-06-27,株式会社Ｍｉｒａｉ　Ｐｏｃｋｅｔ,,株式会社,兵庫県,神戸市東灘区,住吉宮町６丁目９番３号,,28,101,6580053,,,,,,,2023-06-27,1,,,,,ミライポケット,0
2013,9140005026670,新規,0,2023-06-27,2023-06-27,特定非営利活動法人千麒麟,,その他の設立登記法人,兵庫県,美方郡新温泉町,千谷２４０番地１,,28,586,6696943,,,,,,,2023-06-27,1,,,,,センキリン,0
2022,9180005020265,新規,0,2023-06-27,2023-06-27,医療法人優真会,,その他の設立登記法人,愛知県,弥富市,前ケ須町南本田３４９番地,,23,235,4980017,,,,,,,2023-06-27,1,,,,,ユウシンカイ,0
2044,9290001102007,新規,0,2023-06-27,2023-06-27,株式会社Ｗｉｎｗａｒｄ,,株式会社,福岡県,糟屋郡宇美町,貴船５丁目２４番１２号,,40,341,8112131,,,,,,,2023-06-27,1,,,,,ウィンワード,0
2045,9290001102064,新規,0,2023-06-27,2023-06-27,株式会社Ｇｌｅｅａｔ,,株式会社,福岡県,糟屋郡篠栗町,大字篠栗３９５２番地５,,40,342,8112405,,,,,,,2023-06-27,1,,,,,グリート,0
2056,9380001033812,新規,0,2023-06-27,2023-06-27,株式会社藤田土木,,株式会社,福島県,いわき市,平字五色町６３番地富士一第一ビル,,07,204,9708026,,,,,,,2023-06-27,1,,,,,フジタドボク,0
2058,9380003005495,新規,0,2023-06-27,2023-06-27,合同会社Ｓｏｅｌ,,合同会社,福島県,郡山市,喜久田町字寺久保２４－９６,,07,203,9630551,,,,,,,2023-06-27,1,,,,,ソエル,0
2070,9430003015183,新規,0,2023-06-27,2023-06-27,合同会社Ｍｉｘ　Ｕｐ,,合同会社,北海道,札幌市手稲区,星置三条１丁目２７番１号,,01,109,0060853,,,,,,,2023-06-27,1,,,,,ミックスアップ,0
2071,9430003015217,新規,0,2023-06-27,2023-06-27,合同会社ｂｌｅｓｓｉｎｇ　ｎｅｔｗｏｒｋ,,合同会社,北海道,札幌市中央区,北七条西１９丁目１番地３,,01,101,0600007,,,,,,,2023-06-27,1,,,,,ブレッシングネットワーク,0
2072,9450001014029,新規,0,2023-06-27,2023-06-27,ドッグワン株式会社,,株式会社,北海道,旭川市,東鷹栖一線十九号２８２２－５,,01,204,0718151,,,,,,,2023-06-27,1,,,,,,0
