sequenceNumber,corporateNumber,process,correct,updateDate,changeDate,name,nameImageId,kind,prefectureName,cityName,streetNumber,addressImageId,prefectureCode,cityCode,postCode,addressOutside,addressOutsideImageId,closeDate,closeCause,successorCorporateNumber,changeCause,assignmentDate,latest,enName,enPrefectureName,enCityName,enAddressOutside,furigana,hihyoji
7,1010001221304,登記記録の閉鎖等,0,2024-03-25,2024-03-19,株式会社ＲａｙｏｆＥｎｐｌｏｙ,,株式会社,東京都,品川区,東品川１丁目３番１５号,,13,109,1400002,,,2024-03-19,清算の結了等,,,2021-09-24,1,,,,,レイオブエンプロイ,0
13,1010005017665,登記記録の閉鎖等,0,2024-03-25,2024-03-21,特定非営利活動法人ＧＳデザイン会議,,その他の設立登記法人,東京都,文京区,本郷２丁目３５番１０号本郷瀬川ビル１階,,13,105,1130033,,,2024-03-21,清算の結了等,,,2015-10-05,1,,,,,ジーエスデザインカイギ,0
15,1010401066778,登記記録の閉鎖等,0,2024-03-25,2024-03-18,株式会社セルク,,株式会社,東京都,港区,高輪４丁目２４番３６－１０２,,13,103,1080074,,,2024-03-18,清算の結了等,,,2015-10-05,1,,,,,,0
33,1011001036097,登記記録の閉鎖等,0,2024-03-25,2024-03-18,株式会社エスピーリブ,,株式会社,東京都,品川区,南大井３丁目３５番７号フェニックス大森７０４号室,,13,109,1400013,,,2024-03-18,清算の結了等,,,2015-10-05,1,,,,,エスピーリブ,0
45,1011101052168,登記記録の閉鎖等,0,2024-03-25,2024-03-19,株式会社ＨＡＨＡＪＡＰＡＮ,,株式会社,東京都,新宿区,大久保２丁目２－２第２３宮庭マンション２階Ｊ号室,,13,104,1690072,,,2024-03-19,清算の結了等,,,2015-10-05,1,,,,,ハハジャパン,0
50,1011401000198,登記記録の閉鎖等,0,2024-03-25,2024-03-04,株式会社アソー,,株式会社,東京都,板橋区,舟渡３丁目５番８－３０１号,,13,119,1740041,,,2024-03-04,清算の結了等,,,2015-10-05,1,,,,,アソー,0
52,1011501028395,登記記録の閉鎖等,0,2024-03-25,2024-03-14,株式会社スティング,,株式会社,東京都,北区,赤羽１丁目７番９号赤羽第一葉山ビル４階,,13,117,1150045,,,2024-03-14,清算の結了等,,,2022-08-16,1,,,,,スティング,0
56,1012401010534,登記記録の閉鎖等,0,2024-03-25,2024-03-18,株式会社西山梱包,,株式会社,東京都,小金井市,本町３丁目８番９号,,13,210,1840004,,,2024-03-18,清算の結了等,,,2015-10-05,1,,,,,ニシヤマコンポウ,0
58,1012402015318,登記記録の閉鎖等,0,2024-03-25,2024-03-18,有限会社鉄木屋・瀬戸,,有限会社,東京都,調布市,佐須町２丁目３４番７号,,13,208,1820016,,,2024-03-18,清算の結了等,,,2015-10-05,1,,,,,,0
59,1012701012420,登記記録の閉鎖等,0,2024-03-25,2024-03-21,ソフィアコンサルティング株式会社,,株式会社,東京都,東久留米市,神宝町１丁目１７番１４号,,13,222,2030002,,,2024-03-21,清算の結了等,,,2015-10-05,1,,,,,ソフィアコンサルティング,0
69,1020001142136,登記記録の閉鎖等,0,2024-03-25,2024-03-15,株式会社ＭＡＲ,,株式会社,神奈川県,横浜市港南区,上永谷３丁目３３番６号,,14,111,2330012,,,2024-03-15,清算の結了等,,,2021-07-08,1,,,,,エムエーアール,0
115,1080401023293,登記記録の閉鎖等,0,2024-03-25,2024-03-21,株式会社ミライ,,株式会社,静岡県,浜松市中央区,西浅田２丁目２番１８号,,22,138,4328045,,,2024-03-21,清算の結了等,,,2018-11-20,1,,,,,ミライ,0
117,1100001032155,登記記録の閉鎖等,0,2024-03-25,2024-03-15,王滝村観光株式会社,,株式会社,長野県,木曽郡王滝村,崩越１０３６番地９,,20,429,3970201,,,2024-03-15,清算の結了等,,,2019-04-19,1,,,,,オウタキムラカンコウ,0
125,1120001024349,登記記録の閉鎖等,0,2024-03-25,2024-03-21,中部鉱産株式会社,,株式会社,大阪府,大阪市天王寺区,上汐３丁目５番２３号,,27,109,5430002,,,2024-03-21,清算の結了等,,,2015-10-05,1,,,,,チュウブコウサン,0
143,1122001026795,登記記録の閉鎖等,0,2024-03-25,2024-03-19,株式会社サンエステート,,株式会社,大阪府,東大阪市,立花町１５番１３号,,27,227,5798023,,,2024-03-19,清算の結了等,,,2015-10-05,1,,,,,サンエステート,0
180,1200001032129,登記記録の閉鎖等,0,2024-03-25,2024-03-21,株式会社ケイ・ケイ,,株式会社,岐阜県,岐阜市,北一色２丁目２番１２号,,21,201,5008227,,,2024-03-21,清算の結了等,,,2015-10-05,1,,,,,ケイケイ,0
188,1260001036215,登記記録の閉鎖等,0,2024-03-25,2024-03-19,田中ファーム株式会社,,株式会社,岡山県,倉敷市,水島南春日町８番４号,,33,202,7128025,,,2024-03-19,清算の結了等,,,2021-11-15,1,,,,,タナカファーム,0
206,1330002017215,登記記録の閉鎖等,0,2024-03-25,2024-03-18,有限会社ナカハラインテリア,,有限会社,熊本県,合志市,幾久富１９０９番地の８４,,43,216,8611112,,,2024-03-18,清算の結了等,,,2015-10-05,1,,,,,,0
248,1500001014864,登記記録の閉鎖等,0,2024-03-25,2024-03-15,株式会社岸製作所,,株式会社,愛媛県,四国中央市,土居町天満２８３４番地の１,,38,213,7990723,,,2024-03-15,清算の結了等,,,2015-10-05,1,,,,,,0
252,2010001007256,登記記録の閉鎖等,0,2024-03-25,2024-03-18,株式会社マイヘルス社,,株式会社,東京都,中央区,日本橋茅場町３丁目４番２号,,13,102,1030025,,,2024-03-18,清算の結了等,,,2015-10-05,1,,,,,マイヘルスシャ,0
259,2010001213829,登記記録の閉鎖等,0,2024-03-25,2024-03-18,株式会社サンシャイン,,株式会社,東京都,豊島区,池袋２丁目３６－１,,13,116,1710014,,,2024-03-18,合併による解散等,9010001222666,令和６年２月２７日東京都千代田区平河町一丁目４番１４号株式会社ＦＵＮＤｉＴ（9010001222666）に合併し解散,2020-11-19,1,,,,,サンシャイン,0
266,2010003040478,登記記録の閉鎖等,0,2024-03-25,2024-03-19,Ａｍｕｎ合同会社,,合同会社,東京都,千代田区,内神田２丁目２番６号５階あすな会計事務所内,,13,101,1010047,,,2024-03-19,合併による解散等,3010403010484,令和６年３月１９日東京都中央区銀座一丁目６番１１号土志田ビルディング３ＦＰｕｒｐｌｅＳｏｌ合同会社（3010403010484）に合併し解散,2023-05-02,1,,,,,アムン,0
328,2020002089359,登記記録の閉鎖等,0,2024-03-25,2024-03-15,有限会社ショウワクラフト,,有限会社,神奈川県,川崎市中原区,宮内２丁目５番１２号,,14,133,2110051,,,2024-03-15,清算の結了等,,,2015-10-05,1,,,,,ショウワクラフト,0
337,2021002010909,登記記録の閉鎖等,0,2024-03-25,2024-03-15,有限会社渋谷製作所,,有限会社,神奈川県,茅ヶ崎市,本宿町９番３８号,,14,207,2530014,,,2024-03-15,清算の結了等,,,2015-10-05,1,,,,,シブヤセイサクショ,0
358,2030002087031,登記記録の閉鎖等,0,2024-03-25,2024-03-19,有限会社茶の蔵,,有限会社,埼玉県,越谷市,宮本町４丁目３８番地５,,11,222,3430806,,,2024-03-19,清算の結了等,,,2015-10-05,1,,,,,チャノクラ,0
362,2030005002251,登記記録の閉鎖等,0,2024-03-25,2024-03-15,特定非営利活動法人さいたま市ナーサリールーム保育連絡会,,その他の設立登記法人,埼玉県,さいたま市大宮区,櫛引町１丁目５６８番地１,00018367,11,103,3300851,,,2024-03-15,清算の結了等,,,2015-10-05,1,,,,,サイタマシナーサリールームホイクレンラクカイ,0
367,2040001107318,登記記録の閉鎖等,0,2024-03-25,2024-03-13,株式会社ＷｉｔｈＶｅｔｓ,,株式会社,千葉県,松戸市,常盤平陣屋前１１番地の７,,12,207,2702265,,,2024-03-13,合併による解散等,1040001040767,令和６年３月１日千葉県流山市南流山一丁目２１番地の８株式会社ファニメディック（1040001040767）に合併し解散,2018-12-21,1,,,,,ウィズベッツ,0
375,2050002044781,登記記録の閉鎖等,0,2024-03-25,2024-03-19,有限会社坪山看板,,有限会社,茨城県,結城市,新福寺２丁目１０番地９,,08,207,3070053,,,2024-03-19,清算の結了等,,,2015-10-05,1,,,,,ツボヤマカンバン,0
378,2060001024759,登記記録の閉鎖等,0,2024-03-25,2024-03-18,株式会社エルホールディングス,,株式会社,栃木県,足利市,福居町１９６７番地８,,09,202,3260338,,,2024-03-18,清算の結了等,,,2015-10-05,1,,,,,エルホールディングス,0
387,2080402008961,登記記録の閉鎖等,0,2024-03-25,2024-03-19,有限会社理工,,有限会社,静岡県,浜松市中央区,植松町６４番地の９,,22,138,4300803,,,2024-03-19,清算の結了等,,,2015-10-05,1,,,,,リコウ,0
399,2120001048611,登記記録の閉鎖等,0,2024-03-25,2024-03-15,株式会社ワールド隆文社,,株式会社,大阪府,大阪市西区,京町堀２丁目１番１７号,,27,106,5500003,,,2024-03-15,清算の結了等,,,2015-10-05,1,,,,,ワールドリュウブンシャ,0
418,2120903002401,登記記録の閉鎖等,0,2024-03-25,2024-03-18,合同会社Ｇｏｒｏｕ,,合同会社,大阪府,吹田市,垂水町３丁目９番２２－８０３,,27,205,5640062,,,2024-03-18,清算の結了等,,,2018-01-31,1,,,,,,0
456,2270005002681,登記記録の閉鎖等,0,2024-03-25,2024-03-21,鳥取県東部商工振興協同組合,,その他の設立登記法人,鳥取県,岩美郡岩美町,大字浦富７６０番地１４,,31,302,6810003,,,2024-03-21,清算の結了等,,,2015-10-05,1,,,,,トットリケントウブショウコウシンコウ,0
469,2290002055887,登記記録の閉鎖等,0,2024-03-25,2024-03-19,有限会社もん,,有限会社,福岡県,大牟田市,明治町３丁目７番地５,,40,202,8360012,,,2024-03-19,清算の結了等,,,2015-10-05,1,,,,,モン,0
477,2340002002009,登記記録の閉鎖等,0,2024-03-25,2024-03-21,有限会社エルピーサービス,,有限会社,鹿児島県,鹿児島市,中山２丁目８番１３号,,46,201,8910108,,,2024-03-21,清算の結了等,,,2015-10-05,1,,,,,,0
479,2350001000045,登記記録の閉鎖等,0,2024-03-25,2024-03-21,株式会社アカザワ,,株式会社,宮崎県,宮崎市,恒久２丁目２番地６,,45,201,8800913,,,2024-03-21,清算の結了等,,,2015-10-05,1,,,,,アカザワ,0
483,2370001016972,登記記録の閉鎖等,0,2024-03-25,2024-03-21,鈴木建設株式会社,,株式会社,宮城県,仙台市宮城野区,扇町１丁目６－５,,04,102,9830034,,,2024-03-21,清算の結了等,,,2015-10-05,1,,,,,,0
509,2700150069168,登記記録の閉鎖等,0,2024-03-25,2024-01-01,キリンビバレッジ企業年金基金,,その他,東京都,中野区,中野４丁目１０番２号中野セントラルパークサウス,,13,114,1640001,,,2024-01-01,その他の清算の結了等,,,2016-01-12,1,,,,,キリンビバレッジキギョウネンキンキキン,0
522,3010401121473,登記記録の閉鎖等,0,2024-03-25,2024-03-18,ＴＡＳＣ株式会社,,株式会社,東京都,港区,虎ノ門２丁目９番８号,,13,103,1050001,,,2024-03-18,清算の結了等,,,2015-11-11,1,,,,,タスク,0
531,3010402021499,登記記録の閉鎖等,0,2024-03-25,2024-03-13,有限会社高橋幸生写真事務所,,有限会社,東京都,港区,三田５丁目１９番１２号,,13,103,1080073,,,2024-03-13,清算の結了等,,,2015-10-05,1,,,,,タカハシユキオシャシンジムショ,0
535,3010403026670,登記記録の閉鎖等,0,2024-03-25,2024-03-18,Ｐｘ３合同会社,,合同会社,東京都,港区,麻布十番１丁目８－１１ＴＡＫＡＤＥＮ麻布十番３Ｆ,,13,103,1060045,,,2024-03-18,清算の結了等,,,2021-12-08,1,,,,,ピースリー,0
582,3011701026734,登記記録の閉鎖等,0,2024-03-25,2024-03-19,株式会社アカモ,,株式会社,東京都,江戸川区,平井１丁目２番１１号シャルマンコーポ平井１０３,,13,123,1320035,,,2024-03-19,清算の結了等,,,2023-11-08,1,,,,,アカモ,0
588,3012703000727,登記記録の閉鎖等,0,2024-03-25,2024-03-19,合同会社安達エンジニアリング,,合同会社,東京都,清瀬市,下清戸１丁目１７番地４０－５号,,13,221,2040011,,,2024-03-19,清算の結了等,,,2015-10-05,1,,,,,アダチエンジニアリング,0
619,3030002103183,登記記録の閉鎖等,0,2024-03-25,2024-03-19,有限会社佐藤工務店,,有限会社,埼玉県,川口市,並木４丁目２０番４号,,11,203,3320034,,,2024-03-19,清算の結了等,,,2015-10-05,1,,,,,サトウコウムテン,0
631,3050002006797,登記記録の閉鎖等,0,2024-03-25,2024-03-19,有限会社三和土木,,有限会社,茨城県,那珂市,瓜連６０９番地の１,,08,226,3192102,,,2024-03-19,清算の結了等,,,2015-10-05,1,,,,,サンワドボク,0
638,3070005009515,登記記録の閉鎖等,0,2024-03-25,2024-03-19,一般社団法人みゑ敷島,,その他の設立登記法人,群馬県,前橋市,岩神町３丁目２６番５号,,10,201,3710035,,,2024-03-19,清算の結了等,,,2018-10-05,1,,,,,ミエシキシマ,0
651,3120001000777,登記記録の閉鎖等,0,2024-03-25,2024-03-21,田口印刷紙器株式会社,,株式会社,大阪府,大阪市旭区,中宮１丁目１３番２９号,,27,117,5350003,,,2024-03-21,清算の結了等,,,2015-10-05,1,,,,,タグチインサツシキ,0
652,3120001021609,登記記録の閉鎖等,0,2024-03-25,2024-03-15,株式会社保文社,,株式会社,大阪府,大阪市平野区,加美北１丁目５番７号,,27,126,5470001,,,2024-03-15,清算の結了等,,,2015-10-05,1,,,,,ホウブンシャ,0
653,3120001034271,登記記録の閉鎖等,0,2024-03-25,2024-03-21,株式会社石井,,株式会社,大阪府,大阪市西区,立売堀６丁目１番６号,,27,106,5500012,,,2024-03-21,清算の結了等,,,2015-10-05,1,,,,,イシイ,0
674,3120902010032,登記記録の閉鎖等,0,2024-03-25,2024-03-21,有限会社キタノ寝装,,有限会社,大阪府,高槻市,宮之川原４丁目１番１号,,27,207,5691032,,,2024-03-21,清算の結了等,,,2015-10-05,1,,,,,キタノシンソウ,0
694,3180001078081,登記記録の閉鎖等,0,2024-03-25,2024-03-15,株式会社オーク建築設計事務所,,株式会社,愛知県,春日井市,八田町２丁目１番地２０,,23,206,4860849,,,2024-03-15,清算の結了等,,,2015-10-05,1,,,,,オークケンチクセッケイジムショ,0
726,3200003004842,登記記録の閉鎖等,0,2024-03-25,2024-03-21,合同会社アエール,,合同会社,岐阜県,岐阜市,粟野東２丁目２００番地,,21,201,5020002,,,2024-03-21,清算の結了等,,,2020-06-23,1,,,,,アエール,0
739,3290003003373,登記記録の閉鎖等,0,2024-03-25,2024-03-12,合同会社悠愛,,合同会社,福岡県,宗像市,日の里９丁目２４番地５,,40,220,8113425,,,2024-03-12,清算の結了等,,,2015-10-05,1,,,,,ユウアイ,0
791,4010002019174,登記記録の閉鎖等,0,2024-03-25,2024-03-18,有限会社キャリーオン,,有限会社,東京都,中央区,日本橋小舟町１５番１７協栄ビル１階,,13,102,1030024,,,2024-03-18,清算の結了等,,,2015-10-05,1,,,,,,0
792,4010003025832,登記記録の閉鎖等,0,2024-03-25,2024-03-19,デベロップマネージメント合同会社,,合同会社,東京都,千代田区,鍛冶町２丁目５番４号,,13,101,1010044,,,2024-03-19,合併による解散等,9010401097733,令和６年３月１日東京都港区南青山二丁目２番８号株式会社クレアコンサルティング（9010401097733）に合併し解散,2017-08-25,1,,,,,,0
806,4010403025424,登記記録の閉鎖等,0,2024-03-25,2024-03-15,Ｋｙｒｏｎ２合同会社,,合同会社,東京都,港区,虎ノ門４丁目１番２８号,,13,103,1050001,,,2024-03-15,清算の結了等,,,2021-06-02,1,,,,,カイロンツー,0
817,4011001064269,登記記録の閉鎖等,0,2024-03-25,2024-03-15,株式会社バギーバランスネット,,株式会社,東京都,渋谷区,富ヶ谷１丁目９番１５号,,13,113,1510063,,,2024-03-15,清算の結了等,,,2015-10-05,1,,,,,バギーバランスネット,0
862,4021001057321,登記記録の閉鎖等,0,2024-03-25,2024-03-21,株式会社エイエム,,株式会社,神奈川県,相模原市中央区,田名１８５９番地２０,,14,152,2520244,,,2024-03-21,清算の結了等,,,2015-10-05,1,,,,,エイエム,0
873,4030003014445,登記記録の閉鎖等,0,2024-03-25,2024-03-18,合同会社Ｇｒｏｏｖｙ,,合同会社,埼玉県,入間市,下藤沢４丁目６番地１０,,11,225,3580011,,,2024-03-18,清算の結了等,,,2019-11-28,1,,,,,グルーヴィー,0
878,4040001121052,登記記録の閉鎖等,0,2024-03-25,2024-03-19,Ｇ　ａｎｄ　Ｂ株式会社,,株式会社,東京都,新宿区,百人町２丁目１６番２１アネックスＧＴＭ１０５号室,,13,104,1690073,,,2024-03-19,清算の結了等,,,2021-11-17,1,,,,,ジーアンドビー,0
892,4070001021191,登記記録の閉鎖等,0,2024-03-25,2024-03-19,ＨＮサービス株式会社,,株式会社,群馬県,館林市,日向町２６３番地,,10,207,3740076,,,2024-03-19,清算の結了等,,,2015-10-05,1,,,,,エイチエヌサービス,0
893,4070001025952,登記記録の閉鎖等,0,2024-03-25,2024-03-21,株式会社ＧＡＩＡ　Ｃｏｎｆｉｄｅｎｃｅ,,株式会社,群馬県,高崎市,吉井町吉井川６９３番地９,,10,202,3702133,,,2024-03-21,清算の結了等,,,2015-10-05,1,,,,,,0
895,4070005002634,登記記録の閉鎖等,0,2024-03-25,2024-03-21,群馬いすゞトヨペット自動車販売協同組合,,その他の設立登記法人,群馬県,高崎市,宮原町１番地２１,,10,202,3701202,,,2024-03-21,清算の結了等,,,2015-10-05,1,,,,,グンマイスズトヨペットジドウシャハンバイ,0
905,4100001004639,登記記録の閉鎖等,0,2024-03-25,2024-03-18,株式会社大田工務店,,株式会社,長野県,長野市,大字安茂里１７５８番地６,,20,201,3800941,,,2024-03-18,清算の結了等,,,2015-10-05,1,,,,,オオタコウムテン,0
927,4120005022651,登記記録の閉鎖等,0,2024-03-25,2024-03-21,一般社団法人キャン・イット,,その他の設立登記法人,大阪府,大阪市城東区,関目２丁目１２番３７－６０２号,,27,118,5360008,,,2024-03-21,清算の結了等,,,2021-12-10,1,,,,,キャンイット,0
940,4130001055506,登記記録の閉鎖等,0,2024-03-25,2024-03-21,Ｄ．Ｊｕｓｔ株式会社,,株式会社,京都府,京都市中京区,寺町通二条下る妙満寺前町４４６番地,,26,104,6040932,,,2024-03-21,清算の結了等,,,2015-10-05,1,,,,,,0
944,4130002028956,登記記録の閉鎖等,0,2024-03-25,2024-03-19,有限会社下岡電設,,有限会社,京都府,亀岡市,南つつじケ丘大葉台１丁目６番１号,,26,206,6210846,,,2024-03-19,清算の結了等,,,2015-10-05,1,,,,,シモオカデンセツ,0
946,4130002032140,登記記録の閉鎖等,0,2024-03-25,2024-03-21,有限会社興楽,,有限会社,京都府,宮津市,字本町７８３番地,,26,205,6260018,,,2024-03-21,清算の結了等,,,2015-10-05,1,,,,,,0
980,4180002035312,登記記録の閉鎖等,0,2024-03-25,2024-03-15,有限会社ウエスト,,有限会社,愛知県,名古屋市熱田区,六野２丁目６番１６－６０１号,,23,109,4560023,,,2024-03-15,清算の結了等,,,2015-10-05,1,,,,,ウエスト,0
981,4180002076075,登記記録の閉鎖等,0,2024-03-25,2024-03-15,有限会社カットハウスクマザワ,,有限会社,愛知県,一宮市,花池３丁目７番２７号,,23,203,4910914,,,2024-03-15,清算の結了等,,,2015-10-05,1,,,,,カットハウスクマザワ,0
982,4180002086157,登記記録の閉鎖等,0,2024-03-25,2024-03-11,有限会社知多フラワー,,有限会社,愛知県,常滑市,西阿野字半月２８２番地の１,,23,216,4790802,,,2024-03-11,清算の結了等,,,2015-10-05,1,,,,,チタフラワー,0
1007,4290003006490,登記記録の閉鎖等,0,2024-03-25,2024-03-12,プラチナード合同会社,,合同会社,福岡県,福岡市中央区,白金１丁目５番２２号,,40,133,8100012,,,2024-03-12,清算の結了等,,,2016-05-24,1,,,,,プラチナード,0
1027,4390002010814,登記記録の閉鎖等,0,2024-03-25,2024-03-19,有限会社グリーンゴルフガーデン,,有限会社,山形県,新庄市,大字鳥越１５１０番地７,,06,205,9960041,,,2024-03-19,清算の結了等,,,2015-10-05,1,,,,,グリーンゴルフガーデン,0
1042,4500002024018,登記記録の閉鎖等,0,2024-03-25,2024-03-21,有限会社ほっとバター,,有限会社,愛媛県,南宇和郡愛南町,城辺甲２８３番地１,,38,506,7984131,,,2024-03-21,清算の結了等,,,2015-10-05,1,,,,,ホットバター,0
1054,5010401047353,登記記録の閉鎖等,0,2024-03-25,2024-03-18,ひまわりホールディングス株式会社,,株式会社,東京都,千代田区,丸の内１丁目１１番１号,,13,101,1000005,,,2024-03-18,清算の結了等,,,2015-10-05,1,,,,,ヒマワリホールディングス,0
1063,5010501030713,登記記録の閉鎖等,0,2024-03-25,2024-03-14,株式会社エターナルリンク,,株式会社,東京都,中央区,日本橋茅場町２丁目７－６晴花ビル６階,,13,102,1030025,,,2024-03-14,清算の結了等,,,2015-10-05,1,,,,,エターナルリンク,0
1105,5012401033333,登記記録の閉鎖等,0,2024-03-25,2024-03-18,株式会社リンガ・フランカ,,株式会社,東京都,武蔵野市,中町２丁目１番９号,,13,203,1800006,,,2024-03-18,清算の結了等,,,2017-11-09,1,,,,,リンガフランカ,0
1132,5040001005270,登記記録の閉鎖等,0,2024-03-25,2024-03-21,株式会社東翔,00018794,株式会社,千葉県,千葉市若葉区,加曽利町９５８番地の９５,,12,104,2640017,,,2024-03-21,清算の結了等,,,2015-10-05,1,,,,,トウショウ,0
1152,5080403003018,登記記録の閉鎖等,0,2024-03-25,2024-03-13,ＴＰＳ株式会社,,株式会社,静岡県,浜松市中央区,東伊場１丁目２０番地サンコート浜松２０２,,22,138,4328036,,,2024-03-13,合併による解散等,4080403002870,令和６年３月１３日静岡県浜松市中央区東伊場一丁目２０番地サンコート浜松２０２ＡＴＰパートナーズ株式会社（4080403002870）に合併し解散,2015-10-05,1,,,,,ティーピーエス,0
1153,5110001007870,登記記録の閉鎖等,0,2024-03-25,2024-03-21,株式会社マルニ建商,,株式会社,新潟県,新潟市北区,白新町３丁目４番３号,,15,101,9503325,,,2024-03-21,清算の結了等,,,2015-10-05,1,,,,,マルニケンショウ,0
1154,5110002005312,登記記録の閉鎖等,0,2024-03-25,2024-03-21,有限会社ハトヤ食品,,有限会社,新潟県,新潟市北区,島見町字芝田２４３４番３１,,15,101,9503102,,,2024-03-21,清算の結了等,,,2015-10-05,1,,,,,ハトヤショクヒン,0
1180,5130002010368,登記記録の閉鎖等,0,2024-03-25,2024-03-21,有限会社京都市立芸術大学購売部,,有限会社,京都府,京都市東山区,大仏南門通大和大路東入４丁目東瓦町６９３番地の３,,26,105,6050951,,,2024-03-21,清算の結了等,,,2015-10-05,1,,,,,キョウトシリツゲイジュツダイガクコウバイブ,0
1182,5130002021274,登記記録の閉鎖等,0,2024-03-25,2024-03-19,有限会社ライフスペースかつら,,有限会社,京都府,京都市西京区,桂上豆田町６番地の３７,,26,111,6158082,,,2024-03-19,清算の結了等,,,2015-10-05,1,,,,,ライフスペース,0
1213,5180005013958,登記記録の閉鎖等,0,2024-03-25,2024-03-18,医療法人心医会,,その他の設立登記法人,愛知県,海部郡大治町,大字三本木字西之川１０７番１,,23,424,4901142,,,2024-03-18,清算の結了等,,,2015-10-05,1,,,,,シンイカイ,0
1214,5180301008554,登記記録の閉鎖等,0,2024-03-25,2024-03-21,株式会社オカダメディカル,,株式会社,愛知県,豊橋市,忠興３丁目３番地５,,23,201,4400004,,,2024-03-21,清算の結了等,,,2015-10-05,1,,,,,オカダメディカル,0
1226,5190003002284,登記記録の閉鎖等,0,2024-03-25,2024-03-21,合同会社ＷＡＴＡＮＡＢＥ,,合同会社,三重県,三重郡川越町,大字高松５７６番地１,,24,344,5108121,,,2024-03-21,清算の結了等,,,2015-10-05,1,,,,,ワタナベ,0
1240,5240002024290,登記記録の閉鎖等,0,2024-03-25,2024-03-21,有限会社パロマコーポレーション,,有限会社,広島県,広島市中区,西平塚町４番２６－２０２号,,34,101,7300024,,,2024-03-21,清算の結了等,,,2015-10-05,1,,,,,,0
1241,5250001012634,登記記録の閉鎖等,0,2024-03-25,2024-03-22,勝本建設株式会社,,株式会社,山口県,熊毛郡平生町,大字佐賀２１７５番地の３,,35,344,7421111,,,2024-03-22,清算の結了等,,,2015-10-05,1,,,,,カツモトケンセツ,0
1273,5400005003762,登記記録の閉鎖等,0,2024-03-25,2024-03-15,一般社団法人遠野ふるさと公社,,その他の設立登記法人,岩手県,遠野市,綾織町新里８地割２番地１,,03,208,0280531,,,2024-03-15,清算の結了等,,,2015-10-05,1,,,,,トオノフルサトコウシャ,0
1280,5480002013922,登記記録の閉鎖等,0,2024-03-25,2024-03-22,有限会社橋田工務店,,有限会社,徳島県,阿南市,上中町岡４９７番地１７,,36,204,7740044,,,2024-03-22,清算の結了等,,,2015-10-05,1,,,,,ハシダコウムテン,0
1285,5500005004313,登記記録の閉鎖等,0,2024-03-25,2024-03-22,ＮＰＯ法人ｅ－えひめ,,その他の設立登記法人,愛媛県,新居浜市,坂井町２丁目３番１７号,,38,205,7920812,,,2024-03-22,清算の結了等,,,2015-10-05,1,,,,,イーエヒメ,0
1319,6010705000775,登記記録の閉鎖等,0,2024-03-25,2024-03-22,特定非営利活動法人ジェィシィアイエィ,,その他の設立登記法人,東京都,文京区,根津２丁目１１番３号奥平ビル１階,,13,105,1130031,,,2024-03-22,清算の結了等,,,2015-10-05,1,,,,,ジェイシィアイエイ,0
1358,6012401023317,登記記録の閉鎖等,0,2024-03-25,2024-03-19,総合住宅株式会社,,株式会社,東京都,府中市,四谷１丁目２７番地の３,,13,206,1830035,,,2024-03-19,清算の結了等,,,2015-10-05,1,,,,,ソウゴウジュウタク,0
1364,6020001017977,登記記録の閉鎖等,0,2024-03-25,2024-03-18,株式会社田中不動産,,株式会社,神奈川県,横浜市鶴見区,鶴見中央３丁目４番１６－１号,,14,101,2300051,,,2024-03-18,清算の結了等,,,2015-10-05,1,,,,,タナカフドウサン,0
1378,6021002000625,登記記録の閉鎖等,0,2024-03-25,2024-03-22,有限会社岩崎建築,,有限会社,神奈川県,藤沢市,辻堂元町４丁目８番４号,,14,205,2510043,,,2024-03-22,清算の結了等,,,2015-10-05,1,,,,,イワサキケンチク,0
1395,6040001095360,登記記録の閉鎖等,0,2024-03-25,2024-03-15,松戸ＰＶアフターサービス株式会社,,株式会社,千葉県,柏市,南増尾７丁目１１番地９,,12,217,2770054,,,2024-03-15,清算の結了等,,,2016-05-19,1,,,,,マツドピーブイアフタサービス,0
1421,6070001000391,登記記録の閉鎖等,0,2024-03-25,2024-03-21,永進商事株式会社,,株式会社,群馬県,前橋市,朝日町３丁目２３番５号,,10,201,3710014,,,2024-03-21,清算の結了等,,,2015-10-05,1,,,,,エイシンショウジ,0
1435,6120001165386,登記記録の閉鎖等,0,2024-03-25,2024-03-21,株式会社ヤスダ金属,,株式会社,大阪府,大阪市生野区,巽北１丁目２８番９号,00029576,27,116,5440004,,,2024-03-21,清算の結了等,,,2015-10-05,1,,,,,ヤスダキンゾク,0
1468,6130001055462,登記記録の閉鎖等,0,2024-03-25,2024-03-21,株式会社フォレストスポーツ,,株式会社,京都府,与謝郡与謝野町,字男山小字萩原６５番地,,26,465,6292261,,,2024-03-21,清算の結了等,,,2015-10-05,1,,,,,,0
1492,6180001151777,登記記録の閉鎖等,0,2024-03-25,2024-03-15,株式会社ＩＲＵＤＡ,,株式会社,愛知県,名古屋市名東区,上菅２丁目１００４番地の６,,23,115,4650014,,,2024-03-15,清算の結了等,,,2022-06-14,1,,,,,イルダ,0
1502,6180002041960,登記記録の閉鎖等,0,2024-03-25,2024-03-07,有限会社インタープラッツ,,有限会社,愛知県,名古屋市千種区,月ケ丘３丁目３番４号,,23,101,4640043,,,2024-03-07,清算の結了等,,,2015-10-05,1,,,,,インタープラッツ,0
1514,6220003002809,登記記録の閉鎖等,0,2024-03-25,2024-03-21,合同会社Ｈ＆Ｓサービス,,合同会社,石川県,金沢市,示野中町１丁目１６６番地３,,17,201,9200058,,,2024-03-21,合併による解散等,9220001005439,令和６年３月２０日石川県金沢市西都一丁目２７７番地株式会社ピーコックサービス（9220001005439）に合併し解散,2020-05-22,1,,,,,エイチアンドエスサービス,0
1553,6410002007723,登記記録の閉鎖等,0,2024-03-25,2024-03-18,有限会社末吉観光,,有限会社,秋田県,湯沢市,表町４丁目２番２９号,,05,207,0120827,,,2024-03-18,清算の結了等,,,2015-10-05,1,,,,,スエヨシカンコウ,0
1571,7010001106350,登記記録の閉鎖等,0,2024-03-25,2024-03-18,株式会社八幡梱包,,株式会社,東京都,文京区,関口１丁目４４番５号,,13,105,1120014,,,2024-03-18,清算の結了等,,,2015-10-05,1,,,,,ヤワタコンポウ,0
1572,7010001106763,登記記録の閉鎖等,0,2024-03-25,2024-03-12,ＨｉＴＴＯ株式会社,,株式会社,東京都,港区,芝浦３丁目１番２１号,,13,103,1080023,,,2024-03-12,合併による解散等,6011101063359,令和６年３月１日東京都港区芝浦三丁目１番２１号ｍｓｂＴａｍａｃｈｉ田町ステーションタワーＳ２１階株式会社マネーフォワード（6011101063359）に合併し解散,2015-10-05,1,,,,,ヒット,0
1574,7010003033320,登記記録の閉鎖等,0,2024-03-25,2024-03-21,日光Ｐｌｕｓ１４合同会社１４,,合同会社,東京都,千代田区,丸の内３丁目１番１号東京共同会計事務所内,,13,101,1000005,,,2024-03-21,清算の結了等,,,2020-10-19,1,,,,,ニッコウプラスフォーティーンイチヨン,0
1576,7010005035760,登記記録の閉鎖等,0,2024-03-25,2024-03-19,一般社団法人ＫＳＴ２,,その他の設立登記法人,東京都,千代田区,内幸町２丁目１番６号,,13,101,1000011,,,2024-03-19,清算の結了等,,,2022-11-09,1,,,,,ケイエスティーツー,0
1578,7010401024722,登記記録の閉鎖等,0,2024-03-25,2024-03-18,株式会社ＨＩＲＡＫＵ,,株式会社,東京都,港区,元赤坂１丁目４番１号,,13,103,1070051,,,2024-03-18,清算の結了等,,,2015-10-05,1,,,,,,0
1584,7010405017193,登記記録の閉鎖等,0,2024-03-25,2024-03-18,一般社団法人Ｎａｚｕｎａ　Ｈａｎａｍａｃｈｉ　Ｈｏｌｄｉｎｇｓ,,その他の設立登記法人,東京都,港区,虎ノ門５丁目１番４号,,13,103,1050001,,,2024-03-18,清算の結了等,,,2018-10-29,1,,,,,ナズナハナマチホールディングス,0
1629,7012701008297,登記記録の閉鎖等,0,2024-03-25,2024-03-21,株式会社ヒューマンワールド,,株式会社,東京都,西東京市,田無町７丁目１８番４号,,13,229,1880011,,,2024-03-21,清算の結了等,,,2015-10-05,1,,,,,ヒューマンワールド,0
1645,7021002038508,登記記録の閉鎖等,0,2024-03-25,2024-03-21,有限会社共和,,有限会社,神奈川県,秦野市,西田原１９７番地の９,,14,211,2570027,,,2024-03-21,清算の結了等,,,2015-10-05,1,,,,,キョウワ,0
1679,7120001013453,登記記録の閉鎖等,0,2024-03-25,2024-03-15,株式会社フィットネス,,株式会社,大阪府,大阪市生野区,小路東２丁目１６番２２号,,27,116,5440003,,,2024-03-15,清算の結了等,,,2015-10-05,1,,,,,フィットネス,0
1686,7120001253652,登記記録の閉鎖等,0,2024-03-25,2024-03-18,株式会社ＲＥＶＩＳＩＯＮ,,株式会社,大阪府,寝屋川市,楠根南町１３番５号,,27,215,5720811,,,2024-03-18,清算の結了等,,,2023-04-04,1,,,,,リビジョン,0
1718,7140002007205,登記記録の閉鎖等,0,2024-03-25,2024-03-18,有限会社ケイ・エンジニアリング,,有限会社,兵庫県,神戸市須磨区,横尾３丁目１３番地の１６,,28,107,6540131,,,2024-03-18,清算の結了等,,,2015-10-05,1,,,,,ケイエンジニアリング,0
1724,7170001002773,登記記録の閉鎖等,0,2024-03-25,2024-03-21,株式会社美食,,株式会社,和歌山県,和歌山市,田屋１３８番地,,30,201,6496337,,,2024-03-21,合併による解散等,7170001003061,令和６年３月２１日和歌山市田屋１３８番地株式会社松源（7170001003061）に合併し解散,2015-10-05,1,,,,,ビショク,0
1731,7180001033826,登記記録の閉鎖等,0,2024-03-25,2024-03-15,株式会社アサヒ・デザイン,,株式会社,愛知県,名古屋市中区,栄５丁目１９番４号ケイポイントビル,,23,106,4600008,,,2024-03-15,清算の結了等,,,2015-10-05,1,,,,,アサヒデザイン,0
1802,7310001013764,登記記録の閉鎖等,0,2024-03-25,2024-03-13,タイヤリサイクルホールディングス株式会社,,株式会社,長崎県,長崎市,さくらの里３丁目１７７５番地,,42,201,8512207,,,2024-03-13,清算の結了等,,,2015-10-05,1,,,,,,0
1854,8010401041007,登記記録の閉鎖等,0,2024-03-25,2024-03-18,株式会社医療福祉総合研究所,,株式会社,東京都,港区,赤坂４丁目１－２６,,13,103,1070052,,,2024-03-18,清算の結了等,,,2015-10-05,1,,,,,イリョウフクシソウゴウケンキュウジョ,0
1910,8013301041019,登記記録の閉鎖等,0,2024-03-25,2024-03-18,株式会社ベジタリアンブッチャージャパン,,株式会社,東京都,豊島区,西池袋３丁目２９番９号Ｃ３ビルＢ１Ｆ,,13,116,1710021,,,2024-03-18,清算の結了等,,,2017-08-22,1,,,,,ベジタリアンブッチャージャパン,0
1919,8020002036009,登記記録の閉鎖等,0,2024-03-25,2024-03-19,有限会社ミックスデザイン,,有限会社,神奈川県,三浦市,三崎町諸磯９５１番地２,,14,210,2380224,,,2024-03-19,清算の結了等,,,2015-10-05,1,,,,,,0
1937,8030002050413,登記記録の閉鎖等,0,2024-03-25,2024-03-21,有限会社江田設計,,有限会社,埼玉県,草加市,遊馬町１１５４番地１４,,11,221,3400032,,,2024-03-21,清算の結了等,,,2015-10-05,1,,,,,エダセッケイ,0
1951,8050001025728,登記記録の閉鎖等,0,2024-03-25,2024-02-29,株式会社イー・アール,,株式会社,茨城県,牛久市,牛久町字大道東２７９－１千秋ビル三階,,08,219,3001221,,,2024-02-29,合併による解散等,9050001053488,令和６年２月２９日茨城県牛久市牛久町２７９番１号株式会社イー・アール（9050001053488）に合併し解散,2015-10-05,1,,,,,イーアール,0
1958,8070001039544,登記記録の閉鎖等,0,2024-03-25,2024-03-18,株式会社ルピエ,,株式会社,群馬県,桐生市,末広町３番８号,,10,203,3760045,,,2024-03-18,清算の結了等,,,2022-08-16,1,,,,,ルピエ,0
1967,8100002030440,登記記録の閉鎖等,0,2024-03-25,2024-03-15,有限会社プラネシア,,有限会社,長野県,諏訪市,大字中洲２８２４番地,,20,206,3920015,,,2024-03-15,清算の結了等,,,2015-10-05,1,,,,,プラネシア,0
1969,8100002037502,登記記録の閉鎖等,0,2024-03-25,2024-03-15,メロディーハウスエンタープライズ有限会社,,有限会社,長野県,飯田市,中央通り１丁目５番地,,20,205,3950041,,,2024-03-15,清算の結了等,,,2015-10-05,1,,,,,メロディーハウスエンタープライズ,0
1972,8120001114639,登記記録の閉鎖等,0,2024-03-25,2024-03-21,プラスコム株式会社,,株式会社,大阪府,枚方市,招提田近２丁目１９番地,,27,210,5731132,,,2024-03-21,合併による解散等,5120001089751,令和６年３月２１日大阪市中央区谷町六丁目５番２６号株式会社松井製作所（5120001089751）に合併し解散,2015-10-05,1,,,,,プラスコム,0
1989,8130001052887,登記記録の閉鎖等,0,2024-03-25,2024-03-21,株式会社フォレスト,,株式会社,京都府,福知山市,字牧小字市場浦８２０番地の１,,26,201,6200913,,,2024-03-21,清算の結了等,,,2015-10-05,1,,,,,,0
2009,8170001016112,登記記録の閉鎖等,0,2024-03-25,2024-03-08,株式会社ＪＯＩＮＴ　ＬＡＢＥＬ,,株式会社,東京都,渋谷区,渋谷２丁目２２番３号,,13,113,1500002,,,2024-03-08,合併による解散等,7170001015222,令和６年３月１日東京都渋谷区渋谷二丁目２２番３号株式会社Ｆｕｎ（7170001015222）に合併し解散,2020-06-02,1,,,,,ジョイントレーベル,0
2073,8380002025074,登記記録の閉鎖等,0,2024-03-25,2024-03-19,有限会社戸田工業,,有限会社,福島県,いわき市,大久町大久字原１９３番地,,07,204,9790338,,,2024-03-19,清算の結了等,,,2015-10-05,1,,,,,トダコウギョウ,0
2100,9010001094858,登記記録の閉鎖等,0,2024-03-25,2024-03-18,シーエムジャパン株式会社,,株式会社,東京都,港区,虎ノ門３丁目１番１号,,13,103,1050001,,,2024-03-18,清算の結了等,,,2015-10-05,1,,,,,シーエムジャパン,0
2102,9010001177919,登記記録の閉鎖等,0,2024-03-25,2024-02-13,株式会社サード,,株式会社,東京都,中央区,日本橋兜町９番１１,,13,102,1030026,,,2024-02-13,清算の結了等,,,2016-08-25,1,,,,,サード,0
2115,9010005025710,登記記録の閉鎖等,0,2024-03-25,2024-03-14,一般社団法人医療相互メンタルサポート協会,,その他の設立登記法人,東京都,中央区,日本橋２丁目２番８号東京風月堂日本橋ビル７階,00107671,13,102,1030027,,,2024-03-14,清算の結了等,,,2016-08-30,1,,,,,イリョウソウゴメンタルサポートキョウカイ,0
2117,9010101012199,登記記録の閉鎖等,0,2024-03-25,2024-03-15,大王メタル株式会社,,株式会社,東京都,八王子市,千人町３丁目１４番１９－１０５号,,13,201,1930835,,,2024-03-15,清算の結了等,,,2016-02-08,1,,,,,,0
2128,9010402033902,登記記録の閉鎖等,0,2024-03-25,2024-03-18,有限会社ケイエムオー,,有限会社,東京都,港区,麻布台２丁目３番８号丸山ビル６Ｆ,,13,103,1060041,,,2024-03-18,清算の結了等,,,2015-10-05,1,,,,,ケイエムオー,0
2141,9010702009718,登記記録の閉鎖等,0,2024-03-25,2024-03-18,有限会社テクノアイ,,有限会社,東京都,品川区,平塚２丁目７番１６号,,13,109,1420051,,,2024-03-18,清算の結了等,,,2015-10-05,1,,,,,,0
2185,9020001116446,登記記録の閉鎖等,0,2024-03-25,2024-03-18,株式会社横浜トレンドセレクト,,株式会社,神奈川県,横浜市港北区,新横浜２丁目１５番地１０ＹＳ新横浜ビル５階,,14,109,2220033,,,2024-03-18,清算の結了等,,,2016-06-06,1,,,,,,0
2194,9021001040157,登記記録の閉鎖等,0,2024-03-25,2024-03-15,株式会社観音崎京急ホテル,,株式会社,神奈川県,横浜市西区,高島１丁目２番８号,,14,103,2200011,,,2024-03-15,清算の結了等,,,2015-10-05,1,,,,,カンノンザキケイキュウホテル,0
2243,9080402021990,登記記録の閉鎖等,0,2024-03-25,2024-03-21,広岡織物有限会社,,有限会社,静岡県,袋井市,湊１２６５番地の１,,22,216,4371115,,,2024-03-21,清算の結了等,,,2015-10-05,1,,,,,ヒロオカオリモノ,0
2252,9100005012195,登記記録の閉鎖等,0,2024-03-25,2024-03-13,ティーエスジー協同組合,,その他の設立登記法人,長野県,上伊那郡箕輪町,大字中箕輪１４２３８番地１,,20,383,3994601,,,2024-03-13,清算の結了等,,,2018-03-07,1,,,,,ティーエスジー,0
2255,9120001023748,登記記録の閉鎖等,0,2024-03-25,2024-03-21,白石鉱産株式会社,,株式会社,大阪府,大阪市天王寺区,上汐３丁目５番２３号,,27,109,5430002,,,2024-03-21,清算の結了等,,,2015-10-05,1,,,,,シライシコウサン,0
2266,9120003008508,登記記録の閉鎖等,0,2024-03-25,2024-03-15,憩サポートサービス合同会社,,合同会社,大阪府,大阪市大正区,千島１丁目２３番１４１号,,27,108,5510003,,,2024-03-15,清算の結了等,,,2015-10-05,1,,,,,イコイサポートサービス,0
2296,9160002014016,登記記録の閉鎖等,0,2024-03-25,2024-03-22,有限会社テラダ技研,,有限会社,滋賀県,守山市,森川原町５２番地の２,,25,207,5240064,,,2024-03-22,清算の結了等,,,2015-10-05,1,,,,,テラダギケン,0
2311,9180003025357,登記記録の閉鎖等,0,2024-03-25,2024-03-18,合同会社ホームスクールニコニコ,,合同会社,愛知県,名古屋市東区,砂田橋３丁目２番１０２－１０１０号,,23,102,4610045,,,2024-03-18,清算の結了等,,,2023-06-14,1,,,,,ホームスクールニコニコ,0
2328,9240001040013,登記記録の閉鎖等,0,2024-03-25,2024-03-15,中川木材株式会社,,株式会社,広島県,三原市,古浜２丁目１１番１４号,,34,204,7230013,,,2024-03-15,清算の結了等,,,2024-01-11,1,,,,,ナカガワモクザイ,0
2330,9250001020278,登記記録の閉鎖等,0,2024-03-25,2024-03-18,株式会社ＣＡＢＢＩＴＷＯＲＫＳ,,株式会社,山口県,宇部市,大字東岐波２３２１番地１５,,35,202,7550241,,,2024-03-18,清算の結了等,,,2023-09-07,1,,,,,キャビットワークス,0
2357,9330001025005,登記記録の閉鎖等,0,2024-03-25,2024-03-18,株式会社センディングベース,,株式会社,熊本県,熊本市中央区,大江３丁目２番１０号－５１６,,43,101,8620971,,,2024-03-18,清算の結了等,,,2018-02-13,1,,,,,,0
2360,9330002024955,登記記録の閉鎖等,0,2024-03-25,2024-03-21,有限会社オリオン乳業,,有限会社,熊本県,宇土市,浦田町１１０番地２,,43,211,8690445,,,2024-03-21,清算の結了等,,,2015-10-05,1,,,,,,0
2372,9360001022560,登記記録の閉鎖等,0,2024-03-25,2024-03-15,株式会社ヴィラヴォーラ,,株式会社,沖縄県,宮古島市,城辺字保良９４０番地１,,47,214,9060101,,,2024-03-15,清算の結了等,,,2017-06-30,1,,,,,ヴィラヴォーラ,0
2389,9410001012960,登記記録の閉鎖等,0,2024-03-25,2024-03-18,ＩＫ株式会社,,株式会社,秋田県,秋田市,大町５丁目６番３０号,,05,201,0100921,,,2024-03-18,清算の結了等,,,2021-09-13,1,,,,,アイケー,0
2391,9430001020053,登記記録の閉鎖等,0,2024-03-25,2024-03-15,ホープエクサート株式会社,,株式会社,北海道,札幌市中央区,南四条西１５丁目３番５号,,01,101,0640804,,,2024-03-15,合併による解散等,6430001033982,令和６年３月１５日札幌市中央区南四条西十五丁目３番５号ダイニチキャピタル＆ホープ株式会社（6430001033982）に合併し解散,2015-10-05,1,,,,,ホープエクサート,0
2396,9430001084965,登記記録の閉鎖等,0,2024-03-25,2024-03-15,株式会社グリット,,株式会社,北海道,札幌市豊平区,福住一条１丁目２番１６号,,01,105,0620041,,,2024-03-15,合併による解散等,8430003006992,令和６年３月１５日札幌市豊平区福住一条一丁目２番１６号合同会社エース（8430003006992）に合併し解散,2021-09-14,1,,,,,グリット,0
