sequenceNumber,corporateNumber,process,correct,updateDate,changeDate,name,nameImageId,kind,prefectureName,cityName,streetNumber,addressImageId,prefectureCode,cityCode,postCode,addressOutside,addressOutsideImageId,closeDate,closeCause,successorCorporateNumber,changeCause,assignmentDate,latest,enName,enPrefectureName,enCityName,enAddressOutside,furigana,hihyoji
2,1010001125769,登記記録の閉鎖等,0,2025-12-23,2025-12-18,株式会社フェイス,,株式会社,秋田県,仙北市,田沢湖生保内字荒川２８番地１,,05,215,0141201,,,2025-12-18,清算の結了等,,,2015-10-05,1,,,,,フェイス,0
10,1010003040470,登記記録の閉鎖等,0,2025-12-23,2025-12-04,ＷＹＰ合同会社,,合同会社,東京都,千代田区,神田須田町１丁目１２番８号ＪＬＢグランエクリュ神田８０１,,13,101,1010041,,,2025-12-04,清算の結了等,,,2023-05-01,1,,,,,ダブリューワイピー,0
11,1010003043069,登記記録の閉鎖等,0,2025-12-23,2025-12-09,合同会社コールドブリッジ１号,,合同会社,東京都,中央区,日本橋１丁目４番１号,,13,102,1030027,,,2025-12-09,清算の結了等,,,2024-02-28,1,,,,,コールドブリッジイチゴウ,0
46,1011005006815,登記記録の閉鎖等,0,2025-12-23,2025-12-01,一般社団法人きもの採寸師協会,,その他の設立登記法人,東京都,渋谷区,渋谷２丁目１９番１５－６０９号宮益坂ビルディング,,13,113,1500002,,,2025-12-01,清算の結了等,,,2016-06-22,1,,,,,キモノサイスンシキョウカイ,0
47,1011101037763,登記記録の閉鎖等,0,2025-12-23,2025-12-15,株式会社シティアイ,,株式会社,東京都,台東区,東上野３丁目１５番１２号,,13,106,1100015,,,2025-12-15,清算の結了等,,,2015-10-05,1,,,,,シティアイ,0
53,1011201017632,登記記録の閉鎖等,0,2025-12-23,2025-12-12,株式会社ミグリオ,,株式会社,東京都,中野区,本町６丁目３－１,,13,114,1640012,,,2025-12-12,清算の結了等,,,2015-10-05,1,,,,,ミグリオ,0
60,1012801002461,登記記録の閉鎖等,0,2025-12-23,2025-12-22,株式会社日栄商会,,株式会社,東京都,昭島市,武蔵野３丁目３番４－９１０号,,13,207,1960021,,,2025-12-22,清算の結了等,,,2015-10-05,1,,,,,ニチエイショウカイ,0
64,1020001040892,登記記録の閉鎖等,0,2025-12-23,2025-12-15,株式会社サンショウジャパン,,株式会社,神奈川県,横浜市旭区,上白根３丁目２３番７号,,14,112,2410002,,,2025-12-15,清算の結了等,,,2015-10-05,1,,,,,サンショウジャパン,0
71,1020001127483,登記記録の閉鎖等,0,2025-12-23,2025-12-17,株式会社ポビコ,,株式会社,神奈川県,横浜市都筑区,勝田町６９１番地１,,14,118,2240034,,,2025-12-17,清算の結了等,,,2018-08-08,1,,,,,ポビコ,0
73,1020001153901,登記記録の閉鎖等,0,2025-12-23,2025-12-18,ＭＳプラス技研株式会社,,株式会社,神奈川県,横浜市西区,北幸２丁目１０番４８号むつみビル３Ｆ,,14,103,2200004,,,2025-12-18,清算の結了等,,,2023-10-12,1,,,,,エムエスプラスギケン,0
75,1020002058620,登記記録の閉鎖等,0,2025-12-23,2025-12-15,有限会社テクノヤマウチ,,有限会社,神奈川県,横浜市鶴見区,鶴見中央５丁目１１番２－９０２号リバーマンション,,14,101,2300051,,,2025-12-15,清算の結了等,,,2015-10-05,1,,,,,テクノヤマウチ,0
76,1020002080013,登記記録の閉鎖等,0,2025-12-23,2025-12-16,有限会社シンコーシステム,,有限会社,神奈川県,横浜市旭区,若葉台４丁目３０番７０２号,,14,112,2410801,,,2025-12-16,清算の結了等,,,2015-10-05,1,,,,,シンコーシステム,0
77,1020002096785,登記記録の閉鎖等,0,2025-12-23,2025-12-19,有限会社五ノ井設備,,有限会社,神奈川県,川崎市川崎区,川中島１丁目１３番１－２０１号,,14,131,2100803,,,2025-12-19,清算の結了等,,,2015-10-05,1,,,,,ゴノイセツビ,0
79,1020005002047,登記記録の閉鎖等,0,2025-12-23,2025-12-18,学校法人柏栄学園,,その他の設立登記法人,神奈川県,横浜市戸塚区,戸塚町３６８４番地,,14,110,2440003,,,2025-12-18,清算の結了等,,,2015-10-05,1,,,,,ハクエイガクエン,0
97,1040001096446,登記記録の閉鎖等,0,2025-12-23,2025-12-03,株式会社吉田,,株式会社,千葉県,千葉市花見川区,千種町１９４番地３,,12,102,2620012,,,2025-12-03,清算の結了等,,,2016-08-05,1,,,,,ヨシダ,0
104,1040002024488,登記記録の閉鎖等,0,2025-12-23,2025-11-28,有限会社長谷川建具店,,有限会社,千葉県,船橋市,三山８丁目３４番２号,,12,204,2740072,,,2025-11-28,清算の結了等,,,2015-10-05,1,,,,,,0
112,1070002024683,登記記録の閉鎖等,0,2025-12-23,2025-12-18,星野兄弟運送有限会社,,有限会社,群馬県,桐生市,広沢町６丁目５５１番地１,,10,203,3760013,,,2025-12-18,清算の結了等,,,2015-10-05,1,,,,,ホシノキョウダイウンソウ,0
116,1080401017361,登記記録の閉鎖等,0,2025-12-23,2025-12-15,株式会社ヴィレジオ,,株式会社,静岡県,袋井市,諸井１５１５番地,,22,216,4371121,,,2025-12-15,合併による解散等,8080401017421,令和７年１２月１５日静岡県袋井市諸井１５１５番地株式会社ムラコシ（8080401017421）に合併し解散,2015-10-05,1,,,,,ヴィレジオ,0
118,1100001013832,登記記録の閉鎖等,0,2025-12-23,2025-12-19,日成資材株式会社,,株式会社,長野県,松本市,大字島立５２６番地３,,20,202,3900852,,,2025-12-19,清算の結了等,,,2015-10-05,1,,,,,ニッセイシザイ,0
119,1100001016389,登記記録の閉鎖等,0,2025-12-23,2025-12-19,株式会社百瀬木材,,株式会社,長野県,松本市,大字笹賀１５８５番地１,,20,202,3990033,,,2025-12-19,清算の結了等,,,2015-10-05,1,,,,,モモセモクザイ,0
120,1100001029572,登記記録の閉鎖等,0,2025-12-23,2025-12-19,株式会社スカイゼット,,株式会社,長野県,長野市,大字大豆島１８７３番地１号,,20,201,3810022,,,2025-12-19,清算の結了等,,,2016-08-18,1,,,,,スカイゼット,0
186,1180003010382,登記記録の閉鎖等,0,2025-12-23,2025-12-17,合同会社テラ・コントロール・コーポレーション,,合同会社,愛知県,春日井市,中央通２丁目６１番地プリンスハイツ中央通２０１号,,23,206,4860825,,,2025-12-17,清算の結了等,,,2015-10-05,1,,,,,テラコントロールコーポレーション,0
201,1200001036113,登記記録の閉鎖等,0,2025-12-23,2025-12-22,株式会社ノガレス,,株式会社,岐阜県,大垣市,中川町４丁目１０８番地１,,21,202,5030017,,,2025-12-22,清算の結了等,,,2019-04-05,1,,,,,ノガレス,0
205,1220002006451,登記記録の閉鎖等,0,2025-12-23,2025-12-23,有限会社ワダ空調サービス,,有限会社,石川県,金沢市,高柳町５の２４番地１７,,17,201,9200005,,,2025-12-23,清算の結了等,,,2015-10-05,1,,,,,ワダクウチョウサービス,0
207,1240001043956,登記記録の閉鎖等,0,2025-12-23,2025-12-17,株式会社ＩＭ企画,,株式会社,広島県,廿日市市,宮島口西３丁目２番１３号,,34,213,7390412,,,2025-12-17,清算の結了等,,,2015-10-05,1,,,,,アイエムキカク,0
210,1260001006572,登記記録の閉鎖等,0,2025-12-23,2025-12-01,室賀ビル株式会社,,株式会社,岡山県,岡山市北区,桑田町１３番６号ロイヤルガーデンシティ桑田町１５０８号,,33,101,7000984,,,2025-12-01,合併による解散等,3260001006570,令和７年１２月１日岡山市北区大内田７６１番地の３室賀ネジ機工株式会社（3260001006570）に合併し解散,2015-10-05,1,,,,,ムロガビル,0
233,1340002011282,登記記録の閉鎖等,0,2025-12-23,2025-12-18,有限会社中村善保険事務所,,有限会社,鹿児島県,鹿児島市,皆与志町４１５０－１０,,46,201,8911206,,,2025-12-18,清算の結了等,,,2015-10-05,1,,,,,ナカムラゼンホケンジムショ,0
238,1370005004108,登記記録の閉鎖等,0,2025-12-23,2025-12-17,一般社団法人伊達家鳳文会,,その他の設立登記法人,宮城県,仙台市青葉区,大手町１０番２３号,,04,101,9800805,,,2025-12-17,清算の結了等,,,2015-10-05,1,,,,,ダテケホウブンカイ,0
241,1430001051469,登記記録の閉鎖等,0,2025-12-23,2025-12-11,株式会社つくし牧田,,株式会社,北海道,小樽市,花園５丁目７番２号,,01,203,0470024,,,2025-12-11,清算の結了等,,,2015-10-05,1,,,,,ツクシマキタ,0
243,1430002030918,登記記録の閉鎖等,0,2025-12-23,2025-12-16,有限会社工藤,,有限会社,北海道,札幌市厚別区,厚別西四条１丁目２番１５号,,01,108,0040064,,,2025-12-16,清算の結了等,,,2015-10-05,1,,,,,クドウ,0
246,1500001018799,登記記録の閉鎖等,0,2025-12-23,2025-12-22,株式会社ＲＡＵＬ,,株式会社,愛媛県,新居浜市,坂井町３丁目５番６０号,,38,205,7920812,,,2025-12-22,清算の結了等,,,2015-10-05,1,,,,,ラウル,0
267,2010101012949,登記記録の閉鎖等,0,2025-12-23,2025-12-22,フェーマス株式会社,,株式会社,東京都,八王子市,台町４丁目４４番１０号西八平沼ビル３０２,,13,201,1930931,,,2025-12-22,清算の結了等,,,2017-07-21,1,,,,,フェーマス,0
291,2011001128298,登記記録の閉鎖等,0,2025-12-23,2025-12-02,ＦＵＲＵ株式会社,,株式会社,東京都,目黒区,上目黒２丁目１番２号中目黒ゲートタウンハイツ４０２,,13,110,1530051,,,2025-12-02,清算の結了等,,,2019-06-04,1,,,,,フル,0
306,2011801044307,登記記録の閉鎖等,0,2025-12-23,2025-12-17,片山テクニカルセンター株式会社,,株式会社,東京都,葛飾区,東四つ木４丁目３０番１１号,,13,122,1240014,,,2025-12-17,清算の結了等,,,2024-06-03,1,,,,,カタヤマテクニカルセンター,0
324,2020003009340,登記記録の閉鎖等,0,2025-12-23,2025-12-19,素敵な賃貸合同会社,,合同会社,神奈川県,川崎市高津区,千年新町９番地７,,14,134,2130021,,,2025-12-19,清算の結了等,,,2015-10-05,1,,,,,ステキナチンタイ,0
332,2030001063363,登記記録の閉鎖等,0,2025-12-23,2025-12-16,株式会社ほんごう,,株式会社,埼玉県,さいたま市北区,本郷町１０９６番地,,11,102,3310802,,,2025-12-16,清算の結了等,,,2015-10-05,1,,,,,ホンゴウ,0
336,2030002000456,登記記録の閉鎖等,0,2025-12-23,2025-12-16,有限会社アイ,,有限会社,埼玉県,さいたま市中央区,本町東２丁目１１番１２号,,11,105,3380003,,,2025-12-16,清算の結了等,,,2015-10-05,1,,,,,アイ,0
337,2030002002015,登記記録の閉鎖等,0,2025-12-23,2025-12-16,有限会社エス・ティ,,有限会社,埼玉県,さいたま市桜区,西堀４丁目７番１号４２１,,11,106,3380832,,,2025-12-16,清算の結了等,,,2015-10-05,1,,,,,エスティ,0
347,2050001041318,登記記録の閉鎖等,0,2025-12-23,2025-12-15,株式会社ゴールド細谷塾,,株式会社,茨城県,土浦市,中村西根１８３８番地３,,08,203,3000849,,,2025-12-15,清算の結了等,,,2016-07-13,1,,,,,ゴールドホソヤジュク,0
356,2080402016519,登記記録の閉鎖等,0,2025-12-23,2025-12-12,有限会社福来軒,,有限会社,静岡県,浜松市天竜区,二俣町鹿島５３７番地の９,,22,140,4313313,,,2025-12-12,清算の結了等,,,2015-10-05,1,,,,,フクライケン,0
360,2100005001535,登記記録の閉鎖等,0,2025-12-23,2025-12-19,医療法人かわうら歯科医院,,その他の設立登記法人,長野県,長野市,大字南高田二丁目４番地１９,,20,201,3810000,,,2025-12-19,清算の結了等,,,2015-10-05,1,,,,,カワウラシカイイン,0
373,2120002080877,登記記録の閉鎖等,0,2025-12-23,2025-12-19,有限会社キタマツトランスポート,,有限会社,大阪府,門真市,深田町２１番１５号,,27,223,5710042,,,2025-12-19,清算の結了等,,,2015-10-05,1,,,,,キタマツトランスポート,0
408,2180003019588,登記記録の閉鎖等,0,2025-12-23,2025-12-15,合同会社リテールプロジェクト,,合同会社,愛知県,愛西市,山路町野方１４９番地１１０,,23,232,4960942,,,2025-12-15,清算の結了等,,,2019-01-11,1,,,,,,0
416,2180302005512,登記記録の閉鎖等,0,2025-12-23,2025-12-17,ＳＤＡ事務所株式会社,,株式会社,愛知県,名古屋市名東区,望が丘２８５番地,,23,115,4650046,,,2025-12-17,清算の結了等,,,2015-10-05,1,,,,,エスディーエージムショ,0
417,2180305009634,登記記録の閉鎖等,0,2025-12-23,2025-12-15,ジェイブ協同組合,,その他の設立登記法人,愛知県,額田郡幸田町,大字芦谷字南屋敷２７番地１,,23,501,4440116,,,2025-12-15,清算の結了等,,,2024-12-17,1,,,,,ジェイブ,0
419,2200001008284,登記記録の閉鎖等,0,2025-12-23,2025-12-16,株式会社アバンス企画,,株式会社,岐阜県,岐阜市,宇佐南４丁目６番７号東海ジュークビル２Ｆ,,21,201,5008367,,,2025-12-16,清算の結了等,,,2015-10-05,1,,,,,アバンスキカク,0
428,2230002008173,登記記録の閉鎖等,0,2025-12-23,2025-12-19,有限会社ホンダ販売大川産業,,有限会社,富山県,黒部市,牧野６８２番地の５,,16,207,9380035,,,2025-12-19,清算の結了等,,,2015-10-05,1,,,,,ホンダハンバイオオカワサンギョウ,0
436,2280005005015,登記記録の閉鎖等,0,2025-12-23,2025-12-18,農事組合法人馬野原下,,その他の設立登記法人,島根県,邑智郡邑南町,鱒渕１４１９番地,,32,449,6960221,,,2025-12-18,清算の結了等,,,2015-10-05,1,,,,,マノハラシモ,0
443,2300002005485,登記記録の閉鎖等,0,2025-12-23,2025-12-22,有限会社アラキ,,有限会社,佐賀県,佐賀市,諸富町大字山領７７３番地８,,41,201,8402106,,,2025-12-22,清算の結了等,,,2015-10-05,1,,,,,アラキ,0
445,2320002017017,登記記録の閉鎖等,0,2025-12-23,2025-12-18,有限会社東九,,有限会社,大分県,佐伯市,蒲江大字畑野浦１６２８番地２,,44,205,8762201,,,2025-12-18,清算の結了等,,,2015-10-05,1,,,,,トウキュウ,0
453,2350002007469,登記記録の閉鎖等,0,2025-12-23,2025-12-17,有限会社佐土原コンタクトレンズ,,有限会社,宮崎県,宮崎市,佐土原町下那珂３３５５番地３,,45,201,8800212,,,2025-12-17,清算の結了等,,,2015-10-05,1,,,,,サドワラコンタクトレンズ,0
454,2350002016131,登記記録の閉鎖等,0,2025-12-23,2025-12-01,有限会社丸岡総合管理,,有限会社,宮崎県,都城市,志比田町７３１４番地,,45,202,8850093,,,2025-12-01,合併による解散等,4350001019372,令和７年１２月１日宮崎県都城市志比田町７３１４番地株式会社まるおかホールディングス（4350001019372）に合併し解散,2015-10-05,1,,,,,マルオカソウゴウカンリ,0
456,2400002006622,登記記録の閉鎖等,0,2025-12-23,2025-12-15,有限会社横重建築,,有限会社,岩手県,岩手郡雫石町,上野野中２４番地,,03,301,0200583,,,2025-12-15,清算の結了等,,,2015-10-05,1,,,,,ヨコシゲケンチク,0
460,2450002012038,登記記録の閉鎖等,0,2025-12-23,2025-12-18,有限会社陽鳥園杉本,,有限会社,北海道,留萌市,錦町２丁目１番５号,,01,212,0770044,,,2025-12-18,清算の結了等,,,2015-10-05,1,,,,,ヨウチョウエンスギモト,0
466,3010001002941,登記記録の閉鎖等,0,2025-12-23,2025-12-09,株式会社彩信社,,株式会社,東京都,文京区,本郷１丁目３５番３０号,,13,105,1130033,,,2025-12-09,清算の結了等,,,2015-10-05,1,,,,,サイシンシャ,0
471,3010002023482,登記記録の閉鎖等,0,2025-12-23,2025-12-15,有限会社日鶏,,有限会社,東京都,中野区,本町４丁目４４番１３号西京城西ビル６４号室,,13,114,1640012,,,2025-12-15,清算の結了等,,,2015-10-05,1,,,,,ニッケイ,0
507,3011401016498,登記記録の閉鎖等,0,2025-12-23,2025-12-18,株式会社ＫＹマネジメント,,株式会社,東京都,板橋区,双葉町７番１４号,,13,119,1730011,,,2025-12-18,清算の結了等,,,2015-10-05,1,,,,,,0
508,3011405001694,登記記録の閉鎖等,0,2025-12-23,2025-12-19,一般社団法人人的資源開発機構,,その他の設立登記法人,東京都,板橋区,小茂根４丁目１番８－１０２号,,13,119,1730037,,,2025-12-19,清算の結了等,,,2015-10-05,1,,,,,,0
519,3012802002830,登記記録の閉鎖等,0,2025-12-23,2025-12-17,有限会社オーク企画,,有限会社,東京都,あきる野市,引田４４２番地,,13,228,1970834,,,2025-12-17,清算の結了等,,,2015-10-05,1,,,,,オークキカク,0
521,3013201003098,登記記録の閉鎖等,0,2025-12-23,2025-12-01,精工印刷株式会社,,株式会社,東京都,目黒区,駒場１丁目１０番８号,,13,110,1530041,,,2025-12-01,清算の結了等,,,2015-10-05,1,,,,,セイコウインサツ,0
532,3020002085852,登記記録の閉鎖等,0,2025-12-23,2025-12-22,有限会社伊藤道代建築設計事務所,,有限会社,東京都,世田谷区,北沢４丁目４番２３号ｓｐｌｉｔ１０１,,13,112,1550031,,,2025-12-22,清算の結了等,,,2015-10-05,1,,,,,イトウミチヨケンチクセッケイジムショ,0
542,3021003008703,登記記録の閉鎖等,0,2025-12-23,2025-12-03,ｈａｎａｃｈｉ合名会社,,合名会社,神奈川県,足柄下郡湯河原町,鍛冶屋４８３番地,,14,384,2590313,,,2025-12-03,清算の結了等,,,2019-09-30,1,,,,,ハナチ,0
548,3030001052035,登記記録の閉鎖等,0,2025-12-23,2025-12-16,株式会社ツバサ建機,,株式会社,埼玉県,北葛飾郡杉戸町,清地６丁目２２番７号,,11,464,3450025,,,2025-12-16,清算の結了等,,,2015-10-05,1,,,,,ツバサケンキ,0
557,3040001012566,登記記録の閉鎖等,0,2025-12-23,2025-12-03,株式会社白井材木店,,株式会社,千葉県,千葉市若葉区,高根町１１０３番地２,,12,104,2650061,,,2025-12-03,清算の結了等,,,2015-10-05,1,,,,,シライザイモクテン,0
570,3060001032991,登記記録の閉鎖等,0,2025-12-23,2025-12-18,株式会社すどう,,株式会社,栃木県,塩谷郡高根沢町,大字平田１９７８番地,,09,386,3291206,,,2025-12-18,合併による解散等,4030002037991,令和７年１２月１０日埼玉県久喜市本町六丁目１４番２３号株式会社久喜葬祭社（4030002037991）に合併し解散,2020-09-25,1,,,,,スドウ,0
571,3070001011796,登記記録の閉鎖等,0,2025-12-23,2025-12-18,ゼネラル・ウイングモーター株式会社,,株式会社,群馬県,富岡市,内匠２７１番地１,,10,210,3702331,,,2025-12-18,清算の結了等,,,2015-10-05,1,,,,,ゼネラルウイングモーター,0
581,3080402019520,登記記録の閉鎖等,0,2025-12-23,2025-12-16,有限会社北島製作所,,有限会社,静岡県,磐田市,北島７１番地の３,,22,211,4380064,,,2025-12-16,清算の結了等,,,2015-10-05,1,,,,,キタジマセイサクショ,0
585,3120001089299,登記記録の閉鎖等,0,2025-12-23,2025-12-19,株式会社細木商店,,株式会社,大阪府,大阪市中央区,南船場２丁目８番１３号,,27,128,5420081,,,2025-12-19,清算の結了等,,,2015-10-05,1,,,,,ホソキショウテン,0
599,3140001049739,登記記録の閉鎖等,0,2025-12-23,2025-12-19,大丸運輸株式会社,,株式会社,兵庫県,尼崎市,金楽寺町２丁目１５番９号,,28,202,6600806,,,2025-12-19,清算の結了等,,,2015-10-05,1,,,,,ダイマルウンユ,0
606,3140003022215,登記記録の閉鎖等,0,2025-12-23,2025-12-18,竹風合同会社,,合同会社,兵庫県,加古郡播磨町,古田１丁目１０番１６号,,28,382,6750146,,,2025-12-18,清算の結了等,,,2025-06-18,1,,,,,タケカゼ,0
611,3160003002743,登記記録の閉鎖等,0,2025-12-23,2025-12-18,ｐｌｕｓＹ合同会社,,合同会社,滋賀県,大津市,三井寺町６番１３号シャーメゾンヴェロ３０１,,25,201,5200034,,,2025-12-18,清算の結了等,,,2022-11-18,1,,,,,プラスワイ,0
621,3180001161226,登記記録の閉鎖等,0,2025-12-23,2025-12-16,株式会社ＥＮ‐ＫＵＲＡＳＨＩＥＲＵ,,株式会社,愛知県,名古屋市西区,菊井２丁目５番６号（サンクレイドル名古屋９０１号）,,23,104,4510044,,,2025-12-16,清算の結了等,,,2024-05-09,1,,,,,,0
631,3200002013019,登記記録の閉鎖等,0,2025-12-23,2025-12-17,有限会社野田喜,,有限会社,岐阜県,大垣市,東外側町２丁目４３番地,,21,202,5030903,,,2025-12-17,清算の結了等,,,2015-10-05,1,,,,,ノダキ,0
632,3220001006938,登記記録の閉鎖等,0,2025-12-23,2025-12-22,宮田システム株式会社,,株式会社,石川県,金沢市,上荒屋４丁目２０１番地,,17,201,9218065,,,2025-12-22,清算の結了等,,,2015-10-05,1,,,,,ミヤタシステム,0
633,3220001023719,登記記録の閉鎖等,0,2025-12-23,2025-12-18,株式会社ＫＩＮＯＴＯ,,株式会社,石川県,金沢市,森山１丁目２０番１３号,,17,201,9200843,,,2025-12-18,清算の結了等,,,2020-09-07,1,,,,,キノト,0
635,3220003002233,登記記録の閉鎖等,0,2025-12-23,2025-12-19,合同会社ハッピースマイル,,合同会社,石川県,金沢市,十間町６１番地ライオンズマンション・５０２号,,17,201,9200906,,,2025-12-19,清算の結了等,,,2017-01-13,1,,,,,ハッピースマイル,0
638,3250001007891,登記記録の閉鎖等,0,2025-12-23,2025-12-17,株式会社エス・エム・エイ,,株式会社,山口県,下関市,勝谷新町１丁目８番６号,,35,201,7510802,,,2025-12-17,清算の結了等,,,2015-10-05,1,,,,,エスエムエイ,0
642,3280002004803,登記記録の閉鎖等,0,2025-12-23,2025-12-19,有限会社永賞石材,,有限会社,島根県,安来市,安来町７６３番地１６,,32,206,6920011,,,2025-12-19,清算の結了等,,,2015-10-05,1,,,,,ナガショウセキザイ,0
650,3330001011984,登記記録の閉鎖等,0,2025-12-23,2025-12-16,新輝設備工業株式会社,,株式会社,熊本県,玉名郡長洲町,大字長洲２４８２番地３,,43,368,8690123,,,2025-12-16,清算の結了等,,,2015-10-05,1,,,,,シンキセツビコウギョウ,0
653,3340001020588,登記記録の閉鎖等,0,2025-12-23,2025-12-16,株式会社ＧＲＥＥＮ　ＷＯＲＫＳ,,株式会社,鹿児島県,肝属郡東串良町,池之原２４００番地４４,,46,482,8931612,,,2025-12-16,清算の結了等,,,2017-09-07,1,,,,,グリーンワークス,0
654,3340002026568,登記記録の閉鎖等,0,2025-12-23,2025-12-15,有限会社ミサカガス,,有限会社,鹿児島県,垂水市,南松原町８７番地３,,46,214,8912126,,,2025-12-15,清算の結了等,,,2015-10-05,1,,,,,ミサカガス,0
658,3360002019074,登記記録の閉鎖等,0,2025-12-23,2025-12-18,有限会社体感人材バンク,,有限会社,沖縄県,中頭郡読谷村,字高志保２５６番地３,,47,324,9040323,,,2025-12-18,清算の結了等,,,2015-10-05,1,,,,,タイカンジンザイバンク,0
664,3380001014958,登記記録の閉鎖等,0,2025-12-23,2025-12-12,株式会社トーナ・リーノコンタクト,,株式会社,福島県,いわき市,自由ケ丘３７番地の４,,07,204,9708033,,,2025-12-12,清算の結了等,,,2015-10-05,1,,,,,トーナリーノコンタクト,0
669,3410002012701,登記記録の閉鎖等,0,2025-12-23,2025-12-18,日拓商事有限会社,,有限会社,秋田県,仙北市,田沢湖生保内字男坂９７番地２１,,05,215,0141201,,,2025-12-18,清算の結了等,,,2015-10-05,1,,,,,ニッタクショウジ,0
672,3430001066176,登記記録の閉鎖等,0,2025-12-23,2025-12-18,ＨＫ設備株式会社,,株式会社,北海道,札幌市北区,新琴似町５４６番地３０,,01,102,0010915,,,2025-12-18,清算の結了等,,,2015-10-05,1,,,,,エイチケイセツビ,0
676,3450001014769,登記記録の閉鎖等,0,2025-12-23,2025-12-18,株式会社角谷呉服店,,株式会社,北海道,天塩郡幌延町,三条南１丁目１番地,,01,520,0983213,,,2025-12-18,清算の結了等,,,2025-11-10,1,,,,,カドヤゴフクテン,0
701,4010801014598,登記記録の閉鎖等,0,2025-12-23,2025-12-12,株式会社ＣＳーＴＮＫ,,株式会社,東京都,大田区,中央６丁目３番２４号,,13,111,1430024,,,2025-12-12,清算の結了等,,,2015-10-05,1,,,,,シーエス,0
703,4010901012089,登記記録の閉鎖等,0,2025-12-23,2025-12-19,株式会社モーヴ,,株式会社,東京都,世田谷区,若林４丁目１７番６号,,13,112,1540023,,,2025-12-19,清算の結了等,,,2015-10-05,1,,,,,モーヴ,0
707,4010902005463,登記記録の閉鎖等,0,2025-12-23,2025-12-19,有限会社ケイ・メディカルサービス,,有限会社,東京都,世田谷区,北沢１丁目４７番２０号,,13,112,1550031,,,2025-12-19,清算の結了等,,,2015-10-05,1,,,,,ケイメディカルサービス,0
714,4011001156405,登記記録の閉鎖等,0,2025-12-23,2025-12-01,ＭＤＳＲコンサルティング株式会社,,株式会社,東京都,渋谷区,恵比寿西１丁目３３番６号,,13,113,1500021,,,2025-12-01,清算の結了等,,,2023-08-17,1,,,,,エムディーエスアール,0
731,4011501005730,登記記録の閉鎖等,0,2025-12-23,2025-12-16,株式会社ヱビスヤ,,株式会社,東京都,荒川区,荒川４丁目２３番１７号,,13,118,1160002,,,2025-12-16,清算の結了等,,,2015-10-05,1,,,,,エビスヤ,0
734,4011602023607,登記記録の閉鎖等,0,2025-12-23,2025-12-12,有限会社エム・エイ・シー設計,,有限会社,埼玉県,所沢市,上新井５丁目１２－１パークハイツＤ棟１０６号室,,11,208,3591142,,,2025-12-12,清算の結了等,,,2015-10-05,1,,,,,エムエイシーセッケイ,0
740,4012401015274,登記記録の閉鎖等,0,2025-12-23,2025-12-12,株式会社三慧企画,,株式会社,東京都,国立市,谷保５７８番地の３,,13,215,1860011,,,2025-12-12,清算の結了等,,,2015-10-05,1,,,,,サンケイキカク,0
743,4020001002980,登記記録の閉鎖等,0,2025-12-23,2025-12-19,株式会社新成光工業,,株式会社,神奈川県,横浜市磯子区,森４丁目５番１５号,,14,107,2350023,,,2025-12-19,清算の結了等,,,2015-10-05,1,,,,,,0
751,4020005007729,登記記録の閉鎖等,0,2025-12-23,2025-12-16,医療法人社団高橋眼科医院,,その他の設立登記法人,神奈川県,川崎市中原区,下小田中１丁目２８番１７号ハイツ草苑２階,,14,133,2110041,,,2025-12-16,清算の結了等,,,2015-10-05,1,,,,,タカハシガンカイイン,0
758,4021002071692,登記記録の閉鎖等,0,2025-12-23,2025-12-03,有限会社橋場商店,,有限会社,神奈川県,三浦市,南下浦町金田１００３番地の６,,14,210,2380103,,,2025-12-03,清算の結了等,,,2015-10-05,1,,,,,ハシバショウテン,0
773,4040002051793,登記記録の閉鎖等,0,2025-12-23,2025-12-03,有限会社ソフト情報,,有限会社,千葉県,流山市,美田２０９番地の８０,,12,220,2700131,,,2025-12-03,清算の結了等,,,2015-10-05,1,,,,,ソフトジョウホウ,0
775,4040002073895,登記記録の閉鎖等,0,2025-12-23,2025-12-04,有限会社瀬戸口建設,00020685,有限会社,千葉県,市原市,西広４丁目４番地１８,,12,219,2900022,,,2025-12-04,清算の結了等,,,2015-10-05,1,,,,,セトグチケンセツ,0
776,4040002088489,登記記録の閉鎖等,0,2025-12-23,2025-12-03,有限会社ＳＹ,,有限会社,千葉県,香取市,三島２９２番地１,,12,236,2870812,,,2025-12-03,清算の結了等,,,2015-10-05,1,,,,,エスワイ,0
778,4050002035606,登記記録の閉鎖等,0,2025-12-23,2025-12-17,有限会社黒羽石材店,,有限会社,茨城県,常陸大宮市,中富町１０６６番地,,08,225,3192265,,,2025-12-17,清算の結了等,,,2015-10-05,1,,,,,クロハセキザイテン,0
781,4070002026017,登記記録の閉鎖等,0,2025-12-23,2025-12-15,有限会社小畑写眞場,,有限会社,群馬県,渋川市,渋川８７５番地,,10,208,3770008,,,2025-12-15,清算の結了等,,,2015-10-05,1,,,,,オバタシャシンジョウ,0
791,4100005012448,登記記録の閉鎖等,0,2025-12-23,2025-12-15,一般社団法人ＬｉｎｋＷｏｒｋ,,その他の設立登記法人,長野県,諏訪郡富士見町,富士見字長尾根１４３８番地１,,20,362,3990211,,,2025-12-15,清算の結了等,,,2019-08-22,1,,,,,リンクワーク,0
796,4120001110427,登記記録の閉鎖等,0,2025-12-23,2025-12-18,エイアンドエイフィールズ株式会社,,株式会社,大阪府,大阪市中央区,南船場３丁目３番２３号,,27,128,5420081,,,2025-12-18,清算の結了等,,,2015-10-05,1,,,,,エイアンドエイフィールズ,0
799,4120001128832,登記記録の閉鎖等,0,2025-12-23,2025-12-19,高槻物産株式会社,,株式会社,大阪府,大阪市中央区,谷町２丁目４番３号６階小西一郎会計事務所内,,27,128,5400012,,,2025-12-19,清算の結了等,,,2015-10-05,1,,,,,タカツキブッサン,0
809,4120001271995,登記記録の閉鎖等,0,2025-12-23,2025-12-19,玉佳株式会社,,株式会社,大阪府,大阪市生野区,巽北１丁目１番１号２Ｆ－Ｈ,00137711,27,116,5440004,,,2025-12-19,清算の結了等,,,2025-01-21,1,,,,,タマヨシ,0
812,4120003021952,登記記録の閉鎖等,0,2025-12-23,2025-12-19,合同会社モテル,,合同会社,大阪府,大阪市此花区,島屋６丁目２番８９号アリスビルディング１８Ｆ２号,,27,104,5540024,,,2025-12-19,清算の結了等,,,2022-06-24,1,,,,,モテル,0
817,4120102013702,登記記録の閉鎖等,0,2025-12-23,2025-12-16,有限会社ＸＹＧ,,有限会社,大阪府,堺市東区,北野田１０８４番地１１０３号,,27,143,5998123,,,2025-12-16,清算の結了等,,,2015-10-05,1,,,,,エクスワイジー,0
819,4122001001820,登記記録の閉鎖等,0,2025-12-23,2025-12-15,株式会社きぬや呉服店,,株式会社,大阪府,東大阪市,花園本町１丁目１番８号４階,,27,227,5780937,,,2025-12-15,清算の結了等,,,2015-10-05,1,,,,,キヌヤゴフクテン,0
820,4122001027337,登記記録の閉鎖等,0,2025-12-23,2025-12-15,株式会社ユーデザイン,,株式会社,大阪府,東大阪市,俊徳町５丁目１１番２７号,,27,227,5770831,,,2025-12-15,清算の結了等,,,2015-10-05,1,,,,,ユーデザイン,0
822,4130001034294,登記記録の閉鎖等,0,2025-12-23,2025-12-22,株式会社ＯＮＥ’Ｓ　ＦＲＥＥ,,株式会社,京都府,宇治市,安田町大納言３０－３,,26,204,6110045,,,2025-12-22,清算の結了等,,,2015-10-05,1,,,,,,0
836,4180001026898,登記記録の閉鎖等,0,2025-12-23,2025-12-10,株式会社文恒社,,株式会社,愛知県,名古屋市中区,丸の内３丁目１４番１４号,,23,106,4600002,,,2025-12-10,清算の結了等,,,2015-10-05,1,,,,,,0
843,4180001107608,登記記録の閉鎖等,0,2025-12-23,2025-12-15,株式会社エスケイサービス,,株式会社,愛知県,日進市,浅田町上納１番地２０,,23,230,4700124,,,2025-12-15,清算の結了等,,,2015-10-05,1,,,,,,0
860,4200002007168,登記記録の閉鎖等,0,2025-12-23,2025-12-17,有限会社カネソウ,,有限会社,岐阜県,各務原市,上戸町５丁目９５番地,,21,213,5040927,,,2025-12-17,清算の結了等,,,2015-10-05,1,,,,,カネソウ,0
874,4250005004323,登記記録の閉鎖等,0,2025-12-23,2025-12-18,学校法人松陰学園,,その他の設立登記法人,山口県,萩市,大字椿東字北谷２１９０番地８,,35,204,7580011,,,2025-12-18,清算の結了等,,,2015-10-05,1,,,,,ショウインガクエン,0
877,4270002010768,登記記録の閉鎖等,0,2025-12-23,2025-12-19,有限会社三朝温泉理療師会,,有限会社,鳥取県,東伯郡三朝町,大字三朝７９４番地１,,31,364,6820123,,,2025-12-19,清算の結了等,,,2015-10-05,1,,,,,ミササオンセンリリョウシカイ,0
878,4280005002687,登記記録の閉鎖等,0,2025-12-23,2025-12-19,医療法人佐藤産婦人科医院,,その他の設立登記法人,島根県,出雲市,塩冶町１２９１番地１８,,32,203,6930021,,,2025-12-19,清算の結了等,,,2015-10-05,1,,,,,サトウサンフジンカイイン,0
885,4290002040499,登記記録の閉鎖等,0,2025-12-23,2025-12-15,有限会社天野米穀販売店,,有限会社,福岡県,春日市,光町２丁目２０７番地,,40,218,8160806,,,2025-12-15,清算の結了等,,,2015-10-05,1,,,,,,0
887,4290003006053,登記記録の閉鎖等,0,2025-12-23,2025-12-08,合同会社オオヤ,,合同会社,福岡県,福岡市早良区,西新２丁目１番３９－３０１号,,40,137,8140002,,,2025-12-08,清算の結了等,,,2015-10-05,1,,,,,オオヤ,0
895,4290802000165,登記記録の閉鎖等,0,2025-12-23,2025-12-05,有限会社阿部工業,,有限会社,福岡県,北九州市戸畑区,境川２丁目９番１３号,,40,105,8040013,,,2025-12-05,清算の結了等,,,2015-10-05,1,,,,,アベコウギョウ,0
896,4290802004604,登記記録の閉鎖等,0,2025-12-23,2025-12-19,有限会社中井コープ,,有限会社,福岡県,北九州市小倉北区,高峰町１２番１８号,,40,106,8030826,,,2025-12-19,清算の結了等,,,2015-10-05,1,,,,,ナカイコープ,0
900,4330002001785,登記記録の閉鎖等,0,2025-12-23,2025-12-17,有限会社小笠原写真場,,有限会社,熊本県,熊本市東区,若葉１丁目２番２号,,43,102,8620903,,,2025-12-17,清算の結了等,,,2015-10-05,1,,,,,オガサワラシャシンジョウ,0
902,4330002027772,登記記録の閉鎖等,0,2025-12-23,2025-12-15,有限会社三友設備,,有限会社,熊本県,水俣市,浜松町５番１３号,,43,205,8670068,,,2025-12-15,清算の結了等,,,2015-10-05,1,,,,,サンユウセツビ,0
904,4340003003169,登記記録の閉鎖等,0,2025-12-23,2025-12-11,竹中地区生産加工合同会社,,合同会社,鹿児島県,姶良郡湧水町,川添１０３２番地６,,46,452,8996103,,,2025-12-11,清算の結了等,,,2020-08-17,1,,,,,タケナカチクセイサンカコウ,0
906,4350002015263,登記記録の閉鎖等,0,2025-12-23,2025-12-01,株式会社ぎょうざの丸岡,,株式会社,宮崎県,都城市,志比田町７３１４番地,,45,202,8850093,,,2025-12-01,合併による解散等,4350001019372,令和７年１２月１日宮崎県都城市志比田町７３１４番地株式会社まるおかホールディングス（4350001019372）に合併し解散,2015-10-05,1,,,,,ギョウザノマルオカ,0
911,4370302000624,登記記録の閉鎖等,0,2025-12-23,2025-12-18,有限会社カネ正自動車工業,,有限会社,宮城県,石巻市,渡波字下榎壇１０５番地,,04,202,9862135,,,2025-12-18,清算の結了等,,,2015-10-05,1,,,,,カネショウジドウシャコウギョウ,0
917,4402702000431,登記記録の閉鎖等,0,2025-12-23,2025-12-15,有限会社山口土木,,有限会社,岩手県,大船渡市,大船渡町字明神前２２番地１,,03,203,0220002,,,2025-12-15,清算の結了等,,,2015-10-05,1,,,,,ヤマグチドボク,0
918,4410001002165,登記記録の閉鎖等,0,2025-12-23,2025-12-19,株式会社東日本ツーリスト,,株式会社,秋田県,秋田市,将軍野南４丁目３番３８号,,05,201,0110936,,,2025-12-19,清算の結了等,,,2015-10-05,1,,,,,ヒガシニホンツーリスト,0
928,4430002049410,登記記録の閉鎖等,0,2025-12-23,2025-12-17,有限会社竹山興業,,有限会社,北海道,岩見沢市,毛陽町２６番地,,01,210,0683188,,,2025-12-17,清算の結了等,,,2015-10-05,1,,,,,タケヤマコウギョウ,0
940,5010003036044,登記記録の閉鎖等,0,2025-12-23,2025-12-09,合同会社Ｈｉｇｈ　Ｎ　Ｏｎ,,合同会社,東京都,中央区,勝どき６丁目３番１－１８０３号,,13,102,1040054,,,2025-12-09,清算の結了等,,,2021-10-18,1,,,,,ハイアンドオン,0
949,5010401120606,登記記録の閉鎖等,0,2025-12-23,2025-12-04,エターナル・ホールディング株式会社,,株式会社,東京都,港区,西新橋３丁目１５番１３号西新橋ＡＩビル４階,,13,103,1050003,,,2025-12-04,清算の結了等,,,2015-10-05,1,,,,,エターナルホールディング,0
972,5010901029859,登記記録の閉鎖等,0,2025-12-23,2025-12-19,株式会社ヒストリー・ジャパン,,株式会社,東京都,世田谷区,三宿２丁目１番１０号,,13,112,1540005,,,2025-12-19,清算の結了等,,,2015-10-05,1,,,,,ヒストリージャパン,0
977,5011001118156,登記記録の閉鎖等,0,2025-12-23,2025-12-09,ハペ・ジャパン株式会社,,株式会社,東京都,中央区,日本橋３丁目９番１号日本橋三丁目スクエア１１階,,13,102,1030027,,,2025-12-09,清算の結了等,,,2017-09-06,1,,,,,ハペジャパン,0
978,5011001162245,登記記録の閉鎖等,0,2025-12-23,2025-12-10,株式会社Ｓｐｏｔｌｉｇｈｔ,,株式会社,東京都,渋谷区,渋谷２丁目１９－１５宮益坂ビルディング６０９,,13,113,1500002,,,2025-12-10,清算の結了等,,,2024-05-31,1,,,,,スポットライト,0
1001,5020002016855,登記記録の閉鎖等,0,2025-12-23,2025-12-18,有限会社千山,,有限会社,神奈川県,横浜市都筑区,牛久保１丁目２２番９０号,,14,118,2240012,,,2025-12-18,清算の結了等,,,2015-10-05,1,,,,,センザン,0
1021,5050001037024,登記記録の閉鎖等,0,2025-12-23,2025-12-15,株式会社テクノランナーズ,,株式会社,茨城県,古河市,宮前町１６番１６号,,08,204,3060031,,,2025-12-15,清算の結了等,,,2015-10-05,1,,,,,テクノランナーズ,0
1027,5060002039596,登記記録の閉鎖等,0,2025-12-23,2025-12-18,有限会社屋根福,,有限会社,栃木県,佐野市,堀米町１０５２番地の５,,09,204,3270843,,,2025-12-18,清算の結了等,,,2015-10-05,1,,,,,ヤネフク,0
1028,5060005006230,登記記録の閉鎖等,0,2025-12-23,2025-12-19,両毛ファッション協同組合,,その他の設立登記法人,栃木県,足利市,田中町３２番地１１,,09,202,3260822,,,2025-12-19,清算の結了等,,,2015-10-05,1,,,,,リョウモウファッション,0
1034,5080402000461,登記記録の閉鎖等,0,2025-12-23,2025-12-12,有限会社アトムリフォームセンター,,有限会社,静岡県,浜松市浜名区,細江町気賀４１番地の７,,22,139,4311305,,,2025-12-12,清算の結了等,,,2015-10-05,1,,,,,アトムリフォームセンター,0
1041,5120001039442,登記記録の閉鎖等,0,2025-12-23,2025-12-19,日京産業株式会社,,株式会社,大阪府,大阪市浪速区,大国１丁目２番２１号,,27,111,5560014,,,2025-12-19,清算の結了等,,,2015-10-05,1,,,,,ニッキョウサンギョウ,0
1044,5120001201638,登記記録の閉鎖等,0,2025-12-23,2025-12-19,株式会社Ｊ・Ｔ・Ｃ,,株式会社,大阪府,大阪市北区,天神橋３丁目２番１５号サクシード南森町,,27,127,5300041,,,2025-12-19,合併による解散等,9010001095591,令和７年１２月１日東京都港区新橋三丁目６番１３号クリアーゲート新橋第二ビル株式会社Ｊ・Ｔ・Ｃ（9010001095591）に合併し解散,2016-10-31,1,,,,,ジェイティシィ,0
1046,5120001261954,登記記録の閉鎖等,0,2025-12-23,2025-12-04,新創興株式会社,,株式会社,大阪府,大阪市城東区,野江３丁目２７－７野江１番館３０３号室,,27,118,5360006,,,2025-12-04,清算の結了等,,,2024-02-06,1,,,,,シンソウキョウ,0
1061,5140003019416,登記記録の閉鎖等,0,2025-12-23,2025-12-19,合同会社ＥＭＢ,,合同会社,兵庫県,神戸市長田区,若松町１丁目４－８カニビル３Ｆ,,28,106,6530038,,,2025-12-19,清算の結了等,,,2023-08-10,1,,,,,イーエムビー,0
1067,5180001110775,登記記録の閉鎖等,0,2025-12-23,2025-12-19,ダイアモンドメディア株式会社,,株式会社,石川県,金沢市,専光寺町ハ７９番地３,,17,201,9200356,,,2025-12-19,清算の結了等,,,2015-10-05,1,,,,,ダイアモンドメディア,0
1094,5240005015444,登記記録の閉鎖等,0,2025-12-23,2025-12-18,特定非営利活動法人おかしの家,,その他の設立登記法人,香川県,坂出市,加茂町１０４２－２,,37,203,7620023,,,2025-12-18,清算の結了等,,,2022-09-01,1,,,,,オカシノイエ,0
1096,5260002012558,登記記録の閉鎖等,0,2025-12-23,2025-12-01,有限会社ソレイユ,,有限会社,岡山県,岡山市北区,桑田町１３番６号ロイヤルガーデンシティ桑田町１５０８号,,33,101,7000984,,,2025-12-01,合併による解散等,3260001006570,令和７年１２月１日岡山市北区大内田７６１番地の３室賀ネジ機工株式会社（3260001006570）に合併し解散,2015-10-05,1,,,,,ソレイユ,0
1105,5290805004179,登記記録の閉鎖等,0,2025-12-23,2025-12-18,医療法人佐藤由美子婦人科クリニック,,その他の設立登記法人,福岡県,北九州市八幡西区,黒崎３丁目４番５号,,40,109,8060021,,,2025-12-18,清算の結了等,,,2015-10-05,1,,,,,サトウユミコフジンカクリニック,0
1107,5320001010548,登記記録の閉鎖等,0,2025-12-23,2025-12-16,株式会社寛屋陸運,,株式会社,大分県,玖珠郡玖珠町,大字戸畑６４４番地,,44,462,8794331,,,2025-12-16,合併による解散等,6320002020017,令和７年１２月１６日大分県玖珠郡玖珠町大字山田２７３０番地の１株式会社魚返産業運輸（6320002020017）に合併し解散,2015-10-05,1,,,,,ヒロヤリクウン,0
1111,5330001020125,登記記録の閉鎖等,0,2025-12-23,2025-12-17,株式会社ファイン・ワーク,,株式会社,熊本県,下益城郡美里町,堅志田２７番地１,,43,348,8614402,,,2025-12-17,清算の結了等,,,2015-10-05,1,,,,,ファインワーク,0
1114,5330003004984,登記記録の閉鎖等,0,2025-12-23,2025-12-12,合同会社すずらん,,合同会社,熊本県,合志市,幾久富１７５８番地９９,,43,216,8611112,,,2025-12-12,清算の結了等,,,2015-10-05,1,,,,,スズラン,0
1120,5350002015642,登記記録の閉鎖等,0,2025-12-23,2025-12-01,有限会社マルオカ,,有限会社,宮崎県,都城市,志比田町７３１４番地,,45,202,8850093,,,2025-12-01,合併による解散等,4350001019372,令和７年１２月１日宮崎県都城市志比田町７３１４番地株式会社まるおかホールディングス（4350001019372）に合併し解散,2015-10-05,1,,,,,マルオカ,0
1135,5380002017909,登記記録の閉鎖等,0,2025-12-23,2025-12-10,有限会社商栄,,有限会社,福島県,白河市,関辺上野原２７番地,,07,205,9610021,,,2025-12-10,清算の結了等,,,2015-10-05,1,,,,,ショウエイ,0
1137,5390001004477,登記記録の閉鎖等,0,2025-12-23,2025-12-19,天童西部ガス株式会社,,株式会社,山形県,天童市,小関１丁目６番６号ホワイトコーポ２０２号室,,06,210,9940004,,,2025-12-19,清算の結了等,,,2015-10-05,1,,,,,テンドウセイブガス,0
1138,5390001009625,登記記録の閉鎖等,0,2025-12-23,2025-12-08,株式会社鶴亀,,株式会社,山形県,東根市,温泉町３丁目８番５０号,,06,211,9993702,,,2025-12-08,清算の結了等,,,2015-10-05,1,,,,,ツルカメ,0
1154,5470005006569,登記記録の閉鎖等,0,2025-12-23,2025-12-17,オアシス社会保険労務士法人,,その他の設立登記法人,香川県,丸亀市,飯野町東分１２８０番地１,,37,202,7630085,,,2025-12-17,清算の結了等,,,2024-06-13,1,,,,,オアシス,0
1169,6010003040227,登記記録の閉鎖等,0,2025-12-23,2025-12-18,アグリソーラー・ファーム合同会社,,合同会社,東京都,千代田区,神田練塀町３番地,,13,101,1010022,,,2025-12-18,清算の結了等,,,2023-04-06,1,,,,,アグリソーラーファーム,0
1174,6010401178123,登記記録の閉鎖等,0,2025-12-23,2025-12-02,株式会社マール,,株式会社,東京都,港区,北青山１丁目３番１号アールキューブ青山３階,,13,103,1070061,,,2025-12-02,清算の結了等,,,2023-10-26,1,,,,,,0
1183,6010502000821,登記記録の閉鎖等,0,2025-12-23,2025-12-15,有限会社石橋商店,,有限会社,東京都,台東区,千束１丁目１０番１３号,,13,106,1110031,,,2025-12-15,清算の結了等,,,2015-10-05,1,,,,,イシバシショウテン,0
1185,6010601060213,登記記録の閉鎖等,0,2025-12-23,2025-12-18,アシックス・プレイシュア株式会社,,株式会社,東京都,千代田区,丸の内２丁目７番２号,,13,101,1000005,,,2025-12-18,清算の結了等,,,2021-11-11,1,,,,,アシックスプレイシュア,0
1192,6010901021600,登記記録の閉鎖等,0,2025-12-23,2025-12-19,株式会社猫の言葉社,,株式会社,東京都,世田谷区,砧６丁目２０番１４号,,13,112,1570073,,,2025-12-19,清算の結了等,,,2015-10-05,1,,,,,ネコノコトバシャ,0
1214,6011801032225,登記記録の閉鎖等,0,2025-12-23,2025-12-18,株式会社小柴石材,,株式会社,東京都,葛飾区,高砂５丁目２０番５号,,13,122,1250054,,,2025-12-18,清算の結了等,,,2016-08-26,1,,,,,コシバセキザイ,0
1215,6011803001327,登記記録の閉鎖等,0,2025-12-23,2025-12-01,合同会社Ａｕｔｏ　Ａｃｃｅｓｓ　Ｊａｐａｎ,,合同会社,千葉県,長生郡長生村,水口１１６９番２,,12,423,2994335,,,2025-12-01,合併による解散等,4011801038595,令和７年１２月１日千葉県長生郡長生村水口１１６９番２株式会社ＡＡＪ　ＰＬＵＳ（4011801038595）に合併し解散,2015-10-05,1,,,,,オートアクセスジャパン,0
1216,6011805002380,登記記録の閉鎖等,0,2025-12-23,2025-12-01,一般社団法人コア・バリュー経営協会,,その他の設立登記法人,東京都,葛飾区,新宿５丁目５番５号,,13,122,1250051,,,2025-12-01,清算の結了等,,,2015-10-05,1,,,,,コアバリューケイエイキョウカイ,0
1227,6021002049415,登記記録の閉鎖等,0,2025-12-23,2025-11-27,有限会社オールオート,,有限会社,神奈川県,大和市,上草柳１５８７番地２,,14,213,2420029,,,2025-11-27,清算の結了等,,,2015-10-05,1,,,,,オールオート,0
1229,6021005005976,登記記録の閉鎖等,0,2025-12-23,2025-12-03,農事組合法人和留沢緑化組合,,その他の設立登記法人,神奈川県,小田原市,久野４８７１番地６０,,14,206,2500055,,,2025-12-03,清算の結了等,,,2015-10-05,1,,,,,ワルサワリョッカクミアイ,0
1232,6030001143277,登記記録の閉鎖等,0,2025-12-23,2025-12-15,ＬＩＣ株式会社,,株式会社,埼玉県,所沢市,美原町１丁目２９２７－２,,11,208,3590045,,,2025-12-15,清算の結了等,,,2021-07-12,1,,,,,エルアイシー,0
1238,6040001016077,登記記録の閉鎖等,0,2025-12-23,2025-12-04,株式会社エムズ,,株式会社,千葉県,習志野市,大久保３丁目１３番１－９１１号,,12,216,2750011,,,2025-12-04,清算の結了等,,,2015-10-05,1,,,,,エムズ,0
1251,6060001035554,登記記録の閉鎖等,0,2025-12-23,2025-12-18,株式会社オウンライフ,,株式会社,栃木県,栃木市,平井町４８２番地２エクセルパレス１０１,,09,203,3280054,,,2025-12-18,清算の結了等,,,2022-12-26,1,,,,,オウンライフ,0
1254,6060002037401,登記記録の閉鎖等,0,2025-12-23,2025-12-19,丸十工営有限会社,,有限会社,栃木県,足利市,栄町１丁目３３６６番地２,,09,202,3260815,,,2025-12-19,清算の結了等,,,2015-10-05,1,,,,,マルジュウコウエイ,0
1261,6120001206784,登記記録の閉鎖等,0,2025-12-23,2025-12-19,パシフィックオーシャン株式会社,,株式会社,大阪府,大阪市中央区,南新町１丁目２番４号椿本ビル８階,,27,128,5400024,,,2025-12-19,清算の結了等,,,2017-07-13,1,,,,,パシフィックオーシャン,0
1274,6120002045728,登記記録の閉鎖等,0,2025-12-23,2025-12-19,有限会社ユニバーサル・デザイン,,有限会社,大阪府,大阪市北区,天神橋３丁目１０番３０－７１０号,,27,127,5300041,,,2025-12-19,清算の結了等,,,2015-10-05,1,,,,,ユニバーサルデザイン,0
1276,6120003010061,登記記録の閉鎖等,0,2025-12-23,2025-12-19,合資会社にぎやか,,合資会社,大阪府,大阪市城東区,東中浜９丁目３番３６号眞柄ビル１階,,27,118,5360023,,,2025-12-19,清算の結了等,,,2015-10-05,1,,,,,ニギヤカ,0
1289,6130002014566,登記記録の閉鎖等,0,2025-12-23,2025-12-22,有限会社西川真空工業,,有限会社,京都府,京都市伏見区,横大路貴船５番地,,26,109,6128297,,,2025-12-22,清算の結了等,,,2015-10-05,1,,,,,,0
1308,6180001004522,登記記録の閉鎖等,0,2025-12-23,2025-12-15,株式会社ダイヤ自動車,,株式会社,愛知県,名古屋市天白区,原３丁目１４０４番地,,23,116,4680015,,,2025-12-15,清算の結了等,,,2015-10-05,1,,,,,,0
1312,6180001097285,登記記録の閉鎖等,0,2025-12-23,2025-12-15,中部興産株式会社,,株式会社,愛知県,愛西市,渕高町蔭島４２番地の４,,23,232,4968018,,,2025-12-15,清算の結了等,,,2015-10-05,1,,,,,,0
1339,6280001002689,登記記録の閉鎖等,0,2025-12-23,2025-12-17,株式会社ＧＴ５１,,株式会社,島根県,松江市,母衣町３４番地３階,,32,201,6900886,,,2025-12-17,清算の結了等,,,2015-10-05,1,,,,,ジーティーゴーイチ,0
1350,6290805008600,登記記録の閉鎖等,0,2025-12-23,2025-12-09,一般社団法人高須西集会所,,その他の設立登記法人,福岡県,北九州市若松区,高須西２丁目３番１０号,,40,103,8080146,,,2025-12-09,清算の結了等,,,2015-10-05,1,,,,,タカスニシシュウカイショ,0
1355,6330002000249,登記記録の閉鎖等,0,2025-12-23,2025-12-17,有限会社アクロス,,有限会社,熊本県,熊本市中央区,横手３丁目１８番６号,,43,101,8600046,,,2025-12-17,清算の結了等,,,2015-10-05,1,,,,,アクロス,0
1365,6370002011424,登記記録の閉鎖等,0,2025-12-23,2025-12-17,有限会社定義観光丸かん商店,,有限会社,宮城県,仙台市青葉区,大倉字上下８番地,,04,101,9893213,,,2025-12-17,清算の結了等,,,2015-10-05,1,,,,,ジョウギカンコウマルカンショウテン,0
1370,6390001007132,登記記録の閉鎖等,0,2025-12-23,2025-12-19,株式会社プロジェクトＪ,,株式会社,山形県,酒田市,坂野辺新田丙９８番地の１９,,06,204,9980101,,,2025-12-19,清算の結了等,,,2015-10-05,1,,,,,プロジェクトジェイ,0
1373,6390002001712,登記記録の閉鎖等,0,2025-12-23,2025-12-18,有限会社ぽろぽろかん工房,,有限会社,山形県,山形市,大字下東山９９７番地の１,,06,201,9902232,,,2025-12-18,清算の結了等,,,2015-10-05,1,,,,,ポロポロカンコウボウ,0
1375,6410001008648,登記記録の閉鎖等,0,2025-12-23,2025-12-16,株式会社ほのか,,株式会社,秋田県,仙北市,角館町下菅沢２１２番地プランタンハイツ２１　１０６号室,,05,215,0140366,,,2025-12-16,合併による解散等,3410001012875,令和７年１２月１６日秋田県仙北郡美郷町六郷字宝門清水７２番地２フラワータウン１階株式会社Ｃｃｏｌｏｒ（3410001012875）に合併し解散,2015-10-05,1,,,,,ホノカ,0
1392,7010401026644,登記記録の閉鎖等,0,2025-12-23,2025-12-18,株式会社プレツプ飲料研究所,,株式会社,東京都,新宿区,市谷甲良町１番１２号コスモ市ヶ谷３０３,,13,104,1620856,,,2025-12-18,清算の結了等,,,2015-10-05,1,,,,,プレツプインリョウケンキュウジョ,0
1414,7010905001829,登記記録の閉鎖等,0,2025-12-23,2025-12-19,世田谷信用金庫労働組合,,その他の設立登記法人,東京都,世田谷区,世田谷１丁目２３番３号,,13,112,1540017,,,2025-12-19,清算の結了等,,,2015-10-05,1,,,,,セタガヤシンヨウキンコ,0
1437,7012802010227,登記記録の閉鎖等,0,2025-12-23,2025-12-22,有限会社枠一,,有限会社,東京都,武蔵村山市,三ツ藤３丁目３６番地の７,,13,223,2080021,,,2025-12-22,清算の結了等,,,2015-10-05,1,,,,,ワクイチ,0
1460,7030001050852,登記記録の閉鎖等,0,2025-12-23,2025-12-16,株式会社エヌ・ケイ・ワールドインターナショナル,,株式会社,埼玉県,春日部市,南中曽根８００番地１３２,,11,214,3440048,,,2025-12-16,清算の結了等,,,2015-10-05,1,,,,,エヌケイワールドインターナショナル,0
1466,7030005018433,登記記録の閉鎖等,0,2025-12-23,2025-12-16,医療法人社団ＬＣＧ,,その他の設立登記法人,埼玉県,越谷市,レイクタウン６丁目２５番地３,,11,222,3430828,,,2025-12-16,清算の結了等,,,2017-04-14,1,,,,,エルシージー,0
1478,7050002026370,登記記録の閉鎖等,0,2025-12-23,2025-12-15,有限会社鹿島学習能率研究会,,有限会社,茨城県,鹿嶋市,厨３丁目１番地５,,08,222,3140030,,,2025-12-15,清算の結了等,,,2015-10-05,1,,,,,カシマガクシュウノウリツケンキュウカイ,0
1482,7070002022723,登記記録の閉鎖等,0,2025-12-23,2025-12-17,有限会社今里織物工場,,有限会社,群馬県,桐生市,小曽根町７番４号,,10,203,3760000,,,2025-12-17,清算の結了等,,,2015-10-05,1,,,,,イマサトオリモノコウジョウ,0
1485,7080001010967,登記記録の閉鎖等,0,2025-12-23,2025-12-17,株式会社サイプラックス,,株式会社,静岡県,静岡市葵区,鷹匠２丁目８番３－１１０１号,,22,101,4200839,,,2025-12-17,清算の結了等,,,2015-10-05,1,,,,,サイプラックス,0
1491,7120001192272,登記記録の閉鎖等,0,2025-12-23,2025-12-19,株式会社アビディング,,株式会社,大阪府,大阪市西区,南堀江４丁目３０－２１,,27,106,5500015,,,2025-12-19,清算の結了等,,,2015-10-05,1,,,,,アビディング,0
1492,7120001233167,登記記録の閉鎖等,0,2025-12-23,2025-12-19,株式会社ＫＳ,,株式会社,大阪府,枚方市,上島町２番地５ＧＡＬＡ枚方ビル３Ｆ,,27,210,5731127,,,2025-12-19,清算の結了等,,,2020-11-16,1,,,,,ケイエス,0
1513,7120901019319,登記記録の閉鎖等,0,2025-12-23,2025-12-18,株式会社有沢電気商会,,株式会社,大阪府,池田市,石橋４丁目２０番１４号,,27,204,5630032,,,2025-12-18,清算の結了等,,,2015-10-05,1,,,,,アリサワデンキショウカイ,0
1514,7122001038785,登記記録の閉鎖等,0,2025-12-23,2025-12-10,ミヤ株式会社,,株式会社,大阪府,大東市,大野１丁目５－２７－１Ｆ,,27,218,5740042,,,2025-12-10,清算の結了等,,,2025-01-06,1,,,,,ミヤ,0
1523,7140005009231,登記記録の閉鎖等,0,2025-12-23,2025-12-18,一般財団法人農村文化協会,,その他の設立登記法人,兵庫県,加古川市,上荘町見土呂３７５番地,,28,210,6751214,,,2025-12-18,清算の結了等,,,2015-10-05,1,,,,,ノウソンブンカキョウカイ,0
1525,7150001014531,登記記録の閉鎖等,0,2025-12-23,2025-12-19,株式会社オカムラ,,株式会社,奈良県,香芝市,旭ケ丘４丁目３番地の１０,,29,210,6390266,,,2025-12-19,清算の結了等,,,2015-10-05,1,,,,,オカムラ,0
1526,7160001007947,登記記録の閉鎖等,0,2025-12-23,2025-12-19,株式会社エイチ・アンド・エス,,株式会社,滋賀県,長浜市,大宮町４番３－４０５号,,25,203,5260054,,,2025-12-19,清算の結了等,,,2015-10-05,1,,,,,エイチアンドエス,0
1535,7180002065117,登記記録の閉鎖等,0,2025-12-23,2025-12-18,有限会社伊藤製作所,,有限会社,愛知県,春日井市,南下原町１丁目１４番地８,,23,206,4860841,,,2025-12-18,清算の結了等,,,2015-10-05,1,,,,,イトウセイサクショ,0
1538,7180003020731,登記記録の閉鎖等,0,2025-12-23,2025-12-15,合同会社おりがみ,,合同会社,愛知県,名古屋市中区,栄１丁目２３番２９号サンハイツ伏見２Ｆ,,23,106,4600008,,,2025-12-15,清算の結了等,,,2020-01-14,1,,,,,オリガミ,0
1544,7190001028684,登記記録の閉鎖等,0,2025-12-23,2025-12-19,株式会社ＰＵＲＳＵＥ,,株式会社,三重県,津市,安濃町草生４３７８番地１,,24,201,5142328,,,2025-12-19,清算の結了等,,,2021-09-14,1,,,,,パシュー,0
1548,7200003006471,登記記録の閉鎖等,0,2025-12-23,2025-12-15,合同会社ジル＆ラル,,合同会社,岐阜県,各務原市,那加北洞町２丁目８７番地,,21,213,5040011,,,2025-12-15,清算の結了等,,,2024-08-20,1,,,,,ジルアンドラル,0
1561,7240002043826,登記記録の閉鎖等,0,2025-12-23,2025-12-16,有限会社ワイ・エイチ・ティー,,有限会社,広島県,福山市,若松町２番３０－４０１号,,34,207,7200034,,,2025-12-16,清算の結了等,,,2015-10-05,1,,,,,ワイエイチティー,0
1571,7290002011266,登記記録の閉鎖等,0,2025-12-23,2025-12-05,有限会社ジュエルピアーニ,,有限会社,福岡県,福岡市中央区,赤坂１丁目１１番１３号,,40,133,8100042,,,2025-12-05,清算の結了等,,,2015-10-05,1,,,,,ジュエルピアーニ,0
1576,7290005009919,登記記録の閉鎖等,0,2025-12-23,2025-12-16,熊野神社,,その他の設立登記法人,福岡県,久留米市,草野町草野９７４番地の２,,40,203,8390835,,,2025-12-16,清算の結了等,,,2015-10-05,1,,,,,クマノジンジャ,0
1577,7290803004113,登記記録の閉鎖等,0,2025-12-23,2025-12-17,合同会社ビィースマイル,,合同会社,福岡県,直方市,大字下境１２２８番地２,,40,204,8220007,,,2025-12-17,清算の結了等,,,2022-04-26,1,,,,,ビィースマイル,0
1587,7340002023512,登記記録の閉鎖等,0,2025-12-23,2025-12-15,有限会社三光メディカル,,有限会社,鹿児島県,南さつま市,加世田地頭所５６７番地,,46,220,8970008,,,2025-12-15,清算の結了等,,,2015-10-05,1,,,,,サンコウメディカル,0
1593,7360003013741,登記記録の閉鎖等,0,2025-12-23,2025-12-18,合同会社トリップアシスト,,合同会社,沖縄県,石垣市,字登野城５１０番地１階,,47,207,9070004,,,2025-12-18,清算の結了等,,,2024-02-26,1,,,,,トリップアシスト,0
1598,7380002017683,登記記録の閉鎖等,0,2025-12-23,2025-12-10,有限会社協輪,,有限会社,福島県,白河市,関辺川前７番地４６２,,07,205,9610021,,,2025-12-10,清算の結了等,,,2015-10-05,1,,,,,キョウワ,0
1612,7440001000106,登記記録の閉鎖等,0,2025-12-23,2025-12-22,井口商事株式会社,,株式会社,北海道,函館市,堀川町１９番１６号,,01,202,0400025,,,2025-12-22,清算の結了等,,,2015-10-05,1,,,,,イノグチショウジ,0
1616,7480003001271,登記記録の閉鎖等,0,2025-12-23,2025-12-22,合同会社ＳＡＫＵＲＡ,,合同会社,徳島県,徳島市,三軒屋町外２４番地４４,,36,201,7708025,,,2025-12-22,清算の結了等,,,2018-09-12,1,,,,,サクラ,0
1620,7500002008554,登記記録の閉鎖等,0,2025-12-23,2025-12-22,有限会社田村電気,,有限会社,愛媛県,伊予郡松前町,大字北黒田４６５番地４,,38,401,7913102,,,2025-12-22,清算の結了等,,,2015-10-05,1,,,,,タムラデンキ,0
1628,8010001210382,登記記録の閉鎖等,0,2025-12-23,2025-12-04,株式会社ＬＡＢＥＬ,,株式会社,東京都,中央区,日本橋本石町４丁目２番１６号,,13,102,1030021,,,2025-12-04,清算の結了等,,,2020-06-22,1,,,,,レーベル,0
1637,8010403026154,登記記録の閉鎖等,0,2025-12-23,2025-12-02,スター企画合同会社,,合同会社,東京都,港区,虎ノ門３丁目１８番６－６１４号,,13,103,1050001,,,2025-12-02,清算の結了等,,,2021-09-22,1,,,,,スターキカク,0
1642,8010701023357,登記記録の閉鎖等,0,2025-12-23,2025-12-12,株式会社江戸吉,,株式会社,東京都,大田区,大森西２丁目１７番１９号,,13,111,1430015,,,2025-12-12,清算の結了等,,,2015-10-05,1,,,,,エドキチ,0
1657,8011101085483,登記記録の閉鎖等,0,2025-12-23,2025-12-01,株式会社ルミナス,,株式会社,東京都,新宿区,西落合４丁目３番１３号キャッスル西落合５０８,,13,104,1610031,,,2025-12-01,清算の結了等,,,2018-09-27,1,,,,,ルミナス,0
1658,8011102000615,登記記録の閉鎖等,0,2025-12-23,2025-12-01,有限会社アトリエしゅら,,有限会社,東京都,新宿区,高田馬場３丁目２１番１８号,,13,104,1690075,,,2025-12-01,清算の結了等,,,2015-10-05,1,,,,,アトリエシュラ,0
1661,8011201013360,登記記録の閉鎖等,0,2025-12-23,2025-12-12,株式会社アイ・エスカンパニー,,株式会社,東京都,中野区,中野２丁目１番７号,,13,114,1640001,,,2025-12-12,清算の結了等,,,2015-10-05,1,,,,,アイエスカンパニー,0
1664,8011302003608,登記記録の閉鎖等,0,2025-12-23,2025-12-12,有限会社九重,,有限会社,東京都,杉並区,高円寺南４丁目２８番１３号,,13,115,1660003,,,2025-12-12,清算の結了等,,,2015-10-05,1,,,,,ココノエ,0
1666,8011705001530,登記記録の閉鎖等,0,2025-12-23,2025-12-12,一般社団法人国際医療人材アソシエーション,,その他の設立登記法人,東京都,江戸川区,西葛西１丁目１２番１６号,,13,123,1340088,,,2025-12-12,清算の結了等,,,2018-09-11,1,,,,,コクサイイリョウジンザイアソシエーション,0
1669,8013301032819,登記記録の閉鎖等,0,2025-12-23,2025-12-12,株式会社ティーディーアイ,,株式会社,東京都,豊島区,目白２丁目５番２７－４０２号,,13,116,1710031,,,2025-12-12,清算の結了等,,,2015-10-05,1,,,,,ティーディーアイ,0
1687,8021002061748,登記記録の閉鎖等,0,2025-12-23,2025-12-03,有限会社Ｋ＆Ｉ,,有限会社,神奈川県,平塚市,立野町３１番１０－１号,,14,203,2540046,,,2025-12-03,清算の結了等,,,2015-10-05,1,,,,,ケイアンドアイ,0
1698,8040001050520,登記記録の閉鎖等,0,2025-12-23,2025-12-02,君津住建株式会社,,株式会社,千葉県,木更津市,東太田４丁目２０番５５号,,12,206,2920043,,,2025-12-02,清算の結了等,,,2015-10-05,1,,,,,キミツジュウケン,0
1705,8040002028400,登記記録の閉鎖等,0,2025-12-23,2025-12-03,有限会社愛勝美,,有限会社,千葉県,八千代市,勝田台２丁目３５番地の１,,12,221,2760023,,,2025-12-03,清算の結了等,,,2015-10-05,1,,,,,アイショウビ,0
1706,8040002079410,登記記録の閉鎖等,0,2025-12-23,2025-12-03,有限会社大坂工務店,,有限会社,千葉県,山武市,松尾町借毛本郷６４１番地の１１,,12,237,2891537,,,2025-12-03,清算の結了等,,,2015-10-05,1,,,,,オオサカコウムテン,0
1718,8070002018448,登記記録の閉鎖等,0,2025-12-23,2025-12-18,有限会社板垣クリエイト,,有限会社,群馬県,伊勢崎市,東本町８８番地５,,10,204,3720025,,,2025-12-18,清算の結了等,,,2015-10-05,1,,,,,イタガキクリエイト,0
1719,8080001000513,登記記録の閉鎖等,0,2025-12-23,2025-12-17,株式会社ウイング,,株式会社,静岡県,静岡市駿河区,西脇１２２３番地の４,,22,102,4228044,,,2025-12-17,清算の結了等,,,2015-10-05,1,,,,,ウイング,0
1720,8080101009792,登記記録の閉鎖等,0,2025-12-23,2025-12-08,ミタカ樹脂株式会社,,株式会社,静岡県,富士市,宮島２５３番地１０,,22,210,4160945,,,2025-12-08,清算の結了等,,,2015-10-05,1,,,,,ミタカジュシ,0
1725,8080402017858,登記記録の閉鎖等,0,2025-12-23,2025-12-12,有限会社和楽路,,有限会社,静岡県,掛川市,上張２８４番地の３,,22,213,4360022,,,2025-12-12,清算の結了等,,,2015-10-05,1,,,,,ワラジ,0
1728,8090001014058,登記記録の閉鎖等,0,2025-12-23,2025-12-18,西湖渡辺建設株式会社,,株式会社,山梨県,南都留郡富士河口湖町,西湖東村３００９番地１,,19,430,4010332,,,2025-12-18,清算の結了等,,,2015-10-05,1,,,,,サイコワタナベケンセツ,0
1732,8100002008057,登記記録の閉鎖等,0,2025-12-23,2025-12-22,有限会社はしやま畳店,,有限会社,長野県,長野市,大字稲葉７５１番地４,,20,201,3800911,,,2025-12-22,清算の結了等,,,2015-10-05,1,,,,,ハシヤマタタミテン,0
1733,8100005008129,登記記録の閉鎖等,0,2025-12-23,2025-12-17,医療法人小口医院,,その他の設立登記法人,長野県,茅野市,宮川４４４１番地３,,20,214,3910013,,,2025-12-17,清算の結了等,,,2015-10-05,1,,,,,オグチイイン,0
1737,8120001133143,登記記録の閉鎖等,0,2025-12-23,2025-12-15,Ｔｅｒｒｅ　Ｊｏｕｅｒ株式会社,,株式会社,大阪府,東大阪市,荒川３丁目７－３１,,27,227,5770843,,,2025-12-15,清算の結了等,,,2015-10-05,1,,,,,テレジュール,0
1745,8120001273286,登記記録の閉鎖等,0,2025-12-23,2025-12-19,東福株式会社,,株式会社,大阪府,大阪市西成区,橘１丁目１１－２８オフィスポート橘３０１号,,27,122,5570051,,,2025-12-19,清算の結了等,,,2025-03-13,1,,,,,トウフク,0
1763,8130002023945,登記記録の閉鎖等,0,2025-12-23,2025-12-22,有限会社マリンクラブ,,有限会社,京都府,京都市中京区,六角通油小路西入越後町２０３番地,,26,104,6048256,,,2025-12-22,清算の結了等,,,2015-10-05,1,,,,,マリンクラブ,0
1773,8180001023693,登記記録の閉鎖等,0,2025-12-23,2025-12-18,株式会社シャンテー小島,,株式会社,愛知県,名古屋市天白区,中平１丁目７０１番地,,23,116,4680014,,,2025-12-18,清算の結了等,,,2015-10-05,1,,,,,シャンテーコジマ,0
1781,8180001155231,登記記録の閉鎖等,0,2025-12-23,2025-12-15,株式会社Ｉｒｉｓ,,株式会社,愛知県,名古屋市中区,丸の内３丁目２１－３４ＹＭＴビル４Ｆ,,23,106,4600002,,,2025-12-15,清算の結了等,,,2023-03-08,1,,,,,,0
1786,8180005018913,登記記録の閉鎖等,0,2025-12-23,2025-12-19,司法書士法人青山事務所,,その他の設立登記法人,愛知県,名古屋市北区,清水２丁目１４番１２号,,23,103,4620844,,,2025-12-19,清算の結了等,,,2020-08-19,1,,,,,アオヤマジムショ,0
1804,8240001024974,登記記録の閉鎖等,0,2025-12-23,2025-12-18,株式会社勝光山研究所,,株式会社,広島県,庄原市,東本町３丁目１３番１０号,,34,210,7270011,,,2025-12-18,清算の結了等,,,2015-10-05,1,,,,,ショウコウザンケンキュウショ,0
1806,8250002017753,登記記録の閉鎖等,0,2025-12-23,2025-12-18,有限会社梅津商店,,有限会社,山口県,岩国市,岩国１丁目１３番２２号,,35,208,7410062,,,2025-12-18,清算の結了等,,,2015-10-05,1,,,,,ウメヅショウテン,0
1808,8260002009923,登記記録の閉鎖等,0,2025-12-23,2025-12-01,室賀商事有限会社,,有限会社,岡山県,岡山市北区,桑田町１３番６号ロイヤルガーデンシティ桑田町１５０８号,,33,101,7000984,,,2025-12-01,合併による解散等,3260001006570,令和７年１２月１日岡山市北区大内田７６１番地の３室賀ネジ機工株式会社（3260001006570）に合併し解散,2015-10-05,1,,,,,ムロガショウジ,0
1811,8270002000484,登記記録の閉鎖等,0,2025-12-23,2025-12-23,有限会社かわかみデンキ,,有限会社,鳥取県,鳥取市,賀露町南３丁目１７０３番地４４１,,31,201,6800909,,,2025-12-23,清算の結了等,,,2015-10-05,1,,,,,カワカミデンキ,0
1822,8290803003997,登記記録の閉鎖等,0,2025-12-23,2025-12-19,合同会社ＡＳＴ,,合同会社,福岡県,北九州市小倉北区,木町３丁目１３番２０号,,40,106,8030851,,,2025-12-19,清算の結了等,,,2021-11-25,1,,,,,エーエスティ,0
1832,8370202005273,登記記録の閉鎖等,0,2025-12-23,2025-12-18,有限会社ケイワイ工業,,有限会社,宮城県,仙台市泉区,南光台東２丁目１４番６号,,04,105,9818001,,,2025-12-18,清算の結了等,,,2015-10-05,1,,,,,ケイワイコウギョウ,0
1833,8370601002326,登記記録の閉鎖等,0,2025-12-23,2025-12-17,株式会社てとあ企画,,株式会社,宮城県,多賀城市,城南１丁目１０番４号,,04,209,9850865,,,2025-12-17,清算の結了等,,,2015-10-05,1,,,,,テトアキカク,0
1854,9010401122227,登記記録の閉鎖等,0,2025-12-23,2025-12-01,株式会社クオリタス・マーケティング＆オペレーションズ,,株式会社,東京都,渋谷区,恵比寿西２丁目８番４号ＥＸ恵比寿西ビル５階,,13,113,1500021,,,2025-12-01,清算の結了等,,,2015-12-22,1,,,,,クオリタスマーケティングオペレーションズ,0
1865,9010801020294,登記記録の閉鎖等,0,2025-12-23,2025-12-15,株式会社グラフイツクデイメンシヨンズ,,株式会社,東京都,大田区,山王２丁目１８番５号大森山王センチュリーマンション６０１,,13,111,1430023,,,2025-12-15,清算の結了等,,,2015-10-05,1,,,,,グラフイツクデイメンシヨンズ,0
1868,9010901011540,登記記録の閉鎖等,0,2025-12-23,2025-12-19,丸二測量設計株式会社,,株式会社,東京都,世田谷区,砧６丁目１１番３号,,13,112,1570073,,,2025-12-19,清算の結了等,,,2015-10-05,1,,,,,マルニソクリョウセッケイ,0
1880,9011301022756,登記記録の閉鎖等,0,2025-12-23,2025-12-15,ＦＧ　Ｂｉｌｌｉｏｎ株式会社,,株式会社,東京都,杉並区,荻窪４丁目２８番１２－４０１号,,13,115,1670051,,,2025-12-15,清算の結了等,,,2016-12-15,1,,,,,エフジービリオン,0
1882,9011501003787,登記記録の閉鎖等,0,2025-12-23,2025-12-17,株式会社長谷川,,株式会社,東京都,北区,田端新町２丁目２１番１－１０５号ファミールサトー,,13,117,1140012,,,2025-12-17,清算の結了等,,,2015-10-05,1,,,,,ハセガワ,0
1889,9020001007067,登記記録の閉鎖等,0,2025-12-23,2025-12-18,石田特殊グラビヤ興業株式会社,,株式会社,神奈川県,横浜市戸塚区,上矢部町２０３９番地３,,14,110,2450053,,,2025-12-18,清算の結了等,,,2015-10-05,1,,,,,イシダトクシュグラビヤコウギョウ,0
1901,9030001000698,登記記録の閉鎖等,0,2025-12-23,2025-12-16,株式会社イワサキ製作所,,株式会社,埼玉県,さいたま市中央区,本町西５丁目５番２１号,,11,105,3380004,,,2025-12-16,清算の結了等,,,2015-10-05,1,,,,,イワサキセイサクショ,0
1906,9040001026817,登記記録の閉鎖等,0,2025-12-23,2025-12-01,株式会社高橋商会,00018947,株式会社,千葉県,市川市,南大野１丁目４３番７号,,12,203,2720804,,,2025-12-01,清算の結了等,,,2015-10-05,1,,,,,タカハシショウカイ,0
1920,9050003000983,登記記録の閉鎖等,0,2025-12-23,2025-12-15,株式会社相野谷呉服店,,株式会社,茨城県,坂東市,岩井４３５８番地,,08,228,3060631,,,2025-12-15,清算の結了等,,,2015-10-05,1,,,,,アイノヤゴフクテン,0
1929,9090005007354,登記記録の閉鎖等,0,2025-12-23,2025-12-18,特定非営利活動法人ライトスタッフ,,その他の設立登記法人,山梨県,中巨摩郡昭和町,上河東５４３－２－５０４,,19,384,4093862,,,2025-12-18,清算の結了等,,,2020-10-13,1,,,,,ライトスタッフ,0
1933,9120001030199,登記記録の閉鎖等,0,2025-12-23,2025-12-22,アスカ工業株式会社,,株式会社,大阪府,大阪市住之江区,南加賀屋４丁目４番３３号,,27,125,5590015,,,2025-12-22,清算の結了等,,,2015-10-05,1,,,,,アスカコウギョウ,0
1936,9120001058810,登記記録の閉鎖等,0,2025-12-23,2025-12-22,明和エンジニアリング株式会社,,株式会社,大阪府,大阪市淀川区,宮原１丁目９番６号,,27,123,5320003,,,2025-12-22,清算の結了等,,,2015-10-05,1,,,,,メイワエンジニアリング,0
1942,9120001216392,登記記録の閉鎖等,0,2025-12-23,2025-12-22,株式会社アンクレアーレ,,株式会社,大阪府,大阪市中央区,大手前１丁目７番３１号,,27,128,5400008,,,2025-12-22,清算の結了等,,,2018-10-10,1,,,,,アンクレアーレ,0
1984,9180001032875,登記記録の閉鎖等,0,2025-12-23,2025-12-18,株式会社水野製菓,,株式会社,愛知県,名古屋市中区,上前津２丁目２番４号,,23,106,4600013,,,2025-12-18,清算の結了等,,,2015-10-05,1,,,,,ミズノセイカ,0
1994,9180301001233,登記記録の閉鎖等,0,2025-12-23,2025-12-16,株式会社清明学習塾,,株式会社,愛知県,岡崎市,上和田町字南屋敷１７番地１,,23,202,4440201,,,2025-12-16,合併による解散等,9180302002577,令和７年１２月１５日愛知県岡崎市上和田町字南屋敷１７番地１株式会社プロシード（9180302002577）に合併し解散,2015-10-05,1,,,,,セイメイガクシュウジュク,0
1998,9180302000481,登記記録の閉鎖等,0,2025-12-23,2025-12-11,有限会社エフピーエス,,有限会社,愛知県,岡崎市,末広町５番地１５,,23,202,4440914,,,2025-12-11,清算の結了等,,,2015-10-05,1,,,,,エフピーエス,0
2003,9200002009820,登記記録の閉鎖等,0,2025-12-23,2025-12-22,有限会社ミノウラ製作所,,有限会社,岐阜県,本巣市,長屋７２９番地,,21,218,5010412,,,2025-12-22,清算の結了等,,,2015-10-05,1,,,,,ミノウラセイサクショ,0
2011,9240001024486,登記記録の閉鎖等,0,2025-12-23,2025-12-18,原田設備株式会社,,株式会社,広島県,三次市,十日市西１丁目１２番３号,,34,209,7280011,,,2025-12-18,清算の結了等,,,2015-10-05,1,,,,,ハラダセツビ,0
2012,9240002052981,登記記録の閉鎖等,0,2025-12-23,2025-12-18,エーゼツト商事有限会社,,有限会社,広島県,三原市,古浜３丁目５番１号,,34,204,7230013,,,2025-12-18,清算の結了等,,,2015-10-05,1,,,,,エーゼツトショウジ,0
2021,9260003004063,登記記録の閉鎖等,0,2025-12-23,2025-12-18,合同会社ラ・シード,,合同会社,岡山県,岡山市中区,祇園５１７－２,00128089,33,102,7038207,,,2025-12-18,清算の結了等,,,2022-10-12,1,,,,,ラシード,0
2026,9280002002314,登記記録の閉鎖等,0,2025-12-23,2025-12-19,有限会社ミヤモト・サービスマツエ,,有限会社,島根県,松江市,西津田８丁目５番１－２０１号,,32,201,6900017,,,2025-12-19,清算の結了等,,,2015-10-05,1,,,,,,0
2028,9280002008757,登記記録の閉鎖等,0,2025-12-23,2025-12-18,有限会社旅館とらや,,有限会社,島根県,浜田市,朝日町８０番地１,,32,202,6970033,,,2025-12-18,清算の結了等,,,2015-10-05,1,,,,,リョカントラヤ,0
2044,9340002012422,登記記録の閉鎖等,0,2025-12-23,2025-12-12,河野メディカル有限会社,,有限会社,鹿児島県,鹿児島市,桜ヶ丘２丁目３番地１１,,46,201,8910175,,,2025-12-12,清算の結了等,,,2015-10-05,1,,,,,コウノメディカル,0
2045,9340002015177,登記記録の閉鎖等,0,2025-12-23,2025-12-12,有限会社ティージェイ,,有限会社,鹿児島県,姶良郡湧水町,北方６０番地,,46,452,8996202,,,2025-12-12,清算の結了等,,,2015-10-05,1,,,,,ティージェイ,0
2049,9370005009108,登記記録の閉鎖等,0,2025-12-23,2025-12-17,特定非営利活動法人ＨＡＹ,,その他の設立登記法人,宮城県,仙台市泉区,館４丁目１３番地の１,,04,105,9813214,,,2025-12-17,清算の結了等,,,2016-11-18,1,,,,,ヘイ,0
2052,9390002008795,登記記録の閉鎖等,0,2025-12-23,2025-11-20,有限会社クール,,有限会社,山形県,酒田市,住吉町１番１２号,,06,204,9980029,,,2025-11-20,清算の結了等,,,2015-10-05,1,,,,,クール,0
