sequenceNumber,corporateNumber,process,correct,updateDate,changeDate,name,nameImageId,kind,prefectureName,cityName,streetNumber,addressImageId,prefectureCode,cityCode,postCode,addressOutside,addressOutsideImageId,closeDate,closeCause,successorCorporateNumber,changeCause,assignmentDate,latest,enName,enPrefectureName,enCityName,enAddressOutside,furigana,hihyoji
1,1010001004675,登記記録の閉鎖等,0,2022-02-18,2022-02-09,株式会社高橋書店,,株式会社,東京都,豊島区,東池袋３丁目１番１号,,13,116,1700013,,,2022-02-09,合併による解散等,3013301047482,令和４年２月３日東京都豊島区東池袋三丁目１番１号株式会社高橋書店（3013301047482）に合併し解散,2015-10-05,1,,,,,タカハシショテン,0
2,1010001043566,登記記録の閉鎖等,0,2022-02-18,2022-02-17,株式会社コスモ建築設計事務所,,株式会社,東京都,中央区,京橋２丁目６番１４号,,13,102,1040031,,,2022-02-17,清算の結了等,,,2015-10-05,1,,,,,コスモケンチクセッケイジムショ,0
13,1010001171499,登記記録の閉鎖等,0,2022-02-18,2022-01-31,デジタルエナジーソリューションズ株式会社,,株式会社,東京都,千代田区,霞が関３丁目２番５号霞が関ビルディング３３階,,13,101,1000013,,,2022-01-31,合併による解散等,9010001205480,令和４年１月３１日東京都千代田区霞が関三丁目２番５号霞が関ビルディング３３階バンプ―ジャパン株式会社（9010001205480）に合併し解散,2015-11-05,1,,,,,デジタルエナジーソリューションズ,0
73,1011701010806,登記記録の閉鎖等,0,2022-02-18,2022-02-15,沖正緑化建設株式会社,,株式会社,東京都,江戸川区,上篠崎４丁目２０番１８－１０２号,,13,123,1330054,,,2022-02-15,清算の結了等,,,2015-10-05,1,,,,,オキショウリョクカケンセツ,0
102,1040001017096,登記記録の閉鎖等,0,2022-02-18,2022-02-09,株式会社川渡建築,,株式会社,千葉県,船橋市,高野台１丁目９番１２号,,12,204,2740801,,,2022-02-09,清算の結了等,,,2015-10-05,1,,,,,カワタビケンチク,0
114,1040005010361,登記記録の閉鎖等,0,2022-02-18,2022-02-09,特定非営利活動法人ウィズ,,その他の設立登記法人,千葉県,大網白里市,駒込１２０１番地３,,12,239,2993235,,,2022-02-09,清算の結了等,,,2015-10-05,1,,,,,ウィズ,0
139,1120001058909,登記記録の閉鎖等,0,2022-02-18,2022-02-16,山三発条株式会社,,株式会社,大阪府,大阪市淀川区,田川北２丁目１番３３号,,27,123,5320021,,,2022-02-16,清算の結了等,,,2015-10-05,1,,,,,ヤマサンハツジョウ,0
158,1120102019181,登記記録の閉鎖等,0,2022-02-18,2022-02-16,有限会社衣笠商店,,有限会社,大阪府,羽曳野市,樫山１９２番地の１１,,27,222,5830875,,,2022-02-16,清算の結了等,,,2015-10-05,1,,,,,キヌガサショウテン,0
168,1140001003771,登記記録の閉鎖等,0,2022-02-18,2022-02-17,中村印刷株式会社,,株式会社,兵庫県,神戸市灘区,友田町３丁目２番３号,,28,102,6570035,,,2022-02-17,清算の結了等,,,2015-10-05,1,,,,,ナカムラインサツ,0
170,1140001029569,登記記録の閉鎖等,0,2022-02-18,2022-02-16,株式会社伸耀,,株式会社,兵庫県,神戸市東灘区,住吉南町５丁目１０番２６－２０１号,,28,101,6580041,,,2022-02-16,清算の結了等,,,2015-10-05,1,,,,,,0
176,1140002059169,登記記録の閉鎖等,0,2022-02-18,2022-02-16,有限会社ワイケージー,,有限会社,兵庫県,西宮市,山口町名来２丁目１４番３２号,,28,204,6511411,,,2022-02-16,清算の結了等,,,2015-10-05,1,,,,,ワイケージー,0
179,1140003014552,登記記録の閉鎖等,0,2022-02-18,2022-02-15,合同会社ａｒａｔａ,,合同会社,福島県,伊達市,保原町字宮下１７１番地１,,07,213,9600612,,,2022-02-15,清算の結了等,,,2019-12-24,1,,,,,アラタ,0
194,1180305003662,登記記録の閉鎖等,0,2022-02-18,2022-02-02,海音寺,,その他の設立登記法人,愛知県,豊川市,御津町広石船津３９番地,,23,207,4410321,,,2022-02-02,合併による解散等,5180305003758,令和４年２月２日愛知県豊川市御津町広石広国５８番地大正寺（5180305003758）に合併し解散,2015-10-05,1,,,,,カイオンジ,0
211,1250002015334,登記記録の閉鎖等,0,2022-02-18,2022-02-16,有限会社丸木商会,,有限会社,山口県,周南市,糀町１丁目４８番地,,35,215,7450027,,,2022-02-16,清算の結了等,,,2022-01-24,1,,,,,マルキショウカイ,0
213,1290001024489,登記記録の閉鎖等,0,2022-02-18,2022-02-07,興栄ホーム株式会社,,株式会社,福岡県,福岡市早良区,荒江３丁目１１番３３号,,40,137,8140021,,,2022-02-07,清算の結了等,,,2015-10-05,1,,,,,,0
214,1290001077314,登記記録の閉鎖等,0,2022-02-18,2022-02-16,株式会社エッセン,,株式会社,福岡県,福岡市早良区,小田部１丁目６－１７,,40,137,8140032,,,2022-02-16,清算の結了等,,,2017-04-05,1,,,,,エッセン,0
226,1300001009868,登記記録の閉鎖等,0,2022-02-18,2022-02-16,株式会社スチール・ラボラトリー,,株式会社,佐賀県,多久市,南多久町大字下多久４９７９番地１,,41,204,8460024,,,2022-02-16,清算の結了等,,,2015-10-05,1,,,,,スチールラボラトリー,0
229,1330001006152,登記記録の閉鎖等,0,2022-02-18,2022-02-17,アイテックプロダクト株式会社,,株式会社,熊本県,熊本市中央区,国府１丁目７番１１－１０２号,,43,101,8620949,,,2022-02-17,清算の結了等,,,2015-10-05,1,,,,,アイテックプロダクト,0
245,1370001012865,登記記録の閉鎖等,0,2022-02-18,2022-02-10,株式会社日三開発,,株式会社,宮城県,仙台市青葉区,一番町２丁目１１番１２号プレジデント一番町１１０７号,,04,101,9800811,,,2022-02-10,清算の結了等,,,2016-05-10,1,,,,,,0
255,1390001010710,登記記録の閉鎖等,0,2022-02-18,2022-02-16,株式会社ヤマニ商店,,株式会社,山形県,南陽市,郡山１０５９番地の９,,06,213,9992241,,,2022-02-16,清算の結了等,,,2015-10-05,1,,,,,ヤマニショウテン,0
258,1420001012141,登記記録の閉鎖等,0,2022-02-18,2022-02-15,株式会社南部農興,,株式会社,青森県,十和田市,東五番町７番１号,,02,206,0340033,,,2022-02-15,清算の結了等,,,2015-10-05,1,,,,,ナンブノウコウ,0
270,1470002013885,登記記録の閉鎖等,0,2022-02-18,2022-02-16,有限会社定清,,有限会社,香川県,丸亀市,綾歌町栗熊西１３３７番地１,,37,202,7612405,,,2022-02-16,清算の結了等,,,2015-10-05,1,,,,,テイキョウ,0
272,1470005003586,登記記録の閉鎖等,0,2022-02-18,2022-01-24,天理教白梅分教会,,その他の設立登記法人,香川県,坂出市,寿町１丁目２番３０号,,37,203,7620043,,,2022-01-24,合併による解散等,9470005003579,令和４年１月２４日香川県坂出市京町三丁目５番３０号天理教宇多梅分教会（9470005003579）に合併し解散,2015-10-05,1,,,,,テンリキョウハクバイブンキョウカイ,0
318,2011001016255,登記記録の閉鎖等,0,2022-02-18,2022-02-02,株式会社東京国際研究所,,株式会社,東京都,渋谷区,代々木２丁目３７番１５号の５１４,,13,113,1510053,,,2022-02-02,清算の結了等,,,2015-10-05,1,,,,,トウキョウコクサイケンキュウジョ,0
323,2011101085051,登記記録の閉鎖等,0,2022-02-18,2022-02-09,株式会社クリーンインサイト,,株式会社,沖縄県,那覇市,久茂地２丁目１４番１２号,,47,201,9000015,,,2022-02-09,清算の結了等,,,2018-08-10,1,,,,,クリーンインサイト,0
329,2011401017662,登記記録の閉鎖等,0,2022-02-18,2022-02-14,株式会社ハッピーケア,,株式会社,東京都,板橋区,本町４０番１０号,,13,119,1730001,,,2022-02-14,清算の結了等,,,2015-10-05,1,,,,,ハッピーケア,0
331,2011702014301,登記記録の閉鎖等,0,2022-02-18,2022-02-16,有限会社山田鋼業,,有限会社,東京都,江戸川区,松本２丁目２７番５号,,13,123,1330043,,,2022-02-16,清算の結了等,,,2015-10-05,1,,,,,,0
332,2011801000862,登記記録の閉鎖等,0,2022-02-18,2022-02-14,株式会社小野田工務店,,株式会社,東京都,葛飾区,西亀有４丁目１３番６号,,13,122,1250002,,,2022-02-14,清算の結了等,,,2020-09-17,1,,,,,オノダコウムテン,0
333,2011801011265,登記記録の閉鎖等,0,2022-02-18,2022-02-17,林技研工業株式会社,,株式会社,東京都,足立区,佐野２丁目２０番１１号,,13,121,1210053,,,2022-02-17,清算の結了等,,,2015-10-05,1,,,,,ハヤシギケンコウギョウ,0
336,2012401001202,登記記録の閉鎖等,0,2022-02-18,2022-02-15,株式会社ドンマイヤー,,株式会社,東京都,府中市,若松町２丁目８番地の１６,,13,206,1830005,,,2022-02-15,清算の結了等,,,2015-10-05,1,,,,,ドンマイヤー,0
381,2040001071324,登記記録の閉鎖等,0,2022-02-18,2022-02-08,瀧製＿株式会社,00019421,株式会社,千葉県,野田市,野田３１７番地,,12,208,2780037,,,2022-02-08,清算の結了等,,,2015-10-05,1,,,,,タキセイアン,0
399,2070001028742,登記記録の閉鎖等,0,2022-02-18,2022-02-17,株式会社みなみ,,株式会社,群馬県,前橋市,広瀬町３丁目１５番地４,,10,201,3710812,,,2022-02-17,清算の結了等,,,2015-10-05,1,,,,,,0
408,2080102015060,登記記録の閉鎖等,0,2022-02-18,2022-02-16,有限会社松永養鶏園,,有限会社,静岡県,富士市,富士見台１丁目５番地の７,,22,210,4170851,,,2022-02-16,清算の結了等,,,2015-10-05,1,,,,,マツナガヨウケイエン,0
409,2100002023524,登記記録の閉鎖等,0,2022-02-18,2022-02-16,有限会社ケルン商事,,有限会社,長野県,安曇野市,穂高有明３４９９番地７,,20,220,3998301,,,2022-02-16,清算の結了等,,,2015-10-05,1,,,,,ケルンショウジ,0
412,2110002003293,登記記録の閉鎖等,0,2022-02-18,2022-02-01,有限会社ジヤパン技研,,有限会社,新潟県,新潟市南区,北田中４９７番地１９,,15,106,9501237,,,2022-02-01,合併による解散等,4110001007500,令和４年２月１日新潟市南区北田中４９７番地１９ジャス株式会社（4110001007500）に合併し解散,2015-10-05,1,,,,,ジャパンギケン,0
446,2140002063806,登記記録の閉鎖等,0,2022-02-18,2022-02-16,有限会社中島工務店,,有限会社,兵庫県,伊丹市,東野７丁目２０番地,,28,207,6640004,,,2022-02-16,清算の結了等,,,2015-10-05,1,,,,,ナカジマコウムテン,0
456,2180001002001,登記記録の閉鎖等,0,2022-02-18,2022-02-16,サンエスリース株式会社,,株式会社,愛知県,名古屋市名東区,高社２丁目２４５番地,,23,115,4650095,,,2022-02-16,清算の結了等,,,2015-10-05,1,,,,,サンエスリース,0
488,2280005004017,登記記録の閉鎖等,0,2022-02-18,2022-02-15,江浜チップ工業協同組合,,その他の設立登記法人,島根県,浜田市,浅井町８８６番地３,,32,202,6970022,,,2022-02-15,清算の結了等,,,2015-10-05,1,,,,,コウヒンチップコウギョウ,0
561,3010002040321,登記記録の閉鎖等,0,2022-02-18,2022-02-16,有限会社ＹＴ商事,,有限会社,東京都,千代田区,西神田２丁目５番７号神田中央ビル,,13,101,1010065,,,2022-02-16,清算の結了等,,,2015-10-05,1,,,,,ワイティーショウジ,0
572,3010502012290,登記記録の閉鎖等,0,2022-02-18,2022-02-17,有限会社ルガール,,有限会社,東京都,台東区,千束４丁目３１番１号,,13,106,1110031,,,2022-02-17,清算の結了等,,,2015-10-05,1,,,,,ルガール,0
613,3013202011091,登記記録の閉鎖等,0,2022-02-18,2022-02-01,有限会社雲遊,,有限会社,東京都,目黒区,駒場４丁目３番８号,,13,110,1530041,,,2022-02-01,清算の結了等,,,2015-10-05,1,,,,,ウンユウ,0
644,3030001091462,登記記録の閉鎖等,0,2022-02-18,2022-02-15,株式会社秩父ゆめファーム,,株式会社,埼玉県,秩父市,蒔田２１３８番地２,,11,207,3680062,,,2022-02-15,清算の結了等,,,2015-10-05,1,,,,,チチブユメファーム,0
650,3030002001882,登記記録の閉鎖等,0,2022-02-18,2022-02-15,有限会社英,,有限会社,埼玉県,さいたま市浦和区,常盤１０丁目１８番７号,,11,107,3300061,,,2022-02-15,清算の結了等,,,2015-10-05,1,,,,,ハナブサ,0
652,3030002023150,登記記録の閉鎖等,0,2022-02-18,2022-02-15,有限会社ｅ－ｃａｎｖａｓ,,有限会社,埼玉県,さいたま市岩槻区,大字黒谷１０１７番地の３３,,11,110,3390033,,,2022-02-15,清算の結了等,,,2015-10-05,1,,,,,イーキャンバス,0
666,3070002012760,登記記録の閉鎖等,0,2022-02-18,2022-02-17,有限会社渡辺商店,,有限会社,群馬県,高崎市,倉渕町権田２２７番地の１,,10,202,3703401,,,2022-02-17,清算の結了等,,,2015-10-05,1,,,,,ワタナベショウテン,0
671,3090002005416,登記記録の閉鎖等,0,2022-02-18,2022-02-15,有限会社アロマ,,有限会社,山梨県,南アルプス市,上八田１４０番地１９,,19,208,4000215,,,2022-02-15,清算の結了等,,,2015-10-05,1,,,,,アロマ,0
676,3110005002688,登記記録の閉鎖等,0,2022-02-18,2022-02-16,特定非営利活動法人アクセシブルにいがた,,その他の設立登記法人,新潟県,新潟市西区,坂井９８６番地２,,15,107,9502042,,,2022-02-16,清算の結了等,,,2015-10-05,1,,,,,,0
693,3130001063253,登記記録の閉鎖等,0,2022-02-18,2022-02-16,株式会社ＴＯＭｋｉｔｃｈｅｎサービス,,株式会社,京都府,木津川市,梅美台３丁目２番地９,,26,214,6190215,,,2022-02-16,清算の結了等,,,2018-11-07,1,,,,,トムキッチンサービス,0
706,3150005008582,登記記録の閉鎖等,0,2022-02-18,2022-02-17,特定非営利活動法人らくらくお悩み鑑定室,,その他の設立登記法人,奈良県,北葛城郡広陵町,みささぎ台２５番６号,,29,426,6350835,,,2022-02-17,清算の結了等,,,2015-10-05,1,,,,,ラクラクオナヤミカンテイシツ,0
720,3230002001994,登記記録の閉鎖等,0,2022-02-18,2022-02-15,高瀬藥品有限会社,,有限会社,富山県,富山市,水橋町１１８３番地,,16,201,9390509,,,2022-02-15,清算の結了等,,,2015-10-05,1,,,,,,0
732,3290002007219,登記記録の閉鎖等,0,2022-02-18,2022-02-15,有限会社フィルド・バン,,有限会社,福岡県,那珂川市,中原３丁目２２番地,,40,231,8111213,,,2022-02-15,清算の結了等,,,2015-10-05,1,,,,,フィルドバン,0
747,3320005002114,登記記録の閉鎖等,0,2022-02-18,2022-02-17,特定非営利活動法人大分ライフセービングクラブ,,その他の設立登記法人,大分県,大分市,大字三芳３４６番地の１（パークサイド大みち町６丁目ヶ丘４０１）,,44,201,8700030,,,2022-02-17,清算の結了等,,,2015-10-05,1,,,,,オオイタライフセービングクラブ,0
752,3340002001331,登記記録の閉鎖等,0,2022-02-18,2022-02-16,市來オートガラス有限会社,,有限会社,鹿児島県,鹿児島市,宇宿２丁目２２番１５号,,46,201,8900073,,,2022-02-16,清算の結了等,,,2015-10-05,1,,,,,イチキオートガラス,0
771,3440002007863,登記記録の閉鎖等,0,2022-02-18,2022-02-17,有限会社スティックススポーツ,,有限会社,北海道,北斗市,東前１９番地の１,,01,236,0411214,,,2022-02-17,清算の結了等,,,2015-10-05,1,,,,,スティックススポーツ,0
774,3480005006636,登記記録の閉鎖等,0,2022-02-18,2022-02-14,特定非営利活動法人エランヴィタル,,その他の設立登記法人,徳島県,阿南市,日開野町九反ケ坪１１６番地８,,36,204,7740013,,,2022-02-14,清算の結了等,,,2018-03-23,1,,,,,エランヴィタル,0
778,4010001002684,登記記録の閉鎖等,0,2022-02-18,2022-02-09,株式会社高和堂,00049092,株式会社,東京都,豊島区,東池袋３丁目１番１号,,13,116,1700013,,,2022-02-09,合併による解散等,4010001200651,令和４年２月４日東京都豊島区東池袋三丁目１番１号株式会社高和堂（4010001200651）に合併し解散,2015-10-05,1,,,,,コウワドウ,0
780,4010001033028,登記記録の閉鎖等,0,2022-02-18,2022-02-01,日本給食サービス株式会社,,株式会社,東京都,中央区,築地５丁目５番１２号,,13,102,1040045,,,2022-02-01,合併による解散等,1013301006291,令和４年２月１日東京都中央区築地五丁目５番１２号コンパスグループ・ジャパン株式会社（1013301006291）に合併し解散,2015-10-05,1,,,,,ニホンキュウショクサービス,0
819,4010802013021,登記記録の閉鎖等,0,2022-02-18,2022-02-09,有限会社寳珠円,,有限会社,東京都,大田区,田園調布本町５６番１０号,,13,111,1450072,,,2022-02-09,清算の結了等,,,2015-10-05,1,,,,,ホウジュエン,0
820,4010901026700,登記記録の閉鎖等,0,2022-02-18,2022-02-16,株式会社ジャイビーム,,株式会社,東京都,世田谷区,松原２丁目２６番１３号１階１号室,,13,112,1560043,,,2022-02-16,清算の結了等,,,2015-10-05,1,,,,,ジャイビーム,0
827,4011001121474,登記記録の閉鎖等,0,2022-02-18,2022-01-31,Ｊｏｙｓｔｅｐ株式会社,,株式会社,東京都,渋谷区,宇田川町１６－８渋谷センタービル３階,,13,113,1500042,,,2022-01-31,清算の結了等,,,2018-04-04,1,,,,,ジョイステップ,0
844,4013301037722,登記記録の閉鎖等,0,2022-02-18,2022-02-01,コンパスグループ・ジャパンホールディングス株式会社,,株式会社,東京都,中央区,築地５丁目５番１２号,,13,102,1040045,,,2022-02-01,合併による解散等,1013301006291,令和４年２月１日東京都中央区築地五丁目５番１２号コンパスグループ・ジャパン株式会社（1013301006291）に合併し解散,2015-10-05,1,,,,,コンパスグループジャパンホールディングス,0
856,4020002063923,登記記録の閉鎖等,0,2022-02-18,2022-02-15,エコツーライトジャパン株式会社,,株式会社,神奈川県,横浜市中区,かもめ町６１番地１,,14,104,2310813,,,2022-02-15,清算の結了等,,,2015-10-05,1,,,,,エコツーライトジャパン,0
874,4040001062057,登記記録の閉鎖等,0,2022-02-18,2022-02-10,株式会社上総屋,,株式会社,千葉県,銚子市,笠上町３４０１番地の１,,12,202,2880004,,,2022-02-10,清算の結了等,,,2015-10-05,1,,,,,カズサヤ,0
879,4040001110162,登記記録の閉鎖等,0,2022-02-18,2022-02-10,株式会社ｂｉｚ,,株式会社,千葉県,千葉市中央区,富士見２丁目７番９号富士見ビル６０９号,,12,101,2600015,,,2022-02-10,清算の結了等,,,2019-07-26,1,,,,,ビズ,0
890,4050002044714,登記記録の閉鎖等,0,2022-02-18,2022-02-16,有限会社センダン,,有限会社,茨城県,結城市,大字結城１３６５１番地,,08,207,3070001,,,2022-02-16,清算の結了等,,,2015-10-05,1,,,,,センダン,0
902,4070002008378,登記記録の閉鎖等,0,2022-02-18,2022-02-17,有限会社相川鉄工所,,有限会社,群馬県,高崎市,上小鳥町４９３番地,,10,202,3700078,,,2022-02-17,清算の結了等,,,2015-10-05,1,,,,,,0
923,4120001083615,登記記録の閉鎖等,0,2022-02-18,2022-02-10,大丸土地株式会社,,株式会社,大阪府,大阪市中央区,安堂寺町１丁目６番４号,,27,128,5420061,,,2022-02-10,清算の結了等,,,2021-11-29,1,,,,,,0
931,4120001212594,登記記録の閉鎖等,0,2022-02-18,2022-02-16,株式会社ｎｅｘｔ－ｉ,,株式会社,大阪府,大阪市生野区,巽南３丁目１６番２号,00113047,27,116,5440015,,,2022-02-16,清算の結了等,,,2018-04-10,1,,,,,,0
960,4130005009094,登記記録の閉鎖等,0,2022-02-18,2022-02-03,天理教久本分教会,,その他の設立登記法人,京都府,京田辺市,薪山垣外１３番地,,26,211,6100341,,,2022-02-03,合併による解散等,2130005009096,令和４年２月３日京都府城陽市寺田新池２１番地の１天理教城久分教会（2130005009096）に合併し解散,2015-10-05,1,,,,,テンリキョウヒサモトブンキョウカイ,0
978,4180002047828,登記記録の閉鎖等,0,2022-02-18,2022-02-15,有限会社テンポ,,有限会社,愛知県,名古屋市瑞穂区,茨木町２６番八事茨木町パークマンション３０７,,23,108,4670045,,,2022-02-15,清算の結了等,,,2015-10-05,1,,,,,テンポ,0
980,4180002079739,登記記録の閉鎖等,0,2022-02-18,2022-02-10,有限会社伊藤商店,,有限会社,愛知県,一宮市,木曽川町里小牧字寺東１２８番地４,,23,203,4930005,,,2022-02-10,清算の結了等,,,2015-10-05,1,,,,,イトウショウテン,0
1027,4340002025973,登記記録の閉鎖等,0,2022-02-18,2022-02-10,有限会社東京飯店,,有限会社,鹿児島県,鹿屋市,寿３丁目１番９号,,46,203,8930014,,,2022-02-10,清算の結了等,,,2015-10-05,1,,,,,トウキョウハンテン,0
1041,4410001008105,登記記録の閉鎖等,0,2022-02-18,2022-02-14,株式会社六水六郷地方卸売市場,,株式会社,秋田県,仙北郡美郷町,六郷字熊野２０１番地の１,,05,434,0191404,,,2022-02-14,清算の結了等,,,2015-10-05,1,,,,,,0
1042,4430001022995,登記記録の閉鎖等,0,2022-02-18,2022-02-15,株式会社丸五トーア,,株式会社,北海道,札幌市北区,麻生町５丁目７番１８号,,01,102,0010045,,,2022-02-15,清算の結了等,,,2021-11-12,1,,,,,マルゴトーア,0
1067,5010401136718,登記記録の閉鎖等,0,2022-02-18,2022-02-14,Ｓｉｎａ　Ｃｏｍｉｃ株式会社,,株式会社,東京都,港区,赤坂３丁目２番６号,,13,103,1070052,,,2022-02-14,清算の結了等,,,2018-02-22,1,,,,,シナコミック,0
1090,5011101075421,登記記録の閉鎖等,0,2022-02-18,2022-02-10,株式会社クアーズ,,株式会社,東京都,新宿区,西新宿２丁目４番１号,,13,104,1600023,,,2022-02-10,合併による解散等,4180001046442,令和４年２月１日名古屋市名東区上社三丁目８０１番地ポールトゥウィン株式会社（4180001046442）に合併し解散,2015-12-16,1,,,,,クアーズ,0
1093,5011401003429,登記記録の閉鎖等,0,2022-02-18,2022-02-17,株式会社成広,,株式会社,東京都,板橋区,成増２丁目１９番６号,,13,119,1750094,,,2022-02-17,清算の結了等,,,2015-10-05,1,,,,,セイコウ,0
1117,5020001036994,登記記録の閉鎖等,0,2022-02-18,2022-02-14,株式会社スタイロジャパン神奈川,,株式会社,神奈川県,横浜市都筑区,川向町１１６０番地,,14,118,2240044,,,2022-02-14,清算の結了等,,,2015-10-05,1,,,,,スタイロジャパンカナガワ,0
1131,5021001041662,登記記録の閉鎖等,0,2022-02-18,2022-02-16,株式会社レコ,,株式会社,神奈川県,逗子市,桜山１丁目５番６号,,14,208,2490005,,,2022-02-16,清算の結了等,,,2015-10-05,1,,,,,レコ,0
1132,5021001042512,登記記録の閉鎖等,0,2022-02-18,2022-02-16,株式会社コミュニケーションバンク,,株式会社,神奈川県,三浦郡葉山町,堀内４８３番地の１－５０６,,14,301,2400112,,,2022-02-16,清算の結了等,,,2015-10-05,1,,,,,コミュニケーションバンク,0
1135,5021002021928,登記記録の閉鎖等,0,2022-02-18,2022-02-15,有限会社大正琴研究会,,有限会社,神奈川県,相模原市中央区,上矢部５丁目１番１３号,,14,152,2520201,,,2022-02-15,清算の結了等,,,2015-10-05,1,,,,,タイショウゴトケンキュウカイ,0
1140,5030001049434,登記記録の閉鎖等,0,2022-02-18,2022-02-14,株式会社ＭＫレインボー,,株式会社,埼玉県,朝霞市,宮戸３丁目５番１３号,,11,227,3510031,,,2022-02-14,清算の結了等,,,2015-10-05,1,,,,,エムケーレインボー,0
1144,5030001091320,登記記録の閉鎖等,0,2022-02-18,2022-02-15,北関東建機販売株式会社,,株式会社,埼玉県,秩父市,黒谷５３６番地１,,11,207,3680001,,,2022-02-15,清算の結了等,,,2015-10-05,1,,,,,キタカントウケンキハンバイ,0
1157,5040001053468,登記記録の閉鎖等,0,2022-02-18,2022-02-10,株式会社ａ．Ｆ．Ｐ,,株式会社,千葉県,木更津市,文京４丁目３番１８号,,12,206,2920804,,,2022-02-10,清算の結了等,,,2015-10-05,1,,,,,エーエフピー,0
1160,5050001006029,登記記録の閉鎖等,0,2022-02-18,2022-02-15,アクセス技術コンサルティング株式会社,,株式会社,茨城県,水戸市,双葉台２丁目４番地の８,,08,201,3114145,,,2022-02-15,清算の結了等,,,2015-10-05,1,,,,,アクセスギジュツコンサルティング,0
1163,5060001011738,登記記録の閉鎖等,0,2022-02-18,2022-02-15,株式会社イクスネット,,株式会社,栃木県,那須塩原市,上厚崎５５６番地６,,09,213,3250026,,,2022-02-15,清算の結了等,,,2015-10-05,1,,,,,イクスネット,0
1167,5070002024688,登記記録の閉鎖等,0,2022-02-18,2022-02-09,有限会社細野製作所,,有限会社,群馬県,桐生市,境野町６丁目４４１番地の２,,10,203,3760002,,,2022-02-09,清算の結了等,,,2022-02-03,1,,,,,,0
1169,5080103001486,登記記録の閉鎖等,0,2022-02-18,2022-02-16,合同会社白鵬商事,,合同会社,静岡県,御殿場市,北久原２１５番地の２,,22,215,4120004,,,2022-02-16,清算の結了等,,,2015-10-30,1,,,,,ハクホウショウジ,0
1170,5080401017143,登記記録の閉鎖等,0,2022-02-18,2022-02-16,大場元起食品株式会社,,株式会社,静岡県,袋井市,小山９４４番地,,22,216,4370056,,,2022-02-16,清算の結了等,,,2015-10-05,1,,,,,オオバゲンキショクヒン,0
1175,5110002001088,登記記録の閉鎖等,0,2022-02-18,2022-02-17,有限会社エイ・ジェイ・デンタル,,有限会社,新潟県,新潟市西区,真砂１丁目３番３１号,,15,107,9502074,,,2022-02-17,清算の結了等,,,2015-10-05,1,,,,,エイジェイデンタル,0
1181,5120001034187,登記記録の閉鎖等,0,2022-02-18,2022-02-14,株式会社阿部商店,,株式会社,大阪府,大阪市福島区,野田１丁目１番８６号大阪市中央卸売市場内,,27,103,5530005,,,2022-02-14,清算の結了等,,,2015-10-05,1,,,,,アベショウテン,0
1200,5120002041769,登記記録の閉鎖等,0,2022-02-18,2022-02-14,有限会社村川興業,,有限会社,大阪府,大阪市此花区,酉島５丁目１１番１１７号,,27,104,5540051,,,2022-02-14,清算の結了等,,,2015-10-05,1,,,,,,0
1207,5120901019238,登記記録の閉鎖等,0,2022-02-18,2022-02-17,株式会社浅沼食品,,株式会社,大阪府,茨木市,末広町４番２１０号,,27,211,5670821,,,2022-02-17,清算の結了等,,,2015-10-05,1,,,,,アサヌマショクヒン,0
1209,5122001004153,登記記録の閉鎖等,0,2022-02-18,2022-02-16,株式会社タイシン,,株式会社,大阪府,東大阪市,玉串町東３丁目５番３７号,,27,227,5780932,,,2022-02-16,清算の結了等,,,2015-10-05,1,,,,,タイシン,0
1215,5140001038087,登記記録の閉鎖等,0,2022-02-18,2022-02-16,株式会社シーアイエム,,株式会社,兵庫県,明石市,大久保町江井島８１１番地の１,,28,203,6740064,,,2022-02-16,清算の結了等,,,2015-10-05,1,,,,,シーアイエム,0
1234,5180002012707,登記記録の閉鎖等,0,2022-02-18,2022-02-15,有限会社水谷畳製作所,,有限会社,愛知県,名古屋市北区,清水５丁目２１番２４号,,23,103,4620844,,,2022-02-15,清算の結了等,,,2015-10-05,1,,,,,ミズタニタタミセイサクショ,0
1235,5180002016856,登記記録の閉鎖等,0,2022-02-18,2022-02-15,有限会社松城書店,,有限会社,愛知県,名古屋市東区,代官町１４番１５号,,23,102,4610002,,,2022-02-15,清算の結了等,,,2015-10-05,1,,,,,マツシロショテン,0
1272,5330002011008,登記記録の閉鎖等,0,2022-02-18,2022-02-17,有限会社憂興商会,,有限会社,熊本県,熊本市南区,近見８丁目１１番５８号,,43,104,8614101,,,2022-02-17,清算の結了等,,,2015-10-05,1,,,,,ユウコウショウカイ,0
1279,5340001017203,登記記録の閉鎖等,0,2022-02-18,2022-02-14,株式会社アンサー,,株式会社,鹿児島県,霧島市,牧園町宿窪田２７３８番地６９,,46,218,8996507,,,2022-02-14,清算の結了等,,,2015-10-05,1,,,,,アンサー,0
1280,5340002000819,登記記録の閉鎖等,0,2022-02-18,2022-02-16,有限会社青山美容室,,有限会社,鹿児島県,鹿児島市,東千石町９番２号,,46,201,8920842,,,2022-02-16,清算の結了等,,,2015-10-05,1,,,,,アオヤマビヨウシツ,0
1317,6010403024531,登記記録の閉鎖等,0,2022-02-18,2022-02-15,ＴＡＰ　ＥＭＯ合同会社,,合同会社,東京都,港区,南青山２丁目２番１５号,,13,103,1070062,,,2022-02-15,清算の結了等,,,2021-01-25,1,,,,,タップエモ,0
1344,6011002032784,登記記録の閉鎖等,0,2022-02-18,2022-01-31,有限会社ｃｌｏａｋｌｅｓｓ,,有限会社,東京都,渋谷区,神宮前３丁目３４番６号Ｈ．Ｉ．Ｐビル１Ｆ,,13,113,1500001,,,2022-01-31,清算の結了等,,,2015-10-05,1,,,,,クロークレス,0
1362,6011801002500,登記記録の閉鎖等,0,2022-02-18,2022-02-17,株式会社総合抜型,,株式会社,東京都,葛飾区,青戸４丁目８番７号,,13,122,1250062,,,2022-02-17,清算の結了等,,,2015-10-05,1,,,,,,0
1367,6012403002244,登記記録の閉鎖等,0,2022-02-18,2022-02-15,合同会社桜,,合同会社,東京都,三鷹市,牟礼３丁目１１番２５号,,13,204,1810002,,,2022-02-15,清算の結了等,,,2015-10-05,1,,,,,サクラ,0
1383,6021001033130,登記記録の閉鎖等,0,2022-02-18,2022-02-16,双葉林業株式会社,,株式会社,神奈川県,小田原市,本町４丁目５番３９号,,14,206,2500012,,,2022-02-16,清算の結了等,,,2015-10-05,1,,,,,フタバリンギョウ,0
1404,6050002015168,登記記録の閉鎖等,0,2022-02-18,2022-02-16,有限会社クローバー,,有限会社,茨城県,小美玉市,川戸１４４９番地２６３,,08,236,3113412,,,2022-02-16,清算の結了等,,,2015-10-05,1,,,,,,0
1406,6050002038739,登記記録の閉鎖等,0,2022-02-18,2022-02-16,有限会社ＳＴＭ,,有限会社,茨城県,取手市,新町３丁目甲３７２番地３,,08,217,3020024,,,2022-02-16,清算の結了等,,,2015-10-05,1,,,,,エスティエム,0
1429,6120001233944,登記記録の閉鎖等,0,2022-02-18,2022-02-15,株式会社ＷＳＪ,,株式会社,大阪府,大阪市西区,北堀江２丁目１７番１５号,,27,106,5500014,,,2022-02-15,清算の結了等,,,2020-12-17,1,,,,,ダブルエスジェイ,0
1435,6120101021217,登記記録の閉鎖等,0,2022-02-18,2022-02-16,株式会社大和産業,,株式会社,大阪府,堺市堺区,中安井町３丁４番１１号,,27,141,5900063,,,2022-02-16,清算の結了等,,,2015-10-05,1,,,,,ダイワサンギョウ,0
1441,6120901008223,登記記録の閉鎖等,0,2022-02-18,2022-02-16,株式会社プラザ・エイ,,株式会社,兵庫県,神戸市北区,藤原台中町７丁目８番７号,,28,109,6511302,,,2022-02-16,清算の結了等,,,2015-10-05,1,,,,,プラザエイ,0
1447,6140001055197,登記記録の閉鎖等,0,2022-02-18,2022-02-16,株式会社Ｉｚｏｘ,,株式会社,兵庫県,尼崎市,西立花町２丁目３１番２０号,,28,202,6600054,,,2022-02-16,清算の結了等,,,2015-10-05,1,,,,,,0
1450,6140001088528,登記記録の閉鎖等,0,2022-02-18,2022-02-16,株式会社ワンシード,,株式会社,兵庫県,神戸市北区,大原３丁目２０－８,,28,109,6511222,,,2022-02-16,清算の結了等,,,2015-10-05,1,,,,,ワンシード,0
1470,6180001143072,登記記録の閉鎖等,0,2022-02-18,2022-02-14,株式会社ＳＰＥ,,株式会社,愛知県,小牧市,応時３丁目３１５番地１クレール１０３号,,23,219,4850832,,,2022-02-14,清算の結了等,,,2020-10-12,1,,,,,エスピーイー,0
1480,6180302020771,登記記録の閉鎖等,0,2022-02-18,2022-02-17,有限会社藤原商店,,有限会社,愛知県,刈谷市,一ツ木町６丁目１２番地４,,23,210,4480003,,,2022-02-17,清算の結了等,,,2015-10-05,1,,,,,フジワラショウテン,0
1491,6220005000703,登記記録の閉鎖等,0,2022-02-18,2022-02-02,天理教加賀分教会,,その他の設立登記法人,石川県,金沢市,山の上町４０番３号,,17,201,9200816,,,2022-02-02,合併による解散等,2210005001160,令和４年２月１日福井市河増町第９号４番地の１天理教越前福井分教会（2210005001160）に合併し解散,2015-10-05,1,,,,,,0
1503,6270001005321,登記記録の閉鎖等,0,2022-02-18,2022-02-02,株式会社物流センター東伯,,株式会社,鳥取県,東伯郡琴浦町,大字徳万７３１番地,,31,371,6892303,,,2022-02-02,合併による解散等,2270001005309,令和４年２月１日鳥取県東伯郡琴浦町大字徳万７３１番地株式会社ヘイセイ（2270001005309）に合併し解散,2015-10-05,1,,,,,ブツリュウセンタートウハク,0
1525,6300002008575,登記記録の閉鎖等,0,2022-02-18,2022-02-16,有限会社南洋服店,,有限会社,佐賀県,西松浦郡有田町,外尾町丙１４７９番地２２,,41,401,8440026,,,2022-02-16,清算の結了等,,,2015-10-05,1,,,,,ミナミヨウフクテン,0
1541,6360003010574,登記記録の閉鎖等,0,2022-02-18,2022-02-16,合同会社シーバイエス,,合同会社,沖縄県,那覇市,久米１丁目４番２２号―４０３,,47,201,9000033,,,2022-02-16,清算の結了等,,,2020-09-29,1,,,,,シーバイエス,0
1542,6370001024154,登記記録の閉鎖等,0,2022-02-18,2022-02-15,株式会社福耳,,株式会社,宮城県,仙台市青葉区,上杉１丁目６番１０号仙台北辰ビルディング,,04,101,9800011,,,2022-02-15,清算の結了等,,,2015-10-05,1,,,,,フクミミ,0
1550,6440003000105,登記記録の閉鎖等,0,2022-02-18,2022-02-17,小山内合名会社,,合名会社,北海道,函館市,五稜郭町４２番９－３０１号,,01,202,0400001,,,2022-02-17,清算の結了等,,,2015-10-05,1,,,,,オサナイ,0
1553,6470002008393,登記記録の閉鎖等,0,2022-02-18,2022-02-16,有限会社ケンキッズ,,有限会社,香川県,高松市,太田下町３０３１番地１,,37,201,7618073,,,2022-02-16,清算の結了等,,,2015-10-05,1,,,,,ケンキッズ,0
1567,7010401014574,登記記録の閉鎖等,0,2022-02-18,2022-02-14,信和建物株式会社,,株式会社,東京都,港区,虎ノ門２丁目９番１１号,,13,103,1050001,,,2022-02-14,清算の結了等,,,2015-10-05,1,,,,,シンワタテモノ,0
1571,7010401119927,登記記録の閉鎖等,0,2022-02-18,2022-02-14,株式会社Ｎ２Ｌａｂ,,株式会社,東京都,港区,六本木４丁目２番３５号アーバンスタイル六本木三河台２Ｆ,,13,103,1060032,,,2022-02-14,清算の結了等,,,2015-10-05,1,,,,,エヌツーラボ,0
1586,7010601042350,登記記録の閉鎖等,0,2022-02-18,2022-02-01,株式会社協和サービス,,株式会社,東京都,江東区,深川１丁目１番２－１３０１号,,13,108,1350033,,,2022-02-01,清算の結了等,,,2015-10-05,1,,,,,キョウワサービス,0
1592,7010603007954,登記記録の閉鎖等,0,2022-02-18,2022-02-14,合資会社尾州屋,,合資会社,東京都,墨田区,寺島町一丁目２３番地,,13,107,1300000,,,2022-02-14,清算の結了等,,,2019-08-21,1,,,,,ビシュウヤ,0
1599,7011001068119,登記記録の閉鎖等,0,2022-02-18,2022-02-02,株式会社タックコーポレイション,,株式会社,東京都,渋谷区,恵比寿西２丁目１１番４号ＪＰＣマンション恵比寿３０２,,13,113,1500021,,,2022-02-02,清算の結了等,,,2015-10-05,1,,,,,タックコーポレイション,0
1606,7011001134911,登記記録の閉鎖等,0,2022-02-18,2022-02-02,株式会社ＢＩＬＤ,,株式会社,東京都,渋谷区,千駄ヶ谷３丁目５４番１１号コア原宿３Ｆ,,13,113,1510051,,,2022-02-02,合併による解散等,8011001131214,令和３年１２月２４日東京都渋谷区千駄ヶ谷四丁目１４番３号ＷＷビル２Ｆ株式会社ＢＯＬＤ（8011001131214）に合併し解散,2020-07-22,1,,,,,ビルド,0
1636,7013301020519,登記記録の閉鎖等,0,2022-02-18,2022-02-01,ユーレストジャパン株式会社,,株式会社,東京都,中央区,築地５丁目５番１２号,,13,102,1040045,,,2022-02-01,合併による解散等,1013301006291,令和４年２月１日東京都中央区築地五丁目５番１２号コンパスグループ・ジャパン株式会社（1013301006291）に合併し解散,2015-10-05,1,,,,,ユーレストジャパン,0
1644,7020002082391,登記記録の閉鎖等,0,2022-02-18,2022-02-15,有限会社アルフアデンタルラボ,,有限会社,神奈川県,川崎市高津区,千年４６７番地１２,,14,134,2130022,,,2022-02-15,清算の結了等,,,2015-10-05,1,,,,,アルフアデンタルラボ,0
1651,7021002011753,登記記録の閉鎖等,0,2022-02-18,2022-02-10,有限会社日豊産業,,有限会社,神奈川県,茅ヶ崎市,中島１３７９番地２ベルパーク湘南茅ヶ崎Ｂ館２０８,,14,207,2530073,,,2022-02-10,清算の結了等,,,2015-10-05,1,,,,,ニッポウサンギョウ,0
1677,7050002017163,登記記録の閉鎖等,0,2022-02-18,2022-02-07,サンホームコンポーネント有限会社,,有限会社,茨城県,下妻市,鎌庭２０５２番地の４１,,08,210,3040819,,,2022-02-07,合併による解散等,7050001013411,令和４年２月１日茨城県下妻市下栗１０６９番地１フジクラフト株式会社（7050001013411）に合併し解散,2015-10-05,1,,,,,サンホームコンポーネント,0
1678,7050002037384,登記記録の閉鎖等,0,2022-02-18,2022-02-14,有限会社千葉工務店,,有限会社,茨城県,取手市,藤代南１丁目５番地１５,,08,217,3001516,,,2022-02-14,清算の結了等,,,2015-10-05,1,,,,,チバコウムテン,0
1684,7080402003850,登記記録の閉鎖等,0,2022-02-18,2022-02-17,有限会社ジャンプ,,有限会社,静岡県,浜松市北区,初生町８５５番地の２,,22,135,4338112,,,2022-02-17,清算の結了等,,,2015-10-05,1,,,,,,0
1695,7120001084081,登記記録の閉鎖等,0,2022-02-18,2022-02-16,株式会社達栄,,株式会社,大阪府,大阪市中央区,本町橋２番２３号,,27,128,5400029,,,2022-02-16,清算の結了等,,,2015-10-05,1,,,,,タツエイ,0
1707,7120101057598,登記記録の閉鎖等,0,2022-02-18,2022-02-16,光工業株式会社,,株式会社,大阪府,堺市東区,高松３番地１１,,27,143,5998121,,,2022-02-16,清算の結了等,,,2018-01-05,1,,,,,ヒカリコウギョウ,0
1712,7120901035209,登記記録の閉鎖等,0,2022-02-18,2022-02-16,株式会社ジャブスリー,,株式会社,大阪府,吹田市,藤白台１丁目２番Ｄ３４－３０６号,,27,205,5650873,,,2022-02-16,清算の結了等,,,2015-10-05,1,,,,,,0
1716,7130001044638,登記記録の閉鎖等,0,2022-02-18,2022-02-16,株式会社Ｇ－ａｓｓｉｓｔ,,株式会社,滋賀県,大津市,湖城が丘１２番１－３１９号,,25,201,5200821,,,2022-02-16,清算の結了等,,,2015-10-05,1,,,,,ジーアシスト,0
1726,7140005015171,登記記録の閉鎖等,0,2022-02-18,2022-02-09,特定非営利活動法人はりま八十八寄席,,その他の設立登記法人,兵庫県,姫路市,南駅前町９１番６,,28,201,6700962,,,2022-02-09,清算の結了等,,,2015-10-05,1,,,,,ハリマヤソハチヨセ,0
1734,7180001065258,登記記録の閉鎖等,0,2022-02-18,2022-02-15,アクワイア株式会社,,株式会社,愛知県,名古屋市中川区,富田町大字千音寺字東五反田１６６７番地,,23,110,4540971,,,2022-02-15,清算の結了等,,,2015-10-05,1,,,,,アクワイア,0
1739,7180002089677,登記記録の閉鎖等,0,2022-02-18,2022-02-16,株式会社松屋ホールディングス,,株式会社,愛知県,海部郡蟹江町,城３丁目４８３番地,,23,425,4970040,,,2022-02-16,清算の結了等,,,2015-10-05,1,,,,,マツヤホールディングス,0
1746,7230003001107,登記記録の閉鎖等,0,2022-02-18,2022-02-15,合同会社タケウチクラフト,,合同会社,富山県,高岡市,戸出町４丁目３番２８号大阪屋ショップ戸出店２階,,16,202,9391104,,,2022-02-15,清算の結了等,,,2017-04-11,1,,,,,タケウチクラフト,0
1754,7240002036581,登記記録の閉鎖等,0,2022-02-18,2022-02-16,有限会社三共重機,,有限会社,広島県,廿日市市,串戸１丁目１番１号,,34,213,7380033,,,2022-02-16,清算の結了等,,,2015-10-05,1,,,,,サンキョウジュウキ,0
1781,7300002000176,登記記録の閉鎖等,0,2022-02-18,2022-02-16,有限会社江副商事,,有限会社,佐賀県,佐賀市,高木瀬西４丁目１０番３４号,,41,201,8490921,,,2022-02-16,清算の結了等,,,2015-10-05,1,,,,,エゾエショウジ,0
1793,7370001003669,登記記録の閉鎖等,0,2022-02-18,2022-02-14,東通エキスパート株式会社,,株式会社,宮城県,仙台市若林区,卸町２丁目１１番地の５,,04,103,9840015,,,2022-02-14,合併による解散等,2370001003657,令和４年２月１日仙台市若林区卸町二丁目１１番地の５東通インテグレート株式会社（2370001003657）に合併し解散,2015-10-05,1,,,,,トウツウエキスパート,0
1813,7430001057642,登記記録の閉鎖等,0,2022-02-18,2022-02-10,株式会社勝和観光,,株式会社,北海道,有珠郡壮瞥町,字昭和新山１８４番地６,,01,575,0520102,,,2022-02-10,清算の結了等,,,2015-10-05,1,,,,,ショウワカンコウ,0
1824,7500005005598,登記記録の閉鎖等,0,2022-02-18,2022-02-16,愛媛県繊維縫製品協同組合,,その他の設立登記法人,愛媛県,今治市,松木２３３番地１,,38,202,7991513,,,2022-02-16,清算の結了等,,,2015-10-05,1,,,,,エヒメケンセンイホウセイヒン,0
1829,8010001020451,登記記録の閉鎖等,0,2022-02-18,2022-02-17,株式会社スノウ,,株式会社,東京都,千代田区,内神田１丁目９番１２号,,13,101,1010047,,,2022-02-17,清算の結了等,,,2015-10-05,1,,,,,スノウ,0
1836,8010005013823,登記記録の閉鎖等,0,2022-02-18,2022-02-16,一般社団法人江戸文化歴史検定協会,,その他の設立登記法人,東京都,千代田区,一ツ橋２丁目４番１号,,13,101,1010003,,,2022-02-16,清算の結了等,,,2015-10-05,1,,,,,エドブンカレキシケンテイキョウカイ,0
1837,8010005026734,登記記録の閉鎖等,0,2022-02-18,2022-02-15,一般社団法人助成金人事労務支援協会,,その他の設立登記法人,静岡県,浜松市西区,湖東町１１６９番地の２６,,22,133,4311103,,,2022-02-15,清算の結了等,,,2017-04-19,1,,,,,ジョセイキンジンジロウムシエンキョウカイ,0
1895,8013301019510,登記記録の閉鎖等,0,2022-02-18,2022-02-09,株式会社高橋ホールディングス,,株式会社,東京都,豊島区,東池袋３丁目１番１号,,13,116,1700013,,,2022-02-09,合併による解散等,3013301047482,令和４年１月３１日東京都豊島区東池袋三丁目１番１号株式会社Ｔ＆Ｗオフィス（3013301047482）に合併し解散,2015-10-05,1,,,,,タカハシホールディングス,0
1896,8013301031119,登記記録の閉鎖等,0,2022-02-18,2022-02-01,エムエフエス株式会社,,株式会社,東京都,中央区,築地５丁目５番１２号,,13,102,1040045,,,2022-02-01,合併による解散等,1013301006291,令和４年２月１日東京都中央区築地五丁目５番１２号コンパスグループ・ジャパン株式会社（1013301006291）に合併し解散,2015-10-05,1,,,,,エムエフエス,0
1900,8013301046125,登記記録の閉鎖等,0,2022-02-18,2022-02-07,株式会社Ａｉｍ　Ｈｉｇｈ,,株式会社,東京都,豊島区,南池袋１丁目９－１８、１４５号室,,13,116,1710022,,,2022-02-07,清算の結了等,,,2020-08-25,1,,,,,エイムハイ,0
1925,8021003005984,登記記録の閉鎖等,0,2022-02-18,2022-02-17,合同会社テルヴェ,,合同会社,神奈川県,藤沢市,片瀬３丁目１０番１６号ナチュレ片瀬海岸２０３,,14,205,2510032,,,2022-02-17,清算の結了等,,,2016-05-12,1,,,,,テルヴェ,0
1945,8040002046658,登記記録の閉鎖等,0,2022-02-18,2022-02-10,有限会社スタジオ大滝,,有限会社,千葉県,松戸市,新松戸３丁目４０番地,,12,207,2700034,,,2022-02-10,清算の結了等,,,2015-10-05,1,,,,,スタジオオオタキ,0
1946,8040002047227,登記記録の閉鎖等,0,2022-02-18,2022-02-08,有限会社つづきチャイナセンター,,有限会社,千葉県,松戸市,三矢小台５丁目２２番地２４,,12,207,2710087,,,2022-02-08,清算の結了等,,,2015-10-05,1,,,,,ツヅキチャイナセンター,0
1948,8050001008617,登記記録の閉鎖等,0,2022-02-18,2022-02-16,家ブレス工房株式会社,,株式会社,茨城県,水戸市,川又町４１０番地６,,08,201,3111112,,,2022-02-16,清算の結了等,,,2015-10-05,1,,,,,イエブレスコウボウ,0
1959,8090002015402,登記記録の閉鎖等,0,2022-02-18,2022-02-15,有限会社パル,,有限会社,山梨県,南巨摩郡南部町,福士４５９９番地,,19,366,4092102,,,2022-02-15,清算の結了等,,,2015-10-05,1,,,,,パル,0
1967,8110001036355,登記記録の閉鎖等,0,2022-02-18,2022-02-16,新潟住宅販売株式会社,,株式会社,新潟県,新潟市中央区,学校町通１番町１２番地,,15,103,9518126,,,2022-02-16,清算の結了等,,,2022-01-18,1,,,,,ニイガタジュウタクハンバイ,0
1996,8120005000422,登記記録の閉鎖等,0,2022-02-18,2022-02-04,天理教萩野分教会,,その他の設立登記法人,大阪府,大阪市西成区,萩之茶屋２丁目８番１７号,,27,122,5570004,,,2022-02-04,合併による解散等,9470005003579,令和４年１月２４日香川県坂出市京町三丁目５番３０号天理教宇多梅分教会（9470005003579）に合併し解散,2015-10-05,1,,,,,,0
2014,8160003001906,登記記録の閉鎖等,0,2022-02-18,2022-02-15,合同会社バトン,,合同会社,滋賀県,草津市,東矢倉１丁目１６番１号,,25,206,5250054,,,2022-02-15,清算の結了等,,,2019-09-05,1,,,,,バトン,0
2033,8250002019535,登記記録の閉鎖等,0,2022-02-18,2022-02-10,有限会社アイ・ソーシャルサポート,,有限会社,山口県,岩国市,玖珂町４９３６番地の１１,,35,208,7420344,,,2022-02-10,清算の結了等,,,2015-10-05,1,,,,,アイソーシャルサポート,0
2049,8310002013837,登記記録の閉鎖等,0,2022-02-18,2022-02-16,有限会社ファミリーショップはまだ,,有限会社,長崎県,佐世保市,宇久町平２４８１番地１,,42,202,8574901,,,2022-02-16,清算の結了等,,,2015-10-05,1,,,,,ファミリーショップハマダ,0
2067,8360001000476,登記記録の閉鎖等,0,2022-02-18,2022-02-03,沖縄フォーサイト株式会社,,株式会社,沖縄県,那覇市,前島３丁目１番１５号,,47,201,9000016,,,2022-02-03,合併による解散等,5290001010106,令和４年２月１日福岡市中央区長浜一丁目４番６号フォーサイトシステム株式会社（5290001010106）に合併し解散,2015-10-05,1,,,,,オキナワフォーサイト,0
2077,8380001000061,登記記録の閉鎖等,0,2022-02-18,2022-02-16,株式会社アスコットジャパン,,株式会社,福島県,福島市,伏拝字沼ノ上２番地の５３２,,07,201,9608154,,,2022-02-16,清算の結了等,,,2015-10-05,1,,,,,アスコットジャパン,0
2085,8420002006598,登記記録の閉鎖等,0,2022-02-18,2022-02-16,有限会社片子沢印刷所,,有限会社,青森県,八戸市,大字常番町１２番地,,02,203,0310047,,,2022-02-16,清算の結了等,,,2015-10-05,1,,,,,カタコザワインサツジョ,0
2087,8430002015912,登記記録の閉鎖等,0,2022-02-18,2022-02-16,有限会社八大,,有限会社,北海道,札幌市豊平区,美園一条６丁目３番６号,,01,105,0620001,,,2022-02-16,清算の結了等,,,2015-10-05,1,,,,,ハチダイ,0
2094,8470002018408,登記記録の閉鎖等,0,2022-02-18,2022-02-17,有限会社三美,,有限会社,香川県,東かがわ市,帰来５３８番地２,,37,207,7692704,,,2022-02-17,清算の結了等,,,2015-10-05,1,,,,,サンビ,0
2100,8500002017364,登記記録の閉鎖等,0,2022-02-18,2022-02-15,有限会社米谷電気商会,,有限会社,愛媛県,新居浜市,松木町１番１５号,,38,205,7920829,,,2022-02-15,清算の結了等,,,2015-10-05,1,,,,,,0
2107,9010003033392,登記記録の閉鎖等,0,2022-02-18,2022-02-15,８８８合同会社,,合同会社,東京都,中央区,新富１丁目１７番６号,,13,102,1040041,,,2022-02-15,清算の結了等,,,2020-10-29,1,,,,,ハチミツ,0
2127,9010802012753,登記記録の閉鎖等,0,2022-02-18,2022-02-07,有限会社プレジール,,有限会社,東京都,大田区,南雪谷４丁目２番１２号,,13,111,1450066,,,2022-02-07,合併による解散等,1470001001073,令和４年２月１日東京都大田区南雪谷四丁目２番１２号春日商事株式会社（1470001001073）に合併し解散,2015-10-05,1,,,,,,0
2211,9040001106528,登記記録の閉鎖等,0,2022-02-18,2022-02-10,無限アルファー株式会社,,株式会社,千葉県,袖ケ浦市,のぞみ野３５番地１３,,12,229,2990251,,,2022-02-10,清算の結了等,,,2018-10-17,1,,,,,ムゲンアルファー,0
2224,9050002044569,登記記録の閉鎖等,0,2022-02-18,2022-02-15,有限会社小林商事,,有限会社,茨城県,結城市,大字小森１３４４番地の１,,08,207,3070011,,,2022-02-15,清算の結了等,,,2015-10-05,1,,,,,コバヤシショウジ,0
2225,9060001009183,登記記録の閉鎖等,0,2022-02-18,2022-02-15,日本環境設備株式会社,,株式会社,栃木県,下都賀郡壬生町,緑町１丁目１９番１号,,09,361,3210204,,,2022-02-15,清算の結了等,,,2015-10-05,1,,,,,,0
2227,9060002028166,登記記録の閉鎖等,0,2022-02-18,2022-02-16,有限会社亀和,,有限会社,栃木県,小山市,大字喜沢１１７１番地１,,09,208,3230014,,,2022-02-16,清算の結了等,,,2015-10-05,1,,,,,カメワ,0
2233,9110001010128,登記記録の閉鎖等,0,2022-02-18,2022-02-15,株式会社ニイガタトータル企画,,株式会社,新潟県,新潟市秋葉区,柄目木１０５１番地２,,15,105,9560852,,,2022-02-15,清算の結了等,,,2015-10-05,1,,,,,ニイガタトータルキカク,0
2234,9110002034919,登記記録の閉鎖等,0,2022-02-18,2022-02-10,有限会社森田組,,有限会社,新潟県,佐渡市,北鵜島４７１番地３,,15,224,9523202,,,2022-02-10,清算の結了等,,,2015-10-05,1,,,,,モリタグミ,0
2242,9120001059107,登記記録の閉鎖等,0,2022-02-18,2022-02-16,株式会社ラ・フロンテ,,株式会社,大阪府,大阪市淀川区,宮原５丁目６－３ニュー大阪ハイツ６０２号,,27,123,5320003,,,2022-02-16,清算の結了等,,,2015-10-05,1,,,,,ラフロンテ,0
2273,9140005001236,登記記録の閉鎖等,0,2022-02-18,2022-02-01,天理教神須磨分教会,,その他の設立登記法人,兵庫県,神戸市須磨区,妙法寺字寺界地９６番地１,,28,107,6540121,,,2022-02-01,合併による解散等,9140005019708,令和４年２月１日兵庫県淡路市久留麻１９６６番地の１天理教淡東分教会（9140005019708）に合併し解散,2015-10-05,1,,,,,テンリキョウカミスマブンキョウカイ,0
2275,9140005015194,登記記録の閉鎖等,0,2022-02-18,2022-02-17,特定非営利活動法人姫路インターナショナルスクール,,その他の設立登記法人,兵庫県,赤穂郡上郡町,光都３丁目５番１号,,28,481,6781205,,,2022-02-17,清算の結了等,,,2015-10-05,1,,,,,,0
2292,9180305009017,登記記録の閉鎖等,0,2022-02-18,2022-02-07,一般社団法人企業ファミリア推進協会,,その他の設立登記法人,愛知県,刈谷市,一里山町金山９番地１,,23,210,4480002,,,2022-02-07,清算の結了等,,,2020-02-10,1,,,,,キギョウファミリアスイシンキョウカイ,0
2337,9340005002065,登記記録の閉鎖等,0,2022-02-18,2022-02-01,社会福祉法人佑心会,,その他の設立登記法人,鹿児島県,日置市,吹上町小野１４８２番地１,,46,216,8993306,,,2022-02-01,合併による解散等,3340005002038,令和４年２月１日鹿児島県日置市東市来町伊作田７０７８番地１社会福祉法人恵里会（3340005002038）に合併し解散,2015-10-05,1,,,,,ユウシンカイ,0
2350,9430002056823,登記記録の閉鎖等,0,2022-02-18,2022-02-16,有限会社北嶋建設工業,,有限会社,北海道,小樽市,天神１丁目６番１１号,,01,203,0470011,,,2022-02-16,清算の結了等,,,2015-10-05,1,,,,,キタジマケンセツコウギョウ,0
