sequenceNumber,corporateNumber,process,correct,updateDate,changeDate,name,nameImageId,kind,prefectureName,cityName,streetNumber,addressImageId,prefectureCode,cityCode,postCode,addressOutside,addressOutsideImageId,closeDate,closeCause,successorCorporateNumber,changeCause,assignmentDate,latest,enName,enPrefectureName,enCityName,enAddressOutside,furigana,hihyoji
12,1010001258932,新規,0,2025-10-01,2025-10-01,株式会社ＮＵＡＮＣＥ,,株式会社,東京都,中央区,日本橋堀留町１丁目７番１１号八光ビル２階,,13,102,1030012,,,,,,,2025-10-01,1,,,,,ニュアンス,0
16,1010005040725,新規,0,2025-10-01,2025-10-01,一般社団法人ＣＳ‐１,,その他の設立登記法人,東京都,千代田区,霞が関３丁目２番５号,,13,101,1000013,,,,,,,2025-10-01,1,,,,,シーエスワン,0
17,1010101016884,新規,0,2025-10-01,2025-10-01,株式会社ＲＯＫＡＴＡ　Ｃｏｎｓｕｌｔｉｎｇ,,株式会社,東京都,八王子市,寺町４８番地ＴＩＫＳ１－１００１号,,13,201,1920073,,,,,,,2025-10-01,1,,,,,ロカタコンサルティング,0
19,1010401193374,新規,0,2025-10-01,2025-10-01,株式会社ＤＬＰ　ＪＡＰＡＮ,,株式会社,東京都,港区,虎ノ門４丁目２－３トーセイビル６Ｆ,,13,103,1050001,,,,,,,2025-10-01,1,,,,,ディーエルピージャパン,0
20,1010401193399,新規,0,2025-10-01,2025-10-01,株式会社Ｔｏｋｙｏ　Ｈｅａｌｔｈ　Ｃｏｎｃｉｅｒｇｅ,,株式会社,東京都,港区,北青山１丁目３番１号アールキューブ青山３Ｆ,,13,103,1070061,,,,,,,2025-10-01,1,,,,,トウキョウヘルスコンシェルジュ,0
30,1010701048369,新規,0,2025-10-01,2025-10-01,株式会社美奨,,株式会社,東京都,品川区,八潮５丁目１２番６８－６１５号,,13,109,1400003,,,,,,,2025-10-01,1,,,,,ビショウ,0
31,1010701048377,新規,0,2025-10-01,2025-10-01,株式会社ＭＡＲＯ,,株式会社,東京都,品川区,西五反田１丁目２６－２五反田サンハイツ９１１,,13,109,1410031,,,,,,,2025-10-01,1,,,,,マロ,0
32,1010801036637,新規,0,2025-10-01,2025-10-01,クロステック・イノベーション株式会社,,株式会社,東京都,大田区,西蒲田７丁目４－４小山第二ビル６階,,13,111,1440051,,,,,,,2025-10-01,1,,,,,クロステックイノベーション,0
33,1010803005557,新規,0,2025-10-01,2025-10-01,Ｗｅｌｌｓｅｙ合同会社,,合同会社,東京都,大田区,東雪谷４丁目２１－１６,,13,111,1450065,,,,,,,2025-10-01,1,,,,,ウェルジー,0
35,1010903010283,新規,0,2025-10-01,2025-10-01,合同会社Ｌｉｎｏａ,,合同会社,東京都,世田谷区,太子堂５丁目１６－２－クリスタル三軒茶屋パート１－１１１号室,,13,112,1540004,,,,,,,2025-10-01,1,,,,,リノア,0
38,1011001172264,新規,0,2025-10-01,2025-10-01,ユークス株式会社,,株式会社,東京都,渋谷区,上原２丁目８番２０号,,13,113,1510064,,,,,,,2025-10-01,1,,,,,ユークス,0
39,1011001172289,新規,0,2025-10-01,2025-10-01,ＩＣＡＤＡ株式会社,,株式会社,東京都,目黒区,五本木２丁目３５番１２号,,13,110,1530053,,,,,,,2025-10-01,1,,,,,イカダ,0
40,1011001172297,新規,0,2025-10-01,2025-10-01,株式会社プロラボメディカル,,株式会社,東京都,渋谷区,広尾５丁目１９番１０号ＷＩＬＬ・ＨＡＧＩＹＡ・ＢＵＩＬＤＩＮＧ４階,,13,113,1500012,,,,,,,2025-10-01,1,,,,,プロラボメディカル,0
41,1011001172314,新規,0,2025-10-01,2025-10-01,株式会社アートフォルテ,,株式会社,東京都,渋谷区,代々木４丁目４４番１０号,,13,113,1510053,,,,,,,2025-10-01,1,,,,,アートフォルテ,0
42,1011001172322,新規,0,2025-10-01,2025-10-01,株式会社晴流家,,株式会社,東京都,渋谷区,円山町５番３号ＭＩＥＵＸ渋谷ビル８階,,13,113,1500044,,,,,,,2025-10-01,1,,,,,ハレルヤ,0
45,1011003022483,新規,0,2025-10-01,2025-10-01,ＢＡＴＡエージェンシー合同会社,,合同会社,東京都,渋谷区,道玄坂１丁目１０番８号渋谷道玄坂東急ビル２Ｆ－Ｃ,,13,113,1500043,,,,,,,2025-10-01,1,,,,,バタエージェンシー,0
46,1011003022533,新規,0,2025-10-01,2025-10-01,Ｉｂｉｄｅｍ合同会社,,合同会社,東京都,渋谷区,神宮前３丁目１７番１１－５０１号ザ・パークハウスアーバンス表参道,,13,113,1500001,,,,,,,2025-10-01,1,,,,,イビデム,0
60,1011303005733,新規,0,2025-10-01,2025-10-01,合同会社ＩＮＮＩ,,合同会社,東京都,杉並区,本天沼３丁目４,,13,115,1670031,,,,,,,2025-10-01,1,,,,,,0
64,1011801046816,新規,0,2025-10-01,2025-10-01,株式会社Ｍａｙｕｋｉ,,株式会社,東京都,足立区,中川４丁目３９番８号,,13,121,1200002,,,,,,,2025-10-01,1,,,,,マユキ,0
65,1011801046824,新規,0,2025-10-01,2025-10-01,ＩＤＥＡＬ　ＢＯＸ株式会社,,株式会社,東京都,足立区,梅田１丁目２２番８号シャトル五反野１０１,,13,121,1230851,,,,,,,2025-10-01,1,,,,,アイディールボックス,0
67,1012405005167,新規,0,2025-10-01,2025-10-01,一般社団法人日本望診法研究学院山村塾,,その他の設立登記法人,東京都,狛江市,岩戸南１丁目６番１－１１８号,,13,219,2010005,,,,,,,2025-10-01,1,,,,,ニホンボウシンホウケンキュウガクインヤマムラジュク,0
69,1012801024274,新規,0,2025-10-01,2025-10-01,株式会社ＹＳＨ,,株式会社,東京都,国分寺市,西町３丁目２９番地９,,13,214,1850035,,,,,,,2025-10-01,1,,,,,ワイエスエイチ,0
71,1013303007890,新規,0,2025-10-01,2025-10-01,合同会社ルミナスグロウ,,合同会社,東京都,豊島区,池袋本町３丁目３２番１２号,,13,116,1700011,,,,,,,2025-10-01,1,,,,,ルミナスグロウ,0
83,1030001168865,新規,0,2025-10-01,2025-10-01,株式会社ｋｚ　ｐｈａｓｅ,,株式会社,埼玉県,久喜市,南３丁目２番８号,,11,232,3460004,,,,,,,2025-10-01,1,,,,,ケーズィーフェイズ,0
84,1030001168881,新規,0,2025-10-01,2025-10-01,三馬株式会社,,株式会社,埼玉県,深谷市,原郷４３７番地２４,,11,218,3660035,,,,,,,2025-10-01,1,,,,,サンマ,0
85,1030001168898,新規,0,2025-10-01,2025-10-01,株式会社レッドリボン,,株式会社,埼玉県,所沢市,大字日比田５７４番地野村倉庫２号,,11,208,3590015,,,,,,,2025-10-01,1,,,,,レッドリボン,0
86,1030003027722,新規,0,2025-10-01,2025-10-01,未来ビジョン合同会社,,合同会社,埼玉県,南埼玉郡宮代町,字宮東７７１番１,,11,442,3450803,,,,,,,2025-10-01,1,,,,,ミライビジョン,0
87,1030003027747,新規,0,2025-10-01,2025-10-01,ノーウェア合同会社,,合同会社,埼玉県,さいたま市大宮区,桜木町２丁目３番地大宮マルイ７階,,11,103,3300854,,,,,,,2025-10-01,1,,,,,ノーウェア,0
88,1030003027755,新規,0,2025-10-01,2025-10-01,ＭＩＲＡＡＬ　ＴＲＡＤＥＲＳ合同会社,,合同会社,埼玉県,久喜市,菖蒲町三箇１０１０番地１サンライフしょうぶＡ棟１０３,,11,232,3460104,,,,,,,2025-10-01,1,,,,,ミラルトレーダーズ,0
93,1040001140674,新規,0,2025-10-01,2025-10-01,東伍松間堂株式会社,,株式会社,千葉県,野田市,五木新田３２－７Ｂ１０２,,12,208,2780056,,,,,,,2025-10-01,1,,,,,トウゴショウゲンドウ,0
96,1040003028637,新規,0,2025-10-01,2025-10-01,クラリアル合同会社,,合同会社,千葉県,船橋市,薬円台３丁目１３－１５シティハイムフリージア１０１,,12,204,2740077,,,,,,,2025-10-01,1,,,,,クラリアル,0
98,1050003009628,新規,0,2025-10-01,2025-10-01,合同会社ＧＬＯＢＡＬ２５,,合同会社,茨城県,石岡市,大砂１０２０９番地８,,08,205,3150009,,,,,,,2025-10-01,1,,,,,グローバルトェンティファイブ,0
108,1060003005790,新規,0,2025-10-01,2025-10-01,ＳＨＥＩＫＨ　ＣＨＡＳＫＡ　ＲＥＳＴＡＵＲＡＮＴ合同会社,,合同会社,栃木県,小山市,神鳥谷２丁目１３－２いずみコーポ１０５号室,,09,208,3230034,,,,,,,2025-10-01,1,,,,,シェイキチャスカレストラン,0
110,1070003006128,新規,0,2025-10-01,2025-10-01,合同会社千歳屋,,合同会社,群馬県,安中市,安中２丁目４－２４,,10,211,3790116,,,,,,,2025-10-01,1,,,,,チトセヤ,0
112,1080001027166,新規,0,2025-10-01,2025-10-01,鴻益株式会社,,株式会社,静岡県,静岡市葵区,七間町５番地の１チサンマンション七間町１０２,,22,101,4200035,,,,,,,2025-10-01,1,,,,,コウエキ,0
116,1090001019526,新規,0,2025-10-01,2025-10-01,株式会社アイテック,,株式会社,山梨県,甲斐市,万才２４３番地,,19,210,4000114,,,,,,,2025-10-01,1,,,,,アイテック,0
119,1110001039604,新規,0,2025-10-01,2025-10-01,株式会社Ｓｅａｋ,,株式会社,新潟県,北蒲原郡聖籠町,大字次第浜５１６３－１,,15,307,9570105,,,,,,,2025-10-01,1,,,,,シーク,0
132,1120001279901,新規,0,2025-10-01,2025-10-01,京川貿易株式会社,,株式会社,大阪府,寝屋川市,高柳７丁目５－１１,,27,215,5720051,,,,,,,2025-10-01,1,,,,,ケイセンボウエキ,0
133,1120001280033,新規,0,2025-10-01,2025-10-01,振業通株式会社,,株式会社,大阪府,大阪市中央区,千日前１丁目５－１９寿楽ビル９０５号,,27,128,5420074,,,,,,,2025-10-01,1,,,,,シンギョウツウ,0
134,1120001280066,新規,0,2025-10-01,2025-10-01,卓実商事株式会社,,株式会社,大阪府,大阪市西成区,萩之茶屋２丁目６－４,,27,122,5570004,,,,,,,2025-10-01,1,,,,,タクジツショウジ,0
135,1120001280157,新規,0,2025-10-01,2025-10-01,Ｄａｙｕ　Ｈｏｒｉｚｏｎ　Ｇｒｏｕｐ株式会社,,株式会社,大阪府,大阪市城東区,成育２丁目１０番２６－４０７号,,27,118,5360007,,,,,,,2025-10-01,1,,,,,ダーユーホライゾングループ,0
136,1120001280297,新規,0,2025-10-01,2025-10-01,Ｌｅｇａｃｙ株式会社,,株式会社,大阪府,大阪市西区,千代崎１丁目９番１号,,27,106,5500023,,,,,,,2025-10-01,1,,,,,レガシー,0
137,1120001280495,新規,0,2025-10-01,2025-10-01,君合株式会社,,株式会社,大阪府,大阪市東住吉区,中野４丁目１番１６号リベラルオリエンテ中野５０５Ｂ,,27,121,5460012,,,,,,,2025-10-01,1,,,,,クンゴウ,0
138,1120001280520,新規,0,2025-10-01,2025-10-01,旺智株式会社,,株式会社,大阪府,大阪市西成区,千本南２丁目７番１８号メゾン美也パート１－２０２号室,,27,122,5570055,,,,,,,2025-10-01,1,,,,,オウチ,0
140,1120003030502,新規,0,2025-10-01,2025-10-01,合同会社ＬＡＮＩ,,合同会社,大阪府,大阪市中央区,南船場４丁目１１－５－７０３,,27,128,5420081,,,,,,,2025-10-01,1,,,,,ラニ,0
141,1120003030700,新規,0,2025-10-01,2025-10-01,ＧＡＯ　ＰＬＵＳ合同会社,,合同会社,大阪府,大阪市西成区,千本北２丁目９番１２－３０１号,,27,122,5570053,,,,,,,2025-10-01,1,,,,,ガオプラス,0
142,1120101072504,新規,0,2025-10-01,2025-10-01,星禾株式会社,,株式会社,大阪府,堺市北区,南花田町４１７番３－２２１号,,27,146,5918011,,,,,,,2025-10-01,1,,,,,セイカ,0
143,1120101072512,新規,0,2025-10-01,2025-10-01,株式会社ＴＥＡＭ結,,株式会社,大阪府,泉南郡岬町,淡輪１６９４番地の１３,,27,366,5990301,,,,,,,2025-10-01,1,,,,,チームユウ,0
144,1120103006749,新規,0,2025-10-01,2025-10-01,Ｋｏｉ　Ｅｎｇｌｉｓｈ　Ｌｅａｒｎｉｎｇ　Ｃｕｌｔｕｒａｌ　Ｃｅｎｔｅｒ合同会社,,合同会社,大阪府,堺市堺区,南瓦町１番２０号４０５号室,,27,141,5900078,,,,,,,2025-10-01,1,,,,,コイイングリッシュラーニングカルチャーセンター,0
145,1120103006757,新規,0,2025-10-01,2025-10-01,合同会社大斗医療,,合同会社,大阪府,河内長野市,南花台１丁目９番１３号,,27,216,5860077,,,,,,,2025-10-01,1,,,,,ダイトイリョウ,0
152,1122003003330,新規,0,2025-10-01,2025-10-01,江香合同会社,,合同会社,大阪府,東大阪市,友井２丁目１番２５号,,27,227,5770816,,,,,,,2025-10-01,1,,,,,コウカ,0
155,1130001080639,新規,0,2025-10-01,2025-10-01,航科国際投資コンサルティング株式会社,,株式会社,京都府,京都市右京区,西院東今田町３７－４ラトゥール西院５０１,,26,108,6150002,,,,,,,2025-10-01,1,,,,,コウカコクサイトウシコンサルティング,0
158,1130003010817,新規,0,2025-10-01,2025-10-01,合同会社ＶａｔａＳｅｃｕｒｅ,,合同会社,京都府,京都市伏見区,醍醐池田町１番地１７,,26,109,6011362,,,,,,,2025-10-01,1,,,,,ヴァータセキュア,0
164,1140001140152,新規,0,2025-10-01,2025-10-01,株式会社ＣＲＡＳＴ,,株式会社,兵庫県,神戸市北区,上津台３丁目１９番１５号,,28,109,6511515,,,,,,,2025-10-01,1,,,,,クラスト,0
165,1140001140169,新規,0,2025-10-01,2025-10-01,陳氏株式会社,,株式会社,兵庫県,神戸市灘区,徳井町２丁目１番４香川ハイツ御影イースト９０２号室,,28,102,6570033,,,,,,,2025-10-01,1,,,,,チンシ,0
170,1160001027083,新規,0,2025-10-01,2025-10-01,株式会社野田版画工房,,株式会社,滋賀県,東近江市,和南町８４９番地,,25,213,5270213,,,,,,,2025-10-01,1,,,,,ノダハンガコウボウ,0
184,1180003029101,新規,0,2025-10-01,2025-10-01,合同会社ＰＥＡＣＥ　ＴＯＷＮ,,合同会社,愛知県,稲沢市,平和町城西２６,,23,220,4901323,,,,,,,2025-10-01,1,,,,,ピースタウン,0
192,1200001044280,新規,0,2025-10-01,2025-10-01,ＢＥＡＮＳ株式会社,,株式会社,岐阜県,加茂郡八百津町,上牧野１９３番地５,,21,505,5050304,,,,,,,2025-10-01,1,,,,,ビーンズ,0
197,1230001021112,新規,0,2025-10-01,2025-10-01,ＴＲＵＳＴ　ＭＯＴＯＲＳ株式会社,,株式会社,富山県,高岡市,五十里西町５９番地,,16,202,9330971,,,,,,,2025-10-01,1,,,,,トラストモーターズ,0
203,1240003007422,新規,0,2025-10-01,2025-10-01,インクトース合同会社,,合同会社,広島県,東広島市,高屋町小谷３７２８番地,,34,212,7392121,,,,,,,2025-10-01,1,,,,,インクトース,0
205,1260003005358,新規,0,2025-10-01,2025-10-01,合同会社翔喜,,合同会社,岡山県,倉敷市,水江１３７２番地８,,33,202,7100802,,,,,,,2025-10-01,1,,,,,トキ,0
206,1260003005366,新規,0,2025-10-01,2025-10-01,ＳＨＡＨ　ＴＲＡＤＩＮＧ合同会社,,合同会社,岡山県,津山市,横山３８６番地７桃山荘,,33,203,7080862,,,,,,,2025-10-01,1,,,,,シャートレーディング,0
214,1290001110801,新規,0,2025-10-01,2025-10-01,株式会社ナチュラリー,,株式会社,福岡県,福岡市中央区,今川１丁目１３番１８,,40,133,8100054,,,,,,,2025-10-01,1,,,,,ナチュラリー,0
220,1290003017425,新規,0,2025-10-01,2025-10-01,Ｈｕｍａｎ　Ｆｏｒ　Ｈｕｍａｎ合同会社,,合同会社,福岡県,福岡市中央区,天神４丁目３番８号ミーナ天神８階,,40,133,8100001,,,,,,,2025-10-01,1,,,,,ヒューマンフォーヒューマン,0
221,1290003017458,新規,0,2025-10-01,2025-10-01,智禾空間営造合同会社,,合同会社,福岡県,福岡市東区,唐原５丁目３番１０号セレクトブルー九産大駅前２０９号室,,40,131,8130001,,,,,,,2025-10-01,1,,,,,チカクウカンエイゾウ,0
222,1290801031890,新規,0,2025-10-01,2025-10-01,株式会社４２Ｗｏｒｋｓ,,株式会社,福岡県,直方市,大字山部６２０番地１５,,40,204,8220034,,,,,,,2025-10-01,1,,,,,フォーティーツーワークス,0
224,1320003004782,新規,0,2025-10-01,2025-10-01,合同会社アースワーク,,合同会社,大分県,大分市,萩原４丁目８番６０号,,44,201,8700921,,,,,,,2025-10-01,1,,,,,アースワーク,0
235,1350003005035,新規,0,2025-10-01,2025-10-01,合同会社季ノ音商店,,合同会社,宮崎県,宮崎市,永楽町２１２番地１,,45,201,8800872,,,,,,,2025-10-01,1,,,,,キノネショウテン,0
238,1360001035834,新規,0,2025-10-01,2025-10-01,トレジャージャパン株式会社,,株式会社,沖縄県,豊見城市,字伊良波６２３番地２,,47,212,9010232,,,,,,,2025-10-01,1,,,,,トレジャージャパン,0
239,1360003015289,新規,0,2025-10-01,2025-10-01,トリトンリゾート合同会社,,合同会社,沖縄県,那覇市,牧志２丁目１７番２７号４０１,,47,201,9000013,,,,,,,2025-10-01,1,,,,,トリトンリゾート,0
252,1400003003537,新規,0,2025-10-01,2025-10-01,合同会社みらい,,合同会社,岩手県,遠野市,小友町１４地割７３番地２,,03,208,0280481,,,,,,,2025-10-01,1,,,,,ミライ,0
259,1430003018152,新規,0,2025-10-01,2025-10-01,合同会社ｇｉｆｔ,,合同会社,北海道,札幌市北区,屯田六条１０丁目６番２号,,01,102,0020856,,,,,,,2025-10-01,1,,,,,ギフト,0
265,1700150132380,新規,0,2025-10-01,2025-10-01,ＡＲＣＴＩＣ（ＨＫ）ＬＩＭＩＴＥＤ,,外国会社等,,,,,,,,ＦＬＡＴ／ＲＭ　３００１　３０／Ｆ　ＴＨＥ　ＯＣＴＡＧＯＮ　ＮＯ．６　ＳＨＡ　ＴＳＵＩ　ＲＯＡＤ　ＴＳＵＥＮ　ＷＡＮ　ＮＴ　ＨＯＮＧ　ＫＯＮＧ,,,,,,2025-10-01,1,,,,,アークティックホンコンリミテッド,0
271,2010001258510,新規,0,2025-10-01,2025-10-01,サクユメ株式会社,,株式会社,東京都,中央区,銀座１丁目１２番４号Ｎ＆ＥＢＬＤ．６Ｆ,,13,102,1040061,,,,,,,2025-10-01,1,,,,,サクユメ,0
272,2010001258849,新規,0,2025-10-01,2025-10-01,株式会社セルフィ,,株式会社,東京都,中央区,銀座１丁目１２番４号Ｎ＆ＥＢＬＤ．７階,,13,102,1040061,,,,,,,2025-10-01,1,,,,,セルフィ,0
273,2010001258972,新規,0,2025-10-01,2025-10-01,株式会社ＵＫＩＴＡＫＡ,,株式会社,東京都,中央区,銀座１丁目２２番１１号銀座大竹ビジデンス２Ｆ,,13,102,1040061,,,,,,,2025-10-01,1,,,,,ウキタカ,0
278,2010003048868,新規,0,2025-10-01,2025-10-01,中島国際会計アドバイザリー合同会社,,合同会社,東京都,中央区,日本橋本石町２丁目１番１号アスパ日本橋オフィス,,13,102,1030021,,,,,,,2025-10-01,1,,,,,ナカジマコクサイカイケイアドバイザリー,0
282,2010101016883,新規,0,2025-10-01,2025-10-01,株式会社ＭＥＣＳ,,株式会社,東京都,八王子市,東町１２番地８長澤ビル４Ｆ,,13,201,1920082,,,,,,,2025-10-01,1,,,,,メックス,0
283,2010103002659,新規,0,2025-10-01,2025-10-01,Ｐａｃｉｆｉｃ　Ｂｒｉｄｇｅｐｏｉｎｔ合同会社,,合同会社,東京都,八王子市,万町２５番地３,,13,201,1920903,,,,,,,2025-10-01,1,,,,,パシフィックブリッジポイント,0
289,2010401193092,新規,0,2025-10-01,2025-10-01,敬純株式会社,,株式会社,東京都,港区,新橋１丁目６－１２アイオス虎ノ門１００３号室,,13,103,1050004,,,,,,,2025-10-01,1,,,,,ケイジュン,0
290,2010401193274,新規,0,2025-10-01,2025-10-01,株式会社東京福糸,,株式会社,東京都,港区,虎ノ門３丁目１５番５－３０６号,,13,103,1050001,,,,,,,2025-10-01,1,,,,,トウキョウフクイト,0
291,2010401193431,新規,0,2025-10-01,2025-10-01,株式会社Ｍｉｒａｉｓｋｙ,,株式会社,東京都,港区,赤坂９丁目６番１１－５０２号,,13,103,1070052,,,,,,,2025-10-01,1,,,,,ミライスカイ,0
298,2010801036636,新規,0,2025-10-01,2025-10-01,ＭＴＲ株式会社,,株式会社,東京都,大田区,大森西４丁目１７番２３－５０１号,,13,111,1430015,,,,,,,2025-10-01,1,,,,,エムティーアール,0
299,2010801036644,新規,0,2025-10-01,2025-10-01,ＲＥＫ株式会社,,株式会社,東京都,大田区,東馬込１丁目２０－２ＭＯＭＯａｐａｒｔｍｅｎｔ０１,,13,111,1430022,,,,,,,2025-10-01,1,,,,,アールイーケー,0
301,2010803005564,新規,0,2025-10-01,2025-10-01,ＥＶＥＲＢＬＯＯＭＩＮＧ合同会社,,合同会社,東京都,大田区,東海３丁目７番３号東海ビル３０５号,,13,111,1430001,,,,,,,2025-10-01,1,,,,,エバーブルーミング,0
309,2010901058159,新規,0,2025-10-01,2025-10-01,株式会社ＡＹＮ,,株式会社,東京都,世田谷区,玉川４丁目３番１１号,,13,112,1580094,,,,,,,2025-10-01,1,,,,,エーワイエヌ,0
310,2010903010282,新規,0,2025-10-01,2025-10-01,合同会社よかＳＯＬ,,合同会社,東京都,世田谷区,瀬田２丁目２６番１１－２０２号,,13,112,1580095,,,,,,,2025-10-01,1,,,,,ヨカソル,0
312,2011001172247,新規,0,2025-10-01,2025-10-01,株式会社Ｈｅｌｉａｎｔｈｅ　Ｔｅｃｈｎｏｌｏｇｙ,,株式会社,東京都,渋谷区,道玄坂１丁目１０番８号渋谷道玄坂東急ビル２Ｆ－Ｃ,,13,113,1500043,,,,,,,2025-10-01,1,,,,,エリオントテクノロジー,0
313,2011001172271,新規,0,2025-10-01,2025-10-01,株式会社ビーバー,,株式会社,東京都,渋谷区,恵比寿南１丁目１９－１１－３０４,,13,113,1500022,,,,,,,2025-10-01,1,,,,,ビーバー,0
314,2011001172296,新規,0,2025-10-01,2025-10-01,株式会社楽雷,,株式会社,東京都,渋谷区,鶯谷町三丁目７番地マンションうぐいす２０２,,13,113,1500032,,,,,,,2025-10-01,1,,,,,ラクライ,0
315,2011001172313,新規,0,2025-10-01,2025-10-01,株式会社ｇｉｆｔｈａｎｄ,,株式会社,東京都,渋谷区,神宮前４丁目３０番３号,,13,113,1500001,,,,,,,2025-10-01,1,,,,,ギフトハンド,0
316,2011001172825,新規,0,2025-10-01,2025-10-01,株式会社Ｒｏｕｇｈ　Ｗａｖｅ,,株式会社,東京都,目黒区,上目黒３丁目３１番２２－４０１号,,13,110,1530051,,,,,,,2025-10-01,1,,,,,ラフウェイブ,0
318,2011003022458,新規,0,2025-10-01,2025-10-01,合同会社Ｌ＆Ｕエンタテイメント,,合同会社,東京都,渋谷区,道玄坂１丁目１０番８号渋谷道玄坂東急ビル２Ｆ－Ｃ,,13,113,1500043,,,,,,,2025-10-01,1,,,,,エルアンドユーエンタテイメント,0
319,2011003022466,新規,0,2025-10-01,2025-10-01,ＤｅｒｍａＴｕｂｅ合同会社,,合同会社,東京都,渋谷区,神南１丁目１１－４ＦＰＧリンクス神南５階,,13,113,1500041,,,,,,,2025-10-01,1,,,,,ダーマチューブ,0
320,2011101016865,新規,0,2025-10-01,2025-10-01,日本理装工業株式会社,,株式会社,東京都,新宿区,新宿５丁目８番１８号,,13,104,1600022,,,,,,,2025-10-01,1,,,,,ニホンリソウコウギョウ,0
324,2011303005732,新規,0,2025-10-01,2025-10-01,きゃすとん合同会社,,合同会社,東京都,杉並区,浜田山１丁目１２番１５号,,13,115,1680065,,,,,,,2025-10-01,1,,,,,キャストン,0
325,2011305003073,新規,0,2025-10-01,2025-10-01,一般社団法人藤浪,,その他の設立登記法人,東京都,杉並区,高井戸東４丁目１１番１６－２０２号,,13,115,1680072,,,,,,,2025-10-01,1,,,,,フジナミ,0
328,2011603004871,新規,0,2025-10-01,2025-10-01,Ｌｕｍｉｎａ　Ｔｒａｄｉｎｇ合同会社,,合同会社,東京都,練馬区,早宮３丁目５番１３号,,13,120,1790085,,,,,,,2025-10-01,1,,,,,ルミナトレーディング,0
329,2011801046815,新規,0,2025-10-01,2025-10-01,株式会社イースト,,株式会社,東京都,葛飾区,高砂３丁目５番１６号,,13,122,1250054,,,,,,,2025-10-01,1,,,,,イースト,0
330,2011801046823,新規,0,2025-10-01,2025-10-01,株式会社Ｏｈ,,株式会社,東京都,葛飾区,堀切７丁目２７番１１号,,13,122,1240006,,,,,,,2025-10-01,1,,,,,オーエイチ,0
333,2011803007113,新規,0,2025-10-01,2025-10-01,合同会社Ａａｒａｍｂｈａ,,合同会社,東京都,足立区,弘道１丁目５番２０号,,13,121,1200013,,,,,,,2025-10-01,1,,,,,アランバ,0
348,2030001168815,新規,0,2025-10-01,2025-10-01,株式会社ＫｏｕＫｅｎ,,株式会社,埼玉県,川口市,前川３丁目２２番１１号,,11,203,3330842,,,,,,,2025-10-01,1,,,,,コウケン,0
349,2030001168864,新規,0,2025-10-01,2025-10-01,株式会社ＮＥＳＴ　ＰＲＯＤＵＣＴＳ,,株式会社,埼玉県,川口市,飯塚１丁目３番２３号,,11,203,3320023,,,,,,,2025-10-01,1,,,,,ネストプロダクツ,0
350,2030001168872,新規,0,2025-10-01,2025-10-01,株式会社９Ｎｏｖａｎｔａ,,株式会社,埼玉県,所沢市,大字下富４３７番地の４,,11,208,3590001,,,,,,,2025-10-01,1,,,,,ナインノバンター,0
351,2030001168939,新規,0,2025-10-01,2025-10-01,株式会社ＨＩ‐ＢＥＲ,,株式会社,埼玉県,三郷市,戸ケ崎４丁目７６－３,,11,237,3410044,,,,,,,2025-10-01,1,,,,,ハイバー,0
353,2030003027746,新規,0,2025-10-01,2025-10-01,合同会社ＧＯＬＤＥＮ　ＦＵＴＵＲＥ,,合同会社,埼玉県,越谷市,大字恩間５４５番地１１,,11,222,3430033,,,,,,,2025-10-01,1,,,,,ゴールデンフューチャー,0
354,2030003027754,新規,0,2025-10-01,2025-10-01,ＴＡＩＹＯ合同会社,,合同会社,埼玉県,行田市,長野４丁目２４番地２ＰＣＳマンション２０３号,,11,206,3610023,,,,,,,2025-10-01,1,,,,,タイヨウ,0
357,2030005022282,新規,0,2025-10-01,2025-10-01,特定非営利活動法人こころと生活支援ネットワーク,,その他の設立登記法人,埼玉県,所沢市,東所沢和田２丁目２０番地の１４ネオコーポＡ２０２号室,,11,208,3590023,,,,,,,2025-10-01,1,,,,,ココロトセイカツシエンネットワーク,0
360,2040001140649,新規,0,2025-10-01,2025-10-01,株式会社吉井遊園,,株式会社,千葉県,茂原市,千代田町２丁目７番地２７第２ＳＳビル２Ｆ,,12,210,2970023,,,,,,,2025-10-01,1,,,,,ヨシイユウエン,0
369,2060001038577,新規,0,2025-10-01,2025-10-01,株式会社猫日和,,株式会社,栃木県,那須塩原市,箭坪１８番地２８,,09,213,3250108,,,,,,,2025-10-01,1,,,,,ネコビヨリ,0
370,2060001038619,新規,0,2025-10-01,2025-10-01,株式会社ＲＭＭ,,株式会社,栃木県,宇都宮市,下栗町１００９番地８,,09,201,3210923,,,,,,,2025-10-01,1,,,,,アールエムエム,0
374,2060002041266,新規,0,2025-10-01,2025-10-01,有限会社卯月製作所,,有限会社,栃木県,鹿沼市,下田町１丁目１０２０番地,,09,205,3220036,,,,,,,2025-10-01,1,,,,,ウヅキセイサクショ,0
376,2060003005773,新規,0,2025-10-01,2025-10-01,合同会社真賢総業,,合同会社,栃木県,下野市,文教１丁目１０番地２３,,09,216,3290507,,,,,,,2025-10-01,1,,,,,シンケンソウギョウ,0
380,2070003006119,新規,0,2025-10-01,2025-10-01,ＳＴＵＤＩＯ　ＩＢＵＫＩ合同会社,,合同会社,群馬県,前橋市,亀泉町６３２番地３,,10,201,3710004,,,,,,,2025-10-01,1,,,,,スタジオイブキ,0
385,2110001039594,新規,0,2025-10-01,2025-10-01,株式会社サナン自動車商会,,株式会社,新潟県,新潟市西区,五十嵐３の町１１０２４番地,,15,107,9502171,,,,,,,2025-10-01,1,,,,,サナンジドウシャショウカイ,0
397,2120001280156,新規,0,2025-10-01,2025-10-01,一誠貿易株式会社,,株式会社,大阪府,大阪市住吉区,沢之町１丁目５番２８号,,27,120,5580031,,,,,,,2025-10-01,1,,,,,イッセイボウエキ,0
398,2120001280494,新規,0,2025-10-01,2025-10-01,楽心株式会社,,株式会社,大阪府,大阪市東住吉区,中野４丁目１番１６号リベラルオリエンテ中野４１１Ｂ,,27,121,5460012,,,,,,,2025-10-01,1,,,,,ラクシン,0
401,2120003030724,新規,0,2025-10-01,2025-10-01,云舟合同会社,,合同会社,大阪府,大阪市北区,浪花町１３番２５－２０５号,,27,127,5300022,,,,,,,2025-10-01,1,,,,,ウンシュウ,0
402,2120003030757,新規,0,2025-10-01,2025-10-01,十里香合同会社,,合同会社,大阪府,大阪市都島区,高倉町３丁目１５番１５号３Ｆ,,27,102,5340011,,,,,,,2025-10-01,1,,,,,ジュウリコウ,0
406,2120101072511,新規,0,2025-10-01,2025-10-01,株式会社ＪＩＥＢＡＯ　ＪＡＰＡＮ,,株式会社,大阪府,富田林市,加太３丁目２番２９－２０５号,,27,214,5840078,,,,,,,2025-10-01,1,,,,,ジェイボジャパン,0
408,2120103006756,新規,0,2025-10-01,2025-10-01,合同会社Ｋｕｒｕｍｏｎａ,,合同会社,大阪府,羽曳野市,栄町８番１０－１００１号,,27,222,5830853,,,,,,,2025-10-01,1,,,,,クルモナ,0
411,2120901051549,新規,0,2025-10-01,2025-10-01,株式会社ＤＥＣＯ　ｐａｉｎｔ　ｗｏｒｋｓ,,株式会社,大阪府,吹田市,泉町１丁目５番１４号,,27,205,5640041,,,,,,,2025-10-01,1,,,,,デコペイントワークス,0
412,2122001039680,新規,0,2025-10-01,2025-10-01,藍石株式会社,,株式会社,大阪府,東大阪市,若江西新町４丁目６番１０－３０１号,,27,227,5780944,,,,,,,2025-10-01,1,,,,,アイセキ,0
414,2122003003321,新規,0,2025-10-01,2025-10-01,合同会社Ｔｒｅｋ,,合同会社,大阪府,東大阪市,足代１丁目１１番１２号ビューティーセゾン華６０５号,,27,227,5770841,,,,,,,2025-10-01,1,,,,,トレック,0
422,2130001080613,新規,0,2025-10-01,2025-10-01,株式会社針とジム,,株式会社,京都府,長岡京市,神足１丁目３－１山本ビル１０１,,26,209,6170833,,,,,,,2025-10-01,1,,,,,ハリトジム,0
423,2130001080621,新規,0,2025-10-01,2025-10-01,株式会社アステック,,株式会社,京都府,京都市山科区,音羽前出町１８番地４,,26,110,6078079,,,,,,,2025-10-01,1,,,,,アステック,0
424,2130001080654,新規,0,2025-10-01,2025-10-01,株式会社ベジスタ,,株式会社,京都府,京都市右京区,山ノ内池尻町６番地京都四条グランドハイツ１０２,,26,108,6150072,,,,,,,2025-10-01,1,,,,,ベジスタ,0
426,2130003010799,新規,0,2025-10-01,2025-10-01,合同会社Ｒｉｇｈｔ　Ｐｉｃｋｓ,,合同会社,京都府,京都市下京区,朱雀宝蔵町４４番地協栄ビル２階京都朱雀スタジオＶ－２０８合同会社ＲｉｇｈｔＰｉｃｋｓ,,26,106,6008846,,,,,,,2025-10-01,1,,,,,ライトピックス,0
431,2140001140151,新規,0,2025-10-01,2025-10-01,株式会社ＹＯＧＡＲＤＥＮ,,株式会社,兵庫県,西宮市,泉町８番１６－４０４号,,28,204,6620932,,,,,,,2025-10-01,1,,,,,ヨガーデン,0
432,2140001140176,新規,0,2025-10-01,2025-10-01,Ｈｏｖｅｒｌａｎｄ株式会社,,株式会社,兵庫県,神戸市西区,学園東町６丁目１７－５,,28,111,6512102,,,,,,,2025-10-01,1,,,,,ホバーランド,0
435,2140003022629,新規,0,2025-10-01,2025-10-01,月トレーディング合同会社,,合同会社,兵庫県,神戸市北区,有野町唐櫃種池３０４９番地－２Ｆ,,28,109,6511331,,,,,,,2025-10-01,1,,,,,ツキトレーディング,0
437,2140005027642,新規,0,2025-10-01,2025-10-01,一般社団法人フリースクールＳ‐ＢＡＳＥ,,その他の設立登記法人,兵庫県,三木市,平田１丁目３番地の３,,28,215,6730405,,,,,,,2025-10-01,1,,,,,フリースクールエスベース,0
439,2160003003610,新規,0,2025-10-01,2025-10-01,合同会社西光商事,,合同会社,滋賀県,大津市,真野５丁目３番２３号,,25,201,5200232,,,,,,,2025-10-01,1,,,,,サイコウショウジ,0
448,2180001168791,新規,0,2025-10-01,2025-10-01,川口化成品ホールディングス株式会社,,株式会社,愛知県,名古屋市中区,橘２丁目１番１２号,,23,106,4600016,,,,,,,2025-10-01,1,,,,,カワグチカセイヒンホールディングス,0
453,2180003029100,新規,0,2025-10-01,2025-10-01,合同会社桜システム,,合同会社,愛知県,名古屋市東区,百人町６９番地－２０３,,23,102,4610037,,,,,,,2025-10-01,1,,,,,サクラシステム,0
454,2180003029158,新規,0,2025-10-01,2025-10-01,ＳＡＫＵＲＡ　ＨＯＬＤＩＮＧＳ合同会社,,合同会社,愛知県,名古屋市港区,名四町１２５－３山栄荘１号室,,23,111,4550053,,,,,,,2025-10-01,1,,,,,サクラホールディングス,0
456,2180005021245,新規,0,2025-10-01,2025-10-01,医療法人実心会,,その他の設立登記法人,愛知県,名古屋市中区,新栄３丁目２２番２５号コートアクシス新栄１階,,23,106,4600007,,,,,,,2025-10-01,1,,,,,ジッシンカイ,0
458,2180301040254,新規,0,2025-10-01,2025-10-01,株式会社ＦＵＳＥＪＩＭＡ,,株式会社,愛知県,豊橋市,多米西町１丁目９番地１,,23,201,4400026,,,,,,,2025-10-01,1,,,,,フセジマ,0
461,2180305009733,新規,0,2025-10-01,2025-10-01,医療法人里仁會,,その他の設立登記法人,愛知県,刈谷市,銀座３丁目３４番地１銀座ツリープラス２階,,23,210,4480845,,,,,,,2025-10-01,1,,,,,リジンカイ,0
467,2220001026937,新規,0,2025-10-01,2025-10-01,株式会社ＳＵＮＲＩＳＥ,,株式会社,石川県,野々市市,長池２８５番地,,17,212,9218808,,,,,,,2025-10-01,1,,,,,サンライズ,0
468,2230001021111,新規,0,2025-10-01,2025-10-01,ＣＳＳ　ＷＯＲＬＤ株式会社,,株式会社,富山県,射水市,草岡町２丁目１６番地７,,16,211,9330225,,,,,,,2025-10-01,1,,,,,シーエスエスワールド,0
481,2260003005365,新規,0,2025-10-01,2025-10-01,ＯＫ・Ｓｏｆｔ合同会社,,合同会社,岡山県,岡山市北区,大供表町８番３－１号,,33,101,7000912,,,,,,,2025-10-01,1,,,,,オウケイソフト,0
497,2330003011240,新規,0,2025-10-01,2025-10-01,合同会社テキヤタイ,,合同会社,熊本県,熊本市中央区,花畑町１３－４－１花畑銀座ビル,,43,101,8600806,,,,,,,2025-10-01,1,,,,,テキヤタイ,0
500,2350003005034,新規,0,2025-10-01,2025-10-01,農業生産法人合同会社アースＦＣ宮崎,,合同会社,宮崎県,都城市,鷹尾１丁目３６３６番地８,,45,202,8850081,,,,,,,2025-10-01,1,,,,,アースエフシーミヤザキ,0
502,2360001035809,新規,0,2025-10-01,2025-10-01,株式会社帆蔵,,株式会社,沖縄県,石垣市,字真栄里２０４番地２９多幸家オオモリ１０２,,47,207,9070002,,,,,,,2025-10-01,1,,,,,ホグラ,0
503,2360001035833,新規,0,2025-10-01,2025-10-01,ちゅらパワー株式会社,,株式会社,沖縄県,島尻郡与那原町,字与那原１００９－２山内ビル３階,,47,348,9011303,,,,,,,2025-10-01,1,,,,,チュラパワー,0
505,2360003015288,新規,0,2025-10-01,2025-10-01,ＬＵＭＩＵＭＩ合同会社,,合同会社,沖縄県,石垣市,新栄町１０番地３,,47,207,9070014,,,,,,,2025-10-01,1,,,,,ルミウミ,0
520,2430001095300,新規,0,2025-10-01,2025-10-01,Ｗｉｓｔｅｒｉａ　Ｇａｒｄｅｎｓ株式会社,,株式会社,北海道,虻田郡ニセコ町,字近藤４７９番地１３,,01,395,0481542,,,,,,,2025-10-01,1,,,,,ウィステリアガーデンズ,0
523,2430003018110,新規,0,2025-10-01,2025-10-01,合同会社Ｃｏｎｃｏｒｄｉａ,,合同会社,北海道,札幌市中央区,南一条西７丁目１２番地６,,01,101,0600061,,,,,,,2025-10-01,1,,,,,コンコルディア,0
524,2430003018135,新規,0,2025-10-01,2025-10-01,合同会社こころね,,合同会社,北海道,札幌市南区,石山東２丁目１２番１３号,,01,106,0050850,,,,,,,2025-10-01,1,,,,,ココロネ,0
526,2500001026529,新規,0,2025-10-01,2025-10-01,株式会社ｍａｓｕｄａ,,株式会社,愛媛県,今治市,郷六ヶ内町３丁目２番３９号,,38,202,7940825,,,,,,,2025-10-01,1,,,,,マスダ,0
527,2500001026537,新規,0,2025-10-01,2025-10-01,株式会社Ｕ＆Ｋ・Ｐａｒｔｎｅｒｓ,,株式会社,愛媛県,今治市,松木１９７番地の２,,38,202,7991513,,,,,,,2025-10-01,1,,,,,ユゥアンドケイパートナーズ,0
528,2700150132388,新規,0,2025-10-01,2025-10-01,ＤＥＮＳＣＨ　ＤＥＳＩＧＮ　ＬＩＭＩＴＥＤ,,外国会社等,,,,,,,,ＵＮＩＴ　１００２　１０／Ｆ　ＰＥＲＦＥＣＴ　ＣＯＭＭ　ＢＬＤＧ　２０　ＡＵＳＴＩＮ　ＡＶＥＮＵＥ　ＴＳＴ　ＫＬ　９９９０７７　ＨＫ,,,,,,2025-10-01,1,,,,,デンシュデザインリミテッド,0
542,3010001258666,新規,0,2025-10-01,2025-10-01,株式会社ＳｋｅｔｃｈＦｉｅｌｄ,,株式会社,東京都,中央区,日本橋蛎殻町１丁目３４番１３－３０４号,,13,102,1030014,,,,,,,2025-10-01,1,,,,,スケッチフィールド,0
545,3010003048792,新規,0,2025-10-01,2025-10-01,ＡＡＪ　Ｌ合同会社,,合同会社,東京都,千代田区,霞が関３丁目２番５号,,13,101,1000013,,,,,,,2025-10-01,1,,,,,エーエージェーエル,0
546,3010003048842,新規,0,2025-10-01,2025-10-01,ＪＶＭ　ＩＮＴＥＲＮＡＴＩＯＮＡＬ合同会社,,合同会社,東京都,千代田区,神田錦町３丁目１５番地錦精社神田ビル天翔オフィス大手町竹橋１階１１５号室,,13,101,1010054,,,,,,,2025-10-01,1,,,,,ジェイヴィエムインターナショナル,0
549,3010005040723,新規,0,2025-10-01,2025-10-01,中野一般社団法人,,その他の設立登記法人,東京都,千代田区,神田小川町３丁目２６番８号神田小川町三丁目ビル６階,,13,101,1010052,,,,,,,2025-10-01,1,,,,,ナカノ,0
554,3010401193249,新規,0,2025-10-01,2025-10-01,ＩＮＶＩＸ株式会社,,株式会社,東京都,港区,浜松町１丁目７番２－２０４号,,13,103,1050013,,,,,,,2025-10-01,1,,,,,インビックス,0
555,3010401193307,新規,0,2025-10-01,2025-10-01,株式会社ＭＩＲＡＱＬｓｔｕｄｉｏ,,株式会社,東京都,港区,北青山１丁目３－３三橋ビル３階,,13,103,1070061,,,,,,,2025-10-01,1,,,,,ミラクルスタジオ,0
556,3010401193422,新規,0,2025-10-01,2025-10-01,株式会社Ｊａｖｉｏｎ,,株式会社,東京都,港区,愛宕２丁目５番１号,,13,103,1050002,,,,,,,2025-10-01,1,,,,,ジャビオン,0
557,3010501054788,新規,0,2025-10-01,2025-10-01,開化楼不動産株式会社,,株式会社,東京都,台東区,元浅草４丁目７番３号浦山ビル２Ｆ,,13,106,1110041,,,,,,,2025-10-01,1,,,,,カイカロウフドウサン,0
558,3010601068036,新規,0,2025-10-01,2025-10-01,亞克事業日本株式会社,,株式会社,東京都,江東区,豊洲３丁目４番１－３６０４号,,13,108,1350061,,,,,,,2025-10-01,1,,,,,アークジギョウニホン,0
559,3010701048367,新規,0,2025-10-01,2025-10-01,ＭＩＲＡＩ光文株式会社,,株式会社,東京都,品川区,南大井６丁目２６番３号大森ベルポートＤ館９階,,13,109,1400013,,,,,,,2025-10-01,1,,,,,ミライコウブン,0
567,3010901058166,新規,0,2025-10-01,2025-10-01,ａｎｄ　ｗｅｌｌｎｅｓｓ株式会社,,株式会社,東京都,世田谷区,太子堂２丁目２－１,,13,112,1540004,,,,,,,2025-10-01,1,,,,,アンドウェルネス,0
569,3010903010281,新規,0,2025-10-01,2025-10-01,合同会社紙髪舎,,合同会社,東京都,世田谷区,太子堂５丁目３番８号テラスカーム１０１,,13,112,1540004,,,,,,,2025-10-01,1,,,,,カミカミシャ,0
577,3011001172270,新規,0,2025-10-01,2025-10-01,ＭＩＰＯＷ株式会社,,株式会社,東京都,渋谷区,神宮前６丁目２３番４号桑野ビル２階,,13,113,1500001,,,,,,,2025-10-01,1,,,,,ミィパワー,0
578,3011001172295,新規,0,2025-10-01,2025-10-01,株式会社ＫＵＲＯＫＯ,,株式会社,東京都,渋谷区,代々木２丁目１１番１７号ラウンドクロス新宿Ｂ１Ｆ‐ＴＨＥ・ＳＡＬＯＮＳ‐Ｎ区画,,13,113,1510053,,,,,,,2025-10-01,1,,,,,クロコ,0
579,3011001172790,新規,0,2025-10-01,2025-10-01,株式会社Ｓｈｉｆｔｗｅｌｌ,,株式会社,東京都,渋谷区,道玄坂１丁目１０番８号渋谷道玄坂東急ビル２Ｆ－Ｃ,,13,113,1500043,,,,,,,2025-10-01,1,,,,,シフトウェル,0
580,3011001172808,新規,0,2025-10-01,2025-10-01,ＭＥＲＡＫＩ　ＭＵＳＥ株式会社,,株式会社,東京都,渋谷区,円山町５番３号ＭＩＥＵＸ渋谷ビル８階,,13,113,1500044,,,,,,,2025-10-01,1,,,,,メラキミューズ,0
581,3011003022473,新規,0,2025-10-01,2025-10-01,合同会社Ｔｈｏｕｓａｎｄ　ｓｕｎｎｙ,,合同会社,東京都,渋谷区,代々木４丁目３１番４号キャッスル新宿１１０２号室,,13,113,1510053,,,,,,,2025-10-01,1,,,,,サウザンドサニー,0
582,3011003022481,新規,0,2025-10-01,2025-10-01,合同会社ＬＩＢＥＲＴＡＤ,,合同会社,東京都,目黒区,中目黒４丁目１３番２１－Ｂ３０６号アーバンハイツ中目黒,,13,110,1530061,,,,,,,2025-10-01,1,,,,,リベルタ,0
583,3011005011160,新規,0,2025-10-01,2025-10-01,一般社団法人ｔｅｔｏｔｅ,,その他の設立登記法人,東京都,目黒区,中央町２丁目３０番１１号学芸大ＫＹハイツ１０２,,13,110,1520001,,,,,,,2025-10-01,1,,,,,テトテ,0
587,3011103016417,新規,0,2025-10-01,2025-10-01,ＳＮＯＷ　ＢＲＡＮＤ合同会社,,合同会社,東京都,新宿区,歌舞伎町１丁目１８－１藤田ビル３Ｆ,,13,104,1600021,,,,,,,2025-10-01,1,,,,,スノウブランド,0
605,3011301030938,新規,0,2025-10-01,2025-10-01,株式会社ＭｅＡＭ,,株式会社,東京都,杉並区,永福１丁目１７番１０号,,13,115,1680064,,,,,,,2025-10-01,1,,,,,ミーム,0
607,3011403004872,新規,0,2025-10-01,2025-10-01,鴻華合同会社,,合同会社,東京都,板橋区,舟渡１丁目８番２０号,,13,119,1740041,,,,,,,2025-10-01,1,,,,,コウカ,0
608,3011501032627,新規,0,2025-10-01,2025-10-01,零壹佰株式会社,,株式会社,東京都,北区,中里１丁目２１番２号中里ビル１Ｆ,,13,117,1140015,,,,,,,2025-10-01,1,,,,,レイヒャク,0
611,3011603004854,新規,0,2025-10-01,2025-10-01,ＧＯＲＥＴＯ合同会社,,合同会社,東京都,練馬区,豊玉中２丁目１７番１７－１０５号,,13,120,1760013,,,,,,,2025-10-01,1,,,,,ゴレト,0
612,3011605002674,新規,0,2025-10-01,2025-10-01,司法書士法人鹿島事務所,,その他の設立登記法人,東京都,練馬区,春日町３丁目３５番１５号,,13,120,1790074,,,,,,,2025-10-01,1,,,,,カシマジムショ,0
620,3011801046806,新規,0,2025-10-01,2025-10-01,Ｕｍｉ株式会社,,株式会社,東京都,足立区,小台１丁目１６番１１－１１０５号,,13,121,1200046,,,,,,,2025-10-01,1,,,,,ユミ,0
621,3011801046814,新規,0,2025-10-01,2025-10-01,ＬａｃｔｏＱｕｅｓｔ株式会社,,株式会社,東京都,葛飾区,新小岩４丁目６番８号、コーポ篠原３０２,,13,122,1240024,,,,,,,2025-10-01,1,,,,,ラクトクエスト,0
622,3011803007112,新規,0,2025-10-01,2025-10-01,合同会社まつまき,,合同会社,東京都,葛飾区,新小岩３丁目２６番５号,,13,122,1240024,,,,,,,2025-10-01,1,,,,,マツマキ,0
628,3013301054990,新規,0,2025-10-01,2025-10-01,株式会社Ｒｏｕｇｅ,,株式会社,東京都,豊島区,西池袋１丁目２５番４号かに家ビル１階,,13,116,1710021,,,,,,,2025-10-01,1,,,,,ルージュ,0
629,3013301055031,新規,0,2025-10-01,2025-10-01,株式会社ＨＩＮＯＤＥ,,株式会社,東京都,豊島区,池袋４丁目３４－１ＭＮビル３０１,,13,116,1710014,,,,,,,2025-10-01,1,,,,,ヒノデ,0
630,3013303007906,新規,0,2025-10-01,2025-10-01,ＳＢ合同会社,,合同会社,東京都,豊島区,池袋２丁目２９－１若葉マンション３０５号室,,13,116,1710014,,,,,,,2025-10-01,1,,,,,エスビー,0
645,3021003016598,新規,0,2025-10-01,2025-10-01,合同会社スリーフィールズ,,合同会社,神奈川県,中郡大磯町,大磯６８１－１４,,14,341,2550003,,,,,,,2025-10-01,1,,,,,スリーフィールズ,0
646,3030001076711,新規,0,2025-10-01,2025-10-01,日隆商事株式会社,,株式会社,埼玉県,川口市,幸町２丁目１７番３０号川口セイショウビル４０５,,11,203,3320016,,,,,,,2025-10-01,1,,,,,ニチリュウショウジ,0
648,3030001168789,新規,0,2025-10-01,2025-10-01,株式会社グリーン・ソリューションズ,,株式会社,埼玉県,深谷市,岡１８４６番地１,,11,218,3690201,,,,,,,2025-10-01,1,,,,,グリーンソリューションズ,0
649,3030001168855,新規,0,2025-10-01,2025-10-01,株式会社ＦＺ　Ｔｒａｄｉｎｇ,,株式会社,埼玉県,春日部市,西金野井４０５番地４４,,11,214,3440112,,,,,,,2025-10-01,1,,,,,エフゼッドトレーディング,0
650,3030001168871,新規,0,2025-10-01,2025-10-01,株式会社ＷＡＫＯＨ,,株式会社,埼玉県,さいたま市岩槻区,大字平林寺６３４番地８,,11,110,3390076,,,,,,,2025-10-01,1,,,,,ワコウ,0
651,3030001168896,新規,0,2025-10-01,2025-10-01,株式会社平出商事,,株式会社,埼玉県,春日部市,藤塚２７７３番地１２,,11,214,3440011,,,,,,,2025-10-01,1,,,,,ヒラデショウジ,0
656,3030003027737,新規,0,2025-10-01,2025-10-01,ＭＩＤＯＲＩ８合同会社,,合同会社,埼玉県,富士見市,大字上南畑３０００番地３,,11,235,3540002,,,,,,,2025-10-01,1,,,,,ミドリエイト,0
657,3030003027745,新規,0,2025-10-01,2025-10-01,合同会社ＹＵＭＩ,,合同会社,埼玉県,川口市,元郷３丁目１２番５－２号,,11,203,3320011,,,,,,,2025-10-01,1,,,,,ユミ,0
658,3030003027753,新規,0,2025-10-01,2025-10-01,ＨＨＳ合同会社,,合同会社,埼玉県,川越市,大字久下戸３２１９番地９,,11,201,3500011,,,,,,,2025-10-01,1,,,,,エイチエイチエス,0
659,3030003027761,新規,0,2025-10-01,2025-10-01,ＳＩＸ　ＳＴＡＲＳ　ＩＮＴＥＲＮＡＴＩＯＮＡＬ　ＴＲＡＤＩＮＧ合同会社,,合同会社,埼玉県,春日部市,牛島１４３５番地モナミ荘１０２,,11,214,3440004,,,,,,,2025-10-01,1,,,,,シックススターズインターナショナルトレーディング,0
663,3040001140680,新規,0,2025-10-01,2025-10-01,株式会社Ｇｏｏｄ　Ｖｉｌｌａｇｅ,,株式会社,千葉県,船橋市,高野台３丁目２－１３,,12,204,2740801,,,,,,,2025-10-01,1,,,,,グッドヴィレッジ,0
664,3040001140706,新規,0,2025-10-01,2025-10-01,株式会社ムスビフーズ,,株式会社,千葉県,船橋市,本町５丁目１９番１棟７０４号,,12,204,2730005,,,,,,,2025-10-01,1,,,,,ムスビフーズ,0
675,3050003009626,新規,0,2025-10-01,2025-10-01,合同会社トキワ商事,,合同会社,茨城県,ひたちなか市,小貫山２丁目３番地７,,08,221,3120007,,,,,,,2025-10-01,1,,,,,トキワショウジ,0
678,3060001038626,新規,0,2025-10-01,2025-10-01,株式会社ロスナクスナス,,株式会社,栃木県,那須塩原市,豊浦南町８８‐９１,,09,213,3250065,,,,,,,2025-10-01,1,,,,,ロスナクスナス,0
679,3060003005789,新規,0,2025-10-01,2025-10-01,ダラシャン合同会社,,合同会社,栃木県,佐野市,大和町２６７－８－３（２ＦＲ－３）,,09,204,3270027,,,,,,,2025-10-01,1,,,,,ダラシャン,0
685,3080001027164,新規,0,2025-10-01,2025-10-01,株式会社ＭＡＳＵ,,株式会社,静岡県,牧之原市,仁田１７８番地６,,22,226,4210413,,,,,,,2025-10-01,1,,,,,マス,0
689,3090001019532,新規,0,2025-10-01,2025-10-01,株式会社都留コンサルティング,,株式会社,山梨県,都留市,田原１丁目９番８号,,19,204,4020054,,,,,,,2025-10-01,1,,,,,ツルコンサルティング,0
696,3110001039593,新規,0,2025-10-01,2025-10-01,株式会社ククナジャパン,,株式会社,新潟県,新潟市中央区,旭町通２番町１０２ハクエーマンション１階,,15,103,9518122,,,,,,,2025-10-01,1,,,,,ククナジャパン,0
705,3120001279908,新規,0,2025-10-01,2025-10-01,阿浩株式会社,,株式会社,大阪府,大阪市生野区,田島６丁目２番２８－３０７号,,27,116,5440011,,,,,,,2025-10-01,1,,,,,アハオ,0
706,3120001279916,新規,0,2025-10-01,2025-10-01,星楽耀株式会社,,株式会社,大阪府,大阪市西成区,花園南１丁目４番１３－４０７号,,27,122,5570015,,,,,,,2025-10-01,1,,,,,セイラクヨウ,0
707,3120001280337,新規,0,2025-10-01,2025-10-01,フルーツベル株式会社,,株式会社,大阪府,大阪市北区,芝田２丁目８番１１号共栄ビル３Ｆ,,27,127,5300012,,,,,,,2025-10-01,1,,,,,フルーツベル,0
708,3120001280452,新規,0,2025-10-01,2025-10-01,株式会社ＰＲＧ,,株式会社,大阪府,大阪市都島区,内代町２丁目７番３２号,,27,102,5340013,,,,,,,2025-10-01,1,,,,,ピーアールジー,0
709,3120001280460,新規,0,2025-10-01,2025-10-01,三由興産株式会社,,株式会社,大阪府,枚方市,西禁野２丁目８番５号三由ビル３Ｆ,,27,210,5731192,,,,,,,2025-10-01,1,,,,,サンユウコウサン,0
710,3120001280493,新規,0,2025-10-01,2025-10-01,川木株式会社,,株式会社,大阪府,大阪市東住吉区,中野４丁目１番１６号リベラルオリエンテ中野５０２Ａ,,27,121,5460012,,,,,,,2025-10-01,1,,,,,カワキ,0
711,3120001280519,新規,0,2025-10-01,2025-10-01,瀾晟億安株式会社,,株式会社,大阪府,大阪市西成区,千本南２丁目７番１８号メゾン美也パート１－４０１号室,,27,122,5570055,,,,,,,2025-10-01,1,,,,,ランセイオクアン,0
715,3120003030756,新規,0,2025-10-01,2025-10-01,富宝居合同会社,,合同会社,大阪府,大阪市中央区,常盤町１丁目１－９－３０５,,27,128,5400028,,,,,,,2025-10-01,1,,,,,フホウイ,0
717,3120103006747,新規,0,2025-10-01,2025-10-01,Ｃｅｌｉｎａ合同会社,,合同会社,大阪府,泉佐野市,笠松２丁目７番２７号,,27,213,5980044,,,,,,,2025-10-01,1,,,,,セリナ,0
719,3120901051556,新規,0,2025-10-01,2025-10-01,川禾株式会社,,株式会社,大阪府,豊中市,岡町北２丁目３番８－１０１号,,27,203,5610884,,,,,,,2025-10-01,1,,,,,カワノギ,0
729,3130001080612,新規,0,2025-10-01,2025-10-01,株式会社ＮｏｖａＥｄｇｅ,,株式会社,京都府,京都市下京区,七条通油小路東入大黒町２２７番地第２キョートビル４０２,,26,106,6008223,,,,,,,2025-10-01,1,,,,,ノヴァエッジ,0
730,3130001080645,新規,0,2025-10-01,2025-10-01,澤光株式会社,,株式会社,京都府,京都市左京区,北白川西町２０番３号、寿ハイツ２０６号室,,26,103,6068267,,,,,,,2025-10-01,1,,,,,サワミツ,0
731,3130001080653,新規,0,2025-10-01,2025-10-01,株式会社ＨＭ,,株式会社,京都府,京都市左京区,岡崎徳成町２８－５聖護院ビル３Ｆ,,26,103,6068351,,,,,,,2025-10-01,1,,,,,エイチエム,0
732,3130003010815,新規,0,2025-10-01,2025-10-01,合同会社ＡＣＥ,,合同会社,京都府,京都市北区,紫竹栗栖町２５番地２Ｒｅｊｏｉｃｅ紫竹１０３,,26,101,6038435,,,,,,,2025-10-01,1,,,,,エース,0
737,3140001140159,新規,0,2025-10-01,2025-10-01,株式会社ＡＬＩ　ＧＡＲＡＧＥ７２,,株式会社,兵庫県,姫路市,白国４丁目７－３８・２階１３号,,28,201,6700808,,,,,,,2025-10-01,1,,,,,アリガレージナナジュウニ,0
738,3140003022636,新規,0,2025-10-01,2025-10-01,合同会社神戸ヤマテック,,合同会社,兵庫県,尼崎市,南塚口一丁目２６番２８号南塚口ビル本館４０１,,28,202,6600000,,,,,,,2025-10-01,1,,,,,コウベヤマテック,0
739,3140003022652,新規,0,2025-10-01,2025-10-01,合同会社ウィステリア,,合同会社,兵庫県,姫路市,香寺町中屋５２番地２,,28,201,6792144,,,,,,,2025-10-01,1,,,,,ウィステリア,0
740,3150001028428,新規,0,2025-10-01,2025-10-01,株式会社あすなろ福祉デザイン,,株式会社,奈良県,橿原市,八木町３丁目２番２５号プチボア・八木１０１号室,,29,205,6340078,,,,,,,2025-10-01,1,,,,,アスナロフクシデザイン,0
741,3150001028436,新規,0,2025-10-01,2025-10-01,ＴｅｃｈＬｉｆｅ株式会社,,株式会社,奈良県,大和高田市,神楽２丁目１４－１４－１,,29,202,6350025,,,,,,,2025-10-01,1,,,,,テックライフ,0
743,3160001027049,新規,0,2025-10-01,2025-10-01,Ｓｔｅｌｌａ　Ｖｅｒｔｅｘ株式会社,,株式会社,滋賀県,彦根市,芹川町５２８,,25,202,5220033,,,,,,,2025-10-01,1,,,,,ステラバーテックス,0
744,3160001027081,新規,0,2025-10-01,2025-10-01,株式会社東洋誘電,,株式会社,滋賀県,東近江市,横溝町２２７５番地,,25,213,5270135,,,,,,,2025-10-01,1,,,,,トウヨウユウデン,0
745,3160003003618,新規,0,2025-10-01,2025-10-01,合同会社ＳＲＫ,,合同会社,滋賀県,守山市,勝部４丁目９番３７－２０１号,,25,207,5240041,,,,,,,2025-10-01,1,,,,,エスアールケイ,0
753,3180003029090,新規,0,2025-10-01,2025-10-01,ＳＬ．Ｇｌｏｂａｌ　Ｒｉｎｇｓ　Ｌｉｎｋ合同会社,,合同会社,愛知県,名古屋市中川区,尾頭橋４丁目３番１号,,23,110,4540012,,,,,,,2025-10-01,1,,,,,エスエルグローバルリングスリンク,0
754,3180003029099,新規,0,2025-10-01,2025-10-01,合同会社ＡｉｓａｉＷｏｒｋｓ,,合同会社,愛知県,愛西市,下一色町宮内９６番地,,23,232,4960935,,,,,,,2025-10-01,1,,,,,アイサイワークス,0
761,3200003007060,新規,0,2025-10-01,2025-10-01,合同会社Ｍ＆Ｃ,,合同会社,岐阜県,岐阜市,柳津町上佐波西７丁目１１１番地,,21,201,5016121,,,,,,,2025-10-01,1,,,,,エムアンドシー,0
762,3200003007077,新規,0,2025-10-01,2025-10-01,ＡＢＡＵＴＯ　ＴＲＡＤＩＮＧ合同会社,,合同会社,岐阜県,不破郡垂井町,宮代５５５－１,,21,361,5032124,,,,,,,2025-10-01,1,,,,,エービーオートトレーディング,0
773,3230001021110,新規,0,2025-10-01,2025-10-01,ＩＴＩＦＡＱ　ＴＲＡＤＩＮＧ株式会社,,株式会社,富山県,射水市,堀岡新明神１８９番地,,16,211,9330221,,,,,,,2025-10-01,1,,,,,イティファークトレーディング,0
774,3240001065552,新規,0,2025-10-01,2025-10-01,株式会社ＣＡＲＵＲＡ,,株式会社,広島県,廿日市市,河津原１００６５番地８,,34,213,7380204,,,,,,,2025-10-01,1,,,,,カルラ,0
775,3240001065560,新規,0,2025-10-01,2025-10-01,株式会社ＵＤＣ,,株式会社,広島県,東広島市,高屋町高屋堀３３６４番地１,,34,212,7392111,,,,,,,2025-10-01,1,,,,,ユーディーシィー,0
796,3290001111483,新規,0,2025-10-01,2025-10-01,清萱リゾートリンク株式会社,,株式会社,福岡県,福岡市早良区,昭代２丁目２番３０号１０３室,,40,137,8140012,,,,,,,2025-10-01,1,,,,,キヨカヤリゾートリンク,0
803,3330005010958,新規,0,2025-10-01,2025-10-01,一般社団法人ＳＯＷＥＲ,,その他の設立登記法人,熊本県,上益城郡益城町,大字宮園４０４番地１,,43,443,8612241,,,,,,,2025-10-01,1,,,,,ソワー,0
804,3340001009532,新規,0,2025-10-01,2025-10-01,株式会社アートウイング,,株式会社,鹿児島県,鹿児島市,山下町１２番１７－１０１号,,46,201,8920816,,,,,,,2025-10-01,1,,,,,アートウイング,0
806,3360003015287,新規,0,2025-10-01,2025-10-01,ＯｐｅｎＲｏｕｔｅ合同会社,,合同会社,沖縄県,那覇市,牧志２丁目１７－２７－４０１,,47,201,9000013,,,,,,,2025-10-01,1,,,,,オープンルート,0
808,3370001053073,新規,0,2025-10-01,2025-10-01,カツオちゃん株式会社,,株式会社,宮城県,気仙沼市,港町５番１号,,04,205,9880021,,,,,,,2025-10-01,1,,,,,カツオチャン,0
809,3370001053081,新規,0,2025-10-01,2025-10-01,株式会社Ａｌｐｈａ　Ｃｏｒｐｏｒａｔｉｏｎ,,株式会社,宮城県,栗原市,高清水台町４１番地,,04,213,9872144,,,,,,,2025-10-01,1,,,,,アルファコーポレーション,0
810,3380001018182,新規,0,2025-10-01,2025-10-01,伊丹ブロック工業株式会社,,株式会社,福島県,会津若松市,山鹿町６番１２号,,07,202,9650876,,,,,,,2025-10-01,1,,,,,イタミブロックコウギョウ,0
815,3400001017181,新規,0,2025-10-01,2025-10-01,サムクラフトジャパン株式会社,,株式会社,岩手県,盛岡市,大通１丁目１０番１４号第一丸十ビル２階,,03,201,0200022,,,,,,,2025-10-01,1,,,,,サムクラフトジャパン,0
825,3700150131876,新規,0,2025-10-01,2025-08-20,シルク伝道師協会,,その他,東京都,新宿区,西新宿４丁目３２－６　パークグレース新宿１００９,,13,104,1600023,,,,,,,2025-08-20,1,,,,,シルクデンドウシキヨウカイ,0
826,3700150132387,新規,0,2025-10-01,2025-10-01,ＨＵＭＡＮＭＯＴＩＯＮ　ＣＯＲＰＯＲＡＴＩＯＮ　ＬＩＭＩＴＥＤ,,外国会社等,,,,,,,,ＮＯ　９２　ＧＲＡＮＶＩＬＬＥ　ＲＯＡＤ　ＵＮＩＴ　４０５　４／Ｆ　ＥＮＥＲＧＹ　ＰＬＡＺＡ　ＴＳＩＭ　ＳＨＡ　ＴＳＵＩ　ＥＡＳＴ　ＫＬ　９９９０７７　ＨＫ,,,,,,2025-10-01,1,,,,,ヒューマンモーションコーポレーションリミテッド,0
830,4010001258657,新規,0,2025-10-01,2025-10-01,株式会社ジョブハッピー,,株式会社,東京都,文京区,本郷３丁目３９番５号,,13,105,1130033,,,,,,,2025-10-01,1,,,,,ジョブハッピー,0
831,4010001258707,新規,0,2025-10-01,2025-10-01,株式会社Ｔａｂｉ　Ｔｅｒｒａｃｅ,,株式会社,東京都,中央区,晴海５丁目４－４－８０６号,,13,102,1040053,,,,,,,2025-10-01,1,,,,,タビテラス,0
835,4010401193314,新規,0,2025-10-01,2025-10-01,株式会社Ｃｏｎｃｕｓｔｏ,,株式会社,東京都,港区,北青山１丁目３－３三橋ビル３階,,13,103,1070061,,,,,,,2025-10-01,1,,,,,コンクスト,0
836,4010401193421,新規,0,2025-10-01,2025-10-01,株式会社ｐｕｎｉ,,株式会社,東京都,港区,赤坂８丁目１３番２４号赤坂桧町レジデンス３０５号,,13,103,1070052,,,,,,,2025-10-01,1,,,,,プニ,0
837,4010401193454,新規,0,2025-10-01,2025-10-01,日捷株式会社,,株式会社,東京都,港区,新橋４丁目２７番１号ル・グラシエルＢＬＤＧ．８０館６階,,13,103,1050004,,,,,,,2025-10-01,1,,,,,ニッショウ,0
843,4010405024754,新規,0,2025-10-01,2025-10-01,一般社団法人Ｍｉｒａｉ　Ｍｕｓｉｃ　Ｒｅｓｏｎａｎｃｅ　Ｊａｐａｎ,,その他の設立登記法人,東京都,港区,赤坂６丁目７番１４－１００３号,,13,103,1070052,,,,,,,2025-10-01,1,,,,,ミライミュージックレゾナンスジャパン,0
849,4010701048366,新規,0,2025-10-01,2025-10-01,ＴＳＤホールディングス株式会社,,株式会社,東京都,品川区,大崎２丁目６番１５号,,13,109,1410032,,,,,,,2025-10-01,1,,,,,ティーエスディーホールディングス,0
852,4010901058140,新規,0,2025-10-01,2025-10-01,株式会社Ｐｉｌａｔｅｓ　Ｐｒｏ,,株式会社,東京都,世田谷区,喜多見４丁目３３番８号,,13,112,1570067,,,,,,,2025-10-01,1,,,,,ピラティスプロ,0
853,4010901058149,新規,0,2025-10-01,2025-10-01,つなぐスタジオ株式会社,,株式会社,東京都,世田谷区,太子堂４丁目１８番１５号マガザン三軒茶屋２・３Ｆ－３,,13,112,1540004,,,,,,,2025-10-01,1,,,,,ツナグスタジオ,0
854,4010901058173,新規,0,2025-10-01,2025-10-01,ＹＰ株式会社,,株式会社,東京都,世田谷区,桜上水４丁目２２番１５－６０８号,,13,112,1560045,,,,,,,2025-10-01,1,,,,,ワイピー,0
856,4011001172237,新規,0,2025-10-01,2025-10-01,Ｍｅｄｉｒｏｓａ株式会社,,株式会社,東京都,渋谷区,道玄坂１丁目１７番９号ヴェラハイツ道玄坂４０２,,13,113,1500043,,,,,,,2025-10-01,1,,,,,メディローサ,0
857,4011001172278,新規,0,2025-10-01,2025-10-01,ＵＳＥＮ　Ｉｎｓｕｒａｎｃｅ　Ｇｒｏｕｐ株式会社,,株式会社,東京都,渋谷区,神泉町９番８号,,13,113,1500045,,,,,,,2025-10-01,1,,,,,ユウセンインシュアランスグループ,0
858,4011003022472,新規,0,2025-10-01,2025-10-01,高芝ホールディングス合同会社,00140873,合同会社,東京都,渋谷区,恵比寿南３丁目４番１４号オーベル代官山ＤＥ１００２,,13,113,1500022,,,,,,,2025-10-01,1,,,,,タカシバホールディングス,0
859,4011003022506,新規,0,2025-10-01,2025-10-01,合同会社Ｂｅｂａｓ,,合同会社,東京都,目黒区,東山１丁目１６－５アークウィル１０１,,13,110,1530043,,,,,,,2025-10-01,1,,,,,ベバス,0
873,4011103016457,新規,0,2025-10-01,2025-10-01,判断技能合同会社,,合同会社,東京都,新宿区,西新宿１丁目５－１２ニューセントラルビルＴＨＥＨＵＢ新宿西口,,13,104,1600023,,,,,,,2025-10-01,1,,,,,ハンダンギノウ,0
878,4011503006702,新規,0,2025-10-01,2025-10-01,信和合同会社,,合同会社,東京都,荒川区,西尾久７丁目４０－２－３１０Ａ号,,13,118,1160011,,,,,,,2025-10-01,1,,,,,シンワ,0
880,4011601028994,新規,0,2025-10-01,2025-10-01,隠光社株式会社,,株式会社,東京都,練馬区,石神井町３丁目３０－２０ＴＫビル２階４号室,,13,120,1770041,,,,,,,2025-10-01,1,,,,,インコウシャ,0
881,4011703004398,新規,0,2025-10-01,2025-10-01,合同会社アクシオス,,合同会社,東京都,江戸川区,一之江３丁目４－８,,13,123,1320024,,,,,,,2025-10-01,1,,,,,アクシオス,0
885,4011801046813,新規,0,2025-10-01,2025-10-01,摩能株式会社,,株式会社,東京都,足立区,栗原３丁目２６番１号２Ｆ,,13,121,1230842,,,,,,,2025-10-01,1,,,,,マノ,0
886,4011801046821,新規,0,2025-10-01,2025-10-01,株式会社マサキ,,株式会社,東京都,足立区,千住４丁目９番１４号,,13,121,1200034,,,,,,,2025-10-01,1,,,,,マサキ,0
908,4020005016993,新規,0,2025-10-01,2025-10-01,一般社団法人みんなのあーきてくと,,その他の設立登記法人,神奈川県,横浜市港北区,箕輪町１丁目３０番１－３３０号,,14,109,2230051,,,,,,,2025-10-01,1,,,,,ミンナノアーキテクト,0
914,4021001086361,新規,0,2025-10-01,2025-10-01,まがり株式会社,,株式会社,神奈川県,藤沢市,本藤沢５丁目８番１７号アメニティハウス２０３,,14,205,2510875,,,,,,,2025-10-01,1,,,,,マガリ,0
920,4030001168805,新規,0,2025-10-01,2025-10-01,ＭＡＸ　ＪＡＰＡＮ株式会社,,株式会社,埼玉県,川口市,西川口１丁目２３番３号ＲＥＧＩＡ４０７号室,,11,203,3320021,,,,,,,2025-10-01,1,,,,,マックスジャパン,0
921,4030001168862,新規,0,2025-10-01,2025-10-01,Ｓｔ．サンパティック株式会社,,株式会社,埼玉県,川口市,大字西立野６４１番地の１２,,11,203,3330813,,,,,,,2025-10-01,1,,,,,エスティサンパティック,0
922,4030001168870,新規,0,2025-10-01,2025-10-01,株式会社ＦＵＬＬ　ＬＩＦＥ,,株式会社,埼玉県,坂戸市,大字石井２３９８番地,,11,239,3500212,,,,,,,2025-10-01,1,,,,,フルライフ,0
923,4030001168887,新規,0,2025-10-01,2025-10-01,ＥＮＯＴＥＣ株式会社,,株式会社,埼玉県,加須市,東栄２丁目１２番１６号,,11,210,3470064,,,,,,,2025-10-01,1,,,,,エノテック,0
924,4030001168895,新規,0,2025-10-01,2025-10-01,海川商事株式会社,,株式会社,埼玉県,蕨市,塚越７丁目３－１６－１０１号室,,11,223,3350002,,,,,,,2025-10-01,1,,,,,ウミカワショウジ,0
929,4030003027703,新規,0,2025-10-01,2025-10-01,合同会社Ｔリノ,,合同会社,埼玉県,春日部市,栄町３丁目１１９番地３,,11,214,3440058,,,,,,,2025-10-01,1,,,,,ティリノ,0
930,4030003027711,新規,0,2025-10-01,2025-10-01,合同会社美容研究所,,合同会社,埼玉県,坂戸市,中富町６５番地１中川マンション１０６号室,,11,239,3500232,,,,,,,2025-10-01,1,,,,,ビヨウケンキュウジョ,0
931,4030003027728,新規,0,2025-10-01,2025-10-01,合同会社斉藤総業,,合同会社,埼玉県,日高市,大字原宿３５３番地５７,,11,242,3501205,,,,,,,2025-10-01,1,,,,,サイトウソウギョウ,0
932,4030003027760,新規,0,2025-10-01,2025-10-01,ＭＤＳ　ＴＲＡＤＩＮＧ合同会社,,合同会社,埼玉県,幸手市,東２丁目３６－５,,11,240,3400114,,,,,,,2025-10-01,1,,,,,エムディーエストレーディング,0
946,4040003028626,新規,0,2025-10-01,2025-10-01,ＢｘＮ合同会社,,合同会社,千葉県,柏市,柏６丁目１番２２－３０２号,,12,217,2770005,,,,,,,2025-10-01,1,,,,,ビーエックスエヌ,0
947,4040003028642,新規,0,2025-10-01,2025-10-01,万馬商事合同会社,,合同会社,千葉県,八千代市,八千代台北９丁目６－１０ＣＡＴ２０７号室,,12,221,2760031,,,,,,,2025-10-01,1,,,,,バンバショウジ,0
950,4050001057378,新規,0,2025-10-01,2025-10-01,ナイスリンク株式会社,,株式会社,茨城県,水戸市,谷田町１１６番地,,08,201,3100825,,,,,,,2025-10-01,1,,,,,ナイスリンク,0
955,4060001038625,新規,0,2025-10-01,2025-10-01,株式会社長栄,,株式会社,栃木県,真岡市,荒町２丁目１７番地３０,,09,209,3214305,,,,,,,2025-10-01,1,,,,,チョウエイ,0
957,4060003005788,新規,0,2025-10-01,2025-10-01,植也合同会社,,合同会社,栃木県,那須塩原市,四区町７２７番地３３,,09,213,3292746,,,,,,,2025-10-01,1,,,,,ショクヤ,0
960,4070001043376,新規,0,2025-10-01,2025-10-01,株式会社サンスイエン,,株式会社,群馬県,高崎市,柳川町１１番地７,,10,202,3700815,,,,,,,2025-10-01,1,,,,,サンスイエン,0
961,4070003006125,新規,0,2025-10-01,2025-10-01,合同会社康健,,合同会社,群馬県,館林市,富士原町１２４１番地の２６０,,10,207,3740041,,,,,,,2025-10-01,1,,,,,コウケン,0
965,4090001019531,新規,0,2025-10-01,2025-10-01,株式会社ＭＩＵ３Ｓ,,株式会社,山梨県,甲府市,東光寺町２１１３番地１５,,19,201,4000808,,,,,,,2025-10-01,1,,,,,ミュウスリーエス,0
982,4120001280195,新規,0,2025-10-01,2025-10-01,株式会社結,,株式会社,大阪府,大阪市城東区,諏訪２丁目１０番７号,,27,118,5360021,,,,,,,2025-10-01,1,,,,,ムスビ,0
983,4120001280377,新規,0,2025-10-01,2025-10-01,日進斗金株式会社,,株式会社,大阪府,大阪市福島区,海老江２丁目１０－２２アクティ福島５－Ｇ,,27,103,5530001,,,,,,,2025-10-01,1,,,,,ニッシントキン,0
984,4120001280492,新規,0,2025-10-01,2025-10-01,和盛株式会社,,株式会社,大阪府,大阪市東住吉区,中野４丁目１番１６号リベラルオリエンテ中野５０１Ｂ,,27,121,5460012,,,,,,,2025-10-01,1,,,,,ワセイ,0
985,4120001280518,新規,0,2025-10-01,2025-10-01,新瑞株式会社,,株式会社,大阪府,大阪市東淀川区,東中島１丁目２０番１２－９２５号,,27,114,5330033,,,,,,,2025-10-01,1,,,,,シンズイ,0
986,4120001280567,新規,0,2025-10-01,2025-10-01,雅品佳株式会社,,株式会社,大阪府,大阪市住吉区,長居２丁目８番１１号後藤ビル２０２号室,,27,120,5580003,,,,,,,2025-10-01,1,,,,,ガヒンカ,0
989,4120003030739,新規,0,2025-10-01,2025-10-01,未来再生合同会社,,合同会社,大阪府,大阪市西成区,橘３丁目１－８－２Ｆ,,27,122,5570051,,,,,,,2025-10-01,1,,,,,ミライサイセイ,0
992,4120103006754,新規,0,2025-10-01,2025-10-01,合同会社Ｓｅｃｏｎｄ　Ｒｉｄｅ,,合同会社,大阪府,羽曳野市,東阪田４２４－３,,27,222,5830846,,,,,,,2025-10-01,1,,,,,セカンドライド,0
993,4120901051563,新規,0,2025-10-01,2025-10-01,三生ジュエリー株式会社,,株式会社,大阪府,吹田市,春日１丁目７番２２号シティパレス緑地公園１０２号室,,27,205,5650853,,,,,,,2025-10-01,1,,,,,サンセイジュエリー,0
995,4120903005880,新規,0,2025-10-01,2025-10-01,合同会社ＭＡＮＤＯ,,合同会社,大阪府,茨木市,別院町５－３－６０１,,27,211,5670817,,,,,,,2025-10-01,1,,,,,エムアンドオー,0
996,4122001039670,新規,0,2025-10-01,2025-10-01,Ｔａｋｕｍｉ　Ｎｉｋｋｏ株式会社,,株式会社,大阪府,東大阪市,小阪２丁目１０－２８プレアール小阪５Ｂ,,27,227,5770801,,,,,,,2025-10-01,1,,,,,タクミニッコー,0
997,4122001039679,新規,0,2025-10-01,2025-10-01,侍弥株式会社,,株式会社,大阪府,東大阪市,若江西新町４丁目６番１０－２０３号,,27,227,5780944,,,,,,,2025-10-01,1,,,,,サムライヤ,0
998,4122001039687,新規,0,2025-10-01,2025-10-01,株式会社山田自動車,,株式会社,大阪府,東大阪市,西岩田４丁目８番１９号,,27,227,5780947,,,,,,,2025-10-01,1,,,,,ヤマダジドウシャ,0
1003,4130003010814,新規,0,2025-10-01,2025-10-01,合同会社七宝,,合同会社,京都府,京都市下京区,大黒町２２７番地第２キョートビル４０２,,26,106,6008043,,,,,,,2025-10-01,1,,,,,シチホウ,0
1004,4130003010822,新規,0,2025-10-01,2025-10-01,合同会社ＡＬＬ　ＴＯＭＯＲＲＯＷ’Ｓ　ＰＬＡＴＥＡＵＸ,,合同会社,京都府,京都市左京区,岩倉幡枝町７３０番地５ＡＤＥＳＴ宝ヶ池１０８号,,26,103,6060015,,,,,,,2025-10-01,1,,,,,オールトゥモローズプラトーズ,0
1010,4140001140158,新規,0,2025-10-01,2025-10-01,株式会社由良久,,株式会社,兵庫県,西宮市,甲陽園東山町１番７号,,28,204,6620012,,,,,,,2025-10-01,1,,,,,ユラク,0
1013,4140003022651,新規,0,2025-10-01,2025-10-01,ＤＨＴ合同会社,,合同会社,兵庫県,神戸市兵庫区,水木通１丁目１番２福田ビル２階,,28,105,6520802,,,,,,,2025-10-01,1,,,,,ディエッチティ,0
1014,4150001028427,新規,0,2025-10-01,2025-10-01,株式会社喜成,,株式会社,奈良県,奈良市,東九条町５５５番地の１２,,29,201,6308144,,,,,,,2025-10-01,1,,,,,キセイ,0
1015,4150001028435,新規,0,2025-10-01,2025-10-01,株式会社Ｃｌｕｓｐｅｄｉａ,,株式会社,奈良県,生駒市,萩の台８６６番地６６,,29,209,6300224,,,,,,,2025-10-01,1,,,,,クラウスペディア,0
1024,4180001168757,新規,0,2025-10-01,2025-10-01,株式会社Ｌｏｔｕｓ,,株式会社,愛知県,名古屋市中村区,日吉町２５ロイジェント日吉１１０４,,23,105,4530029,,,,,,,2025-10-01,1,,,,,ロータス,0
1025,4180001168848,新規,0,2025-10-01,2025-10-01,宝縁株式会社,,株式会社,愛知県,瀬戸市,共栄通２丁目１２番地,,23,204,4890809,,,,,,,2025-10-01,1,,,,,ホウエン,0
1027,4180003029131,新規,0,2025-10-01,2025-10-01,彩円美合同会社,,合同会社,愛知県,名古屋市千種区,今池２丁目２３番１９号（クレア千種１０３号）,,23,101,4640850,,,,,,,2025-10-01,1,,,,,サイエンビ,0
1031,4180301040252,新規,0,2025-10-01,2025-10-01,株式会社ススキ塗装,,株式会社,愛知県,西尾市,戸ケ崎２丁目１６番地１７,,23,213,4450075,,,,,,,2025-10-01,1,,,,,ススキトソウ,0
1032,4180301040260,新規,0,2025-10-01,2025-10-01,株式会社Ｌｏｇｌｉｎｅ,,株式会社,愛知県,豊田市,秋葉町６丁目９９番地１０,,23,211,4710873,,,,,,,2025-10-01,1,,,,,ログライン,0
1033,4180303006755,新規,0,2025-10-01,2025-10-01,合同会社ワンスクエア,,合同会社,愛知県,刈谷市,富士見町２丁目８１４番地,,23,210,4480854,,,,,,,2025-10-01,1,,,,,ワンスクエア,0
1039,4250001021347,新規,0,2025-10-01,2025-10-01,祐伸株式会社,,株式会社,山口県,山口市,今井町６番１０号,,35,203,7530055,,,,,,,2025-10-01,1,,,,,ユウシン,0
1040,4260001040593,新規,0,2025-10-01,2025-10-01,株式会社ホープ,,株式会社,岡山県,岡山市中区,原尾島２丁目２０番５号パレス原尾島１０１,,33,102,7038235,,,,,,,2025-10-01,1,,,,,ホープ,0
1048,4300003002348,新規,0,2025-10-01,2025-10-01,合同会社ＵＮＩ　Ｓｏｌｕｔｉｏｎ,,合同会社,佐賀県,佐賀市,木原１丁目１４番１４号,,41,201,8400015,,,,,,,2025-10-01,1,,,,,ユニソリューション,0
1049,4310001019797,新規,0,2025-10-01,2025-10-01,株式会社西山工務店,,株式会社,長崎県,対馬市,美津島町鷄知甲９８番地１,00140879,42,209,8170000,,,,,,,2025-10-01,1,,,,,ニシヤマコウムテン,0
1068,4360001035823,新規,0,2025-10-01,2025-10-01,株式会社沖縄植物,,株式会社,沖縄県,那覇市,安謝２丁目１１番２２号,,47,201,9000003,,,,,,,2025-10-01,1,,,,,オキナワショクブツ,0
1071,4370001053080,新規,0,2025-10-01,2025-10-01,ＢＴ　ＴＲＡＤＩＮＧ株式会社,,株式会社,宮城県,大崎市,岩出山池月字上宮草井前１００番地１,,04,215,9896405,,,,,,,2025-10-01,1,,,,,ビーティートレーディング,0
1075,4420001019290,新規,0,2025-10-01,2025-10-01,株式会社ＳＴＡＮＤＡＲＤ,,株式会社,青森県,上北郡おいらせ町,鶉久保３３番地９０,,02,412,0392182,,,,,,,2025-10-01,1,,,,,スタンダード,0
1076,4430001095265,新規,0,2025-10-01,2025-10-01,株式会社Ｋ．コネクト,,株式会社,北海道,札幌市白石区,川下三条３丁目３番２１号,,01,104,0030863,,,,,,,2025-10-01,1,,,,,ケイコネクト,0
1077,4430001095323,新規,0,2025-10-01,2025-10-01,株式会社ＭＡ．ＴＲＡＤＩＮＧ,,株式会社,北海道,美唄市,字峰延原野２０２２番地７６,,01,215,0720000,,,,,,,2025-10-01,1,,,,,エムエートレーディング,0
1080,4430003018133,新規,0,2025-10-01,2025-10-01,ＪＰ　ＴＲＡＤＩＮＧ合同会社,,合同会社,北海道,石狩市,花川北六条２丁目９８番地,,01,235,0613216,,,,,,,2025-10-01,1,,,,,ジェイピートレーディング,0
1081,4430005015310,新規,0,2025-10-01,2025-10-01,医療法人慧志会,,その他の設立登記法人,北海道,札幌市南区,澄川三条２丁目４番５号サンセリテ澄川３Ｆ,,01,106,0050003,,,,,,,2025-10-01,1,,,,,ケイシカイ,0
1083,4450001014743,新規,0,2025-10-01,2025-10-01,株式会社エスビジネス,,株式会社,北海道,上川郡比布町,寿町１丁目１番５号,,01,455,0780349,,,,,,,2025-10-01,1,,,,,エスビジネス,0
1084,4460101007761,新規,0,2025-10-01,2025-10-01,株式会社さとうタイヤ,,株式会社,北海道,河東郡音更町,新通１丁目７番地,,01,631,0800104,,,,,,,2025-10-01,1,,,,,サトウタイヤ,0
1090,5010001258680,新規,0,2025-10-01,2025-10-01,レーベルトゥレーベル株式会社,,株式会社,東京都,中央区,京橋２丁目２番１号京橋エドグラン２６階,,13,102,1040031,,,,,,,2025-10-01,1,,,,,レーベルトゥレーベル,0
1092,5010003048808,新規,0,2025-10-01,2025-10-01,Ｆａａｂｕｌａ合同会社,,合同会社,東京都,中央区,日本橋室町１丁目１１番１２号日本橋水野ビル７階,,13,102,1030022,,,,,,,2025-10-01,1,,,,,ファーブラ,0
1093,5010005040721,新規,0,2025-10-01,2025-10-01,一般社団法人官民連携ＤＸ女性活躍コンソシアーム,,その他の設立登記法人,東京都,千代田区,平河町２丁目１２番２号ニュー福井ビル２Ｆ,,13,101,1020093,,,,,,,2025-10-01,1,,,,,カンミンレンケイディーエックスジョセイカツヤクコンソシアーム,0
1096,5010105002349,新規,0,2025-10-01,2025-10-01,医療法人社団大桜会,,その他の設立登記法人,東京都,八王子市,めじろ台２丁目１番地１京王めじろ台マンションＡ棟１階,,13,201,1930833,,,,,,,2025-10-01,1,,,,,ダイオウカイ,0
1102,5010401193370,新規,0,2025-10-01,2025-10-01,Ｏｒｌｙ株式会社,,株式会社,東京都,港区,南麻布１丁目５番２０号１０１,,13,103,1060047,,,,,,,2025-10-01,1,,,,,オーリー,0
1103,5010401193387,新規,0,2025-10-01,2025-10-01,株式会社ＨＡＡＢ　ＭＥＤＩＣＡＬ　ＧＲＯＵＰ,,株式会社,東京都,港区,南青山２丁目２２番１９号アドバンテック南青山ビル１０階,,13,103,1070062,,,,,,,2025-10-01,1,,,,,ハーブメディカルグループ,0
1104,5010401193420,新規,0,2025-10-01,2025-10-01,コントラクトパートナー株式会社,,株式会社,東京都,港区,港南２丁目３番１号大信秋山ビル,,13,103,1080075,,,,,,,2025-10-01,1,,,,,コントラクトパートナー,0
1105,5010401193445,新規,0,2025-10-01,2025-10-01,ＱＯＮＸ株式会社,,株式会社,東京都,港区,東麻布２丁目２９番８号,,13,103,1060044,,,,,,,2025-10-01,1,,,,,コンクス,0
1106,5010403036180,新規,0,2025-10-01,2025-10-01,Ｈｅｌｉｏｓ合同会社,,合同会社,東京都,港区,北青山１丁目２番３号,,13,103,1070061,,,,,,,2025-10-01,1,,,,,ヘリオス,0
1109,5010601067993,新規,0,2025-10-01,2025-10-01,株式会社ＨＡＲＵ,,株式会社,東京都,墨田区,立花４丁目３３番１号,,13,107,1310043,,,,,,,2025-10-01,1,,,,,ハル,0
1110,5010601068034,新規,0,2025-10-01,2025-10-01,株式会社ノレンノムコウ,,株式会社,東京都,江東区,北砂５丁目１９番２８号,,13,108,1360073,,,,,,,2025-10-01,1,,,,,ノレンノムコウ,0
1111,5010603011826,新規,0,2025-10-01,2025-10-01,合同会社ベス４号,,合同会社,東京都,江東区,亀戸９丁目１９－７,,13,108,1360071,,,,,,,2025-10-01,1,,,,,ベスヨンゴウ,0
1115,5010901058148,新規,0,2025-10-01,2025-10-01,株式会社ＡＪＹＯＲＩＴＯ,,株式会社,東京都,世田谷区,船橋３丁目２６番１６号,,13,112,1560055,,,,,,,2025-10-01,1,,,,,アジョリト,0
1116,5010901058164,新規,0,2025-10-01,2025-10-01,株式会社ちーむ,,株式会社,東京都,世田谷区,北沢２丁目１７－１０滝本ビル１Ｆ,,13,112,1550031,,,,,,,2025-10-01,1,,,,,チーム,0
1120,5011001172269,新規,0,2025-10-01,2025-10-01,株式会社ＴＯＲＩＣＯ,,株式会社,東京都,渋谷区,道玄坂１丁目１０番８号渋谷道玄坂東急ビル２Ｆ－Ｃ,,13,113,1500043,,,,,,,2025-10-01,1,,,,,トリコ,0
1121,5011001172277,新規,0,2025-10-01,2025-10-01,株式会社Ｒｏｏｔｓ＆Ｌｅａｖｅｓ,,株式会社,東京都,渋谷区,渋谷４丁目３番１７号常盤松葵マンション６０３,,13,113,1500002,,,,,,,2025-10-01,1,,,,,ルーツアンドリーブス,0
1122,5011001172293,新規,0,2025-10-01,2025-10-01,株式会社アールエフラボ,,株式会社,東京都,渋谷区,東３丁目１２番１５―８０４号,,13,113,1500011,,,,,,,2025-10-01,1,,,,,アールエフラボ,0
1123,5011001172319,新規,0,2025-10-01,2025-10-01,Ｋ’ｓ商事株式会社,,株式会社,東京都,渋谷区,千駄ヶ谷３丁目４１番７号デュープレックスＲ’ｓ１００２,,13,113,1510051,,,,,,,2025-10-01,1,,,,,ケイエスショウジ,0
1124,5011003022620,新規,0,2025-10-01,2025-10-01,合同会社ティーエス管理,,合同会社,東京都,渋谷区,富ヶ谷１丁目２３番３号,,13,113,1510063,,,,,,,2025-10-01,1,,,,,ティーエスカンリ,0
1127,5011101113370,新規,0,2025-10-01,2025-10-01,株式会社Ｎａｖｉｔ,,株式会社,東京都,新宿区,西新宿６丁目５番１号新宿アイランドタワー２階,,13,104,1600023,,,,,,,2025-10-01,1,,,,,ナビット,0
1128,5011101113395,新規,0,2025-10-01,2025-10-01,株式会社クレリア,,株式会社,東京都,新宿区,百人町２丁目５番４号土屋ビル２Ｆ,,13,104,1690073,,,,,,,2025-10-01,1,,,,,クレリア,0
1131,5011301030903,新規,0,2025-10-01,2025-10-01,株式会社Ｎｏｂｌｉｓ,,株式会社,東京都,杉並区,永福２丁目１―１５―１０５,,13,115,1680064,,,,,,,2025-10-01,1,,,,,ノブリス,0
1135,5011601029001,新規,0,2025-10-01,2025-10-01,Ａｐｅｘ　Ｂｒｉｄｇｅ株式会社,,株式会社,東京都,練馬区,桜台１丁目７番７－４０３号,,13,120,1760002,,,,,,,2025-10-01,1,,,,,エーペックスブリッジ,0
1138,5011603004869,新規,0,2025-10-01,2025-10-01,セカンドトラスト合同会社,,合同会社,東京都,練馬区,貫井３丁目２０番６－４０３号,,13,120,1760021,,,,,,,2025-10-01,1,,,,,セカンドトラスト,0
1139,5011701028778,新規,0,2025-10-01,2025-10-01,株式会社ルミナス,,株式会社,東京都,江戸川区,東小岩５丁目３７番１２号楽新ビル３０３号,,13,123,1330052,,,,,,,2025-10-01,1,,,,,ルミナス,0
1140,5011801046820,新規,0,2025-10-01,2025-10-01,株式会社Ｙｕｍｅｋａ,,株式会社,東京都,足立区,千住河原町７番１１号信開ダイナスティ千住３０１,,13,121,1200037,,,,,,,2025-10-01,1,,,,,ユメカ,0
1143,5012701019107,新規,0,2025-10-01,2025-10-01,株式会社Ｔｒｕｓｔ　Ｐａｒｔｎｅｒｓ,,株式会社,東京都,小平市,花小金井１丁目１９番４号メゾン石塚１０１号,00140874,13,211,1870002,,,,,,,2025-10-01,1,,,,,トラストパートナーズ,0
1144,5012801024279,新規,0,2025-10-01,2025-10-01,株式会社ＰＡＮＳＴＯＲＭ,,株式会社,東京都,立川市,錦町４丁目５番２３号ジョイフル西国立１０２,,13,202,1900022,,,,,,,2025-10-01,1,,,,,パンストーム,0
1146,5013301054931,新規,0,2025-10-01,2025-10-01,成瑞国際資源株式会社,,株式会社,東京都,豊島区,北池袋二丁目１１番１４号第二アンザイ・ヤマキビル７階,,13,116,1700000,,,,,,,2025-10-01,1,,,,,ナリミズコクサイシゲン,0
1147,5013301055038,新規,0,2025-10-01,2025-10-01,株式会社ルビー,,株式会社,東京都,豊島区,池袋３丁目３９番２号,,13,116,1710014,,,,,,,2025-10-01,1,,,,,ルビー,0
1160,5021003016596,新規,0,2025-10-01,2025-10-01,ＦＡＴ　ＰＬＵＳＨ合同会社,,合同会社,神奈川県,相模原市南区,当麻１１１３－４メゾンハルハル１０２,,14,153,2520336,,,,,,,2025-10-01,1,,,,,ファットプラッシュ,0
1162,5030001168894,新規,0,2025-10-01,2025-10-01,ビジネスデザイン株式会社,,株式会社,埼玉県,鴻巣市,愛の町１４６番地,,11,217,3650068,,,,,,,2025-10-01,1,,,,,ビジネスデザイン,0
1166,5030003027735,新規,0,2025-10-01,2025-10-01,合同会社カムン,,合同会社,埼玉県,さいたま市大宮区,桜木町２丁目３番地大宮マルイ７階,,11,103,3300854,,,,,,,2025-10-01,1,,,,,カムン,0
1168,5040001017811,新規,0,2025-10-01,2025-10-01,株式会社スターボード,,株式会社,千葉県,船橋市,本町７丁目２７番２０号,,12,204,2730005,,,,,,,2025-10-01,1,,,,,スターボード,0
1169,5040001140687,新規,0,2025-10-01,2025-10-01,井田株式会社,,株式会社,千葉県,山武市,美杉野２丁目７番１号,,12,237,2891224,,,,,,,2025-10-01,1,,,,,イダ,0
1170,5040001140761,新規,0,2025-10-01,2025-10-01,株式会社ＫＩＭＵＲＡ　ＨＯＬＤＩＮＧＳ,,株式会社,千葉県,八千代市,上高野７１７番地２,,12,221,2760022,,,,,,,2025-10-01,1,,,,,キムラホールディングス,0
1174,5040003028641,新規,0,2025-10-01,2025-10-01,ＹＵＭＥ　ＡＵＴＯ　ＪＡＰＡＮ合同会社,,合同会社,千葉県,八街市,東吉田２３０－９－Ａ,,12,230,2891114,,,,,,,2025-10-01,1,,,,,ユメオートジャパン,0
1179,5050001057344,新規,0,2025-10-01,2025-10-01,ＫＩレント株式会社,,株式会社,茨城県,水戸市,平須町１６６０－１,,08,201,3100853,,,,,,,2025-10-01,1,,,,,ケイアイレント,0
1180,5050001057360,新規,0,2025-10-01,2025-10-01,株式会社ブルームワークス,,株式会社,茨城県,水戸市,酒門町４８７８－１,,08,201,3100841,,,,,,,2025-10-01,1,,,,,ブルームワークス,0
1183,5060001038590,新規,0,2025-10-01,2025-10-01,株式会社Ａｉｒｕ,,株式会社,栃木県,栃木市,倭町７番１７号,,09,203,3280037,,,,,,,2025-10-01,1,,,,,アイル,0
1184,5060001038616,新規,0,2025-10-01,2025-10-01,ＴＦＴ株式会社,,株式会社,栃木県,足利市,山下町１３９０番地４,,09,202,3260846,,,,,,,2025-10-01,1,,,,,ティエフティ,0
1185,5060003005770,新規,0,2025-10-01,2025-10-01,バンクワン合同会社,,合同会社,栃木県,日光市,平ケ崎８８－４,,09,206,3211262,,,,,,,2025-10-01,1,,,,,バンクワン,0
1186,5060003005779,新規,0,2025-10-01,2025-10-01,ＡＮＦＡＬ　ＴＲＡＤＩＮＧ合同会社,,合同会社,栃木県,芳賀郡茂木町,大字烏生田３４７番地１,,09,343,3213541,,,,,,,2025-10-01,1,,,,,アンファールトレーディング,0
1187,5060003005787,新規,0,2025-10-01,2025-10-01,ＡＫＩ　ＢＯＵＥＫＩ合同会社,,合同会社,栃木県,栃木市,藤岡町甲字篠山２１０４－３,,09,203,3231105,,,,,,,2025-10-01,1,,,,,アキボウエキ,0
1189,5070001043375,新規,0,2025-10-01,2025-10-01,大塚興業株式会社,,株式会社,群馬県,前橋市,鶴光路町６９１番地の４,,10,201,3792141,,,,,,,2025-10-01,1,,,,,,0
1192,5070003006124,新規,0,2025-10-01,2025-10-01,ＧＨＵＬＡＭ　ＤＡＳＴＧＩＲ　ＴＲＡＤＥＲＳ合同会社,,合同会社,群馬県,前橋市,西片貝町４丁目１番地９グリーンハイツ西片貝Ｂ－３５号,,10,201,3710013,,,,,,,2025-10-01,1,,,,,グラムダストギルトレーダーズ,0
1198,5090001019530,新規,0,2025-10-01,2025-10-01,株式会社エム・エー・テクノ,,株式会社,山梨県,甲府市,大津町３１７番地１１秀公ハイツ１０１号,,19,201,4000055,,,,,,,2025-10-01,1,,,,,エムエーテクノ,0
1203,5110001039600,新規,0,2025-10-01,2025-10-01,Ｃｈｉ　Ｓｈｕａｎｇ株式会社,,株式会社,新潟県,南魚沼郡湯沢町,湯沢３丁目２番１３号地下１階,,15,461,9496101,,,,,,,2025-10-01,1,,,,,チイシュワーン,0
1216,5120001280129,新規,0,2025-10-01,2025-10-01,中正株式会社,,株式会社,大阪府,大阪市生野区,勝山北４丁目１－１９－３０２,,27,116,5440033,,,,,,,2025-10-01,1,,,,,ナカマサ,0
1217,5120001280252,新規,0,2025-10-01,2025-10-01,株式会社アニュス,,株式会社,大阪府,大阪市西区,江戸堀１丁目２７番２１号１階,,27,106,5500002,,,,,,,2025-10-01,1,,,,,アニュス,0
1218,5120001280319,新規,0,2025-10-01,2025-10-01,ＲａｙＳｈｉｆｔ株式会社,,株式会社,大阪府,大阪市浪速区,日本橋東３丁目１４番１０－１１０６号,,27,111,5560006,,,,,,,2025-10-01,1,,,,,レイシフト,0
1219,5120001280500,新規,0,2025-10-01,2025-10-01,株式会社桜井田,,株式会社,大阪府,大阪市生野区,新今里６丁目３番１０号エクラ新今里４０１,,27,116,5440001,,,,,,,2025-10-01,1,,,,,サクライダ,0
1225,5120003030119,新規,0,2025-10-01,2025-10-01,ＭＨＤ再建合同会社,,合同会社,大阪府,大阪市中央区,博労町１丁目７番７号中央博労町ビル８０４号室,,27,128,5410059,,,,,,,2025-10-01,1,,,,,エムエイチディーサイケン,0
1226,5120003030754,新規,0,2025-10-01,2025-10-01,合同会社旭日スポーツ,,合同会社,大阪府,大阪市城東区,今福南４丁目８番３７－３０３号,,27,118,5360003,,,,,,,2025-10-01,1,,,,,キョクジツスポーツ,0
1227,5120003030770,新規,0,2025-10-01,2025-10-01,ＨＴ　ＬＵＸＵＲＹ合同会社,,合同会社,大阪府,大阪市西成区,鶴見橋３丁目２－２３鶴見ハイツ２０２,,27,122,5570031,,,,,,,2025-10-01,1,,,,,エイチティーラクスリー,0
1229,5120101072509,新規,0,2025-10-01,2025-10-01,株式会社ＧＭｓＢ,,株式会社,大阪府,泉大津市,松之浜町２丁目２０番８号,,27,206,5950072,,,,,,,2025-10-01,1,,,,,ジーエムエスビー,0
1234,5122001039678,新規,0,2025-10-01,2025-10-01,株式会社ＳＥＰＴ,,株式会社,大阪府,東大阪市,宝持２丁目１４番２７号,,27,227,5770805,,,,,,,2025-10-01,1,,,,,セプト,0
1235,5122001039703,新規,0,2025-10-01,2025-10-01,株式会社ＥＬＭＯ,,株式会社,大阪府,東大阪市,柏田東町１番８号コーポＫ２０１号室,,27,227,5770833,,,,,,,2025-10-01,1,,,,,エルモ,0
1243,5130001080619,新規,0,2025-10-01,2025-10-01,株式会社ＰＥＧＳ,,株式会社,京都府,木津川市,南加茂台１０丁目２番地６,,26,214,6191127,,,,,,,2025-10-01,1,,,,,ペグス,0
1251,5140001140124,新規,0,2025-10-01,2025-10-01,株式会社ｅｎｎ,,株式会社,兵庫県,神戸市中央区,磯辺通２丁目２－１０ｏｎｅｋｎｏｔｔｒａｄｅｓ神戸ビル１００６号室,,28,110,6510084,,,,,,,2025-10-01,1,,,,,エン,0
1252,5140001140157,新規,0,2025-10-01,2025-10-01,ＴＴガレージ株式会社,,株式会社,兵庫県,赤穂市,中広１８８９番地,,28,212,6780232,,,,,,,2025-10-01,1,,,,,ティーティーガレージ,0
1255,5140003022650,新規,0,2025-10-01,2025-10-01,トリニティ合同会社,,合同会社,兵庫県,尼崎市,小中島３丁目５番２１号,,28,202,6610972,,,,,,,2025-10-01,1,,,,,トリニティ,0
1257,5150001028434,新規,0,2025-10-01,2025-10-01,株式会社足高メリヤス,,株式会社,奈良県,葛城市,中戸３８９番地,,29,211,6392146,,,,,,,2025-10-01,1,,,,,アシタカメリヤス,0
1268,5180001168707,新規,0,2025-10-01,2025-10-01,株式会社三生,,株式会社,愛知県,名古屋市中区,栄２丁目１２番２２号ウィンコート白川６０５号室,,23,106,4600008,,,,,,,2025-10-01,1,,,,,サンショウ,0
1269,5180001168772,新規,0,2025-10-01,2025-10-01,ＡＬＩ　ＴＲＡＤＩＮＧ株式会社,,株式会社,愛知県,名古屋市港区,明正２丁目２７９番地１１エシール明正２０２,,23,111,4550806,,,,,,,2025-10-01,1,,,,,アリトレーディング,0
1271,5180003029155,新規,0,2025-10-01,2025-10-01,合同会社コンパーニョ,,合同会社,愛知県,名古屋市中村区,名駅４丁目２４番５号第２森ビル４０１,,23,105,4500002,,,,,,,2025-10-01,1,,,,,コンパーニョ,0
1272,5180005021242,新規,0,2025-10-01,2025-10-01,一般社団法人Ｓｐｅｃｉａｌ　Ｎｅｅｄｓ　Ｓｕｐｐｏｒｔ,,その他の設立登記法人,愛知県,清須市,廻間１丁目８番地９,,23,233,4520946,,,,,,,2025-10-01,1,,,,,スペシャルニーズサポート,0
1274,5180303006754,新規,0,2025-10-01,2025-10-01,ＫＯＯＲＡ　ＴＲＡＤＩＮＧ合同会社,,合同会社,愛知県,豊田市,汐見町２丁目１４番地１レクサシオミ１０６,,23,211,4710041,,,,,,,2025-10-01,1,,,,,クーラトレーディング,0
1277,5210001020327,新規,0,2025-10-01,2025-10-01,株式会社ミライ,,株式会社,福井県,福井市,笹谷町第７号１５８番地,,18,201,9103645,,,,,,,2025-10-01,1,,,,,ミライ,0
1278,5210003001960,新規,0,2025-10-01,2025-10-01,合同会社トリプレッツ,,合同会社,福井県,福井市,日光２丁目４－６,,18,201,9100029,,,,,,,2025-10-01,1,,,,,トリプレッツ,0
1279,5220003004129,新規,0,2025-10-01,2025-10-01,ＳＫＹメンテナンス合同会社,,合同会社,石川県,小松市,林町ほ２７番地１,,17,203,9230344,,,,,,,2025-10-01,1,,,,,スカイメンテナンス,0
1296,5290001111465,新規,0,2025-10-01,2025-10-01,株式会社弘華,,株式会社,福岡県,福岡市博多区,博多駅東１丁目５－１０－４０２室,,40,132,8120013,,,,,,,2025-10-01,1,,,,,コウカ,0
1297,5290001111507,新規,0,2025-10-01,2025-10-01,株式会社田中企画,,株式会社,福岡県,春日市,白水ヶ丘３丁目１０８番地１,,40,218,8160845,,,,,,,2025-10-01,1,,,,,タナカキカク,0
1298,5290001111515,新規,0,2025-10-01,2025-10-01,晴空株式会社,,株式会社,福岡県,福岡市東区,多の津５丁目９番４－１０１号,,40,131,8130034,,,,,,,2025-10-01,1,,,,,セイクウ,0
1299,5290001111523,新規,0,2025-10-01,2025-10-01,株式会社神田総合研究所,,株式会社,福岡県,福岡市中央区,天神４丁目６－２８いちご天神ノースビル７階,,40,133,8100001,,,,,,,2025-10-01,1,,,,,カンダソウゴウケンキュウジョ,0
1300,5290003017446,新規,0,2025-10-01,2025-10-01,Ｐｏｍｉｎ合同会社,,合同会社,福岡県,福岡市博多区,相生町３丁目３番４１号,,40,132,8120885,,,,,,,2025-10-01,1,,,,,ポミン,0
1301,5290003017462,新規,0,2025-10-01,2025-10-01,合同会社Ｖｅｓｔ,,合同会社,福岡県,福岡市東区,筥松１丁目１１番地８－４０２号,,40,131,8120061,,,,,,,2025-10-01,1,,,,,ベスト,0
1303,5290803005162,新規,0,2025-10-01,2025-10-01,合同会社Ｒ．Ｂ,,合同会社,福岡県,北九州市小倉北区,金鶏町１０番１３号,,40,106,8030843,,,,,,,2025-10-01,1,,,,,アールビー,0
1306,5300003002347,新規,0,2025-10-01,2025-10-01,合同会社ＴＲＡＤＥＸＩＡ,,合同会社,佐賀県,佐賀市,若宮１丁目４－１５シュロス若宮２０３,,41,201,8490926,,,,,,,2025-10-01,1,,,,,トラデクシア,0
1309,5330003011238,新規,0,2025-10-01,2025-10-01,合同会社結ｎｏＷａ,,合同会社,熊本県,熊本市南区,護藤町１４９５番地６,,43,104,8614117,,,,,,,2025-10-01,1,,,,,ユイノワ,0
1313,5360003015285,新規,0,2025-10-01,2025-10-01,合同会社Ｓｏｎｒｉｓａ　Ｇｒｏｕｐ,,合同会社,沖縄県,豊見城市,字真玉橋２６８番地ＬＷレイクサイドステージ５１５号室,,47,212,9010201,,,,,,,2025-10-01,1,,,,,ソンリーサグループ,0
1317,5370003007307,新規,0,2025-10-01,2025-10-01,ＡＫＨＴＡＲ　ＮＡＺ　ＴＲＡＤＩＮＧ合同会社,,合同会社,宮城県,刈田郡蔵王町,大字円田字山中９番１,,04,301,9890821,,,,,,,2025-10-01,1,,,,,アフタルナズトレーディング,0
1334,5430001095363,新規,0,2025-10-01,2025-10-01,株式会社ライブシンフォニー,,株式会社,北海道,札幌市豊平区,平岸一条１７丁目２番１号東急ドエル平岸ビレジ１号棟４０４号室,,01,105,0620931,,,,,,,2025-10-01,1,,,,,ライブシンフォニー,0
1336,5430003018124,新規,0,2025-10-01,2025-10-01,合同会社サブル,,合同会社,北海道,札幌市東区,北二十五条東１３丁目１番２４号メゾンＳＥＩＫＯ２０２号,,01,103,0650025,,,,,,,2025-10-01,1,,,,,サブル,0
1341,5700150132385,新規,0,2025-10-01,2025-10-01,Ｓｈｅｎｚｈｅｎ　Ｒｕｉｔｏｎｇｄａ　Ｔｅｃｈｎｏｌｏｇｙ　Ｃｏ．，Ｌｔｄ,,外国会社等,,,,,,,,Ｓｈｅｎ　Ｚｈｅｎ　Ｓｈｉ　Ｂａｏ　Ａｎ　Ｑｕ　Ｓｏｎｇ　Ｇａｎｇ　Ｊｉｅ　Ｄａｏ　Ｓｈａ　Ｐｕ　Ｓｈｅ　Ｑｕ　Ｓｈａ　Ｐｕ　Ｅｒ　Ｌｕ　６８　Ｈａｏ　Ｄａ　Ｓｅｎ　Ｃｈａｎｇ　Ｆａｎｇ　Ｅｒ　２０１,,,,,,2025-10-01,1,,,,,シェンジェンシールイトンダーコージーヨウシエンゴンスー,0
1350,6010001258696,新規,0,2025-10-01,2025-10-01,ＫＡＩＮＡＬ株式会社,,株式会社,東京都,中央区,銀座１丁目１２－４Ｎ＆ＥＢＬＤ．７階,,13,102,1040061,,,,,,,2025-10-01,1,,,,,カイナル,0
1351,6010001258837,新規,0,2025-10-01,2025-10-01,株式会社ＡＣ‐１０,,株式会社,東京都,千代田区,麹町３丁目５番地２,,13,101,1020083,,,,,,,2025-10-01,1,,,,,エーシーテン,0
1364,6010401193254,新規,0,2025-10-01,2025-10-01,株式会社Ｆｅａｔｕｒｉｎｇ　Ｊａｐａｎ,,株式会社,東京都,港区,虎ノ門１丁目１７番１号虎ノ門ヒルズビジネスタワー１５階,,13,103,1050001,,,,,,,2025-10-01,1,,,,,フィーチャリングジャパン,0
1367,6010403036097,新規,0,2025-10-01,2025-10-01,ＯＯＫＩＩＨＥＹＡ合同会社,,合同会社,東京都,港区,北青山１丁目３番１号アールキューブ青山３階,,13,103,1070061,,,,,,,2025-10-01,1,,,,,オオキイヘヤ,0
1368,6010403036155,新規,0,2025-10-01,2025-10-01,合同会社林茂資本,,合同会社,東京都,港区,西麻布３丁目１９番２２号,,13,103,1060031,,,,,,,2025-10-01,1,,,,,リンマウシホン,0
1372,6010603011825,新規,0,2025-10-01,2025-10-01,合同会社ベス３号,,合同会社,東京都,江東区,亀戸９丁目１９－７,,13,108,1360071,,,,,,,2025-10-01,1,,,,,ベスサンゴウ,0
1385,6011001172276,新規,0,2025-10-01,2025-10-01,株式会社ブランドグロースカンパニー,,株式会社,東京都,目黒区,上目黒４丁目４２番６号,,13,110,1530051,,,,,,,2025-10-01,1,,,,,ブランドグロースカンパニー,0
1386,6011001172284,新規,0,2025-10-01,2025-10-01,株式会社デレマック・エス,,株式会社,東京都,渋谷区,西原２丁目３４番９号Ｍ’ｓＩＩ３Ｆ,00140882,13,113,1510066,,,,,,,2025-10-01,1,,,,,デレマックエス,0
1388,6011003022479,新規,0,2025-10-01,2025-10-01,合同会社ＭＩＭＩＭＩ,,合同会社,東京都,渋谷区,道玄坂１丁目１０番８号渋谷道玄坂東急ビル２階Ｃ,,13,113,1500043,,,,,,,2025-10-01,1,,,,,ミミミ,0
1400,6011105011603,新規,0,2025-10-01,2025-10-01,一般社団法人Ｌｕｆｕｌｌ,,その他の設立登記法人,東京都,新宿区,西新宿８丁目１７番２号,,13,104,1600023,,,,,,,2025-10-01,1,,,,,ルフル,0
1401,6011301030927,新規,0,2025-10-01,2025-10-01,株式会社Ｏｍｎｉ　Ｗｏｒｋｓ,,株式会社,東京都,杉並区,高円寺南２丁目４１番１０号テラスブランシェ２Ａ,,13,115,1660003,,,,,,,2025-10-01,1,,,,,オムニワークス,0
1402,6011301030935,新規,0,2025-10-01,2025-10-01,株式会社Ｓｔｕｄｉｏ　ＡｒｃＬｉｎｅ,,株式会社,東京都,杉並区,上荻２丁目１７番３－１０７号,,13,115,1670043,,,,,,,2025-10-01,1,,,,,スタジオアークライン,0
1403,6011401027435,新規,0,2025-10-01,2025-10-01,和盛株式会社,,株式会社,東京都,板橋区,大山金井町４７番１１号,,13,119,1730024,,,,,,,2025-10-01,1,,,,,ワセイ,0
1407,6011703004396,新規,0,2025-10-01,2025-10-01,合同会社アネスト会計,,合同会社,東京都,江戸川区,平井１丁目２４番１４号,,13,123,1320035,,,,,,,2025-10-01,1,,,,,アネストカイケイ,0
1409,6011803007092,新規,0,2025-10-01,2025-10-01,合同会社ＭＫＰ,,合同会社,東京都,葛飾区,西水元３丁目３－１９,,13,122,1250031,,,,,,,2025-10-01,1,,,,,エムケイピー,0
1411,6012403007367,新規,0,2025-10-01,2025-10-01,合同会社ＰＩＮＫＣＬＯＵＤ,,合同会社,東京都,調布市,多摩川３丁目３７番地２１Ｔ＆ＫハウスＡ,,13,208,1820025,,,,,,,2025-10-01,1,,,,,ピンククラウド,0
1414,6013301055029,新規,0,2025-10-01,2025-10-01,株式会社ＬｉＡｃｔ,,株式会社,東京都,豊島区,東池袋２丁目６３番１－１００１号,,13,116,1700013,,,,,,,2025-10-01,1,,,,,リアクト,0
1415,6013301055037,新規,0,2025-10-01,2025-10-01,株式会社ＩＬＳ,,株式会社,東京都,豊島区,南池袋１丁目１６番２０号ぬかりやビル６Ｆ,,13,116,1710022,,,,,,,2025-10-01,1,,,,,アイエルエス,0
1422,6020003029450,新規,0,2025-10-01,2025-10-01,合同会社サクセション,,合同会社,神奈川県,川崎市多摩区,生田８丁目２２番４号ル・シャトーＡ２０２,,14,135,2140038,,,,,,,2025-10-01,1,,,,,サクセション,0
1425,6021001086368,新規,0,2025-10-01,2025-10-01,オマーク株式会社,,株式会社,神奈川県,藤沢市,鵠沼橘１丁目３番１２～１２０３号,,14,205,2510024,,,,,,,2025-10-01,1,,,,,オマーク,0
1426,6021003016595,新規,0,2025-10-01,2025-10-01,合同会社おはようファーマシー,,合同会社,神奈川県,三浦市,南下浦町上宮田３２６２番地４,,14,210,2380101,,,,,,,2025-10-01,1,,,,,オハヨウファーマシー,0
1430,6030001168803,新規,0,2025-10-01,2025-10-01,盛橋株式会社,,株式会社,埼玉県,さいたま市西区,大字飯田新田５０９番地１号２０３室,,11,101,3310068,,,,,,,2025-10-01,1,,,,,セイキョウ,0
1431,6030001168877,新規,0,2025-10-01,2025-10-01,株式会社Ｓｉｌｈｏｕｅｔｔｅ０７,,株式会社,埼玉県,川越市,新宿町１丁目１６番１８号橋本ビル２－ｃ,,11,201,3501124,,,,,,,2025-10-01,1,,,,,シルエットゼロナナ,0
1434,6030003027701,新規,0,2025-10-01,2025-10-01,ＰＹＡＥ　ＳＯＮＥ合同会社,,合同会社,埼玉県,朝霞市,宮戸３丁目８番２号,,11,227,3510031,,,,,,,2025-10-01,1,,,,,ピエソン,0
1435,6030003027734,新規,0,2025-10-01,2025-10-01,合同会社雨名,,合同会社,埼玉県,三郷市,彦成２丁目３９１番地５,,11,237,3410003,,,,,,,2025-10-01,1,,,,,アメナ,0
1441,6040001140653,新規,0,2025-10-01,2025-10-01,株式会社ＳＴ　Ｅｎｔｅｒｐｒｉｓｅ,,株式会社,千葉県,船橋市,旭町６丁目６番３３－５０３号,,12,204,2730041,,,,,,,2025-10-01,1,,,,,エスティーエンタプライズ,0
1442,6040001140686,新規,0,2025-10-01,2025-10-01,株式会社こいで産業医事務所,,株式会社,千葉県,千葉市美浜区,中瀬１丁目６ｍＢＡＹＰＯＩＮＴ幕張低層棟２Ｆ,,12,106,2610023,,,,,,,2025-10-01,1,,,,,コイデサンギョウイジムショ,0
1447,6050003009615,新規,0,2025-10-01,2025-10-01,ＡＰＳ合同会社,,合同会社,茨城県,古河市,駒羽根３２０番地１,,08,204,3060221,,,,,,,2025-10-01,1,,,,,エーピーエス,0
1450,6060003005786,新規,0,2025-10-01,2025-10-01,ＳＭＫ　ＪＡＰＡＮ合同会社,,合同会社,栃木県,栃木市,岩舟町静和２７８８番地１,,09,203,3294304,,,,,,,2025-10-01,1,,,,,エスエムケージャパン,0
1453,6080003003565,新規,0,2025-10-01,2025-10-01,合同会社ＧＲＡＮＤＩＲ,,合同会社,静岡県,静岡市清水区,押切６３－３－２０５,,22,103,4240008,,,,,,,2025-10-01,1,,,,,グランディール,0
1455,6080101025809,新規,0,2025-10-01,2025-10-01,株式会社ショムニ,,株式会社,静岡県,沼津市,江原町１０番７号サンパテーク２０５,,22,203,4100049,,,,,,,2025-10-01,1,,,,,ショムニ,0
1457,6080103003432,新規,0,2025-10-01,2025-10-01,合同会社ＡＦ・ＴＲＡＤＩＮＧ,,合同会社,静岡県,富士市,西船津３２３番地の３,,22,210,4170814,,,,,,,2025-10-01,1,,,,,エーエフトレーディング,0
1461,6080405007767,新規,0,2025-10-01,2025-10-01,医療法人社団ＮＯＷＨＥＲＥ,,その他の設立登記法人,静岡県,浜松市中央区,佐鳴台５丁目２６番１５号,,22,138,4328021,,,,,,,2025-10-01,1,,,,,ノーウェア,0
1486,6120001280020,新規,0,2025-10-01,2025-10-01,ケアビズラボ株式会社,,株式会社,大阪府,大阪市北区,梅田１丁目１番３号大阪駅前第３ビル２９階１－１－１号室,,27,127,5300001,,,,,,,2025-10-01,1,,,,,ケアビズラボ,0
1487,6120001280136,新規,0,2025-10-01,2025-10-01,永茂株式会社,,株式会社,大阪府,大阪市北区,黒崎町３－２６－３Ｂ,,27,127,5300023,,,,,,,2025-10-01,1,,,,,ナガモ,0
1488,6120001280152,新規,0,2025-10-01,2025-10-01,ミア未来株式会社,,株式会社,大阪府,大阪市生野区,巽北２丁目７番１５－５０１号,00140881,27,116,5440004,,,,,,,2025-10-01,1,,,,,ミアミライ,0
1489,6120001280202,新規,0,2025-10-01,2025-10-01,株式会社ＩＴＯ,,株式会社,大阪府,大阪市中央区,西心斎橋２丁目２番３号Ａ－Ｐｌａｃｅ心斎橋５階,,27,128,5420086,,,,,,,2025-10-01,1,,,,,アイティーオー,0
1490,6120001280516,新規,0,2025-10-01,2025-10-01,東晟翔株式会社,,株式会社,大阪府,大阪市西成区,萩之茶屋２丁目６－４ニューかめや３Ｆ１２１,,27,122,5570004,,,,,,,2025-10-01,1,,,,,トウセイショウ,0
1496,6120101072508,新規,0,2025-10-01,2025-10-01,株式会社ＣＲＥ８ＩＶＥ　ＪＡＭＣＲＥＷ,,株式会社,大阪府,岸和田市,山直中町１８０番地１,,27,202,5960102,,,,,,,2025-10-01,1,,,,,クリエイティブジャムクルー,0
1498,6120105010067,新規,0,2025-10-01,2025-10-01,特定非営利活動法人ＴＭＴ‐ＯＳＡＫＡ,,その他の設立登記法人,大阪府,泉佐野市,日根野２７１５－２１,,27,213,5980021,,,,,,,2025-10-01,1,,,,,ティーエムティーオオサカ,0
1503,6120903005879,新規,0,2025-10-01,2025-10-01,合同会社ＬｉｌｉＣｏ,,合同会社,大阪府,摂津市,千里丘東４丁目２８番１５号,,27,224,5660011,,,,,,,2025-10-01,1,,,,,リリコ,0
1509,6130001080650,新規,0,2025-10-01,2025-10-01,株式会社きずなファーマシー,,株式会社,京都府,京田辺市,同志社山手３丁目２番地１８８,,26,211,6100315,,,,,,,2025-10-01,1,,,,,キズナファーマシー,0
1511,6130003010812,新規,0,2025-10-01,2025-10-01,Ｂｏｎｉｔｏ合同会社,,合同会社,京都府,向日市,上植野町北淀井５番地の３８,,26,208,6170006,,,,,,,2025-10-01,1,,,,,ボニート,0
1520,6140001140164,新規,0,2025-10-01,2025-10-01,株式会社フロンティア神戸,,株式会社,兵庫県,神戸市垂水区,西舞子２丁目１４番２３ー３０７号,,28,108,6550048,,,,,,,2025-10-01,1,,,,,フロンティアコウベ,0
1528,6180001168796,新規,0,2025-10-01,2025-10-01,株式会社ＢＯＮＡＭ,,株式会社,愛知県,名古屋市千種区,穂波町３丁目６３番地,,23,101,4640822,,,,,,,2025-10-01,1,,,,,ボーナム,0
1533,6180003029105,新規,0,2025-10-01,2025-10-01,Ａｒｓｈａｄ＆ｓｏｎｓ合同会社,,合同会社,愛知県,一宮市,高田字観音寺３５番地,,23,203,4910125,,,,,,,2025-10-01,1,,,,,アルシャドアンドサンズ,0
1534,6180003029113,新規,0,2025-10-01,2025-10-01,Ｍ＆Ｒ合同会社,,合同会社,愛知県,あま市,上萱津銭神８３番地２,,23,237,4901112,,,,,,,2025-10-01,1,,,,,エムアンドアール,0
1535,6180003029138,新規,0,2025-10-01,2025-10-01,Ｔ＆Ｌ商事合同会社,,合同会社,愛知県,名古屋市中区,千代田３丁目１１番７号,,23,106,4600012,,,,,,,2025-10-01,1,,,,,ティーアンドエルショウジ,0
1536,6180005021241,新規,0,2025-10-01,2025-10-01,一般社団法人太助っ人,,その他の設立登記法人,愛知県,稲沢市,平和町平六６９番地,,23,220,4901323,,,,,,,2025-10-01,1,,,,,タスケット,0
1548,6250001021345,新規,0,2025-10-01,2025-10-01,株式会社Ｒｏｏｔｓ,,株式会社,山口県,周南市,大字長穂２０５１番地,,35,215,7450125,,,,,,,2025-10-01,1,,,,,ルーツ,0
1556,6290001111464,新規,0,2025-10-01,2025-10-01,株式会社吉華,,株式会社,福岡県,福岡市博多区,博多駅前４丁目３３－１１朝日プラザ博多５０３室,,40,132,8120011,,,,,,,2025-10-01,1,,,,,ヨウカ,0
1557,6290003017404,新規,0,2025-10-01,2025-10-01,合同会社ＫＡＩＨＡＴＳＵＢＵ,,合同会社,福岡県,福岡市中央区,天神２丁目２番１２号Ｔ＆Ｊビルディング７階,,40,133,8100001,,,,,,,2025-10-01,1,,,,,カイハツブ,0
1564,6310001019795,新規,0,2025-10-01,2025-10-01,株式会社リブレ長崎,,株式会社,長崎県,長崎市,中里町１６６６番地１,,42,201,8510103,,,,,,,2025-10-01,1,,,,,リブレナガサキ,0
1567,6320003004786,新規,0,2025-10-01,2025-10-01,合同会社ナイスハウス,,合同会社,大分県,大分市,大字三芳１８５５番地の５ラメゾンスリジェミヨシ７０１,,44,201,8700030,,,,,,,2025-10-01,1,,,,,ナイスハウス,0
1569,6320005010262,新規,0,2025-10-01,2025-10-01,メルデカ福祉協同組合,,その他の設立登記法人,大分県,大分市,大字旦野原９００番１２５号インテリジェントコーポＮｏ８．１０４号／１０５号,,44,201,8701124,,,,,,,2025-10-01,1,,,,,メルデカフクシ,0
1572,6330001033613,新規,0,2025-10-01,2025-10-01,株式会社ＫＫＫＫＤ,,株式会社,熊本県,八代市,鷹辻町１番１６号,00140872,43,202,8660866,,,,,,,2025-10-01,1,,,,,ケーケーケーケーディー,0
1574,6360001035821,新規,0,2025-10-01,2025-10-01,株式会社ＭＫエステート,,株式会社,沖縄県,中頭郡北谷町,字宮城１番地１アルトゥーレ美浜１７２１,,47,326,9040113,,,,,,,2025-10-01,1,,,,,エムケーエステート,0
1575,6360001035838,新規,0,2025-10-01,2025-10-01,株式会社ｋａｅｄｅ,,株式会社,沖縄県,南城市,知念字安座真３２２番地,,47,215,9011502,,,,,,,2025-10-01,1,,,,,カエデ,0
1576,6360003015276,新規,0,2025-10-01,2025-10-01,合同会社輝進,,合同会社,沖縄県,那覇市,前島３丁目１０番１１号,,47,201,9000016,,,,,,,2025-10-01,1,,,,,キシン,0
1577,6360003015292,新規,0,2025-10-01,2025-10-01,合同会社ｋｐ,,合同会社,沖縄県,南城市,知念字知名９５番地３,,47,215,9011503,,,,,,,2025-10-01,1,,,,,ケーピー,0
1578,6370001053079,新規,0,2025-10-01,2025-10-01,株式会社スーパーホテル古川,,株式会社,宮城県,大崎市,古川休塚字新西田３８番地１,,04,215,9896255,,,,,,,2025-10-01,1,,,,,スーパーホテルフルカワ,0
1579,6370003007306,新規,0,2025-10-01,2025-10-01,ＳＥＡＧＬＩＡ　ＪＡＰＡＮ合同会社,,合同会社,宮城県,塩竈市,字杉ノ入裏３９番地１７７,,04,203,9850006,,,,,,,2025-10-01,1,,,,,シーグリアジャパン,0
1582,6400001017179,新規,0,2025-10-01,2025-10-01,株式会社Ｏ・Ｒ・Ｔ,,株式会社,岩手県,紫波郡矢巾町,流通センター南１丁目７番２０号,,03,322,0200891,,,,,,,2025-10-01,1,,,,,オーアールティー,0
1586,6420005007975,新規,0,2025-10-01,2025-10-01,一般社団法人笹山会,,その他の設立登記法人,青森県,八戸市,大字尻内町字笹ノ沢２２番地２,,02,203,0391101,,,,,,,2025-10-01,1,,,,,ササヤマカイ,0
1593,6430001095305,新規,0,2025-10-01,2025-10-01,株式会社Ｔ＆Ｅ　ＮＩＰＰＯＮ,,株式会社,北海道,恵庭市,泉町１３５番地,,01,231,0611415,,,,,,,2025-10-01,1,,,,,ティーアンドイーニッポン,0
1598,6430003018148,新規,0,2025-10-01,2025-10-01,合同会社スタックスラボ,,合同会社,北海道,登別市,若山町４丁目４７番地２５,,01,230,0590026,,,,,,,2025-10-01,1,,,,,スタックスラボ,0
1600,6430005015317,新規,0,2025-10-01,2025-10-01,一般社団法人著作権保護等監視委員会,,その他の設立登記法人,北海道,札幌市中央区,南一条西５丁目１４番地１札幌証券ビル１階,,01,101,0600061,,,,,,,2025-10-01,1,,,,,チョサクケンホゴトウカンシイインカイ,0
1601,6440001009692,新規,0,2025-10-01,2025-10-01,株式会社眞鍋商店,,株式会社,北海道,茅部郡森町,字御幸町３３－３,,01,345,0492326,,,,,,,2025-10-01,1,,,,,マナベショウテン,0
1602,6440003001714,新規,0,2025-10-01,2025-10-01,合同会社なまら函館,,合同会社,北海道,函館市,安浦町６６番地,,01,202,0411612,,,,,,,2025-10-01,1,,,,,ナマラハコダテ,0
1608,6700150132384,新規,0,2025-10-01,2025-10-01,ｂｅｉｊｉｎｇｍｅｎｇｃｈａｏｋｅｊｉｙｏｕｘｉａｎｇｏｎｇｓｉ,,外国会社等,,,,,,,,Ｂｅｉｊｉｎｇ　Ｊｉｎｇｊｉ　Ｊｉｓｈｕ　Ｋａｉｆａｑｕ　Ｒｏｎｇｈｕａ　Ｎａｎｌｕ　１　Ｈａｏ　Ｙｕａｎ　９　Ｈａｏ　Ｌｏｕ　１０　Ｃｅｎｇ　１００２－０１，Ｂｅｉｊｉｎｇ，Ｂｅｉｊｉｎｇ，１００１７６,,,,,,2025-10-01,1,,,,,ベイジンモンチャオコージーヨウシエンゴンスー,0
1614,7010001258654,新規,0,2025-10-01,2025-10-01,株式会社ＡｉＫＡＧＩ,,株式会社,東京都,中央区,銀座１丁目１２－４Ｎ＆ＥＢＬＤ．７階,,13,102,1040061,,,,,,,2025-10-01,1,,,,,アイカギ,0
1615,7010001258695,新規,0,2025-10-01,2025-10-01,株式会社ＴＧＡ,,株式会社,東京都,中央区,銀座１丁目１２番４号Ｎ＆Ｅ・ＢＬＤ．６Ｆ,,13,102,1040061,,,,,,,2025-10-01,1,,,,,ティージーエー,0
1616,7010001258753,新規,0,2025-10-01,2025-10-01,匯銀株式会社,,株式会社,東京都,中央区,日本橋大伝馬町２番５号石倉ビル７Ａ,,13,102,1030011,,,,,,,2025-10-01,1,,,,,ワイギン,0
1625,7010401193278,新規,0,2025-10-01,2025-10-01,グランフィル株式会社,,株式会社,東京都,港区,新橋５丁目３１番８号,,13,103,1050004,,,,,,,2025-10-01,1,,,,,グランフィル,0
1626,7010401193311,新規,0,2025-10-01,2025-10-01,株式会社ＭＹＲＩＳＥ,,株式会社,東京都,港区,赤坂２丁目１３番２０号ＴＳＵＭＵＧＩビル,,13,103,1070052,,,,,,,2025-10-01,1,,,,,ミライズ,0
1627,7010401193393,新規,0,2025-10-01,2025-10-01,株式会社ＭＡＰＳ,,株式会社,東京都,港区,新橋１丁目１２番９号新橋プレイス７Ｆ,,13,103,1050004,,,,,,,2025-10-01,1,,,,,マップス,0
1628,7010401193419,新規,0,2025-10-01,2025-10-01,株式会社ＵＧｃｒｏｓｓ,,株式会社,東京都,港区,六本木６丁目１番２０号六本木電気ビル７Ｆ７１１号室,,13,103,1060032,,,,,,,2025-10-01,1,,,,,ユージークロス,0
1629,7010401193427,新規,0,2025-10-01,2025-10-01,Ｓ＆Ｄ株式会社,,株式会社,東京都,港区,麻布十番２丁目２０番７号,,13,103,1060045,,,,,,,2025-10-01,1,,,,,エスアンドディー,0
1630,7010405024826,新規,0,2025-10-01,2025-10-01,イニシア一般社団法人,,その他の設立登記法人,東京都,港区,元赤坂１丁目１番７－８０７号,,13,103,1070051,,,,,,,2025-10-01,1,,,,,イニシア,0
1633,7010603011816,新規,0,2025-10-01,2025-10-01,合同会社Ｈａｍａ　Ｌｉｎｋ,,合同会社,東京都,墨田区,八広２丁目４７番１２－４０１号グランカーサ曳舟,,13,107,1310041,,,,,,,2025-10-01,1,,,,,ハマリンク,0
1640,7010901058146,新規,0,2025-10-01,2025-10-01,株式会社Ｌｕｎｃｈ　Ｒｅｃｏｒｄ,,株式会社,東京都,世田谷区,代沢５丁目３５番７号下北沢アルス４０１,,13,112,1550032,,,,,,,2025-10-01,1,,,,,ランチレコード,0
1641,7010901058162,新規,0,2025-10-01,2025-10-01,株式会社ＷｏｒｋＴｒｅａｓｕｒｅ,,株式会社,東京都,世田谷区,上野毛４丁目２７番６号,,13,112,1580093,,,,,,,2025-10-01,1,,,,,ワークトレジャー,0
1645,7011001172234,新規,0,2025-10-01,2025-10-01,株式会社レゾエンターテインメント,,株式会社,東京都,渋谷区,道玄坂１丁目１０番８号渋谷道玄坂東急ビル２Ｆ－Ｃ,,13,113,1500043,,,,,,,2025-10-01,1,,,,,レゾエンターテインメント,0
1646,7011001172291,新規,0,2025-10-01,2025-10-01,健誠株式会社,,株式会社,東京都,渋谷区,円山町２３番７号桑原ビル２０２,,13,113,1500044,,,,,,,2025-10-01,1,,,,,ケンセイ,0
1647,7011001172300,新規,0,2025-10-01,2025-10-01,メモリスケア株式会社,,株式会社,東京都,渋谷区,恵比寿西２丁目４番８号ウィンド恵比寿ビル８Ｆ,,13,113,1500021,,,,,,,2025-10-01,1,,,,,メモリスケア,0
1648,7011001172837,新規,0,2025-10-01,2025-10-01,ＮＩＰＰＯＮＢＮＢ　ＳＥＲＶＩＣＥＳ株式会社,,株式会社,東京都,渋谷区,渋谷２丁目７番６－１１０５号グランリビオ表参道,,13,113,1500002,,,,,,,2025-10-01,1,,,,,ニッポンビーアンドビーサービス,0
1649,7011003022461,新規,0,2025-10-01,2025-10-01,合同会社ゴリオン,,合同会社,東京都,渋谷区,恵比寿西２丁目８番４号ＥＸ恵比寿西ビル５階,,13,113,1500021,,,,,,,2025-10-01,1,,,,,ゴリオン,0
1650,7011003022619,新規,0,2025-10-01,2025-10-01,ＢＯＢ合同会社,,合同会社,東京都,目黒区,大岡山１丁目１８番１０号グリーンヒルズ４０２,,13,110,1520033,,,,,,,2025-10-01,1,,,,,ビーオービー,0
1654,7011301030934,新規,0,2025-10-01,2025-10-01,サ世木株式会社,,株式会社,東京都,杉並区,阿佐谷北４丁目８－６,,13,115,1660001,,,,,,,2025-10-01,1,,,,,サヨギ,0
1657,7011501032631,新規,0,2025-10-01,2025-10-01,領航株式会社,,株式会社,東京都,荒川区,西日暮里６丁目１６－１３青木ビル２０３号室,,13,118,1160013,,,,,,,2025-10-01,1,,,,,リョウコウ,0
1662,7011701028768,新規,0,2025-10-01,2025-10-01,株式会社雷Ｗｏｒｋｓ,,株式会社,東京都,江戸川区,東葛西４丁目５０番９号,,13,123,1340084,,,,,,,2025-10-01,1,,,,,イカヅチワークス,0
1666,7011801046819,新規,0,2025-10-01,2025-10-01,株式会社勇建装,,株式会社,東京都,葛飾区,南水元２丁目１７番５号,,13,122,1250035,,,,,,,2025-10-01,1,,,,,ユウケンソウ,0
1672,7013301055036,新規,0,2025-10-01,2025-10-01,株式会社ＫＩＮＯ,,株式会社,東京都,豊島区,池袋本町２丁目１７番２７号,,13,116,1700011,,,,,,,2025-10-01,1,,,,,キノ,0
1676,7020001164950,新規,0,2025-10-01,2025-10-01,オヘヤキレイ株式会社,,株式会社,神奈川県,横浜市西区,北幸２丁目１０番４８号むつみビル３階,,14,103,2200004,,,,,,,2025-10-01,1,,,,,オヘヤキレイ,0
1683,7021003016652,新規,0,2025-10-01,2025-10-01,合同会社情報アクセシビリティ機構,,合同会社,神奈川県,藤沢市,弥勒寺１丁目２１－４,,14,205,2510016,,,,,,,2025-10-01,1,,,,,ジョウホウアクセシビリティキコウ,0
1690,7030001168868,新規,0,2025-10-01,2025-10-01,株式会社ＭＫファシリティーズ,,株式会社,埼玉県,さいたま市岩槻区,本町１丁目５番４号,,11,110,3390057,,,,,,,2025-10-01,1,,,,,エムケイファシリティーズ,0
1692,7030003027683,新規,0,2025-10-01,2025-10-01,共生技術研究院合同会社,,合同会社,埼玉県,所沢市,金山町１４番６－７０２号,,11,208,3591128,,,,,,,2025-10-01,1,,,,,キョウセイギジュツケンキュウイン,0
1693,7030003027717,新規,0,2025-10-01,2025-10-01,ＨＴＵＮ　ＴＡＵＫ合同会社,,合同会社,埼玉県,草加市,青柳５丁目２６番３－２０８号,,11,221,3400002,,,,,,,2025-10-01,1,,,,,トゥンタク,0
1694,7030003027741,新規,0,2025-10-01,2025-10-01,トモノ合同会社,,合同会社,埼玉県,越谷市,レイクタウン７丁目３番地１グランセンス越谷レイクタウン７１６,,11,222,3430828,,,,,,,2025-10-01,1,,,,,トモノ,0
1695,7030003027758,新規,0,2025-10-01,2025-10-01,斯宇合同会社,,合同会社,埼玉県,川口市,大字木曽呂６３４番地の１,,11,203,3330831,,,,,,,2025-10-01,1,,,,,ココウ,0
1701,7040001140479,新規,0,2025-10-01,2025-10-01,日本社会保障株式会社,,株式会社,千葉県,船橋市,前原西４丁目１３番３５号ＫＤＸレジデンス津田沼３０６,,12,204,2740825,,,,,,,2025-10-01,1,,,,,ニホンシャカイホショウ,0
1702,7040001140652,新規,0,2025-10-01,2025-10-01,株式会社八広,,株式会社,千葉県,白井市,冨士８５番地の５,,12,232,2701432,,,,,,,2025-10-01,1,,,,,ヤヒロ,0
1703,7040001140677,新規,0,2025-10-01,2025-10-01,株式会社ドットＴＫ,,株式会社,千葉県,千葉市稲毛区,宮野木町７７０番地２２,,12,103,2630054,,,,,,,2025-10-01,1,,,,,ドットティーケー,0
1704,7040001140685,新規,0,2025-10-01,2025-10-01,株式会社無雲,,株式会社,千葉県,野田市,岡田８５１－２,,12,208,2700223,,,,,,,2025-10-01,1,,,,,ムーン,0
1705,7040001140693,新規,0,2025-10-01,2025-10-01,株式会社ｐｉｐトリニティ,,株式会社,千葉県,我孫子市,中峠１５５９－２７,,12,222,2701121,,,,,,,2025-10-01,1,,,,,ピーアイピートリニティ,0
1708,7040003028499,新規,0,2025-10-01,2025-10-01,合同会社アークエディションズ,,合同会社,千葉県,柏市,豊四季９４５番地３１４,,12,217,2770863,,,,,,,2025-10-01,1,,,,,アークエディションズ,0
1709,7040003028623,新規,0,2025-10-01,2025-10-01,ラッキートレイディング合同会社,,合同会社,千葉県,野田市,野田５８４番地の１高伝ビル２０１,,12,208,2780037,,,,,,,2025-10-01,1,,,,,ラッキートレイディング,0
1710,7040003028631,新規,0,2025-10-01,2025-10-01,合同会社Ｇｌｅｂｅ,,合同会社,千葉県,柏市,柏６丁目５番１８号葉山シティハウス７号,,12,217,2770005,,,,,,,2025-10-01,1,,,,,グリーブ,0
1715,7050001057292,新規,0,2025-10-01,2025-10-01,萬豐農業日本株式会社,,株式会社,茨城県,東茨城郡大洗町,港中央１１番地２―２０２,,08,309,3111305,,,,,,,2025-10-01,1,,,,,マンホウノウギョウニホン,0
1718,7050003009580,新規,0,2025-10-01,2025-10-01,ＡＤＥＮＯＶＡ　ＧＬＯＢＡＬ合同会社,,合同会社,茨城県,結城郡八千代町,大字東蕗田６８４－４－２０５号,,08,521,3003545,,,,,,,2025-10-01,1,,,,,アデノバグローバル,0
1719,7050003009614,新規,0,2025-10-01,2025-10-01,ＺＡＩＤ　ＴＲＡＤＩＮＧ合同会社,,合同会社,茨城県,坂東市,中里１２５２－１,,08,228,3060634,,,,,,,2025-10-01,1,,,,,ザイドトレーディング,0
1720,7060001038614,新規,0,2025-10-01,2025-10-01,ＩＮＣホールディングス株式会社,,株式会社,栃木県,宇都宮市,平出町１７７７番地３,,09,201,3210901,,,,,,,2025-10-01,1,,,,,アイエヌシーホールディングス,0
1721,7060001038622,新規,0,2025-10-01,2025-10-01,株式会社ＪＡＮ国際,,株式会社,栃木県,那須烏山市,曲田６３番地１,,09,215,3210515,,,,,,,2025-10-01,1,,,,,ジャンコクサイ,0
1733,7080401000130,新規,0,2025-10-01,2025-10-01,明石不動産株式会社,,株式会社,静岡県,浜松市中央区,田町２２８番地の５,,22,138,4300944,,,,,,,2025-10-01,1,,,,,,0
1734,7080405007766,新規,0,2025-10-01,2025-10-01,医療法人社団ＩＳＡＫＡ,,その他の設立登記法人,静岡県,磐田市,大原１０９番地,,22,211,4371211,,,,,,,2025-10-01,1,,,,,イサカ,0
1737,7110001039581,新規,0,2025-10-01,2025-10-01,太陽興産株式会社,,株式会社,新潟県,柏崎市,大字山口２４５８番地１,,15,205,9451116,,,,,,,2025-10-01,1,,,,,タイヨウコウサン,0
1751,7120001279994,新規,0,2025-10-01,2025-10-01,グローバルリンク株式会社,,株式会社,大阪府,大阪市西成区,天下茶屋１丁目４－４丸栄ハイツＢ２室,,27,122,5570014,,,,,,,2025-10-01,1,,,,,グローバルリンク,0
1752,7120001280168,新規,0,2025-10-01,2025-10-01,Ｎｅｘｕｓ株式会社,,株式会社,大阪府,大阪市此花区,西九条３丁目３番９号,,27,104,5540012,,,,,,,2025-10-01,1,,,,,ネクサス,0
1753,7120001280317,新規,0,2025-10-01,2025-10-01,株式会社ノビラス,,株式会社,大阪府,大阪市北区,鶴野町４番１１号朝日プラザ梅田２Ｆ－１１２,,27,127,5300014,,,,,,,2025-10-01,1,,,,,ノビラス,0
1754,7120001280523,新規,0,2025-10-01,2025-10-01,ＴＳＵＹＵ株式会社,,株式会社,大阪府,大阪市住之江区,西加賀屋４丁目５番１７号,,27,125,5590016,,,,,,,2025-10-01,1,,,,,ツユ,0
1755,7120001280531,新規,0,2025-10-01,2025-10-01,卓越一禾株式会社,,株式会社,大阪府,大阪市西区,立売堀４丁目３番１６号５１４室,,27,106,5500012,,,,,,,2025-10-01,1,,,,,タクエツイチカ,0
1758,7120003030430,新規,0,2025-10-01,2025-10-01,プロスペリティ合同会社,,合同会社,大阪府,大阪市浪速区,稲荷１丁目１０－１９－１５０６,,27,111,5560023,,,,,,,2025-10-01,1,,,,,プロスペリティ,0
1759,7120003030736,新規,0,2025-10-01,2025-10-01,合同会社清華グローバル,,合同会社,大阪府,大阪市北区,天神橋１丁目６番６号富士ハイツ２０２号,,27,127,5300041,,,,,,,2025-10-01,1,,,,,セイカグローバル,0
1760,7120003030760,新規,0,2025-10-01,2025-10-01,ＳＯＵＬ　ＢＩＴＥＳ合同会社,,合同会社,大阪府,大阪市浪速区,桜川１丁目２番９号２階,,27,111,5560022,,,,,,,2025-10-01,1,,,,,ソウルバイツ,0
1761,7120003030868,新規,0,2025-10-01,2025-10-01,家具レンタルナインス合同会社,,合同会社,大阪府,大阪市中央区,北浜３丁目５番２２号オリックス淀屋橋ビル７階,,27,128,5410041,,,,,,,2025-10-01,1,,,,,カグレンタルナインス,0
1763,7120101072507,新規,0,2025-10-01,2025-10-01,株式会社誠,,株式会社,大阪府,岸和田市,土生町１２丁目６番３３号,,27,202,5960825,,,,,,,2025-10-01,1,,,,,マコト,0
1771,7122003003333,新規,0,2025-10-01,2025-10-01,Ｈａｓｓａｎ　Ｔｒａｄｉｎｇ合同会社,,合同会社,大阪府,柏原市,大字雁多尾畑５５８０番地の６,,27,221,5820012,,,,,,,2025-10-01,1,,,,,ハッサントレーディング,0
1774,7130001080617,新規,0,2025-10-01,2025-10-01,致尚科技日本株式会社,,株式会社,京都府,京都市南区,八条寺内町２６番地１０,,26,107,6018476,,,,,,,2025-10-01,1,,,,,チショウカギニホン,0
1775,7130001080625,新規,0,2025-10-01,2025-10-01,株式会社美楽,,株式会社,京都府,京都市伏見区,竹田藁屋町６０ハイダウェイホーム３０１,,26,109,6128443,,,,,,,2025-10-01,1,,,,,ミラク,0
1776,7130001080633,新規,0,2025-10-01,2025-10-01,株式会社ＪＯＢ　ＣＨＯＩＣＥ,,株式会社,京都府,京都市右京区,西院西三蔵町１５－２アソシエ２０２,,26,108,6150027,,,,,,,2025-10-01,1,,,,,ジョブチョイス,0
1780,7140001140171,新規,0,2025-10-01,2025-10-01,インクルージョン株式会社,,株式会社,兵庫県,神戸市西区,水谷１丁目１９番３６号,,28,111,6512121,,,,,,,2025-10-01,1,,,,,インクルージョン,0
1783,7140005027638,新規,0,2025-10-01,2025-10-01,特定非営利活動法人ねこｄｅｋｏ,,その他の設立登記法人,兵庫県,川西市,花屋敷２丁目７番８号,,28,217,6660035,,,,,,,2025-10-01,1,,,,,ネコデコ,0
1784,7150001028432,新規,0,2025-10-01,2025-10-01,Ｉｒｏｎｓｔａｒ　Ｊａｐａｎ株式会社,,株式会社,奈良県,奈良市,下三条町３４番地更谷ビル３０８号室,,29,201,6308236,,,,,,,2025-10-01,1,,,,,アイロンスタージャパン,0
1793,7180001168746,新規,0,2025-10-01,2025-10-01,株式会社こどもの会計,,株式会社,愛知県,名古屋市中区,丸の内１丁目４番２３号,,23,106,4600002,,,,,,,2025-10-01,1,,,,,コドモノカイケイ,0
1794,7180001168770,新規,0,2025-10-01,2025-10-01,株式会社センタリフ,,株式会社,愛知県,名古屋市中区,錦１丁目１７ー１３名興ビルディング２Ｆ,,23,106,4600003,,,,,,,2025-10-01,1,,,,,センタリフ,0
1799,7180301040258,新規,0,2025-10-01,2025-10-01,株式会社ＫＯＴＯＮＡ　ＳＫＹ,,株式会社,愛知県,西尾市,東幡豆町中柴６７番地２,,23,213,4440701,,,,,,,2025-10-01,1,,,,,コトナスカイ,0
1807,7180303006752,新規,0,2025-10-01,2025-10-01,合同会社柚子葉,,合同会社,愛知県,豊田市,竹生町４丁目６番地,,23,211,4710077,,,,,,,2025-10-01,1,,,,,ユズハ,0
1809,7190001032554,新規,0,2025-10-01,2025-10-01,はなまっぷ株式会社,,株式会社,三重県,四日市市,諏訪栄町４番１０号,,24,202,5100086,,,,,,,2025-10-01,1,,,,,ハナマップ,0
1812,7200001044283,新規,0,2025-10-01,2025-10-01,株式会社ＳＵＧＩＫＥＮ,,株式会社,岐阜県,岐阜市,旦島１丁目５番地２１,,21,201,5020926,,,,,,,2025-10-01,1,,,,,スギケン,0
1813,7200003007081,新規,0,2025-10-01,2025-10-01,ＲＩ　ＴＲＡＤＩＮＧ合同会社,,合同会社,岐阜県,岐阜市,今川７５－１岐北ビル１Ｆ,,21,201,5011114,,,,,,,2025-10-01,1,,,,,アールアイトレーディング,0
1816,7210003001959,新規,0,2025-10-01,2025-10-01,ナカジマコンサルタント合同会社,,合同会社,福井県,坂井市,丸岡町城北１丁目３５番地,,18,210,9100221,,,,,,,2025-10-01,1,,,,,ナカジマコンサルタント,0
1819,7220001026940,新規,0,2025-10-01,2025-10-01,株式会社天輝,,株式会社,石川県,かほく市,大崎南４６番地,,17,209,9291127,,,,,,,2025-10-01,1,,,,,テンキ,0
1825,7240001065557,新規,0,2025-10-01,2025-10-01,達磨建設株式会社,,株式会社,広島県,三原市,宗郷１丁目６番１４号,,34,204,7230044,,,,,,,2025-10-01,1,,,,,ダルマケンセツ,0
1837,7290001111513,新規,0,2025-10-01,2025-10-01,株式会社ＡＭＸ,,株式会社,福岡県,福岡市中央区,大名２丁目１０番地３１号ネオハイツ天神７０５,,40,133,8100041,,,,,,,2025-10-01,1,,,,,エーエムエックス,0
1850,7360001035804,新規,0,2025-10-01,2025-10-01,でいご商事株式会社,,株式会社,沖縄県,那覇市,泉崎１丁目１６番地１４,,47,201,9000021,,,,,,,2025-10-01,1,,,,,デイゴショウジ,0
1862,7380003006124,新規,0,2025-10-01,2025-10-01,ＡＲＵＪＥ合同会社,,合同会社,福島県,郡山市,昭和１丁目１６－１９,,07,203,9638822,,,,,,,2025-10-01,1,,,,,アルジェ,0
1864,7420001019288,新規,0,2025-10-01,2025-10-01,株式会社Ｓ‐ｔｅｃｈ,,株式会社,青森県,青森市,大字新町野字薄井１８番４号,,02,201,0300135,,,,,,,2025-10-01,1,,,,,エステック,0
1865,7420005007974,新規,0,2025-10-01,2025-10-01,一般社団法人十和田奥入瀬空き家・空き地等利活用活性化センター,,その他の設立登記法人,青森県,十和田市,大字奥瀬字大堀平１６３番地３,,02,206,0340301,,,,,,,2025-10-01,1,,,,,トワダオイラセアキヤアキチトウリカツヨウカッセイカセンター,0
1869,7430001095361,新規,0,2025-10-01,2025-10-01,株式会社１７ＧＯ,,株式会社,北海道,札幌市豊平区,月寒東三条５丁目１番地１０ル・シエル月寒１０１,,01,105,0620053,,,,,,,2025-10-01,1,,,,,イチナナゴー,0
1872,7430003018114,新規,0,2025-10-01,2025-10-01,森川合同会社,,合同会社,北海道,札幌市豊平区,旭町６丁目２番１号サンハイツ木の花３０５号室,,01,105,0620911,,,,,,,2025-10-01,1,,,,,モリカワ,0
1873,7430003018130,新規,0,2025-10-01,2025-10-01,合同会社ＨＴＩ　ＬＯＧＩＳＴＩＣＳ　ＩＮＣ,,合同会社,北海道,札幌市南区,藤野四条３丁目１８番２１号,,01,106,0612284,,,,,,,2025-10-01,1,,,,,エイチティーアイロジスティクスインク,0
1874,7430005006620,新規,0,2025-10-01,2025-10-01,北海道きのこ農業協同組合,,その他の設立登記法人,北海道,三笠市,唐松春光町４０１番２,,01,222,0682131,,,,,,,2025-10-01,1,,,,,,0
1884,7500001026524,新規,0,2025-10-01,2025-10-01,株式会社伊予住宅産業,,株式会社,愛媛県,今治市,桜井甲５４０番地８,,38,202,7991524,,,,,,,2025-10-01,1,,,,,イヨジュウタクサンギョウ,0
1892,8010401193252,新規,0,2025-10-01,2025-10-01,ＩＴＳ株式会社,,株式会社,東京都,港区,六本木３丁目１６－１２ＫＳビル５Ｆ,,13,103,1060032,,,,,,,2025-10-01,1,,,,,アイティエス,0
1893,8010401193269,新規,0,2025-10-01,2025-10-01,ＨＯＤＬ　Ｅｎｇｉｎｅｅｒｉｎｇ株式会社,,株式会社,東京都,港区,六本木３丁目１６番１２号六本木ＫＳビル５Ｆ,,13,103,1060032,,,,,,,2025-10-01,1,,,,,ホドルエンジニアリング,0
1894,8010401193302,新規,0,2025-10-01,2025-10-01,元気が出る株式会社,,株式会社,東京都,港区,港南２丁目１６－３グランパサージュ１Ｂ１,,13,103,1080075,,,,,,,2025-10-01,1,,,,,ゲンキガデル,0
1895,8010401193319,新規,0,2025-10-01,2025-10-01,筋川パワー株式会社,,株式会社,東京都,港区,新橋３丁目９番１０号天翔新橋ビル７０１号室,,13,103,1050004,,,,,,,2025-10-01,1,,,,,スジカワパワー,0
1896,8010401193335,新規,0,2025-10-01,2025-10-01,株式会社ＧＯＯＥＮ,,株式会社,東京都,港区,北青山３丁目６番７号,,13,103,1070061,,,,,,,2025-10-01,1,,,,,ゴエン,0
1897,8010401193426,新規,0,2025-10-01,2025-10-01,株式会社あべこべ,,株式会社,東京都,港区,東麻布３丁目３番６号ＡＺＡＢＵ．ＥＡＳＴ２０１,,13,103,1060044,,,,,,,2025-10-01,1,,,,,アベコベ,0
1898,8010401193450,新規,0,2025-10-01,2025-10-01,ＧＩ　Ｉｎｖｅｓｔｍｅｎｔｓ株式会社,,株式会社,東京都,港区,海岸１丁目６番１－８１１号,,13,103,1050022,,,,,,,2025-10-01,1,,,,,ジーアイインベストメンツ,0
1899,8010403036145,新規,0,2025-10-01,2025-10-01,合同会社ＳＨＩＲＯＩＲＯ,,合同会社,東京都,港区,北青山１丁目３番１号アールキューブ青山３階,,13,103,1070061,,,,,,,2025-10-01,1,,,,,シロイロ,0
1900,8010403036178,新規,0,2025-10-01,2025-10-01,合同会社カリプホテルマネジメント,,合同会社,東京都,港区,元赤坂１丁目１番７－１２０９号株式会社赤坂国際会計内,,13,103,1070051,,,,,,,2025-10-01,1,,,,,カリプホテルマネジメント,0
1901,8010405024767,新規,0,2025-10-01,2025-10-01,特定非営利活動法人産業保健ステーション,,その他の設立登記法人,東京都,港区,六本木７丁目８番５号,,13,103,1060032,,,,,,,2025-10-01,1,,,,,サンギョウホケンステーション,0
1902,8010601068015,新規,0,2025-10-01,2025-10-01,星星株式会社,,株式会社,東京都,江東区,亀戸３丁目６２番１０号ＳＡＮビル４０５号室,,13,108,1360071,,,,,,,2025-10-01,1,,,,,シンシン,0
1911,8010905004847,新規,0,2025-10-01,2025-10-01,医療法人社団糖華会,,その他の設立登記法人,東京都,世田谷区,深沢５丁目２番９号ニューライフ等々力１１６号,,13,112,1580081,,,,,,,2025-10-01,1,,,,,トウカカイ,0
1915,8011001172027,新規,0,2025-10-01,2025-10-01,株式会社ＦＡＮ．,,株式会社,東京都,渋谷区,神宮前６丁目２３番４号桑野ビル２階,,13,113,1500001,,,,,,,2025-10-01,1,,,,,ファンドット,0
1916,8011001172241,新規,0,2025-10-01,2025-10-01,株式会社Ｆ‐ＳＴ’ＹＬＥ,,株式会社,東京都,渋谷区,恵比寿西２丁目８番４号ＥＸ恵比寿西ビル５階,,13,113,1500021,,,,,,,2025-10-01,1,,,,,エフスタイル,0
1917,8011001172266,新規,0,2025-10-01,2025-10-01,株式会社横山プロパティ,,株式会社,東京都,渋谷区,広尾２丁目２番２０号,,13,113,1500012,,,,,,,2025-10-01,1,,,,,ヨコヤマプロパティ,0
1918,8011001172299,新規,0,2025-10-01,2025-10-01,株式会社ＭＡＹＴＨ,,株式会社,東京都,目黒区,下目黒２丁目１６番１１号,,13,110,1530064,,,,,,,2025-10-01,1,,,,,メイス,0
1919,8011001172308,新規,0,2025-10-01,2025-10-01,株式会社ＨＭＴ,,株式会社,東京都,渋谷区,恵比寿４丁目２７番１８号プラム恵比寿４０２,,13,113,1500013,,,,,,,2025-10-01,1,,,,,エイチエムティ,0
1920,8011001172646,新規,0,2025-10-01,2025-10-01,株式会社カツノ商会,,株式会社,東京都,渋谷区,広尾１丁目２番地１号ヒカリビル４階,,13,113,1500012,,,,,,,2025-10-01,1,,,,,カツノショウカイ,0
1921,8011001172803,新規,0,2025-10-01,2025-10-01,株式会社メディアミックスマネジメント,,株式会社,東京都,目黒区,三田２丁目６番１７号,,13,110,1530062,,,,,,,2025-10-01,1,,,,,メディアミックスマネジメント,0
1922,8011003022469,新規,0,2025-10-01,2025-10-01,合同会社ＡＣＩＤ　ＧＲＡＰＥ,,合同会社,東京都,渋谷区,道玄坂１丁目１０番８号渋谷道玄坂東急ビル２Ｆ－Ｃ,,13,113,1500043,,,,,,,2025-10-01,1,,,,,アシッドグレープ,0
1923,8011003022477,新規,0,2025-10-01,2025-10-01,合同会社カイデザイン研究室,,合同会社,東京都,渋谷区,道玄坂１丁目１６－６二葉ビル８Ｂ,,13,113,1500043,,,,,,,2025-10-01,1,,,,,カイデザインケンキュウシツ,0
1924,8011003022584,新規,0,2025-10-01,2025-10-01,ＫＪ合同会社,,合同会社,東京都,渋谷区,恵比寿西２丁目４番８号ウィンド恵比寿ビル８Ｆ,,13,113,1500021,,,,,,,2025-10-01,1,,,,,ケイジェイ,0
1925,8011003022650,新規,0,2025-10-01,2025-10-01,ｍ．ｄ．ｋ　ｉｎｄｉｅ　Ｌａｂ合同会社,,合同会社,東京都,渋谷区,千駄ヶ谷３丁目１２番１９号,,13,113,1510051,,,,,,,2025-10-01,1,,,,,エムディーケーインディーラボ,0
1928,8011101113302,新規,0,2025-10-01,2025-10-01,株式会社Ｋ＆Ｋ　Ｇｌｏｂａｌ　Ｔｒａｄｉｎｇ,,株式会社,東京都,新宿区,西新宿８丁目１１番１０号星野ビル３階,,13,104,1600023,,,,,,,2025-10-01,1,,,,,ケーアンドケーグローバルトレーディンング,0
1932,8011301030933,新規,0,2025-10-01,2025-10-01,株式会社フジダイレクト,,株式会社,東京都,杉並区,堀ノ内２丁目１９番２４号,,13,115,1660013,,,,,,,2025-10-01,1,,,,,フジダイレクト,0
1934,8011403004876,新規,0,2025-10-01,2025-10-01,合同会社ＮＪＳ,,合同会社,東京都,板橋区,蓮根１丁目４番１１号,,13,119,1740046,,,,,,,2025-10-01,1,,,,,,0
1935,8011501032597,新規,0,2025-10-01,2025-10-01,スマイリーインターネット株式会社,,株式会社,東京都,荒川区,町屋１丁目３８番１６号Ｊプロ町屋ビル３階Ｇ号室,,13,118,1160001,,,,,,,2025-10-01,1,,,,,スマイリーインターネット,0
1938,8011801046792,新規,0,2025-10-01,2025-10-01,ｆｒｅｅｘ株式会社,,株式会社,東京都,足立区,加賀１丁目１９番６号,,13,121,1230861,,,,,,,2025-10-01,1,,,,,フリークス,0
1939,8011801046826,新規,0,2025-10-01,2025-10-01,株式会社彌福住販,,株式会社,東京都,葛飾区,東堀切３丁目２９番１５号,,13,122,1240004,,,,,,,2025-10-01,1,,,,,ヤフクジュウハン,0
1942,8012801024276,新規,0,2025-10-01,2025-10-01,株式会社医用機器事業分割準備会社,,株式会社,東京都,武蔵村山市,伊奈平２丁目１１番１号,,13,223,2080023,,,,,,,2025-10-01,1,,,,,イヨウキキジギョウブンカツジュンビガイシャ,0
1943,8013101009810,新規,0,2025-10-01,2025-10-01,株式会社Ｊ‐Ａｅｇｉｓ,,株式会社,東京都,青梅市,長淵８丁目２８番地の９,,13,205,1980052,,,,,,,2025-10-01,1,,,,,ジェイイージス,0
1946,8013301055035,新規,0,2025-10-01,2025-10-01,株式会社ＡｍｂｅｒＮｅｓｔ,,株式会社,東京都,豊島区,池袋２丁目２３番２５号,,13,116,1710014,,,,,,,2025-10-01,1,,,,,アンバーネスト,0
1959,8021003016569,新規,0,2025-10-01,2025-10-01,合同会社Ｂｒｏｏｔ,,合同会社,神奈川県,藤沢市,鵠沼石上１丁目５－９メガサンエスビル６階,,14,205,2510025,,,,,,,2025-10-01,1,,,,,ブルート,0
1960,8021003016593,新規,0,2025-10-01,2025-10-01,合同会社ヤマザキファクト,,合同会社,神奈川県,横須賀市,小矢部１丁目２６番２号,,14,201,2380026,,,,,,,2025-10-01,1,,,,,ヤマザキファクト,0
1968,8030001168867,新規,0,2025-10-01,2025-10-01,株式会社プライノベックス,,株式会社,埼玉県,久喜市,青毛３２５番地７６,,11,232,3460011,,,,,,,2025-10-01,1,,,,,プライノベックス,0
1969,8030001168875,新規,0,2025-10-01,2025-10-01,株式会社エンハンス,,株式会社,埼玉県,鶴ヶ島市,大字五味ヶ谷２２６番地１０,,11,241,3502202,,,,,,,2025-10-01,1,,,,,エンハンス,0
1970,8030001168891,新規,0,2025-10-01,2025-10-01,株式会社Ｈ＆Ｎ,,株式会社,埼玉県,八潮市,八潮３丁目１３番地４,,11,234,3400815,,,,,,,2025-10-01,1,,,,,エイチアンドエヌ,0
1971,8030001168900,新規,0,2025-10-01,2025-10-01,ＡＫジャパン株式会社,,株式会社,埼玉県,比企郡ときがわ町,大字番匠１８４番地１グリーンタウンＤ号棟,,11,349,3550354,,,,,,,2025-10-01,1,,,,,エーケイジャパン,0
1972,8030001168933,新規,0,2025-10-01,2025-10-01,華発株式会社,,株式会社,埼玉県,所沢市,小手指元町１丁目６番３５号,,11,208,3591147,,,,,,,2025-10-01,1,,,,,カハツ,0
1975,8030003027699,新規,0,2025-10-01,2025-10-01,並木合同会社,,合同会社,埼玉県,川口市,西川口２丁目１４番１７－１号,,11,203,3320021,,,,,,,2025-10-01,1,,,,,ナミキ,0
1976,8030003027724,新規,0,2025-10-01,2025-10-01,ＴＯＭ　ＧＲＯＵＰ合同会社,,合同会社,埼玉県,飯能市,柳町７番１０号ＫＩＶ商会館飯能Ａ号室,,11,209,3570035,,,,,,,2025-10-01,1,,,,,トムグループ,0
1977,8030003027740,新規,0,2025-10-01,2025-10-01,ＫＰ電機合同会社,,合同会社,埼玉県,熊谷市,玉井１９７３番地２０４,,11,202,3600853,,,,,,,2025-10-01,1,,,,,ケーピーデンキ,0
1978,8030003027757,新規,0,2025-10-01,2025-10-01,ＮＤＵＲＵＯ　Ｃ．Ｎ．合同会社,,合同会社,埼玉県,南埼玉郡宮代町,川端２丁目５番地７ベルピア姫宮第１－１０２,,11,442,3450804,,,,,,,2025-10-01,1,,,,,ヌディルオシーエヌ,0
1982,8040001140701,新規,0,2025-10-01,2025-10-01,株式会社鵬華,,株式会社,千葉県,船橋市,咲が丘３丁目２４番２０号,,12,204,2740807,,,,,,,2025-10-01,1,,,,,ホウカ,0
1985,8050003009588,新規,0,2025-10-01,2025-10-01,岡田ウメルトレーディング合同会社,,合同会社,茨城県,坂東市,大馬新田１５１番地１,,08,228,3060601,,,,,,,2025-10-01,1,,,,,オカダウメルトレーディング,0
1986,8050003009621,新規,0,2025-10-01,2025-10-01,ＳＵＢＨＡＮ　ＴＲＡＤＩＮＧ合同会社,,合同会社,茨城県,古河市,女沼１５９１－１カネコハイツ１階１０２号室,,08,204,3060226,,,,,,,2025-10-01,1,,,,,スブハントレーディング,0
1992,8060003005784,新規,0,2025-10-01,2025-10-01,日本商会合同会社,,合同会社,栃木県,栃木市,岩舟町三谷３１０番地２,,09,203,3294315,,,,,,,2025-10-01,1,,,,,ニホンショウカイ,0
1995,8080001027168,新規,0,2025-10-01,2025-10-01,葵電業株式会社,,株式会社,静岡県,牧之原市,細江１１０３番地１,,22,226,4210421,,,,,,,2025-10-01,1,,,,,アオイデンギョウ,0
2018,8120001279960,新規,0,2025-10-01,2025-10-01,株式会社よりの森,,株式会社,大阪府,大阪市中央区,船越町２丁目３番４号,,27,128,5400036,,,,,,,2025-10-01,1,,,,,ヨリノモリ,0
2019,8120001279993,新規,0,2025-10-01,2025-10-01,晟禾株式会社,,株式会社,大阪府,大阪市淀川区,塚本１丁目２－５－６２９号,,27,123,5320026,,,,,,,2025-10-01,1,,,,,セイカ,0
2020,8120001280167,新規,0,2025-10-01,2025-10-01,寶意株式会社,,株式会社,大阪府,大阪市西区,南堀江４丁目２０番９号シティコープホリエＭ３－５０３号室,,27,106,5500015,,,,,,,2025-10-01,1,,,,,バオイ,0
2021,8120001280241,新規,0,2025-10-01,2025-10-01,ＮＡＮＩ株式会社,,株式会社,大阪府,大阪市中央区,平野町１丁目８－１３平野町八千代ビル３階,,27,128,5410046,,,,,,,2025-10-01,1,,,,,ナニ,0
2022,8120001280373,新規,0,2025-10-01,2025-10-01,株式会社東一,,株式会社,大阪府,大阪市西成区,鶴見橋１丁目１３番１０号,,27,122,5570031,,,,,,,2025-10-01,1,,,,,トウイチ,0
2023,8120001280407,新規,0,2025-10-01,2025-10-01,株式会社Ｇｏｌｄｓｔｏｎｅ,,株式会社,大阪府,大阪市北区,梅田２丁目５番１３号桜橋第一ビル３０４号,,27,127,5300001,,,,,,,2025-10-01,1,,,,,ゴールドストーン,0
2024,8120001280448,新規,0,2025-10-01,2025-10-01,株式会社ＨＯＵＳＩＮＧ　ＩＮＮＯＶＡＴＩＯＮ,,株式会社,大阪府,大阪市北区,国分寺２丁目１番１４号アコム天六ビル,,27,127,5310064,,,,,,,2025-10-01,1,,,,,ハウジングイノベーション,0
2025,8120001280464,新規,0,2025-10-01,2025-10-01,株式会社旭和,,株式会社,大阪府,大阪市港区,市岡３丁目１７－８－２Ａ,,27,107,5520012,,,,,,,2025-10-01,1,,,,,アサワ,0
2026,8120001280497,新規,0,2025-10-01,2025-10-01,羽風株式会社,,株式会社,大阪府,大阪市東住吉区,中野４丁目１番１６号リベラルオリエンテ中野４０１Ｂ,,27,121,5460012,,,,,,,2025-10-01,1,,,,,ウフウ,0
2027,8120001280530,新規,0,2025-10-01,2025-10-01,宥和飲食管理株式会社,,株式会社,大阪府,大阪市西区,立売堀４丁目３番１６号５１１室,,27,106,5500012,,,,,,,2025-10-01,1,,,,,ユウワインショクカンリ,0
2030,8120003030702,新規,0,2025-10-01,2025-10-01,白雪球合同会社,,合同会社,大阪府,大阪市西成区,萩之茶屋２丁目６番４号ニューかめや２６５号室,,27,122,5570004,,,,,,,2025-10-01,1,,,,,シラユキキュウ,0
2031,8120003030727,新規,0,2025-10-01,2025-10-01,Ｍｉｎｏｒｉ　Ａｓｓｅｔ　Ｄｅｓｉｇｎ合同会社,,合同会社,大阪府,大阪市北区,天神橋２丁目２番２０－２０７号,,27,127,5300041,,,,,,,2025-10-01,1,,,,,ミノリアセットデザイン,0
2033,8120101072497,新規,0,2025-10-01,2025-10-01,Ｎｏｋｉ株式会社,,株式会社,大阪府,泉佐野市,笠松２丁目２－７,,27,213,5980044,,,,,,,2025-10-01,1,,,,,ノキ,0
2034,8120101072514,新規,0,2025-10-01,2025-10-01,株式会社トラスト,,株式会社,大阪府,松原市,別所８丁目９番１０号,,27,217,5800005,,,,,,,2025-10-01,1,,,,,トラスト,0
2039,8120901051551,新規,0,2025-10-01,2025-10-01,高槻興産株式会社,,株式会社,大阪府,高槻市,奥天神町１丁目２５番３号,,27,207,5691118,,,,,,,2025-10-01,1,,,,,タカツキコウサン,0
2043,8122001039683,新規,0,2025-10-01,2025-10-01,智美子株式会社,,株式会社,大阪府,東大阪市,長堂１丁目１８－９新星ビル布施８０５号室,,27,227,5770056,,,,,,,2025-10-01,1,,,,,チミコ,0
2044,8122003003324,新規,0,2025-10-01,2025-10-01,合同会社ＥＺ　ＭＯＤＥ,,合同会社,大阪府,大東市,赤井２丁目２番２６号,,27,218,5740046,,,,,,,2025-10-01,1,,,,,イージーモード,0
2045,8122003003332,新規,0,2025-10-01,2025-10-01,ＬＥ　ＶＵ合同会社,,合同会社,大阪府,東大阪市,衣摺１丁目１番２６号,,27,227,5770827,,,,,,,2025-10-01,1,,,,,レブ,0
2058,8140001140146,新規,0,2025-10-01,2025-10-01,株式会社Ｅ‐Ｃｏｎｎｅｃｔ　Ａｇｅｎｃｙ,,株式会社,兵庫県,西宮市,東鳴尾町２丁目３番１８ＭＵＫＯＧＡＷＡＢＡＳＥ０１号室,,28,204,6638132,,,,,,,2025-10-01,1,,,,,イーコネクトエージェンシー,0
2059,8140001140179,新規,0,2025-10-01,2025-10-01,ＩＮＳＥ株式会社,,株式会社,兵庫県,西宮市,津門呉羽町２番２３号,,28,204,6638245,,,,,,,2025-10-01,1,,,,,インセ,0
2063,8140003022631,新規,0,2025-10-01,2025-10-01,合同会社ＬＥＯ,,合同会社,兵庫県,伊丹市,梅ノ木４丁目４番１２号,,28,207,6640856,,,,,,,2025-10-01,1,,,,,レオ,0
2064,8140003022648,新規,0,2025-10-01,2025-10-01,アースプランド合同会社,,合同会社,兵庫県,尼崎市,西難波町２丁目２６番２６号,,28,202,6600893,,,,,,,2025-10-01,1,,,,,アースプランド,0
2066,8150001028423,新規,0,2025-10-01,2025-10-01,株式会社Ｅｖｅｔｓ,,株式会社,奈良県,天理市,西井戸堂町４５５番地２,,29,204,6320075,,,,,,,2025-10-01,1,,,,,イーベッツ,0
2067,8150001028431,新規,0,2025-10-01,2025-10-01,株式会社ライフ,,株式会社,奈良県,奈良市,杉ヶ町５０カイモト第１ビル１階,,29,201,6308357,,,,,,,2025-10-01,1,,,,,ライフ,0
2078,8180005021248,新規,0,2025-10-01,2025-10-01,一般社団法人尾張建設サポート協会,,その他の設立登記法人,愛知県,春日井市,松新町１丁目２０番地河合ビル３階,,23,206,4860931,,,,,,,2025-10-01,1,,,,,オワリケンセツサポートキョウカイ,0
2082,8180301040257,新規,0,2025-10-01,2025-10-01,株式会社内海,,株式会社,愛知県,岡崎市,土井町字南赤部内１７番地１,,23,202,4440204,,,,,,,2025-10-01,1,,,,,ウチウミ,0
2088,8200001044282,新規,0,2025-10-01,2025-10-01,ＳＡＲＤＡＲ　ＴＲＡＤＩＮＧ株式会社,,株式会社,岐阜県,大垣市,内原１丁目４６９番地１田中ハイツ第３Ｆ－８号,,21,202,5030936,,,,,,,2025-10-01,1,,,,,サルダルトレーディング,0
2090,8200003007072,新規,0,2025-10-01,2025-10-01,合同会社ＫＡＨＬＯＯＮ　ＴＲＡＤＩＮＧ,,合同会社,岐阜県,美濃加茂市,森山町４丁目３番地５古井公団マンション３０１号,,21,211,5050021,,,,,,,2025-10-01,1,,,,,カハルーントレーディング,0
2093,8230001021106,新規,0,2025-10-01,2025-10-01,株式会社ｎｅｏ　ｂｒｉｄｇｅ　ｌｉｎｋ,,株式会社,富山県,富山市,桜橋通り３‐１富山電気ビルディング本館２Ｆ,,16,201,9300004,,,,,,,2025-10-01,1,,,,,ネオブリッジリンク,0
2096,8240001065556,新規,0,2025-10-01,2025-10-01,ラ・ヴィ株式会社,,株式会社,広島県,福山市,高西町３丁目２番１４号,,34,207,7290106,,,,,,,2025-10-01,1,,,,,ラヴィ,0
2097,8240001065564,新規,0,2025-10-01,2025-10-01,株式会社Ｉ’ｓエステート,,株式会社,広島県,福山市,加茂町下加茂９３－２東Ｂ,,34,207,7210000,,,,,,,2025-10-01,1,,,,,アイズエステート,0
2100,8280003001992,新規,0,2025-10-01,2025-10-01,合同会社新宮,,合同会社,島根県,松江市,鹿島町佐陀宮内７８４番地,,32,201,6900331,,,,,,,2025-10-01,1,,,,,シングウ,0
2109,8300005007267,新規,0,2025-10-01,2025-10-01,特定非営利活動法人あいとす,,その他の設立登記法人,佐賀県,鳥栖市,大正町８２０番地１ＭＪＲ鳥栖中央公園３０６,,41,203,8410032,,,,,,,2025-10-01,1,,,,,アイトス,0
2119,8330001033611,新規,0,2025-10-01,2025-10-01,株式会社サンデイズ,,株式会社,熊本県,熊本市西区,上熊本２丁目７－３８リーフ５０１,,43,103,8600079,,,,,,,2025-10-01,1,,,,,サンデイズ,0
2121,8330003011235,新規,0,2025-10-01,2025-10-01,合同会社ルミナス,,合同会社,熊本県,熊本市中央区,九品寺１丁目１１番２９号,,43,101,8620976,,,,,,,2025-10-01,1,,,,,ルミナス,0
2124,8360005007286,新規,0,2025-10-01,2025-10-01,一般社団法人アレシオ,,その他の設立登記法人,沖縄県,中頭郡北谷町,字港１４番地２２ベイサイドマンション３－Ｂ,,47,326,9040114,,,,,,,2025-10-01,1,,,,,アレシオ,0
2126,8370005010999,新規,0,2025-10-01,2025-10-01,一般社団法人日々,,その他の設立登記法人,宮城県,気仙沼市,川原崎１８２,,04,205,9880824,,,,,,,2025-10-01,1,,,,,ヒビ,0
2127,8370005011007,新規,0,2025-10-01,2025-10-01,蔵王温泉国際交流協同組合,,その他の設立登記法人,宮城県,刈田郡蔵王町,遠刈田温泉字北原尾９６番地,,04,301,9890916,,,,,,,2025-10-01,1,,,,,ザオウオンセンコクサイコウリュウ,0
2134,8420001019279,新規,0,2025-10-01,2025-10-01,ユニーク株式会社,,株式会社,青森県,上北郡おいらせ町,緑ヶ丘７丁目５０番地２０９９コーポイシヅカＥ号,,02,412,0392187,,,,,,,2025-10-01,1,,,,,ユニーク,0
2136,8420003003181,新規,0,2025-10-01,2025-10-01,合同会社伝農,,合同会社,青森県,下北郡風間浦村,大字蛇浦字蛇浦７４番地１,,02,425,0394503,,,,,,,2025-10-01,1,,,,,デンノウ,0
2139,8430001095294,新規,0,2025-10-01,2025-10-01,赤炎株式会社,,株式会社,北海道,札幌市中央区,南十条西９丁目１番２１号豊正マンション８号室,,01,101,0640810,,,,,,,2025-10-01,1,,,,,アカホノオ,0
2141,8430003018138,新規,0,2025-10-01,2025-10-01,合同会社８Ｌｏｏｐ,,合同会社,北海道,札幌市西区,山の手一条８丁目１番１３号,,01,107,0630001,,,,,,,2025-10-01,1,,,,,エイトループ,0
2142,8430003018154,新規,0,2025-10-01,2025-10-01,雪見一会合同会社,,合同会社,北海道,札幌市中央区,北四条西４丁目１番地７ＭＭＳ札幌駅前ビル４階Ｓ－０３,,01,101,0600004,,,,,,,2025-10-01,1,,,,,ユキミイチエ,0
2147,8480002016286,新規,0,2025-10-01,2025-10-01,住吉水産有限会社,,有限会社,徳島県,阿南市,椿泊町東１２３番地,,36,204,7791740,,,,,,,2025-10-01,1,,,,,,0
2148,8500003003603,新規,0,2025-10-01,2025-10-01,合同会社ＳＴ＆Ｃ,,合同会社,愛媛県,西条市,船屋乙２７番地５８,,38,206,7930005,,,,,,,2025-10-01,1,,,,,エスティアンドシー,0
2149,8700150091810,新規,0,2025-10-01,2018-11-27,特別区議会議長会,,その他,東京都,千代田区,飯田橋３丁目５番１号,,13,101,1020072,,,,,,,2018-11-27,1,,,,,トクベツクギカイギチヨウカイ,0
2161,9010001258710,新規,0,2025-10-01,2025-10-01,誠和株式会社,,株式会社,東京都,千代田区,神田神保町２丁目３４－１鳴海ビル２１４号,,13,101,1010051,,,,,,,2025-10-01,1,,,,,セイワ,0
2164,9010003048886,新規,0,2025-10-01,2025-10-01,Ｚｕｏｙｅ合同会社,,合同会社,東京都,千代田区,九段北１丁目１番７号カーサ九段６０７号,,13,101,1020073,,,,,,,2025-10-01,1,,,,,ツォイエ,0
2167,9010005040726,新規,0,2025-10-01,2025-10-01,もばら一般社団法人,,その他の設立登記法人,東京都,千代田区,霞が関３丁目２番５号,,13,101,1000013,,,,,,,2025-10-01,1,,,,,モバラ,0
2170,9010401193292,新規,0,2025-10-01,2025-10-01,株式会社Ｈｏｔｏｒｉ,,株式会社,東京都,港区,白金６丁目５－２シティタワー白金１５０１,,13,103,1080072,,,,,,,2025-10-01,1,,,,,ホトリ,0
2171,9010401193375,新規,0,2025-10-01,2025-10-01,株式会社Ｆａｍｍ,,株式会社,東京都,港区,北青山３丁目５番６号,,13,103,1070061,,,,,,,2025-10-01,1,,,,,ファム,0
2172,9010401193466,新規,0,2025-10-01,2025-10-01,ＹＡＨＯ株式会社,,株式会社,東京都,港区,六本木６丁目１０番１号六本木ヒルズ森タワー２３階,,13,103,1060032,,,,,,,2025-10-01,1,,,,,ヤホ,0
2174,9010403036061,新規,0,2025-10-01,2025-10-01,合同会社ＤＲＣ総研,,合同会社,東京都,港区,南青山２丁目２番１５号,,13,103,1070062,,,,,,,2025-10-01,1,,,,,ディーアールシーソウケン,0
2175,9010403036094,新規,0,2025-10-01,2025-10-01,ＫＮＯＴ合同会社,,合同会社,東京都,港区,六本木３丁目１６番１２号六本木ＫＳビル５Ｆ,,13,103,1060032,,,,,,,2025-10-01,1,,,,,ノット,0
2176,9010405024725,新規,0,2025-10-01,2025-10-01,一般社団法人全国統合医療クリニック,,その他の設立登記法人,東京都,港区,芝公園１丁目２番９号,,13,103,1050011,,,,,,,2025-10-01,1,,,,,ゼンコクトウゴウイリョウクリニック,0
2177,9010601068039,新規,0,2025-10-01,2025-10-01,株式会社Ｍｏｒｐｈｉｓｍ,,株式会社,東京都,墨田区,亀沢４丁目６番９－４０９号,,13,107,1300014,,,,,,,2025-10-01,1,,,,,モルフィズム,0
2181,9010902027998,新規,0,2025-10-01,2025-10-01,有限会社フェニックスコーポレーション,,有限会社,東京都,世田谷区,東玉川１丁目７番１２号,,13,112,1580084,,,,,,,2025-10-01,1,,,,,フェニックスコーポレーション,0
2187,9011001171936,新規,0,2025-10-01,2025-10-01,パーフェクト・モーターズ株式会社,,株式会社,東京都,渋谷区,富ヶ谷１丁目１４番１４号３Ｆ・４Ｆ,,13,113,1510063,,,,,,,2025-10-01,1,,,,,パーフェクトモーターズ,0
2188,9011001172240,新規,0,2025-10-01,2025-10-01,株式会社ＳＩＬＩ,,株式会社,東京都,渋谷区,猿楽町２番１号アベニューサイド代官山ＩＩ２Ｆ,00140875,13,113,1500033,,,,,,,2025-10-01,1,,,,,シリ,0
2189,9011001172281,新規,0,2025-10-01,2025-10-01,株式会社ＮＥＵ,,株式会社,東京都,渋谷区,本町５丁目１３番５号,,13,113,1510071,,,,,,,2025-10-01,1,,,,,ノイ,0
2190,9011001172331,新規,0,2025-10-01,2025-10-01,真意株式会社,,株式会社,東京都,目黒区,東山１丁目１９番９号,,13,110,1530043,,,,,,,2025-10-01,1,,,,,シンイ,0
2191,9011001172868,新規,0,2025-10-01,2025-10-01,Ｚｅｙｒａ株式会社,,株式会社,東京都,渋谷区,恵比寿西２丁目４番８号ウィンド恵比寿ビル８Ｆ,,13,113,1500021,,,,,,,2025-10-01,1,,,,,ゼイラ,0
2192,9011003022492,新規,0,2025-10-01,2025-10-01,合同会社沖太蔵,,合同会社,東京都,渋谷区,代々木３丁目７番９号スプリングパーム代々木２階,,13,113,1510053,,,,,,,2025-10-01,1,,,,,オキタゾウ,0
2197,9011303005726,新規,0,2025-10-01,2025-10-01,Ｃｏｏｏｏｏｍｐａｎｙ合同会社,,合同会社,東京都,杉並区,阿佐谷南３丁目４１番１１号,,13,115,1660004,,,,,,,2025-10-01,1,,,,,カンパニー,0
2198,9011401027432,新規,0,2025-10-01,2025-10-01,株式会社ＬｕｍｉＬａｕｔ,,株式会社,東京都,板橋区,板橋３丁目６０番７号,,13,119,1730004,,,,,,,2025-10-01,1,,,,,ルミラウト,0
2204,9011701028782,新規,0,2025-10-01,2025-10-01,Ｐｅａｃｅｆｕｌ　Ｇｏｌｄ　Ｗａｔｅｒ株式会社,,株式会社,東京都,江戸川区,東小岩５丁目３７－１２－２１１号,,13,123,1330052,,,,,,,2025-10-01,1,,,,,ピースフルゴールドウォーター,0
2205,9011801046800,新規,0,2025-10-01,2025-10-01,株式会社プレミアポート,,株式会社,東京都,葛飾区,堀切２丁目５９番９－６０２号レクセルマンション堀切菖蒲園,,13,122,1240006,,,,,,,2025-10-01,1,,,,,プレミアポート,0
2206,9011801046809,新規,0,2025-10-01,2025-10-01,山今物産株式会社,,株式会社,東京都,足立区,栗原３丁目２６番１号２Ｆ,,13,121,1230842,,,,,,,2025-10-01,1,,,,,ヤマイマブッサン,0
2211,9013301055034,新規,0,2025-10-01,2025-10-01,豐碩株式会社,,株式会社,東京都,豊島区,巣鴨１丁目１１番２号巣鴨陽光ハイツ５０８号室,,13,116,1700002,,,,,,,2025-10-01,1,,,,,ホウセキ,0
2212,9013301055042,新規,0,2025-10-01,2025-10-01,株式会社Ｐｉｃｔｕｒｅ　ｖｉｌｌａｇｅ,,株式会社,東京都,豊島区,高田３丁目３２番１８－４０１号,,13,116,1710033,,,,,,,2025-10-01,1,,,,,ピクチャービレッジ,0
2213,9013401001953,新規,0,2025-10-01,2025-10-01,株式会社高桑管工,,株式会社,東京都,稲城市,東長沼２０４番地の７,,13,225,2060802,,,,,,,2025-10-01,1,,,,,タカクワカンコウ,0
2220,9020001164965,新規,0,2025-10-01,2025-10-01,株式会社ＺＯＲＡ,,株式会社,神奈川県,横浜市神奈川区,金港町５－１４クアドリフォリオ８階,,14,102,2210056,,,,,,,2025-10-01,1,,,,,ゾラ,0
2228,9021003016659,新規,0,2025-10-01,2025-10-01,合同会社ＥＸ　ｔｅｃｈｎｏ,,合同会社,神奈川県,伊勢原市,石田７９２―３５,,14,214,2591116,,,,,,,2025-10-01,1,,,,,イーエックステクノ,0
2234,9030001168866,新規,0,2025-10-01,2025-10-01,株式会社ｅｒｅｌｌａ　ｓａｌｅｓ,,株式会社,埼玉県,さいたま市大宮区,桜木町１丁目３９８番地１アドグレイス大宮７Ｆ,,11,103,3300854,,,,,,,2025-10-01,1,,,,,エレラセールス,0
2235,9030001168874,新規,0,2025-10-01,2025-10-01,株式会社大和技建興業,,株式会社,埼玉県,北足立郡伊奈町,中央５丁目１５９番地グレイス１２－１０７,,11,301,3620809,,,,,,,2025-10-01,1,,,,,ヤマトギケンコウギョウ,0
2236,9030001168882,新規,0,2025-10-01,2025-10-01,株式会社ＬＩＶＡＲＥＬ,,株式会社,埼玉県,越谷市,レイクタウン８丁目１１番地６ヘルメスコート１Ｆ,,11,222,3430828,,,,,,,2025-10-01,1,,,,,リヴァレル,0
2237,9030001168890,新規,0,2025-10-01,2025-10-01,株式会社ＡｔｌｅＤ,,株式会社,埼玉県,川口市,新井町２１番９号,,11,203,3320005,,,,,,,2025-10-01,1,,,,,エイトレッド,0
2238,9030001168908,新規,0,2025-10-01,2025-10-01,株式会社Ｋｏ,,株式会社,埼玉県,さいたま市緑区,原山２丁目３８番３４－１号,,11,109,3360931,,,,,,,2025-10-01,1,,,,,コー,0
2245,9040001140659,新規,0,2025-10-01,2025-10-01,エナジーバリュー株式会社,,株式会社,千葉県,市川市,原木３丁目６番５号２階,,12,203,2720004,,,,,,,2025-10-01,1,,,,,エナジーバリュー,0
2248,9040003028613,新規,0,2025-10-01,2025-10-01,合同会社辰野畜電所,,合同会社,千葉県,木更津市,かずさ鎌足１丁目８番地１,,12,206,2920818,,,,,,,2025-10-01,1,,,,,タツノチクデンショ,0
2249,9040003028621,新規,0,2025-10-01,2025-10-01,ＷＨＩＴＥ　ＣＩＴＹ　ＪＡＰＡＮ合同会社,,合同会社,千葉県,印西市,東の原３丁目３番地４６,,12,231,2701336,,,,,,,2025-10-01,1,,,,,ホワイトシティジャパン,0
2251,9050003009579,新規,0,2025-10-01,2025-10-01,ＬＵＮＡ　ＨＡＮＧ合同会社,,合同会社,茨城県,筑西市,甲８４番地３,,08,227,3080021,,,,,,,2025-10-01,1,,,,,ルナハン,0
2253,9060003005783,新規,0,2025-10-01,2025-10-01,ＴＨＲＯ　ＷＡＹ合同会社,,合同会社,栃木県,足利市,大前町９３０番地コミュニティハイツ三伸４１１,,09,202,3260845,,,,,,,2025-10-01,1,,,,,トロウェイ,0
2256,9070001043388,新規,0,2025-10-01,2025-10-01,楽々国際株式会社,,株式会社,群馬県,高崎市,あら町８番地３新井ビル１階,,10,202,3700831,,,,,,,2025-10-01,1,,,,,ラクラクコクサイ,0
2261,9080003003570,新規,0,2025-10-01,2025-10-01,合同会社ＡＫＩＲＡ,,合同会社,静岡県,静岡市葵区,幸町５番地の４,,22,101,4200067,,,,,,,2025-10-01,1,,,,,アキラ,0
2262,9080405007764,新規,0,2025-10-01,2025-10-01,一般社団法人Ａｍｉｂｏ,,その他の設立登記法人,静岡県,御前崎市,池新田５１０２番地の３９,,22,223,4371612,,,,,,,2025-10-01,1,,,,,アミボ,0
2263,9090003002902,新規,0,2025-10-01,2025-10-01,Ｍｔ　Ｆｕｊｉ　Ｌｉｆｅ合同会社,,合同会社,山梨県,富士吉田市,旭５丁目８番３０号,,19,202,4030012,,,,,,,2025-10-01,1,,,,,マウントフジライフ,0
2264,9090005007742,新規,0,2025-10-01,2025-10-01,医療法人社団仁醫会,,その他の設立登記法人,山梨県,南都留郡富士河口湖町,船津３４９５番地,,19,430,4010301,,,,,,,2025-10-01,1,,,,,ジンイカイ,0
2281,9120001280190,新規,0,2025-10-01,2025-10-01,華実株式会社,,株式会社,大阪府,大阪市浪速区,大国１丁目９番１３号マンション鷹４０３Ｂ号室,,27,111,5560014,,,,,,,2025-10-01,1,,,,,カジツ,0
2282,9120001280422,新規,0,2025-10-01,2025-10-01,信和株式会社,,株式会社,大阪府,大阪市中央区,南船場１丁目３番１０号サンライズ長堀１１０６号室,,27,128,5420081,,,,,,,2025-10-01,1,,,,,シンワ,0
2283,9120001280439,新規,0,2025-10-01,2025-10-01,悠陽貿易株式会社,,株式会社,大阪府,大阪市西成区,松３丁目１１番２２－３０６号,,27,122,5570034,,,,,,,2025-10-01,1,,,,,ユウヨウボウエキ,0
2284,9120001280496,新規,0,2025-10-01,2025-10-01,幸福成株式会社,,株式会社,大阪府,大阪市東住吉区,中野４丁目１番１６号リベラルオリエンテ中野４１０Ａ,,27,121,5460012,,,,,,,2025-10-01,1,,,,,コウフクセイ,0
2285,9120001280637,新規,0,2025-10-01,2025-10-01,株式会社Ｍｏａｒｕ,,株式会社,大阪府,大阪市東成区,深江北２丁目６番１－３０１号,,27,115,5370001,,,,,,,2025-10-01,1,,,,,モアル,0
2287,9120003030759,新規,0,2025-10-01,2025-10-01,合同会社ＩＭＲ,,合同会社,大阪府,大阪市浪速区,敷津西１丁目１１番２３－５０４号,,27,111,5560015,,,,,,,2025-10-01,1,,,,,アイエムアール,0
2290,9120005025170,新規,0,2025-10-01,2025-10-01,一般社団法人インドネシア日本経済協力機構,,その他の設立登記法人,大阪府,大阪市城東区,新喜多２丁目６－９ＣＲＥＡＴＩＶＥＳＰＡＣＥＨＡＶＥ京橋ＥＡＳＴ５号室,,27,118,5360015,,,,,,,2025-10-01,1,,,,,インドネシアニホンケイザイキョウリョクキコウ,0
2294,9120101072505,新規,0,2025-10-01,2025-10-01,金九株式会社,,株式会社,大阪府,和泉市,のぞみ野１丁目１６番１４号,,27,219,5941105,,,,,,,2025-10-01,1,,,,,キンキュウ,0
2295,9120101072513,新規,0,2025-10-01,2025-10-01,株式会社犬鳴山,,株式会社,大阪府,泉佐野市,大木２２３８番２,,27,213,5980023,,,,,,,2025-10-01,1,,,,,イヌナキサン,0
2297,9120103006758,新規,0,2025-10-01,2025-10-01,合同会社ＷＩＴＨ　ＹＯＵ,,合同会社,大阪府,松原市,東新町５丁目４番２５号,,27,217,5800024,,,,,,,2025-10-01,1,,,,,ウィズユー,0
2300,9122001039666,新規,0,2025-10-01,2025-10-01,株式会社トモテック,,株式会社,大阪府,東大阪市,新池島町３丁目９番３７－６１２号,,27,227,5798065,,,,,,,2025-10-01,1,,,,,トモテック,0
2301,9122001039682,新規,0,2025-10-01,2025-10-01,Ａｒｅｓ‐Ｄ株式会社,,株式会社,大阪府,東大阪市,若江西新町４丁目６番１０－１０４号,,27,227,5780944,,,,,,,2025-10-01,1,,,,,アーレスディー,0
2302,9122003003331,新規,0,2025-10-01,2025-10-01,ＴＡ合同会社,,合同会社,大阪府,八尾市,八尾木北１丁目１４－４,,27,212,5810016,,,,,,,2025-10-01,1,,,,,ティーエイ,0
2312,9140001140153,新規,0,2025-10-01,2025-10-01,株式会社ヤマキンホールディングス,,株式会社,兵庫県,洲本市,五色町鮎原上８５１番地３,,28,205,6561322,,,,,,,2025-10-01,1,,,,,ヤマキンホールディングス,0
2313,9140001140161,新規,0,2025-10-01,2025-10-01,ＢＦトレーディング株式会社,,株式会社,兵庫県,加古川市,八幡町宗佐宇市場４６７番地－１,,28,210,6751201,,,,,,,2025-10-01,1,,,,,ビーエフトレーディング,0
2314,9140001140178,新規,0,2025-10-01,2025-10-01,株式会社ルミナエイト,,株式会社,兵庫県,尼崎市,善法寺町２７番３２－２号,,28,202,6610973,,,,,,,2025-10-01,1,,,,,ルミナエイト,0
2325,9180001168793,新規,0,2025-10-01,2025-10-01,株式会社ＹＰＣ,,株式会社,愛知県,清須市,西枇杷島町南六軒１５番地,,23,233,4520044,,,,,,,2025-10-01,1,,,,,ワイピーシー,0
2328,9180003029135,新規,0,2025-10-01,2025-10-01,合同会社ＯＮＥ,,合同会社,愛知県,名古屋市守山区,白山４丁目１０１番地の１,,23,113,4630032,,,,,,,2025-10-01,1,,,,,ワン,0
2332,9190003005176,新規,0,2025-10-01,2025-10-01,Ｉｃｃｈａ　Ｈｏｕｓｅ合同会社,,合同会社,三重県,伊賀市,阿保１４０４‐２,,24,216,5180226,,,,,,,2025-10-01,1,,,,,イッチャハウス,0
2334,9200001044273,新規,0,2025-10-01,2025-10-01,ＣＨＵＢＵ　Ｅ‐ＫＵＫＩホールディングス株式会社,,株式会社,岐阜県,岐阜市,岩滝西１丁目４７５番地２,,21,201,5013152,,,,,,,2025-10-01,1,,,,,チュウブイークキホールディングス,0
2335,9200003007071,新規,0,2025-10-01,2025-10-01,合同会社ＡＫ＆Ｃｏ,,合同会社,岐阜県,岐阜市,野一色２丁目６－１０,,21,201,5008226,,,,,,,2025-10-01,1,,,,,エイケーアンドコー,0
2343,9240005015993,新規,0,2025-10-01,2025-10-01,ＦＡＭＺ税理士法人,,その他の設立登記法人,広島県,広島市中区,舟入町２番２０号,,34,101,7300841,,,,,,,2025-10-01,1,,,,,ファムズ,0
2346,9260001040580,新規,0,2025-10-01,2025-10-01,株式会社東削蹄Ｒｅｓｅａｒｃｈ,,株式会社,岡山県,苫田郡鏡野町,富西谷１５５７,,33,606,7080701,,,,,,,2025-10-01,1,,,,,アズマサクテイリサーチ,0
2360,9290003017459,新規,0,2025-10-01,2025-10-01,安諾合同会社,,合同会社,福岡県,福岡市東区,箱崎４丁目３８番１７号パークコート箱崎ＩＩ２０３号室,00140880,40,131,8120053,,,,,,,2025-10-01,1,,,,,アンノ,0
2362,9290803005167,新規,0,2025-10-01,2025-10-01,合同会社しのはら,,合同会社,福岡県,田川市,番田町４番２０号,,40,206,8250018,,,,,,,2025-10-01,1,,,,,シノハラ,0
2364,9300005007266,新規,0,2025-10-01,2025-10-01,行政書士法人まるごとパートナーズ,,その他の設立登記法人,佐賀県,佐賀市,成章町２番１６号,,41,201,8400814,,,,,,,2025-10-01,1,,,,,マルゴトパートナーズ,0
2366,9310005008874,新規,0,2025-10-01,2025-10-01,医療法人すどう歯科,,その他の設立登記法人,長崎県,佐世保市,大潟町６０番地１９５,,42,202,8580926,,,,,,,2025-10-01,1,,,,,スドウシカ,0
2370,9330001033610,新規,0,2025-10-01,2025-10-01,ＳｔａｒＢｅａｒｙ株式会社,,株式会社,熊本県,熊本市中央区,下通１丁目３番８号下通ＮＳビル６階,,43,101,8600807,,,,,,,2025-10-01,1,,,,,スターベアリー,0
2371,9330001033619,新規,0,2025-10-01,2025-10-01,株式会社つくしコーポレーション,,株式会社,熊本県,球磨郡錦町,大字西１８４１番地１,,43,501,8680303,,,,,,,2025-10-01,1,,,,,ツクシコーポレーション,0
2373,9350003005028,新規,0,2025-10-01,2025-10-01,合同会社ファースト,,合同会社,宮崎県,宮崎市,大字恒久５７０２番地４,,45,201,8800916,,,,,,,2025-10-01,1,,,,,ファースト,0
2374,9350003005036,新規,0,2025-10-01,2025-10-01,合同会社葵削蹄所,,合同会社,宮崎県,都城市,五十町１０５８番地８,,45,202,8850084,,,,,,,2025-10-01,1,,,,,アオイサクテイジョ,0
2379,9360001035827,新規,0,2025-10-01,2025-10-01,うるまライフサポート株式会社,,株式会社,沖縄県,うるま市,字川田３７６番地１,,47,213,9042232,,,,,,,2025-10-01,1,,,,,ウルマライフサポート,0
2381,9360005007293,新規,0,2025-10-01,2025-10-01,一般社団法人琉球交響楽団,,その他の設立登記法人,沖縄県,那覇市,牧志３丁目２番１０号てんぶす那覇３階,,47,201,9000013,,,,,,,2025-10-01,1,,,,,リュウキュウコウキョウガクダン,0
2386,9400003003538,新規,0,2025-10-01,2025-10-01,滝沢開発合同会社,,合同会社,岩手県,滝沢市,土沢３０７番地４,,03,216,0200638,,,,,,,2025-10-01,1,,,,,,0
2390,9420001019286,新規,0,2025-10-01,2025-10-01,ａｎｃｈｏｒ‐ｓｔａｙ株式会社,,株式会社,青森県,青森市,第二問屋町３丁目２１－４,,02,201,0300113,,,,,,,2025-10-01,1,,,,,アンカーステイ,0
2399,9430001095302,新規,0,2025-10-01,2025-10-01,株式会社マルチシステム,,株式会社,北海道,札幌市白石区,本通３丁目北６番１２号,,01,104,0030027,,,,,,,2025-10-01,1,,,,,マルチシステム,0
2410,9700150132381,新規,0,2025-10-01,2025-10-01,ｓｈｅｎｚｈｅｎｙｕｅｚｈｉｍｉｎｄｉａｎｚｉｓｈａｎｇｗｕｙｏｕｘｉａｎｇｏｎｇｓｉ,,外国会社等,,,,,,,,ｓｈｅｎｚｈｅｎｓｈｉｎａｎｓｈａｎｑｕｙｕｅｈａｉｊｉｅｄａｏｇａｏｘｉｎｑｕｓｈｅｑｕｘｉｂｅｉｇｏｎｇｙｅｄａｘｕｅｓａｎｈａｎｇｋｅｊｉｄａｓｈａ１２３２,,,,,,2025-10-01,1,,,,,シンセンユエジミンデンシショウムユウゲンコウシ,0
