sequenceNumber,corporateNumber,process,correct,updateDate,changeDate,name,nameImageId,kind,prefectureName,cityName,streetNumber,addressImageId,prefectureCode,cityCode,postCode,addressOutside,addressOutsideImageId,closeDate,closeCause,successorCorporateNumber,changeCause,assignmentDate,latest,enName,enPrefectureName,enCityName,enAddressOutside,furigana,hihyoji
3,1010001247431,新規,0,2024-08-21,2024-08-21,株式会社シェノン,,株式会社,東京都,千代田区,九段南１丁目５番６号りそな九段ビル５ＦＫＳフロア,,13,101,1020074,,,,,,,2024-08-21,1,,,,,シェノン,0
4,1010001247662,新規,0,2024-08-21,2024-08-21,株式会社Ｃ　ｐａｙ,,株式会社,東京都,千代田区,有楽町１丁目６番３号日比谷頴川ビル,,13,101,1000006,,,,,,,2024-08-21,1,,,,,シーペイ,0
5,1010003044620,新規,0,2024-08-21,2024-08-21,ＧＬ　ＪＲＥ　Ｅ合同会社,,合同会社,東京都,千代田区,永田町２丁目１７番５号,,13,101,1000014,,,,,,,2024-08-21,1,,,,,ジーエルジェーアールイーイー,0
12,1010405023453,新規,0,2024-08-21,2024-08-21,一般社団法人ココロｔｏカラダＰｒｏｊｅｃｔ,,その他の設立登記法人,東京都,港区,北青山１丁目３番１号アールキューブ青山３階,,13,103,1070061,,,,,,,2024-08-21,1,,,,,ココロトカラダプロジェクト,0
15,1010501052760,新規,0,2024-08-21,2024-08-21,株式会社アントレッド,,株式会社,東京都,台東区,浅草６丁目３８番５号１Ｆ,,13,106,1110032,,,,,,,2024-08-21,1,,,,,アントレッド,0
16,1010503007556,新規,0,2024-08-21,2024-08-21,合同会社むぎ,,合同会社,東京都,台東区,浅草橋３丁目１２番６号,,13,106,1110053,,,,,,,2024-08-21,1,,,,,ムギ,0
17,1010601065786,新規,0,2024-08-21,2024-08-21,展望株式会社,,株式会社,東京都,江東区,亀戸２丁目６番９－６１７号,,13,108,1360071,,,,,,,2024-08-21,1,,,,,テンボウ,0
24,1010901055834,新規,0,2024-08-21,2024-08-21,株式会社リモ,,株式会社,東京都,世田谷区,砧６丁目１７番５号,,13,112,1570073,,,,,,,2024-08-21,1,,,,,リモ,0
28,1011001163908,新規,0,2024-08-21,2024-08-21,株式会社ＳｔａｒｔＵＰ,,株式会社,東京都,渋谷区,渋谷２丁目１９－５宮益坂ビルディング６０９,,13,113,1500002,,,,,,,2024-08-21,1,,,,,スタートアップ,0
30,1011003019827,新規,0,2024-08-21,2024-08-21,ＫＯＨＥＮ合同会社,,合同会社,東京都,渋谷区,神宮前６丁目２３－４桑野ビル２Ｆ,,13,113,1500001,,,,,,,2024-08-21,1,,,,,コーエン,0
34,1011101108481,新規,0,2024-08-21,2024-08-21,株式会社ビットランド,,株式会社,東京都,新宿区,西新宿３丁目３番１３号西新宿水間ビル６階,,13,104,1600023,,,,,,,2024-08-21,1,,,,,ビットランド,0
35,1011201025734,新規,0,2024-08-21,2024-08-21,株式会社テックブリッジジャパン,,株式会社,東京都,中野区,弥生町２丁目４１番１７号東京コンテンツインキュベーションセンター,,13,114,1640013,,,,,,,2024-08-21,1,,,,,テックブリッジジャパン,0
40,1011601027999,新規,0,2024-08-21,2024-08-21,株式会社ＥＣＯ　ＶＩＳＩＯＮ,,株式会社,東京都,練馬区,土支田３丁目３９－２１ラプロヴァンスドゥヒカリガオカ１０１,,13,120,1790076,,,,,,,2024-08-21,1,,,,,エコビジョン,0
54,1013303007263,新規,0,2024-08-21,2024-08-21,合同会社ＨＡＲＥ,,合同会社,東京都,豊島区,南池袋２丁目４１－１２池袋セントラル２０１,,13,116,1710022,,,,,,,2024-08-21,1,,,,,ハレ,0
55,1013305003632,新規,0,2024-08-21,2024-08-21,一般社団法人国際著作権バンク,,その他の設立登記法人,東京都,豊島区,池袋２丁目６１番８号,,13,116,1710014,,,,,,,2024-08-21,1,,,,,コクサイチョサクケンバンク,0
57,1020003026650,新規,0,2024-08-21,2024-08-21,オプティマ・トレード合同会社,,合同会社,神奈川県,横浜市青葉区,すすき野１丁目３番地１リビオあざみ野ブライティアＣ２０１号,,14,117,2250021,,,,,,,2024-08-21,1,,,,,オプティマトレード,0
58,1020003026659,新規,0,2024-08-21,2024-08-21,合同会社生活向上委員会,,合同会社,神奈川県,川崎市多摩区,菅城下２番１１号,,14,135,2140007,,,,,,,2024-08-21,1,,,,,セイカツコウジョウイインカイ,0
61,1021001083048,新規,0,2024-08-21,2024-08-21,七福控股株式会社,,株式会社,神奈川県,足柄下郡箱根町,元箱根１５９番地の２３１レイクビュー箱根Ａ棟１００号室,,14,382,2500522,,,,,,,2024-08-21,1,,,,,シチフクコウコ,0
67,1030001162018,新規,0,2024-08-21,2024-08-21,株式会社エデンワークス,,株式会社,埼玉県,戸田市,上戸田３丁目３番１７－５０２号,,11,224,3350022,,,,,,,2024-08-21,1,,,,,エデンワークス,0
68,1030001162034,新規,0,2024-08-21,2024-08-21,東東青株式会社,,株式会社,埼玉県,川口市,並木２丁目３番９－１００１号,,11,203,3320034,,,,,,,2024-08-21,1,,,,,トウトウセイ,0
77,1040001135039,新規,0,2024-08-21,2024-08-21,株式会社Ｕｎｃｌａｂ,,株式会社,千葉県,八千代市,ゆりのき台１丁目２４－１サングレース八千代２１０,,12,221,2760042,,,,,,,2024-08-21,1,,,,,アンクラブ,0
85,1040003025626,新規,0,2024-08-21,2024-08-21,合同会社信栄トランスポート,,合同会社,千葉県,市原市,惣社１５０番地,,12,219,2900023,,,,,,,2024-08-21,1,,,,,シンエイトランスポート,0
86,1040003025634,新規,0,2024-08-21,2024-08-21,Ｚａｋｓｏｎ　Ａｕｔｏ合同会社,,合同会社,千葉県,野田市,中里３４０８番地の２,,12,208,2700237,,,,,,,2024-08-21,1,,,,,ザックソンオート,0
88,1050001055269,新規,0,2024-08-21,2024-08-21,遠東新世紀日本株式会社,,株式会社,茨城県,猿島郡境町,大字下小橋字蝉野８８０番地,,08,546,3060432,,,,,,,2024-08-21,1,,,,,エントウシンセイキニホン,0
114,1120001267781,新規,0,2024-08-21,2024-08-21,株式会社ｋａｎａＬ,,株式会社,大阪府,枚方市,車塚１丁目１番１号輝きプラザきらら６階６０８号室,,27,210,5731159,,,,,,,2024-08-21,1,,,,,カナエル,0
115,1120001267880,新規,0,2024-08-21,2024-08-21,島田真珠株式会社,,株式会社,大阪府,大阪市港区,市岡３丁目１８番２１号１０１号室,,27,107,5520012,,,,,,,2024-08-21,1,,,,,シマダシンジュ,0
116,1120001267947,新規,0,2024-08-21,2024-08-21,株式会社矢田商店,,株式会社,大阪府,大阪市福島区,福島４丁目２番７５号,,27,103,5530003,,,,,,,2024-08-21,1,,,,,ヤタショウテン,0
117,1120001267955,新規,0,2024-08-21,2024-08-21,株式会社ファシオクリエーション,,株式会社,大阪府,交野市,藤が尾５丁目１２番１５号,,27,230,5760022,,,,,,,2024-08-21,1,,,,,ファシオクリエーション,0
128,1130001077742,新規,0,2024-08-21,2024-08-21,株式会社エターナルガーデンテラス,,株式会社,京都府,京田辺市,河原食田１０番地２２,,26,211,6100361,,,,,,,2024-08-21,1,,,,,エターナルガーデンテラス,0
129,1130001077759,新規,0,2024-08-21,2024-08-21,株式会社Ｎａｎａｋａ,,株式会社,京都府,京都市伏見区,桃山町養斉１６番地の３５桃山町養斉ビル３階,,26,109,6128016,,,,,,,2024-08-21,1,,,,,ナナカ,0
130,1130001077775,新規,0,2024-08-21,2024-08-21,株式会社ｓ．ｓ．ｉ,,株式会社,京都府,長岡京市,下海印寺横山１０番地２０,,26,209,6170845,,,,,,,2024-08-21,1,,,,,エスエスアイ,0
136,1140005027189,新規,0,2024-08-21,2024-08-21,一般社団法人日越不動産協会,,その他の設立登記法人,兵庫県,尼崎市,西難波町４丁目６番２６号,,28,202,6600893,,,,,,,2024-08-21,1,,,,,ニチエツフドウサンキョウカイ,0
137,1150003003348,新規,0,2024-08-21,2024-08-21,合同会社煌めき,,合同会社,奈良県,奈良市,小西町８－１ラフィーヌ東洋２－Ａ,,29,201,6308226,,,,,,,2024-08-21,1,,,,,キラメキ,0
138,1160001026176,新規,0,2024-08-21,2024-08-21,ホーネスト株式会社,,株式会社,滋賀県,大津市,池の里２１番２５号,,25,201,5200827,,,,,,,2024-08-21,1,,,,,ホーネスト,0
144,1180001162952,新規,0,2024-08-21,2024-08-21,株式会社ＤＩＡＩＴＡ,,株式会社,愛知県,瀬戸市,北脇町２７６,,23,204,4890918,,,,,,,2024-08-21,1,,,,,ディアイタ,0
145,1180001162960,新規,0,2024-08-21,2024-08-21,株式会社カルド,,株式会社,愛知県,瀬戸市,さつき台１丁目１６,,23,204,4890982,,,,,,,2024-08-21,1,,,,,カルド,0
146,1180003027261,新規,0,2024-08-21,2024-08-21,合同会社フルフィ,,合同会社,愛知県,東海市,中央町６丁目７９番地ラ・ファミール中央（１０Ａ）,,23,222,4760013,,,,,,,2024-08-21,1,,,,,フルフィ,0
163,1240001063731,新規,0,2024-08-21,2024-08-21,株式会社ＳＯＵＳＣＨＥＦ,,株式会社,広島県,広島市中区,大手町１丁目１番２０号相生橋ビル７階Ａ号室,,34,101,7300051,,,,,,,2024-08-21,1,,,,,スーシェフ,0
170,1280001009235,新規,0,2024-08-21,2024-08-21,株式会社地域商社奥出雲,,株式会社,島根県,仁多郡奥出雲町,三沢５０１番地１,,32,343,6991513,,,,,,,2024-08-21,1,,,,,チイキショウシャオクイズモ,0
175,1290001106799,新規,0,2024-08-21,2024-08-21,株式会社博多ＴＥＣＨ,,株式会社,福岡県,福岡市博多区,奈良屋町１０番３号西日本奈良屋ビル３０２号,,40,132,8120023,,,,,,,2024-08-21,1,,,,,ハカタテック,0
176,1290001106816,新規,0,2024-08-21,2024-08-21,株式会社ＹＵＫＡＩ　ＩＮＯＶＥＳＴ,,株式会社,福岡県,福岡市博多区,中呉服町３番１０号３Ｆ,,40,132,8120035,,,,,,,2024-08-21,1,,,,,ユカイイノベスト,0
177,1290001106832,新規,0,2024-08-21,2024-08-21,株式会社ライト工業,,株式会社,福岡県,三潴郡大木町,大字前牟田５２４番地７,,40,522,8300406,,,,,,,2024-08-21,1,,,,,ライトコウギョウ,0
178,1290001106849,新規,0,2024-08-21,2024-08-21,株式会社ＵＮＩＯＮ　ＥＤＧＥ,,株式会社,福岡県,福岡市中央区,草香江１丁目７番９－６０３号,,40,133,8100045,,,,,,,2024-08-21,1,,,,,ユニオンエッジ,0
179,1290001106865,新規,0,2024-08-21,2024-08-21,Ｆｌｏｕｒｉｓｈ　Ｊａｐａｎ株式会社,,株式会社,福岡県,福岡市中央区,天神２丁目２番１２号Ｔ＆Ｊビルディング７Ｆ,,40,133,8100001,,,,,,,2024-08-21,1,,,,,フローリッシュジャパン,0
182,1290003015676,新規,0,2024-08-21,2024-08-21,合同会社Ｒ‐Ｌａｄｙ,,合同会社,福岡県,福岡市博多区,博多駅前１丁目２３番２号ＰａｒｋＦｒｏｎｔ博多駅前一丁目５Ｆ－Ｂ,,40,132,8120011,,,,,,,2024-08-21,1,,,,,アールレディ,0
194,1340001026752,新規,0,2024-08-21,2024-08-21,株式会社Ｒｉｃｅｗｅｌｌ,,株式会社,鹿児島県,鹿児島市,桜ヶ丘３丁目１３－１１,,46,201,8910175,,,,,,,2024-08-21,1,,,,,ライスウェル,0
198,1350001019152,新規,0,2024-08-21,2024-08-21,株式会社ジーワン,,株式会社,宮崎県,児湯郡高鍋町,大字北高鍋１３６２番地２タウンコートＩ　１階,00136024,45,401,8840002,,,,,,,2024-08-21,1,,,,,ジーワン,0
211,1470001020354,新規,0,2024-08-21,2024-08-21,ａｑｕａｚｏｏ株式会社,,株式会社,香川県,高松市,高松町３０３番地６,,37,201,7610104,,,,,,,2024-08-21,1,,,,,アクアズー,0
214,1700150126804,新規,0,2024-08-21,2024-08-21,ｈａｎ　ｆａｎｇ　ｚａｉ　ｗｅｎ　ｈｕａ　ｙｉ　ｓｈｕ　ｃｈａｎ　ｙｅ　Ｌｉｍｉｔｅｄ　ｃｏｍｐａｎ,,外国会社等,,,,,,,,ｙｕｎｃｈｅｎｇｊｉｅｑｉｆｕｌｕｍｉｎｇｚｈｕｌｕｇｕｉｎａｎｙｉｈａｏ１００７ｆａｎｇｇｕａｎｇｚｈｏｕｓｈｉｂａｉｙｕｎｑｕｇｕａｎｇｄｏｎｇｓｈｅｎｇ５１０４１０ＣＮ,,,,,,2024-08-21,1,,,,,ハンファンジャイウェンフワーイーシューチャンイエヨウシエンゴンスー,0
226,2010005038611,新規,0,2024-08-21,2024-08-21,一般社団法人ＷＨＥＬＰ協議会,,その他の設立登記法人,東京都,千代田区,三番町５－１０－１００３,,13,101,1020075,,,,,,,2024-08-21,1,,,,,ヘルプキョウギカイ,0
234,2010701046413,新規,0,2024-08-21,2024-08-21,金東貴金属株式会社,,株式会社,東京都,品川区,南品川１丁目１番３号,,13,109,1400004,,,,,,,2024-08-21,1,,,,,キントウキキンゾク,0
235,2010801035340,新規,0,2024-08-21,2024-08-21,株式会社ユールアド,,株式会社,東京都,大田区,大森南１丁目１８番１６－５０３号,,13,111,1430013,,,,,,,2024-08-21,1,,,,,ユールアド,0
242,2011001163948,新規,0,2024-08-21,2024-08-21,株式会社ワールドコーヒー,,株式会社,東京都,目黒区,青葉台２丁目２０－７－１Ｆ,,13,110,1530042,,,,,,,2024-08-21,1,,,,,ワールドコーヒー,0
243,2011001164070,新規,0,2024-08-21,2024-08-21,株式会社Ｓｐａｃｅ　Ｄｏｇ,,株式会社,東京都,渋谷区,道玄坂１丁目１０番８号渋谷道玄坂東急ビル２Ｆ－Ｃ,,13,113,1500043,,,,,,,2024-08-21,1,,,,,スペースドッグ,0
244,2011001164161,新規,0,2024-08-21,2024-08-21,株式会社８８,,株式会社,東京都,渋谷区,円山町５番４号道玄坂ビル５階,,13,113,1500044,,,,,,,2024-08-21,1,,,,,ハチハチ,0
246,2011003019818,新規,0,2024-08-21,2024-08-21,合同会社Ｈ＆Ｍ,,合同会社,東京都,渋谷区,大山町４６番１２号ＴＨＥＯＮＥＴＨＩＲＤ大山町４０１号室,,13,113,1510065,,,,,,,2024-08-21,1,,,,,エイチアンドエム,0
250,2011101108497,新規,0,2024-08-21,2024-08-21,株式会社Ｙ’ｓ　ｔｒｕｓｔ,,株式会社,東京都,新宿区,西新宿５丁目５番１号ザ・パークハウス西新宿タワー６０、４１２号室,,13,104,1600023,,,,,,,2024-08-21,1,,,,,ワイズトラスト,0
259,2011401026366,新規,0,2024-08-21,2024-08-21,徳丸ホールディングス株式会社,,株式会社,東京都,板橋区,徳丸３丁目３０番１号,,13,119,1750083,,,,,,,2024-08-21,1,,,,,トクマルホールディングス,0
263,2011801044728,新規,0,2024-08-21,2024-08-21,株式会社ＭＵメディカル,,株式会社,東京都,葛飾区,東新小岩５丁目１番５号,,13,122,1240023,,,,,,,2024-08-21,1,,,,,エムユーメディカル,0
265,2011803006404,新規,0,2024-08-21,2024-08-21,合同会社ＣＭＡ,,合同会社,東京都,葛飾区,西亀有３丁目４３番１１号,,13,122,1250002,,,,,,,2024-08-21,1,,,,,シーマ,0
266,2011803006412,新規,0,2024-08-21,2024-08-21,ハイフォンマート合同会社,,合同会社,東京都,葛飾区,亀有５丁目５４番７号,,13,122,1250061,,,,,,,2024-08-21,1,,,,,ハイフォンマート,0
268,2012305002098,新規,0,2024-08-21,2024-08-21,一般社団法人Ｇｒｉａｓ　ｃｌｉｎｉｃ,,その他の設立登記法人,東京都,町田市,南成瀬１丁目１６番地６,,13,209,1940045,,,,,,,2024-08-21,1,,,,,ジリアスクリニック,0
273,2013303007262,新規,0,2024-08-21,2024-08-21,林＿貿易合同会社,00136021,合同会社,東京都,豊島区,南池袋１丁目９番１８号ＧＯＧＯオフィス池袋２１９号室,,13,116,1710022,,,,,,,2024-08-21,1,,,,,リンシンボウエキ,0
276,2020001158494,新規,0,2024-08-21,2024-08-21,株式会社モリジェネ,,株式会社,神奈川県,横浜市神奈川区,金港町５－１４クアドリフォリオ８階,,14,102,2210056,,,,,,,2024-08-21,1,,,,,モリジェネ,0
277,2020003026617,新規,0,2024-08-21,2024-08-21,合同会社Ａｓｅｅｄ,,合同会社,神奈川県,川崎市高津区,二子３丁目３３番２８－２０７号グランデージュ栄,,14,134,2130002,,,,,,,2024-08-21,1,,,,,アシード,0
278,2020003026658,新規,0,2024-08-21,2024-08-21,合同会社ＭＧＭＡＸ,,合同会社,神奈川県,横浜市西区,みなとみらい５丁目３－２－２２１１,,14,103,2200012,,,,,,,2024-08-21,1,,,,,エムジーマックス,0
279,2020003026666,新規,0,2024-08-21,2024-08-21,ＷＩＬＤＣＨＩＬＤ合同会社,,合同会社,神奈川県,川崎市高津区,末長１丁目４番２６号,,14,134,2130013,,,,,,,2024-08-21,1,,,,,ワイルドチャイルド,0
282,2021001083071,新規,0,2024-08-21,2024-08-21,株式会社ＳＨＷ,,株式会社,神奈川県,横須賀市,久里浜８丁目２０番２号,,14,201,2390831,,,,,,,2024-08-21,1,,,,,エスエイチダブリュー,0
284,2021003014925,新規,0,2024-08-21,2024-08-21,ＮＨＵ　Ｙ合同会社,,合同会社,神奈川県,相模原市緑区,橋本１丁目４番２２ティファナ橋本１０３,,14,151,2520143,,,,,,,2024-08-21,1,,,,,ヌイー,0
289,2030001162017,新規,0,2024-08-21,2024-08-21,株式会社ルインホーム,,株式会社,埼玉県,草加市,氷川町４５８番地３,,11,221,3400034,,,,,,,2024-08-21,1,,,,,ルインホーム,0
290,2030001162066,新規,0,2024-08-21,2024-08-21,株式会社ＡＨＵＲＥＲＵ,,株式会社,埼玉県,戸田市,笹目５丁目３２番地の８,,11,224,3350034,,,,,,,2024-08-21,1,,,,,アフレル,0
296,2030003024974,新規,0,2024-08-21,2024-08-21,合同会社Ａｌｌｅｇｒｏ,,合同会社,埼玉県,さいたま市北区,吉野町１丁目３４５－９,,11,102,3310811,,,,,,,2024-08-21,1,,,,,アレグロ,0
297,2030005021813,新規,0,2024-08-21,2024-08-21,特定非営利活動法人一歩前に進む広場ねこの手,,その他の設立登記法人,埼玉県,川口市,戸塚南５丁目１１番２６号,,11,203,3330817,,,,,,,2024-08-21,1,,,,,イッポマエニススムヒロバネコノテ,0
308,2040001134584,新規,0,2024-08-21,2024-08-21,株式会社上総パラデイロ,,株式会社,千葉県,大網白里市,長国９６３番地１５,,12,239,2993215,,,,,,,2024-08-21,1,,,,,カズサパラディロ,0
314,2050005013478,新規,0,2024-08-21,2024-08-21,一般社団法人いきいきライフ協会古河雪華,,その他の設立登記法人,茨城県,古河市,中央町１丁目８番５号,,08,204,3060033,,,,,,,2024-08-21,1,,,,,イキイキライフキョウカイコガセッカ,0
323,2080401027392,新規,0,2024-08-21,2024-08-21,株式会社ＴＭＤ　ＪＡＰＡＮ,,株式会社,静岡県,浜松市中央区,篠原町２１３８８番地,,22,138,4310201,,,,,,,2024-08-21,1,,,,,ティーエムディージャパン,0
328,2100001037772,新規,0,2024-08-21,2024-08-21,株式会社ＶＩＳＩＯＮ,,株式会社,長野県,長野市,吉田５丁目１１番３６号,,20,201,3810043,,,,,,,2024-08-21,1,,,,,ビジョン,0
345,2120001267905,新規,0,2024-08-21,2024-08-21,株式会社ＳＯＵＣＲＥＡＴＥ,,株式会社,大阪府,大阪市中央区,南本町２丁目６番５号,,27,128,5410054,,,,,,,2024-08-21,1,,,,,ソウクリエイト,0
346,2120001267946,新規,0,2024-08-21,2024-08-21,株式会社ＭＹｓｈｉｂａ,,株式会社,大阪府,大阪市中央区,北久宝寺町４丁目４番３号４０２号,,27,128,5410057,,,,,,,2024-08-21,1,,,,,マイシバ,0
347,2120001267962,新規,0,2024-08-21,2024-08-21,株式会社ＴＡＤ建築設計,,株式会社,大阪府,大阪市中央区,内平野町２丁目１－２,,27,128,5400037,,,,,,,2024-08-21,1,,,,,ティーエーディーケンチクセッケイ,0
349,2120003027365,新規,0,2024-08-21,2024-08-21,合同会社ＥＡテクノロジー,,合同会社,大阪府,大阪市大正区,南恩加島２丁目９番４０－３０７号,,27,108,5510021,,,,,,,2024-08-21,1,,,,,イーエーテクノロジー,0
358,2122001038385,新規,0,2024-08-21,2024-08-21,晴川国際株式会社,,株式会社,大阪府,東大阪市,長田１丁目６番７号,,27,227,5770015,,,,,,,2024-08-21,1,,,,,ハルカワコクサイ,0
365,2140001135580,新規,0,2024-08-21,2024-08-21,株式会社Ｆｌｏｗ,,株式会社,兵庫県,神戸市東灘区,向洋町中６丁目９番地,,28,101,6580032,,,,,,,2024-08-21,1,,,,,フロー,0
367,2140003020987,新規,0,2024-08-21,2024-08-21,合同会社ＩＫＩＲＵ　ｓｕｐｐｏｒｔ,,合同会社,兵庫県,姫路市,五軒邸３丁目７５番地グレイス五軒邸１０１,,28,201,6700854,,,,,,,2024-08-21,1,,,,,イキルサポート,0
372,2150003003347,新規,0,2024-08-21,2024-08-21,ＺＡＮＥ　ＨＵＢ合同会社,,合同会社,奈良県,大和郡山市,矢田町５３０８－１,,29,203,6391058,,,,,,,2024-08-21,1,,,,,ザネハブ,0
375,2160005011330,新規,0,2024-08-21,2024-08-21,滋賀マスジド,,その他の設立登記法人,滋賀県,草津市,東矢倉３丁目４番４号,,25,206,5250054,,,,,,,2024-08-21,1,,,,,シガマスジド,0
377,2170001018279,新規,0,2024-08-21,2024-08-21,株式会社ドリームビズ,,株式会社,和歌山県,和歌山市,本町１丁目１７番地１,,30,201,6408033,,,,,,,2024-08-21,1,,,,,ドリームビズ,0
384,2180001162935,新規,0,2024-08-21,2024-08-21,株式会社ＲＹＵＡ,,株式会社,愛知県,名古屋市東区,筒井２丁目１１番４０号（プライム筒井４０２号）,,23,102,4610003,,,,,,,2024-08-21,1,,,,,リュウア,0
387,2180003027260,新規,0,2024-08-21,2024-08-21,ＭＩＡＮ合同会社,,合同会社,愛知県,名古屋市港区,高木町４丁目２５番地の１,,23,111,4550821,,,,,,,2024-08-21,1,,,,,ミヤン,0
390,2180301038983,新規,0,2024-08-21,2024-08-21,株式会社ｙｏｕ,,株式会社,愛知県,安城市,緑町１丁目８番地５緑コーポ２０１,,23,212,4460055,,,,,,,2024-08-21,1,,,,,ユウ,0
392,2180303006237,新規,0,2024-08-21,2024-08-21,合同会社イニティ,,合同会社,愛知県,碧南市,照光町５丁目１８番地２,,23,209,4470027,,,,,,,2024-08-21,1,,,,,イニティ,0
396,2210001019883,新規,0,2024-08-21,2024-08-21,株式会社小林商会,,株式会社,福井県,三方上中郡若狭町,能登野第３３号２番地の２,,18,501,9191314,,,,,,,2024-08-21,1,,,,,コバヤシショウカイ,0
401,2230001020492,新規,0,2024-08-21,2024-08-21,株式会社山崎ニット,,株式会社,富山県,小矢部市,西中６８１３番地,,16,209,9320805,,,,,,,2024-08-21,1,,,,,ヤマザザキニット,0
414,2290001106732,新規,0,2024-08-21,2024-08-21,株式会社ＥＸＧＬＤ,,株式会社,福岡県,福岡市中央区,春吉２丁目６番６号３Ｆ,,40,133,8100003,,,,,,,2024-08-21,1,,,,,エクスギルド,0
415,2290001106781,新規,0,2024-08-21,2024-08-21,株式会社３６９．ｃｏｍ,,株式会社,福岡県,福岡市東区,箱崎５丁目１１番６－８１３号,,40,131,8120053,,,,,,,2024-08-21,1,,,,,ミロクドットコム,0
416,2290001106798,新規,0,2024-08-21,2024-08-21,株式会社Ｔａｍｉｙｕ,,株式会社,福岡県,福岡市中央区,天神２丁目２番１２号Ｔ＆Ｊビルディング７Ｆ,,40,133,8100001,,,,,,,2024-08-21,1,,,,,タミユ,0
417,2290001106815,新規,0,2024-08-21,2024-08-21,株式会社Ａｌｐｈａ,,株式会社,福岡県,福岡市早良区,有田６丁目２４番２９－１０３号,,40,137,8140033,,,,,,,2024-08-21,1,,,,,アルファ,0
418,2290001106823,新規,0,2024-08-21,2024-08-21,株式会社カズマック,,株式会社,福岡県,筑後市,大字山ノ井９８３番地１,,40,211,8330031,,,,,,,2024-08-21,1,,,,,カズマック,0
419,2290001107004,新規,0,2024-08-21,2024-08-21,株式会社フェニマックス,,株式会社,福岡県,福岡市博多区,比恵町１番１８号東カン福岡第二ビル４０８号室,,40,132,8120014,,,,,,,2024-08-21,1,,,,,フェニマックス,0
420,2290001107029,新規,0,2024-08-21,2024-08-21,株式会社ペイントイット,,株式会社,福岡県,福岡市東区,塩浜１丁目１７－６０－３,,40,131,8110203,,,,,,,2024-08-21,1,,,,,ペイントイット,0
424,2290003015675,新規,0,2024-08-21,2024-08-21,シカジロ合同会社,,合同会社,福岡県,古賀市,舞の里２丁目２２番４号,,40,223,8113114,,,,,,,2024-08-21,1,,,,,シカジロ,0
425,2320001020673,新規,0,2024-08-21,2024-08-21,ゆのくに企画株式会社,,株式会社,大分県,宇佐市,大字岩崎１２１７番地の１,,44,211,8791132,,,,,,,2024-08-21,1,,,,,ユノクニキカク,0
428,2350001019151,新規,0,2024-08-21,2024-08-21,株式会社矢部水産,,株式会社,宮崎県,宮崎市,青島３丁目８番２号,,45,201,8892162,,,,,,,2024-08-21,1,,,,,ヤベスイサン,0
430,2360001034100,新規,0,2024-08-21,2024-08-21,ＦＵＺＯ株式会社,,株式会社,沖縄県,島尻郡南風原町,字与那覇４８番地３、飛騰ビル３０３,,47,350,9011103,,,,,,,2024-08-21,1,,,,,フーゾ,0
431,2360001034109,新規,0,2024-08-21,2024-08-21,株式会社Ｂｌｕｅ　Ｍｏｏｎ,,株式会社,沖縄県,宮古島市,平良字下里３９２番地１・１Ｆ,,47,214,9060013,,,,,,,2024-08-21,1,,,,,ブルームーン,0
434,2370001051672,新規,0,2024-08-21,2024-08-21,株式会社庄専ホールディングス,,株式会社,宮城県,仙台市宮城野区,日の出町２丁目５番３０号,,04,102,9830035,,,,,,,2024-08-21,1,,,,,ショウセンホールディングス,0
437,2430001092520,新規,0,2024-08-21,2024-08-21,株式会社札幌工業,,株式会社,北海道,札幌市北区,屯田六条３丁目２番１９号,,01,102,0020856,,,,,,,2024-08-21,1,,,,,サッポロコウギョウ,0
438,2430003016709,新規,0,2024-08-21,2024-08-21,合同会社ちいさなめ,,合同会社,北海道,千歳市,勇舞４丁目２番１９号,,01,224,0660078,,,,,,,2024-08-21,1,,,,,チイサナメ,0
440,2490003001928,新規,0,2024-08-21,2024-08-21,合同会社フライト,,合同会社,高知県,南国市,緑ケ丘１丁目８１２番地レ・モンベールＡ２０１,,39,204,7830086,,,,,,,2024-08-21,1,,,,,,0
450,2700150126803,新規,0,2024-08-21,2024-08-21,ｊｉｃｈｕａｎｇｇｏｎｇｙｉｎｇｌｉａｎｓｈｅｎｚｈｅｎｙｏｕｘｉａｎｇｏｎｇｓｉ,,外国会社等,,,,,,,,ｌｏｎｇｇａｎｇｑｕｂａｎｔｉａｎｊｉｅｄａｏｘｉａｎｇｊｉａｏｔａｎｇｓｈｅｑｕｙｕａｎｃｈｕａｎｇｋｏｎｇｊｉａｎ－ｘｕｅｘｉａｎｇｙｕａｎＡ１ｄｏｎｇｓｉｃｅｎｇ４１１,,,,,,2024-08-21,1,,,,,ジーチュワンゴンインリエンシェンジェンヨウシエンゴンスー,0
458,3010001247660,新規,0,2024-08-21,2024-08-21,ＳＰＣ外部管理者サービス株式会社,,株式会社,東京都,千代田区,九段南１丁目５番６号りそな九段ビル５階ＫＳフロア,,13,101,1020074,,,,,,,2024-08-21,1,,,,,エスピーシーガイブカンリシャサービス,0
459,3010001247685,新規,0,2024-08-21,2024-08-21,株式会社ＨＯＬＬＥＣＴ,,株式会社,東京都,中央区,銀座７丁目１３番６号サガミビル２階,,13,102,1040061,,,,,,,2024-08-21,1,,,,,ホレクト,0
461,3010003044619,新規,0,2024-08-21,2024-08-21,ＧＬ　ＪＲＥ　Ｅ　Ｔｏｗｎ合同会社,,合同会社,東京都,千代田区,永田町２丁目１７番５号,,13,101,1000014,,,,,,,2024-08-21,1,,,,,ジーエルジェーアールイーイータウン,0
462,3010005038692,新規,0,2024-08-21,2024-08-21,ギャラクシースター２一般社団法人,,その他の設立登記法人,東京都,千代田区,霞が関３丁目２番５号,,13,101,1000013,,,,,,,2024-08-21,1,,,,,ギャラクシースターツー,0
470,3010501052750,新規,0,2024-08-21,2024-08-21,株式会社ランアップ,,株式会社,東京都,台東区,浅草４丁目１０－４栄新ビル３Ｆ,,13,106,1110032,,,,,,,2024-08-21,1,,,,,ランアップ,0
471,3010501052783,新規,0,2024-08-21,2024-08-21,株式会社Ｅｎ,,株式会社,東京都,台東区,根岸５丁目１７番６号,,13,106,1100003,,,,,,,2024-08-21,1,,,,,エン,0
484,3010901055832,新規,0,2024-08-21,2024-08-21,超現実車株式会社,,株式会社,東京都,世田谷区,代田３丁目２－１２メゾン・ド・マドリエ１１５号室,,13,112,1550033,,,,,,,2024-08-21,1,,,,,チョウゲンジツシャ,0
485,3010903009299,新規,0,2024-08-21,2024-08-21,合同会社Ｌ,,合同会社,東京都,世田谷区,世田谷３丁目１１－８,,13,112,1540017,,,,,,,2024-08-21,1,,,,,エル,0
486,3010903009308,新規,0,2024-08-21,2024-08-21,ポラリスプロ合同会社,,合同会社,東京都,世田谷区,世田谷１丁目３７番４―１０９号,,13,112,1540017,,,,,,,2024-08-21,1,,,,,ポラリスプロ,0
490,3011001163443,新規,0,2024-08-21,2024-08-21,株式会社圧倒的当事者,,株式会社,東京都,渋谷区,松濤１丁目２８－６－６０４,,13,113,1500046,,,,,,,2024-08-21,1,,,,,アットウテキトウジシャ,0
491,3011001163947,新規,0,2024-08-21,2024-08-21,株式会社ｍｅｅｔ　ｙｏｕ,,株式会社,東京都,渋谷区,渋谷２丁目２２番７号新生ビル６階６０１,,13,113,1500002,,,,,,,2024-08-21,1,,,,,ミートユー,0
493,3011003019825,新規,0,2024-08-21,2024-08-21,合同会社Ａｒｃｉ,,合同会社,東京都,目黒区,自由が丘２丁目１６番１２号ＲＪ３,,13,110,1520035,,,,,,,2024-08-21,1,,,,,アーシ,0
494,3011003019841,新規,0,2024-08-21,2024-08-21,ｅｎ合同会社,,合同会社,東京都,渋谷区,恵比寿４丁目３番５号７０４号室アークアウトソーシング株式会社内,,13,113,1500013,,,,,,,2024-08-21,1,,,,,エン,0
498,3011101108505,新規,0,2024-08-21,2024-08-21,株式会社ＡＨＮＡＫＡ,,株式会社,東京都,新宿区,新宿２丁目４番１号,,13,104,1600022,,,,,,,2024-08-21,1,,,,,アンアカ,0
511,3013301053002,新規,0,2024-08-21,2024-08-21,株式会社Ｅ‐ｌｉｎＫ,,株式会社,東京都,豊島区,高田３丁目１０番２４号,,13,116,1710033,,,,,,,2024-08-21,1,,,,,イーリンク,0
522,3020001158254,新規,0,2024-08-21,2024-08-21,株式会社融創,,株式会社,神奈川県,横浜市西区,岡野１丁目３－１４－１０２,,14,103,2200073,,,,,,,2024-08-21,1,,,,,ユウソウ,0
523,3020003026665,新規,0,2024-08-21,2024-08-21,合同会社Ｒ・Ｒ,,合同会社,神奈川県,横浜市中区,上野町１丁目１７－７,,14,104,2310842,,,,,,,2024-08-21,1,,,,,アールアール,0
525,3021001082923,新規,0,2024-08-21,2024-08-21,株式会社グローバルエステート,,株式会社,神奈川県,藤沢市,湘南台１丁目１番地の１湘南台ダイヤモンドマンション４０５号室,,14,205,2520804,,,,,,,2024-08-21,1,,,,,グローバルエステート,0
526,3021001083046,新規,0,2024-08-21,2024-08-21,株式会社エスキープロパティ,,株式会社,神奈川県,海老名市,国分北１丁目１１番３号,,14,215,2430406,,,,,,,2024-08-21,1,,,,,エスキープロパティ,0
531,3021003014924,新規,0,2024-08-21,2024-08-21,合同会社Ｌｅｏ‐ｐｌｕｓ,,合同会社,神奈川県,小田原市,本町３丁目６番５号,,14,206,2500012,,,,,,,2024-08-21,1,,,,,,0
541,3030001162016,新規,0,2024-08-21,2024-08-21,株式会社智健工業,,株式会社,埼玉県,草加市,谷塚上町７０１番地１０,,11,221,3400024,,,,,,,2024-08-21,1,,,,,チケンコウギョウ,0
542,3030001162081,新規,0,2024-08-21,2024-08-21,ＳＣＹ株式会社,,株式会社,埼玉県,草加市,新里町９２７番地１５－１Ｆ,,11,221,3400031,,,,,,,2024-08-21,1,,,,,エスシーワイ,0
546,3030003024899,新規,0,2024-08-21,2024-08-21,合同会社ＮＡ,,合同会社,埼玉県,さいたま市大宮区,堀の内町３丁目４６９－７,,11,103,3300804,,,,,,,2024-08-21,1,,,,,エヌエー,0
565,3080001026455,新規,0,2024-08-21,2024-08-21,株式会社きらゆり,,株式会社,静岡県,静岡市清水区,由比今宿９９２番地の６,,22,103,4213111,,,,,,,2024-08-21,1,,,,,キラユリ,0
569,3080401027391,新規,0,2024-08-21,2024-08-21,ジングレイス株式会社,,株式会社,静岡県,浜松市中央区,上島５丁目２３番４８号,,22,138,4338122,,,,,,,2024-08-21,1,,,,,ジングレイス,0
572,3090001018872,新規,0,2024-08-21,2024-08-21,株式会社ＲＥＨＩＳＴＯ,,株式会社,山梨県,韮崎市,龍岡町下條南割１１０７番地５４,,19,207,4070033,,,,,,,2024-08-21,1,,,,,リヒスト,0
574,3090003002627,新規,0,2024-08-21,2024-08-21,合同会社ＳＵＳＨＩＴＥＴＳＵ,,合同会社,山梨県,甲府市,国母６丁目６番４号山梨県水産物商業協同組合建物２Ｆ・Ｂ号室,,19,201,4000043,,,,,,,2024-08-21,1,,,,,スシテツ,0
586,3120001267879,新規,0,2024-08-21,2024-08-21,四木易株式会社,,株式会社,大阪府,大阪市北区,本庄西２丁目８番１９号明豊ビル４０１号室,,27,127,5310073,,,,,,,2024-08-21,1,,,,,ヨンモクエキ,0
587,3120001267937,新規,0,2024-08-21,2024-08-21,天天株式会社,,株式会社,大阪府,大阪市港区,市岡元町２丁目６番１１－１０５号,,27,107,5520002,,,,,,,2024-08-21,1,,,,,テンテン,0
590,3120003027348,新規,0,2024-08-21,2024-08-21,ＩＣＨＩＭＩ合同会社,,合同会社,大阪府,大阪市北区,梅田１丁目１－３大阪駅前第３ビル２９階１－１－１号室,,27,127,5300001,,,,,,,2024-08-21,1,,,,,イチミ,0
595,3122001038384,新規,0,2024-08-21,2024-08-21,株式会社大塚組,,株式会社,大阪府,八尾市,志紀町１丁目１４１番地の１１,,27,212,5810031,,,,,,,2024-08-21,1,,,,,オオツカグミ,0
597,3130001077740,新規,0,2024-08-21,2024-08-21,Ｍａｋｉｎｇ株式会社,,株式会社,京都府,宇治市,神明宮東４番地の３,,26,204,6110025,,,,,,,2024-08-21,1,,,,,メイキング,0
598,3130001077765,新規,0,2024-08-21,2024-08-21,株式会社びりーぽ,,株式会社,京都府,京都市東山区,本町１０丁目１９７－３,,26,105,6050981,,,,,,,2024-08-21,1,,,,,ビリーポ,0
602,3170001018278,新規,0,2024-08-21,2024-08-21,株式会社ＰＬｉｍｅ,,株式会社,和歌山県,岩出市,西安上７９番地の１,,30,209,6496255,,,,,,,2024-08-21,1,,,,,プライム,0
606,3180001162934,新規,0,2024-08-21,2024-08-21,株式会社ライフステップ,,株式会社,愛知県,名古屋市中区,丸の内２丁目９番２４号Ｆａｃｅ日銀前６０２号,,23,106,4600002,,,,,,,2024-08-21,1,,,,,ライフステップ,0
607,3180001162942,新規,0,2024-08-21,2024-08-21,ＡＮＳＡＨ　ＫＩＮＧ　ＯＦ　ＫＩＮＧＳ株式会社,,株式会社,愛知県,名古屋市中川区,山王１丁目５番２２号ビラ荒川２０２号,,23,110,4540011,,,,,,,2024-08-21,1,,,,,アンサキングオブキングス,0
608,3180301038982,新規,0,2024-08-21,2024-08-21,株式会社ぬり家,,株式会社,愛知県,豊田市,市木町１０丁目３番地７,,23,211,4710006,,,,,,,2024-08-21,1,,,,,ヌリエ,0
610,3180303006236,新規,0,2024-08-21,2024-08-21,合同会社アルティアン,,合同会社,愛知県,碧南市,石橋町３丁目１２７番地,,23,209,4470858,,,,,,,2024-08-21,1,,,,,アルティアン,0
615,3210001019874,新規,0,2024-08-21,2024-08-21,マーベリック株式会社,,株式会社,福井県,福井市,運動公園１丁目３６０６番地,,18,201,9188046,,,,,,,2024-08-21,1,,,,,マーベリック,0
629,3290001106814,新規,0,2024-08-21,2024-08-21,株式会社ＳＫＰ,,株式会社,福岡県,福岡市博多区,古門戸町８番７－１３０２号,,40,132,8120029,,,,,,,2024-08-21,1,,,,,エスケーピー,0
630,3290001106830,新規,0,2024-08-21,2024-08-21,株式会社Ｂｅ　Ｐｒｉｄｅ,,株式会社,福岡県,福岡市中央区,天神１丁目１０番２０号天神ビジネスセンター１５階,,40,133,8100001,,,,,,,2024-08-21,1,,,,,ビープライド,0
632,3290003015682,新規,0,2024-08-21,2024-08-21,Ｓｍｉｌｅ．Ｎｉｋｏ‐Ｎｉｃｏ合同会社,,合同会社,福岡県,福岡市東区,箱崎５丁目１０番１４－４０７号サンシティ箱崎九大前,,40,131,8120053,,,,,,,2024-08-21,1,,,,,スマイルドットニコハイフンニコ,0
640,3340001026750,新規,0,2024-08-21,2024-08-21,株式会社カクイックスクローバー,,株式会社,鹿児島県,鹿児島市,谷山港２丁目１番２,,46,201,8910131,,,,,,,2024-08-21,1,,,,,カクイックスクローバー,0
643,3360001034099,新規,0,2024-08-21,2024-08-21,株式会社Ｈｏｍｅ　ｆｒｏｍ　ｈｏｍｅ　Ｔｒａｖｅｌ,,株式会社,沖縄県,石垣市,字新川３８１－２,,47,207,9070024,,,,,,,2024-08-21,1,,,,,ホームフロムホームトラベル,0
644,3370003006723,新規,0,2024-08-21,2024-08-21,合同会社クリエイト,,合同会社,宮城県,仙台市青葉区,錦ケ丘１丁目３７番地の８,,04,101,9893123,,,,,,,2024-08-21,1,,,,,クリエイト,0
647,3430001092528,新規,0,2024-08-21,2024-08-21,Ｔｉ‐Ｔｒａｃｋ株式会社,,株式会社,北海道,札幌市中央区,宮の森二条９丁目３番８号,,01,101,0640952,,,,,,,2024-08-21,1,,,,,ティーアイトラック,0
648,3430003016708,新規,0,2024-08-21,2024-08-21,ＡＲ合同会社,,合同会社,北海道,札幌市西区,発寒十四条２丁目１番１５－３０１号,,01,107,0630834,,,,,,,2024-08-21,1,,,,,エーアール,0
653,3500001025835,新規,0,2024-08-21,2024-08-21,株式会社ＲｉｖｅｒＶｉｌｌａｇｅ,,株式会社,愛媛県,東温市,田窪３４３番地８,,38,215,7910212,,,,,,,2024-08-21,1,,,,,リバービレッジ,0
656,3700150126802,新規,0,2024-08-21,2024-08-21,ｐｉｎｇｘｉａｎｇｆｅｎｄｉｍａｏｙｉｙｏｕｘｉａｎｇｏｎｇｓｉ,,外国会社等,,,,,,,,ｓｈａｎｇｌｉｘｉａｎｓｈａｎｇｌｉｚｈｅｎｘｉｎｇｓｈｅｎｇｄａｄａｏ　ｐｉｎｇｘｉａｎｇｓｈｉ　ｊｉａｎｇｘｉｓｈｅｎｇ　３３７０００　ＣＮ,,,,,,2024-08-21,1,,,,,ピンシャンフェンディーマオイーヨウシエンゴンスー,0
668,4010001247668,新規,0,2024-08-21,2024-08-21,株式会社若菜プランニング,,株式会社,東京都,中央区,勝どき１丁目７番３号勝どきサンスクエア５階,,13,102,1040054,,,,,,,2024-08-21,1,,,,,ワカナプランニング,0
672,4010003044618,新規,0,2024-08-21,2024-08-21,ＧＬ　ＪＲＥ　Ｅ　Ｐｉｎｅ合同会社,,合同会社,東京都,千代田区,永田町２丁目１７番５号,,13,101,1000014,,,,,,,2024-08-21,1,,,,,ジーエルジェーアールイーイーパイン,0
679,4010005038667,新規,0,2024-08-21,2024-08-21,一般社団法人中小企業のみかた,,その他の設立登記法人,東京都,千代田区,丸の内１丁目８－３丸の内トラストタワー本館２０階,,13,101,1000005,,,,,,,2024-08-21,1,,,,,チュウショウキギョウノミカタ,0
687,4010501052790,新規,0,2024-08-21,2024-08-21,株式会社天沢,,株式会社,東京都,台東区,上野５丁目１６番１７号千代田ビル２－４０２,,13,106,1100005,,,,,,,2024-08-21,1,,,,,テンタク,0
688,4010601065775,新規,0,2024-08-21,2024-08-21,ＳＰＥＣＩＡＬ　ＧＩＦＴ株式会社,,株式会社,東京都,墨田区,向島２丁目２２番６－３０４号,,13,107,1310033,,,,,,,2024-08-21,1,,,,,スペシャルギフト,0
689,4010701046428,新規,0,2024-08-21,2024-08-21,株式会社ＬＤＭＣ,,株式会社,東京都,品川区,南大井２丁目１２番５－６０３号,,13,109,1400013,,,,,,,2024-08-21,1,,,,,エルディエムシー,0
690,4010801035339,新規,0,2024-08-21,2024-08-21,ＭｂＵ株式会社,,株式会社,東京都,大田区,蒲田４丁目１９－５－１００８,,13,111,1440052,,,,,,,2024-08-21,1,,,,,エムビーユー,0
691,4010803005067,新規,0,2024-08-21,2024-08-21,センイン合同会社,,合同会社,東京都,大田区,蒲田１丁目３０番１２号エクセルピア蒲田６番館２０４,,13,111,1440052,,,,,,,2024-08-21,1,,,,,センイン,0
692,4010805003127,新規,0,2024-08-21,2024-08-21,グリーンキャピタル上池台管理組合法人,,その他の設立登記法人,東京都,大田区,上池台５丁目１５番１号,,13,111,1450064,,,,,,,2024-08-21,1,,,,,グリーンキャピタルカミイケダイ,0
696,4010901055823,新規,0,2024-08-21,2024-08-21,ＨａｋｕＡ札幌株式会社,,株式会社,東京都,世田谷区,岡本１丁目２３番１６号,,13,112,1570076,,,,,,,2024-08-21,1,,,,,ハクアサッポロ,0
705,4011001163806,新規,0,2024-08-21,2024-08-21,Ｈｕｇｅｎ株式会社,,株式会社,東京都,渋谷区,松濤１丁目２８－６－７０４,,13,113,1500046,,,,,,,2024-08-21,1,,,,,ヒューゲン,0
706,4011001164135,新規,0,2024-08-21,2024-08-21,ケイベル株式会社,,株式会社,東京都,渋谷区,渋谷２丁目１９－１５宮益坂ビルディング６０９,,13,113,1500002,,,,,,,2024-08-21,1,,,,,ケイベル,0
707,4011003019758,新規,0,2024-08-21,2024-08-21,合同会社キムさんのソース,,合同会社,東京都,目黒区,中目黒３丁目６番２号中目黒Ｆ・Ｓビル５階,,13,110,1530061,,,,,,,2024-08-21,1,,,,,キムサンノソース,0
708,4011005010632,新規,0,2024-08-21,2024-08-21,一般社団法人モンゴル経済自由貿易地域振興会,,その他の設立登記法人,東京都,渋谷区,代々木１丁目４７番９号ザ・パークレックス代々木１階,,13,113,1510053,,,,,,,2024-08-21,1,,,,,モンゴルケイザイジユウボウエキチイキシンコウカイ,0
715,4011501031066,新規,0,2024-08-21,2024-08-21,Ｈａｋｕｎａｇｅｎｔ株式会社,,株式会社,東京都,荒川区,町屋３丁目１－１３,,13,118,1160001,,,,,,,2024-08-21,1,,,,,ハクナエージェント,0
716,4011801044718,新規,0,2024-08-21,2024-08-21,株式会社伊東ストラテジー＆インテリジェンス総合研究所,,株式会社,東京都,葛飾区,立石７丁目４番１３－７０４号メゾン伊東,,13,122,1240012,,,,,,,2024-08-21,1,,,,,イトウストラテジーアンドインテリジェンスソウゴウケンキュウジョ,0
717,4011801044726,新規,0,2024-08-21,2024-08-21,株式会社Ｈａｃｋ,,株式会社,東京都,足立区,鹿浜５丁目１７番１５号,,13,121,1230864,,,,,,,2024-08-21,1,,,,,ハック,0
724,4012401042211,新規,0,2024-08-21,2024-08-21,株式会社ステファニー,,株式会社,東京都,府中市,宮西町５丁目１３番地の２,,13,206,1830022,,,,,,,2024-08-21,1,,,,,ステファニー,0
727,4013303007260,新規,0,2024-08-21,2024-08-21,合同会社ＳＥＯ＆ＪＩＮ,,合同会社,東京都,豊島区,北大塚２丁目１３番２号高原ビル４階,,13,116,1700004,,,,,,,2024-08-21,1,,,,,ソアンドジン,0
731,4020001158526,新規,0,2024-08-21,2024-08-21,ＣＲＡＦＴＳ　ＯＮＥ株式会社,,株式会社,神奈川県,川崎市宮前区,宮崎４丁目１－１２１,,14,136,2160033,,,,,,,2024-08-21,1,,,,,クラフツワン,0
732,4020001158542,新規,0,2024-08-21,2024-08-21,ＡＩＨ株式会社,,株式会社,神奈川県,横浜市保土ケ谷区,川辺町２番地１パークホームズ横濱星川８０４号,,14,106,2400001,,,,,,,2024-08-21,1,,,,,エイアイエイチ,0
733,4020001158625,新規,0,2024-08-21,2024-08-21,ＷＩＴＨＤＯＭ　Ｋａｎａｇａｗａ株式会社,,株式会社,神奈川県,横浜市都筑区,折本町１３８番地,,14,118,2240043,,,,,,,2024-08-21,1,,,,,ウィズダムカナガワ,0
740,4021001082872,新規,0,2024-08-21,2024-08-21,株式会社ダブル,,株式会社,神奈川県,藤沢市,葛原１５１９番地の７,,14,205,2520822,,,,,,,2024-08-21,1,,,,,ダブル,0
741,4021001083004,新規,0,2024-08-21,2024-08-21,株式会社旭ホールディングス,,株式会社,神奈川県,相模原市緑区,下九沢２０９６番地１,,14,151,2520134,,,,,,,2024-08-21,1,,,,,アサヒホールディングス,0
743,4021003014898,新規,0,2024-08-21,2024-08-21,アセンディング合同会社,,合同会社,神奈川県,藤沢市,辻堂新町３丁目１０番２６～１０６号,,14,205,2510042,,,,,,,2024-08-21,1,,,,,アセンディング,0
750,4030001162064,新規,0,2024-08-21,2024-08-21,正道株式会社,,株式会社,埼玉県,戸田市,喜沢２丁目２６番地の３,,11,224,3350013,,,,,,,2024-08-21,1,,,,,ショウドウ,0
751,4030001162080,新規,0,2024-08-21,2024-08-21,Ｎメイクアップ株式会社,,株式会社,埼玉県,さいたま市浦和区,瀬ヶ崎３丁目６番２号,,11,107,3300044,,,,,,,2024-08-21,1,,,,,エヌメイクアップ,0
758,4030003024964,新規,0,2024-08-21,2024-08-21,合同会社ＬＯＧＩ’Ｃ,,合同会社,埼玉県,川口市,大字赤山１０８１番地の１カーサ川口１０１号,,11,203,3330825,,,,,,,2024-08-21,1,,,,,ロジック,0
759,4030003024972,新規,0,2024-08-21,2024-08-21,チェリーチャン合同会社,,合同会社,埼玉県,川越市,大字的場２１７３－３２ハーバルハウス２０２号室,,11,201,3501101,,,,,,,2024-08-21,1,,,,,チェリーチャン,0
769,4040001134954,新規,0,2024-08-21,2024-08-21,エヌビック株式会社,,株式会社,千葉県,香取市,一ノ分目３６２９番地,,12,236,2890301,,,,,,,2024-08-21,1,,,,,エヌビック,0
773,4060003005219,新規,0,2024-08-21,2024-08-21,合同会社楓フィギュア,,合同会社,栃木県,大田原市,桧木沢２２９番地３,,09,210,3240245,,,,,,,2024-08-21,1,,,,,カエデフィギュア,0
785,4100001037787,新規,0,2024-08-21,2024-08-21,長野電波株式会社,,株式会社,長野県,長野市,篠ノ井岡田１６９１番地,,20,201,3812225,,,,,,,2024-08-21,1,,,,,ナガノデンパ,0
788,4100003007730,新規,0,2024-08-21,2024-08-21,合同会社ＳＴｕｄｉｏＭＡ,,合同会社,長野県,安曇野市,豊科南穂高５１５９番地,,20,220,3998201,,,,,,,2024-08-21,1,,,,,スタジオマ,0
800,4120001267928,新規,0,2024-08-21,2024-08-21,株式会社花舞紀,,株式会社,大阪府,大阪市東成区,中本５丁目２２番１１号３０５号,,27,115,5370022,,,,,,,2024-08-21,1,,,,,カブキ,0
801,4120001267944,新規,0,2024-08-21,2024-08-21,ストーリーテラー３Ｓ株式会社,,株式会社,大阪府,大阪市旭区,新森５丁目１５番６号,,27,117,5350022,,,,,,,2024-08-21,1,,,,,ストーリーテラースリーエス,0
802,4120001267960,新規,0,2024-08-21,2024-08-21,株式会社大河,,株式会社,大阪府,大阪市旭区,高殿３丁目１５番２１号,,27,117,5350031,,,,,,,2024-08-21,1,,,,,タイガ,0
805,4120003027347,新規,0,2024-08-21,2024-08-21,Ｈａｍａｄａ　Ｉｎｔｅｒｎａｔｉｏｎａｌ合同会社,,合同会社,大阪府,大阪市中央区,森ノ宮中央１丁目１番３９号,,27,128,5400003,,,,,,,2024-08-21,1,,,,,ハマダインターナショナル,0
807,4120005024508,新規,0,2024-08-21,2024-08-21,一般社団法人ピアサポート,,その他の設立登記法人,大阪府,大阪市中央区,南船場４丁目９番１２号朝日プラザ心斎橋北１０８号室,,27,128,5420081,,,,,,,2024-08-21,1,,,,,ピアサポート,0
809,4120101070059,新規,0,2024-08-21,2024-08-21,株式会社ウェルＢＩＺ,,株式会社,大阪府,堺市西区,草部１４０８番地１,,27,144,5938312,,,,,,,2024-08-21,1,,,,,ウェルビズ,0
813,4130001077748,新規,0,2024-08-21,2024-08-21,ｎｏｔ　ｆｏｕｎｄ株式会社,,株式会社,京都府,京都市下京区,堺町２１ジムキノウエダビル４０４,,26,106,6008162,,,,,,,2024-08-21,1,,,,,ノットファウンド,0
814,4130001077764,新規,0,2024-08-21,2024-08-21,株式会社ＧＬＡＭＲＡＩＮ,,株式会社,京都府,長岡京市,馬場１丁目３番９号,,26,209,6170828,,,,,,,2024-08-21,1,,,,,グラムレイン,0
818,4130003009781,新規,0,2024-08-21,2024-08-21,合同会社紲,,合同会社,京都府,京田辺市,山手南２丁目１０番地４,,26,211,6100354,,,,,,,2024-08-21,1,,,,,キズナ,0
819,4130003009807,新規,0,2024-08-21,2024-08-21,合同会社シロボシ,,合同会社,京都府,八幡市,橋本塩釜５－１０,,26,210,6148346,,,,,,,2024-08-21,1,,,,,シロボシ,0
821,4140003020993,新規,0,2024-08-21,2024-08-21,曙楠合同会社,,合同会社,兵庫県,神戸市東灘区,向洋町中７丁目２番地の３、２番館７０９号,,28,101,6580032,,,,,,,2024-08-21,1,,,,,ショナン,0
823,4170001018277,新規,0,2024-08-21,2024-08-21,株式会社エイザイ建設,,株式会社,和歌山県,和歌山市,明王寺１２６番地３,,30,201,6400305,,,,,,,2024-08-21,1,,,,,エイザイケンセツ,0
838,4180301038981,新規,0,2024-08-21,2024-08-21,株式会社家友設備,,株式会社,愛知県,知立市,東上重原１丁目２０,,23,225,4720054,,,,,,,2024-08-21,1,,,,,イエトモセツビ,0
840,4180303006235,新規,0,2024-08-21,2024-08-21,合同会社ホットティー,,合同会社,愛知県,岡崎市,明大寺本町４丁目１５番地,,23,202,4440860,,,,,,,2024-08-21,1,,,,,ホットティー,0
843,4200003006466,新規,0,2024-08-21,2024-08-21,ハッピーファーム合同会社,,合同会社,岐阜県,瑞浪市,稲津町萩原１８７８番２の１,,21,208,5096102,,,,,,,2024-08-21,1,,,,,ハッピーファーム,0
847,4220003003825,新規,0,2024-08-21,2024-08-21,ＦＡＮＴＡＩＬ合同会社,,合同会社,石川県,白山市,茶屋１丁目１３番地,,17,210,9240867,,,,,,,2024-08-21,1,,,,,ファンテイル,0
856,4270005005609,新規,0,2024-08-21,2024-08-21,一般社団法人いきいきライフ協会鳥取,,その他の設立登記法人,鳥取県,鳥取市,片原３丁目２１１番地,,31,201,6800023,,,,,,,2024-08-21,1,,,,,イキイキライフキョウカイトットリ,0
860,4290001106821,新規,0,2024-08-21,2024-08-21,株式会社Ｓｔｙｌｅ　Ｉｎｎｏｖａｔｉｏｎ,,株式会社,福岡県,福岡市博多区,博多駅前２丁目１番１号福岡朝日ビル１階,,40,132,8120011,,,,,,,2024-08-21,1,,,,,スタイルイノベーション,0
861,4290001106854,新規,0,2024-08-21,2024-08-21,株式会社ＧＯ　ＦＩＥＬＤ,,株式会社,福岡県,久留米市,宮ノ陣４丁目２９番１１号,,40,203,8390801,,,,,,,2024-08-21,1,,,,,ゴーフィールド,0
862,4290001106862,新規,0,2024-08-21,2024-08-21,株式会社ラクブラン,,株式会社,福岡県,福岡市博多区,那珂６丁目１４番２８号,,40,132,8120893,,,,,,,2024-08-21,1,,,,,ラクブラン,0
869,4290003015640,新規,0,2024-08-21,2024-08-21,Ｅｓｓｅｎｃｉａ．合同会社,,合同会社,福岡県,福岡市早良区,南庄１丁目１５番１０号,,40,137,8140031,,,,,,,2024-08-21,1,,,,,エッセンシア,0
870,4290003015665,新規,0,2024-08-21,2024-08-21,合同会社ジャスト,,合同会社,福岡県,筑紫野市,筑紫駅前通１丁目１４２番地１ヴィルヴェール筑紫２０１号,,40,217,8180022,,,,,,,2024-08-21,1,,,,,ジャスト,0
871,4290003015681,新規,0,2024-08-21,2024-08-21,合同会社ＳＫコンサルティング,,合同会社,福岡県,福岡市早良区,次郎丸３丁目２２番５号ロワールマンション原南２０４号,,40,137,8140165,,,,,,,2024-08-21,1,,,,,エスケーコンサルティング,0
884,4360003014247,新規,0,2024-08-21,2024-08-21,合同会社マーサーズ,,合同会社,沖縄県,宮古島市,平良字下里５５３番地,,47,214,9060013,,,,,,,2024-08-21,1,,,,,マーサーズ,0
887,4390003002273,新規,0,2024-08-21,2024-08-21,ウッドビレッジ合同会社,,合同会社,山形県,東根市,大字猪野沢３２７番地４,,06,211,9993726,,,,,,,2024-08-21,1,,,,,ウッドビレッジ,0
889,4400005008440,新規,0,2024-08-21,2024-08-21,医療法人社団大日向医院,,その他の設立登記法人,岩手県,盛岡市,高松２丁目９番９号,,03,201,0200114,,,,,,,2024-08-21,1,,,,,オオヒナタイイン,0
893,4430001092519,新規,0,2024-08-21,2024-08-21,株式会社ｆｕｔｕｒｅｉｎｎｏｖａｔｉｏｎ,,株式会社,北海道,札幌市中央区,南九条西１丁目１－１－６０６,,01,101,0640809,,,,,,,2024-08-21,1,,,,,フューチャーイノベーション,0
894,4430001092527,新規,0,2024-08-21,2024-08-21,株式会社新雪国際,,株式会社,北海道,恵庭市,島松寿町１丁目１７番地８奥山ハイツ,,01,231,0611355,,,,,,,2024-08-21,1,,,,,シンセツコクサイ,0
896,4500005008728,新規,0,2024-08-21,2024-08-21,きのえ協同組合,,その他の設立登記法人,愛媛県,南宇和郡愛南町,中浦５７７番地２,,38,506,7984125,,,,,,,2024-08-21,1,,,,,キノエ,0
898,4700150126801,新規,0,2024-08-21,2024-08-21,ＣＨＡＮＧＺＨＯＵ　ＦＡＮＴＥ　ＤＩＡＮＺＩ　ＳＨＡＮＧＷＵ　ＹＯＵＸＩＡＮ　ＧＯＮＧＳＩ,,外国会社等,,,,,,,,ＨＵＡＮＧＨＥ　ＤＯＮＧＬＵ　８９ＨＡＯ　ＨＥＨＡＩ　ＳＨＡＮＧＷＵ　ＤＡＳＨＡ　７ＬＯＵ，　ＸＩＮＢＥＩ　ＱＵ　ＣＨＡＮＧＺＨＯＵＪＩＡＮＧＳＵ２１３００１　ＣＮ,,,,,,2024-08-21,1,,,,,チャンジョウファンターディエンズーシャンウーヨウシエンゴンスー,0
907,5010001247667,新規,0,2024-08-21,2024-08-21,村上胎内洋上風力インベストメント株式会社,,株式会社,東京都,千代田区,大手町１丁目２番１号,,13,101,1000004,,,,,,,2024-08-21,1,,,,,ムラカミタイナイヨウジョウフウリョクインベストメント,0
908,5010003044410,新規,0,2024-08-21,2024-08-21,Ｄａｓｅｉｎ合同会社,,合同会社,東京都,千代田区,神田和泉町１番地６－１６ヤマトビル４０５,,13,101,1010024,,,,,,,2024-08-21,1,,,,,ダーザイン,0
922,5010601065799,新規,0,2024-08-21,2024-08-21,栄豊商事株式会社,,株式会社,東京都,江東区,有明１丁目６番３０－３００６号,,13,108,1350063,,,,,,,2024-08-21,1,,,,,エイホウショウジ,0
923,5010805003126,新規,0,2024-08-21,2024-08-21,一般社団法人上池台研究所,,その他の設立登記法人,東京都,大田区,上池台１丁目２７番１１号,,13,111,1450064,,,,,,,2024-08-21,1,,,,,カミイケダイケンキュウジョ,0
925,5010903009306,新規,0,2024-08-21,2024-08-21,合同会社マフロジ,,合同会社,東京都,世田谷区,若林４丁目１１番５－２０９号,,13,112,1540023,,,,,,,2024-08-21,1,,,,,マフロジ,0
930,5011003019781,新規,0,2024-08-21,2024-08-21,合同会社ＫＡＬＵＰＡＳ,,合同会社,東京都,渋谷区,渋谷２丁目１９－１５宮益坂ビルディング６０９,,13,113,1500002,,,,,,,2024-08-21,1,,,,,カルパス,0
939,5011801044725,新規,0,2024-08-21,2024-08-21,株式会社シンセイサービス,,株式会社,東京都,足立区,綾瀬３丁目１９番１６号松代ビル２０２,,13,121,1200005,,,,,,,2024-08-21,1,,,,,シンセイサービス,0
940,5013301053000,新規,0,2024-08-21,2024-08-21,振遠テック株式会社,,株式会社,東京都,豊島区,池袋２丁目１６－１４ＫＤビル３０１,,13,116,1710014,,,,,,,2024-08-21,1,,,,,シンエンテック,0
954,5020001158616,新規,0,2024-08-21,2024-08-21,ｍｉｒｕ株式会社,,株式会社,神奈川県,川崎市中原区,上丸子山王町２丁目１３３２番地グランデュール山王１０２,,14,133,2110002,,,,,,,2024-08-21,1,,,,,ミル,0
959,5020003026663,新規,0,2024-08-21,2024-08-21,合同会社燦秀商会,,合同会社,神奈川県,横浜市都筑区,北山田１丁目１－３８,,14,118,2240021,,,,,,,2024-08-21,1,,,,,サンシュウショウカイ,0
963,5021001083069,新規,0,2024-08-21,2024-08-21,株式会社美翔ホーム,,株式会社,神奈川県,座間市,相模が丘１丁目３番１３－２号,,14,216,2520001,,,,,,,2024-08-21,1,,,,,,0
967,5021003014930,新規,0,2024-08-21,2024-08-21,ＡＰＯすまいる合同会社,,合同会社,神奈川県,鎌倉市,植木２３１番地１３,,14,204,2470073,,,,,,,2024-08-21,1,,,,,エイピーオースマイル,0
972,5030001161841,新規,0,2024-08-21,2024-08-21,株式会社倉,,株式会社,埼玉県,越谷市,谷中町１丁目９３番地１６,,11,222,3430856,,,,,,,2024-08-21,1,,,,,クラ,0
992,5040001134961,新規,0,2024-08-21,2024-08-21,株式会社ＱＵＡＣＲＥＳＴ,,株式会社,千葉県,東金市,日吉台６丁目２番地１,,12,213,2830803,,,,,,,2024-08-21,1,,,,,キュアクレスト,0
993,5040001135027,新規,0,2024-08-21,2024-08-21,マイスター建設株式会社,,株式会社,千葉県,印旛郡酒々井町,東酒々井４丁目４番２７１,,12,322,2850923,,,,,,,2024-08-21,1,,,,,マイスターケンセツ,0
995,5040003025639,新規,0,2024-08-21,2024-08-21,合同会社花星,,合同会社,千葉県,松戸市,河原塚４００番地の２８,,12,207,2702254,,,,,,,2024-08-21,1,,,,,カセイ,0
1016,5120001267778,新規,0,2024-08-21,2024-08-21,株式会社ＬＩＮＫ,,株式会社,大阪府,大阪市北区,梅田１丁目３番１号大阪駅前第１ビル６階,,27,127,5300001,,,,,,,2024-08-21,1,,,,,リンク,0
1017,5120001267910,新規,0,2024-08-21,2024-08-21,Ｒｅｇａｌ　Ｃａｐｉｔａｌ株式会社,,株式会社,大阪府,大阪市住之江区,西住之江３丁目１番２号ロイヤル西住之江２０１号室,,27,125,5590005,,,,,,,2024-08-21,1,,,,,リーガルキャピタル,0
1018,5120001267976,新規,0,2024-08-21,2024-08-21,株式会社Ｌ．Ｓ．Ｈ,,株式会社,大阪府,大阪市中央区,安土町２丁目４番１１－３４１７号,,27,128,5410052,,,,,,,2024-08-21,1,,,,,エルエスエイチ,0
1022,5120003027346,新規,0,2024-08-21,2024-08-21,合同会社杏,,合同会社,大阪府,大阪市北区,天満４丁目９番４‐２０２号,,27,127,5300043,,,,,,,2024-08-21,1,,,,,アンズ,0
1023,5120003027354,新規,0,2024-08-21,2024-08-21,合同会社月光アブストラクト,,合同会社,大阪府,大阪市西区,土佐堀３丁目２番５号,,27,106,5500001,,,,,,,2024-08-21,1,,,,,ゲッコウアブストラクト,0
1029,5120103006019,新規,0,2024-08-21,2024-08-21,合同会社アーサー,,合同会社,大阪府,堺市北区,北花田町２丁２３９－２－５０８,,27,146,5918002,,,,,,,2024-08-21,1,,,,,アーサー,0
1036,5122001038382,新規,0,2024-08-21,2024-08-21,日本新特株式会社,,株式会社,大阪府,東大阪市,西堤西３－１９－９０２号室,,27,227,5770048,,,,,,,2024-08-21,1,,,,,ニホンシントク,0
1038,5130001077706,新規,0,2024-08-21,2024-08-21,株式会社Ｈｏｎｕ　Ｋａｎｏａ,,株式会社,京都府,京都市山科区,大塚野溝町８６番地８６,00136018,26,110,6078135,,,,,,,2024-08-21,1,,,,,ホヌカノア,0
1040,5130003009806,新規,0,2024-08-21,2024-08-21,合同会社ななみ会,,合同会社,京都府,宇治市,木幡南山８６番地の１１,,26,204,6110002,,,,,,,2024-08-21,1,,,,,ナナミカイ,0
1056,5180001162949,新規,0,2024-08-21,2024-08-21,株式会社ＩＭＡＩ,,株式会社,愛知県,名古屋市中村区,塩池町１丁目１４番１号（ラフレシールＩＩ１０１号）,00136015,23,105,4530032,,,,,,,2024-08-21,1,,,,,イマイ,0
1063,5180003027266,新規,0,2024-08-21,2024-08-21,ＲｙＣａ　Ｃａｋｅ合同会社,,合同会社,愛知県,小牧市,小牧２丁目１０番地小牧キャッスルハイツ１０８号室,,23,219,4850041,,,,,,,2024-08-21,1,,,,,リカケーキ,0
1071,5220001026158,新規,0,2024-08-21,2024-08-21,株式会社ｍａｄｅ　ｉｎ　Ｊａｐａｎ,,株式会社,石川県,鹿島郡中能登町,久乃木井部１５番地,,17,407,9291801,,,,,,,2024-08-21,1,,,,,メイドインジャパン,0
1083,5260001039395,新規,0,2024-08-21,2024-08-21,株式会社ＮＩＣＨＩＥＩ,,株式会社,岡山県,総社市,小寺１２８１番地１１,,33,208,7191155,,,,,,,2024-08-21,1,,,,,ニチエイ,0
1088,5290001106853,新規,0,2024-08-21,2024-08-21,株式会社ＡＭＵＬＥＶＥ,,株式会社,福岡県,飯塚市,有井３５６番地５４,,40,205,8200112,,,,,,,2024-08-21,1,,,,,アミュレーヴ,0
1089,5290003015615,新規,0,2024-08-21,2024-08-21,合同会社日昇,,合同会社,福岡県,福岡市東区,香住ヶ丘２丁目８番２７号,,40,131,8130003,,,,,,,2024-08-21,1,,,,,ニッショウ,0
1090,5290003015680,新規,0,2024-08-21,2024-08-21,合同会社ＴＲＡＮＧ　ＮＨＩ,,合同会社,福岡県,久留米市,通東町２番地１４マルホビル３０１号,,40,203,8300016,,,,,,,2024-08-21,1,,,,,チャンニイ,0
1095,5340001026749,新規,0,2024-08-21,2024-08-21,株式会社南日本エレテック,,株式会社,鹿児島県,日置市,伊集院町郡１丁目７７番地コーポ家村Ａ棟２０１,,46,216,8992504,,,,,,,2024-08-21,1,,,,,ミナミニホンエレテック,0
1102,5360001034106,新規,0,2024-08-21,2024-08-21,株式会社ＪＯＩＮＴ　ＣＬＯＴＨＩＮＧ　ＳＴＯＲＥ,,株式会社,沖縄県,中頭郡北谷町,字美浜９－１デポアイランドＡ棟１Ｆ,,47,326,9040115,,,,,,,2024-08-21,1,,,,,ジョイントクロージングストア,0
1103,5360003014246,新規,0,2024-08-21,2024-08-21,合同会社ＢＲＡＨＭＡ,,合同会社,沖縄県,浦添市,仲西３丁目１４番１３－４０６号フラッツ浦添,,47,208,9012125,,,,,,,2024-08-21,1,,,,,ブラフマ,0
1111,5400001016751,新規,0,2024-08-21,2024-08-21,株式会社Ｃａｒｒｙ　Ｈａｐｐｉｎｅｓｓ,,株式会社,岩手県,北上市,和賀町長沼５地割１９５番地６,,03,206,0240333,,,,,,,2024-08-21,1,,,,,キャリーハピネス,0
1117,5420003002979,新規,0,2024-08-21,2024-08-21,Ｔ＆Ｔ合同会社,,合同会社,青森県,五所川原市,大字姥萢字船橋２３０－３,00136016,02,205,0370015,,,,,,,2024-08-21,1,,,,,ティーアンドティー,0
1121,5430003016714,新規,0,2024-08-21,2024-08-21,合同会社ｐｏｅ　Ｎ　ｈｏｌｌａｎ,,合同会社,北海道,札幌市西区,西野六条１０丁目３０番３号キルシェハイツ２階,,01,107,0630036,,,,,,,2024-08-21,1,,,,,ポエンホラン,0
1128,5700150126800,新規,0,2024-08-21,2024-08-21,ｓｈｅｎｚｈｅｎｓｈｉｂａｉｚｈｉｙｉｍａｏｙｉｙｏｕｘｉａｎｇｏｎｇｓｉ,,外国会社等,,,,,,,,ｓｈｅｎｚｈｅｎｓｈｉｌｏｎｇｇａｎｇｑｕｂａｎｔｉａｎｊｉｅｄａｏｇａｎｇｔｏｕｓｈｅｑｕｍａｔｉｓｈａｎｃｕｎｅｒｘｉａｎｇ３ｈａｏ３０３,,,,,,2024-08-21,1,,,,,シェンジェンシーボージーイーマオイーヨウシエンゴンスー,0
1137,6010001247567,新規,0,2024-08-21,2024-08-21,株式会社サンコネクション,,株式会社,東京都,千代田区,神田三崎町２丁目２０－７－４０５,,13,101,1010061,,,,,,,2024-08-21,1,,,,,サンコネクション,0
1138,6010001247682,新規,0,2024-08-21,2024-08-21,株式会社ＬＥＩＥＯ,,株式会社,東京都,中央区,銀座１丁目１２番４号Ｎ＆ＥＢＬＤ．６Ｆ,,13,102,1040061,,,,,,,2024-08-21,1,,,,,レイエオ,0
1150,6010405023449,新規,0,2024-08-21,2024-08-21,一般社団法人モビリティ・ラボ,,その他の設立登記法人,東京都,港区,浜松町２丁目２番１５号,,13,103,1050013,,,,,,,2024-08-21,1,,,,,モビリティラボ,0
1156,6010501052806,新規,0,2024-08-21,2024-08-21,Ｇ・ＧＥＭＳ株式会社,,株式会社,東京都,台東区,日本堤２丁目２番２号,,13,106,1110021,,,,,,,2024-08-21,1,,,,,,0
1161,6010601065798,新規,0,2024-08-21,2024-08-21,株式会社ことキャリ,,株式会社,東京都,江東区,青海２丁目７－４ｔｈｅＳＯＨＯ８３９号室,,13,108,1350064,,,,,,,2024-08-21,1,,,,,コトキャリ,0
1163,6010801035337,新規,0,2024-08-21,2024-08-21,株式会社ツノダ工芸,,株式会社,東京都,大田区,田園調布本町１６－７,,13,111,1450072,,,,,,,2024-08-21,1,,,,,ツノダコウゲイ,0
1169,6010903009305,新規,0,2024-08-21,2024-08-21,ＡＩＯＮ合同会社,,合同会社,東京都,世田谷区,上野毛４丁目３３番１１号,,13,112,1580093,,,,,,,2024-08-21,1,,,,,アイオン,0
1173,6011001163952,新規,0,2024-08-21,2024-08-21,株式会社フィルムブリューイング,,株式会社,東京都,目黒区,中根２丁目６番１９号ボヌール白子１０２,,13,110,1520031,,,,,,,2024-08-21,1,,,,,フィルムブリューイング,0
1174,6011001163985,新規,0,2024-08-21,2024-08-21,ＲＰＭ　Ｇｅｎｅｒａｔｉｏｎ株式会社,,株式会社,東京都,渋谷区,渋谷２丁目１９－１５宮益坂ビルディング６０９,,13,113,1500002,,,,,,,2024-08-21,1,,,,,アールピーエムジェネレーション,0
1175,6011001164083,新規,0,2024-08-21,2024-08-21,株式会社ファミルス,,株式会社,東京都,渋谷区,恵比寿１丁目２３番１７号,,13,113,1500013,,,,,,,2024-08-21,1,,,,,ファミルス,0
1176,6011003019582,新規,0,2024-08-21,2024-08-21,合同会社Ｓｔｅｌｌｕｘ,,合同会社,東京都,渋谷区,道玄坂１丁目１０番８号渋谷道玄坂東急ビル２Ｆ‐Ｃ,,13,113,1500043,,,,,,,2024-08-21,1,,,,,ステラックス,0
1178,6011003019806,新規,0,2024-08-21,2024-08-21,合同会社虹晴,,合同会社,東京都,目黒区,下目黒２丁目２１－１９目黒グリーンコープ８０４,,13,110,1530064,,,,,,,2024-08-21,1,,,,,コウセイ,0
1185,6011801044724,新規,0,2024-08-21,2024-08-21,株式会社クレスト,,株式会社,東京都,足立区,綾瀬３丁目１９番１６号松代ビル２０２,,13,121,1200005,,,,,,,2024-08-21,1,,,,,クレスト,0
1192,6012803003494,新規,0,2024-08-21,2024-08-21,ｉ．ｏ．ｋ合同会社,,合同会社,東京都,国分寺市,西元町４丁目２番２６号,,13,214,1850023,,,,,,,2024-08-21,1,,,,,アイオーケー,0
1203,6020003026662,新規,0,2024-08-21,2024-08-21,合同会社ＺＥＲＯ　ＯＮＥ,,合同会社,神奈川県,横浜市都筑区,すみれが丘１－１２新井コーポ１０１,,14,118,2240013,,,,,,,2024-08-21,1,,,,,ゼロワン,0
1205,6021001083068,新規,0,2024-08-21,2024-08-21,株式会社Ｙ＆Ｍ,,株式会社,神奈川県,平塚市,老松町５－１２,,14,203,2540033,,,,,,,2024-08-21,1,,,,,ユーアンドミー,0
1216,6030001161956,新規,0,2024-08-21,2024-08-21,株式会社春日部ファーム,,株式会社,埼玉県,春日部市,下大増新田２８１番地１,,11,214,3440036,,,,,,,2024-08-21,1,,,,,カスカベファーム,0
1217,6030001162046,新規,0,2024-08-21,2024-08-21,あさぎエステート株式会社,,株式会社,埼玉県,所沢市,東住吉１１番１－２７１０号シティタワー所沢クラッシィ,,11,208,3591124,,,,,,,2024-08-21,1,,,,,アサギエステート,0
1218,6030001162079,新規,0,2024-08-21,2024-08-21,ｔｏｄｏ株式会社,,株式会社,埼玉県,川越市,今成２丁目７番地１,,11,201,3501105,,,,,,,2024-08-21,1,,,,,トゥードゥー,0
1220,6030003024970,新規,0,2024-08-21,2024-08-21,ＴＳＪＰ貿易合同会社,,合同会社,埼玉県,新座市,東北２丁目２９－２６松栄ビル４０６号室,,11,230,3520001,,,,,,,2024-08-21,1,,,,,ティーエスジェイピーボウエキ,0
1221,6030003024979,新規,0,2024-08-21,2024-08-21,合同会社ポシング,,合同会社,埼玉県,越谷市,東越谷９丁目２６番地２,,11,222,3430023,,,,,,,2024-08-21,1,,,,,ポシング,0
1228,6040003025638,新規,0,2024-08-21,2024-08-21,ＮＩＹ合同会社,,合同会社,千葉県,柏市,手賀の杜５丁目３２番地１スウィングビート２０３号,,12,217,2701447,,,,,,,2024-08-21,1,,,,,ニイ,0
1251,6120001267331,新規,0,2024-08-21,2024-08-21,株式会社Ｚ２,,株式会社,大阪府,大阪市北区,堂島１丁目１－２１ＧＯＴＳ３号館２階,,27,127,5300003,,,,,,,2024-08-21,1,,,,,ゼッツー,0
1252,6120001267884,新規,0,2024-08-21,2024-08-21,守望国際株式会社,,株式会社,大阪府,大阪市港区,八幡屋２丁目１４番１１号１階,,27,107,5520014,,,,,,,2024-08-21,1,,,,,ホープインターナショナル,0
1253,6120001267934,新規,0,2024-08-21,2024-08-21,東比恵株式会社,,株式会社,大阪府,大阪市中央区,南船場１丁目９番２８号４０３,,27,128,5420081,,,,,,,2024-08-21,1,,,,,ヒガシヒエ,0
1255,6120005024506,新規,0,2024-08-21,2024-08-21,一般社団法人経営者相談同友会,,その他の設立登記法人,大阪府,大阪市浪速区,浪速東１丁目１１－２,,27,111,5560025,,,,,,,2024-08-21,1,,,,,ケイエイシャソウダンドウユウカイ,0
1259,6120103006018,新規,0,2024-08-21,2024-08-21,合同会社Ｄａｒ,,合同会社,大阪府,堺市中区,東山８３１－１－５０２号,,27,142,5998247,,,,,,,2024-08-21,1,,,,,ダァ,0
1262,6130001077746,新規,0,2024-08-21,2024-08-21,株式会社ｓｏｍｏ,,株式会社,京都府,京都市北区,紫野西藤ノ森町１８番地３,,26,101,6038224,,,,,,,2024-08-21,1,,,,,ソモ,0
1263,6130001077770,新規,0,2024-08-21,2024-08-21,株式会社ＬＧＡ,,株式会社,京都府,京都市西京区,山田平尾町３６番地１２,,26,111,6158256,,,,,,,2024-08-21,1,,,,,ラグア,0
1264,6130001077779,新規,0,2024-08-21,2024-08-21,株式会社日新製材所,,株式会社,京都府,亀岡市,東別院町小泉滝ケ畑２番地,,26,206,6210101,,,,,,,2024-08-21,1,,,,,ニッシンセイザイショ,0
1265,6130001077787,新規,0,2024-08-21,2024-08-21,株式会社カワテック,,株式会社,京都府,京都市伏見区,横大路下三栖里ノ内１０－１６,,26,109,6128236,,,,,,,2024-08-21,1,,,,,カワテック,0
1267,6130003009805,新規,0,2024-08-21,2024-08-21,下鴨経営合同会社,,合同会社,京都府,京都市左京区,下鴨蓼倉町５９番地,,26,103,6060806,,,,,,,2024-08-21,1,,,,,シモガモケイエイ,0
1282,6180001162948,新規,0,2024-08-21,2024-08-21,株式会社ＨＡＲＤＥＮ,,株式会社,愛知県,名古屋市中川区,伏屋５丁目３０１番地,,23,110,4540996,,,,,,,2024-08-21,1,,,,,ハーデン,0
1286,6180303006241,新規,0,2024-08-21,2024-08-21,合同会社ＬＩＧ,,合同会社,愛知県,豊川市,佐土町５３番地,,23,207,4420017,,,,,,,2024-08-21,1,,,,,リグ,0
1289,6190001031581,新規,0,2024-08-21,2024-08-21,株式会社アンジューホールディングス,,株式会社,三重県,伊勢市,磯町１８３１番地１アンジューＶＩＩ１０１,00136026,24,203,5150504,,,,,,,2024-08-21,1,,,,,アンジューホールディングス,0
1297,6210001019888,新規,0,2024-08-21,2024-08-21,株式会社ワイズ,,株式会社,福井県,敦賀市,古田刈６７号８０２番地,,18,202,9140045,,,,,,,2024-08-21,1,,,,,ワイズ,0
1309,6280003001879,新規,0,2024-08-21,2024-08-21,合同会社ＫＡＤＯＳＨＩ,,合同会社,島根県,松江市,宍道町白石１７６２番地１２,,32,201,6990402,,,,,,,2024-08-21,1,,,,,カドシ,0
1312,6290001106654,新規,0,2024-08-21,2024-08-21,ＭＥＩＳＥＩホールディングス株式会社,,株式会社,福岡県,福岡市西区,福重３丁目２１番３号西南ビル２階,,40,135,8190022,,,,,,,2024-08-21,1,,,,,メイセイホールディングス,0
1313,6290001106836,新規,0,2024-08-21,2024-08-21,ＳＡＲＡ　ＪＡＰＡＮ株式会社,,株式会社,福岡県,福岡市東区,香椎浜１丁目５番６－１０３号福岡県営住宅香椎浜団地,,40,131,8130016,,,,,,,2024-08-21,1,,,,,サラジャパン,0
1314,6290001106860,新規,0,2024-08-21,2024-08-21,株式会社大一防水工業,,株式会社,福岡県,福岡市南区,屋形原４丁目１８番２８－１０１号,,40,134,8111351,,,,,,,2024-08-21,1,,,,,ダイイチボウスイコウギョウ,0
1323,6290803004824,新規,0,2024-08-21,2024-08-21,ＳＭＴ合同会社,,合同会社,福岡県,鞍手郡小竹町,大字勝野２８７６番地,,40,401,8201103,,,,,,,2024-08-21,1,,,,,エスエムティ,0
1326,6340003004578,新規,0,2024-08-21,2024-08-21,＿合同会社,00136025,合同会社,鹿児島県,伊佐市,大口里４７６番地１,,46,224,8952511,,,,,,,2024-08-21,1,,,,,キン,0
1335,6430001092517,新規,0,2024-08-21,2024-08-21,ＴＴ株式会社,,株式会社,北海道,虻田郡倶知安町,北三条西２丁目９番地５－２０１号室,,01,400,0440053,,,,,,,2024-08-21,1,,,,,ティーティー,0
1336,6430003016713,新規,0,2024-08-21,2024-08-21,そらまめ合同会社,,合同会社,北海道,札幌市中央区,南一条西１３丁目４番地３９,,01,101,0600061,,,,,,,2024-08-21,1,,,,,ソラマメ,0
1338,6480001012577,新規,0,2024-08-21,2024-08-21,株式会社アート林,,株式会社,徳島県,徳島市,上八万町西山１１３６番地の１,,36,201,7708041,,,,,,,2024-08-21,1,,,,,アートハヤシ,0
1340,6500003003308,新規,0,2024-08-21,2024-08-21,合同会社こしみず,,合同会社,愛媛県,八幡浜市,向灘３０８４番地５,,38,204,7960001,,,,,,,2024-08-21,1,,,,,コシミズ,0
1342,6700150126808,新規,0,2024-08-21,2024-08-21,ＴＨＥ　ＶＡＳＣＵＬＡＲ　ＡＮＤ　ＥＮＤＯＶＡＳＣＵＬＡＲ　ＣＬＩＮＩＣ　＠　ＯＲＣＨＡＲＤ　ＰＴＥ．ＬＴＤ．,,外国会社等,,,,,,,,Ｇｌｅｎｅａｇｌｅｓ　Ｍｅｄｉｃａｌ　Ｃｅｎｔｒｅ，６　Ｎａｐｉｅｒ　Ｒｏａｄ　＃０８－０８，Ｓｉｎｇａｐｏｒｅ　２５８４９９,,,,,,2024-08-21,1,,,,,ザバスキユラーアンドエンドバスキユラークリニツクアツトオーチヤードピーテイーイーエルテイーデイー,0
1348,7010001247657,新規,0,2024-08-21,2024-08-21,株式会社小高商事,,株式会社,東京都,中央区,月島１丁目１１番９号,,13,102,1040052,,,,,,,2024-08-21,1,,,,,オダカショウジ,0
1353,7010405023448,新規,0,2024-08-21,2024-08-21,一般社団法人ＳｏｌＰｈｉ,,その他の設立登記法人,東京都,港区,西麻布３丁目１７番１１号,,13,103,1060031,,,,,,,2024-08-21,1,,,,,ソールファイ,0
1359,7010901055787,新規,0,2024-08-21,2024-08-21,億美株式会社,,株式会社,東京都,世田谷区,経堂１丁目３６番４号扶桑ハイツ経堂１１６号室,,13,112,1560052,,,,,,,2024-08-21,1,,,,,オクミ,0
1363,7011001163935,新規,0,2024-08-21,2024-08-21,株式会社ＡＮＹＷＡＹ,,株式会社,東京都,渋谷区,恵比寿４丁目２０－３ガーデンプレイスタワー１８階,,13,113,1500013,,,,,,,2024-08-21,1,,,,,エニウェイ,0
1364,7011001163943,新規,0,2024-08-21,2024-08-21,株式会社ユニバース,,株式会社,東京都,渋谷区,神泉町１０番１５号アネックス神泉３０１,,13,113,1500045,,,,,,,2024-08-21,1,,,,,ユニバース,0
1365,7011001164082,新規,0,2024-08-21,2024-08-21,Ｆｌｏｗ株式会社,,株式会社,東京都,目黒区,青葉台４丁目４番１２号,,13,110,1530042,,,,,,,2024-08-21,1,,,,,フロウ,0
1367,7011003019796,新規,0,2024-08-21,2024-08-21,オーソン合同会社,,合同会社,東京都,目黒区,下目黒１丁目１番１４号コノトラビル７Ｆ,,13,110,1530064,,,,,,,2024-08-21,1,,,,,オーソン,0
1386,7011801044723,新規,0,2024-08-21,2024-08-21,株式会社ウィルマネジメント,,株式会社,東京都,足立区,綾瀬３丁目１９番１６号松代ビル２０２,,13,121,1200005,,,,,,,2024-08-21,1,,,,,ウィルマネジメント,0
1388,7011803006416,新規,0,2024-08-21,2024-08-21,合同会社ｉｇｎｉｔｅｒ　ｗｏｒｋｓ,,合同会社,東京都,足立区,竹の塚２丁目１７番５号,,13,121,1210813,,,,,,,2024-08-21,1,,,,,イグナイターワークス,0
1393,7013301052999,新規,0,2024-08-21,2024-08-21,株式会社ＭＩＲＡＥ,,株式会社,東京都,豊島区,東池袋１丁目２３番９号,,13,116,1700013,,,,,,,2024-08-21,1,,,,,ミレ,0
1396,7020001158507,新規,0,2024-08-21,2024-08-21,株式会社ＭＳｕｒｅ,,株式会社,神奈川県,川崎市多摩区,菅北浦２丁目２５番２号,,14,135,2140008,,,,,,,2024-08-21,1,,,,,エムシュア,0
1403,7030001162053,新規,0,2024-08-21,2024-08-21,株式会社ＴＥＮＫＩＤＳ,,株式会社,埼玉県,川越市,南台２丁目７番地１０,,11,201,3501165,,,,,,,2024-08-21,1,,,,,テンキッズ,0
1410,7030003024978,新規,0,2024-08-21,2024-08-21,合同会社ヴィエール,,合同会社,埼玉県,久喜市,吉羽２２２１番地６,,11,232,3460014,,,,,,,2024-08-21,1,,,,,ヴィエール,0
1411,7030005021800,新規,0,2024-08-21,2024-08-21,税理士法人村田会計事務所,,その他の設立登記法人,埼玉県,さいたま市浦和区,北浦和２丁目８番５号,,11,107,3300074,,,,,,,2024-08-21,1,,,,,ムラタカイケイジムショ,0
1418,7040001135041,新規,0,2024-08-21,2024-08-21,株式会社ｏｎｅＧ,,株式会社,千葉県,八千代市,島田台１２９４－２３,,12,221,2760004,,,,,,,2024-08-21,1,,,,,ワンジー,0
1423,7040003025620,新規,0,2024-08-21,2024-08-21,合同会社ＴＳＵＮＡＧＡＲＩ,,合同会社,千葉県,松戸市,松戸１４８９番地の１０,,12,207,2710092,,,,,,,2024-08-21,1,,,,,ツナガリ,0
1424,7040003025637,新規,0,2024-08-21,2024-08-21,合同会社ダイヤモンド,,合同会社,千葉県,千葉市中央区,大巌寺町３０３番地４,,12,101,2600812,,,,,,,2024-08-21,1,,,,,ダイヤモンド,0
1431,7080003003275,新規,0,2024-08-21,2024-08-21,合同会社スサノ,,合同会社,静岡県,静岡市葵区,鷹匠３丁目２０番１１号,,22,101,4200839,,,,,,,2024-08-21,1,,,,,スサノ,0
1434,7080103003126,新規,0,2024-08-21,2024-08-21,ＩＺ　Ｓｅｃｕｒｉｔｙ合同会社,,合同会社,静岡県,賀茂郡河津町,浜中耕地１４２番地の１プラザスズキ２階Ｄ,,22,302,4130513,,,,,,,2024-08-21,1,,,,,アイジーセキュリティ,0
1435,7100001037776,新規,0,2024-08-21,2024-08-21,株式会社建築屋悠,,株式会社,長野県,塩尻市,大字広丘野村２２４２番地,,20,215,3990702,,,,,,,2024-08-21,1,,,,,ケンチクヤユウ,0
1450,7120003027344,新規,0,2024-08-21,2024-08-21,合同会社ｅｓ,,合同会社,大阪府,大阪市北区,梅田１丁目２番２号大阪駅前第２ビル１２－１２,,27,127,5300001,,,,,,,2024-08-21,1,,,,,エス,0
1451,7120003027352,新規,0,2024-08-21,2024-08-21,合同会社未来予想図,,合同会社,大阪府,大阪市東成区,中道２丁目１５－２,,27,115,5370025,,,,,,,2024-08-21,1,,,,,ミライヨソウズ,0
1456,7122003002970,新規,0,2024-08-21,2024-08-21,合同会社シャイン,,合同会社,大阪府,東大阪市,新庄南１０番４号,,27,227,5780958,,,,,,,2024-08-21,1,,,,,シャイン,0
1459,7130003009804,新規,0,2024-08-21,2024-08-21,合同会社歩,,合同会社,京都府,京都市右京区,花園中御門町７番地２４,,26,108,6168054,,,,,,,2024-08-21,1,,,,,アユミ,0
1465,7140001135584,新規,0,2024-08-21,2024-08-21,株式会社ハートアップ,,株式会社,兵庫県,神戸市須磨区,横尾１丁目３１番地の２レ・ジェイド須磨妙法寺駅前２０３号,,28,107,6540131,,,,,,,2024-08-21,1,,,,,ハートアップ,0
1493,7260001039377,新規,0,2024-08-21,2024-08-21,株式会社ＴＫ‐ＪｉＧ,,株式会社,岡山県,倉敷市,玉島柏島９７６番地１,,33,202,7138123,,,,,,,2024-08-21,1,,,,,ティーケイジグ,0
1496,7280001009238,新規,0,2024-08-21,2024-08-21,株式会社鳥取県食,,株式会社,島根県,松江市,宍道町佐々布３０３番地７,,32,201,6990406,,,,,,,2024-08-21,1,,,,,トットリケンショク,0
1501,7290001106810,新規,0,2024-08-21,2024-08-21,株式会社ｈａｂｉ‐Ｔ,,株式会社,福岡県,福岡市中央区,薬院２丁目１３番２０－４０３号,,40,133,8100022,,,,,,,2024-08-21,1,,,,,ハビット,0
1502,7290001106835,新規,0,2024-08-21,2024-08-21,株式会社栗原商会,,株式会社,福岡県,福岡市早良区,賀茂２丁目５番３３号,,40,137,8140164,,,,,,,2024-08-21,1,,,,,クリハラショウカイ,0
1503,7290001106868,新規,0,2024-08-21,2024-08-21,株式会社Ｊａｐａｎ　Ｔｒｉｎｉｔｙ,,株式会社,福岡県,福岡市中央区,平尾２丁目２１番９号,,40,133,8100014,,,,,,,2024-08-21,1,,,,,ジャパントリニティ,0
1504,7290001107040,新規,0,2024-08-21,2024-08-21,株式会社ディルーチェ,,株式会社,福岡県,福岡市博多区,住吉３丁目９番２号,,40,132,8120018,,,,,,,2024-08-21,1,,,,,ディルーチェ,0
1506,7290801030813,新規,0,2024-08-21,2024-08-21,株式会社Ｉｋａｓａ’５,,株式会社,福岡県,築上郡築上町,大字西八田２３８１番地２,,40,647,8290343,,,,,,,2024-08-21,1,,,,,イカサファイブ,0
1509,7320001020677,新規,0,2024-08-21,2024-08-21,株式会社Ｔｏｍ’ｓ　Ｊａｐａｎ,,株式会社,大分県,大分市,豊町１丁目９番８号,,44,201,8700042,,,,,,,2024-08-21,1,,,,,トムズジャパン,0
1514,7340001026747,新規,0,2024-08-21,2024-08-21,株式会社ＦＫ建装,,株式会社,鹿児島県,鹿児島市,田上５丁目５０番１３号,,46,201,8900034,,,,,,,2024-08-21,1,,,,,エフケイケンソウ,0
1518,7360001034104,新規,0,2024-08-21,2024-08-21,株式会社すずま,,株式会社,沖縄県,那覇市,宇栄原２丁目１３番２０号,,47,201,9010153,,,,,,,2024-08-21,1,,,,,スズマ,0
1539,7430001092474,新規,0,2024-08-21,2024-08-21,ホワイトマイレージ株式会社,,株式会社,北海道,磯谷郡蘭越町,昆布町１３４番３２,,01,394,0481302,,,,,,,2024-08-21,1,,,,,ホワイトマイレージ,0
1540,7430003016712,新規,0,2024-08-21,2024-08-21,合同会社ハムスカンパニー,,合同会社,北海道,札幌市東区,中沼一条２丁目３番１号,,01,103,0070001,,,,,,,2024-08-21,1,,,,,ハムスカンパニー,0
1542,7460103001644,新規,0,2024-08-21,2024-08-21,合同会社ＳＴＡＲＴ,,合同会社,北海道,帯広市,大通南２３丁目１－１,,01,207,0800010,,,,,,,2024-08-21,1,,,,,スタート,0
1544,7470001020349,新規,0,2024-08-21,2024-08-21,丸虎ホールディングス株式会社,,株式会社,香川県,小豆郡小豆島町,古江甲８１番地,,37,324,7614422,,,,,,,2024-08-21,1,,,,,マルトラホールディングス,0
1546,7700150126807,新規,0,2024-08-21,2024-08-21,ＭＡＭ　Ａｉｒｃｒａｆｔ　Ｌｅａｓｉｎｇ　６１７７６（Ｉｒｅｌａｎｄ）Ｄｅｓｉｇｎａｔｅｄ　Ａｃｔｉｖｉｔｙ　Ｃｏｍｐａｎｙ,,外国会社等,,,,,,,,３２　Ｍｏｌｅｓｗｏｒｔｈ　Ｓｔｒｅｅｔ，Ｄｕｂｌｉｎ　２，Ｄ０２　Ｙ５１２，Ｉｒｅｌａｎｄ,,,,,,2024-08-21,1,,,,,エムエイエムエアクラフトリーシングシツクスワンセブンセブンシツクスアイルランドデジイグネイテツドアクテイビテイカンパニー,0
1547,8010001083580,新規,0,2024-08-21,2024-08-21,ＡＺソリューション株式会社,,株式会社,東京都,千代田区,平河町１丁目３番７号,,13,101,1020093,,,,,,,2024-08-21,1,,,,,エーゼットソリューション,0
1570,8010603011030,新規,0,2024-08-21,2024-08-21,合同会社Ｖｅｓｓｅｌ,,合同会社,東京都,墨田区,亀沢４丁目１２番４－１００２号,,13,107,1300014,,,,,,,2024-08-21,1,,,,,ヴェッセル,0
1576,8010901055836,新規,0,2024-08-21,2024-08-21,ストーンロックス株式会社,,株式会社,東京都,世田谷区,新町２丁目２２－１５－４０１,,13,112,1540014,,,,,,,2024-08-21,1,,,,,ストーンロックス,0
1585,8011001163918,新規,0,2024-08-21,2024-08-21,株式会社ＣＯＮＮＥＣＴＲＩ,,株式会社,東京都,渋谷区,神宮前６丁目２３番４号桑野ビル２階,,13,113,1500001,,,,,,,2024-08-21,1,,,,,コネクトリ,0
1586,8011001163959,新規,0,2024-08-21,2024-08-21,株式会社ＴＣＧＪＯＹ,,株式会社,東京都,渋谷区,渋谷２丁目１９－１５宮益坂ビルディング６０９,,13,113,1500002,,,,,,,2024-08-21,1,,,,,ティーシージージョイ,0
1587,8011001164008,新規,0,2024-08-21,2024-08-21,株式会社Ｃｙｐｈｅｒ,,株式会社,東京都,渋谷区,幡ヶ谷１丁目２３番７号Ｂ１,,13,113,1510072,,,,,,,2024-08-21,1,,,,,サイファー,0
1588,8011001164073,新規,0,2024-08-21,2024-08-21,株式会社ライラプス,,株式会社,東京都,渋谷区,渋谷２丁目１９－１５宮益坂ビルディング６０９,,13,113,1500002,,,,,,,2024-08-21,1,,,,,ライラプラス,0
1589,8011001164115,新規,0,2024-08-21,2024-08-21,株式会社Ｂ・Ｃキャピタル,,株式会社,東京都,渋谷区,恵比寿１丁目２０番４号,,13,113,1500013,,,,,,,2024-08-21,1,,,,,ビーシーキャピタル,0
1592,8011003019795,新規,0,2024-08-21,2024-08-21,ヒゼ合同会社,,合同会社,東京都,渋谷区,代々木４丁目２５番地１１－３０２,,13,113,1510053,,,,,,,2024-08-21,1,,,,,,0
1593,8011003019829,新規,0,2024-08-21,2024-08-21,ＡＩ　Ｂｌｕｅ　Ｍｏｏｎ合同会社,,合同会社,東京都,渋谷区,恵比寿西２丁目４番８号ウィンド恵比寿ビル８Ｆ,,13,113,1500021,,,,,,,2024-08-21,1,,,,,エーアイブルームーン,0
1616,8013303007265,新規,0,2024-08-21,2024-08-21,合同会社ＢＯＳＥＮ,,合同会社,東京都,豊島区,池袋２丁目２３－１中西ビル１Ｆ,,13,116,1710014,,,,,,,2024-08-21,1,,,,,ボーセン,0
1621,8020003026669,新規,0,2024-08-21,2024-08-21,合同会社ｇａｉｎｅｎ,,合同会社,神奈川県,横浜市神奈川区,片倉４丁目６－３パレステージ片倉町ナチュラコート１０５,,14,102,2210865,,,,,,,2024-08-21,1,,,,,ガイネン,0
1622,8020003026743,新規,0,2024-08-21,2024-08-21,合同会社Ｆａｓｔ　Ｂｒｅａｋ,,合同会社,神奈川県,横浜市磯子区,汐見台３丁目７－１ヴェルデマーレＣ２０３,,14,107,2350022,,,,,,,2024-08-21,1,,,,,ファストブレイク,0
1631,8030001162069,新規,0,2024-08-21,2024-08-21,株式会社オートリテイリング,,株式会社,埼玉県,越谷市,越ヶ谷３丁目３番１６号２階,,11,222,3430813,,,,,,,2024-08-21,1,,,,,オートリテイリング,0
1632,8030003024969,新規,0,2024-08-21,2024-08-21,リアルドデザイン合同会社,,合同会社,埼玉県,行田市,桜町１丁目１２番２５号,,11,206,3610022,,,,,,,2024-08-21,1,,,,,リアルドデザイン,0
1633,8030003024977,新規,0,2024-08-21,2024-08-21,合同会社クラスト,,合同会社,埼玉県,春日部市,備後西２丁目７番１０号,,11,214,3440033,,,,,,,2024-08-21,1,,,,,クラスト,0
1635,8030005021799,新規,0,2024-08-21,2024-08-21,一般社団法人日本ろうＬＧＢＴＱプラス連盟,,その他の設立登記法人,埼玉県,戸田市,大字新曽１７６５番地,,11,224,3350021,,,,,,,2024-08-21,1,,,,,ニホンロウエルジービーティーキュープラスレンメイ,0
1636,8030005021816,新規,0,2024-08-21,2024-08-21,一般社団法人ＳＯＴ,,その他の設立登記法人,埼玉県,川口市,栄町３丁目４番１号川口駅前医療モール２階,,11,203,3320017,,,,,,,2024-08-21,1,,,,,エスオーティー,0
1638,8040001135040,新規,0,2024-08-21,2024-08-21,株式会社Ｕ‐Ｔｈａｉｌａｎｄ,,株式会社,千葉県,成田市,成井４２６番地９０,,12,211,2890114,,,,,,,2024-08-21,1,,,,,,0
1644,8040003025603,新規,0,2024-08-21,2024-08-21,合同会社光が丘,,合同会社,千葉県,松戸市,馬橋１８０５番地ニューハイツクラ２０１号,,12,207,2710051,,,,,,,2024-08-21,1,,,,,,0
1652,8060001037417,新規,0,2024-08-21,2024-08-21,株式会社ババルダージュ,,株式会社,栃木県,那須郡那須町,大字高久丙１１６６番地８４,,09,407,3250302,,,,,,,2024-08-21,1,,,,,ババルダージュ,0
1653,8060003005215,新規,0,2024-08-21,2024-08-21,前田商事合同会社,,合同会社,栃木県,栃木市,平井町８８番地１,,09,203,3280054,,,,,,,2024-08-21,1,,,,,マエダショウジ,0
1660,8080401027387,新規,0,2024-08-21,2024-08-21,株式会社Ｙ・Ｒ,,株式会社,静岡県,浜松市中央区,中島３丁目２４番３３号,,22,138,4300856,,,,,,,2024-08-21,1,,,,,ワイアール,0
1662,8100001037750,新規,0,2024-08-21,2024-08-21,株式会社ＰＡＲＫ　ＨＡＫＵＢＡ,,株式会社,長野県,北安曇郡白馬村,大字神城２２３０５番地,,20,485,3999211,,,,,,,2024-08-21,1,,,,,パークハクバ,0
1663,8100001037767,新規,0,2024-08-21,2024-08-21,株式会社オーベルニュ,,株式会社,長野県,諏訪市,大字豊田５４２番地,,20,206,3920016,,,,,,,2024-08-21,1,,,,,オーベルニュ,0
1664,8100001037775,新規,0,2024-08-21,2024-08-21,株式会社サンエナジーサプライ,,株式会社,長野県,岡谷市,大栄町２丁目４番１５号,,20,204,3940025,,,,,,,2024-08-21,1,,,,,サンエナジーサプライ,0
1675,8120001267882,新規,0,2024-08-21,2024-08-21,日本中炎商貿株式会社,,株式会社,大阪府,大阪市西成区,橘１丁目１１－２８オフィスポート橘４０３号室,,27,122,5570051,,,,,,,2024-08-21,1,,,,,ニホンチュウエンショウボウ,0
1676,8120001267924,新規,0,2024-08-21,2024-08-21,申誠株式会社,,株式会社,大阪府,大阪市北区,長柄中２丁目５番３０号,,27,127,5310062,,,,,,,2024-08-21,1,,,,,シンセイ,0
1677,8120001267957,新規,0,2024-08-21,2024-08-21,株式会社ＲＩＳＥＵＳ,,株式会社,大阪府,大阪市淀川区,十三東１丁目７番２６号,,27,123,5320023,,,,,,,2024-08-21,1,,,,,ライザス,0
1678,8120003027351,新規,0,2024-08-21,2024-08-21,合同会社ＯＰＴＩＦＬＯＷ,,合同会社,大阪府,大阪市浪速区,難波中２丁目７番１６－３０２号,,27,111,5560011,,,,,,,2024-08-21,1,,,,,オプティフロー,0
1683,8120103006016,新規,0,2024-08-21,2024-08-21,合同会社アクティブ,,合同会社,大阪府,阪南市,自然田１４１２,,27,232,5990212,,,,,,,2024-08-21,1,,,,,アクティブ,0
1693,8140005027182,新規,0,2024-08-21,2024-08-21,農事組合法人丹波春日焼き栗会,,その他の設立登記法人,兵庫県,丹波市,春日町平松４８７番地,,28,223,6694133,,,,,,,2024-08-21,1,,,,,タンバカスガヤキグリカイ,0
1694,8150001027516,新規,0,2024-08-21,2024-08-21,株式会社ＢＢ,,株式会社,奈良県,奈良市,神殿町４６７番地,,29,201,6308441,,,,,,,2024-08-21,1,,,,,ビービー,0
1701,8170003002093,新規,0,2024-08-21,2024-08-21,合同会社ＳＴＹＬＥ,,合同会社,和歌山県,和歌山市,北休賀町１番地シャリエ和歌山壱番館２０３号,,30,201,6408103,,,,,,,2024-08-21,1,,,,,スタイル,0
1713,8180001162954,新規,0,2024-08-21,2024-08-21,神尾株式会社,,株式会社,愛知県,名古屋市北区,楠味鋺２丁目４０１番地の３,,23,103,4620014,,,,,,,2024-08-21,1,,,,,カミオ,0
1728,8240001063733,新規,0,2024-08-21,2024-08-21,株式会社ＮＯＢＵ,,株式会社,広島県,広島市安佐南区,東野２丁目２番２号,,34,105,7310111,,,,,,,2024-08-21,1,,,,,ノブ,0
1751,8290001106669,新規,0,2024-08-21,2024-08-21,株式会社ワイズビー,,株式会社,福岡県,福岡市博多区,祇園町８番１２号,,40,132,8120038,,,,,,,2024-08-21,1,,,,,ワイズビー,0
1752,8290001106818,新規,0,2024-08-21,2024-08-21,株式会社相園自動車,,株式会社,福岡県,朝倉市,馬田６４９番地,,40,228,8380058,,,,,,,2024-08-21,1,,,,,アイゾノジドウシャ,0
1754,8290001106850,新規,0,2024-08-21,2024-08-21,株式会社興関,,株式会社,福岡県,筑紫野市,二日市北６丁目５番１２号,,40,217,8180056,,,,,,,2024-08-21,1,,,,,コウゼキ,0
1755,8290001106875,新規,0,2024-08-21,2024-08-21,株式会社ＦＬＯＷ,,株式会社,福岡県,福岡市南区,若久団地１１番３４号,,40,134,8150048,,,,,,,2024-08-21,1,,,,,フロー,0
1756,8290001106891,新規,0,2024-08-21,2024-08-21,Ｄｒｅａｍ　Ｊａｐａｎ株式会社,,株式会社,福岡県,福岡市博多区,博多駅前４丁目１８番１９号博多フロントビル４０１号,,40,132,8120011,,,,,,,2024-08-21,1,,,,,ドリームジャパン,0
1757,8290001106917,新規,0,2024-08-21,2024-08-21,株式会社ＬＱＴ,,株式会社,福岡県,福岡市城南区,友丘５丁目１４番６－１号,,40,136,8140112,,,,,,,2024-08-21,1,,,,,エルキューティー,0
1758,8290001107031,新規,0,2024-08-21,2024-08-21,株式会社ＷＡＯ,,株式会社,福岡県,那珂川市,道善４丁目１３番５号,,40,231,8111254,,,,,,,2024-08-21,1,,,,,ワオ,0
1760,8290003015661,新規,0,2024-08-21,2024-08-21,合同会社飲食オペレーションサービス,,合同会社,福岡県,糟屋郡志免町,南里６丁目２０番２０号三陽ビル１階,,40,343,8112207,,,,,,,2024-08-21,1,,,,,インショクオペレーションサービス,0
1761,8290003015678,新規,0,2024-08-21,2024-08-21,合同会社ステアプラス,,合同会社,福岡県,筑紫野市,二日市南３丁目１１番２１号,,40,217,8180057,,,,,,,2024-08-21,1,,,,,ステアプラス,0
1767,8290005019495,新規,0,2024-08-21,2024-08-21,一般社団法人魚町フィナンシャルソリューションズ,,その他の設立登記法人,福岡県,福岡市博多区,古門戸町１番１号日刊工業新聞社ビル８階,,40,132,8120029,,,,,,,2024-08-21,1,,,,,ウオマチフィナンシャルソリューションズ,0
1768,8290801030812,新規,0,2024-08-21,2024-08-21,株式会社Ｇ‐ＳＰＥＣ,,株式会社,福岡県,北九州市小倉南区,城野３丁目４番２４号,,40,107,8020802,,,,,,,2024-08-21,1,,,,,ジースペック,0
1769,8290803004822,新規,0,2024-08-21,2024-08-21,合同会社ＲＯＫ,,合同会社,福岡県,北九州市小倉北区,砂津２丁目１１番２９号砂津アパート２０１,,40,106,8020014,,,,,,,2024-08-21,1,,,,,アールオーケー,0
1770,8320001020676,新規,0,2024-08-21,2024-08-21,ゆとりＦＣ株式会社,,株式会社,大分県,大分市,大字旦野原９００番地の８８,,44,201,8701124,,,,,,,2024-08-21,1,,,,,ユトリエフシー,0
1772,8340003004576,新規,0,2024-08-21,2024-08-21,福田ソフト合同会社,,合同会社,鹿児島県,鹿児島市,牟礼岡３丁目２４番１号,,46,201,8911306,,,,,,,2024-08-21,1,,,,,フクダソフト,0
1779,8380001034729,新規,0,2024-08-21,2024-08-21,ＳＭＩＬＥホールディングス株式会社,,株式会社,福島県,いわき市,泉町下川字大剣１番地の１７６,,07,204,9718183,,,,,,,2024-08-21,1,,,,,スマイルホールディングス,0
1787,8430001092523,新規,0,2024-08-21,2024-08-21,株式会社余市ランド,,株式会社,北海道,余市郡余市町,栄町９７番地３,,01,408,0460001,,,,,,,2024-08-21,1,,,,,ヨイチランド,0
1789,8430003016711,新規,0,2024-08-21,2024-08-21,合同会社ＮＯＬＬＹＳ,,合同会社,北海道,札幌市中央区,南四条西２２丁目２番２０号,,01,101,0640804,,,,,,,2024-08-21,1,,,,,ノーリーズ,0
1792,8460103001643,新規,0,2024-08-21,2024-08-21,合同会社トカチデイズ,,合同会社,北海道,帯広市,自由が丘４丁目５番地４,,01,207,0802476,,,,,,,2024-08-21,1,,,,,トカチデイズ,0
1801,8700150126541,新規,0,2024-08-21,2024-07-26,長丘ハイツ住宅管理組合,,その他,福岡県,福岡市南区,長丘２丁目１５番,,40,134,8150075,,,,,,,2024-07-26,1,,,,,ナガオカハイツジユウタクカンリクミアイ,0
1802,8700150126590,新規,0,2024-08-21,2024-08-01,福田まちづくり協議会,,その他,広島県,広島市東区,福田１丁目７５３番６,,34,102,7320029,,,,,,,2024-08-01,1,,,,,フクダマチヅクリキヨウギカイ,0
1803,8700150126806,新規,0,2024-08-21,2024-08-21,Ｒａｉｃｈｏ　Ｌｏｄｇｅ　Ｍａｄａｒａｏ　Ｐｔｙ　Ｌｔｄ,,外国会社等,,,,,,,,９９　Ｂｙｎｙａ　Ｒｏａｄ　Ｐａｌｍ　Ｂｅａｃｈ，ＮＳＷ，２１０８,,,,,,2024-08-21,1,,,,,ライチヨウロツジマダラオピーテイーワイエルテイーデイ,0
1811,9010001247597,新規,0,2024-08-21,2024-08-21,太和株式会社,,株式会社,東京都,中央区,銀座３丁目１３番１９号,,13,102,1040061,,,,,,,2024-08-21,1,,,,,タイワ,0
1812,9010005038539,新規,0,2024-08-21,2024-08-21,一般社団法人グローバルデジタルパワー協会,,その他の設立登記法人,東京都,千代田区,神田佐久間町１丁目８－４アルテール秋葉原８Ｆ,,13,101,1010025,,,,,,,2024-08-21,1,,,,,グローバルデジタルパワーキョウカイ,0
1826,9010501052778,新規,0,2024-08-21,2024-08-21,ＦＩＳＰＡＣＥ株式会社,,株式会社,東京都,台東区,台東３丁目５番１０号１０２号２Ｐ号室,,13,106,1100016,,,,,,,2024-08-21,1,,,,,フィスペース,0
1832,9010803005070,新規,0,2024-08-21,2024-08-21,合同会社キーストーン,,合同会社,東京都,大田区,東馬込１丁目１０番９号,,13,111,1430022,,,,,,,2024-08-21,1,,,,,キーストーン,0
1833,9010901055835,新規,0,2024-08-21,2024-08-21,株式会社ＡＩ総合研究所,,株式会社,東京都,世田谷区,太子堂２丁目１７番５号佐藤ビル３Ｆ,,13,112,1540004,,,,,,,2024-08-21,1,,,,,エーアイソウゴウケンキュウジョ,0
1843,9011001163941,新規,0,2024-08-21,2024-08-21,株式会社ｅｎｅ‐ｄｏ,,株式会社,東京都,渋谷区,広尾２丁目１５番１２号,,13,113,1500012,,,,,,,2024-08-21,1,,,,,エネドゥ,0
1844,9011001163974,新規,0,2024-08-21,2024-08-21,株式会社ベツバラ,,株式会社,東京都,渋谷区,恵比寿１丁目２２番２３,,13,113,1500013,,,,,,,2024-08-21,1,,,,,ベツバラ,0
1845,9011001164056,新規,0,2024-08-21,2024-08-21,株式会社Ｙｏｋａｔｉｍｅ,,株式会社,東京都,渋谷区,道玄坂１丁目１０番８号渋谷道玄坂東急ビル２Ｆ－Ｃ,,13,113,1500043,,,,,,,2024-08-21,1,,,,,ヨカタイム,0
1846,9011003019646,新規,0,2024-08-21,2024-08-21,合同会社Ｌａｆｅｅｌ,,合同会社,東京都,渋谷区,道玄坂１丁目１０－８渋谷道玄坂東急ビル２Ｆ－Ｃ,,13,113,1500043,,,,,,,2024-08-21,1,,,,,ラフィール,0
1847,9011003019794,新規,0,2024-08-21,2024-08-21,合同会社ｍｙｕｓ,,合同会社,東京都,渋谷区,本町５丁目２６番４号,,13,113,1510071,,,,,,,2024-08-21,1,,,,,ミュース,0
1852,9011101108367,新規,0,2024-08-21,2024-08-21,ＥＢＩＳＵ　ＰＡＣＩＦＩＣ株式会社,,株式会社,東京都,新宿区,百人町１丁目２０－５、５階,,13,104,1690073,,,,,,,2024-08-21,1,,,,,エビスパシフィック,0
1855,9011305003001,新規,0,2024-08-21,2024-08-21,一般社団法人野口体操の会,,その他の設立登記法人,東京都,杉並区,高円寺北２丁目３７番５号,,13,115,1660002,,,,,,,2024-08-21,1,,,,,ノグチタイソウノカイ,0
1860,9011501031061,新規,0,2024-08-21,2024-08-21,株式会社ベルテク,,株式会社,東京都,荒川区,南千住２丁目３２番５号,,13,118,1160003,,,,,,,2024-08-21,1,,,,,ベルテク,0
1863,9011801044721,新規,0,2024-08-21,2024-08-21,株式会社ＭＲＰ,,株式会社,東京都,葛飾区,奥戸８丁目１番１４号,,13,122,1240022,,,,,,,2024-08-21,1,,,,,エムアールピー,0
1867,9011803006414,新規,0,2024-08-21,2024-08-21,合同会社ＷＡＧＯＮ,,合同会社,東京都,葛飾区,東金町４丁目１番１２－６０４号金町ハイツ,,13,122,1250041,,,,,,,2024-08-21,1,,,,,ワゴン,0
1868,9012301014025,新規,0,2024-08-21,2024-08-21,株式会社ＮＧＩ建設,,株式会社,東京都,町田市,鶴間６丁目５６番４８号２Ｆ,,13,209,1940004,,,,,,,2024-08-21,1,,,,,エヌジーアイケンセツ,0
1874,9013303007264,新規,0,2024-08-21,2024-08-21,合同会社ＡＦＯ,,合同会社,東京都,豊島区,西池袋３丁目１７－１３ソレイユ西池袋３０１,,13,116,1710021,,,,,,,2024-08-21,1,,,,,エイエフオー,0
1881,9020001158793,新規,0,2024-08-21,2024-08-21,株式会社アルファトラスト,,株式会社,神奈川県,横浜市鶴見区,馬場６丁目４番２号,,14,101,2300076,,,,,,,2024-08-21,1,,,,,アルファトラスト,0
1885,9020003026651,新規,0,2024-08-21,2024-08-21,ｋｎｏｔ合同会社,,合同会社,神奈川県,川崎市多摩区,枡形２丁目１７番３１－４０４号,,14,135,2140032,,,,,,,2024-08-21,1,,,,,ノット,0
1887,9021001083016,新規,0,2024-08-21,2024-08-21,株式会社ルーフ,,株式会社,神奈川県,鎌倉市,岩瀬１３０８番地１の１０１,,14,204,2470051,,,,,,,2024-08-21,1,,,,,ルーフ,0
1897,9030001162076,新規,0,2024-08-21,2024-08-21,株式会社ｎｏｉｘ,,株式会社,埼玉県,さいたま市北区,宮原町１丁目８５３－８ウェルネスキューブ大宮５Ｆ,,11,102,3310812,,,,,,,2024-08-21,1,,,,,ノア,0
1900,9030003024976,新規,0,2024-08-21,2024-08-21,合同会社Ｏｓｈｉｋａ　Ｂａｓｅ,,合同会社,埼玉県,秩父郡小鹿野町,般若１５７４番地,,11,365,3680103,,,,,,,2024-08-21,1,,,,,オシカベース,0
1916,9060001037416,新規,0,2024-08-21,2024-08-21,池田空調株式会社,,株式会社,栃木県,芳賀郡益子町,大字大沢３３８５番地１０,,09,342,3214104,,,,,,,2024-08-21,1,,,,,イケダクウチョウ,0
1923,9100001037782,新規,0,2024-08-21,2024-08-21,株式会社ＭＯＲＩ　Ｃｏｒｐｏｒａｔｉｏｎ,,株式会社,長野県,北佐久郡軽井沢町,大字軽井沢字大井１１９０番地１４,,20,321,3890102,,,,,,,2024-08-21,1,,,,,モリコーポレーション,0
1945,9120001267881,新規,0,2024-08-21,2024-08-21,坤生株式会社,,株式会社,大阪府,大阪市大正区,小林東２丁目９－５－３０１,,27,108,5510011,,,,,,,2024-08-21,1,,,,,コンショウ,0
1946,9120001267964,新規,0,2024-08-21,2024-08-21,株式会社ｍｅｍｅ　ｍｏｒｉ　ｃａｒｅ,,株式会社,大阪府,大阪市西区,北堀江１丁目６番５号,,27,106,5500014,,,,,,,2024-08-21,1,,,,,メメモリケア,0
1948,9120003027350,新規,0,2024-08-21,2024-08-21,合同会社ＮＯＤＯ,,合同会社,大阪府,大阪市東住吉区,鷹合２丁目１７番２５号,,27,121,5460014,,,,,,,2024-08-21,1,,,,,ノード,0
1949,9120003027359,新規,0,2024-08-21,2024-08-21,合同会社ＮＡｉｌｅｓ,,合同会社,大阪府,大阪市北区,梅田１丁目２番２号大阪駅前第２ビル１２－１２,,27,127,5300001,,,,,,,2024-08-21,1,,,,,エヌエール,0
1960,9130001077776,新規,0,2024-08-21,2024-08-21,ＧＯＡＴ　ｔｒｉｐ株式会社,,株式会社,京都府,京都市左京区,下鴨蓼倉町１６番地の１３,,26,103,6060806,,,,,,,2024-08-21,1,,,,,ゴートトリップ,0
1988,9180301038985,新規,0,2024-08-21,2024-08-21,株式会社ロジカルデザイン,,株式会社,愛知県,豊橋市,吉川町１９３番地１１,,23,201,4418002,,,,,,,2024-08-21,1,,,,,ロジカルデザイン,0
1992,9230003002276,新規,0,2024-08-21,2024-08-21,合同会社マロヤマ通信,,合同会社,富山県,富山市,黒崎１７５番地１,,16,201,9398214,,,,,,,2024-08-21,1,,,,,マロヤマツウシン,0
1993,9240001063732,新規,0,2024-08-21,2024-08-21,ＴＨＩＮＫＦＯＲＭＥ株式会社,,株式会社,広島県,広島市南区,猿猴橋町４番１５－１－９０１号,,34,103,7320823,,,,,,,2024-08-21,1,,,,,シンクフォルム,0
2000,9260005011396,新規,0,2024-08-21,2024-08-21,医療法人社団白優会,,その他の設立登記法人,岡山県,倉敷市,中島２３３番３,,33,202,7100803,,,,,,,2024-08-21,1,,,,,ハクユウカイ,0
2003,9290001106825,新規,0,2024-08-21,2024-08-21,株式会社古賀ファーミング,,株式会社,福岡県,大川市,大字坂井３５５番地１,,40,212,8310025,,,,,,,2024-08-21,1,,,,,コガファーミング,0
2004,9290001106841,新規,0,2024-08-21,2024-08-21,株式会社住宅リサーチ九州,,株式会社,福岡県,福岡市中央区,舞鶴１丁目４番２９－８０５号,,40,133,8100073,,,,,,,2024-08-21,1,,,,,ジュウタクリサーチキュウシュウ,0
2005,9290001106866,新規,0,2024-08-21,2024-08-21,フィールドテック株式会社,,株式会社,福岡県,太宰府市,梅香苑２丁目２６番２号,,40,221,8180124,,,,,,,2024-08-21,1,,,,,フィールドテック,0
2006,9290001106899,新規,0,2024-08-21,2024-08-21,トラストフローイノベーションズ株式会社,,株式会社,福岡県,古賀市,花見東７丁目１番１６号,,40,223,8113112,,,,,,,2024-08-21,1,,,,,トラストフローイノベーションズ,0
2007,9290001106981,新規,0,2024-08-21,2024-08-21,株式会社ＫＡＡＡＹ,,株式会社,福岡県,福岡市中央区,天神２丁目２番１２号Ｔ＆Ｊビルディング７Ｆ,,40,133,8100001,,,,,,,2024-08-21,1,,,,,カイ,0
2008,9290001106998,新規,0,2024-08-21,2024-08-21,株式会社ビーコントラクト,,株式会社,福岡県,糟屋郡粕屋町,大字大隈４４０,,40,349,8112302,,,,,,,2024-08-21,1,,,,,ビーコントラクト,0
2011,9290003015677,新規,0,2024-08-21,2024-08-21,合同会社ＭＹＣ,,合同会社,福岡県,福岡市東区,原田２丁目１６番７－９０１号,,40,131,8120063,,,,,,,2024-08-21,1,,,,,エムワイシー,0
2012,9290003015727,新規,0,2024-08-21,2024-08-21,合同会社ＶＯＬＡＮＣＨ,,合同会社,福岡県,福岡市南区,井尻３丁目３５－１２,,40,134,8111302,,,,,,,2024-08-21,1,,,,,ボランチ,0
2023,9350001019153,新規,0,2024-08-21,2024-08-21,高峰株式会社,,株式会社,宮崎県,小林市,須木下田１３８５番地１,,45,205,8860112,,,,,,,2024-08-21,1,,,,,タカミネ,0
2044,9430003016710,新規,0,2024-08-21,2024-08-21,合同会社ＬＩＶ,,合同会社,北海道,札幌市中央区,北七条西２３丁目３番３号,,01,101,0600007,,,,,,,2024-08-21,1,,,,,リヴ,0
2051,9700150126805,新規,0,2024-08-21,2024-08-21,ＲＩＭＯＮＤ　Ｎｏｒｗａｙ　ＡＳ,,外国会社等,大阪府,大阪市此花区,夢洲中１丁目大阪万博会場Ｐｌｏｔ　Ｂ２１Ｂ２２,,27,104,5540044,Ｄｒａｍｍｅｎｓｖｅｉｅｎ　１５１　０２７７　ＯＳＬＯ,,,,,,2024-08-21,1,,,,,リモンドノルウエーエーエス,0
