sequenceNumber,corporateNumber,process,correct,updateDate,changeDate,name,nameImageId,kind,prefectureName,cityName,streetNumber,addressImageId,prefectureCode,cityCode,postCode,addressOutside,addressOutsideImageId,closeDate,closeCause,successorCorporateNumber,changeCause,assignmentDate,latest,enName,enPrefectureName,enCityName,enAddressOutside,furigana,hihyoji
1,1010001045471,登記記録の閉鎖等,0,2023-06-06,2023-06-01,株式会社さんさん,,株式会社,東京都,中央区,銀座８丁目１１番１２号正金ビル,,13,102,1040061,,,2023-06-01,合併による解散等,8010001050473,令和５年６月１日東京都中央区銀座八丁目１１番１２号正金ビル株式会社チヤネル（8010001050473）に合併し解散,2015-10-05,1,,,,,サンサン,0
20,1010401093921,登記記録の閉鎖等,0,2023-06-06,2023-05-26,株式会社ＰＲＩＭＡＬ　ＡＲＴ,,株式会社,東京都,港区,南青山５丁目１５番１４号,,13,103,1070062,,,2023-05-26,清算の結了等,,,2015-10-05,1,,,,,プライマルアート,0
31,1010905002956,登記記録の閉鎖等,0,2023-06-06,2023-05-31,特定非営利活動法人ＡＰＲＩＣＯＴ,,その他の設立登記法人,東京都,世田谷区,代沢２丁目３０番２１号ＫＳ２０２,,13,112,1550032,,,2023-05-31,清算の結了等,,,2015-10-05,1,,,,,,0
39,1011001139536,登記記録の閉鎖等,0,2023-06-06,2023-05-31,株式会社ＳＯＦＴ　ＪＡＴＨＡＳＵ　ＪＡＰＡＮ,,株式会社,東京都,渋谷区,神宮前６丁目２３番７号,,13,113,1500001,,,2023-05-31,清算の結了等,,,2021-04-07,1,,,,,ソフトジャタスジャパン,0
54,1011102025222,登記記録の閉鎖等,0,2023-06-06,2023-06-01,有限会社フリースタイルコーポレーション,,有限会社,東京都,新宿区,天神町６４番地,,13,104,1620808,,,2023-06-01,清算の結了等,,,2015-10-05,1,,,,,フリースタイルコーポレーション,0
72,1011802012643,登記記録の閉鎖等,0,2023-06-06,2023-05-31,有限会社コスモリース,,有限会社,東京都,足立区,大谷田５丁目１５番６号,,13,121,1200001,,,2023-05-31,清算の結了等,,,2015-10-05,1,,,,,コスモリース,0
75,1012401033394,登記記録の閉鎖等,0,2023-06-06,2023-06-02,神代株式会社,,株式会社,東京都,調布市,西つつじケ丘４丁目２３番地神代公団住宅１９号館１０２号室,,13,208,1820006,,,2023-06-02,清算の結了等,,,2017-11-28,1,,,,,,0
84,1013302004344,登記記録の閉鎖等,0,2023-06-06,2023-06-01,有限会社小林工務店,,有限会社,東京都,豊島区,上池袋３丁目４２番２号,,13,116,1700012,,,2023-06-01,清算の結了等,,,2015-10-05,1,,,,,コバヤシコウムテン,0
88,1020001111066,登記記録の閉鎖等,0,2023-06-06,2023-06-01,株式会社エスピーシステム,,株式会社,神奈川県,横浜市港北区,綱島東５丁目２８番２号,,14,109,2230052,,,2023-06-01,清算の結了等,,,2015-10-05,1,,,,,エスピーシステム,0
112,1030002026576,登記記録の閉鎖等,0,2023-06-06,2023-05-19,有限会社ティーテルドラッグ,,有限会社,埼玉県,戸田市,上戸田２丁目３３番１１号,,11,224,3350022,,,2023-05-19,清算の結了等,,,2015-10-05,1,,,,,ティーテルドラッグ,0
137,1070002001575,登記記録の閉鎖等,0,2023-06-06,2023-05-31,有限会社季久村,,有限会社,群馬県,前橋市,敷島町２４１番地１２,,10,201,3710036,,,2023-05-31,清算の結了等,,,2015-10-05,1,,,,,キクムラ,0
182,1130001016155,登記記録の閉鎖等,0,2023-06-06,2023-06-01,関西建設株式会社,,株式会社,京都府,京都市西京区,大枝北沓掛町４丁目９番地の１０,,26,111,6101101,,,2023-06-01,清算の結了等,,,2015-10-05,1,,,,,カンサイケンセツ,0
200,1180001127625,登記記録の閉鎖等,0,2023-06-06,2023-06-01,株式会社山本組,,株式会社,愛知県,岩倉市,中央町２丁目２番地,,23,228,4820023,,,2023-06-01,清算の結了等,,,2017-05-10,1,,,,,ヤマモトグミ,0
210,1180003020976,登記記録の閉鎖等,0,2023-06-06,2023-05-31,合同会社Ｋ,,合同会社,愛知県,春日井市,味美白山町１丁目１７番地３,,23,206,4860969,,,2023-05-31,清算の結了等,,,2020-03-23,1,,,,,ケイ,0
217,1190002019267,登記記録の閉鎖等,0,2023-06-06,2023-06-01,有限会社井上建設,,有限会社,三重県,四日市市,元新町４番６号,,24,202,5100095,,,2023-06-01,清算の結了等,,,2015-10-05,1,,,,,イノウエケンセツ,0
224,1200002015289,登記記録の閉鎖等,0,2023-06-06,2023-06-02,有限会社伊藤業務店,,有限会社,岐阜県,揖斐郡池田町,杉野１３４番地,,21,404,5032411,,,2023-06-02,清算の結了等,,,2015-10-05,1,,,,,イトウギョウムテン,0
228,1220002010528,登記記録の閉鎖等,0,2023-06-06,2023-06-01,有限会社九谷紀代,,有限会社,石川県,小松市,西軽海町４丁目１６９番地,,17,203,9230825,,,2023-06-01,清算の結了等,,,2015-10-05,1,,,,,クタニキヨ,0
234,1240002007943,登記記録の閉鎖等,0,2023-06-06,2023-06-02,有限会社住建サービス,,有限会社,広島県,広島市安芸区,矢野西４丁目８番６号,,34,107,7360085,,,2023-06-02,清算の結了等,,,2015-10-05,1,,,,,ジュウケンサービス,0
237,1240002030391,登記記録の閉鎖等,0,2023-06-06,2023-06-05,有限会社宮田ゴム工業所,,有限会社,広島県,三次市,三次町１６１４番地,,34,209,7280021,,,2023-06-05,清算の結了等,,,2015-10-05,1,,,,,ミヤタゴムコウギョウショ,0
239,1250001009510,登記記録の閉鎖等,0,2023-06-06,2023-05-30,山陽塗装株式会社,,株式会社,山口県,下松市,大字笠戸島７０８番地,,35,207,7440001,,,2023-05-30,清算の結了等,,,2015-10-05,1,,,,,サンヨウトソウ,0
249,1290001047317,登記記録の閉鎖等,0,2023-06-06,2023-06-01,株式会社ダイヤハウス,,株式会社,福岡県,八女郡広川町,大字川上５５０番地,,40,544,8340113,,,2023-06-01,清算の結了等,,,2015-10-05,1,,,,,ダイヤハウス,0
275,1350001004187,登記記録の閉鎖等,0,2023-06-06,2023-06-01,株式会社村岡ホンダ販売,,株式会社,宮崎県,東諸県郡国富町,大字本庄字十日町４８５６番地の３,,45,382,8801101,,,2023-06-01,清算の結了等,,,2015-10-05,1,,,,,ムラオカホンダハンバイ,0
279,1360002013203,登記記録の閉鎖等,0,2023-06-06,2023-06-01,有限会社オリオン家具販売,,有限会社,沖縄県,うるま市,字州崎１３番地１６,,47,213,9042234,,,2023-06-01,清算の結了等,,,2015-10-05,1,,,,,オリオンカグハンバイ,0
324,2010001143811,登記記録の閉鎖等,0,2023-06-06,2023-06-01,株式会社プロスト,,株式会社,東京都,江東区,新大橋１丁目１２番１３号,,13,108,1350007,,,2023-06-01,合併による解散等,5010601006745,令和５年６月１日東京都江東区新大橋一丁目８番７号株式会社明祥（5010601006745）に合併し解散,2015-10-05,1,,,,,プロスト,0
348,2010401160324,登記記録の閉鎖等,0,2023-06-06,2023-05-26,リアクティブリアリティ・ジャパン株式会社,,株式会社,東京都,港区,港南１丁目９番３６号,,13,103,1080075,,,2023-05-26,清算の結了等,,,2021-05-21,1,,,,,リアクティブリアリティジャパン,0
368,2010803003279,登記記録の閉鎖等,0,2023-06-06,2023-05-31,合同会社Ｒクリエーション,,合同会社,東京都,大田区,南六郷２丁目３５番２－３１１号,,13,111,1440045,,,2023-05-31,清算の結了等,,,2020-03-02,1,,,,,アールクリエーション,0
388,2011005006921,登記記録の閉鎖等,0,2023-06-06,2023-05-30,一般社団法人渋谷クリエイティブタウン,,その他の設立登記法人,東京都,渋谷区,道玄坂１丁目３番８号丸共ビル,,13,113,1500043,,,2023-05-30,清算の結了等,,,2016-09-29,1,,,,,シブヤクリエイティブタウン,0
389,2011101024950,登記記録の閉鎖等,0,2023-06-06,2023-06-05,株式会社平野会計事務所,,株式会社,東京都,新宿区,高田馬場４丁目２９番１０号,,13,104,1690075,,,2023-06-05,清算の結了等,,,2015-10-05,1,,,,,ヒラノカイケイジムショ,0
396,2011301027175,登記記録の閉鎖等,0,2023-06-06,2023-05-30,アストロボックス株式会社,,株式会社,東京都,杉並区,上荻２丁目２０－１２メゾンド上荻１０１,,13,115,1670043,,,2023-05-30,清算の結了等,,,2021-09-15,1,,,,,アストロボックス,0
417,2020001149956,登記記録の閉鎖等,0,2023-06-06,2023-06-01,株式会社エクソルメンテナンスサービス,,株式会社,京都府,京都市中京区,烏丸通錦小路上る手洗水町６５９烏丸中央ビル,,26,104,6048152,,,2023-06-01,合併による解散等,1130001024331,令和５年６月１日京都市中京区烏丸通錦小路上ル手洗水町６５９烏丸中央ビル株式会社エクソル（1130001024331）に合併し解散,2023-01-23,1,,,,,エクソルメンテナンスサービス,0
439,2040001006180,登記記録の閉鎖等,0,2023-06-06,2023-05-23,八建電設株式会社,,株式会社,千葉県,千葉市若葉区,愛生町１４番地の３,,12,104,2640031,,,2023-05-23,清算の結了等,,,2015-10-05,1,,,,,ハチケンデンセツ,0
442,2040001087799,登記記録の閉鎖等,0,2023-06-06,2023-05-19,株式会社ｐｏｒｃｏ,,株式会社,千葉県,千葉市美浜区,幕張西４丁目２番１－４１９号,,12,106,2610026,,,2023-05-19,清算の結了等,,,2015-10-05,1,,,,,ポルコ,0
481,2110001027376,登記記録の閉鎖等,0,2023-06-06,2023-06-01,株式会社セブンサービス０３,,株式会社,新潟県,新潟市西区,坂井東６丁目６番１９号,,15,107,9502041,,,2023-06-01,合併による解散等,9110003001026,令和５年６月１日新潟市中央区二葉町二丁目５１６７番地合資会社新潟ビル（9110003001026）に合併し解散,2015-10-05,1,,,,,,0
502,2120003017457,登記記録の閉鎖等,0,2023-06-06,2023-05-29,合同会社Ｌｉｅｎ　Ｐｒｏ,,合同会社,大阪府,寝屋川市,豊里町３２番５７号,,27,215,5720071,,,2023-05-29,清算の結了等,,,2020-05-25,1,,,,,リアンプロ,0
513,2120902000802,登記記録の閉鎖等,0,2023-06-06,2023-05-29,三栄工機有限会社,,有限会社,大阪府,茨木市,大字泉原１１０３番地,,27,211,5680097,,,2023-05-29,清算の結了等,,,2015-10-05,1,,,,,サンエイコウキ,0
539,2170002011101,登記記録の閉鎖等,0,2023-06-06,2023-06-01,有限会社御菓子処つくし,,有限会社,和歌山県,新宮市,橋本２丁目１１番４号,,30,207,6470052,,,2023-06-01,清算の結了等,,,2015-10-05,1,,,,,,0
557,2200001016196,登記記録の閉鎖等,0,2023-06-06,2023-06-01,株式会社オートサービス丸進,,株式会社,岐阜県,揖斐郡池田町,草深３番地の２,,21,404,5032418,,,2023-06-01,合併による解散等,1200001016296,令和５年６月１日岐阜県揖斐郡池田町草深３番地の２株式会社丸進自動車（1200001016296）に合併し解散,2015-10-05,1,,,,,オートサービスマルシン,0
569,2230001015179,登記記録の閉鎖等,0,2023-06-06,2023-06-02,株式会社グラン・ジュテ,,株式会社,富山県,富山市,呉羽町字藤塚６９２７番６０,,16,201,9300138,,,2023-06-02,清算の結了等,,,2015-10-05,1,,,,,,0
599,2310001009486,登記記録の閉鎖等,0,2023-06-06,2023-05-31,アスト南日本株式会社,,株式会社,長崎県,大村市,東三城町９番地２,,42,205,8560826,,,2023-05-31,清算の結了等,,,2015-10-05,1,,,,,アストミナミニホン,0
632,2370101000232,登記記録の閉鎖等,0,2023-06-06,2023-06-02,宮城丸高株式会社,,株式会社,宮城県,柴田郡大河原町,大谷字稗田前１０３番地の１,00082533,04,321,9891201,,,2023-06-02,清算の結了等,,,2015-10-05,1,,,,,ミヤギマルタカ,0
635,2380001020148,登記記録の閉鎖等,0,2023-06-06,2023-05-31,株式会社ｎｅｗｓｔｙｌｅ，ｔｒｉｃｏ,,株式会社,福島県,福島市,鎌田字一里塚５番地の２２,,07,201,9600102,,,2023-05-31,清算の結了等,,,2015-10-05,1,,,,,ニュースタイルトリコ,0
656,2470001013662,登記記録の閉鎖等,0,2023-06-06,2023-05-31,町の安心株式会社,,株式会社,香川県,高松市,浜ノ町６番２２号サーパス浜ノ町２－４０７,,37,201,7600011,,,2023-05-31,清算の結了等,,,2015-10-05,1,,,,,マチノアンシン,0
669,3010001219684,登記記録の閉鎖等,0,2023-06-06,2023-06-01,株式会社ＹＫ不動産,,株式会社,東京都,千代田区,九段北１丁目５番９号,,13,101,1020073,,,2023-06-01,合併による解散等,3090001013254,令和５年６月１日東京都千代田区九段北一丁目５番９号株式会社ＹＫキャピタル（3090001013254）に合併し解散,2021-07-13,1,,,,,ワイケイフドウサン,0
689,3010501001344,登記記録の閉鎖等,0,2023-06-06,2023-06-01,越中屋商事株式会社,,株式会社,東京都,台東区,台東４丁目２８番７号,,13,106,1100016,,,2023-06-01,清算の結了等,,,2015-10-05,1,,,,,,0
703,3011001073634,登記記録の閉鎖等,0,2023-06-06,2023-05-26,株式会社ＩＫＵ,,株式会社,東京都,港区,三田２丁目１４番５号,,13,103,1080073,,,2023-05-26,清算の結了等,,,2015-10-05,1,,,,,アイケーユー,0
704,3011001127464,登記記録の閉鎖等,0,2023-06-06,2023-05-31,株式会社ＲｉｅｌＷＥＢ,,株式会社,東京都,渋谷区,渋谷３丁目１番９号ＹＡＺＡＷＡビル３階,,13,113,1500002,,,2023-05-31,清算の結了等,,,2019-04-11,1,,,,,リエルウェブ,0
723,3011501019748,登記記録の閉鎖等,0,2023-06-06,2023-06-01,株式会社Ｈ・Ｉ・Ｔ　ＣＲＥＡＴＩＯＮ,,株式会社,東京都,北区,赤羽西１丁目３６番８－２０１号アールアカバネ,,13,117,1150055,,,2023-06-01,清算の結了等,,,2015-10-05,1,,,,,,0
738,3020001053034,登記記録の閉鎖等,0,2023-06-06,2023-06-01,斎藤塗装工業株式会社,,株式会社,神奈川県,横浜市鶴見区,元宮２丁目５番３９号,,14,101,2300004,,,2023-06-01,清算の結了等,,,2015-10-05,1,,,,,サイトウトソウコウギョウ,0
760,3030005012919,登記記録の閉鎖等,0,2023-06-06,2023-06-05,一般財団法人東北アジア国際教育基金,,その他の設立登記法人,東京都,台東区,東上野２丁目１５－４,,13,106,1100015,,,2023-06-05,清算の結了等,,,2015-10-05,1,,,,,,0
806,3110002015619,登記記録の閉鎖等,0,2023-06-06,2023-06-01,有限会社友建事業,,有限会社,新潟県,新発田市,富塚町１丁目１番２５号,,15,206,9570062,,,2023-06-01,清算の結了等,,,2015-10-05,1,,,,,ユウケンジギョウ,0
846,3160001009419,登記記録の閉鎖等,0,2023-06-06,2023-05-31,ミキエンタープライズ株式会社,,株式会社,東京都,渋谷区,渋谷３丁目１番９号ＹＡＺＡＷＡビル３階,,13,113,1500002,,,2023-05-31,清算の結了等,,,2015-10-05,1,,,,,ミキエンタープライズ,0
855,3180001069510,登記記録の閉鎖等,0,2023-06-06,2023-05-31,株式会社村松製作所,,株式会社,愛知県,豊明市,新田町森西３１番地１,,23,229,4701112,,,2023-05-31,合併による解散等,6180001110576,令和５年５月３１日愛知県豊明市新田町森西３１番地１株式会社村松製作所（6180001110576）に合併し解散,2015-10-05,1,,,,,ムラマツセイサクショ,0
858,3180001131212,登記記録の閉鎖等,0,2023-06-06,2023-06-02,物件会議株式会社,,株式会社,愛知県,名古屋市中区,富士見町３番２９号,,23,106,4600014,,,2023-06-02,合併による解散等,8180001102695,令和５年６月２日名古屋市中区富士見町３番２９号株式会社ホームパーティ（8180001102695）に合併し解散,2018-02-14,1,,,,,ブッケンカイギ,0
896,3250001009731,登記記録の閉鎖等,0,2023-06-06,2023-05-31,株式会社周北設備,,株式会社,山口県,周南市,大字須々万本郷９８３番地の１,,35,215,7450122,,,2023-05-31,清算の結了等,,,2015-10-05,1,,,,,シュウホクセツビ,0
920,3310001001376,登記記録の閉鎖等,0,2023-06-06,2023-06-02,長崎船舶コンサルタント株式会社,,株式会社,長崎県,長崎市,戸町４丁目１番１８号,,42,201,8500952,,,2023-06-02,清算の結了等,,,2015-10-05,1,,,,,ナガサキセンパクコンサルタント,0
946,3370001019784,登記記録の閉鎖等,0,2023-06-06,2023-06-01,株式会社ハンドベル,,株式会社,宮城県,仙台市泉区,南中山１丁目２８番地の１８輝ビル１階,,04,105,9813213,,,2023-06-01,合併による解散等,5370001012614,令和５年６月１日宮城県仙台市泉区南中山一丁目２８番地の１８輝ビル１階株式会社東日本医療福祉研究所（5370001012614）に合併し解散,2015-10-05,1,,,,,ハンドベル,0
955,3380002022349,登記記録の閉鎖等,0,2023-06-06,2023-06-01,有限会社泉流通,,有限会社,福島県,いわき市,勿来町窪田町通１丁目５番地,,07,204,9790141,,,2023-06-01,清算の結了等,,,2015-10-05,1,,,,,イズミリュウツウ,0
976,3470001006426,登記記録の閉鎖等,0,2023-06-06,2023-06-01,株式会社クリエイト,,株式会社,香川県,高松市,朝日新町１７番１５号,,37,201,7600064,,,2023-06-01,清算の結了等,,,2015-10-05,1,,,,,クリエイト,0
978,3470001017679,登記記録の閉鎖等,0,2023-06-06,2023-05-29,株式会社Ｓｗａｒｍ,,株式会社,香川県,高松市,錦町２丁目１６番３４号,,37,201,7600020,,,2023-05-29,清算の結了等,,,2019-10-03,1,,,,,スワーム,0
1005,4010005021086,登記記録の閉鎖等,0,2023-06-06,2023-05-29,ＲＷ佐倉特定目的会社,,その他の設立登記法人,東京都,港区,赤坂２丁目１０番５号税理士法人赤坂国際会計事務所内,,13,103,1070052,,,2023-05-29,清算の結了等,,,2015-10-05,1,,,,,アールダブリューサクラ,0
1009,4010401069209,登記記録の閉鎖等,0,2023-06-06,2023-06-01,株式会社ディスカバリー・エンターテインメント,,株式会社,東京都,渋谷区,神泉町９番８号渋谷ビル６Ｆ,,13,113,1500045,,,2023-06-01,清算の結了等,,,2015-10-05,1,,,,,ディスカバリーエンターテインメント,0
1036,4010903006270,登記記録の閉鎖等,0,2023-06-06,2023-05-30,ＧＵＬＬ　ＡＲＣＨＩＴＥＣＴ合同会社,,合同会社,東京都,世田谷区,下馬４丁目２７番１３号１０３,,13,112,1540002,,,2023-05-30,清算の結了等,,,2021-02-15,1,,,,,ガルアーキテクト,0
1053,4011105009186,登記記録の閉鎖等,0,2023-06-06,2023-05-30,一般財団法人未来創造研究所,,その他の設立登記法人,東京都,渋谷区,上原１丁目３番９号,,13,113,1510064,,,2023-05-30,清算の結了等,,,2019-12-05,1,,,,,ミライソウゾウケンキュウショ,0
1063,4011701020216,登記記録の閉鎖等,0,2023-06-06,2023-06-01,株式会社ａｋｔｉｓ,,株式会社,東京都,江戸川区,中葛西７丁目９番１６号,,13,123,1340083,,,2023-06-01,清算の結了等,,,2016-09-23,1,,,,,,0
1102,4030002069234,登記記録の閉鎖等,0,2023-06-06,2023-05-22,有限会社古橋米菓,,有限会社,埼玉県,春日部市,備後東２丁目１７番５１号,,11,214,3440032,,,2023-05-22,清算の結了等,,,2015-10-05,1,,,,,フルハシベイカ,0
1128,4060002038145,登記記録の閉鎖等,0,2023-06-06,2023-05-29,有限会社ティーモールド,,有限会社,栃木県,足利市,樺崎町１０９２番地,,09,202,3260004,,,2023-05-29,清算の結了等,,,2015-10-05,1,,,,,ティーモールド,0
1148,4120001180593,登記記録の閉鎖等,0,2023-06-06,2023-05-31,株式会社奥誠商事,,株式会社,大阪府,大阪市西区,新町１丁目５番７号,,27,106,5500013,,,2023-05-31,合併による解散等,7120001138250,令和５年５月３１日大阪市西区新町一丁目５番７号株式会社奥誠環境商事（7120001138250）に合併し解散,2015-10-05,1,,,,,,0
1180,4140005023656,登記記録の閉鎖等,0,2023-06-06,2023-05-31,特定非営利活動法人Ｌｉｅｎ絆,,その他の設立登記法人,兵庫県,神戸市兵庫区,中道通１丁目２番１１号金城ビル２Ｆ,,28,105,6520801,,,2023-05-31,清算の結了等,,,2017-07-28,1,,,,,リヤンキズナ,0
1191,4180001113663,登記記録の閉鎖等,0,2023-06-06,2023-06-01,株式会社マスナリエンジニアリング,,株式会社,愛知県,名古屋市中川区,柳島町３丁目２４番地,,23,110,4540024,,,2023-06-01,合併による解散等,7180001020865,令和５年６月１日名古屋市中川区柳島町三丁目２４番地株式会社マスナリ（7180001020865）に合併し解散,2015-10-05,1,,,,,マスナリエンジニアリング,0
1193,4180002000695,登記記録の閉鎖等,0,2023-06-06,2023-05-31,有限会社サンケイ興業,,有限会社,愛知県,名古屋市守山区,小幡宮ノ腰４番１８号,,23,113,4630052,,,2023-05-31,清算の結了等,,,2015-10-05,1,,,,,サンケイコウギョウ,0
1202,4190005009246,登記記録の閉鎖等,0,2023-06-06,2023-06-01,蓮證寺,,その他の設立登記法人,三重県,四日市市,松寺３丁目３番２８号,,24,202,5108021,,,2023-06-01,清算の結了等,,,2015-10-05,1,,,,,レンショウジ,0
1211,4230001018923,登記記録の閉鎖等,0,2023-06-06,2023-06-02,株式会社Ｍｅ　Ｔｉｍｅ,,株式会社,富山県,富山市,室町通り２丁目２番８号,,16,201,9300051,,,2023-06-02,清算の結了等,,,2021-08-05,1,,,,,ミータイム,0
1232,4260002016898,登記記録の閉鎖等,0,2023-06-06,2023-06-01,岡山サンテ有限会社,,有限会社,岡山県,倉敷市,中島８３１番地,,33,202,7100803,,,2023-06-01,合併による解散等,3260002016908,令和５年６月１日岡山県倉敷市中島８３１番地岡山ホスピタルサービス株式会社（3260002016908）に合併し解散,2015-10-05,1,,,,,オカヤマサンテ,0
1250,4320001011407,登記記録の閉鎖等,0,2023-06-06,2023-06-02,ｔｒｅｅ　ｈｏｕｓｅ株式会社,,株式会社,大分県,中津市,島田仲町７９７番地アイランドスクウェア１Ｆ,,44,203,8710035,,,2023-06-02,清算の結了等,,,2015-10-05,1,,,,,,0
1263,4350001015933,登記記録の閉鎖等,0,2023-06-06,2023-06-01,Ｊトレード株式会社,,株式会社,宮崎県,宮崎市,松橋１丁目５番２７号ＫＭビル１Ｆ,,45,201,8800013,,,2023-06-01,清算の結了等,,,2019-07-17,1,,,,,ジェイトレード,0
1276,4370001042026,登記記録の閉鎖等,0,2023-06-06,2023-06-01,株式会社ＷＩＮＤ　ＰＯＷＥＲ　ＳＴＡＴＩＯＮ風太郎,,株式会社,宮城県,遠田郡美里町,中埣字夘時７６番地,,04,505,9870024,,,2023-06-01,清算の結了等,,,2017-09-07,1,,,,,ウィンドパワーステーションフウタロウ,0
1280,4370101001880,登記記録の閉鎖等,0,2023-06-06,2023-06-01,株式会社ビジョンフォーラムネットワーク,,株式会社,宮城県,角田市,毛萱字富田１２０番地,,04,208,9811517,,,2023-06-01,清算の結了等,,,2015-10-05,1,,,,,ビジョンフォーラムネットワーク,0
1289,4420001002131,登記記録の閉鎖等,0,2023-06-06,2023-06-01,山重建設株式会社,,株式会社,青森県,青森市,旭町１丁目２番２号,,02,201,0300851,,,2023-06-01,清算の結了等,,,2015-10-05,1,,,,,ヤマジュウケンセツ,0
1301,4500001019563,登記記録の閉鎖等,0,2023-06-06,2023-06-02,株式会社はなひろ,,株式会社,愛媛県,今治市,四村２９９番地１,,38,202,7940862,,,2023-06-02,清算の結了等,,,2016-01-19,1,,,,,ハナヒロ,0
1309,5010001099092,登記記録の閉鎖等,0,2023-06-06,2023-05-31,株式会社日本医療コンサルタンツ,,株式会社,東京都,千代田区,丸の内１丁目８番３号,,13,101,1000005,,,2023-05-31,清算の結了等,,,2015-10-05,1,,,,,ニホンイリョウコンサルタンツ,0
1342,5010701026379,登記記録の閉鎖等,0,2023-06-06,2023-06-02,トップスター株式会社,,株式会社,東京都,品川区,西大井３丁目１２番１５号,,13,109,1400015,,,2023-06-02,清算の結了等,,,2015-10-05,1,,,,,トップスター,0
1391,5012701002467,登記記録の閉鎖等,0,2023-06-06,2023-06-02,ノーマトラベル株式会社,,株式会社,東京都,東久留米市,南町１丁目６番７号,,13,222,2030031,,,2023-06-02,清算の結了等,,,2015-10-05,1,,,,,ノーマトラベル,0
1437,5060001017264,登記記録の閉鎖等,0,2023-06-06,2023-05-29,高山商事株式会社,,株式会社,栃木県,下都賀郡壬生町,大字国谷字新地２０３３番地１,,09,361,3210211,,,2023-05-29,清算の結了等,,,2015-10-05,1,,,,,タカヤマショウジ,0
1449,5080001013088,登記記録の閉鎖等,0,2023-06-06,2023-06-02,株式会社コウセイ,,株式会社,静岡県,島田市,阿知ケ谷１９５番地の１,,22,209,4270006,,,2023-06-02,清算の結了等,,,2015-10-05,1,,,,,コウセイ,0
1454,5110001027373,登記記録の閉鎖等,0,2023-06-06,2023-06-01,株式会社セブンサービス０１,,株式会社,新潟県,新潟市西区,坂井東６丁目６番１９号,,15,107,9502041,,,2023-06-01,合併による解散等,9110003001026,令和５年６月１日新潟市中央区二葉町二丁目５１６７番地合資会社新潟ビル（9110003001026）に合併し解散,2015-10-05,1,,,,,,0
1472,5120101061494,登記記録の閉鎖等,0,2023-06-06,2023-06-02,株式会社Ｈｅａｒｔ　Ｐｉｔ　ａｐｓ,,株式会社,大阪府,堺市西区,浜寺船尾町東２丁２３７番地,,27,144,5928341,,,2023-06-02,清算の結了等,,,2020-04-07,1,,,,,ハートピットエーピーエス,0
1476,5120901032422,登記記録の閉鎖等,0,2023-06-06,2023-06-01,株式会社オージーエス,,株式会社,大阪府,吹田市,千里山西６丁目１６番７号,,27,205,5650851,,,2023-06-01,清算の結了等,,,2015-10-05,1,,,,,オージーエス,0
1481,5122001001968,登記記録の閉鎖等,0,2023-06-06,2023-06-05,株式会社共進施工,,株式会社,大阪府,東大阪市,六万寺町２丁目６番５２号,,27,227,5798061,,,2023-06-05,清算の結了等,,,2015-10-05,1,,,,,キョウシンセコウ,0
1510,5180002020544,登記記録の閉鎖等,0,2023-06-06,2023-06-02,有限会社東洋地建,,有限会社,愛知県,名古屋市熱田区,西野町３丁目２８番地の２,,23,109,4560063,,,2023-06-02,清算の結了等,,,2015-10-05,1,,,,,トウヨウチケン,0
1542,5240001033771,登記記録の閉鎖等,0,2023-06-06,2023-06-01,マルス興株式会社,,株式会社,広島県,福山市,新市町大字常１４５０番地,,34,207,7293107,,,2023-06-01,清算の結了等,,,2015-10-05,1,,,,,マルスコウ,0
1547,5250001000556,登記記録の閉鎖等,0,2023-06-06,2023-05-31,山口信販株式会社,,株式会社,山口県,山口市,米屋町２番２６号,,35,203,7530087,,,2023-05-31,清算の結了等,,,2015-10-05,1,,,,,ヤマグチシンパン,0
1563,5340001002469,登記記録の閉鎖等,0,2023-06-06,2023-06-05,第一都市開発株式会社,,株式会社,鹿児島県,鹿児島市,中央町５番地４１ト－カン白雲６０５,,46,201,8900053,,,2023-06-05,清算の結了等,,,2015-10-05,1,,,,,ダイイチトシカイハツ,0
1581,5370005009053,登記記録の閉鎖等,0,2023-06-06,2023-06-01,特定非営利活動法人日本熱科学研究支援機構,,その他の設立登記法人,宮城県,仙台市青葉区,国分町３丁目９番７－１１０１号,,04,101,9800803,,,2023-06-01,清算の結了等,,,2016-08-05,1,,,,,ニホンネツカガクケンキュウシエンキコウ,0
1652,6010701039553,登記記録の閉鎖等,0,2023-06-06,2023-06-01,港クリーク株式会社,,株式会社,東京都,品川区,大崎４丁目２番１３－５０３号,,13,109,1410032,,,2023-06-01,合併による解散等,5010701039463,令和５年６月１日東京都品川区大崎四丁目２番１３－５０３号品川バフィ株式会社（5010701039463）に合併し解散,2020-07-17,1,,,,,,0
1683,6011302004962,登記記録の閉鎖等,0,2023-06-06,2023-06-01,有限会社菅原商店,,有限会社,東京都,杉並区,井草２丁目２４番１１号,,13,115,1670021,,,2023-06-01,清算の結了等,,,2015-10-05,1,,,,,スガワラショウテン,0
1765,6040002030135,登記記録の閉鎖等,0,2023-06-06,2023-05-19,有限会社ヘルスケアシステム研究所,,有限会社,千葉県,八千代市,大和田新田９７４番地１号,,12,221,2760046,,,2023-05-19,清算の結了等,,,2015-10-05,1,,,,,,0
1782,6080101017186,登記記録の閉鎖等,0,2023-06-06,2023-06-01,ＦＰＩ株式会社,,株式会社,静岡県,三島市,芝本町１１番２６号,,22,206,4110857,,,2023-06-01,合併による解散等,9080101016490,令和５年６月１日静岡県三島市芝本町１１番２６号株式会社ワークフェア（9080101016490）に合併し解散,2015-10-05,1,,,,,エフピーアイ,0
1783,6080101020652,登記記録の閉鎖等,0,2023-06-06,2023-05-31,株式会社伊豆温泉管理,,株式会社,静岡県,熱海市,水口町２丁目３番８号,,22,205,4130016,,,2023-05-31,清算の結了等,,,2018-08-23,1,,,,,イズオンセンカンリ,0
1789,6110001027372,登記記録の閉鎖等,0,2023-06-06,2023-06-01,株式会社セブン流通０２,,株式会社,新潟県,新潟市中央区,紫竹山５丁目４番１５号,,15,103,9500914,,,2023-06-01,合併による解散等,9110003001026,令和５年６月１日新潟市中央区二葉町二丁目５１６７番地合資会社新潟ビル（9110003001026）に合併し解散,2015-10-05,1,,,,,,0
1794,6120001014774,登記記録の閉鎖等,0,2023-06-06,2023-06-02,株式会社ケイツウカンパニー,,株式会社,大阪府,大阪市城東区,中央２丁目１４番Ｃ３１０１,,27,118,5360005,,,2023-06-02,清算の結了等,,,2015-10-05,1,,,,,ケイツウカンパニー,0
1796,6120001223490,登記記録の閉鎖等,0,2023-06-06,2023-06-05,株式会社ロイハート,,株式会社,兵庫県,神戸市垂水区,山手７丁目４番６号,,28,108,6550891,,,2023-06-05,清算の結了等,,,2019-09-05,1,,,,,ロイハート,0
1836,6170002006659,登記記録の閉鎖等,0,2023-06-06,2023-06-01,リビングショップ和歌山有限会社,,有限会社,和歌山県,海南市,且来１３９６番地の１,,30,202,6420015,,,2023-06-01,合併による解散等,9170001005758,令和５年６月１日和歌山県海南市且来１３９６番地の１タケヤテック株式会社（9170001005758）に合併し解散,2015-10-05,1,,,,,リビングショップワカヤマ,0
1848,6180301004354,登記記録の閉鎖等,0,2023-06-06,2023-05-30,株式会社ライズ,,株式会社,愛知県,岡崎市,赤渋町字上池３６番地１,,23,202,4440241,,,2023-05-30,清算の結了等,,,2015-10-05,1,,,,,,0
1857,6200001019195,登記記録の閉鎖等,0,2023-06-06,2023-06-01,篠田木材株式会社,,株式会社,岐阜県,美濃市,２８８１番地の７８,,21,207,5013701,,,2023-06-01,清算の結了等,,,2015-10-05,1,,,,,シノダモクザイ,0
1863,6230002006875,登記記録の閉鎖等,0,2023-06-06,2023-06-01,有限会社あだちＰＡＳ企画,,有限会社,富山県,富山市,豊城町６番４号,,16,201,9318324,,,2023-06-01,清算の結了等,,,2015-10-05,1,,,,,アダチパスキカク,0
1871,6240002000316,登記記録の閉鎖等,0,2023-06-06,2023-06-02,有限会社メロディ,,有限会社,広島県,東広島市,高屋町檜山４４９番地６,,34,212,7390000,,,2023-06-02,清算の結了等,,,2015-10-05,1,,,,,メロディ,0
1889,6290802002151,登記記録の閉鎖等,0,2023-06-06,2023-06-02,有限会社ケイアイ,,有限会社,福岡県,北九州市小倉北区,魚町２丁目１番１５号,,40,106,8020006,,,2023-06-02,清算の結了等,,,2015-10-05,1,,,,,ケイアイ,0
1897,6330001021163,登記記録の閉鎖等,0,2023-06-06,2023-06-01,農村みらい研究所株式会社,,株式会社,熊本県,上益城郡山都町,鶴ケ田２０９５番地,,43,447,8613812,,,2023-06-01,清算の結了等,,,2015-10-05,1,,,,,ノウソンミライケンキュウショ,0
1901,6330002016815,登記記録の閉鎖等,0,2023-06-06,2023-06-01,有限会社萌,,有限会社,熊本県,熊本市南区,江越２丁目３番１－３０４号,,43,104,8600834,,,2023-06-01,合併による解散等,8180003018493,令和５年６月１日熊本市南区江越二丁目３番１－３０４号株式会社アメックファーマシー（8180003018493）に合併し解散,2015-10-05,1,,,,,モエ,0
1942,6430003007646,登記記録の閉鎖等,0,2023-06-06,2023-05-31,合同会社ビジネスマーセナリー,,合同会社,東京都,千代田区,九段南１丁目５番６号りそな九段ビル５ＦＫＳフロア,,13,101,1020074,,,2023-05-31,清算の結了等,,,2016-06-08,1,,,,,ビジネスマーセナリー,0
1967,7010002023207,登記記録の閉鎖等,0,2023-06-06,2023-06-01,有限会社桃乳舎,,有限会社,東京都,中央区,日本橋小網町１３番１３号,,13,102,1030016,,,2023-06-01,清算の結了等,,,2015-10-05,1,,,,,トウニュウシャ,0
1984,7010601034397,登記記録の閉鎖等,0,2023-06-06,2023-06-01,創栄印刷工業株式会社,,株式会社,東京都,江東区,新大橋１丁目８番７号,,13,108,1350007,,,2023-06-01,合併による解散等,5010601006745,令和５年６月１日東京都江東区新大橋一丁目８番７号株式会社明祥（5010601006745）に合併し解散,2015-10-05,1,,,,,ソウエイインサツコウギョウ,0
2013,7011401003385,登記記録の閉鎖等,0,2023-06-06,2023-06-02,株式会社ステージファクトリー,,株式会社,東京都,板橋区,成増１丁目２６番２号,,13,119,1750094,,,2023-06-02,清算の結了等,,,2015-10-05,1,,,,,ステージファクトリー,0
2015,7011503002624,登記記録の閉鎖等,0,2023-06-06,2023-06-01,炉都合同会社,,合同会社,東京都,北区,赤羽２丁目５８番３号,,13,117,1150045,,,2023-06-01,清算の結了等,,,2015-10-05,1,,,,,ローズ,0
2025,7012302002179,登記記録の閉鎖等,0,2023-06-06,2023-06-02,有限会社栄工業,,有限会社,東京都,町田市,本町田３１４６番地１２,,13,209,1940032,,,2023-06-02,清算の結了等,,,2015-10-05,1,,,,,サカエコウギョウ,0
2031,7012701011292,登記記録の閉鎖等,0,2023-06-06,2023-06-02,株式会社ドラゴン,,株式会社,東京都,西東京市,芝久保町１丁目７番１３号田無永谷マンション６１３号室,,13,229,1880014,,,2023-06-02,清算の結了等,,,2015-10-05,1,,,,,,0
2034,7013201005644,登記記録の閉鎖等,0,2023-06-06,2023-05-31,株式会社三木精機,,株式会社,東京都,目黒区,目黒本町５丁目１８番１１号,,13,110,1520002,,,2023-05-31,清算の結了等,,,2015-10-05,1,,,,,ミキセイキ,0
2057,7030001123253,登記記録の閉鎖等,0,2023-06-06,2023-05-19,株式会社イタバシ商事,,株式会社,埼玉県,川口市,大字榛松１５６９番地,,11,203,3340062,,,2023-05-19,清算の結了等,,,2017-12-05,1,,,,,イタバシショウジ,0
2064,7030003014046,登記記録の閉鎖等,0,2023-06-06,2023-05-23,聖企画合同会社,,合同会社,埼玉県,越谷市,中町９番６号野崎ビル３０１,,11,222,3430817,,,2023-05-23,清算の結了等,,,2019-09-04,1,,,,,ヒジリキカク,0
2083,7060001026073,登記記録の閉鎖等,0,2023-06-06,2023-05-29,株式会社エブリワングループ,,株式会社,栃木県,宇都宮市,川田町１０４８番地５,,09,201,3210111,,,2023-05-29,清算の結了等,,,2015-10-05,1,,,,,エブリワングループ,0
2089,7080001012559,登記記録の閉鎖等,0,2023-06-06,2023-05-31,株式会社シンコー・エキスプレス,,株式会社,静岡県,静岡市清水区,蜂ヶ谷１０６番地の４,,22,103,4240003,,,2023-05-31,清算の結了等,,,2015-10-05,1,,,,,シンコーエキスプレス,0
2092,7080101019272,登記記録の閉鎖等,0,2023-06-06,2023-06-01,ウェルエル株式会社,,株式会社,静岡県,三島市,芝本町１１番２６号,,22,206,4110857,,,2023-06-01,合併による解散等,9080101016490,令和５年６月１日静岡県三島市芝本町１１番２６号株式会社ワークフェア（9080101016490）に合併し解散,2016-08-05,1,,,,,ウェルエル,0
2106,7110001027371,登記記録の閉鎖等,0,2023-06-06,2023-06-01,株式会社セブンサービス０２,,株式会社,新潟県,新潟市西区,坂井東６丁目６番１９号,,15,107,9502041,,,2023-06-01,合併による解散等,9110003001026,令和５年６月１日新潟市中央区二葉町二丁目５１６７番地合資会社新潟ビル（9110003001026）に合併し解散,2015-10-05,1,,,,,,0
2111,7120001195275,登記記録の閉鎖等,0,2023-06-06,2023-05-31,Ｇｒｏｕｎｄ　Ｓｗｅｌｌ　Ｉｎｔｅｒｎａｔｉｏｎａｌ株式会社,,株式会社,大阪府,大阪市東住吉区,中野４丁目１５－２７,,27,121,5460012,,,2023-05-31,合併による解散等,8120001195274,令和５年５月２２日大阪市東住吉区湯里二丁目１８番１１－２０４号ＢＬａｂｏ株式会社（8120001195274）に合併し解散,2015-12-22,1,,,,,グラウンドスウェルインターナショナル,0
2125,7120005007022,登記記録の閉鎖等,0,2023-06-06,2023-06-02,関西生花市場協同組合,00031906,その他の設立登記法人,大阪府,大阪市鶴見区,茨田大宮２丁目７－７０,,27,124,5380031,,,2023-06-02,清算の結了等,,,2015-10-05,1,,,,,カンサイセイカイチバ,0
2128,7120101002810,登記記録の閉鎖等,0,2023-06-06,2023-06-02,株式会社クレアコーポレーション,,株式会社,大阪府,堺市堺区,陵西通３番２４号,,27,141,5900041,,,2023-06-02,清算の結了等,,,2015-10-05,1,,,,,クレアコーポレーション,0
2137,7130001021843,登記記録の閉鎖等,0,2023-06-06,2023-06-01,株式会社友広建築設計室,,株式会社,京都府,京都市中京区,河原町通三条上る下丸屋町４１７番地２,,26,104,6048006,,,2023-06-01,清算の結了等,,,2015-10-05,1,,,,,トモヒロケンチクセッケイシツ,0
2162,7180001141042,登記記録の閉鎖等,0,2023-06-06,2023-06-01,株式会社ＮＡテック,,株式会社,愛知県,名古屋市中川区,中郷３丁目２８１番地,,23,110,4540921,,,2023-06-01,合併による解散等,3180001061244,令和５年６月１日名古屋市中川区助光三丁目１００６番地金澤工業株式会社（3180001061244）に合併し解散,2020-05-12,1,,,,,エヌエーテック,0
2165,7180002071635,登記記録の閉鎖等,0,2023-06-06,2023-06-01,有限会社要製作所,,有限会社,愛知県,瀬戸市,田端町２丁目７８番地の３,,23,204,4890921,,,2023-06-01,清算の結了等,,,2015-10-05,1,,,,,カナメセイサクジョ,0
2177,7220003002997,登記記録の閉鎖等,0,2023-06-06,2023-05-26,合同会社ＣＯＮＪＡＣ,,合同会社,石川県,野々市市,粟田３丁目８０番地１,,17,212,9218823,,,2023-05-26,清算の結了等,,,2021-03-24,1,,,,,コニャック,0
2202,7290002049728,登記記録の閉鎖等,0,2023-06-06,2023-06-01,有限会社サンダー,,有限会社,福岡県,久留米市,高良内町４４２９番地２,,40,203,8390852,,,2023-06-01,清算の結了等,,,2015-10-05,1,,,,,サンダー,0
2210,7320002020354,登記記録の閉鎖等,0,2023-06-06,2023-06-02,有限会社穐吉機材加工所,,有限会社,大分県,中津市,大字定留１２９８番地,,44,203,8790122,,,2023-06-02,清算の結了等,,,2015-10-05,1,,,,,,0
2236,7430001064498,登記記録の閉鎖等,0,2023-06-06,2023-06-01,ＳＴ　Ｗｏｒｌｄ　Ｍａｒｋｅｔ株式会社,,株式会社,北海道,函館市,高丘町３２番１６号,,01,202,0420955,,,2023-06-01,清算の結了等,,,2015-10-05,1,,,,,エスティワールドマーケット,0
2240,7450001006176,登記記録の閉鎖等,0,2023-06-06,2023-06-02,株式会社ＫＯＥＩ,,株式会社,北海道,旭川市,豊岡十条３丁目２番２号,,01,204,0788240,,,2023-06-02,清算の結了等,,,2015-10-05,1,,,,,コーエイ,0
2250,7480005005915,登記記録の閉鎖等,0,2023-06-06,2023-06-02,特定非営利活動法人マミーズ,,その他の設立登記法人,徳島県,那賀郡那賀町,仁宇字学原２５番地４,,36,368,7715208,,,2023-06-02,清算の結了等,,,2015-10-05,1,,,,,マミーズ,0
2254,7500003002382,登記記録の閉鎖等,0,2023-06-06,2023-06-01,道海海運合同会社,,合同会社,愛媛県,今治市,馬越町２丁目５番１０号,,38,202,7940062,,,2023-06-01,合併による解散等,9500001013594,令和５年６月１日愛媛県今治市馬越町二丁目５番１０号大道海運株式会社（9500001013594）に合併し解散,2020-01-22,1,,,,,ドウカイカイウン,0
2255,7500005008485,登記記録の閉鎖等,0,2023-06-06,2023-06-02,社会保険労務士法人えんむすび,,その他の設立登記法人,愛媛県,松山市,北梅本町２７７５番地,,38,201,7910242,,,2023-06-02,清算の結了等,,,2022-04-21,1,,,,,エンムスビ,0
2292,8010403019364,登記記録の閉鎖等,0,2023-06-06,2023-05-26,Ｍｕｒａｎｏ４合同会社,,合同会社,東京都,港区,虎ノ門４丁目１番２８号,,13,103,1050001,,,2023-05-26,清算の結了等,,,2018-09-21,1,,,,,ムラーノフォー,0
2293,8010405012540,登記記録の閉鎖等,0,2023-06-06,2023-05-29,ＲＷ佐倉一般社団法人,,その他の設立登記法人,東京都,港区,赤坂２丁目１０番５号税理士法人赤坂国際会計事務所内,,13,103,1070052,,,2023-05-29,清算の結了等,,,2015-10-05,1,,,,,アールダブリューサクラ,0
2294,8010405012904,登記記録の閉鎖等,0,2023-06-06,2023-05-26,ＲＰＡ特定目的会社,,その他の設立登記法人,東京都,港区,六本木１丁目９番１０号アークヒルズ仙石山森タワー４０階,,13,103,1060032,,,2023-05-26,清算の結了等,,,2015-10-05,1,,,,,アールピーエー,0
2313,8010803003967,登記記録の閉鎖等,0,2023-06-06,2023-05-31,合同会社新世代エネルギー第三発電所,,合同会社,東京都,大田区,中央７丁目５番６号税理士法人Ｔ＆Ａコンサルティング内,,13,111,1430024,,,2023-05-31,清算の結了等,,,2021-11-26,1,,,,,シンセダイエネルギーダイサンハツデンショ,0
2318,8011001123467,登記記録の閉鎖等,0,2023-06-06,2023-06-01,株式会社メディカルサポート,,株式会社,東京都,千代田区,外神田６丁目３番８号,,13,101,1010021,,,2023-06-01,合併による解散等,5010001231373,令和５年６月１日東京都千代田区外神田六丁目３番８号株式会社メディカルサポート（5010001231373）に合併し解散,2018-07-30,1,,,,,メディカルサポート,0
2319,8011001132105,登記記録の閉鎖等,0,2023-06-06,2023-06-05,株式会社ＡＬＥＸ　Ｄｅｓｉｇｎ　Ｗｏｒｋｓ,,株式会社,東京都,渋谷区,恵比寿西１丁目２１番３－３０１号,,13,113,1500021,,,2023-06-05,清算の結了等,,,2020-01-31,1,,,,,アレックスデザインワークス,0
2349,8011603002291,登記記録の閉鎖等,0,2023-06-06,2023-06-01,合同会社むすぶ,,合同会社,東京都,練馬区,練馬１丁目２２番５号,,13,120,1760001,,,2023-06-01,清算の結了等,,,2018-03-19,1,,,,,ムスブ,0
2356,8011801033691,登記記録の閉鎖等,0,2023-06-06,2023-05-31,株式会社ＧＡＰＳキャストマネージメント,,株式会社,東京都,葛飾区,立石８丁目２２番８－３０１号,,13,122,1240012,,,2023-05-31,清算の結了等,,,2017-08-04,1,,,,,ギャップスキャストマネージメント,0
2369,8013201016228,登記記録の閉鎖等,0,2023-06-06,2023-05-31,株式会社テクノリンク,,株式会社,東京都,大田区,久が原５丁目２１番１５号,,13,111,1460085,,,2023-05-31,清算の結了等,,,2015-10-05,1,,,,,テクノリンク,0
2371,8013305002280,登記記録の閉鎖等,0,2023-06-06,2023-05-30,一般社団法人パーフェクト個性学協会,,その他の設立登記法人,東京都,豊島区,南池袋３丁目７番８－１８０７号,,13,116,1710022,,,2023-05-30,清算の結了等,,,2015-10-05,1,,,,,パーフェクトコセイガクキョウカイ,0
2381,8021002003295,登記記録の閉鎖等,0,2023-06-06,2023-06-01,有限会社谷地工務店,,有限会社,神奈川県,藤沢市,本鵠沼１丁目２番３号,,14,205,2510028,,,2023-06-01,清算の結了等,,,2015-10-05,1,,,,,ヤチコウムテン,0
2390,8030001132996,登記記録の閉鎖等,0,2023-06-06,2023-06-01,株式会社ＵＮＩＣＯ,,株式会社,東京都,杉並区,松庵２丁目２０番８号,,13,115,1670054,,,2023-06-01,合併による解散等,5030001077708,令和５年６月１日東京都杉並区松庵二丁目２０番８号オルエット株式会社（5030001077708）に合併し解散,2019-10-01,1,,,,,ユニコ,0
2397,8040001009442,登記記録の閉鎖等,0,2023-06-06,2023-05-18,株式会社ＢＯＤＥＮ,,株式会社,千葉県,千葉市中央区,登戸３丁目１２番５号,,12,101,2600032,,,2023-05-18,合併による解散等,9040001006439,令和５年４月１日千葉県千葉市中央区新町１８番地１０ビルテック株式会社（9040001006439）に合併し解散,2015-10-05,1,,,,,ボーデン,0
2408,8040003015901,登記記録の閉鎖等,0,2023-06-06,2023-05-22,合同会社Ｆｉｌｌ　Ｇａｐ,,合同会社,千葉県,市原市,辰巳台西１丁目７番地１号,,12,219,2900004,,,2023-05-22,清算の結了等,,,2020-08-12,1,,,,,フィルギャップ,0
2412,8060001019398,登記記録の閉鎖等,0,2023-06-06,2023-05-29,株式会社両毛新聞社,,株式会社,栃木県,足利市,巴町２５４３番地,,09,202,3260805,,,2023-05-29,清算の結了等,,,2015-10-05,1,,,,,リョウモウシンブンシャ,0
2415,8060002039791,登記記録の閉鎖等,0,2023-06-06,2023-05-31,有限会社共同サイジング工場,,有限会社,栃木県,佐野市,栃本町１６９４番地,,09,204,3270312,,,2023-05-31,清算の結了等,,,2015-10-05,1,,,,,キョウドウサイジングコウジョウ,0
2429,8080401010046,登記記録の閉鎖等,0,2023-06-06,2023-06-02,三協生コン株式会社,,株式会社,静岡県,浜松市北区,三ヶ日町津々崎字沢ノ神７５番地の１,,22,135,4311405,,,2023-06-02,合併による解散等,3080401005983,令和５年６月１日静岡県湖西市太田３８７番地の１三協産業株式会社（3080401005983）に合併し解散,2015-10-05,1,,,,,サンキョウナマコン,0
2438,8110001027379,登記記録の閉鎖等,0,2023-06-06,2023-06-01,株式会社セブン流通０１,,株式会社,新潟県,新潟市中央区,紫竹山５丁目４番１５号,,15,103,9500914,,,2023-06-01,合併による解散等,9110003001026,令和５年６月１日新潟市中央区二葉町二丁目５１６７番地合資会社新潟ビル（9110003001026）に合併し解散,2015-10-05,1,,,,,,0
2520,8240002021104,登記記録の閉鎖等,0,2023-06-06,2023-06-05,有限会社徳川建設,,有限会社,広島県,広島市安佐北区,口田南７丁目４５番２４号,,34,106,7391733,,,2023-06-05,清算の結了等,,,2015-10-05,1,,,,,トクガワケンセツ,0
2542,8310002010339,登記記録の閉鎖等,0,2023-06-06,2023-05-31,有限会社シノハラ,,有限会社,長崎県,佐世保市,川下町４９２番地,,42,202,8580914,,,2023-05-31,清算の結了等,,,2015-10-05,1,,,,,シノハラ,0
2548,8340001016986,登記記録の閉鎖等,0,2023-06-06,2023-06-05,株式会社高橋塗装,00098892,株式会社,鹿児島県,垂水市,柊原３３４４番地,,46,214,8912116,,,2023-06-05,清算の結了等,,,2015-10-05,1,,,,,,0
2556,8370002003898,登記記録の閉鎖等,0,2023-06-06,2023-06-02,有限会社マルヨ・フード,,有限会社,宮城県,仙台市太白区,松が丘３１番２号,,04,104,9820821,,,2023-06-02,清算の結了等,,,2015-10-05,1,,,,,マルヨフード,0
2562,8380003002519,登記記録の閉鎖等,0,2023-06-06,2023-06-02,合同会社ケアプランセンターまど,,合同会社,福島県,福島市,八島町５番４３号八島町コーポ１０３,,07,201,9608136,,,2023-06-02,清算の結了等,,,2015-10-05,1,,,,,ケアプランセンターマド,0
2597,9010003035166,登記記録の閉鎖等,0,2023-06-06,2023-05-31,Ｋ．Ｓ．Ｋ合同会社,,合同会社,東京都,千代田区,鍛冶町２丁目７番２号,,13,101,1010044,,,2023-05-31,清算の結了等,,,2021-06-25,1,,,,,,0
2600,9010401012320,登記記録の閉鎖等,0,2023-06-06,2023-05-09,株式会社ジエー・エム・アール,,株式会社,神奈川県,相模原市南区,上鶴間５丁目３－１７,,14,153,2520302,,,2023-05-09,清算の結了等,,,2015-10-05,1,,,,,,0
2620,9010701019305,登記記録の閉鎖等,0,2023-06-06,2023-06-02,株式会社オフィスティーケー,,株式会社,東京都,品川区,大井４丁目１７番２号グローリヒルズ８０５号,,13,109,1400014,,,2023-06-02,清算の結了等,,,2015-10-05,1,,,,,オフィスティーケー,0
2629,9010803003966,登記記録の閉鎖等,0,2023-06-06,2023-05-31,合同会社新世代エネルギー第一発電所,,合同会社,東京都,大田区,中央７丁目５番６号税理士法人Ｔ＆Ａコンサルティング内,,13,111,1430024,,,2023-05-31,清算の結了等,,,2021-11-26,1,,,,,シンセダイエネルギーダイイチハツデンショ,0
2637,9011001147382,登記記録の閉鎖等,0,2023-06-06,2023-05-31,株式会社神宮前ラボ,,株式会社,東京都,渋谷区,神宮前６丁目１８番２号グランドマンション原宿４０１,,13,113,1500001,,,2023-05-31,清算の結了等,,,2022-05-10,1,,,,,ジングウマエラボ,0
2644,9011005005082,登記記録の閉鎖等,0,2023-06-06,2023-05-26,特定非営利活動法人まほらま,,その他の設立登記法人,東京都,目黒区,三田２丁目７番２３－６０１号目黒マンション,,13,110,1530062,,,2023-05-26,清算の結了等,,,2015-10-05,1,,,,,マホラマ,0
2684,9012801020506,登記記録の閉鎖等,0,2023-06-06,2023-05-26,株式会社Ｌｅｌｉｎ,,株式会社,東京都,立川市,柏町３丁目２８番地の６,,13,202,1900004,,,2023-05-26,清算の結了等,,,2020-12-04,1,,,,,ルラン,0
2690,9020001072887,登記記録の閉鎖等,0,2023-06-06,2023-06-01,光映建設株式会社,,株式会社,神奈川県,川崎市川崎区,中瀬２丁目１番８号,,14,131,2100818,,,2023-06-01,清算の結了等,,,2015-10-05,1,,,,,コウエイケンセツ,0
2691,9020001088454,登記記録の閉鎖等,0,2023-06-06,2023-06-01,日祐エクスプレス株式会社,,株式会社,神奈川県,横浜市港北区,新羽町１２０４番地,,14,109,2230057,,,2023-06-01,合併による解散等,6020001002203,令和５年６月１日神奈川県横浜市港北区新羽町１２０４番日祐株式会社（6020001002203）に合併し解散,2015-10-05,1,,,,,ニチユウエクスプレス,0
2702,9020002035100,登記記録の閉鎖等,0,2023-06-06,2023-05-31,有限会社那須精工,,有限会社,神奈川県,横浜市都筑区,東方町３４３番地１,,14,118,2240045,,,2023-05-31,清算の結了等,,,2015-10-05,1,,,,,ナスセイコウ,0
2704,9020002091085,登記記録の閉鎖等,0,2023-06-06,2023-05-31,有限会社ランバー柏屋,,有限会社,神奈川県,川崎市高津区,溝口４丁目１１番５号,,14,134,2130001,,,2023-05-31,清算の結了等,,,2015-10-05,1,,,,,ランバーカシワヤ,0
2731,9040002058867,登記記録の閉鎖等,0,2023-06-06,2023-05-23,有限会社アイリンインターナショナル,,有限会社,千葉県,成田市,公津の杜５丁目３３番地２,,12,211,2860048,,,2023-05-23,清算の結了等,,,2015-10-05,1,,,,,アイリンインターナショナル,0
2764,9120001117211,登記記録の閉鎖等,0,2023-06-06,2023-06-01,株式会社ＹＫコーポレーション,,株式会社,大阪府,大阪市都島区,東野田町５丁目７番５号,,27,102,5340024,,,2023-06-01,清算の結了等,,,2015-10-05,1,,,,,ワイケイコーポレーション,0
2771,9120001240954,登記記録の閉鎖等,0,2023-06-06,2023-06-01,株式会社レクストグループ,,株式会社,大阪府,大阪市中央区,平野町２丁目３番７号,,27,128,5410046,,,2023-06-01,合併による解散等,7120001197453,令和５年６月１日大阪市中央区平野町二丁目３番７号レクストホールディングス株式会社（7120001197453）に合併し解散,2021-10-07,1,,,,,レクストグループ,0
2813,9180001093760,登記記録の閉鎖等,0,2023-06-06,2023-06-01,エヌ・トレーディング株式会社,,株式会社,愛知県,知多郡武豊町,大字冨貴字黒山１番地の９,,23,447,4702531,,,2023-06-01,合併による解散等,2180001092265,令和５年６月１日愛知県知多郡武豊町大字冨貴字黒山１番地の９ニッタイ工業株式会社（2180001092265）に合併し解散,2015-10-05,1,,,,,エヌトレーディング,0
2837,9240001014306,登記記録の閉鎖等,0,2023-06-06,2023-06-01,株式会社アピスタ,,株式会社,広島県,広島市西区,南観音５丁目１６番７号,,34,104,7330035,,,2023-06-01,合併による解散等,2240001024261,令和５年６月１日広島市西区南観音六丁目１３番１５号アイナスホールディングス株式会社（2240001024261）に合併し解散,2015-10-05,1,,,,,アピスタ,0
2844,9250002019583,登記記録の閉鎖等,0,2023-06-06,2023-05-29,有限会社山遊物産,,有限会社,山口県,岩国市,山手町２丁目４０番１８号,,35,208,7400022,,,2023-05-29,清算の結了等,,,2015-10-05,1,,,,,ヤマユウブッサン,0
2848,9290001002223,登記記録の閉鎖等,0,2023-06-06,2023-06-01,株式会社古里,,株式会社,福岡県,福岡市南区,鶴田２丁目２３番６６号,,40,134,8111352,,,2023-06-01,合併による解散等,4290001073327,令和５年６月１日福岡市南区柏原三丁目１７番５号株式会社オンユアマークス（4290001073327）に合併し解散,2015-10-05,1,,,,,フルサト,0
2854,9290002025099,登記記録の閉鎖等,0,2023-06-06,2023-06-01,有限会社オグラデンタル,,有限会社,福岡県,福岡市東区,香椎駅前２丁目１５番５０号,,40,131,8130013,,,2023-06-01,清算の結了等,,,2015-10-05,1,,,,,オグラデンタル,0
2877,9360001001366,登記記録の閉鎖等,0,2023-06-06,2023-05-01,株式会社琉食サービス,,株式会社,沖縄県,那覇市,西２丁目２０番１号,,47,201,9000036,,,2023-05-01,合併による解散等,2360001002239,令和５年５月１日沖縄県那覇市西二丁目２０番１号琉球食糧株式会社（2360001002239）に合併し解散,2015-10-05,1,,,,,リュウショクサービス,0
2890,9380002014712,登記記録の閉鎖等,0,2023-06-06,2023-06-01,有限会社あぶくま,,有限会社,福島県,田村市,船引町上移字上道３３４番地の５,,07,211,9634541,,,2023-06-01,清算の結了等,,,2015-10-05,1,,,,,アブクマ,0
2893,9390001010769,登記記録の閉鎖等,0,2023-06-06,2023-06-01,ニシエイジュ石油株式会社,,株式会社,山形県,東置賜郡川西町,大字上小松３１４４番地,,06,382,9990121,,,2023-06-01,合併による解散等,4390001010749,令和５年６月１日山形県東置賜郡川西町大字上小松９８８番地の１株式会社殖産工務所（4390001010749）に合併し解散,2015-10-05,1,,,,,ニシエイジュセキユ,0
