sequenceNumber,corporateNumber,process,correct,updateDate,changeDate,name,nameImageId,kind,prefectureName,cityName,streetNumber,addressImageId,prefectureCode,cityCode,postCode,addressOutside,addressOutsideImageId,closeDate,closeCause,successorCorporateNumber,changeCause,assignmentDate,latest,enName,enPrefectureName,enCityName,enAddressOutside,furigana,hihyoji
22,1010405019880,登記記録の閉鎖等,0,2025-02-28,2025-02-10,特定目的会社ベンチャーＥ,,その他の設立登記法人,東京都,港区,虎ノ門３丁目２２番１０－２０１号,,13,103,1050001,,,2025-02-10,清算の結了等,,,2021-06-09,1,,,,,ベンチャーイー,0
23,1010501004101,登記記録の閉鎖等,0,2025-02-28,2025-02-21,株式会社窪田建設,,株式会社,東京都,台東区,松が谷２丁目１１番４号,,13,106,1110036,,,2025-02-21,清算の結了等,,,2015-10-05,1,,,,,クボタケンセツ,0
35,1010802007868,登記記録の閉鎖等,0,2025-02-28,2025-02-20,有限会社スリーケイ,,有限会社,東京都,大田区,中央３丁目１８番４号,,13,111,1430024,,,2025-02-20,清算の結了等,,,2015-10-05,1,,,,,スリーケイ,0
49,1011301016212,登記記録の閉鎖等,0,2025-02-28,2025-02-25,株式会社ティーアップ,,株式会社,東京都,杉並区,久我山４丁目３８番２号,,13,115,1680082,,,2025-02-25,清算の結了等,,,2015-10-05,1,,,,,ティーアップ,0
71,1020002022106,登記記録の閉鎖等,0,2025-02-28,2025-02-13,有限会社長谷川製作所,,有限会社,神奈川県,横浜市旭区,都岡町１３番地１０,,14,112,2410805,,,2025-02-13,清算の結了等,,,2015-10-05,1,,,,,ハセガワセイサクショ,0
75,1020003013979,登記記録の閉鎖等,0,2025-02-28,2025-02-03,ビタリス合同会社,,合同会社,神奈川県,横浜市青葉区,元石川町３７１４番地６,,14,117,2250004,,,2025-02-03,合併による解散等,3020003010834,令和７年２月１日神奈川県横浜市青葉区元石川町３７１４番地６アルモニコ・アルファ合同会社（3020003010834）に合併し解散,2018-02-20,1,,,,,ビタリス,0
77,1021001024605,登記記録の閉鎖等,0,2025-02-28,2025-02-27,株式会社日誠,,株式会社,神奈川県,伊勢原市,桜台１丁目２０番４号深瀬ビル２Ｆ,,14,214,2591132,,,2025-02-27,清算の結了等,,,2015-10-05,1,,,,,ニッセイ,0
85,1030002015273,登記記録の閉鎖等,0,2025-02-28,2025-02-18,有限会社ウィステリア企画,,有限会社,埼玉県,さいたま市浦和区,北浦和５丁目３番３号Ａ－９０７,,11,107,3300074,,,2025-02-18,清算の結了等,,,2015-10-05,1,,,,,ウィステリアキカク,0
90,1040001069187,登記記録の閉鎖等,0,2025-02-28,2025-02-25,株式会社友建,,株式会社,千葉県,柏市,布施新町３丁目１番２１号,,12,217,2770823,,,2025-02-25,清算の結了等,,,2015-10-05,1,,,,,ユウケン,0
94,1040001125493,登記記録の閉鎖等,0,2025-02-28,2025-02-25,オータムグループ株式会社,,株式会社,千葉県,鎌ケ谷市,丸山１丁目２番８号アマイモック鎌ケ谷１０１,,12,224,2730103,,,2025-02-25,清算の結了等,,,2022-10-19,1,,,,,オータムグループ,0
96,1040002094829,登記記録の閉鎖等,0,2025-02-28,2025-02-25,有限会社ピアリ,,有限会社,千葉県,我孫子市,つくし野７丁目１番５号,,12,222,2701164,,,2025-02-25,清算の結了等,,,2015-10-05,1,,,,,ピアリ,0
100,1050001025164,登記記録の閉鎖等,0,2025-02-28,2025-02-20,株式会社岡島金物店,,株式会社,茨城県,龍ケ崎市,４２６５番地,,08,208,3010000,,,2025-02-20,清算の結了等,,,2015-10-05,1,,,,,オカジマカナモノテン,0
103,1050002029305,登記記録の閉鎖等,0,2025-02-28,2025-02-20,有限会社井上信建築,,有限会社,茨城県,鉾田市,柏熊１００１番地６９,,08,234,3111511,,,2025-02-20,清算の結了等,,,2015-10-05,1,,,,,イノウエシンケンチク,0
105,1060002023166,登記記録の閉鎖等,0,2025-02-28,2025-02-25,有限会社那須観光ホテル,,有限会社,栃木県,那須郡那須町,大字湯本２０６番地,,09,407,3250301,,,2025-02-25,清算の結了等,,,2015-10-05,1,,,,,ナスカンコウホテル,0
111,1070003005443,登記記録の閉鎖等,0,2025-02-28,2025-02-27,合同会社福媛,,合同会社,群馬県,伊勢崎市,境下武士３３９番地１,,10,204,3700126,,,2025-02-27,清算の結了等,,,2024-06-04,1,,,,,フクエン,0
117,1080403003525,登記記録の閉鎖等,0,2025-02-28,2025-02-28,山新工業合同会社,,合同会社,静岡県,浜松市中央区,高丘西４丁目５番２２号,,22,138,4338118,,,2025-02-28,清算の結了等,,,2017-09-06,1,,,,,サンシンコウギョウ,0
118,1080405006674,登記記録の閉鎖等,0,2025-02-28,2025-02-13,一般社団法人グロースアップ,,その他の設立登記法人,静岡県,浜松市中央区,白羽町５４７番地の１８,,22,138,4300846,,,2025-02-13,清算の結了等,,,2015-10-05,1,,,,,グロースアップ,0
120,1100001026264,登記記録の閉鎖等,0,2025-02-28,2025-02-14,株式会社ブックシェルフ,,株式会社,長野県,小諸市,大字西原１１９番地１号,,20,208,3840044,,,2025-02-14,清算の結了等,,,2015-10-05,1,,,,,ブックシェルフ,0
122,1110001033549,登記記録の閉鎖等,0,2025-02-28,2025-02-26,株式会社信越技研,,株式会社,新潟県,新潟市東区,牡丹山４丁目１５番８号,,15,102,9500872,,,2025-02-26,清算の結了等,,,2018-10-02,1,,,,,シンエツギケン,0
156,1150002006013,登記記録の閉鎖等,0,2025-02-28,2025-02-26,有限会社ＭＫパック,,有限会社,奈良県,天理市,庵治町４３１番地４７,,29,204,6320086,,,2025-02-26,清算の結了等,,,2015-10-05,1,,,,,エムケーパック,0
169,1200001029364,登記記録の閉鎖等,0,2025-02-28,2025-02-25,株式会社めいと,,株式会社,岐阜県,中津川市,中津川１１８４番地の８,,21,206,5080001,,,2025-02-25,清算の結了等,,,2015-10-05,1,,,,,メイト,0
182,1270002004533,登記記録の閉鎖等,0,2025-02-28,2025-02-27,有限会社藤和,,有限会社,鳥取県,鳥取市,河原町長瀬３８番地１,,31,201,6801241,,,2025-02-27,清算の結了等,,,2015-10-05,1,,,,,トウワ,0
183,1290001076200,登記記録の閉鎖等,0,2025-02-28,2025-02-25,株式会社フレイヤメディスン,,株式会社,鹿児島県,鹿児島市,宇宿４丁目３９番１２号,,46,201,8900073,,,2025-02-25,清算の結了等,,,2016-12-27,1,,,,,フレイヤメディスン,0
191,1290801023384,登記記録の閉鎖等,0,2025-02-28,2025-02-21,株式会社ユーエスコーポレーション,,株式会社,福岡県,築上郡築上町,大字上別府５８４番地１,,40,647,8290105,,,2025-02-21,清算の結了等,,,2017-03-10,1,,,,,ユーエスコーポレーション,0
194,1290803003599,登記記録の閉鎖等,0,2025-02-28,2025-02-19,合同会社幸良,,合同会社,福岡県,北九州市小倉北区,平松町８番１１号,,40,106,8030832,,,2025-02-19,清算の結了等,,,2020-07-28,1,,,,,コウリョウ,0
195,1290803003814,登記記録の閉鎖等,0,2025-02-28,2025-02-21,合同会社がんばり感,,合同会社,福岡県,田川郡福智町,赤池５２８番地１,,40,610,8221101,,,2025-02-21,清算の結了等,,,2021-05-10,1,,,,,ガンバリカン,0
197,1320005002842,登記記録の閉鎖等,0,2025-02-28,2025-02-27,宗教法人大宇真霊教,,その他の設立登記法人,大分県,別府市,大字鉄輪３７９番地の５,,44,202,8740000,,,2025-02-27,清算の結了等,,,2015-10-05,1,,,,,ダイウシンレイキョウ,0
199,1330001018065,登記記録の閉鎖等,0,2025-02-28,2025-02-19,株式会社ワイ・エス・グループ,,株式会社,熊本県,熊本市西区,野中２丁目１番２１号,,43,103,8600059,,,2025-02-19,清算の結了等,,,2015-10-05,1,,,,,ワイエスグループ,0
212,1370401000791,登記記録の閉鎖等,0,2025-02-28,2025-02-25,株式会社ヤハタ,,株式会社,宮城県,登米市,中田町上沼字新中ノ土手１２７番地,,04,212,9870602,,,2025-02-25,清算の結了等,,,2015-10-05,1,,,,,ヤハタ,0
217,1430001014608,登記記録の閉鎖等,0,2025-02-28,2025-02-25,中央興業株式会社,,株式会社,北海道,札幌市厚別区,厚別中央一条１丁目１番２５号,,01,108,0040051,,,2025-02-25,清算の結了等,,,2015-10-05,1,,,,,チュウオウコウギョウ,0
222,1450002005546,登記記録の閉鎖等,0,2025-02-28,2025-02-25,有限会社みずほ中央薬局,,有限会社,北海道,旭川市,金星町１丁目２番１７号,,01,204,0700029,,,2025-02-25,清算の結了等,,,2015-10-05,1,,,,,ミズホチュウオウヤッキョク,0
228,1490002004321,登記記録の閉鎖等,0,2025-02-28,2025-02-27,有限会社ビッグバード,,有限会社,高知県,高知市,一宮南町１丁目１番６－１０３号,,39,201,7818135,,,2025-02-27,清算の結了等,,,2015-10-05,1,,,,,ビッグバード,0
229,1490003001490,登記記録の閉鎖等,0,2025-02-28,2025-02-26,グレープジャパン合同会社,,合同会社,高知県,高知市,南ノ丸町５３番地１－１２０１号,,39,201,7818016,,,2025-02-26,清算の結了等,,,2020-12-21,1,,,,,,0
245,2010002021512,登記記録の閉鎖等,0,2025-02-28,2025-02-13,有限会社せきね,,有限会社,東京都,中央区,入船１丁目３番７号,,13,102,1040042,,,2025-02-13,清算の結了等,,,2015-10-05,1,,,,,セキネ,0
247,2010003027715,登記記録の閉鎖等,0,2025-02-28,2025-02-12,合同会社でこぽん,,合同会社,東京都,千代田区,丸の内１丁目４番１号東京共同会計事務所内,,13,101,1000005,,,2025-02-12,清算の結了等,,,2018-06-14,1,,,,,デコポン,0
250,2010101013922,登記記録の閉鎖等,0,2025-02-28,2025-02-25,株式会社コモン,,株式会社,東京都,八王子市,別所２丁目３番地４,,13,201,1920363,,,2025-02-25,清算の結了等,,,2019-10-15,1,,,,,コモン,0
251,2010401020156,登記記録の閉鎖等,0,2025-02-28,2025-02-06,東邦クリエイティブ株式会社,,株式会社,東京都,港区,芝浦３丁目１３番１８号,,13,103,1080023,,,2025-02-06,清算の結了等,,,2015-10-05,1,,,,,,0
270,2010901029498,登記記録の閉鎖等,0,2025-02-28,2025-02-18,株式会社ハウル,,株式会社,東京都,杉並区,堀ノ内１丁目８番３４号方南サンハイツ２１７,,13,115,1660013,,,2025-02-18,清算の結了等,,,2015-10-05,1,,,,,ハウル,0
272,2010902001217,登記記録の閉鎖等,0,2025-02-28,2025-02-26,有限会社イオスインターナショナル,,有限会社,東京都,世田谷区,代沢４丁目４３番７号,,13,112,1550032,,,2025-02-26,合併による解散等,5011001002054,令和７年２月１日東京都港区六本木六丁目１２番２－２７０８号株式会社イオスビジネスハウス（5011001002054）に合併し解散,2015-10-05,1,,,,,,0
278,2011001162801,登記記録の閉鎖等,0,2025-02-28,2025-02-03,エイトクラッカーｊａｐａｎ株式会社,,株式会社,東京都,渋谷区,広尾５丁目４番１６号ＥＡＴＰＬＡＹＷＯＲＫＳ３階,,13,113,1500012,,,2025-02-03,清算の結了等,,,2024-06-19,1,,,,,エイトクラッカージャパン,0
287,2011701025621,登記記録の閉鎖等,0,2025-02-28,2025-02-20,株式会社メイコー・サービス,,株式会社,東京都,江戸川区,東葛西５丁目１番１号,,13,123,1340084,,,2025-02-20,清算の結了等,,,2022-09-20,1,,,,,メイコーサービス,0
292,2012301008306,登記記録の閉鎖等,0,2025-02-28,2025-02-26,アートハウス株式会社,,株式会社,神奈川県,厚木市,中町４丁目１番１３号,,14,212,2430018,,,2025-02-26,合併による解散等,2021001024298,令和７年２月２０日神奈川県厚木市中町四丁目１４番１号タイセーハウジング株式会社（2021001024298）に合併し解散,2015-10-05,1,,,,,アートハウス,0
299,2013201001020,登記記録の閉鎖等,0,2025-02-28,2025-02-03,株式会社エム・エス・エス,,株式会社,東京都,目黒区,目黒本町４丁目２５番２８号,,13,110,1520002,,,2025-02-03,清算の結了等,,,2015-10-05,1,,,,,エムエスエス,0
300,2013202002430,登記記録の閉鎖等,0,2025-02-28,2025-01-31,有限会社月光電波製作所,,有限会社,東京都,目黒区,碑文谷１丁目２４番５号,,13,110,1520003,,,2025-01-31,清算の結了等,,,2015-10-05,1,,,,,ゲッコウデンパセイサクジョ,0
334,2030002110263,登記記録の閉鎖等,0,2025-02-28,2025-02-26,有限会社アイティージーネットワークス,,有限会社,埼玉県,川口市,本前川３丁目１０番２４号,,11,203,3330849,,,2025-02-26,清算の結了等,,,2015-10-05,1,,,,,アイティージーネットワークス,0
338,2040001117358,登記記録の閉鎖等,0,2025-02-28,2025-02-25,ｍａｖｅｒｉｃｋ株式会社,,株式会社,千葉県,柏市,藤ケ谷新田１１４番地７,,12,217,2770932,,,2025-02-25,清算の結了等,,,2021-03-05,1,,,,,マベリック,0
341,2040003010321,登記記録の閉鎖等,0,2025-02-28,2025-02-25,合同会社蛍光社,,合同会社,千葉県,山武市,松尾町大堤９３番地６,,12,237,2891527,,,2025-02-25,清算の結了等,,,2017-07-18,1,,,,,ケイコウシャ,0
349,2080105004060,登記記録の閉鎖等,0,2025-02-28,2025-02-25,東豆地区学校生活協同組合,,その他の設立登記法人,静岡県,伊東市,松原６２４番地の５,,22,208,4140006,,,2025-02-25,清算の結了等,,,2015-10-05,1,,,,,トウズチクガッコウ,0
350,2080402005257,登記記録の閉鎖等,0,2025-02-28,2025-02-27,有限会社デザイントライ,,有限会社,静岡県,浜松市中央区,笠井町１２１９番地の３,,22,138,4313107,,,2025-02-27,清算の結了等,,,2015-10-05,1,,,,,,0
353,2110005015732,登記記録の閉鎖等,0,2025-02-28,2025-02-26,特定非営利活動法人平丸スゲ細工保存会,,その他の設立登記法人,新潟県,妙高市,白山町２丁目１８番１４号,,15,217,9440047,,,2025-02-26,清算の結了等,,,2015-10-05,1,,,,,ヒラマルスゲザイクホゾンカイ,0
369,2120901000919,登記記録の閉鎖等,0,2025-02-28,2025-02-12,三東興産株式会社,,株式会社,大阪府,茨木市,西福井３丁目１６番１３号,,27,211,5670067,,,2025-02-12,清算の結了等,,,2015-10-05,1,,,,,サントウコウサン,0
374,2130002013480,登記記録の閉鎖等,0,2025-02-28,2025-02-26,有限会社荻建築事務所,,有限会社,京都府,京都市伏見区,向島庚申町２７番地７,,26,109,6128122,,,2025-02-26,清算の結了等,,,2015-10-05,1,,,,,オギケンチクジムショ,0
386,2180001088362,登記記録の閉鎖等,0,2025-02-28,2025-02-26,株式会社システムリンク,,株式会社,愛知県,名古屋市北区,成願寺１丁目６番Ａ－１８０８号,,23,103,4620021,,,2025-02-26,清算の結了等,,,2015-10-05,1,,,,,システムリンク,0
390,2180003027161,登記記録の閉鎖等,0,2025-02-28,2025-02-25,ハヌル合同会社,,合同会社,愛知県,弥富市,操出２丁目１３０番地６,,23,235,4980061,,,2025-02-25,清算の結了等,,,2024-08-06,1,,,,,ハヌル,0
393,2180305008966,登記記録の閉鎖等,0,2025-02-28,2025-02-21,社会保険労務士法人笠松事務所,,その他の設立登記法人,愛知県,高浜市,稗田町３丁目７番地２５,,23,227,4441321,,,2025-02-21,清算の結了等,,,2019-10-09,1,,,,,カサマツジムショ,0
403,2240001055083,登記記録の閉鎖等,0,2025-02-28,2025-02-27,シンハライトグループ株式会社,,株式会社,広島県,広島市中区,東白島町２１番１０－２０１号,,34,101,7300004,,,2025-02-27,清算の結了等,,,2019-10-04,1,,,,,シンハライトグループ,0
406,2250001015771,登記記録の閉鎖等,0,2025-02-28,2025-02-26,株式会社縁・えん,,株式会社,山口県,山口市,小郡新町７丁目１２番１１号,,35,203,7540031,,,2025-02-26,清算の結了等,,,2016-02-03,1,,,,,,0
419,2310001006310,登記記録の閉鎖等,0,2025-02-28,2025-02-20,株式会社シビルテック,,株式会社,長崎県,佐世保市,名切町３番３号パークサイドテラス２階,,42,202,8570023,,,2025-02-20,清算の結了等,,,2015-10-05,1,,,,,シビルテック,0
437,2380005001805,登記記録の閉鎖等,0,2025-02-28,2025-02-19,医療法人小野医院,,その他の設立登記法人,福島県,福島市,飯坂町字東堀切２５番地６,,07,201,9600201,,,2025-02-19,清算の結了等,,,2015-10-05,1,,,,,オノイイン,0
441,2410002003379,登記記録の閉鎖等,0,2025-02-28,2025-02-25,有限会社北陽コーポレーション,,有限会社,秋田県,秋田市,牛島西４丁目２番２２号,,05,201,0100063,,,2025-02-25,清算の結了等,,,2015-10-05,1,,,,,ホクヨウコーポレーション,0
443,2430001015539,登記記録の閉鎖等,0,2025-02-28,2025-02-25,株式会社ベストシーリング工業,,株式会社,北海道,札幌市手稲区,西宮の沢四条４丁目１１番１号,,01,109,0060004,,,2025-02-25,清算の結了等,,,2015-10-05,1,,,,,ベストシーリングコウギョウ,0
444,2430001016025,登記記録の閉鎖等,0,2025-02-28,2025-02-25,株式会社まごころ不動産,,株式会社,北海道,札幌市南区,澄川四条１２丁目１番１７号,,01,106,0050004,,,2025-02-25,清算の結了等,,,2015-10-05,1,,,,,マゴコロフドウサン,0
446,2430001052466,登記記録の閉鎖等,0,2025-02-28,2025-02-25,株式会社楠野商会,,株式会社,北海道,札幌市厚別区,大谷地西３丁目１５番１０号,,01,108,0040042,,,2025-02-25,清算の結了等,,,2015-10-05,1,,,,,クスノショウカイ,0
469,3010003034826,登記記録の閉鎖等,0,2025-02-28,2025-02-04,合同会社ＢＥＲＲＹ,,合同会社,東京都,中央区,銀座１丁目２２番１１号銀座大竹ビジデンス２階,,13,102,1040061,,,2025-02-04,清算の結了等,,,2021-05-12,1,,,,,ベリー,0
476,3010403014873,登記記録の閉鎖等,0,2025-02-28,2025-01-24,ＴＮコンサルティング合同会社,,合同会社,東京都,港区,赤坂９丁目６番２９号パシフィック乃木坂６０８号,,13,103,1070052,,,2025-01-24,清算の結了等,,,2016-06-08,1,,,,,,0
483,3010501020071,登記記録の閉鎖等,0,2025-02-28,2025-02-21,株式会社清鷹総本店,,株式会社,東京都,台東区,台東１丁目３２番８号,,13,106,1100016,,,2025-02-21,清算の結了等,,,2015-10-05,1,,,,,キヨタカソウホンテン,0
484,3010501048617,登記記録の閉鎖等,0,2025-02-28,2025-02-18,佳美株式会社,,株式会社,東京都,台東区,上野３丁目１１番５号,,13,106,1100005,,,2025-02-18,清算の結了等,,,2022-03-29,1,,,,,ヨシミ,0
497,3011001138098,登記記録の閉鎖等,0,2025-02-28,2025-02-25,株式会社ＬＤ３,,株式会社,埼玉県,さいたま市大宮区,仲町２丁目２５番地,,11,103,3300845,,,2025-02-25,清算の結了等,,,2021-01-27,1,,,,,エルディースリー,0
498,3011005003141,登記記録の閉鎖等,0,2025-02-28,2025-02-21,一般社団法人ＰＥＲＭＡ,,その他の設立登記法人,東京都,世田谷区,上馬５丁目１５番１５号,,13,112,1540011,,,2025-02-21,清算の結了等,,,2015-10-05,1,,,,,,0
502,3011103012119,登記記録の閉鎖等,0,2025-02-28,2025-02-21,Ｗｏｏｄ‐Ｍｉｚｅｒ　Ｊａｐａｎ合同会社,,合同会社,東京都,新宿区,西新宿１丁目２０番３号西新宿高木ビル８階,00127669,13,104,1600023,,,2025-02-21,清算の結了等,,,2022-08-31,1,,,,,ウッドマイザージャパン,0
507,3011702011982,登記記録の閉鎖等,0,2025-02-28,2025-02-20,有限会社山知興業,,有限会社,東京都,江戸川区,新堀１丁目４番１３号,,13,123,1320001,,,2025-02-20,清算の結了等,,,2015-10-05,1,,,,,ヤマトモコウギョウ,0
508,3011703002774,登記記録の閉鎖等,0,2025-02-28,2025-02-17,合同会社省三,,合同会社,東京都,江戸川区,平井１丁目７番１５号,,13,123,1320035,,,2025-02-17,清算の結了等,,,2021-02-16,1,,,,,セイゾウ,0
511,3011802014522,登記記録の閉鎖等,0,2025-02-28,2025-02-26,有限会社スタジオジェニファー,,有限会社,東京都,足立区,千住曙町４１番１号－６０６,,13,121,1200023,,,2025-02-26,清算の結了等,,,2015-10-05,1,,,,,スタジオジェニファー,0
525,3020002079994,登記記録の閉鎖等,0,2025-02-28,2025-02-03,有限会社信栄,,有限会社,東京都,目黒区,目黒本町１丁目１３番９号－００７,,13,110,1520002,,,2025-02-03,清算の結了等,,,2015-10-05,1,,,,,シンエイ,0
529,3021001031426,登記記録の閉鎖等,0,2025-02-28,2025-02-27,空間工房株式会社,,株式会社,神奈川県,相模原市南区,相模大野８丁目５番１２号アルベール３０１号室,,14,153,2520303,,,2025-02-27,清算の結了等,,,2015-10-05,1,,,,,クウカンコウボウ,0
558,3050001025328,登記記録の閉鎖等,0,2025-02-28,2025-02-20,長崎建設株式会社,,株式会社,茨城県,龍ケ崎市,平台１丁目１２番地１４,,08,208,3010003,,,2025-02-20,清算の結了等,,,2015-10-05,1,,,,,ナガサキケンセツ,0
560,3050002015113,登記記録の閉鎖等,0,2025-02-28,2025-02-19,共栄電機サービス有限会社,,有限会社,茨城県,小美玉市,下玉里１７６０番地８,,08,236,3113432,,,2025-02-19,清算の結了等,,,2015-10-05,1,,,,,キョウエイデンキサービス,0
562,3060001010717,登記記録の閉鎖等,0,2025-02-28,2025-02-26,日光舗装株式会社,,株式会社,栃木県,鹿沼市,口粟野１０８番地１,,09,205,3220305,,,2025-02-26,清算の結了等,,,2015-10-05,1,,,,,ニッコウホソウ,0
564,3060002027925,登記記録の閉鎖等,0,2025-02-28,2025-02-25,エヌ広芸有限会社,,有限会社,栃木県,小山市,大字雨ケ谷６６６番地３４,,09,208,3230826,,,2025-02-25,清算の結了等,,,2015-10-05,1,,,,,エヌコウゲイ,0
569,3090001011398,登記記録の閉鎖等,0,2025-02-28,2025-02-25,株式会社甍テクノロジー,,株式会社,山梨県,北杜市,高根町小池６６５番地,,19,209,4080014,,,2025-02-25,清算の結了等,,,2015-10-05,1,,,,,イラカテクノロジー,0
574,3100002035948,登記記録の閉鎖等,0,2025-02-28,2025-02-20,有限会社エムシークリエイト,,有限会社,長野県,飯田市,座光寺３４８８番地４,,20,205,3950001,,,2025-02-20,清算の結了等,,,2015-10-05,1,,,,,エムシークリエイト,0
577,3110002011378,登記記録の閉鎖等,0,2025-02-28,2025-02-26,有限会社高橋地質調査,00070760,有限会社,新潟県,新潟市西区,小針２丁目２番２０号ダイアパレス青山遊園４０１号,,15,107,9502022,,,2025-02-26,清算の結了等,,,2015-10-05,1,,,,,タカハシチシツチョウサ,0
580,3120001102961,登記記録の閉鎖等,0,2025-02-28,2025-02-20,株式会社スティング,,株式会社,大阪府,大阪市東成区,東小橋３丁目１番９号,,27,115,5370024,,,2025-02-20,合併による解散等,1120001012551,令和７年２月２０日大阪市東成区東小橋三丁目１番９号ジャスト株式会社（1120001012551）に合併し解散,2015-10-05,1,,,,,スティング,0
606,3140001030839,登記記録の閉鎖等,0,2025-02-28,2025-02-25,株式会社ＥＳ研,,株式会社,兵庫県,宝塚市,仁川北２丁目１３番４６－３０４号,,28,214,6650061,,,2025-02-25,清算の結了等,,,2015-10-05,1,,,,,イーエスケン,0
616,3180001121568,登記記録の閉鎖等,0,2025-02-28,2025-02-25,株式会社スペース二十四コミュニケーションズ,,株式会社,愛知県,名古屋市中村区,日比津町２丁目２番８号,,23,105,4530061,,,2025-02-25,合併による解散等,1180001047749,令和７年２月２５日名古屋市中村区日比津町二丁目２番８号株式会社スペース二十四（1180001047749）に合併し解散,2016-01-06,1,,,,,スペースニジュウヨンコミュニケーションズ,0
618,3180002031295,登記記録の閉鎖等,0,2025-02-28,2025-02-25,有限会社白川設計室,,有限会社,愛知県,名古屋市中区,栄１丁目１４番２０号東海御園ハイツ７０４,,23,106,4600008,,,2025-02-25,清算の結了等,,,2015-10-05,1,,,,,シラカワセッケイシツ,0
619,3180005007573,登記記録の閉鎖等,0,2025-02-28,2025-02-26,玉姫稲荷神社,,その他の設立登記法人,愛知県,名古屋市熱田区,横田２丁目１番３０号,,23,109,4560022,,,2025-02-26,清算の結了等,,,2015-10-05,1,,,,,タマヒメイナリジンジャ,0
651,3310001018008,登記記録の閉鎖等,0,2025-02-28,2025-02-20,株式会社來輪,,株式会社,長崎県,諫早市,川内町４０１番地,,42,204,8540037,,,2025-02-20,清算の結了等,,,2022-08-30,1,,,,,ライワ,0
685,3460402000458,登記記録の閉鎖等,0,2025-02-28,2025-02-25,有限会社奥山農場,,有限会社,北海道,根室市,湖南３６番地,,01,223,0860062,,,2025-02-25,清算の結了等,,,2015-10-05,1,,,,,オクヤマノウジョウ,0
694,4010001203910,登記記録の閉鎖等,0,2025-02-28,2025-02-10,株式会社ＬＡＫＡＬＡ　ＡＣＴＡＲＩＳＥ,,株式会社,東京都,千代田区,外神田６丁目８番１０号グランデ秋葉原３階,,13,101,1010021,,,2025-02-10,清算の結了等,,,2019-09-13,1,,,,,ラカラアクタリセ,0
731,4010501046801,登記記録の閉鎖等,0,2025-02-28,2025-02-19,株式会社ＭｏｄｅＰｒｏ,,株式会社,東京都,台東区,浅草橋４丁目１９番１－２０２号,,13,106,1110053,,,2025-02-19,清算の結了等,,,2021-01-22,1,,,,,モデプロ,0
738,4010701038796,登記記録の閉鎖等,0,2025-02-28,2025-02-25,株式会社ブルーファクトリー,,株式会社,東京都,江東区,亀戸７丁目３９番１４－８０５号,,13,108,1360071,,,2025-02-25,清算の結了等,,,2020-01-30,1,,,,,ブルーファクトリー,0
741,4010705000661,登記記録の閉鎖等,0,2025-02-28,2025-02-10,東京都建設組合,,その他の設立登記法人,東京都,品川区,中延４丁目７番３号,,13,109,1420053,,,2025-02-10,清算の結了等,,,2015-10-05,1,,,,,トウキョウトケンセツクミアイ,0
745,4011001065110,登記記録の閉鎖等,0,2025-02-28,2025-02-26,株式会社アカリク,,株式会社,東京都,渋谷区,渋谷２丁目１番５号,,13,113,1500002,,,2025-02-26,合併による解散等,6010403032996,令和７年２月１日東京都港区赤坂九丁目７番２号ミッドタウン・イースト４階株式会社アカリク（6010403032996）に合併し解散,2015-10-05,1,,,,,アカリク,0
746,4011001111277,登記記録の閉鎖等,0,2025-02-28,2025-01-31,株式会社ｐｏｃｏ　ｍｕｓｉｃ,,株式会社,東京都,渋谷区,東３丁目１９番１０号恵比寿ＭＪビル地下１Ｆ,,13,113,1500011,,,2025-01-31,清算の結了等,,,2016-06-09,1,,,,,ポコミュージック,0
753,4011202011458,登記記録の閉鎖等,0,2025-02-28,2025-02-25,有限会社村山商事,,有限会社,東京都,中野区,本町６丁目２０番９号,,13,114,1640012,,,2025-02-25,清算の結了等,,,2015-10-05,1,,,,,ムラヤマショウジ,0
785,4020002009414,登記記録の閉鎖等,0,2025-02-28,2025-02-03,有限会社岡田果実店,,有限会社,神奈川県,横浜市磯子区,久木町２０番４号,,14,107,2350015,,,2025-02-03,清算の結了等,,,2015-10-05,1,,,,,オカダカジツテン,0
809,4040001120590,登記記録の閉鎖等,0,2025-02-28,2025-02-25,株式会社ＲＯＣＫ　ＳＴＥＡＤＹ,,株式会社,千葉県,流山市,西初石３丁目１０３番地の１１,,12,220,2700121,,,2025-02-25,清算の結了等,,,2021-10-14,1,,,,,ロックステディ,0
821,4040002038378,登記記録の閉鎖等,0,2025-02-28,2025-02-25,有限会社百年社,,有限会社,千葉県,鎌ケ谷市,南初富６丁目１番４７号,,12,224,2730123,,,2025-02-25,清算の結了等,,,2015-10-05,1,,,,,ヒャクネンシャ,0
825,4050001023149,登記記録の閉鎖等,0,2025-02-28,2025-02-12,株式会社小森商事,,株式会社,茨城県,日立市,多賀町１丁目１９番２４号,,08,202,3160003,,,2025-02-12,清算の結了等,,,2015-10-05,1,,,,,コモリショウジ,0
832,4080102019919,登記記録の閉鎖等,0,2025-02-28,2025-02-26,有限会社信州屋,,有限会社,静岡県,伊東市,和田１丁目２番１３号,,22,208,4140024,,,2025-02-26,清算の結了等,,,2015-10-05,1,,,,,シンシュウヤ,0
873,4170005002905,登記記録の閉鎖等,0,2025-02-28,2025-02-27,奥安楽川神社,,その他の設立登記法人,和歌山県,紀の川市,桃山町善田１１９０番地,,30,208,6496101,,,2025-02-27,清算の結了等,,,2015-10-05,1,,,,,オクアラカワジンジャ,0
876,4180001141862,登記記録の閉鎖等,0,2025-02-28,2025-02-25,株式会社Ｗａｋｕｗａｋｕ　Ｐｒｏｄｕｃｅ,,株式会社,愛知県,稲沢市,中之庄町高上１番地８３,,23,220,4928435,,,2025-02-25,清算の結了等,,,2020-07-07,1,,,,,ワクワクプロデュース,0
877,4180003026582,登記記録の閉鎖等,0,2025-02-28,2025-02-26,合同会社ｃａｒｅｅｒ　ｒａｉｎｂｏｗ,,合同会社,愛知県,名古屋市昭和区,滝川町４７番地の１４７サザンヒル八事１号棟８０７号,,23,107,4660826,,,2025-02-26,清算の結了等,,,2024-04-01,1,,,,,キャリアレインボー,0
893,4290003014262,登記記録の閉鎖等,0,2025-02-28,2025-02-18,合同会社ａｍｏｕｒ,,合同会社,福岡県,八女市,立花町北山７３４番地３,,40,210,8340085,,,2025-02-18,清算の結了等,,,2023-08-21,1,,,,,アムール,0
925,4460101001260,登記記録の閉鎖等,0,2025-02-28,2025-02-26,株式会社中田組,,株式会社,北海道,河西郡芽室町,東五条１０丁目２番地１,,01,637,0820015,,,2025-02-26,清算の結了等,,,2015-10-05,1,,,,,ナカタグミ,0
927,4460301003701,登記記録の閉鎖等,0,2025-02-28,2025-02-26,株式会社三和重機網走,,株式会社,北海道,網走市,新町３丁目７番８号,,01,211,0930046,,,2025-02-26,清算の結了等,,,2015-10-05,1,,,,,サンワジュウキアバシリ,0
955,5010402010491,登記記録の閉鎖等,0,2025-02-28,2025-02-07,有限会社林和夫パーキング,,有限会社,東京都,港区,西新橋１丁目１８番８号,,13,103,1050003,,,2025-02-07,清算の結了等,,,2015-10-05,1,,,,,ハヤシカズオパーキング,0
964,5010601012958,登記記録の閉鎖等,0,2025-02-28,2025-02-25,株式会社谷口ニツト,,株式会社,東京都,墨田区,亀沢１丁目２１番２号,,13,107,1300014,,,2025-02-25,清算の結了等,,,2015-10-05,1,,,,,,0
965,5010601023427,登記記録の閉鎖等,0,2025-02-28,2025-02-25,株式会社ビギン,,株式会社,東京都,墨田区,太平１丁目１１番１号,,13,107,1300012,,,2025-02-25,清算の結了等,,,2015-10-05,1,,,,,ビギン,0
969,5010901029917,登記記録の閉鎖等,0,2025-02-28,2025-02-21,株式会社ユーアイエー,,株式会社,東京都,世田谷区,深沢４丁目１７番５－４０２号,,13,112,1580081,,,2025-02-21,清算の結了等,,,2015-10-05,1,,,,,,0
997,5012401035635,登記記録の閉鎖等,0,2025-02-28,2025-02-18,楽啓生再生細胞研究所株式会社,,株式会社,東京都,台東区,上野３丁目１１番５号,,13,106,1100005,,,2025-02-18,清算の結了等,,,2019-08-09,1,,,,,ラクケイセイサイセイサイボウケンキュウジョ,0
998,5012702006285,登記記録の閉鎖等,0,2025-02-28,2025-02-20,有限会社エス・ティー・エス,,有限会社,東京都,東久留米市,野火止２丁目２０番７号,,13,222,2030041,,,2025-02-20,清算の結了等,,,2015-10-05,1,,,,,,0
1000,5013301037597,登記記録の閉鎖等,0,2025-02-28,2025-02-25,エムジーエンジニアリング株式会社,,株式会社,長野県,千曲市,大字鋳物師屋１５０番地,,20,218,3870015,,,2025-02-25,清算の結了等,,,2015-10-05,1,,,,,エムジーエンジニアリング,0
1007,5020002001816,登記記録の閉鎖等,0,2025-02-28,2025-02-14,ぬしや工業有限会社,,有限会社,神奈川県,横浜市瀬谷区,五貫目町１７番地８,,14,114,2460008,,,2025-02-14,清算の結了等,,,2015-10-05,1,,,,,ヌシヤコウギョウ,0
1024,5040001096847,登記記録の閉鎖等,0,2025-02-28,2025-02-25,ＳＫハウス株式会社,,株式会社,千葉県,柏市,旭町１丁目４番１１－２０２号,,12,217,2770852,,,2025-02-25,清算の結了等,,,2016-09-07,1,,,,,エスケーハウス,0
1033,5040002076971,登記記録の閉鎖等,0,2025-02-28,2025-02-25,有限会社鈴木商会,,有限会社,千葉県,市原市,馬立３６２番地の２,,12,219,2900221,,,2025-02-25,清算の結了等,,,2015-10-05,1,,,,,スズキショウカイ,0
1042,5050002023989,登記記録の閉鎖等,0,2025-02-28,2025-02-19,有限会社信明電工,,有限会社,茨城県,古河市,雷電町８番２３号,,08,204,3060004,,,2025-02-19,清算の結了等,,,2015-10-05,1,,,,,シンメイデンコウ,0
1043,5050002038129,登記記録の閉鎖等,0,2025-02-28,2025-02-21,有限会社杉山設計事務所,,有限会社,茨城県,つくばみらい市,谷井田１６１１番地の７,,08,235,3002337,,,2025-02-21,清算の結了等,,,2015-10-05,1,,,,,スギヤマセッケイジムショ,0
1045,5060002031792,登記記録の閉鎖等,0,2025-02-28,2025-02-25,関東商流有限会社,,有限会社,栃木県,栃木市,河合町９番１０号,,09,203,3280041,,,2025-02-25,清算の結了等,,,2015-10-05,1,,,,,カントウショウリュウ,0
1058,5100005012430,登記記録の閉鎖等,0,2025-02-28,2025-02-26,ＥＡＲＴＨ協同組合,,その他の設立登記法人,長野県,上田市,上丸子１５００番地４１,,20,203,3860404,,,2025-02-26,清算の結了等,,,2019-07-10,1,,,,,アース,0
1059,5110002010270,登記記録の閉鎖等,0,2025-02-28,2025-02-26,有限会社長谷川化成工業所,,有限会社,新潟県,新潟市南区,犬帰新田７７４番地,,15,106,9501403,,,2025-02-26,清算の結了等,,,2015-10-05,1,,,,,ハセガワカセイコウギョウショ,0
1073,5120003018816,登記記録の閉鎖等,0,2025-02-28,2025-02-26,ＴＲＥＳＨ合同会社,,合同会社,大阪府,大阪市生野区,巽西１丁目８番１号,,27,116,5440012,,,2025-02-26,清算の結了等,,,2021-02-01,1,,,,,トレッシュ,0
1086,5140002037699,登記記録の閉鎖等,0,2025-02-28,2025-02-21,三幸オートワークス有限会社,,有限会社,兵庫県,加古郡稲美町,中村１０４４番地の４,,28,381,6751122,,,2025-02-21,清算の結了等,,,2015-10-05,1,,,,,サンコウオートワークス,0
1092,5160002012964,登記記録の閉鎖等,0,2025-02-28,2025-02-26,有限会社看板のナカガワ,,有限会社,滋賀県,草津市,東草津１丁目２番４８号,,25,206,5250033,,,2025-02-26,清算の結了等,,,2015-10-05,1,,,,,カンバンノナカガワ,0
1107,5190002014314,登記記録の閉鎖等,0,2025-02-28,2025-02-25,有限会社美ファイン・ハセガワ,,有限会社,三重県,松阪市,外五曲町１２３番地の３,,24,204,5150821,,,2025-02-25,清算の結了等,,,2015-10-05,1,,,,,ビファインハセガワ,0
1112,5220001023270,登記記録の閉鎖等,0,2025-02-28,2025-02-20,株式会社ワイズコミュニケーションズ,,株式会社,長野県,佐久市,岩村田１９７２‐１ロイヤルヴィレッティーナＢ３０５,,20,217,3850022,,,2025-02-20,清算の結了等,,,2019-12-25,1,,,,,ワイズコミュニケーションズ,0
1119,5240005003416,登記記録の閉鎖等,0,2025-02-28,2025-02-27,一般社団法人日本ＢＣＰ協会,,その他の設立登記法人,広島県,広島市中区,上八丁堀８番１０号,,34,101,7300012,,,2025-02-27,清算の結了等,,,2015-10-05,1,,,,,ニホンビーシーピーキョウカイ,0
1120,5250002001561,登記記録の閉鎖等,0,2025-02-28,2025-02-21,有限会社むつみ写真工房山口,,有限会社,山口県,山口市,黒川１１７２番地の３０,,35,203,7530851,,,2025-02-21,清算の結了等,,,2015-10-05,1,,,,,ムツミシャシンコウボウヤマグチ,0
1138,5320002006561,登記記録の閉鎖等,0,2025-02-28,2025-02-27,有限会社三浦商事,,有限会社,大分県,大分市,中央町３丁目１番１１号,,44,201,8700035,,,2025-02-27,清算の結了等,,,2015-10-05,1,,,,,,0
1165,5430002016046,登記記録の閉鎖等,0,2025-02-28,2025-02-21,有限会社ハヤサカ電気,,有限会社,北海道,札幌市西区,八軒七条西３丁目３番２１号,,01,107,0630847,,,2025-02-21,清算の結了等,,,2015-10-05,1,,,,,ハヤサカデンキ,0
1214,6010602005159,登記記録の閉鎖等,0,2025-02-28,2025-02-25,有限会社鶴川石材店,,有限会社,東京都,江東区,亀戸７丁目３０番１７号,,13,108,1360071,,,2025-02-25,清算の結了等,,,2015-10-05,1,,,,,ツルカワセキザイテン,0
1239,6011301004311,登記記録の閉鎖等,0,2025-02-28,2025-02-21,第一航業株式会社,,株式会社,東京都,杉並区,和泉１丁目２２番１９号,,13,115,1680063,,,2025-02-21,清算の結了等,,,2015-10-05,1,,,,,ダイイチコウギョウ,0
1247,6012705000524,登記記録の閉鎖等,0,2025-02-28,2025-02-21,特定非営利活動法人ポケット,,その他の設立登記法人,東京都,西東京市,芝久保町４丁目２２番５号,,13,229,1880014,,,2025-02-21,清算の結了等,,,2015-10-05,1,,,,,ポケット,0
1249,6013201014679,登記記録の閉鎖等,0,2025-02-28,2025-02-04,株式会社サニーフーヅ,,株式会社,東京都,目黒区,中央町２丁目２５番５号,,13,110,1520001,,,2025-02-04,清算の結了等,,,2015-10-05,1,,,,,サニーフーヅ,0
1267,6021003007388,登記記録の閉鎖等,0,2025-02-28,2025-02-27,合同会社Ｋ＆Ｍ,,合同会社,神奈川県,相模原市中央区,富士見６丁目３番１３号,,14,152,2520236,,,2025-02-27,清算の結了等,,,2018-04-04,1,,,,,,0
1278,6040001073283,登記記録の閉鎖等,0,2025-02-28,2025-02-25,株式会社ツカサ,,株式会社,千葉県,富里市,七栄６４７番地２２９秋葉事務所Ａ号,,12,233,2860221,,,2025-02-25,清算の結了等,,,2015-10-05,1,,,,,ツカサ,0
1280,6040001089197,登記記録の閉鎖等,0,2025-02-28,2025-02-25,株式会社司興業,,株式会社,千葉県,富里市,根木名１０４５番地１,,12,233,2860205,,,2025-02-25,清算の結了等,,,2015-10-05,1,,,,,ツカサコウギョウ,0
1289,6050001029482,登記記録の閉鎖等,0,2025-02-28,2025-02-20,株式会社戸塚建設,,株式会社,茨城県,常総市,新井木町２２７番地１,,08,211,3030016,,,2025-02-20,清算の結了等,,,2015-10-05,1,,,,,トツカケンセツ,0
1300,6100003000304,登記記録の閉鎖等,0,2025-02-28,2025-02-13,古満寿屋合資会社,,合資会社,長野県,長野市,鬼無里２８６番地２号,,20,201,3814301,,,2025-02-13,清算の結了等,,,2015-10-05,1,,,,,コマスヤ,0
1322,6130001009138,登記記録の閉鎖等,0,2025-02-28,2025-02-26,株式会社河内屋,,株式会社,京都府,京都市東山区,大和大路通四条下る２丁目亀井町６０番地の４,,26,105,6050803,,,2025-02-26,清算の結了等,,,2015-10-05,1,,,,,カワウチヤ,0
1341,6180001116887,登記記録の閉鎖等,0,2025-02-28,2025-02-25,株式会社ＦＳＳ,,株式会社,愛知県,犬山市,大字橋爪字西浦１９番地６,,23,215,4840076,,,2025-02-25,清算の結了等,,,2015-10-05,1,,,,,エフエスエス,0
1344,6180002035054,登記記録の閉鎖等,0,2025-02-28,2025-02-26,有限会社ミント,,有限会社,愛知県,名古屋市千種区,宮の腰町４番２号,,23,101,4640091,,,2025-02-26,清算の結了等,,,2015-10-05,1,,,,,ミント,0
1346,6180303002182,登記記録の閉鎖等,0,2025-02-28,2025-02-25,合資会社カタヤ酒店,,合資会社,愛知県,碧南市,新川町４丁目８１番地１,,23,209,4470863,,,2025-02-25,清算の結了等,,,2015-10-05,1,,,,,カタヤサケテン,0
1386,6410001009860,登記記録の閉鎖等,0,2025-02-28,2025-02-25,株式会社日誠プラント工事,,株式会社,秋田県,潟上市,昭和乱橋字大籠４９番地,,05,211,0181402,,,2025-02-25,清算の結了等,,,2015-10-05,1,,,,,ニッセイプラントコウジ,0
1430,7010601016214,登記記録の閉鎖等,0,2025-02-28,2025-02-21,株式会社松島機械,,株式会社,東京都,墨田区,亀沢１丁目２３番１１号,,13,107,1300014,,,2025-02-21,清算の結了等,,,2015-10-05,1,,,,,マツシマキカイ,0
1482,7020001106201,登記記録の閉鎖等,0,2025-02-28,2025-02-10,ロンドベル・リアルエステート株式会社,,株式会社,東京都,品川区,旗の台６丁目２７番８号,,13,109,1420064,,,2025-02-10,清算の結了等,,,2015-10-05,1,,,,,ロンドベルリアルエステート,0
1543,7110001005690,登記記録の閉鎖等,0,2025-02-28,2025-02-26,株式会社湯浅電気,,株式会社,新潟県,新潟市東区,牡丹山１丁目１８番９号,,15,102,9500872,,,2025-02-26,清算の結了等,,,2015-10-05,1,,,,,ユアサデンキ,0
1565,7120903004260,登記記録の閉鎖等,0,2025-02-28,2025-02-20,合同会社コンフィデンス,,合同会社,大阪府,吹田市,五月が丘東６－Ａ６１０,,27,205,5650831,,,2025-02-20,清算の結了等,,,2022-08-05,1,,,,,コンフィデンス,0
1566,7120903004434,登記記録の閉鎖等,0,2025-02-28,2025-02-19,合同会社ＮＥＷ　ＬＥＡＦ,,合同会社,大阪府,箕面市,小野原西６丁目１６番３２－４０６号,,27,220,5620032,,,2025-02-19,清算の結了等,,,2022-12-27,1,,,,,ニューリーフ,0
1570,7140001073900,登記記録の閉鎖等,0,2025-02-28,2025-02-21,南海建物株式会社,,株式会社,兵庫県,西宮市,櫨塚町２番１５号,00048196,28,204,6620854,,,2025-02-21,清算の結了等,,,2015-10-05,1,,,,,ナンカイタテモノ,0
1573,7140002029653,登記記録の閉鎖等,0,2025-02-28,2025-02-14,有限会社ブリックス,,有限会社,兵庫県,明石市,朝霧町１丁目２５番８号,,28,203,6730866,,,2025-02-14,清算の結了等,,,2015-10-05,1,,,,,ブリックス,0
1599,7260001018414,登記記録の閉鎖等,0,2025-02-28,2025-02-26,株式会社石田会計センター,,株式会社,岡山県,笠岡市,笠岡５２０７番地の１５,,33,205,7140081,,,2025-02-26,清算の結了等,,,2015-10-05,1,,,,,イシダカイケイセンター,0
1600,7260001028099,登記記録の閉鎖等,0,2025-02-28,2025-02-25,株式会社空間ぷらす,,株式会社,愛知県,名古屋市千種区,桜が丘５０番地,,23,101,4640025,,,2025-02-25,清算の結了等,,,2015-10-05,1,,,,,クウカンプラス,0
1604,7260005010986,登記記録の閉鎖等,0,2025-02-28,2025-02-27,一般社団法人玉野駆除会,,その他の設立登記法人,岡山県,玉野市,後閑７７番地７,,33,204,7060315,,,2025-02-27,清算の結了等,,,2021-10-27,1,,,,,タマノクジョカイ,0
1615,7310002008623,登記記録の閉鎖等,0,2025-02-28,2025-02-27,有限会社たいよう,,有限会社,長崎県,長崎市,川上町４番４号,,42,201,8500946,,,2025-02-27,清算の結了等,,,2015-10-05,1,,,,,タイヨウ,0
1624,7330005005319,登記記録の閉鎖等,0,2025-02-28,2025-02-20,ＮＰＯ法人九州環境保全循環システム,,その他の設立登記法人,熊本県,熊本市東区,京塚本町３番１号,,43,102,8620952,,,2025-02-20,清算の結了等,,,2015-10-05,1,,,,,キュウシュウカンキョウホゼンジュンカンシステム,0
1639,7400001005843,登記記録の閉鎖等,0,2025-02-28,2025-02-18,株式会社フォーツリーズ,,株式会社,岩手県,花巻市,松園町１丁目４番３８号,,03,205,0250066,,,2025-02-18,清算の結了等,,,2015-10-05,1,,,,,フォーツリーズ,0
1658,8010003034152,登記記録の閉鎖等,0,2025-02-28,2025-02-20,白井中合同会社,,合同会社,東京都,千代田区,平河町１丁目６番１５号シルスフィア会計事務所内,,13,101,1020093,,,2025-02-20,清算の結了等,,,2021-02-09,1,,,,,シロイナカ,0
1676,8010502002106,登記記録の閉鎖等,0,2025-02-28,2025-02-21,有限会社オオサワ,,有限会社,東京都,台東区,鳥越１丁目２８番５号,,13,106,1110054,,,2025-02-21,清算の結了等,,,2015-10-05,1,,,,,オオサワ,0
1686,8010705001755,登記記録の閉鎖等,0,2025-02-28,2025-02-27,一般財団法人宇宙科学研究イニシアティブ,,その他の設立登記法人,京都府,京都市左京区,北白川追分町京都大学理学部４号館天文台分室内,,26,103,6068224,,,2025-02-27,清算の結了等,,,2015-10-05,1,,,,,ウチュウカガクケンキュウイニシアティブ,0
1692,8010903002654,登記記録の閉鎖等,0,2025-02-28,2025-02-25,ＰＦアセットマネジメント合同会社,,合同会社,東京都,世田谷区,玉川３丁目１５番６－４０３号,,13,112,1580094,,,2025-02-25,清算の結了等,,,2015-10-05,1,,,,,ピーエフアセットマネジメント,0
1699,8011002034317,登記記録の閉鎖等,0,2025-02-28,2025-02-05,有限会社ローカルダイニング,,有限会社,東京都,渋谷区,神宮前５丁目１番６号,,13,113,1500001,,,2025-02-05,清算の結了等,,,2015-10-05,1,,,,,ローカルダイニング,0
1726,8012401034956,登記記録の閉鎖等,0,2025-02-28,2025-02-18,日本トウメイ商事株式会社,,株式会社,東京都,台東区,上野３丁目１１番５号,,13,106,1100005,,,2025-02-18,清算の結了等,,,2019-02-21,1,,,,,ニホントウメイショウジ,0
1727,8012401035475,登記記録の閉鎖等,0,2025-02-28,2025-02-18,ＭＡＧＹＣＴＥＫ株式会社,,株式会社,東京都,台東区,上野３丁目１１番５号,,13,106,1100005,,,2025-02-18,清算の結了等,,,2019-07-01,1,,,,,マジックテック,0
1731,8013301036456,登記記録の閉鎖等,0,2025-02-28,2025-02-18,株式会社ネイチャーウェーブ,,株式会社,東京都,豊島区,要町３丁目２６番３号,,13,116,1710043,,,2025-02-18,清算の結了等,,,2015-10-05,1,,,,,ネイチャーウェーブ,0
1736,8020001129853,登記記録の閉鎖等,0,2025-02-28,2025-02-05,ワンタッチ株式会社,,株式会社,神奈川県,川崎市幸区,小向西町１丁目２８番地５,,14,132,2120004,,,2025-02-05,清算の結了等,,,2019-02-07,1,,,,,ワンタッチ,0
1750,8021002041080,登記記録の閉鎖等,0,2025-02-28,2025-02-26,有限会社沢商事,,有限会社,神奈川県,大和市,鶴間２丁目１３番３６ー４０８号,,14,213,2420004,,,2025-02-26,清算の結了等,,,2015-10-05,1,,,,,サワショウジ,0
1766,8040001125215,登記記録の閉鎖等,0,2025-02-28,2025-02-21,クロス株式会社,,株式会社,千葉県,市川市,伊勢宿３－１１,,12,203,2720106,,,2025-02-21,清算の結了等,,,2022-10-04,1,,,,,クロス,0
1780,8060001009119,登記記録の閉鎖等,0,2025-02-28,2025-02-26,エム・エヌ・コーポレーション株式会社,,株式会社,栃木県,鹿沼市,草久５０６５番地,,09,205,3220101,,,2025-02-26,清算の結了等,,,2015-10-05,1,,,,,,0
1783,8060002039734,登記記録の閉鎖等,0,2025-02-28,2025-02-25,有限会社エム・ケー,,有限会社,栃木県,佐野市,田沼町５０３番地１,,09,204,3270317,,,2025-02-25,清算の結了等,,,2015-10-05,1,,,,,エムケー,0
1789,8100001002432,登記記録の閉鎖等,0,2025-02-28,2025-02-20,長野デコラ株式会社,,株式会社,長野県,長野市,青木島３丁目８番４号,,20,201,3812247,,,2025-02-20,清算の結了等,,,2015-10-05,1,,,,,ナガノデコラ,0
1797,8120002012478,登記記録の閉鎖等,0,2025-02-28,2025-02-27,今市印刷有限会社,,有限会社,大阪府,大阪市天王寺区,清水谷町１１番１７号,,27,109,5430011,,,2025-02-27,清算の結了等,,,2015-10-05,1,,,,,イマイチインサツ,0
1798,8120002051393,登記記録の閉鎖等,0,2025-02-28,2025-02-12,有限会社ループクリエイティブプロダクトインク,,有限会社,大阪府,大阪市都島区,毛馬町２丁目１１番１０－８０５号,,27,102,5340001,,,2025-02-12,清算の結了等,,,2015-10-05,1,,,,,ループクリエイティブプロダクトインク,0
1807,8120903000845,登記記録の閉鎖等,0,2025-02-28,2025-02-21,合同会社ＨＯＫＵＳＥＩｃａｒｇｏ,,合同会社,大阪府,箕面市,小野原東３丁目９番４３－３０５号,,27,220,5620031,,,2025-02-21,清算の結了等,,,2015-10-05,1,,,,,,0
1824,8160001012764,登記記録の閉鎖等,0,2025-02-28,2025-02-27,株式会社キョーシン,,株式会社,滋賀県,草津市,駒井沢町２０７番地の４,,25,206,5250014,,,2025-02-27,清算の結了等,,,2015-10-05,1,,,,,キョーシン,0
1834,8180002012431,登記記録の閉鎖等,0,2025-02-28,2025-02-25,有限会社福壽会計事務所,,有限会社,愛知県,名古屋市北区,杉村１丁目１０番２３号,,23,103,4620835,,,2025-02-25,清算の結了等,,,2015-10-05,1,,,,,フクジュカイケイジムショ,0
1844,8200001040819,登記記録の閉鎖等,0,2025-02-28,2025-02-21,林木材産業株式会社,,株式会社,岐阜県,羽島市,福寿町平方４丁目３９番地,,21,209,5016257,,,2025-02-21,清算の結了等,,,2023-01-05,1,,,,,ハヤシモクザイサンギョウ,0
1848,8210001003808,登記記録の閉鎖等,0,2025-02-28,2025-02-26,宮越電機株式会社,,株式会社,福井県,福井市,照手１丁目１１番２８号,,18,201,9100024,,,2025-02-26,清算の結了等,,,2015-10-05,1,,,,,ミヤゴシデンキ,0
1856,8240001046580,登記記録の閉鎖等,0,2025-02-28,2025-02-25,株式会社ベストリフォーム,,株式会社,広島県,福山市,大門町３丁目４７番１２号,,34,207,7210926,,,2025-02-25,清算の結了等,,,2015-10-05,1,,,,,ベストリフォーム,0
1857,8240001056992,登記記録の閉鎖等,0,2025-02-28,2025-02-27,株式会社嬉,,株式会社,広島県,広島市南区,宇品海岸２丁目１番３－１１０１号,,34,103,7340011,,,2025-02-27,清算の結了等,,,2020-11-27,1,,,,,ウレシ,0
1870,8300005004974,登記記録の閉鎖等,0,2025-02-28,2025-02-21,特定非営利活動法人身体障害者鳥栖作業所,,その他の設立登記法人,佐賀県,鳥栖市,古野町６７６番地２,,41,203,8410038,,,2025-02-21,清算の結了等,,,2015-10-05,1,,,,,シンタイショウガイシャトスサギョウショ,0
1884,8370001050000,登記記録の閉鎖等,0,2025-02-28,2025-02-19,インフィニット株式会社,,株式会社,宮城県,仙台市太白区,向山１丁目１４‐１８ＧＬＢ向山Ａ‐０３,,04,104,9820841,,,2025-02-19,清算の結了等,,,2023-05-25,1,,,,,インフィニット,0
1888,8390002010538,登記記録の閉鎖等,0,2025-02-28,2025-02-25,有限会社足達,,有限会社,山形県,鶴岡市,城北町１７番７号,,06,203,9970041,,,2025-02-25,清算の結了等,,,2015-10-05,1,,,,,アダチ,0
1902,8470001007667,登記記録の閉鎖等,0,2025-02-28,2025-02-25,丸糸株式会社,,株式会社,香川県,丸亀市,大手町３丁目５番１６－１０１号,,37,202,7630034,,,2025-02-25,清算の結了等,,,2015-10-05,1,,,,,マルイト,0
1913,9010001230339,登記記録の閉鎖等,0,2025-02-28,2025-02-12,サムズアップ株式会社,,株式会社,東京都,中央区,日本橋本町４丁目１３番６－６１０号,,13,102,1030023,,,2025-02-12,清算の結了等,,,2022-10-25,1,,,,,サムズアップ,0
1922,9010005029728,登記記録の閉鎖等,0,2025-02-28,2025-02-25,一般社団法人パイン・スプリング,,その他の設立登記法人,東京都,千代田区,平河町１丁目６番１５号シルスフィア会計事務所内,,13,101,1020093,,,2025-02-25,清算の結了等,,,2019-02-13,1,,,,,パインスプリング,0
1925,9010101009617,登記記録の閉鎖等,0,2025-02-28,2025-02-27,株式会社ファンタスク,,株式会社,東京都,八王子市,久保山町２丁目２３番地２６,,13,201,1920023,,,2025-02-27,清算の結了等,,,2015-10-05,1,,,,,ファンタスク,0
1930,9010401166199,登記記録の閉鎖等,0,2025-02-28,2025-02-10,ＯｎｅＴｒｕｓｔ株式会社,,株式会社,東京都,港区,赤坂９丁目７番１号ミッドタウンタワー１８階,,13,103,1070052,,,2025-02-10,清算の結了等,,,2022-03-16,1,,,,,ワントラスト,0
1933,9010403027457,登記記録の閉鎖等,0,2025-02-28,2025-02-07,Ｄｉｓｃｏｖｅｒｙ１合同会社,,合同会社,東京都,港区,赤坂２丁目１０番５号デロイトトーマツ赤坂インターナショナル株式会社内,,13,103,1070052,,,2025-02-07,清算の結了等,,,2022-04-08,1,,,,,ディスカバリーワン,0
1944,9010901034657,登記記録の閉鎖等,0,2025-02-28,2025-02-25,株式会社Ｆ５５クリエイティブデザインスタジオ,,株式会社,東京都,世田谷区,深沢５丁目３６番１７号,,13,112,1580081,,,2025-02-25,清算の結了等,,,2015-10-05,1,,,,,エフゴーゴークリエイティブデザインスタジオ,0
1979,9012701007990,登記記録の閉鎖等,0,2025-02-28,2025-02-21,ワールドメンテナンス株式会社,,株式会社,東京都,小平市,小川町１丁目５１２番地の３３,,13,211,1870032,,,2025-02-21,清算の結了等,,,2015-10-05,1,,,,,ワールドメンテナンス,0
1986,9020001124077,登記記録の閉鎖等,0,2025-02-28,2025-02-13,リオパートコンサルティング株式会社,,株式会社,神奈川県,横浜市中区,扇町１丁目１番地２５キンガビル１階,,14,104,2310027,,,2025-02-13,清算の結了等,,,2017-12-04,1,,,,,リオパートコンサルティング,0
1995,9020002021026,登記記録の閉鎖等,0,2025-02-28,2025-02-05,有限会社共栄興商,,有限会社,神奈川県,横浜市旭区,四季美台８１番地３７,,14,112,2410025,,,2025-02-05,清算の結了等,,,2015-10-05,1,,,,,キョウエイショウコウ,0
2005,9030001151780,登記記録の閉鎖等,0,2025-02-28,2025-02-25,株式会社ＭＫＳ,,株式会社,埼玉県,所沢市,北原町１３４６番地の１セザール所沢航空公園３０６,,11,208,3590004,,,2025-02-25,清算の結了等,,,2023-01-11,1,,,,,エムケーエス,0
2010,9030002068891,登記記録の閉鎖等,0,2025-02-28,2025-02-19,有限会社東武自動車工業所,,有限会社,埼玉県,春日部市,小渕２２５番地,,11,214,3440007,,,2025-02-19,清算の結了等,,,2015-10-05,1,,,,,トウブジドウシャコウギョウショ,0
2012,9030003006165,登記記録の閉鎖等,0,2025-02-28,2025-02-25,ＢＡＮＬＩ合同会社,,合同会社,埼玉県,さいたま市大宮区,土手町３丁目９１番地１,,11,103,3300801,,,2025-02-25,清算の結了等,,,2015-10-05,1,,,,,バンリ,0
2039,9110001015176,登記記録の閉鎖等,0,2025-02-28,2025-02-26,蒲原産業株式会社,,株式会社,新潟県,加茂市,岡ノ町５番５号,,15,209,9591377,,,2025-02-26,清算の結了等,,,2015-10-05,1,,,,,カンバラサンギョウ,0
2042,9110005002996,登記記録の閉鎖等,0,2025-02-28,2025-02-26,社会福祉法人健悠会,,その他の設立登記法人,新潟県,新潟市東区,粟山４５５番地１,,15,102,9500843,,,2025-02-26,清算の結了等,,,2015-10-05,1,,,,,ケンユウカイ,0
2043,9120001035735,登記記録の閉鎖等,0,2025-02-28,2025-02-26,株式会社土寅商店,,株式会社,大阪府,大阪市福島区,鷺洲６丁目１番２号,,27,103,5530002,,,2025-02-26,清算の結了等,,,2015-10-05,1,,,,,ツチトラショウテン,0
2052,9120002058388,登記記録の閉鎖等,0,2025-02-28,2025-02-26,株式会社メモリア,,株式会社,大阪府,大阪市平野区,喜連東３丁目５番６５号８階,,27,126,5470021,,,2025-02-26,清算の結了等,,,2015-10-05,1,,,,,メモリア,0
2064,9122001031648,登記記録の閉鎖等,0,2025-02-28,2025-02-25,株式会社上地鉄工業,,株式会社,大阪府,四條畷市,江瀬美町１８番２７号,,27,229,5750034,,,2025-02-25,清算の結了等,,,2018-06-06,1,,,,,ウエチテッコウギョウ,0
2074,9140001097740,登記記録の閉鎖等,0,2025-02-28,2025-01-30,株式会社イーガ,,株式会社,東京都,港区,芝浦３丁目１番１号,,13,103,1080023,,,2025-01-30,清算の結了等,,,2015-10-05,1,,,,,イーガ,0
2076,9140001112276,登記記録の閉鎖等,0,2025-02-28,2025-02-25,株式会社ブルームカンパニー,,株式会社,兵庫県,芦屋市,業平町２番３号,,28,206,6590068,,,2025-02-25,清算の結了等,,,2019-01-04,1,,,,,ブルームカンパニー,0
2090,9170002005063,登記記録の閉鎖等,0,2025-02-28,2025-02-21,有限会社エイ・アイ企画,,有限会社,和歌山県,和歌山市,和歌浦南２丁目９番７号,,30,201,6410022,,,2025-02-21,清算の結了等,,,2015-10-05,1,,,,,エイアイキカク,0
2095,9180002000105,登記記録の閉鎖等,0,2025-02-28,2025-02-26,有限会社アムールドゥボーテ,,有限会社,愛知県,名古屋市守山区,松坂町２３４番地の１,,23,113,4630007,,,2025-02-26,清算の結了等,,,2015-10-05,1,,,,,アムールドゥボーテ,0
2111,9220002008639,登記記録の閉鎖等,0,2025-02-28,2025-02-19,有限会社めん亭,,有限会社,石川県,白山市,五歩市町４６３番地１,,17,210,9240014,,,2025-02-19,清算の結了等,,,2015-10-05,1,,,,,,0
2121,9290001092966,登記記録の閉鎖等,0,2025-02-28,2025-02-17,株式会社よつばベース,,株式会社,福岡県,福岡市中央区,天神５丁目５番１９号,,40,133,8100001,,,2025-02-17,清算の結了等,,,2021-04-26,1,,,,,ヨツバベース,0
2127,9290801017965,登記記録の閉鎖等,0,2025-02-28,2025-02-21,株式会社エコス,,株式会社,福岡県,北九州市八幡東区,中畑１丁目６番２２号,,40,108,8050024,,,2025-02-21,清算の結了等,,,2015-10-05,1,,,,,エコス,0
2134,9330003007026,登記記録の閉鎖等,0,2025-02-28,2025-02-25,合同会社ＯＲＧＥＮＴ,,合同会社,熊本県,水俣市,大園町２丁目６番２号大園ハイツ２０３号,,43,205,8670042,,,2025-02-25,清算の結了等,,,2017-03-16,1,,,,,,0
2142,9340003002554,登記記録の閉鎖等,0,2025-02-28,2025-02-25,Ｓａｎｅｄａ　Ｑｕａｌｉｔｙ　Ｆａｒｍ合同会社,,合同会社,鹿児島県,大島郡喜界町,大字小野津７７６,,46,529,8916142,,,2025-02-25,清算の結了等,,,2018-04-06,1,,,,,サネダクオリティファーム,0
2144,9360001016967,登記記録の閉鎖等,0,2025-02-28,2025-02-26,エイティエス株式会社,,株式会社,沖縄県,那覇市,前島３丁目１３番１１号,,47,201,9000016,,,2025-02-26,清算の結了等,,,2015-10-05,1,,,,,エイティエス,0
2145,9370001006372,登記記録の閉鎖等,0,2025-02-28,2025-02-19,若林宝飾株式会社,,株式会社,宮城県,仙台市太白区,八木山東１丁目８番３０号,,04,104,9820802,,,2025-02-19,清算の結了等,,,2015-10-05,1,,,,,ワカバヤシホウショク,0
2147,9370005002616,登記記録の閉鎖等,0,2025-02-28,2025-02-25,特定非営利活動法人ギフトホープ,,その他の設立登記法人,宮城県,仙台市青葉区,一番町１丁目１２－７ｕｎｉ一番町２０２号室,,04,101,9800811,,,2025-02-25,清算の結了等,,,2015-10-05,1,,,,,ギフトホープ,0
