sequenceNumber,corporateNumber,process,correct,updateDate,changeDate,name,nameImageId,kind,prefectureName,cityName,streetNumber,addressImageId,prefectureCode,cityCode,postCode,addressOutside,addressOutsideImageId,closeDate,closeCause,successorCorporateNumber,changeCause,assignmentDate,latest,enName,enPrefectureName,enCityName,enAddressOutside,furigana,hihyoji
13,1010001227061,新規,0,2022-06-07,2022-06-07,株式会社旗本,,株式会社,東京都,千代田区,五番町４番地４サンビューハイツ五番町４０５号,,13,101,1020076,,,,,,,2022-06-07,1,,,,,ハタモト,0
14,1010001227078,新規,0,2022-06-07,2022-06-07,株式会社Ｈｕｂｚｏｕ,,株式会社,東京都,千代田区,九段南３丁目９番地２号りそな九段ビル５Ｆ、ＫＳフロア,,13,101,1020074,,,,,,,2022-06-07,1,,,,,ハブゾウ,0
15,1010001227086,新規,0,2022-06-07,2022-06-07,エムアイメディカル株式会社,,株式会社,東京都,千代田区,神田東松下町１８番地,,13,101,1010042,,,,,,,2022-06-07,1,,,,,エムアイメディカル,0
16,1010001227128,新規,0,2022-06-07,2022-06-07,株式会社ＬＳファーム,,株式会社,東京都,中央区,日本橋堀留町２丁目６番６号,,13,102,1030012,,,,,,,2022-06-07,1,,,,,エルエスファーム,0
18,1010003037822,新規,0,2022-06-07,2022-06-07,Ｔ＆Ｔリテール合同会社,,合同会社,東京都,千代田区,平河町１丁目３番６号ＢＩＺＭＡＲＫＳ麹町２階,,13,101,1020093,,,,,,,2022-06-07,1,,,,,ティーアンドティーリテール,0
19,1010003037830,新規,0,2022-06-07,2022-06-07,合同会社シエロ,,合同会社,東京都,千代田区,九段南１丁目５－６りそな九段ビル５Ｆ、ＫＳフロア,,13,101,1020074,,,,,,,2022-06-07,1,,,,,シエロ,0
21,1010005035106,新規,0,2022-06-07,2022-06-07,一般社団法人アセットファイナンス福岡中洲,,その他の設立登記法人,東京都,中央区,京橋２丁目７番１９号,,13,102,1040031,,,,,,,2022-06-07,1,,,,,アセットファイナンスフクオカナカス,0
29,1010401167733,新規,0,2022-06-07,2022-06-07,株式会社ＹＪＫＦ,,株式会社,東京都,港区,南麻布５丁目４－１－７０２,,13,103,1060047,,,,,,,2022-06-07,1,,,,,ワイジェイケイエフ,0
30,1010401167741,新規,0,2022-06-07,2022-06-07,株式会社ユニマットダイニング,,株式会社,東京都,港区,南青山２丁目１２番１４号,,13,103,1070062,,,,,,,2022-06-07,1,,,,,ユニマットダイニング,0
31,1010403027828,新規,0,2022-06-07,2022-06-07,サンゴショウ企画合同会社,,合同会社,東京都,港区,元麻布２丁目１１番５３号ゴメッツ元麻布３０１号室,,13,103,1060046,,,,,,,2022-06-07,1,,,,,サンゴショウキカク,0
34,1010601061281,新規,0,2022-06-07,2022-06-07,株式会社マクシム,,株式会社,東京都,江東区,亀戸４丁目２０番１２－１１０７号,,13,108,1360071,,,,,,,2022-06-07,1,,,,,マクシム,0
35,1010603009568,新規,0,2022-06-07,2022-06-07,合同会社Ｓｔｕｄｉｏ　Ｙｏｃｔｏ,,合同会社,東京都,江東区,東陽１丁目７番６号新田ビル４０２,,13,108,1350016,,,,,,,2022-06-07,1,,,,,スタジオヨクト,0
41,1010901050991,新規,0,2022-06-07,2022-06-07,ＷＣＦ株式会社,,株式会社,東京都,世田谷区,羽根木１丁目６－１２アライハイツ３０３,,13,112,1560042,,,,,,,2022-06-07,1,,,,,ダブリューシーエフ,0
45,1011001147910,新規,0,2022-06-07,2022-06-07,バンブーキャピタルワークス株式会社,,株式会社,東京都,渋谷区,桜丘町２６番１号セルリアンタワー１５階,,13,113,1500031,,,,,,,2022-06-07,1,,,,,バンブーキャピタルワークス,0
50,1011005009603,新規,0,2022-06-07,2022-06-07,社会保険労務士法人富田事務所,,その他の設立登記法人,東京都,渋谷区,神南１丁目５番１９号ハレ神南３０５,,13,113,1500041,,,,,,,2022-06-07,1,,,,,トミタジムショ,0
60,1011601025986,新規,0,2022-06-07,2022-06-07,承禾株式会社,,株式会社,東京都,練馬区,錦１丁目２５－２５ネコパレス２３５・１０１号室,,13,120,1790082,,,,,,,2022-06-07,1,,,,,ショウカ,0
61,1011701025358,新規,0,2022-06-07,2022-06-07,株式会社Ｗｅｅｄ,,株式会社,東京都,江戸川区,西葛西６丁目４番１号,,13,123,1340088,,,,,,,2022-06-07,1,,,,,ウィード,0
68,1012401039276,新規,0,2022-06-07,2022-06-07,株式会社クジーンラボ,,株式会社,東京都,小金井市,中町２丁目２４‐１６,,13,210,1840012,,,,,,,2022-06-07,1,,,,,クジーンラボ,0
69,1012403005417,新規,0,2022-06-07,2022-06-07,合同会社ＢＯＡＲＤ,,合同会社,東京都,武蔵野市,吉祥寺東町２丁目２６番３号,,13,203,1800002,,,,,,,2022-06-07,1,,,,,ボード,0
70,1012801021635,新規,0,2022-06-07,2022-06-07,株式会社ともすコンサルティング,,株式会社,東京都,日野市,高幡１００５－８,,13,212,1910031,,,,,,,2022-06-07,1,,,,,トモスコンサルティング,0
71,1012803002798,新規,0,2022-06-07,2022-06-07,ＳＹＥ合同会社,,合同会社,東京都,国分寺市,南町３丁目１８番４号Ｓビル１階,,13,214,1850021,,,,,,,2022-06-07,1,,,,,エスワイイー,0
84,1020001146789,新規,0,2022-06-07,2022-06-07,株式会社ゆかり,,株式会社,神奈川県,川崎市川崎区,田島町２２番１号,,14,131,2100853,,,,,,,2022-06-07,1,,,,,ユカリ,0
85,1020001146847,新規,0,2022-06-07,2022-06-07,株式会社測量調査ヒロセ,,株式会社,神奈川県,横浜市神奈川区,泉町５番地グランドメゾン横浜反町７０３号,,14,102,2210842,,,,,,,2022-06-07,1,,,,,ソクリョウチョウサヒロセ,0
93,1020003021825,新規,0,2022-06-07,2022-06-07,Ｊｕｌｉｅ　Ｃａｐｉｔａｌ合同会社,,合同会社,神奈川県,横浜市西区,みなとみらい５丁目３番３－５１６号,,14,103,2200012,,,,,,,2022-06-07,1,,,,,ジュリーキャピタル,0
94,1020003021874,新規,0,2022-06-07,2022-06-07,Ｂｏｋｕｄａｉ合同会社,,合同会社,神奈川県,横浜市中区,扇町４丁目１１番地４センチュリー横浜関内３０２号室,,14,104,2310027,,,,,,,2022-06-07,1,,,,,ボクダイ,0
95,1020003021890,新規,0,2022-06-07,2022-06-07,合同会社ｉ．Ｏ．Ｄ,,合同会社,神奈川県,横浜市港北区,高田東１丁目２２番１６号,,14,109,2230065,,,,,,,2022-06-07,1,,,,,アイオーディー,0
104,1030001148512,新規,0,2022-06-07,2022-06-07,株式会社明治デリカ秩父,,株式会社,埼玉県,本庄市,五十子３丁目５番１３号,,11,211,3670027,,,,,,,2022-06-07,1,,,,,メイジデリカチチブ,0
105,1030001148520,新規,0,2022-06-07,2022-06-07,株式会社Ｃａｌｌｔｅｃｈ,,株式会社,埼玉県,朝霞市,三原３丁目１６番１－６０５号,,11,227,3510025,,,,,,,2022-06-07,1,,,,,コールテック,0
106,1030001148553,新規,0,2022-06-07,2022-06-07,コスモス総務サービス株式会社,,株式会社,埼玉県,さいたま市見沼区,東大宮２丁目５９番地６,,11,104,3370051,,,,,,,2022-06-07,1,,,,,コスモスソウムサービス,0
111,1040001123753,新規,0,2022-06-07,2022-06-07,株式会社ＥＮＦＲＩＡＲＴＥ,,株式会社,千葉県,習志野市,津田沼４丁目１１番４－５０１号,,12,216,2750016,,,,,,,2022-06-07,1,,,,,エンフリアルテ,0
112,1040001123761,新規,0,2022-06-07,2022-06-07,株式会社ＭｅｄＭａｒｇｅ,,株式会社,千葉県,市川市,真間３丁目５番１９号,,12,203,2720826,,,,,,,2022-06-07,1,,,,,メドマルジェ,0
117,1040003020156,新規,0,2022-06-07,2022-06-07,合同会社ＴＡＧ,,合同会社,千葉県,館山市,北条１７１５番地の９,,12,205,2940045,,,,,,,2022-06-07,1,,,,,ティーエージー,0
118,1040003020172,新規,0,2022-06-07,2022-06-07,合同会社仲々,,合同会社,千葉県,印西市,小林浅間２丁目１番地３５,,12,231,2701315,,,,,,,2022-06-07,1,,,,,ナカナカ,0
121,1050001051177,新規,0,2022-06-07,2022-06-07,株式会社スペック,,株式会社,茨城県,筑西市,宮後２４３１番地２,,08,227,3004503,,,,,,,2022-06-07,1,,,,,スペック,0
123,1060001034940,新規,0,2022-06-07,2022-06-07,プラヌ土木株式会社,,株式会社,栃木県,小山市,大字犬塚５０番地５９２,,09,208,3230811,,,,,,,2022-06-07,1,,,,,プラヌドボク,0
126,1080001024997,新規,0,2022-06-07,2022-06-07,土屋会計株式会社,,株式会社,静岡県,静岡市駿河区,池田８６９,,22,102,4228005,,,,,,,2022-06-07,1,,,,,ツチヤカイケイ,0
127,1080101023313,新規,0,2022-06-07,2022-06-07,海楽遊士株式会社,,株式会社,静岡県,賀茂郡南伊豆町,湊４２５番地の１,,22,304,4150152,,,,,,,2022-06-07,1,,,,,カイラクユウシ,0
128,1080101023338,新規,0,2022-06-07,2022-06-07,株式会社大栄樹脂工業所,,株式会社,静岡県,沼津市,足高２９２番地の６９,,22,203,4100001,,,,,,,2022-06-07,1,,,,,ダイエイジュシコウギョウショ,0
130,1080105006264,新規,0,2022-06-07,2022-06-07,一般社団法人富士振興協会,,その他の設立登記法人,静岡県,御殿場市,新橋１９９０番地１０,,22,215,4120043,,,,,,,2022-06-07,1,,,,,フジシンコウキョウカイ,0
148,1120101065706,新規,0,2022-06-07,2022-06-07,株式会社ＳＴＲＡＴＴＯＮ　ＯＡＫＭＯＮＴ,,株式会社,大阪府,堺市西区,上野芝町８丁１０番２号,,27,144,5938301,,,,,,,2022-06-07,1,,,,,ストラットンオークモント,0
151,1120901046062,新規,0,2022-06-07,2022-06-07,ＹＣ株式会社,,株式会社,大阪府,茨木市,真砂２丁目１１番４号,,27,211,5670851,,,,,,,2022-06-07,1,,,,,ワイシー,0
152,1120901046070,新規,0,2022-06-07,2022-06-07,大鹿株式会社,,株式会社,大阪府,豊中市,新千里西町１丁目１番１０号ディーグラフォート１３１８号,,27,203,5600083,,,,,,,2022-06-07,1,,,,,ダイカ,0
153,1122001035920,新規,0,2022-06-07,2022-06-07,ＡＲＡＰＳＵＮ株式会社,,株式会社,大阪府,大東市,新田東本町１番３３号,,27,218,5740054,,,,,,,2022-06-07,1,,,,,アラプスン,0
159,1140001126226,新規,0,2022-06-07,2022-06-07,株式会社輝高,00126791,株式会社,兵庫県,高砂市,高砂町浜田町２丁目８－１８,,28,216,6760022,,,,,,,2022-06-07,1,,,,,キダカ,0
160,1140001126250,新規,0,2022-06-07,2022-06-07,株式会社Ｒｅ．Ｌｉｆｅ,,株式会社,兵庫県,伊丹市,昆陽７丁目３番地１ＤＳ伊丹ビル３０７号,,28,207,6640881,,,,,,,2022-06-07,1,,,,,リライフ,0
163,1160001024262,新規,0,2022-06-07,2022-06-07,株式会社ヨシミガーデン,,株式会社,滋賀県,栗東市,荒張６３９番地６,,25,208,5203003,,,,,,,2022-06-07,1,,,,,ヨシミガーデン,0
165,1170001017141,新規,0,2022-06-07,2022-06-07,雨澤株式会社,,株式会社,和歌山県,海南市,日方１２７３－４４・１－１,,30,202,6420002,,,,,,,2022-06-07,1,,,,,アメサワ,0
170,1180001151625,新規,0,2022-06-07,2022-06-07,株式会社オグリ電功,,株式会社,愛知県,名古屋市天白区,音聞山９２７番地,,23,116,4680063,,,,,,,2022-06-07,1,,,,,オグリデンコウ,0
174,1190001029481,新規,0,2022-06-07,2022-06-07,株式会社石市・山下石材,,株式会社,三重県,度会郡南伊勢町,切原７７０番地,,24,472,5160102,,,,,,,2022-06-07,1,,,,,イシイチヤマシタセキザイ,0
183,1230005009236,新規,0,2022-06-07,2022-06-07,医療法人社団昌志会,,その他の設立登記法人,富山県,射水市,新片町５丁目８－１,,16,211,9340033,,,,,,,2022-06-07,1,,,,,ショウシカイ,0
186,1250001019609,新規,0,2022-06-07,2022-06-07,西日本興産株式会社,,株式会社,山口県,山陽小野田市,大字小野田２０５４番地１３,,35,216,7560817,,,,,,,2022-06-07,1,,,,,ニシニホンコウサン,0
199,1290001097790,新規,0,2022-06-07,2022-06-07,株式会社プレシャスプラス,,株式会社,福岡県,久留米市,山川町１６２３番地１,,40,203,8390817,,,,,,,2022-06-07,1,,,,,プレシャスプラス,0
204,1290801028607,新規,0,2022-06-07,2022-06-07,波多野塗装株式会社,,株式会社,福岡県,北九州市小倉南区,上貫１丁目２番３７号,,40,107,8000244,,,,,,,2022-06-07,1,,,,,ハタノトソウ,0
214,1330001029789,新規,0,2022-06-07,2022-06-07,株式会社ミーダテック,,株式会社,熊本県,八代市,鏡町内田１５９５番地３,,43,202,8694202,,,,,,,2022-06-07,1,,,,,ミーダテック,0
224,1360001030513,新規,0,2022-06-07,2022-06-07,株式会社具志堅興業,,株式会社,沖縄県,石垣市,字新川２１８６番地４,,47,207,9070024,,,,,,,2022-06-07,1,,,,,グシケンコウギョウ,0
225,1360003012030,新規,0,2022-06-07,2022-06-07,合同会社ＣＲＯＳＳ,,合同会社,沖縄県,南城市,佐敷字津波古２３３６しあわせそう３０２号室,,47,215,9011414,,,,,,,2022-06-07,1,,,,,クロス,0
226,1360003012071,新規,0,2022-06-07,2022-06-07,合同会社プラス５８,,合同会社,沖縄県,名護市,字名護４５５８番地７０,,47,209,9050012,,,,,,,2022-06-07,1,,,,,プラスゴーハチ,0
227,1360005006666,新規,0,2022-06-07,2022-06-07,一般社団法人勢理客門中,,その他の設立登記法人,沖縄県,南城市,佐敷字新里６８５番地,,47,215,9011412,,,,,,,2022-06-07,1,,,,,セリキャクムンチュウ,0
231,1370001048645,新規,0,2022-06-07,2022-06-07,株式会社ｍｅｅ’ｓ,,株式会社,宮城県,仙台市泉区,七北田字町１３０番地の４梨の丘ハイツＡ－２０１,,04,105,9813131,,,,,,,2022-06-07,1,,,,,ミーズ,0
236,1380001032862,新規,0,2022-06-07,2022-06-07,株式会社史乃歩,,株式会社,福島県,福島市,置賜町４番１号バラビル１Ｆ,,07,201,9608034,,,,,,,2022-06-07,1,,,,,シノブ,0
247,1410001013207,新規,0,2022-06-07,2022-06-07,柿建工業株式会社,,株式会社,秋田県,横手市,南町１４番１５号,,05,203,0130045,,,,,,,2022-06-07,1,,,,,カキケンコウギヨウ,0
250,1420001017883,新規,0,2022-06-07,2022-06-07,株式会社ＯＳＡＮＡＩ,,株式会社,青森県,弘前市,大字三世寺字鳴瀬１３番地,,02,202,0368312,,,,,,,2022-06-07,1,,,,,オサナイ,0
251,1420003002529,新規,0,2022-06-07,2022-06-07,合同会社オサナイクリエート,,合同会社,青森県,黒石市,大字元町１２０番地,,02,204,0360387,,,,,,,2022-06-07,1,,,,,オサナイクリエート,0
252,1430001018419,新規,0,2022-06-07,2022-06-07,株式会社陸王,,株式会社,北海道,札幌市中央区,南二十一条西１１丁目１番１号,,01,101,0640921,,,,,,,2022-06-07,1,,,,,リクオウ,0
255,1430001086779,新規,0,2022-06-07,2022-06-07,株式会社クレクト,,株式会社,北海道,札幌市西区,琴似一条６丁目１番２６号,,01,107,0630811,,,,,,,2022-06-07,1,,,,,クレクト,0
256,1430001086795,新規,0,2022-06-07,2022-06-07,株式会社ＳＡＮＫＯリーシングマネジメント,,株式会社,北海道,札幌市中央区,大通西７丁目２番地５大通青木ビル１階,,01,101,0600042,,,,,,,2022-06-07,1,,,,,サンコーリーシングマネジメント,0
262,1490001010196,新規,0,2022-06-07,2022-06-07,トサオルグ株式会社,,株式会社,高知県,南国市,岡豊町中島３９４番地２－２０１,,39,204,7830049,,,,,,,2022-06-07,1,,,,,トサオルグ,0
263,1490005006851,新規,0,2022-06-07,2022-06-07,あさひ税理士法人,,その他の設立登記法人,高知県,高知市,旭町１丁目１１２番地８,,39,201,7800935,,,,,,,2022-06-07,1,,,,,アサヒ,0
274,2010001227077,新規,0,2022-06-07,2022-06-07,リップカレント株式会社,,株式会社,東京都,中央区,銀座６丁目１３番１６号,,13,102,1040061,,,,,,,2022-06-07,1,,,,,リップカレント,0
275,2010001227085,新規,0,2022-06-07,2022-06-07,株式会社ｙｙｙ,,株式会社,東京都,千代田区,神田神保町２丁目１０番地２４,,13,101,1010051,,,,,,,2022-06-07,1,,,,,トリプルワイ,0
276,2010001227102,新規,0,2022-06-07,2022-06-07,株式会社Ｇｌｏｂａｌ　Ｃｏｎｓｕｌｔｉｎｇ　ＪＰ,,株式会社,東京都,中央区,東日本橋３丁目９番２号サンクビル４Ｆ,,13,102,1030004,,,,,,,2022-06-07,1,,,,,グローバルコンサルティングジェイピー,0
277,2010001227135,新規,0,2022-06-07,2022-06-07,株式会社Ａｍｏｕｒ＆Ｇｒｏｗ,,株式会社,東京都,中央区,銀座１丁目２２番１１号銀座大竹ビジデンス２Ｆ,,13,102,1040061,,,,,,,2022-06-07,1,,,,,アムーァアンドグロー,0
280,2010003037796,新規,0,2022-06-07,2022-06-07,合同会社ルミエンナ,,合同会社,東京都,中央区,晴海２丁目２番４２号,,13,102,1040053,,,,,,,2022-06-07,1,,,,,ルミエンナ,0
290,2010401167410,新規,0,2022-06-07,2022-06-07,株式会社クリボブック,,株式会社,東京都,港区,南青山２丁目２番１５号,,13,103,1070062,,,,,,,2022-06-07,1,,,,,クリボブック,0
291,2010401167682,新規,0,2022-06-07,2022-06-07,株式会社ｅｇａｌｉｔｅ,,株式会社,東京都,港区,六本木３丁目１５－１１－３３０,,13,103,1060032,,,,,,,2022-06-07,1,,,,,エガリテ,0
292,2010401167765,新規,0,2022-06-07,2022-06-07,株式会社Ｈｅｌｉｘ,,株式会社,東京都,港区,南青山３丁目１５番９号ＭＩＮＯＷＡ表参道３Ｆ,,13,103,1070062,,,,,,,2022-06-07,1,,,,,ヘリックス,0
293,2010403027819,新規,0,2022-06-07,2022-06-07,合同会社ＭＡＨＡＮＡ１５,,合同会社,東京都,港区,六本木６丁目１２番２－３３０７号,,13,103,1060032,,,,,,,2022-06-07,1,,,,,マハナフィフティーン,0
294,2010501048915,新規,0,2022-06-07,2022-06-07,株式会社ＥＣユニコーン,,株式会社,東京都,台東区,台東３丁目５番１０号,,13,106,1100016,,,,,,,2022-06-07,1,,,,,イーシーユニコーン,0
301,2010701042742,新規,0,2022-06-07,2022-06-07,株式会社サクセスプラス,,株式会社,東京都,品川区,西五反田２丁目１２番３号,,13,109,1410031,,,,,,,2022-06-07,1,,,,,サクセスプラス,0
302,2010701042759,新規,0,2022-06-07,2022-06-07,株式会社型枠山崎,,株式会社,東京都,品川区,小山６丁目２７－７,,13,109,1420062,,,,,,,2022-06-07,1,,,,,カタワクヤマザキ,0
303,2010701042767,新規,0,2022-06-07,2022-06-07,株式会社レスキュー,,株式会社,東京都,品川区,西五反田４丁目２８番１４号,,13,109,1410031,,,,,,,2022-06-07,1,,,,,レスキュー,0
304,2010701042775,新規,0,2022-06-07,2022-06-07,株式会社オペレーションズ,,株式会社,東京都,品川区,東五反田１丁目１６番１号,,13,109,1410022,,,,,,,2022-06-07,1,,,,,オペレーションズ,0
310,2010901050999,新規,0,2022-06-07,2022-06-07,株式会社ユーケーピーエイチシー,,株式会社,東京都,世田谷区,北沢２丁目４番１１号,,13,112,1550031,,,,,,,2022-06-07,1,,,,,ユーケーピーエイチシー,0
321,2011001147892,新規,0,2022-06-07,2022-06-07,ストリングス株式会社,,株式会社,東京都,渋谷区,上原２丁目３２番２号Ｙ‐２ｙａｍａｇａｔａｙａＢＬＤＧ．２０２,,13,113,1510064,,,,,,,2022-06-07,1,,,,,ストリングス,0
322,2011001147942,新規,0,2022-06-07,2022-06-07,株式会社Ｇ．Ｉファイナンス,,株式会社,東京都,渋谷区,恵比寿４丁目５番２３号ルイシャトレ恵比寿５０７号室,,13,113,1500013,,,,,,,2022-06-07,1,,,,,ジーアイファイナンス,0
324,2011003014785,新規,0,2022-06-07,2022-06-07,合同会社ワークスリー,,合同会社,東京都,渋谷区,代々木２丁目１１番１２号,,13,113,1510053,,,,,,,2022-06-07,1,,,,,ワークスリー,0
325,2011003014810,新規,0,2022-06-07,2022-06-07,合同会社Ｄｉｏｎｏａ,,合同会社,東京都,渋谷区,恵比寿１丁目８－１８Ｋ－１ビル３Ｆ,,13,113,1500013,,,,,,,2022-06-07,1,,,,,ディオノア,0
326,2011201023852,新規,0,2022-06-07,2022-06-07,福吉株式会社,,株式会社,東京都,中野区,本町５丁目２４番１１－３０２,,13,114,1640012,,,,,,,2022-06-07,1,,,,,フクキチ,0
327,2011301027828,新規,0,2022-06-07,2022-06-07,株式会社オネスト,,株式会社,東京都,杉並区,永福１丁目３９番１５号メゾンメイワ１０１,,13,115,1680064,,,,,,,2022-06-07,1,,,,,オネスト,0
328,2011303004429,新規,0,2022-06-07,2022-06-07,令和東京合同会社,,合同会社,東京都,杉並区,成田東４丁目３４番４号カーサＴＫ２０１,,13,115,1660015,,,,,,,2022-06-07,1,,,,,レイワトウキョウ,0
331,2011401024295,新規,0,2022-06-07,2022-06-07,けあばーす株式会社,,株式会社,東京都,板橋区,成増１丁目３５番３－３１２号,,13,119,1750094,,,,,,,2022-06-07,1,,,,,ケアバース,0
344,2012301005526,新規,0,2022-06-07,2022-06-07,キャラットジャパン株式会社,,株式会社,東京都,町田市,鶴間１丁目２１番１２号,,13,209,1940004,,,,,,,2022-06-07,1,,,,,キャラットジャパン,0
346,2012301013009,新規,0,2022-06-07,2022-06-07,株式会社ギフトダイバーシティソリューション,,株式会社,東京都,町田市,森野１丁目２３番１９号,,13,209,1940022,,,,,,,2022-06-07,1,,,,,ギフトダイバーシティソリューション,0
351,2012403005408,新規,0,2022-06-07,2022-06-07,合同会社ＹＯＨＡＫＵ,,合同会社,東京都,調布市,仙川町１丁目３３番地５０,,13,208,1820002,,,,,,,2022-06-07,1,,,,,ヨハク,0
352,2012405004746,新規,0,2022-06-07,2022-06-07,一般社団法人日本メロディックイントネーションセラピー協会,,その他の設立登記法人,東京都,三鷹市,上連雀１丁目１番５－２０５号,,13,204,1810012,,,,,,,2022-06-07,1,,,,,ニホンメロディックイントネーションセラピーキョウカイ,0
353,2012701017096,新規,0,2022-06-07,2022-06-07,株式会社ポノワ,,株式会社,東京都,東村山市,多摩湖町１丁目１３番地２２,,13,213,1890026,,,,,,,2022-06-07,1,,,,,ポノワ,0
354,2013301049208,新規,0,2022-06-07,2022-06-07,株式会社Ｓ＆Ｇコミュニケーションズ,,株式会社,東京都,豊島区,東池袋１丁目３０番６号セイコーサンシャインビルＸＩＩ９Ｆ,00126802,13,116,1700013,,,,,,,2022-06-07,1,,,,,エスアンドジーコミュニケーションズ,0
360,2020001146788,新規,0,2022-06-07,2022-06-07,株式会社我楽多,,株式会社,神奈川県,川崎市麻生区,上麻生５丁目５１番２号,,14,137,2150021,,,,,,,2022-06-07,1,,,,,ガラクタ,0
361,2020001146813,新規,0,2022-06-07,2022-06-07,アンドア株式会社,,株式会社,神奈川県,横浜市西区,北幸１丁目１－８エキニア横浜５階ＨａｍａＰｏｒｔ,,14,103,2200004,,,,,,,2022-06-07,1,,,,,アンドア,0
367,2020003021881,新規,0,2022-06-07,2022-06-07,福丸音楽舎合同会社,,合同会社,神奈川県,横浜市中区,桜木町１丁目１０１番地１クロスゲート７階,,14,104,2310062,,,,,,,2022-06-07,1,,,,,フクマルオンガクシャ,0
371,2021001076133,新規,0,2022-06-07,2022-06-07,株式会社エス・エス・ストラクチャーズ,,株式会社,神奈川県,相模原市緑区,橋本３丁目１１番２号小池ビル２Ａ,,14,151,2520143,,,,,,,2022-06-07,1,,,,,エスエスストラクチャーズ,0
372,2021001076174,新規,0,2022-06-07,2022-06-07,株式会社ゼンシン,,株式会社,神奈川県,茅ヶ崎市,中海岸２丁目４－２５,,14,207,2530055,,,,,,,2022-06-07,1,,,,,ゼンシン,0
377,2021003011798,新規,0,2022-06-07,2022-06-07,合同会社ＷＦＡ　Ｃｏｍｐａｎｙ,,合同会社,神奈川県,相模原市南区,上鶴間７丁目３番１－２０８号,,14,153,2520302,,,,,,,2022-06-07,1,,,,,ダブリューエフエーカンパニー,0
380,2030001148429,新規,0,2022-06-07,2022-06-07,株式会社Ｈｙｇｉｅ’ｓ,,株式会社,埼玉県,所沢市,緑町２丁目７番１３号,,11,208,3591111,,,,,,,2022-06-07,1,,,,,ハイジーズ,0
381,2030001148511,新規,0,2022-06-07,2022-06-07,株式会社大源,,株式会社,埼玉県,狭山市,大字上奥富３８６番地,,11,215,3501333,,,,,,,2022-06-07,1,,,,,ダイゲン,0
382,2030001148569,新規,0,2022-06-07,2022-06-07,株式会社ＬｕａｎａＨｏｕｓｅ,,株式会社,埼玉県,さいたま市南区,根岸３丁目２９番７－２０２号,,11,108,3360024,,,,,,,2022-06-07,1,,,,,ルアナハウス,0
394,2040001123686,新規,0,2022-06-07,2022-06-07,株式会社さとじゅう,,株式会社,千葉県,東金市,田間６１８番地２ダイアパレス東金第２－９０１号,,12,213,2830005,,,,,,,2022-06-07,1,,,,,サトジュウ,0
395,2040001123694,新規,0,2022-06-07,2022-06-07,株式会社さくらかだん,,株式会社,千葉県,八千代市,米本２６６８番地３,,12,221,2760015,,,,,,,2022-06-07,1,,,,,サクラカダン,0
396,2040001123736,新規,0,2022-06-07,2022-06-07,株式会社サウロ,,株式会社,千葉県,柏市,若柴１番地７０,,12,217,2770871,,,,,,,2022-06-07,1,,,,,サウロ,0
397,2040001123744,新規,0,2022-06-07,2022-06-07,ＡＳＩＡ＆ＷＯＲＬＤＷＩＤＥ株式会社,,株式会社,千葉県,鎌ケ谷市,南初富３丁目１４番２７号（ボヌールミキ２０３）,,12,224,2730123,,,,,,,2022-06-07,1,,,,,アジアアンワールドワイド,0
398,2040001123760,新規,0,2022-06-07,2022-06-07,株式会社ＳＴＡＴＥＳ‐１,,株式会社,千葉県,浦安市,当代島１丁目３番２３－３０２号,,12,227,2790001,,,,,,,2022-06-07,1,,,,,ステイツワン,0
400,2040003020155,新規,0,2022-06-07,2022-06-07,シーバ・インベストメント合同会社,,合同会社,千葉県,四街道市,旭ケ丘４丁目１２番１号,,12,228,2840024,,,,,,,2022-06-07,1,,,,,シーバインベストメント,0
401,2040003020163,新規,0,2022-06-07,2022-06-07,合同会社Ｌ部,,合同会社,千葉県,柏市,東上町３番４号１Ｆ,,12,217,2770011,,,,,,,2022-06-07,1,,,,,エルブ,0
402,2040003020196,新規,0,2022-06-07,2022-06-07,合同会社ナカトモ,,合同会社,千葉県,松戸市,根木内３７番地の７フォレストハーモニー３０６号,,12,207,2700011,,,,,,,2022-06-07,1,,,,,ナカトモ,0
408,2060003004098,新規,0,2022-06-07,2022-06-07,アイビーエヌカンパニー合同会社,,合同会社,栃木県,宇都宮市,御幸ケ原町１２４番地５,,09,201,3210982,,,,,,,2022-06-07,1,,,,,アイビーエヌカンパニー,0
410,2070001039293,新規,0,2022-06-07,2022-06-07,株式会社今井製作所,,株式会社,群馬県,富岡市,黒川２６番地３,,10,210,3702344,,,,,,,2022-06-07,1,,,,,イマイセイサクジョ,0
413,2080001024988,新規,0,2022-06-07,2022-06-07,株式会社みんなの学校,,株式会社,静岡県,静岡市清水区,八坂東１丁目５番５７号,,22,103,4240024,,,,,,,2022-06-07,1,,,,,ミンナノガッコウ,0
415,2080101023329,新規,0,2022-06-07,2022-06-07,株式会社鳩森商店,,株式会社,静岡県,沼津市,新町４番地,,22,203,4100895,,,,,,,2022-06-07,1,,,,,ハトノモリショウテン,0
448,2120001246322,新規,0,2022-06-07,2022-06-07,日本尚合株式会社,,株式会社,大阪府,大阪市北区,豊崎３丁目１５番５号ＴＫビル２階,,27,127,5310072,,,,,,,2022-06-07,1,,,,,ニホンナオアイ,0
460,2120901046029,新規,0,2022-06-07,2022-06-07,株式会社Ｕ‐コネクト,,株式会社,大阪府,吹田市,千里丘下６番Ｅ－３０７号,,27,205,5650813,,,,,,,2022-06-07,1,,,,,ユーコネクト,0
484,2150001025599,新規,0,2022-06-07,2022-06-07,株式会社上野コーポレーション,,株式会社,奈良県,生駒市,俵口町８０３番地,,29,209,6300243,,,,,,,2022-06-07,1,,,,,ウエノコーポレーション,0
487,2170001017140,新規,0,2022-06-07,2022-06-07,隆田株式会社,,株式会社,和歌山県,海南市,阪井６５２番地１８,,30,202,6420024,,,,,,,2022-06-07,1,,,,,タカタ,0
492,2180001151533,新規,0,2022-06-07,2022-06-07,株式会社ＭＹ　ＲＯＯＭ,,株式会社,愛知県,名古屋市緑区,鳥澄３丁目１３０５,,23,114,4580025,,,,,,,2022-06-07,1,,,,,マイルーム,0
513,2230005009235,新規,0,2022-06-07,2022-06-07,社会保険労務士法人ワークデザイン,,その他の設立登記法人,富山県,富山市,西中野町２丁目１５‐３０ミノワビル２Ｆ,,16,201,9398084,,,,,,,2022-06-07,1,,,,,ワークデザイン,0
520,2240001059893,新規,0,2022-06-07,2022-06-07,株式会社真誠,,株式会社,広島県,広島市東区,福田２丁目６８８番地３,,34,102,7320029,,,,,,,2022-06-07,1,,,,,シンセイ,0
523,2250001019608,新規,0,2022-06-07,2022-06-07,株式会社優栄工業,,株式会社,山口県,宇部市,大字船木３０１番地２,,35,202,7570216,,,,,,,2022-06-07,1,,,,,ユウエイコウギョウ,0
535,2290001097749,新規,0,2022-06-07,2022-06-07,株式会社セカンドコンサル,,株式会社,福岡県,福岡市南区,野多目６丁目１１番２８号,,40,134,8111347,,,,,,,2022-06-07,1,,,,,セカンドコンサル,0
536,2290001097757,新規,0,2022-06-07,2022-06-07,株式会社ｓｏｋｕｓｅｉ,,株式会社,福岡県,柳川市,大和町豊原６０１番地１,,40,207,8390242,,,,,,,2022-06-07,1,,,,,ソクセイ,0
537,2290001097765,新規,0,2022-06-07,2022-06-07,株式会社ＩＣＨＩ,,株式会社,福岡県,福岡市中央区,小笹１丁目１１番３３－３０２号,,40,133,8100033,,,,,,,2022-06-07,1,,,,,イチ,0
538,2290001097773,新規,0,2022-06-07,2022-06-07,株式会社クロスカントリー,,株式会社,福岡県,福岡市中央区,赤坂１丁目２番１号,,40,133,8100042,,,,,,,2022-06-07,1,,,,,クロスカントリー,0
539,2290001097798,新規,0,2022-06-07,2022-06-07,西日本テック株式会社,,株式会社,福岡県,太宰府市,青山３丁目１９番２６号,,40,221,8180121,,,,,,,2022-06-07,1,,,,,ニシニホンテック,0
540,2290001097823,新規,0,2022-06-07,2022-06-07,株式会社Ｋ＆Ｒ,,株式会社,福岡県,久留米市,篠原町４番地６プレミスト久留米１１０４号,,40,203,8300036,,,,,,,2022-06-07,1,,,,,ケイアンドアール,0
542,2290003012581,新規,0,2022-06-07,2022-06-07,合同会社リ・アキュート,,合同会社,福岡県,福岡市東区,香椎照葉６丁目３－１２－１３１５号,,40,131,8130017,,,,,,,2022-06-07,1,,,,,リアキュート,0
554,2330001029796,新規,0,2022-06-07,2022-06-07,株式会社かなうま,,株式会社,熊本県,天草市,佐伊津町５８４２番地４３,,43,215,8632171,,,,,,,2022-06-07,1,,,,,カナウマ,0
562,2350001017790,新規,0,2022-06-07,2022-06-07,デジタルコミュニティ株式会社,,株式会社,宮崎県,宮崎市,宮崎駅東２丁目７番地１０ヴィラージュＭ１－４０１号,,45,201,8800879,,,,,,,2022-06-07,1,,,,,デジタルコミュニティ,0
565,2360001030504,新規,0,2022-06-07,2022-06-07,ＢＬＵＥ　ＣＯＲＡＬ株式会社,,株式会社,沖縄県,那覇市,安謝２丁目１６－１－４０３,,47,201,9000003,,,,,,,2022-06-07,1,,,,,ブルーコーラル,0
566,2360001030512,新規,0,2022-06-07,2022-06-07,株式会社ＷＯＮＤＡＹ,,株式会社,沖縄県,うるま市,石川東恩納３６４番地１,,47,213,9041111,,,,,,,2022-06-07,1,,,,,ワンデイ,0
568,2370001048628,新規,0,2022-06-07,2022-06-07,株式会社柳川造園,,株式会社,宮城県,仙台市太白区,茂庭字中ノ瀬中１番地の１２９,,04,104,9820251,,,,,,,2022-06-07,1,,,,,ヤナガワゾウエン,0
578,2390001016913,新規,0,2022-06-07,2022-06-07,株式会社ウエムラ,,株式会社,山形県,寒河江市,大字島字皿沼６５９番地の３,,06,206,9910043,,,,,,,2022-06-07,1,,,,,ウエムラ,0
580,2390005008964,新規,0,2022-06-07,2022-06-07,税理士法人三和会計事務所,,その他の設立登記法人,山形県,山形市,浜崎７６番地７,,06,201,9900072,,,,,,,2022-06-07,1,,,,,サンワカイケイジムショ,0
586,2410001013206,新規,0,2022-06-07,2022-06-07,株式会社北斗商事,,株式会社,秋田県,湯沢市,杉沢字戸石崎１２８番地１,,05,207,0120804,,,,,,,2022-06-07,1,,,,,ホクトショウジ,0
588,2420001017874,新規,0,2022-06-07,2022-06-07,グリランド株式会社,,株式会社,青森県,十和田市,大字奥瀬字十和田湖畔宇樽部１２３番地１,,02,206,0185501,,,,,,,2022-06-07,1,,,,,グリランド,0
590,2430001086786,新規,0,2022-06-07,2022-06-07,株式会社Ｂｉｏｓ　Ｅａｓｔ,,株式会社,北海道,札幌市東区,北十四条東１２丁目１番３号,,01,103,0650014,,,,,,,2022-06-07,1,,,,,バイオスイースト,0
592,2430003013978,新規,0,2022-06-07,2022-06-07,ＦｉｒｓｔＰｉｐｓ合同会社,,合同会社,北海道,札幌市厚別区,大谷地西５丁目１番１号,,01,108,0040042,,,,,,,2022-06-07,1,,,,,ファアストピップス,0
593,2430003013986,新規,0,2022-06-07,2022-06-07,合同会社Ｏｈａｋｏ,,合同会社,北海道,札幌市西区,西町北１０丁目４番１２－２０２号,,01,107,0630061,,,,,,,2022-06-07,1,,,,,オハコ,0
596,2490001010195,新規,0,2022-06-07,2022-06-07,株式会社イマニシ設備,,株式会社,高知県,高知市,神田１７４１番地３,,39,201,7808040,,,,,,,2022-06-07,1,,,,,イマニシセツビ,0
614,3010001227051,新規,0,2022-06-07,2022-06-07,ＡＡＲＯＮ　ＣＵＬＴＵＲＥ株式会社,,株式会社,東京都,中央区,銀座２丁目１３－１８－３０６,,13,102,1040061,,,,,,,2022-06-07,1,,,,,,0
615,3010001227068,新規,0,2022-06-07,2022-06-07,株式会社ＯＮＥ　ＰＯＩＮＴ　ＺＥＲＯ,,株式会社,東京都,中央区,銀座４丁目１２番１５号,,13,102,1040061,,,,,,,2022-06-07,1,,,,,ワンポイントゼロ,0
618,3010003037829,新規,0,2022-06-07,2022-06-07,合同会社メデューサ,,合同会社,東京都,文京区,千石４丁目３５番１６号,,13,105,1120011,,,,,,,2022-06-07,1,,,,,メデューサ,0
619,3010005035104,新規,0,2022-06-07,2022-06-07,一般社団法人ＭＳＣ,,その他の設立登記法人,東京都,中央区,銀座７丁目８番１３号,,13,102,1040061,,,,,,,2022-06-07,1,,,,,エムエスシー,0
620,3010103001932,新規,0,2022-06-07,2022-06-07,チャランボ合同会社,,合同会社,東京都,八王子市,元八王子町２丁目１９１１－２メゾンチェルシー２０３,,13,201,1930826,,,,,,,2022-06-07,1,,,,,チャランボ,0
624,3010401167500,新規,0,2022-06-07,2022-06-07,カナダナチュラルフード株式会社,,株式会社,東京都,港区,新橋６丁目８番１－２０４室,,13,103,1050004,,,,,,,2022-06-07,1,,,,,カナダナチュラルフード,0
625,3010401167665,新規,0,2022-06-07,2022-06-07,コミュニティラボ株式会社,,株式会社,東京都,港区,南麻布２丁目５－１６グランドメゾン南麻布９０１,,13,103,1060047,,,,,,,2022-06-07,1,,,,,コミュニティラボ,0
626,3010401167748,新規,0,2022-06-07,2022-06-07,株式会社Ｊｕｇａｒ　Ｓｕｎ,,株式会社,東京都,港区,南青山３丁目３番３号リベイラ南青山ビルＡ,,13,103,1070062,,,,,,,2022-06-07,1,,,,,ジュガールサン,0
627,3010401167780,新規,0,2022-06-07,2022-06-07,株式会社プラチナエイト,,株式会社,東京都,港区,南麻布３丁目１番４号,,13,103,1060047,,,,,,,2022-06-07,1,,,,,プラチナエイト,0
628,3010401167814,新規,0,2022-06-07,2022-06-07,株式会社ＤＡＤＡ,,株式会社,東京都,港区,南青山４丁目８番８号クレール南青山１０２,,13,103,1070062,,,,,,,2022-06-07,1,,,,,ダダ,0
629,3010403027818,新規,0,2022-06-07,2022-06-07,合同会社ＭＡＨＡＮＡ１４,,合同会社,東京都,港区,六本木６丁目１２番２－３３０７号,,13,103,1060032,,,,,,,2022-06-07,1,,,,,マハナフォーティーン,0
635,3010501048922,新規,0,2022-06-07,2022-06-07,株式会社ｂｅｌｌｉｓｓｉｍａ,,株式会社,東京都,台東区,台東３丁目５番１０号,,13,106,1100016,,,,,,,2022-06-07,1,,,,,ベリッシマ,0
637,3010603009566,新規,0,2022-06-07,2022-06-07,ＫＨＵＯＮＧ　ＴＨＵＹ合同会社,,合同会社,東京都,墨田区,両国４丁目３２番２号,,13,107,1300026,,,,,,,2022-06-07,1,,,,,クゥントゥイ,0
642,3010701042766,新規,0,2022-06-07,2022-06-07,株式会社濱崎塗装,00126786,株式会社,東京都,品川区,東大井２丁目２４番７号,,13,109,1400011,,,,,,,2022-06-07,1,,,,,ハマサキトソウ,0
643,3010701042774,新規,0,2022-06-07,2022-06-07,株式会社イズム,,株式会社,東京都,品川区,東五反田１丁目１６番１号,,13,109,1410022,,,,,,,2022-06-07,1,,,,,イズム,0
646,3010801033013,新規,0,2022-06-07,2022-06-07,株式会社Ｋｎｏｗｌｅｄｇｅ　Ｋｎａｃｋ,,株式会社,東京都,大田区,大森中１丁目４番３号プロスペールＳ９０１,,13,111,1430014,,,,,,,2022-06-07,1,,,,,ナレッジナック,0
654,3010901050998,新規,0,2022-06-07,2022-06-07,株式会社ｂａｍｂｏｕ,,株式会社,東京都,世田谷区,三宿１丁目１８－１１フェリーチェ三宿１０１,,13,112,1540005,,,,,,,2022-06-07,1,,,,,バンブー,0
656,3010903007419,新規,0,2022-06-07,2022-06-07,合同会社ジュブナイルボート,,合同会社,東京都,世田谷区,上馬３丁目６番１１号コンフォリア世田谷上馬３０９,,13,112,1540011,,,,,,,2022-06-07,1,,,,,ジュブナイルボート,0
664,3011001147859,新規,0,2022-06-07,2022-06-07,ヤスタグループ株式会社,,株式会社,東京都,渋谷区,神宮前６丁目２９番４号原宿Ｋｏｍｉｙａビル６階,,13,113,1500001,,,,,,,2022-06-07,1,,,,,ヤスタグループ,0
673,3011101099100,新規,0,2022-06-07,2022-06-07,株式会社令和ガールズ,,株式会社,東京都,新宿区,西新宿８丁目１４番１９号小林第二ビル８階,,13,104,1600023,,,,,,,2022-06-07,1,,,,,レイワガールズ,0
674,3011103011822,新規,0,2022-06-07,2022-06-07,合同会社ＴＣＳ,,合同会社,東京都,新宿区,西新宿５丁目２３番１号,,13,104,1600023,,,,,,,2022-06-07,1,,,,,ティーシーエス,0
675,3011201023868,新規,0,2022-06-07,2022-06-07,株式会社ＯＰＥＮ　ＣＯＮＮＥＣＴ,,株式会社,東京都,中野区,中央３丁目３３番１号,,13,114,1640011,,,,,,,2022-06-07,1,,,,,オープンコネクト,0
678,3011401024278,新規,0,2022-06-07,2022-06-07,株式会社ＳＨＲ,,株式会社,東京都,板橋区,板橋４丁目６２番６－３０２号,,13,119,1730004,,,,,,,2022-06-07,1,,,,,エスエイチアール,0
679,3011401024294,新規,0,2022-06-07,2022-06-07,株式会社オルキス,,株式会社,東京都,板橋区,徳丸３丁目３７番１７－４０５号,,13,119,1750083,,,,,,,2022-06-07,1,,,,,オルキス,0
681,3011501028105,新規,0,2022-06-07,2022-06-07,株式会社雪堂,,株式会社,東京都,荒川区,東日暮里３丁目２８番５号ＣｒｙｓｔａｌＢｕｉｌｄｉｎｇ１階,,13,118,1160014,,,,,,,2022-06-07,1,,,,,セツドウ,0
688,3012303001687,新規,0,2022-06-07,2022-06-07,万事屋合同会社,,合同会社,東京都,町田市,高ヶ坂５丁目６番３８号,,13,209,1940014,,,,,,,2022-06-07,1,,,,,ヨロズヤ,0
691,3012403005407,新規,0,2022-06-07,2022-06-07,Ｃｒｏｓｓ　Ｃｈａｉｎ合同会社,,合同会社,東京都,三鷹市,下連雀６丁目７番２７号クレスト井の頭１０２,,13,204,1810013,,,,,,,2022-06-07,1,,,,,クロスチェーン,0
692,3012405004745,新規,0,2022-06-07,2022-06-07,ＮＰＯ法人はらっぱの会,,その他の設立登記法人,東京都,稲城市,向陽台５丁目１０番地リベレ向陽台４－１２１号,,13,225,2060803,,,,,,,2022-06-07,1,,,,,ハラッパノカイ,0
694,3013105001801,新規,0,2022-06-07,2022-06-07,Ｒｅｖｉｖｅ　Ｐａｒｔｎｅｒｓ行政書士法人,,その他の設立登記法人,東京都,西多摩郡奥多摩町,川井５９４,,13,308,1980102,,,,,,,2022-06-07,1,,,,,リバイブパートナーズ,0
707,3020003021880,新規,0,2022-06-07,2022-06-07,合同会社ＪＶＴＴＲＡＤＩＮＧ,,合同会社,神奈川県,横浜市中区,伊勢佐木町６丁目１３６番地１３,,14,104,2310045,,,,,,,2022-06-07,1,,,,,ジェヴィティトレーディング,0
716,3021001076173,新規,0,2022-06-07,2022-06-07,株式会社ピース,,株式会社,神奈川県,横須賀市,本町１丁目５番５号第一上田ビル１Ｆ,,14,201,2380041,,,,,,,2022-06-07,1,,,,,ピース,0
719,3021003011797,新規,0,2022-06-07,2022-06-07,合同会社前門飯店,,合同会社,神奈川県,横須賀市,追浜本町１丁目２７番地４,,14,201,2370068,,,,,,,2022-06-07,1,,,,,ゼンモンハンテン,0
721,3030001148502,新規,0,2022-06-07,2022-06-07,株式会社Ｏｖｅｒａｌｌ,,株式会社,埼玉県,ふじみ野市,苗間４３５番地８キャメルふじみ野ＩＶ２０１,00126792,11,245,3560052,,,,,,,2022-06-07,1,,,,,オーバーオール,0
722,3030001148510,新規,0,2022-06-07,2022-06-07,株式会社Ｙ．Ｅ．Ｃ,,株式会社,埼玉県,越谷市,南越谷１丁目４番５４号南越ビル１０１,,11,222,3430845,,,,,,,2022-06-07,1,,,,,ワイイーシー,0
723,3030001148519,新規,0,2022-06-07,2022-06-07,株式会社マリンダック,,株式会社,埼玉県,川口市,大字新井宿４５番地の５,,11,203,3330826,,,,,,,2022-06-07,1,,,,,マリンダック,0
724,3030001148576,新規,0,2022-06-07,2022-06-07,株式会社ＣＬＯＵＤ　ＮＩＮＥ,,株式会社,埼玉県,さいたま市大宮区,吉敷町３丁目１６７番地２,,11,103,3300843,,,,,,,2022-06-07,1,,,,,クラウドナイン,0
727,3030003019528,新規,0,2022-06-07,2022-06-07,合同会社Ｔｈｅ　ｈｉｖｅ,,合同会社,埼玉県,飯能市,栄町１番地２７プロスペルＴＭＫＷ（Ｂ１）,,11,209,3570025,,,,,,,2022-06-07,1,,,,,ザハイヴ,0
732,3040001123603,新規,0,2022-06-07,2022-06-07,株式会社ＲＫプランニング,,株式会社,千葉県,浦安市,日の出５丁目３番Ｂ－８０２号,,12,227,2790013,,,,,,,2022-06-07,1,,,,,アールケイプランニング,0
733,3040001123652,新規,0,2022-06-07,2022-06-07,株式会社ＭＡＳＡＫＩ　ＳＱＵＡＤ,,株式会社,千葉県,柏市,柏６丁目７番７号葉山ビル２０２,,12,217,2770005,,,,,,,2022-06-07,1,,,,,マサキスクアッド,0
734,3040001123702,新規,0,2022-06-07,2022-06-07,株式会社ＣＩＲＥＡＬ,,株式会社,千葉県,柏市,柏７丁目４番１６－１０１号,,12,217,2770005,,,,,,,2022-06-07,1,,,,,シリアル,0
735,3040001123710,新規,0,2022-06-07,2022-06-07,株式会社３５８,,株式会社,千葉県,成田市,新駒井野８９番地２,,12,211,2860123,,,,,,,2022-06-07,1,,,,,サンゴウハチ,0
736,3040001123719,新規,0,2022-06-07,2022-06-07,株式会社大喜,,株式会社,千葉県,八千代市,高津２９９番地３,,12,221,2760036,,,,,,,2022-06-07,1,,,,,ダイキ,0
737,3040003020179,新規,0,2022-06-07,2022-06-07,合同会社左関工業,,合同会社,千葉県,船橋市,薬円台６丁目７番２３ー３０３号,,12,204,2740077,,,,,,,2022-06-07,1,,,,,サカンコウギョウ,0
738,3040003020187,新規,0,2022-06-07,2022-06-07,合同会社吉村製作所,,合同会社,千葉県,四街道市,鹿放ケ丘２６２番１,,12,228,2840008,,,,,,,2022-06-07,1,,,,,ヨシムラセイサクショ,0
739,3040003020195,新規,0,2022-06-07,2022-06-07,合同会社なないろ,,合同会社,千葉県,松戸市,松戸１１３９番地の２ライオンズステーションタワー松戸１３０４号,,12,207,2710092,,,,,,,2022-06-07,1,,,,,ナナイロ,0
740,3040005021638,新規,0,2022-06-07,2022-06-07,行政書士法人イマジンフィールズ,,その他の設立登記法人,千葉県,松戸市,西馬橋１丁目２６番地の２７,,12,207,2710044,,,,,,,2022-06-07,1,,,,,イマジンフィールズ,0
746,3060003004097,新規,0,2022-06-07,2022-06-07,かぬまにら合同会社,,合同会社,栃木県,鹿沼市,深津１８８４番地,,09,205,3220013,,,,,,,2022-06-07,1,,,,,カヌマニラ,0
766,3100001035404,新規,0,2022-06-07,2022-06-07,アキタル株式会社,,株式会社,長野県,佐久市,小田井８２５番地４,,20,217,3850009,,,,,,,2022-06-07,1,,,,,アキタル,0
768,3110001036707,新規,0,2022-06-07,2022-06-07,株式会社高助ＨＤ,00126787,株式会社,新潟県,新潟市中央区,礎町通４ノ町２１００番地,,15,103,9518055,,,,,,,2022-06-07,1,,,,,タカスケエイチディ,0
769,3110003004785,新規,0,2022-06-07,2022-06-07,Ｒｅｔｅｒｒａｓ合同会社,,合同会社,新潟県,岩船郡粟島浦村,１３９番地,,15,586,9580061,,,,,,,2022-06-07,1,,,,,リテラス,0
786,3120001246453,新規,0,2022-06-07,2022-06-07,ｅコンサ株式会社,,株式会社,大阪府,大阪市淀川区,西中島４丁目３番２１号９階,,27,123,5320011,,,,,,,2022-06-07,1,,,,,エコンサ,0
787,3120001246461,新規,0,2022-06-07,2022-06-07,青川株式会社,,株式会社,大阪府,大阪市中央区,南船場１丁目１０番１２号４０３号室,,27,128,5420081,,,,,,,2022-06-07,1,,,,,アオカワ,0
795,3120101065679,新規,0,2022-06-07,2022-06-07,Ｇｏｏｄ　ｓｕｎ株式会社,,株式会社,大阪府,堺市南区,三原台３丁３４番９号,,27,145,5900111,,,,,,,2022-06-07,1,,,,,グッドサン,0
801,3120901046036,新規,0,2022-06-07,2022-06-07,株式会社和田組,,株式会社,大阪府,吹田市,藤白台１丁目２番１１号,,27,205,5650873,,,,,,,2022-06-07,1,,,,,ワダグミ,0
802,3122001035919,新規,0,2022-06-07,2022-06-07,株式会社Ｎｅｏ　ｆｉｘ,,株式会社,大阪府,東大阪市,五条町１番８号,,27,227,5798042,,,,,,,2022-06-07,1,,,,,ネオフィックス,0
807,3140001126240,新規,0,2022-06-07,2022-06-07,株式会社エムプラス,,株式会社,兵庫県,尼崎市,今福１丁目１番２８－１０９号,,28,202,6600812,,,,,,,2022-06-07,1,,,,,エムプラス,0
808,3140001126249,新規,0,2022-06-07,2022-06-07,株式会社アクティアサポート,,株式会社,兵庫県,明石市,大久保町山手台２丁目１０５番地の１,,28,203,6740056,,,,,,,2022-06-07,1,,,,,アクティアサポート,0
815,3150001025598,新規,0,2022-06-07,2022-06-07,株式会社幸屋,,株式会社,奈良県,生駒市,壱分町１８２番地２ネオハイツ３０８,,29,209,6300222,,,,,,,2022-06-07,1,,,,,サチヤ,0
816,3150001025607,新規,0,2022-06-07,2022-06-07,株式会社大和舗装,,株式会社,奈良県,奈良市,古市町２３５２番地の５８,,29,201,6308424,,,,,,,2022-06-07,1,,,,,,0
827,3190001029471,新規,0,2022-06-07,2022-06-07,株式会社ＲｉＤＧＥ,,株式会社,三重県,四日市市,大字西阿倉川１４１５番地７,,24,202,5100812,,,,,,,2022-06-07,1,,,,,リッジ,0
828,3190001029488,新規,0,2022-06-07,2022-06-07,株式会社藤建築,,株式会社,三重県,四日市市,南納屋町１３番１号,,24,202,5100043,,,,,,,2022-06-07,1,,,,,フジケンチク,0
836,3200003005584,新規,0,2022-06-07,2022-06-07,合同会社レドル,,合同会社,岐阜県,瑞浪市,土岐町９５３番地の９,,21,208,5096101,,,,,,,2022-06-07,1,,,,,レドル,0
850,3250001019607,新規,0,2022-06-07,2022-06-07,森下設備株式会社,,株式会社,山口県,宇部市,大字際波３５５番地２４９,,35,202,7590207,,,,,,,2022-06-07,1,,,,,モリシタセツビ,0
860,3290001097764,新規,0,2022-06-07,2022-06-07,株式会社ｓｅｓｓｉｏｎ,,株式会社,福岡県,福岡市中央区,大名１丁目２番９－１０１号,,40,133,8100041,,,,,,,2022-06-07,1,,,,,セッション,0
861,3290001097789,新規,0,2022-06-07,2022-06-07,株式会社ＫＵＧＡ,,株式会社,福岡県,朝倉市,千手１７５番地１,,40,228,8380017,,,,,,,2022-06-07,1,,,,,クガ,0
862,3290001097806,新規,0,2022-06-07,2022-06-07,株式会社アクロニムテクノロジー,,株式会社,福岡県,福岡市中央区,平和５丁目１３－４２,,40,133,8100016,,,,,,,2022-06-07,1,,,,,アクロニムテクノロジー,0
863,3290001097822,新規,0,2022-06-07,2022-06-07,株式会社ＥＳＧサポート,,株式会社,福岡県,福岡市西区,石丸１丁目１８番４－５０８号,,40,135,8190025,,,,,,,2022-06-07,1,,,,,イーエスジーサポート,0
865,3290003012580,新規,0,2022-06-07,2022-06-07,和栄合同会社,,合同会社,福岡県,福岡市博多区,住吉３丁目５－２,,40,132,8120018,,,,,,,2022-06-07,1,,,,,ワエイ,0
875,3340001024746,新規,0,2022-06-07,2022-06-07,深井株式會社,,株式会社,鹿児島県,鹿児島市,新屋敷町３番２２号,,46,201,8920838,,,,,,,2022-06-07,1,,,,,フカイ,0
876,3340001024787,新規,0,2022-06-07,2022-06-07,ｍａｋｅ　ｏｎｅ’ｓ　Ｄ．Ｃ．Ｔ株式会社,,株式会社,鹿児島県,鹿児島市,東坂元２丁目６２－８,,46,201,8920861,,,,,,,2022-06-07,1,,,,,メイクワンズディシーティ,0
881,3360001030511,新規,0,2022-06-07,2022-06-07,開邦研究所株式会社,,株式会社,沖縄県,那覇市,古波蔵２丁目４番１４号第１開邦ビル４階,,47,201,9000024,,,,,,,2022-06-07,1,,,,,カイホウケンキュウショ,0
882,3360001030528,新規,0,2022-06-07,2022-06-07,ＲＯＭＥＯ沖縄株式会社,,株式会社,沖縄県,糸満市,字兼城３３９番地の８、Ｆステージ西崎東店舗棟１Ｆ,,47,210,9010303,,,,,,,2022-06-07,1,,,,,ロミオオキナワ,0
884,3370001048610,新規,0,2022-06-07,2022-06-07,らす・てる仙台株式会社,,株式会社,宮城県,仙台市泉区,泉ケ丘１丁目１３番４号,,04,105,9813201,,,,,,,2022-06-07,1,,,,,ラステルセンダイ,0
887,3380001032877,新規,0,2022-06-07,2022-06-07,株式会社マルキク,,株式会社,福島県,会津若松市,行仁町１３番１５号,,07,202,9650033,,,,,,,2022-06-07,1,,,,,マルキク,0
888,3380005012594,新規,0,2022-06-07,2022-06-07,一般社団法人シニアサポート倶楽部,,その他の設立登記法人,福島県,郡山市,緑ケ丘東８丁目１番地の２,,07,203,9630702,,,,,,,2022-06-07,1,,,,,シニアサポートクラブ,0
897,3420001017881,新規,0,2022-06-07,2022-06-07,株式会社ＳＥＩＳＨＩＮ．Ｓ,,株式会社,青森県,十和田市,大字三本木字一本木沢１２５番地６,,02,206,0340001,,,,,,,2022-06-07,1,,,,,セイシンドットエス,0
901,3430001086777,新規,0,2022-06-07,2022-06-07,株式会社ベストユニバーサルサービス,,株式会社,北海道,江別市,牧場町１５番地の２,,01,217,0670005,,,,,,,2022-06-07,1,,,,,ベストユニバーサルサービス,0
911,3490001010194,新規,0,2022-06-07,2022-06-07,株式会社Ｙ・ＡＣＥ,,株式会社,高知県,高知市,介良乙３０２３番地６,,39,201,7815106,,,,,,,2022-06-07,1,,,,,ワイエース,0
921,4010001227075,新規,0,2022-06-07,2022-06-07,阪和ダイサン株式会社,,株式会社,東京都,中央区,築地１丁目１３番１号,,13,102,1040045,,,,,,,2022-06-07,1,,,,,ハンワダイサン,0
922,4010001227091,新規,0,2022-06-07,2022-06-07,ＪＰＭＤコンサルティング株式会社,,株式会社,東京都,中央区,銀座７丁目１３番２１号銀座ｓｉｎｒｏｋｕｓｙｕビル２階,,13,102,1040061,,,,,,,2022-06-07,1,,,,,ジェイピーエムディーコンサルティング,0
926,4010103001931,新規,0,2022-06-07,2022-06-07,合同会社正興コーポレーション,,合同会社,東京都,八王子市,南大沢２丁目２０番地６,,13,201,1920364,,,,,,,2022-06-07,1,,,,,セイコウコーポレーション,0
937,4010401167771,新規,0,2022-06-07,2022-06-07,株式会社クリアリンクス,,株式会社,東京都,港区,六本木５丁目１４－１９,,13,103,1060032,,,,,,,2022-06-07,1,,,,,クリアリンクス,0
938,4010401167805,新規,0,2022-06-07,2022-06-07,わのはこ株式会社,,株式会社,東京都,港区,浜松町２丁目２番１５号浜松町ダイヤビル,,13,103,1050013,,,,,,,2022-06-07,1,,,,,ワノハコ,0
941,4010403027817,新規,0,2022-06-07,2022-06-07,合同会社ＭＡＨＡＮＡ１３,,合同会社,東京都,港区,六本木６丁目１２番２－３３０７号,,13,103,1060032,,,,,,,2022-06-07,1,,,,,マハナサーティーン,0
942,4010403027825,新規,0,2022-06-07,2022-06-07,川口安行合同会社,,合同会社,東京都,港区,元赤坂１丁目１番８号株式会社赤坂国際会計内,,13,103,1070051,,,,,,,2022-06-07,1,,,,,カワグチアンギョウ,0
949,4010603009565,新規,0,2022-06-07,2022-06-07,合同会社防建社,,合同会社,東京都,江東区,三好１丁目８－３越前屋ビル２Ｆ,,13,108,1350022,,,,,,,2022-06-07,1,,,,,ボウケンシャ,0
950,4010603009573,新規,0,2022-06-07,2022-06-07,海華ＴＩ合同会社,,合同会社,東京都,江東区,枝川１丁目４番１１－５０１号,,13,108,1350051,,,,,,,2022-06-07,1,,,,,ウミカティーアイ,0
952,4010701042773,新規,0,2022-06-07,2022-06-07,株式会社ホテルサポート,,株式会社,東京都,品川区,東五反田１丁目１６番１号,,13,109,1410022,,,,,,,2022-06-07,1,,,,,ホテルサポート,0
954,4010803004192,新規,0,2022-06-07,2022-06-07,チャココンサルティング合同会社,,合同会社,東京都,大田区,大森中１丁目１８－１１プレシャスウエストＩ－３０２号,00126799,13,111,1430014,,,,,,,2022-06-07,1,,,,,チャココンサルティング,0
955,4010901050997,新規,0,2022-06-07,2022-06-07,アグリアップ株式会社,,株式会社,東京都,世田谷区,奥沢４丁目７番８号,,13,112,1580083,,,,,,,2022-06-07,1,,,,,アグリアップ,0
961,4011001147949,新規,0,2022-06-07,2022-06-07,株式会社ｓｅｃｏｎｄａ,,株式会社,東京都,渋谷区,神宮前４丁目１３番１３号,,13,113,1500001,,,,,,,2022-06-07,1,,,,,セコンダ,0
962,4011001147965,新規,0,2022-06-07,2022-06-07,ＴｏＣｗｏｒｋｓ株式会社,,株式会社,東京都,渋谷区,上原１丁目１４－１５ＦＡＲＥ代々木上原１０４,,13,113,1510064,,,,,,,2022-06-07,1,,,,,トゥーシーワークス,0
963,4011003014775,新規,0,2022-06-07,2022-06-07,合同会社ＯＦＦＩＣＥ　ＴＡＫＥＵＣＨＩ,,合同会社,東京都,目黒区,中目黒３丁目６番１９－２０７号,,13,110,1530061,,,,,,,2022-06-07,1,,,,,オフィスタケウチ,0
967,4011101099099,新規,0,2022-06-07,2022-06-07,株式会社ＧＡＺＡ,,株式会社,東京都,新宿区,余丁町９番４－１２０１号,,13,104,1620055,,,,,,,2022-06-07,1,,,,,ガザ,0
968,4011103011821,新規,0,2022-06-07,2022-06-07,合同会社ホワイトリズム,,合同会社,東京都,新宿区,下落合４丁目３番３１号ヴェルト新宿落合３０２,,13,104,1610033,,,,,,,2022-06-07,1,,,,,ホワイトリズム,0
972,4011401024293,新規,0,2022-06-07,2022-06-07,ＵＣＰ株式会社,,株式会社,東京都,板橋区,泉町３１番１０号,,13,119,1740055,,,,,,,2022-06-07,1,,,,,ユーシーピー,0
973,4011405002205,新規,0,2022-06-07,2022-06-07,一般社団法人櫻麗会,,その他の設立登記法人,東京都,板橋区,弥生町６１番５号,,13,119,1730021,,,,,,,2022-06-07,1,,,,,オウレイカイ,0
977,4011601026008,新規,0,2022-06-07,2022-06-07,株式会社ジョーフル,,株式会社,東京都,練馬区,貫井３丁目１３番１７－３０４号,,13,120,1760021,,,,,,,2022-06-07,1,,,,,ジョーフル,0
984,4011801040808,新規,0,2022-06-07,2022-06-07,株式会社きせいや,,株式会社,東京都,足立区,千住関屋町１０番１１－３０３号,,13,121,1200024,,,,,,,2022-06-07,1,,,,,キセイヤ,0
991,4012401039273,新規,0,2022-06-07,2022-06-07,株式会社Ｉｎｆｉｎｉｔｙ,,株式会社,東京都,稲城市,矢野口１３９０番地の１－２１４号,,13,225,2060812,,,,,,,2022-06-07,1,,,,,インフィニティ,0
993,4012403005406,新規,0,2022-06-07,2022-06-07,ジェエンドワイ合同会社,,合同会社,東京都,武蔵野市,吉祥寺本町１丁目２８番３‐２０２号ジャルダン吉祥寺マンション,,13,203,1800004,,,,,,,2022-06-07,1,,,,,ジェエンドワイ,0
994,4012403005414,新規,0,2022-06-07,2022-06-07,合同会社脩充マネジメント,,合同会社,東京都,調布市,柴崎２丁目８番１号ライオンズ調布つつじヶ丘シーズンズヒル５１１号,,13,208,1820014,,,,,,,2022-06-07,1,,,,,シュウミツマネジメント,0
995,4012701017094,新規,0,2022-06-07,2022-06-07,億陽株式会社,,株式会社,東京都,西東京市,芝久保町５丁目６番５－９号,,13,229,1880014,,,,,,,2022-06-07,1,,,,,オクヨウ,0
1014,4020001146712,新規,0,2022-06-07,2022-06-07,株式会社ＲＵＮ,,株式会社,神奈川県,横浜市中区,寿町１丁目３－８,,14,104,2310026,,,,,,,2022-06-07,1,,,,,ラン,0
1015,4020001146803,新規,0,2022-06-07,2022-06-07,株式会社Ｃｉｅｌｏ,,株式会社,神奈川県,横浜市緑区,中山４丁目１７番１０号,,14,113,2260019,,,,,,,2022-06-07,1,,,,,シエロ,0
1019,4021001076180,新規,0,2022-06-07,2022-06-07,株式会社Ｌｙｎｘ,,株式会社,神奈川県,相模原市緑区,与瀬８３３番地１,,14,151,2520171,,,,,,,2022-06-07,1,,,,,リンクス,0
1026,4030001148476,新規,0,2022-06-07,2022-06-07,株式会社トータルインテリアケイ,,株式会社,埼玉県,春日部市,米島２６４番地２,,11,214,3440115,,,,,,,2022-06-07,1,,,,,トータルインテリアケイ,0
1027,4030001148559,新規,0,2022-06-07,2022-06-07,株式会社土地再活用,,株式会社,埼玉県,川越市,大字古谷上５８９０番地,,11,201,3500001,,,,,,,2022-06-07,1,,,,,トチサイカツヨウ,0
1028,4030001148575,新規,0,2022-06-07,2022-06-07,株式会社Ｂｒｉｇｈｔ,,株式会社,埼玉県,戸田市,上戸田２丁目２０番１号,,11,224,3350022,,,,,,,2022-06-07,1,,,,,ブライト,0
1033,4030003019527,新規,0,2022-06-07,2022-06-07,合同会社ソーシャルプロテクト,,合同会社,埼玉県,富士見市,大字鶴馬３４６８－１ロイヤルヒルズ２０１号,,11,235,3540021,,,,,,,2022-06-07,1,,,,,ソーシャルプロテクト,0
1036,4040001123684,新規,0,2022-06-07,2022-06-07,株式会社オーシャン工務店,,株式会社,千葉県,千葉市緑区,土気町１５１９－９樋口ビル１階１号室,,12,105,2670061,,,,,,,2022-06-07,1,,,,,オーシャンコウムテン,0
1037,4040001123692,新規,0,2022-06-07,2022-06-07,株式会社ミラトル,,株式会社,千葉県,流山市,大字木５５７番地の４－１０２号室,,12,220,2700162,,,,,,,2022-06-07,1,,,,,ミラトル,0
1038,4040001123718,新規,0,2022-06-07,2022-06-07,株式会社Ｄｅｓａｆｉａｎｔｅ,,株式会社,千葉県,市川市,相之川３丁目１４番１－４０４号,,12,203,2720143,,,,,,,2022-06-07,1,,,,,デサフィアンテ,0
1039,4040001123734,新規,0,2022-06-07,2022-06-07,ＬＡＣ　ＶＩＥＴ　ＧＲＯＵＰ株式会社,,株式会社,千葉県,香取市,佐原イ８８番地１１アワノ店舗,,12,236,2870003,,,,,,,2022-06-07,1,,,,,ラックヴィエットグループ,0
1040,4040001123750,新規,0,2022-06-07,2022-06-07,株式会社ＨＩＢＩＫＩ,,株式会社,千葉県,浦安市,日の出７丁目４－７,,12,227,2790013,,,,,,,2022-06-07,1,,,,,ヒビキ,0
1044,4040003020186,新規,0,2022-06-07,2022-06-07,合同会社ＨＫＮ　ＩＮＴＥＲＮＡＴＩＯＮＡＬ,,合同会社,千葉県,四街道市,栗山４３８番地,,12,228,2840027,,,,,,,2022-06-07,1,,,,,エイチケーエヌインターナショナル,0
1045,4040005021637,新規,0,2022-06-07,2022-06-07,アイビス協同組合,,その他の設立登記法人,千葉県,野田市,岩名１２０５番地,,12,208,2780055,,,,,,,2022-06-07,1,,,,,アイビス,0
1046,4050001051174,新規,0,2022-06-07,2022-06-07,株式会社サカエ電気,,株式会社,茨城県,神栖市,波崎８３５３番地１,,08,232,3140408,,,,,,,2022-06-07,1,,,,,サカエデンキ,0
1047,4050001051182,新規,0,2022-06-07,2022-06-07,株式会社エスケークラフト,,株式会社,茨城県,つくば市,学園の森３丁目２１番地４９,,08,220,3050816,,,,,,,2022-06-07,1,,,,,エスケークラフト,0
1050,4060001034938,新規,0,2022-06-07,2022-06-07,株式会社星電気,,株式会社,栃木県,那須塩原市,西三島１丁目１３５番地,,09,213,3292756,,,,,,,2022-06-07,1,,,,,ホシデンキ,0
1052,4060003004096,新規,0,2022-06-07,2022-06-07,ハウス合同会社,,合同会社,栃木県,下都賀郡野木町,大字丸林６５２番地１５号,,09,364,3290111,,,,,,,2022-06-07,1,,,,,ハウス,0
1057,4080405007463,新規,0,2022-06-07,2022-06-07,一般社団法人ＡＳＯＢＩ,,その他の設立登記法人,静岡県,磐田市,森本６０５番地,,22,211,4380825,,,,,,,2022-06-07,1,,,,,アソビ,0
1064,4110003004784,新規,0,2022-06-07,2022-06-07,ＬＩＦＥ４ＯＣＵＳ合同会社,,合同会社,新潟県,南魚沼市,下出浦４９７－２,,15,226,9497127,,,,,,,2022-06-07,1,,,,,ライフフォーカス,0
1070,4120001246452,新規,0,2022-06-07,2022-06-07,株式会社ｌｏｇｉｃｃ　ｌａｂ,,株式会社,大阪府,大阪市西区,江之子島１丁目７番３－５１０,,27,106,5500006,,,,,,,2022-06-07,1,,,,,ロジックラボ,0
1071,4120001246460,新規,0,2022-06-07,2022-06-07,株式会社鶴月ＪＡＰＡＮ,,株式会社,大阪府,大阪市浪速区,恵美須西２丁目４番４号,,27,111,5560003,,,,,,,2022-06-07,1,,,,,ツルツキジャパン,0
1073,4120003021829,新規,0,2022-06-07,2022-06-07,ＡＲＡＹＡＳＨＩＫＩ合同会社,,合同会社,大阪府,交野市,東倉治３丁目１０番１号,,27,230,5760061,,,,,,,2022-06-07,1,,,,,アラヤシキ,0
1074,4120101065661,新規,0,2022-06-07,2022-06-07,思責株式会社,,株式会社,大阪府,松原市,大堀町二丁目１５番３３号,,27,217,,,,,,,,2022-06-07,1,,,,,オモセキ,0
1080,4122001035926,新規,0,2022-06-07,2022-06-07,株式会社植田,,株式会社,大阪府,大東市,深野５丁目４番１２号,,27,218,5740072,,,,,,,2022-06-07,1,,,,,ウエダ,0
1085,4130001071890,新規,0,2022-06-07,2022-06-07,株式会社コマイ電気,,株式会社,京都府,京都市山科区,四ノ宮神田町２５番地１２,,26,110,6078035,,,,,,,2022-06-07,1,,,,,コマイデンキ,0
1086,4130003007975,新規,0,2022-06-07,2022-06-07,合同会社グラベル,,合同会社,京都府,福知山市,字天田小字法川１８７番地の１,,26,201,6200000,,,,,,,2022-06-07,1,,,,,グラベル,0
1090,4140001126223,新規,0,2022-06-07,2022-06-07,株式会社八幡不動産,,株式会社,兵庫県,姫路市,苫編南２丁目６番地,,28,201,6700987,,,,,,,2022-06-07,1,,,,,ヤハタフドウサン,0
1091,4140003017750,新規,0,2022-06-07,2022-06-07,合同会社Ｓｏｒｒｉｓｏ,,合同会社,兵庫県,姫路市,広畑区則直９８番地２７,,28,201,6711105,,,,,,,2022-06-07,1,,,,,ソリッソ,0
1092,4140003017759,新規,0,2022-06-07,2022-06-07,合同会社夢かざり,,合同会社,兵庫県,西宮市,甲子園口２丁目９番４号エイデルハイム甲子園３Ｂ,,28,204,6638113,,,,,,,2022-06-07,1,,,,,ユメカザリ,0
1096,4150001025589,新規,0,2022-06-07,2022-06-07,株式会社ＢＡＮＤＩＴＯ生駒,,株式会社,奈良県,生駒市,元町１丁目１３番１－２０３号,,29,209,6300257,,,,,,,2022-06-07,1,,,,,バンディートイコマ,0
1097,4150001025597,新規,0,2022-06-07,2022-06-07,株式会社天道ＪＡＰＡＮ,,株式会社,奈良県,北葛城郡王寺町,本町４丁目９番１２－２０７号,,29,425,6360012,,,,,,,2022-06-07,1,,,,,テンドウジャパン,0
1098,4150001025606,新規,0,2022-06-07,2022-06-07,株式会社ＫＥＹ　ＢＯＸ,,株式会社,奈良県,北葛城郡王寺町,畠田４丁目６－１０,,29,425,6360021,,,,,,,2022-06-07,1,,,,,キーボックス,0
1117,4180005019782,新規,0,2022-06-07,2022-06-07,一般社団法人地域医療に貢献する会,,その他の設立登記法人,愛知県,名古屋市中区,正木４丁目１０番１６号,,23,106,4600024,,,,,,,2022-06-07,1,,,,,チイキイリョウニコウケンスルカイ,0
1118,4180005019790,新規,0,2022-06-07,2022-06-07,税理士法人オリーブ,,その他の設立登記法人,愛知県,知多市,八幡字笹廻間１２番地の１９１,,23,224,4780001,,,,,,,2022-06-07,1,,,,,オリーブ,0
1121,4180301036300,新規,0,2022-06-07,2022-06-07,株式会社ケイエス,,株式会社,愛知県,西尾市,桜町溜池３８番地１,,23,213,4450803,,,,,,,2022-06-07,1,,,,,ケイエス,0
1122,4190001029487,新規,0,2022-06-07,2022-06-07,エミュー通信設備株式会社,,株式会社,三重県,松阪市,飯南町上仁柿６０６番地,,24,204,5151304,,,,,,,2022-06-07,1,,,,,エミューツウシンセツビ,0
1127,4200001040137,新規,0,2022-06-07,2022-06-07,株式会社だいじ,,株式会社,岐阜県,羽島郡笠松町,字柳原町５０番地１,,21,303,5016100,,,,,,,2022-06-07,1,,,,,ダイジ,0
1140,4240001059834,新規,0,2022-06-07,2022-06-07,株式会社エフジェイ７,,株式会社,広島県,広島市安佐南区,古市３丁目１４番１１号,,34,105,7310123,,,,,,,2022-06-07,1,,,,,エフジェイセブン,0
1144,4240003005646,新規,0,2022-06-07,2022-06-07,浩森合同会社,,合同会社,広島県,広島市西区,小河内町２丁目１２番１２号,,34,104,7330025,,,,,,,2022-06-07,1,,,,,コウシン,0
1150,4250001019614,新規,0,2022-06-07,2022-06-07,株式会社ベーカーズベース,,株式会社,山口県,宇部市,大字東須恵７６５番地３,,35,202,7590206,,,,,,,2022-06-07,1,,,,,,0
1159,4290001097763,新規,0,2022-06-07,2022-06-07,株式会社エデン,,株式会社,福岡県,福岡市城南区,長尾４丁目５番１０－３０３号,,40,136,8140123,,,,,,,2022-06-07,1,,,,,エデン,0
1160,4290001097771,新規,0,2022-06-07,2022-06-07,株式会社有村商店,,株式会社,福岡県,福岡市西区,野方１丁目２０番１３号,,40,135,8190043,,,,,,,2022-06-07,1,,,,,アリムラショウテン,0
1161,4290001097796,新規,0,2022-06-07,2022-06-07,株式会社ＡＮＩ,,株式会社,福岡県,飯塚市,潤野２４２番地１,,40,205,8200021,,,,,,,2022-06-07,1,,,,,アニ,0
1162,4290003012596,新規,0,2022-06-07,2022-06-07,合同会社パイン,,合同会社,福岡県,福岡市中央区,平和５丁目２番１６－４０２号ステイタスマンション平和,,40,133,8100016,,,,,,,2022-06-07,1,,,,,パイン,0
1164,4300001012951,新規,0,2022-06-07,2022-06-07,株式会社一,,株式会社,佐賀県,唐津市,和多田西山３番１６号トレゾール・ニシヤマＡ１０２,,41,202,8470084,,,,,,,2022-06-07,1,,,,,ハジメ,0
1166,4310001017900,新規,0,2022-06-07,2022-06-07,株式会社和敬庵,,株式会社,長崎県,長崎市,文教町８番２号,,42,201,8528131,,,,,,,2022-06-07,1,,,,,ワケイアン,0
1168,4320001019103,新規,0,2022-06-07,2022-06-07,株式会社大分ＭＥＩＪＩ,,株式会社,大分県,大分市,大字小池原２７番地の４,,44,201,8700147,,,,,,,2022-06-07,1,,,,,オオイタメイジ,0
1169,4330001029803,新規,0,2022-06-07,2022-06-07,株式会社フレシア,,株式会社,熊本県,熊本市南区,砂原町２６２番地３,,43,104,8615255,,,,,,,2022-06-07,1,,,,,フレシア,0
1173,4340001024786,新規,0,2022-06-07,2022-06-07,株式会社昭和ホールディングス,,株式会社,鹿児島県,鹿児島市,西別府町３０１０番地３６,,46,201,8900033,,,,,,,2022-06-07,1,,,,,ショウワホールディングス,0
1174,4350001017789,新規,0,2022-06-07,2022-06-07,株式会社霧島銘水,,株式会社,宮崎県,小林市,南西方８１２４番地,,45,205,8860005,,,,,,,2022-06-07,1,,,,,キリシマメイスイ,0
1176,4360001030527,新規,0,2022-06-07,2022-06-07,株式会社笑応家,,株式会社,沖縄県,浦添市,仲西３丁目１８番３号,,47,208,9012125,,,,,,,2022-06-07,1,,,,,ワラオウカ,0
1178,4360003012069,新規,0,2022-06-07,2022-06-07,大善合同会社,,合同会社,沖縄県,国頭郡大宜味村,字塩屋１３０６番地４４,,47,302,9051311,,,,,,,2022-06-07,1,,,,,ダイゼン,0
1181,4370001048642,新規,0,2022-06-07,2022-06-07,株式会社巧崇,,株式会社,宮城県,大崎市,鹿島台平渡字サンタウン５番地２,,04,215,9894103,,,,,,,2022-06-07,1,,,,,コウシュウ,0
1191,4420001017880,新規,0,2022-06-07,2022-06-07,株式会社たかむら家畜病院,,株式会社,青森県,十和田市,大字三本木字西小稲２１４番地５,,02,206,0340001,,,,,,,2022-06-07,1,,,,,タカムラカチクビョウイン,0
1194,4430001086834,新規,0,2022-06-07,2022-06-07,ランザード株式会社,,株式会社,北海道,小樽市,新光２丁目１番２０－２０１号,,01,203,0470152,,,,,,,2022-06-07,1,,,,,ランザード,0
1197,4440001009100,新規,0,2022-06-07,2022-06-07,株式会社ＫＳリノベーション,,株式会社,北海道,北斗市,久根別４丁目３番１７号,,01,236,0490121,,,,,,,2022-06-07,1,,,,,ケーエスリノベーション,0
1198,4460103001465,新規,0,2022-06-07,2022-06-07,合同会社Ｔｅａｒ,,合同会社,北海道,帯広市,西六条南１１丁目１番地６－７,,01,207,0800016,,,,,,,2022-06-07,1,,,,,ティアー,0
1213,5010001227074,新規,0,2022-06-07,2022-06-07,株式会社東京チャネルデザイン,,株式会社,東京都,中央区,八丁堀４丁目１番３号,,13,102,1040032,,,,,,,2022-06-07,1,,,,,トウキョウチャネルデザイン,0
1214,5010001227165,新規,0,2022-06-07,2022-06-07,株式会社Ｕｎｌｉｔ　Ｃｕｂｅ,,株式会社,東京都,千代田区,神田富山町７,,13,101,1010043,,,,,,,2022-06-07,1,,,,,アンリットキューブ,0
1216,5010003037802,新規,0,2022-06-07,2022-06-07,合同会社フェニックス,,合同会社,東京都,中央区,日本橋小網町１８番１７号ＩＴＳ日本橋ビル７階,,13,102,1030016,,,,,,,2022-06-07,1,,,,,フェニックス,0
1217,5010003037810,新規,0,2022-06-07,2022-06-07,ナパプロパティー合同会社,,合同会社,東京都,千代田区,丸の内１丁目１１番１号,,13,101,1000005,,,,,,,2022-06-07,1,,,,,ナパプロパティー,0
1218,5010003037819,新規,0,2022-06-07,2022-06-07,合同会社Ａｓａｇｉｍａ,,合同会社,東京都,中央区,新川２丁目１５番１２号テラス八丁堀５０２号室,,13,102,1040033,,,,,,,2022-06-07,1,,,,,アサギマ,0
1219,5010003037827,新規,0,2022-06-07,2022-06-07,ＩＫＧ　ＦＡＳ合同会社,,合同会社,東京都,中央区,東日本橋２丁目２８番４号日本橋ＣＥＴビル２階,,13,102,1030004,,,,,,,2022-06-07,1,,,,,アイケージーエフエーエス,0
1233,5010401167746,新規,0,2022-06-07,2022-06-07,株式会社ファミスク,,株式会社,東京都,港区,浜松町２丁目２番１５号浜松町ダイヤビル２Ｆ,,13,103,1050013,,,,,,,2022-06-07,1,,,,,ファミスク,0
1234,5010401167770,新規,0,2022-06-07,2022-06-07,株式会社Ｗｉｎｅ‐Ｌ’ａｍｏ,,株式会社,東京都,港区,三田１丁目５番５－５０１号,,13,103,1080073,,,,,,,2022-06-07,1,,,,,ワインラモ,0
1235,5010401167779,新規,0,2022-06-07,2022-06-07,株式会社ＲＩＳ,,株式会社,東京都,港区,南麻布４丁目５番６５号広尾アーバンビル３階,,13,103,1060047,,,,,,,2022-06-07,1,,,,,リズ,0
1236,5010401167787,新規,0,2022-06-07,2022-06-07,株式会社Ｃｒｅａｔｏｒｓ　Ｔｅａｍ,,株式会社,東京都,港区,元麻布３丁目１０番１１号大和コーポ５０２,,13,103,1060046,,,,,,,2022-06-07,1,,,,,クリエイターズチーム,0
1238,5010403027816,新規,0,2022-06-07,2022-06-07,合同会社ＭＡＨＡＮＡ１２,,合同会社,東京都,港区,六本木６丁目１２番２－３３０７号,,13,103,1060032,,,,,,,2022-06-07,1,,,,,マハナトゥエルブ,0
1239,5010403027832,新規,0,2022-06-07,2022-06-07,合同会社神谷町インベストメント２２号,,合同会社,東京都,港区,虎ノ門５丁目１番４号,,13,103,1050001,,,,,,,2022-06-07,1,,,,,カミヤチョウインベストメントニジュウニゴウ,0
1240,5010403027840,新規,0,2022-06-07,2022-06-07,インベストメントパートナーズ合同会社,,合同会社,東京都,港区,元麻布２丁目３番３５－２０３号,,13,103,1060046,,,,,,,2022-06-07,1,,,,,インベストメントパートナーズ,0
1244,5010601061278,新規,0,2022-06-07,2022-06-07,株式会社ＹＵＣＣＡ,,株式会社,東京都,江東区,有明１丁目４－１１－３０１１,,13,108,1350063,,,,,,,2022-06-07,1,,,,,ユウカ,0
1245,5010601061286,新規,0,2022-06-07,2022-06-07,株式会社ＷＡＮＤＳ,,株式会社,東京都,墨田区,太平４丁目５番９－２０１号ＴＷＩＮＳ－Ｂ,,13,107,1300012,,,,,,,2022-06-07,1,,,,,ワンズ,0
1246,5010603009572,新規,0,2022-06-07,2022-06-07,ＪＯＭＯＮ合同会社,,合同会社,東京都,江東区,平野３丁目７番９号,,13,108,1350023,,,,,,,2022-06-07,1,,,,,ジョウモン,0
1248,5010701042731,新規,0,2022-06-07,2022-06-07,豪海汽船株式会社,,株式会社,東京都,品川区,西五反田１丁目２６番７号,,13,109,1410031,,,,,,,2022-06-07,1,,,,,,0
1249,5010901050988,新規,0,2022-06-07,2022-06-07,株式会社ＧＥＮＫＩ,,株式会社,東京都,世田谷区,北沢１丁目１９番１５号,,13,112,1550031,,,,,,,2022-06-07,1,,,,,ゲンキ,0
1252,5010905004321,新規,0,2022-06-07,2022-06-07,一般社団法人Ｎ．スポーツアカデミー稲城,,その他の設立登記法人,東京都,世田谷区,北烏山６丁目３２番１６号,,13,112,1570061,,,,,,,2022-06-07,1,,,,,エヌドットスポーツアカデミーイナギ,0
1255,5011001147857,新規,0,2022-06-07,2022-06-07,株式会社ＰＡＲＡＭＥＮＯＮ,,株式会社,東京都,渋谷区,神宮前６丁目５番２号小林ビル３階,,13,113,1500001,,,,,,,2022-06-07,1,,,,,パラメノン,0
1256,5011001147956,新規,0,2022-06-07,2022-06-07,ｋａｌｏｎ　ｄｅｓｉｇｎ株式会社,,株式会社,東京都,渋谷区,神宮前６丁目２３番４号桑野ビル２階,,13,113,1500001,,,,,,,2022-06-07,1,,,,,カロンデザイン,0
1257,5011003014741,新規,0,2022-06-07,2022-06-07,合同会社ＴＫ‐ｒｅｔ’ｓ,,合同会社,東京都,目黒区,大岡山２丁目２番１号グリーンヒルズ福田１０１,,13,110,1520033,,,,,,,2022-06-07,1,,,,,ティーケイレッツ,0
1258,5011003014774,新規,0,2022-06-07,2022-06-07,Ｃｏｆｆｅｅ　ｃｌｕｂ　ｔｏｋｙｏ合同会社,,合同会社,東京都,渋谷区,神宮前６丁目２３番４号桑野ビル２階,,13,113,1500001,,,,,,,2022-06-07,1,,,,,コーヒークラブトーキョー,0
1259,5011003014799,新規,0,2022-06-07,2022-06-07,合同会社フロンティア,,合同会社,東京都,渋谷区,神宮前６丁目２３番４号桑野ビル２階,,13,113,1500001,,,,,,,2022-06-07,1,,,,,フロンティア,0
1260,5011003014816,新規,0,2022-06-07,2022-06-07,合同会社リトルボス,,合同会社,東京都,目黒区,上目黒４丁目４番２５号,,13,110,1530051,,,,,,,2022-06-07,1,,,,,リトルボス,0
1264,5011005009599,新規,0,2022-06-07,2022-06-07,弁理士法人伊藤ＩＰ特許事務所,,その他の設立登記法人,東京都,渋谷区,初台１丁目５１番１号初台センタービル６０３,,13,113,1510061,,,,,,,2022-06-07,1,,,,,イトウアイピートッキョジムショ,0
1267,5011301027833,新規,0,2022-06-07,2022-06-07,株式会社Ｅｔａｌｐｉ,,株式会社,東京都,杉並区,天沼３丁目６番２号カノン武蔵ビル１Ｆ,,13,115,1670032,,,,,,,2022-06-07,1,,,,,エタルピ,0
1268,5011501028103,新規,0,2022-06-07,2022-06-07,東新ハウジング株式会社,,株式会社,東京都,荒川区,町屋３丁目１０番１１号,,13,118,1160001,,,,,,,2022-06-07,1,,,,,トウシンハウジング,0
1269,5011501028111,新規,0,2022-06-07,2022-06-07,ＪＹ　ＪＡＰＡＮ株式会社,,株式会社,東京都,北区,赤羽２丁目２４番２号英ビル３０３号室,,13,117,1150045,,,,,,,2022-06-07,1,,,,,ジェイワイジャパン,0
1277,5011801040798,新規,0,2022-06-07,2022-06-07,株式会社Ｒｅｐｉｔ,,株式会社,東京都,葛飾区,東金町３丁目３１－１４,,13,122,1250041,,,,,,,2022-06-07,1,,,,,リピット,0
1280,5011803005114,新規,0,2022-06-07,2022-06-07,ＭＲＭインベストメント合同会社,,合同会社,東京都,足立区,西加平１丁目１番５号,,13,121,1210074,,,,,,,2022-06-07,1,,,,,エムアールエムインベストメント,0
1293,5013301049205,新規,0,2022-06-07,2022-06-07,株式会社ＹＯＭ,,株式会社,東京都,豊島区,東池袋１丁目４４番１０号タイガースビル１００３,,13,116,1700013,,,,,,,2022-06-07,1,,,,,ヨム,0
1301,5020001146769,新規,0,2022-06-07,2022-06-07,株式会社サーチライアン,,株式会社,神奈川県,横浜市西区,北幸１丁目１１番１号水信ビル７階,,14,103,2200004,,,,,,,2022-06-07,1,,,,,サーチライアン,0
1302,5020001146802,新規,0,2022-06-07,2022-06-07,株式会社Ａｄｊｕｓｔ,,株式会社,神奈川県,横浜市金沢区,富岡東１丁目１３番２４号ケープ杉田ＩＩ２０３,00126790,14,108,2360051,,,,,,,2022-06-07,1,,,,,アジャスト,0
1303,5020001146810,新規,0,2022-06-07,2022-06-07,株式会社ＦＩＥＳＴＡ,,株式会社,神奈川県,横浜市西区,みなとみらい３丁目７番１号,,14,103,2200012,,,,,,,2022-06-07,1,,,,,フィエスタ,0
1309,5020003021870,新規,0,2022-06-07,2022-06-07,フタミ・トレーディング合同会社,,合同会社,神奈川県,横浜市金沢区,柴町３６３番地サウスウイング金沢６号棟４０３号,,14,108,2360012,,,,,,,2022-06-07,1,,,,,フタミトレーディング,0
1310,5020005015557,新規,0,2022-06-07,2022-06-07,税理士法人エスケーワイ,,その他の設立登記法人,神奈川県,横浜市港北区,菊名１丁目１１番１２号,,14,109,2220011,,,,,,,2022-06-07,1,,,,,エスケーワイ,0
1314,5030001148491,新規,0,2022-06-07,2022-06-07,むさしの未来パートナーズ株式会社,,株式会社,埼玉県,さいたま市大宮区,桜木町１丁目１０番地８,,11,103,3300854,,,,,,,2022-06-07,1,,,,,ムサシノミライパートナーズ,0
1315,5030001148509,新規,0,2022-06-07,2022-06-07,對馬工業株式会社,,株式会社,埼玉県,戸田市,美女木１丁目１４番地の２９,,11,224,3350031,,,,,,,2022-06-07,1,,,,,ツシマコウギョウ,0
1316,5030001148558,新規,0,2022-06-07,2022-06-07,日昇興業株式会社,,株式会社,埼玉県,熊谷市,玉井４丁目５０番地,,11,202,3600853,,,,,,,2022-06-07,1,,,,,ニッショウコウギョウ,0
1322,5030003019526,新規,0,2022-06-07,2022-06-07,合同会社オールドプラウド,,合同会社,埼玉県,春日部市,武里中野７６８番地３,,11,214,3440026,,,,,,,2022-06-07,1,,,,,オールドプラウド,0
1328,5040001123700,新規,0,2022-06-07,2022-06-07,株式会社京葉輸送,,株式会社,千葉県,千葉市緑区,誉田町３丁目８０番地１７,,12,105,2660005,,,,,,,2022-06-07,1,,,,,ケイヨウユソウ,0
1330,5040003020169,新規,0,2022-06-07,2022-06-07,合同会社ｈ．ｕ．ｒ,,合同会社,千葉県,八千代市,八千代台南１丁目３番３号松ロイヤルビル５階,,12,221,2760033,,,,,,,2022-06-07,1,,,,,エイチユーアール,0
1331,5040003020193,新規,0,2022-06-07,2022-06-07,合同会社アクシスパワー,,合同会社,千葉県,千葉市中央区,松波２丁目２－５,,12,101,2600044,,,,,,,2022-06-07,1,,,,,アクシスパワー,0
1335,5050005013087,新規,0,2022-06-07,2022-06-07,スプリング弁理士法人,,その他の設立登記法人,茨城県,牛久市,ひたち野東４丁目７番地３,,08,219,3001207,,,,,,,2022-06-07,1,,,,,スプリング,0
1342,5070005010000,新規,0,2022-06-07,2022-06-07,特定非営利活動法人Ｋａｎａｄｅ,,その他の設立登記法人,群馬県,渋川市,中郷４５１－３６,,10,208,3770202,,,,,,,2022-06-07,1,,,,,,0
1377,5120901046050,新規,0,2022-06-07,2022-06-07,株式会社ＤＯＵＺＥ,,株式会社,大阪府,吹田市,千里山西６丁目８番１２－１０１号,,27,205,5650851,,,,,,,2022-06-07,1,,,,,ドゥーズ,0
1382,5122001035925,新規,0,2022-06-07,2022-06-07,株式会社Ｍｅｄｉｃａｌ　Ｕｎｉ　Ｖａｌｕｅ,,株式会社,大阪府,東大阪市,小阪２丁目４番２８号ローレルコート小阪二丁目６０１号,,27,227,5770801,,,,,,,2022-06-07,1,,,,,メディカルユニバリュー,0
1383,5122003002353,新規,0,2022-06-07,2022-06-07,合同会社ピュアライフパートナーズ,,合同会社,大阪府,八尾市,高美町１丁目１番１－８０７号,,27,212,5810017,,,,,,,2022-06-07,1,,,,,ピュアライフパートナーズ,0
1395,5140001126230,新規,0,2022-06-07,2022-06-07,ａ．ｄ．ｄ株式会社,,株式会社,兵庫県,神戸市長田区,神楽町３丁目４番３号,,28,106,6530836,,,,,,,2022-06-07,1,,,,,エイディディ,0
1396,5140001126239,新規,0,2022-06-07,2022-06-07,株式会社Ｌａｂｏ,,株式会社,兵庫県,尼崎市,若王寺２丁目１０番１７号２０１号,,28,202,6610974,,,,,,,2022-06-07,1,,,,,ラボ,0
1401,5150001025596,新規,0,2022-06-07,2022-06-07,達吉建設株式会社,,株式会社,奈良県,橿原市,西新堂町１４５番地,,29,205,6340801,,,,,,,2022-06-07,1,,,,,タツヨシケンセツ,0
1405,5160003002584,新規,0,2022-06-07,2022-06-07,ＤＡＮＩＥＬ　ＷＯＲＫＳ合同会社,,合同会社,滋賀県,大津市,南郷２丁目５２番５号,,25,201,5200865,,,,,,,2022-06-07,1,,,,,ダニエルワークス,0
1407,5160005011088,新規,0,2022-06-07,2022-06-07,司法書士法人ｅｑｕａｌ草津事務所,,その他の設立登記法人,滋賀県,栗東市,安養寺６丁目９番６１号,,25,208,5203015,,,,,,,2022-06-07,1,,,,,イコールクサツジムショ,0
1410,5180001151621,新規,0,2022-06-07,2022-06-07,株式会社裕馬電工,,株式会社,愛知県,名古屋市緑区,徳重４丁目１４０１番地,,23,114,4580815,,,,,,,2022-06-07,1,,,,,ユウマデンコウ,0
1427,5190001029486,新規,0,2022-06-07,2022-06-07,株式会社グランツ,,株式会社,三重県,四日市市,大字西阿倉川１４８１番地１,,24,202,5100812,,,,,,,2022-06-07,1,,,,,グランツ,0
1441,5230001019383,新規,0,2022-06-07,2022-06-07,株式会社まつのき,,株式会社,富山県,射水市,津幡江３５６番地,,16,211,9340038,,,,,,,2022-06-07,1,,,,,マツノキ,0
1445,5240001059890,新規,0,2022-06-07,2022-06-07,株式会社楽明通信,,株式会社,広島県,広島市西区,大芝１丁目２１番１２号１０３－１,,34,104,7330001,,,,,,,2022-06-07,1,,,,,ラクメイツウシン,0
1448,5250001019613,新規,0,2022-06-07,2022-06-07,株式会社Ｓｔｒａｗｂｅｒｒｙ　Ｊａｍ,,株式会社,山口県,宇部市,大字中宇部１７３４番地６,,35,202,7550086,,,,,,,2022-06-07,1,,,,,ストロベリージャム,0
1451,5250003003078,新規,0,2022-06-07,2022-06-07,ＮＥＳＴ合同会社,,合同会社,山口県,山陽小野田市,新生１丁目１番１４号,,35,216,7560092,,,,,,,2022-06-07,1,,,,,ネスト,0
1457,5260003003928,新規,0,2022-06-07,2022-06-07,あかいくつ合同会社,,合同会社,岡山県,倉敷市,中島２６１５－５,,33,202,7100803,,,,,,,2022-06-07,1,,,,,アカイクツ,0
1462,5290001097829,新規,0,2022-06-07,2022-06-07,株式会社エフ,,株式会社,福岡県,春日市,日の出町６丁目３３番地サンプレイズ春日６０３号,,40,218,8160873,,,,,,,2022-06-07,1,,,,,エフ,0
1466,5290003012587,新規,0,2022-06-07,2022-06-07,合同会社Ｃｅｎｔｒｉｃ　Ａｒｐｅｇｇｉｏ,,合同会社,福岡県,福岡市中央区,薬院４丁目１３番６２－８０１号,,40,133,8100022,,,,,,,2022-06-07,1,,,,,セントリックアルペジオ,0
1467,5290003012595,新規,0,2022-06-07,2022-06-07,ＬｙｎＬｙｎ合同会社,,合同会社,福岡県,福岡市南区,井尻１丁目４番９－２０４号アクセス井尻,,40,134,8111302,,,,,,,2022-06-07,1,,,,,リーンリーン,0
1472,5310001017899,新規,0,2022-06-07,2022-06-07,株式会社フィールドワーカーズ,,株式会社,長崎県,長崎市,城栄町１２番１４号,,42,201,8528034,,,,,,,2022-06-07,1,,,,,フィールドワーカーズ,0
1479,5330001029802,新規,0,2022-06-07,2022-06-07,株式会社建翔,,株式会社,熊本県,上益城郡嘉島町,大字北甘木２１２７番地１,,43,442,8613104,,,,,,,2022-06-07,1,,,,,ケンショウ,0
1483,5340003003820,新規,0,2022-06-07,2022-06-07,ＨＯＴ合同会社,,合同会社,鹿児島県,鹿児島市,樋之口町８－２３ＢＢビル２０１,00126801,46,201,8920845,,,,,,,2022-06-07,1,,,,,ホット,0
1489,5360001030518,新規,0,2022-06-07,2022-06-07,株式会社達企画,,株式会社,沖縄県,沖縄市,字登川１６４８番地１,,47,211,9042142,,,,,,,2022-06-07,1,,,,,タツキカク,0
1490,5360003012068,新規,0,2022-06-07,2022-06-07,合同会社オーシャン,,合同会社,沖縄県,那覇市,天久２丁目１５番１８号,,47,201,9000005,,,,,,,2022-06-07,1,,,,,オーシャン,0
1495,5380001032883,新規,0,2022-06-07,2022-06-07,株式会社ＲｅＲｏｕｔｅ,,株式会社,福島県,大沼郡会津美里町,字三日町甲４４０番地,,07,447,9696079,,,,,,,2022-06-07,1,,,,,リルート,0
1501,5390001016919,新規,0,2022-06-07,2022-06-07,小林企画株式会社,,株式会社,山形県,東根市,大字蟹沢１９３６番地,,06,211,9993716,,,,,,,2022-06-07,1,,,,,コバヤシキカク,0
1508,5420003002533,新規,0,2022-06-07,2022-06-07,希樹合同会社,,合同会社,青森県,東津軽郡今別町,大字山崎字山元９０番地１１４,,02,303,0301511,,,,,,,2022-06-07,1,,,,,キキ,0
1512,5430001086800,新規,0,2022-06-07,2022-06-07,株式会社ＯＮＥ＆ＯＮＬＹ,,株式会社,北海道,札幌市中央区,南十一条西７丁目３番８号１０１,,01,101,0640811,,,,,,,2022-06-07,1,,,,,ワンアンドオンリー,0
1513,5430003013991,新規,0,2022-06-07,2022-06-07,合同会社エムエーホーム,,合同会社,北海道,札幌市白石区,川下２１２７番地,,01,104,0030869,,,,,,,2022-06-07,1,,,,,エムエーホーム,0
1531,5700150109268,新規,0,2022-06-07,2022-06-07,超級動漫研究股斌有限公司,00126797,外国会社等,東京都,渋谷区,恵比寿２丁目１３－７－４Ｆ,,13,113,1500013,台湾台北市中正区八徳路１段２３號３樓之１,,,,,,2022-06-07,1,,,,,スーパーアニメケンキユウコフンユウゲンコウシ,0
1532,5700150109276,新規,0,2022-06-07,2022-06-07,遊技関連企業年金基金,,その他,東京都,台東区,台東１丁目２４番９号,,13,106,1100016,,,,,,,2022-06-07,1,,,,,ユウギカンレンキギヨウネンキンキキン,0
1540,6010001227073,新規,0,2022-06-07,2022-06-07,株式会社ＭＡＴＣＨＡ　ＮＦＴ,,株式会社,東京都,中央区,東日本橋２丁目２４番９号,,13,102,1030004,,,,,,,2022-06-07,1,,,,,マッチャエヌエフティー,0
1541,6010001227131,新規,0,2022-06-07,2022-06-07,株式会社ＣＨＡＴ　ＮＯＩＲ,,株式会社,東京都,中央区,日本橋３丁目６－２,,13,102,1030027,,,,,,,2022-06-07,1,,,,,シャノワール,0
1542,6010001227180,新規,0,2022-06-07,2022-06-07,株式会社ベルズ,,株式会社,東京都,中央区,銀座３丁目１４番１３号第一厚生館ビル５階,,13,102,1040061,,,,,,,2022-06-07,1,,,,,ベルズ,0
1543,6010003037792,新規,0,2022-06-07,2022-06-07,合同会社おばんざい引馬,,合同会社,東京都,千代田区,富士見２丁目６番１０号三共富士見ビル地下１階,,13,101,1020071,,,,,,,2022-06-07,1,,,,,オバンザイヒクマ,0
1544,6010003037818,新規,0,2022-06-07,2022-06-07,山上合同会社,,合同会社,東京都,文京区,小石川３丁目１５番３号,,13,105,1120002,,,,,,,2022-06-07,1,,,,,ヤマガミ,0
1545,6010005035092,新規,0,2022-06-07,2022-06-07,社会保険労務士法人ゆり事務所,,その他の設立登記法人,東京都,千代田区,神田佐久間町４丁目６東邦センタービル５０２,,13,101,1010025,,,,,,,2022-06-07,1,,,,,ユリジムショ,0
1556,6010403027815,新規,0,2022-06-07,2022-06-07,ＴＯＫＹＯ　ＣＥＮＴＲＡＬ　ＣＯＵＮＳＥＬＩＮＧ合同会社,,合同会社,東京都,港区,南青山４丁目１２番３号設楽ビル４０２号室,,13,103,1070062,,,,,,,2022-06-07,1,,,,,トウキョウセントラルカウンセリング,0
1557,6010403027831,新規,0,2022-06-07,2022-06-07,合同会社神谷町インベストメント２１号,,合同会社,東京都,港区,虎ノ門５丁目１番４号,,13,103,1050001,,,,,,,2022-06-07,1,,,,,カミヤチョウインベストメントニジュウイチゴウ,0
1572,6010901050987,新規,0,2022-06-07,2022-06-07,株式会社リフォームプライス,,株式会社,東京都,世田谷区,瀬田４丁目２３番８号スター・ヴァレイ２－３０１,,13,112,1580095,,,,,,,2022-06-07,1,,,,,リフォームプライス,0
1575,6010903007416,新規,0,2022-06-07,2022-06-07,合同会社平澤,,合同会社,東京都,世田谷区,深沢２丁目３番１－４０１号,,13,112,1580081,,,,,,,2022-06-07,1,,,,,ヒラサワ,0
1577,6011003014815,新規,0,2022-06-07,2022-06-07,合同会社ＫＥＹ　Ｘ,,合同会社,東京都,渋谷区,円山町５番５号Ｎａｖｉ渋谷Ｖ３階,,13,113,1500044,,,,,,,2022-06-07,1,,,,,ケイテン,0
1578,6011101099072,新規,0,2022-06-07,2022-06-07,株式会社健康プロダクション,,株式会社,東京都,新宿区,西新宿１丁目２２番１号スタンダードビル８階,,13,104,1600023,,,,,,,2022-06-07,1,,,,,ケンコウプロダクション,0
1579,6011101099080,新規,0,2022-06-07,2022-06-07,方圓融資パートナー株式会社,,株式会社,東京都,新宿区,大久保３丁目９－５－１１４－２階,,13,104,1690072,,,,,,,2022-06-07,1,,,,,ホウエンユウシパートナー,0
1580,6011101099097,新規,0,2022-06-07,2022-06-07,ＴＷＥＬＶＥ株式会社,,株式会社,東京都,新宿区,納戸町４０番地グランマルジュ市ヶ谷２０４,,13,104,1620837,,,,,,,2022-06-07,1,,,,,トゥェルブ,0
1584,6011403003681,新規,0,2022-06-07,2022-06-07,合同会社ＮＯＣＴＵＲＮＥ,,合同会社,東京都,板橋区,大谷口上町２２番６号,,13,119,1730032,,,,,,,2022-06-07,1,,,,,ノクターン,0
1585,6011501028102,新規,0,2022-06-07,2022-06-07,株式会社Ｗｏｒｋａｈｏｌｉｃ,,株式会社,東京都,北区,赤羽西１丁目２番１４号ハウスＦＭＫ２０１号室,,13,117,1150055,,,,,,,2022-06-07,1,,,,,ワーカホリック,0
1591,6011801040797,新規,0,2022-06-07,2022-06-07,株式会社ａｎｄ　Ｍ,,株式会社,東京都,足立区,新田３丁目１番６号,,13,121,1230865,,,,,,,2022-06-07,1,,,,,アンドエム,0
1599,6012403005412,新規,0,2022-06-07,2022-06-07,キャトルセゾン合同会社,,合同会社,東京都,府中市,清水が丘２丁目５３番地の２２,,13,206,1830015,,,,,,,2022-06-07,1,,,,,キャトルセゾン,0
1601,6012801021622,新規,0,2022-06-07,2022-06-07,株式会社ＣＨＡＮＣＥ　ＭＡＫＥ,,株式会社,東京都,国分寺市,南町２丁目１８番１－７０３号,,13,214,1850021,,,,,,,2022-06-07,1,,,,,チャンスメイク,0
1606,6013301049204,新規,0,2022-06-07,2022-06-07,株式会社ＶＡＩＡＢＬＥ,,株式会社,東京都,豊島区,池袋２丁目３６－１ＩＮＦＩＮＩＴＹＩＫＥＢＵＫＵＲＯ６Ｆ,,13,116,1710014,,,,,,,2022-06-07,1,,,,,バイアブル,0
1607,6013301049212,新規,0,2022-06-07,2022-06-07,株式会社オンダ,,株式会社,東京都,豊島区,池袋本町３丁目１０番１８号,,13,116,1700011,,,,,,,2022-06-07,1,,,,,オンダ,0
1614,6020001146768,新規,0,2022-06-07,2022-06-07,Ｅ’ｓ株式会社,,株式会社,神奈川県,横浜市青葉区,田奈町４０番地２ライムライト田奈２・３号,,14,117,2270064,,,,,,,2022-06-07,1,,,,,イーズ,0
1615,6020001146801,新規,0,2022-06-07,2022-06-07,株式会社デリー,,株式会社,神奈川県,横浜市都筑区,茅ケ崎南４丁目１４番１－１００４号,,14,118,2240037,,,,,,,2022-06-07,1,,,,,デリー,0
1620,6020003021886,新規,0,2022-06-07,2022-06-07,ユーティ合同会社,,合同会社,神奈川県,横浜市青葉区,恩田町１８６５番地５,,14,117,2270065,,,,,,,2022-06-07,1,,,,,ユーティ,0
1622,6021001076170,新規,0,2022-06-07,2022-06-07,株式会社健晴工業,,株式会社,神奈川県,横須賀市,佐野町３丁目２８番地７,,14,201,2380052,,,,,,,2022-06-07,1,,,,,ケンセイコウギョウ,0
1624,6021005012535,新規,0,2022-06-07,2022-06-07,特定非営利活動法人Ｍｏｎｏｌｉｔｈ,,その他の設立登記法人,神奈川県,相模原市中央区,清新８丁目２番５号コモド相模原４０１,,14,152,2520216,,,,,,,2022-06-07,1,,,,,,0
1631,6030001148549,新規,0,2022-06-07,2022-06-07,株式会社ライムスタジオ,,株式会社,埼玉県,さいたま市見沼区,大和田町２丁目９００番地２,,11,104,3370053,,,,,,,2022-06-07,1,,,,,ライムスタジオ,0
1632,6030001148557,新規,0,2022-06-07,2022-06-07,株式会社ＭＯＧ,,株式会社,埼玉県,和光市,下新倉２丁目３４番２号,,11,229,3510111,,,,,,,2022-06-07,1,,,,,モグ,0
1635,6030003019533,新規,0,2022-06-07,2022-06-07,合同会社Ａｎｙｔｈｉｎｇ　Ｇｏｅｓ,,合同会社,埼玉県,富士見市,大字上南畑１０４６－５サザン・フィールドＡ－１０２,,11,235,3540002,,,,,,,2022-06-07,1,,,,,エニシングゴーズ,0
1636,6030003019541,新規,0,2022-06-07,2022-06-07,合同会社エンハーモニックグローバルコンサルティング,,合同会社,埼玉県,さいたま市大宮区,桜木町１丁目３６６番９,,11,103,3300854,,,,,,,2022-06-07,1,,,,,エンハーモニックグローバルコンサルティング,0
1644,6040001123690,新規,0,2022-06-07,2022-06-07,株式会社アスティペイント,,株式会社,千葉県,千葉市中央区,星久喜町９４８番地１,,12,101,2600808,,,,,,,2022-06-07,1,,,,,アスティペイント,0
1645,6040001123699,新規,0,2022-06-07,2022-06-07,株式会社アイエーアイ,,株式会社,千葉県,松戸市,上矢切１６３１番地の６,,12,207,2710094,,,,,,,2022-06-07,1,,,,,アイエーアイ,0
1646,6040001123757,新規,0,2022-06-07,2022-06-07,ＨＩＫＭＡＴ株式会社,,株式会社,千葉県,佐倉市,六崎１７８０番地１０アンソレイエＩ１０３,00126798,12,212,2850812,,,,,,,2022-06-07,1,,,,,ヒクマット,0
1652,6040003020110,新規,0,2022-06-07,2022-06-07,Ｆｉｒｓｔ　Ｐａｒｔｎｅｒ合同会社,,合同会社,千葉県,千葉市若葉区,若松町９０２番地２ツインエルシティ千葉１番館１００７号,,12,104,2640021,,,,,,,2022-06-07,1,,,,,ファーストパートナー,0
1653,6040003020184,新規,0,2022-06-07,2022-06-07,合同会社ＹＳ,,合同会社,千葉県,市川市,八幡２丁目１６番２１号ウエストビル３階,,12,203,2720021,,,,,,,2022-06-07,1,,,,,ワイエス,0
1654,6040003020192,新規,0,2022-06-07,2022-06-07,合同会社こいこい,,合同会社,千葉県,千葉市中央区,新千葉１丁目７－２ペリエ＋ｐｌｕｓビル,,12,101,2600031,,,,,,,2022-06-07,1,,,,,コイコイ,0
1655,6060001034944,新規,0,2022-06-07,2022-06-07,株式会社江原工房,,株式会社,栃木県,足利市,小俣町１７９２番地８,,09,202,3260141,,,,,,,2022-06-07,1,,,,,エハラコウボウ,0
1656,6060001034952,新規,0,2022-06-07,2022-06-07,株式会社パブリックサポート,,株式会社,栃木県,佐野市,大和町２６８９番地１,,09,204,3270027,,,,,,,2022-06-07,1,,,,,パブリックサポート,0
1660,6070001039298,新規,0,2022-06-07,2022-06-07,株式会社シマダ,,株式会社,群馬県,高崎市,鼻高町３７番地３,,10,202,3700868,,,,,,,2022-06-07,1,,,,,シマダ,0
1670,6100001035418,新規,0,2022-06-07,2022-06-07,株式会社トップシード,,株式会社,長野県,佐久市,中込３４６５－６東城ビル１Ｆ,,20,217,3850051,,,,,,,2022-06-07,1,,,,,トップシード,0
1689,6120001246450,新規,0,2022-06-07,2022-06-07,株式会社ワイズ,,株式会社,大阪府,大阪市西成区,玉出西１丁目６番４－６０１号,,27,122,5570045,,,,,,,2022-06-07,1,,,,,ワイズ,0
1690,6120001246459,新規,0,2022-06-07,2022-06-07,永楽株式会社,,株式会社,大阪府,大阪市中央区,谷町６丁目６－７第五松屋ビル１２７２,,27,128,5420012,,,,,,,2022-06-07,1,,,,,エイラク,0
1695,6120101065692,新規,0,2022-06-07,2022-06-07,株式会社Ｓデンタルラボ,,株式会社,大阪府,河内長野市,南花台８丁目７番４号,,27,216,5860077,,,,,,,2022-06-07,1,,,,,エスデンタルラボ,0
1696,6120103004731,新規,0,2022-06-07,2022-06-07,ＭＫ　Ｏｃｅａｎ合同会社,,合同会社,大阪府,堺市西区,浜寺諏訪森町中３丁２４１番地,,27,144,5928348,,,,,,,2022-06-07,1,,,,,エムケイオーシャン,0
1697,6120903004179,新規,0,2022-06-07,2022-06-07,合同会社ＰＲＯＭＰＴ,,合同会社,大阪府,豊中市,浜１丁目２６－９,,27,203,5610817,,,,,,,2022-06-07,1,,,,,プロンプト,0
1698,6130001071897,新規,0,2022-06-07,2022-06-07,株式会社Ｂａｌａｎｃｅ　Ｒｅｓｐｏｎｓｉｂｌｅ　Ｐａｒｔｙ,,株式会社,京都府,京都市下京区,中堂寺粟田町９３番地ＫＲＰ４号館３階ＫＲＰ・ＢＩＺ・ＮＥＸＴ,,26,106,6008815,,,,,,,2022-06-07,1,,,,,バランスレスポンシブルパーティ,0
1699,6130003007965,新規,0,2022-06-07,2022-06-07,海州合同会社,,合同会社,京都府,木津川市,南加茂台１３丁目４番地１,,26,214,6191127,,,,,,,2022-06-07,1,,,,,カイシュウ,0
1709,6140003017757,新規,0,2022-06-07,2022-06-07,合同会社Ｓｅｅｋ,,合同会社,兵庫県,神戸市東灘区,御影山手３丁目１５番２４号,,28,101,6580065,,,,,,,2022-06-07,1,,,,,シーク,0
1711,6150001025595,新規,0,2022-06-07,2022-06-07,株式会社ロボデザイン,,株式会社,奈良県,奈良市,橋本町３－１,,29,201,6308217,,,,,,,2022-06-07,1,,,,,ロボデザイン,0
1712,6150001025604,新規,0,2022-06-07,2022-06-07,株式会社りくそうや,,株式会社,奈良県,御所市,大字櫛羅１５０６番地の１,,29,208,6392312,,,,,,,2022-06-07,1,,,,,リクソウヤ,0
1721,6170001017145,新規,0,2022-06-07,2022-06-07,株式会社ＹＯＵＭＥ,,株式会社,和歌山県,和歌山市,太田６７番地,,30,201,6408323,,,,,,,2022-06-07,1,,,,,ユメ,0
1725,6180001151612,新規,0,2022-06-07,2022-06-07,株式会社オカモトクリーニング,,株式会社,愛知県,愛知郡東郷町,御岳２丁目２０番地１４,,23,302,4700156,,,,,,,2022-06-07,1,,,,,オカモトクリーニング,0
1726,6180001151645,新規,0,2022-06-07,2022-06-07,イマ・テック株式会社,,株式会社,愛知県,名古屋市緑区,漆山９０１番地ユニーブル漆山１０１号,,23,114,4580832,,,,,,,2022-06-07,1,,,,,イマテック,0
1730,6180003023909,新規,0,2022-06-07,2022-06-07,合同会社ＦＦＭ,,合同会社,愛知県,一宮市,下川田町３丁目２７番地５,,23,203,4910845,,,,,,,2022-06-07,1,,,,,エフエフエム,0
1732,6190001029469,新規,0,2022-06-07,2022-06-07,株式会社三重ＭＥＩＪＩ,,株式会社,三重県,津市,海岸町１４番６号,,24,201,5140013,,,,,,,2022-06-07,1,,,,,ミエメイジ,0
1733,6190001029493,新規,0,2022-06-07,2022-06-07,ＳＴＡＲＫ株式会社,,株式会社,三重県,四日市市,下之宮町２８８－１コーポラスアメニティＩ１０２,00126788,24,202,5108028,,,,,,,2022-06-07,1,,,,,スターク,0
1734,6190003004008,新規,0,2022-06-07,2022-06-07,合同会社スクーミー,,合同会社,三重県,津市,神戸１５４－１３,,24,201,5140824,,,,,,,2022-06-07,1,,,,,スクーミー,0
1744,6230003001859,新規,0,2022-06-07,2022-06-07,大連クレスト電子合同会社,,合同会社,富山県,下新川郡入善町,椚山４９番地６,,16,342,9390627,,,,,,,2022-06-07,1,,,,,ダイレンクレストデンシ,0
1752,6250001019595,新規,0,2022-06-07,2022-06-07,ＢＡＭＢＡＭｗｏｒｋｓ株式会社,,株式会社,山口県,萩市,大字東田町８３番地３,,35,204,7580047,,,,,,,2022-06-07,1,,,,,バンバンワークス,0
1755,6260001036912,新規,0,2022-06-07,2022-06-07,ラクピニフーズ株式会社,,株式会社,岡山県,岡山市中区,倉田２１１番地１３,,33,102,7038265,,,,,,,2022-06-07,1,,,,,ラクピニフーズ,0
1764,6290001097745,新規,0,2022-06-07,2022-06-07,株式会社ベストパートナー,,株式会社,福岡県,飯塚市,菰田東２丁目５番２０号,,40,205,8200016,,,,,,,2022-06-07,1,,,,,ベストパートナー,0
1765,6290001097753,新規,0,2022-06-07,2022-06-07,タップ株式会社,,株式会社,福岡県,福岡市中央区,赤坂２丁目１－５１－８０２,,40,133,8100042,,,,,,,2022-06-07,1,,,,,タップ,0
1766,6290001097761,新規,0,2022-06-07,2022-06-07,山崎工務店株式会社,00126785,株式会社,福岡県,宗像市,徳重１７７番地１,,40,220,8114164,,,,,,,2022-06-07,1,,,,,ヤマサキコウムテン,0
1767,6290001097778,新規,0,2022-06-07,2022-06-07,株式会社リリーブパートナー,,株式会社,福岡県,福岡市博多区,博多駅東３丁目９－２６－９０２号エメロード博多駅東,,40,132,8120013,,,,,,,2022-06-07,1,,,,,リリーブパートナー,0
1771,6290801028610,新規,0,2022-06-07,2022-06-07,株式会社力栄工業,,株式会社,福岡県,北九州市小倉南区,横代南町５丁目２番３０号,,40,107,8020826,,,,,,,2022-06-07,1,,,,,リキエイコウギョウ,0
1773,6290805009557,新規,0,2022-06-07,2022-06-07,一般社団法人創世会,,その他の設立登記法人,福岡県,築上郡吉富町,大字別府６２０番地６,,40,642,8710823,,,,,,,2022-06-07,1,,,,,ソウセイカイ,0
1774,6300003001851,新規,0,2022-06-07,2022-06-07,合同会社Ｍｅｄｉｃａｌ　Ｆｏｒｅｓｔ,,合同会社,佐賀県,武雄市,武雄町大字武雄５６２７番地１４,,41,206,8430022,,,,,,,2022-06-07,1,,,,,メディカルフォレスト,0
1781,6360001030517,新規,0,2022-06-07,2022-06-07,アース琉株式会社,,株式会社,沖縄県,中頭郡読谷村,字渡慶次１１６９番地１ラルーチェ３０２,,47,324,9040326,,,,,,,2022-06-07,1,,,,,アースリュウ,0
1782,6360001030533,新規,0,2022-06-07,2022-06-07,Ｔ＆Ｔアーバンソリューションズ株式会社,,株式会社,沖縄県,那覇市,真嘉比２丁目１８番１２号グレイスまかび２０５,,47,201,9020068,,,,,,,2022-06-07,1,,,,,ティーアンドティーアーバンソリューションズ,0
1783,6360003012067,新規,0,2022-06-07,2022-06-07,新光建設工業合同会社,,合同会社,沖縄県,国頭郡本部町,字新里２６３番地,,47,308,9050208,,,,,,,2022-06-07,1,,,,,シンコウケンセツコウギョウ,0
1785,6380001032866,新規,0,2022-06-07,2022-06-07,株式会社ｓｅ　ｌｉｅｒ　ａ,,株式会社,福島県,いわき市,平字倉前１０９番地の８共力ビル１０３,,07,204,9708026,,,,,,,2022-06-07,1,,,,,スリエア,0
1793,6430001086824,新規,0,2022-06-07,2022-06-07,株式会社ｃｕｏｒｅ,,株式会社,北海道,札幌市北区,北三十一条西３丁目４番１号ライズ３１３,,01,102,0010031,,,,,,,2022-06-07,1,,,,,クオーレ,0
1794,6430003013990,新規,0,2022-06-07,2022-06-07,合同会社我武者羅,,合同会社,北海道,札幌市南区,澄川二条２丁目１番３７号,,01,106,0050002,,,,,,,2022-06-07,1,,,,,ガムシャラ,0
1798,6460103001463,新規,0,2022-06-07,2022-06-07,合同会社ＮａｔｕｒａｌＫ,,合同会社,北海道,中川郡池田町,字清見１３１番地２５,,01,644,0830002,,,,,,,2022-06-07,1,,,,,ナチュラルケイ,0
1804,6500002011939,新規,0,2022-06-07,2022-06-07,有限会社リゾーテル宇和海,,有限会社,愛媛県,大洲市,柚木３５８番地１,,38,207,7950011,,,,,,,2022-06-07,1,,,,,リゾーテルウワカイ,0
1819,7010001226487,新規,0,2022-06-07,2022-06-07,Ｗｉｘ株式会社,,株式会社,東京都,中央区,銀座８丁目１０－５,,13,102,1040061,,,,,,,2022-06-07,1,,,,,ウィックス,0
1820,7010001227064,新規,0,2022-06-07,2022-06-07,ＸＲ事業企画株式会社,,株式会社,東京都,千代田区,永田町２丁目１１番１号,,13,101,1000014,,,,,,,2022-06-07,1,,,,,エックスアールジギョウキカク,0
1821,7010001227072,新規,0,2022-06-07,2022-06-07,株式会社Ｅｎ人,,株式会社,東京都,中央区,晴海２丁目３番３０－１０１５号,,13,102,1040053,,,,,,,2022-06-07,1,,,,,エンジン,0
1822,7010001227089,新規,0,2022-06-07,2022-06-07,株式会社ＴｅｃｈＵＬＴ,,株式会社,東京都,千代田区,丸の内１丁目１１番１号パシフィックセンチュリープレイス１３階,,13,101,1000005,,,,,,,2022-06-07,1,,,,,テックウルト,0
1823,7010001227106,新規,0,2022-06-07,2022-06-07,リネアタラーラＨＤ株式会社,,株式会社,東京都,千代田区,九段南１丁目５番６号りそな九段ビル５Ｆ,,13,101,1020074,,,,,,,2022-06-07,1,,,,,リネアタラーラホールディングス,0
1824,7010001227130,新規,0,2022-06-07,2022-06-07,Ｐｅｎｄｕｌｕｍ株式会社,,株式会社,東京都,中央区,日本橋大伝馬町１－１,,13,102,1030011,,,,,,,2022-06-07,1,,,,,ペンデュラム,0
1829,7010003037767,新規,0,2022-06-07,2022-06-07,アクティブリーシング１６号合同会社,,合同会社,東京都,千代田区,麹町４丁目７番２号ＢＩＺＩＡ麹町ビル８階,,13,101,1020083,,,,,,,2022-06-07,1,,,,,アクティブリーシングジュウロクゴウ,0
1830,7010003037809,新規,0,2022-06-07,2022-06-07,合同会社ｎａｔｕｒｅ,,合同会社,東京都,中央区,銀座１丁目２２番１１号銀座大竹ビジデンス２階,,13,102,1040061,,,,,,,2022-06-07,1,,,,,ネイチャー,0
1831,7010003037817,新規,0,2022-06-07,2022-06-07,Ｓｉｌｖｅｒ‐７合同会社,,合同会社,東京都,中央区,銀座７丁目１３番６号サガミビル２階,,13,102,1040061,,,,,,,2022-06-07,1,,,,,シルバーセブン,0
1832,7010003037841,新規,0,2022-06-07,2022-06-07,日比谷プライム合同会社,,合同会社,東京都,文京区,湯島１丁目２番１２号８０５,,13,105,1130034,,,,,,,2022-06-07,1,,,,,ヒビヤプライム,0
1835,7010005035100,新規,0,2022-06-07,2022-06-07,一般社団法人小郡ロジ,,その他の設立登記法人,東京都,千代田区,霞が関３丁目２番５号,,13,101,1000013,,,,,,,2022-06-07,1,,,,,オゴオリロジ,0
1845,7010401167653,新規,0,2022-06-07,2022-06-07,株式会社ｕｎｆｉｌｍ,,株式会社,東京都,港区,六本木７丁目８番６号,,13,103,1060032,,,,,,,2022-06-07,1,,,,,アンフィルム,0
1846,7010401167728,新規,0,2022-06-07,2022-06-07,株式会社Ｋｎｉｔ,,株式会社,東京都,港区,東新橋２丁目９番６号,,13,103,1050021,,,,,,,2022-06-07,1,,,,,ニット,0
1847,7010401167785,新規,0,2022-06-07,2022-06-07,百合之音株式会社,,株式会社,東京都,港区,南青山６丁目７番８－８０５号,,13,103,1070062,,,,,,,2022-06-07,1,,,,,ユリノオン,0
1848,7010401167793,新規,0,2022-06-07,2022-06-07,クラフトシップス株式会社,,株式会社,東京都,港区,北青山３丁目１－６－３１６青山２０７,,13,103,1070061,,,,,,,2022-06-07,1,,,,,クラフトシップス,0
1850,7010403027789,新規,0,2022-06-07,2022-06-07,Ｓｏｒａｆｕｎｅ　Ｆｉｎａｎｃｅ合同会社,,合同会社,東京都,港区,赤坂４丁目８－１９赤坂フロントタウン３Ｆ,,13,103,1070052,,,,,,,2022-06-07,1,,,,,ソラフネファイナンス,0
1851,7010403027814,新規,0,2022-06-07,2022-06-07,合同会社クローバー,,合同会社,東京都,港区,浜松町２丁目２番１５号浜松町ダイヤビル２Ｆ,,13,103,1050013,,,,,,,2022-06-07,1,,,,,クローバー,0
1852,7010403027830,新規,0,2022-06-07,2022-06-07,Ｒｉｉｃｈｉ合同会社,,合同会社,東京都,港区,南青山２丁目２番１５号,,13,103,1070062,,,,,,,2022-06-07,1,,,,,リイチ,0
1853,7010403027839,新規,0,2022-06-07,2022-06-07,プライナム合同会社,,合同会社,東京都,港区,浜松町２丁目２番１５号浜松町ダイヤビル２Ｆ,,13,103,1050013,,,,,,,2022-06-07,1,,,,,プライナム,0
1855,7010405021014,新規,0,2022-06-07,2022-06-07,一般社団法人銀行融資診断士協会,,その他の設立登記法人,東京都,港区,新橋６丁目１１番８号,,13,103,1050004,,,,,,,2022-06-07,1,,,,,ギンコウユウシシンダンシキョウカイ,0
1858,7010601061268,新規,0,2022-06-07,2022-06-07,Ｐｉｓｃｅｓ株式会社,,株式会社,東京都,墨田区,業平１丁目１０番７－４０４号,,13,107,1300002,,,,,,,2022-06-07,1,,,,,ピシーズ,0
1859,7010601061276,新規,0,2022-06-07,2022-06-07,株式会社東進グループ,,株式会社,東京都,江東区,亀戸６丁目５５番８－９０５号,,13,108,1360071,,,,,,,2022-06-07,1,,,,,トウシングループ,0
1861,7010605004090,新規,0,2022-06-07,2022-06-07,一般社団法人日本テクスチャーアート協会,,その他の設立登記法人,東京都,墨田区,業平１丁目１０－８－２０１アートアトリエ東京ビジネスルームＡ,,13,107,1300002,,,,,,,2022-06-07,1,,,,,ニホンテクスチャーアート,0
1864,7010801033026,新規,0,2022-06-07,2022-06-07,トライ株式会社,,株式会社,東京都,大田区,南蒲田３丁目８－３０,,13,111,1440035,,,,,,,2022-06-07,1,,,,,トライ,0
1865,7010901050978,新規,0,2022-06-07,2022-06-07,南品川不動産株式会社,,株式会社,東京都,世田谷区,三軒茶屋１丁目２９番１３号ハイツ三軒茶屋１２０７,,13,112,1540024,,,,,,,2022-06-07,1,,,,,ミナミシナガワフドウサン,0
1866,7010903007423,新規,0,2022-06-07,2022-06-07,合同会社スタニスラス,,合同会社,東京都,世田谷区,等々力１丁目８番１０号,,13,112,1580082,,,,,,,2022-06-07,1,,,,,スタニスラス,0
1867,7011001147863,新規,0,2022-06-07,2022-06-07,株式会社ｂａｎｃａ,,株式会社,東京都,渋谷区,恵比寿西２丁目１４番３号ドレッセ代官山１０６,,13,113,1500021,,,,,,,2022-06-07,1,,,,,バンカ,0
1869,7011003014772,新規,0,2022-06-07,2022-06-07,合同会社ＰｏｌａｒｉＳｔｏｎｅ,,合同会社,東京都,渋谷区,恵比寿１丁目１６番２０号竹下ビル４０２,,13,113,1500013,,,,,,,2022-06-07,1,,,,,ポラリストーン,0
1876,7011103011819,新規,0,2022-06-07,2022-06-07,ミドッコリーＢＥＹＯＮＤ合同会社,,合同会社,東京都,新宿区,西新宿３丁目３番１３号,,13,104,1600023,,,,,,,2022-06-07,1,,,,,ミドッコリービヨンド,0
1877,7011103011827,新規,0,2022-06-07,2022-06-07,ＨＪＷ合同会社,,合同会社,東京都,新宿区,北新宿４丁目２１番８号,,13,104,1690074,,,,,,,2022-06-07,1,,,,,エイチジェイダブル,0
1879,7011301027831,新規,0,2022-06-07,2022-06-07,株式会社ＢＡＭＢＯＯ,,株式会社,東京都,杉並区,荻窪５丁目２２番５－１０５号,,13,115,1670051,,,,,,,2022-06-07,1,,,,,バンブー,0
1880,7011303004432,新規,0,2022-06-07,2022-06-07,合同会社ａｌｃｏｃｏ,,合同会社,東京都,杉並区,阿佐谷北２丁目３５番地１０号サン・コウノプラザ２０１,,13,115,1660001,,,,,,,2022-06-07,1,,,,,アルココ,0
1884,7011401024290,新規,0,2022-06-07,2022-06-07,株式会社鶴亀工業,,株式会社,東京都,板橋区,清水町６７番１－１０６号,,13,119,1740053,,,,,,,2022-06-07,1,,,,,ツルカメコウギョウ,0
1886,7011501028101,新規,0,2022-06-07,2022-06-07,パワームーン株式会社,,株式会社,東京都,荒川区,南千住５丁目４４番３－１１０４号,,13,118,1160003,,,,,,,2022-06-07,1,,,,,パワームーン,0
1891,7011503005180,新規,0,2022-06-07,2022-06-07,合同会社未来ホーム,,合同会社,東京都,北区,田端新町３丁目３５－１２ジャルダン田端ビル１Ｆ,,13,117,1140012,,,,,,,2022-06-07,1,,,,,ミライホーム,0
1898,7011801040813,新規,0,2022-06-07,2022-06-07,株式会社髭興業,,株式会社,東京都,足立区,千住仲町４４番１１号,,13,121,1200036,,,,,,,2022-06-07,1,,,,,ヒゲコウギョウ,0
1906,7013301049145,新規,0,2022-06-07,2022-06-07,ＨＩＴ株式会社,,株式会社,東京都,豊島区,南大塚３丁目３４－１１－６Ｆ,,13,116,1700005,,,,,,,2022-06-07,1,,,,,エイチアイティ,0
1909,7013303006177,新規,0,2022-06-07,2022-06-07,ルートエス・ジェイ合同会社,,合同会社,東京都,豊島区,東池袋１丁目４２番１５号,,13,116,1700013,,,,,,,2022-06-07,1,,,,,ルートエスジェイ,0
1912,7020001146734,新規,0,2022-06-07,2022-06-07,株式会社ＲＩＳＯ,,株式会社,神奈川県,横浜市中区,本牧三之谷１１番２２号,,14,104,2310824,,,,,,,2022-06-07,1,,,,,リソウ,0
1913,7020001146750,新規,0,2022-06-07,2022-06-07,株式会社昭弘,,株式会社,神奈川県,横浜市神奈川区,新子安２丁目１４番１４－１０４号,,14,102,2210013,,,,,,,2022-06-07,1,,,,,アキヒロ,0
1915,7020003021877,新規,0,2022-06-07,2022-06-07,北川通商合同会社,,合同会社,神奈川県,横浜市中区,花咲町１丁目４６番地１ＧＳプラザ桜木町５階,,14,104,2310063,,,,,,,2022-06-07,1,,,,,キタガワツウショウ,0
1932,7030001148515,新規,0,2022-06-07,2022-06-07,株式会社ＡＣＥ,,株式会社,埼玉県,川口市,並木２丁目１８番１号,,11,203,3320034,,,,,,,2022-06-07,1,,,,,エース,0
1933,7030001148531,新規,0,2022-06-07,2022-06-07,株式会社清進工業,,株式会社,埼玉県,幸手市,栄６番３－２０３号,,11,240,3400154,,,,,,,2022-06-07,1,,,,,キヨシンコウギョウ,0
1934,7030001148548,新規,0,2022-06-07,2022-06-07,株式会社ＳＫＩＰＪＡＣＫ,,株式会社,埼玉県,さいたま市大宮区,宮町３丁目１番地１,,11,103,3300802,,,,,,,2022-06-07,1,,,,,スキップジャック,0
1935,7030001148572,新規,0,2022-06-07,2022-06-07,株式会社ＳＡＫＵＲＡ家,,株式会社,埼玉県,入間市,大字木蓮寺１０７５番地,,11,225,3580047,,,,,,,2022-06-07,1,,,,,サクラヤ,0
1946,7040001123616,新規,0,2022-06-07,2022-06-07,株式会社梅木宝飾,,株式会社,千葉県,船橋市,習志野台２丁目５番１３－１０３号,,12,204,2740063,,,,,,,2022-06-07,1,,,,,ウメキホウショク,0
1947,7040001123632,新規,0,2022-06-07,2022-06-07,株式会社クローバー,,株式会社,千葉県,鴨川市,小湊６６９番地１,,12,223,2995501,,,,,,,2022-06-07,1,,,,,クローバー,0
1948,7040001123649,新規,0,2022-06-07,2022-06-07,株式会社ケイデンタルデザイン,,株式会社,千葉県,市川市,南八幡３丁目３番６号４階,,12,203,2720023,,,,,,,2022-06-07,1,,,,,ケイデンタルデザイン,0
1949,7040001123707,新規,0,2022-06-07,2022-06-07,株式会社トシホーム,,株式会社,千葉県,松戸市,三矢小台４丁目９番地１,,12,207,2710087,,,,,,,2022-06-07,1,,,,,トシホーム,0
1950,7040001123715,新規,0,2022-06-07,2022-06-07,株式会社総武車体,,株式会社,千葉県,鎌ケ谷市,初富９２番地３,,12,224,2730121,,,,,,,2022-06-07,1,,,,,ソウブシャタイ,0
1951,7040001123731,新規,0,2022-06-07,2022-06-07,株式会社創利,,株式会社,千葉県,東金市,家徳１５４番地３の２第５工場,,12,213,2830062,,,,,,,2022-06-07,1,,,,,ソウリ,0
1958,7060001034943,新規,0,2022-06-07,2022-06-07,タシロクラフト株式会社,,株式会社,栃木県,足利市,樺崎町１１６番地,,09,202,3260004,,,,,,,2022-06-07,1,,,,,タシロクラフト,0
1959,7060001034951,新規,0,2022-06-07,2022-06-07,木材塗料株式会社,,株式会社,栃木県,那須塩原市,上厚崎１７０番地２,,09,213,3250026,,,,,,,2022-06-07,1,,,,,モクザイトリョウ,0
1965,7080003002814,新規,0,2022-06-07,2022-06-07,木ポイント合同会社,,合同会社,静岡県,静岡市清水区,西久保１丁目５番１４号,,22,103,4240038,,,,,,,2022-06-07,1,,,,,キポイント,0
1976,7100002039326,新規,0,2022-06-07,2022-06-07,有限会社ヤマモト・オーム,,有限会社,長野県,上田市,緑が丘１丁目２３番１号,,20,203,3860022,,,,,,,2022-06-07,1,,,,,ヤマモトオーム,0
1978,7100005012882,新規,0,2022-06-07,2022-06-07,一般社団法人全教ながの共済自動車,,その他の設立登記法人,長野県,長野市,大字南長野県町５９３番地,,20,201,3800838,,,,,,,2022-06-07,1,,,,,ゼンキョウナガノキョウサイジドウシャ,0
1994,7120001246383,新規,0,2022-06-07,2022-06-07,桂経営ソリューションズ株式会社,,株式会社,大阪府,大阪市中央区,平野町１丁目８番１１号,,27,128,5410046,,,,,,,2022-06-07,1,,,,,カツラケイエイソリューションズ,0
1995,7120001246458,新規,0,2022-06-07,2022-06-07,森陽株式会社,,株式会社,大阪府,大阪市住吉区,我孫子東３丁目１４－３－４０１号室,,27,120,5580013,,,,,,,2022-06-07,1,,,,,シンヨウ,0
2000,7120005022979,新規,0,2022-06-07,2022-06-07,大阪府中小企業経営支援協同組合,,その他の設立登記法人,大阪府,大阪市淀川区,十三本町３丁目６－２７－１０５,,27,123,5320024,,,,,,,2022-06-07,1,,,,,オオサカフチュウショウキギョウケイエイシエン,0
2010,7130001071863,新規,0,2022-06-07,2022-06-07,デザイナーズハウス関西株式会社,,株式会社,京都府,京都市伏見区,中島河原田町１２５－１６,,26,109,6128469,,,,,,,2022-06-07,1,,,,,デザイナーズハウスカンサイ,0
2011,7130001071888,新規,0,2022-06-07,2022-06-07,株式会社ＳＨＯ・ＤＡＩ,,株式会社,京都府,福知山市,字堀５３３番地,,26,201,6200000,,,,,,,2022-06-07,1,,,,,ショーダイ,0
2012,7130001071946,新規,0,2022-06-07,2022-06-07,株式会社むぎ,,株式会社,京都府,京都市右京区,西京極郡町７６番地リヴィエール西京極１０２,,26,108,6150884,,,,,,,2022-06-07,1,,,,,ムギ,0
2015,7140001126229,新規,0,2022-06-07,2022-06-07,株式会社兵庫テック,,株式会社,兵庫県,加古川市,八幡町宗佐３７番地の１,,28,210,6751201,,,,,,,2022-06-07,1,,,,,ヒョウゴテック,0
2016,7140001126237,新規,0,2022-06-07,2022-06-07,株式会社３２１,,株式会社,兵庫県,姫路市,勝原区熊見２７３番地４,,28,201,6711211,,,,,,,2022-06-07,1,,,,,ミツイ,0
2018,7140003017756,新規,0,2022-06-07,2022-06-07,合同会社しろ,,合同会社,兵庫県,尼崎市,上坂部１丁目２番２－１５２３号,,28,202,6610979,,,,,,,2022-06-07,1,,,,,シロ,0
2020,7150001025594,新規,0,2022-06-07,2022-06-07,株式会社かわむら建設,,株式会社,奈良県,御所市,大字櫛羅８３６番地の１,,29,208,6392312,,,,,,,2022-06-07,1,,,,,カワムラケンセツ,0
2024,7160003002582,新規,0,2022-06-07,2022-06-07,合同会社ＷＥＳＴ　ＦＩＥＬＤ,,合同会社,滋賀県,草津市,川原３丁目４番３号,,25,206,5250021,,,,,,,2022-06-07,1,,,,,ウエストフィールド,0
2033,7180003023874,新規,0,2022-06-07,2022-06-07,ＺＥＮＺＥＳＴ　ＧＬＯＢＡＬ　ＩＮＳＴＩＴＵＴＥ合同会社,,合同会社,愛知県,名古屋市港区,春田野１丁目１２０４番地の６,,23,111,4550873,,,,,,,2022-06-07,1,,,,,ゼンゼストグローバルインステチュート,0
2041,7190003004007,新規,0,2022-06-07,2022-06-07,合同会社まねきねこ,,合同会社,三重県,津市,白塚町３６５番地２,,24,201,5140101,,,,,,,2022-06-07,1,,,,,マネキネコ,0
2043,7200001040142,新規,0,2022-06-07,2022-06-07,株式会社和田鈑金,,株式会社,岐阜県,大垣市,神田町２丁目２６番地,,21,202,5030917,,,,,,,2022-06-07,1,,,,,ワダバンキン,0
2052,7210001018955,新規,0,2022-06-07,2022-06-07,株式会社Ｋ,,株式会社,福井県,小浜市,生守第４０号１２番地の３,,18,204,9170027,,,,,,,2022-06-07,1,,,,,ケイ,0
2071,7250001019611,新規,0,2022-06-07,2022-06-07,株式会社山根工務店,,株式会社,山口県,岩国市,御庄２丁目１０８番地８,,35,208,7410083,,,,,,,2022-06-07,1,,,,,ヤマネコウムテン,0
2084,7290001097752,新規,0,2022-06-07,2022-06-07,ＫＡＣＨＩＡＧＥＮＣＹ株式会社,,株式会社,福岡県,福岡市中央区,薬院１丁目２－５－５Ｂ,,40,133,8100022,,,,,,,2022-06-07,1,,,,,カチエージェンシー,0
2085,7290001097827,新規,0,2022-06-07,2022-06-07,株式会社４ｉ,,株式会社,福岡県,福岡市博多区,住吉５丁目１６番１１－２０２号メゾンドメナージュ,,40,132,8120018,,,,,,,2022-06-07,1,,,,,フォーアイ,0
2087,7290003012585,新規,0,2022-06-07,2022-06-07,合同会社ｃｌｕｔｃｈ,,合同会社,福岡県,福岡市南区,大橋２丁目２４番２５号,,40,134,8150033,,,,,,,2022-06-07,1,,,,,クラッチ,0
2094,7290805009556,新規,0,2022-06-07,2022-06-07,土地家屋調査士法人第一総合法務事務所,,その他の設立登記法人,福岡県,直方市,大字感田７２１番地,,40,204,8220001,,,,,,,2022-06-07,1,,,,,ダイイチソウゴウホウムジムショ,0
2102,7320001019109,新規,0,2022-06-07,2022-06-07,株式会社新川産業,,株式会社,大分県,大分市,敷戸南町１５番１－６号,,44,201,8701105,,,,,,,2022-06-07,1,,,,,ニイカワサンギョウ,0
2108,7330001029800,新規,0,2022-06-07,2022-06-07,株式会社Ｍ＆Ｙ’Ｓ,,株式会社,熊本県,菊池郡大津町,大字杉水７６３番地１５１,,43,403,8691236,,,,,,,2022-06-07,1,,,,,エムアンドワイズ,0
2112,7330003009395,新規,0,2022-06-07,2022-06-07,合同会社１００年ボンド,,合同会社,熊本県,熊本市中央区,内坪井町３－１８,,43,101,8600077,,,,,,,2022-06-07,1,,,,,ヒャクネンボンド,0
2115,7360001030516,新規,0,2022-06-07,2022-06-07,Ｍｉｒａｉ株式会社,,株式会社,沖縄県,浦添市,仲間１丁目１５番１号２Ｆ,,47,208,9012103,,,,,,,2022-06-07,1,,,,,ミライ,0
2118,7380001032873,新規,0,2022-06-07,2022-06-07,イイタテバイオテック株式会社,,株式会社,福島県,相馬郡飯舘村,草野字大師堂７７番地２,,07,564,9601801,,,,,,,2022-06-07,1,,,,,イイタテバイオテック,0
2119,7380001032881,新規,0,2022-06-07,2022-06-07,Ｍ＆Ｍ株式会社,,株式会社,福島県,双葉郡楢葉町,大字井出字堂ノ前２５番地４竜田イーストビル２Ｆ,,07,542,9790603,,,,,,,2022-06-07,1,,,,,エムアンドエム,0
2121,7420003002531,新規,0,2022-06-07,2022-06-07,アグリビーツ合同会社,,合同会社,青森県,つがる市,木造菰槌江野島１４番地２,00126789,02,209,0383286,,,,,,,2022-06-07,1,,,,,アグリビーツ,0
2125,7430001086781,新規,0,2022-06-07,2022-06-07,株式会社リズコーポレーション,,株式会社,北海道,札幌市東区,苗穂町４丁目２番４７号,,01,103,0650043,,,,,,,2022-06-07,1,,,,,リズコーポレーション,0
2126,7430001086815,新規,0,2022-06-07,2022-06-07,Ｎｏｒｔｈ　Ａｓｐｉｒａｔｉｏｎ株式会社,,株式会社,北海道,札幌市中央区,南六条東１丁目７番地,,01,101,0600056,,,,,,,2022-06-07,1,,,,,ノースアスピレーション,0
2128,7430003013973,新規,0,2022-06-07,2022-06-07,合同会社Ｍｅｒｃｉ　ａ　ｔｏｉ,,合同会社,北海道,札幌市手稲区,西宮の沢六条２丁目５番３６－１０２号,,01,109,0060006,,,,,,,2022-06-07,1,,,,,メルシアトア,0
2131,7440001009097,新規,0,2022-06-07,2022-06-07,株式会社ＨＯＧＡＷＡＰＡＩＮＴ,,株式会社,北海道,函館市,亀田中野町２７１番地の４,,01,202,0410803,,,,,,,2022-06-07,1,,,,,ホガワペイント,0
2135,7460101007206,新規,0,2022-06-07,2022-06-07,Ａｇｒｉｂｏｔｉｃｓ．ａｓｉａ株式会社,,株式会社,北海道,上川郡清水町,字旭山２番地９１,,01,636,0890355,,,,,,,2022-06-07,1,,,,,アグリボティクスアジア,0
2137,7470003002196,新規,0,2022-06-07,2022-06-07,高松不動産コンサル合同会社,,合同会社,香川県,高松市,国分寺町福家甲３１９４番地１,,37,201,7690103,,,,,,,2022-06-07,1,,,,,タカマツフドウサンコンサル,0
2155,8010001226916,新規,0,2022-06-07,2022-06-07,騰達国際株式会社,,株式会社,東京都,千代田区,神田佐久間町２丁目１８番５号アークビル２Ｆ,,13,101,1010025,,,,,,,2022-06-07,1,,,,,トウタツコクサイ,0
2156,8010001227063,新規,0,2022-06-07,2022-06-07,株式会社Ｆｉｏｒｉｔｕｒａ,,株式会社,東京都,中央区,銀座７丁目５番４号毛利ビル５Ｆ,,13,102,1040061,,,,,,,2022-06-07,1,,,,,フィオリトゥーラ,0
2157,8010001227105,新規,0,2022-06-07,2022-06-07,Ａｎｒｅｓｃｏ　Ｊａｐａｎ株式会社,,株式会社,東京都,中央区,銀座１丁目２２番１１号銀座大竹ビジデンス２階,,13,102,1040061,,,,,,,2022-06-07,1,,,,,アンレスコジャパン,0
2158,8010003037799,新規,0,2022-06-07,2022-06-07,合同会社ｍａｎａ,,合同会社,東京都,千代田区,紀尾井町７番１号,,13,101,1020094,,,,,,,2022-06-07,1,,,,,マナ,0
2159,8010003037832,新規,0,2022-06-07,2022-06-07,ＤＭ＆Ｋ合同会社,,合同会社,東京都,中央区,築地７丁目１０番１３－２０３号,,13,102,1040045,,,,,,,2022-06-07,1,,,,,ディーエムアンドケー,0
2161,8010005035099,新規,0,2022-06-07,2022-06-07,小郡ロジ特定目的会社,,その他の設立登記法人,東京都,千代田区,霞が関３丁目２番５号,,13,101,1000013,,,,,,,2022-06-07,1,,,,,オゴオリロジ,0
2171,8010401167768,新規,0,2022-06-07,2022-06-07,株式会社ＮＫ,,株式会社,東京都,港区,芝浦１丁目６番４１号グローバルフロントタワー３１０１,,13,103,1050023,,,,,,,2022-06-07,1,,,,,エヌケー,0
2172,8010401167776,新規,0,2022-06-07,2022-06-07,株式会社ＳＰＯＴＬＩＧＨＴ　ＯＮ　ＹＯＵ,,株式会社,東京都,港区,白金１丁目１７番１－３９０７号,,13,103,1080072,,,,,,,2022-06-07,1,,,,,スポットライトオンユー,0
2173,8010401167801,新規,0,2022-06-07,2022-06-07,ドーナツ株式会社,,株式会社,東京都,港区,浜松町２丁目２番１５号浜松町ダイヤビル２Ｆ,,13,103,1050013,,,,,,,2022-06-07,1,,,,,ドーナツ,0
2176,8010403027813,新規,0,2022-06-07,2022-06-07,クロリス合同会社,,合同会社,東京都,港区,赤坂２丁目９番２号赤坂ウェイタワーズ,,13,103,1070052,,,,,,,2022-06-07,1,,,,,クロリス,0
2185,8010601061275,新規,0,2022-06-07,2022-06-07,株式会社ａｎｄｇｏ,,株式会社,東京都,江東区,南砂６丁目３－１５フェルモ南砂８０２,,13,108,1360076,,,,,,,2022-06-07,1,,,,,アンドゴー,0
2186,8010601061283,新規,0,2022-06-07,2022-06-07,株式会社ＴＨＩＲＤ　ＧＡＴＥ,,株式会社,東京都,墨田区,立花５丁目２０番３号,,13,107,1310043,,,,,,,2022-06-07,1,,,,,サードゲート,0
2188,8010703006269,新規,0,2022-06-07,2022-06-07,合同会社ｐｕｒｅｔｅ,,合同会社,東京都,品川区,西品川１丁目１７番７号,,13,109,1410033,,,,,,,2022-06-07,1,,,,,ピュルテ,0
2189,8010803004189,新規,0,2022-06-07,2022-06-07,合同会社人生,,合同会社,東京都,大田区,田園調布１丁目３５番１１号,,13,111,1450071,,,,,,,2022-06-07,1,,,,,ジンセイ,0
2195,8010901050977,新規,0,2022-06-07,2022-06-07,Ｅｎｇｉｎｅ３１０株式会社,,株式会社,東京都,世田谷区,用賀３丁目２５番１８－３２４号,,13,112,1580097,,,,,,,2022-06-07,1,,,,,エンジンサンイチゼロ,0
2196,8010901050985,新規,0,2022-06-07,2022-06-07,株式会社色色,,株式会社,東京都,世田谷区,上馬２丁目１番４－３０２号,,13,112,1540011,,,,,,,2022-06-07,1,,,,,イロイロ,0
2206,8011001147862,新規,0,2022-06-07,2022-06-07,株式会社ミラク,,株式会社,東京都,渋谷区,代官山町１８番４号代官山マンジビル１階,,13,113,1500034,,,,,,,2022-06-07,1,,,,,ミラク,0
2207,8011001147978,新規,0,2022-06-07,2022-06-07,株式会社ウチヤマ,,株式会社,東京都,渋谷区,千駄ヶ谷１丁目６番１２号,,13,113,1510051,,,,,,,2022-06-07,1,,,,,ウチヤマ,0
2209,8011101099070,新規,0,2022-06-07,2022-06-07,ＣＬＡＮ株式会社,,株式会社,東京都,新宿区,高田馬場４丁目３８番１６号ＬｉｇｈｔＨｏｕｓｅ４Ｆ,,13,104,1690075,,,,,,,2022-06-07,1,,,,,クラン,0
2216,8011301027830,新規,0,2022-06-07,2022-06-07,株式会社ＴｗＯ,,株式会社,東京都,杉並区,桃井１丁目２７－１９,,13,115,1670034,,,,,,,2022-06-07,1,,,,,トゥー,0
2221,8011501028100,新規,0,2022-06-07,2022-06-07,アリエッタ株式会社,,株式会社,東京都,荒川区,西日暮里６丁目４１番５号酒正ビル２０３号,,13,118,1160013,,,,,,,2022-06-07,1,,,,,アリエッタ,0
2222,8011501028109,新規,0,2022-06-07,2022-06-07,株式会社ＭＯＣ,,株式会社,東京都,北区,東十条３丁目１７番５号,,13,117,1140001,,,,,,,2022-06-07,1,,,,,エムオーシー,0
2228,8011801040795,新規,0,2022-06-07,2022-06-07,株式会社昊佑,,株式会社,東京都,葛飾区,西水元５丁目６番５号,,13,122,1250031,,,,,,,2022-06-07,1,,,,,コウユウ,0
2229,8011801040812,新規,0,2022-06-07,2022-06-07,株式会社バナナププリエ,,株式会社,東京都,足立区,千住５丁目１２番３号プレシス北千住５０２,,13,121,1200034,,,,,,,2022-06-07,1,,,,,バナナププリエ,0
2230,8011803005111,新規,0,2022-06-07,2022-06-07,ＤＯＮＧ　ＴＵＹＥＴ合同会社,,合同会社,東京都,葛飾区,東新小岩１丁目１番１号トラスト新小岩１－Ｃ,,13,122,1240023,,,,,,,2022-06-07,1,,,,,ドントゥエット,0
2237,8013301049210,新規,0,2022-06-07,2022-06-07,株式会社ＷＯＲＬＤ　ＰＬＡＹ,,株式会社,東京都,豊島区,西池袋５丁目４番１号,,13,116,1710021,,,,,,,2022-06-07,1,,,,,ワールドプレイ,0
2244,8020001146824,新規,0,2022-06-07,2022-06-07,株式会社マーズマリタイム,,株式会社,神奈川県,横浜市港北区,新吉田東２丁目１番１－４１９号,,14,109,2230058,,,,,,,2022-06-07,1,,,,,マーズマリタイム,0
2250,8020003021892,新規,0,2022-06-07,2022-06-07,Ｄｏ‐ａｂｌｅ合同会社,,合同会社,神奈川県,横浜市青葉区,荏田西４丁目３番地２８,,14,117,2250014,,,,,,,2022-06-07,1,,,,,ドゥアブル,0
2251,8020005015562,新規,0,2022-06-07,2022-06-07,一般社団法人ＳＤＧｓ・ＥＳＧ経営コンソーシアム,,その他の設立登記法人,神奈川県,横浜市神奈川区,栄町１番地１,,14,102,2210052,,,,,,,2022-06-07,1,,,,,エスディージーズイーエスジーケイエイコンソーシアム,0
2253,8021001076152,新規,0,2022-06-07,2022-06-07,株式会社ｐｅａｃｈ　ｄｅｓｉｇｎ,,株式会社,神奈川県,小田原市,栄町１丁目２番８号第一マツガヤビル４階,,14,206,2500011,,,,,,,2022-06-07,1,,,,,ピーチデザイン,0
2254,8021001076177,新規,0,2022-06-07,2022-06-07,株式会社Ｓｐａｃｅ,,株式会社,神奈川県,大和市,中央林間６丁目２１番６号,,14,213,2420007,,,,,,,2022-06-07,1,,,,,スペース,0
2258,8021003011792,新規,0,2022-06-07,2022-06-07,合同会社クロッキー,,合同会社,神奈川県,横須賀市,大矢部５丁目１０番１９－２号,,14,201,2380024,,,,,,,2022-06-07,1,,,,,クロッキー,0
2264,8030001148489,新規,0,2022-06-07,2022-06-07,株式会社テルテック,,株式会社,埼玉県,上尾市,二ツ宮１００５番地１０,,11,219,3620017,,,,,,,2022-06-07,1,,,,,テルテック,0
2265,8030001148514,新規,0,2022-06-07,2022-06-07,株式会社イワキ工務店,,株式会社,埼玉県,越谷市,大字大吉６０４番地７,,11,222,3430008,,,,,,,2022-06-07,1,,,,,イワキコウムテン,0
2266,8030001148522,新規,0,2022-06-07,2022-06-07,パシフィックセンス株式会社,,株式会社,埼玉県,さいたま市大宮区,桜木町４丁目８０番地１,,11,103,3300854,,,,,,,2022-06-07,1,,,,,パシフィックセンス,0
2267,8030001148530,新規,0,2022-06-07,2022-06-07,株式会社Ｍ‐ＴＥＣ,,株式会社,埼玉県,川越市,大字小仙波１０８１番地１,,11,201,3500031,,,,,,,2022-06-07,1,,,,,エムテック,0
2268,8030001148539,新規,0,2022-06-07,2022-06-07,株式会社福丸,,株式会社,埼玉県,吉川市,中央１丁目１２番地８,,11,243,3420061,,,,,,,2022-06-07,1,,,,,フクマル,0
2269,8030001148563,新規,0,2022-06-07,2022-06-07,株式会社ミドルエイト,,株式会社,埼玉県,所沢市,けやき台２丁目２０番地の６クレストけやき台１０２,,11,208,3591118,,,,,,,2022-06-07,1,,,,,ミドルエイト,0
2271,8030003019523,新規,0,2022-06-07,2022-06-07,合同会社今井住宅,,合同会社,埼玉県,児玉郡上里町,大字勅使河原１３１７番地７,,11,385,3690311,,,,,,,2022-06-07,1,,,,,イマイジュウタク,0
2275,8040001123730,新規,0,2022-06-07,2022-06-07,アール・エス・アール株式会社,,株式会社,千葉県,市川市,八幡４丁目３番８号,,12,203,2720021,,,,,,,2022-06-07,1,,,,,アールエスアール,0
2276,8040001123747,新規,0,2022-06-07,2022-06-07,株式会社みなみピース,,株式会社,千葉県,茂原市,早野１７２０番地,,12,210,2970037,,,,,,,2022-06-07,1,,,,,ミナミピース,0
2280,8040003020133,新規,0,2022-06-07,2022-06-07,ＭＡＲＵＴＥＣＨ合同会社,,合同会社,千葉県,松戸市,平賀１０７―５９,,12,207,2700002,,,,,,,2022-06-07,1,,,,,マルテック,0
2281,8040003020182,新規,0,2022-06-07,2022-06-07,合同会社アイ・ピー・エス,,合同会社,千葉県,市川市,若宮３丁目３３番１０号,,12,203,2720812,,,,,,,2022-06-07,1,,,,,アイピーエス,0
2282,8040003020190,新規,0,2022-06-07,2022-06-07,ＴＥＸ合同会社,,合同会社,千葉県,千葉市中央区,千葉港３番２１－９０９号,,12,101,2600026,,,,,,,2022-06-07,1,,,,,テクス,0
2283,8040003020199,新規,0,2022-06-07,2022-06-07,ＡＫＡＲＩ合同会社,,合同会社,千葉県,市川市,北方町４丁目１４４１－２－２１１号,,12,203,2720811,,,,,,,2022-06-07,1,,,,,アカリ,0
2284,8050003006593,新規,0,2022-06-07,2022-06-07,合同会社一成商事,,合同会社,茨城県,土浦市,富士崎１丁目３番１４－１０３号,,08,203,3000813,,,,,,,2022-06-07,1,,,,,,0
2285,8050005013084,新規,0,2022-06-07,2022-06-07,一般社団法人シャンプーソムリエ協会,,その他の設立登記法人,茨城県,稲敷市,羽賀１７９５番地２,,08,229,3000525,,,,,,,2022-06-07,1,,,,,シャンプーソムリエキョウカイ,0
2287,8060001034934,新規,0,2022-06-07,2022-06-07,ケイブロック株式会社,,株式会社,栃木県,宇都宮市,ゆいの杜５丁目２２番９号,,09,201,3213226,,,,,,,2022-06-07,1,,,,,ケイブロック,0
2288,8060001034942,新規,0,2022-06-07,2022-06-07,アーバン・アドバンス株式会社,,株式会社,栃木県,宇都宮市,中岡本町３０１４番地１,,09,201,3291105,,,,,,,2022-06-07,1,,,,,アーバンアドバンス,0
2289,8060001034959,新規,0,2022-06-07,2022-06-07,大都開発株式会社,,株式会社,栃木県,宇都宮市,下栗町２９４７番地１３リバーサイドヒルズ２０２,,09,201,3210923,,,,,,,2022-06-07,1,,,,,ダイトカイハツ,0
2290,8070001039288,新規,0,2022-06-07,2022-06-07,ＤＨＩＬＬＯＮ　ＴＲＡＤＩＮＧ株式会社,,株式会社,群馬県,邑楽郡大泉町,城之内１丁目２２番１４－２０４号城之内アーバンハイツ,,10,524,3700518,,,,,,,2022-06-07,1,,,,,ディロントレーディング,0
2291,8070001039313,新規,0,2022-06-07,2022-06-07,株式会社サダカタ,,株式会社,群馬県,みどり市,笠懸町阿左美２０６８番地１２,,10,212,3792311,,,,,,,2022-06-07,1,,,,,サダカタ,0
2297,8080101023331,新規,0,2022-06-07,2022-06-07,株式会社ＷｉＬＬｍ,,株式会社,静岡県,三島市,徳倉３丁目１４番２５号,,22,206,4110044,,,,,,,2022-06-07,1,,,,,ウィルエム,0
2299,8080403004558,新規,0,2022-06-07,2022-06-07,合同会社Ｓ‐Ｐａｒｋ,,合同会社,静岡県,浜松市天竜区,山東１７１２番地の２１,,22,137,4313303,,,,,,,2022-06-07,1,,,,,エスパーク,0
2315,8120001246325,新規,0,2022-06-07,2022-06-07,株式会社そろライン,,株式会社,大阪府,大阪市西区,北堀江２丁目２－２４プラディーパ北堀江２０５号,,27,106,5500014,,,,,,,2022-06-07,1,,,,,ソロライン,0
2324,8130001071870,新規,0,2022-06-07,2022-06-07,株式会社ＣＯＮＴＡＣＴ,,株式会社,京都府,京都市下京区,二人司町１番地１３,,26,106,6008824,,,,,,,2022-06-07,1,,,,,コンタクト,0
2325,8130001071904,新規,0,2022-06-07,2022-06-07,株式会社ｆｉａｔｌｕｘ,,株式会社,京都府,京都市東山区,富永町１１１－２第二フェニックスビル４階,,26,105,6050078,,,,,,,2022-06-07,1,,,,,フィアラ,0
2326,8130001071912,新規,0,2022-06-07,2022-06-07,ＢＲＩＧＨＴ　ＦＲＩＮＧＥＳ株式会社,,株式会社,京都府,京都市下京区,八幡町５２３番地３,,26,106,6008455,,,,,,,2022-06-07,1,,,,,ブライトフリンジェズ,0
2332,8140003017755,新規,0,2022-06-07,2022-06-07,合同会社ｕｍｉｎｅｋｏ,,合同会社,兵庫県,西宮市,分銅町７番１１号,,28,204,6620042,,,,,,,2022-06-07,1,,,,,ウミネコ,0
2337,8180001151536,新規,0,2022-06-07,2022-06-07,Ｋ．ｓアートペイント株式会社,,株式会社,愛知県,知多市,八幡字森之前５７番地１・Ｆ,,23,224,4780001,,,,,,,2022-06-07,1,,,,,ケイエスアートペイント,0
2338,8180001151643,新規,0,2022-06-07,2022-06-07,株式会社ＴＣＦコンサルティング,,株式会社,愛知県,稲沢市,小沢１丁目９番２号,,23,220,4928212,,,,,,,2022-06-07,1,,,,,ティーシーエフコンサルティング,0
2342,8180003023907,新規,0,2022-06-07,2022-06-07,ストリーム合同会社,,合同会社,愛知県,犬山市,字若宮１５７番地１ソレーユ若宮２０５,,23,215,4840861,,,,,,,2022-06-07,1,,,,,ストリーム,0
2349,8190001029483,新規,0,2022-06-07,2022-06-07,大田建設株式会社,,株式会社,三重県,伊賀市,界外４８１番地,,24,216,5180815,,,,,,,2022-06-07,1,,,,,オオタケンセツ,0
2361,8230001019397,新規,0,2022-06-07,2022-06-07,株式会社クリエイティブ,,株式会社,富山県,富山市,高木１６１４番地,,16,201,9300106,,,,,,,2022-06-07,1,,,,,クリエイティブ,0
2376,8270001008545,新規,0,2022-06-07,2022-06-07,株式会社Ｍ＆Ｍ工業,,株式会社,鳥取県,鳥取市,松原５９５番地３,,31,201,6801444,,,,,,,2022-06-07,1,,,,,エムアンドエムコウギョウ,0
2379,8290001097727,新規,0,2022-06-07,2022-06-07,柯維株式会社,,株式会社,福岡県,福岡市東区,多の津１丁目１１番３号１０２号室,,40,131,8130034,,,,,,,2022-06-07,1,,,,,カイ,0
2380,8290001097776,新規,0,2022-06-07,2022-06-07,株式会社Ｃｌｅａｒ　Ｈｏｍｅ,,株式会社,福岡県,福岡市早良区,梅林７丁目８番１８号,,40,137,8140172,,,,,,,2022-06-07,1,,,,,クリアホーム,0
2381,8290001097784,新規,0,2022-06-07,2022-06-07,ＥＮ‐ＢＲＩＤＧＥ株式会社,,株式会社,福岡県,小郡市,二森４３０番地１４,,40,216,8380126,,,,,,,2022-06-07,1,,,,,エンブリッジ,0
2382,8290001097792,新規,0,2022-06-07,2022-06-07,株式会社Ｒｅクリエーション,,株式会社,福岡県,柳川市,本城町１０９番地,,40,207,8320061,,,,,,,2022-06-07,1,,,,,レクリエーション,0
2383,8290001097801,新規,0,2022-06-07,2022-06-07,Ｓ建株式会社,,株式会社,福岡県,飯塚市,椋本６６番地２,,40,205,8200077,,,,,,,2022-06-07,1,,,,,エスケン,0
2384,8290001097826,新規,0,2022-06-07,2022-06-07,株式会社ｏｎｅ　ｆｏｒ　ａｌｌ,,株式会社,福岡県,宗像市,ひかりヶ丘２丁目９番地２,,40,220,8113403,,,,,,,2022-06-07,1,,,,,ワンフォーオール,0
2385,8290003012576,新規,0,2022-06-07,2022-06-07,メタバースコレクション合同会社,,合同会社,福岡県,福岡市博多区,美野島３丁目４番２４－１２０２号,,40,132,8120017,,,,,,,2022-06-07,1,,,,,メタバースコレクション,0
2386,8290003012584,新規,0,2022-06-07,2022-06-07,合同会社ＧＯ　ＮＡＫＡＴＡ,,合同会社,福岡県,福岡市南区,大橋２丁目２４番２５号,,40,134,8150033,,,,,,,2022-06-07,1,,,,,ゴーナカタ,0
2394,8290803004137,新規,0,2022-06-07,2022-06-07,合同会社メイシン,,合同会社,福岡県,田川市,大字川宮１５１２番地４２,,40,206,8260042,,,,,,,2022-06-07,1,,,,,メイシン,0
2397,8330001029790,新規,0,2022-06-07,2022-06-07,株式会社江口鉄筋,,株式会社,熊本県,熊本市中央区,大江１丁目３５番３－８号,,43,101,8620971,,,,,,,2022-06-07,1,,,,,エグチテッキン,0
2400,8360001030498,新規,0,2022-06-07,2022-06-07,株式会社ＹＯＬＯ,,株式会社,沖縄県,名護市,宮里１丁目２８－８南西ビル２Ｆ,,47,209,9050011,,,,,,,2022-06-07,1,,,,,ヨーロー,0
2401,8360001030507,新規,0,2022-06-07,2022-06-07,沖縄Ｆｌｏｒａ株式会社,,株式会社,沖縄県,名護市,宇茂佐の森３丁目４番地３,,47,209,9050009,,,,,,,2022-06-07,1,,,,,オキナワフローラ,0
2405,8360003012073,新規,0,2022-06-07,2022-06-07,合同会社一石四鳥,,合同会社,沖縄県,糸満市,潮崎町４丁目１５番地の１５,,47,210,9010364,,,,,,,2022-06-07,1,,,,,イッセキヨンチョウ,0
2406,8370001048647,新規,0,2022-06-07,2022-06-07,株式会社自来也,,株式会社,宮城県,仙台市宮城野区,燕沢１丁目１５番１５号,,04,102,9830823,,,,,,,2022-06-07,1,,,,,ジライヤ,0
2409,8380001032864,新規,0,2022-06-07,2022-06-07,株式会社Ａｏｋｉ．Ｆｉｓ,,株式会社,福島県,須賀川市,南上町１３３番地５,,07,207,9620817,,,,,,,2022-06-07,1,,,,,アオキエフアイエス,0
2410,8380001032872,新規,0,2022-06-07,2022-06-07,株式会社エヌエスオールワークス,,株式会社,福島県,いわき市,鹿島町米田字沼田１９番地の１６,,07,204,9718133,,,,,,,2022-06-07,1,,,,,エヌエスオールワークス,0
2411,8380001032880,新規,0,2022-06-07,2022-06-07,Ｃｏｄｅｐｈｉｌｉａ株式会社,,株式会社,福島県,会津若松市,西年貢２丁目１－２５,,07,202,9650830,,,,,,,2022-06-07,1,,,,,,0
2414,8390003001965,新規,0,2022-06-07,2022-06-07,ＩＴＯｄｅｓｉｇｎｓ合同会社,,合同会社,山形県,鶴岡市,加茂字坂ノ下１９４番地,,06,203,9971204,,,,,,,2022-06-07,1,,,,,アイティーオーデザインズ,0
2416,8400001015908,新規,0,2022-06-07,2022-06-07,株式会社エレクトロ２１,,株式会社,岩手県,奥州市,水沢真城字宮沢８７番地７,,03,215,0230841,,,,,,,2022-06-07,1,,,,,エレクトロニジュウイチ,0
2417,8420001017877,新規,0,2022-06-07,2022-06-07,アスナロ・チャンネルパーク株式会社,,株式会社,青森県,十和田市,大字相坂字小林２２６番地３,,02,206,0340041,,,,,,,2022-06-07,1,,,,,アスナロチャンネルパーク,0
2418,8420001017885,新規,0,2022-06-07,2022-06-07,株式会社正琉塗装,,株式会社,青森県,青森市,松森２丁目４番１６号,,02,201,0300965,,,,,,,2022-06-07,1,,,,,セイリュウトソウ,0
2420,8420003002530,新規,0,2022-06-07,2022-06-07,合同会社浜と山と,,合同会社,青森県,八戸市,長苗代１丁目１１－５,,02,203,0391103,,,,,,,2022-06-07,1,,,,,ハマトヤマト,0
2426,8430001086772,新規,0,2022-06-07,2022-06-07,ＲＹエステート株式会社,,株式会社,北海道,札幌市東区,北十条東６丁目１番１－９０４号,,01,103,0650010,,,,,,,2022-06-07,1,,,,,アールワイエステート,0
2427,8430001086789,新規,0,2022-06-07,2022-06-07,トキトコーポレーション株式会社,,株式会社,北海道,札幌市北区,新琴似町５７９番地,,01,102,0010915,,,,,,,2022-06-07,1,,,,,トキトコーポレーション,0
2430,8450001013717,新規,0,2022-06-07,2022-06-07,株式会社マイスターリンク,,株式会社,北海道,旭川市,新富一条３丁目３番２号,,01,204,0700001,,,,,,,2022-06-07,1,,,,,マイスターリンク,0
2440,8700150109257,新規,0,2022-06-07,2022-06-07,ＨＡＪＡ　ＬＡＮＫＡ　ＰＶＴ　ＬＴＤ,,外国会社等,千葉県,香取郡多古町,出沼１５６－４７－１,,12,347,2892301,スリランカ民主社会主義共和国、ウダタラビンナ、マディゲ、ウダタラビンナ、ＮＯ．４６,,,,,,2022-06-07,1,,,,,ハジヤランカプライベートリミテツド,0
2456,9010001227062,新規,0,2022-06-07,2022-06-07,株式会社ｏｋａｍｉ,,株式会社,東京都,中央区,銀座７丁目６番１９号,,13,102,1040061,,,,,,,2022-06-07,1,,,,,オカミ,0
2457,9010001227137,新規,0,2022-06-07,2022-06-07,株式会社地域医療マネジメント,,株式会社,東京都,千代田区,平河町２丁目４番５号平河町Ｋビル７階,,13,101,1020093,,,,,,,2022-06-07,1,,,,,チイキイリョウマネジメント,0
2461,9010003037807,新規,0,2022-06-07,2022-06-07,Ｓｏｌｉｄ　Ｓｕｒｆａｃｅ合同会社,,合同会社,東京都,千代田区,内神田３丁目１２－４第一岸ビル,,13,101,1010047,,,,,,,2022-06-07,1,,,,,ソリッドサーフェース,0
2462,9010003037831,新規,0,2022-06-07,2022-06-07,合同会社ＫＢＰ,,合同会社,東京都,中央区,銀座４丁目１４番１５号サントル銀座四丁目８０３号室,,13,102,1040061,,,,,,,2022-06-07,1,,,,,ケービーピー,0
2470,9010401167379,新規,0,2022-06-07,2022-06-07,株式会社ＧＸキャピタル,,株式会社,東京都,港区,南青山２丁目２番１５号,,13,103,1070062,,,,,,,2022-06-07,1,,,,,ジーエックスキャピタル,0
2471,9010401167750,新規,0,2022-06-07,2022-06-07,Ｊｕｎｉｐｅｒ　Ｂｉｏｌｏｇｉｃｓ株式会社,,株式会社,東京都,港区,元麻布３丁目１番６号,,13,103,1060046,,,,,,,2022-06-07,1,,,,,ジュニパーバイオロジクス,0
2472,9010403027812,新規,0,2022-06-07,2022-06-07,ジャパンアンド合同会社,,合同会社,東京都,港区,浜松町２丁目２番１５号浜松町ダイヤビル２Ｆ,,13,103,1050013,,,,,,,2022-06-07,1,,,,,ジャパンアンド,0
2473,9010403027837,新規,0,2022-06-07,2022-06-07,イーストバイオ＆サプライ合同会社,,合同会社,東京都,港区,赤坂８丁目４番１４号,,13,103,1070052,,,,,,,2022-06-07,1,,,,,イーストバイオアンドサプライ,0
2484,9010603009569,新規,0,2022-06-07,2022-06-07,合同会社Ｇｒｅｅｎ　Ａｃｏｒｎ,,合同会社,東京都,江東区,豊洲１丁目３番７号２０６,,13,108,1350061,,,,,,,2022-06-07,1,,,,,グリーンエイコーン,0
2486,9010701042760,新規,0,2022-06-07,2022-06-07,株式会社ＢＳＱＪＰ,,株式会社,東京都,品川区,東五反田１丁目１９番４号,,13,109,1410022,,,,,,,2022-06-07,1,,,,,ビーエスキュージャパン,0
2487,9010703006268,新規,0,2022-06-07,2022-06-07,合同会社百花繚乱,,合同会社,東京都,品川区,西五反田１丁目２６―２五反田サンハイツ９１１,,13,109,1410031,,,,,,,2022-06-07,1,,,,,ヒャッカリョウラン,0
2488,9010705003370,新規,0,2022-06-07,2022-06-07,社会保険労務士法人川原経営,,その他の設立登記法人,東京都,品川区,北品川４丁目７番３５号御殿山トラストタワー,,13,109,1400001,,,,,,,2022-06-07,1,,,,,カワハラケイエイ,0
2491,9010901050984,新規,0,2022-06-07,2022-06-07,株式会社グラフィックレコーディング,,株式会社,東京都,世田谷区,太子堂２丁目２３番８号大壽マンション１０１,,13,112,1540004,,,,,,,2022-06-07,1,,,,,グラフィックレコーディング,0
2498,9011001147861,新規,0,2022-06-07,2022-06-07,株式会社ＮＯＶＥＬＰＩＡ　ＪＡＰＡＮ,,株式会社,東京都,渋谷区,広尾１丁目１－３９恵比寿プライムスクエアタワー１３階Ｂ,,13,113,1500012,,,,,,,2022-06-07,1,,,,,ノベルピアジャパン,0
2502,9011101099103,新規,0,2022-06-07,2022-06-07,株式会社リクシス,,株式会社,東京都,新宿区,新宿６丁目２５番５－１０１号,,13,104,1600022,,,,,,,2022-06-07,1,,,,,リクシス,0
2506,9011303004430,新規,0,2022-06-07,2022-06-07,エンカレ合同会社,,合同会社,東京都,杉並区,善福寺４丁目１１番１０号,,13,115,1670041,,,,,,,2022-06-07,1,,,,,エンカレ,0
2510,9011401024280,新規,0,2022-06-07,2022-06-07,株式会社Ｏ．Ｅ．Ｃ,,株式会社,東京都,板橋区,中板橋１１番２号,,13,119,1730016,,,,,,,2022-06-07,1,,,,,オーイーシー,0
2511,9011401024297,新規,0,2022-06-07,2022-06-07,株式会社オーシャン,,株式会社,東京都,板橋区,赤塚新町３丁目１０番６号,,13,119,1750093,,,,,,,2022-06-07,1,,,,,オーシャン,0
2514,9011501028082,新規,0,2022-06-07,2022-06-07,株式会社橋本工務店,,株式会社,東京都,北区,滝野川６丁目４０番５号,,13,117,1140023,,,,,,,2022-06-07,1,,,,,ハシモトコウムテン,0
2515,9011501028108,新規,0,2022-06-07,2022-06-07,株式会社ＩＯ,,株式会社,東京都,北区,赤羽台３丁目１番１７号,,13,117,1150053,,,,,,,2022-06-07,1,,,,,アイオー,0
2519,9011703003156,新規,0,2022-06-07,2022-06-07,ソネック合同会社,,合同会社,東京都,江戸川区,中葛西８丁目６番６－２０４号,,13,123,1340083,,,,,,,2022-06-07,1,,,,,ソネック,0
2522,9011801040803,新規,0,2022-06-07,2022-06-07,株式会社Ｆｒｅｅｄｏｍ,,株式会社,東京都,足立区,鹿浜５丁目１６番４号,,13,121,1230864,,,,,,,2022-06-07,1,,,,,フリーダム,0
2524,9012301013010,新規,0,2022-06-07,2022-06-07,株式会社富井設備工業,,株式会社,東京都,町田市,金森２丁目３９番３９号ソレイユメゾン１０１,,13,209,1940012,,,,,,,2022-06-07,1,,,,,トミイセツビコウギョウ,0
2528,9012803002799,新規,0,2022-06-07,2022-06-07,ＶＡＣＣＡＳ合同会社,,合同会社,東京都,立川市,一番町３丁目２８－２１－２０５,,13,202,1900033,,,,,,,2022-06-07,1,,,,,ヴァッカス,0
2534,9013305003352,新規,0,2022-06-07,2022-06-07,サンシャイン税理士法人,,その他の設立登記法人,東京都,豊島区,南池袋２丁目４９－７池袋パークビル１階,,13,116,1710022,,,,,,,2022-06-07,1,,,,,サンシャイン,0
2539,9020003021900,新規,0,2022-06-07,2022-06-07,Ｇｌｏｂａｌ・Ｖｉｓｉｏｎ合同会社,,合同会社,神奈川県,横浜市港北区,日吉本町３丁目４１番２３号シャルマン日吉１０２,,14,109,2230062,,,,,,,2022-06-07,1,,,,,グローバルヴィジョン,0
2544,9021001076135,新規,0,2022-06-07,2022-06-07,株式会社ＡＣＴＩＶＥ,,株式会社,神奈川県,平塚市,纒５５５番地の５クレイドール纒Ｃ－１０１,,14,203,2540901,,,,,,,2022-06-07,1,,,,,アクティブ,0
2557,9030001148505,新規,0,2022-06-07,2022-06-07,株式会社北里製薬,,株式会社,埼玉県,さいたま市大宮区,桜木町１丁目７－５ソニックシティビル１４Ｆ,,11,103,3300854,,,,,,,2022-06-07,1,,,,,キタザトセイヤク,0
2558,9030001148546,新規,0,2022-06-07,2022-06-07,株式会社ＥＮＲＩＣＨ,,株式会社,埼玉県,八潮市,大瀬４丁目８番地１シティテラス八潮３０１,,11,234,3400822,,,,,,,2022-06-07,1,,,,,エンリッチ,0
2559,9030001148554,新規,0,2022-06-07,2022-06-07,Ｈｙｐｅｒｓｏｎｉｃ株式会社,,株式会社,埼玉県,川口市,幸町２丁目１番１８号アピス川口幸町フィティア０２０３,,11,203,3320016,,,,,,,2022-06-07,1,,,,,ハイパーソニック,0
2560,9030001148570,新規,0,2022-06-07,2022-06-07,株式会社ＭｉｒａＯｃｅａｎ,,株式会社,埼玉県,深谷市,上野台６０８番地２５Ｓ－ＯｆｆｉｃｅＢ,,11,218,3660801,,,,,,,2022-06-07,1,,,,,ミラオーシャン,0
2574,9040001123639,新規,0,2022-06-07,2022-06-07,株式会社金田,,株式会社,千葉県,松戸市,常盤平５丁目１４番地の２４奥平ビル１０１,,12,207,2702261,,,,,,,2022-06-07,1,,,,,カネダ,0
2575,9040001123688,新規,0,2022-06-07,2022-06-07,株式会社Ｓｗｉｔｃｈ　ｏｎ,,株式会社,千葉県,木更津市,高柳８８５番地１,,12,206,2920014,,,,,,,2022-06-07,1,,,,,スイッチオン,0
2576,9040001123696,新規,0,2022-06-07,2022-06-07,株式会社Ｒｅｓｔａｕｒａｎｔ　Ｌｕｐｉｎ,,株式会社,千葉県,市川市,南八幡３丁目８番１３号シャトーデザールクボタ１０１,,12,203,2720023,,,,,,,2022-06-07,1,,,,,レストランルパン,0
2577,9040001123746,新規,0,2022-06-07,2022-06-07,株式会社ｈａｎａｃｏ,,株式会社,千葉県,匝瑳市,大堀８００番地,,12,235,2892176,,,,,,,2022-06-07,1,,,,,ハナコ,0
2581,9040003020157,新規,0,2022-06-07,2022-06-07,合同会社ＭＫＪネクスト,,合同会社,千葉県,白井市,堀込３丁目７番１号,,12,232,2701424,,,,,,,2022-06-07,1,,,,,エムケイジェイネクスト,0
2590,9080005007462,新規,0,2022-06-07,2022-06-07,ＮＰＯ法人岳南慰霊の会,,その他の設立登記法人,静岡県,静岡市葵区,東草深町１番５号,,22,101,4200865,,,,,,,2022-06-07,1,,,,,ガクナンイレイノカイ,0
2593,9090001017605,新規,0,2022-06-07,2022-06-07,株式会社西田工業,,株式会社,山梨県,笛吹市,一宮町田中１３４６番地５,,19,211,4050078,,,,,,,2022-06-07,1,,,,,ニシダコウギョウ,0
2604,9120001246233,新規,0,2022-06-07,2022-06-07,株式会社ラ・レプレ,,株式会社,大阪府,大阪市中央区,南久宝寺町２丁目５番３号,,27,128,5410058,,,,,,,2022-06-07,1,,,,,ラレプレ,0
2605,9120001246448,新規,0,2022-06-07,2022-06-07,＿盛株式会社,00126800,株式会社,大阪府,大阪市中央区,道頓堀１丁目東３番２４号ラパンジール道頓堀１００１,,27,128,5420071,,,,,,,2022-06-07,1,,,,,シンセイ,0
2608,9120005022977,新規,0,2022-06-07,2022-06-07,一般社団法人あんしんライフサポート,,その他の設立登記法人,大阪府,大阪市平野区,加美東３丁目１６番３号,,27,126,5470002,,,,,,,2022-06-07,1,,,,,アンシンライフサポート,0
2613,9120101065707,新規,0,2022-06-07,2022-06-07,株式会社フラワーリンク,,株式会社,大阪府,堺市堺区,柏木町３丁１番５号,,27,141,5900837,,,,,,,2022-06-07,1,,,,,フラワーリンク,0
2615,9120105009569,新規,0,2022-06-07,2022-06-07,特定非営利活動法人Ｇｏｃｃｏ,,その他の設立登記法人,大阪府,松原市,阿保７丁目６番３０号,,27,217,5800043,,,,,,,2022-06-07,1,,,,,ゴッコ,0
2631,9140001126284,新規,0,2022-06-07,2022-06-07,株式会社ＲＩＢ,,株式会社,兵庫県,三田市,狭間が丘５丁目３－６０８,,28,219,6691545,,,,,,,2022-06-07,1,,,,,リブ,0
2636,9140003017754,新規,0,2022-06-07,2022-06-07,合同会社ｋｉｃｏｒｉ,,合同会社,兵庫県,加古川市,米田町平津４５６番地の８オープス曽爾１０２号,,28,210,6750054,,,,,,,2022-06-07,1,,,,,キコリ,0
2642,9150001025592,新規,0,2022-06-07,2022-06-07,株式会社ＳＴプランニング,,株式会社,奈良県,葛城市,竹内３７３番地１,,29,211,6392155,,,,,,,2022-06-07,1,,,,,エスティプランニング,0
2661,9180003023906,新規,0,2022-06-07,2022-06-07,合同会社すまいとしごと,,合同会社,愛知県,名古屋市瑞穂区,瑞穂通７丁目８番地の３サンメゾン新瑞橋ゲート３０２号,,23,108,4670806,,,,,,,2022-06-07,1,,,,,スマイトシゴト,0
2664,9190001029482,新規,0,2022-06-07,2022-06-07,株式会社ペイントアルパイン,,株式会社,三重県,津市,久居新町２１４０番地７,,24,201,5141118,,,,,,,2022-06-07,1,,,,,ペイントアルパイン,0
2667,9190003004005,新規,0,2022-06-07,2022-06-07,合同会社ＬＥＡＤ,,合同会社,三重県,桑名市,有楽町５２番地ライオンズ桑名駅前グランフォート１５０７号,,24,205,5110079,,,,,,,2022-06-07,1,,,,,リード,0
2676,9230005009237,新規,0,2022-06-07,2022-06-07,弁護士法人菊法律事務所,,その他の設立登記法人,富山県,富山市,千石町２丁目１番１３号,,16,201,9300066,,,,,,,2022-06-07,1,,,,,,0
2680,9240001059887,新規,0,2022-06-07,2022-06-07,株式会社ＰｒｅｓｉｎｇＳｏｃｉａｌＳｅｒｖｉｃｅ,,株式会社,広島県,広島市南区,宇品御幸５丁目１番５号池田ビル４Ｆ,,34,103,7340015,,,,,,,2022-06-07,1,,,,,プレジングソーシャルサービス,0
2693,9270001008544,新規,0,2022-06-07,2022-06-07,株式会社ＤＯＩカンパニー,,株式会社,鳥取県,境港市,明治町３８番地５（Ｂ１０２）,,31,204,6840022,,,,,,,2022-06-07,1,,,,,ドイカンパニー,0
2696,9290001097726,新規,0,2022-06-07,2022-06-07,株式会社ＫＺＴ　Ｆａｍｉｌｙ,,株式会社,福岡県,福岡市東区,多の津１丁目１１番３号２０３号室,,40,131,8130034,,,,,,,2022-06-07,1,,,,,ケイゼットティーファミリー,0
2697,9290001097734,新規,0,2022-06-07,2022-06-07,ビー・エイドホールディングス株式会社,,株式会社,福岡県,福岡市西区,大字飯氏９３５－６,,40,135,8190371,,,,,,,2022-06-07,1,,,,,ビーエイドホールディングス,0
2698,9290001097767,新規,0,2022-06-07,2022-06-07,株式会社関マネジメント,,株式会社,福岡県,大川市,大字幡保９８番地の７,,40,212,8310033,,,,,,,2022-06-07,1,,,,,セキマネジメント,0
2699,9290003012583,新規,0,2022-06-07,2022-06-07,合同会社前田コンサルティング,,合同会社,福岡県,古賀市,谷山１１０４番地５,,40,223,8113125,,,,,,,2022-06-07,1,,,,,マエダコンサルティング,0
2707,9300005007084,新規,0,2022-06-07,2022-06-07,ｋａｋｅｒｕＩＰ弁理士法人,,その他の設立登記法人,佐賀県,佐賀市,呉服元町２－１５ＣＯＴＯＣＯ２１５,,41,201,8400824,,,,,,,2022-06-07,1,,,,,カケルアイピー,0
2717,9360001030522,新規,0,2022-06-07,2022-06-07,株式会社ＨＯＨＯ,,株式会社,沖縄県,那覇市,牧志１丁目８－２,,47,201,9000013,,,,,,,2022-06-07,1,,,,,ホーホー,0
2718,9360001030530,新規,0,2022-06-07,2022-06-07,株式会社さびら,,株式会社,沖縄県,那覇市,首里池端町３４番地２Ｆ,,47,201,9030824,,,,,,,2022-06-07,1,,,,,サビラ,0
2719,9370001048646,新規,0,2022-06-07,2022-06-07,株式会社ゲルトガーデン,,株式会社,宮城県,仙台市太白区,八木山本町１丁目３５番５号,,04,104,9820801,,,,,,,2022-06-07,1,,,,,ゲルトガーデン,0
2724,9380001032863,新規,0,2022-06-07,2022-06-07,ティーリンク建設株式会社,,株式会社,福島県,郡山市,安積町長久保２丁目７番地の４４,,07,203,9630105,,,,,,,2022-06-07,1,,,,,ティーリンクケンセツ,0
2726,9400005008246,新規,0,2022-06-07,2022-06-07,そうぞく税理士法人,,その他の設立登記法人,岩手県,盛岡市,津志田西２丁目１０番６号ベルウッドＤ－２号,,03,201,0200836,,,,,,,2022-06-07,1,,,,,ソウゾク,0
2735,9420001017876,新規,0,2022-06-07,2022-06-07,ケンブリッジフィルター青森株式会社,,株式会社,青森県,上北郡六ヶ所村,大字尾駮字野附１番地３５むつ小川原ビル１階,,02,411,0393212,,,,,,,2022-06-07,1,,,,,ケンブリッジフィルターアオモリ,0
2736,9420001017884,新規,0,2022-06-07,2022-06-07,株式会社加賀商店,,株式会社,青森県,八戸市,大字湊町字大沢２１番地２,,02,203,0310812,,,,,,,2022-06-07,1,,,,,カガショウテン,0
2744,9430001086771,新規,0,2022-06-07,2022-06-07,株式会社Ｓｎｏｗ　Ｐｌａｎｎｉｎｇ,,株式会社,北海道,岩内郡岩内町,字相生１５４番地３,,01,402,0450023,,,,,,,2022-06-07,1,,,,,スノープランニング,0
2750,9490005006852,新規,0,2022-06-07,2022-06-07,弁護士法人やいろ法律事務所,,その他の設立登記法人,高知県,高知市,升形１０番１２号１階西,,39,201,7800861,,,,,,,2022-06-07,1,,,,,ヤイロホウリツジムショ,0
