sequenceNumber,corporateNumber,process,correct,updateDate,changeDate,name,nameImageId,kind,prefectureName,cityName,streetNumber,addressImageId,prefectureCode,cityCode,postCode,addressOutside,addressOutsideImageId,closeDate,closeCause,successorCorporateNumber,changeCause,assignmentDate,latest,enName,enPrefectureName,enCityName,enAddressOutside,furigana,hihyoji
8,1010002016793,登記記録の閉鎖等,0,2022-01-24,2022-01-13,有限会社一九三,,有限会社,東京都,中央区,日本橋茅場町１丁目１１番４号,,13,102,1030025,,,2022-01-13,清算の結了等,,,2015-10-05,1,,,,,イッキュウサン,0
32,1011001053737,登記記録の閉鎖等,0,2022-01-24,2022-01-17,株式会社ローブリッヂ,,株式会社,東京都,渋谷区,千駄ヶ谷３丁目１３番２２号,,13,113,1510051,,,2022-01-17,清算の結了等,,,2015-10-05,1,,,,,ローブリッヂ,0
38,1011001122715,登記記録の閉鎖等,0,2022-01-24,2022-01-06,株式会社京都清水オペレーションズ,,株式会社,東京都,渋谷区,恵比寿４丁目１番１８号恵比寿ネオナート,,13,113,1500013,,,2022-01-06,合併による解散等,4011001122241,令和４年１月１日東京都渋谷区恵比寿四丁目１番１８号恵比寿ネオナート株式会社ＨＭＪインターナショナル（4011001122241）に合併し解散,2018-06-12,1,,,,,キョウトキヨミズオペレーションズ,0
39,1011001123928,登記記録の閉鎖等,0,2022-01-24,2022-01-04,Ｔｒｕｓｔ　Ｃｏｎｓｕｌｔｉｎｇ株式会社,,株式会社,東京都,渋谷区,広尾１丁目１番３９号,,13,113,1500012,,,2022-01-04,合併による解散等,1010401108019,令和４年１月１日東京都渋谷区広尾一丁目１番３９号トラスティーパートナーズ株式会社（1010401108019）に合併し解散,2018-08-27,1,,,,,トラストコンサルティング,0
44,1011101086133,登記記録の閉鎖等,0,2022-01-24,2022-01-18,株式会社石岡商会,,株式会社,大分県,日田市,大字内河野１０４番地,,44,204,8770000,,,2022-01-18,清算の結了等,,,2018-12-03,1,,,,,イシオカショウカイ,0
57,1011602010681,登記記録の閉鎖等,0,2022-01-24,2022-01-20,有限会社義電設,,有限会社,東京都,練馬区,北町７丁目１６番２５号,,13,120,1790081,,,2022-01-20,清算の結了等,,,2015-10-05,1,,,,,ヨシデンセツ,0
86,1021002046160,登記記録の閉鎖等,0,2022-01-24,2022-01-19,有限会社カメイ,,有限会社,神奈川県,綾瀬市,上土棚北３丁目１７番２６号,,14,218,2521111,,,2022-01-19,清算の結了等,,,2015-10-05,1,,,,,カメイ,0
88,1030001000846,登記記録の閉鎖等,0,2022-01-24,2022-01-19,浦和工営株式会社,,株式会社,埼玉県,さいたま市桜区,大字上大久保３６０番地２,,11,106,3380824,,,2022-01-19,清算の結了等,,,2015-10-05,1,,,,,ウラワコウエイ,0
119,1070001036218,登記記録の閉鎖等,0,2022-01-24,2022-01-18,株式会社ＲＯＴＯ,,株式会社,群馬県,伊勢崎市,境上渕名７３９番地,,10,204,3700102,,,2022-01-18,清算の結了等,,,2019-10-16,1,,,,,ロト,0
124,1090001016028,登記記録の閉鎖等,0,2022-01-24,2022-01-20,ＮＡＶＩＥ株式会社,,株式会社,山梨県,甲府市,上今井町５５３番地７８,,19,201,4000845,,,2022-01-20,清算の結了等,,,2019-05-08,1,,,,,ナヴィエ,0
173,1140002006088,登記記録の閉鎖等,0,2022-01-24,2022-01-17,有限会社松英社,,有限会社,兵庫県,神戸市垂水区,南多聞台８丁目１４番３号,,28,108,6550043,,,2022-01-17,清算の結了等,,,2015-10-05,1,,,,,ショウエイシャ,0
185,1180301029348,登記記録の閉鎖等,0,2022-01-24,2022-01-20,株式会社ドリームガーデン昭楽園,,株式会社,愛知県,西尾市,市子町下川田５４番地２,,23,213,4450055,,,2022-01-20,清算の結了等,,,2016-07-01,1,,,,,ドリームガーデンショウラクエン,0
195,1210002004976,登記記録の閉鎖等,0,2022-01-24,2022-01-21,有限会社ワイズオフィス,,有限会社,福井県,福井市,高木中央２丁目１５０４番地,,18,201,9100804,,,2022-01-21,清算の結了等,,,2015-10-05,1,,,,,ワイズオフィス,0
196,1210002009331,登記記録の閉鎖等,0,2022-01-24,2022-01-14,有限会社和泉開発産業,,有限会社,福井県,大野市,朝日第３５号７番地１９,,18,205,9120205,,,2022-01-14,清算の結了等,,,2015-10-05,1,,,,,イズミカイハツサンギョウ,0
206,1250001014493,登記記録の閉鎖等,0,2022-01-24,2022-01-20,株式会社カワグチ,,株式会社,山口県,光市,浅江６丁目１７番１６号,,35,210,7430021,,,2022-01-20,清算の結了等,,,2015-10-05,1,,,,,カワグチ,0
218,1290802012270,登記記録の閉鎖等,0,2022-01-24,2022-01-18,有限会社アイリンクスジャパン,,有限会社,福岡県,北九州市小倉北区,高峰町１０番８号,,40,106,8030826,,,2022-01-18,清算の結了等,,,2015-10-05,1,,,,,,0
236,1380002026442,登記記録の閉鎖等,0,2022-01-24,2022-01-21,有限会社木綿屋,,有限会社,福島県,いわき市,鹿島町米田字日渡５番地,,07,204,9718133,,,2022-01-21,登記官による閉鎖,,,2015-10-05,1,,,,,,0
237,1380002027531,登記記録の閉鎖等,0,2022-01-24,2022-01-21,有限会社まごころ,,有限会社,福島県,いわき市,平下高久字原６６番地,,07,204,9700221,,,2022-01-21,登記官による閉鎖,,,2015-10-05,1,,,,,,0
238,1390001013969,登記記録の閉鎖等,0,2022-01-24,2022-01-24,株式会社横山産業,,株式会社,山形県,天童市,東本町２丁目１０番２０号,,06,210,9940026,,,2022-01-24,登記官による閉鎖,,,2015-10-05,1,,,,,,0
239,1390001014224,登記記録の閉鎖等,0,2022-01-24,2022-01-24,株式会社玉庭リゾート,,株式会社,山形県,東置賜郡川西町,大字玉庭字茜台６９６４番地９,,06,382,9990361,,,2022-01-24,登記官による閉鎖,,,2015-10-05,1,,,,,,0
240,1390002006534,登記記録の閉鎖等,0,2022-01-24,2022-01-24,有限会社リズ東北,,有限会社,山形県,山形市,元木１丁目１０番４３号もときビル１号館１０３号,,06,201,9902447,,,2022-01-24,登記官による閉鎖,,,2015-10-05,1,,,,,,0
241,1390002009958,登記記録の閉鎖等,0,2022-01-24,2022-01-24,有限会社山菜のやまぜん,,有限会社,山形県,鶴岡市,下名川字村西５番地,,06,203,9970404,,,2022-01-24,登記官による閉鎖,,,2015-10-05,1,,,,,,0
242,1390002010651,登記記録の閉鎖等,0,2022-01-24,2022-01-20,有限会社ハートクロス,,有限会社,山形県,鶴岡市,睦町３番３１号,,06,203,9970817,,,2022-01-20,清算の結了等,,,2015-10-05,1,,,,,,0
243,1390005000781,登記記録の閉鎖等,0,2022-01-24,2022-01-24,山形県内陸運転代行事業協同組合,,その他の設立登記法人,山形県,山形市,下条町２丁目１番３７号,,06,201,9900823,,,2022-01-24,登記官による閉鎖,,,2015-10-05,1,,,,,,0
244,1390005003000,登記記録の閉鎖等,0,2022-01-24,2022-01-24,庄内味豚事業協同組合,,その他の設立登記法人,山形県,飽海郡遊佐町,比子字白木３６番地の２,,06,461,9998438,,,2022-01-24,登記官による閉鎖,,,2015-10-05,1,,,,,,0
245,1390005006119,登記記録の閉鎖等,0,2022-01-24,2022-01-24,協同組合米沢ラーメンそんぴん会,,その他の設立登記法人,山形県,米沢市,春日４丁目２番９８号,,06,202,9920044,,,2022-01-24,登記官による閉鎖,,,2015-10-05,1,,,,,,0
249,1430001055214,登記記録の閉鎖等,0,2022-01-24,2022-01-14,株式会社梅木産業,,株式会社,北海道,日高郡新ひだか町,東静内９番地,,01,610,0592561,,,2022-01-14,清算の結了等,,,2021-10-07,1,,,,,ウメキサンギョウ,0
255,1430002044595,登記記録の閉鎖等,0,2022-01-24,2022-01-17,有限会社山田工務店,,有限会社,北海道,北広島市,大曲末広５丁目４番地９,,01,234,0611272,,,2022-01-17,清算の結了等,,,2015-10-05,1,,,,,ヤマダコウムテン,0
267,1500002021208,登記記録の閉鎖等,0,2022-01-24,2022-01-20,有限会社タイセイ,,有限会社,愛媛県,四国中央市,中曽根町１８８２番地,,38,213,7990413,,,2022-01-20,清算の結了等,,,2015-10-05,1,,,,,タイセイ,0
269,1500005004688,登記記録の閉鎖等,0,2022-01-24,2022-01-20,特定非営利活動法人愛媛大学校友会人材活用センター,,その他の設立登記法人,愛媛県,松山市,文京町３番,,38,201,7900826,,,2022-01-20,清算の結了等,,,2015-10-05,1,,,,,エヒメダイガクコウユウカイジンザイカツヨウセンター,0
271,2010001158017,登記記録の閉鎖等,0,2022-01-24,2022-01-18,ＩＭリサーチ株式会社,,株式会社,東京都,千代田区,丸の内２丁目６番１号,,13,101,1000005,,,2022-01-18,清算の結了等,,,2015-10-05,1,,,,,アイエムリサーチ,0
273,2010001181737,登記記録の閉鎖等,0,2022-01-24,2022-01-13,株式会社ＪＭＣ,,株式会社,東京都,中央区,銀座８丁目５番６号中島商事ビル内,,13,102,1040061,,,2022-01-13,合併による解散等,8010001047222,令和３年１２月３１日東京都中央区銀座八丁目５番６号中島商事ビル内ジヤパンマシナリー株式会社（8010001047222）に合併し解散,2017-02-27,1,,,,,ジェイエムシー,0
284,2010401068732,登記記録の閉鎖等,0,2022-01-24,2022-01-14,株式会社ビッグテン,,株式会社,東京都,港区,赤坂６丁目１９番５０号,,13,103,1070052,,,2022-01-14,清算の結了等,,,2015-10-05,1,,,,,ビッグテン,0
318,2011101085423,登記記録の閉鎖等,0,2022-01-24,2021-12-22,株式会社ｅｍｂｒａｃｅ,,株式会社,東京都,新宿区,西新宿４丁目３１番３号２１０,,13,104,1600023,,,2021-12-22,清算の結了等,,,2018-09-21,1,,,,,エンブレイス,0
323,2011201015949,登記記録の閉鎖等,0,2022-01-24,2022-01-19,株式会社Ｅｖｅｒ　Ｇｒｅｅｎ,,株式会社,宮城県,石巻市,須江字茄子川６１番地３,,04,202,9871221,,,2022-01-19,清算の結了等,,,2015-10-05,1,,,,,エヴァーグリーン,0
332,2011601014773,登記記録の閉鎖等,0,2022-01-24,2022-01-19,株式会社成澤ホームズ,,株式会社,東京都,練馬区,富士見台１丁目２６番２２号,,13,120,1770034,,,2022-01-19,清算の結了等,,,2015-10-05,1,,,,,ナリサワホームズ,0
341,2012302003074,登記記録の閉鎖等,0,2022-01-24,2022-01-20,有限会社中華ふじ,,有限会社,東京都,町田市,小川１５２１番地,,13,209,1940003,,,2022-01-20,登記官による閉鎖,,,2015-10-05,1,,,,,,0
342,2012401038401,登記記録の閉鎖等,0,2022-01-24,2022-01-18,株式会社日本再生酒場,,株式会社,東京都,調布市,佐須町１丁目１２番地３,,13,208,1820016,,,2022-01-18,合併による解散等,7010001199766,令和４年１月１日東京都中央区新富一丁目９番６号株式会社オールウェイズ（7010001199766）に合併し解散,2021-10-12,1,,,,,ニホンサイセイサカバ,0
348,2020001082331,登記記録の閉鎖等,0,2022-01-24,2022-01-20,株式会社エーティアイ,,株式会社,神奈川県,川崎市宮前区,馬絹１８２９番地４,,14,136,2160035,,,2022-01-20,登記官による閉鎖,,,2015-10-05,1,,,,,,0
357,2021001044354,登記記録の閉鎖等,0,2022-01-24,2022-01-19,株式会社プラントコンストラクトアンドエンジニアリング,,株式会社,神奈川県,横須賀市,浦賀丘２丁目２２番４号,,14,201,2390823,,,2022-01-19,清算の結了等,,,2015-10-05,1,,,,,プラントコンストラクトアンドエンジニアリング,0
389,2060002014255,登記記録の閉鎖等,0,2022-01-24,2022-01-18,有限会社みな川荘,,有限会社,栃木県,那須烏山市,宮原１７８番地,,09,215,3210625,,,2022-01-18,清算の結了等,,,2015-10-05,1,,,,,ミナガワソウ,0
391,2080401025173,登記記録の閉鎖等,0,2022-01-24,2022-01-21,鈴木太郎商店株式会社,,株式会社,静岡県,浜松市中区,萩丘３丁目６－１４,,22,131,4338121,,,2022-01-21,清算の結了等,,,2021-07-05,1,,,,,スズキタロウショウテン,0
392,2090001005979,登記記録の閉鎖等,0,2022-01-24,2022-01-14,株式会社櫛形商事,00124440,株式会社,山梨県,笛吹市,御坂町成田２６３７番地１２,,19,211,4060801,,,2022-01-14,清算の結了等,,,2021-10-08,1,,,,,クシガタショウジ,0
404,2120001142744,登記記録の閉鎖等,0,2022-01-24,2022-01-19,株式会社クライフ,,株式会社,大阪府,大阪市浪速区,浪速東１丁目４番８号,,27,111,5560025,,,2022-01-19,清算の結了等,,,2015-10-05,1,,,,,,0
421,2120101052604,登記記録の閉鎖等,0,2022-01-24,2022-01-19,株式会社クリスミッチー,,株式会社,大阪府,大阪市浪速区,日本橋西１丁目２番２－６０７号,,27,111,5560004,,,2022-01-19,清算の結了等,,,2015-10-05,1,,,,,クリスミッチー,0
446,2180001083603,登記記録の閉鎖等,0,2022-01-24,2022-01-19,平貴商事株式会社,,株式会社,愛知県,一宮市,緑２丁目４番１号,,23,203,4910862,,,2022-01-19,清算の結了等,,,2015-10-05,1,,,,,ヒラキショウジ,0
458,2190001006042,登記記録の閉鎖等,0,2022-01-24,2022-01-20,株式会社ヤマヤ,,株式会社,三重県,鈴鹿市,御薗町字小深田４５４４番地エヌエス工場２Ｆ,,24,207,5100261,,,2022-01-20,清算の結了等,,,2015-10-05,1,,,,,,0
466,2230002005484,登記記録の閉鎖等,0,2022-01-24,2022-01-18,有限会社山口防水工業,,有限会社,富山県,富山市,豊田町１丁目１番６４号,,16,201,9318313,,,2022-01-18,清算の結了等,,,2015-10-05,1,,,,,ヤマグチボウスイ,0
468,2240001032859,登記記録の閉鎖等,0,2022-01-24,2022-01-18,中国バス株式会社,,株式会社,広島県,福山市,多治米町６丁目１２番３１号,,34,207,7200824,,,2022-01-18,清算の結了等,,,2017-01-17,1,,,,,チュウゴクバス,0
483,2290001033555,登記記録の閉鎖等,0,2022-01-24,2022-01-18,株式会社ＨＣハート・コンシャス,,株式会社,福岡県,福岡市博多区,博多駅東２丁目５番２８号博多偕成ビル２階,,40,132,8120013,,,2022-01-18,清算の結了等,,,2015-10-05,1,,,,,エイチシーハートコンシャス,0
501,2340001015168,登記記録の閉鎖等,0,2022-01-24,2022-01-19,南日本開発株式会社,,株式会社,鹿児島県,曽於市,末吉町二之方６３９１番地,,46,217,8998605,,,2022-01-19,清算の結了等,,,2015-10-05,1,,,,,ミナミニホンカイハツ,0
511,2380001005256,登記記録の閉鎖等,0,2022-01-24,2022-01-21,三英株式会社,,株式会社,福島県,郡山市,大槻町字東阿良久７９番地の５,,07,203,9630201,,,2022-01-21,登記官による閉鎖,,,2015-10-05,1,,,,,,0
513,2380001012806,登記記録の閉鎖等,0,2022-01-24,2022-01-21,建機基礎株式会社,,株式会社,福島県,いわき市,錦町竹ノ花３２番地の２,,07,204,9748232,,,2022-01-21,登記官による閉鎖,,,2015-10-05,1,,,,,,0
514,2380001014901,登記記録の閉鎖等,0,2022-01-24,2022-01-21,株式会社ソース・エナジー,,株式会社,福島県,いわき市,平赤井字常住１６番地７,,07,204,9793131,,,2022-01-21,登記官による閉鎖,,,2015-10-05,1,,,,,,0
515,2380002011055,登記記録の閉鎖等,0,2022-01-24,2022-01-21,有限会社トキワ商事,,有限会社,福島県,郡山市,深沢１丁目４番７号,,07,203,9638874,,,2022-01-21,登記官による閉鎖,,,2015-10-05,1,,,,,,0
516,2380002011377,登記記録の閉鎖等,0,2022-01-24,2022-01-21,有限会社日本大理石,,有限会社,福島県,郡山市,大槻町字麦塚３番地の１８,,07,203,9630201,,,2022-01-21,登記官による閉鎖,,,2015-10-05,1,,,,,,0
517,2380002029551,登記記録の閉鎖等,0,2022-01-24,2022-01-21,有限会社水戸商事,,有限会社,福島県,相馬郡新地町,谷地小屋字新地８４番地の２,,07,561,9792702,,,2022-01-21,登記官による閉鎖,,,2015-10-05,1,,,,,,0
518,2380002036168,登記記録の閉鎖等,0,2022-01-24,2022-01-21,有限会社根本石材,,有限会社,福島県,いわき市,四倉町下仁井田字須賀向３０番地,,07,204,9790203,,,2022-01-21,登記官による閉鎖,,,2016-05-10,1,,,,,,0
519,2380002036184,登記記録の閉鎖等,0,2022-01-24,2022-01-21,有限会社会津屋洋品店,,有限会社,福島県,郡山市,開成２丁目２０番６号,,07,203,9638851,,,2022-01-21,登記官による閉鎖,,,2016-12-16,1,,,,,,0
520,2390001005750,登記記録の閉鎖等,0,2022-01-24,2022-01-24,丸電メリヤス株式会社,,株式会社,山形県,東村山郡山辺町,大字山辺２３２番地の２,,06,301,9900301,,,2022-01-24,登記官による閉鎖,,,2015-10-05,1,,,,,,0
521,2390001008968,登記記録の閉鎖等,0,2022-01-24,2022-01-24,株式会社ランドマーク,,株式会社,山形県,新庄市,五日町２１１０番地,,06,205,9960001,,,2022-01-24,登記官による閉鎖,,,2015-10-05,1,,,,,,0
522,2390001011600,登記記録の閉鎖等,0,2022-01-24,2022-01-24,宮内温泉株式会社,,株式会社,山形県,南陽市,宮内９２２番地,,06,213,9920472,,,2022-01-24,登記官による閉鎖,,,2015-10-05,1,,,,,,0
523,2390002008595,登記記録の閉鎖等,0,2022-01-24,2022-01-24,有限会社Ｓ・Ｋ建工,,有限会社,山形県,酒田市,若浜町１９番１号,,06,204,9980857,,,2022-01-24,登記官による閉鎖,,,2015-10-05,1,,,,,,0
524,2390002008810,登記記録の閉鎖等,0,2022-01-24,2022-01-24,有限会社サンタハウス,,有限会社,山形県,酒田市,穂積字下市神１２５番地,,06,204,9980001,,,2022-01-24,登記官による閉鎖,,,2015-10-05,1,,,,,,0
525,2390002010683,登記記録の閉鎖等,0,2022-01-24,2022-01-24,有限会社新庄温泉,,有限会社,山形県,新庄市,大字本合海２５３３番地,,06,205,9960112,,,2022-01-24,登記官による閉鎖,,,2015-10-05,1,,,,,,0
526,2390002013777,登記記録の閉鎖等,0,2022-01-24,2022-01-24,有限会社ＪＥＥＣ,,有限会社,山形県,米沢市,大字花沢３４４８番地の１,,06,202,9920021,,,2022-01-24,登記官による閉鎖,,,2015-10-05,1,,,,,,0
527,2390005000558,登記記録の閉鎖等,0,2022-01-24,2022-01-24,学校法人至徳学林,,その他の設立登記法人,山形県,山形市,宮町１丁目１２番３１号,,06,201,9900057,,,2022-01-24,登記官による閉鎖,,,2015-10-05,1,,,,,,0
528,2390005000764,登記記録の閉鎖等,0,2022-01-24,2022-01-24,山形県食品小売協同組合,,その他の設立登記法人,山形県,山形市,あけぼの１丁目７番５号,,06,201,9902162,,,2022-01-24,登記官による閉鎖,,,2015-10-05,1,,,,,,0
529,2390005006092,登記記録の閉鎖等,0,2022-01-24,2022-01-24,山形県南食肉商業協同組合,,その他の設立登記法人,山形県,米沢市,桜木町３番４１号,,06,202,9920017,,,2022-01-24,登記官による閉鎖,,,2015-10-05,1,,,,,,0
531,2410002002752,登記記録の閉鎖等,0,2022-01-24,2022-01-18,有限会社とん喜,,有限会社,秋田県,秋田市,外旭川八柳３丁目１５番３号,,05,201,0100803,,,2022-01-18,清算の結了等,,,2015-10-05,1,,,,,トンキ,0
532,2430001068842,登記記録の閉鎖等,0,2022-01-24,2022-01-19,株式会社エイペックスエムシー,,株式会社,北海道,恵庭市,恵み野里美１丁目１番地６,,01,231,0611376,,,2022-01-19,清算の結了等,,,2015-10-05,1,,,,,エイペックスエムシー,0
559,3010001142226,登記記録の閉鎖等,0,2022-01-24,2022-01-13,株式会社エス・エル・タイクーン,,株式会社,東京都,中央区,日本橋室町２丁目４番３号,,13,102,1030022,,,2022-01-13,清算の結了等,,,2015-10-05,1,,,,,エスエルタイクーン,0
602,3011001124981,登記記録の閉鎖等,0,2022-01-24,2022-01-04,株式会社ＶＯＹＡＧＥ　ＧＲＯＵＰ,,株式会社,東京都,渋谷区,道玄坂１丁目２１番１号渋谷ソラスタ１５階,,13,113,1500043,,,2022-01-04,合併による解散等,6011001033049,令和４年１月１日東京都渋谷区道玄坂一丁目２１番１号渋谷ソラスタ１５階株式会社ＣＡＲＴＡ　ＨＯＬＤＩＮＧＳ（6011001033049）に合併し解散,2018-11-06,1,,,,,ボヤージュグループ,0
605,3011002027969,登記記録の閉鎖等,0,2022-01-24,2022-01-18,有限会社ｔｅａｍ２ＤＫ,,有限会社,東京都,渋谷区,広尾５丁目１９番５号,,13,113,1500012,,,2022-01-18,清算の結了等,,,2015-10-05,1,,,,,チームニーディーケー,0
620,3011701012817,登記記録の閉鎖等,0,2022-01-24,2022-01-18,株式会社ユニエイペックス,,株式会社,千葉県,浦安市,舞浜３丁目２７番１１号,,12,227,2790031,,,2022-01-18,清算の結了等,,,2015-10-05,1,,,,,ユニエイペックス,0
622,3011801029265,登記記録の閉鎖等,0,2022-01-24,2022-01-14,株式会社パブリックライフグループ,,株式会社,東京都,江東区,亀戸１丁目３２番８号イワハナビル７Ｆ,,13,108,1360071,,,2022-01-14,清算の結了等,,,2015-10-05,1,,,,,パブリックライフグループ,0
625,3012302007611,登記記録の閉鎖等,0,2022-01-24,2022-01-20,有限会社光栄工業,,有限会社,東京都,町田市,金森６１５番地１３,,13,209,1940012,,,2022-01-20,登記官による閉鎖,,,2015-10-05,1,,,,,,0
626,3012401035199,登記記録の閉鎖等,0,2022-01-24,2022-01-19,株式会社ケーツーファーマシー,,株式会社,東京都,府中市,四谷４丁目５６番地の４８,,13,206,1830035,,,2022-01-19,清算の結了等,,,2019-04-23,1,,,,,ケーツーファーマシー,0
627,3012401038400,登記記録の閉鎖等,0,2022-01-24,2022-01-18,株式会社もつやき処い志井,,株式会社,東京都,調布市,佐須町１丁目１２番地３,,13,208,1820016,,,2022-01-18,合併による解散等,7010001199766,令和４年１月１日東京都中央区新富一丁目９番６号株式会社オールウェイズ（7010001199766）に合併し解散,2021-10-12,1,,,,,モツヤキドコロイシイ,0
643,3021005002150,登記記録の閉鎖等,0,2022-01-24,2022-01-19,特定非営利活動法人北鎌倉の景観を後世に伝える基金,,その他の設立登記法人,神奈川県,鎌倉市,扇ガ谷３丁目２番１２号,,14,204,2480011,,,2022-01-19,清算の結了等,,,2015-10-05,1,,,,,キタカマクラノケイカンヲコウセニツタエルキキン,0
653,3040001002245,登記記録の閉鎖等,0,2022-01-24,2022-01-19,株式会社光伸興業,,株式会社,千葉県,千葉市緑区,土気町１３１２番地の７,,12,105,2670061,,,2022-01-19,清算の結了等,,,2015-10-05,1,,,,,コウシンコウギョウ,0
675,3070002003355,登記記録の閉鎖等,0,2022-01-24,2022-01-20,武田工業有限会社,,有限会社,群馬県,前橋市,前箱田町５９番地の１,,10,201,3710835,,,2022-01-20,清算の結了等,,,2015-10-05,1,,,,,タケダコウギョウ,0
684,3090001001746,登記記録の閉鎖等,0,2022-01-24,2022-01-13,株式会社治建設工業,,株式会社,山梨県,甲府市,里吉１丁目６番４５号,,19,201,4000822,,,2022-01-13,清算の結了等,,,2015-10-05,1,,,,,ハルケンセツコウギョウ,0
704,3120002034048,登記記録の閉鎖等,0,2022-01-24,2022-01-19,有限会社アロー商事,,有限会社,大阪府,大阪市中央区,南本町１丁目３番２１号,,27,128,5410054,,,2022-01-19,清算の結了等,,,2015-10-05,1,,,,,,0
706,3120002059425,登記記録の閉鎖等,0,2022-01-24,2022-01-18,有限会社シータネットワークス,,有限会社,大阪府,大阪市西区,江戸堀１丁目１５番２１号,,27,106,5500002,,,2022-01-18,清算の結了等,,,2015-10-05,1,,,,,シータネットワークス,0
708,3120002079241,登記記録の閉鎖等,0,2022-01-24,2022-01-20,有限会社和田不動産,,有限会社,大阪府,守口市,下島町７番地,,27,209,5700007,,,2022-01-20,清算の結了等,,,2015-10-05,1,,,,,ワダフドウサン,0
721,3122001017090,登記記録の閉鎖等,0,2022-01-24,2022-01-21,株式会社ダイシン,,株式会社,大阪府,四條畷市,中野本町２番１号,,27,229,5750051,,,2022-01-21,清算の結了等,,,2015-10-05,1,,,,,,0
735,3140001048047,登記記録の閉鎖等,0,2022-01-24,2022-01-19,株式会社大西鈑金,,株式会社,兵庫県,尼崎市,杭瀬北新町２丁目５番４号,,28,202,6600815,,,2022-01-19,清算の結了等,,,2015-10-05,1,,,,,オオニシバンキン,0
751,3180001092504,登記記録の閉鎖等,0,2022-01-24,2022-01-19,三興化学工業株式会社,,株式会社,愛知県,大府市,森岡町割木１３０番地,,23,223,4740031,,,2022-01-19,登記官による閉鎖,,,2015-10-05,1,,,,,,0
760,3180005007532,登記記録の閉鎖等,0,2022-01-24,2022-01-19,特定非営利活動法人あいちぃき生活支援ネット,,その他の設立登記法人,愛知県,愛知郡長久手町,大字長湫字富士浦２５番地１県営長久手第２住宅２棟５１０号,,23,304,4801131,,,2022-01-19,登記官による閉鎖,,,2015-10-05,1,,,,,,0
767,3210001010040,登記記録の閉鎖等,0,2022-01-24,2021-12-16,チェルト株式会社,,株式会社,福井県,勝山市,旭町１丁目６番２８号,,18,206,9110803,,,2021-12-16,合併による解散等,6210001010021,令和３年１２月１０日福井県勝山市昭和町一丁目１０番１８号ケイテー株式会社（6210001010021）に合併し解散,2015-10-05,1,,,,,チェルト,0
771,3240002002257,登記記録の閉鎖等,0,2022-01-24,2022-01-21,有限会社エスカルゴ,,有限会社,広島県,広島市中区,薬研堀７番１３号,,34,101,7300027,,,2022-01-21,清算の結了等,,,2015-10-05,1,,,,,エスカルゴ,0
791,3330002002181,登記記録の閉鎖等,0,2022-01-24,2022-01-20,有限会社門岡石油店,,有限会社,熊本県,熊本市北区,大窪５丁目１３番１３号,,43,105,8600083,,,2022-01-20,清算の結了等,,,2015-10-05,1,,,,,カドオカセキユテン,0
795,3340002008905,登記記録の閉鎖等,0,2022-01-24,2022-01-20,有限会社松下自動車工業,,有限会社,鹿児島県,鹿児島市,小松原１丁目４３番３号,,46,201,8910114,,,2022-01-20,清算の結了等,,,2015-10-05,1,,,,,マツシタジドウシャコウギョウ,0
796,3340005002260,登記記録の閉鎖等,0,2022-01-24,2022-01-19,特定非営利活動法人ひばり倶楽部,,その他の設立登記法人,鹿児島県,鹿児島市,上之園町８番１５号５０６,,46,201,8900052,,,2022-01-19,清算の結了等,,,2015-10-05,1,,,,,ヒバリクラブ,0
807,3380001017085,登記記録の閉鎖等,0,2022-01-24,2022-01-21,株式会社トータル,,株式会社,福島県,福島市,宮町２番４１号福島セントラルハイツ１００１号,,07,201,9608106,,,2022-01-21,登記官による閉鎖,,,2015-10-05,1,,,,,,0
810,3380002004058,登記記録の閉鎖等,0,2022-01-24,2022-01-20,有限会社渡辺工業所,,有限会社,福島県,福島市,丸子字広町１６番地の８,,07,201,9600111,,,2022-01-20,清算の結了等,,,2015-10-05,1,,,,,ワタナベコウギョウショ,0
811,3380002018611,登記記録の閉鎖等,0,2022-01-24,2022-01-21,有限会社矢田野工業,,有限会社,福島県,西白河郡矢吹町,中町３５０番地,,07,466,9690221,,,2022-01-21,登記官による閉鎖,,,2015-10-05,1,,,,,,0
812,3380002022695,登記記録の閉鎖等,0,2022-01-24,2022-01-21,有限会社大石木材,,有限会社,福島県,いわき市,常磐上湯長谷町釜ノ前１４０番地の５３,,07,204,9728322,,,2022-01-21,登記官による閉鎖,,,2015-10-05,1,,,,,,0
813,3380002034245,登記記録の閉鎖等,0,2022-01-24,2022-01-21,有限会社らーめん亭,,有限会社,福島県,河沼郡会津坂下町,字舘ノ下２１２番地の２,,07,421,9696551,,,2022-01-21,登記官による閉鎖,,,2015-10-05,1,,,,,,0
814,3380003000634,登記記録の閉鎖等,0,2022-01-24,2022-01-21,合同会社生学塾,,合同会社,福島県,郡山市,池ノ台２０番１号,,07,203,9638875,,,2022-01-21,登記官による閉鎖,,,2015-10-05,1,,,,,,0
815,3380003000774,登記記録の閉鎖等,0,2022-01-24,2022-01-21,安田合名会社,,合名会社,福島県,白河市,天神町４６番地,,07,205,9610954,,,2022-01-21,登記官による閉鎖,,,2015-10-05,1,,,,,,0
816,3380005000095,登記記録の閉鎖等,0,2022-01-24,2022-01-21,社団法人福島県石楠会,,その他の設立登記法人,福島県,福島市,杉妻町５番７５号,,07,201,9608065,,,2022-01-21,登記官による閉鎖,,,2015-10-05,1,,,,,,0
817,3380005003354,登記記録の閉鎖等,0,2022-01-24,2022-01-21,堀越牧野利用農業協同組合,,その他の設立登記法人,福島県,田村市,船引町堀越字平前１０６番地,,07,211,9634204,,,2022-01-21,登記官による閉鎖,,,2015-10-05,1,,,,,,0
818,3390001009981,登記記録の閉鎖等,0,2022-01-24,2022-01-24,株式会社鶴巻建業,,株式会社,山形県,米沢市,大字川井５８３番地,,06,202,9920117,,,2022-01-24,登記官による閉鎖,,,2015-10-05,1,,,,,,0
820,3390002001649,登記記録の閉鎖等,0,2022-01-24,2022-01-24,有限会社第一技研サービス,,有限会社,山形県,山形市,桧町４丁目９番１５号,,06,201,9900813,,,2022-01-24,登記官による閉鎖,,,2015-10-05,1,,,,,,0
821,3390002010534,登記記録の閉鎖等,0,2022-01-24,2022-01-24,有限会社陽光,,有限会社,山形県,鶴岡市,日出１丁目３番３１号,,06,203,9970025,,,2022-01-24,登記官による閉鎖,,,2016-09-02,1,,,,,,0
822,3390002010906,登記記録の閉鎖等,0,2022-01-24,2022-01-24,ダイヤドレス有限会社,,有限会社,山形県,新庄市,大字鳥越１４４２番地の１,,06,205,9960041,,,2022-01-24,登記官による閉鎖,,,2015-10-05,1,,,,,,0
823,3390002011004,登記記録の閉鎖等,0,2022-01-24,2022-01-24,有限会社前田塗装店,,有限会社,山形県,新庄市,五日町１２７２番地の２０,,06,205,9960001,,,2022-01-24,登記官による閉鎖,,,2015-10-05,1,,,,,,0
824,3390005007701,登記記録の閉鎖等,0,2022-01-24,2022-01-24,河北町製材業協同組合,,その他の設立登記法人,山形県,西村山郡河北町,谷地字みどり町３番２号,,06,321,9993511,,,2022-01-24,登記官による閉鎖,,,2015-10-05,1,,,,,,0
833,3430001053190,登記記録の閉鎖等,0,2022-01-24,2022-01-20,株式会社高橋商店,,株式会社,北海道,苫小牧市,表町４丁目２番８号,,01,213,0530022,,,2022-01-20,清算の結了等,,,2015-10-05,1,,,,,タカハシショウテン,0
839,3450002011063,登記記録の閉鎖等,0,2022-01-24,2022-01-20,有限会社ないとう,,有限会社,北海道,稚内市,大黒１丁目６番３８号,,01,214,0970005,,,2022-01-20,清算の結了等,,,2015-10-05,1,,,,,ナイトウ,0
863,4010001142225,登記記録の閉鎖等,0,2022-01-24,2022-01-13,株式会社エス・エル・スティール,,株式会社,東京都,中央区,日本橋室町２丁目４番３号,,13,102,1030022,,,2022-01-13,清算の結了等,,,2015-10-05,1,,,,,エスエルスティール,0
864,4010001152661,登記記録の閉鎖等,0,2022-01-24,2022-01-20,株式会社七富,,株式会社,静岡県,熱海市,梅園町１１番１９号エムロード熱海２０９号,,22,205,4130032,,,2022-01-20,清算の結了等,,,2015-10-05,1,,,,,ナナトミ,0
865,4010001156092,登記記録の閉鎖等,0,2022-01-24,2022-01-12,フラトン・ファンド・マネジメント・ジャパン株式会社,,株式会社,東京都,港区,南麻布３丁目１９番２３号オーク南麻布ビル２階,,13,103,1060047,,,2022-01-12,清算の結了等,,,2015-10-05,1,,,,,フラトンファンドマネジメントジャパン,0
866,4010001157181,登記記録の閉鎖等,0,2022-01-24,2022-01-13,株式会社ＳＳ企画,,株式会社,東京都,中央区,新川１丁目１４番９－７０４号,,13,102,1040033,,,2022-01-13,清算の結了等,,,2015-10-05,1,,,,,エスエスキカク,0
873,4010002053470,登記記録の閉鎖等,0,2022-01-24,2022-01-13,有限会社エス・エル・クレーン,,有限会社,東京都,中央区,日本橋室町２丁目４番３号,,13,102,1030022,,,2022-01-13,清算の結了等,,,2015-10-05,1,,,,,エスエルクレーン,0
875,4010401106770,登記記録の閉鎖等,0,2022-01-24,2022-01-07,Ｋｉｎｇ　Ｊａｐａｎ株式会社,,株式会社,東京都,渋谷区,恵比寿４丁目２４番５号,,13,113,1500013,,,2022-01-07,清算の結了等,,,2015-10-05,1,,,,,キングジャパン,0
899,4011001046465,登記記録の閉鎖等,0,2022-01-24,2022-01-05,株式会社Ｃ．Ｔ．Ｓエンヂニアリング,,株式会社,東京都,渋谷区,桜丘町１０番１３号,,13,113,1500031,,,2022-01-05,清算の結了等,,,2015-10-05,1,,,,,シーティーエスエンヂニアリング,0
901,4011001117183,登記記録の閉鎖等,0,2022-01-24,2022-01-04,株式会社プリンセスホールディングス,,株式会社,東京都,渋谷区,代々木２丁目５番１号,,13,113,1510053,,,2022-01-04,合併による解散等,3011001021155,令和４年１月１日東京都渋谷区代々木二丁目１０番８号株式会社プリンセススクゥエアー（3011001021155）に合併し解散,2017-07-07,1,,,,,プリンセスホールディングス,0
927,4011601003832,登記記録の閉鎖等,0,2022-01-24,2022-01-19,株式会社タイヨー,,株式会社,東京都,練馬区,大泉町５丁目３５番３号,,13,120,1780062,,,2022-01-19,清算の結了等,,,2015-10-05,1,,,,,タイヨー,0
947,4020002004480,登記記録の閉鎖等,0,2022-01-24,2022-01-20,有限会社大徳商店,,有限会社,神奈川県,横浜市緑区,中山町１０３１番地２,,14,113,2260011,,,2022-01-20,登記官による閉鎖,,,2015-10-05,1,,,,,,0
948,4020002013077,登記記録の閉鎖等,0,2022-01-24,2022-01-20,有限会社山口屋,,有限会社,神奈川県,横浜市戸塚区,原宿５丁目３３番８号,,14,110,2450063,,,2022-01-20,清算の結了等,,,2015-10-05,1,,,,,,0
949,4020002020206,登記記録の閉鎖等,0,2022-01-24,2022-01-18,有限会社ヨシダ設計,,有限会社,神奈川県,横浜市港南区,野庭町８６０番地の１２グリーンヒルズ横浜港南１０５,,14,111,2340056,,,2022-01-18,清算の結了等,,,2015-10-05,1,,,,,ヨシダセッケイ,0
972,4040002028247,登記記録の閉鎖等,0,2022-01-24,2022-01-18,有限会社オフィス内野,,有限会社,千葉県,船橋市,松が丘３丁目４９番１棟１０６号,,12,204,2740064,,,2022-01-18,清算の結了等,,,2015-10-05,1,,,,,オフィスウチノ,0
985,4080401018456,登記記録の閉鎖等,0,2022-01-24,2022-01-21,フェニックス株式会社,,株式会社,静岡県,浜松市中区,曳馬３丁目２３番８号,,22,131,4300901,,,2022-01-21,清算の結了等,,,2015-10-05,1,,,,,フェニックス,0
996,4120001116341,登記記録の閉鎖等,0,2022-01-24,2022-01-18,株式会社ドリームプランニング,,株式会社,大阪府,大阪市東成区,中道１丁目２番３８号,,27,115,5370025,,,2022-01-18,清算の結了等,,,2015-10-05,1,,,,,ドリームプランニング,0
1006,4120902012300,登記記録の閉鎖等,0,2022-01-24,2022-01-19,有限会社ジィ・クス,,有限会社,大阪府,高槻市,上田辺町１６番２４号,,27,207,5690805,,,2022-01-19,清算の結了等,,,2015-10-05,1,,,,,ジィクス,0
1031,4180002055095,登記記録の閉鎖等,0,2022-01-24,2022-01-20,有限会社ヒロステップ,,有限会社,愛知県,名古屋市東区,泉１丁目２１番３５号,,23,102,4610001,,,2022-01-20,清算の結了等,,,2015-10-05,1,,,,,ヒロステップ,0
1032,4180002069244,登記記録の閉鎖等,0,2022-01-24,2022-01-19,有限会社システムプライズ,,有限会社,愛知県,小牧市,多気北町８４番地,,23,219,4850055,,,2022-01-19,清算の結了等,,,2015-10-05,1,,,,,システムプライズ,0
1038,4200002008091,登記記録の閉鎖等,0,2022-01-24,2022-01-20,有限会社平賀塗装,,有限会社,岐阜県,各務原市,大野町２丁目２１０番地の１,,21,213,5040934,,,2022-01-20,清算の結了等,,,2015-10-05,1,,,,,ヒラガトソウ,0
1040,4220001007670,登記記録の閉鎖等,0,2022-01-24,2022-01-17,シャルル・ドゥワメディカル販売株式会社,,株式会社,大阪府,大阪市東住吉区,駒川５丁目２２番１８号,,27,121,5460043,,,2022-01-17,清算の結了等,,,2015-10-05,1,,,,,シャルルドゥワメディカルハンバイ,0
1074,4340001023284,登記記録の閉鎖等,0,2022-01-24,2022-01-20,株式会社共栄水産,,株式会社,鹿児島県,鹿屋市,寿２丁目９番１１号,,46,203,8930014,,,2022-01-20,清算の結了等,,,2020-11-24,1,,,,,キョウエイスイサン,0
1076,4350003000066,登記記録の閉鎖等,0,2022-01-24,2022-01-20,佐々木合資会社,,合資会社,宮崎県,宮崎市,中村東２丁目８番２６号,,45,201,8800904,,,2022-01-20,清算の結了等,,,2015-10-05,1,,,,,ササキ,0
1082,4370301002571,登記記録の閉鎖等,0,2022-01-24,2022-01-20,株式会社味のやま徳,,株式会社,宮城県,石巻市,吉野町２丁目３番３号,,04,202,9860015,,,2022-01-20,清算の結了等,,,2015-10-05,1,,,,,アジノヤマトク,0
1083,4380001005064,登記記録の閉鎖等,0,2022-01-24,2022-01-21,株式会社興新産業,,株式会社,福島県,郡山市,富田町字稲川原４９番地,,07,203,9638041,,,2022-01-21,登記官による閉鎖,,,2015-10-05,1,,,,,,0
1084,4380001011087,登記記録の閉鎖等,0,2022-01-24,2022-01-21,株式会社八紘産業,,株式会社,福島県,東白川郡矢祭町,大字小田川字中山２７番地４５,,07,482,9635119,,,2022-01-21,登記官による閉鎖,,,2015-10-05,1,,,,,,0
1085,4380001016697,登記記録の閉鎖等,0,2022-01-24,2022-01-21,株式会社ベストホーム,,株式会社,福島県,双葉郡浪江町,大字権現堂字上川原６７番地,,07,547,9791521,,,2022-01-21,登記官による閉鎖,,,2016-09-26,1,,,,,,0
1086,4380001020170,登記記録の閉鎖等,0,2022-01-24,2022-01-21,マシンデザイン株式会社,,株式会社,福島県,福島市,松川町浅川字水晶沢４－２,,07,201,9601245,,,2022-01-21,登記官による閉鎖,,,2015-10-05,1,,,,,,0
1088,4380002015624,登記記録の閉鎖等,0,2022-01-24,2022-01-21,有限会社六角ドライブイン,,有限会社,福島県,田村市,船引町椚山字物木作２７番地,,07,211,9634202,,,2022-01-21,登記官による閉鎖,,,2015-10-26,1,,,,,,0
1089,4380002018024,登記記録の閉鎖等,0,2022-01-24,2022-01-21,有限会社すずか,,有限会社,福島県,西白河郡矢吹町,本町７０番地,,07,466,9690213,,,2022-01-21,登記官による閉鎖,,,2015-10-05,1,,,,,,0
1090,4380002024880,登記記録の閉鎖等,0,2022-01-24,2022-01-21,有限会社ティ・アイ,,有限会社,福島県,いわき市,平沼ノ内諏訪原１丁目２３番地９,,07,204,9700222,,,2022-01-21,登記官による閉鎖,,,2015-10-05,1,,,,,,0
1091,4380005000078,登記記録の閉鎖等,0,2022-01-24,2022-01-21,社団法人福島県雇用開発協会,,その他の設立登記法人,福島県,福島市,置賜町１番２９号,,07,201,9608034,,,2022-01-21,登記官による閉鎖,,,2015-10-05,1,,,,,,0
1092,4390001004585,登記記録の閉鎖等,0,2022-01-24,2022-01-24,株式会社マルケン,,株式会社,山形県,天童市,小関１丁目２番１７号,,06,210,9940004,,,2022-01-24,登記官による閉鎖,,,2015-10-05,1,,,,,,0
1093,4390001013578,登記記録の閉鎖等,0,2022-01-24,2022-01-24,株式会社小形商店,,株式会社,山形県,米沢市,万世町片子４８７５番地４,,06,202,9921125,,,2022-01-24,登記官による閉鎖,,,2015-10-05,1,,,,,,0
1094,4390002005335,登記記録の閉鎖等,0,2022-01-24,2022-01-24,有限会社家具の山口,,有限会社,山形県,天童市,東本町２丁目７番２２号,,06,210,9940026,,,2022-01-24,登記官による閉鎖,,,2015-10-05,1,,,,,,0
1095,4390002007439,登記記録の閉鎖等,0,2022-01-24,2022-01-24,有限会社桜井洋装店,,有限会社,山形県,酒田市,新橋５丁目１１番地の１９,,06,204,9980864,,,2022-01-24,登記官による閉鎖,,,2015-10-05,1,,,,,,0
1096,4390002008949,登記記録の閉鎖等,0,2022-01-24,2022-01-24,有限会社鶴岡興産,,有限会社,山形県,鶴岡市,大宝寺町２１番４０号,,06,203,9970014,,,2022-01-24,登記官による閉鎖,,,2015-10-05,1,,,,,ツルオカコウサン,0
1097,4390005002296,登記記録の閉鎖等,0,2022-01-24,2022-01-24,ハイテク協同組合,,その他の設立登記法人,山形県,天童市,長岡北１丁目１番４８号,,06,210,9940062,,,2022-01-24,登記官による閉鎖,,,2015-10-05,1,,,,,,0
1098,4390005006842,登記記録の閉鎖等,0,2022-01-24,2022-01-24,川西町米穀集荷協同組合,,その他の設立登記法人,山形県,東置賜郡川西町,大字吉田３３８３番地,,06,382,9990214,,,2022-01-24,登記官による閉鎖,,,2015-10-05,1,,,,,,0
1165,5011005007520,登記記録の閉鎖等,0,2022-01-24,2022-01-07,税理士法人Ｔ．Ｖ．Ｂ,,その他の設立登記法人,東京都,渋谷区,千駄ヶ谷５丁目１２番１８号ノヴレスＭビル１階,,13,113,1510051,,,2022-01-07,清算の結了等,,,2018-01-29,1,,,,,ティーブイビー,0
1177,5012402011073,登記記録の閉鎖等,0,2022-01-24,2022-01-19,有限会社小西商店,,有限会社,東京都,調布市,国領町２丁目５番地１５コクテイーＢ１０２－１,,13,208,1820022,,,2022-01-19,清算の結了等,,,2015-10-05,1,,,,,コニシショウテン,0
1185,5020001080489,登記記録の閉鎖等,0,2022-01-24,2022-01-17,株式会社ＤＯＳ－Ｓ,,株式会社,神奈川県,川崎市川崎区,砂子２丁目８番地１,,14,131,2100006,,,2022-01-17,清算の結了等,,,2015-10-05,1,,,,,ディーオーエスエス,0
1190,5020002085421,登記記録の閉鎖等,0,2022-01-24,2022-01-20,有限会社山口電気,,有限会社,神奈川県,川崎市高津区,末長１５６３番地１セザールガーデン武蔵新城１０３,,14,134,2130013,,,2022-01-20,登記官による閉鎖,,,2015-10-05,1,,,,,,0
1191,5020005006770,登記記録の閉鎖等,0,2022-01-24,2022-01-19,特定非営利活動法人教育改革２０２０,,その他の設立登記法人,神奈川県,横浜市中区,吉田町３番地９号吉田共同ビル３階,,14,104,2310041,,,2022-01-19,清算の結了等,,,2015-10-05,1,,,,,キョウイクカイカクニーゼロニーゼロ,0
1208,5030002039715,登記記録の閉鎖等,0,2022-01-24,2022-01-20,有限会社幸手東商事,,有限会社,埼玉県,春日部市,八丁目３０番地１,,11,214,3440006,,,2022-01-20,清算の結了等,,,2015-10-05,1,,,,,サッテヒガシショウジ,0
1211,5040001076477,登記記録の閉鎖等,0,2022-01-24,2022-01-18,株式会社ＶＡＬＵＥ　ＰＬＡＮＮＥＲ,,株式会社,千葉県,船橋市,田喜野井１丁目３８番８号,,12,204,2740073,,,2022-01-18,清算の結了等,,,2015-10-05,1,,,,,,0
1220,5040002053681,登記記録の閉鎖等,0,2022-01-24,2022-01-19,有限会社オールアイズ,,有限会社,千葉県,松戸市,常盤平２丁目２１番地の５,,12,207,2702261,,,2022-01-19,清算の結了等,,,2015-10-05,1,,,,,オールアイズ,0
1222,5040002091954,登記記録の閉鎖等,0,2022-01-24,2022-01-18,有限会社やまそう,,有限会社,千葉県,柏市,布施新町３丁目１番２８号,,12,217,2770823,,,2022-01-18,清算の結了等,,,2015-10-05,1,,,,,ヤマソウ,0
1242,5100001023051,登記記録の閉鎖等,0,2022-01-24,2022-01-18,信濃工芸株式会社,,株式会社,長野県,下伊那郡松川町,上片桐１７１５番地,,20,402,3993301,,,2022-01-18,清算の結了等,,,2015-10-05,1,,,,,シナノコウゲイ,0
1245,5100002027019,登記記録の閉鎖等,0,2022-01-24,2022-01-12,有限会社リゾートホテル栂池,,有限会社,長野県,北安曇郡小谷村,大字千国乙２１６番地,,20,486,3999422,,,2022-01-12,合併による解散等,4011001093672,令和３年１２月１日東京都目黒区青葉台一丁目７番１４－４０３号株式会社Ｋ　Ａｓｓｅｔ　Ｍａｎａｇｅｍｅｎｔ（4011001093672）に合併し解散,2015-10-05,1,,,,,リゾートホテルツガイケ,0
1246,5100003002202,登記記録の閉鎖等,0,2022-01-24,2022-01-19,合同会社Ｋ・Ｒ・Ａ企画,,合同会社,長野県,松本市,大字里山辺９０４番地２－３０４号,,20,202,3900221,,,2022-01-19,清算の結了等,,,2015-10-05,1,,,,,ケーアールエーキカク,0
1295,5140005011008,登記記録の閉鎖等,0,2022-01-24,2022-01-20,医療法人社団せんだ歯科医院,,その他の設立登記法人,兵庫県,尼崎市,下坂部２丁目２７番１２号太洋ビル２階,,28,202,6610975,,,2022-01-20,清算の結了等,,,2015-10-05,1,,,,,センダシカイイン,0
1299,5160001010515,登記記録の閉鎖等,0,2022-01-24,2022-01-18,株式会社花の木,,株式会社,滋賀県,東近江市,平柳町５５３番地の３,,25,213,5270102,,,2022-01-18,清算の結了等,,,2015-10-05,1,,,,,ハナノキ,0
1306,5180001045451,登記記録の閉鎖等,0,2022-01-24,2022-01-18,株式会社キョウトク,,株式会社,愛知県,清須市,阿原鴨池１０３番地,,23,233,4520901,,,2022-01-18,清算の結了等,,,2015-10-05,1,,,,,キョウトク,0
1362,5380002009014,登記記録の閉鎖等,0,2022-01-24,2022-01-21,有限会社グランデ,,有限会社,福島県,郡山市,久留米２丁目１３２番地,,07,203,9638846,,,2022-01-21,登記官による閉鎖,,,2015-10-05,1,,,,,,0
1363,5380002010013,登記記録の閉鎖等,0,2022-01-24,2022-01-21,有限会社秀栄設計事務所,,有限会社,福島県,郡山市,日和田町字車道１２番地の２２,,07,203,9630534,,,2022-01-21,登記官による閉鎖,,,2015-10-05,1,,,,,,0
1365,5380002035084,登記記録の閉鎖等,0,2022-01-24,2022-01-21,有限会社星龍酒造場,,有限会社,福島県,喜多方市,熱塩加納町加納字堰下甲４９９６番地,,07,208,9660103,,,2022-01-21,登記官による閉鎖,,,2015-10-05,1,,,,,,0
1366,5380003000343,登記記録の閉鎖等,0,2022-01-24,2022-01-21,鈴木合資会社,,合資会社,福島県,伊達郡桑折町,大字北半田字一本木２８番地,,07,301,9691642,,,2022-01-21,登記官による閉鎖,,,2015-10-05,1,,,,,,0
1367,5390001014699,登記記録の閉鎖等,0,2022-01-24,2022-01-24,小林不動産株式会社,,株式会社,山形県,南陽市,小岩沢３０７番地,,06,213,9992203,,,2022-01-24,登記官による閉鎖,,,2016-11-21,1,,,,,,0
1368,5390002001531,登記記録の閉鎖等,0,2022-01-24,2022-01-24,有限会社千隆商事,,有限会社,山形県,山形市,桜田西１丁目４番２号,,06,201,9902321,,,2022-01-24,登記官による閉鎖,,,2015-10-05,1,,,,,,0
1369,5390002011266,登記記録の閉鎖等,0,2022-01-24,2022-01-24,有限会社北部電気工事,,有限会社,山形県,最上郡真室川町,大字木ノ下字宮ノ沢３８番地８,,06,364,9995314,,,2022-01-24,登記官による閉鎖,,,2015-10-05,1,,,,,,0
1370,5390002012594,登記記録の閉鎖等,0,2022-01-24,2022-01-24,有限会社いけだ薬局,,有限会社,山形県,米沢市,直江町１１番１４号,,06,202,9920056,,,2022-01-24,登記官による閉鎖,,,2016-03-25,1,,,,,,0
1371,5390005005406,登記記録の閉鎖等,0,2022-01-24,2022-01-24,最北地区素材生産協同組合,,その他の設立登記法人,山形県,新庄市,大字泉田字上村西１６７番地１,,06,205,9995103,,,2022-01-24,登記官による閉鎖,,,2015-10-05,1,,,,,,0
1372,5390005006115,登記記録の閉鎖等,0,2022-01-24,2022-01-24,協同組合都市環境設計事務所,,その他の設立登記法人,山形県,米沢市,丸の内１丁目１２番３１号,,06,202,9920052,,,2022-01-24,登記官による閉鎖,,,2015-10-05,1,,,,,,0
1373,5390005006602,登記記録の閉鎖等,0,2022-01-24,2022-01-24,協同組合フードサービス,,その他の設立登記法人,山形県,米沢市,窪田町窪田５８９番地,,06,202,9920003,,,2022-01-24,登記官による閉鎖,,,2015-10-05,1,,,,,,0
1384,5430001068880,登記記録の閉鎖等,0,2022-01-24,2022-01-20,株式会社イコル北海道,,株式会社,北海道,札幌市白石区,米里四条１丁目９番２３号,,01,104,0030874,,,2022-01-20,清算の結了等,,,2015-10-05,1,,,,,イコルホッカイドウ,0
1385,5430001075340,登記記録の閉鎖等,0,2022-01-24,2022-01-19,エルシス北海道株式会社,,株式会社,北海道,札幌市東区,北三十四条東１丁目１番２０号,,01,103,0070834,,,2022-01-19,清算の結了等,,,2017-11-13,1,,,,,エルシスホッカイドウ,0
1393,5470002007198,登記記録の閉鎖等,0,2022-01-24,2022-01-20,有限会社山本重和電器,,有限会社,香川県,高松市,松島町２丁目１０番５号,,37,201,7600068,,,2022-01-20,清算の結了等,,,2015-10-05,1,,,,,ヤマモトシゲカズデンキ,0
1400,6010001149499,登記記録の閉鎖等,0,2022-01-24,2022-01-12,株式会社たいようマネジメント,,株式会社,東京都,中央区,日本橋本石町３丁目３番１０号,,13,102,1030021,,,2022-01-12,清算の結了等,,,2015-10-05,1,,,,,タイヨウマネジメント,0
1450,6011702002954,登記記録の閉鎖等,0,2022-01-24,2022-01-19,有限会社金子商店,,有限会社,東京都,江戸川区,北篠崎２丁目１３番２３号,,13,123,1330053,,,2022-01-19,清算の結了等,,,2015-10-05,1,,,,,カネコショウテン,0
1457,6013201013904,登記記録の閉鎖等,0,2022-01-24,2022-01-18,株式会社テリーヌ,,株式会社,東京都,目黒区,八雲１丁目５番１５号,,13,110,1520023,,,2022-01-18,清算の結了等,,,2015-10-05,1,,,,,テリーヌ,0
1468,6020001067873,登記記録の閉鎖等,0,2022-01-24,2022-01-20,首都圏物流株式会社,,株式会社,神奈川県,川崎市宮前区,馬絹１６３５番地,,14,136,2160035,,,2022-01-20,登記官による閉鎖,,,2015-10-05,1,,,,,,0
1469,6020001117802,登記記録の閉鎖等,0,2022-01-24,2022-01-20,株式会社わくわくインベストメンツ,,株式会社,神奈川県,横浜市都筑区,池辺町７００２番地３,,14,118,2240053,,,2022-01-20,清算の結了等,,,2016-09-08,1,,,,,ワクワクインベストメンツ,0
1472,6020002086807,登記記録の閉鎖等,0,2022-01-24,2022-01-20,有限会社天明工業所,,有限会社,神奈川県,川崎市宮前区,野川１４１９番地９,,14,136,2160001,,,2022-01-20,登記官による閉鎖,,,2015-10-05,1,,,,,,0
1485,6040001027421,登記記録の閉鎖等,0,2022-01-24,2022-01-18,フクシマ宝石販売株式会社,,株式会社,千葉県,市川市,行徳駅前１丁目１９番１号,,12,203,2720133,,,2022-01-18,清算の結了等,,,2015-10-05,1,,,,,フクシマホウセキハンバイ,0
1486,6040001071403,登記記録の閉鎖等,0,2022-01-24,2022-01-19,株式会社ナナ生花店,,株式会社,千葉県,野田市,岩名２丁目８番地の１９,,12,208,2780055,,,2022-01-19,清算の結了等,,,2015-10-05,1,,,,,ナナセイカテン,0
1502,6060001030266,登記記録の閉鎖等,0,2022-01-24,2022-01-18,株式会社ＦＩＬＴＥＲ,,株式会社,栃木県,下都賀郡壬生町,大字安塚１１７０番地１２,,09,361,3210201,,,2022-01-18,清算の結了等,,,2018-02-21,1,,,,,フィルター,0
1508,6080101003707,登記記録の閉鎖等,0,2022-01-24,2022-01-20,エルロン株式会社,,株式会社,静岡県,沼津市,大諏訪８５８番地の１,,22,203,4100873,,,2022-01-20,清算の結了等,,,2015-10-05,1,,,,,エルロン,0
1516,6120001074075,登記記録の閉鎖等,0,2022-01-24,2022-01-14,株式会社新家開発,,株式会社,大阪府,大阪市中央区,南船場２丁目１２番１２号新家ビル,,27,128,5420081,,,2022-01-14,清算の結了等,,,2015-10-05,1,,,,,アラヤカイハツ,0
1536,6130001022140,登記記録の閉鎖等,0,2022-01-24,2022-01-20,株式会社長谷川センイ,,株式会社,京都府,京都市中京区,壬生東高田町２番地プェネリジェール西五条ＩＩ５０２号,00035846,26,104,6048845,,,2022-01-20,清算の結了等,,,2015-10-05,1,,,,,ハセガワセンイ,0
1567,6180301034806,登記記録の閉鎖等,0,2022-01-24,2022-01-20,エジュール株式会社,,株式会社,愛知県,刈谷市,井ケ谷町中前田４１番地６,,23,210,4480001,,,2022-01-20,清算の結了等,,,2021-04-07,1,,,,,エジュール,0
1583,6230001012692,登記記録の閉鎖等,0,2022-01-24,2022-01-18,株式会社佐野商事,,株式会社,富山県,射水市,黒河新４８１３番地,,16,211,9390300,,,2022-01-18,清算の結了等,,,2015-10-05,1,,,,,サノショウジ,0
1590,6290001019006,登記記録の閉鎖等,0,2022-01-24,2022-01-18,西日本ハウス管理株式会社,,株式会社,福岡県,福岡市博多区,吉塚１丁目２８番６号,,40,132,8120041,,,2022-01-18,清算の結了等,,,2015-10-05,1,,,,,ニシニホンハウスカンリ,0
1591,6290001021647,登記記録の閉鎖等,0,2022-01-24,2022-01-18,株式会社ダンクハウス,,株式会社,福岡県,福岡市博多区,博多駅前２丁目１０番１２－３０５号,,40,132,8120011,,,2022-01-18,清算の結了等,,,2015-10-05,1,,,,,ダンクハウス,0
1629,6380001003462,登記記録の閉鎖等,0,2022-01-24,2022-01-21,株式会社ユービック,,株式会社,福島県,福島市,野田町６丁目６番６号,,07,201,9608055,,,2022-01-21,登記官による閉鎖,,,2015-10-05,1,,,,,,0
1630,6380001007884,登記記録の閉鎖等,0,2022-01-24,2022-01-21,朝日エンジニアリング株式会社,,株式会社,福島県,田村郡三春町,大字下舞木字石崎１２５番地,,07,521,9637731,,,2022-01-21,登記官による閉鎖,,,2015-10-05,1,,,,,,0
1631,6380001016241,登記記録の閉鎖等,0,2022-01-24,2022-01-21,あぶくまスポーツ工業株式会社,,株式会社,福島県,南相馬市,小高区下浦字薬師前１８５番地,,07,212,9792146,,,2022-01-21,登記官による閉鎖,,,2015-10-05,1,,,,,,0
1632,6380002007330,登記記録の閉鎖等,0,2022-01-24,2022-01-21,有限会社アースエンジニア,,有限会社,福島県,郡山市,富久山町八山田字山崎３０番地の４,,07,203,9638051,,,2022-01-21,登記官による閉鎖,,,2015-10-05,1,,,,,,0
1635,6380002015820,登記記録の閉鎖等,0,2022-01-24,2022-01-21,有限会社会計事務所ＴＡＳＫ,,有限会社,福島県,郡山市,桑野３丁目１３番５号,,07,203,9638025,,,2022-01-21,登記官による閉鎖,,,2015-10-05,1,,,,,,0
1636,6380002018823,登記記録の閉鎖等,0,2022-01-24,2022-01-21,有限会社郡司材木店,,有限会社,福島県,西白河郡矢吹町,小松１４番地,,07,466,9690271,,,2022-01-21,登記官による閉鎖,,,2016-10-20,1,,,,,,0
1637,6380003000524,登記記録の閉鎖等,0,2022-01-24,2022-01-21,合名会社石井本店,,合名会社,福島県,郡山市,西田町鬼生田字石畑３８６番地,,07,203,9630921,,,2022-01-21,登記官による閉鎖,,,2016-02-26,1,,,,,,0
1638,6380005002312,登記記録の閉鎖等,0,2022-01-24,2022-01-21,特定非営利活動法人バイオふくしま２１,,その他の設立登記法人,福島県,伊達市,霊山町石田字自根子５４番地,,07,213,9600807,,,2022-01-21,登記官による閉鎖,,,2015-10-05,1,,,,,,0
1639,6390001015531,登記記録の閉鎖等,0,2022-01-24,2022-01-24,株式会社佐藤商事,,株式会社,山形県,山形市,七日町２丁目７番３４号,,06,201,9900042,,,2022-01-24,登記官による閉鎖,,,2018-12-17,1,,,,,サトウショウジ,0
1640,6390002013674,登記記録の閉鎖等,0,2022-01-24,2022-01-13,有限会社丸石建設,,有限会社,山形県,米沢市,塩井町塩野２０１３番地,,06,202,9920042,,,2022-01-13,合併による解散等,3390001010213,令和４年１月１日山形県米沢市塩井町塩野２０１２番地の１我妻建設工業株式会社（3390001010213）に合併し解散,2015-10-05,1,,,,,マルイシケンセツ,0
1641,6390003000762,登記記録の閉鎖等,0,2022-01-24,2022-01-24,レザーディライト合同会社,,合同会社,山形県,東根市,中央２丁目６番２３号ファミリータウンＢ－１,,06,211,9993711,,,2022-01-24,登記官による閉鎖,,,2015-10-05,1,,,,,,0
1642,6390003001496,登記記録の閉鎖等,0,2022-01-24,2022-01-24,合資共栄会社,,合資会社,山形県,長井市,寺泉２８１７番地,,06,209,9930061,,,2022-01-24,登記官による閉鎖,,,2018-02-15,1,,,,,,0
1643,6390005000793,登記記録の閉鎖等,0,2022-01-24,2022-01-24,山形県輸入住宅・資材普及協同組合,,その他の設立登記法人,山形県,山形市,飯田５丁目１番５３号,,06,201,9902332,,,2022-01-24,登記官による閉鎖,,,2015-10-05,1,,,,,,0
1649,6430001001675,登記記録の閉鎖等,0,2022-01-24,2022-01-19,株式会社稲津商店,,株式会社,北海道,札幌市北区,北八条西４丁目１３番地１,,01,102,0600808,,,2022-01-19,清算の結了等,,,2015-10-05,1,,,,,イナツショウテン,0
1686,7010401093239,登記記録の閉鎖等,0,2022-01-24,2022-01-13,バーズアイカナダ株式会社,,株式会社,東京都,港区,西麻布３丁目２３番５号,,13,103,1060031,,,2022-01-13,清算の結了等,,,2015-10-05,1,,,,,バーズアイカナダ,0
1687,7010402010928,登記記録の閉鎖等,0,2022-01-24,2022-01-12,有限会社平島建築設計事務所,,有限会社,東京都,港区,高輪４丁目１１番３３号,,13,103,1080074,,,2022-01-12,清算の結了等,,,2015-10-05,1,,,,,ヒラシマケンチクセッケイジムショ,0
1697,7010702001107,登記記録の閉鎖等,0,2022-01-24,2022-01-17,ウラト電子工業有限会社,,有限会社,東京都,品川区,戸越４丁目１０番１４号,,13,109,1420041,,,2022-01-17,清算の結了等,,,2015-10-05,1,,,,,ウラトデンシコウギョウ,0
1716,7011101087316,登記記録の閉鎖等,0,2022-01-24,2022-01-05,株式会社ＴＳＬＡＢＯ,,株式会社,東京都,新宿区,新宿５丁目１７番１８号,,13,104,1600022,,,2022-01-05,合併による解散等,3011101087864,令和４年１月１日東京都新宿区新宿五丁目１７番１８号株式会社ニュートン・フィナンシャル・コンサルティング（3011101087864）に合併し解散,2019-04-04,1,,,,,ティーエスラボ,0
1734,7012301008367,登記記録の閉鎖等,0,2022-01-24,2022-01-20,株式会社ワークトゥハード,,株式会社,東京都,町田市,鶴間４５８番地２アイデックス南町田Ｂ１,,13,209,1940004,,,2022-01-20,登記官による閉鎖,,,2015-10-05,1,,,,,,0
1737,7012802001218,登記記録の閉鎖等,0,2022-01-24,2022-01-20,有限会社スナコー,,有限会社,東京都,立川市,砂川町２丁目５番地の４,,13,202,1900031,,,2022-01-20,清算の結了等,,,2015-10-05,1,,,,,スナコー,0
1746,7020003004849,登記記録の閉鎖等,0,2022-01-24,2022-01-20,合同会社日本堂,,合同会社,神奈川県,横浜市保土ケ谷区,岩井町５３番地,,14,106,2400023,,,2022-01-20,清算の結了等,,,2015-10-05,1,,,,,ニホンドウ,0
1778,7040005009844,登記記録の閉鎖等,0,2022-01-24,2022-01-17,特定非営利活動法人全日本訪問理美容師協会,,その他の設立登記法人,千葉県,市原市,八幡６３２番地１,,12,219,2900062,,,2022-01-17,清算の結了等,,,2015-10-05,1,,,,,ゼンニホンホウモンリビヨウシキョウカイ,0
1788,7080102017465,登記記録の閉鎖等,0,2022-01-24,2022-01-20,有限会社渡辺物産,,有限会社,静岡県,富士宮市,上条４４７番地,,22,207,4180116,,,2022-01-20,清算の結了等,,,2015-10-05,1,,,,,ワタナベブッサン,0
1793,7120001063861,登記記録の閉鎖等,0,2022-01-24,2022-01-18,株式会社コスモテック,,株式会社,大阪府,大阪市北区,西天満５丁目１３番３号,,27,127,5300047,,,2022-01-18,清算の結了等,,,2015-10-05,1,,,,,コスモテック,0
1809,7120101006191,登記記録の閉鎖等,0,2022-01-24,2022-01-18,西野金属株式会社,,株式会社,大阪府,堺市堺区,錦綾町２丁６番６号,,27,141,5900006,,,2022-01-18,清算の結了等,,,2015-10-05,1,,,,,ニシノキンゾク,0
1820,7130001055726,登記記録の閉鎖等,0,2022-01-24,2022-01-20,Ｇネット株式会社,,株式会社,京都府,京都市伏見区,桃山町大島３８番地５０３,,26,109,6128006,,,2022-01-20,清算の結了等,,,2015-10-05,1,,,,,ジーネット,0
1826,7130005004910,登記記録の閉鎖等,0,2022-01-24,2022-01-18,特定非営利活動法人フェアリー・ファイル,,その他の設立登記法人,京都府,京都市南区,東九条西明田町３４番地１７,,26,107,6018045,,,2022-01-18,清算の結了等,,,2015-10-05,1,,,,,フェアリーファイル,0
1845,7180002052180,登記記録の閉鎖等,0,2022-01-24,2022-01-18,有限会社藍設計,,有限会社,愛知県,北名古屋市,片場六所７３番地,,23,234,4810002,,,2022-01-18,清算の結了等,,,2015-10-05,1,,,,,ランセッケイ,0
1847,7180002070991,登記記録の閉鎖等,0,2022-01-24,2022-01-19,有限会社Ｋ‐ＧＯＬＤ,,有限会社,愛知県,春日井市,六軒屋町字向ヱ１３番地,,23,206,4860842,,,2022-01-19,登記官による閉鎖,,,2015-10-05,1,,,,,,0
1859,7200002020300,登記記録の閉鎖等,0,2022-01-24,2022-01-20,有限会社真興ヤンマー,,有限会社,岐阜県,多治見市,太平町４丁目１２番地,,21,204,5070041,,,2022-01-20,清算の結了等,,,2015-10-05,1,,,,,シンコウヤンマー,0
1873,7290001015508,登記記録の閉鎖等,0,2022-01-24,2022-01-19,日満商事株式会社,,株式会社,福岡県,福岡市城南区,神松寺３丁目４番８－１０２号,,40,136,8140121,,,2022-01-19,清算の結了等,,,2015-10-05,1,,,,,ニチマンショウジ,0
1889,7330002024016,登記記録の閉鎖等,0,2022-01-24,2022-01-20,不知火温泉有限会社,,有限会社,熊本県,宇城市,不知火町永尾１９１０番地の１,,43,213,8693471,,,2022-01-20,清算の結了等,,,2015-10-05,1,,,,,シラヌヒオンセン,0
1900,7380001005929,登記記録の閉鎖等,0,2022-01-24,2022-01-21,株式会社トーホク仙台運送,,株式会社,福島県,郡山市,安積町日出山１丁目１４２番地１,,07,203,9630101,,,2022-01-21,登記官による閉鎖,,,2015-10-05,1,,,,,,0
1901,7380001008007,登記記録の閉鎖等,0,2022-01-24,2022-01-20,株式会社ドリーム・オオウチ,,株式会社,福島県,田村郡三春町,字中町６３番地,,07,521,9637766,,,2022-01-20,清算の結了等,,,2015-10-05,1,,,,,ドリームオオウチ,0
1902,7380001009896,登記記録の閉鎖等,0,2022-01-24,2022-01-21,株式会社笹,,株式会社,福島県,安達郡大玉村,玉井字薄黒内１６１番地２４,,07,322,9691302,,,2022-01-21,登記官による閉鎖,,,2015-10-05,1,,,,,,0
1903,7380001010945,登記記録の閉鎖等,0,2022-01-24,2022-01-21,株式会社フォレスト,,株式会社,福島県,東白川郡塙町,大字片貝字長久木３６３番地,,07,483,9635522,,,2022-01-21,登記官による閉鎖,,,2015-10-05,1,,,,,,0
1904,7380001011002,登記記録の閉鎖等,0,2022-01-24,2022-01-21,株式会社眠れる森,,株式会社,福島県,白河市,東工業団地字北６番地,,07,205,9610304,,,2022-01-21,登記官による閉鎖,,,2015-10-05,1,,,,,,0
1906,7380005001040,登記記録の閉鎖等,0,2022-01-24,2022-01-21,こおり建設事業協同組合,,その他の設立登記法人,福島県,伊達郡桑折町,大字谷地字追分２番地の６,,07,301,9691643,,,2022-01-21,登記官による閉鎖,,,2015-10-05,1,,,,,,0
1907,7380005004381,登記記録の閉鎖等,0,2022-01-24,2022-01-21,ＧＭＴマッキンリー特定目的会社,,その他の設立登記法人,福島県,本宮市,本宮字南町裡１８番地４,,07,214,9691131,,,2022-01-21,登記官による閉鎖,,,2015-10-05,1,,,,,,0
1912,7390001006827,登記記録の閉鎖等,0,2022-01-24,2022-01-24,株式会社荘内屋,,株式会社,山形県,東田川郡庄内町,大野字大塚１４番地の１,00084707,06,428,9997747,,,2022-01-24,登記官による閉鎖,,,2015-10-05,1,,,,,,0
1913,7390001009185,登記記録の閉鎖等,0,2022-01-24,2022-01-24,尾花沢城南電気株式会社,,株式会社,山形県,尾花沢市,大字荻袋字西荻原５３５番地の１,,06,212,9994552,,,2022-01-24,登記官による閉鎖,,,2015-10-05,1,,,,,,0
1914,7390001014219,登記記録の閉鎖等,0,2022-01-24,2022-01-24,斎藤建設株式会社,,株式会社,山形県,鶴岡市,大山３丁目１２番１８号,,06,203,9971124,,,2022-01-24,登記官による閉鎖,,,2015-10-05,1,,,,,,0
1915,7390002006140,登記記録の閉鎖等,0,2022-01-24,2022-01-24,有限会社今野家具店,00084895,有限会社,山形県,上山市,栄町１丁目２番１４号,,06,207,9993132,,,2022-01-24,登記官による閉鎖,,,2015-10-05,1,,,,,,0
1917,7390002009481,登記記録の閉鎖等,0,2022-01-24,2022-01-24,有限会社鈴木孔建,,有限会社,山形県,鶴岡市,下小中字壱の揚４００番地,,06,203,9971134,,,2022-01-24,登記官による閉鎖,,,2015-10-05,1,,,,,,0
1918,7390002010506,登記記録の閉鎖等,0,2022-01-24,2022-01-24,有限会社北日本チケット,,有限会社,山形県,鶴岡市,末広町６番９号,,06,203,9970015,,,2022-01-24,登記官による閉鎖,,,2015-10-05,1,,,,,,0
1919,7390002016387,登記記録の閉鎖等,0,2022-01-24,2022-01-24,有限会社ナカムラセンイ,,有限会社,山形県,米沢市,城西４丁目２番４５号,,06,202,9920054,,,2022-01-24,登記官による閉鎖,,,2015-10-05,1,,,,,,0
1920,7390005000702,登記記録の閉鎖等,0,2022-01-24,2022-01-24,霞城医師互助協同組合,,その他の設立登記法人,山形県,山形市,宮町２丁目７番２１号,,06,201,9900057,,,2022-01-24,登記官による閉鎖,,,2015-10-05,1,,,,,,0
1921,7390005001106,登記記録の閉鎖等,0,2022-01-24,2022-01-24,山形県ハイテクきもの加工協同組合,,その他の設立登記法人,山形県,東村山郡山辺町,大字山辺７８２番地,,06,301,9900301,,,2022-01-24,登記官による閉鎖,,,2015-10-05,1,,,,,,0
1945,8010002053459,登記記録の閉鎖等,0,2022-01-24,2022-01-13,有限会社エス・エル・アルプス,,有限会社,東京都,中央区,日本橋室町２丁目４番３号,,13,102,1030022,,,2022-01-13,清算の結了等,,,2015-10-05,1,,,,,エスエルアルプス,0
1959,8010501039033,登記記録の閉鎖等,0,2022-01-24,2022-01-21,株式会社ベスト薬品,,株式会社,東京都,台東区,三ノ輪１丁目１番１１号,,13,106,1100011,,,2022-01-21,清算の結了等,,,2016-01-20,1,,,,,ベストヤクヒン,0
1979,8011001130100,登記記録の閉鎖等,0,2022-01-24,2022-01-17,グラビティバランス株式会社,,株式会社,東京都,渋谷区,東１丁目４番６号,,13,113,1500011,,,2022-01-17,清算の結了等,,,2019-09-27,1,,,,,グラビティバランス,0
1991,8011301026758,登記記録の閉鎖等,0,2022-01-24,2022-01-18,大陸交通株式会社,,株式会社,東京都,世田谷区,南烏山１丁目１番１８号,,13,112,1570062,,,2022-01-18,合併による解散等,3010001144081,令和４年１月１４日東京都文京区後楽一丁目１番８号日の丸交通株式会社（3010001144081）に合併し解散,2021-04-12,1,,,,,タイリクコウツウ,0
2010,8012302002954,登記記録の閉鎖等,0,2022-01-24,2022-01-20,有限会社高瀬コーポレーション,,有限会社,東京都,町田市,高ケ坂４０８番地の７,,13,209,1940014,,,2022-01-20,登記官による閉鎖,,,2015-10-05,1,,,,,,0
2024,8020005009366,登記記録の閉鎖等,0,2022-01-24,2022-01-18,特定非営利活動法人カフェ・デラ・テラ,,その他の設立登記法人,神奈川県,横浜市戸塚区,矢部町１２５番地,,14,110,2440002,,,2022-01-18,清算の結了等,,,2015-10-05,1,,,,,カフェデラテラ,0
2043,8040002001613,登記記録の閉鎖等,0,2022-01-24,2022-01-18,有限会社永新企画,,有限会社,千葉県,千葉市若葉区,五十土町２３５番地,,12,104,2650063,,,2022-01-18,清算の結了等,,,2015-10-05,1,,,,,エイシンキカク,0
2044,8040002013831,登記記録の閉鎖等,0,2022-01-24,2022-01-18,有限会社中央物産,,有限会社,千葉県,千葉市中央区,蘇我３丁目１１番８号,,12,101,2600822,,,2022-01-18,清算の結了等,,,2015-10-05,1,,,,,,0
2050,8050002001793,登記記録の閉鎖等,0,2022-01-24,2022-01-21,有限会社スガヤドライクリーニング工場,,有限会社,茨城県,水戸市,南町２丁目２番３７号,,08,201,3100021,,,2022-01-21,清算の結了等,,,2015-10-05,1,,,,,スガヤドライクリーニングコウジョウ,0
2052,8050003000695,登記記録の閉鎖等,0,2022-01-24,2022-01-19,合名会社関谷商店,,合名会社,茨城県,笠間市,下市毛５８３番地の６,,08,216,3091626,,,2022-01-19,清算の結了等,,,2015-10-05,1,,,,,セキヤショウテン,0
2056,8060002015974,登記記録の閉鎖等,0,2022-01-24,2022-01-18,有限会社浅沼建設,,有限会社,栃木県,日光市,鬼怒川温泉滝５６２番地,,09,206,3212526,,,2022-01-18,清算の結了等,,,2015-10-05,1,,,,,アサヌマケンセツ,0
2061,8080001011130,登記記録の閉鎖等,0,2022-01-24,2022-01-20,株式会社ソフトワールド,,株式会社,静岡県,静岡市清水区,中河内６９９番地,,22,103,4240401,,,2022-01-20,清算の結了等,,,2015-10-05,1,,,,,ソフトワールド,0
2066,8110002016199,登記記録の閉鎖等,0,2022-01-24,2022-01-19,有限会社高橋縫製,00070812,有限会社,新潟県,胎内市,西条４７５番地１６,,15,227,9592658,,,2022-01-19,清算の結了等,,,2015-10-05,1,,,,,タカハシホウセイ,0
2089,8120901034110,登記記録の閉鎖等,0,2022-01-24,2022-01-18,リコー電子デバイス株式会社,,株式会社,大阪府,池田市,姫室町１３番１号,,27,204,5630046,,,2022-01-18,合併による解散等,7010001045862,令和４年１月１日東京都中央区日本橋横山町３番１０号日清紡マイクロデバイス株式会社（7010001045862）に合併し解散,2015-10-05,1,,,,,リコーデンシデバイス,0
2093,8122005001359,登記記録の閉鎖等,0,2022-01-24,2022-01-20,特定非営利活動法人消費者サポートセンター,,その他の設立登記法人,大阪府,東大阪市,荒本北２８番１号３０１号室,,27,227,5770011,,,2022-01-20,登記官による閉鎖,,,2015-10-05,1,,,,,,0
2099,8140001119553,登記記録の閉鎖等,0,2022-01-24,2022-01-18,株式会社清宝,,株式会社,兵庫県,宝塚市,米谷字清シ１番地,,28,214,6650837,,,2022-01-18,清算の結了等,,,2020-11-27,1,,,,,セイホウ,0
2102,8140005005072,登記記録の閉鎖等,0,2022-01-24,2022-01-20,特定非営利活動法人イン・アーネスト医療団,,その他の設立登記法人,兵庫県,神戸市西区,糀台５丁目６番３号西神オリエンタルホテル２Ｆ,,28,111,6512273,,,2022-01-20,清算の結了等,,,2015-10-05,1,,,,,,0
2118,8180002045563,登記記録の閉鎖等,0,2022-01-24,2022-01-14,有限会社長谷川建築,,有限会社,愛知県,豊田市,汐見町２丁目１番地８,,23,211,4710041,,,2022-01-14,清算の結了等,,,2015-10-05,1,,,,,ハセガワケンチク,0
2125,8200001027493,登記記録の閉鎖等,0,2022-01-24,2022-01-20,株式会社カンパニー・アンゼン,,株式会社,岐阜県,岐阜市,則武中１丁目９番１１号,,21,201,5020932,,,2022-01-20,清算の結了等,,,2015-10-05,1,,,,,カンパニーアンゼン,0
2146,8290002008071,登記記録の閉鎖等,0,2022-01-24,2022-01-19,有限会社コロナフオート,,有限会社,福岡県,福岡市早良区,有田２丁目６番７号,,40,137,8140033,,,2022-01-19,清算の結了等,,,2015-10-05,1,,,,,コロナフオート,0
2147,8290002011538,登記記録の閉鎖等,0,2022-01-24,2022-01-19,有限会社大創広告,,有限会社,福岡県,福岡市中央区,大手門３丁目１３番１号,,40,133,8100074,,,2022-01-19,清算の結了等,,,2015-10-05,1,,,,,ダイソウコウコク,0
2174,8370002010894,登記記録の閉鎖等,0,2022-01-24,2022-01-21,有限会社勾当台保険センター,,有限会社,宮城県,仙台市泉区,南中山３丁目２３番１０号,,04,105,9813213,,,2022-01-21,清算の結了等,,,2015-10-05,1,,,,,コウトウダイホケンセンター,0
2177,8380001000160,登記記録の閉鎖等,0,2022-01-24,2022-01-21,株式会社稲荷屋旅館,,株式会社,福島県,福島市,飯坂町湯野字切湯ノ上９番地,,07,201,9600211,,,2022-01-21,登記官による閉鎖,,,2015-10-05,1,,,,,,0
2178,8380001013071,登記記録の閉鎖等,0,2022-01-24,2022-01-21,株式会社湘南土木,,株式会社,福島県,いわき市,小名浜島字榎内９番地の７,,07,204,9718125,,,2022-01-21,登記官による閉鎖,,,2015-10-05,1,,,,,,0
2179,8380001018327,登記記録の閉鎖等,0,2022-01-24,2022-01-19,株式会社ネットワーク,,株式会社,福島県,会津若松市,花見ケ丘１丁目１０番２４号,,07,202,9650822,,,2022-01-19,清算の結了等,,,2015-10-05,1,,,,,ネットワーク,0
2180,8380001027336,登記記録の閉鎖等,0,2022-01-24,2022-01-20,ウェルビング東北株式会社,,株式会社,福島県,西白河郡西郷村,字豊作東５番地,,07,461,9618041,,,2022-01-20,清算の結了等,,,2016-09-23,1,,,,,,0
2184,8380002008351,登記記録の閉鎖等,0,2022-01-24,2022-01-21,有限会社大槻会計事務所,,有限会社,福島県,郡山市,赤木町１０番７号,,07,203,9638006,,,2022-01-21,登記官による閉鎖,,,2015-10-05,1,,,,,,0
2185,8380002018417,登記記録の閉鎖等,0,2022-01-24,2022-01-21,有限会社平成産業,,有限会社,福島県,白河市,白坂愛宕山９１番地,,07,205,9610835,,,2022-01-21,登記官による閉鎖,,,2015-10-05,1,,,,,,0
2186,8380002018920,登記記録の閉鎖等,0,2022-01-24,2022-01-21,有限会社ベック,,有限会社,福島県,西白河郡西郷村,字道南東７番地,,07,461,9618052,,,2022-01-21,登記官による閉鎖,,,2015-10-05,1,,,,,,0
2187,8380002027649,登記記録の閉鎖等,0,2022-01-24,2022-01-21,有限会社草野商店,,有限会社,福島県,いわき市,泉町滝尻字根ノ町４番地,,07,204,9718182,,,2022-01-21,登記官による閉鎖,,,2016-11-28,1,,,,,,0
2188,8380005002277,登記記録の閉鎖等,0,2022-01-24,2022-01-21,特定非営利活動法人福島夢集団,,その他の設立登記法人,福島県,福島市,飯坂町平野字天王下１８番地１,,07,201,9600231,,,2022-01-21,登記官による閉鎖,,,2015-10-05,1,,,,,,0
2189,8380005006955,登記記録の閉鎖等,0,2022-01-24,2022-01-21,ＮＰＯ法人相馬サポート・センター,,その他の設立登記法人,福島県,相馬市,中野字寺前３６０番地,,07,209,9760037,,,2022-01-21,登記官による閉鎖,,,2015-10-05,1,,,,,,0
2191,8390005000668,登記記録の閉鎖等,0,2022-01-24,2022-01-24,山形県シューズ卸商業組合,,その他の設立登記法人,山形県,山形市,流通センター１丁目６番地の２,,06,201,9900071,,,2022-01-24,登記官による閉鎖,,,2015-10-05,1,,,,,,0
2192,8390005000701,登記記録の閉鎖等,0,2022-01-24,2022-01-24,協同組合エフ・エム・ジェイ,,その他の設立登記法人,山形県,山形市,飯田５丁目１番５３号,,06,201,9902332,,,2022-01-24,登記官による閉鎖,,,2015-10-05,1,,,,,,0
2193,8390005003002,登記記録の閉鎖等,0,2022-01-24,2022-01-24,月山骨材協同組合,,その他の設立登記法人,山形県,飽海郡遊佐町,藤崎字簀垣下１８３,,06,461,9998437,,,2022-01-24,登記官による閉鎖,,,2015-10-05,1,,,,,,0
2194,8390005008471,登記記録の閉鎖等,0,2022-01-24,2022-01-24,保証責任西山村間沢負債整理組合,,その他の設立登記法人,山形県,西村山郡西川町,大字間沢９９番地,,06,322,9900703,,,2022-01-24,登記官による閉鎖,,,2015-10-05,1,,,,,,0
2196,8410002009651,登記記録の閉鎖等,0,2022-01-24,2022-01-18,有限会社エーアンドオー電子,,有限会社,秋田県,鹿角市,八幡平字永田２５９番地２,,05,209,0185141,,,2022-01-18,清算の結了等,,,2015-10-05,1,,,,,エーアンドオーデンシ,0
2202,8430001075940,登記記録の閉鎖等,0,2022-01-24,2022-01-14,株式会社Ｈｏｋｋａｉｄｏ　Ｒｅｓｏｒｔ,,株式会社,北海道,札幌市中央区,南八条西８丁目５２１番地６,,01,101,0640808,,,2022-01-14,清算の結了等,,,2018-02-21,1,,,,,ホッカイドウリゾート,0
2204,8430003007520,登記記録の閉鎖等,0,2022-01-24,2022-01-17,合同会社いろは,,合同会社,北海道,札幌市東区,北三十一条東１６丁目１番３号,,01,103,0650031,,,2022-01-17,清算の結了等,,,2016-04-22,1,,,,,イロハ,0
2211,8470002015900,登記記録の閉鎖等,0,2022-01-24,2022-01-18,有限会社協立,,有限会社,香川県,観音寺市,本大町１４９５番地１,,37,205,7680022,,,2022-01-18,清算の結了等,,,2015-10-05,1,,,,,キョウリツ,0
2228,9010002053458,登記記録の閉鎖等,0,2022-01-24,2022-01-13,有限会社エス・エル・アルタイル,,有限会社,東京都,中央区,日本橋室町２丁目４番３号,,13,102,1030022,,,2022-01-13,清算の結了等,,,2015-10-05,1,,,,,エスエルアルタイル,0
2229,9010002053474,登記記録の閉鎖等,0,2022-01-24,2022-01-13,有限会社エス・エル・サファイア,,有限会社,東京都,中央区,日本橋室町２丁目４番３号,,13,102,1030022,,,2022-01-13,清算の結了等,,,2015-10-05,1,,,,,エスエルサファイア,0
2230,9010002053482,登記記録の閉鎖等,0,2022-01-24,2022-01-13,有限会社エス・エル・ピナクル,,有限会社,東京都,中央区,日本橋室町２丁目４番３号,,13,102,1030022,,,2022-01-13,清算の結了等,,,2015-10-05,1,,,,,エスエルピナクル,0
2231,9010002053532,登記記録の閉鎖等,0,2022-01-24,2022-01-13,有限会社エス・エル・ワーフ,,有限会社,東京都,中央区,日本橋室町２丁目４番３号,,13,102,1030022,,,2022-01-13,清算の結了等,,,2015-10-05,1,,,,,エスエルワーフ,0
2232,9010003019615,登記記録の閉鎖等,0,2022-01-24,2022-01-19,合同会社ＪＲＰＦ戸越,,合同会社,東京都,千代田区,丸の内３丁目１番１号東京共同会計事務所内,,13,101,1000005,,,2022-01-19,清算の結了等,,,2015-10-05,1,,,,,ジェイアールピーエフトゴシ,0
2239,9010401100166,登記記録の閉鎖等,0,2022-01-24,2022-01-12,株式会社ザクティホールディングス,,株式会社,東京都,千代田区,丸の内３丁目１番１号,,13,101,1000005,,,2022-01-12,合併による解散等,3122001025531,令和３年１２月２０日大阪市北区大淀中一丁目１番８８号株式会社ザクティ（3122001025531）に合併し解散,2015-10-05,1,,,,,ザクティホールディングス,0
2244,9010402011916,登記記録の閉鎖等,0,2022-01-24,2022-01-13,有限会社堀配ぜん人紹介所,,有限会社,東京都,港区,三田２丁目７番９－７０１号,,13,103,1080073,,,2022-01-13,清算の結了等,,,2015-10-05,1,,,,,ホリハイゼンヒトショウカイジョ,0
2254,9010503005833,登記記録の閉鎖等,0,2022-01-24,2022-01-20,ＡＬＯＹ合同会社,,合同会社,東京都,台東区,浅草橋５丁目１番３３号パームス浅草橋１１０１,,13,106,1110053,,,2022-01-20,清算の結了等,,,2020-02-19,1,,,,,アーロイ,0
2283,9012301006781,登記記録の閉鎖等,0,2022-01-24,2022-01-20,株式会社リーヴズ,,株式会社,東京都,町田市,高ケ坂１７３８番地５８,,13,209,1940014,,,2022-01-20,登記官による閉鎖,,,2015-10-05,1,,,,,,0
2293,9020002075996,登記記録の閉鎖等,0,2022-01-24,2022-01-19,有限会社ティーダブリューサポート,,有限会社,神奈川県,横浜市都筑区,大熊町１１７番地,,14,118,2240042,,,2022-01-19,清算の結了等,,,2015-10-05,1,,,,,,0
2297,9021002018573,登記記録の閉鎖等,0,2022-01-24,2022-01-19,有限会社エルディ,,有限会社,神奈川県,相模原市南区,東林間８丁目１３番２号,,14,153,2520311,,,2022-01-19,清算の結了等,,,2015-10-05,1,,,,,エルディ,0
2320,9040005000768,登記記録の閉鎖等,0,2022-01-24,2022-01-18,特定非営利活動法人樹の実会,,その他の設立登記法人,千葉県,千葉市中央区,大森町４０４番６,,12,101,2600811,,,2022-01-18,清算の結了等,,,2015-10-05,1,,,,,キノミカイ,0
2324,9060001018432,登記記録の閉鎖等,0,2022-01-24,2022-01-18,株式会社小野塚鉄工所,,株式会社,栃木県,足利市,島田町７５７番地,,09,202,3260337,,,2022-01-18,清算の結了等,,,2015-10-05,1,,,,,オノヅカテッコウショ,0
2325,9060002007335,登記記録の閉鎖等,0,2022-01-24,2022-01-19,有限会社はな太,,有限会社,栃木県,宇都宮市,馬場通り１丁目１番１３号,,09,201,3200026,,,2022-01-19,清算の結了等,,,2015-10-05,1,,,,,ハナタ,0
2328,9070002005172,登記記録の閉鎖等,0,2022-01-24,2022-01-20,有限会社ミートショップおかだ,,有限会社,群馬県,前橋市,広瀬町３丁目７番地の３８,,10,201,3710812,,,2022-01-20,清算の結了等,,,2015-10-05,1,,,,,ミートショップオカダ,0
2330,9080001005189,登記記録の閉鎖等,0,2022-01-24,2022-01-19,株式会社ムネクミ工業,,株式会社,静岡県,静岡市駿河区,丸子新田３７８番地の７,,22,102,4210111,,,2022-01-19,清算の結了等,,,2015-10-05,1,,,,,ムネクミコウギョウ,0
2334,9080105004946,登記記録の閉鎖等,0,2022-01-24,2022-01-20,一般社団法人富士宮総合研究機構,,その他の設立登記法人,静岡県,富士宮市,東町２９番１４号,,22,207,4180077,,,2022-01-20,清算の結了等,,,2015-10-05,1,,,,,フジノミヤソウゴウケンキュウキコウ,0
2341,9110001022420,登記記録の閉鎖等,0,2022-01-24,2022-01-19,株式会社ケント,,株式会社,新潟県,長岡市,福住２丁目２番３１－１３０１号エイルマンション福住１３０１号室,,15,202,9400034,,,2022-01-19,清算の結了等,,,2015-10-05,1,,,,,ケント,0
2342,9110001031033,登記記録の閉鎖等,0,2022-01-24,2022-01-19,アークアトリエ株式会社,,株式会社,新潟県,長岡市,豊２丁目１２番１号,,15,202,9400867,,,2022-01-19,清算の結了等,,,2015-10-23,1,,,,,,0
2346,9120002008327,登記記録の閉鎖等,0,2022-01-24,2022-01-14,有限会社宝螺子製作所,,有限会社,大阪府,大阪市城東区,東中浜３丁目２１番１５号,,27,118,5360023,,,2022-01-14,清算の結了等,,,2015-10-05,1,,,,,タカラネジセイサクショ,0
2352,9120101036229,登記記録の閉鎖等,0,2022-01-24,2022-01-18,株式会社ウサギヤ,,株式会社,大阪府,岸和田市,八幡町１番１０号,,27,202,5960023,,,2022-01-18,清算の結了等,,,2015-10-05,1,,,,,ウサギヤ,0
2354,9120102003442,登記記録の閉鎖等,0,2022-01-24,2022-01-19,東和住宅有限会社,,有限会社,大阪府,堺市西区,浜寺元町４丁４０９番地の３,,27,144,5928343,,,2022-01-19,清算の結了等,,,2015-10-05,1,,,,,トウワジュウタク,0
2359,9122001016483,登記記録の閉鎖等,0,2022-01-24,2022-01-20,株式会社金山商店,,株式会社,大阪府,四條畷市,大字砂５７番地の１,,27,229,5750001,,,2022-01-20,登記官による閉鎖,,,2015-10-05,1,,,,,,0
2365,9130001068619,登記記録の閉鎖等,0,2022-01-24,2022-01-18,株式会社珍宝館,,株式会社,京都府,京都市中京区,寺町通御池上る上本能寺前町４７５番地－３Ｆ,,26,104,6040925,,,2022-01-18,清算の結了等,,,2021-02-10,1,,,,,チンホウカン,0
2389,9160002002342,登記記録の閉鎖等,0,2022-01-24,2022-01-21,有限会社梓工務店,,有限会社,滋賀県,大津市,伊香立下龍華町４９１番２,,25,201,5200363,,,2022-01-21,清算の結了等,,,2015-10-05,1,,,,,アズサコウムテン,0
2394,9170005002818,登記記録の閉鎖等,0,2022-01-24,2022-01-19,特定非営利活動法人和歌山自然リサイクル協会,,その他の設立登記法人,和歌山県,有田郡有田川町,大字吉原４２９番地,,30,366,6430166,,,2022-01-19,清算の結了等,,,2015-10-05,1,,,,,ワカヤマシゼンリサイクルキョウカイ,0
2427,9230001016922,登記記録の閉鎖等,0,2022-01-24,2022-01-17,新内田製薬株式会社,,株式会社,富山県,富山市,水橋伊勢屋１５８番地１,,16,201,9393524,,,2022-01-17,合併による解散等,7230001001216,令和３年１２月１６日富山市水橋伊勢屋１５８番地１株式会社クレオテクノロジー（7230001001216）に合併し解散,2017-04-13,1,,,,,,0
2431,9240001009017,登記記録の閉鎖等,0,2022-01-24,2022-01-21,株式会社パワーヒロセ,,株式会社,広島県,広島市中区,広瀬町８番２７号,,34,101,7300804,,,2022-01-21,清算の結了等,,,2015-10-05,1,,,,,パワーヒロセ,0
2443,9290001047400,登記記録の閉鎖等,0,2022-01-24,2022-01-13,中川原産業株式会社,,株式会社,福岡県,筑後市,大字徳久１番地,,40,211,8330004,,,2022-01-13,合併による解散等,3290001029742,令和３年１２月３１日福岡市中央区今泉二丁目５番２８号株式会社ＴＭジャパン（3290001029742）に合併し解散,2015-10-05,1,,,,,ナカガワラサンギョウ,0
2445,9290001059148,登記記録の閉鎖等,0,2022-01-24,2022-01-20,株式会社ＡＯＬｏｇｉｃ,,株式会社,福岡県,福岡市中央区,高砂１丁目２２番６号,,40,133,8100011,,,2022-01-20,合併による解散等,5320003002444,令和４年１月１７日大分市大道町五丁目６番１３号合同会社日尚興（5320003002444）に合併し解散,2015-10-05,1,,,,,エーオーロジック,0
2453,9290003008474,登記記録の閉鎖等,0,2022-01-24,2022-01-18,合同会社ＦＫコーポレーション,,合同会社,福岡県,福岡市博多区,博多駅南５丁目２番２７号２０２博多駅南１号室,,40,132,8120016,,,2022-01-18,清算の結了等,,,2018-10-19,1,,,,,エフケーコーポレーション,0
2460,9300005006763,登記記録の閉鎖等,0,2022-01-24,2022-01-19,一般社団法人ビリーブ,,その他の設立登記法人,佐賀県,佐賀市,鍋島町大字蛎久３２０番地５,,41,201,8490931,,,2022-01-19,清算の結了等,,,2018-08-10,1,,,,,ビリーブ,0
2468,9340005009226,登記記録の閉鎖等,0,2022-01-24,2022-01-19,特定非営利活動法人ぽるく,,その他の設立登記法人,鹿児島県,鹿児島市,西陵７丁目１１番１２号エスポワール・ケイ１０２号,,46,201,8900032,,,2022-01-19,清算の結了等,,,2020-12-16,1,,,,,ポルク,0
2475,9380001001050,登記記録の閉鎖等,0,2022-01-24,2022-01-21,東倭物産株式会社,,株式会社,福島県,福島市,山下町２番１２号,,07,201,9608115,,,2022-01-21,登記官による閉鎖,,,2015-10-05,1,,,,,,0
2476,9380001007510,登記記録の閉鎖等,0,2022-01-24,2022-01-21,株式会社トラテクト,,株式会社,福島県,郡山市,安積町日出山４丁目１１１番地,,07,203,9630101,,,2022-01-21,登記官による閉鎖,,,2015-10-05,1,,,,,,0
2478,9380002003500,登記記録の閉鎖等,0,2022-01-24,2022-01-21,有限会社丸元産業,,有限会社,福島県,福島市,上名倉字金山４７番地の２,,07,201,9602155,,,2022-01-21,登記官による閉鎖,,,2015-10-05,1,,,,,,0
2479,9380002009423,登記記録の閉鎖等,0,2022-01-24,2022-01-21,郡山道路標識建植工事有限会社,,有限会社,福島県,郡山市,愛宕町８番１号,,07,203,9638873,,,2022-01-21,登記官による閉鎖,,,2015-10-05,1,,,,,,0
2480,9380002009506,登記記録の閉鎖等,0,2022-01-24,2022-01-21,有限会社齋藤工建,,有限会社,福島県,郡山市,湖南町舟津字日本一４６２５番地,,07,203,9631411,,,2022-01-21,登記官による閉鎖,,,2015-10-05,1,,,,,,0
2481,9380002010208,登記記録の閉鎖等,0,2022-01-24,2022-01-21,有限会社スズナガ工業,,有限会社,福島県,郡山市,富田町字大島４３番地,,07,203,9638041,,,2022-01-21,登記官による閉鎖,,,2015-10-05,1,,,,,,0
2482,9380002012641,登記記録の閉鎖等,0,2022-01-24,2022-01-21,有限会社宗像塗装,,有限会社,福島県,郡山市,安積町荒井字林ノ越３５番地１,,07,203,9630111,,,2022-01-21,登記官による閉鎖,,,2015-10-05,1,,,,,,0
2483,9380002012708,登記記録の閉鎖等,0,2022-01-24,2022-01-21,有限会社本宮あさか,,有限会社,福島県,郡山市,並木３丁目３番地の２６,,07,203,9638026,,,2022-01-21,登記官による閉鎖,,,2015-10-05,1,,,,,,0
2484,9380002020982,登記記録の閉鎖等,0,2022-01-24,2022-01-21,有限会社永沼商店,,有限会社,福島県,石川郡石川町,字新町５６番地,,07,501,9637851,,,2022-01-21,登記官による閉鎖,,,2015-10-05,1,,,,,,0
2485,9380002034256,登記記録の閉鎖等,0,2022-01-24,2022-01-21,有限会社アイエルポンテ,,有限会社,福島県,河沼郡湯川村,大字湊字松前乙４３８番地１,,07,422,9693542,,,2022-01-21,登記官による閉鎖,,,2015-10-05,1,,,,,,0
2486,9390001005422,登記記録の閉鎖等,0,2022-01-24,2022-01-24,株式会社グレイトサクセス,,株式会社,山形県,山形市,桜田西２丁目６番１７号桜田ロイヤルパレス,,06,201,9902321,,,2022-01-24,登記官による閉鎖,,,2015-10-05,1,,,,,,0
2487,9390002013102,登記記録の閉鎖等,0,2022-01-24,2022-01-24,有限会社田中大工,,有限会社,山形県,米沢市,大字笹野８１７番地,,06,202,9921443,,,2022-01-24,登記官による閉鎖,,,2015-10-05,1,,,,,,0
2489,9390005000709,登記記録の閉鎖等,0,2022-01-24,2022-01-24,末広市場協同組合,,その他の設立登記法人,山形県,山形市,鉄砲町１丁目１４番９号,,06,201,9902492,,,2022-01-24,登記官による閉鎖,,,2015-10-05,1,,,,,,0
2490,9390005000972,登記記録の閉鎖等,0,2022-01-24,2022-01-24,中山町山砂協同組合,,その他の設立登記法人,山形県,東村山郡中山町,大字長崎１４８８番地,,06,302,9900401,,,2022-01-24,登記官による閉鎖,,,2015-10-05,1,,,,,,0
2491,9390005005930,登記記録の閉鎖等,0,2022-01-24,2022-01-24,北村山環境事業協同組合,,その他の設立登記法人,山形県,東根市,大字東根甲９７３０番地の１,,06,211,9993701,,,2022-01-24,登記官による閉鎖,,,2015-10-05,1,,,,,,0
2506,9450001003329,登記記録の閉鎖等,0,2022-01-24,2022-01-20,山中輪業株式会社,,株式会社,北海道,旭川市,東光十一条４丁目４番２６号,,01,204,0788351,,,2022-01-20,清算の結了等,,,2015-10-05,1,,,,,ヤマナカリンギョウ,0
2511,9500002015722,登記記録の閉鎖等,0,2022-01-24,2022-01-20,有限会社富士仏壇センター,,有限会社,愛媛県,新居浜市,坂井町１丁目２番５号,,38,205,7920812,,,2022-01-20,清算の結了等,,,2015-10-05,1,,,,,フジブツダンセンター,0
