sequenceNumber,corporateNumber,process,correct,updateDate,changeDate,name,nameImageId,kind,prefectureName,cityName,streetNumber,addressImageId,prefectureCode,cityCode,postCode,addressOutside,addressOutsideImageId,closeDate,closeCause,successorCorporateNumber,changeCause,assignmentDate,latest,enName,enPrefectureName,enCityName,enAddressOutside,furigana,hihyoji
16,1010001221659,新規,0,2021-10-11,2021-10-11,マクスウェルグループ株式会社,,株式会社,東京都,中央区,銀座１丁目２２－１１銀座大竹ビジデンス２階,,13,102,1040061,,,,,,,2021-10-11,1,,,,,マクスウェルグループ,0
17,1010001221667,新規,0,2021-10-11,2021-10-11,ライフクエスト株式会社,,株式会社,東京都,千代田区,神田須田町１丁目２－７淡路町駅前ビル３階,,13,101,1010041,,,,,,,2021-10-11,1,,,,,ライフクエスト,0
18,1010001221741,新規,0,2021-10-11,2021-10-11,金銀の貯金箱株式会社,,株式会社,東京都,中央区,日本橋兜町１１番４号羽生ビル１階,,13,102,1030026,,,,,,,2021-10-11,1,,,,,キンギンノチョキンバコ,0
21,1010003035982,新規,0,2021-10-11,2021-10-11,ファースト合同会社,,合同会社,東京都,千代田区,内神田３丁目３番１４号,,13,101,1010047,,,,,,,2021-10-11,1,,,,,ファースト,0
36,1010401163006,新規,0,2021-10-11,2021-10-11,株式会社Ｔａｎｇｅｎｔ　Ｊａｐａｎ,,株式会社,東京都,港区,赤坂８丁目４番１４号青山タワープレイス８階ｆａｂｂｉｔ内,,13,103,1070052,,,,,,,2021-10-11,1,,,,,タンジェントジャパン,0
37,1010401163105,新規,0,2021-10-11,2021-10-11,株式会社ウィズテックファーマ,,株式会社,東京都,港区,六本木４丁目８番７号,,13,103,1060032,,,,,,,2021-10-11,1,,,,,ウィズテックファーマ,0
41,1010501047926,新規,0,2021-10-11,2021-10-11,株式会社スマイルコレクション,,株式会社,東京都,台東区,寿４丁目１３－１０,,13,106,1110042,,,,,,,2021-10-11,1,,,,,スマイルコレクション,0
75,1011001142969,新規,0,2021-10-11,2021-10-11,株式会社ユラン,,株式会社,東京都,渋谷区,神宮前６丁目２３番４号桑野ビル２階,,13,113,1500001,,,,,,,2021-10-11,1,,,,,ユラン,0
76,1011001143281,新規,0,2021-10-11,2021-10-11,株式会社ＥＭＡ,,株式会社,東京都,渋谷区,神宮前６丁目２３番４号桑野ビル２階,,13,113,1500001,,,,,,,2021-10-11,1,,,,,エマ,0
78,1011003013425,新規,0,2021-10-11,2021-10-11,合同会社ホイミ,,合同会社,東京都,目黒区,碑文谷４丁目２２番９－１０３,,13,110,1520003,,,,,,,2021-10-11,1,,,,,ホイミ,0
79,1011003013516,新規,0,2021-10-11,2021-10-11,合同会社千鶴屋,,合同会社,東京都,渋谷区,代々木２丁目３６番１３号,,13,113,1510053,,,,,,,2021-10-11,1,,,,,チヅルヤ,0
80,1011003013532,新規,0,2021-10-11,2021-10-11,合同会社ｎｕｎｕｂｕｆｆ,,合同会社,東京都,渋谷区,渋谷２丁目１９－１５宮益坂ビルディング６０９,,13,113,1500002,,,,,,,2021-10-11,1,,,,,ヌヌバフ,0
82,1011101096495,新規,0,2021-10-11,2021-10-11,ＭＨ株式会社,,株式会社,東京都,新宿区,高田馬場３丁目３８番１５号,,13,104,1690075,,,,,,,2021-10-11,1,,,,,エムエイチ,0
83,1011101096529,新規,0,2021-10-11,2021-10-11,株式会社ＣＯＲＡＧＥＭ,,株式会社,東京都,新宿区,新宿２丁目１３番１０号武蔵野ビル５階２８号室,,13,104,1600022,,,,,,,2021-10-11,1,,,,,コラジェム,0
87,1011201023309,新規,0,2021-10-11,2021-10-11,ＳＯＲＩＳＥ株式会社,,株式会社,東京都,中野区,上高田３丁目２３－８ＳＫＹコーポ１Ｆ,,13,114,1640002,,,,,,,2021-10-11,1,,,,,ソライズ,0
90,1011503004915,新規,0,2021-10-11,2021-10-11,合同会社スーマ,,合同会社,東京都,北区,赤羽１丁目５９－８ヒノデビル４Ｆ,,13,117,1150045,,,,,,,2021-10-11,1,,,,,スーマ,0
91,1011503004923,新規,0,2021-10-11,2021-10-11,合同会社すず家,,合同会社,東京都,北区,西が丘１丁目４番１号,,13,117,1150056,,,,,,,2021-10-11,1,,,,,スズヤ,0
93,1011605002404,新規,0,2021-10-11,2021-10-11,ＮＰＯ法人福祉送迎わかば,,その他の設立登記法人,東京都,練馬区,桜台２丁目２５番１４号,,13,120,1760002,,,,,,,2021-10-11,1,,,,,フクシソウゲイワカバ,0
96,1011803004813,新規,0,2021-10-11,2021-10-11,ＦＵＲＥＸ合同会社,,合同会社,東京都,足立区,舎人４丁目１番１号サンアイガーデン見沼代親水公園５０２号室,,13,121,1210831,,,,,,,2021-10-11,1,,,,,フレックス,0
99,1012703002329,新規,0,2021-10-11,2021-10-11,合同会社フリート,,合同会社,東京都,小平市,上水南町１丁目１６番１３号,,13,211,1870021,,,,,,,2021-10-11,1,,,,,フリート,0
107,1013301048136,新規,0,2021-10-11,2021-10-11,総合美心株式会社,,株式会社,東京都,豊島区,池袋３丁目２７番１７号,,13,116,1710014,,,,,,,2021-10-11,1,,,,,ソウゴウビシン,0
110,1020001143398,新規,0,2021-10-11,2021-10-11,株式会社イーストン,,株式会社,神奈川県,横浜市金沢区,六浦２丁目１９番３号,,14,108,2360031,,,,,,,2021-10-11,1,,,,,イーストン,0
111,1020001143415,新規,0,2021-10-11,2021-10-11,株式会社ｅＢｏａｒｄ,,株式会社,神奈川県,横浜市金沢区,白帆４番地,,14,108,2360007,,,,,,,2021-10-11,1,,,,,イーボード,0
114,1020003020620,新規,0,2021-10-11,2021-10-11,合同会社ｍｉｗａビューティー,,合同会社,神奈川県,横浜市青葉区,青葉台１丁目１８番地２６,,14,117,2270062,,,,,,,2021-10-11,1,,,,,ミワビューティー,0
129,1030001144775,新規,0,2021-10-11,2021-10-11,株式会社おくゆき,,株式会社,埼玉県,さいたま市岩槻区,本町３丁目８番１５号平野ビル２階,,11,110,3390057,,,,,,,2021-10-11,1,,,,,オクユキ,0
130,1030001144783,新規,0,2021-10-11,2021-10-11,株式会社デイジー,,株式会社,埼玉県,川口市,南町２丁目６番２９号,,11,203,3320026,,,,,,,2021-10-11,1,,,,,デイジー,0
144,1040001120528,新規,0,2021-10-11,2021-10-11,株式会社嶋田左官工業,,株式会社,千葉県,旭市,後草６８９番地１,,12,215,2892613,,,,,,,2021-10-11,1,,,,,シマダサカンコウギョウ,0
145,1040001120536,新規,0,2021-10-11,2021-10-11,ＳＴＲ株式会社,,株式会社,千葉県,我孫子市,我孫子２丁目５番シティアＢ棟１０３７,,12,222,2701166,,,,,,,2021-10-11,1,,,,,エスティーアール,0
146,1040001120544,新規,0,2021-10-11,2021-10-11,株式会社末広工業,,株式会社,千葉県,富里市,七栄６５０番地２４６,,12,233,2860221,,,,,,,2021-10-11,1,,,,,スエヒロコウギョウ,0
147,1040001120552,新規,0,2021-10-11,2021-10-11,株式会社ＧＯＲＩＬＬＡ　ＰＡＩＮＴ,,株式会社,千葉県,千葉市稲毛区,小中台町５０１番地稲毛スカイタウン２棟１２０５号,,12,103,2630044,,,,,,,2021-10-11,1,,,,,ゴリラペイント,0
150,1040003018712,新規,0,2021-10-11,2021-10-11,合同会社クレアス,,合同会社,千葉県,松戸市,千駄堀２４３番地,,12,207,2702252,,,,,,,2021-10-11,1,,,,,クレアス,0
152,1040005021367,新規,0,2021-10-11,2021-10-11,一般社団法人ひまわりの家,,その他の設立登記法人,千葉県,富里市,十倉１３０番地６５,,12,233,2860212,,,,,,,2021-10-11,1,,,,,ヒマワリノイエ,0
157,1050005012951,新規,0,2021-10-11,2021-10-11,ルックハイツ取手第１管理組合法人,,その他の設立登記法人,茨城県,取手市,新町２丁目２番１６号,,08,217,3020024,,,,,,,2021-10-11,1,,,,,ルックハイツトリデダイイチ,0
162,1060001034164,新規,0,2021-10-11,2021-10-11,株式会社ひとつ葉,,株式会社,栃木県,宇都宮市,宝木本町１１４８番地２６,,09,201,3200075,,,,,,,2021-10-11,1,,,,,ヒトツバ,0
184,1090001017224,新規,0,2021-10-11,2021-10-11,山梨ＦｒｕｉｔｓＨｉｌｌｓ販売株式会社,,株式会社,山梨県,山梨市,正徳寺４９０番地,,19,205,4050032,,,,,,,2021-10-11,1,,,,,ヤマナシフルーツヒルズハンバイ,0
205,1120001241002,新規,0,2021-10-11,2021-10-11,株式会社Ｓ＆Ｙ,,株式会社,大阪府,大阪市天王寺区,上汐３丁目６番３－８１０号,,27,109,5430002,,,,,,,2021-10-11,1,,,,,エスアンドワイ,0
206,1120001241010,新規,0,2021-10-11,2021-10-11,株式会社Ｓｐｉｒｉｓｔａｒ,,株式会社,大阪府,大阪市北区,曾根崎２丁目８－５お初天神ＥＡＳＴＢＬＤＧ３Ｆ,,27,127,5300057,,,,,,,2021-10-11,1,,,,,スピリスター,0
207,1120001241068,新規,0,2021-10-11,2021-10-11,株式会社プラスデザイン,,株式会社,大阪府,大阪市中央区,上本町西２丁目５番４８－３０３号,,27,128,5420062,,,,,,,2021-10-11,1,,,,,プラスデザイン,0
208,1120001241092,新規,0,2021-10-11,2021-10-11,株式会社ＮＴＴ　ＥＤＸ,,株式会社,大阪府,大阪市北区,中之島６丁目２番２７号,,27,127,5300005,,,,,,,2021-10-11,1,,,,,エヌティティエディックス,0
231,1130005016291,新規,0,2021-10-11,2021-10-11,医療法人ＢＥＡＣＨ会,,その他の設立登記法人,京都府,福知山市,駅南町３丁目３９番地,,26,201,6200940,,,,,,,2021-10-11,1,,,,,ビーチカイ,0
240,1140001123289,新規,0,2021-10-11,2021-10-11,ラニカイホームデザイン株式会社,,株式会社,兵庫県,三木市,自由が丘本町１丁目１５７番地,,28,215,6730424,,,,,,,2021-10-11,1,,,,,ラニカイホームデザイン,0
241,1140001123355,新規,0,2021-10-11,2021-10-11,日本ビーム株式会社,,株式会社,兵庫県,姫路市,飾磨区上野田３丁目２５番地,,28,201,6728043,,,,,,,2021-10-11,1,,,,,ニホンビーム,0
242,1140001123396,新規,0,2021-10-11,2021-10-11,松井金網工事株式会社,,株式会社,兵庫県,西宮市,浜甲子園３丁目５番３号,,28,204,6638154,,,,,,,2021-10-11,1,,,,,マツイカナアミコウジ,0
243,1140001123405,新規,0,2021-10-11,2021-10-11,株式会社ナノマーレ精機,,株式会社,兵庫県,川西市,けやき坂２丁目７０番地の１５,,28,217,6660145,,,,,,,2021-10-11,1,,,,,ナノマーレセイキ,0
245,1140003016805,新規,0,2021-10-11,2021-10-11,エンムス合同会社,,合同会社,兵庫県,宝塚市,中筋山手２丁目９番１９－２号,,28,214,6650875,,,,,,,2021-10-11,1,,,,,エンムス,0
246,1140003016846,新規,0,2021-10-11,2021-10-11,ＲｅＣ合同会社,,合同会社,兵庫県,豊岡市,中央町７番２８号,,28,209,6680033,,,,,,,2021-10-11,1,,,,,レック,0
254,1180001148142,新規,0,2021-10-11,2021-10-11,株式会社オーサム,,株式会社,愛知県,春日井市,中央通２丁目６３番地４,,23,206,4860825,,,,,,,2021-10-11,1,,,,,オーサム,0
259,1180005019471,新規,0,2021-10-11,2021-10-11,一般社団法人メディカルヒューマンリソース協会,,その他の設立登記法人,愛知県,名古屋市中村区,名駅３丁目２５番９号堀内ビル５階,,23,105,4500002,,,,,,,2021-10-11,1,,,,,メディカルヒューマンリソースキョウカイ,0
269,1190001028764,新規,0,2021-10-11,2021-10-11,株式会社ＭＭＪ,,株式会社,三重県,名張市,希央台５番町２７番地,,24,208,5180775,,,,,,,2021-10-11,1,,,,,エムエムジェー,0
271,1200001039280,新規,0,2021-10-11,2021-10-11,Ｓｑｕａｒｅ株式会社,,株式会社,岐阜県,羽島郡岐南町,上印食８丁目５８番地の１,,21,302,5016001,,,,,,,2021-10-11,1,,,,,スクエア,0
281,1230001019016,新規,0,2021-10-11,2021-10-11,株式会社４１システム,,株式会社,富山県,富山市,高内１２９番地,,16,201,9392254,,,,,,,2021-10-11,1,,,,,ヨンイチシステム,0
290,1260001036082,新規,0,2021-10-11,2021-10-11,鳴美国際商事株式会社,,株式会社,岡山県,岡山市北区,七日市西町３番４３号,,33,101,7000851,,,,,,,2021-10-11,1,,,,,ナルミコクサイショウジ,0
291,1260001036090,新規,0,2021-10-11,2021-10-11,シルヴァバレト株式会社,,株式会社,岡山県,倉敷市,茶屋町早沖１８３１－１,,33,202,7101102,,,,,,,2021-10-11,1,,,,,シルヴァバレト,0
298,1290001094870,新規,0,2021-10-11,2021-10-11,株式会社ピースペース,,株式会社,福岡県,福岡市博多区,上牟田１丁目３番１３号,,40,132,8120006,,,,,,,2021-10-11,1,,,,,ピースペース,0
299,1290001094904,新規,0,2021-10-11,2021-10-11,株式会社ｚｅｒｏ　ｓｔｙｌｅ,,株式会社,福岡県,大牟田市,通町２丁目１３番地２,,40,202,8360805,,,,,,,2021-10-11,1,,,,,ゼロスタイル,0
300,1290001094937,新規,0,2021-10-11,2021-10-11,株式会社ＦＩＳ,,株式会社,福岡県,福岡市中央区,小笹５丁目６番１０－５０３号,,40,133,8100033,,,,,,,2021-10-11,1,,,,,フィス,0
301,1290001094945,新規,0,2021-10-11,2021-10-11,株式会社山口電設,,株式会社,福岡県,糸島市,高田３丁目５番１０号,,40,230,8191102,,,,,,,2021-10-11,1,,,,,ヤマグチデンセツ,0
302,1290001094961,新規,0,2021-10-11,2021-10-11,株式会社ＤｉＳＣＡＰＥ,,株式会社,福岡県,福岡市中央区,大手門２丁目７番１３号,,40,133,8100074,,,,,,,2021-10-11,1,,,,,ディースケイプ,0
306,1290003011659,新規,0,2021-10-11,2021-10-11,Ｋオフィス合同会社,,合同会社,福岡県,小郡市,小郡４１８番地１Ｇ－５０３,,40,216,8380141,,,,,,,2021-10-11,1,,,,,ケイオフィス,0
307,1290003011691,新規,0,2021-10-11,2021-10-11,合同会社道ＲＯＡＤ,,合同会社,福岡県,糟屋郡須惠町,大字須恵３７７番地１７７,,40,344,8112100,,,,,,,2021-10-11,1,,,,,ミチロード,0
313,1300003001732,新規,0,2021-10-11,2021-10-11,大崎マネジメント合同会社,,合同会社,佐賀県,伊万里市,大坪町乙１８４８番地２２,,41,205,8480022,,,,,,,2021-10-11,1,,,,,オオサキマネジメント,0
321,1320003003628,新規,0,2021-10-11,2021-10-11,合同会社Ｋｅｙｔａｉｌ,,合同会社,大分県,別府市,光町１１番８号,,44,202,8740930,,,,,,,2021-10-11,1,,,,,キーテイル,0
329,1340005009349,新規,0,2021-10-11,2021-10-11,司法書士法人いわいばら事務所,,その他の設立登記法人,鹿児島県,鹿屋市,新川町８３３番地１,,46,203,8930015,,,,,,,2021-10-11,1,,,,,イワイバラジムショ,0
334,1360001029480,新規,0,2021-10-11,2021-10-11,株式会社山原よいこ社,,株式会社,沖縄県,名護市,字屋部３０５番地８,,47,209,9050007,,,,,,,2021-10-11,1,,,,,ヤンバルヨイコシャ,0
335,1360001029489,新規,0,2021-10-11,2021-10-11,株式会社さわやか建設,,株式会社,沖縄県,那覇市,金城２丁目３番６号,,47,201,9010155,,,,,,,2021-10-11,1,,,,,サワヤカケンセツ,0
336,1360003011486,新規,0,2021-10-11,2021-10-11,合同会社バージョン・アップ,,合同会社,沖縄県,沖縄市,大里３丁目２２番５号ベルゾーネ東４０３,,47,211,9042163,,,,,,,2021-10-11,1,,,,,,0
338,1370001047705,新規,0,2021-10-11,2021-10-11,株式会社タザワ,,株式会社,宮城県,仙台市太白区,四郎丸字吹上６０番地の２,,04,104,9811101,,,,,,,2021-10-11,1,,,,,タザワ,0
340,1370003005438,新規,0,2021-10-11,2021-10-11,合同会社Ｎ－ＧＡＴＥ　ｔｅｃ,,合同会社,宮城県,仙台市若林区,河原町２丁目４番５－３０２号,,04,103,9840816,,,,,,,2021-10-11,1,,,,,エヌゲートテック,0
343,1390001016609,新規,0,2021-10-11,2021-10-11,株式会社スマートエックス,,株式会社,山形県,山形市,大字漆山字二ツ段２１３１番地１,,06,201,9902161,,,,,,,2021-10-11,1,,,,,スマートエックス,0
358,1460305001968,新規,0,2021-10-11,2021-10-11,行政書士法人めぐみ事務所,,その他の設立登記法人,北海道,網走市,北八条西５丁目１番地,,01,211,0930078,,,,,,,2021-10-11,1,,,,,メグミジムショ,0
375,2010001221567,新規,0,2021-10-11,2021-10-11,株式会社梓総合研究所,,株式会社,東京都,千代田区,大手町１丁目６番１号,,13,101,1000004,,,,,,,2021-10-11,1,,,,,アズサソウゴウケンキュウジョ,0
376,2010001221633,新規,0,2021-10-11,2021-10-11,株式会社Ｌａ　Ｖｉｃｔｏｉｒｅ,,株式会社,東京都,千代田区,飯田橋１丁目１２－６福岡ビル３階,,13,101,1020072,,,,,,,2021-10-11,1,,,,,ラヴィクトワール,0
380,2010003035949,新規,0,2021-10-11,2021-10-11,合同会社鶴岡印刷,,合同会社,東京都,千代田区,九段南１丁目５番６号りそな九段ビル,,13,101,1020074,,,,,,,2021-10-11,1,,,,,ツルオカインサツ,0
381,2010003036006,新規,0,2021-10-11,2021-10-11,ジョブパートナー合同会社,,合同会社,東京都,中央区,八丁堀４丁目１１番地７号アライビルディング３階,,13,102,1040032,,,,,,,2021-10-11,1,,,,,ジョブパートナー,0
390,2010401163104,新規,0,2021-10-11,2021-10-11,ＥｘｔｒａＨｏｐ　Ｎｅｔｗｏｒｋｓ　Ｊａｐａｎ株式会社,,株式会社,東京都,港区,六本木１丁目９番１０号アークヒルズ仙石山森タワー２８階ベーカー＆マッケンジー法律事務所（外国法共同事業）内,,13,103,1060032,,,,,,,2021-10-11,1,,,,,エクストラホップネットワークスジャパン,0
419,2011001143264,新規,0,2021-10-11,2021-10-11,株式会社Ｍａｌｔ,,株式会社,東京都,渋谷区,神南１丁目１２番１４号渋谷宮田ビル,,13,113,1500041,,,,,,,2021-10-11,1,,,,,モルト,0
425,2011101096511,新規,0,2021-10-11,2021-10-11,株式会社ｍｏｍｅｎｔｓ,,株式会社,東京都,新宿区,西新宿８丁目１７番１号,,13,104,1600023,,,,,,,2021-10-11,1,,,,,モーメンツ,0
433,2011503004922,新規,0,2021-10-11,2021-10-11,Ｎｉｃｅ　Ｔｒａｄｉｎｇ合同会社,,合同会社,東京都,北区,上十条３丁目２５番１８－３０１号アーバネイトハウス,,13,117,1140034,,,,,,,2021-10-11,1,,,,,ナイストレーディング,0
436,2011801039810,新規,0,2021-10-11,2021-10-11,株式会社春日,,株式会社,東京都,葛飾区,立石７丁目３１番３号,,13,122,1240012,,,,,,,2021-10-11,1,,,,,カスガ,0
443,2012801021122,新規,0,2021-10-11,2021-10-11,株式会社増田屋酒店,,株式会社,東京都,立川市,曙町１丁目３６番３３号,00124517,13,202,1900012,,,,,,,2021-10-11,1,,,,,マスダヤサケテン,0
444,2012801021163,新規,0,2021-10-11,2021-10-11,株式会社Ｔｏｉｒｏ,,株式会社,東京都,日野市,神明１丁目１４番地の７ライオンズマンション日野１０５,,13,212,1910016,,,,,,,2021-10-11,1,,,,,トイロ,0
446,2012803002624,新規,0,2021-10-11,2021-10-11,ワイズマン・アンド・テクノロジーズ合同会社,,合同会社,東京都,国分寺市,高木町２丁目６番地１１ロワジール２０２,,13,214,1850036,,,,,,,2021-10-11,1,,,,,ワイズマンアンドテクノロジーズ,0
461,2020001143380,新規,0,2021-10-11,2021-10-11,株式会社Ｓ・Ｃ・Ｒ,,株式会社,神奈川県,横浜市泉区,岡津町１７１５番地３メルベーユ弥生台Ａ－３号,,14,116,2450003,,,,,,,2021-10-11,1,,,,,エスシーアール,0
462,2020001143397,新規,0,2021-10-11,2021-10-11,株式会社ジェイエヌティ,,株式会社,神奈川県,横浜市神奈川区,鶴屋町３丁目３２－１４－１００２,,14,102,2210835,,,,,,,2021-10-11,1,,,,,ジェイエヌティ,0
463,2020001143422,新規,0,2021-10-11,2021-10-11,株式会社川崎商事,,株式会社,神奈川県,川崎市中原区,西加瀬５番１－３１４号,,14,133,2110024,,,,,,,2021-10-11,1,,,,,カワサキショウジ,0
486,2030001144782,新規,0,2021-10-11,2021-10-11,株式会社ミラー,,株式会社,埼玉県,朝霞市,根岸台７丁目１番３７号コーポ八代２０２号室,,11,227,3510005,,,,,,,2021-10-11,1,,,,,ミラー,0
487,2030003018101,新規,0,2021-10-11,2021-10-11,合同会社やま,,合同会社,埼玉県,川口市,大字安行藤八５２９番地の２,,11,203,3340051,,,,,,,2021-10-11,1,,,,,ヤマ,0
496,2040001120535,新規,0,2021-10-11,2021-10-11,株式会社華興商行,,株式会社,千葉県,銚子市,芦崎町１５０６番地,00124519,12,202,2880861,,,,,,,2021-10-11,1,,,,,カコウショウコウ,0
497,2040001120543,新規,0,2021-10-11,2021-10-11,株式会社Ｒｅａｌ　ｉｍａｇｉｎａｔｉｏｎ,,株式会社,千葉県,千葉市若葉区,大宮町３８３１番地１,,12,104,2640016,,,,,,,2021-10-11,1,,,,,リアルイマジネーション,0
507,2050001049971,新規,0,2021-10-11,2021-10-11,株式会社Ｃｏｍｐａｓｓ,,株式会社,茨城県,結城市,富士見町３丁目３番地１２,,08,207,3070003,,,,,,,2021-10-11,1,,,,,コンパス,0
509,2060001034163,新規,0,2021-10-11,2021-10-11,株式会社市川屋,,株式会社,栃木県,那須塩原市,橋本町１番１号,,09,213,3250043,,,,,,,2021-10-11,1,,,,,イチカワヤ,0
512,2060005009905,新規,0,2021-10-11,2021-10-11,一般社団法人囲碁の聖地日光協議会,,その他の設立登記法人,栃木県,日光市,安川町６番４８号,,09,206,3211432,,,,,,,2021-10-11,1,,,,,イゴノセイチニッコウキョウギカイ,0
516,2070001038519,新規,0,2021-10-11,2021-10-11,株式会社ＧＯＤ－ＤＳ,,株式会社,群馬県,高崎市,菅谷町１２７３番地９,,10,202,3703522,,,,,,,2021-10-11,1,,,,,ゴッドディーエス,0
517,2070001038527,新規,0,2021-10-11,2021-10-11,株式会社ＯＳＴ企画社,,株式会社,群馬県,高崎市,下之城町２２番地２,,10,202,3700854,,,,,,,2021-10-11,1,,,,,オーエスティーキカクシャ,0
537,2110001036105,新規,0,2021-10-11,2021-10-11,株式会社ビズリンクス,,株式会社,新潟県,新潟市中央区,堀之内南３丁目１番２１号,,15,103,9500982,,,,,,,2021-10-11,1,,,,,ビズリンクス,0
549,2120001241059,新規,0,2021-10-11,2021-10-11,株式会社Ｅｎｄｕｒｅ,,株式会社,大阪府,守口市,滝井元町２丁目５番７号,,27,209,5700065,,,,,,,2021-10-11,1,,,,,エンダー,0
557,2120101064459,新規,0,2021-10-11,2021-10-11,株式会社ＧＡＬＬＡＮＴ,,株式会社,大阪府,堺市西区,鳳中町３丁６６番地３,,27,144,5938327,,,,,,,2021-10-11,1,,,,,ガラント,0
560,2120901045039,新規,0,2021-10-11,2021-10-11,株式会社ＳＫコーポレーション,,株式会社,大阪府,茨木市,東野々宮町１２－４,,27,211,5670838,,,,,,,2021-10-11,1,,,,,エスケーコーポレーション,0
561,2120903003861,新規,0,2021-10-11,2021-10-11,合同会社リバーウェスト,,合同会社,大阪府,箕面市,粟生間谷西２丁目４－６－５０２号,,27,220,5620023,,,,,,,2021-10-11,1,,,,,リバーウェスト,0
576,2140001123288,新規,0,2021-10-11,2021-10-11,株式会社谷川工務店,,株式会社,兵庫県,明石市,魚住町清水１１３－１０,,28,203,6740074,,,,,,,2021-10-11,1,,,,,タニガワコウムテン,0
577,2140001123305,新規,0,2021-10-11,2021-10-11,オーエスオートグラス株式会社,,株式会社,兵庫県,神戸市西区,竜が岡５丁目５番地の８,,28,111,6512412,,,,,,,2021-10-11,1,,,,,オーエスオートグラス,0
578,2140001123346,新規,0,2021-10-11,2021-10-11,ＭＩＣ株式会社,,株式会社,兵庫県,川西市,丸山台３丁目１－２１,,28,217,6660152,,,,,,,2021-10-11,1,,,,,エムアイシー,0
579,2140001123395,新規,0,2021-10-11,2021-10-11,ＵＰＲＩＳＥ　ＣＲＥＡＴＩＶＥ株式会社,,株式会社,兵庫県,神戸市東灘区,住吉東町２丁目３番３３－１４０１号,,28,101,6580052,,,,,,,2021-10-11,1,,,,,アップライズクリエイティブ,0
588,2140003016845,新規,0,2021-10-11,2021-10-11,天水合同会社,,合同会社,兵庫県,神戸市兵庫区,五宮町１９番９－２０５号,,28,105,6520007,,,,,,,2021-10-11,1,,,,,テンスイ,0
590,2150001025005,新規,0,2021-10-11,2021-10-11,株式会社ウェルネスプラス,,株式会社,奈良県,奈良市,三条宮前町１－３６インフィニティ３０５,,29,201,6308121,,,,,,,2021-10-11,1,,,,,ウェルネスプラス,0
604,2180001148091,新規,0,2021-10-11,2021-10-11,株式会社マイミー,,株式会社,愛知県,一宮市,公園通３丁目１８番地,,23,203,4910842,,,,,,,2021-10-11,1,,,,,マイミー,0
621,2230001019015,新規,0,2021-10-11,2021-10-11,株式会社ＴＡＴＳＵＭＩ,,株式会社,富山県,富山市,新富町２丁目５番１７号ＳＳビル２階,,16,201,9300002,,,,,,,2021-10-11,1,,,,,タツミ,0
626,2240003005318,新規,0,2021-10-11,2021-10-11,合同会社あおぞら,,合同会社,広島県,広島市西区,楠木町１丁目４番１３－７０２号,,34,104,7330002,,,,,,,2021-10-11,1,,,,,アオゾラ,0
630,2250003002917,新規,0,2021-10-11,2021-10-11,Ｅｐｉｃｕｐ　Ｇｌｏｂａｌ合同会社,,合同会社,山口県,山口市,小郡令和１丁目１番１号ＫＤＤＩ維新ホール１階,,35,203,7540041,,,,,,,2021-10-11,1,,,,,エピックアップグローバル,0
634,2260001036008,新規,0,2021-10-11,2021-10-11,株式会社オーエスエー,,株式会社,岡山県,倉敷市,水島西常磐町８番２号,,33,202,7100000,,,,,,,2021-10-11,1,,,,,オーエスエー,0
635,2260001036073,新規,0,2021-10-11,2021-10-11,株式会社フジサン,,株式会社,岡山県,岡山市南区,若葉町２６番９号,,33,104,7028047,,,,,,,2021-10-11,1,,,,,フジサン,0
636,2260001036081,新規,0,2021-10-11,2021-10-11,株式会社祐光,,株式会社,岡山県,岡山市中区,藤原西町１丁目３番４８－３号,,33,102,7038244,,,,,,,2021-10-11,1,,,,,ユウコウ,0
642,2290001094878,新規,0,2021-10-11,2021-10-11,株式会社古賀石油配送,,株式会社,福岡県,柳川市,大和町明野１２１６番地,,40,207,8390251,,,,,,,2021-10-11,1,,,,,コガセキユハイソウ,0
643,2290001094886,新規,0,2021-10-11,2021-10-11,株式会社松田工業,,株式会社,福岡県,福岡市中央区,大手門２丁目３番７号,,40,133,8100074,,,,,,,2021-10-11,1,,,,,マツダコウギョウ,0
644,2290001094944,新規,0,2021-10-11,2021-10-11,株式会社ＹＡＪＩＭＡ技研,,株式会社,福岡県,筑紫野市,塔原東４丁目４番１８号Ｂ－１０２,,40,217,8180059,,,,,,,2021-10-11,1,,,,,ヤジマギケン,0
645,2290001094952,新規,0,2021-10-11,2021-10-11,株式会社デンタルファクトリーモリ,,株式会社,福岡県,八女郡広川町,大字日吉５２０番地６３,,40,544,8340111,,,,,,,2021-10-11,1,,,,,デンタルファクトリーモリ,0
669,2370001047704,新規,0,2021-10-11,2021-10-11,株式会社Ｎ＆Ｉ　ｓｔａｇｅ,,株式会社,宮城県,仙台市青葉区,台原４丁目１３番１号,,04,101,9810911,,,,,,,2021-10-11,1,,,,,エヌアイステージ,0
672,2370003005429,新規,0,2021-10-11,2021-10-11,合同会社ケーライン,,合同会社,宮城県,石巻市,渡波町２丁目１番２９号,,04,202,9862121,,,,,,,2021-10-11,1,,,,,ケーライン,0
673,2380003005031,新規,0,2021-10-11,2021-10-11,独楽合同会社,,合同会社,福島県,東白川郡矢祭町,大字下関河内字天神前５８独楽矢祭,,07,482,9635113,,,,,,,2021-10-11,1,,,,,ドクラク,0
676,2420001017619,新規,0,2021-10-11,2021-10-11,株式会社ＭＮＡＴＵＲＡ,,株式会社,青森県,八戸市,長根３丁目５－１６,,02,203,0310077,,,,,,,2021-10-11,1,,,,,エムナチュラ,0
686,2430001085152,新規,0,2021-10-11,2021-10-11,トランスコンサルティング株式会社,,株式会社,北海道,札幌市豊平区,平岸二条１０丁目２番２０－３１１号,,01,105,0620932,,,,,,,2021-10-11,1,,,,,トランスコンサルティング,0
688,2430003013235,新規,0,2021-10-11,2021-10-11,合同会社ＫＥＮ　Ｒ＆Ｉ,,合同会社,北海道,札幌市中央区,北三条西２５丁目２番１－１１０３号,,01,101,0640823,,,,,,,2021-10-11,1,,,,,ケンアールアンドアイ,0
698,3010001221509,新規,0,2021-10-11,2021-10-11,株式会社Ｂｅｙｏｎｔｈ,,株式会社,東京都,千代田区,神田松永町１３番地ＶＯＲＴ秋葉原ＩＩ,00124514,13,101,1010023,,,,,,,2021-10-11,1,,,,,ビヨンズ,0
699,3010001221590,新規,0,2021-10-11,2021-10-11,株式会社たまたま,,株式会社,東京都,中央区,銀座６丁目１３番地１６号,,13,102,1040061,,,,,,,2021-10-11,1,,,,,タマタマ,0
700,3010001221665,新規,0,2021-10-11,2021-10-11,株式会社ＳＨＵＭＡ,,株式会社,東京都,中央区,銀座１丁目２２番１１号銀座大竹ビジデンス２階,,13,102,1040061,,,,,,,2021-10-11,1,,,,,シューマ,0
704,3010003035997,新規,0,2021-10-11,2021-10-11,合同会社シルクとコットン,,合同会社,東京都,千代田区,神田錦町３丁目８番地ランドステージお茶の水５０１号,,13,101,1010054,,,,,,,2021-10-11,1,,,,,シルクトコットン,0
708,3010401162996,新規,0,2021-10-11,2021-10-11,キャピタルパートナー株式会社,,株式会社,東京都,港区,六本木７丁目１５番７号,,13,103,1060032,,,,,,,2021-10-11,1,,,,,キャピタルパートナー,0
709,3010401163103,新規,0,2021-10-11,2021-10-11,Ａｕｔｈｅｎｓｅ　Ｃｏｎｓｕｌｔｉｎｇ株式会社,,株式会社,東京都,港区,赤坂９丁目７番１号ミッドタウン・タワー２２階,,13,103,1070052,,,,,,,2021-10-11,1,,,,,オーセンスコンサルティング,0
710,3010403026258,新規,0,2021-10-11,2021-10-11,クレバーファースト合同会社,,合同会社,東京都,港区,六本木４丁目３番１１号六本木ユニハウス２２３,,13,103,1060032,,,,,,,2021-10-11,1,,,,,クレバーファースト,0
711,3010403026266,新規,0,2021-10-11,2021-10-11,ナンバーテン合同会社,,合同会社,東京都,港区,三田１丁目３番２４号サンウッド三田パークサイドタワー２００２,,13,103,1080073,,,,,,,2021-10-11,1,,,,,ナンバーテン,0
712,3010403026274,新規,0,2021-10-11,2021-10-11,ゲーミファイ合同会社,,合同会社,東京都,港区,南青山２丁目２番１５号,,13,103,1070062,,,,,,,2021-10-11,1,,,,,ゲーミファイ,0
713,3010405020267,新規,0,2021-10-11,2021-10-11,弁護士法人森田匡貴法律事務所,,その他の設立登記法人,東京都,港区,赤坂２丁目１４番５号Ｄａｉｗａ赤坂ビル７階,,13,103,1070052,,,,,,,2021-10-11,1,,,,,モリタマサキホウリツジムショ,0
720,3010603009186,新規,0,2021-10-11,2021-10-11,Ｍ＆Ｊ合同会社,,合同会社,東京都,墨田区,立花１丁目２番８号,,13,107,1310043,,,,,,,2021-10-11,1,,,,,エムアンドジェイ,0
731,3010903006866,新規,0,2021-10-11,2021-10-11,合同会社ｍｋｌａｂ．ｌｔｄ,,合同会社,東京都,世田谷区,野沢３丁目１５－１－５０６,,13,112,1540003,,,,,,,2021-10-11,1,,,,,,0
734,3011001143387,新規,0,2021-10-11,2021-10-11,ＡｉｍｙＴｅｃｈ株式会社,,株式会社,東京都,渋谷区,渋谷２丁目１９番１５号宮益坂ビルディング６０９,,13,113,1500002,,,,,,,2021-10-11,1,,,,,エイミーテック,0
735,3011003013489,新規,0,2021-10-11,2021-10-11,Ｙｏｈコーポレーション合同会社,,合同会社,東京都,渋谷区,渋谷２丁目１０番１５号,,13,113,1500002,,,,,,,2021-10-11,1,,,,,ヨウコーポレーション,0
739,3011101096477,新規,0,2021-10-11,2021-10-11,株式会社照,,株式会社,東京都,新宿区,北新宿２丁目９番９号,,13,104,1690074,,,,,,,2021-10-11,1,,,,,ショウ,0
740,3011101096527,新規,0,2021-10-11,2021-10-11,株式会社アクチュアリテ,,株式会社,東京都,新宿区,新宿２丁目１３番１０号武蔵野ビル５Ｆ,,13,104,1600022,,,,,,,2021-10-11,1,,,,,アクチュアリテ,0
741,3011103011070,新規,0,2021-10-11,2021-10-11,合同会社Ｂｅ　Ｒａｉｎｂｏｗ,,合同会社,東京都,新宿区,下落合４丁目４番８号グランジュール目白西５０３,,13,104,1610033,,,,,,,2021-10-11,1,,,,,ビーレインボー,0
742,3011201023315,新規,0,2021-10-11,2021-10-11,電気屋タカノ株式会社,,株式会社,東京都,中野区,野方３丁目１５番８号,,13,114,1650027,,,,,,,2021-10-11,1,,,,,デンキヤタカノ,0
746,3011503004921,新規,0,2021-10-11,2021-10-11,Ｗｉｎｎｉｎｇ合同会社,,合同会社,東京都,北区,田端１丁目７－１２,,13,117,1140014,,,,,,,2021-10-11,1,,,,,ウイニング,0
752,3011701024770,新規,0,2021-10-11,2021-10-11,宝信株式会社,,株式会社,東京都,江戸川区,松島３丁目２５番２１号,,13,123,1320031,,,,,,,2021-10-11,1,,,,,ホウシン,0
756,3011803004828,新規,0,2021-10-11,2021-10-11,合同会社ＮＫ玩具,,合同会社,東京都,葛飾区,水元３丁目７番２２号,,13,122,1250032,,,,,,,2021-10-11,1,,,,,エヌケイガング,0
759,3012703002327,新規,0,2021-10-11,2021-10-11,合同会社７ｉｒｏ,,合同会社,東京都,小平市,花小金井３丁目３０番２３－４号,,13,211,1870002,,,,,,,2021-10-11,1,,,,,ナナイロ,0
761,3012801021162,新規,0,2021-10-11,2021-10-11,株式会社Ｈｉ５,,株式会社,東京都,日野市,南平２丁目１０番地の９,,13,212,1910041,,,,,,,2021-10-11,1,,,,,ハイファイブ,0
783,3020001143371,新規,0,2021-10-11,2021-10-11,株式会社Ｍ＆Ｌ,,株式会社,神奈川県,横浜市鶴見区,岸谷４丁目２４番６号,,14,101,2300078,,,,,,,2021-10-11,1,,,,,エムアンドエル,0
784,3020001143388,新規,0,2021-10-11,2021-10-11,株式会社クローバリー,,株式会社,神奈川県,川崎市麻生区,高石４丁目５番３２号,,14,137,2150003,,,,,,,2021-10-11,1,,,,,クローバリー,0
785,3020001143405,新規,0,2021-10-11,2021-10-11,Ｉｎａｎｏ　Ｈｏｌｄｉｎｇｓ株式会社,,株式会社,神奈川県,横浜市金沢区,瀬戸１７番３５号,,14,108,2360027,,,,,,,2021-10-11,1,,,,,イナノホールディングス,0
796,3020003020610,新規,0,2021-10-11,2021-10-11,ＰＯＷＥＲＳ合同会社,,合同会社,神奈川県,川崎市幸区,北加瀬１丁目１５番１１－１号,,14,132,2120057,,,,,,,2021-10-11,1,,,,,パワーズ,0
797,3020003020619,新規,0,2021-10-11,2021-10-11,合同会社ＢＳヤマキ,,合同会社,神奈川県,川崎市宮前区,菅生２丁目２３番２０号,,14,136,2160015,,,,,,,2021-10-11,1,,,,,ビーエスヤマキ,0
798,3020003020627,新規,0,2021-10-11,2021-10-11,合同会社サードケア,,合同会社,神奈川県,横浜市港北区,日吉本町１丁目１３番２２号第一ルシェール２０１,,14,109,2230062,,,,,,,2021-10-11,1,,,,,サードケア,0
817,3030003018109,新規,0,2021-10-11,2021-10-11,合同会社ＩＫＵＯＮＫＡＩ,,合同会社,埼玉県,越谷市,宮本町２丁目２８３番地５,,11,222,3430806,,,,,,,2021-10-11,1,,,,,イクオンカイ,0
825,3040001120468,新規,0,2021-10-11,2021-10-11,株式会社ディモルト,,株式会社,千葉県,千葉市中央区,出洲港１番３９号レクシオ千葉マリンゲート６０６号,,12,101,2600023,,,,,,,2021-10-11,1,,,,,ディモルト,0
826,3040001120476,新規,0,2021-10-11,2021-10-11,株式会社三協,,株式会社,千葉県,船橋市,東船橋３丁目４５番６棟６０５号,,12,204,2730002,,,,,,,2021-10-11,1,,,,,サンキョウ,0
827,3040001120518,新規,0,2021-10-11,2021-10-11,株式会社オーラルヘルスサポート,,株式会社,千葉県,浦安市,舞浜３丁目２２番１０号,,12,227,2790031,,,,,,,2021-10-11,1,,,,,オーラルヘルスサポート,0
828,3040001120526,新規,0,2021-10-11,2021-10-11,名洋株式会社,,株式会社,千葉県,習志野市,袖ケ浦１丁目２番４－２号,,12,216,2750021,,,,,,,2021-10-11,1,,,,,メイヨウ,0
829,3040001120534,新規,0,2021-10-11,2021-10-11,株式会社ＩＯＳ,,株式会社,千葉県,銚子市,高田町１丁目６７７番地の１,,12,202,2880862,,,,,,,2021-10-11,1,,,,,アイオーエス,0
834,3040003018693,新規,0,2021-10-11,2021-10-11,合同会社ＥＬＴＡＥＲＳ,,合同会社,千葉県,浦安市,日の出６丁目１９番８号,,12,227,2790013,,,,,,,2021-10-11,1,,,,,エルターズ,0
835,3040003018710,新規,0,2021-10-11,2021-10-11,葬儀のパートナーズ合同会社,,合同会社,千葉県,船橋市,南三咲２丁目１０番３２号,,12,204,2740813,,,,,,,2021-10-11,1,,,,,ソウギノパートバーズ,0
836,3040003018727,新規,0,2021-10-11,2021-10-11,合同会社Ｈ．Ｑ,,合同会社,千葉県,市川市,南行徳１丁目１５番１号サンハイツ渡辺１０２,,12,203,2720138,,,,,,,2021-10-11,1,,,,,ハイクオリティ,0
843,3060001034179,新規,0,2021-10-11,2021-10-11,株式会社ＡＣファースト２１,,株式会社,栃木県,足利市,利保町１丁目４６番地１１,,09,202,3260006,,,,,,,2021-10-11,1,,,,,エーシーファーストツーワン,0
846,3070001038526,新規,0,2021-10-11,2021-10-11,株式会社ＫＥＩＫＡ,,株式会社,群馬県,高崎市,筑縄町５７番地１５,,10,202,3700075,,,,,,,2021-10-11,1,,,,,ケイカ,0
865,3110003004595,新規,0,2021-10-11,2021-10-11,３２５合同会社,,合同会社,新潟県,新潟市西区,寺尾前通１丁目１０番地１０,,15,107,9502053,,,,,,,2021-10-11,1,,,,,ミツコ,0
870,3120001240992,新規,0,2021-10-11,2021-10-11,株式会社ワークフィールド,,株式会社,大阪府,枚方市,大字穂谷４５７７番３４,,27,210,5730114,,,,,,,2021-10-11,1,,,,,ワークフィールド,0
871,3120001241041,新規,0,2021-10-11,2021-10-11,株式会社アジアンオーキッド,,株式会社,大阪府,大阪市淀川区,塚本２丁目２６番１１号,,27,123,5320026,,,,,,,2021-10-11,1,,,,,アジアンオーキッド,0
874,3120003020393,新規,0,2021-10-11,2021-10-11,合同会社Ｏｌｉｈｉａｉｎａ,,合同会社,大阪府,大阪市西淀川区,千舟２丁目４番１１号２Ｆ,,27,113,5550013,,,,,,,2021-10-11,1,,,,,オリヒアイナ,0
877,3120005022537,新規,0,2021-10-11,2021-10-11,弁護士法人山本特許法律事務所,,その他の設立登記法人,大阪府,大阪市北区,大深町３－１グランフロント大阪タワーＣ,,27,127,5300011,,,,,,,2021-10-11,1,,,,,ヤマモトトッキョホウリツジムショ,0
882,3120101064458,新規,0,2021-10-11,2021-10-11,株式会社エムビーフーズ,,株式会社,大阪府,泉佐野市,日根野３９２６,,27,213,5980021,,,,,,,2021-10-11,1,,,,,エムビーフーズ,0
883,3120101064466,新規,0,2021-10-11,2021-10-11,株式会社井上工務店,,株式会社,大阪府,羽曳野市,伊賀２丁目１３番１６号,,27,222,5830876,,,,,,,2021-10-11,1,,,,,イノウエコウムテン,0
885,3120103004387,新規,0,2021-10-11,2021-10-11,合同会社とりたん,,合同会社,大阪府,阪南市,桃の木台３丁目２番地の６２,,27,232,5990236,,,,,,,2021-10-11,1,,,,,トリタン,0
888,3120905006234,新規,0,2021-10-11,2021-10-11,ＮＰＯ法人ＳＰＯＲＴＳ　ＵＮＩＴＥＤ　ＩＫＥＤＡ,,その他の設立登記法人,大阪府,池田市,新町１０番８号植村ビル１Ｆ,,27,204,5630050,,,,,,,2021-10-11,1,,,,,エヌピーオースポーツユナイテッドイケダ,0
905,3140001123329,新規,0,2021-10-11,2021-10-11,株式会社柴原自動車,,株式会社,兵庫県,たつの市,誉田町上沖７２番地５,,28,229,6794139,,,,,,,2021-10-11,1,,,,,シバハラジドウシャ,0
906,3140001123394,新規,0,2021-10-11,2021-10-11,株式会社ＴＲＳ,,株式会社,兵庫県,神戸市西区,玉津町出合１９３番地の６,,28,111,6512137,,,,,,,2021-10-11,1,,,,,ティーアールエス,0
907,3140001123444,新規,0,2021-10-11,2021-10-11,株式会社ＳＦ,,株式会社,兵庫県,明石市,樽屋町１２番１２号,,28,203,6730898,,,,,,,2021-10-11,1,,,,,エスエフ,0
931,3180001148132,新規,0,2021-10-11,2021-10-11,渡部工業株式会社,,株式会社,愛知県,あま市,篠田西出７３番地Ａ棟,,23,237,4901211,,,,,,,2021-10-11,1,,,,,ワタナベコウギョウ,0
932,3180001148157,新規,0,2021-10-11,2021-10-11,株式会社ライズビーチ,,株式会社,愛知県,名古屋市中区,松原２丁目２０番６号,,23,106,4600017,,,,,,,2021-10-11,1,,,,,ライズビーチ,0
933,3180001148207,新規,0,2021-10-11,2021-10-11,株式会社ＴＯＭＡＴＯ,,株式会社,愛知県,名古屋市中区,栄１丁目３０番１５号,,23,106,4600008,,,,,,,2021-10-11,1,,,,,トマト,0
934,3180001148215,新規,0,2021-10-11,2021-10-11,コネクシー株式会社,,株式会社,愛知県,名古屋市瑞穂区,高田町４丁目１６番地の５,,23,108,4670808,,,,,,,2021-10-11,1,,,,,コネクシー,0
935,3180001148223,新規,0,2021-10-11,2021-10-11,株式会社ブラッサム,,株式会社,愛知県,稲沢市,祖父江町祖父江高熊２６２番地１,,23,220,4950001,,,,,,,2021-10-11,1,,,,,ブラッサム,0
936,3180001148231,新規,0,2021-10-11,2021-10-11,山本ビジネスコンサルティング株式会社,,株式会社,愛知県,名古屋市東区,徳川１丁目４０２番地の１,,23,102,4610025,,,,,,,2021-10-11,1,,,,,ヤマモトビジネスコンサルティング,0
939,3180003023060,新規,0,2021-10-11,2021-10-11,合同会社アンプティパ,,合同会社,愛知県,名古屋市瑞穂区,白砂町３丁目２５番地の２,,23,108,4670056,,,,,,,2021-10-11,1,,,,,アンプティパ,0
954,3230001019014,新規,0,2021-10-11,2021-10-11,株式会社オカッテン,,株式会社,富山県,富山市,安田町１番１０号,,16,201,9300092,,,,,,,2021-10-11,1,,,,,オカッテン,0
958,3240001058754,新規,0,2021-10-11,2021-10-11,株式会社ひかり管財,,株式会社,広島県,広島市中区,富士見町８番２６号,,34,101,7300043,,,,,,,2021-10-11,1,,,,,ヒカリカンザイ,0
961,3240003005317,新規,0,2021-10-11,2021-10-11,合同会社ＲＯＢＡＳＴ,,合同会社,広島県,福山市,東川口町５丁目１１番５号,,34,207,7200821,,,,,,,2021-10-11,1,,,,,ロバスト,0
966,3260001036072,新規,0,2021-10-11,2021-10-11,株式会社ＫＷ,,株式会社,岡山県,笠岡市,神島１６０１,,33,205,7140044,,,,,,,2021-10-11,1,,,,,ケーダブル,0
967,3260001036080,新規,0,2021-10-11,2021-10-11,株式会社ＬＩＳＴＡＲ,,株式会社,岡山県,倉敷市,大島６４２番地１ＧＯＬＤＢＡＳＥ２１,,33,202,7100047,,,,,,,2021-10-11,1,,,,,リスター,0
968,3260001036089,新規,0,2021-10-11,2021-10-11,株式会社オズワークス,,株式会社,岡山県,倉敷市,茶屋町１４５１番地７,,33,202,7101101,,,,,,,2021-10-11,1,,,,,オズワークス,0
969,3270001008376,新規,0,2021-10-11,2021-10-11,株式会社ウェルフェアサポート,,株式会社,鳥取県,米子市,西福原４丁目１０番３－１０２号,,31,202,6830805,,,,,,,2021-10-11,1,,,,,ウェルフェアサポート,0
974,3290001094910,新規,0,2021-10-11,2021-10-11,株式会社のみやま商店,,株式会社,福岡県,飯塚市,下三緒１２７番地１,,40,205,8200012,,,,,,,2021-10-11,1,,,,,ノミヤマショウテン,0
975,3290001094968,新規,0,2021-10-11,2021-10-11,株式会社オールエリア,,株式会社,福岡県,福岡市中央区,那の津３丁目５番１号,,40,133,8100071,,,,,,,2021-10-11,1,,,,,オールエリア,0
976,3290003011681,新規,0,2021-10-11,2021-10-11,ＦｒｅｅＳｅｌｅｃｔｉｏｎ合同会社,,合同会社,福岡県,福岡市博多区,博多駅前２丁目１番１号福岡朝日ビル１階,,40,132,8120011,,,,,,,2021-10-11,1,,,,,フリーセレクション,0
977,3290005018386,新規,0,2021-10-11,2021-10-11,社会保険労務士法人つくし,,その他の設立登記法人,福岡県,福岡市城南区,七隈７丁目３８番１５－１０６号,,40,136,8140133,,,,,,,2021-10-11,1,,,,,ツクシ,0
983,3310003004179,新規,0,2021-10-11,2021-10-11,合同会社釜坂工建,,合同会社,長崎県,長崎市,香焼町１６８２－１　２Ｆ,,42,201,8510310,,,,,,,2021-10-11,1,,,,,カマサカコウケン,0
1033,3470003002051,新規,0,2021-10-11,2021-10-11,サードＬｉｆｅプランニング合同会社,,合同会社,香川県,高松市,桜町１丁目６番１８号,,37,201,7600074,,,,,,,2021-10-11,1,,,,,サードライフプランニング,0
1049,4010001221508,新規,0,2021-10-11,2021-10-11,株式会社フェムテック総研,,株式会社,東京都,中央区,銀座３丁目４番１号,,13,102,1040061,,,,,,,2021-10-11,1,,,,,フェムテックソウケン,0
1050,4010001221631,新規,0,2021-10-11,2021-10-11,Ｎ．Ｂ．Ｍｅｄｉｃａｌ株式会社,,株式会社,東京都,中央区,日本橋本町３丁目１１番５号,,13,102,1030023,,,,,,,2021-10-11,1,,,,,エヌビーメディカル,0
1051,4010001221648,新規,0,2021-10-11,2021-10-11,株式会社ＴＤＳ,,株式会社,東京都,千代田区,麹町６丁目２番地６－１２０２号,,13,101,1020083,,,,,,,2021-10-11,1,,,,,ティーディーエス,0
1052,4010001221706,新規,0,2021-10-11,2021-10-11,アチーブ・コレクトネス・ジャパン株式会社,,株式会社,東京都,千代田区,霞が関１丁目４番１号日土地ビル４階,,13,101,1000013,,,,,,,2021-10-11,1,,,,,アチーブコレクトネスジャパン,0
1055,4010003035988,新規,0,2021-10-11,2021-10-11,合同会社ＯｏＷａｚ,,合同会社,東京都,中央区,銀座１丁目２２番１１号銀座大竹ビジデンス２階,,13,102,1040061,,,,,,,2021-10-11,1,,,,,オオワ,0
1056,4010003036004,新規,0,2021-10-11,2021-10-11,合同会社エーエヌアドバイザリー,,合同会社,東京都,千代田区,神田司町２丁目４番地,,13,101,1010048,,,,,,,2021-10-11,1,,,,,エーエヌアドバイザリー,0
1061,4010005034055,新規,0,2021-10-11,2021-10-11,一般社団法人森林活性化トラスト協会,,その他の設立登記法人,東京都,千代田区,九段南４丁目７番５号パークノヴァ九段２０１号,,13,101,1020074,,,,,,,2021-10-11,1,,,,,シンリンカッセイカトラストキョウカイ,0
1067,4010401163110,新規,0,2021-10-11,2021-10-11,株式会社のり弁カンパニー,,株式会社,東京都,港区,西新橋１丁目２１番８号弁護士ビル８０３,,13,103,1050003,,,,,,,2021-10-11,1,,,,,ノリベンカンパニー,0
1070,4010403026307,新規,0,2021-10-11,2021-10-11,キウイズ合同会社,,合同会社,東京都,港区,浜松町２丁目２番１５号浜松町ダイヤビル２Ｆ,,13,103,1050013,,,,,,,2021-10-11,1,,,,,キウイズ,0
1075,4010603009193,新規,0,2021-10-11,2021-10-11,櫻木合同会社,,合同会社,東京都,墨田区,立川２丁目７番９－１０１号,,13,107,1300023,,,,,,,2021-10-11,1,,,,,サクラギ,0
1082,4010901049593,新規,0,2021-10-11,2021-10-11,株式会社アケボノ,,株式会社,東京都,世田谷区,桜３丁目１９番１５号,,13,112,1560053,,,,,,,2021-10-11,1,,,,,アケボノ,0
1093,4011001143246,新規,0,2021-10-11,2021-10-11,株式会社イマキイレ,,株式会社,東京都,渋谷区,千駄ヶ谷３丁目３番３１号,,13,113,1510051,,,,,,,2021-10-11,1,,,,,イマキイレ,0
1094,4011001143270,新規,0,2021-10-11,2021-10-11,ＭＥＤＩＨＥＡＬ　ＪＡＰＡＮ株式会社,,株式会社,東京都,渋谷区,代々木４丁目３１番６号,,13,113,1510053,,,,,,,2021-10-11,1,,,,,メディヒールジャパン,0
1096,4011003013546,新規,0,2021-10-11,2021-10-11,合同会社千駄ヶ谷３丁目,,合同会社,東京都,渋谷区,千駄ヶ谷４丁目２５番２号修養団ＳＹＤビル株式会社フジタ内,,13,113,1510051,,,,,,,2021-10-11,1,,,,,センダガヤサンチョウメ,0
1100,4011101096484,新規,0,2021-10-11,2021-10-11,株式会社縁,,株式会社,東京都,新宿区,北新宿３丁目２２番１０－４２２号,,13,104,1690074,,,,,,,2021-10-11,1,,,,,エン,0
1105,4011303004195,新規,0,2021-10-11,2021-10-11,合同会社ワンダラー,,合同会社,東京都,杉並区,西荻北３丁目３１番１６号,,13,115,1670042,,,,,,,2021-10-11,1,,,,,ワンダラー,0
1113,4011803004827,新規,0,2021-10-11,2021-10-11,合同会社ＢＴ,,合同会社,東京都,足立区,西綾瀬４丁目２－２０,,13,121,1200014,,,,,,,2021-10-11,1,,,,,ビーティー,0
1128,4020001143288,新規,0,2021-10-11,2021-10-11,株式会社ＥＮＥＯＳデジネット,,株式会社,神奈川県,横浜市中区,桜木町１丁目１番地８,,14,104,2310062,,,,,,,2021-10-11,1,,,,,エネオスデジネット,0
1129,4020001143346,新規,0,2021-10-11,2021-10-11,金港青果株式会社,,株式会社,神奈川県,横浜市神奈川区,橋本町１丁目１番地,,14,102,2210053,,,,,,,2021-10-11,1,,,,,キンコウセイカ,0
1138,4021003010988,新規,0,2021-10-11,2021-10-11,６ｅ合同会社,,合同会社,神奈川県,鎌倉市,扇ガ谷１丁目１１－１,,14,204,2480011,,,,,,,2021-10-11,1,,,,,シックスイー,0
1144,4030001144673,新規,0,2021-10-11,2021-10-11,株式会社アシスト運輸,,株式会社,埼玉県,川口市,朝日１丁目２２番６号セピアコート１０１号,,11,203,3320001,,,,,,,2021-10-11,1,,,,,アシストウンユ,0
1145,4030001144772,新規,0,2021-10-11,2021-10-11,悟桜堂株式会社,,株式会社,埼玉県,川口市,並木３丁目６－１９並木クイーンコーポ３０４号室,,11,203,3320034,,,,,,,2021-10-11,1,,,,,ゴエイドウ,0
1146,4030001144780,新規,0,2021-10-11,2021-10-11,株式会社ＥＡ,,株式会社,埼玉県,越谷市,登戸町５番１８号,,11,222,3430846,,,,,,,2021-10-11,1,,,,,エア,0
1153,4030003018066,新規,0,2021-10-11,2021-10-11,合同会社ＢＭＣ,,合同会社,埼玉県,上尾市,大字西門前２８８－１,,11,219,3620005,,,,,,,2021-10-11,1,,,,,ビーエムシー,0
1154,4030003018090,新規,0,2021-10-11,2021-10-11,合同会社リプラシア,,合同会社,埼玉県,鶴ヶ島市,大字上広谷１２２番地,,11,241,3502203,,,,,,,2021-10-11,1,,,,,リプラシア,0
1156,4030005020549,新規,0,2021-10-11,2021-10-11,特定非営利活動法人Ｇｌｏｃａｌ　Ｓｔａｎｄａｒｄ,,その他の設立登記法人,埼玉県,さいたま市北区,日進町２丁目４９５番地２Ｆ,,11,102,3310823,,,,,,,2021-10-11,1,,,,,グローカルスタンダード,0
1159,4040001120392,新規,0,2021-10-11,2021-10-11,株式会社水島空調,,株式会社,千葉県,八街市,大谷流８７５番地５９,,12,230,2891134,,,,,,,2021-10-11,1,,,,,ミズシマクウチョウ,0
1160,4040001120442,新規,0,2021-10-11,2021-10-11,株式会社一家ホールディングス,,株式会社,千葉県,市川市,八幡２丁目５番６号,,12,203,2720021,,,,,,,2021-10-11,1,,,,,イッカホールディングス,0
1165,4040003018643,新規,0,2021-10-11,2021-10-11,合同会社ＦＡＩＲＹ　ＴＡＬＥ,,合同会社,千葉県,市原市,西国吉９９３番地８６,,12,219,2900231,,,,,,,2021-10-11,1,,,,,フェアリーテール,0
1174,4050005012949,新規,0,2021-10-11,2021-10-11,医療法人社団奏健会,,その他の設立登記法人,茨城県,牛久市,ひたち野東２丁目２４番地１１,,08,219,3001207,,,,,,,2021-10-11,1,,,,,ソウケンカイ,0
1176,4060003003825,新規,0,2021-10-11,2021-10-11,ドカスタ合同会社,,合同会社,栃木県,小山市,大字小薬４８９－９,,09,208,3230008,,,,,,,2021-10-11,1,,,,,ドカスタ,0
1177,4060005009911,新規,0,2021-10-11,2021-10-11,一般社団法人ナスコンバレー協議会,,その他の設立登記法人,栃木県,那須郡那須町,大字高久乙字遅山３３７６－２５６,,09,407,3250303,,,,,,,2021-10-11,1,,,,,ナスコンバレーキョウギカイ,0
1178,4070003004260,新規,0,2021-10-11,2021-10-11,ＳＤＭらぼ合同会社,,合同会社,群馬県,高崎市,連雀町１０４番地ＳＵＺＵＭＥＢＬＤＧ．３Ｆ,,10,202,3700826,,,,,,,2021-10-11,1,,,,,エスディーエムラボ,0
1182,4080005007401,新規,0,2021-10-11,2021-10-11,社会保険労務士法人アスポート,,その他の設立登記法人,静岡県,静岡市駿河区,小鹿１丁目２１番１７号,,22,102,4228021,,,,,,,2021-10-11,1,,,,,アスポート,0
1184,4080105006179,新規,0,2021-10-11,2021-10-11,一般社団法人静岡イノベーションベース,,その他の設立登記法人,静岡県,三島市,一番町１８番２２号,,22,206,4110036,,,,,,,2021-10-11,1,,,,,シズオカイノベーションベース,0
1196,4100003006261,新規,0,2021-10-11,2021-10-11,ＣＯＮＮＥＣＴＥＤ　Ａ＆Ｃ合同会社,,合同会社,長野県,北佐久郡軽井沢町,大字長倉５５８３番地１－Ｔ１０４,,20,321,3890111,,,,,,,2021-10-11,1,,,,,コネクテッドエーアンドシー,0
1213,4120001240975,新規,0,2021-10-11,2021-10-11,株式会社ＭＣＯ,,株式会社,大阪府,大阪市東淀川区,東中島４丁目１番３９号,,27,114,5330033,,,,,,,2021-10-11,1,,,,,エムシーオー,0
1214,4120001240991,新規,0,2021-10-11,2021-10-11,ライブグッド株式会社,,株式会社,大阪府,守口市,豊秀町１丁目５番１号１階Ｂ,,27,209,5700082,,,,,,,2021-10-11,1,,,,,ライブグッド,0
1215,4120001241024,新規,0,2021-10-11,2021-10-11,炎初株式会社,,株式会社,大阪府,大阪市中央区,北久宝寺町１丁目５番６号堺筋本町アーバンライフ５０２号室,,27,128,5410057,,,,,,,2021-10-11,1,,,,,エンショ,0
1218,4120003020384,新規,0,2021-10-11,2021-10-11,合同会社エムズコーポレーション,,合同会社,大阪府,大阪市都島区,中野町５丁目１４－３－１００３,,27,102,5340027,,,,,,,2021-10-11,1,,,,,エムズコーポレーション,0
1223,4120101064416,新規,0,2021-10-11,2021-10-11,奥名金属株式会社,,株式会社,大阪府,堺市西区,草部１５９番地１７,,27,144,5938312,,,,,,,2021-10-11,1,,,,,オクナキンゾク,0
1224,4120101064457,新規,0,2021-10-11,2021-10-11,株式会社フルール・ルポ,,株式会社,大阪府,堺市北区,中百舌鳥町６丁８６３番２号２階,,27,146,5918023,,,,,,,2021-10-11,1,,,,,フルールルポ,0
1225,4120103004386,新規,0,2021-10-11,2021-10-11,泉北商事合同会社,,合同会社,大阪府,堺市南区,檜尾１０６１番１,,27,145,5900142,,,,,,,2021-10-11,1,,,,,センボクショウジ,0
1230,4120901045045,新規,0,2021-10-11,2021-10-11,株式会社Ｓａｍｕｒａｉ　Ｇａｍｉｎｇ,,株式会社,大阪府,高槻市,大塚町３丁目２６番３－８０５号,,27,207,5690034,,,,,,,2021-10-11,1,,,,,サムライゲーミング,0
1234,4130001070307,新規,0,2021-10-11,2021-10-11,ｗａｂｅｅｓ株式会社,,株式会社,京都府,京都市伏見区,深草大亀谷万帖敷町５８０番地３,,26,109,6120846,,,,,,,2021-10-11,1,,,,,ワビース,0
1248,4140001123336,新規,0,2021-10-11,2021-10-11,株式会社松嶋建設,,株式会社,兵庫県,神戸市長田区,御屋敷通３丁目１番２－９０９号,,28,106,6530843,,,,,,,2021-10-11,1,,,,,マツシマケンセツ,0
1249,4140001123344,新規,0,2021-10-11,2021-10-11,Ｃｏｎｎｅｃｔ　Ｓｍｉｌｅ株式会社,,株式会社,兵庫県,芦屋市,上宮川町４番１１－１０１号,,28,206,6590061,,,,,,,2021-10-11,1,,,,,コネクトスマイル,0
1250,4140001123393,新規,0,2021-10-11,2021-10-11,株式会社こう屋,,株式会社,兵庫県,美方郡新温泉町,七釜３８１番地,,28,586,6696741,,,,,,,2021-10-11,1,,,,,コウヤ,0
1251,4140001123402,新規,0,2021-10-11,2021-10-11,株式会社ひとづくり,,株式会社,兵庫県,神戸市東灘区,魚崎南町３丁目１０番７号,,28,101,6580025,,,,,,,2021-10-11,1,,,,,ヒトヅクリ,0
1252,4140003016843,新規,0,2021-10-11,2021-10-11,合同会社ＦＲＡＮＣ,,合同会社,兵庫県,加西市,北条町北条２８番地１アスティアかさい１階,,28,220,6752312,,,,,,,2021-10-11,1,,,,,フラン,0
1257,4160001023690,新規,0,2021-10-11,2021-10-11,株式会社秀泉,,株式会社,滋賀県,高島市,今津町弘川１９４２番地,,25,212,5201611,,,,,,,2021-10-11,1,,,,,シュウセン,0
1258,4160001023716,新規,0,2021-10-11,2021-10-11,株式会社志有会,,株式会社,滋賀県,大津市,皇子が丘２丁目１０－２５ファーストタワー大津ＭＡＲＹ２８０６,,25,201,5200025,,,,,,,2021-10-11,1,,,,,シユウカイ,0
1268,4180001148065,新規,0,2021-10-11,2021-10-11,株式会社ＥＸＩＴ,,株式会社,愛知県,尾張旭市,東本地ケ原町４丁目４０番地,,23,226,4880033,,,,,,,2021-10-11,1,,,,,イグジット,0
1269,4180001148131,新規,0,2021-10-11,2021-10-11,株式会社Ｋｉｔｓ,,株式会社,愛知県,名古屋市中村区,横井２丁目２０３番地,,23,105,4530866,,,,,,,2021-10-11,1,,,,,キッツ,0
1270,4180001148164,新規,0,2021-10-11,2021-10-11,株式会社クリエイト,,株式会社,愛知県,名古屋市中川区,八熊３丁目１７番３号サンメゾン八熊１１０３号,,23,110,4540013,,,,,,,2021-10-11,1,,,,,クリエイト,0
1271,4180001148172,新規,0,2021-10-11,2021-10-11,株式会社Ｊ　Ｓｕｐｐｏｒｔ,,株式会社,愛知県,名古屋市中区,栄５丁目１９番３１号Ｔ＆Ｍビル３Ｅ,,23,106,4600008,,,,,,,2021-10-11,1,,,,,ジェイサポート,0
1272,4180001148214,新規,0,2021-10-11,2021-10-11,株式会社中村組,,株式会社,愛知県,海部郡蟹江町,大字今字川東上８７番地４,,23,425,4970032,,,,,,,2021-10-11,1,,,,,ナカムラグミ,0
1273,4180001148222,新規,0,2021-10-11,2021-10-11,株式会社Ｒｅホーム建装,,株式会社,愛知県,常滑市,金山字前田１２４番地,,23,216,4790003,,,,,,,2021-10-11,1,,,,,リホームケンソウ,0
1278,4180003023068,新規,0,2021-10-11,2021-10-11,合同会社Ｍ’ｓ　Ｗｏｒｋｅｒｓ,,合同会社,愛知県,名古屋市中区,上前津２丁目２番４号,,23,106,4600013,,,,,,,2021-10-11,1,,,,,エムズワーカーズ,0
1302,4260001036071,新規,0,2021-10-11,2021-10-11,テイクプラス株式会社,,株式会社,岡山県,岡山市北区,庭瀬７２３番地１,,33,101,7010153,,,,,,,2021-10-11,1,,,,,テイクプラス,0
1309,4290001094892,新規,0,2021-10-11,2021-10-11,株式会社渕上商店,,株式会社,福岡県,柳川市,大和町塩塚１３００番地６,,40,207,8390243,,,,,,,2021-10-11,1,,,,,フチカミショウテン,0
1310,4290001094950,新規,0,2021-10-11,2021-10-11,株式会社高木プロジェクト,,株式会社,福岡県,福岡市城南区,西片江１丁目１８番１５－１０５号,,40,136,8140141,,,,,,,2021-10-11,1,,,,,タカキプロジェクト,0
1312,4290003011697,新規,0,2021-10-11,2021-10-11,ＷｉｎＷｉｎパートナーズ合同会社,,合同会社,福岡県,福岡市東区,香椎照葉３丁目１番１３－１８１７号,,40,131,8130017,,,,,,,2021-10-11,1,,,,,ウインウインパートナーズ,0
1323,4320001018666,新規,0,2021-10-11,2021-10-11,株式会社ＡＤビルディング,,株式会社,大分県,大分市,大字横尾３６９０番地の６,,44,201,8700126,,,,,,,2021-10-11,1,,,,,エーディービルディング,0
1328,4330001029068,新規,0,2021-10-11,2021-10-11,伸栄株式会社,,株式会社,熊本県,菊池市,原２６０２－２,,43,210,8611441,,,,,,,2021-10-11,1,,,,,シンエイ,0
1331,4340001024167,新規,0,2021-10-11,2021-10-11,株式会社Ａ・Ｏ・Ｔ,,株式会社,鹿児島県,鹿児島市,伊敷２丁目１７番３５号ビエントＩＩ　１０１号室,00124516,46,201,8900008,,,,,,,2021-10-11,1,,,,,エイオウティ,0
1338,4360001029453,新規,0,2021-10-11,2021-10-11,ＮＥＸＥＲＡ沖縄株式会社,,株式会社,沖縄県,那覇市,三原３丁目５番４０号,,47,201,9020063,,,,,,,2021-10-11,1,,,,,ネクセラオキナワ,0
1339,4360001029461,新規,0,2021-10-11,2021-10-11,株式会社たまよせｇｒｏｕｐ,,株式会社,沖縄県,石垣市,字真栄里２０４番地３３２,,47,207,9070002,,,,,,,2021-10-11,1,,,,,タマヨセグループ,0
1340,4360001029486,新規,0,2021-10-11,2021-10-11,株式会社マリーン瀬名,,株式会社,沖縄県,石垣市,字真栄里９７番地６、１Ｆ,,47,207,9070002,,,,,,,2021-10-11,1,,,,,マリーンセナ,0
1353,4380005012486,新規,0,2021-10-11,2021-10-11,行政書士法人南東北事務所,,その他の設立登記法人,福島県,福島市,新町２番２９号金源ビル,,07,201,9608036,,,,,,,2021-10-11,1,,,,,ミナミトウホクジムショ,0
1354,4390001016630,新規,0,2021-10-11,2021-10-11,株式会社鈴成果樹園,,株式会社,山形県,東根市,中央東１丁目８－１１,,06,211,9993729,,,,,,,2021-10-11,1,,,,,スズナリカジュエン,0
1371,4430003013241,新規,0,2021-10-11,2021-10-11,Ｄ．ｃｒｅａｔｅ合同会社,,合同会社,北海道,札幌市中央区,南十四条西８丁目５番５－２０９,,01,101,0640914,,,,,,,2021-10-11,1,,,,,ディークリエイト,0
1381,4500001023739,新規,0,2021-10-11,2021-10-11,株式会社トゥモールエス,,株式会社,愛媛県,松山市,山越４丁目３番２８号,,38,201,7918013,,,,,,,2021-10-11,1,,,,,トゥモールエス,0
1393,5010001221481,新規,0,2021-10-11,2021-10-11,株式会社ＭＩＳＡＷＡ,,株式会社,東京都,中央区,入船２丁目１０番７号八弘ビル５階,,13,102,1040042,,,,,,,2021-10-11,1,,,,,ミサワ,0
1394,5010001221639,新規,0,2021-10-11,2021-10-11,株式会社ＳＭＡＲＴ７,,株式会社,東京都,千代田区,飯田橋３丁目３番３号生光ビル２０４号室,,13,101,1020072,,,,,,,2021-10-11,1,,,,,スマートセブン,0
1399,5010003035946,新規,0,2021-10-11,2021-10-11,ロミルワ合同会社,,合同会社,東京都,中央区,銀座１丁目２２番１１号銀座大竹ビジデンス２階,,13,102,1040061,,,,,,,2021-10-11,1,,,,,ロミルワ,0
1400,5010003035995,新規,0,2021-10-11,2021-10-11,ＩＣＴＭ　Ｃｏ．合同会社,,合同会社,東京都,中央区,日本橋茅場町２丁目５番６号,,13,102,1030025,,,,,,,2021-10-11,1,,,,,アイシーティーエムシーオードット,0
1409,5010401163010,新規,0,2021-10-11,2021-10-11,株式会社Ｖ　Ｔｗｅｌｖｅ　Ｃｏｎｓｕｌｔｉｎｇ,,株式会社,東京都,港区,虎ノ門３丁目１４番１－２８０６号,,13,103,1050001,,,,,,,2021-10-11,1,,,,,ヴィートゥエルブコンサルティング,0
1410,5010401163101,新規,0,2021-10-11,2021-10-11,にこぽんＰＲ株式会社,,株式会社,東京都,港区,元赤坂１丁目２番１７号赤坂Ｋタワーレジデンス３００６号,,13,103,1070051,,,,,,,2021-10-11,1,,,,,ニコポンピーアール,0
1415,5010501047922,新規,0,2021-10-11,2021-10-11,株式会社Ａｔｅｌｉｅｒ　Ｋ．Ｉ．,,株式会社,東京都,台東区,蔵前４丁目２０番１２号精華ビル,,13,106,1110051,,,,,,,2021-10-11,1,,,,,アトリエケーアイ,0
1417,5010603009192,新規,0,2021-10-11,2021-10-11,ＪＳＳ東京合同会社,,合同会社,東京都,江東区,豊洲２丁目５番２－２５０９号,,13,108,1350061,,,,,,,2021-10-11,1,,,,,ジェイエスエストウキョウ,0
1419,5010703005967,新規,0,2021-10-11,2021-10-11,合同会社Ｂｅｌｌｅ　Ａｓｓｅｔ　Ｍａｎａｇｅｍｅｎｔ,,合同会社,東京都,品川区,東五反田１丁目１１番１５号,,13,109,1410022,,,,,,,2021-10-11,1,,,,,ベルアセットマネジメント,0
1423,5010901049601,新規,0,2021-10-11,2021-10-11,株式会社Ｓｅｐｐｉａ,,株式会社,東京都,世田谷区,北沢３丁目２７－１４,,13,112,1550031,,,,,,,2021-10-11,1,,,,,セピア,0
1428,5011001143385,新規,0,2021-10-11,2021-10-11,ＴＴＣ　ＬＩＦＥＳＴＹＬＥ株式会社,,株式会社,東京都,渋谷区,南平台町１６番１７号,,13,113,1500036,,,,,,,2021-10-11,1,,,,,ティーティーシーライフスタイル,0
1431,5011003013520,新規,0,2021-10-11,2021-10-11,一角馬合同会社,,合同会社,東京都,渋谷区,千駄ヶ谷４丁目５番１５号,,13,113,1510051,,,,,,,2021-10-11,1,,,,,ユニコーン,0
1433,5011101096500,新規,0,2021-10-11,2021-10-11,株式会社サクセス,,株式会社,東京都,新宿区,西新宿６丁目１２番６号コアロード西新宿７０３号室,,13,104,1600023,,,,,,,2021-10-11,1,,,,,サクセス,0
1434,5011101096517,新規,0,2021-10-11,2021-10-11,正清株式会社,,株式会社,東京都,新宿区,住吉町１番１７号４０５号室,,13,104,1620065,,,,,,,2021-10-11,1,,,,,セイセイ,0
1435,5011101096541,新規,0,2021-10-11,2021-10-11,株式会社ＥＲＡ,,株式会社,東京都,新宿区,新宿２丁目１５番２５号松下ビル４０１,,13,104,1600022,,,,,,,2021-10-11,1,,,,,エラ,0
1439,5011103011044,新規,0,2021-10-11,2021-10-11,合同会社アンサング,,合同会社,東京都,新宿区,四谷坂町７番１０号古橋アパート２０１,,13,104,1600002,,,,,,,2021-10-11,1,,,,,アンサング,0
1440,5011103011069,新規,0,2021-10-11,2021-10-11,ＫＢＩ・３ｒｄ合同会社,,合同会社,東京都,新宿区,四谷坂町９番９号三廣ビル３階,,13,104,1600002,,,,,,,2021-10-11,1,,,,,ケービーアイサード,0
1446,5011301027239,新規,0,2021-10-11,2021-10-11,株式会社イトコマ,,株式会社,東京都,杉並区,方南１丁目４１番１８－４１６号シティハウス笹塚,,13,115,1680062,,,,,,,2021-10-11,1,,,,,イトコマ,0
1461,5012803002621,新規,0,2021-10-11,2021-10-11,合同会社ＫＡＴＯ,,合同会社,東京都,国分寺市,内藤２丁目３１番地３０,,13,214,1850033,,,,,,,2021-10-11,1,,,,,カトウ,0
1466,5020001143386,新規,0,2021-10-11,2021-10-11,ベゴラボ株式会社,,株式会社,神奈川県,横浜市中区,石川町２丁目８５番地５,,14,104,2310868,,,,,,,2021-10-11,1,,,,,ベゴラボ,0
1467,5020001143394,新規,0,2021-10-11,2021-10-11,株式会社ＪＯＨＮ’Ｓ　ＯＦＦＩＣＥ,,株式会社,神奈川県,横浜市港北区,大倉山３丁目６０番１７号,,14,109,2220037,,,,,,,2021-10-11,1,,,,,ジョンズオフィス,0
1468,5020001143403,新規,0,2021-10-11,2021-10-11,株式会社児玉の里,,株式会社,神奈川県,横浜市中区,本牧町１丁目３５番地ヨシカワビル１ＦＢ号,,14,104,2310806,,,,,,,2021-10-11,1,,,,,コダマノサト,0
1472,5020003020567,新規,0,2021-10-11,2021-10-11,ＰＡＣＳＯＬ合同会社,,合同会社,神奈川県,横浜市神奈川区,西神奈川１丁目１２番地５号,,14,102,2210822,,,,,,,2021-10-11,1,,,,,パクソル,0
1473,5020003020583,新規,0,2021-10-11,2021-10-11,合同会社Ｇ．Ｓ．Ｐ,,合同会社,神奈川県,横浜市青葉区,榎が丘６－８－２０１,,14,117,2270063,,,,,,,2021-10-11,1,,,,,ジーエスピー,0
1474,5020003020617,新規,0,2021-10-11,2021-10-11,合同会社プラヴィーダ,,合同会社,神奈川県,川崎市多摩区,生田６丁目１１－１,,14,135,2140038,,,,,,,2021-10-11,1,,,,,プラヴィーダ,0
1475,5020005015227,新規,0,2021-10-11,2021-10-11,社会保険労務士法人かとう事務所,,その他の設立登記法人,神奈川県,川崎市川崎区,砂子１丁目１０－２ソシオ砂子ビル１１０１,,14,131,2100006,,,,,,,2021-10-11,1,,,,,カトウジムショ,0
1481,5021001074118,新規,0,2021-10-11,2021-10-11,Ｂｅａｒ　Ｐａｒｔｎｅｒｓ株式会社,,株式会社,神奈川県,相模原市緑区,久保沢１丁目４番２２号,,14,151,2520105,,,,,,,2021-10-11,1,,,,,ベアパートナーズ,0
1482,5021001074167,新規,0,2021-10-11,2021-10-11,株式会社ａｉｒｙ,,株式会社,神奈川県,大和市,中央林間３丁目４番１３号,,14,213,2420007,,,,,,,2021-10-11,1,,,,,アイリー,0
1492,5030001144755,新規,0,2021-10-11,2021-10-11,安誠株式会社,,株式会社,埼玉県,川口市,戸塚東４丁目２番１０号サンシティ東川口１０５号室,,11,203,3330802,,,,,,,2021-10-11,1,,,,,アンセイ,0
1493,5030001144771,新規,0,2021-10-11,2021-10-11,株式会社ＫＩＺＡＳＨＩ,,株式会社,埼玉県,さいたま市南区,大字大谷口１７３７－５,,11,108,3360042,,,,,,,2021-10-11,1,,,,,キザシ,0
1497,5030003018131,新規,0,2021-10-11,2021-10-11,合同会社ＯＺオフィス,,合同会社,埼玉県,川口市,元郷１丁目３２番２２号,,11,203,3320011,,,,,,,2021-10-11,1,,,,,オズオフィス,0
1498,5030005020548,新規,0,2021-10-11,2021-10-11,一般社団法人日本いぶき育成推進協会,,その他の設立登記法人,埼玉県,さいたま市北区,植竹町２丁目９０番地,,11,102,3310813,,,,,,,2021-10-11,1,,,,,ニホンイブキイクセイスイシンキョウカイ,0
1510,5040001120532,新規,0,2021-10-11,2021-10-11,株式会社金航,,株式会社,千葉県,印西市,武西学園台１丁目３番地１－６１０号,,12,231,2701355,,,,,,,2021-10-11,1,,,,,カネコウ,0
1511,5040001120549,新規,0,2021-10-11,2021-10-11,株式会社Ｎｉｃｈｉｅｉ,,株式会社,千葉県,柏市,若柴１７８番地４柏の葉キャンパス１４８街区１パークシティ柏の葉キャンパスザ・ゲートタワーウェスト３階,,12,217,2770871,,,,,,,2021-10-11,1,,,,,ニチエイ,0
1512,5040001120565,新規,0,2021-10-11,2021-10-11,株式会社佐々木商会,,株式会社,千葉県,富里市,七栄２７２番地８７セブングロリアスＩＩ２０１,00124518,12,233,2860221,,,,,,,2021-10-11,1,,,,,ササキショウカイ,0
1514,5040003018683,新規,0,2021-10-11,2021-10-11,ＬＯＵＩＳ　ＧＬＯＢＡＬ　ＢＩＺ合同会社,,合同会社,千葉県,野田市,木間ケ瀬５９２１－９,,12,208,2700222,,,,,,,2021-10-11,1,,,,,ルイスグローバルビズ,0
1515,5040003018725,新規,0,2021-10-11,2021-10-11,合同会社スペシャルデザイン,,合同会社,千葉県,安房郡鋸南町,大帷子４１９番地１２,,12,463,2991903,,,,,,,2021-10-11,1,,,,,スペシャルデザイン,0
1518,5050001049969,新規,0,2021-10-11,2021-10-11,株式会社５Ｗｉｎ,,株式会社,茨城県,つくば市,上横場２３３５－１８,,08,220,3050854,,,,,,,2021-10-11,1,,,,,ファイブウィン,0
1523,5050003006134,新規,0,2021-10-11,2021-10-11,合同会社城里発電所,,合同会社,茨城県,龍ケ崎市,若柴町２２４０番地５２８,,08,208,3010041,,,,,,,2021-10-11,1,,,,,シリサトハツデンショ,0
1524,5050005012948,新規,0,2021-10-11,2021-10-11,一般社団法人日本コンテナシステム開発協会,,その他の設立登記法人,茨城県,坂東市,半谷２２４番地１５,,08,228,3060651,,,,,,,2021-10-11,1,,,,,ニホンコンテナシステムカイハツキョウカイ,0
1528,5070001038532,新規,0,2021-10-11,2021-10-11,株式会社順成,,株式会社,群馬県,邑楽郡大泉町,城之内４丁目１４番２１号,,10,524,3700518,,,,,,,2021-10-11,1,,,,,ジュンセイ,0
1537,5080401025410,新規,0,2021-10-11,2021-10-11,株式会社坂本産業,,株式会社,静岡県,浜松市南区,大塚町１４１番地の３,,22,134,4350024,,,,,,,2021-10-11,1,,,,,サカモトサンギョウ,0
1551,5110003004585,新規,0,2021-10-11,2021-10-11,合同会社チャイブリー,,合同会社,新潟県,長岡市,宝地町２７４番地８,,15,202,9402031,,,,,,,2021-10-11,1,,,,,チャイブリー,0
1564,5120001241023,新規,0,2021-10-11,2021-10-11,株式会社デジタルアート,,株式会社,大阪府,大阪市東成区,大今里南１丁目２番２８号３０３号室,,27,115,5370013,,,,,,,2021-10-11,1,,,,,デジタルアート,0
1565,5120001241106,新規,0,2021-10-11,2021-10-11,株式会社アバントイン,,株式会社,大阪府,大阪市中央区,久太郎町１丁目６番２７号ヨシカワビル２階,,27,128,5410056,,,,,,,2021-10-11,1,,,,,アバントイン,0
1569,5120005022527,新規,0,2021-10-11,2021-10-11,行政書士法人ＳＯＷＡ,,その他の設立登記法人,大阪府,大阪市浪速区,元町２丁目８番１号,,27,111,5560016,,,,,,,2021-10-11,1,,,,,ソウワ,0
1570,5120101064456,新規,0,2021-10-11,2021-10-11,株式会社協友,,株式会社,大阪府,羽曳野市,高鷲２丁目２３番１５号,,27,222,5830882,,,,,,,2021-10-11,1,,,,,キョウユウ,0
1571,5120101064464,新規,0,2021-10-11,2021-10-11,株式会社ＤｒｅａｍＦａｎｔａｓｙ,,株式会社,大阪府,和泉市,国分町５９６番地の２,,27,219,5941114,,,,,,,2021-10-11,1,,,,,ドリームファンタジー,0
1572,5120101064472,新規,0,2021-10-11,2021-10-11,株式会社Ｔｅｎ　Ａｎｔｓ,,株式会社,大阪府,松原市,北新町１丁目１２６番地の１３,,27,217,5800025,,,,,,,2021-10-11,1,,,,,テンアンツ,0
1582,5140001123392,新規,0,2021-10-11,2021-10-11,株式会社エムズテック,,株式会社,兵庫県,相生市,向陽台２２番１７号,,28,208,6780023,,,,,,,2021-10-11,1,,,,,エムズテック,0
1585,5140003016801,新規,0,2021-10-11,2021-10-11,幹協合同会社,,合同会社,兵庫県,西脇市,板波町２２７番地の３,,28,213,6770056,,,,,,,2021-10-11,1,,,,,カンキョウ,0
1586,5140003016826,新規,0,2021-10-11,2021-10-11,ヒピスケア合同会社,,合同会社,兵庫県,神戸市中央区,坂口通４丁目２番２１号,,28,110,6510062,,,,,,,2021-10-11,1,,,,,ヒピスケア,0
1609,5180001147982,新規,0,2021-10-11,2021-10-11,株式会社ハートフル・ステイション,,株式会社,愛知県,一宮市,萩原町萩原字御茶屋１３５１番地,,23,203,4910353,,,,,,,2021-10-11,1,,,,,ハートフルステイション,0
1610,5180001148097,新規,0,2021-10-11,2021-10-11,株式会社デザインと写真,,株式会社,愛知県,名古屋市西区,城西４丁目２２番１１号ＣＵＢＥ３２０,,23,104,4510031,,,,,,,2021-10-11,1,,,,,デザイントシャシン,0
1611,5180001148205,新規,0,2021-10-11,2021-10-11,株式会社マインドランカ,,株式会社,愛知県,名古屋市港区,甚兵衛通１丁目２番地６メゾンアベニュー１０１号,,23,111,4550822,,,,,,,2021-10-11,1,,,,,マインドランカ,0
1612,5180001148246,新規,0,2021-10-11,2021-10-11,株式会社ライズ,,株式会社,愛知県,津島市,寺前町１丁目４８番地６,,23,208,4960042,,,,,,,2021-10-11,1,,,,,ライズ,0
1617,5180003023067,新規,0,2021-10-11,2021-10-11,シセイフードサービス合同会社,,合同会社,愛知県,尾張旭市,南原山町赤土１６５番地３メイツ三郷４０４号,,23,226,4880066,,,,,,,2021-10-11,1,,,,,シセイフードサービス,0
1618,5180005019468,新規,0,2021-10-11,2021-10-11,司法書士法人アークリーフ,,その他の設立登記法人,愛知県,名古屋市千種区,内山１丁目１８番１６号,,23,101,4640075,,,,,,,2021-10-11,1,,,,,アークリーフ,0
1622,5180301035466,新規,0,2021-10-11,2021-10-11,株式会社マンダイディライト,,株式会社,愛知県,豊田市,本地町４丁目２２番地１,,23,211,4710848,,,,,,,2021-10-11,1,,,,,マンダイディライト,0
1623,5180301035482,新規,0,2021-10-11,2021-10-11,株式会社向陽,,株式会社,愛知県,高浜市,呉竹町３丁目６番地８,,23,227,4441336,,,,,,,2021-10-11,1,,,,,コウヨウ,0
1624,5180303005129,新規,0,2021-10-11,2021-10-11,合同会社惠成,,合同会社,愛知県,岡崎市,伊賀新町３２番地７９,,23,202,4440078,,,,,,,2021-10-11,1,,,,,ケイセイ,0
1630,5200001039277,新規,0,2021-10-11,2021-10-11,株式会社ホワイトローズインターナショナル,,株式会社,岐阜県,海津市,南濃町松山６４７番地２６,,21,221,5030535,,,,,,,2021-10-11,1,,,,,ホワイトローズインターナショナル,0
1632,5210001018635,新規,0,2021-10-11,2021-10-11,株式会社城口建築設計事務所,,株式会社,福井県,大飯郡高浜町,宮崎第８８号４番地２,,18,481,9192225,,,,,,,2021-10-11,1,,,,,シログチケンチクセッケイジムショ,0
1633,5210001018643,新規,0,2021-10-11,2021-10-11,株式会社岩並,,株式会社,福井県,福井市,日之出２丁目５番１０号－９０３,,18,201,9100859,,,,,,,2021-10-11,1,,,,,イワナミ,0
1639,5230001019029,新規,0,2021-10-11,2021-10-11,株式会社エバタ技建工業,,株式会社,富山県,氷見市,泉４０２８番地１,,16,205,9350065,,,,,,,2021-10-11,1,,,,,エバタギケンコウギョウ,0
1642,5240001058744,新規,0,2021-10-11,2021-10-11,株式会社ＳＧ,,株式会社,広島県,広島市中区,広瀬北町２番２８号リヴァージュ広瀬北１３０３,,34,101,7300803,,,,,,,2021-10-11,1,,,,,エスジー,0
1646,5250001019159,新規,0,2021-10-11,2021-10-11,株式会社船戸測量設計,,株式会社,山口県,光市,室積１丁目５番１号,,35,210,7430007,,,,,,,2021-10-11,1,,,,,フナトソクリョウセッケイ,0
1649,5260001036070,新規,0,2021-10-11,2021-10-11,株式会社Ｊ‐ｃｒｅａｔｅ,,株式会社,岡山県,岡山市北区,万成東町１０番地２６,,33,101,7000072,,,,,,,2021-10-11,1,,,,,ジェイクリエイト,0
1650,5260001036087,新規,0,2021-10-11,2021-10-11,ＩＢＩＺＡ株式会社,,株式会社,岡山県,岡山市北区,辰巳１番地１０４,,33,101,7000976,,,,,,,2021-10-11,1,,,,,イビサ,0
1652,5270001008374,新規,0,2021-10-11,2021-10-11,株式会社すまいる工房,,株式会社,鳥取県,鳥取市,津ノ井２７８番地３４,,31,201,6891102,,,,,,,2021-10-11,1,,,,,スマイルコウボウ,0
1655,5290001094909,新規,0,2021-10-11,2021-10-11,株式会社智裕スタイル,,株式会社,福岡県,福岡市東区,箱崎１丁目２８番１４号ロマネスク箱崎８０５号,,40,131,8120053,,,,,,,2021-10-11,1,,,,,チヒロスタイル,0
1658,5290003011696,新規,0,2021-10-11,2021-10-11,合同会社Ｇａｔｅａｕｎａ,,合同会社,福岡県,大野城市,乙金３丁目２５番８号ＡＺＴＯ乙金Ｈ号室,,40,219,8160902,,,,,,,2021-10-11,1,,,,,ガトーナ,0
1660,5290801027893,新規,0,2021-10-11,2021-10-11,株式会社雄進テック,,株式会社,福岡県,北九州市小倉南区,朽網東２丁目２５番２５号（１０２）,,40,107,8000232,,,,,,,2021-10-11,1,,,,,ユウシンテック,0
1661,5290803003950,新規,0,2021-10-11,2021-10-11,セカンドステージ合同会社,,合同会社,福岡県,遠賀郡芦屋町,西浜町１６番７号,,40,381,8070102,,,,,,,2021-10-11,1,,,,,,0
1662,5300001012661,新規,0,2021-10-11,2021-10-11,株式会社ＨＲ,,株式会社,佐賀県,西松浦郡有田町,岩谷川内１丁目２番４号,,41,401,8440011,,,,,,,2021-10-11,1,,,,,エイチアール,0
1669,5330003009083,新規,0,2021-10-11,2021-10-11,合同会社ＲＹＵＳＨＩＮ,,合同会社,熊本県,熊本市中央区,神水１丁目１７番４号ディアコート関１０２,,43,101,8620954,,,,,,,2021-10-11,1,,,,,リュウシン,0
1694,5430003013240,新規,0,2021-10-11,2021-10-11,合同会社ワンストップサービス,,合同会社,北海道,札幌市東区,本町二条２丁目２番２７号,,01,103,0650042,,,,,,,2021-10-11,1,,,,,ワンストップサービス,0
1695,5450001013505,新規,0,2021-10-11,2021-10-11,株式会社Ｇｒｅｅｎ．Ｎ,,株式会社,北海道,上川郡東川町,南町１丁目８番２１号,,01,458,0711424,,,,,,,2021-10-11,1,,,,,グリーンエヌ,0
1698,5500001023738,新規,0,2021-10-11,2021-10-11,株式会社ＷＩＺＥＡＴ,,株式会社,愛媛県,松山市,二番町１丁目２番地７,,38,201,7900002,,,,,,,2021-10-11,1,,,,,ウィジート,0
1710,6010001221662,新規,0,2021-10-11,2021-10-11,株式会社ＨＯＳＭＡＲＫＥＴＩ,,株式会社,東京都,千代田区,外神田３丁目６番４号,,13,101,1010021,,,,,,,2021-10-11,1,,,,,ホスマーケティ,0
1711,6010001221679,新規,0,2021-10-11,2021-10-11,株式会社Ｆｒｉｅｎｄｓ　Ａｔ　Ｄｕｓｋ,,株式会社,東京都,千代田区,九段南１丁目５番６号りそな九段ビル５階ＫＳフロア,,13,101,1020074,,,,,,,2021-10-11,1,,,,,フレンズアットダスク,0
1712,6010003035978,新規,0,2021-10-11,2021-10-11,クロッシアキャピタル合同会社,,合同会社,東京都,中央区,銀座８丁目１７－５,,13,102,1040061,,,,,,,2021-10-11,1,,,,,,0
1729,6010401163091,新規,0,2021-10-11,2021-10-11,株式会社ＡｃｏＺ,,株式会社,東京都,港区,港南３丁目５番１５－１５０３号,,13,103,1080075,,,,,,,2021-10-11,1,,,,,アコーズ,0
1730,6010401163100,新規,0,2021-10-11,2021-10-11,株式会社Ｔａｌｅｎｔ　ｘ　Ｂｕｚｚ,,株式会社,東京都,港区,麻布十番４丁目１番８号,,13,103,1060045,,,,,,,2021-10-11,1,,,,,タレントバズ,0
1731,6010401163109,新規,0,2021-10-11,2021-10-11,株式会社一真建産,,株式会社,東京都,港区,六本木７丁目１８番５号,,13,103,1060032,,,,,,,2021-10-11,1,,,,,イッシンケンサン,0
1738,6010601060064,新規,0,2021-10-11,2021-10-11,Ｎａｖｉｒｅ日本株式会社,,株式会社,東京都,墨田区,亀沢１丁目６－１６,,13,107,1300014,,,,,,,2021-10-11,1,,,,,ナヴィールニホン,0
1740,6010701041617,新規,0,2021-10-11,2021-10-11,株式会社Ｎ＆Ｗ,,株式会社,東京都,品川区,東五反田２丁目１０番１－４１２号,,13,109,1410022,,,,,,,2021-10-11,1,,,,,エヌアンドダブリュー,0
1751,6011001143285,新規,0,2021-10-11,2021-10-11,株式会社ともにジャパン,,株式会社,東京都,目黒区,目黒２丁目１１番３号,,13,110,1530063,,,,,,,2021-10-11,1,,,,,トモニジャパン,0
1752,6011001143293,新規,0,2021-10-11,2021-10-11,エヌドットバーバー株式会社,,株式会社,東京都,渋谷区,広尾５丁目１番２０号七星舎ビル３Ｆ,,13,113,1500012,,,,,,,2021-10-11,1,,,,,エヌドットバーバー,0
1762,6011101096482,新規,0,2021-10-11,2021-10-11,株式会社チセレ,,株式会社,東京都,新宿区,新宿３丁目９番７号Ｔ＆ＴＩＩビル８階,00124515,13,104,1600022,,,,,,,2021-10-11,1,,,,,チセレ,0
1763,6011101096516,新規,0,2021-10-11,2021-10-11,株式会社ムニー,,株式会社,東京都,新宿区,岩戸町７番地,,13,104,1620832,,,,,,,2021-10-11,1,,,,,ムニー,0
1764,6011101096524,新規,0,2021-10-11,2021-10-11,株式会社Ｒａｋｕｓｏ,,株式会社,東京都,新宿区,北新宿１丁目２８番１５－８０２号,,13,104,1690074,,,,,,,2021-10-11,1,,,,,ラクソ,0
1765,6011101096540,新規,0,2021-10-11,2021-10-11,株式会社Ｘ－ＬＡＢＯ,,株式会社,東京都,新宿区,高田馬場１丁目２９番６号野菊ビル３０２,,13,104,1690075,,,,,,,2021-10-11,1,,,,,クロスラボ,0
1768,6011301027238,新規,0,2021-10-11,2021-10-11,株式会社Ｃａｒｒａｔ　Ｉｎｃ,,株式会社,東京都,杉並区,成田東４丁目１０番１５号Ｆｌｏｒａ南阿佐ヶ谷２０２,,13,115,1660015,,,,,,,2021-10-11,1,,,,,カラットインク,0
1771,6011603003399,新規,0,2021-10-11,2021-10-11,合同会社アイディール,,合同会社,東京都,練馬区,練馬１丁目２５番７－９０４号,,13,120,1760001,,,,,,,2021-10-11,1,,,,,アイディール,0
1775,6011701024768,新規,0,2021-10-11,2021-10-11,キャリア設備株式会社,,株式会社,東京都,江戸川区,北小岩２丁目１番１６－１３０４号ラ・ベルティ小岩,,13,123,1330051,,,,,,,2021-10-11,1,,,,,キャリアセツビ,0
1781,6011803004825,新規,0,2021-10-11,2021-10-11,合同会社Ｄｅｃｏｃｏ,,合同会社,東京都,葛飾区,奥戸５丁目１１番１４号,,13,122,1240022,,,,,,,2021-10-11,1,,,,,デココ,0
1787,6012701016697,新規,0,2021-10-11,2021-10-11,株式会社Ｓｕｎｎｙ　Ｉｎｖｅｓｔｍｅｎｔ,,株式会社,東京都,小平市,花小金井３丁目７番５,,13,211,1870002,,,,,,,2021-10-11,1,,,,,サニーインベストメント,0
1788,6012701016714,新規,0,2021-10-11,2021-10-11,株式会社Ｈ＆Ａ,,株式会社,東京都,東久留米市,中央町２丁目９－２０,,13,222,2030054,,,,,,,2021-10-11,1,,,,,エイチアンドエー,0
1790,6012801021151,新規,0,2021-10-11,2021-10-11,株式会社ＣＯＴＯＮＡＲＥ,,株式会社,東京都,立川市,高松町２丁目１番２５号,,13,202,1900011,,,,,,,2021-10-11,1,,,,,コトナレ,0
1801,6020001143410,新規,0,2021-10-11,2021-10-11,株式会社なないろ,,株式会社,神奈川県,川崎市宮前区,初山１丁目１２番７５号,,14,136,2160026,,,,,,,2021-10-11,1,,,,,ナナイロ,0
1805,6020003020624,新規,0,2021-10-11,2021-10-11,合同会社ロングポイント,,合同会社,神奈川県,川崎市宮前区,宮崎４丁目１番地４８５,,14,136,2160033,,,,,,,2021-10-11,1,,,,,ロングポイント,0
1823,6030001144663,新規,0,2021-10-11,2021-10-11,株式会社ＩＳＳ・ＪＡＰＡＮ,,株式会社,埼玉県,さいたま市南区,辻８丁目１０番１３号ハイツ江川３０５,,11,108,3360026,,,,,,,2021-10-11,1,,,,,アイエスエスジャパン,0
1831,6030005020547,新規,0,2021-10-11,2021-10-11,一般社団法人日本嚥下機能訓練協会,,その他の設立登記法人,埼玉県,本庄市,中央１丁目５番２９号,,11,211,3670053,,,,,,,2021-10-11,1,,,,,ニホンエンゲキノウクンレンキョウカイ,0
1832,6030005020571,新規,0,2021-10-11,2021-10-11,医療法人令英会,,その他の設立登記法人,埼玉県,和光市,下新倉２丁目１０番３号ＧＩＲＡＳＯＬＷａｋｏ１階,,11,229,3510111,,,,,,,2021-10-11,1,,,,,リョウエイカイ,0
1839,6040001120399,新規,0,2021-10-11,2021-10-11,株式会社高木興産,00124526,株式会社,千葉県,香取市,香取２２５番地,,12,236,2870017,,,,,,,2021-10-11,1,,,,,タカギコウサン,0
1840,6040001120416,新規,0,2021-10-11,2021-10-11,株式会社ＰＬＵＭＥ,,株式会社,千葉県,千葉市花見川区,作新台１丁目１０番１３号,,12,102,2620045,,,,,,,2021-10-11,1,,,,,プリューム,0
1841,6040001120531,新規,0,2021-10-11,2021-10-11,株式会社田久保食堂,,株式会社,千葉県,船橋市,市場１丁目８番１号,,12,204,2730001,,,,,,,2021-10-11,1,,,,,タクボショクドウ,0
1842,6040001120548,新規,0,2021-10-11,2021-10-11,日中国際株式会社,,株式会社,千葉県,千葉市稲毛区,山王町２５０番地２８,,12,103,2630002,,,,,,,2021-10-11,1,,,,,ニッチュウコクサイ,0
1843,6040001120564,新規,0,2021-10-11,2021-10-11,明傑リサイクル株式会社,,株式会社,千葉県,市原市,海士有木字初崎７１７－６,,12,219,2900207,,,,,,,2021-10-11,1,,,,,メイケツリサイクル,0
1847,6040003018708,新規,0,2021-10-11,2021-10-11,Ｒｅ－Ｃｈｉ合同会社,,合同会社,千葉県,千葉市緑区,おゆみ野３丁目４０番地２,,12,105,2660031,,,,,,,2021-10-11,1,,,,,レーチ,0
1848,6040003018716,新規,0,2021-10-11,2021-10-11,合同会社しすいっ子クラブ運営委員会,,合同会社,千葉県,印旛郡酒々井町,酒々井２０３番地,,12,322,2850927,,,,,,,2021-10-11,1,,,,,シスイッコクラブウンエイイインカイ,0
1852,6050001049968,新規,0,2021-10-11,2021-10-11,株式会社シンメディカル,,株式会社,茨城県,常陸太田市,天神林町１２２５番地の５３,,08,212,3130049,,,,,,,2021-10-11,1,,,,,シンメディカル,0
1855,6060001034176,新規,0,2021-10-11,2021-10-11,カクイシ工業株式会社,,株式会社,栃木県,宇都宮市,江曽島１丁目１２番２号４号棟,,09,201,3210107,,,,,,,2021-10-11,1,,,,,カクイシコウギョウ,0
1873,6080403004386,新規,0,2021-10-11,2021-10-11,合同会社サウンドＮｉｎｊａ,,合同会社,静岡県,浜松市中区,高林１丁目２番１０号,,22,131,4300907,,,,,,,2021-10-11,1,,,,,サウンドニンジャ,0
1881,6110001036084,新規,0,2021-10-11,2021-10-11,株式会社ＶＩＶＩＤ,,株式会社,新潟県,新潟市秋葉区,滝谷本町２－１４,,15,105,9560855,,,,,,,2021-10-11,1,,,,,ビビッド,0
1882,6110001036092,新規,0,2021-10-11,2021-10-11,株式会社昭,,株式会社,新潟県,阿賀野市,保田１８１２番地,,15,223,9592221,,,,,,,2021-10-11,1,,,,,ショウ,0
1897,6120001241030,新規,0,2021-10-11,2021-10-11,スタジオ・フィルター株式会社,,株式会社,大阪府,大阪市北区,天満４丁目５番１３号栗原ビル３０２,,27,127,5300043,,,,,,,2021-10-11,1,,,,,スタジオフィルター,0
1904,6120101064463,新規,0,2021-10-11,2021-10-11,株式会社エム,,株式会社,大阪府,堺市東区,日置荘西町２丁１４番２９号,,27,143,5998114,,,,,,,2021-10-11,1,,,,,エム,0
1906,6120105009456,新規,0,2021-10-11,2021-10-11,特定非営利活動法人ＰＡＳ,,その他の設立登記法人,大阪府,河内長野市,原町１９４番地６,,27,216,5860021,,,,,,,2021-10-11,1,,,,,パス,0
1913,6130001070206,新規,0,2021-10-11,2021-10-11,株式会社千眼ＢＺＴ,,株式会社,京都府,京都市山科区,四ノ宮大将軍町１６－３ＬＡＮＡＳＵＮ－ＹＯＵ１Ｆ,,26,110,6078029,,,,,,,2021-10-11,1,,,,,センアイビーゼットティー,0
1922,6140001123251,新規,0,2021-10-11,2021-10-11,株式会社森商,,株式会社,兵庫県,神戸市須磨区,妙法寺字岩山１０５８－１－６０３,,28,107,6540121,,,,,,,2021-10-11,1,,,,,モリショウ,0
1923,6140001123350,新規,0,2021-10-11,2021-10-11,株式会社メリーポンド,,株式会社,兵庫県,明石市,大久保町大窪２６１０番地の５６,,28,203,6740051,,,,,,,2021-10-11,1,,,,,メリーポンド,0
1924,6140001123383,新規,0,2021-10-11,2021-10-11,米谷商會株式会社,,株式会社,兵庫県,神戸市中央区,加納町４丁目７番４号ゴールドプラザビル７階Ｈ号室,,28,110,6500001,,,,,,,2021-10-11,1,,,,,コメタニショウカイ,0
1925,6140001123391,新規,0,2021-10-11,2021-10-11,株式会社サンウッド,,株式会社,兵庫県,加古川市,平岡町一色西１丁目２１６番地の３８,,28,210,6750117,,,,,,,2021-10-11,1,,,,,,0
1926,6140001123417,新規,0,2021-10-11,2021-10-11,株式会社麦みずき,,株式会社,兵庫県,神戸市中央区,下山手通６丁目４番６－３０５号,,28,110,6500011,,,,,,,2021-10-11,1,,,,,ムギミズキ,0
1927,6140001123425,新規,0,2021-10-11,2021-10-11,Ｋ－ＰＬＵＳ株式会社,,株式会社,兵庫県,西宮市,上甲子園５丁目４番１２号,,28,204,6638114,,,,,,,2021-10-11,1,,,,,ケイプラス,0
1945,6180001148170,新規,0,2021-10-11,2021-10-11,株式会社ｅｓｏｌａ,,株式会社,愛知県,名古屋市中村区,名駅３丁目２８番１２号大名古屋ビルヂング１１階,,23,105,4500002,,,,,,,2021-10-11,1,,,,,エソラ,0
1946,6180001148195,新規,0,2021-10-11,2021-10-11,株式会社タスクスクエア,,株式会社,愛知県,名古屋市北区,光音寺町１丁目１１２番地の１・２階,,23,103,4620053,,,,,,,2021-10-11,1,,,,,タスクスクエア,0
1947,6180001148245,新規,0,2021-10-11,2021-10-11,カーベース株式会社,,株式会社,愛知県,名古屋市名東区,上社２丁目２１８番地,,23,115,4650025,,,,,,,2021-10-11,1,,,,,カーベース,0
1952,6180005019475,新規,0,2021-10-11,2021-10-11,協同組合トラストインターナショナル,,その他の設立登記法人,愛知県,名古屋市熱田区,神宮２丁目２番６号,,23,109,4560031,,,,,,,2021-10-11,1,,,,,トラストインターナショナル,0
1968,6200001039284,新規,0,2021-10-11,2021-10-11,株式会社アッシュ,,株式会社,岐阜県,岐阜市,茜部野瀬２丁目５番地１,,21,201,5008283,,,,,,,2021-10-11,1,,,,,アッシュ,0
1969,6200003005342,新規,0,2021-10-11,2021-10-11,合同会社ＨＥＹ,,合同会社,岐阜県,岐阜市,弁天町２丁目１番地１９,,21,201,5008307,,,,,,,2021-10-11,1,,,,,ヘイ,0
1977,6240001058735,新規,0,2021-10-11,2021-10-11,株式会社トワメイト,,株式会社,広島県,福山市,松永町４丁目２２番４３－１５号,,34,207,7290104,,,,,,,2021-10-11,1,,,,,トワメイト,0
1986,6260001036078,新規,0,2021-10-11,2021-10-11,株式会社モードタカラ,,株式会社,岡山県,岡山市北区,蕃山町４番５号,,33,101,7000818,,,,,,,2021-10-11,1,,,,,モードタカラ,0
1998,6290001094866,新規,0,2021-10-11,2021-10-11,株式会社エンジン,,株式会社,福岡県,大川市,大字下林５１２番地１,,40,212,8310002,,,,,,,2021-10-11,1,,,,,エンジン,0
1999,6290001094890,新規,0,2021-10-11,2021-10-11,株式会社ケイズメディカル,,株式会社,福岡県,三潴郡大木町,大字福土１１５番地２,,40,522,8300402,,,,,,,2021-10-11,1,,,,,ケイズメディカル,0
2000,6290001094924,新規,0,2021-10-11,2021-10-11,株式会社翔設工業,,株式会社,福岡県,大牟田市,上屋敷町２丁目２番地２８,,40,202,8360072,,,,,,,2021-10-11,1,,,,,ショウセツコウギョウ,0
2004,6290801027892,新規,0,2021-10-11,2021-10-11,株式会社大江グループ,,株式会社,福岡県,北九州市八幡西区,高江４丁目１番２１号,,40,109,8071152,,,,,,,2021-10-11,1,,,,,オオエグループ,0
2017,6340003003596,新規,0,2021-10-11,2021-10-11,合同会社桜大和,,合同会社,鹿児島県,鹿児島市,上之園町２５－３６光健ボイスビル７０５,,46,201,8900052,,,,,,,2021-10-11,1,,,,,オオワ,0
2018,6360001029484,新規,0,2021-10-11,2021-10-11,株式会社ＳＮＯＯＰＹ,,株式会社,沖縄県,那覇市,辻２丁目２０番２３号知念ビル１Ｆ,00124520,47,201,9000037,,,,,,,2021-10-11,1,,,,,スヌーピー,0
2019,6360001029492,新規,0,2021-10-11,2021-10-11,さんこう株式会社,,株式会社,沖縄県,うるま市,字具志川２９０７番地１,,47,213,9042223,,,,,,,2021-10-11,1,,,,,サンコウ,0
2020,6360003011498,新規,0,2021-10-11,2021-10-11,合同会社Ｂｚクリエイト,,合同会社,沖縄県,那覇市,首里汀良町１丁目５５番地メゾンＳ＆Ｋ・Ｂ－３０８,,47,201,9030806,,,,,,,2021-10-11,1,,,,,ビズクリエイト,0
2022,6370001047700,新規,0,2021-10-11,2021-10-11,Ｒ産業株式会社,,株式会社,宮城県,名取市,飯野坂字土城堀３２番地１,,04,207,9811225,,,,,,,2021-10-11,1,,,,,アールサンギョウ,0
2023,6370003005441,新規,0,2021-10-11,2021-10-11,ＭＰ合同会社,,合同会社,宮城県,栗原市,高清水忽滑沢２９番地４８,,04,213,9872005,,,,,,,2021-10-11,1,,,,,エムピー,0
2041,6490003001593,新規,0,2021-10-11,2021-10-11,Ｃａｒｅ　ｐｌｕｓ合同会社,,合同会社,高知県,高知市,朝倉西町２丁目１３－２５,,39,201,7808077,,,,,,,2021-10-11,1,,,,,,0
2043,6500001023737,新規,0,2021-10-11,2021-10-11,株式会社フレンド,,株式会社,愛媛県,今治市,東鳥生町２丁目３番２１号,,38,202,7940801,,,,,,,2021-10-11,1,,,,,フレンド,0
2062,7010003035960,新規,0,2021-10-11,2021-10-11,ＮＳｉ合同会社,,合同会社,東京都,千代田区,九段北１丁目４番５号,,13,101,1020073,,,,,,,2021-10-11,1,,,,,エヌエスアイ,0
2068,7010401163108,新規,0,2021-10-11,2021-10-11,株式会社アット東日本,,株式会社,東京都,港区,西新橋１丁目１８番１４号,,13,103,1050003,,,,,,,2021-10-11,1,,,,,アットヒガシニホン,0
2079,7010701041616,新規,0,2021-10-11,2021-10-11,株式会社ブギポッド,,株式会社,東京都,品川区,西五反田３丁目６番２３－９０４号,,13,109,1410031,,,,,,,2021-10-11,1,,,,,ブギポッド,0
2080,7010701041632,新規,0,2021-10-11,2021-10-11,ＡｇｅＣｏｄｅ　ＪＡＰＡＮ株式会社,,株式会社,東京都,品川区,西五反田２丁目２３番５号,,13,109,1410031,,,,,,,2021-10-11,1,,,,,エイジコードジャパン,0
2091,7011003013411,新規,0,2021-10-11,2021-10-11,合同会社Ａｒｔｏｐｅｅｒ,,合同会社,東京都,渋谷区,神宮前５丁目２１－４玉沢ハウスＡ,,13,113,1500001,,,,,,,2021-10-11,1,,,,,アートピア,0
2092,7011003013502,新規,0,2021-10-11,2021-10-11,ＢＡＣＫＵＳ合同会社,,合同会社,東京都,渋谷区,渋谷２丁目１９－１５宮益坂ビルディング６０９,,13,113,1500002,,,,,,,2021-10-11,1,,,,,バッカス,0
2093,7011003013510,新規,0,2021-10-11,2021-10-11,合同会社アールエフ,,合同会社,東京都,渋谷区,渋谷２丁目１９－１５宮益坂ビルディング６０９,,13,113,1500002,,,,,,,2021-10-11,1,,,,,アールエフ,0
2094,7011003013519,新規,0,2021-10-11,2021-10-11,オフィスナカノインディビジュアル合同会社,,合同会社,東京都,渋谷区,広尾５丁目１－１８Ｍ田中３０１,,13,113,1500012,,,,,,,2021-10-11,1,,,,,オフィスナカノインディビジュアル,0
2095,7011005009234,新規,0,2021-10-11,2021-10-11,一般社団法人スポーツ先進医療普及推進機構,,その他の設立登記法人,東京都,渋谷区,松濤１丁目２８－２,,13,113,1500046,,,,,,,2021-10-11,1,,,,,スポーツセンシンイリョウフキュウスイシンキコウ,0
2100,7011101096473,新規,0,2021-10-11,2021-10-11,株式会社ＧＩＮ,,株式会社,東京都,新宿区,西新宿３丁目２０番２号,,13,104,1600023,,,,,,,2021-10-11,1,,,,,ジン,0
2101,7011101096481,新規,0,2021-10-11,2021-10-11,株式会社Ｃａｔｏｒｃｅ,,株式会社,東京都,新宿区,西新宿３丁目２番９号新宿ワシントンホテルビル本館２Ｆ,,13,104,1600023,,,,,,,2021-10-11,1,,,,,カトルセ,0
2102,7011101096507,新規,0,2021-10-11,2021-10-11,株式会社エスエフアール,,株式会社,東京都,新宿区,大久保３丁目８番１－１５０７号,,13,104,1690072,,,,,,,2021-10-11,1,,,,,エスエフアール,0
2103,7011101096523,新規,0,2021-10-11,2021-10-11,株式会社アビラ,,株式会社,東京都,新宿区,西新宿３丁目７番２６号ハイネスロワイヤル７０３,,13,104,1600023,,,,,,,2021-10-11,1,,,,,アビラ,0
2106,7011103011059,新規,0,2021-10-11,2021-10-11,合同会社ＬＩＭＩＴ　ＮＥＶＥＲ,,合同会社,東京都,新宿区,西早稲田２丁目１８番２３号スカイエスタ１０３,,13,104,1690051,,,,,,,2021-10-11,1,,,,,リミットネバー,0
2107,7011103011067,新規,0,2021-10-11,2021-10-11,合同会社バースデイブランチ,,合同会社,東京都,新宿区,西新宿６丁目１０番１号日土地西新宿ビル８Ｆ,,13,104,1600023,,,,,,,2021-10-11,1,,,,,バースデイブランチ,0
2113,7011301027237,新規,0,2021-10-11,2021-10-11,ｐｏｌｙｆｉｔ株式会社,,株式会社,東京都,杉並区,宮前３丁目８－３,,13,115,1680081,,,,,,,2021-10-11,1,,,,,ポリフィット,0
2115,7011501027367,新規,0,2021-10-11,2021-10-11,株式会社サテュロス,,株式会社,東京都,荒川区,西日暮里６丁目３７番１号,,13,118,1160013,,,,,,,2021-10-11,1,,,,,サテュロス,0
2116,7011503004926,新規,0,2021-10-11,2021-10-11,第二商事合同会社,,合同会社,東京都,荒川区,西日暮里２丁目９番２号都マンション３０２,,13,118,1160013,,,,,,,2021-10-11,1,,,,,ダイニショウジ,0
2121,7011703002969,新規,0,2021-10-11,2021-10-11,Ｙ＆Ｋ合同会社,,合同会社,東京都,江戸川区,東葛西６丁目１１番１６－５０２号,,13,123,1340084,,,,,,,2021-10-11,1,,,,,ワイアンドケー,0
2127,7011803004824,新規,0,2021-10-11,2021-10-11,合同会社ＴＯＣ,,合同会社,東京都,葛飾区,東水元３丁目１７番１４号,,13,122,1250033,,,,,,,2021-10-11,1,,,,,トック,0
2129,7012403005056,新規,0,2021-10-11,2021-10-11,合同会社Ｒｅｂｅｒａ,,合同会社,東京都,三鷹市,下連雀５丁目８番３－９１４号,,13,204,1810013,,,,,,,2021-10-11,1,,,,,リベラ,0
2130,7012403005064,新規,0,2021-10-11,2021-10-11,合同会社Ｇ．Ｙ．Ｎ．Ｄ,,合同会社,東京都,武蔵野市,吉祥寺南町１丁目５番９号くまもとビル７階,,13,203,1800003,,,,,,,2021-10-11,1,,,,,ジーワイエヌディ,0
2131,7012801021134,新規,0,2021-10-11,2021-10-11,フォスタービジネスサービス株式会社,,株式会社,東京都,昭島市,つつじが丘１丁目１番１０９号,,13,207,1960012,,,,,,,2021-10-11,1,,,,,フォスタービジネスサービス,0
2132,7012801021150,新規,0,2021-10-11,2021-10-11,ＭＯＴＴＡＩＮＡＩ　ＢＡＴＯＮ株式会社,,株式会社,東京都,国分寺市,本町３丁目１２番１８号セルーラ国分寺２０１,,13,214,1850012,,,,,,,2021-10-11,1,,,,,モッタイナイバトン,0
2135,7013303005848,新規,0,2021-10-11,2021-10-11,合同会社Ｐｌａｙｆｕｌｌ　Ｍｉｎｄ,,合同会社,東京都,豊島区,東池袋１丁目３６番７号アルテール池袋５１４号室,,13,116,1700013,,,,,,,2021-10-11,1,,,,,プレイフルマインド,0
2141,7020001143401,新規,0,2021-10-11,2021-10-11,株式会社ワールドブラザーズ,,株式会社,神奈川県,横浜市保土ケ谷区,西谷１丁目２１番１－１０１号,,14,106,2400054,,,,,,,2021-10-11,1,,,,,ワールドブラザーズ,0
2143,7020003020623,新規,0,2021-10-11,2021-10-11,合同会社Ｍ＆Ｙ,,合同会社,神奈川県,横浜市磯子区,栗木１丁目２３番２９－１号,,14,107,2350041,,,,,,,2021-10-11,1,,,,,エムアンドワイ,0
2150,7021001074090,新規,0,2021-10-11,2021-10-11,株式会社奏愛マネジメントサービス,,株式会社,神奈川県,鎌倉市,大船１丁目３番９号ＭＳ大船ビル３階,,14,204,2470056,,,,,,,2021-10-11,1,,,,,ソウアイマネジメントサービス,0
2156,7030001144761,新規,0,2021-10-11,2021-10-11,株式会社ｇｅｎｔｉｌｌｅｓｓｅ　ｅｔ　ｒｅｐｏｓ,,株式会社,埼玉県,越谷市,大字南荻島４２０７番地５,,11,222,3430804,,,,,,,2021-10-11,1,,,,,ジョンティエスエルポ,0
2161,7030003018105,新規,0,2021-10-11,2021-10-11,合同会社ＨＫＴ,,合同会社,埼玉県,蕨市,中央４丁目１１番１２号アネックス蕨４１１号,,11,223,3350004,,,,,,,2021-10-11,1,,,,,エイチケーティー,0
2169,7040001120448,新規,0,2021-10-11,2021-10-11,株式会社Ｍｉｙａ,,株式会社,千葉県,柏市,豊住４丁目４番７号,,12,217,2770071,,,,,,,2021-10-11,1,,,,,ミヤ,0
2170,7040001120530,新規,0,2021-10-11,2021-10-11,株式会社サープラスグローバルトレーディング,,株式会社,千葉県,松戸市,六実７丁目５番地の２５,,12,207,2702204,,,,,,,2021-10-11,1,,,,,サープラスグローバルトレーディング,0
2171,7040001120539,新規,0,2021-10-11,2021-10-11,株式会社アンクラス,,株式会社,千葉県,市川市,八幡３丁目５番１－８０３号本八幡キャピタルタワー,,12,203,2720021,,,,,,,2021-10-11,1,,,,,アンクラス,0
2172,7040001120547,新規,0,2021-10-11,2021-10-11,株式会社輝工業,,株式会社,千葉県,柏市,南増尾４丁目１７番７号,,12,217,2770054,,,,,,,2021-10-11,1,,,,,テルコウギョウ,0
2173,7040001120555,新規,0,2021-10-11,2021-10-11,株式会社ウィッツドラーク,,株式会社,千葉県,香取市,小川４９０番,,12,236,2890423,,,,,,,2021-10-11,1,,,,,ウィッツドラーク,0
2174,7040001120563,新規,0,2021-10-11,2021-10-11,株式会社萬建設工業,,株式会社,千葉県,流山市,東初石２丁目２２４番地の８６,,12,220,2700114,,,,,,,2021-10-11,1,,,,,ヨロズケンセツコウギョウ,0
2180,7060001034175,新規,0,2021-10-11,2021-10-11,株式会社ほくりん商会,,株式会社,栃木県,宇都宮市,中岡本町３７１５番地１８３,,09,201,3291105,,,,,,,2021-10-11,1,,,,,ホクリンショウカイ,0
2187,7080001024496,新規,0,2021-10-11,2021-10-11,スマイルファクトリー静岡株式会社,,株式会社,静岡県,静岡市清水区,相生町９－２５ワタナベビル５Ｆ,,22,103,4240821,,,,,,,2021-10-11,1,,,,,スマイルファクトリーシズオカ,0
2191,7080403004385,新規,0,2021-10-11,2021-10-11,合同会社つばめ,,合同会社,静岡県,浜松市東区,半田山２丁目９番２号,,22,132,4313125,,,,,,,2021-10-11,1,,,,,ツバメ,0
2194,7080405007394,新規,0,2021-10-11,2021-10-11,医療法人社団仲景会,,その他の設立登記法人,静岡県,浜松市東区,原島町３５５番地の１,,22,132,4350047,,,,,,,2021-10-11,1,,,,,チュウケイカイ,0
2195,7100001034708,新規,0,2021-10-11,2021-10-11,株式会社ＡＬＦＩＲＥ,,株式会社,長野県,飯田市,鼎下山７２９－１,,20,205,3950803,,,,,,,2021-10-11,1,,,,,アルフィア,0
2199,7100003006259,新規,0,2021-10-11,2021-10-11,合同会社カズマ,,合同会社,長野県,塩尻市,大門三番町３番６号,,20,215,3990733,,,,,,,2021-10-11,1,,,,,カズマ,0
2212,7120001240997,新規,0,2021-10-11,2021-10-11,株式会社ＺＥＥＤ,,株式会社,大阪府,枚方市,津田駅前２丁目９番１０号６０４号室,,27,210,5730125,,,,,,,2021-10-11,1,,,,,ジード,0
2213,7120001241062,新規,0,2021-10-11,2021-10-11,株式会社オリオン,,株式会社,大阪府,大阪市淀川区,木川西２丁目１番９－２０１号,,27,123,5320013,,,,,,,2021-10-11,1,,,,,オリオン,0
2218,7120003020398,新規,0,2021-10-11,2021-10-11,ＨＮ合同会社,,合同会社,大阪府,大阪市淀川区,新北野３丁目９番１４号,,27,123,5320025,,,,,,,2021-10-11,1,,,,,エイチエヌ,0
2221,7120005022541,新規,0,2021-10-11,2021-10-11,一般社団法人徳風塾,,その他の設立登記法人,大阪府,大阪市西成区,萩之茶屋２丁目５番３号,,27,122,5570004,,,,,,,2021-10-11,1,,,,,トクフウジュク,0
2228,7120101064462,新規,0,2021-10-11,2021-10-11,株式会社ｎｉｃｏ　ｐｌｕｓ,,株式会社,大阪府,堺市西区,浜寺石津町西２丁８番２号,,27,144,5928333,,,,,,,2021-10-11,1,,,,,ニコプラス,0
2232,7120901045034,新規,0,2021-10-11,2021-10-11,株式会社ＳＩＬＫＹ,,株式会社,大阪府,吹田市,江坂町１丁目１２番７号,,27,205,5640063,,,,,,,2021-10-11,1,,,,,シルキー,0
2248,7140001123358,新規,0,2021-10-11,2021-10-11,株式会社岡田電気,,株式会社,兵庫県,姫路市,石倉８０１番地３,,28,201,6712231,,,,,,,2021-10-11,1,,,,,オカダデンキ,0
2249,7140001123382,新規,0,2021-10-11,2021-10-11,株式会社Ｋｅｎｊｉｎ,,株式会社,兵庫県,川西市,南花屋敷４丁目１４番７号,,28,217,6660026,,,,,,,2021-10-11,1,,,,,ケンジン,0
2250,7140001123390,新規,0,2021-10-11,2021-10-11,株式会社共伸電機工業所,,株式会社,兵庫県,姫路市,網干区新在家２０２３番地１６４,,28,201,6711234,,,,,,,2021-10-11,1,,,,,キョウシンデンキコウギョウショ,0
2251,7140001123408,新規,0,2021-10-11,2021-10-11,株式会社Ｋ－ｆａｃｔｏｒｙ,,株式会社,兵庫県,尼崎市,蓬川町３０２番地１４ザ・ガーデネスクシティコムズ館１０９号,,28,202,6600081,,,,,,,2021-10-11,1,,,,,ケーファクトリー,0
2252,7140001123424,新規,0,2021-10-11,2021-10-11,株式会社ｄｏｈａｋｕ,,株式会社,兵庫県,姫路市,駅前町２２２,,28,201,6700927,,,,,,,2021-10-11,1,,,,,ドハク,0
2259,7140003016816,新規,0,2021-10-11,2021-10-11,合同会社太陽堂,,合同会社,兵庫県,尼崎市,稲葉荘２丁目２－２０,,28,202,6600064,,,,,,,2021-10-11,1,,,,,タイヨウドウ,0
2260,7140003016840,新規,0,2021-10-11,2021-10-11,合同会社Ｃｈｏｕｅｔｔｅ,,合同会社,兵庫県,姫路市,飾磨区阿成鹿古１５５番地,,28,201,6728038,,,,,,,2021-10-11,1,,,,,シュエット,0
2261,7140003016857,新規,0,2021-10-11,2021-10-11,合同会社甲東園ハウジング,,合同会社,兵庫県,西宮市,甲東園３丁目２番２２－２０４号,,28,204,6620812,,,,,,,2021-10-11,1,,,,,コウトウエンハウジング,0
2263,7140005025848,新規,0,2021-10-11,2021-10-11,一般社団法人あまねｃｏｍ．,,その他の設立登記法人,兵庫県,姫路市,新在家本町３丁目２番２５号,,28,201,6700092,,,,,,,2021-10-11,1,,,,,アマネコムドット,0
2289,7180301035480,新規,0,2021-10-11,2021-10-11,株式会社悠伸堂薬局,,株式会社,愛知県,岡崎市,井ノ口町字和田屋１番地ランドプラザビル１階,,23,202,4442133,,,,,,,2021-10-11,1,,,,,ユウシンドウヤッキョク,0
2290,7190003003784,新規,0,2021-10-11,2021-10-11,宮城リサイクルショップ２合同会社,,合同会社,三重県,津市,大里睦合町１７６番地１,,24,201,5140126,,,,,,,2021-10-11,1,,,,,ミヤシロリサイクルショップツー,0
2293,7210001018641,新規,0,2021-10-11,2021-10-11,株式会社かに楽,,株式会社,福井県,福井市,順化１丁目１０番４号,,18,201,9100023,,,,,,,2021-10-11,1,,,,,カニラク,0
2308,7260001036085,新規,0,2021-10-11,2021-10-11,株式会社藤井石材店,,株式会社,岡山県,高梁市,巨瀬町４６５９番地２,,33,209,7161311,,,,,,,2021-10-11,1,,,,,フジイセキザイテン,0
2311,7270003001359,新規,0,2021-10-11,2021-10-11,合同会社ＬＲコンサルティングオフィス,,合同会社,鳥取県,鳥取市,片原３丁目２１１番地,,31,201,6800023,,,,,,,2021-10-11,1,,,,,エルアールコンサルティングオフィス,0
2316,7290001094898,新規,0,2021-10-11,2021-10-11,株式会社Ｌｓ,,株式会社,福岡県,福岡市博多区,博多駅前４丁目２４番２０号グロリアス博多６０３号,,40,132,8120011,,,,,,,2021-10-11,1,,,,,エルズ,0
2317,7290001094915,新規,0,2021-10-11,2021-10-11,株式会社ＣＥＬＬ　ＬＥＧＥＮＤ,,株式会社,福岡県,福岡市博多区,住吉３丁目１番１号,,40,132,8120018,,,,,,,2021-10-11,1,,,,,セルレジェンド,0
2318,7290001094956,新規,0,2021-10-11,2021-10-11,株式会社グランドスタイル,,株式会社,福岡県,福岡市博多区,博多駅前２丁目１番１号福岡朝日ビル１階,,40,132,8120011,,,,,,,2021-10-11,1,,,,,グランドスタイル,0
2324,7290801027900,新規,0,2021-10-11,2021-10-11,株式会社重建,,株式会社,福岡県,京都郡みやこ町,勝山松田２８５番地１,,40,625,8240802,,,,,,,2021-10-11,1,,,,,ジュウケン,0
2330,7310001017526,新規,0,2021-10-11,2021-10-11,ＷＩＳＴＥＲＩＡ－ホールディングス株式会社,,株式会社,長崎県,長崎市,琴海戸根原町８３１番地５,,42,201,8513211,,,,,,,2021-10-11,1,,,,,ウィステリアホールディングス,0
2342,7350001017340,新規,0,2021-10-11,2021-10-11,株式会社Ｍ－Ｇｌｏｃａｌ,,株式会社,宮崎県,宮崎市,中央通２－１３貴久屋ビル２階,,45,201,8800002,,,,,,,2021-10-11,1,,,,,エムグローカル,0
2347,7360005006520,新規,0,2021-10-11,2021-10-11,特定非営利活動法人ひまわりらぼ,,その他の設立登記法人,沖縄県,那覇市,銘苅２丁目３番１号なは産業支援センター４０３号ＯＰＥＮＥＲＭａｎａｇｅｍｅｎｔ（株）内,,47,201,9000004,,,,,,,2021-10-11,1,,,,,ヒマワリラボ,0
2348,7370001047658,新規,0,2021-10-11,2021-10-11,株式会社洋和建設,,株式会社,宮城県,名取市,字手倉田諏訪６１１番地の１レジデンス手倉田ＩＩ－１１２号,00124521,04,207,9811200,,,,,,,2021-10-11,1,,,,,ヨウワケンセツ,0
2349,7370001047699,新規,0,2021-10-11,2021-10-11,株式会社シンライ,,株式会社,宮城県,仙台市若林区,今泉２丁目２番１９号,,04,103,9840835,,,,,,,2021-10-11,1,,,,,シンライ,0
2350,7370003005440,新規,0,2021-10-11,2021-10-11,合同会社Ｂｒｉｇｈｔｏｎ,,合同会社,宮城県,仙台市太白区,八木山本町２丁目３番１号,,04,104,9820801,,,,,,,2021-10-11,1,,,,,ブライトン,0
2376,7490001010018,新規,0,2021-10-11,2021-10-11,株式会社みどりの恵,,株式会社,高知県,香美市,土佐山田町東本町４丁目２番２６号,,39,212,7820031,,,,,,,2021-10-11,1,,,,,ミドリノメグミ,0
2380,7500001023736,新規,0,2021-10-11,2021-10-11,株式会社ＲａｉｎｂоｗＣｈａｓｅｒ,,株式会社,愛媛県,松山市,本町３丁目５番１８号,,38,201,7900811,,,,,,,2021-10-11,1,,,,,レインボーチェイサー,0
2394,8010001221644,新規,0,2021-10-11,2021-10-11,ヴィジョンオブ株式会社,,株式会社,東京都,中央区,築地１丁目１３番５－２３Ｆ,,13,102,1040045,,,,,,,2021-10-11,1,,,,,ヴィジョンオブ,0
2395,8010001221685,新規,0,2021-10-11,2021-10-11,ＧＭコミュニケーション株式会社,,株式会社,東京都,中央区,八重洲１丁目３－７八重洲ファーストフィナンシャルビル１３Ｆ,,13,102,1030028,,,,,,,2021-10-11,1,,,,,ジーエムコミュニケーション,0
2398,8010003035984,新規,0,2021-10-11,2021-10-11,サステナブルローンファンド３号合同会社,,合同会社,東京都,中央区,八丁堀４丁目２番１０号ＡＯＪ税理士法人内,,13,102,1040032,,,,,,,2021-10-11,1,,,,,サステナブルローンファンドサンゴウ,0
2405,8010401163107,新規,0,2021-10-11,2021-10-11,ブリッジイノベーション株式会社,,株式会社,東京都,港区,六本木６丁目２－３１－１７階,,13,103,1060032,,,,,,,2021-10-11,1,,,,,ブリッジイノベーション,0
2409,8010403026278,新規,0,2021-10-11,2021-10-11,カラースキーム合同会社,,合同会社,東京都,港区,芝大門１丁目１５番１号第３高千穂ビル５階,,13,103,1050012,,,,,,,2021-10-11,1,,,,,カラースキーム,0
2410,8010503006403,新規,0,2021-10-11,2021-10-11,クリエイティブキャピタル合同会社,,合同会社,東京都,台東区,谷中６丁目１番４号,,13,106,1100001,,,,,,,2021-10-11,1,,,,,クリエイティブキャピタル,0
2411,8010601060046,新規,0,2021-10-11,2021-10-11,株式会社ＴＣケアライズ,,株式会社,東京都,江東区,豊洲４丁目９番１３－１１０７号,,13,108,1350061,,,,,,,2021-10-11,1,,,,,ティーシーケアライズ,0
2412,8010601060054,新規,0,2021-10-11,2021-10-11,株式会社Ｂｒｉｇｈｔ　Ｌｅａｒｎｉｎｇ,,株式会社,東京都,江東区,東陽３丁目１２番９号１階,,13,108,1350016,,,,,,,2021-10-11,1,,,,,ブライトラーニング,0
2413,8010601060062,新規,0,2021-10-11,2021-10-11,株式会社ウチムラ,,株式会社,東京都,墨田区,横川５丁目１０－１－１３２５,,13,107,1300003,,,,,,,2021-10-11,1,,,,,ウチムラ,0
2425,8011001143267,新規,0,2021-10-11,2021-10-11,株式会社ベリーグッド・カンパニー,,株式会社,東京都,目黒区,上目黒３丁目２１番２９号Ｐｒｅｓｔｉｇｅ中目黒２０１,,13,110,1530051,,,,,,,2021-10-11,1,,,,,ベリーグッドカンパニー,0
2426,8011001143283,新規,0,2021-10-11,2021-10-11,株式会社ＡＢＣ,,株式会社,東京都,渋谷区,恵比寿南２丁目１０番５号アローサル恵比寿南３０３,,13,113,1500022,,,,,,,2021-10-11,1,,,,,エービーシー,0
2427,8011001143300,新規,0,2021-10-11,2021-10-11,株式会社ＦＲＩＫＥ,,株式会社,東京都,渋谷区,渋谷２丁目１９番１７号,,13,113,1500002,,,,,,,2021-10-11,1,,,,,フリーク,0
2428,8011003013518,新規,0,2021-10-11,2021-10-11,しおにく企画合同会社,,合同会社,東京都,目黒区,自由が丘２丁目１８－１１,,13,110,1520035,,,,,,,2021-10-11,1,,,,,シオニクキカク,0
2429,8011003013526,新規,0,2021-10-11,2021-10-11,合同会社Ｐａｌｅｔｔｅ,,合同会社,東京都,渋谷区,神宮前６丁目２３番４号,,13,113,1500001,,,,,,,2021-10-11,1,,,,,パレット,0
2431,8011101096472,新規,0,2021-10-11,2021-10-11,株式会社エデュケーターサポートサービス,,株式会社,東京都,新宿区,西新宿３丁目１６番６号水野ビル１１階,,13,104,1600023,,,,,,,2021-10-11,1,,,,,エデュケーターサポートサービス,0
2432,8011101096480,新規,0,2021-10-11,2021-10-11,株式会社ＢＯＮ,,株式会社,東京都,新宿区,南町３３番地,,13,104,1620836,,,,,,,2021-10-11,1,,,,,ボン,0
2433,8011101096489,新規,0,2021-10-11,2021-10-11,株式会社ベストロング,,株式会社,東京都,新宿区,下宮比町３番２８号飯田橋ハイタウン７２９号室,,13,104,1620822,,,,,,,2021-10-11,1,,,,,ベストロング,0
2434,8011101096530,新規,0,2021-10-11,2021-10-11,株式会社ケンズカフェ東京,,株式会社,東京都,新宿区,新宿１丁目２３番３号,,13,104,1600022,,,,,,,2021-10-11,1,,,,,ケンズカフェトウキョウ,0
2436,8011103011074,新規,0,2021-10-11,2021-10-11,合同会社ＳＵＣＣＥＳＳ,,合同会社,東京都,新宿区,西落合２丁目８－２９,,13,104,1610031,,,,,,,2021-10-11,1,,,,,サクセス,0
2443,8011801039813,新規,0,2021-10-11,2021-10-11,東京人材紹介センター株式会社,,株式会社,東京都,足立区,旭町４３番１号,,13,121,1200000,,,,,,,2021-10-11,1,,,,,トウキョウジンザイショウカイセンター,0
2451,8012401038379,新規,0,2021-10-11,2021-10-11,株式会社ｏｆｆｔｏｎ,,株式会社,東京都,府中市,宮町１丁目１００番地プラウド府中ステーションアリーナ８０２,,13,206,1830023,,,,,,,2021-10-11,1,,,,,オフトン,0
2455,8012805003061,新規,0,2021-10-11,2021-10-11,医療法人社団仁孝和会,,その他の設立登記法人,東京都,立川市,曙町２丁目１１番２号フロム中武７階７０５－２,,13,202,1900012,,,,,,,2021-10-11,1,,,,,ジンコウワカイ,0
2458,8013303005847,新規,0,2021-10-11,2021-10-11,Ｗｉｌｌ合同会社,,合同会社,東京都,豊島区,要町３丁目６－４コートラナイ１０１,,13,116,1710043,,,,,,,2021-10-11,1,,,,,ウィル,0
2467,8020001143375,新規,0,2021-10-11,2021-10-11,株式会社棒屋,,株式会社,神奈川県,川崎市麻生区,黒川６８番地,,14,137,2150035,,,,,,,2021-10-11,1,,,,,ボウヤ,0
2468,8020001143409,新規,0,2021-10-11,2021-10-11,株式会社Ｖｅｒｎｉｃｅ,,株式会社,神奈川県,横浜市瀬谷区,目黒町２６番１号,,14,114,2460007,,,,,,,2021-10-11,1,,,,,ヴェルニーチェ,0
2472,8020003020622,新規,0,2021-10-11,2021-10-11,合同会社出前の始め方,,合同会社,神奈川県,横浜市神奈川区,三枚町１４３番地６－２０２号,,14,102,2210862,,,,,,,2021-10-11,1,,,,,デマエノハジメカタ,0
2478,8021001074172,新規,0,2021-10-11,2021-10-11,株式会社中井トータルサービス,,株式会社,神奈川県,足柄上郡中井町,井ノ口２７９５番地４,,14,361,2590151,,,,,,,2021-10-11,1,,,,,ナカイトータルサービス,0
2480,8021003010976,新規,0,2021-10-11,2021-10-11,ＭＥＩＪＩ商会合同会社,,合同会社,神奈川県,厚木市,中依知５００番地,,14,212,2430805,,,,,,,2021-10-11,1,,,,,,0
2484,8030001144744,新規,0,2021-10-11,2021-10-11,株式会社ミーユー,,株式会社,埼玉県,戸田市,大字新曽１９９１番地５０７号室,,11,224,3350021,,,,,,,2021-10-11,1,,,,,ミーユー,0
2485,8030001144769,新規,0,2021-10-11,2021-10-11,株式会社ＷＡＺＡ－ＡＲＩ,,株式会社,埼玉県,吉川市,大字上内川９７４番地２,,11,243,3420001,,,,,,,2021-10-11,1,,,,,ワザアリ,0
2486,8030003018095,新規,0,2021-10-11,2021-10-11,合同会社ＳＯＤＡＳ,,合同会社,埼玉県,所沢市,中新井１丁目８５６番地コーポ　カトレア２０３,,11,208,3590041,,,,,,,2021-10-11,1,,,,,ソダシ,0
2487,8030003018104,新規,0,2021-10-11,2021-10-11,嵐合同会社,,合同会社,埼玉県,川口市,西川口６丁目１２－１５シャンボール第２西川口５０９,,11,203,3320021,,,,,,,2021-10-11,1,,,,,アラシ,0
2488,8030003018112,新規,0,2021-10-11,2021-10-11,ウィッシュツリー合同会社,,合同会社,埼玉県,さいたま市南区,大字大谷口５３４１番地１,,11,108,3360042,,,,,,,2021-10-11,1,,,,,ウィッシュツリー,0
2494,8040001120414,新規,0,2021-10-11,2021-10-11,株式会社ハミエル,,株式会社,千葉県,千葉市美浜区,中瀬１丁目３番地,,12,106,2610023,,,,,,,2021-10-11,1,,,,,ハミエル,0
2495,8040001120546,新規,0,2021-10-11,2021-10-11,セミカキャピタル株式会社,,株式会社,千葉県,市原市,惣社１丁目３番地１３,,12,219,2900023,,,,,,,2021-10-11,1,,,,,セミカキャピタル,0
2500,8040003018714,新規,0,2021-10-11,2021-10-11,トランジ合同会社,,合同会社,千葉県,船橋市,駿河台２丁目１７－２１ＦＡＬＴＥ１０１,,12,204,2730862,,,,,,,2021-10-11,1,,,,,トランジ,0
2508,8060001034133,新規,0,2021-10-11,2021-10-11,ＡＴＴＲＡＣＴ株式会社,,株式会社,栃木県,那須塩原市,東三島５丁目７６番地１７ボヌール長谷部３０５,,09,213,3292751,,,,,,,2021-10-11,1,,,,,アトラクト,0
2509,8060001034174,新規,0,2021-10-11,2021-10-11,株式会社ａｉｍｅｒ,,株式会社,栃木県,鹿沼市,東町３丁目５番１２－２号スカイノートイースト２０１号室,,09,205,3220022,,,,,,,2021-10-11,1,,,,,エメ,0
2512,8080001024470,新規,0,2021-10-11,2021-10-11,株式会社ＨＡＰＰＤＥＮＴ,,株式会社,静岡県,島田市,中溝町１６８４番地の３６,,22,209,4270047,,,,,,,2021-10-11,1,,,,,ハピデント,0
2513,8080001024495,新規,0,2021-10-11,2021-10-11,株式会社コーア,,株式会社,静岡県,静岡市駿河区,南町４番７―４０１号,,22,102,4228067,,,,,,,2021-10-11,1,,,,,コーア,0
2516,8080401025416,新規,0,2021-10-11,2021-10-11,株式会社タックスサービス,,株式会社,静岡県,浜松市南区,立野町１８２番地,,22,134,4300827,,,,,,,2021-10-11,1,,,,,タックスサービス,0
2517,8080403004384,新規,0,2021-10-11,2021-10-11,合同会社ＴＯＰ,,合同会社,静岡県,浜松市東区,下石田町９６４－１０１,,22,132,4350006,,,,,,,2021-10-11,1,,,,,トップ,0
2522,8100003006258,新規,0,2021-10-11,2021-10-11,鴻図合同会社,,合同会社,長野県,松本市,大字岡田松岡１３８－７,,20,202,3900312,,,,,,,2021-10-11,1,,,,,コウズ,0
2523,8100005012774,新規,0,2021-10-11,2021-10-11,社会保険労務士法人中部労務会,,その他の設立登記法人,長野県,諏訪郡下諏訪町,６１７４番地６,,20,361,3930000,,,,,,,2021-10-11,1,,,,,チュウブロウムカイ,0
2539,8120001241004,新規,0,2021-10-11,2021-10-11,ＩＢＵＫＩ株式会社,,株式会社,大阪府,大阪市天王寺区,筆ケ崎町５番５３－８１３号,,27,109,5430027,,,,,,,2021-10-11,1,,,,,イブキ,0
2540,8120001241053,新規,0,2021-10-11,2021-10-11,ＬＩＦＩＸ株式会社,,株式会社,大阪府,大阪市北区,堂山町１２番３－３０６号,,27,127,5300027,,,,,,,2021-10-11,1,,,,,ライフィックス,0
2543,8120003020389,新規,0,2021-10-11,2021-10-11,サンレソルス合同会社,,合同会社,大阪府,大阪市中央区,上汐２丁目３－６日商ビル２Ｆ,,27,128,5420064,,,,,,,2021-10-11,1,,,,,サンレソルス,0
2544,8120005022540,新規,0,2021-10-11,2021-10-11,ＳＢＣパートナーズ行政書士法人,,その他の設立登記法人,大阪府,大阪市北区,太融寺町３番２４号日本生命梅田第２ビル２階,,27,127,5300051,,,,,,,2021-10-11,1,,,,,エスビーシーパートナーズ,0
2548,8120101064461,新規,0,2021-10-11,2021-10-11,株式会社五光,,株式会社,大阪府,泉佐野市,南中安松７２４番地の１３,,27,213,5980033,,,,,,,2021-10-11,1,,,,,ゴコウ,0
2556,8130001070311,新規,0,2021-10-11,2021-10-11,株式会社ファースト,,株式会社,京都府,京都市下京区,綾堀川町２９６番地２,,26,106,6008482,,,,,,,2021-10-11,1,,,,,ファースト,0
2564,8140001123373,新規,0,2021-10-11,2021-10-11,株式会社Ｂ＆Ｂ　ＭＡＲＴ,,株式会社,兵庫県,神戸市中央区,相生町５丁目１２番１号浦島ビル３０３号室,,28,110,6500025,,,,,,,2021-10-11,1,,,,,ビアンドビマート,0
2565,8140001123398,新規,0,2021-10-11,2021-10-11,株式会社タオパラダイム,,株式会社,兵庫県,姫路市,西今宿１丁目６番１４号,,28,201,6700061,,,,,,,2021-10-11,1,,,,,タオパラダイム,0
2566,8140001123423,新規,0,2021-10-11,2021-10-11,株式会社ツープラスフォーデザイン,,株式会社,兵庫県,西宮市,北名次町１１番３号ＮＥＯダイキョー夙川北名次４０８号室,,28,204,6620025,,,,,,,2021-10-11,1,,,,,ツープラスフォーデザイン,0
2567,8140001123448,新規,0,2021-10-11,2021-10-11,藤井造園土木株式会社,,株式会社,兵庫県,神戸市垂水区,美山台２丁目１８番１４号,,28,108,6550874,,,,,,,2021-10-11,1,,,,,フジイゾウエンドボク,0
2572,8140003016815,新規,0,2021-10-11,2021-10-11,合同会社Ｗａｌｋｅｒ,,合同会社,兵庫県,三田市,相生町１６番２９－２０６号,,28,219,6691526,,,,,,,2021-10-11,1,,,,,ウォーカー,0
2576,8160001023670,新規,0,2021-10-11,2021-10-11,株式会社ウェル,,株式会社,滋賀県,湖南市,水戸町１番地７,,25,211,5203215,,,,,,,2021-10-11,1,,,,,ウェル,0
2578,8170001016814,新規,0,2021-10-11,2021-10-11,株式会社橋本建設工業,,株式会社,和歌山県,和歌山市,西庄１０３６番地３０,,30,201,6400112,,,,,,,2021-10-11,1,,,,,ハシモトケンセツコウギョウ,0
2586,8180001148045,新規,0,2021-10-11,2021-10-11,株式会社Ｂｉｊｏｕ,,株式会社,愛知県,名古屋市東区,泉３丁目４－２５ラヴィータ泉３０１,,23,102,4610001,,,,,,,2021-10-11,1,,,,,ビジュー,0
2587,8180001148061,新規,0,2021-10-11,2021-10-11,株式会社ユゲテック,,株式会社,愛知県,小牧市,城山１丁目６番地６,,23,219,4850812,,,,,,,2021-10-11,1,,,,,ユゲテック,0
2588,8180001148136,新規,0,2021-10-11,2021-10-11,絆不動産株式会社,,株式会社,愛知県,春日井市,瑞穂通２丁目１５５番地１シャトー瑞穂３０３号,,23,206,4860845,,,,,,,2021-10-11,1,,,,,キズナフドウサン,0
2589,8180001148169,新規,0,2021-10-11,2021-10-11,株式会社スキルタウン,,株式会社,愛知県,名古屋市西区,名駅２丁目３４番１７号セントラル名古屋１１０１号,,23,104,4510045,,,,,,,2021-10-11,1,,,,,スキルタウン,0
2590,8180001148193,新規,0,2021-10-11,2021-10-11,株式会社豊田総合研究所,,株式会社,愛知県,名古屋市緑区,滝ノ水３丁目４０１番地,,23,114,4580021,,,,,,,2021-10-11,1,,,,,トヨタソウゴウケンキュウジョ,0
2591,8180001148227,新規,0,2021-10-11,2021-10-11,株式会社ツルミ,,株式会社,愛知県,江南市,小折町桜雲９５番地,,23,217,4838136,,,,,,,2021-10-11,1,,,,,ツルミ,0
2595,8180005019473,新規,0,2021-10-11,2021-10-11,特定非営利活動法人えんむすび,,その他の設立登記法人,愛知県,名古屋市中区,栄２丁目７番１３号ヴィア白川９２１号,,23,106,4600008,,,,,,,2021-10-11,1,,,,,エンムスビ,0
2608,8190001028766,新規,0,2021-10-11,2021-10-11,株式会社鳥居組,,株式会社,三重県,鈴鹿市,岡田２丁目１８番５号,,24,207,5130027,,,,,,,2021-10-11,1,,,,,トリイグミ,0
2612,8200003005332,新規,0,2021-10-11,2021-10-11,合同会社ジークフリーダ,,合同会社,岐阜県,下呂市,萩原町跡津１４２１番地５,,21,220,5092504,,,,,,,2021-10-11,1,,,,,ジークフリーダ,0
2638,8290001094922,新規,0,2021-10-11,2021-10-11,アイセル株式会社,,株式会社,福岡県,大牟田市,大字草木７４０番地１,,40,202,8370917,,,,,,,2021-10-11,1,,,,,アイセル,0
2639,8290001094947,新規,0,2021-10-11,2021-10-11,株式会社ハウストラスト,,株式会社,福岡県,福岡市中央区,薬院２丁目４番２７－４０１号,,40,133,8100022,,,,,,,2021-10-11,1,,,,,ハウストラスト,0
2640,8290001094955,新規,0,2021-10-11,2021-10-11,株式会社上田設備,,株式会社,福岡県,糸島市,神在西４丁目１１番３２号,,40,230,8191148,,,,,,,2021-10-11,1,,,,,ウエダセツビ,0
2641,8290001094971,新規,0,2021-10-11,2021-10-11,株式会社セワン,,株式会社,福岡県,福岡市中央区,天神４丁目１番２３号１Ｆ,,40,133,8100001,,,,,,,2021-10-11,1,,,,,セワン,0
2647,8290003011693,新規,0,2021-10-11,2021-10-11,合同会社ＦＮ企画,,合同会社,福岡県,福岡市博多区,中洲２丁目３番１号Ｆビル７階,,40,132,8100801,,,,,,,2021-10-11,1,,,,,エフエヌキカク,0
2648,8290801027899,新規,0,2021-10-11,2021-10-11,株式会社ＬｉｓＨ,,株式会社,福岡県,行橋市,北泉４丁目３５番１１号,,40,213,8240033,,,,,,,2021-10-11,1,,,,,リッシュ,0
2655,8310001017525,新規,0,2021-10-11,2021-10-11,株式会社うーふぁ,,株式会社,長崎県,佐世保市,上本山町１番地１２７,,42,202,8580903,,,,,,,2021-10-11,1,,,,,ウーファ,0
2657,8310005008553,新規,0,2021-10-11,2021-10-11,医療法人介世会はらだデンタルケアクリニック,,その他の設立登記法人,長崎県,佐世保市,折橋町３番７号,,42,202,8570021,,,,,,,2021-10-11,1,,,,,カイセイカイハラダデンタルケアクリニック,0
2658,8320001018662,新規,0,2021-10-11,2021-10-11,株式会社Ｏｕｌｕ,,株式会社,大分県,大分市,金池町２丁目９番１０号きさらぎビル３０１,,44,201,8700026,,,,,,,2021-10-11,1,,,,,オウル,0
2660,8330001029056,新規,0,2021-10-11,2021-10-11,株式会社ルーゼ,,株式会社,熊本県,熊本市東区,江津２丁目１９番１５号（２階）,,43,102,8620942,,,,,,,2021-10-11,1,,,,,ルーゼ,0
2661,8330001029064,新規,0,2021-10-11,2021-10-11,ランドマーク株式会社,,株式会社,熊本県,熊本市中央区,八王寺町４３－１６,,43,101,8600831,,,,,,,2021-10-11,1,,,,,ランドマーク,0
2662,8330003009080,新規,0,2021-10-11,2021-10-11,ＫＭＴ合同会社,,合同会社,熊本県,熊本市中央区,下通１丁目３－８下通ＮＳビル６Ｆ,,43,101,8600807,,,,,,,2021-10-11,1,,,,,ケイエムティ,0
2672,8360003011496,新規,0,2021-10-11,2021-10-11,合同会社ｃｈｅｅｓｅ,,合同会社,沖縄県,浦添市,前田２丁目１９番３－７０３号,,47,208,9012102,,,,,,,2021-10-11,1,,,,,チーズ,0
2680,8380001032253,新規,0,2021-10-11,2021-10-11,イーリスライト株式会社,,株式会社,福島県,南相馬市,原町区小木迫字堂西５４番地の１,,07,212,9750055,,,,,,,2021-10-11,1,,,,,イーリスライト,0
2684,8390003001882,新規,0,2021-10-11,2021-10-11,合同会社四喜彩,,合同会社,山形県,村山市,楯岡楯９番１１－９号,,06,208,9950021,,,,,,,2021-10-11,1,,,,,シキサイ,0
2685,8400001015635,新規,0,2021-10-11,2021-10-11,ズーミット株式会社,,株式会社,岩手県,花巻市,北湯口第１７地割５７番地６８,,03,205,0250301,,,,,,,2021-10-11,1,,,,,ズーミット,0
2697,8460001005614,新規,0,2021-10-11,2021-10-11,株式会社カトウ書館,,株式会社,北海道,釧路市,愛国西１丁目１９番１０号,,01,206,0850057,,,,,,,2021-10-11,1,,,,,カトウショカン,0
2702,8470001018747,新規,0,2021-10-11,2021-10-11,株式会社レフコ,,株式会社,香川県,丸亀市,田村町１２３８番地,,37,202,7630071,,,,,,,2021-10-11,1,,,,,レフコ,0
2706,8480005006862,新規,0,2021-10-11,2021-10-11,とくしま警備業協同組合,,その他の設立登記法人,徳島県,三好市,井川町吉岡１９０番地５,,36,208,7794803,,,,,,,2021-10-11,1,,,,,トクシマケイビギョウ,0
2707,8490001010017,新規,0,2021-10-11,2021-10-11,カーサポート株式会社,,株式会社,高知県,土佐市,高岡町丁５０番地１,,39,205,7811104,,,,,,,2021-10-11,1,,,,,カーサポート,0
2717,9010003035983,新規,0,2021-10-11,2021-10-11,合同会社アレイズ,,合同会社,東京都,中央区,銀座１丁目２２番１１号銀座大竹ビジデンス２階,,13,102,1040061,,,,,,,2021-10-11,1,,,,,アレイズ,0
2722,9010401163080,新規,0,2021-10-11,2021-10-11,株式会社Ｎｏ　Ｃｏｍｐａｎｙ,,株式会社,東京都,港区,六本木１丁目４番５号,,13,103,1060032,,,,,,,2021-10-11,1,,,,,ノーカンパニー,0
2723,9010401163097,新規,0,2021-10-11,2021-10-11,株式会社Ｇｏｄ　Ｃａｎｙｏｎ,,株式会社,東京都,港区,新橋５丁目１２番７号ＴｏｔｓｕＳｈｉｎｂａｓｈｉＢＬＤ．３階,,13,103,1050004,,,,,,,2021-10-11,1,,,,,ゴッドキャニオン,0
2724,9010401163106,新規,0,2021-10-11,2021-10-11,ＢＬｕＥ　ＳＫＹ株式会社,,株式会社,東京都,港区,芝１丁目２番１－２８０２号,,13,103,1050014,,,,,,,2021-10-11,1,,,,,ブルースカイ,0
2727,9010403026277,新規,0,2021-10-11,2021-10-11,滋賀湖南合同会社,,合同会社,東京都,港区,元赤坂１丁目１番８号株式会社赤坂国際会計内,,13,103,1070051,,,,,,,2021-10-11,1,,,,,シガコナン,0
2733,9010601060053,新規,0,2021-10-11,2021-10-11,カレントクリエイツコンサルティング株式会社,,株式会社,東京都,江東区,南砂２丁目３４番８－３０２号,,13,108,1360076,,,,,,,2021-10-11,1,,,,,カレントクリエイツコンサルティング,0
2734,9010601060061,新規,0,2021-10-11,2021-10-11,アスリンク株式会社,,株式会社,東京都,江東区,有明３丁目７－２６有明フロンティアビルＢ棟９階,,13,108,1350063,,,,,,,2021-10-11,1,,,,,アスリンク,0
2739,9010701041614,新規,0,2021-10-11,2021-10-11,クリニカルリンケージ株式会社,,株式会社,東京都,品川区,北品川２丁目２３番６号リュクス北品川３０３,,13,109,1400001,,,,,,,2021-10-11,1,,,,,クリニカルリンケージ,0
2743,9010901049597,新規,0,2021-10-11,2021-10-11,株式会社ｗｉｌｌ,,株式会社,東京都,世田谷区,太子堂１丁目３番３９－２０９号,,13,112,1540004,,,,,,,2021-10-11,1,,,,,ウィル,0
2749,9011001143266,新規,0,2021-10-11,2021-10-11,Ｓｔｒｈ株式会社,,株式会社,東京都,目黒区,上目黒３丁目１－１０ヴェルデナポリ２０３,,13,110,1530051,,,,,,,2021-10-11,1,,,,,ストラ,0
2755,9011101096496,新規,0,2021-10-11,2021-10-11,日本山崎工業株式会社,,株式会社,東京都,新宿区,百人町２丁目１－４５赤煉瓦２１１号,,13,104,1690073,,,,,,,2021-10-11,1,,,,,ニホンヤマザキコウギョウ,0
2756,9011101096538,新規,0,2021-10-11,2021-10-11,株式会社Ｗｉｎｖｅｓｔｏｒｓ,,株式会社,東京都,新宿区,新宿３丁目５番６号キュープラザ新宿三丁目６階,,13,104,1600022,,,,,,,2021-10-11,1,,,,,ウインベスターズ,0
2758,9011301027235,新規,0,2021-10-11,2021-10-11,株式会社アストロリアルティ,,株式会社,東京都,杉並区,井草５丁目１４番１６号キング・ログ・ハウス２０２,,13,115,1670021,,,,,,,2021-10-11,1,,,,,アストロリアルティ,0
2759,9011501027365,新規,0,2021-10-11,2021-10-11,株式会社ＣＢＤ　ＪＡＰＡＮ,,株式会社,東京都,北区,赤羽西１丁目３２番８－１４０２号,,13,117,1150055,,,,,,,2021-10-11,1,,,,,シービーディージャパン,0
2760,9011701024773,新規,0,2021-10-11,2021-10-11,佳源商事株式会社,,株式会社,東京都,江戸川区,松島３丁目３５番３号,,13,123,1320031,,,,,,,2021-10-11,1,,,,,カゲンショウジ,0
2761,9011703002967,新規,0,2021-10-11,2021-10-11,ＫＹ－Ｋ合同会社,,合同会社,東京都,江戸川区,東小岩６丁目３２番８号,,13,123,1330052,,,,,,,2021-10-11,1,,,,,ケイワイケイ,0
2764,9011803004822,新規,0,2021-10-11,2021-10-11,軍七零貿易合同会社,,合同会社,東京都,葛飾区,鎌倉４丁目１０番１４号,,13,122,1250053,,,,,,,2021-10-11,1,,,,,グンナナレイボウエキ,0
2767,9012403005062,新規,0,2021-10-11,2021-10-11,金丸設備合同会社,,合同会社,東京都,府中市,日新町５丁目８番地の７オリュザケードゥオ２０２,,13,206,1830036,,,,,,,2021-10-11,1,,,,,カネマルセツビ,0
2773,9013301048129,新規,0,2021-10-11,2021-10-11,株式会社メイクフーカンパニー,,株式会社,東京都,豊島区,千早２丁目８－７永沢方,,13,116,1710044,,,,,,,2021-10-11,1,,,,,メイクフーカンパニー,0
2774,9013301048137,新規,0,2021-10-11,2021-10-11,株式会社コズミック,,株式会社,東京都,豊島区,西池袋１丁目４１番６号,,13,116,1710021,,,,,,,2021-10-11,1,,,,,コズミック,0
2777,9020001143250,新規,0,2021-10-11,2021-10-11,株式会社日本外装ＮＥＸＵＳ,,株式会社,神奈川県,横浜市西区,高島２丁目１１番２号スカイメナー横浜５１９,,14,103,2200011,,,,,,,2021-10-11,1,,,,,ニホンガイソウネクサス,0
2778,9020001143408,新規,0,2021-10-11,2021-10-11,ＲＹネットワーク株式会社,,株式会社,神奈川県,川崎市中原区,下新城３丁目１０番１９号グレース新城ＩＩ１０３号,00124525,14,133,2110042,,,,,,,2021-10-11,1,,,,,アールワイネットワーク,0
2781,9020003020621,新規,0,2021-10-11,2021-10-11,合同会社ＭＡＬＴＥＲＮＡ,,合同会社,神奈川県,横浜市南区,永田東２丁目２番２７－１０４号,,14,105,2320072,,,,,,,2021-10-11,1,,,,,モルタナ,0
2787,9021001074147,新規,0,2021-10-11,2021-10-11,ＳＫトレーディング株式会社,,株式会社,神奈川県,厚木市,三田２９９１番地１,,14,212,2430211,,,,,,,2021-10-11,1,,,,,エスケートレーディング,0
2796,9030001144784,新規,0,2021-10-11,2021-10-11,ＹＭＤＪａｐａｎ株式会社,,株式会社,埼玉県,熊谷市,久下１３５番地３,,11,202,3600026,,,,,,,2021-10-11,1,,,,,ワイエムディジャパン,0
2800,9030003018111,新規,0,2021-10-11,2021-10-11,エターナル合同会社,,合同会社,埼玉県,三郷市,彦成３丁目７－１１,,11,237,3410003,,,,,,,2021-10-11,1,,,,,エターナル,0
2804,9040001120529,新規,0,2021-10-11,2021-10-11,株式会社スペサリー,,株式会社,千葉県,船橋市,上山町１丁目１４２番４８号,,12,204,2730046,,,,,,,2021-10-11,1,,,,,スペサリー,0
2805,9040001120545,新規,0,2021-10-11,2021-10-11,株式会社薄井工業,,株式会社,千葉県,八街市,吉倉１９６番地３０,,12,230,2891133,,,,,,,2021-10-11,1,,,,,ウスイコウギョウ,0
2806,9040001120561,新規,0,2021-10-11,2021-10-11,ＳＨＩＮ株式会社,,株式会社,千葉県,流山市,おおたかの森東３丁目１５番地の２アリエッタボスカート２０３,,12,220,2700138,,,,,,,2021-10-11,1,,,,,シン,0
2819,9050001049965,新規,0,2021-10-11,2021-10-11,株式会社ベルデ,,株式会社,茨城県,北茨城市,中郷町粟野７９４番地の９３,,08,215,3191554,,,,,,,2021-10-11,1,,,,,ベルデ,0
2831,9080401025415,新規,0,2021-10-11,2021-10-11,株式会社雅都,,株式会社,静岡県,浜松市南区,恩地町１３２番地,,22,134,4300814,,,,,,,2021-10-11,1,,,,,ミヤト,0
2837,9100003006257,新規,0,2021-10-11,2021-10-11,合同会社アシスト齋,,合同会社,長野県,小県郡長和町,和田５８３番地,,20,350,3860701,,,,,,,2021-10-11,1,,,,,アシストサイ,0
2838,9100005012773,新規,0,2021-10-11,2021-10-11,一般社団法人いとぐち,,その他の設立登記法人,長野県,飯田市,鼎下山８０４番地１,,20,205,3950803,,,,,,,2021-10-11,1,,,,,ミナミシンシュウキキン,0
2851,9120001240871,新規,0,2021-10-11,2021-10-11,フルサト・マルカホールディングス株式会社,,株式会社,大阪府,大阪市中央区,南新町１丁目２番１０号,,27,128,5400024,,,,,,,2021-10-11,1,,,,,フルサトマルカホールディングス,0
2853,9120001240905,新規,0,2021-10-11,2021-10-11,株式会社Ａｓｓｏ,,株式会社,大阪府,大阪市北区,黒崎町９－５Ｎ．９５＾１Ｆ,,27,127,5300023,,,,,,,2021-10-11,1,,,,,アッソ,0
2854,9120001241003,新規,0,2021-10-11,2021-10-11,株式会社ＳＵＮＲＩＳＥ,,株式会社,大阪府,大阪市淀川区,十三本町３丁目６番２７号－９１１,,27,123,5320024,,,,,,,2021-10-11,1,,,,,サンライズ,0
2855,9120001241036,新規,0,2021-10-11,2021-10-11,株式会社アーチ,,株式会社,大阪府,大阪市平野区,瓜破東２丁目１番１６－７０９号,,27,126,5470022,,,,,,,2021-10-11,1,,,,,アーチ,0
2856,9120001241069,新規,0,2021-10-11,2021-10-11,株式会社ヒロシ,,株式会社,大阪府,大阪市生野区,林寺２丁目２５番３２－１０４号,,27,116,5440023,,,,,,,2021-10-11,1,,,,,ヒロシ,0
2857,9120001241085,新規,0,2021-10-11,2021-10-11,株式会社Ｍ．Ｙテクノエンジ,,株式会社,大阪府,大阪市都島区,都島中通１丁目６番２９号,,27,102,5340022,,,,,,,2021-10-11,1,,,,,エムワイテクノエンジ,0
2858,9120001241093,新規,0,2021-10-11,2021-10-11,株式会社ｓｈｏｏｔｉｎｇ　ｓｔａｒ,,株式会社,大阪府,大阪市北区,中崎西１丁目３番９－５０５号,,27,127,5300015,,,,,,,2021-10-11,1,,,,,シューティングスター,0
2861,9120003020396,新規,0,2021-10-11,2021-10-11,合同会社アプリコット＆サクラインシュアランス,,合同会社,大阪府,枚方市,招提大谷２丁目２４番２１号,,27,210,5731153,,,,,,,2021-10-11,1,,,,,アプリコットアンドサクラインシュアランス,0
2864,9120101064460,新規,0,2021-10-11,2021-10-11,株式会社Ｋｕｂｏ　Ｓｅｔｓｕｂｉ,,株式会社,大阪府,南河内郡河南町,さくら坂２丁目１番４号,,27,382,5850025,,,,,,,2021-10-11,1,,,,,クボセツビ,0
2865,9120101064469,新規,0,2021-10-11,2021-10-11,高匠ホームテック株式会社,00124524,株式会社,大阪府,堺市中区,深井清水町３５４３番地,,27,142,5998273,,,,,,,2021-10-11,1,,,,,タカショウホームテック,0
2867,9120901044991,新規,0,2021-10-11,2021-10-11,株式会社ＤＣトラスト,,株式会社,大阪府,吹田市,朝日町５－８,,27,205,5640027,,,,,,,2021-10-11,1,,,,,ディーシトラスト,0
2868,9120901045040,新規,0,2021-10-11,2021-10-11,株式会社濱進,,株式会社,大阪府,摂津市,鳥飼西４丁目２５番８－１６号,,27,224,5660072,,,,,,,2021-10-11,1,,,,,ハマシン,0
2871,9130001070310,新規,0,2021-10-11,2021-10-11,株式会社Ｒｅ,,株式会社,京都府,京都市右京区,西京極町ノ坪町１２番地２,,26,108,6150804,,,,,,,2021-10-11,1,,,,,アールイー,0
2886,9140001123348,新規,0,2021-10-11,2021-10-11,株式会社ヨキ,,株式会社,兵庫県,美方郡香美町,小代区茅野４５５番地,,28,585,6671531,,,,,,,2021-10-11,1,,,,,ヨキ,0
2887,9140001123397,新規,0,2021-10-11,2021-10-11,株式会社向浜商店,,株式会社,兵庫県,赤穂市,加里屋５８番地６,,28,212,6780239,,,,,,,2021-10-11,1,,,,,ムコハマショウテン,0
2888,9140001123430,新規,0,2021-10-11,2021-10-11,株式会社レイグリッド,,株式会社,兵庫県,加古郡播磨町,古宮４丁目２－１Ａ－２,,28,382,6750163,,,,,,,2021-10-11,1,,,,,レイグリッド,0
2889,9140003016847,新規,0,2021-10-11,2021-10-11,合同会社ゼスト,,合同会社,兵庫県,神戸市中央区,割塚通５丁目２番９号,,28,110,6510065,,,,,,,2021-10-11,1,,,,,ゼスト,0
2905,9180001148060,新規,0,2021-10-11,2021-10-11,株式会社ユニテックス,,株式会社,愛知県,小牧市,小木５丁目４３６番地,,23,219,4850058,,,,,,,2021-10-11,1,,,,,ユニテックス,0
2906,9180001148069,新規,0,2021-10-11,2021-10-11,株式会社ｍｉｎｔ－ｄｅｓｉｇｎ,,株式会社,愛知県,弥富市,鯏浦町未新田２１番地４７,,23,235,4980021,,,,,,,2021-10-11,1,,,,,ミントデザイン,0
2919,9190001028765,新規,0,2021-10-11,2021-10-11,株式会社絆ＪＡＰＡＮ,,株式会社,三重県,津市,白山町川口３４２８番地,,24,201,5152603,,,,,,,2021-10-11,1,,,,,キズナジャパン,0
2930,9230001019017,新規,0,2021-10-11,2021-10-11,株式会社ＩＫＥＲＩＳＥ,,株式会社,富山県,富山市,八尾町深谷９９１１番地１３,,16,201,9392316,,,,,,,2021-10-11,1,,,,,イケライズ,0
2933,9240001058757,新規,0,2021-10-11,2021-10-11,株式会社ＤＩＯ,,株式会社,広島県,広島市中区,本通７番２９号,,34,101,7300035,,,,,,,2021-10-11,1,,,,,ディーアイオー,0
2946,9260001036083,新規,0,2021-10-11,2021-10-11,株式会社明成,,株式会社,岡山県,岡山市北区,田中１４９番地１０３,,33,101,7000951,,,,,,,2021-10-11,1,,,,,メイセイ,0
2958,9290001094888,新規,0,2021-10-11,2021-10-11,株式会社ＥＣＰ,,株式会社,福岡県,福岡市西区,福重５丁目１８番１８－２０２号,,40,135,8190022,,,,,,,2021-10-11,1,,,,,イーシーピー,0
2959,9290001094921,新規,0,2021-10-11,2021-10-11,ヤマエグループホールディングス株式会社,,株式会社,福岡県,福岡市博多区,博多駅東２丁目１３番３４号,,40,132,8120013,,,,,,,2021-10-11,1,,,,,ヤマエグループホールディングス,0
2960,9290001094938,新規,0,2021-10-11,2021-10-11,株式会社ＩＭＰＡＣＴ,,株式会社,福岡県,福岡市博多区,板付６丁目９番１９－２号,,40,132,8120888,,,,,,,2021-10-11,1,,,,,インパクト,0
2961,9290001094962,新規,0,2021-10-11,2021-10-11,株式会社Ｋｏｎｚｅｐｔ‐Ｏ,,株式会社,福岡県,福岡市中央区,荒戸１丁目１番１２号,,40,133,8100062,,,,,,,2021-10-11,1,,,,,コンツェプトオ,0
2964,9290003011692,新規,0,2021-10-11,2021-10-11,合同会社佐衛門,,合同会社,福岡県,福岡市南区,大楠２丁目７番１８－２０５号,,40,134,8150082,,,,,,,2021-10-11,1,,,,,サエモン,0
2965,9290005018389,新規,0,2021-10-11,2021-10-11,安藤司法書士法人,,その他の設立登記法人,福岡県,福岡市博多区,銀天町２丁目３番８号,,40,132,8120879,,,,,,,2021-10-11,1,,,,,アンドウ,0
2967,9290801027898,新規,0,2021-10-11,2021-10-11,株式会社Ｅ－Ｃｌａｔｓ,,株式会社,福岡県,北九州市小倉北区,弁天町５番２－１２０４号,,40,106,8030856,,,,,,,2021-10-11,1,,,,,イークラッツ,0
2969,9300003001733,新規,0,2021-10-11,2021-10-11,合同会社テックアシスト,,合同会社,佐賀県,佐賀市,伊勢町５番３１号,,41,201,8400844,,,,,,,2021-10-11,1,,,,,,0
2972,9310001017524,新規,0,2021-10-11,2021-10-11,株式会社ＪＤＫ,,株式会社,長崎県,東彼杵郡波佐見町,宿郷１２８番地４,,42,323,8593715,,,,,,,2021-10-11,1,,,,,ジェーディーケー,0
2973,9310005008552,新規,0,2021-10-11,2021-10-11,一般財団法人松本孝之絵画館,,その他の設立登記法人,長崎県,佐世保市,重尾町６２８番地,,42,202,8593224,,,,,,,2021-10-11,1,,,,,マツモトタカユキカイガカン,0
2978,9340001024146,新規,0,2021-10-11,2021-10-11,株式会社Ｓ＆Ｇマネジメント,,株式会社,鹿児島県,鹿児島市,下荒田１丁目６番２３号,,46,201,8900056,,,,,,,2021-10-11,1,,,,,エスアンドジーマネジメント,0
2979,9340001024162,新規,0,2021-10-11,2021-10-11,佐々木化学九州株式会社,,株式会社,鹿児島県,日置市,日吉町日置２６８番地,,46,216,8993101,,,,,,,2021-10-11,1,,,,,ササキカガクキュウシュウ,0
2983,9360001029473,新規,0,2021-10-11,2021-10-11,株式会社リノベース,,株式会社,沖縄県,那覇市,字安里６５番地大明ビル３Ｆ,,47,201,9020067,,,,,,,2021-10-11,1,,,,,リノベース,0
2991,9400001015634,新規,0,2021-10-11,2021-10-11,株式会社吉本・オガール地方創生アカデミー,,株式会社,岩手県,紫波郡紫波町,紫波中央駅前２丁目３番地１２,,03,321,0283318,,,,,,,2021-10-11,1,,,,,ヨシモトオガールチホウソウセイアカデミー,0
2999,9430001085146,新規,0,2021-10-11,2021-10-11,株式会社ダヴィンチアプリケーションズ,,株式会社,北海道,札幌市中央区,北六条西１５丁目３番地１,,01,101,0600006,,,,,,,2021-10-11,1,,,,,ダヴィンチアプリケーションズ,0
3003,9460001005613,新規,0,2021-10-11,2021-10-11,Ｐａｓ　ａ　Ｐａｓ株式会社,,株式会社,北海道,釧路市,貝塚３丁目７番９号,,01,206,0850816,,,,,,,2021-10-11,1,,,,,パザパ,0
