sequenceNumber,corporateNumber,process,correct,updateDate,changeDate,name,nameImageId,kind,prefectureName,cityName,streetNumber,addressImageId,prefectureCode,cityCode,postCode,addressOutside,addressOutsideImageId,closeDate,closeCause,successorCorporateNumber,changeCause,assignmentDate,latest,enName,enPrefectureName,enCityName,enAddressOutside,furigana,hihyoji
5,1010001184798,登記記録の閉鎖等,0,2024-05-16,2024-05-01,結和ソリューション株式会社,,株式会社,東京都,千代田区,飯田橋４丁目７番１号,,13,101,1020072,,,2024-05-01,合併による解散等,1010001204416,令和６年５月１日東京都千代田区飯田橋四丁目７番１号結和コンサルティング株式会社（1010001204416）に合併し解散,2017-07-13,1,,,,,ユウワソリューション,0
13,1010101001366,登記記録の閉鎖等,0,2024-05-16,2024-05-15,株式会社三恵コーポレーション,,株式会社,東京都,八王子市,本町３番５号,,13,201,1920066,,,2024-05-15,清算の結了等,,,2015-10-05,1,,,,,サンケイコーポレーション,0
14,1010401003161,登記記録の閉鎖等,0,2024-05-16,2024-04-24,株式会社猪股企画事務所,,株式会社,東京都,港区,麻布十番１丁目２番７－１１０１号,,13,103,1060045,,,2024-04-24,清算の結了等,,,2015-10-05,1,,,,,,0
17,1010401133479,登記記録の閉鎖等,0,2024-05-16,2024-04-23,株式会社ａｄＧｅｅｋ,,株式会社,東京都,港区,六本木６丁目３番１号,,13,103,1060032,,,2024-04-23,清算の結了等,,,2017-08-29,1,,,,,アドギーク,0
31,1010701009742,登記記録の閉鎖等,0,2024-05-16,2024-05-08,株式会社森商品研究所,,株式会社,東京都,品川区,東大井５丁目９番７号,,13,109,1400011,,,2024-05-08,清算の結了等,,,2015-10-05,1,,,,,モリショウヒンケンキュウジョ,0
34,1010702007051,登記記録の閉鎖等,0,2024-05-16,2024-05-09,有限会社福井不動産,,有限会社,東京都,品川区,大井２丁目２６番８号,,13,109,1400014,,,2024-05-09,清算の結了等,,,2015-10-05,1,,,,,フクイフドウサン,0
39,1011001041799,登記記録の閉鎖等,0,2024-05-16,2024-04-24,株式会社ユニック,,株式会社,東京都,港区,元赤坂１丁目１番１８号,,13,103,1070051,,,2024-04-24,清算の結了等,,,2015-10-05,1,,,,,ユニック,0
50,1011201013144,登記記録の閉鎖等,0,2024-05-16,2024-05-14,株式会社中野サンプラザ,,株式会社,東京都,中野区,中野４丁目１番１号,,13,114,1640001,,,2024-05-14,清算の結了等,,,2015-10-05,1,,,,,ナカノサンプラザ,0
60,1020001004113,登記記録の閉鎖等,0,2024-05-16,2024-05-08,株式会社タノヰ,,株式会社,神奈川県,横浜市港南区,上永谷２丁目１４番３４号,,14,111,2330012,,,2024-05-08,清算の結了等,,,2015-10-05,1,,,,,タノイ,0
68,1020001137796,登記記録の閉鎖等,0,2024-05-16,2024-05-13,株式会社ＷＡＲＭＥＲ,,株式会社,神奈川県,川崎市多摩区,菅５丁目１６番１４号ベルウッド１０５,,14,135,2140001,,,2024-05-13,合併による解散等,1500001021076,令和６年４月１日大阪府阪南市下出３７番地の５リクラス尾崎ビル２階株式会社ＭＥＤＩ‐ＦＵＬＬ（1500001021076）に合併し解散,2020-09-24,1,,,,,ウォーマー,0
73,1020003012130,登記記録の閉鎖等,0,2024-05-16,2024-05-07,ＳＡＮＴＯＳＨ合同会社,,合同会社,神奈川県,横浜市旭区,鶴ケ峰２丁目９番１１,,14,112,2410022,,,2024-05-07,清算の結了等,,,2016-12-15,1,,,,,サントス,0
74,1020003023367,登記記録の閉鎖等,0,2024-05-16,2024-05-08,合同会社大川断熱,,合同会社,神奈川県,横浜市磯子区,磯子３丁目４番３２号,,14,107,2350016,,,2024-05-08,清算の結了等,,,2023-02-21,1,,,,,オオカワダンネツ,0
83,1021002051061,登記記録の閉鎖等,0,2024-05-16,2024-05-09,有限会社魚粂,,有限会社,神奈川県,小田原市,浜町４丁目９番１２号,,14,206,2500004,,,2024-05-09,清算の結了等,,,2015-10-05,1,,,,,ウオクメ,0
97,1040002019703,登記記録の閉鎖等,0,2024-05-16,2024-05-07,有限会社吉田技術士事務所,00019866,有限会社,千葉県,習志野市,藤崎７丁目１３番８号,,12,216,2750017,,,2024-05-07,清算の結了等,,,2015-10-05,1,,,,,,0
120,1110003002130,登記記録の閉鎖等,0,2024-05-16,2024-05-13,合資会社藤文商会,,合資会社,新潟県,小千谷市,片貝町６３９０番地,,15,208,9470101,,,2024-05-13,清算の結了等,,,2015-10-05,1,,,,,フジブンショウカイ,0
139,1120901024456,登記記録の閉鎖等,0,2024-05-16,2024-05-13,大信貿易株式会社大阪南,,株式会社,大阪府,豊中市,中桜塚４丁目２番１－６１２号,,27,203,5610881,,,2024-05-13,清算の結了等,,,2015-10-05,1,,,,,ダイシンボウエキオオサカミナミ,0
170,1180003002974,登記記録の閉鎖等,0,2024-05-16,2024-05-07,合資会社三浦商店,,合資会社,愛知県,名古屋市熱田区,明野町２番３４号,,23,109,4560071,,,2024-05-07,清算の結了等,,,2015-10-05,1,,,,,ミウラショウテン,0
171,1180301023359,登記記録の閉鎖等,0,2024-05-16,2024-05-13,ミックス株式会社,,株式会社,愛知県,西尾市,一色町開正三右１８番地２,,23,213,4440421,,,2024-05-13,合併による解散等,1180001069628,令和６年５月１日愛知県豊明市間米町森前９３番地の３株式会社ユニメック（1180001069628）に合併し解散,2015-10-05,1,,,,,ミックス,0
177,1210001011305,登記記録の閉鎖等,0,2024-05-16,2024-04-30,ビッグメタル株式会社,,株式会社,神奈川県,横浜市中区,根岸旭台１１番２－３０２号,,14,104,2310854,,,2024-04-30,清算の結了等,,,2015-10-05,1,,,,,ビッグメタル,0
198,1290001071985,登記記録の閉鎖等,0,2024-05-16,2024-04-18,ラ・ヴェリタ株式会社,,株式会社,福岡県,福岡市中央区,港１丁目２番１８－５０１号,,40,133,8100075,,,2024-04-18,清算の結了等,,,2015-11-19,1,,,,,ラヴェリタ,0
208,1320001009998,登記記録の閉鎖等,0,2024-05-16,2024-05-09,協和株式会社,,株式会社,大分県,日田市,大字三和１３９番地の４,,44,204,8770000,,,2024-05-09,清算の結了等,,,2015-10-05,1,,,,,キョウワ,0
222,1390001007970,登記記録の閉鎖等,0,2024-05-16,2024-05-07,両羽センイ株式会社,,株式会社,山形県,鶴岡市,下山添字一里塚１２５番地,,06,203,9970341,,,2024-05-07,清算の結了等,,,2015-10-05,1,,,,,リョウウセンイ,0
242,2010001023897,登記記録の閉鎖等,0,2024-05-16,2024-05-01,株式会社トウセン,,株式会社,東京都,千代田区,神田東松下町３８番地,,13,101,1010042,,,2024-05-01,合併による解散等,6010001024223,令和６年４月１日東京都千代田区神田東松下町１７番地東栄株式会社（6010001024223）に合併し解散,2015-10-05,1,,,,,トウセン,0
262,2010702007018,登記記録の閉鎖等,0,2024-05-16,2024-05-09,扶桑貿易有限会社,,有限会社,東京都,品川区,西五反田１丁目２６番２－１１０７号,,13,109,1410031,,,2024-05-09,清算の結了等,,,2015-10-05,1,,,,,フソウボウエキ,0
281,2011101093839,登記記録の閉鎖等,0,2024-05-16,2024-05-13,株式会社博朋社,,株式会社,東京都,新宿区,喜久井町４５番地,,13,104,1620044,,,2024-05-13,清算の結了等,,,2021-01-22,1,,,,,ハクホウシャ,0
289,2011503004971,登記記録の閉鎖等,0,2024-05-16,2024-05-01,Ｆｉｎａｎｃｅ　Ｌａｂ合同会社,,合同会社,東京都,中央区,日本橋室町１丁目１３－７ＰＭＯ日本橋室町３Ｆ,,13,102,1030022,,,2024-05-01,清算の結了等,,,2021-11-18,1,,,,,ファイナンスラボ,0
311,2020002105801,登記記録の閉鎖等,0,2024-05-16,2024-05-07,有限会社ＭＡＳＡ,,有限会社,神奈川県,川崎市川崎区,堀之内町１０－１エールマンション４０２,,14,131,2100003,,,2024-05-07,清算の結了等,,,2015-10-05,1,,,,,マーサ,0
319,2030002036401,登記記録の閉鎖等,0,2024-05-16,2024-05-13,有限会社エスボア,,有限会社,埼玉県,狭山市,柏原２８８８番地２,,11,215,3501335,,,2024-05-13,清算の結了等,,,2015-10-05,1,,,,,エスボア,0
324,2030005006252,登記記録の閉鎖等,0,2024-05-16,2024-05-14,医療法人上尾整形外科,,その他の設立登記法人,埼玉県,上尾市,今泉４丁目２番地１６,,11,219,3620047,,,2024-05-14,清算の結了等,,,2015-10-05,1,,,,,アゲオセイケイゲカ,0
342,2060002015591,登記記録の閉鎖等,0,2024-05-16,2024-05-07,有限会社大野屋旅舘,,有限会社,栃木県,日光市,下鉢石町８１４番地,,09,206,3211403,,,2024-05-07,清算の結了等,,,2015-10-05,1,,,,,オオノヤリョカン,0
352,2090002010474,登記記録の閉鎖等,0,2024-05-16,2024-05-10,有限会社ベスト,,有限会社,山梨県,都留市,下谷３丁目４番２９号,,19,204,4020051,,,2024-05-10,清算の結了等,,,2015-10-05,1,,,,,ベスト,0
361,2120001164136,登記記録の閉鎖等,0,2024-05-16,2024-05-14,ＪＫＬ株式会社,,株式会社,大阪府,大阪市中央区,久太郎町２丁目５番１８号,,27,128,5410056,,,2024-05-14,合併による解散等,5140001029664,令和６年５月１４日大阪市中央区南本町二丁目２番３号株式会社Ｎｅｘｔ　Ｆｕｔｕｒｅ　Ｈｏｌｄｉｎｇｓ（5140001029664）に合併し解散,2015-10-05,1,,,,,ジェーケーエル,0
363,2120001239375,登記記録の閉鎖等,0,2024-05-16,2024-05-10,株式会社ＥＤＥＮ,,株式会社,大阪府,大阪市淀川区,西中島３丁目１０番１２号サムティ西中島ビル３０１,,27,123,5320011,,,2024-05-10,清算の結了等,,,2021-07-28,1,,,,,エデン,0
387,2150002011474,登記記録の閉鎖等,0,2024-05-16,2024-05-15,有限会社テルアート,,有限会社,奈良県,橿原市,葛本町７１３番地の４２,,29,205,6340007,,,2024-05-15,清算の結了等,,,2015-10-05,1,,,,,テルアート,0
389,2180001106578,登記記録の閉鎖等,0,2024-05-16,2024-05-07,株式会社ｍ’ｓ　ｓｍｉｌｅ,,株式会社,愛知県,名古屋市千種区,下方町７丁目２０番地の１,,23,101,4640096,,,2024-05-07,清算の結了等,,,2015-10-05,1,,,,,エムズスマイル,0
403,2190002023004,登記記録の閉鎖等,0,2024-05-16,2024-05-14,有限会社インテリア清水,,有限会社,三重県,四日市市,水沢町２８７８番地,,24,202,5121105,,,2024-05-14,清算の結了等,,,2015-10-05,1,,,,,,0
412,2240002006218,登記記録の閉鎖等,0,2024-05-16,2024-05-15,有限会社小松興産,,有限会社,広島県,広島市中区,大手町３丁目６番１９号,,34,101,7300051,,,2024-05-15,清算の結了等,,,2015-10-05,1,,,,,コマツコウサン,0
415,2250002005086,登記記録の閉鎖等,0,2024-05-16,2024-05-15,有限会社種村製麺所,00002617,有限会社,山口県,宇部市,助田町７番１９号,,35,202,7550054,,,2024-05-15,清算の結了等,,,2015-10-05,1,,,,,タネムラセイメンショ,0
420,2290001008499,登記記録の閉鎖等,0,2024-05-16,2024-04-18,大豊食品特機株式会社,,株式会社,福岡県,福岡市西区,生松台１丁目１８番１４号,,40,135,8190044,,,2024-04-18,清算の結了等,,,2015-10-05,1,,,,,,0
429,2290805008752,登記記録の閉鎖等,0,2024-05-16,2024-04-26,特定非営利活動法人国際交流・フォーラムこくら南,,その他の設立登記法人,福岡県,北九州市小倉南区,北方４丁目２番１号,,40,107,8020841,,,2024-04-26,清算の結了等,,,2015-10-05,1,,,,,コクサイコウリュウフォーラムコクラミナミ,0
434,2310002000287,登記記録の閉鎖等,0,2024-05-16,2024-05-14,有限会社アレンジ企画,,有限会社,長崎県,長崎市,下西山町１番７号,,42,201,8500004,,,2024-05-14,清算の結了等,,,2015-10-05,1,,,,,アレンジキカク,0
441,2330005001116,登記記録の閉鎖等,0,2024-05-16,2024-05-10,医療法人社団桜樹会,,その他の設立登記法人,熊本県,熊本市中央区,萩原町７番３０号,,43,101,8600832,,,2024-05-10,清算の結了等,,,2015-10-05,1,,,,,オウジュカイ,0
463,2410002007652,登記記録の閉鎖等,0,2024-05-16,2024-05-08,有限会社金森商事,,有限会社,秋田県,湯沢市,前森４丁目１番２号,,05,207,0120813,,,2024-05-08,清算の結了等,,,2015-10-05,1,,,,,カナモリショウジ,0
472,2460101006385,登記記録の閉鎖等,0,2024-05-16,2024-05-08,株式会社マルコーフーズ川西,,株式会社,北海道,帯広市,別府町南１８線３４番地,,01,207,0891184,,,2024-05-08,合併による解散等,4030001086585,令和６年５月１日埼玉県深谷市新戒６９７番地１マルコーフーズ株式会社（4030001086585）に合併し解散,2018-05-30,1,,,,,マルコーフーズカワニシ,0
484,3010001056533,登記記録の閉鎖等,0,2024-05-16,2024-05-01,平和防災工業株式会社,,株式会社,東京都,中央区,湊２丁目１２番７号,,13,102,1040043,,,2024-05-01,清算の結了等,,,2024-04-11,1,,,,,ヘイワボウサイコウギョウ,0
487,3010001091084,登記記録の閉鎖等,0,2024-05-16,2024-05-13,株式会社ルクソスジャパン,,株式会社,愛知県,豊橋市,神明町６４番地,,23,201,4400882,,,2024-05-13,清算の結了等,,,2015-10-05,1,,,,,ルクソスジャパン,0
500,3010005028520,登記記録の閉鎖等,0,2024-05-16,2024-04-25,一般社団法人国際エステティック美容協会,,その他の設立登記法人,東京都,港区,南青山６丁目６番２２号ＬｕｎａＲｏｓｓａ南青山４０１号室,,13,103,1070062,,,2024-04-25,清算の結了等,,,2018-05-15,1,,,,,コクサイエステティックビヨウキョウカイ,0
515,3010603005978,登記記録の閉鎖等,0,2024-05-16,2024-05-01,合同会社Ｊｕレジデンス,,合同会社,千葉県,鎌ケ谷市,道野辺中央４丁目１４番２号,,12,224,2730113,,,2024-05-01,合併による解散等,4040003008504,令和６年５月１日千葉県鎌ケ谷市道野辺中央四丁目１４番２号合同会社千客万来Ｊｕ（4040003008504）に合併し解散,2015-10-05,1,,,,,ジェイユーレジデンス,0
558,3012301010558,登記記録の閉鎖等,0,2024-05-16,2024-05-09,株式会社ＳＵＮＲＩＧＨＴ,,株式会社,東京都,町田市,大蔵町３５０５番地１３,,13,209,1950062,,,2024-05-09,清算の結了等,,,2016-05-30,1,,,,,,0
562,3012701004969,登記記録の閉鎖等,0,2024-05-16,2024-05-13,株式会社考和,,株式会社,東京都,西東京市,中町２丁目３番１４号,,13,229,2020013,,,2024-05-13,清算の結了等,,,2015-10-05,1,,,,,コウワ,0
582,3020002016238,登記記録の閉鎖等,0,2024-05-16,2024-05-08,有限会社岡本ダンスクリエーション,,有限会社,神奈川県,横浜市西区,南軽井沢１０番地の５,,14,103,2200002,,,2024-05-08,清算の結了等,,,2015-10-05,1,,,,,オカモトダンスクリエーション,0
585,3020002082858,登記記録の閉鎖等,0,2024-05-16,2024-05-08,有限会社イマイ,,有限会社,神奈川県,川崎市中原区,上小田中２丁目３４番４３号,,14,133,2110053,,,2024-05-08,清算の結了等,,,2015-10-05,1,,,,,イマイ,0
599,3030002047042,登記記録の閉鎖等,0,2024-05-16,2024-05-13,有限会社佐々木プレハブ,,有限会社,埼玉県,八潮市,大字木曽根１３７１番地２高橋第２マンション１０６,,11,234,3400813,,,2024-05-13,清算の結了等,,,2015-10-05,1,,,,,ササキプレハブ,0
603,3040001068682,登記記録の閉鎖等,0,2024-05-16,2024-05-02,株式会社財産ドック,,株式会社,千葉県,柏市,若柴５番地６２,,12,217,2770871,,,2024-05-02,清算の結了等,,,2015-10-05,1,,,,,ザイサンドック,0
605,3040001101088,登記記録の閉鎖等,0,2024-05-16,2024-05-02,株式会社桃原興業,,株式会社,千葉県,袖ケ浦市,袖ケ浦駅前１丁目２番地６グランディア３０１号,,12,229,2990269,,,2024-05-02,清算の結了等,,,2017-07-25,1,,,,,トウバルコウギョウ,0
609,3040002065002,登記記録の閉鎖等,0,2024-05-16,2024-05-02,ＮＹコーポレーション有限会社,,有限会社,千葉県,四街道市,物井１５１６番地４,,12,228,2840012,,,2024-05-02,清算の結了等,,,2015-10-05,1,,,,,エヌワイコーポレーション,0
620,3080001000550,登記記録の閉鎖等,0,2024-05-16,2024-05-13,株式会社海野家具店,,株式会社,静岡県,静岡市葵区,両替町１丁目７番地の６,,22,101,4200032,,,2024-05-13,清算の結了等,,,2015-10-05,1,,,,,ウンノカグテン,0
622,3080101000566,登記記録の閉鎖等,0,2024-05-16,2024-05-07,光洋電工株式会社,,株式会社,静岡県,沼津市,西条町１３６番地,,22,203,4100804,,,2024-05-07,清算の結了等,,,2015-10-05,1,,,,,コウヨウデンコウ,0
634,3120001103869,登記記録の閉鎖等,0,2024-05-16,2024-05-14,日本新建築株式会社,,株式会社,大阪府,大阪市港区,弁天１丁目６番８号,,27,107,5520007,,,2024-05-14,清算の結了等,,,2015-10-05,1,,,,,ニホンシンケンチク,0
643,3120001225993,登記記録の閉鎖等,0,2024-05-16,2024-05-13,星達株式会社,,株式会社,大阪府,大阪市西成区,千本南１丁目１７番２１号１０２－Ｃ室,,27,122,5570055,,,2024-05-13,清算の結了等,,,2020-01-09,1,,,,,セイタツ,0
663,3120901001742,登記記録の閉鎖等,0,2024-05-16,2024-05-13,株式会社万代,,株式会社,大阪府,茨木市,西河原２丁目６番３７号,,27,211,5670023,,,2024-05-13,清算の結了等,,,2015-10-05,1,,,,,バンダイ,0
665,3122001024946,登記記録の閉鎖等,0,2024-05-16,2024-05-15,アイテック精工株式会社,,株式会社,大阪府,大阪市生野区,中川２丁目２番８号,,27,116,5440005,,,2024-05-15,清算の結了等,,,2015-10-05,1,,,,,アイテックセイコウ,0
685,3180001106668,登記記録の閉鎖等,0,2024-05-16,2024-04-23,東海商事株式会社,,株式会社,愛知県,名古屋市中区,新栄１丁目３３番２３号,,23,106,4600007,,,2024-04-23,清算の結了等,,,2015-10-05,1,,,,,トウカイショウジ,0
694,3180302012598,登記記録の閉鎖等,0,2024-05-16,2024-05-10,株式会社ベル・プランニング,,株式会社,愛知県,豊橋市,東脇３丁目１番地の７,,23,201,4418083,,,2024-05-10,清算の結了等,,,2015-10-05,1,,,,,ベルプランニング,0
695,3190001020934,登記記録の閉鎖等,0,2024-05-16,2024-05-13,フォーエバーコーポレーション株式会社,,株式会社,三重県,四日市市,ときわ５丁目４番２３号,,24,202,5100834,,,2024-05-13,合併による解散等,9180001114450,令和６年５月１日名古屋市中村区名駅三丁目１番１６号グランドメゾン名駅三丁目１６０２号アサヒインターナショナル株式会社（9180001114450）に合併し解散,2015-10-05,1,,,,,フォーエバーコーポレーション,0
721,3290003000734,登記記録の閉鎖等,0,2024-05-16,2024-04-12,合資会社エフマック,,合資会社,福岡県,福岡市博多区,博多駅前４丁目６番１５号,,40,132,8120011,,,2024-04-12,清算の結了等,,,2015-10-05,1,,,,,エフマック,0
762,3470005001340,登記記録の閉鎖等,0,2024-05-16,2024-05-02,一般財団法人香川県母子寡婦福祉連合会,,その他の設立登記法人,香川県,高松市,国分寺町国分３４８番地２,,37,201,7690102,,,2024-05-02,清算の結了等,,,2015-10-05,1,,,,,カガワケンボシカフフクシレンゴウカイ,0
773,4010001061854,登記記録の閉鎖等,0,2024-05-16,2024-04-23,株式会社日本エンジェルキャピタル,,株式会社,東京都,港区,六本木２丁目２番７号,,13,103,1060032,,,2024-04-23,合併による解散等,1010401050757,令和６年４月２０日東京都港区六本木二丁目２番７号株式会社ユーティマネジメント（1010401050757）に合併し解散,2015-10-05,1,,,,,ニホンエンジェルキャピタル,0
782,4010001172338,登記記録の閉鎖等,0,2024-05-16,2024-05-14,株式会社かんきホールディングス,,株式会社,東京都,千代田区,麹町４丁目１番地の４西脇ビル,,13,101,1020083,,,2024-05-14,清算の結了等,,,2015-12-16,1,,,,,カンキホールディングス,0
785,4010001210205,登記記録の閉鎖等,0,2024-05-16,2024-05-01,株式会社ノバイア,,株式会社,東京都,千代田区,神田錦町３丁目１５番５号,,13,101,1010054,,,2024-05-01,清算の結了等,,,2020-06-12,1,,,,,ノバイア,0
793,4010401052783,登記記録の閉鎖等,0,2024-05-16,2024-04-23,株式会社吉田錦文堂,,株式会社,東京都,港区,高輪３丁目９番１４号,,13,103,1080074,,,2024-04-23,清算の結了等,,,2015-10-05,1,,,,,ヨシダキンブンドウ,0
810,4010402012794,登記記録の閉鎖等,0,2024-05-16,2024-04-23,有限会社村山印刷,,有限会社,東京都,港区,芝大門１丁目１番１５号,,13,103,1050012,,,2024-04-23,清算の結了等,,,2015-10-05,1,,,,,ムラヤマインサツ,0
811,4010403023989,登記記録の閉鎖等,0,2024-05-16,2024-04-30,デックス合同会社,,合同会社,東京都,渋谷区,恵比寿１丁目１５番１号ＴＡＭＡＷＯＯＤＹＧＡＴＥＥＢＩＳＵ３階,,13,113,1500013,,,2024-04-30,清算の結了等,,,2020-10-27,1,,,,,デックス,0
820,4010601008081,登記記録の閉鎖等,0,2024-05-16,2024-05-14,関ライト工業株式会社,,株式会社,東京都,江東区,海辺１６番７号,,13,108,1350012,,,2024-05-14,清算の結了等,,,2024-05-01,1,,,,,セキライトコウギョウ,0
823,4010601062384,登記記録の閉鎖等,0,2024-05-16,2024-05-10,トラステッド・パートナーズ株式会社,,株式会社,東京都,江東区,有明３丁目７番２６号有明フロンティアビルＢ棟９階,,13,108,1350063,,,2024-05-10,清算の結了等,,,2023-01-11,1,,,,,トラステッドパートナーズ,0
824,4010701011729,登記記録の閉鎖等,0,2024-05-16,2024-05-07,三光メディカル株式会社,,株式会社,東京都,品川区,大井４丁目７番７号,,13,109,1400014,,,2024-05-07,清算の結了等,,,2015-10-05,1,,,,,サンコウメディカル,0
832,4011001057652,登記記録の閉鎖等,0,2024-05-16,2024-04-25,株式会社フェニックス・インベストメント,,株式会社,東京都,渋谷区,代々木１丁目５３番１号,,13,113,1510053,,,2024-04-25,清算の結了等,,,2015-10-05,1,,,,,フェニックスインベストメント,0
837,4011002016938,登記記録の閉鎖等,0,2024-05-16,2024-04-26,有限会社柳翠社,,有限会社,東京都,渋谷区,代々木４丁目３７番８－４０３号,,13,113,1510053,,,2024-04-26,清算の結了等,,,2015-10-05,1,,,,,リュウスイシャ,0
842,4011301000337,登記記録の閉鎖等,0,2024-05-16,2024-05-02,株式会社アトムハウス,,株式会社,東京都,杉並区,天沼３丁目２番１８号,,13,115,1670032,,,2024-05-02,清算の結了等,,,2015-10-05,1,,,,,アトムハウス,0
844,4011501022511,登記記録の閉鎖等,0,2024-05-16,2024-05-13,８１コミュニケーションズ株式会社,,株式会社,東京都,世田谷区,経堂１丁目１２番５号,,13,112,1560052,,,2024-05-13,清算の結了等,,,2017-04-11,1,,,,,エイテイワンコミュニケーションズ,0
850,4011801034074,登記記録の閉鎖等,0,2024-05-16,2024-05-10,ブルースター株式会社,,株式会社,東京都,足立区,千住大川町１０番７号ランドフォレスト北千住１Ｆ,,13,121,1200031,,,2024-05-10,清算の結了等,,,2017-11-13,1,,,,,ブルースター,0
854,4012701016187,登記記録の閉鎖等,0,2024-05-16,2024-05-14,Ｇｒａｎｉｔｅ　Ｏｒｇａｎｉｃｓ株式会社,,株式会社,東京都,西東京市,ひばりが丘１丁目１０番１１－１０１号,,13,229,2020001,,,2024-05-14,清算の結了等,,,2020-12-01,1,,,,,グラニットオーガニックス,0
886,4030002039781,登記記録の閉鎖等,0,2024-05-16,2024-05-13,有限会社フリーデン,,有限会社,埼玉県,幸手市,中２丁目１１番１５号,,11,240,3400115,,,2024-05-13,清算の結了等,,,2015-10-05,1,,,,,フリーデン,0
893,4040001083598,登記記録の閉鎖等,0,2024-05-16,2024-05-07,株式会社ＬＩＦＥケアマネジメント,,株式会社,千葉県,千葉市美浜区,高浜４丁目１０番２５棟１１０号,,12,106,2610003,,,2024-05-07,清算の結了等,,,2015-10-05,1,,,,,ライフケアマネジメント,0
900,4040002099841,登記記録の閉鎖等,0,2024-05-16,2024-05-01,有限会社丸村洋服店,,有限会社,千葉県,館山市,長須賀１６２番地,,12,205,2940037,,,2024-05-01,清算の結了等,,,2015-10-05,1,,,,,マルムラヨウフクテン,0
911,4100002012335,登記記録の閉鎖等,0,2024-05-16,2024-04-26,有限会社オタックス,,有限会社,長野県,小諸市,田町２丁目３番１４号,,20,208,3840028,,,2024-04-26,清算の結了等,,,2015-10-05,1,,,,,オタックス,0
945,4140002069231,登記記録の閉鎖等,0,2024-05-16,2024-05-13,魚繁有限会社,,有限会社,兵庫県,淡路市,志筑新島６番地７,,28,226,6562132,,,2024-05-13,清算の結了等,,,2015-10-05,1,,,,,ウオシゲ,0
946,4150001014237,登記記録の閉鎖等,0,2024-05-16,2024-05-13,株式会社ピノイージー,,株式会社,奈良県,橿原市,八木町１丁目４番９号,,29,205,6340078,,,2024-05-13,清算の結了等,,,2015-10-05,1,,,,,ピノイージー,0
951,4180001098442,登記記録の閉鎖等,0,2024-05-16,2024-05-01,株式会社トレードワン,,株式会社,愛知県,あま市,富塚地蔵堂５番地３,,23,237,4901202,,,2024-05-01,合併による解散等,4010401169743,令和６年５月１日愛知県あま市富塚地蔵堂５番地３株式会社トレードワン（4010401169743）に合併し解散,2015-10-05,1,,,,,トレードワン,0
962,4190002020338,登記記録の閉鎖等,0,2024-05-16,2024-05-13,有限会社三泗生形所,,有限会社,三重県,四日市市,西坂部町９２４番地の１,,24,202,5120913,,,2024-05-13,清算の結了等,,,2015-10-05,1,,,,,サンシセイケイジョ,0
977,4270002005719,登記記録の閉鎖等,0,2024-05-16,2024-05-10,有限会社木村兼義商店,,有限会社,鳥取県,米子市,富益町６８２番地,,31,202,6830103,,,2024-05-10,清算の結了等,,,2015-10-05,1,,,,,キムラカネヨシショウテン,0
997,4370001038651,登記記録の閉鎖等,0,2024-05-16,2024-05-13,株式会社青葉ブレインズ,,株式会社,宮城県,仙台市青葉区,中山３丁目４番１１号,,04,101,9810952,,,2024-05-13,清算の結了等,,,2015-10-15,1,,,,,,0
1014,4470002001490,登記記録の閉鎖等,0,2024-05-16,2024-05-10,有限会社大石防水工業,,有限会社,香川県,高松市,屋島西町６８番地２,,37,201,7610113,,,2024-05-10,清算の結了等,,,2015-10-05,1,,,,,オオイシボウスイコウギョウ,0
1033,5010005011458,登記記録の閉鎖等,0,2024-05-16,2024-05-14,特定非営利活動法人ニューパブリックマネジメント協会,,その他の設立登記法人,東京都,千代田区,麹町５丁目３番３号麹町ＫＳスクエア４階,,13,101,1020083,,,2024-05-14,清算の結了等,,,2015-10-05,1,,,,,ニューパブリックマネジメントキョウカイ,0
1036,5010401014064,登記記録の閉鎖等,0,2024-05-16,2024-04-25,株式会社ジャスタンツール,,株式会社,東京都,港区,三田３丁目１番４号,,13,103,1080073,,,2024-04-25,清算の結了等,,,2015-10-05,1,,,,,ジャスタンツール,0
1038,5010401123501,登記記録の閉鎖等,0,2024-05-16,2024-05-02,ＶＩＰＡＢＣ株式会社,,株式会社,東京都,墨田区,錦糸１丁目２番１号アルカセントラル１４階,,13,107,1300013,,,2024-05-02,清算の結了等,,,2016-03-07,1,,,,,ブイアイピーエービーシー,0
1043,5010401144027,登記記録の閉鎖等,0,2024-05-16,2024-04-24,Ｌｉｂｅｒａｌ　Ｔｏｋｙｏ株式会社,,株式会社,東京都,港区,赤坂９丁目１番７号赤坂レジデンシャルホテル２３９号室,,13,103,1070052,,,2024-04-24,清算の結了等,,,2019-03-06,1,,,,,リベラルトーキョー,0
1053,5010601015853,登記記録の閉鎖等,0,2024-05-16,2024-05-09,データーリンクス株式会社,,株式会社,東京都,墨田区,千歳３丁目６番５号,,13,107,1300025,,,2024-05-09,清算の結了等,,,2015-10-05,1,,,,,データーリンクス,0
1056,5010601038482,登記記録の閉鎖等,0,2024-05-16,2024-05-09,株式会社セレビュウ,,株式会社,東京都,江東区,大島２丁目３９番１号,,13,108,1360072,,,2024-05-09,清算の結了等,,,2015-10-05,1,,,,,,0
1064,5010903005379,登記記録の閉鎖等,0,2024-05-16,2024-05-10,合同会社リブラボ,,合同会社,東京都,世田谷区,下馬４丁目２４番１５ヴェレーナ祐天寺２０３号,,13,112,1540002,,,2024-05-10,清算の結了等,,,2019-12-05,1,,,,,リブラボ,0
1065,5011001068054,登記記録の閉鎖等,0,2024-05-16,2024-04-24,ＴＡＫＥ　ＯＮＥ株式会社,,株式会社,東京都,港区,元赤坂１丁目１番１８号,,13,103,1070051,,,2024-04-24,清算の結了等,,,2015-10-05,1,,,,,テイクワン,0
1087,5011702000975,登記記録の閉鎖等,0,2024-05-16,2024-05-13,有限会社リムライズロジスティクス,,有限会社,東京都,江戸川区,西瑞江５丁目１９番地３６,,13,123,1340015,,,2024-05-13,清算の結了等,,,2015-10-05,1,,,,,リムライズロジスティクス,0
1088,5011702004530,登記記録の閉鎖等,0,2024-05-16,2024-05-01,三永木材有限会社,,有限会社,東京都,江戸川区,清新町１丁目１番２４－１００２号,,13,123,1340087,,,2024-05-01,清算の結了等,,,2015-10-05,1,,,,,サンエイモクザイ,0
1103,5013102002049,登記記録の閉鎖等,0,2024-05-16,2024-05-15,有限会社スペース・ジャパン,,有限会社,東京都,あきる野市,草花２１００番地６３,,13,228,1970802,,,2024-05-15,清算の結了等,,,2015-10-05,1,,,,,,0
1115,5020002043610,登記記録の閉鎖等,0,2024-05-16,2024-05-08,タイセイ商行有限会社,,有限会社,神奈川県,横浜市中区,山下町１４３番地,,14,104,2310023,,,2024-05-08,清算の結了等,,,2015-10-05,1,,,,,タイセイショウコウ,0
1120,5020002078615,登記記録の閉鎖等,0,2024-05-16,2024-05-01,株式会社山一販売,,株式会社,神奈川県,横浜市港北区,新吉田東３丁目２８番１０号,,14,109,2230058,,,2024-05-01,合併による解散等,7020002036257,令和６年５月１日横浜市港北区新吉田東三丁目２８番１０号株式会社山一クリエイト（7020002036257）に合併し解散,2015-10-05,1,,,,,ヤマイチハンバイ,0
1130,5021002045101,登記記録の閉鎖等,0,2024-05-16,2024-05-15,有限会社神栄商会,,有限会社,神奈川県,海老名市,門沢橋４丁目１２番８号,,14,215,2430426,,,2024-05-15,清算の結了等,,,2015-10-05,1,,,,,シンエイショウカイ,0
1154,5050001005303,登記記録の閉鎖等,0,2024-05-16,2024-05-14,株式会社川和商店,,株式会社,茨城県,水戸市,渋井町２９番地の１,,08,201,3100826,,,2024-05-14,清算の結了等,,,2015-10-05,1,,,,,カワワショウテン,0
1159,5050005011891,登記記録の閉鎖等,0,2024-05-16,2024-05-09,一般社団法人日本ＷＤＳ,,その他の設立登記法人,茨城県,水戸市,けやき台１丁目１７－１番地,,08,201,3100842,,,2024-05-09,清算の結了等,,,2016-06-03,1,,,,,ニホンダブリューディーエス,0
1164,5070001036313,登記記録の閉鎖等,0,2024-05-16,2024-05-13,群馬電力株式会社,,株式会社,群馬県,吾妻郡東吾妻町,大字原町１０１９番地４,,10,429,3770801,,,2024-05-13,清算の結了等,,,2019-11-19,1,,,,,グンマデンリョク,0
1173,5080401003432,登記記録の閉鎖等,0,2024-05-16,2024-05-14,東海電子工業株式会社,,株式会社,静岡県,浜松市中央区,市野町４１４番地の１,,22,138,4350051,,,2024-05-14,清算の結了等,,,2015-10-05,1,,,,,トウカイデンシコウギョウ,0
1184,5120001173506,登記記録の閉鎖等,0,2024-05-16,2024-05-10,株式会社ミートジャパン,,株式会社,大阪府,大阪市平野区,喜連東２丁目１１番１１号,,27,126,5470021,,,2024-05-10,清算の結了等,,,2015-10-05,1,,,,,ミートジャパン,0
1232,5180301008678,登記記録の閉鎖等,0,2024-05-16,2024-05-10,株式会社アート・オブ・ディスプレイ,,株式会社,愛知県,豊橋市,東脇３丁目１番地の７,,23,201,4418083,,,2024-05-10,清算の結了等,,,2015-10-05,1,,,,,アートオブディスプレイ,0
1240,5190001021435,登記記録の閉鎖等,0,2024-05-16,2024-05-14,株式会社アールスタイル,,株式会社,三重県,桑名市,赤尾台４丁目３番地４,,24,205,5110935,,,2024-05-14,清算の結了等,,,2015-10-05,1,,,,,,0
1250,5220001010748,登記記録の閉鎖等,0,2024-05-16,2024-05-07,株式会社ＬＳＴＴ,,株式会社,石川県,金沢市,鈴見台４丁目５番９号,,17,201,9201161,,,2024-05-07,清算の結了等,,,2015-10-05,1,,,,,エルエスティーティー,0
1263,5250003000496,登記記録の閉鎖等,0,2024-05-16,2024-05-15,合名会社塩亀本店,,合名会社,山口県,下関市,豊浦町大字川棚５２５９番地の１,,35,201,7596301,,,2024-05-15,清算の結了等,,,2015-10-05,1,,,,,シオカメホンテン,0
1294,5360005003908,登記記録の閉鎖等,0,2024-05-16,2024-05-13,医療法人真寿会,,その他の設立登記法人,沖縄県,宮古島市,平良字西原２２５１番地５,,47,214,9060005,,,2024-05-13,清算の結了等,,,2015-10-05,1,,,,,シンジュカイ,0
1302,5410002010736,登記記録の閉鎖等,0,2024-05-16,2024-05-09,廣福漁業有限会社,,有限会社,秋田県,山本郡八峰町,八森字滝の間１４０番地,,05,349,0182623,,,2024-05-09,清算の結了等,,,2015-10-05,1,,,,,コウフクギョギョウ,0
1310,5430002041985,登記記録の閉鎖等,0,2024-05-16,2024-05-01,有限会社ＭＫ観光,,有限会社,北海道,札幌市中央区,南八条西１４丁目１番２７号秀和南８条レジデンス９０４号,,01,101,0640808,,,2024-05-01,合併による解散等,8430001015046,令和６年４月３０日札幌市白石区中央三条四丁目１番１０号北都ベリアールサービス株式会社（8430001015046）に合併し解散,2015-10-05,1,,,,,エムケーカンコウ,0
1318,5490002008839,登記記録の閉鎖等,0,2024-05-16,2024-05-10,有限会社優送建設,,有限会社,高知県,幡多郡黒潮町,上田の口７１６番地６,,39,428,7891935,,,2024-05-10,清算の結了等,,,2015-10-05,1,,,,,ユウソウケンセツ,0
1340,6010401033393,登記記録の閉鎖等,0,2024-05-16,2024-04-24,株式会社広宣社,,株式会社,東京都,港区,新橋２丁目２０番１５号,,13,103,1050004,,,2024-04-24,清算の結了等,,,2015-10-05,1,,,,,コウセンシャ,0
1369,6011502013202,登記記録の閉鎖等,0,2024-05-16,2024-05-09,有限会社ロジス・ジャパン,,有限会社,東京都,北区,中里１丁目２１番４号,,13,117,1140015,,,2024-05-09,清算の結了等,,,2015-10-05,1,,,,,,0
1383,6012701003803,登記記録の閉鎖等,0,2024-05-16,2024-05-14,株式会社ビーアンドケイ,,株式会社,東京都,東久留米市,滝山７丁目１３番１２号,,13,222,2030033,,,2024-05-14,清算の結了等,,,2015-10-05,1,,,,,ビーアンドケイ,0
1387,6020001042265,登記記録の閉鎖等,0,2024-05-16,2024-05-14,株式会社クリーンネットワーク,,株式会社,神奈川県,横浜市金沢区,幸浦２丁目５番１１号,,14,108,2360003,,,2024-05-14,合併による解散等,8021001012413,令和６年５月１日神奈川県相模原市緑区橋本台一丁目８番２１号三友プラントサービス株式会社（8021001012413）に合併し解散,2015-10-05,1,,,,,クリーンネットワーク,0
1419,6040002066344,登記記録の閉鎖等,0,2024-05-16,2024-05-02,有限会社カズサ保険事務所,,有限会社,千葉県,木更津市,畑沢南４丁目１番１号,,12,206,2920826,,,2024-05-02,清算の結了等,,,2015-10-05,1,,,,,カズサホケンジムショ,0
1430,6080401021581,登記記録の閉鎖等,0,2024-05-16,2024-05-14,株式会社Ｍ’ｓ　Ｐｌａｎｔ,,株式会社,静岡県,浜松市浜名区,細江町気賀１００１０番地の２６,,22,139,4311305,,,2024-05-14,清算の結了等,,,2016-06-29,1,,,,,エムズプラント,0
1443,6110005003147,登記記録の閉鎖等,0,2024-05-16,2024-05-13,ＮＰＯ法人ハートサークル,,その他の設立登記法人,新潟県,新潟市中央区,長潟１丁目１３番１４号,,15,103,9500932,,,2024-05-13,清算の結了等,,,2015-10-05,1,,,,,ハートサークル,0
1458,6130005010463,登記記録の閉鎖等,0,2024-05-16,2024-05-14,小中生産森林組合,,その他の設立登記法人,京都府,綾部市,故屋岡町小中谷１番地,,26,203,6231132,,,2024-05-14,清算の結了等,,,2015-10-05,1,,,,,コナカ,0
1481,6180001139698,登記記録の閉鎖等,0,2024-05-16,2024-05-09,真愛株式会社,,株式会社,愛知県,豊田市,広田町広田１３番地７,,23,211,4730912,,,2024-05-09,清算の結了等,,,2020-01-17,1,,,,,シンアイ,0
1534,6390002007230,登記記録の閉鎖等,0,2024-05-16,2024-05-07,有限会社はなむら産業,,有限会社,山形県,飽海郡遊佐町,庄泉字西谷地１５９番５号,,06,461,9998435,,,2024-05-07,清算の結了等,,,2015-10-05,1,,,,,ハナムラサンギョウ,0
1538,6420003002111,登記記録の閉鎖等,0,2024-05-16,2024-05-01,合同会社ＡＣＥ　ＦＡＲＭ　Ｊｉｎ,,合同会社,青森県,弘前市,大字鬼沢字山ノ越１０５番地,,02,202,0361205,,,2024-05-01,清算の結了等,,,2020-03-11,1,,,,,エースファームジン,0
1557,7010001212289,登記記録の閉鎖等,0,2024-05-16,2024-05-01,ペッツオーライ株式会社,,株式会社,東京都,中央区,新川１丁目１１番１０号,,13,102,1040033,,,2024-05-01,合併による解散等,3010001239311,令和６年５月１日東京都中央区新川一丁目１１番１０号ペッツオーライ株式会社（3010001239311）に合併し解散,2020-09-17,1,,,,,ペッツオーライ,0
1562,7010005014343,登記記録の閉鎖等,0,2024-05-16,2024-04-23,特定非営利活動法人日本経営倫理士協会,,その他の設立登記法人,東京都,港区,芝４丁目７番１号西山ビル４階シェアスペースコラボオフィスｍｉｎｇｌｅ,,13,103,1080014,,,2024-04-23,清算の結了等,,,2015-10-05,1,,,,,ニホンケイエイリンリシキョウカイ,0
1567,7010401011324,登記記録の閉鎖等,0,2024-05-16,2024-04-23,株式会社佐々原不動産,,株式会社,東京都,港区,三田２丁目１４番７号,,13,103,1080073,,,2024-04-23,清算の結了等,,,2015-10-05,1,,,,,ササハラフドウサン,0
1572,7010402018681,登記記録の閉鎖等,0,2024-05-16,2024-04-24,有限会社秋桜,,有限会社,東京都,港区,赤坂５丁目５番１５号,,13,103,1070052,,,2024-04-24,清算の結了等,,,2015-10-05,1,,,,,,0
1575,7010405021988,登記記録の閉鎖等,0,2024-05-16,2024-04-23,一般社団法人グローバルＨ＆Ｂコミュニティ,,その他の設立登記法人,東京都,港区,芝５丁目３６－７三田ベルジュビルＢ１Ｆ,,13,103,1080014,,,2024-04-23,清算の結了等,,,2023-04-13,1,,,,,グローバルエイチアンドビーコミュニティ,0
1587,7011001062195,登記記録の閉鎖等,0,2024-05-16,2024-04-25,株式会社ワイテックス,,株式会社,東京都,渋谷区,千駄ヶ谷１丁目３１番１０号,,13,113,1510051,,,2024-04-25,清算の結了等,,,2015-10-05,1,,,,,ワイテックス,0
1604,7011501024034,登記記録の閉鎖等,0,2024-05-16,2024-05-09,糖の万事屋株式会社,,株式会社,東京都,北区,浮間１丁目１番１４号リムジンビル３４２,,13,117,1150051,,,2024-05-09,清算の結了等,,,2018-09-06,1,,,,,トウノヨロズヤ,0
1613,7012701001888,登記記録の閉鎖等,0,2024-05-16,2024-05-14,ミドリ安全武蔵株式会社,,株式会社,東京都,東村山市,野口町１丁目１３番地２,,13,213,1890022,,,2024-05-14,清算の結了等,,,2015-10-05,1,,,,,ミドリアンゼンムサシ,0
1628,7020002059530,登記記録の閉鎖等,0,2024-05-16,2024-05-08,有限会社ピュア・ケア・ショイナー,,有限会社,神奈川県,横浜市戸塚区,汲沢町４７４番地６,00011180,14,110,2450062,,,2024-05-08,清算の結了等,,,2015-10-05,1,,,,,ピュアケアショイナー,0
1644,7021001058977,登記記録の閉鎖等,0,2024-05-16,2024-05-14,株式会社ＦＥＳ,,株式会社,神奈川県,秦野市,本町２丁目１番１号,,14,211,2570035,,,2024-05-14,清算の結了等,,,2016-04-07,1,,,,,エフイーエス,0
1653,7030002087695,登記記録の閉鎖等,0,2024-05-16,2024-05-13,有限会社富士計算事務センター,,有限会社,埼玉県,越谷市,花田１丁目３３番地３４,,11,222,3430015,,,2024-05-13,清算の結了等,,,2015-10-05,1,,,,,フジケイサンジムセンター,0
1654,7030003012058,登記記録の閉鎖等,0,2024-05-16,2024-05-01,サイ・レジデンス合同会社,,合同会社,埼玉県,さいたま市浦和区,岸町７丁目４番１８－１００１号,,11,107,3300064,,,2024-05-01,合併による解散等,9030003011743,令和６年５月１日さいたま市浦和区岸町七丁目４番１８－１００１号すまいの杜合同会社（9030003011743）に合併し解散,2018-06-20,1,,,,,サイレジデンス,0
1659,7030005009564,登記記録の閉鎖等,0,2024-05-16,2024-05-10,医療法人社団泰史会,,その他の設立登記法人,埼玉県,本庄市,朝日町２丁目５番８号,,11,211,3670026,,,2024-05-10,清算の結了等,,,2015-10-05,1,,,,,タイシカイ,0
1668,7040002060073,登記記録の閉鎖等,0,2024-05-16,2024-05-01,有限会社ナックル,,有限会社,千葉県,八街市,文違３０１番地３９６３,,12,230,2891104,,,2024-05-01,清算の結了等,,,2015-10-05,1,,,,,ナックル,0
1676,7070001011495,登記記録の閉鎖等,0,2024-05-16,2024-05-14,高崎継手株式会社,,株式会社,群馬県,高崎市,新町２３８０番地５,,10,202,3701301,,,2024-05-14,清算の結了等,,,2015-10-05,1,,,,,タカサキツギテ,0
1680,7100002008553,登記記録の閉鎖等,0,2024-05-16,2024-04-26,竹内建設有限会社,,有限会社,長野県,須坂市,大字幸高２９６番地１,,20,207,3820000,,,2024-04-26,清算の結了等,,,2015-10-05,1,,,,,タケウチケンセツ,0
1681,7100003005013,登記記録の閉鎖等,0,2024-05-16,2024-04-26,合同会社エン西沢,,合同会社,長野県,長野市,若穂保科１９３１番地２,,20,201,3810102,,,2024-04-26,清算の結了等,,,2018-06-05,1,,,,,エンニシザワ,0
1686,7120001091961,登記記録の閉鎖等,0,2024-05-16,2024-05-10,株式会社ライフ建築設計事務所,,株式会社,大阪府,大阪市中央区,東高麗橋２番４号,,27,128,5400039,,,2024-05-10,清算の結了等,,,2015-10-05,1,,,,,,0
1690,7120001208235,登記記録の閉鎖等,0,2024-05-16,2024-05-10,株式会社トレードベネ,,株式会社,大阪府,大阪市中央区,石町１丁目２番５－１４０１号,,27,128,5400033,,,2024-05-10,清算の結了等,,,2017-09-19,1,,,,,トレードベネ,0
1691,7120001216007,登記記録の閉鎖等,0,2024-05-16,2024-04-24,Ｅｘｓｃｉｅｎｔｉａ株式会社,,株式会社,東京都,港区,赤坂１丁目１１番４４号赤坂インターシティ５階Ｍａｚａｒｓ・Ｊａｐａｎ株式会社内,,13,103,1070052,,,2024-04-24,清算の結了等,,,2018-09-21,1,,,,,エクセンシア,0
1701,7120002049661,登記記録の閉鎖等,0,2024-05-16,2024-05-14,有限会社はるのひケアセンター,,有限会社,大阪府,大阪市生野区,桃谷１丁目９番２１号,,27,116,5440034,,,2024-05-14,清算の結了等,,,2015-10-05,1,,,,,ハルノヒケアセンター,0
1704,7120103002354,登記記録の閉鎖等,0,2024-05-16,2024-05-07,合同会社エス・エス・エム,,合同会社,大阪府,富田林市,藤沢台１丁目１番３１２－２０１号,,27,214,5840071,,,2024-05-07,清算の結了等,,,2015-12-24,1,,,,,エスエスエム,0
1705,7120901029276,登記記録の閉鎖等,0,2024-05-16,2024-05-13,株式会社コナンイーグル,,株式会社,大阪府,箕面市,瀬川２丁目２番２８－３０５号,,27,220,5620045,,,2024-05-13,清算の結了等,,,2015-10-05,1,,,,,コナンイーグル,0
1723,7180301026067,登記記録の閉鎖等,0,2024-05-16,2024-05-14,株式会社ウォードッグ,,株式会社,愛知県,豊田市,広路町１丁目３５番地１,,23,211,4710864,,,2024-05-14,清算の結了等,,,2015-10-05,1,,,,,ウォードッグ,0
1728,7190001024626,登記記録の閉鎖等,0,2024-05-16,2024-05-14,Ｌｉｂｅｒｔｙ　Ｗｏｒｋｓ株式会社,,株式会社,三重県,四日市市,午起３丁目１１番８号,,24,202,5100023,,,2024-05-14,清算の結了等,,,2017-05-08,1,,,,,リバティーワークス,0
1729,7190002005385,登記記録の閉鎖等,0,2024-05-16,2024-05-13,有限会社小倉競,,有限会社,三重県,尾鷲市,中央町９番３４号,,24,209,5193615,,,2024-05-13,清算の結了等,,,2015-10-05,1,,,,,オグラキソウ,0
1738,7240002003920,登記記録の閉鎖等,0,2024-05-16,2024-05-15,有限会社神田塗装,,有限会社,広島県,広島市西区,己斐上３丁目３４番４３号,,34,104,7330815,,,2024-05-15,清算の結了等,,,2015-10-05,1,,,,,カンダトソウ,0
1739,7250001010883,登記記録の閉鎖等,0,2024-05-16,2024-05-13,キューブデザイン株式会社,,株式会社,山口県,下松市,琴平町２丁目９番２号,,35,207,7440003,,,2024-05-13,清算の結了等,,,2015-10-05,1,,,,,キューブデザイン,0
1742,7260001025253,登記記録の閉鎖等,0,2024-05-16,2024-05-02,Ｍ’ｓＡテクノ株式会社,,株式会社,岡山県,都窪郡早島町,早島１９７７番地２,,33,423,7010304,,,2024-05-02,清算の結了等,,,2015-10-05,1,,,,,エムズエーテクノ,0
1745,7260003004156,登記記録の閉鎖等,0,2024-05-16,2024-05-08,合同会社Ａ‐Ｋａｔｚｅ,,合同会社,岡山県,岡山市北区,出石町１丁目２番７号,,33,101,7000812,,,2024-05-08,清算の結了等,,,2023-01-12,1,,,,,アーカッツェ,0
1753,7290002038870,登記記録の閉鎖等,0,2024-05-16,2024-04-18,有限会社カツミ電設,,有限会社,福岡県,大野城市,乙金３丁目８番３２号,,40,219,8160902,,,2024-04-18,清算の結了等,,,2015-10-05,1,,,,,カツミデンセツ,0
1777,7370601003093,登記記録の閉鎖等,0,2024-05-16,2024-05-10,株式会社絆工業,,株式会社,宮城県,多賀城市,高崎３丁目１０番２号,,04,209,9850862,,,2024-05-10,清算の結了等,,,2015-10-05,1,,,,,,0
1802,7470005001584,登記記録の閉鎖等,0,2024-05-16,2024-05-07,医療法人社団森下クリニック,,その他の設立登記法人,香川県,高松市,三条町３０９番地１ロゼ三条１階,,37,201,7618072,,,2024-05-07,清算の結了等,,,2015-10-05,1,,,,,モリシタクリニック,0
1857,8010903008313,登記記録の閉鎖等,0,2024-05-16,2024-05-10,合同会社ＳＷ,,合同会社,東京都,世田谷区,成城９丁目２８番８号,,13,112,1570066,,,2024-05-10,清算の結了等,,,2023-07-10,1,,,,,エスダブリュ,0
1868,8011103006280,登記記録の閉鎖等,0,2024-05-16,2024-05-01,合同会社ナレッジ・ワン,,合同会社,東京都,文京区,本郷３丁目３８番１０号さかえビル２Ｆ,,13,105,1130033,,,2024-05-01,合併による解散等,6011101042882,令和６年５月１日東京都文京区本郷三丁目３８番１０号さかえビル２Ｆ株式会社ナレッジ・フォーカス（6011101042882）に合併し解散,2016-05-18,1,,,,,ナレッジワン,0
1896,8020001065280,登記記録の閉鎖等,0,2024-05-16,2024-05-07,昭和技工株式会社,,株式会社,神奈川県,川崎市麻生区,片平１８５２番地,,14,137,2150023,,,2024-05-07,清算の結了等,,,2015-10-05,1,,,,,ショウワギコウ,0
1900,8020001138037,登記記録の閉鎖等,0,2024-05-16,2024-05-07,株式会社横濱馬車道,,株式会社,神奈川県,横浜市中区,相生町４丁目７６,,14,104,2310012,,,2024-05-07,清算の結了等,,,2020-10-12,1,,,,,ヨコハマバシャミチ,0
1914,8030001050488,登記記録の閉鎖等,0,2024-05-16,2024-05-13,株式会社ＧＡＩＡ,,株式会社,埼玉県,新座市,あたご３丁目４番２１号,,11,230,3520021,,,2024-05-13,清算の結了等,,,2015-10-05,1,,,,,ガイア,0
1921,8030003012429,登記記録の閉鎖等,0,2024-05-16,2024-05-13,合同会社ＬＵＣＫＯＮＥ,,合同会社,埼玉県,富士見市,西みずほ台１丁目２０番地１マーランドファイブ６０５,,11,235,3540018,,,2024-05-13,清算の結了等,,,2018-09-14,1,,,,,ラックワン,0
1927,8040001113888,登記記録の閉鎖等,0,2024-05-16,2024-05-02,株式会社田中総合企画,,株式会社,千葉県,八街市,榎戸１００９番地６,,12,230,2891106,,,2024-05-02,清算の結了等,,,2020-06-10,1,,,,,タナカソウゴウキカク,0
1934,8040003021478,登記記録の閉鎖等,0,2024-05-16,2024-04-30,ＨＭＬ合同会社,,合同会社,千葉県,旭市,ハの９５９番地８,,12,215,2892521,,,2024-04-30,清算の結了等,,,2022-12-19,1,,,,,エイチエムエル,0
1947,8080005004659,登記記録の閉鎖等,0,2024-05-16,2024-05-02,丸大茶農業協同組合,,その他の設立登記法人,静岡県,島田市,大代８３３番地の２,,22,209,4280009,,,2024-05-02,清算の結了等,,,2015-10-05,1,,,,,マルダイチャ,0
1968,8120001241532,登記記録の閉鎖等,0,2024-05-16,2024-05-09,株式会社レアン,,株式会社,大阪府,大阪市住吉区,長居東３丁目１４番２２号１０２,,27,120,5580004,,,2024-05-09,清算の結了等,,,2021-11-01,1,,,,,レアン,0
1989,8130001040990,登記記録の閉鎖等,0,2024-05-16,2024-05-15,片岡株式会社,,株式会社,京都府,福知山市,厚東町１３９番地,,26,201,6200059,,,2024-05-15,清算の結了等,,,2015-10-05,1,,,,,カタオカ,0
2000,8180001052486,登記記録の閉鎖等,0,2024-05-16,2024-05-01,株式会社シュライン,,株式会社,愛知県,名古屋市中区,大須３丁目３０番３１号,,23,106,4600011,,,2024-05-01,合併による解散等,4180001017971,令和６年５月１日名古屋市中区大須三丁目３０番４０号萬松寺土地株式会社（4180001017971）に合併し解散,2015-10-05,1,,,,,シュライン,0
2007,8180301009938,登記記録の閉鎖等,0,2024-05-16,2024-05-09,株式会社蒼森,,株式会社,東京都,武蔵野市,境南町２丁目２７番４号（１０３）,,13,203,1800023,,,2024-05-09,清算の結了等,,,2015-10-05,1,,,,,ソウシン,0
2008,8180301011101,登記記録の閉鎖等,0,2024-05-16,2024-05-14,すいとうワイ・エム・アール株式会社,,株式会社,愛知県,蒲郡市,三谷町五舗１５９番地の１７,,23,214,4430021,,,2024-05-14,清算の結了等,,,2015-10-05,1,,,,,スイトウワイエムアール,0
2009,8180301031990,登記記録の閉鎖等,0,2024-05-16,2024-05-10,株式会社アルペジオ,,株式会社,愛知県,岡崎市,矢作町字加護畑５９番地１,,23,202,4440943,,,2024-05-10,清算の結了等,,,2018-11-02,1,,,,,アルペジオ,0
2024,8220002012071,登記記録の閉鎖等,0,2024-05-16,2024-05-09,有限会社アートスペース,,有限会社,石川県,加賀市,大聖寺瀬越町弐参５１番地１,,17,206,9220671,,,2024-05-09,清算の結了等,,,2015-10-05,1,,,,,アートスペース,0
2032,8260001013876,登記記録の閉鎖等,0,2024-05-16,2024-05-10,株式会社鯛惣,,株式会社,岡山県,倉敷市,玉島勇崎１２９２番地,,33,202,7138125,,,2024-05-10,清算の結了等,,,2015-10-05,1,,,,,タイソウ,0
2035,8290001004996,登記記録の閉鎖等,0,2024-05-16,2024-05-01,株式会社岩室商会,,株式会社,福岡県,福岡市中央区,渡辺通４丁目９番１８号,,40,133,8100004,,,2024-05-01,合併による解散等,7290001014402,令和６年５月１日福岡市博多区博多駅前四丁目２４番１３号株式会社タウンアート（7290001014402）に合併し解散,2015-10-05,1,,,,,イワムロショウカイ,0
2037,8290001054117,登記記録の閉鎖等,0,2024-05-16,2024-04-18,ヤマコ水産株式会社,,株式会社,福岡県,大牟田市,三里町３丁目５番地１１,,40,202,8360076,,,2024-04-18,清算の結了等,,,2015-10-05,1,,,,,ヤマコスイサン,0
2038,8290001088882,登記記録の閉鎖等,0,2024-05-16,2024-04-15,株式会社貢献,,株式会社,福岡県,筑後市,大字富久３４１番地６,,40,211,8330044,,,2024-04-15,清算の結了等,,,2020-05-27,1,,,,,コウケン,0
2050,8320001012863,登記記録の閉鎖等,0,2024-05-16,2024-04-24,株式会社セスネットエージェンシー,,株式会社,大分県,別府市,餅ケ浜町１０番３４号サンライズ若草６０５号,00096751,44,202,8740924,,,2024-04-24,清算の結了等,,,2015-10-05,1,,,,,セスネットエージェンシー,0
2052,8330002018644,登記記録の閉鎖等,0,2024-05-16,2024-05-14,有限会社中嶋,,有限会社,熊本県,山鹿市,鹿校通２丁目２番８号,,43,208,8610532,,,2024-05-14,清算の結了等,,,2015-10-05,1,,,,,ナカシマ,0
2056,8350002002035,登記記録の閉鎖等,0,2024-05-16,2024-05-14,有限会社サンテック,,有限会社,宮崎県,宮崎市,学園木花台南１丁目６番地３,,45,201,8892153,,,2024-05-14,清算の結了等,,,2015-10-05,1,,,,,サンテック,0
2079,8470001006818,登記記録の閉鎖等,0,2024-05-16,2024-05-10,株式会社溝渕材木店,,株式会社,香川県,木田郡三木町,大字池戸２８６４番地,,37,341,7610701,,,2024-05-10,清算の結了等,,,2015-10-05,1,,,,,ミズブチザイモクテン,0
2093,9010001148762,登記記録の閉鎖等,0,2024-05-16,2024-05-01,東京長屋印刷株式会社,,株式会社,愛知県,名古屋市東区,泉３丁目３０番２３号,,23,102,4610001,,,2024-05-01,合併による解散等,9180001039210,令和６年５月１日名古屋市東区泉三丁目３０番２３号長屋印刷株式会社（9180001039210）に合併し解散,2015-10-05,1,,,,,トウキョウナガヤインサツ,0
2096,9010001207163,登記記録の閉鎖等,0,2024-05-16,2024-05-01,マミ＆キャリアコンサルタンツ株式会社,,株式会社,東京都,中央区,勝どき４丁目９番６号,,13,102,1040054,,,2024-05-01,清算の結了等,,,2020-02-03,1,,,,,アミアンドキャリアコンサルタンツ,0
2155,9011301017104,登記記録の閉鎖等,0,2024-05-16,2024-05-13,株式会社Ｐｏｎｏ,,株式会社,東京都,練馬区,小竹町１丁目４７番１３－２０１号,,13,120,1760004,,,2024-05-13,合併による解散等,1500001021076,令和６年４月１日大阪府阪南市下出３７番地の５リクラス尾崎ビル２階株式会社ＭＥＤＩ‐ＦＵＬＬ（1500001021076）に合併し解散,2015-10-05,1,,,,,ポノ,0
2160,9011801032016,登記記録の閉鎖等,0,2024-05-16,2024-05-01,株式会社セラフホールディングス,,株式会社,東京都,中央区,日本橋人形町３丁目５番２号,,13,102,1030013,,,2024-05-01,合併による解散等,8010501019951,令和６年５月１日東京都中央区日本橋人形町三丁目５番２号株式会社セラフ（8010501019951）に合併し解散,2016-06-30,1,,,,,セラフホールディングス,0
2161,9011802024854,登記記録の閉鎖等,0,2024-05-16,2024-05-14,株式会社中田屋ホールディングス,,株式会社,東京都,渋谷区,恵比寿３丁目３５番４号,,13,113,1500013,,,2024-05-14,合併による解散等,5011801034016,令和６年５月１日東京都足立区西新井一丁目５番１－３０３号株式会社中田屋（5011801034016）に合併し解散,2015-10-05,1,,,,,ナカダヤホールディングス,0
2166,9013302014690,登記記録の閉鎖等,0,2024-05-16,2024-05-01,有限会社トキオ・ジャパン,,有限会社,東京都,中央区,築地４丁目１２番２号１階,,13,102,1040045,,,2024-05-01,合併による解散等,4010001135187,令和６年５月１日東京都中央区築地三丁目１３番５号丸促築地ビル６階株式会社海神貿易（4010001135187）に合併し解散,2015-10-05,1,,,,,トキオジャパン,0
2167,9020001046296,登記記録の閉鎖等,0,2024-05-16,2024-05-08,豊和物産株式会社,,株式会社,神奈川県,横浜市鶴見区,市場西中町５番２３号,,14,101,2300023,,,2024-05-08,清算の結了等,,,2015-10-05,1,,,,,ホウワブッサン,0
2177,9021001018392,登記記録の閉鎖等,0,2024-05-16,2024-05-07,ギガテック株式会社,,株式会社,神奈川県,相模原市南区,文京２丁目４番２８号,,14,153,2520307,,,2024-05-07,清算の結了等,,,2015-10-05,1,,,,,ギガテック,0
2179,9021001077166,登記記録の閉鎖等,0,2024-05-16,2024-05-14,Ｌ＆Ｒ　ＫＡＭＡＫＵＲＡ株式会社,,株式会社,神奈川県,鎌倉市,御成町１１－２ヤノヤビル２Ｆ,,14,204,2480012,,,2024-05-14,清算の結了等,,,2022-10-12,1,,,,,エルアンドアールカマクラ,0
2187,9030001063737,登記記録の閉鎖等,0,2024-05-16,2024-05-13,株式会社奥山,,株式会社,埼玉県,越谷市,大字西方２９５６番地１,,11,222,3430822,,,2024-05-13,清算の結了等,,,2015-10-05,1,,,,,オクヤマ,0
2200,9030002023896,登記記録の閉鎖等,0,2024-05-16,2024-05-14,有限会社岡崎運輸,,有限会社,埼玉県,戸田市,上戸田１丁目１番４号,,11,224,3350022,,,2024-05-14,清算の結了等,,,2015-10-05,1,,,,,オカザキウンユ,0
2203,9030002053638,登記記録の閉鎖等,0,2024-05-16,2024-05-13,有限会社黒岩電子,,有限会社,埼玉県,上尾市,大字瓦葺１２４５番地５,,11,219,3620022,,,2024-05-13,清算の結了等,,,2015-10-05,1,,,,,クロイワデンシ,0
2205,9030003011215,登記記録の閉鎖等,0,2024-05-16,2024-05-02,合同会社ｓｔｕｄｉｏＭ,,合同会社,千葉県,木更津市,富士見１丁目２番１号スパークルシティ木更津７Ｆ,,12,206,2920831,,,2024-05-02,清算の結了等,,,2017-12-22,1,,,,,スタジオエム,0
2208,9040001077208,登記記録の閉鎖等,0,2024-05-16,2024-05-02,株式会社ヒューマン・インターフェース・デザイン,,株式会社,千葉県,南房総市,富浦町原岡３番地,,12,234,2992403,,,2024-05-02,清算の結了等,,,2015-10-05,1,,,,,ヒューマンインターフェースデザイン,0
2215,9040002050436,登記記録の閉鎖等,0,2024-05-16,2024-05-02,有限会社高鹿商会,,有限会社,千葉県,流山市,大字東深井１１０９番地の２９,,12,220,2700101,,,2024-05-02,清算の結了等,,,2015-10-05,1,,,,,,0
2222,9050002009943,登記記録の閉鎖等,0,2024-05-16,2024-05-13,有限会社アトリエシグマ,,有限会社,埼玉県,川口市,戸塚東４丁目１４番３号リヴィエールコートＣ１０１号,,11,203,3330802,,,2024-05-13,清算の結了等,,,2015-10-05,1,,,,,アトリエシグマ,0
2236,9100005012591,登記記録の閉鎖等,0,2024-05-16,2024-04-26,北アルプス地域エネルギー協同組合,,その他の設立登記法人,長野県,北安曇郡白馬村,大字北城１２０１５番地,,20,485,3999301,,,2024-04-26,清算の結了等,,,2020-08-07,1,,,,,キタアルプスチイキエネルギー,0
2259,9130001046228,登記記録の閉鎖等,0,2024-05-16,2024-05-15,新日本製薬株式会社,,株式会社,京都府,久世郡久御山町,森三丁２１番地４,,26,322,6130024,,,2024-05-15,清算の結了等,,,2015-10-05,1,,,,,,0
2263,9140001055731,登記記録の閉鎖等,0,2024-05-16,2024-05-09,藤原運輸倉庫株式会社,,株式会社,兵庫県,尼崎市,南塚口町２丁目４０番４号,,28,202,6610012,,,2024-05-09,清算の結了等,,,2015-10-05,1,,,,,フジワラウンユソウコ,0
2287,9150002009371,登記記録の閉鎖等,0,2024-05-16,2024-05-15,有限会社丸宗食品,,有限会社,奈良県,香芝市,高２６７番地の３,,29,210,6390241,,,2024-05-15,清算の結了等,,,2015-10-05,1,,,,,マルソウショクヒン,0
2311,9200003004408,登記記録の閉鎖等,0,2024-05-16,2024-05-13,Ｍ２企画合同会社,,合同会社,岐阜県,大垣市,南一色町２７０番地５,,21,202,5030971,,,2024-05-13,清算の結了等,,,2019-02-18,1,,,,,エムツーキカク,0
2318,9230001017458,登記記録の閉鎖等,0,2024-05-16,2024-05-13,株式会社ＡＳＡＮＯ,,株式会社,富山県,高岡市,石瀬５６１番地７,,16,202,9330011,,,2024-05-13,清算の結了等,,,2018-05-30,1,,,,,アサノ,0
2319,9230002007648,登記記録の閉鎖等,0,2024-05-16,2024-05-14,有限会社志むら乃寿司,,有限会社,富山県,魚津市,石垣新３３２３番地,,16,204,9370813,,,2024-05-14,清算の結了等,,,2015-10-05,1,,,,,シムラノスシ,0
2327,9260002032478,登記記録の閉鎖等,0,2024-05-16,2024-05-08,有限会社川田鉄工所,,有限会社,岡山県,備前市,蕃山１１２番地の４,,33,211,7050031,,,2024-05-08,清算の結了等,,,2015-10-05,1,,,,,カワダテッコウショ,0
2345,9320201000592,登記記録の閉鎖等,0,2024-05-16,2024-05-02,株式会社マリンワールド,,株式会社,大分県,臼杵市,大字大野１２５７番地,,44,206,8750004,,,2024-05-02,合併による解散等,9320201000007,令和６年５月１日大分県臼杵市大字大野１２５７番地株式会社安東水産（9320201000007）に合併し解散,2015-10-05,1,,,,,マリンワールド,0
2353,9360002009499,登記記録の閉鎖等,0,2024-05-16,2024-05-14,有限会社第一ヘルスサービス,,有限会社,沖縄県,島尻郡八重瀬町,字友寄４２番地,,47,362,9010411,,,2024-05-14,清算の結了等,,,2015-10-05,1,,,,,ダイイチヘルスサービス,0
2365,9390001008838,登記記録の閉鎖等,0,2024-05-16,2024-05-07,最上観光株式会社,,株式会社,山形県,最上郡最上町,大字富沢２１８６番地の８,,06,362,9996100,,,2024-05-07,清算の結了等,,,2015-10-05,1,,,,,モガミカンコウ,0
2367,9390002010958,登記記録の閉鎖等,0,2024-05-16,2024-05-08,有限会社橋見起業,,有限会社,山形県,新庄市,金沢２２３５番地,,06,205,9960002,,,2024-05-08,清算の結了等,,,2015-10-05,1,,,,,ハシミキギョウ,0
2377,9430002055362,登記記録の閉鎖等,0,2024-05-16,2024-05-10,有限会社丸八八坂商店,,有限会社,北海道,小樽市,石山町１０番９号,,01,203,0470038,,,2024-05-10,清算の結了等,,,2015-10-05,1,,,,,マルハチヤサカショウテン,0
