sequenceNumber,corporateNumber,process,correct,updateDate,changeDate,name,nameImageId,kind,prefectureName,cityName,streetNumber,addressImageId,prefectureCode,cityCode,postCode,addressOutside,addressOutsideImageId,closeDate,closeCause,successorCorporateNumber,changeCause,assignmentDate,latest,enName,enPrefectureName,enCityName,enAddressOutside,furigana,hihyoji
5,1010001249444,新規,0,2024-10-25,2024-10-25,株式会社Ｌｉｖｚｅｓ,,株式会社,東京都,中央区,銀座１丁目２２番１１号銀座大竹ビジデンス２Ｆ,,13,102,1040061,,,,,,,2024-10-25,1,,,,,リブゼス,0
9,1010003045230,新規,0,2024-10-25,2024-10-25,みなかみ蓄電所合同会社,,合同会社,東京都,中央区,日本橋２丁目２番２１号スリーエス内,,13,102,1030027,,,,,,,2024-10-25,1,,,,,ミナカミチクデンショ,0
12,1010005039008,新規,0,2024-10-25,2024-10-25,一般社団法人日本動脈硬化協会,,その他の設立登記法人,東京都,文京区,本郷３丁目２８番８号日内会館Ｂ１,,13,105,1130033,,,,,,,2024-10-25,1,,,,,ニホンドウミャクコウカキョウカイ,0
13,1010005039024,新規,0,2024-10-25,2024-10-25,一般社団法人国土強靭化研究所,,その他の設立登記法人,東京都,千代田区,有楽町１丁目９番１号日比谷サンケイビル１０階,,13,101,1000006,,,,,,,2024-10-25,1,,,,,コクドキョウジンカケンキュウショ,0
18,1010401185974,新規,0,2024-10-25,2024-10-25,株式会社Ｕｌｙｓｓｅｓ,,株式会社,東京都,港区,高輪２丁目１番１１号秀和高輪レジデンス７０５,,13,103,1080074,,,,,,,2024-10-25,1,,,,,ユリシス,0
24,1010403033669,新規,0,2024-10-25,2024-10-25,合同会社みなと００３,,合同会社,東京都,港区,虎ノ門３丁目２２番１０－２０１号,,13,103,1050001,,,,,,,2024-10-25,1,,,,,ミナトゼロゼロスリー,0
29,1010405023692,新規,0,2024-10-25,2024-10-25,札幌インベストメンツ一般社団法人,,その他の設立登記法人,東京都,港区,六本木１丁目６番１号泉ガーデンタワー,,13,103,1060032,,,,,,,2024-10-25,1,,,,,サッポロインベストメンツ,0
36,1010601066165,新規,0,2024-10-25,2024-10-25,ＳＵＮ　ＡＣＥ株式会社,,株式会社,東京都,墨田区,横川５丁目２番１２号,,13,107,1300003,,,,,,,2024-10-25,1,,,,,,0
40,1010703007406,新規,0,2024-10-25,2024-10-25,ふじろく合同会社,,合同会社,東京都,品川区,上大崎３丁目１番１号目黒セントラルスクエア１５階,,13,109,1410021,,,,,,,2024-10-25,1,,,,,フジロク,0
41,1010705003691,新規,0,2024-10-25,2024-10-25,一般社団法人南麻布コネクト,,その他の設立登記法人,東京都,品川区,上大崎３丁目１番１号目黒セントラルスクエア１５Ｆ,,13,109,1410021,,,,,,,2024-10-25,1,,,,,ミナミアザブコネクト,0
44,1010801035507,新規,0,2024-10-25,2024-10-25,株式会社ウェブリル,,株式会社,東京都,大田区,大森西５丁目２９番３号－３０１,,13,111,1430015,,,,,,,2024-10-25,1,,,,,ウェブリル,0
56,1011001165383,新規,0,2024-10-25,2024-10-25,メグロリゾートスリー株式会社,,株式会社,東京都,目黒区,目黒２丁目１０番８号,,13,110,1530063,,,,,,,2024-10-25,1,,,,,,0
57,1011001165516,新規,0,2024-10-25,2024-10-25,株式会社ヨリサキーノ,,株式会社,東京都,渋谷区,渋谷２丁目１９番１５‐６０９号宮益坂ビルディング,,13,113,1500002,,,,,,,2024-10-25,1,,,,,ヨリサキーノ,0
61,1011003020264,新規,0,2024-10-25,2024-10-25,インディー音声工房合同会社,,合同会社,東京都,渋谷区,渋谷２丁目１９‐１５宮益坂ビルディング６０９,,13,113,1500002,,,,,,,2024-10-25,1,,,,,インディーオンセイコウボウ,0
66,1011103015073,新規,0,2024-10-25,2024-10-25,合同会社ねこのて,,合同会社,東京都,新宿区,西新宿３丁目３番１３号西新宿水間ビル２Ｆ,,13,104,1600023,,,,,,,2024-10-25,1,,,,,ネコノテ,0
68,1011301030106,新規,0,2024-10-25,2024-10-25,株式会社ビーバートン,,株式会社,東京都,杉並区,西荻北４丁目１番２１号２０２号室,,13,115,1670042,,,,,,,2024-10-25,1,,,,,,0
76,1011801045017,新規,0,2024-10-25,2024-10-25,株式会社七七二二,,株式会社,東京都,足立区,中川２丁目１３－２－４０１,,13,121,1200002,,,,,,,2024-10-25,1,,,,,ナナナナニニ,0
77,1011801045033,新規,0,2024-10-25,2024-10-25,非同期戦略的キャピタルＥｎｔｅｒｐｒｉｓｅｓ株式会社,,株式会社,東京都,足立区,竹の塚６丁目６番１号竹ノ塚オフィス２Ｆ－０１,,13,121,1210813,,,,,,,2024-10-25,1,,,,,,0
91,1020001159717,新規,0,2024-10-25,2024-10-25,ＳｔａｒＬｅａｖｅｓ株式会社,,株式会社,神奈川県,横浜市神奈川区,神奈川本町６番地３,,14,102,2210046,,,,,,,2024-10-25,1,,,,,スターリーヴス,0
92,1020001159774,新規,0,2024-10-25,2024-10-25,株式会社ゼットアールイー,,株式会社,神奈川県,横浜市青葉区,藤が丘２丁目３６番地１４－２０４号,,14,117,2270043,,,,,,,2024-10-25,1,,,,,ゼットアールイー,0
94,1020003027104,新規,0,2024-10-25,2024-10-25,Ｗｉｚ　Ｄａｓｈ合同会社,,合同会社,神奈川県,横浜市旭区,上白根３丁目２３番３２号,,14,112,2410002,,,,,,,2024-10-25,1,,,,,ウィズダッシュ,0
95,1020003027112,新規,0,2024-10-25,2024-10-25,合同会社ＲＥＶＥＲＢ,,合同会社,神奈川県,川崎市中原区,小杉町３丁目２５２番地１朝日パリオ武蔵小杉９０８,,14,133,2110063,,,,,,,2024-10-25,1,,,,,リヴァーブ,0
99,1021001083601,新規,0,2024-10-25,2024-10-25,株式会社ＣｉｔＹ,,株式会社,神奈川県,厚木市,酒井１８１９番地７,,14,212,2430022,,,,,,,2024-10-25,1,,,,,シーアイティワイ,0
102,1021003015148,新規,0,2024-10-25,2024-10-25,合同会社Ｄｅｓｉｇｎ２４ｃ,,合同会社,神奈川県,相模原市中央区,淵野辺本町３丁目２２番２８－４０１号,,14,152,2520202,,,,,,,2024-10-25,1,,,,,デザインニジュウヨンドシー,0
108,1030003025321,新規,0,2024-10-25,2024-10-25,合同会社アセットマネジメントツカモト,,合同会社,埼玉県,さいたま市西区,大字指扇２１２８－３７,,11,101,3310047,,,,,,,2024-10-25,1,,,,,アセットマネジメントツカモト,0
117,1040001135906,新規,0,2024-10-25,2024-10-25,株式会社５３９,,株式会社,千葉県,茂原市,千代田町１丁目２番地６,,12,210,2970023,,,,,,,2024-10-25,1,,,,,ゴサンキュウ,0
118,1040001135930,新規,0,2024-10-25,2024-10-25,株式会社飯田工務店,,株式会社,千葉県,習志野市,泉町３丁目３番５－４号,,12,216,2750006,,,,,,,2024-10-25,1,,,,,イイダコウムテン,0
123,1040003026054,新規,0,2024-10-25,2024-10-25,合同会社イエポ,,合同会社,千葉県,柏市,中央町２番２８号４階,,12,217,2770021,,,,,,,2024-10-25,1,,,,,イエポ,0
125,1050001055574,新規,0,2024-10-25,2024-10-25,Ｉサポート株式会社,,株式会社,茨城県,取手市,藤代１７５９番地１,,08,217,3001512,,,,,,,2024-10-25,1,,,,,アイサポート,0
126,1050001055590,新規,0,2024-10-25,2024-10-25,株式会社ＲＯＣＣＫ,,株式会社,茨城県,土浦市,粕毛１０８番地,,08,203,3000804,,,,,,,2024-10-25,1,,,,,ロック,0
127,1050003008761,新規,0,2024-10-25,2024-10-25,合同会社Ｓ．Ｒ　ＡＵＴＯ　ＪＡＰＡＮ　ＩＮＴ,,合同会社,茨城県,結城市,大字結城２６４７番地１,,08,207,3070001,,,,,,,2024-10-25,1,,,,,エスアールオートジャパンイント,0
151,1100003007832,新規,0,2024-10-25,2024-10-25,合同会社堀川工房,,合同会社,長野県,安曇野市,穂高柏原２２６０番地１０号,,20,220,3998304,,,,,,,2024-10-25,1,,,,,ホリカワコウボウ,0
154,1110001038804,新規,0,2024-10-25,2024-10-25,株式会社アソビリティー,,株式会社,新潟県,西蒲原郡弥彦村,大字矢作７２５６番地７,,15,342,9590305,,,,,,,2024-10-25,1,,,,,アソビリティー,0
162,1120001269662,新規,0,2024-10-25,2024-10-25,オモト株式会社,,株式会社,大阪府,大阪市浪速区,恵美須東２丁目９番８号フレンドリー浪速２０１号室,,27,111,5560002,,,,,,,2024-10-25,1,,,,,オモト,0
163,1120001269695,新規,0,2024-10-25,2024-10-25,株式会社クリスタルクリーン,,株式会社,大阪府,大阪市中央区,本町２丁目３番４号アソルティ本町４Ｆ,,27,128,5410053,,,,,,,2024-10-25,1,,,,,クリスタルクリーン,0
164,1120001269712,新規,0,2024-10-25,2024-10-25,ＪＵＮＫＩ株式会社,,株式会社,大阪府,大阪市西区,江戸堀３丁目６－２５朝日プラザ江戸堀１０３,,27,106,5500002,,,,,,,2024-10-25,1,,,,,ジュンキ,0
167,1120003027829,新規,0,2024-10-25,2024-10-25,合同会社タイムリー,,合同会社,大阪府,大阪市生野区,巽東２丁目８番１６号,00136755,27,116,5440014,,,,,,,2024-10-25,1,,,,,タイムリー,0
170,1120103006105,新規,0,2024-10-25,2024-10-25,合同会社トライフォース,,合同会社,大阪府,泉佐野市,日根野３４２２番地の１（Ｂ－１０３）,,27,213,5980021,,,,,,,2024-10-25,1,,,,,トライフォース,0
173,1120901049949,新規,0,2024-10-25,2024-10-25,株式会社ヨシゾウ,,株式会社,大阪府,高槻市,奈佐原２丁目１４番１５－２０４号,,27,207,5691041,,,,,,,2024-10-25,1,,,,,ヨシゾウ,0
174,1120901049957,新規,0,2024-10-25,2024-10-25,Ｙｏｕサービス株式会社,,株式会社,大阪府,豊中市,曽根南町１丁目５番１号,,27,203,5610804,,,,,,,2024-10-25,1,,,,,ユーサービス,0
177,1130001078138,新規,0,2024-10-25,2024-10-25,株式会社みらい堂,,株式会社,京都府,八幡市,男山八望３－１男山団地Ｂ５２棟,,26,210,6148373,,,,,,,2024-10-25,1,,,,,ミライドウ,0
181,1140001136209,新規,0,2024-10-25,2024-10-25,株式会社ＹＯＲＯＫＯＢＩ,,株式会社,兵庫県,尼崎市,立花町１丁目５－１３,,28,202,6610025,,,,,,,2024-10-25,1,,,,,ヨロコビ,0
182,1140001136217,新規,0,2024-10-25,2024-10-25,株式会社Ｈａｊｉ,,株式会社,兵庫県,神戸市中央区,波止場町３番３号,,28,110,6500042,,,,,,,2024-10-25,1,,,,,ハジ,0
183,1140001136233,新規,0,2024-10-25,2024-10-25,株式会社ＲＯＯＴＳ‐ｓｅｒｅｎｄｉｐｉｔｙ,,株式会社,兵庫県,芦屋市,津知町８番７号,,28,206,6590075,,,,,,,2024-10-25,1,,,,,ルーツセレンディピティ,0
186,1140003021227,新規,0,2024-10-25,2024-10-25,合同会社Ｓｕｚｕｋｉ　Ｓｐｅｅｃｈ　Ｔｈｅｒａｐｙ,,合同会社,兵庫県,神戸市東灘区,向洋町中１丁目１０番地１０１号棟１８０９号室,,28,101,6580032,,,,,,,2024-10-25,1,,,,,スズキスピーチセラピー,0
189,1160001026309,新規,0,2024-10-25,2024-10-25,株式会社金屋,,株式会社,滋賀県,湖南市,三雲１９６７番地,,25,211,5203221,,,,,,,2024-10-25,1,,,,,カナヤ,0
198,1180001163661,新規,0,2024-10-25,2024-10-25,株式会社ＪＯＢ　ｎｅｘｔ,,株式会社,愛知県,名古屋市西区,則武新町３丁目６番７号－１０１号,,23,104,4510051,,,,,,,2024-10-25,1,,,,,ジョブネクスト,0
199,1180001163711,新規,0,2024-10-25,2024-10-25,株式会社Ｄｏｒｏｔｈｙ,,株式会社,愛知県,名古屋市昭和区,隼人町１０番地４杁中ハイツ３０１号,,23,107,4660833,,,,,,,2024-10-25,1,,,,,ドロシー,0
200,1180001163777,新規,0,2024-10-25,2024-10-25,株式会社かけはし,,株式会社,愛知県,名古屋市守山区,四軒家２丁目４２０番地（三井農林藤ケ丘ハイツ２０２号）,,23,113,4630034,,,,,,,2024-10-25,1,,,,,カケハシ,0
201,1180001163884,新規,0,2024-10-25,2024-10-25,株式会社ＮＯＡ・ＣＯＭＭＥＲＣＩＡＬ,,株式会社,愛知県,名古屋市港区,川西通４丁目９番２号,,23,111,4550073,,,,,,,2024-10-25,1,,,,,ノアコマーシャル,0
210,1260003004938,新規,0,2024-10-25,2024-10-25,合同会社Ｃｒｅｓｔ　Ｓｍｉｌｅ,,合同会社,岡山県,倉敷市,片島町３６０番地７,,33,202,7100805,,,,,,,2024-10-25,1,,,,,クレストスマイル,0
213,1290001107731,新規,0,2024-10-25,2024-10-25,イレック株式会社,,株式会社,福岡県,福岡市南区,若久６丁目１０番２６－１０３号,,40,134,8150042,,,,,,,2024-10-25,1,,,,,イレック,0
217,1310001019288,新規,0,2024-10-25,2024-10-25,ＭＳ　Ａｓｓｏｃｉａｔｅｓ株式会社,,株式会社,長崎県,佐世保市,ハウステンボス町１５番地２,,42,202,8593243,,,,,,,2024-10-25,1,,,,,エムエスアソシエイツ,0
223,1340001026868,新規,0,2024-10-25,2024-10-25,株式会社インクリースホールディングス,,株式会社,鹿児島県,鹿児島市,東千石町７番２号ＪＫセピアビル,,46,201,8920842,,,,,,,2024-10-25,1,,,,,インクリースホールディングス,0
224,1340001026876,新規,0,2024-10-25,2024-10-25,ＬＣＨＤ株式会社,,株式会社,鹿児島県,鹿児島市,住吉町４番１号,,46,201,8920823,,,,,,,2024-10-25,1,,,,,エルシーエイチディー,0
228,1360001034357,新規,0,2024-10-25,2024-10-25,株式会社ＧＬＡＤ‐Ｐｌｕｓ,,株式会社,沖縄県,那覇市,首里大名町２丁目９５番地４,,47,201,9030802,,,,,,,2024-10-25,1,,,,,グラッドプラス,0
229,1360001034373,新規,0,2024-10-25,2024-10-25,株式会社ＩＺＥＮＡ　ＣＡＳＴＬＥ,,株式会社,沖縄県,島尻郡伊是名村,字諸見５０６６,,47,360,9050602,,,,,,,2024-10-25,1,,,,,イゼナキャッスル,0
230,1370001051847,新規,0,2024-10-25,2024-10-25,株式会社アイキャン,,株式会社,宮城県,亘理郡山元町,山寺字上篭田４９番地２,,04,362,9892201,,,,,,,2024-10-25,1,,,,,アイキャン,0
251,1430003016890,新規,0,2024-10-25,2024-10-25,Ｌｎ．合同会社,,合同会社,北海道,札幌市中央区,南一条西２丁目１－２木ＮＩＮＡＲＵ　ＢＬＤＧ　ＦＤ－７,,01,101,0600061,,,,,,,2024-10-25,1,,,,,レーン,0
257,1480001012631,新規,0,2024-10-25,2024-10-25,株式会社宏輝,,株式会社,徳島県,三好郡東みよし町,加茂１８６７番地５,,36,489,7794701,,,,,,,2024-10-25,1,,,,,コウキ,0
259,1700150127604,新規,0,2024-10-25,2024-10-25,円山パークサイドマンション建替組合,,その他,北海道,札幌市中央区,南一条西７丁目２１番地第一サントービル８階　株式会社アーレックス事務所内,,01,101,0600061,,,,,,,2024-10-25,1,,,,,マルヤマパークサイドマンシヨンタテカエクミアイ,0
269,2010001249377,新規,0,2024-10-25,2024-10-25,東邦不動産株式会社,,株式会社,東京都,中央区,新川１丁目１－３－６Ｆ,,13,102,1040033,,,,,,,2024-10-25,1,,,,,トウホウフドウサン,0
270,2010001249402,新規,0,2024-10-25,2024-10-25,株式会社ビックバン,,株式会社,東京都,千代田区,神田神保町３丁目４番地２９号九段下ＳＳＴビル５０３号室,,13,101,1010051,,,,,,,2024-10-25,1,,,,,ビックバン,0
273,2010003045295,新規,0,2024-10-25,2024-10-25,合同会社エルインベストメント３,,合同会社,東京都,千代田区,丸の内１丁目４番１号東京共同会計事務所内,,13,101,1000005,,,,,,,2024-10-25,1,,,,,エルインベストメントスリー,0
275,2010005038990,新規,0,2024-10-25,2024-10-25,行政書士法人ｍｉｊｉｋａ,,その他の設立登記法人,東京都,中央区,日本橋小網町８番２号ビズマークス日本橋茅場町,,13,102,1030016,,,,,,,2024-10-25,1,,,,,ミジカ,0
276,2010005038999,新規,0,2024-10-25,2024-10-25,弁護士法人越水法律事務所,,その他の設立登記法人,東京都,中央区,銀座７丁目１６番２１号銀座木挽ビル４階,,13,102,1040061,,,,,,,2024-10-25,1,,,,,コシミズホウリツジムショ,0
277,2010005039007,新規,0,2024-10-25,2024-10-25,税理士法人ＡＢＳパートナーズ,,その他の設立登記法人,東京都,文京区,小石川２丁目１番１号,,13,105,1120002,,,,,,,2024-10-25,1,,,,,エービーエスパートナーズ,0
292,2010401185957,新規,0,2024-10-25,2024-10-25,株式会社ＭＯＴＥＲ．ｉｏ,,株式会社,東京都,港区,北青山１丁目３番１号アールキューブ青山３階,,13,103,1070061,,,,,,,2024-10-25,1,,,,,モテリオ,0
293,2010401186047,新規,0,2024-10-25,2024-10-25,株式会社Ｙｏｕｔｈｑｕａｋｅ,,株式会社,東京都,港区,北青山１丁目３番１号アールキューブ青山３階,,13,103,1070061,,,,,,,2024-10-25,1,,,,,ユースクエイク,0
298,2010403033676,新規,0,2024-10-25,2024-10-25,パシフィコ・エナジー・ストレージ土地合同会社,,合同会社,東京都,港区,六本木３丁目２番１号六本木グランドタワー,,13,103,1060032,,,,,,,2024-10-25,1,,,,,パシフィコエナジーストレージトチ,0
309,2010703007396,新規,0,2024-10-25,2024-10-25,合同会社ストレージ兵庫蓄電所,,合同会社,東京都,品川区,西大井６丁目１２番１８号,,13,109,1400015,,,,,,,2024-10-25,1,,,,,ストレージヒョウゴチクデンショ,0
312,2010901056195,新規,0,2024-10-25,2024-10-25,株式会社ゼロワン,,株式会社,東京都,世田谷区,用賀１丁目２０番２４－５０１号,,13,112,1580097,,,,,,,2024-10-25,1,,,,,ゼロワン,0
320,2011001165093,新規,0,2024-10-25,2024-10-25,株式会社Ｍｏｂｉｌｉｔｙ　Ｏｎｅ,,株式会社,東京都,渋谷区,千駄ヶ谷５丁目１５番５号,,13,113,1510051,,,,,,,2024-10-25,1,,,,,モビリティワン,0
321,2011001165390,新規,0,2024-10-25,2024-10-25,株式会社Ｔｏｗｌｅｅ,,株式会社,東京都,渋谷区,道玄坂１丁目１０番８号渋谷道玄坂東急ビル２Ｆ－Ｃ,,13,113,1500043,,,,,,,2024-10-25,1,,,,,トーリー,0
322,2011001165572,新規,0,2024-10-25,2024-10-25,株式会社ＭＤ,,株式会社,東京都,渋谷区,渋谷１丁目２３番２６号網野ビル２階,,13,113,1500002,,,,,,,2024-10-25,1,,,,,エムディ,0
323,2011001165589,新規,0,2024-10-25,2024-10-25,株式会社ジャパンキャリア,,株式会社,東京都,渋谷区,道玄坂１丁目１０番５号渋谷プレイス３階,,13,113,1500043,,,,,,,2024-10-25,1,,,,,ジャパンキャリア,0
332,2011101109256,新規,0,2024-10-25,2024-10-25,ＶＡＩ株式会社,,株式会社,東京都,新宿区,北新宿１丁目１－１６－３０１,,13,104,1690074,,,,,,,2024-10-25,1,,,,,ヴイエーアイ,0
333,2011101109280,新規,0,2024-10-25,2024-10-25,株式会社視界逆転,,株式会社,東京都,新宿区,荒木町六丁目４番ラ・ベルロシェ２０２,,13,104,1600007,,,,,,,2024-10-25,1,,,,,シカイギャクテン,0
334,2011101109339,新規,0,2024-10-25,2024-10-25,株式会社ＣｏｏｌｎｅｓＳ,,株式会社,東京都,新宿区,歌舞伎町１丁目１０番１２号豊ビルディング地上３階Ｂ室,,13,104,1600021,,,,,,,2024-10-25,1,,,,,クールネス,0
341,2011603004491,新規,0,2024-10-25,2024-10-25,合同会社米の司,,合同会社,東京都,練馬区,豊玉北５丁目２５番２１号,,13,120,1760012,,,,,,,2024-10-25,1,,,,,ヨネノモリ,0
346,2012403006810,新規,0,2024-10-25,2024-10-25,合同会社井の頭３,,合同会社,東京都,三鷹市,井の頭３丁目１７番８号,,13,204,1810001,,,,,,,2024-10-25,1,,,,,イノカシラスリー,0
360,2021001083600,新規,0,2024-10-25,2024-10-25,株式会社ダイアリシス,,株式会社,神奈川県,相模原市南区,北里２丁目２３番６号,,14,153,2520329,,,,,,,2024-10-25,1,,,,,ダイアリシス,0
383,2040001135913,新規,0,2024-10-25,2024-10-25,株式会社こなや,,株式会社,千葉県,袖ケ浦市,久保田３１９２番地２,,12,229,2990242,,,,,,,2024-10-25,1,,,,,コナヤ,0
384,2040001135938,新規,0,2024-10-25,2024-10-25,株式会社シェア,,株式会社,千葉県,浦安市,富士見３丁目６番５－２０４号ベル富士見,,12,227,2790043,,,,,,,2024-10-25,1,,,,,シェア,0
385,2040001135946,新規,0,2024-10-25,2024-10-25,株式会社ブランリッジ,,株式会社,千葉県,流山市,大字西深井８３５番地２０,,12,220,2700107,,,,,,,2024-10-25,1,,,,,ブランリッジ,0
390,2040003026053,新規,0,2024-10-25,2024-10-25,ＰｒｏＢｙｔｅ合同会社,,合同会社,千葉県,千葉市花見川区,南花園２丁目３－５第７花園ビル５０２,,12,102,2620022,,,,,,,2024-10-25,1,,,,,プロバイト,0
391,2040003026061,新規,0,2024-10-25,2024-10-25,びくす合同会社,,合同会社,千葉県,千葉市中央区,祐光４丁目７番７号和田第２ビル３０２号,,12,101,2600007,,,,,,,2024-10-25,1,,,,,ビクス,0
404,2060003005303,新規,0,2024-10-25,2024-10-25,真美合同会社,,合同会社,栃木県,河内郡上三川町,大字大山６７３番地１０,,09,301,3290525,,,,,,,2024-10-25,1,,,,,マミ,0
412,2090001018964,新規,0,2024-10-25,2024-10-25,株式会社ＪＡＫＯ,,株式会社,山梨県,甲斐市,富竹新田２３４１－４,,19,210,4000113,,,,,,,2024-10-25,1,,,,,,0
418,2100003007823,新規,0,2024-10-25,2024-10-25,合同会社Ｗｅｌｌ‐Ｂｅｅ　Ｌａｂ．,,合同会社,長野県,長野市,大字富竹４７８番地２９,,20,201,3810006,,,,,,,2024-10-25,1,,,,,ウェルビーラボ,0
419,2100003007831,新規,0,2024-10-25,2024-10-25,ＮＨＡＴ　ＤＵＯＮＧ合同会社,,合同会社,長野県,諏訪市,末広２番２号,,20,206,3920025,,,,,,,2024-10-25,1,,,,,ニャットズォン,0
423,2110001038803,新規,0,2024-10-25,2024-10-25,株式会社グラフィック,,株式会社,新潟県,新潟市西区,みずき野１丁目１１番８号,,15,107,9502264,,,,,,,2024-10-25,1,,,,,グラフィック,0
433,2120001269686,新規,0,2024-10-25,2024-10-25,株式会社ＡＫ工業,,株式会社,大阪府,交野市,倉治２丁目２７番１号,,27,230,5760051,,,,,,,2024-10-25,1,,,,,エーケーコウギョウ,0
435,2120003027828,新規,0,2024-10-25,2024-10-25,合同会社オカイズム,,合同会社,大阪府,大阪市西成区,天下茶屋１丁目２番１３号,,27,122,5570014,,,,,,,2024-10-25,1,,,,,オカイズム,0
436,2120005024591,新規,0,2024-10-25,2024-10-25,一般財団法人ハクゾウ奨学会,,その他の設立登記法人,大阪府,大阪市中央区,本町橋３番６号,,27,128,5400029,,,,,,,2024-10-25,1,,,,,ハクゾウショウガクカイ,0
439,2120105009922,新規,0,2024-10-25,2024-10-25,一般社団法人ヨネモトアソシエイツ,,その他の設立登記法人,大阪府,堺市堺区,戎島町４丁４５番地の１ポルタスセンタービル４Ｆ,,27,141,5900985,,,,,,,2024-10-25,1,,,,,ヨネモトアソシエイツ,0
445,2130001078194,新規,0,2024-10-25,2024-10-25,Ｇｌｏｂａｌ　Ｗｉｓｈ株式会社,,株式会社,京都府,京都市下京区,五条通油小路西入ル北側小泉町１１３番地１パティオ林６０１号室,,26,106,6000000,,,,,,,2024-10-25,1,,,,,グローバルウィッシュ,0
447,2140003021226,新規,0,2024-10-25,2024-10-25,Ｃ‐Ｇｒｏｕｐ合同会社,,合同会社,兵庫県,尼崎市,西立花町２丁目３０番１６号,,28,202,6600054,,,,,,,2024-10-25,1,,,,,シーグループ,0
463,2180001163784,新規,0,2024-10-25,2024-10-25,株式会社ネクスト,,株式会社,愛知県,名古屋市中区,新栄１丁目２５番２５号ルペルティア９０３号,,23,106,4600007,,,,,,,2024-10-25,1,,,,,ネクスト,0
464,2180001163818,新規,0,2024-10-25,2024-10-25,株式会社レーザークリーナー,,株式会社,愛知県,小牧市,大字北外山字大畔１８２４番地２,,23,219,4850023,,,,,,,2024-10-25,1,,,,,レーザークリーナー,0
470,2180003027517,新規,0,2024-10-25,2024-10-25,合同会社ＤＵＲＲＡＮＩ　ＡＵＴＯ　ＭＯＢＩＬＥＳ,,合同会社,愛知県,名古屋市中川区,一色新町３丁目８２６－１リバーサイド三日月３０２号室,,23,110,4540946,,,,,,,2024-10-25,1,,,,,,0
471,2180003027525,新規,0,2024-10-25,2024-10-25,合同会社サクラノモリ,,合同会社,愛知県,名古屋市緑区,浦里３丁目２８１番地サーパスシティ鳴海１２０２号,,23,114,4580847,,,,,,,2024-10-25,1,,,,,サクラノモリ,0
473,2180301039172,新規,0,2024-10-25,2024-10-25,トミーゴホールディングス株式会社,,株式会社,愛知県,豊橋市,上野町字上野６３番地,,23,201,4418157,,,,,,,2024-10-25,1,,,,,トミーゴホールディングス,0
476,2200001043067,新規,0,2024-10-25,2024-10-25,株式会社Ｍａｆｔｙ,,株式会社,岐阜県,不破郡垂井町,１１０１－４ＴＯＮＡＲＩ　ＧＡ　ＫＡＷＡ２０２,,21,361,5032121,,,,,,,2024-10-25,1,,,,,マフティー,0
477,2200001043075,新規,0,2024-10-25,2024-10-25,株式会社オアシス,,株式会社,岐阜県,岐阜市,西園町１７番地エクセルハイツ七番館事務所Ａ,,21,201,5008105,,,,,,,2024-10-25,1,,,,,オアシス,0
481,2230001020583,新規,0,2024-10-25,2024-10-25,アカツキ商事株式会社,,株式会社,富山県,高岡市,福岡町大野１８４番地１０,,16,202,9390118,,,,,,,2024-10-25,1,,,,,アカツキショウジ,0
484,2260001039571,新規,0,2024-10-25,2024-10-25,株式会社雪風衆,,株式会社,岡山県,岡山市北区,表町２丁目３番地１３９（３階）,,33,101,7000822,,,,,,,2024-10-25,1,,,,,,0
489,2260003004937,新規,0,2024-10-25,2024-10-25,合同会社ＲＥＳＯＮ,,合同会社,岡山県,岡山市南区,南輝２丁目２８番２９‐４号,,33,104,7028023,,,,,,,2024-10-25,1,,,,,レゾン,0
500,2290001107672,新規,0,2024-10-25,2024-10-25,株式会社Ａｃｔツー,,株式会社,福岡県,大野城市,乙金台２丁目４番１０号,,40,219,8160903,,,,,,,2024-10-25,1,,,,,アクトツー,0
501,2290001107706,新規,0,2024-10-25,2024-10-25,Ｉｎｆｅｒａｒａ株式会社,,株式会社,福岡県,福岡市中央区,大名２丁目６番１１号,,40,133,8100041,,,,,,,2024-10-25,1,,,,,インフェララ,0
506,2290801030990,新規,0,2024-10-25,2024-10-25,株式会社彩,,株式会社,福岡県,北九州市戸畑区,新川町１番１１号,,40,105,8040065,,,,,,,2024-10-25,1,,,,,イロドリ,0
507,2290803004869,新規,0,2024-10-25,2024-10-25,合同会社コウセー,,合同会社,福岡県,行橋市,大字上津熊１４７番地１,,40,213,8240064,,,,,,,2024-10-25,1,,,,,コウセー,0
510,2340001026883,新規,0,2024-10-25,2024-10-25,株式会社ＡＲＴ,,株式会社,鹿児島県,鹿児島市,山下町８番３号２階,,46,201,8920816,,,,,,,2024-10-25,1,,,,,エイアールティ,0
513,2350001019242,新規,0,2024-10-25,2024-10-25,株式会社サウージ,,株式会社,宮崎県,日南市,大字吉野方１０４２番地１,,45,204,8892513,,,,,,,2024-10-25,1,,,,,サウージ,0
517,2360001034372,新規,0,2024-10-25,2024-10-25,ａｚｕｒｅ株式会社,,株式会社,沖縄県,沖縄市,古謝３丁目２２番１１号ラ・フィネスＫＯＪＹＡ２０７,,47,211,9042161,,,,,,,2024-10-25,1,,,,,アジュール,0
520,2360003014397,新規,0,2024-10-25,2024-10-25,合同会社おぐら,,合同会社,沖縄県,那覇市,宇栄原３丁目４０７番地,,47,201,9010153,,,,,,,2024-10-25,1,,,,,オグラ,0
521,2360005007119,新規,0,2024-10-25,2024-10-25,一般社団法人カンボジア日本交友協会,,その他の設立登記法人,沖縄県,石垣市,字登野城３２１番地４恵ハウス北,,47,207,9070004,,,,,,,2024-10-25,1,,,,,カンブジアニホンコウユウキョウカイ,0
522,2370001051846,新規,0,2024-10-25,2024-10-25,株式会社オルクス,,株式会社,宮城県,宮城郡七ヶ浜町,遠山１丁目８番３５号,,04,404,9850823,,,,,,,2024-10-25,1,,,,,オルクス,0
523,2370001051862,新規,0,2024-10-25,2024-10-25,野暮れ山暮れ株式会社,,株式会社,宮城県,仙台市太白区,青山２丁目１１番１１号,,04,104,9820834,,,,,,,2024-10-25,1,,,,,ノクレヤマクレ,0
537,2430001092941,新規,0,2024-10-25,2024-10-25,ホクトクリーンサービス株式会社,,株式会社,北海道,札幌市東区,北四十一条東５丁目２－１４,,01,103,0070841,,,,,,,2024-10-25,1,,,,,ホクトクリーンサービス,0
550,2500005008738,新規,0,2024-10-25,2024-10-25,一般社団法人中村太一,,その他の設立登記法人,愛媛県,松山市,正岡神田甲１６５番地,,38,201,7992421,,,,,,,2024-10-25,1,,,,,ナカムラタイチ,0
552,2700150127603,新規,0,2024-10-25,2024-10-25,市町村対抗福岡駅伝実行委員会,,その他,福岡県,福岡市博多区,東公園７番７号,,40,132,8120045,,,,,,,2024-10-25,1,,,,,シチョウソンタイコウフクオカエキデンジッコウイインカイ,0
560,3010001249310,新規,0,2024-10-25,2024-10-25,株式会社ツキ組,,株式会社,東京都,千代田区,六番町１３番地,,13,101,1020085,,,,,,,2024-10-25,1,,,,,ツキグミ,0
564,3010003045278,新規,0,2024-10-25,2024-10-25,Ｃｌａｒｅ合同会社,,合同会社,東京都,千代田区,神田和泉町１番地６－１６ヤマトビル４０５,,13,101,1010024,,,,,,,2024-10-25,1,,,,,クレア,0
567,3010101016379,新規,0,2024-10-25,2024-10-25,アイテック株式会社,,株式会社,東京都,八王子市,打越町３４４番地４北野シティプラザ３０２,,13,201,1920911,,,,,,,2024-10-25,1,,,,,アイテック,0
574,3010401185915,新規,0,2024-10-25,2024-10-25,株式会社ＢＥＡＵＴＩＣＲＩＰＴＩＯＮ,,株式会社,東京都,港区,南青山４丁目１番１－４０２号セントラル第二青山,,13,103,1070062,,,,,,,2024-10-25,1,,,,,ビューティクリプション,0
575,3010401185980,新規,0,2024-10-25,2024-10-25,株式会社東九良安,,株式会社,東京都,港区,芝浦２丁目７番１１－２６０３号,,13,103,1080023,,,,,,,2024-10-25,1,,,,,トウキュウリョウアン,0
580,3010403033626,新規,0,2024-10-25,2024-10-25,札幌マネジメント合同会社,,合同会社,東京都,港区,六本木１丁目６番１号泉ガーデンタワー,,13,103,1060032,,,,,,,2024-10-25,1,,,,,サッポロマネジメント,0
581,3010403033667,新規,0,2024-10-25,2024-10-25,合同会社ＧＭ２,,合同会社,東京都,港区,海岸３丁目９番１０－１００５号,,13,103,1080022,,,,,,,2024-10-25,1,,,,,ジーエムツー,0
588,3010603011167,新規,0,2024-10-25,2024-10-25,合同会社ｃｏｒｅ,,合同会社,東京都,江東区,豊洲３丁目４番２－４１０４号,,13,108,1350061,,,,,,,2024-10-25,1,,,,,コア,0
592,3010805003136,新規,0,2024-10-25,2024-10-25,一般社団法人キャリアアップ教育機構,,その他の設立登記法人,東京都,大田区,南千束３丁目１８番１３号桜プレイス大岡山４０１,,13,111,1450063,,,,,,,2024-10-25,1,,,,,キャリアアップキョウイクキコウ,0
603,3011001165365,新規,0,2024-10-25,2024-10-25,株式会社クライアンド,,株式会社,東京都,渋谷区,道玄坂１丁目１０番８号渋谷道玄坂東急ビル２Ｆ－Ｃ,,13,113,1500043,,,,,,,2024-10-25,1,,,,,クライアンド,0
604,3011001165431,新規,0,2024-10-25,2024-10-25,株式会社ＲＡＮＧＥＲ,,株式会社,東京都,渋谷区,恵比寿西２丁目８番４号ＥＸ恵比寿西ビル５階,,13,113,1500021,,,,,,,2024-10-25,1,,,,,レンジャー,0
605,3011005010732,新規,0,2024-10-25,2024-10-25,一般社団法人ヲタ芸協会,,その他の設立登記法人,東京都,渋谷区,神宮前６丁目２３番４号桑野ビル２階,,13,113,1500001,,,,,,,2024-10-25,1,,,,,オタゲイキョウカイ,0
609,3011101109247,新規,0,2024-10-25,2024-10-25,サンパシフィック株式会社,,株式会社,東京都,新宿区,市谷仲之町２番３－２０４号,,13,104,1620064,,,,,,,2024-10-25,1,,,,,サンパシフィック,0
611,3011103015071,新規,0,2024-10-25,2024-10-25,合同会社おひさま,,合同会社,東京都,新宿区,新宿５丁目１７－６新宿三光町ハイム一階,,13,104,1600022,,,,,,,2024-10-25,1,,,,,オヒサマ,0
612,3011103015121,新規,0,2024-10-25,2024-10-25,合同会社ＫＳ,,合同会社,東京都,新宿区,富久町１５番１－４２０９号,,13,104,1620067,,,,,,,2024-10-25,1,,,,,ケーエス,0
614,3011303005327,新規,0,2024-10-25,2024-10-25,合同会社朝歌,,合同会社,東京都,杉並区,高円寺北２丁目３番４号レインボースクエアビル,,13,115,1660002,,,,,,,2024-10-25,1,,,,,アサウタ,0
615,3011401026530,新規,0,2024-10-25,2024-10-25,心承株式会社,,株式会社,東京都,板橋区,南常盤台１丁目２２－９－４０５号,,13,119,1740072,,,,,,,2024-10-25,1,,,,,シンショウ,0
617,3011501031298,新規,0,2024-10-25,2024-10-25,株式会社Ｍｏｏｄｉｆｙ,,株式会社,東京都,荒川区,西日暮里２丁目１４番７号オープンレジデンシア日暮里９０１号室,,13,118,1160013,,,,,,,2024-10-25,1,,,,,ムーディファイ,0
626,3011701027757,新規,0,2024-10-25,2024-10-25,株式会社Ｌｉｆｅ　Ｓｕｐｐｏｒｔ,,株式会社,東京都,江戸川区,西葛西３丁目２２－１０ＪｕｓｔＯｆｆｉｃｅＮｉｓｈｉｋａｓａｉ４０４,,13,123,1340088,,,,,,,2024-10-25,1,,,,,ライフサポート,0
627,3011801045031,新規,0,2024-10-25,2024-10-25,ｅ‐Ｔｅｃｈ株式会社,,株式会社,東京都,葛飾区,亀有４丁目３１番１８号ケイハイツ１、３０３号,,13,122,1250061,,,,,,,2024-10-25,1,,,,,イーテック,0
645,3020003027102,新規,0,2024-10-25,2024-10-25,合同会社ＫＭＳ,,合同会社,神奈川県,横浜市磯子区,新杉田町三丁目５番地ライオンズマンション新杉田１０５号室,,14,107,2350032,,,,,,,2024-10-25,1,,,,,ケイエムエス,0
646,3020003027119,新規,0,2024-10-25,2024-10-25,Ｉｎ　ｍｙ　ａｒｍｓ合同会社,,合同会社,神奈川県,横浜市神奈川区,金港町５－１４クアドリフォリオ８階,,14,102,2210056,,,,,,,2024-10-25,1,,,,,インマイアームズ,0
651,3021001083608,新規,0,2024-10-25,2024-10-25,株式会社ばんぶう,,株式会社,神奈川県,横須賀市,根岸町５丁目１９番３２号,,14,201,2390807,,,,,,,2024-10-25,1,,,,,バンブウ,0
664,3040001135929,新規,0,2024-10-25,2024-10-25,株式会社Ｓｐｉｎｉｓｈ,,株式会社,千葉県,成田市,公津の杜４丁目１番地２（Ｃ棟６１１号）,,12,211,2860048,,,,,,,2024-10-25,1,,,,,スピニッシュ,0
665,3040001135945,新規,0,2024-10-25,2024-10-25,株式会社若鋼業,,株式会社,千葉県,我孫子市,我孫子２丁目１番２２６号グラン・レジデンス,,12,222,2701166,,,,,,,2024-10-25,1,,,,,ワカコウギョウ,0
668,3040003026052,新規,0,2024-10-25,2024-10-25,合同会社ｃｒｅａｔｉｏｎ,,合同会社,千葉県,千葉市中央区,村田町１１７９モンシェリーみずきＩＩ－２０２,00136747,12,101,2600825,,,,,,,2024-10-25,1,,,,,クリエイション,0
669,3040003026060,新規,0,2024-10-25,2024-10-25,合同会社Ｇｌｏｂａｌ　Ｔｒｕｃｋ　Ｅｘｐｏｒｔｓ,,合同会社,千葉県,千葉市中央区,富士見２丁目７番９号富士見ビル６０９号,,12,101,2600015,,,,,,,2024-10-25,1,,,,,グローバルトラックエキスポート,0
670,3040003026069,新規,0,2024-10-25,2024-10-25,合同会社Ｂｒｏｗ　Ｗｅｌｌ,,合同会社,千葉県,流山市,大字鰭ケ崎１３６４番地の４,,12,220,2700161,,,,,,,2024-10-25,1,,,,,ブロウウェル,0
672,3050001055548,新規,0,2024-10-25,2024-10-25,株式会社ＮＯＺＯＭＩ,,株式会社,茨城県,筑西市,藤ケ谷１７６６番地５１,,08,227,3080112,,,,,,,2024-10-25,1,,,,,ノゾミ,0
673,3050001055589,新規,0,2024-10-25,2024-10-25,けやきサービス株式会社,,株式会社,茨城県,坂東市,幸田７９４番地４,,08,228,3060606,,,,,,,2024-10-25,1,,,,,ケヤキサービス,0
679,3060001037603,新規,0,2024-10-25,2024-10-25,株式会社ＦａｍｅＡｇｌｅ,,株式会社,栃木県,佐野市,出流原町２３３番地２,,09,204,3270102,,,,,,,2024-10-25,1,,,,,フェイムエーグル,0
692,3100001037953,新規,0,2024-10-25,2024-10-25,株式会社Ｂｏｌｄ,,株式会社,長野県,長野市,大字稲葉１０９０番地１ヴィラアプリコットＡ,,20,201,3800911,,,,,,,2024-10-25,1,,,,,,0
695,3100003007830,新規,0,2024-10-25,2024-10-25,合同会社ＨａｎｄＳｈａｋｅ,,合同会社,長野県,小諸市,大字御影新田２４２１番地２２,,20,208,3840808,,,,,,,2024-10-25,1,,,,,ハンドシェイク,0
698,3110003005560,新規,0,2024-10-25,2024-10-25,合同会社Ｃａｒ　Ｇｏ,,合同会社,新潟県,新潟市中央区,紫竹山７丁目４番５号メゾネットみなみＢ棟３号,,15,103,9500914,,,,,,,2024-10-25,1,,,,,カーゴー,0
706,3120001269685,新規,0,2024-10-25,2024-10-25,株式会社ＣＥｄｇｅ,,株式会社,大阪府,大阪市中央区,玉造１丁目２４－２２－２０５,,27,128,5400004,,,,,,,2024-10-25,1,,,,,シーエッジ,0
707,3120001269693,新規,0,2024-10-25,2024-10-25,株式会社シカテック,,株式会社,大阪府,寝屋川市,香里新町５－４丸菱第２ビル３階,,27,215,5720085,,,,,,,2024-10-25,1,,,,,シカテック,0
712,3120003027835,新規,0,2024-10-25,2024-10-25,ＹＭＩコンサルティング合同会社,,合同会社,大阪府,大阪市中央区,南船場３丁目２番２２号おおきに南船場ビル２０５,,27,128,5420081,,,,,,,2024-10-25,1,,,,,ワイエムアイコンサルティング,0
716,3120103006103,新規,0,2024-10-25,2024-10-25,合同会社あさたけ,,合同会社,大阪府,堺市北区,大豆塚町２丁７９番地５７,00136768,27,146,5918042,,,,,,,2024-10-25,1,,,,,アサタケ,0
721,3120903005394,新規,0,2024-10-25,2024-10-25,大安合同会社,,合同会社,大阪府,吹田市,片山町１丁目１－６０３,,27,205,5640082,,,,,,,2024-10-25,1,,,,,ダイアン,0
724,3130001078185,新規,0,2024-10-25,2024-10-25,株式会社マイボク,,株式会社,京都府,舞鶴市,桃山町７番地１１,,26,202,6250060,,,,,,,2024-10-25,1,,,,,マイボク,0
725,3130001078227,新規,0,2024-10-25,2024-10-25,株式会社Ｍｕｒｏｊｉ‐ｆａｒｍ,,株式会社,京都府,舞鶴市,字室牛１１５番地の１,,26,202,6250143,,,,,,,2024-10-25,1,,,,,ムロジファーム,0
726,3130001078235,新規,0,2024-10-25,2024-10-25,株式会社たけ工務,,株式会社,京都府,長岡京市,高台４丁目５番地２,,26,209,6170847,,,,,,,2024-10-25,1,,,,,タケコウム,0
740,3180001163783,新規,0,2024-10-25,2024-10-25,株式会社石川建設,,株式会社,愛知県,名古屋市北区,上飯田北町１丁目８１‐１Ｓ‐Ｒｅｓｉｄｅｎｃｅ上飯田Ｎｏｒｔｈ１４０３,,23,103,4620802,,,,,,,2024-10-25,1,,,,,イシカワケンセツ,0
741,3180001163825,新規,0,2024-10-25,2024-10-25,株式会社ＴＫ　ＡＵＴＯ　ＪＡＰＡＮ,,株式会社,愛知県,名古屋市守山区,森孝東２丁目７０３番地４－５０１,,23,113,4630033,,,,,,,2024-10-25,1,,,,,ティーケーオートジャパン,0
748,3200001043074,新規,0,2024-10-25,2024-10-25,株式会社Ｌｅｏｎ,,株式会社,岐阜県,高山市,花里町６丁目１０２番地,,21,203,5060026,,,,,,,2024-10-25,1,,,,,レオン,0
750,3200003006558,新規,0,2024-10-25,2024-10-25,エスエル２Ｆ合同会社,,合同会社,岐阜県,多治見市,田代町１丁目７０番地ソフィア多治見ステーションタワー１３０５,,21,204,5070036,,,,,,,2024-10-25,1,,,,,エスエルツーエフ,0
754,3220003003867,新規,0,2024-10-25,2024-10-25,合同会社ＥＣＬＡＥＴＥ,,合同会社,石川県,金沢市,木越１丁目３４２番地,,17,201,9200202,,,,,,,2024-10-25,1,,,,,エクレート,0
755,3230005009416,新規,0,2024-10-25,2024-10-25,一般社団法人ウェルビーイングひだまりサロン,,その他の設立登記法人,富山県,高岡市,佐野８４５番地１,,16,202,9330826,,,,,,,2024-10-25,1,,,,,ウェルビーイングヒダマリサロン,0
759,3240001063985,新規,0,2024-10-25,2024-10-25,株式会社Ｈｅｒｂａｌ　Ｓｔｙｌｅ,,株式会社,広島県,福山市,沼隈町大字下山南８２５番地,,34,207,7200403,,,,,,,2024-10-25,1,,,,,ハーバルスタイル,0
760,3240001063993,新規,0,2024-10-25,2024-10-25,株式会社沖中建装,,株式会社,広島県,廿日市市,宮内４３２４番地２,,34,213,7380034,,,,,,,2024-10-25,1,,,,,オキナカケンソウ,0
765,3240005015850,新規,0,2024-10-25,2024-10-25,一般社団法人スターベルズ,,その他の設立登記法人,広島県,東広島市,鏡山２丁目３１３広島大学ベンチャー・ビジネス・ラボラトリー,,34,212,7390046,,,,,,,2024-10-25,1,,,,,スターベルズ,0
771,3270001009077,新規,0,2024-10-25,2024-10-25,株式会社ｒｅｇｉｎｅｌｌ,,株式会社,鳥取県,米子市,日野町１６１番地,,31,202,6830066,,,,,,,2024-10-25,1,,,,,レジネル,0
777,3290001107754,新規,0,2024-10-25,2024-10-25,彩ｌｅａｄ株式会社,,株式会社,福岡県,福岡市中央区,天神２丁目２番１２号Ｔ＆Ｊビルディング７Ｆ,,40,133,8100001,,,,,,,2024-10-25,1,,,,,イロドリード,0
778,3290001107770,新規,0,2024-10-25,2024-10-25,Ｏｎｅｓｓ株式会社,,株式会社,福岡県,大野城市,紫台２８番７号,,40,219,8160954,,,,,,,2024-10-25,1,,,,,ワンス,0
787,3330001032568,新規,0,2024-10-25,2024-10-25,株式会社Ｂｅ　Ｐｌａｃｅ,,株式会社,熊本県,玉名市,中１２８０番地１プレミアコートＩ棟２０３号,,43,206,8650064,,,,,,,2024-10-25,1,,,,,ビープレイス,0
790,3360001034363,新規,0,2024-10-25,2024-10-25,株式会社ＤｉｇｉＥ,,株式会社,沖縄県,糸満市,潮崎町３丁目２４－３,,47,210,9010364,,,,,,,2024-10-25,1,,,,,デジー,0
791,3360003014405,新規,0,2024-10-25,2024-10-25,ＯｋｉＥＶ合同会社,,合同会社,沖縄県,宜野湾市,大山１丁目１４番２３－６０４号ミルコマンション宜野湾大山ビュー,,47,205,9012223,,,,,,,2024-10-25,1,,,,,,0
792,3360003014421,新規,0,2024-10-25,2024-10-25,リッツマインドヴィジョン合同会社,,合同会社,沖縄県,糸満市,字北波平９６番地,,47,210,9010312,,,,,,,2024-10-25,1,,,,,リッツマインドヴィジョン,0
793,3370001051853,新規,0,2024-10-25,2024-10-25,株式会社藝宸商事,,株式会社,宮城県,仙台市青葉区,上愛子字平治３１番地の３５,,04,101,9893124,,,,,,,2024-10-25,1,,,,,イジンショウジ,0
800,3400001016836,新規,0,2024-10-25,2024-10-25,株式会社三陸宝物開発,,株式会社,岩手県,宮古市,宮町３丁目１０番２０号,,03,202,0270052,,,,,,,2024-10-25,1,,,,,サンリクタカラモノカイハツ,0
809,3430001092932,新規,0,2024-10-25,2024-10-25,株式会社トリプレッツ,,株式会社,北海道,札幌市白石区,本通８丁目北１番８－２０５号,,01,104,0030027,,,,,,,2024-10-25,1,,,,,トリプレッツ,0
810,3430001092940,新規,0,2024-10-25,2024-10-25,株式会社ｇｎｏｍｅｓ,,株式会社,北海道,札幌市豊平区,豊平四条８丁目１番２１号,,01,105,0620904,,,,,,,2024-10-25,1,,,,,ノーム,0
812,3430003016922,新規,0,2024-10-25,2024-10-25,ＨＩ　ＨＡＲＵ合同会社,,合同会社,北海道,札幌市中央区,南十条西６丁目１番２１号,,01,101,0640810,,,,,,,2024-10-25,1,,,,,ハイハル,0
813,3440001009514,新規,0,2024-10-25,2024-10-25,株式会社下河設備,,株式会社,北海道,函館市,高丘町１０番６号,,01,202,0420955,,,,,,,2024-10-25,1,,,,,シモカワセツビ,0
820,3500001025959,新規,0,2024-10-25,2024-10-25,Ｊネットレンタカー愛媛株式会社,,株式会社,愛媛県,松山市,来住町１３４９番地７,,38,201,7911102,,,,,,,2024-10-25,1,,,,,ジェイネットレンタカーエヒメ,0
822,3700150127593,新規,0,2024-10-25,2024-10-25,麻布パークハウスマンション建替組合,,その他,東京都,中央区,日本橋蛎殻町１丁目３０番５号,,13,102,1030014,,,,,,,2024-10-25,1,,,,,アザブパークハウスマンシヨンタテカエクミアイ,0
830,4010001249243,新規,0,2024-10-25,2024-10-25,株式会社ＴＡＫＥＢＡＳＨＩ　ｅｎｔｅｒｐｒｉｓｅ,,株式会社,東京都,千代田区,神田錦町１丁目１４番地１１,,13,101,1010054,,,,,,,2024-10-25,1,,,,,タケバシエンタープライズ,0
831,4010001249334,新規,0,2024-10-25,2024-10-25,東日株式会社,,株式会社,東京都,千代田区,紀尾井町４番１号ニューオータニガーデンコート２８階,,13,101,1020094,,,,,,,2024-10-25,1,,,,,トウニチ,0
832,4010001249367,新規,0,2024-10-25,2024-10-25,株式会社ＭＥＤＩＰＯＲＴ,,株式会社,東京都,中央区,銀座１丁目２２番１１号,,13,102,1040061,,,,,,,2024-10-25,1,,,,,メディポート,0
852,4010401185939,新規,0,2024-10-25,2024-10-25,Ｈｉｋａｒｉ　Ｃｏｒｐｏｒａｔｉｏｎ株式会社,,株式会社,東京都,港区,芝２丁目１０番６号ＥＡＲＴＨＳＨＩＢＡＢＬＤ．３Ｆ,,13,103,1050014,,,,,,,2024-10-25,1,,,,,ヒカリコーポレーション,0
853,4010401185947,新規,0,2024-10-25,2024-10-25,株式会社クリニックＴＶ,,株式会社,東京都,港区,赤坂４丁目１５番１号,,13,103,1070052,,,,,,,2024-10-25,1,,,,,クリニックティービー,0
855,4010403033625,新規,0,2024-10-25,2024-10-25,札幌インベストメンツ合同会社,,合同会社,東京都,港区,六本木１丁目６番１号泉ガーデンタワー,,13,103,1060032,,,,,,,2024-10-25,1,,,,,サッポロインベストメンツ,0
861,4010405023723,新規,0,2024-10-25,2024-10-25,一般社団法人ＭＥＴＫＩＤＳ,,その他の設立登記法人,東京都,港区,虎ノ門４丁目１番２０－６０２号,,13,103,1050001,,,,,,,2024-10-25,1,,,,,メトキッズ,0
862,4010501053070,新規,0,2024-10-25,2024-10-25,千和株式会社,,株式会社,東京都,台東区,浅草橋２丁目１７番９号７０３号,,13,106,1110053,,,,,,,2024-10-25,1,,,,,チワ,0
863,4010503007611,新規,0,2024-10-25,2024-10-25,ＴＫ　Ｍｅｄｉｃａｌ合同会社,,合同会社,東京都,台東区,上野６丁目１番６号御徒町グリーンハイツ１００５号,,13,106,1100005,,,,,,,2024-10-25,1,,,,,ティーケーメディカル,0
865,4010601066162,新規,0,2024-10-25,2024-10-25,株式会社ＨｏｎｅｙＢｅａｒ,,株式会社,東京都,江東区,大島４丁目８番１１号グランカーサ大島１００１,,13,108,1360072,,,,,,,2024-10-25,1,,,,,ハニーベア,0
883,4011001165307,新規,0,2024-10-25,2024-10-25,ホワイト管理株式会社,,株式会社,東京都,渋谷区,神宮前３丁目２０番３号,,13,113,1500001,,,,,,,2024-10-25,1,,,,,ホワイトカンリ,0
884,4011001165356,新規,0,2024-10-25,2024-10-25,株式会社ｕｐｎｏｗ,,株式会社,東京都,渋谷区,神宮前６丁目２３番４号桑野ビル２階,,13,113,1500001,,,,,,,2024-10-25,1,,,,,アップナウ,0
889,4011101109171,新規,0,2024-10-25,2024-10-25,株式会社Ｅｎｌｉｅｎ,,株式会社,東京都,新宿区,新宿２丁目１２－１３新宿アントレサロンビル２階,,13,104,1600022,,,,,,,2024-10-25,1,,,,,エンリアン,0
890,4011203004502,新規,0,2024-10-25,2024-10-25,合同会社ＳＬ,,合同会社,東京都,中野区,弥生町２丁目２９番８－３０２号,,13,114,1640013,,,,,,,2024-10-25,1,,,,,エスエル,0
892,4011301030103,新規,0,2024-10-25,2024-10-25,株式会社ＩＥＣ,,株式会社,東京都,杉並区,高円寺南１丁目６番５号２０４,,13,115,1660003,,,,,,,2024-10-25,1,,,,,アイイーシー,0
898,4012403006809,新規,0,2024-10-25,2024-10-25,合同会社ＴＥＣＴ,,合同会社,東京都,府中市,白糸台１丁目４４－５２,,13,206,1830011,,,,,,,2024-10-25,1,,,,,テクト,0
901,4012801023521,新規,0,2024-10-25,2024-10-25,株式会社ｍ．ｗｏｒｋｓ,,株式会社,東京都,日野市,南平６丁目１０番地の８エルムコート２１１,,13,212,1910041,,,,,,,2024-10-25,1,,,,,エムワークス,0
914,4021001083598,新規,0,2024-10-25,2024-10-25,株式会社大成,,株式会社,神奈川県,平塚市,根坂間３６３番地の１－６０４号,,14,203,2540904,,,,,,,2024-10-25,1,,,,,タイセイ,0
920,4030003025368,新規,0,2024-10-25,2024-10-25,ＬＥＥ　ＳＹ合同会社,,合同会社,埼玉県,飯能市,本町１９番２号ＫＩＶ－Ｗｅｌｆａｒｅ会館飯能１０号室,,11,209,3570032,,,,,,,2024-10-25,1,,,,,リーシー,0
927,4040001135754,新規,0,2024-10-25,2024-10-25,レキオスブリッジ株式会社,,株式会社,千葉県,佐倉市,上志津１８２２－６８,,12,212,2850846,,,,,,,2024-10-25,1,,,,,レキオスブリッジ,0
928,4040001135928,新規,0,2024-10-25,2024-10-25,株式会社祈ホーム,,株式会社,千葉県,習志野市,藤崎４丁目２１－２７－１０１,,12,216,2750017,,,,,,,2024-10-25,1,,,,,イノリホーム,0
931,4040003026035,新規,0,2024-10-25,2024-10-25,合同会社Ｎａｄｅｌｉ,,合同会社,千葉県,千葉市若葉区,みつわ台５丁目２５番１２号セイザンミツワ１０２号,,12,104,2640032,,,,,,,2024-10-25,1,,,,,ナデリ,0
932,4040003026068,新規,0,2024-10-25,2024-10-25,合同会社アトリエメイクアップ,,合同会社,千葉県,千葉市花見川区,花見川６－１５－５０１,,12,102,2620046,,,,,,,2024-10-25,1,,,,,アトリエメイクアップ,0
935,4050001055596,新規,0,2024-10-25,2024-10-25,Ｓｈａｗａｌ　Ｔｒａｄｉｎｇ株式会社,,株式会社,茨城県,桜川市,真壁町椎尾１６３９番地１,,08,231,3004414,,,,,,,2024-10-25,1,,,,,シャワルトレイディング,0
936,4050003008767,新規,0,2024-10-25,2024-10-25,ａｘｏｎ　ｔｅｃｈｎｏｌｏｇｉｅｓ合同会社,,合同会社,茨城県,取手市,戸頭２８２番地１,,08,217,3020034,,,,,,,2024-10-25,1,,,,,アクソンテクノロジーズ,0
948,4080101025091,新規,0,2024-10-25,2024-10-25,グルカ人材派遣株式会社,,株式会社,静岡県,伊東市,八幡野１３５５番地の４１,,22,208,4130232,,,,,,,2024-10-25,1,,,,,グルカジンザイハケン,0
962,4100001037952,新規,0,2024-10-25,2024-10-25,株式会社アイティオークリエイト,,株式会社,長野県,塩尻市,大字広丘堅石１１９０番地２,,20,215,3990705,,,,,,,2024-10-25,1,,,,,アイティオークリエイト,0
964,4100003007821,新規,0,2024-10-25,2024-10-25,王滝戦略合同会社,,合同会社,長野県,木曽郡王滝村,３１５２－１,,20,429,3970201,,,,,,,2024-10-25,1,,,,,オウタキセンリャク,0
971,4120001269478,新規,0,2024-10-25,2024-10-25,株式会社ヴィクトリー,,株式会社,大阪府,門真市,三ツ島５丁目１３番３号,,27,223,5710015,,,,,,,2024-10-25,1,,,,,ヴィクトリー,0
972,4120001269643,新規,0,2024-10-25,2024-10-25,北海道広納株式会社,,株式会社,大阪府,大阪市中央区,島之内１丁目４番２８号,,27,128,5420082,,,,,,,2024-10-25,1,,,,,ホッカイドウコウノウ,0
973,4120001269668,新規,0,2024-10-25,2024-10-25,和風緑洲株式会社,,株式会社,大阪府,大阪市浪速区,幸町２丁目２番２４－４０３号,,27,111,5560021,,,,,,,2024-10-25,1,,,,,ワフウリョクシュウ,0
974,4120001269692,新規,0,2024-10-25,2024-10-25,株式会社クレストフィード,,株式会社,大阪府,大阪市西区,北堀江１丁目１番２３号四ツ橋養田ビル５Ｂ,,27,106,5500014,,,,,,,2024-10-25,1,,,,,クレストフィード,0
975,4120001269701,新規,0,2024-10-25,2024-10-25,株式会社アーチネクサス,,株式会社,大阪府,大阪市東住吉区,山坂５丁目１４番７－１００３号,,27,121,5460035,,,,,,,2024-10-25,1,,,,,アーチネクサス,0
976,4120001269742,新規,0,2024-10-25,2024-10-25,大澤株式会社,,株式会社,大阪府,大阪市西成区,南津守７丁目４番５２－２０１号,,27,122,5570063,,,,,,,2024-10-25,1,,,,,オオサワ,0
981,4130001078201,新規,0,2024-10-25,2024-10-25,株式会社オン,,株式会社,京都府,京都市伏見区,深草開土口町１番地２,,26,109,6120805,,,,,,,2024-10-25,1,,,,,オン,0
984,4140001136180,新規,0,2024-10-25,2024-10-25,株式会社Ｇ‐ＰＲＩＭＥ,,株式会社,兵庫県,姫路市,豊富町豊富８７４番地１,,28,201,6792123,,,,,,,2024-10-25,1,,,,,ジープライム,0
985,4140001136214,新規,0,2024-10-25,2024-10-25,株式会社先端化学研究所,,株式会社,兵庫県,神戸市中央区,海岸通３番地シップ神戸海岸ビル９階,,28,110,6500024,,,,,,,2024-10-25,1,,,,,センタンカガクケンキュウショ,0
986,4140001136239,新規,0,2024-10-25,2024-10-25,神戸珈琲株式会社,,株式会社,兵庫県,神戸市長田区,上池田６丁目８番２３号,,28,106,6530827,,,,,,,2024-10-25,1,,,,,コウベコーヒー,0
990,4140003021240,新規,0,2024-10-25,2024-10-25,合同会社どりーむ,,合同会社,兵庫県,加古川市,野口町北野６５番地の６,,28,210,6750011,,,,,,,2024-10-25,1,,,,,ドリーム,0
992,4160001026306,新規,0,2024-10-25,2024-10-25,株式会社秀惠,,株式会社,滋賀県,長浜市,内保町７５８番地４－２Ｆ,,25,203,5260244,,,,,,,2024-10-25,1,,,,,,0
997,4180001163808,新規,0,2024-10-25,2024-10-25,株式会社エフマリン,,株式会社,愛知県,名古屋市天白区,植田１丁目８０６番地の３,,23,116,4680051,,,,,,,2024-10-25,1,,,,,エフマリン,0
1002,4180003027382,新規,0,2024-10-25,2024-10-25,合同会社ＹＡＭＡＫＩ,,合同会社,愛知県,小牧市,新町２丁目３８番地１,,23,219,4850013,,,,,,,2024-10-25,1,,,,,ヤマキ,0
1007,4220003003866,新規,0,2024-10-25,2024-10-25,ＳＵＮ‐ＨＩ電機合同会社,,合同会社,石川県,金沢市,松村３丁目２８８番地,,17,201,9200348,,,,,,,2024-10-25,1,,,,,サンハイデンキ,0
1008,4230003002322,新規,0,2024-10-25,2024-10-25,寺西アカウント合同会社,,合同会社,富山県,砺波市,一番町二丁目２２番タカノスビル４階,,16,208,9391373,,,,,,,2024-10-25,1,,,,,テラニシアカウント,0
1019,4260003004943,新規,0,2024-10-25,2024-10-25,合同会社Ｋ‐ＦＩＥＬＤｓ,,合同会社,岡山県,倉敷市,玉島長尾５０番地８シーダーヒルＣ－１,,33,202,7100251,,,,,,,2024-10-25,1,,,,,ケイフィールズ,0
1024,4290001107712,新規,0,2024-10-25,2024-10-25,株式会社大小文化,,株式会社,福岡県,福岡市南区,横手２丁目３３番２９号コーポラス井尻Ｂ２０５号室,,40,134,8111311,,,,,,,2024-10-25,1,,,,,ダイショウブンカ,0
1025,4290001107720,新規,0,2024-10-25,2024-10-25,株式会社Ｓｙｎｃｂｉｚ,,株式会社,福岡県,福岡市中央区,天神２丁目２番１２号Ｔ＆Ｊビルディング７Ｆ,,40,133,8100001,,,,,,,2024-10-25,1,,,,,シンクビズ,0
1026,4290001107729,新規,0,2024-10-25,2024-10-25,株式会社Ｗｈｉｔｅ‐５,,株式会社,福岡県,久留米市,国分町７１９番地１,,40,203,8390863,,,,,,,2024-10-25,1,,,,,ホワイトファイブ,0
1027,4290001107737,新規,0,2024-10-25,2024-10-25,株式会社矢羽田,,株式会社,福岡県,福岡市博多区,空港前４丁目１番３０号,,40,132,8120002,,,,,,,2024-10-25,1,,,,,ヤハタ,0
1028,4290001107761,新規,0,2024-10-25,2024-10-25,株式会社ＳＴＫロジスティクス,,株式会社,福岡県,糸島市,泊９９４番地１,,40,230,8191111,,,,,,,2024-10-25,1,,,,,エスティーケーロジスティクス,0
1031,4290003015970,新規,0,2024-10-25,2024-10-25,ｃｒｅｓａｔｈ合同会社,,合同会社,福岡県,太宰府市,青山２丁目２１－１５,,40,221,8180121,,,,,,,2024-10-25,1,,,,,クレサス,0
1032,4290005019516,新規,0,2024-10-25,2024-10-25,ＮＰＯ法人ｎｅｚｕｋｕ,,その他の設立登記法人,福岡県,大牟田市,本町５丁目５番地１５,,40,202,8360046,,,,,,,2024-10-25,1,,,,,ネヅク,0
1039,4320001020779,新規,0,2024-10-25,2024-10-25,株式会社Ｂ．Ｌ．Ｔ．,,株式会社,大分県,豊後大野市,三重町赤嶺９８７番地,,44,212,8797111,,,,,,,2024-10-25,1,,,,,ビーエルティ,0
1043,4350001019232,新規,0,2024-10-25,2024-10-25,株式会社曽山養豚,,株式会社,宮崎県,西諸県郡高原町,大字西麓１３０番地３,,45,361,8894412,,,,,,,2024-10-25,1,,,,,ソヤマヨウトン,0
1045,4360001034362,新規,0,2024-10-25,2024-10-25,株式会社テン,,株式会社,沖縄県,那覇市,辻２丁目１１番３号,00136746,47,201,9000037,,,,,,,2024-10-25,1,,,,,テン,0
1046,4360003014412,新規,0,2024-10-25,2024-10-25,のすけ合同会社,,合同会社,沖縄県,名護市,大中１丁目５番地１号具志堅ビル１０２号室,,47,209,9050017,,,,,,,2024-10-25,1,,,,,ノスケ,0
1047,4360005007125,新規,0,2024-10-25,2024-10-25,一般社団法人ベースボール沖縄,,その他の設立登記法人,沖縄県,南城市,玉城字糸数４９５－３,,47,215,9010606,,,,,,,2024-10-25,1,,,,,ベースボールオキナワ,0
1051,4370001051852,新規,0,2024-10-25,2024-10-25,株式会社チャムエンタープライズ,,株式会社,宮城県,岩沼市,桜３丁目１０番５１号ベルパークＩＩ２０２号,00136751,04,211,9892433,,,,,,,2024-10-25,1,,,,,チャムエンタープライズ,0
1071,4430001092923,新規,0,2024-10-25,2024-10-25,株式会社Ｕ‐ＴＲＡＤＩＮＧ,,株式会社,北海道,札幌市北区,東茨戸二条１丁目２５－３,,01,102,0028042,,,,,,,2024-10-25,1,,,,,ユートレーディング,0
1074,4430003016921,新規,0,2024-10-25,2024-10-25,３ＦＳＳＳ合同会社,,合同会社,北海道,札幌市中央区,南五条西１５丁目２－３－５０３,,01,101,0640805,,,,,,,2024-10-25,1,,,,,スリーエフスキーアンドスノーボードスクール,0
1092,5010001249069,新規,0,2024-10-25,2024-10-25,株式会社ＴＯＡＬＬ　ＪＡＰＡＮ,,株式会社,東京都,中央区,日本橋本石町４丁目２番６号神田ＧＭビルＢ１Ｆ,,13,102,1030021,,,,,,,2024-10-25,1,,,,,ツーオールジャパン,0
1093,5010001249275,新規,0,2024-10-25,2024-10-25,新星充電技術日本株式会社,,株式会社,東京都,千代田区,丸の内１丁目４番１号丸の内永楽ビル２６０５号室,,13,101,1000005,,,,,,,2024-10-25,1,,,,,シンセイジュウデンギジュツジャパン,0
1094,5010001249358,新規,0,2024-10-25,2024-10-25,智見株式会社,,株式会社,東京都,中央区,日本橋人形町２丁目１４番３号人形町ＡＣＴビル５階,,13,102,1030013,,,,,,,2024-10-25,1,,,,,トモミ,0
1105,5010401185954,新規,0,2024-10-25,2024-10-25,株式会社ＢｉｔＧｒｏｗ,,株式会社,東京都,港区,南青山２丁目２番１５号,,13,103,1070062,,,,,,,2024-10-25,1,,,,,ビットグロウ,0
1109,5010403033665,新規,0,2024-10-25,2024-10-25,バケーレン合同会社,,合同会社,東京都,港区,西麻布１丁目２番１３号デュオ・スカーラ西麻布タワーＣＥＮＴＲＡＬ２０１号室,,13,103,1060031,,,,,,,2024-10-25,1,,,,,バケーレン,0
1111,5010405023714,新規,0,2024-10-25,2024-10-25,一般社団法人みなと００３,,その他の設立登記法人,東京都,港区,虎ノ門３丁目２２番１０－２０１号,,13,103,1050001,,,,,,,2024-10-25,1,,,,,ミナトゼロゼロスリー,0
1113,5010503007602,新規,0,2024-10-25,2024-10-25,Ｕ合同会社,,合同会社,東京都,台東区,竜泉２丁目７番７号東京ビューマックス２００２,,13,106,1100012,,,,,,,2024-10-25,1,,,,,ユー,0
1117,5010603011173,新規,0,2024-10-25,2024-10-25,ＹＯＵ合同会社,,合同会社,東京都,江東区,大島４丁目１番３－８１７号,,13,108,1360072,,,,,,,2024-10-25,1,,,,,ワイオーユー,0
1119,5010701046740,新規,0,2024-10-25,2024-10-25,株式会社三四郎,,株式会社,東京都,品川区,西五反田５丁目５番２－７０２号,,13,109,1410031,,,,,,,2024-10-25,1,,,,,サンシロウ,0
1123,5010903009446,新規,0,2024-10-25,2024-10-25,ＫＵＲＯＧＯ合同会社,,合同会社,東京都,世田谷区,太子堂４丁目１８番１５号マガザン三軒茶屋２―３Ｆ―３,,13,112,1540004,,,,,,,2024-10-25,1,,,,,クロゴ,0
1135,5011101109253,新規,0,2024-10-25,2024-10-25,株式会社ＤＲＯＮＥ４７,,株式会社,東京都,新宿区,四谷１丁目８番１４号四谷一丁目ビル６階,,13,104,1600004,,,,,,,2024-10-25,1,,,,,ドローンフォーティーセブン,0
1136,5011101109286,新規,0,2024-10-25,2024-10-25,株式会社ＮＯＲＥＥ,,株式会社,東京都,新宿区,新宿１丁目９番１１号安藤ビル１階,,13,104,1600022,,,,,,,2024-10-25,1,,,,,ノア,0
1137,5011101109336,新規,0,2024-10-25,2024-10-25,株式会社ＭＭマテリアル,,株式会社,東京都,新宿区,西新宿１丁目２０番３号西新宿高木ビル９階,00136757,13,104,1600023,,,,,,,2024-10-25,1,,,,,エムエムマテリアル,0
1144,5011103015103,新規,0,2024-10-25,2024-10-25,合同会社Ｒｉｎｇｓ,,合同会社,東京都,新宿区,西新宿５丁目５番１－１３０２号,,13,104,1600023,,,,,,,2024-10-25,1,,,,,リングス,0
1152,5012401042417,新規,0,2024-10-25,2024-10-25,株式会社ＩＶＡＰ,,株式会社,東京都,府中市,武蔵台１丁目２番地の１,,13,206,1830042,,,,,,,2024-10-25,1,,,,,イヴァップ,0
1153,5012401042425,新規,0,2024-10-25,2024-10-25,株式会社ＡｄＬｉｎｋ,,株式会社,東京都,武蔵野市,吉祥寺本町１丁目３４番８号ザ・ロアハウス吉祥寺１０１,,13,203,1800004,,,,,,,2024-10-25,1,,,,,アドリンク,0
1157,5013301053280,新規,0,2024-10-25,2024-10-25,ｉＰｄ株式会社,,株式会社,東京都,豊島区,東池袋１丁目３６番１号第２Ｙ・Ｈビル４階,,13,116,1700013,,,,,,,2024-10-25,1,,,,,アイピーディー,0
1158,5013303007359,新規,0,2024-10-25,2024-10-25,合同会社６５Ｏ２Ｋ,,合同会社,東京都,豊島区,南大塚３丁目５５番１号,,13,116,1700005,,,,,,,2024-10-25,1,,,,,ロクジュウゴオオツカ,0
1159,5013305003645,新規,0,2024-10-25,2024-10-25,一般社団法人日本岳陽商会,,その他の設立登記法人,東京都,豊島区,西池袋１丁目３１－５白井ビル７階Ｂ号室,,13,116,1710021,,,,,,,2024-10-25,1,,,,,ニホンガクヨウショウカイ,0
1163,5020001159754,新規,0,2024-10-25,2024-10-25,株式会社ＭＹＭＯ,,株式会社,神奈川県,川崎市麻生区,王禅寺西７丁目１６番１６号,,14,137,2150017,,,,,,,2024-10-25,1,,,,,マイモ,0
1167,5020003027125,新規,0,2024-10-25,2024-10-25,Ｌ・Ｋ合同会社,,合同会社,神奈川県,横浜市中区,本牧満坂１８７番地１８９,,14,104,2310833,,,,,,,2024-10-25,1,,,,,エルケー,0
1176,5021001083548,新規,0,2024-10-25,2024-10-25,株式会社メディケアサポート,,株式会社,神奈川県,相模原市緑区,三ケ木字原替戸７８１番地１,,14,151,2520159,,,,,,,2024-10-25,1,,,,,メディケアサポート,0
1177,5021001083606,新規,0,2024-10-25,2024-10-25,株式会社ＳＨオーガニック,,株式会社,神奈川県,逗子市,新宿５丁目１番１０－４１５号,,14,208,2490007,,,,,,,2024-10-25,1,,,,,エスエイチオーガニック,0
1182,5021003015136,新規,0,2024-10-25,2024-10-25,ＩＳＩアセット合同会社,,合同会社,神奈川県,鎌倉市,雪ノ下２丁目４番３５号,,14,204,2480005,,,,,,,2024-10-25,1,,,,,アイエスアイアセット,0
1191,5030001163103,新規,0,2024-10-25,2024-10-25,株式会社ＭＩＩＭＯ,,株式会社,埼玉県,吉川市,高富２丁目１１番地９,,11,243,3420036,,,,,,,2024-10-25,1,,,,,ミーモ,0
1194,5030003025367,新規,0,2024-10-25,2024-10-25,ＫＵＭＡＲＡ　ＥＮＴＥＲＰＲＩＳＥＳ　ＪＡＰＡＮ合同会社,,合同会社,埼玉県,入間市,豊岡１丁目３番２５号半田ビル３階ＫＩＶオフィス入間Ｋ号室,,11,225,3580003,,,,,,,2024-10-25,1,,,,,クマラエンタープライズジャパン,0
1200,5040001135910,新規,0,2024-10-25,2024-10-25,Ｂｙ　ｍｅ株式会社,,株式会社,千葉県,習志野市,谷津１丁目１５番２２－３４０８号,,12,216,2750026,,,,,,,2024-10-25,1,,,,,バイミー,0
1201,5040001135919,新規,0,2024-10-25,2024-10-25,ＡＬＰＨＡ　ＭＯＴＯＲＳ株式会社,,株式会社,千葉県,野田市,木間ケ瀬４６７１番地３,,12,208,2700222,,,,,,,2024-10-25,1,,,,,アルファモータース,0
1202,5040001135927,新規,0,2024-10-25,2024-10-25,株式会社ｕｎｅｔｅ,,株式会社,千葉県,八千代市,勝田台南１丁目７番９号,,12,221,2760025,,,,,,,2024-10-25,1,,,,,アネテ,0
1203,5040001135943,新規,0,2024-10-25,2024-10-25,株式会社Ｌｉｖａｎｏ,,株式会社,千葉県,流山市,おおたかの森西１丁目４番地の３－７０１,,12,220,2700128,,,,,,,2024-10-25,1,,,,,リバノ,0
1207,5040003026059,新規,0,2024-10-25,2024-10-25,合同会社ＤＨＳ,,合同会社,千葉県,流山市,若葉台５８番地の５４,,12,220,2700123,,,,,,,2024-10-25,1,,,,,ディーエイチエス,0
1208,5040003026067,新規,0,2024-10-25,2024-10-25,Ａｃｅ　Ｐｏｃｋｅｔ合同会社,,合同会社,千葉県,千葉市美浜区,若葉３丁目１－１９幕張ベイパーククロスタワー１２０３号,,12,106,2610014,,,,,,,2024-10-25,1,,,,,エースポケット,0
1210,5050003008733,新規,0,2024-10-25,2024-10-25,Ｈｕｓｓａｉｎ　Ｅｎｔｅｒｐｒｉｓｅｓ合同会社,,合同会社,茨城県,稲敷市,神宮寺４３９番地サジャドマンション１０４,,08,229,3000622,,,,,,,2024-10-25,1,,,,,ハッサンエンタープライゼス,0
1211,5060001037601,新規,0,2024-10-25,2024-10-25,株式会社石塚機械電気,00136750,株式会社,栃木県,栃木市,旭町２７－１７,,09,203,3280035,,,,,,,2024-10-25,1,,,,,イシヅカキカイデンキ,0
1223,5080101025090,新規,0,2024-10-25,2024-10-25,三サステナ株式会社,,株式会社,静岡県,富士市,伝法２８６７番地の６,,22,210,4170061,,,,,,,2024-10-25,1,,,,,サンサステナ,0
1230,5100003007829,新規,0,2024-10-25,2024-10-25,ＭａＳ　Ｃｏｎｎｅｃｔ合同会社,,合同会社,長野県,松本市,並柳３丁目５－５－２,,20,202,3900825,,,,,,,2024-10-25,1,,,,,マスコネクト,0
1233,5110003005559,新規,0,2024-10-25,2024-10-25,合同会社エムワイプラン,,合同会社,新潟県,新潟市西区,五十嵐２の町８３５９番地９７,,15,107,9502102,,,,,,,2024-10-25,1,,,,,エムワイプラン,0
1237,5120001269691,新規,0,2024-10-25,2024-10-25,晟和洋堂株式会社,,株式会社,大阪府,大阪市中央区,島之内２丁目１５番１６号堺筋道頓堀グリーンコーポラス２０６号,,27,128,5420082,,,,,,,2024-10-25,1,,,,,セイワヨウドウ,0
1238,5120001269700,新規,0,2024-10-25,2024-10-25,株式会社Ａｓｓｉｚｔｒｕｓｔ,,株式会社,大阪府,大阪市平野区,背戸口５丁目６－１２－６０２,,27,126,5470034,,,,,,,2024-10-25,1,,,,,アシストラスト,0
1239,5120001269709,新規,0,2024-10-25,2024-10-25,株式会社ＧＰ,,株式会社,大阪府,大阪市中央区,島之内２丁目１４番２１号９階,,27,128,5420082,,,,,,,2024-10-25,1,,,,,ジーピー,0
1241,5120003027701,新規,0,2024-10-25,2024-10-25,早川ＩＴソリューション合同会社,,合同会社,大阪府,大阪市生野区,桃谷２丁目７－２,,27,116,5440034,,,,,,,2024-10-25,1,,,,,ハヤカワアイティーソリューション,0
1246,5120101070470,新規,0,2024-10-25,2024-10-25,株式会社ウェル,,株式会社,大阪府,岸和田市,小松里町９５０番地の１３,,27,202,5960821,,,,,,,2024-10-25,1,,,,,ウェル,0
1247,5120101070479,新規,0,2024-10-25,2024-10-25,ツバメエステート株式会社,,株式会社,大阪府,和泉市,のぞみ野１丁目１２番２０号２階,,27,219,5941105,,,,,,,2024-10-25,1,,,,,ツバメエステート,0
1249,5120901049953,新規,0,2024-10-25,2024-10-25,株式会社ＡＳＯ,,株式会社,大阪府,豊中市,螢池東町１丁目１３番４号,,27,203,5600032,,,,,,,2024-10-25,1,,,,,アソ,0
1250,5120903005392,新規,0,2024-10-25,2024-10-25,合同会社凛,,合同会社,大阪府,高槻市,土室町４９番１４号フォンティーヌ高槻ＩＩ１０６号,00136745,27,207,5691147,,,,,,,2024-10-25,1,,,,,リン,0
1254,5130001078225,新規,0,2024-10-25,2024-10-25,株式会社ＫＩ　Ｍａｎａｇｅｍｅｎｔ　ｏｆ　Ｇｏｌｆ,,株式会社,京都府,京都市中京区,蛸薬師通室町西入姥柳町２０３番地パラドール烏丸ビル,,26,104,6048213,,,,,,,2024-10-25,1,,,,,ケーアイマネジメントオブゴルフ,0
1256,5130003009946,新規,0,2024-10-25,2024-10-25,合同会社ｃｌｉｎｉｃａｌ　ｔｒｉａｌｓ,,合同会社,京都府,京都市左京区,北白川西蔦町１４,,26,103,6068261,,,,,,,2024-10-25,1,,,,,クリニカルトライアルズ,0
1257,5130003009954,新規,0,2024-10-25,2024-10-25,ＫＣＨＯＵＳＥ合同会社,,合同会社,京都府,京都市右京区,御室岡ノ裾町１７番地２４,,26,108,6168096,,,,,,,2024-10-25,1,,,,,ケイシーハウス,0
1262,5140001136213,新規,0,2024-10-25,2024-10-25,株式会社未来創建,,株式会社,兵庫県,たつの市,神岡町沢田５０８番地,,28,229,6794116,,,,,,,2024-10-25,1,,,,,ミライソウケン,0
1265,5140003021231,新規,0,2024-10-25,2024-10-25,合同会社ＭＲＥ,,合同会社,兵庫県,姫路市,田寺東４丁目２５番２号,,28,201,6700081,,,,,,,2024-10-25,1,,,,,エムアールイー,0
1267,5170005007110,新規,0,2024-10-25,2024-10-25,一般社団法人腰痛予防実践協会,,その他の設立登記法人,和歌山県,和歌山市,有家２０９番地２セピアコートＩＩＩ３０５号,00136767,30,201,6408316,,,,,,,2024-10-25,1,,,,,ヨウツウヨボウジッセンキョウカイ,0
1274,5180001163807,新規,0,2024-10-25,2024-10-25,株式会社ＳＴＭＫ,,株式会社,愛知県,名古屋市中村区,横井２丁目２００番地,,23,105,4530866,,,,,,,2024-10-25,1,,,,,エスティエムケイ,0
1275,5180001163856,新規,0,2024-10-25,2024-10-25,株式会社ＲＥＭ,,株式会社,愛知県,東海市,富木島町伏見２丁目１４番地の２,,23,222,4760012,,,,,,,2024-10-25,1,,,,,アールイーエム,0
1281,5190001031756,新規,0,2024-10-25,2024-10-25,株式会社Ｒｅｄ　Ｑｕｅｅｎ,,株式会社,三重県,津市,久居北口町９７７番地４,,24,201,5141105,,,,,,,2024-10-25,1,,,,,レッドクイーン,0
1284,5200001043072,新規,0,2024-10-25,2024-10-25,３１５０不動産株式会社,,株式会社,岐阜県,岐阜市,城東通５丁目２８番地２,,21,201,5008441,,,,,,,2024-10-25,1,,,,,サイコーフドウサン,0
1285,5220003003865,新規,0,2024-10-25,2024-10-25,合同会社ＲＯＯＴＳ,,合同会社,石川県,金沢市,木越１丁目３４２番地,,17,201,9200202,,,,,,,2024-10-25,1,,,,,ルーツ,0
1287,5230005009414,新規,0,2024-10-25,2024-10-25,一般社団法人こもれび,,その他の設立登記法人,富山県,富山市,大江干１１８番地,,16,201,9300922,,,,,,,2024-10-25,1,,,,,コモレビ,0
1307,5290001107661,新規,0,2024-10-25,2024-10-25,株式会社中匠福研究所,,株式会社,福岡県,福岡市中央区,笹丘２丁目５番４号,,40,133,8100034,,,,,,,2024-10-25,1,,,,,チュウショウフクケンキュウジョ,0
1308,5290001107694,新規,0,2024-10-25,2024-10-25,ＦＴ　Ｎｅｔｗｏｒｋｓ株式会社,,株式会社,福岡県,福岡市中央区,福浜２丁目６－６,,40,133,8100066,,,,,,,2024-10-25,1,,,,,エフティーネットワークス,0
1309,5290001107744,新規,0,2024-10-25,2024-10-25,株式会社隼,,株式会社,福岡県,福岡市早良区,原５丁目１５番１５号,,40,137,8140022,,,,,,,2024-10-25,1,,,,,ハヤブサ,0
1313,5290003015986,新規,0,2024-10-25,2024-10-25,合同会社ウェルシード,,合同会社,福岡県,福岡市中央区,天神２丁目２番１２号Ｔ＆Ｊビルディング７Ｆ,,40,133,8100001,,,,,,,2024-10-25,1,,,,,ウェルシード,0
1322,5310001019276,新規,0,2024-10-25,2024-10-25,株式会社はやしの輪,,株式会社,長崎県,長崎市,西山１丁目１６番３号,,42,201,8500001,,,,,,,2024-10-25,1,,,,,ハヤシノワ,0
1328,5350001019248,新規,0,2024-10-25,2024-10-25,株式会社Ｅｏｌａｓｔｉａ,,株式会社,宮崎県,児湯郡高鍋町,大字蚊口浦５１４５番地１,,45,401,8840004,,,,,,,2024-10-25,1,,,,,エオラスティア,0
1334,5360001034361,新規,0,2024-10-25,2024-10-25,株式会社設備社中,,株式会社,沖縄県,那覇市,曙２丁目９－６曙ビル３０１,,47,201,9000002,,,,,,,2024-10-25,1,,,,,セツビシャチュウ,0
1341,5370001051851,新規,0,2024-10-25,2024-10-25,株式会社ローズリーフ,,株式会社,宮城県,仙台市青葉区,上杉５丁目７番２４号,,04,101,9800011,,,,,,,2024-10-25,1,,,,,ローズリーフ,0
1349,5430001092930,新規,0,2024-10-25,2024-10-25,Ｏｒｉ　ｖａｎｌｉｆｅ株式会社,,株式会社,北海道,千歳市,白樺４丁目１６番地の６,,01,224,0660056,,,,,,,2024-10-25,1,,,,,オリバンライフ,0
1353,5430003016920,新規,0,2024-10-25,2024-10-25,Ｄｏｒｙ　ｔｒｅｓ合同会社,,合同会社,北海道,札幌市北区,新琴似四条５丁目５－５８,,01,102,0010904,,,,,,,2024-10-25,1,,,,,ドリートレス,0
1357,5480003002197,新規,0,2024-10-25,2024-10-25,合同会社エコチャージ,,合同会社,徳島県,阿波市,土成町水田字月成１８４番地,,36,206,7711502,,,,,,,2024-10-25,1,,,,,エコチャージ,0
1358,5490001010894,新規,0,2024-10-25,2024-10-25,新明神水産株式会社,,株式会社,高知県,幡多郡黒潮町,佐賀７６３番地,,39,428,7891720,,,,,,,2024-10-25,1,,,,,シンミョウジンスイサン,0
1359,5500003003358,新規,0,2024-10-25,2024-10-25,Ｄａｙａｎ　Ｉｎｎ　Ｊａｐａｎ合同会社,,合同会社,愛媛県,今治市,上浦町井口１７０７番地,,38,202,7941402,,,,,,,2024-10-25,1,,,,,ダイアンインジャパン,0
1368,6010001249233,新規,0,2024-10-25,2024-10-25,Ｓｔａｒ　Ａｌｌｉａｎｃｅ　Ｃａｐｉｔａｌ株式会社,,株式会社,東京都,中央区,銀座１丁目１２番４号,,13,102,1040061,,,,,,,2024-10-25,1,,,,,スターアライアンスキャピタル,0
1369,6010001249241,新規,0,2024-10-25,2024-10-25,株式会社ＴＡＭＵＲＡ,,株式会社,東京都,中央区,銀座６丁目７番１９号ミクニ銀座ビル３階,,13,102,1040061,,,,,,,2024-10-25,1,,,,,タムラ,0
1370,6010001249299,新規,0,2024-10-25,2024-10-25,株式会社ＭＩＧＨＴ,,株式会社,東京都,中央区,銀座１丁目１２－４Ｎ＆ＥＢＬＤ．７階,,13,102,1040061,,,,,,,2024-10-25,1,,,,,マイト,0
1371,6010001249332,新規,0,2024-10-25,2024-10-25,ガオ株式会社,,株式会社,東京都,千代田区,大手町１丁目７番２号,,13,101,1000004,,,,,,,2024-10-25,1,,,,,ガオ,0
1372,6010001249381,新規,0,2024-10-25,2024-10-25,株式会社イクスプロ,,株式会社,東京都,千代田区,神田和泉町１番地６－１６ヤマトビル４０５,,13,101,1010024,,,,,,,2024-10-25,1,,,,,イクスプロ,0
1377,6010003045283,新規,0,2024-10-25,2024-10-25,白金台２合同会社,,合同会社,東京都,千代田区,神田小川町３丁目２６番８号神田小川町三丁目ビル６階,,13,101,1010052,,,,,,,2024-10-25,1,,,,,シロカネダイツー,0
1387,6010401185920,新規,0,2024-10-25,2024-10-25,ベストネットワーク株式会社,,株式会社,東京都,港区,芝大門１丁目１０番１１号１０階,,13,103,1050012,,,,,,,2024-10-25,1,,,,,ベストネットワーク,0
1390,6010403033664,新規,0,2024-10-25,2024-10-25,ＥＡＲＮＢＥＳＴ合同会社,,合同会社,東京都,港区,浜松町２丁目７番１７号天翔オフィス浜松町大門１０５２号室,,13,103,1050013,,,,,,,2024-10-25,1,,,,,アーンベスト,0
1398,6010501053093,新規,0,2024-10-25,2024-10-25,崎源株式会社,,株式会社,東京都,台東区,台東２丁目２７番３号ＮＳＫビル１０Ｆ,,13,106,1100016,,,,,,,2024-10-25,1,,,,,キゲン,0
1400,6010601066160,新規,0,2024-10-25,2024-10-25,ＰＯＳの未来を考える株式会社,,株式会社,東京都,江東区,南砂２丁目５－１４,,13,108,1360076,,,,,,,2024-10-25,1,,,,,ポスノミライヲカンガエル,0
1406,6010901056092,新規,0,2024-10-25,2024-10-25,ノマドデザイン株式会社,,株式会社,東京都,世田谷区,梅丘１丁目５９‐２８Ａｖｅｎｉｒ梅丘２０１,,13,112,1540022,,,,,,,2024-10-25,1,,,,,ノマドデザイン,0
1409,6011001165123,新規,0,2024-10-25,2024-10-25,株式会社Ｖｉｎｃｕｌｏ,,株式会社,東京都,渋谷区,渋谷２丁目１９－１５宮益坂ビルディング６０９,,13,113,1500002,,,,,,,2024-10-25,1,,,,,ビンクル,0
1410,6011001165313,新規,0,2024-10-25,2024-10-25,インフェイト株式会社,,株式会社,東京都,渋谷区,神宮前６丁目２３－４桑野ビル２Ｆ,,13,113,1500001,,,,,,,2024-10-25,1,,,,,インフェイト,0
1411,6011001165362,新規,0,2024-10-25,2024-10-25,株式会社おはぎでざいん,,株式会社,東京都,渋谷区,道玄坂１丁目１０番８号渋谷道玄坂東急ビル２Ｆ－Ｃ,,13,113,1500043,,,,,,,2024-10-25,1,,,,,オハギデザイン,0
1412,6011003020276,新規,0,2024-10-25,2024-10-25,Ｅａｓｔ　Ｇａｔｅ　Ｉｎｖｅｓｔｍｅｎｔ　ＩＩ合同会社,,合同会社,東京都,渋谷区,神宮前５丁目３３番１号クレアホームズ神宮前４０２,,13,113,1500001,,,,,,,2024-10-25,1,,,,,イーストゲートインベストメントツー,0
1417,6011101109211,新規,0,2024-10-25,2024-10-25,思斉塾株式会社,,株式会社,東京都,新宿区,市谷田町３丁目１－５ｅｉｓｕビル市ヶ谷２階,,13,104,1620843,,,,,,,2024-10-25,1,,,,,シセイジュク,0
1418,6011101109335,新規,0,2024-10-25,2024-10-25,株式会社ｒｅｓｔａｒｔ,,株式会社,東京都,新宿区,西新宿３丁目３番１３号西新宿水間ビル６階,,13,104,1600023,,,,,,,2024-10-25,1,,,,,リスタート,0
1432,6012401042416,新規,0,2024-10-25,2024-10-25,株式会社ＮＧＲ,,株式会社,東京都,三鷹市,北野３丁目１０番３８号,,13,204,1810003,,,,,,,2024-10-25,1,,,,,エヌジーアール,0
1433,6012801023511,新規,0,2024-10-25,2024-10-25,株式会社松原,,株式会社,東京都,立川市,柏町３丁目２番地の１１,,13,202,1900004,,,,,,,2024-10-25,1,,,,,マツバラ,0
1437,6013301053271,新規,0,2024-10-25,2024-10-25,モココ株式会社,,株式会社,東京都,豊島区,南池袋３丁目１３番９－１１０１号,,13,116,1710022,,,,,,,2024-10-25,1,,,,,モココ,0
1438,6013305003660,新規,0,2024-10-25,2024-10-25,一般社団法人インヘリット,,その他の設立登記法人,東京都,豊島区,巣鴨１丁目９－１グランド東邦ビル１Ｆ,,13,116,1700002,,,,,,,2024-10-25,1,,,,,インヘリット,0
1440,6020001159670,新規,0,2024-10-25,2024-10-25,株式会社Ｂｏｄｙ　Ｉｎｎｏｖａｔｉｏｎ,,株式会社,神奈川県,横浜市中区,長者町５丁目５０番地ＦＫビル５０２,,14,104,2310033,,,,,,,2024-10-25,1,,,,,ボディイノベーション,0
1445,6021001083547,新規,0,2024-10-25,2024-10-25,株式会社ネクサム,,株式会社,神奈川県,平塚市,長持２１０番地２,,14,203,2591217,,,,,,,2024-10-25,1,,,,,ネクサム,0
1446,6021001083605,新規,0,2024-10-25,2024-10-25,株式会社ＦＬＡＴＯＵＴ,,株式会社,神奈川県,厚木市,飯山３６０６番地,,14,212,2430213,,,,,,,2024-10-25,1,,,,,フラットアウト,0
1447,6021001083613,新規,0,2024-10-25,2024-10-25,株式会社ラグーン,,株式会社,神奈川県,横須賀市,三春町４丁目４０番地７,,14,201,2380014,,,,,,,2024-10-25,1,,,,,ラグーン,0
1458,6030003025366,新規,0,2024-10-25,2024-10-25,合同会社トーヨサン,,合同会社,埼玉県,さいたま市中央区,上峰３丁目７－２７ユーアイコーポＥ－２０１,,11,105,3380014,,,,,,,2024-10-25,1,,,,,トーヨサン,0
1463,6040001135918,新規,0,2024-10-25,2024-10-25,株式会社サンサン,,株式会社,千葉県,松戸市,常盤平２丁目１２－１４,,12,207,2702261,,,,,,,2024-10-25,1,,,,,サンサン,0
1464,6040001135926,新規,0,2024-10-25,2024-10-25,ＲＴＤ株式会社,,株式会社,千葉県,香取市,九美上１００番地１５,,12,236,2870022,,,,,,,2024-10-25,1,,,,,アールティーディー,0
1465,6040001135934,新規,0,2024-10-25,2024-10-25,株式会社ＭＡＲＳ,,株式会社,千葉県,千葉市若葉区,桜木北３丁目１４番１２－２号,,12,104,2640029,,,,,,,2024-10-25,1,,,,,マルス,0
1466,6040001135942,新規,0,2024-10-25,2024-10-25,株式会社ビレッジストリーム,,株式会社,千葉県,佐倉市,染井野１丁目８番地６,,12,212,2850831,,,,,,,2024-10-25,1,,,,,ビレッジストリーム,0
1469,6040003026058,新規,0,2024-10-25,2024-10-25,合同会社南雲ファーム,,合同会社,千葉県,勝浦市,植野字上宿６３１番地,,12,218,2995265,,,,,,,2024-10-25,1,,,,,ナグモファーム,0
1473,6050001055586,新規,0,2024-10-25,2024-10-25,株式会社Ｌ．ｌａｎｋａ,,株式会社,茨城県,古河市,雷電町１２番５７号,,08,204,3060004,,,,,,,2024-10-25,1,,,,,エルランカ,0
1476,6060001037600,新規,0,2024-10-25,2024-10-25,株式会社ＳＯＵＳＨＩＮ,,株式会社,栃木県,下野市,医大前４丁目９番地２,,09,216,3290403,,,,,,,2024-10-25,1,,,,,ソウシン,0
1486,6090001018969,新規,0,2024-10-25,2024-10-25,株式会社ＫＡＮＺＵ,,株式会社,山梨県,南都留郡富士河口湖町,小立５１７８番地７,,19,430,4010302,,,,,,,2024-10-25,1,,,,,カンズ,0
1491,6100001037942,新規,0,2024-10-25,2024-10-25,株式会社ＲａＳ　ＤＥＳＩＧＮ　ＯＦＦＩＣＥ,,株式会社,長野県,松本市,大字里山辺２５８９,,20,202,3900221,,,,,,,2024-10-25,1,,,,,ラスデザインオフィス,0
1498,6110005017147,新規,0,2024-10-25,2024-10-25,一般社団法人やおら３６０,,その他の設立登記法人,新潟県,長岡市,柏町２丁目８番地２５,,15,202,9400088,,,,,,,2024-10-25,1,,,,,ヤオラサンロクマル,0
1509,6120001269682,新規,0,2024-10-25,2024-10-25,新子金株式会社,,株式会社,大阪府,大阪市中央区,博労町１丁目６番１３－３０７号,,27,128,5410059,,,,,,,2024-10-25,1,,,,,シンコガネ,0
1510,6120001269699,新規,0,2024-10-25,2024-10-25,株式会社ＣＯＭＰＬＥＴＥ,,株式会社,大阪府,大阪市北区,天満橋１丁目３－２１タカセビル５０１,,27,127,5300042,,,,,,,2024-10-25,1,,,,,コンプリート,0
1514,6120003027799,新規,0,2024-10-25,2024-10-25,合同会社ヘーゼル,,合同会社,大阪府,大阪市住吉区,我孫子東２丁目７番１０－６０３号,,27,120,5580013,,,,,,,2024-10-25,1,,,,,ヘーゼル,0
1530,6130001078208,新規,0,2024-10-25,2024-10-25,株式会社懿生堂,,株式会社,京都府,京都市北区,衣笠赤阪町１番地５エスポワール小西２０８号,,26,101,6038486,,,,,,,2024-10-25,1,,,,,イセイド,0
1532,6130003009937,新規,0,2024-10-25,2024-10-25,合同会社ＣＬＯＵＤ９ＬＡＢＯ,,合同会社,京都府,京都市右京区,御室竪町２５番地２デラシオン御室１０６,,26,108,6168093,,,,,,,2024-10-25,1,,,,,クラウドナインラボ,0
1533,6140001136195,新規,0,2024-10-25,2024-10-25,アクトナソーシング株式会社,,株式会社,兵庫県,神戸市中央区,磯辺通１丁目１番１８号カサベラ国際プラザビル７０７号室,,28,110,6510084,,,,,,,2024-10-25,1,,,,,アクトナソーシング,0
1534,6140001136204,新規,0,2024-10-25,2024-10-25,株式会社ピアエステート,,株式会社,兵庫県,宝塚市,伊孑志２丁目１７番３号,,28,214,6650033,,,,,,,2024-10-25,1,,,,,ピアエステート,0
1535,6140001136212,新規,0,2024-10-25,2024-10-25,株式会社ｗｉｌｌｏｗ　ｒｅａｌｅｓｔａｔｅ,,株式会社,兵庫県,神戸市垂水区,山手７丁目６ー２５,,28,108,6550891,,,,,,,2024-10-25,1,,,,,ウィローリアルエステート,0
1541,6150001027625,新規,0,2024-10-25,2024-10-25,株式会社ＮＥＯ　Ｃｏｎｎｅｃｔ,,株式会社,奈良県,大和郡山市,筒井町６８８－１ひさやビル１階５号室,,29,203,6391123,,,,,,,2024-10-25,1,,,,,ネオコネクト,0
1543,6160001026304,新規,0,2024-10-25,2024-10-25,株式会社想繋,00136752,株式会社,滋賀県,栗東市,小柿６丁目５１５,,25,208,5203024,,,,,,,2024-10-25,1,,,,,ソウケイ,0
1544,6160003003318,新規,0,2024-10-25,2024-10-25,合同会社はれの彩り,,合同会社,滋賀県,長浜市,湖北町大安寺５５９－３,,25,203,5290345,,,,,,,2024-10-25,1,,,,,ハレノイロドリ,0
1549,6180001163673,新規,0,2024-10-25,2024-10-25,株式会社ＭＴＫ,,株式会社,愛知県,名古屋市東区,泉１丁目２２番１号ザ・センチュリーステイツ５０６号,,23,102,4610001,,,,,,,2024-10-25,1,,,,,エムティーケイ,0
1550,6180001163780,新規,0,2024-10-25,2024-10-25,株式会社ＯＴＳフードサービス,,株式会社,愛知県,名古屋市中区,千代田３丁目１５番１２号,,23,106,4600012,,,,,,,2024-10-25,1,,,,,オーティエスフードサービス,0
1553,6180003027546,新規,0,2024-10-25,2024-10-25,合同会社ＹＣＭＨ,,合同会社,愛知県,名古屋市中村区,名駅４丁目２４番５号第２森ビル４０１,,23,105,4500002,,,,,,,2024-10-25,1,,,,,ワイシーエムエイチ,0
1578,6290003015985,新規,0,2024-10-25,2024-10-25,オフィス．ｍｉｎｔ合同会社,,合同会社,福岡県,福岡市早良区,次郎丸４丁目１４番６４号１０２,,40,137,8140165,,,,,,,2024-10-25,1,,,,,オフィスミント,0
1579,6290005019547,新規,0,2024-10-25,2024-10-25,一般社団法人独立事業者協会,,その他の設立登記法人,福岡県,福岡市博多区,博多駅前１丁目２３番２号ＰａｒｋＦｒｏｎｔ博多駅前１丁目５Ｆ－Ｂ,,40,132,8120011,,,,,,,2024-10-25,1,,,,,ドクリツジギョウシャキョウカイ,0
1580,6290801030995,新規,0,2024-10-25,2024-10-25,株式会社颯,,株式会社,福岡県,築上郡築上町,大字東八田８４５番地１,,40,647,8290342,,,,,,,2024-10-25,1,,,,,ハヤテ,0
1588,6360001034369,新規,0,2024-10-25,2024-10-25,株式会社日虹,,株式会社,沖縄県,宜野湾市,字佐真下８６－１ルナエスパシオ３０３号,,47,205,9012216,,,,,,,2024-10-25,1,,,,,ニッコウ,0
1591,6370001051842,新規,0,2024-10-25,2024-10-25,株式会社佐沼中央新聞販売,,株式会社,宮城県,登米市,迫町佐沼字西舘３５番地７,,04,212,9870511,,,,,,,2024-10-25,1,,,,,サヌマチュウオウシンブンハンバイ,0
1592,6370001051850,新規,0,2024-10-25,2024-10-25,株式会社コロイド,,株式会社,宮城県,仙台市宮城野区,榴岡２丁目４番地－３３ドーミー仙台東口２、８０５号室,,04,102,9830852,,,,,,,2024-10-25,1,,,,,コロイド,0
1593,6370001051859,新規,0,2024-10-25,2024-10-25,遠田設備工事株式会社,,株式会社,宮城県,遠田郡美里町,字塩釜３１番地１,,04,505,9870058,,,,,,,2024-10-25,1,,,,,トオダセツビコウジ,0
1605,6430003016928,新規,0,2024-10-25,2024-10-25,合同会社ＣＬＡＳＳＩＣ,,合同会社,北海道,虻田郡倶知安町,北三条西１丁目１０番地５,,01,400,0440053,,,,,,,2024-10-25,1,,,,,クラシック,0
1608,6430005015093,新規,0,2024-10-25,2024-10-25,一般社団法人すすきの子ども教育支援協会,,その他の設立登記法人,北海道,札幌市中央区,南十四条西１９丁目１－３１,,01,101,0640914,,,,,,,2024-10-25,1,,,,,ススキノコドモキョウイクシエンキョウカイ,0
1613,6470003002742,新規,0,2024-10-25,2024-10-25,合同会社みなとみらい水産,,合同会社,香川県,さぬき市,鴨庄８６５番地１,,37,206,7692102,,,,,,,2024-10-25,1,,,,,ミナトミライスイサン,0
1616,6490003001949,新規,0,2024-10-25,2024-10-25,合同会社こより,,合同会社,高知県,高知市,大津甲５３２－１５,,39,201,7815102,,,,,,,2024-10-25,1,,,,,コヨリ,0
1629,7010001248556,新規,0,2024-10-25,2024-10-25,日本ハザード・コントロール株式会社,,株式会社,東京都,千代田区,九段南１丁目６番５号,,13,101,1020074,,,,,,,2024-10-25,1,,,,,ニホンハザードコントロール,0
1630,7010001249298,新規,0,2024-10-25,2024-10-25,株式会社ｗｉｔｈ総合研究所,,株式会社,東京都,中央区,銀座７丁目１３番２０号銀座ＴＨビル９階,,13,102,1040061,,,,,,,2024-10-25,1,,,,,ウィズソウゴウケンキュウジョ,0
1631,7010001249307,新規,0,2024-10-25,2024-10-25,株式会社オーガスタ千葉,,株式会社,東京都,千代田区,神田和泉町１番地６－１６ヤマトビル４０５,,13,101,1010024,,,,,,,2024-10-25,1,,,,,オーガスタチバ,0
1632,7010003045282,新規,0,2024-10-25,2024-10-25,合同会社Ｄｒａｇｏｎｉｓｍ,,合同会社,東京都,中央区,日本橋本町１丁目６－１４,,13,102,1030023,,,,,,,2024-10-25,1,,,,,ドラゴニズム,0
1642,7010401185960,新規,0,2024-10-25,2024-10-25,株式会社Ｂｅ　Ｓｗａｎ　Ｅｎｔｅｒｔａｉｎｍｅｎｔ,,株式会社,東京都,港区,港南２丁目１６番１号品川イーストワンタワー７Ｆ／８Ｆ,,13,103,1080075,,,,,,,2024-10-25,1,,,,,ビースワンエンターテイメント,0
1643,7010401186001,新規,0,2024-10-25,2024-10-25,株式会社Ｑｓｔｏｒｍ．ａｉ,,株式会社,東京都,港区,西新橋２丁目２２番１号西新橋２丁目森ビル５階,,13,103,1050003,,,,,,,2024-10-25,1,,,,,キューストームエーアイ,0
1647,7010403033663,新規,0,2024-10-25,2024-10-25,Ａｃｅｏｌｕｔｉｏｎ　Ｃｏｎｓｕｌｔｉｎｇ　Ｊａｐａｎ合同会社,,合同会社,東京都,港区,虎ノ門５丁目１３－１，虎ノ門４０ＭＴビル７Ｆ,,13,103,1050001,,,,,,,2024-10-25,1,,,,,アシオリューションコンサルティングジャパン,0
1657,7010601066151,新規,0,2024-10-25,2024-10-25,裕誠建設株式会社,,株式会社,東京都,江東区,亀戸７丁目３９番２－６０３号,,13,108,1360071,,,,,,,2024-10-25,1,,,,,ユウセイケンセツ,0
1658,7010601066168,新規,0,2024-10-25,2024-10-25,ユニリオ株式会社,,株式会社,東京都,江東区,塩浜２丁目２４番１０－１１０９号,,13,108,1350043,,,,,,,2024-10-25,1,,,,,ユニリオ,0
1667,7011001165386,新規,0,2024-10-25,2024-10-25,株式会社三連複的中同盟,,株式会社,東京都,渋谷区,元代々木町２４番４号,,13,113,1510062,,,,,,,2024-10-25,1,,,,,サンレンプクテキチュウドウメイ,0
1668,7011001165543,新規,0,2024-10-25,2024-10-25,株式会社ウィンドフォール,,株式会社,東京都,渋谷区,笹塚２丁目３９番１３号,,13,113,1510073,,,,,,,2024-10-25,1,,,,,ウィンドフォール,0
1675,7011101109243,新規,0,2024-10-25,2024-10-25,株式会社ＳＭＯＫＹ,,株式会社,東京都,新宿区,歌舞伎町２丁目８番３号最上ビル２０２号室,,13,104,1600021,,,,,,,2024-10-25,1,,,,,スモーキー,0
1676,7011101109276,新規,0,2024-10-25,2024-10-25,ＳＯＵＮＤＳ　ＧＯＯＤ株式会社,,株式会社,東京都,新宿区,歌舞伎町２丁目３番２１号明治通りビル,,13,104,1600021,,,,,,,2024-10-25,1,,,,,サウンズグッド,0
1680,7011403004539,新規,0,2024-10-25,2024-10-25,ＳＪＣ合同会社,,合同会社,東京都,板橋区,若木３丁目１番１３号若木荘１０１,,13,119,1740065,,,,,,,2024-10-25,1,,,,,エスジェイシー,0
1687,7011803006465,新規,0,2024-10-25,2024-10-25,誉誠合同会社,,合同会社,東京都,葛飾区,宝町２丁目３１－１２－１０１号室,,13,122,1240005,,,,,,,2024-10-25,1,,,,,コウセイ,0
1691,7012403006814,新規,0,2024-10-25,2024-10-25,合同会社ＦＦＯＲＢ,,合同会社,東京都,府中市,押立町１丁目３－２２内海押立ビル４０５,,13,206,1830012,,,,,,,2024-10-25,1,,,,,,0
1692,7012405005054,新規,0,2024-10-25,2024-10-25,一般社団法人比留間トラスト,,その他の設立登記法人,東京都,府中市,宮町１丁目３４番地の２,,13,206,1830023,,,,,,,2024-10-25,1,,,,,ヒルマトラスト,0
1704,7021001083587,新規,0,2024-10-25,2024-10-25,株式会社みんなのアイナ横須賀,,株式会社,神奈川県,横須賀市,大矢部２丁目６番２４号,,14,201,2380024,,,,,,,2024-10-25,1,,,,,ミンナノアイナヨコスカ,0
1705,7021001083620,新規,0,2024-10-25,2024-10-25,株式会社ＣＲＥＳＣＥＮＴ　ＴＥＣＨ,,株式会社,神奈川県,愛甲郡愛川町,角田字小沢城坂７７９番４,,14,401,2430301,,,,,,,2024-10-25,1,,,,,クレセントテック,0
1711,7030001163142,新規,0,2024-10-25,2024-10-25,株式会社クラフト,,株式会社,埼玉県,熊谷市,妻沼１５４４番地２,,11,202,3600201,,,,,,,2024-10-25,1,,,,,クラフト,0
1724,7040001135941,新規,0,2024-10-25,2024-10-25,株式会社槐屋,,株式会社,千葉県,富津市,八幡２５７番地２,,12,226,2930056,,,,,,,2024-10-25,1,,,,,エンジュヤ,0
1734,7040003026024,新規,0,2024-10-25,2024-10-25,シェアピ合同会社,,合同会社,千葉県,市川市,香取１丁目４番１７号,,12,203,2720141,,,,,,,2024-10-25,1,,,,,シェアピ,0
1735,7040003026065,新規,0,2024-10-25,2024-10-25,合同会社石垣,,合同会社,千葉県,柏市,柏４丁目２番１２号関口ビル１階,,12,217,2770005,,,,,,,2024-10-25,1,,,,,イシガキ,0
1736,7040005022558,新規,0,2024-10-25,2024-10-25,一般社団法人セントアイヴス,,その他の設立登記法人,千葉県,市原市,山木１２４１番地１４,,12,219,2900005,,,,,,,2024-10-25,1,,,,,セントアイヴス,0
1756,7080101025089,新規,0,2024-10-25,2024-10-25,株式会社Ｊｏｙ’ｎ,,株式会社,静岡県,富士市,吉原４丁目５番１６号２階東,,22,210,4170051,,,,,,,2024-10-25,1,,,,,ジョイン,0
1760,7090001018968,新規,0,2024-10-25,2024-10-25,株式会社Ｙ’ｓ　ｃａｐｉｔａｌ,,株式会社,山梨県,南都留郡山中湖村,山中２４８番地の１山中湖畔別荘地西区三丁目２１番地２号,,19,425,4010501,,,,,,,2024-10-25,1,,,,,ワイズキャピタル,0
1775,7120001269681,新規,0,2024-10-25,2024-10-25,七度動力株式会社,,株式会社,大阪府,大阪市港区,港晴３丁目１－１１－２０２Ｄ,,27,107,5520023,,,,,,,2024-10-25,1,,,,,シチドドウリョク,0
1776,7120001269698,新規,0,2024-10-25,2024-10-25,株式会社アルファ,,株式会社,大阪府,大阪市東住吉区,湯里６丁目１４番６号Ｃ棟２０３号,,27,121,5460013,,,,,,,2024-10-25,1,,,,,アルファ,0
1777,7120001269723,新規,0,2024-10-25,2024-10-25,万象株式会社,00136765,株式会社,大阪府,大阪市平野区,西脇１丁目１３番４号１５０４号室,,27,126,5470035,,,,,,,2024-10-25,1,,,,,マンゾウ,0
1781,7120003027823,新規,0,2024-10-25,2024-10-25,ディハイプ合同会社,,合同会社,大阪府,大阪市中央区,久太郎町４丁目１－３大阪センタービル６Ｆ－３２７,,27,128,5410056,,,,,,,2024-10-25,1,,,,,ディハイプ,0
1782,7120003027831,新規,0,2024-10-25,2024-10-25,合同会社九零,,合同会社,大阪府,大阪市平野区,加美鞍作１丁目２番１６－４０１号,,27,126,5470004,,,,,,,2024-10-25,1,,,,,クレイ,0
1784,7120005024587,新規,0,2024-10-25,2024-10-25,一般社団法人日本ラケットストリンガーズ協会,,その他の設立登記法人,大阪府,大阪市西成区,橘１丁目６番２号,,27,122,5570051,,,,,,,2024-10-25,1,,,,,ニホンラケットストリンガーズキョウカイ,0
1788,7120901049943,新規,0,2024-10-25,2024-10-25,株式会社ＵＳＰ,,株式会社,大阪府,高槻市,柱本１丁目８４番地,,27,207,5690844,,,,,,,2024-10-25,1,,,,,ユーエスピー,0
1792,7130001078207,新規,0,2024-10-25,2024-10-25,弘和株式会社,,株式会社,京都府,京都市中京区,壬生森前町１４－３－２０２室,,26,104,6048831,,,,,,,2024-10-25,1,,,,,コウワ,0
1797,7140001136211,新規,0,2024-10-25,2024-10-25,株式会社ミライズ,,株式会社,兵庫県,姫路市,青山西５丁目１番２１号２０２,,28,201,6712224,,,,,,,2024-10-25,1,,,,,ミライズ,0
1799,7140003021213,新規,0,2024-10-25,2024-10-25,合同会社ｆｌｏｗ,,合同会社,兵庫県,明石市,朝霧山手町２番５号,,28,203,6730853,,,,,,,2024-10-25,1,,,,,フロウ,0
1805,7170005007109,新規,0,2024-10-25,2024-10-25,一般社団法人紀の国教育支援機構,,その他の設立登記法人,和歌山県,和歌山市,友田町２丁目１４５番地,,30,201,6408342,,,,,,,2024-10-25,1,,,,,キノクニキョウイクシエンキコウ,0
1818,7190003004840,新規,0,2024-10-25,2024-10-25,Ｍ’ｓゴルフマネジメント合同会社,,合同会社,三重県,津市,港町１７番２２号,,24,201,5140014,,,,,,,2024-10-25,1,,,,,エムズゴルフマネジメント,0
1834,7260003004940,新規,0,2024-10-25,2024-10-25,合同会社だいじゃ,,合同会社,岡山県,津山市,福渡町３２番地４,,33,203,7080074,,,,,,,2024-10-25,1,,,,,ダイジャ,0
1838,7290001107718,新規,0,2024-10-25,2024-10-25,株式会社神馬,,株式会社,福岡県,福岡市博多区,冷泉町１番３－８１０号エクセレンス祇園,,40,132,8120039,,,,,,,2024-10-25,1,,,,,シンバ,0
1839,7290001107726,新規,0,2024-10-25,2024-10-25,株式会社鳥越製作所,,株式会社,福岡県,福岡市中央区,薬院３丁目１－２０,,40,133,8100022,,,,,,,2024-10-25,1,,,,,トリゴエセイサクショ,0
1842,7300001013947,新規,0,2024-10-25,2024-10-25,株式会社Ｈｉｎａｔａ,,株式会社,佐賀県,鳥栖市,神辺町１５７６番地２,,41,203,8410004,,,,,,,2024-10-25,1,,,,,ヒナタ,0
1845,7330001032580,新規,0,2024-10-25,2024-10-25,株式会社Ｌｅａｄ,,株式会社,熊本県,熊本市中央区,新町４丁目１番３８号３,,43,101,8600004,,,,,,,2024-10-25,1,,,,,リード,0
1848,7340001026879,新規,0,2024-10-25,2024-10-25,株式会社Ｌｏｔｕｓ　Ｃｒｅｗ,,株式会社,鹿児島県,薩摩川内市,宮内町４１５４番地,,46,215,8950065,,,,,,,2024-10-25,1,,,,,ロータスクルー,0
1850,7360001034368,新規,0,2024-10-25,2024-10-25,株式会社Ｒ　ｓｔｙｌｅ,,株式会社,沖縄県,糸満市,字糸満１４４４番地の４ハピネスコートゴクミＩＩ２０１号,00136764,47,210,9010361,,,,,,,2024-10-25,1,,,,,アールスタイル,0
1859,7430001092929,新規,0,2024-10-25,2024-10-25,浅川電工株式会社,,株式会社,北海道,札幌市西区,発寒五条８丁目１０－１０ウエストヒルコート２０１号室,,01,107,0630825,,,,,,,2024-10-25,1,,,,,アサカワデンコウ,0
1860,7430001092937,新規,0,2024-10-25,2024-10-25,Ｃｏ‐Ｌａｂ株式会社,,株式会社,北海道,登別市,登別本町１丁目３５番地１６,,01,230,0590465,,,,,,,2024-10-25,1,,,,,コーラボ,0
1863,7430003016902,新規,0,2024-10-25,2024-10-25,合同会社ここのつ,,合同会社,北海道,札幌市中央区,南十一条西１８丁目２番３０－１００１号,,01,101,0640811,,,,,,,2024-10-25,1,,,,,ココノツ,0
1864,7430003016919,新規,0,2024-10-25,2024-10-25,合同会社ヒカリトキザシ,,合同会社,北海道,札幌市中央区,北八条西２３丁目２－２０クレステージ円山北町２０２号室,,01,101,0600008,,,,,,,2024-10-25,1,,,,,ヒカリトキザシ,0
1865,7430003016927,新規,0,2024-10-25,2024-10-25,合同会社Ｒｅ．ｙ,,合同会社,北海道,札幌市東区,伏古十条２丁目１１－８アルカディア１０１,,01,103,0070870,,,,,,,2024-10-25,1,,,,,レイ,0
1870,7700150127581,新規,0,2024-10-25,2024-10-25,本郷ハウスマンション建替組合,,その他,東京都,新宿区,四谷３丁目１２番地株式会社ＵＧ都市建築内,,13,104,1600004,,,,,,,2024-10-25,1,,,,,ホンゴウハウスマンシヨンタテカエクミアイ,0
1880,8010001249297,新規,0,2024-10-25,2024-10-25,株式会社三友マネジメント,,株式会社,東京都,中央区,銀座７丁目１７番５号,,13,102,1040061,,,,,,,2024-10-25,1,,,,,サンユーマネジメント,0
1881,8010001249330,新規,0,2024-10-25,2024-10-25,株式会社トレニケーション,,株式会社,東京都,千代田区,神田猿楽町２丁目８－１１ＶＯＲＴ水道橋ＩＩＩ,00136756,13,101,1010064,,,,,,,2024-10-25,1,,,,,トレニケーション,0
1882,8010001249347,新規,0,2024-10-25,2024-10-25,ＴＦホールディングス株式会社,,株式会社,東京都,千代田区,丸の内２丁目４番１号,,13,101,1000005,,,,,,,2024-10-25,1,,,,,ティーエフホールディングス,0
1883,8010001249371,新規,0,2024-10-25,2024-10-25,ノイファルマ株式会社,,株式会社,東京都,中央区,銀座７丁目５番１５号,,13,102,1040061,,,,,,,2024-10-25,1,,,,,ノイファルマ,0
1892,8010401185951,新規,0,2024-10-25,2024-10-25,ＩＶＦ　ＮＩＰＰＯＮ株式会社,,株式会社,東京都,港区,芝浦２丁目１４番１８号サカイビル５階１５室,,13,103,1080023,,,,,,,2024-10-25,1,,,,,アイブイエフニッポン,0
1899,8010403033670,新規,0,2024-10-25,2024-10-25,合同会社ＴＡＫＡＳＨＩ,,合同会社,東京都,港区,浜松町２丁目１２番１０－５０４号,,13,103,1050013,,,,,,,2024-10-25,1,,,,,タカシ,0
1906,8010501053083,新規,0,2024-10-25,2024-10-25,興和株式会社,,株式会社,東京都,台東区,上野６丁目７番１６号川久保ビル５０７号,,13,106,1100005,,,,,,,2024-10-25,1,,,,,コウワ,0
1908,8010601066159,新規,0,2024-10-25,2024-10-25,株式会社サクライ,,株式会社,東京都,墨田区,亀沢３丁目８－６,,13,107,1300014,,,,,,,2024-10-25,1,,,,,サクライ,0
1912,8010703007408,新規,0,2024-10-25,2024-10-25,ＭＫホールディングス合同会社,,合同会社,東京都,品川区,上大崎３丁目１番１号目黒セントラルスクエア１５階,,13,109,1410021,,,,,,,2024-10-25,1,,,,,エムケーホールディングス,0
1919,8010903009435,新規,0,2024-10-25,2024-10-25,令和の牛合同会社,,合同会社,東京都,世田谷区,代沢５丁目９－１,,13,112,1550032,,,,,,,2024-10-25,1,,,,,レイワノウシ,0
1923,8011001165369,新規,0,2024-10-25,2024-10-25,Ｓｅｃｒｅｔ　Ｄｏｍａｉｎ株式会社,,株式会社,東京都,渋谷区,道玄坂１丁目１６－６二葉ビル８ｂ,,13,113,1500043,,,,,,,2024-10-25,1,,,,,シークレットドメイン,0
1924,8011001165476,新規,0,2024-10-25,2024-10-25,株式会社稲垣商店,,株式会社,東京都,渋谷区,鉢山町７番５号,,13,113,1500035,,,,,,,2024-10-25,1,,,,,イナガキショウテン,0
1925,8011001165567,新規,0,2024-10-25,2024-10-25,おテロワール株式会社,,株式会社,東京都,渋谷区,道玄坂１丁目１０番８号渋谷道玄坂東急ビル２Ｆ－Ｃ,,13,113,1500043,,,,,,,2024-10-25,1,,,,,オテロワール,0
1926,8011001165600,新規,0,2024-10-25,2024-10-25,株式会社トゥルーブリッジ,,株式会社,東京都,渋谷区,道玄坂１丁目１０番８号渋谷道玄坂東急ビル２Ｆ－Ｃ,,13,113,1500043,,,,,,,2024-10-25,1,,,,,トゥルーブリッジ,0
1929,8011003020233,新規,0,2024-10-25,2024-10-25,合同会社未来科学技術研究所,,合同会社,東京都,渋谷区,道玄坂１丁目１０番８号渋谷道玄坂東急ビル２Ｆ－Ｃ,,13,113,1500043,,,,,,,2024-10-25,1,,,,,ミライカガクギジュツケンキュウジョ,0
1932,8011101109283,新規,0,2024-10-25,2024-10-25,株式会社ＲＯＣＫ　ＰＴＡＲＭＩＧＡＮ,,株式会社,東京都,新宿区,上落合２丁目２１番１０号,,13,104,1610034,,,,,,,2024-10-25,1,,,,,ロックターミガン,0
1937,8011103015109,新規,0,2024-10-25,2024-10-25,キャットミント合同会社,,合同会社,東京都,新宿区,高田馬場３丁目２７番１３－１０１号,,13,104,1690075,,,,,,,2024-10-25,1,,,,,キャットミント,0
1938,8011105011205,新規,0,2024-10-25,2024-10-25,一般社団法人ＳＣＲＰ,,その他の設立登記法人,東京都,新宿区,四谷２丁目９番地１５東京ユナイテッド綜合事務所内,,13,104,1600004,,,,,,,2024-10-25,1,,,,,エスシーアールピー,0
1940,8011203004507,新規,0,2024-10-25,2024-10-25,合同会社パワーグリット,,合同会社,東京都,中野区,中央２丁目７番２号トップスハイム１０２,,13,114,1640011,,,,,,,2024-10-25,1,,,,,パワーグリット,0
1945,8011601028149,新規,0,2024-10-25,2024-10-25,株式会社８１ＬＤＫ,,株式会社,東京都,練馬区,旭丘１丁目２０番１号,,13,120,1760005,,,,,,,2024-10-25,1,,,,,ハイエルディケー,0
1949,8011801045010,新規,0,2024-10-25,2024-10-25,恒特株式会社,,株式会社,東京都,葛飾区,金町２丁目２１番５号プラーズ金町５１５号室,,13,122,1250042,,,,,,,2024-10-25,1,,,,,コウトク,0
1950,8011801045051,新規,0,2024-10-25,2024-10-25,神龍株式会社,,株式会社,東京都,葛飾区,新小岩１丁目５０－５高山壮２０５,,13,122,1240024,,,,,,,2024-10-25,1,,,,,シンリュウ,0
1952,8012401042414,新規,0,2024-10-25,2024-10-25,株式会社ブリエ,,株式会社,東京都,府中市,武蔵台３丁目１７番地１,,13,206,1830042,,,,,,,2024-10-25,1,,,,,ブリエ,0
1963,8020001159751,新規,0,2024-10-25,2024-10-25,株式会社嘉屋,,株式会社,神奈川県,横浜市中区,鷺山２０番地１１,,14,104,2310848,,,,,,,2024-10-25,1,,,,,カヤ,0
1964,8020001159891,新規,0,2024-10-25,2024-10-25,株式会社ｋ２ｏｆｆｉｃｅ,,株式会社,神奈川県,横浜市南区,清水ケ丘１７９ハナワハイツ２０１,,14,105,2320007,,,,,,,2024-10-25,1,,,,,ケーツーオフィス,0
1967,8020003027114,新規,0,2024-10-25,2024-10-25,合同会社Ｈａｓｈ,,合同会社,神奈川県,横浜市港北区,新横浜１丁目２２番地１－８０２号,,14,109,2220033,,,,,,,2024-10-25,1,,,,,ハッシュ,0
1968,8020003027122,新規,0,2024-10-25,2024-10-25,合同会社ヨリヨク,,合同会社,神奈川県,川崎市幸区,新小倉２－２－１５０７,,14,132,2120031,,,,,,,2024-10-25,1,,,,,ヨリヨク,0
1973,8021003015141,新規,0,2024-10-25,2024-10-25,ベイスタイル合同会社,,合同会社,神奈川県,茅ヶ崎市,菱沼１丁目４番５７－１９号,,14,207,2530011,,,,,,,2024-10-25,1,,,,,ベイスタイル,0
1986,8040001135916,新規,0,2024-10-25,2024-10-25,潤博株式会社,,株式会社,千葉県,佐倉市,宮前３丁目２２番地４ＧＡＲＤＥＮＥＬＥＧＡＮＴ４１４号室,,12,212,2850005,,,,,,,2024-10-25,1,,,,,ジュンハク,0
1987,8040001135924,新規,0,2024-10-25,2024-10-25,合和株式会社,,株式会社,千葉県,千葉市花見川区,花見川６番１７棟５０１号,,12,102,2620046,,,,,,,2024-10-25,1,,,,,ゴウワ,0
1988,8040001135932,新規,0,2024-10-25,2024-10-25,エスカルゴライフデザイン株式会社,,株式会社,千葉県,東金市,宮７１番地,,12,213,2830023,,,,,,,2024-10-25,1,,,,,エスカルゴライフデザイン,0
1989,8040003026056,新規,0,2024-10-25,2024-10-25,合同会社エムエイチアール,,合同会社,千葉県,浦安市,日の出４丁目２番５－３１０号,,12,227,2790013,,,,,,,2024-10-25,1,,,,,エムエイチアール,0
1990,8040003026064,新規,0,2024-10-25,2024-10-25,合同会社ミノカサ,,合同会社,千葉県,船橋市,本町６丁目１８番１９号第３山中ビル４０１号室,,12,204,2730005,,,,,,,2024-10-25,1,,,,,ミノカサ,0
2005,8080101025088,新規,0,2024-10-25,2024-10-25,ＵＰＰＥＲ　ＶＩＬＬＡＧＥ株式会社,,株式会社,静岡県,富士市,松岡３５４番地の８,,22,210,4160909,,,,,,,2024-10-25,1,,,,,アッパービレッジ,0
2008,8080401027528,新規,0,2024-10-25,2024-10-25,株式会社ＢＲＩＧＨＴ　ＬＩＮＥ,,株式会社,静岡県,浜松市浜名区,三ヶ日町下尾奈１６０４番地２,,22,139,4311424,,,,,,,2024-10-25,1,,,,,ブライトライン,0
2014,8100001037949,新規,0,2024-10-25,2024-10-25,エクステンション株式会社,,株式会社,長野県,伊那市,西春近６８４７番地１,,20,209,3994431,,,,,,,2024-10-25,1,,,,,エクステンション,0
2028,8120001269706,新規,0,2024-10-25,2024-10-25,株式会社Ｈｉｓｈｉ　Ｔｅｃｈ,,株式会社,大阪府,大阪市東成区,玉津１丁目５番１８号,,27,115,5370023,,,,,,,2024-10-25,1,,,,,ヒシテック,0
2029,8120001269714,新規,0,2024-10-25,2024-10-25,株式会社ＱＯＱＯ,,株式会社,大阪府,大阪市東住吉区,公園南矢田３丁目１７－２０Ｈｏｂｂｉｅｚ公園南２－１０,,27,121,5460024,,,,,,,2024-10-25,1,,,,,ココ,0
2030,8120001269796,新規,0,2024-10-25,2024-10-25,株式会社丸隆商店,,株式会社,大阪府,大阪市福島区,大開１丁目７番４号,,27,103,5530007,,,,,,,2024-10-25,1,,,,,マルタカショウテン,0
2034,8120003027830,新規,0,2024-10-25,2024-10-25,合同会社ｖｉｖｉ,,合同会社,大阪府,大阪市淀川区,新高３丁目２番２７号,,27,123,5320033,,,,,,,2024-10-25,1,,,,,ヴィヴィ,0
2042,8130001078197,新規,0,2024-10-25,2024-10-25,株式会社クレインズ,,株式会社,京都府,亀岡市,篠町篠上北裏５９番地,,26,206,6210826,,,,,,,2024-10-25,1,,,,,クレインズ,0
2048,8140001136193,新規,0,2024-10-25,2024-10-25,株式会社ＨＯＣＨＩＫＵ,,株式会社,兵庫県,明石市,二見町東二見１７９番地ネオハイツ明石東二見４０４号,,28,203,6740092,,,,,,,2024-10-25,1,,,,,ホウチク,0
2049,8140001136219,新規,0,2024-10-25,2024-10-25,ミリーゼ介護行政学園株式会社,,株式会社,兵庫県,神戸市須磨区,高倉台５丁目３番８号,,28,107,6540081,,,,,,,2024-10-25,1,,,,,ミリーゼカイゴギョウセイガクエン,0
2051,8160001026302,新規,0,2024-10-25,2024-10-25,株式会社ｍｕｎｉ,,株式会社,滋賀県,大津市,月輪５丁目２４番１号,,25,201,5202152,,,,,,,2024-10-25,1,,,,,ムニ,0
2054,8170001018356,新規,0,2024-10-25,2024-10-25,株式会社宮本工務店,,株式会社,和歌山県,西牟婁郡上富田町,生馬４７０,,30,404,6492103,,,,,,,2024-10-25,1,,,,,ミヤモトコウムテン,0
2055,8170003002119,新規,0,2024-10-25,2024-10-25,合同会社ＮＥＸＴ　ＳＴＡＧＥ,,合同会社,和歌山県,田辺市,湊４５番３１号２Ｆ,,30,206,6460031,,,,,,,2024-10-25,1,,,,,ネクストステージ,0
2062,8200003006561,新規,0,2024-10-25,2024-10-25,インフォマイズ合同会社,,合同会社,岐阜県,岐阜市,加納天神町１丁目１０－３,,21,201,5008473,,,,,,,2024-10-25,1,,,,,インフォマイズ,0
2070,8240001063997,新規,0,2024-10-25,2024-10-25,株式会社ＴＲＹ　ＣＲＡＦＴ,,株式会社,広島県,安芸郡海田町,寺迫２丁目４番２０－１０４号,,34,304,7360011,,,,,,,2024-10-25,1,,,,,トライクラフト,0
2071,8240001064005,新規,0,2024-10-25,2024-10-25,株式会社Ｈｏｍｅ,,株式会社,広島県,広島市東区,牛田東２丁目１６－１４,,34,102,7320063,,,,,,,2024-10-25,1,,,,,ホーム,0
2077,8290001107725,新規,0,2024-10-25,2024-10-25,ＢｌｏｏｍＨｕｂ株式会社,,株式会社,福岡県,福岡市中央区,薬院１丁目１６－１４－３０１,,40,133,8100022,,,,,,,2024-10-25,1,,,,,ブルームハブ,0
2079,8290003015983,新規,0,2024-10-25,2024-10-25,合同会社Ｙａｍａｓａｋｉ,,合同会社,福岡県,福岡市早良区,田村３丁目２４番３９－２号,,40,137,8140175,,,,,,,2024-10-25,1,,,,,ヤマサキ,0
2080,8290003015991,新規,0,2024-10-25,2024-10-25,合同会社Ｒｏｏｔ　ｆｏｒ,,合同会社,福岡県,福岡市中央区,大濠２丁目１３番４４－５０１号セレンシオ大濠二丁目,,40,133,8100052,,,,,,,2024-10-25,1,,,,,ルートフォー,0
2081,8290005019545,新規,0,2024-10-25,2024-10-25,一般社団法人行政エンジニア支援機構,,その他の設立登記法人,福岡県,福岡市東区,香椎駅前２丁目１１番２１－６０１号,,40,131,8130013,,,,,,,2024-10-25,1,,,,,ギョウセイエンジニアシエンキコウ,0
2090,8360003014417,新規,0,2024-10-25,2024-10-25,合同会社ＢＲＩＧＨＴＥＮＩＮＧＢＥＡＵＴＹＬＡＢＯ,,合同会社,沖縄県,中頭郡読谷村,字瀬名波１２０番地１,,47,324,9040325,,,,,,,2024-10-25,1,,,,,ブライトニングビューティーラボ,0
2091,8370001051857,新規,0,2024-10-25,2024-10-25,株式会社ＴＷＯＴＯＰ,,株式会社,宮城県,名取市,相互台３丁目１５番地の１,,04,207,9811246,,,,,,,2024-10-25,1,,,,,ツートップ,0
2107,8430001092936,新規,0,2024-10-25,2024-10-25,株式会社リム・中河コーポレーション,,株式会社,北海道,札幌市北区,拓北七条５丁目２番２６号,,01,102,0028067,,,,,,,2024-10-25,1,,,,,リムナカガワコーポレーション,0
2110,8450001014434,新規,0,2024-10-25,2024-10-25,株式会社ワイズ,,株式会社,北海道,旭川市,春光台一条５丁目４番３号,,01,204,0718141,,,,,,,2024-10-25,1,,,,,ワイズ,0
2115,8500001025962,新規,0,2024-10-25,2024-10-25,株式会社ヤマモト設備,,株式会社,愛媛県,松山市,久保３２８番地１,,38,201,7992462,,,,,,,2024-10-25,1,,,,,ヤマモトセツビ,0
2116,8500003003355,新規,0,2024-10-25,2024-10-25,合同会社リーベ,,合同会社,愛媛県,松山市,立花４丁目３－１６カーサパシフィカタクセン２０３号,,38,201,7900966,,,,,,,2024-10-25,1,,,,,リーベ,0
2120,8700150127580,新規,0,2024-10-25,2024-10-25,ＷＵＪＩ　Ｉ　Ｌｔｄ．,,外国会社等,,,,,,,,Ｌｅ　Ｓａｍａｌｅｌｅ　Ｃｏｍｐｅｌｅｘ，Ａｐｉａ，Ｓａｍｏａ,,,,,,2024-10-25,1,,,,,ウジーリミテツド,0
2134,9010001249338,新規,0,2024-10-25,2024-10-25,Ｆコミュニティ株式会社,,株式会社,東京都,中央区,銀座１丁目１２番４号,,13,102,1040061,,,,,,,2024-10-25,1,,,,,エフコミュニティ,0
2135,9010001249395,新規,0,2024-10-25,2024-10-25,株式会社ＭＪマーケティング,,株式会社,東京都,中央区,日本橋富沢町２番５号ＳＵビル３Ｆ,,13,102,1030006,,,,,,,2024-10-25,1,,,,,エムジェイマーケティング,0
2138,9010003045280,新規,0,2024-10-25,2024-10-25,合同会社よい週末,,合同会社,東京都,文京区,本駒込３丁目１０番９号,,13,105,1130021,,,,,,,2024-10-25,1,,,,,ヨイシュウマツ,0
2139,9010003045289,新規,0,2024-10-25,2024-10-25,合同会社ラッキーセブン,,合同会社,東京都,中央区,銀座１丁目１２番４号Ｎ＆ＥＢＬＤ．７階,,13,102,1040061,,,,,,,2024-10-25,1,,,,,ラッキーセブン,0
2140,9010003045297,新規,0,2024-10-25,2024-10-25,プレイス合同会社,,合同会社,東京都,文京区,本郷５丁目１５番５－１０５号,,13,105,1130033,,,,,,,2024-10-25,1,,,,,プレイス,0
2141,9010003045322,新規,0,2024-10-25,2024-10-25,オフィスワイユー合同会社,,合同会社,東京都,中央区,銀座１丁目１２－４Ｎ＆Ｅ．ＢＬＤ．７階,,13,102,1040061,,,,,,,2024-10-25,1,,,,,オフィスワイユー,0
2149,9010401185959,新規,0,2024-10-25,2024-10-25,株式会社ガレリアエスト,,株式会社,東京都,港区,西新橋２丁目９番９号,,13,103,1050003,,,,,,,2024-10-25,1,,,,,ガレリアエスト,0
2150,9010401185983,新規,0,2024-10-25,2024-10-25,株式会社ＫＯＵ　ＰＲＥＭＩＵＭ,,株式会社,東京都,港区,芝浦４丁目２０番２－４８０７号,,13,103,1080023,,,,,,,2024-10-25,1,,,,,コウプレミアム,0
2160,9010405023693,新規,0,2024-10-25,2024-10-25,札幌マネジメント一般社団法人,,その他の設立登記法人,東京都,港区,六本木１丁目６番１号泉ガーデンタワー,,13,103,1060032,,,,,,,2024-10-25,1,,,,,サッポロマネジメント,0
2163,9010701046737,新規,0,2024-10-25,2024-10-25,株式会社るりいろ,,株式会社,東京都,品川区,豊町４丁目２－６こうのハイツ１０３,,13,109,1420042,,,,,,,2024-10-25,1,,,,,ルリイロ,0
2165,9010703007398,新規,0,2024-10-25,2024-10-25,合同会社ストレージ滋賀１号蓄電所,,合同会社,東京都,品川区,西大井６丁目１２番１８号,,13,109,1400015,,,,,,,2024-10-25,1,,,,,ストレージシガイチゴウチクデンショ,0
2166,9010703007407,新規,0,2024-10-25,2024-10-25,トドロキホールディングス合同会社,,合同会社,東京都,品川区,上大崎３丁目１番１号目黒セントラルスクエア１５階,,13,109,1410021,,,,,,,2024-10-25,1,,,,,トドロキホールディングス,0
2168,9010801035499,新規,0,2024-10-25,2024-10-25,株式会社フジエンタープライズ,,株式会社,東京都,大田区,西蒲田６丁目２６番３号,,13,111,1440051,,,,,,,2024-10-25,1,,,,,フジエンタープライズ,0
2169,9010801035508,新規,0,2024-10-25,2024-10-25,株式会社リードスコア,,株式会社,東京都,大田区,大森西５丁目２９番３号－３０１,,13,111,1430015,,,,,,,2024-10-25,1,,,,,リードスコア,0
2170,9010803005137,新規,0,2024-10-25,2024-10-25,合同会社エフベースカンパニー,,合同会社,東京都,大田区,大森東４丁目３５番７号,,13,111,1430012,,,,,,,2024-10-25,1,,,,,エフベースカンパニー,0
2176,9011001165384,新規,0,2024-10-25,2024-10-25,株式会社プライムファクトリー,,株式会社,東京都,渋谷区,恵比寿西２丁目４番８号ウィンド恵比寿ビル８Ｆ,,13,113,1500021,,,,,,,2024-10-25,1,,,,,プライムファクトリー,0
2181,9011101109175,新規,0,2024-10-25,2024-10-25,株式会社ジャンパップ,,株式会社,東京都,新宿区,下落合３丁目２－１７ＭＦビル,,13,104,1610033,,,,,,,2024-10-25,1,,,,,ジャンパップ,0
2182,9011101109183,新規,0,2024-10-25,2024-10-25,ワークライフ株式会社,,株式会社,東京都,新宿区,新宿２丁目５番１５号小菅ビル３０１号室,,13,104,1600022,,,,,,,2024-10-25,1,,,,,ワークライフ,0
2183,9011101109225,新規,0,2024-10-25,2024-10-25,株式会社Ｂｕｂｂｌｅ,,株式会社,東京都,新宿区,若松町７番１－１３０８号,,13,104,1620056,,,,,,,2024-10-25,1,,,,,バブル,0
2184,9011101109349,新規,0,2024-10-25,2024-10-25,株式会社森野,,株式会社,東京都,新宿区,西新宿５丁目５番１－３３１２号,,13,104,1600023,,,,,,,2024-10-25,1,,,,,モリノ,0
2188,9011103015074,新規,0,2024-10-25,2024-10-25,ＹＨＹ合同会社,,合同会社,東京都,新宿区,西新宿３丁目３番１３号西新宿水間ビル６階,,13,104,1600023,,,,,,,2024-10-25,1,,,,,ワイエイチワイ,0
2189,9011103015108,新規,0,2024-10-25,2024-10-25,ＹＵＲＵ　ＧＬＯＢＡＬ合同会社,,合同会社,東京都,新宿区,西新宿４丁目２３－６ハイムフォールリヒター２０６号室,,13,104,1600023,,,,,,,2024-10-25,1,,,,,ユルグローバル,0
2190,9011103015116,新規,0,2024-10-25,2024-10-25,アイビーウィット合同会社,,合同会社,東京都,新宿区,新宿７丁目１２番１号新宿平和ビル１階,,13,104,1600022,,,,,,,2024-10-25,1,,,,,アイビーウィット,0
2192,9011201025883,新規,0,2024-10-25,2024-10-25,株式会社ＤａｌＳｅｇｎｏ,,株式会社,東京都,中野区,大和町３丁目９番１４号アイコート中野大和町１０８,,13,114,1650034,,,,,,,2024-10-25,1,,,,,ダルセーニョ,0
2196,9011701027751,新規,0,2024-10-25,2024-10-25,星辰株式会社,,株式会社,東京都,江戸川区,平井３丁目１９－１９,,13,123,1320035,,,,,,,2024-10-25,1,,,,,セイシン,0
2201,9011801045034,新規,0,2024-10-25,2024-10-25,株式会社Ｌｏｉｓｉｒｓ,,株式会社,東京都,葛飾区,亀有２丁目５８番１号コンドミニアム亀有Ａ棟１０２,,13,122,1250061,,,,,,,2024-10-25,1,,,,,ロワジール,0
2225,9020003027105,新規,0,2024-10-25,2024-10-25,Ｖｇｕａｒｄ合同会社,,合同会社,神奈川県,横浜市港南区,港南２丁目１７番５６号,,14,111,2330003,,,,,,,2024-10-25,1,,,,,ブイガード,0
2226,9020003027121,新規,0,2024-10-25,2024-10-25,合同会社クァンテサンス,,合同会社,神奈川県,横浜市港北区,大倉山２丁目７－４７,,14,109,2220037,,,,,,,2024-10-25,1,,,,,クァンテサンス,0
2238,9030001162984,新規,0,2024-10-25,2024-10-25,Ｎｅｘｔｒａｍｉｌｅｓ株式会社,,株式会社,埼玉県,さいたま市南区,沼影１丁目８番１ー１４１８号,,11,108,3360027,,,,,,,2024-10-25,1,,,,,,0
2239,9030001163082,新規,0,2024-10-25,2024-10-25,株式会社鈴木工業,,株式会社,埼玉県,越谷市,北越谷４丁目１５番２号プリンセス黒田１０７,,11,222,3430026,,,,,,,2024-10-25,1,,,,,スズキコウギョウ,0
2240,9030001163124,新規,0,2024-10-25,2024-10-25,株式会社ｍｉｉ,,株式会社,埼玉県,川口市,桜町１丁目２－１８リブリ・チリエージョＤ１,,11,203,3340001,,,,,,,2024-10-25,1,,,,,エムアイアイ,0
2242,9030003025363,新規,0,2024-10-25,2024-10-25,合同会社城北工業,,合同会社,埼玉県,さいたま市岩槻区,大字馬込９４８番地９,,11,110,3390077,,,,,,,2024-10-25,1,,,,,ジョウホクコウギョウ,0
2243,9030003025371,新規,0,2024-10-25,2024-10-25,Ｌｉｔｍｅ合同会社,,合同会社,埼玉県,草加市,旭町５丁目８番８号２Ｆ,,11,221,3400053,,,,,,,2024-10-25,1,,,,,リトミー,0
2246,9040001135915,新規,0,2024-10-25,2024-10-25,株式会社池丸屋六代目政次郎,,株式会社,千葉県,船橋市,大穴南２丁目６番１５号,,12,204,2740067,,,,,,,2024-10-25,1,,,,,イケマルヤロクダイメマサジロウ,0
2247,9040001135931,新規,0,2024-10-25,2024-10-25,聖元商事株式会社,,株式会社,千葉県,柏市,東逆井１丁目１６番１０号,,12,217,2770045,,,,,,,2024-10-25,1,,,,,セイゲンショウジ,0
2257,9040003026055,新規,0,2024-10-25,2024-10-25,ミシモ合同会社,,合同会社,千葉県,八千代市,緑が丘西４丁目９番地１９,,12,221,2760040,,,,,,,2024-10-25,1,,,,,ミシモ,0
2258,9040003026063,新規,0,2024-10-25,2024-10-25,Ｍ’ｓ　ｓｏｌｕｔｉｏｎ合同会社,,合同会社,千葉県,柏市,南増尾２丁目３番３号,,12,217,2770054,,,,,,,2024-10-25,1,,,,,エムズソリューション,0
2260,9050001055567,新規,0,2024-10-25,2024-10-25,株式会社喜助,,株式会社,茨城県,土浦市,城北町１８番７号,,08,203,3000042,,,,,,,2024-10-25,1,,,,,キスケ,0
2261,9050001055591,新規,0,2024-10-25,2024-10-25,株式会社相野谷電工,,株式会社,茨城県,坂東市,弓田８２５番地２,,08,228,3060607,,,,,,,2024-10-25,1,,,,,アイノヤデンコウ,0
2266,9050003008738,新規,0,2024-10-25,2024-10-25,Ａｒｔ　ａｎｄ　Ｄｅｓｉｇｎ　Ｌａｂ合同会社,,合同会社,茨城県,つくば市,みどりの中央６番地４奥ビル３０２号,,08,220,3050882,,,,,,,2024-10-25,1,,,,,アートアンドデザインラボ,0
2273,9060003005296,新規,0,2024-10-25,2024-10-25,合同会社ＮＯＺＡＷＡＭ,,合同会社,栃木県,那須塩原市,東原３１９番地,,09,213,3250034,,,,,,,2024-10-25,1,,,,,ノザワエム,0
2287,9090001018966,新規,0,2024-10-25,2024-10-25,株式会社ＨＴメック,,株式会社,山梨県,中央市,木原９３９番地１,,19,214,4001511,,,,,,,2024-10-25,1,,,,,エイチティメック,0
2293,9100003007825,新規,0,2024-10-25,2024-10-25,合同会社ＲｅＳｔａｒｔ,,合同会社,長野県,松本市,大字島立９００穂上ビル３Ｆ,,20,202,3900852,,,,,,,2024-10-25,1,,,,,リスタート,0
2294,9100003007833,新規,0,2024-10-25,2024-10-25,Ｙａｍａｈｉｍｅ合同会社,,合同会社,長野県,上水内郡信濃町,大字野尻３８８４番地５５６,,20,583,3891303,,,,,,,2024-10-25,1,,,,,ヤマヒメ,0
2308,9120001269705,新規,0,2024-10-25,2024-10-25,株式会社成,,株式会社,大阪府,大阪市生野区,鶴橋１丁目４番５号,,27,116,5440031,,,,,,,2024-10-25,1,,,,,ジョウ,0
2309,9120001269713,新規,0,2024-10-25,2024-10-25,株式会社ＫＮＣ,,株式会社,大阪府,大阪市東成区,東中本１丁目１６番１４号,,27,115,5370021,,,,,,,2024-10-25,1,,,,,ケーエヌシー,0
2311,9120003027821,新規,0,2024-10-25,2024-10-25,ｗｉｓｅｊａｐａｎ合同会社,,合同会社,大阪府,大阪市淀川区,新北野１丁目１２番３－５０５号,,27,123,5320025,,,,,,,2024-10-25,1,,,,,ワイズジャパン,0
2312,9120101070442,新規,0,2024-10-25,2024-10-25,株式会社ワン・エイトセキュリティー,,株式会社,大阪府,堺市西区,浜寺石津町中２丁６番４０号,,27,144,5928334,,,,,,,2024-10-25,1,,,,,ワンエイトセキュリティー,0
2313,9120103006106,新規,0,2024-10-25,2024-10-25,合同会社ＳＴＯＣＫ,,合同会社,大阪府,松原市,東新町５丁目２－２３ワンズテラス高見の里Ｃ－２,,27,217,5800024,,,,,,,2024-10-25,1,,,,,ストック,0
2315,9122001038569,新規,0,2024-10-25,2024-10-25,Ｔｏｍ’ｓ　Ｇａｒａｇｅ株式会社,,株式会社,大阪府,八尾市,八尾木４丁目３２番地,,27,212,5810027,,,,,,,2024-10-25,1,,,,,トムズガレージ,0
2316,9130001078205,新規,0,2024-10-25,2024-10-25,まえかぶ株式会社,,株式会社,京都府,京都市南区,四ツ塚町５３番地１,00136749,26,107,6018474,,,,,,,2024-10-25,1,,,,,マエカブ,0
2318,9130003009950,新規,0,2024-10-25,2024-10-25,合同会社アライブ,,合同会社,京都府,宇治市,槇島町大幡４番地,,26,204,6110041,,,,,,,2024-10-25,1,,,,,アライブ,0
2323,9140003021236,新規,0,2024-10-25,2024-10-25,合同会社松岡瓦店,,合同会社,兵庫県,丹波篠山市,川北８０５番地,,28,221,6692724,,,,,,,2024-10-25,1,,,,,マツオカカワラテン,0
2332,9180003027510,新規,0,2024-10-25,2024-10-25,合同会社Ｙ２Ｒ,,合同会社,愛知県,大府市,横根町狐山１０６－３４,,23,223,4740011,,,,,,,2024-10-25,1,,,,,ワイツーアール,0
2333,9180003027519,新規,0,2024-10-25,2024-10-25,尾張トレーディング合同会社,,合同会社,愛知県,名古屋市昭和区,松風町２丁目１９番地１０８号,,23,107,4660035,,,,,,,2024-10-25,1,,,,,オワリトレーディング,0
2337,9190001031752,新規,0,2024-10-25,2024-10-25,株式会社ヤナギ農業商事,,株式会社,三重県,伊賀市,炊村３０２番地１,,24,216,5181403,,,,,,,2024-10-25,1,,,,,ヤナギノウギョウショウジ,0
2338,9190003004839,新規,0,2024-10-25,2024-10-25,合同会社ソルト,,合同会社,三重県,鈴鹿市,道伯２丁目３‐１６,,24,207,5130823,,,,,,,2024-10-25,1,,,,,ソルト,0
2340,9200003006560,新規,0,2024-10-25,2024-10-25,ＳＹＮＧ合同会社,,合同会社,岐阜県,岐阜市,美園町４丁目３３番地,,21,201,5008104,,,,,,,2024-10-25,1,,,,,シング,0
2343,9230001020585,新規,0,2024-10-25,2024-10-25,株式会社Ｎ‐ＬｉｆｅＤｅｓｉｇｎ．,,株式会社,富山県,高岡市,五福町２‐２２朝倉ビル２Ｆ,,16,202,9330906,,,,,,,2024-10-25,1,,,,,エヌライフデザイン,0
2348,9260003004939,新規,0,2024-10-25,2024-10-25,合同会社ＩＥＫＩ,,合同会社,岡山県,岡山市北区,北長瀬表町２丁目３番２３号,,33,101,7000962,,,,,,,2024-10-25,1,,,,,イエキ,0
2368,9290001107724,新規,0,2024-10-25,2024-10-25,株式会社Ｌｉｂｒｅｓｓａ,,株式会社,福岡県,福岡市中央区,地行３丁目１６番１２－７０３号,,40,133,8100064,,,,,,,2024-10-25,1,,,,,リブレッサ,0
2369,9290001107732,新規,0,2024-10-25,2024-10-25,株式会社櫻,,株式会社,福岡県,福岡市早良区,原５丁目１５番１５号,,40,137,8140022,,,,,,,2024-10-25,1,,,,,サクラ,0
2370,9290001107740,新規,0,2024-10-25,2024-10-25,株式会社ヨカコネクト,,株式会社,福岡県,福岡市博多区,堅粕１丁目１番１－５０６号,,40,132,8120043,,,,,,,2024-10-25,1,,,,,ヨカコネクト,0
2371,9290001107765,新規,0,2024-10-25,2024-10-25,株式会社コアコネクト,,株式会社,福岡県,福岡市東区,水谷３丁目２６番２３－７０２号,,40,131,8130041,,,,,,,2024-10-25,1,,,,,コアコネクト,0
2372,9290005019544,新規,0,2024-10-25,2024-10-25,一般社団法人福岡市卓球プロジェクト,,その他の設立登記法人,福岡県,福岡市西区,生の松原３丁目２番１２号,,40,135,8190055,,,,,,,2024-10-25,1,,,,,フクオカシタッキュウプロジェクト,0
2375,9290801030992,新規,0,2024-10-25,2024-10-25,株式会社プラザアセッツ,,株式会社,福岡県,北九州市門司区,西海岸１丁目３番１号,,40,101,8010841,,,,,,,2024-10-25,1,,,,,プラザアセッツ,0
2378,9300005007209,新規,0,2024-10-25,2024-10-25,一般社団法人サガン鳥栖スポーツクラブ,,その他の設立登記法人,佐賀県,鳥栖市,京町８１２番地,,41,203,8410034,,,,,,,2024-10-25,1,,,,,サガントススポーツクラブ,0
2387,9360001034358,新規,0,2024-10-25,2024-10-25,株式会社うやまし,,株式会社,沖縄県,浦添市,経塚１丁目１３番２２号,00136748,47,208,9012111,,,,,,,2024-10-25,1,,,,,ウヤマシ,0
2388,9360001034374,新規,0,2024-10-25,2024-10-25,株式会社ａｉｇａ,,株式会社,沖縄県,石垣市,字川平１２１８番地１５１東号,,47,207,9070453,,,,,,,2024-10-25,1,,,,,アイガ,0
2391,9360003014424,新規,0,2024-10-25,2024-10-25,龍の花合同会社,,合同会社,沖縄県,南城市,大里字古堅１３３２,,47,215,9011207,,,,,,,2024-10-25,1,,,,,リュウノハナ,0
2393,9370001051856,新規,0,2024-10-25,2024-10-25,株式会社教育システムＦｏｒ　Ｋｉｄｓ,,株式会社,宮城県,仙台市太白区,萩ケ丘２２番１２号Ｂ１０５,,04,104,9820848,,,,,,,2024-10-25,1,,,,,キョウイクシステムフォアキッズ,0
2398,9410003003999,新規,0,2024-10-25,2024-10-25,合同会社ｔｅａｍ　ＤＣＳ,,合同会社,秋田県,湯沢市,川連町字大舘屋布前６５番地,,05,207,0120105,,,,,,,2024-10-25,1,,,,,チームディーシーエス,0
2402,9430001092902,新規,0,2024-10-25,2024-10-25,株式会社北海道びばい雪うなぎ,,株式会社,北海道,美唄市,字茶志内７２６番２０,,01,215,0720000,,,,,,,2024-10-25,1,,,,,ホッカイドウビバイユキウナギ,0
2403,9430001092927,新規,0,2024-10-25,2024-10-25,株式会社ＭＣサポート,,株式会社,北海道,岩見沢市,七条東６丁目１１番地１５,,01,210,0680007,,,,,,,2024-10-25,1,,,,,エムシーサポート,0
2404,9430001092935,新規,0,2024-10-25,2024-10-25,株式会社鬼山,,株式会社,北海道,札幌市東区,北三十三条東１３丁目３番８号,,01,103,0650033,,,,,,,2024-10-25,1,,,,,キヤマ,0
2413,9480001012632,新規,0,2024-10-25,2024-10-25,株式会社ＰＬＵＭＡ,,株式会社,徳島県,徳島市,佐古一番町６番５号,,36,201,7700021,,,,,,,2024-10-25,1,,,,,プルマ,0
2415,9700150127605,新規,0,2024-10-25,2024-10-25,Ｐｒｏｓｐｅｒｏｕｓ　Ａｓｓｅｔｓ　Ｍａｎａｇｅｍｅｎｔ　Ｃｏ．，Ｌｔｄ．,,外国会社等,,,,,,,,Ｖｉｓｔｒａ　Ｃｏｒｐｏｒａｔｅ　Ｓｅｒｖｉｃｅｓ　Ｃｅｎｔｒｅ，Ｇｒｏｕｎｄ　Ｆｌｏｏｒ　ＮＰＥ　Ｂｕｉｌｄｉｎｇ，Ｂｅａｃｈ　Ｒｏａｄ，Ａｐｉａ,,,,,,2024-10-25,1,,,,,プロスペラスアセツトマネジメントカブシキガイシヤ,0
