sequenceNumber,corporateNumber,process,correct,updateDate,changeDate,name,nameImageId,kind,prefectureName,cityName,streetNumber,addressImageId,prefectureCode,cityCode,postCode,addressOutside,addressOutsideImageId,closeDate,closeCause,successorCorporateNumber,changeCause,assignmentDate,latest,enName,enPrefectureName,enCityName,enAddressOutside,furigana,hihyoji
1,1010001025886,登記記録の閉鎖等,0,2022-12-22,2022-12-19,株式会社ニチワ,,株式会社,東京都,文京区,湯島３丁目９番１１号,,13,105,1130034,,,2022-12-19,清算の結了等,,,2015-10-05,1,,,,,ニチワ,0
4,1010001208813,登記記録の閉鎖等,0,2022-12-22,2022-12-16,株式会社ファクトリーエージェント,,株式会社,東京都,中央区,銀座７丁目１１番１５号,,13,102,1040061,,,2022-12-16,清算の結了等,,,2020-05-01,1,,,,,ファクトリーエージェント,0
5,1010001225602,登記記録の閉鎖等,0,2022-12-22,2022-12-16,東京食品流通センター株式会社,,株式会社,東京都,千代田区,西神田２丁目６番１号,,13,101,1010065,,,2022-12-16,清算の結了等,,,2022-04-11,1,,,,,トウキョウショクヒンリュウツウセンター,0
61,1020001100779,登記記録の閉鎖等,0,2022-12-22,2022-12-15,エム・リフィッテリア株式会社,,株式会社,東京都,台東区,柳橋２丁目１９番６号,,13,106,1110052,,,2022-12-15,清算の結了等,,,2015-10-05,1,,,,,エムリフィッテリア,0
83,1030001050750,登記記録の閉鎖等,0,2022-12-22,2022-12-20,株式会社アライ興産,,株式会社,埼玉県,春日部市,豊町４丁目１番地１０,,11,214,3440066,,,2022-12-20,清算の結了等,,,2022-12-09,1,,,,,アライコウサン,0
88,1030002081299,登記記録の閉鎖等,0,2022-12-22,2022-12-15,有限会社クリーン工事,,有限会社,埼玉県,本庄市,児玉町飯倉２５０番地４,,11,211,3670225,,,2022-12-15,清算の結了等,,,2015-10-05,1,,,,,クリーンコウジ,0
107,1050002038537,登記記録の閉鎖等,0,2022-12-22,2022-12-19,有限会社小沼新聞舗,,有限会社,茨城県,取手市,新町５丁目１１番３号,,08,217,3020024,,,2022-12-19,清算の結了等,,,2015-10-05,1,,,,,オヌマシンブンホ,0
115,1080405000280,登記記録の閉鎖等,0,2022-12-22,2022-12-07,医療法人社団三宝会,,その他の設立登記法人,静岡県,浜松市西区,西鴨江町６２１番地,,22,133,4328067,,,2022-12-07,合併による解散等,9080405005297,令和４年１２月１日愛知県豊橋市平川南町７３番地医療法人社団三遠メディメイツ（9080405005297）に合併し解散,2015-10-05,1,,,,,サンポウカイ,0
118,1110003000010,登記記録の閉鎖等,0,2022-12-22,2022-12-19,合名会社高杉商店,,合名会社,新潟県,新潟市中央区,上大川前通７番町１２３３番地,,15,103,9518068,,,2022-12-19,清算の結了等,,,2015-10-05,1,,,,,タカスギショウテン,0
121,1120001153073,登記記録の閉鎖等,0,2022-12-22,2022-12-20,株式会社セレカコーポレーション,,株式会社,大阪府,寝屋川市,成田南町３番２号,,27,215,5720003,,,2022-12-20,清算の結了等,,,2015-10-05,1,,,,,セレカコーポレーション,0
128,1120101041871,登記記録の閉鎖等,0,2022-12-22,2022-12-21,株式会社フジックス,,株式会社,大阪府,和泉市,福瀬町１１８４番地の１,,27,219,5941123,,,2022-12-21,清算の結了等,,,2015-10-05,1,,,,,フジックス,0
130,1120901038407,登記記録の閉鎖等,0,2022-12-22,2022-12-12,ＢＯＯＭＩＮＧ　ＴＥＣＨＮＯＬＯＧＹ株式会社,,株式会社,大阪府,豊中市,中桜塚２丁目６番１２号,,27,203,5610881,,,2022-12-12,清算の結了等,,,2017-05-09,1,,,,,ブーミングテクノロジー,0
131,1122001019535,登記記録の閉鎖等,0,2022-12-22,2022-12-20,株式会社仲商店,,株式会社,大阪府,八尾市,萱振町５丁目１１番地の１５,,27,212,5810834,,,2022-12-20,清算の結了等,,,2015-10-05,1,,,,,ナカショウテン,0
144,1140005010038,登記記録の閉鎖等,0,2022-12-22,2022-12-20,特定非営利活動法人シニアエージェント,,その他の設立登記法人,兵庫県,加古川市,米田町平津３８番地の１０,,28,210,6750054,,,2022-12-20,清算の結了等,,,2015-10-05,1,,,,,シニアエージェント,0
146,1160001005907,登記記録の閉鎖等,0,2022-12-22,2022-12-20,株式会社マルコシ,,株式会社,岐阜県,岐阜市,今町２丁目１番地,,21,201,5008023,,,2022-12-20,清算の結了等,,,2015-10-05,1,,,,,マルコシ,0
152,1180001070676,登記記録の閉鎖等,0,2022-12-22,2022-12-13,株式会社ヤック,,株式会社,愛知県,名古屋市北区,平安２丁目１３番１６号,,23,103,4620819,,,2022-12-13,清算の結了等,,,2015-10-05,1,,,,,ヤック,0
162,1180002005557,登記記録の閉鎖等,0,2022-12-22,2022-12-16,有限会社吉岡商店,,有限会社,愛知県,名古屋市千種区,丸山町２丁目９番地の３,,23,101,4640843,,,2022-12-16,清算の結了等,,,2015-10-05,1,,,,,ヨシオカショウテン,0
167,1180301012873,登記記録の閉鎖等,0,2022-12-22,2022-12-19,株式会社光陽,,株式会社,愛知県,安城市,二本木新町１丁目１番地８,,23,212,4460075,,,2022-12-19,清算の結了等,,,2015-10-05,1,,,,,コウヨウ,0
173,1210001014043,登記記録の閉鎖等,0,2022-12-22,2022-12-20,株式会社明輪社,,株式会社,福井県,小浜市,伏原２２号４番地,,18,204,9170054,,,2022-12-20,清算の結了等,,,2015-10-05,1,,,,,メイリンシャ,0
207,1360001019003,登記記録の閉鎖等,0,2022-12-22,2022-12-01,株式会社エヌホームナーシング,,株式会社,沖縄県,那覇市,小禄５丁目１６番１号,,47,201,9010152,,,2022-12-01,合併による解散等,6360001028263,令和４年１２月１日沖縄県島尻郡南風原町照屋２０－５野原店舗１０２号株式会社ゆいゆい（6360001028263）に合併し解散,2015-10-05,1,,,,,エヌホームナーシング,0
236,1490002013413,登記記録の閉鎖等,0,2022-12-22,2022-12-19,有限会社山岡ブロック建材,,有限会社,高知県,香南市,野市町東野９９５番地,,39,211,7815213,,,2022-12-19,清算の結了等,,,2022-03-30,1,,,,,ヤマオカブロックケンザイ,0
244,2010001168544,登記記録の閉鎖等,0,2022-12-22,2022-12-20,株式会社ＴＷＳ,,株式会社,静岡県,三島市,本町１番２号,,22,206,4110855,,,2022-12-20,清算の結了等,,,2015-10-05,1,,,,,ティーダブリューエス,0
246,2010001199440,登記記録の閉鎖等,0,2022-12-22,2022-12-02,株式会社ＣｙｂｅｒＫｎｏｔ,,株式会社,東京都,港区,南麻布３丁目１９番２３号オーク南麻布ビル８階,,13,103,1060047,,,2022-12-02,合併による解散等,2010001196223,令和４年１２月１日東京都港区南麻布三丁目１９番２３号オーク南麻布ビル８階Ｍａｔｔｒｚ株式会社（2010001196223）に合併し解散,2019-03-20,1,,,,,サイバーノット,0
252,2010003019456,登記記録の閉鎖等,0,2022-12-22,2022-12-19,芝浦四丁目開発合同会社,,合同会社,東京都,千代田区,神田神保町１丁目１１番地さくら綜合事務所内,,13,101,1010051,,,2022-12-19,清算の結了等,,,2015-10-05,1,,,,,シバウラヨンチョウメカイハツ,0
260,2010402010057,登記記録の閉鎖等,0,2022-12-22,2022-12-13,有限会社之介,,有限会社,東京都,港区,新橋３丁目１６番７号,,13,103,1050004,,,2022-12-13,清算の結了等,,,2015-10-05,1,,,,,ノスケ,0
264,2010601051884,登記記録の閉鎖等,0,2022-12-22,2022-12-02,株式会社Ｆｒｅｅ　Ｓｐａｒｋ,,株式会社,東京都,港区,南麻布３丁目１９番２３号オーク南麻布ビル８階,,13,103,1060047,,,2022-12-02,合併による解散等,2010001196223,令和４年１２月１日東京都港区南麻布三丁目１９番２３号オーク南麻布ビル８階Ｍａｔｔｒｚ株式会社（2010001196223）に合併し解散,2017-07-13,1,,,,,フリースパーク,0
265,2010605003485,登記記録の閉鎖等,0,2022-12-22,2022-12-15,ジーナイン・ジャパン・シックス特定目的会社,,その他の設立登記法人,東京都,江東区,亀戸６丁目５６番１５号,,13,108,1360071,,,2022-12-15,清算の結了等,,,2017-12-19,1,,,,,ジーナインジャパンシックス,0
325,2030001083857,登記記録の閉鎖等,0,2022-12-22,2022-12-16,株式会社ジャスタフェイズ,,株式会社,埼玉県,所沢市,小手指町１丁目４２番地の２３ゆたかびる３０１号,,11,208,3591141,,,2022-12-16,清算の結了等,,,2015-10-05,1,,,,,ジャスタフェイズ,0
328,2030001138702,登記記録の閉鎖等,0,2022-12-22,2022-12-15,株式会社ジャパンベト,,株式会社,埼玉県,蕨市,中央２丁目２番７号メゾンド中央２０６号室,,11,223,3350004,,,2022-12-15,清算の結了等,,,2020-10-13,1,,,,,ジャパンベト,0
330,2030002120007,登記記録の閉鎖等,0,2022-12-22,2022-12-15,有限会社縣写真事務所,,有限会社,埼玉県,鶴ヶ島市,脚折町３丁目２９番３０号,,11,241,3502211,,,2022-12-15,清算の結了等,,,2015-10-05,1,,,,,アガタシャシンジムショ,0
344,2040005019773,登記記録の閉鎖等,0,2022-12-22,2022-12-15,特定非営利活動法人袖ケ浦を輝かせる会,,その他の設立登記法人,千葉県,袖ケ浦市,長浦駅前２丁目１４番地１２,,12,229,2990246,,,2022-12-15,清算の結了等,,,2017-12-01,1,,,,,ソデガウラヲカガヤカセルカイ,0
352,2050002019759,登記記録の閉鎖等,0,2022-12-22,2022-12-16,有限会社オチアイ電設工業,,有限会社,茨城県,坂東市,大口１９０７番地の２,,08,228,3060615,,,2022-12-16,清算の結了等,,,2015-10-05,1,,,,,オチアイデンセツコウギョウ,0
358,2080401025280,登記記録の閉鎖等,0,2022-12-22,2022-12-21,株式会社ＫＩＭ　ＡＮ,,株式会社,静岡県,浜松市西区,雄踏町山崎４６７０番地の５,,22,133,4310101,,,2022-12-21,清算の結了等,,,2021-08-20,1,,,,,キムアン,0
361,2100002001406,登記記録の閉鎖等,0,2022-12-22,2022-12-21,有限会社靴のあさひや,,有限会社,長野県,長野市,大字鶴賀権堂町２３１３番地,,20,201,3800833,,,2022-12-21,清算の結了等,,,2015-10-05,1,,,,,クツノアサヒヤ,0
362,2100002002957,登記記録の閉鎖等,0,2022-12-22,2022-12-20,有限会社武久商事,,有限会社,長野県,長野市,大字長野立町１１４４番地,,20,201,3800864,,,2022-12-20,清算の結了等,,,2015-10-05,1,,,,,タケヒサショウジ,0
364,2100005004273,登記記録の閉鎖等,0,2022-12-22,2022-12-19,あさま菓子移出協同組合,,その他の設立登記法人,長野県,上田市,常磐城５丁目１番２２号,,20,203,3860027,,,2022-12-19,清算の結了等,,,2015-10-05,1,,,,,アサマカシイシュツ,0
405,2180302013705,登記記録の閉鎖等,0,2022-12-22,2022-12-16,有限会社南惠,,有限会社,愛知県,豊川市,門前町２７番地,,23,207,4420037,,,2022-12-16,清算の結了等,,,2015-10-05,1,,,,,ナンケイ,0
411,2190001014598,登記記録の閉鎖等,0,2022-12-22,2022-12-21,片山計算センター株式会社,,株式会社,三重県,四日市市,久保田１丁目３番４１号,,24,202,5100821,,,2022-12-21,清算の結了等,,,2015-10-05,1,,,,,カタヤマケイサンセンター,0
415,2220001019321,登記記録の閉鎖等,0,2022-12-22,2022-12-20,株式会社オジコジャパン,,株式会社,石川県,野々市市,押野２丁目６６番地,,17,212,9218802,,,2022-12-20,清算の結了等,,,2015-10-05,1,,,,,オジコジャパン,0
426,2240003005318,登記記録の閉鎖等,0,2022-12-22,2022-12-19,合同会社あおぞら,,合同会社,広島県,広島市西区,楠木町１丁目４番１３－７０２号,,34,104,7330002,,,2022-12-19,清算の結了等,,,2021-10-11,1,,,,,アオゾラ,0
441,2360002010174,登記記録の閉鎖等,0,2022-12-22,2022-12-16,有限会社たいら,,有限会社,沖縄県,島尻郡久米島町,字比嘉５５番地の１,,47,361,9013108,,,2022-12-16,清算の結了等,,,2015-10-05,1,,,,,,0
448,2380005007934,登記記録の閉鎖等,0,2022-12-22,2022-12-16,医療法人松徳会,,その他の設立登記法人,福島県,会津若松市,一箕町大字鶴賀字下柳原３４番地,,07,202,9650006,,,2022-12-16,清算の結了等,,,2015-10-05,1,,,,,ショウトクカイ,0
483,3010401010676,登記記録の閉鎖等,0,2022-12-22,2022-12-15,株式会社国際情報リサーチ研究所,,株式会社,神奈川県,横須賀市,浦賀丘２丁目５番１号,,14,201,2390823,,,2022-12-15,清算の結了等,,,2015-10-05,1,,,,,コクサイジョウホウリサーチケンキュウジョ,0
499,3010605001208,登記記録の閉鎖等,0,2022-12-22,2022-12-05,特定非営利活動法人みんなのオペラ,,その他の設立登記法人,東京都,江東区,南砂２丁目３番４－１４１４号,,13,108,1360076,,,2022-12-05,清算の結了等,,,2015-10-05,1,,,,,ミンナノオペラ,0
504,3010901008798,登記記録の閉鎖等,0,2022-12-22,2022-12-20,株式会社ナカムラ,,株式会社,東京都,世田谷区,宮坂１丁目２３番１１号,,13,112,1560051,,,2022-12-20,清算の結了等,,,2015-10-05,1,,,,,,0
514,3011101013218,登記記録の閉鎖等,0,2022-12-22,2022-12-14,株式会社ティー・アール・エー,,株式会社,東京都,小平市,花小金井３丁目２番２８号,,13,211,1870002,,,2022-12-14,清算の結了等,,,2015-10-05,1,,,,,ティーアールエー,0
524,3011502000657,登記記録の閉鎖等,0,2022-12-22,2022-12-15,有限会社磐城製作所,,有限会社,東京都,北区,浮間４丁目１５番２３号,,13,117,1150051,,,2022-12-15,清算の結了等,,,2015-10-05,1,,,,,イワキセイサクショ,0
525,3011502009608,登記記録の閉鎖等,0,2022-12-22,2022-12-15,有限会社竹の湯,,有限会社,東京都,荒川区,町屋１丁目２１番１４号,,13,118,1160001,,,2022-12-15,清算の結了等,,,2015-10-05,1,,,,,,0
540,3020001106163,登記記録の閉鎖等,0,2022-12-22,2022-12-19,株式会社山七,,株式会社,神奈川県,横浜市中区,伊勢佐木町４丁目１１７番地２階,,14,104,2310045,,,2022-12-19,清算の結了等,,,2015-10-05,1,,,,,ヤマシチ,0
546,3020002002238,登記記録の閉鎖等,0,2022-12-22,2022-12-19,有限会社リカーアンドワイン伊東,,有限会社,神奈川県,横浜市瀬谷区,相沢７丁目３６番地の１,,14,114,2460013,,,2022-12-19,清算の結了等,,,2015-10-05,1,,,,,リカーアンドワインイトウ,0
568,3030003015923,登記記録の閉鎖等,0,2022-12-22,2022-12-16,合同会社バーチャル,,合同会社,埼玉県,さいたま市浦和区,領家７丁目１番１－６０３号,,11,107,3300072,,,2022-12-16,清算の結了等,,,2020-09-28,1,,,,,バーチャル,0
578,3040002012433,登記記録の閉鎖等,0,2022-12-22,2022-12-12,有限会社ランナーズ,,有限会社,千葉県,千葉市緑区,おゆみ野４丁目２０番地２,,12,105,2660031,,,2022-12-12,清算の結了等,,,2015-10-05,1,,,,,ランナーズ,0
579,3040002048188,登記記録の閉鎖等,0,2022-12-22,2022-12-16,有限会社ひらさわ,,有限会社,千葉県,松戸市,東平賀５６７番地の２２,,12,207,2700003,,,2022-12-16,清算の結了等,,,2015-10-05,1,,,,,ヒラサワ,0
580,3040002072808,登記記録の閉鎖等,0,2022-12-22,2022-12-12,有限会社金子酒店,,有限会社,千葉県,市原市,青柳２０６４番地,,12,219,2990102,,,2022-12-12,清算の結了等,,,2015-10-05,1,,,,,カネコサケテン,0
588,3050005010615,登記記録の閉鎖等,0,2022-12-22,2022-12-16,特定非営利活動法人北関東木材資源研究会,,その他の設立登記法人,茨城県,常陸大宮市,宮の郷２１５３番地２５,,08,225,3192205,,,2022-12-16,清算の結了等,,,2015-10-05,1,,,,,キタカントウモクザイシゲンケンキュウカイ,0
590,3060002005484,登記記録の閉鎖等,0,2022-12-22,2022-12-16,有限会社大幸開発,,有限会社,栃木県,宇都宮市,宮本町１７番１４号,,09,201,3210163,,,2022-12-16,清算の結了等,,,2015-10-05,1,,,,,ダイコウカイハツ,0
592,3070002019046,登記記録の閉鎖等,0,2022-12-22,2022-12-20,サンワ測量有限会社,,有限会社,群馬県,伊勢崎市,新栄町２２２０番地９,,10,204,3720038,,,2022-12-20,清算の結了等,,,2015-10-05,1,,,,,サンワソクリョウ,0
597,3080402006683,登記記録の閉鎖等,0,2022-12-22,2022-12-21,有限会社ひかり部品製作所,,有限会社,静岡県,浜松市西区,馬郡町１３９４番地,,22,133,4310203,,,2022-12-21,清算の結了等,,,2015-10-05,1,,,,,ヒカリブヒンセイサクショ,0
645,3180002064898,登記記録の閉鎖等,0,2022-12-22,2022-12-19,有限会社あいちクリーニング,,有限会社,愛知県,春日井市,出川町６丁目１０番地の２４,,23,206,4870025,,,2022-12-19,清算の結了等,,,2015-10-05,1,,,,,アイチクリーニング,0
651,3180305002266,登記記録の閉鎖等,0,2022-12-22,2022-12-19,東三河地区生コン卸商協同組合,,その他の設立登記法人,愛知県,豊橋市,馬見塚町１７５番地,,23,201,4418007,,,2022-12-19,清算の結了等,,,2015-10-05,1,,,,,ヒガシミカワチクナマコンオロシショウ,0
654,3200002023463,登記記録の閉鎖等,0,2022-12-22,2022-12-20,有限会社ナルキパック,,有限会社,岐阜県,中津川市,駒場１５０８番地の２４,,21,206,5080011,,,2022-12-20,清算の結了等,,,2015-10-05,1,,,,,ナルキパック,0
658,3220002005724,登記記録の閉鎖等,0,2022-12-22,2022-12-19,有限会社美村機工,,有限会社,石川県,金沢市,寺町３丁目８番１８号,,17,201,9218033,,,2022-12-19,清算の結了等,,,2015-10-05,1,,,,,ミムラキコウ,0
664,3240001060652,登記記録の閉鎖等,0,2022-12-22,2022-12-16,株式会社石井和洋紙店,,株式会社,広島県,尾道市,栗原東２丁目１番４号,,34,205,7220025,,,2022-12-16,清算の結了等,,,2022-11-21,1,,,,,イシイワヨウシテン,0
666,3240002044217,登記記録の閉鎖等,0,2022-12-22,2022-12-20,有限会社アドバンスチケット,,有限会社,広島県,福山市,伏見町１番２号,,34,207,7200062,,,2022-12-20,清算の結了等,,,2015-10-05,1,,,,,アドバンスチケット,0
667,3240002044506,登記記録の閉鎖等,0,2022-12-22,2022-12-20,アシナ産業有限会社,,有限会社,広島県,福山市,駅家町大字服部永谷２９８番地,,34,207,7202522,,,2022-12-20,清算の結了等,,,2015-10-05,1,,,,,アシナサンギョウ,0
668,3260001024317,登記記録の閉鎖等,0,2022-12-22,2022-12-20,ハウスペイントグループ株式会社,,株式会社,岡山県,岡山市中区,海吉１１９９番地５,,33,102,7038261,,,2022-12-20,清算の結了等,,,2015-10-05,1,,,,,ハウスペイントグループ,0
695,3350002011098,登記記録の閉鎖等,0,2022-12-22,2022-12-20,有限会社請関鐵筋工業,,有限会社,宮崎県,東臼杵郡門川町,加草１丁目１２８番地,,45,421,8890603,,,2022-12-20,清算の結了等,,,2015-10-05,1,,,,,ウケゼキテッキンコウギョウ,0
699,3370001018258,登記記録の閉鎖等,0,2022-12-22,2022-12-19,株式会社パープルヒルインターナショナル,,株式会社,宮城県,仙台市泉区,紫山２丁目９番地の７,,04,105,9813205,,,2022-12-19,清算の結了等,,,2015-10-05,1,,,,,,0
704,3390002002432,登記記録の閉鎖等,0,2022-12-22,2022-12-16,有限会社ホクトウ記録サービス,,有限会社,山形県,山形市,下条町２丁目１９番３０号,,06,201,9900823,,,2022-12-16,清算の結了等,,,2015-10-05,1,,,,,ホクトウキロクサービス,0
707,3410002008699,登記記録の閉鎖等,0,2022-12-22,2022-12-19,有限会社ナカヤ電業社,,有限会社,秋田県,大館市,二井田字贄ノ里１２９番地,,05,204,0185751,,,2022-12-19,清算の結了等,,,2015-10-05,1,,,,,ナカヤデンギョウシャ,0
712,3420001016801,登記記録の閉鎖等,0,2022-12-22,2022-12-20,青森風力発電株式会社,,株式会社,青森県,青森市,長島２丁目１３番１号アクア青森スクエア６Ｆ,,02,201,0300861,,,2022-12-20,清算の結了等,,,2019-12-06,1,,,,,アオモリフウリョクハツデン,0
714,3430001059097,登記記録の閉鎖等,0,2022-12-22,2022-12-07,株式会社スピリッツオブノースランド,,株式会社,北海道,札幌市中央区,南四条西７丁目５番地１,,01,101,0640804,,,2022-12-07,合併による解散等,4430001058908,令和４年１２月１日札幌市厚別区大谷地東二丁目５番６０号株式会社レバンガ北海道（4430001058908）に合併し解散,2015-10-05,1,,,,,スピリッツオブノースランド,0
734,4010001027590,登記記録の閉鎖等,0,2022-12-22,2022-12-16,株式会社小学館イマージュ,,株式会社,東京都,千代田区,神田神保町２丁目１４番地,,13,101,1010051,,,2022-12-16,清算の結了等,,,2015-10-05,1,,,,,ショウガッカンイマージュ,0
746,4010401088365,登記記録の閉鎖等,0,2022-12-22,2022-12-16,株式会社セマンティックゲート,,株式会社,東京都,千代田区,鍛冶町２丁目９番１２号,,13,101,1010044,,,2022-12-16,清算の結了等,,,2015-10-05,1,,,,,セマンティックゲート,0
766,4011001142586,登記記録の閉鎖等,0,2022-12-22,2022-12-16,株式会社アン・アティチュード,,株式会社,東京都,渋谷区,恵比寿２丁目３１番５号アクシア広尾４０３,,13,113,1500013,,,2022-12-16,清算の結了等,,,2021-09-09,1,,,,,アンアティチュード,0
769,4011005006614,登記記録の閉鎖等,0,2022-12-22,2022-12-19,税理士法人ＮＧＩ,,その他の設立登記法人,東京都,文京区,後楽１丁目２番９号,,13,105,1120004,,,2022-12-19,清算の結了等,,,2016-01-12,1,,,,,エヌジーアイ,0
782,4011201019188,登記記録の閉鎖等,0,2022-12-22,2022-12-20,株式会社ＢＯＬＴ,,株式会社,東京都,中野区,本町６丁目３６番５－１３０１号,,13,114,1640012,,,2022-12-20,清算の結了等,,,2016-07-04,1,,,,,ボルト,0
802,4021001005370,登記記録の閉鎖等,0,2022-12-22,2022-12-16,株式会社ワールド・コンタクト,,株式会社,神奈川県,藤沢市,鵠沼橘２丁目１３番２１号,,14,205,2510024,,,2022-12-16,清算の結了等,,,2015-10-05,1,,,,,ワールドコンタクト,0
803,4021001025220,登記記録の閉鎖等,0,2022-12-22,2022-12-19,山栄工業株式会社,,株式会社,神奈川県,大和市,中央林間西３丁目６番２７号,,14,213,2420008,,,2022-12-19,清算の結了等,,,2015-10-05,1,,,,,サンエイコウギョウ,0
817,4030001126060,登記記録の閉鎖等,0,2022-12-22,2022-12-16,株式会社華悦,,株式会社,埼玉県,草加市,金明町１２５５番地６,,11,221,3400052,,,2022-12-16,清算の結了等,,,2018-06-12,1,,,,,カエツ,0
830,4040001110914,登記記録の閉鎖等,0,2022-12-22,2022-12-13,富山株式会社,,株式会社,千葉県,長生郡長南町,蔵持４８番地１,,12,427,2970123,,,2022-12-13,清算の結了等,,,2019-10-02,1,,,,,トヤマ,0
847,4080001021570,登記記録の閉鎖等,0,2022-12-22,2022-12-21,Ｅｘｃｉｔｅ株式会社,,株式会社,静岡県,静岡市駿河区,池田８６９,,22,102,4228005,,,2022-12-21,清算の結了等,,,2017-05-10,1,,,,,,0
860,4120001163103,登記記録の閉鎖等,0,2022-12-22,2022-12-20,株式会社ＪＰＨグローバルマネージメント,,株式会社,大阪府,大阪市中央区,難波５丁目１－６０,,27,128,5420076,,,2022-12-20,清算の結了等,,,2015-10-05,1,,,,,ジェイピーエイチグローバルマネージメント,0
868,4120003007646,登記記録の閉鎖等,0,2022-12-22,2022-12-20,合同会社香里園かほりまち,,合同会社,大阪府,寝屋川市,香里本通町８番３号防災センター内,,27,215,5720082,,,2022-12-20,清算の結了等,,,2015-10-05,1,,,,,コウリエンカホリマチ,0
870,4120101034848,登記記録の閉鎖等,0,2022-12-22,2022-12-20,株式会社ウィズダム,,株式会社,大阪府,藤井寺市,道明寺１丁目９番３１号,,27,226,5830012,,,2022-12-20,清算の結了等,,,2015-10-05,1,,,,,ウィズダム,0
882,4140001113171,登記記録の閉鎖等,0,2022-12-22,2022-12-20,株式会社レイズ工業,,株式会社,兵庫県,姫路市,飯田５２８,,28,201,6700974,,,2022-12-20,清算の結了等,,,2019-04-02,1,,,,,レイズコウギョウ,0
884,4140002062599,登記記録の閉鎖等,0,2022-12-22,2022-12-12,有限会社よしだ,,有限会社,兵庫県,加西市,別府町甲２６６４番地の７１,,28,220,6790103,,,2022-12-12,清算の結了等,,,2015-10-05,1,,,,,ヨシダ,0
885,4140002067292,登記記録の閉鎖等,0,2022-12-22,2022-12-16,有限会社ビー企画,,有限会社,兵庫県,宝塚市,雲雀丘山手２丁目１５番５９号,,28,214,6650804,,,2022-12-16,清算の結了等,,,2015-10-05,1,,,,,ビーキカク,0
896,4180001112764,登記記録の閉鎖等,0,2022-12-22,2022-12-20,原リアルエステート株式会社,,株式会社,大阪府,大阪市住之江区,浜口西１丁目１４番１０号ルナ・ピエーナー浜口西１０２号,,27,125,5590006,,,2022-12-20,清算の結了等,,,2015-10-05,1,,,,,ハラリアルエステート,0
907,4190002008473,登記記録の閉鎖等,0,2022-12-22,2022-12-20,有限会社奥山呉服店,,有限会社,三重県,伊勢市,曽祢１丁目１５番１０号,,24,203,5160078,,,2022-12-20,清算の結了等,,,2015-10-05,1,,,,,オクヤマゴフクテン,0
909,4200002003638,登記記録の閉鎖等,0,2022-12-22,2022-12-21,有限会社パーフェクト・ピンチ・フォロー・オフィス,,有限会社,岐阜県,岐阜市,西川手２丁目６１番地の４,,21,201,5008258,,,2022-12-21,清算の結了等,,,2015-10-05,1,,,,,パーフェクトピンチフォローオフィス,0
913,4230001017710,登記記録の閉鎖等,0,2022-12-22,2022-12-20,株式会社うちくるライフ,,株式会社,富山県,富山市,西野新４７番地,,16,201,9398101,,,2022-12-20,清算の結了等,,,2018-12-26,1,,,,,ウチクルライフ,0
923,4290001001808,登記記録の閉鎖等,0,2022-12-22,2022-12-20,南国ストア株式会社,,株式会社,福岡県,福岡市南区,大楠１丁目３５番２５号,,40,134,8150082,,,2022-12-20,清算の結了等,,,2015-10-05,1,,,,,ナンゴクストア,0
924,4290001026094,登記記録の閉鎖等,0,2022-12-22,2022-12-19,株式会社ビーエス・オオヤ,,株式会社,福岡県,福岡市中央区,大名２丁目１２番１５号,,40,133,8100041,,,2022-12-19,清算の結了等,,,2015-10-05,1,,,,,ビーエスオオヤ,0
937,4360003002961,登記記録の閉鎖等,0,2022-12-22,2022-12-16,合名会社紅玉,,合名会社,沖縄県,那覇市,牧志３丁目１９番８号,,47,201,9000013,,,2022-12-16,清算の結了等,,,2015-10-05,1,,,,,コウギョク,0
942,4420001005745,登記記録の閉鎖等,0,2022-12-22,2022-12-20,北金産業株式会社,,株式会社,青森県,八戸市,青葉３丁目４番８号,,02,203,0310804,,,2022-12-20,清算の結了等,,,2015-10-05,1,,,,,キタキンサンギョウ,0
950,4430002036920,登記記録の閉鎖等,0,2022-12-22,2022-12-19,有限会社順建,,有限会社,北海道,札幌市白石区,菊水六条１丁目１番３３号,,01,104,0030806,,,2022-12-19,清算の結了等,,,2015-10-05,1,,,,,ジュンケン,0
960,4490002003205,登記記録の閉鎖等,0,2022-12-22,2022-12-21,有限会社高村建設,,有限会社,高知県,高知市,幸町１０番１３号,,39,201,7800045,,,2022-12-21,清算の結了等,,,2015-10-05,1,,,,,タカムラケンセツ,0
970,5010001213165,登記記録の閉鎖等,0,2022-12-22,2022-12-16,Ｅｌｉｘｉｒｇｅｎ　Ｔｈｅｒａｐｅｕｔｉｃｓ　Ｊａｐａｎ株式会社,,株式会社,東京都,新宿区,左門町６番地１７地下１階,,13,104,1600017,,,2022-12-16,清算の結了等,,,2020-10-22,1,,,,,エリクサジェンセラピューティックスジャパン,0
990,5010501016423,登記記録の閉鎖等,0,2022-12-22,2022-12-15,株式会社フォーエルズ,,株式会社,東京都,台東区,寿１丁目１６番１号寿セントラルマンション５０２号,,13,106,1110042,,,2022-12-15,清算の結了等,,,2015-10-05,1,,,,,フォーエルズ,0
994,5010801022658,登記記録の閉鎖等,0,2022-12-22,2022-12-13,株式会社ヤクシインターナショナル,,株式会社,宮城県,栗原市,栗駒岩ケ崎上小路９１番地２Ｄ棟,,04,213,9895301,,,2022-12-13,清算の結了等,,,2015-10-05,1,,,,,ヤクシインターナショナル,0
1022,5011801031979,登記記録の閉鎖等,0,2022-12-22,2022-12-19,株式会社ＫＭパートナーズ,,株式会社,東京都,足立区,中川４丁目３番５号,,13,121,1200002,,,2022-12-19,清算の結了等,,,2016-06-23,1,,,,,ケーエムパートナーズ,0
1024,5011802007004,登記記録の閉鎖等,0,2022-12-22,2022-12-19,有限会社本田興業,,有限会社,東京都,葛飾区,お花茶屋２丁目１３番７号,,13,122,1240003,,,2022-12-19,清算の結了等,,,2015-10-05,1,,,,,ホンダコウギョウ,0
1042,5020001015750,登記記録の閉鎖等,0,2022-12-22,2022-12-20,長谷川商事株式会社,,株式会社,神奈川県,横浜市西区,中央１丁目３２番２号,,14,103,2200051,,,2022-12-20,清算の結了等,,,2015-10-05,1,,,,,ハセガワショウジ,0
1049,5021001068284,登記記録の閉鎖等,0,2022-12-22,2022-12-16,トレビヤン本舗株式会社,,株式会社,神奈川県,逗子市,久木８丁目１３番３５号,,14,208,2490001,,,2022-12-16,清算の結了等,,,2019-10-08,1,,,,,トレビヤンホンポ,0
1055,5030001117240,登記記録の閉鎖等,0,2022-12-22,2022-12-16,株式会社ＥＡＲＴＨ,,株式会社,埼玉県,秩父市,寺尾２７８番地３,,11,207,3680056,,,2022-12-16,清算の結了等,,,2016-11-15,1,,,,,アース,0
1058,5030002119244,登記記録の閉鎖等,0,2022-12-22,2022-12-15,有限会社内沼精機製作所,,有限会社,埼玉県,飯能市,大字岩沢９１６番地の１,,11,209,3570023,,,2022-12-15,清算の結了等,,,2015-10-05,1,,,,,ウチヌマセイキセイサクショ,0
1059,5030003013256,登記記録の閉鎖等,0,2022-12-22,2022-12-15,合同会社プラス,,合同会社,埼玉県,さいたま市北区,今羽町４２５番地１,,11,102,3310801,,,2022-12-15,清算の結了等,,,2019-03-15,1,,,,,プラス,0
1064,5040001005601,登記記録の閉鎖等,0,2022-12-22,2022-12-15,永嶋産商株式会社,,株式会社,千葉県,千葉市稲毛区,天台５丁目１１番１０号,,12,103,2630016,,,2022-12-15,清算の結了等,,,2015-10-05,1,,,,,ナガシマサンショウ,0
1088,5080401023694,登記記録の閉鎖等,0,2022-12-22,2022-12-20,株式会社ＶＲソリューションズ,,株式会社,静岡県,浜松市中区,中島２丁目４番１５号マンション中村３０２Ａ,,22,131,4300856,,,2022-12-20,清算の結了等,,,2019-06-12,1,,,,,ブイアールソリューションズ,0
1089,5080401023810,登記記録の閉鎖等,0,2022-12-22,2022-12-19,株式会社フライシーズ,,株式会社,静岡県,浜松市北区,三方原町２１７２番地,,22,135,4338105,,,2022-12-19,清算の結了等,,,2019-08-22,1,,,,,フライシーズ,0
1092,5120001206950,登記記録の閉鎖等,0,2022-12-22,2022-12-21,株式会社グラミスワークス,,株式会社,大阪府,大阪市西区,立売堀１丁目２－１４本町産金９Ｆ,,27,106,5500012,,,2022-12-21,清算の結了等,,,2017-07-24,1,,,,,,0
1093,5120001220472,登記記録の閉鎖等,0,2022-12-22,2022-12-19,株式会社ＳＳＫリレーションズ,,株式会社,大阪府,大阪市中央区,上本町西１丁目２番１９号,,27,128,5420062,,,2022-12-19,清算の結了等,,,2019-04-18,1,,,,,エスエスケイリレーションズ,0
1094,5120001228524,登記記録の閉鎖等,0,2022-12-22,2022-12-19,株式会社オーツーファクトリー,,株式会社,大阪府,大阪市中央区,今橋１丁目６番１９号,,27,128,5410042,,,2022-12-19,合併による解散等,9120001054826,令和４年１２月１９日大阪市中央区今橋二丁目４番１０号共同産業株式会社（9120001054826）に合併し解散,2020-04-10,1,,,,,オーツーファクトリー,0
1100,5120002054283,登記記録の閉鎖等,0,2022-12-22,2022-12-20,有限会社ネクスト,,有限会社,大阪府,大阪市生野区,桃谷３丁目１２番８号,,27,116,5440034,,,2022-12-20,合併による解散等,9122001020964,令和４年１２月１５日大阪府柏原市上市四丁目１番１２号三晃商事株式会社（9122001020964）に合併し解散,2015-10-05,1,,,,,ネクスト,0
1111,5120901034071,登記記録の閉鎖等,0,2022-12-22,2022-12-21,株式会社アイアムアファーザー,,株式会社,大阪府,高槻市,八丁西町６番１－４０１号,,27,207,5690095,,,2022-12-21,清算の結了等,,,2015-10-05,1,,,,,,0
1113,5130001007381,登記記録の閉鎖等,0,2022-12-22,2022-12-19,ミカゲ建設工業株式会社,,株式会社,京都府,京都市山科区,川田中畑町６番地３６,,26,110,6078336,,,2022-12-19,清算の結了等,,,2015-10-05,1,,,,,ミカゲケンセツコウギョウ,0
1119,5130003005466,登記記録の閉鎖等,0,2022-12-22,2022-12-20,ナイン・パーフェクト合同会社,,合同会社,京都府,京都市下京区,四条通烏丸西入函谷鉾町１０１番地,,26,106,6008009,,,2022-12-20,清算の結了等,,,2018-04-16,1,,,,,ナインパーフェクト,0
1120,5140001035357,登記記録の閉鎖等,0,2022-12-22,2022-12-20,株式会社林鉄工所,,株式会社,兵庫県,明石市,二見町東二見９９番地の１,,28,203,6740092,,,2022-12-20,清算の結了等,,,2015-10-05,1,,,,,ハヤシテッコウショ,0
1146,5180002052876,登記記録の閉鎖等,0,2022-12-22,2022-12-16,有限会社コモ２１,,有限会社,愛知県,名古屋市千種区,向陽町１丁目８プレミスト覚王山向陽町１０３,,23,101,4640062,,,2022-12-16,清算の結了等,,,2015-10-05,1,,,,,コモニジュウイチ,0
1148,5180301012390,登記記録の閉鎖等,0,2022-12-22,2022-12-19,株式会社Ｔｒｉｐｌｅ　Ａｒｒｏｗｓ,,株式会社,愛知県,豊橋市,石巻平野町字下向嶋７番地,,23,201,4411105,,,2022-12-19,清算の結了等,,,2015-10-05,1,,,,,トリプルアローズ,0
1152,5180301026465,登記記録の閉鎖等,0,2022-12-22,2022-12-16,株式会社アテナ,,株式会社,愛知県,岡崎市,祐金町１丁目５番地,,23,202,4440037,,,2022-12-16,清算の結了等,,,2015-10-05,1,,,,,アテナ,0
1169,5260002014232,登記記録の閉鎖等,0,2022-12-22,2022-12-21,有限会社Ｋ．Ｙ総合建創,,有限会社,岡山県,岡山市南区,新保１１１９番地３,,33,104,7000945,,,2022-12-21,清算の結了等,,,2015-10-05,1,,,,,ケイワイソウゴウケンソウ,0
1170,5270002007292,登記記録の閉鎖等,0,2022-12-22,2022-12-19,有限会社有幸園,,有限会社,鳥取県,米子市,東福原４丁目６番１３号,,31,202,6830802,,,2022-12-19,清算の結了等,,,2015-10-05,1,,,,,,0
1171,5280002006302,登記記録の閉鎖等,0,2022-12-22,2022-12-21,有限会社佐野組,,有限会社,島根県,出雲市,斐川町直江３９６３番地,,32,203,6990631,,,2022-12-21,清算の結了等,,,2015-10-05,1,,,,,サノグミ,0
1218,5490001001712,登記記録の閉鎖等,0,2022-12-22,2022-12-12,ニコホン株式会社,,株式会社,高知県,高知市,南久保１３８番地,,39,201,7810087,,,2022-12-12,清算の結了等,,,2022-07-15,1,,,,,ニコホン,0
1219,5490001002248,登記記録の閉鎖等,0,2022-12-22,2022-12-12,株式会社マサヤ,,株式会社,高知県,高知市,南久保１０番３４号,,39,201,7810087,,,2022-12-12,清算の結了等,,,2022-07-15,1,,,,,マサヤ,0
1221,5500002017235,登記記録の閉鎖等,0,2022-12-22,2022-12-20,宮川工業有限会社,,有限会社,愛媛県,新居浜市,船木２０７２番地３,,38,205,7920856,,,2022-12-20,清算の結了等,,,2015-10-05,1,,,,,ミヤガワコウギョウ,0
1244,6010401008338,登記記録の閉鎖等,0,2022-12-22,2022-12-20,株式会社クイン,,株式会社,福島県,福島市,陣場町７番２５号ＭＫビル２Ｆ,,07,201,9608032,,,2022-12-20,合併による解散等,6380002002827,令和４年１２月２０日福島市森合字屋敷下１番地の７株式会社ビアン企画（6380002002827）に合併し解散,2015-10-05,1,,,,,クイン,0
1260,6010603009695,登記記録の閉鎖等,0,2022-12-22,2022-12-15,Ａｍａｚｉｎｇ合同会社,,合同会社,東京都,江東区,有明３丁目７－２６，有明フロンティアビルＢ棟，９階,,13,108,1350063,,,2022-12-15,清算の結了等,,,2022-08-18,1,,,,,アメイジング,0
1279,6011502005851,登記記録の閉鎖等,0,2022-12-22,2022-12-15,株式会社みやこ荘,,株式会社,東京都,北区,赤羽南１丁目６番５号,,13,117,1150044,,,2022-12-15,清算の結了等,,,2015-10-05,1,,,,,ミヤコソウ,0
1304,6021001055447,登記記録の閉鎖等,0,2022-12-22,2022-12-16,株式会社とまり木,,株式会社,神奈川県,平塚市,河内４６０番地の４,,14,203,2540903,,,2022-12-16,清算の結了等,,,2015-10-05,1,,,,,トマリギ,0
1313,6030001049821,登記記録の閉鎖等,0,2022-12-22,2022-12-19,株式会社ユウセツビ,,株式会社,埼玉県,志木市,幸町１丁目６番５０号,,11,228,3530005,,,2022-12-19,清算の結了等,,,2015-10-05,1,,,,,ユウセツビ,0
1318,6030001150562,登記記録の閉鎖等,0,2022-12-22,2022-12-16,エスケープランニング株式会社,,株式会社,埼玉県,戸田市,早瀬２丁目２７番７号,,11,224,3350036,,,2022-12-16,清算の結了等,,,2022-10-13,1,,,,,エスケープランニング,0
1322,6030002048582,登記記録の閉鎖等,0,2022-12-22,2022-12-13,有限会社上條商店,,有限会社,埼玉県,三郷市,鷹野１丁目４０１番地,,11,237,3410035,,,2022-12-13,清算の結了等,,,2015-10-05,1,,,,,カミジョウショウテン,0
1324,6030002119929,登記記録の閉鎖等,0,2022-12-22,2022-12-16,有限会社山村印刷,,有限会社,埼玉県,飯能市,大字新光５０番地３３,,11,209,3570022,,,2022-12-16,清算の結了等,,,2015-10-05,1,,,,,ヤマムラインサツ,0
1337,6040002071286,登記記録の閉鎖等,0,2022-12-22,2022-12-16,有限会社ストアーまるい,,有限会社,千葉県,富津市,望井１７９番地の１、の３,,12,226,2991605,,,2022-12-16,清算の結了等,,,2015-10-05,1,,,,,ストアーマルイ,0
1341,6050001026736,登記記録の閉鎖等,0,2022-12-22,2022-12-19,株式会社片岡組,,株式会社,茨城県,水戸市,南町１丁目１番７－１３０２号ライオンズシティ水戸,,08,201,3100021,,,2022-12-19,清算の結了等,,,2015-10-05,1,,,,,カタオカグミ,0
1346,6050002044340,登記記録の閉鎖等,0,2022-12-22,2022-12-19,有限会社石井硝子店,,有限会社,茨城県,結城市,大字結城１８８０番地１２６,,08,207,3070001,,,2022-12-19,清算の結了等,,,2015-10-05,1,,,,,イシイガラステン,0
1354,6080002017582,登記記録の閉鎖等,0,2022-12-22,2022-12-20,有限会社静岡教育施設,,有限会社,静岡県,藤枝市,高柳２１４８番地の１,,22,214,4260041,,,2022-12-20,清算の結了等,,,2015-10-05,1,,,,,シズオカキョウイクシセツ,0
1388,6140002046749,登記記録の閉鎖等,0,2022-12-22,2022-12-20,有限会社キュアサポート,,有限会社,兵庫県,豊岡市,下陰７０２番地の１５,,28,209,6680012,,,2022-12-20,清算の結了等,,,2015-10-05,1,,,,,キュアサポート,0
1389,6140003005497,登記記録の閉鎖等,0,2022-12-22,2022-12-15,北神電子工業合同会社,,合同会社,兵庫県,神戸市北区,緑町６丁目９番１９号,,28,109,6511221,,,2022-12-15,清算の結了等,,,2015-10-05,1,,,,,ホクシンデンシコウギョウ,0
1406,6180002069779,登記記録の閉鎖等,0,2022-12-22,2022-12-20,有限会社尾州庵,,有限会社,愛知県,小牧市,大字大草字久捨２９８５番１,,23,219,4850802,,,2022-12-20,清算の結了等,,,2015-10-05,1,,,,,ビシュウアン,0
1408,6180003020872,登記記録の閉鎖等,0,2022-12-22,2022-12-16,合同会社エムティ・コンサルティング,,合同会社,愛知県,名古屋市中村区,岩塚本通５丁目２４番地ロフティ岩塚１２０１号,,23,105,4530861,,,2022-12-16,清算の結了等,,,2020-02-20,1,,,,,エムティコンサルティング,0
1411,6200001015285,登記記録の閉鎖等,0,2022-12-22,2022-12-20,中部プロセスセンター株式会社,,株式会社,岐阜県,大垣市,室村町１丁目６８番地,,21,202,5030026,,,2022-12-20,清算の結了等,,,2015-10-05,1,,,,,チュウブプロセスセンター,0
1415,6220002001877,登記記録の閉鎖等,0,2022-12-22,2022-12-19,有限会社カツキ工業,,有限会社,石川県,金沢市,浅野本町２丁目２２番７号,,17,201,9200841,,,2022-12-19,清算の結了等,,,2015-10-05,1,,,,,カツキコウギョウ,0
1417,6220005008176,登記記録の閉鎖等,0,2022-12-22,2022-12-21,介護事業ネットワーク協同組合,,その他の設立登記法人,石川県,金沢市,三口新町３丁目６番２７号,,17,201,9200944,,,2022-12-21,清算の結了等,,,2017-03-27,1,,,,,カイゴジギョウネットワーク,0
1424,6260002022829,登記記録の閉鎖等,0,2022-12-22,2022-12-21,有限会社蔵の湯,,有限会社,岡山県,倉敷市,大島１２１番地１,,33,202,7100047,,,2022-12-21,清算の結了等,,,2015-10-05,1,,,,,クラノユ,0
1428,6280005006174,登記記録の閉鎖等,0,2022-12-22,2022-12-21,奥出雲町商工業協同組合,,その他の設立登記法人,島根県,仁多郡奥出雲町,横田９９２番地２,,32,343,6991832,,,2022-12-21,清算の結了等,,,2015-10-05,1,,,,,オクイズモチョウショウコウギョウ,0
1433,6290001037107,登記記録の閉鎖等,0,2022-12-22,2022-12-16,宗像グリーン株式会社,,株式会社,福岡県,宗像市,稲元４丁目１１番２３号,,40,220,8113406,,,2022-12-16,清算の結了等,,,2015-10-05,1,,,,,ムナカタグリーン,0
1434,6290001070586,登記記録の閉鎖等,0,2022-12-22,2022-12-19,株式会社昭和電光,,株式会社,福岡県,福岡市博多区,板付４丁目１２番３号,,40,132,8120888,,,2022-12-19,清算の結了等,,,2015-10-05,1,,,,,ショウワデンコウ,0
1440,6300002011075,登記記録の閉鎖等,0,2022-12-22,2022-12-09,有限会社新屋,,有限会社,佐賀県,唐津市,呼子町殿ノ浦１６３０番地第１イ,,41,202,8470304,,,2022-12-09,清算の結了等,,,2022-03-01,1,,,,,,0
1473,6490002004977,登記記録の閉鎖等,0,2022-12-22,2022-12-21,有限会社三里ハイヤー,,有限会社,高知県,高知市,仁井田字舟倉１６４０番地３,,39,201,7810112,,,2022-12-21,清算の結了等,,,2015-10-05,1,,,,,ミサトハイヤー,0
1493,7010401011324,登記記録の閉鎖等,0,2022-12-22,2022-12-06,株式会社佐々原不動産,,株式会社,東京都,港区,三田２丁目１４番７号,,13,103,1080073,,,2022-12-06,清算の結了等,,,2015-10-05,1,,,,,ササハラフドウサン,0
1494,7010401049926,登記記録の閉鎖等,0,2022-12-22,2022-12-13,株式会社ＹＫコーポレーション,,株式会社,東京都,港区,白金３丁目７番１６号,,13,103,1080072,,,2022-12-13,清算の結了等,,,2015-10-05,1,,,,,ワイケーコーポレーション,0
1504,7010501012965,登記記録の閉鎖等,0,2022-12-22,2022-12-14,株式会社丸正,,株式会社,東京都,台東区,浅草橋１丁目２８番９号,,13,106,1110053,,,2022-12-14,清算の結了等,,,2020-11-24,1,,,,,マルショウ,0
1507,7010601009119,登記記録の閉鎖等,0,2022-12-22,2022-12-15,株式会社安藤精密,,株式会社,東京都,墨田区,東駒形２丁目８番５号,,13,107,1300005,,,2022-12-15,清算の結了等,,,2015-10-05,1,,,,,アンドウセイミツ,0
1512,7010605003811,登記記録の閉鎖等,0,2022-12-22,2022-12-15,ジーナイン・ジャパン・テン特定目的会社,,その他の設立登記法人,東京都,江東区,亀戸６丁目５６番１５号,,13,108,1360071,,,2022-12-15,清算の結了等,,,2020-03-23,1,,,,,ジーナインジャパンテン,0
1542,7011701019619,登記記録の閉鎖等,0,2022-12-22,2022-12-19,株式会社ワーカーズ,,株式会社,東京都,江戸川区,松江４丁目２２番２１号,,13,123,1320025,,,2022-12-19,清算の結了等,,,2016-02-16,1,,,,,ワーカーズ,0
1545,7011801003324,登記記録の閉鎖等,0,2022-12-22,2022-12-20,株式会社東新管財,,株式会社,東京都,葛飾区,新小岩２丁目３番１５号,,13,122,1240024,,,2022-12-20,清算の結了等,,,2015-10-05,1,,,,,トウシンカンザイ,0
1546,7011801025112,登記記録の閉鎖等,0,2022-12-22,2022-12-20,フォーアローズ株式会社,,株式会社,東京都,葛飾区,宝町２丁目３８番１１号,,13,122,1240005,,,2022-12-20,清算の結了等,,,2015-10-05,1,,,,,フォーアローズ,0
1554,7013301011385,登記記録の閉鎖等,0,2022-12-22,2022-12-15,株式会社三中,,株式会社,東京都,豊島区,西池袋１丁目４０番１号,,13,116,1710021,,,2022-12-15,清算の結了等,,,2015-10-05,1,,,,,ミツナカ,0
1560,7020001029583,登記記録の閉鎖等,0,2022-12-22,2022-12-20,横浜建物管理株式会社,,株式会社,神奈川県,横浜市中区,海岸通４丁目２１番地,,14,104,2310002,,,2022-12-20,清算の結了等,,,2015-10-05,1,,,,,ヨコハマタテモノカンリ,0
1567,7021001037634,登記記録の閉鎖等,0,2022-12-22,2022-12-20,新興商事株式会社,,株式会社,神奈川県,中郡大磯町,西小磯７１８番地の１,,14,341,2550005,,,2022-12-20,清算の結了等,,,2015-10-05,1,,,,,シンコウショウジ,0
1572,7021002055189,登記記録の閉鎖等,0,2022-12-22,2022-12-16,有限会社サントノレ,,有限会社,神奈川県,足柄上郡松田町,松田惣領１８０８番地,,14,363,2580003,,,2022-12-16,清算の結了等,,,2015-10-05,1,,,,,サントノレ,0
1576,7030001133995,登記記録の閉鎖等,0,2022-12-22,2022-12-16,株式会社名商,,株式会社,埼玉県,入間郡三芳町,大字藤久保９２０番地３,,11,324,3540041,,,2022-12-16,清算の結了等,,,2019-11-29,1,,,,,メイショウ,0
1585,7030005005472,登記記録の閉鎖等,0,2022-12-22,2022-12-16,特定非営利活動法人しらゆり,,その他の設立登記法人,埼玉県,幸手市,中１丁目１番４０号,,11,240,3400115,,,2022-12-16,清算の結了等,,,2015-10-05,1,,,,,シラユリ,0
1592,7040001105192,登記記録の閉鎖等,0,2022-12-22,2022-12-16,株式会社イチヤ,,株式会社,千葉県,松戸市,上本郷９０２番地の１町山ビル４０３号室,,12,207,2710064,,,2022-12-16,清算の結了等,,,2018-06-26,1,,,,,イチヤ,0
1610,7080002011873,登記記録の閉鎖等,0,2022-12-22,2022-12-20,有限会社アムズワン,,有限会社,静岡県,静岡市葵区,本通８丁目１番地の２,,22,101,4200064,,,2022-12-20,清算の結了等,,,2015-10-05,1,,,,,アムズワン,0
1632,7120102011918,登記記録の閉鎖等,0,2022-12-22,2022-12-21,有限会社ヒロテック,,有限会社,大阪府,堺市中区,新家町５４６番地の１３,,27,142,5998232,,,2022-12-21,清算の結了等,,,2015-10-05,1,,,,,ヒロテック,0
1642,7140002025165,登記記録の閉鎖等,0,2022-12-22,2022-12-19,有限会社船瀬経営革新研究所,,有限会社,兵庫県,神戸市中央区,加納町３丁目１－２０,,28,110,6500001,,,2022-12-19,清算の結了等,,,2015-10-05,1,,,,,フナセケイエイカクシンケンキュウジョ,0
1646,7160001024496,登記記録の閉鎖等,0,2022-12-22,2022-12-20,株式会社なかなか,,株式会社,滋賀県,守山市,下之郷町三丁目６０６番地３,,25,207,5240013,,,2022-12-20,清算の結了等,,,2022-09-06,1,,,,,ナカナカ,0
1647,7170002007796,登記記録の閉鎖等,0,2022-12-22,2022-12-21,有限会社大起組,,有限会社,和歌山県,和歌山市,内原１６７８番地の１２,,30,201,6410013,,,2022-12-21,清算の結了等,,,2015-10-05,1,,,,,オオキグミ,0
1676,7200005013334,登記記録の閉鎖等,0,2022-12-22,2022-12-20,ＪＭＣＩＭ一般社団法人,,その他の設立登記法人,岐阜県,瑞浪市,土岐町３９３１番地ゴールデンパーク３階,,21,208,5096101,,,2022-12-20,清算の結了等,,,2022-04-20,1,,,,,ジェイエムシーアイエム,0
1678,7210001011753,登記記録の閉鎖等,0,2022-12-22,2022-12-20,株式会社タナベ,,株式会社,福井県,越前市,家久町８９号２２番地,,18,209,9150801,,,2022-12-20,清算の結了等,,,2015-10-05,1,,,,,タナベ,0
1701,7320002005685,登記記録の閉鎖等,0,2022-12-22,2022-12-19,有限会社大分保険相談センター,,有限会社,大分県,大分市,花津留１丁目５番８号,,44,201,8700933,,,2022-12-19,清算の結了等,,,2015-10-05,1,,,,,オオイタホケンソウダンセンター,0
1726,7430002017521,登記記録の閉鎖等,0,2022-12-22,2022-12-19,有限会社プルミエール,,有限会社,北海道,札幌市中央区,南十九条西１２丁目１番１９号,,01,101,0640919,,,2022-12-19,清算の結了等,,,2015-10-05,1,,,,,プルミエール,0
1749,8010005027856,登記記録の閉鎖等,0,2022-12-22,2022-12-20,一般社団法人ＫＲＦ６９,,その他の設立登記法人,東京都,千代田区,内幸町２丁目１番６号,,13,101,1000011,,,2022-12-20,清算の結了等,,,2017-12-14,1,,,,,ケイアールエフシックスティナイン,0
1756,8010401129982,登記記録の閉鎖等,0,2022-12-22,2022-12-13,株式会社ＴＳＴＹＬＥ,,株式会社,東京都,港区,港南２丁目５番３号,,13,103,1080075,,,2022-12-13,清算の結了等,,,2017-03-06,1,,,,,ティースタイル,0
1759,8010401137928,登記記録の閉鎖等,0,2022-12-22,2022-12-13,株式会社２５６,,株式会社,東京都,港区,高輪１丁目２３番２３－１１０３号,,13,103,1080074,,,2022-12-13,清算の結了等,,,2018-04-20,1,,,,,,0
1765,8010501033663,登記記録の閉鎖等,0,2022-12-22,2022-12-22,株式会社ソーシャルモード,,株式会社,東京都,台東区,台東４丁目１番９号,,13,106,1100016,,,2022-12-22,清算の結了等,,,2015-10-05,1,,,,,ソーシャルモード,0
1783,8011001125785,登記記録の閉鎖等,0,2022-12-22,2022-12-16,つくりて株式会社,,株式会社,東京都,渋谷区,渋谷３丁目１番９号Ｙａｚａｗａビル４階,,13,113,1500002,,,2022-12-16,清算の結了等,,,2018-12-21,1,,,,,ツクリテ,0
1795,8011405000262,登記記録の閉鎖等,0,2022-12-22,2022-12-20,双和個人タクシー協同組合,,その他の設立登記法人,東京都,板橋区,徳丸４丁目１１番２０号,,13,119,1750083,,,2022-12-20,清算の結了等,,,2015-10-05,1,,,,,ソウワコジンタクシー,0
1806,8012401007838,登記記録の閉鎖等,0,2022-12-22,2022-12-19,深大合金株式会社,,株式会社,東京都,調布市,深大寺北町５丁目４番地４,,13,208,1820011,,,2022-12-19,清算の結了等,,,2015-10-05,1,,,,,ジンダイゴウキン,0
1809,8012802003378,登記記録の閉鎖等,0,2022-12-22,2022-12-13,有限会社高橋製作所,,有限会社,東京都,昭島市,郷地町３丁目１４番２５号,,13,207,1960032,,,2022-12-13,清算の結了等,,,2015-10-05,1,,,,,タカハシセイサクショ,0
1815,8020001013198,登記記録の閉鎖等,0,2022-12-22,2022-12-19,スバルエンジニアリング株式会社,,株式会社,神奈川県,横浜市南区,永田東２丁目１７番６号,,14,105,2320072,,,2022-12-19,清算の結了等,,,2015-10-05,1,,,,,スバルエンジニアリング,0
1838,8021002069452,登記記録の閉鎖等,0,2022-12-22,2022-12-19,有限会社テクノツー,,有限会社,神奈川県,横須賀市,光風台２２番１４号,,14,201,2390820,,,2022-12-19,清算の結了等,,,2015-10-05,1,,,,,テクノツー,0
1863,8040003006611,登記記録の閉鎖等,0,2022-12-22,2022-12-12,ＩＮＥ弱配ネット合同会社,,合同会社,千葉県,千葉市花見川区,朝日ケ丘４丁目３６番１９号,,12,102,2620019,,,2022-12-12,清算の結了等,,,2015-10-05,1,,,,,アイエヌイージャクハイネット,0
1864,8050001006629,登記記録の閉鎖等,0,2022-12-22,2022-12-20,大洗観光ホテル株式会社,,株式会社,茨城県,ひたちなか市,湊本町１８番２５号,,08,221,3111221,,,2022-12-20,清算の結了等,,,2015-10-05,1,,,,,オオアライカンコウホテル,0
1872,8080001002030,登記記録の閉鎖等,0,2022-12-22,2022-12-20,シティー開発株式会社,,株式会社,静岡県,静岡市葵区,本通８丁目１番地の２,,22,101,4200064,,,2022-12-20,清算の結了等,,,2015-10-05,1,,,,,シティーカイハツ,0
1873,8080001012772,登記記録の閉鎖等,0,2022-12-22,2022-12-20,株式会社カラオケランド,,株式会社,静岡県,静岡市駿河区,丸子３３１５番地の４,,22,102,4210103,,,2022-12-20,清算の結了等,,,2015-10-05,1,,,,,カラオケランド,0
1876,8080402008519,登記記録の閉鎖等,0,2022-12-22,2022-12-20,有限会社ヤマシヨー,,有限会社,静岡県,浜松市南区,遠州浜３丁目１７番８号,,22,134,4300835,,,2022-12-20,清算の結了等,,,2015-10-05,1,,,,,ヤマシヨー,0
1886,8120001082142,登記記録の閉鎖等,0,2022-12-22,2022-12-20,株式会社鈴木デザイン室,,株式会社,大阪府,大阪市中央区,道修町２丁目６番７号,,27,128,5410045,,,2022-12-20,清算の結了等,,,2015-10-05,1,,,,,スズキデザインシツ,0
1891,8120002073231,登記記録の閉鎖等,0,2022-12-22,2022-12-16,有限会社山口珠算道場,,有限会社,大阪府,寝屋川市,寿町２１番６号,,27,215,5720029,,,2022-12-16,清算の結了等,,,2015-10-05,1,,,,,ヤマグチシュザンドウジョウ,0
1925,8180001003225,登記記録の閉鎖等,0,2022-12-22,2022-12-16,株式会社アイクリ,,株式会社,愛知県,名古屋市千種区,大久手町５丁目１１番地,,23,101,4640854,,,2022-12-16,清算の結了等,,,2015-10-05,1,,,,,アイクリ,0
1932,8180003015301,登記記録の閉鎖等,0,2022-12-22,2022-12-20,合同会社ｍ＆ｍ’ｓ,,合同会社,愛知県,日進市,梅森町上松３４４番地５,,23,230,4700132,,,2022-12-20,清算の結了等,,,2015-10-05,1,,,,,エムアンドエムズ,0
1963,8330001019206,登記記録の閉鎖等,0,2022-12-22,2022-12-16,株式会社ソーテク,,株式会社,熊本県,人吉市,宝来町１２８５番地３,,43,203,8680011,,,2022-12-16,清算の結了等,,,2015-10-05,1,,,,,ソーテク,0
1966,8330002005238,登記記録の閉鎖等,0,2022-12-22,2022-12-20,有限会社車輌電装,,有限会社,熊本県,熊本市南区,内田町１８１６番地,,43,104,8614127,,,2022-12-20,清算の結了等,,,2015-10-05,1,,,,,シャリョウデンソウ,0
1972,8350003001770,登記記録の閉鎖等,0,2022-12-22,2022-12-16,ＹＡＮＯサービス合同会社,,合同会社,宮崎県,日南市,大字上方２４６５番地,,45,204,8893151,,,2022-12-16,清算の結了等,,,2015-10-05,1,,,,,ヤノサービス,0
1986,8420002011615,登記記録の閉鎖等,0,2022-12-22,2022-12-20,有限会社須郷営農,,有限会社,青森県,北津軽郡鶴田町,大字境字池田３番地,,02,384,0383524,,,2022-12-20,清算の結了等,,,2015-10-05,1,,,,,スゴウエイノウ,0
1992,8480001008391,登記記録の閉鎖等,0,2022-12-22,2022-12-20,徳寿開発株式会社,,株式会社,徳島県,小松島市,小松島町字北浜１３番地の１,,36,203,7730001,,,2022-12-20,清算の結了等,,,2015-10-05,1,,,,,トクジュカイハツ,0
1999,8500002023718,登記記録の閉鎖等,0,2022-12-22,2022-12-20,有限会社ハヤシ商建,,有限会社,愛媛県,宇和島市,保田甲９６５番地５,,38,203,7980077,,,2022-12-20,清算の結了等,,,2015-10-05,1,,,,,ハヤシショウケン,0
2013,9010002037881,登記記録の閉鎖等,0,2022-12-22,2022-12-19,有限会社パチシェイデミスギノ,,有限会社,東京都,中央区,京橋３丁目６番１７号京橋大栄ビル１Ｆ,,13,102,1040031,,,2022-12-19,清算の結了等,,,2015-10-05,1,,,,,パチシェイデミスギノ,0
2018,9010401078031,登記記録の閉鎖等,0,2022-12-22,2022-12-13,Ｇａｋｕ　Ｊａｐａｎ株式会社,,株式会社,東京都,港区,南麻布４丁目１２番４号,,13,103,1060047,,,2022-12-13,清算の結了等,,,2015-10-05,1,,,,,ガクジャパン,0
2026,9010402004960,登記記録の閉鎖等,0,2022-12-22,2022-12-13,有限会社小島ビル管理サービス,,有限会社,東京都,港区,新橋６丁目７番２号,,13,103,1050004,,,2022-12-13,清算の結了等,,,2015-10-05,1,,,,,,0
2030,9010501025692,登記記録の閉鎖等,0,2022-12-22,2022-12-22,株式会社エートラスト,,株式会社,東京都,台東区,台東４丁目１番９号,,13,106,1100016,,,2022-12-22,清算の結了等,,,2015-10-05,1,,,,,エートラスト,0
2035,9010602030526,登記記録の閉鎖等,0,2022-12-22,2022-12-15,有限会社エイビークリエイト,,有限会社,東京都,墨田区,菊川２丁目２番１０号,,13,107,1300024,,,2022-12-15,清算の結了等,,,2015-10-05,1,,,,,エイビークリエイト,0
2080,9021002023227,登記記録の閉鎖等,0,2022-12-22,2022-12-01,有限会社延島製作所,,有限会社,神奈川県,相模原市中央区,田名６０２５番地１,,14,152,2520244,,,2022-12-01,合併による解散等,3021001060004,令和４年１１月３０日神奈川県相模原市中央区田名１５８８番地１株式会社ＨＲ－ＤＥＳＩＧＮ（3021001060004）に合併し解散,2015-10-05,1,,,,,ノベシマセイサクショ,0
2085,9030001070898,登記記録の閉鎖等,0,2022-12-22,2022-12-16,株式会社ソイル技術研究所,,株式会社,埼玉県,東松山市,大字石橋１５６４番地１０,,11,212,3550072,,,2022-12-16,清算の結了等,,,2015-10-05,1,,,,,ソイルギジュツケンキュウジョ,0
2098,9040001064024,登記記録の閉鎖等,0,2022-12-22,2022-12-12,千葉ファーム株式会社,,株式会社,千葉県,香取郡東庄町,小貝野字雨堤３４１,,12,349,2890637,,,2022-12-12,合併による解散等,8040001058836,令和４年１２月１２日千葉県山武市松尾町借毛本郷７４２番地東畜産株式会社（8040001058836）に合併し解散,2015-10-05,1,,,,,チバファーム,0
2100,9040001091159,登記記録の閉鎖等,0,2022-12-22,2022-12-07,株式会社テック・アシスト,,株式会社,千葉県,富津市,青木４丁目１１番地３,,12,226,2930012,,,2022-12-07,清算の結了等,,,2015-10-05,1,,,,,テックアシスト,0
2107,9040002078873,登記記録の閉鎖等,0,2022-12-22,2022-12-12,有限会社たけさと,,有限会社,千葉県,東金市,二之袋１２１３番地３,,12,213,2830052,,,2022-12-12,清算の結了等,,,2015-10-05,1,,,,,タケサト,0
2118,9060002007855,登記記録の閉鎖等,0,2022-12-22,2022-12-16,有限会社藤田商店,,有限会社,栃木県,宇都宮市,中央２丁目８番７号,,09,201,3200806,,,2022-12-16,清算の結了等,,,2015-10-05,1,,,,,フジタショウテン,0
2127,9080402000986,登記記録の閉鎖等,0,2022-12-22,2022-12-21,有限会社岩崎板金工業所,,有限会社,静岡県,浜松市南区,米津町２００８番地の２,,22,134,4328056,,,2022-12-21,清算の結了等,,,2015-10-05,1,,,,,イワサキバンキンコウギョウショ,0
2137,9100002010012,登記記録の閉鎖等,0,2022-12-22,2022-12-20,有限会社ワカバヤシ樹脂,,有限会社,長野県,千曲市,大字上山田２２４２番地,,20,218,3890822,,,2022-12-20,清算の結了等,,,2015-10-05,1,,,,,ワカバヤシジュシ,0
2138,9100002026421,登記記録の閉鎖等,0,2022-12-22,2022-12-21,有限会社信濃,,有限会社,長野県,大町市,社３５３５番地,,20,212,3980003,,,2022-12-21,清算の結了等,,,2015-10-05,1,,,,,シナノ,0
2139,9110002020910,登記記録の閉鎖等,0,2022-12-22,2022-12-15,有限会社ビューティコダマ,,有限会社,新潟県,柏崎市,西山町礼拝７８０番地,,15,205,9494124,,,2022-12-15,清算の結了等,,,2015-10-05,1,,,,,ビューティコダマ,0
2159,9120101047952,登記記録の閉鎖等,0,2022-12-22,2022-12-21,ニッチコーポレーション株式会社,,株式会社,大阪府,堺市南区,小代１７６番地,,27,145,5900151,,,2022-12-21,清算の結了等,,,2015-10-05,1,,,,,ニッチコーポレーション,0
2180,9170001015617,登記記録の閉鎖等,0,2022-12-22,2022-12-20,株式会社ｃｕｒｖｅ－ｄｅｓｉｇｎ,,株式会社,和歌山県,海南市,馬場町１丁目２番地４,,30,202,6420004,,,2022-12-20,清算の結了等,,,2019-05-27,1,,,,,カーブデザイン,0
2182,9170002004214,登記記録の閉鎖等,0,2022-12-22,2022-12-19,有限会社つわぶき事業所,,有限会社,和歌山県,和歌山市,吹屋町５丁目４９番地の３,,30,201,6408324,,,2022-12-19,清算の結了等,,,2015-10-05,1,,,,,ツワブキジギョウショ,0
2196,9190005006081,登記記録の閉鎖等,0,2022-12-22,2022-12-20,農事組合法人友田養豚場,,その他の設立登記法人,三重県,伊賀市,下友田１３８８番地,,24,216,5181305,,,2022-12-20,清算の結了等,,,2015-10-05,1,,,,,トモダヨウトンジョウ,0
2208,9220005004321,登記記録の閉鎖等,0,2022-12-22,2022-12-01,社会福祉法人恵愛会,,その他の設立登記法人,石川県,小松市,平面町ヘ１３３番地１,,17,203,9230036,,,2022-12-01,合併による解散等,7220005004323,令和４年１２月１日石川県小松市松崎町赤場１番１社会福祉法人天宣会（7220005004323）に合併し解散,2015-10-05,1,,,,,ケイアイカイ,0
2213,9240001034741,登記記録の閉鎖等,0,2022-12-22,2022-12-16,株式会社ＲＤ,,株式会社,広島県,福山市,伊勢丘８丁目１５番１号,,34,207,7210915,,,2022-12-16,合併による解散等,3240001030390,令和４年１２月１６日広島県福山市引野町四丁目１９番１号株式会社教文（3240001030390）に合併し解散,2015-10-05,1,,,,,アールディー,0
2215,9240002021045,登記記録の閉鎖等,0,2022-12-22,2022-12-19,有限会社和士,,有限会社,広島県,広島市東区,中山東１丁目５番３９号,,34,102,7320023,,,2022-12-19,清算の結了等,,,2015-10-05,1,,,,,カズオ,0
2233,9310002002814,登記記録の閉鎖等,0,2022-12-22,2022-12-21,有限会社ソフィアインターナショナル,,有限会社,長崎県,長崎市,城山台１丁目１１番２号,,42,201,8528027,,,2022-12-21,清算の結了等,,,2015-10-05,1,,,,,,0
2236,9320001001551,登記記録の閉鎖等,0,2022-12-22,2022-12-19,株式会社大一工務店,,株式会社,大分県,大分市,大字旦野原９１０番地の７０,,44,201,8701124,,,2022-12-19,清算の結了等,,,2015-10-05,1,,,,,ダイイチコウムテン,0
2238,9330005002660,登記記録の閉鎖等,0,2022-12-22,2022-12-06,天理教原水分教会,,その他の設立登記法人,熊本県,菊池郡菊陽町,大字原水１５６３番地,,43,404,8691102,,,2022-12-06,合併による解散等,5330005002656,令和４年１２月６日熊本県菊池郡大津町大字町２５７番地天理教陣内分教会（5330005002656）に合併し解散,2015-10-05,1,,,,,,0
2241,9350002011877,登記記録の閉鎖等,0,2022-12-22,2022-12-19,有限会社甲斐石材店,,有限会社,宮崎県,延岡市,舞野町１４４７番地３３,,45,203,8820066,,,2022-12-19,清算の結了等,,,2015-10-05,1,,,,,カイセキザイテン,0
2247,9380001020158,登記記録の閉鎖等,0,2022-12-22,2022-12-19,株式会社ワイアップファッション,,株式会社,福島県,福島市,飯野町大久保字五反田３－１,,07,201,9601304,,,2022-12-19,清算の結了等,,,2015-10-05,1,,,,,ワイアップファッション,0
2259,9490005003536,登記記録の閉鎖等,0,2022-12-22,2022-12-21,医療法人西村会,,その他の設立登記法人,高知県,吾川郡仁淀川町,森２５７７番地３,,39,387,7811801,,,2022-12-21,清算の結了等,,,2015-10-05,1,,,,,ニシムラカイ,0
