sequenceNumber,corporateNumber,process,correct,updateDate,changeDate,name,nameImageId,kind,prefectureName,cityName,streetNumber,addressImageId,prefectureCode,cityCode,postCode,addressOutside,addressOutsideImageId,closeDate,closeCause,successorCorporateNumber,changeCause,assignmentDate,latest,enName,enPrefectureName,enCityName,enAddressOutside,furigana,hihyoji
7,1010001227607,新規,0,2022-06-27,2022-06-27,株式会社平澤電気,,株式会社,東京都,千代田区,外神田１丁目１０番１１号,,13,101,1010021,,,,,,,2022-06-27,1,,,,,ヒラサワデンキ,0
8,1010001227648,新規,0,2022-06-27,2022-06-27,株式会社リッツライフソリューション,,株式会社,東京都,中央区,京橋１丁目６－１３金葉ビル６階,,13,102,1040031,,,,,,,2022-06-27,1,,,,,リッツライフソリューション,0
11,1010003037962,新規,0,2022-06-27,2022-06-27,ザ・ホテリエ・グループ岩手沼宮内合同会社,,合同会社,東京都,千代田区,丸の内１丁目１１番１号パシフィックセンチュリープレイス丸の内１７階,,13,101,1000005,,,,,,,2022-06-27,1,,,,,ザホテリエグループイワテヌマクナイ,0
12,1010003037970,新規,0,2022-06-27,2022-06-27,ザ・ホテリエ・グループ竜王合同会社,,合同会社,東京都,千代田区,丸の内１丁目１１番１号パシフィックセンチュリープレイス丸の内１７階,,13,101,1000005,,,,,,,2022-06-27,1,,,,,ザホテリエグループリュウオウ,0
13,1010003037979,新規,0,2022-06-27,2022-06-27,ザ・ホテリエ・グループ京都宝ヶ池合同会社,,合同会社,東京都,千代田区,丸の内１丁目１１番１号パシフィックセンチュリープレイス丸の内１７階,,13,101,1000005,,,,,,,2022-06-27,1,,,,,ザホテリエグループキョウトタカラガイケ,0
14,1010003037995,新規,0,2022-06-27,2022-06-27,合同会社首都圏レジ開発プロジェクト,,合同会社,東京都,千代田区,平河町１丁目６番１５号シルスフィア会計事務所内,,13,101,1020093,,,,,,,2022-06-27,1,,,,,シュトケンレジカイハツプロジェクト,0
21,1010401168178,新規,0,2022-06-27,2022-06-27,株式会社辻田屋,,株式会社,東京都,港区,六本木３丁目１５番３号２０１,,13,103,1060032,,,,,,,2022-06-27,1,,,,,ツジタヤ,0
23,1010403027984,新規,0,2022-06-27,2022-06-27,合同会社Ａｓｓｉｓｔ,,合同会社,東京都,港区,浜松町２丁目２番１５号浜松町ダイヤビル２Ｆ,,13,103,1050013,,,,,,,2022-06-27,1,,,,,アシスト,0
25,1010501049030,新規,0,2022-06-27,2022-06-27,おかちや株式会社,,株式会社,東京都,台東区,台東３丁目４４番４号３Ｆ,,13,106,1100016,,,,,,,2022-06-27,1,,,,,オカチヤ,0
27,1010601061389,新規,0,2022-06-27,2022-06-27,株式会社建創,,株式会社,東京都,江東区,亀戸９丁目７番１１－３０５号,,13,108,1360071,,,,,,,2022-06-27,1,,,,,ケンソウ,0
31,1010901051123,新規,0,2022-06-27,2022-06-27,株式会社Ａｒｉｃ,,株式会社,東京都,世田谷区,下馬３丁目２２番２号,,13,112,1540002,,,,,,,2022-06-27,1,,,,,アリック,0
32,1010901051131,新規,0,2022-06-27,2022-06-27,株式会社Ｂｒｕｃｅ　Ｈｏｍｅ,,株式会社,東京都,世田谷区,野毛２丁目１７番２２号,,13,112,1580092,,,,,,,2022-06-27,1,,,,,ブルースホーム,0
41,1011001148314,新規,0,2022-06-27,2022-06-27,株式会社２１ｇ,,株式会社,東京都,渋谷区,渋谷２丁目８－４,,13,113,1500002,,,,,,,2022-06-27,1,,,,,ニジュウイチグラム,0
42,1011001148347,新規,0,2022-06-27,2022-06-27,株式会社Ｗｏｒｌｄ　ｉｃｏｎ,,株式会社,東京都,渋谷区,道玄坂１丁目１５番３号プリメーラ道玄坂８１７,,13,113,1500043,,,,,,,2022-06-27,1,,,,,ワールドアイコン,0
47,1011003014927,新規,0,2022-06-27,2022-06-27,Ｃｏｎｔｉｇｏ合同会社,,合同会社,東京都,渋谷区,上原１丁目３番９号,,13,113,1510064,,,,,,,2022-06-27,1,,,,,コンティゴ,0
48,1011003014943,新規,0,2022-06-27,2022-06-27,合同会社ＲＡキャピタル,,合同会社,東京都,渋谷区,初台２丁目２９番３－３１２号,,13,113,1510061,,,,,,,2022-06-27,1,,,,,アールエーキャピタル,0
67,1012801021676,新規,0,2022-06-27,2022-06-27,株式会社リーブス,,株式会社,東京都,国分寺市,東戸倉１丁目５番地３,,13,214,1850002,,,,,,,2022-06-27,1,,,,,リーブス,0
72,1013301049290,新規,0,2022-06-27,2022-06-27,株式会社寛永堂,,株式会社,東京都,豊島区,巣鴨３丁目２７番８号,,13,116,1700002,,,,,,,2022-06-27,1,,,,,カンエイドウ,0
73,1013303006208,新規,0,2022-06-27,2022-06-27,合同会社まるよし,,合同会社,東京都,豊島区,東池袋５丁目２６番９号,,13,116,1700013,,,,,,,2022-06-27,1,,,,,マルヨシ,0
82,1020001147060,新規,0,2022-06-27,2022-06-27,臨芸株式会社,,株式会社,神奈川県,川崎市麻生区,岡上５丁目１３番２５号スターホームズ鶴川３０１号室,,14,137,2150027,,,,,,,2022-06-27,1,,,,,リンゲイ,0
83,1020001147085,新規,0,2022-06-27,2022-06-27,株式会社ＫＳスリー,,株式会社,神奈川県,横浜市西区,東久保町８番１２号Ｋ－Ｕｒｂａｎ１０２号,,14,103,2200062,,,,,,,2022-06-27,1,,,,,ケーエススリー,0
92,1021001076349,新規,0,2022-06-27,2022-06-27,株式会社ＣｏｕｎｔＵｐ,,株式会社,神奈川県,逗子市,逗子６丁目８番２３号小泉ガーデンハウス２０６号,,14,208,2490006,,,,,,,2022-06-27,1,,,,,カウントアップ,0
98,1021003011857,新規,0,2022-06-27,2022-06-27,合同会社Ｙｏｋｕ　Ｓｅｒｖｉｃｅ　Ｄｅｓｉｇｎ,,合同会社,神奈川県,藤沢市,大鋸３丁目１３番１号,,14,205,2510002,,,,,,,2022-06-27,1,,,,,ヨクサービスデザイン,0
102,1030001148867,新規,0,2022-06-27,2022-06-27,株式会社和,,株式会社,埼玉県,東松山市,大字上唐子１２８５番地２,,11,212,3550077,,,,,,,2022-06-27,1,,,,,カズ,0
103,1030001148883,新規,0,2022-06-27,2022-06-27,株式会社アシュール,,株式会社,埼玉県,三郷市,彦成３丁目８番７－４０４号,,11,237,3410003,,,,,,,2022-06-27,1,,,,,アシュール,0
108,1030003019661,新規,0,2022-06-27,2022-06-27,Ｉｃｈｉ　Ｊａｐａｎ合同会社,,合同会社,埼玉県,上尾市,愛宕２丁目１０番１７号フローラ上尾２０２,,11,219,3620034,,,,,,,2022-06-27,1,,,,,イチジャパン,0
130,1050005013099,新規,0,2022-06-27,2022-06-27,特定非営利活動法人かわくじアニマルレスキュー,,その他の設立登記法人,茨城県,水戸市,東台２丁目２番１号メイサンライズ１０３号,,08,201,3100818,,,,,,,2022-06-27,1,,,,,カワクジアニマルレスキュー,0
157,1120001246975,新規,0,2022-06-27,2022-06-27,株式会社三和グループホールディングス,,株式会社,大阪府,大阪市阿倍野区,阿倍野筋５丁目１０番１７号,,27,119,5450052,,,,,,,2022-06-27,1,,,,,サンワグループホールディングス,0
158,1120001246983,新規,0,2022-06-27,2022-06-27,アクアフオーコホールディングス株式会社,,株式会社,大阪府,大阪市北区,天満１丁目１９番４号,,27,127,5300043,,,,,,,2022-06-27,1,,,,,アクアフオーコホールディングス,0
163,1120101065730,新規,0,2022-06-27,2022-06-27,Ｓｔａｒｖｅｒｓｅ株式会社,,株式会社,大阪府,泉佐野市,若宮町４番３－６０３号,,27,213,5980055,,,,,,,2022-06-27,1,,,,,スターバース,0
164,1120101065796,新規,0,2022-06-27,2022-06-27,株式会社ＭＫＳ,,株式会社,大阪府,大阪狭山市,西山台３丁目１番２２号,,27,231,5890022,,,,,,,2022-06-27,1,,,,,エムケーエス,0
166,1120901046161,新規,0,2022-06-27,2022-06-27,株式会社みずき,,株式会社,大阪府,高槻市,高槻町１９番２号,,27,207,5690803,,,,,,,2022-06-27,1,,,,,ミズキ,0
182,1140003017836,新規,0,2022-06-27,2022-06-27,合同会社俵屋,,合同会社,兵庫県,神戸市東灘区,魚崎南町７丁目３番１３号,,28,101,6580025,,,,,,,2022-06-27,1,,,,,タワラヤ,0
185,1160001024312,新規,0,2022-06-27,2022-06-27,株式会社グリーリッシュ,,株式会社,滋賀県,甲賀市,甲賀町油日５６９番地,,25,209,5203413,,,,,,,2022-06-27,1,,,,,グリーリッシュ,0
196,1180001151889,新規,0,2022-06-27,2022-06-27,ＨＡＮＡ　ｃｏｎｓｕｌｔｉｎｇ株式会社,,株式会社,愛知県,名古屋市中村区,八社２丁目１１２番地１０５室,,23,105,4530863,,,,,,,2022-06-27,1,,,,,ハナコンサルティング,0
197,1180001151897,新規,0,2022-06-27,2022-06-27,ビートエモーション株式会社,,株式会社,愛知県,名古屋市千種区,姫池通３丁目７番地,,23,101,4640055,,,,,,,2022-06-27,1,,,,,ビートエモーション,0
200,1180003023970,新規,0,2022-06-27,2022-06-27,合同会社ニケ,,合同会社,愛知県,大府市,追分町１丁目１８４番地エクセルＮＡＲＩＴＡ１０５号,,23,223,4740027,,,,,,,2022-06-27,1,,,,,ニケ,0
202,1180303005371,新規,0,2022-06-27,2022-06-27,合同会社シュガー,,合同会社,愛知県,額田郡幸田町,大字六栗字蔵前３５番地１,,23,501,4440122,,,,,,,2022-06-27,1,,,,,シュガー,0
207,1200001040214,新規,0,2022-06-27,2022-06-27,株式会社Ｓ．Ｃ．Ｗｉｎｄｓ,,株式会社,岐阜県,飛騨市,古川町殿町７－１４,,21,217,5094224,,,,,,,2022-06-27,1,,,,,エスシイウインズ,0
208,1200001040222,新規,0,2022-06-27,2022-06-27,美山農産株式会社,,株式会社,岐阜県,山県市,出戸１２番地,,21,215,5012254,,,,,,,2022-06-27,1,,,,,ミヤマノウサン,0
209,1200003005603,新規,0,2022-06-27,2022-06-27,合同会社３７３,,合同会社,岐阜県,土岐市,妻木町１６番地の１,,21,212,5095301,,,,,,,2022-06-27,1,,,,,サナミ,0
212,1210001018969,新規,0,2022-06-27,2022-06-27,アスト株式会社,,株式会社,福井県,丹生郡越前町,江波第８９号１番地３,,18,423,9160255,,,,,,,2022-06-27,1,,,,,アスト,0
215,1220001024917,新規,0,2022-06-27,2022-06-27,ＫＡＮＯ株式会社,,株式会社,石川県,小松市,白江町ヨ２７８番地,,17,203,9230811,,,,,,,2022-06-27,1,,,,,カノウ,0
226,1260001036990,新規,0,2022-06-27,2022-06-27,株式会社Ｌｉｂｅｒｏ,,株式会社,岡山県,倉敷市,児島阿津１丁目８番２９号,,33,202,7110923,,,,,,,2022-06-27,1,,,,,リベロ,0
233,1290001098054,新規,0,2022-06-27,2022-06-27,ネクストリンク株式会社,,株式会社,福岡県,福岡市早良区,梅林６丁目２２番２号,,40,137,8140172,,,,,,,2022-06-27,1,,,,,ネクストリンク,0
235,1290801028648,新規,0,2022-06-27,2022-06-27,株式会社ＭＡＴＵＩＣＨＩ,,株式会社,福岡県,北九州市小倉北区,中井２丁目５番１０号名保ビル３０６号室,,40,106,8030836,,,,,,,2022-06-27,1,,,,,マツイチ,0
241,1320001019163,新規,0,2022-06-27,2022-06-27,株式会社エイチアイワークス,,株式会社,大分県,大分市,大字皆春３３９番２５,,44,201,8700131,,,,,,,2022-06-27,1,,,,,エイチアイワークス,0
262,1430003014044,新規,0,2022-06-27,2022-06-27,合同会社千秋,,合同会社,北海道,札幌市西区,山の手三条４丁目１番２号レジデンス山の手２０５号,,01,107,0630003,,,,,,,2022-06-27,1,,,,,チアキ,0
265,1470001019132,新規,0,2022-06-27,2022-06-27,株式会社吉コウ,,株式会社,香川県,高松市,太田下町２２３１番地１７,,37,201,7618073,,,,,,,2022-06-27,1,,,,,キッコウ,0
272,1700150109676,新規,0,2022-06-27,2022-06-14,たかはし権利擁護ネットワーク懇談会,,その他,岡山県,高梁市,鉄砲町５３－１,,33,209,7160031,,,,,,,2022-06-14,1,,,,,タカハシケンリヨウゴネツトワークコンダンカイ,0
277,2010001227614,新規,0,2022-06-27,2022-06-27,株式会社ＳＰＮＶ,,株式会社,東京都,中央区,銀座１丁目２２番１１号銀座大竹ビジデンス２階,,13,102,1040061,,,,,,,2022-06-27,1,,,,,エスピーエヌヴィー,0
278,2010001227630,新規,0,2022-06-27,2022-06-27,ＪＤＢ株式会社,,株式会社,東京都,中央区,新富１丁目３番９号須藤ビル５階,,13,102,1040041,,,,,,,2022-06-27,1,,,,,ジャパンデジタルバンク,0
279,2010001227671,新規,0,2022-06-27,2022-06-27,株式会社恵生堂,,株式会社,東京都,中央区,銀座７丁目１５番８号タウンハイツ銀座４０６,,13,102,1040061,,,,,,,2022-06-27,1,,,,,ケイセイドウ,0
280,2010003037978,新規,0,2022-06-27,2022-06-27,ザ・ホテリエ・グループ札幌合同会社,,合同会社,東京都,千代田区,丸の内１丁目１１番１号パシフィックセンチュリープレイス丸の内１７階,,13,101,1000005,,,,,,,2022-06-27,1,,,,,ザホテリエグループサッポロ,0
281,2010003037994,新規,0,2022-06-27,2022-06-27,合同会社船橋東中山開発プロジェクト,,合同会社,東京都,千代田区,平河町１丁目６番１５号シルスフィア会計事務所内,,13,101,1020093,,,,,,,2022-06-27,1,,,,,フナバシヒガシナカヤマカイハツプロジェクト,0
282,2010003038002,新規,0,2022-06-27,2022-06-27,合同会社カレントフロー,,合同会社,東京都,中央区,新川１丁目１０－１６エスポワール梅里５０２,,13,102,1040033,,,,,,,2022-06-27,1,,,,,カレントフロー,0
283,2010101015233,新規,0,2022-06-27,2022-06-27,株式会社渡邊興業,,株式会社,東京都,八王子市,本町３５番１０号,,13,201,1920066,,,,,,,2022-06-27,1,,,,,ワタナベコウギョウ,0
290,2010401168144,新規,0,2022-06-27,2022-06-27,株式会社ＫＡＯ‐ＢＩ,,株式会社,東京都,港区,南青山２丁目２番１５号,,13,103,1070062,,,,,,,2022-06-27,1,,,,,カオービ,0
291,2010401168160,新規,0,2022-06-27,2022-06-27,株式会社ロイヤルビューティー,,株式会社,東京都,港区,西麻布４丁目５番１０－１７０６号,,13,103,1060031,,,,,,,2022-06-27,1,,,,,ロイヤルビューティー,0
293,2010405021101,新規,0,2022-06-27,2022-06-27,弁護士法人志田・金子法律事務所,,その他の設立登記法人,東京都,港区,虎ノ門４丁目２番１２号虎ノ門四丁目ＭＴビル２号館９階,,13,103,1050001,,,,,,,2022-06-27,1,,,,,シダカネコホウリツジムショ,0
294,2010601061388,新規,0,2022-06-27,2022-06-27,株式会社湾岸コンサルティンググループ,,株式会社,東京都,江東区,豊洲６丁目２番３１－２２２３号,,13,108,1350061,,,,,,,2022-06-27,1,,,,,ワンガンコンサルティンググループ,0
300,2010901051106,新規,0,2022-06-27,2022-06-27,株式会社ＲＡＳＨＩＮＢＡＮ,,株式会社,東京都,世田谷区,三宿１丁目３番１９－３１０号,,13,112,1540005,,,,,,,2022-06-27,1,,,,,ラシンバン,0
311,2011001148305,新規,0,2022-06-27,2022-06-27,株式会社Ｓ＆Ｋコーポレーション,,株式会社,東京都,渋谷区,広尾３丁目８番１３号,,13,113,1500012,,,,,,,2022-06-27,1,,,,,エスアンドケーコーポレーション,0
315,2011005009627,新規,0,2022-06-27,2022-06-27,一般社団法人Ｂｅａｕｔｙ　Ｓｏｍｍｅｌｉｅｒ　Ａｃａｄｅｍｙ,,その他の設立登記法人,東京都,渋谷区,千駄ヶ谷３丁目１番１０号第８宮廷マンション５０３号室,,13,113,1510051,,,,,,,2022-06-27,1,,,,,ビューティソムリエアカデミー,0
317,2011105010303,新規,0,2022-06-27,2022-06-27,一般社団法人未来医療センター,,その他の設立登記法人,東京都,新宿区,左門町２番６ワコービル５階,,13,104,1600017,,,,,,,2022-06-27,1,,,,,ミライイリョウセンター,0
322,2011601026059,新規,0,2022-06-27,2022-06-27,株式会社レクファード,,株式会社,東京都,練馬区,石神井町２丁目１４番１－２２０１号,,13,120,1770041,,,,,,,2022-06-27,1,,,,,レクファード,0
326,2012401039341,新規,0,2022-06-27,2022-06-27,株式会社ＩＭＩプランニング,,株式会社,東京都,武蔵野市,吉祥寺本町１丁目２９番６号,,13,203,1800004,,,,,,,2022-06-27,1,,,,,アイエムアイプランニング,0
331,2013103001143,新規,0,2022-06-27,2022-06-27,ＮＴＫ合同会社,,合同会社,東京都,青梅市,長淵４丁目１３６６番地ハイム２１－３０２,,13,205,1980052,,,,,,,2022-06-27,1,,,,,エヌティーケー,0
342,2020001147092,新規,0,2022-06-27,2022-06-27,株式会社ＨＰＬＵＳ,,株式会社,神奈川県,横浜市鶴見区,東寺尾４丁目１番１－７０５号,,14,101,2300077,,,,,,,2022-06-27,1,,,,,エイチプラス,0
360,2030001148825,新規,0,2022-06-27,2022-06-27,ＡＮＮＡ国際株式会社,,株式会社,埼玉県,蕨市,中央５丁目５番１３号,,11,223,3350004,,,,,,,2022-06-27,1,,,,,アンナコクサイ,0
383,2070001039384,新規,0,2022-06-27,2022-06-27,株式会社ｂｕｄ,,株式会社,群馬県,高崎市,江木町９２６番地５,,10,202,3700046,,,,,,,2022-06-27,1,,,,,バド,0
389,2080401025909,新規,0,2022-06-27,2022-06-27,株式会社ｎｉｃｏ,,株式会社,静岡県,浜松市中区,早出町３２７番地の１,,22,131,4350054,,,,,,,2022-06-27,1,,,,,ニコ,0
393,2110001036765,新規,0,2022-06-27,2022-06-27,株式会社館山産業,,株式会社,新潟県,新潟市東区,新松崎３丁目２２番１０号,,15,102,9500017,,,,,,,2022-06-27,1,,,,,タテヤマサンギョウ,0
404,2120001246792,新規,0,2022-06-27,2022-06-27,株式会社ＬＵＣＡ,,株式会社,大阪府,枚方市,渚南町３２番６号,,27,210,5731183,,,,,,,2022-06-27,1,,,,,ルカ,0
405,2120001246941,新規,0,2022-06-27,2022-06-27,日本晟宇通商株式会社,,株式会社,大阪府,大阪市淀川区,十三元今里２丁目１２番２５号,,27,123,5320028,,,,,,,2022-06-27,1,,,,,ニホンセイウツウショウ,0
406,2120001246982,新規,0,2022-06-27,2022-06-27,株式会社ＣＲＥＤＯ,,株式会社,大阪府,大阪市北区,東天満２丁目３番７－９０２号,,27,127,5300044,,,,,,,2022-06-27,1,,,,,クレド,0
409,2120003021913,新規,0,2022-06-27,2022-06-27,ジョブプロダクティブ合同会社,,合同会社,大阪府,大阪市中央区,瓦屋町２丁目１２番１５号,,27,128,5420066,,,,,,,2022-06-27,1,,,,,ジョブプロダクティブ,0
410,2120003021938,新規,0,2022-06-27,2022-06-27,ＥＴＫ＆Ｃｏ．合同会社,,合同会社,大阪府,大阪市中央区,本町２丁目３－４アソルテ本町４Ｆ,,27,128,5410053,,,,,,,2022-06-27,1,,,,,イーティーケーアンドカンパニー,0
411,2120003021970,新規,0,2022-06-27,2022-06-27,Ｆ．ｓｔｙｌｅ合同会社,,合同会社,大阪府,大阪市生野区,林寺５丁目１２番２２号,,27,116,5440023,,,,,,,2022-06-27,1,,,,,エフスタイル,0
412,2120003021979,新規,0,2022-06-27,2022-06-27,Ｗｏｒｌｄ　Ｉｎｎｏｖａｔｉｏｎ　Ｎｅｖｅｒ合同会社,,合同会社,大阪府,大阪市浪速区,大国３丁目６－１６ＡＣＴ’６２－３０７号室,,27,111,5560014,,,,,,,2022-06-27,1,,,,,ワールドイノベーションネバー,0
415,2120901046152,新規,0,2022-06-27,2022-06-27,株式会社ＥＭＭＡ,,株式会社,大阪府,茨木市,駅前４丁目６番１１－１１０２号,,27,211,5670888,,,,,,,2022-06-27,1,,,,,エマ,0
428,2140001126489,新規,0,2022-06-27,2022-06-27,株式会社オフテクスマニュファクチャリング,,株式会社,兵庫県,豊岡市,神美台１５６番地５,,28,209,6680831,,,,,,,2022-06-27,1,,,,,オフテクスマニュファクチャリング,0
429,2140001126514,新規,0,2022-06-27,2022-06-27,株式会社Ｒｏｓｓｏ８３,,株式会社,兵庫県,神戸市中央区,磯上通８丁目１番２９号カサベラビルＣ＆Ｍ４０３号室,,28,110,6510086,,,,,,,2022-06-27,1,,,,,ロッソハチジュウサン,0
430,2140001126522,新規,0,2022-06-27,2022-06-27,株式会社ハナミズキ,,株式会社,兵庫県,西宮市,大社町１１番３１－１１６号,,28,204,6620867,,,,,,,2022-06-27,1,,,,,ハナミズキ,0
431,2140001126530,新規,0,2022-06-27,2022-06-27,株式会社ハーツ,,株式会社,兵庫県,淡路市,生穂１４１５番地７,,28,226,6562223,,,,,,,2022-06-27,1,,,,,ハーツ,0
438,2140003017835,新規,0,2022-06-27,2022-06-27,合同会社和み,,合同会社,兵庫県,小野市,鹿野町２２１６番地の６,,28,218,6751364,,,,,,,2022-06-27,1,,,,,ナゴミ,0
439,2140003017843,新規,0,2022-06-27,2022-06-27,合同会社凛,,合同会社,兵庫県,姫路市,亀山２８８番地,,28,201,6700973,,,,,,,2022-06-27,1,,,,,リン,0
440,2140003017851,新規,0,2022-06-27,2022-06-27,Ｗａｌｌｏｗ　Ｇｌｅａｍ　Ｊａｐａｎ合同会社,,合同会社,兵庫県,神戸市北区,藤原台北町４丁目２１番１号,,28,109,6511301,,,,,,,2022-06-27,1,,,,,ワローグリームジャパン,0
443,2150001025649,新規,0,2022-06-27,2022-06-27,株式会社生駒漏水,,株式会社,奈良県,生駒市,東生駒月見町１３２番地２６,,29,209,6300214,,,,,,,2022-06-27,1,,,,,イコマロウスイ,0
462,2180001151888,新規,0,2022-06-27,2022-06-27,株式会社喰,,株式会社,愛知県,名古屋市中区,丸の内２丁目１－１９,,23,106,4600002,,,,,,,2022-06-27,1,,,,,クウ,0
463,2180001151896,新規,0,2022-06-27,2022-06-27,株式会社信輪,,株式会社,愛知県,名古屋市港区,野跡２丁目２番７号,,23,111,4550845,,,,,,,2022-06-27,1,,,,,シンワ,0
466,2180003023945,新規,0,2022-06-27,2022-06-27,合同会社Ｙ,,合同会社,愛知県,春日井市,柏井町５丁目２６４番地１,,23,206,4860927,,,,,,,2022-06-27,1,,,,,ワイ,0
472,2200001040213,新規,0,2022-06-27,2022-06-27,株式会社Ｅｃｕｂｉｃ,,株式会社,岐阜県,加茂郡八百津町,伊岐津志７４０番地１,,21,505,5050303,,,,,,,2022-06-27,1,,,,,イーキュービック,0
477,2210001018976,新規,0,2022-06-27,2022-06-27,福祥株式会社,,株式会社,福井県,越前市,家久町第５７号１９番地,,18,209,9150801,,,,,,,2022-06-27,1,,,,,フクショウ,0
480,2220003003315,新規,0,2022-06-27,2022-06-27,合同会社Ｄ・Ｄ,,合同会社,石川県,金沢市,桂町ホ４７番地２,,17,201,9200334,,,,,,,2022-06-27,1,,,,,ディディ,0
495,2290001098045,新規,0,2022-06-27,2022-06-27,株式会社ＦＣＫ,,株式会社,福岡県,福岡市中央区,白金１丁目８番２号,,40,133,8100012,,,,,,,2022-06-27,1,,,,,エフシーケー,0
496,2290001098053,新規,0,2022-06-27,2022-06-27,株式会社ＩＤＳ,,株式会社,福岡県,飯塚市,菰田東１丁目３番３０号,,40,205,8200016,,,,,,,2022-06-27,1,,,,,アイディエス,0
497,2290001098061,新規,0,2022-06-27,2022-06-27,株式会社大宅工業,,株式会社,福岡県,福岡市博多区,対馬小路２番１－９０２号天神パークホームズ,,40,132,8120020,,,,,,,2022-06-27,1,,,,,オオタクコウギョウ,0
501,2290801028663,新規,0,2022-06-27,2022-06-27,株式会社ｍｅｔａ　Ｉｉｎｅ,,株式会社,福岡県,田川郡福智町,金田５８２番地５,,40,610,8221201,,,,,,,2022-06-27,1,,,,,メタイイネ,0
510,2370001048710,新規,0,2022-06-27,2022-06-27,株式会社ＪＡＣ,,株式会社,宮城県,仙台市青葉区,一番町４丁目１番７号,,04,101,9800811,,,,,,,2022-06-27,1,,,,,ジェイエーシー,0
511,2370001048727,新規,0,2022-06-27,2022-06-27,裕清株式会社,,株式会社,宮城県,石巻市,湊町２丁目３番４０号,,04,202,9860025,,,,,,,2022-06-27,1,,,,,ユウシン,0
521,2430001086902,新規,0,2022-06-27,2022-06-27,株式会社Ｓａｎｄｂｏｘ　Ｉｎｖｅｓｔｍｅｎｔ,,株式会社,北海道,札幌市中央区,北一条西３丁目３番２７号札幌北１条駅前通りビル９階,,01,101,0600001,,,,,,,2022-06-27,1,,,,,サンドボックスインベストメント,0
528,2470001019131,新規,0,2022-06-27,2022-06-27,株式会社カーディスメンタル,,株式会社,香川県,高松市,下田井町５３１番地１２,,37,201,7610313,,,,,,,2022-06-27,1,,,,,カーディスメンタル,0
532,2700150109064,新規,0,2022-06-27,2022-05-27,Ｋａｓｈｉｗａ　Ｓｐｅｃｉａｌ　Ｓｏｕｎｄｓ,,その他,千葉県,柏市,光ケ丘２丁目２３－６２小野様方,,12,217,2770065,,,,,,,2022-05-27,1,,,,,カシワスペシヤルサウンズ,0
549,3010001227423,新規,0,2022-06-27,2022-06-27,株式会社スカット,,株式会社,東京都,中央区,築地２丁目１番２－１０２号,,13,102,1040045,,,,,,,2022-06-27,1,,,,,スカット,0
550,3010001227555,新規,0,2022-06-27,2022-06-27,株式会社ｃａｒＬａｂｏ,,株式会社,東京都,中央区,晴海３丁目６番８－４６０６号,,13,102,1040053,,,,,,,2022-06-27,1,,,,,カーラボ,0
551,3010001227662,新規,0,2022-06-27,2022-06-27,株式会社ＧＡＴＯ,,株式会社,東京都,中央区,入船３丁目１番４号,,13,102,1040042,,,,,,,2022-06-27,1,,,,,,0
555,3010003037969,新規,0,2022-06-27,2022-06-27,ザ・ホテリエ・グループ富良野合同会社,,合同会社,東京都,千代田区,丸の内１丁目１１番１号パシフィックセンチュリープレイス丸の内１７階,,13,101,1000005,,,,,,,2022-06-27,1,,,,,ザホテリエグループフラノ,0
556,3010003037977,新規,0,2022-06-27,2022-06-27,ザ・ホテリエ・グループ芝公園合同会社,,合同会社,東京都,千代田区,丸の内１丁目１１番１号パシフィックセンチュリープレイス丸の内１７階,,13,101,1000005,,,,,,,2022-06-27,1,,,,,ザホテリエグループシバコウエン,0
557,3010003038001,新規,0,2022-06-27,2022-06-27,合同会社アーモンドキャップ,,合同会社,東京都,中央区,勝どき２丁目１３番６－４０２号,,13,102,1040054,,,,,,,2022-06-27,1,,,,,アーモンドキャップ,0
562,3010005035186,新規,0,2022-06-27,2022-06-27,Ｉ．Ａ．Ｍ一般社団法人,,その他の設立登記法人,東京都,千代田区,一ツ橋２丁目６番３号アクシスインベストメントアドバイザーズ株式会社内,,13,101,1010003,,,,,,,2022-06-27,1,,,,,アイエーエム,0
574,3010401168168,新規,0,2022-06-27,2022-06-27,株式会社ＭＩＮＴ,,株式会社,東京都,港区,南青山２丁目２番１５号,,13,103,1070062,,,,,,,2022-06-27,1,,,,,ミント,0
575,3010403027974,新規,0,2022-06-27,2022-06-27,合同会社ネコミミ,,合同会社,東京都,港区,新橋５丁目２５番１号,,13,103,1050004,,,,,,,2022-06-27,1,,,,,ネコミミ,0
577,3010501049020,新規,0,2022-06-27,2022-06-27,株式会社五色,,株式会社,東京都,台東区,三ノ輪２丁目３番８－１０２号,,13,106,1100011,,,,,,,2022-06-27,1,,,,,ゴシキ,0
578,3010503006630,新規,0,2022-06-27,2022-06-27,合同会社三宅,,合同会社,東京都,台東区,入谷２丁目３８－５－３０１,,13,106,1100013,,,,,,,2022-06-27,1,,,,,ミヤケ,0
584,3010701042881,新規,0,2022-06-27,2022-06-27,株式会社ｉｄｅａｌｉｓｔ,,株式会社,東京都,品川区,北品川５丁目５番１５号,,13,109,1410001,,,,,,,2022-06-27,1,,,,,アイディアリスト,0
593,3010903007484,新規,0,2022-06-27,2022-06-27,合同会社ａｌｔｅｒｅｇｏ,,合同会社,東京都,世田谷区,上野毛４丁目１６番１７－１１４号,,13,112,1580093,,,,,,,2022-06-27,1,,,,,アルテレーゴ,0
596,3011001148312,新規,0,2022-06-27,2022-06-27,株式会社ｍａｎｅｔ,,株式会社,東京都,渋谷区,桜丘町２１－１２桜ヶ丘アーバンライフ４０４,,13,113,1500031,,,,,,,2022-06-27,1,,,,,マネット,0
597,3011001148329,新規,0,2022-06-27,2022-06-27,株式会社ＭＥＴＡＶＥＲＳＥ　Ａ　ＣＬＵＢ,,株式会社,東京都,渋谷区,桜丘町２６番地１セルリアンタワー１５階,,13,113,1500031,,,,,,,2022-06-27,1,,,,,メタバースエースクラブ,0
600,3011003014925,新規,0,2022-06-27,2022-06-27,合同会社Ｔｒｅ　ｃｏｎ　ａｎｉｍａ,,合同会社,東京都,渋谷区,初台１丁目３０番１－７０１号,,13,113,1510061,,,,,,,2022-06-27,1,,,,,トレコンアニマ,0
608,3011105010302,新規,0,2022-06-27,2022-06-27,一般社団法人リトマス,,その他の設立登記法人,東京都,新宿区,新宿２丁目１２番１３号新宿アントレサロンビル２階,,13,104,1600022,,,,,,,2022-06-27,1,,,,,リトマス,0
613,3011701025406,新規,0,2022-06-27,2022-06-27,株式会社ＳＵＭＯ,,株式会社,東京都,江戸川区,西葛西７丁目２９番１１号,,13,123,1340088,,,,,,,2022-06-27,1,,,,,スモウ,0
615,3012303001695,新規,0,2022-06-27,2022-06-27,サカイＮＷコンサルティング合同会社,,合同会社,東京都,町田市,真光寺１丁目３７番地２,,13,209,1950057,,,,,,,2022-06-27,1,,,,,サカイエヌダブリュコンサルティング,0
627,3020001146589,新規,0,2022-06-27,2022-06-27,株式会社エムズ,,株式会社,神奈川県,横浜市港北区,菊名４丁目１０番３６号サンハイツ菊名１０２号室,,14,109,2220011,,,,,,,2022-06-27,1,,,,,エムズ,0
628,3020001147059,新規,0,2022-06-27,2022-06-27,株式会社ＭＩＳＯ,,株式会社,神奈川県,横浜市港南区,港南中央通１３番２２号プランドール港南,,14,111,2330004,,,,,,,2022-06-27,1,,,,,ミソ,0
629,3020001147067,新規,0,2022-06-27,2022-06-27,株式会社ＩＧＮＩＴＥ,,株式会社,神奈川県,横浜市神奈川区,星野町８番地３－２０６号,,14,102,2210035,,,,,,,2022-06-27,1,,,,,イグナイト,0
632,3020003022012,新規,0,2022-06-27,2022-06-27,合同会社リノア,,合同会社,神奈川県,川崎市川崎区,大師駅前２丁目１番７－５３１号,,14,131,2100802,,,,,,,2022-06-27,1,,,,,リノア,0
633,3021001076314,新規,0,2022-06-27,2022-06-27,株式会社ＬＣ,,株式会社,神奈川県,藤沢市,鵠沼花沢町３－１７－１０３,,14,205,2510023,,,,,,,2022-06-27,1,,,,,エルシー,0
636,3021003011863,新規,0,2022-06-27,2022-06-27,合同会社ＡＷＩＴ,,合同会社,神奈川県,鎌倉市,台１９８０－２３,,14,204,2470061,,,,,,,2022-06-27,1,,,,,アウィット,0
643,3030001148816,新規,0,2022-06-27,2022-06-27,晨桐商事株式会社,,株式会社,埼玉県,川口市,元郷３丁目１２番１４号,,11,203,3320011,,,,,,,2022-06-27,1,,,,,シンドウショウジ,0
644,3030001148873,新規,0,2022-06-27,2022-06-27,株式会社Ｈ２Ｏ,,株式会社,埼玉県,さいたま市北区,本郷町４４５－２０５号,,11,102,3310802,,,,,,,2022-06-27,1,,,,,エイチツーオー,0
648,3030003019651,新規,0,2022-06-27,2022-06-27,園＿合同会社,00127015,合同会社,埼玉県,さいたま市桜区,桜田１丁目２２－１０,,11,106,3380833,,,,,,,2022-06-27,1,,,,,エンキ,0
656,3050001051299,新規,0,2022-06-27,2022-06-27,レイワケミカル株式会社,,株式会社,茨城県,坂東市,寺久１３１７－６,,08,228,3060656,,,,,,,2022-06-27,1,,,,,,0
658,3060001035029,新規,0,2022-06-27,2022-06-27,株式会社中仁創建,,株式会社,栃木県,宇都宮市,竹下町６２３番地２,,09,201,3213236,,,,,,,2022-06-27,1,,,,,ナカジンソウケン,0
661,3060005009994,新規,0,2022-06-27,2022-06-27,特定非営利活動法人ｆｏｒｙｏｕ会,,その他の設立登記法人,栃木県,宇都宮市,横山３丁目１７番２８号,,09,201,3200005,,,,,,,2022-06-27,1,,,,,フォーユーカイ,0
664,3080101023377,新規,0,2022-06-27,2022-06-27,ヴィティカルト株式会社,,株式会社,静岡県,伊東市,富戸１３１７番の５７６０,,22,208,4130231,,,,,,,2022-06-27,1,,,,,ヴィティカルト,0
669,3110003004802,新規,0,2022-06-27,2022-06-27,ＷＡＹ　ＨＯＵＳＥ　ＥＮＴＥＲＴＡＩＮＭＥＮＴ合同会社,,合同会社,新潟県,新潟市中央区,笹口２丁目１３番地６白井ビル３Ｆ,,15,103,9500911,,,,,,,2022-06-27,1,,,,,ウェイハウスエンターテイメント,0
679,3120001246890,新規,0,2022-06-27,2022-06-27,丸一株式会社,,株式会社,大阪府,大阪市西区,北堀江３丁目７番４－５０３号,,27,106,5500014,,,,,,,2022-06-27,1,,,,,マルイ,0
680,3120001246932,新規,0,2022-06-27,2022-06-27,株式会社ＡＫＩＲＡ,,株式会社,大阪府,大阪市鶴見区,横堤２丁目５番１０４－１１１６号,,27,124,5380052,,,,,,,2022-06-27,1,,,,,アキラ,0
681,3120001246949,新規,0,2022-06-27,2022-06-27,株式会社克幸建設興業,,株式会社,大阪府,大阪市東淀川区,井高野３丁目２番３９号３０１号室,,27,114,5330001,,,,,,,2022-06-27,1,,,,,カツコウケンセツコウギョウ,0
682,3120001246973,新規,0,2022-06-27,2022-06-27,株式会社ＬＴＯ,,株式会社,大阪府,大阪市北区,梅田１丁目１番３号大阪駅前第３ビル２９階１－１－１号室,,27,127,5300001,,,,,,,2022-06-27,1,,,,,エルティオ,0
684,3120003021862,新規,0,2022-06-27,2022-06-27,合同会社Ｌｕｍｉｅ,,合同会社,大阪府,大阪市都島区,都島本通３丁目２４番６号西田ビル２１１号,,27,102,5340021,,,,,,,2022-06-27,1,,,,,ルミエ,0
690,3120103004742,新規,0,2022-06-27,2022-06-27,合同会社ｊｏｊｕｎ,,合同会社,大阪府,岸和田市,筋海町４番６号,,27,202,5960057,,,,,,,2022-06-27,1,,,,,ジョージュン,0
693,3130001072048,新規,0,2022-06-27,2022-06-27,株式会社ＳＵＢＡＲＩＳＴＡ,,株式会社,京都府,木津川市,木津池田２２番地１,,26,214,6190214,,,,,,,2022-06-27,1,,,,,スバリスタ,0
695,3130005016513,新規,0,2022-06-27,2022-06-27,一般社団法人京都ストリートダンス協会,,その他の設立登記法人,京都府,京都市南区,東九条河辺町３１番地,,26,107,6018031,,,,,,,2022-06-27,1,,,,,キョウトストリートダンスキョウカイ,0
705,3140001126513,新規,0,2022-06-27,2022-06-27,株式会社ＴＡＣマテリアル,,株式会社,兵庫県,尼崎市,上ノ島町１丁目２１番６号,,28,202,6610014,,,,,,,2022-06-27,1,,,,,ティーエーシーマテリアル,0
733,3180001151887,新規,0,2022-06-27,2022-06-27,株式会社仁,,株式会社,愛知県,名古屋市中村区,竹橋町３７番１８号ヴィー・クオレレジデンス名古屋駅１２０４号,,23,105,4530016,,,,,,,2022-06-27,1,,,,,ジン,0
734,3180001151895,新規,0,2022-06-27,2022-06-27,株式会社桜会計,,株式会社,愛知県,名古屋市南区,呼続４丁目１４番１２号,,23,112,4570014,,,,,,,2022-06-27,1,,,,,サクラカイケイ,0
735,3180001151904,新規,0,2022-06-27,2022-06-27,株式会社ジーワンテック,,株式会社,愛知県,名古屋市緑区,倉坂２１４番地の１,,23,114,4598006,,,,,,,2022-06-27,1,,,,,ジーワンテック,0
738,3180003023977,新規,0,2022-06-27,2022-06-27,合同会社シテミル,,合同会社,愛知県,名古屋市西区,名駅２丁目３４番１７号セントラル名古屋１１０１号,,23,104,4510045,,,,,,,2022-06-27,1,,,,,シテミル,0
739,3180003023985,新規,0,2022-06-27,2022-06-27,ＹＵＸ合同会社,,合同会社,愛知県,春日井市,柏原町２丁目１９５番地,,23,206,4860913,,,,,,,2022-06-27,1,,,,,ユックス,0
756,3240001059967,新規,0,2022-06-27,2022-06-27,Ｄｏｎｇｒｅｅ株式会社,,株式会社,広島県,福山市,松永町５丁目２６－１０－８,,34,207,7290104,,,,,,,2022-06-27,1,,,,,ドングリー,0
757,3240001059983,新規,0,2022-06-27,2022-06-27,株式会社ＣＲＵＸ,,株式会社,広島県,広島市中区,富士見町２－２３ウィング平和大通り４０５,,34,101,7300043,,,,,,,2022-06-27,1,,,,,クラックス,0
758,3240005015413,新規,0,2022-06-27,2022-06-27,一般社団法人日本重度化予防ケア推進協会,,その他の設立登記法人,広島県,廿日市市,宮内４丁目１０－５,,34,213,7380034,,,,,,,2022-06-27,1,,,,,,0
765,3260001036989,新規,0,2022-06-27,2022-06-27,山田塗装店株式会社,,株式会社,岡山県,倉敷市,児島下の町２丁目１１番２５号,,33,202,7110906,,,,,,,2022-06-27,1,,,,,ヤマダトソウテン,0
768,3290001098044,新規,0,2022-06-27,2022-06-27,ｔｗｅｌＳ株式会社,,株式会社,福岡県,福岡市西区,小戸３丁目４０番２８号―２０３号,,40,135,8190001,,,,,,,2022-06-27,1,,,,,トゥウェルス,0
769,3290001098060,新規,0,2022-06-27,2022-06-27,株式会社モリオカ,,株式会社,福岡県,小郡市,寺福童２２番地２３,,40,216,8380138,,,,,,,2022-06-27,1,,,,,モリオカ,0
779,3320001019161,新規,0,2022-06-27,2022-06-27,株式会社スマイルサポート,,株式会社,大分県,大分市,弁天１丁目４番８号,,44,201,8700017,,,,,,,2022-06-27,1,,,,,スマイルサポート,0
785,3350001017823,新規,0,2022-06-27,2022-06-27,株式会社南崎農産,00127022,株式会社,宮崎県,都城市,上長飯町８９号１３番地２,,45,202,8850042,,,,,,,2022-06-27,1,,,,,ミナミザキノウサン,0
787,3360001030602,新規,0,2022-06-27,2022-06-27,株式会社新報不動産,,株式会社,沖縄県,浦添市,仲西３丁目８番１６号,,47,208,9012125,,,,,,,2022-06-27,1,,,,,シンポウフドウサン,0
788,3360001030627,新規,0,2022-06-27,2022-06-27,株式会社祥新,,株式会社,沖縄県,宜野湾市,我如古１丁目８番１号,,47,205,9012214,,,,,,,2022-06-27,1,,,,,ショウシン,0
794,3380001032927,新規,0,2022-06-27,2022-06-27,福島エヴァグリーン株式会社,,株式会社,福島県,郡山市,熱海町熱海３丁目２３８,,07,203,9631309,,,,,,,2022-06-27,1,,,,,エヴァグリーン,0
807,3420003002535,新規,0,2022-06-27,2022-06-27,田澤合名会社,,合名会社,青森県,南津軽郡田舎館村,大字大根子字村立２６番地の１号,,02,367,0381133,,,,,,,2022-06-27,1,,,,,タザワ,0
811,3430001086901,新規,0,2022-06-27,2022-06-27,株式会社Ｔｉｇｅｒ　Ｃｏｎｓｕｌｔｉｎｇ,,株式会社,北海道,札幌市豊平区,平岸四条８丁目３番１５－２０２号,,01,105,0620934,,,,,,,2022-06-27,1,,,,,タイガーコンサルティング,0
814,3470001019130,新規,0,2022-06-27,2022-06-27,株式会社福の釦,,株式会社,香川県,高松市,上福岡町８７５番地３０,,37,201,7600077,,,,,,,2022-06-27,1,,,,,フクノボタン,0
819,3700150097283,新規,0,2022-06-27,2020-01-06,保々地区学童保育所運営委員会,,その他,三重県,四日市市,西村町２７４１保々小学校内,,24,202,5121305,,,,,,,2020-01-06,1,,,,,ホボチクガクドウホイクシヨウンエイイインカイ,0
820,3700150102794,新規,0,2022-06-27,2021-04-14,比田地区小さな拠点づくり推進協議会,,その他,島根県,安来市,広瀬町西比田１７０８番地４,,32,206,6920731,,,,,,,2021-04-14,1,,,,,ヒダチクチイサナキヨテンヅクリスイシンキヨウギカイ,0
821,3700150108866,新規,0,2022-06-27,2022-05-19,レガート　音楽企画,,その他,埼玉県,加須市,南篠崎１丁目７－３３,,11,210,3470017,,,,,,,2022-05-19,1,,,,,レガートオンガクキカク,0
830,4010001227570,新規,0,2022-06-27,2022-06-27,株式会社Ｓｕｃｃｅｓｓｉｏｎ,,株式会社,東京都,中央区,銀座６丁目２番１号Ｄａｉｗａ銀座ビル８階,,13,102,1040061,,,,,,,2022-06-27,1,,,,,サクセッション,0
835,4010003037877,新規,0,2022-06-27,2022-06-27,ゼーレマン合同会社,,合同会社,東京都,中央区,京橋２丁目１２番２号ＮＥＷＳＸビル９Ｆ,,13,102,1040031,,,,,,,2022-06-27,1,,,,,ゼーレマン,0
836,4010003037968,新規,0,2022-06-27,2022-06-27,ザ・ホテリエ・グループ日南串間合同会社,,合同会社,東京都,千代田区,丸の内１丁目１１番１号パシフィックセンチュリープレイス丸の内１７階,,13,101,1000005,,,,,,,2022-06-27,1,,,,,ザホテリエグループニチナンクシマ,0
837,4010003037976,新規,0,2022-06-27,2022-06-27,ザ・ホテリエ・グループ雫石合同会社,,合同会社,東京都,千代田区,丸の内１丁目１１番１号パシフィックセンチュリープレイス丸の内１７階,,13,101,1000005,,,,,,,2022-06-27,1,,,,,ザホテリエグループシズクイシ,0
850,4010401168068,新規,0,2022-06-27,2022-06-27,株式会社Ｕｔａｋａｔａ,,株式会社,東京都,港区,虎ノ門１丁目１７番１号虎ノ門ヒルズビジネスタワー１５階,,13,103,1050001,,,,,,,2022-06-27,1,,,,,ウタカタ,0
851,4010401168209,新規,0,2022-06-27,2022-06-27,Ｔｒａｎｓｏｍ株式会社,,株式会社,東京都,港区,虎ノ門５丁目１１－１５虎ノ門ＫＴビル２Ｆ,,13,103,1050001,,,,,,,2022-06-27,1,,,,,トランサム,0
852,4010403027973,新規,0,2022-06-27,2022-06-27,Ｌｕｍｉｎａ　ＩＩマスターリース合同会社,,合同会社,東京都,港区,虎ノ門４丁目１番２８号,,13,103,1050001,,,,,,,2022-06-27,1,,,,,ルミナツーマスターリース,0
853,4010405021140,新規,0,2022-06-27,2022-06-27,ヘクター特定目的会社,,その他の設立登記法人,東京都,港区,六本木１丁目６番１号泉ガーデンタワーＫＰＭＧ税理士法人内,,13,103,1060032,,,,,,,2022-06-27,1,,,,,ヘクター,0
862,4010901051120,新規,0,2022-06-27,2022-06-27,株式会社神田土木,,株式会社,東京都,世田谷区,千歳台３丁目２８番１３号,,13,112,1570071,,,,,,,2022-06-27,1,,,,,,0
872,4011001148294,新規,0,2022-06-27,2022-06-27,Ｇｅｎｓｏｈ株式会社,,株式会社,東京都,渋谷区,松濤２丁目２０－１０－１００１,,13,113,1500046,,,,,,,2022-06-27,1,,,,,ゲンソウ,0
873,4011001148336,新規,0,2022-06-27,2022-06-27,株式会社ＡＭＢ　Ｊａｐａｎ,,株式会社,東京都,渋谷区,神南１丁目１６番７号,,13,113,1500041,,,,,,,2022-06-27,1,,,,,エーエムビージャパン,0
874,4011001148344,新規,0,2022-06-27,2022-06-27,株式会社スタッフ,,株式会社,東京都,目黒区,八雲１丁目３番９号コーポ大樹２階,,13,110,1520023,,,,,,,2022-06-27,1,,,,,スタッフ,0
877,4011003014932,新規,0,2022-06-27,2022-06-27,合同会社Ｄｅｌｉｇｈｔｓ,,合同会社,東京都,目黒区,洗足２丁目３番９－１０２号,,13,110,1520012,,,,,,,2022-06-27,1,,,,,ディライツ,0
880,4011101099339,新規,0,2022-06-27,2022-06-27,株式会社ｌａｓｔ　ｄｉｓｈ,,株式会社,東京都,新宿区,北新宿１丁目１番３号アンベリール新宿３０３,,13,104,1690074,,,,,,,2022-06-27,1,,,,,ラストディッシュ,0
884,4011801040915,新規,0,2022-06-27,2022-06-27,株式会社ＴＡＭＵＲＡ,,株式会社,東京都,足立区,栗原４丁目１６番９－８０１号,,13,121,1230842,,,,,,,2022-06-27,1,,,,,タムラ,0
891,4012801021665,新規,0,2022-06-27,2022-06-27,株式会社奥山水工社,,株式会社,東京都,昭島市,田中町２丁目６番１０号,,13,207,1960014,,,,,,,2022-06-27,1,,,,,オクヤマスイコウシャ,0
902,4020003022003,新規,0,2022-06-27,2022-06-27,合同会社ＰＴＧトレーディング,,合同会社,神奈川県,横浜市神奈川区,羽沢南２丁目２番１号,,14,102,2210866,,,,,,,2022-06-27,1,,,,,ピーティージートレーディング,0
910,4021003011862,新規,0,2022-06-27,2022-06-27,ＥＹＯＮ　ＴＲＡＤＩＮＧ合同会社,,合同会社,神奈川県,茅ヶ崎市,芹沢３８５４番地,,14,207,2530008,,,,,,,2022-06-27,1,,,,,イヨントレーディング,0
924,4030001148864,新規,0,2022-06-27,2022-06-27,株式会社Ｋａｔａｋ,,株式会社,埼玉県,川越市,大字笠幡１５６番地４０１,,11,201,3501175,,,,,,,2022-06-27,1,,,,,カタック,0
925,4030001148880,新規,0,2022-06-27,2022-06-27,株式会社Ｆｒｏｓｉｎｇ,,株式会社,埼玉県,川越市,大字的場２５６３番地５（セラード川越霞ケ関３０２号室）,,11,201,3501101,,,,,,,2022-06-27,1,,,,,フロッシング,0
927,4030003019659,新規,0,2022-06-27,2022-06-27,合同会社ＤＤＣ,,合同会社,埼玉県,ふじみ野市,上福岡１丁目２－４木村ビル５０３,,11,245,3560004,,,,,,,2022-06-27,1,,,,,ディーディーシー,0
928,4030003019667,新規,0,2022-06-27,2022-06-27,エムワークス合同会社,,合同会社,埼玉県,朝霞市,根岸台１丁目１番２７号,,11,227,3510005,,,,,,,2022-06-27,1,,,,,エムワークス,0
929,4030003019683,新規,0,2022-06-27,2022-06-27,トップ合同会社,,合同会社,埼玉県,久喜市,樋ノ口３７２－１,,11,232,3460025,,,,,,,2022-06-27,1,,,,,トップ,0
940,4050003006639,新規,0,2022-06-27,2022-06-27,ＴＨＥ　ＭＵＧＨＡＬ　ＥＮＴＥＲＰＲＩＳＥＳ合同会社,,合同会社,茨城県,古河市,駒込９２０番地１０,,08,204,3060121,,,,,,,2022-06-27,1,,,,,ザムガールエンタープライゼス,0
944,4070001039366,新規,0,2022-06-27,2022-06-27,株式会社トーベ,,株式会社,群馬県,桐生市,東久方町１丁目２番２５号,,10,203,3760053,,,,,,,2022-06-27,1,,,,,トーベ,0
945,4070003004517,新規,0,2022-06-27,2022-06-27,名道合同会社,,合同会社,群馬県,高崎市,飯塚町８０９番地１前川ハイツ１０１号,,10,202,3700069,,,,,,,2022-06-27,1,,,,,メイドウ,0
948,4080101023376,新規,0,2022-06-27,2022-06-27,株式会社ｅｘｃｅｅｄ,,株式会社,静岡県,富士市,中野台１丁目２４番１１,,22,210,4213302,,,,,,,2022-06-27,1,,,,,イクシード,0
950,4080401025907,新規,0,2022-06-27,2022-06-27,株式会社Ｏ・Ｍ・Ｏ,,株式会社,静岡県,浜松市西区,舘山寺町１４１４番地の１,,22,133,4311209,,,,,,,2022-06-27,1,,,,,オモ,0
966,4120001246849,新規,0,2022-06-27,2022-06-27,星和株式会社,,株式会社,大阪府,大阪市中央区,松屋町９番２０号ローレルステート松屋町４０４Ｂ,,27,128,5420067,,,,,,,2022-06-27,1,,,,,セイワ,0
967,4120001246948,新規,0,2022-06-27,2022-06-27,株式会社マルセイ,,株式会社,大阪府,大阪市都島区,大東町３丁目３番７－４０２号,,27,102,5340002,,,,,,,2022-06-27,1,,,,,マルセイ,0
968,4120001246964,新規,0,2022-06-27,2022-06-27,株式会社ＳＣＩＣＣＨＩＡ,,株式会社,大阪府,大阪市東住吉区,針中野３丁目５番２０号,,27,121,5460011,,,,,,,2022-06-27,1,,,,,シッチア,0
969,4120003021977,新規,0,2022-06-27,2022-06-27,ノア合同会社,,合同会社,大阪府,大阪市住吉区,清水丘３丁目７－１６オリーブ清水ヶ丘５０１,,27,120,5580033,,,,,,,2022-06-27,1,,,,,ノア,0
975,4120105009581,新規,0,2022-06-27,2022-06-27,一般社団法人みつばち助産院,,その他の設立登記法人,大阪府,松原市,北新町４丁目９番５号,,27,217,5800025,,,,,,,2022-06-27,1,,,,,ミツバチジョサンイン,0
976,4120901046134,新規,0,2022-06-27,2022-06-27,株式会社ビジネスカラー,,株式会社,大阪府,豊中市,玉井町１丁目３－１－６０１号,,27,203,5600026,,,,,,,2022-06-27,1,,,,,ビジネスカラー,0
977,4120901046150,新規,0,2022-06-27,2022-06-27,株式会社シード,,株式会社,大阪府,豊中市,桜の町５丁目２番３号ヴィラセンチュリー１号館１０１号室,,27,203,5600054,,,,,,,2022-06-27,1,,,,,シード,0
987,4130001072039,新規,0,2022-06-27,2022-06-27,株式会社村雲設備,,株式会社,京都府,京田辺市,水取高井谷８３番地６,,26,211,6100323,,,,,,,2022-06-27,1,,,,,ムラクモセツビ,0
1000,4140001126347,新規,0,2022-06-27,2022-06-27,株式会社七福神,,株式会社,兵庫県,神戸市西区,富士見が丘１丁目９－１６,,28,111,6512214,,,,,,,2022-06-27,1,,,,,シチフクジン,0
1001,4140001126495,新規,0,2022-06-27,2022-06-27,株式会社日本音声研究所,,株式会社,兵庫県,神戸市中央区,琴ノ緒町５丁目５－８Ｍ’ｓインターナショナルタワービル５階,,28,110,6510094,,,,,,,2022-06-27,1,,,,,ニッポンオンセイケンキュウジョ,0
1007,4150001025647,新規,0,2022-06-27,2022-06-27,日昇工業株式会社,,株式会社,奈良県,五條市,住川町１１７７番地,,29,207,6370014,,,,,,,2022-06-27,1,,,,,ニッショウコウギョウ,0
1008,4150003002719,新規,0,2022-06-27,2022-06-27,合同会社ＡＤＤＩＴＩＯＮＡＬＬＹ,,合同会社,奈良県,香芝市,田尻５８３番地８,,29,210,6390253,,,,,,,2022-06-27,1,,,,,アディッショナリー,0
1017,4180001151894,新規,0,2022-06-27,2022-06-27,株式会社ＬＯＣＡ,,株式会社,愛知県,名古屋市中区,栄４丁目５番５号セントラル栄ビル７階,,23,106,4600008,,,,,,,2022-06-27,1,,,,,ロカ,0
1018,4180001151936,新規,0,2022-06-27,2022-06-27,親広池下株式会社,,株式会社,愛知県,名古屋市守山区,翠松園２丁目６１３番地,,23,113,4630010,,,,,,,2022-06-27,1,,,,,シンコウイケシタ,0
1021,4180003023976,新規,0,2022-06-27,2022-06-27,合同会社スクラムナイン,,合同会社,愛知県,名古屋市中村区,下中村町２丁目１５－１－２０２,,23,105,4530827,,,,,,,2022-06-27,1,,,,,スクラムナイン,0
1024,4180301036366,新規,0,2022-06-27,2022-06-27,株式会社ＡＫコーポレーション,,株式会社,愛知県,岡崎市,上六名４丁目４番地２５,,23,202,4440858,,,,,,,2022-06-27,1,,,,,エイケイコーポレーション,0
1027,4190005011714,新規,0,2022-06-27,2022-06-27,尾鷲米穀販売協同組合,,その他の設立登記法人,三重県,尾鷲市,矢浜岡崎町２５３番地,,24,209,5193672,,,,,,,2022-06-27,1,,,,,オワセベイコクハンバイ,0
1037,4240001059990,新規,0,2022-06-27,2022-06-27,株式会社ｖｉｒｉｄｅ,,株式会社,広島県,広島市中区,大手町３丁目１０番８号ＥＦＴ－１ビル３階,,34,101,7300051,,,,,,,2022-06-27,1,,,,,ウィリデ,0
1039,4240003005679,新規,0,2022-06-27,2022-06-27,シャイニングはっぴースマイル合同会社,,合同会社,広島県,広島市中区,吉島新町２丁目３０番１５－３号,,34,101,7300824,,,,,,,2022-06-27,1,,,,,シャイニングハッピースマイル,0
1049,4310001017925,新規,0,2022-06-27,2022-06-27,株式会社ＧＰ・ＳＯＮＯＤＡ,,株式会社,長崎県,大村市,池田２丁目３６８番地１,,42,205,8560026,,,,,,,2022-06-27,1,,,,,ジーピーソノダ,0
1059,4340001024844,新規,0,2022-06-27,2022-06-27,株式会社マル・ルーナ,,株式会社,鹿児島県,鹿児島市,住吉町１３－１ハーバーフロントビル３０１号,,46,201,8920823,,,,,,,2022-06-27,1,,,,,マルルーナ,0
1065,4350001017822,新規,0,2022-06-27,2022-06-27,株式会社コーポレーションＴｗｅｎｔｙ,,株式会社,宮崎県,宮崎市,高岡町上倉永３０４６番地１,,45,201,8802213,,,,,,,2022-06-27,1,,,,,コーポレーショントゥエンティー,0
1067,4370001048725,新規,0,2022-06-27,2022-06-27,株式会社櫻エステート,,株式会社,宮城県,宮城郡利府町,中央３丁目７番地６,,04,406,9810104,,,,,,,2022-06-27,1,,,,,サクラエステート,0
1090,4430001086900,新規,0,2022-06-27,2022-06-27,株式会社成木青果,,株式会社,北海道,小樽市,築港８－１１,,01,203,0470008,,,,,,,2022-06-27,1,,,,,ナリキセイカ,0
1091,4430001086933,新規,0,2022-06-27,2022-06-27,株式会社新冠開発共同企業体,,株式会社,北海道,新冠郡新冠町,字東町２４番地の３１,,01,604,0592404,,,,,,,2022-06-27,1,,,,,ニイカップカイハツキョウドウキギョウタイ,0
1099,4700150109112,新規,0,2022-06-27,2022-05-30,カカフカカ企画,,その他,静岡県,下田市,柿崎１１２８－７,,22,219,4150013,,,,,,,2022-05-30,1,,,,,カカフカカキカク,0
1100,4700150109335,新規,0,2022-06-27,2022-06-09,日本アニメーション学会,,その他,東京都,八王子市,宇津貫町１５５６番地東京造形大学研究事務室内,,13,201,1920915,,,,,,,2022-06-09,1,,,,,ニホンアニメーシヨンガツカイ,0
1101,4700150109475,新規,0,2022-06-27,2022-06-13,ＴＯＫＹＯ　ＭＥＴ　ＳａＬａＤ　ＭＵＳＩＣ　ＦＥＳＴＩＶＡＬ［サラダ音楽祭］実行委員会,,その他,東京都,台東区,上野公園５－４５東京文化会館内　公益財団法人　東京都交響楽団,,13,106,1100007,,,,,,,2022-06-13,1,,,,,トーキヨーメツトサラダミユージツクフエステイバルサラダオンガクサイジツコウイインカイ,0
1102,4700150109797,新規,0,2022-06-27,2022-06-15,プロフェッショナルミュージシャンズワールドワイド,,その他,和歌山県,紀の川市,西井阪１３１番地１７,,30,208,6496427,,,,,,,2022-06-15,1,,,,,プロフエツシヨナルミユージシヤンズワールドワイド,0
1111,5010001227636,新規,0,2022-06-27,2022-06-27,アーク・フォー・コンサルティング株式会社,,株式会社,東京都,千代田区,平河町１丁目６－４,,13,101,1020093,,,,,,,2022-06-27,1,,,,,アークフォーコンサルティング,0
1114,5010003037950,新規,0,2022-06-27,2022-06-27,合同会社ｓｕｍｍｉｔ９９,,合同会社,東京都,中央区,築地７丁目８番７号Ｒａｙｏｎｄｕｓｏｌｅｉｌ築地７０１号,,13,102,1040045,,,,,,,2022-06-27,1,,,,,サミットキュウジュウキュウ,0
1115,5010003037967,新規,0,2022-06-27,2022-06-27,ザ・ホテリエ・グループ嬬恋合同会社,,合同会社,東京都,千代田区,丸の内１丁目１１番１号パシフィックセンチュリープレイス丸の内１７階,,13,101,1000005,,,,,,,2022-06-27,1,,,,,ザホテリエグループツマゴイ,0
1116,5010003037975,新規,0,2022-06-27,2022-06-27,ザ・ホテリエ・グループ上士幌合同会社,,合同会社,東京都,千代田区,丸の内１丁目１１番１号パシフィックセンチュリープレイス丸の内１７階,,13,101,1000005,,,,,,,2022-06-27,1,,,,,ザホテリエグループカミシホロ,0
1117,5010003037983,新規,0,2022-06-27,2022-06-27,ザ・ホテリエ・グループ大原御宿合同会社,,合同会社,東京都,千代田区,丸の内１丁目１１番１号パシフィックセンチュリープレイス丸の内１７階,,13,101,1000005,,,,,,,2022-06-27,1,,,,,ザホテリエグループオオハラオンジュク,0
1126,5010401168190,新規,0,2022-06-27,2022-06-27,株式会社イージスコア,,株式会社,東京都,港区,赤坂７丁目６番５２号ハイツ赤坂１０８号室,,13,103,1070052,,,,,,,2022-06-27,1,,,,,イージスコア,0
1129,5010405021131,新規,0,2022-06-27,2022-06-27,Ｌｕｍｉｎａ　ＩＩ一般社団法人,,その他の設立登記法人,東京都,港区,虎ノ門４丁目１番２８号,,13,103,1050001,,,,,,,2022-06-27,1,,,,,ルミナツー,0
1133,5010601061393,新規,0,2022-06-27,2022-06-27,幽霊株式会社,,株式会社,東京都,江東区,東雲１丁目９－１２－１３０５,,13,108,1350062,,,,,,,2022-06-27,1,,,,,ユレイ,0
1134,5010603009606,新規,0,2022-06-27,2022-06-27,合同会社ＡＭｉｉ,,合同会社,東京都,江東区,大島７丁目３０－１１－７０７,,13,108,1360072,,,,,,,2022-06-27,1,,,,,アミィ,0
1135,5010701042847,新規,0,2022-06-27,2022-06-27,株式会社ｍｏｇ３,,株式会社,東京都,品川区,西五反田６丁目１－４,,13,109,1410031,,,,,,,2022-06-27,1,,,,,モグスリー,0
1156,5011001148302,新規,0,2022-06-27,2022-06-27,株式会社Ｃｈｉｎｇｏｎｅｓ,,株式会社,東京都,渋谷区,恵比寿３丁目３７－１４コーポ小峰４０１,,13,113,1500013,,,,,,,2022-06-27,1,,,,,チンゴネス,0
1157,5011001148319,新規,0,2022-06-27,2022-06-27,株式会社ＬａＳｗａｎ,,株式会社,東京都,渋谷区,千駄ヶ谷２丁目３３－８ＹＫビル５Ｆ,,13,113,1510051,,,,,,,2022-06-27,1,,,,,ラスワン,0
1158,5011001148327,新規,0,2022-06-27,2022-06-27,ｔｈｉｎｋ‐ｃｅｌｌ　Ｊａｐａｎ株式会社,,株式会社,東京都,渋谷区,恵比寿４丁目２０番３号恵比寿ガーデンプレイスタワー１８階,,13,113,1500013,,,,,,,2022-06-27,1,,,,,シンクセルジャパン,0
1161,5011003014931,新規,0,2022-06-27,2022-06-27,合同会社ＤＲＸサーチ,,合同会社,東京都,目黒区,下目黒２丁目１６番１号エッケビル３０１,,13,110,1530064,,,,,,,2022-06-27,1,,,,,ドクトルクロスサーチ,0
1162,5011005009616,新規,0,2022-06-27,2022-06-27,一般社団法人日本ランジェリースタイリスト協会,,その他の設立登記法人,東京都,目黒区,中央町１丁目１１番３１－２０１号,,13,110,1520001,,,,,,,2022-06-27,1,,,,,ニホンランジェリースタイリストキョウカイ,0
1163,5011005009624,新規,0,2022-06-27,2022-06-27,一般社団法人Ｃａｒｅｅｒ　Ｊｏｕｒｎｅｙ,,その他の設立登記法人,東京都,渋谷区,神宮前６丁目２３番４号,,13,113,1500001,,,,,,,2022-06-27,1,,,,,キャリアジャーニー,0
1166,5011101099346,新規,0,2022-06-27,2022-06-27,Ｅｎｅｌｉｖｅｒ株式会社,,株式会社,東京都,新宿区,西新宿３丁目３番１３号,,13,104,1600023,,,,,,,2022-06-27,1,,,,,エネリバー,0
1168,5011201023916,新規,0,2022-06-27,2022-06-27,株式会社ＤＥＳＩＧＮＴＡＧ,,株式会社,東京都,中野区,弥生町５丁目８番２０号,,13,114,1640013,,,,,,,2022-06-27,1,,,,,デザインタッグ,0
1170,5011401024342,新規,0,2022-06-27,2022-06-27,株式会社１ＰＬＵＳ,,株式会社,東京都,板橋区,中丸町３１番６－６０４号,,13,119,1730026,,,,,,,2022-06-27,1,,,,,ワンプラス,0
1174,5011703003176,新規,0,2022-06-27,2022-06-27,合同会社クラシックネクスト,,合同会社,東京都,江戸川区,中葛西７丁目６番１１－５０２号,,13,123,1340083,,,,,,,2022-06-27,1,,,,,クラシックネクスト,0
1176,5012303001693,新規,0,2022-06-27,2022-06-27,合同会社めぶき,,合同会社,東京都,町田市,南大谷７８３－１アイエムコーポＣ号室,,13,209,1940031,,,,,,,2022-06-27,1,,,,,メブキ,0
1177,5012801021680,新規,0,2022-06-27,2022-06-27,株式会社チャックル,,株式会社,東京都,国立市,富士見台１丁目１２－１３,,13,215,1860003,,,,,,,2022-06-27,1,,,,,チャックル,0
1178,5013101008955,新規,0,2022-06-27,2022-06-27,株式会社ＨＩＫＡＲＩ,,株式会社,東京都,青梅市,新町９丁目２０３８－１０,,13,205,1980024,,,,,,,2022-06-27,1,,,,,ヒカリ,0
1190,5020001147065,新規,0,2022-06-27,2022-06-27,ＭＡＲＵＨＡ株式会社,,株式会社,神奈川県,横浜市神奈川区,三枚町１５４番地４９ＭＡＲＳ新横浜１Ｆ,,14,102,2210862,,,,,,,2022-06-27,1,,,,,マルハ,0
1191,5020003022002,新規,0,2022-06-27,2022-06-27,ＭＩＳＡＫＡ合同会社,,合同会社,神奈川県,横浜市磯子区,森５丁目１８番２６号ベルハイツ１０２,,14,107,2350023,,,,,,,2022-06-27,1,,,,,ミサカ,0
1198,5021003011853,新規,0,2022-06-27,2022-06-27,合同会社リムネット,,合同会社,神奈川県,相模原市南区,新磯野１丁目４３－３,,14,153,2520325,,,,,,,2022-06-27,1,,,,,リムネット,0
1209,5030001148772,新規,0,2022-06-27,2022-06-27,小林不動産株式会社,,株式会社,埼玉県,北葛飾郡松伏町,大字松伏５８４番地２,,11,465,3430111,,,,,,,2022-06-27,1,,,,,,0
1210,5030001148847,新規,0,2022-06-27,2022-06-27,株式会社ＳＧプレスト,,株式会社,埼玉県,川口市,大字西立野５５５番地の５（１０４号）,,11,203,3330813,,,,,,,2022-06-27,1,,,,,エスジープレスト,0
1211,5030001148855,新規,0,2022-06-27,2022-06-27,株式会社ヴァンデラー,,株式会社,埼玉県,さいたま市桜区,西堀８丁目９－２５,,11,106,3380832,,,,,,,2022-06-27,1,,,,,ヴァンデラー,0
1212,5030001148863,新規,0,2022-06-27,2022-06-27,株式会社アンロックハードゥン,,株式会社,埼玉県,入間市,久保稲荷３丁目５番地８パレスジュエルＢＯＸＡ１階,,11,225,3580024,,,,,,,2022-06-27,1,,,,,アンロックハードゥン,0
1213,5030001148871,新規,0,2022-06-27,2022-06-27,株式会社ＲｏｂｏｔＡｇｅｎｃｙ,,株式会社,埼玉県,川越市,豊田町２丁目５番地２１,,11,201,3501110,,,,,,,2022-06-27,1,,,,,ロボットエージェンシー,0
1214,5030001148913,新規,0,2022-06-27,2022-06-27,株式会社早川ソーラーメンテナンス,,株式会社,埼玉県,鴻巣市,筑波２丁目２番１１号,,11,217,3690114,,,,,,,2022-06-27,1,,,,,ハヤカワソーラーメンテナンス,0
1215,5030003019658,新規,0,2022-06-27,2022-06-27,合同会社ＡＸＩＡＳ,,合同会社,埼玉県,行田市,大字下須戸９０９番地２,,11,206,3610012,,,,,,,2022-06-27,1,,,,,アクシアス,0
1216,5030003019682,新規,0,2022-06-27,2022-06-27,ＮＧＴＲ合同会社,,合同会社,埼玉県,蕨市,南町２丁目３２番３１号,,11,223,3350003,,,,,,,2022-06-27,1,,,,,エヌジーティーアール,0
1226,5040005021660,新規,0,2022-06-27,2022-06-27,一般社団法人ＫＩＲＩＨＡＲＥ,,その他の設立登記法人,千葉県,市川市,新田５丁目９番１１号旭ビル２０１,,12,203,2720035,,,,,,,2022-06-27,1,,,,,キリハレ,0
1229,5050005013095,新規,0,2022-06-27,2022-06-27,一般社団法人日本教育福祉協会,,その他の設立登記法人,茨城県,龍ケ崎市,田町３４４０－１,,08,208,3010835,,,,,,,2022-06-27,1,,,,,ニホンキョウイクフクシキョウカイ,0
1231,5060001035002,新規,0,2022-06-27,2022-06-27,株式会社ふぇの,,株式会社,栃木県,那須郡那須町,大字高久乙３３７０番地３１１８,,09,407,3250303,,,,,,,2022-06-27,1,,,,,フェノ,0
1232,5060001035027,新規,0,2022-06-27,2022-06-27,株式会社ＳＯＳＵＩ,,株式会社,栃木県,下都賀郡壬生町,本丸２丁目１０番１１号,,09,361,3210225,,,,,,,2022-06-27,1,,,,,ソスイ,0
1234,5070001039365,新規,0,2022-06-27,2022-06-27,嬉しい商店株式会社,,株式会社,群馬県,高崎市,貝沢町５９９番地１,,10,202,3700042,,,,,,,2022-06-27,1,,,,,ウレシイショウテン,0
1235,5070001039373,新規,0,2022-06-27,2022-06-27,コネクト株式会社,,株式会社,群馬県,伊勢崎市,平和町１４－１５,,10,204,3720041,,,,,,,2022-06-27,1,,,,,コネクト,0
1243,5110001036770,新規,0,2022-06-27,2022-06-27,ＮＫ企画株式会社,,株式会社,新潟県,新発田市,西名柄８６番地,,15,206,9570004,,,,,,,2022-06-27,1,,,,,エヌケーキカク,0
1245,5110003004800,新規,0,2022-06-27,2022-06-27,合同会社Ｓｐｉｒｉｔ・ｏｆ・Ｅａｒｔｈ,,合同会社,新潟県,東蒲原郡阿賀町,平堀１８５５番地,,15,385,9594403,,,,,,,2022-06-27,1,,,,,スピリットオブアース,0
1256,5120001246848,新規,0,2022-06-27,2022-06-27,小野株式会社,,株式会社,大阪府,大阪市中央区,松屋町９番２０号ローレルステート松屋町３０４Ａ,,27,128,5420067,,,,,,,2022-06-27,1,,,,,オノ,0
1257,5120001246914,新規,0,2022-06-27,2022-06-27,株式会社ＳＯＺＯ,,株式会社,大阪府,大阪市中央区,本町２丁目３番４号アソルティ本町４階,,27,128,5410053,,,,,,,2022-06-27,1,,,,,ソウゾウ,0
1258,5120001246947,新規,0,2022-06-27,2022-06-27,株式会社Ｓｉｘ　Ｎ　Ｂｌａｎｃｏ,,株式会社,大阪府,大阪市西成区,千本中２丁目７番地５号,,27,122,5570054,,,,,,,2022-06-27,1,,,,,シックスエヌブランコ,0
1259,5120001246955,新規,0,2022-06-27,2022-06-27,株式会社ラブデザイン,,株式会社,大阪府,大阪市中央区,博労町１丁目２番１号オーセンティック東船場ＩＩ４０１,00127024,27,128,5410059,,,,,,,2022-06-27,1,,,,,ラブデザイン,0
1262,5120003021976,新規,0,2022-06-27,2022-06-27,１９９７Ｓ合同会社,,合同会社,大阪府,大阪市淀川区,新北野３丁目８番２２号レアレア塚本２８番館７Ｈ号,00127014,27,123,5320025,,,,,,,2022-06-27,1,,,,,イチキューキューナナエス,0
1264,5120101065801,新規,0,2022-06-27,2022-06-27,株式会社ＩＴＯＳＡ,,株式会社,大阪府,岸和田市,上野町東２８番１３号,,27,202,5960047,,,,,,,2022-06-27,1,,,,,イトサ,0
1274,5140001126453,新規,0,2022-06-27,2022-06-27,中南海集団日本株式会社,,株式会社,兵庫県,神戸市東灘区,向洋町中１丁目１７,,28,101,6580032,,,,,,,2022-06-27,1,,,,,チュウナンカイシュウダンニホン,0
1279,5140003017849,新規,0,2022-06-27,2022-06-27,Ｍｏｒｉｗａｋｅ不動産合同会社,,合同会社,兵庫県,西宮市,北口町２番１０号プチシャルマン北口２０３号,,28,204,6638035,,,,,,,2022-06-27,1,,,,,モリワケフドウサン,0
1281,5140005026220,新規,0,2022-06-27,2022-06-27,一般社団法人日本教育デジタルコンテンツ研究協会,,その他の設立登記法人,兵庫県,加古川市,神野町神野１３３８番地の１,,28,210,6750003,,,,,,,2022-06-27,1,,,,,,0
1296,5180001151893,新規,0,2022-06-27,2022-06-27,のぞみＨＳ株式会社,,株式会社,愛知県,名古屋市中村区,名駅南１丁目１９－２７オルバースビルディング名古屋６Ｆ,,23,105,4500003,,,,,,,2022-06-27,1,,,,,ノゾミヘルスサポート,0
1305,5200001040210,新規,0,2022-06-27,2022-06-27,ＧＯＲＡＹＡ・ＴＲＡＤＩＮＧ株式会社,,株式会社,岐阜県,養老郡養老町,飯ノ木１７４番地１,,21,341,5031325,,,,,,,2022-06-27,1,,,,,ゴラヤトレーディング,0
1311,5220001024921,新規,0,2022-06-27,2022-06-27,Ｓ・ｆｉｒｓｔ株式会社,,株式会社,石川県,金沢市,西都２丁目５０番地リメッサ・ミーアセイト１０２号,,17,201,9208202,,,,,,,2022-06-27,1,,,,,エスファースト,0
1317,5230005009240,新規,0,2022-06-27,2022-06-27,特定非営利活動法人みんなの声,,その他の設立登記法人,富山県,高岡市,横田町３丁目５番５号,,16,202,9330842,,,,,,,2022-06-27,1,,,,,ミンナノコエ,0
1327,5260003003952,新規,0,2022-06-27,2022-06-27,合同会社岡山外科病理研究所,,合同会社,岡山県,岡山市南区,泉田３丁目７番２８－３号,,33,104,7000944,,,,,,,2022-06-27,1,,,,,オカヤマゲカビョウリケンキュウジョ,0
1328,5280001008729,新規,0,2022-06-27,2022-06-27,株式会社バーチュアス,,株式会社,島根県,浜田市,旭町今市２７８,,32,202,6970425,,,,,,,2022-06-27,1,,,,,,0
1336,5290001098026,新規,0,2022-06-27,2022-06-27,株式会社未来総建,,株式会社,福岡県,福岡市城南区,友丘２丁目１０番３号,,40,136,8140112,,,,,,,2022-06-27,1,,,,,ミライソウケン,0
1337,5290001098059,新規,0,2022-06-27,2022-06-27,株式会社ＢＯＦ,,株式会社,福岡県,福岡市早良区,原７丁目１１番８号,,40,137,8140022,,,,,,,2022-06-27,1,,,,,ビーオーエフ,0
1340,5290805009566,新規,0,2022-06-27,2022-06-27,北九小粋協同組合,,その他の設立登記法人,福岡県,北九州市小倉北区,魚町３丁目２番１９号,,40,106,8020006,,,,,,,2022-06-27,1,,,,,キタキュウコイキ,0
1351,5350003004108,新規,0,2022-06-27,2022-06-27,五月産業合同会社,,合同会社,宮崎県,日南市,飫肥７丁目３番４０号,,45,204,8892535,,,,,,,2022-06-27,1,,,,,サツキサンギョウ,0
1354,5360005006679,新規,0,2022-06-27,2022-06-27,一般社団法人こども笑顔支援会,,その他の設立登記法人,沖縄県,那覇市,小禄１丁目２７番１２号,,47,201,9010152,,,,,,,2022-06-27,1,,,,,コドモエガオシエンカイ,0
1364,5400001015927,新規,0,2022-06-27,2022-06-27,株式会社Ｋ　ａｒｉａ,,株式会社,岩手県,八幡平市,柏台３丁目１番３１号,,03,214,0287303,,,,,,,2022-06-27,1,,,,,ケーアリア,0
1378,5430001086890,新規,0,2022-06-27,2022-06-27,株式会社ドマーニプランニング,,株式会社,北海道,札幌市白石区,東札幌一条４丁目５番１－６１０号,,01,104,0030001,,,,,,,2022-06-27,1,,,,,ドマーニプランニング,0
1395,5500001024298,新規,0,2022-06-27,2022-06-27,株式会社スカイフラワー,,株式会社,愛媛県,今治市,大西町脇甲９４５番地３,,38,202,7992206,,,,,,,2022-06-27,1,,,,,スカイフラワー,0
1397,5500003002855,新規,0,2022-06-27,2022-06-27,合同会社プレイホース,,合同会社,愛媛県,松山市,三番町１丁目１５番地１マドンナタウンリッツ４０４号,,38,201,7900003,,,,,,,2022-06-27,1,,,,,,0
1398,5700150107008,新規,0,2022-06-27,2022-02-10,白鷺の会,,その他,兵庫県,姫路市,豊富町御蔭３３５３－５２,,28,201,6792122,,,,,,,2022-02-10,1,,,,,シラサギノカイ,0
1399,5700150110465,新規,0,2022-06-27,2022-06-27,ＰＴ．ＭＵＬＴＩ　ＬＩＮＴＡＳ　ＢＵＡＮＡ　ＲＡＹＡ,,外国会社等,埼玉県,草加市,八幡町１８６－１,,11,221,3400006,インドネシア共和国バンティン州タンゲラン街パゲダンガン、メダン、ルコアリカンテブロックＤ９－１０番,,,,,,2022-06-27,1,,,,,ピイテイムルテイリンタスブアナラヤ,0
1409,6010001227610,新規,0,2022-06-27,2022-06-27,株式会社ＮＭ２,,株式会社,東京都,千代田区,丸の内３丁目１番１号東京共同会計事務所内,,13,101,1000005,,,,,,,2022-06-27,1,,,,,エヌエムツー,0
1410,6010001227635,新規,0,2022-06-27,2022-06-27,ｉｓ株式会社,,株式会社,東京都,千代田区,九段南１丁目５番６号りそな九段ビル５Ｆ－ＫＳフロア,,13,101,1020074,,,,,,,2022-06-27,1,,,,,イズ,0
1411,6010001227643,新規,0,2022-06-27,2022-06-27,株式会社ストリームテクノパートナース,,株式会社,東京都,中央区,日本橋３丁目３番３号,,13,102,1030027,,,,,,,2022-06-27,1,,,,,ストリームテクノパートナース,0
1416,6010003037966,新規,0,2022-06-27,2022-06-27,ザ・ホテリエ・グループ万座温泉合同会社,,合同会社,東京都,千代田区,丸の内１丁目１１番１号パシフィックセンチュリープレイス丸の内１７階,,13,101,1000005,,,,,,,2022-06-27,1,,,,,ザホテリエグループマンザオンセン,0
1417,6010003037974,新規,0,2022-06-27,2022-06-27,ザ・ホテリエ・グループ女満別合同会社,,合同会社,東京都,千代田区,丸の内１丁目１１番１号パシフィックセンチュリープレイス丸の内１７階,,13,101,1000005,,,,,,,2022-06-27,1,,,,,ザホテリエグループメマンベツ,0
1418,6010003037982,新規,0,2022-06-27,2022-06-27,ザ・ホテリエ・グループ苗場合同会社,,合同会社,東京都,千代田区,丸の内１丁目１１番１号パシフィックセンチュリープレイス丸の内１７階,,13,101,1000005,,,,,,,2022-06-27,1,,,,,ザホテリエグループナエバ,0
1427,6010403027963,新規,0,2022-06-27,2022-06-27,ＤＯＵＢＬＥ　ＰＩ合同会社,,合同会社,東京都,港区,新橋４丁目３１－３第三名和ビル１Ｆ－９Ｆ,,13,103,1050004,,,,,,,2022-06-27,1,,,,,ダブルパイ,0
1428,6010405021139,新規,0,2022-06-27,2022-06-27,グラウス特定目的会社,,その他の設立登記法人,東京都,港区,六本木１丁目６番１号泉ガーデンタワーＫＰＭＧ税理士法人内,,13,103,1060032,,,,,,,2022-06-27,1,,,,,グラウス,0
1430,6010503006628,新規,0,2022-06-27,2022-06-27,合同会社はん,,合同会社,東京都,台東区,清川２丁目５番６号－４０３,,13,106,1110022,,,,,,,2022-06-27,1,,,,,ハン,0
1443,6011001148276,新規,0,2022-06-27,2022-06-27,株式会社ＭＩＮＴ,,株式会社,東京都,渋谷区,渋谷３丁目９番９号東京建物渋谷ビル８階,,13,113,1500002,,,,,,,2022-06-27,1,,,,,ミント,0
1444,6011001148334,新規,0,2022-06-27,2022-06-27,株式会社プラユニ,,株式会社,東京都,渋谷区,道玄坂１丁目１０番８号渋谷道玄坂東急ビル２Ｆ‐Ｃ,,13,113,1500043,,,,,,,2022-06-27,1,,,,,プラユニ,0
1445,6011001148359,新規,0,2022-06-27,2022-06-27,株式会社Ｕ‐Ｂｅ,,株式会社,東京都,渋谷区,千駄ヶ谷３丁目１１番８号,,13,113,1510051,,,,,,,2022-06-27,1,,,,,ユービー,0
1446,6011001148367,新規,0,2022-06-27,2022-06-27,株式会社イズモ,,株式会社,東京都,渋谷区,恵比寿西２丁目１９番９号,,13,113,1500021,,,,,,,2022-06-27,1,,,,,イズモ,0
1447,6011003014880,新規,0,2022-06-27,2022-06-27,合同会社ＮＴ　ｗｏｒｋｓ,,合同会社,東京都,渋谷区,道玄坂１丁目１０番８号渋谷道玄坂東急ビル２Ｆ－Ｃ,,13,113,1500043,,,,,,,2022-06-27,1,,,,,エヌティーワークス,0
1448,6011003014889,新規,0,2022-06-27,2022-06-27,合同会社ｅｙｙ,,合同会社,東京都,渋谷区,道玄坂１丁目１０番８号渋谷道玄坂東急ビル２Ｆ－Ｃ,,13,113,1500043,,,,,,,2022-06-27,1,,,,,イーワイワイ,0
1451,6011005009615,新規,0,2022-06-27,2022-06-27,一般社団法人日本高齢者支援センター,,その他の設立登記法人,東京都,渋谷区,東２丁目２４番６号,,13,113,1500011,,,,,,,2022-06-27,1,,,,,ニホンコウレイシャシエンセンター,0
1452,6011005009623,新規,0,2022-06-27,2022-06-27,医療法人社団萌隆会,,その他の設立登記法人,東京都,目黒区,中央町２丁目１８番１４号ネオアージュ祐天寺１階,,13,110,1520001,,,,,,,2022-06-27,1,,,,,ホウリュウカイ,0
1457,6011801040921,新規,0,2022-06-27,2022-06-27,株式会社Ｌｏｓｔ＆Ｆｏｕｎｄ,,株式会社,東京都,足立区,西竹の塚１丁目１７－１城北電機ビル２Ｆ,,13,121,1210822,,,,,,,2022-06-27,1,,,,,ロストアンドファウンド,0
1458,6012301013038,新規,0,2022-06-27,2022-06-27,株式会社ディースノー,,株式会社,東京都,町田市,南町田４丁目２１番５４号,,13,209,1940005,,,,,,,2022-06-27,1,,,,,ディースノー,0
1460,6012401039338,新規,0,2022-06-27,2022-06-27,株式会社ティーナ,,株式会社,東京都,稲城市,大丸８７６番地,,13,225,2060801,,,,,,,2022-06-27,1,,,,,ティーナ,0
1462,6012701017118,新規,0,2022-06-27,2022-06-27,和利株式会社,,株式会社,東京都,小平市,天神町２丁目２０６番地の１,,13,211,1870004,,,,,,,2022-06-27,1,,,,,カズトシ,0
1467,6013303006211,新規,0,2022-06-27,2022-06-27,ＴＲＩＣＫＳＴＥＲ合同会社,,合同会社,東京都,豊島区,池袋３丁目３７－６,,13,116,1710014,,,,,,,2022-06-27,1,,,,,トリックスター,0
1475,6020001147056,新規,0,2022-06-27,2022-06-27,株式会社ＳＵＩＳＨＩＮ,,株式会社,神奈川県,横浜市金沢区,柳町２番地９,,14,108,2360026,,,,,,,2022-06-27,1,,,,,スイシン,0
1476,6020001147064,新規,0,2022-06-27,2022-06-27,クロヤンス株式会社,,株式会社,神奈川県,川崎市川崎区,本町２丁目１１－２４グレイス川崎１０２室,,14,131,2100001,,,,,,,2022-06-27,1,,,,,クロヤンス,0
1478,6021001076360,新規,0,2022-06-27,2022-06-27,株式会社三共興業,,株式会社,神奈川県,相模原市緑区,城山４丁目１番３３号,,14,151,2520116,,,,,,,2022-06-27,1,,,,,サンキョウコウギョウ,0
1481,6021003011860,新規,0,2022-06-27,2022-06-27,ＫＳＳ合同会社,,合同会社,神奈川県,茅ヶ崎市,室田１丁目１６番１１号,,14,207,2530018,,,,,,,2022-06-27,1,,,,,ケーエスエス,0
1482,6021003011869,新規,0,2022-06-27,2022-06-27,合同会社ジェイ・ホールディングス,,合同会社,神奈川県,厚木市,寿町２丁目１番８－５０１号,,14,212,2430003,,,,,,,2022-06-27,1,,,,,ジェイホールディングス,0
1485,6030001148846,新規,0,2022-06-27,2022-06-27,株式会社Ｃｈｉｉ,,株式会社,埼玉県,富士見市,東みずほ台２丁目４番地２２,,11,235,3540015,,,,,,,2022-06-27,1,,,,,チー,0
1486,6030001148854,新規,0,2022-06-27,2022-06-27,株式会社ｎ,,株式会社,埼玉県,さいたま市大宮区,宮町１丁目８６－１大宮イーストビル７Ｆワイムビジネスプラザ大宮７２３号室,,11,103,3300802,,,,,,,2022-06-27,1,,,,,エヌ,0
1487,6030001148870,新規,0,2022-06-27,2022-06-27,株式会社Ｆ,,株式会社,埼玉県,草加市,住吉１丁目１３番１号,,11,221,3400014,,,,,,,2022-06-27,1,,,,,エフ,0
1488,6030001148920,新規,0,2022-06-27,2022-06-27,株式会社ななつきコンサルティング,,株式会社,埼玉県,行田市,持田１丁目１番２７号,,11,206,3610056,,,,,,,2022-06-27,1,,,,,ナナツキコンサルティング,0
1492,6030003019649,新規,0,2022-06-27,2022-06-27,合同会社Ｈｉ‐ｉｓ,,合同会社,埼玉県,さいたま市見沼区,深作３丁目１３番地１,,11,104,3370003,,,,,,,2022-06-27,1,,,,,ヒーイズ,0
1493,6030003019657,新規,0,2022-06-27,2022-06-27,ウォーキング合同会社,,合同会社,埼玉県,さいたま市南区,文蔵３丁目３５番９号,,11,108,3360025,,,,,,,2022-06-27,1,,,,,ウォーキング,0
1504,6050005013094,新規,0,2022-06-27,2022-06-27,一般社団法人ひまり,,その他の設立登記法人,茨城県,東茨城郡茨城町,大字長岡４４３４番地１,,08,302,3113116,,,,,,,2022-06-27,1,,,,,ヒマリ,0
1515,6090001017640,新規,0,2022-06-27,2022-06-27,株式会社フルーツメイト河野,,株式会社,山梨県,甲府市,七沢町５０番地,,19,201,4000825,,,,,,,2022-06-27,1,,,,,フルーツメイトコウノ,0
1516,6100001035475,新規,0,2022-06-27,2022-06-27,株式会社ＣＯＦＦＥＥ　ＰＯＮＤ,,株式会社,長野県,塩尻市,大字広丘野村７９１番地３,,20,215,3990702,,,,,,,2022-06-27,1,,,,,コーヒーポンド,0
1519,6110001036761,新規,0,2022-06-27,2022-06-27,株式会社ミライエ,,株式会社,新潟県,新潟市江南区,三百地５１３５番地１,,15,104,9500107,,,,,,,2022-06-27,1,,,,,ミライエ,0
1531,6120001246847,新規,0,2022-06-27,2022-06-27,エイキチ株式会社,,株式会社,大阪府,大阪市中央区,松屋町９番２０号ローレルステート松屋町３０２Ｂ,,27,128,5420067,,,,,,,2022-06-27,1,,,,,エイキチ,0
1532,6120001246913,新規,0,2022-06-27,2022-06-27,越洋株式会社,,株式会社,大阪府,大阪市中央区,松屋町９番２０号ローレルステート松屋町３０２Ａ,,27,128,5420067,,,,,,,2022-06-27,1,,,,,エツヨウ,0
1533,6120001246938,新規,0,2022-06-27,2022-06-27,ＴＦ株式会社,,株式会社,大阪府,大阪市東住吉区,桑津２丁目６番３１－１０３号,,27,121,5460041,,,,,,,2022-06-27,1,,,,,ティーエフ,0
1534,6120001246946,新規,0,2022-06-27,2022-06-27,阿弘商事株式会社,,株式会社,大阪府,大阪市中央区,北久宝寺町１丁目４番１０号大成合同ビル,,27,128,5410057,,,,,,,2022-06-27,1,,,,,アコウショウジ,0
1535,6120001246954,新規,0,2022-06-27,2022-06-27,株式会社ナル生花トレーディング,,株式会社,大阪府,大阪市鶴見区,横堤３丁目２番２５号,,27,124,5380052,,,,,,,2022-06-27,1,,,,,ナルセイカトレーディング,0
1536,6120001246970,新規,0,2022-06-27,2022-06-27,株式会社アーバン不動産,,株式会社,大阪府,大阪市中央区,北久宝寺町１丁目５番６号,,27,128,5410057,,,,,,,2022-06-27,1,,,,,アーバンフドウサン,0
1538,6120003021967,新規,0,2022-06-27,2022-06-27,合同会社リブウェイ,,合同会社,大阪府,寝屋川市,高宮栄町１６番４号,,27,215,5720846,,,,,,,2022-06-27,1,,,,,リブウェイ,0
1545,6120903004204,新規,0,2022-06-27,2022-06-27,ワンセレクション合同会社,,合同会社,大阪府,摂津市,千里丘新町５番２２－１０３５号,,27,224,5660002,,,,,,,2022-06-27,1,,,,,ワンセレクション,0
1548,6130001072061,新規,0,2022-06-27,2022-06-27,株式会社Ｐｌｕｓ,,株式会社,京都府,京都市伏見区,舞台町３５番地２－３０８号,,26,109,6128338,,,,,,,2022-06-27,1,,,,,プラス,0
1549,6130003008030,新規,0,2022-06-27,2022-06-27,合同会社ポルとカル,,合同会社,京都府,木津川市,加茂町河原下ノ浦３６,,26,214,6191104,,,,,,,2022-06-27,1,,,,,ポルトカル,0
1556,6140001126551,新規,0,2022-06-27,2022-06-27,株式会社ＭＡＴＳＵＷＡ,,株式会社,兵庫県,尼崎市,戸ノ内町６丁目１４番１０号,,28,202,6610961,,,,,,,2022-06-27,1,,,,,マツワ,0
1563,6140003017848,新規,0,2022-06-27,2022-06-27,合同会社ＧＲＡＮＤ　ＰＬＵＳ．８８８０,,合同会社,兵庫県,神戸市中央区,北長狭通２丁目５－１２ミズキビル３０１号,,28,110,6500012,,,,,,,2022-06-27,1,,,,,グランドプラスドットハチハチハチゼロ,0
1576,6180001151884,新規,0,2022-06-27,2022-06-27,後藤鉄筋株式会社,,株式会社,愛知県,一宮市,奥町字七丁２７番地５,,23,203,4910201,,,,,,,2022-06-27,1,,,,,ゴトウテッキン,0
1577,6180001151901,新規,0,2022-06-27,2022-06-27,オフィスウーノ株式会社,,株式会社,愛知県,一宮市,定水寺字西出３５番地３,,23,203,4910004,,,,,,,2022-06-27,1,,,,,オフィスウーノ,0
1584,6190001029543,新規,0,2022-06-27,2022-06-27,株式会社成生工業,,株式会社,三重県,津市,美里町足坂２６４番地,,24,201,5142106,,,,,,,2022-06-27,1,,,,,ナウコウギョウ,0
1586,6200001040218,新規,0,2022-06-27,2022-06-27,小峰商事株式会社,,株式会社,岐阜県,関市,笠屋１丁目１２７番１,,21,205,5013910,,,,,,,2022-06-27,1,,,,,ショウホウショウジ,0
1591,6220001024920,新規,0,2022-06-27,2022-06-27,株式会社ヤマトアグリ,,株式会社,石川県,小松市,串町３５番地１７,,17,203,9230965,,,,,,,2022-06-27,1,,,,,ヤマトアグリ,0
1596,6240001059989,新規,0,2022-06-27,2022-06-27,株式会社山紀,,株式会社,広島県,広島市安佐南区,高取南１丁目３７番３７号,,34,105,7310142,,,,,,,2022-06-27,1,,,,,ヤマキ,0
1599,6240003005677,新規,0,2022-06-27,2022-06-27,ホアンロン合同会社,,合同会社,広島県,福山市,西桜町１丁目１番４－２１７号,,34,207,7200818,,,,,,,2022-06-27,1,,,,,ホアンロン,0
1604,6280001008728,新規,0,2022-06-27,2022-06-27,福田株式会社,,株式会社,島根県,邑智郡邑南町,伏谷１３４７番地７,,32,449,6960402,,,,,,,2022-06-27,1,,,,,フクダ,0
1613,6290003012677,新規,0,2022-06-27,2022-06-27,ＡＴ合同会社,,合同会社,福岡県,福岡市博多区,竹下４丁目２番１７,,40,132,8120895,,,,,,,2022-06-27,1,,,,,エイティー,0
1621,6340001024842,新規,0,2022-06-27,2022-06-27,株式会社マツキ,,株式会社,鹿児島県,鹿児島市,南新町７番３８号,,46,201,8900085,,,,,,,2022-06-27,1,,,,,マツキ,0
1623,6340003003836,新規,0,2022-06-27,2022-06-27,合同会社陽和,,合同会社,鹿児島県,鹿児島市,吉野町３１５２番地２５,,46,201,8920871,,,,,,,2022-06-27,1,,,,,ヒヨリ,0
1631,6370005010497,新規,0,2022-06-27,2022-06-27,一般社団法人ヘルスマネジメントコネクト,,その他の設立登記法人,宮城県,仙台市青葉区,花京院１丁目２番１５号,,04,101,9800013,,,,,,,2022-06-27,1,,,,,ヘルスマネジメントコネクト,0
1633,6380001032932,新規,0,2022-06-27,2022-06-27,株式会社プロジェクト副社長,,株式会社,福島県,二本松市,作田１８７番地１３,,07,210,9640986,,,,,,,2022-06-27,1,,,,,プロジェクトフクシャチョウ,0
1668,6490003001676,新規,0,2022-06-27,2022-06-27,合同会社大崎建設,00127025,合同会社,高知県,高岡郡津野町,久保川１番地１,,39,411,7850204,,,,,,,2022-06-27,1,,,,,オオサキケンセツ,0
1672,6500001024297,新規,0,2022-06-27,2022-06-27,株式会社翔神,,株式会社,愛媛県,松山市,御幸２丁目５番５号,,38,201,7900824,,,,,,,2022-06-27,1,,,,,ショウジン,0
1678,6700150012504,新規,0,2022-06-27,2015-10-09,夢学童保育運営委員会,,その他,神奈川県,横浜市南区,南太田４丁目３６―２３,,14,105,2320006,,,,,,,2015-10-09,1,,,,,ユメガクドウホイクウンエイイインカイ,0
1679,6700150109259,新規,0,2022-06-27,2022-06-07,蒲井・旭活性化協議会,,その他,京都府,京丹後市,久美浜町蒲井５１８番地の１,,26,212,6293424,,,,,,,2022-06-07,1,,,,,カマイアサヒカツセイカキヨウギカイ,0
1680,6700150110489,新規,0,2022-06-27,2022-06-27,ｒｕｉｍｏｚｈｉｎｅｎｇｋｅｊｉ　ｓｈｅｎｚｈｅｎ　ｙｏｕｘｉａｎｇｏｎｇｓｉ,,外国会社等,,,,,,,,Ｒｏｏｍ　２２０，Ｂｕｉｌｄｉｎｇ　６，Ｑｉａｎｈａｉ　Ｓｈｅｎｚｈｅｎ－Ｈｏｎｇ　Ｋｏｎｇ　Ｙｏｕｔｈ　Ｉｎｎｏｖ，ｓｈｅｎｚｈｅｎ，ｇｕａｎｇｄｏｎｇ，Ｃｈｉｎａ,,,,,,2022-06-27,1,,,,,エイマチノウカギシンセンユウゲンコウシ,0
1684,7010001227576,新規,0,2022-06-27,2022-06-27,ユーワン株式会社,,株式会社,東京都,中央区,東日本橋３丁目１２番１号小澤ビル１Ｆ,,13,102,1030004,,,,,,,2022-06-27,1,,,,,ユーワン,0
1685,7010001227650,新規,0,2022-06-27,2022-06-27,株式会社Ｍｏｒｃａｌ　Ｐａｒｔｎｅｒｓ,,株式会社,東京都,中央区,築地３丁目７番１号,,13,102,1040045,,,,,,,2022-06-27,1,,,,,モウカルパートナーズ,0
1688,7010003037833,新規,0,2022-06-27,2022-06-27,ＨＡＧＵ合同会社,,合同会社,東京都,文京区,小石川５丁目４１番１３号宮本ビル１０１,,13,105,1120002,,,,,,,2022-06-27,1,,,,,ハグ,0
1689,7010003037965,新規,0,2022-06-27,2022-06-27,ザ・ホテリエ・グループ志賀高原合同会社,,合同会社,東京都,千代田区,丸の内１丁目１１番１号パシフィックセンチュリープレイス丸の内１７階,,13,101,1000005,,,,,,,2022-06-27,1,,,,,ザホテリエグループシガコウゲン,0
1690,7010003037973,新規,0,2022-06-27,2022-06-27,ザ・ホテリエ・グループ屈斜路合同会社,,合同会社,東京都,千代田区,丸の内１丁目１１番１号パシフィックセンチュリープレイス丸の内１７階,,13,101,1000005,,,,,,,2022-06-27,1,,,,,ザホテリエグループクッシャロ,0
1691,7010003037981,新規,0,2022-06-27,2022-06-27,ザ・ホテリエ・グループ池袋合同会社,,合同会社,東京都,千代田区,丸の内１丁目１１番１号パシフィックセンチュリープレイス丸の内１７階,,13,101,1000005,,,,,,,2022-06-27,1,,,,,ザホテリエグループイケブクロ,0
1708,7010405021138,新規,0,2022-06-27,2022-06-27,ルカニア特定目的会社,,その他の設立登記法人,東京都,港区,六本木１丁目６番１号泉ガーデンタワーＫＰＭＧ税理士法人内,,13,103,1060032,,,,,,,2022-06-27,1,,,,,ルカニア,0
1711,7010501049033,新規,0,2022-06-27,2022-06-27,東京イレブン株式会社,,株式会社,東京都,台東区,上野６丁目７番１６号川久保ビル７０１号室,,13,106,1100005,,,,,,,2022-06-27,1,,,,,トウキョウイレブン,0
1713,7010503006619,新規,0,2022-06-27,2022-06-27,ＧＲＡＮＤ　ＴＥＲＭＩＮＡＬ合同会社,,合同会社,東京都,台東区,千束２丁目３０－７マンションＫ２,,13,106,1110031,,,,,,,2022-06-27,1,,,,,グランドターミナル,0
1714,7010503006627,新規,0,2022-06-27,2022-06-27,ＨｏｌｏｎＣａｒｄｓ合同会社,,合同会社,東京都,台東区,台東１丁目３８番９号５Ｆ－１５,,13,106,1100016,,,,,,,2022-06-27,1,,,,,ホロンカーズ,0
1720,7010701042861,新規,0,2022-06-27,2022-06-27,株式会社ラプラス,,株式会社,東京都,品川区,戸越５丁目１８番７号戸越公園駅前ビル４Ｆ,,13,109,1420041,,,,,,,2022-06-27,1,,,,,ラプラス,0
1721,7010703006286,新規,0,2022-06-27,2022-06-27,合同会社Ａｋｃｏｏｏ,,合同会社,東京都,品川区,大崎４丁目４番２９－４０５号,,13,109,1410032,,,,,,,2022-06-27,1,,,,,アコー,0
1731,7010903007480,新規,0,2022-06-27,2022-06-27,合同会社伊藤,,合同会社,東京都,世田谷区,弦巻３丁目２４番６号,,13,112,1540016,,,,,,,2022-06-27,1,,,,,イトウ,0
1746,7011001148309,新規,0,2022-06-27,2022-06-27,株式会社アヴァン・クリエーション,,株式会社,東京都,渋谷区,神宮前６丁目２３－４桑野ビル２Ｆ,,13,113,1500001,,,,,,,2022-06-27,1,,,,,アヴァンクリエーション,0
1747,7011001148317,新規,0,2022-06-27,2022-06-27,株式会社エピタフスタジオ,,株式会社,東京都,渋谷区,代々木１丁目５３番１号マイタワー２１０３,,13,113,1510053,,,,,,,2022-06-27,1,,,,,エピタフスタジオ,0
1748,7011001148341,新規,0,2022-06-27,2022-06-27,バクリ株式会社,,株式会社,東京都,渋谷区,神宮前１丁目５番８号神宮前タワービルディング１４階,,13,113,1500001,,,,,,,2022-06-27,1,,,,,バクリ,0
1749,7011001148358,新規,0,2022-06-27,2022-06-27,株式会社ＡＲＵＴＡＫ,,株式会社,東京都,渋谷区,宇田川町１１番２号２階,,13,113,1500042,,,,,,,2022-06-27,1,,,,,アルタック,0
1750,7011001148374,新規,0,2022-06-27,2022-06-27,リユニオン株式会社,,株式会社,東京都,渋谷区,代々木１丁目７番３－２０１号,,13,113,1510053,,,,,,,2022-06-27,1,,,,,リユニオン,0
1757,7011005009614,新規,0,2022-06-27,2022-06-27,一般社団法人東京女子管弦楽団,,その他の設立登記法人,東京都,渋谷区,恵比寿南１丁目１８番３号２Ｆ,,13,113,1500022,,,,,,,2022-06-27,1,,,,,トウキョウジョシカンゲンガクダン,0
1758,7011005009622,新規,0,2022-06-27,2022-06-27,一般社団法人日本インフルエンサー連盟,,その他の設立登記法人,東京都,渋谷区,恵比寿２丁目２８番１０号ＳｈｕＢＬＤＧ２９６８,,13,113,1500013,,,,,,,2022-06-27,1,,,,,インフルエンサーレンメイ,0
1760,7011203003856,新規,0,2022-06-27,2022-06-27,合同会社セラ・ヴィ,,合同会社,東京都,中野区,本町４丁目４８番１７－６０４号,,13,114,1640012,,,,,,,2022-06-27,1,,,,,セラヴィ,0
1769,7011801040929,新規,0,2022-06-27,2022-06-27,株式会社ＫＯＮＡＭＩ,,株式会社,東京都,葛飾区,堀切４丁目６２番６号,,13,122,1240006,,,,,,,2022-06-27,1,,,,,コナミ,0
1772,7012403005452,新規,0,2022-06-27,2022-06-27,Ｄｕｏ　Ｐａｒｔｎｅｒ　Ｄｅｓｉｇｎ合同会社,,合同会社,東京都,小金井市,梶野町１丁目２番３６号,,13,210,1840002,,,,,,,2022-06-27,1,,,,,デュオパートナーデザイン,0
1789,7021001076351,新規,0,2022-06-27,2022-06-27,株式会社Ｗａｌｌｏｗｓ,,株式会社,神奈川県,大和市,深見２１９５番地２,,14,213,2420011,,,,,,,2022-06-27,1,,,,,ワローズ,0
1792,7021003011868,新規,0,2022-06-27,2022-06-27,合同会社ＴＥＲＵ建,,合同会社,神奈川県,相模原市南区,上鶴間本町７丁目１３番５５号,,14,153,2520318,,,,,,,2022-06-27,1,,,,,テルケン,0
1801,7030001148886,新規,0,2022-06-27,2022-06-27,ＪＡＳＳ　ＯＶＥＲＳＥＡＳ株式会社,,株式会社,埼玉県,川越市,霞ケ関東４丁目６番地２０,,11,201,3501103,,,,,,,2022-06-27,1,,,,,ジャスオーバーシーズ,0
1812,7040001123780,新規,0,2022-06-27,2022-06-27,株式会社ＴＯＰＲＩＤＥ,,株式会社,千葉県,船橋市,藤原５丁目３７番３１号,,12,204,2730047,,,,,,,2022-06-27,1,,,,,トップライド,0
1815,7040003020266,新規,0,2022-06-27,2022-06-27,合同会社ｃｏｃｏｃｉ,,合同会社,千葉県,市川市,市川４丁目１０－１８,,12,203,2720034,,,,,,,2022-06-27,1,,,,,ココチ,0
1820,7050005013102,新規,0,2022-06-27,2022-06-27,特定非営利活動法人Ｅ‐ｎｎｏｖａｔｉｏｎ,,その他の設立登記法人,茨城県,ひたちなか市,新光町３８ひたちなかテクノセンター内,,08,221,3120005,,,,,,,2022-06-27,1,,,,,イノベーション,0
1823,7080101023381,新規,0,2022-06-27,2022-06-27,株式会社ドルチェガレージ,,株式会社,静岡県,沼津市,新宿町１７－７,,22,203,4100048,,,,,,,2022-06-27,1,,,,,ドルチェガレージ,0
1825,7080103002615,新規,0,2022-06-27,2022-06-27,Ｍ＆Ａなのはな合同会社,,合同会社,静岡県,駿東郡清水町,伏見５９３番地２グレース伏見Ａ１０７,,22,341,4110907,,,,,,,2022-06-27,1,,,,,エムアンドエーナノハナ,0
1833,7110001036760,新規,0,2022-06-27,2022-06-27,北陸工業ＨＤ株式会社,,株式会社,新潟県,上越市,石橋２丁目４番６１号,,15,222,9420074,,,,,,,2022-06-27,1,,,,,ホクリクコウギョウエイチディー,0
1834,7110001036769,新規,0,2022-06-27,2022-06-27,株式会社レインロード,,株式会社,新潟県,新潟市秋葉区,古田２丁目２０番２７号,,15,105,9560025,,,,,,,2022-06-27,1,,,,,レインロード,0
1846,7120001246846,新規,0,2022-06-27,2022-06-27,ＬＵＣＫＹ　ＦＯＲＴＵＮＥ株式会社,,株式会社,大阪府,大阪市中央区,松屋町９番２０号ローレルステート松屋町８０４Ｂ,,27,128,5420067,,,,,,,2022-06-27,1,,,,,ラッキーフォーチュン,0
1847,7120001246978,新規,0,2022-06-27,2022-06-27,Ｒｉｖｉｅｒｅ　Ｂｌａｎｃｈｅ株式会社,,株式会社,大阪府,大阪市中央区,谷町７丁目１番３３－３０５号,,27,128,5420012,,,,,,,2022-06-27,1,,,,,リヴィエールブランシェ,0
1860,7122001036005,新規,0,2022-06-27,2022-06-27,グランドメタル株式会社,,株式会社,大阪府,八尾市,太田新町６丁目１７８番,,27,212,5810039,,,,,,,2022-06-27,1,,,,,グランドメタル,0
1871,7140001126501,新規,0,2022-06-27,2022-06-27,丹海株式会社,,株式会社,兵庫県,川西市,栄根２丁目２２－５トサキビル２０３号室,,28,217,6660021,,,,,,,2022-06-27,1,,,,,タンカイ,0
1872,7140001126518,新規,0,2022-06-27,2022-06-27,株式会社森田製作所,,株式会社,兵庫県,尼崎市,下坂部３丁目２１番１５号,,28,202,6610975,,,,,,,2022-06-27,1,,,,,モリタセイサクショ,0
1873,7140001126534,新規,0,2022-06-27,2022-06-27,株式会社ｅｍｓ,,株式会社,兵庫県,姫路市,飾磨区今在家北３丁目６２番地,,28,201,6728090,,,,,,,2022-06-27,1,,,,,イーエムエス,0
1875,7140003017839,新規,0,2022-06-27,2022-06-27,合同会社Ｍｅｒｉｋｅｎ　Ｈａｒｂｏｒ,,合同会社,兵庫県,神戸市東灘区,魚崎南町４丁目１５番１５－２０５号,,28,101,6580025,,,,,,,2022-06-27,1,,,,,,0
1876,7140005026219,新規,0,2022-06-27,2022-06-27,一般財団法人コープこうべ奨学金財団,,その他の設立登記法人,兵庫県,神戸市東灘区,住吉本町１丁目３番１９号,,28,101,6580051,,,,,,,2022-06-27,1,,,,,コープコウベショウガクキンザイダン,0
1881,7170001017160,新規,0,2022-06-27,2022-06-27,紀州土地株式会社,,株式会社,和歌山県,岩出市,山６３９番地,,30,209,6496258,,,,,,,2022-06-27,1,,,,,,0
1893,7180001151933,新規,0,2022-06-27,2022-06-27,株式会社グランドテック,,株式会社,愛知県,名古屋市緑区,大高町字西森前４１番地の５,,23,114,4598001,,,,,,,2022-06-27,1,,,,,グランドテック,0
1907,7200001040217,新規,0,2022-06-27,2022-06-27,エスアール株式会社,,株式会社,岐阜県,多治見市,笠原町２１１９番地の１,,21,204,5070901,,,,,,,2022-06-27,1,,,,,エスアール,0
1909,7200003005597,新規,0,2022-06-27,2022-06-27,合同会社ＥＤＥＮ,,合同会社,岐阜県,多治見市,滝呂町１２丁目２０２番地の１７,,21,204,5070813,,,,,,,2022-06-27,1,,,,,エデン,0
1922,7240001059988,新規,0,2022-06-27,2022-06-27,株式会社ＬＩＦＩＸ,,株式会社,広島県,広島市中区,大手町５丁目１４番１０－６０６号,,34,101,7300051,,,,,,,2022-06-27,1,,,,,リフィックス,0
1923,7240003005684,新規,0,2022-06-27,2022-06-27,合同会社ＮＥＸＴ　ＰＲＯＤＵＣＴ,,合同会社,広島県,広島市安芸区,矢野南４丁目１２－２,,34,107,7360086,,,,,,,2022-06-27,1,,,,,ネクストプロダクト,0
1926,7250001019628,新規,0,2022-06-27,2022-06-27,株式会社Ｍｉ・ｐａｔｉｏ,,株式会社,山口県,宇部市,相生町９番１２号１Ｆ,,35,202,7550043,,,,,,,2022-06-27,1,,,,,ミパティオ,0
1938,7290001098057,新規,0,2022-06-27,2022-06-27,株式会社国東ハーブガーデン,,株式会社,福岡県,福岡市東区,箱崎ふ頭５丁目２番２２号,,40,131,8120051,,,,,,,2022-06-27,1,,,,,クニサキハーブガーデン,0
1941,7290003012676,新規,0,2022-06-27,2022-06-27,合同会社岸建工業,,合同会社,福岡県,飯塚市,川島６０２番地９,,40,205,8200002,,,,,,,2022-06-27,1,,,,,キシケンコウギョウ,0
1942,7290801028667,新規,0,2022-06-27,2022-06-27,ファーストプロジェクト株式会社,,株式会社,福岡県,北九州市小倉南区,北方３丁目６７番１６号,,40,107,8020841,,,,,,,2022-06-27,1,,,,,ファーストプロジェクト,0
1946,7330001029874,新規,0,2022-06-27,2022-06-27,株式会社ＡＫＡＲＩ,,株式会社,熊本県,熊本市北区,武蔵ケ丘７丁目２番５５号,,43,105,8618001,,,,,,,2022-06-27,1,,,,,アカリ,0
1952,7350001017828,新規,0,2022-06-27,2022-06-27,株式会社ウィズダムプラス,,株式会社,宮崎県,宮崎市,阿波岐原町竹割２２４６番地３,,45,201,8800835,,,,,,,2022-06-27,1,,,,,ウィズダムプラス,0
1953,7360001030615,新規,0,2022-06-27,2022-06-27,株式会社ｎｏｕｇｙｏｕｋａ,,株式会社,沖縄県,石垣市,字大川２７８番地ＴＡＭＡビルＩＩ２Ｆ２０１号室,00127013,47,207,9070022,,,,,,,2022-06-27,1,,,,,ノウギョウカ,0
1954,7360001030631,新規,0,2022-06-27,2022-06-27,株式会社アートハウジング,,株式会社,沖縄県,那覇市,高良３丁目８番１８号,,47,201,9010145,,,,,,,2022-06-27,1,,,,,アートハウジング,0
1964,7400001015925,新規,0,2022-06-27,2022-06-27,株式会社グリーンパワーとおの,,株式会社,岩手県,遠野市,青笹町中沢５地割１８番地１,,03,208,0280502,,,,,,,2022-06-27,1,,,,,,0
1982,7430001086880,新規,0,2022-06-27,2022-06-27,株式会社ＤＡＩＫＯＵ,,株式会社,北海道,登別市,新生町３丁目１９番地３,,01,230,0590032,,,,,,,2022-06-27,1,,,,,ダイコウ,0
1984,7430003014063,新規,0,2022-06-27,2022-06-27,合同会社宮本コンサル,,合同会社,北海道,札幌市中央区,南一条西１３丁目４番地第４１ビッグプラザビルＩ３階,00127023,01,101,0600061,,,,,,,2022-06-27,1,,,,,ミヤモトコンサル,0
1989,7480005006905,新規,0,2022-06-27,2022-06-27,一般社団法人ＭＵＧＩ　ＯＣＥＡＮ　ＡＣＡＤＥＭＹ,,その他の設立登記法人,徳島県,海部郡牟岐町,大字川長字新光寺８４番地１,,36,383,7750004,,,,,,,2022-06-27,1,,,,,ムギオーシャンアカデミー,0
1990,7500001024296,新規,0,2022-06-27,2022-06-27,株式会社訪問看護リハビリステーションｙｏｕ　ｔｏｏ,,株式会社,愛媛県,上浮穴郡久万高原町,久万２６１番地２,,38,386,7911201,,,,,,,2022-06-27,1,,,,,,0
1993,7700150109365,新規,0,2022-06-27,2022-06-10,ゆーきかい,,その他,埼玉県,朝霞市,幸町２丁目１０－２岡様方,,11,227,3510015,,,,,,,2022-06-10,1,,,,,ユーキカイ,0
1994,7700150109828,新規,0,2022-06-27,2022-06-16,東京シティオペラ協会,,その他,東京都,府中市,四谷３丁目３３－３,,13,206,1830035,,,,,,,2022-06-16,1,,,,,トウキヨウシテイオペラキヨウカイ,0
1999,8010001227534,新規,0,2022-06-27,2022-06-27,株式会社トラロジ,,株式会社,東京都,中央区,銀座１丁目１２番４号Ｎ＆ＥＢＬＤ．６Ｆ,,13,102,1040061,,,,,,,2022-06-27,1,,,,,トラロジ,0
2000,8010001227609,新規,0,2022-06-27,2022-06-27,株式会社ＫＬ２,,株式会社,東京都,千代田区,丸の内３丁目１番１号東京共同会計事務所内,,13,101,1000005,,,,,,,2022-06-27,1,,,,,ケーエルツー,0
2001,8010001227633,新規,0,2022-06-27,2022-06-27,双日農業株式会社,,株式会社,東京都,千代田区,内幸町２丁目１番１号,,13,101,1000011,,,,,,,2022-06-27,1,,,,,ソウジツノウギョウ,0
2002,8010001227641,新規,0,2022-06-27,2022-06-27,株式会社ＤＯＵＣＥ,,株式会社,東京都,中央区,銀座１丁目２２番１１号銀座大竹ビジデンス２階,,13,102,1040061,,,,,,,2022-06-27,1,,,,,ドゥース,0
2003,8010001227658,新規,0,2022-06-27,2022-06-27,Ｙｏｏｍ株式会社,,株式会社,東京都,千代田区,神田錦町２丁目２－１－１１Ｆ,,13,101,1010054,,,,,,,2022-06-27,1,,,,,ユーム,0
2004,8010001227674,新規,0,2022-06-27,2022-06-27,ゴータスク株式会社,,株式会社,東京都,千代田区,九段南１丁目５番６号りそな九段ビル５ＦＫＳフロア,,13,101,1020074,,,,,,,2022-06-27,1,,,,,ゴータスク,0
2006,8010003037964,新規,0,2022-06-27,2022-06-27,ザ・ホテリエ・グループ六日町八海山合同会社,,合同会社,東京都,千代田区,丸の内１丁目１１番１号パシフィックセンチュリープレイス丸の内１７階,,13,101,1000005,,,,,,,2022-06-27,1,,,,,ザホテリエグループムイカマチハッカイサン,0
2007,8010003037972,新規,0,2022-06-27,2022-06-27,ザ・ホテリエ・グループ釧路合同会社,,合同会社,東京都,千代田区,丸の内１丁目１１番１号パシフィックセンチュリープレイス丸の内１７階,,13,101,1000005,,,,,,,2022-06-27,1,,,,,ザホテリエグループクシロ,0
2008,8010003037980,新規,0,2022-06-27,2022-06-27,ザ・ホテリエ・グループ広島合同会社,,合同会社,東京都,千代田区,丸の内１丁目１１番１号パシフィックセンチュリープレイス丸の内１７階,,13,101,1000005,,,,,,,2022-06-27,1,,,,,ザホテリエグループヒロシマ,0
2036,8011003014929,新規,0,2022-06-27,2022-06-27,合同会社ＹＯＳＨＩＮＡＮＩ,,合同会社,東京都,渋谷区,神宮前６丁目２３番４号桑野ビル２階,,13,113,1500001,,,,,,,2022-06-27,1,,,,,ヨシナニ,0
2040,8011401024356,新規,0,2022-06-27,2022-06-27,株式会社ラフェックス,,株式会社,東京都,板橋区,三園１丁目４９番８号,,13,119,1750091,,,,,,,2022-06-27,1,,,,,ラフェックス,0
2045,8011705001737,新規,0,2022-06-27,2022-06-27,一般社団法人こころインターナショナル,,その他の設立登記法人,東京都,江戸川区,清新町１丁目１番３２－２０２号,,13,123,1340087,,,,,,,2022-06-27,1,,,,,ココロインターナショナル,0
2050,8012301013036,新規,0,2022-06-27,2022-06-27,株式会社Ｈｅｍｉｓｐｈｅｒｅ　Ｊａｐａｎ,,株式会社,東京都,町田市,森野１丁目３６番地２号,,13,209,1940022,,,,,,,2022-06-27,1,,,,,ヘミスフィアジャパン,0
2052,8012701017116,新規,0,2022-06-27,2022-06-27,株式会社荘伸,,株式会社,東京都,西東京市,南町２丁目１番３５号,,13,229,1880012,,,,,,,2022-06-27,1,,,,,ソウシン,0
2056,8013301049292,新規,0,2022-06-27,2022-06-27,Ｒｉｓｅ株式会社,,株式会社,東京都,豊島区,北大塚２丁目９－４ＩＭ互栄大塚ビル２０２号,,13,116,1700004,,,,,,,2022-06-27,1,,,,,ライズ,0
2057,8020001146964,新規,0,2022-06-27,2022-06-27,株式会社アイテック,,株式会社,神奈川県,横浜市泉区,新橋町２４９－１０２,,14,116,2450009,,,,,,,2022-06-27,1,,,,,アイテック,0
2058,8020001147070,新規,0,2022-06-27,2022-06-27,株式会社Ｃｈａｎｇｅ　Ｌｉｆｅ,,株式会社,神奈川県,川崎市高津区,二子４丁目１６番１４号コモンレジデンス２０１,,14,134,2130002,,,,,,,2022-06-27,1,,,,,チェンジライフ,0
2066,8021001076350,新規,0,2022-06-27,2022-06-27,株式会社ＳＬＡＹ,,株式会社,神奈川県,藤沢市,川名１８１番地の１８Ｇ－３０４,,14,205,2510015,,,,,,,2022-06-27,1,,,,,スレイ,0
2067,8021001076359,新規,0,2022-06-27,2022-06-27,株式会社石渡設備,,株式会社,神奈川県,横須賀市,追浜町１丁目５１番地６８,,14,201,2370064,,,,,,,2022-06-27,1,,,,,イシワタリセツビ,0
2076,8021003011867,新規,0,2022-06-27,2022-06-27,合同会社ＲＯＳＨＮＩ,,合同会社,神奈川県,横須賀市,衣笠栄町１丁目７０古谷ビル１Ｆ,,14,201,2380031,,,,,,,2022-06-27,1,,,,,ロスニ,0
2085,8030001148860,新規,0,2022-06-27,2022-06-27,株式会社水澤電工,,株式会社,埼玉県,深谷市,小前田２１２８番地,,11,218,3691246,,,,,,,2022-06-27,1,,,,,ミズサワデンコウ,0
2086,8030001148869,新規,0,2022-06-27,2022-06-27,株式会社ＡＲＡＤＡ　ＩＮＣＯＲＰＯＲＡＴＩＯＮ,,株式会社,埼玉県,川越市,清水町１６番地７（清水町１番館２０２号室）,,11,201,3501145,,,,,,,2022-06-27,1,,,,,アラダインコーポレーション,0
2087,8030001148885,新規,0,2022-06-27,2022-06-27,Ｅｖｏｌｖｅ　Ｊａｐａｎ株式会社,,株式会社,埼玉県,草加市,旭町６丁目１４番１－１０８号,,11,221,3400053,,,,,,,2022-06-27,1,,,,,イヴォルヴジャパン,0
2093,8030003019655,新規,0,2022-06-27,2022-06-27,合同会社大進テクノ,,合同会社,埼玉県,さいたま市緑区,大字三室２６０７番地２,,11,109,3360911,,,,,,,2022-06-27,1,,,,,ダイシンテクノ,0
2110,8050001008699,新規,0,2022-06-27,2022-06-27,水戸レイクスカントリークラブ株式会社,,株式会社,茨城県,東茨城郡城里町,大字春園７５４番地２,,08,310,3114306,,,,,,,2022-06-27,1,,,,,ミトレイクスカントリークラブ,0
2120,8070003004521,新規,0,2022-06-27,2022-06-27,合同会社高崎フードテック,,合同会社,群馬県,高崎市,中泉町６５６番地１３,,10,202,3703524,,,,,,,2022-06-27,1,,,,,タカサキフードテック,0
2123,8080101023380,新規,0,2022-06-27,2022-06-27,株式会社ラッシュ,,株式会社,静岡県,沼津市,岡宮９００番地の６,,22,203,4100011,,,,,,,2022-06-27,1,,,,,ラッシュ,0
2124,8080401025911,新規,0,2022-06-27,2022-06-27,株式会社イマジン,,株式会社,静岡県,浜松市中区,萩丘４丁目２番１１号,,22,131,4338121,,,,,,,2022-06-27,1,,,,,イマジン,0
2128,8090003002119,新規,0,2022-06-27,2022-06-27,合同会社エスエフシー,,合同会社,山梨県,中巨摩郡昭和町,河西１０８２番地１,,19,384,4093851,,,,,,,2022-06-27,1,,,,,エスエフシー,0
2130,8100001035473,新規,0,2022-06-27,2022-06-27,株式会社高鉄,00127021,株式会社,長野県,茅野市,宮川１１８９番地２,,20,214,3910013,,,,,,,2022-06-27,1,,,,,タカテツ,0
2132,8110001036768,新規,0,2022-06-27,2022-06-27,株式会社２３,,株式会社,新潟県,新潟市西区,青山７丁目３番２２号１７ミルトニアＣ－６,,15,107,9502002,,,,,,,2022-06-27,1,,,,,トゥースリー,0
2134,8110005016824,新規,0,2022-06-27,2022-06-27,特定非営利活動法人いいすまいる,,その他の設立登記法人,新潟県,新潟市東区,上木戸２丁目７－１３,,15,102,9500891,,,,,,,2022-06-27,1,,,,,イイスマイル,0
2140,8120001246944,新規,0,2022-06-27,2022-06-27,ウィンドパワーソリューションズ株式会社,,株式会社,大阪府,大阪市住之江区,南港北２丁目１番１０号ＡＴＣビルＩＴＭ棟５階,,27,125,5590034,,,,,,,2022-06-27,1,,,,,ウィンドパワーソリューションズ,0
2141,8120001246960,新規,0,2022-06-27,2022-06-27,ひびき不動産鑑定株式会社,,株式会社,大阪府,大阪市北区,東天満２丁目８番１号,,27,127,5300044,,,,,,,2022-06-27,1,,,,,ヒビキフドウサンカンテイ,0
2148,8120005022978,新規,0,2022-06-27,2022-06-27,一般社団法人しるべの路,,その他の設立登記法人,大阪府,大阪市東成区,中本３丁目１６番１１号杉浦実業第三ビル２０３号室,,27,115,5370022,,,,,,,2022-06-27,1,,,,,シルベノミチ,0
2151,8120103004746,新規,0,2022-06-27,2022-06-27,桶真水産合同会社,,合同会社,大阪府,阪南市,箱作１８２７番地の１,,27,232,5990232,,,,,,,2022-06-27,1,,,,,オケシンスイサン,0
2152,8120105009578,新規,0,2022-06-27,2022-06-27,特定非営利活動法人ファイト,,その他の設立登記法人,大阪府,堺市中区,小阪１４７番地１,,27,142,5998276,,,,,,,2022-06-27,1,,,,,ファイト,0
2154,8120901046155,新規,0,2022-06-27,2022-06-27,株式会社Ｂｅａｒｔｈ,,株式会社,大阪府,茨木市,並木町１３－１５,,27,211,5670892,,,,,,,2022-06-27,1,,,,,バース,0
2155,8120901046163,新規,0,2022-06-27,2022-06-27,株式会社ＰＲＯＵＤ,,株式会社,大阪府,池田市,旭丘１丁目１１番１９号東光ビル,,27,204,5630022,,,,,,,2022-06-27,1,,,,,プラウド,0
2157,8122001036004,新規,0,2022-06-27,2022-06-27,株式会社ジャパンユーカ,,株式会社,大阪府,東大阪市,高井田１番１０号,,27,227,5770053,,,,,,,2022-06-27,1,,,,,ジャパンユーカ,0
2162,8130001072051,新規,0,2022-06-27,2022-06-27,株式会社ＹＧＭ,,株式会社,京都府,宇治市,菟道田中４３－５,00127018,26,204,6110000,,,,,,,2022-06-27,1,,,,,ワイジーエム,0
2167,8140001126509,新規,0,2022-06-27,2022-06-27,株式会社テラス,,株式会社,兵庫県,伊丹市,西野７丁目４０番地１,,28,207,6640028,,,,,,,2022-06-27,1,,,,,テラス,0
2168,8140001126517,新規,0,2022-06-27,2022-06-27,株式会社リビングアットイーズ,,株式会社,兵庫県,芦屋市,朝日ケ丘町７番１５－２０４号,,28,206,6590012,,,,,,,2022-06-27,1,,,,,リビングアットイーズ,0
2173,8150001025635,新規,0,2022-06-27,2022-06-27,株式会社ＥＮＨＡＮＣＥ,,株式会社,奈良県,奈良市,杉ヶ町３２－４ブレスト１番館１Ｆ,,29,201,6308357,,,,,,,2022-06-27,1,,,,,エンハンス,0
2174,8150001025651,新規,0,2022-06-27,2022-06-27,モルミル株式会社,,株式会社,奈良県,橿原市,四条町８４０,,29,205,6340813,,,,,,,2022-06-27,1,,,,,モルミル,0
2187,8180001151882,新規,0,2022-06-27,2022-06-27,株式会社紅輝,,株式会社,愛知県,名古屋市千種区,萱場２丁目１３番１３号－１,,23,101,4640086,,,,,,,2022-06-27,1,,,,,コウキ,0
2188,8180001151908,新規,0,2022-06-27,2022-06-27,株式会社ＴＳＵＫＵＹＯＭＩ,,株式会社,愛知県,岩倉市,下本町真光寺４２－３,,23,228,4820005,,,,,,,2022-06-27,1,,,,,ツクヨミ,0
2194,8180003023972,新規,0,2022-06-27,2022-06-27,合同会社ハナ,,合同会社,愛知県,名古屋市中区,丸の内３丁目８番１号ローレルアイ久屋大通１００１号,,23,106,4600002,,,,,,,2022-06-27,1,,,,,ハナ,0
2196,8180303005373,新規,0,2022-06-27,2022-06-27,合同会社姫愛,,合同会社,愛知県,西尾市,吉良町荻原一番割８５番地２,,23,213,4440524,,,,,,,2022-06-27,1,,,,,キア,0
2197,8180305009356,新規,0,2022-06-27,2022-06-27,一般社団法人中日本セラピストアカデミー,,その他の設立登記法人,愛知県,岡崎市,稲熊町字３丁目８１番地,,23,202,4440071,,,,,,,2022-06-27,1,,,,,ナカニホンセラピストアカデミー,0
2203,8210003001529,新規,0,2022-06-27,2022-06-27,アワランニング合同会社,,合同会社,福井県,あわら市,吉崎２丁目１０７番地,,18,208,9220679,,,,,,,2022-06-27,1,,,,,アワランニング,0
2205,8220001024919,新規,0,2022-06-27,2022-06-27,株式会社Ｆｏｘｘ,,株式会社,石川県,金沢市,額谷町ロ１３５番地２,,17,201,9218144,,,,,,,2022-06-27,1,,,,,フォックス,0
2208,8240001059987,新規,0,2022-06-27,2022-06-27,株式会社リンクス,,株式会社,広島県,東広島市,西条町上三永３４８番地３５,,34,212,7390022,,,,,,,2022-06-27,1,,,,,リンクス,0
2211,8240003005683,新規,0,2022-06-27,2022-06-27,松本経営企画合同会社,,合同会社,広島県,呉市,焼山宮ヶ迫１丁目４番２１号,,34,202,7370908,,,,,,,2022-06-27,1,,,,,,0
2213,8250001019627,新規,0,2022-06-27,2022-06-27,株式会社Ｏｏｋｉ,,株式会社,山口県,山口市,秋穂西１０４６７番地１,,35,203,7541102,,,,,,,2022-06-27,1,,,,,オオキ,0
2214,8250003003100,新規,0,2022-06-27,2022-06-27,合同会社クロッカス,,合同会社,山口県,下松市,東陽３丁目７番１４号,,35,207,7440043,,,,,,,2022-06-27,1,,,,,クロッカス,0
2228,8290001098056,新規,0,2022-06-27,2022-06-27,株式会社梅津倉庫,,株式会社,福岡県,福岡市東区,筥松２丁目１９番１２－８０１号,,40,131,8120061,,,,,,,2022-06-27,1,,,,,ウメヅソウコ,0
2229,8290001098064,新規,0,2022-06-27,2022-06-27,株式会社ほくぜい,,株式会社,福岡県,福岡市早良区,室見１丁目２６番１５号,,40,137,8140015,,,,,,,2022-06-27,1,,,,,ホクゼイ,0
2238,8310001017921,新規,0,2022-06-27,2022-06-27,株式会社ＡＬＰＨＡ,,株式会社,長崎県,西海市,西彼町大串郷１９１６番地１３,,42,212,8513424,,,,,,,2022-06-27,1,,,,,アルファ,0
2246,8340005009474,新規,0,2022-06-27,2022-06-27,一般社団法人レインボー,,その他の設立登記法人,鹿児島県,志布志市,有明町野井倉１３３７番地,,46,221,8997402,,,,,,,2022-06-27,1,,,,,レインボー,0
2248,8350001017827,新規,0,2022-06-27,2022-06-27,株式会社Ｌｉｏｎ,,株式会社,宮崎県,宮崎市,佐土原町西上那珂２４７５番地９,,45,201,8800302,,,,,,,2022-06-27,1,,,,,ライオン,0
2253,8370001048721,新規,0,2022-06-27,2022-06-27,株式会社新田エンタープライズ,,株式会社,宮城県,多賀城市,高崎３丁目２１番１号,,04,209,9850862,,,,,,,2022-06-27,1,,,,,ニッタエンタープライズ,0
2254,8380001032922,新規,0,2022-06-27,2022-06-27,株式会社告田乳酸発酵研究所,,株式会社,福島県,南相馬市,小高区本町１丁目８７番地,,07,212,9792124,,,,,,,2022-06-27,1,,,,,ツゲタニュウサンハッコウケンキュウジョ,0
2256,8380003005208,新規,0,2022-06-27,2022-06-27,合同会社ＡｎｙＬｉｎｋ,,合同会社,福島県,二本松市,成田町１丁目８６４番地１,,07,210,9640871,,,,,,,2022-06-27,1,,,,,エニーリンク,0
2268,8440003001472,新規,0,2022-06-27,2022-06-27,ラレヴ合同会社,,合同会社,北海道,函館市,日吉町４丁目２３番１２号,,01,202,0410841,,,,,,,2022-06-27,1,,,,,,0
2270,8440005002725,新規,0,2022-06-27,2022-06-27,一般社団法人ゴシケヴィチの船,,その他の設立登記法人,北海道,函館市,千代台町１２番２５号,,01,202,0400013,,,,,,,2022-06-27,1,,,,,ゴシケヴィチノフネ,0
2273,8500001024295,新規,0,2022-06-27,2022-06-27,リドットライフ株式会社,,株式会社,愛媛県,松山市,祇園町１０番地５,,38,201,7900965,,,,,,,2022-06-27,1,,,,,リドットライフ,0
2277,8700150105405,新規,0,2022-06-27,2021-10-20,ＫＯＢＥ　ＣＩＴＹ　ＯＦＦＩＣＥ　Ｔｈｅ　Ｏｔｈｅｒ　Ｈａｌｆ,,その他,兵庫県,神戸市中央区,八雲通６丁目１－９平岡マンション２０１号,,28,110,6510078,,,,,,,2021-10-20,1,,,,,コウベシテイオフイスジアザーハーフ,0
2278,8700150110446,新規,0,2022-06-27,2022-06-27,相続財産法人　被相続人　山本昭,,その他,愛知県,尾張旭市,吉岡町２丁目８番地２０,,23,226,4880827,,,,,,,2022-06-27,1,,,,,ソウゾクザイサンホウジンヒソウゾクニンヤマモトアキラ,0
2280,9010001227599,新規,0,2022-06-27,2022-06-27,漢方和牛株式会社,,株式会社,東京都,千代田区,神田鍛冶町３丁目６番地７,,13,101,1010045,,,,,,,2022-06-27,1,,,,,,0
2286,9010003037963,新規,0,2022-06-27,2022-06-27,ザ・ホテリエ・グループ下田合同会社,,合同会社,東京都,千代田区,丸の内１丁目１１番１号パシフィックセンチュリープレイス丸の内１７階,,13,101,1000005,,,,,,,2022-06-27,1,,,,,ザホテリエグループシモダ,0
2287,9010003037971,新規,0,2022-06-27,2022-06-27,ザ・ホテリエ・グループ函館合同会社,,合同会社,東京都,千代田区,丸の内１丁目１１番１号パシフィックセンチュリープレイス丸の内１７階,,13,101,1000005,,,,,,,2022-06-27,1,,,,,ザホテリエグループハコダテ,0
2305,9010401168022,新規,0,2022-06-27,2022-06-27,株式会社はなみち商事,,株式会社,東京都,港区,新橋１丁目４番５号ヒューリックＧ１０ビル２Ｆ,,13,103,1050004,,,,,,,2022-06-27,1,,,,,,0
2307,9010403027960,新規,0,2022-06-27,2022-06-27,合同会社ｂｙ　ｆａｒ,,合同会社,東京都,港区,東麻布１丁目９－１１ＧＲＯＷＴＨ・ＢＹ・ＩＯＱ・Ｗ－１４,,13,103,1060044,,,,,,,2022-06-27,1,,,,,バイファー,0
2308,9010403027977,新規,0,2022-06-27,2022-06-27,ＧＤｓＰＪ合同会社,,合同会社,東京都,港区,芝公園２丁目２番１０号中和ビル３階,,13,103,1050011,,,,,,,2022-06-27,1,,,,,ジーディーズピージェー,0
2311,9010405021103,新規,0,2022-06-27,2022-06-27,特定非営利活動法人つばめの会,,その他の設立登記法人,東京都,港区,南青山２丁目２番１５号ＷＩＮ青山５３１,,13,103,1070062,,,,,,,2022-06-27,1,,,,,ツバメノカイ,0
2318,9010901051108,新規,0,2022-06-27,2022-06-27,株式会社Ｒａｌｌｙ　Ｌｉｆｅ,,株式会社,東京都,世田谷区,桜新町１丁目２１番１３号３０２,,13,112,1540015,,,,,,,2022-06-27,1,,,,,ラリーライフ,0
2319,9010901051132,新規,0,2022-06-27,2022-06-27,株式会社ワイ・エヌ・アセット,,株式会社,東京都,世田谷区,北烏山６丁目１１番３－３３５号,,13,112,1570061,,,,,,,2022-06-27,1,,,,,ワイエヌアセット,0
2323,9011001148323,新規,0,2022-06-27,2022-06-27,ＩＭＢＯＸ　ＰＲＯＴＥＣＴＩＯＮ株式会社,,株式会社,東京都,渋谷区,猿楽町２９番６号ＤａｎｉｓｈＢｕｓｉｎｅｓｓＣｅｎｔｅｒ,,13,113,1500033,,,,,,,2022-06-27,1,,,,,インボックスプロテクション,0
2324,9011001148348,新規,0,2022-06-27,2022-06-27,株式会社ＣＯＭＭＵＮＥ,,株式会社,東京都,渋谷区,神山町５番２０号ＺＩＮＥ－ＹＯＹＯＧＩＫＯＥＮ３Ｃ,,13,113,1500047,,,,,,,2022-06-27,1,,,,,コミューン,0
2325,9011003014944,新規,0,2022-06-27,2022-06-27,合同会社ｙｏｕ,,合同会社,東京都,渋谷区,富ヶ谷１丁目４９番２１－１３０１号,,13,113,1510063,,,,,,,2022-06-27,1,,,,,ユー,0
2326,9011005009620,新規,0,2022-06-27,2022-06-27,一般社団法人日本コスメティックプロフェッショナル協会,,その他の設立登記法人,東京都,渋谷区,神宮前３丁目２番１９号メゼリテ神宮前３Ａ,,13,113,1500001,,,,,,,2022-06-27,1,,,,,ニホンコスメティックプロフェッショナルキョウカイ,0
2333,9011401024355,新規,0,2022-06-27,2022-06-27,ｕｏｕ　ｃｕｔｅ株式会社,,株式会社,東京都,板橋区,西台１丁目１番１４号,,13,119,1740045,,,,,,,2022-06-27,1,,,,,ユーオーユーキュート,0
2336,9011501028181,新規,0,2022-06-27,2022-06-27,スライブキャピタル株式会社,,株式会社,東京都,荒川区,東尾久１丁目３４番６－１０１,,13,118,1160012,,,,,,,2022-06-27,1,,,,,スライブキャピタル,0
2339,9011801040919,新規,0,2022-06-27,2022-06-27,株式会社Ｆ．Ａ．Ｔ,,株式会社,東京都,葛飾区,奥戸４丁目２０番２４号,,13,122,1240022,,,,,,,2022-06-27,1,,,,,エフエーティー,0
2340,9011801040927,新規,0,2022-06-27,2022-06-27,株式会社スペースアルファ,,株式会社,東京都,足立区,保木間１丁目２８番８号,,13,121,1210064,,,,,,,2022-06-27,1,,,,,スペースアルファ,0
2351,9020001147053,新規,0,2022-06-27,2022-06-27,ＲｏｌａｎｄＳｅａｌｓ株式会社,,株式会社,神奈川県,横浜市青葉区,荏子田３丁目１２番地１５フラット荏子田２０２,,14,117,2250005,,,,,,,2022-06-27,1,,,,,ローランドシールズ,0
2354,9020005015586,新規,0,2022-06-27,2022-06-27,一般財団法人ＹＡＭＡＮＡＫＡ未来財団,,その他の設立登記法人,神奈川県,川崎市幸区,中幸町３丁目３番１号,,14,132,2120012,,,,,,,2022-06-27,1,,,,,ヤマナカミライザイダン,0
2362,9021003011858,新規,0,2022-06-27,2022-06-27,合同会社Ｕｎｄｅｒｄｏｇ．,,合同会社,神奈川県,鎌倉市,台２丁目１５番３号,,14,204,2470061,,,,,,,2022-06-27,1,,,,,アンダードッグ,0
2364,9030001148711,新規,0,2022-06-27,2022-06-27,ＪＢＫ株式会社,,株式会社,埼玉県,三郷市,鷹野４丁目３４番地１コスモ三郷ウェルステージ１０３号,,11,237,3410035,,,,,,,2022-06-27,1,,,,,,0
2365,9030001148884,新規,0,2022-06-27,2022-06-27,株式会社ドリーム・サービス,,株式会社,埼玉県,羽生市,東２丁目３番４１号エルディム北Ｂ１０２,,11,216,3480052,,,,,,,2022-06-27,1,,,,,ドリームサービス,0
2366,9030001148892,新規,0,2022-06-27,2022-06-27,株式会社ドリーム獣医科クリニック,,株式会社,埼玉県,行田市,大字持田１０１４番地４,,11,206,3610056,,,,,,,2022-06-27,1,,,,,ドリームジュウイカクリニック,0
2385,9050001051293,新規,0,2022-06-27,2022-06-27,港商事株式会社,,株式会社,茨城県,結城市,大字上成３６５番地１,,08,207,3070045,,,,,,,2022-06-27,1,,,,,ミナトショウジ,0
2398,9080401025910,新規,0,2022-06-27,2022-06-27,株式会社イズモホームテック,,株式会社,静岡県,浜松市中区,連尺町３０７番地の１４出雲殿互助会連尺ビル,,22,131,4300939,,,,,,,2022-06-27,1,,,,,イズモホームテック,0
2403,9100001035448,新規,0,2022-06-27,2022-06-27,株式会社信和商事,,株式会社,長野県,飯田市,主税町３２番地,,20,205,3950032,,,,,,,2022-06-27,1,,,,,シンワショウジ,0
2405,9100003006604,新規,0,2022-06-27,2022-06-27,合同会社ｍｙｇｈｔ,,合同会社,長野県,長野市,大字富竹２６３３番地２２,,20,201,3810006,,,,,,,2022-06-27,1,,,,,マイト,0
2407,9110001036767,新規,0,2022-06-27,2022-06-27,エム・エス不動産株式会社,,株式会社,新潟県,新潟市中央区,高志１丁目５番１号－２０３,,15,103,9500926,,,,,,,2022-06-27,1,,,,,エムエスフドウサン,0
2420,9120001246935,新規,0,2022-06-27,2022-06-27,株式会社ＭＬＳ,,株式会社,大阪府,寝屋川市,太間東町１１番４号,,27,215,5720072,,,,,,,2022-06-27,1,,,,,エムエルエス,0
2421,9120001246943,新規,0,2022-06-27,2022-06-27,株式会社溝口,,株式会社,大阪府,大阪市大正区,三軒家東１丁目６番１４－１５０９号,,27,108,5510002,,,,,,,2022-06-27,1,,,,,ミゾグチ,0
2422,9120001246951,新規,0,2022-06-27,2022-06-27,宏希株式会社,,株式会社,大阪府,大阪市天王寺区,逢阪１丁目３番３４号,00127016,27,109,5430062,,,,,,,2022-06-27,1,,,,,ヒロキ,0
2423,9120001246976,新規,0,2022-06-27,2022-06-27,株式会社ｍｅｃｈｉｋａ,,株式会社,大阪府,大阪市中央区,西心斎橋１丁目１０番１７号ポポロビル４階Ｓ号,,27,128,5420086,,,,,,,2022-06-27,1,,,,,メチカ,0
2424,9120001246984,新規,0,2022-06-27,2022-06-27,株式会社ＦＩＫＡ,,株式会社,大阪府,大阪市西区,靱本町１丁目１５番１０号森田ビル５Ｆ５０２,,27,106,5500004,,,,,,,2022-06-27,1,,,,,フィーカ,0
2425,9120001246992,新規,0,2022-06-27,2022-06-27,ＮＨ　Ｇｌｏｂａｌ株式会社,,株式会社,大阪府,大阪市淀川区,木川東２丁目５番４１号,,27,123,5320012,,,,,,,2022-06-27,1,,,,,エヌエイチグローバル,0
2428,9120003021972,新規,0,2022-06-27,2022-06-27,ＤＯＮＧ　ＮＡＭ　ＢＯ合同会社,,合同会社,大阪府,大阪市平野区,加美鞍作２丁目８番４号,,27,126,5470004,,,,,,,2022-06-27,1,,,,,ドンナムボ,0
2435,9120901046162,新規,0,2022-06-27,2022-06-27,木玄人株式会社,,株式会社,大阪府,茨木市,総持寺駅前町１番１４号,,27,211,5670802,,,,,,,2022-06-27,1,,,,,キックロート,0
2436,9122001036003,新規,0,2022-06-27,2022-06-27,ＳＫＹ　ＳＥＲＶＩＣＥ株式会社,,株式会社,大阪府,東大阪市,御厨２丁目３番４号,,27,227,5770032,,,,,,,2022-06-27,1,,,,,スカイサービス,0
2437,9122003002366,新規,0,2022-06-27,2022-06-27,ルナテック合同会社,,合同会社,大阪府,東大阪市,上四条町３０番９号,,27,227,5798052,,,,,,,2022-06-27,1,,,,,ルナテック,0
2461,9180001151898,新規,0,2022-06-27,2022-06-27,ＢＡＮＧ　ＴＨＥ　ＢＥＡＴ株式会社,,株式会社,愛知県,名古屋市千種区,姫池通３丁目７番地,,23,101,4640055,,,,,,,2022-06-27,1,,,,,バンザビート,0
2465,9180003023988,新規,0,2022-06-27,2022-06-27,合同会社ＬＩＬＩＵＭ,,合同会社,愛知県,小牧市,中央４丁目１５０番地,,23,219,4850029,,,,,,,2022-06-27,1,,,,,リリウム,0
2474,9220001024918,新規,0,2022-06-27,2022-06-27,ココトピア株式会社,,株式会社,石川県,金沢市,二口町ロ５４番地１Ｄ,,17,201,9200051,,,,,,,2022-06-27,1,,,,,ココトピア,0
2488,9260003003957,新規,0,2022-06-27,2022-06-27,リンクセンター合同会社,,合同会社,岡山県,井原市,上出部町２８３,,33,207,7150021,,,,,,,2022-06-27,1,,,,,リンクセンター,0
2498,9290003012674,新規,0,2022-06-27,2022-06-27,合同会社ひだまりキラキラ,,合同会社,福岡県,筑紫野市,紫１丁目１３番１－６０２号,,40,217,8180061,,,,,,,2022-06-27,1,,,,,ヒダマリキラキラ,0
2508,9360001030605,新規,0,2022-06-27,2022-06-27,株式会社ＥＣＯＣＯ,,株式会社,沖縄県,うるま市,石川山城５４１番地１,,47,213,9041113,,,,,,,2022-06-27,1,,,,,イイココ,0
2511,9370003005744,新規,0,2022-06-27,2022-06-27,合同会社ガーデナー,,合同会社,宮城県,多賀城市,高崎３丁目２７番３０－３０３号グランドパレス,,04,209,9850862,,,,,,,2022-06-27,1,,,,,ガーデナー,0
2519,9420002016134,新規,0,2022-06-27,2022-06-27,有限会社大建,,有限会社,青森県,弘前市,大字大開２丁目１１番地５,,02,202,0368247,,,,,,,2022-06-27,1,,,,,,0
2526,9430001086887,新規,0,2022-06-27,2022-06-27,株式会社いい感じえーじぇんと,,株式会社,北海道,札幌市中央区,南十一条西１丁目１番１１－４０３号,,01,101,0640811,,,,,,,2022-06-27,1,,,,,イイカンジエージェント,0
2552,9700150108860,新規,0,2022-06-27,2022-05-19,ＲＡＩＳＥ,,その他,長野県,大町市,常盤１３２８,,20,212,3980004,,,,,,,2022-05-19,1,,,,,レイズ,0
2553,9700150109719,新規,0,2022-06-27,2022-06-15,演劇企画ＮＡＧＡＳＥ,,その他,東京都,練馬区,大泉学園町３丁目１２－１８,,13,120,1780061,,,,,,,2022-06-15,1,,,,,エンゲキキカクナガセ,0
