sequenceNumber,corporateNumber,process,correct,updateDate,changeDate,name,nameImageId,kind,prefectureName,cityName,streetNumber,addressImageId,prefectureCode,cityCode,postCode,addressOutside,addressOutsideImageId,closeDate,closeCause,successorCorporateNumber,changeCause,assignmentDate,latest,enName,enPrefectureName,enCityName,enAddressOutside,furigana,hihyoji
4,1010001226303,新規,0,2022-05-06,2022-05-06,株式会社ビサイド,,株式会社,東京都,千代田区,一番町１１番地１,,13,101,1020082,,,,,,,2022-05-06,1,,,,,ビサイド,0
8,1010005034958,新規,0,2022-05-06,2022-05-06,一般社団法人輪島市山是清農場風力発電,,その他の設立登記法人,東京都,文京区,本郷５丁目３３番１０号,,13,105,1130033,,,,,,,2022-05-06,1,,,,,ワジマシヤマコレキヨノウジョウフウリョクハツデン,0
9,1010005034966,新規,0,2022-05-06,2022-05-06,弁護士法人岡野真也法律事務所,,その他の設立登記法人,東京都,中央区,日本橋本石町３丁目１番２号ＦＯＲＥＣＡＳＴ新常盤橋５階,,13,102,1030021,,,,,,,2022-05-06,1,,,,,オカノシンヤホウリツジムショ,0
10,1010101015168,新規,0,2022-05-06,2022-05-06,中丸建工株式会社,,株式会社,東京都,八王子市,大横町１４番２５号,,13,201,1920062,,,,,,,2022-05-06,1,,,,,ナカマルケンコウ,0
18,1010401167080,新規,0,2022-05-06,2022-05-06,ＰｏｌｙＭｅｔａ株式会社,,株式会社,東京都,港区,南青山６丁目１０番３－１０３号,,13,103,1070062,,,,,,,2022-05-06,1,,,,,ポリメタ,0
19,1010401167097,新規,0,2022-05-06,2022-05-06,株式会社万里一空,,株式会社,東京都,港区,浜松町２丁目２番１５号２階,,13,103,1050013,,,,,,,2022-05-06,1,,,,,バンリイックウ,0
20,1010401167114,新規,0,2022-05-06,2022-05-06,万象メディア株式会社,,株式会社,東京都,港区,新橋２丁目５番６号大村ビル７階７０３室,,13,103,1050004,,,,,,,2022-05-06,1,,,,,バンショウメディア,0
21,1010401167130,新規,0,2022-05-06,2022-05-06,株式会社ＧＯＤ　Ｈｏｌｄｉｎｇｓ,,株式会社,東京都,港区,六本木３丁目１８番２－１６０４号,,13,103,1060032,,,,,,,2022-05-06,1,,,,,ゴッドホールディングス,0
22,1010401167188,新規,0,2022-05-06,2022-05-06,株式会社ジオマリンサービス,,株式会社,東京都,港区,赤坂３丁目１番２号,,13,103,1070052,,,,,,,2022-05-06,1,,,,,ジオマリンサービス,0
23,1010403027456,新規,0,2022-05-06,2022-05-06,ＬＩＶＩＮ’ｓｔｙｌｅ合同会社,,合同会社,東京都,港区,南青山２丁目２―１５ウィン青山９４２,,13,103,1070062,,,,,,,2022-05-06,1,,,,,リビンスタイル,0
30,1010703006218,新規,0,2022-05-06,2022-05-06,合同会社ｍ．フロンティア,,合同会社,東京都,品川区,西品川２丁目１５番１５号西品川アパート１０２,,13,109,1410033,,,,,,,2022-05-06,1,,,,,エムドットフロンティア,0
37,1010901050802,新規,0,2022-05-06,2022-05-06,株式会社ＵＤＡ,,株式会社,東京都,世田谷区,若林２丁目３１番１２号サンクレスト若林１０２号室,,13,112,1540023,,,,,,,2022-05-06,1,,,,,ウダ,0
40,1011001147183,新規,0,2022-05-06,2022-05-06,株式会社Ａ＆ｒ,,株式会社,東京都,渋谷区,神宮前６丁目２３番４号桑野ビル２Ｆ,,13,113,1500001,,,,,,,2022-05-06,1,,,,,,0
41,1011001147200,新規,0,2022-05-06,2022-05-06,タイガーテイル株式会社,,株式会社,東京都,渋谷区,渋谷２丁目７番１３号ネオメット青山３階,,13,113,1500002,,,,,,,2022-05-06,1,,,,,タイガーテイル,0
42,1011001147290,新規,0,2022-05-06,2022-05-06,株式会社ＬＯＯＶ,,株式会社,東京都,目黒区,目黒本町２丁目４－４,,13,110,1520002,,,,,,,2022-05-06,1,,,,,ルーブ,0
44,1011005009553,新規,0,2022-05-06,2022-05-06,一般社団法人経営政策支援センター,,その他の設立登記法人,東京都,渋谷区,道玄坂１丁目１０番８号渋谷道玄坂東急ビル２Ｆ－Ｃ,,13,113,1500043,,,,,,,2022-05-06,1,,,,,ケイエイセイサクシエンセンター,0
46,1011101098698,新規,0,2022-05-06,2022-05-06,株式会社ファンリアル,,株式会社,東京都,新宿区,西新宿７丁目５番５号Ｐｌａｚａ西新宿ＵＣＦ４０６,,13,104,1600023,,,,,,,2022-05-06,1,,,,,ファンリアル,0
47,1011101098707,新規,0,2022-05-06,2022-05-06,株式会社Ｇｅｎｉｕｓ　Ｊａｐａｎ,,株式会社,東京都,新宿区,住吉町１番１８号ＴＶＢ曙橋ビル５Ｆ,,13,104,1620065,,,,,,,2022-05-06,1,,,,,ジーニアスジャパン,0
48,1011101098723,新規,0,2022-05-06,2022-05-06,牛込犬猫病院株式会社,,株式会社,東京都,新宿区,南山伏町２番１５号,,13,104,1620854,,,,,,,2022-05-06,1,,,,,ウシゴメイヌネコビョウイン,0
53,1011301027746,新規,0,2022-05-06,2022-05-06,株式会社モリクリエート,,株式会社,東京都,杉並区,上荻１丁目２１番２５号,,13,115,1670043,,,,,,,2022-05-06,1,,,,,モリクリエート,0
59,1011501028008,新規,0,2022-05-06,2022-05-06,株式会社スターチパートナーズ,,株式会社,東京都,北区,堀船１丁目７番１号,,13,117,1140004,,,,,,,2022-05-06,1,,,,,スターチパートナーズ,0
63,1011701025291,新規,0,2022-05-06,2022-05-06,株式会社Ｃａｓｓｉｔａ,,株式会社,東京都,江戸川区,南葛西３丁目２２－１１ダイアパレス葛西ＩＩＩ２０１,00126464,13,123,1340085,,,,,,,2022-05-06,1,,,,,カッシータ,0
66,1013301049035,新規,0,2022-05-06,2022-05-06,北海株式会社,,株式会社,東京都,豊島区,巣鴨１丁目２７番５号ＫＭビル４０１号,,13,116,1700002,,,,,,,2022-05-06,1,,,,,ホッカイ,0
68,1013303006141,新規,0,2022-05-06,2022-05-06,ＧＯＯＤ　ＳＰＡＣＥ合同会社,,合同会社,東京都,豊島区,池袋２丁目４９－１２ナカイチビル１階１０２号,,13,116,1710014,,,,,,,2022-05-06,1,,,,,グッドスペース,0
73,1020001146343,新規,0,2022-05-06,2022-05-06,株式会社ＣＯＲＩＳＥＤ,,株式会社,神奈川県,川崎市川崎区,日進町１８番地９大成屋ビル２階,,14,131,2100024,,,,,,,2022-05-06,1,,,,,コライズ,0
76,1020005015511,新規,0,2022-05-06,2022-05-06,一般社団法人サステナブルマップ,,その他の設立登記法人,神奈川県,川崎市川崎区,駅前本町１１番地２,,14,131,2100007,,,,,,,2022-05-06,1,,,,,サステナブルマップ,0
82,1021001075854,新規,0,2022-05-06,2022-05-06,株式会社ＡＬＭＡＳ,,株式会社,神奈川県,茅ヶ崎市,東海岸北１丁目２番８号２Ｆ,,14,207,2530053,,,,,,,2022-05-06,1,,,,,アルマス,0
85,1021005012515,新規,0,2022-05-06,2022-05-06,特定非営利活動法人秦野歴史おこしの会,,その他の設立登記法人,神奈川県,秦野市,蓑毛３４４番地の１４,,14,211,2570021,,,,,,,2022-05-06,1,,,,,,0
90,1030001147984,新規,0,2022-05-06,2022-05-06,株式会社Ｗａｖｅｗｏｏｄ,,株式会社,埼玉県,桶川市,南２丁目８番２０号,,11,231,3630015,,,,,,,2022-05-06,1,,,,,ウェーブウッド,0
94,1030003019307,新規,0,2022-05-06,2022-05-06,合同会社ナッツ,,合同会社,埼玉県,富士見市,ふじみ野東２丁目７－１シティヴェールふじみ野二番館１５０３,,11,235,3540036,,,,,,,2022-05-06,1,,,,,ナッツ,0
95,1030005020857,新規,0,2022-05-06,2022-05-06,医療法人社団白令会,,その他の設立登記法人,埼玉県,川口市,大字里３７２番地メディカルガーデン川口２Ｆ,,11,203,3340005,,,,,,,2022-05-06,1,,,,,ハクレイカイ,0
100,1040001123225,新規,0,2022-05-06,2022-05-06,株式会社Ｌｕｐｉｎｕｓ,,株式会社,千葉県,市川市,押切４－９ベルソレーユ２０３,,12,203,2720107,,,,,,,2022-05-06,1,,,,,ルピナス,0
105,1050003006534,新規,0,2022-05-06,2022-05-06,ＬＩＹＡＮＡＧＥ　ＩＮＴＥＲＮＡＴＩＯＮＡＬ合同会社,,合同会社,茨城県,潮来市,堀之内１４７４－１,,08,223,3112433,,,,,,,2022-05-06,1,,,,,リヤナゲインターナショナル,0
106,1050003006542,新規,0,2022-05-06,2022-05-06,合同会社ワンダークリエーション,,合同会社,茨城県,水戸市,城南２丁目１２－３９ミオカステーロ水戸パークサイド１１０２,,08,201,3100803,,,,,,,2022-05-06,1,,,,,ワンダークリエーション,0
107,1060001034800,新規,0,2022-05-06,2022-05-06,泉産業株式会社,,株式会社,栃木県,宇都宮市,宿郷２丁目９－７,,09,201,3210945,,,,,,,2022-05-06,1,,,,,イズミサンギョウ,0
109,1060003004058,新規,0,2022-05-06,2022-05-06,合同会社カラフルらいふ,,合同会社,栃木県,大田原市,城山２丁目１３番６号,,09,210,3240052,,,,,,,2022-05-06,1,,,,,カラフルライフ,0
113,1080101023271,新規,0,2022-05-06,2022-05-06,株式会社Ｇｏｍａ‐Ｆａｃｔｏｒｙ,,株式会社,静岡県,沼津市,香貫が丘１０番１２号,,22,203,4100824,,,,,,,2022-05-06,1,,,,,ゴマファクトリー,0
115,1080401025793,新規,0,2022-05-06,2022-05-06,株式会社勇デザイン,,株式会社,静岡県,浜松市南区,東町３２番地の２,,22,134,4300822,,,,,,,2022-05-06,1,,,,,ユウデザイン,0
119,1110003004754,新規,0,2022-05-06,2022-05-06,合同会社樺澤不動産,,合同会社,新潟県,長岡市,上富岡２丁目１９１７－２,,15,202,9402136,,,,,,,2022-05-06,1,,,,,カバサワフドウサン,0
136,1120001245606,新規,0,2022-05-06,2022-05-06,株式会社Ｊｉｏ,,株式会社,大阪府,大阪市福島区,福島７丁目１７番１７－４０６号,,27,103,5530003,,,,,,,2022-05-06,1,,,,,ジオ,0
137,1120001245688,新規,0,2022-05-06,2022-05-06,株式会社小林電機,,株式会社,大阪府,大阪市大正区,泉尾１丁目２４番５号,,27,108,5510031,,,,,,,2022-05-06,1,,,,,コバヤシデンキ,0
142,1120003021591,新規,0,2022-05-06,2022-05-06,ＮＴ９Ｘ合同会社,,合同会社,大阪府,大阪市中央区,高津３丁目１２番２０号１Ｆ,,27,128,5420072,,,,,,,2022-05-06,1,,,,,エヌティキューエックス,0
143,1120003021617,新規,0,2022-05-06,2022-05-06,アムゴナ合同会社,,合同会社,大阪府,大阪市生野区,田島２丁目６番２９号,,27,116,5440011,,,,,,,2022-05-06,1,,,,,アムゴナ,0
145,1120101065524,新規,0,2022-05-06,2022-05-06,株式会社阪和ロックサービス貝塚,,株式会社,大阪府,貝塚市,橋本５２番地,,27,208,5970043,,,,,,,2022-05-06,1,,,,,ハンワロックサービスカイヅカ,0
146,1120103004686,新規,0,2022-05-06,2022-05-06,合同会社みのり,,合同会社,大阪府,大阪狭山市,大野台５丁目６番１１号,,27,231,5890023,,,,,,,2022-05-06,1,,,,,ミノリ,0
148,1120901045931,新規,0,2022-05-06,2022-05-06,株式会社リアクト,,株式会社,大阪府,高槻市,赤大路町６番１１号,,27,207,5691146,,,,,,,2022-05-06,1,,,,,リアクト,0
155,1130001071679,新規,0,2022-05-06,2022-05-06,株式会社三啓,,株式会社,京都府,京都市下京区,西七条比輪田町５番地１,,26,106,6008882,,,,,,,2022-05-06,1,,,,,スリーケー,0
156,1130001071695,新規,0,2022-05-06,2022-05-06,株式会社幸和電機,,株式会社,京都府,亀岡市,本梅町平松八百分３番地２４,,26,206,6210251,,,,,,,2022-05-06,1,,,,,コウワデンキ,0
157,1130001071704,新規,0,2022-05-06,2022-05-06,株式会社ネトラス,,株式会社,京都府,京都市中京区,釜座町２２ストークビル三条烏丸２０３,,26,104,6040000,,,,,,,2022-05-06,1,,,,,ネトラス,0
158,1130001071712,新規,0,2022-05-06,2022-05-06,株式会社Ｃｏｐｐｅｌｉａ,,株式会社,京都府,向日市,物集女町北ノ口１００番地の５１,,26,208,6170001,,,,,,,2022-05-06,1,,,,,コッペリア,0
159,1130003007912,新規,0,2022-05-06,2022-05-06,合同会社律一,,合同会社,京都府,京都市左京区,松ケ崎芝本町４番地３ブランドール北山２０２,,26,103,6060913,,,,,,,2022-05-06,1,,,,,リツイチ,0
167,1140001125863,新規,0,2022-05-06,2022-05-06,株式会社ブッコ・ボロネーゼ,,株式会社,兵庫県,神戸市中央区,三宮町３丁目６番１２号,,28,110,6500021,,,,,,,2022-05-06,1,,,,,ブッコボロネーゼ,0
169,1140003017646,新規,0,2022-05-06,2022-05-06,ＡＺＵＲＥ　ＣｕＢｅ合同会社,,合同会社,兵庫県,西宮市,甲子園口北町１番１号,,28,204,6638112,,,,,,,2022-05-06,1,,,,,アジュールキューブ,0
170,1140005026158,新規,0,2022-05-06,2022-05-06,一般社団法人ＩＹＣ,,その他の設立登記法人,兵庫県,西宮市,甲子園浜２丁目１２番地,,28,204,6638155,,,,,,,2022-05-06,1,,,,,アイワイシー,0
171,1150001025501,新規,0,2022-05-06,2022-05-06,株式会社キラマチ不動産,,株式会社,奈良県,橿原市,醍醐町５２２番１,,29,205,6340072,,,,,,,2022-05-06,1,,,,,キラマチフドウサン,0
181,1180001151138,新規,0,2022-05-06,2022-05-06,株式会社グロース,,株式会社,愛知県,名古屋市千種区,千種通７丁目１０１番地,,23,101,4640855,,,,,,,2022-05-06,1,,,,,グロース,0
182,1180001151154,新規,0,2022-05-06,2022-05-06,株式会社いち＆けい,,株式会社,愛知県,名古屋市千種区,池上町１丁目１番３２号,,23,101,4640029,,,,,,,2022-05-06,1,,,,,イチアンドケイ,0
183,1180001151204,新規,0,2022-05-06,2022-05-06,名象通商株式会社,,株式会社,愛知県,名古屋市中区,丸の内３丁目２０番５号,,23,106,4600002,,,,,,,2022-05-06,1,,,,,メイゾウツウショウ,0
193,1190005011700,新規,0,2022-05-06,2022-05-06,特定非営利活動法人榊原温泉湯垢離の会,,その他の設立登記法人,三重県,津市,榊原町５９７０番地,,24,201,5141251,,,,,,,2022-05-06,1,,,,,サカキバラオンセンユゴリノカイ,0
204,1230001019354,新規,0,2022-05-06,2022-05-06,株式会社ハートブレイン,,株式会社,富山県,富山市,婦中町響の杜２６９番地６２,,16,201,9392729,,,,,,,2022-05-06,1,,,,,ハートブレイン,0
205,1230003001847,新規,0,2022-05-06,2022-05-06,合同会社アップスタート,,合同会社,富山県,高岡市,井口本江３８０番地,,16,202,9330807,,,,,,,2022-05-06,1,,,,,アップスタート,0
215,1260001036834,新規,0,2022-05-06,2022-05-06,株式会社エーデイム,,株式会社,岡山県,総社市,井尻野１５０９,,33,208,7191154,,,,,,,2022-05-06,1,,,,,エーデイム,0
216,1260003003898,新規,0,2022-05-06,2022-05-06,合同会社ＢＬＵＥＭＯＭＥＮＴ,,合同会社,岡山県,岡山市南区,浜野２丁目１番３５号,,33,104,7000845,,,,,,,2022-05-06,1,,,,,,0
223,1290001097403,新規,0,2022-05-06,2022-05-06,株式会社ＺＯＷＰＲＯ,,株式会社,福岡県,筑紫野市,石崎３丁目２４番７号,,40,217,8180068,,,,,,,2022-05-06,1,,,,,ゾウプロ,0
224,1290001097411,新規,0,2022-05-06,2022-05-06,株式会社Ｂａｔａ,,株式会社,福岡県,福岡市中央区,赤坂１丁目１１－１３１０１大稲ビル５０３,,40,133,8100042,,,,,,,2022-05-06,1,,,,,バータ,0
232,1290801028499,新規,0,2022-05-06,2022-05-06,株式会社Ｅ‐ＲＡ,,株式会社,福岡県,北九州市小倉南区,朽網東６丁目１０番１５号,,40,107,8000232,,,,,,,2022-05-06,1,,,,,エラ,0
235,1310001017829,新規,0,2022-05-06,2022-05-06,株式会社ＳＫＰ,,株式会社,長崎県,佐世保市,日野町１９３０番地２,,42,202,8580923,,,,,,,2022-05-06,1,,,,,エスケイピイ,0
236,1310001017837,新規,0,2022-05-06,2022-05-06,株式会社ＳＵＮ,,株式会社,長崎県,佐世保市,俵町１２番１号２階,,42,202,8570016,,,,,,,2022-05-06,1,,,,,サン,0
237,1310001017845,新規,0,2022-05-06,2022-05-06,株式会社黒牛,,株式会社,長崎県,西海市,西彼町小迎郷１０３２番地５,,42,212,8513422,,,,,,,2022-05-06,1,,,,,クロギュウ,0
238,1320001019048,新規,0,2022-05-06,2022-05-06,株式会社ＡＮＤ,,株式会社,大分県,大分市,花園２丁目１１番４２号,,44,201,8700846,,,,,,,2022-05-06,1,,,,,アンド,0
240,1330001029731,新規,0,2022-05-06,2022-05-06,株式会社ＣＯＮＮＥＣＴ,,株式会社,熊本県,合志市,須屋２２７番地１スライブ参番館４０６号,,43,216,8611102,,,,,,,2022-05-06,1,,,,,コネクト,0
245,1340003003774,新規,0,2022-05-06,2022-05-06,合同会社ＧＲＡＰＥ　ＳＰＡＣＥ,,合同会社,鹿児島県,鹿児島市,谷山中央４丁目１７８番地５,,46,201,8910141,,,,,,,2022-05-06,1,,,,,グレープスペース,0
259,1410001013181,新規,0,2022-05-06,2022-05-06,ワイ・エス技建株式会社,,株式会社,秋田県,男鹿市,五里合琴川字前田１０番地,,05,206,0100352,,,,,,,2022-05-06,1,,,,,ワイエスギケン,0
275,1470003002177,新規,0,2022-05-06,2022-05-06,合同会社Ｍ．Ｐ．Ｓ,,合同会社,香川県,善通寺市,上吉田町４丁目７番１２号エム・シャルム善通寺２　１０３,,37,204,7650011,,,,,,,2022-05-06,1,,,,,エムピーエス,0
276,1480001011724,新規,0,2022-05-06,2022-05-06,株式会社ティーズテクノ,,株式会社,徳島県,板野郡北島町,太郎八須字五反地１４番地２０,,36,402,7710202,,,,,,,2022-05-06,1,,,,,ティーズテクノ,0
288,2010001226005,新規,0,2022-05-06,2022-05-06,星河株式会社,,株式会社,東京都,中央区,銀座１丁目２２番１１号銀座大竹ビジデンス２階,,13,102,1040061,,,,,,,2022-05-06,1,,,,,セイガ,0
289,2010001226145,新規,0,2022-05-06,2022-05-06,株式会社Ｐ２,,株式会社,東京都,文京区,湯島３丁目１３番５号３階,,13,105,1130034,,,,,,,2022-05-06,1,,,,,ピーツー,0
290,2010001226260,新規,0,2022-05-06,2022-05-06,Ｖａｌｅｎｃｉａ株式会社,,株式会社,東京都,千代田区,大手町１丁目５番１号大手町ファーストスクエアイーストタワー４階,,13,101,1000004,,,,,,,2022-05-06,1,,,,,バレンシア,0
295,2010005034957,新規,0,2022-05-06,2022-05-06,一般社団法人岩手大船渡自然エネルギー,,その他の設立登記法人,東京都,文京区,本郷５丁目３３番１０号,,13,105,1130033,,,,,,,2022-05-06,1,,,,,イワテオオフナトシゼンエネルギー,0
299,2010401167063,新規,0,2022-05-06,2022-05-06,株式会社ＫＡＩＣＯＭＡ,,株式会社,東京都,港区,高輪４丁目２４番５５号,,13,103,1080074,,,,,,,2022-05-06,1,,,,,カイコマ,0
300,2010401167113,新規,0,2022-05-06,2022-05-06,株式会社ロングリバーフードサービス,,株式会社,東京都,港区,三田１丁目１１－１,,13,103,1080073,,,,,,,2022-05-06,1,,,,,ロングリバーフードサービス,0
305,2010405020953,新規,0,2022-05-06,2022-05-06,Ａｌｆａ特定目的会社,,その他の設立登記法人,東京都,港区,虎ノ門３丁目２２番１０－２０１号,,13,103,1050001,,,,,,,2022-05-06,1,,,,,アルファ,0
307,2010501048790,新規,0,2022-05-06,2022-05-06,株式会社Ｋｏｎｎｅｃｔ‐ｌｉｎＫ,,株式会社,東京都,台東区,上野６丁目１番６号御徒町グリーンハイツ１００５号,,13,106,1100005,,,,,,,2022-05-06,1,,,,,コネクトリンク,0
309,2010601061074,新規,0,2022-05-06,2022-05-06,株式会社ＧＣコンサルティング,,株式会社,東京都,江東区,扇橋３丁目１７番１０－１３０８号,,13,108,1350011,,,,,,,2022-05-06,1,,,,,ジーシーコンサルティング,0
310,2010601061099,新規,0,2022-05-06,2022-05-06,ＩＤ　Ｉｔａｌｉａ株式会社,,株式会社,東京都,江東区,有明３丁目７番２６号,,13,108,1350063,,,,,,,2022-05-06,1,,,,,アイディーイターリア,0
312,2010603009518,新規,0,2022-05-06,2022-05-06,合同会社ＳＫＹ,,合同会社,東京都,墨田区,堤通１丁目１２番１４－９０１号アーバンフィールド曳舟,,13,107,1310034,,,,,,,2022-05-06,1,,,,,スカイ,0
314,2010703006217,新規,0,2022-05-06,2022-05-06,ライフテック合同会社,,合同会社,東京都,品川区,東品川２丁目２－２８小海ビル５０１,,13,109,1400002,,,,,,,2022-05-06,1,,,,,ライフテテック,0
318,2010901050801,新規,0,2022-05-06,2022-05-06,株式会社ＰＤＢ,,株式会社,東京都,世田谷区,代田４丁目１９番１２号,,13,112,1550033,,,,,,,2022-05-06,1,,,,,ピーディービー,0
328,2011001147216,新規,0,2022-05-06,2022-05-06,株式会社ＪＡＭ,,株式会社,東京都,渋谷区,道玄坂１丁目１０番８号渋谷道玄坂東急ビル２Ｆ－Ｃ,,13,113,1500043,,,,,,,2022-05-06,1,,,,,ジャム,0
329,2011001147240,新規,0,2022-05-06,2022-05-06,ＭＹ　Ｓｏｌｕｔｉｏｎ株式会社,,株式会社,東京都,渋谷区,道玄坂１丁目１０番８号渋谷道玄坂東急ビル２Ｆ－Ｃ,,13,113,1500043,,,,,,,2022-05-06,1,,,,,,0
330,2011001147273,新規,0,2022-05-06,2022-05-06,株式会社ランカー,,株式会社,東京都,渋谷区,神宮前６丁目２３番４号桑野ビル２階,,13,113,1500001,,,,,,,2022-05-06,1,,,,,,0
333,2011101098706,新規,0,2022-05-06,2022-05-06,株式会社ＡＭＴ,,株式会社,東京都,新宿区,歌舞伎町２丁目４５番６号エル・グランジュテ新宿１２０１号室,,13,104,1600021,,,,,,,2022-05-06,1,,,,,エーエムティー,0
334,2011101098730,新規,0,2022-05-06,2022-05-06,株式会社ｔｋｔ,,株式会社,東京都,新宿区,新宿７丁目２６－７,,13,104,1600022,,,,,,,2022-05-06,1,,,,,ティーケーティー,0
337,2011201023811,新規,0,2022-05-06,2022-05-06,ＮＳＴ株式会社,,株式会社,東京都,中野区,中野４丁目１番１号中野サンプラザ９Ｆ,,13,114,1640001,,,,,,,2022-05-06,1,,,,,エヌエスティ,0
339,2011501028007,新規,0,2022-05-06,2022-05-06,株式会社サンエアー,,株式会社,東京都,荒川区,町屋４丁目１４番２１号パストマンション町屋３０１号,,13,118,1160001,,,,,,,2022-05-06,1,,,,,サンエアー,0
341,2011601025928,新規,0,2022-05-06,2022-05-06,株式会社Ｓｕｐｅｒｍａｓｓｉｖｅ,,株式会社,東京都,練馬区,豊玉北５丁目２４番１５－５０２号,,13,120,1760012,,,,,,,2022-05-06,1,,,,,スーパーマッシブ,0
346,2012303001671,新規,0,2022-05-06,2022-05-06,合同会社めて,,合同会社,東京都,町田市,忠生２丁目５‐９０,,13,209,1940035,,,,,,,2022-05-06,1,,,,,メテ,0
361,2020001146342,新規,0,2022-05-06,2022-05-06,株式会社マフ計画,,株式会社,神奈川県,横浜市栄区,上郷町１７６１番地２２,,14,115,2470013,,,,,,,2022-05-06,1,,,,,マフケイカク,0
367,2020005015519,新規,0,2022-05-06,2022-05-06,一般社団法人かながわチェンバーアンサンブル,,その他の設立登記法人,神奈川県,横浜市戸塚区,下倉田町６１５番地９４,,14,110,2440815,,,,,,,2022-05-06,1,,,,,カナガワチェンバーアンサンブル,0
374,2021003011666,新規,0,2022-05-06,2022-05-06,合同会社大庭コンスート,,合同会社,神奈川県,藤沢市,大庭５５２９番地の８シャルマンコーポ２０１号,,14,205,2510861,,,,,,,2022-05-06,1,,,,,オオバコンスート,0
381,2030001147983,新規,0,2022-05-06,2022-05-06,株式会社ＴＲＥＥ　ＨＯＵＳＥ,,株式会社,埼玉県,行田市,大字荒木２０５２番地１,,11,206,3610011,,,,,,,2022-05-06,1,,,,,ツリーハウス,0
386,2030003019339,新規,0,2022-05-06,2022-05-06,合同会社ＵＮＳＵＮＧ　ＨＥＲＯＥＳ,,合同会社,埼玉県,秩父郡皆野町,大字三沢字小根２６３番地,,11,362,3691411,,,,,,,2022-05-06,1,,,,,アンサンヒーローズ,0
387,2030003019347,新規,0,2022-05-06,2022-05-06,合同会社シーズ,,合同会社,埼玉県,春日部市,中央１丁目５９番地８コンプレール１０２,,11,214,3440067,,,,,,,2022-05-06,1,,,,,シーズ,0
395,2050003006500,新規,0,2022-05-06,2022-05-06,エリアファースト合同会社,,合同会社,茨城県,古河市,上片田１２２０,,08,204,3060128,,,,,,,2022-05-06,1,,,,,エリアファースト,0
396,2070001039194,新規,0,2022-05-06,2022-05-06,Ｔ＆Ａ株式会社,,株式会社,群馬県,伊勢崎市,上諏訪町２０００番地５,,10,204,3720021,,,,,,,2022-05-06,1,,,,,ティーアンドエー,0
400,2080001024906,新規,0,2022-05-06,2022-05-06,株式会社Ｓｕｎホープ,,株式会社,静岡県,静岡市駿河区,下川原４丁目１７番３－２号,,22,102,4210113,,,,,,,2022-05-06,1,,,,,サンホープ,0
401,2080001024914,新規,0,2022-05-06,2022-05-06,株式会社井上,,株式会社,静岡県,静岡市駿河区,丸子３２６２番地の１,,22,102,4210103,,,,,,,2022-05-06,1,,,,,イノウエ,0
409,2100003006528,新規,0,2022-05-06,2022-05-06,合同会社ＡＳＡＩ,,合同会社,長野県,飯田市,上郷黒田４２９番地１,,20,205,3950004,,,,,,,2022-05-06,1,,,,,アサイ,0
413,2110001036641,新規,0,2022-05-06,2022-05-06,オルグラボ株式会社,,株式会社,新潟県,三条市,大島４９８８,,15,204,9550094,,,,,,,2022-05-06,1,,,,,オルグラボ,0
431,2120001245605,新規,0,2022-05-06,2022-05-06,株式会社ｍｉｅｕｘ　ｕｐ,,株式会社,大阪府,大阪市港区,三先１丁目１２－９－１０１,,27,107,5520016,,,,,,,2022-05-06,1,,,,,ミューアップ,0
432,2120001245613,新規,0,2022-05-06,2022-05-06,ガラパゴスプロジェクト株式会社,,株式会社,大阪府,寝屋川市,黒原旭町５番１３号第１松田ハイム１Ｆ,,27,215,5720057,,,,,,,2022-05-06,1,,,,,ガラパゴスプロジェクト,0
433,2120001245638,新規,0,2022-05-06,2022-05-06,株式会社ＳＨＰ．ＳＫＹ,,株式会社,大阪府,枚方市,伊加賀緑町６番２２号,,27,210,5730067,,,,,,,2022-05-06,1,,,,,エスエイチピードットスカイ,0
437,2120003021624,新規,0,2022-05-06,2022-05-06,ｍｉｍｏｓａ合同会社,,合同会社,大阪府,大阪市北区,曾根崎新地１丁目２番２８号古澤ビル１階,,27,127,5300002,,,,,,,2022-05-06,1,,,,,ミモザ,0
454,2140003017637,新規,0,2022-05-06,2022-05-06,ＷＩＮＧＳ合同会社,,合同会社,兵庫県,尼崎市,長洲本通３丁目２番７号,,28,202,6600803,,,,,,,2022-05-06,1,,,,,ウィングス,0
457,2170001017099,新規,0,2022-05-06,2022-05-06,ＳＤビューティー株式会社,,株式会社,和歌山県,和歌山市,太田４丁目１１番１７号,,30,201,6408323,,,,,,,2022-05-06,1,,,,,エスディービューティー,0
467,2180001151137,新規,0,2022-05-06,2022-05-06,株式会社ＮＩＣＥＤＡＹ　ＧＲＯＵＰ,,株式会社,愛知県,弥富市,平島町甲新田９２番地１,,23,235,4980031,,,,,,,2022-05-06,1,,,,,ナイスデイグループ,0
468,2180001151153,新規,0,2022-05-06,2022-05-06,株式会社ＵＧコスメティクス,,株式会社,愛知県,名古屋市中区,丸の内３丁目１９番１号,,23,106,4600002,,,,,,,2022-05-06,1,,,,,ユージーコスメティクス,0
485,2200001040031,新規,0,2022-05-06,2022-05-06,株式会社スプラウト,,株式会社,岐阜県,岐阜市,日野南２丁目２番５号,,21,201,5008212,,,,,,,2022-05-06,1,,,,,スプラウト,0
486,2200001040048,新規,0,2022-05-06,2022-05-06,株式会社アイアンイエロー,,株式会社,岐阜県,大垣市,古知丸４丁目４５番地１,,21,202,5030036,,,,,,,2022-05-06,1,,,,,アイアンイエロー,0
488,2200003005552,新規,0,2022-05-06,2022-05-06,アリアネットワークス合同会社,,合同会社,岐阜県,本巣市,仏生寺８６８番地５３３,,21,218,5010407,,,,,,,2022-05-06,1,,,,,アリアネットワークス,0
490,2210003001501,新規,0,2022-05-06,2022-05-06,合同会社ＢＥＥＭ,,合同会社,福井県,越前市,芝原５丁目１４番６号,,18,209,9150805,,,,,,,2022-05-06,1,,,,,ビーム,0
495,2240001059704,新規,0,2022-05-06,2022-05-06,株式会社東海コンサルティングファーム,,株式会社,広島県,広島市中区,千田町１丁目１２番５－２０２号,,34,101,7300052,,,,,,,2022-05-06,1,,,,,トウカイコンサルティングファーム,0
496,2240003005607,新規,0,2022-05-06,2022-05-06,合同会社幸,,合同会社,広島県,広島市安佐南区,相田３丁目３８番１２号,,34,105,7310141,,,,,,,2022-05-06,1,,,,,サチ,0
500,2260001036809,新規,0,2022-05-06,2022-05-06,パサリスグローブアセットマネージメント株式会社,,株式会社,岡山県,倉敷市,玉島２丁目７番２７号,,33,202,7138102,,,,,,,2022-05-06,1,,,,,パサリスグローブアセットマネージメント,0
501,2260001036817,新規,0,2022-05-06,2022-05-06,小方工業株式会社,,株式会社,岡山県,倉敷市,平田５９７番地２２,,33,202,7100003,,,,,,,2022-05-06,1,,,,,オガタコウギョウ,0
502,2260001036825,新規,0,2022-05-06,2022-05-06,Ｒａｙｓ株式会社,,株式会社,岡山県,岡山市中区,国富２丁目１９番６号,,33,102,7038236,,,,,,,2022-05-06,1,,,,,レイズ,0
503,2260001036833,新規,0,2022-05-06,2022-05-06,サンケイ工業株式会社,,株式会社,岡山県,倉敷市,児島柳田町１１６４－８,,33,202,7110936,,,,,,,2022-05-06,1,,,,,サンケイコウギョウ,0
504,2260001036841,新規,0,2022-05-06,2022-05-06,リプラ株式会社,,株式会社,岡山県,倉敷市,児島下の町５丁目２番３３号,,33,202,7110906,,,,,,,2022-05-06,1,,,,,リプラ,0
513,2290001097402,新規,0,2022-05-06,2022-05-06,株式会社ＴＨＥ　ＳＣＥＮＴ,,株式会社,福岡県,福岡市早良区,百道浜４丁目３１番１号,,40,137,8140001,,,,,,,2022-05-06,1,,,,,ザセント,0
516,2290003012466,新規,0,2022-05-06,2022-05-06,ＳＫＴ合同会社,,合同会社,福岡県,福岡市中央区,梅光園３丁目５番１－１４０６号フローレンス梅光園グランドアーク,,40,133,8100035,,,,,,,2022-05-06,1,,,,,エスケーティー,0
519,2310001017844,新規,0,2022-05-06,2022-05-06,株式会社Ｋ，プロジェクト,,株式会社,長崎県,長崎市,戸石町５００番地３１９,,42,201,8510113,,,,,,,2022-05-06,1,,,,,ケイプロジェクト,0
525,2340005009455,新規,0,2022-05-06,2022-05-06,一般財団法人ディメンション・ゼロ,,その他の設立登記法人,鹿児島県,垂水市,錦江町１番２７,,46,214,8912124,,,,,,,2022-05-06,1,,,,,ディメンションゼロ,0
526,2360005006649,新規,0,2022-05-06,2022-05-06,宗教法人恵みバプテスト教会,,その他の設立登記法人,沖縄県,中頭郡中城村,字北上原３７５番地１,,47,328,9012423,,,,,,,2022-05-06,1,,,,,メグミバプテストキョウカイ,0
528,2370001048520,新規,0,2022-05-06,2022-05-06,ティーエスリース株式会社,,株式会社,宮城県,富谷市,富ケ丘２丁目２５番２７号,,04,216,9813352,,,,,,,2022-05-06,1,,,,,ティーエスリース,0
529,2380001032779,新規,0,2022-05-06,2022-05-06,アルスホールディングス株式会社,,株式会社,福島県,本宮市,本宮字名郷７番地,,07,214,9691175,,,,,,,2022-05-06,1,,,,,アルスホールディングス,0
533,2400001015871,新規,0,2022-05-06,2022-05-06,株式会社ＧＨＳ,,株式会社,岩手県,滝沢市,巣子１２１１番地,,03,216,0200611,,,,,,,2022-05-06,1,,,,,ジーエイチエス,0
536,2410001013180,新規,0,2022-05-06,2022-05-06,株式会社ｏｋａｂｅツリー,,株式会社,秋田県,秋田市,泉一ノ坪４番３６号,,05,201,0100813,,,,,,,2022-05-06,1,,,,,オカベツリー,0
543,2430001086539,新規,0,2022-05-06,2022-05-06,株式会社Ｋ’Ｓ　ＣＯＲＰＯＲＡＴＩＯＮ,,株式会社,北海道,札幌市北区,北二十三条西５丁目２番２１号,,01,102,0010023,,,,,,,2022-05-06,1,,,,,ケイズコーポレーション,0
544,2450001013697,新規,0,2022-05-06,2022-05-06,株式会社ａｄ旭川,,株式会社,北海道,旭川市,豊岡七条６丁目５番２号,,01,204,0788237,,,,,,,2022-05-06,1,,,,,エーディーアサヒカワ,0
545,2460001005693,新規,0,2022-05-06,2022-05-06,株式会社エムケージャパン,,株式会社,北海道,釧路市,愛国西２丁目３２番１０号,,01,206,0850057,,,,,,,2022-05-06,1,,,,,エムケージャパン,0
546,2470001019057,新規,0,2022-05-06,2022-05-06,暮らしの大学株式会社,,株式会社,香川県,三豊市,仁尾町仁尾辛３５番地３,,37,208,7691406,,,,,,,2022-05-06,1,,,,,クラシノダイガク,0
547,2470003002176,新規,0,2022-05-06,2022-05-06,アシストビジネス合同会社,,合同会社,香川県,丸亀市,原田町２２２９番地２,,37,202,7630074,,,,,,,2022-05-06,1,,,,,アシストビジネス,0
552,2500001024185,新規,0,2022-05-06,2022-05-06,株式会社風本,,株式会社,愛媛県,松山市,西石井４丁目１番２４号,,38,201,7900931,,,,,,,2022-05-06,1,,,,,カゼモト,0
553,2500001024193,新規,0,2022-05-06,2022-05-06,株式会社フールダ,,株式会社,愛媛県,西条市,河之内甲３８６番地１,,38,206,7991314,,,,,,,2022-05-06,1,,,,,フールダ,0
564,3010001226284,新規,0,2022-05-06,2022-05-06,株式会社ｒｉｃｈｅ,,株式会社,東京都,文京区,小石川３丁目１番８,,13,105,1120002,,,,,,,2022-05-06,1,,,,,リシェ,0
565,3010001226326,新規,0,2022-05-06,2022-05-06,株式会社ＰＲＯＬＥＴＡ　ＲＥ　ＡＲＴ,,株式会社,東京都,文京区,水道２丁目１０番９号板倉ビル４階,,13,105,1120005,,,,,,,2022-05-06,1,,,,,プロレタリアート,0
568,3010003037572,新規,0,2022-05-06,2022-05-06,セントラルアジアサポート合同会社,,合同会社,東京都,中央区,日本橋兜町１７番１－５０３号,,13,102,1030026,,,,,,,2022-05-06,1,,,,,セントラルアジアサポート,0
569,3010005034956,新規,0,2022-05-06,2022-05-06,一般社団法人アニマルレスキュー,,その他の設立登記法人,東京都,千代田区,神田須田町１丁目３４番４号神田グロウビル４階,,13,101,1010041,,,,,,,2022-05-06,1,,,,,アニマルレスキュー,0
577,3010401167079,新規,0,2022-05-06,2022-05-06,株式会社Ｂｌｕｅｐｒｉｎｔ　ｏｎｅ,,株式会社,東京都,港区,北青山３丁目６－７青山パラシオタワー１１階,,13,103,1070061,,,,,,,2022-05-06,1,,,,,ブループリントワン,0
578,3010401167104,新規,0,2022-05-06,2022-05-06,株式会社ＳＴＯＲＩＥＳ,,株式会社,東京都,港区,港南１丁目９番３６号,,13,103,1080075,,,,,,,2022-05-06,1,,,,,ストーリーズ,0
579,3010401167178,新規,0,2022-05-06,2022-05-06,株式会社Ｅｔｏｉｌｅ,,株式会社,東京都,港区,南青山２丁目２番１５号ウイン青山９３９,,13,103,1070062,,,,,,,2022-05-06,1,,,,,エトワール,0
580,3010401167244,新規,0,2022-05-06,2022-05-06,株式会社Ｋアリーナマネジメント,,株式会社,東京都,港区,西麻布１丁目３番４号,,13,103,1060031,,,,,,,2022-05-06,1,,,,,ケイアリーナマネジメント,0
585,3010403027578,新規,0,2022-05-06,2022-05-06,合同会社ａｒｔｌｅｓｓ,,合同会社,東京都,港区,赤坂４丁目９番１９号赤坂Ｔ．Ｏビル６Ｆ,,13,103,1070052,,,,,,,2022-05-06,1,,,,,アートレス,0
586,3010403027594,新規,0,2022-05-06,2022-05-06,合同会社ＣｏＲｉ,,合同会社,東京都,港区,新橋１丁目１７番８号ＴＫＫ新橋ビル８Ｆ,,13,103,1050004,,,,,,,2022-05-06,1,,,,,コリー,0
593,3010703006216,新規,0,2022-05-06,2022-05-06,Ｐｒｏｇｒｅｓｓ合同会社,,合同会社,東京都,品川区,大崎２丁目５－７ＨｉｌｌＦｌａｔＯｓａｋｉ３０２,,13,109,1410032,,,,,,,2022-05-06,1,,,,,プログレス,0
597,3010803004160,新規,0,2022-05-06,2022-05-06,フレジエ・コンサルティング合同会社,,合同会社,東京都,大田区,矢口２丁目２４番９号,,13,111,1460093,,,,,,,2022-05-06,1,,,,,フレジエコンサルティング,0
600,3010901050809,新規,0,2022-05-06,2022-05-06,株式会社アキバックス,,株式会社,東京都,世田谷区,梅丘３丁目１４番１５号,,13,112,1540022,,,,,,,2022-05-06,1,,,,,アキバックス,0
604,3011001147173,新規,0,2022-05-06,2022-05-06,株式会社Ｅｎｇｏｒｇｉｏ　Ａｃａｄｅｍｙ,,株式会社,東京都,渋谷区,千駄ヶ谷３丁目５１番１０号ＰＯＲＴＡＬ・ＰＯＩＮＴ・ＨＡＲＡＪＵＫＵ,,13,113,1510051,,,,,,,2022-05-06,1,,,,,エンゴージオアカデミー,0
605,3011001147215,新規,0,2022-05-06,2022-05-06,株式会社ａｎｉｉｊａ,,株式会社,東京都,渋谷区,神宮前５丁目１１番５号Ｂ１階,,13,113,1500001,,,,,,,2022-05-06,1,,,,,アニイジャ,0
606,3011001147264,新規,0,2022-05-06,2022-05-06,株式会社ＹＫコンサルティング,,株式会社,東京都,目黒区,上目黒２丁目１２番６号中目黒３ｍｉｎ．１０１,,13,110,1530051,,,,,,,2022-05-06,1,,,,,ワイケーコンサルティング,0
607,3011001147272,新規,0,2022-05-06,2022-05-06,株式会社ピーカン,,株式会社,東京都,渋谷区,桜丘町２６番地１セルリアンタワー１５階,,13,113,1500031,,,,,,,2022-05-06,1,,,,,ピーカン,0
608,3011001147280,新規,0,2022-05-06,2022-05-06,株式会社Ｒｅｌｉｅｒ,,株式会社,東京都,渋谷区,笹塚２丁目２番３号エヴァーグリーン笹塚５０３号室,00126460,13,113,1510073,,,,,,,2022-05-06,1,,,,,ルリエ,0
609,3011001147289,新規,0,2022-05-06,2022-05-06,株式会社ＴＥＭ,,株式会社,東京都,渋谷区,宇田川町４０番１－１９０５号ラ・トゥール渋谷宇田川,,13,113,1500042,,,,,,,2022-05-06,1,,,,,ティーイーエム,0
611,3011003014636,新規,0,2022-05-06,2022-05-06,合同会社カワチヤ,,合同会社,東京都,目黒区,三田１丁目４番４－２１０１号恵比寿ビュータワー,,13,110,1530062,,,,,,,2022-05-06,1,,,,,カワチヤ,0
619,3011201023810,新規,0,2022-05-06,2022-05-06,株式会社Ｍｕｔｕｒｅ,,株式会社,東京都,中野区,中野４丁目３番２号,,13,114,1640001,,,,,,,2022-05-06,1,,,,,ミューチャー,0
622,3011501027998,新規,0,2022-05-06,2022-05-06,エルプレックス株式会社,,株式会社,東京都,荒川区,西尾久７丁目１９－６ベルメゾンヤスダ１０３号室,,13,118,1160011,,,,,,,2022-05-06,1,,,,,エルプレックス,0
626,3012301012975,新規,0,2022-05-06,2022-05-06,ｐｏｌａｃｃｏ株式会社,,株式会社,東京都,町田市,成瀬台２丁目４０番地１０,,13,209,1940043,,,,,,,2022-05-06,1,,,,,ポラコ,0
627,3012303001670,新規,0,2022-05-06,2022-05-06,オフショアブリッジ合同会社,,合同会社,東京都,町田市,成瀬６丁目１１番地１８,,13,209,1940044,,,,,,,2022-05-06,1,,,,,オフショアブリッジ,0
631,3013301049017,新規,0,2022-05-06,2022-05-06,株式会社アズトイ,,株式会社,東京都,豊島区,南大塚２丁目１１－１０ミモザビル３階,,13,116,1700005,,,,,,,2022-05-06,1,,,,,アズトイ,0
632,3013301049041,新規,0,2022-05-06,2022-05-06,株式会社ＳＰＦ,,株式会社,東京都,豊島区,東池袋４丁目２番１－１６０４号,,13,116,1700013,,,,,,,2022-05-06,1,,,,,エスピーエフ,0
635,3013305003341,新規,0,2022-05-06,2022-05-06,一般社団法人全国総合調査業協会,,その他の設立登記法人,東京都,豊島区,東池袋３丁目５－７ユニオンビルヂング８０４,,13,116,1700013,,,,,,,2022-05-06,1,,,,,,0
640,3020001146341,新規,0,2022-05-06,2022-05-06,日信サファイア株式会社,,株式会社,神奈川県,横浜市栄区,小菅ケ谷２丁目４番１号,,14,115,2470007,,,,,,,2022-05-06,1,,,,,ニッシンサファイア,0
641,3020003021724,新規,0,2022-05-06,2022-05-06,合同会社２ＤＳ,,合同会社,神奈川県,川崎市高津区,久地４丁目７番１０号,,14,134,2130032,,,,,,,2022-05-06,1,,,,,ツーディーエス,0
642,3020005015518,新規,0,2022-05-06,2022-05-06,一般社団法人物流事業支援組合,,その他の設立登記法人,神奈川県,川崎市中原区,井田中ノ町２３番２１号,,14,133,2110034,,,,,,,2022-05-06,1,,,,,ブツリュウジギョウシエンクミアイ,0
652,3021001075869,新規,0,2022-05-06,2022-05-06,株式会社山本設備,,株式会社,神奈川県,茅ヶ崎市,小和田３丁目１５番３４号グランドヒルズ湘南Ａ２０３,,14,207,2530012,,,,,,,2022-05-06,1,,,,,ヤマモトセツビ,0
662,3030001147974,新規,0,2022-05-06,2022-05-06,株式会社ＡｎｏｔｈｅｒＷｏｒｌｄＣｏｎｓｕｌｔｉｎｇ,,株式会社,埼玉県,川口市,大字里１４７０番地の１１,,11,203,3340005,,,,,,,2022-05-06,1,,,,,アナザーワールドコンサルティング,0
663,3030001147982,新規,0,2022-05-06,2022-05-06,株式会社ＣＩＭＡ　ＡＣＴ,,株式会社,埼玉県,所沢市,小手指町４丁目１６番地の４６,,11,208,3591141,,,,,,,2022-05-06,1,,,,,シーマアクト,0
664,3030001147990,新規,0,2022-05-06,2022-05-06,株式会社アイリーテック,,株式会社,埼玉県,草加市,両新田西町１６９番地１１,,11,221,3400027,,,,,,,2022-05-06,1,,,,,アイリーテック,0
665,3030001147999,新規,0,2022-05-06,2022-05-06,隼株式会社,,株式会社,埼玉県,草加市,瀬崎１丁目１０番２０号細川マンション５０４号,,11,221,3400022,,,,,,,2022-05-06,1,,,,,ハヤブサ,0
666,3030001148023,新規,0,2022-05-06,2022-05-06,株式会社ＨＡＬ構造設計,,株式会社,埼玉県,さいたま市南区,辻４丁目２１番５号,00126459,11,108,3360026,,,,,,,2022-05-06,1,,,,,エッチエーエルコウゾウセッケイ,0
667,3030001148031,新規,0,2022-05-06,2022-05-06,株式会社スモールイーネット,,株式会社,埼玉県,春日部市,備後東６丁目１４－８ハイランドＳ１階１,,11,214,3440032,,,,,,,2022-05-06,1,,,,,スモールイーネット,0
669,3030003019338,新規,0,2022-05-06,2022-05-06,ジーノ合同会社,,合同会社,埼玉県,蕨市,錦町４丁目７番１号ロイヤルシティ４０７号室,,11,223,3350005,,,,,,,2022-05-06,1,,,,,ジーノ,0
670,3030003019346,新規,0,2022-05-06,2022-05-06,合同会社ボッカ・アル・ルーポ,,合同会社,埼玉県,川口市,中青木２丁目５番２８号,,11,203,3320032,,,,,,,2022-05-06,1,,,,,ボッカアルルーポ,0
672,3030005020855,新規,0,2022-05-06,2022-05-06,一般社団法人わらかど,,その他の設立登記法人,埼玉県,朝霞市,岡３丁目８番１０号,,11,227,3510007,,,,,,,2022-05-06,1,,,,,ワラカド,0
674,3040003019980,新規,0,2022-05-06,2022-05-06,ＮＩＨＯＮ　ＬＡＮＫＡ　ＴＲＵＳＴ合同会社,,合同会社,千葉県,茂原市,千沢１０５８番地１,,12,210,2994103,,,,,,,2022-05-06,1,,,,,ニホンランカトラスト,0
677,3050003006532,新規,0,2022-05-06,2022-05-06,合同会社バードインハンド,,合同会社,茨城県,坂東市,逆井２７０８番地３,,08,228,3060501,,,,,,,2022-05-06,1,,,,,バードインハンド,0
678,3050003006540,新規,0,2022-05-06,2022-05-06,合同会社けやきビジネスさぽーと,,合同会社,茨城県,守谷市,けやき台３丁目１番地４３,,08,224,3020128,,,,,,,2022-05-06,1,,,,,ケヤキビジネスサポート,0
679,3050005013072,新規,0,2022-05-06,2022-05-06,一般社団法人地方創生振興機構,,その他の設立登記法人,茨城県,牛久市,牛久町２８０番地（エスカード牛久駅前ハイツＢ６１５号室）,,08,219,3001221,,,,,,,2022-05-06,1,,,,,チホウソウセイシンコウキコウ,0
681,3060001034831,新規,0,2022-05-06,2022-05-06,株式会社工福,,株式会社,栃木県,足利市,鹿島町６４１番地１,,09,202,3260844,,,,,,,2022-05-06,1,,,,,コウフク,0
682,3060003004064,新規,0,2022-05-06,2022-05-06,あぐに合同会社,,合同会社,栃木県,日光市,稲荷町１丁目６８１番地１,,09,206,3211411,,,,,,,2022-05-06,1,,,,,アグニ,0
686,3070001039193,新規,0,2022-05-06,2022-05-06,株式会社ＯＭＣ,,株式会社,群馬県,太田市,東矢島町７６８番地の１,,10,205,3730816,,,,,,,2022-05-06,1,,,,,オーエムシー,0
688,3080101023253,新規,0,2022-05-06,2022-05-06,伊豆組合造船株式会社,,株式会社,静岡県,下田市,武ガ浜７番１号,,22,219,4150015,,,,,,,2022-05-06,1,,,,,イズクミアイゾウセン,0
690,3080401025783,新規,0,2022-05-06,2022-05-06,株式会社Ｆ．Ｔ．Ｃ．,,株式会社,静岡県,浜松市中区,旅籠町５９番地,,22,131,4328027,,,,,,,2022-05-06,1,,,,,エフティーシー,0
691,3080401025791,新規,0,2022-05-06,2022-05-06,株式会社ＧＲＥＡＳＥ‐ＭＯＮＫＥＹ,,株式会社,静岡県,浜松市東区,積志町１３８５番地,,22,132,4313114,,,,,,,2022-05-06,1,,,,,グリースモンキー,0
695,3110003004752,新規,0,2022-05-06,2022-05-06,合同会社ダイトー地所,,合同会社,新潟県,新潟市北区,葛塚３１１８番地,,15,101,9503321,,,,,,,2022-05-06,1,,,,,ダイトーチショ,0
710,3120001244770,新規,0,2022-05-06,2022-05-06,株式会社ソワサント・ドゥーズ,,株式会社,大阪府,枚方市,香里ケ丘８丁目３２番地（２－８０４）,,27,210,5730084,,,,,,,2022-05-06,1,,,,,ソワサントドゥーズ,0
711,3120001245612,新規,0,2022-05-06,2022-05-06,株式会社ＲＥＸ　ＯＮＥ,,株式会社,大阪府,大阪市西成区,橘２丁目８番６号,,27,122,5570051,,,,,,,2022-05-06,1,,,,,レックスワン,0
712,3120001245637,新規,0,2022-05-06,2022-05-06,株式会社アクト,,株式会社,大阪府,大阪市中央区,瓦町３丁目３番１６号ＯＷＬ瓦町ビル４Ｆ,,27,128,5410048,,,,,,,2022-05-06,1,,,,,アクト,0
713,3120001245744,新規,0,2022-05-06,2022-05-06,株式会社Ｎ＆Ｎ総研,,株式会社,大阪府,大阪市中央区,北浜３丁目１番２１号,,27,128,5410041,,,,,,,2022-05-06,1,,,,,エヌアンドエヌソウケン,0
717,3120003021598,新規,0,2022-05-06,2022-05-06,ｍｉｈａｎａ美桜ＪＡＰＡＮ合同会社,,合同会社,大阪府,大阪市西区,新町１丁目１７番１７－４０８号,,27,106,5500013,,,,,,,2022-05-06,1,,,,,ミハナミハナジャパン,0
720,3120005022941,新規,0,2022-05-06,2022-05-06,一般社団法人Ｓｃｈｒｉｔｔ,,その他の設立登記法人,大阪府,大阪市中央区,糸屋町２丁目１番２－８０１号,,27,128,5400022,,,,,,,2022-05-06,1,,,,,シュリット,0
723,3120101065522,新規,0,2022-05-06,2022-05-06,ＴＯＲ不動産株式会社,,株式会社,大阪府,堺市堺区,竜神橋町１丁２番１６号山久ビル２階,,27,141,5900972,,,,,,,2022-05-06,1,,,,,トールフドウサン,0
724,3120103004684,新規,0,2022-05-06,2022-05-06,合同会社脇坂通信,,合同会社,大阪府,堺市中区,深井北町８番地２９,,27,142,5998271,,,,,,,2022-05-06,1,,,,,ワキサカツウシン,0
728,3120901045913,新規,0,2022-05-06,2022-05-06,株式会社ＬＥＧＡＲＥ,,株式会社,大阪府,箕面市,稲２丁目８番１号の３,,27,220,5620015,,,,,,,2022-05-06,1,,,,,レガーレ,0
729,3120901045938,新規,0,2022-05-06,2022-05-06,株式会社ｃｈｉｔｏｓｅ,,株式会社,大阪府,吹田市,千里山東１丁目１７－４１－１０１こすもらいふ千里１０１,,27,205,5650842,,,,,,,2022-05-06,1,,,,,チトセ,0
736,3130001071669,新規,0,2022-05-06,2022-05-06,株式会社カムラッド,,株式会社,京都府,福知山市,字堀小字雁田５００番地５８,,26,201,6200000,,,,,,,2022-05-06,1,,,,,カムラッド,0
737,3130001071719,新規,0,2022-05-06,2022-05-06,株式会社水城メンタル・フィジカル総合研究所,,株式会社,京都府,京都市山科区,安朱東海道町６５番地１６,,26,110,6078008,,,,,,,2022-05-06,1,,,,,ミズキメンタルフィジカルソウゴウケンキュウジョ,0
742,3140001125787,新規,0,2022-05-06,2022-05-06,株式会社ＷＪＰ,,株式会社,兵庫県,明石市,大久保町西島７９３番地の５,,28,203,6740065,,,,,,,2022-05-06,1,,,,,ダブリュージェイピー,0
757,3180301036193,新規,0,2022-05-06,2022-05-06,ＭＫ不動産株式会社,,株式会社,愛知県,安城市,大東町２４番３１号,,23,212,4460065,,,,,,,2022-05-06,1,,,,,エムケイフドウサン,0
762,3200001040022,新規,0,2022-05-06,2022-05-06,Ｎｅｘｕｓ株式会社,,株式会社,岐阜県,瑞穂市,古橋１２２７番地５,,21,216,5010322,,,,,,,2022-05-06,1,,,,,ネクサス,0
763,3200001040030,新規,0,2022-05-06,2022-05-06,渡辺水工株式会社,,株式会社,岐阜県,羽島市,江吉良町１４５４番地１,,21,209,5016236,,,,,,,2022-05-06,1,,,,,ワタナベスイコウ,0
764,3200001040039,新規,0,2022-05-06,2022-05-06,株式会社ミツギ木管,,株式会社,岐阜県,美濃市,松森１０６１番地１,,21,207,5013753,,,,,,,2022-05-06,1,,,,,ミツギモッカン,0
765,3200001040047,新規,0,2022-05-06,2022-05-06,株式会社ユースフル,,株式会社,岐阜県,岐阜市,花沢町５丁目２４番地１,,21,201,5008142,,,,,,,2022-05-06,1,,,,,ユースフル,0
778,3240001059703,新規,0,2022-05-06,2022-05-06,Ａ＆Ｉ株式会社,,株式会社,広島県,広島市南区,段原南２丁目８－２,,34,103,7320814,,,,,,,2022-05-06,1,,,,,エーアンドアイ,0
785,3260001036832,新規,0,2022-05-06,2022-05-06,株式会社ウェッジコーポレーション,,株式会社,岡山県,倉敷市,真備町川辺６４番地１,,33,202,7101313,,,,,,,2022-05-06,1,,,,,ウェッジーポレーション,0
786,3260001036840,新規,0,2022-05-06,2022-05-06,株式会社ディーファイブ,,株式会社,岡山県,岡山市北区,岡町４番１０号アミティエ１０３,,33,101,7000867,,,,,,,2022-05-06,1,,,,,ディーファイブ,0
792,3290001097376,新規,0,2022-05-06,2022-05-06,株式会社ＭＯＮＯＫＵＲＯ,,株式会社,福岡県,福岡市博多区,博多駅南４丁目４番１０号,,40,132,8120016,,,,,,,2022-05-06,1,,,,,モノクロ,0
798,3290003012473,新規,0,2022-05-06,2022-05-06,ハラタクツクル合同会社,,合同会社,福岡県,糸島市,高田４丁目２番１５－２０３号,,40,230,8191102,,,,,,,2022-05-06,1,,,,,ハラタクツクル,0
799,3290801028497,新規,0,2022-05-06,2022-05-06,株式会社石井工業,,株式会社,福岡県,北九州市若松区,東畑町８番３０号,,40,103,8080044,,,,,,,2022-05-06,1,,,,,イシイコウギョウ,0
800,3290801028506,新規,0,2022-05-06,2022-05-06,株式会社ＳＮＴ,,株式会社,福岡県,行橋市,大字金屋４４３番地,,40,213,8240004,,,,,,,2022-05-06,1,,,,,エスエヌティ,0
803,3310003004352,新規,0,2022-05-06,2022-05-06,合同会社サクラ,,合同会社,長崎県,長崎市,下黒崎町１３７８番地,,42,201,8512326,,,,,,,2022-05-06,1,,,,,サクラ,0
809,3330001029696,新規,0,2022-05-06,2022-05-06,株式会社佐藤彰事務所,,株式会社,熊本県,熊本市西区,出町１番３号,,43,103,8600074,,,,,,,2022-05-06,1,,,,,サトウアキラジムショ,0
812,3330003009341,新規,0,2022-05-06,2022-05-06,合同会社華聖興業,,合同会社,熊本県,宇土市,神馬町６１－２,,43,211,8690424,,,,,,,2022-05-06,1,,,,,カセイコウギョウ,0
813,3330003009358,新規,0,2022-05-06,2022-05-06,合同会社ＥＮＥＲｇｙ　ＦＩＴ,,合同会社,熊本県,玉名郡南関町,大字相谷１２７３番地２,,43,367,8610812,,,,,,,2022-05-06,1,,,,,エーナージーフィット,0
816,3350001017732,新規,0,2022-05-06,2022-05-06,株式会社エイチリンクス,,株式会社,宮崎県,都城市,南横市町１９５７番地２３,,45,202,8850092,,,,,,,2022-05-06,1,,,,,エイチリンクス,0
823,3390001016879,新規,0,2022-05-06,2022-05-06,株式会社ラエッセ,,株式会社,山形県,米沢市,花沢町９３２番地の４,,06,202,9920022,,,,,,,2022-05-06,1,,,,,ラエッセ,0
826,3400001015870,新規,0,2022-05-06,2022-05-06,舞桜警備株式会社,,株式会社,岩手県,一関市,上坊６番４－２号ｓｏ・ａ・ｔａＢ棟,,03,209,0210006,,,,,,,2022-05-06,1,,,,,マウサクラケイビ,0
835,3480001011730,新規,0,2022-05-06,2022-05-06,株式会社ＴＡＩ,,株式会社,徳島県,徳島市,蔵本町１丁目３４番地の１,,36,201,7700042,,,,,,,2022-05-06,1,,,,,タイ,0
837,3480003001829,新規,0,2022-05-06,2022-05-06,合同会社藍らぼ・ＡＷＡ,,合同会社,徳島県,鳴門市,大麻町板東字辻見堂７７番地４,00126458,36,202,7790232,,,,,,,2022-05-06,1,,,,,アイラボアワ,0
839,3500001024192,新規,0,2022-05-06,2022-05-06,株式会社八朗,,株式会社,愛媛県,松山市,朝生田町５丁目６番３４号,,38,201,7900952,,,,,,,2022-05-06,1,,,,,ハチロウ,0
842,3500003002824,新規,0,2022-05-06,2022-05-06,愛媛クリーン合同会社,,合同会社,愛媛県,四国中央市,三島中央２丁目１０番１２号,,38,213,7990405,,,,,,,2022-05-06,1,,,,,エヒメクリーン,0
861,4010001226325,新規,0,2022-05-06,2022-05-06,株式会社りのば,,株式会社,東京都,文京区,湯島３丁目３７番１１号ＴＳツインビル４Ｆ,,13,105,1130034,,,,,,,2022-05-06,1,,,,,リノバ,0
866,4010005034955,新規,0,2022-05-06,2022-05-06,一般社団法人ＫＲＥ,,その他の設立登記法人,東京都,千代田区,内幸町２丁目１番６号,,13,101,1000011,,,,,,,2022-05-06,1,,,,,ケイアールイー,0
875,4010401167020,新規,0,2022-05-06,2022-05-06,株式会社４Ｄ,,株式会社,東京都,港区,元麻布３丁目１番３５号,,13,103,1060046,,,,,,,2022-05-06,1,,,,,フォーディー,0
876,4010401167111,新規,0,2022-05-06,2022-05-06,株式会社麻布坂,,株式会社,東京都,港区,麻布十番１丁目８番１１号ＴＡＫＡＤＥＮ麻布十番ビル,,13,103,1060045,,,,,,,2022-05-06,1,,,,,アザブザカ,0
877,4010401167177,新規,0,2022-05-06,2022-05-06,ＥＳＩＯＮ　ＥＮＴＥＲＴＡＩＮＭＥＮＴ株式会社,,株式会社,東京都,港区,赤坂３丁目１２番２号赤坂慶和ビル地上６階全室,,13,103,1070052,,,,,,,2022-05-06,1,,,,,イージョンエンターテイメント,0
885,4010601061089,新規,0,2022-05-06,2022-05-06,株式会社食力,,株式会社,東京都,江東区,北砂４丁目９番１４号,,13,108,1360073,,,,,,,2022-05-06,1,,,,,ショクリキ,0
889,4010801032922,新規,0,2022-05-06,2022-05-06,株式会社Ｃｏｍｐａｎｙ２,,株式会社,東京都,大田区,田園調布１丁目５２番１４号,,13,111,1450071,,,,,,,2022-05-06,1,,,,,カンパニーツー,0
903,4011001147180,新規,0,2022-05-06,2022-05-06,株式会社ＤＥＥＭ,,株式会社,東京都,渋谷区,神宮前６丁目２３番４号桑野ビル２階,,13,113,1500001,,,,,,,2022-05-06,1,,,,,ディーム,0
904,4011001147263,新規,0,2022-05-06,2022-05-06,株式会社つなげ,,株式会社,東京都,目黒区,三田２丁目１３－２２－２０５,,13,110,1530062,,,,,,,2022-05-06,1,,,,,ツナゲ,0
908,4011101098745,新規,0,2022-05-06,2022-05-06,日神ライフサポート株式会社,,株式会社,東京都,新宿区,新宿５丁目８番１号,,13,104,1600022,,,,,,,2022-05-06,1,,,,,ニッシンライフサポート,0
917,4011703003136,新規,0,2022-05-06,2022-05-06,惠光合同会社,,合同会社,東京都,江戸川区,南小岩３丁目３番７号,,13,123,1330056,,,,,,,2022-05-06,1,,,,,ケイコウ,0
925,4013301049040,新規,0,2022-05-06,2022-05-06,東京機能材料株式会社,,株式会社,東京都,豊島区,高松１丁目４番８号ＴＣ第２５要町ビル３０２号,,13,116,1710042,,,,,,,2022-05-06,1,,,,,トウキョウキノウザイリョウ,0
931,4020001146357,新規,0,2022-05-06,2022-05-06,株式会社リアン,,株式会社,神奈川県,横浜市神奈川区,入江１丁目２７番３０号ポレールＩＩＩ２０３号,00126457,14,102,2210014,,,,,,,2022-05-06,1,,,,,リアン,0
933,4020005015517,新規,0,2022-05-06,2022-05-06,一般社団法人ピースセルプロジェクト,,その他の設立登記法人,神奈川県,横浜市保土ケ谷区,狩場町３０３番地２３６グラン・コート保土ヶ谷３０３,,14,106,2400025,,,,,,,2022-05-06,1,,,,,ピースセルプロジェクト,0
938,4021001075851,新規,0,2022-05-06,2022-05-06,株式会社ル・ニコ,,株式会社,神奈川県,茅ヶ崎市,柳島２丁目９番１７号,,14,207,2530064,,,,,,,2022-05-06,1,,,,,ルニコ,0
939,4021001075868,新規,0,2022-05-06,2022-05-06,株式会社ｆｉｌｌエクステリア,,株式会社,神奈川県,茅ヶ崎市,本村１丁目３番１号,,14,207,2530042,,,,,,,2022-05-06,1,,,,,フィルエクステリア,0
940,4021001075926,新規,0,2022-05-06,2022-05-06,株式会社ホビーマーケット,,株式会社,神奈川県,横須賀市,上町１丁目６５番地,,14,201,2380017,,,,,,,2022-05-06,1,,,,,ホビーマーケット,0
944,4021003011656,新規,0,2022-05-06,2022-05-06,合同会社デ・ソウザ,,合同会社,神奈川県,綾瀬市,落合北７丁目１７番５６号,,14,218,2521116,,,,,,,2022-05-06,1,,,,,デソウザ,0
946,4030001147998,新規,0,2022-05-06,2022-05-06,ＭＴＸ株式会社,,株式会社,埼玉県,春日部市,武里中野１１１番地５,,11,214,3440026,,,,,,,2022-05-06,1,,,,,エムティエックス,0
947,4030001148014,新規,0,2022-05-06,2022-05-06,株式会社蒼葉,,株式会社,埼玉県,春日部市,武里中野１０５番地５,,11,214,3440026,,,,,,,2022-05-06,1,,,,,アオバ,0
948,4030003019312,新規,0,2022-05-06,2022-05-06,５３コンサルティング合同会社,,合同会社,埼玉県,春日部市,大沼４丁目６５－３１０,,11,214,3440038,,,,,,,2022-05-06,1,,,,,ゴウサンコンサルティング,0
949,4030003019329,新規,0,2022-05-06,2022-05-06,合同会社ぽんたった,,合同会社,埼玉県,川越市,豊田町２丁目３４番２８号,,11,201,3501110,,,,,,,2022-05-06,1,,,,,ポンタッタ,0
950,4030003019345,新規,0,2022-05-06,2022-05-06,信義合同会社,,合同会社,埼玉県,川口市,西川口１丁目１８番３号クリオ西川口壱番館９０２,,11,203,3320021,,,,,,,2022-05-06,1,,,,,シンギ,0
952,4030005020854,新規,0,2022-05-06,2022-05-06,一般社団法人ホープアライブ教会,,その他の設立登記法人,埼玉県,所沢市,大字久米下原６０３番地１アスカビル１０１号室,,11,208,3591131,,,,,,,2022-05-06,1,,,,,ホープアライブキョウカイ,0
955,4040001123222,新規,0,2022-05-06,2022-05-06,株式会社Ｃａｒｐｅｎｔｅｒｓ．ｃｏｍ,,株式会社,千葉県,千葉市花見川区,大日町１３８８番地１,,12,102,2620004,,,,,,,2022-05-06,1,,,,,カーペンターズドットコム,0
960,4060003004063,新規,0,2022-05-06,2022-05-06,合同会社連山,,合同会社,栃木県,日光市,今市１１５９－１５,,09,206,3211261,,,,,,,2022-05-06,1,,,,,レンザン,0
961,4080001024920,新規,0,2022-05-06,2022-05-06,株式会社ＳＩＣ開発,,株式会社,静岡県,藤枝市,上当間８５４番地,,22,214,4260004,,,,,,,2022-05-06,1,,,,,エスアイシーカイハツ,0
968,4080401025782,新規,0,2022-05-06,2022-05-06,中部ホームメンテナンス株式会社,,株式会社,静岡県,浜松市東区,上石田町４９２番地の１,,22,132,4350001,,,,,,,2022-05-06,1,,,,,チュウブホームメンテナンス,0
969,4080401025790,新規,0,2022-05-06,2022-05-06,株式会社ＮＡＲＩＴＡ,,株式会社,静岡県,磐田市,寺谷６８番地,,22,211,4380006,,,,,,,2022-05-06,1,,,,,ナリタ,0
973,4100003006534,新規,0,2022-05-06,2022-05-06,ｈｅｎｃａ合同会社,,合同会社,長野県,松本市,会田２４１,,20,202,3997402,,,,,,,2022-05-06,1,,,,,ヘンカ,0
974,4110003004751,新規,0,2022-05-06,2022-05-06,合同会社Ｐａｃｈａ,,合同会社,新潟県,新発田市,舟入町１丁目１番３５号,,15,206,9570065,,,,,,,2022-05-06,1,,,,,パチャ,0
987,4120001245553,新規,0,2022-05-06,2022-05-06,株式会社Ｔｅｄｄｙ　Ｏｃｅａｎ,,株式会社,大阪府,大阪市生野区,田島６丁目７－２５ＪＡＰＡＮＭＥＩＡビル２０１号,,27,116,5440011,,,,,,,2022-05-06,1,,,,,テディオーシャン,0
988,4120001245594,新規,0,2022-05-06,2022-05-06,株式会社ＫＩ２,,株式会社,大阪府,大阪市北区,豊崎６丁目１１番１７－２０２号,,27,127,5310072,,,,,,,2022-05-06,1,,,,,ケーアイツー,0
989,4120001245611,新規,0,2022-05-06,2022-05-06,ＳＯＷＡホールディングス株式会社,,株式会社,大阪府,大阪市中央区,博労町３丁目４番１５号ＡＣＮ心斎橋博労町ビル,,27,128,5410059,,,,,,,2022-05-06,1,,,,,ソウワホールディングス,0
990,4120001245669,新規,0,2022-05-06,2022-05-06,株式会社谷口建築,,株式会社,大阪府,寝屋川市,池田３丁目６番６－２号,,27,215,5720039,,,,,,,2022-05-06,1,,,,,タニグチケンチク,0
995,4120003021597,新規,0,2022-05-06,2022-05-06,ライジング合同会社,,合同会社,大阪府,大阪市天王寺区,勝山２丁目１１－６－２０３,,27,109,5430043,,,,,,,2022-05-06,1,,,,,ライジング,0
996,4120003021606,新規,0,2022-05-06,2022-05-06,合同会社たいようさんさん,,合同会社,大阪府,守口市,金下町２丁目２番１３号,,27,209,5700079,,,,,,,2022-05-06,1,,,,,タイヨウサンサン,0
997,4120003021622,新規,0,2022-05-06,2022-05-06,合同会社ＲＩＳＥ,,合同会社,大阪府,大阪市福島区,福島７丁目５番１３号,,27,103,5530003,,,,,,,2022-05-06,1,,,,,ライズ,0
998,4120003021630,新規,0,2022-05-06,2022-05-06,合同会社ＲＣＳ,,合同会社,大阪府,大阪市淀川区,三津屋北２丁目１２番７号,,27,123,5320032,,,,,,,2022-05-06,1,,,,,アールシーエス,0
1000,4120101065546,新規,0,2022-05-06,2022-05-06,株式会社ＷＥＬＬ　ＣＲＥＡＴＥ,,株式会社,大阪府,阪南市,桃の木台３丁目１９番地の９,,27,232,5990236,,,,,,,2022-05-06,1,,,,,ウエルクリエイト,0
1004,4130001071684,新規,0,2022-05-06,2022-05-06,株式会社ＫＵＭＡＭＯ,,株式会社,京都府,京都市山科区,東野門口町３５番地４６,,26,110,6078154,,,,,,,2022-05-06,1,,,,,クマモ,0
1014,4140003017627,新規,0,2022-05-06,2022-05-06,合同会社もっときれい,,合同会社,兵庫県,神戸市中央区,磯上通８丁目１番２９号カサベラビルＣ＆Ｍ４０３号室,,28,110,6510086,,,,,,,2022-05-06,1,,,,,モットキレイ,0
1015,4140005026163,新規,0,2022-05-06,2022-05-06,福永友子行政書士法人,,その他の設立登記法人,兵庫県,神戸市中央区,中町通２丁目３番２号三共神戸ツインビル５階,,28,110,6500027,,,,,,,2022-05-06,1,,,,,フクナガトモコ,0
1020,4160001024169,新規,0,2022-05-06,2022-05-06,株式会社ヤマサＯＲＭ滋賀竜王,,株式会社,滋賀県,蒲生郡竜王町,大字岡屋２８３１番４,,25,384,5202541,,,,,,,2022-05-06,1,,,,,ヤマサオーアールエムシガリュウオウ,0
1021,4160003002560,新規,0,2022-05-06,2022-05-06,合同会社びわ鉄工所,,合同会社,滋賀県,長浜市,下八木町３８７番地,,25,203,5260123,,,,,,,2022-05-06,1,,,,,ビワテッコウショ,0
1024,4170001017089,新規,0,2022-05-06,2022-05-06,株式会社ＧＯＲＯＩ,,株式会社,和歌山県,有田郡湯浅町,大字別所２６６番地１,,30,361,6430003,,,,,,,2022-05-06,1,,,,,ゴロイ,0
1026,4180001151143,新規,0,2022-05-06,2022-05-06,株式会社パーシー,,株式会社,愛知県,日進市,米野木町奥畑９７番地１,,23,230,4700111,,,,,,,2022-05-06,1,,,,,パーシー,0
1034,4180003023778,新規,0,2022-05-06,2022-05-06,合同会社グランツ,,合同会社,愛知県,名古屋市天白区,八事山４４３番地ロイヤルアーク八事東４０２号,,23,116,4680077,,,,,,,2022-05-06,1,,,,,グランツ,0
1040,4200001040038,新規,0,2022-05-06,2022-05-06,明良商事株式会社,,株式会社,岐阜県,山県市,小倉上野３００－２７,,21,215,5012124,,,,,,,2022-05-06,1,,,,,アキヨシショウジ,0
1041,4200001040046,新規,0,2022-05-06,2022-05-06,スクール寺子屋株式会社,,株式会社,岐阜県,安八郡輪之内町,大薮２７４８番地の１,,21,382,5030200,,,,,,,2022-05-06,1,,,,,スクールテラコヤ,0
1049,4210001018909,新規,0,2022-05-06,2022-05-06,株式会社４４１０,,株式会社,福井県,福井市,高柳３丁目２６０１番地,,18,201,9100837,,,,,,,2022-05-06,1,,,,,ヨンヨンイチゼロ,0
1051,4230001019343,新規,0,2022-05-06,2022-05-06,ｖｉｓｉｏｎドリブンホールディングス株式会社,,株式会社,富山県,高岡市,駅南４丁目８番６号,,16,202,9330871,,,,,,,2022-05-06,1,,,,,ビジョンドリブンホールディングス,0
1053,4240001059743,新規,0,2022-05-06,2022-05-06,株式会社ＴＡＬＩ,,株式会社,広島県,呉市,広中新開２丁目３番１１号,,34,202,7370124,,,,,,,2022-05-06,1,,,,,タリ,0
1056,4260001036815,新規,0,2022-05-06,2022-05-06,株式会社ＴＷＯ電工,,株式会社,岡山県,岡山市東区,金岡東町１丁目１３番２０号,,33,103,7048194,,,,,,,2022-05-06,1,,,,,ツーデンコウ,0
1060,4290001097375,新規,0,2022-05-06,2022-05-06,ＲＤオートスクエア株式会社,,株式会社,福岡県,糟屋郡志免町,御手洗２丁目１３番１４号,,40,343,8112206,,,,,,,2022-05-06,1,,,,,アールデーオートスクエア,0
1061,4290001097391,新規,0,2022-05-06,2022-05-06,株式会社Ｗｉｓｔｅｒｉａ,,株式会社,福岡県,福岡市中央区,天神１丁目９番１７号福岡天神フコク生命ビル１５階,,40,133,8100001,,,,,,,2022-05-06,1,,,,,ウィステリア,0
1064,4290003012464,新規,0,2022-05-06,2022-05-06,合同会社ＦＵＫ　ＤＲＯＮＥ,,合同会社,福岡県,福岡市東区,千早２丁目２７番１号,,40,131,8130044,,,,,,,2022-05-06,1,,,,,エフユーケードローン,0
1071,4290801028505,新規,0,2022-05-06,2022-05-06,株式会社入口建築設計,,株式会社,福岡県,北九州市八幡西区,楠橋下方３丁目９番６号,,40,109,8071146,,,,,,,2022-05-06,1,,,,,イリグチケンチクセッケイ,0
1072,4290801028513,新規,0,2022-05-06,2022-05-06,Ｐｉｎｅ　Ｂｅａｒ株式会社,,株式会社,福岡県,北九州市戸畑区,新池１丁目１１番２４号１階,,40,105,8040082,,,,,,,2022-05-06,1,,,,,パインベアー,0
1080,4320001019045,新規,0,2022-05-06,2022-05-06,株式会社ゼロシステム,,株式会社,大分県,大分市,下郡東２丁目３番３号カーサＪ１０２,,44,201,8700953,,,,,,,2022-05-06,1,,,,,ゼロシステム,0
1082,4330001029687,新規,0,2022-05-06,2022-05-06,株式会社アップグレイス,,株式会社,熊本県,八代市,萩原町１丁目１０番２号,,43,202,8660831,,,,,,,2022-05-06,1,,,,,アップグレイス,0
1083,4330001029704,新規,0,2022-05-06,2022-05-06,株式会社ＳＡＫＲＡ不動産,,株式会社,熊本県,熊本市東区,御領８丁目１３番３０号,,43,102,8618035,,,,,,,2022-05-06,1,,,,,サクラフドウサン,0
1096,4360001030361,新規,0,2022-05-06,2022-05-06,ｗｈｉｔｅｓａｎｄ株式会社,,株式会社,沖縄県,宮古島市,平良字下里６１番地１クマノミアパート２Ｆ,,47,214,9060013,,,,,,,2022-05-06,1,,,,,ホワイトサンド,0
1101,4370001048519,新規,0,2022-05-06,2022-05-06,株式会社ＹＧ,,株式会社,宮城県,仙台市青葉区,霊屋下７番１０－８０３号,,04,101,9800814,,,,,,,2022-05-06,1,,,,,ワイジー,0
1103,4380001032777,新規,0,2022-05-06,2022-05-06,株式会社Ｋ‐ＤＡＳＨ,,株式会社,福島県,須賀川市,西川字西田７番地６５,,07,207,9620052,,,,,,,2022-05-06,1,,,,,ケーダッシュ,0
1110,4450003002201,新規,0,2022-05-06,2022-05-06,ブルームガーデン合同会社,,合同会社,北海道,上川郡東川町,北町５丁目７番２号,,01,458,0711426,,,,,,,2022-05-06,1,,,,,,0
1115,4480003001828,新規,0,2022-05-06,2022-05-06,合同会社ｐｅｏｎｙ,,合同会社,徳島県,徳島市,大原町中須１０番地の３,,36,201,7708012,,,,,,,2022-05-06,1,,,,,ピオニー,0
1120,4500001024191,新規,0,2022-05-06,2022-05-06,ＧＳタニグチ株式会社,,株式会社,愛媛県,八幡浜市,産業通１３番１１号,,38,204,7968004,,,,,,,2022-05-06,1,,,,,ジーエスタニグチ,0
1128,5010001226233,新規,0,2022-05-06,2022-05-06,ＪＩＮ・アセット株式会社,,株式会社,東京都,千代田区,霞が関３丁目２番５号,,13,101,1000013,,,,,,,2022-05-06,1,,,,,ジンアセット,0
1129,5010001226266,新規,0,2022-05-06,2022-05-06,株式会社ＨａｓｈＬｉｎｋ,,株式会社,東京都,千代田区,神田駿河台３丁目２番地,,13,101,1010062,,,,,,,2022-05-06,1,,,,,ハッシュリンク,0
1130,5010001226324,新規,0,2022-05-06,2022-05-06,ＺＥＲＯＴＨ　ＨＯＬＤＩＮＧＳ株式会社,,株式会社,東京都,中央区,晴海３丁目１３番１号ドゥ・トゥールイースト４６１６号室,,13,102,1040053,,,,,,,2022-05-06,1,,,,,ゼロスホールディングス,0
1131,5010001226357,新規,0,2022-05-06,2022-05-06,株式会社日本非上場株式買取機構,,株式会社,東京都,千代田区,霞が関３丁目２番５号,,13,101,1000013,,,,,,,2022-05-06,1,,,,,ニホンヒジョウジョウカブシキカイトリキコウ,0
1133,5010103001906,新規,0,2022-05-06,2022-05-06,合同会社ｙｍｒ,,合同会社,東京都,八王子市,子安町４丁目７番１－３４１０号,,13,201,1920904,,,,,,,2022-05-06,1,,,,,ワイエムアール,0
1140,5010401167119,新規,0,2022-05-06,2022-05-06,ＣＥＣ株式会社,,株式会社,東京都,港区,赤坂２丁目２１－４天翔ビル赤坂アネックス４Ｆ,,13,103,1070052,,,,,,,2022-05-06,1,,,,,シーイーシー,0
1141,5010401167151,新規,0,2022-05-06,2022-05-06,株式会社Ｍａｉｃｏｍ,,株式会社,東京都,港区,南青山２丁目２番１５号ウィン青山９４２,,13,103,1070062,,,,,,,2022-05-06,1,,,,,マイコム,0
1142,5010401167168,新規,0,2022-05-06,2022-05-06,ＴＫホールディングス株式会社,,株式会社,東京都,港区,虎ノ門５丁目１１番１号オランダヒルズ森タワーＲｏＰ,,13,103,1050001,,,,,,,2022-05-06,1,,,,,ティーケーホールディングス,0
1148,5010403027568,新規,0,2022-05-06,2022-05-06,合同会社ＲＳ　ｃｏｒｐｏｒａｔｉｏｎ,,合同会社,東京都,港区,白金台３丁目１３番２５－２０５号,,13,103,1080071,,,,,,,2022-05-06,1,,,,,アールエスコーポレーション,0
1149,5010403027584,新規,0,2022-05-06,2022-05-06,ＢＲＩＭ合同会社,,合同会社,東京都,港区,浜松町２丁目２番１５号浜松町ダイヤビル２Ｆ,,13,103,1050013,,,,,,,2022-05-06,1,,,,,ブリム,0
1154,5010601061063,新規,0,2022-05-06,2022-05-06,株式会社Ｂ‐ｂｏｈｅｍｅ,,株式会社,東京都,江東区,豊洲３丁目６番５号,,13,108,1350061,,,,,,,2022-05-06,1,,,,,ビーボエム,0
1155,5010601061088,新規,0,2022-05-06,2022-05-06,Ｋｅｅｐ　ｕｐ　ｈｏｍｅ株式会社,,株式会社,東京都,江東区,東陽５丁目３０番１６号とびたビル５階,,13,108,1350016,,,,,,,2022-05-06,1,,,,,キープアップホーム,0
1156,5010601061105,新規,0,2022-05-06,2022-05-06,ＮＴＭコーポレーション株式会社,,株式会社,東京都,墨田区,千歳３丁目３－３,,13,107,1300025,,,,,,,2022-05-06,1,,,,,エヌティーエムコーポレーション,0
1161,5010901050773,新規,0,2022-05-06,2022-05-06,レップ株式会社,,株式会社,東京都,世田谷区,成城６丁目１６番２０号,,13,112,1570066,,,,,,,2022-05-06,1,,,,,レップ,0
1162,5010901050807,新規,0,2022-05-06,2022-05-06,株式会社ミネラルウォーターラボラトリー,,株式会社,東京都,世田谷区,喜多見６丁目６番９号,,13,112,1570067,,,,,,,2022-05-06,1,,,,,ミネラルウォーターラボラトリー,0
1167,5011001147262,新規,0,2022-05-06,2022-05-06,株式会社Ｄｉａｂｌｏ,,株式会社,東京都,渋谷区,道玄坂１丁目１２番１号渋谷マークシティＷ２２階,,13,113,1500043,,,,,,,2022-05-06,1,,,,,ディアブロ,0
1168,5011001147287,新規,0,2022-05-06,2022-05-06,株式会社ＣＡＳＫ,,株式会社,東京都,渋谷区,代々木１丁目２９番５号ＹＫビル４Ｆ,,13,113,1510053,,,,,,,2022-05-06,1,,,,,カスク,0
1169,5011003014626,新規,0,2022-05-06,2022-05-06,ＨＥＡＲＴＷＡＲＭＩＮＧ合同会社,,合同会社,東京都,目黒区,中央町２丁目１３番７－３０４号,,13,110,1520001,,,,,,,2022-05-06,1,,,,,ハートウォーミング,0
1172,5011101098736,新規,0,2022-05-06,2022-05-06,株式会社ＴＨＥ　ＳＥＥＤ,,株式会社,東京都,新宿区,西新宿３丁目６番５号トーカン新宿キャステール１３０７号,,13,104,1600023,,,,,,,2022-05-06,1,,,,,ザシード,0
1173,5011101098752,新規,0,2022-05-06,2022-05-06,株式会社ＷＩＮ,,株式会社,東京都,新宿区,百人町１丁目１６番１３号ＭＴフラッツ２０３号室,,13,104,1690073,,,,,,,2022-05-06,1,,,,,ウィン,0
1174,5011203003809,新規,0,2022-05-06,2022-05-06,合同会社センターパート,,合同会社,東京都,中野区,沼袋３丁目１５－１,,13,114,1650025,,,,,,,2022-05-06,1,,,,,センターパート,0
1177,5011501028004,新規,0,2022-05-06,2022-05-06,Ｔ＆ＴＧＲＯＵＰ株式会社,,株式会社,東京都,荒川区,東日暮里５丁目４５番地１２号いかるがビル５０２,,13,118,1160014,,,,,,,2022-05-06,1,,,,,ティーアンドティーグループ,0
1181,5011801040674,新規,0,2022-05-06,2022-05-06,株式会社メディルカ,,株式会社,東京都,足立区,梅田７丁目１９－１６－３２９,,13,121,1230851,,,,,,,2022-05-06,1,,,,,メディルカ,0
1184,5011803005072,新規,0,2022-05-06,2022-05-06,合同会社Ｆｕｌｌ　Ｍｏｏｎ,,合同会社,東京都,葛飾区,西水元３丁目３１番地１７号,,13,122,1250031,,,,,,,2022-05-06,1,,,,,フルムーン,0
1185,5012301012981,新規,0,2022-05-06,2022-05-06,Ｔｈａｎｋｓ株式会社,,株式会社,東京都,町田市,木曽西３丁目１２番１６号,,13,209,1940037,,,,,,,2022-05-06,1,,,,,サンクス,0
1186,5012303001669,新規,0,2022-05-06,2022-05-06,合同会社ＩＲＯＮＹ’ｓ　ＴＯＫＹＯ,,合同会社,東京都,町田市,能ヶ谷７丁目３８番１４号,,13,209,1950053,,,,,,,2022-05-06,1,,,,,アイロニーズトウキョウ,0
1193,5013301049031,新規,0,2022-05-06,2022-05-06,岩島貿易株式会社,,株式会社,東京都,豊島区,池袋４丁目１番７号アポロ池袋ビル１階,,13,116,1710014,,,,,,,2022-05-06,1,,,,,イワシマボウエキ,0
1199,5020001146356,新規,0,2022-05-06,2022-05-06,Ｋ’ｓプランニング株式会社,,株式会社,神奈川県,横浜市港北区,小机町２７９番地１６４,,14,109,2220036,,,,,,,2022-05-06,1,,,,,ケイズプランニング,0
1200,5020001146372,新規,0,2022-05-06,2022-05-06,株式会社でもと新聞販売店,,株式会社,神奈川県,横浜市中区,山下町２０１番地１０,,14,104,2310023,,,,,,,2022-05-06,1,,,,,デモトシンブンハンバイテン,0
1204,5020003021697,新規,0,2022-05-06,2022-05-06,合同会社ＨＡＬＬ,,合同会社,神奈川県,川崎市麻生区,下麻生２丁目２４番４１号,,14,137,2150022,,,,,,,2022-05-06,1,,,,,ホール,0
1207,5021001075850,新規,0,2022-05-06,2022-05-06,ＧＯＯＤ　ＦＯＵＲ株式会社,,株式会社,神奈川県,座間市,緑ケ丘３丁目３０番２２号,,14,216,2520021,,,,,,,2022-05-06,1,,,,,グッドフォー,0
1208,5021001075859,新規,0,2022-05-06,2022-05-06,株式会社ＯＮＥ,,株式会社,神奈川県,大和市,深見３５３９番地１大和ビタビレッジＡ－２０２,,14,213,2420011,,,,,,,2022-05-06,1,,,,,ワン,0
1212,5021003011639,新規,0,2022-05-06,2022-05-06,合同会社ＫＹＯＵＥＩグループ,,合同会社,神奈川県,相模原市南区,上鶴間本町２丁目１９－３ハイツクールバード３０２,,14,153,2520318,,,,,,,2022-05-06,1,,,,,キョウエイグループ,0
1213,5021003011655,新規,0,2022-05-06,2022-05-06,合同会社Ｌｉｎｋ,,合同会社,神奈川県,茅ヶ崎市,十間坂２丁目５番２８ベルメゾン湘南６０３,,14,207,2530045,,,,,,,2022-05-06,1,,,,,リンク,0
1214,5021005012511,新規,0,2022-05-06,2022-05-06,ＮＰＯ法人いせはら花のまちネットワーク,,その他の設立登記法人,神奈川県,伊勢原市,東大竹１丁目１９７番地の１７,,14,214,2591133,,,,,,,2022-05-06,1,,,,,イセハラハナノマチネットワーク,0
1218,5030001148005,新規,0,2022-05-06,2022-05-06,株式会社Ｔｗｅａｋ,,株式会社,埼玉県,さいたま市桜区,大字神田８番地,,11,106,3380812,,,,,,,2022-05-06,1,,,,,,0
1229,5050001051025,新規,0,2022-05-06,2022-05-06,株式会社ＣＬＥＬ,,株式会社,茨城県,水戸市,鯉淵町１７８６番地の２,,08,201,3190323,,,,,,,2022-05-06,1,,,,,クレイル,0
1230,5050001051033,新規,0,2022-05-06,2022-05-06,株式会社しもつま・まちづくり公社,,株式会社,茨城県,下妻市,比毛４２番地１,,08,210,3040032,,,,,,,2022-05-06,1,,,,,シモツママチヅクリコウシャ,0
1233,5060001034846,新規,0,2022-05-06,2022-05-06,株式会社関ｍｐコーポレーション,,株式会社,栃木県,芳賀郡益子町,大字上大羽４５８番地２,,09,342,3214212,,,,,,,2022-05-06,1,,,,,セキエムピーコーポレーション,0
1234,5070001039191,新規,0,2022-05-06,2022-05-06,日乃出サービス株式会社,,株式会社,群馬県,伊勢崎市,日乃出町６０７番地２,,10,204,3720022,,,,,,,2022-05-06,1,,,,,ヒノデサービス,0
1237,5070003004474,新規,0,2022-05-06,2022-05-06,Ｓｏｌｉｓｔｅｌｌａコンサルティング合同会社,,合同会社,群馬県,前橋市,文京町３丁目２６番３号,,10,201,3710801,,,,,,,2022-05-06,1,,,,,ソリステラコンサルティング,0
1242,5110001036639,新規,0,2022-05-06,2022-05-06,株式会社イシザワ,,株式会社,新潟県,三条市,下坂井１２番２２号,,15,204,9550042,,,,,,,2022-05-06,1,,,,,イシザワ,0
1255,5120001245478,新規,0,2022-05-06,2022-05-06,ＴＡＫＥＳＨＩＴＡ宝飾株式会社,,株式会社,大阪府,大阪市城東区,関目３丁目７番２３号ＢＦレジデンス関目１Ｆ,,27,118,5360008,,,,,,,2022-05-06,1,,,,,タケシタホウショク,0
1256,5120001245577,新規,0,2022-05-06,2022-05-06,株式会社平石工務店,,株式会社,大阪府,大阪市生野区,新今里２丁目５番５号マルミーナ今里１０１,,27,116,5440001,,,,,,,2022-05-06,1,,,,,ヒライシコウムテン,0
1257,5120001245585,新規,0,2022-05-06,2022-05-06,株式会社９,,株式会社,大阪府,大阪市西区,九条１丁目１番１号,,27,106,5500027,,,,,,,2022-05-06,1,,,,,キュウ,0
1258,5120001245602,新規,0,2022-05-06,2022-05-06,株式会社フジ,,株式会社,大阪府,守口市,八雲西町４丁目１０番４号,,27,209,5700006,,,,,,,2022-05-06,1,,,,,フジ,0
1259,5120001245668,新規,0,2022-05-06,2022-05-06,株式会社ＫｉＴＳＵＮＥ　ＷＯＲＫＳ,,株式会社,大阪府,大阪市西区,北堀江１丁目２番２７号,,27,106,5500014,,,,,,,2022-05-06,1,,,,,キツネワークス,0
1267,5120003021588,新規,0,2022-05-06,2022-05-06,合同会社Ｈｕｍａｎ,,合同会社,大阪府,大阪市中央区,日本橋２丁目７番１３号福永ビル３０６,,27,128,5420073,,,,,,,2022-05-06,1,,,,,ヒューマン,0
1268,5120003021605,新規,0,2022-05-06,2022-05-06,合同会社サイエンスゲート,,合同会社,大阪府,大阪市北区,梅田１丁目３番１－７００号,,27,127,5300001,,,,,,,2022-05-06,1,,,,,サイエンスゲート,0
1270,5120005022923,新規,0,2022-05-06,2022-05-06,一般社団法人メタローグ,,その他の設立登記法人,大阪府,大阪市北区,大淀中２丁目６番１７－１１０４号,,27,127,5310076,,,,,,,2022-05-06,1,,,,,メタローグ,0
1274,5120101065504,新規,0,2022-05-06,2022-05-06,株式会社エムテック,,株式会社,大阪府,堺市中区,福田２６３番地５,,27,142,5998241,,,,,,,2022-05-06,1,,,,,エムテック,0
1279,5120901045928,新規,0,2022-05-06,2022-05-06,株式会社東山堂,,株式会社,大阪府,茨木市,西駅前町１３番１７号ＦＳビル２０２,,27,211,5670032,,,,,,,2022-05-06,1,,,,,トウザンドウ,0
1280,5120901045936,新規,0,2022-05-06,2022-05-06,株式会社Ｆａｉｔｈ　ａｕｔｏ,,株式会社,大阪府,池田市,新町６番５号,,27,204,5630050,,,,,,,2022-05-06,1,,,,,フェイスオート,0
1285,5130001071683,新規,0,2022-05-06,2022-05-06,株式会社Ｃｏｎｎｅｃｔｉｎｇ　ｐｅｏｐｌｅ,,株式会社,京都府,京都市南区,上鳥羽中河原５－２３－１番地,,26,107,6018142,,,,,,,2022-05-06,1,,,,,コネクティングピープル,0
1286,5130003007917,新規,0,2022-05-06,2022-05-06,合同会社ソレイユ,,合同会社,京都府,京都市西京区,大枝北福西町３丁目１番地の１３８,,26,111,6101112,,,,,,,2022-05-06,1,,,,,ソレイユ,0
1297,5140001125851,新規,0,2022-05-06,2022-05-06,株式会社スリーエフ,,株式会社,兵庫県,神戸市中央区,中山手通１丁目９番１２号,,28,110,6500004,,,,,,,2022-05-06,1,,,,,スリーエフ,0
1302,5150001025506,新規,0,2022-05-06,2022-05-06,ＫＭＩロジ株式会社,,株式会社,奈良県,宇陀市,榛原桜が丘５０番地シャトーレ若草５０２号室,,29,212,6330252,,,,,,,2022-05-06,1,,,,,ケーエムアイロジ,0
1304,5150005009389,新規,0,2022-05-06,2022-05-06,一般社団法人つぎ木,,その他の設立登記法人,奈良県,天理市,岸田町５７８番地,,29,204,6320056,,,,,,,2022-05-06,1,,,,,ツギキ,0
1307,5170001017088,新規,0,2022-05-06,2022-05-06,株式会社福福,,株式会社,和歌山県,田辺市,東陽１２番３９号,,30,206,6460029,,,,,,,2022-05-06,1,,,,,フクフク,0
1316,5180001151134,新規,0,2022-05-06,2022-05-06,株式会社ｉｃｅ　ｗｏｒｋｓ,,株式会社,愛知県,名古屋市緑区,桶狭間神明２３２３番地,,23,114,4580919,,,,,,,2022-05-06,1,,,,,アイスワークス,0
1317,5180001151142,新規,0,2022-05-06,2022-05-06,ＢＣＦＹｏｇａ株式会社,,株式会社,愛知県,東海市,高横須賀町藪下３６番地５,,23,222,4770037,,,,,,,2022-05-06,1,,,,,ビーシーエフヨガ,0
1318,5180001151150,新規,0,2022-05-06,2022-05-06,福禄商事株式会社,,株式会社,愛知県,名古屋市東区,泉２丁目１５番１号七小レックスマンション９０３,,23,102,4610001,,,,,,,2022-05-06,1,,,,,フクロクショウジ,0
1319,5180001151167,新規,0,2022-05-06,2022-05-06,株式会社ｎｎｔｅｃｈ,,株式会社,愛知県,名古屋市中村区,平池町４丁目６０番地の１２グローバルゲート１１階,,23,105,4530872,,,,,,,2022-05-06,1,,,,,エヌエヌテック,0
1327,5180003023793,新規,0,2022-05-06,2022-05-06,合同会社ＭＩＫＩＴＯ,,合同会社,愛知県,名古屋市西区,牛島町６番１号名古屋ルーセントタワー４０階,,23,104,4510046,,,,,,,2022-05-06,1,,,,,ミキト,0
1338,5200001040029,新規,0,2022-05-06,2022-05-06,株式会社エレフト,,株式会社,岐阜県,瑞穂市,田之上２７６番地１０,,21,216,5010304,,,,,,,2022-05-06,1,,,,,エレフト,0
1339,5200001040053,新規,0,2022-05-06,2022-05-06,株式会社Ｒｅｉｗａ　Ａｇｒｉｔｅｃｈ,,株式会社,岐阜県,瑞穂市,宮田１８５番地１,,21,216,5010305,,,,,,,2022-05-06,1,,,,,レイワアグリテック,0
1342,5200005013344,新規,0,2022-05-06,2022-05-06,農事組合法人ながもりファーム,,その他の設立登記法人,岐阜県,岐阜市,蔵前３丁目２１番１１号,,21,201,5008233,,,,,,,2022-05-06,1,,,,,ナガモリファーム,0
1346,5210001018908,新規,0,2022-05-06,2022-05-06,アンサンブルパートナーズ株式会社,,株式会社,福井県,福井市,米松１丁目１６番３１号ＮＴビル２Ｆ,,18,201,9100851,,,,,,,2022-05-06,1,,,,,アンサンブルパートナーズ,0
1354,5240001059718,新規,0,2022-05-06,2022-05-06,株式会社Ｔａｍ’ｓ,,株式会社,広島県,広島市安佐南区,川内５丁目２１番２９－１号,,34,105,7310102,,,,,,,2022-05-06,1,,,,,タムズ,0
1355,5240001059726,新規,0,2022-05-06,2022-05-06,株式会社ＣＳＲ,,株式会社,広島県,広島市中区,三川町９番１６号,,34,101,7300029,,,,,,,2022-05-06,1,,,,,シーエスアール,0
1357,5240005015394,新規,0,2022-05-06,2022-05-06,土地家屋調査士法人小出事務所,,その他の設立登記法人,広島県,大竹市,立戸１丁目１番１１号,,34,211,7390605,,,,,,,2022-05-06,1,,,,,コイデジムショ,0
1361,5260001036822,新規,0,2022-05-06,2022-05-06,株式会社旭,,株式会社,岡山県,倉敷市,連島４丁目２番１３号,,33,202,7128012,,,,,,,2022-05-06,1,,,,,アサヒ,0
1362,5260001036830,新規,0,2022-05-06,2022-05-06,株式会社ペンサン,,株式会社,岡山県,岡山市北区,日吉町１２番地８,,33,101,7000966,,,,,,,2022-05-06,1,,,,,ペンサン,0
1367,5280003001608,新規,0,2022-05-06,2022-05-06,里森せいかつ合同会社,,合同会社,島根県,江津市,浅利町５３５番６,,32,207,6950002,,,,,,,2022-05-06,1,,,,,サトモリセイカツ,0
1377,5290001097374,新規,0,2022-05-06,2022-05-06,株式会社Ｖａｎｉｓｈｉｎｇ　Ｃｏｍｐａｎｙ,,株式会社,福岡県,福岡市中央区,天神２丁目３番１０号天神パインクレスト７１９号,,40,133,8100001,,,,,,,2022-05-06,1,,,,,バニシングカンパニー,0
1381,5290003012471,新規,0,2022-05-06,2022-05-06,合同会社Ｋｏｔｅｔｓｕ,,合同会社,福岡県,福岡市中央区,荒戸３丁目２番４５－１００４号,,40,133,8100062,,,,,,,2022-05-06,1,,,,,コテツ,0
1382,5290005018673,新規,0,2022-05-06,2022-05-06,医療法人くらたに矯正歯科,,その他の設立登記法人,福岡県,福岡市南区,高宮１丁目５番４号サンコーポ高宮１０２号,,40,134,8150083,,,,,,,2022-05-06,1,,,,,クラタニキョウセイシカ,0
1387,5300003001836,新規,0,2022-05-06,2022-05-06,合同会社ｎｉｃｏ,,合同会社,佐賀県,武雄市,武雄町富岡７４８４－１モンシャトー楼門前１０２,,41,206,8430000,,,,,,,2022-05-06,1,,,,,ニコ,0
1391,5310003004350,新規,0,2022-05-06,2022-05-06,合同会社水晶,,合同会社,長崎県,壱岐市,勝本町本宮仲触１９９番地,,42,210,8115546,,,,,,,2022-05-06,1,,,,,スイショウ,0
1394,5320003003797,新規,0,2022-05-06,2022-05-06,合同会社リマック,,合同会社,大分県,大分市,高江南１丁目３４番地の７,,44,201,8701118,,,,,,,2022-05-06,1,,,,,リマック,0
1397,5330001029711,新規,0,2022-05-06,2022-05-06,株式会社ＣＲＥＡ建築設計,,株式会社,熊本県,熊本市北区,龍田弓削１丁目９番７３号,,43,105,8618007,,,,,,,2022-05-06,1,,,,,クレアケンチクセッケイ,0
1405,5360003011978,新規,0,2022-05-06,2022-05-06,合同会社ＧＡＲＡＧＥ　ＬｉｎｋＸ,,合同会社,沖縄県,中頭郡西原町,字池田６９３番地,,47,329,9030115,,,,,,,2022-05-06,1,,,,,ガレージリンクス,0
1408,5370001048518,新規,0,2022-05-06,2022-05-06,株式会社フィルシア,,株式会社,宮城県,仙台市泉区,高森１丁目１番地１８９高森ＳＰ南館１階１－Ａ,,04,105,9813203,,,,,,,2022-05-06,1,,,,,フィルシア,0
1413,5390001016885,新規,0,2022-05-06,2022-05-06,株式会社ケーアイ工業,,株式会社,山形県,山形市,富の中２丁目３番２８号,,06,201,9902463,,,,,,,2022-05-06,1,,,,,ケーアイコウギョウ,0
1415,5410001013178,新規,0,2022-05-06,2022-05-06,株式会社ＧＲＯＵＮＤ　ＦＯＲＣＥ,,株式会社,秋田県,秋田市,上新城五十丁字大村屋敷１９６番地,,05,201,0100135,,,,,,,2022-05-06,1,,,,,グラウンドフォース,0
1423,5430003013851,新規,0,2022-05-06,2022-05-06,合同会社エスフォー,,合同会社,北海道,札幌市西区,西野二条６丁目３－１３－１Ｆ,,01,107,0630032,,,,,,,2022-05-06,1,,,,,エスフォー,0
1425,5470001019054,新規,0,2022-05-06,2022-05-06,株式会社プライムパワー,,株式会社,香川県,高松市,中山町９１３番地１１,,37,201,7618004,,,,,,,2022-05-06,1,,,,,プライムパワー,0
1427,5480001011720,新規,0,2022-05-06,2022-05-06,株式会社若杉,,株式会社,徳島県,那賀郡那賀町,朴野字西ノ谷９番地５,,36,368,7715412,,,,,,,2022-05-06,1,,,,,ワカスギ,0
1429,5480003001827,新規,0,2022-05-06,2022-05-06,クリアソウル合同会社,,合同会社,徳島県,徳島市,北矢三町１丁目２－２８－１０１,,36,201,7700006,,,,,,,2022-05-06,1,,,,,クリアソウル,0
1430,5490003001652,新規,0,2022-05-06,2022-05-06,合同会社八十八,,合同会社,高知県,安芸郡芸西村,和食甲１５１８番地１,,39,307,7815701,,,,,,,2022-05-06,1,,,,,ハチジュウハチ,0
1450,6010001226273,新規,0,2022-05-06,2022-05-06,ＫＧＢＶ株式会社,,株式会社,東京都,文京区,本郷１丁目３３‐４,,13,105,1130033,,,,,,,2022-05-06,1,,,,,ケージービーブイ,0
1451,6010001226298,新規,0,2022-05-06,2022-05-06,株式会社Ａｒａｉｇｕｍａ　Ｃｏｎｓｕｌｔｉｎｇ,,株式会社,東京都,千代田区,永田町２丁目１１番１号山王パークタワー３階,,13,101,1000014,,,,,,,2022-05-06,1,,,,,アライグマコンサルティング,0
1452,6010001226315,新規,0,2022-05-06,2022-05-06,株式会社ＧＤＢＬ,,株式会社,東京都,千代田区,一番町１３番１号,,13,101,1020082,,,,,,,2022-05-06,1,,,,,ジーディービーエル,0
1453,6010001226323,新規,0,2022-05-06,2022-05-06,ＭＣ現法株保有目的株式会社,,株式会社,東京都,千代田区,丸の内２丁目３番１号,,13,101,1000005,,,,,,,2022-05-06,1,,,,,エムシーゲンポウカブホユウモクテキ,0
1457,6010005034953,新規,0,2022-05-06,2022-05-06,一般社団法人自由国民連合,,その他の設立登記法人,東京都,中央区,日本橋蛎殻町２丁目１５番９－９０１号,,13,102,1030014,,,,,,,2022-05-06,1,,,,,ジユウコクミンレンゴウ,0
1458,6010005034978,新規,0,2022-05-06,2022-05-06,一般社団法人みらい,,その他の設立登記法人,東京都,千代田区,平河町２丁目４番５号,,13,101,1020093,,,,,,,2022-05-06,1,,,,,ミライ,0
1460,6010401167076,新規,0,2022-05-06,2022-05-06,株式会社日本ＣＢＤ分析センター,,株式会社,東京都,港区,虎ノ門４丁目３－２０,,13,103,1050001,,,,,,,2022-05-06,1,,,,,ニホンシービーディーブンセキセンター,0
1461,6010401167092,新規,0,2022-05-06,2022-05-06,株式会社Ｍｅｒ　Ｂｌｅｕｅ,,株式会社,東京都,港区,港南２丁目１６番２号太陽生命品川ビル２８階ビジネスエアポート品川,,13,103,1080075,,,,,,,2022-05-06,1,,,,,メルブルー,0
1462,6010401167118,新規,0,2022-05-06,2022-05-06,株式会社Ｋａｚａｎ　ｏｆｆｉｃｅ．,,株式会社,東京都,港区,三田２丁目２番２７－４０１号,,13,103,1080073,,,,,,,2022-05-06,1,,,,,カザンオフィス,0
1463,6010401167142,新規,0,2022-05-06,2022-05-06,株式会社虎岩インテリアデザイン事務所,,株式会社,東京都,港区,南麻布１丁目１８－３Ｌａｐｉｓ南麻布ＩＩ,00126463,13,103,1060047,,,,,,,2022-05-06,1,,,,,トライワインテリアデザインジムショ,0
1465,6010403027575,新規,0,2022-05-06,2022-05-06,ＡＭＮアセットマネジメント合同会社,,合同会社,東京都,港区,芝浦２丁目６番１６―１８０４号,,13,103,1080023,,,,,,,2022-05-06,1,,,,,エーエムエヌアセットマネジメント,0
1466,6010403027617,新規,0,2022-05-06,2022-05-06,合同会社Ｅｖｅｒ　Ｖｉｃｔｏｒｉｏｕｓ,,合同会社,東京都,港区,南青山２丁目２番１５号,,13,103,1070062,,,,,,,2022-05-06,1,,,,,エヴァーヴィクトリアス,0
1468,6010405020990,新規,0,2022-05-06,2022-05-06,一般財団法人日本デジタル健康推進機構,,その他の設立登記法人,東京都,港区,海岸３丁目６番３２－８０５号,,13,103,1080022,,,,,,,2022-05-06,1,,,,,ニホンデジタルケンコウスイシンキコウ,0
1473,6010601061079,新規,0,2022-05-06,2022-05-06,株式会社ＯＴＯＭＩＫＡ,,株式会社,東京都,墨田区,菊川２丁目４番１３号,,13,107,1300024,,,,,,,2022-05-06,1,,,,,オトミカ,0
1474,6010601061104,新規,0,2022-05-06,2022-05-06,天澤株式会社,,株式会社,東京都,墨田区,向島４丁目３番８号グレイス向島２０１Ｇ号室,,13,107,1310033,,,,,,,2022-05-06,1,,,,,アマサワ,0
1478,6010701042598,新規,0,2022-05-06,2022-05-06,株式会社ＪＭアセットマネジメント,,株式会社,東京都,品川区,東品川４丁目５番８－９１５号,,13,109,1400002,,,,,,,2022-05-06,1,,,,,ジェーエムアセットマネジメント,0
1481,6010901050806,新規,0,2022-05-06,2022-05-06,株式会社ＫＩ‐ＫＡ,,株式会社,東京都,世田谷区,太子堂４丁目１８番４号ＴＳ三軒茶屋２０１,,13,112,1540004,,,,,,,2022-05-06,1,,,,,キーカ,0
1482,6010901050814,新規,0,2022-05-06,2022-05-06,株式会社ａｎｙｔｈｉ,,株式会社,東京都,世田谷区,野沢３丁目３番１５号,,13,112,1540003,,,,,,,2022-05-06,1,,,,,エニシ,0
1483,6010903007358,新規,0,2022-05-06,2022-05-06,グリーントマト合同会社,,合同会社,東京都,世田谷区,代田５丁目３４番１７号下北沢ロイヤルハイツ１０３,,13,112,1550033,,,,,,,2022-05-06,1,,,,,グリーントマト,0
1488,6011001147229,新規,0,2022-05-06,2022-05-06,株式会社スプーンコミックス,,株式会社,東京都,渋谷区,道玄坂１丁目１５番３号プリメーラ道玄坂４１８号室,,13,113,1500043,,,,,,,2022-05-06,1,,,,,,0
1489,6011001147261,新規,0,2022-05-06,2022-05-06,株式会社トレースオン,,株式会社,東京都,渋谷区,本町４丁目４３番８号ＣＵＢＥ西新宿,,13,113,1510071,,,,,,,2022-05-06,1,,,,,トレースオン,0
1490,6011003014625,新規,0,2022-05-06,2022-05-06,合同会社Ａ．Ｔ．,,合同会社,東京都,渋谷区,恵比寿３丁目１番６号,,13,113,1500013,,,,,,,2022-05-06,1,,,,,エイティ,0
1495,6011101098710,新規,0,2022-05-06,2022-05-06,株式会社Ｎａｎｏｆｉｂｅｒ　Ｑｕａｎｔｕｍ　Ｔｅｃｈｎｏｌｏｇｉｅｓ,,株式会社,東京都,新宿区,西早稲田１丁目２２番３号,,13,104,1690051,,,,,,,2022-05-06,1,,,,,ナノファイバークオンタムテクノロジーズ,0
1496,6011101098735,新規,0,2022-05-06,2022-05-06,株式会社Ｐｒｅｄｉｃｔｉｏｎ,,株式会社,東京都,新宿区,西新宿１丁目２６番２号新宿野村ビル３２階,,13,104,1600023,,,,,,,2022-05-06,1,,,,,プレディクション,0
1501,6011501027995,新規,0,2022-05-06,2022-05-06,Ｅｘ’ｓｔｒｅａｍ株式会社,,株式会社,東京都,荒川区,東尾久４丁目３７番８号,,13,118,1160012,,,,,,,2022-05-06,1,,,,,エクストリーム,0
1505,6011801040673,新規,0,2022-05-06,2022-05-06,ＭＫダイニング株式会社,,株式会社,東京都,葛飾区,西亀有４丁目９番４号,,13,122,1250002,,,,,,,2022-05-06,1,,,,,エムケーダイニング,0
1506,6011803005071,新規,0,2022-05-06,2022-05-06,合同会社イシハラ企画,,合同会社,東京都,葛飾区,高砂２丁目３５番１－６０１号,,13,122,1250054,,,,,,,2022-05-06,1,,,,,イシハラキカク,0
1508,6012301012980,新規,0,2022-05-06,2022-05-06,誠明装建株式会社,,株式会社,東京都,町田市,金井ヶ丘１丁目２１番３２号,,13,209,1950076,,,,,,,2022-05-06,1,,,,,セイメイソウケン,0
1509,6012303001668,新規,0,2022-05-06,2022-05-06,野村ファイナンス合同会社,,合同会社,東京都,町田市,金森１丁目１７‐１３,,13,209,1940012,,,,,,,2022-05-06,1,,,,,ノムラファイナンス,0
1512,6012701017043,新規,0,2022-05-06,2022-05-06,株式会社ウイングレーブ,,株式会社,東京都,小平市,学園東町１丁目７番２４号,,13,211,1870043,,,,,,,2022-05-06,1,,,,,ウイングレーブ,0
1525,6020001146289,新規,0,2022-05-06,2022-05-06,ｉＤＰ株式会社,,株式会社,神奈川県,川崎市幸区,新川崎７番７号,,14,132,2120032,,,,,,,2022-05-06,1,,,,,アイディーピー,0
1526,6020001146355,新規,0,2022-05-06,2022-05-06,ＳＥＩＫＥＮ株式会社,,株式会社,神奈川県,横浜市南区,二葉町２丁目１８番地７リブゼ横浜サザンティアラ８０３号室,,14,105,2320026,,,,,,,2022-05-06,1,,,,,セイケン,0
1548,6030003019335,新規,0,2022-05-06,2022-05-06,ＴＥＮＰＬＵＳ　ＳＥＮ合同会社,,合同会社,埼玉県,川越市,霞ケ関東３丁目８―１５,,11,201,3501103,,,,,,,2022-05-06,1,,,,,テンプラスセン,0
1551,6040001123195,新規,0,2022-05-06,2022-05-06,日本久岡製薬株式会社,,株式会社,千葉県,佐倉市,井野１３５７番地８ユーカリＫＭ１０１号室,,12,212,2850855,,,,,,,2022-05-06,1,,,,,ニホンクオカセイヤク,0
1557,6060003004061,新規,0,2022-05-06,2022-05-06,合同会社佐賀井,,合同会社,栃木県,足利市,小俣町３９７９番地５,,09,202,3260141,,,,,,,2022-05-06,1,,,,,サカイ,0
1559,6070001039199,新規,0,2022-05-06,2022-05-06,ＣＡＳ‐ＫＥＩ‐ＦＯＯＤＳ株式会社,,株式会社,群馬県,沼田市,高橋場町２０８２番地６,,10,206,3780056,,,,,,,2022-05-06,1,,,,,キャスケイフーズ,0
1561,6080001024910,新規,0,2022-05-06,2022-05-06,株式会社Ｒｅ‐ｂｏｒｎ,,株式会社,静岡県,島田市,阪本１３３９番地の１,,22,209,4270111,,,,,,,2022-05-06,1,,,,,リボーン,0
1562,6080001024919,新規,0,2022-05-06,2022-05-06,株式会社ＳＩＣ,,株式会社,静岡県,藤枝市,上当間８５４番地,,22,214,4260004,,,,,,,2022-05-06,1,,,,,エスアイシー,0
1564,6080101023259,新規,0,2022-05-06,2022-05-06,株式会社スズ設,,株式会社,静岡県,駿東郡清水町,的場１０１番地の６,,22,341,4110915,,,,,,,2022-05-06,1,,,,,スズセツ,0
1565,6080103002582,新規,0,2022-05-06,2022-05-06,合同会社ＨＥＡＲＴＳ,,合同会社,静岡県,駿東郡長泉町,中土狩７８４番地の９,,22,342,4110942,,,,,,,2022-05-06,1,,,,,ハーツ,0
1566,6080401025797,新規,0,2022-05-06,2022-05-06,大徳企画株式会社,,株式会社,静岡県,浜松市東区,天王町１２２２番地,,22,132,4350052,,,,,,,2022-05-06,1,,,,,ダイトクキカク,0
1585,6120001245576,新規,0,2022-05-06,2022-05-06,株式会社弥栄,,株式会社,大阪府,大阪市西淀川区,出来島１丁目２番１０号,,27,113,5550031,,,,,,,2022-05-06,1,,,,,イヤサカ,0
1586,6120001245584,新規,0,2022-05-06,2022-05-06,株式会社ＦＯＲＭＥ,,株式会社,大阪府,大阪市北区,梅田２丁目４番４１号桜橋キタハチビル４Ｆ,,27,127,5300001,,,,,,,2022-05-06,1,,,,,フォルム,0
1588,6120003021604,新規,0,2022-05-06,2022-05-06,合同会社エテノライド,,合同会社,大阪府,大阪市北区,梅田１丁目３番１－７００号,,27,127,5300001,,,,,,,2022-05-06,1,,,,,エテノライド,0
1589,6120005022939,新規,0,2022-05-06,2022-05-06,産業人材育成事業協同組合,,その他の設立登記法人,大阪府,大阪市浪速区,恵美須西１丁目２－５マウンテンウエストビル５０１室,,27,111,5560003,,,,,,,2022-05-06,1,,,,,サンギョウジンザイイクセイ,0
1593,6120101065503,新規,0,2022-05-06,2022-05-06,株式会社Ｃｕｓｔｏｍ　Ｊｕｎｋｉｅ１０２８,,株式会社,大阪府,羽曳野市,古市４丁目１０番２０号,,27,222,5830852,,,,,,,2022-05-06,1,,,,,カスタムジャンキーイチゼロニーハチ,0
1595,6120901045919,新規,0,2022-05-06,2022-05-06,株式会社ＴＯＭＩ,,株式会社,大阪府,茨木市,三島町２番１－１０３号,,27,211,5670022,,,,,,,2022-05-06,1,,,,,トオミ,0
1596,6120901045927,新規,0,2022-05-06,2022-05-06,株式会社ハセガワ特販,,株式会社,大阪府,箕面市,白島１丁目３番１７号,,27,220,5620012,,,,,,,2022-05-06,1,,,,,ハセガワトクハン,0
1597,6120901045935,新規,0,2022-05-06,2022-05-06,株式会社ＳＵジャパン,,株式会社,大阪府,豊中市,東豊中町３丁目３１番３０号,,27,203,5600003,,,,,,,2022-05-06,1,,,,,エスユウジャパン,0
1601,6130001071699,新規,0,2022-05-06,2022-05-06,株式会社６３社,,株式会社,京都府,京都市左京区,北白川山田町１２番地,,26,103,6068272,,,,,,,2022-05-06,1,,,,,ロクサンシャ,0
1610,6140001125859,新規,0,2022-05-06,2022-05-06,株式会社エコリングＨＥＡＲＴＳ,,株式会社,兵庫県,姫路市,飾磨区恵美酒２１３番地,,28,201,6728057,,,,,,,2022-05-06,1,,,,,エコリングハーツ,0
1614,6140003017641,新規,0,2022-05-06,2022-05-06,合同会社スパノヴァコミュニティ,,合同会社,兵庫県,宝塚市,米谷１丁目３番１１号,,28,214,6650831,,,,,,,2022-05-06,1,,,,,スパノヴァコミュニティ,0
1616,6150001025505,新規,0,2022-05-06,2022-05-06,株式会社ＭＩＮＯＲＵ,,株式会社,奈良県,大和郡山市,北郡山町１２９－３,,29,203,6391160,,,,,,,2022-05-06,1,,,,,ミノル,0
1617,6160001024159,新規,0,2022-05-06,2022-05-06,株式会社たんぽぽ,,株式会社,滋賀県,大津市,におの浜３丁目２番７－２２１０号,,25,201,5200801,,,,,,,2022-05-06,1,,,,,タンポポ,0
1618,6160005011079,新規,0,2022-05-06,2022-05-06,一般社団法人ちえのわ,,その他の設立登記法人,滋賀県,米原市,多和田１０３１番地３,,25,214,5210081,,,,,,,2022-05-06,1,,,,,チエノワ,0
1619,6170001017087,新規,0,2022-05-06,2022-05-06,株式会社アート・ホープ・ソリューションズ,,株式会社,和歌山県,田辺市,末広町３番３４号１Ｆ,,30,206,6460038,,,,,,,2022-05-06,1,,,,,アートホープソリューションズ,0
1620,6170001017095,新規,0,2022-05-06,2022-05-06,株式会社子守熊,,株式会社,和歌山県,和歌山市,市小路７３番地,,30,201,6408464,,,,,,,2022-05-06,1,,,,,コアラ,0
1631,6180001151141,新規,0,2022-05-06,2022-05-06,株式会社ライズサークル,,株式会社,愛知県,一宮市,栄１丁目１１番８号,,23,203,4910858,,,,,,,2022-05-06,1,,,,,ライズサークル,0
1632,6180001151190,新規,0,2022-05-06,2022-05-06,株式会社ＫＴＳ,,株式会社,愛知県,春日井市,東野町３丁目４番地１０,,23,206,4860817,,,,,,,2022-05-06,1,,,,,ケーティーエス,0
1633,6180003023792,新規,0,2022-05-06,2022-05-06,合同会社ＳＡＩＴＯ,,合同会社,愛知県,名古屋市西区,牛島町６番１号名古屋ルーセントタワー４０階,,23,104,4510046,,,,,,,2022-05-06,1,,,,,サイト,0
1638,6190001029378,新規,0,2022-05-06,2022-05-06,株式会社Ｂｏｘ,,株式会社,三重県,四日市市,諏訪栄町７番３４号,,24,202,5100086,,,,,,,2022-05-06,1,,,,,ボックス,0
1648,6230003001842,新規,0,2022-05-06,2022-05-06,合同会社おだんごくらぶ,,合同会社,富山県,富山市,坂本２５６９番１１号,,16,201,9392206,,,,,,,2022-05-06,1,,,,,オダンゴクラブ,0
1652,6240001059709,新規,0,2022-05-06,2022-05-06,株式会社アクト,,株式会社,広島県,広島市西区,三滝本町２丁目１３番１５－２０２号,,34,104,7330802,,,,,,,2022-05-06,1,,,,,アクト,0
1658,6260001036813,新規,0,2022-05-06,2022-05-06,シャインライフ株式会社,,株式会社,岡山県,倉敷市,真備町箭田５８７２番地,,33,202,7101301,,,,,,,2022-05-06,1,,,,,シャインライフ,0
1659,6280003001607,新規,0,2022-05-06,2022-05-06,合同会社はれるやハピネス,,合同会社,島根県,出雲市,斐川町富村１５１５番地１Ｇｒ　ｅｅｎ－ｓｈｏｗｅｒ田園Ｂ－２０６,,32,203,6990621,,,,,,,2022-05-06,1,,,,,ハレルヤハピネス,0
1667,6290001097349,新規,0,2022-05-06,2022-05-06,株式会社フロンティア,,株式会社,福岡県,久留米市,百年公園１－１福岡バイオインキュベーションセンター２０４号室,,40,203,8390864,,,,,,,2022-05-06,1,,,,,フロンティア,0
1669,6290003012470,新規,0,2022-05-06,2022-05-06,合同会社ｓｃｈｒｉｔｔ,,合同会社,福岡県,糸島市,前原中央１丁目１－２４,,40,230,8191116,,,,,,,2022-05-06,1,,,,,シュリット,0
1672,6290005018672,新規,0,2022-05-06,2022-05-06,医療法人うちだ歯科クリニック,,その他の設立登記法人,福岡県,久留米市,三潴町田川１１１番地１,,40,203,8300102,,,,,,,2022-05-06,1,,,,,ウチダシカクリニック,0
1675,6290801028494,新規,0,2022-05-06,2022-05-06,株式会社松岡商店,,株式会社,福岡県,北九州市小倉南区,大字春吉６４２番地１,,40,107,8030265,,,,,,,2022-05-06,1,,,,,マツオカショウテン,0
1677,6300003001835,新規,0,2022-05-06,2022-05-06,合同会社ひまわり,,合同会社,佐賀県,佐賀市,新栄西２丁目７番１４号,,41,201,8400859,,,,,,,2022-05-06,1,,,,,ヒマワリ,0
1682,6330001029685,新規,0,2022-05-06,2022-05-06,株式会社新章,,株式会社,熊本県,熊本市東区,保田窪本町１７番１７－９０２号,,43,102,8620925,,,,,,,2022-05-06,1,,,,,シンショウ,0
1686,6340001024702,新規,0,2022-05-06,2022-05-06,株式会社サクラブ,,株式会社,鹿児島県,鹿児島市,祇園之洲町２０番地,,46,201,8920803,,,,,,,2022-05-06,1,,,,,サクラブ,0
1689,6360005006620,新規,0,2022-05-06,2022-05-06,沖縄マーケティングＤＸ事業協同組合,,その他の設立登記法人,沖縄県,那覇市,首里石嶺町４丁目４４番地丸新ビル３０２,,47,201,9030804,,,,,,,2022-05-06,1,,,,,オキナワマーケティングディーエックス,0
1693,6390001016884,新規,0,2022-05-06,2022-05-06,株式会社横山総業,,株式会社,山形県,長井市,今泉１５４６番地,,06,209,9930033,,,,,,,2022-05-06,1,,,,,ヨコヤマソウギョウ,0
1700,6430003013850,新規,0,2022-05-06,2022-05-06,合同会社エススリー,,合同会社,北海道,札幌市西区,西野二条６丁目３－１３－１Ｆ,,01,107,0630032,,,,,,,2022-05-06,1,,,,,エススリー,0
1705,6470001019053,新規,0,2022-05-06,2022-05-06,嶽山開発株式会社,,株式会社,香川県,木田郡三木町,大字朝倉２２２７番地３,,37,341,7610614,,,,,,,2022-05-06,1,,,,,ダケヤマカイハツ,0
1710,6500003002821,新規,0,2022-05-06,2022-05-06,合同会社Ｋｕｕｍａ,,合同会社,愛媛県,大洲市,若宮４８３番地コスモポリタン中野Ｎｏ．１．４Ｆ,,38,207,7950052,,,,,,,2022-05-06,1,,,,,クーマ,0
1720,7010001226256,新規,0,2022-05-06,2022-05-06,株式会社Ｐｏｎｏ,,株式会社,東京都,中央区,銀座８丁目１６番１－２０５号,,13,102,1040061,,,,,,,2022-05-06,1,,,,,ポノ,0
1721,7010001226322,新規,0,2022-05-06,2022-05-06,大和ビジネスパートナーズ株式会社,,株式会社,東京都,中央区,京橋２丁目１１番３－７０１号,,13,102,1040031,,,,,,,2022-05-06,1,,,,,ダイワビジネスパートナーズ,0
1722,7010001226355,新規,0,2022-05-06,2022-05-06,スギ株式会社,,株式会社,東京都,中央区,東日本橋２丁目２８番４号日本橋ＣＥＴビル２階,,13,102,1030004,,,,,,,2022-05-06,1,,,,,スギ,0
1725,7010003037536,新規,0,2022-05-06,2022-05-06,ＡＳＩＡ　ＳＯＲＡ合同会社,,合同会社,東京都,文京区,本駒込６丁目２４番６号ボアビル２０１号,,13,105,1130021,,,,,,,2022-05-06,1,,,,,アシアソラ,0
1726,7010003037577,新規,0,2022-05-06,2022-05-06,チョウヨウ合同会社,,合同会社,東京都,中央区,銀座１丁目１２－４Ｎ＆ＥＢＬＤ．７階,,13,102,1040061,,,,,,,2022-05-06,1,,,,,チョウヨウ,0
1739,7010401167026,新規,0,2022-05-06,2022-05-06,株式会社アイティクレスト,,株式会社,東京都,港区,浜松町２丁目２番１５号浜松町ダイヤビル２階,,13,103,1050013,,,,,,,2022-05-06,1,,,,,アイティクレスト,0
1740,7010401167166,新規,0,2022-05-06,2022-05-06,株式会社ＦｉｒｓｔＳｔｅｐ,,株式会社,東京都,港区,北青山２丁目７－１３プラセオ青山ビル３Ｆ,,13,103,1070061,,,,,,,2022-05-06,1,,,,,ファーストステップ,0
1741,7010401167174,新規,0,2022-05-06,2022-05-06,株式会社ＣＡＮＤＹ,,株式会社,東京都,港区,南青山２丁目２番１５号ウィン青山９４２,,13,103,1070062,,,,,,,2022-05-06,1,,,,,キャンディ,0
1742,7010401167265,新規,0,2022-05-06,2022-05-06,株式会社わんだーうぉーる,,株式会社,東京都,港区,六本木６丁目１０番１号六本木ヒルズ森タワー１６階,,13,103,1060032,,,,,,,2022-05-06,1,,,,,ワンダーウォール,0
1748,7010403027533,新規,0,2022-05-06,2022-05-06,合同会社千織部,,合同会社,東京都,港区,南青山２丁目２番１５号ウィン青山９４２,,13,103,1070062,,,,,,,2022-05-06,1,,,,,チオリベ,0
1749,7010403027574,新規,0,2022-05-06,2022-05-06,合同会社ホット・システムズ,,合同会社,東京都,港区,南青山２丁目２番１５号,,13,103,1070062,,,,,,,2022-05-06,1,,,,,ホットシステムズ,0
1750,7010403027582,新規,0,2022-05-06,2022-05-06,合同会社Ｍｉｋａｎ‐Ｙａｍａ,,合同会社,東京都,港区,浜松町２丁目２番１５号浜松町ダイヤビル２Ｆ,,13,103,1050013,,,,,,,2022-05-06,1,,,,,ミカンヤマ,0
1751,7010403027599,新規,0,2022-05-06,2022-05-06,合同会社ベンチャーエムエルＧ,,合同会社,東京都,港区,虎ノ門３丁目２２番１０－２０１号,,13,103,1050001,,,,,,,2022-05-06,1,,,,,ベンチャーエムエルジー,0
1755,7010601061061,新規,0,2022-05-06,2022-05-06,株式会社ＪａｐａｎＣｒｅａｔｅＳｕｓｔａｉｎａｂｉｌｉｔｙ,,株式会社,東京都,墨田区,石原４丁目２１番地４号,,13,107,1300011,,,,,,,2022-05-06,1,,,,,ジャパンクリエイトサステナビリティ,0
1756,7010601061078,新規,0,2022-05-06,2022-05-06,株式会社ベスト未来,,株式会社,東京都,江東区,亀戸７丁目３９－３－４０２,,13,108,1360071,,,,,,,2022-05-06,1,,,,,ベストミライ,0
1757,7010601061086,新規,0,2022-05-06,2022-05-06,リバー株式会社,,株式会社,東京都,江東区,東砂８丁目２１番１５号,,13,108,1360074,,,,,,,2022-05-06,1,,,,,リバー,0
1758,7010601061094,新規,0,2022-05-06,2022-05-06,株式会社ティーアイＣＤ,,株式会社,東京都,江東区,亀戸４丁目１４番５号,,13,108,1360071,,,,,,,2022-05-06,1,,,,,ティーアイシーディー,0
1760,7010603009521,新規,0,2022-05-06,2022-05-06,Ｏｗｌ合同会社,,合同会社,東京都,江東区,豊洲３丁目４番１－１００９号,,13,108,1350061,,,,,,,2022-05-06,1,,,,,オウル,0
1762,7010701042589,新規,0,2022-05-06,2022-05-06,株式会社ＯＣＣ　ＧＬＯＢＡＬ,,株式会社,東京都,品川区,東五反田１丁目１９番４号,,13,109,1410022,,,,,,,2022-05-06,1,,,,,オシシグローバル,0
1764,7010901050813,新規,0,2022-05-06,2022-05-06,株式会社ＡＱＵＡ　Ｌｅｍｕｒｉａ,,株式会社,東京都,世田谷区,奥沢５丁目１－１１メゾンドジョワ２０２,,13,112,1580083,,,,,,,2022-05-06,1,,,,,アクアレムリア,0
1768,7011001147153,新規,0,2022-05-06,2022-05-06,株式会社ＥＣＯＲＩＣＨ,,株式会社,東京都,目黒区,自由が丘１丁目１２番４号ＭＫビル３階,,13,110,1520035,,,,,,,2022-05-06,1,,,,,エコリッチ,0
1769,7011001147178,新規,0,2022-05-06,2022-05-06,ＫｉＴＴｙ株式会社,,株式会社,東京都,渋谷区,渋谷１丁目１９－１８－１５０７,,13,113,1500002,,,,,,,2022-05-06,1,,,,,キティ,0
1770,7011003014599,新規,0,2022-05-06,2022-05-06,グランツアウラ合同会社,,合同会社,東京都,渋谷区,神宮前６丁目２３番４号,,13,113,1500001,,,,,,,2022-05-06,1,,,,,グランツアウラ,0
1771,7011003014624,新規,0,2022-05-06,2022-05-06,合同会社アルカナデザインスタジオ,,合同会社,東京都,目黒区,南３丁目１番２０－１０２号,,13,110,1520013,,,,,,,2022-05-06,1,,,,,アルカナデザインスタジオ,0
1774,7011005009564,新規,0,2022-05-06,2022-05-06,サプナ社会保険労務士法人,,その他の設立登記法人,東京都,渋谷区,南平台町１５番１号３０６,,13,113,1500036,,,,,,,2022-05-06,1,,,,,サプナ,0
1784,7011405002202,新規,0,2022-05-06,2022-05-06,一般社団法人アルパインクライミング推進協議会,,その他の設立登記法人,東京都,板橋区,小茂根３丁目９番８－２１２号,,13,119,1730037,,,,,,,2022-05-06,1,,,,,アルパインクライミングスイシンキョウギカイ,0
1791,7012401039163,新規,0,2022-05-06,2022-05-06,株式会社ドテラ,,株式会社,東京都,武蔵野市,吉祥寺南町３丁目２４番３－３Ａ号,,13,203,1800003,,,,,,,2022-05-06,1,,,,,ドテラ,0
1793,7013103001130,新規,0,2022-05-06,2022-05-06,合同会社ちゃんちき堂,,合同会社,東京都,青梅市,塩船６３番地８,,13,205,1980011,,,,,,,2022-05-06,1,,,,,チャンチキドウ,0
1800,7013303006128,新規,0,2022-05-06,2022-05-06,Ｔ＆Ｃ合同会社,,合同会社,東京都,豊島区,北大塚２丁目３番１３号ライオンズステーションプラザ大塚第２－１１０６号,,13,116,1700004,,,,,,,2022-05-06,1,,,,,ティーアンドシー,0
1812,7021001075849,新規,0,2022-05-06,2022-05-06,株式会社グリーンメディカルサポート,,株式会社,神奈川県,厚木市,岡田３１７５番地,,14,212,2430021,,,,,,,2022-05-06,1,,,,,グリーンメディカルサポート,0
1813,7021001075865,新規,0,2022-05-06,2022-05-06,株式会社齊藤技建,,株式会社,神奈川県,藤沢市,用田５３２番地の１,,14,205,2520821,,,,,,,2022-05-06,1,,,,,サイトウギケン,0
1814,7021003011653,新規,0,2022-05-06,2022-05-06,合同会社ＲＨＡ,,合同会社,神奈川県,鎌倉市,材木座５丁目７番１４号,,14,204,2480013,,,,,,,2022-05-06,1,,,,,アールエイチエー,0
1828,7040001123236,新規,0,2022-05-06,2022-05-06,株式会社フロンティア,,株式会社,千葉県,習志野市,袖ケ浦１丁目７番１０号,,12,216,2750021,,,,,,,2022-05-06,1,,,,,フロンティア,0
1831,7040003019977,新規,0,2022-05-06,2022-05-06,シセイ合同会社,,合同会社,千葉県,船橋市,駿河台２丁目２５番１０号,,12,204,2730862,,,,,,,2022-05-06,1,,,,,シセイ,0
1836,7060001034811,新規,0,2022-05-06,2022-05-06,さくら塗工株式会社,,株式会社,栃木県,栃木市,星野町２０番地,,09,203,3280201,,,,,,,2022-05-06,1,,,,,サクラトコウ,0
1845,7080001024918,新規,0,2022-05-06,2022-05-06,株式会社未来ｃｒｅａｔｉｏｎ,,株式会社,静岡県,静岡市葵区,伝馬町１番２号３階３９,,22,101,4200858,,,,,,,2022-05-06,1,,,,,ミライクリエイション,0
1846,7080101023258,新規,0,2022-05-06,2022-05-06,株式会社不動丞,,株式会社,静岡県,沼津市,若葉町３番４６号,,22,203,4100059,,,,,,,2022-05-06,1,,,,,フドウショウ,0
1848,7080103002581,新規,0,2022-05-06,2022-05-06,エイチジー設備企画合同会社,,合同会社,静岡県,伊豆の国市,南條８４４番地の１,,22,225,4102114,,,,,,,2022-05-06,1,,,,,エイチジーセツビキカク,0
1849,7080401025796,新規,0,2022-05-06,2022-05-06,株式会社Ｉ．Ｏ．Ｇ,,株式会社,静岡県,浜松市中区,早出町２３５番地の３コージテラスＤ号,,22,131,4350054,,,,,,,2022-05-06,1,,,,,アイオージー,0
1851,7090001017549,新規,0,2022-05-06,2022-05-06,株式会社若宮農園,,株式会社,山梨県,山梨市,東４８８番地,,19,205,4050002,,,,,,,2022-05-06,1,,,,,ワカミヤノウエン,0
1852,7100001035301,新規,0,2022-05-06,2022-05-06,株式会社ジオ・フォレスト,,株式会社,長野県,上伊那郡南箕輪村,８８５７番地１,,20,385,3994511,,,,,,,2022-05-06,1,,,,,ジオフォレスト,0
1857,7110001036629,新規,0,2022-05-06,2022-05-06,株式会社Ｄｕｃｋ’ｓ　ｆａｒｍ,,株式会社,新潟県,柏崎市,大字田屋２４９４番地,,15,205,9451248,,,,,,,2022-05-06,1,,,,,ダックスファーム,0
1874,7120001245633,新規,0,2022-05-06,2022-05-06,株式会社Ｈ・Ｉ・Ｋホールディングス,,株式会社,大阪府,大阪市西区,靱本町１丁目１８番２２号,,27,106,5500004,,,,,,,2022-05-06,1,,,,,エイチアイケーホールディングス,0
1888,7130001071681,新規,0,2022-05-06,2022-05-06,いごこちホールディングス株式会社,,株式会社,京都府,宮津市,字由良３４００番地の３,,26,205,6260071,,,,,,,2022-05-06,1,,,,,イゴコチホールディングス,0
1889,7130001071698,新規,0,2022-05-06,2022-05-06,株式会社ｓｏｕｂｉ,,株式会社,京都府,京都市伏見区,竹田藁屋町４５番地,,26,109,6128443,,,,,,,2022-05-06,1,,,,,ソウビ,0
1906,7160001024174,新規,0,2022-05-06,2022-05-06,株式会社Ｐｌａｎｎｉｎｇ　Ｏｆｆｉｃｅ　ＫＵＪＩＬＡ,,株式会社,滋賀県,大津市,二本松１番１号,,25,201,5200021,,,,,,,2022-05-06,1,,,,,プランニングオフィスクジラ,0
1918,7180001151132,新規,0,2022-05-06,2022-05-06,ＹＴＲ株式会社,,株式会社,愛知県,春日井市,藤山台３丁目１番地７　３０５号棟３０６号室,,23,206,4870035,,,,,,,2022-05-06,1,,,,,ワイティーアール,0
1919,7180001151165,新規,0,2022-05-06,2022-05-06,株式会社ウエダ電気工事,,株式会社,愛知県,大府市,追分町６丁目３７８番地１階,,23,223,4740027,,,,,,,2022-05-06,1,,,,,ウエダデンキコウジ,0
1923,7180003023791,新規,0,2022-05-06,2022-05-06,合同会社ＲＩＣＣＡ,,合同会社,愛知県,名古屋市西区,牛島町６番１号名古屋ルーセントタワー４０階,,23,104,4510046,,,,,,,2022-05-06,1,,,,,リッカ,0
1925,7180301036165,新規,0,2022-05-06,2022-05-06,株式会社Ｔｈｅ　ｃｏｎｎｅｃｔｏｒ,,株式会社,愛知県,岡崎市,緑丘１丁目３番地９,,23,202,4440806,,,,,,,2022-05-06,1,,,,,ザコネクター,0
1928,7200001040027,新規,0,2022-05-06,2022-05-06,株式会社モチベアップ,,株式会社,岐阜県,加茂郡坂祝町,加茂山２丁目４番地１４,,21,501,5050073,,,,,,,2022-05-06,1,,,,,モチベアップ,0
1929,7200001040035,新規,0,2022-05-06,2022-05-06,養老化成株式会社,,株式会社,岐阜県,養老郡養老町,宇田１４３７番地１,,21,341,5031335,,,,,,,2022-05-06,1,,,,,ヨウロウカセイ,0
1930,7200001040043,新規,0,2022-05-06,2022-05-06,志津電装株式会社,,株式会社,岐阜県,大垣市,新田町４丁目１８番地,,21,202,5030856,,,,,,,2022-05-06,1,,,,,シヅデンソウ,0
1931,7200001040051,新規,0,2022-05-06,2022-05-06,株式会社藤伸,,株式会社,岐阜県,岐阜市,旦島６丁目１２番８号,,21,201,5020926,,,,,,,2022-05-06,1,,,,,フジシン,0
1936,7210003001505,新規,0,2022-05-06,2022-05-06,ホーリーマウンテン合同会社,,合同会社,福井県,吉田郡永平寺町,谷口第２号８５番地,,18,322,9101214,,,,,,,2022-05-06,1,,,,,ホーリーマウンテン,0
1939,7240001059708,新規,0,2022-05-06,2022-05-06,株式会社タカモリサービス,,株式会社,広島県,広島市中区,光南２丁目４番１１号,,34,101,7300825,,,,,,,2022-05-06,1,,,,,タカモリサービス,0
1945,7260001036812,新規,0,2022-05-06,2022-05-06,株式会社トランジス,,株式会社,岡山県,倉敷市,玉島長尾２７３９番地,,33,202,7100251,,,,,,,2022-05-06,1,,,,,トランジス,0
1946,7260001036820,新規,0,2022-05-06,2022-05-06,荒手茶寮株式会社,,株式会社,岡山県,岡山市北区,後楽園１番９号,,33,101,7038257,,,,,,,2022-05-06,1,,,,,アラテサリョウ,0
1947,7260001036829,新規,0,2022-05-06,2022-05-06,株式会社ＴＲＥＮＴＡ‐ＴＲＥ,,株式会社,岡山県,倉敷市,阿知３丁目４－１プリーマビル４Ｆ,,33,202,7100055,,,,,,,2022-05-06,1,,,,,トレンタトレ,0
1948,7260001036837,新規,0,2022-05-06,2022-05-06,株式会社シュポポ企画,,株式会社,岡山県,岡山市北区,下石井２丁目１０番３０号杜の街グレース岡山ザ・タワー６１６号,,33,101,7000907,,,,,,,2022-05-06,1,,,,,シュポポキカク,0
1951,7260003003901,新規,0,2022-05-06,2022-05-06,合同会社ヨシナ,,合同会社,岡山県,倉敷市,児島下の町５丁目２－８１,,33,202,7110906,,,,,,,2022-05-06,1,,,,,ヨシナ,0
1961,7290003012437,新規,0,2022-05-06,2022-05-06,合同会社アイリス,,合同会社,福岡県,小郡市,三沢３９６０番地７号４Ｆ,,40,216,8380106,,,,,,,2022-05-06,1,,,,,アイリス,0
1966,7290005018671,新規,0,2022-05-06,2022-05-06,一般社団法人とまり木,,その他の設立登記法人,福岡県,福岡市中央区,警固２丁目６－１６,,40,133,8100023,,,,,,,2022-05-06,1,,,,,トマリギ,0
1967,7290801028502,新規,0,2022-05-06,2022-05-06,株式会社ＡＣＴ,,株式会社,福岡県,北九州市門司区,吉志３丁目７番３５号,,40,101,8000114,,,,,,,2022-05-06,1,,,,,アクト,0
1969,7310001017848,新規,0,2022-05-06,2022-05-06,株式会社ＭＡＲＵＨＩＤＥ創建,,株式会社,長崎県,東彼杵郡川棚町,白石郷９６１番地８,,42,322,8593616,,,,,,,2022-05-06,1,,,,,マルヒデソウケン,0
1977,7330001029692,新規,0,2022-05-06,2022-05-06,ＮｏＺ株式会社,,株式会社,熊本県,熊本市中央区,下通１丁目４番３号,,43,101,8600807,,,,,,,2022-05-06,1,,,,,ノズ,0
1987,7370001048516,新規,0,2022-05-06,2022-05-06,株式会社タスカル,,株式会社,宮城県,仙台市宮城野区,鶴ケ谷東２丁目２４番２０号,,04,102,9830826,,,,,,,2022-05-06,1,,,,,タスカル,0
1993,7380001032774,新規,0,2022-05-06,2022-05-06,株式会社エムット,,株式会社,福島県,郡山市,長者２丁目１３番１号,,07,203,9638017,,,,,,,2022-05-06,1,,,,,エムット,0
1995,7390001016883,新規,0,2022-05-06,2022-05-06,株式会社ｍｏｇｕ,,株式会社,山形県,天童市,芳賀タウン北５丁目１２番１号,,06,210,9940082,,,,,,,2022-05-06,1,,,,,モグ,0
2007,7500001024189,新規,0,2022-05-06,2022-05-06,株式会社Ｅ‐ＨＯＵＳＥ,,株式会社,愛媛県,松山市,三番町８丁目３５４番地５,,38,201,7900003,,,,,,,2022-05-06,1,,,,,イーハウス,0
2013,8010001226305,新規,0,2022-05-06,2022-05-06,株式会社ＭＪパワー,,株式会社,東京都,中央区,築地７丁目７番２－８０２号,,13,102,1040045,,,,,,,2022-05-06,1,,,,,エムジェイパワー,0
2014,8010001226362,新規,0,2022-05-06,2022-05-06,株式会社のら猫バンク,,株式会社,東京都,千代田区,神田錦町３丁目４番地２,,13,101,1010054,,,,,,,2022-05-06,1,,,,,ノラネコバンク,0
2023,8010401167231,新規,0,2022-05-06,2022-05-06,株式会社バリューソフトホールディングス,,株式会社,東京都,港区,愛宕２丁目５番１号,,13,103,1050002,,,,,,,2022-05-06,1,,,,,バリューソフトホールディングス,0
2025,8010403027425,新規,0,2022-05-06,2022-05-06,合同会社ＩＤＥＡ,,合同会社,東京都,港区,赤坂２丁目１８番４号,,13,103,1070052,,,,,,,2022-05-06,1,,,,,イデア,0
2026,8010403027557,新規,0,2022-05-06,2022-05-06,合同会社ＹＯＬＯＨコンサルタントオフィス,,合同会社,東京都,港区,浜松町２丁目２番１５号浜松町ダイヤビル２Ｆ,,13,103,1050013,,,,,,,2022-05-06,1,,,,,ワイオーエルオーエイチコンサルタントオフィス,0
2027,8010403027598,新規,0,2022-05-06,2022-05-06,合同会社ベンチャーＧ,,合同会社,東京都,港区,虎ノ門３丁目２２番１０－２０１号,,13,103,1050001,,,,,,,2022-05-06,1,,,,,ベンチャージー,0
2029,8010601061110,新規,0,2022-05-06,2022-05-06,株式会社Ｋ＆Ｓ,,株式会社,東京都,墨田区,文花２丁目１０－２,,13,107,1310044,,,,,,,2022-05-06,1,,,,,ケーアンドエス,0
2031,8010603009520,新規,0,2022-05-06,2022-05-06,アサヒ建装合同会社,,合同会社,東京都,墨田区,八広１丁目３５番２０号,,13,107,1310041,,,,,,,2022-05-06,1,,,,,アサヒケンソウ,0
2037,8010901050812,新規,0,2022-05-06,2022-05-06,株式会社ＳＥＮＪＹＵ,,株式会社,東京都,世田谷区,奥沢７丁目２－３ＫＴビル２階,,13,112,1580083,,,,,,,2022-05-06,1,,,,,センジュ,0
2047,8011103011719,新規,0,2022-05-06,2022-05-06,千月フィールド合同会社,,合同会社,東京都,新宿区,戸山１丁目１８番６号,,13,104,1620052,,,,,,,2022-05-06,1,,,,,センゲツフィールド,0
2054,8011601025930,新規,0,2022-05-06,2022-05-06,株式会社ＫＴコンサルティング,,株式会社,東京都,練馬区,練馬４丁目１８番２０号,,13,120,1760001,,,,,,,2022-05-06,1,,,,,ケーティーコンサルティング,0
2058,8011801040671,新規,0,2022-05-06,2022-05-06,株式会社ＡＫサービス,,株式会社,東京都,足立区,梅田５丁目１３番２０－２０１号,,13,121,1230851,,,,,,,2022-05-06,1,,,,,エーケーサービス,0
2062,8012401039162,新規,0,2022-05-06,2022-05-06,株式会社ＳＰＥＲｏａｄ三鷹,,株式会社,東京都,三鷹市,下連雀３丁目３５番地１Ｎ・Ｅ・ＯＣＩＴＹＭＩＴＡＫＡ６Ｆ,,13,204,1810013,,,,,,,2022-05-06,1,,,,,スペロードミタカ,0
2065,8013101008903,新規,0,2022-05-06,2022-05-06,株式会社立川パーキング,,株式会社,東京都,福生市,志茂２０７番地,,13,218,1970023,,,,,,,2022-05-06,1,,,,,タチカワパーキング,0
2068,8013301049045,新規,0,2022-05-06,2022-05-06,株式会社ＨＤ商事,,株式会社,東京都,豊島区,東池袋３丁目１－４メゾンサンシャイン１２３２,,13,116,1700013,,,,,,,2022-05-06,1,,,,,エチデイショウジ,0
2076,8020001146353,新規,0,2022-05-06,2022-05-06,コンフィートラスト株式会社,,株式会社,神奈川県,横浜市金沢区,鳥浜町１番地１,,14,108,2360002,,,,,,,2022-05-06,1,,,,,コンフィートラスト,0
2077,8020003021686,新規,0,2022-05-06,2022-05-06,合同会社プログレア,,合同会社,神奈川県,横浜市都筑区,牛久保東２丁目９－５－６０３,,14,118,2240014,,,,,,,2022-05-06,1,,,,,プログレア,0
2078,8020003021711,新規,0,2022-05-06,2022-05-06,合同会社ＥＤＮ,,合同会社,神奈川県,横浜市都筑区,荏田南１丁目１３番１０号プランドールａ．ｂａ,,14,118,2240007,,,,,,,2022-05-06,1,,,,,イーディーエヌ,0
2080,8021001075848,新規,0,2022-05-06,2022-05-06,株式会社慎,,株式会社,神奈川県,平塚市,札場町１５番２９号,,14,203,2540802,,,,,,,2022-05-06,1,,,,,シン,0
2081,8021001075889,新規,0,2022-05-06,2022-05-06,ＹＫｔｅｃｈ株式会社,,株式会社,神奈川県,横須賀市,大津町４丁目１１番２６号,,14,201,2390808,,,,,,,2022-05-06,1,,,,,ワイケーテック,0
2089,8030001147912,新規,0,2022-05-06,2022-05-06,株式会社はなつみ,,株式会社,埼玉県,春日部市,花積２０３番地,,11,214,3440044,,,,,,,2022-05-06,1,,,,,ハナツミ,0
2090,8030001147986,新規,0,2022-05-06,2022-05-06,株式会社ユナイトパッケージ,,株式会社,埼玉県,越谷市,大字南荻島１７７番地１,,11,222,3430804,,,,,,,2022-05-06,1,,,,,ユナイトパッケージ,0
2091,8030001147994,新規,0,2022-05-06,2022-05-06,株式会社スターカンパニー,,株式会社,埼玉県,入間市,大字南峯３２８番地８,,11,225,3580046,,,,,,,2022-05-06,1,,,,,スターカンパニー,0
2093,8030003019341,新規,0,2022-05-06,2022-05-06,大中信合同会社,,合同会社,埼玉県,川越市,大字笠幡７４１番地１１,,11,201,3501175,,,,,,,2022-05-06,1,,,,,ダイチュウシン,0
2099,8040001123210,新規,0,2022-05-06,2022-05-06,株式会社ＥＫ企画,,株式会社,千葉県,茂原市,道表６－１,,12,210,2970028,,,,,,,2022-05-06,1,,,,,イーケーキカク,0
2101,8050001051030,新規,0,2022-05-06,2022-05-06,株式会社アナザーアシスト,,株式会社,茨城県,水戸市,中央２丁目８番４１号幸栄ビル３階,,08,201,3100805,,,,,,,2022-05-06,1,,,,,アナザーアシスト,0
2102,8050001051039,新規,0,2022-05-06,2022-05-06,株式会社和水建設,,株式会社,茨城県,筑西市,一本松１２８０番地２,,08,227,3080842,,,,,,,2022-05-06,1,,,,,ナゴミケンセツ,0
2104,8060001034827,新規,0,2022-05-06,2022-05-06,那須野ヶ原みらい電力株式会社,,株式会社,栃木県,那須塩原市,青木２２番地１５２,,09,213,3250103,,,,,,,2022-05-06,1,,,,,ナスノガハラミライデンリョク,0
2111,8080101023257,新規,0,2022-05-06,2022-05-06,株式会社駿河事務所,,株式会社,静岡県,御殿場市,川島田３２９番地の４菊水第二ビル１階,,22,215,4120045,,,,,,,2022-05-06,1,,,,,スルガジムショ,0
2112,8080101023265,新規,0,2022-05-06,2022-05-06,株式会社山王建設,,株式会社,静岡県,沼津市,大岡１７７７番地の６メゾンクレール１０１,,22,203,4100022,,,,,,,2022-05-06,1,,,,,サンノウケンセツ,0
2113,8080401025787,新規,0,2022-05-06,2022-05-06,株式会社マルコー,,株式会社,静岡県,浜松市西区,入野町１６１３４番地の１２,,22,133,4328061,,,,,,,2022-05-06,1,,,,,マルコー,0
2114,8080401025795,新規,0,2022-05-06,2022-05-06,株式会社モデレイト,,株式会社,静岡県,浜松市東区,小池町５８８番地,,22,132,4350056,,,,,,,2022-05-06,1,,,,,モデレイト,0
2116,8110001036644,新規,0,2022-05-06,2022-05-06,株式会社ＩＮＮＯＶＩＳ,,株式会社,新潟県,新潟市中央区,鳥屋野２丁目１３番２２号,,15,103,9500951,,,,,,,2022-05-06,1,,,,,イノヴィス,0
2118,8110003004748,新規,0,2022-05-06,2022-05-06,合同会社ビルインスペクション・Ｍ,,合同会社,新潟県,十日町市,中条乙３２２９番地２,,15,210,9498616,,,,,,,2022-05-06,1,,,,,,0
2130,8120001245599,新規,0,2022-05-06,2022-05-06,株式会社Ｓｉｓｔｅｒｓ,,株式会社,大阪府,大阪市西淀川区,佃３丁目１８番１１号,,27,113,5550001,,,,,,,2022-05-06,1,,,,,シスターズ,0
2136,8120003021593,新規,0,2022-05-06,2022-05-06,合同会社Ｌ’ＡＸＥ,,合同会社,大阪府,大阪市北区,芝田２丁目８番１１号共栄ビル６１０,,27,127,5300012,,,,,,,2022-05-06,1,,,,,アクス,0
2141,8120101065518,新規,0,2022-05-06,2022-05-06,株式会社Ｖａｒｉｏｕｓ‐ｗｅｌｄ,,株式会社,大阪府,岸和田市,岡山町５８８番地の５,,27,202,5960814,,,,,,,2022-05-06,1,,,,,ベリウスウェルド,0
2142,8120101065550,新規,0,2022-05-06,2022-05-06,株式会社山口建装,,株式会社,大阪府,羽曳野市,島泉２丁目７番２７号,,27,222,5830881,,,,,,,2022-05-06,1,,,,,ヤマグチケンソウ,0
2146,8120901045933,新規,0,2022-05-06,2022-05-06,リターンテクノス株式会社,,株式会社,大阪府,豊中市,大黒町１丁目１７番８号,,27,203,5610827,,,,,,,2022-05-06,1,,,,,リターンテクノス,0
2149,8122001035856,新規,0,2022-05-06,2022-05-06,株式会社Ｔｈｒｉｖｅ　ｗｉｔｈ　ｌｉｆｅ,,株式会社,大阪府,東大阪市,小阪１丁目１２番１２号小阪プラザ２Ｆ,,27,227,5770801,,,,,,,2022-05-06,1,,,,,スライブウィズライフ,0
2157,8130001071672,新規,0,2022-05-06,2022-05-06,京都ビレッジファーム株式会社,,株式会社,京都府,京田辺市,普賢寺御所ノ内６９番地,,26,211,6100322,,,,,,,2022-05-06,1,,,,,キョウトビレッジファーム,0
2158,8130001071689,新規,0,2022-05-06,2022-05-06,株式会社リンクラッド,,株式会社,京都府,京都市西京区,下津林番条６５番地,,26,111,6158056,,,,,,,2022-05-06,1,,,,,リンクラッド,0
2159,8130003007914,新規,0,2022-05-06,2022-05-06,合同会社衣川笑永堂,,合同会社,京都府,福知山市,字京３０番地,,26,201,6200027,,,,,,,2022-05-06,1,,,,,キヌガワショウエイドウ,0
2167,8140001125865,新規,0,2022-05-06,2022-05-06,株式会社スタジオオリーブ,,株式会社,兵庫県,神戸市東灘区,御影山手５丁目１０番４号,,28,101,6580065,,,,,,,2022-05-06,1,,,,,スタジオオリーブ,0
2177,8160001024165,新規,0,2022-05-06,2022-05-06,株式会社Ｂｏｎ　Ａｍｉ,,株式会社,滋賀県,東近江市,平松町５４８番地１,,25,213,5270134,,,,,,,2022-05-06,1,,,,,ボンアミ,0
2180,8170001017085,新規,0,2022-05-06,2022-05-06,株式会社Ｋａｎｏｗ,,株式会社,和歌山県,和歌山市,山吹丁９番地ＮａｔｕｒａｌＰａｒｋ１０３,,30,201,6408065,,,,,,,2022-05-06,1,,,,,カナウ,0
2196,8180005019762,新規,0,2022-05-06,2022-05-06,一般社団法人家族の絆権天会,,その他の設立登記法人,愛知県,小牧市,常普請２丁目１３１番地,,23,219,4850044,,,,,,,2022-05-06,1,,,,,カゾクノキズナケンテンカイ,0
2197,8180301036189,新規,0,2022-05-06,2022-05-06,株式会社キングファーム,,株式会社,愛知県,西尾市,西浅井町下川原６番地,,23,213,4450004,,,,,,,2022-05-06,1,,,,,キングファーム,0
2199,8190005011702,新規,0,2022-05-06,2022-05-06,一般社団法人漁場再生に繋がる海洋開発研究会,,その他の設立登記法人,三重県,伊勢市,中之町１５１番地２９,,24,203,5160034,,,,,,,2022-05-06,1,,,,,ギョジョウサイセイニツナガルカイヨウカイハツケンキュウカイ,0
2201,8200001040026,新規,0,2022-05-06,2022-05-06,聚＿産業株式会社,00126465,株式会社,岐阜県,揖斐郡池田町,上田２７５番地１,,21,404,5032415,,,,,,,2022-05-06,1,,,,,キョウシンサンギョウ,0
2206,8200003005555,新規,0,2022-05-06,2022-05-06,ルビコンエンジニアリング合同会社,,合同会社,岐阜県,高山市,上岡本町１７５１番地１３,,21,203,5060055,,,,,,,2022-05-06,1,,,,,ルビコンエンジニアリング,0
2215,8240001059698,新規,0,2022-05-06,2022-05-06,Ｍｏｏｎ　ｓｈｏｔ株式会社,,株式会社,広島県,広島市南区,皆実町５丁目６番１８号２Ｆ,,34,103,7340007,,,,,,,2022-05-06,1,,,,,ムーンショット,0
2216,8240001059707,新規,0,2022-05-06,2022-05-06,松建株式会社,,株式会社,広島県,福山市,新市町大字宮内２１７番地１９,,34,207,7293104,,,,,,,2022-05-06,1,,,,,ショウケン,0
2217,8240001059723,新規,0,2022-05-06,2022-05-06,株式会社ＮＥＸＴ,,株式会社,広島県,広島市西区,南観音４丁目１番２２号,,34,104,7330035,,,,,,,2022-05-06,1,,,,,ネクスト,0
2218,8240005015383,新規,0,2022-05-06,2022-05-06,日本キリスト教会広島長束教会,,その他の設立登記法人,広島県,広島市安佐南区,長束３丁目３２番１６号,,34,105,7310135,,,,,,,2022-05-06,1,,,,,ニホンキリストキョウカイヒロシマナガツカキョウカイ,0
2220,8260001036828,新規,0,2022-05-06,2022-05-06,たからさがし株式会社,,株式会社,岡山県,岡山市北区,下中野３４７番地１０４,,33,101,7000973,,,,,,,2022-05-06,1,,,,,タカラサガシ,0
2221,8260001036836,新規,0,2022-05-06,2022-05-06,株式会社グランデ,,株式会社,岡山県,岡山市南区,郡１５１９番地１,,33,104,7028011,,,,,,,2022-05-06,1,,,,,グランデ,0
2224,8280003001605,新規,0,2022-05-06,2022-05-06,合同会社ｉＬｉｎｋｓ　ＬＬＣ．,,合同会社,島根県,松江市,矢田町１２１番地１０,,32,201,6900021,,,,,,,2022-05-06,1,,,,,アイリンクスエルエルシー,0
2231,8290001097405,新規,0,2022-05-06,2022-05-06,株式会社福岡ＥＨ,,株式会社,福岡県,福岡市中央区,笹丘１丁目１１番１８－３０１号,,40,133,8100034,,,,,,,2022-05-06,1,,,,,フクオカイーエイチ,0
2232,8290001097421,新規,0,2022-05-06,2022-05-06,株式会社北斗,,株式会社,福岡県,糟屋郡宇美町,障子岳６丁目１２番８号,,40,341,8112127,,,,,,,2022-05-06,1,,,,,ホクト,0
2236,8290005018670,新規,0,2022-05-06,2022-05-06,一般社団法人公園遊具安全協会,,その他の設立登記法人,福岡県,福岡市博多区,対馬小路１番１－３Ｆ－Ｂ号,,40,132,8120020,,,,,,,2022-05-06,1,,,,,コウエンユウグアンゼンキョウカイ,0
2238,8290801028518,新規,0,2022-05-06,2022-05-06,株式会社Ｈａｓｈｉｍｏｔｏ．,,株式会社,福岡県,北九州市八幡西区,吉祥寺町３番４号,,40,109,8071114,,,,,,,2022-05-06,1,,,,,ハシモト,0
2239,8290803004120,新規,0,2022-05-06,2022-05-06,合同会社イースタート,,合同会社,福岡県,直方市,大字感田６７４番地１号Ａ１０１,,40,204,8220001,,,,,,,2022-05-06,1,,,,,イースタート,0
2240,8310003004348,新規,0,2022-05-06,2022-05-06,合同会社トーエ総合企画,,合同会社,長崎県,諫早市,久山町１７２８番地,,42,204,8540066,,,,,,,2022-05-06,1,,,,,トーエソウゴウキカク,0
2242,8330001029691,新規,0,2022-05-06,2022-05-06,株式会社田上商会,,株式会社,熊本県,熊本市東区,健軍４丁目１０番４５号シャーメゾン健軍１０１,,43,102,8620911,,,,,,,2022-05-06,1,,,,,タノウエショウカイ,0
2243,8330001029700,新規,0,2022-05-06,2022-05-06,株式会社真羽,,株式会社,熊本県,熊本市北区,植木町小野１２２４番地,,43,105,8610125,,,,,,,2022-05-06,1,,,,,シンバ,0
2246,8340001024700,新規,0,2022-05-06,2022-05-06,シュウテックマーケティング株式会社,,株式会社,鹿児島県,鹿児島市,錦江町６番１５号,,46,201,8920836,,,,,,,2022-05-06,1,,,,,シュウテックマーケティング,0
2249,8350001017728,新規,0,2022-05-06,2022-05-06,株式会社サニーデンソー,,株式会社,宮崎県,宮崎市,清武町加納乙８９９番地４４,,45,201,8891605,,,,,,,2022-05-06,1,,,,,サニーデンソー,0
2259,8400001015874,新規,0,2022-05-06,2022-05-06,株式会社ミノリア,,株式会社,岩手県,紫波郡紫波町,小屋敷字焼野５１番地１,,03,321,0283444,,,,,,,2022-05-06,1,,,,,ミノリア,0
2264,8430003013849,新規,0,2022-05-06,2022-05-06,合同会社エスツー,,合同会社,北海道,札幌市西区,西野二条６丁目３－１３－１Ｆ,,01,107,0630032,,,,,,,2022-05-06,1,,,,,エスツー,0
2269,8470003002179,新規,0,2022-05-06,2022-05-06,合同会社栄真,,合同会社,香川県,坂出市,西庄町９３７番地１,,37,203,7620021,,,,,,,2022-05-06,1,,,,,エイシン,0
2270,8480001011726,新規,0,2022-05-06,2022-05-06,株式会社チアプロ,,株式会社,徳島県,徳島市,東新町１丁目９番地サマンビル１Ｆ,,36,201,7700912,,,,,,,2022-05-06,1,,,,,チアプロ,0
2275,9010001226287,新規,0,2022-05-06,2022-05-06,株式会社ＭＤａｙ,,株式会社,東京都,中央区,新富２丁目５番２－１００２号,,13,102,1040041,,,,,,,2022-05-06,1,,,,,マイディー,0
2279,9010003037575,新規,0,2022-05-06,2022-05-06,合同会社ＬＦ　Ｓｏｌａｒ,,合同会社,東京都,千代田区,霞が関３丁目２番１号,,13,101,1000013,,,,,,,2022-05-06,1,,,,,エルエフソーラー,0
2280,9010005034942,新規,0,2022-05-06,2022-05-06,一般社団法人ウランバートル市東京駐在事務所,,その他の設立登記法人,東京都,千代田区,神田佐久間町１丁目１４番第２東ビル６１５号室,,13,101,1010025,,,,,,,2022-05-06,1,,,,,ウランバートルシトウキョウチュウザイジムショ,0
2286,9010401167098,新規,0,2022-05-06,2022-05-06,株式会社ＷＩＬＬＥＥ,,株式会社,東京都,港区,南青山２丁目２番１５号ウィン青山１２１４号,,13,103,1070062,,,,,,,2022-05-06,1,,,,,ウィリー,0
2287,9010401167115,新規,0,2022-05-06,2022-05-06,ＡＮＤＲＯＭＥＤＡ株式会社,,株式会社,東京都,港区,六本木７丁目７－７Ｔｒｉ－ＳｅｖｅｎＲｏｐｐｏｎｇｉ８Ｆ,,13,103,1060032,,,,,,,2022-05-06,1,,,,,アンドロメダ,0
2288,9010401167164,新規,0,2022-05-06,2022-05-06,願い株式会社,,株式会社,東京都,港区,新橋３丁目９－１０－２０９号室,,13,103,1050004,,,,,,,2022-05-06,1,,,,,ネガイ,0
2291,9010403027507,新規,0,2022-05-06,2022-05-06,ｓｏｍｅｔｈｉｎｇ　ｇｏｏｄ合同会社,,合同会社,東京都,港区,南青山２丁目２番１５号,,13,103,1070062,,,,,,,2022-05-06,1,,,,,サムシングッド,0
2292,9010403027572,新規,0,2022-05-06,2022-05-06,ＢＥ　ＴＨＥ　ＣＨＡＮＧＥ合同会社,,合同会社,東京都,港区,港南３丁目６番２１－１５０６号,,13,103,1080075,,,,,,,2022-05-06,1,,,,,ビーザチェインジ,0
2293,9010403027580,新規,0,2022-05-06,2022-05-06,合同会社ｉｓｏｌａ,,合同会社,東京都,港区,六本木３丁目８－９ソシエ六本木５０１,,13,103,1060032,,,,,,,2022-05-06,1,,,,,イソラ,0
2303,9010601061092,新規,0,2022-05-06,2022-05-06,株式会社Ｂｅ　Ａｍｂｉｔｉｏｕｓ,,株式会社,東京都,江東区,有明１丁目５番２号,,13,108,1350063,,,,,,,2022-05-06,1,,,,,ビーアンビシャス,0
2308,9010703006219,新規,0,2022-05-06,2022-05-06,合同会社万灯,,合同会社,東京都,品川区,北品川２丁目３番７号丸屋ビル１０４号室,,13,109,1400001,,,,,,,2022-05-06,1,,,,,マンドウ,0
2316,9010903007355,新規,0,2022-05-06,2022-05-06,サロンアーキテクト合同会社,,合同会社,東京都,世田谷区,三軒茶屋２丁目２番１３号クレヴィアリグゼ２０３号室,,13,112,1540024,,,,,,,2022-05-06,1,,,,,サロンアーキテクト,0
2321,9011001147242,新規,0,2022-05-06,2022-05-06,株式会社ｅｓｔａｂ,,株式会社,東京都,渋谷区,恵比寿西１丁目４番地７号ＬｉｅｒＥｂｉｓｕ２Ｆ,,13,113,1500021,,,,,,,2022-05-06,1,,,,,エスタブ,0
2322,9011001147267,新規,0,2022-05-06,2022-05-06,株式会社和の牛,,株式会社,東京都,目黒区,上目黒２丁目７番４号,,13,110,1530051,,,,,,,2022-05-06,1,,,,,,0
2324,9011003014606,新規,0,2022-05-06,2022-05-06,チャーム合同会社,,合同会社,東京都,渋谷区,道玄坂１丁目１０－８渋谷道玄坂東急ビル２Ｆ－Ｃ,,13,113,1500043,,,,,,,2022-05-06,1,,,,,チャーム,0
2332,9011101098708,新規,0,2022-05-06,2022-05-06,株式会社ＳＴＡＲＺＩＡ,,株式会社,東京都,新宿区,西新宿７丁目５番８号ＧＯＷＡ西新宿ビル２階,,13,104,1600023,,,,,,,2022-05-06,1,,,,,スタージア,0
2335,9011201023813,新規,0,2022-05-06,2022-05-06,株式会社グランファースト,,株式会社,東京都,中野区,東中野３丁目１４番１号,,13,114,1640003,,,,,,,2022-05-06,1,,,,,グランファースト,0
2338,9011301027755,新規,0,2022-05-06,2022-05-06,株式会社フィーチャーブランチ,,株式会社,東京都,杉並区,永福２丁目２３番５号,,13,115,1680064,,,,,,,2022-05-06,1,,,,,フィーチャーブランチ,0
2339,9011501028000,新規,0,2022-05-06,2022-05-06,株式会社ＨＰＴパーキングサービス,,株式会社,東京都,荒川区,東日暮里３丁目２６番１２号ワイ・ティービル,,13,118,1160014,,,,,,,2022-05-06,1,,,,,エイチピーティーパーキングサービス,0
2340,9011603003594,新規,0,2022-05-06,2022-05-06,カーテンコール合同会社,,合同会社,東京都,練馬区,豊玉南２丁目２７番３号,,13,120,1760014,,,,,,,2022-05-06,1,,,,,カーテンコール,0
2342,9011701025284,新規,0,2022-05-06,2022-05-06,株式会社千建,,株式会社,東京都,江戸川区,南小岩６丁目１０番１３－１０１号,,13,123,1330056,,,,,,,2022-05-06,1,,,,,センケン,0
2343,9011703003131,新規,0,2022-05-06,2022-05-06,Ｔｅａｍ　ＧＥＮＴＬＥ合同会社,,合同会社,東京都,江戸川区,一之江３丁目２１－１５,,13,123,1320024,,,,,,,2022-05-06,1,,,,,チームジェントル,0
2344,9011801040670,新規,0,2022-05-06,2022-05-06,株式会社ワダチ,,株式会社,東京都,葛飾区,新小岩１丁目２５番６号持田ビル４Ｆ,,13,122,1240024,,,,,,,2022-05-06,1,,,,,ワダチ,0
2345,9011803005069,新規,0,2022-05-06,2022-05-06,シンクユナイト合同会社,,合同会社,東京都,足立区,千住中居町１９番１０号雲野第二ビル,,13,121,1200035,,,,,,,2022-05-06,1,,,,,シンクユナイト,0
2347,9012301012978,新規,0,2022-05-06,2022-05-06,株式会社ａｎｄ　ｕｓファーマシー,,株式会社,東京都,町田市,中町１丁目９番２０号ハピネス中町１０２号,,13,209,1940021,,,,,,,2022-05-06,1,,,,,アンドアスファーマシー,0
2348,9012701017040,新規,0,2022-05-06,2022-05-06,株式会社ＡｉＫａｋｅｒｕ,,株式会社,東京都,東村山市,栄町３丁目１６番地２７,,13,213,1890013,,,,,,,2022-05-06,1,,,,,アイカケル,0
2349,9013301049028,新規,0,2022-05-06,2022-05-06,イナロたすく株式会社,,株式会社,東京都,豊島区,駒込４丁目９番２９－５０７号,,13,116,1700003,,,,,,,2022-05-06,1,,,,,イナロタスク,0
2352,9020001146360,新規,0,2022-05-06,2022-05-06,株式会社ものづくりヨコハマ,,株式会社,神奈川県,横浜市都筑区,東方町３４３番地１,,14,118,2240045,,,,,,,2022-05-06,1,,,,,モノヅクリヨコハマ,0
2353,9020001146377,新規,0,2022-05-06,2022-05-06,長作土地建物株式会社,,株式会社,神奈川県,横浜市戸塚区,川上町３９８番地２,,14,110,2440805,,,,,,,2022-05-06,1,,,,,ナガサクトチタテモノ,0
2356,9020003021719,新規,0,2022-05-06,2022-05-06,横浜ライフ管理合同会社,,合同会社,神奈川県,横浜市南区,大橋町２丁目３８番地４－１０４,,14,105,2320054,,,,,,,2022-05-06,1,,,,,ヨコハマライフカンリ,0
2361,9021001075847,新規,0,2022-05-06,2022-05-06,株式会社Ｅｆｆｏｒｔシステム,,株式会社,神奈川県,藤沢市,長後２６８４番地の４,,14,205,2520801,,,,,,,2022-05-06,1,,,,,エフォールシステム,0
2368,9021005012516,新規,0,2022-05-06,2022-05-06,日本基督教団茅ヶ崎南湖教会,,その他の設立登記法人,神奈川県,茅ヶ崎市,南湖６丁目１７番９号,,14,207,2530061,,,,,,,2022-05-06,1,,,,,,0
2373,9030001147993,新規,0,2022-05-06,2022-05-06,株式会社ＹＯＳＨＩＬＡＮＤ,,株式会社,埼玉県,越谷市,大字大杉５３３番地,,11,222,3430005,,,,,,,2022-05-06,1,,,,,ヨシランド,0
2374,9030001148001,新規,0,2022-05-06,2022-05-06,株式会社知念装業,,株式会社,埼玉県,入間市,東町２丁目４番４０号４,,11,225,3580002,,,,,,,2022-05-06,1,,,,,チネンソウギョウ,0
2375,9030003019340,新規,0,2022-05-06,2022-05-06,合同会社ＨＵＮＴ‐ＴＲＡＤＩＮＧ,,合同会社,埼玉県,日高市,高萩東２丁目２６番１７号,,11,242,3501215,,,,,,,2022-05-06,1,,,,,ハントトレーディング,0
2384,9050005013067,新規,0,2022-05-06,2022-05-06,一般社団法人茨城県事業承継センター,,その他の設立登記法人,茨城県,つくば市,飯田２８４番地２,,08,220,3050874,,,,,,,2022-05-06,1,,,,,イバラキケンジギョウショウケイセンター,0
2396,9080001024916,新規,0,2022-05-06,2022-05-06,株式会社朝比奈塗装,,株式会社,静岡県,牧之原市,勝俣１９２３番地１,,22,226,4210414,,,,,,,2022-05-06,1,,,,,アサヒナトソウ,0
2398,9080101023264,新規,0,2022-05-06,2022-05-06,株式会社惣平,,株式会社,静岡県,沼津市,常盤町３丁目２番地の１アイリス常盤２０３,,22,203,4100853,,,,,,,2022-05-06,1,,,,,ソウヘイ,0
2399,9080401025794,新規,0,2022-05-06,2022-05-06,株式会社ケースリー,,株式会社,静岡県,浜松市中区,幸１丁目１－１アーバンシティ浜松幸９０２,,22,131,4338123,,,,,,,2022-05-06,1,,,,,ケースリー,0
2413,9120001245549,新規,0,2022-05-06,2022-05-06,福禧国際株式会社,,株式会社,大阪府,大阪市東淀川区,瑞光４丁目７番１１号本多ビル３０１室,,27,114,5330005,,,,,,,2022-05-06,1,,,,,フクキコクサイ,0
2417,9120003021601,新規,0,2022-05-06,2022-05-06,ブリリアン合同会社,,合同会社,大阪府,大阪市福島区,海老江３丁目２番２０号プリミエール海老江２０２号,,27,103,5530001,,,,,,,2022-05-06,1,,,,,ブリリアン,0
2427,9122001035822,新規,0,2022-05-06,2022-05-06,株式会社人創,,株式会社,大阪府,東大阪市,長堂１丁目８番３７号ヴェルノール布施３階ＲｅｑｒｅｅＶｅｌｌｅｎｏｒｄ,,27,227,5770056,,,,,,,2022-05-06,1,,,,,ジンソー,0
2430,9122003002325,新規,0,2022-05-06,2022-05-06,合同会社ＧＲＴ,,合同会社,大阪府,八尾市,高安町北３丁目２９番地,,27,212,5810871,,,,,,,2022-05-06,1,,,,,ジーアールティー,0
2434,9130001071688,新規,0,2022-05-06,2022-05-06,株式会社スギエシルクプランニング,,株式会社,京都府,京都市上京区,竹屋町通千本東入聚楽町８６３－９,,26,102,6028156,,,,,,,2022-05-06,1,,,,,スギエシルクプランニング,0
2435,9130003007913,新規,0,2022-05-06,2022-05-06,合同会社ｃａｐｉｔａｌｉｓ,,合同会社,京都府,京都市右京区,嵯峨天龍寺瀬戸川町１０－５,,26,108,6168376,,,,,,,2022-05-06,1,,,,,キャピタリス,0
2440,9140001125831,新規,0,2022-05-06,2022-05-06,株式会社セイロントレーディング,,株式会社,兵庫県,加東市,藤田９４４番地３０７,,28,228,6731462,,,,,,,2022-05-06,1,,,,,セイロントレーディング,0
2441,9140001125864,新規,0,2022-05-06,2022-05-06,株式会社ブリッジゲート,,株式会社,兵庫県,芦屋市,伊勢町２－５,,28,206,6590052,,,,,,,2022-05-06,1,,,,,ブリッジゲート,0
2442,9140001125880,新規,0,2022-05-06,2022-05-06,Ｔｏｍ’ｓ株式会社,,株式会社,兵庫県,神戸市中央区,北長狭通３丁目１２番７号,,28,110,6500012,,,,,,,2022-05-06,1,,,,,トムズ,0
2445,9170001017084,新規,0,2022-05-06,2022-05-06,株式会社ＫＬＭインターナショナル,,株式会社,和歌山県,和歌山市,梅原５７９番地８,,30,201,6408452,,,,,,,2022-05-06,1,,,,,ケイエルエムインターナショナル,0
2455,9180001151205,新規,0,2022-05-06,2022-05-06,株式会社Ｔ　ＨＯＵＳＥ,,株式会社,愛知県,愛知郡東郷町,北山台３丁目５番地２１,,23,302,4700152,,,,,,,2022-05-06,1,,,,,ティーハウス,0
2456,9180001151221,新規,0,2022-05-06,2022-05-06,株式会社子いぬの足あと,,株式会社,愛知県,一宮市,千秋町浅野羽根字大善寺５番地１,,23,203,4910816,,,,,,,2022-05-06,1,,,,,コイヌノアシアト,0
2467,9180301036188,新規,0,2022-05-06,2022-05-06,吉浜人形株式会社,,株式会社,愛知県,高浜市,屋敷町１丁目５番地１４,,23,227,4441331,,,,,,,2022-05-06,1,,,,,ヨシハマニンギョウ,0
2470,9200001040025,新規,0,2022-05-06,2022-05-06,株式会社タカネ,,株式会社,岐阜県,岐阜市,六条南２丁目２０番１－５０１号,,21,201,5008358,,,,,,,2022-05-06,1,,,,,タカネ,0
2480,9230001019347,新規,0,2022-05-06,2022-05-06,株式会社武部建築,,株式会社,富山県,富山市,八尾町石戸３６９番地,,16,201,9392375,,,,,,,2022-05-06,1,,,,,タケベケンチク,0
2484,9240001059706,新規,0,2022-05-06,2022-05-06,株式会社ピングラフィックス,,株式会社,広島県,広島市中区,広瀬北町３番１１号,,34,101,7300803,,,,,,,2022-05-06,1,,,,,ピングラフィックス,0
2489,9260001036827,新規,0,2022-05-06,2022-05-06,株式会社アトリエ・エイチ,,株式会社,岡山県,井原市,西江原町５５７１番地４,,33,207,7150006,,,,,,,2022-05-06,1,,,,,アトリエエイチ,0
2491,9270001008511,新規,0,2022-05-06,2022-05-06,株式会社地球村,,株式会社,鳥取県,鳥取市,岩倉３７２番地３５,,31,201,6800081,,,,,,,2022-05-06,1,,,,,チキュウムラ,0
2495,9290001097404,新規,0,2022-05-06,2022-05-06,株式会社よつば,,株式会社,福岡県,福岡市東区,若宮２丁目２９番２３号,,40,131,8130036,,,,,,,2022-05-06,1,,,,,ヨツバ,0
2500,9290801028500,新規,0,2022-05-06,2022-05-06,株式会社ハンズ,,株式会社,福岡県,北九州市若松区,塩屋１丁目１１番１３号,,40,103,8080131,,,,,,,2022-05-06,1,,,,,ハンズ,0
2502,9300003001840,新規,0,2022-05-06,2022-05-06,合同会社舞,,合同会社,佐賀県,鳥栖市,本鳥栖町５６８－１,,41,203,8410026,,,,,,,2022-05-06,1,,,,,マイ,0
2505,9310001017846,新規,0,2022-05-06,2022-05-06,株式会社ウッドスリー,,株式会社,長崎県,長崎市,平間町１６６９番地１,,42,201,8510136,,,,,,,2022-05-06,1,,,,,ウッドスリー,0
2513,9330001029690,新規,0,2022-05-06,2022-05-06,ボシン株式会社,,株式会社,熊本県,菊池郡大津町,大字大林１０１７番地１,,43,403,8691219,,,,,,,2022-05-06,1,,,,,ボシン,0
2515,9340001024708,新規,0,2022-05-06,2022-05-06,尾山林業株式会社,,株式会社,鹿児島県,南九州市,川辺町中山田２２９３番地８,,46,223,8970132,,,,,,,2022-05-06,1,,,,,オノヤマリンギョウ,0
2517,9350001017719,新規,0,2022-05-06,2022-05-06,ＤＡＮＤＥＬＩＯＮ株式会社,,株式会社,宮崎県,宮崎市,吾妻町１５８番地チサンマンション４０９号,,45,201,8800864,,,,,,,2022-05-06,1,,,,,ダンデライオン,0
2521,9360003011982,新規,0,2022-05-06,2022-05-06,ＡＹＡエンジニア合同会社,,合同会社,沖縄県,うるま市,与那城西原２０１番地３,,47,213,9042302,,,,,,,2022-05-06,1,,,,,アヤエンジニア,0
2522,9370001048522,新規,0,2022-05-06,2022-05-06,株式会社ＡＲＳ,,株式会社,宮城県,仙台市泉区,松森字前田５７番地の１ルミネール泉１０１,,04,105,9813111,,,,,,,2022-05-06,1,,,,,エーアールエス,0
2528,9400001015873,新規,0,2022-05-06,2022-05-06,株式会社未来総合コンサルティング,,株式会社,岩手県,盛岡市,向中野１丁目１６番１５号,,03,201,0200851,,,,,,,2022-05-06,1,,,,,ミライソウゴウコンサルティング,0
2529,9410001013182,新規,0,2022-05-06,2022-05-06,鈴木興建株式会社,,株式会社,秋田県,秋田市,将軍野東２丁目２２番３６号,,05,201,0110931,,,,,,,2022-05-06,1,,,,,スズキコウケン,0
2539,9500001024187,新規,0,2022-05-06,2022-05-06,株式会社ＪＡＭ,,株式会社,愛媛県,松山市,福音寺町２３番地１,,38,201,7900921,,,,,,,2022-05-06,1,,,,,ジャム,0
2543,9500003002819,新規,0,2022-05-06,2022-05-06,合同会社橙栄産業,,合同会社,愛媛県,今治市,天保山町５丁目３番６号,,38,202,7940032,,,,,,,2022-05-06,1,,,,,トウエイサンギョウ,0
