sequenceNumber,corporateNumber,process,correct,updateDate,changeDate,name,nameImageId,kind,prefectureName,cityName,streetNumber,addressImageId,prefectureCode,cityCode,postCode,addressOutside,addressOutsideImageId,closeDate,closeCause,successorCorporateNumber,changeCause,assignmentDate,latest,enName,enPrefectureName,enCityName,enAddressOutside,furigana,hihyoji
17,1010102003997,登記記録の閉鎖等,0,2024-07-25,2024-07-23,有限会社大輝,,有限会社,東京都,八王子市,子安町１丁目２４番２－１１０１号,,13,201,1920904,,,2024-07-23,清算の結了等,,,2015-10-05,1,,,,,ダイキ,0
19,1010401112879,登記記録の閉鎖等,0,2024-07-25,2024-07-04,株式会社エムシーエックス,,株式会社,東京都,渋谷区,千駄ヶ谷１丁目２４番５号ストーンハウスＩＩ,00105662,13,113,1510051,,,2024-07-04,清算の結了等,,,2015-10-05,1,,,,,エムシーエックス,0
22,1010403024437,登記記録の閉鎖等,0,2024-07-25,2024-07-04,ＮＩＣＥライセンシング合同会社,,合同会社,東京都,港区,港南１丁目７番１号,,13,103,1080075,,,2024-07-04,清算の結了等,,,2021-01-07,1,,,,,ナイスライセンシング,0
27,1010602020583,登記記録の閉鎖等,0,2024-07-25,2024-07-22,有限会社大成樹脂加工,,有限会社,東京都,墨田区,八広４丁目４０番２２号,,13,107,1310041,,,2024-07-22,清算の結了等,,,2015-10-05,1,,,,,タイセイジュシカコウ,0
28,1010602024089,登記記録の閉鎖等,0,2024-07-25,2024-07-23,有限会社竜企画,,有限会社,東京都,江東区,東砂１丁目３番３８号,,13,108,1360074,,,2024-07-23,清算の結了等,,,2015-10-05,1,,,,,リュウキカク,0
30,1010901039787,登記記録の閉鎖等,0,2024-07-25,2024-07-18,株式会社ＳＭＤ３,,株式会社,東京都,世田谷区,用賀２丁目３０番１７号タウニィ用賀１０１,,13,112,1580097,,,2024-07-18,清算の結了等,,,2017-03-29,1,,,,,エスエムディースリー,0
40,1011202002328,登記記録の閉鎖等,0,2024-07-25,2024-07-23,有限会社五万石,,有限会社,東京都,武蔵野市,緑町１丁目７番４－１０１号,,13,203,1800012,,,2024-07-23,清算の結了等,,,2015-10-05,1,,,,,ゴマンゴク,0
41,1011301018869,登記記録の閉鎖等,0,2024-07-25,2024-07-08,シールドインク株式会社,,株式会社,愛知県,瀬戸市,高根町１丁目３２番地,,23,204,4890931,,,2024-07-08,清算の結了等,,,2015-10-05,1,,,,,シールドインク,0
45,1011401018653,登記記録の閉鎖等,0,2024-07-25,2024-07-18,株式会社マネジメントサービス,,株式会社,東京都,世田谷区,経堂４丁目１９番４号,,13,112,1560052,,,2024-07-18,清算の結了等,,,2015-10-05,1,,,,,マネジメントサービス,0
53,1011703001308,登記記録の閉鎖等,0,2024-07-25,2024-07-16,ミロク合同会社,,合同会社,東京都,江戸川区,西葛西６丁目４番１２号,,13,123,1340088,,,2024-07-16,清算の結了等,,,2015-10-05,1,,,,,ミロク,0
59,1012801017311,登記記録の閉鎖等,0,2024-07-25,2024-07-16,株式会社ＭＫトレーディング,,株式会社,東京都,国分寺市,南町３丁目２１番１号ブロードアベニュー国分寺１５０５,,13,214,1850021,,,2024-07-16,清算の結了等,,,2016-06-13,1,,,,,エムケートレーディング,0
74,1030001094095,登記記録の閉鎖等,0,2024-07-25,2024-07-18,株式会社ロングベル,,株式会社,埼玉県,戸田市,本町４丁目４番６ＴＢＣ,,11,224,3350023,,,2024-07-18,清算の結了等,,,2015-10-05,1,,,,,ロングベル,0
78,1030002076522,登記記録の閉鎖等,0,2024-07-25,2024-07-18,有限会社さくら総合,,有限会社,埼玉県,ふじみ野市,緑ケ丘１丁目４番１４号,,11,245,3560043,,,2024-07-18,清算の結了等,,,2015-10-05,1,,,,,サクラソウゴウ,0
101,1070001034205,登記記録の閉鎖等,0,2024-07-25,2024-07-23,株式会社ジョイクス,,株式会社,群馬県,前橋市,粕川町女渕１２６４番地１０,,10,201,3710214,,,2024-07-23,清算の結了等,,,2017-12-14,1,,,,,,0
103,1070005007818,登記記録の閉鎖等,0,2024-07-25,2024-07-22,特定非営利活動法人ピースワーク,,その他の設立登記法人,群馬県,吾妻郡東吾妻町,大字植栗１８７２番地,,10,429,3770805,,,2024-07-22,清算の結了等,,,2015-10-05,1,,,,,ピースワーク,0
107,1080003001524,登記記録の閉鎖等,0,2024-07-25,2024-07-11,みつばケアライフ合同会社,,合同会社,静岡県,静岡市駿河区,登呂２丁目７番１３号,,22,102,4228033,,,2024-07-11,清算の結了等,,,2015-10-05,1,,,,,ミツバケアライフ,0
110,1080401016314,登記記録の閉鎖等,0,2024-07-25,2024-07-24,株式会社インテックス,,株式会社,静岡県,磐田市,宮本３５０番地,,22,211,4380207,,,2024-07-24,清算の結了等,,,2015-10-05,1,,,,,インテックス,0
115,1100005000991,登記記録の閉鎖等,0,2024-07-25,2024-06-19,白鳩八幡社,,その他の設立登記法人,長野県,長野市,中条御山里３７６７番地,,20,201,3813204,,,2024-06-19,合併による解散等,8100005000993,令和６年６月１９日長野県長野市中条２２７０番地皇足穂命神社諏訪社合殿（8100005000993）に合併し解散,2015-10-05,1,,,,,シラハトハチマンシャ,0
138,1120003016699,登記記録の閉鎖等,0,2024-07-25,2024-07-22,合同会社ｍｅｉｓｔｅｒ,,合同会社,大阪府,大阪市中央区,十二軒町６番２８－６０５号,,27,128,5400015,,,2024-07-22,清算の結了等,,,2019-12-16,1,,,,,マイスター,0
140,1120005002152,登記記録の閉鎖等,0,2024-07-25,2024-06-28,日本聖公会大阪聖ヨハネ教会,,その他の設立登記法人,大阪府,大阪市中央区,糸屋町２丁目１番１１号,,27,128,5400022,,,2024-06-28,合併による解散等,9120005002153,令和６年６月２８日大阪市阿倍野区松崎町二丁目１番８号日本聖公会大阪教区（9120005002153）に合併し解散,2015-10-05,1,,,,,ニホンセイコウカイオオサカセイヨハネキョウカイ,0
143,1120102011551,登記記録の閉鎖等,0,2024-07-25,2024-07-18,有限会社サンコー建機サービス,,有限会社,大阪府,堺市堺区,大浜北町２丁１番７－２３０号,,27,141,5900974,,,2024-07-18,清算の結了等,,,2015-10-05,1,,,,,サンコーケンキサービス,0
150,1140001017689,登記記録の閉鎖等,0,2024-07-25,2024-07-22,タカラ商事株式会社,,株式会社,兵庫県,神戸市須磨区,北町１丁目３番３号,,28,107,6540064,,,2024-07-22,清算の結了等,,,2015-10-05,1,,,,,タカラショウジ,0
154,1150001014933,登記記録の閉鎖等,0,2024-07-25,2024-07-23,株式会社ＭＫ不動産,,株式会社,奈良県,北葛城郡王寺町,明神３丁目８番７号,,29,425,6360022,,,2024-07-23,清算の結了等,,,2015-10-05,1,,,,,エムケーフドウサン,0
156,1170005006504,登記記録の閉鎖等,0,2024-07-25,2024-07-24,一般社団法人和歌山断酒道場,,その他の設立登記法人,和歌山県,日高郡由良町,大字大引９６１番地の５３４,,30,383,6491123,,,2024-07-24,清算の結了等,,,2016-04-20,1,,,,,ワカヤマダンシュドウジョウ,0
158,1180001160089,登記記録の閉鎖等,0,2024-07-25,2024-07-08,株式会社Ａｕｇｕｓｔ,,株式会社,愛知県,名古屋市中村区,名駅３丁目４－１０アルティメイト名駅１ｓｔ２階,,23,105,4500002,,,2024-07-08,清算の結了等,,,2024-02-07,1,,,,,オーガスト,0
168,1210005009873,登記記録の閉鎖等,0,2024-07-25,2024-07-10,一般社団法人福井県空き家・空き地活用協会,,その他の設立登記法人,福井県,大飯郡おおい町,名田庄久坂第１１号２７番地の１,,18,483,9170382,,,2024-07-10,清算の結了等,,,2020-04-01,1,,,,,フクイケンアキヤアキチカツヨウキョウカイ,0
178,1260002032469,登記記録の閉鎖等,0,2024-07-25,2024-07-12,有限会社ＫＯＭエンジニア,,有限会社,岡山県,岡山市東区,西大寺松崎１６４－３,,33,103,7048183,,,2024-07-12,清算の結了等,,,2015-10-05,1,,,,,コムエンジニア,0
181,1290001002040,登記記録の閉鎖等,0,2024-07-25,2024-06-26,株式会社ビィタックル,,株式会社,福岡県,福岡市南区,清水１丁目２０番３号,,40,134,8150031,,,2024-06-26,清算の結了等,,,2015-10-05,1,,,,,ビィタックル,0
183,1290001085515,登記記録の閉鎖等,0,2024-07-25,2024-06-06,株式会社ミライネクスト,,株式会社,福岡県,福岡市博多区,吉塚４丁目１１番１５号ＫＹビル４号室,,40,132,8120041,,,2024-06-06,合併による解散等,3290001018431,令和６年６月１日福岡市博多区吉塚四丁目３番３７－１号株式会社ミライ（3290001018431）に合併し解散,2019-06-11,1,,,,,ミライネクスト,0
202,1340001003842,登記記録の閉鎖等,0,2024-07-25,2024-07-19,株式会社ベルショップ,,株式会社,鹿児島県,鹿児島市,錦江町８番地６,,46,201,8920836,,,2024-07-19,清算の結了等,,,2015-10-05,1,,,,,ベルショップ,0
219,1420002008931,登記記録の閉鎖等,0,2024-07-25,2024-07-18,有限会社マップリンク,,有限会社,青森県,八戸市,根城９丁目１４番９号,,02,203,0391166,,,2024-07-18,清算の結了等,,,2015-10-05,1,,,,,マップリンク,0
222,1430001000310,登記記録の閉鎖等,0,2024-07-25,2024-07-01,株式会社アール・シー日音,,株式会社,北海道,札幌市西区,発寒九条１０丁目１番８号,,01,107,0630829,,,2024-07-01,合併による解散等,4430001028290,令和６年７月１日札幌市西区発寒九条十丁目１番８号株式会社チャンネル・ツー（4430001028290）と合併し解散,2015-10-05,1,,,,,アールシーニチオン,0
223,1430001003346,登記記録の閉鎖等,0,2024-07-25,2024-07-18,小野寺燃料株式会社,,株式会社,北海道,札幌市北区,新琴似六条６丁目４番１５号,,01,102,0010906,,,2024-07-18,合併による解散等,6430001001576,令和６年６月３０日札幌市中央区南八条西六丁目１０３６番地株式会社いちたかガスワン（6430001001576）に合併し解散,2015-10-05,1,,,,,オノデラネンリョウ,0
231,1460101001560,登記記録の閉鎖等,0,2024-07-25,2024-07-22,北信電設株式会社,,株式会社,北海道,帯広市,西十三条北６丁目６番地２,,01,207,0800043,,,2024-07-22,清算の結了等,,,2015-10-05,1,,,,,ホクシンデンセツ,0
256,2010401012005,登記記録の閉鎖等,0,2024-07-25,2024-07-05,サンコーインターナショナル株式会社,,株式会社,東京都,港区,虎ノ門１丁目１１番２号,,13,103,1050001,,,2024-07-05,合併による解散等,3010401012020,令和６年７月５日東京都港区虎ノ門四丁目２番１２号虎ノ門４丁目ＭＴビル２号館９階三貢機械株式会社（3010401012020）に合併し解散,2015-10-05,1,,,,,サンコーインターナショナル,0
264,2010401179975,登記記録の閉鎖等,0,2024-07-25,2024-07-19,ＡＫメディア株式会社,,株式会社,東京都,港区,虎ノ門４丁目１番２８号虎ノ門タワーズオフィス,,13,103,1050001,,,2024-07-19,合併による解散等,7011001157887,令和６年７月１日東京都渋谷区恵比寿四丁目２０－３恵比寿ガーデンプレイスタワーＡＫエンタテインメント株式会社（7011001157887）に合併し解散,2024-01-25,1,,,,,エーケーメディア,0
276,2010701044524,登記記録の閉鎖等,0,2024-07-25,2024-07-11,ＮＣ・ＧＤホールディングス株式会社,,株式会社,東京都,品川区,東五反田２丁目２０番４号,,13,109,1410022,,,2024-07-11,合併による解散等,5010701020035,令和６年７月１日東京都品川区東五反田二丁目２０番４号株式会社日本デリカサービス（5010701020035）に合併し解散,2023-07-05,1,,,,,エヌシージーディーホールディングス,0
300,2011401001220,登記記録の閉鎖等,0,2024-07-25,2024-07-16,株式会社小河精機,,株式会社,東京都,板橋区,中台１丁目１番４号,,13,119,1740064,,,2024-07-16,清算の結了等,,,2015-10-05,1,,,,,オガワセイキ,0
301,2011402009452,登記記録の閉鎖等,0,2024-07-25,2024-07-17,有限会社吉田屋商事,,有限会社,東京都,板橋区,成増３丁目１０番１号,,13,119,1750094,,,2024-07-17,清算の結了等,,,2015-10-05,1,,,,,ヨシダヤショウジ,0
314,2012401034689,登記記録の閉鎖等,0,2024-07-25,2024-07-08,株式会社ＶＲＳＴ,,株式会社,東京都,新宿区,箪笥町３４番地ＶＯＲＴ神楽坂Ｉ８Ｆ,00126365,13,104,1620833,,,2024-07-08,清算の結了等,,,2018-11-27,1,,,,,ブイアールエスティー,0
327,2021001052423,登記記録の閉鎖等,0,2024-07-25,2024-07-16,株式会社藤沢パートナーズ,,株式会社,神奈川県,藤沢市,片瀬海岸１丁目１２番４号１０１,,14,205,2510035,,,2024-07-16,清算の結了等,,,2015-10-05,1,,,,,フジサワパートナーズ,0
330,2021002035716,登記記録の閉鎖等,0,2024-07-25,2024-07-23,有限会社川嶋塗装,,有限会社,神奈川県,厚木市,妻田北２丁目１９番１０,,14,212,2430812,,,2024-07-23,清算の結了等,,,2015-10-05,1,,,,,カワシマトソウ,0
352,2050002020337,登記記録の閉鎖等,0,2024-07-25,2024-07-18,有限会社ティムスインターナショナル,,有限会社,東京都,杉並区,高円寺南１丁目５番４号高円寺サンハイツ４０２号,,13,115,1660003,,,2024-07-18,清算の結了等,,,2015-10-05,1,,,,,ティムスインターナショナル,0
355,2060001036291,登記記録の閉鎖等,0,2024-07-25,2024-07-03,株式会社Ｓｌｏｗ　Ｌｉｆｅ,,株式会社,栃木県,小山市,乙女１丁目１５番１号,,09,208,3290214,,,2024-07-03,清算の結了等,,,2023-08-28,1,,,,,スローライフ,0
362,2080101004378,登記記録の閉鎖等,0,2024-07-25,2024-07-01,不二軽窓沼津株式会社,,株式会社,静岡県,沼津市,足高２４１番地の４８,,22,203,4100001,,,2024-07-01,合併による解散等,4080102014688,令和６年７月１日静岡県富士市大渕２４６３番地の１０ハウテックス株式会社（4080102014688）に合併し解散,2015-10-05,1,,,,,フジケイソウヌマヅ,0
372,2120001089192,登記記録の閉鎖等,0,2024-07-25,2024-07-17,株式会社ポケット,,株式会社,大阪府,大阪市中央区,大手前１丁目７番３１号大阪マーチャンダイズ・マート・ビル内,,27,128,5400008,,,2024-07-17,清算の結了等,,,2015-10-05,1,,,,,ポケット,0
388,2120002014109,登記記録の閉鎖等,0,2024-07-25,2024-07-10,有限会社河野工業所,,有限会社,大阪府,大阪市此花区,酉島６丁目１８番２号,,27,104,5540051,,,2024-07-10,清算の結了等,,,2015-10-05,1,,,,,カワノコウギョウショ,0
389,2120002055210,登記記録の閉鎖等,0,2024-07-25,2024-07-24,有限会社川浪商店,,有限会社,大阪府,大阪市西区,江之子島１丁目７番２１－１２０１号,,27,106,5500006,,,2024-07-24,清算の結了等,,,2015-10-05,1,,,,,カワナミショウテン,0
410,2130003006070,登記記録の閉鎖等,0,2024-07-25,2024-07-16,合同会社ペダリング,,合同会社,京都府,京都市上京区,立本寺前町８１シェモアキタガワ２０１,,26,102,6020831,,,2024-07-16,清算の結了等,,,2019-06-24,1,,,,,ペダリング,0
412,2140001057536,登記記録の閉鎖等,0,2024-07-25,2024-07-23,株式会社赤ちゃん堂,,株式会社,兵庫県,姫路市,二階町１５番地,,28,201,6700922,,,2024-07-23,清算の結了等,,,2015-10-05,1,,,,,,0
416,2140001106400,登記記録の閉鎖等,0,2024-07-25,2024-07-22,株式会社ＢＯＢ機工,,株式会社,兵庫県,丹波篠山市,波賀野８８０,,28,221,6692103,,,2024-07-22,清算の結了等,,,2017-06-06,1,,,,,,0
421,2140005001151,登記記録の閉鎖等,0,2024-07-25,2024-06-24,天理教鶯梅分教会,,その他の設立登記法人,兵庫県,神戸市長田区,鶯町３丁目５番１０号,,28,106,6530871,,,2024-06-24,合併による解散等,6140005014406,令和６年６月２４日兵庫県姫路市夢前町莇野３７８番地の２天理教菅野分教会（6140005014406）に合併し解散,2015-10-05,1,,,,,テンリキョウオウバイブンキョウカイ,0
422,2140005012768,登記記録の閉鎖等,0,2024-07-25,2024-07-05,竹田生産森林組合,,その他の設立登記法人,兵庫県,美方郡新温泉町,竹田１９４９番地,,28,586,6696831,,,2024-07-05,清算の結了等,,,2015-10-05,1,,,,,タケダ,0
423,2150001009560,登記記録の閉鎖等,0,2024-07-25,2024-07-24,株式会社みやざき,,株式会社,奈良県,桜井市,大字初瀬１６０５番地,,29,206,6330112,,,2024-07-24,清算の結了等,,,2015-10-05,1,,,,,ミヤザキ,0
429,2180001108376,登記記録の閉鎖等,0,2024-07-25,2024-07-08,株式会社コスモハウス,,株式会社,愛知県,名古屋市守山区,新守山１１０５番地,,23,113,4630070,,,2024-07-08,清算の結了等,,,2015-10-05,1,,,,,コスモハウス,0
435,2180002024309,登記記録の閉鎖等,0,2024-07-25,2024-07-04,有限会社畑商会,,有限会社,愛知県,名古屋市西区,枇杷島５丁目７番２０号,,23,104,4510053,,,2024-07-04,清算の結了等,,,2015-10-05,1,,,,,ハタショウカイ,0
470,2320002009823,登記記録の閉鎖等,0,2024-07-25,2024-07-16,有限会社神田クリーンサービス,,有限会社,大分県,大分市,畑中４丁目６番１７号,,44,201,8700856,,,2024-07-16,清算の結了等,,,2015-10-05,1,,,,,カンダクリーンサービス,0
475,2340002009458,登記記録の閉鎖等,0,2024-07-25,2024-07-19,有限会社南九州コンストラクト,,有限会社,鹿児島県,鹿児島市,南林寺町２５番５号,,46,201,8920834,,,2024-07-19,清算の結了等,,,2015-10-05,1,,,,,ミナミキュウシュウコンストラクト,0
488,2390001009421,登記記録の閉鎖等,0,2024-07-25,2024-07-08,株式会社大共運送,,株式会社,山形県,東根市,大字蟹沢１６９７番地の１,,06,211,9993716,,,2024-07-08,清算の結了等,,,2015-10-05,1,,,,,ダイキョウウンソウ,0
505,2450002005801,登記記録の閉鎖等,0,2024-07-25,2024-07-17,有限会社モールデック,,有限会社,北海道,旭川市,永山九条２丁目２番７号,,01,204,0798419,,,2024-07-17,清算の結了等,,,2015-10-05,1,,,,,モールデック,0
507,2460302004535,登記記録の閉鎖等,0,2024-07-25,2024-07-24,有限会社丸紅竹内呉服店,,有限会社,北海道,網走市,南四条東２丁目９番地,,01,211,0930004,,,2024-07-24,清算の結了等,,,2015-10-05,1,,,,,,0
508,2460305000969,登記記録の閉鎖等,0,2024-07-25,2024-07-01,社会福祉法人湧別福祉会,,その他の設立登記法人,北海道,紋別郡湧別町,東４１番地１,,01,559,0996411,,,2024-07-01,合併による解散等,2460305002016,令和６年７月１日北海道紋別郡湧別町上湧別屯田市街地３３５番地２社会福祉法人上湧別福祉会（4460305000967）と合併して北海道紋別郡湧別町東４１番地１社会福祉法人湧別福祉会（2460305002016）を設立し解散,2015-10-05,1,,,,,ユウベツフクシカイ,0
517,3010001105983,登記記録の閉鎖等,0,2024-07-25,2024-07-16,株式会社フット・スタンプ,,株式会社,神奈川県,小田原市,本町１丁目９－３２－１,,14,206,2500012,,,2024-07-16,清算の結了等,,,2015-10-05,1,,,,,,0
522,3010001221558,登記記録の閉鎖等,0,2024-07-25,2024-07-10,株式会社ヤスナガ,,株式会社,東京都,文京区,根津２丁目２５番６号,,13,105,1130031,,,2024-07-10,清算の結了等,,,2021-10-06,1,,,,,ヤスナガ,0
527,3010002035230,登記記録の閉鎖等,0,2024-07-25,2024-07-10,有限会社マツイ,,有限会社,東京都,文京区,小石川５丁目２５番６号,,13,105,1120002,,,2024-07-10,清算の結了等,,,2015-10-05,1,,,,,マツイ,0
528,3010003023630,登記記録の閉鎖等,0,2024-07-25,2024-07-10,合同会社湊屋,,合同会社,東京都,千代田区,飯田橋４丁目８－６,,13,101,1020072,,,2024-07-10,清算の結了等,,,2016-06-08,1,,,,,ミナトヤ,0
533,3010401111375,登記記録の閉鎖等,0,2024-07-25,2024-07-04,Ｂｌｏｏｍｂｅｒｒｙ　Ｒｅｓｏｒｔｓ　Ｊａｐａｎ株式会社,,株式会社,東京都,港区,芝大門１丁目４番１０号,,13,103,1050012,,,2024-07-04,清算の結了等,,,2015-10-05,1,,,,,ブルームベリーリゾーツジャパン,0
539,3010405019607,登記記録の閉鎖等,0,2024-07-25,2024-07-04,一般社団法人オルケスタ,,その他の設立登記法人,東京都,港区,虎ノ門３丁目２２番１０－２０１号,,13,103,1050001,,,2024-07-04,清算の結了等,,,2021-03-19,1,,,,,オルケスタ,0
565,3011101037159,登記記録の閉鎖等,0,2024-07-25,2024-07-22,株式会社ビーティス,,株式会社,東京都,中央区,日本橋人形町３丁目３番６号,,13,102,1030013,,,2024-07-22,合併による解散等,2010401034593,令和６年７月１日東京都港区港南二丁目１５番１号株式会社ユニリタ（2010401034593）に合併し解散,2015-10-05,1,,,,,ビーティス,0
589,3012802004777,登記記録の閉鎖等,0,2024-07-25,2024-07-16,有限会社東和建具店,,有限会社,東京都,武蔵村山市,大南１丁目１５５番地２,,13,223,2080013,,,2024-07-16,清算の結了等,,,2015-10-05,1,,,,,トウワタテグテン,0
604,3020002010372,登記記録の閉鎖等,0,2024-07-25,2024-07-03,有限会社トミックス,,有限会社,神奈川県,横浜市磯子区,岡村４丁目３０番１２号,,14,107,2350021,,,2024-07-03,清算の結了等,,,2015-10-05,1,,,,,トミックス,0
605,3020003023927,登記記録の閉鎖等,0,2024-07-25,2024-07-04,合同会社Ｍａｒｉｓ,,合同会社,神奈川県,横浜市西区,北幸２丁目１０番地２８むつみビル３Ｆ,,14,103,2200004,,,2024-07-04,清算の結了等,,,2023-05-19,1,,,,,マリス,0
611,3030001033712,登記記録の閉鎖等,0,2024-07-25,2024-07-18,ＫＩＣインターナショナル株式会社,,株式会社,埼玉県,久喜市,古久喜７３０番地６,,11,232,3460001,,,2024-07-18,清算の結了等,,,2015-10-05,1,,,,,ケーアイシーインターナショナル,0
629,3040002102176,登記記録の閉鎖等,0,2024-07-25,2024-07-23,有限会社勝烏,,有限会社,佐賀県,鳥栖市,神辺町４８４番地,,41,203,8410004,,,2024-07-23,清算の結了等,,,2015-10-05,1,,,,,カチカラス,0
631,3050001042819,登記記録の閉鎖等,0,2024-07-25,2024-07-18,ヒロコンスレンテ株式会社,,株式会社,茨城県,守谷市,久保ケ丘２丁目９番地５,,08,224,3020104,,,2024-07-18,清算の結了等,,,2017-05-18,1,,,,,ヒロコンスレンテ,0
636,3070001016382,登記記録の閉鎖等,0,2024-07-25,2024-07-18,中和産業株式会社,,株式会社,群馬県,桐生市,錦町３丁目６番３５号,,10,203,3760023,,,2024-07-18,清算の結了等,,,2015-10-05,1,,,,,ナカワサンギョウ,0
644,3090005004720,登記記録の閉鎖等,0,2024-07-25,2024-06-27,天理教帝島分教会,,その他の設立登記法人,山梨県,韮崎市,清哲町青木１４２９番地,,19,207,4070055,,,2024-06-27,合併による解散等,4120005000384,令和６年６月２４日大阪府大阪市東住吉区今川三丁目２番９号天理教浪華分教会（4120005000384）に合併し解散,2015-10-05,1,,,,,,0
650,3120001169729,登記記録の閉鎖等,0,2024-07-25,2024-07-17,株式会社コウシ,,株式会社,京都府,相楽郡精華町,光台９丁目２３番地１４,,26,366,6190237,,,2024-07-17,清算の結了等,,,2015-10-05,1,,,,,コウシ,0
689,3140002053938,登記記録の閉鎖等,0,2024-07-25,2024-07-22,有限会社エイチ・エス・プラニング,,有限会社,兵庫県,姫路市,書写２６１１番地の４７,,28,201,6712201,,,2024-07-22,清算の結了等,,,2015-10-05,1,,,,,エイチエスプラニング,0
690,3140002054218,登記記録の閉鎖等,0,2024-07-25,2024-07-23,花有限会社,,有限会社,兵庫県,姫路市,町田２１４－７,,28,201,6712217,,,2024-07-23,清算の結了等,,,2015-10-05,1,,,,,ハナ,0
691,3140002062823,登記記録の閉鎖等,0,2024-07-25,2024-07-19,有限会社創和ワークス,,有限会社,兵庫県,小野市,小田町字笹ケ谷５６番地の１１,,28,218,6751301,,,2024-07-19,清算の結了等,,,2015-10-05,1,,,,,ソウワワークス,0
693,3150001009650,登記記録の閉鎖等,0,2024-07-25,2024-07-24,株式会社三輪山勝,,株式会社,奈良県,桜井市,大字出雲１２１７番地,,29,206,6330122,,,2024-07-24,清算の結了等,,,2015-10-05,1,,,,,,0
706,3180001144924,登記記録の閉鎖等,0,2024-07-25,2024-07-08,株式会社二見浦未来工房,,株式会社,愛知県,春日井市,八田町６丁目１３番地１３,,23,206,4860849,,,2024-07-08,清算の結了等,,,2021-02-26,1,,,,,フタミウラミライコウボウ,0
726,3230002010038,登記記録の閉鎖等,0,2024-07-25,2024-07-22,有限会社嶋為商店,,有限会社,富山県,小矢部市,城山町３番６号,,16,209,9320047,,,2024-07-22,清算の結了等,,,2015-10-05,1,,,,,シマタメショウテン,0
734,3260001032476,登記記録の閉鎖等,0,2024-07-25,2024-07-12,株式会社イノベーションスタイル岡山,,株式会社,岡山県,岡山市北区,奥田１丁目５番３０号２０２号,,33,101,7000933,,,2024-07-12,清算の結了等,,,2018-10-16,1,,,,,イノベーションスタイルオカヤマ,0
757,3340002004004,登記記録の閉鎖等,0,2024-07-25,2024-07-18,有限会社寿自動車整備工場,,有限会社,鹿児島県,鹿児島市,宇宿２丁目８番２号,,46,201,8900073,,,2024-07-18,清算の結了等,,,2015-10-05,1,,,,,コトブキジドウシャセイビコウジョウ,0
787,3440001005174,登記記録の閉鎖等,0,2024-07-25,2024-07-22,株式会社ＨＩＲＯ建設,,株式会社,北海道,函館市,柏木町１６番７０号,,01,202,0420942,,,2024-07-22,清算の結了等,,,2015-10-05,1,,,,,ヒロケンセツ,0
792,3450003000024,登記記録の閉鎖等,0,2024-07-25,2024-07-22,合資会社あさひローファーム,,合資会社,北海道,旭川市,川端町一条４丁目１番４号,,01,204,0700811,,,2024-07-22,清算の結了等,,,2015-10-05,1,,,,,アサヒローファーム,0
793,3460301003669,登記記録の閉鎖等,0,2024-07-25,2024-07-24,北海道ビート黒糖株式会社,,株式会社,北海道,網走市,新町３丁目６番２４号,,01,211,0930046,,,2024-07-24,清算の結了等,,,2015-10-05,1,,,,,,0
797,4010001049536,登記記録の閉鎖等,0,2024-07-25,2024-07-10,株式会社竹若,,株式会社,東京都,中央区,築地４丁目７番５号,,13,102,1040045,,,2024-07-10,清算の結了等,,,2015-10-05,1,,,,,タケワカ,0
801,4010001201154,登記記録の閉鎖等,0,2024-07-25,2024-07-16,株式会社オクリー,,株式会社,東京都,豊島区,駒込３丁目１番３号,,13,116,1700003,,,2024-07-16,清算の結了等,,,2019-05-29,1,,,,,オクリー,0
840,4011101003003,登記記録の閉鎖等,0,2024-07-25,2024-07-18,株式会社やぶ成・基,,株式会社,東京都,墨田区,京島１丁目５３番１０号,,13,107,1310046,,,2024-07-18,清算の結了等,,,2015-10-05,1,,,,,ヤブシゲモト,0
845,4011205000169,登記記録の閉鎖等,0,2024-07-25,2024-07-23,医療法人社団愛誠会,,その他の設立登記法人,東京都,中野区,野方１丁目４０番１号,,13,114,1650027,,,2024-07-23,清算の結了等,,,2015-10-05,1,,,,,アイセイカイ,0
864,4013101006984,登記記録の閉鎖等,0,2024-07-25,2024-07-23,株式会社ケー・エス・ケー,,株式会社,東京都,青梅市,友田町４丁目２９５番地の２,,13,205,1980051,,,2024-07-23,清算の結了等,,,2015-10-05,1,,,,,,0
895,4030005001490,登記記録の閉鎖等,0,2024-07-25,2024-07-18,埼玉県牛乳商業組合,,その他の設立登記法人,埼玉県,さいたま市大宮区,東町２丁目２５３番地１１号,,11,103,3300841,,,2024-07-18,清算の結了等,,,2015-10-05,1,,,,,サイタマケンギュウニュウ,0
905,4040002049821,登記記録の閉鎖等,0,2024-07-25,2024-07-09,有限会社誠文堂,,有限会社,千葉県,松戸市,串崎新田２１０番地４,,12,207,2702216,,,2024-07-09,清算の結了等,,,2015-10-05,1,,,,,セイブンドウ,0
906,4040003007101,登記記録の閉鎖等,0,2024-07-25,2024-06-28,合同会社ベストライフ,,合同会社,千葉県,八街市,東吉田６７０番地２６,,12,230,2891114,,,2024-06-28,清算の結了等,,,2015-10-05,1,,,,,ベストライフ,0
923,4080101010060,登記記録の閉鎖等,0,2024-07-25,2024-07-11,フジインターナショナル株式会社,,株式会社,静岡県,静岡市清水区,港町２丁目５番４号,,22,103,4240943,,,2024-07-11,清算の結了等,,,2015-10-05,1,,,,,フジインターナショナル,0
929,4080403000453,登記記録の閉鎖等,0,2024-07-25,2024-07-19,合資会社童心堂書店,,合資会社,静岡県,湖西市,新居町新居７９４番地,,22,221,4310302,,,2024-07-19,清算の結了等,,,2015-10-05,1,,,,,ドウシンドウショテン,0
945,4120001195716,登記記録の閉鎖等,0,2024-07-25,2024-07-24,ワンスリー株式会社,,株式会社,大阪府,枚方市,上島東町８番１３号,,27,210,5731126,,,2024-07-24,清算の結了等,,,2016-01-18,1,,,,,ワンスリー,0
968,4130001039921,登記記録の閉鎖等,0,2024-07-25,2024-07-17,株式会社メディア・ウィーブ,,株式会社,京都府,京都市西京区,松室吾田神町２９５番地,,26,111,6158202,,,2024-07-17,清算の結了等,,,2015-10-05,1,,,,,メディアウィーブ,0
970,4130001070050,登記記録の閉鎖等,0,2024-07-25,2024-07-16,雅フーズ株式会社,,株式会社,京都府,京都市右京区,花園扇野町１１番地４,,26,108,6168044,,,2024-07-16,清算の結了等,,,2021-09-06,1,,,,,ミヤビフーズ,0
978,4130005014078,登記記録の閉鎖等,0,2024-07-25,2024-07-17,特定非営利活動法人亀岡・花と緑の会,,その他の設立登記法人,京都府,亀岡市,南つつじケ丘大葉台１丁目９番１０号,,26,206,6210846,,,2024-07-17,清算の結了等,,,2015-10-05,1,,,,,カメオカハナトミドリノカイ,0
990,4180001027970,登記記録の閉鎖等,0,2024-07-25,2024-07-09,株式会社Ｊ・ＨＡＮＤＳ,,株式会社,愛知県,名古屋市緑区,東神の倉２丁目２０４４番地,,23,114,4580808,,,2024-07-09,清算の結了等,,,2015-10-05,1,,,,,ジェイハンズ,0
995,4180001116749,登記記録の閉鎖等,0,2024-07-25,2024-07-08,株式会社アンビッツ・プラス,,株式会社,愛知県,名古屋市中区,栄５丁目２６番３９号,,23,106,4600008,,,2024-07-08,清算の結了等,,,2015-10-05,1,,,,,アンビッツプラス,0
1003,4190005008900,登記記録の閉鎖等,0,2024-07-25,2024-07-18,特定非営利活動法人泗垂会,,その他の設立登記法人,三重県,四日市市,垂坂町２９９番地,,24,202,5108037,,,2024-07-18,清算の結了等,,,2015-10-05,1,,,,,シスイカイ,0
1006,4200002021375,登記記録の閉鎖等,0,2024-07-25,2024-07-16,有限会社柘植不動産,,有限会社,岐阜県,土岐市,泉町久尻５０９番地の１０,,21,212,5095142,,,2024-07-16,清算の結了等,,,2015-10-05,1,,,,,ツゲフドウサン,0
1008,4200005013089,登記記録の閉鎖等,0,2024-07-25,2024-07-19,一般社団法人住宅診断推進協会,,その他の設立登記法人,岐阜県,高山市,三福寺町２５１番地,,21,203,5060807,,,2024-07-19,清算の結了等,,,2020-08-13,1,,,,,ジュウタクシンダンスイシンキョウカイ,0
1012,4240001024846,登記記録の閉鎖等,0,2024-07-25,2024-07-22,湧永興農株式会社,,株式会社,東京都,新宿区,荒木町１３番地４,,13,104,1600007,,,2024-07-22,合併による解散等,1120001059262,令和６年７月１日大阪市淀川区宮原四丁目５番３６号湧永製薬株式会社（1120001059262）に合併し解散,2015-10-05,1,,,,,ワクナガコウノウ,0
1015,4250002000960,登記記録の閉鎖等,0,2024-07-25,2024-07-18,有限会社タケムラ,,有限会社,山口県,山口市,小郡新町３丁目１番１８号,,35,203,7540031,,,2024-07-18,清算の結了等,,,2015-10-05,1,,,,,タケムラ,0
1016,4250002014787,登記記録の閉鎖等,0,2024-07-25,2024-07-19,有限会社しみず,,有限会社,山口県,周南市,みなみ銀座１丁目９番地,,35,215,7450033,,,2024-07-19,清算の結了等,,,2015-10-05,1,,,,,シミズ,0
1017,4260001002123,登記記録の閉鎖等,0,2024-07-25,2024-07-12,アール空調システムズ株式会社,,株式会社,岡山県,岡山市北区,横井上２０２番地の５,,33,101,7011145,,,2024-07-12,合併による解散等,3260001007081,令和６年７月１日岡山市北区蕃山町３番７号株式会社両備リソラ（3260001007081）に合併し解散,2015-10-05,1,,,,,アールクウチョウシステムズ,0
1023,4290001034881,登記記録の閉鎖等,0,2024-07-25,2024-06-26,株式会社はかた舎,,株式会社,福岡県,福岡市中央区,大名１丁目５番４号福岡エースビル７０１号,,40,133,8100041,,,2024-06-26,清算の結了等,,,2015-10-05,1,,,,,ハカタヤ,0
1028,4290003004107,登記記録の閉鎖等,0,2024-07-25,2024-06-27,合同会社ケアプランサービスかわぐち,,合同会社,福岡県,久留米市,小頭町１１番地３,,40,203,8300045,,,2024-06-27,清算の結了等,,,2015-10-05,1,,,,,ケアプランサービスカワグチ,0
1036,4320202000670,登記記録の閉鎖等,0,2024-07-25,2024-07-17,有限会社津久見石油,,有限会社,大分県,津久見市,大字千怒６０１３番地,,44,207,8792401,,,2024-07-17,清算の結了等,,,2015-10-05,1,,,,,ツクミセキユ,0
1037,4330001003221,登記記録の閉鎖等,0,2024-07-25,2024-07-12,東陽物産株式会社,,株式会社,熊本県,熊本市西区,花園３丁目２４番１号,,43,103,8600072,,,2024-07-12,清算の結了等,,,2015-10-05,1,,,,,トウヨウブッサン,0
1039,4340001008764,登記記録の閉鎖等,0,2024-07-25,2024-07-19,株式会社丸三,,株式会社,鹿児島県,薩摩川内市,湯田町４４２６番地,,46,215,8991802,,,2024-07-19,清算の結了等,,,2015-10-05,1,,,,,マルサン,0
1040,4340001021214,登記記録の閉鎖等,0,2024-07-25,2024-07-22,株式会社モトリク,,株式会社,鹿児島県,鹿児島市,東千石町１６番１８号ＳＴＹＬＩＳＨ６０１号,,46,201,8920842,,,2024-07-22,清算の結了等,,,2018-05-28,1,,,,,モトリク,0
1042,4350002011485,登記記録の閉鎖等,0,2024-07-25,2024-07-16,有限会社ひむかレセプトセンター,,有限会社,宮崎県,日向市,大字財光寺５２８２番地２,,45,206,8830021,,,2024-07-16,清算の結了等,,,2015-10-05,1,,,,,ヒムカレセプトセンター,0
1048,4360002009743,登記記録の閉鎖等,0,2024-07-25,2024-07-19,有限会社球陽企画,,有限会社,沖縄県,那覇市,具志３丁目２番１１号,,47,201,9010146,,,2024-07-19,清算の結了等,,,2015-10-05,1,,,,,キュウヨウキカク,0
1059,4390001002110,登記記録の閉鎖等,0,2024-07-25,2024-07-08,山形冷熱工業株式会社,,株式会社,山形県,山形市,下条町３丁目１１番１３号,,06,201,9900823,,,2024-07-08,清算の結了等,,,2015-10-05,1,,,,,ヤマガタレイネツコウギョウ,0
1068,4420002005439,登記記録の閉鎖等,0,2024-07-25,2024-07-12,有限会社升井商会,,有限会社,青森県,青森市,港町１丁目１９番１４号,,02,201,0300901,,,2024-07-12,清算の結了等,,,2015-10-05,1,,,,,マスイショウカイ,0
1069,4420003002121,登記記録の閉鎖等,0,2024-07-25,2024-07-22,合同会社東奥環境,,合同会社,青森県,上北郡七戸町,字荒熊内５２番地７,,02,402,0392501,,,2024-07-22,清算の結了等,,,2020-04-10,1,,,,,トウオウカンキョウ,0
1071,4430001002675,登記記録の閉鎖等,0,2024-07-25,2024-07-19,株式会社エム・エー設計工房,,株式会社,北海道,札幌市南区,石山二条４丁目１番４０号,,01,106,0050842,,,2024-07-19,清算の結了等,,,2015-10-05,1,,,,,エムエーセッケイコウボウ,0
1077,4430002060664,登記記録の閉鎖等,0,2024-07-25,2024-07-16,有限会社長尾組鉄工,,有限会社,北海道,苫小牧市,新明町３丁目５番１２号,,01,213,0530055,,,2024-07-16,清算の結了等,,,2015-10-05,1,,,,,ナガオクミテッコウ,0
1081,4430005010121,登記記録の閉鎖等,0,2024-07-25,2024-07-19,特定非営利活動法人伊達市カーリング協会,,その他の設立登記法人,北海道,伊達市,竹原町１９番地１７,,01,233,0520011,,,2024-07-19,清算の結了等,,,2015-10-05,1,,,,,ダテシカーリングキョウカイ,0
1083,4460102003454,登記記録の閉鎖等,0,2024-07-25,2024-07-23,有限会社宮下建業,,有限会社,北海道,帯広市,依田町２９番地２,,01,207,0800817,,,2024-07-23,清算の結了等,,,2015-10-05,1,,,,,ミヤシタケンギョウ,0
1084,4460305000967,登記記録の閉鎖等,0,2024-07-25,2024-07-01,社会福祉法人上湧別福祉会,,その他の設立登記法人,北海道,紋別郡湧別町,上湧別屯田市街地３３５番地２,,01,559,0996501,,,2024-07-01,合併による解散等,2460305002016,令和６年７月１日北海道紋別郡湧別町東４１番地１社会福祉法人湧別福祉会（2460305000969）と合併して北海道紋別郡湧別町東４１番地１社会福祉法人湧別福祉会（2460305002016）を設立し解散,2015-10-05,1,,,,,カミユウベツフクシカイ,0
1086,5010001167155,登記記録の閉鎖等,0,2024-07-25,2024-07-10,株式会社Ｂｅｓｔ　Ｗａｙ,,株式会社,東京都,千代田区,神田駿河台３丁目３番１号の１佐藤ビル２階,,13,101,1010062,,,2024-07-10,清算の結了等,,,2015-10-05,1,,,,,ベストウェイ,0
1102,5010005029434,登記記録の閉鎖等,0,2024-07-25,2024-07-11,Ｋａｎｎａｉ　Ｊａｐａｎ　Ｈｏｌｄｉｎｇ特定目的会社,,その他の設立登記法人,東京都,千代田区,霞が関３丁目２番５号霞が関ビル,,13,101,1000013,,,2024-07-11,清算の結了等,,,2018-12-04,1,,,,,カンナイジャパンホールディング,0
1107,5010401129341,登記記録の閉鎖等,0,2024-07-25,2024-07-04,株式会社企業タカヤマ,,株式会社,東京都,港区,東新橋１丁目１０番２－１４０３号,,13,103,1050021,,,2024-07-04,清算の結了等,,,2017-01-27,1,,,,,キギョウタカヤマ,0
1142,5011105005531,登記記録の閉鎖等,0,2024-07-25,2024-07-09,税理士法人ＹＡＭＡＴＯ事務所,,その他の設立登記法人,東京都,新宿区,西新宿７丁目１番７－１０１３号,,13,104,1600023,,,2024-07-09,清算の結了等,,,2015-10-05,1,,,,,ヤマトジムショ,0
1146,5011302007355,登記記録の閉鎖等,0,2024-07-25,2024-07-22,有限会社花磯,,有限会社,東京都,杉並区,下高井戸１丁目１番９号,,13,115,1680073,,,2024-07-22,清算の結了等,,,2015-10-05,1,,,,,ハナイソ,0
1149,5011405001528,登記記録の閉鎖等,0,2024-07-25,2024-07-17,一般社団法人日本ナニー協会,,その他の設立登記法人,東京都,板橋区,前野町４丁目４０番１－１０２号,,13,119,1740063,,,2024-07-17,清算の結了等,,,2015-10-05,1,,,,,ニホンナニーキョウカイ,0
1160,5012702010147,登記記録の閉鎖等,0,2024-07-25,2024-07-18,エーアンドエー総合企画有限会社,,有限会社,東京都,西東京市,ひばりが丘北４丁目４番９号,,13,229,2020002,,,2024-07-18,清算の結了等,,,2015-10-05,1,,,,,エーアンドエーソウゴウキカク,0
1163,5013401005413,登記記録の閉鎖等,0,2024-07-25,2024-07-16,株式会社アトリエアラモード,,株式会社,東京都,日野市,三沢３丁目１８番地の５,,13,212,1910032,,,2024-07-16,清算の結了等,,,2015-10-05,1,,,,,アトリエアラモード,0
1166,5020001120550,登記記録の閉鎖等,0,2024-07-25,2024-07-03,株式会社あいぷらす,,株式会社,神奈川県,横浜市中区,羽衣町２丁目５番,,14,104,2310047,,,2024-07-03,合併による解散等,8020001042981,令和６年７月１日横浜市中区羽衣町二丁目５番株式会社アビバ（8020001042981）に合併し解散,2017-03-24,1,,,,,アイプラス,0
1170,5021001013397,登記記録の閉鎖等,0,2024-07-25,2024-07-23,株式会社永井,,株式会社,神奈川県,相模原市緑区,青山３８９番地の４,,14,151,2520156,,,2024-07-23,清算の結了等,,,2015-10-05,1,,,,,ナガイ,0
1173,5021001018124,登記記録の閉鎖等,0,2024-07-25,2024-07-24,株式会社ムラカミ,,株式会社,神奈川県,相模原市中央区,淵野辺本町４丁目３０番２号ロイヤルクレスト１０５,,14,152,2520202,,,2024-07-24,清算の結了等,,,2015-10-05,1,,,,,,0
1212,5080401025162,登記記録の閉鎖等,0,2024-07-25,2024-07-18,華谷株式会社,,株式会社,静岡県,浜松市中央区,西ケ崎町６０３番地,,22,138,4313115,,,2024-07-18,清算の結了等,,,2021-07-07,1,,,,,ハナダニ,0
1220,5120001006797,登記記録の閉鎖等,0,2024-07-25,2024-07-23,株式会社沖縄ヨシゲングループ本社,,株式会社,大阪府,大阪市阿倍野区,昭和町１丁目２０番２２－１００６号,,27,119,5450011,,,2024-07-23,清算の結了等,,,2015-10-05,1,,,,,オキナワヨシゲングループホンシャ,0
1222,5120001145430,登記記録の閉鎖等,0,2024-07-25,2024-07-17,大伸テック株式会社,,株式会社,大阪府,大阪市中央区,備後町１丁目４番１６号（１０２号室）,,27,128,5410051,,,2024-07-17,清算の結了等,,,2015-10-05,1,,,,,ダイシンテック,0
1224,5120001161683,登記記録の閉鎖等,0,2024-07-25,2024-07-17,ウィル・スキル・アソシエイト株式会社,,株式会社,大阪府,大阪市北区,梅田１丁目２－２大阪駅前第２ビル１２－１２,,27,127,5300001,,,2024-07-17,清算の結了等,,,2015-10-05,1,,,,,ウィルスキルアソシエイト,0
1240,5130001014733,登記記録の閉鎖等,0,2024-07-25,2024-07-18,株式会社城辰電設工事,,株式会社,京都府,京都市伏見区,桃山毛利長門西町４９番地の６,,26,109,6120064,,,2024-07-18,清算の結了等,,,2015-10-05,1,,,,,ジョウシンデンセツコウジ,0
1245,5140001077713,登記記録の閉鎖等,0,2024-07-25,2024-07-18,株式会社あすなろ,,株式会社,兵庫県,神戸市西区,岩岡町野中６６９番地,,28,111,6512405,,,2024-07-18,清算の結了等,,,2015-10-05,1,,,,,アスナロ,0
1273,5190001024990,登記記録の閉鎖等,0,2024-07-25,2024-07-24,三重中部産業調査株式会社,,株式会社,三重県,津市,観音寺町６０４番地１３２,,24,201,5140062,,,2024-07-24,清算の結了等,,,2017-10-06,1,,,,,ミエチュウブサンギョウチョウサ,0
1278,5200002019864,登記記録の閉鎖等,0,2024-07-25,2024-07-22,有限会社アサイ設計,,有限会社,岐阜県,土岐市,泉が丘町４丁目１０９番地,,21,212,5095161,,,2024-07-22,清算の結了等,,,2015-10-05,1,,,,,アサイセッケイ,0
1288,5240001006488,登記記録の閉鎖等,0,2024-07-25,2024-07-19,株式会社タマダ,,株式会社,広島県,広島市南区,旭２丁目１７番６号,,34,103,7340036,,,2024-07-19,清算の結了等,,,2015-10-05,1,,,,,タマダ,0
1291,5250001000226,登記記録の閉鎖等,0,2024-07-25,2024-07-23,株式会社佐伯商店,,株式会社,山口県,山口市,泉都町１２番１１号,,35,203,7530076,,,2024-07-23,清算の結了等,,,2015-10-05,1,,,,,サエキショウテン,0
1294,5280001004562,登記記録の閉鎖等,0,2024-07-25,2024-07-17,株式会社アメックス協販,,株式会社,島根県,江津市,都野津町２２７７番地３３,,32,207,6950021,,,2024-07-17,清算の結了等,,,2015-10-05,1,,,,,アメックスキョウハン,0
1321,5380001012927,登記記録の閉鎖等,0,2024-07-25,2024-07-17,株式会社佐川材木店,00083149,株式会社,福島県,いわき市,永崎字町田１８番地,,07,204,9700315,,,2024-07-17,清算の結了等,,,2015-10-05,1,,,,,サガワザイモクテン,0
1330,5430001087393,登記記録の閉鎖等,0,2024-07-25,2024-07-17,株式会社訳ありストア北の愛食,,株式会社,北海道,石狩市,樽川八条３丁目３番地,,01,235,0613258,,,2024-07-17,清算の結了等,,,2022-08-31,1,,,,,ワケアリストアキタノアイショク,0
1331,5430002010981,登記記録の閉鎖等,0,2024-07-25,2024-07-17,有限会社西和ビジネス,,有限会社,北海道,札幌市西区,平和二条９丁目１０番１０号,,01,107,0630022,,,2024-07-17,清算の結了等,,,2015-10-05,1,,,,,セイワビジネス,0
1347,6010005032940,登記記録の閉鎖等,0,2024-07-25,2024-07-10,ＡＴＦ特定目的会社,,その他の設立登記法人,東京都,千代田区,平河町１丁目６番１５号シルスフィア会計事務所内,,13,101,1020093,,,2024-07-10,清算の結了等,,,2021-02-16,1,,,,,エーティーエフ,0
1349,6010101003531,登記記録の閉鎖等,0,2024-07-25,2024-07-23,株式会社プロストック,,株式会社,東京都,八王子市,寺田町１０７５番地７,,13,201,1930943,,,2024-07-23,清算の結了等,,,2015-10-05,1,,,,,プロストック,0
1362,6010601014879,登記記録の閉鎖等,0,2024-07-25,2024-07-22,八光金属興業株式会社,,株式会社,東京都,墨田区,亀沢３丁目１２番３号,,13,107,1300014,,,2024-07-22,清算の結了等,,,2015-10-05,1,,,,,ハッコウキンゾクコウギョウ,0
1386,6011101052840,登記記録の閉鎖等,0,2024-07-25,2024-07-10,株式会社ビーティエヌ,,株式会社,東京都,新宿区,若葉１丁目２１番地マンションリキュー４１号,,13,104,1600011,,,2024-07-10,清算の結了等,,,2015-10-05,1,,,,,ビーティエヌ,0
1403,6011503003227,登記記録の閉鎖等,0,2024-07-25,2024-07-16,財成合同会社,,合同会社,東京都,江戸川区,西葛西６丁目４番１２号,,13,123,1340088,,,2024-07-16,清算の結了等,,,2017-03-17,1,,,,,ザイセイ,0
1404,6011601012831,登記記録の閉鎖等,0,2024-07-25,2024-07-18,株式会社ペリオディーク・コンサルティング,,株式会社,東京都,練馬区,高野台３丁目２５番１２号,,13,120,1770033,,,2024-07-18,清算の結了等,,,2015-10-05,1,,,,,ペリオディークコンサルティング,0
1415,6013202001742,登記記録の閉鎖等,0,2024-07-25,2024-07-04,有限会社カコカロ,,有限会社,東京都,目黒区,東山２丁目９番１７号,,13,110,1530043,,,2024-07-04,清算の結了等,,,2015-10-05,1,,,,,カコカロ,0
1416,6013301018646,登記記録の閉鎖等,0,2024-07-25,2024-07-12,株式会社エイ・ピー・ネットワーク,,株式会社,東京都,豊島区,東池袋１丁目４７番９号,,13,116,1700013,,,2024-07-12,清算の結了等,,,2015-10-05,1,,,,,エイピーネットワーク,0
1428,6020005002265,登記記録の閉鎖等,0,2024-07-25,2024-06-28,神奈川建設事業協同組合,,その他の設立登記法人,神奈川県,横浜市中区,松影町１丁目３番７号,,14,104,2310025,,,2024-06-28,清算の結了等,,,2015-10-05,1,,,,,カナガワケンセツ,0
1431,6021001016267,登記記録の閉鎖等,0,2024-07-25,2024-07-24,株式会社グローバルヘルス,,株式会社,神奈川県,相模原市緑区,寸沢嵐３１０６番地２１,,14,151,2520176,,,2024-07-24,清算の結了等,,,2015-10-05,1,,,,,,0
1433,6021002059158,登記記録の閉鎖等,0,2024-07-25,2024-07-22,有限会社ハッピーライフ,,有限会社,神奈川県,平塚市,松風町２６番１４号,,14,203,2540812,,,2024-07-22,清算の結了等,,,2015-10-05,1,,,,,ハッピーライフ,0
1445,6030001142171,登記記録の閉鎖等,0,2024-07-25,2024-07-16,株式会社ＡＳＮＰＯ,,株式会社,埼玉県,川口市,末広１丁目１６番７－９１４号リビオシティ川口元郷,,11,203,3320006,,,2024-07-16,清算の結了等,,,2021-05-19,1,,,,,アサノプロ,0
1456,6050002041338,登記記録の閉鎖等,0,2024-07-25,2024-07-16,有限会社高野倉庫,,有限会社,茨城県,常総市,古間木４１２番地の１,,08,211,3002724,,,2024-07-16,清算の結了等,,,2015-10-05,1,,,,,タカノソウコ,0
1459,6060001036288,登記記録の閉鎖等,0,2024-07-25,2024-07-03,株式会社Ｎｅｗ　Ｗｉｎｄ,,株式会社,栃木県,小山市,乙女１丁目１５番１号,,09,208,3290214,,,2024-07-03,清算の結了等,,,2023-08-28,1,,,,,ニューウィンド,0
1462,6070002009606,登記記録の閉鎖等,0,2024-07-25,2024-07-23,有限会社群水精算センター,,有限会社,群馬県,高崎市,下大類町１２５８番地,,10,202,3700034,,,2024-07-23,清算の結了等,,,2015-10-05,1,,,,,グンスイセイサンセンター,0
1468,6080102007756,登記記録の閉鎖等,0,2024-07-25,2024-07-10,有限会社光暉エンジニアリング,,有限会社,静岡県,御殿場市,竈４５４番地の６,,22,215,4120039,,,2024-07-10,清算の結了等,,,2015-10-05,1,,,,,コウキエンジニアリング,0
1476,6100002030715,登記記録の閉鎖等,0,2024-07-25,2024-07-05,有限会社アオキ,,有限会社,長野県,諏訪郡原村,１３６５３番地,,20,363,3910100,,,2024-07-05,清算の結了等,,,2015-10-05,1,,,,,アオキ,0
1479,6110002005212,登記記録の閉鎖等,0,2024-07-25,2024-07-12,有限会社梅養社,,有限会社,新潟県,新潟市中央区,幸西４丁目３番２８号,,15,103,9500908,,,2024-07-12,清算の結了等,,,2015-10-05,1,,,,,バイヨウシャ,0
1481,6110002016259,登記記録の閉鎖等,0,2024-07-25,2024-07-16,有限会社花野精肉店,,有限会社,新潟県,胎内市,東本町３番４号,,15,227,9592643,,,2024-07-16,清算の結了等,,,2015-10-05,1,,,,,ハナノセイニクテン,0
1485,6120001020715,登記記録の閉鎖等,0,2024-07-25,2024-07-24,竹迫ニューパック株式会社,,株式会社,大阪府,大阪市平野区,平野北２丁目６番５号,,27,126,5470041,,,2024-07-24,清算の結了等,,,2015-10-05,1,,,,,タケサコニューパック,0
1493,6120101021654,登記記録の閉鎖等,0,2024-07-25,2024-07-22,東洋メンテナンス株式会社,,株式会社,大阪府,堺市美原区,丹上２７０番地,,27,147,5870011,,,2024-07-22,合併による解散等,7120101021653,令和６年７月２１日大阪府堺市美原区丹上２７０番地東洋炉工業株式会社（7120101021653）に合併し解散,2015-10-05,1,,,,,トウヨウメンテナンス,0
1506,6140001006893,登記記録の閉鎖等,0,2024-07-25,2024-07-19,株式会社笠原装備店,,株式会社,兵庫県,神戸市灘区,箕岡通４丁目４番２２号,,28,102,6570812,,,2024-07-19,清算の結了等,,,2015-10-05,1,,,,,カサハラセイビテン,0
1516,6150002008599,登記記録の閉鎖等,0,2024-07-25,2024-07-22,有限会社パールシステム,,有限会社,奈良県,橿原市,白橿町２丁目１３番１８号,,29,205,6340051,,,2024-07-22,清算の結了等,,,2015-10-05,1,,,,,パールシステム,0
1533,6190003004668,登記記録の閉鎖等,0,2024-07-25,2024-07-23,合同会社ＨＮ　ＫＩＴＣＨＥＮ,,合同会社,三重県,四日市市,泊山崎町２番３３号パークハイムトマリＣ‐２０２,,24,202,5100892,,,2024-07-23,清算の結了等,,,2024-05-02,1,,,,,エイチエヌキッチン,0
1543,6220001023071,登記記録の閉鎖等,0,2024-07-25,2024-07-12,株式会社トリプルワン,,株式会社,石川県,金沢市,八日市３丁目６０４番地,,17,201,9218064,,,2024-07-12,清算の結了等,,,2019-08-27,1,,,,,,0
1550,6240005015088,登記記録の閉鎖等,0,2024-07-25,2024-07-19,新開鉄工協同組合,,その他の設立登記法人,広島県,広島市安芸区,矢野町住吉５３７３番地,,34,107,7360087,,,2024-07-19,清算の結了等,,,2020-09-18,1,,,,,シンガイテッコウ,0
1555,6250003003201,登記記録の閉鎖等,0,2024-07-25,2024-07-18,合同会社ＦＹＤ,,合同会社,山口県,下関市,向洋町３丁目１３番２６号,,35,201,7500041,,,2024-07-18,清算の結了等,,,2022-12-21,1,,,,,エフワイディ,0
1557,6290001080387,登記記録の閉鎖等,0,2024-07-25,2024-06-26,株式会社ＲＩＴＡスマイリング,,株式会社,福岡県,福岡市中央区,白金１丁目５番２２号,,40,133,8100012,,,2024-06-26,清算の結了等,,,2018-01-30,1,,,,,リタスマイリング,0
1573,6340001018729,登記記録の閉鎖等,0,2024-07-25,2024-07-19,株式会社たくみ,,株式会社,鹿児島県,大島郡徳之島町,亀徳３３１４番地４,,46,530,8917102,,,2024-07-19,清算の結了等,,,2015-10-05,1,,,,,タクミ,0
1577,6360001021929,登記記録の閉鎖等,0,2024-07-25,2024-07-11,株式会社Ｇｒａｎｃｅｌｌ,,株式会社,沖縄県,中頭郡西原町,字上原２０７番地,,47,329,9030125,,,2024-07-11,合併による解散等,3360001031550,令和６年７月１日沖縄県うるま市字州崎５－１Ｔ＆Ｇ　Ｈｏｌｄｉｎｇｓ株式会社（3360001031550）に合併し解散,2017-02-16,1,,,,,グランセル,0
1587,6390002012429,登記記録の閉鎖等,0,2024-07-25,2024-07-08,有限会社旅館松浦屋,,有限会社,山形県,東根市,温泉町１丁目９番１３号,,06,211,9993702,,,2024-07-08,清算の結了等,,,2015-10-05,1,,,,,リョカンマツウラヤ,0
1590,6420001012310,登記記録の閉鎖等,0,2024-07-25,2024-07-19,株式会社セラミカ電通,,株式会社,青森県,上北郡東北町,字滝沢平２番地２４０９,,02,408,0392631,,,2024-07-19,清算の結了等,,,2015-10-05,1,,,,,セラミカデンツウ,0
1597,6430003005030,登記記録の閉鎖等,0,2024-07-25,2024-07-10,エアライン・アライアンス合同会社,,合同会社,東京都,千代田区,二番町５番地２麹町駅プラザ９０１,,13,101,1020084,,,2024-07-10,清算の結了等,,,2015-10-05,1,,,,,エアラインアライアンス,0
1625,7010601019076,登記記録の閉鎖等,0,2024-07-25,2024-07-22,株式会社辰巳エンタープライズ,,株式会社,東京都,墨田区,東向島２丁目４２番１号,,13,107,1310032,,,2024-07-22,清算の結了等,,,2015-10-05,1,,,,,タツミエンタープライズ,0
1631,7010701024637,登記記録の閉鎖等,0,2024-07-25,2024-07-05,Ｋｏｎｇｓｂｅｒｇ　Ａｕｔｏｍｏｔｉｖｅ株式会社,,株式会社,東京都,港区,港南２丁目１６番２号太陽生命品川ビル２８Ｆ,,13,103,1080075,,,2024-07-05,清算の結了等,,,2015-10-05,1,,,,,コングスバーグオートモーティブ,0
1632,7010701036871,登記記録の閉鎖等,0,2024-07-25,2024-07-10,株式会社ネクサスプランニング,,株式会社,東京都,中央区,銀座１丁目２２番１１号－２Ｆ,,13,102,1040061,,,2024-07-10,清算の結了等,,,2018-12-17,1,,,,,,0
1642,7011001111316,登記記録の閉鎖等,0,2024-07-25,2024-07-05,株式会社スピークロー,,株式会社,東京都,渋谷区,本町３丁目４４番２号,,13,113,1510071,,,2024-07-05,清算の結了等,,,2016-06-09,1,,,,,スピークロー,0
1644,7011001132428,登記記録の閉鎖等,0,2024-07-25,2024-07-04,株式会社Ｆｅｌｉｂｅｒ,,株式会社,東京都,渋谷区,神宮前１丁目１５－１２－２０６,,13,113,1500001,,,2024-07-04,清算の結了等,,,2020-02-14,1,,,,,フェリベル,0
1649,7011003018930,登記記録の閉鎖等,0,2024-07-25,2024-07-05,合同会社Ｓｏｕｐｌｅ　Ｖｉｅ,,合同会社,東京都,渋谷区,渋谷１丁目２５番９号,,13,113,1500002,,,2024-07-05,清算の結了等,,,2024-04-09,1,,,,,スープルヴィー,0
1663,7011603002094,登記記録の閉鎖等,0,2024-07-25,2024-07-19,合同会社ＩＫＥＤＡ無線,,合同会社,東京都,練馬区,東大泉２丁目５番１－６１２号,,13,120,1780063,,,2024-07-19,清算の結了等,,,2017-05-19,1,,,,,イケダムセン,0
1673,7020001003480,登記記録の閉鎖等,0,2024-07-25,2024-07-02,横浜帽子株式会社,,株式会社,神奈川県,横浜市南区,弘明寺町字山下２９３番地,,14,105,2320067,,,2024-07-02,清算の結了等,,,2015-10-05,1,,,,,ヨコハマボウシ,0
1677,7020001145216,登記記録の閉鎖等,0,2024-07-25,2024-07-04,株式会社Ｋフードサービス,,株式会社,神奈川県,横浜市中区,長者町９丁目１７４番地第５吉田ビル３０１,,14,104,2310033,,,2024-07-04,清算の結了等,,,2022-02-15,1,,,,,ケイフードサービス,0
1682,7021001017058,登記記録の閉鎖等,0,2024-07-25,2024-07-24,株式会社サンキコンポジット,,株式会社,神奈川県,相模原市中央区,南橋本４丁目６番６号,,14,152,2520253,,,2024-07-24,清算の結了等,,,2015-10-05,1,,,,,,0
1690,7021003005837,登記記録の閉鎖等,0,2024-07-25,2024-07-24,合同会社成咫屋,,合同会社,神奈川県,藤沢市,片瀬海岸３丁目２０番地２３号,,14,205,2510035,,,2024-07-24,清算の結了等,,,2016-03-03,1,,,,,,0
1691,7021003009482,登記記録の閉鎖等,0,2024-07-25,2024-07-23,合同会社Ｄ＆Ｈ,,合同会社,神奈川県,藤沢市,亀井野８６０番地の１,,14,205,2520813,,,2024-07-23,清算の結了等,,,2020-06-30,1,,,,,ディーアンドエイチ,0
1707,7040002102841,登記記録の閉鎖等,0,2024-07-25,2024-07-09,有限会社山口工務店,,有限会社,千葉県,いすみ市,大原９１６６番地,,12,238,2980004,,,2024-07-09,清算の結了等,,,2015-10-05,1,,,,,ヤマグチコウムテン,0
1720,7100003006614,登記記録の閉鎖等,0,2024-07-25,2024-07-05,花と木の実ｃｏｃｏｃｈｉｙａ合同会社,,合同会社,長野県,上高井郡小布施町,大字山王島９０番地２,,20,541,3810205,,,2024-07-05,清算の結了等,,,2022-07-08,1,,,,,ハナトキノミココチヤ,0
1723,7110002005806,登記記録の閉鎖等,0,2024-07-25,2024-07-16,有限会社フレンド薬局,,有限会社,新潟県,新潟市西区,中権寺２３８７番地３,,15,107,9502251,,,2024-07-16,清算の結了等,,,2015-10-05,1,,,,,フレンドヤッキョク,0
1753,7140001058307,登記記録の閉鎖等,0,2024-07-25,2024-07-22,株式会社カンダ,,株式会社,兵庫県,姫路市,紺屋町６１番地,,28,201,6700924,,,2024-07-22,清算の結了等,,,2015-10-05,1,,,,,カンダ,0
1763,7140005023760,登記記録の閉鎖等,0,2024-07-25,2024-07-24,行政書士法人三佐藤事務所,,その他の設立登記法人,兵庫県,神戸市中央区,北長狭通４丁目３番８号,,28,110,6500012,,,2024-07-24,清算の結了等,,,2017-10-10,1,,,,,ミサトウジムショ,0
1779,7190003004667,登記記録の閉鎖等,0,2024-07-25,2024-07-23,合同会社ＭＺ　ＴＥＣＨＮＩＣ,,合同会社,三重県,四日市市,泊山崎町２番３３号パークハイムトマリＣ‐２０２,,24,202,5100892,,,2024-07-23,清算の結了等,,,2024-05-02,1,,,,,エムズテクニック,0
1781,7200002019235,登記記録の閉鎖等,0,2024-07-25,2024-07-23,有限会社モリツネ,,有限会社,岐阜県,関市,倉知１７３５番地の２,,21,205,5013936,,,2024-07-23,清算の結了等,,,2015-10-05,1,,,,,モリツネ,0
1788,7250001005207,登記記録の閉鎖等,0,2024-07-25,2024-07-19,株式会社小澤,,株式会社,山口県,下関市,伊倉新町２丁目２番１１号,,35,201,7510869,,,2024-07-19,清算の結了等,,,2015-10-05,1,,,,,オザワ,0
1798,7280003000681,登記記録の閉鎖等,0,2024-07-25,2024-07-23,合同会社大宮,,合同会社,島根県,出雲市,大津町２７１５番地,,32,203,6930011,,,2024-07-23,清算の結了等,,,2015-10-05,1,,,,,オオミヤ,0
1819,7350005003634,登記記録の閉鎖等,0,2024-07-25,2024-07-12,都城地区素材生産事業協同組合,,その他の設立登記法人,宮崎県,北諸県郡三股町,大字長田４８８０番地６,,45,341,8891911,,,2024-07-12,清算の結了等,,,2015-10-05,1,,,,,ミヤコノジョウチクソザイセイサン,0
1825,7360002019120,登記記録の閉鎖等,0,2024-07-25,2024-07-19,有限会社豊正タイル,,有限会社,沖縄県,宜野湾市,大山１丁目９番１２号,,47,205,9012223,,,2024-07-19,清算の結了等,,,2015-10-05,1,,,,,ホウセイタイル,0
1833,7380002003337,登記記録の閉鎖等,0,2024-07-25,2024-07-17,有限会社保剛,,有限会社,福島県,福島市,岡部字当木２１番地の１,,07,201,9608204,,,2024-07-17,清算の結了等,,,2015-10-05,1,,,,,,0
1834,7390001005424,登記記録の閉鎖等,0,2024-07-25,2024-07-08,株式会社ジェネバ,,株式会社,山形県,山形市,上桜田４丁目５番９号,,06,201,9902421,,,2024-07-08,清算の結了等,,,2015-10-05,1,,,,,ジェネバ,0
1835,7390002009192,登記記録の閉鎖等,0,2024-07-25,2024-07-08,有限会社小野きのこ生産センター,,有限会社,山形県,鶴岡市,三瀬戊３９３番地,,06,203,9997463,,,2024-07-08,清算の結了等,,,2015-10-05,1,,,,,オノキノコセイサンセンター,0
1839,7430001008182,登記記録の閉鎖等,0,2024-07-25,2024-07-24,新和建設株式会社,,株式会社,北海道,札幌市厚別区,もみじ台西３丁目１番６号,,01,108,0040013,,,2024-07-24,清算の結了等,,,2015-10-05,1,,,,,シンワケンセツ,0
1845,7430002038922,登記記録の閉鎖等,0,2024-07-25,2024-07-18,有限会社札幌ガードセキュリティ,,有限会社,北海道,札幌市東区,伏古一条４丁目２番７号,,01,103,0070861,,,2024-07-18,清算の結了等,,,2015-10-05,1,,,,,サッポロ,0
1859,7470002003666,登記記録の閉鎖等,0,2024-07-25,2024-07-17,有限会社翔和,,有限会社,香川県,高松市,東植田町７５１番地２,,37,201,7610446,,,2024-07-17,清算の結了等,,,2015-10-05,1,,,,,ショウワ,0
1863,7500001001485,登記記録の閉鎖等,0,2024-07-25,2024-07-12,株式会社クリアハウス,,株式会社,愛媛県,松山市,姫原３丁目７番４６号,,38,201,7918012,,,2024-07-12,清算の結了等,,,2015-10-05,1,,,,,クリアハウス,0
1872,8010005024556,登記記録の閉鎖等,0,2024-07-25,2024-07-11,ＡＰ　ＪＮＷＴ特定目的会社,,その他の設立登記法人,東京都,千代田区,神田神保町１丁目１１番地さくら綜合事務所内,,13,101,1010051,,,2024-07-11,清算の結了等,,,2015-10-28,1,,,,,エーピージェイエヌダブリューティー,0
1891,8010902023214,登記記録の閉鎖等,0,2024-07-25,2024-07-18,有限会社ピーアンドエムアソシエーション,,有限会社,東京都,世田谷区,南烏山６丁目６番２号,,13,112,1570062,,,2024-07-18,清算の結了等,,,2015-10-05,1,,,,,ピーアンドエムアソシエーション,0
1906,8011202002783,登記記録の閉鎖等,0,2024-07-25,2024-07-01,有限会社新越管財,,有限会社,東京都,中野区,新井５丁目１７番２号,,13,114,1650026,,,2024-07-01,合併による解散等,7011202002784,令和６年６月３０日東京都中野区新井五丁目１７番２号株式会社新越泉（7011202002784）に合併し解散,2015-10-05,1,,,,,シンエツカンザイ,0
1910,8011502012623,登記記録の閉鎖等,0,2024-07-25,2024-07-24,有限会社ティ・ラウンド,,有限会社,東京都,荒川区,町屋２丁目１３番２０号,,13,118,1160001,,,2024-07-24,清算の結了等,,,2015-10-05,1,,,,,,0
1911,8011602008554,登記記録の閉鎖等,0,2024-07-25,2024-07-17,福岡土木有限会社,,有限会社,東京都,練馬区,春日町４丁目２２番１号,,13,120,1790074,,,2024-07-17,清算の結了等,,,2015-10-05,1,,,,,フクオカドボク,0
1939,8021002067340,登記記録の閉鎖等,0,2024-07-25,2024-07-23,有限会社盛鉄筋,,有限会社,神奈川県,横須賀市,太田和１丁目３７番１１号,,14,201,2380311,,,2024-07-23,清算の結了等,,,2015-10-05,1,,,,,,0
1941,8030001041801,登記記録の閉鎖等,0,2024-07-25,2024-07-19,株式会社和幸ホーム,,株式会社,埼玉県,上尾市,中妻１丁目５番地１８,,11,219,3620072,,,2024-07-19,清算の結了等,,,2015-10-05,1,,,,,ワコウホーム,0
1949,8040001116445,登記記録の閉鎖等,0,2024-07-25,2024-07-09,株式会社ＩＮＧ,,株式会社,千葉県,千葉市稲毛区,小仲台３丁目１０番１６号,,12,103,2630043,,,2024-07-09,清算の結了等,,,2020-12-25,1,,,,,イング,0
1952,8050001005845,登記記録の閉鎖等,0,2024-07-25,2024-07-18,株式会社ベストパートナー,,株式会社,茨城県,水戸市,大塚町１２０７番地の３,,08,201,3114143,,,2024-07-18,清算の結了等,,,2015-10-05,1,,,,,ベストパートナー,0
1953,8050001040875,登記記録の閉鎖等,0,2024-07-25,2024-07-17,株式会社エスプリパーツ,,株式会社,茨城県,坂東市,小泉２８８－１,,08,228,3060635,,,2024-07-17,合併による解散等,3080101017263,令和６年７月１日静岡県熱海市東海岸町１番１４号株式会社ワイアンドワイ（3080101017263）に合併し解散,2016-04-22,1,,,,,エスプリパーツ,0
1957,8050003004102,登記記録の閉鎖等,0,2024-07-25,2024-07-17,ＡＤＩＡ　ＩＮＴＥＲＮＡＴＩＯＮＡＬ合同会社,,合同会社,埼玉県,川越市,大字中福９６１番地１,,11,201,3501156,,,2024-07-17,合併による解散等,7030001159231,令和６年７月１６日埼玉県所沢市松葉町３０番２３号ＨＦＡ＆Ｐｅｒｋｓ　ＢＤ株式会社（7030001159231）に合併し解散,2018-03-05,1,,,,,アディアインターナショナル,0
1960,8060001034967,登記記録の閉鎖等,0,2024-07-25,2024-07-10,株式会社ライズ,,株式会社,栃木県,宇都宮市,西川田町９６４番地１７,,09,201,3210151,,,2024-07-10,清算の結了等,,,2022-06-13,1,,,,,ライズ,0
1963,8080001018002,登記記録の閉鎖等,0,2024-07-25,2024-07-11,株式会社ビオワークス,,株式会社,静岡県,静岡市葵区,紺屋町１２番地の８静岡三晃社ビル,,22,101,4200852,,,2024-07-11,清算の結了等,,,2015-10-05,1,,,,,ビオワークス,0
1966,8080401026265,登記記録の閉鎖等,0,2024-07-25,2024-07-19,株式会社北谷電気管理事務所,,株式会社,静岡県,浜松市中央区,舞阪町弁天島３３７１番地の１,,22,138,4310214,,,2024-07-19,清算の結了等,,,2023-01-23,1,,,,,キタヤデンキカンリジムショ,0
1971,8090002004710,登記記録の閉鎖等,0,2024-07-25,2024-07-16,有限会社日野商店,,有限会社,山梨県,中巨摩郡昭和町,河西５５５番地,,19,384,4093851,,,2024-07-16,清算の結了等,,,2015-10-05,1,,,,,ヒノショウテン,0
1980,8110002022412,登記記録の閉鎖等,0,2024-07-25,2024-07-12,有限会社おおまちハイツ,,有限会社,新潟県,上越市,大町５丁目１番２３号,,15,222,9430833,,,2024-07-12,清算の結了等,,,2015-10-05,1,,,,,オオマチハイツ,0
1981,8110002033715,登記記録の閉鎖等,0,2024-07-25,2024-07-16,有限会社浅井測量設計事務所,,有限会社,新潟県,魚沼市,大栃山３９８番地３,,15,225,9460305,,,2024-07-16,清算の結了等,,,2015-10-05,1,,,,,アサイソクリョウセッケイジムショ,0
1986,8120001164460,登記記録の閉鎖等,0,2024-07-25,2024-07-22,株式会社パブリック・キッチン,,株式会社,兵庫県,丹波市,春日町多田１６５番地,,28,223,6694125,,,2024-07-22,清算の結了等,,,2015-10-05,1,,,,,パブリックキッチン,0
2017,8140001002296,登記記録の閉鎖等,0,2024-07-25,2024-07-19,株式会社花木商店,,株式会社,兵庫県,神戸市東灘区,甲南町３丁目７番１４号,,28,101,6580084,,,2024-07-19,清算の結了等,,,2015-10-05,1,,,,,ハナキショウテン,0
2020,8140001066622,登記記録の閉鎖等,0,2024-07-25,2024-07-18,株式会社プログレス,,株式会社,兵庫県,三田市,上井沢字東奥田１３３番地,,28,219,6691316,,,2024-07-18,清算の結了等,,,2015-10-05,1,,,,,プログレス,0
2028,8160001008878,登記記録の閉鎖等,0,2024-07-25,2024-07-19,株式会社夢京橋,,株式会社,滋賀県,彦根市,本町２丁目１番３号,,25,202,5220064,,,2024-07-19,清算の結了等,,,2015-10-05,1,,,,,ユメキョウバシ,0
2046,8230001001000,登記記録の閉鎖等,0,2024-07-25,2024-07-23,三開土地株式会社,,株式会社,富山県,富山市,婦中町横野８４番地,,16,201,9392732,,,2024-07-23,清算の結了等,,,2015-10-05,1,,,,,サンカイトチ,0
2049,8240002027670,登記記録の閉鎖等,0,2024-07-25,2024-07-23,有限会社佐和,,有限会社,広島県,東広島市,八本松飯田１丁目７番２０号,,34,212,7390146,,,2024-07-23,清算の結了等,,,2015-10-05,1,,,,,サワ,0
2057,8280002004930,登記記録の閉鎖等,0,2024-07-25,2024-07-24,有限会社ヤスヰ,,有限会社,島根県,安来市,荒島町１６９４番地１,,32,206,6920007,,,2024-07-24,清算の結了等,,,2015-10-05,1,,,,,ヤスイ,0
2062,8290002055485,登記記録の閉鎖等,0,2024-07-25,2024-06-26,有限会社フクセンテック,,有限会社,福岡県,大牟田市,大字吉野２０６５番地,,40,202,8370904,,,2024-06-26,清算の結了等,,,2015-10-05,1,,,,,フクセンテック,0
2070,8340005008617,登記記録の閉鎖等,0,2024-07-25,2024-07-22,一般社団法人制度福祉支援かごしま,,その他の設立登記法人,鹿児島県,鹿児島市,星ヶ峯２丁目６３番１７号,,46,201,8910102,,,2024-07-22,清算の結了等,,,2016-08-08,1,,,,,セイドフクシシエンカゴシマ,0
2071,8360001000757,登記記録の閉鎖等,0,2024-07-25,2024-07-01,株式会社きょうはい,,株式会社,沖縄県,那覇市,港町２丁目６番１号,,47,201,9000001,,,2024-07-01,合併による解散等,1360001008575,令和６年７月１日沖縄県浦添市西洲二丁目６番地４株式会社沖縄急送（1360001008575）に合併し解散,2015-10-05,1,,,,,キョウハイ,0
2072,8360001021951,登記記録の閉鎖等,0,2024-07-25,2024-07-22,株式会社ＥＬＬＶＩＳＩＯＮ,,株式会社,沖縄県,那覇市,久米１丁目３番５号－１Ｆ,,47,201,9000033,,,2024-07-22,合併による解散等,8011001100004,令和６年７月１日東京都渋谷区神宮前三丁目３８番１４号アンジェラ神宮前１Ｆ株式会社ＥＬＬＶＩＳＩＯＮ（8011001100004）に合併し解散,2017-02-27,1,,,,,,0
2075,8390001001050,登記記録の閉鎖等,0,2024-07-25,2024-07-08,株式会社早電舎,,株式会社,山形県,山形市,南栄町１丁目８番３５号,,06,201,9902445,,,2024-07-08,清算の結了等,,,2015-10-05,1,,,,,ソウデンシャ,0
2079,8420005000433,登記記録の閉鎖等,0,2024-07-25,2024-07-17,公益社団法人青森県遺族連合会,,その他の設立登記法人,青森県,青森市,中央３丁目２０番３０号,,02,201,0300822,,,2024-07-17,清算の結了等,,,2015-10-05,1,,,,,アオモリケンイゾクレンゴウカイ,0
2080,8420005006562,登記記録の閉鎖等,0,2024-07-25,2024-07-17,田名部駅通り商店街振興組合,,その他の設立登記法人,青森県,むつ市,柳町１丁目６番２号,,02,208,0350031,,,2024-07-17,清算の結了等,,,2015-10-05,1,,,,,タナブエキドオリ,0
2086,8450002009565,登記記録の閉鎖等,0,2024-07-25,2024-07-17,有限会社モリ建設,,有限会社,北海道,空知郡中富良野町,字中富良野西１線北十八号,,01,461,0710705,,,2024-07-17,清算の結了等,,,2015-10-05,1,,,,,モリケンセツ,0
2107,9010401071259,登記記録の閉鎖等,0,2024-07-25,2024-07-01,株式会社三築緑屋システム,,株式会社,東京都,北区,東十条３丁目４番３号,,13,117,1140001,,,2024-07-01,合併による解散等,9011501002161,令和６年７月１日東京都北区東十条三丁目４番３号緑屋照英社株式会社（9011501002161）に合併し解散,2015-10-05,1,,,,,ミツキミドリヤシステム,0
2123,9010601011683,登記記録の閉鎖等,0,2024-07-25,2024-07-22,白鳥建材株式会社,,株式会社,東京都,墨田区,業平１丁目１３番６号,,13,107,1300002,,,2024-07-22,清算の結了等,,,2015-10-05,1,,,,,シラトリケンザイ,0
2131,9011005008127,登記記録の閉鎖等,0,2024-07-25,2024-07-04,ＮＰＯ法人ＡＵＲＯＲＡ,,その他の設立登記法人,東京都,目黒区,中町１丁目２３番７－２１１号エクセレント学芸大,,13,110,1530065,,,2024-07-04,清算の結了等,,,2019-06-04,1,,,,,オーロラ,0
2134,9011101049363,登記記録の閉鎖等,0,2024-07-25,2024-07-10,株式会社ＢＥＬＶＡ,,株式会社,東京都,中央区,銀座１丁目１３－８テンワスＨａｂｉｕｌｕ１Ｆ,,13,102,1040061,,,2024-07-10,清算の結了等,,,2015-10-05,1,,,,,ベルバ,0
2137,9011103012906,登記記録の閉鎖等,0,2024-07-25,2024-07-09,合同会社Ｓｅｒａｐｉｓ,,合同会社,東京都,新宿区,新宿４丁目３番１７ＦＯＲＥＣＡＳＴ新宿ＳＯＵＴＨ６階,,13,104,1600022,,,2024-07-09,清算の結了等,,,2023-04-11,1,,,,,セラピス,0
2147,9011701000931,登記記録の閉鎖等,0,2024-07-25,2024-07-11,岩井商工株式会社,,株式会社,東京都,江戸川区,平井７丁目２５番１２号,,13,123,1320035,,,2024-07-11,清算の結了等,,,2015-10-05,1,,,,,イワイショウコウ,0
2153,9013302021613,登記記録の閉鎖等,0,2024-07-25,2024-07-16,有限会社スタジオ・ユニ,,有限会社,東京都,豊島区,高田３丁目５番１９号ワコー高田馬場３０２,,13,116,1710033,,,2024-07-16,清算の結了等,,,2015-10-05,1,,,,,スタジオユニ,0
2159,9020001114920,登記記録の閉鎖等,0,2024-07-25,2024-07-23,株式会社ココハナ,,株式会社,神奈川県,横須賀市,衣笠栄町３丁目４８藤倉ビル１Ｆ,,14,201,2380031,,,2024-07-23,清算の結了等,,,2016-02-19,1,,,,,ココハナ,0
2160,9020001125760,登記記録の閉鎖等,0,2024-07-25,2024-07-04,さくら土地建物株式会社,,株式会社,神奈川県,横浜市港南区,港南中央通１３番２２号,,14,111,2330004,,,2024-07-04,清算の結了等,,,2018-04-04,1,,,,,サクラトチタテモノ,0
2161,9020001153555,登記記録の閉鎖等,0,2024-07-25,2024-07-04,株式会社ミラサポ,,株式会社,神奈川県,横浜市栄区,上之町２１番１６号,,14,115,2470025,,,2024-07-04,清算の結了等,,,2023-09-19,1,,,,,ミラサポ,0
2165,9020002024391,登記記録の閉鎖等,0,2024-07-25,2024-07-04,有限会社トモ装美,,有限会社,神奈川県,横浜市保土ケ谷区,星川１丁目２５番地１７号,,14,106,2400006,,,2024-07-04,清算の結了等,,,2015-10-05,1,,,,,トモソウビ,0
2173,9030001008411,登記記録の閉鎖等,0,2024-07-25,2024-07-22,株式会社もりくま,,株式会社,東京都,品川区,上大崎３丁目１番１号目黒セントラルスクエア１５階,,13,109,1410021,,,2024-07-22,合併による解散等,3010403032371,令和６年７月１８日東京都港区芝二丁目１０番６号ＥＡＲＴＨＳＨＩＢＡＢＬＤ．３Ｆイントリム内メトロホールディングス合同会社（3010403032371）に合併し解散,2015-10-05,1,,,,,モリクマ,0
2184,9040001038077,登記記録の閉鎖等,0,2024-07-25,2024-07-09,三幸工業株式会社,,株式会社,千葉県,流山市,駒木５７２番地２,,12,220,2700132,,,2024-07-09,清算の結了等,,,2015-10-05,1,,,,,サンコウコウギョウ,0
2192,9050001020166,登記記録の閉鎖等,0,2024-07-25,2024-07-12,株式会社鹿島印刷,,株式会社,茨城県,鹿嶋市,宮下１丁目１番１号,,08,222,3140032,,,2024-07-12,清算の結了等,,,2015-10-05,1,,,,,カシマインサツ,0
2197,9050003001362,登記記録の閉鎖等,0,2024-07-25,2024-07-05,合名会社バンコー,,合名会社,茨城県,潮来市,牛堀６２４番地１,,08,223,3112436,,,2024-07-05,清算の結了等,,,2015-10-05,1,,,,,バンコー,0
2221,9110001010870,登記記録の閉鎖等,0,2024-07-25,2024-07-16,株式会社インテリア・ノモト,,株式会社,新潟県,新潟市中央区,上大川前通１２番町２７１４番地,,15,103,9518068,,,2024-07-16,清算の結了等,,,2015-10-05,1,,,,,インテリアノモト,0
2222,9110001027840,登記記録の閉鎖等,0,2024-07-25,2024-07-16,スクエア株式会社,,株式会社,新潟県,佐渡市,小木１０１番地,,15,224,9520605,,,2024-07-16,清算の結了等,,,2015-10-05,1,,,,,スクエア,0
2253,9122001019809,登記記録の閉鎖等,0,2024-07-25,2024-07-22,東洋リーシング株式会社,,株式会社,大阪府,堺市美原区,丹上２７０番地,,27,147,5870011,,,2024-07-22,合併による解散等,7120101021653,令和６年７月２１日大阪府堺市美原区丹上２７０番地東洋炉工業株式会社（7120101021653）に合併し解散,2015-10-05,1,,,,,トウヨウリーシング,0
2254,9122001022102,登記記録の閉鎖等,0,2024-07-25,2024-07-22,株式会社東洋商事,,株式会社,大阪府,堺市美原区,丹上２７０番地,,27,147,5870011,,,2024-07-22,合併による解散等,7120101021653,令和６年７月２１日大阪府堺市美原区丹上２７０番地東洋炉工業株式会社（7120101021653）に合併し解散,2015-10-05,1,,,,,トウヨウショウジ,0
2259,9140001034636,登記記録の閉鎖等,0,2024-07-25,2024-07-22,株式会社扇屋食品,,株式会社,兵庫県,明石市,大久保町八木６５７番地の１,,28,203,6740063,,,2024-07-22,清算の結了等,,,2015-10-05,1,,,,,オウギヤショクヒン,0
2261,9140001084499,登記記録の閉鎖等,0,2024-07-25,2024-07-22,ライズコーポレーション株式会社,,株式会社,兵庫県,宝塚市,仁川北２丁目１番１７号,,28,214,6650061,,,2024-07-22,清算の結了等,,,2015-10-05,1,,,,,ライズコーポレーション,0
2269,9170005006983,登記記録の閉鎖等,0,2024-07-25,2024-07-23,特定非営利活動法人ａｍｏｕｒ　ｅｓｐｏｉｒ,,その他の設立登記法人,和歌山県,岩出市,波分２０３番地の１グリーンヒル波分８０６号,,30,209,6496241,,,2024-07-23,清算の結了等,,,2022-11-24,1,,,,,アモーエスポアール,0
2271,9180001067079,登記記録の閉鎖等,0,2024-07-25,2024-07-08,株式会社ワイエムジェイ,,株式会社,愛知県,愛知郡東郷町,大字春木字千子５５４番地の１５７,,23,302,4700162,,,2024-07-08,清算の結了等,,,2015-10-05,1,,,,,ワイエムジェイ,0
2281,9180003017619,登記記録の閉鎖等,0,2024-07-25,2024-07-08,みえ福王山第１太陽光発電合同会社,,合同会社,愛知県,名古屋市西区,樋の口町４番１１号,00108947,23,104,4510034,,,2024-07-08,清算の結了等,,,2017-01-16,1,,,,,ミエフクオウサンダイイチタイヨウコウハツデン,0
2286,9200002023929,登記記録の閉鎖等,0,2024-07-25,2024-07-19,有限会社パーパス,,有限会社,岐阜県,恵那市,長島町正家１０６７番地２９７,,21,210,5097203,,,2024-07-19,清算の結了等,,,2015-10-05,1,,,,,,0
2300,9260003003370,登記記録の閉鎖等,0,2024-07-25,2024-07-04,合同会社ブロンズ,,合同会社,岡山県,岡山市北区,駅前町１丁目８番１号,,33,101,7000023,,,2024-07-04,清算の結了等,,,2020-11-13,1,,,,,ブロンズ,0
2301,9270002008898,登記記録の閉鎖等,0,2024-07-25,2024-07-23,有限会社エイチ・アール・エス,,有限会社,鳥取県,西伯郡南部町,法勝寺３２６番地２,,31,389,6830351,,,2024-07-23,清算の結了等,,,2015-10-05,1,,,,,エイチアースエス,0
2306,9290802000086,登記記録の閉鎖等,0,2024-07-25,2024-07-22,有限会社愛咲,,有限会社,福岡県,北九州市小倉南区,横代北町２丁目３番３号,,40,107,8020821,,,2024-07-22,清算の結了等,,,2015-10-05,1,,,,,アイザキ,0
2321,9380001021387,登記記録の閉鎖等,0,2024-07-25,2024-07-19,株式会社タカミヤの愛菜,,株式会社,東京都,中央区,日本橋３丁目１０番５号,,13,102,1030027,,,2024-07-19,合併による解散等,5120001102126,令和６年７月１日大阪市北区大深町３番１号株式会社タカミヤ（5120001102126）に合併し解散,2015-10-05,1,,,,,タカミヤノアイサイ,0
