sequenceNumber,corporateNumber,process,correct,updateDate,changeDate,name,nameImageId,kind,prefectureName,cityName,streetNumber,addressImageId,prefectureCode,cityCode,postCode,addressOutside,addressOutsideImageId,closeDate,closeCause,successorCorporateNumber,changeCause,assignmentDate,latest,enName,enPrefectureName,enCityName,enAddressOutside,furigana,hihyoji
9,1010001223449,新規,0,2022-01-05,2022-01-05,株式会社ＡＢＥＬ,,株式会社,東京都,中央区,東日本橋２丁目２４－９ＬＩＴ＿ＨＩＧＡＳＨＩ－ＮＩＨＯＮＢＡＳＨＩ＿５Ｆ,,13,102,1030004,,,,,,,2022-01-05,1,,,,,アベル,0
10,1010001223572,新規,0,2022-01-05,2022-01-05,麦古家株式会社,,株式会社,東京都,千代田区,神田多町２丁目１番地,,13,101,1010046,,,,,,,2022-01-05,1,,,,,ムギコヤ,0
11,1010001223580,新規,0,2022-01-05,2022-01-05,株式会社リフォームプラス,,株式会社,東京都,文京区,水道１丁目５番１８号,,13,105,1120005,,,,,,,2022-01-05,1,,,,,リフォームプラス,0
12,1010001223606,新規,0,2022-01-05,2022-01-05,株式会社Ｃ＆Ｋ,,株式会社,東京都,中央区,晴海３丁目１３番１号ドゥ・トゥールイースト５２０８,,13,102,1040053,,,,,,,2022-01-05,1,,,,,シーアンドケー,0
25,1010401164706,新規,0,2022-01-05,2022-01-05,ＩＢＣソーラー・エナジー・ジャパン株式会社,,株式会社,東京都,港区,赤坂２丁目２２番２４号,,13,103,1070052,,,,,,,2022-01-05,1,,,,,アイビーシーソーラーエナジージャパン,0
26,1010401164813,新規,0,2022-01-05,2022-01-05,株式会社ＢＯＮＤＡＮＣＥ,,株式会社,東京都,港区,南青山２丁目２番１５号ウィン青山１２１４号,,13,103,1070062,,,,,,,2022-01-05,1,,,,,ボンダンス,0
31,1010501048271,新規,0,2022-01-05,2022-01-05,東和ソフト株式会社,,株式会社,東京都,台東区,台東４丁目３０番６号,,13,106,1100016,,,,,,,2022-01-05,1,,,,,トウワソフト,0
36,1010901050083,新規,0,2022-01-05,2022-01-05,レゴラキャピタル株式会社,,株式会社,東京都,世田谷区,奥沢５丁目１番１１号,,13,112,1580083,,,,,,,2022-01-05,1,,,,,レゴラキャピタル,0
37,1010901050091,新規,0,2022-01-05,2022-01-05,ＫＯＬＥＮＤＡ　Ｊａｐａｎ株式会社,,株式会社,東京都,世田谷区,桜上水１丁目４番１号パークナード経堂７０２号室,,13,112,1560045,,,,,,,2022-01-05,1,,,,,コレンダジャパン,0
38,1010903007049,新規,0,2022-01-05,2022-01-05,レッドサン合同会社,,合同会社,東京都,世田谷区,代田１丁目３５番３号,,13,112,1550033,,,,,,,2022-01-05,1,,,,,レッドサン,0
47,1011101097270,新規,0,2022-01-05,2022-01-05,株式会社マテテス,,株式会社,東京都,新宿区,喜久井町３４番地１５２早稲田シティビル３階,,13,104,1620044,,,,,,,2022-01-05,1,,,,,,0
53,1011301027457,新規,0,2022-01-05,2022-01-05,株式会社Ｍ．ｎｏｎ,,株式会社,東京都,杉並区,高円寺北３丁目５番１１号スカイピア高円寺１０２,,13,115,1660002,,,,,,,2022-01-05,1,,,,,エムノン,0
56,1011501027620,新規,0,2022-01-05,2022-01-05,株式会社サイクルドクター,,株式会社,東京都,荒川区,東尾久８丁目８番１４号,,13,118,1160012,,,,,,,2022-01-05,1,,,,,サイクルドクター,0
69,1011801040141,新規,0,2022-01-05,2022-01-05,株式会社Ｎｉｊｉｉｒｏ,,株式会社,東京都,足立区,鹿浜８丁目１１番１９号,,13,121,1230864,,,,,,,2022-01-05,1,,,,,ニジイロ,0
72,1012701016850,新規,0,2022-01-05,2022-01-05,株式会社Ｂｕｎｋｅｒ２,,株式会社,東京都,東村山市,本町３丁目２４番地１,,13,213,1890014,,,,,,,2022-01-05,1,,,,,バンカーツー,0
81,1013303005977,新規,0,2022-01-05,2022-01-05,ＴＯＨＯコーポレーション合同会社,,合同会社,東京都,豊島区,西巣鴨４丁目１３番１４号,,13,116,1700001,,,,,,,2022-01-05,1,,,,,トーホーコーポレーション,0
93,1020001144545,新規,0,2022-01-05,2022-01-05,ａｖａｎｚ株式会社,,株式会社,神奈川県,横浜市神奈川区,三ツ沢中町６番２２号,,14,102,2210851,,,,,,,2022-01-05,1,,,,,アヴァンツ,0
94,1020001144553,新規,0,2022-01-05,2022-01-05,株式会社ティ・エイチ・アイ分割準備会社,,株式会社,神奈川県,横浜市鶴見区,大黒町４番３１号,,14,101,2300053,,,,,,,2022-01-05,1,,,,,ティエイチアイブンカツジュンビガイシャ,0
95,1020001144561,新規,0,2022-01-05,2022-01-05,ひまわりセキュア株式会社,,株式会社,神奈川県,川崎市川崎区,駅前本町１１番地２川崎フロンティアビル４階,,14,131,2100007,,,,,,,2022-01-05,1,,,,,ヒマワリセキュア,0
98,1020003021049,新規,0,2022-01-05,2022-01-05,合同会社青山ＩＰ研究所,,合同会社,神奈川県,横浜市戸塚区,平戸３丁目３番３－２号,,14,110,2440802,,,,,,,2022-01-05,1,,,,,アオヤマアイピーケンキュウショ,0
99,1021001074807,新規,0,2022-01-05,2022-01-05,株式会社Ｓｈｏｄｅｎ,,株式会社,神奈川県,南足柄市,怒田２８１８番地１３,,14,217,2500106,,,,,,,2022-01-05,1,,,,,ショーデン,0
111,1030003018580,新規,0,2022-01-05,2022-01-05,合同会社Ｈｕｅｒｔｏ,,合同会社,埼玉県,川越市,大字笠幡２３５２番地１,,11,201,3501175,,,,,,,2022-01-05,1,,,,,ウエルト,0
112,1030003018589,新規,0,2022-01-05,2022-01-05,菅野塗装合同会社,,合同会社,埼玉県,さいたま市西区,大字二ツ宮２９番地２１,,11,101,3310065,,,,,,,2022-01-05,1,,,,,スガノトソウ,0
129,1050001050393,新規,0,2022-01-05,2022-01-05,ＬＯＯＰ株式会社,,株式会社,茨城県,つくば市,苅間２０３０番地３,,08,220,3050822,,,,,,,2022-01-05,1,,,,,ループ,0
135,1080401025554,新規,0,2022-01-05,2022-01-05,ＴＡＩＥＩ株式会社,,株式会社,静岡県,浜松市中区,富塚町２１３２番地の２９,,22,131,4328002,,,,,,,2022-01-05,1,,,,,タイエイ,0
137,1080403004440,新規,0,2022-01-05,2022-01-05,沖野企画合同会社,,合同会社,静岡県,菊川市,半済１０１８番地の３,,22,224,4390019,,,,,,,2022-01-05,1,,,,,オキノキカク,0
153,1120001242784,新規,0,2022-01-05,2022-01-05,はる株式会社,,株式会社,大阪府,大阪市東成区,玉津３丁目１４番２２－１００１号,,27,115,5370023,,,,,,,2022-01-05,1,,,,,ハル,0
154,1120001242801,新規,0,2022-01-05,2022-01-05,レガリアレジデンス株式会社,,株式会社,大阪府,寝屋川市,香里北之町７番１９号,,27,215,5720080,,,,,,,2022-01-05,1,,,,,レガリアレジデンス,0
160,1120101064872,新規,0,2022-01-05,2022-01-05,Ｈｉｇｈｌａｎｄ株式会社,,株式会社,大阪府,堺市中区,深井中町１８８５番地５－３０３号,,27,142,5998272,,,,,,,2022-01-05,1,,,,,ハイランド,0
162,1122001035466,新規,0,2022-01-05,2022-01-05,株式会社ワイズ,,株式会社,大阪府,大東市,三箇６丁目１番８号,,27,218,5740077,,,,,,,2022-01-05,1,,,,,ワイズ,0
176,1140005025969,新規,0,2022-01-05,2022-01-05,医療法人優仰会,,その他の設立登記法人,兵庫県,神戸市北区,有野中町３丁目５番１４号,,28,109,6511313,,,,,,,2022-01-05,1,,,,,ユウコウカイ,0
177,1150003002580,新規,0,2022-01-05,2022-01-05,合同会社ＮＡＮＡＣＯ実業,,合同会社,奈良県,天理市,田井庄町６９３番地,,29,204,6320071,,,,,,,2022-01-05,1,,,,,ナナコジツギョウ,0
186,1180001149306,新規,0,2022-01-05,2022-01-05,株式会社晴る,,株式会社,愛知県,海部郡蟹江町,八幡１丁目１０６番地ライオンズ蟹江シエルマークス１１０３号,,23,425,4970056,,,,,,,2022-01-05,1,,,,,ハル,0
187,1180001149339,新規,0,2022-01-05,2022-01-05,株式会社東洋,,株式会社,愛知県,名古屋市西区,名駅２丁目３４番１７号セントラル名古屋１１０１号,,23,104,4510045,,,,,,,2022-01-05,1,,,,,トウヨウ,0
189,1180003023327,新規,0,2022-01-05,2022-01-05,合同会社とくしげさん,,合同会社,愛知県,名古屋市緑区,亀が洞３丁目１１３番地ラ・フォーレ近藤１Ｆ,,23,114,4580804,,,,,,,2022-01-05,1,,,,,トクシゲサン,0
190,1180003023335,新規,0,2022-01-05,2022-01-05,合同会社ＨＳ,,合同会社,愛知県,名古屋市中川区,下之一色町字南ノ切１番地の１８,,23,110,4540945,,,,,,,2022-01-05,1,,,,,エイチエス,0
193,1190001028987,新規,0,2022-01-05,2022-01-05,株式会社プログレイス,,株式会社,三重県,桑名市,大字小泉３６番地５,,24,205,5110837,,,,,,,2022-01-05,1,,,,,プログレイス,0
194,1190001028995,新規,0,2022-01-05,2022-01-05,株式会社ＰＡＵＳＥＳＡＬＯＮ,,株式会社,三重県,津市,藤方８９７番地４,,24,201,5140815,,,,,,,2022-01-05,1,,,,,ポーズサロン,0
200,1200001039611,新規,0,2022-01-05,2022-01-05,株式会社キャリアイノベーション,,株式会社,岐阜県,大垣市,荒尾玉池１丁目８,,21,202,5030035,,,,,,,2022-01-05,1,,,,,キャリアイノベーション,0
201,1200003005413,新規,0,2022-01-05,2022-01-05,ちいさな一歩合同会社,,合同会社,岐阜県,岐阜市,茜部新所３丁目２４６番地メリーランドビル４Ｃ,,21,201,5008263,,,,,,,2022-01-05,1,,,,,チイサナイッポ,0
202,1200005013298,新規,0,2022-01-05,2022-01-05,司法書士法人岐阜サンデー法務事務所,,その他の設立登記法人,岐阜県,岐阜市,六条南３丁目２番１６号,,21,201,5008358,,,,,,,2022-01-05,1,,,,,ギフサンデーホウムジムショ,0
207,1210003001436,新規,0,2022-01-05,2022-01-05,ＤＵＣ　ＴＩＮ　ＧＬＯＢＡＬ合同会社,,合同会社,福井県,福井市,開発２丁目３０６番地ブルーハイツＶＩＩ１階,00125284,18,201,9100842,,,,,,,2022-01-05,1,,,,,ドックティングローバル,0
226,1260001036363,新規,0,2022-01-05,2022-01-05,株式会社木ノ葉,,株式会社,岡山県,倉敷市,西阿知町新田７番地７,,33,202,7100804,,,,,,,2022-01-05,1,,,,,コノハ,0
227,1260001036371,新規,0,2022-01-05,2022-01-05,株式会社山根造船所,,株式会社,岡山県,瀬戸内市,牛窓町牛窓２３７５番地,,33,212,7014302,,,,,,,2022-01-05,1,,,,,ヤマネゾウセンショ,0
229,1260005011016,新規,0,2022-01-05,2022-01-05,ＮＳ中央税理士法人,,その他の設立登記法人,岡山県,岡山市北区,南中央町５番１８号,,33,101,7000837,,,,,,,2022-01-05,1,,,,,エヌエスチュウオウ,0
237,1290001095885,新規,0,2022-01-05,2022-01-05,二輪株式会社,,株式会社,福岡県,糟屋郡宇美町,障子岳南４丁目２５２７番１,,40,341,8112126,,,,,,,2022-01-05,1,,,,,フタワ,0
238,1290001095893,新規,0,2022-01-05,2022-01-05,株式会社Ｔ・Ｎプラス,,株式会社,福岡県,朝倉郡筑前町,篠隈１１７番地７２,,40,447,8380215,,,,,,,2022-01-05,1,,,,,ティーエヌプラス,0
239,1290001095902,新規,0,2022-01-05,2022-01-05,株式会社ＴＲＩＧＧ,,株式会社,福岡県,福岡市中央区,天神５丁目７番２号‐７階,,40,133,8100001,,,,,,,2022-01-05,1,,,,,トリグ,0
243,1320001018818,新規,0,2022-01-05,2022-01-05,北崎牧場株式会社,00125306,株式会社,大分県,豊後高田市,荒尾９２２番地,,44,209,8790733,,,,,,,2022-01-05,1,,,,,キタザキボクジョウ,0
248,1330001029310,新規,0,2022-01-05,2022-01-05,南九州陸運株式会社,,株式会社,熊本県,阿蘇市,狩尾９２７番地９,,43,214,8692235,,,,,,,2022-01-05,1,,,,,ミナミキュウシュウリクウン,0
251,1330003009186,新規,0,2022-01-05,2022-01-05,合同会社プラタナス,,合同会社,熊本県,熊本市東区,長嶺東１丁目４番１８号,,43,102,8618038,,,,,,,2022-01-05,1,,,,,プラタナス,0
254,1340001024368,新規,0,2022-01-05,2022-01-05,株式会社ＧＬＡＣＴ,,株式会社,鹿児島県,鹿児島市,武３丁目１番１号ロイヤルシティ中洲プレミアム３０３号,,46,201,8900045,,,,,,,2022-01-05,1,,,,,グラクト,0
255,1340001024376,新規,0,2022-01-05,2022-01-05,株式会社ＶＩＳＩＯＮ,,株式会社,鹿児島県,鹿児島市,下荒田２丁目２５番７号,,46,201,8900056,,,,,,,2022-01-05,1,,,,,ビジョン,0
256,1340001024384,新規,0,2022-01-05,2022-01-05,株式会社ＹＲＳコーポレーション,,株式会社,鹿児島県,鹿児島市,武２丁目２５番５号,,46,201,8900045,,,,,,,2022-01-05,1,,,,,ワイアールエス,0
257,1350001017503,新規,0,2022-01-05,2022-01-05,株式会社１０４８,,株式会社,宮崎県,宮崎市,神宮１丁目２４１番地,,45,201,8800053,,,,,,,2022-01-05,1,,,,,イチゼロヨンハチ,0
258,1360001029836,新規,0,2022-01-05,2022-01-05,株式会社ダックツアー,,株式会社,沖縄県,八重山郡竹富町,字上原５５２番地,,47,381,9071541,,,,,,,2022-01-05,1,,,,,ダックツアー,0
259,1360001029844,新規,0,2022-01-05,2022-01-05,シロマッハ株式会社,,株式会社,沖縄県,南城市,玉城字愛地２２７番地１,,47,215,9010617,,,,,,,2022-01-05,1,,,,,シロマッハ,0
260,1360003011692,新規,0,2022-01-05,2022-01-05,合同会社はちまるパン,,合同会社,沖縄県,島尻郡八重瀬町,字屋宜原１２３番地６ウィステリアＩＩ１０３号,00125291,47,362,9010406,,,,,,,2022-01-05,1,,,,,ハチマルパン,0
263,1370003005537,新規,0,2022-01-05,2022-01-05,ハムステッドティールーム合同会社,,合同会社,宮城県,仙台市青葉区,一番町３丁目８－２４一番町シャルムビル３階,,04,101,9800811,,,,,,,2022-01-05,1,,,,,ハムステッドティールーム,0
265,1380001032441,新規,0,2022-01-05,2022-01-05,ヤマキ株式会社,,株式会社,福島県,南相馬市,原町区二見町１丁目１１番地の１２,,07,212,9750005,,,,,,,2022-01-05,1,,,,,ヤマキ,0
284,1490001010072,新規,0,2022-01-05,2022-01-05,株式会社羽根運送,,株式会社,高知県,室戸市,羽根町乙３１９２番地３４,,39,202,7816742,,,,,,,2022-01-05,1,,,,,ハネウンソウ,0
285,1490003001615,新規,0,2022-01-05,2022-01-05,合同会社ＹＹ,,合同会社,高知県,須崎市,吾井郷乙１７６７番地８,,39,206,7850044,,,,,,,2022-01-05,1,,,,,ワイワイ,0
286,1500001023907,新規,0,2022-01-05,2022-01-05,ＩＮＯエアテック株式会社,,株式会社,愛媛県,松山市,三町３丁目８番５３号,,38,201,7900914,,,,,,,2022-01-05,1,,,,,アイエヌオーエアテック,0
287,1700150106483,新規,0,2022-01-05,2022-01-05,Ｎｉｋｋｏ　Ｌａｎｋａ　Ｈａｒｄｗａｒｅｓ,,外国会社等,千葉県,大網白里市,みどりが丘１丁目２４番地１－１０１,,12,239,2993255,スリランカ民主社会主義共和国、ラジャウェラ、ディガナ、ワハブディーンコンプレックス、３３,,,,,,2022-01-05,1,,,,,ニツコーランカハードウエアズ,0
288,1700150106525,新規,0,2022-01-05,2022-01-05,ＭＨＩ　Ｐｏｗｅｒ　Ｍｉｄｄｌｅ　Ｅａｓｔ　ＬＬＣ,,外国会社等,,,,,,,,５２３０９，Ｉｎｄｕｓｔｒｉａｌ　Ｃｉｔｙ　ｏｆ　Ａｂｕ　Ｄｈａｂｉ　ＩＩＩ，Ｐｌｏｔ　９６ＮＲ２７，Ｅｍｉｒａｔｅ　ｏｆ　Ａｂｕ　Ｄｈａｂｉ，ＵＡＥ,00125296,,,,,2022-01-05,1,,,,,エムエイチアイパワーミドルイーストエルエルシー,0
300,2010001223588,新規,0,2022-01-05,2022-01-05,株式会社ＴＮＭコンサルティング,,株式会社,東京都,千代田区,平河町１丁目６番１５号ＵＳビル８０２号室,,13,101,1020093,,,,,,,2022-01-05,1,,,,,ティーエヌエムコンサルティング,0
301,2010001223605,新規,0,2022-01-05,2022-01-05,株式会社Ｈｉｔｏ　Ａｎｄ．,,株式会社,東京都,千代田区,神田佐久間町１丁目１４番地第２東ビル３０３,,13,101,1010025,,,,,,,2022-01-05,1,,,,,ヒトアンド,0
303,2010003036658,新規,0,2022-01-05,2022-01-05,合同会社ＺＳ１,,合同会社,東京都,千代田区,丸の内３丁目１番１号東京共同会計事務所内,,13,101,1000005,,,,,,,2022-01-05,1,,,,,ゼットエスワン,0
308,2010005034387,新規,0,2022-01-05,2022-01-05,ＬＡＫＥ特定目的会社,,その他の設立登記法人,東京都,千代田区,霞が関３丁目２番５号,,13,101,1000013,,,,,,,2022-01-05,1,,,,,レイク,0
309,2010005034395,新規,0,2022-01-05,2022-01-05,大手町税理士法人,,その他の設立登記法人,東京都,千代田区,大手町１丁目２番１号,,13,101,1000004,,,,,,,2022-01-05,1,,,,,オオテマチ,0
327,2010701042008,新規,0,2022-01-05,2022-01-05,国際貨物情報基盤株式会社,,株式会社,東京都,品川区,上大崎２丁目６番４号コートアオイ２０２,,13,109,1410021,,,,,,,2022-01-05,1,,,,,コクサイカモツジョウホウキバン,0
329,2010901050074,新規,0,2022-01-05,2022-01-05,株式会社アドハピネス,,株式会社,東京都,世田谷区,下馬１丁目２１番１０号,,13,112,1540002,,,,,,,2022-01-05,1,,,,,アドハピネス,0
331,2010903007048,新規,0,2022-01-05,2022-01-05,コマザワプランニングカンパニー合同会社,,合同会社,東京都,世田谷区,駒沢１丁目６番１０号,,13,112,1540012,,,,,,,2022-01-05,1,,,,,コマザワプランニングカンパニー,0
341,2011001144808,新規,0,2022-01-05,2022-01-05,株式会社ＣＲＥＸｉＡ,,株式会社,東京都,渋谷区,神宮前６丁目２３番４号桑野ビル２階,,13,113,1500001,,,,,,,2022-01-05,1,,,,,クレシア,0
343,2011003013928,新規,0,2022-01-05,2022-01-05,Ｔｗｏ　Ｓｑｕａｒｅｓ合同会社,,合同会社,東京都,目黒区,自由が丘１丁目８－１９メルサＩＩ４Ｆ,00125287,13,110,1520035,,,,,,,2022-01-05,1,,,,,トゥースクエアーズ,0
351,2011101097402,新規,0,2022-01-05,2022-01-05,株式会社ＳＷＩＦＴ,,株式会社,東京都,新宿区,西新宿６丁目２０番７－３９０９号,,13,104,1600023,,,,,,,2022-01-05,1,,,,,スウィフト,0
352,2011101097410,新規,0,2022-01-05,2022-01-05,株式会社Ｒａｉｎｂｏｗ　Ｃｈａｉｎ,,株式会社,東京都,新宿区,西新宿３丁目３－１３西新宿水間ビル６Ｆ,,13,104,1600023,,,,,,,2022-01-05,1,,,,,レインボーチェイン,0
354,2011105010088,新規,0,2022-01-05,2022-01-05,一般社団法人野田総合政策研究所,,その他の設立登記法人,東京都,新宿区,市谷左内町３２番地市谷台グランドマンション２－Ｂ,,13,104,1620846,,,,,,,2022-01-05,1,,,,,ノダソウゴウセイサクケンキュウジョ,0
355,2011301027456,新規,0,2022-01-05,2022-01-05,株式会社カタリズム,,株式会社,東京都,杉並区,阿佐谷南３丁目９番２－４０３号,,13,115,1660004,,,,,,,2022-01-05,1,,,,,カタリズム,0
356,2011303004263,新規,0,2022-01-05,2022-01-05,和合同会社,,合同会社,東京都,杉並区,西荻北３丁目２３番１７号,,13,115,1670042,,,,,,,2022-01-05,1,,,,,ワ,0
366,2011805003135,新規,0,2022-01-05,2022-01-05,一般社団法人くるみる,,その他の設立登記法人,東京都,足立区,入谷７丁目１９番４号,,13,121,1210836,,,,,,,2022-01-05,1,,,,,クルミル,0
386,2020001144544,新規,0,2022-01-05,2022-01-05,株式会社ｍｏｒｅ　ｌｉｆｅ,,株式会社,神奈川県,川崎市多摩区,菅馬場２丁目２９番５号,,14,135,2140004,,,,,,,2022-01-05,1,,,,,モアライフ,0
388,2020003021048,新規,0,2022-01-05,2022-01-05,グランクロエ合同会社,,合同会社,神奈川県,横浜市戸塚区,舞岡町２９番地６０,,14,110,2440813,,,,,,,2022-01-05,1,,,,,グランクロエ,0
398,2030001146102,新規,0,2022-01-05,2022-01-05,株式会社フルトラスト,,株式会社,埼玉県,深谷市,新戒３９２番地,,11,218,3660019,,,,,,,2022-01-05,1,,,,,フルトラスト,0
399,2030001146110,新規,0,2022-01-05,2022-01-05,株式会社エスコンサル,,株式会社,埼玉県,さいたま市大宮区,宮町３丁目４１番地４,,11,103,3300802,,,,,,,2022-01-05,1,,,,,エスコンサル,0
404,2040001121566,新規,0,2022-01-05,2022-01-05,ＲＡＸ　ＥＮＴＥＲＴＡＩＮＭＥＮＴ株式会社,,株式会社,千葉県,千葉市中央区,星久喜町６７１－１５,,12,101,2600808,,,,,,,2022-01-05,1,,,,,ラックスエンターテイメント,0
405,2040001121582,新規,0,2022-01-05,2022-01-05,株式会社都賀装建,,株式会社,千葉県,千葉市稲毛区,長沼町１７３番地５４,,12,103,2630005,,,,,,,2022-01-05,1,,,,,ツガソウケン,0
414,2050001050392,新規,0,2022-01-05,2022-01-05,株式会社Ｔ３,,株式会社,茨城県,つくば市,北条５０２９番地１,,08,220,3004231,,,,,,,2022-01-05,1,,,,,ティースリー,0
422,2080101023015,新規,0,2022-01-05,2022-01-05,株式会社ｍｉｌｋｙ　ｂｌｕｅ,,株式会社,静岡県,富士宮市,根原３５８番地,,22,207,4180101,,,,,,,2022-01-05,1,,,,,ミルキーブルー,0
426,2110005016747,新規,0,2022-01-05,2022-01-05,都市再生開発協同組合,,その他の設立登記法人,新潟県,新発田市,諏訪町１丁目２番１１号,,15,206,9570055,,,,,,,2022-01-05,1,,,,,トシサイセイカイハツ,0
444,2120005022678,新規,0,2022-01-05,2022-01-05,税理士法人たえなか,,その他の設立登記法人,大阪府,大阪市天王寺区,生玉前町１番１８号,,27,109,5430072,,,,,,,2022-01-05,1,,,,,タエナカ,0
446,2120101064871,新規,0,2022-01-05,2022-01-05,タカツキ精機株式会社,,株式会社,大阪府,堺市東区,草尾４６５番地２０,,27,143,5998127,,,,,,,2022-01-05,1,,,,,タカツキセイキ,0
454,2120903003969,新規,0,2022-01-05,2022-01-05,合同会社Ｔ＆Ｎ,,合同会社,大阪府,吹田市,千里山竹園１丁目１０番１８－６１４号,,27,205,5650852,,,,,,,2022-01-05,1,,,,,ティーアンドエヌ,0
457,2130005016349,新規,0,2022-01-05,2022-01-05,一般社団法人日本脳卒中医療ケア従事者連合,,その他の設立登記法人,京都府,京都市左京区,聖護院川原町５４,,26,103,6068397,,,,,,,2022-01-05,1,,,,,ニホンノウソッチュウイリョウケアジュウジシャレンゴウ,0
471,2180001149305,新規,0,2022-01-05,2022-01-05,株式会社ＨＥＲＺ,,株式会社,愛知県,名古屋市西区,上小田井１丁目１０９番地の１プレミスト上小田井レジデンス５０２号,,23,104,4520821,,,,,,,2022-01-05,1,,,,,ヘルツ,0
472,2180001149321,新規,0,2022-01-05,2022-01-05,株式会社ソールドアウト,,株式会社,愛知県,名古屋市港区,遠若町３丁目４９番地,,23,111,4550054,,,,,,,2022-01-05,1,,,,,ソールドアウト,0
473,2180003023334,新規,0,2022-01-05,2022-01-05,合同会社Ｔｈｅ　Ｂｏａｔ　Ｈｏｕｓｅ,,合同会社,愛知県,東海市,大田町蟹田７３番地アンピオ（１－Ｃ）,,23,222,4770031,,,,,,,2022-01-05,1,,,,,ザボートハウス,0
475,2180303005206,新規,0,2022-01-05,2022-01-05,合同会社ＲＥＣ,,合同会社,愛知県,岡崎市,蓑川町字野田ノ入６番地１キーウィ２０１号,,23,202,4443525,,,,,,,2022-01-05,1,,,,,レック,0
476,2190001028986,新規,0,2022-01-05,2022-01-05,アイケーポジティー株式会社,,株式会社,三重県,桑名市,大字西別所８２９番地４,,24,205,5110851,,,,,,,2022-01-05,1,,,,,アイケーポジティー,0
486,2200003005412,新規,0,2022-01-05,2022-01-05,合同会社れじりえんす,,合同会社,岐阜県,岐阜市,福富２１６番地,,21,201,5012565,,,,,,,2022-01-05,1,,,,,レジリエンス,0
488,2210001018745,新規,0,2022-01-05,2022-01-05,株式会社Ｄｏｕｂｌｅ　Ａ　Ｍｅｄｉｃａｌ,,株式会社,福井県,福井市,円山１丁目３０１番地２７,,18,201,9188207,,,,,,,2022-01-05,1,,,,,ダブルエーメディカル,0
490,2220001024619,新規,0,2022-01-05,2022-01-05,株式会社安田屋,,株式会社,石川県,金沢市,大額３丁目１６５番地,,17,201,9218147,,,,,,,2022-01-05,1,,,,,ヤスダヤ,0
502,2250003002974,新規,0,2022-01-05,2022-01-05,合同会社ツギヘ,,合同会社,山口県,下関市,生野町２丁目２０番１７号,,35,201,7510832,,,,,,,2022-01-05,1,,,,,ツギエ,0
512,2290001095892,新規,0,2022-01-05,2022-01-05,株式会社粕屋緑地建設,,株式会社,福岡県,糟屋郡粕屋町,長者原東４丁目５番３３号,,40,349,8112317,,,,,,,2022-01-05,1,,,,,カスヤリョクチケンセツ,0
529,2340001024383,新規,0,2022-01-05,2022-01-05,株式会社しろすけどん,,株式会社,鹿児島県,鹿児島市,真砂本町１４番９号林ヴィレッジ１階,,46,201,8900067,,,,,,,2022-01-05,1,,,,,シロスケドン,0
530,2340001024391,新規,0,2022-01-05,2022-01-05,株式会社Ｍ・ｄｅｓｉｇｎ,,株式会社,鹿児島県,鹿児島市,下荒田３丁目３番６号,,46,201,8900056,,,,,,,2022-01-05,1,,,,,エムデザイン,0
531,2360001029843,新規,0,2022-01-05,2022-01-05,株式会社山元管財,,株式会社,沖縄県,宜野湾市,大山６丁目７番２５号,,47,205,9012223,,,,,,,2022-01-05,1,,,,,ヤマモトカンザイ,0
541,2400001015731,新規,0,2022-01-05,2022-01-05,株式会社シルバーアロー,,株式会社,岩手県,滝沢市,鵜飼安達１１７番地１,,03,216,0200685,,,,,,,2022-01-05,1,,,,,,0
542,2410001013057,新規,0,2022-01-05,2022-01-05,株式会社カマダ電気,,株式会社,秋田県,由利本荘市,鮎瀬字石橋６番地,,05,210,0150084,,,,,,,2022-01-05,1,,,,,カマダデンキ,0
543,2420001017684,新規,0,2022-01-05,2022-01-05,株式会社フカザワホールディングス,,株式会社,青森県,八戸市,大字白銀町字佐部長根２４番地,,02,203,0310822,,,,,,,2022-01-05,1,,,,,フカザワホールディングス,0
547,2430005014355,新規,0,2022-01-05,2022-01-05,社会保険労務士法人河上事務所,,その他の設立登記法人,北海道,札幌市白石区,本郷通５丁目北４番２３号,,01,104,0030025,,,,,,,2022-01-05,1,,,,,カワカミジムショ,0
548,2440001009003,新規,0,2022-01-05,2022-01-05,株式会社函館研究所,,株式会社,北海道,函館市,美原３丁目２５番８号,,01,202,0410806,,,,,,,2022-01-05,1,,,,,ハコダテケンキュウジョ,0
550,2490001010071,新規,0,2022-01-05,2022-01-05,株式会社前田工業,,株式会社,高知県,高知市,薊野西町１丁目３４番３０号,,39,201,7810015,,,,,,,2022-01-05,1,,,,,マエダコウギョウ,0
552,2490003001614,新規,0,2022-01-05,2022-01-05,合同会社千令農,,合同会社,高知県,高知市,南はりまや町２丁目１４番１２号,,39,201,7800833,,,,,,,2022-01-05,1,,,,,セレノ,0
554,2500001023906,新規,0,2022-01-05,2022-01-05,株式会社アシストＷ,,株式会社,愛媛県,伊予市,宮下７３６番地９,,38,210,7993102,,,,,,,2022-01-05,1,,,,,アシストダブル,0
556,2700150106490,新規,0,2022-01-05,2022-01-05,ＫＯＢＡ　ＭＯＴＯＲＳ,,外国会社等,千葉県,山武市,戸田４９３番地７戸田オフィスＣ,,12,237,2891204,スリランカ民主社会主義共和国、コロンボ１１、クロスストリート、４７－５,,,,,,2022-01-05,1,,,,,コバモータース,0
568,3010003036649,新規,0,2022-01-05,2022-01-05,エクイニクス・ハイパースケール１・ＴＹ１２・エンタープライズ合同会社,,合同会社,東京都,中央区,日本橋２丁目７番１号,,13,102,1030027,,,,,,,2022-01-05,1,,,,,エクイニクスハイパースケールワンティーワイトゥエルブエンタープライズ,0
569,3010003036657,新規,0,2022-01-05,2022-01-05,合同会社スプリング,,合同会社,東京都,文京区,湯島３丁目７番８号,,13,105,1130034,,,,,,,2022-01-05,1,,,,,スプリング,0
577,3010401164687,新規,0,2022-01-05,2022-01-05,Ｃｕｐｉｓｔ　Ｊａｐａｎ株式会社,,株式会社,東京都,港区,三田１丁目３－４０,,13,103,1080073,,,,,,,2022-01-05,1,,,,,キュピストジャパン,0
578,3010401164745,新規,0,2022-01-05,2022-01-05,株式会社モアプラス,,株式会社,東京都,港区,芝浦２丁目２番１５－５０３号,,13,103,1080023,,,,,,,2022-01-05,1,,,,,モアプラス,0
584,3010403026729,新規,0,2022-01-05,2022-01-05,ＴＭパートナーズ合同会社,,合同会社,東京都,港区,南青山２丁目２番１５号,,13,103,1070062,,,,,,,2022-01-05,1,,,,,ティーエムパートナーズ,0
586,3010703006050,新規,0,2022-01-05,2022-01-05,キブネ合同会社,,合同会社,東京都,品川区,東大井５丁目１９番９号,,13,109,1400011,,,,,,,2022-01-05,1,,,,,キブネ,0
592,3010803004012,新規,0,2022-01-05,2022-01-05,合同会社ダベッカ,,合同会社,東京都,大田区,南久が原２丁目７番４号,,13,111,1460084,,,,,,,2022-01-05,1,,,,,ダベッカ,0
598,3011001144798,新規,0,2022-01-05,2022-01-05,株式会社ａｐｒｉｃｏｔ．ｈ,,株式会社,東京都,渋谷区,渋谷２丁目７－１４ＶＯＲＴＡＯＹＡＭＡ３０２,,13,113,1500002,,,,,,,2022-01-05,1,,,,,アプリコットエイチ,0
599,3011001144815,新規,0,2022-01-05,2022-01-05,株式会社あららぼ,,株式会社,東京都,渋谷区,道玄坂１丁目１０－８渋谷道玄坂東急ビル２Ｆ－Ｃ,,13,113,1500043,,,,,,,2022-01-05,1,,,,,アララボ,0
601,3011003013927,新規,0,2022-01-05,2022-01-05,合同会社ｓｋｅｗ　ｌｉｎｅｓ,,合同会社,東京都,渋谷区,渋谷２丁目１９－１５宮益坂ビルディング６０９,,13,113,1500002,,,,,,,2022-01-05,1,,,,,スキューラインズ,0
608,3011101097194,新規,0,2022-01-05,2022-01-05,株式会社ｌｌｃｈｅｅｓｅｌｌ,,株式会社,東京都,新宿区,西新宿６丁目１５－１－２５０３,,13,104,1600023,,,,,,,2022-01-05,1,,,,,チーズ,0
613,3011401023940,新規,0,2022-01-05,2022-01-05,株式会社リライブ,,株式会社,東京都,板橋区,赤塚４丁目３２番２６号フォレストパーク５号室,,13,119,1750092,,,,,,,2022-01-05,1,,,,,リライブ,0
614,3011403003536,新規,0,2022-01-05,2022-01-05,プランクプラン合同会社,,合同会社,東京都,板橋区,高島平８丁目６番６－６０１号,,13,119,1750082,,,,,,,2022-01-05,1,,,,,プランクプラン,0
621,3011701024952,新規,0,2022-01-05,2022-01-05,株式会社ＭＫアドバンス,,株式会社,東京都,江戸川区,松江５丁目１１番２２号,,13,123,1320025,,,,,,,2022-01-05,1,,,,,,0
623,3011803004910,新規,0,2022-01-05,2022-01-05,Ａ．Ｈ．ＣＯＲＰＯＲＡＴＩＯＮ合同会社,,合同会社,東京都,葛飾区,堀切４丁目１９番８号たちばなコーポ５０２号,,13,122,1240006,,,,,,,2022-01-05,1,,,,,エーエイチコーポレーション,0
625,3012701016840,新規,0,2022-01-05,2022-01-05,株式会社佑,,株式会社,東京都,東久留米市,前沢４丁目１２番１４号,,13,222,2030032,,,,,,,2022-01-05,1,,,,,タスク,0
626,3012701016849,新規,0,2022-01-05,2022-01-05,株式会社Ｏｓｃａｒ２,,株式会社,東京都,東村山市,本町３丁目２４番地１,,13,213,1890014,,,,,,,2022-01-05,1,,,,,オスカーツー,0
627,3012701016865,新規,0,2022-01-05,2022-01-05,ＦｉｉＫＡ株式会社,,株式会社,東京都,西東京市,谷戸町３丁目２７番２４号ひばりヶ丘プラザ２０３,,13,229,1880001,,,,,,,2022-01-05,1,,,,,フィーカ,0
629,3013301048497,新規,0,2022-01-05,2022-01-05,ミックスベイ株式会社,,株式会社,東京都,豊島区,東池袋１丁目３１番１３号ライオンズマンション東池袋第３－８０２号室,,13,116,1700013,,,,,,,2022-01-05,1,,,,,ミックスベイ,0
644,3020001144551,新規,0,2022-01-05,2022-01-05,株式会社Ｌｅａｐｅｘ,,株式会社,神奈川県,横浜市都筑区,南山田３丁目２５番１７号,,14,118,2240029,,,,,,,2022-01-05,1,,,,,リーペックス,0
645,3020001144568,新規,0,2022-01-05,2022-01-05,株式会社ハーディーズ,,株式会社,神奈川県,横浜市中区,長者町３丁目８番１３号,,14,104,2310033,,,,,,,2022-01-05,1,,,,,ハーディーズ,0
647,3020003021047,新規,0,2022-01-05,2022-01-05,合同会社ｅｋ,,合同会社,神奈川県,横浜市神奈川区,台町１１番地１６－１１０１号,,14,102,2210834,,,,,,,2022-01-05,1,,,,,イーケー,0
659,3030003018570,新規,0,2022-01-05,2022-01-05,格一合同会社,,合同会社,埼玉県,川口市,本町４丁目１１番４－６０１号,,11,203,3320012,,,,,,,2022-01-05,1,,,,,カクイチ,0
660,3030003018587,新規,0,2022-01-05,2022-01-05,艶陽国際合同会社,,合同会社,埼玉県,川口市,並木３丁目３０－４,,11,203,3320034,,,,,,,2022-01-05,1,,,,,エンヨウコクサイ,0
666,3040001121532,新規,0,2022-01-05,2022-01-05,株式会社セーフノイン,,株式会社,千葉県,柏市,大室１３４０番地の１１１,,12,217,2770813,,,,,,,2022-01-05,1,,,,,セーフノイン,0
675,3080001024673,新規,0,2022-01-05,2022-01-05,株式会社ピュアハートハウス,,株式会社,静岡県,島田市,河原１丁目４番２５号,,22,209,4270037,,,,,,,2022-01-05,1,,,,,ピュアハートハウス,0
676,3080003002710,新規,0,2022-01-05,2022-01-05,合同会社ＹＫＯ,,合同会社,静岡県,静岡市清水区,浜田町３番２号,,22,103,4240834,,,,,,,2022-01-05,1,,,,,ワイケーオー,0
683,3110001036310,新規,0,2022-01-05,2022-01-05,泉苑株式会社,,株式会社,新潟県,三条市,泉新田字舛ノ内２７５３番地,,15,204,9591143,,,,,,,2022-01-05,1,,,,,イズミエン,0
684,3110001036319,新規,0,2022-01-05,2022-01-05,株式会社Ｒｅｇａｌｏ,,株式会社,新潟県,新潟市東区,猿ケ馬場１丁目５番２２号５,,15,102,9500835,,,,,,,2022-01-05,1,,,,,レガーロ,0
690,3120001242808,新規,0,2022-01-05,2022-01-05,ｃｌｅｔｏｉｌｅ株式会社,,株式会社,大阪府,大阪市北区,西天満３丁目１３番１４号ハイデンス梅ヶ枝,,27,127,5300047,,,,,,,2022-01-05,1,,,,,クレトワール,0
694,3120101064870,新規,0,2022-01-05,2022-01-05,株式会社ＭＫ,,株式会社,大阪府,堺市南区,三原台１丁１番３号,,27,145,5900111,,,,,,,2022-01-05,1,,,,,エムケー,0
695,3130001070828,新規,0,2022-01-05,2022-01-05,東浩株式会社,,株式会社,京都府,京都市南区,猪熊通八条上る戒光寺町１８３－４－２０２,,26,107,6018406,,,,,,,2022-01-05,1,,,,,トウコウ,0
697,3130005016348,新規,0,2022-01-05,2022-01-05,特定非営利活動法人ひとまわり,,その他の設立登記法人,京都府,舞鶴市,字喜多７３番地１,,26,202,6240945,,,,,,,2022-01-05,1,,,,,ヒトマワリ,0
705,3140001124376,新規,0,2022-01-05,2022-01-05,株式会社ＣＡ－ＲＥ－ＳＰＥＣＴ,,株式会社,兵庫県,尼崎市,栗山町１丁目２２番３０号１０５号室,,28,202,6610013,,,,,,,2022-01-05,1,,,,,ケアスペクト,0
708,3140005025975,新規,0,2022-01-05,2022-01-05,医療法人社団山緑会,,その他の設立登記法人,兵庫県,神戸市西区,岩岡町岩岡８９０番地の６,,28,111,6512401,,,,,,,2022-01-05,1,,,,,サンリョクカイ,0
714,3160005011024,新規,0,2022-01-05,2022-01-05,土地家屋調査士法人瀬田の唐橋総合事務所,,その他の設立登記法人,滋賀県,大津市,瀬田２丁目１０番８号,,25,201,5202134,,,,,,,2022-01-05,1,,,,,セタノカラハシソウゴウジムショ,0
728,3180301035773,新規,0,2022-01-05,2022-01-05,パルクジャパン株式会社,,株式会社,愛知県,岡崎市,羽根北町４丁目３番地６,,23,202,4440831,,,,,,,2022-01-05,1,,,,,パルクジャパン,0
731,3200001039592,新規,0,2022-01-05,2022-01-05,株式会社青木建装,,株式会社,岐阜県,岐阜市,庵町１３番地７４,,21,201,5008139,,,,,,,2022-01-05,1,,,,,アオキケンソウ,0
735,3210001018744,新規,0,2022-01-05,2022-01-05,株式会社ポセイドン,,株式会社,福井県,福井市,飯塚町第８号１１２番地１,,18,201,9188067,,,,,,,2022-01-05,1,,,,,ポセイドン,0
746,3250003002973,新規,0,2022-01-05,2022-01-05,合同会社田中畳表店,,合同会社,山口県,萩市,大字熊谷町３６番地,,35,204,7580034,,,,,,,2022-01-05,1,,,,,タナカタタミオモテテン,0
749,3260001036361,新規,0,2022-01-05,2022-01-05,株式会社ｔｉｔｏ,,株式会社,岡山県,倉敷市,阿知２丁目７番５号,,33,202,7100055,,,,,,,2022-01-05,1,,,,,ティト,0
753,3260003003756,新規,0,2022-01-05,2022-01-05,合同会社Ｊ－Ｃｒｅａｔｅ,,合同会社,岡山県,岡山市北区,奉還町２丁目１番２２号宮本ビル４０１,,33,101,7000026,,,,,,,2022-01-05,1,,,,,ジェイクリエイト,0
762,3290001095875,新規,0,2022-01-05,2022-01-05,株式会社ｂａｓｅｃａｍｐ,,株式会社,福岡県,福津市,手光１８１６番地の４,,40,224,8113224,,,,,,,2022-01-05,1,,,,,ベースキャンプ,0
763,3290001095900,新規,0,2022-01-05,2022-01-05,株式会社クラスト,,株式会社,福岡県,久留米市,国分町１３７７番１ＮＡＮＡ　ＴＨＥ　ＳＴＹＬＥ　ＮＩＳＨＩ－ＫＯＫＵＢＵ１０１号,,40,203,8390863,,,,,,,2022-01-05,1,,,,,クラスト,0
775,3310001017653,新規,0,2022-01-05,2022-01-05,ユウワコンサルティング株式会社,,株式会社,長崎県,長崎市,元船町２番８号元船さくらビル７階,,42,201,8500035,,,,,,,2022-01-05,1,,,,,ユウワコンサルティング,0
776,3310001017661,新規,0,2022-01-05,2022-01-05,株式会社みのる企画,,株式会社,長崎県,諫早市,小長井町小川原浦８１０番地３,,42,204,8590165,,,,,,,2022-01-05,1,,,,,ミノルキカク,0
778,3310005008574,新規,0,2022-01-05,2022-01-05,特定非営利活動法人賀谷藻場保全会,,その他の設立登記法人,長崎県,対馬市,美津島町賀谷１６３番地３２,,42,209,8171103,,,,,,,2022-01-05,1,,,,,ガヤモバホゼンカイ,0
779,3320001018816,新規,0,2022-01-05,2022-01-05,株式会社将誠,,株式会社,大分県,大分市,大字野津原１２２３番地の１０,,44,201,8701203,,,,,,,2022-01-05,1,,,,,ショウセイ,0
786,3330003009184,新規,0,2022-01-05,2022-01-05,合同会社ＳＭＩＬＥ　ＥＮＴＥＲＴＡＩＮＭＥＮＴ,,合同会社,熊本県,熊本市西区,二本木４丁目７－５－２,,43,103,8600051,,,,,,,2022-01-05,1,,,,,スマイルエンターテイメント,0
787,3340003003665,新規,0,2022-01-05,2022-01-05,合同会社ＲＥＸＳＯＬ,,合同会社,鹿児島県,霧島市,国分広瀬１丁目１番１８号,,46,218,8994321,,,,,,,2022-01-05,1,,,,,レクソル,0
788,3350001017501,新規,0,2022-01-05,2022-01-05,株式会社明夢,,株式会社,宮崎県,延岡市,緑ケ丘２丁目２８番２８号,,45,203,8820863,,,,,,,2022-01-05,1,,,,,メイユウ,0
789,3360003011690,新規,0,2022-01-05,2022-01-05,合同会社Ｒ,,合同会社,沖縄県,那覇市,首里真和志町２丁目４４番地８,,47,201,9030816,,,,,,,2022-01-05,1,,,,,アール,0
793,3370001048016,新規,0,2022-01-05,2022-01-05,ザッツエンターテイメント株式会社,,株式会社,宮城県,仙台市宮城野区,宮千代２丁目１４番地の５イーストコートＩ－１０２,00125307,04,102,9830044,,,,,,,2022-01-05,1,,,,,ザッツエンターテイメント,0
799,3390003001904,新規,0,2022-01-05,2022-01-05,合同会社麦角社,,合同会社,山形県,新庄市,住吉町２‐２０,,06,205,9960022,,,,,,,2022-01-05,1,,,,,バッカクシャ,0
802,3400001015730,新規,0,2022-01-05,2022-01-05,株式会社レアサービス,,株式会社,岩手県,北上市,相去町中成沢３１番地３８,,03,206,0240051,,,,,,,2022-01-05,1,,,,,レアサービス,0
804,3410001013056,新規,0,2022-01-05,2022-01-05,あきた仙北水力発電株式会社,,株式会社,秋田県,仙北市,田沢湖生保内字牛沢７７番地,,05,215,0141201,,,,,,,2022-01-05,1,,,,,アキタセンボクスイリョクハツデン,0
808,3420001017683,新規,0,2022-01-05,2022-01-05,株式会社ＳＵＴＯＺＥＮ　ＨＤ,,株式会社,青森県,黒石市,一番町１７３番地,,02,204,0360301,,,,,,,2022-01-05,1,,,,,ストゼンホールディングス,0
811,3430001085696,新規,0,2022-01-05,2022-01-05,株式会社なかの,,株式会社,北海道,札幌市西区,西野三条６丁目３番１１号,,01,107,0630033,,,,,,,2022-01-05,1,,,,,ナカノ,0
816,3460003000873,新規,0,2022-01-05,2022-01-05,合同会社平井工房,,合同会社,北海道,釧路市,新栄町１１番１１号,,01,206,0850032,,,,,,,2022-01-05,1,,,,,ヒライコウボウ,0
818,3460301002605,新規,0,2022-01-05,2022-01-05,千葉木材工業株式会社,,株式会社,北海道,網走郡津別町,字達美８７番地,,01,544,0920203,,,,,,,2022-01-05,1,,,,,チバモクザイコウギョウ,0
819,3470001018900,新規,0,2022-01-05,2022-01-05,株式会社ＲＥＴＯＬＡＢ,,株式会社,香川県,高松市,香川町大野１２４番地５,,37,201,7611701,,,,,,,2022-01-05,1,,,,,レトラボ,0
823,3480001011598,新規,0,2022-01-05,2022-01-05,カネキン商事株式会社,,株式会社,徳島県,鳴門市,撫養町黒崎字宮津１１８番地１４,,36,202,7720001,,,,,,,2022-01-05,1,,,,,カネキンショウジ,0
827,3490003001613,新規,0,2022-01-05,2022-01-05,合同会社宮地,,合同会社,高知県,高知市,口細山５４－１４２,,39,201,7800963,,,,,,,2022-01-05,1,,,,,ミヤジ,0
831,3500001023905,新規,0,2022-01-05,2022-01-05,株式会社松電匠,,株式会社,愛媛県,松山市,高野町甲６９番地３,,38,201,7910102,,,,,,,2022-01-05,1,,,,,マツデンショウ,0
850,4010001223545,新規,0,2022-01-05,2022-01-05,ＳＡＴＯＲＩ　ＲＥＳＥＡＲＣＨ　ＪＡＰＡＮ株式会社,,株式会社,東京都,千代田区,岩本町２丁目７番１２号,,13,101,1010032,,,,,,,2022-01-05,1,,,,,サトリリサーチジャパン,0
851,4010001223578,新規,0,2022-01-05,2022-01-05,株式会社ｅ－Ｄｅｓｉｇｎ．,,株式会社,東京都,中央区,銀座１丁目６番８号第２上一ビル３階,,13,102,1040061,,,,,,,2022-01-05,1,,,,,イーデザイン,0
852,4010001223603,新規,0,2022-01-05,2022-01-05,株式会社ハナブサ,,株式会社,東京都,千代田区,飯田橋１丁目５番５号,,13,101,1020072,,,,,,,2022-01-05,1,,,,,ハナブサ,0
855,4010003036490,新規,0,2022-01-05,2022-01-05,合同会社Ｑ　ｃｒｅａｔｏｒｓ,,合同会社,東京都,中央区,日本橋２丁目１番１７号丹生ビル２階,,13,102,1030027,,,,,,,2022-01-05,1,,,,,キュークリエイターズ,0
861,4010501048277,新規,0,2022-01-05,2022-01-05,株式会社ＡＮＳＥＲ　ＺＥＲＯ,,株式会社,東京都,台東区,浅草橋４丁目１６番７号ＺＯＯＭ秋葉原ＥＡＳＴ８０１,,13,106,1110053,,,,,,,2022-01-05,1,,,,,アンサーゼロ,0
864,4010703006058,新規,0,2022-01-05,2022-01-05,合同会社一葉,,合同会社,東京都,品川区,西品川２丁目１９番８－３０７号,,13,109,1410033,,,,,,,2022-01-05,1,,,,,イチヨウ,0
867,4010901050080,新規,0,2022-01-05,2022-01-05,株式会社ＯＨ　ＭＹ　ＧＯＤ,,株式会社,東京都,世田谷区,上野毛１丁目２９番７号３Ｆ,,13,112,1580093,,,,,,,2022-01-05,1,,,,,オーマイゴッド,0
869,4010903007046,新規,0,2022-01-05,2022-01-05,合同会社エムアール,,合同会社,東京都,世田谷区,桜上水５丁目９番２２号,,13,112,1560045,,,,,,,2022-01-05,1,,,,,エムアール,0
872,4011001144806,新規,0,2022-01-05,2022-01-05,株式会社東京ダイム,,株式会社,東京都,渋谷区,神宮前６丁目２３番４号桑野ビル２階,,13,113,1500001,,,,,,,2022-01-05,1,,,,,,0
875,4011101097400,新規,0,2022-01-05,2022-01-05,株式会社スウィフト,,株式会社,東京都,新宿区,西新宿５丁目５番１－１２１２号,,13,104,1600023,,,,,,,2022-01-05,1,,,,,スウィフト,0
876,4011101097409,新規,0,2022-01-05,2022-01-05,株式会社Ｂｅ‐Ｙｏｎｄ．,,株式会社,東京都,新宿区,新宿５丁目１８－２０,,13,104,1600022,,,,,,,2022-01-05,1,,,,,ビヨンド,0
880,4011403003535,新規,0,2022-01-05,2022-01-05,Ｂｏｒｕｚａ合同会社,,合同会社,東京都,板橋区,赤塚新町２丁目５－２パーシモンハイツ１０３,,13,119,1750093,,,,,,,2022-01-05,1,,,,,ボルジャ,0
882,4011501027618,新規,0,2022-01-05,2022-01-05,株式会社美風道,,株式会社,東京都,北区,昭和町３丁目８番８号,,13,117,1140011,,,,,,,2022-01-05,1,,,,,ビフウドウ,0
885,4011801040147,新規,0,2022-01-05,2022-01-05,株式会社ｙ．ｎ．ｓ．,,株式会社,東京都,足立区,辰沼２丁目１７番２６－１０１号ＲＳＡ,,13,121,1210054,,,,,,,2022-01-05,1,,,,,ワイエヌエス,0
899,4013303005966,新規,0,2022-01-05,2022-01-05,京連貿易合同会社,,合同会社,東京都,豊島区,西池袋１丁目２９番１４号オリエント池袋３０６号室,,13,116,1710021,,,,,,,2022-01-05,1,,,,,キョウレンボウエキ,0
910,4020001144559,新規,0,2022-01-05,2022-01-05,株式会社Ｓａｔｕｒａｔｉｏｎ,,株式会社,神奈川県,横浜市金沢区,西柴１丁目２１番４号,,14,108,2360017,,,,,,,2022-01-05,1,,,,,サチュレーション,0
911,4020001144567,新規,0,2022-01-05,2022-01-05,株式会社ゆうしゅんライフサポート,,株式会社,神奈川県,横浜市旭区,本宿町５４番地４４,,14,112,2410023,,,,,,,2022-01-05,1,,,,,ユウシュンライフサポート,0
921,4021001074829,新規,0,2022-01-05,2022-01-05,クリスター化成工業株式会社,,株式会社,神奈川県,相模原市緑区,青山２９３２番地２,,14,151,2520156,,,,,,,2022-01-05,1,,,,,クリスターカセイコウギョウ,0
929,4030001146109,新規,0,2022-01-05,2022-01-05,株式会社丸辰,,株式会社,埼玉県,川越市,霞ケ関北１丁目１９番地１５,,11,201,3501109,,,,,,,2022-01-05,1,,,,,マルシン,0
930,4030001146141,新規,0,2022-01-05,2022-01-05,株式会社システムＳ,,株式会社,埼玉県,鴻巣市,原馬室２４２４番地６,,11,217,3650043,,,,,,,2022-01-05,1,,,,,システムエス,0
934,4030003018561,新規,0,2022-01-05,2022-01-05,長楽合同会社,,合同会社,埼玉県,蕨市,塚越７丁目３０番５号,,11,223,3350002,,,,,,,2022-01-05,1,,,,,チョウラク,0
937,4050001029872,新規,0,2022-01-05,2022-01-05,株式会社桜梱包運輸,,株式会社,茨城県,常総市,大輪町９０３番地の６,,08,211,3002512,,,,,,,2022-01-05,1,,,,,サクラコンポウウンユ,0
940,4070001038797,新規,0,2022-01-05,2022-01-05,株式会社なおし屋‐リフォーム,,株式会社,群馬県,太田市,石橋町７３５番地１３,,10,205,3730007,,,,,,,2022-01-05,1,,,,,ナオシヤリフォーム,0
943,4080101023021,新規,0,2022-01-05,2022-01-05,株式会社ｍｏｍｏｔｅｃｈ,,株式会社,静岡県,裾野市,稲荷５３番地の１コーポラスイナリ１０２,,22,220,4101113,,,,,,,2022-01-05,1,,,,,モモテック,0
947,4100001034933,新規,0,2022-01-05,2022-01-05,Ｗｈｏｌｅ　ｒｅｐａｉｒ　ｔｅｃ株式会社,,株式会社,長野県,諏訪市,大字上諏訪９０４４番地１,,20,206,3920003,,,,,,,2022-01-05,1,,,,,ホールレペールテック,0
960,4120001242856,新規,0,2022-01-05,2022-01-05,株式会社池田屋,,株式会社,大阪府,大阪市生野区,中川６丁目５番２１号,,27,116,5440005,,,,,,,2022-01-05,1,,,,,イケダヤ,0
961,4120001242864,新規,0,2022-01-05,2022-01-05,ＦｏｏｄＳｅｌｅｃｔｉｏｎ一株式会社,,株式会社,大阪府,大阪市生野区,鶴橋２丁目５番３０号,,27,116,5440031,,,,,,,2022-01-05,1,,,,,フードセレクションカズ,0
962,4120003020863,新規,0,2022-01-05,2022-01-05,合同会社ＨＲＣ,,合同会社,大阪府,大阪市中央区,南船場４丁目９－１２－２０１,,27,128,5420081,,,,,,,2022-01-05,1,,,,,エイチアールシー,0
963,4120003020871,新規,0,2022-01-05,2022-01-05,エス合同会社,,合同会社,大阪府,大阪市東成区,深江南３丁目２２番１９号,,27,115,5370002,,,,,,,2022-01-05,1,,,,,エス,0
968,4120901045417,新規,0,2022-01-05,2022-01-05,株式会社ＫＯＵ,,株式会社,大阪府,吹田市,清和園町４番８号,,27,205,5640039,,,,,,,2022-01-05,1,,,,,ケーオーユー,0
969,4122001035471,新規,0,2022-01-05,2022-01-05,株式会社ＥМ－ＴＥＣＨ製作所,,株式会社,大阪府,東大阪市,加納５丁目１２番３４号,,27,227,5780901,,,,,,,2022-01-05,1,,,,,イーエムテックセイサクショ,0
970,4122003002247,新規,0,2022-01-05,2022-01-05,合同会社岡田金属工業所,,合同会社,大阪府,東大阪市,布市町２丁目４番３５号,,27,227,5798004,,,,,,,2022-01-05,1,,,,,オカダキンゾクコウギョウショ,0
971,4130001070827,新規,0,2022-01-05,2022-01-05,株式会社てらまち福田,,株式会社,京都府,京都市下京区,寺町通仏光寺下る恵美須之町５２８番地えびすテラス２０４,,26,106,6008033,,,,,,,2022-01-05,1,,,,,テラマチフクダ,0
975,4140001124375,新規,0,2022-01-05,2022-01-05,ＴＫＭ株式会社,,株式会社,兵庫県,尼崎市,武庫之荘１丁目１２番１４号,,28,202,6610035,,,,,,,2022-01-05,1,,,,,ティーケイエム,0
978,4140005025974,新規,0,2022-01-05,2022-01-05,医療法人社団北村歯科医院,,その他の設立登記法人,兵庫県,神戸市兵庫区,笠松通６丁目３番９号,,28,105,6520864,,,,,,,2022-01-05,1,,,,,キタムラシカイイン,0
981,4160001023922,新規,0,2022-01-05,2022-01-05,株式会社関西中央食品,,株式会社,滋賀県,草津市,岡本町１０００番地６８,,25,206,5250044,,,,,,,2022-01-05,1,,,,,カンサイチュウオウショクヒン,0
982,4160003002461,新規,0,2022-01-05,2022-01-05,合同会社Ｈ・Ｋ・Ｐグループ,,合同会社,滋賀県,蒲生郡日野町,大字小井口３７番地５３,,25,383,5291605,,,,,,,2022-01-05,1,,,,,エイチケイピーグループ,0
983,4160005011023,新規,0,2022-01-05,2022-01-05,一般社団法人古民家再生協会滋賀南,,その他の設立登記法人,滋賀県,野洲市,小篠原１２６６番地１トモエアパート５号室,,25,210,5202331,,,,,,,2022-01-05,1,,,,,コミンカサイセイキョウカイシガミナミ,0
991,4180001149311,新規,0,2022-01-05,2022-01-05,株式会社日の出,,株式会社,愛知県,名古屋市昭和区,高辻町６番８号,00125285,23,107,4660057,,,,,,,2022-01-05,1,,,,,ヒノデ,0
995,4180301035772,新規,0,2022-01-05,2022-01-05,東海光学ホールディングス株式会社,,株式会社,愛知県,岡崎市,恵田町字下田５番地２６,,23,202,4442107,,,,,,,2022-01-05,1,,,,,トウカイコウガクホールディングス,0
996,4180301035780,新規,0,2022-01-05,2022-01-05,株式会社Ｂメルシー,,株式会社,愛知県,安城市,横山町浜畔上６２番地,,23,212,4460045,,,,,,,2022-01-05,1,,,,,,0
997,4180301035789,新規,0,2022-01-05,2022-01-05,株式会社金子ＪＡＰＡＮ,,株式会社,愛知県,西尾市,馬場町１７番地２,,23,213,4450841,,,,,,,2022-01-05,1,,,,,カネコジャパン,0
999,4190001028992,新規,0,2022-01-05,2022-01-05,株式会社ゲレンデ,,株式会社,三重県,四日市市,東坂部町５３番地１,,24,202,5120904,,,,,,,2022-01-05,1,,,,,ゲレンデ,0
1000,4190003003861,新規,0,2022-01-05,2022-01-05,合同会社エクセレントＳＡＩＫＩ,,合同会社,三重県,四日市市,日永２丁目７番２２号,,24,202,5100885,,,,,,,2022-01-05,1,,,,,エクセレントサイキ,0
1005,4200003005410,新規,0,2022-01-05,2022-01-05,合資会社正者,,合資会社,岐阜県,郡上市,白鳥町白鳥１００４番地,,21,219,5015121,,,,,,,2022-01-05,1,,,,,ショウシャ,0
1006,4210001018743,新規,0,2022-01-05,2022-01-05,株式会社Ｔｏｂｉｕｃｈｉ,,株式会社,福井県,福井市,経田２丁目１３１９番地サンビレッジ経田Ｂ棟２０１,,18,201,9100011,,,,,,,2022-01-05,1,,,,,トビウチ,0
1008,4220001024617,新規,0,2022-01-05,2022-01-05,株式会社Ｔ‐ＲＥＸ,,株式会社,石川県,白山市,鶴来大国町西５１９番地,,17,210,9202133,,,,,,,2022-01-05,1,,,,,ティーレックス,0
1009,4220001024625,新規,0,2022-01-05,2022-01-05,株式会社ｏｔｔｅ　ｋｏｍａｔｓｕ,,株式会社,石川県,金沢市,畝田中３丁目１２番地,,17,201,9200343,,,,,,,2022-01-05,1,,,,,オッテコマツ,0
1012,4230001019161,新規,0,2022-01-05,2022-01-05,ＡＴＬＡＳ株式会社,,株式会社,富山県,滑川市,森尻新９３番地,,16,206,9360845,,,,,,,2022-01-05,1,,,,,アトラス,0
1019,4240001059108,新規,0,2022-01-05,2022-01-05,株式会社Ｂｅｉｎｇ　Ｓｔｙｌｅ,,株式会社,広島県,福山市,曙町２丁目１８番７号,00125300,34,207,7210952,,,,,,,2022-01-05,1,,,,,ビーイングスタイル,0
1020,4240001059116,新規,0,2022-01-05,2022-01-05,株式会社ＴＧＭ,,株式会社,広島県,三原市,中之町８丁目１０番５２号,,34,204,7230003,,,,,,,2022-01-05,1,,,,,ティージーエム,0
1025,4250001019317,新規,0,2022-01-05,2022-01-05,株式会社ユニティーヤードレコーズ,,株式会社,山口県,山陽小野田市,中川６丁目１番６号,,35,216,7560806,,,,,,,2022-01-05,1,,,,,ユニティーヤードレコーズ,0
1030,4260001036352,新規,0,2022-01-05,2022-01-05,詫美建設株式会社,,株式会社,岡山県,倉敷市,新田２４２４番地の１,,33,202,7100038,,,,,,,2022-01-05,1,,,,,タクミケンセツ,0
1031,4260001036369,新規,0,2022-01-05,2022-01-05,株式会社さんらいと岡山,,株式会社,岡山県,赤磐市,桜が丘東２丁目２番地１０２,,33,213,7090721,,,,,,,2022-01-05,1,,,,,サンライトオカヤマ,0
1032,4260001036377,新規,0,2022-01-05,2022-01-05,株式会社コスモス不動産,,株式会社,岡山県,岡山市北区,一宮８３９番地２,,33,101,7011211,,,,,,,2022-01-05,1,,,,,コスモスフドウサン,0
1040,4290001095866,新規,0,2022-01-05,2022-01-05,株式会社アイケン建設,,株式会社,福岡県,福岡市中央区,天神２丁目７番２１号天神プライム１２階,,40,133,8100001,,,,,,,2022-01-05,1,,,,,アイケンケンセツ,0
1041,4290001095890,新規,0,2022-01-05,2022-01-05,株式会社Ｅａｕｒｏｕｇｅ,,株式会社,福岡県,福岡市中央区,薬院１丁目６番３６号,,40,133,8100022,,,,,,,2022-01-05,1,,,,,オールージュ,0
1045,4300005007056,新規,0,2022-01-05,2022-01-05,ＮＰＯ法人ｉ‐ｓｔｙｌｅ,,その他の設立登記法人,佐賀県,伊万里市,新天町７１２番地５ボヌールシャンスＩ４０２,00125289,41,205,8480041,,,,,,,2022-01-05,1,,,,,アイスタイル,0
1049,4330001029308,新規,0,2022-01-05,2022-01-05,むらかみ建築株式会社,,株式会社,熊本県,熊本市南区,内田町１９３３番地３,,43,104,8614127,,,,,,,2022-01-05,1,,,,,ムラカミケンチク,0
1050,4330001029316,新規,0,2022-01-05,2022-01-05,株式会社翁電坊,,株式会社,熊本県,熊本市北区,楠７丁目１番７ー３０１号,,43,105,8618003,,,,,,,2022-01-05,1,,,,,オキナデンボウ,0
1052,4350001017500,新規,0,2022-01-05,2022-01-05,株式会社アイビーキッチン設備,,株式会社,宮崎県,宮崎市,大字小松７２０番地１,,45,201,8802112,,,,,,,2022-01-05,1,,,,,アイビーキッチンセツビ,0
1057,4370001048007,新規,0,2022-01-05,2022-01-05,東北ブロック株式会社,,株式会社,宮城県,仙台市青葉区,芋沢字赤坂中２７番地の５,,04,101,9893212,,,,,,,2022-01-05,1,,,,,トウホクブロック,0
1058,4370001048015,新規,0,2022-01-05,2022-01-05,吉見電器株式会社,,株式会社,宮城県,仙台市宮城野区,榴岡５丁目５番１７－１０１号,,04,102,9830852,,,,,,,2022-01-05,1,,,,,ヨシミデンキ,0
1063,4410001013055,新規,0,2022-01-05,2022-01-05,株式会社ビルダーズビルド,,株式会社,秋田県,秋田市,大町１丁目６番１８号,,05,201,0100921,,,,,,,2022-01-05,1,,,,,ビルダーズビルド,0
1067,4440001009001,新規,0,2022-01-05,2022-01-05,株式会社アリアワークス,,株式会社,北海道,函館市,柏木町１２番１９号,,01,202,0420942,,,,,,,2022-01-05,1,,,,,アリアワークス,0
1070,4460005001547,新規,0,2022-01-05,2022-01-05,一般社団法人北海道温泉活用研究機構,,その他の設立登記法人,北海道,川上郡弟子屈町,川湯温泉３丁目２番地４０号,,01,665,0883465,,,,,,,2022-01-05,1,,,,,ホッカイドウオンセンカツヨウケンキュウキコウ,0
1071,4470003002100,新規,0,2022-01-05,2022-01-05,合同会社Ｒｅｓｅｔ　Ｌｉｆｅ,,合同会社,香川県,丸亀市,土器町東３丁目５５２番地,,37,202,7630082,,,,,,,2022-01-05,1,,,,,リセットライフ,0
1076,4480003001778,新規,0,2022-01-05,2022-01-05,合同会社Ｎ・ソリューションズ,,合同会社,徳島県,徳島市,川内町平石若松２５番地,,36,201,7710135,,,,,,,2022-01-05,1,,,,,エヌソリューションズ,0
1079,4700150106530,新規,0,2022-01-05,2022-01-05,ＣＯＬＯＣＯ　ＬＩＭＩＴＥＤ,,外国会社等,東京都,江東区,豊洲６丁目２－１２アット東京中央第２センター８階,,13,108,1350061,１５　Ｗａｄｈａｍ　Ｇａｒｄｅｎｓ，Ｌｏｎｄｏｎ，ＮＷ３　３ＤＮ　Ｕ．Ｋ,,,,,,2022-01-05,1,,,,,コロコリミテツド,0
1086,5010001223569,新規,0,2022-01-05,2022-01-05,Ｓｔｏｒｙ＆Ｅｕｒｅｋａ株式会社,,株式会社,東京都,中央区,銀座１丁目２２番１１号銀座大竹ビジデンス２階,,13,102,1040061,,,,,,,2022-01-05,1,,,,,ストーリーアンドユリーカ,0
1087,5010001223619,新規,0,2022-01-05,2022-01-05,日本コミュニケイト株式会社,,株式会社,東京都,中央区,東日本橋３丁目８番１号東日本橋コーポラス４０３号,,13,102,1030004,,,,,,,2022-01-05,1,,,,,ニホンコミュニケイト,0
1090,5010003036614,新規,0,2022-01-05,2022-01-05,ニコタキャピタル合同会社,,合同会社,東京都,千代田区,丸の内１丁目８番３号,,13,101,1000005,,,,,,,2022-01-05,1,,,,,,0
1091,5010003036647,新規,0,2022-01-05,2022-01-05,合同会社シルバックス,,合同会社,東京都,千代田区,神田須田町１丁目８番３号メトロフロント神田２０１,,13,101,1010041,,,,,,,2022-01-05,1,,,,,シルバックス,0
1110,5010901050096,新規,0,2022-01-05,2022-01-05,株式会社グリチネマ,,株式会社,東京都,世田谷区,赤堤１丁目２番１１号,,13,112,1560044,,,,,,,2022-01-05,1,,,,,グリチネマ,0
1114,5011001144796,新規,0,2022-01-05,2022-01-05,株式会社ｍｇ　ｂｌｏｏｍ,,株式会社,東京都,渋谷区,千駄ヶ谷２丁目３９番３号,,13,113,1510051,,,,,,,2022-01-05,1,,,,,エムジーブルーム,0
1126,5011303004260,新規,0,2022-01-05,2022-01-05,合同会社ＩＺＵＭＩ,,合同会社,東京都,杉並区,高円寺北３丁目１６番１０号,,13,115,1660002,,,,,,,2022-01-05,1,,,,,イズミ,0
1135,5011601025644,新規,0,2022-01-05,2022-01-05,株式会社ストレイト,,株式会社,東京都,練馬区,練馬１丁目２０番８号日建練馬ビル２Ｆ,,13,120,1760001,,,,,,,2022-01-05,1,,,,,ストレイト,0
1140,5011803004917,新規,0,2022-01-05,2022-01-05,合同会社ＳＵＭ,,合同会社,東京都,足立区,入谷１丁目２６番１０－５０２号,,13,121,1210836,,,,,,,2022-01-05,1,,,,,,0
1145,5012701016855,新規,0,2022-01-05,2022-01-05,株式会社ＫＩＺＵＮＡ,,株式会社,東京都,東久留米市,本町２丁目１４番９号,,13,222,2030053,,,,,,,2022-01-05,1,,,,,キズナ,0
1146,5013103001099,新規,0,2022-01-05,2022-01-05,Ｍ＆Ｎ合同会社,,合同会社,東京都,青梅市,新町３丁目１８番９ウエストワンビル２階,,13,205,1980024,,,,,,,2022-01-05,1,,,,,エムアンドエヌ,0
1157,5020001144566,新規,0,2022-01-05,2022-01-05,株式会社プラスワン,,株式会社,神奈川県,横浜市西区,みなとみらい５丁目３番１号Ｐａｒｋ棟１８０８,,14,103,2200012,,,,,,,2022-01-05,1,,,,,プラスワン,0
1159,5020003021020,新規,0,2022-01-05,2022-01-05,合同会社ＭＥＲＲＹ　ＣＲＡＦＴ,,合同会社,神奈川県,横浜市瀬谷区,中屋敷１丁目３３番地５,,14,114,2460004,,,,,,,2022-01-05,1,,,,,メリークラフト,0
1160,5020003021045,新規,0,2022-01-05,2022-01-05,合同会社Ｋｉｔｅ　ａｒｔ　ｆａｃｔｏｒｙ,,合同会社,神奈川県,横浜市保土ケ谷区,天王町２丁目４２番地１５,,14,106,2400003,,,,,,,2022-01-05,1,,,,,キテアートファクトリー,0
1161,5020003021061,新規,0,2022-01-05,2022-01-05,合同会社Ｌｉｋｅ．Ｔｈｅ．Ｓｕｎ,,合同会社,神奈川県,横浜市南区,六ツ川２丁目５６番１６号,,14,105,2320066,,,,,,,2022-01-05,1,,,,,ライクザサン,0
1166,5021003011250,新規,0,2022-01-05,2022-01-05,合同会社Ｋ＆Ｍ,,合同会社,神奈川県,相模原市中央区,すすきの町３２番４号ホワイトペルテＤ１０１,,14,152,2520213,,,,,,,2022-01-05,1,,,,,ケーアンドエム,0
1176,5030001146124,新規,0,2022-01-05,2022-01-05,株式会社ポジティブゴート,,株式会社,埼玉県,八潮市,大字浮塚６８６番地１アルネックスシティ４１７号室,,11,234,3400835,,,,,,,2022-01-05,1,,,,,ポジティブゴート,0
1177,5030001146140,新規,0,2022-01-05,2022-01-05,株式会社成翔,,株式会社,埼玉県,比企郡小川町,大字小川４３１番地９,,11,343,3550321,,,,,,,2022-01-05,1,,,,,セイショウ,0
1185,5030003018585,新規,0,2022-01-05,2022-01-05,合同会社アルクイレ,,合同会社,埼玉県,さいたま市南区,南本町２丁目１－２プラザマツヤビル３階南浦和駅前町田クリニック内,,11,108,3360018,,,,,,,2022-01-05,1,,,,,アルクイレ,0
1189,5040001121571,新規,0,2022-01-05,2022-01-05,株式会社クリエイティブメディア,,株式会社,千葉県,船橋市,本町６丁目１８番１９号第３山中ビル４０１号室,,12,204,2730005,,,,,,,2022-01-05,1,,,,,クリエイティブメディア,0
1195,5050001050398,新規,0,2022-01-05,2022-01-05,株式会社筑波塗装,,株式会社,茨城県,つくば市,稲岡４９５番地９９,,08,220,3050071,,,,,,,2022-01-05,1,,,,,ツクバトソウ,0
1198,5070001038788,新規,0,2022-01-05,2022-01-05,株式会社Ｖａｌｉａｎｃｅ,,株式会社,群馬県,桐生市,小曾根町８番１２号,,10,203,3760043,,,,,,,2022-01-05,1,,,,,ヴァリアンス,0
1200,5080001024671,新規,0,2022-01-05,2022-01-05,株式会社やひろ,,株式会社,静岡県,静岡市葵区,北安東３丁目１６番１０－６号,,22,101,4200881,,,,,,,2022-01-05,1,,,,,ヤヒロ,0
1203,5080401025559,新規,0,2022-01-05,2022-01-05,株式会社メイドインジャパン,,株式会社,静岡県,磐田市,岩井１９０７番地１７３５,,22,211,4380016,,,,,,,2022-01-05,1,,,,,メイドインジャパン,0
1211,5120001242715,新規,0,2022-01-05,2022-01-05,高原商会株式会社,,株式会社,大阪府,大阪市東住吉区,鷹合１丁目１６番９－２０４号,,27,121,5460014,,,,,,,2022-01-05,1,,,,,タカハラショウカイ,0
1212,5120001242731,新規,0,2022-01-05,2022-01-05,Ｓｕｐｒａ－ｔｅｃｈ　Ｊａｐａｎ株式会社,,株式会社,大阪府,大阪市浪速区,芦原１丁目１番７号フォレスト難波西３０２号室,00125302,27,111,5560029,,,,,,,2022-01-05,1,,,,,スープラテックジャパン,0
1213,5120001242806,新規,0,2022-01-05,2022-01-05,三陽株式会社,,株式会社,大阪府,大阪市中央区,谷町７丁目１番３９－３０１号Ａ,,27,128,5420012,,,,,,,2022-01-05,1,,,,,サンヨウ,0
1214,5120001242814,新規,0,2022-01-05,2022-01-05,ソレイユ株式会社,,株式会社,大阪府,枚方市,山之上北町４番１５号２Ｆ,,27,210,5730049,,,,,,,2022-01-05,1,,,,,ソレイユ,0
1215,5120001242839,新規,0,2022-01-05,2022-01-05,株式会社ネクサス警備,,株式会社,大阪府,大阪市北区,本庄東１丁目２２－２０－１０１,,27,127,5310074,,,,,,,2022-01-05,1,,,,,ネクサスケイビ,0
1221,5120003020870,新規,0,2022-01-05,2022-01-05,アイ合同会社,,合同会社,大阪府,大阪市東成区,深江南３丁目２２番１９号,,27,115,5370002,,,,,,,2022-01-05,1,,,,,アイ,0
1222,5120003020879,新規,0,2022-01-05,2022-01-05,合同会社楽旅,,合同会社,大阪府,大阪市西区,千代崎２丁目１８番４－４０２号,,27,106,5500023,,,,,,,2022-01-05,1,,,,,ラクタビ,0
1226,5120101064869,新規,0,2022-01-05,2022-01-05,株式会社ｅａｔ．ｃｒｅａｔｅ,,株式会社,大阪府,堺市北区,長曽根町３番地シュライククリエイティブセンタ－４０１号,,27,146,5918025,,,,,,,2022-01-05,1,,,,,イートクリエイト,0
1227,5120101064877,新規,0,2022-01-05,2022-01-05,株式会社Ｎｅｘｔ　Ｗｉｌｌ,,株式会社,大阪府,阪南市,箱作３５２０番地の９,,27,232,5990232,,,,,,,2022-01-05,1,,,,,ネクストウィル,0
1229,5120901045416,新規,0,2022-01-05,2022-01-05,株式会社アルデバラン,,株式会社,大阪府,吹田市,豊津町１番３０号,,27,205,5640051,,,,,,,2022-01-05,1,,,,,アルデバラン,0
1230,5122001035470,新規,0,2022-01-05,2022-01-05,株式会社Ｔаｎｅ,,株式会社,大阪府,八尾市,山本町南１丁目４番９号つばきビルＶ１０１号,00125292,27,212,5810013,,,,,,,2022-01-05,1,,,,,タネ,0
1231,5122003002246,新規,0,2022-01-05,2022-01-05,合同会社まさるクリエイト,,合同会社,大阪府,八尾市,緑ヶ丘１丁目２番地の１クレール緑ヶ丘１０２号,,27,212,5810837,,,,,,,2022-01-05,1,,,,,マサルクリエイト,0
1236,5150001025209,新規,0,2022-01-05,2022-01-05,株式会社稲田＿工所,00125293,株式会社,奈良県,生駒郡斑鳩町,神南３丁目２０番９号,,29,344,6360143,,,,,,,2022-01-05,1,,,,,イナダテッコウショ,0
1253,5180301035771,新規,0,2022-01-05,2022-01-05,株式会社倉優,,株式会社,愛知県,豊川市,蔵子６丁目５番地１,,23,207,4420842,,,,,,,2022-01-05,1,,,,,クラマサ,0
1254,5180303005211,新規,0,2022-01-05,2022-01-05,ＣＲＥＡＴＲＥＥ合同会社,,合同会社,愛知県,刈谷市,東境町住吉７８番地２１,,23,210,4480007,,,,,,,2022-01-05,1,,,,,クリエイトリー,0
1255,5190001028983,新規,0,2022-01-05,2022-01-05,株式会社樹機工,,株式会社,三重県,四日市市,平尾町３１９０番地１,,24,202,5121205,,,,,,,2022-01-05,1,,,,,イツキキコウ,0
1256,5190001028991,新規,0,2022-01-05,2022-01-05,株式会社Ｒｏｕｎｄ　Ｔｅｃｋ,,株式会社,三重県,松阪市,新町９８０番地,,24,204,5150075,,,,,,,2022-01-05,1,,,,,ラウンドテック,0
1258,5190005011663,新規,0,2022-01-05,2022-01-05,特定非営利活動法人白山文化・スポーツクラブ,,その他の設立登記法人,三重県,津市,白山町古市８０８番地,,24,201,5152612,,,,,,,2022-01-05,1,,,,,ハクサンブンカスポーツクラブ,0
1260,5200001039599,新規,0,2022-01-05,2022-01-05,株式会社Ｔｈａｎｘ,,株式会社,岐阜県,多治見市,滝呂町１７丁目６５番地の６,,21,204,5070813,,,,,,,2022-01-05,1,,,,,サンクス,0
1268,5240001059115,新規,0,2022-01-05,2022-01-05,ココロハレニ株式会社,,株式会社,広島県,広島市中区,東白島町１９番８７－１７０３号,,34,101,7300004,,,,,,,2022-01-05,1,,,,,ココロハレニ,0
1269,5240003005430,新規,0,2022-01-05,2022-01-05,ｓｅｎｓｅ．合同会社,,合同会社,広島県,広島市中区,大手町５丁目１６番７－１４０１号,,34,101,7300051,,,,,,,2022-01-05,1,,,,,センス,0
1270,5250001019324,新規,0,2022-01-05,2022-01-05,株式会社フレッシュ,,株式会社,山口県,山陽小野田市,大字西高泊１１８４番地１,,35,216,7560057,,,,,,,2022-01-05,1,,,,,フレッシュ,0
1271,5250001019332,新規,0,2022-01-05,2022-01-05,株式会社アキヤマ設備,,株式会社,山口県,宇部市,草江１丁目９番２５－２号,,35,202,7550004,,,,,,,2022-01-05,1,,,,,アキヤマセツビ,0
1273,5260001036376,新規,0,2022-01-05,2022-01-05,松本マシンテック株式会社,,株式会社,岡山県,岡山市東区,西大寺中野８１０番地３７,,33,103,7048191,,,,,,,2022-01-05,1,,,,,マツモトマシンテック,0
1281,5290001095898,新規,0,2022-01-05,2022-01-05,株式会社宮丸組,,株式会社,福岡県,福岡市早良区,西入部１丁目２７－２,,40,137,8111121,,,,,,,2022-01-05,1,,,,,ミヤマルグミ,0
1285,5290801028132,新規,0,2022-01-05,2022-01-05,株式会社九上,,株式会社,福岡県,北九州市若松区,上原町５番７号,,40,103,8080015,,,,,,,2022-01-05,1,,,,,キュウジョウ,0
1286,5290805009509,新規,0,2022-01-05,2022-01-05,司法書士法人菱田合同事務所,,その他の設立登記法人,福岡県,北九州市八幡西区,穴生１丁目１４番２０号,,40,109,8060049,,,,,,,2022-01-05,1,,,,,ヒシダゴウドウジムショ,0
1290,5330001029315,新規,0,2022-01-05,2022-01-05,株式会社河村製作所,,株式会社,熊本県,宇城市,三角町前越４４４番地,,43,213,8693206,,,,,,,2022-01-05,1,,,,,カワムラセイサクショ,0
1294,5340003003671,新規,0,2022-01-05,2022-01-05,合同会社ＳＵＮライズ,,合同会社,鹿児島県,鹿児島市,桜ヶ丘５丁目２０番地１０,,46,201,8910175,,,,,,,2022-01-05,1,,,,,サンライズ,0
1296,5350003004000,新規,0,2022-01-05,2022-01-05,合同会社はしもと屋,,合同会社,宮崎県,宮崎市,大字恒久６０６３番地１,,45,201,8800916,,,,,,,2022-01-05,1,,,,,ハシモトヤ,0
1298,5360001029840,新規,0,2022-01-05,2022-01-05,株式会社綾山鳥島ＭＡＴＥＲＩＡＬ,,株式会社,沖縄県,国頭郡今帰仁村,字仲宗根１９７番地,,47,306,9050401,,,,,,,2022-01-05,1,,,,,リョウザントリシママテリアル,0
1300,5370001048006,新規,0,2022-01-05,2022-01-05,株式会社コナリナ,,株式会社,宮城県,東松島市,矢本字大溜２２９番３－３,,04,214,9810503,,,,,,,2022-01-05,1,,,,,コナリナ,0
1302,5370003005533,新規,0,2022-01-05,2022-01-05,合同会社山宗,,合同会社,宮城県,塩竈市,杉の入１丁目５番１０号,,04,203,9850005,,,,,,,2022-01-05,1,,,,,ヤマソウ,0
1309,5400001015729,新規,0,2022-01-05,2022-01-05,株式会社岩手縄文急便,,株式会社,岩手県,一関市,藤沢町黄海字川口沖８０番地１,,03,209,0293311,,,,,,,2022-01-05,1,,,,,,0
1316,5430001027309,新規,0,2022-01-05,2022-01-05,保志興業株式会社,,株式会社,北海道,札幌市中央区,北一条西１０丁目１番地,,01,101,0600001,,,,,,,2022-01-05,1,,,,,,0
1317,5430001085694,新規,0,2022-01-05,2022-01-05,三ツ環解体株式会社,,株式会社,北海道,札幌市豊平区,月寒東四条１６丁目４番１号,,01,105,0620054,,,,,,,2022-01-05,1,,,,,ミツワカイタイ,0
1321,5460103001415,新規,0,2022-01-05,2022-01-05,合同会社ｆｉｌ,,合同会社,北海道,帯広市,西十八条南３６丁目２番地４１,,01,207,0800028,,,,,,,2022-01-05,1,,,,,フィル,0
1327,5480001011596,新規,0,2022-01-05,2022-01-05,株式会社中内ポンプ,,株式会社,徳島県,名西郡石井町,藍畑字高畑９６９番地４,,36,341,7793213,,,,,,,2022-01-05,1,,,,,ナカウチポンプ,0
1328,5480003001777,新規,0,2022-01-05,2022-01-05,合同会社友成工務店,,合同会社,徳島県,美馬市,脇町野村４１３６番地１,,36,207,7793620,,,,,,,2022-01-05,1,,,,,トモナリコウムテン,0
1329,5490001010069,新規,0,2022-01-05,2022-01-05,株式会社大野建築板金,,株式会社,高知県,高知市,種崎８６９番地３１千松グリーンハイツ２０８,,39,201,7810113,,,,,,,2022-01-05,1,,,,,オオノケンチクバンキン,0
1334,5500001023903,新規,0,2022-01-05,2022-01-05,株式会社多田工業,,株式会社,愛媛県,今治市,阿方甲５５０番地１０,,38,202,7940081,,,,,,,2022-01-05,1,,,,,タダコウギョウ,0
1335,5500001023911,新規,0,2022-01-05,2022-01-05,株式会社イシダ内装,,株式会社,愛媛県,松山市,中須賀１丁目２番２０号,,38,201,7918078,,,,,,,2022-01-05,1,,,,,イシダナイソウ,0
1337,5700150106488,新規,0,2022-01-05,2022-01-05,ＳＨＡＭＩＺ　ＡＵＴＯ　ＴＲＡＤＥ　ＣＥＮＴＥＲ,,外国会社等,千葉県,山武市,戸田４９３番地７戸田オフィスＡ,,12,237,2891204,スリランカ民主社会主義共和国、ワッタラ、エンデラムラ、パティリヤクドゥワ、２２１,,,,,,2022-01-05,1,,,,,シヤミズオートトレードセンター,0
1346,6010001223485,新規,0,2022-01-05,2022-01-05,三建ホールディングス株式会社,,株式会社,東京都,中央区,新川１丁目１７番２１号,,13,102,1040033,,,,,,,2022-01-05,1,,,,,サンケンホールディングス,0
1347,6010001223601,新規,0,2022-01-05,2022-01-05,株式会社ふじわらしょうご,,株式会社,東京都,中央区,晴海５丁目１番１７－１８０７号,,13,102,1040053,,,,,,,2022-01-05,1,,,,,フジワラショウゴ,0
1351,6010003036654,新規,0,2022-01-05,2022-01-05,ＫＣＹ合同会社,,合同会社,東京都,中央区,東日本橋３丁目３－１５,,13,102,1030004,,,,,,,2022-01-05,1,,,,,ケイシーワイ,0
1355,6010101015007,新規,0,2022-01-05,2022-01-05,株式会社ハルズホーム,,株式会社,東京都,八王子市,犬目町２８６番地１７,,13,201,1930802,,,,,,,2022-01-05,1,,,,,ハルズホーム,0
1359,6010503006462,新規,0,2022-01-05,2022-01-05,ＳＧＮＭ合同会社,,合同会社,東京都,台東区,浅草橋５丁目１９－１０－４０６アーバネックス秋葉原ＥＡＳＴＩＩＩ,00125288,13,106,1110053,,,,,,,2022-01-05,1,,,,,エスジーエヌエム,0
1371,6010703006048,新規,0,2022-01-05,2022-01-05,合同会社Ｐｉｌｅ　ｕｐ　Ｌｉｎｋｓ,,合同会社,東京都,品川区,大崎３丁目５－３,,13,109,1410032,,,,,,,2022-01-05,1,,,,,パイルアップリンクス,0
1373,6010801032623,新規,0,2022-01-05,2022-01-05,株式会社ＹＳ,,株式会社,東京都,大田区,西蒲田８丁目４番２号,,13,111,1440051,,,,,,,2022-01-05,1,,,,,ワイエス,0
1376,6010901050095,新規,0,2022-01-05,2022-01-05,株式会社キツツキ,,株式会社,東京都,世田谷区,野沢１丁目１２番９号野沢ハイデンス３０２,,13,112,1540003,,,,,,,2022-01-05,1,,,,,,0
1388,6011401023938,新規,0,2022-01-05,2022-01-05,株式会社Ｈｃ　Ｌａｂ,,株式会社,東京都,板橋区,西台１丁目２９番３号１０１,,13,119,1740045,,,,,,,2022-01-05,1,,,,,エイチシーラボ,0
1394,6012301012824,新規,0,2022-01-05,2022-01-05,株式会社人財,,株式会社,東京都,町田市,能ヶ谷１丁目１１番８号,,13,209,1950053,,,,,,,2022-01-05,1,,,,,ジンザイ,0
1406,6012703002381,新規,0,2022-01-05,2022-01-05,合同会社テネモンズ,,合同会社,東京都,東久留米市,八幡町１丁目９番２８号Ｄ５０３,,13,222,2030042,,,,,,,2022-01-05,1,,,,,テネモンズ,0
1420,6020001144565,新規,0,2022-01-05,2022-01-05,株式会社ＷｅａｌＳｏｆｔ,,株式会社,神奈川県,横浜市西区,みなとみらい４丁目９－２Ｄ－１５１０,,14,103,2200012,,,,,,,2022-01-05,1,,,,,ウェルソフト,0
1421,6020001144573,新規,0,2022-01-05,2022-01-05,株式会社望未市,,株式会社,神奈川県,横浜市戸塚区,平戸町１１４９番地８サンハイツ１０２号,,14,110,2440803,,,,,,,2022-01-05,1,,,,,ノゾミイチ,0
1426,6020003021044,新規,0,2022-01-05,2022-01-05,合同会社グローイング・シー,,合同会社,神奈川県,横浜市栄区,公田町１６３８－１２－１０１,,14,115,2470014,,,,,,,2022-01-05,1,,,,,グローイングシー,0
1427,6020003021052,新規,0,2022-01-05,2022-01-05,合同会社ＮＥＸＴ　ＭＡＧＩＣ,,合同会社,神奈川県,横浜市青葉区,桜台３３－１２－１０４,,14,117,2270061,,,,,,,2022-01-05,1,,,,,ネクストマジック,0
1435,6030001146123,新規,0,2022-01-05,2022-01-05,株式会社ｍｉｋｋｅ,,株式会社,埼玉県,朝霞市,宮戸４丁目１０番１３号,,11,227,3510031,,,,,,,2022-01-05,1,,,,,ミッケ,0
1436,6030001146131,新規,0,2022-01-05,2022-01-05,株式会社ＫＥＮＨＯ,,株式会社,埼玉県,さいたま市南区,根岸５丁目１１番１７－１２０１号,,11,108,3360024,,,,,,,2022-01-05,1,,,,,ケンホウ,0
1443,6030003018576,新規,0,2022-01-05,2022-01-05,合同会社ＳＮＧ,,合同会社,埼玉県,川口市,芝下２丁目２０番３３号,,11,203,3330848,,,,,,,2022-01-05,1,,,,,エスエヌジー,0
1453,6040003019202,新規,0,2022-01-05,2022-01-05,合同会社海と星,,合同会社,千葉県,夷隅郡御宿町,高山田８３６番地１,,12,443,2995101,,,,,,,2022-01-05,1,,,,,ウミトホシ,0
1455,6040005021478,新規,0,2022-01-05,2022-01-05,司法書士法人フォルセ,,その他の設立登記法人,千葉県,船橋市,本町６丁目１８番１９号１Ｆ,,12,204,2730005,,,,,,,2022-01-05,1,,,,,フォルセ,0
1457,6050001050397,新規,0,2022-01-05,2022-01-05,株式会社クラシックスタジオつくば,,株式会社,茨城県,つくば市,春風台６－６エススペース１０１号,,08,220,3050007,,,,,,,2022-01-05,1,,,,,クラシックスタジオツクバ,0
1466,6080103002491,新規,0,2022-01-05,2022-01-05,大谷製作所合同会社,,合同会社,静岡県,沼津市,本田町１０番９号,,22,203,4100004,,,,,,,2022-01-05,1,,,,,オオタニセイサクショ,0
1468,6080401025558,新規,0,2022-01-05,2022-01-05,鴻運株式会社,,株式会社,静岡県,浜松市西区,大山町４０５４番地の３,,22,133,4311102,,,,,,,2022-01-05,1,,,,,コウウン,0
1473,6110001036308,新規,0,2022-01-05,2022-01-05,株式会社心泉工業,,株式会社,新潟県,新潟市中央区,紫竹山７丁目３番２５号サプラス・２、１０２号,,15,103,9500914,,,,,,,2022-01-05,1,,,,,シセンコウギョウ,0
1486,6120001242788,新規,0,2022-01-05,2022-01-05,株式会社イチエ電装,,株式会社,大阪府,守口市,寺方錦通３丁目５番１０号,,27,209,5700042,,,,,,,2022-01-05,1,,,,,イチエデンソウ,0
1487,6120001242813,新規,0,2022-01-05,2022-01-05,泰榕株式会社,,株式会社,大阪府,大阪市浪速区,日本橋東３丁目１５番３－２０Ｂ,,27,111,5560006,,,,,,,2022-01-05,1,,,,,タイヨウ,0
1496,6120901045415,新規,0,2022-01-05,2022-01-05,株式会社Ｔｓ建築,,株式会社,大阪府,吹田市,垂水町２丁目２２番１－２０５号,,27,205,5640062,,,,,,,2022-01-05,1,,,,,ティーエスケンチク,0
1510,6140001124316,新規,0,2022-01-05,2022-01-05,株式会社Ｊ－ＭＥＴＡＬ,,株式会社,兵庫県,相生市,若狭野町西後明字下タ山１６２番地１４０,,28,208,6780081,,,,,,,2022-01-05,1,,,,,ジェイメタル,0
1514,6150001025199,新規,0,2022-01-05,2022-01-05,徳志建設株式会社,,株式会社,奈良県,大和高田市,蔵之宮町１０番３２号,,29,202,6350044,,,,,,,2022-01-05,1,,,,,トクシケンセツ,0
1518,6170001016915,新規,0,2022-01-05,2022-01-05,ＴＲＥＥ　ＨＯＵＳＥ株式会社,,株式会社,和歌山県,西牟婁郡白浜町,堅田２５３６－２７,,30,401,6492201,,,,,,,2022-01-05,1,,,,,ツリーハウス,0
1525,6180001149326,新規,0,2022-01-05,2022-01-05,株式会社ＩＬＬＮＡ,,株式会社,愛知県,名古屋市中区,栄５丁目１２番３２号,,23,106,4600008,,,,,,,2022-01-05,1,,,,,イルナ,0
1526,6180001149334,新規,0,2022-01-05,2022-01-05,株式会社ＯＦＡ,,株式会社,愛知県,名古屋市中区,錦３丁目７番３１号,,23,106,4600003,,,,,,,2022-01-05,1,,,,,オーエフエー,0
1527,6180301035787,新規,0,2022-01-05,2022-01-05,株式会社ＦＪＴサポートエンジニアリング,,株式会社,愛知県,碧南市,古川町１丁目１番地トリーハイツ西端６０２号,,23,209,4470062,,,,,,,2022-01-05,1,,,,,エフジェイティーサポートエンジニアリング,0
1529,6190001028990,新規,0,2022-01-05,2022-01-05,株式会社伊勢志摩創生プロジェクト,,株式会社,三重県,伊勢市,黒瀬町８６５番地１,,24,203,5160018,,,,,,,2022-01-05,1,,,,,イセシマソウセイプロジェクト,0
1532,6190005011662,新規,0,2022-01-05,2022-01-05,特定非営利活動法人日本ｃｈａ茶ちゃ,,その他の設立登記法人,三重県,松阪市,飯南町粥見６２７番地２,,24,204,5151411,,,,,,,2022-01-05,1,,,,,ニッポンチャチャチャ,0
1533,6200001039581,新規,0,2022-01-05,2022-01-05,株式会社友駿,,株式会社,岐阜県,多治見市,根本町９丁目２５番地の１４,,21,204,5070065,,,,,,,2022-01-05,1,,,,,ユウシュン,0
1534,6200001039607,新規,0,2022-01-05,2022-01-05,株式会社西脇工業,,株式会社,岐阜県,大垣市,青柳町３丁目２１８番地,,21,202,5030961,,,,,,,2022-01-05,1,,,,,ニシワキコウギョウ,0
1540,6250001019323,新規,0,2022-01-05,2022-01-05,株式会社Ｎａｘｃｅ,,株式会社,山口県,下松市,大字瀬戸９８６－１４,,35,207,7440273,,,,,,,2022-01-05,1,,,,,ナクス,0
1549,6290001095880,新規,0,2022-01-05,2022-01-05,株式会社若郷工務店,,株式会社,福岡県,福岡市南区,若久４丁目１番２号わかみやビル１階,,40,134,8150042,,,,,,,2022-01-05,1,,,,,ワカゴウコウムテン,0
1562,6330001029306,新規,0,2022-01-05,2022-01-05,株式会社Ｒｅｖｉｎｃｉ,,株式会社,熊本県,八代市,永碇町１０３１番地１,,43,202,8660885,,,,,,,2022-01-05,1,,,,,レヴィンチ,0
1563,6340001024371,新規,0,2022-01-05,2022-01-05,株式会社ルーヴスローン,,株式会社,鹿児島県,鹿児島市,中山１丁目１番１号,,46,201,8910108,,,,,,,2022-01-05,1,,,,,ルーヴスローン,0
1564,6340003003670,新規,0,2022-01-05,2022-01-05,合同会社Ａｒｄｅｎｔ,,合同会社,鹿児島県,鹿児島市,照国町１５番１７号１Ｆ,,46,201,8920841,,,,,,,2022-01-05,1,,,,,アーデント,0
1565,6360001029848,新規,0,2022-01-05,2022-01-05,株式会社アドバンス,,株式会社,沖縄県,沖縄市,上地３丁目１４番１０号コザコーポラスＡー３,,47,211,9040031,,,,,,,2022-01-05,1,,,,,アドバンス,0
1566,6360003011688,新規,0,2022-01-05,2022-01-05,ＧＴコミュニティ合同会社,,合同会社,沖縄県,石垣市,字大川２７８番地ＴＡＭＡビルＩＩ２Ｆ２０１号室,00125290,47,207,9070022,,,,,,,2022-01-05,1,,,,,ジーティーコミュニティ,0
1569,6370001048005,新規,0,2022-01-05,2022-01-05,株式会社テーブルシステム,,株式会社,宮城県,仙台市青葉区,二日町１１番１９号,,04,101,9800802,,,,,,,2022-01-05,1,,,,,テーブルシステム,0
1570,6370001048021,新規,0,2022-01-05,2022-01-05,相馬工業株式会社,,株式会社,宮城県,柴田郡柴田町,船岡南２丁目３番３３－６号,,04,323,9891605,,,,,,,2022-01-05,1,,,,,ソウマコウギョウ,0
1575,6380005012518,新規,0,2022-01-05,2022-01-05,南相馬介護サービス施設共同管理協同組合,,その他の設立登記法人,福島県,南相馬市,原町区栄町２丁目３４番地,,07,212,9750003,,,,,,,2022-01-05,1,,,,,ミナミソウマカイゴサービスシセツキョウドウカンリ,0
1576,6390001016744,新規,0,2022-01-05,2022-01-05,株式会社舩山農研,,株式会社,山形県,東置賜郡川西町,大字下小松９１４番地１７,,06,382,9990134,,,,,,,2022-01-05,1,,,,,フナヤマノウケン,0
1580,6400001015728,新規,0,2022-01-05,2022-01-05,ｆｕｌａｌａｆｕ　ｃｏｆｆｅｅ株式会社,,株式会社,岩手県,盛岡市,鉈屋町１５番８号,,03,201,0200827,,,,,,,2022-01-05,1,,,,,フララフコーヒー,0
1589,6430001085669,新規,0,2022-01-05,2022-01-05,株式会社アイテック,,株式会社,北海道,室蘭市,八丁平５丁目９番６号,,01,205,0500061,,,,,,,2022-01-05,1,,,,,アイテック,0
1590,6430001085702,新規,0,2022-01-05,2022-01-05,株式会社Ｃｏｎｃｉｅｒ　Ｓａｐｐｏｒｏ,,株式会社,北海道,札幌市中央区,北四条西１５丁目１番地１５グランファーレ知事公館レジデンス１３０１号,,01,101,0600004,,,,,,,2022-01-05,1,,,,,コンシェルサッポロ,0
1593,6460001005640,新規,0,2022-01-05,2022-01-05,株式会社はやぶさ,,株式会社,北海道,釧路市,武佐１丁目３１番１号,,01,206,0850806,,,,,,,2022-01-05,1,,,,,ハヤブサ,0
1596,6470001018897,新規,0,2022-01-05,2022-01-05,株式会社ミズ・オフィス,,株式会社,香川県,高松市,宮脇町２丁目２７番１７号,,37,201,7600005,,,,,,,2022-01-05,1,,,,,ミズオフィス,0
1602,6500001023910,新規,0,2022-01-05,2022-01-05,株式会社中矢養鰻,,株式会社,愛媛県,松山市,西垣生町１９９２番地,,38,201,7918044,,,,,,,2022-01-05,1,,,,,ナカヤヨウマン,0
1604,6500005008445,新規,0,2022-01-05,2022-01-05,特定非営利活動法人沙知,,その他の設立登記法人,愛媛県,松山市,三番町２丁目８番地１３第３アークビル５階,,38,201,7900003,,,,,,,2022-01-05,1,,,,,サチ,0
1605,6700150106487,新規,0,2022-01-05,2022-01-05,ＡＬＰＥＸ　ＩＮＴＥＲＮＡＴＩＯＮＡＬ,,外国会社等,千葉県,山武郡九十九里町,西野１４０４番地１１０－４,,12,403,2830116,スリランカ民主社会主義共和国、アクラナ、ニーレラＮｏ．５３６／３,,,,,,2022-01-05,1,,,,,アルペツクスインターナシヨナル,0
1606,6700150106529,新規,0,2022-01-05,2022-01-05,ＭＵＮＪＡＬ　ＫＩＲＩＵ　Ｉｎｄｓ．Ｐｖｔ．Ｌｔｄ．,,外国会社等,栃木県,足利市,小俣南町２番地,,09,202,3260142,Ｐｌｏｔ　Ｎｏ．１９２，Ｓｅｃｔｏｒ－４，Ｐｈａｓｅ－ＩＩ，ＩＭＴ　Ｍａｎｅｓａｒ，Ｇｕｒｕｇｒａｍ－１２２０５０，Ｈａｒｙａｎａ，Ｉｎｄｉａ,00125297,,,,,2022-01-05,1,,,,,ムンジヤルキリウインダストリーズプライベートリミテツド,0
1613,7010003036645,新規,0,2022-01-05,2022-01-05,アクティブリーシング１３号合同会社,,合同会社,東京都,千代田区,麹町４丁目７番２号Ｄａｉｗａ麹町４丁目ビル８階,,13,101,1020083,,,,,,,2022-01-05,1,,,,,アクティブリーシングジュウサンゴウ,0
1616,7010101015006,新規,0,2022-01-05,2022-01-05,株式会社どんちゃふぁみりあ,,株式会社,東京都,八王子市,南大沢２丁目２０６番地１０アクティブ多摩３０１,,13,201,1920364,,,,,,,2022-01-05,1,,,,,ドンチャファミリア,0
1623,7010401164717,新規,0,2022-01-05,2022-01-05,Ｐｒｏｘｉｍａ　Ｂｅｔａ　Ｊａｐａｎ株式会社,,株式会社,東京都,港区,虎ノ門１丁目２３番１号,,13,103,1050001,,,,,,,2022-01-05,1,,,,,プロキシマベータジャパン,0
1625,7010403026725,新規,0,2022-01-05,2022-01-05,合同会社Ｈｉｇｈｎｏｔｅ,,合同会社,東京都,港区,白金台３丁目７番８号,,13,103,1080071,,,,,,,2022-01-05,1,,,,,ハイノート,0
1641,7010901050094,新規,0,2022-01-05,2022-01-05,株式会社Ｌｉｒｉｏｓ,,株式会社,東京都,世田谷区,上北沢５丁目３３番９－１号,,13,112,1560057,,,,,,,2022-01-05,1,,,,,リリオス,0
1642,7010903007051,新規,0,2022-01-05,2022-01-05,ＣＡＬＤＯ合同会社,,合同会社,東京都,世田谷区,奥沢７丁目３３番１１号,,13,112,1580083,,,,,,,2022-01-05,1,,,,,カルド,0
1645,7011001144844,新規,0,2022-01-05,2022-01-05,株式会社ダイバース,,株式会社,東京都,渋谷区,代々木２丁目１番１号,,13,113,1510053,,,,,,,2022-01-05,1,,,,,ダイバース,0
1656,7011401023937,新規,0,2022-01-05,2022-01-05,Ｕｎｉｒｋ株式会社,,株式会社,東京都,板橋区,小茂根４丁目１８番１０号ドエルサンコートＩＩＩ３０２号室,00125304,13,119,1730037,,,,,,,2022-01-05,1,,,,,ユニーク,0
1657,7011403003532,新規,0,2022-01-05,2022-01-05,合同会社スタジオＴ,,合同会社,東京都,板橋区,大谷口北町７２番地１０号,,13,119,1730031,,,,,,,2022-01-05,1,,,,,スタジオティー,0
1658,7011501027615,新規,0,2022-01-05,2022-01-05,東京国際サポート株式会社,,株式会社,東京都,北区,豊島１丁目１２番３－３０４号ＴＫハイム王子,,13,117,1140003,,,,,,,2022-01-05,1,,,,,トウキョウコクサイサポート,0
1660,7011603003489,新規,0,2022-01-05,2022-01-05,合同会社未来工房,,合同会社,東京都,練馬区,石神井町３丁目２５番４－５０６号,,13,120,1770041,,,,,,,2022-01-05,1,,,,,ミライコウボウ,0
1665,7011801040144,新規,0,2022-01-05,2022-01-05,オンザロック株式会社,,株式会社,東京都,足立区,千住３丁目６番地ツォード千住壱番館１００１号,,13,121,1200034,,,,,,,2022-01-05,1,,,,,オンザロック,0
1668,7011803004915,新規,0,2022-01-05,2022-01-05,合同会社長月サービス,,合同会社,東京都,葛飾区,小菅２丁目１３－９,,13,122,1240001,,,,,,,2022-01-05,1,,,,,ナガツキサービス,0
1669,7012301012823,新規,0,2022-01-05,2022-01-05,株式会社ｌｏｉｎ,,株式会社,東京都,町田市,森野１丁目２７番２号渋谷ビル１０２,,13,209,1940022,,,,,,,2022-01-05,1,,,,,ロワン,0
1672,7013301048502,新規,0,2022-01-05,2022-01-05,株式会社ＰｕｌｓｅＭｅｄ,,株式会社,東京都,豊島区,高田１丁目３６番１４－５０３号,,13,116,1710033,,,,,,,2022-01-05,1,,,,,パルスメッド,0
1675,7020001144548,新規,0,2022-01-05,2022-01-05,株式会社ＡＣＥ,,株式会社,神奈川県,川崎市宮前区,野川台１丁目１７－１７,,14,136,2160043,,,,,,,2022-01-05,1,,,,,エース,0
1676,7020001144564,新規,0,2022-01-05,2022-01-05,株式会社ＭｏｔｏＴＯＰＩＣＳ,,株式会社,神奈川県,横浜市瀬谷区,南瀬谷１丁目８９－２,,14,114,2460034,,,,,,,2022-01-05,1,,,,,モトトピックス,0
1680,7020003021051,新規,0,2022-01-05,2022-01-05,合同会社Ｓ＆Ｓ,,合同会社,神奈川県,横浜市中区,野毛町２丁目８６－８Ｄ．Ｈ．桜木町ビル４０６,,14,104,2310064,,,,,,,2022-01-05,1,,,,,エスアンドエス,0
1689,7030001146080,新規,0,2022-01-05,2022-01-05,株式会社ＡＸＩＳ,,株式会社,埼玉県,本庄市,児玉町金屋１２６０番地１５,,11,211,3670216,,,,,,,2022-01-05,1,,,,,アクシス,0
1690,7030001146122,新規,0,2022-01-05,2022-01-05,株式会社ＺＥＲＯＮＥ,,株式会社,埼玉県,所沢市,日吉町８番地１０,,11,208,3591123,,,,,,,2022-01-05,1,,,,,ゼロン,0
1691,7030001146155,新規,0,2022-01-05,2022-01-05,株式会社Ｉｎｆｉｎｉｔｙ　Ｐｏｉｎｔ,,株式会社,埼玉県,新座市,栗原３丁目３番１６－２１０号,,11,230,3520035,,,,,,,2022-01-05,1,,,,,インフィニティポイント,0
1692,7030001146171,新規,0,2022-01-05,2022-01-05,株式会社高建,00125299,株式会社,埼玉県,比企郡吉見町,大字北吉見５６８番地５,,11,347,3550155,,,,,,,2022-01-05,1,,,,,タカケン,0
1697,7030003018567,新規,0,2022-01-05,2022-01-05,Ｐａｃｅ　Ｖｅｎｔｕｒｅｓ　Ｊａｐａｎ合同会社,,合同会社,埼玉県,さいたま市南区,南浦和１丁目３０番１９－１号,,11,108,3360017,,,,,,,2022-01-05,1,,,,,ペースベンチャーズジャパン,0
1698,7030003018583,新規,0,2022-01-05,2022-01-05,合同会社ａｃｃ,,合同会社,埼玉県,新座市,新座２丁目３番６号,,11,230,3520006,,,,,,,2022-01-05,1,,,,,エーシーシー,0
1699,7030003018591,新規,0,2022-01-05,2022-01-05,ＳＭＥＳ合同会社,,合同会社,埼玉県,さいたま市浦和区,仲町１丁目４番１０－１４０１号,,11,107,3300062,,,,,,,2022-01-05,1,,,,,エスエムイーズ,0
1705,7040003019201,新規,0,2022-01-05,2022-01-05,ホーム・ベース合同会社,,合同会社,千葉県,千葉市花見川区,宇那谷町２３６番地１,,12,102,2620003,,,,,,,2022-01-05,1,,,,,ホームベース,0
1708,7050001050396,新規,0,2022-01-05,2022-01-05,株式会社ＮＩＰＰＯＮ　ＬＡＮＫＡ　ＴＲＡＤＩＮＧ,,株式会社,茨城県,結城郡八千代町,大字高崎８９２番地,,08,521,3003516,,,,,,,2022-01-05,1,,,,,ニッポンランカトレーディング,0
1715,7070001038786,新規,0,2022-01-05,2022-01-05,株式会社ＡＬＩＳ,,株式会社,群馬県,伊勢崎市,五目牛町６７１番地３,,10,204,3792213,,,,,,,2022-01-05,1,,,,,アリス,0
1718,7080003002715,新規,0,2022-01-05,2022-01-05,合同会社雨のち虹,,合同会社,静岡県,静岡市清水区,木の下町３１６番地の１,,22,103,4240846,,,,,,,2022-01-05,1,,,,,アメノチニジ,0
1721,7080103002490,新規,0,2022-01-05,2022-01-05,前田設備合同会社,,合同会社,静岡県,伊豆の国市,南江間２１３番地の５,,22,225,4102221,,,,,,,2022-01-05,1,,,,,マエダセツビ,0
1723,7080401025540,新規,0,2022-01-05,2022-01-05,株式会社ヴィクトリア・インターナショナル,,株式会社,静岡県,御前崎市,白羽３２１６番地の１サンハイツ白羽１０１,,22,223,4371622,,,,,,,2022-01-05,1,,,,,ヴィクトリアインターナショナル,0
1724,7080401025557,新規,0,2022-01-05,2022-01-05,株式会社グラウンドアップ,,株式会社,静岡県,浜松市西区,伊左地町２４３３番地の４,,22,133,4311111,,,,,,,2022-01-05,1,,,,,グラウンドアップ,0
1733,7110001036307,新規,0,2022-01-05,2022-01-05,株式会社パレットリズ,,株式会社,新潟県,三条市,林町２丁目８番２９号,,15,204,9550061,,,,,,,2022-01-05,1,,,,,パレットリズ,0
1734,7110001036315,新規,0,2022-01-05,2022-01-05,株式会社ＤＥＮＫＥＮ,,株式会社,新潟県,新潟市西区,寺尾上４丁目１４番５号アルト・ポンテ寺尾１０２号,,15,107,9502055,,,,,,,2022-01-05,1,,,,,デンケン,0
1735,7110003004666,新規,0,2022-01-05,2022-01-05,合同会社人と髪,,合同会社,新潟県,燕市,吉田３６９４－１,,15,213,9590264,,,,,,,2022-01-05,1,,,,,ヒトトカミ,0
1745,7120001242820,新規,0,2022-01-05,2022-01-05,ＡＬＩＯＮ株式会社,,株式会社,大阪府,大阪市北区,芝田２丁目８－１１共栄ビル３Ｆ,,27,127,5300012,,,,,,,2022-01-05,1,,,,,アリオン,0
1749,7120101064867,新規,0,2022-01-05,2022-01-05,株式会社フォーコーナーズ,,株式会社,大阪府,羽曳野市,学園前１丁目３番２号,,27,222,5830868,,,,,,,2022-01-05,1,,,,,フォーコーナーズ,0
1750,7120101064875,新規,0,2022-01-05,2022-01-05,株式会社くろちゃん,,株式会社,大阪府,和泉市,伏屋町１丁目１２－２７進化第１２ビル１０１号,,27,219,5940031,,,,,,,2022-01-05,1,,,,,クロチャン,0
1754,7122003002244,新規,0,2022-01-05,2022-01-05,合同会社ペットメモリアル玉手山夢殿,,合同会社,大阪府,柏原市,玉手町７番４８号,,27,221,5820028,,,,,,,2022-01-05,1,,,,,ペットメモリアルタマテヤマユメドノ,0
1763,7160001023911,新規,0,2022-01-05,2022-01-05,株式会社マインアーク,,株式会社,滋賀県,東近江市,福堂町３３５１番地,,25,213,5211242,,,,,,,2022-01-05,1,,,,,マインアーク,0
1773,7180001149291,新規,0,2022-01-05,2022-01-05,株式会社Ｋ’ｓ,,株式会社,愛知県,春日井市,下屋敷町字下屋敷４１番地１,,23,206,4860906,,,,,,,2022-01-05,1,,,,,ケーズ,0
1774,7180001149317,新規,0,2022-01-05,2022-01-05,株式会社Ｔｈｉｎｋ　Ｆｏｒｃｅ,,株式会社,愛知県,名古屋市西区,名駅２丁目３４番１７号セントラル名古屋１１０１,,23,104,4510045,,,,,,,2022-01-05,1,,,,,シンクフォース,0
1775,7180001149325,新規,0,2022-01-05,2022-01-05,株式会社Ｙ’ｓ,,株式会社,愛知県,名古屋市北区,大曽根２丁目７番２３号（サンハウス大曽根１１Ａ号）,,23,103,4620825,,,,,,,2022-01-05,1,,,,,ワイズ,0
1776,7180003023338,新規,0,2022-01-05,2022-01-05,合同会社トレカスキー,,合同会社,愛知県,名古屋市瑞穂区,瑞穂通３丁目１３番地の２,,23,108,4670806,,,,,,,2022-01-05,1,,,,,トレカスキー,0
1782,7180301035786,新規,0,2022-01-05,2022-01-05,優建設株式会社,,株式会社,愛知県,額田郡幸田町,大字須美字菖蒲入１９番地３,,23,501,4440127,,,,,,,2022-01-05,1,,,,,ユウケンセツ,0
1794,7240001059121,新規,0,2022-01-05,2022-01-05,ヒトミ工業株式会社,,株式会社,広島県,広島市安芸区,船越６丁目２４番２４号,,34,107,7360081,,,,,,,2022-01-05,1,,,,,ヒトミコウギョウ,0
1798,7250001019322,新規,0,2022-01-05,2022-01-05,株式会社ａｉｌｅ,,株式会社,山口県,宇部市,南小羽山町２丁目１９番１５号,,35,202,7550083,,,,,,,2022-01-05,1,,,,,エール,0
1805,7260001036374,新規,0,2022-01-05,2022-01-05,吉永不動産株式会社,,株式会社,岡山県,備前市,閑谷６４９番地２,,33,211,7050036,,,,,,,2022-01-05,1,,,,,ヨシナガフドウサン,0
1811,7320001018795,新規,0,2022-01-05,2022-01-05,やまのいおり株式会社,,株式会社,大分県,臼杵市,大字臼杵５３１番地の２,,44,206,8750041,,,,,,,2022-01-05,1,,,,,ヤマノイオリ,0
1812,7320001018812,新規,0,2022-01-05,2022-01-05,株式会社ＫＡＺＥ,,株式会社,大分県,大分市,高松１丁目７番３６号,,44,201,8700917,,,,,,,2022-01-05,1,,,,,カゼ,0
1813,7320001018820,新規,0,2022-01-05,2022-01-05,株式会社クリエーションワークス,,株式会社,大分県,別府市,大字鉄輪８番地の６２,,44,202,8740000,,,,,,,2022-01-05,1,,,,,クリエーションワークス,0
1814,7320003003688,新規,0,2022-01-05,2022-01-05,３Ｃエンジニアリング合同会社,,合同会社,大分県,別府市,浜脇１丁目３番３号スカイメゾンクローバー別府９０１号,,44,202,8740947,,,,,,,2022-01-05,1,,,,,スリーシーエンジニアリング,0
1817,7330001029296,新規,0,2022-01-05,2022-01-05,株式会社ウッドフィールド,,株式会社,熊本県,菊池市,旭志大字麓１９８９番地１,,43,210,8611300,,,,,,,2022-01-05,1,,,,,ウッドフィールド,0
1818,7330001029313,新規,0,2022-01-05,2022-01-05,株式会社毛利商店,,株式会社,熊本県,熊本市東区,新外３丁目１番２６号,,43,102,8620921,,,,,,,2022-01-05,1,,,,,モウリショウテン,0
1819,7330001029321,新規,0,2022-01-05,2022-01-05,株式会社百田建設工業,,株式会社,熊本県,合志市,須屋３９００番地,,43,216,8611102,,,,,,,2022-01-05,1,,,,,モモタケンセツコウギョウ,0
1821,7340001024370,新規,0,2022-01-05,2022-01-05,株式会社ＥｘＳｅｅｄ,,株式会社,鹿児島県,鹿児島市,鴨池１丁目１２番１７号,,46,201,8900063,,,,,,,2022-01-05,1,,,,,イクシード,0
1826,7370001048012,新規,0,2022-01-05,2022-01-05,株式会社カメリアインターナショナル,,株式会社,宮城県,仙台市泉区,向陽台５丁目１５－２０,,04,105,9813102,,,,,,,2022-01-05,1,,,,,カメリアインターナショナル,0
1829,7370003005523,新規,0,2022-01-05,2022-01-05,ＪＡＭＩＬ合同会社,,合同会社,宮城県,仙台市青葉区,山手町９番３２号ＦパレスＦＩＩ－２０６,00125286,04,101,9810967,,,,,,,2022-01-05,1,,,,,ジャミル,0
1836,7400001015727,新規,0,2022-01-05,2022-01-05,株式会社川目石材,,株式会社,岩手県,盛岡市,川目第１３地割１８７番地１,,03,201,0200812,,,,,,,2022-01-05,1,,,,,カワメセキザイ,0
1838,7410001013052,新規,0,2022-01-05,2022-01-05,株式会社Ｏｗｎｅｒ’ｓ　ｃｈｅｆ,,株式会社,秋田県,にかほ市,金浦字下谷地７７番地６,,05,214,0180311,,,,,,,2022-01-05,1,,,,,オーナーズシェフ,0
1846,7430001085701,新規,0,2022-01-05,2022-01-05,株式会社ｋａｒａｄａ．ｐｒｏ,,株式会社,北海道,札幌市豊平区,平岸三条４丁目４－１５,,01,105,0620933,,,,,,,2022-01-05,1,,,,,カラダドットプロ,0
1849,7470001018896,新規,0,2022-01-05,2022-01-05,株式会社北岡,,株式会社,香川県,高松市,仏生山町甲１４４３番地４,,37,201,7618078,,,,,,,2022-01-05,1,,,,,キタオカ,0
1855,7500001023901,新規,0,2022-01-05,2022-01-05,株式会社ふじわら整骨院,,株式会社,愛媛県,松山市,居相４丁目１７番１８号,,38,201,7900934,,,,,,,2022-01-05,1,,,,,フジワラセイコツイン,0
1857,7700150106486,新規,0,2022-01-05,2022-01-05,ＭＵＬＴＩ－ＴＲＡＤＥＲＳ,,外国会社等,千葉県,山武郡九十九里町,西野１４０４番地１０８－Ａ,,12,403,2830116,ナウル共和国アイウォ地区,,,,,,2022-01-05,1,,,,,マルチトレーダース,0
1858,7700150106528,新規,0,2022-01-05,2022-01-05,ＩＮＴＥＲＰＡＣＩＦＩＣ　ＨＯＬＤＩＮＧＳ　ＬＴＤ．,,外国会社等,北海道,虻田郡ニセコ町,字曽我４８９－６,,01,395,0481522,ベリーズ国ベリーズシティ、バラックロード３５,,,,,,2022-01-05,1,,,,,インターパシフイツクホールデイングスリミテツド,0
1866,8010001223566,新規,0,2022-01-05,2022-01-05,株式会社Ｒｉｎｇ,,株式会社,東京都,千代田区,有楽町２丁目２番１号,,13,101,1000006,,,,,,,2022-01-05,1,,,,,リング,0
1867,8010001223582,新規,0,2022-01-05,2022-01-05,株式会社アイキューキャピタル,,株式会社,東京都,千代田区,五番町６－４グレイス五番町ビル３階,,13,101,1020076,,,,,,,2022-01-05,1,,,,,アイキューキャピタル,0
1868,8010001223608,新規,0,2022-01-05,2022-01-05,株式会社ケモカインテクノロジーズ,,株式会社,東京都,中央区,日本橋２丁目１番３号アーバンネット日本橋二丁目ビル１０階,,13,102,1030027,,,,,,,2022-01-05,1,,,,,ケモカインテクノロジーズ,0
1873,8010003036652,新規,0,2022-01-05,2022-01-05,フォーティスター合同会社,,合同会社,東京都,中央区,銀座１丁目１２番４号Ｎ＆ＥＢＬＤ．７階,,13,102,1040061,,,,,,,2022-01-05,1,,,,,フォーティスター,0
1874,8010005034373,新規,0,2022-01-05,2022-01-05,一般社団法人共創教育機構,,その他の設立登記法人,東京都,千代田区,九段北１丁目５番５号東建ニューハイツ九段４０５号,,13,101,1020073,,,,,,,2022-01-05,1,,,,,キョウソウキョウイクキコウ,0
1875,8010005034381,新規,0,2022-01-05,2022-01-05,一般社団法人日本オーラル・フィジシャン・フォーラム,,その他の設立登記法人,東京都,文京区,小石川３丁目２９番１号,,13,105,1120002,,,,,,,2022-01-05,1,,,,,ニホンオーラルフィジシャンフォーラム,0
1876,8010101015005,新規,0,2022-01-05,2022-01-05,あさひ工務店株式会社,,株式会社,東京都,八王子市,犬目町１６６番地３,,13,201,1930802,,,,,,,2022-01-05,1,,,,,アサヒコウムテン,0
1886,8010403026815,新規,0,2022-01-05,2022-01-05,合同会社Ｂｅ,,合同会社,東京都,港区,南青山２丁目２番１５号,,13,103,1070062,,,,,,,2022-01-05,1,,,,,ビー,0
1889,8010503006469,新規,0,2022-01-05,2022-01-05,合同会社ジーピー,,合同会社,東京都,台東区,寿１丁目１６番１０号,,13,106,1110042,,,,,,,2022-01-05,1,,,,,ジーピー,0
1902,8010901050093,新規,0,2022-01-05,2022-01-05,株式会社モトムラ,,株式会社,東京都,世田谷区,若林１丁目１８番１号,,13,112,1540023,,,,,,,2022-01-05,1,,,,,モトムラ,0
1903,8010903007050,新規,0,2022-01-05,2022-01-05,合同会社江政物産,,合同会社,東京都,世田谷区,新町２丁目１０番６号,,13,112,1540014,,,,,,,2022-01-05,1,,,,,エマサブッサン,0
1911,8011101097413,新規,0,2022-01-05,2022-01-05,株式会社ＲＩＯ,,株式会社,東京都,新宿区,西新宿１丁目２６番２号新宿野村ビル３２階,,13,104,1600023,,,,,,,2022-01-05,1,,,,,アールアイオー,0
1913,8011201023517,新規,0,2022-01-05,2022-01-05,株式会社アトリエ・ＩＴＯＵ,,株式会社,東京都,中野区,中野６丁目２３－４,,13,114,1640001,,,,,,,2022-01-05,1,,,,,アトリエイトウ,0
1916,8011501027614,新規,0,2022-01-05,2022-01-05,株式会社豊港,,株式会社,東京都,北区,赤羽１丁目４２番８号,,13,117,1150045,,,,,,,2022-01-05,1,,,,,トヨコウ,0
1917,8011501027622,新規,0,2022-01-05,2022-01-05,ＤＡＦＵ株式会社,,株式会社,東京都,荒川区,東日暮里５丁目２１番３号１階,,13,118,1160014,,,,,,,2022-01-05,1,,,,,,0
1922,8011601025641,新規,0,2022-01-05,2022-01-05,アラカワテツオホールディングス株式会社,,株式会社,東京都,練馬区,栄町２２番１号,,13,120,1760006,,,,,,,2022-01-05,1,,,,,アラカワテツオホールディングス,0
1923,8011603003488,新規,0,2022-01-05,2022-01-05,合同会社クレト,,合同会社,東京都,練馬区,大泉学園町２丁目９番１０－５０３号,,13,120,1780061,,,,,,,2022-01-05,1,,,,,クレト,0
1931,8013303005979,新規,0,2022-01-05,2022-01-05,ＩＣＨＩＢＡＮ　ＪＡＰＡＮ合同会社,,合同会社,東京都,豊島区,南長崎３丁目３６番１３号フォレナ南長崎１０２,,13,116,1710052,,,,,,,2022-01-05,1,,,,,イチバンジャパン,0
1939,8020001144547,新規,0,2022-01-05,2022-01-05,株式会社Ｒｅｂｉｒｔｈ,,株式会社,神奈川県,横浜市保土ケ谷区,常盤台８６番１－１０３号,,14,106,2400067,,,,,,,2022-01-05,1,,,,,リバース,0
1943,8020003021050,新規,0,2022-01-05,2022-01-05,合同会社志賀経営労務コンサルティング,,合同会社,神奈川県,横浜市西区,平沼２丁目４番７号,,14,103,2200023,,,,,,,2022-01-05,1,,,,,シガケイエイロウムコンサルティング,0
1951,8030001145981,新規,0,2022-01-05,2022-01-05,タイガトレード株式会社,,株式会社,埼玉県,三郷市,中央１丁目１２番地１,,11,237,3410038,,,,,,,2022-01-05,1,,,,,タイガトレード,0
1952,8030001146121,新規,0,2022-01-05,2022-01-05,株式会社近江堂,,株式会社,埼玉県,羽生市,大字桑崎５６１番地１,,11,216,3480043,,,,,,,2022-01-05,1,,,,,オウミドウ,0
1953,8030001146146,新規,0,2022-01-05,2022-01-05,株式会社ツキナギ,,株式会社,埼玉県,さいたま市南区,大字大谷口５９９番地１８,,11,108,3360042,,,,,,,2022-01-05,1,,,,,ツキナギ,0
1954,8030001146154,新規,0,2022-01-05,2022-01-05,株式会社ＫＳカンパニー,,株式会社,埼玉県,さいたま市大宮区,桜木町１丁目４番地４,,11,103,3300854,,,,,,,2022-01-05,1,,,,,ケイエスカンパニー,0
1956,8030003018566,新規,0,2022-01-05,2022-01-05,合同会社ＶＩＰ　Ｆａｍｉｌｙ,,合同会社,埼玉県,吉川市,大字川藤２８０番地７,,11,243,3420005,,,,,,,2022-01-05,1,,,,,ブイアイピーファミリー,0
1961,8040001121585,新規,0,2022-01-05,2022-01-05,株式会社ＭＩＲＥＮ　ＥＸＰＯＲＴ,,株式会社,千葉県,白井市,神々廻１６１１番地の５－２０１,,12,232,2701416,,,,,,,2022-01-05,1,,,,,ミレンエクスポート,0
1962,8040001121619,新規,0,2022-01-05,2022-01-05,株式会社ダブルス,,株式会社,千葉県,千葉市中央区,登戸５丁目１８番１４号,,12,101,2600032,,,,,,,2022-01-05,1,,,,,ダブルス,0
1966,8050001050379,新規,0,2022-01-05,2022-01-05,メモリーテックつくば株式会社,,株式会社,茨城県,筑西市,宮後字猫内２１９３番１,,08,227,3004503,,,,,,,2022-01-05,1,,,,,メモリーテックツクバ,0
1967,8070001038785,新規,0,2022-01-05,2022-01-05,株式会社Ｋｎａｃｋ,,株式会社,群馬県,利根郡みなかみ町,猿ヶ京温泉１０１８番地１,,10,449,3791403,,,,,,,2022-01-05,1,,,,,ナック,0
1968,8070001038802,新規,0,2022-01-05,2022-01-05,株式会社ＳＥＩＫＵＮ,,株式会社,群馬県,高崎市,上中居町３２７番地３,,10,202,3700851,,,,,,,2022-01-05,1,,,,,,0
1971,8080003002714,新規,0,2022-01-05,2022-01-05,バリュープロデュース合同会社,,合同会社,静岡県,静岡市葵区,東千代田１丁目９番５－８号,,22,101,4200801,,,,,,,2022-01-05,1,,,,,バリュープロデュース,0
1975,8080101023018,新規,0,2022-01-05,2022-01-05,株式会社ＲＡＹＳ,,株式会社,静岡県,三島市,東町７番３４号,,22,206,4110852,,,,,,,2022-01-05,1,,,,,レイズ,0
1982,8110001036306,新規,0,2022-01-05,2022-01-05,株式会社ＫＡＮＣＯＵ,,株式会社,新潟県,燕市,水道町３丁目２３番３０号,,15,213,9591262,,,,,,,2022-01-05,1,,,,,カンコー,0
1983,8110001036314,新規,0,2022-01-05,2022-01-05,株式会社坂井漬物商店,,株式会社,新潟県,新潟市中央区,秣川岸通１丁目２３０５番地,,15,103,9518046,,,,,,,2022-01-05,1,,,,,サカイツケモノショウテン,0
1999,8120001242786,新規,0,2022-01-05,2022-01-05,京＿晨株式会社,00125303,株式会社,大阪府,大阪市北区,天満２丁目９番１７号天満双葉ビル５０４号室,,27,127,5300043,,,,,,,2022-01-05,1,,,,,キョウユウシン,0
2000,8120001242844,新規,0,2022-01-05,2022-01-05,株式会社Ａｎｅｌａ,,株式会社,大阪府,大阪市淀川区,十三東１丁目２０番３号,,27,123,5320023,,,,,,,2022-01-05,1,,,,,アネラ,0
2001,8120001242877,新規,0,2022-01-05,2022-01-05,株式会社Ｔ．Ｃｏｎｎｅｃｔｉｏｎ,,株式会社,大阪府,大阪市北区,東天満２丁目９番１号若杉センタービル本館１２,,27,127,5300044,,,,,,,2022-01-05,1,,,,,ティーコネクション,0
2012,8120101064866,新規,0,2022-01-05,2022-01-05,株式会社ＶＩＲＧＩＮ　ＣＯＤＥ,,株式会社,大阪府,堺市南区,小代１７６番地,,27,145,5900151,,,,,,,2022-01-05,1,,,,,バージンコード,0
2013,8120101064874,新規,0,2022-01-05,2022-01-05,株式会社ＳＥＥＤ冷暖,,株式会社,大阪府,堺市北区,南花田町１０７番地１１,,27,146,5918011,,,,,,,2022-01-05,1,,,,,シードレイダン,0
2014,8120103004498,新規,0,2022-01-05,2022-01-05,合同会社ＢＡＣＫＬＩＧＨＴ,,合同会社,大阪府,堺市南区,鴨谷台２丁２番４－２０２号,,27,145,5900138,,,,,,,2022-01-05,1,,,,,バックライト,0
2015,8122001035468,新規,0,2022-01-05,2022-01-05,株式会社養生どっとねっと,,株式会社,大阪府,八尾市,渋川町７丁目２番４５号,,27,212,5810075,,,,,,,2022-01-05,1,,,,,ヨウジョウドットネット,0
2016,8122003002243,新規,0,2022-01-05,2022-01-05,合同会社Ａｐａｒｔｍｅｎｔ,,合同会社,大阪府,東大阪市,衣摺２丁目６番２６号Ｃ１０５,,27,227,5770827,,,,,,,2022-01-05,1,,,,,アパートメント,0
2018,8130001070831,新規,0,2022-01-05,2022-01-05,株式会社セブン・ストアー,,株式会社,京都府,京都市右京区,嵯峨天龍寺角倉町６番地３,,26,108,6168382,,,,,,,2022-01-05,1,,,,,セブンストアー,0
2022,8140001124297,新規,0,2022-01-05,2022-01-05,株式会社Ｎｅ,,株式会社,兵庫県,神戸市中央区,中山手通１丁目５番８号イナバビル５Ｆ,,28,110,6500004,,,,,,,2022-01-05,1,,,,,エヌイー,0
2023,8140003017160,新規,0,2022-01-05,2022-01-05,合同会社ｏｃｃｕｒ,,合同会社,兵庫県,尼崎市,小中島１丁目１１－１,,28,202,6610972,,,,,,,2022-01-05,1,,,,,オカー,0
2025,8150003002582,新規,0,2022-01-05,2022-01-05,合同会社ひなた,,合同会社,奈良県,奈良市,三条大路１丁目１番４５－３０８号,,29,201,6308013,,,,,,,2022-01-05,1,,,,,ヒナタ,0
2030,8180005019580,新規,0,2022-01-05,2022-01-05,一般社団法人名古屋若者評議会,,その他の設立登記法人,愛知県,名古屋市中川区,八熊１丁目９番２号,,23,110,4540013,,,,,,,2022-01-05,1,,,,,ナゴヤワカモノヒョウギカイ,0
2035,8180301035769,新規,0,2022-01-05,2022-01-05,株式会社サポート,,株式会社,愛知県,豊橋市,東幸町字大山１２０番地２（Ａ－３）,,23,201,4400843,,,,,,,2022-01-05,1,,,,,サポート,0
2045,8210003001438,新規,0,2022-01-05,2022-01-05,合同会社さともり舎,,合同会社,福井県,福井市,中手町３０－１,,18,201,9102464,,,,,,,2022-01-05,1,,,,,サトモリシャ,0
2052,8250001019321,新規,0,2022-01-05,2022-01-05,株式会社ＳＫＲ,,株式会社,山口県,周南市,大字呼坂１００６番地の４８７,,35,215,7450612,,,,,,,2022-01-05,1,,,,,エスケイアール,0
2054,8260001036381,新規,0,2022-01-05,2022-01-05,株式会社ココロ,,株式会社,岡山県,岡山市南区,藤田５７８番地３,,33,104,7010221,,,,,,,2022-01-05,1,,,,,ココロ,0
2058,8260005011018,新規,0,2022-01-05,2022-01-05,社会保険労務士法人リガーレ,,その他の設立登記法人,岡山県,岡山市南区,千鳥町２３番８号,,33,104,7028037,,,,,,,2022-01-05,1,,,,,リガーレ,0
2059,8270001008421,新規,0,2022-01-05,2022-01-05,株式会社男山,,株式会社,鳥取県,米子市,両三柳５２番地３,,31,202,6830853,,,,,,,2022-01-05,1,,,,,オトコヤマ,0
2060,8270003001382,新規,0,2022-01-05,2022-01-05,ＳＧ２合同会社,,合同会社,鳥取県,米子市,万能町１２７番地伊田ビル１Ｆ,,31,202,6830065,,,,,,,2022-01-05,1,,,,,エスジーツー,0
2072,8290001095862,新規,0,2022-01-05,2022-01-05,Ｌｉｅｎｓ株式会社,,株式会社,福岡県,糟屋郡志免町,別府西３丁目１４番１－３１７号,,40,343,8112232,,,,,,,2022-01-05,1,,,,,リアン,0
2073,8290001095887,新規,0,2022-01-05,2022-01-05,株式会社ＷＡＲＳ,,株式会社,福岡県,福岡市博多区,御供所町５番２１号,,40,132,8120037,,,,,,,2022-01-05,1,,,,,ウォーズ,0
2074,8290001095895,新規,0,2022-01-05,2022-01-05,ＮＢ株式会社,,株式会社,福岡県,福岡市博多区,比恵町２番３２号１階,,40,132,8120014,,,,,,,2022-01-05,1,,,,,エヌビー,0
2078,8310001017657,新規,0,2022-01-05,2022-01-05,株式会社岩崎総建,00125305,株式会社,長崎県,諫早市,松里町８６６番地１８５,,42,204,8540126,,,,,,,2022-01-05,1,,,,,イワサキソウケン,0
2083,8330001029320,新規,0,2022-01-05,2022-01-05,株式会社ＣＯＬＯＲＳ,,株式会社,熊本県,熊本市南区,近見８丁目５番２２号７０１,,43,104,8614101,,,,,,,2022-01-05,1,,,,,カラーズ,0
2084,8340001024378,新規,0,2022-01-05,2022-01-05,株式会社三協電設工業社,,株式会社,鹿児島県,鹿児島市,伊敷８丁目３番２８号,,46,201,8900008,,,,,,,2022-01-05,1,,,,,サンキョウデンセツコウギョウシャ,0
2085,8340001024386,新規,0,2022-01-05,2022-01-05,株式会社ヒューマンリンクスジャパン,,株式会社,鹿児島県,鹿児島市,泉町１４番１４号１Ｆ,,46,201,8920822,,,,,,,2022-01-05,1,,,,,ヒューマンリンクスジャパン,0
2086,8340003003669,新規,0,2022-01-05,2022-01-05,合同会社松之屋フーズ,,合同会社,鹿児島県,鹿児島市,宇宿２丁目２３番１２号,,46,201,8900073,,,,,,,2022-01-05,1,,,,,マツノヤフーズ,0
2090,8370003005539,新規,0,2022-01-05,2022-01-05,ＳＩＥＭＢＲＡ合同会社,,合同会社,宮城県,仙台市青葉区,北山１丁目２番２１号,,04,101,9810931,,,,,,,2022-01-05,1,,,,,シエンブラ,0
2095,8400003002879,新規,0,2022-01-05,2022-01-05,合同会社ｌｉｅｎ,,合同会社,岩手県,宮古市,西町３丁目４番１１号,,03,202,0270061,,,,,,,2022-01-05,1,,,,,リアン,0
2098,8410001013051,新規,0,2022-01-05,2022-01-05,株式会社ミリア,,株式会社,秋田県,能代市,景林町１番６号,,05,202,0160892,,,,,,,2022-01-05,1,,,,,ミリア,0
2099,8430001085700,新規,0,2022-01-05,2022-01-05,株式会社ＡＣＥフーズ,,株式会社,北海道,札幌市中央区,南八条西６丁目１７－２４アン・セリジェ壱番館１１階１１１３号室,,01,101,0640808,,,,,,,2022-01-05,1,,,,,エースフーズ,0
2101,8430003013485,新規,0,2022-01-05,2022-01-05,ＡＶＡＮＣＥ合同会社,,合同会社,北海道,札幌市北区,北三十三条西２丁目１番７号ＬＩＧＨＴＯＦＦＩＣＥ３Ｆ,,01,102,0010033,,,,,,,2022-01-05,1,,,,,アヴァンス,0
2102,8460001005639,新規,0,2022-01-05,2022-01-05,株式会社尾越,,株式会社,北海道,釧路市,春採４丁目１２番１３号,,01,206,0850813,,,,,,,2022-01-05,1,,,,,オゴシ,0
2110,8500001023900,新規,0,2022-01-05,2022-01-05,株式会社ＨＫ,,株式会社,愛媛県,松山市,南堀端町６番地１,,38,201,7900006,,,,,,,2022-01-05,1,,,,,エイチケイ,0
2118,9010001223557,新規,0,2022-01-05,2022-01-05,Ｒｏｏｍ８株式会社,,株式会社,東京都,中央区,晴海２丁目３－２ザ・パークハウス晴海タワーズティアロレジデンス２９１９,,13,102,1040053,,,,,,,2022-01-05,1,,,,,ルームエイト,0
2119,9010001223573,新規,0,2022-01-05,2022-01-05,ヤッイーサァン株式会社,,株式会社,東京都,千代田区,神田多町２丁目１番地,,13,101,1010046,,,,,,,2022-01-05,1,,,,,ヤッイーサァン,0
2120,9010001223581,新規,0,2022-01-05,2022-01-05,ＮＡＲＡＴＡ株式会社,,株式会社,東京都,中央区,新川１丁目１７番１８号,,13,102,1040033,,,,,,,2022-01-05,1,,,,,ナラタ,0
2121,9010001223598,新規,0,2022-01-05,2022-01-05,嵐日株式会社,,株式会社,東京都,千代田区,神田平河町１番地第３東ビル６ＦイーオフィスＡＫＩＢＡ３番館８８号室,,13,101,1010027,,,,,,,2022-01-05,1,,,,,ランヒ,0
2122,9010001223615,新規,0,2022-01-05,2022-01-05,株式会社ＡＥＲＵ,,株式会社,東京都,中央区,月島１丁目２５番５号アエル除川,,13,102,1040052,,,,,,,2022-01-05,1,,,,,アエル,0
2123,9010001223623,新規,0,2022-01-05,2022-01-05,株式会社サンライズ,,株式会社,東京都,中央区,勝どき６丁目３番２－２５２１号,,13,102,1040054,,,,,,,2022-01-05,1,,,,,サンライズ,0
2124,9010002004295,新規,0,2022-01-05,2022-01-05,有限会社トミーズコーポレーシヨン,,有限会社,東京都,文京区,小石川２丁目２４番２号,,13,105,1120002,,,,,,,2022-01-05,1,,,,,,0
2134,9010401164707,新規,0,2022-01-05,2022-01-05,株式会社セカンドサイト,,株式会社,東京都,港区,南青山４丁目２４番１０号,,13,103,1070062,,,,,,,2022-01-05,1,,,,,セカンドサイト,0
2135,9010401164715,新規,0,2022-01-05,2022-01-05,ＥＶＥＲ　ＳＴＡＲ　ＪＡＰＡＮ株式会社,,株式会社,東京都,港区,南青山２丁目２番１５ー３１６号,,13,103,1070062,,,,,,,2022-01-05,1,,,,,エヴァースタージャパン,0
2136,9010401164723,新規,0,2022-01-05,2022-01-05,株式会社ＴＷｉＮＱ,,株式会社,東京都,港区,南青山２丁目２番１５号ウィン青山９４２,,13,103,1070062,,,,,,,2022-01-05,1,,,,,トゥインク,0
2137,9010401164731,新規,0,2022-01-05,2022-01-05,株式会社高杉企画,00125298,株式会社,東京都,港区,新橋５丁目２５番１号,,13,103,1050004,,,,,,,2022-01-05,1,,,,,タカスギキカク,0
2140,9010501048280,新規,0,2022-01-05,2022-01-05,株式会社Ｍ＆Ｔ８７９,,株式会社,東京都,台東区,元浅草２丁目１１－６稲荷町タワー５０５,,13,106,1110041,,,,,,,2022-01-05,1,,,,,エムアンドティハチナナキュウ,0
2141,9010503006468,新規,0,2022-01-05,2022-01-05,合同会社ＡＳＴＲＡＥＲ,,合同会社,東京都,台東区,浅草橋２丁目８番６－７０２号,,13,106,1110053,,,,,,,2022-01-05,1,,,,,アストレア,0
2157,9011201023516,新規,0,2022-01-05,2022-01-05,株式会社ボディワークプラス,,株式会社,東京都,中野区,東中野２丁目２２番２３号,,13,114,1640003,,,,,,,2022-01-05,1,,,,,ボディワークプラス,0
2159,9011401023935,新規,0,2022-01-05,2022-01-05,株式会社虎,,株式会社,東京都,板橋区,高島平８丁目１５番１０－３０３,,13,119,1750082,,,,,,,2022-01-05,1,,,,,トラ,0
2162,9011601025649,新規,0,2022-01-05,2022-01-05,株式会社クレセス,,株式会社,東京都,練馬区,大泉学園町７丁目６番２６号,,13,120,1780061,,,,,,,2022-01-05,1,,,,,クレセス,0
2164,9011603003487,新規,0,2022-01-05,2022-01-05,合同会社リーサステクノ,,合同会社,東京都,練馬区,大泉学園町６丁目２８－３５,,13,120,1780061,,,,,,,2022-01-05,1,,,,,リーサステクノ,0
2167,9011703003040,新規,0,2022-01-05,2022-01-05,合同会社Ｗｅｂコントラクター,,合同会社,東京都,江戸川区,南葛西３丁目１０番９号パルク・ヴェール南葛西５０４号,,13,123,1340085,,,,,,,2022-01-05,1,,,,,ウエブコントラクター,0
2171,9011801040118,新規,0,2022-01-05,2022-01-05,株式会社Ｓｆｆ　Ｌａｂｏ,,株式会社,東京都,足立区,加平３丁目３番１７号,,13,121,1210055,,,,,,,2022-01-05,1,,,,,エスエフエフラボ,0
2183,9013301048483,新規,0,2022-01-05,2022-01-05,ａｖａｎｔ株式会社,,株式会社,東京都,豊島区,南大塚２丁目２５番１７－１００２号,,13,116,1700005,,,,,,,2022-01-05,1,,,,,アバン,0
2192,9020001144546,新規,0,2022-01-05,2022-01-05,株式会社グローテック,,株式会社,神奈川県,横浜市旭区,上川井町２１７６番地ガーデンヒートビル２Ｆ,,14,112,2410802,,,,,,,2022-01-05,1,,,,,グローテック,0
2193,9020001144562,新規,0,2022-01-05,2022-01-05,株式会社ＴＥＭＰＥＲＡＮＣＥ．,,株式会社,神奈川県,横浜市戸塚区,原宿４丁目３４番２３－３０３号,,14,110,2450063,,,,,,,2022-01-05,1,,,,,テンパランス,0
2198,9021001074840,新規,0,2022-01-05,2022-01-05,株式会社Ａｍａｚｉｎｇ,,株式会社,神奈川県,相模原市南区,大野台３丁目２５番１１号,,14,153,2520331,,,,,,,2022-01-05,1,,,,,アメイジング,0
2210,9030001146129,新規,0,2022-01-05,2022-01-05,ライツ株式会社,,株式会社,埼玉県,春日部市,大場１２２９番地３秋元ビル２Ｆ,,11,214,3440021,,,,,,,2022-01-05,1,,,,,ライツ,0
2218,9040001121535,新規,0,2022-01-05,2022-01-05,株式会社ＴＯＹＯＤＡ,,株式会社,千葉県,松戸市,二十世紀が丘萩町１１１番地３０２号室,,12,207,2710086,,,,,,,2022-01-05,1,,,,,トヨダ,0
2230,9070001038784,新規,0,2022-01-05,2022-01-05,株式会社ＩＢＵＫＩ,,株式会社,群馬県,伊勢崎市,宮前町１２６番地,,10,204,3720026,,,,,,,2022-01-05,1,,,,,イブキ,0
2235,9080003002713,新規,0,2022-01-05,2022-01-05,Ａｕｇｕｓｔｉｎｅ合同会社,,合同会社,静岡県,島田市,金谷泉町８０１番地,,22,209,4280014,,,,,,,2022-01-05,1,,,,,オーゲスティン,0
2236,9080103002489,新規,0,2022-01-05,2022-01-05,合同会社スケイティス,,合同会社,静岡県,沼津市,高沢町１番９号メゾン・フィオーレ高沢９０３号,,22,203,4100057,,,,,,,2022-01-05,1,,,,,スケイティス,0
2251,9120101064873,新規,0,2022-01-05,2022-01-05,株式会社エフォートトラスト,,株式会社,大阪府,松原市,三宅中２丁目１０番３１号,,27,217,5800046,,,,,,,2022-01-05,1,,,,,エフォートトラスト,0
2253,9120901045412,新規,0,2022-01-05,2022-01-05,株式会社ＡＰＥＲＡ　ＡＤＶＩＳＯＲＳ,,株式会社,大阪府,箕面市,桜ケ丘４丁目３番７号,,27,220,5620046,,,,,,,2022-01-05,1,,,,,アペラアドバイザーズ,0
2254,9120903003970,新規,0,2022-01-05,2022-01-05,合同会社アポージオ,,合同会社,大阪府,高槻市,岡本町６９番２９号,,27,207,5691137,,,,,,,2022-01-05,1,,,,,アポージオ,0
2257,9122001035467,新規,0,2022-01-05,2022-01-05,株式会社伊藤工業,,株式会社,大阪府,東大阪市,長田中４丁目２番３１号一ツ橋ビル２Ｆ南,,27,227,5770013,,,,,,,2022-01-05,1,,,,,イトウコウギョウ,0
2259,9122003002242,新規,0,2022-01-05,2022-01-05,合同会社ＡＮＯＴＨＥＲ　ＨＥＡＶＥＮ,,合同会社,大阪府,東大阪市,衣摺２丁目６番２６号Ｃ１０２,,27,227,5770827,,,,,,,2022-01-05,1,,,,,アナザーヘブン,0
2263,9130003007657,新規,0,2022-01-05,2022-01-05,合同会社生活サポート京都,,合同会社,京都府,京都市伏見区,深草向ケ原町９０－４４,,26,109,6120817,,,,,,,2022-01-05,1,,,,,セイカツサポートキョウト,0
2274,9140001124338,新規,0,2022-01-05,2022-01-05,成實興産株式会社,,株式会社,兵庫県,高砂市,米田町米田８７２番地,,28,216,6760805,,,,,,,2022-01-05,1,,,,,ナリザネコウサン,0
2278,9150003002581,新規,0,2022-01-05,2022-01-05,インテライズ合同会社,,合同会社,奈良県,香芝市,北今市７丁目３０１番地６,,29,210,6390242,,,,,,,2022-01-05,1,,,,,インテライズ,0
2279,9160001023926,新規,0,2022-01-05,2022-01-05,西山建材株式会社,,株式会社,滋賀県,高島市,安曇川町青柳５３９番地５,,25,212,5201221,,,,,,,2022-01-05,1,,,,,ニシヤマケンザイ,0
2282,9180001149315,新規,0,2022-01-05,2022-01-05,株式会社ソトコト・ローカルリソース,,株式会社,愛知県,名古屋市中区,錦１丁目７番９号,,23,106,4600003,,,,,,,2022-01-05,1,,,,,ソトコトローカルリソース,0
2283,9180001149323,新規,0,2022-01-05,2022-01-05,リソナンス株式会社,,株式会社,愛知県,名古屋市名東区,にじが丘１丁目１２番地の２－７０８号,,23,115,4650078,,,,,,,2022-01-05,1,,,,,リソナンス,0
2296,9220001024620,新規,0,2022-01-05,2022-01-05,株式会社雄翔,,株式会社,石川県,河北郡津幡町,井上の荘３丁目１２０番地,,17,361,9290335,,,,,,,2022-01-05,1,,,,,ユウショウ,0
2302,9250001019329,新規,0,2022-01-05,2022-01-05,株式会社みやび,,株式会社,山口県,宇部市,大字東岐波３４９２番地３,,35,202,7550241,,,,,,,2022-01-05,1,,,,,ミヤビ,0
2303,9250002020814,新規,0,2022-01-05,2022-01-05,有限会社安達農機商会,,有限会社,山口県,防府市,大字高井５４８番地,,35,206,7470064,,,,,,,2022-01-05,1,,,,,アダチノウキショウカイ,0
2307,9260001036380,新規,0,2022-01-05,2022-01-05,株式会社川合ルーフ工業,,株式会社,岡山県,岡山市北区,中山下２丁目５番２０号,,33,101,7000821,,,,,,,2022-01-05,1,,,,,カワイルーフコウギョウ,0
2314,9280001008592,新規,0,2022-01-05,2022-01-05,株式会社みどり整体,,株式会社,島根県,松江市,田和山町３２番地２,,32,201,6900058,,,,,,,2022-01-05,1,,,,,ミドリセイタイ,0
2315,9290001095845,新規,0,2022-01-05,2022-01-05,ＰｉＥＡＣＥ株式会社,,株式会社,福岡県,福岡市東区,香椎照葉６丁目４番３号－１１０７,,40,131,8130017,,,,,,,2022-01-05,1,,,,,ピース,0
2324,9320001018819,新規,0,2022-01-05,2022-01-05,株式会社ワタナベ工業,,株式会社,大分県,大分市,田室町７番４０号第２コーポ川崎１Ｆ,,44,201,8700816,,,,,,,2022-01-05,1,,,,,ワタナベコウギョウ,0
2326,9320003003686,新規,0,2022-01-05,2022-01-05,合同会社ダイコク屋,,合同会社,大分県,大分市,大字猪野３９３番地の５３,,44,201,8700134,,,,,,,2022-01-05,1,,,,,ダイコクヤ,0
2328,9330001029311,新規,0,2022-01-05,2022-01-05,株式会社有明学習振興,,株式会社,熊本県,荒尾市,川登１８６７－１５－２Ｆ,,43,204,8640131,,,,,,,2022-01-05,1,,,,,アリアケガクシュウシンコウ,0
2331,9340001024385,新規,0,2022-01-05,2022-01-05,株式会社モジョカ,,株式会社,鹿児島県,鹿児島市,中央町１６番地５,,46,201,8900053,,,,,,,2022-01-05,1,,,,,モジョカ,0
2335,9360001029837,新規,0,2022-01-05,2022-01-05,株式会社平正建設,,株式会社,沖縄県,島尻郡八重瀬町,字後原５７８番地８,,47,362,9010504,,,,,,,2022-01-05,1,,,,,ヒラマサケンセツ,0
2336,9360001029845,新規,0,2022-01-05,2022-01-05,ダイワ装建株式会社,,株式会社,沖縄県,南城市,大里字稲嶺２０６５番地５,,47,215,9011204,,,,,,,2022-01-05,1,,,,,ダイワソウケン,0
2338,9370001048002,新規,0,2022-01-05,2022-01-05,株式会社ｍｉｎｏｉ　ｇｉｆｔｓ,,株式会社,宮城県,塩竈市,清水沢１丁目２８番６号,,04,203,9850061,,,,,,,2022-01-05,1,,,,,ミノイギフツ,0
2339,9370001048019,新規,0,2022-01-05,2022-01-05,株式会社Ｏｎ　Ｙｏｕｒ　Ｍａｒｋｓ,,株式会社,宮城県,多賀城市,鶴ケ谷２丁目１４－２８,,04,209,9850841,,,,,,,2022-01-05,1,,,,,オンユアマークス,0
2350,9400003002878,新規,0,2022-01-05,2022-01-05,合同会社湧くわく工房,,合同会社,岩手県,盛岡市,下田字生出８９番地２,,03,201,0284134,,,,,,,2022-01-05,1,,,,,ワクワクコウボウ,0
2355,9470001018894,新規,0,2022-01-05,2022-01-05,株式会社ＲＥＶＯＬＵＴＩＯ,,株式会社,香川県,高松市,塩上町３丁目１番１２号,,37,201,7600062,,,,,,,2022-01-05,1,,,,,レウォルティオ,0
2356,9470001018903,新規,0,2022-01-05,2022-01-05,株式会社拓洋技建,,株式会社,香川県,高松市,鶴市町２０４６番地３ヴィラ・アンソレイエ鶴市３０２号,,37,201,7618032,,,,,,,2022-01-05,1,,,,,タクヨウギケン,0
2357,9470005006400,新規,0,2022-01-05,2022-01-05,税理士法人Ｓｅｔｕｐ,,その他の設立登記法人,香川県,高松市,三条町１６９番地１,,37,201,7618072,,,,,,,2022-01-05,1,,,,,セットアップ,0
2363,9490001010073,新規,0,2022-01-05,2022-01-05,株式会社高瀬工業,00125301,株式会社,高知県,高知市,五台山１６番地４,,39,201,7818125,,,,,,,2022-01-05,1,,,,,タカセコウギョウ,0
2366,9700150106484,新規,0,2022-01-05,2022-01-05,Ｃｏｌｏｍｂｏ　Ｔｒａｄｉｎｇ　Ａｇｅｎｃｉｅｓ,,外国会社等,千葉県,大網白里市,養安寺７０９番地（１０１）,,12,239,2993254,スリランカ民主社会主義共和国、キャンディ、キャッスルヒルストリート、５１,,,,,,2022-01-05,1,,,,,コロンボトレーデイングエージエンシーズ,0
2367,9700150106526,新規,0,2022-01-05,2022-01-05,ＬｕｉＤｅｓｉｇｎ　＆　Ａｓｓｏｃｉａｔｅｓ　Ｌｉｍｉｔｅｄ,,外国会社等,北海道,虻田郡倶知安町,字山田３４－１２１,,01,400,0440081,中華人民共和国、香港特別行政区、ノースポイント、ワトソンロード４－６、シービューエステート、ブロックＢ、６階、ユニット６０８,,,,,,2022-01-05,1,,,,,ルイデザインアンドアソシエーツリミテツド,0
