sequenceNumber,corporateNumber,process,correct,updateDate,changeDate,name,nameImageId,kind,prefectureName,cityName,streetNumber,addressImageId,prefectureCode,cityCode,postCode,addressOutside,addressOutsideImageId,closeDate,closeCause,successorCorporateNumber,changeCause,assignmentDate,latest,enName,enPrefectureName,enCityName,enAddressOutside,furigana,hihyoji
7,1010001219934,新規,0,2021-08-03,2021-08-03,株式会社レクセル,,株式会社,東京都,文京区,湯島３丁目２０番６―１２０６号,,13,105,1130034,,,,,,,2021-08-03,1,,,,,レクセル,0
8,1010001220009,新規,0,2021-08-03,2021-08-03,株式会社ネクストページ,,株式会社,東京都,中央区,銀座１丁目２２番１１号銀座大竹ビジデンス２階,,13,102,1040061,,,,,,,2021-08-03,1,,,,,ネクストページ,0
9,1010001220090,新規,0,2021-08-03,2021-08-03,株式会社ＦＩＶＥ　ＣＨＡＲＴＥＲ,,株式会社,東京都,千代田区,大手町１丁目５番１号大手町ファーストスクエアイーストタワー４Ｆ,,13,101,1000004,,,,,,,2021-08-03,1,,,,,ファイヴチャーター,0
10,1010001220116,新規,0,2021-08-03,2021-08-03,株式会社ＡＪＥ,,株式会社,東京都,中央区,八丁堀１丁目１１番３号６階,,13,102,1040032,,,,,,,2021-08-03,1,,,,,エージェーイー,0
11,1010001220124,新規,0,2021-08-03,2021-08-03,株式会社Ｐｏｒｔ,,株式会社,東京都,中央区,銀座１丁目１２番４号Ｎ＆Ｅ・ＢＬＤ．７階,,13,102,1040061,,,,,,,2021-08-03,1,,,,,ポート,0
12,1010001220140,新規,0,2021-08-03,2021-08-03,エヌビービーベンモアリース株式会社,,株式会社,東京都,中央区,日本橋浜町３丁目３番２号,,13,102,1030007,,,,,,,2021-08-03,1,,,,,エヌビービーベンモアリース,0
13,1010001220149,新規,0,2021-08-03,2021-08-03,株式会社メデタ,,株式会社,東京都,中央区,日本橋富沢町四丁目１０番地京成日本橋富沢町ビル２Ｆ,,13,102,1030006,,,,,,,2021-08-03,1,,,,,メデタ,0
16,1010003035446,新規,0,2021-08-03,2021-08-03,Ａ　ｗｏｒｌｄ合同会社,,合同会社,東京都,中央区,銀座１丁目１５－４銀座一丁目ビル７Ｆ,,13,102,1040061,,,,,,,2021-08-03,1,,,,,エイワールド,0
17,1010003035479,新規,0,2021-08-03,2021-08-03,合同会社ｉｋｏｍｏｒｉ,,合同会社,東京都,中央区,銀座１丁目２２番１１号銀座大竹ビジデンス２階,,13,102,1040061,,,,,,,2021-08-03,1,,,,,イコモリ,0
18,1010003035487,新規,0,2021-08-03,2021-08-03,合同会社モットミル,,合同会社,東京都,千代田区,神田富山町７番４０９号,,13,101,1010043,,,,,,,2021-08-03,1,,,,,モットミル,0
19,1010003035504,新規,0,2021-08-03,2021-08-03,合同会社五方よし,,合同会社,東京都,中央区,銀座１丁目２２番１１号銀座大竹ビジデンス２Ｆ,,13,102,1040061,,,,,,,2021-08-03,1,,,,,ゴホウヨシ,0
21,1010005033729,新規,0,2021-08-03,2021-08-03,Ｍソーラー一般社団法人,,その他の設立登記法人,東京都,千代田区,九段南３丁目７番７号成和綜合会計事務所内,,13,101,1020074,,,,,,,2021-08-03,1,,,,,エムソーラー,0
22,1010101014797,新規,0,2021-08-03,2021-08-03,株式会社シンヤエステート,,株式会社,東京都,八王子市,堀之内３丁目１０番地１１,,13,201,1920355,,,,,,,2021-08-03,1,,,,,シンヤエステート,0
23,1010103001744,新規,0,2021-08-03,2021-08-03,合同会社ラクチン,,合同会社,東京都,八王子市,別所１丁目４３番地８０,,13,201,1920363,,,,,,,2021-08-03,1,,,,,ラクチン,0
44,1010701041340,新規,0,2021-08-03,2021-08-03,株式会社ＵＷＡＭ,,株式会社,東京都,品川区,西大井２丁目１８－１２,,13,109,1400015,,,,,,,2021-08-03,1,,,,,ウワン,0
49,1010801032173,新規,0,2021-08-03,2021-08-03,株式会社チョコゾティック,,株式会社,東京都,大田区,田園調布１丁目２７番３号,,13,111,1450071,,,,,,,2021-08-03,1,,,,,チョコゾティック,0
50,1010803003841,新規,0,2021-08-03,2021-08-03,中小支援合同会社,,合同会社,東京都,大田区,大森北６丁目２５－１７,,13,111,1430016,,,,,,,2021-08-03,1,,,,,チュウショウシエン,0
56,1011001141995,新規,0,2021-08-03,2021-08-03,ＦＵＪＩ　ＡＮＩＭＡＴＩＯＮ株式会社,,株式会社,東京都,渋谷区,富ヶ谷１丁目１４番１４号３階,,13,113,1510063,,,,,,,2021-08-03,1,,,,,フジアニメーション,0
60,1011003013160,新規,0,2021-08-03,2021-08-03,ＹＥＥＴｎＯＯＦ合同会社,,合同会社,東京都,渋谷区,神宮前６丁目２３番４号桑野ビル２階,,13,113,1500001,,,,,,,2021-08-03,1,,,,,イートンウッフ,0
77,1011301027077,新規,0,2021-08-03,2021-08-03,株式会社ＮＥＵＥＷＥＬＴ,,株式会社,東京都,杉並区,久我山２丁目１３番７号,,13,115,1680082,,,,,,,2021-08-03,1,,,,,ノイエヴェルト,0
81,1011401023579,新規,0,2021-08-03,2021-08-03,株式会社クラウドカルチャー,,株式会社,東京都,板橋区,大山金井町５６番地１オリックス大山ビル６階,,13,119,1730024,,,,,,,2021-08-03,1,,,,,クラウドカルチャー,0
86,1011601025301,新規,0,2021-08-03,2021-08-03,株式会社Ｇｒｏｖｅ,,株式会社,東京都,練馬区,大泉学園町８丁目２９－１８ナウ・ヴィレッジ大泉２０１,,13,120,1780061,,,,,,,2021-08-03,1,,,,,グローブ,0
93,1012401038162,新規,0,2021-08-03,2021-08-03,株式会社ブライト,,株式会社,東京都,武蔵野市,吉祥寺南町３丁目１９番８号,,13,203,1800003,,,,,,,2021-08-03,1,,,,,ブライト,0
94,1012403004971,新規,0,2021-08-03,2021-08-03,合同会社サルー,,合同会社,東京都,多摩市,山王下１丁目１６－８,,13,224,2060042,,,,,,,2021-08-03,1,,,,,サルー,0
96,1012801020983,新規,0,2021-08-03,2021-08-03,株式会社三和システムサービス,,株式会社,東京都,日野市,日野本町２丁目１４番地の３,,13,212,1910011,,,,,,,2021-08-03,1,,,,,,0
105,1020001142433,新規,0,2021-08-03,2021-08-03,株式会社ＧＯ　ＢＵＤＤＹ,,株式会社,神奈川県,川崎市中原区,井田三舞町１５－１プラウドシティ元住吉３３４,,14,133,2110037,,,,,,,2021-08-03,1,,,,,ゴーバディー,0
110,1021001073552,新規,0,2021-08-03,2021-08-03,株式会社Ｆｌａｔ　ｍａｋｅ,,株式会社,神奈川県,横須賀市,平作７丁目１８番１号,,14,201,2380032,,,,,,,2021-08-03,1,,,,,フラットメイク,0
113,1021003010719,新規,0,2021-08-03,2021-08-03,ＭＴＧｓ合同会社,,合同会社,神奈川県,相模原市南区,御園５丁目５－１６,,14,153,2520317,,,,,,,2021-08-03,1,,,,,エムティージーズ,0
114,1021003010743,新規,0,2021-08-03,2021-08-03,昇栄警備合同会社,,合同会社,神奈川県,相模原市緑区,三井６８９番地,,14,151,2520151,,,,,,,2021-08-03,1,,,,,ショウエイケイビ,0
145,1050001049618,新規,0,2021-08-03,2021-08-03,株式会社ウィン・テイク,,株式会社,茨城県,つくば市,上横場２４５６番地６,,08,220,3050854,,,,,,,2021-08-03,1,,,,,ウィンテイク,0
153,1060005006390,新規,0,2021-08-03,2021-08-03,学校法人坂西学園,,その他の設立登記法人,栃木県,足利市,山下町２６９２番地１,,09,202,3260846,,,,,,,2021-08-03,1,,,,,サカニシガクエン,0
155,1070001038321,新規,0,2021-08-03,2021-08-03,株式会社石井エクステリア,,株式会社,群馬県,高崎市,箕郷町白川１７４３番地３,,10,202,3703117,,,,,,,2021-08-03,1,,,,,イシイエクステリア,0
157,1080001024353,新規,0,2021-08-03,2021-08-03,株式会社大和モータース,,株式会社,静岡県,静岡市清水区,蒲原４丁目２０番２０号,,22,103,4213203,,,,,,,2021-08-03,1,,,,,ヤマトモータース,0
158,1080001024361,新規,0,2021-08-03,2021-08-03,株式会社ｅＱＯＬ,,株式会社,静岡県,藤枝市,高柳３丁目８番２８号,,22,214,4260041,,,,,,,2021-08-03,1,,,,,イクオル,0
160,1080103002397,新規,0,2021-08-03,2021-08-03,ＧＥＲＥＬ合同会社,,合同会社,静岡県,富士宮市,宮原４２１番地の３,,22,207,4180005,,,,,,,2021-08-03,1,,,,,ゲレル,0
161,1080401025224,新規,0,2021-08-03,2021-08-03,株式会社Ｍａｇｅｎｔａ,,株式会社,静岡県,浜松市中区,泉４丁目２６番２０号へーベルメゾン和泉２０１,,22,131,4338124,,,,,,,2021-08-03,1,,,,,マゼンタ,0
162,1080401025249,新規,0,2021-08-03,2021-08-03,株式会社アール,,株式会社,静岡県,掛川市,葛川６１３番地１,,22,213,4360074,,,,,,,2021-08-03,1,,,,,アール,0
164,1080403004341,新規,0,2021-08-03,2021-08-03,ＭＳＫ合同会社,,合同会社,静岡県,浜松市東区,大瀬町９９１番地,,22,132,4313113,,,,,,,2021-08-03,1,,,,,エムエスケイ,0
165,1090001017133,新規,0,2021-08-03,2021-08-03,株式会社ネクストタッチ,,株式会社,山梨県,中巨摩郡昭和町,押越５１７－７,,19,384,4093864,,,,,,,2021-08-03,1,,,,,ネクストタッチ,0
169,1100001034481,新規,0,2021-08-03,2021-08-03,株式会社ココプラン,,株式会社,長野県,松本市,大字岡田町２１６－１,,20,202,3900315,,,,,,,2021-08-03,1,,,,,ココプラン,0
171,1100003006181,新規,0,2021-08-03,2021-08-03,合名会社塩屋醬油店,00123751,合名会社,長野県,須坂市,大字須坂５３７番地,,20,207,3820000,,,,,,,2021-08-03,1,,,,,シオヤショウユテン,0
173,1100005012748,新規,0,2021-08-03,2021-08-03,一般社団法人アキバコ,,その他の設立登記法人,長野県,須坂市,中町２０２番地１,,20,207,3820000,,,,,,,2021-08-03,1,,,,,アキバコ,0
183,1120001239467,新規,0,2021-08-03,2021-08-03,森友株式会社,,株式会社,大阪府,大阪市東住吉区,湯里５丁目１６番地５号３Ｆ－Ｆ,,27,121,5460013,,,,,,,2021-08-03,1,,,,,モリトモ,0
184,1120001239500,新規,0,2021-08-03,2021-08-03,株式会社ＥＮＴＵＭ,,株式会社,大阪府,大阪市北区,曾根崎新地１丁目２－６喜多一ビル３Ｆ,,27,127,5300002,,,,,,,2021-08-03,1,,,,,エンタム,0
186,1120101064063,新規,0,2021-08-03,2021-08-03,エージェント株式会社,,株式会社,大阪府,富田林市,若松町５丁目３番９号,,27,214,5840024,,,,,,,2021-08-03,1,,,,,エージェント,0
187,1120101064088,新規,0,2021-08-03,2021-08-03,株式会社田中造園,,株式会社,大阪府,和泉市,今福町１丁目１１番２１号,,27,219,5940063,,,,,,,2021-08-03,1,,,,,タナカゾウエン,0
189,1120901044710,新規,0,2021-08-03,2021-08-03,株式会社メディポート,,株式会社,大阪府,茨木市,庄２丁目１９番２１号,,27,211,5670806,,,,,,,2021-08-03,1,,,,,メディポート,0
199,1140001122530,新規,0,2021-08-03,2021-08-03,株式会社ケアエンリッチメント,,株式会社,兵庫県,尼崎市,武庫之荘２丁目２番２－４０６号,,28,202,6610035,,,,,,,2021-08-03,1,,,,,ケアエンリッチメント,0
206,1150001024833,新規,0,2021-08-03,2021-08-03,モリタ建築株式会社,,株式会社,奈良県,大和郡山市,新町５５５番地１,,29,203,6391054,,,,,,,2021-08-03,1,,,,,モリタケンチク,0
211,1170001016705,新規,0,2021-08-03,2021-08-03,株式会社昭和ファミリー,,株式会社,和歌山県,海南市,岡田２９３－１５,,30,202,6420012,,,,,,,2021-08-03,1,,,,,ショウワファミリー,0
216,1180001147219,新規,0,2021-08-03,2021-08-03,株式会社清翔,,株式会社,愛知県,名古屋市千種区,内山１丁目２２番９号,,23,101,4640075,,,,,,,2021-08-03,1,,,,,セイショウ,0
217,1180001147227,新規,0,2021-08-03,2021-08-03,グランスペクト株式会社,,株式会社,愛知県,名古屋市緑区,小坂１丁目６０２番地,,23,114,4580022,,,,,,,2021-08-03,1,,,,,グランスペクト,0
221,1180301035239,新規,0,2021-08-03,2021-08-03,株式会社Ｈｏｕｓｅｆｕｌｌ,,株式会社,愛知県,西尾市,細池町北高洲１０４番地１,,23,213,4450047,,,,,,,2021-08-03,1,,,,,ハウスフル,0
226,1190001028574,新規,0,2021-08-03,2021-08-03,株式会社南山電設,,株式会社,三重県,鈴鹿市,末広北２丁目１番１号,,24,207,5130854,,,,,,,2021-08-03,1,,,,,ミナミヤマデンセツ,0
230,1200001038984,新規,0,2021-08-03,2021-08-03,株式会社キシン,,株式会社,岐阜県,岐阜市,茂地１０８番地７,,21,201,5012523,,,,,,,2021-08-03,1,,,,,キシン,0
238,1220001024330,新規,0,2021-08-03,2021-08-03,株式会社ＳＨＡＲＥＦＯＲ　ｒｅｃｏｒｄｓ,,株式会社,石川県,金沢市,寺町５丁目７番２５号,,17,201,9218033,,,,,,,2021-08-03,1,,,,,シェアフォーレコード,0
244,1240001058351,新規,0,2021-08-03,2021-08-03,株式会社ピアニシモ,,株式会社,広島県,広島市中区,舟入町２番２０号,,34,101,7300841,,,,,,,2021-08-03,1,,,,,ピアニシモ,0
252,1260001035828,新規,0,2021-08-03,2021-08-03,株式会社八幸電気工業,,株式会社,岡山県,倉敷市,真備町岡田１１８６番地,,33,202,7101311,,,,,,,2021-08-03,1,,,,,ハッコウデンキコウギョウ,0
253,1260001035844,新規,0,2021-08-03,2021-08-03,株式会社ＲｏｕｇｈＬｉｆｅ,,株式会社,岡山県,岡山市南区,豊成３丁目１７番８‐２０１号,,33,104,7000942,,,,,,,2021-08-03,1,,,,,ラフライフ,0
268,1320003003586,新規,0,2021-08-03,2021-08-03,佐藤ブルーベリー農園合同会社,,合同会社,大分県,玖珠郡玖珠町,大字帆足８９８番地の１７,,44,462,8794403,,,,,,,2021-08-03,1,,,,,サトウブルーベリーノウエン,0
273,1330001028865,新規,0,2021-08-03,2021-08-03,株式会社癒しの輪,,株式会社,熊本県,菊池郡菊陽町,大字津久礼２０９８番地７４,,43,404,8691101,,,,,,,2021-08-03,1,,,,,イヤシノワ,0
276,1340001023972,新規,0,2021-08-03,2021-08-03,株式会社ｄｅＲｉｇｈｔ,,株式会社,鹿児島県,鹿児島市,上之園町２７番１８号,,46,201,8900052,,,,,,,2021-08-03,1,,,,,ディライト,0
277,1350001017247,新規,0,2021-08-03,2021-08-03,株式会社ボデーショップタニグチ,,株式会社,宮崎県,宮崎市,大字富吉２８０２番地２,,45,201,8802114,,,,,,,2021-08-03,1,,,,,ボデーショップタニグチ,0
294,1390001016550,新規,0,2021-08-03,2021-08-03,東北ウェイストエナジー株式会社,,株式会社,山形県,米沢市,信夫町３－１,,06,202,9920046,,,,,,,2021-08-03,1,,,,,トウホクウェイストエナジー,0
300,1420001017529,新規,0,2021-08-03,2021-08-03,株式会社雄建,,株式会社,青森県,平川市,新館藤巻１３番地１,,02,210,0360115,,,,,,,2021-08-03,1,,,,,ユウケン,0
304,1430001084659,新規,0,2021-08-03,2021-08-03,株式会社ｈａｒｖｅｎｅｒｇｙ,,株式会社,北海道,札幌市手稲区,富丘三条３丁目１番８号,,01,109,0060013,,,,,,,2021-08-03,1,,,,,ハーベナジー,0
311,1470001018638,新規,0,2021-08-03,2021-08-03,株式会社ｗｅｂサービス研究所,,株式会社,香川県,高松市,天神前１０番５号高松セントラルスカイビルディング３Ｆｓｏｕｔｈ,,37,201,7600018,,,,,,,2021-08-03,1,,,,,ウェブサービスケンキュウジョ,0
313,1480003001698,新規,0,2021-08-03,2021-08-03,合同会社とくしま自然エネルギー,,合同会社,徳島県,徳島市,応神町応神産業団地１０番地１,,36,201,7711156,,,,,,,2021-08-03,1,,,,,トクシマシゼンエネルギー,0
314,1490001009949,新規,0,2021-08-03,2021-08-03,株式会社ＣｌａｓｓＨｏｍｅｓ,,株式会社,高知県,高知市,桜井町１丁目８番３２－３０１号,,39,201,7800821,,,,,,,2021-08-03,1,,,,,クラスホームズ,0
323,1700150104264,新規,0,2021-08-03,2021-08-03,Ｍａｃｂｅｔｈ　Ｌｉｍｉｔｅｄ,,外国会社等,東京都,中央区,銀座１丁目６番１１号土志田ビルディング３階,,13,102,1040061,英領西インド諸島、ケイマン諸島、グランドケイマン、ジョージタウン、エルジン通り１９０、ウォーカーズ・フィデューシャリー・リミテッド,,,,,,2021-08-03,1,,,,,マクベスリミテツド,0
335,2010001220115,新規,0,2021-08-03,2021-08-03,株式会社ギンジ,,株式会社,東京都,千代田区,九段南１丁目５番６号りそな九段ビル５Ｆ・ＫＳフロア,,13,101,1020074,,,,,,,2021-08-03,1,,,,,ギンジ,0
336,2010003035478,新規,0,2021-08-03,2021-08-03,大分杉原土地合同会社,,合同会社,東京都,中央区,八丁堀４丁目２番１０号ＡＯＪ税理士法人内,,13,102,1040032,,,,,,,2021-08-03,1,,,,,オオイタスギバルトチ,0
338,2010005033728,新規,0,2021-08-03,2021-08-03,Ｍエナジー一般社団法人,,その他の設立登記法人,東京都,千代田区,九段南３丁目７番７号成和綜合会計事務所内,,13,101,1020074,,,,,,,2021-08-03,1,,,,,エムエナジー,0
348,2010401161784,新規,0,2021-08-03,2021-08-03,広尾フラワーストリート株式会社,,株式会社,東京都,港区,元麻布２丁目１番２０,,13,103,1060046,,,,,,,2021-08-03,1,,,,,ヒロオフラワーストリート,0
350,2010405020037,新規,0,2021-08-03,2021-08-03,ジー・ジェイ・レジデンス・フォー特定目的会社,,その他の設立登記法人,東京都,港区,虎ノ門４丁目３番１号城山トラストタワー２７階ＳａｎｎｅＧｒｏｕｐＪａｐａｎ株式会社内,,13,103,1050001,,,,,,,2021-08-03,1,,,,,ジージェイレジデンスフォー,0
352,2010501047636,新規,0,2021-08-03,2021-08-03,亜土夢株式会社,,株式会社,東京都,台東区,三筋１丁目９番９号,,13,106,1110055,,,,,,,2021-08-03,1,,,,,アトム,0
360,2010701041348,新規,0,2021-08-03,2021-08-03,株式会社エス・アール・アイ,,株式会社,東京都,品川区,大崎２丁目５番６号,,13,109,1410032,,,,,,,2021-08-03,1,,,,,エスアールアイ,0
365,2010901049199,新規,0,2021-08-03,2021-08-03,株式会社ＹＵＥＬ,,株式会社,東京都,世田谷区,玉川３丁目２８番１号,,13,112,1580094,,,,,,,2021-08-03,1,,,,,ユエル,0
373,2011001142027,新規,0,2021-08-03,2021-08-03,株式会社ｎｏｒｍ,,株式会社,東京都,渋谷区,神宮前６丁目２３番４号桑野ビル２階,,13,113,1500001,,,,,,,2021-08-03,1,,,,,ノーム,0
374,2011001142043,新規,0,2021-08-03,2021-08-03,フォーチュンアセット・パートナーズ株式会社,,株式会社,東京都,目黒区,三田１丁目３番２９－４０１号,,13,110,1530062,,,,,,,2021-08-03,1,,,,,フォーチュンアセットパートナーズ,0
375,2011003013135,新規,0,2021-08-03,2021-08-03,合同会社ＷｅｂＬａｂ,,合同会社,東京都,渋谷区,本町１丁目８番３号エルスタンザ渋谷本町３０２,,13,113,1510071,,,,,,,2021-08-03,1,,,,,ウェブラボ,0
383,2011301027076,新規,0,2021-08-03,2021-08-03,株式会社ＭＣＳ,,株式会社,東京都,杉並区,堀ノ内１丁目１番２号ユーロポート方南３０１,,13,115,1660013,,,,,,,2021-08-03,1,,,,,エムシーエス,0
394,2011801039521,新規,0,2021-08-03,2021-08-03,株式会社板山ダクト,,株式会社,東京都,葛飾区,奥戸３丁目１２番１９号,,13,122,1240022,,,,,,,2021-08-03,1,,,,,,0
397,2012301012646,新規,0,2021-08-03,2021-08-03,株式会社オーサムテック,,株式会社,東京都,町田市,野津田町１８１０番地３０,,13,209,1950063,,,,,,,2021-08-03,1,,,,,オーサムテック,0
413,2020001142440,新規,0,2021-08-03,2021-08-03,株式会社Ｆｒｅｅｄｏｍｄｕｔｙ,,株式会社,神奈川県,横浜市旭区,中沢１丁目１４番９号,,14,112,2410814,,,,,,,2021-08-03,1,,,,,フリーダムデューティー,0
414,2020001142449,新規,0,2021-08-03,2021-08-03,株式会社ＳＡＮ　ＩＮＤＵＳＴＲＹ,,株式会社,神奈川県,横浜市西区,平沼１丁目３２番１８－８０１号,,14,103,2200023,,,,,,,2021-08-03,1,,,,,サンインダストリー,0
415,2020001142465,新規,0,2021-08-03,2021-08-03,株式会社ナビライン,,株式会社,神奈川県,横浜市南区,大岡１丁目５８番４７号,,14,105,2320061,,,,,,,2021-08-03,1,,,,,ナビライン,0
420,2021001073535,新規,0,2021-08-03,2021-08-03,株式会社コネクティッドビレッジ,,株式会社,神奈川県,平塚市,中原３丁目３番２８号,,14,203,2540075,,,,,,,2021-08-03,1,,,,,コネクティッドビレッジ,0
421,2021001073551,新規,0,2021-08-03,2021-08-03,株式会社リンクプランニング,,株式会社,神奈川県,伊勢原市,伊勢原１丁目６番１３号,,14,214,2591131,,,,,,,2021-08-03,1,,,,,リンクプランニング,0
425,2021003010734,新規,0,2021-08-03,2021-08-03,合同会社湘南ＷｅｂＷｏｒｋｓ,,合同会社,神奈川県,平塚市,公所２９０－１１,,14,203,2540906,,,,,,,2021-08-03,1,,,,,ショウナンウェブワークス,0
426,2021003010750,新規,0,2021-08-03,2021-08-03,合同会社アザーントレーディング,,合同会社,神奈川県,相模原市南区,磯部４０５番地－Ｃ２０２,,14,153,2520327,,,,,,,2021-08-03,1,,,,,アザーントレーディング,0
441,2030003017631,新規,0,2021-08-03,2021-08-03,Ｋ３合同会社,,合同会社,埼玉県,草加市,青柳７丁目１８－６,,11,221,3400002,,,,,,,2021-08-03,1,,,,,ケースリー,0
442,2030003017672,新規,0,2021-08-03,2021-08-03,合同会社プロムネクト,,合同会社,埼玉県,所沢市,小手指台２８番地の１マーブル小手指２１１,,11,208,3591148,,,,,,,2021-08-03,1,,,,,プロムネクト,0
459,2070001038312,新規,0,2021-08-03,2021-08-03,ワールドビジネス株式会社,,株式会社,群馬県,安中市,岩井字中ノ平１６０３番３０,,10,211,3790112,,,,,,,2021-08-03,1,,,,,ワールドビジネス,0
464,2080401025223,新規,0,2021-08-03,2021-08-03,株式会社Ｙ’ｓ,,株式会社,静岡県,周智郡森町,草ケ谷１２３番地の３８,,22,461,4370214,,,,,,,2021-08-03,1,,,,,ワイズ,0
465,2080401025231,新規,0,2021-08-03,2021-08-03,ＭＯＳＴ株式会社,,株式会社,静岡県,浜松市北区,新都田２丁目１１番２８号,,22,135,4312103,,,,,,,2021-08-03,1,,,,,モスト,0
469,2100001034489,新規,0,2021-08-03,2021-08-03,株式会社山崎板金,,株式会社,長野県,長野市,大字安茂里８１９１番地,,20,201,3800941,,,,,,,2021-08-03,1,,,,,ヤマザキバンキン,0
470,2110001035957,新規,0,2021-08-03,2021-08-03,株式会社Ｐｅｔｉｔ　ｐａｓ,,株式会社,新潟県,新潟市東区,東中島２丁目６番１号,,15,102,9500823,,,,,,,2021-08-03,1,,,,,プティパ,0
475,2110005016680,新規,0,2021-08-03,2021-08-03,特定非営利活動法人燕メタセコイアの会,,その他の設立登記法人,新潟県,燕市,吉田神田町１９番８号,,15,213,9590241,,,,,,,2021-08-03,1,,,,,ツバメメタセコイアノカイ,0
487,2120001239466,新規,0,2021-08-03,2021-08-03,秋実株式会社,,株式会社,大阪府,大阪市生野区,巽北１丁目１番１号２Ｆ－Ｇ,,27,116,5440004,,,,,,,2021-08-03,1,,,,,アキミ,0
493,2120003019940,新規,0,2021-08-03,2021-08-03,合同会社アイティーエキスパート,,合同会社,大阪府,大阪市北区,西天満５丁目１番９号,,27,127,5300047,,,,,,,2021-08-03,1,,,,,アイティーエキスパート,0
498,2122001035036,新規,0,2021-08-03,2021-08-03,Ｄａｉｋｏｕ金属株式会社,,株式会社,大阪府,東大阪市,森河内東１丁目２３番１５号,,27,227,5770062,,,,,,,2021-08-03,1,,,,,ダイコウキンゾク,0
499,2122001035044,新規,0,2021-08-03,2021-08-03,株式会社ＩＭＴ,,株式会社,大阪府,東大阪市,宝持１丁目３番１９号,,27,227,5770805,,,,,,,2021-08-03,1,,,,,アイエムティー,0
526,2150001024840,新規,0,2021-08-03,2021-08-03,Ｈｕｎｎｙ　Ｃｏｕｔｕｒｅ株式会社,,株式会社,奈良県,奈良市,西九条町５５９番地の９,,29,201,6308453,,,,,,,2021-08-03,1,,,,,ハニークチュール,0
530,2160005010968,新規,0,2021-08-03,2021-08-03,滋賀県建設工事業協同組合,,その他の設立登記法人,滋賀県,米原市,枝折３６２番地,,25,214,5210032,,,,,,,2021-08-03,1,,,,,シガケンケンセツコウジギョウ,0
545,2180001147201,新規,0,2021-08-03,2021-08-03,株式会社ベスト,,株式会社,愛知県,東海市,荒尾町上ノ山８番地,,23,222,4760003,,,,,,,2021-08-03,1,,,,,ベスト,0
546,2180001147226,新規,0,2021-08-03,2021-08-03,株式会社カワマー,,株式会社,愛知県,名古屋市港区,東海通３丁目２１番地の１,,23,111,4550002,,,,,,,2021-08-03,1,,,,,カワマー,0
557,2180301035205,新規,0,2021-08-03,2021-08-03,株式会社チャンピョン,,株式会社,愛知県,豊田市,宝町津花８番地,,23,211,4730908,,,,,,,2021-08-03,1,,,,,チャンピョン,0
558,2180301035238,新規,0,2021-08-03,2021-08-03,株式会社ＷＯＮｄｅｒ,,株式会社,愛知県,安城市,横山町浜畔上６４番地２,,23,212,4460045,,,,,,,2021-08-03,1,,,,,ワンダー,0
559,2180301035246,新規,0,2021-08-03,2021-08-03,株式会社マイズアップ,,株式会社,愛知県,碧南市,権現町３丁目２６１番地,,23,209,4470833,,,,,,,2021-08-03,1,,,,,,0
562,2190001028557,新規,0,2021-08-03,2021-08-03,冷凍プリンソフト株式会社,,株式会社,三重県,伊勢市,宇治浦田３丁目２４番２９号,,24,203,5160026,,,,,,,2021-08-03,1,,,,,レイトウプリンソフト,0
568,2200001038967,新規,0,2021-08-03,2021-08-03,株式会社共栄住建,,株式会社,岐阜県,各務原市,鵜沼各務原町２丁目１０１番地１,,21,213,5090141,,,,,,,2021-08-03,1,,,,,キョウエイジュウケン,0
585,2240001058359,新規,0,2021-08-03,2021-08-03,株式会社大手町カイロプラクティックオフィス,,株式会社,広島県,広島市南区,宇品西５丁目１１番１－１２０４号,,34,103,7340014,,,,,,,2021-08-03,1,,,,,オオテマチカイロプラクティックオフィス,0
595,2260001035819,新規,0,2021-08-03,2021-08-03,株式会社桃の華,,株式会社,岡山県,岡山市北区,大供表町１５番３号,,33,101,7000912,,,,,,,2021-08-03,1,,,,,モモノカ,0
596,2260001035827,新規,0,2021-08-03,2021-08-03,株式会社ウィズ・プランニング倉敷,,株式会社,岡山県,倉敷市,亀山２６４番地２（２０５）,,33,202,7100024,,,,,,,2021-08-03,1,,,,,ウィズプランニングクラシキ,0
597,2260001035835,新規,0,2021-08-03,2021-08-03,株式会社オートキャッスル,,株式会社,岡山県,倉敷市,玉島黒崎３１９８番地２３,,33,202,7138126,,,,,,,2021-08-03,1,,,,,オートキャッスル,0
600,2270003001330,新規,0,2021-08-03,2021-08-03,合同会社りんたろー,,合同会社,鳥取県,米子市,西福原７丁目９番１９号２号,,31,202,6830805,,,,,,,2021-08-03,1,,,,,リンタロー,0
607,2290003011451,新規,0,2021-08-03,2021-08-03,合同会社アベイルシステム,,合同会社,福岡県,福岡市博多区,南八幡町２丁目８番５－１０４号コスモ南福岡ウィングガーデン,,40,132,8120886,,,,,,,2021-08-03,1,,,,,アベイルシステム,0
611,2310003004122,新規,0,2021-08-03,2021-08-03,合同会社オーエスアイ,,合同会社,長崎県,東彼杵郡波佐見町,湯無田郷２８２番地４,,42,323,8593702,,,,,,,2021-08-03,1,,,,,オーエスアイ,0
621,2330001028872,新規,0,2021-08-03,2021-08-03,株式会社村嶋農園,,株式会社,熊本県,宇城市,不知火町高良１８０１番地１,,43,213,8690552,,,,,,,2021-08-03,1,,,,,ムラシマノウエン,0
622,2350001017238,新規,0,2021-08-03,2021-08-03,クラシード株式会社,,株式会社,宮崎県,宮崎市,大字恒久９４７番地１,,45,201,8800916,,,,,,,2021-08-03,1,,,,,クラシード,0
623,2350001017246,新規,0,2021-08-03,2021-08-03,株式会社エイ・オー,,株式会社,宮崎県,宮崎市,大工１丁目４番１８号,,45,201,8800015,,,,,,,2021-08-03,1,,,,,エイオー,0
625,2360003011337,新規,0,2021-08-03,2021-08-03,合同会社フェリーチェ,,合同会社,沖縄県,那覇市,安謝１丁目２１番８号メゾン・ボヌール２０４,,47,201,9000003,,,,,,,2021-08-03,1,,,,,,0
656,2450001013433,新規,0,2021-08-03,2021-08-03,株式会社あさぴか,,株式会社,北海道,旭川市,二条通８丁目１４４番地２,,01,204,0700032,,,,,,,2021-08-03,1,,,,,アサピカ,0
665,2490001009948,新規,0,2021-08-03,2021-08-03,株式会社一二三測量設計,,株式会社,高知県,高知市,中久万４９番地１２エントランスパークビル２００,,39,201,7800983,,,,,,,2021-08-03,1,,,,,ヒフミソクリョウセッケイ,0
666,2500001023591,新規,0,2021-08-03,2021-08-03,アクシアホールディングス株式会社,,株式会社,愛媛県,南宇和郡愛南町,御荘平城３６２５番地,,38,506,7984110,,,,,,,2021-08-03,1,,,,,アクシアホールディングス,0
672,2500003002676,新規,0,2021-08-03,2021-08-03,合同会社エクステリアスギモト,,合同会社,愛媛県,松山市,中西外６８１番地,,38,201,7992425,,,,,,,2021-08-03,1,,,,,エクステリアスギモト,0
682,3010001220114,新規,0,2021-08-03,2021-08-03,ヤッパデータ・ジャパン株式会社,,株式会社,東京都,千代田区,九段南１丁目５番６号りそな九段ビル５Ｆ,,13,101,1020074,,,,,,,2021-08-03,1,,,,,ヤッパデータジャパン,0
683,3010001220122,新規,0,2021-08-03,2021-08-03,株式会社マーキュリアエアボーンキャピタル,,株式会社,東京都,千代田区,内幸町１丁目３番３号,,13,101,1000011,,,,,,,2021-08-03,1,,,,,マーキュリアエアボーンキャピタル,0
684,3010001220139,新規,0,2021-08-03,2021-08-03,エヌビービーベンネビスリース株式会社,,株式会社,東京都,中央区,日本橋浜町３丁目３番２号,,13,102,1030007,,,,,,,2021-08-03,1,,,,,エヌビービーベンネビスリース,0
692,3010003035460,新規,0,2021-08-03,2021-08-03,Ｉｎｖｅｓｅｎｓｅ　Ｃｏｌｌｅｃｔｉｂｌｅｓ合同会社,,合同会社,東京都,千代田区,丸の内２丁目１番１号明治安田生命ビル１４階,,13,101,1000005,,,,,,,2021-08-03,1,,,,,インベセンスコレクティブルス,0
707,3010405020036,新規,0,2021-08-03,2021-08-03,ジー・ジェイ・レジデンス・フォー一般社団法人,,その他の設立登記法人,東京都,港区,虎ノ門４丁目３番１号城山トラストタワー２７階ＳａｎｎｅＧｒｏｕｐＪａｐａｎ株式会社内,,13,103,1050001,,,,,,,2021-08-03,1,,,,,ジージェイレジデンスフォー,0
715,3010601059720,新規,0,2021-08-03,2021-08-03,株式会社ＣＲＳＣ　ＪＡＰＡＮ,,株式会社,東京都,江東区,大島８丁目２８－２４ライオンズステージ大島ウエストアクエア４１２,,13,108,1360072,,,,,,,2021-08-03,1,,,,,シアエスシジャパン,0
734,3011003013142,新規,0,2021-08-03,2021-08-03,合同会社Ｄｏｏｒｋｎｏｂ,,合同会社,東京都,目黒区,鷹番３丁目１４－２０エムズ鷹番１０１,,13,110,1520004,,,,,,,2021-08-03,1,,,,,ドアノブ,0
735,3011003013150,新規,0,2021-08-03,2021-08-03,合同会社ＬＩＭＩＴＬＥＳＳ,,合同会社,東京都,渋谷区,神宮前６丁目２３番４号桑野ビル２階,,13,113,1500001,,,,,,,2021-08-03,1,,,,,リミットレス,0
736,3011003013159,新規,0,2021-08-03,2021-08-03,デリックス合同会社,,合同会社,東京都,渋谷区,神宮前６丁目２３番４号桑野ビル２階,,13,113,1500001,,,,,,,2021-08-03,1,,,,,デリックス,0
748,3011203003604,新規,0,2021-08-03,2021-08-03,合同会社Ｔ・Ｋ・Ｓ・Ｒ企画,,合同会社,東京都,中野区,中野１丁目４１番５５号,,13,114,1640001,,,,,,,2021-08-03,1,,,,,ティーケーエスアールキカク,0
749,3011303004114,新規,0,2021-08-03,2021-08-03,合同会社ＭＴＹＲ企画,,合同会社,東京都,杉並区,南荻窪２丁目３８番３号,,13,115,1670052,,,,,,,2021-08-03,1,,,,,エムティーワイアールキカク,0
758,3011601025299,新規,0,2021-08-03,2021-08-03,株式会社３Ｔ,,株式会社,東京都,練馬区,東大泉７丁目２７番４５号,,13,120,1780063,,,,,,,2021-08-03,1,,,,,サント,0
759,3011603003360,新規,0,2021-08-03,2021-08-03,佐藤洪平商事合同会社,,合同会社,東京都,練馬区,豊玉南１丁目２番７－２０３号,,13,120,1760014,,,,,,,2021-08-03,1,,,,,サトウコウヘイショウジ,0
760,3011701024597,新規,0,2021-08-03,2021-08-03,株式会社ＩＭＹＭＥ,,株式会社,東京都,江戸川区,南篠崎町１丁目２２番１９号,,13,123,1330065,,,,,,,2021-08-03,1,,,,,アイマイミー,0
766,3012801020981,新規,0,2021-08-03,2021-08-03,株式会社ウェルスアセット,,株式会社,東京都,国分寺市,南町２丁目１８－１－９０２,,13,214,1850021,,,,,,,2021-08-03,1,,,,,ウェルスアセット,0
777,3020001142431,新規,0,2021-08-03,2021-08-03,株式会社ＬＨＣ,,株式会社,神奈川県,川崎市麻生区,東百合丘３丁目１３番１号グレイス東百合丘弐番館１０１,,14,137,2150012,,,,,,,2021-08-03,1,,,,,エルエイチシー,0
778,3020001142456,新規,0,2021-08-03,2021-08-03,株式会社エステート関,,株式会社,神奈川県,横浜市都筑区,大棚町３９５番地,,14,118,2240027,,,,,,,2021-08-03,1,,,,,エステートセキ,0
784,3020003020255,新規,0,2021-08-03,2021-08-03,合同会社Ｒｅｄｙ,,合同会社,神奈川県,横浜市港南区,笹下１丁目８番１０－２０１号,,14,111,2340052,,,,,,,2021-08-03,1,,,,,レディ,0
785,3020003020271,新規,0,2021-08-03,2021-08-03,合同会社Ｎ－Ｍｏｇ,,合同会社,神奈川県,横浜市青葉区,しらとり台２番地３５青葉台ハウス１０３,,14,117,2270054,,,,,,,2021-08-03,1,,,,,エヌモグ,0
790,3021001073550,新規,0,2021-08-03,2021-08-03,株式会社ＲＥ,,株式会社,神奈川県,足柄上郡大井町,柳２６０番地,,14,362,2580012,,,,,,,2021-08-03,1,,,,,アールイー,0
791,3021001073567,新規,0,2021-08-03,2021-08-03,佗鵲堂株式会社,,株式会社,神奈川県,足柄上郡松田町,松田惣領１１番地２１,,14,363,2580003,,,,,,,2021-08-03,1,,,,,ダジャクドウ,0
798,3030001143593,新規,0,2021-08-03,2021-08-03,株式会社Ｍ．Ｒｏａｄ,,株式会社,埼玉県,北本市,山中２丁目２７番地,,11,233,3640004,,,,,,,2021-08-03,1,,,,,エムロード,0
815,3080001024351,新規,0,2021-08-03,2021-08-03,株式会社鈴木興業,,株式会社,静岡県,焼津市,中里５３９番地の３ヤマモトビル３－Ａ,,22,212,4250014,,,,,,,2021-08-03,1,,,,,スズキコウギョウ,0
816,3080101022692,新規,0,2021-08-03,2021-08-03,株式会社ワイズ電工,,株式会社,静岡県,駿東郡小山町,棚頭１１８１番地の１,,22,344,4101327,,,,,,,2021-08-03,1,,,,,ワイズデンコウ,0
817,3080101022701,新規,0,2021-08-03,2021-08-03,株式会社林動物病院,,株式会社,静岡県,三島市,梅名９７番地の５,,22,206,4110816,,,,,,,2021-08-03,1,,,,,ハヤシドウブツビョウイン,0
818,3080103002395,新規,0,2021-08-03,2021-08-03,合同会社ＴＣＫＹ,,合同会社,静岡県,富士市,永田町２丁目７５番地,,22,210,4170055,,,,,,,2021-08-03,1,,,,,ティーシーケーワイ,0
821,3080401025230,新規,0,2021-08-03,2021-08-03,株式会社総務コンサルタント,,株式会社,静岡県,浜松市中区,曳馬６丁目２２番１０号,,22,131,4300901,,,,,,,2021-08-03,1,,,,,ソウムコンサルタント,0
822,3080401025255,新規,0,2021-08-03,2021-08-03,株式会社伊藤電工,,株式会社,静岡県,袋井市,新池３２５２番地,,22,216,4370043,,,,,,,2021-08-03,1,,,,,イトウデンコウ,0
827,3110001035948,新規,0,2021-08-03,2021-08-03,株式会社Ａ－ＴＥＣ,,株式会社,新潟県,新潟市江南区,横越中央２丁目７番１０号,,15,104,9500208,,,,,,,2021-08-03,1,,,,,エイテック,0
828,3110003004538,新規,0,2021-08-03,2021-08-03,合同会社若林,,合同会社,新潟県,長岡市,千手３丁目３番２１号,,15,202,9400087,,,,,,,2021-08-03,1,,,,,ワカバヤシ,0
829,3110003004546,新規,0,2021-08-03,2021-08-03,合同会社ファクトリー杉山,,合同会社,新潟県,新発田市,富塚町１丁目６番２号,,15,206,9570062,,,,,,,2021-08-03,1,,,,,ファクトリースギヤマ,0
842,3120001239473,新規,0,2021-08-03,2021-08-03,株式会社グローバルリンク,,株式会社,大阪府,大阪市北区,天満橋１丁目８番１５号ＯＡＰレジデンスタワー西館２６０２号,,27,127,5300042,,,,,,,2021-08-03,1,,,,,グローバルリンク,0
852,3120905006218,新規,0,2021-08-03,2021-08-03,医療法人小林整形外科,,その他の設立登記法人,大阪府,茨木市,春日１丁目９番２２号タウンハウス今々館１階,,27,211,5670031,,,,,,,2021-08-03,1,,,,,コバヤシセイケイゲカ,0
854,3122001035035,新規,0,2021-08-03,2021-08-03,株式会社ビッグウエスト,,株式会社,大阪府,八尾市,新家町２丁目９６番地,,27,212,5810811,,,,,,,2021-08-03,1,,,,,ビッグウエスト,0
873,3140001122520,新規,0,2021-08-03,2021-08-03,ＳｗｅｅｔＳｕｍｍｅｒ株式会社,,株式会社,兵庫県,姫路市,車崎１丁目５番１１－４０３号,,28,201,6700058,,,,,,,2021-08-03,1,,,,,スウィートサマー,0
874,3140001122529,新規,0,2021-08-03,2021-08-03,株式会社Ｍａｌｉｂｕ　Ｊａｐａｎ,,株式会社,兵庫県,西宮市,西宮浜１丁目４６番地神戸マリーナ,,28,204,6620934,,,,,,,2021-08-03,1,,,,,マリブジャパン,0
887,3180001147175,新規,0,2021-08-03,2021-08-03,ＨＩＡ株式会社,,株式会社,愛知県,名古屋市西区,稲生町字杁先２２００番地の１０（キャパシティ３１５号）,,23,104,4510012,,,,,,,2021-08-03,1,,,,,エイチアイエー,0
888,3180001147200,新規,0,2021-08-03,2021-08-03,株式会社エスパス,,株式会社,愛知県,名古屋市中川区,上脇町２丁目１１６番地,,23,110,4540833,,,,,,,2021-08-03,1,,,,,エスパス,0
900,3180301035229,新規,0,2021-08-03,2021-08-03,株式会社ＴＫＲ,,株式会社,愛知県,額田郡幸田町,大字菱池字西脇７３番地３,,23,501,4440113,,,,,,,2021-08-03,1,,,,,ティーケーアール,0
901,3180301035237,新規,0,2021-08-03,2021-08-03,株式会社ＳＣコーポレーション,,株式会社,愛知県,岡崎市,秦梨町字奴田４９番地８,,23,202,4443343,,,,,,,2021-08-03,1,,,,,エスシーコーポレーション,0
902,3180301035253,新規,0,2021-08-03,2021-08-03,株式会社ＪＥＳＴＡ,,株式会社,愛知県,蒲郡市,形原町東上松７番地１,,23,214,4430104,,,,,,,2021-08-03,1,,,,,ジェスタ,0
906,3190001028572,新規,0,2021-08-03,2021-08-03,株式会社トップライズ,,株式会社,三重県,津市,木造町１７５０番地,,24,201,5141115,,,,,,,2021-08-03,1,,,,,トップライズ,0
911,3200001038958,新規,0,2021-08-03,2021-08-03,Ａｌｐｈａ株式会社,,株式会社,岐阜県,各務原市,鵜沼三ツ池町５丁目１８９番地,,21,213,5090146,,,,,,,2021-08-03,1,,,,,アルファ,0
912,3200001038966,新規,0,2021-08-03,2021-08-03,株式会社ＦＡＣＩＬＩＴＹ　ＰＬＡＮ,,株式会社,岐阜県,岐阜市,加野４丁目４番８号,,21,201,5013107,,,,,,,2021-08-03,1,,,,,ファシリティプラン,0
916,3210001010684,新規,0,2021-08-03,2021-08-03,日幸建設株式会社,,株式会社,福井県,敦賀市,桜町４番１４号,,18,202,9140078,,,,,,,2021-08-03,1,,,,,ニッコウケンセツ,0
923,3240001058358,新規,0,2021-08-03,2021-08-03,株式会社スマートセレモニー,,株式会社,広島県,呉市,中通２丁目７番７号,,34,202,7370046,,,,,,,2021-08-03,1,,,,,スマートセレモニー,0
927,3260001035818,新規,0,2021-08-03,2021-08-03,株式会社みず川,,株式会社,岡山県,倉敷市,玉島３丁目９番２２号,,33,202,7138102,,,,,,,2021-08-03,1,,,,,ミズカワ,0
928,3260001035826,新規,0,2021-08-03,2021-08-03,株式会社三楽,,株式会社,岡山県,岡山市北区,大元駅前１０番７号,,33,101,7000923,,,,,,,2021-08-03,1,,,,,サンラク,0
929,3270001008327,新規,0,2021-08-03,2021-08-03,株式会社クローバーアカデミー,,株式会社,鳥取県,米子市,末広町３１１番地,,31,202,6830043,,,,,,,2021-08-03,1,,,,,クローバーアカデミー,0
933,3280003001519,新規,0,2021-08-03,2021-08-03,合同会社ｄｅｃｅｎｔ,,合同会社,島根県,出雲市,上塩冶町１４８,,32,203,6930022,,,,,,,2021-08-03,1,,,,,,0
940,3290801027672,新規,0,2021-08-03,2021-08-03,株式会社鶴屋本舗,,株式会社,福岡県,北九州市八幡東区,中央２丁目１８番８号,,40,108,8050019,,,,,,,2021-08-03,1,,,,,ツルヤホンポ,0
952,3320005009910,新規,0,2021-08-03,2021-08-03,一般社団法人フリースクール等連合会,,その他の設立登記法人,大分県,大分市,大字下判田２３３４番地の５,,44,201,8701112,,,,,,,2021-08-03,1,,,,,フリースクールトウレンゴウカイ,0
958,3330001028863,新規,0,2021-08-03,2021-08-03,藤進ファーム株式会社,,株式会社,熊本県,阿蘇郡西原村,大字布田１４５２番地,,43,432,8612403,,,,,,,2021-08-03,1,,,,,トウシンファーム,0
959,3330003008995,新規,0,2021-08-03,2021-08-03,合同会社ＯＨＡＮＡ　ＭｔｏＭ,,合同会社,熊本県,熊本市東区,長嶺東４丁目４番１００号,,43,102,8618038,,,,,,,2021-08-03,1,,,,,オハナエムトゥエム,0
960,3340001023979,新規,0,2021-08-03,2021-08-03,Ｔｅｃｈ８８株式会社,,株式会社,鹿児島県,鹿児島市,薬師２丁目６番２３号,,46,201,8900042,,,,,,,2021-08-03,1,,,,,テックエイティーエイト,0
963,3370001047414,新規,0,2021-08-03,2021-08-03,株式会社月光,,株式会社,宮城県,東松島市,宮戸字松原８番地,,04,214,9810412,,,,,,,2021-08-03,1,,,,,ゲッコウ,0
983,3430001084649,新規,0,2021-08-03,2021-08-03,株式会社アールドヴィーヴル,,株式会社,北海道,札幌市西区,平和一条５丁目８－１３,,01,107,0630021,,,,,,,2021-08-03,1,,,,,アールドヴィーヴル,0
986,3430003012987,新規,0,2021-08-03,2021-08-03,Ｍｏｒｉ＆Ｃｏ合同会社,,合同会社,北海道,有珠郡壮瞥町,字壮瞥温泉８６番地７,,01,575,0520103,,,,,,,2021-08-03,1,,,,,モリアンドコ,0
989,3450001013432,新規,0,2021-08-03,2021-08-03,株式会社たかすタロファーム,,株式会社,北海道,上川郡鷹栖町,２０線十四号４番地,,01,452,0711260,,,,,,,2021-08-03,1,,,,,タカスタロファーム,0
991,3450003002111,新規,0,2021-08-03,2021-08-03,合同会社ミューチュアル,,合同会社,北海道,旭川市,九条西３丁目１番１６号,,01,204,0700059,,,,,,,2021-08-03,1,,,,,ミューチュアル,0
1013,4010001220063,新規,0,2021-08-03,2021-08-03,ネオルバ株式会社,,株式会社,東京都,文京区,本郷２丁目４０番１７号,,13,105,1130033,,,,,,,2021-08-03,1,,,,,ネオルバ,0
1014,4010001220121,新規,0,2021-08-03,2021-08-03,株式会社創栄,,株式会社,東京都,中央区,晴海２丁目２番４２－２３０６号,,13,102,1040053,,,,,,,2021-08-03,1,,,,,ソウエイ,0
1015,4010001220138,新規,0,2021-08-03,2021-08-03,エヌビービースノードンリース株式会社,,株式会社,東京都,中央区,日本橋浜町３丁目３番２号,,13,102,1030007,,,,,,,2021-08-03,1,,,,,エヌビービースノードンリース,0
1019,4010003035501,新規,0,2021-08-03,2021-08-03,ＧｅｎＡｉ合同会社,,合同会社,東京都,中央区,銀座１丁目２２番１１号銀座大竹ビジデンス２階,,13,102,1040061,,,,,,,2021-08-03,1,,,,,ジェナイ,0
1020,4010003035518,新規,0,2021-08-03,2021-08-03,ＢｒｏｎｚｅＢｅａｔｓ　Ｊａｐａｎ合同会社,,合同会社,東京都,千代田区,平河町１丁目６番１５号ＵＳビル８Ｆ,,13,101,1020093,,,,,,,2021-08-03,1,,,,,ブロンズビーツジャパン,0
1036,4010405020035,新規,0,2021-08-03,2021-08-03,Ｔａｎｇｅｎｔ　Ｉｎｖｅｓｔｍｅｎｔ一般社団法人,,その他の設立登記法人,東京都,港区,虎ノ門４丁目１番２８号,,13,103,1050001,,,,,,,2021-08-03,1,,,,,タンジェントインベストメント,0
1040,4010801032187,新規,0,2021-08-03,2021-08-03,鵬越株式会社,,株式会社,東京都,大田区,蒲田５丁目４２－６－８０２,,13,111,1440052,,,,,,,2021-08-03,1,,,,,ホウエツ,0
1041,4010803003847,新規,0,2021-08-03,2021-08-03,風と地と木合同会社,,合同会社,東京都,大田区,久が原５丁目９番７号,,13,111,1460085,,,,,,,2021-08-03,1,,,,,カゼトチトキ,0
1052,4011001142058,新規,0,2021-08-03,2021-08-03,株式会社フロイド,,株式会社,東京都,渋谷区,宇田川町３４番５号サイトービルⅢ５階３４,00123818,13,113,1500042,,,,,,,2021-08-03,1,,,,,フロイド,0
1060,4011203003594,新規,0,2021-08-03,2021-08-03,合同会社リッツ,,合同会社,東京都,中野区,本町１丁目１４－２アジールコート中野坂上３０６,,13,114,1640012,,,,,,,2021-08-03,1,,,,,リッツ,0
1063,4011301027082,新規,0,2021-08-03,2021-08-03,株式会社Ｉビルヂング,,株式会社,東京都,杉並区,下高井戸２丁目１番１０号,,13,115,1680073,,,,,,,2021-08-03,1,,,,,アイビルヂング,0
1064,4011303004113,新規,0,2021-08-03,2021-08-03,合同会社演人全開,,合同会社,東京都,杉並区,和泉４丁目４７番６号和泉多田マンション５０１,,13,115,1680063,,,,,,,2021-08-03,1,,,,,エンジンゼンカイ,0
1065,4011401023576,新規,0,2021-08-03,2021-08-03,株式会社ＫＳ,,株式会社,東京都,板橋区,高島平４丁目９番５号,,13,119,1750082,,,,,,,2021-08-03,1,,,,,ケーエス,0
1066,4011601025307,新規,0,2021-08-03,2021-08-03,株式会社エッジワークス,,株式会社,東京都,練馬区,三原台１丁目１４－３７若尾ビル２００,,13,120,1770031,,,,,,,2021-08-03,1,,,,,エッジワークス,0
1071,4011803004728,新規,0,2021-08-03,2021-08-03,合同会社ＣＲＰ,,合同会社,東京都,葛飾区,新小岩２丁目１０番９号新小岩バルコスビル４０１号,,13,122,1240024,,,,,,,2021-08-03,1,,,,,シーアールピー,0
1076,4012801020997,新規,0,2021-08-03,2021-08-03,フジ商事株式会社,,株式会社,東京都,日野市,大坂上１丁目２４－１２,,13,212,1910061,,,,,,,2021-08-03,1,,,,,フジショウジ,0
1089,4020001142455,新規,0,2021-08-03,2021-08-03,株式会社ホープ,,株式会社,神奈川県,横浜市港南区,丸山台２丁目４１－８１クレインリング丸山台１０５,,14,111,2330013,,,,,,,2021-08-03,1,,,,,ホープ,0
1095,4020005015153,新規,0,2021-08-03,2021-08-03,土地家屋調査士法人内田事務所,,その他の設立登記法人,神奈川県,横浜市西区,浜松町１２番１３－１０４号,,14,103,2200055,,,,,,,2021-08-03,1,,,,,ウチダジムショ,0
1100,4021001073509,新規,0,2021-08-03,2021-08-03,株式会社グロデュースエンターテインメント,,株式会社,神奈川県,相模原市南区,上鶴間本町６丁目１１番３号,,14,153,2520318,,,,,,,2021-08-03,1,,,,,,0
1101,4021001073566,新規,0,2021-08-03,2021-08-03,株式会社ウィンペット,,株式会社,神奈川県,茅ヶ崎市,中海岸４丁目２番地１０,,14,207,2530055,,,,,,,2021-08-03,1,,,,,ウィンペット,0
1104,4021003010740,新規,0,2021-08-03,2021-08-03,合同会社Ｈａｒｖｅｓｔ,,合同会社,神奈川県,大和市,鶴間２丁目３－５,,14,213,2420004,,,,,,,2021-08-03,1,,,,,ハーベスト,0
1111,4030001143601,新規,0,2021-08-03,2021-08-03,なないろ訪問看護ステーション株式会社,,株式会社,埼玉県,北足立郡伊奈町,本町２丁目２３番地ウエストガーデンⅡ１００号,00123819,11,301,3620804,,,,,,,2021-08-03,1,,,,,ナナイロホウモンカンゴステーション,0
1120,4040001119575,新規,0,2021-08-03,2021-08-03,株式会社シーズテクノロジー,,株式会社,千葉県,柏市,青葉台１丁目１４番１６号,,12,217,2770055,,,,,,,2021-08-03,1,,,,,シーズテクノロジー,0
1125,4040005021298,新規,0,2021-08-03,2021-08-03,特定非営利活動法人ｓｏｃｉａｌｍａｔｅ,,その他の設立登記法人,千葉県,千葉市中央区,富士見１丁目１３－１１紅谷ビル３０２,,12,101,2600015,,,,,,,2021-08-03,1,,,,,ソーシャルメイト,0
1141,4070003004194,新規,0,2021-08-03,2021-08-03,ＯＵＲＲＥ合同会社,,合同会社,群馬県,高崎市,鍛冶町１番地１１遠藤米穀店２階,,10,202,3700838,,,,,,,2021-08-03,1,,,,,,0
1143,4080001024367,新規,0,2021-08-03,2021-08-03,株式会社プロフェッショナルディベロップメント,,株式会社,静岡県,静岡市駿河区,稲川３丁目８番３号,,22,102,4228062,,,,,,,2021-08-03,1,,,,,プロフェッショナルディベロップメント,0
1145,4080101022700,新規,0,2021-08-03,2021-08-03,株式会社ｆｏｒｅｓｔｅｃｈ,,株式会社,静岡県,沼津市,五月町８番８号,,22,203,4100044,,,,,,,2021-08-03,1,,,,,フォレステック,0
1148,4080403004339,新規,0,2021-08-03,2021-08-03,合同会社藤田商事,,合同会社,静岡県,浜松市中区,泉３丁目９番４３号,,22,131,4338124,,,,,,,2021-08-03,1,,,,,フジタショウジ,0
1149,4090001017139,新規,0,2021-08-03,2021-08-03,株式会社ＪＵＮ’ＥＩ,,株式会社,山梨県,南アルプス市,寺部１７４０番地３,,19,208,4000337,,,,,,,2021-08-03,1,,,,,ジュンエイ,0
1151,4100001034479,新規,0,2021-08-03,2021-08-03,株式会社箱根強羅ホテルマネジメント,,株式会社,長野県,北佐久郡軽井沢町,大字長倉２１４８番地,,20,321,3890111,,,,,,,2021-08-03,1,,,,,ハコネゴウラホテルマネジメント,0
1159,4120001239423,新規,0,2021-08-03,2021-08-03,株式会社雲,,株式会社,大阪府,大阪市中央区,道頓堀１丁目５番１９号,,27,128,5420071,,,,,,,2021-08-03,1,,,,,クモ,0
1160,4120001239472,新規,0,2021-08-03,2021-08-03,株式会社エヌガタデイコウ,,株式会社,大阪府,大阪市中央区,西心斎橋１丁目６番３号６０４,,27,128,5420086,,,,,,,2021-08-03,1,,,,,エヌガタデイコウ,0
1165,4120003019947,新規,0,2021-08-03,2021-08-03,合同会社ＹＵＩＨＡ,,合同会社,大阪府,大阪市北区,豊崎６丁目４番９号有明マンション６Ａ号室,,27,127,5310072,,,,,,,2021-08-03,1,,,,,ユイハ,0
1168,4120101064093,新規,0,2021-08-03,2021-08-03,株式会社ひとつば,,株式会社,大阪府,羽曳野市,島泉９丁目１４番４号,,27,222,5830881,,,,,,,2021-08-03,1,,,,,ヒトツバ,0
1186,4140001122528,新規,0,2021-08-03,2021-08-03,株式会社順和トレード,,株式会社,兵庫県,神戸市中央区,八雲通２丁目２番１号,,28,110,6510078,,,,,,,2021-08-03,1,,,,,ジュンワトレード,0
1193,4160001023534,新規,0,2021-08-03,2021-08-03,株式会社Ｃａｒａｔ２１,,株式会社,滋賀県,長浜市,神照町１９４番地２９,,25,203,5260015,,,,,,,2021-08-03,1,,,,,キャラットトゥエンティーワン,0
1194,4160003002346,新規,0,2021-08-03,2021-08-03,合同会社Ｔａｋｅ－０,,合同会社,滋賀県,大津市,杉浦町１０番２９号３０５,,25,201,5200836,,,,,,,2021-08-03,1,,,,,テイクゼロ,0
1197,4170001016702,新規,0,2021-08-03,2021-08-03,株式会社ムロヤ,,株式会社,和歌山県,紀の川市,貴志川町井ノ口７８９番地３,,30,208,6400424,,,,,,,2021-08-03,1,,,,,ムロヤ,0
1198,4170003001611,新規,0,2021-08-03,2021-08-03,合同会社ＤＩＣＥ,,合同会社,和歌山県,岩出市,山１００５－４,,30,209,6496258,,,,,,,2021-08-03,1,,,,,ダイス,0
1206,4180001147166,新規,0,2021-08-03,2021-08-03,ＴｏＬ株式会社,,株式会社,愛知県,名古屋市港区,当知２丁目６０２,,23,111,4550804,,,,,,,2021-08-03,1,,,,,ティーオーエル,0
1207,4180001147224,新規,0,2021-08-03,2021-08-03,フラハリンクス株式会社,,株式会社,愛知県,名古屋市北区,成願寺１丁目６番,,23,103,4620021,,,,,,,2021-08-03,1,,,,,フラハリンクス,0
1208,4180001147232,新規,0,2021-08-03,2021-08-03,株式会社嘉成善,,株式会社,愛知県,名古屋市中区,栄１丁目１６番１６号チサンマンション栄９１４号室,,23,106,4600008,,,,,,,2021-08-03,1,,,,,カセイゼン,0
1209,4180001147249,新規,0,2021-08-03,2021-08-03,エイティ株式会社,,株式会社,愛知県,名古屋市天白区,植田山２丁目５０８番地の２,,23,116,4680001,,,,,,,2021-08-03,1,,,,,エイティ,0
1214,4180301035252,新規,0,2021-08-03,2021-08-03,株式会社ティエムエヌ,,株式会社,愛知県,豊橋市,草間町字東山１２４番地１（Ｂ２）,,23,201,4418141,,,,,,,2021-08-03,1,,,,,ティエムエヌ,0
1215,4180303005071,新規,0,2021-08-03,2021-08-03,合同会社ＨＩＲＯＣＫ,,合同会社,愛知県,豊橋市,細谷町字石蔵１６３番地２,,23,201,4413113,,,,,,,2021-08-03,1,,,,,,0
1218,4190001028571,新規,0,2021-08-03,2021-08-03,野呂林業株式会社,,株式会社,三重県,松阪市,飯南町有間野６５２番地,,24,204,5151413,,,,,,,2021-08-03,1,,,,,ノロリンギョウ,0
1222,4200001038957,新規,0,2021-08-03,2021-08-03,株式会社茉莉,,株式会社,岐阜県,各務原市,那加柄山町１０６番地１３,,21,213,5040005,,,,,,,2021-08-03,1,,,,,マツリ,0
1223,4200001038965,新規,0,2021-08-03,2021-08-03,株式会社タカオ刺しゅう,,株式会社,岐阜県,岐阜市,西明見町１７番地の１,,21,201,5008444,,,,,,,2021-08-03,1,,,,,タカオシシュウ,0
1241,4240001058349,新規,0,2021-08-03,2021-08-03,株式会社Ｋ．Ａ．Ｎ,,株式会社,広島県,広島市中区,銀山町１１番８号,,34,101,7300022,,,,,,,2021-08-03,1,,,,,ケーエーエヌ,0
1257,4290005018311,新規,0,2021-08-03,2021-08-03,司法書士法人クロスロード,,その他の設立登記法人,福岡県,福岡市博多区,博多駅南１丁目２番３号博多駅前第１ビル５階,,40,132,8120016,,,,,,,2021-08-03,1,,,,,クロスロード,0
1258,4290801027671,新規,0,2021-08-03,2021-08-03,株式会社マントラネット,,株式会社,福岡県,北九州市小倉北区,黄金１丁目７番２２－３０５号,,40,106,8020071,,,,,,,2021-08-03,1,,,,,マントラネット,0
1261,4300005007023,新規,0,2021-08-03,2021-08-03,人材バンク唐津協同組合,,その他の設立登記法人,佐賀県,唐津市,大名小路５－２,,41,202,8470012,,,,,,,2021-08-03,1,,,,,ジンザイバンクカラツ,0
1263,4310001017396,新規,0,2021-08-03,2021-08-03,ＢＴ　Ｊａｐａｎ株式会社,,株式会社,長崎県,佐世保市,瀬戸越１丁目１５７０番地２５,,42,202,8570134,,,,,,,2021-08-03,1,,,,,ビーティージャパン,0
1265,4310002020969,新規,0,2021-08-03,2021-08-03,有限会社小野商店,,有限会社,長崎県,松浦市,今福町浦免５６０番地,,42,208,8594528,,,,,,,2021-08-03,1,,,,,オノショウテン,0
1273,4330001028854,新規,0,2021-08-03,2021-08-03,株式会社ＣｒｅａｓＰｌｕｓ,,株式会社,熊本県,宇土市,古城町１８９番地８,,43,211,8690454,,,,,,,2021-08-03,1,,,,,クレアスプラス,0
1274,4330001028870,新規,0,2021-08-03,2021-08-03,株式会社オフィス寺島,,株式会社,熊本県,宇城市,三角町三角浦１０２番地,,43,213,8693207,,,,,,,2021-08-03,1,,,,,オフィステラシマ,0
1275,4330003008994,新規,0,2021-08-03,2021-08-03,合同会社ダイフク,,合同会社,熊本県,熊本市中央区,慶徳堀町２４番地４０１,,43,101,8600014,,,,,,,2021-08-03,1,,,,,ダイフク,0
1281,4350001017228,新規,0,2021-08-03,2021-08-03,株式会社アクティブホールディングス,,株式会社,宮崎県,宮崎市,清武町加納４丁目１０番地２,,45,201,8891607,,,,,,,2021-08-03,1,,,,,アクティブホールディングス,0
1282,4350001017236,新規,0,2021-08-03,2021-08-03,株式会社Ａｑｕａ　ｓｈｉｎｅ　ｇａｒｄｅｎ,,株式会社,宮崎県,宮崎市,大字加江田４７４７番地２,,45,201,8892161,,,,,,,2021-08-03,1,,,,,アクアシャインガーデン,0
1283,4350001017244,新規,0,2021-08-03,2021-08-03,株式会社ひなた保証,,株式会社,宮崎県,宮崎市,橘通西３丁目３番２３号,,45,201,8800001,,,,,,,2021-08-03,1,,,,,ヒナタホショウ,0
1296,4400001015548,新規,0,2021-08-03,2021-08-03,株式会社ソラボ不動産,,株式会社,岩手県,盛岡市,東緑が丘１９番８号,,03,201,0200112,,,,,,,2021-08-03,1,,,,,ソラボフドウサン,0
1306,4420005007762,新規,0,2021-08-03,2021-08-03,一般社団法人福祉居場所づくり協会,,その他の設立登記法人,青森県,むつ市,大字田名部字品ノ木３４番地２９０,,02,208,0350021,,,,,,,2021-08-03,1,,,,,フクシイバショヅクリキョウカイ,0
1311,4430001084656,新規,0,2021-08-03,2021-08-03,株式会社Ｈ．Ａ．Ｌ,,株式会社,北海道,北広島市,大曲南ヶ丘１丁目１０番地１,,01,234,0611275,,,,,,,2021-08-03,1,,,,,ハル,0
1312,4430001084664,新規,0,2021-08-03,2021-08-03,株式会社ＲａｙＮｅｘｔ,,株式会社,北海道,札幌市中央区,南九条西６丁目１号１番シティビル４Ｆ,,01,101,0640809,,,,,,,2021-08-03,1,,,,,レイネクスト,0
1313,4430001084689,新規,0,2021-08-03,2021-08-03,株式会社太田工務店,,株式会社,北海道,石狩市,生振２７７番地４,,01,235,0613245,,,,,,,2021-08-03,1,,,,,オオタコウムテン,0
1317,4430003012986,新規,0,2021-08-03,2021-08-03,ウィングランド合同会社,,合同会社,北海道,北広島市,稲穂町東６丁目３番地２６,,01,234,0611125,,,,,,,2021-08-03,1,,,,,ウィングランド,0
1320,4490001009954,新規,0,2021-08-03,2021-08-03,株式会社Ｔｒｅｅｄ,,株式会社,高知県,高知市,愛宕町２丁目１３番２号,,39,201,7800051,,,,,,,2021-08-03,1,,,,,ツリード,0
1321,4490003001570,新規,0,2021-08-03,2021-08-03,勇榮合同会社,,合同会社,高知県,室戸市,吉良川町甲２８６２番地,,39,202,7816832,,,,,,,2021-08-03,1,,,,,ユウエイ,0
1338,5010001219410,新規,0,2021-08-03,2021-08-03,株式会社エンカウンター,,株式会社,東京都,千代田区,神田神保町１丁目１２番地,,13,101,1010051,,,,,,,2021-08-03,1,,,,,エンカウンター,0
1339,5010001220137,新規,0,2021-08-03,2021-08-03,エヌビービーウォリックリース株式会社,,株式会社,東京都,中央区,日本橋浜町３丁目３番２号,,13,102,1030007,,,,,,,2021-08-03,1,,,,,エヌビービーウォリックリース,0
1340,5010001220145,新規,0,2021-08-03,2021-08-03,Ａｐｐ　Ｘ株式会社,,株式会社,東京都,千代田区,丸の内３丁目１番１号国際ビル,,13,101,1000005,,,,,,,2021-08-03,1,,,,,アップエックス,0
1343,5010003035500,新規,0,2021-08-03,2021-08-03,合同会社ＡＭＯ,,合同会社,東京都,中央区,日本橋大伝馬町２番１２－３０２号,,13,102,1030011,,,,,,,2021-08-03,1,,,,,エーエムオー,0
1346,5010005033774,新規,0,2021-08-03,2021-08-03,司法書士法人佐藤合同事務所,,その他の設立登記法人,東京都,千代田区,神田神保町２丁目４番地,,13,101,1010051,,,,,,,2021-08-03,1,,,,,サトウゴウドウジムショ,0
1362,5010501047609,新規,0,2021-08-03,2021-08-03,株式会社ＨＯＰＥ,,株式会社,東京都,台東区,下谷３丁目１番２４号,,13,106,1100004,,,,,,,2021-08-03,1,,,,,ホープ,0
1368,5010803003846,新規,0,2021-08-03,2021-08-03,合同会社ホワイトカンパニー,,合同会社,東京都,大田区,蒲田５丁目１９番１７号第８村上ビル２Ｆ,,13,111,1440052,,,,,,,2021-08-03,1,,,,,ホワイトカンパニー,0
1374,5011001141926,新規,0,2021-08-03,2021-08-03,Ｓｕｓｔｉｎｅｒｉ株式会社,,株式会社,東京都,渋谷区,神宮前６丁目２３番４号桑野ビル２階,,13,113,1500001,,,,,,,2021-08-03,1,,,,,ススティネリ,0
1375,5011001142016,新規,0,2021-08-03,2021-08-03,株式会社ヒーローベース,,株式会社,東京都,目黒区,自由が丘２丁目１６番１２号ＬＣ１Ｆ,,13,110,1520035,,,,,,,2021-08-03,1,,,,,ヒーローベース,0
1379,5011101095790,新規,0,2021-08-03,2021-08-03,株式会社スタートゴール,,株式会社,東京都,新宿区,新宿７丁目２６番７号ビクセル新宿１Ｆ,,13,104,1600022,,,,,,,2021-08-03,1,,,,,スタートゴール,0
1383,5011201023148,新規,0,2021-08-03,2021-08-03,株式会社おふぃす神成,,株式会社,東京都,中野区,本町６丁目１０番１４号,,13,114,1640012,,,,,,,2021-08-03,1,,,,,オフィスカンナリ,0
1400,5020003020253,新規,0,2021-08-03,2021-08-03,マルチステージ合同会社,,合同会社,神奈川県,横浜市港北区,綱島上町４８番地１プラウド綱島上町４０３,,14,109,2230055,,,,,,,2021-08-03,1,,,,,マルチステージ,0
1407,5021001073532,新規,0,2021-08-03,2021-08-03,株式会社Ｐｌｕｓ　Ｋ３,,株式会社,神奈川県,相模原市中央区,相模原１丁目２番７号,,14,152,2520231,,,,,,,2021-08-03,1,,,,,プラスケースリー,0
1408,5021001073540,新規,0,2021-08-03,2021-08-03,株式会社Ｒｙｄｅｒ,,株式会社,神奈川県,藤沢市,藤沢９７２番地１ザ・フロント湘南藤沢１０３号,,14,205,2510052,,,,,,,2021-08-03,1,,,,,ライダー,0
1412,5021003010715,新規,0,2021-08-03,2021-08-03,合同会社ＤＫ,,合同会社,神奈川県,相模原市南区,相模大野７丁目５番８－９０５号,,14,153,2520303,,,,,,,2021-08-03,1,,,,,ディーケー,0
1413,5021003010748,新規,0,2021-08-03,2021-08-03,クレインピーク合同会社,,合同会社,神奈川県,茅ヶ崎市,浜之郷８３５－１,,14,207,2530086,,,,,,,2021-08-03,1,,,,,クレインピーク,0
1427,5040001119599,新規,0,2021-08-03,2021-08-03,株式会社ＳＫ,,株式会社,千葉県,市原市,磯ケ谷１２１８番地,,12,219,2900204,,,,,,,2021-08-03,1,,,,,エスケー,0
1429,5040003018213,新規,0,2021-08-03,2021-08-03,合同会社リンクプラス,,合同会社,千葉県,千葉市花見川区,朝日ケ丘４丁目３８番７－１０１,,12,102,2620019,,,,,,,2021-08-03,1,,,,,リンクプラス,0
1430,5040003018254,新規,0,2021-08-03,2021-08-03,ｎｉｅｖｅｓｏｌｔｉｅｒｒａ合同会社,,合同会社,千葉県,柏市,布施新町４丁目１１番３号,,12,217,2770823,,,,,,,2021-08-03,1,,,,,ニエヴェソルティエラ,0
1438,5060005009893,新規,0,2021-08-03,2021-08-03,特定非営利活動法人関谷もみじの郷,,その他の設立登記法人,栃木県,那須塩原市,関谷４４８番地１,,09,213,3292801,,,,,,,2021-08-03,1,,,,,セキヤモミジノサト,0
1440,5070001038318,新規,0,2021-08-03,2021-08-03,株式会社青木総建,,株式会社,群馬県,前橋市,力丸町２２１番地６,,10,201,3792134,,,,,,,2021-08-03,1,,,,,アオキソウケン,0
1442,5080001024358,新規,0,2021-08-03,2021-08-03,株式会社井口建築,,株式会社,静岡県,静岡市葵区,長熊４９９番地の１,,22,101,4212216,,,,,,,2021-08-03,1,,,,,イグチケンチク,0
1443,5080101022690,新規,0,2021-08-03,2021-08-03,株式会社ＬＥＡＰＥＣ,,株式会社,静岡県,沼津市,下香貫西村１４５２番地の１キャサリナＡＣＥ１０６,,22,203,4100822,,,,,,,2021-08-03,1,,,,,リーペック,0
1444,5080401025229,新規,0,2021-08-03,2021-08-03,株式会社金物屋康,,株式会社,静岡県,浜松市中区,東伊場２丁目８番１４号,,22,131,4328036,,,,,,,2021-08-03,1,,,,,カナモノヤヤス,0
1445,5080401025237,新規,0,2021-08-03,2021-08-03,株式会社白柳水産,,株式会社,静岡県,浜松市西区,舞阪町浜田７８番地の２,,22,133,4310213,,,,,,,2021-08-03,1,,,,,シラヤナギスイサン,0
1447,5090001017138,新規,0,2021-08-03,2021-08-03,株式会社フォーエヴァー,,株式会社,山梨県,上野原市,鶴川１４８７番地,,19,212,4090132,,,,,,,2021-08-03,1,,,,,フォーエヴァー,0
1451,5100001034486,新規,0,2021-08-03,2021-08-03,株式会社南信設備,,株式会社,長野県,下伊那郡阿南町,西條２１６２番地３,,20,404,3991504,,,,,,,2021-08-03,1,,,,,ナンシンセツビ,0
1452,5100005012752,新規,0,2021-08-03,2021-08-03,一般社団法人アイコニック,,その他の設立登記法人,長野県,伊那市,西箕輪３３４０番地２１４,,20,209,3994501,,,,,,,2021-08-03,1,,,,,アイコニック,0
1455,5110003004544,新規,0,2021-08-03,2021-08-03,合同会社タカハシ,,合同会社,新潟県,村上市,肴町２０番８号,,15,212,9580864,,,,,,,2021-08-03,1,,,,,タカハシ,0
1463,5120001239414,新規,0,2021-08-03,2021-08-03,株式会社Ｈａｎｄ　ｓｏｍｅ,,株式会社,大阪府,大阪市東淀川区,瑞光２丁目５番２９－３０４号,,27,114,5330005,,,,,,,2021-08-03,1,,,,,ハンドサム,0
1464,5120001239471,新規,0,2021-08-03,2021-08-03,株式会社Ｎｉｃｏｌａｉ,,株式会社,大阪府,大阪市住吉区,万代４丁目１０番１４号読売センター帝塚山,,27,120,5580055,,,,,,,2021-08-03,1,,,,,ニコライ,0
1467,5120003019938,新規,0,2021-08-03,2021-08-03,合同会社健康力アップ,,合同会社,大阪府,大阪市中央区,東平１丁目２番１５－１１０２号,,27,128,5420063,,,,,,,2021-08-03,1,,,,,ケンコウリョクアップ,0
1477,5120103004286,新規,0,2021-08-03,2021-08-03,オシエビト合同会社,,合同会社,大阪府,堺市北区,金岡町１２７７番地２グローリアス金岡Ｂ１０２号,,27,146,5918022,,,,,,,2021-08-03,1,,,,,オシエビト,0
1492,5140001122519,新規,0,2021-08-03,2021-08-03,株式会社パソナＨＲ　ＨＵＢ,,株式会社,兵庫県,淡路市,岩屋２９４２番地２６,,28,226,6562401,,,,,,,2021-08-03,1,,,,,パソナエイチアールハブ,0
1495,5140005025767,新規,0,2021-08-03,2021-08-03,一般社団法人たけの観光協会,,その他の設立登記法人,兵庫県,豊岡市,竹野町竹野１７番地の２２,,28,209,6696201,,,,,,,2021-08-03,1,,,,,タケノカンコウキョウカイ,0
1498,5160001023533,新規,0,2021-08-03,2021-08-03,株式会社ＨＡＦＵＲＩ,,株式会社,滋賀県,大津市,野郷原１丁目１７番６５号,,25,201,5202133,,,,,,,2021-08-03,1,,,,,ハフリ,0
1500,5170005006921,新規,0,2021-08-03,2021-08-03,特定非営利活動法人アスリートの未来を考える会,,その他の設立登記法人,和歌山県,和歌山市,本脇５３１番地１,,30,201,6400113,,,,,,,2021-08-03,1,,,,,アスリートノミライヲカンガエルカイ,0
1504,5180001147198,新規,0,2021-08-03,2021-08-03,株式会社クゼン工業,,株式会社,愛知県,名古屋市緑区,鳴海町字山ノ神１０３番地の３,,23,114,4580801,,,,,,,2021-08-03,1,,,,,クゼンコウギョウ,0
1505,5180001147215,新規,0,2021-08-03,2021-08-03,株式会社エスエスコンサルティング,,株式会社,愛知県,名古屋市港区,小碓２丁目１３０番地の１,,23,111,4550801,,,,,,,2021-08-03,1,,,,,エスエスコンサルティング,0
1510,5180003022804,新規,0,2021-08-03,2021-08-03,加藤スペースファクトリー合同会社,,合同会社,愛知県,名古屋市中区,橘１丁目１６２４番地,,23,106,4600016,,,,,,,2021-08-03,1,,,,,カトウスペースファクトリー,0
1512,5180301035219,新規,0,2021-08-03,2021-08-03,株式会社ｋｏｍｏｒｅｂｉ,,株式会社,愛知県,安城市,南町５番１７号,,23,212,4460034,,,,,,,2021-08-03,1,,,,,コモレビ,0
1513,5180301035251,新規,0,2021-08-03,2021-08-03,株式会社ａｉ,,株式会社,愛知県,西尾市,平坂町如月２番地１,,23,213,4440305,,,,,,,2021-08-03,1,,,,,エーアイ,0
1519,5190001028554,新規,0,2021-08-03,2021-08-03,江波鉄工株式会社,,株式会社,三重県,桑名市,中央町１丁目１６番地,,24,205,5110068,,,,,,,2021-08-03,1,,,,,エバテッコウ,0
1520,5190001028570,新規,0,2021-08-03,2021-08-03,株式会社Ａｉｎ　Ｇａｒｄｅｎ,,株式会社,三重県,津市,藤方１２１１番地１,,24,201,5140815,,,,,,,2021-08-03,1,,,,,アインガーデン,0
1526,5200001038972,新規,0,2021-08-03,2021-08-03,株式会社ピカソコーポレーション,,株式会社,岐阜県,岐阜市,六条東２丁目５番１号,,21,201,5008353,,,,,,,2021-08-03,1,,,,,ピカソコーポレーション,0
1544,5240001058356,新規,0,2021-08-03,2021-08-03,株式会社ＫＡＹ,,株式会社,広島県,広島市東区,戸坂山崎町３番２６号,,34,102,7320004,,,,,,,2021-08-03,1,,,,,ケイ,0
1549,5250005008678,新規,0,2021-08-03,2021-08-03,一般社団法人ＳＤＧｓてらす,,その他の設立登記法人,山口県,宇部市,大字西岐波２２９番地３３８,,35,202,7550151,,,,,,,2021-08-03,1,,,,,エスディージーズテラス,0
1551,5260001035808,新規,0,2021-08-03,2021-08-03,ＨＩＲＯＴＡＰＲＯ株式会社,,株式会社,岡山県,岡山市南区,箕島２９７０番地２,,33,104,7010206,,,,,,,2021-08-03,1,,,,,ヒロタプロ,0
1554,5270003001328,新規,0,2021-08-03,2021-08-03,合同会社なかむら,,合同会社,鳥取県,鳥取市,賀露町北３丁目４番２８号,,31,201,6800907,,,,,,,2021-08-03,1,,,,,ナカムラ,0
1555,5270005005475,新規,0,2021-08-03,2021-08-03,ＮＰＯ法人青い鳥の会,,その他の設立登記法人,鳥取県,鳥取市,立川町６丁目２３４番地旭町団地集会所,,31,201,6800061,,,,,,,2021-08-03,1,,,,,アオイトリノカイ,0
1574,5330001028861,新規,0,2021-08-03,2021-08-03,株式会社そのだ,,株式会社,熊本県,下益城郡美里町,中郡１５０４番地,,43,348,8614403,,,,,,,2021-08-03,1,,,,,ソノダ,0
1575,5330001028878,新規,0,2021-08-03,2021-08-03,雅ＦａｍｉｌｙＰｈａｒｍａｃｙ株式会社,,株式会社,熊本県,熊本市南区,近見２丁目４番５５号,,43,104,8614101,,,,,,,2021-08-03,1,,,,,ミヤビファミリーファーマンシー,0
1582,5350001017235,新規,0,2021-08-03,2021-08-03,株式会社三愛Ｈｅａｌｔｈ,,株式会社,宮崎県,宮崎市,桜町２５番地５,,45,201,8800057,,,,,,,2021-08-03,1,,,,,サンアイヘルス,0
1584,5350003003902,新規,0,2021-08-03,2021-08-03,合同会社ネックス,,合同会社,宮崎県,宮崎市,大字芳士１６８３番地１,,45,201,8800123,,,,,,,2021-08-03,1,,,,,ネックス,0
1585,5360001029147,新規,0,2021-08-03,2021-08-03,株式会社ＦＡＬＣＯＮ　ＣＬＡＳＳ,,株式会社,沖縄県,宜野湾市,字大謝名８９番地（宇地泊第２土地区画整理事業地区３３街区８）,,47,205,9012225,,,,,,,2021-08-03,1,,,,,ファルコンクラス,0
1600,5400003002816,新規,0,2021-08-03,2021-08-03,合同会社ＴＡＧＵＣＨＩ,,合同会社,岩手県,盛岡市,住吉町１３番４０号,,03,201,0200882,,,,,,,2021-08-03,1,,,,,タグチ,0
1605,5410005006418,新規,0,2021-08-03,2021-08-03,特定非営利活動法人ｗｉｔｈ　Ｇ,,その他の設立登記法人,秋田県,由利本荘市,大浦字蛇持４６番地１,,05,210,0150021,,,,,,,2021-08-03,1,,,,,ウィズジー,0
1607,5420001017533,新規,0,2021-08-03,2021-08-03,株式会社ポールスター,,株式会社,青森県,青森市,大字野木字野尻３７番地７１３,,02,201,0300142,,,,,,,2021-08-03,1,,,,,ポールスター,0
1609,5420005007761,新規,0,2021-08-03,2021-08-03,特定非営利活動法人青森県レクリエーション協会,,その他の設立登記法人,青森県,弘前市,大字萱町５０番地１,,02,202,0368022,,,,,,,2021-08-03,1,,,,,アオモリケンレクリエーションキョウカイ,0
1628,5460301005003,新規,0,2021-08-03,2021-08-03,株式会社Ｌｏｃａｌ　Ｆｏｕｎｄ,,株式会社,北海道,網走郡津別町,字東二条３番地３,,01,544,0920216,,,,,,,2021-08-03,1,,,,,,0
1634,5500003002673,新規,0,2021-08-03,2021-08-03,合同会社ＦＩＦＴＨ　ＥＬＥＭＥＮＴ,,合同会社,愛媛県,松山市,船ケ谷町１９３番地１,,38,201,7918073,,,,,,,2021-08-03,1,,,,,フィフスエレメント,0
1635,5700150104260,新規,0,2021-08-03,2021-08-03,ＳＥＴＨＭＩＴＨＡ　ＡＵＴＯ　ＷＩＮＧＳ,,外国会社等,千葉県,佐倉市,大篠塚９３３番地Ａ－１,,12,212,2850806,スリランカ民主社会主義共和国、ケキラワ、マルデニプラ、エラパラ、２３６,,,,,,2021-08-03,1,,,,,セスミタオートウイングス,0
1643,6010001220094,新規,0,2021-08-03,2021-08-03,株式会社ＩＮＦＬＡＴＥ,,株式会社,東京都,中央区,銀座１丁目２２番１１号銀座大竹ビジデンス２階,,13,102,1040061,,,,,,,2021-08-03,1,,,,,インフレイト,0
1644,6010001220128,新規,0,2021-08-03,2021-08-03,ＷＲＴ少額短期準備株式会社,,株式会社,東京都,千代田区,内幸町２丁目２番３号,,13,101,1000011,,,,,,,2021-08-03,1,,,,,ワランティショウガクタンキジュンビ,0
1645,6010001220136,新規,0,2021-08-03,2021-08-03,エヌビービーボルソバーリース株式会社,,株式会社,東京都,中央区,日本橋浜町３丁目３番２号,,13,102,1030007,,,,,,,2021-08-03,1,,,,,エヌビービーボルソバーリース,0
1646,6010001220144,新規,0,2021-08-03,2021-08-03,株式会社ＴＫＤ,,株式会社,東京都,千代田区,麹町２丁目３番地３号ＦＤＣ麹町ビル４階,,13,101,1020083,,,,,,,2021-08-03,1,,,,,ティーケーディー,0
1647,6010001220160,新規,0,2021-08-03,2021-08-03,株式会社ｉｓｐａｃｅ　Ｊａｐａｎ,,株式会社,東京都,中央区,日本橋浜町３丁目４２番３号,,13,102,1030007,,,,,,,2021-08-03,1,,,,,アイスペースジャパン,0
1652,6010003035499,新規,0,2021-08-03,2021-08-03,ＴＩＹＬ合同会社,,合同会社,東京都,中央区,銀座１丁目２２番１１号銀座大竹ビジデンス２階,,13,102,1040061,,,,,,,2021-08-03,1,,,,,ティーアイワイエル,0
1656,6010101014792,新規,0,2021-08-03,2021-08-03,株式会社エイト消防設備,,株式会社,東京都,八王子市,川口町３０１５番地６,,13,201,1930801,,,,,,,2021-08-03,1,,,,,エイトショウボウセツビ,0
1666,6010403025835,新規,0,2021-08-03,2021-08-03,銀杏合同会社,,合同会社,東京都,港区,西新橋１丁目２番９号ＥＰコンサルティングサービス内,,13,103,1050003,,,,,,,2021-08-03,1,,,,,イチョウ,0
1670,6010901049195,新規,0,2021-08-03,2021-08-03,ディーパートラベル株式会社,,株式会社,東京都,世田谷区,太子堂１丁目１２番３８号,,13,112,1540004,,,,,,,2021-08-03,1,,,,,ディーパートラベル,0
1677,6011001142015,新規,0,2021-08-03,2021-08-03,株式会社エヌ商事,,株式会社,東京都,渋谷区,宇田川町２２番２号,,13,113,1500042,,,,,,,2021-08-03,1,,,,,エヌショウジ,0
1678,6011001142048,新規,0,2021-08-03,2021-08-03,株式会社ナレバン,,株式会社,東京都,渋谷区,神宮前６丁目１８－１３－４Ｆ,,13,113,1500001,,,,,,,2021-08-03,1,,,,,ナレバン,0
1679,6011003013148,新規,0,2021-08-03,2021-08-03,合同会社百式改,,合同会社,東京都,渋谷区,恵比寿西２丁目１７番２０号代官山佐野ビル,,13,113,1500021,,,,,,,2021-08-03,1,,,,,ヒャクシキカイ,0
1680,6011003013156,新規,0,2021-08-03,2021-08-03,Ｐｕｓｈ　Ｂｅｙｏｎｄ合同会社,,合同会社,東京都,渋谷区,上原１丁目４１－１８－１０５,,13,113,1510064,,,,,,,2021-08-03,1,,,,,プッシュビヨンド,0
1693,6011501027186,新規,0,2021-08-03,2021-08-03,Ｉ　ＹＯＵＮＧ株式会社,,株式会社,東京都,荒川区,東尾久２丁目２番９－２１４号,,13,118,1160012,,,,,,,2021-08-03,1,,,,,アイヤング,0
1704,6011801039518,新規,0,2021-08-03,2021-08-03,スタート株式会社,,株式会社,東京都,足立区,古千谷本町４丁目１０番１号,,13,121,1210832,,,,,,,2021-08-03,1,,,,,スタート,0
1707,6012803002562,新規,0,2021-08-03,2021-08-03,ＴＳＵＴＡＹＡホールディングス合同会社,,合同会社,東京都,昭島市,昭和町５丁目１１番６号,,13,207,1960015,,,,,,,2021-08-03,1,,,,,ツタヤホールディングス,0
1711,6013301047802,新規,0,2021-08-03,2021-08-03,株式会社ＣＨＡＲＭＥｗｈｉｔｅｎｉｎｇ,,株式会社,東京都,豊島区,高田３丁目１０番２１号,,13,116,1710033,,,,,,,2021-08-03,1,,,,,シャルムホワイトニング,0
1712,6013301047810,新規,0,2021-08-03,2021-08-03,株式会社しどう極,,株式会社,東京都,豊島区,東池袋１丁目１７番１１号パークハイツ池袋１１０５号,,13,116,1700013,,,,,,,2021-08-03,1,,,,,シドウキョク,0
1720,6020001142445,新規,0,2021-08-03,2021-08-03,株式会社アンバーアイ,,株式会社,神奈川県,横浜市戸塚区,上倉田町１１１９番地,,14,110,2440816,,,,,,,2021-08-03,1,,,,,アンバーアイ,0
1721,6020001142486,新規,0,2021-08-03,2021-08-03,高橋設備株式会社,00123823,株式会社,神奈川県,横浜市泉区,下飯田町８９７番地１０,,14,116,2450017,,,,,,,2021-08-03,1,,,,,タカハシセツビ,0
1729,6020003020236,新規,0,2021-08-03,2021-08-03,Ｄｉｃａｍｐ合同会社,,合同会社,神奈川県,横浜市神奈川区,栄町５－１横浜クリエーションスクエア１４階,,14,102,2210052,,,,,,,2021-08-03,1,,,,,ディーアイキャンプ,0
1734,6021001073548,新規,0,2021-08-03,2021-08-03,株式会社岩野研磨,,株式会社,神奈川県,高座郡寒川町,小谷１丁目８番４６－３号,,14,321,2530103,,,,,,,2021-08-03,1,,,,,イワノケンマ,0
1736,6021003010706,新規,0,2021-08-03,2021-08-03,中村工業合同会社,,合同会社,神奈川県,高座郡寒川町,一之宮４丁目９番３５号,,14,321,2530111,,,,,,,2021-08-03,1,,,,,ナカムラコウギョウ,0
1737,6021003010739,新規,0,2021-08-03,2021-08-03,合同会社Ｍ＆Ｈ　Ｃｏｒｐｏｒａｔｉｏｎ,,合同会社,神奈川県,藤沢市,藤沢９９１－１９ダイカンプラザ１０２,,14,205,2510052,,,,,,,2021-08-03,1,,,,,,0
1738,6021003010747,新規,0,2021-08-03,2021-08-03,合同会社ケイプラン,,合同会社,神奈川県,小田原市,風祭１０７番地の１パノラマハイツ５０１,,14,206,2500032,,,,,,,2021-08-03,1,,,,,ケイプラン,0
1739,6021003010755,新規,0,2021-08-03,2021-08-03,放課後オポチュニティ合同会社,,合同会社,神奈川県,鎌倉市,津１１０１番地１１０,,14,204,2480032,,,,,,,2021-08-03,1,,,,,ホウカゴオポチュニティ,0
1752,6030001143582,新規,0,2021-08-03,2021-08-03,ＧＡＪＵ　ｍａｌｌ株式会社,,株式会社,埼玉県,新座市,野火止１丁目１１番３号,,11,230,3520011,,,,,,,2021-08-03,1,,,,,ガジュモール,0
1763,6040003018253,新規,0,2021-08-03,2021-08-03,ＫＡＫＥＨＡＳＨＩ合同会社,,合同会社,千葉県,船橋市,本中山３丁目１７番２号横山ビル２０３号室,,12,204,2730035,,,,,,,2021-08-03,1,,,,,カケハシ,0
1764,6040005021296,新規,0,2021-08-03,2021-08-03,特定非営利活動法人ケアラー健康協会,,その他の設立登記法人,千葉県,市川市,新田４丁目２番５号ヒロハイツ１Ｆ,,12,203,2720035,,,,,,,2021-08-03,1,,,,,ケアラーケンコウキョウカイ,0
1765,6040005021305,新規,0,2021-08-03,2021-08-03,一般社団法人日本の心,,その他の設立登記法人,千葉県,松戸市,下矢切１２８番地の３ビバ７０ハウス２０２号,,12,207,2710096,,,,,,,2021-08-03,1,,,,,ニホンノココロ,0
1766,6050001049596,新規,0,2021-08-03,2021-08-03,ＨＴ株式会社,,株式会社,茨城県,龍ケ崎市,南中島町１２３番地２４－２０３号,,08,208,3010047,,,,,,,2021-08-03,1,,,,,エイチテイ,0
1770,6070001038317,新規,0,2021-08-03,2021-08-03,株式会社浜工業,,株式会社,群馬県,高崎市,八幡町１２８７番地１０,,10,202,3700884,,,,,,,2021-08-03,1,,,,,ハマコウギョウ,0
1776,6080001024365,新規,0,2021-08-03,2021-08-03,株式会社ＺＯＩＣ,,株式会社,静岡県,静岡市葵区,紺屋町８番地１３内野ビル４Ｆ,,22,101,4200852,,,,,,,2021-08-03,1,,,,,ゾイック,0
1777,6080003002617,新規,0,2021-08-03,2021-08-03,合同会社宗像建材,,合同会社,静岡県,静岡市葵区,桜町２丁目７－７,,22,101,4200945,,,,,,,2021-08-03,1,,,,,ムナカタケンザイ,0
1779,6080401025228,新規,0,2021-08-03,2021-08-03,株式会社Ｒｅアンマ,,株式会社,静岡県,浜松市中区,和合町２２０番地の２４５１,,22,131,4338125,,,,,,,2021-08-03,1,,,,,アールイーアンマ,0
1780,6080401025244,新規,0,2021-08-03,2021-08-03,株式会社エンパワーリングイングリッシュ,,株式会社,静岡県,浜松市中区,山手町１６番１８号,,22,131,4328022,,,,,,,2021-08-03,1,,,,,エンパワーリングイングリッシュ,0
1781,6080401025252,新規,0,2021-08-03,2021-08-03,株式会社ＵＲＵＩＣＨＩ,,株式会社,静岡県,浜松市中区,元城町２２２番地の２７アートフォルム元城５０３,,22,131,4300946,,,,,,,2021-08-03,1,,,,,ウルイチ,0
1782,6090001017129,新規,0,2021-08-03,2021-08-03,Ａ－ＯＮＥ　ＢＥＡＤＳ　ＪＡＰＡＮ株式会社,,株式会社,山梨県,甲府市,高畑２丁目４番１８号第１コーポシマダ１０１,,19,201,4000042,,,,,,,2021-08-03,1,,,,,エーワンビーズジャパン,0
1783,6100001034477,新規,0,2021-08-03,2021-08-03,株式会社さぎょう,,株式会社,長野県,松本市,大字中山６５７９番地ロ,,20,202,3900823,,,,,,,2021-08-03,1,,,,,サギョウ,0
1796,6120001239413,新規,0,2021-08-03,2021-08-03,株式会社ｋｅｉ＆Ｔ,,株式会社,大阪府,寝屋川市,石津東町１９番６６号,,27,215,5720027,,,,,,,2021-08-03,1,,,,,ケイアンドティー,0
1797,6120001239454,新規,0,2021-08-03,2021-08-03,ＴＥＮＴＯＴＥＮ株式会社,,株式会社,大阪府,大阪市西区,南堀江１丁目１１番１号,,27,106,5500015,,,,,,,2021-08-03,1,,,,,テントテン,0
1798,6120001239470,新規,0,2021-08-03,2021-08-03,イノコス・ラボ株式会社,,株式会社,大阪府,大阪市此花区,島屋６丁目２番１４号,,27,104,5540024,,,,,,,2021-08-03,1,,,,,イノコスラボ,0
1799,6120003019953,新規,0,2021-08-03,2021-08-03,合同会社コンタクト,,合同会社,大阪府,大阪市西区,南堀江１丁目７番３号オールドベティーズビル４Ｆ,,27,106,5500015,,,,,,,2021-08-03,1,,,,,コンタクト,0
1801,6120005022402,新規,0,2021-08-03,2021-08-03,弁護士法人野村総合法律事務所,,その他の設立登記法人,大阪府,大阪市北区,西天満３丁目１４番１６号,,27,127,5300047,,,,,,,2021-08-03,1,,,,,ノムラソウゴウホウリツジムショ,0
1804,6120101064067,新規,0,2021-08-03,2021-08-03,株式会社Ｋ’ｓ　ＴＯＷＮ,,株式会社,大阪府,堺市東区,大美野６５番地５,,27,143,5998126,,,,,,,2021-08-03,1,,,,,ケーズタウン,0
1822,6140001122559,新規,0,2021-08-03,2021-08-03,株式会社Ｖａｇｕｅ,,株式会社,兵庫県,神戸市垂水区,千鳥が丘３丁目２１番２８－３０４号,,28,108,6550011,,,,,,,2021-08-03,1,,,,,ヴェイグ,0
1826,6140003016593,新規,0,2021-08-03,2021-08-03,合同会社ＤＩＹｐｌｕｓ,,合同会社,兵庫県,明石市,東野町２０５６－５０６,,28,203,6730844,,,,,,,2021-08-03,1,,,,,ディーアイワイプラス,0
1832,6160003002344,新規,0,2021-08-03,2021-08-03,ＳｉｍｐｌｅＳｉｍ合同会社,,合同会社,滋賀県,大津市,日吉台１丁目８番５号,,25,201,5200112,,,,,,,2021-08-03,1,,,,,シンプルシム,0
1834,6170001016700,新規,0,2021-08-03,2021-08-03,中村建材株式会社,,株式会社,和歌山県,新宮市,あけぼの２番６号,,30,207,6470025,,,,,,,2021-08-03,1,,,,,ナカムラケンザイ,0
1839,6180001147131,新規,0,2021-08-03,2021-08-03,株式会社ルポファーム,,株式会社,愛知県,名古屋市中区,新栄２丁目４４番２０号ＴＨＥ・ＡＳＴＯＮ・ＨＯＵＳＥ６２号室,,23,106,4600007,,,,,,,2021-08-03,1,,,,,ルポファーム,0
1840,6180001147222,新規,0,2021-08-03,2021-08-03,株式会社ｋｎｏｃｋ,,株式会社,愛知県,名古屋市中区,大須１丁目７番１４号パークＩＭビル２Ｆ,,23,106,4600011,,,,,,,2021-08-03,1,,,,,ノック,0
1844,6180003022803,新規,0,2021-08-03,2021-08-03,ＭＯＮＯ　ＢＯＸ合同会社,,合同会社,愛知県,名古屋市千種区,今池南１２番７号（ドミール春岡２０２号）,,23,101,4640851,,,,,,,2021-08-03,1,,,,,モノボックス,0
1845,6180003022811,新規,0,2021-08-03,2021-08-03,Ｊ－ＧＹＵ　ＪＡＰＡＮ合同会社,,合同会社,愛知県,一宮市,笹野字宮西北５４番地１,,23,203,4910131,,,,,,,2021-08-03,1,,,,,ジェイギュウジャパン,0
1851,6180301035218,新規,0,2021-08-03,2021-08-03,株式会社Ｌｉｆ,,株式会社,愛知県,豊川市,穂ノ原２丁目１番地２７,,23,207,4420061,,,,,,,2021-08-03,1,,,,,リフ,0
1852,6180301035250,新規,0,2021-08-03,2021-08-03,株式会社長尾創造所,,株式会社,愛知県,岡崎市,亀井町２丁目２１番地７,,23,202,4440049,,,,,,,2021-08-03,1,,,,,ナガオソウゾウショ,0
1855,6190001028561,新規,0,2021-08-03,2021-08-03,ｎ．ｃｒｅｓｓｏｎ株式会社,,株式会社,三重県,松阪市,大黒田町３４４番地,,24,204,5150063,,,,,,,2021-08-03,1,,,,,エヌクレソン,0
1859,6200001038971,新規,0,2021-08-03,2021-08-03,株式会社温こころ,,株式会社,岐阜県,各務原市,鵜沼東町８丁目６番地,,21,213,5090126,,,,,,,2021-08-03,1,,,,,オンココロ,0
1861,6220001024334,新規,0,2021-08-03,2021-08-03,ＡＮＤ株式会社,,株式会社,石川県,金沢市,玉川町１１番２５号,,17,201,9200863,,,,,,,2021-08-03,1,,,,,アンド,0
1864,6230001018913,新規,0,2021-08-03,2021-08-03,株式会社ティエフラボ,,株式会社,富山県,富山市,本郷町３１プランドール３０２,,16,201,9398045,,,,,,,2021-08-03,1,,,,,ティエフラボ,0
1868,6240001058355,新規,0,2021-08-03,2021-08-03,株式会社Ｃｒｅｅｋ,,株式会社,広島県,広島市西区,横川町３丁目５番９号,,34,104,7330011,,,,,,,2021-08-03,1,,,,,クリーク,0
1873,6260001035831,新規,0,2021-08-03,2021-08-03,スプーン株式会社,,株式会社,岡山県,倉敷市,庄新町１２番３‐７号,,33,202,7010102,,,,,,,2021-08-03,1,,,,,スプーン,0
1896,6330001028869,新規,0,2021-08-03,2021-08-03,株式会社セイワ,,株式会社,熊本県,合志市,御代志１６６５番地１５１,,43,216,8611104,,,,,,,2021-08-03,1,,,,,セイワ,0
1897,6330001028877,新規,0,2021-08-03,2021-08-03,株式会社イガシステム,,株式会社,熊本県,熊本市北区,植木町大和８１番地６,,43,105,8610143,,,,,,,2021-08-03,1,,,,,イガシステム,0
1908,6360001029146,新規,0,2021-08-03,2021-08-03,株式会社ＡＰＥＸ,,株式会社,沖縄県,沖縄市,山内１丁目１０－３Ｓｔｏｎｅ　Ｒｉｖｅｒ２Ｆ,,47,211,9040034,,,,,,,2021-08-03,1,,,,,アペックス,0
1915,6370003005342,新規,0,2021-08-03,2021-08-03,合同会社ＴＲＵＳＴ,,合同会社,宮城県,仙台市宮城野区,苦竹２丁目３番７７－３０６号,,04,102,9830036,,,,,,,2021-08-03,1,,,,,,0
1921,6390001016546,新規,0,2021-08-03,2021-08-03,株式会社ＩＭＡ,,株式会社,山形県,米沢市,林泉寺２丁目２－９７,,06,202,9920062,,,,,,,2021-08-03,1,,,,,アイエムエー,0
1922,6390001016554,新規,0,2021-08-03,2021-08-03,株式会社トラステック,,株式会社,山形県,山形市,篭田１丁目１番９号,,06,201,9902484,,,,,,,2021-08-03,1,,,,,トラステック,0
1925,6400003002815,新規,0,2021-08-03,2021-08-03,合同会社吉田工務店,,合同会社,岩手県,盛岡市,上田字狐崎稲荷７５番地１,,03,201,0200102,,,,,,,2021-08-03,1,,,,,ヨシダコウムテン,0
1931,6420001017532,新規,0,2021-08-03,2021-08-03,麦酒館・味蕾館運営準備株式会社,,株式会社,青森県,十和田市,西二十三番町１１番１号サングリーン１０３,,02,206,0340089,,,,,,,2021-08-03,1,,,,,ムギシュカンミライカンウンエイジュンビ,0
1934,6430001084646,新規,0,2021-08-03,2021-08-03,株式会社ＪＡたきかわ商事,,株式会社,北海道,滝川市,江部乙町西１２丁目１番５２号,,01,225,0790462,,,,,,,2021-08-03,1,,,,,ジェイエータキカワショウジ,0
1937,6440001008934,新規,0,2021-08-03,2021-08-03,株式会社はこだて西部まちづくＲｅ－Ｄｅｓｉｇｎ,,株式会社,北海道,函館市,元町１４番１号,,01,202,0400054,,,,,,,2021-08-03,1,,,,,ハコダテセイブマチヅクリデザイン,0
1942,6450003002109,新規,0,2021-08-03,2021-08-03,東川バイオマス・薪＆木材事業合同会社,,合同会社,北海道,上川郡東川町,東５号南４番地,,01,458,0711455,,,,,,,2021-08-03,1,,,,,ヒガシカワバイオマスマキアンドモクザイジギョウ,0
1944,6480001011447,新規,0,2021-08-03,2021-08-03,徳島中央テレビ株式会社,,株式会社,徳島県,吉野川市,鴨島町上下島４４０番地,,36,205,7760013,,,,,,,2021-08-03,1,,,,,トクシマチュウオウテレビ,0
1948,6490001009952,新規,0,2021-08-03,2021-08-03,株式会社Ｇ－ｓｔｏｒｙ,,株式会社,高知県,須崎市,鍛冶町７番１０号,,39,206,7850000,,,,,,,2021-08-03,1,,,,,ジーストーリー,0
1949,6490003001569,新規,0,2021-08-03,2021-08-03,合同会社ＦＯＯＤ　ＪＵＧＧＬＥＲ,,合同会社,高知県,高知市,追手筋１丁目８－４－１Ｆ,,39,201,7800842,,,,,,,2021-08-03,1,,,,,フードジャグラー,0
1952,6500001023596,新規,0,2021-08-03,2021-08-03,株式会社ＴａｋｕＳｈｉｎ,,株式会社,愛媛県,松山市,庄甲２２９番地２,,38,201,7992404,,,,,,,2021-08-03,1,,,,,タクシン,0
1953,6500003002672,新規,0,2021-08-03,2021-08-03,合同会社Ｙｏｃａｌｙ,,合同会社,愛媛県,新居浜市,上泉町１３番５２号,,38,205,7920824,,,,,,,2021-08-03,1,,,,,ヨカリ,0
1955,6700150104251,新規,0,2021-08-03,2021-08-03,ＯＲＩＯ　ＥＮＴＥＲＰＲＩＳＥＳ,,外国会社等,千葉県,山武市,木原１４０２番地オフィス３号,,12,237,2891212,スリランカ民主社会主義共和国、キャンディ、アクラナ、クルンドゥガハエラ、１４８－２Ａ,,,,,,2021-08-03,1,,,,,オリオエンタープライズ,0
1964,7010001220119,新規,0,2021-08-03,2021-08-03,ＡＲＴ－ＴＲＡ株式会社,,株式会社,東京都,文京区,小石川３丁目３８番３－３０４号,,13,105,1120002,,,,,,,2021-08-03,1,,,,,アートラ,0
1965,7010001220135,新規,0,2021-08-03,2021-08-03,エヌビービードーバーリース株式会社,,株式会社,東京都,中央区,日本橋浜町３丁目３番２号,,13,102,1030007,,,,,,,2021-08-03,1,,,,,エヌビービードーバーリース,0
1966,7010001220143,新規,0,2021-08-03,2021-08-03,タクミキャピタルジャパン株式会社,,株式会社,東京都,中央区,日本橋２丁目１番３号アーバンネット日本橋二丁目ビル１０階,,13,102,1030027,,,,,,,2021-08-03,1,,,,,タクミキャピタルジャパン,0
1967,7010001220151,新規,0,2021-08-03,2021-08-03,株式会社Ｙ５,,株式会社,東京都,千代田区,大手町１丁目１番１号,,13,101,1000004,,,,,,,2021-08-03,1,,,,,ワイファイブ,0
1976,7010003035473,新規,0,2021-08-03,2021-08-03,Ｅｄｉｔ　Ｐｌａｎ合同会社,,合同会社,東京都,中央区,佃３丁目１１番１８－４０３号,,13,102,1040051,,,,,,,2021-08-03,1,,,,,エディットプラン,0
1985,7010403025834,新規,0,2021-08-03,2021-08-03,藤合同会社,,合同会社,東京都,港区,西新橋１丁目２番９号ＥＰコンサルティングサービス内,,13,103,1050003,,,,,,,2021-08-03,1,,,,,フジ,0
1986,7010405020081,新規,0,2021-08-03,2021-08-03,一般社団法人ジーク,,その他の設立登記法人,東京都,港区,南青山３丁目１８番１号３階,,13,103,1070062,,,,,,,2021-08-03,1,,,,,ジーク,0
1994,7010803003844,新規,0,2021-08-03,2021-08-03,サステナブリッジ合同会社,,合同会社,東京都,大田区,東蒲田１丁目１番２２号,,13,111,1440031,,,,,,,2021-08-03,1,,,,,サステナブリッジ,0
2006,7011001142022,新規,0,2021-08-03,2021-08-03,株式会社パーフェクト,,株式会社,東京都,渋谷区,恵比寿西１丁目８番３号,,13,113,1500021,,,,,,,2021-08-03,1,,,,,パーフェクト,0
2008,7011003013147,新規,0,2021-08-03,2021-08-03,合同会社Ｂｅａｕｔｙ　ｍａｎｉａ,,合同会社,東京都,渋谷区,恵比寿西１丁目３３番６－３０４号ＪＰｎｏｉｅ恵比寿西,,13,113,1500021,,,,,,,2021-08-03,1,,,,,ビューティーマニア,0
2017,7011301027071,新規,0,2021-08-03,2021-08-03,株式会社Ｋｙｏｒｅｉｓｈａ,,株式会社,東京都,杉並区,堀ノ内１丁目７番３１号８０１号室,,13,115,1660013,,,,,,,2021-08-03,1,,,,,キョウレイシャ,0
2022,7011703002911,新規,0,2021-08-03,2021-08-03,合同会社ＪＯＭＬ,,合同会社,東京都,江戸川区,中葛西５丁目２４番１７号,,13,123,1340083,,,,,,,2021-08-03,1,,,,,ジョムル,0
2033,7012701016597,新規,0,2021-08-03,2021-08-03,大王商事株式会社,,株式会社,東京都,西東京市,柳沢６丁目１番１１－１０１号,,13,229,2020022,,,,,,,2021-08-03,1,,,,,ダイオウショウジ,0
2039,7013301047801,新規,0,2021-08-03,2021-08-03,株式会社イノヴァス,,株式会社,東京都,豊島区,南大塚３丁目１０番１０号いちご南大塚ビル３階,,13,116,1700005,,,,,,,2021-08-03,1,,,,,イノヴァス,0
2066,7021001073480,新規,0,2021-08-03,2021-08-03,株式会社ＹＯＳＳＨＡ,,株式会社,神奈川県,藤沢市,鵠沼石上２丁目７番８号ビックライズビル５Ｆ,,14,205,2510025,,,,,,,2021-08-03,1,,,,,ヨッシャ,0
2067,7021001073547,新規,0,2021-08-03,2021-08-03,株式会社Ｊ＆Ｍ　Ｄｅｓｉｇｎ,,株式会社,神奈川県,相模原市中央区,淵野辺本町１丁目３６番３４号,,14,152,2520202,,,,,,,2021-08-03,1,,,,,ジャムデザイン,0
2068,7021001073563,新規,0,2021-08-03,2021-08-03,株式会社白猫不動産,,株式会社,神奈川県,相模原市緑区,二本松３丁目１４－１,,14,151,2520137,,,,,,,2021-08-03,1,,,,,シロネコフドウサン,0
2071,7021003010705,新規,0,2021-08-03,2021-08-03,Ｋｉｒａｎ合同会社,,合同会社,神奈川県,平塚市,馬入２２３０－４,,14,203,2540023,,,,,,,2021-08-03,1,,,,,キラン,0
2072,7021003010746,新規,0,2021-08-03,2021-08-03,合同会社整体院すみれ,,合同会社,神奈川県,相模原市中央区,淵野辺１丁目６番１－１０２０号,,14,152,2520206,,,,,,,2021-08-03,1,,,,,セイタイインスミレ,0
2117,7070001038316,新規,0,2021-08-03,2021-08-03,株式会社ａｎｄ　ＬＥＯＮ,,株式会社,群馬県,前橋市,紅雲町２丁目１２番８号,,10,201,3710025,,,,,,,2021-08-03,1,,,,,アンドレオン,0
2119,7080001024356,新規,0,2021-08-03,2021-08-03,ピュア・グリーン株式会社,,株式会社,静岡県,島田市,御仮屋町７４４７番地の１０,,22,209,4270053,,,,,,,2021-08-03,1,,,,,ピュアグリーン,0
2120,7080001024364,新規,0,2021-08-03,2021-08-03,栗田電機工業株式会社,,株式会社,静岡県,静岡市清水区,北矢部町２丁目１１番３号,,22,103,4240937,,,,,,,2021-08-03,1,,,,,クリタデンキコウギョウ,0
2121,7080101022689,新規,0,2021-08-03,2021-08-03,株式会社ブライトテック,,株式会社,静岡県,富士市,宮下３２４番地の１０,,22,210,4160947,,,,,,,2021-08-03,1,,,,,ブライトテック,0
2123,7080401025227,新規,0,2021-08-03,2021-08-03,株式会社鍬一,,株式会社,静岡県,浜松市西区,大山町４０２０番地の３,,22,133,4311102,,,,,,,2021-08-03,1,,,,,クワイチ,0
2124,7090001017128,新規,0,2021-08-03,2021-08-03,株式会社吉穂工業,,株式会社,山梨県,甲府市,下飯田２丁目３番５号,,19,201,4000064,,,,,,,2021-08-03,1,,,,,ヨシホコウギョウ,0
2127,7100003006192,新規,0,2021-08-03,2021-08-03,合同会社ずぅしすてむ,,合同会社,長野県,飯田市,鼎名古熊２１４１番地１,,20,205,3950804,,,,,,,2021-08-03,1,,,,,,0
2130,7100005012750,新規,0,2021-08-03,2021-08-03,一般社団法人地域づくり美麻,,その他の設立登記法人,長野県,大町市,美麻１６９８１番地,,20,212,3999101,,,,,,,2021-08-03,1,,,,,チイキヅクリミアサ,0
2132,7110001035944,新規,0,2021-08-03,2021-08-03,スカイツーリスト株式会社,,株式会社,新潟県,新潟市中央区,堀之内南２丁目１９番１４号,,15,103,9500982,,,,,,,2021-08-03,1,,,,,スカイツーリスト,0
2143,7120001239412,新規,0,2021-08-03,2021-08-03,株式会社ｃｒａｎｋ,,株式会社,大阪府,大阪市中央区,難波４丁目１番１５号,,27,128,5420076,,,,,,,2021-08-03,1,,,,,クランク,0
2144,7120001239453,新規,0,2021-08-03,2021-08-03,株式会社Ｉ－ＳＴＹＬＥ,,株式会社,大阪府,大阪市中央区,本町橋２－２３,,27,128,5400029,,,,,,,2021-08-03,1,,,,,アイスタイル,0
2145,7120001239478,新規,0,2021-08-03,2021-08-03,株式会社ＡＩＢＤラボ,,株式会社,大阪府,大阪市阿倍野区,旭町１丁目４番３号,,27,119,5450051,,,,,,,2021-08-03,1,,,,,エーアイビーディーラボ,0
2153,7120003019903,新規,0,2021-08-03,2021-08-03,合同会社Ｓａｆｅｍｏｏｎ,,合同会社,大阪府,枚方市,南船橋１丁目５番５号,,27,210,5731123,,,,,,,2021-08-03,1,,,,,セーフムーン,0
2154,7120003019936,新規,0,2021-08-03,2021-08-03,Ｌｉｆｅ　Ｐｌｕｓ合同会社,,合同会社,大阪府,大阪市東住吉区,今川７丁目８番１１号エイチ・ツー・オー今川１０３号室,,27,121,5460003,,,,,,,2021-08-03,1,,,,,ライフプラス,0
2157,7120101064074,新規,0,2021-08-03,2021-08-03,上村工務店株式会社,,株式会社,大阪府,羽曳野市,南恵我之荘３丁目６番２号,,27,222,5830885,,,,,,,2021-08-03,1,,,,,ウエムラコウムテン,0
2177,7140003016592,新規,0,2021-08-03,2021-08-03,合同会社ａ－ｏｆｆｉｃｅ,,合同会社,兵庫県,神戸市中央区,橘通２丁目１番１８－３０１号,,28,110,6500016,,,,,,,2021-08-03,1,,,,,エーオフィス,0
2178,7140005025765,新規,0,2021-08-03,2021-08-03,ＮＰＯ法人神戸ななつぼし,,その他の設立登記法人,兵庫県,神戸市須磨区,平田町３丁目２番１５号,,28,107,6540021,,,,,,,2021-08-03,1,,,,,コウベナナツボシ,0
2181,7150001024828,新規,0,2021-08-03,2021-08-03,株式会社ＡＴＨガード,,株式会社,奈良県,天理市,川原城町６８０,,29,204,6320016,,,,,,,2021-08-03,1,,,,,アスガード,0
2185,7170003001609,新規,0,2021-08-03,2021-08-03,合同会社ＮｅＷｏｒｔｈ,,合同会社,和歌山県,和歌山市,弘西３８５番地１,,30,201,6496339,,,,,,,2021-08-03,1,,,,,ニューワース,0
2188,7180001147196,新規,0,2021-08-03,2021-08-03,株式会社ユリイカエステート,,株式会社,愛知県,名古屋市天白区,植田東３丁目５２１番地,,23,116,4680006,,,,,,,2021-08-03,1,,,,,ユリイカエステート,0
2189,7180001147205,新規,0,2021-08-03,2021-08-03,株式会社ｅｎｉｓｈｉｎｇ．Ｔ,,株式会社,愛知県,名古屋市緑区,鴻仏目１丁目５１８番地,,23,114,4580023,,,,,,,2021-08-03,1,,,,,エニシングティー,0
2196,7180003022793,新規,0,2021-08-03,2021-08-03,合同会社Ｋｕｐｏｎｏ,,合同会社,愛知県,豊明市,沓掛町峠前２１番地３５８,,23,229,4701101,,,,,,,2021-08-03,1,,,,,クポノ,0
2197,7180003022810,新規,0,2021-08-03,2021-08-03,Ｈａｎｄｙ　Ｓｅｒｖｉｃｅ合同会社,,合同会社,愛知県,一宮市,花池４丁目１０番１６号,,23,203,4910914,,,,,,,2021-08-03,1,,,,,ハンディーサービス,0
2199,7180301035233,新規,0,2021-08-03,2021-08-03,株式会社中根製作所,,株式会社,愛知県,岡崎市,葵町１０番地１４,,23,202,4440913,,,,,,,2021-08-03,1,,,,,ナカネセイサクショ,0
2200,7180301035241,新規,0,2021-08-03,2021-08-03,ジャパンファシリティ株式会社,,株式会社,愛知県,岡崎市,葵町１番地１０,,23,202,4440913,,,,,,,2021-08-03,1,,,,,ジャパンファシリティ,0
2208,7200001038962,新規,0,2021-08-03,2021-08-03,株式会社只イエ,,株式会社,岐阜県,各務原市,川島松原町５５８番地５,,21,213,5016026,,,,,,,2021-08-03,1,,,,,タダイエ,0
2213,7220001024333,新規,0,2021-08-03,2021-08-03,白山木設計株式会社,,株式会社,石川県,金沢市,出雲町イ４３５番地,,17,201,9200056,,,,,,,2021-08-03,1,,,,,ハクサンモクセッケイ,0
2222,7240001058354,新規,0,2021-08-03,2021-08-03,株式会社ｃｌｏｃｈｅ,,株式会社,広島県,広島市中区,銀山町１２番２０号８７ビル２Ｆ,,34,101,7300022,,,,,,,2021-08-03,1,,,,,クロッシュ,0
2224,7260001035830,新規,0,2021-08-03,2021-08-03,株式会社砂子,,株式会社,岡山県,和気郡和気町,吉田８７９番地７,,33,346,7090411,,,,,,,2021-08-03,1,,,,,マナゴ,0
2225,7260001035847,新規,0,2021-08-03,2021-08-03,株式会社ファーストステージ,,株式会社,岡山県,和気郡和気町,尺所２４９番地１,,33,346,7090422,,,,,,,2021-08-03,1,,,,,ファーストステージ,0
2247,7330001028868,新規,0,2021-08-03,2021-08-03,朝日新聞水前寺販売株式会社,,株式会社,熊本県,熊本市中央区,水前寺５丁目２２番１９号,,43,101,8620950,,,,,,,2021-08-03,1,,,,,アサヒシンブンスイゼンジハンバイ,0
2253,7360003011340,新規,0,2021-08-03,2021-08-03,合同会社渡名喜,,合同会社,沖縄県,中頭郡中城村,字南上原６３０番地３琉大東荘１０１号室,,47,328,9012424,,,,,,,2021-08-03,1,,,,,トナキ,0
2266,7390001016545,新規,0,2021-08-03,2021-08-03,株式会社工藤ヤ,,株式会社,山形県,山形市,双葉町１丁目４番２３－３０２号ＫＵＤウエストゲート,,06,201,9900828,,,,,,,2021-08-03,1,,,,,クドウヤ,0
2278,7420001017531,新規,0,2021-08-03,2021-08-03,株式会社ＳＲ,,株式会社,青森県,むつ市,松森町３番２号,,02,208,0350078,,,,,,,2021-08-03,1,,,,,エスアール,0
2284,7440001008933,新規,0,2021-08-03,2021-08-03,株式会社宅建サニーリンク,,株式会社,北海道,函館市,上湯川町２８番５号,,01,202,0420914,,,,,,,2021-08-03,1,,,,,タッケンサニーリンク,0
2285,7450001013429,新規,0,2021-08-03,2021-08-03,株式会社４ＣＵＢＥ,,株式会社,北海道,旭川市,永山二条４丁目３番２５号フラワーハイツ２０３,,01,204,0798412,,,,,,,2021-08-03,1,,,,,フォーキューブ,0
2289,7470005006369,新規,0,2021-08-03,2021-08-03,特定非営利活動法人はるかぜ,,その他の設立登記法人,香川県,観音寺市,原町１２０８番地１,,37,205,7680032,,,,,,,2021-08-03,1,,,,,ハルカゼ,0
2292,7480001011446,新規,0,2021-08-03,2021-08-03,新徳島建材株式会社,,株式会社,徳島県,阿南市,学原町中西１５番地２,,36,204,7740014,,,,,,,2021-08-03,1,,,,,シントクシマケンザイ,0
2297,7500001023595,新規,0,2021-08-03,2021-08-03,株式会社未来警備,,株式会社,愛媛県,伊予郡松前町,大字浜１０１７番地,,38,401,7913110,,,,,,,2021-08-03,1,,,,,ミライケイビ,0
2302,7700150104259,新規,0,2021-08-03,2021-08-03,Ｋ．Ｃ．Ｊ　ＭＯＴＯＲＳ,,外国会社等,千葉県,佐倉市,大篠塚２７８番地Ａ－１,,12,212,2850806,スリランカ民主社会主義共和国、ガンポラ、カハタピティヤ、コトゥワ、シャッカラン、１０４－９,,,,,,2021-08-03,1,,,,,ケイシージエイモータース,0
2320,8010001220092,新規,0,2021-08-03,2021-08-03,アッペンジャパン株式会社,,株式会社,東京都,千代田区,丸の内１丁目５番１号新丸の内ビルディング９階,,13,101,1000005,,,,,,,2021-08-03,1,,,,,アッペンジャパン,0
2321,8010001220150,新規,0,2021-08-03,2021-08-03,株式会社イーゴ,,株式会社,東京都,中央区,銀座３丁目１４－１,,13,102,1040061,,,,,,,2021-08-03,1,,,,,,0
2322,8010001220159,新規,0,2021-08-03,2021-08-03,森林共生アプリシエイト株式会社,,株式会社,東京都,千代田区,神田錦町３丁目２１番１３１５,,13,101,1010054,,,,,,,2021-08-03,1,,,,,シンリンキョウセイアプリシエイト,0
2329,8010003035415,新規,0,2021-08-03,2021-08-03,スイートコーン合同会社,,合同会社,東京都,千代田区,神田三崎町２丁目１９番９号,,13,101,1010061,,,,,,,2021-08-03,1,,,,,スイートコーン,0
2330,8010003035456,新規,0,2021-08-03,2021-08-03,合同会社ＥａｓｔＯｒｉｇｉｎａｌ,,合同会社,東京都,中央区,築地７丁目１８番２－５０２号,,13,102,1040045,,,,,,,2021-08-03,1,,,,,イーストオリジナル,0
2331,8010003035480,新規,0,2021-08-03,2021-08-03,合同会社サークル,,合同会社,東京都,文京区,小石川３丁目２６番２号,,13,105,1120002,,,,,,,2021-08-03,1,,,,,サークル,0
2332,8010003035489,新規,0,2021-08-03,2021-08-03,堺財経電算合同会社,,合同会社,東京都,千代田区,岩本町１丁目３番１号,,13,101,1010032,,,,,,,2021-08-03,1,,,,,サカイザイケイデンサン,0
2333,8010003035506,新規,0,2021-08-03,2021-08-03,ｆｌａｔｗｈｉｔｅ合同会社,,合同会社,東京都,中央区,銀座１丁目１２番４号Ｎ＆ＥＢＬＤ．７階,,13,102,1040061,,,,,,,2021-08-03,1,,,,,フラットホワイト,0
2334,8010005033722,新規,0,2021-08-03,2021-08-03,フォワード税理士法人,,その他の設立登記法人,東京都,中央区,日本橋本町３丁目１番６号,,13,102,1030023,,,,,,,2021-08-03,1,,,,,フォワード,0
2336,8010101014799,新規,0,2021-08-03,2021-08-03,株式会社ミュークル,,株式会社,東京都,八王子市,台町４丁目４番１２号,,13,201,1930931,,,,,,,2021-08-03,1,,,,,ミュークル,0
2347,8010403025833,新規,0,2021-08-03,2021-08-03,山桜合同会社,,合同会社,東京都,港区,西新橋１丁目２番９号ＥＰコンサルティングサービス内,,13,103,1050003,,,,,,,2021-08-03,1,,,,,ヤマザクラ,0
2355,8010701041326,新規,0,2021-08-03,2021-08-03,株式会社ロンバードホールディングス,,株式会社,東京都,品川区,西五反田１丁目５番１号,,13,109,1410031,,,,,,,2021-08-03,1,,,,,ロンバードホールディングス,0
2361,8010803003843,新規,0,2021-08-03,2021-08-03,リッジビューパートナーズ合同会社,,合同会社,東京都,大田区,南雪谷４丁目１３－１８デザインコート南雪谷Ｄ棟,,13,111,1450066,,,,,,,2021-08-03,1,,,,,リッジビューパートナーズ,0
2370,8011001142021,新規,0,2021-08-03,2021-08-03,ｎｅｗｔｒａｃｅ株式会社,,株式会社,東京都,渋谷区,道玄坂２丁目１０番７号,,13,113,1500043,,,,,,,2021-08-03,1,,,,,ニュートレース,0
2379,8011301027070,新規,0,2021-08-03,2021-08-03,株式会社３１Ｃｏｎｔｅｎｔｓ,,株式会社,東京都,杉並区,清水１丁目３８番１７号シティドルチェＣ,,13,115,1670033,,,,,,,2021-08-03,1,,,,,サーティワンコンテンツ,0
2383,8011701024592,新規,0,2021-08-03,2021-08-03,株式会社遠耀,,株式会社,東京都,江戸川区,上一色３丁目１９－１４,,13,123,1330041,,,,,,,2021-08-03,1,,,,,エンヨウ,0
2388,8012701016605,新規,0,2021-08-03,2021-08-03,株式会社トライセンス,,株式会社,東京都,東久留米市,前沢１丁目２番２６号,,13,222,2030032,,,,,,,2021-08-03,1,,,,,トライセンス,0
2389,8012801020985,新規,0,2021-08-03,2021-08-03,株式会社ガードプロジェクト昭島,,株式会社,東京都,武蔵村山市,残堀４丁目６３番地の５,,13,223,2080034,,,,,,,2021-08-03,1,,,,,ガードプロジェクトアキシマ,0
2391,8013301047809,新規,0,2021-08-03,2021-08-03,株式会社ＢＲＡＩＮＩＥＲ,,株式会社,東京都,豊島区,巣鴨３丁目１７番１３号カナールメゾン３０１号,,13,116,1700002,,,,,,,2021-08-03,1,,,,,ブレイニア,0
2400,8020001142484,新規,0,2021-08-03,2021-08-03,株式会社ＳＷＩＭ　ＷＯＲＬＤ,,株式会社,神奈川県,横浜市神奈川区,六角橋１丁目１１番１６号,,14,102,2210802,,,,,,,2021-08-03,1,,,,,スイムワールド,0
2412,8021001073538,新規,0,2021-08-03,2021-08-03,株式会社宮電,,株式会社,神奈川県,相模原市緑区,三井５７１番地２,,14,151,2520151,,,,,,,2021-08-03,1,,,,,ミヤデン,0
2413,8021001073554,新規,0,2021-08-03,2021-08-03,株式会社ｍｕｍｕ,,株式会社,神奈川県,藤沢市,片瀬山３丁目２４番１１号片瀬山テラスハウス２,,14,205,2510033,,,,,,,2021-08-03,1,,,,,,0
2414,8021001073562,新規,0,2021-08-03,2021-08-03,株式会社ＳＡプランニング,,株式会社,神奈川県,茅ヶ崎市,東海岸北３丁目１０番８－４０３,,14,207,2530053,,,,,,,2021-08-03,1,,,,,エスエイプランニング,0
2420,8021003010745,新規,0,2021-08-03,2021-08-03,合同会社Ｍｉｘｅｄ　Ｒｅａｒｔｙ,,合同会社,神奈川県,平塚市,西真土３丁目９番１６号,,14,203,2540019,,,,,,,2021-08-03,1,,,,,ミックスドリアリティ,0
2427,8030001143572,新規,0,2021-08-03,2021-08-03,株式会社ＫＯＵＪＩＮ,,株式会社,埼玉県,さいたま市緑区,松木３丁目４０番地９,,11,109,3360918,,,,,,,2021-08-03,1,,,,,コウジン,0
2433,8030003017691,新規,0,2021-08-03,2021-08-03,合同会社Ｔ－ｂｏｎｅ,,合同会社,埼玉県,川口市,本町３丁目７番１１号,,11,203,3320012,,,,,,,2021-08-03,1,,,,,ティーボーン,0
2442,8040003018251,新規,0,2021-08-03,2021-08-03,合同会社アジャストトレーディング,,合同会社,千葉県,長生郡一宮町,船頭給２４８番地１３,,12,421,2994313,,,,,,,2021-08-03,1,,,,,アジャストトレーディング,0
2457,8080001024355,新規,0,2021-08-03,2021-08-03,株式会社齊藤建工,,株式会社,静岡県,藤枝市,駅前１丁目５番２９号,,22,214,4260034,,,,,,,2021-08-03,1,,,,,サイトウケンコウ,0
2458,8080101022688,新規,0,2021-08-03,2021-08-03,株式会社高橋電設,,株式会社,静岡県,富士市,大渕２２３５番地の１６１,,22,210,4170000,,,,,,,2021-08-03,1,,,,,タカハシデンセツ,0
2460,8080105006159,新規,0,2021-08-03,2021-08-03,一般社団法人情報医療機器研究会,,その他の設立登記法人,静岡県,伊東市,富戸１３１７－４６５,,22,208,4130231,,,,,,,2021-08-03,1,,,,,ジョウホウイリョウキキケンキュウカイ,0
2462,8080401025226,新規,0,2021-08-03,2021-08-03,株式会社ＨＵＩＳ,,株式会社,静岡県,浜松市西区,神ケ谷町１１８２番地の２,,22,133,4328005,,,,,,,2021-08-03,1,,,,,ハウス,0
2464,8090001017135,新規,0,2021-08-03,2021-08-03,田尻林業株式会社,,株式会社,山梨県,南アルプス市,在家塚２３６番地１,,19,208,4000221,,,,,,,2021-08-03,1,,,,,タジリリンギョウ,0
2482,8120001239403,新規,0,2021-08-03,2021-08-03,株式会社ニコニコ製作所,,株式会社,大阪府,大阪市中央区,宗右衛門町６－１笠屋町ギャラクシービル１Ｃ,,27,128,5420084,,,,,,,2021-08-03,1,,,,,ニコニコセイサクショ,0
2483,8120001239460,新規,0,2021-08-03,2021-08-03,株式会社ＫｏｎａＯａｈｕ,,株式会社,大阪府,大阪市東淀川区,上新庄２丁目３番４号,,27,114,5330006,,,,,,,2021-08-03,1,,,,,コナオアフ,0
2484,8120001239477,新規,0,2021-08-03,2021-08-03,ｋｉｌｌｉｎｇ　ｔｉｍｅ株式会社,,株式会社,大阪府,大阪市北区,梅田１丁目１１－４－９２３大阪駅前第４ビル９階,,27,127,5300001,,,,,,,2021-08-03,1,,,,,キリングタイム,0
2491,8122001035039,新規,0,2021-08-03,2021-08-03,株式会社れなファミリー,,株式会社,大阪府,東大阪市,若江南町４丁目２番６号,,27,227,5780943,,,,,,,2021-08-03,1,,,,,レナファミリー,0
2505,8140001122466,新規,0,2021-08-03,2021-08-03,株式会社今寺商会,,株式会社,兵庫県,神戸市西区,今寺４－８－２０３,,28,111,6512114,,,,,,,2021-08-03,1,,,,,イマデラショウカイ,0
2506,8140003016591,新規,0,2021-08-03,2021-08-03,合同会社ＮｉｓｈｉＰＲＯシステム,,合同会社,兵庫県,神戸市垂水区,つつじが丘７丁目１２番地の２,,28,108,6550853,,,,,,,2021-08-03,1,,,,,ニシプロシステム,0
2509,8150001024835,新規,0,2021-08-03,2021-08-03,株式会社翼翔運,,株式会社,奈良県,生駒市,真弓１丁目６番１９号,,29,209,6300122,,,,,,,2021-08-03,1,,,,,ツバサショウウン,0
2522,8180001147204,新規,0,2021-08-03,2021-08-03,株式会社未来,,株式会社,愛知県,名古屋市瑞穂区,岳見町２丁目８番地の２,,23,108,4670043,,,,,,,2021-08-03,1,,,,,ミライ,0
2523,8180001147220,新規,0,2021-08-03,2021-08-03,株式会社Ｌａ　Ｃｉｅｌ,,株式会社,愛知県,名古屋市千種区,内山１丁目２２番９号,,23,101,4640075,,,,,,,2021-08-03,1,,,,,ラシエル,0
2532,8180301035240,新規,0,2021-08-03,2021-08-03,株式会社田崎設備,,株式会社,愛知県,豊田市,畝部東町寺西７４番地１,,23,211,4701211,,,,,,,2021-08-03,1,,,,,タサキセツビ,0
2539,8200005013234,新規,0,2021-08-03,2021-08-03,医療法人歯っぴー,,その他の設立登記法人,岐阜県,関市,西本郷通２丁目２番１７号,,21,205,5013803,,,,,,,2021-08-03,1,,,,,ハッピー,0
2545,8210003001396,新規,0,2021-08-03,2021-08-03,Ｚｅｎｋｏエンジ合同会社,,合同会社,福井県,坂井市,春江町為国亀ケ久保８７番地,,18,210,9190432,,,,,,,2021-08-03,1,,,,,ゼンコウエンジ,0
2546,8210005009974,新規,0,2021-08-03,2021-08-03,一般社団法人日本カーボンニュートラル協会,,その他の設立登記法人,福井県,越前市,本保町第８号５番地の１,,18,209,9150806,,,,,,,2021-08-03,1,,,,,ニッポンカーボンニュートラルキョウカイ,0
2550,8220001024316,新規,0,2021-08-03,2021-08-03,株式会社ＳＴＦ,,株式会社,石川県,七尾市,中島町河崎カ部８番地,,17,202,9292243,,,,,,,2021-08-03,1,,,,,エスティーエフ,0
2551,8220001024332,新規,0,2021-08-03,2021-08-03,株式会社ＣＬＦ,,株式会社,石川県,金沢市,彦三町１丁目２番１号,,17,201,9200901,,,,,,,2021-08-03,1,,,,,シーエルエフ,0
2555,8240001058353,新規,0,2021-08-03,2021-08-03,株式会社アイランド,,株式会社,広島県,広島市中区,鉄砲町４番１６－４０２号,,34,101,7300017,,,,,,,2021-08-03,1,,,,,アイランド,0
2562,8260001035846,新規,0,2021-08-03,2021-08-03,株式会社Ｔ・Ｈ建工,,株式会社,岡山県,倉敷市,連島中央５丁目１８番２０号,,33,202,7128014,,,,,,,2021-08-03,1,,,,,ティーエイチケンコウ,0
2563,8260002023073,新規,0,2021-08-03,2021-08-03,有限会社美野ハイツ,,有限会社,岡山県,倉敷市,児島下の町４丁目１１番１号,,33,202,7110906,,,,,,,2021-08-03,1,,,,,ミノハイツ,0
2575,8290805009456,新規,0,2021-08-03,2021-08-03,一般社団法人ＳＡＴＯ　ＬＡＢＯ,,その他の設立登記法人,福岡県,田川市,大字奈良１５８７番地９５石川ハイツ１　１０２号室,,40,206,8260043,,,,,,,2021-08-03,1,,,,,サトウラボ,0
2588,8330001028867,新規,0,2021-08-03,2021-08-03,株式会社ＹＭＲ,,株式会社,熊本県,熊本市北区,弓削４丁目９番４号,,43,105,8618002,,,,,,,2021-08-03,1,,,,,ワイエムアール,0
2589,8330003008990,新規,0,2021-08-03,2021-08-03,合同会社フィールドＫ,,合同会社,熊本県,熊本市東区,尾ノ上３丁目１４番２号２階,,43,102,8620913,,,,,,,2021-08-03,1,,,,,フィールドケイ,0
2597,8360003011323,新規,0,2021-08-03,2021-08-03,合同会社和愛,,合同会社,沖縄県,豊見城市,字真玉橋５５番地グリーンコーポ比嘉１０３,,47,212,9010201,,,,,,,2021-08-03,1,,,,,ワアイ,0
2600,8370003005340,新規,0,2021-08-03,2021-08-03,ＰＲＰ合同会社,,合同会社,宮城県,仙台市青葉区,柏木１丁目９番３号,,04,101,9810933,,,,,,,2021-08-03,1,,,,,,0
2608,8390001016552,新規,0,2021-08-03,2021-08-03,株式会社ＴＯＰ　ＥＮＤ　ＴＯＰ,,株式会社,山形県,米沢市,中田町５１４－１,,06,202,9920011,,,,,,,2021-08-03,1,,,,,トップエンドトップ,0
2618,8450001013428,新規,0,2021-08-03,2021-08-03,株式会社つかさ軽運,,株式会社,北海道,旭川市,東五条２丁目３番１６号,,01,204,0700025,,,,,,,2021-08-03,1,,,,,ツカサケイウン,0
2620,8500001023594,新規,0,2021-08-03,2021-08-03,株式会社愛媛医療福祉サポート,,株式会社,愛媛県,東温市,田窪１８６５番地１５,,38,215,7910212,,,,,,,2021-08-03,1,,,,,エヒメイリョウフクシサポート,0
2621,8500001023603,新規,0,2021-08-03,2021-08-03,株式会社風早リフォーム,,株式会社,愛媛県,松山市,河野中須賀２１１番地９,,38,201,7992438,,,,,,,2021-08-03,1,,,,,カザハヤリフォーム,0
2622,8700150104258,新規,0,2021-08-03,2021-08-03,ＺＨＡＶＩＳ　ＥＮＴＥＲＰＲＩＳＥＳ,,外国会社等,千葉県,佐倉市,大篠塚７７３番地Ｂ－１,,12,212,2850806,スリランカ民主社会主義共和国、アンバダナ、クドゥガラ、３２－２,,,,,,2021-08-03,1,,,,,ザビスエンタープライズ,0
2631,9010001220091,新規,0,2021-08-03,2021-08-03,アールティーエヌ株式会社,,株式会社,東京都,千代田区,神田須田町１丁目１４番１号ヒューリック神田須田町ビル１階,,13,101,1010041,,,,,,,2021-08-03,1,,,,,アールティーエヌ,0
2632,9010001220100,新規,0,2021-08-03,2021-08-03,株式会社ＢＩＺｃｏｎ,,株式会社,東京都,千代田区,鍛冶町２丁目１番２号,,13,101,1010044,,,,,,,2021-08-03,1,,,,,ビズコム,0
2633,9010001220125,新規,0,2021-08-03,2021-08-03,Ｕ－ｓｔｙｌｅ株式会社,,株式会社,東京都,千代田区,神田多町２丁目１番地神田東山ビル７Ｆ,,13,101,1010046,,,,,,,2021-08-03,1,,,,,ユースタイル,0
2634,9010001220141,新規,0,2021-08-03,2021-08-03,エヌビービーケニルワースリース株式会社,,株式会社,東京都,中央区,日本橋浜町３丁目３番２号,,13,102,1030007,,,,,,,2021-08-03,1,,,,,エヌビービーケニルワースリース,0
2635,9010001220199,新規,0,2021-08-03,2021-08-03,株式会社ＫＡＣ,,株式会社,東京都,中央区,湊２丁目１１番１号,,13,102,1040043,,,,,,,2021-08-03,1,,,,,ケーエーシー,0
2637,9010003035430,新規,0,2021-08-03,2021-08-03,合同会社オルタナ５,,合同会社,東京都,千代田区,丸の内３丁目１番１号東京共同会計事務所内,,13,101,1000005,,,,,,,2021-08-03,1,,,,,オルタナファイブ,0
2638,9010003035471,新規,0,2021-08-03,2021-08-03,カボデンタルシステムズジャパン合同会社,,合同会社,東京都,千代田区,丸の内２丁目１番１号明治生命館７階ディーエルエイ・パイパー東京パートナーシップ外国法共同事業法律事務所内,,13,101,1000005,,,,,,,2021-08-03,1,,,,,カボデンタルシステムズジャパン,0
2639,9010003035488,新規,0,2021-08-03,2021-08-03,ＤＨＳＷＦ１合同会社,,合同会社,東京都,千代田区,永田町２丁目４番８号,,13,101,1000014,,,,,,,2021-08-03,1,,,,,ディーエイチエスダブリューエフワン,0
2642,9010005033705,新規,0,2021-08-03,2021-08-03,一般社団法人製銑科学技術コンソーシアム,,その他の設立登記法人,東京都,文京区,弥生２丁目１１番１６号,,13,105,1130032,,,,,,,2021-08-03,1,,,,,セイセンカガクギジュツコンソーシアム,0
2646,9010103001745,新規,0,2021-08-03,2021-08-03,コンパス合同会社,,合同会社,東京都,八王子市,片倉町７０３番地７ＭＮＴテラスハウス１０２,,13,201,1920914,,,,,,,2021-08-03,1,,,,,コンパス,0
2652,9010401161811,新規,0,2021-08-03,2021-08-03,株式会社ファイナルフォーム,,株式会社,東京都,港区,南青山２丁目２番１５号,,13,103,1070062,,,,,,,2021-08-03,1,,,,,ファイナルフォーム,0
2657,9010403025832,新規,0,2021-08-03,2021-08-03,水仙合同会社,,合同会社,東京都,港区,西新橋１丁目２番９号ＥＰコンサルティングサービス内,,13,103,1050003,,,,,,,2021-08-03,1,,,,,スイセン,0
2693,9011703002901,新規,0,2021-08-03,2021-08-03,合同会社スルメ不動産,,合同会社,東京都,江戸川区,一之江５丁目１６番地１０号,,13,123,1320024,,,,,,,2021-08-03,1,,,,,スルメフドウサン,0
2694,9011801039523,新規,0,2021-08-03,2021-08-03,ＺＥＲＯ　ＴＥＣＨ株式会社,,株式会社,東京都,足立区,入谷７丁目１４番３号石橋ビル１階,,13,121,1210836,,,,,,,2021-08-03,1,,,,,ゼロテック,0
2696,9012301012648,新規,0,2021-08-03,2021-08-03,株式会社Ｙ’ｓ　ｃｏｒｐｏｒａｔｉｏｎ,,株式会社,東京都,町田市,野津田町１１４５番地５,,13,209,1950063,,,,,,,2021-08-03,1,,,,,ワイズコーポレーション,0
2702,9012801020984,新規,0,2021-08-03,2021-08-03,株式会社村山製作所,,株式会社,東京都,武蔵村山市,大字岸３４８番地,,13,223,2080031,,,,,,,2021-08-03,1,,,,,,0
2703,9013101008687,新規,0,2021-08-03,2021-08-03,株式会社エイト,,株式会社,東京都,あきる野市,山田７７８番地２８,,13,228,1900144,,,,,,,2021-08-03,1,,,,,,0
2708,9013301047808,新規,0,2021-08-03,2021-08-03,株式会社ナジ,,株式会社,東京都,豊島区,巣鴨４丁目１６番１０号,,13,116,1700002,,,,,,,2021-08-03,1,,,,,ナジ,0
2723,9021001073537,新規,0,2021-08-03,2021-08-03,株式会社Ｕｔｉｌｉｔｙ　Ｍｏｂｉｌｅ,,株式会社,神奈川県,相模原市南区,上鶴間本町６丁目２５番２号,,14,153,2520318,,,,,,,2021-08-03,1,,,,,,0
2724,9021001073545,新規,0,2021-08-03,2021-08-03,ＴＰＡＣＫ株式会社,,株式会社,神奈川県,大和市,林間１丁目１３－４アドリーム南林間３０３,,14,213,2420003,,,,,,,2021-08-03,1,,,,,テーパック,0
2725,9021001073561,新規,0,2021-08-03,2021-08-03,山僖株式会社,,株式会社,神奈川県,小田原市,久野１９０－１０,,14,206,2500055,,,,,,,2021-08-03,1,,,,,サンキ,0
2732,9021003010752,新規,0,2021-08-03,2021-08-03,合同会社あおぞら,,合同会社,神奈川県,大和市,林間１丁目１番１６号,,14,213,2420003,,,,,,,2021-08-03,1,,,,,アオゾラ,0
2744,9030001143563,新規,0,2021-08-03,2021-08-03,株式会社ミライ,,株式会社,埼玉県,北本市,山中１丁目５番地１,,11,233,3640004,,,,,,,2021-08-03,1,,,,,ミライ,0
2760,9050003006007,新規,0,2021-08-03,2021-08-03,欣栄商事合同会社,,合同会社,茨城県,水戸市,河和田町４４０５－３１－１Ｆ,,08,201,3114153,,,,,,,2021-08-03,1,,,,,キンエイショウジ,0
2764,9070001038314,新規,0,2021-08-03,2021-08-03,株式会社円,,株式会社,群馬県,高崎市,元島名町１３７０番地１,,10,202,3700014,,,,,,,2021-08-03,1,,,,,マドカ,0
2766,9080101022687,新規,0,2021-08-03,2021-08-03,株式会社ベストサポート,,株式会社,静岡県,富士市,中里４４３番地の７,,22,210,4170826,,,,,,,2021-08-03,1,,,,,ベストサポート,0
2768,9080401025225,新規,0,2021-08-03,2021-08-03,株式会社つくりえ,,株式会社,静岡県,浜松市中区,泉３丁目２番８号,,22,131,4338124,,,,,,,2021-08-03,1,,,,,ツクリエ,0
2769,9080401025233,新規,0,2021-08-03,2021-08-03,丸幸村松株式会社,,株式会社,静岡県,掛川市,西大渕５３８３番地の１,,22,213,4371304,,,,,,,2021-08-03,1,,,,,マルコウムラマツ,0
2770,9090001017126,新規,0,2021-08-03,2021-08-03,株式会社鶴建,,株式会社,山梨県,南アルプス市,野牛島２３８５番地４１,,19,208,4000205,,,,,,,2021-08-03,1,,,,,ツルケン,0
2771,9090001017134,新規,0,2021-08-03,2021-08-03,ジェネリック化粧品株式会社,,株式会社,山梨県,甲府市,丸の内１丁目２番９号丸の内駅前ビル２Ｆ,,19,201,4000031,,,,,,,2021-08-03,1,,,,,ジェネリックケショウヒン,0
2772,9100001034482,新規,0,2021-08-03,2021-08-03,株式会社ミヤシゲ,,株式会社,長野県,大町市,大町６５０１番地１,,20,212,3980002,,,,,,,2021-08-03,1,,,,,ミヤシゲ,0
2777,9100005012749,新規,0,2021-08-03,2021-08-03,一般社団法人Ｐ．Ａ．Ａ．Ｓ,,その他の設立登記法人,長野県,北安曇郡白馬村,大字北城１１４１８,,20,485,3999301,,,,,,,2021-08-03,1,,,,,パース,0
2795,9120001239402,新規,0,2021-08-03,2021-08-03,佐友船舶科技株式会社,,株式会社,大阪府,大阪市西成区,天下茶屋１丁目４番４号Ａ１,,27,122,5570014,,,,,,,2021-08-03,1,,,,,サユウセンパクカギ,0
2796,9120001239410,新規,0,2021-08-03,2021-08-03,株式会社エメラルドケーブ,,株式会社,大阪府,大阪市北区,中崎西４丁目３番４３号,,27,127,5300015,,,,,,,2021-08-03,1,,,,,エメラルドケーブ,0
2797,9120001239451,新規,0,2021-08-03,2021-08-03,株式会社折戸商事,,株式会社,大阪府,大阪市平野区,加美西１丁目１５番４号中岡第二マンション３０３,,27,126,5470005,,,,,,,2021-08-03,1,,,,,オリトショウジ,0
2798,9120001239468,新規,0,2021-08-03,2021-08-03,フレッシュ株式会社,,株式会社,大阪府,大阪市北区,同心２丁目３番１９号ルネサンス同心ビル２０１号,,27,127,5300035,,,,,,,2021-08-03,1,,,,,フレッシュ,0
2799,9120001239492,新規,0,2021-08-03,2021-08-03,株式会社ダウエアーシステム,,株式会社,大阪府,大阪市鶴見区,今津中３丁目６番２７－３１５号,,27,124,5380042,,,,,,,2021-08-03,1,,,,,ダウエアーシステム,0
2800,9120003019950,新規,0,2021-08-03,2021-08-03,Ｔоｋｙｏ　Ｓｔｒｅｅｔ　Ｓｔｙｌｅ合同会社,,合同会社,大阪府,大阪市浪速区,桜川１丁目１番３０号コーポ原１階,,27,111,5560022,,,,,,,2021-08-03,1,,,,,トウキョウストリートスタイル,0
2807,9120901044711,新規,0,2021-08-03,2021-08-03,ライスリーフ株式会社,,株式会社,大阪府,茨木市,庄２丁目１９番２１号,,27,211,5670806,,,,,,,2021-08-03,1,,,,,ライスリーフ,0
2823,9140001122531,新規,0,2021-08-03,2021-08-03,株式会社神戸灘不動産管理,,株式会社,兵庫県,神戸市灘区,灘北通２丁目３番１９号,,28,102,6570835,,,,,,,2021-08-03,1,,,,,コウベナダフドウサンカンリ,0
2827,9150001024834,新規,0,2021-08-03,2021-08-03,株式会社小島防水,,株式会社,奈良県,奈良市,奈保町２０番１９号,,29,201,6308107,,,,,,,2021-08-03,1,,,,,コジマボウスイ,0
2838,9180001147153,新規,0,2021-08-03,2021-08-03,株式会社イーストブルー,,株式会社,愛知県,名古屋市緑区,大高町字寅新田１２５番地１,,23,114,4598001,,,,,,,2021-08-03,1,,,,,イーストブルー,0
2839,9180001147178,新規,0,2021-08-03,2021-08-03,株式会社アーキテクト,,株式会社,愛知県,名古屋市西区,則武新町１丁目４－９,,23,104,4510051,,,,,,,2021-08-03,1,,,,,アーキテクト,0
2840,9180001147194,新規,0,2021-08-03,2021-08-03,株式会社エイト,,株式会社,愛知県,瀬戸市,共栄通５丁目５３番地の６,,23,204,4890809,,,,,,,2021-08-03,1,,,,,エイト,0
2841,9180001147203,新規,0,2021-08-03,2021-08-03,株式会社ナイン・ズ,,株式会社,愛知県,名古屋市瑞穂区,日向町３丁目１８番地の１,,23,108,4670047,,,,,,,2021-08-03,1,,,,,ナインズ,0
2842,9180001147244,新規,0,2021-08-03,2021-08-03,株式会社ｃａｍ－ｏ’ｎ,,株式会社,愛知県,名古屋市北区,大曽根３丁目１７番１６号,,23,103,4620825,,,,,,,2021-08-03,1,,,,,カムオン,0
2844,9180003022809,新規,0,2021-08-03,2021-08-03,Ｃｌｏｕｄ９合同会社,,合同会社,愛知県,名古屋市中区,栄１丁目２２－２ライオンズ名古屋ビル５１３号,,23,106,4600008,,,,,,,2021-08-03,1,,,,,クラウドナイン,0
2846,9180301035215,新規,0,2021-08-03,2021-08-03,株式会社不登校‐ズ,,株式会社,愛知県,高浜市,湯山町５丁目１０番地１４,,23,227,4441332,,,,,,,2021-08-03,1,,,,,フトウコウズ,0
2847,9180301035231,新規,0,2021-08-03,2021-08-03,株式会社日曜日,,株式会社,愛知県,西尾市,田貫１丁目１９番地２,,23,213,4440302,,,,,,,2021-08-03,1,,,,,ニチヨウビ,0
2848,9180301035248,新規,0,2021-08-03,2021-08-03,株式会社千葉商事,,株式会社,愛知県,豊橋市,豊清町字豊清１９番地２,,23,201,4413115,,,,,,,2021-08-03,1,,,,,チバショウジ,0
2853,9190001028559,新規,0,2021-08-03,2021-08-03,株式会社わらく,,株式会社,三重県,松阪市,鎌田町７３１番地１１,,24,204,5150005,,,,,,,2021-08-03,1,,,,,ワラク,0
2855,9200001038960,新規,0,2021-08-03,2021-08-03,ＥＧ　ＤＥＳＩＧＮ株式会社,,株式会社,岐阜県,揖斐郡揖斐川町,三輪１８２５番地,,21,401,5010619,,,,,,,2021-08-03,1,,,,,イージーデザイン,0
2857,9200003005273,新規,0,2021-08-03,2021-08-03,ＳｈａｒｅＴｏｏｌｓ合同会社,,合同会社,岐阜県,海津市,平田町岡字大上２４－１,,21,221,5030307,,,,,,,2021-08-03,1,,,,,シェアツールズ,0
2861,9220001024331,新規,0,2021-08-03,2021-08-03,株式会社ＷＯＲＫ　ＩＴ．,,株式会社,石川県,金沢市,小坂町南１８６番地,,17,201,9200811,,,,,,,2021-08-03,1,,,,,ワークイット,0
2882,9260001035820,新規,0,2021-08-03,2021-08-03,株式会社マナジープラン,,株式会社,岡山県,岡山市南区,大福１１０２番地１０,,33,104,7010204,,,,,,,2021-08-03,1,,,,,マナジープラン,0
2883,9260001035845,新規,0,2021-08-03,2021-08-03,株式会社Ｂｅｌｏｖｅｄ　Ｐｅｔｓ,,株式会社,岡山県,加賀郡吉備中央町,吉川４８６０番地６,,33,681,7161241,,,,,,,2021-08-03,1,,,,,ビーラブドペッツ,0
2886,9260003003643,新規,0,2021-08-03,2021-08-03,合同会社アクシアプラス,,合同会社,岡山県,岡山市北区,中撫川６４６番地１０,,33,101,7010163,,,,,,,2021-08-03,1,,,,,アクシアプラス,0
2894,9290003011445,新規,0,2021-08-03,2021-08-03,合同会社アスリード,,合同会社,福岡県,大野城市,御笠川４丁目１１番１９号,,40,219,8160912,,,,,,,2021-08-03,1,,,,,アスリード,0
2906,9310003004132,新規,0,2021-08-03,2021-08-03,合同会社興英,,合同会社,長崎県,佐世保市,天神３丁目６００番地１８,,42,202,8571174,,,,,,,2021-08-03,1,,,,,コウエイ,0
2915,9360001029093,新規,0,2021-08-03,2021-08-03,株式会社ＫＩＮＮＩＫＵ,,株式会社,沖縄県,宮古島市,平良字西里１４６番地,,47,214,9060012,,,,,,,2021-08-03,1,,,,,キンニク,0
2923,9400001015551,新規,0,2021-08-03,2021-08-03,エアテス株式会社,,株式会社,岩手県,盛岡市,東松園４丁目８番７号,,03,201,0200106,,,,,,,2021-08-03,1,,,,,エアテス,0
2928,9430005014233,新規,0,2021-08-03,2021-08-03,特定非営利活動法人楽園プロジェクト,,その他の設立登記法人,北海道,札幌市白石区,栄通１１丁目１番３３号,,01,104,0030021,,,,,,,2021-08-03,1,,,,,ラクエンプロジェクト,0
2929,9440001008931,新規,0,2021-08-03,2021-08-03,函館ハイトラスト株式会社,,株式会社,北海道,函館市,金堀町４番５－１０３号,,01,202,0420944,,,,,,,2021-08-03,1,,,,,ハコダテハイトラスト,0
2935,9470001018639,新規,0,2021-08-03,2021-08-03,株式会社Ｆｅｅｄ　Ｂａｃｋ　Ｏｆｆｉｃｅ,,株式会社,香川県,高松市,中野町２９－５高松プラザビル,,37,201,7600008,,,,,,,2021-08-03,1,,,,,フィードバックオフィス,0
2936,9470003002005,新規,0,2021-08-03,2021-08-03,合同会社ＭＫラボ,,合同会社,香川県,高松市,仏生山町甲１０１５番地１２,,37,201,7618078,,,,,,,2021-08-03,1,,,,,エムケイラボ,0
2937,9480005006853,新規,0,2021-08-03,2021-08-03,土地家屋調査士法人アクト,,その他の設立登記法人,徳島県,阿南市,羽ノ浦町中庄原ノ内２０番地５,,36,204,7791101,,,,,,,2021-08-03,1,,,,,トチカオクチョウサシホウジンアクト,0
2942,9500001023593,新規,0,2021-08-03,2021-08-03,スターク株式会社,,株式会社,愛媛県,伊予市,下吾川１８１４番地２５,,38,210,7993111,,,,,,,2021-08-03,1,,,,,スターク,0
2944,9700150104257,新規,0,2021-08-03,2021-08-03,Ｈ．Ｎ．Ａ　ＭＯＴＯＲＳ,,外国会社等,千葉県,佐倉市,大篠塚７７３番地Ａ－１,,12,212,2850806,スリランカ民主社会主義共和国、パンニピティヤ、アレウワラ、７０９－１,,,,,,2021-08-03,1,,,,,エイチエヌエイモータース,0
