sequenceNumber,corporateNumber,process,correct,updateDate,changeDate,name,nameImageId,kind,prefectureName,cityName,streetNumber,addressImageId,prefectureCode,cityCode,postCode,addressOutside,addressOutsideImageId,closeDate,closeCause,successorCorporateNumber,changeCause,assignmentDate,latest,enName,enPrefectureName,enCityName,enAddressOutside,furigana,hihyoji
2,1010001097637,登記記録の閉鎖等,0,2023-12-22,2023-11-15,株式会社フロムワン,,株式会社,東京都,中央区,八丁堀４丁目９番４号,,13,102,1040032,,,2023-11-15,合併による解散等,2010001144883,令和５年１１月１日東京都港区東新橋一丁目９番１号ＣＷＳ　Ｂｒａｉｎｓ株式会社（2010001144883）に合併し解散,2015-10-05,1,,,,,フロムワン,0
3,1010001136114,登記記録の閉鎖等,0,2023-12-22,2023-12-20,晴れ舎株式会社,,株式会社,北海道,札幌市白石区,栄通１８丁目７番３号,,01,104,0030021,,,2023-12-20,清算の結了等,,,2015-10-05,1,,,,,ハレヤ,0
12,1010401105230,登記記録の閉鎖等,0,2023-12-22,2023-12-21,グレードル株式会社,,株式会社,東京都,渋谷区,渋谷２丁目１４番６号西田ビル５Ｆ,,13,113,1500002,,,2023-12-21,清算の結了等,,,2015-10-05,1,,,,,グレードル,0
19,1010402005207,登記記録の閉鎖等,0,2023-12-22,2023-12-15,有限会社小森不動産,,有限会社,東京都,港区,東新橋１丁目１０番２－１７０１号,,13,103,1050021,,,2023-12-15,清算の結了等,,,2015-10-05,1,,,,,コモリフドウサン,0
28,1010501037316,登記記録の閉鎖等,0,2023-12-22,2023-12-19,アイ・エス商事株式会社,,株式会社,東京都,台東区,清川１丁目２５－６Ｌｅｏｎｉｓ７０２,,13,106,1110022,,,2023-12-19,清算の結了等,,,2015-10-05,1,,,,,アイエスショウジ,0
33,1010703003157,登記記録の閉鎖等,0,2023-12-22,2023-12-18,竹村商事合同会社,,合同会社,東京都,品川区,大崎１丁目１番１号,,13,109,1410032,,,2023-12-18,清算の結了等,,,2016-06-15,1,,,,,タケムラショウジ,0
48,1011101080144,登記記録の閉鎖等,0,2023-12-22,2023-12-19,ｗｈｏｏ株式会社,,株式会社,東京都,新宿区,下宮比町２番２９号,,13,104,1620822,,,2023-12-19,合併による解散等,1011101019654,令和５年１２月１日東京都新宿区下宮比町２番２９号株式会社帆風（1011101019654）に合併し解散,2017-04-11,1,,,,,フー,0
59,1011402019774,登記記録の閉鎖等,0,2023-12-22,2023-12-14,有限会社ムジカ・グローリア,,有限会社,東京都,目黒区,中目黒２丁目３番１２－６０３号,,13,110,1530061,,,2023-12-14,清算の結了等,,,2015-10-05,1,,,,,ムジカグローリア,0
66,1011702015738,登記記録の閉鎖等,0,2023-12-22,2023-12-19,有限会社ユメノキ,,有限会社,東京都,江戸川区,西小岩１丁目１９番２３号,,13,123,1330057,,,2023-12-19,清算の結了等,,,2015-10-05,1,,,,,ユメノキ,0
87,1020002017782,登記記録の閉鎖等,0,2023-12-22,2023-12-18,有限会社横浜トータル商会,,有限会社,神奈川県,大和市,深見３５３９番地大和ビタビレッジＡ－３０２,,14,213,2420011,,,2023-12-18,清算の結了等,,,2015-10-05,1,,,,,ヨコハマトータルショウカイ,0
132,1080402020109,登記記録の閉鎖等,0,2023-12-22,2023-12-19,有限会社かす賀,00068502,有限会社,静岡県,磐田市,池田３６３番地の１,,22,211,4380805,,,2023-12-19,清算の結了等,,,2015-10-05,1,,,,,カスガ,0
138,1110005008233,登記記録の閉鎖等,0,2023-12-22,2023-12-20,有隣報徳社,,その他の設立登記法人,新潟県,上越市,大字西松野木８４４番地,,15,222,9430136,,,2023-12-20,清算の結了等,,,2015-10-05,1,,,,,ユウリンホウトクシャ,0
153,1120002003434,登記記録の閉鎖等,0,2023-12-22,2023-12-19,有限会社ともゑ工作所,,有限会社,大阪府,大阪市阿倍野区,松虫通１丁目２番３１号,,27,119,5450043,,,2023-12-19,清算の結了等,,,2015-10-05,1,,,,,トモエコウサクショ,0
159,1120005000478,登記記録の閉鎖等,0,2023-12-22,2023-11-20,天理教本港杉分教会,,その他の設立登記法人,大阪府,大阪市住吉区,遠里小野３丁目７番５号,,27,120,5580032,,,2023-11-20,合併による解散等,4120005000459,令和５年１１月２０日大阪市生野区林寺四丁目２番２５号天理教本阪分教会（4120005000459）に合併し解散,2015-10-05,1,,,,,テンリキョウホンコウスギブンキョウカイ,0
181,1140001100362,登記記録の閉鎖等,0,2023-12-22,2023-12-20,ＣＡＫＲＡ株式会社,,株式会社,兵庫県,明石市,材木町６－２ポートパレ１Ｆ,,28,203,6730893,,,2023-12-20,清算の結了等,,,2015-12-14,1,,,,,,0
188,1140002043437,登記記録の閉鎖等,0,2023-12-22,2023-12-15,有限会社阪神介護センター,,有限会社,兵庫県,尼崎市,大庄西町１丁目３番３号,,28,202,6600077,,,2023-12-15,清算の結了等,,,2015-10-05,1,,,,,ハンシンカイゴセンター,0
200,1180001151922,登記記録の閉鎖等,0,2023-12-22,2023-12-19,株式会社ｓｅａｒｃｈニャース,,株式会社,愛知県,名古屋市北区,大曽根４丁目６番１１号,,23,103,4620825,,,2023-12-19,清算の結了等,,,2022-06-28,1,,,,,サーチニャース,0
203,1180002083124,登記記録の閉鎖等,0,2023-12-22,2023-12-15,伊藤興業有限会社,,有限会社,愛知県,半田市,向山町２丁目４８番地,,23,205,4750084,,,2023-12-15,清算の結了等,,,2015-10-05,1,,,,,イトウコウギョウ,0
208,1180302004473,登記記録の閉鎖等,0,2023-12-22,2023-11-10,有限会社アイリンク,,有限会社,愛知県,岡崎市,大門３丁目１４番地１,,23,202,4442135,,,2023-11-10,合併による解散等,4180301021310,令和５年１１月１日愛知県豊田市平和町四丁目７２番地株式会社クリーンスタッフ（4180301021310）に合併し、解散,2015-10-05,1,,,,,アイリンク,0
218,1220001013408,登記記録の閉鎖等,0,2023-12-22,2023-12-19,株式会社北陸綜合企画,,株式会社,石川県,加賀市,大聖寺東町２丁目９番地,,17,206,9220816,,,2023-12-19,清算の結了等,,,2015-10-05,1,,,,,ホクリクソウゴウキカク,0
230,1260002033541,登記記録の閉鎖等,0,2023-12-22,2023-12-19,有限会社川添辰五郎商店,,有限会社,岡山県,真庭市,勝山４３５番地の１７,,33,214,7170013,,,2023-12-19,清算の結了等,,,2015-10-05,1,,,,,カワゾエタツゴロウショウテン,0
240,1290001067686,登記記録の閉鎖等,0,2023-12-22,2023-12-15,株式会社Ｌｏａｓｉｓ,,株式会社,福岡県,福岡市中央区,大名２丁目９番３４号,,40,133,8100041,,,2023-12-15,清算の結了等,,,2015-10-05,1,,,,,ロアシス,0
241,1290001081019,登記記録の閉鎖等,0,2023-12-22,2023-12-14,株式会社史建築企画,,株式会社,福岡県,福岡市西区,野方１丁目２６番６号,,40,135,8190043,,,2023-12-14,清算の結了等,,,2018-04-10,1,,,,,チカシケンチクキカク,0
251,1290002022285,登記記録の閉鎖等,0,2023-12-22,2023-12-14,有限会社吉安商店,,有限会社,福岡県,福岡市早良区,南庄２丁目２番１７号,,40,137,8140031,,,2023-12-14,清算の結了等,,,2015-10-05,1,,,,,ヨシヤスショウテン,0
256,1290802024373,登記記録の閉鎖等,0,2023-12-22,2023-12-18,有限会社服部レーシング,,有限会社,福岡県,田川市,大字川宮１５６７番地の１０,,40,206,8260042,,,2023-12-18,清算の結了等,,,2015-10-05,1,,,,,ハットリレーシング,0
261,1330005000374,登記記録の閉鎖等,0,2023-12-22,2023-11-08,金光教植木教会,,その他の設立登記法人,熊本県,熊本市北区,改寄町２３６８番地３,,43,105,8615501,,,2023-11-08,合併による解散等,2330005004333,令和５年１１月８日熊本県玉名市伊倉北方３０３３番地金光教伊倉教会（2330005004333）に合併し解散,2015-10-05,1,,,,,,0
262,1330005008046,登記記録の閉鎖等,0,2023-12-22,2023-12-18,一般社団法人はっぴー福祉会,,その他の設立登記法人,北海道,石狩郡当別町,若葉２２６３番地４,,01,303,0610204,,,2023-12-18,清算の結了等,,,2015-10-05,1,,,,,ハッピーフクシカイ,0
267,1350001007636,登記記録の閉鎖等,0,2023-12-22,2023-12-15,株式会社健康堂治療院,,株式会社,宮崎県,宮崎市,花ケ島町赤江町１３０９番地,,45,201,8800036,,,2023-12-15,清算の結了等,,,2015-10-05,1,,,,,ケンコウドウチリョウイン,0
270,1350002009846,登記記録の閉鎖等,0,2023-12-22,2023-12-15,有限会社翔太朗,,有限会社,宮崎県,児湯郡高鍋町,大字北高鍋５２５６番地,,45,401,8840002,,,2023-12-15,清算の結了等,,,2015-10-05,1,,,,,ショウタロウ,0
272,1360003008631,登記記録の閉鎖等,0,2023-12-22,2023-12-19,スクラット合同会社,,合同会社,沖縄県,豊見城市,宜保４丁目２番地９－４０３号,,47,212,9010244,,,2023-12-19,清算の結了等,,,2018-02-02,1,,,,,スクラット,0
274,1360005004348,登記記録の閉鎖等,0,2023-12-22,2023-12-15,一般社団法人宜野湾市はごろも緑花会,,その他の設立登記法人,沖縄県,宜野湾市,上原１丁目２３番１２号,,47,205,9012204,,,2023-12-15,清算の結了等,,,2015-10-05,1,,,,,ギノワンシハゴロモリョッカカイ,0
283,1430001078685,登記記録の閉鎖等,0,2023-12-22,2023-12-20,株式会社ノースアーキテクツスタジオ,,株式会社,北海道,札幌市中央区,北一条西２０丁目２番１号,,01,101,0640821,,,2023-12-20,清算の結了等,,,2019-04-04,1,,,,,ノースアーキテクツスタジオ,0
290,1470002004430,登記記録の閉鎖等,0,2023-12-22,2023-12-19,有限会社多田工作所,,有限会社,香川県,高松市,松島町３丁目２番３８号,,37,201,7600068,,,2023-12-19,清算の結了等,,,2015-10-05,1,,,,,タダコウサクショ,0
297,1500001024789,登記記録の閉鎖等,0,2023-12-22,2023-12-20,大成印刷株式会社,,株式会社,愛媛県,四国中央市,村松町１０９番地,,38,213,7990401,,,2023-12-20,清算の結了等,,,2023-03-10,1,,,,,タイセイインサツ,0
308,2010001144413,登記記録の閉鎖等,0,2023-12-22,2023-12-18,株式会社ＣＰジャパン,,株式会社,東京都,中央区,日本橋浜町２丁目６１番１１号飯森ビル,,13,102,1030007,,,2023-12-18,清算の結了等,,,2015-10-05,1,,,,,シーピージャパン,0
315,2010001191629,登記記録の閉鎖等,0,2023-12-22,2023-12-18,先進コンサルタンシーズ株式会社,,株式会社,東京都,墨田区,錦糸１丁目２－１アルカセントラル１４階,,13,107,1300013,,,2023-12-18,清算の結了等,,,2018-05-09,1,,,,,センシンコンサルタンシーズ,0
327,2010005024784,登記記録の閉鎖等,0,2023-12-22,2023-12-18,ツクバ特定目的会社,,その他の設立登記法人,東京都,渋谷区,広尾１丁目１１番２号嶋本公認会計士事務所気付,,13,113,1500012,,,2023-12-18,清算の結了等,,,2015-12-25,1,,,,,,0
333,2010401079861,登記記録の閉鎖等,0,2023-12-22,2023-12-14,グローバル・ビジネスサポート株式会社,,株式会社,東京都,港区,六本木１丁目７番２４－８０２号,,13,103,1060032,,,2023-12-14,清算の結了等,,,2015-10-05,1,,,,,グローバルビジネスサポート,0
341,2010403015864,登記記録の閉鎖等,0,2023-12-22,2023-12-19,ＨＷソーラーパワー２１合同会社,,合同会社,東京都,港区,芝４丁目１０番１号,,13,103,1080014,,,2023-12-19,清算の結了等,,,2017-01-04,1,,,,,,0
344,2010703006332,登記記録の閉鎖等,0,2023-12-22,2023-12-14,福岡牧場ホールディングス合同会社,,合同会社,東京都,江東区,豊洲５丁目６番２９－１２３０号,,13,108,1350061,,,2023-12-14,清算の結了等,,,2022-07-25,1,,,,,フクオカボクジョウホールディングス,0
359,2011105005716,登記記録の閉鎖等,0,2023-12-22,2023-12-20,一般社団法人セブンスター,,その他の設立登記法人,東京都,新宿区,四谷２丁目９番地１５あると綜合事務所内,,13,104,1600004,,,2023-12-20,清算の結了等,,,2015-10-05,1,,,,,セブンスター,0
360,2011201017755,登記記録の閉鎖等,0,2023-12-22,2023-12-19,株式会社ハルソラ,,株式会社,東京都,調布市,調布ケ丘３丁目５０番地２,,13,208,1820021,,,2023-12-19,清算の結了等,,,2015-10-05,1,,,,,ハルソラ,0
371,2011702006075,登記記録の閉鎖等,0,2023-12-22,2023-12-19,有限会社鈴木屋呉服店,,有限会社,東京都,江戸川区,船堀２丁目２１番１０号,,13,123,1340091,,,2023-12-19,清算の結了等,,,2015-10-05,1,,,,,,0
374,2011803005281,登記記録の閉鎖等,0,2023-12-22,2023-12-18,合同会社ＨＫＮＡＰ　ＣＯＮＳＵＬＴＩＮＧ,,合同会社,東京都,足立区,千住大川町１番９号,,13,121,1200031,,,2023-12-18,清算の結了等,,,2022-09-30,1,,,,,エイチケイエヌエーピーコンサルティング,0
379,2012301012274,登記記録の閉鎖等,0,2023-12-22,2023-12-15,株式会社ＳｕｒｉＳｕｐｉ,,株式会社,東京都,町田市,西成瀬２丁目３番３２号,,13,209,1940046,,,2023-12-15,清算の結了等,,,2020-09-28,1,,,,,スリスピ,0
380,2012302004931,登記記録の閉鎖等,0,2023-12-22,2023-12-14,有限会社山本製作所,,有限会社,東京都,町田市,忠生２丁目１２番地２,,13,209,1940035,,,2023-12-14,清算の結了等,,,2015-10-05,1,,,,,ヤマモトセイサクショ,0
381,2012303000987,登記記録の閉鎖等,0,2023-12-22,2023-12-18,合同会社ミクシバ,,合同会社,東京都,町田市,高ヶ坂２丁目４３番１９号,,13,209,1940014,,,2023-12-18,清算の結了等,,,2017-02-06,1,,,,,ミクシバ,0
390,2020001068438,登記記録の閉鎖等,0,2023-12-22,2023-12-15,富士パッケージ株式会社,,株式会社,神奈川県,川崎市宮前区,水沢１丁目１番１号,,14,136,2160012,,,2023-12-15,清算の結了等,,,2015-10-05,1,,,,,フジパッケージ,0
391,2020001100200,登記記録の閉鎖等,0,2023-12-22,2023-11-17,株式会社ＯＮＥ　ｆｏｒ　Ａｎｉｍａｌｓ,,株式会社,神奈川県,横浜市港北区,新横浜２丁目５番地１４ＷＩＳＥＮＥＸＴ新横浜３階,,14,109,2220033,,,2023-11-17,合併による解散等,1010401175950,令和５年１１月１日東京都港区虎ノ門一丁目３番１号株式会社ＪＧ１９（1010401175950）に合併し解散,2015-10-05,1,,,,,ワンフォーアニマルズ,0
396,2020002035073,登記記録の閉鎖等,0,2023-12-22,2023-12-18,有限会社長嶋金属,,有限会社,神奈川県,横浜市港北区,大倉山５丁目１５番１７号,,14,109,2220037,,,2023-12-18,清算の結了等,,,2015-10-05,1,,,,,ナガシマキンゾク,0
397,2020002095209,登記記録の閉鎖等,0,2023-12-22,2023-12-18,有限会社吉川クリーン,00011622,有限会社,神奈川県,川崎市麻生区,細山４丁目２４番１４号,,14,137,2150001,,,2023-12-18,清算の結了等,,,2015-10-05,1,,,,,ヨシカワクリーン,0
403,2021001078096,登記記録の閉鎖等,0,2023-12-22,2023-12-19,株式会社へうげ,,株式会社,神奈川県,秦野市,北矢名３９０番地の１１,,14,211,2570006,,,2023-12-19,清算の結了等,,,2023-02-01,1,,,,,ヘウゲ,0
414,2030002091082,登記記録の閉鎖等,0,2023-12-22,2023-12-18,小林建設有限会社,,有限会社,埼玉県,越谷市,東大沢４丁目１番地８,,11,222,3430022,,,2023-12-18,清算の結了等,,,2015-10-05,1,,,,,コバヤシケンセツ,0
427,2050001023241,登記記録の閉鎖等,0,2023-12-22,2023-12-19,株式会社新栄エンジニアリング,,株式会社,茨城県,常陸太田市,春友町６１番地,,08,212,3110321,,,2023-12-19,清算の結了等,,,2015-10-05,1,,,,,シンエイエインジニアリング,0
447,2100001012560,登記記録の閉鎖等,0,2023-12-22,2023-12-14,株式会社あいあい,,株式会社,長野県,飯山市,大字飯山２１２８番地２２,,20,213,3892253,,,2023-12-14,清算の結了等,,,2015-10-05,1,,,,,アイアイ,0
449,2100002021783,登記記録の閉鎖等,0,2023-12-22,2023-12-15,有限会社ミヤサカ印刷,,有限会社,長野県,松本市,大字島立１１４４番地の１,,20,202,3900852,,,2023-12-15,清算の結了等,,,2015-10-05,1,,,,,ミヤサカインサツ,0
452,2100002026213,登記記録の閉鎖等,0,2023-12-22,2023-12-18,大町商事有限会社,,有限会社,長野県,大町市,大町４２０２番地ロ号,,20,212,3980002,,,2023-12-18,清算の結了等,,,2015-10-05,1,,,,,オオマチショウジ,0
485,2140002063888,登記記録の閉鎖等,0,2023-12-22,2023-12-20,有限会社林電業所,,有限会社,兵庫県,伊丹市,緑ケ丘２丁目１０５番地,,28,207,6640012,,,2023-12-20,清算の結了等,,,2015-10-05,1,,,,,ハヤシデンギョウショ,0
488,2140005001201,登記記録の閉鎖等,0,2023-12-22,2023-11-15,天理教廣神分教会,00041967,その他の設立登記法人,兵庫県,神戸市灘区,薬師通３丁目３番１３号,,28,102,6570815,,,2023-11-15,合併による解散等,3140005019309,令和５年１１月１５日兵庫県洲本市宇山三丁目１番１号天理教洲本大教会（3140005019309）に合併し解散,2015-10-05,1,,,,,,0
491,2150001007168,登記記録の閉鎖等,0,2023-12-22,2023-12-21,前平自動車株式会社,,株式会社,奈良県,生駒郡斑鳩町,龍田西６丁目１番３３号,00042810,29,344,6360154,,,2023-12-21,清算の結了等,,,2015-10-05,1,,,,,マエヒラジドウシャ,0
495,2160001008909,登記記録の閉鎖等,0,2023-12-22,2023-12-20,株式会社ラフォーレ,,株式会社,滋賀県,愛知郡愛荘町,市８０２番地,,25,425,5291313,,,2023-12-20,清算の結了等,,,2015-10-05,1,,,,,ラフォーレ,0
520,2190002000985,登記記録の閉鎖等,0,2023-12-22,2023-12-20,有限会社ツツイスタジオ,,有限会社,三重県,津市,大谷町９７番地の５７,,24,201,5140007,,,2023-12-20,清算の結了等,,,2015-10-05,1,,,,,ツツイスタジオ,0
522,2210002014438,登記記録の閉鎖等,0,2023-12-22,2023-12-18,田中合繊織物有限会社,,有限会社,福井県,福井市,小路町第９号２３番地,,18,201,9102166,,,2023-12-18,清算の結了等,,,2023-04-06,1,,,,,タナカゴウセンオリモノ,0
531,2260002004970,登記記録の閉鎖等,0,2023-12-22,2023-12-20,有限会社島田一建設,,有限会社,岡山県,岡山市北区,田益１３８４番地,,33,101,7011154,,,2023-12-20,清算の結了等,,,2015-10-05,1,,,,,シマダハジメケンセツ,0
533,2290001077370,登記記録の閉鎖等,0,2023-12-22,2023-12-14,株式会社クラウドｉ,,株式会社,福岡県,久留米市,宮ノ陣４丁目２９番１１号,,40,203,8390801,,,2023-12-14,合併による解散等,8290001057697,令和５年１２月１日福岡県久留米市宮ノ陣四丁目２９番１１号株式会社ＢＢネットワークス（8290001057697）に合併し解散,2017-04-10,1,,,,,クラウドアイ,0
540,2290002007401,登記記録の閉鎖等,0,2023-12-22,2023-12-14,有限会社友泉亭ハイツ,,有限会社,福岡県,福岡市城南区,友泉亭１番４８号,,40,136,8140122,,,2023-12-14,清算の結了等,,,2015-10-05,1,,,,,ユウセンテイハイツ,0
542,2290002053552,登記記録の閉鎖等,0,2023-12-22,2023-12-14,有限会社大龍サッシ・ガラス店,,有限会社,福岡県,大川市,大字大野島１３８９番地の１,,40,212,8310045,,,2023-12-14,清算の結了等,,,2015-10-05,1,,,,,ダイリュウサッシガラステン,0
543,2290003003622,登記記録の閉鎖等,0,2023-12-22,2023-12-18,ＷＥＡＶＯ合同会社,,合同会社,東京都,千代田区,大手町１丁目７－２東京サンケイビル２７階,,13,101,1000004,,,2023-12-18,清算の結了等,,,2015-10-05,1,,,,,ウィーボ,0
552,2310002016845,登記記録の閉鎖等,0,2023-12-22,2023-12-18,有限会社南高運輸,,有限会社,長崎県,雲仙市,国見町神代乙４１５番地３,,42,213,8591302,,,2023-12-18,清算の結了等,,,2015-10-05,1,,,,,ナンコウウンユ,0
565,2360003010487,登記記録の閉鎖等,0,2023-12-22,2023-12-18,合同会社クニミ,,合同会社,沖縄県,沖縄市,安慶田４丁目１５番１２－２０１号室,,47,211,9040012,,,2023-12-18,清算の結了等,,,2020-08-14,1,,,,,クニミ,0
568,2370002004646,登記記録の閉鎖等,0,2023-12-22,2023-12-20,有限会社越後屋染物店,,有限会社,宮城県,仙台市若林区,南染師町３８番地,,04,103,9840814,,,2023-12-20,清算の結了等,,,2015-10-05,1,,,,,エチゴヤソメモノテン,0
569,2370005000618,登記記録の閉鎖等,0,2023-12-22,2023-11-06,天理教本福神分教会,,その他の設立登記法人,宮城県,仙台市若林区,東七番丁１番地の６,,04,103,9840074,,,2023-11-06,合併による解散等,9370005000594,令和５年１１月６日仙台市宮城野区福田町一丁目１３番５号天理教本福富分教会（9370005000594）に合併し解散,2015-10-05,1,,,,,テンリキョウホンフクジンブンキョウカイ,0
573,2380002031631,登記記録の閉鎖等,0,2023-12-22,2023-12-20,有限会社北食品,,有限会社,福島県,会津若松市,金川町１１番６号,,07,202,9650056,,,2023-12-20,清算の結了等,,,2015-10-05,1,,,,,キタショクヒン,0
580,2410002003296,登記記録の閉鎖等,0,2023-12-22,2023-12-20,有限会社ふれんず,,有限会社,秋田県,秋田市,新屋表町１２番５０号,,05,201,0101638,,,2023-12-20,清算の結了等,,,2015-10-05,1,,,,,フレンズ,0
587,2430002014390,登記記録の閉鎖等,0,2023-12-22,2023-12-15,有限会社中里商店,,有限会社,北海道,札幌市中央区,大通西２４丁目１番１２号,,01,101,0640820,,,2023-12-15,清算の結了等,,,2015-10-05,1,,,,,ナカサトショウテン,0
591,2430005010437,登記記録の閉鎖等,0,2023-12-22,2023-12-18,特定非営利活動法人ＦＯＯＤ’Ｓ北海道発進本部,,その他の設立登記法人,北海道,札幌市清田区,北野二条１丁目２番１４号,,01,110,0040862,,,2023-12-18,清算の結了等,,,2015-10-05,1,,,,,フーズホッカイドウハッシンホンブ,0
593,2450002008812,登記記録の閉鎖等,0,2023-12-22,2023-12-21,ホムズ有限会社,,有限会社,北海道,旭川市,神楽四条１４丁目２番５号エスティシーク４１４　３０２号室,,01,204,0708004,,,2023-12-21,清算の結了等,,,2015-10-05,1,,,,,ホムズ,0
595,2470005000021,登記記録の閉鎖等,0,2023-12-22,2023-11-21,天理教本庵治分教会,,その他の設立登記法人,香川県,高松市,庵治町字浜１０２３番地,,37,201,7610130,,,2023-11-21,合併による解散等,4120005000459,令和５年１１月２０日大阪市生野区林寺四丁目２番２５号天理教本阪分教会（4120005000459）に合併し解散,2015-10-05,1,,,,,テンリキョウホンアジブンキョウカイ,0
596,2480001007250,登記記録の閉鎖等,0,2023-12-22,2023-12-20,株式会社マリ薬局,,株式会社,徳島県,阿南市,那賀川町敷地３８番地５,,36,204,7791115,,,2023-12-20,清算の結了等,,,2015-10-05,1,,,,,マリヤッキョク,0
627,3010902013673,登記記録の閉鎖等,0,2023-12-22,2023-12-19,有限会社ベストダイヤ工業,,有限会社,東京都,世田谷区,北烏山８丁目４番１２号,,13,112,1570061,,,2023-12-19,清算の結了等,,,2015-10-05,1,,,,,ベストダイヤコウギョウ,0
653,3011402018881,登記記録の閉鎖等,0,2023-12-22,2023-12-19,有限会社ＴｉＳ,,有限会社,東京都,板橋区,成増１丁目１８番１７号,,13,119,1750094,,,2023-12-19,清算の結了等,,,2015-10-05,1,,,,,ティーアイエス,0
654,3011703002254,登記記録の閉鎖等,0,2023-12-22,2023-12-19,合同会社Ｒｏｍａｎｃｉｎｇ　Ｇｉｇａｔｅｃｈｓ,,合同会社,東京都,江戸川区,春江町４丁目８番地７－７０８,,13,123,1340003,,,2023-12-19,清算の結了等,,,2019-06-04,1,,,,,ロマンシングギガテックス,0
655,3011801016957,登記記録の閉鎖等,0,2023-12-22,2023-12-15,株式会社ＫＯＴ,,株式会社,東京都,足立区,六木３丁目３４番９号,,13,121,1210052,,,2023-12-15,清算の結了等,,,2015-10-05,1,,,,,,0
656,3011802001330,登記記録の閉鎖等,0,2023-12-22,2023-12-19,オーク・インテリア有限会社,,有限会社,東京都,葛飾区,東立石４丁目３６番６号,,13,122,1240013,,,2023-12-19,清算の結了等,,,2015-10-05,1,,,,,オークインテリア,0
663,3013102006175,登記記録の閉鎖等,0,2023-12-22,2023-12-20,有限会社シバヤマ,,有限会社,東京都,青梅市,新町５丁目３５番地の２０,,13,205,1980024,,,2023-12-20,清算の結了等,,,2015-10-05,1,,,,,シバヤマ,0
674,3020002006908,登記記録の閉鎖等,0,2023-12-22,2023-12-15,有限会社ボデーショップパスコ,,有限会社,神奈川県,横浜市都筑区,茅ケ崎中央６２番２２号,,14,118,2240032,,,2023-12-15,清算の結了等,,,2015-10-05,1,,,,,ボデーショップパスコ,0
683,3021003003860,登記記録の閉鎖等,0,2023-12-22,2023-12-15,合同会社ジンパシフィック,,合同会社,神奈川県,藤沢市,片瀬４丁目１番１９号,,14,205,2510032,,,2023-12-15,清算の結了等,,,2015-10-05,1,,,,,ジンパシフィック,0
702,3040001112985,登記記録の閉鎖等,0,2023-12-22,2023-12-14,株式会社くじゅうくり,,株式会社,千葉県,いすみ市,弥正２６７番地４,,12,238,2980124,,,2023-12-14,清算の結了等,,,2020-03-24,1,,,,,クジュウクリ,0
712,3050001052388,登記記録の閉鎖等,0,2023-12-22,2023-12-05,後藤建設工業株式会社,,株式会社,茨城県,坂東市,岩井４９８６番地の１,,08,228,3060631,,,2023-12-05,清算の結了等,,,2023-02-16,1,,,,,,0
715,3060001002532,登記記録の閉鎖等,0,2023-12-22,2023-12-14,第一電機株式会社,,株式会社,栃木県,宇都宮市,旭２丁目２番５号,,09,201,3200818,,,2023-12-14,清算の結了等,,,2015-10-05,1,,,,,ダイイチデンキ,0
727,3080101009962,登記記録の閉鎖等,0,2023-12-22,2023-12-20,株式会社若松製作所,,株式会社,静岡県,富士市,厚原１６０９番地の１,,22,210,4190201,,,2023-12-20,清算の結了等,,,2015-10-05,1,,,,,ワカマツセイサクショ,0
731,3080103001471,登記記録の閉鎖等,0,2023-12-22,2023-12-18,合同会社クーニーズ,,合同会社,東京都,足立区,佐野２丁目４番１１－１０３号,,13,121,1210053,,,2023-12-18,清算の結了等,,,2015-10-05,1,,,,,クーニーズ,0
735,3100002007724,登記記録の閉鎖等,0,2023-12-22,2023-12-18,株式会社アフタートーン,,株式会社,長野県,長野市,川中島町上氷鉋１６８５番地１３,,20,201,3812233,,,2023-12-18,清算の結了等,,,2015-10-05,1,,,,,アフタートーン,0
737,3100005006426,登記記録の閉鎖等,0,2023-12-22,2023-12-19,特定非営利活動法人あづみ野風土舎,,その他の設立登記法人,長野県,安曇野市,堀金烏川４８８３番地の５,,20,220,3998211,,,2023-12-19,清算の結了等,,,2015-10-05,1,,,,,アヅミノフウドシャ,0
743,3120001125392,登記記録の閉鎖等,0,2023-12-22,2023-12-15,株式会社湊機工,,株式会社,大阪府,大阪市此花区,伝法５丁目１２番２６号,,27,104,5540002,,,2023-12-15,清算の結了等,,,2015-10-05,1,,,,,ミナトキコウ,0
753,3120901029998,登記記録の閉鎖等,0,2023-12-22,2023-12-18,株式会社Ｋテック,,株式会社,大阪府,豊中市,蛍池西町一丁目２６番２号,,27,203,5600000,,,2023-12-18,清算の結了等,,,2015-10-05,1,,,,,ケイテック,0
763,3140001119327,登記記録の閉鎖等,0,2023-12-22,2023-12-18,株式会社ＧＹＯＫＵＴＯ,,株式会社,兵庫県,西宮市,神園町３番１０号,,28,204,6620027,,,2023-12-18,清算の結了等,,,2020-11-05,1,,,,,ギョクトウ,0
773,3150005002362,登記記録の閉鎖等,0,2023-12-22,2023-11-21,天理教本美阪分教会,,その他の設立登記法人,奈良県,生駒市,南田原町１５２番地,,29,209,6300135,,,2023-11-21,合併による解散等,4120005000459,令和５年１１月２０日大阪市生野区林寺四丁目２番２５号天理教本阪分教会（4120005000459）に合併し解散,2015-10-05,1,,,,,,0
774,3160002008477,登記記録の閉鎖等,0,2023-12-22,2023-12-19,有限会社濱川介護サービス,00044656,有限会社,滋賀県,彦根市,城町２丁目７番３５号,,25,202,5220068,,,2023-12-19,清算の結了等,,,2015-10-05,1,,,,,ハマカワカイゴサービス,0
792,3190002005934,登記記録の閉鎖等,0,2023-12-22,2023-12-19,株式会社飯田,,株式会社,三重県,鈴鹿市,住吉町６５５１番地の１,,24,207,5130825,,,2023-12-19,清算の結了等,,,2015-10-05,1,,,,,イイダ,0
793,3190002015405,登記記録の閉鎖等,0,2023-12-22,2023-12-19,有限会社中世古自動車,,有限会社,三重県,度会郡大紀町,崎２１９９番地２,,24,471,5192802,,,2023-12-19,清算の結了等,,,2015-10-05,1,,,,,ナカセコジドウシャ,0
794,3190005000016,登記記録の閉鎖等,0,2023-12-22,2023-11-21,天理教本＿分教会,00076207,その他の設立登記法人,三重県,津市,半田字奥中面３２５０番地の３４,,24,201,5140823,,,2023-11-21,合併による解散等,4120005000459,令和５年１１月２０日大阪市生野区林寺四丁目２番２５号天理教本阪分教会（4120005000459）に合併し解散,2015-10-05,1,,,,,テンリキョウホンカブンキョウカイ,0
797,3200002016707,登記記録の閉鎖等,0,2023-12-22,2023-12-20,有限会社兼鈴建設,,有限会社,岐阜県,加茂郡富加町,滝田１０６３番地の７,,21,502,5013305,,,2023-12-20,清算の結了等,,,2015-10-05,1,,,,,カネスズケンセツ,0
806,3250002012585,登記記録の閉鎖等,0,2023-12-22,2023-12-15,有限会社くるみ薬局,,有限会社,山口県,下関市,清末鞍馬３丁目２１８４番地１０,,35,201,7501153,,,2023-12-15,清算の結了等,,,2015-10-05,1,,,,,クルミヤッキョク,0
808,3260002000036,登記記録の閉鎖等,0,2023-12-22,2023-12-21,アサヒ不動産有限会社,,有限会社,岡山県,岡山市北区,東古松４丁目２番５号,,33,101,7000921,,,2023-12-21,清算の結了等,,,2015-10-05,1,,,,,アサヒフドウサン,0
810,3280002005207,登記記録の閉鎖等,0,2023-12-22,2023-12-20,出雲部品有限会社,,有限会社,島根県,出雲市,今市町北本町２丁目３番地１９,,32,203,6930002,,,2023-12-20,清算の結了等,,,2015-10-05,1,,,,,イズモブヒン,0
811,3280002009661,登記記録の閉鎖等,0,2023-12-22,2023-12-20,有限会社三宅建設,,有限会社,島根県,邑智郡邑南町,矢上１７１番地１,,32,449,6960103,,,2023-12-20,清算の結了等,,,2015-10-05,1,,,,,ミヤケケンセツ,0
814,3290001098556,登記記録の閉鎖等,0,2023-12-22,2023-12-15,株式会社ネクストリープ,,株式会社,福岡県,宗像市,稲元４丁目１５番３３－１０５号,,40,220,8113406,,,2023-12-15,清算の結了等,,,2022-08-12,1,,,,,ネクストリープ,0
826,3320001006564,登記記録の閉鎖等,0,2023-12-22,2023-12-21,株式会社ホテル三泉閣,,株式会社,大分県,別府市,北浜３丁目６番２３号,,44,202,8740920,,,2023-12-21,清算の結了等,,,2015-10-05,1,,,,,ホテルサンセンカク,0
830,3330002020258,登記記録の閉鎖等,0,2023-12-22,2023-12-01,有限会社協信商事,,有限会社,熊本県,上益城郡山都町,白小野９３９番地の１,,43,447,8613522,,,2023-12-01,清算の結了等,,,2015-10-05,1,,,,,キョウシンショウジ,0
843,3370001016641,登記記録の閉鎖等,0,2023-12-22,2023-12-21,東日本テクノス株式会社,,株式会社,宮城県,仙台市若林区,六丁の目元町１３番６号,,04,103,9840014,,,2023-12-21,清算の結了等,,,2015-10-05,1,,,,,,0
851,3390002000147,登記記録の閉鎖等,0,2023-12-22,2023-12-20,有限会社安有実建設,,有限会社,山形県,山形市,大字十文字１６８５番地５,,06,201,9902211,,,2023-12-20,清算の結了等,,,2015-10-05,1,,,,,アユミケンセツ,0
865,3480001007778,登記記録の閉鎖等,0,2023-12-22,2023-12-20,森林研究所株式会社,,株式会社,徳島県,三好郡東みよし町,昼間５７３番地２,,36,489,7712501,,,2023-12-20,清算の結了等,,,2015-10-05,1,,,,,シンリンケンキュウショ,0
873,4010001221152,登記記録の閉鎖等,0,2023-12-22,2023-12-18,株式会社Ｐｒｅｍｏ　Ｒ＆Ｄ,,株式会社,東京都,中央区,日本橋小舟町３番１号,,13,102,1030024,,,2023-12-18,清算の結了等,,,2021-09-15,1,,,,,プレモアールアンドディー,0
875,4010003036425,登記記録の閉鎖等,0,2023-12-22,2023-12-15,ＮＯＲＯＳＨＩ合同会社,,合同会社,東京都,千代田区,平河町１丁目６－１５ＵＳビル８階,,13,101,1020093,,,2023-12-15,清算の結了等,,,2021-11-26,1,,,,,ノロシ,0
876,4010003037778,登記記録の閉鎖等,0,2023-12-22,2023-12-18,合同会社ＫＳ東梅田,,合同会社,東京都,千代田区,神田神保町１丁目１１番地さくら綜合事務所内,,13,101,1010051,,,2023-12-18,清算の結了等,,,2022-06-01,1,,,,,ケイエスヒガシウメダ,0
899,4010901023656,登記記録の閉鎖等,0,2023-12-22,2023-12-18,博陽興業株式会社,,株式会社,東京都,世田谷区,桜上水３丁目７番１８号,,13,112,1560045,,,2023-12-18,清算の結了等,,,2015-10-05,1,,,,,ハクヨウコウギョウ,0
902,4010902011346,登記記録の閉鎖等,0,2023-12-22,2023-12-15,有限会社日本セルボ,,有限会社,東京都,世田谷区,赤堤２丁目１６番４－２０２号,,13,112,1560044,,,2023-12-15,清算の結了等,,,2015-10-05,1,,,,,ニホンセルボ,0
951,4020002104693,登記記録の閉鎖等,0,2023-12-22,2023-12-18,有限会社九十白舎,,有限会社,神奈川県,川崎市宮前区,野川本町１丁目３０番２１号,,14,136,2160041,,,2023-12-18,清算の結了等,,,2015-10-05,1,,,,,コトアゲシャ,0
958,4021001056777,登記記録の閉鎖等,0,2023-12-22,2023-12-19,株式会社ハイフィデリティー・パートナーズ,,株式会社,神奈川県,足柄下郡湯河原町,吉浜１９２１番地の５０,,14,384,2590312,,,2023-12-19,清算の結了等,,,2015-10-05,1,,,,,,0
968,4030001073336,登記記録の閉鎖等,0,2023-12-22,2023-12-05,広重産業株式会社,,株式会社,埼玉県,川口市,大字辻７６４番地,00129806,11,203,3340004,,,2023-12-05,清算の結了等,,,2023-03-24,1,,,,,ヒロシゲサンギョウ,0
978,4030002020758,登記記録の閉鎖等,0,2023-12-22,2023-12-18,有限会社岡田,,有限会社,埼玉県,さいたま市岩槻区,城南５丁目６番１０号,,11,110,3390043,,,2023-12-18,清算の結了等,,,2015-10-05,1,,,,,オカダ,0
981,4030003012317,登記記録の閉鎖等,0,2023-12-22,2023-12-13,ＫＮＺ合同会社,,合同会社,埼玉県,東松山市,旗立台７番地５,,11,212,3550054,,,2023-12-13,清算の結了等,,,2018-08-16,1,,,,,ケーエヌゼット,0
1002,4070001013569,登記記録の閉鎖等,0,2023-12-22,2023-12-20,デンカテクノアドバンス株式会社,,株式会社,群馬県,伊勢崎市,長沼町西河原２４５番地,,10,204,3720855,,,2023-12-20,清算の結了等,,,2015-10-05,1,,,,,デンカテクノアドバンス,0
1017,4110001027787,登記記録の閉鎖等,0,2023-12-22,2023-12-14,株式会社メタル・アート,,株式会社,新潟県,佐渡市,羽茂三瀬６６６番地,,15,224,9520505,,,2023-12-14,清算の結了等,,,2015-10-05,1,,,,,メタルアート,0
1036,4120101027315,登記記録の閉鎖等,0,2023-12-22,2023-12-21,株式会社あきんど,,株式会社,大阪府,松原市,立部１丁目２００番地の４,,27,217,5800012,,,2023-12-21,清算の結了等,,,2015-10-05,1,,,,,アキンド,0
1040,4120101064671,登記記録の閉鎖等,0,2023-12-22,2023-12-21,松山建設株式会社,,株式会社,大阪府,和泉市,春木町８６６番地の１,,27,219,5941141,,,2023-12-21,清算の結了等,,,2021-11-17,1,,,,,マツヤマケンセツ,0
1043,4120903003216,登記記録の閉鎖等,0,2023-12-22,2023-12-15,合同会社阪上教育研究所,,合同会社,大阪府,三島郡島本町,桜井１丁目８－１シャンブル水無瀬１０３,,27,301,6180022,,,2023-12-15,清算の結了等,,,2020-05-19,1,,,,,サカガミキョウイクケンキュウジョ,0
1070,4140005001348,登記記録の閉鎖等,0,2023-12-22,2023-11-29,天理教二葉分教会,,その他の設立登記法人,兵庫県,神戸市須磨区,飛松町１丁目３番２号,,28,107,6540012,,,2023-11-29,合併による解散等,7140005008514,令和５年１１月２９日兵庫県丹波市氷上町上成松１３５番地天理教氷上分教会（7140005008514）に合併し解散,2015-10-05,1,,,,,,0
1072,4150001025622,登記記録の閉鎖等,0,2023-12-22,2023-12-15,東山工業株式会社,,株式会社,奈良県,奈良市,西登美ヶ丘３丁目２番７号,,29,201,6310006,,,2023-12-15,清算の結了等,,,2022-06-16,1,,,,,ヒガシヤマコウギョウ,0
1073,4160005007459,登記記録の閉鎖等,0,2023-12-22,2023-12-19,農事組合法人岡農事改良組合,,その他の設立登記法人,滋賀県,高島市,新旭町饗庭２２８６番地の１,00045112,25,212,5201531,,,2023-12-19,清算の結了等,,,2015-10-05,1,,,,,オカノウジカイリョウクミアイ,0
1075,4170002009589,登記記録の閉鎖等,0,2023-12-22,2023-12-19,有限会社小山獣医科,,有限会社,和歌山県,西牟婁郡上富田町,朝来１３０４番地の５,,30,404,6492105,,,2023-12-19,清算の結了等,,,2015-10-05,1,,,,,コヤマジュウイカ,0
1076,4180001024068,登記記録の閉鎖等,0,2023-12-22,2023-12-12,株式会社ナゴヤポーセレンデンタルスタジオ,,株式会社,愛知県,名古屋市天白区,池場５丁目１３０５番地,,23,116,4680055,,,2023-12-12,清算の結了等,,,2015-10-05,1,,,,,ナゴヤポーセレンデンタルスタジオ,0
1081,4180301015337,登記記録の閉鎖等,0,2023-12-22,2023-12-13,株式会社だるまや,,株式会社,愛知県,碧南市,千福町５丁目３２番地,,23,209,4470056,,,2023-12-13,清算の結了等,,,2015-10-05,1,,,,,ダルマヤ,0
1089,4190002001676,登記記録の閉鎖等,0,2023-12-22,2023-12-20,有限会社夢テレビ,,有限会社,三重県,津市,栗真町屋町８０４番地,,24,201,5140102,,,2023-12-20,清算の結了等,,,2015-10-05,1,,,,,ユメテレビ,0
1094,4230005008706,登記記録の閉鎖等,0,2023-12-22,2023-12-21,一般社団法人なないろ１０,,その他の設立登記法人,富山県,富山市,月岡町４丁目７１２番地２,,16,201,9398132,,,2023-12-21,清算の結了等,,,2016-06-22,1,,,,,ナナイロテン,0
1101,4280005005418,登記記録の閉鎖等,0,2023-12-22,2023-11-15,天理教龍石和分教会,,その他の設立登記法人,島根県,鹿足郡吉賀町,朝倉字仮屋田１００４番地１,,32,505,6995523,,,2023-11-15,合併による解散等,1280005005379,令和５年８月２日島根県鹿足郡津和野町寺田７６３番地の２天理教西長分教会（1280005005379）に合併し解散,2015-10-05,1,,,,,テンリキョウリュウセキワブンキョウカイ,0
1103,4290001074606,登記記録の閉鎖等,0,2023-12-22,2023-12-15,株式会社ＡＱＵＡＳ,,株式会社,福岡県,糟屋郡新宮町,大字三代９９６番地１ブランシュネージュ　モリ２０２号,,40,345,8110111,,,2023-12-15,清算の結了等,,,2016-07-21,1,,,,,アクアス,0
1120,4310001001508,登記記録の閉鎖等,0,2023-12-22,2023-12-12,株式会社長崎木材センター,,株式会社,長崎県,長崎市,田中町６１３番地,,42,201,8510134,,,2023-12-12,清算の結了等,,,2015-10-05,1,,,,,,0
1121,4310001012422,登記記録の閉鎖等,0,2023-12-22,2023-12-21,株式会社プレショク,,株式会社,長崎県,長崎市,築町４番１５号萬徳ビル５Ｆ,,42,201,8500877,,,2023-12-21,清算の結了等,,,2015-10-05,1,,,,,プレショク,0
1123,4330002018276,登記記録の閉鎖等,0,2023-12-22,2023-12-15,有限会社オームライト熊本,,有限会社,熊本県,菊池郡大津町,大字大津１４９５番地５,,43,403,8691233,,,2023-12-15,清算の結了等,,,2015-10-05,1,,,,,,0
1151,4470005002890,登記記録の閉鎖等,0,2023-12-22,2023-12-14,善通寺市土地開発公社,,その他の設立登記法人,香川県,善通寺市,文京町２丁目１番１号,,37,204,7650013,,,2023-12-14,清算の結了等,,,2015-10-05,1,,,,,ゼンツウジシ,0
1153,4480005000778,登記記録の閉鎖等,0,2023-12-22,2023-12-21,協同組合ユニオンウッド,,その他の設立登記法人,徳島県,名西郡石井町,高川原字加茂野３０９番の１,,36,341,7793224,,,2023-12-21,清算の結了等,,,2015-10-05,1,,,,,ユニオンウッド,0
1158,5010001006404,登記記録の閉鎖等,0,2023-12-22,2023-12-15,株式会社橋本義肢製作所,,株式会社,東京都,文京区,本郷３丁目４番３号,,13,105,1130033,,,2023-12-15,清算の結了等,,,2015-10-05,1,,,,,ハシモトギシセイサクショ,0
1161,5010001143924,登記記録の閉鎖等,0,2023-12-22,2023-12-18,株式会社シンクロウェーブ,,株式会社,東京都,中央区,日本橋兜町９番５号,,13,102,1030026,,,2023-12-18,清算の結了等,,,2015-10-05,1,,,,,シンクロウェーブ,0
1190,5010402010434,登記記録の閉鎖等,0,2023-12-22,2023-12-15,有限会社英企画,,有限会社,東京都,港区,新橋４丁目３１番７号,,13,103,1050004,,,2023-12-15,清算の結了等,,,2015-10-05,1,,,,,エイキカク,0
1200,5010602004269,登記記録の閉鎖等,0,2023-12-22,2023-12-15,有限会社スワメデイカル,,有限会社,東京都,江東区,亀戸４丁目１２番１１号,,13,108,1360071,,,2023-12-15,清算の結了等,,,2015-10-05,1,,,,,スワメディカル,0
1201,5010605002484,登記記録の閉鎖等,0,2023-12-22,2023-12-15,東京都宛名協同組合,,その他の設立登記法人,東京都,足立区,千住大川町２３番９号,,13,121,1200031,,,2023-12-15,清算の結了等,,,2015-10-05,1,,,,,トウキョウトアテナ,0
1231,5012302008129,登記記録の閉鎖等,0,2023-12-22,2023-12-19,有限会社星田設計事務所,,有限会社,神奈川県,藤沢市,鵠沼海岸２丁目１６番２～２０１号,,14,205,2510037,,,2023-12-19,清算の結了等,,,2015-10-05,1,,,,,ホシダセッケイジムショ,0
1232,5012401019720,登記記録の閉鎖等,0,2023-12-22,2023-12-19,株式会社アートライフ,,株式会社,東京都,武蔵野市,吉祥寺本町３丁目２３番１６号,,13,203,1800004,,,2023-12-19,清算の結了等,,,2015-10-05,1,,,,,アートライフ,0
1233,5012702006814,登記記録の閉鎖等,0,2023-12-22,2023-12-19,有限会社スリーエフ,,有限会社,東京都,東久留米市,本町１丁目３番３９号,,13,222,2030053,,,2023-12-19,清算の結了等,,,2015-10-05,1,,,,,スリーエフ,0
1251,5020005009344,登記記録の閉鎖等,0,2023-12-22,2023-12-15,特定非営利活動法人日本マリン倶楽部,,その他の設立登記法人,神奈川県,川崎市多摩区,菅５丁目１０－４５－アイランドＡ１０１,,14,135,2140001,,,2023-12-15,清算の結了等,,,2015-10-05,1,,,,,ニホンマリンクラブ,0
1268,5030002041984,登記記録の閉鎖等,0,2023-12-22,2023-12-15,有限会社松屋牛乳,,有限会社,埼玉県,羽生市,中央４丁目４番６号,,11,216,3480058,,,2023-12-15,清算の結了等,,,2015-10-05,1,,,,,マツヤギュウニュウ,0
1275,5040001085965,登記記録の閉鎖等,0,2023-12-22,2023-12-15,株式会社ＳＡＮＴＡ　Ｆａｃｔｏｒｙ,,株式会社,千葉県,茂原市,猿袋７１７番地,,12,210,2970041,,,2023-12-15,清算の結了等,,,2015-10-05,1,,,,,,0
1281,5040002017760,登記記録の閉鎖等,0,2023-12-22,2023-12-15,有限会社ベストフーズコンテンツ,,有限会社,千葉県,千葉市花見川区,大日町１４６９,,12,102,2620004,,,2023-12-15,清算の結了等,,,2015-10-05,1,,,,,ベストフーズコンテンツ,0
1288,5050001016390,登記記録の閉鎖等,0,2023-12-22,2023-12-12,三愛建設株式会社,,株式会社,茨城県,つくば市,下平塚３３１番地の１,,08,220,3050813,,,2023-12-12,清算の結了等,,,2015-10-05,1,,,,,サンアイケンセツ,0
1301,5080002001224,登記記録の閉鎖等,0,2023-12-22,2023-12-20,有限会社オキツ石油,,有限会社,静岡県,静岡市駿河区,中島４８４番地の１,,22,102,4228046,,,2023-12-20,清算の結了等,,,2015-10-05,1,,,,,オキツセキユ,0
1302,5080102012658,登記記録の閉鎖等,0,2023-12-22,2023-12-20,有限会社イーコン,,有限会社,静岡県,三島市,梅名３７７番地の５,,22,206,4110816,,,2023-12-20,清算の結了等,,,2015-10-05,1,,,,,イーコン,0
1308,5090002012955,登記記録の閉鎖等,0,2023-12-22,2023-12-19,有限会社セカンドラベル,,有限会社,山梨県,富士吉田市,上暮地２２２４番（地）３号,,19,202,4030001,,,2023-12-19,清算の結了等,,,2015-10-05,1,,,,,セカンドラベル,0
1326,5120005000557,登記記録の閉鎖等,0,2023-12-22,2023-11-20,天理教本駒分教会,,その他の設立登記法人,大阪府,大阪市東住吉区,南田辺３丁目６番５号,,27,121,5460033,,,2023-11-20,合併による解散等,4120005000459,令和５年１１月２０日大阪市生野区林寺四丁目２番２５号天理教本阪分教会（4120005000459）に合併し解散,2015-10-05,1,,,,,テンリキョウホンコマブンキョウカイ,0
1347,5170001011669,登記記録の閉鎖等,0,2023-12-22,2023-12-01,株式会社丸濱組,,株式会社,和歌山県,東牟婁郡那智勝浦町,大字北浜３丁目２番地,,30,421,6495333,,,2023-12-01,清算の結了等,,,2023-08-25,1,,,,,マルハマグミ,0
1348,5170005004215,登記記録の閉鎖等,0,2023-12-22,2023-12-20,日高清掃事業協同組合,,その他の設立登記法人,和歌山県,日高郡美浜町,大字吉原１０７７番地の１１,,30,381,6440043,,,2023-12-20,清算の結了等,,,2015-10-05,1,,,,,,0
1362,5180302007662,登記記録の閉鎖等,0,2023-12-22,2023-12-13,三協塗装有限会社,,有限会社,愛知県,豊橋市,西口町字西ノ口４番地の２２,,23,201,4400841,,,2023-12-13,清算の結了等,,,2015-10-05,1,,,,,サンキョウトソウ,0
1363,5180302015574,登記記録の閉鎖等,0,2023-12-22,2023-12-11,有限会社セムラ工商,,有限会社,愛知県,蒲郡市,竹島町１８番４号,,23,214,4430031,,,2023-12-11,清算の結了等,,,2015-10-05,1,,,,,セムラコウショウ,0
1367,5190003003919,登記記録の閉鎖等,0,2023-12-22,2023-12-20,ＭＳＰグリーンパワー鈴鹿合同会社,,合同会社,三重県,鈴鹿市,上野町字雫谷１０６６番１,,24,207,5130017,,,2023-12-20,合併による解散等,6180003015939,令和５年１２月１日名古屋市中区栄五丁目２６番３９号アンビー・ファシリティ合同会社（6180003015939）に合併し解散,2022-03-07,1,,,,,エムエスピーグリーンパワースズカ,0
1370,5210001001145,登記記録の閉鎖等,0,2023-12-22,2023-12-18,ケイズプロダクト株式会社,,株式会社,福井県,福井市,足羽１丁目９番１５号,,18,201,9188007,,,2023-12-18,清算の結了等,,,2015-10-05,1,,,,,ケイズプロダクト,0
1372,5210001011813,登記記録の閉鎖等,0,2023-12-22,2023-11-20,株式会社寺喜商店,,株式会社,福井県,越前市,村国１丁目１５番３２号,,18,209,9150084,,,2023-11-20,清算の結了等,,,2015-10-05,1,,,,,テラキショウテン,0
1373,5230001009673,登記記録の閉鎖等,0,2023-12-22,2023-12-19,株式会社アラヤストアー,,株式会社,富山県,高岡市,駅南１丁目８番３４号,,16,202,9330871,,,2023-12-19,清算の結了等,,,2015-10-05,1,,,,,アラヤストアー,0
1377,5260002017730,登記記録の閉鎖等,0,2023-12-22,2023-12-21,有限会社倉敷測図センター,,有限会社,岡山県,倉敷市,沖新町４５番地１１,,33,202,7100837,,,2023-12-21,清算の結了等,,,2015-10-05,1,,,,,クラシキソクズセンター,0
1390,5290801007656,登記記録の閉鎖等,0,2023-12-22,2023-12-20,株式会社地球の海直売,,株式会社,福岡県,北九州市小倉南区,大字朽網３９１４番５１,,40,107,8000231,,,2023-12-20,清算の結了等,,,2015-10-05,1,,,,,,0
1391,5290805005284,登記記録の閉鎖等,0,2023-12-22,2023-11-21,天理教本若分教会,,その他の設立登記法人,福岡県,北九州市若松区,浜町３丁目６番６号,,40,103,8080024,,,2023-11-21,合併による解散等,4120005000459,令和５年１１月２０日大阪市生野区林寺四丁目２番２５号天理教本阪分教会（4120005000459）に合併し解散,2015-10-05,1,,,,,テンリキョウホンワカブンキョウカイ,0
1392,5310001004039,登記記録の閉鎖等,0,2023-12-22,2023-12-22,株式会社澤乃屋,,株式会社,長崎県,長崎市,光町１６番２６号,,42,201,8528001,,,2023-12-22,清算の結了等,,,2015-10-05,1,,,,,サワノヤ,0
1393,5320001015357,登記記録の閉鎖等,0,2023-12-22,2023-12-20,株式会社あ・うん,,株式会社,大分県,別府市,大字別府３３４０番地の３,,44,202,8740000,,,2023-12-20,清算の結了等,,,2016-12-21,1,,,,,アウン,0
1395,5320001018938,登記記録の閉鎖等,0,2023-12-22,2023-12-21,誠幸建設株式会社,,株式会社,大分県,大分市,大在北３丁目６番２０号ナチュール北Ｂ１０２,,44,201,8700245,,,2023-12-21,清算の結了等,,,2022-03-02,1,,,,,セイコウケンセツ,0
1396,5320002003443,登記記録の閉鎖等,0,2023-12-22,2023-12-20,有限会社しみず呉服店,,有限会社,大分県,大分市,賀来新川１丁目２番８４号,,44,201,8700892,,,2023-12-20,清算の結了等,,,2015-10-05,1,,,,,シミズゴフクテン,0
1397,5330001004598,登記記録の閉鎖等,0,2023-12-22,2023-12-14,株式会社泉洋服店,,株式会社,熊本県,熊本市西区,出町１番９号,,43,103,8600074,,,2023-12-14,清算の結了等,,,2015-10-05,1,,,,,イズミヨウフクテン,0
1409,5360003010030,登記記録の閉鎖等,0,2023-12-22,2023-12-19,合同会社ＮＡＤＩ,,合同会社,沖縄県,那覇市,若狭２丁目４番６号若狭シーハイツ３階,,47,201,9000031,,,2023-12-19,清算の結了等,,,2020-01-17,1,,,,,ナディ,0
1410,5370001024015,登記記録の閉鎖等,0,2023-12-22,2023-12-20,株式会社葉月電工,,株式会社,宮城県,仙台市宮城野区,福室３丁目２０番３２号,,04,102,9830005,,,2023-12-20,清算の結了等,,,2015-10-05,1,,,,,,0
1412,5370002005591,登記記録の閉鎖等,0,2023-12-22,2023-12-18,有限会社テー・エス施工サービス,,有限会社,宮城県,仙台市若林区,今泉２丁目１３番２４号,,04,103,9840835,,,2023-12-18,清算の結了等,,,2015-10-05,1,,,,,テーエスセコウサービス,0
1416,5400002004615,登記記録の閉鎖等,0,2023-12-22,2023-12-18,有限会社カサイ工業,,有限会社,岩手県,盛岡市,川又字道地１２番地６,,03,201,0200203,,,2023-12-18,清算の結了等,,,2015-10-05,1,,,,,カサイコウギョウ,0
1418,5430001074193,登記記録の閉鎖等,0,2023-12-22,2023-12-20,株式会社サッポロ工務店,,株式会社,北海道,札幌市中央区,南十七条西１２丁目２－３２ドレタ山鼻Ａ－２,,01,101,0640917,,,2023-12-20,清算の結了等,,,2017-05-31,1,,,,,サッポロコウムテン,0
1419,5430001085455,登記記録の閉鎖等,0,2023-12-22,2023-12-15,株式会社フォーストレージ,,株式会社,北海道,札幌市白石区,菊水元町四条１丁目２番３号,,01,104,0030824,,,2023-12-15,清算の結了等,,,2021-11-29,1,,,,,フォーストレージ,0
1425,5440002009833,登記記録の閉鎖等,0,2023-12-22,2023-12-20,有限会社目谷旅館,,有限会社,北海道,檜山郡江差町,字橋本町３７番地,,01,361,0430044,,,2023-12-20,清算の結了等,,,2015-10-05,1,,,,,メヤリョカン,0
1427,5460301003072,登記記録の閉鎖等,0,2023-12-22,2023-12-21,株式会社アトランテ,,株式会社,北海道,網走市,南四条東１丁目１３番地,,01,211,0930004,,,2023-12-21,清算の結了等,,,2015-10-05,1,,,,,アトランテ,0
1429,5470002009533,登記記録の閉鎖等,0,2023-12-22,2023-12-14,有限会社ハピネス,,有限会社,兵庫県,明石市,大久保町大窪１０９６番地、８１０号,,28,203,6740051,,,2023-12-14,清算の結了等,,,2015-10-05,1,,,,,ハピネス,0
1433,5500002021848,登記記録の閉鎖等,0,2023-12-22,2023-12-20,有限会社細川食堂,,有限会社,愛媛県,四国中央市,川之江町１６５５番地１,,38,213,7990101,,,2023-12-20,清算の結了等,,,2015-10-05,1,,,,,,0
1435,5500005004123,登記記録の閉鎖等,0,2023-12-22,2023-11-20,天理教愛志分教会,,その他の設立登記法人,愛媛県,西条市,三芳１２４７番地,,38,206,7991301,,,2023-11-20,合併による解散等,1500005004192,令和５年１１月２０日愛媛県西条市丹原町池田１７９８番地２天理教愛周分教会（1500005004192）に合併し解散,2015-10-05,1,,,,,テンリキョウアイシブンキョウカイ,0
1460,6010005029219,登記記録の閉鎖等,0,2023-12-22,2023-12-19,一般社団法人ＤＥＬＩＳ,,その他の設立登記法人,東京都,千代田区,永田町２丁目１２番４号,,13,101,1000014,,,2023-12-19,清算の結了等,,,2018-10-18,1,,,,,デリス,0
1463,6010401027057,登記記録の閉鎖等,0,2023-12-22,2023-12-18,株式会社ベストインセンテイブセンター,,株式会社,東京都,中央区,日本橋浜町３丁目１０番２号神田ビル２０１,,13,102,1030007,,,2023-12-18,清算の結了等,,,2015-10-05,1,,,,,ベストインセンテイブセンター,0
1479,6010803002780,登記記録の閉鎖等,0,2023-12-22,2023-12-18,合同会社銀釜,,合同会社,東京都,大田区,上池台５丁目１５番１０号,,13,111,1450064,,,2023-12-18,清算の結了等,,,2018-08-28,1,,,,,ギンカマ,0
1531,6020001091147,登記記録の閉鎖等,0,2023-12-22,2023-12-18,株式会社水上保険事務所,,株式会社,神奈川県,横浜市戸塚区,原宿４丁目２８番１－１１４号,,14,110,2450063,,,2023-12-18,清算の結了等,,,2015-10-05,1,,,,,ミズカミホケンジムショ,0
1539,6020002093068,登記記録の閉鎖等,0,2023-12-22,2023-12-11,有限会社八田塗装工芸,,有限会社,神奈川県,川崎市多摩区,菅６丁目１番６２号,,14,135,2140001,,,2023-12-11,清算の結了等,,,2015-10-05,1,,,,,ハッタトソウコウゲイ,0
1540,6020002105062,登記記録の閉鎖等,0,2023-12-22,2023-12-15,有限会社バッカス,,有限会社,神奈川県,川崎市高津区,坂戸２丁目１番７－２号,,14,134,2130012,,,2023-12-15,清算の結了等,,,2015-10-05,1,,,,,バッカス,0
1549,6021002062062,登記記録の閉鎖等,0,2023-12-22,2023-12-20,有限会社ソフィアコーポレーション,,有限会社,神奈川県,平塚市,徳延３３４番地の５５,,14,203,2540902,,,2023-12-20,清算の結了等,,,2015-10-05,1,,,,,ソフィアコーポレーション,0
1550,6021003002785,登記記録の閉鎖等,0,2023-12-22,2023-12-19,合資会社青山木工所,,合資会社,神奈川県,横須賀市,船越町６丁目６６番地,,14,201,2370076,,,2023-12-19,清算の結了等,,,2015-10-05,1,,,,,アオヤマモッコウジョ,0
1551,6030001078127,登記記録の閉鎖等,0,2023-12-22,2023-12-18,株式会社長生ドラジ,,株式会社,埼玉県,川口市,大字赤山１２９８番地の６,,11,203,3330825,,,2023-12-18,清算の結了等,,,2015-10-05,1,,,,,チョウセイドラジ,0
1552,6030001119525,登記記録の閉鎖等,0,2023-12-22,2023-12-19,株式会社ギブン,,株式会社,埼玉県,さいたま市中央区,鈴谷６丁目１０番７－５０４号,,11,105,3380013,,,2023-12-19,清算の結了等,,,2017-04-07,1,,,,,ギブン,0
1553,6030001123337,登記記録の閉鎖等,0,2023-12-22,2023-12-18,株式会社ＳＲＫ,,株式会社,埼玉県,加須市,中央１丁目１４番７号,,11,210,3470055,,,2023-12-18,清算の結了等,,,2017-12-08,1,,,,,エスアールケー,0
1560,6030002020319,登記記録の閉鎖等,0,2023-12-22,2023-12-18,有限会社アンバー,,有限会社,埼玉県,さいたま市桜区,栄和４丁目１３番１１号,,11,106,3380823,,,2023-12-18,清算の結了等,,,2015-10-05,1,,,,,アンバー,0
1561,6030002073861,登記記録の閉鎖等,0,2023-12-22,2023-12-19,有限会社鈴木薬局,,有限会社,埼玉県,川越市,六軒町１丁目１０番地２,,11,201,3500041,,,2023-12-19,清算の結了等,,,2015-10-05,1,,,,,スズキヤッキョク,0
1600,6080401001947,登記記録の閉鎖等,0,2023-12-22,2023-12-19,株式会社サンセイ建材,,株式会社,静岡県,浜松市中区,佐鳴台１丁目７番２５号,,22,131,4328021,,,2023-12-19,清算の結了等,,,2015-10-05,1,,,,,サンセイケンザイ,0
1601,6080401026738,登記記録の閉鎖等,0,2023-12-22,2023-12-08,三好人形株式会社,,株式会社,静岡県,袋井市,葵町２丁目１番地の１２,,22,216,4370016,,,2023-12-08,清算の結了等,,,2023-09-29,1,,,,,ミヨシニンギョウ,0
1607,6100002003332,登記記録の閉鎖等,0,2023-12-22,2023-12-15,有限会社東海特殊工亊,,有限会社,長野県,長野市,大字栗田４４番地の９,,20,201,3800921,,,2023-12-15,清算の結了等,,,2015-10-05,1,,,,,,0
1608,6100002029484,登記記録の閉鎖等,0,2023-12-22,2023-12-18,有限会社キリン堂,,有限会社,長野県,諏訪郡富士見町,富士見４６５４番地７４,,20,362,3990211,,,2023-12-18,清算の結了等,,,2015-10-05,1,,,,,キリンドウ,0
1626,6122001013541,登記記録の閉鎖等,0,2023-12-22,2023-12-21,島田合同企画株式会社,,株式会社,大阪府,東大阪市,永和１丁目１６番９号,,27,227,5770809,,,2023-12-21,清算の結了等,,,2015-10-05,1,,,,,シマダゴウドウキカク,0
1627,6122001020414,登記記録の閉鎖等,0,2023-12-22,2023-12-20,株式会社山崎鉄工所,,株式会社,大阪府,八尾市,植松町７丁目７番１６号,,27,212,5810084,,,2023-12-20,清算の結了等,,,2015-10-05,1,,,,,ヤマサキテッコウショ,0
1633,6130001033781,登記記録の閉鎖等,0,2023-12-22,2023-12-14,株式会社京繊工業,,株式会社,京都府,綴喜郡宇治田原町,大字南小字東所５８番地,,26,344,6100241,,,2023-12-14,清算の結了等,,,2015-10-05,1,,,,,キョウセンコウギョウ,0
1662,6180002052339,登記記録の閉鎖等,0,2023-12-22,2023-12-19,有限会社ツジタ設計事務所,,有限会社,愛知県,西春日井郡豊山町,大字豊場字野田１７番地の３,,23,342,4800202,,,2023-12-19,清算の結了等,,,2015-10-05,1,,,,,ツジタセッケイジムショ,0
1667,6190002005683,登記記録の閉鎖等,0,2023-12-22,2023-12-19,有限会社八秀丸,,有限会社,三重県,北牟婁郡紀北町,長島２１６０番地の８,,24,543,5193205,,,2023-12-19,清算の結了等,,,2015-10-05,1,,,,,ハッシュウマル,0
1670,6200002024525,登記記録の閉鎖等,0,2023-12-22,2023-12-20,有限会社健創,,有限会社,岐阜県,中津川市,蛭川４２９８番地の６,,21,206,5098301,,,2023-12-20,清算の結了等,,,2015-10-05,1,,,,,ケンソウ,0
1675,6220002002735,登記記録の閉鎖等,0,2023-12-22,2023-12-19,有限会社西都地所,,有限会社,石川県,金沢市,新竪町３丁目６１,,17,201,9200995,,,2023-12-19,合併による解散等,1220002008225,令和５年１２月１９日石川県金沢市新竪町三丁目６１株式会社ＥＮＮ（1220002008225）に合併し解散,2015-10-05,1,,,,,サイトジショ,0
1677,6220005007450,登記記録の閉鎖等,0,2023-12-22,2023-11-08,特定非営利活動法人いのちにやさしいまちづくりぽぽぽねっと,,その他の設立登記法人,石川県,小松市,小馬出町３５‐１,,17,203,9230904,,,2023-11-08,合併による解散等,1220005008065,令和５年１１月８日石川県小松市末広町８８番地特定非営利活動法人ホームホスピスこまつ（1220005008065）に合併し解散,2015-10-05,1,,,,,イノチニヤサシイマチヅクリポポポネット,0
1689,6260003003357,登記記録の閉鎖等,0,2023-12-22,2023-12-20,合同会社フシゼナック,,合同会社,岡山県,岡山市北区,中山下１丁目８番１２号８０３,,33,101,7000821,,,2023-12-20,清算の結了等,,,2020-10-30,1,,,,,フシゼナック,0
1694,6290001009634,登記記録の閉鎖等,0,2023-12-22,2023-12-13,株式会社ハイカラヤ,,株式会社,福岡県,福岡市中央区,舞鶴１丁目８番３８号１９ラインビル１階,,40,133,8100073,,,2023-12-13,清算の結了等,,,2015-10-05,1,,,,,,0
1696,6290001030094,登記記録の閉鎖等,0,2023-12-22,2023-12-18,株式会社デジタルピアーズ,,株式会社,福岡県,福岡市南区,若久６丁目６３番３号,,40,134,8150042,,,2023-12-18,清算の結了等,,,2015-10-05,1,,,,,デジタルピアーズ,0
1698,6290001093505,登記記録の閉鎖等,0,2023-12-22,2023-12-13,株式会社アドウォーリア,,株式会社,福岡県,福岡市博多区,博多駅東２丁目５－２８,,40,132,8120013,,,2023-12-13,清算の結了等,,,2021-06-11,1,,,,,,0
1703,6290003003049,登記記録の閉鎖等,0,2023-12-22,2023-12-15,合同会社色彩工房,,合同会社,福岡県,久留米市,津福今町２１４番地２,,40,203,8300061,,,2023-12-15,清算の結了等,,,2015-10-05,1,,,,,シキサイコウボウ,0
1712,6330002030320,登記記録の閉鎖等,0,2023-12-22,2023-12-18,有限会社堤製菓本舗,,有限会社,熊本県,人吉市,駒井田町１０７２番地,,43,203,8680006,,,2023-12-18,清算の結了等,,,2015-10-05,1,,,,,ツツミセイカホンポ,0
1713,6340002012607,登記記録の閉鎖等,0,2023-12-22,2023-12-20,有限会社東福産業,,有限会社,鹿児島県,日置市,東市来町養母９３５６番地１,,46,216,8992311,,,2023-12-20,清算の結了等,,,2015-10-05,1,,,,,トウフクサンギョウ,0
1717,6370002006143,登記記録の閉鎖等,0,2023-12-22,2023-12-20,有限会社ミル,,有限会社,宮城県,仙台市青葉区,荒巻神明町２０番地１,,04,101,9810965,,,2023-12-20,清算の結了等,,,2015-10-05,1,,,,,ミル,0
1718,6370002016539,登記記録の閉鎖等,0,2023-12-22,2023-12-20,有限会社小山建築コンサルタント,,有限会社,宮城県,仙台市太白区,人来田２丁目２８番１６号,,04,104,9820222,,,2023-12-20,清算の結了等,,,2015-10-05,1,,,,,オヤマケンチクコンサルタント,0
1743,6460001005120,登記記録の閉鎖等,0,2023-12-22,2023-12-20,株式会社北王陸運,00109471,株式会社,北海道,釧路市,鳥取南６丁目２番２号,,01,206,0840905,,,2023-12-20,清算の結了等,,,2017-03-06,1,,,,,ホクオウリクウン,0
1745,6470005006262,登記記録の閉鎖等,0,2023-12-22,2023-12-19,一般社団法人小豆島とのしょう観光協会,,その他の設立登記法人,香川県,小豆郡土庄町,甲５１６５番地２０１,,37,322,7614101,,,2023-12-19,清算の結了等,,,2020-04-07,1,,,,,ショウドシマトノショウカンコウキョウカイ,0
1765,7010401031041,登記記録の閉鎖等,0,2023-12-22,2023-12-14,ワコー・コーポレーション株式会社,,株式会社,東京都,港区,六本木３丁目１５番１１－６１０号,,13,103,1060032,,,2023-12-14,清算の結了等,,,2015-10-05,1,,,,,ワコーコーポレーション,0
1770,7010401131758,登記記録の閉鎖等,0,2023-12-22,2023-12-04,ニイル株式会社,,株式会社,東京都,港区,新橋４丁目３０番６号京急中はらビル５階,,13,103,1050004,,,2023-12-04,清算の結了等,,,2017-05-31,1,,,,,ニイル,0
1774,7010403017047,登記記録の閉鎖等,0,2023-12-22,2023-12-19,合同会社ＳＤＫ１号,,合同会社,東京都,港区,芝４丁目１０番１号,,13,103,1080014,,,2023-12-19,清算の結了等,,,2017-08-17,1,,,,,エスディーケーイチゴウ,0
1796,7011101061213,登記記録の閉鎖等,0,2023-12-22,2023-12-19,エムエム株式会社,,株式会社,東京都,品川区,荏原７丁目２０番６号,,13,109,1420063,,,2023-12-19,清算の結了等,,,2015-10-05,1,,,,,エムエム,0
1811,7011701024081,登記記録の閉鎖等,0,2023-12-22,2023-12-19,株式会社エムズイメージ,,株式会社,東京都,江戸川区,江戸川５丁目２０番地９７,,13,123,1340013,,,2023-12-19,清算の結了等,,,2021-01-29,1,,,,,エムズイメージ,0
1818,7012402007334,登記記録の閉鎖等,0,2023-12-22,2023-12-20,有限会社青藍堂,,有限会社,東京都,調布市,小島町３丁目４４番地１調布たま川台住宅５０９,,13,208,1820026,,,2023-12-20,清算の結了等,,,2015-10-05,1,,,,,セイランドウ,0
1832,7020001045762,登記記録の閉鎖等,0,2023-12-22,2023-12-15,東宝株式会社,,株式会社,神奈川県,横浜市中区,本牧町２丁目３０４番地,,14,104,2310806,,,2023-12-15,清算の結了等,,,2015-10-05,1,,,,,トウホウ,0
1837,7020002062757,登記記録の閉鎖等,0,2023-12-22,2023-12-18,有限会社パレット,,有限会社,神奈川県,横浜市神奈川区,西神奈川１丁目６番１号,,14,102,2210822,,,2023-12-18,清算の結了等,,,2015-10-05,1,,,,,パレット,0
1846,7021001021051,登記記録の閉鎖等,0,2023-12-22,2023-12-20,株式会社研興社,,株式会社,神奈川県,伊勢原市,板戸４０５番地の２,,14,214,2591145,,,2023-12-20,清算の結了等,,,2015-10-05,1,,,,,ケンコウシャ,0
1866,7030005000366,登記記録の閉鎖等,0,2023-12-22,2023-11-27,天理教神富士分教会,,その他の設立登記法人,埼玉県,さいたま市北区,日進町１丁目６１番地２０号,,11,102,3310823,,,2023-11-27,合併による解散等,2140005001242,令和５年１１月２４日神戸市兵庫区駅南通二丁目２番７号天理教扇港分教会（2140005001242）に合併し解散,2015-10-05,1,,,,,テンリキョウカミフジブンキョウカイ,0
1867,7040001032651,登記記録の閉鎖等,0,2023-12-22,2023-12-15,株式会社桝田屋,,株式会社,千葉県,浦安市,北栄１丁目２番２８号１Ｆ,,12,227,2790002,,,2023-12-15,清算の結了等,,,2015-10-05,1,,,,,マスダヤ,0
1880,7040002091192,登記記録の閉鎖等,0,2023-12-22,2023-12-15,有限会社花ぶん,,有限会社,千葉県,柏市,東１丁目２番５号,,12,217,2770014,,,2023-12-15,清算の結了等,,,2015-10-05,1,,,,,ハナブン,0
1882,7040003019886,登記記録の閉鎖等,0,2023-12-22,2023-12-11,合同会社セカンドエフォート,,合同会社,千葉県,市川市,湊新田１丁目１番７―４０５号,,12,203,2720132,,,2023-12-11,清算の結了等,,,2022-05-10,1,,,,,セカンドエフォート,0
1887,7060001000978,登記記録の閉鎖等,0,2023-12-22,2023-12-18,大津屋ビル株式会社,,株式会社,栃木県,宇都宮市,大通り３丁目１番１７号,,09,201,3200811,,,2023-12-18,清算の結了等,,,2015-10-05,1,,,,,オオツヤビル,0
1888,7060001020794,登記記録の閉鎖等,0,2023-12-22,2023-12-11,株式会社タカサゴ,,株式会社,栃木県,佐野市,栃本町１５５２番地１,,09,204,3270312,,,2023-12-11,合併による解散等,6060001016546,令和５年１２月８日栃木県栃木市大平町牛久３１番地１株式会社栃木こすもす（6060001016546）に合併し解散,2015-10-05,1,,,,,タカサゴ,0
1893,7070003004084,登記記録の閉鎖等,0,2023-12-22,2023-12-19,ＪＡＫ　ｉｎｖｅｓｔｍｅｎｔ合同会社,,合同会社,群馬県,高崎市,下小鳥町３１番地７－３０２号室,,10,202,3700074,,,2023-12-19,清算の結了等,,,2021-04-20,1,,,,,ジャックインベストメント,0
1897,7080102001592,登記記録の閉鎖等,0,2023-12-22,2023-12-21,新栄製作所有限会社,,有限会社,静岡県,沼津市,大諏訪８６８番地の２,,22,203,4100873,,,2023-12-21,清算の結了等,,,2015-10-05,1,,,,,,0
1903,7100002002671,登記記録の閉鎖等,0,2023-12-22,2023-12-19,有限会社千石屋食堂,,有限会社,長野県,長野市,大字南長野末広町１３５８番地２号,,20,201,3800825,,,2023-12-19,清算の結了等,,,2015-10-05,1,,,,,センゴクヤショクドウ,0
1922,7120005013185,登記記録の閉鎖等,0,2023-12-22,2023-11-20,天理教本春分教会,,その他の設立登記法人,大阪府,枚方市,天之川町２番４９号,,27,210,5731185,,,2023-11-20,合併による解散等,4120005000459,令和５年１１月２０日大阪市生野区林寺四丁目２番２５号天理教本阪分教会（4120005000459）に合併し解散,2015-10-05,1,,,,,テンリキョウホンハルブンキョウカイ,0
1937,7140001062408,登記記録の閉鎖等,0,2023-12-22,2023-12-18,ドリーム観光バス株式会社,,株式会社,兵庫県,姫路市,夢前町杉之内３９７番地の４,,28,201,6712111,,,2023-12-18,清算の結了等,,,2015-10-05,1,,,,,ドリームカンコウバス,0
1944,7140001119884,登記記録の閉鎖等,0,2023-12-22,2023-12-18,株式会社トップコア,,株式会社,京都府,八幡市,男山弓岡２番地Ｂ２３－５０２,,26,210,6148375,,,2023-12-18,清算の結了等,,,2020-12-24,1,,,,,トップコア,0
1977,7200002020151,登記記録の閉鎖等,0,2023-12-22,2023-12-18,有限会社ケイウォーク,,有限会社,岐阜県,瑞浪市,日吉町９６４番地の２,,21,208,5096251,,,2023-12-18,清算の結了等,,,2015-10-05,1,,,,,ケイウォーク,0
1980,7210001003899,登記記録の閉鎖等,0,2023-12-22,2023-12-18,株式会社マツバラ,,株式会社,福井県,福井市,御幸２丁目２０番８号,,18,201,9100854,,,2023-12-18,清算の結了等,,,2015-10-05,1,,,,,マツバラ,0
1988,7220001024878,登記記録の閉鎖等,0,2023-12-22,2023-12-20,インターバル株式会社,,株式会社,石川県,金沢市,大河端西２丁目１４１番地６,,17,201,9200210,,,2023-12-20,清算の結了等,,,2022-06-01,1,,,,,インターバル,0
1991,7230003001478,登記記録の閉鎖等,0,2023-12-22,2023-12-19,合同会社バレイセンタ,,合同会社,富山県,南砺市,川西５５４番地４,,16,210,9391613,,,2023-12-19,清算の結了等,,,2020-05-15,1,,,,,バレイセンタ,0
2000,7260001005461,登記記録の閉鎖等,0,2023-12-22,2023-12-05,原建設株式会社,,株式会社,岡山県,岡山市北区,辰巳１番地の１０４,,33,101,7000976,,,2023-12-05,清算の結了等,,,2015-10-05,1,,,,,ハラケンセツ,0
2001,7260001013489,登記記録の閉鎖等,0,2023-12-22,2023-12-20,佐々木産業株式会社,,株式会社,岡山県,倉敷市,下津井吹上１丁目１番１６号,,33,202,7110926,,,2023-12-20,清算の結了等,,,2015-10-05,1,,,,,ササキサンギョウ,0
2005,7290001031067,登記記録の閉鎖等,0,2023-12-22,2023-12-13,株式会社太田商会,,株式会社,福岡県,福岡市博多区,東月隈１丁目２４番１９号,,40,132,8120854,,,2023-12-13,清算の結了等,,,2015-10-05,1,,,,,,0
2014,7290001097505,登記記録の閉鎖等,0,2023-12-22,2023-12-14,株式会社ＫＹＡネクスト,,株式会社,福岡県,福岡市東区,若宮５丁目３番３３－７１１号アーベイン香椎南３３棟,,40,131,8130036,,,2023-12-14,清算の結了等,,,2022-05-12,1,,,,,ケーワイエーネクスト,0
2037,7350001011426,登記記録の閉鎖等,0,2023-12-22,2023-12-13,新エネルギー販売株式会社,,株式会社,宮崎県,東臼杵郡門川町,大字加草１６１９番地６,,45,421,8890603,,,2023-12-13,清算の結了等,,,2015-10-05,1,,,,,シンエネルギーハンバイ,0
2041,7370001010450,登記記録の閉鎖等,0,2023-12-22,2023-12-20,株式会社水野コミュニケーション事務所,,株式会社,宮城県,仙台市青葉区,上杉２丁目４番８－２１２号,,04,101,9800011,,,2023-12-20,清算の結了等,,,2015-10-05,1,,,,,ミズノコミュニケーションジムショ,0
2043,7380002016446,登記記録の閉鎖等,0,2023-12-22,2023-11-30,有限会社東和牧場,,有限会社,福島県,二本松市,戸沢字石平山２番地１８,,07,210,9640201,,,2023-11-30,清算の結了等,,,2015-10-05,1,,,,,トウワボクジョウ,0
2044,7380005006790,登記記録の閉鎖等,0,2023-12-22,2023-12-13,特定非営利活動法人健美療術師協会,,その他の設立登記法人,福島県,田村郡三春町,大字下舞木字石田１３７番地３号,,07,521,9637731,,,2023-12-13,清算の結了等,,,2015-10-05,1,,,,,ケンビリョウジュツシキョウカイ,0
2046,7400001015066,登記記録の閉鎖等,0,2023-12-22,2023-12-18,株式会社ラピス調査事務所,,株式会社,岩手県,一関市,滝沢字鶴ケ沢７番地７,,03,209,0290132,,,2023-12-18,清算の結了等,,,2020-06-10,1,,,,,ラピスチョウサジムショ,0
2047,7410001000645,登記記録の閉鎖等,0,2023-12-22,2023-12-18,伊藤耐酸化工株式会社,,株式会社,秋田県,秋田市,新屋豊町６１１番地１,,05,201,0101612,,,2023-12-18,清算の結了等,,,2015-10-05,1,,,,,イトウタイサンカコウ,0
2053,7420003001401,登記記録の閉鎖等,0,2023-12-22,2023-12-18,合同会社渡邊,,合同会社,青森県,黒石市,大字牡丹平字福民北２２番地４,,02,204,0360332,,,2023-12-18,清算の結了等,,,2015-10-05,1,,,,,ワタナベ,0
2066,7470003001719,登記記録の閉鎖等,0,2023-12-22,2023-12-20,合同会社サンエナジー,,合同会社,香川県,高松市,円座町５９０番地１,,37,201,7618044,,,2023-12-20,清算の結了等,,,2020-02-13,1,,,,,サンエナジー,0
2067,7500001015510,登記記録の閉鎖等,0,2023-12-22,2023-12-20,宝山商事株式会社,,株式会社,愛媛県,宇和島市,中央町２丁目２番３１号,,38,203,7980040,,,2023-12-20,清算の結了等,,,2015-10-05,1,,,,,ホウザンショウジ,0
2077,8010001233375,登記記録の閉鎖等,0,2023-12-22,2023-12-18,株式会社Ｂ,,株式会社,東京都,千代田区,丸の内１丁目１番１号,,13,101,1000005,,,2023-12-18,清算の結了等,,,2023-03-06,1,,,,,ビー,0
2084,8010003038384,登記記録の閉鎖等,0,2023-12-22,2023-12-18,合同会社ためになる,,合同会社,東京都,中央区,銀座７丁目１３番６号サガミビル２階,,13,102,1040061,,,2023-12-18,清算の結了等,,,2022-08-12,1,,,,,タメニナル,0
2109,8010601029223,登記記録の閉鎖等,0,2023-12-22,2023-12-15,コマーシャルインテリアズ株式会社,,株式会社,東京都,墨田区,立花４丁目４０番１０－６０４号,,13,107,1310043,,,2023-12-15,清算の結了等,,,2015-10-05,1,,,,,コマーシャルインテリアズ,0
2112,8010801022473,登記記録の閉鎖等,0,2023-12-22,2023-12-18,株式会社一辰,,株式会社,東京都,大田区,大森東４丁目１９番１９号,,13,111,1430012,,,2023-12-18,清算の結了等,,,2015-10-05,1,,,,,イッシン,0
2119,8011001147061,登記記録の閉鎖等,0,2023-12-22,2023-12-20,サステナブル・デザイン株式会社,,株式会社,東京都,渋谷区,道玄坂１丁目２１番１号,,13,113,1500043,,,2023-12-20,清算の結了等,,,2022-04-21,1,,,,,サステナブルデザイン,0
2124,8011101081111,登記記録の閉鎖等,0,2023-12-22,2023-12-18,株式会社三合ジャパン,,株式会社,東京都,新宿区,四谷４丁目１５番地九久ビル,,13,104,1600004,,,2023-12-18,清算の結了等,,,2017-07-19,1,,,,,サンゴウジャパン,0
2145,8011702011458,登記記録の閉鎖等,0,2023-12-22,2023-12-19,有限会社ムツミ機工,,有限会社,東京都,江戸川区,西一之江２丁目１１番２号,,13,123,1320023,,,2023-12-19,清算の結了等,,,2015-10-05,1,,,,,ムツミキコウ,0
2152,8012402007192,登記記録の閉鎖等,0,2023-12-22,2023-12-18,有限会社アティス,,有限会社,東京都,調布市,布田１丁目２５番地２,,13,208,1820024,,,2023-12-18,清算の結了等,,,2015-10-05,1,,,,,アティス,0
2156,8020001057781,登記記録の閉鎖等,0,2023-12-22,2023-12-15,株式会社Ｋ・Ｔ・Ｇ,,株式会社,神奈川県,横浜市緑区,鴨居１丁目２番９－２０３号,,14,113,2260003,,,2023-12-15,清算の結了等,,,2015-10-05,1,,,,,ケーティジー,0
2168,8020002073910,登記記録の閉鎖等,0,2023-12-22,2023-12-15,有限会社ケー・ティー・グローバル,,有限会社,神奈川県,横浜市緑区,鴨居１丁目２番９－２０３号,,14,113,2260003,,,2023-12-15,清算の結了等,,,2015-10-05,1,,,,,ケーティーグローバル,0
2175,8021001036692,登記記録の閉鎖等,0,2023-12-22,2023-12-19,株式会社湘南ビル,,株式会社,神奈川県,平塚市,徳延１０３番１号,,14,203,2540902,,,2023-12-19,清算の結了等,,,2015-10-05,1,,,,,ショウナンビル,0
2181,8021003006999,登記記録の閉鎖等,0,2023-12-22,2023-12-19,合同会社輝翼,,合同会社,神奈川県,足柄上郡中井町,田中１０７０番地２,,14,361,2590145,,,2023-12-19,清算の結了等,,,2017-10-10,1,,,,,キスケ,0
2195,8040001033517,登記記録の閉鎖等,0,2023-12-22,2023-12-15,株式会社搬送システム,,株式会社,千葉県,白井市,池の上２丁目２８番９－２号,,12,232,2701425,,,2023-12-15,清算の結了等,,,2015-10-05,1,,,,,ハンソウシステム,0
2204,8040002066210,登記記録の閉鎖等,0,2023-12-22,2023-12-15,有限会社大岩測量事務所,,有限会社,千葉県,木更津市,大和３丁目１番８号,,12,206,2920805,,,2023-12-15,清算の結了等,,,2015-10-05,1,,,,,オオイワソクリョウジムショ,0
2206,8040002090243,登記記録の閉鎖等,0,2023-12-22,2023-12-15,有限会社鈴設,,有限会社,千葉県,柏市,明原４丁目９番１８号,,12,217,2770843,,,2023-12-15,清算の結了等,,,2015-10-05,1,,,,,,0
2217,8080001022573,登記記録の閉鎖等,0,2023-12-22,2023-12-21,秀和建工株式会社,,株式会社,静岡県,静岡市駿河区,丸子７丁目７番４６号,,22,102,4210103,,,2023-12-21,清算の結了等,,,2018-12-04,1,,,,,シュウワケンコウ,0
2227,8110005011833,登記記録の閉鎖等,0,2023-12-22,2023-11-14,地藏院,,その他の設立登記法人,新潟県,長岡市,岩田１４５８番地,,15,202,9495415,,,2023-11-14,合併による解散等,9110005011808,令和５年１１月１４日新潟県長岡市朝日５３１番地朝日寺（9110005011808）に合併し解散,2015-10-05,1,,,,,ジゾウイン,0
2235,8120001210215,登記記録の閉鎖等,0,2023-12-22,2023-12-20,株式会社パーツデパートメント,,株式会社,大阪府,大阪市北区,太融寺町３番２４号日本生命梅田第二ビル,,27,127,5300051,,,2023-12-20,清算の結了等,,,2017-12-15,1,,,,,パーツデパートメント,0
2255,8140001073965,登記記録の閉鎖等,0,2023-12-22,2023-12-20,株式会社にじ,,株式会社,兵庫県,西宮市,久保町１２番１５号,,28,204,6620927,,,2023-12-20,清算の結了等,,,2015-10-05,1,,,,,ニジ,0
2272,8180001007597,登記記録の閉鎖等,0,2023-12-22,2023-12-18,株式会社八富運輸,,株式会社,愛知県,名古屋市港区,築盛町１０４番地,,23,111,4550057,,,2023-12-18,清算の結了等,,,2015-10-05,1,,,,,ヤトミウンユ,0
2276,8180003020458,登記記録の閉鎖等,0,2023-12-22,2023-12-14,合同会社ジオクリエイト,,合同会社,千葉県,鎌ケ谷市,東初富５丁目２０番８３号,,12,224,2730122,,,2023-12-14,清算の結了等,,,2019-10-24,1,,,,,ジオクリエイト,0
2283,8190001020335,登記記録の閉鎖等,0,2023-12-22,2023-12-18,株式会社ＧＥＮＢＡシステム,,株式会社,愛知県,名古屋市中村区,西米野町３丁目５７番地の２,,23,105,4530812,,,2023-12-18,清算の結了等,,,2015-10-05,1,,,,,ゲンバシステム,0
2287,8190005006082,登記記録の閉鎖等,0,2023-12-22,2023-12-19,農事組合法人中柘植酪農組合,,その他の設立登記法人,三重県,伊賀市,中柘植２００９番地,,24,216,5191404,,,2023-12-19,清算の結了等,,,2015-10-05,1,,,,,ナカツゲラクノウクミアイ,0
2288,8200001025258,登記記録の閉鎖等,0,2023-12-22,2023-12-20,株式会社旅館おふくろ,,株式会社,岐阜県,高山市,名田町５丁目８番地,,21,203,5060021,,,2023-12-20,清算の結了等,,,2015-10-05,1,,,,,リョカンオフクロ,0
2294,8220002014547,登記記録の閉鎖等,0,2023-12-22,2023-12-20,有限会社トギオートサービス,,有限会社,石川県,羽咋郡志賀町,給分ニの４１番地１０,,17,384,9250457,,,2023-12-20,清算の結了等,,,2015-10-05,1,,,,,トギオートサービス,0
2300,8260001020014,登記記録の閉鎖等,0,2023-12-22,2023-12-08,大橋自動車商会株式会社,,株式会社,岡山県,津山市,一方１６０番地,,33,203,7080883,,,2023-12-08,清算の結了等,,,2015-10-05,1,,,,,,0
2308,8290001046130,登記記録の閉鎖等,0,2023-12-22,2023-12-15,株式会社家夢建築事務所,,株式会社,福岡県,飯塚市,花瀬４番２号,,40,205,8200045,,,2023-12-15,清算の結了等,,,2015-10-05,1,,,,,カムケンチクジムショ,0
2320,8310002003532,登記記録の閉鎖等,0,2023-12-22,2023-12-21,有限会社徳光興産,,有限会社,長崎県,長崎市,福田本町１２４２番地,,42,201,8500068,,,2023-12-21,清算の結了等,,,2015-10-05,1,,,,,トクミツコウサン,0
2321,8310002008556,登記記録の閉鎖等,0,2023-12-22,2023-12-19,有限会社ウォーターテクノ,,有限会社,長崎県,南島原市,南有馬町戊４８番地７,,42,214,8592415,,,2023-12-19,清算の結了等,,,2015-10-05,1,,,,,ウォーターテクノ,0
2345,8370201003047,登記記録の閉鎖等,0,2023-12-22,2023-12-15,株式会社及川金物店,,株式会社,宮城県,栗原市,栗駒岩ケ崎八日町５０番地,,04,213,9895301,,,2023-12-15,清算の結了等,,,2015-10-05,1,,,,,オイカワカナモノテン,0
2348,8390001016437,登記記録の閉鎖等,0,2023-12-22,2023-12-19,フィールド・サポート株式会社,,株式会社,山形県,山形市,松波３丁目４番１１号,,06,201,9900023,,,2023-12-19,清算の結了等,,,2021-04-19,1,,,,,フィールドサポート,0
2356,8430001057204,登記記録の閉鎖等,0,2023-12-22,2023-12-14,株式会社リヴ・ヤマモト,,株式会社,北海道,室蘭市,知利別町４丁目１４番７号,,01,205,0500076,,,2023-12-14,清算の結了等,,,2015-10-05,1,,,,,リヴヤマモト,0
2367,8500002011549,登記記録の閉鎖等,0,2023-12-22,2023-12-20,有限会社上田電気商会,,有限会社,愛媛県,大洲市,大洲８５７番地,,38,207,7950012,,,2023-12-20,清算の結了等,,,2015-10-05,1,,,,,ウエダデンキショウカイ,0
2374,9010001141791,登記記録の閉鎖等,0,2023-12-22,2023-12-18,ＳＥＮＳＨＩＮ　ＴＥＣＨＮＯＬＯＧＩＥＳ株式会社,,株式会社,東京都,千代田区,神田須田町２丁目２５ＧＹＢ秋葉原５階,,13,101,1010041,,,2023-12-18,清算の結了等,,,2015-10-05,1,,,,,センシンテクノロジーズ,0
2378,9010001220348,登記記録の閉鎖等,0,2023-12-22,2023-12-15,株式会社ＥＮＧＡＧＥ,,株式会社,東京都,港区,芝浦２丁目１４番７号,,13,103,1080023,,,2023-12-15,清算の結了等,,,2021-08-10,1,,,,,エンゲージ,0
2402,9010403015866,登記記録の閉鎖等,0,2023-12-22,2023-12-19,ＨＷソーラーパワー２３合同会社,,合同会社,東京都,港区,芝４丁目１０番１号,,13,103,1080014,,,2023-12-19,清算の結了等,,,2017-01-04,1,,,,,エイチダブリューソーラーパワーニジュウサン,0
2404,9010403020346,登記記録の閉鎖等,0,2023-12-22,2023-12-15,ＤＳ　Ｃａｎａｌ合同会社,,合同会社,東京都,港区,虎ノ門５丁目１番４号,,13,103,1050001,,,2023-12-15,清算の結了等,,,2019-03-13,1,,,,,ディーエスカナル,0
2412,9010701031557,登記記録の閉鎖等,0,2023-12-22,2023-12-18,株式会社椎の森発電所,,株式会社,東京都,千代田区,麹町４丁目５番２１号,,13,101,1020083,,,2023-12-18,清算の結了等,,,2015-10-29,1,,,,,シイノモリハツデンショ,0
2418,9010901011375,登記記録の閉鎖等,0,2023-12-22,2023-12-18,松永印刷株式会社,,株式会社,東京都,世田谷区,尾山台２丁目３１番８号,,13,112,1580086,,,2023-12-18,清算の結了等,,,2015-10-05,1,,,,,マツナガインサツ,0
2419,9010901024963,登記記録の閉鎖等,0,2023-12-22,2023-12-19,株式会社デニム,,株式会社,東京都,世田谷区,上北沢３丁目１８番８号小泉ビル１Ｆ,,13,112,1560057,,,2023-12-19,清算の結了等,,,2015-10-05,1,,,,,デニム,0
2432,9011103009357,登記記録の閉鎖等,0,2023-12-22,2023-12-20,合同会社ＴＧ,,合同会社,東京都,新宿区,歌舞伎町２丁目１４番８号メトロプラザ・２ビル地下１階ＤＥ室,,13,104,1600021,,,2023-12-20,清算の結了等,,,2019-12-26,1,,,,,ティージー,0
2442,9011701010914,登記記録の閉鎖等,0,2023-12-22,2023-12-21,パシフィック・リム株式会社,,株式会社,東京都,江戸川区,南篠崎町２丁目４９番１７－５０８号,,13,123,1330065,,,2023-12-21,清算の結了等,,,2015-10-05,1,,,,,パシフィックリム,0
2444,9011802009450,登記記録の閉鎖等,0,2023-12-22,2023-12-19,有限会社飯島電研,,有限会社,東京都,足立区,大谷田１丁目６番２号,,13,121,1200001,,,2023-12-19,清算の結了等,,,2015-10-05,1,,,,,イイジマデンケン,0
2455,9012801000029,登記記録の閉鎖等,0,2023-12-22,2023-12-14,株式会社アイハラ写眞商会,,株式会社,東京都,立川市,柴崎町３丁目６番２８号,,13,202,1900023,,,2023-12-14,清算の結了等,,,2015-10-05,1,,,,,アイハラシャシンショウカイ,0
2457,9013301027322,登記記録の閉鎖等,0,2023-12-22,2023-12-14,株式会社ディプレ防災研究所,,株式会社,東京都,北区,赤羽北３丁目２６番４－１４０１号,,13,117,1150052,,,2023-12-14,清算の結了等,,,2015-10-05,1,,,,,ディプレボウサイケンキュウジョ,0
2464,9020001097827,登記記録の閉鎖等,0,2023-12-22,2023-12-15,株式会社ビーライフ,,株式会社,神奈川県,横浜市旭区,三反田町２０６番地の８,,14,112,2410013,,,2023-12-15,清算の結了等,,,2015-10-05,1,,,,,ビーライフ,0
2470,9020002044836,登記記録の閉鎖等,0,2023-12-22,2023-12-15,有限会社不二興業,,有限会社,神奈川県,横浜市中区,不老町２丁目８番地,,14,104,2310032,,,2023-12-15,清算の結了等,,,2015-10-05,1,,,,,,0
2471,9020002068034,登記記録の閉鎖等,0,2023-12-22,2023-12-15,有限会社ＭＵＧＥＮ,,有限会社,神奈川県,横浜市磯子区,丸山１丁目２４番４－３０４号,,14,107,2350011,,,2023-12-15,清算の結了等,,,2015-10-05,1,,,,,ムゲン,0
2499,9050002034314,登記記録の閉鎖等,0,2023-12-22,2023-12-18,有限会社宮本工務店,,有限会社,茨城県,稲敷市,浮島５６３６番地,,08,229,3000641,,,2023-12-18,清算の結了等,,,2015-10-05,1,,,,,ミヤモトコウムテン,0
2504,9060002027317,登記記録の閉鎖等,0,2023-12-22,2023-12-15,有限会社和田電機,,有限会社,栃木県,矢板市,東町１２５６番地１０,,09,211,3292136,,,2023-12-15,清算の結了等,,,2015-10-05,1,,,,,ワダデンキ,0
2530,9120002077586,登記記録の閉鎖等,0,2023-12-22,2023-12-20,有限会社共同自工,,有限会社,大阪府,寝屋川市,讃良西町６番２４号,,27,215,5720818,,,2023-12-20,清算の結了等,,,2015-10-05,1,,,,,キョウドウジコウ,0
2532,9120005007929,登記記録の閉鎖等,0,2023-12-22,2023-12-21,特定非営利活動法人日本話しことば協会,,その他の設立登記法人,大阪府,大阪市淀川区,西宮原２丁目６番１６－６３１号,,27,123,5320004,,,2023-12-21,清算の結了等,,,2015-10-05,1,,,,,ニホンハナシコトバキョウカイ,0
2542,9140001040881,登記記録の閉鎖等,0,2023-12-22,2023-12-19,株式会社足立モータース,,株式会社,兵庫県,丹波市,氷上町石生５６０番地,,28,223,6693464,,,2023-12-19,清算の結了等,,,2015-10-05,1,,,,,アダチモータース,0
2548,9140001118496,登記記録の閉鎖等,0,2023-12-22,2023-12-20,株式会社スリール・エ・メルシー,,株式会社,兵庫県,神戸市中央区,北長狭通４丁目２番１９号,,28,110,6500012,,,2023-12-20,清算の結了等,,,2020-08-26,1,,,,,,0
2552,9140002020057,登記記録の閉鎖等,0,2023-12-22,2023-12-18,有限会社ファインカムス,,有限会社,兵庫県,神戸市西区,北別府４丁目２０９８番地の１,,28,111,6512117,,,2023-12-18,清算の結了等,,,2015-10-05,1,,,,,ファインカムス,0
2553,9140002060185,登記記録の閉鎖等,0,2023-12-22,2023-12-18,有限会社オン・ザ・ロック,,有限会社,兵庫県,西宮市,甲陽園目神山町２７番５９号,,28,204,6620011,,,2023-12-18,清算の結了等,,,2015-10-05,1,,,,,オンザロック,0
2554,9140002064987,登記記録の閉鎖等,0,2023-12-22,2023-12-19,有限会社けやき,,有限会社,兵庫県,川辺郡猪名川町,松尾台１丁目２番地１,,28,301,6660261,,,2023-12-19,清算の結了等,,,2015-10-05,1,,,,,ケヤキ,0
2562,9180001116298,登記記録の閉鎖等,0,2023-12-22,2023-12-15,株式会社光テクノ,,株式会社,愛知県,名古屋市港区,港陽１丁目５番１０号,,23,111,4550013,,,2023-12-15,清算の結了等,,,2015-10-05,1,,,,,ヒカリテクノ,0
2569,9180005017658,登記記録の閉鎖等,0,2023-12-22,2023-12-11,一般社団法人ＦＥＴ会,,その他の設立登記法人,愛知県,名古屋市緑区,鳴海町字下汐田２０２番地の１,,23,114,4580801,,,2023-12-11,清算の結了等,,,2018-01-25,1,,,,,エフイーティーカイ,0
2570,9180005018532,登記記録の閉鎖等,0,2023-12-22,2023-12-18,一般社団法人発達障害改善サポートＪｕｎｏ,,その他の設立登記法人,愛知県,名古屋市緑区,鳴海町字上汐田６７番地１,,23,114,4580835,,,2023-12-18,清算の結了等,,,2019-11-26,1,,,,,ハッタツショウガイカイゼンサポートジュノ,0
2578,9190005009489,登記記録の閉鎖等,0,2023-12-22,2023-11-20,三論宗尾高山法興寺,,その他の設立登記法人,三重県,三重郡菰野町,大字杉谷２２９５番地の２,,24,341,5101326,,,2023-11-20,合併による解散等,7040005004234,令和５年１１月１日千葉県市川市宮久保四丁目３番１４号誓願院（7040005004234）に合併し解散,2015-10-05,1,,,,,サンロンシュウオダカサンホウコウジ,0
2579,9200001037624,登記記録の閉鎖等,0,2023-12-22,2023-12-19,株式会社スピードハンター,,株式会社,兵庫県,神戸市中央区,磯上通８丁目１番２９号カサベラビルＣ＆Ｍ４０３号室,,28,110,6510086,,,2023-12-19,清算の結了等,,,2020-07-31,1,,,,,スピードハンター,0
2583,9220002001635,登記記録の閉鎖等,0,2023-12-22,2023-12-20,有限会社大橋商事,,有限会社,石川県,金沢市,十一屋町１１番１０号,,17,201,9218106,,,2023-12-20,清算の結了等,,,2015-10-05,1,,,,,オオハシショウジ,0
2594,9290001008690,登記記録の閉鎖等,0,2023-12-22,2023-12-13,株式会社Ｂｅｎ＆Ｍｉｅｒ,,株式会社,福岡県,福岡市中央区,大宮１丁目２番９号,,40,133,8100013,,,2023-12-13,清算の結了等,,,2015-10-05,1,,,,,ベンアンドマイヤー,0
2624,9350003002900,登記記録の閉鎖等,0,2023-12-22,2023-12-14,合同会社阿ん,,合同会社,福岡県,春日市,日の出町３丁目２番地１アーベインビオ春日２－１１０２号,,40,218,8160873,,,2023-12-14,清算の結了等,,,2017-05-24,1,,,,,アン,0
2638,9420003001366,登記記録の閉鎖等,0,2023-12-22,2023-12-18,合同会社エムズプラン,,合同会社,青森県,五所川原市,大字飯詰字福泉１４６番地,,02,205,0370002,,,2023-12-18,清算の結了等,,,2015-10-05,1,,,,,エムズプラン,0
2639,9430001006003,登記記録の閉鎖等,0,2023-12-22,2023-12-13,互興産業株式会社,,株式会社,北海道,札幌市白石区,中央二条３丁目１番１０号,,01,104,0030012,,,2023-12-13,清算の結了等,,,2015-10-05,1,,,,,ゴコウサンギョウ,0
2649,9470001001578,登記記録の閉鎖等,0,2023-12-22,2023-12-19,株式会社斎藤時計店,,株式会社,香川県,高松市,番町１丁目８番９号,,37,201,7600017,,,2023-12-19,清算の結了等,,,2015-10-05,1,,,,,サイトウトケイテン,0
2653,9480001003433,登記記録の閉鎖等,0,2023-12-22,2023-12-21,四国燃化工業株式会社,,株式会社,徳島県,勝浦郡勝浦町,大字沼江字田中１６番地,,36,301,7714301,,,2023-12-21,清算の結了等,,,2015-10-05,1,,,,,シコクネンカコウギョウ,0
2654,9500002020177,登記記録の閉鎖等,0,2023-12-22,2023-12-20,有限会社カナダイ,,有限会社,愛媛県,今治市,大三島町宮浦５７１４番地の３,,38,202,7941304,,,2023-12-20,清算の結了等,,,2015-10-05,1,,,,,カナダイ,0
