sequenceNumber,corporateNumber,process,correct,updateDate,changeDate,name,nameImageId,kind,prefectureName,cityName,streetNumber,addressImageId,prefectureCode,cityCode,postCode,addressOutside,addressOutsideImageId,closeDate,closeCause,successorCorporateNumber,changeCause,assignmentDate,latest,enName,enPrefectureName,enCityName,enAddressOutside,furigana,hihyoji
32,1010501030436,登記記録の閉鎖等,0,2024-02-21,2024-02-19,第一交通台東株式会社,,株式会社,東京都,台東区,根岸２丁目２番６号,,13,106,1100003,,,2024-02-19,清算の結了等,,,2015-10-05,1,,,,,ダイイチコウツウタイトウ,0
34,1010601013506,登記記録の閉鎖等,0,2024-02-21,2024-02-16,株式会社テイシイピー,,株式会社,東京都,墨田区,東駒形４丁目６番３号,,13,107,1300005,,,2024-02-16,清算の結了等,,,2015-10-05,1,,,,,テイシイピー,0
41,1010701026102,登記記録の閉鎖等,0,2024-02-21,2024-02-19,イデアルキッチン株式会社,,株式会社,東京都,新宿区,西新宿７丁目７番６号,,13,104,1600023,,,2024-02-19,清算の結了等,,,2015-10-05,1,,,,,イデアルキッチン,0
43,1010702008322,登記記録の閉鎖等,0,2024-02-21,2024-02-16,有限会社本橋商店,,有限会社,東京都,品川区,東五反田１丁目１５番１１号,,13,109,1410022,,,2024-02-16,清算の結了等,,,2015-10-05,1,,,,,モトハシショウテン,0
46,1010801029252,登記記録の閉鎖等,0,2024-02-21,2024-02-09,株式会社ＲＵＮ,,株式会社,神奈川県,横浜市鶴見区,上末吉３丁目９－２０,,14,101,2300011,,,2024-02-09,清算の結了等,,,2018-10-11,1,,,,,ラン,0
50,1010902003016,登記記録の閉鎖等,0,2024-02-21,2024-02-19,有限会社エリーナ,,有限会社,東京都,世田谷区,上北沢５丁目３８番１３号,,13,112,1560057,,,2024-02-19,清算の結了等,,,2015-10-05,1,,,,,エリーナ,0
101,1020002071648,登記記録の閉鎖等,0,2024-02-21,2024-02-14,有限会社エイチエスアイ,,有限会社,神奈川県,横浜市泉区,中田南１丁目１番３０号踊場スカイビル４０３号,,14,116,2450014,,,2024-02-14,清算の結了等,,,2015-10-05,1,,,,,エイチエスアイ,0
121,1040001117499,登記記録の閉鎖等,0,2024-02-21,2024-02-19,株式会社住まいリンク,,株式会社,茨城県,つくば市,高野台２丁目１１番地６,,08,220,3050074,,,2024-02-19,清算の結了等,,,2021-03-16,1,,,,,スマイリンク,0
158,1120001084483,登記記録の閉鎖等,0,2024-02-21,2024-02-20,塚本通信工業株式会社,00028627,株式会社,大阪府,大阪市中央区,本町１丁目１－３,,27,128,5410053,,,2024-02-20,清算の結了等,,,2015-10-05,1,,,,,ツカモトツウシンコウギョウ,0
160,1120001144824,登記記録の閉鎖等,0,2024-02-21,2024-02-19,株式会社千亜嬉,,株式会社,大阪府,大阪市港区,築港２丁目７番２６号,,27,107,5520021,,,2024-02-19,清算の結了等,,,2015-10-05,1,,,,,チアキ,0
188,1140001000439,登記記録の閉鎖等,0,2024-02-21,2024-02-02,株式会社修元,,株式会社,兵庫県,神戸市東灘区,御影山手６丁目４番３５号,,28,101,6580065,,,2024-02-02,清算の結了等,,,2015-10-05,1,,,,,シュウゲン,0
190,1140001104909,登記記録の閉鎖等,0,2024-02-21,2024-02-19,株式会社グット・ルッキング,,株式会社,兵庫県,神戸市垂水区,学が丘４丁目２０番２６号,,28,108,6550004,,,2024-02-19,清算の結了等,,,2017-02-01,1,,,,,グットルッキング,0
193,1140002029485,登記記録の閉鎖等,0,2024-02-21,2024-02-09,有限会社パル,,有限会社,兵庫県,明石市,東朝霧丘２５番６号,,28,203,6730854,,,2024-02-09,清算の結了等,,,2015-10-05,1,,,,,パル,0
225,1290001057860,登記記録の閉鎖等,0,2024-02-21,2024-02-16,株式会社千歳プロセスセンター,,株式会社,福岡県,三井郡大刀洗町,大字本郷２０７７番地,,40,503,8301211,,,2024-02-16,清算の結了等,,,2015-10-05,1,,,,,,0
234,1310001011501,登記記録の閉鎖等,0,2024-02-21,2024-02-16,株式会社はるかぜ環境企画,,株式会社,長崎県,長崎市,中小島２丁目９番２号,,42,201,8500836,,,2024-02-16,清算の結了等,,,2015-10-05,1,,,,,,0
236,1310002000354,登記記録の閉鎖等,0,2024-02-21,2024-02-20,有限会社池田正徳青果,,有限会社,長崎県,長崎市,田中町２７９番地４,,42,201,8510134,,,2024-02-20,清算の結了等,,,2015-10-05,1,,,,,イケダマサノリセイカ,0
276,2010005028562,登記記録の閉鎖等,0,2024-02-21,2024-02-16,一般財団法人ちよだニャンとなる会,,その他の設立登記法人,東京都,千代田区,三番町９番地１,,13,101,1020075,,,2024-02-16,清算の結了等,,,2018-05-23,1,,,,,チヨダニャントナルカイ,0
288,2010403031176,登記記録の閉鎖等,0,2024-02-21,2024-02-19,合同会社ＹＣＨ１３,,合同会社,東京都,港区,南青山２丁目２番１５－８２５号,,13,103,1070062,,,2024-02-19,合併による解散等,9010001037437,令和６年２月１９日東京都港区南青山二丁目２番１５－８２５号稲村建設株式会社（9010001037437）に合併し解散,2023-10-13,1,,,,,ワイシーエイチサーティーン,0
296,2010601040094,登記記録の閉鎖等,0,2024-02-21,2024-02-15,アドバード株式会社,,株式会社,東京都,墨田区,向島５丁目２３番６号,,13,107,1310033,,,2024-02-15,清算の結了等,,,2015-10-05,1,,,,,アドバード,0
316,2011301000603,登記記録の閉鎖等,0,2024-02-21,2024-02-14,医事研サービス株式会社,,株式会社,千葉県,山武市,大木７０５番地,,12,237,2891211,,,2024-02-14,清算の結了等,,,2015-10-05,1,,,,,イジケンサービス,0
319,2011605002444,登記記録の閉鎖等,0,2024-02-21,2024-02-15,一般社団法人明るい相続終活協会,,その他の設立登記法人,東京都,練馬区,南大泉４丁目４３番１７号,,13,120,1780064,,,2024-02-15,清算の結了等,,,2022-04-15,1,,,,,アカルイソウゾクシュウカツキョウカイ,0
344,2030001019984,登記記録の閉鎖等,0,2024-02-21,2024-02-15,愛三電線工業株式会社,,株式会社,東京都,文京区,湯島３丁目７番７号,,13,105,1130034,,,2024-02-15,清算の結了等,,,2015-10-05,1,,,,,アイサンデンセンコウギョウ,0
345,2030001075466,登記記録の閉鎖等,0,2024-02-21,2024-02-19,正和建設株式会社,,株式会社,埼玉県,川口市,幸町１丁目３番１４号,,11,203,3320016,,,2024-02-19,清算の結了等,,,2015-10-05,1,,,,,セイワケンセツ,0
350,2030002033588,登記記録の閉鎖等,0,2024-02-21,2024-02-15,有限会社ケイ・エフ,,有限会社,埼玉県,狭山市,鵜ノ木２５番８号,,11,215,3501323,,,2024-02-15,清算の結了等,,,2015-10-05,1,,,,,ケイエフ,0
351,2030002083501,登記記録の閉鎖等,0,2024-02-21,2024-02-09,有限会社長澤建築,,有限会社,埼玉県,北本市,宮内５丁目２３番地,,11,233,3640002,,,2024-02-09,清算の結了等,,,2015-10-05,1,,,,,ナガサワケンチク,0
367,2050003002499,登記記録の閉鎖等,0,2024-02-21,2024-02-13,合同会社十王テクノパワー,,合同会社,茨城県,日立市,十王町友部３５５４番地の１,,08,202,3191304,,,2024-02-13,清算の結了等,,,2015-10-05,1,,,,,ジュウオウテクノパワー,0
374,2070003001251,登記記録の閉鎖等,0,2024-02-21,2024-02-13,合同会社イルフ,,合同会社,群馬県,桐生市,天神町３丁目２番１－１０号,,10,203,3760052,,,2024-02-13,清算の結了等,,,2015-10-05,1,,,,,イルフ,0
375,2070005009771,登記記録の閉鎖等,0,2024-02-21,2024-02-19,一般社団法人建設用ロープアクセス工業会,,その他の設立登記法人,群馬県,前橋市,上増田町５０７番地２,,10,201,3792114,,,2024-02-19,清算の結了等,,,2020-09-07,1,,,,,ケンセツヨウロープアクセスコウギョウカイ,0
377,2080102006332,登記記録の閉鎖等,0,2024-02-21,2024-02-19,有限会社エステート大村,,有限会社,静岡県,沼津市,東間門２４３－２３,,22,203,4100865,,,2024-02-19,清算の結了等,,,2015-10-05,1,,,,,エステートオオムラ,0
385,2110001033102,登記記録の閉鎖等,0,2024-02-21,2024-02-05,株式会社Ａｎｙｌｏｇ,,株式会社,新潟県,糸魚川市,京ケ峰１丁目９番７号,,15,216,9410054,,,2024-02-05,清算の結了等,,,2018-04-04,1,,,,,エニログ,0
386,2110002005380,登記記録の閉鎖等,0,2024-02-21,2024-02-16,有限会社原の台企業,,有限会社,新潟県,新潟市東区,東中野山７丁目３番１２号,,15,102,9500836,,,2024-02-16,清算の結了等,,,2015-10-05,1,,,,,ハラノダイキギョウ,0
388,2110002027169,登記記録の閉鎖等,0,2024-02-21,2024-02-19,有限会社恩田配管工業所,,有限会社,新潟県,長岡市,宮内３丁目３番２８号,,15,202,9401106,,,2024-02-19,清算の結了等,,,2015-10-05,1,,,,,オンダハイカンコウギョウショ,0
408,2120003015915,登記記録の閉鎖等,0,2024-02-21,2024-02-19,合同会社ＮＩＫＴＡ,,合同会社,大阪府,大阪市天王寺区,国分町８－１３天王寺エムズビル２Ｆ,,27,109,5430044,,,2024-02-19,清算の結了等,,,2019-07-03,1,,,,,ニクタ,0
416,2120102014693,登記記録の閉鎖等,0,2024-02-21,2024-02-19,有限会社ユタカプラスチック工業,,有限会社,大阪府,松原市,大堀３丁目１０番１５号,,27,217,5800006,,,2024-02-19,清算の結了等,,,2015-10-05,1,,,,,ユタカプラスチックコウギョウ,0
421,2130001024248,登記記録の閉鎖等,0,2024-02-21,2024-02-16,株式会社ジュンインターナショナル,,株式会社,京都府,京都市左京区,八瀬野瀬町２６７番地鱒乃坊アーバンコンフォー卜１２９号,00035917,26,103,6011254,,,2024-02-16,清算の結了等,,,2015-10-05,1,,,,,ジュンインターナショナル,0
428,2140005016348,登記記録の閉鎖等,0,2024-02-21,2024-02-08,特定非営利活動法人ＮｉＣＣＬ西宮暮らしやすい地域をめざす会,,その他の設立登記法人,兵庫県,西宮市,田代町７番２２号,,28,204,6638201,,,2024-02-08,清算の結了等,,,2015-10-05,1,,,,,ニクルニシノミヤクラシヤスイチイキヲメザスカイ,0
440,2190005003639,登記記録の閉鎖等,0,2024-02-21,2024-02-19,医療法人大久保医院,,その他の設立登記法人,三重県,南牟婁郡御浜町,大字下市木４５３８番地,,24,561,5195203,,,2024-02-19,清算の結了等,,,2015-10-05,1,,,,,オオクボイイン,0
455,2290003003242,登記記録の閉鎖等,0,2024-02-21,2024-02-16,三池通運合資会社,,合資会社,福岡県,大牟田市,大字草木２７０番地の６,,40,202,8370917,,,2024-02-16,清算の結了等,,,2015-10-05,1,,,,,ミイケツウウン,0
467,2350002003708,登記記録の閉鎖等,0,2024-02-21,2024-02-15,有限会社早樋工務店,00100687,有限会社,宮崎県,宮崎市,大塚町権現前１０１５番地２,,45,201,8800951,,,2024-02-15,清算の結了等,,,2015-10-05,1,,,,,ハヤヒコウムテン,0
493,2430005003250,登記記録の閉鎖等,0,2024-02-21,2024-02-16,特定非営利活動法人ボランティア二十一,,その他の設立登記法人,北海道,札幌市南区,真駒内緑町２丁目７－１０,,01,106,0050013,,,2024-02-16,清算の結了等,,,2015-10-05,1,,,,,ボランティアニジュウイチ,0
500,2500001006225,登記記録の閉鎖等,0,2024-02-21,2024-02-20,放射線管理サービス株式会社,,株式会社,愛媛県,松山市,畑寺３丁目１０番２９号,,38,201,7900913,,,2024-02-20,清算の結了等,,,2015-10-05,1,,,,,ホウシャセンカンリサービス,0
507,3010001135709,登記記録の閉鎖等,0,2024-02-21,2024-02-19,ＥＣＯアライブ株式会社,,株式会社,兵庫県,姫路市,南町６３番地ミツワビル２０１,,28,201,6700912,,,2024-02-19,清算の結了等,,,2015-10-05,1,,,,,エコアライブ,0
509,3010001158602,登記記録の閉鎖等,0,2024-02-21,2024-02-16,Ｆ２エナジー株式会社,,株式会社,東京都,港区,浜松町２丁目２番１５号浜松町ダイヤビル２Ｆ,,13,103,1050013,,,2024-02-16,清算の結了等,,,2015-10-05,1,,,,,エフツーエナジー,0
552,3011101053585,登記記録の閉鎖等,0,2024-02-21,2024-02-15,住信ＳＢＩネット銀カード株式会社,,株式会社,東京都,港区,六本木１丁目４番５号,,13,103,1060032,,,2024-02-15,清算の結了等,,,2015-10-05,1,,,,,スミシンエスビーアイネットギンカード,0
560,3011301003010,登記記録の閉鎖等,0,2024-02-21,2024-02-13,シーオーピー株式会社,,株式会社,東京都,杉並区,上荻３丁目２４番１７号エクセルシオール荻窪２０６,,13,115,1670043,,,2024-02-13,清算の結了等,,,2015-10-05,1,,,,,シーオーピー,0
561,3011301022522,登記記録の閉鎖等,0,2024-02-21,2024-02-16,ＳＫキャピタルマネジメント株式会社,,株式会社,東京都,港区,赤坂４丁目２番３－４１０号,,13,103,1070052,,,2024-02-16,清算の結了等,,,2016-09-05,1,,,,,エスケーキャピタルマネジメント,0
609,3030005002977,登記記録の閉鎖等,0,2024-02-21,2024-02-16,一般社団法人情報環境コミュニケーションズ,,その他の設立登記法人,埼玉県,さいたま市桜区,田島２丁目２番９号,,11,106,3380837,,,2024-02-16,清算の結了等,,,2015-10-05,1,,,,,ジョウホウカンキョウコミュニケーションズ,0
612,3040001050013,登記記録の閉鎖等,0,2024-02-21,2024-02-15,株式会社天志,,株式会社,千葉県,佐倉市,ユーカリが丘７丁目３８番４号,,12,212,2850858,,,2024-02-15,清算の結了等,,,2015-10-05,1,,,,,,0
614,3040001109016,登記記録の閉鎖等,0,2024-02-21,2024-02-14,木崎システムエンジニアリング株式会社,,株式会社,千葉県,茂原市,木崎１３７番地３,,12,210,2970016,,,2024-02-14,清算の結了等,,,2019-05-09,1,,,,,キサキシステムエンジニアリング,0
637,3080001011465,登記記録の閉鎖等,0,2024-02-21,2024-02-16,静岡トータルサポート株式会社,,株式会社,静岡県,静岡市葵区,安東３丁目２０番１３号,,22,101,4200882,,,2024-02-16,清算の結了等,,,2015-10-05,1,,,,,シズオカトータルサポート,0
685,3140002047618,登記記録の閉鎖等,0,2024-02-21,2024-02-19,有限会社ウメモト,,有限会社,兵庫県,姫路市,飾磨区英賀宮町２丁目７５番地,,28,201,6728080,,,2024-02-19,清算の結了等,,,2015-10-05,1,,,,,ウメモト,0
693,3180301012673,登記記録の閉鎖等,0,2024-02-21,2024-02-15,井戸直工業株式会社,,株式会社,愛知県,安城市,末広町２番５号,,23,212,4460038,,,2024-02-15,清算の結了等,,,2015-10-05,1,,,,,イドナオコウギョウ,0
695,3200001039733,登記記録の閉鎖等,0,2024-02-21,2024-02-20,フィンコンサルティング株式会社,,株式会社,岐阜県,養老郡養老町,船附１１４３－１,,21,341,5031382,,,2024-02-20,清算の結了等,,,2022-02-09,1,,,,,フィンコンサルティング,0
760,4010001217506,登記記録の閉鎖等,0,2024-02-21,2024-02-15,株式会社ティファナ,,株式会社,東京都,千代田区,外神田６丁目１１番１６号,,13,101,1010021,,,2024-02-15,清算の結了等,,,2021-04-19,1,,,,,ティファナ,0
770,4010401117207,登記記録の閉鎖等,0,2024-02-21,2024-02-14,やたも株式会社,,株式会社,東京都,港区,西麻布４丁目２２番１－４０１号,,13,103,1060031,,,2024-02-14,清算の結了等,,,2015-10-05,1,,,,,ヤタモ,0
781,4010402006086,登記記録の閉鎖等,0,2024-02-21,2024-02-15,有限会社ナチュラネット,,有限会社,東京都,港区,高輪４丁目１８番２０号,,13,103,1080074,,,2024-02-15,清算の結了等,,,2015-10-05,1,,,,,,0
786,4010505002197,登記記録の閉鎖等,0,2024-02-21,2024-02-16,特定非営利活動法人ＳＩＭ,,その他の設立登記法人,東京都,立川市,錦町２丁目１番２６号３階,,13,202,1900022,,,2024-02-16,清算の結了等,,,2015-10-05,1,,,,,シム,0
807,4011001142248,登記記録の閉鎖等,0,2024-02-21,2024-02-16,株式会社ＣＣＤＸ,,株式会社,東京都,渋谷区,道玄坂１丁目２１番１号渋谷ソラスタ１５階,,13,113,1500043,,,2024-02-16,合併による解散等,4011001068740,令和６年１月１日東京都港区虎ノ門二丁目６番１号虎ノ門ヒルズステーションタワー３６階株式会社ＣＡＲＴＡ　ＶＥＮＴＵＲＥＳ（4011001068740）に合併し解散,2021-08-11,1,,,,,シーシーディーエックス,0
834,4020002042043,登記記録の閉鎖等,0,2024-02-21,2024-02-19,有限会社カツミ商会,,有限会社,神奈川県,横浜市中区,山下町２３番地,,14,104,2310023,,,2024-02-19,清算の結了等,,,2015-10-05,1,,,,,カツミショウカイ,0
861,4050001028825,登記記録の閉鎖等,0,2024-02-21,2024-02-19,株式会社エムアイオー,,株式会社,茨城県,取手市,戸頭６２２番地２,,08,217,3020034,,,2024-02-19,清算の結了等,,,2015-10-05,1,,,,,,0
869,4080005001197,登記記録の閉鎖等,0,2024-02-21,2024-02-16,医療法人社団敬愛会,,その他の設立登記法人,静岡県,静岡市駿河区,小鹿４３０番地の３,,22,102,4228021,,,2024-02-16,清算の結了等,,,2015-10-05,1,,,,,ケイアイカイ,0
915,4180001099903,登記記録の閉鎖等,0,2024-02-21,2024-02-13,アラインジャパン株式会社,,株式会社,愛知県,名古屋市緑区,滝ノ水５丁目１７０６番地の１０,,23,114,4580021,,,2024-02-13,清算の結了等,,,2015-10-05,1,,,,,アラインジャパン,0
921,4180002086330,登記記録の閉鎖等,0,2024-02-21,2024-02-16,明和建設有限会社,,有限会社,愛知県,常滑市,金山字汐見坂１７２番地,,23,216,4790003,,,2024-02-16,清算の結了等,,,2015-10-05,1,,,,,メイワケンセツ,0
926,4190001009464,登記記録の閉鎖等,0,2024-02-21,2024-02-19,日本ハイブリッドテクノロジーズ株式会社,,株式会社,三重県,名張市,青蓮寺１３５０番地の３,,24,208,5180443,,,2024-02-19,清算の結了等,,,2015-10-05,1,,,,,ニッポンハイブリッドテクノロジーズ,0
940,4260002003005,登記記録の閉鎖等,0,2024-02-21,2024-02-20,有限会社木村企画,,有限会社,岡山県,岡山市北区,岡南町２丁目５番３４号,,33,101,7000866,,,2024-02-20,清算の結了等,,,2015-10-05,1,,,,,キムラキカク,0
952,4320005010033,登記記録の閉鎖等,0,2024-02-21,2024-02-16,一般社団法人海と日本プロジェクトｉｎ大分県,,その他の設立登記法人,大分県,大分市,大字勢家字春日浦８４３番地２５,,44,201,8700100,,,2024-02-16,清算の結了等,,,2022-11-21,1,,,,,ウミトニッポンプロジェクトインオオイタケン,0
980,4402701000366,登記記録の閉鎖等,0,2024-02-21,2024-02-16,山一建設株式会社,,株式会社,岩手県,気仙郡住田町,世田米字小口洞５２番地１,,03,441,0292311,,,2024-02-16,清算の結了等,,,2015-10-05,1,,,,,,0
990,4490002000870,登記記録の閉鎖等,0,2024-02-21,2024-02-15,オーシヤン観光有限会社,,有限会社,高知県,高知市,廿代町６番１７号,,39,201,7800843,,,2024-02-15,清算の結了等,,,2015-10-05,1,,,,,,0
995,5010001015140,登記記録の閉鎖等,0,2024-02-21,2024-02-15,株式会社くらや,,株式会社,東京都,千代田区,神田神保町３丁目７番地の４,,13,101,1010051,,,2024-02-15,清算の結了等,,,2015-10-05,1,,,,,クラヤ,0
1023,5010405005200,登記記録の閉鎖等,0,2024-02-21,2024-02-16,一般財団法人天然物医科学研究財団,,その他の設立登記法人,東京都,港区,浜松町２丁目６番２号浜松町２６２ビル８階,,13,103,1050013,,,2024-02-16,清算の結了等,,,2015-10-05,1,,,,,テンネンブツイカガクケンキュウザイダン,0
1027,5010505002221,登記記録の閉鎖等,0,2024-02-21,2024-02-15,社会保険労務士法人東海林・旭事務所,,その他の設立登記法人,東京都,千代田区,神田三崎町１丁目１番１４号三崎町大島ビル６階,,13,101,1010061,,,2024-02-15,清算の結了等,,,2015-10-05,1,,,,,ショウジアサヒジムショ,0
1031,5010701039967,登記記録の閉鎖等,0,2024-02-21,2024-02-16,テックジェンス株式会社,,株式会社,東京都,品川区,東五反田２丁目３番５号五反田中央ビル７Ｆ,,13,109,1410022,,,2024-02-16,清算の結了等,,,2020-10-16,1,,,,,テックジェンス,0
1058,5011502009259,登記記録の閉鎖等,0,2024-02-21,2024-02-07,有限会社スタンバイ,,有限会社,東京都,荒川区,南千住５丁目２８番１５号,,13,118,1160003,,,2024-02-07,清算の結了等,,,2015-10-05,1,,,,,スタンバイ,0
1103,5040002078919,登記記録の閉鎖等,0,2024-02-21,2024-02-14,有限会社ＮＦＧコーポレーション,,有限会社,千葉県,東金市,山田１３３２番地,,12,213,2830823,,,2024-02-14,清算の結了等,,,2015-10-05,1,,,,,エヌエフジーコーポレーション,0
1108,5050002027296,登記記録の閉鎖等,0,2024-02-21,2024-02-19,有限会社神龍工業,,有限会社,茨城県,神栖市,知手中央５丁目３番４７号,,08,232,3140112,,,2024-02-19,清算の結了等,,,2015-10-05,1,,,,,カミリュウコウギョウ,0
1109,5050002039192,登記記録の閉鎖等,0,2024-02-21,2024-02-19,有限会社アップル・エムアイオー,,有限会社,茨城県,取手市,戸頭６２２番地２,,08,217,3020034,,,2024-02-19,清算の結了等,,,2015-10-05,1,,,,,,0
1119,5090001005761,登記記録の閉鎖等,0,2024-02-21,2024-02-15,株式会社四季,,株式会社,山梨県,甲斐市,竜地５０番地,,19,210,4000100,,,2024-02-15,合併による解散等,9090001014528,令和６年２月１日山梨県韮崎市本町二丁目１０番９号株式会社喜月堂セレオ（9090001014528）に合併し解散,2015-10-05,1,,,,,シキ,0
1120,5100001035039,登記記録の閉鎖等,0,2024-02-21,2024-02-14,株式会社オアシス・アイ,,株式会社,長野県,上田市,真田町長３８３９番地１,,20,203,3862201,,,2024-02-14,清算の結了等,,,2022-02-04,1,,,,,オアシスアイ,0
1126,5110005001721,登記記録の閉鎖等,0,2024-02-21,2024-02-16,医療法人社団双香会,,その他の設立登記法人,新潟県,新潟市江南区,亀田向陽３丁目１５番１８号,,15,104,9500121,,,2024-02-16,清算の結了等,,,2015-10-05,1,,,,,ソウコウカイ,0
1158,5130001035465,登記記録の閉鎖等,0,2024-02-21,2024-02-19,株式会社栄好工務店,,株式会社,京都府,亀岡市,余部町天神又５の２,,26,206,6210806,,,2024-02-19,清算の結了等,,,2015-10-05,1,,,,,エイコウコウムテン,0
1161,5140001003776,登記記録の閉鎖等,0,2024-02-21,2024-02-19,株式会社中山工務店,,株式会社,兵庫県,神戸市灘区,天城通８丁目１番１２号,,28,102,6570823,,,2024-02-19,清算の結了等,,,2015-10-05,1,,,,,ナカヤマコウムテン,0
1172,5180001092642,登記記録の閉鎖等,0,2024-02-21,2024-02-14,株式会社トゥテック,,株式会社,愛知県,大府市,横根町坊主山１番地の８,,23,223,4740011,,,2024-02-14,合併による解散等,5180001015000,令和６年２月１４日名古屋市南区天白町五丁目３１番地東海共立鋼業株式会社（5180001015000）に合併し解散,2015-10-05,1,,,,,トゥテック,0
1182,5180005018032,登記記録の閉鎖等,0,2024-02-21,2024-02-16,一般社団法人Ｗｅｂコピーライティング協会,,その他の設立登記法人,愛知県,名古屋市中区,錦３丁目４番１２号ＳＵＺＵ１Ｏ２ビル４Ｆ,,23,106,4600003,,,2024-02-16,清算の結了等,,,2018-11-05,1,,,,,ウェブコピーライティングキョウカイ,0
1185,5220002008915,登記記録の閉鎖等,0,2024-02-21,2024-02-13,有限会社ウィンドゥフォール,,有限会社,石川県,白山市,千代野東６丁目３番地１,,17,210,9240073,,,2024-02-13,清算の結了等,,,2015-10-05,1,,,,,ウィンドゥフォール,0
1206,5310005007731,登記記録の閉鎖等,0,2024-02-21,2024-02-20,ＮＰＯ法人Ｔｒｅａｓｕｒｅｓ　ｏｆ　Ｔｈｅ　Ｐｌａｎｅｔ,,その他の設立登記法人,長崎県,長崎市,鳴滝３丁目１４番７号,,42,201,8500011,,,2024-02-20,清算の結了等,,,2015-10-05,1,,,,,,0
1207,5330001018342,登記記録の閉鎖等,0,2024-02-21,2024-02-15,九州コーテッドサンド株式会社,,株式会社,熊本県,玉名郡南関町,大字下坂下４８２１番地７,,43,367,8610821,,,2024-02-15,合併による解散等,1180001093058,令和６年２月１日愛知県知多郡美浜町大字野間字中新田５番地株式会社トウチュウ（1180001093058）に合併し解散,2015-10-05,1,,,,,キュウシュウコーテッドサンド,0
1227,5430001058659,登記記録の閉鎖等,0,2024-02-21,2024-02-19,株式会社丸誠泰翔工業,,株式会社,北海道,札幌市手稲区,手稲前田５６０番地２,,01,109,0060829,,,2024-02-19,清算の結了等,,,2015-10-05,1,,,,,,0
1231,5430001080679,登記記録の閉鎖等,0,2024-02-21,2024-02-19,株式会社ＬＵＤＵＳ,,株式会社,北海道,札幌市中央区,南二十二条西８丁目１番２８号,,01,101,0640922,,,2024-02-19,清算の結了等,,,2020-01-14,1,,,,,ルーダス,0
1234,5460402000200,登記記録の閉鎖等,0,2024-02-21,2024-02-16,有限会社千里,,有限会社,北海道,根室市,梅ケ枝町３丁目６番地,,01,223,0870052,,,2024-02-16,清算の結了等,,,2015-10-05,1,,,,,センリ,0
1235,5460405000008,登記記録の閉鎖等,0,2024-02-21,2024-02-19,根室造船協同組合,,その他の設立登記法人,北海道,根室市,花咲港２８８番地,,01,223,0870032,,,2024-02-19,清算の結了等,,,2015-10-05,1,,,,,ネムロゾウセン,0
1244,6010001006452,登記記録の閉鎖等,0,2024-02-21,2024-02-15,株式会社羽深製作所,,株式会社,東京都,文京区,千石３丁目２３番８号,,13,105,1120011,,,2024-02-15,清算の結了等,,,2015-10-05,1,,,,,ハブカセイサクジョ,0
1270,6010502001233,登記記録の閉鎖等,0,2024-02-21,2024-02-19,有限会社泉商店,,有限会社,東京都,台東区,寿４丁目７番１０号,,13,106,1110042,,,2024-02-19,清算の結了等,,,2015-10-05,1,,,,,,0
1274,6010602012320,登記記録の閉鎖等,0,2024-02-21,2024-02-16,有限会社大鳳印刷,,有限会社,東京都,墨田区,堤通１丁目１７番３１号,,13,107,1310034,,,2024-02-16,清算の結了等,,,2015-10-05,1,,,,,タイホウインサツ,0
1282,6010905002101,登記記録の閉鎖等,0,2024-02-21,2024-02-19,一般社団法人地下貯水工法協会,,その他の設立登記法人,静岡県,静岡市葵区,清閑町１３番１２号,,22,101,4200047,,,2024-02-19,清算の結了等,,,2015-10-05,1,,,,,チカチョスイコウホウキョウカイ,0
1302,6011301019061,登記記録の閉鎖等,0,2024-02-21,2024-02-16,株式会社ＩＢＤコーポレーション,,株式会社,東京都,中央区,銀座１丁目２２番１１号銀座大竹ビジデンス２階,,13,102,1040061,,,2024-02-16,清算の結了等,,,2015-10-05,1,,,,,アイビーディーコーポレーション,0
1311,6011801005577,登記記録の閉鎖等,0,2024-02-21,2024-02-19,赤石金属工業株式会社,,株式会社,東京都,足立区,扇１丁目５０番３５号,,13,121,1230873,,,2024-02-19,清算の結了等,,,2015-10-05,1,,,,,アカイシキンゾクコウギョウ,0
1330,6020001113017,登記記録の閉鎖等,0,2024-02-21,2024-02-19,富士通ソーシャルライフシステムズ株式会社,,株式会社,神奈川県,川崎市中原区,上小田中４丁目１番１号,,14,133,2110053,,,2024-02-19,清算の結了等,,,2015-10-05,1,,,,,フジツウソーシャルライフシステムズ,0
1360,6030003014402,登記記録の閉鎖等,0,2024-02-21,2024-02-16,ユートピアフィナンシャル合同会社,,合同会社,埼玉県,さいたま市見沼区,大字南中野１２１０番地３６,,11,104,3370042,,,2024-02-16,清算の結了等,,,2019-11-19,1,,,,,ユートピアフィナンシャル,0
1361,6030005017832,登記記録の閉鎖等,0,2024-02-21,2024-02-16,特定非営利活動法人スポディック・はじめのいっぽ,,その他の設立登記法人,埼玉県,蓮田市,大字黒浜１０６６番地６８,,11,238,3490101,,,2024-02-16,清算の結了等,,,2016-02-29,1,,,,,スポディックハジメノイッポ,0
1381,6080401013785,登記記録の閉鎖等,0,2024-02-21,2024-02-16,株式会社おらん家の暖かばたけ,,株式会社,静岡県,浜松市中央区,三新町８番地の２,,22,138,4300833,,,2024-02-16,清算の結了等,,,2015-10-05,1,,,,,オランチノアタタカバタケ,0
1390,6110002014881,登記記録の閉鎖等,0,2024-02-21,2024-02-19,有限会社越後茶屋,,有限会社,新潟県,新発田市,日渡１０５番地,,15,206,9570072,,,2024-02-19,清算の結了等,,,2015-10-05,1,,,,,エチゴチャヤ,0
1415,6140001003775,登記記録の閉鎖等,0,2024-02-21,2024-02-19,株式会社中山工務店不動産部,,株式会社,兵庫県,神戸市灘区,天城通８丁目１番１２号,,28,102,6570823,,,2024-02-19,清算の結了等,,,2015-10-05,1,,,,,,0
1451,6260003003662,登記記録の閉鎖等,0,2024-02-21,2024-02-20,合同会社ハンズ,,合同会社,岡山県,岡山市北区,野田２丁目１１‐１,,33,101,7000971,,,2024-02-20,清算の結了等,,,2021-08-31,1,,,,,ハンズ,0
1469,6320001019010,登記記録の閉鎖等,0,2024-02-21,2024-02-16,株式会社龍泉,,株式会社,大分県,玖珠郡玖珠町,大字綾垣７０１番地の３,,44,462,8794402,,,2024-02-16,清算の結了等,,,2022-04-08,1,,,,,リュウセン,0
1481,6430001046778,登記記録の閉鎖等,0,2024-02-21,2024-02-14,グリーン計画株式会社,,株式会社,北海道,美唄市,大通東一条北４丁目１番７号,,01,215,0720001,,,2024-02-14,清算の結了等,,,2015-10-05,1,,,,,グリーンケイカク,0
1486,6430003011755,登記記録の閉鎖等,0,2024-02-21,2024-02-19,Ａｒｔｈ合同会社,,合同会社,北海道,札幌市中央区,大通西２５丁目１－２ハートランド円山ビル５Ｆ,,01,101,0640820,,,2024-02-19,清算の結了等,,,2020-07-21,1,,,,,アース,0
1527,7010501018707,登記記録の閉鎖等,0,2024-02-21,2024-02-19,株式会社ケーワイビルシステム,,株式会社,東京都,台東区,元浅草１丁目１９番９号,,13,106,1110041,,,2024-02-19,清算の結了等,,,2015-10-05,1,,,,,ケーワイビルシステム,0
1572,7020001072897,登記記録の閉鎖等,0,2024-02-21,2024-02-19,石川運送株式会社,,株式会社,神奈川県,川崎市川崎区,東門前１丁目１６番６号,,14,131,2100812,,,2024-02-19,清算の結了等,,,2015-10-05,1,,,,,イシカワウンソウ,0
1579,7020002071444,登記記録の閉鎖等,0,2024-02-21,2024-02-19,有限会社ＣＯＮＳＯＲＴＥ,,有限会社,神奈川県,横浜市金沢区,釜利谷東２丁目２番１３号,,14,108,2360042,,,2024-02-19,清算の結了等,,,2015-10-05,1,,,,,,0
1580,7020002106225,登記記録の閉鎖等,0,2024-02-21,2024-02-19,有限会社ヘブン,,有限会社,神奈川県,川崎市宮前区,西野川１丁目３４番１－３０７号藤和ライブタウン梶ヶ谷,,14,136,2160044,,,2024-02-19,清算の結了等,,,2015-10-05,1,,,,,ヘブン,0
1583,7021001070057,登記記録の閉鎖等,0,2024-02-21,2024-02-20,株式会社ユースペース,,株式会社,神奈川県,茅ヶ崎市,東海岸南２丁目４番２５－２０３号メゾン長井,,14,207,2530054,,,2024-02-20,清算の結了等,,,2020-06-02,1,,,,,ユースペース,0
1601,7030005017732,登記記録の閉鎖等,0,2024-02-21,2024-02-16,一般社団法人地域共生とだ２５,,その他の設立登記法人,埼玉県,戸田市,本町５丁目３番４号,,11,224,3350023,,,2024-02-16,清算の結了等,,,2015-12-16,1,,,,,チイキキョウセイトダニジュウゴ,0
1602,7040001001730,登記記録の閉鎖等,0,2024-02-21,2024-02-16,株式会社京商,,株式会社,千葉県,千葉市中央区,村田町２３番地,,12,101,2600825,,,2024-02-16,清算の結了等,,,2015-10-05,1,,,,,キョウショウ,0
1623,7070001006017,登記記録の閉鎖等,0,2024-02-21,2024-02-16,株式会社アートニッショー,,株式会社,群馬県,高崎市,上佐野町１０１７番地,,10,202,3700857,,,2024-02-16,清算の結了等,,,2015-10-05,1,,,,,アートニッショー,0
1625,7080001022509,登記記録の閉鎖等,0,2024-02-21,2024-02-16,株式会社クロスト,,株式会社,静岡県,静岡市葵区,大岩１丁目７番２７－１０５号,,22,101,4200886,,,2024-02-16,清算の結了等,,,2018-10-29,1,,,,,クロスト,0
1629,7090001011122,登記記録の閉鎖等,0,2024-02-21,2024-02-15,株式会社セレオ,,株式会社,山梨県,韮崎市,本町２丁目１０番９号,,19,207,4070024,,,2024-02-15,合併による解散等,9090001014528,令和６年２月１日山梨県韮崎市本町二丁目１０番９号株式会社喜月堂セレオ（9090001014528）に合併し解散,2015-10-05,1,,,,,セレオ,0
1634,7090002013571,登記記録の閉鎖等,0,2024-02-21,2024-02-15,有限会社喜月堂,,有限会社,山梨県,韮崎市,本町２丁目１０番９号,,19,207,4070024,,,2024-02-15,合併による解散等,9090001014528,令和６年２月１日山梨県韮崎市本町二丁目１０番９号株式会社喜月堂セレオ（9090001014528）に合併し解散,2015-10-05,1,,,,,キゲツドウ,0
1643,7110005002718,登記記録の閉鎖等,0,2024-02-21,2024-02-20,医療法人社団本田医院,,その他の設立登記法人,新潟県,新潟市西蒲区,馬堀６１５０番地１,,15,108,9530061,,,2024-02-20,清算の結了等,,,2015-10-05,1,,,,,ホンダイイン,0
1680,7140001087041,登記記録の閉鎖等,0,2024-02-21,2024-02-19,株式会社あさい鍼灸整骨院,,株式会社,兵庫県,神戸市垂水区,日向２丁目３番１１号,,28,108,6550893,,,2024-02-19,清算の結了等,,,2015-10-05,1,,,,,アサイシンキュウセイコツイン,0
1681,7140001131286,登記記録の閉鎖等,0,2024-02-21,2024-02-15,株式会社ｃｒｅａｔｉｖｅ　ｆｏｒｇｅ,,株式会社,兵庫県,西宮市,本町７番１５号,,28,204,6620914,,,2024-02-15,清算の結了等,,,2023-08-22,1,,,,,クリエイティブフォージ,0
1683,7140003015660,登記記録の閉鎖等,0,2024-02-21,2024-02-16,ｏｎｅ　ｓｔａｒ合同会社,,合同会社,兵庫県,西宮市,北六甲台５丁目３９－１０,,28,204,6511413,,,2024-02-16,清算の結了等,,,2020-12-03,1,,,,,ワンスター,0
1690,7180001084803,登記記録の閉鎖等,0,2024-02-21,2024-02-16,株式会社コア,,株式会社,愛知県,一宮市,東五城字大平裏３５番地,,23,203,4940008,,,2024-02-16,清算の結了等,,,2015-10-05,1,,,,,コア,0
1696,7180003022208,登記記録の閉鎖等,0,2024-02-21,2024-02-16,合同会社アイ・ティー・ユー,,合同会社,愛知県,名古屋市中村区,靖国町２丁目６７番地,,23,105,4530065,,,2024-02-16,清算の結了等,,,2021-03-08,1,,,,,アイティーユー,0
1699,7180301031439,登記記録の閉鎖等,0,2024-02-21,2024-02-13,株式会社ＴＭＹ企画,,株式会社,愛知県,安城市,錦町１１番８号,,23,212,4460035,,,2024-02-13,清算の結了等,,,2018-04-27,1,,,,,ティーエムワイキカク,0
1702,7190001026688,登記記録の閉鎖等,0,2024-02-21,2024-02-20,株式会社ＧＯＴＥＮＢＡプライム,,株式会社,三重県,津市,寿町１８番１５号,,24,201,5140015,,,2024-02-20,清算の結了等,,,2019-08-26,1,,,,,ゴテンバプライム,0
1738,7340001011518,登記記録の閉鎖等,0,2024-02-21,2024-02-15,株式会社共栄食品,,株式会社,鹿児島県,鹿児島市,上福元町３３６４番地１１,,46,201,8910116,,,2024-02-15,清算の結了等,,,2015-10-05,1,,,,,キョウエイショクヒン,0
1743,7360001028452,登記記録の閉鎖等,0,2024-02-21,2024-02-15,株式会社Ｔ＆Ｋ,,株式会社,沖縄県,中頭郡北谷町,北谷２丁目１６番地７－１Ｆ,,47,326,9040116,,,2024-02-15,清算の結了等,,,2021-03-05,1,,,,,ティーアンドケー,0
1755,7390002015190,登記記録の閉鎖等,0,2024-02-21,2024-02-20,有限会社萩野工機,,有限会社,山形県,西置賜郡白鷹町,大字萩野１５７８番地,,06,402,9920811,,,2024-02-20,清算の結了等,,,2015-10-05,1,,,,,ハギノコウキ,0
1798,8010401166860,登記記録の閉鎖等,0,2024-02-21,2024-02-16,株式会社ＰＯＰＯ,,株式会社,東京都,港区,浜松町２丁目２番１５号浜松町ダイヤビル２Ｆ,,13,103,1050013,,,2024-02-16,清算の結了等,,,2022-04-19,1,,,,,ポポ,0
1816,8010902001467,登記記録の閉鎖等,0,2024-02-21,2024-02-19,有限会社石原温度計製作所,,有限会社,東京都,世田谷区,野沢２丁目３３番１８号,,13,112,1540003,,,2024-02-19,清算の結了等,,,2015-10-05,1,,,,,イシハラオンドケイセイサクショ,0
1836,8011701011302,登記記録の閉鎖等,0,2024-02-21,2024-02-20,株式会社丸勝,,株式会社,東京都,江戸川区,東小岩５丁目１８番２０号,,13,123,1330052,,,2024-02-20,清算の結了等,,,2015-10-05,1,,,,,マルカツ,0
1841,8012401008530,登記記録の閉鎖等,0,2024-02-21,2024-02-15,株式会社プロテック,,株式会社,東京都,調布市,布田２丁目１３番地１１,,13,208,1820024,,,2024-02-15,清算の結了等,,,2015-10-05,1,,,,,,0
1848,8020001065132,登記記録の閉鎖等,0,2024-02-21,2024-02-19,株式会社キノヤ,,株式会社,神奈川県,川崎市麻生区,上麻生６丁目３９番３８号,,14,137,2150021,,,2024-02-19,清算の結了等,,,2015-10-05,1,,,,,キノヤ,0
1857,8020002047708,登記記録の閉鎖等,0,2024-02-21,2024-02-16,有限会社山村工務店,,有限会社,神奈川県,横浜市戸塚区,舞岡町３３８６番地,,14,110,2440813,,,2024-02-16,清算の結了等,,,2015-10-05,1,,,,,ヤマムラコウムテン,0
1858,8020002096861,登記記録の閉鎖等,0,2024-02-21,2024-02-19,有限会社光陽機工,,有限会社,神奈川県,川崎市川崎区,大師駅前１丁目６番１７－１００３号,,14,131,2100802,,,2024-02-19,清算の結了等,,,2015-10-05,1,,,,,コウヨウキコウ,0
1860,8021001048341,登記記録の閉鎖等,0,2024-02-21,2024-02-20,株式会社すずひで,,株式会社,神奈川県,茅ヶ崎市,南湖３丁目４番６号,,14,207,2530061,,,2024-02-20,清算の結了等,,,2015-10-05,1,,,,,スズヒデ,0
1899,8080001006023,登記記録の閉鎖等,0,2024-02-21,2024-02-19,株式会社パザパ,,株式会社,静岡県,静岡市駿河区,八幡２丁目９番１４号,,22,102,4228076,,,2024-02-19,清算の結了等,,,2015-10-05,1,,,,,パザパ,0
1904,8080401013461,登記記録の閉鎖等,0,2024-02-21,2024-02-19,株式会社エコライズ,,株式会社,静岡県,浜松市中央区,大平台４丁目３８番１９号パレスかわぐちＩＩＩ番館Ｂ,00133266,22,138,4328068,,,2024-02-19,清算の結了等,,,2015-10-05,1,,,,,エコライズ,0
1923,8120002037277,登記記録の閉鎖等,0,2024-02-21,2024-02-19,有限会社テラオカ,,有限会社,大阪府,大阪市中央区,平野町２丁目５番１４号,,27,128,5410046,,,2024-02-19,清算の結了等,,,2015-10-05,1,,,,,テラオカ,0
1933,8120901024565,登記記録の閉鎖等,0,2024-02-21,2024-02-19,株式会社竹仙工房,,株式会社,大阪府,豊中市,服部本町２丁目９番６号,,27,203,5610852,,,2024-02-19,清算の結了等,,,2015-10-05,1,,,,,チクセンコウボウ,0
1936,8130001052400,登記記録の閉鎖等,0,2024-02-21,2024-02-19,株式会社アトリエ彩紀,,株式会社,京都府,京都市山科区,勧修寺西金ケ崎２１２－３,,26,110,6078221,,,2024-02-19,清算の結了等,,,2015-10-05,1,,,,,,0
1940,8140001066564,登記記録の閉鎖等,0,2024-02-21,2024-02-19,藤の坊株式会社,,株式会社,兵庫県,三田市,志手原８６１番地の１,,28,219,6691506,,,2024-02-19,清算の結了等,,,2015-10-05,1,,,,,フジノボウ,0
1941,8140001070681,登記記録の閉鎖等,0,2024-02-21,2024-02-19,株式会社ゆき,,株式会社,兵庫県,西宮市,山口町上山口２丁目７番６号,,28,204,6511421,,,2024-02-19,清算の結了等,,,2015-10-05,1,,,,,ユキ,0
1942,8140001095456,登記記録の閉鎖等,0,2024-02-21,2024-02-02,株式会社昭和ゴールデン,,株式会社,兵庫県,神戸市北区,藤原台北町５丁目２番１０－１２０２号,,28,109,6511301,,,2024-02-02,合併による解散等,7140001042194,令和６年２月１日神戸市北区藤原台北町五丁目２番１０－１２０２号株式会社Ｋａｙａ　Ｇｒｏｕｐ（7140001042194）に合併し解散,2015-10-05,1,,,,,ショウワゴールデン,0
1951,8160001016591,登記記録の閉鎖等,0,2024-02-21,2024-02-19,株式会社京滋,,株式会社,滋賀県,大津市,南船路２６９番地,,25,201,5200516,,,2024-02-19,清算の結了等,,,2015-10-05,1,,,,,ケイジ,0
1965,8200001039423,登記記録の閉鎖等,0,2024-02-21,2024-02-19,株式会社柳井新聞店,,株式会社,岐阜県,大垣市,赤坂町１８７番地１,,21,202,5032213,,,2024-02-19,清算の結了等,,,2021-11-17,1,,,,,ヤナイシンブンテン,0
1976,8290001090830,登記記録の閉鎖等,0,2024-02-21,2024-02-16,株式会社ＤＡＩ,,株式会社,福岡県,福岡市博多区,比恵町１５番６－１００３号,,40,132,8120014,,,2024-02-16,清算の結了等,,,2020-11-09,1,,,,,ダイ,0
1984,8290801005310,登記記録の閉鎖等,0,2024-02-21,2024-02-13,株式会社コーワ,,株式会社,福岡県,北九州市門司区,柳町１丁目４番９号２Ｆ,,40,101,8000025,,,2024-02-13,清算の結了等,,,2015-10-05,1,,,,,コーワ,0
1986,8310002007228,登記記録の閉鎖等,0,2024-02-21,2024-02-20,有限会社分福茶釜,,有限会社,長崎県,西彼杵郡時津町,久留里郷４２３番地１,,42,308,8512107,,,2024-02-20,清算の結了等,,,2015-10-05,1,,,,,ブンブクチャガマ,0
1995,8350001015450,登記記録の閉鎖等,0,2024-02-21,2024-02-13,株式会社ＢＬホールディングス,,株式会社,宮崎県,宮崎市,大字島之内６２８４番地２,,45,201,8800121,,,2024-02-13,合併による解散等,6350001004075,令和６年２月１日宮崎市大字島之内６２８４番地２株式会社ビーライン（6350001004075）に合併し解散,2018-09-19,1,,,,,ビーエルホールディングス,0
2017,8390002014398,登記記録の閉鎖等,0,2024-02-21,2024-02-16,有限会社高橋製麺所,,有限会社,山形県,南陽市,三間通７４番地,,06,213,9992232,,,2024-02-16,清算の結了等,,,2015-10-05,1,,,,,タカハシセイメンショ,0
2028,8430005013070,登記記録の閉鎖等,0,2024-02-21,2024-02-15,一般社団法人日本心経協会,,その他の設立登記法人,北海道,札幌市中央区,北六条西２５丁目３－３５－２０６号,,01,101,0600006,,,2024-02-15,清算の結了等,,,2017-03-13,1,,,,,ニホンシンギョウキョウカイ,0
2032,8490005006564,登記記録の閉鎖等,0,2024-02-21,2024-02-19,一般社団法人高知サマサマＣＣＲＣセンター,,その他の設立登記法人,高知県,高知市,弘化台１２番１２号,,39,201,7810811,,,2024-02-19,清算の結了等,,,2017-12-18,1,,,,,コウチサマサマシーシーアールシーセンター,0
2052,9010003039019,登記記録の閉鎖等,0,2024-02-21,2024-02-08,珍島信息技術合同会社,,合同会社,東京都,千代田区,飯田橋２丁目１６－４九段下コート２Ｆ－２１５号室,,13,101,1020072,,,2024-02-08,清算の結了等,,,2022-11-15,1,,,,,チントウシンソクギジュツ,0
2077,9010701040095,登記記録の閉鎖等,0,2024-02-21,2024-02-16,株式会社ｆｉｎｇｇｅｒ,,株式会社,東京都,品川区,西五反田２丁目１１番２０号,,13,109,1410031,,,2024-02-16,清算の結了等,,,2020-11-17,1,,,,,フィンガー,0
2080,9010801014296,登記記録の閉鎖等,0,2024-02-21,2024-02-19,石田商事株式会社,,株式会社,東京都,新宿区,早稲田町６９番地４－Ｂ１,,13,104,1620042,,,2024-02-19,清算の結了等,,,2015-10-05,1,,,,,イシダショウジ,0
2118,9011601021020,登記記録の閉鎖等,0,2024-02-21,2024-02-15,株式会社ノベルティ・サービス,,株式会社,東京都,練馬区,春日町４丁目３５番５号,,13,120,1790074,,,2024-02-15,清算の結了等,,,2016-06-23,1,,,,,ノベルティサービス,0
2128,9012401034988,登記記録の閉鎖等,0,2024-02-21,2024-02-09,マイマイハウス株式会社,,株式会社,東京都,府中市,押立町１丁目３４番地の１コープ府中武蔵野台３－４０１,,13,206,1830012,,,2024-02-09,合併による解散等,1013402006562,令和６年２月１日東京都多摩市関戸二丁目３９番地４インフォエステート株式会社（1013402006562）に合併し解散,2019-02-25,1,,,,,マイマイハウス,0
2130,9012403003289,登記記録の閉鎖等,0,2024-02-21,2024-02-14,合同会社ＹＫホーム,,合同会社,東京都,稲城市,百村２６５番地の１５,,13,225,2060804,,,2024-02-14,清算の結了等,,,2017-12-18,1,,,,,ワイケー,0
2134,9013401000435,登記記録の閉鎖等,0,2024-02-21,2024-02-15,株式会社武隈,,株式会社,東京都,日野市,多摩平２丁目３番地の３,,13,212,1910062,,,2024-02-15,清算の結了等,,,2015-10-05,1,,,,,タケクマ,0
2136,9013401001318,登記記録の閉鎖等,0,2024-02-21,2024-02-16,ダイヤテック株式会社,,株式会社,東京都,多摩市,貝取１丁目５２番地７,,13,224,2060012,,,2024-02-16,清算の結了等,,,2015-10-05,1,,,,,ダイヤテック,0
2140,9020001111876,登記記録の閉鎖等,0,2024-02-21,2024-02-15,株式会社ネクストチャプター,,株式会社,東京都,中央区,月島１丁目２２番１－２１１５号,,13,102,1040052,,,2024-02-15,清算の結了等,,,2015-10-05,1,,,,,ネクストチャプター,0
2141,9020001143911,登記記録の閉鎖等,0,2024-02-21,2024-02-19,株式会社Ｎｉ－Ｇｉ,,株式会社,神奈川県,横浜市青葉区,藤が丘２丁目３番地３第２飯田ビル３０２,,14,117,2270043,,,2024-02-19,清算の結了等,,,2021-11-15,1,,,,,ニジ,0
2145,9020002102065,登記記録の閉鎖等,0,2024-02-21,2024-02-01,多摩川ファクトリーサービス有限会社,,有限会社,神奈川県,横浜市港北区,新羽町６８８番地,,14,109,2230057,,,2024-02-01,合併による解散等,2011001009069,令和６年２月１日神奈川県横浜市港北区新羽町６８８号株式会社サンジェルマン（2011001009069）に合併し解散,2015-10-05,1,,,,,タマガワファクトリーサービス,0
2146,9020003014680,登記記録の閉鎖等,0,2024-02-21,2024-02-19,合同会社ままごと,,合同会社,神奈川県,川崎市宮前区,鷺沼３丁目１－６コバヤシビル３Ｆ,,14,136,2160004,,,2024-02-19,清算の結了等,,,2018-07-31,1,,,,,ママゴト,0
2153,9030001054455,登記記録の閉鎖等,0,2024-02-21,2024-02-16,落合商事株式会社,,株式会社,埼玉県,川越市,松江町２丁目６番地５,,11,201,3500056,,,2024-02-16,清算の結了等,,,2015-10-05,1,,,,,オチアイショウジ,0
2157,9030001112188,登記記録の閉鎖等,0,2024-02-21,2024-02-13,アグリテクノ平林株式会社,,株式会社,埼玉県,久喜市,本町４丁目１４番３０号,,11,232,3460005,,,2024-02-13,清算の結了等,,,2016-01-12,1,,,,,アグリテクノヒラリン,0
2162,9030002076309,登記記録の閉鎖等,0,2024-02-21,2024-02-19,有限会社ワープ,,有限会社,埼玉県,ふじみ野市,上福岡１丁目８番８号,,11,245,3560004,,,2024-02-19,清算の結了等,,,2015-10-05,1,,,,,ワープ,0
2170,9040002065772,登記記録の閉鎖等,0,2024-02-21,2024-02-16,有限会社富士空調,,有限会社,千葉県,佐倉市,大蛇町４１１番地１１８,,12,212,2850043,,,2024-02-16,清算の結了等,,,2015-10-05,1,,,,,フジクウチョウ,0
2171,9040003011156,登記記録の閉鎖等,0,2024-02-21,2024-02-19,ＪＩＫ株式会社,,株式会社,神奈川県,横浜市南区,別所６丁目９－２５－３０２号,,14,105,2320064,,,2024-02-19,清算の結了等,,,2018-01-24,1,,,,,ジェイアイケー,0
2173,9040005014578,登記記録の閉鎖等,0,2024-02-21,2024-02-15,宗教法人木曽御嶽本教旭山教会,00021657,その他の設立登記法人,千葉県,野田市,西三ケ尾９１９番地,,12,208,2780015,,,2024-02-15,清算の結了等,,,2015-10-05,1,,,,,,0
2178,9070001017986,登記記録の閉鎖等,0,2024-02-21,2024-02-16,吉岡電子工業株式会社,,株式会社,群馬県,北群馬郡吉岡町,大字小倉５０４番地,,10,345,3703607,,,2024-02-16,清算の結了等,,,2015-10-05,1,,,,,ヨシオカデンシコウギョウ,0
2179,9070001020916,登記記録の閉鎖等,0,2024-02-21,2024-02-19,株式会社マミーリブレ,,株式会社,群馬県,太田市,新田市野井町５９２番地１３,,10,205,3700314,,,2024-02-19,清算の結了等,,,2015-10-05,1,,,,,,0
2188,9080402000813,登記記録の閉鎖等,0,2024-02-21,2024-02-20,有限会社伊藤織布工場,,有限会社,静岡県,浜松市中央区,領家３丁目１３番２５号,,22,138,4300852,,,2024-02-20,清算の結了等,,,2015-10-05,1,,,,,,0
2193,9110001035397,登記記録の閉鎖等,0,2024-02-21,2024-02-16,株式会社嬉電工,,株式会社,新潟県,長岡市,末広１丁目２番２５号,,15,202,9400834,,,2024-02-16,清算の結了等,,,2020-12-24,1,,,,,ヨシデンコウ,0
2219,9130005012993,登記記録の閉鎖等,0,2024-02-21,2024-02-19,特定非営利活動法人フェア・プラス,,その他の設立登記法人,京都府,京都市下京区,四条通新町東入ル月鉾町５２番地イヌイ四条ビルＦｌａｇ四条,,26,106,6000000,,,2024-02-19,清算の結了等,,,2015-10-05,1,,,,,フェアプラス,0
2231,9140002043339,登記記録の閉鎖等,0,2024-02-21,2024-02-19,有限会社ヒロフーズ,,有限会社,兵庫県,尼崎市,西難波町５丁目１４番２６号,,28,202,6600893,,,2024-02-19,清算の結了等,,,2015-10-05,1,,,,,ヒロフーズ,0
2244,9180001144646,登記記録の閉鎖等,0,2024-02-21,2024-02-16,ＡＮＯＭＡＬＹ株式会社,,株式会社,愛知県,名古屋市北区,山田１丁目７番１３号サンライズ大曽根１階,,23,103,4620810,,,2024-02-16,清算の結了等,,,2021-02-03,1,,,,,アノマリー,0
2299,9490002008471,登記記録の閉鎖等,0,2024-02-21,2024-02-16,有限会社西尾設計事務所,,有限会社,高知県,四万十市,右山天神町７番８号,,39,210,7870013,,,2024-02-16,清算の結了等,,,2015-10-05,1,,,,,ニシオセッケイジムショ,0
