sequenceNumber,corporateNumber,process,correct,updateDate,changeDate,name,nameImageId,kind,prefectureName,cityName,streetNumber,addressImageId,prefectureCode,cityCode,postCode,addressOutside,addressOutsideImageId,closeDate,closeCause,successorCorporateNumber,changeCause,assignmentDate,latest,enName,enPrefectureName,enCityName,enAddressOutside,furigana,hihyoji
13,1010005039957,新規,0,2025-04-22,2025-04-22,一般財団法人日本ウェルビーイング財団,,その他の設立登記法人,東京都,千代田区,丸の内３丁目３番１号,,13,101,1000005,,,,,,,2025-04-22,1,,,,,ニホンウェルビーイングザイダン,0
14,1010005039965,新規,0,2025-04-22,2025-04-22,一般社団法人国連ＩＤＩＯ　ＤＥＶＮＥＴ,,その他の設立登記法人,東京都,千代田区,有楽町１丁目２番２号東宝日比谷ビル９Ｆ,,13,101,1000006,,,,,,,2025-04-22,1,,,,,コクレンアイディアイオーデブネット,0
24,1010403034931,新規,0,2025-04-22,2025-04-22,Ｆｉｇｍｅｎｔ　Ｊａｐａｎ合同会社,,合同会社,東京都,港区,六本木１丁目９番１０号アークヒルズ仙石山森タワー２８階べーカー＆マッケンジー法律事務所内,,13,103,1060032,,,,,,,2025-04-22,1,,,,,フィグメントジャパン,0
25,1010403034948,新規,0,2025-04-22,2025-04-22,ＬＵＴＥＬＬＡ合同会社,,合同会社,東京都,港区,南青山６丁目７番地１５号ラヴォーク南青山５０３,,13,103,1070062,,,,,,,2025-04-22,1,,,,,ルテラ,0
29,1010405024278,新規,0,2025-04-22,2025-04-22,医療法人社団聖秀会,,その他の設立登記法人,東京都,港区,新橋３丁目１１番９号烏森通ビル４階,,13,103,1050004,,,,,,,2025-04-22,1,,,,,セイシュウカイ,0
37,1010905004770,新規,0,2025-04-22,2025-04-22,一般社団法人プロジェクト皎,,その他の設立登記法人,東京都,世田谷区,岡本２丁目１４番６－４０７号,,13,112,1570076,,,,,,,2025-04-22,1,,,,,プロジェクトコウ,0
48,1011001169062,新規,0,2025-04-22,2025-04-22,Ａ．Ｒ．Ｔ株式会社,,株式会社,東京都,渋谷区,道玄坂１丁目１０番８号渋谷道玄坂東急ビル２Ｆ－Ｃ,,13,113,1500043,,,,,,,2025-04-22,1,,,,,アラタ,0
55,1011101111477,新規,0,2025-04-22,2025-04-22,Ｃａｐｓｕｌｅ　Ｈｕｂ株式会社,,株式会社,東京都,新宿区,四谷本塩町３番２号,,13,104,1600003,,,,,,,2025-04-22,1,,,,,カプセルハブ,0
73,1011801046007,新規,0,2025-04-22,2025-04-22,株式会社映音企画,,株式会社,東京都,足立区,鹿浜７丁目２２番９号,,13,121,1230864,,,,,,,2025-04-22,1,,,,,エイオンキカク,0
75,1012301014346,新規,0,2025-04-22,2025-04-22,フォークスキャピタル株式会社,,株式会社,東京都,町田市,南町田５丁目１４番１－３０７号,,13,209,1940005,,,,,,,2025-04-22,1,,,,,フォークスキャピタル,0
91,1021003015890,新規,0,2025-04-22,2025-04-22,ＮＩＨＯＮ　ＯＺＮＥＫ　ＥＮＴＥＲＰＲＩＳＥＳ合同会社,,合同会社,神奈川県,平塚市,山下１丁目４番３３号リゾート高麗１０２号室,,14,203,2540911,,,,,,,2025-04-22,1,,,,,ニホンオズネクエンタープライゼス,0
97,1030001166051,新規,0,2025-04-22,2025-04-22,株式会社江口内装工業,,株式会社,埼玉県,草加市,金明町４６３番地６ヴェラハイツ草加新田駅前２０２号,,11,221,3400052,,,,,,,2025-04-22,1,,,,,,0
98,1030001166084,新規,0,2025-04-22,2025-04-22,株式会社ＳＴＥＬＬＡ,,株式会社,埼玉県,越谷市,大字南荻島３４７番地１リーブルファイン南荻島１０３,,11,222,3430804,,,,,,,2025-04-22,1,,,,,ステラ,0
101,1030003026443,新規,0,2025-04-22,2025-04-22,合同会社緑樹庵,,合同会社,埼玉県,川口市,大字芝６９０６―１３１,,11,203,3330866,,,,,,,2025-04-22,1,,,,,リョクジュアン,0
112,1040001138347,新規,0,2025-04-22,2025-04-22,里幸ホールディングス株式会社,,株式会社,千葉県,市原市,ちはら台東１丁目２５番地９９,,12,219,2900141,,,,,,,2025-04-22,1,,,,,リコウホールディングス,0
113,1040001138438,新規,0,2025-04-22,2025-04-22,株式会社ＲＥＩＮ,,株式会社,千葉県,船橋市,本町６丁目１６番９－１号,,12,204,2730005,,,,,,,2025-04-22,1,,,,,レイン,0
114,1040001138446,新規,0,2025-04-22,2025-04-22,株式会社ウェルブリッジ,,株式会社,千葉県,松戸市,稔台４丁目２０番地の１６,,12,207,2702231,,,,,,,2025-04-22,1,,,,,ウェルブリッジ,0
119,1050001056548,新規,0,2025-04-22,2025-04-22,株式会社ＮＳＧ,,株式会社,茨城県,古河市,諸川１２３１番地１,,08,204,3060126,,,,,,,2025-04-22,1,,,,,エヌエスジー,0
120,1050001056556,新規,0,2025-04-22,2025-04-22,丸将特装会株式会社,,株式会社,茨城県,古河市,上大野２４６９番地７,,08,204,3060201,,,,,,,2025-04-22,1,,,,,マルマサトクソウカイ,0
123,1060001038132,新規,0,2025-04-22,2025-04-22,株式会社ＨＯＰＥＲＳ,,株式会社,栃木県,芳賀郡益子町,大字七井１０００番地２,,09,342,3214106,,,,,,,2025-04-22,1,,,,,ホーパーズ,0
125,1060003005519,新規,0,2025-04-22,2025-04-22,合同会社Ｓｏｉｌ,,合同会社,栃木県,宇都宮市,中央１丁目１番１号,,09,201,3200806,,,,,,,2025-04-22,1,,,,,ソイル,0
130,1080103003305,新規,0,2025-04-22,2025-04-22,合同会社ＢＬＵＥ　ＢＡＳＥ,,合同会社,静岡県,沼津市,下香貫林ノ下１９３７―６６,,22,203,4100822,,,,,,,2025-04-22,1,,,,,ブルーベース,0
131,1090001019229,新規,0,2025-04-22,2025-04-22,ＨＵＢ　ＰＯＲＴ　ＪＡＰＡＮ株式会社,,株式会社,山梨県,西八代郡市川三郷町,大塚４５２１番地１,,19,346,4093611,,,,,,,2025-04-22,1,,,,,ハブポートジャパン,0
135,1090003002810,新規,0,2025-04-22,2025-04-22,合同会社フジジェネシス,,合同会社,山梨県,甲府市,下石田２丁目２９番１４号,,19,201,4000046,,,,,,,2025-04-22,1,,,,,フジジェネシス,0
138,1110001039208,新規,0,2025-04-22,2025-04-22,株式会社ＲｅＳ,,株式会社,新潟県,新潟市西区,小新１丁目７番１２号,,15,107,9502023,,,,,,,2025-04-22,1,,,,,アールイーエス,0
140,1110003005736,新規,0,2025-04-22,2025-04-22,合同会社アセット,,合同会社,新潟県,新潟市西蒲区,番屋１４１５番地,,15,108,9590512,,,,,,,2025-04-22,1,,,,,アセット,0
150,1120001274729,新規,0,2025-04-22,2025-04-22,株式会社ＫＯＢＡＳＨＩ　Ｉｎｎｏｖａｔｅ,,株式会社,大阪府,枚方市,東田宮１丁目１４番１８号,,27,210,5730023,,,,,,,2025-04-22,1,,,,,コバシイノベート,0
151,1120001274786,新規,0,2025-04-22,2025-04-22,サスエネマシーン株式会社,,株式会社,大阪府,大阪市西区,北堀江１丁目２０番１５号,,27,106,5500014,,,,,,,2025-04-22,1,,,,,サスエネマシーン,0
152,1120001275215,新規,0,2025-04-22,2025-04-22,株式会社日本インダストリー,,株式会社,大阪府,大阪市天王寺区,上本町４丁目１番１６号－４０５,,27,109,5430001,,,,,,,2025-04-22,1,,,,,ニホンインダストリー,0
156,1120003029180,新規,0,2025-04-22,2025-04-22,合同会社吾惠,,合同会社,大阪府,大阪市港区,磯路２丁目１１－２０,,27,107,5520003,,,,,,,2025-04-22,1,,,,,ゴエ,0
158,1120101071514,新規,0,2025-04-22,2025-04-22,科興株式会社,,株式会社,大阪府,阪南市,鳥取１０１６番２,,27,232,5990204,,,,,,,2025-04-22,1,,,,,カキョウ,0
159,1120103006410,新規,0,2025-04-22,2025-04-22,合同会社南重量メンテナンスサービス,,合同会社,大阪府,堺市堺区,旭ヶ丘中町２－３－２５,,27,141,5900000,,,,,,,2025-04-22,1,,,,,ミナミジュウリョウメンテナンスサービス,0
175,1140001138213,新規,0,2025-04-22,2025-04-22,株式会社Ｚｅｎ,,株式会社,兵庫県,神戸市中央区,八幡通４丁目２番１８号昭和住宅・福本ビル４０１号室,,28,110,6510085,,,,,,,2025-04-22,1,,,,,ゼン,0
176,1140001138221,新規,0,2025-04-22,2025-04-22,株式会社ＡＷ＆ＳＯＮＳ,,株式会社,兵庫県,神戸市西区,大津和３丁目１番１０号,,28,111,6512112,,,,,,,2025-04-22,1,,,,,エーダブリュアンドサンズ,0
181,1140005027478,新規,0,2025-04-22,2025-04-22,医療法人社団由貴会,,その他の設立登記法人,兵庫県,加西市,西谷町４５８番地の２,,28,220,6752366,,,,,,,2025-04-22,1,,,,,ユキカイ,0
182,1150003003579,新規,0,2025-04-22,2025-04-22,合同会社ストリーム,,合同会社,奈良県,桜井市,大字箸中９２１番地の３,,29,206,6330072,,,,,,,2025-04-22,1,,,,,ストリーム,0
191,1180001166458,新規,0,2025-04-22,2025-04-22,株式会社Ｄ‐ｉｎｆｉｎｉｔｙ,,株式会社,愛知県,名古屋市中村区,名駅４丁目２４番８号いちご名古屋ビル２階,,23,105,4500002,,,,,,,2025-04-22,1,,,,,ディーインフィニティ,0
194,1180005021072,新規,0,2025-04-22,2025-04-22,弁護士法人北見法律事務所,,その他の設立登記法人,愛知県,名古屋市西区,市場木町４７３番地,,23,104,4520805,,,,,,,2025-04-22,1,,,,,キタミホウリツジムショ,0
196,1180301039743,新規,0,2025-04-22,2025-04-22,株式会社ＥＡＳＹ　ＨＯＵＳＥ,,株式会社,愛知県,碧南市,入船町４丁目３７番地２,,23,209,4470831,,,,,,,2025-04-22,1,,,,,イージーハウス,0
203,1210003001915,新規,0,2025-04-22,2025-04-22,桂華武道具合同会社,,合同会社,福井県,福井市,二の宮２丁目２８－３８福弘ビル３階,,18,201,9100015,,,,,,,2025-04-22,1,,,,,ケイカブドウグ,0
208,1240001064837,新規,0,2025-04-22,2025-04-22,株式会社雪松,,株式会社,広島県,広島市中区,住吉町１９番１０号,,34,101,7300813,,,,,,,2025-04-22,1,,,,,セツマツ,0
210,1240003007158,新規,0,2025-04-22,2025-04-22,合同会社たけむら,,合同会社,広島県,呉市,阿賀中央６丁目２－１１あがプラザ１階,,34,202,7370003,,,,,,,2025-04-22,1,,,,,タケムラ,0
213,1260001040134,新規,0,2025-04-22,2025-04-22,株式会社エンリッチワークス,,株式会社,岡山県,岡山市北区,表町３丁目５－１５,,33,101,7000822,,,,,,,2025-04-22,1,,,,,エンリッチワークス,0
217,1290001109728,新規,0,2025-04-22,2025-04-22,株式会社ＦＯＲＷＡＳＩＸ,,株式会社,福岡県,福岡市博多区,博多駅前１丁目２３番２号ＰａｒｋＦｒｏｎｔ博多駅前一丁目５Ｆ－Ｂ,,40,132,8120011,,,,,,,2025-04-22,1,,,,,フォワシックス,0
218,1290001109752,新規,0,2025-04-22,2025-04-22,株式会社Ｓｈｉｎｅ,,株式会社,福岡県,福岡市中央区,春吉２丁目９－２５ラ・レジダンス・ド・レーヌ３０６号室,,40,133,8100003,,,,,,,2025-04-22,1,,,,,シャイン,0
220,1290003016666,新規,0,2025-04-22,2025-04-22,スマイルライン合同会社,,合同会社,福岡県,福岡市博多区,博多駅前１丁目２３番２号ＰａｒｋＦｒｏｎｔ博多駅前１丁目５Ｆ－Ｂ,,40,132,8120011,,,,,,,2025-04-22,1,,,,,スマイルライン,0
221,1290003016699,新規,0,2025-04-22,2025-04-22,合同会社ＦＲＥＥＤＭＡＮ,,合同会社,福岡県,福岡市西区,大字宮浦３２８,,40,135,8190201,,,,,,,2025-04-22,1,,,,,フリードマン,0
222,1290003016724,新規,0,2025-04-22,2025-04-22,合同会社アール・エス・コンサルティング,,合同会社,福岡県,福岡市博多区,博多駅東１丁目１４番３４号,,40,132,8120013,,,,,,,2025-04-22,1,,,,,アールエスコンサルティング,0
225,1330001033122,新規,0,2025-04-22,2025-04-22,株式会社サンビルダーズ,,株式会社,熊本県,合志市,合生１９７１番地１,,43,216,8611101,,,,,,,2025-04-22,1,,,,,サンビルダーズ,0
237,1370005010948,新規,0,2025-04-22,2025-04-22,一般社団法人シニアライフキャリア,,その他の設立登記法人,宮城県,仙台市宮城野区,宮城野１丁目２５番１６号,,04,102,9830045,,,,,,,2025-04-22,1,,,,,シニアライフキャリア,0
246,1410001014139,新規,0,2025-04-22,2025-04-22,ＦｌｏｗｅｒＬｅａｆ株式会社,,株式会社,秋田県,秋田市,楢山南新町上丁１２番地３,,05,201,0100024,,,,,,,2025-04-22,1,,,,,フラワーリーフ,0
258,1500001026249,新規,0,2025-04-22,2025-04-22,株式会社Ｊ‐ＴＲＹ,,株式会社,愛媛県,新居浜市,光明寺１丁目甲４０２番地の１１,,38,205,7920853,,,,,,,2025-04-22,1,,,,,ジェイトライ,0
265,2010001254071,新規,0,2025-04-22,2025-04-22,株式会社ＭＥＲＩＲＩ,,株式会社,東京都,中央区,銀座１丁目２２番１１号銀座大竹ビジデンス２Ｆ,,13,102,1040061,,,,,,,2025-04-22,1,,,,,メリリ,0
266,2010001254352,新規,0,2025-04-22,2025-04-22,ＴＵＮ　ＰＯＷＥＲ株式会社,,株式会社,東京都,千代田区,霞が関３丁目２番５号,,13,101,1000013,,,,,,,2025-04-22,1,,,,,トゥンパワー,0
268,2010003047135,新規,0,2025-04-22,2025-04-22,ＯＭＥ合同会社,,合同会社,東京都,千代田区,飯田橋４丁目７番１号結和税理士法人内,,13,101,1020072,,,,,,,2025-04-22,1,,,,,オウメ,0
270,2010101016644,新規,0,2025-04-22,2025-04-22,株式会社ＵＰ,,株式会社,東京都,八王子市,元本郷町３丁目１５番８号プライムコート元本郷６０２号室,,13,201,1920051,,,,,,,2025-04-22,1,,,,,ユーピー,0
279,2010403034889,新規,0,2025-04-22,2025-04-22,Ｆａｃｔｏｒｉｚｅ合同会社,,合同会社,東京都,港区,南青山２丁目２番１５号,,13,103,1070062,,,,,,,2025-04-22,1,,,,,ファクトライズ,0
280,2010403034922,新規,0,2025-04-22,2025-04-22,合同会社Ｅｌｉｓｈ　Ｖｉｓｉｏｎ,,合同会社,東京都,港区,虎ノ門４丁目３番２０号神谷町ＭＴビル１４階,,13,103,1050001,,,,,,,2025-04-22,1,,,,,エリシュビジョン,0
285,2010601067187,新規,0,2025-04-22,2025-04-22,小田製薬株式会社,,株式会社,東京都,江東区,青海２丁目５番１０テレコムセンタービル東棟１４階,,13,108,1350064,,,,,,,2025-04-22,1,,,,,オダセイヤク,0
302,2011001169045,新規,0,2025-04-22,2025-04-22,Ｂｅｎｒｉ．ａｉ株式会社,,株式会社,東京都,目黒区,下目黒１丁目１番１４号コノトラビル７Ｆ,,13,110,1530064,,,,,,,2025-04-22,1,,,,,ベンリエーアイ,0
303,2011001169053,新規,0,2025-04-22,2025-04-22,ツーブリッジ株式会社,,株式会社,東京都,目黒区,下目黒１丁目１番１４号コノトラビル７Ｆ,,13,110,1530064,,,,,,,2025-04-22,1,,,,,ツーブリッジ,0
304,2011001169103,新規,0,2025-04-22,2025-04-22,株式会社ＥＬ,,株式会社,東京都,渋谷区,富ヶ谷２丁目９－１３－２０４,,13,113,1510063,,,,,,,2025-04-22,1,,,,,エル,0
305,2011003021435,新規,0,2025-04-22,2025-04-22,合同会社ファンク,,合同会社,東京都,渋谷区,桜丘町１－１渋谷第１ビルサクラステージ７階,,13,113,1500031,,,,,,,2025-04-22,1,,,,,ファンク,0
315,2011501031968,新規,0,2025-04-22,2025-04-22,民涵株式会社,,株式会社,東京都,荒川区,町屋３丁目１８－１２ＮＤビル２０２,,13,118,1160001,,,,,,,2025-04-22,1,,,,,ミンカン,0
318,2011703004210,新規,0,2025-04-22,2025-04-22,合同会社ＴＩＥ　ＧＥＮＴＬＹ,,合同会社,東京都,江戸川区,清新町１丁目５－８－２０５,,13,123,1340087,,,,,,,2025-04-22,1,,,,,タイジェントリー,0
322,2011801045998,新規,0,2025-04-22,2025-04-22,あらい貿易株式会社,,株式会社,東京都,足立区,千住緑町１丁目１８番９号,,13,121,1200044,,,,,,,2025-04-22,1,,,,,アライボウエキ,0
329,2012701018821,新規,0,2025-04-22,2025-04-22,なないろ株式会社,,株式会社,東京都,東久留米市,滝山７丁目２３番４号,,13,222,2030033,,,,,,,2025-04-22,1,,,,,ナナイロ,0
335,2013301054125,新規,0,2025-04-22,2025-04-22,ＢＬＵＥ　ＳＫＹ株式会社,,株式会社,東京都,豊島区,南池袋１丁目９番１８号１２８号室,,13,116,1710022,,,,,,,2025-04-22,1,,,,,ブルースカイ,0
336,2013303007576,新規,0,2025-04-22,2025-04-22,ＢＬＧ合同会社,,合同会社,東京都,豊島区,東池袋３丁目１１番７号ライオンズマンション池袋第３－４０４室,,13,116,1700013,,,,,,,2025-04-22,1,,,,,ビーエルジー,0
342,2020001162505,新規,0,2025-04-22,2025-04-22,Ｂｅｎｚ　Ｓｃｉｅｎｃｅｓ株式会社,,株式会社,神奈川県,横浜市中区,山下町２４番地８,,14,104,2310023,,,,,,,2025-04-22,1,,,,,ベンツサイエンシズ,0
343,2020001162521,新規,0,2025-04-22,2025-04-22,ＷＣＤ株式会社,,株式会社,神奈川県,横浜市神奈川区,金港町５番地１４号クアドリフォリオ８階,,14,102,2210056,,,,,,,2025-04-22,1,,,,,ダブリューシーディー,0
345,2020003028332,新規,0,2025-04-22,2025-04-22,Ｉｎ‐Ｎ‐Ｏｕｔ　Ｄｅｓｉｇｎ合同会社,,合同会社,神奈川県,横浜市西区,平沼１丁目４０番１１－９０１号,,14,103,2200023,,,,,,,2025-04-22,1,,,,,インアンドアウト,0
349,2021003015832,新規,0,2025-04-22,2025-04-22,合同会社Ｐｒｅｂｅａｕｄｅ,,合同会社,神奈川県,相模原市南区,上鶴間６丁目１５－１２,,14,153,2520302,,,,,,,2025-04-22,1,,,,,プレビュート,0
354,2030001166026,新規,0,2025-04-22,2025-04-22,株式会社ＫＧｐａｒｔｎｅｒｓ,,株式会社,埼玉県,和光市,中央１丁目３－１３－１０１,,11,229,3510113,,,,,,,2025-04-22,1,,,,,ケージーパートナーズ,0
357,2030003026558,新規,0,2025-04-22,2025-04-22,ゴカイドウ合同会社,,合同会社,埼玉県,北葛飾郡杉戸町,大字堤根２５５５,,11,464,3450024,,,,,,,2025-04-22,1,,,,,ゴカイドウ,0
358,2030003026599,新規,0,2025-04-22,2025-04-22,合同会社らいおん,,合同会社,埼玉県,さいたま市大宮区,仲町１丁目５０番地福田産業ビル２階２０１号,,11,103,3300845,,,,,,,2025-04-22,1,,,,,ライオン,0
359,2030003026616,新規,0,2025-04-22,2025-04-22,ＢＭ　ＣＯＭＰＡＮＹ合同会社,,合同会社,埼玉県,幸手市,大字松石５７１番地１,,11,240,3400105,,,,,,,2025-04-22,1,,,,,ビーエムカンパニー,0
360,2030003026624,新規,0,2025-04-22,2025-04-22,ＯＴＮ合同会社,,合同会社,埼玉県,新座市,北野２丁目１７番２０号,,11,230,3520003,,,,,,,2025-04-22,1,,,,,オーティーエヌ,0
367,2040003027415,新規,0,2025-04-22,2025-04-22,雄和ファシリティ合同会社,,合同会社,千葉県,四街道市,大日４８４番地１８,,12,228,2840001,,,,,,,2025-04-22,1,,,,,ユウワファシリティ,0
368,2050001056547,新規,0,2025-04-22,2025-04-22,株式会社ＯＶＥＲ　ＧＲＯＵＮＤ,,株式会社,茨城県,つくば市,北条２２３３番地１,,08,220,3004231,,,,,,,2025-04-22,1,,,,,オーバーグラウンド,0
370,2060003005518,新規,0,2025-04-22,2025-04-22,ＭＡＳＴＥＲ　ＴＲＡＤＩＮＧ合同会社,,合同会社,栃木県,栃木市,大平町富田３８－１－２号室,,09,203,3294404,,,,,,,2025-04-22,1,,,,,マスタートレーディング,0
376,2070001042859,新規,0,2025-04-22,2025-04-22,株式会社ジャパンペイントハウス,,株式会社,群馬県,佐波郡玉村町,大字南玉１０３６番地４８,,10,464,3701111,,,,,,,2025-04-22,1,,,,,ジャパンペイントハウス,0
377,2070001042875,新規,0,2025-04-22,2025-04-22,株式会社ＡＮＨ　ＥＭ　ＱＵＡＮ,,株式会社,群馬県,伊勢崎市,上諏訪町１２６０番地１わかばハイツＢ２０２,,10,204,3720021,,,,,,,2025-04-22,1,,,,,アンエムクアン,0
380,2070005010382,新規,0,2025-04-22,2025-04-22,一般社団法人ＴＯＰＳＰＯＲＴＳ,,その他の設立登記法人,群馬県,太田市,矢田堀町１２６番地１,,10,205,3730016,,,,,,,2025-04-22,1,,,,,トップスポーツ,0
385,2090001019228,新規,0,2025-04-22,2025-04-22,株式会社長田工業,,株式会社,山梨県,南都留郡忍野村,忍草７８４番地,,19,424,4010511,,,,,,,2025-04-22,1,,,,,オサダコウギョウ,0
390,2100003008103,新規,0,2025-04-22,2025-04-22,合同会社もりと,,合同会社,長野県,長野市,安茂里小市２丁目１９番２号,,20,201,3800961,,,,,,,2025-04-22,1,,,,,モリト,0
399,2120001274777,新規,0,2025-04-22,2025-04-22,中曦株式会社,,株式会社,大阪府,大阪市中央区,平野町１丁目８番１３号平野町八千代ビル３階,,27,128,5410046,,,,,,,2025-04-22,1,,,,,ナカキ,0
401,2120003029155,新規,0,2025-04-22,2025-04-22,Ｋ２合同会社,,合同会社,大阪府,大阪市中央区,日本橋１丁目１６－２１,,27,128,5420073,,,,,,,2025-04-22,1,,,,,ケーツー,0
402,2120003029312,新規,0,2025-04-22,2025-04-22,合同会社リアクトブロー枚方,,合同会社,大阪府,大阪市西区,西本町１丁目１２番７号,,27,106,5500005,,,,,,,2025-04-22,1,,,,,リアクトブローヒラカタ,0
407,2120101071513,新規,0,2025-04-22,2025-04-22,極速メディア株式会社,,株式会社,大阪府,阪南市,鳥取１０１６番２,,27,232,5990204,,,,,,,2025-04-22,1,,,,,キョクソクメディア,0
417,2140001138204,新規,0,2025-04-22,2025-04-22,株式会社はまや,,株式会社,兵庫県,明石市,大久保町大窪２６２０番地の５１５,,28,203,6740051,,,,,,,2025-04-22,1,,,,,ハマヤ,0
418,2140001138294,新規,0,2025-04-22,2025-04-22,株式会社アクアマネジメント,,株式会社,兵庫県,神戸市灘区,徳井町３丁目４番１４号,,28,102,6570033,,,,,,,2025-04-22,1,,,,,アクアマネジメント,0
421,2160001026704,新規,0,2025-04-22,2025-04-22,スター・メディノスＦＡＳ株式会社,,株式会社,滋賀県,守山市,二町町１９８番地１,,25,207,5240043,,,,,,,2025-04-22,1,,,,,スターメディノスエフエイエス,0
434,2180001166440,新規,0,2025-04-22,2025-04-22,株式会社まなこ静岡,,株式会社,愛知県,名古屋市中村区,名駅４丁目１５番１９号,,23,105,4500002,,,,,,,2025-04-22,1,,,,,マナコシズオカ,0
442,2190001032170,新規,0,2025-04-22,2025-04-22,株式会社つばめや,,株式会社,三重県,三重郡朝日町,白梅の丘西２丁目５－４,,24,343,5108107,,,,,,,2025-04-22,1,,,,,ツバメヤ,0
450,2240001064844,新規,0,2025-04-22,2025-04-22,株式会社ワンドロップ,,株式会社,広島県,広島市安佐南区,伴南４丁目２８－１０,,34,105,7313168,,,,,,,2025-04-22,1,,,,,ワンドロップ,0
451,2260001040133,新規,0,2025-04-22,2025-04-22,株式会社ＴＡＭＡ,,株式会社,岡山県,勝田郡勝央町,岡２４１－２,,33,622,7094311,,,,,,,2025-04-22,1,,,,,テイエーエムエー,0
460,2290001109751,新規,0,2025-04-22,2025-04-22,株式会社ＲＩＣＨ,,株式会社,福岡県,福岡市中央区,春吉２丁目９－２５ラ・レジダンス・ド・レーヌ７０２号室,,40,133,8100003,,,,,,,2025-04-22,1,,,,,リッチ,0
462,2290003016707,新規,0,2025-04-22,2025-04-22,安燦合同会社,,合同会社,福岡県,福岡市中央区,舞鶴１丁目２番３３号ライオンズマンション天神６０２号,,40,133,8100073,,,,,,,2025-04-22,1,,,,,,0
463,2290003016723,新規,0,2025-04-22,2025-04-22,三久合同会社,,合同会社,福岡県,糟屋郡宇美町,ひばりが丘１丁目１１番６号２Ｆ,,40,341,8112106,,,,,,,2025-04-22,1,,,,,サンキュウ,0
464,2290005019716,新規,0,2025-04-22,2025-04-22,一般社団法人育成就労外部監査人協会,,その他の設立登記法人,福岡県,福岡市博多区,博多駅東２丁目１７番５号,,40,132,8120013,,,,,,,2025-04-22,1,,,,,イクセイシュウロウガイブカンサニンキョウカイ,0
465,2290801031469,新規,0,2025-04-22,2025-04-22,株式会社ＪＰ　ＴＲＡＤＩＮＧ,,株式会社,福岡県,鞍手郡鞍手町,大字八尋９４１番地１,,40,402,8071308,,,,,,,2025-04-22,1,,,,,ジェイピートレーディング,0
471,2310001019568,新規,0,2025-04-22,2025-04-22,株式会社マツダ電空,,株式会社,長崎県,佐世保市,金比良町１０番１号,,42,202,8570062,,,,,,,2025-04-22,1,,,,,マツダデンクウ,0
482,2360001035081,新規,0,2025-04-22,2025-04-22,株式会社ＧＧＰ,,株式会社,沖縄県,浦添市,城間４丁目８番１０－８０１号ライオンズ浦添城間グランテラス,,47,208,9012133,,,,,,,2025-04-22,1,,,,,ジージーピー,0
483,2360001035107,新規,0,2025-04-22,2025-04-22,農地所有適格法人株式会社イナミネ農業開発,,株式会社,沖縄県,中頭郡中城村,字屋宜７３番３,,47,328,9012405,,,,,,,2025-04-22,1,,,,,ノウチショユウテキカクホウジンイナミネノウギョウカイハツ,0
493,2400003003437,新規,0,2025-04-22,2025-04-22,ａｎｄ　Ｒｉｃｅ合同会社,,合同会社,岩手県,盛岡市,上田１丁目１０－３５,,03,201,0200066,,,,,,,2025-04-22,1,,,,,アンドライス,0
494,2410001014138,新規,0,2025-04-22,2025-04-22,株式会社サンライズ不動産,,株式会社,秋田県,大館市,池内字田中３１番地,,05,204,0170836,,,,,,,2025-04-22,1,,,,,サンライズフドウサン,0
496,2410005006643,新規,0,2025-04-22,2025-04-22,農事組合法人アグリ飯島南,,その他の設立登記法人,秋田県,秋田市,飯島飯田１丁目７番１４号,,05,201,0110949,,,,,,,2025-04-22,1,,,,,アグリイイジマミナミ,0
509,2470005006621,新規,0,2025-04-22,2025-04-22,特定非営利活動法人ドリームラバー,,その他の設立登記法人,香川県,高松市,多肥上町２３３９番地１７,,37,201,7618076,,,,,,,2025-04-22,1,,,,,ドリームラバー,0
528,3010401189718,新規,0,2025-04-22,2025-04-22,ＲＩＮＡ　Ｃｏｎｓｕｌｔｉｎｇ　Ｊａｐａｎ株式会社,,株式会社,東京都,港区,虎ノ門１丁目１０番５号１１階,,13,103,1050001,,,,,,,2025-04-22,1,,,,,リナコンサルティングジャパン,0
531,3010403034938,新規,0,2025-04-22,2025-04-22,ＰＯＷＥＲ　ＰＯＯＬ６号合同会社,,合同会社,東京都,港区,六本木３丁目２番１号,,13,103,1060032,,,,,,,2025-04-22,1,,,,,パワープールロクゴウ,0
532,3010405024276,新規,0,2025-04-22,2025-04-22,一般社団法人ｈｉｎｔ　ｂａｓｅ,,その他の設立登記法人,東京都,港区,芝浦１丁目６番４１－２６０９号,,13,103,1050023,,,,,,,2025-04-22,1,,,,,ヒントベース,0
539,3010703007684,新規,0,2025-04-22,2025-04-22,ＡＴ　ＮＥＳＴ合同会社,,合同会社,東京都,品川区,西五反田８丁目２番地１２号７Ａ,,13,109,1410031,,,,,,,2025-04-22,1,,,,,アットネスト,0
542,3010901057143,新規,0,2025-04-22,2025-04-22,株式会社グリット,,株式会社,東京都,世田谷区,豪徳寺１丁目４８番５号,,13,112,1540021,,,,,,,2025-04-22,1,,,,,グリット,0
550,3011001169052,新規,0,2025-04-22,2025-04-22,株式会社ＳＡＬＴＡ,,株式会社,東京都,渋谷区,渋谷３丁目１番８号,,13,113,1500002,,,,,,,2025-04-22,1,,,,,サルタ,0
551,3011001169085,新規,0,2025-04-22,2025-04-22,ＧＬＤエクスペリエンス株式会社,,株式会社,東京都,渋谷区,渋谷２丁目１９番１９号ワコー宮益坂ビル５階,,13,113,1500002,,,,,,,2025-04-22,1,,,,,ジーエルディーエクスペリエンス,0
552,3011001169382,新規,0,2025-04-22,2025-04-22,株式会社ｇｏｏｏｏｗａｙ,,株式会社,東京都,目黒区,中町１丁目２５番１０－２０８号ユニフォート目黒中町,,13,110,1530065,,,,,,,2025-04-22,1,,,,,グーウェイ,0
554,3011003021426,新規,0,2025-04-22,2025-04-22,ｋａｒｉｏ合同会社,,合同会社,東京都,渋谷区,神宮前６丁目２３番４号桑野ビル２階,,13,113,1500001,,,,,,,2025-04-22,1,,,,,カリオ,0
555,3011003021434,新規,0,2025-04-22,2025-04-22,合同会社Ｃｏｚｙ　Ｃｒａｚｙ,,合同会社,東京都,渋谷区,神宮前６丁目２３番４号桑野ビル２階,,13,113,1500001,,,,,,,2025-04-22,1,,,,,コージークレイジー,0
556,3011003021491,新規,0,2025-04-22,2025-04-22,合同会社ｃｏｒａｒｉｕｍ,,合同会社,東京都,渋谷区,道玄坂１丁目１０番８号渋谷道玄坂東急ビル２ＦーＣ,,13,113,1500043,,,,,,,2025-04-22,1,,,,,コラリウム,0
564,3011101111260,新規,0,2025-04-22,2025-04-22,株式会社エストラボ,,株式会社,東京都,新宿区,新宿２丁目８番８号ヒューリック新宿御苑ビル８階,,13,104,1600022,,,,,,,2025-04-22,1,,,,,エストラボ,0
567,3011301030533,新規,0,2025-04-22,2025-04-22,アリンコワークス株式会社,,株式会社,東京都,杉並区,成田東４丁目１４番２２号,,13,115,1660015,,,,,,,2025-04-22,1,,,,,アリンコワークス,0
569,3011403004674,新規,0,2025-04-22,2025-04-22,合同会社ｍｏｏｎｋｏｒｉｎａ,,合同会社,東京都,板橋区,三園１丁目４８番１０号,,13,119,1750091,,,,,,,2025-04-22,1,,,,,ムーンコリナ,0
570,3011501031967,新規,0,2025-04-22,2025-04-22,株式会社ＴＯＹＯ商事,,株式会社,東京都,荒川区,町屋３丁目１１番３－２１０号,,13,118,1160001,,,,,,,2025-04-22,1,,,,,トヨショウジ,0
574,3012301014344,新規,0,2025-04-22,2025-04-22,株式会社Ｌｕｚ,,株式会社,東京都,町田市,金井８丁目４－２０,,13,209,1950072,,,,,,,2025-04-22,1,,,,,ラズ,0
577,3012701018820,新規,0,2025-04-22,2025-04-22,株式会社君上吉楼ホテルマネジメント,,株式会社,東京都,西東京市,住吉町６丁目２番４号,,13,229,2020005,,,,,,,2025-04-22,1,,,,,クンジョウキチロウホテルマネジメント,0
578,3012803003712,新規,0,2025-04-22,2025-04-22,合同会社金原正徳,,合同会社,東京都,昭島市,東町３丁目３番８号,,13,207,1960033,,,,,,,2025-04-22,1,,,,,カネハラマサノリ,0
579,3013301054090,新規,0,2025-04-22,2025-04-22,株式会社ＢＩＧ　ＳＨＩＰ　ＭＯＶＥＭＥＮＴ,,株式会社,東京都,豊島区,東池袋１丁目１７番１１号パークハイツ池袋１１０５号,,13,116,1700013,,,,,,,2025-04-22,1,,,,,ビッグシップムーブメント,0
584,3020001162446,新規,0,2025-04-22,2025-04-22,株式会社ＭＩＴＳＵＢＡ,,株式会社,神奈川県,横浜市戸塚区,戸塚町２４１４番地,,14,110,2440003,,,,,,,2025-04-22,1,,,,,ミツバ,0
587,3020003028331,新規,0,2025-04-22,2025-04-22,合同会社ブリッジブック,,合同会社,神奈川県,川崎市川崎区,日進町１９番地６アルカーデン・テラ６０４,,14,131,2100024,,,,,,,2025-04-22,1,,,,,ブリッジブック,0
592,3021001084977,新規,0,2025-04-22,2025-04-22,株式会社Ｅｍｍａ,,株式会社,神奈川県,相模原市緑区,又野６００番地２,,14,151,2520158,,,,,,,2025-04-22,1,,,,,エマ,0
599,3030001166041,新規,0,2025-04-22,2025-04-22,株式会社ｈｉｇｈ　ｌｕｃｋ,,株式会社,埼玉県,吉川市,大字木売新田３２４番地１,,11,243,3420044,,,,,,,2025-04-22,1,,,,,ハイラック,0
600,3030001166108,新規,0,2025-04-22,2025-04-22,マルト電設株式会社,,株式会社,埼玉県,さいたま市大宮区,大成町２丁目３６７番地６,,11,103,3300852,,,,,,,2025-04-22,1,,,,,マルトデンセツ,0
603,3030005022141,新規,0,2025-04-22,2025-04-22,特定非営利活動法人ｈｅｌｐｗｅｌｌ,,その他の設立登記法人,埼玉県,狭山市,新狭山２丁目３番地の６プライディア新狭山６０４,,11,215,3501331,,,,,,,2025-04-22,1,,,,,ヘルプウェル,0
608,3040001138411,新規,0,2025-04-22,2025-04-22,株式会社Ｔ＆Ｍ,,株式会社,千葉県,市原市,郡本１丁目２９４－３,,12,219,2900013,,,,,,,2025-04-22,1,,,,,ティーアンドエム,0
612,3040003027414,新規,0,2025-04-22,2025-04-22,合同会社ＳＭＡ,,合同会社,千葉県,船橋市,行田町３６６番地１ルネ・グランセーヌ５０６号,,12,204,2730043,,,,,,,2025-04-22,1,,,,,エスエムエー,0
614,3040005022735,新規,0,2025-04-22,2025-04-22,医療法人社団虹色会,,その他の設立登記法人,千葉県,鎌ケ谷市,鎌ケ谷１丁目４番３１号後関ビル３階,,12,224,2730105,,,,,,,2025-04-22,1,,,,,シャダンニジイロカイ,0
617,3050001056538,新規,0,2025-04-22,2025-04-22,山下建材株式会社,,株式会社,茨城県,つくば市,菅間２２９番地１,,08,220,3001246,,,,,,,2025-04-22,1,,,,,ヤマシタケンザイヤマシタケンザイ,0
618,3050001056562,新規,0,2025-04-22,2025-04-22,株式会社野ばらグループ,,株式会社,茨城県,ひたちなか市,大平１丁目２１番１０号,,08,221,3120023,,,,,,,2025-04-22,1,,,,,ノバラグループ,0
619,3050003009205,新規,0,2025-04-22,2025-04-22,合同会社ＥｍｉＦｕｌｌ,,合同会社,茨城県,久慈郡大子町,大字下野宮１２７７番地,,08,364,3193555,,,,,,,2025-04-22,1,,,,,エミフル,0
620,3050003009213,新規,0,2025-04-22,2025-04-22,合同会社ＬｉｃｈｔＧａｔｅ,,合同会社,茨城県,稲敷市,下太田４７６６番地５,,08,229,3001424,,,,,,,2025-04-22,1,,,,,リヒトゲート,0
621,3050005013618,新規,0,2025-04-22,2025-04-22,一般社団法人ＭＩＲＡＩ　ＮＯ　ＨＩＫＡＲＩ,,その他の設立登記法人,茨城県,つくば市,二の宮１丁目２１番地８,,08,220,3050051,,,,,,,2025-04-22,1,,,,,ミライノヒカリ,0
623,3060003005517,新規,0,2025-04-22,2025-04-22,合同会社ＴＷＯＳＩＸ　ＣＲＥＡＴＩＶＥ,,合同会社,栃木県,佐野市,朝日町７９５番地エクセルシオールＳＡＮＯ１号棟６０３号,,09,204,3270011,,,,,,,2025-04-22,1,,,,,トゥシックスクリエイティブ,0
628,3080001026884,新規,0,2025-04-22,2025-04-22,大嬉株式会社,,株式会社,静岡県,静岡市駿河区,南町２番２６－１００３号,,22,102,4228067,,,,,,,2025-04-22,1,,,,,オオキ,0
633,3080401027870,新規,0,2025-04-22,2025-04-22,株式会社とびそう,,株式会社,静岡県,磐田市,南田１７５番地の２,,22,211,4371212,,,,,,,2025-04-22,1,,,,,トビソウ,0
638,3100001038539,新規,0,2025-04-22,2025-04-22,株式会社キャッツプランニング,,株式会社,長野県,千曲市,大字稲荷山８７５番地,,20,218,3870021,,,,,,,2025-04-22,1,,,,,キャッツプランニング,0
650,3120001274644,新規,0,2025-04-22,2025-04-22,中怡済徳株式会社,00138855,株式会社,大阪府,大阪市東住吉区,住道矢田７丁目９番１１－２０１号,,27,121,5460022,,,,,,,2025-04-22,1,,,,,ナカイサイトク,0
651,3120001274719,新規,0,2025-04-22,2025-04-22,ダブル株式会社,,株式会社,大阪府,大阪市東住吉区,杭全４丁目１２番６号１Ｆ,,27,121,5460002,,,,,,,2025-04-22,1,,,,,ダブル,0
652,3120001275139,新規,0,2025-04-22,2025-04-22,テクノマウス株式会社,,株式会社,大阪府,大阪市中央区,平野町２丁目３番７号アーバンエース北浜ビル１階,,27,128,5410046,,,,,,,2025-04-22,1,,,,,テクノマウス,0
653,3120001275205,新規,0,2025-04-22,2025-04-22,株式会社和田八庵亮風堂,,株式会社,大阪府,大阪市北区,鶴野町３番９号,,27,127,5300014,,,,,,,2025-04-22,1,,,,,ワダハチアンリョウフウドウ,0
662,3120101071512,新規,0,2025-04-22,2025-04-22,長谷川株式会社,,株式会社,大阪府,堺市北区,大豆塚町２丁６６番地６－１０１,,27,146,5918042,,,,,,,2025-04-22,1,,,,,ハセガワ,0
668,3130003010393,新規,0,2025-04-22,2025-04-22,合同会社輝未来ｃｏｍｒａｄｅ,,合同会社,京都府,京都市右京区,嵯峨野秋街道町２５番地２パラドール嵯峨野２１３,,26,108,6168314,,,,,,,2025-04-22,1,,,,,ヒカリコムレード,0
672,3140001138186,新規,0,2025-04-22,2025-04-22,株式会社ＲＥＦＩＳＥ,,株式会社,兵庫県,神戸市垂水区,塩屋町３丁目１４番３９－１０８号,,28,108,6550872,,,,,,,2025-04-22,1,,,,,リファイス,0
676,3140003021951,新規,0,2025-04-22,2025-04-22,合同会社ＵＮＩＱＵＥ,,合同会社,兵庫県,西宮市,松原町２－２０プラウド西宮松原町６０１号,,28,204,6620912,,,,,,,2025-04-22,1,,,,,ユニーク,0
679,3150003003569,新規,0,2025-04-22,2025-04-22,合同会社ＮＩＳＫ,,合同会社,奈良県,大和郡山市,天井町９３－１,,29,203,6391135,,,,,,,2025-04-22,1,,,,,ニスク,0
689,3180001166332,新規,0,2025-04-22,2025-04-22,株式会社Ｎｅａｔ,,株式会社,愛知県,名古屋市中区,丸の内１丁目９－２７ＣｏｕｌｅｕｒｓＶｉｌｌｅ，１Ｂ,,23,106,4600002,,,,,,,2025-04-22,1,,,,,ニート,0
690,3180001166464,新規,0,2025-04-22,2025-04-22,株式会社Ｍ．Ｓ．Ｆ．ＦＡＣＴＯＲＹ,,株式会社,愛知県,名古屋市千種区,今池５丁目２番６号今池センタービル４階,,23,101,4640850,,,,,,,2025-04-22,1,,,,,エムエスエフファクトリー,0
691,3180001166472,新規,0,2025-04-22,2025-04-22,株式会社ブルーオーシャン,,株式会社,愛知県,名古屋市昭和区,広路町字隼人２５番地の１グランドヒルズ八事広路町５０７号,,23,107,4660834,,,,,,,2025-04-22,1,,,,,ブルーオーシャン,0
692,3180001166506,新規,0,2025-04-22,2025-04-22,株式会社誠信設備,,株式会社,愛知県,名古屋市南区,天白町２丁目２番地の８,,23,112,4570803,,,,,,,2025-04-22,1,,,,,セイシンセツビ,0
693,3180001166530,新規,0,2025-04-22,2025-04-22,株式会社きのとみ,,株式会社,愛知県,名古屋市名東区,貴船３丁目１２０番地ツインホワイトＢ棟２０２号,,23,115,4650058,,,,,,,2025-04-22,1,,,,,キノトミ,0
695,3180003028365,新規,0,2025-04-22,2025-04-22,合同会社シルバーレース,,合同会社,愛知県,名古屋市北区,志賀本通２丁目１９番地の１９,,23,103,4620853,,,,,,,2025-04-22,1,,,,,シルバーレース,0
697,3180005021070,新規,0,2025-04-22,2025-04-22,一般社団法人トップヒルズ,,その他の設立登記法人,愛知県,名古屋市港区,福田２丁目９１２番地,,23,111,4550887,,,,,,,2025-04-22,1,,,,,トップヒルズ,0
699,3180303006541,新規,0,2025-04-22,2025-04-22,合同会社ＳＵＣＡＲＡ,,合同会社,愛知県,豊田市,花園町塩倉２０番地１５,,23,211,4730924,,,,,,,2025-04-22,1,,,,,スカラ,0
701,3210003001905,新規,0,2025-04-22,2025-04-22,合同会社隆福星,,合同会社,福井県,越前市,下太田町第１２号３番地の１３,,18,209,9150881,,,,,,,2025-04-22,1,,,,,リュウフクセイ,0
703,3220001026630,新規,0,2025-04-22,2025-04-22,株式会社まる達,,株式会社,石川県,河北郡津幡町,字北中条１１番１４１,,17,361,9290342,,,,,,,2025-04-22,1,,,,,,0
709,3240001064843,新規,0,2025-04-22,2025-04-22,株式会社ＵＮＩＱＵＥ,,株式会社,広島県,広島市安芸区,中野３丁目３５番１２号,,34,107,7390321,,,,,,,2025-04-22,1,,,,,ユニーク,0
714,3260001040132,新規,0,2025-04-22,2025-04-22,株式会社ＳＩＴＹ,,株式会社,岡山県,岡山市北区,厚生町２丁目１１番１４号３０２,,33,101,7000985,,,,,,,2025-04-22,1,,,,,シティ,0
715,3280001009415,新規,0,2025-04-22,2025-04-22,株式会社メディカル・ゾーン,,株式会社,島根県,出雲市,大津町１８９１,,32,203,6930011,,,,,,,2025-04-22,1,,,,,メディカルゾーン,0
723,3290001109767,新規,0,2025-04-22,2025-04-22,恒栄株式会社,,株式会社,福岡県,福岡市中央区,警固１丁目４番１１号フローレス警固１０１号室,,40,133,8100023,,,,,,,2025-04-22,1,,,,,コウエイ,0
724,3290001109800,新規,0,2025-04-22,2025-04-22,株式会社Ｕｎｉｖｕｓ,,株式会社,福岡県,福岡市博多区,博多駅前１丁目２３番２号ＰａｒｋＦｒｏｎｔ博多駅前１丁目５Ｆ－Ｂ,,40,132,8120011,,,,,,,2025-04-22,1,,,,,ユニバス,0
729,3290003016697,新規,0,2025-04-22,2025-04-22,合同会社ＳＰコンサルティング,,合同会社,福岡県,福岡市中央区,天神２丁目２番１２号Ｔ＆Ｊビルディング７Ｆ,,40,133,8100001,,,,,,,2025-04-22,1,,,,,エスピーコンサルティング,0
733,3290805009824,新規,0,2025-04-22,2025-04-22,医療法人ふたば,,その他の設立登記法人,福岡県,北九州市八幡西区,永犬丸１丁目３－１８,,40,109,8070851,,,,,,,2025-04-22,1,,,,,フタバ,0
736,3310001019559,新規,0,2025-04-22,2025-04-22,株式会社深堀水産,,株式会社,長崎県,雲仙市,南串山町丙９２８７番地１０,,42,213,8540703,,,,,,,2025-04-22,1,,,,,フカホリスイサン,0
739,3320003004640,新規,0,2025-04-22,2025-04-22,合同会社居酒屋ちっち,,合同会社,大分県,大分市,大字木上４０３番地の１０,,44,201,8701161,,,,,,,2025-04-22,1,,,,,イザカヤチッチ,0
743,3330001033120,新規,0,2025-04-22,2025-04-22,株式会社Ｒｅｇｅｎｄ,,株式会社,熊本県,熊本市北区,八景水谷２丁目１５－７８,,43,105,8618064,,,,,,,2025-04-22,1,,,,,レジェンド,0
744,3330001033129,新規,0,2025-04-22,2025-04-22,株式会社ＨＡＭＡＫＥＮ,,株式会社,熊本県,天草市,御所浦町御所浦３８８７番地３,,43,215,8660313,,,,,,,2025-04-22,1,,,,,ハマケン,0
745,3330003010968,新規,0,2025-04-22,2025-04-22,合同会社クリエイトマルシェ,,合同会社,熊本県,熊本市東区,画図町大字重富６３８番地３４,,43,102,8620947,,,,,,,2025-04-22,1,,,,,クリエイトマルシェ,0
748,3340003004829,新規,0,2025-04-22,2025-04-22,合同会社クリスタル,,合同会社,鹿児島県,鹿児島市,新照院町２番１０－１２０６号,,46,201,8900016,,,,,,,2025-04-22,1,,,,,クリスタル,0
753,3360001035072,新規,0,2025-04-22,2025-04-22,株式会社キズナグローバル,,株式会社,沖縄県,南城市,玉城字船越５８９番地３,,47,215,9010618,,,,,,,2025-04-22,1,,,,,キズナグローバル,0
754,3360001035089,新規,0,2025-04-22,2025-04-22,株式会社樹,,株式会社,沖縄県,那覇市,前島３丁目１６番１３号シティサイド城３０１号,,47,201,9000016,,,,,,,2025-04-22,1,,,,,イツキ,0
755,3360001035097,新規,0,2025-04-22,2025-04-22,株式会社ＴＩＤＥ・ｂｙ　ｆｏｒｃｅ　ｏｆ　ｎａｔｕｒｅ,,株式会社,沖縄県,宮古島市,平良字池間８３番地１,,47,214,9060421,,,,,,,2025-04-22,1,,,,,タイドバイフォースオブネイチャー,0
763,3360005007217,新規,0,2025-04-22,2025-04-22,一般社団法人礼邦学園,,その他の設立登記法人,沖縄県,那覇市,高良２丁目４番１２号,,47,201,9010145,,,,,,,2025-04-22,1,,,,,レイホウガクエン,0
765,3370003007052,新規,0,2025-04-22,2025-04-22,合同会社ポポらす,,合同会社,宮城県,角田市,島田字御蔵林５３番地２４,,04,208,9811503,,,,,,,2025-04-22,1,,,,,ポポラス,0
768,3390001017968,新規,0,2025-04-22,2025-04-22,株式会社グランリゾート日野,,株式会社,山形県,酒田市,上本町５番２２号,,06,204,9980042,,,,,,,2025-04-22,1,,,,,グランリゾートヒノ,0
778,3430001094227,新規,0,2025-04-22,2025-04-22,株式会社スクラムアップ,,株式会社,北海道,札幌市手稲区,新発寒五条１丁目７番１号,,01,109,0060805,,,,,,,2025-04-22,1,,,,,スクラムアップ,0
782,3430005015220,新規,0,2025-04-22,2025-04-22,一般社団法人北海道高齢者終身サポート協会,,その他の設立登記法人,北海道,北広島市,大曲緑ヶ丘５丁目４番地４,,01,234,0611276,,,,,,,2025-04-22,1,,,,,ホッカイドウコウレイシャシュウシンサポートキョウカイ,0
783,3440003001683,新規,0,2025-04-22,2025-04-22,合同会社パステナライズ,,合同会社,北海道,函館市,桔梗町一丁目１８番１５号コーポ河本１Ｆ右４,,01,202,0410801,,,,,,,2025-04-22,1,,,,,パステナライズ,0
784,3450001014595,新規,0,2025-04-22,2025-04-22,アンドハウジング株式会社,,株式会社,北海道,旭川市,豊岡四条３丁目７番１３号,,01,204,0788234,,,,,,,2025-04-22,1,,,,,アンドハウジング,0
791,3700150130069,新規,0,2025-04-22,2025-04-22,ｓｈｅｎｚｈｅｎｓｈｉａｎｚｈｅｔａｉｄｉａｎｚｉｓｈａｎｇｗｕｙｏｕｘｉａｎｇｏｎｇｓｉ,,外国会社等,,,,,,,,ｌｏｎｇｈｕａｑｕｄａｌａｎｇｊｉｅｄａｏｌａｎｇｋｏｕｓｈｅｑｕ　ｈｕａｃｈａｎｇｌｕ３２６－３３０ｈａｏｈｕａｔｅｎｇｓｈａｎｇｗｕｚｈｏｎｇｘｉｎ３１２　ｓｈｅｎｚｈｅｎ　ＣＮ,,,,,,2025-04-22,1,,,,,シンセンシアンゼイタイデンシショウムユウゲンコウシ,0
795,4010001254292,新規,0,2025-04-22,2025-04-22,Ｄｒａｆｔｉｃｓ株式会社,,株式会社,東京都,中央区,銀座１丁目１２番４号Ｎ＆ＥＢＬＤ．６Ｆ,,13,102,1040061,,,,,,,2025-04-22,1,,,,,ドラフティクス,0
796,4010001254342,新規,0,2025-04-22,2025-04-22,株式会社Ｃｒｉｍｉｎａｌ　Ｍｉｎｄｓ　Ｒｅｃｏｒｄ,,株式会社,東京都,中央区,日本橋室町１丁目１１番１２号日本橋水野ビル７階,,13,102,1030022,,,,,,,2025-04-22,1,,,,,クリミナルマインズレコード,0
797,4010001254383,新規,0,2025-04-22,2025-04-22,株式会社Ｃｏｍｆｙ,,株式会社,東京都,文京区,音羽１丁目１番１号,,13,105,1120013,,,,,,,2025-04-22,1,,,,,コンフィー,0
798,4010001254391,新規,0,2025-04-22,2025-04-22,株式会社フリックスワーク,,株式会社,東京都,中央区,銀座１丁目１２－４Ｎ＆ＥＢＬＤ．７階,,13,102,1040061,,,,,,,2025-04-22,1,,,,,フリックスワーク,0
801,4010003047133,新規,0,2025-04-22,2025-04-22,合同会社Ｆｕｎｏｖａｔｅ,,合同会社,東京都,千代田区,三番町１２－３－２０６,,13,101,1020075,,,,,,,2025-04-22,1,,,,,ファノベート,0
814,4010401189642,新規,0,2025-04-22,2025-04-22,株式会社ＴＯＣＴ,,株式会社,東京都,港区,北青山１丁目３－３三橋ビル３階,,13,103,1070061,,,,,,,2025-04-22,1,,,,,トクト,0
818,4010403034879,新規,0,2025-04-22,2025-04-22,合同会社シラトリンク,,合同会社,東京都,港区,港南２丁目１０番２３号光シャンブル品川東八ツ山公園５０５号室,,13,103,1080075,,,,,,,2025-04-22,1,,,,,シラトリンク,0
819,4010403034937,新規,0,2025-04-22,2025-04-22,合同会社Ｊｏｈｎｓｔｏｗｎ,,合同会社,東京都,港区,虎ノ門１丁目１番１８号ヒューリック虎ノ門ビル９階Ｌ＆Ｐ司法書士法人内,,13,103,1050001,,,,,,,2025-04-22,1,,,,,ジョンズタウン,0
820,4010403034945,新規,0,2025-04-22,2025-04-22,青山マネジメント合同会社,,合同会社,東京都,港区,六本木１丁目６番１号泉ガーデンタワー,,13,103,1060032,,,,,,,2025-04-22,1,,,,,アオヤママネジメント,0
825,4010601067185,新規,0,2025-04-22,2025-04-22,Ｔｒｉｐｉａ株式会社,,株式会社,東京都,墨田区,立花５丁目３４番１１号,,13,107,1310043,,,,,,,2025-04-22,1,,,,,トリッピア,0
829,4010701047558,新規,0,2025-04-22,2025-04-22,株式会社トウキョウテクノ,,株式会社,東京都,品川区,東大井１丁目７番１５号第二小笠原ビル１０２,,13,109,1400011,,,,,,,2025-04-22,1,,,,,トウキョウテクノ,0
843,4011001168912,新規,0,2025-04-22,2025-04-22,ＫＡＴ＆ＣＯ．株式会社,,株式会社,東京都,目黒区,下目黒１丁目８－１目黒アルコタワー７階,,13,110,1530064,,,,,,,2025-04-22,1,,,,,キャットアンドカンパニー,0
851,4011101111499,新規,0,2025-04-22,2025-04-22,株式会社ＮＡＭＡＮ　ＯＮ,,株式会社,東京都,新宿区,歌舞伎町２丁目４１番１１号広野ビル３Ｆ,,13,104,1600021,,,,,,,2025-04-22,1,,,,,ナマンオン,0
853,4011105011407,新規,0,2025-04-22,2025-04-22,一般社団法人推恒会,,その他の設立登記法人,東京都,新宿区,河田町８番１号,,13,104,1620054,,,,,,,2025-04-22,1,,,,,スイコウカイ,0
856,4011301030532,新規,0,2025-04-22,2025-04-22,株式会社Ｒｏｈｍ,,株式会社,東京都,杉並区,上荻２丁目１７―１０,,13,115,1670043,,,,,,,2025-04-22,1,,,,,ローム,0
857,4011303005516,新規,0,2025-04-22,2025-04-22,合同会社ハシカケ,,合同会社,東京都,杉並区,西荻北１丁目１１番７ユニーブル西荻窪ＩＩ１０３号室,00138869,13,115,1670042,,,,,,,2025-04-22,1,,,,,ハシカケ,0
866,4011803006815,新規,0,2025-04-22,2025-04-22,Ｍｓｋ合同会社,,合同会社,東京都,足立区,梅島３丁目３番２４－４０９号,,13,121,1210816,,,,,,,2025-04-22,1,,,,,エムエスケー,0
876,4012803003703,新規,0,2025-04-22,2025-04-22,ｃａｓｉ合同会社,,合同会社,東京都,日野市,程久保３丁目２０番７号,,13,212,1910042,,,,,,,2025-04-22,1,,,,,カシ,0
884,4020001162222,新規,0,2025-04-22,2025-04-22,株式会社ワイドシー,,株式会社,神奈川県,横浜市港北区,小机町１２２３－３ファミール横浜参番館１０５,,14,109,2220036,,,,,,,2025-04-22,1,,,,,ワイドシー,0
885,4020001162528,新規,0,2025-04-22,2025-04-22,株式会社飯田工業,,株式会社,神奈川県,横浜市旭区,市沢町８７０番地５５,,14,112,2410014,,,,,,,2025-04-22,1,,,,,イイダコウギョウ,0
886,4020003028322,新規,0,2025-04-22,2025-04-22,美由黄合同会社,,合同会社,神奈川県,横浜市緑区,白山２丁目３２－２白山ハイツ１０３号,,14,113,2260006,,,,,,,2025-04-22,1,,,,,ミユキ,0
896,4030003026622,新規,0,2025-04-22,2025-04-22,ＣＯＮＮＥＣＴ　ＥＮＧＬＩＳＨ　ＡＣＡＤＥＭＹ合同会社,,合同会社,埼玉県,草加市,弁天２丁目２７－４５スカイハイツ３Ｄ号室,,11,221,3400004,,,,,,,2025-04-22,1,,,,,コネクトイングリッシュアカデミー,0
901,4040001138468,新規,0,2025-04-22,2025-04-22,株式会社フューチャー・ファーム,,株式会社,千葉県,千葉市稲毛区,園生町７３０番地３,,12,103,2630051,,,,,,,2025-04-22,1,,,,,フューチャーファーム,0
902,4040001138492,新規,0,2025-04-22,2025-04-22,株式会社リバープロスパー,,株式会社,千葉県,市原市,姉崎２１７２番地２,,12,219,2990111,,,,,,,2025-04-22,1,,,,,リバープロスパー,0
906,4040003027405,新規,0,2025-04-22,2025-04-22,合同会社涼春Ｇｒｏｕｐ,,合同会社,千葉県,船橋市,二和東２丁目９番６号２０３,,12,204,2740805,,,,,,,2025-04-22,1,,,,,スズハルグループ,0
907,4040003027413,新規,0,2025-04-22,2025-04-22,Ｔｅｒｒａ　Ｖｅｒｄｅ合同会社,,合同会社,千葉県,香取郡神崎町,藤の台７番地２０,,12,342,2890217,,,,,,,2025-04-22,1,,,,,テラヴェルデ,0
908,4040005022734,新規,0,2025-04-22,2025-04-22,医療法人社団奏梨会,,その他の設立登記法人,千葉県,浦安市,日の出１丁目１番２５号,,12,227,2790013,,,,,,,2025-04-22,1,,,,,ソウリカイ,0
909,4050001056561,新規,0,2025-04-22,2025-04-22,株式会社テトラボンド,,株式会社,茨城県,稲敷市,蒲ケ山２１番地１２（２０３号）,,08,229,3000522,,,,,,,2025-04-22,1,,,,,テトラボンド,0
911,4050003009204,新規,0,2025-04-22,2025-04-22,合同会社二ッ森,,合同会社,茨城県,ひたちなか市,外野１丁目２３番１０号エスポワールカモシダＡ２０１,,08,221,3120053,,,,,,,2025-04-22,1,,,,,フタツモリ,0
912,4050003009220,新規,0,2025-04-22,2025-04-22,Ｓ．Ｂ．Ｍ合同会社,,合同会社,茨城県,日立市,十王町伊師３１３５番地２,,08,202,3191301,,,,,,,2025-04-22,1,,,,,エスビーエム,0
913,4050005013617,新規,0,2025-04-22,2025-04-22,一般社団法人ＫＡＩＥＮＴＡＩ,,その他の設立登記法人,茨城県,ひたちなか市,小貫山１丁目２番地１０ベルモット高野２０２号,,08,221,3120007,,,,,,,2025-04-22,1,,,,,カイエンタイ,0
915,4060005010332,新規,0,2025-04-22,2025-04-22,関東特殊技術施工協同組合,,その他の設立登記法人,栃木県,足利市,大前町１４３２番地１,,09,202,3260845,,,,,,,2025-04-22,1,,,,,カントウトクシュギジュツセコウ,0
921,4070001042865,新規,0,2025-04-22,2025-04-22,株式会社四つ葉リアルティ,,株式会社,群馬県,前橋市,後閑町２５１番地５,,10,201,3710813,,,,,,,2025-04-22,1,,,,,ヨツバリアルティ,0
922,4070001042881,新規,0,2025-04-22,2025-04-22,株式会社ＶａｌｕｅＣｙｃｌｅ,,株式会社,群馬県,太田市,鳥山上町１４９４番地３,,10,205,3730061,,,,,,,2025-04-22,1,,,,,バリューサイクル,0
935,4100001038513,新規,0,2025-04-22,2025-04-22,株式会社Ｅｘｃｅｅｄ,,株式会社,長野県,上田市,上田３０２－１３,,20,203,3860001,,,,,,,2025-04-22,1,,,,,エクシード,0
936,4110001039205,新規,0,2025-04-22,2025-04-22,ＲＥＮＧＥ　Ｒｅｔｒｅａｔｓ株式会社,,株式会社,新潟県,妙高市,大字田口１５１２番地,,15,217,9492106,,,,,,,2025-04-22,1,,,,,レンゲリトリーツ,0
943,4120001274536,新規,0,2025-04-22,2025-04-22,株式会社Ｃｌａｒｉｓ,,株式会社,大阪府,大阪市浪速区,浪速東１丁目４－１９,,27,111,5560025,,,,,,,2025-04-22,1,,,,,クラリス,0
944,4120001274726,新規,0,2025-04-22,2025-04-22,梅邨株式会社,00138852,株式会社,大阪府,大阪市住吉区,杉本１丁目９－１６グランビルドアビコＩＩ１０１号室,00138853,27,120,5580022,,,,,,,2025-04-22,1,,,,,ウメムラ,0
945,4120001274759,新規,0,2025-04-22,2025-04-22,アドバンス株式会社,,株式会社,大阪府,大阪市西淀川区,出来島２丁目６番７号出来島ビル１Ｆ,,27,113,5550031,,,,,,,2025-04-22,1,,,,,アドバンス,0
951,4120003029186,新規,0,2025-04-22,2025-04-22,桃渚合同会社,,合同会社,大阪府,大阪市城東区,鴫野西５丁目２０番２５号ユーミーハイツ鴫野３Ａ号室,,27,118,5360014,,,,,,,2025-04-22,1,,,,,トウショ,0
954,4120101071486,新規,0,2025-04-22,2025-04-22,Ｓｔａｒｖｅｉｌ株式会社,,株式会社,大阪府,堺市西区,津久野町３丁１０番２２号,,27,144,5938322,,,,,,,2025-04-22,1,,,,,スターベール,0
955,4120101071494,新規,0,2025-04-22,2025-04-22,株式会社Ａｐｏｒｕｎａ,,株式会社,大阪府,堺市南区,高倉台１丁１４番３号,,27,145,5900117,,,,,,,2025-04-22,1,,,,,アポルナ,0
965,4130003010335,新規,0,2025-04-22,2025-04-22,アカマチクリエーション合同会社,,合同会社,京都府,京都市南区,吉祥院中島町１６番地信開ガーデンコート西大路５０６,,26,107,6018313,,,,,,,2025-04-22,1,,,,,アカマチクリエーション,0
971,4140001138202,新規,0,2025-04-22,2025-04-22,株式会社四輝工業,,株式会社,兵庫県,神戸市垂水区,名谷町１７５８番地の１１,,28,108,6550852,,,,,,,2025-04-22,1,,,,,ヨツキコウギョウ,0
972,4140003021959,新規,0,2025-04-22,2025-04-22,ＢＡＲＹＡＲ　ＴＲＡＤＩＮＧ合同会社,,合同会社,兵庫県,赤穂市,大橋町１番地２４－２Ｆ,,28,212,6780229,,,,,,,2025-04-22,1,,,,,バリャールトレーディング,0
980,4180001166439,新規,0,2025-04-22,2025-04-22,株式会社まなこ三重,,株式会社,愛知県,名古屋市中村区,名駅４丁目１５番１９号,,23,105,4500002,,,,,,,2025-04-22,1,,,,,マナコミエ,0
981,4180001166463,新規,0,2025-04-22,2025-04-22,ＩＥＣＳ株式会社,,株式会社,愛知県,名古屋市名東区,小井堀町８０７番地,,23,115,4650044,,,,,,,2025-04-22,1,,,,,イークス,0
982,4180001166471,新規,0,2025-04-22,2025-04-22,株式会社Ａｃｉｅｓ,,株式会社,愛知県,一宮市,千秋町佐野字郷前２８０６番地２,,23,203,4910804,,,,,,,2025-04-22,1,,,,,アーチス,0
986,4180003028348,新規,0,2025-04-22,2025-04-22,合同会社Ｓｕｎｎｙ,,合同会社,愛知県,名古屋市中村区,椿町１３番１６号,,23,105,4530015,,,,,,,2025-04-22,1,,,,,サニー,0
988,4180301039740,新規,0,2025-04-22,2025-04-22,株式会社トラステック,,株式会社,愛知県,豊田市,若林東町上外根８６番地７,,23,211,4730914,,,,,,,2025-04-22,1,,,,,トラステック,0
998,4240001064826,新規,0,2025-04-22,2025-04-22,長福不動産株式会社,,株式会社,広島県,福山市,駅家町大字江良４２５番地１,,34,207,7201141,,,,,,,2025-04-22,1,,,,,ナガフクフドウサン,0
999,4240001064834,新規,0,2025-04-22,2025-04-22,エクステリアデザイン協会株式会社,,株式会社,広島県,広島市東区,牛田新町３丁目１番３２－１１０１号,,34,102,7320068,,,,,,,2025-04-22,1,,,,,エクステリアデザインキョウカイ,0
1002,4240003007155,新規,0,2025-04-22,2025-04-22,合同会社６８８６,,合同会社,広島県,広島市西区,観音新町３丁目１０－２６－３０,,34,104,7330036,,,,,,,2025-04-22,1,,,,,ロクハチハチロク,0
1003,4250003003707,新規,0,2025-04-22,2025-04-22,合同会社エルピーダ,,合同会社,山口県,下松市,大字末武中字大浴１０２４－１,,35,207,7440023,,,,,,,2025-04-22,1,,,,,エルピーダ,0
1005,4270001009191,新規,0,2025-04-22,2025-04-22,栗原光技術士事務所株式会社,,株式会社,鳥取県,鳥取市,若葉台北４丁目１１番７号,,31,201,6891111,,,,,,,2025-04-22,1,,,,,クリハラギジュツシジムショ,0
1007,4270005005641,新規,0,2025-04-22,2025-04-22,医療法人ＨＡＲＭＹ,,その他の設立登記法人,鳥取県,米子市,両三柳２２９６番１９,,31,202,6830853,,,,,,,2025-04-22,1,,,,,ハーミー,0
1011,4290001109725,新規,0,2025-04-22,2025-04-22,三鼎株式会社,,株式会社,福岡県,福岡市西区,小戸４丁目１４番２３号コーポレスト３０５号室,,40,135,8190001,,,,,,,2025-04-22,1,,,,,サンテイ,0
1021,4330001033111,新規,0,2025-04-22,2025-04-22,株式会社Ｒ,,株式会社,熊本県,菊池郡大津町,美咲野４丁目１２番５号,,43,403,8691237,,,,,,,2025-04-22,1,,,,,アール,0
1028,4350001019496,新規,0,2025-04-22,2025-04-22,株式会社誉茶人,,株式会社,宮崎県,宮崎市,高岡町浦之名４９００番地３４,,45,201,8802323,,,,,,,2025-04-22,1,,,,,ホマレチャジン,0
1033,4360003014866,新規,0,2025-04-22,2025-04-22,合同会社ＴＳＮ,,合同会社,沖縄県,うるま市,与那城屋慶名１６４５番地２,,47,213,9042304,,,,,,,2025-04-22,1,,,,,ティエスエヌ,0
1034,4360003014874,新規,0,2025-04-22,2025-04-22,合同会社レコブック,,合同会社,沖縄県,豊見城市,字高安７６９番地５,,47,212,9010242,,,,,,,2025-04-22,1,,,,,レコブック,0
1036,4370001052504,新規,0,2025-04-22,2025-04-22,株式会社ワーカービー,,株式会社,宮城県,仙台市泉区,南中山１丁目１８番地の１カーサ・エスペランサ１０２,,04,105,9813213,,,,,,,2025-04-22,1,,,,,ワーカービー,0
1042,4390001017967,新規,0,2025-04-22,2025-04-22,株式会社ワイズ巧業,,株式会社,山形県,山形市,銅町１丁目５番８号２Ｆ,,06,201,9900051,,,,,,,2025-04-22,1,,,,,ワイズコウギョウ,0
1045,4410001014136,新規,0,2025-04-22,2025-04-22,株式会社オフィスアウタ,,株式会社,秋田県,秋田市,八橋南２丁目３番５号,,05,201,0100976,,,,,,,2025-04-22,1,,,,,オフィスアウタ,0
1046,4410001014144,新規,0,2025-04-22,2025-04-22,庄司創建株式会社,,株式会社,秋田県,北秋田市,米内沢字中道岱１０６番地４,,05,213,0184301,,,,,,,2025-04-22,1,,,,,ショウジソウケン,0
1048,4420001019101,新規,0,2025-04-22,2025-04-22,株式会社エイポットレッカー,,株式会社,青森県,上北郡七戸町,字森ノ上６番地４,,02,402,0392827,,,,,,,2025-04-22,1,,,,,エイポットレッカー,0
1050,4420003003103,新規,0,2025-04-22,2025-04-22,Ｋｏｄａ　Ａｕｔｏｍｏｔｉｖｅ合同会社,,合同会社,青森県,三沢市,大字三沢字堀口１６４番地１９３号Ｈ８７Ａ,,02,207,0330022,,,,,,,2025-04-22,1,,,,,コーダオートモーティブ,0
1053,4430001094201,新規,0,2025-04-22,2025-04-22,株式会社若工業,,株式会社,北海道,岩内郡岩内町,字相生２０２番地,,01,402,0450023,,,,,,,2025-04-22,1,,,,,ワカコウギョウ,0
1055,4430003017531,新規,0,2025-04-22,2025-04-22,合同会社ｆｕｌｌ　ａｓｓｉｓｔ　Ｋ,,合同会社,北海道,札幌市中央区,南六条西４丁目１番地１１ＴＭ２９ビル４階Ｇ号,,01,101,0640806,,,,,,,2025-04-22,1,,,,,フルアシストケー,0
1065,4500001026254,新規,0,2025-04-22,2025-04-22,松浦ホールディングス株式会社,,株式会社,愛媛県,大洲市,菅田町菅田甲２２７４番地１,,38,207,7950081,,,,,,,2025-04-22,1,,,,,マツウラホールディングス,0
1068,4700150130068,新規,0,2025-04-22,2025-04-22,ＨＵＮＧ　ＨＩＮＧ　ＥＬＥＣＴＲＯ－ＰＬＡＴＩＮＧ　ＬＩＭＩＴＥＤ,,外国会社等,,,,,,,,ＵＮＩＴ　Ａ，２２／Ｆ．，ＣＡＰＩＴＡＬ　ＴＲＡＤＥ　ＣＥＮＴＲＥ，６２　ＴＳＵＮ　ＹＩＰ　ＳＴＲＥＥＴ　ＫＷＵＮ　ＴＯＮＧ　ＫＬ,,,,,,2025-04-22,1,,,,,ハンヒンエレクトロプレーティングリミテッド,0
1076,5010001254325,新規,0,2025-04-22,2025-04-22,株式会社サイバーノーツテクノロジー,,株式会社,東京都,千代田区,丸の内１丁目９番２号グラントウキョウサウスタワー１１階,,13,101,1000005,,,,,,,2025-04-22,1,,,,,サイバーノーツテクノロジー,0
1077,5010001254390,新規,0,2025-04-22,2025-04-22,ハリモトインターナショナル株式会社,,株式会社,東京都,中央区,銀座７丁目１７番１８号ジュエル銀座４０５,,13,102,1040061,,,,,,,2025-04-22,1,,,,,ハリモトインターナショナル,0
1078,5010003047140,新規,0,2025-04-22,2025-04-22,Ｓｏｍｅｒｓｅｔ　Ｃａｐｉｔａｌ合同会社,,合同会社,東京都,中央区,銀座１丁目２２－１１銀座大竹ビジデンス２Ｆ,,13,102,1040061,,,,,,,2025-04-22,1,,,,,サマセットキャピタル,0
1085,5010401189674,新規,0,2025-04-22,2025-04-22,株式会社ＫＭＥ＆Ｎ,,株式会社,東京都,港区,港南３丁目６－２１－４００３,,13,103,1080075,,,,,,,2025-04-22,1,,,,,ケーエムイーアンドエヌ,0
1086,5010403034903,新規,0,2025-04-22,2025-04-22,合同会社インバウンドジャパン,,合同会社,東京都,港区,麻布十番３丁目９－６スバルＭ３０１,,13,103,1060045,,,,,,,2025-04-22,1,,,,,インバウンドジャパン,0
1087,5010403034936,新規,0,2025-04-22,2025-04-22,合同会社Ｌａｗｒｉｎ,,合同会社,東京都,港区,虎ノ門１丁目１番１８号ヒューリック虎ノ門ビル９階Ｌ＆Ｐ司法書士法人内,,13,103,1050001,,,,,,,2025-04-22,1,,,,,ローリン,0
1099,5010801036071,新規,0,2025-04-22,2025-04-22,株式会社ボトムスファクトリー,,株式会社,東京都,大田区,西蒲田７丁目４９－９,,13,111,1440051,,,,,,,2025-04-22,1,,,,,,0
1104,5011001169034,新規,0,2025-04-22,2025-04-22,株式会社ＴＡＫＥ　ＯＦＦ　ＣＯＮＳＵＬＴＩＮＧ,,株式会社,東京都,渋谷区,道玄坂１丁目１２番１号渋谷マクシティＷ２２Ｆ,,13,113,1500043,,,,,,,2025-04-22,1,,,,,テイクオフコンサルティング,0
1105,5011001169042,新規,0,2025-04-22,2025-04-22,株式会社ハイブリッジソリューション,,株式会社,東京都,渋谷区,東３丁目２１番２号永野ビル４０５,,13,113,1500011,,,,,,,2025-04-22,1,,,,,ハイブリッジソリューション,0
1106,5011001169050,新規,0,2025-04-22,2025-04-22,株式会社ｅｂｏｎｙｅｙｅｓ,,株式会社,東京都,目黒区,目黒４丁目２１－１５サウンドプルーフプロ祐天寺１０１,,13,110,1530063,,,,,,,2025-04-22,1,,,,,エボニーアイズ,0
1107,5011003021432,新規,0,2025-04-22,2025-04-22,シンカファム合同会社,,合同会社,東京都,渋谷区,神南１丁目１１－４ＦＰＧリンクス神南５階,,13,113,1500041,,,,,,,2025-04-22,1,,,,,シンカファム,0
1108,5011003021440,新規,0,2025-04-22,2025-04-22,合同会社シナモン,,合同会社,東京都,渋谷区,道玄坂１丁目１０番８号渋谷道玄坂東急ビル２Ｆ－Ｃ,,13,113,1500043,,,,,,,2025-04-22,1,,,,,シナモン,0
1109,5011003021498,新規,0,2025-04-22,2025-04-22,合同会社ＷＩＮＧＲＯＷＴＨ,,合同会社,東京都,渋谷区,恵比寿西２丁目８番４号ＥＸ恵比寿西ビル５階,,13,113,1500021,,,,,,,2025-04-22,1,,,,,ウイングロース,0
1114,5011103015813,新規,0,2025-04-22,2025-04-22,晴後晴合同会社,,合同会社,東京都,新宿区,西新宿３丁目３番１３号西新宿水間ビル２Ｆ,,13,104,1600023,,,,,,,2025-04-22,1,,,,,ハレノチハレ,0
1118,5011301030531,新規,0,2025-04-22,2025-04-22,ＩＮＮＯＶ　ＬＩＶＩＮＧ株式会社,,株式会社,東京都,杉並区,高井戸西１丁目３４番１号,,13,115,1680071,,,,,,,2025-04-22,1,,,,,イノバリビング,0
1120,5011303005523,新規,0,2025-04-22,2025-04-22,メイヤーコンサルティング合同会社,,合同会社,東京都,杉並区,宮前５丁目２―１３,,13,115,1680081,,,,,,,2025-04-22,1,,,,,メイヤーコンサルティング,0
1126,5011401027023,新規,0,2025-04-22,2025-04-22,株式会社藤翔,,株式会社,東京都,板橋区,蓮沼町３番７号,,13,119,1740052,,,,,,,2025-04-22,1,,,,,フジショウ,0
1128,5011601028597,新規,0,2025-04-22,2025-04-22,株式会社Ｍｅａｒｔｈｓ,,株式会社,東京都,練馬区,下石神井６丁目３０番１１号第１石塚マンション２０５,,13,120,1770042,,,,,,,2025-04-22,1,,,,,マーズ,0
1130,5011701028274,新規,0,2025-04-22,2025-04-22,株式会社３Ｓ,,株式会社,東京都,江戸川区,小松川３丁目９番１号リバーウェストＡ５０５号室,,13,123,1320034,,,,,,,2025-04-22,1,,,,,スリーズ,0
1132,5011801045995,新規,0,2025-04-22,2025-04-22,株式会社万達国際,,株式会社,東京都,葛飾区,堀切１丁目４１－９エヴァーグリーン堀切１００２室,,13,122,1240006,,,,,,,2025-04-22,1,,,,,ワンダーコクサイ,0
1133,5012303002139,新規,0,2025-04-22,2025-04-22,合同会社オフィスノワ,,合同会社,東京都,町田市,図師町８４－８２,,13,209,1940203,,,,,,,2025-04-22,1,,,,,オフィスノワ,0
1134,5012701018819,新規,0,2025-04-22,2025-04-22,ＪＫグローバル株式会社,,株式会社,東京都,小平市,学園東町４１４番地の１４,,13,211,1870043,,,,,,,2025-04-22,1,,,,,ジェイケイグローバル,0
1136,5012803003710,新規,0,2025-04-22,2025-04-22,合同会社Ｎｉｎｅｃｌｏｕｄ　Ａｇｅｎｃｙ,,合同会社,東京都,日野市,多摩平２丁目５番地の１・６１６号室,,13,212,1910062,,,,,,,2025-04-22,1,,,,,ナインクラウドエージェンシー,0
1141,5020001162485,新規,0,2025-04-22,2025-04-22,株式会社トリップエックス,,株式会社,神奈川県,横浜市都筑区,茅ケ崎東１丁目１番４－１０９号,,14,118,2240033,,,,,,,2025-04-22,1,,,,,トリップエックス,0
1142,5020001162519,新規,0,2025-04-22,2025-04-22,ＹＯＣＡＲＥ株式会社,,株式会社,神奈川県,横浜市中区,北仲通５丁目５７－２－４２１０,,14,104,2310003,,,,,,,2025-04-22,1,,,,,ワイオーケア,0
1143,5020001162568,新規,0,2025-04-22,2025-04-22,ＣＬＩＰＰＲＯＶＥ　ＪＡＰＡＮ株式会社,,株式会社,神奈川県,横浜市神奈川区,栄町１０－３５ザ・ヨコハマタワーズＷ２７０６号,,14,102,2210052,,,,,,,2025-04-22,1,,,,,クリップルブジャパン,0
1153,5021003015887,新規,0,2025-04-22,2025-04-22,合同会社Ｌｉｎｏａ,,合同会社,神奈川県,厚木市,飯山南５丁目１９－１２,,14,212,2430218,,,,,,,2025-04-22,1,,,,,リノア,0
1160,5030001166072,新規,0,2025-04-22,2025-04-22,株式会社ＴＭ,,株式会社,埼玉県,東松山市,大字大谷１４９６番地１,,11,212,3550008,,,,,,,2025-04-22,1,,,,,ティエム,0
1161,5030001166114,新規,0,2025-04-22,2025-04-22,株式会社Ｔ‐Ｒｉｓｅ,,株式会社,埼玉県,越谷市,宮本町３丁目６６－１ベルフレージュＦ１０５,,11,222,3430806,,,,,,,2025-04-22,1,,,,,ティーライズ,0
1164,5030003026621,新規,0,2025-04-22,2025-04-22,ゆあさぽ合同会社,,合同会社,埼玉県,さいたま市大宮区,桜木町２丁目３番地大宮マルイ７階,,11,103,3300854,,,,,,,2025-04-22,1,,,,,ユアサポ,0
1169,5040001138459,新規,0,2025-04-22,2025-04-22,株式会社木内工業,,株式会社,千葉県,香取市,仁良９５０番地１,,12,236,2890407,,,,,,,2025-04-22,1,,,,,キウチコウギョウ,0
1171,5040003027412,新規,0,2025-04-22,2025-04-22,スマイルトウキョウトラベル合同会社,,合同会社,千葉県,千葉市美浜区,中瀬１丁目３番地幕張テクノガーデンＣＢ棟３階ＭＢＰ,,12,106,2610023,,,,,,,2025-04-22,1,,,,,スマイルトウキョウトラベル,0
1173,5050005013616,新規,0,2025-04-22,2025-04-22,一般社団法人東海駅構内ハイヤー協会,,その他の設立登記法人,茨城県,那珂郡東海村,舟石川駅西１丁目３番１号,,08,341,3191116,,,,,,,2025-04-22,1,,,,,トウカイエキコウナイハイヤーキョウカイ,0
1174,5060001038129,新規,0,2025-04-22,2025-04-22,株式会社ケイアイソフトライズ,,株式会社,栃木県,下都賀郡壬生町,大字上田５３０番地１,,09,361,3210231,,,,,,,2025-04-22,1,,,,,ケイアイソフトライズ,0
1186,5080101025438,新規,0,2025-04-22,2025-04-22,株式会社ＧＦ　ＦＡＣＴＯＲＹ,,株式会社,静岡県,富士宮市,阿幸地５５－１,,22,207,4180016,,,,,,,2025-04-22,1,,,,,,0
1189,5080401027869,新規,0,2025-04-22,2025-04-22,ＡｚｕｒｅＧｒｏｖｅＩｎｎｏｖａｔｅ株式会社,,株式会社,静岡県,浜松市中央区,有玉南町１８６７番地の１,,22,138,4313122,,,,,,,2025-04-22,1,,,,,アジュールグローブイノベート,0
1191,5090001019233,新規,0,2025-04-22,2025-04-22,株式会社ヴィラクリーンパートナーズ,,株式会社,山梨県,富士吉田市,松山１丁目４番６６号－１０１号,,19,202,4030016,,,,,,,2025-04-22,1,,,,,ヴィラクリーンパートナーズ,0
1205,5120001274725,新規,0,2025-04-22,2025-04-22,虹色テクノロジー株式会社,,株式会社,大阪府,大阪市西成区,橘１丁目１１－２８オフィスポート橘４０３号室,,27,122,5570051,,,,,,,2025-04-22,1,,,,,ニジイロテクノロジー,0
1206,5120001274766,新規,0,2025-04-22,2025-04-22,新芸和株式会社,,株式会社,大阪府,大阪市城東区,古市１丁目１番１９号,,27,118,5360001,,,,,,,2025-04-22,1,,,,,シンゲイワ,0
1207,5120001274790,新規,0,2025-04-22,2025-04-22,謙嵐貿易株式会社,,株式会社,大阪府,大阪市港区,磯路３丁目２４番２６号,,27,107,5520003,,,,,,,2025-04-22,1,,,,,ケンランボウエキ,0
1208,5120001275186,新規,0,2025-04-22,2025-04-22,株式会社ソレミア,,株式会社,大阪府,大阪市北区,曾根崎新地１丁目６番９号サンパレスビル５階,,27,127,5300002,,,,,,,2025-04-22,1,,,,,ソレミア,0
1211,5120003029152,新規,0,2025-04-22,2025-04-22,Ｔｉｍｉ合同会社,,合同会社,大阪府,大阪市生野区,小路３丁目１３番５グランソシエ小路店舗Ｂ,,27,116,5440002,,,,,,,2025-04-22,1,,,,,ティミ,0
1212,5120003029169,新規,0,2025-04-22,2025-04-22,合同会社Ｆｅｌｉｃｉａｒｃ．,,合同会社,大阪府,大阪市北区,梅田１丁目２－２大阪駅前第２ビル１２－１２,,27,127,5300001,,,,,,,2025-04-22,1,,,,,フェリシアーク,0
1213,5120003029177,新規,0,2025-04-22,2025-04-22,合同会社ＴＡｗｏｒｋｓ,,合同会社,大阪府,大阪市住之江区,安立１丁目４番７号,,27,125,5590003,,,,,,,2025-04-22,1,,,,,ティーエーワークス,0
1214,5120003029185,新規,0,2025-04-22,2025-04-22,Ｙ・Ｇ・Ｆ合同会社,,合同会社,大阪府,大阪市西成区,津守１丁目８番３８号松谷ビル１０２号室,,27,122,5570062,,,,,,,2025-04-22,1,,,,,ワイジエフ,0
1219,5120105010002,新規,0,2025-04-22,2025-04-22,一般財団法人堀川記念百舌鳥・泉州文化保存財団,,その他の設立登記法人,大阪府,堺市北区,百舌鳥梅町２丁４８６番地,,27,146,5918032,,,,,,,2025-04-22,1,,,,,ホリカワキネンモズセンシュウブンカホゾンザイダン,0
1227,5130003010391,新規,0,2025-04-22,2025-04-22,合同会社知岳舎,,合同会社,京都府,京都市下京区,小稲荷町８５－２Ｇｒａｎｄ－Ｋ京都駅前ビル２０１,,26,106,6008208,,,,,,,2025-04-22,1,,,,,チガクシャ,0
1233,5140001138218,新規,0,2025-04-22,2025-04-22,松柏長青株式会社,,株式会社,兵庫県,神戸市灘区,原田通３丁目７番１１－２０５号,,28,102,6570837,,,,,,,2025-04-22,1,,,,,ショウハクチョウセイ,0
1234,5140001138250,新規,0,2025-04-22,2025-04-22,株式会社エフアールビー,,株式会社,兵庫県,神戸市中央区,中山手通１丁目１６－１５古林ビル７階,,28,110,6500004,,,,,,,2025-04-22,1,,,,,エフアールビー,0
1236,5140005027490,新規,0,2025-04-22,2025-04-22,特定非営利活動法人相続・空き家相談所,,その他の設立登記法人,兵庫県,明石市,藤江９２７番５号,,28,203,6730044,,,,,,,2025-04-22,1,,,,,ソウゾクアキヤソウダンジョ,0
1239,5150003003559,新規,0,2025-04-22,2025-04-22,合同会社Ｓｉｎｃｅｒｙ,,合同会社,奈良県,生駒市,辻町１７９－１,00138857,29,209,6300212,,,,,,,2025-04-22,1,,,,,シンセリー,0
1241,5170003002195,新規,0,2025-04-22,2025-04-22,合同会社ＹＧＳ,,合同会社,和歌山県,日高郡由良町,大字中２３２番地８,,30,383,6491102,,,,,,,2025-04-22,1,,,,,ワイジーエス,0
1247,5180001166438,新規,0,2025-04-22,2025-04-22,株式会社まなこ美濃,,株式会社,愛知県,名古屋市中村区,名駅４丁目１５番１９号,,23,105,4500002,,,,,,,2025-04-22,1,,,,,マナコミノ,0
1248,5180001166470,新規,0,2025-04-22,2025-04-22,株式会社ＣＩＲＣＵ,,株式会社,愛知県,名古屋市北区,清水４丁目３番１１号,,23,103,4620844,,,,,,,2025-04-22,1,,,,,シルク,0
1249,5180001166520,新規,0,2025-04-22,2025-04-22,株式会社エプリ,,株式会社,愛知県,名古屋市天白区,元植田１丁目２９１２番地,,23,116,4680009,,,,,,,2025-04-22,1,,,,,エプリ,0
1254,5180003028339,新規,0,2025-04-22,2025-04-22,よるよなか合同会社,,合同会社,愛知県,名古屋市中区,橘１丁目１７番２７号,,23,106,4600016,,,,,,,2025-04-22,1,,,,,ヨルヨナカ,0
1259,5190001032168,新規,0,2025-04-22,2025-04-22,株式会社カメリア,,株式会社,三重県,四日市市,八王子町１６７８番地１０,,24,202,5100947,,,,,,,2025-04-22,1,,,,,カメリア,0
1260,5190003005007,新規,0,2025-04-22,2025-04-22,合同会社イリュージョン,,合同会社,三重県,鈴鹿市,南江島町１８番２５号ブァルール江島１０１,,24,207,5100235,,,,,,,2025-04-22,1,,,,,イリュージョン,0
1261,5200003006787,新規,0,2025-04-22,2025-04-22,合同会社アアルト,,合同会社,岐阜県,羽島市,足近町７丁目３５１番地１,,21,209,5016207,,,,,,,2025-04-22,1,,,,,アアルト,0
1264,5220001026637,新規,0,2025-04-22,2025-04-22,株式会社創峰建設,,株式会社,石川県,能美市,中町酉５番地３,,17,211,9290123,,,,,,,2025-04-22,1,,,,,ソウホウケンセツ,0
1267,5220005008953,新規,0,2025-04-22,2025-04-22,医療法人社団グリーン歯科クリニック,,その他の設立登記法人,石川県,金沢市,直江東２丁目５９番地,,17,201,9208213,,,,,,,2025-04-22,1,,,,,グリーンシカクリニック,0
1272,5240001064841,新規,0,2025-04-22,2025-04-22,株式会社いちとに,,株式会社,広島県,広島市中区,本川町２丁目１－４－７０１,,34,101,7300802,,,,,,,2025-04-22,1,,,,,イチトニ,0
1274,5250003003706,新規,0,2025-04-22,2025-04-22,合同会社Ａｎａｎｋｅ,,合同会社,山口県,周南市,秋月３丁目１７番３２号,,35,215,7450825,,,,,,,2025-04-22,1,,,,,アナンケー,0
1281,5290001109740,新規,0,2025-04-22,2025-04-22,株式会社スカイライト,,株式会社,福岡県,福岡市中央区,黒門８番２４号ダイナコート大濠公園３０４,,40,133,8100055,,,,,,,2025-04-22,1,,,,,スカイライト,0
1282,5290003016704,新規,0,2025-04-22,2025-04-22,合同会社総,,合同会社,福岡県,福岡市南区,大橋団地６番１－９０７号マークスシティ大橋,,40,134,8150038,,,,,,,2025-04-22,1,,,,,ソウ,0
1283,5290003016712,新規,0,2025-04-22,2025-04-22,ＯＫＣ　Ｔｅｃｈｎｏｌｏｇｙ合同会社,,合同会社,福岡県,福岡市早良区,百道２丁目８番２１号フォーラム藤崎２０２号,,40,137,8140006,,,,,,,2025-04-22,1,,,,,オーケーシーテクノロジー,0
1289,5330001033119,新規,0,2025-04-22,2025-04-22,株式会社ＬＥＡＬＥ,,株式会社,熊本県,菊池郡菊陽町,大字原水１５１１番地１０,,43,404,8691102,,,,,,,2025-04-22,1,,,,,レアーレ,0
1290,5330001033127,新規,0,2025-04-22,2025-04-22,株式会社オハナ,,株式会社,熊本県,熊本市北区,植木町木留３３６番地２,,43,105,8610151,,,,,,,2025-04-22,1,,,,,オハナ,0
1291,5330003010958,新規,0,2025-04-22,2025-04-22,合同会社十八,,合同会社,熊本県,熊本市西区,上代３丁目１７番４５号,,43,103,8600068,,,,,,,2025-04-22,1,,,,,トワ,0
1292,5340001027284,新規,0,2025-04-22,2025-04-22,株式会社商運エージェンシー,,株式会社,鹿児島県,鹿児島市,宇宿２丁目１４番２６号,,46,201,8900073,,,,,,,2025-04-22,1,,,,,ショウウンエージェンシー,0
1298,5350003004917,新規,0,2025-04-22,2025-04-22,合同会社徳防建装,,合同会社,宮崎県,宮崎市,橘通西２丁目３番１５,,45,201,8800001,,,,,,,2025-04-22,1,,,,,トクボウケンソウ,0
1300,5360001035079,新規,0,2025-04-22,2025-04-22,ＴＡＩＳＨＩ株式会社,,株式会社,沖縄県,うるま市,石川曙２丁目１６番１６号ハイランドなみ３－Ｂ,,47,213,9041107,,,,,,,2025-04-22,1,,,,,タイシ,0
1301,5360001035087,新規,0,2025-04-22,2025-04-22,絆株式会社,,株式会社,沖縄県,那覇市,前島３丁目２番１５三木ビル２０１室,,47,201,9000016,,,,,,,2025-04-22,1,,,,,キズナ,0
1305,5360005007207,新規,0,2025-04-22,2025-04-22,一般社団法人Ｂｅ　Ｓｐｏｒｔｓ沖縄,,その他の設立登記法人,沖縄県,那覇市,泊１丁目４番７号,,47,201,9000012,,,,,,,2025-04-22,1,,,,,ビースポーツオキナワ,0
1324,5430003017555,新規,0,2025-04-22,2025-04-22,焔合同会社,,合同会社,北海道,札幌市東区,北三十四条東７丁目３番２０号岩本ビル３階,,01,103,0070834,,,,,,,2025-04-22,1,,,,,ホノオ,0
1325,5460001006004,新規,0,2025-04-22,2025-04-22,とっかいどう株式会社,,株式会社,北海道,釧路市,新橋大通１丁目２番２０号,,01,206,0850046,,,,,,,2025-04-22,1,,,,,,0
1332,5700150130067,新規,0,2025-04-22,2025-04-22,ＺＨＥＪＩＡＮＧ　ＴＯＯＬＵＣＫ　ＩＮＤＵＳＴＲＩＡＬ　ＣＯ．，ＬＴＤ．,,外国会社等,,,,,,,,Ｒｏｏｍ　Ｂ１２０８　ＩＯＴ　Ｂｕｉｌｄｉｎｇ，Ｎｏ．１９９　Ｃｈａｎｇｘｉｎｇ　Ｒｏａｄ，Ｊｉａｎｇｂｅｉ　Ｄｉｓｔｒｉｃｔ，Ｎｉｎｇｂｏ　Ｃｉｔｙ，Ｚｈｅｊｉａｎｇ　Ｐｒｏｖｉｎｃｅ,,,,,,2025-04-22,1,,,,,ジェージャントゥーラックインダストリアルカンパニーリミテッド,0
1335,6010001254266,新規,0,2025-04-22,2025-04-22,エスプラナディア株式会社,,株式会社,東京都,千代田区,内幸町１丁目３－１,,13,101,1000011,,,,,,,2025-04-22,1,,,,,エスプラナディア,0
1336,6010003047098,新規,0,2025-04-22,2025-04-22,合同会社ｗｅｌｌ,,合同会社,東京都,中央区,日本橋本町１丁目８－８,,13,102,1030023,,,,,,,2025-04-22,1,,,,,ウェル,0
1337,6010003047131,新規,0,2025-04-22,2025-04-22,合同会社ＣＡＴ＆ＦＯＸ,,合同会社,東京都,中央区,日本橋兜町１７－２,,13,102,1030026,,,,,,,2025-04-22,1,,,,,キャットアンドフォックス,0
1338,6010005039960,新規,0,2025-04-22,2025-04-22,ＣａｐｉｔａＬａｎｄ　Ｈｕｎｄｒｅｄ　Ｖｅｎｔｕｒｅｓ特定目的会社,,その他の設立登記法人,東京都,千代田区,丸の内２丁目２番３号丸の内仲通りビル６階,,13,101,1000005,,,,,,,2025-04-22,1,,,,,キャピタランドハンドレッドベンチャーズ,0
1339,6010101016649,新規,0,2025-04-22,2025-04-22,雲曜株式会社,,株式会社,東京都,八王子市,台町３丁目１３番１号カーサヴェルデ２０４号,,13,201,1930931,,,,,,,2025-04-22,1,,,,,ウンヨウ,0
1344,6010401189681,新規,0,2025-04-22,2025-04-22,伊藤聡子事務所株式会社,,株式会社,東京都,港区,港南２丁目１５番１号品川インターシティＡ棟２８階,,13,103,1080075,,,,,,,2025-04-22,1,,,,,イトウサトコジムショ,0
1345,6010401189806,新規,0,2025-04-22,2025-04-22,株式会社Ｆｒｉｓｔａｒｔ　ＨＯＭＥＳ,,株式会社,東京都,港区,浜松町２丁目２番１５号浜松町ダイヤビル２Ｆ,,13,103,1050013,,,,,,,2025-04-22,1,,,,,フレスタートホームズ,0
1346,6010403034877,新規,0,2025-04-22,2025-04-22,ＫＺ合同会社,,合同会社,東京都,港区,赤坂６丁目９－９－３０１,,13,103,1070052,,,,,,,2025-04-22,1,,,,,ケーゼット,0
1347,6010403034943,新規,0,2025-04-22,2025-04-22,合同会社ＪＴＴ　ＡＳＩＡ,,合同会社,東京都,港区,芝浦３丁目１７番１１号,,13,103,1080023,,,,,,,2025-04-22,1,,,,,ジェイティーティーアジア,0
1348,6010601067159,新規,0,2025-04-22,2025-04-22,株式会社日進食研,,株式会社,東京都,江東区,青海２丁目７番４号ｔｈｅＳＯＨＯ４０３,,13,108,1350064,,,,,,,2025-04-22,1,,,,,ニッシンショッケン,0
1349,6010601067183,新規,0,2025-04-22,2025-04-22,ネクストダイナ株式会社,,株式会社,東京都,江東区,大島２丁目１０番－１７ネオコーポ西大島ＩＩ５階,00138854,13,108,1360072,,,,,,,2025-04-22,1,,,,,ネクストダイナ,0
1356,6010801036079,新規,0,2025-04-22,2025-04-22,百翔株式会社,,株式会社,東京都,大田区,大森南１丁目１０番５号,,13,111,1430013,,,,,,,2025-04-22,1,,,,,ヒャクショウ,0
1363,6011001169033,新規,0,2025-04-22,2025-04-22,株式会社Ｍｅｘｙ,,株式会社,東京都,渋谷区,西原１丁目１０番３号アヴェニール代々木上原１０１,,13,113,1510066,,,,,,,2025-04-22,1,,,,,メクシー,0
1364,6011001169322,新規,0,2025-04-22,2025-04-22,ＡＩ　Ｅｍｐｏｗｅｒｓ株式会社,,株式会社,東京都,渋谷区,神南１丁目１１－４ＦＰＧリンクス神南５階,,13,113,1500041,,,,,,,2025-04-22,1,,,,,エーアイエンパワーズ,0
1369,6011101111464,新規,0,2025-04-22,2025-04-22,株式会社ＱＵＩＣＫＬＹ,,株式会社,東京都,新宿区,払方町１０番地１－３０１号,,13,104,1620841,,,,,,,2025-04-22,1,,,,,クイックリー,0
1370,6011201026307,新規,0,2025-04-22,2025-04-22,株式会社ＢｌｏｏｍＰａｔｈ,,株式会社,東京都,中野区,上鷺宮３丁目４番１３号,,13,114,1650031,,,,,,,2025-04-22,1,,,,,ブルームパス,0
1371,6011401027030,新規,0,2025-04-22,2025-04-22,株式会社ＶｅｔｓＵＰ,,株式会社,東京都,板橋区,東山町８番地９号Ｄフォーレスト１０１,,13,119,1740073,,,,,,,2025-04-22,1,,,,,ベッツアップ,0
1381,6012701018818,新規,0,2025-04-22,2025-04-22,株式会社サトサト,,株式会社,東京都,東村山市,萩山町３丁目２５番地５,,13,213,1890012,,,,,,,2025-04-22,1,,,,,サトサト,0
1389,6020001162451,新規,0,2025-04-22,2025-04-22,株式会社ティードットエフ,,株式会社,神奈川県,横浜市港北区,新横浜２丁目５－１４ＷｉｓｅＮｅｘｔ新横浜３Ｆ,,14,109,2220033,,,,,,,2025-04-22,1,,,,,ティードットエフ,0
1390,6020001162518,新規,0,2025-04-22,2025-04-22,株式会社笠原商事,,株式会社,神奈川県,横浜市南区,別所５丁目７番９号,,14,105,2320064,,,,,,,2025-04-22,1,,,,,カサハラショウジ,0
1391,6020001162526,新規,0,2025-04-22,2025-04-22,株式会社リガット,,株式会社,神奈川県,横浜市中区,元町１丁目３９番地１,,14,104,2310861,,,,,,,2025-04-22,1,,,,,リガット,0
1395,6021001085007,新規,0,2025-04-22,2025-04-22,株式会社ヘルスロジティクス,,株式会社,神奈川県,厚木市,中依知５５４番地１,,14,212,2430805,,,,,,,2025-04-22,1,,,,,ヘルスロジティクス,0
1396,6021001085064,新規,0,2025-04-22,2025-04-22,ＮＯＡＢ株式会社,,株式会社,神奈川県,藤沢市,鵠沼石上２丁目５―１湘南鵠沼ＢＬＤ３Ｆ―Ｃ,,14,205,2510025,,,,,,,2025-04-22,1,,,,,ノーエービー,0
1398,6021003015894,新規,0,2025-04-22,2025-04-22,三島史子写真事務所合同会社,,合同会社,神奈川県,逗子市,沼間３丁目２９番２２号,,14,208,2490004,,,,,,,2025-04-22,1,,,,,ミシマフミコシャシンジムショ,0
1408,6030001166113,新規,0,2025-04-22,2025-04-22,株式会社宮田,,株式会社,埼玉県,羽生市,中央３丁目３番２０号１階,,11,216,3480058,,,,,,,2025-04-22,1,,,,,ミヤタ,0
1413,6030003026620,新規,0,2025-04-22,2025-04-22,合同会社トラストエコ,,合同会社,埼玉県,越谷市,相模町５丁目２０番,,11,222,3430823,,,,,,,2025-04-22,1,,,,,トラストエコ,0
1414,6030003026637,新規,0,2025-04-22,2025-04-22,合同会社Ａｑｕａｂｌｏｓｓｏｍ,,合同会社,埼玉県,川口市,戸塚東３丁目３３番３３－２０５号サクセスＪ,,11,203,3330802,,,,,,,2025-04-22,1,,,,,アクアブロッサム,0
1416,6030005022139,新規,0,2025-04-22,2025-04-22,農事組合法人ひまわり,,その他の設立登記法人,埼玉県,草加市,谷塚町５８０－１エスワンプラザ３０１,,11,221,3400023,,,,,,,2025-04-22,1,,,,,ヒマワリ,0
1419,6040001138417,新規,0,2025-04-22,2025-04-22,株式会社トヨケン,,株式会社,千葉県,富里市,七栄５７５番地４５１,,12,233,2860221,,,,,,,2025-04-22,1,,,,,トヨケン,0
1420,6040001138433,新規,0,2025-04-22,2025-04-22,株式会社ＮＡＴＵＲＥ’Ｓ,,株式会社,千葉県,木更津市,金田東１丁目３８番１コネクトテラスビルＤ号室,,12,206,2920009,,,,,,,2025-04-22,1,,,,,ネイチャーズ,0
1422,6040003027394,新規,0,2025-04-22,2025-04-22,合同会社ＲＡＺＡＡＮＡ　ＥＮＴＥＲＰＲＩＳＥＳ,,合同会社,千葉県,富里市,七栄７６－１６,,12,233,2860221,,,,,,,2025-04-22,1,,,,,ラザーナエンタープライズ,0
1423,6040003027444,新規,0,2025-04-22,2025-04-22,合同会社イージーエイト,,合同会社,千葉県,松戸市,松戸新田４２９番の６,,12,207,2702241,,,,,,,2025-04-22,1,,,,,イージーエイト,0
1424,6050003009210,新規,0,2025-04-22,2025-04-22,合同会社トライアングル,,合同会社,茨城県,東茨城郡城里町,大字石塚６３０番地の２１,,08,310,3114303,,,,,,,2025-04-22,1,,,,,トライアングル,0
1427,6060001038136,新規,0,2025-04-22,2025-04-22,株式会社ＳＥＮＳＥ・ＦＯＲＣＥ,,株式会社,栃木県,下野市,駅東３丁目６－９,,09,216,3290413,,,,,,,2025-04-22,1,,,,,センスフォース,0
1437,6090001019232,新規,0,2025-04-22,2025-04-22,ＦＵＪＩ夢の丘株式会社,,株式会社,山梨県,山梨市,三ヶ所１１３９番地,,19,205,4050011,,,,,,,2025-04-22,1,,,,,フジユメノオカ,0
1445,6100003008099,新規,0,2025-04-22,2025-04-22,Ｐｉａｚｚａ　Ｇｒｏｕｐ合同会社,,合同会社,長野県,北佐久郡軽井沢町,大字軽井沢１０４７番地１１８,,20,321,3890102,,,,,,,2025-04-22,1,,,,,ピアザグループ,0
1455,6120001274501,新規,0,2025-04-22,2025-04-22,株式会社ＳＵＲＦ　ＭＡＲＩＮＥ,,株式会社,大阪府,大阪市北区,曾根崎２丁目１４－１０梅田クリスタルビル７０１,,27,127,5300057,,,,,,,2025-04-22,1,,,,,サーフマリン,0
1456,6120001274641,新規,0,2025-04-22,2025-04-22,プラウディア株式会社,,株式会社,大阪府,大阪市浪速区,元町１丁目１２番１６号グローバル難波８０３号,,27,111,5560016,,,,,,,2025-04-22,1,,,,,プラウディア,0
1457,6120001274716,新規,0,2025-04-22,2025-04-22,株式会社ジェレオシステムズ,,株式会社,大阪府,大阪市西淀川区,福町２丁目２０番１１号,,27,113,5550034,,,,,,,2025-04-22,1,,,,,ジェレオシステムズ,0
1458,6120001274724,新規,0,2025-04-22,2025-04-22,桜の国タイムマネジメント株式会社,,株式会社,大阪府,大阪市西成区,橘１丁目１１－２８オフィスポート橘５１５号室,,27,122,5570051,,,,,,,2025-04-22,1,,,,,サクラノクニタイムマネジメント,0
1459,6120001274781,新規,0,2025-04-22,2025-04-22,株式会社Ｃ７,,株式会社,大阪府,大阪市東住吉区,西今川４丁目３５番２号,,27,121,5460042,,,,,,,2025-04-22,1,,,,,シーセブン,0
1463,6120003029077,新規,0,2025-04-22,2025-04-22,合同会社ＬＣ,,合同会社,大阪府,大阪市西成区,天下茶屋北１丁目１番７号２０１号,,27,122,5570003,,,,,,,2025-04-22,1,,,,,エルシー,0
1464,6120003029143,新規,0,2025-04-22,2025-04-22,合同会社みんてん,,合同会社,大阪府,大阪市生野区,巽西４丁目６番２８号,,27,116,5440012,,,,,,,2025-04-22,1,,,,,ミンテン,0
1465,6120003029250,新規,0,2025-04-22,2025-04-22,合同会社おもち,,合同会社,大阪府,大阪市西成区,玉出西２丁目５番５号,,27,122,5570045,,,,,,,2025-04-22,1,,,,,オモチ,0
1482,6140003021965,新規,0,2025-04-22,2025-04-22,惠祥国際合同会社,,合同会社,兵庫県,神戸市東灘区,住吉南町２丁目９番１９号,,28,101,6580041,,,,,,,2025-04-22,1,,,,,ケイショウコクサイ,0
1490,6180003028370,新規,0,2025-04-22,2025-04-22,合同会社てごころ,,合同会社,愛知県,春日井市,六軒屋町西３丁目６番地４,,23,206,4860839,,,,,,,2025-04-22,1,,,,,テゴコロ,0
1491,6180005021076,新規,0,2025-04-22,2025-04-22,一般社団法人ＡｓｐａｒｔＡ,,その他の設立登記法人,愛知県,名古屋市中川区,高畑２丁目２２９番地ジョイフルタカオキＢ号,,23,110,4540911,,,,,,,2025-04-22,1,,,,,アスパータ,0
1495,6180301039739,新規,0,2025-04-22,2025-04-22,Ｏｈａｎａ株式会社,,株式会社,愛知県,西尾市,緑町４丁目５番地１グリーンリーブス２０１号室,,23,213,4450804,,,,,,,2025-04-22,1,,,,,オハナ,0
1496,6180303006539,新規,0,2025-04-22,2025-04-22,合同会社スマートウェスト,,合同会社,愛知県,刈谷市,東刈谷町３丁目１９番地６－３０５号,,23,210,4480807,,,,,,,2025-04-22,1,,,,,スマートウェスト,0
1504,6220005008952,新規,0,2025-04-22,2025-04-22,医療法人社団ののいち整形外科脊椎外科クリニック,,その他の設立登記法人,石川県,野々市市,白山町５番２１号,,17,212,9218821,,,,,,,2025-04-22,1,,,,,ノノイチセイケイゲカセキツイゲカクリニック,0
1505,6240001064832,新規,0,2025-04-22,2025-04-22,株式会社Ｒ＆Ｓ,,株式会社,広島県,広島市安佐北区,落合１丁目１９番１６－５号,,34,106,7391731,,,,,,,2025-04-22,1,,,,,アールアンドエス,0
1510,6260003005139,新規,0,2025-04-22,2025-04-22,合同会社Ｈｉｌｌｓ,,合同会社,岡山県,真庭市,下岩３９,,33,214,7170735,,,,,,,2025-04-22,1,,,,,ヒルズ,0
1517,6290001109517,新規,0,2025-04-22,2025-04-22,株式会社ＴＨＲＥＥＰＹ,,株式会社,福岡県,筑後市,大字江口７４４番地,,40,211,8330046,,,,,,,2025-04-22,1,,,,,スリーピー,0
1518,6290001109673,新規,0,2025-04-22,2025-04-22,株式会社白羽和商,,株式会社,福岡県,福岡市東区,香住ヶ丘２丁目８番２号１０２－２号室,,40,131,8130003,,,,,,,2025-04-22,1,,,,,シラハワショウ,0
1519,6290001109772,新規,0,2025-04-22,2025-04-22,ｈａｎｄ．Ｒ株式会社,,株式会社,福岡県,糟屋郡宇美町,光正寺３丁目２－１６－１０１号,,40,341,8112123,,,,,,,2025-04-22,1,,,,,ハンドアール,0
1523,6290003016703,新規,0,2025-04-22,2025-04-22,合同会社タウク,,合同会社,福岡県,福岡市中央区,今川１丁目２５番９－２０１号,,40,133,8100054,,,,,,,2025-04-22,1,,,,,タウク,0
1535,6330001033118,新規,0,2025-04-22,2025-04-22,株式会社ＡＪＵＮＯ　Ｄｅｖｅｌｏｐｍｅｎｔ,,株式会社,熊本県,熊本市東区,新生２丁目５番１８号１Ｆ,,43,102,8620908,,,,,,,2025-04-22,1,,,,,アジューノデベロップメント,0
1536,6330003010973,新規,0,2025-04-22,2025-04-22,ＡｒｋＤｅｓｉｇｎ合同会社,,合同会社,熊本県,熊本市中央区,新大江３丁目９番６３号,,43,101,8620972,,,,,,,2025-04-22,1,,,,,アークデザイン,0
1540,6360001035078,新規,0,2025-04-22,2025-04-22,株式会社うちけん,,株式会社,沖縄県,島尻郡八重瀬町,字東風平１１６０番地３４,,47,362,9010401,,,,,,,2025-04-22,1,,,,,ウチケン,0
1541,6360001035086,新規,0,2025-04-22,2025-04-22,株式会社Ｎ＆Ｐ,,株式会社,沖縄県,島尻郡南風原町,字大名８３番地３サニーヒル大名２０５,,47,350,9011101,,,,,,,2025-04-22,1,,,,,エヌアンドピー,0
1542,6360005007214,新規,0,2025-04-22,2025-04-22,医療法人南鷲会,,その他の設立登記法人,沖縄県,石垣市,浜崎町３丁目３番地９コーラルケアガーデン１階,,47,207,9070013,,,,,,,2025-04-22,1,,,,,ナンシュウカイ,0
1545,6370001052502,新規,0,2025-04-22,2025-04-22,Ｓｋｙ保険株式会社,,株式会社,宮城県,仙台市泉区,市名坂字御釜田１４２番地の５サンロードビル２０２,,04,105,9813117,,,,,,,2025-04-22,1,,,,,スカイホケン,0
1546,6370003007058,新規,0,2025-04-22,2025-04-22,ＪＥＴ　ＬＩＮＫ合同会社,,合同会社,宮城県,仙台市青葉区,上杉３丁目３番３３－２０１号,,04,101,9800011,,,,,,,2025-04-22,1,,,,,ジェットリンク,0
1549,6400001017014,新規,0,2025-04-22,2025-04-22,株式会社与一,,株式会社,岩手県,盛岡市,東見前１地割９２番地１,,03,201,0200832,,,,,,,2025-04-22,1,,,,,,0
1554,6420001019108,新規,0,2025-04-22,2025-04-22,株式会社ｄａｉｓｈｉｎ,,株式会社,青森県,上北郡野辺地町,字中道２３番地４４,,02,401,0393112,,,,,,,2025-04-22,1,,,,,ダイシン,0
1570,6430003017538,新規,0,2025-04-22,2025-04-22,ＦｌｕＸ　Ｌａｂ合同会社,,合同会社,北海道,札幌市中央区,南五条西５丁目９番１号,,01,101,0640805,,,,,,,2025-04-22,1,,,,,フラックスラボ,0
1573,6500001026252,新規,0,2025-04-22,2025-04-22,株式会社騰泰金属,,株式会社,愛媛県,松山市,西垣生町２８８６番地２,,38,201,7918044,,,,,,,2025-04-22,1,,,,,トウタイキンゾク,0
1577,6700150130066,新規,0,2025-04-22,2025-04-22,Ｇｕａｎｇｚｈｏｕ　Ｍｏｋｅ　Ｅｌｅｃｔｒｏｎｉｃ　Ｔｅｃｈｎｏｌｏｇｙ　Ｃｏ　Ｌｔｄ,,外国会社等,,,,,,,,１２０１　Ｂｕｉｌｄｉｎｇ　５，Ｎｏ．６８４　Ｓｈｉｂｅｉ　Ｉｎｄｕｓｔｒｉａｌ　Ｒｏａｄ，Ｄａｓｈｉ　Ｓｔｒｅｅｔ，Ｐａｎｙｕ　Ｇｕａｎｇｚｈｏｕ,,,,,,2025-04-22,1,,,,,グアンジョウモークエレクトロニックテクノロジーカンパニーリミテッド,0
1584,7010001254190,新規,0,2025-04-22,2025-04-22,ＥＦＴ株式会社,,株式会社,東京都,千代田区,霞が関３丁目２番５号,,13,101,1000013,,,,,,,2025-04-22,1,,,,,イーエフティー,0
1587,7010005039927,新規,0,2025-04-22,2025-04-22,一般社団法人首都圏不動産共創協会,,その他の設立登記法人,東京都,中央区,八丁堀４丁目１１番４号八丁堀フロント５階,,13,102,1040032,,,,,,,2025-04-22,1,,,,,シュトケンフドウサンキョウソウキョウカイ,0
1595,7010401189788,新規,0,2025-04-22,2025-04-22,ストラゲート株式会社,,株式会社,東京都,港区,南青山３丁目１番３６号青山丸竹ビル６Ｆ,,13,103,1070062,,,,,,,2025-04-22,1,,,,,ストラゲート,0
1596,7010405024347,新規,0,2025-04-22,2025-04-22,一般社団法人Ｄａｎａｓ,,その他の設立登記法人,東京都,港区,虎ノ門１丁目１番１８号ヒューリック虎ノ門ビル９階Ｌ＆Ｐ司法書士法人内,,13,103,1050001,,,,,,,2025-04-22,1,,,,,ダナス,0
1606,7010801036078,新規,0,2025-04-22,2025-04-22,サンクユア株式会社,,株式会社,東京都,大田区,西蒲田６丁目１４番２４号ホルン西蒲田１０７,,13,111,1440051,,,,,,,2025-04-22,1,,,,,サンクユア,0
1617,7011001168934,新規,0,2025-04-22,2025-04-22,ゲシュタルト株式会社,,株式会社,東京都,目黒区,青葉台３丁目１８番１０－６０５号,,13,110,1530042,,,,,,,2025-04-22,1,,,,,ゲシュタルト,0
1618,7011001169040,新規,0,2025-04-22,2025-04-22,株式会社ハウレス,,株式会社,東京都,渋谷区,渋谷２丁目１９－１５宮益坂ビルディング６０９,,13,113,1500002,,,,,,,2025-04-22,1,,,,,ハウレス,0
1619,7011001169049,新規,0,2025-04-22,2025-04-22,株式会社ＭＫＰメディカル,,株式会社,東京都,渋谷区,恵比寿南１丁目１番１号ヒューマックス恵比寿ビル８０４,,13,113,1500022,,,,,,,2025-04-22,1,,,,,エムケーピーメディカル,0
1620,7011001169197,新規,0,2025-04-22,2025-04-22,株式会社キュリア・パックスクエスト,,株式会社,東京都,目黒区,柿の木坂３丁目４番１９号,,13,110,1520022,,,,,,,2025-04-22,1,,,,,キュリアパックスクエスト,0
1621,7011001169271,新規,0,2025-04-22,2025-04-22,Ｅａｒｔｈ　ｆｉｔｎｅｓｓ株式会社,,株式会社,東京都,目黒区,下目黒２丁目１９番６号Ｆ＆Ｔビル１Ｆ,,13,110,1530064,,,,,,,2025-04-22,1,,,,,アースフィットネス,0
1622,7011003021331,新規,0,2025-04-22,2025-04-22,ＴＹＰＥｂ合同会社,,合同会社,東京都,渋谷区,神宮前６丁目２３番４号桑野ビル２階,,13,113,1500001,,,,,,,2025-04-22,1,,,,,タイプビー,0
1623,7011003021455,新規,0,2025-04-22,2025-04-22,合同会社十四舎,,合同会社,東京都,渋谷区,大山町２６番６－３０８号,,13,113,1510065,,,,,,,2025-04-22,1,,,,,トオヨンシャ,0
1631,7011101111265,新規,0,2025-04-22,2025-04-22,株式会社まこのて,,株式会社,東京都,新宿区,信濃町３５,,13,104,1600016,,,,,,,2025-04-22,1,,,,,マコノテ,0
1632,7011103015803,新規,0,2025-04-22,2025-04-22,合同会社Ｆａｖ,,合同会社,東京都,新宿区,歌舞伎町２丁目４６番７号第３平沢ビル４階,,13,104,1600021,,,,,,,2025-04-22,1,,,,,ファブ,0
1633,7011201026306,新規,0,2025-04-22,2025-04-22,株式会社いなば,,株式会社,東京都,中野区,東中野５丁目２２番１４－１０５号,,13,114,1640003,,,,,,,2025-04-22,1,,,,,イナバ,0
1637,7011303005521,新規,0,2025-04-22,2025-04-22,ＣＡＮＡＴＡ合同会社,,合同会社,東京都,杉並区,西荻北３丁目２１番５号ＹＳディセンダンツビル２Ｆ,,13,115,1670042,,,,,,,2025-04-22,1,,,,,カナタ,0
1643,7011701028280,新規,0,2025-04-22,2025-04-22,株式会社エミリート,,株式会社,東京都,江戸川区,北小岩２丁目１７－３,,13,123,1330051,,,,,,,2025-04-22,1,,,,,エミリート,0
1646,7011801046026,新規,0,2025-04-22,2025-04-22,双木交通株式会社,,株式会社,東京都,葛飾区,西水元１丁目２１－６－３０１,,13,122,1250031,,,,,,,2025-04-22,1,,,,,フタキコウツウ,0
1651,7012701018817,新規,0,2025-04-22,2025-04-22,株式会社大貴,,株式会社,東京都,清瀬市,中里５丁目５８７番地１４,,13,221,2040003,,,,,,,2025-04-22,1,,,,,ダイキ,0
1655,7013101009679,新規,0,2025-04-22,2025-04-22,株式会社ユーアーズ,,株式会社,東京都,西多摩郡瑞穂町,むさし野１丁目７番地５,,13,303,1901214,,,,,,,2025-04-22,1,,,,,ユーアーズ,0
1660,7020001162500,新規,0,2025-04-22,2025-04-22,ＰＲＥＳＩＤＥＮＴ株式会社,,株式会社,神奈川県,横浜市旭区,今宿１丁目２８番１８号２０１,,14,112,2410817,,,,,,,2025-04-22,1,,,,,,0
1666,7020003028294,新規,0,2025-04-22,2025-04-22,ＡＳＳＩＳＴＲＥＴＣＨ　ＪＡＰＡＮ合同会社,,合同会社,神奈川県,横浜市中区,山下町１番町シルクセンター１００７,,14,104,2310023,,,,,,,2025-04-22,1,,,,,アシストレッチジャパン,0
1667,7020003028328,新規,0,2025-04-22,2025-04-22,合同会社Ｍｏｔｉｏｎ　Ｃｒａｆｔ,,合同会社,神奈川県,川崎市多摩区,登戸新町１１５番地１７,,14,135,2140013,,,,,,,2025-04-22,1,,,,,モーションクラフト,0
1670,7021001084973,新規,0,2025-04-22,2025-04-22,株式会社ＡＹｃａｎＤ,,株式会社,神奈川県,小田原市,国府津２７２１番地の３加藤ハイツ１０３,,14,206,2560812,,,,,,,2025-04-22,1,,,,,エーワイキャンディー,0
1671,7021001085030,新規,0,2025-04-22,2025-04-22,ＲＡＮＡ　ＣＯＲＰＯＲＡＴＩＯＮ株式会社,,株式会社,神奈川県,大和市,草柳１丁目２１番２２－１０４号,,14,213,2420026,,,,,,,2025-04-22,1,,,,,ラナコーポレーション,0
1674,7021005013350,新規,0,2025-04-22,2025-04-22,一般社団法人ボディポジティブ協会,,その他の設立登記法人,神奈川県,海老名市,国分北４丁目２番３号エクシート２１－２０３,,14,215,2430406,,,,,,,2025-04-22,1,,,,,ボディポジティブキョウカイ,0
1680,7030001166194,新規,0,2025-04-22,2025-04-22,株式会社月の庭,,株式会社,埼玉県,さいたま市南区,別所５丁目１５番地２,,11,108,3360021,,,,,,,2025-04-22,1,,,,,ツキノニワ,0
1689,7030005022138,新規,0,2025-04-22,2025-04-22,農事組合法人ゆうひ,,その他の設立登記法人,埼玉県,草加市,谷塚町５８０－１エスワンプラザ３０１,,11,221,3400023,,,,,,,2025-04-22,1,,,,,,0
1696,7040001138416,新規,0,2025-04-22,2025-04-22,泉野製薬株式会社,,株式会社,千葉県,八千代市,ゆりのき台１丁目２２番地１－６０７,,12,221,2760042,,,,,,,2025-04-22,1,,,,,イズミノセイヤク,0
1708,7070001042854,新規,0,2025-04-22,2025-04-22,株式会社ＴｅｃｈＳｃｈｏｌａｒ,,株式会社,群馬県,みどり市,笠懸町鹿４３８７－９,,10,212,3792313,,,,,,,2025-04-22,1,,,,,テックスカラー,0
1729,7120001274723,新規,0,2025-04-22,2025-04-22,櫻の夢株式会社,,株式会社,大阪府,大阪市西成区,橘１丁目１１－２８オフィスポート橘４０５号室,,27,122,5570051,,,,,,,2025-04-22,1,,,,,サクラノユメ,0
1730,7120001274731,新規,0,2025-04-22,2025-04-22,Ｍａｋｉ株式会社,,株式会社,大阪府,大阪市城東区,今福南２丁目２３番３２号今福ハイツ１－３,,27,118,5360003,,,,,,,2025-04-22,1,,,,,マキ,0
1731,7120001274764,新規,0,2025-04-22,2025-04-22,悦和行旅株式会社,,株式会社,大阪府,大阪市生野区,中川１丁目１番１４号,,27,116,5440005,,,,,,,2025-04-22,1,,,,,エツワコウリョ,0
1732,7120001275003,新規,0,2025-04-22,2025-04-22,シナジーグローヴ株式会社,,株式会社,大阪府,大阪市北区,西天満５丁目１２番８号,,27,127,5300047,,,,,,,2025-04-22,1,,,,,シナジーグローヴ,0
1735,7120003029159,新規,0,2025-04-22,2025-04-22,ＹＭＴ６８ＧＲＯＵＰ合同会社,,合同会社,大阪府,大阪市西成区,旭３丁目４番２３号２０１,,27,122,5570032,,,,,,,2025-04-22,1,,,,,ワイエムティーロクハチグループ,0
1736,7120003029299,新規,0,2025-04-22,2025-04-22,エシカル経営コンサルティング合同会社,,合同会社,大阪府,大阪市中央区,博労町３丁目１‐８‐１００５,,27,128,5410059,,,,,,,2025-04-22,1,,,,,エシカルケイエイコンサルティング,0
1749,7130003010381,新規,0,2025-04-22,2025-04-22,合同会社Ｄａｉｌｙ　Ｊｏｙｓ　Ｌａｂｏ,,合同会社,京都府,京都市東山区,福稲御所ノ内町２番地１６号,,26,105,6050987,,,,,,,2025-04-22,1,,,,,デイリージョイスラボ,0
1754,7140001138216,新規,0,2025-04-22,2025-04-22,株式会社Ｈｅａｒｔ’ｓＤｅｌｉｇｈｔ,,株式会社,兵庫県,赤穂市,御崎３５３番地,,28,212,6780215,,,,,,,2025-04-22,1,,,,,ハーツディライト,0
1755,7140001138232,新規,0,2025-04-22,2025-04-22,株式会社ハルミア,,株式会社,兵庫県,神戸市中央区,加納町３丁目１４番８号松田ビル２階,,28,110,6500001,,,,,,,2025-04-22,1,,,,,ハルミア,0
1756,7140003021956,新規,0,2025-04-22,2025-04-22,合同会社村本不動産鑑定士事務所,,合同会社,兵庫県,神戸市北区,谷上西町２７－６クリアーレ岡崎５０３,,28,109,6511246,,,,,,,2025-04-22,1,,,,,ムラモトフドウサンカンテイシジムショ,0
1760,7150003003581,新規,0,2025-04-22,2025-04-22,合同会社れくり,,合同会社,奈良県,奈良市,橋本町３－１,,29,201,6308217,,,,,,,2025-04-22,1,,,,,レクリ,0
1762,7160005011400,新規,0,2025-04-22,2025-04-22,一般社団法人ＪＹＵＹＯＮ１４ＡＣＡＤＥＭＹ,,その他の設立登記法人,滋賀県,東近江市,三津屋町２９番地２１,,25,213,5270075,,,,,,,2025-04-22,1,,,,,ジューヨンアカデミー,0
1772,7180001166460,新規,0,2025-04-22,2025-04-22,株式会社ＲＯＹＣＥ,,株式会社,愛知県,名古屋市東区,東桜２丁目１３番３４号,,23,102,4610005,,,,,,,2025-04-22,1,,,,,ロイス,0
1773,7180001166477,新規,0,2025-04-22,2025-04-22,株式会社Ｄｉｇｌｅ,,株式会社,愛知県,名古屋市中村区,名駅４丁目２４番５号第２森ビル４０１,,23,105,4500002,,,,,,,2025-04-22,1,,,,,ディグル,0
1774,7180001166510,新規,0,2025-04-22,2025-04-22,株式会社ＢＬＩＳＳ　ＧＬＯＢＡＬ,,株式会社,愛知県,名古屋市昭和区,山手通３丁目２４番地の１八事ファミリーハイツ２０１,,23,107,4660815,,,,,,,2025-04-22,1,,,,,ブリスグローバル,0
1775,7180001166527,新規,0,2025-04-22,2025-04-22,株式会社アイブライト,,株式会社,愛知県,名古屋市中区,丸の内２丁目１７番１３号ＮＫ丸の内ビル２階,,23,106,4600002,,,,,,,2025-04-22,1,,,,,アイブライト,0
1781,7180003028205,新規,0,2025-04-22,2025-04-22,合同会社北村商会,,合同会社,愛知県,岩倉市,下本町燈明庵１５２－１－３０３,,23,228,4820005,,,,,,,2025-04-22,1,,,,,キタムラショウカイ,0
1782,7180005021067,新規,0,2025-04-22,2025-04-22,一般社団法人愛知ジュニアゴルフ協会,,その他の設立登記法人,愛知県,日進市,岩崎町西ノ平４１－３,,23,230,4700131,,,,,,,2025-04-22,1,,,,,アイチジュニアゴルフキョウカイ,0
1783,7180005021075,新規,0,2025-04-22,2025-04-22,一般社団法人蟹江町地域猫の森,,その他の設立登記法人,愛知県,海部郡蟹江町,大字須成字上惣作２２４９番地の１,,23,425,4970031,,,,,,,2025-04-22,1,,,,,カニエチョウチイキネコノモリ,0
1784,7180301039738,新規,0,2025-04-22,2025-04-22,株式会社Ｋｌｅａｒ,,株式会社,愛知県,安城市,三河安城東町１丁目２７番地３２ＴＨＥ・ＳＴＡＴＵＳ６Ｆ,,23,212,4460057,,,,,,,2025-04-22,1,,,,,クリア,0
1785,7180301039746,新規,0,2025-04-22,2025-04-22,ＮＳＳＫソリューションズ株式会社,,株式会社,愛知県,豊橋市,下地町字長池１７番地７,,23,201,4400086,,,,,,,2025-04-22,1,,,,,エヌエスエスケイソリューションズ,0
1786,7180301039754,新規,0,2025-04-22,2025-04-22,株式会社雨杲,,株式会社,愛知県,豊川市,蔵子６丁目３番地２,,23,207,4420842,,,,,,,2025-04-22,1,,,,,ウダカ,0
1787,7180303006538,新規,0,2025-04-22,2025-04-22,合同会社つたわる,,合同会社,愛知県,新城市,杉山字野中５９番地６,,23,221,4411341,,,,,,,2025-04-22,1,,,,,ツタワル,0
1791,7190005012040,新規,0,2025-04-22,2025-04-22,一般社団法人モンシェリー,,その他の設立登記法人,三重県,四日市市,石塚町２番１７－４号,00138851,24,202,5100828,,,,,,,2025-04-22,1,,,,,モンシェリー,0
1794,7210005010198,新規,0,2025-04-22,2025-04-22,医療法人紬彩会,,その他の設立登記法人,福井県,あわら市,二面１丁目１００８番地,,18,208,9104103,,,,,,,2025-04-22,1,,,,,ユウサイカイ,0
1798,7240001064848,新規,0,2025-04-22,2025-04-22,株式会社Ｅｘｈｉｇｈ,,株式会社,広島県,広島市中区,本川町２丁目４番６－２０３号,,34,101,7300802,,,,,,,2025-04-22,1,,,,,エクスハイ,0
1800,7240003007160,新規,0,2025-04-22,2025-04-22,合同会社Ｎｅｓｌｉｎｋ,,合同会社,広島県,東広島市,西条町寺家６０９番地５,,34,212,7390041,,,,,,,2025-04-22,1,,,,,ネスリンク,0
1806,7260003005146,新規,0,2025-04-22,2025-04-22,グランビル合同会社,,合同会社,岡山県,岡山市北区,津島西坂１丁目１番２８号４０１,,33,101,7000086,,,,,,,2025-04-22,1,,,,,グランビル,0
1813,7290001109730,新規,0,2025-04-22,2025-04-22,株式会社ドアーズ,,株式会社,福岡県,小郡市,干潟１８２８番地２,,40,216,8380112,,,,,,,2025-04-22,1,,,,,ドアーズ,0
1814,7290001109739,新規,0,2025-04-22,2025-04-22,株式会社ＫＮＳ,,株式会社,福岡県,糟屋郡粕屋町,長者原東５丁目７番２９号,,40,349,8112317,,,,,,,2025-04-22,1,,,,,ケーエヌエス,0
1815,7290001109755,新規,0,2025-04-22,2025-04-22,株式会社エムプラス,,株式会社,福岡県,福岡市東区,御島崎１丁目３３番４１７号,,40,131,8130005,,,,,,,2025-04-22,1,,,,,エムプラス,0
1816,7290001109771,新規,0,2025-04-22,2025-04-22,株式会社ＩＮＤＹ,,株式会社,福岡県,福岡市中央区,大名１丁目３番４６号大名イマンスビル３階,,40,133,8100041,,,,,,,2025-04-22,1,,,,,インディ,0
1817,7290003016693,新規,0,2025-04-22,2025-04-22,合同会社一ノ瀬塾,,合同会社,福岡県,福岡市博多区,博多駅前１丁目２３番２号ＰａｒｋＦｒｏｎｔ博多駅前１丁目５Ｆ－Ｂ,,40,132,8120011,,,,,,,2025-04-22,1,,,,,イチノセジュク,0
1819,7290801031472,新規,0,2025-04-22,2025-04-22,株式会社ベジポート,,株式会社,福岡県,北九州市小倉南区,貫弥生が丘２丁目１５番１３号,,40,107,8000234,,,,,,,2025-04-22,1,,,,,ベジポート,0
1822,7310001019571,新規,0,2025-04-22,2025-04-22,株式会社長崎エキスパートソリューションズ,,株式会社,長崎県,長崎市,大黒町１０番１０号ｋｏｋｏｒｏビル６１６２号室,,42,201,8500057,,,,,,,2025-04-22,1,,,,,ナガサキエキスパートソリューションズ,0
1826,7330001033117,新規,0,2025-04-22,2025-04-22,株式会社Ｉｎｖｅｓｔｏｒｓ,,株式会社,熊本県,熊本市中央区,水前寺公園７番４３号,,43,101,8620956,,,,,,,2025-04-22,1,,,,,インベスターズ,0
1828,7330003010964,新規,0,2025-04-22,2025-04-22,ＦａｒｍｉＱ合同会社,,合同会社,熊本県,阿蘇郡西原村,大字布田１０４０番地１号,,43,432,8612403,,,,,,,2025-04-22,1,,,,,ファーミック,0
1833,7360003014863,新規,0,2025-04-22,2025-04-22,合同会社ＳＨＩＳＨＡ　ＭＡＲＴ,,合同会社,沖縄県,沖縄市,上地４丁目１番２６号,,47,211,9040031,,,,,,,2025-04-22,1,,,,,シーシャマート,0
1836,7390001017964,新規,0,2025-04-22,2025-04-22,株式会社高信荷役,,株式会社,山形県,山形市,大字漆山２５７４番地１３,,06,201,9902161,,,,,,,2025-04-22,1,,,,,コウシンニヤク,0
1838,7400001017013,新規,0,2025-04-22,2025-04-22,株式会社ＪＧ,,株式会社,岩手県,盛岡市,中央通１丁目５番１０－５０３号,,03,201,0200021,,,,,,,2025-04-22,1,,,,,ジェイジー,0
1850,7430003017537,新規,0,2025-04-22,2025-04-22,合同会社ＲａＳｈｉＳａ,,合同会社,北海道,札幌市豊平区,月寒西三条１０丁目２番６０－１１３号,,01,105,0620023,,,,,,,2025-04-22,1,,,,,ラシサ,0
1858,7500001026251,新規,0,2025-04-22,2025-04-22,株式会社Ｕｎｂｒｅａｋａｂｌｅ　Ｆｌａｇｓ,,株式会社,愛媛県,今治市,中寺１０９８番地１ガーデンハイツひがきＥ棟２０２号,,38,202,7940840,,,,,,,2025-04-22,1,,,,,アンブレーカブルフラッグス,0
1872,8010001253935,新規,0,2025-04-22,2025-04-22,株式会社ｍｉｎｅｖａ,,株式会社,東京都,中央区,銀座１丁目２２番１１号銀座大竹ビジデンス２Ｆ,,13,102,1040061,,,,,,,2025-04-22,1,,,,,ミネバ,0
1873,8010001254371,新規,0,2025-04-22,2025-04-22,株式会社ＯＤＤ　Ｆｏｏｔ　Ｗｏｒｋｓ,,株式会社,東京都,中央区,日本橋蛎殻町２丁目１１番３号,,13,102,1030014,,,,,,,2025-04-22,1,,,,,オドフットワークス,0
1876,8010005039942,新規,0,2025-04-22,2025-04-22,一般社団法人日々の哲学,,その他の設立登記法人,東京都,中央区,銀座１丁目１２番４号Ｎ＆Ｅ・ＢＬＤ．６Ｆ,,13,102,1040061,,,,,,,2025-04-22,1,,,,,ヒビノテツガク,0
1879,8010105002338,新規,0,2025-04-22,2025-04-22,ＰＲＯＰＲＩＤＥ行政書士法人,,その他の設立登記法人,東京都,八王子市,子安町４丁目１５番１９号大久保ビル３０４号室,,13,201,1920904,,,,,,,2025-04-22,1,,,,,プロプライド,0
1887,8010401189812,新規,0,2025-04-22,2025-04-22,株式会社ライフスタイル,,株式会社,東京都,港区,北青山１丁目３番３号,,13,103,1070061,,,,,,,2025-04-22,1,,,,,ライフスタイル,0
1888,8010401189861,新規,0,2025-04-22,2025-04-22,ＷＡＶＥ　ＣＲＥＡＴＩＶＥ　ＳＴＵＤＩＯ株式会社,,株式会社,東京都,港区,虎ノ門４丁目１番１号神谷町トラストタワー２２階１１０号室,,13,103,1050001,,,,,,,2025-04-22,1,,,,,ウェーブクリエイティブスタジオ,0
1889,8010401189894,新規,0,2025-04-22,2025-04-22,ＧＣＪＧ５２株式会社,,株式会社,東京都,港区,元赤坂１丁目１番７－１２０９号株式会社赤坂国際会計内,,13,103,1070051,,,,,,,2025-04-22,1,,,,,ジーシージェイジーフィフティートゥー,0
1891,8010403034933,新規,0,2025-04-22,2025-04-22,合同会社ＰＵＰＵ,,合同会社,東京都,港区,北青山１丁目３番３号三橋ビル３階,,13,103,1070061,,,,,,,2025-04-22,1,,,,,ピーユーピーユー,0
1892,8010405024346,新規,0,2025-04-22,2025-04-22,一般社団法人Ｍｕｎ,,その他の設立登記法人,東京都,港区,虎ノ門１丁目１番１８号ヒューリック虎ノ門ビル９階Ｌ＆Ｐ司法書士法人内,,13,103,1050001,,,,,,,2025-04-22,1,,,,,ムーン,0
1900,8010605004445,新規,0,2025-04-22,2025-04-22,一般社団法人未来表現教育ラボ,,その他の設立登記法人,東京都,江東区,大島５丁目２１番９号フェリスタ大島１０２,,13,108,1360072,,,,,,,2025-04-22,1,,,,,ミライヒョウゲンキョウイクラボ,0
1909,8011001169031,新規,0,2025-04-22,2025-04-22,株式会社トリックオア,,株式会社,東京都,渋谷区,神南１丁目１１番４号ＦＰＧリンクス神南５階,,13,113,1500041,,,,,,,2025-04-22,1,,,,,トリックオア,0
1913,8011103015810,新規,0,2025-04-22,2025-04-22,合同会社Ｏ‐ＵＮＩＴＹ,,合同会社,東京都,新宿区,四谷三栄町１２番３号,,13,104,1600008,,,,,,,2025-04-22,1,,,,,オーユニティ,0
1916,8011301030529,新規,0,2025-04-22,2025-04-22,宇澤株式会社,,株式会社,東京都,杉並区,荻窪５丁目１７番１１号荻窪スカイレジテル４０３,,13,115,1670051,,,,,,,2025-04-22,1,,,,,ウザワ,0
1921,8011603004684,新規,0,2025-04-22,2025-04-22,桜花サービス合同会社,,合同会社,東京都,練馬区,西大泉１丁目３７番１３号第三光和Ｂ－５,,13,120,1780065,,,,,,,2025-04-22,1,,,,,オウカサービス,0
1922,8011703004213,新規,0,2025-04-22,2025-04-22,合同会社７‐Ｎｏｔｅ,,合同会社,東京都,江戸川区,一之江８丁目４番１４―１２０１号,,13,123,1320024,,,,,,,2025-04-22,1,,,,,セブンノート,0
1929,8012401043024,新規,0,2025-04-22,2025-04-22,株式会社ＩＮＵ,,株式会社,東京都,府中市,四谷５丁目４１―２０ＧＣＲ東京ウエスト３０３,,13,206,1830035,,,,,,,2025-04-22,1,,,,,イヌ,0
1936,8012801023914,新規,0,2025-04-22,2025-04-22,株式会社隆喜,,株式会社,東京都,立川市,錦町２丁目５番５号,,13,202,1900022,,,,,,,2025-04-22,1,,,,,リュウキ,0
1937,8012801023922,新規,0,2025-04-22,2025-04-22,株式会社クロスオーバーコンサルティング,,株式会社,東京都,国分寺市,南町３丁目２６番２４号,,13,214,1850021,,,,,,,2025-04-22,1,,,,,クロスオーバーコンサルティング,0
1945,8020001162524,新規,0,2025-04-22,2025-04-22,Ｋ．Ｔ．Ｐａｒｔｎｅｒｓ株式会社,,株式会社,神奈川県,横浜市中区,元町３丁目１１６番地,,14,104,2310861,,,,,,,2025-04-22,1,,,,,ケーティーパートナーズ,0
1946,8020001162532,新規,0,2025-04-22,2025-04-22,梛株式会社,,株式会社,神奈川県,横浜市磯子区,森１丁目５番２１－１０２０号,,14,107,2350023,,,,,,,2025-04-22,1,,,,,ナギ,0
1949,8020003028335,新規,0,2025-04-22,2025-04-22,合同会社ＲＡＩＴＯ,,合同会社,神奈川県,川崎市中原区,木月大町７番２６－２０６号元住吉パークホームズ弐番館,,14,133,2110031,,,,,,,2025-04-22,1,,,,,ライト,0
1952,8021001085021,新規,0,2025-04-22,2025-04-22,ハッピーポスト株式会社,,株式会社,神奈川県,大和市,西鶴間４丁目１番１５号ヒルズ鶴間１０６,,14,213,2420005,,,,,,,2025-04-22,1,,,,,ハッピーポスト,0
1963,8030001166094,新規,0,2025-04-22,2025-04-22,株式会社泰豊,,株式会社,埼玉県,朝霞市,宮戸３丁目１５－３５－２０２,,11,227,3510031,,,,,,,2025-04-22,1,,,,,タイホウ,0
1964,8030001166103,新規,0,2025-04-22,2025-04-22,ＬＨＳ株式会社,,株式会社,埼玉県,富士見市,針ケ谷２丁目１９番地１０センチュリーアネックス３０２,,11,235,3540017,,,,,,,2025-04-22,1,,,,,エルエイチエス,0
1965,8030001166152,新規,0,2025-04-22,2025-04-22,株式会社共和,,株式会社,埼玉県,八潮市,大字伊草３７７番地伊草団地１０号棟３０６,,11,234,3400806,,,,,,,2025-04-22,1,,,,,キョウワ,0
1966,8030001166160,新規,0,2025-04-22,2025-04-22,株式会社源喜,,株式会社,埼玉県,春日部市,樋堀２７１－１,,11,214,3440005,,,,,,,2025-04-22,1,,,,,ゲンキ,0
1967,8030001166185,新規,0,2025-04-22,2025-04-22,株式会社ＫＩＳ,,株式会社,埼玉県,所沢市,星の宮１丁目８番１１カーサプルメリア３０３,,11,208,3591127,,,,,,,2025-04-22,1,,,,,ケイズ,0
1971,8030003026619,新規,0,2025-04-22,2025-04-22,合同会社みのりの樹,,合同会社,埼玉県,川口市,芝新町４番８号ＵＲＢＡＮＦＯＲＵＭ蕨５Ｆ,,11,203,3330851,,,,,,,2025-04-22,1,,,,,ミノリノキ,0
1975,8040001138407,新規,0,2025-04-22,2025-04-22,エフイーコンサルティング株式会社,,株式会社,千葉県,市川市,東菅野１丁目９－５,,12,203,2720823,,,,,,,2025-04-22,1,,,,,エフイーコンサルティング,0
1976,8040001138423,新規,0,2025-04-22,2025-04-22,株式会社ポプリマシナリー,,株式会社,千葉県,浦安市,明海３丁目２番５－４０４号海園の街,,12,227,2790014,,,,,,,2025-04-22,1,,,,,ポプリマシナリー,0
1982,8050001056566,新規,0,2025-04-22,2025-04-22,株式会社ＰＯＲＴＡＬ,,株式会社,茨城県,水戸市,河和田町１８５番地４,,08,201,3114153,,,,,,,2025-04-22,1,,,,,ポータル,0
1985,8060001038134,新規,0,2025-04-22,2025-04-22,株式会社ＨＡＴＡＫＥＹＡＭＡ,,株式会社,栃木県,足利市,板倉町３４１－３,,09,202,3260102,,,,,,,2025-04-22,1,,,,,ハタケヤマ,0
1988,8070003005882,新規,0,2025-04-22,2025-04-22,Ｍ４ＴＲＡＤＩＮＧ合同会社,,合同会社,群馬県,高崎市,下滝町６番地９・２０１号室,,10,202,3700026,,,,,,,2025-04-22,1,,,,,エムフォートレーディング,0
1990,8080001026888,新規,0,2025-04-22,2025-04-22,株式会社晴耕雨讀,,株式会社,静岡県,静岡市葵区,古庄３丁目２３－８,,22,101,4200812,,,,,,,2025-04-22,1,,,,,セイコウウドク,0
1992,8080401027874,新規,0,2025-04-22,2025-04-22,一番農業株式会社,,株式会社,静岡県,浜松市中央区,鍛冶町１００－１ザザシティ浜松中央館Ｂ１Ｆ,,22,138,4300933,,,,,,,2025-04-22,1,,,,,イチバンノウギョウ,0
1996,8090001019230,新規,0,2025-04-22,2025-04-22,株式会社０１,,株式会社,山梨県,甲府市,朝気１丁目５番２４号１Ｆ,,19,201,4000862,,,,,,,2025-04-22,1,,,,,ゼロワン,0
1998,8100001038534,新規,0,2025-04-22,2025-04-22,株式会社ＨａｂｉＬｉｆｅ,,株式会社,長野県,松本市,平田東１丁目２９番８号クリエ平田１０５号,,20,202,3990014,,,,,,,2025-04-22,1,,,,,ハビライフ,0
2005,8110001039201,新規,0,2025-04-22,2025-04-22,株式会社石井電設,,株式会社,新潟県,新潟市北区,川西４丁目１番地３,,15,101,9503341,,,,,,,2025-04-22,1,,,,,イシイデンセツ,0
2013,8120001274763,新規,0,2025-04-22,2025-04-22,ベジキングインターナショナル株式会社,,株式会社,大阪府,大阪市浪速区,難波中３丁目５番１７号ＦＯＲＹＯＵなんばビル４階,,27,111,5560011,,,,,,,2025-04-22,1,,,,,ベジキングインターナショナル,0
2014,8120003029042,新規,0,2025-04-22,2025-04-22,合同会社みむホーム,,合同会社,大阪府,大阪市中央区,谷町１丁目３－１１－４０１,,27,128,5400012,,,,,,,2025-04-22,1,,,,,ミムホーム,0
2015,8120003029182,新規,0,2025-04-22,2025-04-22,美来アクシス合同会社,,合同会社,大阪府,寝屋川市,打上高塚町１－３－１２３１,,27,215,5720850,,,,,,,2025-04-22,1,,,,,ミライアクシス,0
2028,8130001079492,新規,0,2025-04-22,2025-04-22,青空文化株式会社,,株式会社,京都府,京都市中京区,壬生土居ノ内町３９－１センチュリー２１、２０４号室,,26,104,6048842,,,,,,,2025-04-22,1,,,,,アオゾラブンカ,0
2035,8140001138297,新規,0,2025-04-22,2025-04-22,株式会社ＭＦＤ,,株式会社,兵庫県,明石市,大明石町１丁目６番１３号津田ビル１０１号,,28,203,6730891,,,,,,,2025-04-22,1,,,,,エムエフデイ,0
2047,8180001166476,新規,0,2025-04-22,2025-04-22,彩葉Ｄｅｓｉｇｎ株式会社,,株式会社,愛知県,名古屋市中川区,丸米町２丁目５番地,,23,110,4540834,,,,,,,2025-04-22,1,,,,,イロハデザイン,0
2048,8180001166484,新規,0,2025-04-22,2025-04-22,株式会社風雅ＡＩ,,株式会社,愛知県,名古屋市昭和区,鶴舞１丁目２番３２号,,23,107,4660064,,,,,,,2025-04-22,1,,,,,フウガエーアイ,0
2049,8180001166492,新規,0,2025-04-22,2025-04-22,株式会社あん,,株式会社,愛知県,名古屋市中川区,西中島１丁目２０８番地,,23,110,4540934,,,,,,,2025-04-22,1,,,,,アン,0
2050,8180001166526,新規,0,2025-04-22,2025-04-22,株式会社Ｂｏｎｄ‐ｉ,,株式会社,愛知県,春日井市,森山田町１０番地２,,23,206,4860935,,,,,,,2025-04-22,1,,,,,ボンドアイ,0
2054,8180003028352,新規,0,2025-04-22,2025-04-22,チャーム合同会社,,合同会社,愛知県,愛西市,西條町二町田４２番地１,,23,232,4960913,,,,,,,2025-04-22,1,,,,,チャーム,0
2055,8180003028369,新規,0,2025-04-22,2025-04-22,合同会社ＡＴＥＬＩＥＲ　ＬＩＦＥ,,合同会社,愛知県,一宮市,栄１丁目１番２５号ライオンズ一宮栄１２０３号,,23,203,4910858,,,,,,,2025-04-22,1,,,,,アトリエライフ,0
2056,8180003028377,新規,0,2025-04-22,2025-04-22,合同会社越,,合同会社,愛知県,名古屋市中村区,名駅３丁目４－１０アルティメイト名駅１ｓｔ２階,,23,105,4500002,,,,,,,2025-04-22,1,,,,,エツ,0
2059,8180005021074,新規,0,2025-04-22,2025-04-22,一般社団法人あいち音楽文化支援協議会,,その他の設立登記法人,愛知県,名古屋市中川区,八田町１９０２番地,,23,110,4540877,,,,,,,2025-04-22,1,,,,,アイチオンガクブンカシエンキョウギカイ,0
2060,8180303006537,新規,0,2025-04-22,2025-04-22,合同会社タクマ電工,,合同会社,愛知県,岡崎市,石神町６番地１アトリオ石神１０２,,23,202,4440079,,,,,,,2025-04-22,1,,,,,タクマデンコウ,0
2063,8210001020142,新規,0,2025-04-22,2025-04-22,株式会社ウラセマネジメント,,株式会社,福井県,鯖江市,神中町２丁目７番４０号,,18,207,9160016,,,,,,,2025-04-22,1,,,,,ウラセマネジメント,0
2067,8230003002418,新規,0,2025-04-22,2025-04-22,杜ノ山合同会社,,合同会社,富山県,富山市,寺町９８９番地５,,16,201,9300874,,,,,,,2025-04-22,1,,,,,モリノヤマ,0
2072,8240001064839,新規,0,2025-04-22,2025-04-22,株式会社ネクスト・アドバイザリー,,株式会社,広島県,広島市中区,西白島町２２番５８－５１１号,,34,101,7300005,,,,,,,2025-04-22,1,,,,,ネクストアドバイザリー,0
2073,8240001064847,新規,0,2025-04-22,2025-04-22,株式会社ＥＣＯ‐ＲＥ,,株式会社,広島県,廿日市市,下平良３８３－２タウンリバティーＳＹＢ棟１Ｆ,,34,213,7380023,,,,,,,2025-04-22,1,,,,,エコーレ,0
2085,8290001109746,新規,0,2025-04-22,2025-04-22,サンク株式会社,,株式会社,福岡県,福岡市城南区,梅林１丁目１０番４号,,40,136,8140144,,,,,,,2025-04-22,1,,,,,,0
2086,8290001109754,新規,0,2025-04-22,2025-04-22,株式会社ｉｎｆｉｎｉｔｙ,,株式会社,福岡県,福岡市東区,香椎照葉６丁目２番５２号,,40,131,8130017,,,,,,,2025-04-22,1,,,,,インフィニティ,0
2087,8290001109770,新規,0,2025-04-22,2025-04-22,株式会社ＯＲＥＣＯ,,株式会社,福岡県,福岡市中央区,薬院３丁目１６番２６号西鉄薬院ビル５階,,40,133,8100022,,,,,,,2025-04-22,1,,,,,オレコ,0
2093,8290801031463,新規,0,2025-04-22,2025-04-22,株式会社藤田橋梁,,株式会社,福岡県,北九州市若松区,高須西１丁目１７番１４－１号,,40,103,8080146,,,,,,,2025-04-22,1,,,,,フジタキョウリョウ,0
2099,8330001033116,新規,0,2025-04-22,2025-04-22,わさつく株式会社,,株式会社,熊本県,熊本市北区,龍田６丁目１２番８２号,,43,105,8618006,,,,,,,2025-04-22,1,,,,,ワサツク,0
2100,8330001033124,新規,0,2025-04-22,2025-04-22,株式会社幻蒼舎,,株式会社,熊本県,阿蘇郡南小国町,大字満願寺７７８１－２,,43,423,8692402,,,,,,,2025-04-22,1,,,,,ゲンソウシャ,0
2102,8330005010904,新規,0,2025-04-22,2025-04-22,医療法人こくぶ内科・胃腸内科,,その他の設立登記法人,熊本県,熊本市中央区,国府本町８番５号,,43,101,8620948,,,,,,,2025-04-22,1,,,,,コクブナイカイチョウナイカ,0
2105,8360001035084,新規,0,2025-04-22,2025-04-22,株式会社徳宮,,株式会社,沖縄県,中頭郡北谷町,字吉原１１９１番地６,,47,326,9040105,,,,,,,2025-04-22,1,,,,,トクミヤ,0
2111,8360005007220,新規,0,2025-04-22,2025-04-22,医療法人Ｙ,,その他の設立登記法人,沖縄県,那覇市,天久１丁目２７番２７号新都心エクリＢＬＤＧ３０１号室,,47,201,9000005,,,,,,,2025-04-22,1,,,,,ワイ,0
2113,8370001052483,新規,0,2025-04-22,2025-04-22,株式会社なないろ興業,,株式会社,宮城県,仙台市若林区,なないろの里２丁目１７番地の１２,,04,103,9840017,,,,,,,2025-04-22,1,,,,,ナナイロコウギョウ,0
2114,8370001052500,新規,0,2025-04-22,2025-04-22,ハーモニーケア株式会社,,株式会社,宮城県,黒川郡大和町,しあわせの杜２３番地の１,,04,421,9813620,,,,,,,2025-04-22,1,,,,,ハーモニーケア,0
2119,8390001017963,新規,0,2025-04-22,2025-04-22,株式会社ベストアース,,株式会社,山形県,酒田市,浜中字下村５７０番地の９５,,06,204,9980112,,,,,,,2025-04-22,1,,,,,ベストアース,0
2121,8400001017012,新規,0,2025-04-22,2025-04-22,株式会社信,,株式会社,岩手県,紫波郡紫波町,二日町字大橋５０番地９,,03,321,0283304,,,,,,,2025-04-22,1,,,,,シン,0
2123,8410001014140,新規,0,2025-04-22,2025-04-22,株式会社Ｐｏｌａｒｉｓ,,株式会社,秋田県,秋田市,土崎港北１丁目６番３３号,,05,201,0110941,,,,,,,2025-04-22,1,,,,,ポラリス,0
2125,8410005006638,新規,0,2025-04-22,2025-04-22,一般社団法人ささえの会,,その他の設立登記法人,秋田県,横手市,平鹿町醍醐字道中５６番地２,,05,203,0130102,,,,,,,2025-04-22,1,,,,,,0
2130,8430001094180,新規,0,2025-04-22,2025-04-22,ヤマショウ石田商店株式会社,,株式会社,北海道,札幌市北区,北七条西６丁目１番地１チュリス札幌第２－１００１号,,01,102,0600807,,,,,,,2025-04-22,1,,,,,ヤマショウイシダショウテン,0
2131,8430001094197,新規,0,2025-04-22,2025-04-22,株式会社ささの運送ＨＤ,,株式会社,北海道,札幌市清田区,平岡四条２丁目２番１０－３０５号,,01,110,0040874,,,,,,,2025-04-22,1,,,,,ササノウンソウエイチディー,0
2132,8430001094255,新規,0,2025-04-22,2025-04-22,株式会社北の町から,,株式会社,北海道,札幌市中央区,大通西２５丁目４番８号,,01,101,0640820,,,,,,,2025-04-22,1,,,,,キタノマチカラ,0
2134,8440001009600,新規,0,2025-04-22,2025-04-22,株式会社昊陽,,株式会社,北海道,函館市,末広町１８－３マンション函館９０１,,01,202,0400053,,,,,,,2025-04-22,1,,,,,コウヨウ,0
2135,8460005001592,新規,0,2025-04-22,2025-04-22,一般社団法人道東トレイルクラブ,,その他の設立登記法人,北海道,川上郡弟子屈町,美里２丁目１１番１号,,01,665,0883215,,,,,,,2025-04-22,1,,,,,,0
2146,9010001254354,新規,0,2025-04-22,2025-04-22,夏和産業株式会社,,株式会社,東京都,千代田区,神田須田町２丁目１５－３－２０３,,13,101,1010041,,,,,,,2025-04-22,1,,,,,ナツワサンギョウ,0
2147,9010001254379,新規,0,2025-04-22,2025-04-22,株式会社ファニーダイア,,株式会社,東京都,文京区,千石３丁目３番２－４０１号,,13,105,1120011,,,,,,,2025-04-22,1,,,,,ファニーダイア,0
2150,9010003047137,新規,0,2025-04-22,2025-04-22,合同会社ＳＨＯＧＵＮ,,合同会社,東京都,文京区,本駒込２丁目８－３,,13,105,1130021,,,,,,,2025-04-22,1,,,,,ショウグン,0
2165,9010401189704,新規,0,2025-04-22,2025-04-22,ＥＵＲＯＴＡＳＴＥ株式会社,,株式会社,東京都,港区,三丁目４－１８ＶＯＲＴ麻布十番５Ｆ,,13,103,1050000,,,,,,,2025-04-22,1,,,,,ユーロテイスト,0
2166,9010401189828,新規,0,2025-04-22,2025-04-22,株式会社ＴＯＫＹＯ　ＥＹＥ　ＳＥＣＵＲＩＴＹ,,株式会社,東京都,港区,港南２丁目１０番２３－１００１号,,13,103,1080075,,,,,,,2025-04-22,1,,,,,トウキョウアイセキュリティ,0
2168,9010403034924,新規,0,2025-04-22,2025-04-22,ＥＬＥＣＱＵＥＳＴ合同会社,,合同会社,東京都,港区,芝浦３丁目３番６号,,13,103,1080023,,,,,,,2025-04-22,1,,,,,エレクエスト,0
2173,9010601067197,新規,0,2025-04-22,2025-04-22,株式会社ファミリースマイルライフ,,株式会社,東京都,江東区,白河３丁目１番７号,,13,108,1350021,,,,,,,2025-04-22,1,,,,,ファミリースマイルライフ,0
2178,9010701047578,新規,0,2025-04-22,2025-04-22,株式会社有福,,株式会社,東京都,品川区,上大崎２丁目２４－１１朝日西口マンション１Ｆ,,13,109,1410021,,,,,,,2025-04-22,1,,,,,ユウフク,0
2182,9010901057220,新規,0,2025-04-22,2025-04-22,株式会社ｋｏｍｏｒｅｂｉ,,株式会社,東京都,世田谷区,池尻２丁目３７番１２号スカイビュー２４６・３０１号,,13,112,1540001,,,,,,,2025-04-22,1,,,,,コモレビ,0
2186,9011001017164,新規,0,2025-04-22,2025-04-22,株式会社ニツセイ東京,,株式会社,東京都,渋谷区,渋谷２丁目９番１０号,,13,113,1500002,,,,,,,2025-04-22,1,,,,,ニッセイトウキョウ,0
2196,9011001169030,新規,0,2025-04-22,2025-04-22,ＳｃｏｒｅＬｏｇ株式会社,,株式会社,東京都,渋谷区,道玄坂１丁目１０番８号渋谷道玄坂東急ビル２Ｆ－Ｃ,,13,113,1500043,,,,,,,2025-04-22,1,,,,,スコアログ,0
2197,9011001169055,新規,0,2025-04-22,2025-04-22,Ｒｕｌｉｎｇ株式会社,,株式会社,東京都,渋谷区,道玄坂１丁目１０番８号渋谷道玄坂東急ビル２Ｆ－Ｃ,,13,113,1500043,,,,,,,2025-04-22,1,,,,,ルーリング,0
2202,9011101111486,新規,0,2025-04-22,2025-04-22,株式会社ブレイクアウト,,株式会社,東京都,新宿区,西新宿５丁目５番１－５５０１号,,13,104,1600023,,,,,,,2025-04-22,1,,,,,ブレイクアウト,0
2212,9011501031986,新規,0,2025-04-22,2025-04-22,株式会社本元,,株式会社,東京都,荒川区,町屋３丁目２４番２号面川ビル３２０号室,,13,118,1160001,,,,,,,2025-04-22,1,,,,,ホンゲン,0
2215,9011703004212,新規,0,2025-04-22,2025-04-22,合同会社ＢＲＩＧＨＴＥＮ　ＵＰ,,合同会社,東京都,江戸川区,南葛西３丁目２４番２４－５０１,,13,123,1340085,,,,,,,2025-04-22,1,,,,,ブライテンアップ,0
2219,9011801046008,新規,0,2025-04-22,2025-04-22,Ｋ．Ｌ株式会社,,株式会社,東京都,葛飾区,東新小岩２丁目１４番３号,,13,122,1240023,,,,,,,2025-04-22,1,,,,,ケーエル,0
2232,9020001162523,新規,0,2025-04-22,2025-04-22,ＨＡＫＵＢＡキャリア株式会社,,株式会社,神奈川県,横浜市中区,石川町１丁目１３－２,,14,104,2310868,,,,,,,2025-04-22,1,,,,,ハクバキャリア,0
2234,9020003028350,新規,0,2025-04-22,2025-04-22,合同会社Ｃｒａｆｔｉｖｅ,,合同会社,神奈川県,横浜市神奈川区,金港町５―１４クアドリフォリオ８階,,14,102,2210056,,,,,,,2025-04-22,1,,,,,クラフティブ,0
2244,9021005013349,新規,0,2025-04-22,2025-04-22,宗教法人湘南のぞみキリスト教会,,その他の設立登記法人,神奈川県,鎌倉市,岡本１丁目１２番１号,,14,204,2470072,,,,,,,2025-04-22,1,,,,,ショウナンノゾミキリストキョウカイ,0
2251,9030001166119,新規,0,2025-04-22,2025-04-22,株式会社アシスト,,株式会社,埼玉県,川口市,芝５丁目１番１７号第一堀代マンション３０３,,11,203,3330866,,,,,,,2025-04-22,1,,,,,アシスト,0
2261,9050001056557,新規,0,2025-04-22,2025-04-22,株式会社創心,,株式会社,茨城県,土浦市,烏山１丁目３９３番地６９,,08,203,3000836,,,,,,,2025-04-22,1,,,,,ソウシン,0
2264,9060001038133,新規,0,2025-04-22,2025-04-22,八幡山オアシスリゾートパーク株式会社,,株式会社,栃木県,宇都宮市,大曽４丁目１０番１９号,,09,201,3200014,,,,,,,2025-04-22,1,,,,,ハチマンヤマオアシスリゾートパーク,0
2279,9100001038533,新規,0,2025-04-22,2025-04-22,株式会社ニューカルイザワ,,株式会社,長野県,北佐久郡軽井沢町,大字長倉３２１４番地２４,,20,321,3890111,,,,,,,2025-04-22,1,,,,,ニューカルイザワ,0
2281,9100003008105,新規,0,2025-04-22,2025-04-22,合同会社西山石油,,合同会社,長野県,長野市,三輪１０丁目２番２０号,,20,201,3800803,,,,,,,2025-04-22,1,,,,,ニシヤマセキユ,0
2284,9110003005737,新規,0,2025-04-22,2025-04-22,合同会社ＷＡＤＡ畑,,合同会社,新潟県,長岡市,青葉台５丁目２２番地３,,15,202,9402145,,,,,,,2025-04-22,1,,,,,ワダバタケ,0
2292,9120001274713,新規,0,2025-04-22,2025-04-22,株式会社Ｈ＆ＭＩ,,株式会社,大阪府,枚方市,楠葉野田１丁目３４番１０号,,27,210,5731103,,,,,,,2025-04-22,1,,,,,エイチアンドエムアイ,0
2293,9120001275182,新規,0,2025-04-22,2025-04-22,株式会社ダイアナホールディングス,,株式会社,大阪府,大阪市中央区,南本町１丁目３番１５号ボンベイビル２０２号室,,27,128,5410054,,,,,,,2025-04-22,1,,,,,ダイアナホールディングス,0
2294,9120001275208,新規,0,2025-04-22,2025-04-22,栄和鉄工株式会社,,株式会社,大阪府,大阪市平野区,長吉川辺２丁目１番１３号２０１,,27,126,5470014,,,,,,,2025-04-22,1,,,,,エイワテッコウ,0
2302,9120003029132,新規,0,2025-04-22,2025-04-22,ｃｈａｎｇｅ＆ｂａｓｅ合同会社,,合同会社,大阪府,大阪市淀川区,十三東１丁目３番１７号４０３号室,,27,123,5320023,,,,,,,2025-04-22,1,,,,,チェンジアンドベース,0
2303,9120003029173,新規,0,2025-04-22,2025-04-22,合同会社Ｈｉｂｉ,,合同会社,大阪府,大阪市北区,茶屋町１０番１２ＮＵ茶屋町４Ｆゴートゥデイシェアサロン,,27,127,5300013,,,,,,,2025-04-22,1,,,,,ヒビ,0
2304,9120003029181,新規,0,2025-04-22,2025-04-22,合同会社アドバンスデジタル,,合同会社,大阪府,大阪市東淀川区,西淡路５丁目１番１号コミューズ新大阪,,27,114,5330031,,,,,,,2025-04-22,1,,,,,アドバンスデジタル,0
2312,9122003003174,新規,0,2025-04-22,2025-04-22,美素合同会社,,合同会社,大阪府,東大阪市,水走１丁目３－４５、３０３室,,27,227,5780921,,,,,,,2025-04-22,1,,,,,ビソ,0
2315,9130001079483,新規,0,2025-04-22,2025-04-22,株式会社Ｐｏｏｋｉｅ,,株式会社,京都府,京都市伏見区,久我西出町１４番地１ディオ・フェルティ京都久我６０４号,,26,109,6128496,,,,,,,2025-04-22,1,,,,,プーキー,0
2327,9140003021896,新規,0,2025-04-22,2025-04-22,合同会社國脇花月,,合同会社,兵庫県,伊丹市,稲野町６丁目７２－１田中マンション４０１,,28,207,6640861,,,,,,,2025-04-22,1,,,,,クニワキカゲツ,0
2328,9140003021954,新規,0,2025-04-22,2025-04-22,合同会社ムグンファ,,合同会社,兵庫県,伊丹市,野間北４丁目４番２３号,,28,207,6640875,,,,,,,2025-04-22,1,,,,,ムグンファ,0
2329,9140003021979,新規,0,2025-04-22,2025-04-22,合同会社荒小,,合同会社,兵庫県,加古川市,西神吉町大国６７０番地の１７,,28,210,6750044,,,,,,,2025-04-22,1,,,,,コウコ,0
2343,9180001166426,新規,0,2025-04-22,2025-04-22,株式会社ＫＴＴ,,株式会社,愛知県,春日井市,上野町３丁目３番地１３,,23,206,4800306,,,,,,,2025-04-22,1,,,,,ケーティーティー,0
2344,9180001166459,新規,0,2025-04-22,2025-04-22,株式会社ｗａｎｎｙ,,株式会社,愛知県,一宮市,両郷町１丁目１５番地１‐９０１号,,23,203,4910022,,,,,,,2025-04-22,1,,,,,ワニー,0
2345,9180001166483,新規,0,2025-04-22,2025-04-22,株式会社ＳＤＫ,,株式会社,愛知県,半田市,横川町１丁目１９番地の２,,23,205,4750005,,,,,,,2025-04-22,1,,,,,エスディーケー,0
2346,9180001166491,新規,0,2025-04-22,2025-04-22,宇澤国際株式会社,,株式会社,愛知県,名古屋市港区,明正２丁目２７９番地エシール明正２０１号,,23,111,4550806,,,,,,,2025-04-22,1,,,,,ウザワコクサイ,0
2354,9180005021073,新規,0,2025-04-22,2025-04-22,社会保険労務士法人北見事務所,,その他の設立登記法人,愛知県,名古屋市西区,市場木町４７３番地,,23,104,4520805,,,,,,,2025-04-22,1,,,,,キタミジムショ,0
2363,9190003005003,新規,0,2025-04-22,2025-04-22,龍星商事合同会社,,合同会社,三重県,四日市市,久保田２丁目１１－２－２,,24,202,5100821,,,,,,,2025-04-22,1,,,,,リュウセイショウジ,0
2364,9210001020141,新規,0,2025-04-22,2025-04-22,株式会社Ｒｕｔｏｃｏ,,株式会社,福井県,敦賀市,相生町１６番５,,18,202,9140062,,,,,,,2025-04-22,1,,,,,ルトコ,0
2366,9220001026633,新規,0,2025-04-22,2025-04-22,Ｎｉｋｋｅｉ株式会社,,株式会社,石川県,小松市,日の出町３丁目１２１番地１,,17,203,9230868,,,,,,,2025-04-22,1,,,,,ニッケイ,0
2367,9230001020858,新規,0,2025-04-22,2025-04-22,株式会社ＰＵＬＥＡ,,株式会社,富山県,高岡市,三女子３７番地１,,16,202,9330013,,,,,,,2025-04-22,1,,,,,プレア,0
2369,9240001064821,新規,0,2025-04-22,2025-04-22,株式会社クリーベックス,,株式会社,広島県,東広島市,八本松南７丁目１１－１０,,34,212,7390144,,,,,,,2025-04-22,1,,,,,クリーベックス,0
2371,9240003007159,新規,0,2025-04-22,2025-04-22,合同会社リード商事,,合同会社,広島県,福山市,新市町新市４３４番地５ＴＺ住宅３０８,,34,207,7210000,,,,,,,2025-04-22,1,,,,,リードショウジ,0
2384,9290001109737,新規,0,2025-04-22,2025-04-22,株式会社観光社,,株式会社,福岡県,福岡市西区,太郎丸２丁目４番４,,40,135,8190384,,,,,,,2025-04-22,1,,,,,,0
2385,9290001109761,新規,0,2025-04-22,2025-04-22,株式会社多彬,,株式会社,福岡県,福岡市博多区,東那珂１丁目１５番５－１００７号,00138856,40,132,8120892,,,,,,,2025-04-22,1,,,,,タビン,0
2389,9290003016709,新規,0,2025-04-22,2025-04-22,合同会社ＳＴＡＲ８８,,合同会社,福岡県,糸島市,荻浦５丁目７番１号（２０１）,,40,230,8191121,,,,,,,2025-04-22,1,,,,,スターツーエイト,0
2390,9290801031470,新規,0,2025-04-22,2025-04-22,株式会社ＭＡＲＴＥＣ,,株式会社,福岡県,行橋市,行事７丁目２３番４９号,,40,213,8240001,,,,,,,2025-04-22,1,,,,,マーテック,0
2391,9300003002269,新規,0,2025-04-22,2025-04-22,オレンジトレードジャパン合同会社,,合同会社,佐賀県,伊万里市,二里町大里乙３６２４番地１,,41,205,8480035,,,,,,,2025-04-22,1,,,,,オレンジトレードジャパン,0
2394,9330001033123,新規,0,2025-04-22,2025-04-22,株式会社マース・ミート,,株式会社,熊本県,上益城郡益城町,大字宮園７８８番地,,43,443,8612241,,,,,,,2025-04-22,1,,,,,マースミート,0
2399,9360001035083,新規,0,2025-04-22,2025-04-22,株式会社カヌーチ,,株式会社,沖縄県,石垣市,字白保２０８３－４,,47,207,9070242,,,,,,,2025-04-22,1,,,,,カヌーチ,0
2405,9370001052499,新規,0,2025-04-22,2025-04-22,株式会社Ｓ‐ｕｐ,,株式会社,宮城県,東松島市,牛網字駅前二丁目３１番地２０,,04,214,9810301,,,,,,,2025-04-22,1,,,,,サップ,0
2406,9380001035263,新規,0,2025-04-22,2025-04-22,株式会社ＴＭ工業,,株式会社,福島県,郡山市,大槻町字原ノ町８番地の３,,07,203,9630201,,,,,,,2025-04-22,1,,,,,,0
2416,9430001094238,新規,0,2025-04-22,2025-04-22,株式会社ｅｔｏｒａ,,株式会社,北海道,札幌市中央区,南一条西２０丁目１番２８号,,01,101,0640801,,,,,,,2025-04-22,1,,,,,エトラ,0
2423,9500001026258,新規,0,2025-04-22,2025-04-22,株式会社ＭＥＬＭＯＩＳ,,株式会社,愛媛県,松山市,東石井６丁目１２番３２号宮内ビル１階,,38,201,7900932,,,,,,,2025-04-22,1,,,,,メルモワ,0
