sequenceNumber,corporateNumber,process,correct,updateDate,changeDate,name,nameImageId,kind,prefectureName,cityName,streetNumber,addressImageId,prefectureCode,cityCode,postCode,addressOutside,addressOutsideImageId,closeDate,closeCause,successorCorporateNumber,changeCause,assignmentDate,latest,enName,enPrefectureName,enCityName,enAddressOutside,furigana,hihyoji
12,1010001230180,新規,0,2022-10-19,2022-10-19,イースター株式会社,,株式会社,東京都,中央区,銀座７丁目１３番２１号銀座ｓｉｎｒｏｋｕｓｙｕビル２階,,13,102,1040061,,,,,,,2022-10-19,1,,,,,イースター,0
15,1010003038886,新規,0,2022-10-19,2022-10-19,花崎ＰＪＰ合同会社,,合同会社,東京都,文京区,本郷１丁目２２番３号,,13,105,1130033,,,,,,,2022-10-19,1,,,,,,0
26,1010401170316,新規,0,2022-10-19,2022-10-19,クラウドサービステック株式会社,,株式会社,東京都,港区,浜松町２丁目２番１５号浜松町ダイヤビル２階,,13,103,1050013,,,,,,,2022-10-19,1,,,,,クラウドサービステック,0
33,1010405021449,新規,0,2022-10-19,2022-10-19,ＭＦＴＪＰＮ２特定目的会社,,その他の設立登記法人,東京都,港区,虎ノ門３丁目２２番１０－２０１号,,13,103,1050001,,,,,,,2022-10-19,1,,,,,エムエフティージェイピーエヌツー,0
38,1010801033361,新規,0,2022-10-19,2022-10-19,株式会社３‐Ａｇｅ,,株式会社,東京都,大田区,田園調布３丁目２１番２０号ＲＥＳＩＤＥＮＣＥＫＯＮＯＨＡ１０２,,13,111,1450071,,,,,,,2022-10-19,1,,,,,スリーエイジ,0
42,1010901051759,新規,0,2022-10-19,2022-10-19,株式会社ラウンジクリエイトサービス,,株式会社,東京都,世田谷区,野沢４丁目２４番１号ヴィルヌーブタワー駒沢１１０１,,13,112,1540003,,,,,,,2022-10-19,1,,,,,ラウンジクリエイトサービス,0
62,1011001150393,新規,0,2022-10-19,2022-10-19,株式会社ｍｉｌｌｅ,,株式会社,東京都,目黒区,三田２丁目１０番１５号,,13,110,1530062,,,,,,,2022-10-19,1,,,,,ミレ,0
66,1011101100538,新規,0,2022-10-19,2022-10-19,株式会社ＭＵＳＥ,,株式会社,東京都,新宿区,高田馬場１丁目２６－１２高田馬場ビル２Ｆ,,13,104,1690075,,,,,,,2022-10-19,1,,,,,ミューズ,0
67,1011101100554,新規,0,2022-10-19,2022-10-19,株式会社ＬＥＧＥＮＤ,,株式会社,東京都,新宿区,西新宿７丁目４－７イマス浜田ビル３階Ｂ－７,,13,104,1600023,,,,,,,2022-10-19,1,,,,,レジェンド,0
68,1011103012277,新規,0,2022-10-19,2022-10-19,合同会社ＢＢ,,合同会社,東京都,新宿区,歌舞伎町２丁目２８番１号,,13,104,1600021,,,,,,,2022-10-19,1,,,,,ビービー,0
75,1011701025705,新規,0,2022-10-19,2022-10-19,株式会社オフラインエネルギー,,株式会社,東京都,江戸川区,東葛西７丁目４番１２－２０４号,,13,123,1340084,,,,,,,2022-10-19,1,,,,,オフラインエネルギー,0
78,1012301013158,新規,0,2022-10-19,2022-10-19,株式会社ＭＩＮＥ,,株式会社,東京都,町田市,南町田５丁目１４番１－１１１号,,13,209,1940005,,,,,,,2022-10-19,1,,,,,マイン,0
96,1020001148629,新規,0,2022-10-19,2022-10-19,株式会社ていねい屋さん,,株式会社,神奈川県,横浜市緑区,中山６丁目１２番２１号,,14,113,2260019,,,,,,,2022-10-19,1,,,,,テイネイヤサン,0
97,1020001148637,新規,0,2022-10-19,2022-10-19,株式会社セブンスクエア,,株式会社,神奈川県,川崎市麻生区,王禅寺西６丁目２１番１１号,,14,137,2150017,,,,,,,2022-10-19,1,,,,,セブンスクエア,0
113,1021003012269,新規,0,2022-10-19,2022-10-19,合同会社幸,,合同会社,神奈川県,座間市,西栗原２丁目１３－３５－２０１フォンテーヌシャトレ１,,14,216,2520016,,,,,,,2022-10-19,1,,,,,コウ,0
114,1030001150641,新規,0,2022-10-19,2022-10-19,ブルーウミ株式会社,,株式会社,埼玉県,川口市,本町３丁目３番１３－２０１号,,11,203,3320012,,,,,,,2022-10-19,1,,,,,ブルーウミ,0
122,1040001125477,新規,0,2022-10-19,2022-10-19,株式会社ＡＢコーポレーション,,株式会社,千葉県,木更津市,清見台南１丁目１番１４号,,12,206,2920042,,,,,,,2022-10-19,1,,,,,エイビーコーポレーション,0
123,1040001125493,新規,0,2022-10-19,2022-10-19,オータムグループ株式会社,,株式会社,千葉県,鎌ケ谷市,丸山１丁目２番８号アマイモック鎌ケ谷１０１,,12,224,2730103,,,,,,,2022-10-19,1,,,,,オータムグループ,0
127,1040003021047,新規,0,2022-10-19,2022-10-19,Ｋｅｙ＆Ｃａｃｈｅ合同会社,,合同会社,千葉県,柏市,西原４丁目１６番地の１１第十パールメゾン蒲田１０２号,,12,217,2770885,,,,,,,2022-10-19,1,,,,,キーアンドキャッシュ,0
148,1100001035802,新規,0,2022-10-19,2022-10-19,株式会社ぶどうの宝石箱,,株式会社,長野県,須坂市,大字野辺６６４番地,,20,207,3820000,,,,,,,2022-10-19,1,,,,,ブドウノホウセキバコ,0
162,1120001249565,新規,0,2022-10-19,2022-10-19,ＴＭデザイン株式会社,,株式会社,大阪府,大阪市西区,千代崎２丁目１３番８号,,27,106,5500023,,,,,,,2022-10-19,1,,,,,ティエムデザイン,0
168,1120101066398,新規,0,2022-10-19,2022-10-19,株式会社ＵＳ電気,,株式会社,大阪府,堺市中区,陶器北７８番地１０,,27,142,5998242,,,,,,,2022-10-19,1,,,,,ユーエスデンキ,0
182,1130001072784,新規,0,2022-10-19,2022-10-19,株式会社夢咲ホールディングス,,株式会社,京都府,京都市南区,久世中久世町１丁目１０３番地,,26,107,6018213,,,,,,,2022-10-19,1,,,,,ユメサキホールディングス,0
183,1130001072842,新規,0,2022-10-19,2022-10-19,ＢＡＬＭＹ　ＪＡＰＡＮ株式会社,,株式会社,京都府,京都市北区,衣笠西馬場町４３番地,,26,101,6038366,,,,,,,2022-10-19,1,,,,,バルミージャパン,0
184,1130001072859,新規,0,2022-10-19,2022-10-19,コンティーヌエ株式会社,,株式会社,京都府,舞鶴市,大字森小字駒谷１０５番地３,,26,202,6250000,,,,,,,2022-10-19,1,,,,,コンティーヌエ,0
185,1130001072875,新規,0,2022-10-19,2022-10-19,毅＿商事株式会社,00128184,株式会社,京都府,宇治市,木幡御蔵山３９－１７６６,,26,204,6110002,,,,,,,2022-10-19,1,,,,,キシンショウジ,0
189,1140001127752,新規,0,2022-10-19,2022-10-19,株式会社ロードカッターヤナギ,,株式会社,兵庫県,三木市,志染町青山６丁目６番地の１５,,28,215,6730521,,,,,,,2022-10-19,1,,,,,ロードカッターヤナギ,0
213,1180001153431,新規,0,2022-10-19,2022-10-19,モンテッソーリフィオーレ株式会社,,株式会社,愛知県,北名古屋市,九之坪庚申前３６番地６,,23,234,4810041,,,,,,,2022-10-19,1,,,,,モンテッソーリフィオーレ,0
222,1200003005710,新規,0,2022-10-19,2022-10-19,ＬＣ．ＨＯＵＳＥ　Ｃｏｎｓｕｌｔｉｎｇ　Ｊａｐａｎ合同会社,,合同会社,岐阜県,可児市,久々利１番地２３２,,21,214,5090224,,,,,,,2022-10-19,1,,,,,エルシーハウスコンサルティングジャパン,0
230,1240001060522,新規,0,2022-10-19,2022-10-19,株式会社Ｒａｋｕ‐Ｐ,,株式会社,広島県,広島市中区,橋本町７番１４号,,34,101,7300015,,,,,,,2022-10-19,1,,,,,ラクピー,0
232,1250001019815,新規,0,2022-10-19,2022-10-19,株式会社めぶき,,株式会社,山口県,山口市,小郡大江町６番３３－５０７号,,35,203,7540015,,,,,,,2022-10-19,1,,,,,メブキ,0
236,1260001037329,新規,0,2022-10-19,2022-10-19,株式会社いろは,,株式会社,岡山県,岡山市南区,洲崎１丁目７－４１－３０２,,33,104,7028042,,,,,,,2022-10-19,1,,,,,イロハ,0
237,1260003004070,新規,0,2022-10-19,2022-10-19,セントビルド合同会社,,合同会社,岡山県,倉敷市,沖新町２５－８パレーシャル日下２０２号,,33,202,7100837,,,,,,,2022-10-19,1,,,,,セントビルド,0
241,1290001099275,新規,0,2022-10-19,2022-10-19,株式会社Ａｌｂａ,,株式会社,福岡県,糟屋郡志免町,志免中央１丁目１２番１号Ｆｅｌｉｚ・Ｆｕｊｉ　Ｂ棟１０３号,,40,343,8112244,,,,,,,2022-10-19,1,,,,,アルバ,0
244,1290003013085,新規,0,2022-10-19,2022-10-19,筑豊クラフト合同会社,,合同会社,福岡県,飯塚市,花瀬１０２－４０,,40,205,8200045,,,,,,,2022-10-19,1,,,,,チクホウクラフト,0
245,1290801028978,新規,0,2022-10-19,2022-10-19,株式会社Ｇ　ｍｉｎｄ,,株式会社,福岡県,北九州市小倉南区,舞ケ丘６丁目１２７０－１,,40,107,8020823,,,,,,,2022-10-19,1,,,,,ジーマインド,0
252,1350003004202,新規,0,2022-10-19,2022-10-19,合同会社プラスアルファー,,合同会社,宮崎県,宮崎市,大字芳士８５４番地１,,45,201,8800123,,,,,,,2022-10-19,1,,,,,プラスアルファー,0
253,1360003012393,新規,0,2022-10-19,2022-10-19,合同会社サンライフホーム,,合同会社,沖縄県,宮古島市,平良字狩俣７６６番地１,,47,214,9060002,,,,,,,2022-10-19,1,,,,,サンライフホーム,0
283,1470001019297,新規,0,2022-10-19,2022-10-19,株式会社アンビエントファーム,,株式会社,香川県,高松市,高松町１２８６番地７,,37,201,7610104,,,,,,,2022-10-19,1,,,,,アンビエントファーム,0
284,1470005006473,新規,0,2022-10-19,2022-10-19,特定非営利活動法人男木島観光協会,,その他の設立登記法人,香川県,高松市,男木町１９２５番地１,,37,201,7600091,,,,,,,2022-10-19,1,,,,,オギジマカンコウキョウカイ,0
313,2010405021448,新規,0,2022-10-19,2022-10-19,ＭＦＴＪＰＮ３特定目的会社,,その他の設立登記法人,東京都,港区,虎ノ門３丁目２２番１０－２０１号,,13,103,1050001,,,,,,,2022-10-19,1,,,,,エムエフティージェイピーエヌスリー,0
317,2010601062007,新規,0,2022-10-19,2022-10-19,株式会社Ｏｎｅ　Ｒｏａｄ,,株式会社,東京都,墨田区,江東橋２丁目１－９フェリーチェ錦糸町２０１,,13,107,1300022,,,,,,,2022-10-19,1,,,,,ワンロード,0
322,2010801033360,新規,0,2022-10-19,2022-10-19,羽田エアポートライン株式会社,,株式会社,東京都,大田区,田園調布１丁目５３番９号,,13,111,1450071,,,,,,,2022-10-19,1,,,,,ハネダエアポートライン,0
325,2010901051816,新規,0,2022-10-19,2022-10-19,株式会社ＢｉｚＭａｘ世田谷,,株式会社,東京都,世田谷区,南烏山５丁目２４番５号,,13,112,1570062,,,,,,,2022-10-19,1,,,,,ビズマックスセタガヤ,0
327,2010905004381,新規,0,2022-10-19,2022-10-19,特定非営利活動法人拉致問題映画海外上映実行委員会,,その他の設立登記法人,東京都,世田谷区,大原２丁目１７番６－４０９号,,13,112,1560041,,,,,,,2022-10-19,1,,,,,ラチモンダイエイガカイガイジョウエイジッコウイインカイ,0
336,2011001150401,新規,0,2022-10-19,2022-10-19,リージョナルインテグレーション株式会社,,株式会社,東京都,目黒区,目黒２丁目６番１４号Ｃｅｌｌｓ２０２,,13,110,1530063,,,,,,,2022-10-19,1,,,,,リージョナルインテグレーション,0
342,2011101100553,新規,0,2022-10-19,2022-10-19,株式会社ＰＲＯＳＰＥＲ,,株式会社,東京都,新宿区,西新宿３丁目３番１３号水間ビル６Ｆ,,13,104,1600023,,,,,,,2022-10-19,1,,,,,プロスパー,0
343,2011103012284,新規,0,2022-10-19,2022-10-19,合同会社ＴＳＫ,,合同会社,東京都,新宿区,四谷三栄町１６番１３号,,13,104,1600008,,,,,,,2022-10-19,1,,,,,ティーエスケー,0
350,2011603003725,新規,0,2022-10-19,2022-10-19,合同会社栄道グランデュール,,合同会社,東京都,練馬区,下石神井５丁目１８番３１号,,13,120,1770042,,,,,,,2022-10-19,1,,,,,エイドウグランデュール,0
356,2012701017303,新規,0,2022-10-19,2022-10-19,秋佳株式会社,,株式会社,東京都,小平市,小川東町１８３４－１２,,13,211,1870031,,,,,,,2022-10-19,1,,,,,アキヨイ,0
369,2020001148611,新規,0,2022-10-19,2022-10-19,株式会社Ｋａｗａｂａｔａ　Ｌａｎｇｕａｇｅ　Ｉｎｔｅｒｎａｔｉｏｎａｌ,,株式会社,神奈川県,横浜市中区,花咲町１丁目１２番地１プラザ桜木町５０１,,14,104,2310063,,,,,,,2022-10-19,1,,,,,カワバタランゲージインターナショナル,0
379,2020003022582,新規,0,2022-10-19,2022-10-19,合同会社藤井,,合同会社,神奈川県,横浜市戸塚区,上矢部町３４番地４１,,14,110,2450053,,,,,,,2022-10-19,1,,,,,,0
380,2020003022590,新規,0,2022-10-19,2022-10-19,合同会社ＳＫＹ,,合同会社,神奈川県,横浜市金沢区,六浦２丁目１０番７号グリーンハイツＡ１０４,,14,108,2360031,,,,,,,2022-10-19,1,,,,,スカイ,0
381,2020003022599,新規,0,2022-10-19,2022-10-19,合同会社マム,,合同会社,神奈川県,横浜市港北区,綱島西６丁目３番３４号ヴェール南日吉２０１,,14,109,2230053,,,,,,,2022-10-19,1,,,,,マム,0
400,2030003020429,新規,0,2022-10-19,2022-10-19,合同会社宴,,合同会社,埼玉県,川越市,今成４丁目４番地２０,,11,201,3501105,,,,,,,2022-10-19,1,,,,,エン,0
406,2040001125476,新規,0,2022-10-19,2022-10-19,株式会社３，ＦｅＳ,,株式会社,千葉県,船橋市,三山６丁目３７番４号,,12,204,2740072,,,,,,,2022-10-19,1,,,,,サンフェス,0
407,2040001125492,新規,0,2022-10-19,2022-10-19,株式会社ゴルフ・ラボ・ユアサイド,,株式会社,千葉県,印西市,草深９４１番地３,,12,231,2701337,,,,,,,2022-10-19,1,,,,,ゴルフラボユアサイド,0
408,2040001125501,新規,0,2022-10-19,2022-10-19,株式会社ベストトイジャパン,,株式会社,千葉県,山武郡芝山町,菱田１０８５番地１フォーチュンビル１０２号室,,12,409,2891602,,,,,,,2022-10-19,1,,,,,ベストトイジャパン,0
423,2080101023576,新規,0,2022-10-19,2022-10-19,株式会社Ｍ＆Ｓ　Ｃｏｒｐｏｒａｔｉｏｎ,,株式会社,静岡県,賀茂郡西伊豆町,仁科４３９番地の２,,22,306,4103514,,,,,,,2022-10-19,1,,,,,エムアンドエスコーポレーション,0
442,2120001249589,新規,0,2022-10-19,2022-10-19,ＷＷＴホテル管理株式会社,,株式会社,大阪府,大阪市西成区,山王１丁目１１番１４－１０１号室,,27,122,5570001,,,,,,,2022-10-19,1,,,,,ダブリューダブリューティーホテルカンリ,0
443,2120001249639,新規,0,2022-10-19,2022-10-19,株式会社正晶,,株式会社,大阪府,大阪市城東区,今福東１丁目８番１５－１２１４号,,27,118,5360002,,,,,,,2022-10-19,1,,,,,マサアキ,0
444,2120003022671,新規,0,2022-10-19,2022-10-19,合同会社ＩＬＣＵ,,合同会社,大阪府,大阪市中央区,上汐２丁目２番２２号,,27,128,5420064,,,,,,,2022-10-19,1,,,,,アイエルシーユー,0
445,2120005023247,新規,0,2022-10-19,2022-10-19,あかまつ社会保険労務士法人,,その他の設立登記法人,大阪府,大阪市中央区,和泉町２丁目１番７号ＨＣ９０和泉町ビル２０３号,,27,128,5400019,,,,,,,2022-10-19,1,,,,,アカマツ,0
448,2120101066397,新規,0,2022-10-19,2022-10-19,株式会社Ｂｅａｒ　ｖａｌｌｅｙ,,株式会社,大阪府,堺市北区,中百舌鳥町２丁３４山本グリーンヴレッジ１００１,,27,146,5918023,,,,,,,2022-10-19,1,,,,,ベアバレイ,0
451,2120901046623,新規,0,2022-10-19,2022-10-19,株式会社サンエイジ,,株式会社,大阪府,高槻市,八丁西町１番２０号,,27,207,5690095,,,,,,,2022-10-19,1,,,,,サンエイジ,0
461,2130001072809,新規,0,2022-10-19,2022-10-19,株式会社シュハリ,,株式会社,京都府,宇治市,宇治大谷３４番地の４２,,26,204,6110021,,,,,,,2022-10-19,1,,,,,シュハリ,0
469,2140001127719,新規,0,2022-10-19,2022-10-19,株式会社ＴａｉＺｏｕ,,株式会社,兵庫県,三田市,南が丘１丁目５０番３号,,28,219,6691535,,,,,,,2022-10-19,1,,,,,タイゾウ,0
470,2140001127727,新規,0,2022-10-19,2022-10-19,株式会社フォルクス,,株式会社,兵庫県,尼崎市,立花町２丁目２－９ＦＯＫビル１Ｆ,,28,202,6610025,,,,,,,2022-10-19,1,,,,,フォルクス,0
477,2170001017339,新規,0,2022-10-19,2022-10-19,株式会社Ｈｕｍａｎ　Ｌｉｎｋｓ,,株式会社,和歌山県,和歌山市,塩屋６丁目２番８５－４０１号,,30,201,6410054,,,,,,,2022-10-19,1,,,,,ヒューマンリンクス,0
499,2250001019814,新規,0,2022-10-19,2022-10-19,株式会社次世代グループ,,株式会社,山口県,岩国市,牛野谷町２丁目７番８号,,35,208,7410071,,,,,,,2022-10-19,1,,,,,ジセダイグループ,0
502,2260001037328,新規,0,2022-10-19,2022-10-19,株式会社ＫＲＭ,,株式会社,岡山県,岡山市北区,岡町５番１９号エスペランサ医大東５０２,,33,101,7000867,,,,,,,2022-10-19,1,,,,,ケーアールエム,0
505,2290001099258,新規,0,2022-10-19,2022-10-19,株式会社エボルグ,,株式会社,福岡県,福岡市博多区,博多駅東１丁目１２番１７号,,40,132,8120013,,,,,,,2022-10-19,1,,,,,エボルグ,0
506,2290001099274,新規,0,2022-10-19,2022-10-19,株式会社ベルエール,,株式会社,福岡県,福岡市中央区,六本松２丁目１３－５－２Ｆイーエム六本松駅前,,40,133,8100044,,,,,,,2022-10-19,1,,,,,ベルエール,0
511,2310003004469,新規,0,2022-10-19,2022-10-19,合同会社ＮＨＴ,,合同会社,長崎県,長崎市,大浦町３番２７－４０１号,,42,201,8500918,,,,,,,2022-10-19,1,,,,,エヌエイチティー,0
517,2330003009549,新規,0,2022-10-19,2022-10-19,合名会社ロイヤルエステート,,合名会社,熊本県,熊本市北区,下硯川２丁目２番１４号,,43,105,8615526,,,,,,,2022-10-19,1,,,,,ロイヤルエステート,0
520,2340001025101,新規,0,2022-10-19,2022-10-19,株式会社桜雲琉,,株式会社,鹿児島県,姶良郡湧水町,北方４８０番地１新替団地１号棟２０１号,,46,452,8996202,,,,,,,2022-10-19,1,,,,,オウウンリュウ,0
521,2350001017997,新規,0,2022-10-19,2022-10-19,浜川自動車株式会社,,株式会社,宮崎県,宮崎市,大字瓜生野２９９３番地５,,45,201,8800044,,,,,,,2022-10-19,1,,,,,ハマカワジドウシャ,0
529,2370001049139,新規,0,2022-10-19,2022-10-19,株式会社八馬力,,株式会社,宮城県,仙台市青葉区,高松２丁目１２番１５号,,04,101,9810907,,,,,,,2022-10-19,1,,,,,ハチバリキ,0
530,2370003005866,新規,0,2022-10-19,2022-10-19,合同会社Ｈ,,合同会社,宮城県,塩竈市,泉沢町３番３６号,,04,203,9850062,,,,,,,2022-10-19,1,,,,,エイチ,0
555,2480001011888,新規,0,2022-10-19,2022-10-19,株式会社ＢＬＵＥ‐ＰＲＩＮＴ,,株式会社,徳島県,徳島市,名東町３丁目２７１番地の８,,36,201,7700047,,,,,,,2022-10-19,1,,,,,ブループリント,0
566,3010001230047,新規,0,2022-10-19,2022-10-19,株式会社ハイフィールドコンサルティング,,株式会社,東京都,千代田区,九段南１丁目５番６号りそな九段ビル５階ＫＳフロア,,13,101,1020074,,,,,,,2022-10-19,1,,,,,ハイフィールドコンサルティング,0
567,3010001230179,新規,0,2022-10-19,2022-10-19,株式会社アポトプル,,株式会社,東京都,中央区,銀座１丁目２２番１１号銀座大竹ビジデンス２階,,13,102,1040061,,,,,,,2022-10-19,1,,,,,アポトプル,0
568,3010001230195,新規,0,2022-10-19,2022-10-19,株式会社Ｂａｍｂｏｏｓｈｏｏｔ,,株式会社,東京都,文京区,本郷６丁目２５番１４号,,13,105,1130033,,,,,,,2022-10-19,1,,,,,バンブーシュート,0
569,3010001230220,新規,0,2022-10-19,2022-10-19,株式会社エルシーケー,,株式会社,東京都,中央区,銀座１丁目１２番４号Ｎ＆Ｅ，ＢＬＤ．６Ｆ,,13,102,1040061,,,,,,,2022-10-19,1,,,,,エルシーケー,0
570,3010001230237,新規,0,2022-10-19,2022-10-19,株式会社エムフーズ,,株式会社,東京都,中央区,銀座８丁目１６番１－２０４号,,13,102,1040061,,,,,,,2022-10-19,1,,,,,エムフーズ,0
587,3010405021447,新規,0,2022-10-19,2022-10-19,ＭＦＴＪＰＮ４特定目的会社,,その他の設立登記法人,東京都,港区,虎ノ門３丁目２２番１０－２０１号,,13,103,1050001,,,,,,,2022-10-19,1,,,,,エムエフティージェイピーエヌフォー,0
588,3010405021505,新規,0,2022-10-19,2022-10-19,新子安特定目的会社,,その他の設立登記法人,東京都,港区,元赤坂１丁目１番８号株式会社赤坂国際会計内,,13,103,1070051,,,,,,,2022-10-19,1,,,,,シンコヤス,0
593,3010703006422,新規,0,2022-10-19,2022-10-19,メッドテックパートナーズ合同会社,,合同会社,東京都,品川区,北品川４丁目８番３３号御殿山ハウス２１５,,13,109,1400001,,,,,,,2022-10-19,1,,,,,メッドテックパートナーズ,0
600,3011001150375,新規,0,2022-10-19,2022-10-19,ＴＧＲ大分株式会社,,株式会社,東京都,渋谷区,道玄坂１丁目２１番１号,,13,113,1500043,,,,,,,2022-10-19,1,,,,,ティージーアールオオイタ,0
601,3011001150383,新規,0,2022-10-19,2022-10-19,株式会社インスパイアエンターテイメント,,株式会社,東京都,渋谷区,千駄ヶ谷４丁目１０番３号キクヤビル４階,,13,113,1510051,,,,,,,2022-10-19,1,,,,,インスパイアエンターテイメント,0
614,3011101100560,新規,0,2022-10-19,2022-10-19,株式会社アドプロダクト,,株式会社,東京都,新宿区,新宿５丁目１４番１２－３０６号,,13,104,1600022,,,,,,,2022-10-19,1,,,,,アドプロダクト,0
617,3011103012275,新規,0,2022-10-19,2022-10-19,合同会社フラワーピーシーズ,,合同会社,東京都,新宿区,新宿５丁目１番４－８０５号,,13,104,1600022,,,,,,,2022-10-19,1,,,,,フラワーピーシーズ,0
622,3011301028180,新規,0,2022-10-19,2022-10-19,株式会社バンス,,株式会社,東京都,杉並区,高円寺北２丁目４１番６号マリアージュ高円寺北１Ｆ,,13,115,1660002,,,,,,,2022-10-19,1,,,,,バンス,0
623,3011303004551,新規,0,2022-10-19,2022-10-19,合同会社Ｂａｎｋｅｒ,,合同会社,東京都,杉並区,阿佐谷北３丁目４０番４号メイツ阿佐谷２０１,,13,115,1660001,,,,,,,2022-10-19,1,,,,,バンカー,0
626,3011503005325,新規,0,2022-10-19,2022-10-19,南洋商貿合同会社,,合同会社,東京都,荒川区,東日暮里４丁目２３番１２号近江マンション２０１,,13,118,1160014,,,,,,,2022-10-19,1,,,,,ナンヨウショウボウ,0
647,3020001148619,新規,0,2022-10-19,2022-10-19,株式会社ＴＯＭＩＴＡＳＯＵＫＥＮ,,株式会社,神奈川県,横浜市旭区,市沢町１１４２番地２１,,14,112,2410014,,,,,,,2022-10-19,1,,,,,トミタソウケン,0
648,3020001148643,新規,0,2022-10-19,2022-10-19,株式会社ＫＡＷＡＤＡ,,株式会社,神奈川県,横浜市神奈川区,栄町６番１号ヨコハマポートサイドロア参番館１０５,,14,102,2210052,,,,,,,2022-10-19,1,,,,,カワダ,0
655,3021003012267,新規,0,2022-10-19,2022-10-19,ＨＯＧＡＲＡＫＡ合同会社,,合同会社,神奈川県,足柄下郡湯河原町,中央１丁目１０番６号２０３号室,,14,384,2590301,,,,,,,2022-10-19,1,,,,,ホガラカ,0
670,3040001125500,新規,0,2022-10-19,2022-10-19,竹田トレーディング株式会社,,株式会社,千葉県,四街道市,大日２０４６番地１２,,12,228,2840001,,,,,,,2022-10-19,1,,,,,タケダトレーディング,0
672,3040003021086,新規,0,2022-10-19,2022-10-19,合同会社Ｂｉｚ．ｌａｂ,,合同会社,千葉県,船橋市,本町７丁目２０番７－２０１号,,12,204,2730005,,,,,,,2022-10-19,1,,,,,ビジラボ,0
673,3050001051828,新規,0,2022-10-19,2022-10-19,株式会社ＮＩＴＨＩＳＨ　ＥＮＴＥＲＰＲＩＳＥＳ,,株式会社,茨城県,稲敷市,高田４６３番地,,08,229,3000511,,,,,,,2022-10-19,1,,,,,ニティーシュエンタープライセス,0
674,3050003006929,新規,0,2022-10-19,2022-10-19,柴原工作合同会社,,合同会社,茨城県,つくばみらい市,谷井田３１７番地３,,08,235,3002337,,,,,,,2022-10-19,1,,,,,シバハラコウサク,0
675,3060001035367,新規,0,2022-10-19,2022-10-19,株式会社ハル,,株式会社,栃木県,宇都宮市,東宿郷１丁目５番１７号東城ビル２Ｆ,,09,201,3210953,,,,,,,2022-10-19,1,,,,,ハル,0
684,3070001039714,新規,0,2022-10-19,2022-10-19,株式会社住環,,株式会社,群馬県,伊勢崎市,八幡町１０番地３,,10,204,3720051,,,,,,,2022-10-19,1,,,,,ジュウカン,0
688,3080403004637,新規,0,2022-10-19,2022-10-19,Ｎ・Ｋビルヂングデータコンサルティング合同会社,,合同会社,静岡県,浜松市中区,鍛冶町１００番地の１ザザシティ浜松中央館Ｂ１階,,22,131,4300933,,,,,,,2022-10-19,1,,,,,エヌケービルヂングデータコンサルティング,0
703,3120001249638,新規,0,2022-10-19,2022-10-19,株式会社清将,,株式会社,大阪府,大阪市港区,築港４丁目１番５号ベルシモンズ大阪港１０１号,,27,107,5520021,,,,,,,2022-10-19,1,,,,,キヨマサ,0
704,3120001249670,新規,0,2022-10-19,2022-10-19,更好株式会社,,株式会社,大阪府,大阪市東成区,神路４丁目３－１０スターレジデンス新深江２０７号室,,27,115,5370003,,,,,,,2022-10-19,1,,,,,サラヨシ,0
712,3120103004890,新規,0,2022-10-19,2022-10-19,合同会社ＵｐＴｏｐ,,合同会社,大阪府,河内長野市,中片添町３７番２４号,,27,216,5860046,,,,,,,2022-10-19,1,,,,,アップトップ,0
720,3122001036322,新規,0,2022-10-19,2022-10-19,株式会社築,,株式会社,大阪府,八尾市,竹渕西５丁目１０７番地,,27,212,5810051,,,,,,,2022-10-19,1,,,,,チク,0
721,3122003002438,新規,0,2022-10-19,2022-10-19,合同会社ＩＤＥＡＬ　ＲＥＣＲＵＩＴ,,合同会社,大阪府,東大阪市,上小阪３丁目１３番９号,,27,227,5770806,,,,,,,2022-10-19,1,,,,,アイデアルリクルート,0
723,3130001072840,新規,0,2022-10-19,2022-10-19,日康株式会社,,株式会社,京都府,京都市中京区,西ノ京島ノ内町２１番地１１０７,,26,104,6048443,,,,,,,2022-10-19,1,,,,,ニッコウ,0
727,3130003008248,新規,0,2022-10-19,2022-10-19,不動産キャンプ合同会社,,合同会社,京都府,京都市下京区,鶏鉾町４９３番地ムーンバットビル７階,,26,106,6008491,,,,,,,2022-10-19,1,,,,,フドウサンキャンプ,0
743,3140001127750,新規,0,2022-10-19,2022-10-19,株式会社東建,,株式会社,兵庫県,尼崎市,南城内１４５番地の３,,28,202,6600825,,,,,,,2022-10-19,1,,,,,トウケン,0
758,3180001153438,新規,0,2022-10-19,2022-10-19,株式会社佐橋,,株式会社,愛知県,小牧市,大字間々原新田７３１－１,,23,219,4850016,,,,,,,2022-10-19,1,,,,,サハシ,0
772,3200001040567,新規,0,2022-10-19,2022-10-19,株式会社Ｇ‐ＳＫＹ,,株式会社,岐阜県,岐阜市,宇佐３丁目１６番８号,,21,201,5008368,,,,,,,2022-10-19,1,,,,,ジースカイ,0
773,3200003005709,新規,0,2022-10-19,2022-10-19,ｔａｃｏｂｏｏｋｓ合同会社,,合同会社,岐阜県,大垣市,島町３８０番地１,,21,202,5030996,,,,,,,2022-10-19,1,,,,,タコブックス,0
788,3270001008649,新規,0,2022-10-19,2022-10-19,株式会社ＣＭＣ,,株式会社,鳥取県,鳥取市,興南町１４３番地１,,31,201,6800844,,,,,,,2022-10-19,1,,,,,シーエムシー,0
795,3290003013091,新規,0,2022-10-19,2022-10-19,１０２２合同会社,,合同会社,福岡県,福岡市西区,今宿駅前１丁目２１‐７サンファヴール今宿駅前１０１,,40,135,8190168,,,,,,,2022-10-19,1,,,,,イチゼロニーニー,0
803,3330003009556,新規,0,2022-10-19,2022-10-19,合同会社ｃｏｃｏａ,,合同会社,熊本県,熊本市中央区,帯山３丁目５３番３２号ホークス坂田１０１,,43,101,8620924,,,,,,,2022-10-19,1,,,,,ココア,0
808,3350003004200,新規,0,2022-10-19,2022-10-19,合同会社禊,,合同会社,宮崎県,宮崎市,大島町原ノ前１４３５番地,,45,201,8800824,,,,,,,2022-10-19,1,,,,,ミソギ,0
810,3360001031088,新規,0,2022-10-19,2022-10-19,株式会社葉っぱ,,株式会社,沖縄県,那覇市,前島１丁目６－１１ＬＩＢＴＨ前島Ｉ－１３０２,00128179,47,201,9000016,,,,,,,2022-10-19,1,,,,,ハッパ,0
817,3380001033198,新規,0,2022-10-19,2022-10-19,株式会社企画２２,,株式会社,福島県,いわき市,小名浜字林ノ上１９番地の１７,,07,204,9718101,,,,,,,2022-10-19,1,,,,,,0
824,3400001016035,新規,0,2022-10-19,2022-10-19,株式会社ＤＯＵＮＥＬ,,株式会社,岩手県,宮古市,磯鶏３丁目３番２２号,,03,202,0270024,,,,,,,2022-10-19,1,,,,,ドーネル,0
828,3430001087676,新規,0,2022-10-19,2022-10-19,株式会社エーアール・エヌ,,株式会社,北海道,札幌市白石区,北郷四条１３丁目７番２０号,,01,104,0030834,,,,,,,2022-10-19,1,,,,,エーアールエヌ,0
832,3430003014380,新規,0,2022-10-19,2022-10-19,合同会社エイトドリーム,,合同会社,北海道,岩内郡岩内町,字栄２２６番地１２,,01,402,0450011,,,,,,,2022-10-19,1,,,,,エイトドリーム,0
835,3460103001490,新規,0,2022-10-19,2022-10-19,合同会社タスク,,合同会社,北海道,帯広市,東十四条南６丁目１番地４,,01,207,0800814,,,,,,,2022-10-19,1,,,,,タスク,0
836,3470001019295,新規,0,2022-10-19,2022-10-19,株式会社Ｓｃｉｒｏｃｃｏ,,株式会社,香川県,高松市,内町６番８号,,37,201,7600034,,,,,,,2022-10-19,1,,,,,シロッコ,0
838,3480001011887,新規,0,2022-10-19,2022-10-19,株式会社Ｒｏｏｍ,,株式会社,徳島県,阿波市,土成町土成字東原３番地１,,36,206,7711506,,,,,,,2022-10-19,1,,,,,ルーム,0
842,3700150111085,新規,0,2022-10-19,2022-09-05,長岡区上水道特別会計,,その他,長野県,上伊那郡箕輪町,大字東箕輪２７０－１長岡公民館内,,20,383,3994602,,,,,,,2022-09-05,1,,,,,ナガオカクジヨウスイドウトクベツカイケイ,0
858,4010001230178,新規,0,2022-10-19,2022-10-19,ＪＩＮＧ株式会社,,株式会社,東京都,中央区,銀座１丁目１２番４号Ｎ＆ＥＢＬＤ．６階,,13,102,1040061,,,,,,,2022-10-19,1,,,,,ジン,0
859,4010001230236,新規,0,2022-10-19,2022-10-19,株式会社ウケザラ,,株式会社,東京都,千代田区,神田松永町１３番地ＶＯＲＴ秋葉原ＩＩ,00128181,13,101,1010023,,,,,,,2022-10-19,1,,,,,ウケザラ,0
883,4010403028740,新規,0,2022-10-19,2022-10-19,一三八合同会社,,合同会社,東京都,港区,南青山２丁目２５番１０号エスト南青山２階,,13,103,1070062,,,,,,,2022-10-19,1,,,,,イチサンパチ,0
885,4010603009788,新規,0,2022-10-19,2022-10-19,合同会社ｒｅｖ,,合同会社,東京都,江東区,亀戸１丁目８－１２－Ｂ１,,13,108,1360071,,,,,,,2022-10-19,1,,,,,レヴ,0
887,4010701043359,新規,0,2022-10-19,2022-10-19,Ｃｈｏｃｏｔａｓ株式会社,,株式会社,東京都,品川区,南品川４丁目４番６号ＬＵＭＩＥＲＥ南品川（Ａ）９０１,,13,109,1400004,,,,,,,2022-10-19,1,,,,,チョコタス,0
888,4010801033359,新規,0,2022-10-19,2022-10-19,株式会社ＳＴＲＩＤＥ,,株式会社,東京都,大田区,上池台３丁目１３番１９－４０１号,,13,111,1450064,,,,,,,2022-10-19,1,,,,,ストライド,0
894,4010903007723,新規,0,2022-10-19,2022-10-19,合同会社ＷＯＯＫＩ,,合同会社,東京都,世田谷区,玉川田園調布２丁目１２－７－１０２,,13,112,1580085,,,,,,,2022-10-19,1,,,,,ウーキ,0
895,4010903007731,新規,0,2022-10-19,2022-10-19,合同会社ソルト,,合同会社,東京都,世田谷区,松原５丁目１４番５号,,13,112,1560043,,,,,,,2022-10-19,1,,,,,ソルト,0
908,4011001150060,新規,0,2022-10-19,2022-10-19,株式会社神崎,,株式会社,東京都,渋谷区,東２丁目１７番１０号岡本ＬＫビル３階,,13,113,1500011,,,,,,,2022-10-19,1,,,,,カンザキ,0
909,4011001150374,新規,0,2022-10-19,2022-10-19,ＴＧＲ阿蘇株式会社,,株式会社,東京都,渋谷区,道玄坂１丁目２１番１号,,13,113,1500043,,,,,,,2022-10-19,1,,,,,ティージーアールアソ,0
910,4011001150399,新規,0,2022-10-19,2022-10-19,株式会社未來,,株式会社,東京都,目黒区,洗足２丁目２５番２号,,13,110,1520012,,,,,,,2022-10-19,1,,,,,ミライ,0
913,4011003015476,新規,0,2022-10-19,2022-10-19,ひろコーチング合同会社,,合同会社,東京都,渋谷区,鉢山町５番１９号,,13,113,1500035,,,,,,,2022-10-19,1,,,,,ヒロコーチング,0
921,4011103012282,新規,0,2022-10-19,2022-10-19,合同会社ｐｉｅｃｅ　ｏｆ　ｃａｋｅ,,合同会社,東京都,新宿区,西新宿７丁目５番５号Ｐｌａｚａ西新宿ＵＣＦ４０６,,13,104,1600023,,,,,,,2022-10-19,1,,,,,ピースオブケイク,0
930,4011501028574,新規,0,2022-10-19,2022-10-19,株式会社プロパティージャパン,,株式会社,東京都,荒川区,荒川７丁目２０番１号,,13,118,1160002,,,,,,,2022-10-19,1,,,,,プロパティージャパン,0
971,4030003020435,新規,0,2022-10-19,2022-10-19,合同会社ＦＬＡＴ　ＥＡＲＴＨ,,合同会社,埼玉県,志木市,幸町４丁目２２番２０号,,11,228,3530005,,,,,,,2022-10-19,1,,,,,フラットアース,0
978,4040001125499,新規,0,2022-10-19,2022-10-19,株式会社東シーリング工業,,株式会社,千葉県,習志野市,東習志野８丁目２０番２９号,,12,216,2750001,,,,,,,2022-10-19,1,,,,,アズマシーリングコウギョウ,0
982,4040003021085,新規,0,2022-10-19,2022-10-19,コネクト合同会社,,合同会社,千葉県,柏市,酒井根７丁目９番２７号,,12,217,2770053,,,,,,,2022-10-19,1,,,,,コネクト,0
983,4040005021785,新規,0,2022-10-19,2022-10-19,医療法人社団大楠会,,その他の設立登記法人,千葉県,流山市,大字東深井３８２番地２０,,12,220,2700101,,,,,,,2022-10-19,1,,,,,オオクスカイ,0
986,4050001051835,新規,0,2022-10-19,2022-10-19,株式会社いがらし,,株式会社,茨城県,高萩市,本町１丁目２０４番地,,08,214,3180033,,,,,,,2022-10-19,1,,,,,イガラシ,0
987,4060001035366,新規,0,2022-10-19,2022-10-19,株式会社ｓａｎｉｔ,,株式会社,栃木県,日光市,今市本町２５番地１,,09,206,3211272,,,,,,,2022-10-19,1,,,,,サニット,0
997,4100001035799,新規,0,2022-10-19,2022-10-19,株式会社さんぽ,,株式会社,長野県,長野市,青木島町綱島６４３－２,,20,201,3812206,,,,,,,2022-10-19,1,,,,,サンポ,0
1011,4120001249629,新規,0,2022-10-19,2022-10-19,千赫株式会社,,株式会社,大阪府,大阪市浪速区,恵美須西３丁目１５－５号６０８室,,27,111,5560003,,,,,,,2022-10-19,1,,,,,センカク,0
1015,4120003022471,新規,0,2022-10-19,2022-10-19,ＫＥＶＩＮ合同会社,,合同会社,大阪府,大阪市生野区,小路東２丁目８番１２号,,27,116,5440003,,,,,,,2022-10-19,1,,,,,ケビン,0
1028,4130001072848,新規,0,2022-10-19,2022-10-19,株式会社江口工業,,株式会社,京都府,京都市伏見区,中島前山町３４番地,,26,109,6128464,,,,,,,2022-10-19,1,,,,,エグチコウギョウ,0
1029,4130001072856,新規,0,2022-10-19,2022-10-19,株式会社マイハピネス,,株式会社,京都府,京田辺市,薪堀切谷８番地５８,,26,211,6100341,,,,,,,2022-10-19,1,,,,,マイハピネス,0
1031,4130003008255,新規,0,2022-10-19,2022-10-19,木と書の職人合同会社,,合同会社,京都府,城陽市,水主塚ノ木６番地の１０,00128188,26,207,6100118,,,,,,,2022-10-19,1,,,,,キトショノショクニン,0
1032,4130005016611,新規,0,2022-10-19,2022-10-19,一般社団法人デザロン京都,,その他の設立登記法人,京都府,京都市下京区,堺町通五条上る俵屋町２１１,,26,106,6008070,,,,,,,2022-10-19,1,,,,,デザロンキョウト,0
1037,4140005026345,新規,0,2022-10-19,2022-10-19,特定非営利活動法人かたつむり,,その他の設立登記法人,兵庫県,神戸市北区,道場町日下部１６９２番地,,28,109,6511505,,,,,,,2022-10-19,1,,,,,カタツムリ,0
1069,4240001060528,新規,0,2022-10-19,2022-10-19,Ｊ．Ｂ．Ｖｉ株式会社,,株式会社,広島県,広島市中区,舟入本町７番３０－３０１号,,34,101,7300843,,,,,,,2022-10-19,1,,,,,ジェービーヴィー,0
1080,4290001099256,新規,0,2022-10-19,2022-10-19,株式会社ＣＡＷＡＬ,,株式会社,福岡県,福岡市中央区,薬院３丁目１４－２１　２０１号室,,40,133,8100022,,,,,,,2022-10-19,1,,,,,カワル,0
1081,4290001099264,新規,0,2022-10-19,2022-10-19,株式会社ホームプロテクト,,株式会社,福岡県,福岡市東区,和白東３丁目８番１２号,,40,131,8110214,,,,,,,2022-10-19,1,,,,,ホームプロテクト,0
1082,4290001099280,新規,0,2022-10-19,2022-10-19,ナビゲーターズ株式会社,,株式会社,福岡県,福岡市中央区,渡辺通５丁目１４番１２号南天神ビル３階,,40,133,8100004,,,,,,,2022-10-19,1,,,,,ナビゲーターズ,0
1084,4290003013082,新規,0,2022-10-19,2022-10-19,合同会社つくる,,合同会社,福岡県,福岡市中央区,今泉２丁目３－３０－５０１,,40,133,8100021,,,,,,,2022-10-19,1,,,,,ツクル,0
1100,4360003012399,新規,0,2022-10-19,2022-10-19,合同会社オキサコ,,合同会社,沖縄県,那覇市,牧志３丁目１５―３７,,47,201,9000013,,,,,,,2022-10-19,1,,,,,オキサコ,0
1107,4380001033197,新規,0,2022-10-19,2022-10-19,株式会社ふくぷろ,,株式会社,福島県,双葉郡大熊町,大字下野上字清水２３０,,07,545,9791308,,,,,,,2022-10-19,1,,,,,,0
1117,4430001087691,新規,0,2022-10-19,2022-10-19,株式会社Ｔｉｅ,,株式会社,北海道,千歳市,北陽６丁目１０番１２号,,01,224,0660032,,,,,,,2022-10-19,1,,,,,ティーアイイー,0
1126,4450003002259,新規,0,2022-10-19,2022-10-19,合同会社トップエステート,,合同会社,北海道,旭川市,宮下通９丁目５３１番地の１,,01,204,0700030,,,,,,,2022-10-19,1,,,,,トップエステート,0
1133,4700150093083,新規,0,2022-10-19,2019-02-25,日本加速器学会,,その他,東京都,新宿区,山吹町３５８－５アカデミーセンター,,13,104,1620801,,,,,,,2019-02-25,1,,,,,ニホンカソクキガッカイ,0
1144,5010001230144,新規,0,2022-10-19,2022-10-19,株式会社ネクスト,,株式会社,東京都,文京区,白山４丁目３３番２１－３０３号,,13,105,1120001,,,,,,,2022-10-19,1,,,,,ネクスト,0
1154,5010101015370,新規,0,2022-10-19,2022-10-19,株式会社ｍｆ,,株式会社,東京都,八王子市,長房町１２６番地２,,13,201,1930824,,,,,,,2022-10-19,1,,,,,エムエフ,0
1165,5010405021461,新規,0,2022-10-19,2022-10-19,青山国際税理士法人,,その他の設立登記法人,東京都,港区,南青山２丁目１３番２号,,13,103,1070062,,,,,,,2022-10-19,1,,,,,アオヤマコクサイ,0
1174,5010903007730,新規,0,2022-10-19,2022-10-19,合同会社Ｋｅｒｉｌ,,合同会社,東京都,世田谷区,祖師谷３丁目１１番１号成城ハイム６０３,,13,112,1570072,,,,,,,2022-10-19,1,,,,,ケリル,0
1185,5011001150373,新規,0,2022-10-19,2022-10-19,ＴＧＲ株式会社,,株式会社,東京都,渋谷区,道玄坂１丁目２１番１号,,13,113,1500043,,,,,,,2022-10-19,1,,,,,ティージーアール,0
1188,5011003015533,新規,0,2022-10-19,2022-10-19,ｌｅａｖｅｓ合同会社,,合同会社,東京都,渋谷区,幡ヶ谷３丁目７７番３号シャンブル志波３０２,,13,113,1510072,,,,,,,2022-10-19,1,,,,,リーヴス,0
1196,5011401024615,新規,0,2022-10-19,2022-10-19,株式会社フューチャー３９,,株式会社,東京都,板橋区,西台１丁目１番１４号,,13,119,1740045,,,,,,,2022-10-19,1,,,,,フューチャーサンキュー,0
1197,5011403003781,新規,0,2022-10-19,2022-10-19,合同会社アーネスト,,合同会社,東京都,板橋区,宮本町１６番６号ＶＩＤＡ＃０３３１０１号室,,13,119,1740054,,,,,,,2022-10-19,1,,,,,アーネスト,0
1208,5012405004792,新規,0,2022-10-19,2022-10-19,一般社団法人Ｒａｕｄｈａｔｕｌ　Ｑｕｒ’ａｎ,,その他の設立登記法人,東京都,狛江市,和泉本町３丁目１３番２０号,,13,219,2010003,,,,,,,2022-10-19,1,,,,,ラウダトゥルクルアーン,0
1226,5020001148625,新規,0,2022-10-19,2022-10-19,華信株式会社,,株式会社,神奈川県,横浜市磯子区,岡村４丁目１番１３－１号,,14,107,2350021,,,,,,,2022-10-19,1,,,,,カシン,0
1238,5021003012265,新規,0,2022-10-19,2022-10-19,Ｇｒｅｅｎ　Ｓｔｒｏｏｐ合同会社,,合同会社,神奈川県,大和市,中央林間西４丁目２７番２３－４号,,14,213,2420008,,,,,,,2022-10-19,1,,,,,グリーンストロープ,0
1255,5030001150646,新規,0,2022-10-19,2022-10-19,株式会社ＪＡＰＡＮ　ＨＯＬＩＣ,,株式会社,埼玉県,川口市,並木４丁目２番１１－３０５号,,11,203,3320034,,,,,,,2022-10-19,1,,,,,ジャパンホリック,0
1260,5030005021018,新規,0,2022-10-19,2022-10-19,医療法人至大会,,その他の設立登記法人,埼玉県,草加市,谷塚上町２３５番地１,,11,221,3400024,,,,,,,2022-10-19,1,,,,,シダイカイ,0
1273,5040003021084,新規,0,2022-10-19,2022-10-19,合同会社ジュウゴック,,合同会社,千葉県,船橋市,湊町２丁目１番１８号,,12,204,2730011,,,,,,,2022-10-19,1,,,,,ジュウゴック,0
1279,5050001051834,新規,0,2022-10-19,2022-10-19,株式会社ワルツ,,株式会社,茨城県,古河市,釈迦１８７８番地１,,08,204,3060222,,,,,,,2022-10-19,1,,,,,ワルツ,0
1283,5050003006927,新規,0,2022-10-19,2022-10-19,合同会社ＬＡＢＯＲ,,合同会社,茨城県,坂東市,生子２１２５番地４,,08,228,3060504,,,,,,,2022-10-19,1,,,,,レイバー,0
1291,5070001039753,新規,0,2022-10-19,2022-10-19,ＳＧ　ＪＡＰＡＮ貿易株式会社,,株式会社,群馬県,北群馬郡榛東村,大字新井６１番２号,,10,344,3703503,,,,,,,2022-10-19,1,,,,,エスジジャパンボウエキ,0
1292,5070003004656,新規,0,2022-10-19,2022-10-19,合同会社Ａ＆Ｐ,,合同会社,群馬県,伊勢崎市,曲輪町３５番地１０伊勢崎ヴィレッヂ１Ｂ,,10,204,3720055,,,,,,,2022-10-19,1,,,,,エーアンドピー,0
1299,5110001037050,新規,0,2022-10-19,2022-10-19,株式会社リファイン,,株式会社,新潟県,新潟市東区,中野山１丁目７番地７,,15,102,9500841,,,,,,,2022-10-19,1,,,,,リファイン,0
1318,5120001249578,新規,0,2022-10-19,2022-10-19,ＴＷＹＮ　ＪＡＰＡＮ株式会社,,株式会社,大阪府,大阪市西区,新町１丁目７番１７号１Ｂ,,27,106,5500013,,,,,,,2022-10-19,1,,,,,トゥインジャパン,0
1319,5120001249586,新規,0,2022-10-19,2022-10-19,株式会社箱屋常吉,,株式会社,大阪府,大阪市天王寺区,玉造元町８番４－２４０１号,,27,109,5430014,,,,,,,2022-10-19,1,,,,,ハコヤツネキチ,0
1320,5120001249628,新規,0,2022-10-19,2022-10-19,佳徳旺株式会社,,株式会社,大阪府,大阪市淀川区,野中北１丁目４番３０号,,27,123,5320034,,,,,,,2022-10-19,1,,,,,カトクオウ,0
1332,5120101066386,新規,0,2022-10-19,2022-10-19,株式会社ＫＩＳ,,株式会社,大阪府,堺市堺区,車之町西２丁２番５号ロイヤルコートビル４Ａ号室,,27,141,5900940,,,,,,,2022-10-19,1,,,,,ケーアイエス,0
1343,5130001072822,新規,0,2022-10-19,2022-10-19,株式会社ＳＡＭＡＷＡＪＩ,,株式会社,京都府,向日市,寺戸町七ノ坪１４１番地４階,,26,208,6170002,,,,,,,2022-10-19,1,,,,,サマワジ,0
1344,5130001072830,新規,0,2022-10-19,2022-10-19,株式会社森田ガレージ,,株式会社,京都府,京都市南区,唐橋琵琶町１４番地,,26,107,6018457,,,,,,,2022-10-19,1,,,,,モリタガレージ,0
1345,5130001072839,新規,0,2022-10-19,2022-10-19,株式会社エトワール,,株式会社,京都府,宇治市,小倉町南堀池７９番地の８,,26,204,6110042,,,,,,,2022-10-19,1,,,,,エトワール,0
1346,5130001072888,新規,0,2022-10-19,2022-10-19,株式会社あだち商会,,株式会社,京都府,福知山市,和久市町３１番地,,26,201,6200062,,,,,,,2022-10-19,1,,,,,アダチショウカイ,0
1360,5140001127740,新規,0,2022-10-19,2022-10-19,株式会社ヨシケン,,株式会社,兵庫県,三木市,府内町９番１９号,,28,215,6730416,,,,,,,2022-10-19,1,,,,,ヨシケン,0
1361,5140001127765,新規,0,2022-10-19,2022-10-19,株式会社オムニス,,株式会社,兵庫県,伊丹市,南鈴原４丁目７７番サンセール３０２号室,,28,207,6640883,,,,,,,2022-10-19,1,,,,,オムニス,0
1363,5150003002791,新規,0,2022-10-19,2022-10-19,合同会社ビーグラム,,合同会社,奈良県,大和高田市,今里町５－２８－２Ｃ,,29,202,6350031,,,,,,,2022-10-19,1,,,,,ビーグラム,0
1364,5160003002700,新規,0,2022-10-19,2022-10-19,合同会社ＤＵＹＢＡＯＳＨＩＧＡ,,合同会社,滋賀県,彦根市,高宮町１１７,,25,202,5220201,,,,,,,2022-10-19,1,,,,,ユイバオシガ,0
1374,5180001153444,新規,0,2022-10-19,2022-10-19,Ｋ‐ｓｔｏｒｋ株式会社,,株式会社,愛知県,名古屋市北区,清水２丁目７番１４号,,23,103,4620844,,,,,,,2022-10-19,1,,,,,ケーストーク,0
1379,5180003024362,新規,0,2022-10-19,2022-10-19,合同会社ウィル,,合同会社,愛知県,名古屋市中区,錦２丁目９番２０号,,23,106,4600003,,,,,,,2022-10-19,1,,,,,ウィル,0
1383,5180303005483,新規,0,2022-10-19,2022-10-19,合同会社ＩＮＯＫ,,合同会社,愛知県,岡崎市,梅園町字１丁目１２番地１７,,23,202,4440031,,,,,,,2022-10-19,1,,,,,アイノック,0
1391,5200001040565,新規,0,2022-10-19,2022-10-19,株式会社ＭＳＴ,,株式会社,岐阜県,岐阜市,今川２８番地９,,21,201,5011114,,,,,,,2022-10-19,1,,,,,エムエスティー,0
1397,5260005011152,新規,0,2022-10-19,2022-10-19,ＮＰＯ法人Ｅｑｕａｌ　ｌｉｆｅ,,その他の設立登記法人,岡山県,岡山市南区,福富西２丁目２９番２２号,,33,104,7028031,,,,,,,2022-10-19,1,,,,,エクアルライフ,0
1403,5290001099263,新規,0,2022-10-19,2022-10-19,みやま金属株式会社,,株式会社,福岡県,みやま市,高田町下楠田１２１３番地１,,40,229,8390221,,,,,,,2022-10-19,1,,,,,ミヤマキンゾク,0
1404,5290003013081,新規,0,2022-10-19,2022-10-19,合同会社ワンライナー,,合同会社,福岡県,福岡市中央区,天神４丁目６－２８天神ファーストビル７階,,40,133,8100001,,,,,,,2022-10-19,1,,,,,ワンライナー,0
1420,5310003004466,新規,0,2022-10-19,2022-10-19,Ｂｉｚコネクトサポート合同会社,,合同会社,長崎県,諫早市,永昌東町１番１号ｉｉｓａ３０３号,,42,204,8540071,,,,,,,2022-10-19,1,,,,,ビズコネクトサポート,0
1425,5360003012373,新規,0,2022-10-19,2022-10-19,おおはま企画合同会社,,合同会社,沖縄県,沖縄市,美里仲原町２１番２２号,,47,211,9042156,,,,,,,2022-10-19,1,,,,,オオハマキカク,0
1428,5370001049160,新規,0,2022-10-19,2022-10-19,株式会社翠玲,,株式会社,宮城県,多賀城市,中央２丁目２３番５─４０１号,,04,209,9850873,,,,,,,2022-10-19,1,,,,,スイレイ,0
1433,5380001033196,新規,0,2022-10-19,2022-10-19,株式会社ノボル機械,,株式会社,福島県,いわき市,泉町滝尻字中瀬５５番地の１,,07,204,9718182,,,,,,,2022-10-19,1,,,,,ノボルキカイ,0
1451,5470003002272,新規,0,2022-10-19,2022-10-19,合同会社Ｉｓｌａｎｄ　Ｎｅｓｔ,,合同会社,香川県,小豆郡土庄町,小部甲３９５番地,,37,322,7614146,,,,,,,2022-10-19,1,,,,,アイランドネスト,0
1453,5700150111686,新規,0,2022-10-19,2022-09-13,地域政党京都党・日本維新の会市会議員団,,その他,京都府,京都市中京区,寺町通御池上る上本能寺前町４８８,,26,104,6040925,,,,,,,2022-09-13,1,,,,,チイキセイトウキヨウトトウニツポンイシンノカイシカイギインダン,0
1463,6010001230119,新規,0,2022-10-19,2022-10-19,株式会社ポジポジ,,株式会社,東京都,中央区,銀座１丁目１２番４号Ｎ＆ＥＢＬＤ．６階,,13,102,1040061,,,,,,,2022-10-19,1,,,,,ポジポジ,0
1464,6010001230184,新規,0,2022-10-19,2022-10-19,株式会社ｘａｙｍａｃａ,,株式会社,東京都,中央区,日本橋浜町２丁目２４番８－６０１号,,13,102,1030007,,,,,,,2022-10-19,1,,,,,ザイマカ,0
1468,6010005035687,新規,0,2022-10-19,2022-10-19,弁護士法人高井・岡芹法律事務所,00128187,その他の設立登記法人,東京都,千代田区,九段北４丁目１番５号市ヶ谷法曹ビル９０２号室,,13,101,1020073,,,,,,,2022-10-19,1,,,,,タカイオカゼリホウリツジムショ,0
1482,6010601062011,新規,0,2022-10-19,2022-10-19,株式会社イチ,,株式会社,東京都,江東区,豊洲２丁目５番１号,,13,108,1350061,,,,,,,2022-10-19,1,,,,,イチ,0
1483,6010603009778,新規,0,2022-10-19,2022-10-19,和忱合同会社,,合同会社,東京都,江東区,三好３丁目９－１４・１Ｆ・Ａ室,,13,108,1350022,,,,,,,2022-10-19,1,,,,,アイシン,0
1492,6010801033357,新規,0,2022-10-19,2022-10-19,株式会社ゾンネンアレー,,株式会社,東京都,大田区,中央５丁目６番１９号,,13,111,1430024,,,,,,,2022-10-19,1,,,,,ゾンネンアレー,0
1493,6010901051820,新規,0,2022-10-19,2022-10-19,株式会社三軒茶屋,,株式会社,東京都,世田谷区,三軒茶屋１丁目４０番１４号,,13,112,1540024,,,,,,,2022-10-19,1,,,,,サンゲンチャヤ,0
1514,6011003015549,新規,0,2022-10-19,2022-10-19,Ｅｄｄｙ　Ｐｒｏｐｅｒｔｙ合同会社,,合同会社,東京都,渋谷区,神山町２５番１９号,,13,113,1500047,,,,,,,2022-10-19,1,,,,,エディープロパティ,0
1522,6011103012280,新規,0,2022-10-19,2022-10-19,合同会社ＯＮＥ,,合同会社,東京都,新宿区,歌舞伎町１丁目１３番１０号第１５金嶋ビル２階,,13,104,1600021,,,,,,,2022-10-19,1,,,,,ワン,0
1525,6011301028178,新規,0,2022-10-19,2022-10-19,株式会社インターコンチネンタル,,株式会社,東京都,杉並区,荻窪４丁目２８番１２号ピースビル４０３号,,13,115,1670051,,,,,,,2022-10-19,1,,,,,,0
1526,6011301028186,新規,0,2022-10-19,2022-10-19,株式会社まるも商会,,株式会社,東京都,杉並区,久我山３丁目１番５号,,13,115,1680082,,,,,,,2022-10-19,1,,,,,マルモショウカイ,0
1527,6011305002864,新規,0,2022-10-19,2022-10-19,一般社団法人ライフプランニング・リレーションズ,,その他の設立登記法人,東京都,杉並区,下高井戸２丁目１６番２号,,13,115,1680073,,,,,,,2022-10-19,1,,,,,ライフプランニングリレーションズ,0
1530,6011501028572,新規,0,2022-10-19,2022-10-19,エイダ商事株式会社,,株式会社,東京都,荒川区,西日暮里５丁目１番１７号,,13,118,1160013,,,,,,,2022-10-19,1,,,,,エイダショウジ,0
1538,6011801041416,新規,0,2022-10-19,2022-10-19,株式会社アイラ,,株式会社,東京都,足立区,西新井栄町３丁目１１－９－２階,,13,121,1230843,,,,,,,2022-10-19,1,,,,,アイラ,0
1545,6012801021903,新規,0,2022-10-19,2022-10-19,ＲＩＮＧＲＡＮＴ株式会社,,株式会社,東京都,日野市,南平６丁目１５番地の２０,,13,212,1910041,,,,,,,2022-10-19,1,,,,,リングラント,0
1546,6013101009036,新規,0,2022-10-19,2022-10-19,株式会社ケイエヌワン,,株式会社,東京都,西多摩郡日の出町,大字大久野１９７－３,,13,305,1900181,,,,,,,2022-10-19,1,,,,,ケイエヌワン,0
1548,6013301049815,新規,0,2022-10-19,2022-10-19,株式会社ＭＯＮＯＣＨＲＯＭＥ・６Ｂ,,株式会社,東京都,豊島区,巣鴨４丁目２２番７号グレイスコート３０２号,,13,116,1700002,,,,,,,2022-10-19,1,,,,,モノクロームロクビー,0
1551,6020001065670,新規,0,2022-10-19,2022-10-19,山甲商事株式会社,,株式会社,神奈川県,川崎市麻生区,高石１丁目２２番８号,,14,137,2150003,,,,,,,2022-10-19,1,,,,,,0
1562,6021003012264,新規,0,2022-10-19,2022-10-19,合同会社アールツーワイズ,,合同会社,神奈川県,藤沢市,花の木１６－２,,14,205,2510874,,,,,,,2022-10-19,1,,,,,アールツーワイズ,0
1581,6050001051825,新規,0,2022-10-19,2022-10-19,株式会社ユウブ,,株式会社,茨城県,行方市,青沼８４１番地３１,,08,233,3113831,,,,,,,2022-10-19,1,,,,,ユウブ,0
1587,6060001035356,新規,0,2022-10-19,2022-10-19,株式会社ＫＯＪＩＲＯ,,株式会社,栃木県,佐野市,富岡町１５２８番地１,,09,204,3270844,,,,,,,2022-10-19,1,,,,,コジロウ,0
1591,6070001039752,新規,0,2022-10-19,2022-10-19,株式会社コウエイプラス,,株式会社,群馬県,伊勢崎市,粕川町１６１３エーデルプラッツ２０２号室,,10,204,3720023,,,,,,,2022-10-19,1,,,,,コウエイプラス,0
1596,6100003006730,新規,0,2022-10-19,2022-10-19,合同会社Ｓａｉｌ　ｔｈｅ　Ｓｈｉｐ　Ｗｉｎｅｒｙ,,合同会社,長野県,上田市,御嶽堂１１５０番地５,,20,203,3860412,,,,,,,2022-10-19,1,,,,,セイルザシップワイナリー,0
1601,6110005016867,新規,0,2022-10-19,2022-10-19,特定非営利活動法人ＩＴＡＣ,,その他の設立登記法人,新潟県,佐渡市,両津夷２１４番地,,15,224,9520011,,,,,,,2022-10-19,1,,,,,アイティエーシー,0
1614,6120003022692,新規,0,2022-10-19,2022-10-19,合同会社中村研究所,,合同会社,大阪府,大阪市淀川区,木川東２丁目１８番９号,,27,123,5320012,,,,,,,2022-10-19,1,,,,,ナカムラケンキュウジョ,0
1616,6120005023251,新規,0,2022-10-19,2022-10-19,一般社団法人大阪府空手道連盟,,その他の設立登記法人,大阪府,大阪市城東区,鴫野東３丁目１８番８号,,27,118,5360013,,,,,,,2022-10-19,1,,,,,オオサカフカラテドウレンメイ,0
1622,6130001072821,新規,0,2022-10-19,2022-10-19,株式会社遊,,株式会社,京都府,京都市右京区,西院西三蔵町２４番地１,,26,108,6150027,,,,,,,2022-10-19,1,,,,,ユウ,0
1623,6130001072846,新規,0,2022-10-19,2022-10-19,株式会社オンリーパートナー,,株式会社,京都府,京都市右京区,西院高田町２３－３アルモード京都西院４０７,,26,108,6160000,,,,,,,2022-10-19,1,,,,,オンリーパートナー,0
1627,6130003008253,新規,0,2022-10-19,2022-10-19,ＡＬＬ　ＮＥＳＴ合同会社,,合同会社,京都府,京都市伏見区,久我東町２１０－Ａ－７,,26,109,6128494,,,,,,,2022-10-19,1,,,,,オールネスト,0
1646,6190003004115,新規,0,2022-10-19,2022-10-19,合同会社ＨＡＬＬＯＷＥＥＮ,,合同会社,三重県,伊勢市,旭町２２番地ゴールデンステージ三郷ＩＢ２０２号室,00128183,24,203,5160045,,,,,,,2022-10-19,1,,,,,ハロウィン,0
1656,6290001099254,新規,0,2022-10-19,2022-10-19,福岡友茗会オークション株式会社,,株式会社,福岡県,福岡市東区,多の津１丁目７番１－４０１号,,40,131,8130034,,,,,,,2022-10-19,1,,,,,フクオカユウメイカイオークション,0
1665,6300005007104,新規,0,2022-10-19,2022-10-19,一般社団法人Ｃｏｎｔｒａｉｌ,,その他の設立登記法人,佐賀県,鳥栖市,弥生が丘４丁目８０番地,,41,203,8410005,,,,,,,2022-10-19,1,,,,,コントレイル,0
1667,6310001018087,新規,0,2022-10-19,2022-10-19,山本工業株式会社,,株式会社,長崎県,島原市,西八幡町７６５３番地３,,42,203,8550835,,,,,,,2022-10-19,1,,,,,ヤマモトコウギョウ,0
1671,6320002022855,新規,0,2022-10-19,2022-10-19,有限会社宝和住研,,有限会社,大分県,日田市,大字庄手４７４番地の６,,44,204,8770000,,,,,,,2022-10-19,1,,,,,ホウワジュウケン,0
1674,6330003009553,新規,0,2022-10-19,2022-10-19,合同会社フィオーレ,,合同会社,熊本県,熊本市中央区,新屋敷３丁目１６番７－１４０１号,,43,101,8620975,,,,,,,2022-10-19,1,,,,,フィオーレ,0
1682,6380001033195,新規,0,2022-10-19,2022-10-19,株式会社サスアシ,,株式会社,福島県,いわき市,内郷御厩町２丁目６９番地,,07,204,9738402,,,,,,,2022-10-19,1,,,,,サスアシ,0
1686,6380003005300,新規,0,2022-10-19,2022-10-19,合同会社ＭＣＣ　ＷＯＲＫ,,合同会社,福島県,相馬市,椎木字北原５１番地の３カーサアレグリアＩＩ２０１号,00128189,07,209,9760002,,,,,,,2022-10-19,1,,,,,エムシーシーワーク,0
1689,6400001016032,新規,0,2022-10-19,2022-10-19,株式会社ＳＯＬＭＡＴＥ,,株式会社,岩手県,盛岡市,開運橋通３番３９号ダビンチビルＩＩ２階,00128185,03,201,0200026,,,,,,,2022-10-19,1,,,,,ソルメイト,0
1715,7010001230092,新規,0,2022-10-19,2022-10-19,株式会社ウィズキッズ,,株式会社,東京都,中央区,銀座６丁目１３－１６銀座ＷａｌｌビルＵＣＦ５階,,13,102,1040061,,,,,,,2022-10-19,1,,,,,ウィズキッズ,0
1716,7010001230200,新規,0,2022-10-19,2022-10-19,株式会社ＪＩＬ,,株式会社,東京都,千代田区,内幸町１丁目３番１号,,13,101,1000011,,,,,,,2022-10-19,1,,,,,ジェイアイエル,0
1717,7010001230258,新規,0,2022-10-19,2022-10-19,株式会社Ｂ＆Ｆ,,株式会社,東京都,千代田区,岩本町２丁目１３番１号,,13,101,1010032,,,,,,,2022-10-19,1,,,,,ビーアンドエフ,0
1724,7010005035686,新規,0,2022-10-19,2022-10-19,行政書士法人トゥモローズ,,その他の設立登記法人,東京都,中央区,八丁堀４丁目３番５号,,13,102,1040032,,,,,,,2022-10-19,1,,,,,トゥモローズ,0
1727,7010103002010,新規,0,2022-10-19,2022-10-19,フレーバーオブスリランカ合同会社,,合同会社,東京都,八王子市,川口町１２２４番地１－１０５,,13,201,1930801,,,,,,,2022-10-19,1,,,,,フレーバーオブスリランカ,0
1734,7010405021451,新規,0,2022-10-19,2022-10-19,医療法人社団東興会,,その他の設立登記法人,東京都,港区,赤坂９丁目６番２８号アルベルゴ乃木坂２０４,,13,103,1070052,,,,,,,2022-10-19,1,,,,,トウコウカイ,0
1735,7010405021484,新規,0,2022-10-19,2022-10-19,アザレア巣鴨一般社団法人,,その他の設立登記法人,東京都,港区,六本木１丁目６番１号泉ガーデンタワー,,13,103,1060032,,,,,,,2022-10-19,1,,,,,アザレアスガモ,0
1741,7010601062002,新規,0,2022-10-19,2022-10-19,玖合株式会社,,株式会社,東京都,江東区,大島６丁目２２番６号レジェンド中の橋－３０３号室,,13,108,1360072,,,,,,,2022-10-19,1,,,,,キュウゴウ,0
1742,7010601062010,新規,0,2022-10-19,2022-10-19,株式会社トモアンチエイジング,,株式会社,東京都,江東区,豊洲３丁目６番８－４１０８号,,13,108,1350061,,,,,,,2022-10-19,1,,,,,トモアンチエイジング,0
1758,7011001150396,新規,0,2022-10-19,2022-10-19,株式会社イーネ,,株式会社,東京都,渋谷区,千駄ヶ谷１丁目１３番１１号,,13,113,1510051,,,,,,,2022-10-19,1,,,,,イーネ,0
1759,7011003015498,新規,0,2022-10-19,2022-10-19,合同会社コーナーセカンダリー,,合同会社,東京都,渋谷区,道玄坂１丁目１２番１号渋谷マークシティＷ２２階,,13,113,1500043,,,,,,,2022-10-19,1,,,,,コーナーセカンダリー,0
1761,7011103012288,新規,0,2022-10-19,2022-10-19,合同会社オケラワークス,,合同会社,東京都,新宿区,西新宿３丁目３番１３号西新宿水間ビル２Ｆ,,13,104,1600023,,,,,,,2022-10-19,1,,,,,オケラワークス,0
1763,7011105010447,新規,0,2022-10-19,2022-10-19,目白スカイハイツ管理組合法人,,その他の設立登記法人,東京都,新宿区,下落合３丁目６番２９号目白スカイハイツ管理事務所,,13,104,1610033,,,,,,,2022-10-19,1,,,,,メジロスカイハイツ,0
1769,7011501028563,新規,0,2022-10-19,2022-10-19,株式会社スピード,,株式会社,東京都,荒川区,荒川３丁目２８番８号,,13,118,1160002,,,,,,,2022-10-19,1,,,,,スピード,0
1770,7011501028571,新規,0,2022-10-19,2022-10-19,株式会社令和,,株式会社,東京都,北区,東十条４丁目２番３号,,13,117,1140001,,,,,,,2022-10-19,1,,,,,レイワ,0
1780,7011803005319,新規,0,2022-10-19,2022-10-19,合同会社Ｆｏｒ．Ｄ,,合同会社,東京都,葛飾区,宝町１丁目１０－１１,,13,122,1240005,,,,,,,2022-10-19,1,,,,,フォード,0
1781,7012303001733,新規,0,2022-10-19,2022-10-19,合同会社ＤＤＤ,,合同会社,東京都,町田市,鶴川２丁目１７番地１８アーバンコート鶴川２０２,,13,209,1950061,,,,,,,2022-10-19,1,,,,,ディーディーディー,0
1782,7012401039741,新規,0,2022-10-19,2022-10-19,株式会社ＢａｓｉｎＦｉｌｍｓ,,株式会社,東京都,武蔵野市,吉祥寺北町１丁目２９－３ホワイトオーク２０１,,13,203,1800001,,,,,,,2022-10-19,1,,,,,ベイスンフィルムス,0
1789,7013303006334,新規,0,2022-10-19,2022-10-19,合同会社Ｌｕｔｅｍｏ,,合同会社,東京都,豊島区,高松１丁目６－１３ブランシェ要町３０１,,13,116,1710042,,,,,,,2022-10-19,1,,,,,ルテモ,0
1794,7020001148581,新規,0,2022-10-19,2022-10-19,株式会社ＳＴＡＲＴ　ＬＩＦＥ,,株式会社,神奈川県,横浜市港南区,港南台３丁目１９番２５号,,14,111,2340054,,,,,,,2022-10-19,1,,,,,スタートライフ,0
1795,7020001148623,新規,0,2022-10-19,2022-10-19,株式会社ＴＤ,,株式会社,神奈川県,川崎市幸区,下平間４８番地,,14,132,2120053,,,,,,,2022-10-19,1,,,,,ティーディー,0
1796,7020001148631,新規,0,2022-10-19,2022-10-19,東羅教育株式会社,,株式会社,神奈川県,横浜市青葉区,奈良３丁目８－２７,,14,117,2270038,,,,,,,2022-10-19,1,,,,,トウラキョウイク,0
1799,7020003022594,新規,0,2022-10-19,2022-10-19,ＪＥＴコンサルティング合同会社,,合同会社,神奈川県,横浜市中区,山下町３７番地８グローリオタワー横浜元町４１１号室,,14,104,2310023,,,,,,,2022-10-19,1,,,,,ジェットコンサルティング,0
1803,7021001077218,新規,0,2022-10-19,2022-10-19,株式会社むすぶサポート,,株式会社,神奈川県,鎌倉市,大船３丁目１６－１－１,,14,204,2470056,,,,,,,2022-10-19,1,,,,,ムスブサポート,0
1804,7021001077234,新規,0,2022-10-19,2022-10-19,ＨＡＹＡ　ＪＡＰＡＮ株式会社,,株式会社,神奈川県,藤沢市,宮原１６６６番地の３,,14,205,2520826,,,,,,,2022-10-19,1,,,,,ハヤジャパン,0
1816,7040001125505,新規,0,2022-10-19,2022-10-19,株式会社坂本建築,,株式会社,千葉県,習志野市,津田沼３丁目１０番１０号,,12,216,2750016,,,,,,,2022-10-19,1,,,,,サカモトケンチク,0
1818,7040003021074,新規,0,2022-10-19,2022-10-19,合同会社ＨＥＮＡ　ＩＮＴＥＲＮＡＴＩＯＮＡＬ,,合同会社,千葉県,柏市,あけぼの２丁目５番２０号ジュネエトワール柏１０３号室,,12,217,2770841,,,,,,,2022-10-19,1,,,,,ヘナインターナショナル,0
1838,7090003002185,新規,0,2022-10-19,2022-10-19,合同会社シンカプラス,,合同会社,山梨県,甲斐市,宇津谷４５８５番地３,,19,210,4000108,,,,,,,2022-10-19,1,,,,,シンカプラス,0
1854,7120001249634,新規,0,2022-10-19,2022-10-19,輝騰株式会社,,株式会社,大阪府,大阪市西成区,橘３丁目７番３号,,27,122,5570051,,,,,,,2022-10-19,1,,,,,キトウ,0
1861,7120003022683,新規,0,2022-10-19,2022-10-19,青果青橙合同会社,,合同会社,大阪府,大阪市浪速区,恵美須東１丁目２－２－１階,,27,111,5560002,,,,,,,2022-10-19,1,,,,,セイカセイトウ,0
1862,7120005023250,新規,0,2022-10-19,2022-10-19,一般社団法人一栄会,,その他の設立登記法人,大阪府,大阪市西区,千代崎１丁目９番１号,,27,106,5500023,,,,,,,2022-10-19,1,,,,,イチエイカイ,0
1864,7120101066392,新規,0,2022-10-19,2022-10-19,株式会社Ｍ’ｓ　ｋｉｔｃｈｅｎ,,株式会社,大阪府,河内長野市,千代田台町３番１号,,27,216,5860027,,,,,,,2022-10-19,1,,,,,エムズキッチン,0
1873,7130001072829,新規,0,2022-10-19,2022-10-19,株式会社日本電算機標準システムソリューション,,株式会社,京都府,京都市下京区,東塩小路町７３４番地,,26,106,6000000,,,,,,,2022-10-19,1,,,,,ニホンデンサンキヒョウジュンシステムソリューション,0
1874,7130001072845,新規,0,2022-10-19,2022-10-19,Ｗｏｎｄｅｒ　Ｗａｌｌ株式会社,,株式会社,京都府,京都市下京区,大宮通四条下る四条大宮町１７番地三虎第三ビル２階,,26,106,6008389,,,,,,,2022-10-19,1,,,,,ワンダーウォール,0
1875,7130001072878,新規,0,2022-10-19,2022-10-19,株式会社Ｈａｔｃｈ,,株式会社,京都府,城陽市,寺田垣内後３９番地の２,,26,207,6100121,,,,,,,2022-10-19,1,,,,,ハッチ,0
1885,7140001127697,新規,0,2022-10-19,2022-10-19,株式会社パッション,,株式会社,兵庫県,神戸市中央区,花隈町３番８号花隈富士ビル１Ｆ,,28,110,6500013,,,,,,,2022-10-19,1,,,,,パッション,0
1887,7140003018259,新規,0,2022-10-19,2022-10-19,ＨＩＲＯＳＥ合同会社,,合同会社,兵庫県,神戸市須磨区,神の谷７丁目２番３号,,28,107,6540162,,,,,,,2022-10-19,1,,,,,ヒロセ,0
1905,7180001153442,新規,0,2022-10-19,2022-10-19,順記商事株式会社,,株式会社,愛知県,江南市,石枕町神明１５５番地,,23,217,4838106,,,,,,,2022-10-19,1,,,,,ジュンキショウジ,0
1906,7180001153467,新規,0,2022-10-19,2022-10-19,株式会社Ｒｕｓｈ　Ｆｏｒｗａｒｄ,,株式会社,愛知県,名古屋市熱田区,青池町１丁目３２番地,,23,109,4560075,,,,,,,2022-10-19,1,,,,,ラッシュフォワード,0
1910,7180303005481,新規,0,2022-10-19,2022-10-19,合同会社Ｍ’ｓ　ＡＲＴ,,合同会社,愛知県,豊田市,豊栄町５丁目２９６番地３,,23,211,4701201,,,,,,,2022-10-19,1,,,,,エムズアート,0
1914,7190003004114,新規,0,2022-10-19,2022-10-19,合同会社ＴＡＣＨＩ　ＴＲＡＤＥ,,合同会社,三重県,津市,島崎町１５８番地３１,,24,201,5140002,,,,,,,2022-10-19,1,,,,,タチトレード,0
1915,7200001040563,新規,0,2022-10-19,2022-10-19,株式会社細井業務店,,株式会社,岐阜県,岐阜市,光町１丁目１９番地,,21,201,5020901,,,,,,,2022-10-19,1,,,,,ホソイギョウムテン,0
1929,7260001037331,新規,0,2022-10-19,2022-10-19,Ｃｌｏｔｈｅｓ　Ｍｅｄｉｃａｌ　Ｓｕｐｐｏｒｔ株式会社,,株式会社,岡山県,岡山市東区,浅越７６０－７,,33,103,7048181,,,,,,,2022-10-19,1,,,,,クローズメディカルサポート,0
1940,7290805009597,新規,0,2022-10-19,2022-10-19,一般社団法人障がい者によるＳＤＧｓ,,その他の設立登記法人,福岡県,北九州市門司区,白野江３丁目２８番１号,,40,101,8010802,,,,,,,2022-10-19,1,,,,,ショウガイシャニヨルエスディージーズ,0
1941,7300001013096,新規,0,2022-10-19,2022-10-19,株式会社グラニット,,株式会社,佐賀県,佐賀市,若宮３丁目１番３７号,,41,201,8490926,,,,,,,2022-10-19,1,,,,,グラニット,0
1957,7380003005299,新規,0,2022-10-19,2022-10-19,合同会社Ｉｍａｇｉｎａｒｙ　Ｎｕｍｂｅｒ,,合同会社,福島県,南相馬市,小高区本町１丁目８７小高パイオニアヴィレッジ,,07,212,9792124,,,,,,,2022-10-19,1,,,,,,0
1961,7400003002987,新規,0,2022-10-19,2022-10-19,合同会社青笹農園,,合同会社,岩手県,遠野市,青笹町中沢１２地割１６番地３,,03,208,0280502,,,,,,,2022-10-19,1,,,,,アオザサノウエン,0
1965,7420001018042,新規,0,2022-10-19,2022-10-19,株式会社相模,,株式会社,青森県,平川市,南田中北原３３番地１０,,02,210,0360203,,,,,,,2022-10-19,1,,,,,サガミ,0
1969,7430001087680,新規,0,2022-10-19,2022-10-19,株式会社エール,,株式会社,北海道,札幌市豊平区,月寒東四条７丁目３番２２－３０２号,,01,105,0620054,,,,,,,2022-10-19,1,,,,,エール,0
1972,7430003014385,新規,0,2022-10-19,2022-10-19,合同会社Ｌｏｔｔｙ,,合同会社,北海道,札幌市中央区,南三条東２丁目４二条ＧＣビル１００１,,01,101,0600053,,,,,,,2022-10-19,1,,,,,ロティ,0
1984,8010001230050,新規,0,2022-10-19,2022-10-19,ＴＲＩＧＧＥＲ株式会社,,株式会社,東京都,文京区,関口１丁目５－１０ＡｎｄＷｏｒｋｅｒ神楽坂,,13,105,1120014,,,,,,,2022-10-19,1,,,,,ティガー,0
1990,8010005035685,新規,0,2022-10-19,2022-10-19,那覇西特定目的会社,,その他の設立登記法人,東京都,中央区,日本橋１丁目４番１号日本橋一丁目ビルディング,,13,102,1030027,,,,,,,2022-10-19,1,,,,,ナハニシ,0
1997,8010401170318,新規,0,2022-10-19,2022-10-19,ゴエンキャピタル株式会社,,株式会社,東京都,港区,西新橋１丁目１番１号１０Ｆ,,13,103,1050003,,,,,,,2022-10-19,1,,,,,ゴエンキャピタル,0
1998,8010401170342,新規,0,2022-10-19,2022-10-19,Ｎｅｘｔ　Ａｃｔｉｏｎ株式会社,,株式会社,東京都,港区,南青山２丁目２番１５号,,13,103,1070062,,,,,,,2022-10-19,1,,,,,ネクストアクション,0
2001,8010405021442,新規,0,2022-10-19,2022-10-19,一般財団法人ＤｒｅａｍＢｏｘ,,その他の設立登記法人,東京都,港区,西麻布３丁目２番４７号エスナ六本木６０３号室,,13,103,1060031,,,,,,,2022-10-19,1,,,,,ドリームボックス,0
2002,8010405021483,新規,0,2022-10-19,2022-10-19,アザレア木場一般社団法人,,その他の設立登記法人,東京都,港区,六本木１丁目６番１号泉ガーデンタワー,,13,103,1060032,,,,,,,2022-10-19,1,,,,,アザレアキバ,0
2014,8010801033363,新規,0,2022-10-19,2022-10-19,株式会社ミリー,,株式会社,東京都,大田区,蒲田５丁目２８番４号ＥＣＳ第２７ビル３階,,13,111,1440052,,,,,,,2022-10-19,1,,,,,ミリー,0
2020,8010901051819,新規,0,2022-10-19,2022-10-19,株式会社Ｗｅｅｅｌ,,株式会社,東京都,世田谷区,赤堤３丁目３８－２－２０１,,13,112,1560044,,,,,,,2022-10-19,1,,,,,ウェル,0
2043,8011301028192,新規,0,2022-10-19,2022-10-19,株式会社荻商事,,株式会社,東京都,杉並区,本天沼３丁目１３番５号,,13,115,1670031,,,,,,,2022-10-19,1,,,,,オギショウジ,0
2044,8011303004547,新規,0,2022-10-19,2022-10-19,合同会社Ｋ＆Ｊ,,合同会社,東京都,杉並区,阿佐谷南１丁目２９番１号,,13,115,1660004,,,,,,,2022-10-19,1,,,,,ケイアンドジェイ,0
2045,8011401024604,新規,0,2022-10-19,2022-10-19,いちぜんホーム株式会社,,株式会社,東京都,板橋区,常盤台１丁目７－１１プラウドＭ１０２,,13,119,1740071,,,,,,,2022-10-19,1,,,,,イチゼンホーム,0
2050,8012301013168,新規,0,2022-10-19,2022-10-19,ステージア株式会社,,株式会社,東京都,町田市,本町田３２５８番地６３,,13,209,1940032,,,,,,,2022-10-19,1,,,,,ステージア,0
2054,8012401039749,新規,0,2022-10-19,2022-10-19,株式会社Ｌｕｃａ,,株式会社,東京都,三鷹市,下連雀３丁目２３番８号プロヴィデンス３０２,,13,204,1810013,,,,,,,2022-10-19,1,,,,,ルカ,0
2066,8020001148572,新規,0,2022-10-19,2022-10-19,株式会社Ａｄｄ　Ｃｈａｎｇｅ,,株式会社,神奈川県,横浜市青葉区,荏田西４丁目６番１ドレッセ市ヶ尾ラネイ２１１,,14,117,2250014,,,,,,,2022-10-19,1,,,,,アッドチェンジ,0
2078,8021001077200,新規,0,2022-10-19,2022-10-19,株式会社ＬＩＦＥ　ＲＩＤＥＲ,,株式会社,神奈川県,平塚市,高浜台１８番１１号,,14,203,2540805,,,,,,,2022-10-19,1,,,,,ライフライダー,0
2079,8021001077217,新規,0,2022-10-19,2022-10-19,株式会社ブランドロケット,,株式会社,神奈川県,藤沢市,辻堂元町６丁目１９番５号,,14,205,2510043,,,,,,,2022-10-19,1,,,,,ブランドロケット,0
2080,8021001077225,新規,0,2022-10-19,2022-10-19,株式会社カンキョー防災,,株式会社,神奈川県,相模原市南区,上鶴間７丁目８番１－２０４号,,14,153,2520302,,,,,,,2022-10-19,1,,,,,カンキョーボウサイ,0
2091,8030001150536,新規,0,2022-10-19,2022-10-19,日興産業株式会社,,株式会社,埼玉県,北葛飾郡杉戸町,大字遠野５８５番地１,,11,464,3450031,,,,,,,2022-10-19,1,,,,,ニッコウサンギョウ,0
2101,8040001125495,新規,0,2022-10-19,2022-10-19,株式会社ｈａｎａｂｉ,,株式会社,千葉県,流山市,三輪野山２丁目３３５番地の４１,,12,220,2700175,,,,,,,2022-10-19,1,,,,,ハナビ,0
2103,8040003021107,新規,0,2022-10-19,2022-10-19,合同会社ＲＫ,,合同会社,千葉県,我孫子市,東我孫子２丁目３３―２３,,12,222,2701144,,,,,,,2022-10-19,1,,,,,アールケー,0
2104,8040005021757,新規,0,2022-10-19,2022-10-19,医療法人社団アウル,,その他の設立登記法人,千葉県,市川市,平田２丁目７番２号,,12,203,2720031,,,,,,,2022-10-19,1,,,,,アウル,0
2105,8050001051831,新規,0,2022-10-19,2022-10-19,松本商事株式会社,,株式会社,茨城県,猿島郡境町,８２４番地４プランドール・ツー３０３号,,08,546,3060433,,,,,,,2022-10-19,1,,,,,マツモトショウジ,0
2108,8050003006932,新規,0,2022-10-19,2022-10-19,合同会社山銀,,合同会社,茨城県,土浦市,桜町１丁目１５番１１号,,08,203,3000037,,,,,,,2022-10-19,1,,,,,ヤマギン,0
2110,8060001035354,新規,0,2022-10-19,2022-10-19,株式会社ネイチャートレイル研究所,,株式会社,栃木県,宇都宮市,陽東７丁目１番２号ロボティクス・工農技術研究所,,09,201,3210904,,,,,,,2022-10-19,1,,,,,,0
2115,8080101023570,新規,0,2022-10-19,2022-10-19,て石八株式会社,,株式会社,静岡県,富士宮市,下条１００１番地,,22,207,4180114,,,,,,,2022-10-19,1,,,,,テイシヤ,0
2127,8110001037048,新規,0,2022-10-19,2022-10-19,株式会社ｌｅｅｃａｌ,,株式会社,新潟県,新潟市中央区,天神１丁目１番地プラーカ３,,15,103,9500917,,,,,,,2022-10-19,1,,,,,リーカル,0
2142,8120003022682,新規,0,2022-10-19,2022-10-19,合同会社縁,,合同会社,大阪府,大阪市西成区,山王２丁目９番４号,,27,122,5570001,,,,,,,2022-10-19,1,,,,,ユカリ,0
2151,8130001072803,新規,0,2022-10-19,2022-10-19,株式会社真塗装,,株式会社,京都府,亀岡市,荒塚町１丁目６番１号オーブ荒塚１０６号室,,26,206,6210851,,,,,,,2022-10-19,1,,,,,シントソウ,0
2152,8130001072828,新規,0,2022-10-19,2022-10-19,株式会社ワーキングママ,,株式会社,京都府,京都市中京区,梅忠町２４番地,,26,104,6048136,,,,,,,2022-10-19,1,,,,,ワーキングママ,0
2153,8130001072844,新規,0,2022-10-19,2022-10-19,株式会社ラボトレーディング,,株式会社,京都府,京都市北区,衣笠開キ町８０番地５７,,26,101,6038452,,,,,,,2022-10-19,1,,,,,ラボトレーディング,0
2154,8130001072852,新規,0,2022-10-19,2022-10-19,株式会社ＴＨＲＥＥ　Ｄ　ＰＬＵＳ,,株式会社,京都府,長岡京市,こがねが丘７番地２８,,26,209,6170854,,,,,,,2022-10-19,1,,,,,スリーディプラス,0
2155,8130001072860,新規,0,2022-10-19,2022-10-19,株式会社聖,,株式会社,京都府,京都市伏見区,醍醐京道町２番地２６,,26,109,6011317,,,,,,,2022-10-19,1,,,,,ヒジリ,0
2161,8140001127738,新規,0,2022-10-19,2022-10-19,株式会社創展,,株式会社,兵庫県,宍粟市,山崎町三谷３９番地１,,28,227,6712524,,,,,,,2022-10-19,1,,,,,ソウテン,0
2163,8160001024578,新規,0,2022-10-19,2022-10-19,株式会社ＫＡＴＡＹＡＭＡ,,株式会社,滋賀県,大津市,赤尾町１３番７０号,,25,201,5200864,,,,,,,2022-10-19,1,,,,,カタヤマ,0
2169,8180003024368,新規,0,2022-10-19,2022-10-19,合同会社Ｈａｕ’Ｏｋｉｎａ,,合同会社,愛知県,あま市,甚目寺松山８番地１,,23,237,4901111,,,,,,,2022-10-19,1,,,,,ハウオキナ,0
2179,8230001019554,新規,0,2022-10-19,2022-10-19,株式会社五穀豊穣,,株式会社,富山県,氷見市,北大町５番２７号,,16,205,9350004,,,,,,,2022-10-19,1,,,,,ゴコクホウジョウ,0
2184,8260001037330,新規,0,2022-10-19,2022-10-19,株式会社わのみん,,株式会社,岡山県,岡山市東区,可知５丁目１４番地７２,,33,103,7048173,,,,,,,2022-10-19,1,,,,,ワノミン,0
2190,8290001099186,新規,0,2022-10-19,2022-10-19,株式会社ワンステップソリューションズ,,株式会社,福岡県,福岡市博多区,博多駅前４丁目１６番６号４階,,40,132,8120011,,,,,,,2022-10-19,1,,,,,ワンステップソリューションズ,0
2191,8290001099269,新規,0,2022-10-19,2022-10-19,ＥＢＡ株式会社,,株式会社,福岡県,福岡市中央区,天神１丁目４番１号西日本新聞会館１６階,,40,133,8100001,,,,,,,2022-10-19,1,,,,,エバ,0
2196,8290805009596,新規,0,2022-10-19,2022-10-19,一般社団法人八幡東田エリアマネジメント,,その他の設立登記法人,福岡県,北九州市八幡東区,東田１丁目５番３号,,40,108,8050071,,,,,,,2022-10-19,1,,,,,ヤハタヒガシダエリアマネジメント,0
2197,8300001013104,新規,0,2022-10-19,2022-10-19,株式会社川崎自動車,,株式会社,佐賀県,唐津市,厳木町牧瀬３７５番地３,,41,202,8493113,,,,,,,2022-10-19,1,,,,,カワサキジドウシャ,0
2198,8300003001890,新規,0,2022-10-19,2022-10-19,合同会社ツリー,,合同会社,佐賀県,佐賀市,富士町大字市川２５８２番地１,,41,201,8400503,,,,,,,2022-10-19,1,,,,,ツリー,0
2200,8310001018085,新規,0,2022-10-19,2022-10-19,株式会社ｐｒｉｍａ,,株式会社,長崎県,五島市,三尾野町９９１番地３,,42,211,8530014,,,,,,,2022-10-19,1,,,,,プリマ,0
2206,8330001030204,新規,0,2022-10-19,2022-10-19,株式会社おやま食品,,株式会社,熊本県,山鹿市,方保田１１０８番地２７,,43,208,8610382,,,,,,,2022-10-19,1,,,,,オヤマショクヒン,0
2207,8330001030212,新規,0,2022-10-19,2022-10-19,株式会社リスタート,,株式会社,熊本県,熊本市東区,東京塚町１番１９号,,43,102,8620923,,,,,,,2022-10-19,1,,,,,リスタート,0
2209,8330003009551,新規,0,2022-10-19,2022-10-19,善合同会社,,合同会社,熊本県,熊本市西区,横手４丁目１２番３３号,,43,103,8600046,,,,,,,2022-10-19,1,,,,,ゼン,0
2215,8370001049158,新規,0,2022-10-19,2022-10-19,株式会社ＳＡＳＡＫＩ,,株式会社,宮城県,仙台市泉区,鶴が丘２丁目１４番地の５,,04,105,9813109,,,,,,,2022-10-19,1,,,,,ササキ,0
2226,8400003002986,新規,0,2022-10-19,2022-10-19,合同会社Ｈ．Ａ．Ｄｅｖｅｌｏｐｍｅｎｔ２,,合同会社,岩手県,八幡平市,安比高原１１７番地１７,,03,214,0287306,,,,,,,2022-10-19,1,,,,,エイチエーデベロップメントツー,0
2233,8430001087696,新規,0,2022-10-19,2022-10-19,株式会社ＶＥＮＤＥＬ,,株式会社,北海道,札幌市中央区,北二条西２２丁目３番２０リージェンシー円山・７０２号室,,01,101,0640822,,,,,,,2022-10-19,1,,,,,ベンデル,0
2238,8440003001489,新規,0,2022-10-19,2022-10-19,合同会社ＵＤＩ,,合同会社,北海道,函館市,石川町４５２番地５,,01,202,0410802,,,,,,,2022-10-19,1,,,,,ユーディーアイ,0
2239,8700150109521,新規,0,2022-10-19,2022-06-13,ｉｒｏｄｏｒｉ　ｅｎｓｅｍｂｌｅ,,その他,東京都,世田谷区,上祖師谷１丁目３７－１ハーモニー千歳烏山２１１号室,,13,112,1570065,,,,,,,2022-06-13,1,,,,,イロドリアンサンブル,0
2249,9010001230165,新規,0,2022-10-19,2022-10-19,グリッド株式会社,,株式会社,東京都,千代田区,神田佐久間町１丁目８－４,,13,101,1010025,,,,,,,2022-10-19,1,,,,,グリッド,0
2250,9010001230215,新規,0,2022-10-19,2022-10-19,Ｃｏｌｏｒ　Ｔｒａｖｅｌ　Ｔｅｃｈｎｏｌｏｇｙ株式会社,,株式会社,東京都,千代田区,麹町２丁目５番地４,,13,101,1020083,,,,,,,2022-10-19,1,,,,,カラートラベルテクノロジー,0
2251,9010001230231,新規,0,2022-10-19,2022-10-19,ラブサッカー株式会社,,株式会社,東京都,文京区,本郷１丁目２１－７朝日後楽園３０２号室,,13,105,1130033,,,,,,,2022-10-19,1,,,,,,0
2270,9010601062009,新規,0,2022-10-19,2022-10-19,株式会社ＴＲＡＣ,,株式会社,東京都,江東区,豊洲６丁目４番２号,,13,108,1350061,,,,,,,2022-10-19,1,,,,,トラック,0
2273,9010603009775,新規,0,2022-10-19,2022-10-19,合同会社ＢＬＶＤ,,合同会社,東京都,墨田区,立川４丁目２番１２－６０１号,,13,107,1300023,,,,,,,2022-10-19,1,,,,,ブールバード,0
2274,9010701043354,新規,0,2022-10-19,2022-10-19,Ｂｅｓｄｙ株式会社,,株式会社,東京都,品川区,旗の台６丁目１８番１６号,,13,109,1420064,,,,,,,2022-10-19,1,,,,,ベスディ,0
2303,9011101100539,新規,0,2022-10-19,2022-10-19,児玉ファナティック株式会社,,株式会社,東京都,新宿区,新宿５丁目１８番２０号,,13,104,1600022,,,,,,,2022-10-19,1,,,,,コダマファナティック,0
2304,9011101100555,新規,0,2022-10-19,2022-10-19,株式会社ＡＳＫ,,株式会社,東京都,新宿区,歌舞伎町２丁目８番１２号新宿グリーンプラザ４０１号室,,13,104,1600021,,,,,,,2022-10-19,1,,,,,アスク,0
2306,9011103012278,新規,0,2022-10-19,2022-10-19,合同会社ＩＣＯ,,合同会社,東京都,新宿区,市谷仲之町１番７－２０３号,,13,104,1620064,,,,,,,2022-10-19,1,,,,,アイシーオー,0
2308,9011303004546,新規,0,2022-10-19,2022-10-19,合同会社がくだい,,合同会社,東京都,杉並区,高円寺南２丁目２１－８遠藤ビル２階,,13,115,1660003,,,,,,,2022-10-19,1,,,,,ガクダイ,0
2313,9011601026317,新規,0,2022-10-19,2022-10-19,ヒューマンソリューション株式会社,,株式会社,東京都,練馬区,豊玉北５丁目２２番１０号,,13,120,1760012,,,,,,,2022-10-19,1,,,,,ヒューマンソリューション,0
2316,9013301049812,新規,0,2022-10-19,2022-10-19,株式会社ロジネット,,株式会社,東京都,豊島区,池袋４丁目２９－１１,,13,116,1710014,,,,,,,2022-10-19,1,,,,,ロジネット,0
2328,9020003022493,新規,0,2022-10-19,2022-10-19,ＧＡＮＥＳＨＡ合同会社,,合同会社,神奈川県,横浜市神奈川区,菅田町２０８９,,14,102,2210864,,,,,,,2022-10-19,1,,,,,ガネーシャ,0
2336,9021001077224,新規,0,2022-10-19,2022-10-19,株式会社美貝,,株式会社,神奈川県,座間市,立野台１丁目４番１８号,,14,216,2520023,,,,,,,2022-10-19,1,,,,,ミカイ,0
2349,9030001150634,新規,0,2022-10-19,2022-10-19,株式会社ＫＯＮＮＯ,,株式会社,埼玉県,吉川市,新栄２丁目７番地２１,,11,243,3420059,,,,,,,2022-10-19,1,,,,,コンノ,0
2350,9030001150642,新規,0,2022-10-19,2022-10-19,株式会社Ｈｅｌｉｏｔｒｏｐｅ＆ｊｐ,,株式会社,埼玉県,蕨市,北町１丁目２１番２号,,11,223,3350001,,,,,,,2022-10-19,1,,,,,ヘリオトロープアンドジャパン,0
2353,9030003020430,新規,0,2022-10-19,2022-10-19,合同会社ヨシオカ,,合同会社,埼玉県,飯能市,本町２－１５,,11,209,3570032,,,,,,,2022-10-19,1,,,,,ヨシオカ,0
2357,9040001125494,新規,0,2022-10-19,2022-10-19,株式会社スクランブルポイント,,株式会社,千葉県,流山市,三輪野山２丁目３３５番地の４１,,12,220,2700175,,,,,,,2022-10-19,1,,,,,スクランブルポイント,0
2361,9050001051830,新規,0,2022-10-19,2022-10-19,株式会社ＭＡ　ＴＲＡＤＩＮＧ,,株式会社,茨城県,坂東市,逆井３５３６番地１０７号室,,08,228,3060501,,,,,,,2022-10-19,1,,,,,エムエートレーディング,0
2384,9120001249491,新規,0,2022-10-19,2022-10-19,暮らしのおそうじ総本店株式会社,,株式会社,大阪府,大阪市港区,市岡元町２丁目１４番１１号,,27,107,5520002,,,,,,,2022-10-19,1,,,,,クラシノオソウジソウホンテン,0
2385,9120001249517,新規,0,2022-10-19,2022-10-19,株式会社プログレス,,株式会社,大阪府,大阪市淀川区,西中島５丁目７番１１号第８新大阪ビル７０１,,27,123,5320011,,,,,,,2022-10-19,1,,,,,プログレス,0
2386,9120001249624,新規,0,2022-10-19,2022-10-19,株式会社歯保,,株式会社,大阪府,大阪市天王寺区,六万体町５番１２－４０１号,,27,109,5430074,,,,,,,2022-10-19,1,,,,,シホ,0
2397,9120901046625,新規,0,2022-10-19,2022-10-19,株式会社プレイズ,,株式会社,大阪府,池田市,菅原町１番９号下村ビル２Ｆ,,27,204,5630055,,,,,,,2022-10-19,1,,,,,プレイズ,0
2403,9120905006385,新規,0,2022-10-19,2022-10-19,一般社団法人すばるアセットマネジメント,,その他の設立登記法人,大阪府,豊中市,庄内栄町１丁目４番１４号,,27,203,5610834,,,,,,,2022-10-19,1,,,,,スバルアセットマネジメント,0
2405,9122001036325,新規,0,2022-10-19,2022-10-19,ＡＮＦＩＮＩ株式会社,,株式会社,大阪府,東大阪市,森河内西１丁目２０番１９号,,27,227,5770061,,,,,,,2022-10-19,1,,,,,アンフィニ,0
2434,9140003018257,新規,0,2022-10-19,2022-10-19,合同会社関西フレーバー,,合同会社,兵庫県,神戸市須磨区,横尾３丁目１２番地６,,28,107,6540131,,,,,,,2022-10-19,1,,,,,カンサイフレーバー,0
2437,9160003002705,新規,0,2022-10-19,2022-10-19,合同会社ＪＩＲＯ,,合同会社,滋賀県,大津市,真野２丁目２７番８号,,25,201,5200232,,,,,,,2022-10-19,1,,,,,ジロウ,0
2438,9160005011134,新規,0,2022-10-19,2022-10-19,グランドール南草津管理組合法人,,その他の設立登記法人,滋賀県,草津市,東矢倉４丁目１４番２２号,,25,206,5250054,,,,,,,2022-10-19,1,,,,,グランドールミナミクサツ,0
2440,9180001153465,新規,0,2022-10-19,2022-10-19,株式会社Ｆｏｒｅｓｔ　Ａｒｔ,,株式会社,愛知県,春日井市,上田楽町２５７８番地４８,,23,206,4860801,,,,,,,2022-10-19,1,,,,,フォレストアート,0
2449,9180305009405,新規,0,2022-10-19,2022-10-19,特定非営利活動法人みーわいーな,,その他の設立登記法人,愛知県,岡崎市,中園町字忠田３７番地１ユーハウス第５岡崎３０４,,23,202,4440942,,,,,,,2022-10-19,1,,,,,ミーワイーナ,0
2454,9200003005711,新規,0,2022-10-19,2022-10-19,ＢＡＮＨＭＩ　ＳＡＩＧＯＮ合同会社,,合同会社,岐阜県,山県市,東深瀬１８３番地１０,,21,215,5012104,,,,,,,2022-10-19,1,,,,,バインミーサイゴン,0
2458,9240001060515,新規,0,2022-10-19,2022-10-19,Ｍａｖｅｒｉｃｋ株式会社,,株式会社,広島県,東広島市,西条町助実７番地１４,,34,212,7390021,,,,,,,2022-10-19,1,,,,,マーヴェリック,0
2459,9240001060523,新規,0,2022-10-19,2022-10-19,長原地質株式会社,,株式会社,広島県,江田島市,能美町高田３３３８番地,,34,215,7372303,,,,,,,2022-10-19,1,,,,,ナガハラチシツ,0
2469,9290001099268,新規,0,2022-10-19,2022-10-19,ＦＦＧ投信設立準備株式会社,,株式会社,福岡県,福岡市中央区,大手門１丁目８番３号,,40,133,8100074,,,,,,,2022-10-19,1,,,,,エフエフジートウシンセツリツジュンビ,0
2474,9310001018084,新規,0,2022-10-19,2022-10-19,株式会社アイエステート,,株式会社,長崎県,諫早市,小船越町５７１番地５６,,42,204,8540062,,,,,,,2022-10-19,1,,,,,アイエステート,0
2476,9320001019379,新規,0,2022-10-19,2022-10-19,株式会社ＫｉｎｏａＨ,,株式会社,大分県,豊後大野市,三重町赤嶺２９５６番地１,,44,212,8797111,,,,,,,2022-10-19,1,,,,,キノア,0
2479,9330001030203,新規,0,2022-10-19,2022-10-19,ナワズ株式会社,,株式会社,熊本県,葦北郡津奈木町,大字岩城２３９４番地３,,43,484,8695603,,,,,,,2022-10-19,1,,,,,ナワズ,0
2489,9360001031090,新規,0,2022-10-19,2022-10-19,株式会社ＳＴＹホールディングス,,株式会社,沖縄県,宮古島市,平良字西里８８５番地,,47,214,9060012,,,,,,,2022-10-19,1,,,,,エスティーワイホールディングス,0
2490,9360005006733,新規,0,2022-10-19,2022-10-19,一般社団法人ＳＴＹ管財,,その他の設立登記法人,沖縄県,宮古島市,平良字西里８８５番地,,47,214,9060012,,,,,,,2022-10-19,1,,,,,エスティーワイカンザイ,0
2518,9700150111773,新規,0,2022-10-19,2022-09-21,佐賀県発明協会,,その他,佐賀県,佐賀市,鍋島町大字八戸溝１１４佐賀県工業技術センター内,,41,201,8490932,,,,,,,2022-09-21,1,,,,,サガケンハツメイキヨウカイ,0
2519,9700150111996,新規,0,2022-10-19,2022-10-05,芸術団体プリエール,,その他,熊本県,上天草市,松島町合津２７７３番地５,,43,212,8616102,,,,,,,2022-10-05,1,,,,,ゲイジユツダンタイプリエール,0
