sequenceNumber,corporateNumber,process,correct,updateDate,changeDate,name,nameImageId,kind,prefectureName,cityName,streetNumber,addressImageId,prefectureCode,cityCode,postCode,addressOutside,addressOutsideImageId,closeDate,closeCause,successorCorporateNumber,changeCause,assignmentDate,latest,enName,enPrefectureName,enCityName,enAddressOutside,furigana,hihyoji
18,1010401026286,登記記録の閉鎖等,0,2025-05-23,2025-04-18,プライムジャパン株式会社,,株式会社,東京都,港区,赤坂３丁目１１番１４号,,13,103,1070052,,,2025-04-18,清算の結了等,,,2015-10-05,1,,,,,プライムジャパン,0
21,1010401181899,登記記録の閉鎖等,0,2025-05-23,2025-04-18,Ｓｐａｉｋｅ株式会社,,株式会社,東京都,港区,赤坂４丁目８番１９号赤坂フロントタウン３階,,13,103,1070052,,,2025-04-18,清算の結了等,,,2024-04-18,1,,,,,スパイク,0
26,1010405020517,登記記録の閉鎖等,0,2025-05-23,2025-04-21,Ｓａｋｕｒａ　Ｉｎｖｅｓｔｍｅｎｔ　Ｈｏｌｄｉｎｇｓ一般社団法人,,その他の設立登記法人,東京都,港区,六本木１丁目９番１０号アークヒルズ仙石山森タワー４０階,,13,103,1060032,,,2025-04-21,清算の結了等,,,2021-12-14,1,,,,,サクラインベストメントホールディングス,0
27,1010501005702,登記記録の閉鎖等,0,2025-05-23,2025-04-22,株式会社ワールドコーポレーション,,株式会社,東京都,港区,芝大門２丁目５番５号,,13,103,1050012,,,2025-04-22,清算の結了等,,,2015-10-05,1,,,,,ワールドコーポレーション,0
44,1011001159815,登記記録の閉鎖等,0,2025-05-23,2025-04-22,株式会社ｆｉｂｏｎａ,,株式会社,東京都,渋谷区,渋谷２丁目１９－１５宮益坂ビルディング６０９,,13,113,1500002,,,2025-04-22,清算の結了等,,,2024-02-06,1,,,,,フィボナ,0
58,1011103005594,登記記録の閉鎖等,0,2025-05-23,2025-05-01,合同会社アームストロングエステーツ,,合同会社,東京都,新宿区,新宿７丁目３番１６号,,13,104,1600022,,,2025-05-01,清算の結了等,,,2015-10-05,1,,,,,アームストロングエステーツ,0
91,1013302004369,登記記録の閉鎖等,0,2025-05-23,2025-05-02,五洋観光有限会社,,有限会社,東京都,豊島区,西池袋１丁目３９番１号,,13,116,1710021,,,2025-05-02,清算の結了等,,,2015-10-05,1,,,,,ゴヨウカンコウ,0
102,1020002073834,登記記録の閉鎖等,0,2025-05-23,2025-05-19,有限会社ジーエヌ工業,,有限会社,神奈川県,横浜市緑区,東本郷３丁目４３番８号,,14,113,2260002,,,2025-05-19,清算の結了等,,,2015-10-05,1,,,,,ジーエヌコウギョウ,0
115,1030002096108,登記記録の閉鎖等,0,2025-05-23,2025-05-19,有限会社東松板金工業,,有限会社,埼玉県,東松山市,大字松山２４８８番地１０３,,11,212,3550005,,,2025-05-19,清算の結了等,,,2015-10-05,1,,,,,トウショウバンキンコウギョウ,0
127,1050001025734,登記記録の閉鎖等,0,2025-05-23,2025-05-19,株式会社ハイドロケア,,株式会社,茨城県,龍ケ崎市,松葉５丁目８番地１８,,08,208,3010043,,,2025-05-19,清算の結了等,,,2015-10-05,1,,,,,ハイドロケア,0
142,1080103001903,登記記録の閉鎖等,0,2025-05-23,2025-05-21,フルヤ商事合同会社,,合同会社,静岡県,伊豆の国市,古奈１２０番地の４,,22,225,4102201,,,2025-05-21,清算の結了等,,,2018-10-25,1,,,,,フルヤショウジ,0
158,1120001236976,登記記録の閉鎖等,0,2025-05-23,2025-05-20,大栄商事株式会社,,株式会社,神奈川県,横浜市中区,山下町２２３番地ＩＮＵ関内ビル４Ｆ－Ａ,,14,104,2310023,,,2025-05-20,清算の結了等,,,2021-04-22,1,,,,,ダイエイショウジ,0
178,1122002005781,登記記録の閉鎖等,0,2025-05-23,2025-05-16,昭和自動制御有限会社,,有限会社,大阪府,東大阪市,小若江１丁目３番１０号,,27,227,5770818,,,2025-05-16,清算の結了等,,,2015-10-05,1,,,,,ショウワジドウセイギョ,0
179,1130001001553,登記記録の閉鎖等,0,2025-05-23,2025-05-21,株式会社リフレクション,,株式会社,京都府,京都市右京区,嵯峨天龍寺車道町８番地,,26,108,6168373,,,2025-05-21,清算の結了等,,,2015-10-05,1,,,,,リフレクション,0
181,1130005003967,登記記録の閉鎖等,0,2025-05-23,2025-05-21,医療法人野原診療所,,その他の設立登記法人,京都府,京都市西京区,桂巽町５７番地の４,00038552,26,111,6158075,,,2025-05-21,清算の結了等,,,2015-10-05,1,,,,,ノハラシンリョウショ,0
214,1230002011153,登記記録の閉鎖等,0,2025-05-23,2025-05-21,有限会社笹舘組,,有限会社,富山県,高岡市,辻１８２番地の２,00079152,16,202,9330835,,,2025-05-21,清算の結了等,,,2015-10-05,1,,,,,ササダテクミ,0
244,1370601000617,登記記録の閉鎖等,0,2025-05-23,2025-05-02,株式会社トオハ,,株式会社,宮城県,宮城郡利府町,しらかし台６丁目３番５,,04,406,9810134,,,2025-05-02,合併による解散等,3370001005693,令和７年５月１日宮城県富谷市富谷日渡３４番地１１東洋刃物株式会社（3370001005693）に合併し解散,2015-10-05,1,,,,,トオハ,0
260,1470002004397,登記記録の閉鎖等,0,2025-05-23,2025-05-22,有限会社竹本商店,,有限会社,香川県,高松市,香西本町４８６番地２,,37,201,7618012,,,2025-05-22,清算の結了等,,,2015-10-05,1,,,,,タケモトショウテン,0
263,2010001093528,登記記録の閉鎖等,0,2025-05-23,2025-05-02,株式会社バンガード・コーポレーション,,株式会社,東京都,中央区,佃２丁目１１番６－２３０５号,,13,102,1040051,,,2025-05-02,清算の結了等,,,2015-10-05,1,,,,,バンガードコーポレーション,0
269,2010001209505,登記記録の閉鎖等,0,2025-05-23,2025-05-02,株式会社博為知,,株式会社,東京都,中央区,銀座１丁目２２番１１号,,13,102,1040061,,,2025-05-02,清算の結了等,,,2020-05-11,1,,,,,ハクイチ,0
287,2010401157213,登記記録の閉鎖等,0,2025-05-23,2025-04-18,ＥＲＡＷＡＫＥ株式会社,,株式会社,東京都,港区,南青山２丁目２番８号ＤＦビル６階,,13,103,1070062,,,2025-04-18,清算の結了等,,,2020-12-23,1,,,,,エラウエイク,0
300,2010601012911,登記記録の閉鎖等,0,2025-05-23,2025-05-19,株式会社舘野鐵工所,,株式会社,東京都,荒川区,西日暮里２丁目２０番１号,,13,118,1160013,,,2025-05-19,清算の結了等,,,2015-10-05,1,,,,,タテノテッコウショ,0
327,2011103010767,登記記録の閉鎖等,0,2025-05-23,2025-04-30,合同会社ジェイ・ヴイ・エックス,,合同会社,東京都,新宿区,下宮比町１番４号,,13,104,1620822,,,2025-04-30,清算の結了等,,,2021-06-16,1,,,,,ジェイヴイエックス,0
328,2011103012607,登記記録の閉鎖等,0,2025-05-23,2025-04-30,合同会社ＥＳ５３,,合同会社,東京都,新宿区,下宮比町１番４号,,13,104,1620822,,,2025-04-30,清算の結了等,,,2023-01-17,1,,,,,イーエスゴジュウサン,0
357,2021002053057,登記記録の閉鎖等,0,2025-05-23,2025-05-15,有限会社本多時計店,,有限会社,神奈川県,小田原市,城山１丁目４番１－１００６号,,14,206,2500045,,,2025-05-15,清算の結了等,,,2015-10-05,1,,,,,ホンダトケイテン,0
370,2030005018495,登記記録の閉鎖等,0,2025-05-23,2025-05-19,一般社団法人社福サポートつばさ,,その他の設立登記法人,埼玉県,川越市,新宿町１丁目１６番地４,,11,201,3501124,,,2025-05-19,清算の結了等,,,2017-05-10,1,,,,,シャフクサポートツバサ,0
396,2100002030925,登記記録の閉鎖等,0,2025-05-23,2025-05-21,有限会社田舎家,,有限会社,長野県,岡谷市,本町３丁目１０番２号,,20,204,3940028,,,2025-05-21,清算の結了等,,,2015-10-05,1,,,,,イナカヤ,0
398,2110001000861,登記記録の閉鎖等,0,2025-05-23,2025-05-12,北陸中山管財株式会社,,株式会社,新潟県,新潟市東区,中山７丁目３４番１０号,,15,102,9500861,,,2025-05-12,清算の結了等,,,2015-10-05,1,,,,,ホクリクナカヤマカンザイ,0
399,2110001030974,登記記録の閉鎖等,0,2025-05-23,2025-05-09,Ｒｉｎ　Ｉｎｖｅｓｔｍｅｎｔ株式会社,,株式会社,新潟県,新潟市中央区,関屋金衛町１丁目１７０番地,,15,103,9518167,,,2025-05-09,清算の結了等,,,2015-10-05,1,,,,,リンインベストメント,0
426,2130002035137,登記記録の閉鎖等,0,2025-05-23,2025-05-20,有限会社ばら商事,,有限会社,奈良県,奈良市,右京４丁目２番地２０,,29,201,6310805,,,2025-05-20,清算の結了等,,,2015-10-05,1,,,,,バラショウジ,0
427,2140001018100,登記記録の閉鎖等,0,2025-05-23,2025-05-21,神戸設計工業株式会社,,株式会社,兵庫県,神戸市須磨区,妙法寺字石仏谷１１６１番地の３,,28,107,6540121,,,2025-05-21,清算の結了等,,,2015-10-05,1,,,,,,0
428,2140001055614,登記記録の閉鎖等,0,2025-05-23,2025-05-21,株式会社Ｖａｌｕｅ,,株式会社,兵庫県,尼崎市,塚口町１丁目１７番８号,,28,202,6610002,,,2025-05-21,清算の結了等,,,2015-10-05,1,,,,,バリュー,0
430,2140002025599,登記記録の閉鎖等,0,2025-05-23,2025-05-21,有限会社ベルク・オプティーク,,有限会社,兵庫県,神戸市北区,緑町７丁目２番３号ＭＤビルＩＩ３階,00040774,28,109,6511221,,,2025-05-21,清算の結了等,,,2015-10-05,1,,,,,ベルクオプティーク,0
436,2160003000921,登記記録の閉鎖等,0,2025-05-23,2025-05-21,西山設計合同会社,,合同会社,滋賀県,犬上郡豊郷町,大字沢２６８番地２,,25,441,5291175,,,2025-05-21,清算の結了等,,,2015-10-05,1,,,,,ニシヤマセッケイ,0
445,2180305006615,登記記録の閉鎖等,0,2025-05-23,2025-05-20,一般社団法人日独スポーツアカデミー協会,,その他の設立登記法人,愛知県,豊田市,若林東町棚田１４１番地８,,23,211,4730914,,,2025-05-20,清算の結了等,,,2015-10-05,1,,,,,ニチドクスポーツアカデミーキョウカイ,0
464,2310005003279,登記記録の閉鎖等,0,2025-05-23,2025-05-21,医療法人山崎医院,00096378,その他の設立登記法人,長崎県,西海市,崎戸町蠣浦郷１８０６番地２３,,42,212,8573101,,,2025-05-21,清算の結了等,,,2015-10-05,1,,,,,ヤマサキイイン,0
470,2350002014944,登記記録の閉鎖等,0,2025-05-23,2025-05-20,有限会社マルマサ,,有限会社,宮崎県,都城市,小松原町１１６１番地３,,45,202,8850022,,,2025-05-20,清算の結了等,,,2015-10-05,1,,,,,マルマサ,0
475,2360003011592,登記記録の閉鎖等,0,2025-05-23,2025-05-14,アイアンドウェイ合同会社,,合同会社,沖縄県,那覇市,字仲井真３９８番地４７・２階,,47,201,9020074,,,2025-05-14,清算の結了等,,,2021-11-24,1,,,,,アイアンドウェイ,0
476,2370002000199,登記記録の閉鎖等,0,2025-05-23,2025-05-12,有限会社一心商亊,,有限会社,宮城県,仙台市泉区,寺岡１丁目８番地の３０,,04,105,9813204,,,2025-05-12,清算の結了等,,,2015-10-05,1,,,,,イッシンショウジ,0
477,2370005000485,登記記録の閉鎖等,0,2025-05-23,2025-05-14,神道大教あかつき仙台分教会,,その他の設立登記法人,宮城県,仙台市若林区,河原町１丁目６番１９号,,04,103,9840816,,,2025-05-14,清算の結了等,,,2015-10-05,1,,,,,シンドウタイキョウアカツキセンダイブンキョウカイ,0
481,2400605000419,登記記録の閉鎖等,0,2025-05-23,2025-04-30,前沢商業協同組合,,その他の設立登記法人,岩手県,奥州市,前沢字七日町裏７１番地,,03,215,0294208,,,2025-04-30,清算の結了等,,,2015-10-05,1,,,,,マエサワショウギョウ,0
488,2430005010643,登記記録の閉鎖等,0,2025-05-23,2025-05-20,特定非営利活動法人ひと花,,その他の設立登記法人,北海道,札幌市西区,平和二条７丁目１１番２６号,,01,107,0630022,,,2025-05-20,清算の結了等,,,2015-10-05,1,,,,,ヒトハナ,0
489,2450002012517,登記記録の閉鎖等,0,2025-05-23,2025-05-14,有限会社スガワラ食品,,有限会社,北海道,増毛郡増毛町,稲葉町１丁目８番１,,01,481,0770204,,,2025-05-14,清算の結了等,,,2015-10-05,1,,,,,スガワラショクヒン,0
508,3010005029353,登記記録の閉鎖等,0,2025-05-23,2025-05-21,Ｇａｍｍａ　Ｉｎｖｅｓｔｍｅｎｔ　Ｊａｐａｎ一般社団法人,,その他の設立登記法人,東京都,千代田区,丸の内１丁目４番１号東京共同会計事務所内,,13,101,1000005,,,2025-05-21,清算の結了等,,,2018-11-14,1,,,,,ガンマインベストメントジャパン,0
509,3010005031598,登記記録の閉鎖等,0,2025-05-23,2025-05-21,一般社団法人エコフレンドリー,,その他の設立登記法人,東京都,中央区,銀座１丁目６番１１号土志田ビルディング３Ｆ,,13,102,1040061,,,2025-05-21,清算の結了等,,,2020-03-17,1,,,,,エコフレンドリー,0
519,3010401041639,登記記録の閉鎖等,0,2025-05-23,2025-05-20,株式会社コーポレイト・ユニバーシティ・プラットフォーム,,株式会社,東京都,世田谷区,深沢１丁目８番４－７０４号組織調査研究所内,,13,112,1580081,,,2025-05-20,清算の結了等,,,2015-10-05,1,,,,,コーポレイトユニバーシティプラットフォーム,0
520,3010401087905,登記記録の閉鎖等,0,2025-05-23,2025-04-18,ケイアンドカンパニー株式会社,,株式会社,東京都,港区,虎ノ門３丁目６番２号,,13,103,1050001,,,2025-04-18,清算の結了等,,,2015-10-05,1,,,,,ケイアンドカンパニー,0
535,3010705002997,登記記録の閉鎖等,0,2025-05-23,2025-04-25,ベスパ税理士法人,,その他の設立登記法人,東京都,品川区,上大崎２丁目１５番１９号,,13,109,1410021,,,2025-04-25,清算の結了等,,,2019-11-08,1,,,,,ベスパ,0
596,3020001007254,登記記録の閉鎖等,0,2025-05-23,2025-05-21,株式会社甲斐建設,,株式会社,神奈川県,横浜市戸塚区,平戸２丁目１７番３号,,14,110,2440802,,,2025-05-21,清算の結了等,,,2015-10-05,1,,,,,カイケンセツ,0
597,3020001015918,登記記録の閉鎖等,0,2025-05-23,2025-05-21,株式会社富士見屋,,株式会社,神奈川県,横浜市西区,伊勢町２丁目１０１番地,,14,103,2200045,,,2025-05-21,清算の結了等,,,2015-10-05,1,,,,,フジミヤ,0
605,3020003023646,登記記録の閉鎖等,0,2025-05-23,2025-05-15,合同会社マーベルハウス,,合同会社,神奈川県,横浜市鶴見区,東寺尾北台５－８－３０４,,14,101,2300016,,,2025-05-15,清算の結了等,,,2023-04-03,1,,,,,マーベルハウス,0
616,3040001006881,登記記録の閉鎖等,0,2025-05-23,2025-05-07,白門建設株式会社,,株式会社,千葉県,千葉市稲毛区,小仲台４丁目１２番６号,,12,103,2630043,,,2025-05-07,清算の結了等,,,2015-10-05,1,,,,,ハクモンケンセツ,0
621,3040002095049,登記記録の閉鎖等,0,2025-05-23,2025-05-20,有限会社是空,,有限会社,茨城県,桜川市,友部８１６番地６,,08,231,3091453,,,2025-05-20,清算の結了等,,,2015-10-05,1,,,,,ゼクウ,0
631,3060002015442,登記記録の閉鎖等,0,2025-05-23,2025-05-20,有限会社安田組,,有限会社,栃木県,日光市,小林２３４１番地,,09,206,3212352,,,2025-05-20,清算の結了等,,,2015-10-05,1,,,,,ヤスダグミ,0
639,3070002010707,登記記録の閉鎖等,0,2025-05-23,2025-05-19,有限会社高崎防錆工業所,00025562,有限会社,群馬県,高崎市,浜尻町７７９番地,,10,202,3700005,,,2025-05-19,清算の結了等,,,2015-10-05,1,,,,,タカサキボウショウコウギョウショ,0
657,3120001080019,登記記録の閉鎖等,0,2025-05-23,2025-05-13,株式会社サンウェル・ジャパン,,株式会社,大阪府,大阪市中央区,本町４丁目１番１３号,,27,128,5410053,,,2025-05-13,清算の結了等,,,2015-10-05,1,,,,,サンウェルジャパン,0
680,3130001034295,登記記録の閉鎖等,0,2025-05-23,2025-05-21,株式会社Ｉ．Ｎ．Ｅ,,株式会社,京都府,宇治市,槇島町十一９３番地１,,26,204,6110041,,,2025-05-21,清算の結了等,,,2015-10-05,1,,,,,,0
681,3130001051654,登記記録の閉鎖等,0,2025-05-23,2025-05-21,ケイトランス株式会社,,株式会社,京都府,綴喜郡宇治田原町,大字郷之口小字池ノ首５５番２,,26,344,6100255,,,2025-05-21,清算の結了等,,,2015-10-05,1,,,,,ケイトランス,0
689,3140001058896,登記記録の閉鎖等,0,2025-05-23,2025-05-21,山陽運輸株式会社,,株式会社,兵庫県,姫路市,北条口２丁目１８番地,,28,201,6700935,,,2025-05-21,清算の結了等,,,2015-10-05,1,,,,,サンヨウウンユ,0
694,3140001115648,登記記録の閉鎖等,0,2025-05-23,2025-05-20,株式会社ＮｅｘｔＣａｒｅ,,株式会社,兵庫県,明石市,二見町東二見１６８０－２,,28,203,6740092,,,2025-05-20,清算の結了等,,,2019-11-28,1,,,,,ネクストケア,0
700,3150003002158,登記記録の閉鎖等,0,2025-05-23,2025-05-12,合同会社ＢＯＢ　ＦＩＣＫＥＳ　ＪＡＰＡＮ,,合同会社,大阪府,大阪市浪速区,元町１丁目３番１８－６０３号,,27,111,5560016,,,2025-05-12,清算の結了等,,,2020-06-12,1,,,,,ボブフィックスジャパン,0
728,3270001007411,登記記録の閉鎖等,0,2025-05-23,2025-05-21,株式会社ランドマックス,,株式会社,鳥取県,東伯郡琴浦町,大字赤碕１７９６番地２,,31,371,6892501,,,2025-05-21,清算の結了等,,,2017-12-06,1,,,,,ランドマックス,0
729,3290001024859,登記記録の閉鎖等,0,2025-05-23,2025-05-13,株式会社Ｂ２,,株式会社,福岡県,那珂川市,松木１丁目１０番地１０５,,40,231,8111251,,,2025-05-13,清算の結了等,,,2015-10-05,1,,,,,ビーツー,0
730,3290001049732,登記記録の閉鎖等,0,2025-05-23,2025-05-13,ヤマト産業株式会社,,株式会社,福岡県,久留米市,東合川８丁目６番３５号,,40,203,8390809,,,2025-05-13,清算の結了等,,,2015-10-05,1,,,,,ヤマトサンギョウ,0
745,3330002023946,登記記録の閉鎖等,0,2025-05-23,2025-05-15,有限会社松橋鉄筋工業,,有限会社,熊本県,宇城市,松橋町南豊崎６７８番地の１,,43,213,8690543,,,2025-05-15,清算の結了等,,,2024-08-23,1,,,,,マツバセテッキンコウギョウ,0
750,3360001000456,登記記録の閉鎖等,0,2025-05-23,2025-05-02,沖縄第一交通株式会社,,株式会社,沖縄県,那覇市,字天久１１９０番地,,47,201,9000005,,,2025-05-02,合併による解散等,2360001005530,令和７年５月１日沖縄県那覇市字天久１１９０番地４那覇第一交通株式会社（2360001005530）に合併し解散,2015-10-05,1,,,,,オキナワダイイチコウツウ,0
760,3370201002012,登記記録の閉鎖等,0,2025-05-23,2025-05-14,狩野食品株式会社,,株式会社,宮城県,大崎市,鳴子温泉字湯元２４番地,,04,215,9896823,,,2025-05-14,清算の結了等,,,2015-10-05,1,,,,,カリノショクヒン,0
762,3400002010094,登記記録の閉鎖等,0,2025-05-23,2025-05-07,有限会社ふくのや食品,,有限会社,岩手県,北上市,藤沢１５地割１１１番地２,,03,206,0240013,,,2025-05-07,清算の結了等,,,2015-10-05,1,,,,,フクノヤショクヒン,0
766,3430002044296,登記記録の閉鎖等,0,2025-05-23,2025-05-22,有限会社北広島印章印刷,,有限会社,北海道,北広島市,大曲南ヶ丘１丁目４番地,,01,234,0611275,,,2025-05-22,清算の結了等,,,2015-10-05,1,,,,,,0
774,4010001069344,登記記録の閉鎖等,0,2025-05-23,2025-05-02,ロイヤル・パートナーズ株式会社,,株式会社,東京都,千代田区,岩本町２丁目４番３号,,13,101,1010032,,,2025-05-02,清算の結了等,,,2015-10-05,1,,,,,ロイヤルパートナーズ,0
789,4010401032430,登記記録の閉鎖等,0,2025-05-23,2025-04-21,株式会社ピーエムサービス,,株式会社,東京都,港区,浜松町１丁目１２番４号,,13,103,1050013,,,2025-04-21,清算の結了等,,,2015-10-05,1,,,,,ピーエムサービス,0
814,4010901055030,登記記録の閉鎖等,0,2025-05-23,2025-05-16,ＷｉｎｄｙＭａｐｌｅ株式会社,,株式会社,東京都,世田谷区,世田谷１丁目４１番２号,,13,112,1540017,,,2025-05-16,清算の結了等,,,2024-04-08,1,,,,,ウインディメイプル,0
832,4011101074176,登記記録の閉鎖等,0,2025-05-23,2025-05-01,株式会社ＺＴＯ,,株式会社,東京都,新宿区,西新宿８丁目１６番１－５１３号,,13,104,1600023,,,2025-05-01,清算の結了等,,,2015-10-05,1,,,,,ゼットティーオー,0
853,4011802014471,登記記録の閉鎖等,0,2025-05-23,2025-05-20,有限会社鈴木薬局,,有限会社,東京都,足立区,千住緑町２丁目１０番１３号,,13,121,1200044,,,2025-05-20,清算の結了等,,,2015-10-05,1,,,,,スズキヤッキョク,0
866,4020003014181,登記記録の閉鎖等,0,2025-05-23,2025-05-20,合同会社ＡＲＵ,,合同会社,神奈川県,川崎市宮前区,南平台２０番３３号,,14,136,2160024,,,2025-05-20,清算の結了等,,,2018-04-11,1,,,,,エーアールユー,0
871,4021001075884,登記記録の閉鎖等,0,2025-05-23,2025-05-21,株式会社ＢＳＤ,,株式会社,神奈川県,相模原市中央区,相模原４丁目８－１３－２０２,,14,152,2520231,,,2025-05-21,清算の結了等,,,2022-05-10,1,,,,,ビーエスディー,0
880,4030002110138,登記記録の閉鎖等,0,2025-05-23,2025-05-20,有限会社藤重,,有限会社,埼玉県,川口市,東川口４丁目３０番３２号,,11,203,3330801,,,2025-05-20,清算の結了等,,,2015-10-05,1,,,,,フジシゲ,0
894,4050002008917,登記記録の閉鎖等,0,2025-05-23,2025-05-20,有限会社豊栄,,有限会社,茨城県,ひたちなか市,東石川１丁目２０番１３号,,08,221,3120052,,,2025-05-20,清算の結了等,,,2015-10-05,1,,,,,ホウエイ,0
897,4060002030952,登記記録の閉鎖等,0,2025-05-23,2025-05-20,有限会社元木電機,,有限会社,栃木県,下野市,小金井１１３番地,,09,216,3290414,,,2025-05-20,清算の結了等,,,2015-10-05,1,,,,,モトキデンキ,0
900,4080101006240,登記記録の閉鎖等,0,2025-05-23,2025-05-21,株式会社丸食,,株式会社,静岡県,三島市,松本１２８番地の１,,22,206,4110822,,,2025-05-21,清算の結了等,,,2015-10-05,1,,,,,マルショク,0
940,4140001076113,登記記録の閉鎖等,0,2025-05-23,2025-05-20,株式会社小田工務店,,株式会社,兵庫県,加西市,鴨谷町１１５５番地,,28,220,6752444,,,2025-05-20,清算の結了等,,,2015-10-05,1,,,,,オダコウムテン,0
955,4180001035115,登記記録の閉鎖等,0,2025-05-23,2025-05-19,株式会社環境技術管理協会,,株式会社,愛知県,尾張旭市,吉岡町２丁目５番地の２７,,23,226,4880827,,,2025-05-19,清算の結了等,,,2015-10-05,1,,,,,カンキョウギジュツカンリキョウカイ,0
956,4180001104497,登記記録の閉鎖等,0,2025-05-23,2025-05-19,株式会社ノブインターフーズ,,株式会社,愛知県,名古屋市千種区,星が丘元町１２番２１号,,23,101,4640802,,,2025-05-19,清算の結了等,,,2015-10-05,1,,,,,ノブインターフーズ,0
957,4180001148759,登記記録の閉鎖等,0,2025-05-23,2025-05-21,株式会社ホーマ,,株式会社,愛知県,春日井市,稲口町３丁目３番地,,23,206,4860905,,,2025-05-21,清算の結了等,,,2021-11-17,1,,,,,ホーマ,0
967,4190001026088,登記記録の閉鎖等,0,2025-05-23,2025-05-21,株式会社ＴＡＫＩＧＡＷＡ赤目,,株式会社,三重県,名張市,赤目町丈六４２７番地１,,24,208,5180465,,,2025-05-21,清算の結了等,,,2018-12-28,1,,,,,タキガワアカメ,0
969,4190002011700,登記記録の閉鎖等,0,2025-05-23,2025-05-21,有限会社萬福フーズ,,有限会社,三重県,志摩市,阿児町鵜方１２２５番地,,24,215,5170501,,,2025-05-21,清算の結了等,,,2015-10-05,1,,,,,,0
981,4230002001548,登記記録の閉鎖等,0,2025-05-23,2025-05-22,有限会社ジユネス・ジヨニー,,有限会社,富山県,富山市,蛯町４番５号,,16,201,9300027,,,2025-05-22,清算の結了等,,,2015-10-05,1,,,,,ジュネスジョニー,0
990,4290801021922,登記記録の閉鎖等,0,2025-05-23,2025-05-21,株式会社林建設工業,,株式会社,福岡県,遠賀郡遠賀町,大字鬼津１５３５番地の１,,40,384,8114341,,,2025-05-21,清算の結了等,,,2015-10-05,1,,,,,ハヤシケンセツコウギョウ,0
1000,4350002018539,登記記録の閉鎖等,0,2025-05-23,2025-05-16,有限会社有村薬局,,有限会社,宮崎県,えびの市,大字原田３２１６番地１３,,45,209,8894301,,,2025-05-16,清算の結了等,,,2015-10-05,1,,,,,アリムラヤッキョク,0
1030,4430002018266,登記記録の閉鎖等,0,2025-05-23,2025-05-22,有限会社北文社,,有限会社,北海道,札幌市中央区,北三条西２丁目,,01,101,0600003,,,2025-05-22,清算の結了等,,,2015-10-05,1,,,,,,0
1033,4480001000906,登記記録の閉鎖等,0,2025-05-23,2025-05-21,新日本工業株式会社,,株式会社,徳島県,徳島市,山城町東浜傍示５番地１８３,,36,201,7708055,,,2025-05-21,清算の結了等,,,2015-10-05,1,,,,,シンニホンコウギョウ,0
1034,4480002010664,登記記録の閉鎖等,0,2025-05-23,2025-05-22,有限会社板東運送店,,有限会社,徳島県,鳴門市,大麻町板東字宝蔵６４番地の１,,36,202,7790233,,,2025-05-22,清算の結了等,,,2015-10-05,1,,,,,,0
1038,5010001045666,登記記録の閉鎖等,0,2025-05-23,2025-05-02,新同和貿株式会社,,株式会社,東京都,中央区,日本橋蛎殻町２丁目１５番７号,,13,102,1030014,,,2025-05-02,清算の結了等,,,2015-10-05,1,,,,,シンドウワボウ,0
1043,5010001144996,登記記録の閉鎖等,0,2025-05-23,2025-05-07,マンディアント株式会社,,株式会社,東京都,千代田区,霞が関１丁目４番１号日土地ビル４階,,13,101,1000013,,,2025-05-07,清算の結了等,,,2015-10-05,1,,,,,マンディアント,0
1051,5010005038039,登記記録の閉鎖等,0,2025-05-23,2025-05-21,一般社団法人ＩＲＳ４,,その他の設立登記法人,東京都,千代田区,丸の内１丁目４番１号東京共同会計事務所内,,13,101,1000005,,,2025-05-21,清算の結了等,,,2024-03-14,1,,,,,アイアールエスフォー,0
1056,5010401103998,登記記録の閉鎖等,0,2025-05-23,2025-04-18,株式会社ハナティー,,株式会社,東京都,港区,南青山２丁目２番１５号ウィン青山９４２,,13,103,1070062,,,2025-04-18,清算の結了等,,,2015-10-05,1,,,,,ハナティー,0
1063,5010401184320,登記記録の閉鎖等,0,2025-05-23,2025-04-18,ＪＧ２４株式会社,,株式会社,東京都,港区,虎ノ門１丁目３番１号,,13,103,1050001,,,2025-04-18,合併による解散等,3010401184537,令和７年４月１８日東京都港区芝五丁目２６番１６号株式会社ＳＩＶＡ（3010401184537）に合併し解散,2024-08-08,1,,,,,ジェイジーニジュウヨン,0
1086,5011003008512,登記記録の閉鎖等,0,2025-05-23,2025-04-22,エイトラボ株式会社,,株式会社,東京都,品川区,上大崎２丁目１１番７号,,13,109,1410021,,,2025-04-22,清算の結了等,,,2018-02-22,1,,,,,エイトラボ,0
1087,5011003014106,登記記録の閉鎖等,0,2025-05-23,2025-05-20,スリーツーエイト合同会社,,合同会社,山形県,天童市,東本町３丁目７番８－２０５号,,06,210,9940026,,,2025-05-20,合併による解散等,1011001121659,令和７年３月２８日東京都渋谷区神宮前二丁目３番２５－５０２号イレブンドット株式会社（1011001121659）に合併し解散,2022-02-02,1,,,,,スリーツーエイト,0
1096,5011103012001,登記記録の閉鎖等,0,2025-05-23,2025-04-30,合同会社ＥＳ５４,,合同会社,東京都,新宿区,下宮比町１番４号,,13,104,1620822,,,2025-04-30,清算の結了等,,,2022-07-22,1,,,,,イーエスゴジュウヨン,0
1109,5011705001070,登記記録の閉鎖等,0,2025-05-23,2025-05-20,医療法人社団博神会,,その他の設立登記法人,東京都,中央区,築地２丁目１５番１５号セントラル東銀座２０２,,13,102,1040045,,,2025-05-20,清算の結了等,,,2015-10-05,1,,,,,ハクシンカイ,0
1128,5020001126317,登記記録の閉鎖等,0,2025-05-23,2025-05-21,株式会社京浜化工,,株式会社,神奈川県,川崎市宮前区,菅生６丁目１５番１２号,,14,136,2160015,,,2025-05-21,清算の結了等,,,2018-05-15,1,,,,,ケイヒンカコウ,0
1131,5020002078334,登記記録の閉鎖等,0,2025-05-23,2025-05-15,有限会社めぐみ商店,,有限会社,神奈川県,横浜市金沢区,洲崎町６番８－５１４号,,14,108,2360028,,,2025-05-15,清算の結了等,,,2015-10-05,1,,,,,,0
1145,5030002006731,登記記録の閉鎖等,0,2025-05-23,2025-05-20,有限会社ジェラード・クラバット,,有限会社,埼玉県,さいたま市中央区,本町東２丁目９番２号,,11,105,3380003,,,2025-05-20,清算の結了等,,,2015-10-05,1,,,,,ジェラードクラバット,0
1184,5120001037314,登記記録の閉鎖等,0,2025-05-23,2025-05-20,株式会社イナダ,,株式会社,大阪府,八尾市,上之島町北１丁目５４番地の７,,27,212,5810845,,,2025-05-20,清算の結了等,,,2015-10-05,1,,,,,イナダ,0
1205,5120101070017,登記記録の閉鎖等,0,2025-05-23,2025-05-16,株式会社ＴＯＲＩＤＯＡ,,株式会社,大阪府,堺市堺区,向陵西町４丁６番１１－３０４号,,27,141,5900026,,,2025-05-16,清算の結了等,,,2024-07-22,1,,,,,トリドア,0
1210,5130001037908,登記記録の閉鎖等,0,2025-05-23,2025-05-16,昭和工事株式会社,,株式会社,京都府,綴喜郡宇治田原町,大字郷之口小字北堂山７１番地の３,,26,344,6100255,,,2025-05-16,清算の結了等,,,2015-10-05,1,,,,,ショウワコウジ,0
1212,5130001056271,登記記録の閉鎖等,0,2025-05-23,2025-05-21,株式会社丸浩,,株式会社,京都府,宇治市,南陵町１丁目１－２３７,,26,204,6110028,,,2025-05-21,清算の結了等,,,2015-10-30,1,,,,,マルコウ,0
1215,5130003008312,登記記録の閉鎖等,0,2025-05-23,2025-05-15,ｂｅｔｔｅｒ‐ｌｉｆｅ合同会社,,合同会社,大阪府,枚方市,大垣内町１丁目８番,,27,210,5730027,,,2025-05-15,清算の結了等,,,2022-11-14,1,,,,,ベターライフ,0
1219,5130005016924,登記記録の閉鎖等,0,2025-05-23,2025-05-20,一般社団法人ふぁみりーすまいる,,その他の設立登記法人,京都府,木津川市,梅美台４丁目１３番地２,,26,214,6190215,,,2025-05-20,清算の結了等,,,2023-11-22,1,,,,,ファミリースマイル,0
1224,5140001099410,登記記録の閉鎖等,0,2025-05-23,2025-05-19,アシストケア株式会社,,株式会社,兵庫県,姫路市,的形町的形１７６８番地２５ｐｒｅｎｄｒｅ的形１０２号,,28,201,6710111,,,2025-05-19,清算の結了等,,,2015-10-05,1,,,,,アシストケア,0
1227,5140001124903,登記記録の閉鎖等,0,2025-05-23,2025-05-21,株式会社ｔｅｎｇｕｂｅｅ,,株式会社,兵庫県,西宮市,六湛寺町９番１０－５０２号,,28,204,6620918,,,2025-05-21,清算の結了等,,,2022-02-15,1,,,,,テングビー,0
1244,5180001150318,登記記録の閉鎖等,0,2025-05-23,2025-05-21,ＤＩＡＮＤＩＢ株式会社,,株式会社,愛知県,名古屋市南区,前浜通７丁目３２番地蝶屋ビル１階,,23,112,4570058,,,2025-05-21,清算の結了等,,,2022-03-04,1,,,,,デイアンデイ,0
1248,5180002036937,登記記録の閉鎖等,0,2025-05-23,2025-05-20,有限会社イマナガ,,有限会社,愛知県,名古屋市千種区,茶屋が坂２丁目２番９号,,23,101,4640092,,,2025-05-20,清算の結了等,,,2015-10-05,1,,,,,イマナガ,0
1252,5180003027308,登記記録の閉鎖等,0,2025-05-23,2025-05-20,合同会社ゼロ,,合同会社,愛知県,半田市,仲田町１丁目１６番地の２,,23,205,4750929,,,2025-05-20,清算の結了等,,,2024-09-04,1,,,,,ゼロ,0
1266,5200002001533,登記記録の閉鎖等,0,2025-05-23,2025-05-21,有限会社クリエイテイブタク,,有限会社,岐阜県,岐阜市,西川手３丁目３９番地,,21,201,5008258,,,2025-05-21,清算の結了等,,,2015-10-05,1,,,,,クリエイテイブタク,0
1270,5220002007487,登記記録の閉鎖等,0,2025-05-23,2025-05-21,有限会社寿産業,,有限会社,石川県,金沢市,中村町８番６号コーポ鶴見１０１号,,17,201,9218022,,,2025-05-21,清算の結了等,,,2015-10-05,1,,,,,コトブキサンギョウ,0
1275,5260002021261,登記記録の閉鎖等,0,2025-05-23,2025-05-16,有限会社丸岡工業,,有限会社,岡山県,倉敷市,児島赤崎２丁目１１番３４号,,33,202,7110931,,,2025-05-16,清算の結了等,,,2015-10-05,1,,,,,マルオカコウギョウ,0
1287,5290005010993,登記記録の閉鎖等,0,2025-05-23,2025-05-19,特定非営利活動法人矢部川流域プロジェクト,,その他の設立登記法人,福岡県,筑後市,大字溝口１２９７番１,,40,211,8330012,,,2025-05-19,清算の結了等,,,2015-10-05,1,,,,,ヤベガワリュウイキプロジェクト,0
1291,5330002008251,登記記録の閉鎖等,0,2025-05-23,2025-05-19,有限会社橋本商店,,有限会社,熊本県,熊本市中央区,九品寺１丁目９番１号,,43,101,8620976,,,2025-05-19,清算の結了等,,,2015-10-05,1,,,,,ハシモトショウテン,0
1297,5370002005757,登記記録の閉鎖等,0,2025-05-23,2025-05-13,有限会社ニューアクティブ,,有限会社,宮城県,仙台市若林区,若林１丁目１０番８号,,04,103,9840826,,,2025-05-13,清算の結了等,,,2015-10-05,1,,,,,ニューアクティブ,0
1314,5430002018851,登記記録の閉鎖等,0,2025-05-23,2025-05-22,有限会社マスダ研築,,有限会社,北海道,札幌市南区,簾舞三条３丁目３番３７号,,01,106,0612263,,,2025-05-22,清算の結了等,,,2015-10-05,1,,,,,,0
1320,5500005003876,登記記録の閉鎖等,0,2025-05-23,2025-05-20,石延生産森林組合,,その他の設立登記法人,愛媛県,西条市,石延１１４番地,,38,206,7991335,,,2025-05-20,清算の結了等,,,2015-10-05,1,,,,,イシノベ,0
1337,6010003021953,登記記録の閉鎖等,0,2025-05-23,2025-04-18,Ｓｉｄｄａｒｍａｒｋ合同会社,,合同会社,東京都,中央区,銀座７丁目１３番６号サガミビル２階,,13,102,1040061,,,2025-04-18,合併による解散等,7010001251766,令和７年４月５日東京都千代田区丸の内２－３－２郵船ビルディング１階Ｎｅｕｒａ株式会社（7010001251766）に合併し解散,2015-10-05,1,,,,,シダーマーク,0
1342,6010005031406,登記記録の閉鎖等,0,2025-05-23,2025-05-07,ＫＩＣ海老名１特定目的会社,,その他の設立登記法人,東京都,港区,南青山４丁目２１番２６号リュエル青山Ｃ棟Ｂ１細谷総合会計事務所内,,13,103,1070062,,,2025-05-07,清算の結了等,,,2020-02-07,1,,,,,ケイアイシーエビナワン,0
1344,6010103002309,登記記録の閉鎖等,0,2025-05-23,2025-05-13,合同会社イブチ,,合同会社,東京都,八王子市,南新町４番地１２ベルヴ八王子５０４号,,13,201,1920075,,,2025-05-13,清算の結了等,,,2024-02-14,1,,,,,イブチ,0
1359,6010701036113,登記記録の閉鎖等,0,2025-05-23,2025-05-19,八重垣株式会社,,株式会社,埼玉県,川口市,戸塚３丁目２２番１０号,,11,203,3330811,,,2025-05-19,清算の結了等,,,2018-07-18,1,,,,,ヤエガキ,0
1361,6010705002094,登記記録の閉鎖等,0,2025-05-23,2025-04-25,税理士法人ＫＴＳ,,その他の設立登記法人,東京都,品川区,東五反田３丁目１７番８号４階,,13,109,1410022,,,2025-04-25,清算の結了等,,,2015-10-05,1,,,,,ケーティーエス,0
1362,6010802013523,登記記録の閉鎖等,0,2025-05-23,2025-05-12,有限会社松原クリーニング,,有限会社,東京都,大田区,下丸子３丁目２０番２１号,,13,111,1460092,,,2025-05-12,清算の結了等,,,2015-10-05,1,,,,,マツバラクリーニング,0
1384,6011101062253,登記記録の閉鎖等,0,2025-05-23,2025-05-01,株式会社アイズ,,株式会社,東京都,新宿区,新宿１丁目３１番１２号,,13,104,1600022,,,2025-05-01,清算の結了等,,,2015-10-05,1,,,,,アイズ,0
1386,6011103012677,登記記録の閉鎖等,0,2025-05-23,2025-04-30,合同会社ジェイ・イー・ジー,,合同会社,東京都,新宿区,下宮比町１番４号,,13,104,1620822,,,2025-04-30,清算の結了等,,,2023-02-07,1,,,,,ジェイイージー,0
1408,6012402020486,登記記録の閉鎖等,0,2025-05-23,2025-05-20,有限会社ジュピター,,有限会社,東京都,三鷹市,井口１丁目７番１４－３０１号,,13,204,1810011,,,2025-05-20,清算の結了等,,,2015-10-05,1,,,,,ジュピター,0
1468,6080002018845,登記記録の閉鎖等,0,2025-05-23,2025-05-15,有限会社テイスト,,有限会社,静岡県,静岡市葵区,駿府町１番３４号,,22,101,4200856,,,2025-05-15,清算の結了等,,,2024-11-28,1,,,,,テイスト,0
1476,6100001024981,登記記録の閉鎖等,0,2025-05-23,2025-05-21,シルクワイン蔵株式会社,,株式会社,長野県,上田市,常田１丁目１０番３号,,20,203,3860018,,,2025-05-21,清算の結了等,,,2015-10-05,1,,,,,シルクワインクラ,0
1478,6100001035608,登記記録の閉鎖等,0,2025-05-23,2025-05-20,コスモ商事株式会社,,株式会社,長野県,飯田市,丸山町３丁目５６７９番地１,,20,205,3950077,,,2025-05-20,清算の結了等,,,2022-08-15,1,,,,,コスモショウジ,0
1488,6120001224381,登記記録の閉鎖等,0,2025-05-23,2025-04-25,株式会社遠＿,00117923,株式会社,大阪府,大阪市住之江区,東加賀屋３丁目５番１５号,,27,125,5590012,,,2025-04-25,清算の結了等,,,2019-10-11,1,,,,,エンキン,0
1516,6140001134851,登記記録の閉鎖等,0,2025-05-23,2025-05-13,株式会社ｎｏｂｏｄｙ,,株式会社,兵庫県,神戸市中央区,海岸通２８番地ＢＥＬＩＳＴＡ神戸旧居留地２３０５号室,,28,110,6500024,,,2025-05-13,清算の結了等,,,2024-06-18,1,,,,,ノーバディ,0
1521,6150001010655,登記記録の閉鎖等,0,2025-05-23,2025-05-22,株式会社田原兄弟社,,株式会社,奈良県,橿原市,見瀬町６７９番地の９,,29,205,6340064,,,2025-05-22,清算の結了等,,,2015-10-05,1,,,,,,0
1525,6170002011683,登記記録の閉鎖等,0,2025-05-23,2025-05-22,有限会社喜栄丸水産,,有限会社,和歌山県,東牟婁郡串本町,須江８２０番地の６,,30,428,6493632,,,2025-05-22,清算の結了等,,,2015-10-05,1,,,,,キエイマルスイサン,0
1527,6180001127100,登記記録の閉鎖等,0,2025-05-23,2025-05-15,ライフ立方株式会社,,株式会社,愛知県,名古屋市中区,伊勢山２丁目７番７号,,23,106,4600026,,,2025-05-15,清算の結了等,,,2017-03-30,1,,,,,ライフリッポウ,0
1528,6180001136084,登記記録の閉鎖等,0,2025-05-23,2025-05-19,Ｒｅデザイン株式会社,,株式会社,愛知県,弥富市,西中地町五右１３５番地２,,23,235,4980001,,,2025-05-19,清算の結了等,,,2019-04-10,1,,,,,アールイーデザイン,0
1534,6190002021466,登記記録の閉鎖等,0,2025-05-23,2025-05-19,有限会社繁栄商事,,有限会社,三重県,四日市市,ときわ４丁目８番３３号,,24,202,5100834,,,2025-05-19,清算の結了等,,,2015-10-05,1,,,,,,0
1538,6230001013451,登記記録の閉鎖等,0,2025-05-23,2025-05-21,サンクリーンマテリアル株式会社,,株式会社,富山県,射水市,片口高場１１５番地１,,16,211,9340036,,,2025-05-21,清算の結了等,,,2015-10-05,1,,,,,サンクリーンマテリアル,0
1544,6240002013391,登記記録の閉鎖等,0,2025-05-23,2025-05-22,有限会社波多江組,,有限会社,広島県,広島市東区,温品３丁目１番１３号,,34,102,7320033,,,2025-05-22,清算の結了等,,,2015-10-05,1,,,,,ハタエグミ,0
1546,6250001017252,登記記録の閉鎖等,0,2025-05-23,2025-05-21,株式会社やないきた,,株式会社,山口県,柳井市,柳井１１０５３番地１０,,35,212,7420021,,,2025-05-21,清算の結了等,,,2018-07-25,1,,,,,ヤナイキタ,0
1554,6290001090758,登記記録の閉鎖等,0,2025-05-23,2025-05-20,株式会社オフショア,,株式会社,兵庫県,神戸市中央区,雲井通４丁目２番２号マークラー神戸ビル６Ｆ,,28,110,6510096,,,2025-05-20,合併による解散等,4010401082351,令和７年４月１日東京都港区六本木六丁目１０番１号株式会社メドレー（4010401082351）に合併し解散,2020-10-29,1,,,,,オフショア,0
1567,6310001015084,登記記録の閉鎖等,0,2025-05-23,2025-05-21,株式会社安樂子,,株式会社,長崎県,長崎市,浜町７番２０号,,42,201,8500853,,,2025-05-21,清算の結了等,,,2017-08-02,1,,,,,アラコ,0
1570,6320202000322,登記記録の閉鎖等,0,2025-05-23,2025-05-12,大東海運有限会社,,有限会社,大分県,臼杵市,大字諏訪３１０番地の２,,44,206,8750011,,,2025-05-12,清算の結了等,,,2015-10-05,1,,,,,,0
1571,6330002007327,登記記録の閉鎖等,0,2025-05-23,2025-05-19,有限会社戸島商事,,有限会社,熊本県,熊本市東区,戸島１丁目１５番８７号,,43,102,8618041,,,2025-05-19,清算の結了等,,,2015-10-05,1,,,,,トシマショウジ,0
1577,6340005004980,登記記録の閉鎖等,0,2025-05-23,2025-05-15,特定非営利活動法人与論島ウンパル学校,,その他の設立登記法人,鹿児島県,大島郡与論町,大字古里１２８３番地,,46,535,8919307,,,2025-05-15,清算の結了等,,,2015-10-05,1,,,,,ヨロンジマウンパルガッコウ,0
1582,6370001021085,登記記録の閉鎖等,0,2025-05-23,2024-08-25,株式会社ｉ－ＳＫＹメディカル,,株式会社,宮城県,仙台市若林区,三百人町１６１番地の１,,04,103,9840057,,,2024-08-25,清算の結了等,,,2015-10-05,1,,,,,アイスカイメディカル,0
1592,6380002035570,登記記録の閉鎖等,0,2025-05-23,2025-05-15,有限会社中屋義栄商店,,有限会社,福島県,南会津郡南会津町,田島字田部原１５４番地の２,,07,368,9670004,,,2025-05-15,清算の結了等,,,2015-10-05,1,,,,,ナカヤヨシエイショウテン,0
1594,6420002009818,登記記録の閉鎖等,0,2025-05-23,2025-04-30,有限会社和泉保険事務所,,有限会社,青森県,三戸郡三戸町,大字川守田字元木平３番地１,,02,441,0390141,,,2025-04-30,清算の結了等,,,2015-10-05,1,,,,,イズミホケンジムショ,0
1595,6430001009958,登記記録の閉鎖等,0,2025-05-23,2025-05-21,タキザワ食品株式会社,,株式会社,北海道,札幌市豊平区,月寒東三条７丁目３番５号,,01,105,0620053,,,2025-05-21,清算の結了等,,,2015-10-05,1,,,,,タキザワショクヒン,0
1600,6430001088176,登記記録の閉鎖等,0,2025-05-23,2025-05-21,株式会社Ｋフロント,,株式会社,北海道,札幌市西区,二十四軒二条３丁目２－３０－７０１号,,01,107,0630802,,,2025-05-21,清算の結了等,,,2023-01-11,1,,,,,ケーフロント,0
1615,7010001088787,登記記録の閉鎖等,0,2025-05-23,2025-05-07,株式会社セベック,,株式会社,東京都,千代田区,紀尾井町３番３３号,,13,101,1020094,,,2025-05-07,清算の結了等,,,2015-10-05,1,,,,,,0
1668,7011102008428,登記記録の閉鎖等,0,2025-05-23,2025-04-30,有限会社ティーケー管理サービス,,有限会社,東京都,新宿区,百人町１丁目２３番１９号,,13,104,1690073,,,2025-04-30,清算の結了等,,,2015-10-05,1,,,,,ティーケーカンリサービス,0
1676,7011501029446,登記記録の閉鎖等,0,2025-05-23,2025-05-12,大田株式会社,,株式会社,東京都,北区,王子本町１丁目２２番１号１０３室,,13,117,1140022,,,2025-05-12,清算の結了等,,,2023-06-23,1,,,,,オオタ,0
1692,7013301037257,登記記録の閉鎖等,0,2025-05-23,2025-04-30,株式会社Ｈｅｙ,,株式会社,東京都,新宿区,西新宿６丁目１１番３号Ｄマークス西新宿タワー１６階,,13,104,1600023,,,2025-04-30,清算の結了等,,,2015-10-05,1,,,,,ヘイ,0
1697,7013402000816,登記記録の閉鎖等,0,2025-05-23,2025-05-15,総合調研有限会社,,有限会社,東京都,日野市,多摩平２丁目３番地の４オリエント丹野マンション４０２,,13,212,1910062,,,2025-05-15,清算の結了等,,,2015-10-05,1,,,,,ソウゴウチョウケン,0
1711,7021001052575,登記記録の閉鎖等,0,2025-05-23,2025-05-19,ゆうか工業株式会社,,株式会社,神奈川県,大和市,中央２丁目１－１５パークロード大和３Ａ,,14,213,2420021,,,2025-05-19,清算の結了等,,,2015-10-05,1,,,,,ユウカコウギョウ,0
1714,7021002036890,登記記録の閉鎖等,0,2025-05-23,2025-05-14,有限会社オマタホーム,,有限会社,神奈川県,愛甲郡愛川町,中津１６３６番地の４,,14,401,2430303,,,2025-05-14,清算の結了等,,,2015-10-05,1,,,,,オマタホーム,0
1715,7021002045322,登記記録の閉鎖等,0,2025-05-23,2025-05-15,有限会社つるや,,有限会社,神奈川県,海老名市,河原口１丁目２６番１－１４０５号,,14,215,2430433,,,2025-05-15,清算の結了等,,,2015-10-05,1,,,,,ツルヤ,0
1782,7140001031940,登記記録の閉鎖等,0,2025-05-23,2025-05-19,株式会社デザインクラブリンク,,株式会社,兵庫県,神戸市中央区,京町７６番地の２,,28,110,6500034,,,2025-05-19,清算の結了等,,,2015-10-05,1,,,,,デザインクラブリンク,0
1793,7180001138113,登記記録の閉鎖等,0,2025-05-23,2025-05-20,ＡＯＧＩＲＩ株式会社,,株式会社,愛知県,名古屋市中村区,則武２丁目２５－１１朝日プラザ名古屋ターミナルスクエア８１２号室,,23,105,4530014,,,2025-05-20,清算の結了等,,,2019-09-18,1,,,,,アオギリ,0
1810,7200001011102,登記記録の閉鎖等,0,2025-05-23,2025-05-21,株式会社ジャパンオート,,株式会社,岐阜県,羽島市,堀津町字本田５４５番の１,,21,209,5016330,,,2025-05-21,清算の結了等,,,2015-10-05,1,,,,,,0
1815,7240002044543,登記記録の閉鎖等,0,2025-05-23,2025-05-21,有限会社ミツエダ歯科機材商会,,有限会社,広島県,福山市,津之郷町大字津之郷７７９番地の３,,34,207,7200841,,,2025-05-21,清算の結了等,,,2015-10-05,1,,,,,ミツエダシカキザイショウカイ,0
1847,7290801022109,登記記録の閉鎖等,0,2025-05-23,2025-05-20,日本環境エネルギー株式会社,,株式会社,福岡県,北九州市八幡西区,皇后崎町１０番３号,,40,109,8060041,,,2025-05-20,合併による解散等,6010901027977,令和７年５月１日東京都目黒区大橋二丁目２４番３号ネミー株式会社（6010901027977）に合併し解散,2015-12-21,1,,,,,ニホンカンキョウエネルギー,0
1860,7380001023831,登記記録の閉鎖等,0,2025-05-23,2025-05-07,創喜株式会社,,株式会社,福島県,双葉郡浪江町,大字川添字南上ノ原１２７番地１８,,07,547,9791531,,,2025-05-07,清算の結了等,,,2015-10-05,1,,,,,ソウキ,0
1928,8011002035703,登記記録の閉鎖等,0,2025-05-23,2025-04-22,有限会社アンドシー,,有限会社,東京都,渋谷区,富ヶ谷１丁目８－８代々木ワルトハイム４０１,,13,113,1510063,,,2025-04-22,清算の結了等,,,2015-10-05,1,,,,,,0
1931,8011005009316,登記記録の閉鎖等,0,2025-05-23,2025-04-16,一般社団法人ボディケアトレーナー協会,,その他の設立登記法人,東京都,渋谷区,本町３丁目１３番１２号渋谷本町ビル２階,,13,113,1510071,,,2025-04-16,清算の結了等,,,2021-11-29,1,,,,,ボディケアトレーナーキョウカイ,0
1932,8011101060619,登記記録の閉鎖等,0,2025-05-23,2025-04-30,株式会社ＳＵＣＣＥＳＳ２１,,株式会社,東京都,新宿区,新宿１丁目１４番５号,,13,104,1600022,,,2025-04-30,清算の結了等,,,2015-10-05,1,,,,,サクセスニジュウイチ,0
1935,8011102027328,登記記録の閉鎖等,0,2025-05-23,2025-05-01,有限会社ジャパン・エンターテインメント・アカデミー,,有限会社,東京都,新宿区,新宿１丁目３１番１２号,,13,104,1600022,,,2025-05-01,清算の結了等,,,2015-10-05,1,,,,,ジャパンエンターテインメントアカデミー,0
1966,8020003011514,登記記録の閉鎖等,0,2025-05-23,2025-05-20,合同会社再生エネルギー基金,,合同会社,神奈川県,横浜市青葉区,あざみ野３丁目２６番地２７,,14,117,2250011,,,2025-05-20,清算の結了等,,,2016-07-08,1,,,,,サイセイエネルギーキキン,0
1968,8021001011365,登記記録の閉鎖等,0,2025-05-23,2025-05-21,宇部スレート相模販売株式会社,,株式会社,神奈川県,相模原市中央区,水郷田名２丁目１２番１０号,,14,152,2520246,,,2025-05-21,清算の結了等,,,2015-10-05,1,,,,,ウベスレートサガミハンバイ,0
1987,8040001037567,登記記録の閉鎖等,0,2025-05-23,2025-05-07,株式会社山口仏心堂,,株式会社,千葉県,流山市,南流山１丁目２４番地の８,,12,220,2700163,,,2025-05-07,清算の結了等,,,2015-10-05,1,,,,,ヤマグチブッシンドウ,0
1990,8040002056335,登記記録の閉鎖等,0,2025-05-23,2025-05-07,有限会社千田,,有限会社,千葉県,富里市,日吉台４丁目１９番１０号,,12,233,2860201,,,2025-05-07,清算の結了等,,,2015-10-05,1,,,,,チダ,0
1999,8060002001454,登記記録の閉鎖等,0,2025-05-23,2025-05-15,有限会社イリサワ商事,,有限会社,栃木県,宇都宮市,中央３丁目５番１５号,,09,201,3200806,,,2025-05-15,清算の結了等,,,2015-10-05,1,,,,,イリサワショウジ,0
2013,8100002014864,登記記録の閉鎖等,0,2025-05-23,2025-05-19,有限会社みづほ,,有限会社,長野県,上田市,別所温泉１８４９番地３,,20,203,3861431,,,2025-05-19,清算の結了等,,,2015-10-05,1,,,,,ミヅホ,0
2021,8120001121420,登記記録の閉鎖等,0,2025-05-23,2025-05-14,キャノンデール・ジャパン株式会社,,株式会社,大阪府,大阪市中央区,南船場３丁目２番２２号おおきに南船場ビル２０５,,27,128,5420081,,,2025-05-14,清算の結了等,,,2015-10-05,1,,,,,キャノンデールジャパン,0
2046,8140001050411,登記記録の閉鎖等,0,2025-05-23,2025-05-20,中西印刷株式会社,,株式会社,兵庫県,尼崎市,開明町１丁目４７番地,,28,202,6600862,,,2025-05-20,清算の結了等,,,2015-10-05,1,,,,,ナカニシインサツ,0
2059,8160001018687,登記記録の閉鎖等,0,2025-05-23,2025-05-21,株式会社田照マネジメント,,株式会社,滋賀県,大津市,におの浜２丁目１番２８－３０５号,,25,201,5200801,,,2025-05-21,清算の結了等,,,2015-10-05,1,,,,,デンショウマネジメント,0
2070,8180302021669,登記記録の閉鎖等,0,2025-05-23,2025-05-21,有限会社奥村商事,,有限会社,愛知県,豊田市,野見山町１丁目１０４番地５,,23,211,4710813,,,2025-05-21,清算の結了等,,,2015-10-05,1,,,,,オクムラショウジ,0
2094,8340001011376,登記記録の閉鎖等,0,2025-05-23,2025-05-13,株式会社樂樂亭,,株式会社,福岡県,福岡市西区,生松台３丁目１０番１２号,,40,135,8190044,,,2025-05-13,清算の結了等,,,2015-10-05,1,,,,,ラクラクテイ,0
2122,8470001015430,登記記録の閉鎖等,0,2025-05-23,2025-05-22,亮心興業株式会社,,株式会社,香川県,善通寺市,櫛梨町８５７番地２,,37,204,7650051,,,2025-05-22,清算の結了等,,,2015-11-25,1,,,,,,0
2128,9010001040481,登記記録の閉鎖等,0,2025-05-23,2025-05-01,株式会社開運道,,株式会社,東京都,中央区,築地２丁目１４番６号ＬＸＳ築地１３０４,,13,102,1040045,,,2025-05-01,清算の結了等,,,2015-10-05,1,,,,,カイウンドウ,0
2129,9010001105623,登記記録の閉鎖等,0,2025-05-23,2025-05-02,株式会社Ｈ・Ｙ・Ｓ,,株式会社,東京都,文京区,小石川１丁目１６番９号,,13,105,1120002,,,2025-05-02,清算の結了等,,,2015-10-05,1,,,,,エイチワイエス,0
2144,9010401088724,登記記録の閉鎖等,0,2025-05-23,2025-04-18,株式会社ジェンマーレ,,株式会社,東京都,港区,南青山２丁目２番６－１１０１号,,13,103,1070062,,,2025-04-18,清算の結了等,,,2015-10-05,1,,,,,ジェンマーレ,0
2152,9010501019546,登記記録の閉鎖等,0,2025-05-23,2025-05-13,株式会社東設,,株式会社,東京都,台東区,台東１丁目３３番６号セントオフィス秋葉原１０１号室,,13,106,1100016,,,2025-05-13,清算の結了等,,,2015-10-05,1,,,,,トウセツ,0
2153,9010501049072,登記記録の閉鎖等,0,2025-05-23,2025-04-18,株式会社Ｂｒｏｗｎｙ,,株式会社,東京都,目黒区,青葉台３丁目８－１２青葉台ＸＹＳＴ４０２,,13,110,1530042,,,2025-04-18,清算の結了等,,,2022-07-07,1,,,,,ブラウニー,0
2167,9011001030480,登記記録の閉鎖等,0,2025-05-23,2025-04-18,秀栄住宅株式会社,,株式会社,東京都,渋谷区,笹塚３丁目１３番１６号,00064477,13,113,1510073,,,2025-04-18,清算の結了等,,,2015-10-05,1,,,,,シュウエイジュウタク,0
2172,9011001150394,登記記録の閉鎖等,0,2025-05-23,2025-04-18,株式会社Ｕｕｂ,,株式会社,東京都,渋谷区,渋谷２丁目１９－１５宮益坂ビルディング６０９,,13,113,1500002,,,2025-04-18,清算の結了等,,,2022-10-25,1,,,,,ウウブ,0
2185,9011102004920,登記記録の閉鎖等,0,2025-05-23,2025-04-30,有限会社小松庵商事,,有限会社,東京都,新宿区,新宿６丁目２７番１７号,,13,104,1600022,,,2025-04-30,清算の結了等,,,2015-10-05,1,,,,,コマツアンショウジ,0
2186,9011103012773,登記記録の閉鎖等,0,2025-05-23,2025-04-28,Ｅｖｅｒｇｒｅｅｎ　Ｔｈｒｅｅ合同会社,,合同会社,東京都,新宿区,四谷４丁目３２番８号ＹＫＢサニービル６階,,13,104,1600004,,,2025-04-28,清算の結了等,,,2023-03-07,1,,,,,エヴァーグリーンスリー,0
2191,9011401002567,登記記録の閉鎖等,0,2025-05-23,2025-05-21,株式会社三昇,,株式会社,東京都,板橋区,栄町２０番８号,,13,119,1730015,,,2025-05-21,清算の結了等,,,2015-10-05,1,,,,,サンショウ,0
2195,9011801041157,登記記録の閉鎖等,0,2025-05-23,2025-05-08,株式会社リンクス,,株式会社,千葉県,松戸市,小金２１８番地の２,,12,207,2700014,,,2025-05-08,清算の結了等,,,2022-08-19,1,,,,,リンクス,0
2204,9012305001309,登記記録の閉鎖等,0,2025-05-23,2025-05-22,特定非営利活動法人るーぷ,,その他の設立登記法人,東京都,町田市,成瀬が丘２丁目３１番地１３塚野荘２０３,,13,209,1940011,,,2025-05-22,清算の結了等,,,2015-10-05,1,,,,,ループ,0
2221,9021001040438,登記記録の閉鎖等,0,2025-05-23,2025-05-16,三洋株式会社,,株式会社,神奈川県,横須賀市,大滝町１丁目２６番地,,14,201,2380008,,,2025-05-16,清算の結了等,,,2015-10-05,1,,,,,サンヨウ,0
2234,9030003020686,登記記録の閉鎖等,0,2025-05-23,2025-05-21,ＢｉｏＦｕｎｄ　Ｔｈｅｒａｐｅｕｔｉｃ　Ｓｔｒａｔｅｇｉｅｓ合同会社,,合同会社,埼玉県,さいたま市大宮区,上小町２０６番地１コモド大宮上小第一２０３号室,,11,103,3300855,,,2025-05-21,清算の結了等,,,2022-12-08,1,,,,,バイオファンドセラピュティックストラテジィズ,0
2263,9080101021796,登記記録の閉鎖等,0,2025-05-23,2025-05-19,株式会社楽市楽座,,株式会社,静岡県,三島市,緑町２２番６号住まいる３号館３０２,,22,206,4110848,,,2025-05-19,清算の結了等,,,2020-05-18,1,,,,,ラクイチラクザ,0
2276,9110001014500,登記記録の閉鎖等,0,2025-05-23,2025-05-21,株式会社日進商会,,株式会社,愛知県,豊橋市,新栄町字新田中１９番地,,23,201,4418016,,,2025-05-21,清算の結了等,,,2015-10-05,1,,,,,ニッシンショウカイ,0
2310,9130005016103,登記記録の閉鎖等,0,2025-05-23,2025-05-20,一般社団法人アジアアイラッシュ協会,,その他の設立登記法人,京都府,京都市中京区,錦小路通室町西入天神山町２８０番地石勘ビル３階,,26,104,6048221,,,2025-05-20,清算の結了等,,,2021-03-02,1,,,,,アジアアイラッシュキョウカイ,0
2312,9140001086388,登記記録の閉鎖等,0,2025-05-23,2025-05-21,株式会社マクラス,,株式会社,兵庫県,宝塚市,小浜５丁目１番２号,,28,214,6650827,,,2025-05-21,清算の結了等,,,2015-10-05,1,,,,,マクラス,0
2322,9140002065382,登記記録の閉鎖等,0,2025-05-23,2025-05-20,有限会社エムツーエス,,有限会社,兵庫県,川西市,清和台東４丁目１９番地の２１,,28,217,6660142,,,2025-05-20,清算の結了等,,,2015-10-05,1,,,,,,0
2324,9140005022050,登記記録の閉鎖等,0,2025-05-23,2025-05-20,ＮＰＯ法人蓮宮地域自治会連合会蓮宮グリーンホール,,その他の設立登記法人,兵庫県,神戸市長田区,蓮宮通６丁目１番地の２,,28,106,6530831,,,2025-05-20,清算の結了等,,,2015-10-05,1,,,,,ハスミヤチイキジチカイレンゴウカイハスミヤグリーンホール,0
2332,9160002000271,登記記録の閉鎖等,0,2025-05-23,2025-05-21,エーアンドシー有限会社,,有限会社,滋賀県,大津市,高砂町２６番１号,,25,201,5200005,,,2025-05-21,清算の結了等,,,2015-10-05,1,,,,,エーアンドシー,0
2348,9200002010480,登記記録の閉鎖等,0,2025-05-23,2025-05-20,大橋電気工事有限会社,,有限会社,岐阜県,羽島市,小熊町天王１丁目８番地,,21,209,5016267,,,2025-05-20,清算の結了等,,,2015-10-05,1,,,,,オオハシデンキコウ,0
2350,9210001012782,登記記録の閉鎖等,0,2025-05-23,2025-05-21,株式会社日世,,株式会社,福井県,鯖江市,上鯖江１丁目１０番１２号,,18,207,9160055,,,2025-05-21,合併による解散等,4210001012812,令和７年５月２１日福井県鯖江市小泉町第２６号６番地の４株式会社キミコン（4210001012812）に合併し解散,2015-10-05,1,,,,,ニッセイ,0
2363,9240002028577,登記記録の閉鎖等,0,2025-05-23,2025-05-21,有限会社結城製材所,,有限会社,広島県,東広島市,志和町志和西７２１番地,,34,212,7390268,,,2025-05-21,清算の結了等,,,2015-10-05,1,,,,,ユウキセイザイショ,0
2386,9350001008445,登記記録の閉鎖等,0,2025-05-23,2025-05-19,株式会社ロイヤル,,株式会社,宮崎県,都城市,北原町１１０６番地４８,,45,202,8850024,,,2025-05-19,清算の結了等,,,2015-10-05,1,,,,,ロイヤル,0
2404,9402703000129,登記記録の閉鎖等,0,2025-05-23,2025-05-07,合同会社笑門福来,,合同会社,岩手県,大船渡市,末崎町字門之浜４４番地２,,03,203,0220001,,,2025-05-07,清算の結了等,,,2015-10-05,1,,,,,ショウモンフッコウ,0
2416,9500002016282,登記記録の閉鎖等,0,2025-05-23,2025-05-20,御蔵本アナリスト有限会社,,有限会社,愛媛県,新居浜市,久保田町３丁目１１番１０７３号,,38,205,7920026,,,2025-05-20,清算の結了等,,,2015-10-05,1,,,,,,0
