sequenceNumber,corporateNumber,process,correct,updateDate,changeDate,name,nameImageId,kind,prefectureName,cityName,streetNumber,addressImageId,prefectureCode,cityCode,postCode,addressOutside,addressOutsideImageId,closeDate,closeCause,successorCorporateNumber,changeCause,assignmentDate,latest,enName,enPrefectureName,enCityName,enAddressOutside,furigana,hihyoji
7,1010001235650,新規,0,2023-06-16,2023-06-16,株式会社カンビオ,,株式会社,東京都,中央区,銀座１丁目２７－８セントラルビル７０３号,,13,102,1040061,,,,,,,2023-06-16,1,,,,,カンビオ,0
8,1010001236244,新規,0,2023-06-16,2023-06-16,株式会社アセットレイズ,,株式会社,東京都,中央区,日本橋蛎殻町１丁目１９番１号,,13,102,1030014,,,,,,,2023-06-16,1,,,,,アセットレイズ,0
10,1010003040891,新規,0,2023-06-16,2023-06-16,ベイブリッジ合同会社,,合同会社,東京都,中央区,銀座１丁目１２番４号Ｎ＆Ｅ．ＢＬＤ．６Ｆ,,13,102,1040061,,,,,,,2023-06-16,1,,,,,ベイブリッジ,0
11,1010005036839,新規,0,2023-06-16,2023-06-16,一般社団法人ＨＭアトラス,,その他の設立登記法人,東京都,中央区,日本橋１丁目４番１号,,13,102,1030027,,,,,,,2023-06-16,1,,,,,エイチエムアトラス,0
18,1010401175100,新規,0,2023-06-16,2023-06-16,Ｈｏｓｔｅｌ　Ｉｎｎ株式会社,,株式会社,東京都,港区,麻布台２丁目３番５号,,13,103,1060041,,,,,,,2023-06-16,1,,,,,ホステルイン,0
19,1010401175166,新規,0,2023-06-16,2023-06-16,ＪＩＣＣ‐０２株式会社,,株式会社,東京都,港区,虎ノ門１丁目３番１号,,13,103,1050001,,,,,,,2023-06-16,1,,,,,ジェイアイシーシーゼロニ,0
21,1010403030328,新規,0,2023-06-16,2023-06-16,Ｒｅｎｅ合同会社,,合同会社,東京都,港区,北青山１丁目３番１号アールキューブ青山３階,,13,103,1070061,,,,,,,2023-06-16,1,,,,,ルネ,0
22,1010403030336,新規,0,2023-06-16,2023-06-16,合同会社ＬＩＢＥＲＯ,,合同会社,東京都,港区,浜松町２丁目２番１５号浜松町ダイヤビル２Ｆ,,13,103,1050013,,,,,,,2023-06-16,1,,,,,リベロ,0
27,1010601063278,新規,0,2023-06-16,2023-06-16,株式会社Ｎｉｋｓ,,株式会社,東京都,江東区,大島７丁目３１番１８号,,13,108,1360072,,,,,,,2023-06-16,1,,,,,ニクス,0
29,1010703006738,新規,0,2023-06-16,2023-06-16,合同会社ＥＬＭ,,合同会社,東京都,品川区,大崎２丁目７番地８ライズアップ大崎３０２,,13,109,1410032,,,,,,,2023-06-16,1,,,,,エルム,0
35,1010901053268,新規,0,2023-06-16,2023-06-16,株式会社コンフィー,,株式会社,東京都,世田谷区,瀬田３丁目９－８,,13,112,1580095,,,,,,,2023-06-16,1,,,,,コンフィー,0
36,1010903008237,新規,0,2023-06-16,2023-06-16,合同会社プラネット,,合同会社,東京都,世田谷区,上北沢１丁目１５番－１１号ｄｗｅｌｌ上北沢Ａ棟１０４,,13,112,1560057,,,,,,,2023-06-16,1,,,,,プラネット,0
46,1011001154799,新規,0,2023-06-16,2023-06-16,株式会社Ｂｌａｃｋ,,株式会社,東京都,渋谷区,千駄ヶ谷４丁目５－１０コンフォリア北参道１２０２,,13,113,1510051,,,,,,,2023-06-16,1,,,,,ブラック,0
47,1011001155038,新規,0,2023-06-16,2023-06-16,株式会社ヒサク,,株式会社,東京都,渋谷区,恵比寿３丁目２１－６恵比寿ガーデンヒルズ１０１,,13,113,1500013,,,,,,,2023-06-16,1,,,,,ヒサク,0
48,1011001155104,新規,0,2023-06-16,2023-06-16,株式会社ｉｓｅｅ,,株式会社,東京都,渋谷区,上原１丁目３３番１６号ラメール代々木上原３０３,,13,113,1510064,,,,,,,2023-06-16,1,,,,,アイシー,0
51,1011003017021,新規,0,2023-06-16,2023-06-16,合同会社リベル,,合同会社,東京都,渋谷区,道玄坂１丁目１５－３プリメーラ道玄坂６１１,,13,113,1500043,,,,,,,2023-06-16,1,,,,,リベル,0
57,1011101103292,新規,0,2023-06-16,2023-06-16,株式会社つむぎ文庫,,株式会社,東京都,新宿区,中井１丁目２番４－３０４号,,13,104,1610035,,,,,,,2023-06-16,1,,,,,ツムギブンコ,0
58,1011101103301,新規,0,2023-06-16,2023-06-16,株式会社ＪＲ‐ＴＲＡＤＥ,,株式会社,東京都,新宿区,大久保１丁目１番４９号タキカワ大久保ビル７Ｆ,,13,104,1690072,,,,,,,2023-06-16,1,,,,,ジェイアールトレード,0
60,1011103013168,新規,0,2023-06-16,2023-06-16,Ａｌ　Ｈａｂｅｅｂｉ合同会社,,合同会社,東京都,新宿区,西早稲田３丁目１３－３,,13,104,1690051,,,,,,,2023-06-16,1,,,,,アルハビービ,0
63,1011303004776,新規,0,2023-06-16,2023-06-16,合同会社ＷｉｎＤ,,合同会社,東京都,杉並区,浜田山４丁目３１―６,,13,115,1680065,,,,,,,2023-06-16,1,,,,,ウィンド,0
64,1011303004801,新規,0,2023-06-16,2023-06-16,合同会社Ｔｃｏｍｐａｎｙ,,合同会社,東京都,杉並区,和田３丁目３番１１号,,13,115,1660012,,,,,,,2023-06-16,1,,,,,ティーカンパニー,0
65,1011401025212,新規,0,2023-06-16,2023-06-16,株式会社ＪＡＣＫ,,株式会社,東京都,板橋区,新河岸１丁目５番６－１０３号,,13,119,1750081,,,,,,,2023-06-16,1,,,,,ジャック,0
71,1011601026902,新規,0,2023-06-16,2023-06-16,株式会社Ｂ＆Ｒ,,株式会社,東京都,練馬区,貫井２丁目３番６号,,13,120,1760021,,,,,,,2023-06-16,1,,,,,ビーアンドアール,0
79,1011801042591,新規,0,2023-06-16,2023-06-16,株式会社ディエス,,株式会社,東京都,足立区,舎人５丁目９番１９－１０３号,,13,121,1210831,,,,,,,2023-06-16,1,,,,,ディエス,0
80,1012303001838,新規,0,2023-06-16,2023-06-16,合同会社あっとＣａｒｅ,,合同会社,東京都,町田市,森野４丁目６番４号,,13,209,1940022,,,,,,,2023-06-16,1,,,,,アットケア,0
85,1012703002733,新規,0,2023-06-16,2023-06-16,Ｌｕａｎａ　ｌｅ’ａ合同会社,,合同会社,東京都,東村山市,栄町３丁目３２番地９,,13,213,1890013,,,,,,,2023-06-16,1,,,,,ルアナレア,0
87,1012801022435,新規,0,2023-06-16,2023-06-16,津越商事株式会社,,株式会社,東京都,日野市,南平１丁目２６番地６メゾン・ド・ノア南平（２）Ｄ４０３,,13,212,1910041,,,,,,,2023-06-16,1,,,,,ツゴシ,0
88,1012801022443,新規,0,2023-06-16,2023-06-16,株式会社グローバルメガプランニング,,株式会社,東京都,昭島市,福島町１丁目１８番６号ベルリオ１０２号室,,13,207,1960031,,,,,,,2023-06-16,1,,,,,グローバルメガプランニング,0
89,1013103001243,新規,0,2023-06-16,2023-06-16,ＭＴＶ合同会社,,合同会社,東京都,青梅市,河辺町５丁目８番地１４,,13,205,1980036,,,,,,,2023-06-16,1,,,,,エムティーブイ,0
92,1013301050918,新規,0,2023-06-16,2023-06-16,株式会社Ｄ＆Ｂ,,株式会社,東京都,豊島区,東池袋１丁目３３番４号ニュー池袋ハイツ６０７,,13,116,1700013,,,,,,,2023-06-16,1,,,,,ディーアンドビー,0
93,1013301050934,新規,0,2023-06-16,2023-06-16,Ｋａｍｉ　Ｉｎｔｅｒｎａｔｉｏｎａｌ株式会社,,株式会社,東京都,豊島区,南大塚２丁目１番１０－１０１Ａ号,,13,116,1700005,,,,,,,2023-06-16,1,,,,,ケミインターナショナル,0
94,1013303006645,新規,0,2023-06-16,2023-06-16,ウェルサス合同会社,,合同会社,東京都,豊島区,東池袋１丁目３４番５号いちご東池袋ビル６階,,13,116,1700013,,,,,,,2023-06-16,1,,,,,ウェルサス,0
100,1020001152052,新規,0,2023-06-16,2023-06-16,株式会社川崎医療器械店,,株式会社,神奈川県,川崎市麻生区,早野７３８,,14,137,2150016,,,,,,,2023-06-16,1,,,,,カワサキイリョウキカイテン,0
101,1020001152119,新規,0,2023-06-16,2023-06-16,ＰｉｘｉＣｒａｆｔ株式会社,,株式会社,神奈川県,川崎市川崎区,宮前町５番９号４Ｆ,,14,131,2100012,,,,,,,2023-06-16,1,,,,,ピクシクラフト,0
102,1020002021710,新規,0,2023-06-16,2023-06-16,荘園企業有限会社,,有限会社,神奈川県,横浜市旭区,上白根１丁目１番１９－１０１号,,14,112,2410002,,,,,,,2023-06-16,1,,,,,ショウエンキギョウ,0
104,1020003024027,新規,0,2023-06-16,2023-06-16,合同会社Ｉｎｃｒｅｎｅｒｇｙ,,合同会社,神奈川県,横浜市西区,北幸２丁目１０番地２８むつみビル３Ｆ,,14,103,2200004,,,,,,,2023-06-16,1,,,,,インクレナジー,0
105,1020003024068,新規,0,2023-06-16,2023-06-16,グッドテックサービス合同会社,,合同会社,神奈川県,横浜市港北区,日吉本町６丁目２２番２号,,14,109,2230062,,,,,,,2023-06-16,1,,,,,グッドテックサービス,0
107,1021003013201,新規,0,2023-06-16,2023-06-16,合同会社ミートハウス,,合同会社,神奈川県,厚木市,寿町３丁目１１－５,,14,212,2430003,,,,,,,2023-06-16,1,,,,,ミートハウス,0
108,1021003013226,新規,0,2023-06-16,2023-06-16,合同会社さくらゼミナール,,合同会社,神奈川県,横須賀市,大津町１丁目１２番２０号相和地所ビル２０２号,,14,201,2390808,,,,,,,2023-06-16,1,,,,,サクラゼミナール,0
116,1030001154469,新規,0,2023-06-16,2023-06-16,ＧＩＦＴ株式会社,,株式会社,埼玉県,吉川市,保１丁目２６番地９グリーンパーク吉川ＩＩ１０８号,00130868,11,243,3420041,,,,,,,2023-06-16,1,,,,,ギフト,0
119,1040001128810,新規,0,2023-06-16,2023-06-16,メルティリッチ株式会社,,株式会社,千葉県,流山市,南流山４丁目３番地の１１ロイヤル南流山１０５,,12,220,2700163,,,,,,,2023-06-16,1,,,,,メルティリッチ,0
120,1040001128851,新規,0,2023-06-16,2023-06-16,株式会社宮本電気,,株式会社,千葉県,柏市,柏の葉３丁目４番地の３２,,12,217,2770882,,,,,,,2023-06-16,1,,,,,ミヤモトデンキ,0
121,1040001128868,新規,0,2023-06-16,2023-06-16,Ｒａｐｉｄ　Ｌｏｇｉｓｔｉｃｓ　Ｊａｐａｎ株式会社,,株式会社,千葉県,習志野市,茜浜２丁目１番２号,,12,216,2750024,,,,,,,2023-06-16,1,,,,,ラピッドロジスティックスジャパン,0
123,1040003022796,新規,0,2023-06-16,2023-06-16,合同会社おると,,合同会社,千葉県,佐倉市,西志津６丁目６番１２号,,12,212,2850845,,,,,,,2023-06-16,1,,,,,オルト,0
129,1060001036078,新規,0,2023-06-16,2023-06-16,株式会社ＨＥＡＲＴＳ　ＡＮＤ　ＬＩＶＥＳ,,株式会社,栃木県,宇都宮市,宝木本町１４７４番地１４,,09,201,3200075,,,,,,,2023-06-16,1,,,,,ハーツアンドライヴズ,0
132,1070001040541,新規,0,2023-06-16,2023-06-16,株式会社Ｋ‐Ｗｏｒｋｓ,,株式会社,群馬県,伊勢崎市,長沼町２０２７番地１,,10,204,3720855,,,,,,,2023-06-16,1,,,,,,0
138,1070003004973,新規,0,2023-06-16,2023-06-16,北関東良品販売合同会社,,合同会社,群馬県,高崎市,下豊岡町５８２―３２,,10,202,3700873,,,,,,,2023-06-16,1,,,,,キタカントウリョウヒンハンバイ,0
139,1080401026544,新規,0,2023-06-16,2023-06-16,株式会社東京ふとん店,,株式会社,静岡県,浜松市南区,頭陀寺町３３０番地の４,,22,134,4300817,,,,,,,2023-06-16,1,,,,,トウキョウフトンテン,0
151,1120001255282,新規,0,2023-06-16,2023-06-16,株式会社ベストフィット,,株式会社,大阪府,大阪市西成区,鶴見橋３丁目１番地３０号安田ビル２階６－７号室,,27,122,5570031,,,,,,,2023-06-16,1,,,,,ベストフィット,0
152,1120001255753,新規,0,2023-06-16,2023-06-16,株式会社Ｈｅｌｐ　Ｓｈａｒｅ,,株式会社,大阪府,大阪市北区,梅田１丁目２番２号大阪駅前第２ビル１２－１２,,27,127,5300001,,,,,,,2023-06-16,1,,,,,ヘルプシェア,0
153,1120001255761,新規,0,2023-06-16,2023-06-16,都洋通商株式会社,,株式会社,大阪府,大阪市大正区,三軒家西３丁目４番１６号中山ビル４０８Ａ,,27,108,5510001,,,,,,,2023-06-16,1,,,,,トヨウツウショウ,0
154,1120001255803,新規,0,2023-06-16,2023-06-16,株式会社ＮＯＲＩＤＥＮ,,株式会社,大阪府,枚方市,杉山手３丁目１８番８号,,27,210,5730118,,,,,,,2023-06-16,1,,,,,ノリデン,0
155,1120001255811,新規,0,2023-06-16,2023-06-16,株式会社ＨＹＮＮ,,株式会社,大阪府,大阪市北区,梅田２丁目５番１３号桜橋第一ビル３０４号,,27,127,5300001,,,,,,,2023-06-16,1,,,,,エイチワイエヌエヌ,0
156,1120001255836,新規,0,2023-06-16,2023-06-16,＿金株式会社,00130875,株式会社,大阪府,大阪市旭区,生江３丁目４番２３号１－Ａ,,27,117,5350004,,,,,,,2023-06-16,1,,,,,ウキン,0
157,1120001255852,新規,0,2023-06-16,2023-06-16,古香會株式会社,,株式会社,大阪府,大阪市天王寺区,真法院町１０番１１号,,27,109,5430041,,,,,,,2023-06-16,1,,,,,ココウカイ,0
160,1120003024306,新規,0,2023-06-16,2023-06-16,合同会社５８クリエイト,,合同会社,大阪府,大阪市淀川区,西中島１丁目６番１３号,,27,123,5320011,,,,,,,2023-06-16,1,,,,,ゴーパチクリエイト,0
161,1120003024314,新規,0,2023-06-16,2023-06-16,ＪＡＰＡＮ　ＦＵＴＵＲＥ　ＧＲＯＵＰ合同会社,,合同会社,大阪府,大阪市中央区,備後町１丁目６番１号,,27,128,5410051,,,,,,,2023-06-16,1,,,,,ジャパンフューチャーグループ,0
163,1120101067751,新規,0,2023-06-16,2023-06-16,株式会社Ｔ‐ＧＲＯＷ,,株式会社,大阪府,松原市,別所４丁目１０番３１－２０１号,,27,217,5800005,,,,,,,2023-06-16,1,,,,,ティーグロウ,0
167,1120901047671,新規,0,2023-06-16,2023-06-16,株式会社レフティミート,,株式会社,大阪府,豊中市,服部寿町２丁目１５番１７号,,27,203,5610857,,,,,,,2023-06-16,1,,,,,レフティミート,0
168,1120903004695,新規,0,2023-06-16,2023-06-16,合同会社ｎｏｂｌｅ　ｓｔｙｌｅ,,合同会社,大阪府,豊中市,上野西３丁目５番３６号,,27,203,5600011,,,,,,,2023-06-16,1,,,,,ノーブルスタイル,0
170,1122001037082,新規,0,2023-06-16,2023-06-16,株式会社ポピー,,株式会社,大阪府,八尾市,緑ヶ丘４丁目９番地の４７,,27,212,5810837,,,,,,,2023-06-16,1,,,,,ポピー,0
172,1130001074491,新規,0,2023-06-16,2023-06-16,Ｊ．ｆｅｌｌｏｗｓ株式会社,,株式会社,京都府,京都市南区,吉祥院中島町３０番１３号,,26,107,6018313,,,,,,,2023-06-16,1,,,,,ジェイフェローズ,0
173,1130001074558,新規,0,2023-06-16,2023-06-16,株式会社Ｓｅａ　Ｒａｉｎｂｏｗ,,株式会社,京都府,京都市山科区,四ノ宮神田町２８－２,,26,110,6078035,,,,,,,2023-06-16,1,,,,,シーレインボー,0
179,1140001130590,新規,0,2023-06-16,2023-06-16,株式会社ＵＧ,,株式会社,兵庫県,神戸市中央区,北長狭通１丁目２０番１２号地蔵ビル４Ｆ,,28,110,6500012,,,,,,,2023-06-16,1,,,,,ユージー,0
184,1150001026490,新規,0,2023-06-16,2023-06-16,株式会社Ｇ．Ａ．ＢＵＩＬＤ,,株式会社,奈良県,橿原市,八木町３丁目４番２３号,,29,205,6340078,,,,,,,2023-06-16,1,,,,,ジーエービルド,0
189,1170001017645,新規,0,2023-06-16,2023-06-16,株式会社南紀クリーニング,,株式会社,和歌山県,田辺市,鮎川７６２番地の４,,30,206,6461101,,,,,,,2023-06-16,1,,,,,ナンキクリーニング,0
200,1180001156756,新規,0,2023-06-16,2023-06-16,株式会社ＲＩＳＥ,,株式会社,愛知県,名古屋市中川区,福川町３丁目１番地の１８（ユーハウス第３蜆橋４０４号）,,23,110,4540059,,,,,,,2023-06-16,1,,,,,ライズ,0
201,1180001156797,新規,0,2023-06-16,2023-06-16,アンビエントデザインズ株式会社,,株式会社,愛知県,名古屋市中区,新栄２丁目１番４１号,,23,106,4600007,,,,,,,2023-06-16,1,,,,,アンビエントデザインズ,0
204,1180003025364,新規,0,2023-06-16,2023-06-16,合同会社結誠,,合同会社,愛知県,名古屋市瑞穂区,井の元町２５２番地の１,,23,108,4670057,,,,,,,2023-06-16,1,,,,,ケッセイ,0
205,1180301037490,新規,0,2023-06-16,2023-06-16,株式会社ＣＩＮＱ,,株式会社,愛知県,西尾市,上町南荒子２６番地５,,23,213,4450894,,,,,,,2023-06-16,1,,,,,サンク,0
210,1190001030506,新規,0,2023-06-16,2023-06-16,株式会社タナベコーポレーション,,株式会社,三重県,松阪市,小黒田町４６８番地３,,24,204,5150062,,,,,,,2023-06-16,1,,,,,タナベコーポレーション,0
213,1190003004359,新規,0,2023-06-16,2023-06-16,合同会社Ｃ‐Ｒａｎｇｅ　Ｓｔｕｄｉｏ,,合同会社,三重県,度会郡大紀町,阿曽４４３番地,,24,471,5192704,,,,,,,2023-06-16,1,,,,,シーレンジスタジオ,0
223,1240001061685,新規,0,2023-06-16,2023-06-16,株式会社Ｐａｌｓ,,株式会社,広島県,広島市安佐南区,伴北７丁目４８番２２号,,34,105,7313163,,,,,,,2023-06-16,1,,,,,パルズ,0
224,1240001061693,新規,0,2023-06-16,2023-06-16,株式会社ルクセ,,株式会社,広島県,福山市,熊野町甲１９６１番地７,,34,207,7200411,,,,,,,2023-06-16,1,,,,,,0
227,1260001038038,新規,0,2023-06-16,2023-06-16,株式会社ヘルスナビ,,株式会社,岡山県,岡山市北区,津島本町１４番４８号,,33,101,7000089,,,,,,,2023-06-16,1,,,,,ヘルスナビ,0
235,1290003014034,新規,0,2023-06-16,2023-06-16,合同会社永福レコード,,合同会社,福岡県,福岡市中央区,天神４丁目６‐２８天神ファーストビル７階,,40,133,8100001,,,,,,,2023-06-16,1,,,,,エイフクレコード,0
237,1290801029621,新規,0,2023-06-16,2023-06-16,株式会社オープンマインド,,株式会社,福岡県,北九州市小倉北区,京町２丁目７番８号小倉ビル１階,,40,106,8020002,,,,,,,2023-06-16,1,,,,,オープンマインド,0
242,1290803004440,新規,0,2023-06-16,2023-06-16,合同会社プラスアス,,合同会社,福岡県,北九州市小倉北区,熊本３丁目１３番３３－４０１号,,40,106,8020044,,,,,,,2023-06-16,1,,,,,プラスアス,0
244,1310001007945,新規,0,2023-06-16,2023-06-16,株式会社古賀建設,,株式会社,長崎県,諫早市,永昌東町６番１０号,,42,204,8540071,,,,,,,2023-06-16,1,,,,,コガケンセツ,0
245,1310001018471,新規,0,2023-06-16,2023-06-16,株式会社エイチエムユー,,株式会社,長崎県,大村市,西大村本町７６４番地６サン荘２０３号,,42,205,8560813,,,,,,,2023-06-16,1,,,,,エイチエムユー,0
248,1320001019840,新規,0,2023-06-16,2023-06-16,株式会社ｈｄｆ,,株式会社,大分県,大分市,中津留１丁目２番３号エクセル中津留２０１,,44,201,8700939,,,,,,,2023-06-16,1,,,,,エイチディーエフ,0
258,1360001032179,新規,0,2023-06-16,2023-06-16,株式会社フラモン,,株式会社,沖縄県,浦添市,当山２丁目２５番８－２号２Ｆ,,47,208,9012104,,,,,,,2023-06-16,1,,,,,フラモン,0
261,1370001050097,新規,0,2023-06-16,2023-06-16,株式会社ゼロカラット,,株式会社,宮城県,名取市,下余田字原田４６番１,,04,207,9811223,,,,,,,2023-06-16,1,,,,,ゼロカラット,0
268,1380001033786,新規,0,2023-06-16,2023-06-16,株式会社ＷＥＳＣＯＮ,,株式会社,福島県,郡山市,開成２丁目２８番１号プラザ開成第１－１０２号,,07,203,9638851,,,,,,,2023-06-16,1,,,,,ウェスコン,0
282,1430001089377,新規,0,2023-06-16,2023-06-16,株式会社Ｉ‐Ｄｅａｒ,,株式会社,北海道,札幌市北区,篠路町拓北３１番地,,01,102,0028054,,,,,,,2023-06-16,1,,,,,アイディア,0
285,1480005006968,新規,0,2023-06-16,2023-06-16,一般社団法人ＣＯ‐ＭＯＲＩ,,その他の設立登記法人,徳島県,三好郡東みよし町,足代２１２６番地,,36,489,7712502,,,,,,,2023-06-16,1,,,,,コモリ,0
295,1700150117506,新規,0,2023-06-16,2023-06-16,ｎａｎｔｏｎｇｄｕｋａｉｄｉａｎｚｉｓｈａｎｇｗｕｙｏｕｘｉａｎｇｏｎｇｓｉ,,外国会社等,,,,,,,,ｔｏｎｇｚｈｏｕｑｕｊｉｎｓｈａｊｉｅｄａｏｊｉｎｙｏｕｃｈｅｎｇｍｅｉｇｕｉｆａｎｇＡ　ｎａｎｔｏｎｇｓｈｉｊｉａｎｇｓｕｓｈｅｎｇ　２２６３００　ＣＮ,,,,,,2023-06-16,1,,,,,ナントンドウーカイデイエンズーシヤンウーヨウシエンゴンスー,0
296,1700150117539,新規,0,2023-06-16,2023-06-16,Ｓｈｅｎｚｈｅｎｓｈｉｆｅｎｇｃｈｉｄｉａｎｚｉｓｈａｎｇｗｕｙｏｕｘｉａｎｇｏｎｇｓｉ,,外国会社等,,,,,,,,Ｓｈｅｎｚｈｅｎｓｈｉｌｏｎｇｈｕａｑｕｌｏｎｇｈｕａｊｉｅｄａｏｙｏｕｓｏｎｇｓｈｅｑｕｊｕｎｌｏｎｇｘｉｎｃｕｎ３２ｄｏｎｇ８０３,,,,,,2023-06-16,1,,,,,シンセンシフウチデンシシヨウムユウゲンコウシ,0
306,2010001236193,新規,0,2023-06-16,2023-06-16,株式会社ｗｅｂコンピュータサービス,,株式会社,東京都,中央区,築地２丁目１１－２６築地ＭＫビル４階,,13,102,1040045,,,,,,,2023-06-16,1,,,,,ウェブコンピュータサービス,0
307,2010001236235,新規,0,2023-06-16,2023-06-16,株式会社ＬＰＳＨ,,株式会社,東京都,中央区,日本橋室町１丁目１１番１２号日本橋水野ビル７Ｆ,,13,102,1030022,,,,,,,2023-06-16,1,,,,,エルピーエスエイチ,0
308,2010003040858,新規,0,2023-06-16,2023-06-16,合同会社ｆａｗ,,合同会社,東京都,千代田区,神田岩本町１番地岩本町ビル９５号,,13,101,1010033,,,,,,,2023-06-16,1,,,,,ファウ,0
319,2010401175124,新規,0,2023-06-16,2023-06-16,株式会社Ｊ‐ｉｎＳＰＡＣＥ,,株式会社,東京都,港区,芝公園１丁目１番１２号芝公園電気ビルディング６Ｆ,,13,103,1050011,,,,,,,2023-06-16,1,,,,,ジェイインスペース,0
320,2010403030335,新規,0,2023-06-16,2023-06-16,ＡＤＥＮＡ　Ｊａｐａｎ合同会社,,合同会社,東京都,港区,虎ノ門５丁目１番４号東都ビル２Ｆ,,13,103,1050001,,,,,,,2023-06-16,1,,,,,アデナジャパン,0
321,2010601063277,新規,0,2023-06-16,2023-06-16,阜康株式会社,,株式会社,東京都,墨田区,東駒形２丁目２番１３東駒形二丁目ビル２０３号室,,13,107,1300005,,,,,,,2023-06-16,1,,,,,フコウ,0
332,2011001154848,新規,0,2023-06-16,2023-06-16,株式会社Ｓｔｅｐ,,株式会社,東京都,目黒区,原町２丁目１６番４号,,13,110,1520011,,,,,,,2023-06-16,1,,,,,ステップ,0
333,2011001155078,新規,0,2023-06-16,2023-06-16,Ｃｏｍｈｕｍａｎ‐Ｑｕａｌｉｔｙ株式会社,,株式会社,東京都,渋谷区,恵比寿１丁目１５－９－４０３,,13,113,1500013,,,,,,,2023-06-16,1,,,,,コンヒューマンクオリティ,0
334,2011001155103,新規,0,2023-06-16,2023-06-16,株式会社Ｙ．Ｃ　ＣＩＲＣＵＬＡＴＥ,,株式会社,東京都,目黒区,大橋２丁目２４番１号,,13,110,1530044,,,,,,,2023-06-16,1,,,,,ワイシーサーキュレイト,0
335,2011001155111,新規,0,2023-06-16,2023-06-16,株式会社Ｓａｎｔａｓｕ,,株式会社,東京都,目黒区,平町１丁目７番７号,,13,110,1520032,,,,,,,2023-06-16,1,,,,,サンタス,0
336,2011001155128,新規,0,2023-06-16,2023-06-16,株式会社ＭＥＮ’Ｓ　ＨＡＩＲ　ＪＡＰＡＮ,,株式会社,東京都,渋谷区,神宮前３丁目２７番１５号ＦＬＡＧ３Ｆ,,13,113,1500001,,,,,,,2023-06-16,1,,,,,メンズヘアジャパン,0
341,2011101103259,新規,0,2023-06-16,2023-06-16,株式会社ハジメカラ,,株式会社,東京都,新宿区,西新宿５丁目２４番１７号ＳＩＬ西新宿６階,,13,104,1600023,,,,,,,2023-06-16,1,,,,,ハジメカラ,0
342,2011101103291,新規,0,2023-06-16,2023-06-16,株式会社Ｇｉｒａｓｏｌ,,株式会社,東京都,新宿区,西新宿７丁目７番地３３号新銘ビル４階,,13,104,1600023,,,,,,,2023-06-16,1,,,,,ヒラソル,0
347,2011303004800,新規,0,2023-06-16,2023-06-16,合同会社Ｇ　ＮＩＮＥ,,合同会社,東京都,杉並区,和泉２丁目３５番１０号,,13,115,1680063,,,,,,,2023-06-16,1,,,,,ジーナイン,0
353,2011603003964,新規,0,2023-06-16,2023-06-16,ｆｉｇｕｒｅｓ合同会社,,合同会社,東京都,練馬区,早宮１丁目２５番２号,,13,120,1790085,,,,,,,2023-06-16,1,,,,,フィギュアーズ,0
358,2011801042590,新規,0,2023-06-16,2023-06-16,株式会社ＭＹＮ,,株式会社,東京都,足立区,西綾瀬３丁目２２番４号,,13,121,1200014,,,,,,,2023-06-16,1,,,,,マイン,0
363,2012701017699,新規,0,2023-06-16,2023-06-16,株式会社ＨＡＲＥＴＡ,,株式会社,東京都,西東京市,芝久保町４丁目４番４Ｂ－３２４号,,13,229,1880014,,,,,,,2023-06-16,1,,,,,ハレタ,0
364,2012801022442,新規,0,2023-06-16,2023-06-16,株式会社ジェノ,,株式会社,東京都,国分寺市,南町３丁目４番１２－Ｂ号,,13,214,1850021,,,,,,,2023-06-16,1,,,,,ジェノ,0
372,2020001152101,新規,0,2023-06-16,2023-06-16,株式会社Ｏｎｅ　ｆｏｒ　ａｌｌ,,株式会社,神奈川県,横浜市港北区,箕輪町３丁目２５番１１号,,14,109,2230051,,,,,,,2023-06-16,1,,,,,ワンフォーオール,0
376,2020003024075,新規,0,2023-06-16,2023-06-16,合同会社アイズカレント,,合同会社,神奈川県,横浜市港北区,綱島東３丁目４番１１号,,14,109,2230052,,,,,,,2023-06-16,1,,,,,アイズカレント,0
380,2021001079350,新規,0,2023-06-16,2023-06-16,株式会社Ｂｅｌｃｏｒｅ,,株式会社,神奈川県,茅ヶ崎市,出口町１１－３４－１,,14,207,2530028,,,,,,,2023-06-16,1,,,,,ベルコア,0
381,2021001079359,新規,0,2023-06-16,2023-06-16,株式会社アネックス,,株式会社,神奈川県,綾瀬市,吉岡東４丁目１０番６号,,14,218,2521125,,,,,,,2023-06-16,1,,,,,アネックス,0
387,2021003013217,新規,0,2023-06-16,2023-06-16,幸楽合同会社,,合同会社,神奈川県,相模原市中央区,淵野辺本町４丁目２２番１０号,,14,152,2520202,,,,,,,2023-06-16,1,,,,,コウラク,0
399,2030003021922,新規,0,2023-06-16,2023-06-16,合同会社りぴゅあ,,合同会社,埼玉県,朝霞市,東弁財３丁目１５番３号,,11,227,3510022,,,,,,,2023-06-16,1,,,,,リピュア,0
401,2030005021301,新規,0,2023-06-16,2023-06-16,一般社団法人タガヤス,,その他の設立登記法人,埼玉県,さいたま市大宮区,北袋町１丁目１５０番地６,,11,103,3300835,,,,,,,2023-06-16,1,,,,,タガヤス,0
405,2040001128727,新規,0,2023-06-16,2023-06-16,株式会社ＬｅｖｅＬｉｖｉｎｇ,,株式会社,千葉県,松戸市,本町１７－１１芹澤ビル６Ｆ,,12,207,2710091,,,,,,,2023-06-16,1,,,,,レベリビング,0
417,2060005010103,新規,0,2023-06-16,2023-06-16,一般社団法人Ｅｖｅｒｙｐａｗｄｙ,,その他の設立登記法人,栃木県,那須郡那須町,大字高久丙１１４７番地４８８,,09,407,3250302,,,,,,,2023-06-16,1,,,,,エブリィパウディ,0
426,2080001025672,新規,0,2023-06-16,2023-06-16,株式会社シンビ,,株式会社,静岡県,静岡市清水区,押切１２５１番地の２,,22,103,4240008,,,,,,,2023-06-16,1,,,,,シンビ,0
432,2080401026543,新規,0,2023-06-16,2023-06-16,株式会社Ｌｅａｆ,,株式会社,静岡県,浜松市浜北区,宮口３５１５番地の１ドエルコートＡ－１,,22,136,4340004,,,,,,,2023-06-16,1,,,,,リーフ,0
436,2100001036527,新規,0,2023-06-16,2023-06-16,株式会社ＰＥＴＴＯＮ,,株式会社,長野県,長野市,大字南長池２０５番地,,20,201,3810024,,,,,,,2023-06-16,1,,,,,ペットン,0
449,2120001255686,新規,0,2023-06-16,2023-06-16,株式会社松永企画,,株式会社,大阪府,大阪市東住吉区,桑津３丁目２０番２６号,,27,121,5460041,,,,,,,2023-06-16,1,,,,,マツナガキカク,0
450,2120001255760,新規,0,2023-06-16,2023-06-16,藤井百合子株式会社,,株式会社,大阪府,大阪市大正区,三軒家西３丁目４番１６号中山ビル４０９Ａ,,27,108,5510001,,,,,,,2023-06-16,1,,,,,フジイユリコ,0
451,2120001255777,新規,0,2023-06-16,2023-06-16,株式会社ナル,,株式会社,大阪府,枚方市,山之上北町６０番１－１６０９号,,27,210,5730049,,,,,,,2023-06-16,1,,,,,ナル,0
452,2120001255802,新規,0,2023-06-16,2023-06-16,株式会社ＯＪＨＨ,,株式会社,大阪府,大阪市西区,南堀江１丁目１１番５号２Ｆ,,27,106,5500015,,,,,,,2023-06-16,1,,,,,オージェイエイチエイチ,0
453,2120001255843,新規,0,2023-06-16,2023-06-16,開宝物産株式会社,,株式会社,大阪府,大阪市旭区,生江３丁目４番２３号２－Ｃ,,27,117,5350004,,,,,,,2023-06-16,1,,,,,カイホウブッサン,0
457,2120003024172,新規,0,2023-06-16,2023-06-16,合同会社Ｓｏｆｒｉａ,,合同会社,大阪府,大阪市天王寺区,上汐５丁目７番１１号セタピエーナ夕陽丘８０１号,,27,109,5430002,,,,,,,2023-06-16,1,,,,,ソフリア,0
458,2120003024222,新規,0,2023-06-16,2023-06-16,ＣＩＬＡＮＴＲＯ合同会社,,合同会社,大阪府,大阪市阿倍野区,丸山通１丁目６‐６,,27,119,5450042,,,,,,,2023-06-16,1,,,,,シラントロ,0
459,2120003024296,新規,0,2023-06-16,2023-06-16,ＴＯＰ　ＰＡＲＴＮＥＲ合同会社,,合同会社,大阪府,大阪市城東区,鴫野東１丁目８－２０－０１号,,27,118,5360013,,,,,,,2023-06-16,1,,,,,トップパートナー,0
460,2120003024305,新規,0,2023-06-16,2023-06-16,合同会社ＴＲＡＶＩＲＡＭ,,合同会社,大阪府,大阪市此花区,梅花三丁目３１番１３号,,27,104,5540000,,,,,,,2023-06-16,1,,,,,トラビラム,0
479,2130001074565,新規,0,2023-06-16,2023-06-16,株式会社ピーススピリット,,株式会社,京都府,向日市,寺戸町新田２９番地の１,,26,208,6170002,,,,,,,2023-06-16,1,,,,,ピーススピリット,0
485,2140001130557,新規,0,2023-06-16,2023-06-16,株式会社ＫＩＴＡＭＵＲＡ,,株式会社,兵庫県,豊岡市,出石町柳２６番地,,28,209,6680234,,,,,,,2023-06-16,1,,,,,キタムラ,0
486,2140001130581,新規,0,2023-06-16,2023-06-16,株式会社ＹｏＳｏＭｏ,,株式会社,兵庫県,神戸市垂水区,桃山台２丁目１１８８番地の８３,,28,108,6550854,,,,,,,2023-06-16,1,,,,,ヨソモ,0
490,2140003019212,新規,0,2023-06-16,2023-06-16,合同会社ｎａｏ建築工房,,合同会社,兵庫県,神戸市北区,北五葉１丁目８番２０号,,28,109,6511131,,,,,,,2023-06-16,1,,,,,ナオケンチクコウボウ,0
504,2180001156739,新規,0,2023-06-16,2023-06-16,株式会社Ｋ．マサコ,,株式会社,愛知県,江南市,高屋町本郷７６番地,,23,217,4838082,,,,,,,2023-06-16,1,,,,,ケイマサコ,0
508,2180005020255,新規,0,2023-06-16,2023-06-16,ブルーウイング社会保険労務士法人,,その他の設立登記法人,愛知県,名古屋市中区,金山１丁目９番１９号,,23,106,4600022,,,,,,,2023-06-16,1,,,,,ブルーウイング,0
515,2190001030505,新規,0,2023-06-16,2023-06-16,株式会社ＫｕＫｕＲｕ,,株式会社,三重県,鈴鹿市,道伯町２４１９番地メゾンドグラシューズ２０１,,24,207,5130824,,,,,,,2023-06-16,1,,,,,ククル,0
519,2210001019355,新規,0,2023-06-16,2023-06-16,ＹＤＫメカトロニクス株式会社,,株式会社,福井県,福井市,稲多新町２の７番地,,18,201,9100156,,,,,,,2023-06-16,1,,,,,ワイディーケーメカトロニクス,0
526,2240001061692,新規,0,2023-06-16,2023-06-16,株式会社ＭＪＹ,,株式会社,広島県,東広島市,西条西本町２８番１－２０６号,,34,212,7390043,,,,,,,2023-06-16,1,,,,,エムジェイワイ,0
531,2250001020144,新規,0,2023-06-16,2023-06-16,株式会社スマイルにしき,,株式会社,山口県,岩国市,錦町広瀬６７０７番地１,,35,208,7400724,,,,,,,2023-06-16,1,,,,,スマイルニシキ,0
533,2260001002975,新規,0,2023-06-16,2023-06-16,サンタク工業株式会社,,株式会社,岡山県,岡山市,西崎本町７番５号,,33,201,7000056,,,,,,,2023-06-16,1,,,,,サンタクコウギョウ,0
538,2290001101972,新規,0,2023-06-16,2023-06-16,株式会社Ｊ‐ＦｏｕｒＴｅｅＮ,,株式会社,福岡県,福岡市早良区,城西３丁目３番９号,,40,137,8140003,,,,,,,2023-06-16,1,,,,,ジェイフォーティーン,0
547,2290801029620,新規,0,2023-06-16,2023-06-16,株式会社Ｂｉｇ　ｓｍｉｌｅ,,株式会社,福岡県,北九州市小倉北区,京町２丁目７番８号小倉ビル１階,,40,106,8020002,,,,,,,2023-06-16,1,,,,,ビッグスマイル,0
549,2310001018470,新規,0,2023-06-16,2023-06-16,白嶽酒造株式会社,,株式会社,長崎県,対馬市,美津島町鷄知甲４９０番地１,00130888,42,209,8170000,,,,,,,2023-06-16,1,,,,,シラタケシュゾウ,0
557,2340003004152,新規,0,2023-06-16,2023-06-16,合同会社鹿児島映像社,,合同会社,鹿児島県,鹿児島市,呉服町２－８,,46,201,8920826,,,,,,,2023-06-16,1,,,,,カゴシマエイゾウシャ,0
560,2350003004382,新規,0,2023-06-16,2023-06-16,合同会社ｆｕｍｉａ,,合同会社,宮崎県,児湯郡新富町,大字新田５６７番地２,,45,402,8891406,,,,,,,2023-06-16,1,,,,,フミア,0
561,2360001032178,新規,0,2023-06-16,2023-06-16,ＳＴグラン株式会社,,株式会社,沖縄県,浦添市,牧港１丁目２２番１４号１Ｆ,,47,208,9012131,,,,,,,2023-06-16,1,,,,,エスティーグラン,0
566,2380001033785,新規,0,2023-06-16,2023-06-16,株式会社ＩＮＡＺＵＭＡ,,株式会社,福島県,郡山市,久留米６丁目２の５二瓶マンション２０３,,07,203,9638846,,,,,,,2023-06-16,1,,,,,イナズマ,0
573,2420001018303,新規,0,2023-06-16,2023-06-16,弘前りんご株式会社,,株式会社,青森県,弘前市,大字高杉字神原２５０番地１１,,02,202,0368302,,,,,,,2023-06-16,1,,,,,ヒロサキリンゴ,0
575,2430001089319,新規,0,2023-06-16,2023-06-16,株式会社たかみ,,株式会社,北海道,札幌市北区,北二十三条西４丁目２番３号プラザハイツ２４－４０５号,,01,102,0010023,,,,,,,2023-06-16,1,,,,,タカミ,0
576,2430001089384,新規,0,2023-06-16,2023-06-16,きっと良くなる株式会社,,株式会社,北海道,札幌市中央区,北一条西２４丁目２番２６号ＴＡＫＵＢＩ２階,,01,101,0640821,,,,,,,2023-06-16,1,,,,,キットヨクナル,0
596,2700150117505,新規,0,2023-06-16,2023-06-16,Ｈｏｎｇ　Ｋｏｎｇ　Ｓｋｙ　Ｔｏｐ　Ｐｏｗｅｒ　Ｔｅｃｈｎｏｌｏｇｙ　Ｃｏ．，Ｌｉｍｉｔｅｄ,,外国会社等,,,,,,,,ＵＮＩＴ　Ｄ　１６／Ｆ　ＯＮＥ　ＣＡＰＩＴＡＬ　ＰＬＡＣＥ　１８　ＬＵＡＲＤ　ＲＯＡＤ　ＷＡＮ　ＣＨＡＩ　ＨＯＮＧ　ＫＯＮＧ　９９０７７　ＨＫ,,,,,,2023-06-16,1,,,,,シヤンガンテイエントウオユエンコージーヨウシエンゴンスー,0
597,2700150117538,新規,0,2023-06-16,2023-06-16,ＳＨＥＮ　ＺＨＥＮ　ＳＨＩ　ＸＩＮ　ＤＵＯ　ＬＥＩ　ＭＡＯ　ＹＩ　ＹＯＵ　ＸＩＡＮ　ＧＯＮＧ　ＳＩ,,外国会社等,,,,,,,,１２１０Ｂ－Ｆ６０，Ｂｕｉｌｄｉｎｇ　６，Ｐｈａｓｅ　ＩＩ，Ｄｏｎｇｊｉｕ　Ｉｎｎｏｖａｔｉｏｎ　ａｎｄ　Ｔｅｃｈｎｏｌｏｇｙ　Ｐａｒｋ，Ｎｏ．７３，Ｘｉａｌｉ　Ｓｏｕｔｈ　Ｒｏａｄ，Ｘｉａｌｉｌａｎｇ　Ｃｏｍｍｕｎｉｔｙ，Ｎａｎｗａｎ　Ｓｔｒｅｅｔ，Ｌｏｎｇｇａｎｇ　Ｄｉｓｔｒｉｃｔ，Ｓｈｅｎｚｈｅｎ,00130850,,,,,2023-06-16,1,,,,,シンセンシヂンドールトトレーデイングユウゲンコウシ,0
604,3010001235954,新規,0,2023-06-16,2023-06-16,株式会社ＯＨＡＫＯ,,株式会社,東京都,千代田区,神田松永町１３番地ＶＯＲＴ秋葉原ＩＩ,00130876,13,101,1010023,,,,,,,2023-06-16,1,,,,,オハコ,0
608,3010003040881,新規,0,2023-06-16,2023-06-16,合同会社Ｍｅｄｉｃａｌ　Ｍａｒｖｅｌ,,合同会社,東京都,千代田区,神田神保町１丁目６２番地２,,13,101,1010051,,,,,,,2023-06-16,1,,,,,メディカルマーベル,0
609,3010003040907,新規,0,2023-06-16,2023-06-16,合同会社遼佳,,合同会社,東京都,中央区,銀座１丁目２２番１１号銀座大竹ビジデンス２Ｆ,,13,102,1040061,,,,,,,2023-06-16,1,,,,,ハルカ,0
612,3010005036837,新規,0,2023-06-16,2023-06-16,一般社団法人ＴＨＳ,,その他の設立登記法人,東京都,千代田区,丸の内２丁目１番１号,,13,101,1000005,,,,,,,2023-06-16,1,,,,,ティーエイチエス,0
615,3010401175073,新規,0,2023-06-16,2023-06-16,株式会社コネクト,,株式会社,東京都,港区,芝大門２丁目１０－７桜門会ビルＩＩ４Ｆ,00130884,13,103,1050012,,,,,,,2023-06-16,1,,,,,コネクト,0
616,3010401175115,新規,0,2023-06-16,2023-06-16,株式会社Ｆｉｎｉｋｓ,,株式会社,東京都,港区,赤坂２丁目１６番６号,,13,103,1070052,,,,,,,2023-06-16,1,,,,,フィニクス,0
622,3010601063276,新規,0,2023-06-16,2023-06-16,株式会社パートナーズシェア,,株式会社,東京都,墨田区,八広３丁目２６番４,,13,107,1310041,,,,,,,2023-06-16,1,,,,,パートナーズシェア,0
627,3010801034060,新規,0,2023-06-16,2023-06-16,株式会社ＫＳＫ,,株式会社,東京都,大田区,東矢口３丁目２１番１９号,,13,111,1460094,,,,,,,2023-06-16,1,,,,,ケーエスケー,0
630,3010901053266,新規,0,2023-06-16,2023-06-16,株式会社ｉｎｎｏｖａｔｉｏｎ　ｗｉｚａｒｄ,,株式会社,東京都,世田谷区,経堂１丁目１７番１３号,,13,112,1560052,,,,,,,2023-06-16,1,,,,,イノベーションウィザード,0
632,3011001154913,新規,0,2023-06-16,2023-06-16,ＣＫ株式会社,,株式会社,東京都,渋谷区,千駄ヶ谷４丁目１９－１４サンネット千駄ヶ谷ビル３階東,,13,113,1510051,,,,,,,2023-06-16,1,,,,,シイケイ,0
633,3011001155077,新規,0,2023-06-16,2023-06-16,株式会社ＳＫｘＴＥＣＨ,,株式会社,東京都,渋谷区,恵比寿西２丁目１９番９号フランセスビル１Ｆ,,13,113,1500021,,,,,,,2023-06-16,1,,,,,エスケイクロステック,0
634,3011001155119,新規,0,2023-06-16,2023-06-16,大成株式会社,,株式会社,東京都,渋谷区,道玄坂１丁目１０番８号渋谷道玄坂東急ビル２Ｆ－Ｃ,,13,113,1500043,,,,,,,2023-06-16,1,,,,,ダイセイ,0
635,3011001155127,新規,0,2023-06-16,2023-06-16,株式会社レストランひまわり,,株式会社,東京都,渋谷区,千駄ヶ谷５丁目１６番１６－４０１号,,13,113,1510051,,,,,,,2023-06-16,1,,,,,レストランヒマワリ,0
639,3011101103258,新規,0,2023-06-16,2023-06-16,株式会社Ｊｕｂｉｌａｔｉｏｎ,,株式会社,東京都,新宿区,西新宿２丁目１番１号新宿三井ビルディング４９階,,13,104,1600023,,,,,,,2023-06-16,1,,,,,ジュビレーション,0
640,3011101103266,新規,0,2023-06-16,2023-06-16,株式会社アメージングマジック,,株式会社,東京都,新宿区,西新宿６丁目１２番７号ストーク新宿１Ｆ,,13,104,1600023,,,,,,,2023-06-16,1,,,,,アメージングマジック,0
641,3011101103274,新規,0,2023-06-16,2023-06-16,株式会社マーケティング,,株式会社,東京都,新宿区,荒木町１６番地エスペロビル４０５,,13,104,1600007,,,,,,,2023-06-16,1,,,,,マーケティング,0
642,3011101103290,新規,0,2023-06-16,2023-06-16,株式会社ＷＩＺＥ,,株式会社,東京都,新宿区,西新宿１丁目４番１１号全研プラザＳｐａｃｅｓ新宿６２２号,,13,104,1600023,,,,,,,2023-06-16,1,,,,,ワイズ,0
644,3011103013158,新規,0,2023-06-16,2023-06-16,合同会社空音空良,,合同会社,東京都,新宿区,中落合１丁目１０－８新興ビル４０２,,13,104,1610032,,,,,,,2023-06-16,1,,,,,アオゾラ,0
648,3011301028791,新規,0,2023-06-16,2023-06-16,Ｄｒｙ＆Ｃｏ．株式会社,,株式会社,東京都,杉並区,成田西２丁目１番１１号,,13,115,1660016,,,,,,,2023-06-16,1,,,,,ドライアンドコ,0
661,3011603003963,新規,0,2023-06-16,2023-06-16,合同会社ＩＳＳＫ,,合同会社,東京都,練馬区,石神井台４丁目１０－６,,13,120,1770045,,,,,,,2023-06-16,1,,,,,アイエスエスケー,0
665,3012401040637,新規,0,2023-06-16,2023-06-16,株式会社済済社,,株式会社,東京都,三鷹市,井の頭３丁目１０番８号,,13,204,1810001,,,,,,,2023-06-16,1,,,,,セイセイシャ,0
667,3012701017698,新規,0,2023-06-16,2023-06-16,株式会社雲養,,株式会社,東京都,小平市,大沼町３丁目２５番２－１号,,13,211,1870001,,,,,,,2023-06-16,1,,,,,クモヨウ,0
676,3020001152091,新規,0,2023-06-16,2023-06-16,株式会社Ｍ．Ｓコンサルティング,,株式会社,神奈川県,川崎市多摩区,東三田３丁目１０番２－１４０４号,,14,135,2140033,,,,,,,2023-06-16,1,,,,,エムエスコンサルティング,0
677,3020001152117,新規,0,2023-06-16,2023-06-16,株式会社ひみつきち,,株式会社,神奈川県,横浜市都筑区,川和町８１番地４エクセル市ヶ尾南６０１,,14,118,2240057,,,,,,,2023-06-16,1,,,,,ヒミツキチ,0
685,3021001079333,新規,0,2023-06-16,2023-06-16,株式会社テノアト設計工舎,,株式会社,神奈川県,中郡二宮町,百合が丘１丁目１２番１６号３７,,14,342,2590133,,,,,,,2023-06-16,1,,,,,テノアトセッケイコウシャ,0
686,3021003013216,新規,0,2023-06-16,2023-06-16,Ｒ＆Ｍ　ＣＯＲＰＯＲＡＴＩＯＮ合同会社,,合同会社,神奈川県,厚木市,飯山４８２６－３,,14,212,2430213,,,,,,,2023-06-16,1,,,,,アールアンドエムコーポレーション,0
687,3021003013224,新規,0,2023-06-16,2023-06-16,合同会社ライジング,,合同会社,神奈川県,茅ヶ崎市,白浜町１番１０－１号,,14,207,2530036,,,,,,,2023-06-16,1,,,,,ライジング,0
698,3030003021921,新規,0,2023-06-16,2023-06-16,合同会社ＹＳ　ＦＡＣＴＯＲＹ,,合同会社,埼玉県,川口市,上青木３丁目７番２９号,,11,203,3330844,,,,,,,2023-06-16,1,,,,,ワイズファクトリー,0
700,3040001128791,新規,0,2023-06-16,2023-06-16,ＥＡＲＴＨ株式会社,,株式会社,千葉県,千葉市稲毛区,小仲台２丁目４番１１号川島ビル１階,,12,103,2630043,,,,,,,2023-06-16,1,,,,,アース,0
701,3040001128817,新規,0,2023-06-16,2023-06-16,清信株式会社,,株式会社,千葉県,松戸市,古ケ崎９番地の１８,,12,207,2710068,,,,,,,2023-06-16,1,,,,,セイシン,0
702,3040001128858,新規,0,2023-06-16,2023-06-16,株式会社あおい,,株式会社,千葉県,木更津市,長須賀３７２番地４,,12,206,2920054,,,,,,,2023-06-16,1,,,,,アオイ,0
703,3040001128866,新規,0,2023-06-16,2023-06-16,株式会社ＴＰ１,,株式会社,千葉県,市川市,南八幡４丁目３番７－３０９号グリーンターフ南八幡第ＩＩＩ,00130873,12,203,2720023,,,,,,,2023-06-16,1,,,,,ティーピーワン,0
707,3050001053015,新規,0,2023-06-16,2023-06-16,市村ホールディングス株式会社,,株式会社,茨城県,石岡市,柿岡２０６５番地,,08,205,3150116,,,,,,,2023-06-16,1,,,,,イチムラホールディングス,0
716,3070001040548,新規,0,2023-06-16,2023-06-16,株式会社ＥＳＰＯＩＲ,,株式会社,群馬県,高崎市,貝沢町７２４番地１,,10,202,3700042,,,,,,,2023-06-16,1,,,,,エスポワール,0
717,3070003004988,新規,0,2023-06-16,2023-06-16,合同会社ｈｏｎｅｙ　ｂｅｅ,,合同会社,群馬県,渋川市,半田２１０２番２号エスペランサＡ２０１,,10,208,3770004,,,,,,,2023-06-16,1,,,,,,0
719,3080001025671,新規,0,2023-06-16,2023-06-16,株式会社あおば,,株式会社,静岡県,静岡市葵区,東静岡１丁目１番１０－２０５号,,22,101,4200817,,,,,,,2023-06-16,1,,,,,アオバ,0
720,3080101024078,新規,0,2023-06-16,2023-06-16,壹仟佳株式会社,,株式会社,静岡県,伊東市,富戸９７５－１２６,,22,208,4130231,,,,,,,2023-06-16,1,,,,,イチセンカ,0
735,3120001010017,新規,0,2023-06-16,2023-06-16,新星熱機工業株式会社,,株式会社,大阪府,大阪市東住吉区,今川８丁目９番２１号,,27,121,5460003,,,,,,,2023-06-16,1,,,,,,0
741,3120001255751,新規,0,2023-06-16,2023-06-16,ＲｅＶｉｌｌａｓ株式会社,,株式会社,大阪府,大阪市浪速区,敷津西２丁目１３－２,,27,111,5560015,,,,,,,2023-06-16,1,,,,,リヴィラス,0
742,3120001255801,新規,0,2023-06-16,2023-06-16,さつき建材株式会社,,株式会社,大阪府,大阪市城東区,東中浜８丁目１番８号,,27,118,5360023,,,,,,,2023-06-16,1,,,,,サツキケンザイ,0
746,3120003024312,新規,0,2023-06-16,2023-06-16,合同会社アブロード,,合同会社,大阪府,大阪市北区,浮田２丁目５番９号,,27,127,5300021,,,,,,,2023-06-16,1,,,,,アブロード,0
750,3120101067741,新規,0,2023-06-16,2023-06-16,株式会社夢道,,株式会社,大阪府,羽曳野市,西浦６丁目４－２４,,27,222,5830861,,,,,,,2023-06-16,1,,,,,ユメミチ,0
751,3120103005278,新規,0,2023-06-16,2023-06-16,合同会社悠,,合同会社,大阪府,大阪狭山市,狭山２丁目１０５０番地－２０２号室,,27,231,5890005,,,,,,,2023-06-16,1,,,,,ハルカ,0
757,3120905006473,新規,0,2023-06-16,2023-06-16,プレミスト南千里津雲台パークブリーゼ管理組合法人,,その他の設立登記法人,大阪府,吹田市,津雲台３丁目２番６プレミスト南千里津雲台パークブリーゼ管理事務室,,27,205,5650862,,,,,,,2023-06-16,1,,,,,プレミストミナミセンリツクモダイパークブリーゼ,0
758,3122001037080,新規,0,2023-06-16,2023-06-16,株式会社ナワテル,,株式会社,大阪府,四條畷市,大字中野５６番地の１サンマンションアトレ忍ヶ丘１０９,,27,229,5750053,,,,,,,2023-06-16,1,,,,,ナワテル,0
759,3130001074564,新規,0,2023-06-16,2023-06-16,株式会社伊藤工業,,株式会社,京都府,長岡京市,勝竜寺１０番１３号,,26,209,6170836,,,,,,,2023-06-16,1,,,,,イトウコウギョウ,0
767,3140001130548,新規,0,2023-06-16,2023-06-16,株式会社町おこしパートナー,,株式会社,兵庫県,加古川市,平岡町新在家１３７９番地の１,,28,210,6750101,,,,,,,2023-06-16,1,,,,,マチオコシパートナー,0
768,3140001130572,新規,0,2023-06-16,2023-06-16,エフピーパートナーズ株式会社,,株式会社,兵庫県,姫路市,飾西３８番地１,,28,201,6712216,,,,,,,2023-06-16,1,,,,,エフピーパートナーズ,0
784,3180001156804,新規,0,2023-06-16,2023-06-16,株式会社ＴＳＵＳＨＩＭＡ　ＲＥＳＯＲＴ,,株式会社,愛知県,名古屋市千種区,内山３丁目８番１６号,,23,101,4640075,,,,,,,2023-06-16,1,,,,,ツシマリゾート,0
789,3190001030504,新規,0,2023-06-16,2023-06-16,株式会社Ｉ．Ｍ．Ｓ．,,株式会社,三重県,四日市市,北浜田町２番１－３０４号,,24,202,5100062,,,,,,,2023-06-16,1,,,,,アイエムエス,0
796,3200001041409,新規,0,2023-06-16,2023-06-16,株式会社Ａｐｐｌｉｅｄ　ＦＵＳＩＯＮ　Ｔｅｃｈｎｏｌｏｇｙ,,株式会社,岐阜県,土岐市,下石町９００番地の１,,21,212,5095202,,,,,,,2023-06-16,1,,,,,アプライドフュージョンテクノロジー,0
803,3230003002034,新規,0,2023-06-16,2023-06-16,合同会社イデアル,,合同会社,富山県,富山市,丸の内２丁目１－１７ビラージュ丸の内２０６号,,16,201,9300085,,,,,,,2023-06-16,1,,,,,イデアル,0
807,3240003006182,新規,0,2023-06-16,2023-06-16,合同会社Ｔｓｕｋａｈａｒａ,,合同会社,広島県,福山市,坪生町１丁目４９番９号,,34,207,7210903,,,,,,,2023-06-16,1,,,,,ツカハラ,0
822,3290001101939,新規,0,2023-06-16,2023-06-16,株式会社エムイー,,株式会社,福岡県,福岡市早良区,野芥４丁目４９番１６号,,40,137,8140171,,,,,,,2023-06-16,1,,,,,エムイー,0
836,3370001050095,新規,0,2023-06-16,2023-06-16,Ｔ＆Ｅ　Ｃｏｍｐａｎｙ株式会社,,株式会社,宮城県,塩竈市,千賀の台１丁目２番１５号,,04,203,9850086,,,,,,,2023-06-16,1,,,,,ティーアンドイーカンパニー,0
843,3380001033792,新規,0,2023-06-16,2023-06-16,株式会社マツウラ企画,,株式会社,福島県,福島市,野田町４丁目９番５４号,,07,201,9608055,,,,,,,2023-06-16,1,,,,,マツウラキカク,0
853,3460005001572,新規,0,2023-06-16,2023-06-16,特定非営利活動法人きずなドリーム,,その他の設立登記法人,北海道,釧路市,芦野５丁目２８番４号,00130882,01,206,0850061,,,,,,,2023-06-16,1,,,,,キズナドリーム,0
861,3700150117504,新規,0,2023-06-16,2023-06-16,ｐｕｔｉａｎｓｈｉｑｉｘｉａｍａｏｙｉｙｏｕｘｉａｎｇｏｎｇｓｉ,,外国会社等,,,,,,,,ｆｕ　ｊｉａｎ　ｓｈｅｎｇ　ｐｕ　ｔｉａｎ　ｓｈｉ　ｘｉａｎ　ｙｏｕ　ｘｉａｎ　ｌｉ　ｃｈｅｎｇ　ｊｉｅ　ｄａｏ　ｚｉ　ｔａｎ　ｎａｎ　ｊｉｅ　２７８８ｈａｏ　２ｈａｏ　ｌｏｕ　２０３ｓｈｉ,,,,,,2023-06-16,1,,,,,プーテイエンシーチーシヤーマオイーヨウシエンゴンスー,0
862,3700150117520,新規,0,2023-06-16,2023-06-16,振余投資諮問有限公司,,外国会社等,京都府,京都市東山区,松原広道東入北入月輪町９６番地１３,,26,105,6050000,Ｆｌａｔ　Ａ３，６／Ｆ．，Ｓｉｎｇ　Ｍｅｉ　Ｉｎｄｕｓｔｒｉａｌ　Ｂｕｉｌｄｉｎｇ，２９－３７　Ｋｗａｉ　Ｗｉｎｇ　Ｒｏａｄ，Ｋｗａｉ　Ｃｈｕｎｇ，Ｎ．Ｔ．,,,,,,2023-06-16,1,,,,,シンヨトウシトウモンユウゲンコウシ,0
863,3700150117537,新規,0,2023-06-16,2023-06-16,ｓｈｅｎｚｈｅｎｓｈｉｊｕａｎｃｈｉｓｈａｎｇｍａｏｙｏｕｘｉａｎｇｏｎｇｓｉ,,外国会社等,,,,,,,,ｓｈａｊｉｎｇｊｉｅｄａｏｘｉｎｑｉａｏｄａｗｅｉｑｉｌｕｑｉｈａｏ３０１，ｓｈｅｎｚｈｅｎｓｈｉ　ｂａｏａｎｑｕ　ｇｕａｎｇｄｏｎｇ,,,,,,2023-06-16,1,,,,,シンセンシケンチシヨウボウユウゲンコウシ,0
871,4010001236191,新規,0,2023-06-16,2023-06-16,株式会社テックエージェント,,株式会社,東京都,中央区,築地３丁目１－４築地武蔵野マンション４０３,,13,102,1040045,,,,,,,2023-06-16,1,,,,,テックエージェント,0
872,4010001236200,新規,0,2023-06-16,2023-06-16,株式会社ＢＣＪ‐７４,,株式会社,東京都,千代田区,丸の内１丁目１番１号パレスビル５階,,13,101,1000005,,,,,,,2023-06-16,1,,,,,ビーシージェイセブンティーフォー,0
873,4010001236225,新規,0,2023-06-16,2023-06-16,ヤマナビ株式会社,,株式会社,東京都,中央区,日本橋蛎殻町１丁目１１番３号中銀日本橋マンシオン５０８,,13,102,1030014,,,,,,,2023-06-16,1,,,,,ヤマナビ,0
874,4010001236233,新規,0,2023-06-16,2023-06-16,株式会社ＪＢＺプレミアムエアサービス,,株式会社,東京都,文京区,根津２丁目３７番１－９０３号,,13,105,1130031,,,,,,,2023-06-16,1,,,,,ジェイビズプレミアムエアサービス,0
880,4010401175064,新規,0,2023-06-16,2023-06-16,株式会社潮目ラボ,,株式会社,東京都,港区,北青山１丁目３番１号アールキューブ青山３階,,13,103,1070061,,,,,,,2023-06-16,1,,,,,シオメラボ,0
882,4010403030333,新規,0,2023-06-16,2023-06-16,ＴＹ　Ａｄｖｉｓｏｒｙ合同会社,,合同会社,東京都,港区,南青山３丁目１－３６青山丸竹ビル６Ｆ,,13,103,1070062,,,,,,,2023-06-16,1,,,,,ティーワイアドバイザリー,0
886,4010601063275,新規,0,2023-06-16,2023-06-16,株式会社ウィーブリング,,株式会社,東京都,墨田区,墨田２丁目９番１９号アウル大川端２Ｆ－５,,13,107,1310031,,,,,,,2023-06-16,1,,,,,ウィーブリング,0
895,4010901053240,新規,0,2023-06-16,2023-06-16,株式会社ＦＬＹＴＯ,,株式会社,東京都,世田谷区,野沢１丁目３５－７－４０６,,13,112,1540003,,,,,,,2023-06-16,1,,,,,フライト,0
897,4010903008242,新規,0,2023-06-16,2023-06-16,青空草原合同会社,,合同会社,東京都,世田谷区,梅丘２丁目６－５,,13,112,1540022,,,,,,,2023-06-16,1,,,,,アオゾラソウゲン,0
903,4011001155068,新規,0,2023-06-16,2023-06-16,ｉｎＢａｓｅ株式会社,,株式会社,東京都,目黒区,五本木２丁目１３番２号１階,,13,110,1530053,,,,,,,2023-06-16,1,,,,,インベース,0
907,4011003017010,新規,0,2023-06-16,2023-06-16,合同会社ＭＵＫＩＮＣＯＳ,,合同会社,東京都,渋谷区,道玄坂１丁目１０番８号渋谷道玄坂東急ビル２Ｆ－Ｃ,,13,113,1500043,,,,,,,2023-06-16,1,,,,,ムキンコス,0
911,4011101103273,新規,0,2023-06-16,2023-06-16,株式会社ＢＥＳＴ１,,株式会社,東京都,新宿区,北新宿４丁目４番１６号,,13,104,1690074,,,,,,,2023-06-16,1,,,,,ベストワン,0
912,4011103013157,新規,0,2023-06-16,2023-06-16,合同会社プリマヴェーラ,,合同会社,東京都,新宿区,西新宿３丁目３番１３号西新宿水間ビル６階,,13,104,1600023,,,,,,,2023-06-16,1,,,,,プリマヴェーラ,0
918,4011301028782,新規,0,2023-06-16,2023-06-16,Ｙ‐３ホールディングス株式会社,,株式会社,東京都,杉並区,宮前５丁目２０番２９号,,13,115,1680081,,,,,,,2023-06-16,1,,,,,ワイスリーホールディングス,0
919,4011301028790,新規,0,2023-06-16,2023-06-16,株式会社エヌ・イー・キャピタル,,株式会社,東京都,杉並区,阿佐谷南１丁目２５番３２号,,13,115,1660004,,,,,,,2023-06-16,1,,,,,エヌイーキャピタル,0
931,4012801022440,新規,0,2023-06-16,2023-06-16,株式会社愛と創造ラボラトリー,,株式会社,東京都,日野市,百草３１５番地の１コスモ聖蹟桜ヶ丘４０９,,13,212,1910033,,,,,,,2023-06-16,1,,,,,アイトソウゾウラボラトリー,0
938,4013301050923,新規,0,2023-06-16,2023-06-16,ＳＡＲＡ　ＰＥＲＦＥＣＴＩＯＮ株式会社,,株式会社,東京都,豊島区,池袋本町２丁目３３番１６号,,13,116,1700011,,,,,,,2023-06-16,1,,,,,サラパーフェクション,0
939,4020001152108,新規,0,2023-06-16,2023-06-16,株式会社ＪＡＰＡＮＥＺＥＺＥＲＯ　ＥＮＴＥＲＴＡＩＮＭＥＮＴ,,株式会社,神奈川県,横浜市神奈川区,西寺尾４丁目２４番２－４０４号,,14,102,2210001,,,,,,,2023-06-16,1,,,,,ジャパニーズゼロエンターテイメント,0
940,4020001152124,新規,0,2023-06-16,2023-06-16,株式会社進源,,株式会社,神奈川県,横浜市南区,浦舟町１丁目１番地６４,,14,105,2320024,,,,,,,2023-06-16,1,,,,,シンゲン,0
941,4020001152132,新規,0,2023-06-16,2023-06-16,株式会社ＡＬＵ,,株式会社,神奈川県,横浜市都筑区,南山田３丁目２番１号,,14,118,2240029,,,,,,,2023-06-16,1,,,,,エイルー,0
948,4021001079332,新規,0,2023-06-16,2023-06-16,湘南Ｎ‐ｓｔｙｌｅ株式会社,,株式会社,神奈川県,大和市,下鶴間１８６７番地４,,14,213,2420001,,,,,,,2023-06-16,1,,,,,ショウナンエヌスタイル,0
949,4021001079349,新規,0,2023-06-16,2023-06-16,株式会社ＴＣ．,,株式会社,神奈川県,座間市,ひばりが丘３丁目８番６号,,14,216,2520003,,,,,,,2023-06-16,1,,,,,ティーシードット,0
951,4021003013207,新規,0,2023-06-16,2023-06-16,合同会社のこのこ,,合同会社,神奈川県,藤沢市,下土棚５５５番地,00130874,14,205,2520807,,,,,,,2023-06-16,1,,,,,ノコノコ,0
952,4021003013223,新規,0,2023-06-16,2023-06-16,合同会社ＳＨＯＤＥＮＫＯ,,合同会社,神奈川県,高座郡寒川町,倉見２３８６番地１６,,14,321,2530101,,,,,,,2023-06-16,1,,,,,ショウデンコウ,0
960,4030003021912,新規,0,2023-06-16,2023-06-16,三只羊合同会社,,合同会社,埼玉県,川口市,飯塚３丁目１－２４－２０１,,11,203,3320023,,,,,,,2023-06-16,1,,,,,スリーシィープス,0
965,4040001128865,新規,0,2023-06-16,2023-06-16,サン商事株式会社,,株式会社,千葉県,印西市,西の原４丁目４番地２４,,12,231,2701334,,,,,,,2023-06-16,1,,,,,サンショウジ,0
971,4040003022810,新規,0,2023-06-16,2023-06-16,合同会社ルナ,,合同会社,千葉県,習志野市,袖ケ浦５丁目１３番１４号,,12,216,2750021,,,,,,,2023-06-16,1,,,,,ルナ,0
974,4040005022040,新規,0,2023-06-16,2023-06-16,一般社団法人律明会,,その他の設立登記法人,千葉県,松戸市,和名ケ谷８０８番地の２３,,12,207,2702232,,,,,,,2023-06-16,1,,,,,リツメイカイ,0
980,4060001036091,新規,0,2023-06-16,2023-06-16,Ａｒｃｈｉｔｅｃｔ環境株式会社,,株式会社,栃木県,那須郡那須町,大字豊原丙６０９番地３,,09,407,3293225,,,,,,,2023-06-16,1,,,,,アーキテクトカンキョウ,0
982,4060003004600,新規,0,2023-06-16,2023-06-16,合同会社ＲＩＡＺ　ＴＲＡＤＩＮＧ,,合同会社,栃木県,栃木市,岩舟町静３０３番地３,,09,203,3294307,,,,,,,2023-06-16,1,,,,,リアズトレーディング,0
999,4100003007061,新規,0,2023-06-16,2023-06-16,合同会社元気作りジムおれんじ,,合同会社,長野県,諏訪市,大字中洲５６７２番地４,,20,206,3920015,,,,,,,2023-06-16,1,,,,,ゲンキヅクリジムオレンジ,0
1010,4120001255692,新規,0,2023-06-16,2023-06-16,株式会社ＹＳエステート,,株式会社,大阪府,大阪市平野区,瓜破西３丁目４番２４号,,27,126,5470025,,,,,,,2023-06-16,1,,,,,ワイエスエステート,0
1011,4120001255750,新規,0,2023-06-16,2023-06-16,阜東商事株式会社,,株式会社,大阪府,大阪市淀川区,西宮原２丁目６－１６新大阪コーポビアネーズ１１３８号室,,27,123,5320004,,,,,,,2023-06-16,1,,,,,フトウショウジ,0
1012,4120001255783,新規,0,2023-06-16,2023-06-16,株式会社Ｒｅｖｉｖｅ　Ｈｕｂ,,株式会社,大阪府,大阪市北区,曾根崎新地１丁目８番１９号４階,,27,127,5300002,,,,,,,2023-06-16,1,,,,,リバイブハブ,0
1013,4120001255817,新規,0,2023-06-16,2023-06-16,タティコ株式会社,,株式会社,大阪府,大阪市西成区,天下茶屋１丁目４番１８号ＳＵＮ生一番館３０１号室,,27,122,5570014,,,,,,,2023-06-16,1,,,,,タティコ,0
1014,4120003024303,新規,0,2023-06-16,2023-06-16,合同会社クラージュ,,合同会社,大阪府,大阪市中央区,船越町２丁目３番１１－９０３号,,27,128,5400036,,,,,,,2023-06-16,1,,,,,クラージュ,0
1015,4120003024311,新規,0,2023-06-16,2023-06-16,合同会社裕ファミリー,,合同会社,大阪府,大阪市平野区,長吉出戸４丁目６番７号,,27,126,5470011,,,,,,,2023-06-16,1,,,,,ユウファミリー,0
1018,4120101067749,新規,0,2023-06-16,2023-06-16,株式会社ミル・グラシアス,,株式会社,大阪府,泉佐野市,長滝３２６９番地の１３,,27,213,5980034,,,,,,,2023-06-16,1,,,,,ミルグラシアス,0
1021,4120905006472,新規,0,2023-06-16,2023-06-16,プレミスト南千里津雲台パークフロント管理組合法人,,その他の設立登記法人,大阪府,吹田市,津雲台３丁目１番１プレミスト南千里津雲台パークフロント管理事務室,,27,205,5650862,,,,,,,2023-06-16,1,,,,,プレミストミナミセンリツクモダイパークフロント,0
1031,4140001130522,新規,0,2023-06-16,2023-06-16,株式会社ＥＶＯＣＯＳ,,株式会社,兵庫県,神戸市中央区,雲井通１丁目１番１号ツイン雲井ＦＬＥＸ２１,,28,110,6510096,,,,,,,2023-06-16,1,,,,,エボコス,0
1033,4150001026488,新規,0,2023-06-16,2023-06-16,株式会社メルピナス,,株式会社,奈良県,生駒市,西旭ケ丘１３－１４,,29,209,6300261,,,,,,,2023-06-16,1,,,,,メルピナス,0
1038,4160001025118,新規,0,2023-06-16,2023-06-16,株式会社Ｋｏａ,,株式会社,滋賀県,東近江市,聖和町１１番１７号,,25,213,5270036,,,,,,,2023-06-16,1,,,,,コア,0
1042,4170003001883,新規,0,2023-06-16,2023-06-16,合同会社Ｇａｄａｂｏｕｔｓ,,合同会社,和歌山県,西牟婁郡すさみ町,周参見２５０３－１,,30,406,6492621,,,,,,,2023-06-16,1,,,,,ガダバウツ,0
1051,4180001156794,新規,0,2023-06-16,2023-06-16,株式会社ｉ．ｂａｓｅ,,株式会社,愛知県,豊明市,阿野町稲葉１２番地１,,23,229,4701144,,,,,,,2023-06-16,1,,,,,アイベース,0
1052,4180001156803,新規,0,2023-06-16,2023-06-16,株式会社ＡＣＨＩＨＡ　ＳＥＲＶＩＣＥ,,株式会社,愛知県,名古屋市中村区,川前町５２４番地,,23,105,4530865,,,,,,,2023-06-16,1,,,,,アチハサービス,0
1058,4190001030503,新規,0,2023-06-16,2023-06-16,ＣＵＲＡＤＥＡＲ株式会社,,株式会社,三重県,津市,末広町９９１番地７,,24,201,5140012,,,,,,,2023-06-16,1,,,,,クラディア,0
1065,4230001019888,新規,0,2023-06-16,2023-06-16,株式会社ｃｒｕｓｔ,,株式会社,富山県,富山市,新富町１丁目４番１号ファイブワンビル１階,,16,201,9300002,,,,,,,2023-06-16,1,,,,,クラスト,0
1066,4230003002033,新規,0,2023-06-16,2023-06-16,ＳＨ合同会社,,合同会社,富山県,富山市,総曲輪１丁目２番２０号桜木町センタービル８Ｆ,,16,201,9300083,,,,,,,2023-06-16,1,,,,,エスエイチ,0
1071,4240001061690,新規,0,2023-06-16,2023-06-16,株式会社岩井内装,,株式会社,広島県,広島市安佐北区,可部８丁目１４番７号,,34,106,7310221,,,,,,,2023-06-16,1,,,,,イワイナイソウ,0
1084,4290001101954,新規,0,2023-06-16,2023-06-16,株式会社呼子建設,,株式会社,福岡県,太宰府市,吉松４丁目１番６－２０３号,,40,221,8180138,,,,,,,2023-06-16,1,,,,,ヨブコケンセツ,0
1092,4310003004590,新規,0,2023-06-16,2023-06-16,合同会社ＣＯＭ．Ｓ,,合同会社,長崎県,島原市,田町７６６番地１,,42,203,8550034,,,,,,,2023-06-16,1,,,,,,0
1099,4340005009619,新規,0,2023-06-16,2023-06-16,一般社団法人ワークランド,,その他の設立登記法人,鹿児島県,肝属郡東串良町,池之原２７５９番地１,,46,482,8931612,,,,,,,2023-06-16,1,,,,,ワークランド,0
1101,4370001050086,新規,0,2023-06-16,2023-06-16,株式会社Ｏ．Ｍ．Ｃ,,株式会社,宮城県,仙台市青葉区,八幡６丁目１２－１２,,04,101,9800871,,,,,,,2023-06-16,1,,,,,オーエムシー,0
1107,4380001033791,新規,0,2023-06-16,2023-06-16,株式会社コンケン,,株式会社,福島県,福島市,方木田字下川原４５番地の１,,07,201,9608163,,,,,,,2023-06-16,1,,,,,コンケン,0
1114,4430003015155,新規,0,2023-06-16,2023-06-16,Ｌｉｎｏ合同会社,,合同会社,北海道,札幌市北区,北二十五条西８丁目３番１４号,,01,102,0010025,,,,,,,2023-06-16,1,,,,,リノ,0
1128,4500005008620,新規,0,2023-06-16,2023-06-16,ＮＰＯ法人ぼちまる,,その他の設立登記法人,愛媛県,今治市,高市甲５５１番地７,,38,202,7991512,,,,,,,2023-06-16,1,,,,,ボチマル,0
1132,4700150117503,新規,0,2023-06-16,2023-06-16,ｎｉｎｇｂｏ　ｂａｉ　ｙｉｎｇ　ｊｉｎ　ｃｈｕ　ｋｏｕ　ｙｏｕ　ｘｉａｎ　ｇｏｎｇ　ｓｉ,,外国会社等,,,,,,,,２９９　ｎｏｎｇ　１６　ｚｈｕａｎｇ　３９　ｈａｏ　００７　ｚｈｕａｎｇ　２－１－５　ｇａｏ　ｘｉｎ　ｑｕ　ｎｉｎｇｂｏ　Ｚｈｅｊｉａｎｇ　ｓｈｅｎｇ　Ｃｈｉｎａ　３１５０００,,,,,,2023-06-16,1,,,,,ニンボーバイインジンチユーコウヨウシエンゴンスー,0
1133,4700150117528,新規,0,2023-06-16,2023-06-16,ＪＴＦ　ＴＥＣＨ　ＣＯ．，ＬＩＭＩＴＥＤ,,外国会社等,,,,,,,,ＷＯＲＫＳＨＯＰ　６０　３／Ｆ　ＢＬＯＣＫ　Ａ　ＥＡＳＴ　ＳＵＮ　ＩＮＤＵＳＴＲＩＡＬ　ＣＥＮＴＲＥ　ＮＯ．１６　ＳＨＩＮＧ　ＹＩＰ　ＳＴＲＥＥＴ　ＫＬ　９９９０７７,,,,,,2023-06-16,1,,,,,ジエーテイーエフテクノロジーカンパニーリミテツド,0
1141,5010001236083,新規,0,2023-06-16,2023-06-16,８４４８株式会社,,株式会社,東京都,千代田区,富士見１丁目３番１１号,,13,101,1020071,,,,,,,2023-06-16,1,,,,,ハチヨンヨンハチ,0
1142,5010001236091,新規,0,2023-06-16,2023-06-16,株式会社アサヒ,,株式会社,東京都,中央区,新川１丁目８番１９－１２０１号,,13,102,1040033,,,,,,,2023-06-16,1,,,,,アサヒ,0
1143,5010001236199,新規,0,2023-06-16,2023-06-16,ＣｏＧｏＬｉｎｋｓ　Ｊａｐａｎ株式会社,,株式会社,東京都,千代田区,四番町４番地９新東京国際リーガル内,,13,101,1020081,,,,,,,2023-06-16,1,,,,,コーゴリンクスジャパン,0
1144,5010001236224,新規,0,2023-06-16,2023-06-16,Ｃｈｉｃ株式会社,,株式会社,東京都,文京区,小石川４丁目６番１８－２０５号,,13,105,1120002,,,,,,,2023-06-16,1,,,,,シック,0
1147,5010003040888,新規,0,2023-06-16,2023-06-16,ＴＦＪ８合同会社,,合同会社,東京都,中央区,新川１丁目１７番１８号,,13,102,1040033,,,,,,,2023-06-16,1,,,,,ティーエフジェイエイト,0
1148,5010003040905,新規,0,2023-06-16,2023-06-16,トレードビジネス合同会社,,合同会社,東京都,中央区,銀座７丁目１３番２０号銀座ＴＨビル９階,,13,102,1040061,,,,,,,2023-06-16,1,,,,,トレードビジネス,0
1158,5010403030340,新規,0,2023-06-16,2023-06-16,合同会社道,,合同会社,東京都,港区,芝浦４丁目４番２７－２２６号,,13,103,1080023,,,,,,,2023-06-16,1,,,,,ミチ,0
1162,5010801034050,新規,0,2023-06-16,2023-06-16,株式会社日本ギャップ解決研究所,,株式会社,東京都,大田区,大森本町２丁目１８番５号,,13,111,1430011,,,,,,,2023-06-16,1,,,,,ニホンギャップカイケツケンキュウジョ,0
1177,5011001154762,新規,0,2023-06-16,2023-06-16,株式会社ＣＩＲＣＬ,,株式会社,東京都,渋谷区,道玄坂１丁目１０番８号渋谷道玄坂東急ビル２Ｆ－Ｃ,,13,113,1500043,,,,,,,2023-06-16,1,,,,,サークル,0
1178,5011003016952,新規,0,2023-06-16,2023-06-16,うえのさやか合同会社,,合同会社,東京都,渋谷区,恵比寿４丁目２０－３恵比寿ガーデンプレイスタワー１８階,,13,113,1500013,,,,,,,2023-06-16,1,,,,,ウエノサヤカ,0
1179,5011003017001,新規,0,2023-06-16,2023-06-16,合同会社フォーチュンエッジ,,合同会社,東京都,目黒区,中根１丁目７番６号カーサコリエンテ１階,,13,110,1520031,,,,,,,2023-06-16,1,,,,,フォーチュンエッジ,0
1180,5011003017026,新規,0,2023-06-16,2023-06-16,合同会社石井木材,,合同会社,東京都,渋谷区,恵比寿２丁目３７番８号,,13,113,1500013,,,,,,,2023-06-16,1,,,,,イシイモクザイ,0
1186,5011101103231,新規,0,2023-06-16,2023-06-16,Ｍｅｄｉｃａｌ　Ｒｈｏｄｕｓ株式会社,,株式会社,東京都,新宿区,西新宿３丁目３番１３号西新宿水間ビル６階,,13,104,1600023,,,,,,,2023-06-16,1,,,,,メディカルロドス,0
1187,5011101103264,新規,0,2023-06-16,2023-06-16,株式会社ティアラ,,株式会社,東京都,新宿区,西新宿３丁目３－１３西新宿水間ビル６階,,13,104,1600023,,,,,,,2023-06-16,1,,,,,ティアラ,0
1188,5011101103272,新規,0,2023-06-16,2023-06-16,株式会社ＩＥＤＩＡ,,株式会社,東京都,新宿区,新宿１丁目１６番１０号コスモス御苑ビル７０２号室,,13,104,1600022,,,,,,,2023-06-16,1,,,,,イエディア,0
1189,5011101103289,新規,0,2023-06-16,2023-06-16,株式会社ＳＫａＴ,,株式会社,東京都,新宿区,西新宿７丁目５番５号Ｐｌａｚａ西新宿ＵＣＦ４階,,13,104,1600023,,,,,,,2023-06-16,1,,,,,スカット,0
1190,5011101103297,新規,0,2023-06-16,2023-06-16,株式会社Ｍｔ．ｓ,,株式会社,東京都,新宿区,東榎町１１番地アクア神楽坂１Ｆ,,13,104,1620807,,,,,,,2023-06-16,1,,,,,エムティーエス,0
1191,5011103013156,新規,0,2023-06-16,2023-06-16,合同会社ＳＩＬＶＥＲ　ＬＡＢＥＬ,,合同会社,東京都,新宿区,大久保２丁目１番９－１００２号,,13,104,1690072,,,,,,,2023-06-16,1,,,,,シルバーレーベル,0
1194,5011301028781,新規,0,2023-06-16,2023-06-16,株式会社リンクス,,株式会社,東京都,杉並区,宮前５丁目２０番２９号,,13,115,1680081,,,,,,,2023-06-16,1,,,,,リンクス,0
1195,5011403004020,新規,0,2023-06-16,2023-06-16,合同会社オーメタル,,合同会社,東京都,板橋区,栄町２９番１３号,,13,119,1730015,,,,,,,2023-06-16,1,,,,,オーメタル,0
1197,5011701001735,新規,0,2023-06-16,2023-06-16,大島工業株式会社,,株式会社,東京都,江戸川区,西小岩３丁目２０番１１号,,13,123,1330057,,,,,,,2023-06-16,1,,,,,,0
1198,5011701026336,新規,0,2023-06-16,2023-06-16,株式会社エナジーモス,,株式会社,東京都,江戸川区,西葛西７丁目９番１８号,,13,123,1340088,,,,,,,2023-06-16,1,,,,,エナジーモス,0
1200,5011801042588,新規,0,2023-06-16,2023-06-16,株式会社梅山建設,,株式会社,東京都,足立区,伊興３丁目２３－２９ワコーレ竹の塚１０４号室,,13,121,1210823,,,,,,,2023-06-16,1,,,,,ウメヤマケンセツ,0
1201,5011801042596,新規,0,2023-06-16,2023-06-16,九潤株式会社,,株式会社,東京都,足立区,栗原３丁目２６番１号２Ｆ,,13,121,1230842,,,,,,,2023-06-16,1,,,,,キュウジュン,0
1207,5012401040635,新規,0,2023-06-16,2023-06-16,株式会社Ａｔｏｍｉｃ　Ｌｅａｐ,,株式会社,東京都,武蔵野市,吉祥寺本町１丁目２０番１号吉祥寺永谷シティプラザ１００２,,13,203,1800004,,,,,,,2023-06-16,1,,,,,アトミックリープ,0
1208,5012401040643,新規,0,2023-06-16,2023-06-16,株式会社Ｈ．Ｇｃｄ,,株式会社,東京都,三鷹市,井の頭２丁目３２－８,,13,204,1810001,,,,,,,2023-06-16,1,,,,,エイチジーシーディー,0
1220,5020001152098,新規,0,2023-06-16,2023-06-16,株式会社Ａｐｐｔｅｃｈ,,株式会社,神奈川県,川崎市多摩区,宿河原２丁目３２－７パストラル雪ヶ坂３０５,,14,135,2140021,,,,,,,2023-06-16,1,,,,,アップテック,0
1225,5020005016035,新規,0,2023-06-16,2023-06-16,特定非営利活動法人チベタン・チルドレンズ・プロジェクト,,その他の設立登記法人,神奈川県,横浜市港南区,東永谷１丁目８番８号,,14,111,2330011,,,,,,,2023-06-16,1,,,,,チベタンチルドレンズプロジェクト,0
1229,5021001079331,新規,0,2023-06-16,2023-06-16,湘南Ｂ‐ｓｔｙｌｅ株式会社,,株式会社,神奈川県,茅ヶ崎市,元町４番１４号,,14,207,2530043,,,,,,,2023-06-16,1,,,,,ショウナンビースタイル,0
1232,5021003013222,新規,0,2023-06-16,2023-06-16,合同会社ＭＴＭ,,合同会社,神奈川県,藤沢市,大鋸２丁目９番７～５０１号,,14,205,2510002,,,,,,,2023-06-16,1,,,,,エムティーエム,0
1246,5040001128848,新規,0,2023-06-16,2023-06-16,ＴＭＧ　ＣＡＲＮＥＴ株式会社,,株式会社,千葉県,佐倉市,王子台５丁目１３番地１マリーナＢ棟２０６,,12,212,2850837,,,,,,,2023-06-16,1,,,,,ティーエムジーカーネット,0
1247,5040001128856,新規,0,2023-06-16,2023-06-16,株式会社カタリス,,株式会社,千葉県,松戸市,大橋４５５－６８,,12,207,2702224,,,,,,,2023-06-16,1,,,,,カタリス,0
1248,5040001128864,新規,0,2023-06-16,2023-06-16,株式会社エクラ,,株式会社,千葉県,松戸市,八ケ崎３丁目７６番地の５,,12,207,2700023,,,,,,,2023-06-16,1,,,,,エクラ,0
1249,5040001128872,新規,0,2023-06-16,2023-06-16,リブロンジャパン株式会社,,株式会社,千葉県,香取郡多古町,十余三３４８番地２,,12,347,2892306,,,,,,,2023-06-16,1,,,,,リブロンジャパン,0
1256,5050001052989,新規,0,2023-06-16,2023-06-16,株式会社Ｒｅライフ,,株式会社,茨城県,龍ケ崎市,板橋町２１６７番地,,08,208,3010801,,,,,,,2023-06-16,1,,,,,リライフ,0
1258,5050003007578,新規,0,2023-06-16,2023-06-16,合同会社明星土木,,合同会社,茨城県,取手市,稲５９１番地４,,08,217,3020026,,,,,,,2023-06-16,1,,,,,メイセイドボク,0
1259,5060001036090,新規,0,2023-06-16,2023-06-16,株式会社アカマツ,,株式会社,栃木県,宇都宮市,本丸町１３番１６号,,09,201,3200817,,,,,,,2023-06-16,1,,,,,アカマツ,0
1262,5070001040546,新規,0,2023-06-16,2023-06-16,株式会社ＫＡＭＩＫＡＺＥ,,株式会社,群馬県,太田市,東新町６２９番地２,,10,205,3730015,,,,,,,2023-06-16,1,,,,,カミカゼ,0
1268,5100001036524,新規,0,2023-06-16,2023-06-16,株式会社ＫＮＫ,,株式会社,長野県,長野市,大字柳原２３６１番地３,,20,201,3810012,,,,,,,2023-06-16,1,,,,,ケーエヌケー,0
1285,5120001255741,新規,0,2023-06-16,2023-06-16,山一商店株式会社,,株式会社,大阪府,大阪市天王寺区,上汐５丁目７番７－６０３号,,27,109,5430002,,,,,,,2023-06-16,1,,,,,ヤマイチショウテン,0
1286,5120001255758,新規,0,2023-06-16,2023-06-16,株式会社シャインスカイ,,株式会社,大阪府,大阪市天王寺区,六万体町１番２５号３階,,27,109,5430074,,,,,,,2023-06-16,1,,,,,シャインスカイ,0
1287,5120001255782,新規,0,2023-06-16,2023-06-16,株式会社ＦＲＥＡＫＳ,,株式会社,大阪府,大阪市北区,中津３丁目３５番１６－６０５号,,27,127,5310071,,,,,,,2023-06-16,1,,,,,フリーク,0
1288,5120001255799,新規,0,2023-06-16,2023-06-16,カンリーサイソン株式会社,,株式会社,大阪府,大阪市東成区,大今里西３丁目１５番３９号今里西青山ビル５０３号,,27,115,5370014,,,,,,,2023-06-16,1,,,,,カンリーサイソン,0
1292,5120003024302,新規,0,2023-06-16,2023-06-16,愛馨医療サービス合同会社,,合同会社,大阪府,大阪市中央区,高津３丁目１５番６グランドパレス夕陽ヶ丘１００９,,27,128,5420072,,,,,,,2023-06-16,1,,,,,アイケイイリョウサービス,0
1293,5120003024327,新規,0,2023-06-16,2023-06-16,合同会社セレニティ,,合同会社,大阪府,大阪市北区,梅田１丁目１‐３大阪駅前第３ビル２９階１‐１‐１号室,,27,127,5300001,,,,,,,2023-06-16,1,,,,,セレニティ,0
1294,5120101067731,新規,0,2023-06-16,2023-06-16,胖兎国際株式会社,,株式会社,大阪府,堺市堺区,中安井町１丁４番１０－８０６号,,27,141,5900063,,,,,,,2023-06-16,1,,,,,ユタカトコクサイ,0
1295,5120101067756,新規,0,2023-06-16,2023-06-16,株式会社ＯＲＡＦ,,株式会社,大阪府,泉佐野市,市場西１丁目９番８号,,27,213,5980006,,,,,,,2023-06-16,1,,,,,オラフ,0
1297,5120903004691,新規,0,2023-06-16,2023-06-16,合同会社ＳＩＮＱＳＥＮＳ,,合同会社,大阪府,茨木市,真砂２丁目１３－１０フローエンス吉田ＩＩ１０１号室,00130870,27,211,5670851,,,,,,,2023-06-16,1,,,,,シンクセンス,0
1298,5120905006471,新規,0,2023-06-16,2023-06-16,一般財団法人ＭＡＴＲＩＸ,,その他の設立登記法人,大阪府,吹田市,春日４丁目３番３号,,27,205,5650853,,,,,,,2023-06-16,1,,,,,マトリックス,0
1299,5122001037079,新規,0,2023-06-16,2023-06-16,ＳＷＢＳＥＣＵＲＩＴＹ株式会社,,株式会社,大阪府,東大阪市,西堤楠町３丁目５番１９号,,27,227,5770047,,,,,,,2023-06-16,1,,,,,エスダブルビーセキュリティー,0
1300,5122001037087,新規,0,2023-06-16,2023-06-16,株式会社ＳＵＮＮＹ,,株式会社,大阪府,八尾市,天王寺屋２丁目１８番地の２,,27,212,5810025,,,,,,,2023-06-16,1,,,,,サニー,0
1310,5140001130505,新規,0,2023-06-16,2023-06-16,ＤＡＶＡＯ　ＫＡＮＳＡＩ　ＭＯＲＴＯＲＳ株式会社,,株式会社,兵庫県,西脇市,黒田庄町前坂１１８９番地,,28,213,6790303,,,,,,,2023-06-16,1,,,,,ダバオカンサイモーターズ,0
1311,5140001130538,新規,0,2023-06-16,2023-06-16,株式会社ライトワン,,株式会社,兵庫県,三田市,高次２丁目１番２６－１０２号,,28,219,6691512,,,,,,,2023-06-16,1,,,,,ライトワン,0
1312,5140001130554,新規,0,2023-06-16,2023-06-16,日心国際警備保障株式会社,,株式会社,兵庫県,神戸市中央区,相生町５丁目１０番１８号シティビル神戸５０３号室,,28,110,6500025,,,,,,,2023-06-16,1,,,,,ニッシンコクサイケイビホショウ,0
1313,5140001130570,新規,0,2023-06-16,2023-06-16,株式会社ＬｉｔＵｐ,,株式会社,兵庫県,西宮市,甲子園口４丁目６－１３－４０２,,28,204,6638113,,,,,,,2023-06-16,1,,,,,リットアップ,0
1317,5140005026658,新規,0,2023-06-16,2023-06-16,一般社団法人城崎温泉観光協会,,その他の設立登記法人,兵庫県,豊岡市,城崎町湯島７８番地,,28,209,6696101,,,,,,,2023-06-16,1,,,,,キノサキオンセンカンコウキョウカイ,0
1336,5180001156802,新規,0,2023-06-16,2023-06-16,株式会社ＣＯＯ,,株式会社,愛知県,名古屋市中村区,名駅３丁目４番１０号,,23,105,4500002,,,,,,,2023-06-16,1,,,,,クー,0
1338,5180003025377,新規,0,2023-06-16,2023-06-16,合同会社桑・太郎,,合同会社,愛知県,豊明市,三崎町井ノ花１１番地１５アリエル井ノ花Ａ号,,23,229,4701124,,,,,,,2023-06-16,1,,,,,ソウタロウ,0
1339,5180005020252,新規,0,2023-06-16,2023-06-16,一般社団法人フォルトゥナ,,その他の設立登記法人,愛知県,名古屋市北区,桐畑町１００番地,,23,103,4620003,,,,,,,2023-06-16,1,,,,,フォルトゥナ,0
1346,5190001030502,新規,0,2023-06-16,2023-06-16,株式会社クレスメゾン,,株式会社,三重県,津市,河芸町上野１１６８番地１９５,,24,201,5100304,,,,,,,2023-06-16,1,,,,,クレスメゾン,0
1349,5210001019352,新規,0,2023-06-16,2023-06-16,株式会社Ｂｒｅａｄｅａｒ,,株式会社,福井県,鯖江市,水落町３丁目１３０１番１号,,18,207,9160022,,,,,,,2023-06-16,1,,,,,ブレッディア,0
1350,5210001019360,新規,0,2023-06-16,2023-06-16,株式会社ＫｅｅＰ・ｇｏｉｎｇ,,株式会社,福井県,福井市,中央１丁目１０番５号,,18,201,9100006,,,,,,,2023-06-16,1,,,,,キープゴーイング,0
1353,5220001025465,新規,0,2023-06-16,2023-06-16,株式会社ＩＲＯＫＯ,,株式会社,石川県,金沢市,八日市１丁目７６７番地,,17,201,9218064,,,,,,,2023-06-16,1,,,,,イロコ,0
1362,5250005008835,新規,0,2023-06-16,2023-06-16,一般社団法人山口県ドローン協会,,その他の設立登記法人,山口県,防府市,大字高井２７０番地の１,,35,206,7470064,,,,,,,2023-06-16,1,,,,,ヤマグチケンドローンキョウカイ,0
1369,5290001101945,新規,0,2023-06-16,2023-06-16,株式会社ｆｌａｇＭｅ,,株式会社,福岡県,福岡市博多区,博多駅前４丁目１４番２３号,,40,132,8120011,,,,,,,2023-06-16,1,,,,,フラグミー,0
1370,5290001101953,新規,0,2023-06-16,2023-06-16,株式会社ＦＬＯＷ,,株式会社,福岡県,福岡市中央区,天神１丁目１－１アクロス福岡１Ｆｆａｂｂｉｔ,,40,133,8100001,,,,,,,2023-06-16,1,,,,,フロウ,0
1378,5300005007146,新規,0,2023-06-16,2023-06-16,特定非営利活動法人若葉,,その他の設立登記法人,佐賀県,佐賀市,久保泉町大字上和泉１１９１番２０,,41,201,8490902,,,,,,,2023-06-16,1,,,,,ワカバ,0
1379,5310001018468,新規,0,2023-06-16,2023-06-16,株式会社福家ながさき不動産,,株式会社,長崎県,大村市,富の原１丁目１１８３番地１,,42,205,8560806,,,,,,,2023-06-16,1,,,,,,0
1389,5340001025651,新規,0,2023-06-16,2023-06-16,株式会社ケイエステート春山,,株式会社,鹿児島県,姶良市,平松６４４１番地１,,46,225,8995652,,,,,,,2023-06-16,1,,,,,ケイエステートハルヤマ,0
1393,5350001018415,新規,0,2023-06-16,2023-06-16,株式会社ＯＨＡＮＡ,,株式会社,宮崎県,宮崎市,学園木花台南２丁目１１番地３,,45,201,8892153,,,,,,,2023-06-16,1,,,,,オハナ,0
1394,5360001032159,新規,0,2023-06-16,2023-06-16,株式会社Ｓａｍ　ｃｉｃｅｒＯ,,株式会社,沖縄県,那覇市,曙３丁目７番１号真松ビル１Ｆ,,47,201,9000002,,,,,,,2023-06-16,1,,,,,サムキケロ,0
1395,5360001032175,新規,0,2023-06-16,2023-06-16,株式会社Ｊｏｉｎｔ　ｓｑｕａｒｅ,,株式会社,沖縄県,国頭郡本部町,字大浜８８５番地１,,47,308,9050212,,,,,,,2023-06-16,1,,,,,ジョイントスクエア,0
1399,5370001050085,新規,0,2023-06-16,2023-06-16,後藤電気株式会社,,株式会社,宮城県,遠田郡美里町,北浦字半兵衛１８番地１,,04,505,9870005,,,,,,,2023-06-16,1,,,,,ゴトウデンキ,0
1400,5370001050093,新規,0,2023-06-16,2023-06-16,株式会社Ｒｅ．Ｌａｕｄ,,株式会社,宮城県,石巻市,新館３丁目１番７号ヴィラシャトン１０２号,,04,202,9860848,,,,,,,2023-06-16,1,,,,,リラウド,0
1404,5370003006176,新規,0,2023-06-16,2023-06-16,ＳＡＩＴＯＨ　ＴＡＫＥＳＨＩ　ＬＬＣ合同会社,,合同会社,宮城県,仙台市泉区,紫山４丁目２７番地の６,,04,105,9813205,,,,,,,2023-06-16,1,,,,,サイトウタケシエルエルシー,0
1406,5380001033782,新規,0,2023-06-16,2023-06-16,株式会社ＮＵＭＩＡ,,株式会社,福島県,双葉郡浪江町,大字西台字坂下７番地１,,07,547,9791503,,,,,,,2023-06-16,1,,,,,ニューミア,0
1429,5430001089290,新規,0,2023-06-16,2023-06-16,株式会社ひらつか,,株式会社,北海道,石狩郡当別町,字中小屋５３１１番地,,01,303,0610211,,,,,,,2023-06-16,1,,,,,ヒラツカ,0
1431,5430003015170,新規,0,2023-06-16,2023-06-16,合同会社エムヘランサ,,合同会社,北海道,札幌市北区,新川三条１２丁目７番１号,,01,102,0010923,,,,,,,2023-06-16,1,,,,,エムヘランサ,0
1452,5700150117502,新規,0,2023-06-16,2023-06-16,ＮＥＶＥＲＬＡＮＤ　ＮＥＴＷＯＲＫ　ＴＥＣＨＮＯＬＯＧＹ　ＣＯ．，ＬＩＭＩＴＥＤ,,外国会社等,,,,,,,,ＦＬＡＴ／ＲＭ　５０６　５／Ｆ　ＢＥＶＥＲＬＥＹ　ＣＯＭＭＥＲＣＩＡＬ　ＣＥＮＴＲＥ　８７－１０５　ＣＨＡＴＨＡＭ　ＲＯＡＤ　ＳＯＵＴＨ　ＴＳＩＭ　ＳＨＡ　ＴＳＵＩ　ＫＬ　ＨＯＮＧ　ＫＯＮＧ　９９９０７７　ＨＫ,,,,,,2023-06-16,1,,,,,モンフアンダオワンルーコージーヨウシエンゴンスー,0
1453,5700150117510,新規,0,2023-06-16,2023-06-16,ｙｉｗｕｓｈｉｘｕｄｉｎｇｄｉａｎｚｉｓｈａｎｇｗｕｙｏｕｘｉａｎｇｏｎｇｓｉ,,外国会社等,,,,,,,,ｚｈｅｊｉａｎｇｓｈｅｎｇ　ｙｉｗｕｓｈｉ　ｆｏｔａｎｇｚｈｅｎ　ｆｅｎｇｈｕａｎｇｍｉｎｇｃｈｅｎｇ３２ｚｈｕａｎｇ７０２ｓｈｉ,,,,,,2023-06-16,1,,,,,イーウーシーシーデインデイエンズーシヤンウーヨウシエンゴンスー,0
1454,5700150117543,新規,0,2023-06-16,2023-06-16,ＮＡＲＩＴＡ　ＭＯＴＯＲＳ　ＰＴＹ　ＬＴＤ,,外国会社等,千葉県,長生郡長生村,水口１２４１番地３０オフィス６Ａ号,,12,423,2994335,レソト王国、マセル１００、ンツセレレ、クベトソアナ,,,,,,2023-06-16,1,,,,,ナリタモータースピーテイワイエルテイデイ,0
1458,6010001236223,新規,0,2023-06-16,2023-06-16,株式会社２０００,,株式会社,東京都,中央区,銀座１丁目１２番４号Ｎ＆ＥＢＬＤ．６Ｆ,,13,102,1040061,,,,,,,2023-06-16,1,,,,,ニセン,0
1470,6010401175095,新規,0,2023-06-16,2023-06-16,株式会社シャチ,,株式会社,東京都,港区,赤坂６丁目１８－７－２０２,,13,103,1070052,,,,,,,2023-06-16,1,,,,,シャチ,0
1471,6010401175145,新規,0,2023-06-16,2023-06-16,株式会社テックＪ,,株式会社,東京都,港区,赤坂５丁目３番６号,,13,103,1070052,,,,,,,2023-06-16,1,,,,,テックジェイ,0
1474,6010403030331,新規,0,2023-06-16,2023-06-16,ＣｏｍＡｐ　Ｊａｐａｎ合同会社,,合同会社,東京都,港区,赤坂２丁目１４番５号Ｄａｉｗａ赤坂ビル４階,,13,103,1070052,,,,,,,2023-06-16,1,,,,,コムアップジャパン,0
1475,6010403030356,新規,0,2023-06-16,2023-06-16,合同会社ＡＴＬＡＳ,,合同会社,東京都,港区,西麻布３丁目２１番２２－６０６号,,13,103,1060031,,,,,,,2023-06-16,1,,,,,アトラス,0
1483,6010605004208,新規,0,2023-06-16,2023-06-16,一般社団法人日本みらいメディカル推進協会,,その他の設立登記法人,東京都,江東区,東砂３丁目２０番２４―１２０２号,,13,108,1360074,,,,,,,2023-06-16,1,,,,,ニホンミライメディカルスイシンキョウカイ,0
1501,6011001154935,新規,0,2023-06-16,2023-06-16,株式会社Ｂｅ‐ｙｏｕ,,株式会社,東京都,渋谷区,広尾４丁目１番１６－２０３号,,13,113,1500012,,,,,,,2023-06-16,1,,,,,ビーユー,0
1502,6011001155041,新規,0,2023-06-16,2023-06-16,エクタ株式会社,,株式会社,東京都,渋谷区,笹塚３丁目５１番１号ＶｉｌｌａＡｌｂａ笹塚２０１,,13,113,1510073,,,,,,,2023-06-16,1,,,,,エクタ,0
1503,6011001155066,新規,0,2023-06-16,2023-06-16,株式会社ＶＩＯＬＥＴ,,株式会社,東京都,渋谷区,神宮前６丁目２３番４号桑野ビル２階,,13,113,1500001,,,,,,,2023-06-16,1,,,,,バイオレット,0
1504,6011001155108,新規,0,2023-06-16,2023-06-16,株式会社ＫＡＩ　ＴＯＫＹＯ,,株式会社,東京都,目黒区,碑文谷４丁目６番１６号,,13,110,1520003,,,,,,,2023-06-16,1,,,,,カイトウキョウ,0
1505,6011001155140,新規,0,2023-06-16,2023-06-16,株式会社ホープウェーブ,,株式会社,東京都,渋谷区,渋谷２丁目１０番６号,,13,113,1500002,,,,,,,2023-06-16,1,,,,,ホープウェーブ,0
1506,6011003017017,新規,0,2023-06-16,2023-06-16,カプセルトレード合同会社,,合同会社,東京都,渋谷区,桜丘町４－１４ＶＯＲＴ渋谷桜丘５Ｆ,,13,113,1500031,,,,,,,2023-06-16,1,,,,,カプセルトレード,0
1508,6011101103271,新規,0,2023-06-16,2023-06-16,ＧＲＡＮＸ株式会社,,株式会社,東京都,新宿区,北新宿１丁目３５番４－７０４号,,13,104,1690074,,,,,,,2023-06-16,1,,,,,グリンクス,0
1511,6011103013155,新規,0,2023-06-16,2023-06-16,ＪＡＤＥ合同会社,,合同会社,東京都,新宿区,原町１丁目３８番地,,13,104,1620053,,,,,,,2023-06-16,1,,,,,ジェイド,0
1512,6011103013171,新規,0,2023-06-16,2023-06-16,合同会社ワイエイチ,,合同会社,東京都,新宿区,中落合２丁目１７番７号,,13,104,1610032,,,,,,,2023-06-16,1,,,,,ワイエイチ,0
1514,6011503005652,新規,0,2023-06-16,2023-06-16,利星合同会社,,合同会社,東京都,北区,豊島８丁目２１番２号,,13,117,1140003,,,,,,,2023-06-16,1,,,,,リセイ,0
1517,6011603003960,新規,0,2023-06-16,2023-06-16,合同会社ソージュ,,合同会社,東京都,練馬区,関町北３丁目４３番１８号,,13,120,1770051,,,,,,,2023-06-16,1,,,,,ソージュ,0
1518,6011701026335,新規,0,2023-06-16,2023-06-16,株式会社ｋｕｂｏｔｔｉ,,株式会社,東京都,江戸川区,平井４丁目８番１２号トランクＭ３０１,,13,123,1320035,,,,,,,2023-06-16,1,,,,,クボッチ,0
1519,6011801042595,新規,0,2023-06-16,2023-06-16,株式会社ＤＥＬＩＧＨＴＩＴ,,株式会社,東京都,葛飾区,西新小岩５丁目２６番１９－９０１号,,13,122,1240025,,,,,,,2023-06-16,1,,,,,ディライティット,0
1521,6011803005682,新規,0,2023-06-16,2023-06-16,スカイブランチ合同会社,,合同会社,東京都,足立区,島根２丁目１７番５号２Ｆ,,13,121,1210815,,,,,,,2023-06-16,1,,,,,スカイブランチ,0
1524,6012703002729,新規,0,2023-06-16,2023-06-16,合同会社ＫＪコンサルタンツ,,合同会社,東京都,小平市,学園東町３丁目１４番７号,,13,211,1870043,,,,,,,2023-06-16,1,,,,,ケイジェイコンサルタンツ,0
1533,6013303006665,新規,0,2023-06-16,2023-06-16,合同会社Ｎｏ　ｓｉｄｅ,,合同会社,東京都,豊島区,巣鴨１丁目６－６－７０２,,13,116,1700002,,,,,,,2023-06-16,1,,,,,ノーサイド,0
1538,6020003024071,新規,0,2023-06-16,2023-06-16,合同会社ＨｔｏＳ,,合同会社,神奈川県,川崎市麻生区,王禅寺東３丁目８番７号,,14,137,2150018,,,,,,,2023-06-16,1,,,,,エイチトゥーエス,0
1544,6021003013221,新規,0,2023-06-16,2023-06-16,Ｍａｒｒｉｃｈ　Ｔｒａｄｉｎｇ合同会社,,合同会社,神奈川県,綾瀬市,寺尾中３丁目１番２６－４０６号,,14,218,2521132,,,,,,,2023-06-16,1,,,,,マリッチトレーディング,0
1555,6030001154539,新規,0,2023-06-16,2023-06-16,株式会社セイワ,,株式会社,埼玉県,和光市,下新倉５丁目２番２０号,,11,229,3510111,,,,,,,2023-06-16,1,,,,,セイワ,0
1561,6040003022800,新規,0,2023-06-16,2023-06-16,合同会社ネクスト,,合同会社,千葉県,船橋市,葛飾町２丁目４２６番地イニシア西船橋１０２号,,12,204,2730032,,,,,,,2023-06-16,1,,,,,ネクスト,0
1568,6070003004985,新規,0,2023-06-16,2023-06-16,合同会社ウェルフェアジャパン,,合同会社,群馬県,高崎市,中尾町４３１番地５,,10,202,3700001,,,,,,,2023-06-16,1,,,,,ウェルフェアジャパン,0
1576,6100001036523,新規,0,2023-06-16,2023-06-16,株式会社ＮＥＯ‐Ｃｒａｆｔ．ＪＡＰＡＮ,,株式会社,長野県,千曲市,大字稲荷山５１０番地７,,20,218,3870021,,,,,,,2023-06-16,1,,,,,ネオクラフトジャパン,0
1592,6120001255740,新規,0,2023-06-16,2023-06-16,株式会社ＢＩＬＬＩＯＮ　ＦＥＥＴ,,株式会社,大阪府,大阪市北区,梅田２丁目２番２号ヒルトンプラザウエスト１９階,,27,127,5300001,,,,,,,2023-06-16,1,,,,,ビリオンフィート,0
1593,6120001255749,新規,0,2023-06-16,2023-06-16,ＥＤＲＵＭＳ株式会社,,株式会社,大阪府,大阪市大正区,三軒家西３丁目４番１６号中山ビル４０８Ａ,,27,108,5510001,,,,,,,2023-06-16,1,,,,,エドラムス,0
1594,6120001255757,新規,0,2023-06-16,2023-06-16,株式会社日本エリア,,株式会社,大阪府,大阪市住之江区,粉浜西１丁目１番１６－７０５号,,27,125,5590007,,,,,,,2023-06-16,1,,,,,ニホンエリア,0
1595,6120001255765,新規,0,2023-06-16,2023-06-16,薩摩重機工業株式会社,,株式会社,大阪府,大阪市鶴見区,浜３丁目４番３７号,,27,124,5380035,,,,,,,2023-06-16,1,,,,,サツマジュウキコウギョウ,0
1596,6120001255798,新規,0,2023-06-16,2023-06-16,株式会社プレジャースタイル,,株式会社,大阪府,大阪市中央区,瓦町４丁目５番３号日宝西本町ビル５Ｆ３号室,,27,128,5410048,,,,,,,2023-06-16,1,,,,,プレジャースタイル,0
1599,6120005023689,新規,0,2023-06-16,2023-06-16,一般社団法人福祉総合支援協議会,,その他の設立登記法人,大阪府,大阪市西成区,梅南２丁目４－２７,,27,122,5570033,,,,,,,2023-06-16,1,,,,,フクシソウゴウシエンキョウギカイ,0
1602,6120101067672,新規,0,2023-06-16,2023-06-16,株式会社ＯＰ,,株式会社,大阪府,高石市,千代田１丁目６－３,,27,225,5920005,,,,,,,2023-06-16,1,,,,,オーピー,0
1603,6120101067755,新規,0,2023-06-16,2023-06-16,株式会社ＰＯＷＥＲ　ＯＦ　ＬＯＶＥ,,株式会社,大阪府,富田林市,喜志町５丁目２－６スタディオ喜志１０１号,,27,214,5840005,,,,,,,2023-06-16,1,,,,,パワーオブラブ,0
1609,6122001037086,新規,0,2023-06-16,2023-06-16,株式会社藤建,,株式会社,大阪府,八尾市,恩智中町４丁目８１番地の４,,27,212,5810883,,,,,,,2023-06-16,1,,,,,フジケン,0
1621,6140001130537,新規,0,2023-06-16,2023-06-16,安道聖株式会社,,株式会社,兵庫県,神戸市中央区,元町通５丁目２－３甲南サンシティー元町３２７,,28,110,6500022,,,,,,,2023-06-16,1,,,,,アンドウセイ,0
1628,6160001025108,新規,0,2023-06-16,2023-06-16,株式会社笑福家不動産,,株式会社,滋賀県,大津市,本堅田４丁目１５番２５－６０５号,,25,201,5200242,,,,,,,2023-06-16,1,,,,,ショウフクヤフドウサン,0
1636,6180001156776,新規,0,2023-06-16,2023-06-16,株式会社Ｍ．Ｄ．Ｋ,,株式会社,愛知県,尾張旭市,緑町緑ケ丘１００番地２５０,,23,226,4880822,,,,,,,2023-06-16,1,,,,,エムディーケー,0
1637,6180001156801,新規,0,2023-06-16,2023-06-16,株式会社クロスリンク,,株式会社,愛知県,津島市,神守町字中ノ折６２番地,,23,208,4960005,,,,,,,2023-06-16,1,,,,,クロスリンク,0
1641,6180003025368,新規,0,2023-06-16,2023-06-16,ディグル合同会社,,合同会社,愛知県,あま市,篠田新割１３番地６,,23,237,4901211,,,,,,,2023-06-16,1,,,,,ディグル,0
1642,6180003025376,新規,0,2023-06-16,2023-06-16,合同会社じゅいち,,合同会社,愛知県,名古屋市緑区,大高町字儀長５番地,,23,114,4598001,,,,,,,2023-06-16,1,,,,,ジュイチ,0
1646,6190001030492,新規,0,2023-06-16,2023-06-16,株式会社ＦＣＷＬ,,株式会社,三重県,津市,河芸町千里ヶ丘７７番地９,,24,201,5100302,,,,,,,2023-06-16,1,,,,,エフシーダブリュエル,0
1647,6190001030501,新規,0,2023-06-16,2023-06-16,株式会社ＮＳ,,株式会社,三重県,四日市市,久保田２丁目１１番３８－２号,,24,202,5100821,,,,,,,2023-06-16,1,,,,,エヌエス,0
1657,6230001019886,新規,0,2023-06-16,2023-06-16,株式会社ＧｏＥｎインフィニティ,,株式会社,富山県,富山市,呉羽町６９２６番地,,16,201,9300138,,,,,,,2023-06-16,1,,,,,ゴエンインフィニティ,0
1659,6240001061689,新規,0,2023-06-16,2023-06-16,株式会社ＦＬＯＯＭ,,株式会社,広島県,尾道市,栗原西１丁目２番２４号,,34,205,7220026,,,,,,,2023-06-16,1,,,,,フルーム,0
1662,6240003006188,新規,0,2023-06-16,2023-06-16,ＫＩＹ合同会社,,合同会社,広島県,広島市中区,西平塚町９番４－４０１,,34,101,7300024,,,,,,,2023-06-16,1,,,,,,0
1668,6260001038041,新規,0,2023-06-16,2023-06-16,株式会社ｔｉｎｙｓｕｂ,,株式会社,岡山県,岡山市北区,伊島町２丁目１３番２５号ラグゼ１Ｆ,,33,101,7000016,,,,,,,2023-06-16,1,,,,,タイニーサブ,0
1676,6290001101969,新規,0,2023-06-16,2023-06-16,株式会社ＬｏｎｏＬｅ’ａ,,株式会社,福岡県,宗像市,栄町２番地１－２階,,40,220,8114173,,,,,,,2023-06-16,1,,,,,ロノレア,0
1677,6290001101977,新規,0,2023-06-16,2023-06-16,株式会社朝日,,株式会社,福岡県,福岡市南区,皿山４丁目１４番８号濱健ビル２０１号,00130877,40,134,8111365,,,,,,,2023-06-16,1,,,,,アサヒ,0
1686,6300005007145,新規,0,2023-06-16,2023-06-16,一般社団法人バトン,,その他の設立登記法人,佐賀県,唐津市,浜玉町横田下９３１番地,,41,202,8495122,,,,,,,2023-06-16,1,,,,,バトン,0
1700,6340001025650,新規,0,2023-06-16,2023-06-16,桜島不動産株式会社,,株式会社,鹿児島県,鹿児島市,西田１丁目１５番地１２桜島不動産ビル１階,,46,201,8900046,,,,,,,2023-06-16,1,,,,,サクラジマフドウサン,0
1703,6340003004157,新規,0,2023-06-16,2023-06-16,ラインエステート合同会社,,合同会社,鹿児島県,鹿児島市,高麗町１２番２６号,,46,201,8900051,,,,,,,2023-06-16,1,,,,,ラインエステート,0
1704,6340005009617,新規,0,2023-06-16,2023-06-16,一般社団法人奄美せとうち観光協会,,その他の設立登記法人,鹿児島県,大島郡瀬戸内町,大字古仁屋字大湊２６番地１４,,46,525,8941503,,,,,,,2023-06-16,1,,,,,アマミセトウチカンコウキョウカイ,0
1705,6350001018414,新規,0,2023-06-16,2023-06-16,穂北塗装株式会社,,株式会社,宮崎県,西都市,大字南方２３４６番地１２,,45,208,8810027,,,,,,,2023-06-16,1,,,,,ホキタトソウ,0
1714,6360003013065,新規,0,2023-06-16,2023-06-16,南東エアー合同会社,,合同会社,沖縄県,石垣市,字石垣４９１番地７,,47,207,9070023,,,,,,,2023-06-16,1,,,,,ナントウエアー,0
1717,6370001050092,新規,0,2023-06-16,2023-06-16,株式会社ＡＺＵ,,株式会社,宮城県,石巻市,立町１丁目２番１３号リオモール二番館１階,,04,202,9860824,,,,,,,2023-06-16,1,,,,,アズ,0
1727,6430001089323,新規,0,2023-06-16,2023-06-16,株式会社ｅＢｕｉｌｄｓ,,株式会社,北海道,札幌市中央区,南一条西７丁目１２番地２,,01,101,0600061,,,,,,,2023-06-16,1,,,,,イービルズ,0
1728,6430001089372,新規,0,2023-06-16,2023-06-16,株式会社Ｍｏｎｔｅ,,株式会社,北海道,札幌市清田区,里塚三条３丁目２２番２３号,,01,110,0040803,,,,,,,2023-06-16,1,,,,,モンテ,0
1730,6430003015129,新規,0,2023-06-16,2023-06-16,Ｌ＆Ｈ　Ｌａｂ合同会社,,合同会社,北海道,北広島市,大曲幸町４丁目３番地６,,01,234,0611278,,,,,,,2023-06-16,1,,,,,エルアンドエイチラボ,0
1734,6450003002348,新規,0,2023-06-16,2023-06-16,合同会社琉木,,合同会社,北海道,旭川市,亀吉二条１丁目３番１６号,,01,204,0700082,,,,,,,2023-06-16,1,,,,,,0
1737,6490001010514,新規,0,2023-06-16,2023-06-16,株式会社西森,,株式会社,高知県,高知市,桟橋通３丁目１６番２０号,,39,201,7818010,,,,,,,2023-06-16,1,,,,,ニシモリ,0
1741,6700150117501,新規,0,2023-06-16,2023-06-16,Ｇｕａｎｇｚｈｏｕ　Ｈｕａｎｄａｏ　ＮＥＴＷＯＲＫ　ＴＥＣＨＮＯＬＯＧＹ　Ｃｏ．，Ｌｔｄ．,,外国会社等,,,,,,,,Ｂａｉｙｕｎ　Ｄｉｓｔｒｉｃｔ　Ｐｅｎｇｘｉ　Ｈｕａｌｉａｎ　Ｓｅｃｏｎｄ　Ｒｏａｄ　Ｌｉａｎｂｉａｎ　Ｈｅ　ｌｏｎｇ　Ｓｔｒｅｅｔ　Ｎｏ．２　Ｒｏｏｍ　２０２　Ｂｕｉｌｄｉｎｇ　Ｂ　ＧｕａｎｇＺｈｏｕ　ＧｕａｎｇＤｏｎｇ　５１００００　ＣＮ,,,,,,2023-06-16,1,,,,,グワンジヨウフアンダオワンルオコージーヨウシエンゴンスー,0
1742,6700150117526,新規,0,2023-06-16,2023-06-16,ＨＯＮＧ　ＫＯＮＧ　ＭＯＮＩＣＡ　ＦＵＲＮＩＴＵＲＥ　ＬＩＭＩＴＥＤ,,外国会社等,,,,,,,,ＵＮＩＴ　Ａ　１６／Ｆ，８８　ＣＯＭＭＥＲＣＩＡＬ　ＢＵＩＬＤＩＮＧ　２８－３４　ＷＩＮＧ　ＬＯＫ　ＳＴ，ＳＨＥＵＮＧ　ＷＡＮ　ＨＫ,,,,,,2023-06-16,1,,,,,ホンコンモニカフアニチヤーリミテツト,0
1743,6700150117534,新規,0,2023-06-16,2023-06-16,Ｓｈｅｎｚｈｅｎ　ｓｈｉ　ｋｅ　ｎｕｏ　ｔｅ　ｓｈａｎｇｍａｏ　ｙｏｕｘｉａｎ　ｇｏｎｇｓｉ,,外国会社等,,,,,,,,１８０１，Ｓｈｅｎ　Ｉｎｔｅｒｎａｔｉｏｎａｌ　Ｑｉａｎｈａｉ　Ｙｉ　Ｄｕ　Ｂｕｉｌｄｉｎｇ，Ｎｏ．９９，Ｇａｎｇｃｈｅｎｇ，Ｎａｎｓｈａｎ　Ｓｔｒｅｅｔ，Ｑｉａｎｈａｉ　Ｈｏｎｇ　Ｋｏｎｇ－Ｓｈｅｎｚｈｅｎ　Ｃｏｏｐｅｒａｔｉｏｎ　Ｚｏｎｅ，Ｓｈｅｎｚｈｅｎ,,,,,,2023-06-16,1,,,,,シンセンシコノツトシヨウボウユウゲンコウシ,0
1759,7010401174930,新規,0,2023-06-16,2023-06-16,ＬＡＶＩＴ株式会社,,株式会社,東京都,港区,六本木４丁目８番５号５階Ｋａｎｔ．ｃｏ‐ｏｆｆｉｃｅ,,13,103,1060032,,,,,,,2023-06-16,1,,,,,ラビット,0
1760,7010401175078,新規,0,2023-06-16,2023-06-16,ＲＥＢＥＬ　ＣＯＭＰＡＮＹ株式会社,,株式会社,東京都,港区,六本木３丁目３番１６－２０２号,,13,103,1060032,,,,,,,2023-06-16,1,,,,,レベルカンパニー,0
1761,7010401175086,新規,0,2023-06-16,2023-06-16,株式会社シトラ,,株式会社,東京都,港区,芝５丁目２７－３ＭＢＣ,,13,103,1080014,,,,,,,2023-06-16,1,,,,,シトラ,0
1762,7010401175094,新規,0,2023-06-16,2023-06-16,ＥＸＯＴＥＣ　ＰＲＯＤＵＣＴ　ＪＡＰＡＮ株式会社,,株式会社,東京都,港区,港南２丁目１５番１号品川インターシティＡ棟１８階,,13,103,1080075,,,,,,,2023-06-16,1,,,,,エグゾテックプロダクトジャパン,0
1765,7010403030339,新規,0,2023-06-16,2023-06-16,合同会社とらのもん,,合同会社,東京都,港区,虎ノ門１丁目２３番２－４２１１号,,13,103,1050001,,,,,,,2023-06-16,1,,,,,トラノモン,0
1773,7010803004578,新規,0,2023-06-16,2023-06-16,合同会社サステナブルアース,,合同会社,東京都,大田区,西嶺町３２番１４号,,13,111,1450075,,,,,,,2023-06-16,1,,,,,サステナブルアース,0
1780,7011001154991,新規,0,2023-06-16,2023-06-16,株式会社クレインカンパニー,,株式会社,東京都,渋谷区,千駄ヶ谷４丁目２９番１２－８０２号,,13,113,1510051,,,,,,,2023-06-16,1,,,,,クレインカンパニー,0
1781,7011001155065,新規,0,2023-06-16,2023-06-16,Ｓｔｏｒｙ株式会社,,株式会社,東京都,渋谷区,代々木２丁目２１－３太閤コーポ２Ｆ,,13,113,1510053,,,,,,,2023-06-16,1,,,,,ストーリー,0
1782,7011001155131,新規,0,2023-06-16,2023-06-16,株式会社シープ,,株式会社,東京都,渋谷区,東２丁目２３番１４号,,13,113,1500011,,,,,,,2023-06-16,1,,,,,シープ,0
1791,7011101103171,新規,0,2023-06-16,2023-06-16,株式会社ｈｓｃ,,株式会社,東京都,新宿区,西新宿３丁目３番１３号西新宿水間ビル６階,,13,104,1600023,,,,,,,2023-06-16,1,,,,,エイチエスシー,0
1792,7011101103287,新規,0,2023-06-16,2023-06-16,株式会社ＭＹＲＩＳＥ,,株式会社,東京都,新宿区,西新宿３丁目３番１３号西新宿水間ビル２Ｆ,,13,104,1600023,,,,,,,2023-06-16,1,,,,,マイライズ,0
1793,7011103013162,新規,0,2023-06-16,2023-06-16,合同会社ホーリーズ,,合同会社,東京都,新宿区,北新宿４丁目４番４号朝日プラザ北新宿６０１,,13,104,1690074,,,,,,,2023-06-16,1,,,,,ホーリーズ,0
1794,7011103013170,新規,0,2023-06-16,2023-06-16,合同会社世界散歩,,合同会社,東京都,新宿区,西新宿３丁目３番１３号西新宿水間ビル２Ｆ,,13,104,1600023,,,,,,,2023-06-16,1,,,,,セカイサンポ,0
1796,7011105010694,新規,0,2023-06-16,2023-06-16,税理士法人アドバリュー,,その他の設立登記法人,東京都,新宿区,四谷１丁目８番地１４四谷一丁目ビル６階,,13,104,1600004,,,,,,,2023-06-16,1,,,,,アドバリュー,0
1798,7011301028788,新規,0,2023-06-16,2023-06-16,株式会社ＬＢメディア,,株式会社,東京都,杉並区,高円寺南４丁目４３番１３号,,13,115,1660003,,,,,,,2023-06-16,1,,,,,エルビーメディア,0
1799,7011303004804,新規,0,2023-06-16,2023-06-16,合同会社吉田ビル,,合同会社,東京都,杉並区,高円寺南３丁目４５番２号２－Ａ号室,,13,115,1660003,,,,,,,2023-06-16,1,,,,,ヨシダビル,0
1806,7012405004873,新規,0,2023-06-16,2023-06-16,一般社団法人日本テーブルフットボール協会,,その他の設立登記法人,東京都,調布市,仙川町１丁目２３番地５,,13,208,1820002,,,,,,,2023-06-16,1,,,,,ニホンテーブルフットボールキョウカイ,0
1808,7012803003106,新規,0,2023-06-16,2023-06-16,合同会社Ｂａｕｍ,,合同会社,東京都,国立市,中１丁目１６―５０―１０３,,13,215,1860004,,,,,,,2023-06-16,1,,,,,バウム,0
1810,7013303006664,新規,0,2023-06-16,2023-06-16,合同会社Ｒ．Ｋ,,合同会社,東京都,豊島区,南池袋２丁目１０番５号中丸ビル２０２,,13,116,1710022,,,,,,,2023-06-16,1,,,,,アールケイ,0
1818,7021001079321,新規,0,2023-06-16,2023-06-16,株式会社エスホームズ,,株式会社,神奈川県,横須賀市,佐原４丁目８番３４号,,14,201,2390835,,,,,,,2023-06-16,1,,,,,エスホームズ,0
1821,7030001154348,新規,0,2023-06-16,2023-06-16,株式会社飛鳥,,株式会社,埼玉県,さいたま市岩槻区,大字鹿室字新切６２５番地,,11,110,3390001,,,,,,,2023-06-16,1,,,,,アスカ,0
1824,7030005021296,新規,0,2023-06-16,2023-06-16,税理士法人ベネディックス,,その他の設立登記法人,埼玉県,富士見市,鶴馬１丁目１３番２２－４０３号,,11,235,3540021,,,,,,,2023-06-16,1,,,,,ベネディックス,0
1829,7040001128854,新規,0,2023-06-16,2023-06-16,ＡＮＢＡＩホールディングス株式会社,,株式会社,千葉県,茂原市,高師５２１番地６,,12,210,2970029,,,,,,,2023-06-16,1,,,,,アンバイホールディングス,0
1834,7060003004606,新規,0,2023-06-16,2023-06-16,合同会社ＢＡ　ＴＲＡＤＩＮＧ,,合同会社,栃木県,小山市,大字南和泉９５６番地１－Ａ,,09,208,3230816,,,,,,,2023-06-16,1,,,,,ビーエートレーディング,0
1838,7080001025676,新規,0,2023-06-16,2023-06-16,株式会社プラスピース,,株式会社,静岡県,藤枝市,高柳２丁目５番３２号コーポＫ３Ｂ,,22,214,4260041,,,,,,,2023-06-16,1,,,,,プラスピース,0
1843,7080401026539,新規,0,2023-06-16,2023-06-16,明石ファーム株式会社,,株式会社,静岡県,浜松市中区,田町２２８番地の５,,22,131,4300944,,,,,,,2023-06-16,1,,,,,アカシファーム,0
1845,7080403004807,新規,0,2023-06-16,2023-06-16,合同会社ＰＯＰＯ　ｍｕｓｅ,,合同会社,静岡県,浜松市中区,田町２２３番地の２１ビオラ田町３階,,22,131,4300944,,,,,,,2023-06-16,1,,,,,ポポミューズ,0
1847,7100001036522,新規,0,2023-06-16,2023-06-16,株式会社ＯＮＥ　ＴＥＡＭ　ＰＬＡＮＮＩＮＧ,,株式会社,長野県,長野市,大字石渡１３０番地５,,20,201,3810015,,,,,,,2023-06-16,1,,,,,ワンチームプランニング,0
1856,7120001255731,新規,0,2023-06-16,2023-06-16,羽瑠美商事株式会社,,株式会社,大阪府,大阪市北区,野崎町１番３０－１７０５号,,27,127,5300055,,,,,,,2023-06-16,1,,,,,ハルミショウジ,0
1857,7120001255780,新規,0,2023-06-16,2023-06-16,株式会社ＲｅＨＯＵＳＥ,,株式会社,大阪府,大阪市東住吉区,住道矢田１丁目１９番１８号,,27,121,5460022,,,,,,,2023-06-16,1,,,,,リハウス,0
1858,7120001255789,新規,0,2023-06-16,2023-06-16,株式会社Ｒｉｏｎ,,株式会社,大阪府,大阪市中央区,上本町西１丁目５番２４－１１０１号,,27,128,5420062,,,,,,,2023-06-16,1,,,,,リオン,0
1859,7120001255855,新規,0,2023-06-16,2023-06-16,ＡＰＥ株式会社,,株式会社,大阪府,大阪市中央区,東心斎橋２丁目１番１７号２Ｆ,,27,128,5420083,,,,,,,2023-06-16,1,,,,,エップ,0
1863,7120003024300,新規,0,2023-06-16,2023-06-16,合同会社ＬＩＦＥ,,合同会社,大阪府,大阪市中央区,鎗屋町２丁目３番３－２０３号,,27,128,5400027,,,,,,,2023-06-16,1,,,,,ライフ,0
1867,7120101067754,新規,0,2023-06-16,2023-06-16,株式会社英仁社,,株式会社,大阪府,富田林市,宮町１丁目９番１２号ルミエール宮１０１,,27,214,5840011,,,,,,,2023-06-16,1,,,,,エイジンシャ,0
1870,7120103005274,新規,0,2023-06-16,2023-06-16,Ｗｅｈｏｐｅ合同会社,,合同会社,大阪府,堺市堺区,南丸保園３番７号,,27,141,5900036,,,,,,,2023-06-16,1,,,,,ウィホープ,0
1879,7122001037077,新規,0,2023-06-16,2023-06-16,株式会社Ｒｅｎｔ,,株式会社,大阪府,東大阪市,楠根３丁目９番１９号,,27,227,5770006,,,,,,,2023-06-16,1,,,,,レント,0
1893,7140003019199,新規,0,2023-06-16,2023-06-16,合同会社誠幸,,合同会社,兵庫県,多可郡多可町,中区岸上４８５番地４５,,28,365,6791114,,,,,,,2023-06-16,1,,,,,セイコウ,0
1902,7170001017648,新規,0,2023-06-16,2023-06-16,ＷＩＬＬＯＷ株式会社,,株式会社,和歌山県,和歌山市,布施屋２２０番地,,30,201,6496321,,,,,,,2023-06-16,1,,,,,ウィロゥ,0
1913,7180001156767,新規,0,2023-06-16,2023-06-16,株式会社オールスリー,,株式会社,愛知県,名古屋市名東区,猪子石原３丁目７０９番地の１,,23,115,4650008,,,,,,,2023-06-16,1,,,,,オールスリー,0
1917,7190001030500,新規,0,2023-06-16,2023-06-16,ＮＡＧＡＲＥ株式会社,,株式会社,三重県,名張市,つつじが丘南１番町３９番地１０,,24,208,5180421,,,,,,,2023-06-16,1,,,,,ナガレ,0
1924,7200001041405,新規,0,2023-06-16,2023-06-16,株式会社アトラクトホーム,,株式会社,岐阜県,可児市,塩１２７７番地２－１０３号,,21,214,5090251,,,,,,,2023-06-16,1,,,,,アトラクトホーム,0
1925,7200003005993,新規,0,2023-06-16,2023-06-16,合同会社オーガニックベジプランナー,,合同会社,岐阜県,岐阜市,柳津町高桑堤外３丁目１２番地,,21,201,5000000,,,,,,,2023-06-16,1,,,,,オーガニックベジプランナー,0
1927,7230001019877,新規,0,2023-06-16,2023-06-16,株式会社Ｑホールディングス,,株式会社,富山県,富山市,中島４丁目２番１４号,,16,201,9300801,,,,,,,2023-06-16,1,,,,,キューホールディングス,0
1932,7240001061688,新規,0,2023-06-16,2023-06-16,株式会社湯田コンストラクション,,株式会社,広島県,福山市,神辺町字徳田８５０番地７,,34,207,7202126,,,,,,,2023-06-16,1,,,,,ユダコンストラクション,0
1941,7290001101976,新規,0,2023-06-16,2023-06-16,株式会社フロントランナー,,株式会社,福岡県,うきは市,浮羽町古川１０９７番地１,,40,225,8391405,,,,,,,2023-06-16,1,,,,,フロントランナー,0
1946,7290801029624,新規,0,2023-06-16,2023-06-16,株式会社海太郎,,株式会社,福岡県,北九州市小倉北区,中井４丁目４番２７号,,40,106,8030836,,,,,,,2023-06-16,1,,,,,ウミタロウ,0
1950,7310005008686,新規,0,2023-06-16,2023-06-16,一般社団法人長崎県武道空手連合会,,その他の設立登記法人,長崎県,長崎市,かき道１丁目５番９号,,42,201,8510115,,,,,,,2023-06-16,1,,,,,ナガサキケンブドウカラテレンゴウカイ,0
1955,7330003009882,新規,0,2023-06-16,2023-06-16,合同会社ライトワン,,合同会社,熊本県,熊本市東区,戸島２丁目７番２０号,,43,102,8618041,,,,,,,2023-06-16,1,,,,,ライトワン,0
1960,7340003004156,新規,0,2023-06-16,2023-06-16,合同会社キャンバス,,合同会社,鹿児島県,鹿児島市,西千石町１１－２１鹿児島ＭＳビル５階,,46,201,8920847,,,,,,,2023-06-16,1,,,,,キャンバス,0
1962,7360003013072,新規,0,2023-06-16,2023-06-16,ヒイラギ工房合同会社,,合同会社,沖縄県,那覇市,古島２丁目６番地１泉水マンション３０３,,47,201,9020061,,,,,,,2023-06-16,1,,,,,ヒイラギコウボウ,0
1968,7370005010645,新規,0,2023-06-16,2023-06-16,医療法人スエヒロ歯科,,その他の設立登記法人,宮城県,柴田郡大河原町,大谷字末広４５－１,,04,321,9891201,,,,,,,2023-06-16,1,,,,,スエヒロシカ,0
1975,7380001033789,新規,0,2023-06-16,2023-06-16,祥和株式会社,,株式会社,福島県,郡山市,安積町日出山３丁目２７５番地,,07,203,9630101,,,,,,,2023-06-16,1,,,,,ショウワ,0
1977,7380003005489,新規,0,2023-06-16,2023-06-16,合同会社えのま,,合同会社,福島県,福島市,大森字日陰５８番地の２,,07,201,9608237,,,,,,,2023-06-16,1,,,,,エノマ,0
1991,7450003002347,新規,0,2023-06-16,2023-06-16,合同会社マチカド,,合同会社,北海道,旭川市,三条通８丁目１７０５番地２９ステラビル地下１階,,01,204,0700033,,,,,,,2023-06-16,1,,,,,,0
2000,7500003003050,新規,0,2023-06-16,2023-06-16,合同会社Ｇｕｓｕｋｕ,,合同会社,愛媛県,松山市,山西町１３５８番地６３,,38,201,7918026,,,,,,,2023-06-16,1,,,,,グスク,0
2002,7700150117500,新規,0,2023-06-16,2023-06-16,ＧＵＡＮＧＺＨＯＵ　ＹＥＹＡＮ　ＴＥＣＨＮＯＬＯＧＹ　ＣＯ．，ＬＴＤ,,外国会社等,,,,,,,,Ｂａｉｙｕｎｑｕ　Ｈｅｌｏｎｇｊｉｅ　Ｌｉａｎｂｉａｎ　Ｐｅｎｇｘｉ　Ｈｕａｌｉａｎ　Ｅｒ　Ｌｕ　２　Ｈａｏ　Ｂ　Ｄｏｎｇ　３０７　Ｓｈｉ　Ｇｕａｎｇｚｈｏｕ　Ｓｈｉ　Ｇｕａｎｇｄｏｎｇ　Ｓｈｅｎｇ　５１００００　ＣＮ,,,,,,2023-06-16,1,,,,,グワンジヨウイエイエンコージーヨウシエンゴンスー,0
2003,7700150117509,新規,0,2023-06-16,2023-06-16,ｑｕａｎｚｈｏｕｓｈｉ　ｈｕａｎｇｙｕ　ｄｉａｎｚｉ　ｓｈａｎｇｗｕ　ｙｏｕｘｉａｎ　ｇｏｎｇｓｉ,,外国会社等,,,,,,,,３０５－１，Ｂｕｉｌｄｉｎｇ　４，Ｗｏｒｋｓｈｏｐ　Ｎｏ．１５９９，Ｄｏｎｇｂｉｎ　Ｒｏａｄ，Ｆｅｎｇｚｅ　Ｄｉｓｔｒｉｃｔ，Ｑｕａｎｚｈｏｕ　Ｃｉｔｙ，Ｆｕｊｉａｎ　Ｐｒｏｖｉｎｃｅ,,,,,,2023-06-16,1,,,,,チユエンジヨウシーフアンイーデイエンズーシヤンウーヨウシエンゴンスー,0
2004,7700150117525,新規,0,2023-06-16,2023-06-16,Ｓｈｅｎｚｈｅｎ　Ｚｈｏｎｇｆｅｉ　Ｅ－ｃｏｍｍｅｒｃｅ　Ｃｏ．，Ｌｔｄ．,,外国会社等,,,,,,,,Ｒｍ．６Ｊ８１，Ｂｕｉｌｄｉｎｇ　３，Ｓａｉｇｅ　Ｔｅｃｈ．Ｐａｒｋ，Ｈｕａｑｉａｎｇｂｅｉ　Ｓｔｒｅｅｔ，Ｆｕｔｉａｎ　Ｄｉｓｔｒｉｃｔ，Ｓｈｅｎｚｈｅｎ,,,,,,2023-06-16,1,,,,,シンセンチユウヒイーコマースカンパニーリミテツド,0
2005,7700150117533,新規,0,2023-06-16,2023-06-16,Ｓｈｅｎｙａｎｇ　ＤＥＷＯ　Ｃｏｍｍｅｒｃｉａｌ　ａｎｄ　Ｔｒａｄｉｎｇ　Ｃｏ．，Ｌｔｄ．,,外国会社等,,,,,,,,Ｒｏｏｍ　１－２０－１８，Ｎｏ．７９，Ｓｈｅｎｌｉａｏ　Ｄｏｎｇ　Ｒｏａｄ，Ｔｉｅｘｉ　Ｄｉｓｔｒｉｃｔ，Ｓｈｅｎｙａｎｇ，Ｃｈｉｎａ,,,,,,2023-06-16,1,,,,,シンヨウデイイーダブリユーオーコマースアンドトレーデイングカンパニーリミテツド,0
2016,8010001236171,新規,0,2023-06-16,2023-06-16,ＴＲＹ　ＦＩＲＳＴ株式会社,,株式会社,東京都,千代田区,外神田１丁目１５番１３号秋葉原Ｂ＆Ｖビル８階,,13,101,1010021,,,,,,,2023-06-16,1,,,,,トライファースト,0
2017,8010001236188,新規,0,2023-06-16,2023-06-16,Ｑｕａｎｔｅｘａ　Ｊａｐａｎ株式会社,,株式会社,東京都,中央区,日本橋室町４丁目３番９号,,13,102,1030022,,,,,,,2023-06-16,1,,,,,クォンテクサジャパン,0
2018,8010001236221,新規,0,2023-06-16,2023-06-16,株式会社リアンプランニング,,株式会社,東京都,中央区,銀座７丁目４番１３号銀座メディカルビルアネックス４階,,13,102,1040061,,,,,,,2023-06-16,1,,,,,リアンプランニング,0
2027,8010401175069,新規,0,2023-06-16,2023-06-16,株式会社Ｌｉｂｅｒｔｙ　Ｅｄｕｃａｔｉｏｎ,,株式会社,東京都,港区,南青山３丁目１番３６号青山丸竹ビル６Ｆ,,13,103,1070062,,,,,,,2023-06-16,1,,,,,リバティエデュケーション,0
2028,8010401175119,新規,0,2023-06-16,2023-06-16,株式会社Ａｓｔｒｅａ,,株式会社,東京都,港区,西麻布４丁目１５－３グレンパーク西麻布４０１,,13,103,1060031,,,,,,,2023-06-16,1,,,,,アストレア,0
2031,8010405022201,新規,0,2023-06-16,2023-06-16,小田木・香川・橋詰弁護士法人,,その他の設立登記法人,東京都,港区,虎ノ門３丁目１７番７号虎ノ門平井ビル７階,,13,103,1050001,,,,,,,2023-06-16,1,,,,,オダギカガワハシヅメ,0
2038,8010901053261,新規,0,2023-06-16,2023-06-16,ランボウズ株式会社,,株式会社,東京都,世田谷区,下馬３丁目１１番１４号,,13,112,1540002,,,,,,,2023-06-16,1,,,,,ランボウズ,0
2045,8011001155048,新規,0,2023-06-16,2023-06-16,ＨＯＭＥＳＴＡＴＥ　ＪＡＰＡＮ株式会社,,株式会社,東京都,渋谷区,富ヶ谷１丁目１４番１４号３階,,13,113,1510063,,,,,,,2023-06-16,1,,,,,ホームステイトジャパン,0
2046,8011001155080,新規,0,2023-06-16,2023-06-16,株式会社ＳＯＬＥＩＬ,,株式会社,東京都,渋谷区,恵比寿南１丁目１１－１６－３０７,,13,113,1500022,,,,,,,2023-06-16,1,,,,,ソレイル,0
2047,8011001155097,新規,0,2023-06-16,2023-06-16,美康堂生薬日本株式会社,,株式会社,東京都,渋谷区,神宮前１丁目２３番２８号,,13,113,1500001,,,,,,,2023-06-16,1,,,,,ビコウドウショウヤクニホン,0
2048,8011001155130,新規,0,2023-06-16,2023-06-16,株式会社ニコラシステム,,株式会社,東京都,渋谷区,道玄坂１丁目１６番６号二葉ビル８ｂ,,13,113,1500043,,,,,,,2023-06-16,1,,,,,ニコラシステム,0
2054,8011101103286,新規,0,2023-06-16,2023-06-16,株式会社キノミノ,,株式会社,東京都,新宿区,筑土八幡町４番１６－１０３号,,13,104,1620815,,,,,,,2023-06-16,1,,,,,キノミノ,0
2055,8011101103303,新規,0,2023-06-16,2023-06-16,株式会社ソサエティスケーツ,,株式会社,東京都,新宿区,高田馬場１丁目２２番５,,13,104,1690075,,,,,,,2023-06-16,1,,,,,ソサエティスケーツ,0
2058,8011301028762,新規,0,2023-06-16,2023-06-16,株式会社ＴｏＷｏｒｌｄ,,株式会社,東京都,杉並区,和田３丁目４９番２１号シフォン東高円寺２０４,,13,115,1660012,,,,,,,2023-06-16,1,,,,,,0
2065,8011801042593,新規,0,2023-06-16,2023-06-16,株式会社大麒,,株式会社,東京都,足立区,神明２丁目４番２０号,,13,121,1210051,,,,,,,2023-06-16,1,,,,,ダイキ,0
2067,8012701017702,新規,0,2023-06-16,2023-06-16,よくわかならい株式会社,,株式会社,東京都,小平市,美園町１丁目７番１４号,,13,211,1870041,,,,,,,2023-06-16,1,,,,,ヨクワカラナイ,0
2068,8012703002735,新規,0,2023-06-16,2023-06-16,イーダック合同会社,,合同会社,東京都,小平市,美園町２丁目３番２０号,,13,211,1870041,,,,,,,2023-06-16,1,,,,,イーダック,0
2073,8013303006671,新規,0,2023-06-16,2023-06-16,合同会社すばらしい木,,合同会社,東京都,豊島区,南池袋１丁目９番１８号１０１号室,,13,116,1710022,,,,,,,2023-06-16,1,,,,,スバラシイキ,0
2078,8020001152021,新規,0,2023-06-16,2023-06-16,株式会社Ｐｒｉｍｅ　Ｄａｔａ３６５,,株式会社,神奈川県,横浜市南区,八幡町６８番地,,14,105,2320037,,,,,,,2023-06-16,1,,,,,プライムデータサンロクゴ,0
2079,8020001152104,新規,0,2023-06-16,2023-06-16,株式会社Ｉｃｏｎｎｅｃｔ,,株式会社,神奈川県,横浜市南区,通町２丁目３７番地,,14,105,2320056,,,,,,,2023-06-16,1,,,,,アイコネクト,0
2080,8020001152120,新規,0,2023-06-16,2023-06-16,スタートライン株式会社,,株式会社,神奈川県,横浜市旭区,さちが丘１４８番地４さちが丘ダイカンプラザスポーツメント６１１号,,14,112,2410822,,,,,,,2023-06-16,1,,,,,スタートライン,0
2081,8020003024029,新規,0,2023-06-16,2023-06-16,ＭＹＭキャピタル合同会社,,合同会社,神奈川県,横浜市青葉区,荏田西４丁目２番地５５,,14,117,2250014,,,,,,,2023-06-16,1,,,,,エムワイエムキャピタル,0
2083,8021001079345,新規,0,2023-06-16,2023-06-16,ｍｏｉｘａ株式会社,,株式会社,神奈川県,茅ヶ崎市,甘沼５６１番地３,,14,207,2530004,,,,,,,2023-06-16,1,,,,,モイクサ,0
2085,8021003013228,新規,0,2023-06-16,2023-06-16,合同会社相模県央樹木医事務所,,合同会社,神奈川県,相模原市中央区,相模原１丁目１０－１３－１０１,,14,152,2520231,,,,,,,2023-06-16,1,,,,,サガミケンオウジュモクイジムショ,0
2093,8030003021990,新規,0,2023-06-16,2023-06-16,合同会社キュポラ,,合同会社,埼玉県,川口市,栄町１丁目１２番２１,,11,203,3320017,,,,,,,2023-06-16,1,,,,,キュポラ,0
2097,8040001128861,新規,0,2023-06-16,2023-06-16,株式会社ＳＴＩ,,株式会社,千葉県,市原市,喜多９０６番地１９２,,12,219,2900167,,,,,,,2023-06-16,1,,,,,エスティアイ,0
2099,8050003007583,新規,0,2023-06-16,2023-06-16,ＳＥＤ合同会社,,合同会社,茨城県,取手市,桜が丘１丁目２９番１２号,,08,217,3001525,,,,,,,2023-06-16,1,,,,,エスイーディー,0
2103,8080001025675,新規,0,2023-06-16,2023-06-16,株式会社音束,,株式会社,静岡県,静岡市駿河区,曲金３丁目５番４１号,,22,102,4228006,,,,,,,2023-06-16,1,,,,,オトタバ,0
2107,8100001036521,新規,0,2023-06-16,2023-06-16,ＢｏｒｇＲｏｉｄ株式会社,,株式会社,長野県,諏訪郡下諏訪町,４７８７番地サンハイツ諏訪湖６０６号室,,20,361,3930000,,,,,,,2023-06-16,1,,,,,ボーグロイド,0
2118,8120001255739,新規,0,2023-06-16,2023-06-16,大合株式会社,,株式会社,大阪府,大阪市生野区,巽北１丁目１番１号１Ｆ－Ｅ,,27,116,5440004,,,,,,,2023-06-16,1,,,,,ダイゴウ,0
2119,8120001255755,新規,0,2023-06-16,2023-06-16,株式会社ＴＷＥＬＶＥ,,株式会社,大阪府,大阪市中央区,島之内１丁目１５番２５－２００３号,,27,128,5420082,,,,,,,2023-06-16,1,,,,,トゥエルブ,0
2120,8120001255763,新規,0,2023-06-16,2023-06-16,株式会社つむぐや,,株式会社,大阪府,大阪市中央区,本町２丁目３番４号,,27,128,5410053,,,,,,,2023-06-16,1,,,,,ツムグヤ,0
2121,8120001255838,新規,0,2023-06-16,2023-06-16,株式会社ＷＡＯＮＡＳ,,株式会社,大阪府,大阪市阿倍野区,阪南町１丁目１５番１５号,,27,119,5450021,,,,,,,2023-06-16,1,,,,,ワヲナス,0
2127,8120003024308,新規,0,2023-06-16,2023-06-16,合同会社くすのせ,,合同会社,大阪府,大阪市北区,中之島６丁目１番３８－１４１２号,,27,127,5300005,,,,,,,2023-06-16,1,,,,,クスノセ,0
2128,8120003024316,新規,0,2023-06-16,2023-06-16,合同会社オーシャン,,合同会社,大阪府,大阪市西淀川区,佃５丁目１２番１号,,27,113,5550001,,,,,,,2023-06-16,1,,,,,オーシャン,0
2132,8120101067753,新規,0,2023-06-16,2023-06-16,株式会社ＨＩＳＴＯＲＩＡ　ｂｅａｕｔｙ　ｐｌａｃｅ,,株式会社,大阪府,堺市北区,黒土町３００２番地２３,,27,146,5918024,,,,,,,2023-06-16,1,,,,,ヒストリアビューティープレイス,0
2135,8120903004697,新規,0,2023-06-16,2023-06-16,合同会社和懐堂,,合同会社,大阪府,吹田市,日の出町１１番４７号,,27,205,5640023,,,,,,,2023-06-16,1,,,,,ワカイドウ,0
2137,8122001037084,新規,0,2023-06-16,2023-06-16,株式会社ＫＴコーポレーション,,株式会社,大阪府,東大阪市,長堂１丁目１２番１号－６０１,,27,227,5770056,,,,,,,2023-06-16,1,,,,,ケーティーコーポレーション,0
2148,8140001130551,新規,0,2023-06-16,2023-06-16,株式会社エキサイティブ,,株式会社,兵庫県,神戸市中央区,磯辺通１丁目１番１８号カサベラ国際プラザビル７０７,,28,110,6510084,,,,,,,2023-06-16,1,,,,,エキサイティブ,0
2152,8140003019215,新規,0,2023-06-16,2023-06-16,合同会社ＭＯＯＮＳ,,合同会社,兵庫県,神戸市灘区,六甲台町９番２－５０３号,,28,102,6570013,,,,,,,2023-06-16,1,,,,,ムーンズ,0
2155,8150001026484,新規,0,2023-06-16,2023-06-16,日本工機株式会社,,株式会社,奈良県,奈良市,五条西２丁目１５番１９号,,29,201,6308034,,,,,,,2023-06-16,1,,,,,ニホンコウキ,0
2156,8160001025114,新規,0,2023-06-16,2023-06-16,株式会社コンパス,,株式会社,滋賀県,栗東市,蜂屋８９３番地１（１０４号）フェリオ,,25,208,5203021,,,,,,,2023-06-16,1,,,,,コンパス,0
2157,8170001017647,新規,0,2023-06-16,2023-06-16,株式会社竹田組,,株式会社,和歌山県,東牟婁郡串本町,潮岬１５９５番地１,,30,428,6493502,,,,,,,2023-06-16,1,,,,,タケダグミ,0
2163,8180001156758,新規,0,2023-06-16,2023-06-16,アルファウェイ株式会社,,株式会社,愛知県,名古屋市千種区,今池１丁目６番４号,,23,101,4640850,,,,,,,2023-06-16,1,,,,,アルファウェイ,0
2164,8180001156766,新規,0,2023-06-16,2023-06-16,株式会社ミース,,株式会社,愛知県,名古屋市港区,明正２丁目２８１番地,,23,111,4550806,,,,,,,2023-06-16,1,,,,,ミース,0
2165,8180001156790,新規,0,2023-06-16,2023-06-16,株式会社ひとつ道,,株式会社,愛知県,名古屋市名東区,松井町２４６番地の４,,23,115,4650062,,,,,,,2023-06-16,1,,,,,ヒトツミチ,0
2166,8180003025366,新規,0,2023-06-16,2023-06-16,合同会社大崎みらい研究所,,合同会社,愛知県,知多郡美浜町,大字上野間字越智２７番地４,,23,446,4703231,,,,,,,2023-06-16,1,,,,,オオサキミライケンキュウショ,0
2168,8190001030499,新規,0,2023-06-16,2023-06-16,株式会社こころ,,株式会社,三重県,伊勢市,御薗町高向２０１８番地,,24,203,5160805,,,,,,,2023-06-16,1,,,,,ココロ,0
2169,8190001030508,新規,0,2023-06-16,2023-06-16,株式会社ネオ電工,,株式会社,三重県,津市,芸濃町椋本３８９１番地２,,24,201,5142211,,,,,,,2023-06-16,1,,,,,ネオデンコウ,0
2170,8190003004360,新規,0,2023-06-16,2023-06-16,合同会社パウリスタノ,,合同会社,三重県,津市,安濃町内多２８４６番地３,,24,201,5142303,,,,,,,2023-06-16,1,,,,,,0
2174,8220001025462,新規,0,2023-06-16,2023-06-16,株式会社Ｅｒｉｓ,,株式会社,石川県,金沢市,黒田２丁目１８４番地２,,17,201,9218051,,,,,,,2023-06-16,1,,,,,エリス,0
2175,8230001019884,新規,0,2023-06-16,2023-06-16,ＣＬＯＵＤ　Ｌ株式会社,,株式会社,富山県,富山市,総曲輪１丁目２番２０号桜木町センタービル３Ｆ,,16,201,9300083,,,,,,,2023-06-16,1,,,,,クラウドエル,0
2179,8240001061687,新規,0,2023-06-16,2023-06-16,ＷＡＣＴＯＲＹホールディングス株式会社,,株式会社,広島県,安芸郡府中町,茂陰１丁目８番７号,,34,302,7350029,,,,,,,2023-06-16,1,,,,,ワクトリーホールディングス,0
2180,8240001061695,新規,0,2023-06-16,2023-06-16,株式会社ＳＵＰＥＲ　ＭＩＳＳＩＯＮ,,株式会社,広島県,広島市西区,三滝本町１丁目１番６－２０１号,,34,104,7330802,,,,,,,2023-06-16,1,,,,,スーパーミッション,0
2192,8290001101959,新規,0,2023-06-16,2023-06-16,株式会社ケイエフメディカル,,株式会社,福岡県,福岡市早良区,百道浜３丁目３番７－３０６号,,40,137,8140001,,,,,,,2023-06-16,1,,,,,ケイエフメディカル,0
2197,8290003014036,新規,0,2023-06-16,2023-06-16,合同会社ｆｕｇａｓｈｉ,,合同会社,福岡県,福岡市博多区,中洲５丁目４番６－１２１１号リバーフェイス博多,,40,132,8100801,,,,,,,2023-06-16,1,,,,,フガシ,0
2201,8300003001981,新規,0,2023-06-16,2023-06-16,合同会社ＮＯＲＩＫＯ　ＩＮＴＥＲＮＡＴＩＯＮＡＬ,,合同会社,佐賀県,佐賀市,兵庫南３丁目５番１－７０１号,,41,201,8490918,,,,,,,2023-06-16,1,,,,,ノリコインターナショナル,0
2208,8320003004108,新規,0,2023-06-16,2023-06-16,合同会社ＫＭＣ,,合同会社,大分県,日田市,中央１丁目１番２４号,,44,204,8770015,,,,,,,2023-06-16,1,,,,,ケーエムシー,0
2212,8360001032180,新規,0,2023-06-16,2023-06-16,Ｌａティダ株式会社,,株式会社,沖縄県,中頭郡中城村,字当間７８８番地,,47,328,9012406,,,,,,,2023-06-16,1,,,,,ラティダ,0
2213,8360003013063,新規,0,2023-06-16,2023-06-16,合同会社作興業,,合同会社,沖縄県,中頭郡読谷村,字渡具知１４４番地,,47,324,9040315,,,,,,,2023-06-16,1,,,,,サクコウギョウ,0
2214,8360003013071,新規,0,2023-06-16,2023-06-16,豊見城エビ養殖産業合同会社,,合同会社,沖縄県,豊見城市,字翁長８５４番地１,,47,212,9010223,,,,,,,2023-06-16,1,,,,,トミグスクエビヨウショクサンギョウ,0
2222,8390001017286,新規,0,2023-06-16,2023-06-16,もがみバイオマス発電２株式会社,,株式会社,山形県,新庄市,大字福田字福田山７１１番地の５２,,06,205,9960053,,,,,,,2023-06-16,1,,,,,モガミバイオマスハツデントゥー,0
2251,8700150117508,新規,0,2023-06-16,2023-06-16,ｓｈａｎｔｏｕｓｈｉ　ｈａｎｓｈｅｎｇ　ｓｕｌｉａｏ　ｚｈｉｐｉｎ　ｙｏｕｘｉａｎ　ｇｏｎｇｓｉ,,外国会社等,,,,,,,,ｃｈｅｎｇｈａｉｑｕｌｉａｎｘｉａｚｈｅｎｗａｎｔｏｕｎａｎｗａｎｇｏｎｇｙｅｑｕ　ｊｉａｓｈｕｎｓｈｕｉｃｈａｎｍａｏｙｉｙｏｕｘｉａｎｇｏｎｇｓｉｘｉｃｅ　Ｓｈａｎｔｏｕ　Ｇｕａｎｇｄｏｎｇ　５１５８００　ＣＮ,,,,,,2023-06-16,1,,,,,シヤントウシーハンシヨンスーリヤオジーピンヨウシエンゴンスー,0
2252,8700150117524,新規,0,2023-06-16,2023-06-16,Ｐｈｉｌｉｐｐｉｎｅｓ　Ａｉｒａｓｉａ　Ｉｎｃ．ｄｏｉｎｇ　ｂｕｓｉｎｅｓｓ　ｕｎｄｅｒ　ｔｈｅ　ｎａｍｅ　ａｎｄ　ｓｔｙｌｅ　ｏｆ　Ａｉｒａｓｉａ,,外国会社等,千葉県,成田市,取香１４８番地１,,12,211,2860106,フィリピン共和国、マニラ首都圏パサイ市、バランガイ１８３、ナイアターミナル３ストリート、メザニンエリア、２階,,,,,,2023-06-16,1,,,,,フイリピンエアアジアインコーポレーテツドドウーイングビジネスアンダーザネームアンドスタイルオブエアアジア,0
2253,8700150117540,新規,0,2023-06-16,2023-06-16,Ｇｕａｎｇｚｈｏｕ　Ｒｕｉｋｕ　Ａｕｔｏ　Ｐａｒｔｓ　Ｃｏ．,,外国会社等,,,,,,,,Ｒｏｏｍ　２０３，２ｎｄ　Ｆｌｏｏｒ，Ｎｏ．１５，Ｈｕａｎｊｉａｏ　Ｙｉｈｅｎｇ　Ｒｏａｄ，Ｂａｉｙｕｎ　Ｌａｋｅ　Ｓｔｒｅｅｔ，Ｂａｉｙｕｎ　Ｄｉｓｔｒｉｃｔ，Ｇｕａｎｇｚｈｏｕ,,,,,,2023-06-16,1,,,,,コウシユウリコジドウシヤブヒンユウゲンコウシ,0
2267,9010405022241,新規,0,2023-06-16,2023-06-16,品川リゾート特定目的会社,,その他の設立登記法人,東京都,港区,西新橋１丁目２番９号メンターキャピタル税理士法人内,,13,103,1050003,,,,,,,2023-06-16,1,,,,,シナガワリゾート,0
2268,9010503007045,新規,0,2023-06-16,2023-06-16,合同会社エベレストファーム,,合同会社,東京都,台東区,東上野３丁目１５番１２号エムプレイス東上野２０２号室,,13,106,1100015,,,,,,,2023-06-16,1,,,,,エベレストファーム,0
2271,9010603010196,新規,0,2023-06-16,2023-06-16,カイナカ合同会社,,合同会社,東京都,江東区,東雲１丁目９番４２－１８０９号,,13,108,1350062,,,,,,,2023-06-16,1,,,,,カイナカ,0
2281,9010901053269,新規,0,2023-06-16,2023-06-16,ＳＵＰＥＲ　ＢＥＮＴＯ　ＥＮＴＥＲＴＡＩＮＭＥＮＴ株式会社,,株式会社,東京都,世田谷区,赤堤４丁目４５番８号上保共同アパート２Ｆ,,13,112,1560044,,,,,,,2023-06-16,1,,,,,スーパーベントーエンターテイメント,0
2285,9011001155063,新規,0,2023-06-16,2023-06-16,株式会社Ｃｒｅｅｒ,,株式会社,東京都,渋谷区,桜丘町４番８号プレシャス渋谷１００５,,13,113,1500031,,,,,,,2023-06-16,1,,,,,クリー,0
2288,9011005010116,新規,0,2023-06-16,2023-06-16,一般社団法人Ｓｔ．Ｍ,,その他の設立登記法人,東京都,渋谷区,千駄ヶ谷３丁目５９番４号クエストコート原宿４０４,,13,113,1510051,,,,,,,2023-06-16,1,,,,,エスティエム,0
2293,9011101103293,新規,0,2023-06-16,2023-06-16,株式会社スノーセブン,,株式会社,東京都,新宿区,高田馬場１丁目１番１３－７０３号,,13,104,1690075,,,,,,,2023-06-16,1,,,,,スノーセブン,0
2294,9011101103310,新規,0,2023-06-16,2023-06-16,株式会社ｍｅｌｏｄｙ,,株式会社,東京都,新宿区,西新宿３丁目３－１３西新宿水間ビル６階,,13,104,1600023,,,,,,,2023-06-16,1,,,,,メロディ,0
2297,9011103013152,新規,0,2023-06-16,2023-06-16,合同会社キャリアバディ,,合同会社,東京都,新宿区,西新宿３丁目３番１３号西新宿水間ビル２Ｆ,,13,104,1600023,,,,,,,2023-06-16,1,,,,,キャリアバディ,0
2298,9011103013160,新規,0,2023-06-16,2023-06-16,合同会社ちはや,,合同会社,東京都,新宿区,新宿７丁目２番３－１４０１号,,13,104,1600022,,,,,,,2023-06-16,1,,,,,チハヤ,0
2303,9011301028778,新規,0,2023-06-16,2023-06-16,未来空間株式会社,,株式会社,東京都,杉並区,久我山２丁目１７番３号,,13,115,1680082,,,,,,,2023-06-16,1,,,,,ミライクウカン,0
2304,9011301028794,新規,0,2023-06-16,2023-06-16,株式会社ＰＩＣ映像事務所,,株式会社,東京都,杉並区,高円寺南５丁目３１番１９号プルーム１０４,,13,115,1660003,,,,,,,2023-06-16,1,,,,,ピクエイゾウジムショ,0
2319,9011601026878,新規,0,2023-06-16,2023-06-16,ネクストブリッジパートナーズ株式会社,,株式会社,東京都,練馬区,関町北３丁目５－５,,13,120,1770051,,,,,,,2023-06-16,1,,,,,ネクストブリッジパートナーズ,0
2326,9011803005696,新規,0,2023-06-16,2023-06-16,合同会社Ｌｉｆｅ　Ｃｈａｎｇｅ　Ｓｕｐｐｏｒｔ,,合同会社,東京都,足立区,綾瀬２丁目３１番７号,,13,121,1200005,,,,,,,2023-06-16,1,,,,,ライフチェンジサポート,0
2330,9012403006028,新規,0,2023-06-16,2023-06-16,英富ジャパン合同会社,,合同会社,東京都,稲城市,平尾３丁目１番１号３２―４０３,,13,225,2060823,,,,,,,2023-06-16,1,,,,,エイトムジャパン,0
2332,9012701017701,新規,0,2023-06-16,2023-06-16,株式会社百花王,,株式会社,東京都,小平市,花小金井８丁目１０番２７号,,13,211,1870002,,,,,,,2023-06-16,1,,,,,ボタン,0
2333,9012703002734,新規,0,2023-06-16,2023-06-16,合同会社渡辺空設工業,,合同会社,東京都,小平市,上水本町４丁目１７番１５号,,13,211,1870022,,,,,,,2023-06-16,1,,,,,ワタナベクウセツコウギョウ,0
2339,9013301050910,新規,0,2023-06-16,2023-06-16,コージー設備工業株式会社,,株式会社,東京都,豊島区,駒込６丁目２３番１１号パリオ１階,,13,116,1700003,,,,,,,2023-06-16,1,,,,,コージーセツビコウギョウ,0
2352,9020001152020,新規,0,2023-06-16,2023-06-16,株式会社彩,,株式会社,神奈川県,横浜市都筑区,仲町台１丁目２６－１７ＡｉｌＥ１Ｆ,,14,118,2240041,,,,,,,2023-06-16,1,,,,,イロドリ,0
2353,9020001152094,新規,0,2023-06-16,2023-06-16,株式会社ネクストメイクス,,株式会社,神奈川県,横浜市中区,蓬莱町２丁目６番１４号,,14,104,2310048,,,,,,,2023-06-16,1,,,,,ネクストメイクス,0
2354,9020001152111,新規,0,2023-06-16,2023-06-16,ＦＬＴＣ株式会社,,株式会社,神奈川県,横浜市中区,簑沢１０５番地４－２０１,,14,104,2310856,,,,,,,2023-06-16,1,,,,,エフエルティーシー,0
2355,9020001152128,新規,0,2023-06-16,2023-06-16,株式会社インパクトトレーディングホールディングス,,株式会社,神奈川県,横浜市港北区,新横浜３丁目９番５号,,14,109,2220033,,,,,,,2023-06-16,1,,,,,インパクトトレーディングホールディングス,0
2356,9020003024069,新規,0,2023-06-16,2023-06-16,ＫＯＴＯＭＯＴＯ合同会社,,合同会社,神奈川県,横浜市青葉区,美しが丘１丁目１３番地１０吉村ビル１０７号,,14,117,2250002,,,,,,,2023-06-16,1,,,,,,0
2365,9030001154379,新規,0,2023-06-16,2023-06-16,株式会社ＲＯＫＵ,,株式会社,埼玉県,さいたま市大宮区,大門町２丁目２０番地２ＴＭＯ北棟ＴＭＯｆｆｉｃｅ大宮１０１号室,00130869,11,103,3300846,,,,,,,2023-06-16,1,,,,,ロク,0
2366,9030001154429,新規,0,2023-06-16,2023-06-16,株式会社樹理,,株式会社,埼玉県,川口市,上青木西３丁目３番２８号,,11,203,3330845,,,,,,,2023-06-16,1,,,,,ジュリ,0
2372,9030005008449,新規,0,2023-06-16,2023-06-16,医療法人浅田医院,,その他の設立登記法人,埼玉県,川越市,稲荷町１２番地８,,11,201,3501144,,,,,,,2023-06-16,1,,,,,,0
2379,9050001052993,新規,0,2023-06-16,2023-06-16,株式会社モノリス,,株式会社,茨城県,守谷市,大柏１００７番地の２４,,08,224,3020116,,,,,,,2023-06-16,1,,,,,モノリス,0
2384,9060005010105,新規,0,2023-06-16,2023-06-16,一般社団法人らいふサポートおやま,,その他の設立登記法人,栃木県,小山市,天神町２丁目８番５０号トーヨーハイツ２０１号,,09,208,3230032,,,,,,,2023-06-16,1,,,,,ライフサポートオヤマ,0
2387,9070001040542,新規,0,2023-06-16,2023-06-16,株式会社ＰＥＡＣＥ,,株式会社,群馬県,太田市,植木野町１８２番地１,,10,205,3730014,,,,,,,2023-06-16,1,,,,,ピース,0
2394,9100001036520,新規,0,2023-06-16,2023-06-16,株式会社ＲＩＮＤＯ,,株式会社,長野県,伊那市,ますみヶ丘１１７２番地５１,,20,209,3960027,,,,,,,2023-06-16,1,,,,,リンドウ,0
2403,9120001255762,新規,0,2023-06-16,2023-06-16,福隆清吉株式会社,,株式会社,大阪府,大阪市西成区,天下茶屋１丁目４番４号,,27,122,5570014,,,,,,,2023-06-16,1,,,,,フクリュウセイキチ,0
2404,9120001255779,新規,0,2023-06-16,2023-06-16,煕寧株式会社,,株式会社,大阪府,大阪市西成区,山王１丁目１４番１１号丸大マンション２０２号室,,27,122,5570001,,,,,,,2023-06-16,1,,,,,キネイ,0
2405,9120001255812,新規,0,2023-06-16,2023-06-16,株式会社美馬建設,,株式会社,大阪府,大阪市大正区,三軒家東２丁目２番１１号,,27,108,5510002,,,,,,,2023-06-16,1,,,,,ミマケンセツ,0
2409,9120003024174,新規,0,2023-06-16,2023-06-16,明月商会合同会社,,合同会社,大阪府,大阪市西区,九条南２丁目１６－１３,,27,106,5500025,,,,,,,2023-06-16,1,,,,,メイゲツショウカイ,0
2410,9120003024331,新規,0,2023-06-16,2023-06-16,ハッピーハウス合同会社,,合同会社,大阪府,大阪市生野区,巽北１丁目１０番２５号ＯＴＬＡハイツ１０１,00130883,27,116,5440004,,,,,,,2023-06-16,1,,,,,ハッピーハウス,0
2413,9120101067744,新規,0,2023-06-16,2023-06-16,橋本建設工業株式会社,,株式会社,大阪府,泉南市,男里６丁目１５番１号朝日プラザシティサザンコーストＢ棟１４１０号,,27,228,5900526,,,,,,,2023-06-16,1,,,,,ハシモトケンセツコウギョウ,0
2414,9120101067760,新規,0,2023-06-16,2023-06-16,おいらの株式会社,,株式会社,大阪府,堺市西区,上野芝向ヶ丘町４丁２０番１０号,,27,144,5938303,,,,,,,2023-06-16,1,,,,,オイラノ,0
2419,9122001037083,新規,0,2023-06-16,2023-06-16,株式会社リクリエイト,,株式会社,大阪府,八尾市,太田新町３丁目１０９番地,,27,212,5810039,,,,,,,2023-06-16,1,,,,,リクリエイト,0
2434,9140003019214,新規,0,2023-06-16,2023-06-16,合同会社大福,,合同会社,兵庫県,神戸市西区,池上４丁目２－１０リバーサイド岡田２０２,,28,111,6512111,,,,,,,2023-06-16,1,,,,,ダイフク,0
2435,9140005026662,新規,0,2023-06-16,2023-06-16,みらい事業協同組合,,その他の設立登記法人,兵庫県,姫路市,東今宿１丁目５番１１号,,28,201,6700056,,,,,,,2023-06-16,1,,,,,ミライ,0
2438,9150003002986,新規,0,2023-06-16,2023-06-16,合同会社バーテックス,,合同会社,奈良県,北葛城郡広陵町,大字平尾６７３番地１１,,29,426,6350822,,,,,,,2023-06-16,1,,,,,バーテックス,0
2440,9160001025113,新規,0,2023-06-16,2023-06-16,株式会社ＥＮＺＯ,,株式会社,滋賀県,愛知郡愛荘町,円城寺８１９番地７,,25,425,5291231,,,,,,,2023-06-16,1,,,,,エンゾウ,0
2445,9170001017646,新規,0,2023-06-16,2023-06-16,株式会社山本機械商会,,株式会社,和歌山県,岩出市,川尻６番地の８ミムラビル２０６号,,30,209,6496231,,,,,,,2023-06-16,1,,,,,ヤマモトキカイショウカイ,0
2455,9180001156699,新規,0,2023-06-16,2023-06-16,Ｃｈａｉｎ‐Ｍｏｖｉｅｓ株式会社,,株式会社,愛知県,名古屋市緑区,大高台３丁目８０８番地グリーンヒルズ大高台２－１０２号,,23,114,4598003,,,,,,,2023-06-16,1,,,,,チェインムービーズ,0
2456,9180001156798,新規,0,2023-06-16,2023-06-16,株式会社石川電機,,株式会社,愛知県,知多郡東浦町,大字緒川字古流作１番地の２５,,23,442,4702102,,,,,,,2023-06-16,1,,,,,イシカワデンキ,0
2459,9180003025373,新規,0,2023-06-16,2023-06-16,セミテックジャパン合同会社,,合同会社,愛知県,名古屋市南区,柴田町１丁目１４番地,,23,112,4570815,,,,,,,2023-06-16,1,,,,,セミテックジャパン,0
2469,9220001025461,新規,0,2023-06-16,2023-06-16,株式会社ＪＯＫＥＲ,,株式会社,石川県,金沢市,南四十万１丁目１９５番地,,17,201,9218134,,,,,,,2023-06-16,1,,,,,ジョーカー,0
2471,9240001061686,新規,0,2023-06-16,2023-06-16,株式会社エステイトブライト,,株式会社,広島県,広島市佐伯区,五月が丘２丁目１０番４１号,,34,108,7315101,,,,,,,2023-06-16,1,,,,,エステイトブライト,0
2487,9290001101966,新規,0,2023-06-16,2023-06-16,株式会社ｓｕｎａｏ,,株式会社,福岡県,福岡市早良区,大字脇山２６０８番地９,,40,137,8111111,,,,,,,2023-06-16,1,,,,,スナオ,0
2488,9290001101974,新規,0,2023-06-16,2023-06-16,Ｒｅｅｓ　Ａｇｅｎｃｙ株式会社,,株式会社,福岡県,福岡市博多区,博多駅東２丁目８－６－５Ｆ,,40,132,8120013,,,,,,,2023-06-16,1,,,,,リースエージェンシー,0
2491,9290003014010,新規,0,2023-06-16,2023-06-16,合同会社Ｎｅｗ　Ｂｌａｃｋ,,合同会社,福岡県,うきは市,浮羽町朝田３７０－１,,40,225,8391401,,,,,,,2023-06-16,1,,,,,ニューブラック,0
2493,9290801029622,新規,0,2023-06-16,2023-06-16,株式会社ＬＣ２,,株式会社,福岡県,北九州市小倉北区,浅野３丁目８番１号ＡＩＭ（アジア太平洋インポートマート）ビル６階,,40,106,8020001,,,,,,,2023-06-16,1,,,,,エルシーツー,0
2500,9330001030970,新規,0,2023-06-16,2023-06-16,ダブルインパクト株式会社,,株式会社,熊本県,熊本市東区,若葉５丁目１９番７３号,,43,102,8612103,,,,,,,2023-06-16,1,,,,,ダブルインパクト,0
2506,9340001025656,新規,0,2023-06-16,2023-06-16,カワハラ屋株式会社,,株式会社,鹿児島県,鹿児島市,草牟田２丁目８番３５号オークマンションＩＩ２０２号,00130886,46,201,8900014,,,,,,,2023-06-16,1,,,,,カワハラヤ,0
2507,9350003004384,新規,0,2023-06-16,2023-06-16,ジー・エー・インベストメント合同会社,,合同会社,宮崎県,宮崎市,松橋１丁目２番１６号ラ・ジョア１００２号,,45,201,8800013,,,,,,,2023-06-16,1,,,,,ジーエーインベストメント,0
2510,9360003013070,新規,0,2023-06-16,2023-06-16,ホープ企画開発合同会社,,合同会社,沖縄県,国頭郡本部町,字伊豆味２８６５番地,,47,308,9050221,,,,,,,2023-06-16,1,,,,,ホープキカクカイハツ,0
2535,9480001012129,新規,0,2023-06-16,2023-06-16,株式会社イーストボード,,株式会社,徳島県,名西郡石井町,藍畑字東覚円１３１番地１,,36,341,7793212,,,,,,,2023-06-16,1,,,,,イーストボード,0
2540,9490001010511,新規,0,2023-06-16,2023-06-16,株式会社Ｗｈｉｚ　Ｕ,,株式会社,高知県,高知市,北本町２丁目１番１２号,,39,201,7800056,,,,,,,2023-06-16,1,,,,,ウイズユー,0
2542,9500001024996,新規,0,2023-06-16,2023-06-16,株式会社ここいろ,,株式会社,愛媛県,宇和島市,丸之内３丁目６番２号,,38,203,7980060,,,,,,,2023-06-16,1,,,,,ココイロ,0
2543,9500001025004,新規,0,2023-06-16,2023-06-16,株式会社池田やフーズ,,株式会社,愛媛県,八幡浜市,２５８番地２,,38,204,7960088,,,,,,,2023-06-16,1,,,,,イケダヤフーズ,0
2548,9700150117507,新規,0,2023-06-16,2023-06-16,ＸｉａＭｅｎＪｕＨｏｎｇＤａＤｉａｎＺｉＳｈａｎｇＷｕＹｏｕＸｉａｎＧｏｎｇＳｉ,,外国会社等,,,,,,,,Ｒｏｏｍ３１５　Ｎｏ．１４７　Ｍａｌｏｎｇ　Ｅｒ　Ｒｏａｄ，Ｄｉａｎ　Ｑｉａｎ　Ｓｔｒｅｅｔ，Ｈｕｌｉ　Ｄｉｓｔｒｉ　ＸｉａＭｅｎ　ＦｕＪｉａｎ　３６１０００　ＣＮ,,,,,,2023-06-16,1,,,,,シヤーメンジーホンダーデイエンズーシヤンウーヨウシエンゴンスー,0
2549,9700150117523,新規,0,2023-06-16,2023-06-16,Ｓｈｅｎｚｈｅｎｓｈｉ　Ｈｅｎｇｘｉｎｇｗｅｉｔａｉ　Ｋｅｊｉｙｏｕｘｉａｎ　ｇｏｎｇｓｉ,,外国会社等,,,,,,,,Ｓｈｅｎｚｈｅｎｓｈｉ　Ｌｏｎｇｈｕａｑｕ　Ｍｉｎｚｈｉｊｉｅｄａｏ　Ｍｉｎｘｉｎｓｈｅｑｕ　Ｍｉｎｚｈｉｄａｄａｏ２４１ｈａｏ　Ｍｉｎｔａｉｄａｓｈａ　５０９,,,,,,2023-06-16,1,,,,,シンセンシコウコウイタイカギユウゲンコウシ,0
2550,9700150117531,新規,0,2023-06-16,2023-06-16,Ｗｕ　Ｘｉ　Ｙｉ　Ｒｉ　Ｊｉａ　Ｍａｏ　Ｙｉ　Ｙｏｕ　Ｘｉａｎ　Ｇｏｎｇ　Ｓｉ,,外国会社等,,,,,,,,Ｒｏｏｍ　３０１－２，Ｎｏ．１８，Ｚｈｉｈｕｉ　Ｒｏａｄ，Ｈｕｉｓｈａｎ　Ｅｃｏｎｏｍｉｃ　Ｄｅｖｅｌｏｐｍｅｎｔ　Ｚｏｎｅ，Ｗｕｘｉ,,,,,,2023-06-16,1,,,,,ムシヤクイリジアトレーデイングユウゲンコウシ,0
