sequenceNumber,corporateNumber,process,correct,updateDate,changeDate,name,nameImageId,kind,prefectureName,cityName,streetNumber,addressImageId,prefectureCode,cityCode,postCode,addressOutside,addressOutsideImageId,closeDate,closeCause,successorCorporateNumber,changeCause,assignmentDate,latest,enName,enPrefectureName,enCityName,enAddressOutside,furigana,hihyoji
1,1010001059265,登記記録の閉鎖等,0,2025-12-01,2025-11-14,山根運輸株式会社,,株式会社,東京都,中央区,京橋３丁目９番４号,,13,102,1040031,,,2025-11-14,清算の結了等,,,2015-10-05,1,,,,,ヤマネウンユ,0
8,1010002027386,登記記録の閉鎖等,0,2025-12-01,2025-11-21,有限会社修文社,,有限会社,神奈川県,川崎市多摩区,登戸３１７６番地,,14,135,2140014,,,2025-11-21,清算の結了等,,,2015-10-05,1,,,,,シュウブンシャ,0
20,1010403031912,登記記録の閉鎖等,0,2025-12-01,2025-11-25,ＳＵＫＩＹＡＢＡＳＨＩ合同会社,,合同会社,東京都,江東区,豊洲５丁目６番２９－１２３０号,,13,108,1350061,,,2025-11-25,清算の結了等,,,2024-02-07,1,,,,,スキヤバシ,0
23,1010405016283,登記記録の閉鎖等,0,2025-12-01,2025-11-26,一般社団法人サイバー犯罪捜査・調査ナレッジフォーラム,,その他の設立登記法人,東京都,港区,新橋６丁目７番９号新橋アイランドビル３階,,13,103,1050004,,,2025-11-26,合併による解散等,8010405016252,令和７年１０月５日東京都江東区常盤二丁目９番３号ジェルメ神谷１階・地下１階一般社団法人日本サイバーセキュリティ・イノベーション委員会（8010405016252）に合併し解散,2017-12-05,1,,,,,サイバーハンザイソウサチョウサナレッジフォーラム,0
26,1010601033941,登記記録の閉鎖等,0,2025-12-01,2025-11-25,ハートタイム株式会社,,株式会社,東京都,墨田区,八広２丁目４８番５－２０９号,,13,107,1310041,,,2025-11-25,清算の結了等,,,2015-10-05,1,,,,,ハートタイム,0
31,1011001073280,登記記録の閉鎖等,0,2025-12-01,2025-11-26,セントラル・ヒル・ジャパン株式会社,,株式会社,大阪府,八尾市,久宝園２丁目３９番地の１,,27,212,5810817,,,2025-11-26,合併による解散等,1150001013217,令和７年１１月２０日奈良県山辺郡山添村大字切幡１２６番地の４日ポリ化工株式会社（1150001013217）に合併し解散,2015-10-05,1,,,,,セントラルヒルジャパン,0
33,1011001137465,登記記録の閉鎖等,0,2025-12-01,2025-11-27,ＤｒａｍａＢａｓｅ株式会社,,株式会社,東京都,中野区,新井１丁目１６番１４号ＣＩＣＡＤＡＮＡＫＡＮＯ２０３,,13,114,1650026,,,2025-11-27,清算の結了等,,,2020-12-16,1,,,,,ドラマベース,0
34,1011001159063,登記記録の閉鎖等,0,2025-12-01,2025-11-04,株式会社アンドクリーチャーズ,,株式会社,東京都,目黒区,下目黒１丁目１番１４号コノトラビル７Ｆ,,13,110,1530064,,,2025-11-04,清算の結了等,,,2023-12-28,1,,,,,アンドクリーチャーズ,0
42,1011101075573,登記記録の閉鎖等,0,2025-12-01,2025-11-27,ホワイトベース株式会社,,株式会社,東京都,新宿区,高田馬場３丁目２番１４号,,13,104,1690075,,,2025-11-27,清算の結了等,,,2016-01-04,1,,,,,ホワイトベース,0
57,1011701015417,登記記録の閉鎖等,0,2025-12-01,2025-10-31,株式会社クローバー・ザ・チャレンジド,,株式会社,東京都,新宿区,西新宿２丁目１番１号,,13,104,1600023,,,2025-10-31,清算の結了等,,,2015-10-05,1,,,,,クローバーザチャレンジド,0
65,1020001016265,登記記録の閉鎖等,0,2025-12-01,2025-11-21,株式会社横浜スイミングセンター,,株式会社,神奈川県,横浜市西区,高島２丁目１９番１２号,,14,103,2200011,,,2025-11-21,清算の結了等,,,2015-10-05,1,,,,,ヨコハマスイミングセンター,0
67,1020001130553,登記記録の閉鎖等,0,2025-12-01,2025-11-25,フィオンジャパン株式会社,,株式会社,神奈川県,川崎市宮前区,馬絹４丁目１７番１－１０１号,,14,136,2160035,,,2025-11-25,清算の結了等,,,2019-04-03,1,,,,,フィオンジャパン,0
94,1040001053174,登記記録の閉鎖等,0,2025-12-01,2025-11-07,株式会社原工具,,株式会社,千葉県,君津市,笹１１６７番地の１,,12,225,2920526,,,2025-11-07,清算の結了等,,,2015-10-05,1,,,,,ハラコウグ,0
95,1040001104118,登記記録の閉鎖等,0,2025-12-01,2025-11-06,株式会社山本塗装,,株式会社,千葉県,市原市,五井９７６番地５５,,12,219,2900056,,,2025-11-06,清算の結了等,,,2018-04-04,1,,,,,ヤマモトトソウ,0
104,1060001033950,登記記録の閉鎖等,0,2025-12-01,2025-11-13,株式会社よつば政策研究所,,株式会社,東京都,中央区,銀座１丁目２２番１１号,,13,102,1040061,,,2025-11-13,清算の結了等,,,2021-08-06,1,,,,,ヨツバセイサクケンキュウジョ,0
115,1100002025546,登記記録の閉鎖等,0,2025-12-01,2025-11-25,有限会社ホーテック,,有限会社,長野県,松本市,県２丁目９番１８－１号,,20,202,3900812,,,2025-11-25,清算の結了等,,,2015-10-05,1,,,,,ホーテック,0
116,1110002023945,登記記録の閉鎖等,0,2025-12-01,2025-11-26,有限会社東和商事,,有限会社,新潟県,上越市,柿崎区馬正面１１７７番地３,,15,222,9493214,,,2025-11-26,清算の結了等,,,2015-10-05,1,,,,,トウワショウジ,0
138,1130001050996,登記記録の閉鎖等,0,2025-12-01,2025-11-19,京都和光株式会社,,株式会社,京都府,京都市東山区,新門前通大和大路東入３丁目梅本町２５１番地,,26,105,6050064,,,2025-11-19,清算の結了等,,,2015-10-05,1,,,,,キョウトワコウ,0
142,1130003003184,登記記録の閉鎖等,0,2025-12-01,2025-11-19,合同会社ＣＴ＆Ｉｎｆｉｎｉｔｙ,,合同会社,大阪府,池田市,住吉２丁目１４番２０号,,27,204,5630033,,,2025-11-19,清算の結了等,,,2015-10-05,1,,,,,シーティー,0
152,1150001008811,登記記録の閉鎖等,0,2025-12-01,2025-11-28,株式会社建築設計エムズ,,株式会社,奈良県,生駒市,上町４３６８番地２,,29,209,6300131,,,2025-11-28,清算の結了等,,,2015-10-05,1,,,,,ケンチクセッケイエムズ,0
153,1180001002241,登記記録の閉鎖等,0,2025-12-01,2025-11-21,セントラルホーム株式会社,,株式会社,愛知県,名古屋市千種区,萱場２丁目１２番２８号,,23,101,4640086,,,2025-11-21,清算の結了等,,,2015-10-05,1,,,,,セントラルホーム,0
163,1180002048804,登記記録の閉鎖等,0,2025-12-01,2025-11-26,京ＤＥＳＩＧＮ株式会社,,株式会社,愛知県,名古屋市東区,東桜１丁目３番８号ヴェッセル丸杉ビル３階,,23,102,4610005,,,2025-11-26,清算の結了等,,,2015-10-05,1,,,,,ケイデザイン,0
164,1180002079089,登記記録の閉鎖等,0,2025-12-01,2025-11-26,有限会社三豊,,有限会社,愛知県,一宮市,大和町馬引字郷未申２２４１番地３,,23,203,4910931,,,2025-11-26,清算の結了等,,,2015-10-05,1,,,,,ミトヨ,0
168,1190001010094,登記記録の閉鎖等,0,2025-12-01,2025-11-27,株式会社岩井商事,,株式会社,三重県,松阪市,鎌田町２１７番地の１０,,24,204,5150005,,,2025-11-27,清算の結了等,,,2015-10-05,1,,,,,,0
170,1210001013301,登記記録の閉鎖等,0,2025-12-01,2025-11-20,株式会社マルタカ,,株式会社,福井県,鯖江市,中戸口町第１１号３４番地の１,,18,207,9161112,,,2025-11-20,清算の結了等,,,2015-10-05,1,,,,,マルタカ,0
178,1240002033832,登記記録の閉鎖等,0,2025-12-01,2025-11-21,有限会社ヒラオカ,,有限会社,広島県,呉市,広小坪１丁目３２番１２号,,34,202,7370137,,,2025-11-21,清算の結了等,,,2015-10-05,1,,,,,ヒラオカ,0
182,1260001036438,登記記録の閉鎖等,0,2025-12-01,2025-11-25,株式会社ＹＣ,,株式会社,岡山県,岡山市北区,野田３丁目１番７号,,33,101,7000971,,,2025-11-25,清算の結了等,,,2022-01-14,1,,,,,ワイシー,0
203,1330002008726,登記記録の閉鎖等,0,2025-12-01,2025-11-25,有限会社日隈コンタクトレンズ,,有限会社,熊本県,熊本市中央区,練兵町５６番地,,43,101,8600017,,,2025-11-25,清算の結了等,,,2015-10-05,1,,,,,ヒノクマコンタクトレンズ,0
214,1370001009878,登記記録の閉鎖等,0,2025-12-01,2025-11-25,東日本情報機器株式会社,,株式会社,宮城県,仙台市青葉区,一番町１丁目１２番７号,,04,101,9800811,,,2025-11-25,清算の結了等,,,2015-10-05,1,,,,,ヒガシニホンジョウホウキキ,0
223,1390001000356,登記記録の閉鎖等,0,2025-12-01,2025-11-26,株式会社オプトロン,,株式会社,山形県,山形市,久保田１丁目６番５号,,06,201,9902482,,,2025-11-26,清算の結了等,,,2015-10-05,1,,,,,オプトロン,0
226,1410001007547,登記記録の閉鎖等,0,2025-12-01,2025-11-28,株式会社ヒューマス,,株式会社,秋田県,能代市,字新山前１４６番地１４,,05,202,0160174,,,2025-11-28,清算の結了等,,,2015-10-05,1,,,,,,0
230,1420001006085,登記記録の閉鎖等,0,2025-12-01,2025-11-21,株式会社タケナカホーム,,株式会社,青森県,八戸市,江陽５丁目１４番２１号,,02,203,0310801,,,2025-11-21,清算の結了等,,,2015-10-05,1,,,,,タケナカホーム,0
232,1420001014914,登記記録の閉鎖等,0,2025-12-01,2025-11-21,株式会社丸徳ハウジング,00104069,株式会社,青森県,三沢市,南町４丁目３１番地３３５２号,,02,207,0330036,,,2025-11-21,清算の結了等,,,2015-10-05,1,,,,,,0
233,1420002018963,登記記録の閉鎖等,0,2025-12-01,2025-11-21,有限会社亀山木工,,有限会社,青森県,三沢市,淋代３丁目３９３番地２号,,02,207,0330113,,,2025-11-21,清算の結了等,,,2015-10-05,1,,,,,,0
249,2010003019638,登記記録の閉鎖等,0,2025-12-01,2025-11-14,合同会社大阪紺青,,合同会社,東京都,千代田区,丸の内１丁目４番１号東京共同会計事務所内,,13,101,1000005,,,2025-11-14,清算の結了等,,,2015-10-05,1,,,,,オオサカコンジョウ,0
299,2013401002487,登記記録の閉鎖等,0,2025-12-01,2025-11-27,ハーテック株式会社,,株式会社,東京都,多摩市,聖ヶ丘４丁目２５番地８,,13,224,2060022,,,2025-11-27,清算の結了等,,,2015-10-05,1,,,,,ハーテック,0
303,2020001096182,登記記録の閉鎖等,0,2025-12-01,2025-11-25,株式会社ドリーム,,株式会社,神奈川県,横浜市保土ケ谷区,川島町５２３番地の５,,14,106,2400045,,,2025-11-25,清算の結了等,,,2015-10-05,1,,,,,ドリーム,0
307,2020002010456,登記記録の閉鎖等,0,2025-12-01,2025-11-21,有限会社万欣商亊,,有限会社,神奈川県,横浜市磯子区,森２丁目１５番２５号,,14,107,2350023,,,2025-11-21,清算の結了等,,,2015-10-05,1,,,,,マンキンショウジ,0
308,2020002020934,登記記録の閉鎖等,0,2025-12-01,2025-11-25,有限会社金古鉄工所,,有限会社,神奈川県,横浜市旭区,本宿町７７番地の１１３,,14,112,2410023,,,2025-11-25,清算の結了等,,,2015-10-05,1,,,,,カネコテッコウショ,0
341,2040002009447,登記記録の閉鎖等,0,2025-12-01,2025-11-05,有限会社林システム不動産鑑定,,有限会社,千葉県,千葉市緑区,おゆみ野中央１丁目１６番地１サンクレイドルおゆみ野中央１００６,,12,105,2660032,,,2025-11-05,清算の結了等,,,2015-10-05,1,,,,,ハヤシシステムフドウサンカンテイ,0
344,2040002071950,登記記録の閉鎖等,0,2025-12-01,2025-11-21,有限会社コア・システムズ,,有限会社,千葉県,市原市,青柳北２丁目３番地１２,,12,219,2990101,,,2025-11-21,清算の結了等,,,2015-10-05,1,,,,,コアシステムズ,0
353,2080102005053,登記記録の閉鎖等,0,2025-12-01,2025-11-25,有限会社ＭＫインターナショナル,,有限会社,静岡県,沼津市,小諏訪４５９番地,,22,203,4100872,,,2025-11-25,清算の結了等,,,2015-10-05,1,,,,,エムケーインターナショナル,0
363,2100002030941,登記記録の閉鎖等,0,2025-12-01,2025-11-26,有限会社牛山製作所,,有限会社,長野県,岡谷市,田中町３丁目１番３４号,,20,204,3940031,,,2025-11-26,清算の結了等,,,2015-10-05,1,,,,,ウシヤマセイサクジョ,0
365,2100005011889,登記記録の閉鎖等,0,2025-12-01,2025-11-21,一般社団法人日本ソイフラワー協会,,その他の設立登記法人,長野県,岡谷市,山手町２丁目１２番２７号,,20,204,3940041,,,2025-11-21,清算の結了等,,,2016-07-04,1,,,,,ニホンソイフラワーキョウカイ,0
367,2120001027474,登記記録の閉鎖等,0,2025-12-01,2025-11-25,栄和運送株式会社,,株式会社,大阪府,大阪市中央区,難波５丁目１番６０号なんばスカイオ１８階,,27,128,5420076,,,2025-11-25,清算の結了等,,,2015-10-05,1,,,,,エイワウンソウ,0
390,2120901019397,登記記録の閉鎖等,0,2025-12-01,2025-11-26,池田エルピーガス株式会社,,株式会社,大阪府,池田市,豊島南２丁目１０番１５号,,27,204,5630035,,,2025-11-26,合併による解散等,5140001077993,令和７年１０月１日兵庫県伊丹市中央五丁目５番１０号伊丹産業株式会社（5140001077993）に合併し解散,2015-10-05,1,,,,,,0
399,2130003008810,登記記録の閉鎖等,0,2025-12-01,2025-11-26,エスプロエ合同会社,,合同会社,京都府,長岡京市,長岡１丁目２０－２,,26,209,6170823,,,2025-11-26,清算の結了等,,,2023-06-29,1,,,,,エスプロエ,0
405,2170002004906,登記記録の閉鎖等,0,2025-12-01,2025-11-28,有限会社バーニング,,有限会社,和歌山県,和歌山市,美園町２丁目１０番地ラブリービルけやき,,30,201,6408331,,,2025-11-28,清算の結了等,,,2015-10-05,1,,,,,バーニング,0
423,2190002011363,登記記録の閉鎖等,0,2025-12-01,2025-11-25,光洋真珠有限会社,,有限会社,三重県,志摩市,志摩町和具４１４５番地１７,,24,215,5170703,,,2025-11-25,清算の結了等,,,2015-10-05,1,,,,,コウヨウシンジュ,0
427,2200002002988,登記記録の閉鎖等,0,2025-12-01,2025-11-28,株式会社ＦＯＲＴ,,株式会社,岐阜県,岐阜市,鷺山１２５４番地１６,,21,201,5020851,,,2025-11-28,清算の結了等,,,2015-10-05,1,,,,,フォート,0
430,2230002013330,登記記録の閉鎖等,0,2025-12-01,2025-11-26,有限会社ひと工夫,,有限会社,富山県,高岡市,角４２９番地２,,16,202,9330007,,,2025-11-26,清算の結了等,,,2015-10-05,1,,,,,ヒトクフウ,0
440,2280002008887,登記記録の閉鎖等,0,2025-12-01,2025-11-21,有限会社サングリーン開発,,有限会社,島根県,浜田市,旭町丸原７０番地１,,32,202,6970426,,,2025-11-21,清算の結了等,,,2015-10-05,1,,,,,サングリーンカイハツ,0
442,2290001063908,登記記録の閉鎖等,0,2025-12-01,2025-11-18,株式会社Ｒｅｌｉａｎｃｅ,,株式会社,福岡県,福岡市中央区,渡辺通２丁目９番２０号,,40,133,8100004,,,2025-11-18,清算の結了等,,,2015-10-05,1,,,,,リライアンス,0
460,2290003015683,登記記録の閉鎖等,0,2025-12-01,2025-11-18,合同会社Ｒｏｃｋ,,合同会社,福岡県,福岡市中央区,渡辺通２丁目９－２０,,40,133,8100004,,,2025-11-18,清算の結了等,,,2024-08-22,1,,,,,ロック,0
501,3010001233875,登記記録の閉鎖等,0,2025-12-01,2025-11-17,株式会社ユニック・テクノロジーズ,,株式会社,東京都,千代田区,鍛冶町２丁目４番７号,,13,101,1010044,,,2025-11-17,清算の結了等,,,2023-03-27,1,,,,,ユニックテクノロジーズ,0
513,3010401059796,登記記録の閉鎖等,0,2025-12-01,2025-11-04,株式会社喜田寛総合研究所,,株式会社,東京都,港区,高輪２丁目１５番２４号,,13,103,1080074,,,2025-11-04,清算の結了等,,,2015-10-05,1,,,,,キダヒロシソウゴウケンキュウショ,0
557,3011103013273,登記記録の閉鎖等,0,2025-12-01,2025-10-30,合同会社ジェイ・イー・エル,,合同会社,東京都,新宿区,下宮比町１番４号,,13,104,1620822,,,2025-10-30,清算の結了等,,,2023-07-20,1,,,,,ジェイイーエル,0
574,3011301012424,登記記録の閉鎖等,0,2025-12-01,2025-11-21,アジアウィング株式会社,,株式会社,東京都,杉並区,南荻窪１丁目２１番５号,,13,115,1670052,,,2025-11-21,清算の結了等,,,2015-10-05,1,,,,,アジアウィング,0
584,3012802006872,登記記録の閉鎖等,0,2025-12-01,2025-11-27,有限会社クラウニング・シーズ,,有限会社,東京都,昭島市,昭和町５丁目２番１２号,,13,207,1960015,,,2025-11-27,清算の結了等,,,2015-10-05,1,,,,,クラウニングシーズ,0
597,3020002018325,登記記録の閉鎖等,0,2025-12-01,2025-11-21,有限会社尾崎工作所,,有限会社,神奈川県,横浜市港南区,下永谷５丁目８０番３０号,,14,111,2330016,,,2025-11-21,清算の結了等,,,2015-10-05,1,,,,,オザキコウサクショ,0
600,3020003008259,登記記録の閉鎖等,0,2025-12-01,2025-11-21,合同会社一藤,,合同会社,神奈川県,横浜市戸塚区,上矢部町１６３９番地７,,14,110,2450053,,,2025-11-21,清算の結了等,,,2015-10-05,1,,,,,イチフジ,0
622,3040001077709,登記記録の閉鎖等,0,2025-12-01,2025-11-06,株式会社レイコーポレーション,,株式会社,千葉県,柏市,末広町６番４号,,12,217,2770842,,,2025-11-06,清算の結了等,,,2015-10-05,1,,,,,レイコーポレーション,0
624,3040002041093,登記記録の閉鎖等,0,2025-12-01,2025-11-05,有限会社関越興産,,有限会社,千葉県,浦安市,富士見５丁目１７番１５号,,12,227,2790043,,,2025-11-05,清算の結了等,,,2015-10-05,1,,,,,カンエツコウサン,0
633,3050002009445,登記記録の閉鎖等,0,2025-12-01,2025-11-25,有限会社きらら,,有限会社,茨城県,水戸市,見和３丁目１４８５番地の５サーパス見和ＩＩ番館６０５号,00104992,08,201,3100911,,,2025-11-25,清算の結了等,,,2015-10-05,1,,,,,キララ,0
638,3080102016883,登記記録の閉鎖等,0,2025-12-01,2025-11-26,有限会社総合設備欣築,,有限会社,静岡県,富士宮市,北山１２３４番地の３,,22,207,4180112,,,2025-11-26,清算の結了等,,,2015-10-05,1,,,,,ソウゴウセツビキンチク,0
639,3080102020035,登記記録の閉鎖等,0,2025-12-01,2025-11-25,有限会社鈴茂電気,,有限会社,静岡県,伊東市,川奈１２３１番地の１２２,,22,208,4140044,,,2025-11-25,清算の結了等,,,2015-10-05,1,,,,,スズモデンキ,0
640,3080103001595,登記記録の閉鎖等,0,2025-12-01,2025-11-14,合同会社さくら,,合同会社,静岡県,賀茂郡南伊豆町,入間２７６番地,,22,304,4150312,,,2025-11-14,清算の結了等,,,2016-09-30,1,,,,,サクラ,0
641,3080401027367,登記記録の閉鎖等,0,2025-12-01,2025-11-20,株式会社石山商店,,株式会社,静岡県,浜松市浜名区,平口５２４７番地,,22,139,4340041,,,2025-11-20,清算の結了等,,,2024-08-05,1,,,,,イシヤマショウテン,0
645,3110001035865,登記記録の閉鎖等,0,2025-12-01,2025-11-27,アシスト株式会社,,株式会社,新潟県,佐渡市,河原田諏訪町１２６番地１,,15,224,9521315,,,2025-11-27,清算の結了等,,,2021-06-18,1,,,,,アシスト,0
649,3120001212496,登記記録の閉鎖等,0,2025-12-01,2025-11-25,株式会社ＩＭＡＤＡ　ＦＡＣＴＯＲＹ,,株式会社,大阪府,堺市堺区,南花田口町１丁３番６号照和ビル１階,,27,141,5900075,,,2025-11-25,清算の結了等,,,2018-04-06,1,,,,,イマダファクトリー,0
657,3120005009609,登記記録の閉鎖等,0,2025-12-01,2025-11-26,特定非営利活動法人関西動物友の会,,その他の設立登記法人,大阪府,大阪市港区,磯路３丁目１９番９号,,27,107,5520003,,,2025-11-26,清算の結了等,,,2015-10-05,1,,,,,カンサイドウブツトモノカイ,0
658,3120101022969,登記記録の閉鎖等,0,2025-12-01,2025-11-25,サカヱ金属工業株式会社,,株式会社,大阪府,堺市堺区,高砂町１丁２０番地,,27,141,5900820,,,2025-11-25,清算の結了等,,,2015-10-05,1,,,,,サカエキンゾクコオウギョウ,0
662,3120102015666,登記記録の閉鎖等,0,2025-12-01,2025-11-21,有限会社幻想配給社,,有限会社,大阪府,松原市,一津屋５丁目１０番１４号,,27,217,5800003,,,2025-11-21,清算の結了等,,,2015-10-05,1,,,,,ゲンソウハイキュウシャ,0
690,3180001138050,登記記録の閉鎖等,0,2025-12-01,2025-11-27,株式会社ＬＩＴＴ　ＵＰ,,株式会社,東京都,中野区,東中野５丁目１１番８号Ｂ１,,13,114,1640003,,,2025-11-27,清算の結了等,,,2019-09-10,1,,,,,リットアップ,0
694,3180002073429,登記記録の閉鎖等,0,2025-12-01,2025-11-26,有限会社ハートアンドケア,,有限会社,愛知県,尾張旭市,根の鼻町１丁目２番地の７,,23,226,4880002,,,2025-11-26,清算の結了等,,,2015-10-05,1,,,,,ハートアンドケア,0
698,3200002022218,登記記録の閉鎖等,0,2025-12-01,2025-11-26,有限会社山繁製型所,,有限会社,岐阜県,瑞浪市,陶町猿爪４１６番地の１,,21,208,5096361,,,2025-11-26,清算の結了等,,,2015-10-05,1,,,,,ヤマシゲセイケイショ,0
701,3220001024056,登記記録の閉鎖等,0,2025-12-01,2025-11-27,株式会社ラピス・ビリーブ,,株式会社,石川県,金沢市,八日市１丁目６６７番地ラビアン１０１,,17,201,9218064,,,2025-11-27,清算の結了等,,,2021-03-30,1,,,,,,0
705,3220002010179,登記記録の閉鎖等,0,2025-12-01,2025-11-25,粟津観光有限会社金閣,,有限会社,石川県,小松市,井口町ヘ１４番地１,,17,203,9230316,,,2025-11-25,清算の結了等,,,2015-10-05,1,,,,,,0
706,3230001015946,登記記録の閉鎖等,0,2025-12-01,2025-11-21,株式会社ＦＤＣ,,株式会社,富山県,南砺市,三清東１番地,,16,210,9320258,,,2025-11-21,合併による解散等,6230001013674,令和７年１１月２１日富山県南砺市池尻２０２番地１株式会社フジイ電装（6230001013674）に合併し解散,2015-10-05,1,,,,,エフディシィ,0
710,3230005007188,登記記録の閉鎖等,0,2025-12-01,2025-11-25,特定非営利活動法人ニューグレープの会,,その他の設立登記法人,富山県,高岡市,袋町４番１号,,16,202,9330910,,,2025-11-25,清算の結了等,,,2015-10-05,1,,,,,ニューグレープノカイ,0
720,3290001066876,登記記録の閉鎖等,0,2025-12-01,2025-11-14,オープンシステムズホールディングス株式会社,,株式会社,福岡県,福岡市中央区,舞鶴１丁目３番１６号,,40,133,8100073,,,2025-11-14,清算の結了等,,,2015-10-05,1,,,,,オープンシステムズホールディングス,0
724,3290003009305,登記記録の閉鎖等,0,2025-12-01,2025-11-06,合同会社リンクロッド,,合同会社,千葉県,千葉市若葉区,若松町９７７番地１１９,,12,104,2640021,,,2025-11-06,清算の結了等,,,2019-08-28,1,,,,,リンクロッド,0
725,3290003015609,登記記録の閉鎖等,0,2025-12-01,2025-11-18,合同会社Ｈｏｐｅ,,合同会社,福岡県,福岡市中央区,天神５丁目６番１４号４階,,40,133,8100001,,,2025-11-18,清算の結了等,,,2024-08-09,1,,,,,ホープ,0
741,3330005009117,登記記録の閉鎖等,0,2025-12-01,2025-11-27,一般財団法人未来会,,その他の設立登記法人,熊本県,熊本市中央区,帯山５丁目４０番１２号,,43,101,8620924,,,2025-11-27,清算の結了等,,,2015-10-05,1,,,,,ミライカイ,0
744,3350001010828,登記記録の閉鎖等,0,2025-12-01,2025-11-26,株式会社なな葉宮下ファーム,,株式会社,宮崎県,宮崎市,末広１丁目２番３号,,45,201,8800012,,,2025-11-26,合併による解散等,4180001130320,令和７年１１月１５日神戸市中央区御幸通八丁目１番６号株式会社ＧＥホールディングス（4180001130320）に合併し解散,2015-10-05,1,,,,,ナナハミヤシタファーム,0
757,3380005006175,登記記録の閉鎖等,0,2025-12-01,2025-11-19,神習教親睦講社,,その他の設立登記法人,福島県,いわき市,内郷宮町宮澤４８番地,,07,204,9738407,,,2025-11-19,清算の結了等,,,2015-10-05,1,,,,,,0
761,3450001001783,登記記録の閉鎖等,0,2025-12-01,2025-11-25,大雪サービス株式会社,,株式会社,北海道,上川郡上川町,本町２０１番地,,01,457,0781751,,,2025-11-25,清算の結了等,,,2015-10-05,1,,,,,タイセツサービス,0
762,3462502000916,登記記録の閉鎖等,0,2025-12-01,2025-11-26,有限会社ボーイミーツガール,,有限会社,北海道,標津郡中標津町,西七条北２丁目１番地５,,01,692,0861127,,,2025-11-26,清算の結了等,,,2015-10-05,1,,,,,ボーイミーツガール,0
777,4010401099081,登記記録の閉鎖等,0,2025-12-01,2025-11-27,株式会社ケアフィット・ネットワーク,,株式会社,東京都,新宿区,高田馬場４丁目２９番４号,,13,104,1690075,,,2025-11-27,清算の結了等,,,2015-10-05,1,,,,,ケアフィットネットワーク,0
780,4010401137956,登記記録の閉鎖等,0,2025-12-01,2025-11-04,岩田事務所株式会社,,株式会社,東京都,港区,六本木７丁目７番７号,,13,103,1060032,,,2025-11-04,清算の結了等,,,2018-04-24,1,,,,,イワタジムショ,0
788,4010403017710,登記記録の閉鎖等,0,2025-12-01,2025-11-04,奈良合同会社,,合同会社,東京都,港区,西新橋１丁目１番１号ＥＰコンサルティングサービス内,,13,103,1050003,,,2025-11-04,清算の結了等,,,2017-11-30,1,,,,,ナラ,0
792,4010601005319,登記記録の閉鎖等,0,2025-12-01,2025-11-21,株式会社ナカイチ,,株式会社,東京都,江東区,大島７丁目１番１２号,,13,108,1360072,,,2025-11-21,清算の結了等,,,2015-10-05,1,,,,,ナカイチ,0
823,4020001129262,登記記録の閉鎖等,0,2025-12-01,2025-11-25,株式会社映日果,,株式会社,神奈川県,川崎市幸区,東小倉２２番２１号,,14,132,2120033,,,2025-11-25,清算の結了等,,,2018-12-25,1,,,,,イチジク,0
831,4020002066182,登記記録の閉鎖等,0,2025-12-01,2025-11-21,有限会社平家ビルディング,,有限会社,神奈川県,横浜市鶴見区,東寺尾中台２３番１６号,,14,101,2300017,,,2025-11-21,清算の結了等,,,2015-10-05,1,,,,,ヘイケビルディング,0
849,4040001085751,登記記録の閉鎖等,0,2025-12-01,2025-11-06,松貴商事株式会社,,株式会社,千葉県,木更津市,文京３丁目１番９号,,12,206,2920804,,,2025-11-06,清算の結了等,,,2015-10-05,1,,,,,マツキショウジ,0
859,4040002024262,登記記録の閉鎖等,0,2025-12-01,2025-11-04,有限会社ナフコ,,有限会社,千葉県,船橋市,二和東６丁目４２番１号,,12,204,2740805,,,2025-11-04,清算の結了等,,,2015-10-05,1,,,,,ナフコ,0
860,4040002066783,登記記録の閉鎖等,0,2025-12-01,2025-11-04,有限会社白川,,有限会社,千葉県,木更津市,大久保４丁目１８番３号,,12,206,2920815,,,2025-11-04,清算の結了等,,,2015-10-05,1,,,,,シラカワ,0
873,4060001033139,登記記録の閉鎖等,0,2025-12-01,2025-11-06,株式会社ＪＶＰＳ,,株式会社,千葉県,野田市,山崎１８６９番地の６,,12,208,2780022,,,2025-11-06,清算の結了等,,,2020-11-19,1,,,,,ジェイブイピーエス,0
884,4100001036384,登記記録の閉鎖等,0,2025-12-01,2025-11-25,株式会社Ｐａｓｓ　Ｆｉｎｄｅｒ,,株式会社,長野県,長野市,大字南長野西後町６１０－１２Ｒ－Ｄｅｐｏｔ３階Ｎ－西,,20,201,3800845,,,2025-11-25,清算の結了等,,,2023-05-08,1,,,,,パスファインダー,0
896,4120003012852,登記記録の閉鎖等,0,2025-12-01,2025-11-25,合同会社Ｅ．Ｌ．Ｃスクール,,合同会社,大阪府,大阪市東淀川区,東中島１丁目１９番４号新大阪ＮＬＣビル,,27,114,5330033,,,2025-11-25,合併による解散等,9120001127648,令和７年１０月１日東京都港区三田一丁目３番３１号ＦＯＲＥＣＡＳＴ三田株式会社ＡＷＡＲＥＮＥＳＳ（9120001127648）に合併し解散,2017-05-29,1,,,,,イーエルシースクール,0
912,4150005003616,登記記録の閉鎖等,0,2025-12-01,2025-11-26,医療法人松山医院,,その他の設立登記法人,奈良県,天理市,柳本町１９６番地１,,29,204,6320052,,,2025-11-26,清算の結了等,,,2015-10-05,1,,,,,マツヤマイイン,0
916,4180001000052,登記記録の閉鎖等,0,2025-12-01,2025-11-25,株式会社アキラ工業所,,株式会社,愛知県,名古屋市守山区,菱池町２２番５号,,23,113,4630045,,,2025-11-25,清算の結了等,,,2015-10-05,1,,,,,アキラコウギョウショ,0
924,4180001106394,登記記録の閉鎖等,0,2025-12-01,2025-11-25,株式会社ＢＩトレード,,株式会社,愛知県,名古屋市中区,丸の内３丁目１７番６号ナカトウ丸の内ビル３階Ｇ,,23,106,4600002,,,2025-11-25,清算の結了等,,,2015-10-05,1,,,,,ビーアイトレード,0
938,4190001026245,登記記録の閉鎖等,0,2025-12-01,2025-11-27,株式会社Ｆａｌｃｏｎ　Ｔｒａｄｉｎｇ　Ｃｏｒｐｏｒａｔｉｏｎ,,株式会社,三重県,津市,一身田平野６０８番地１７,,24,201,5140111,,,2025-11-27,清算の結了等,,,2019-03-07,1,,,,,ファルコントレーディングコーポレーション,0
954,4250001010176,登記記録の閉鎖等,0,2025-12-01,2025-11-25,株式会社かな久旅館,,株式会社,山口県,光市,室積５丁目２０番１０号,,35,210,7430007,,,2025-11-25,清算の結了等,,,2015-10-05,1,,,,,カナキュウリョカン,0
962,4260002007187,登記記録の閉鎖等,0,2025-12-01,2025-11-26,有限会社長沢建築設計事務所,,有限会社,岡山県,岡山市中区,国府市場２４２番地の１１,,33,102,7038203,,,2025-11-26,清算の結了等,,,2015-10-05,1,,,,,ナガサワケンチクセッケイジムショ,0
963,4260002010983,登記記録の閉鎖等,0,2025-12-01,2025-11-26,有限会社ロイヤル，ビルメンテナンスカンパニー,,有限会社,岡山県,岡山市中区,雄町４６２番地３,,33,102,7038204,,,2025-11-26,清算の結了等,,,2015-10-05,1,,,,,ロイヤルビルメンテナンスカンパニー,0
973,4290003015608,登記記録の閉鎖等,0,2025-12-01,2025-11-18,合同会社Ｗｏｏｄ,,合同会社,福岡県,福岡市中央区,天神５丁目６番１４号１階,,40,133,8100001,,,2025-11-18,清算の結了等,,,2024-08-09,1,,,,,ウッド,0
983,4370002014610,登記記録の閉鎖等,0,2025-12-01,2025-11-21,有限会社山仁,,有限会社,宮城県,仙台市青葉区,双葉ケ丘１丁目３２番２１号,,04,101,9810924,,,2025-11-21,清算の結了等,,,2015-10-05,1,,,,,,0
985,4380002018643,登記記録の閉鎖等,0,2025-12-01,2025-11-25,有限会社ローソン白河インター店,,有限会社,福島県,白河市,白坂石阿弥陀３３番地１７,,07,205,9610835,,,2025-11-25,清算の結了等,,,2015-10-05,1,,,,,ローソンシラカワインターテン,0
989,4420001010662,登記記録の閉鎖等,0,2025-12-01,2025-11-21,弘果コスモ保険サービス株式会社,,株式会社,青森県,弘前市,大字末広１丁目２番地１,,02,202,0368085,,,2025-11-21,清算の結了等,,,2015-10-05,1,,,,,ヒロカコスモホケンサービス,0
997,4470001009857,登記記録の閉鎖等,0,2025-12-01,2025-11-18,香川飼糧株式会社,,株式会社,香川県,観音寺市,茂木町３丁目４番２０号,,37,205,7680069,,,2025-11-18,清算の結了等,,,2015-10-05,1,,,,,,0
998,4470002019129,登記記録の閉鎖等,0,2025-12-01,2025-11-27,森上電気工事有限会社,,有限会社,香川県,小豆郡土庄町,上庄１９０２番地３,,37,322,7614122,,,2025-11-27,清算の結了等,,,2015-10-05,1,,,,,モリガミデンキコウジ,0
1016,5010401118014,登記記録の閉鎖等,0,2025-12-01,2025-11-04,ＴＭＡＪ株式会社,,株式会社,東京都,港区,虎ノ門４丁目３番２０号神谷町ＭＴビル１４Ｆ,,13,103,1050001,,,2025-11-04,清算の結了等,,,2015-10-05,1,,,,,ティーエムエージェー,0
1022,5010403032592,登記記録の閉鎖等,0,2025-12-01,2025-11-06,合同会社ＳＴＡＲ　ｏｆ　ＳＯＵＬ,,合同会社,東京都,港区,南青山２丁目２番１５号ｗｉｎ青山ビル,,13,103,1070062,,,2025-11-06,清算の結了等,,,2024-05-10,1,,,,,スターオブソウル,0
1024,5010405016874,登記記録の閉鎖等,0,2025-12-01,2025-11-05,一般社団法人日本遺贈ソリューションズ,,その他の設立登記法人,東京都,港区,芝５丁目３１番１９号,,13,103,1080014,,,2025-11-05,清算の結了等,,,2018-07-12,1,,,,,ニホンイゾウソリューションズ,0
1026,5010405018466,登記記録の閉鎖等,0,2025-12-01,2025-11-05,一般社団法人Ｍｅｕｌａｎ,,その他の設立登記法人,東京都,港区,虎ノ門５丁目１番４号,,13,103,1050001,,,2025-11-05,清算の結了等,,,2020-01-31,1,,,,,ムラン,0
1028,5010501054464,登記記録の閉鎖等,0,2025-12-01,2025-11-27,株式会社Ｍフロー,,株式会社,東京都,台東区,雷門２丁目１７番２号ＮＥＷＮＯ浅草５階,,13,106,1110034,,,2025-11-27,合併による解散等,3010001022865,令和７年１１月１２日東京都千代田区一番町２１番地株式会社アイティフォー（3010001022865）に合併し解散,2025-07-28,1,,,,,エムフロー,0
1031,5010601042922,登記記録の閉鎖等,0,2025-12-01,2025-11-26,株式会社エスディーシー,,株式会社,東京都,荒川区,東日暮里２丁目４９番２号,,13,118,1160014,,,2025-11-26,清算の結了等,,,2015-10-05,1,,,,,エスディーシー,0
1050,5011003012539,登記記録の閉鎖等,0,2025-12-01,2025-11-20,ＢＥＹＯＮＤ　ＬＩＭＩＴＳ合同会社,,合同会社,東京都,渋谷区,恵比寿４丁目２０番３号恵比寿ガーデンプレイスタワー１８階,,13,113,1500013,,,2025-11-20,清算の結了等,,,2021-04-06,1,,,,,ビヨンドリミッツ,0
1052,5011101051216,登記記録の閉鎖等,0,2025-12-01,2025-11-27,株式会社プログレス,,株式会社,東京都,新宿区,西新宿７丁目５番９号,,13,104,1600023,,,2025-11-27,清算の結了等,,,2015-10-05,1,,,,,プログレス,0
1055,5011103005211,登記記録の閉鎖等,0,2025-12-01,2025-11-27,合同会社Ｅ－ＬＩＦＥ,,合同会社,東京都,新宿区,西新宿３丁目５番３号,,13,104,1600023,,,2025-11-27,清算の結了等,,,2015-10-05,1,,,,,,0
1068,5012401019828,登記記録の閉鎖等,0,2025-12-01,2025-11-25,フードクオリティーロジスティクス株式会社,,株式会社,東京都,調布市,調布ケ丘３丁目５０番地１,,13,208,1820021,,,2025-11-25,合併による解散等,7012401007541,令和７年１１月２１日東京都調布市調布ケ丘三丁目５０番地１株式会社キユーソー流通システム（7012401007541）に合併し解散,2015-10-05,1,,,,,フードクオリティーロジスティクス,0
1084,5020002091221,登記記録の閉鎖等,0,2025-12-01,2025-11-27,有限会社有原ミート,,有限会社,神奈川県,川崎市多摩区,中野島５丁目１番１－３０４号,,14,135,2140012,,,2025-11-27,清算の結了等,,,2015-10-05,1,,,,,,0
1091,5021002022307,登記記録の閉鎖等,0,2025-12-01,2025-11-10,有限会社千歳工業,,有限会社,神奈川県,相模原市中央区,横山台１丁目４４番２号,,14,152,2520241,,,2025-11-10,清算の結了等,,,2015-10-05,1,,,,,チトセコウギョウ,0
1100,5030001141224,登記記録の閉鎖等,0,2025-12-01,2025-11-25,ワングレイン株式会社,,株式会社,埼玉県,秩父郡小鹿野町,小鹿野２０２２番地,,11,365,3680105,,,2025-11-25,清算の結了等,,,2021-03-19,1,,,,,ワングレイン,0
1122,5080102003979,登記記録の閉鎖等,0,2025-12-01,2025-11-25,有限会社ベクトル電子,,有限会社,静岡県,沼津市,東間門２丁目１番地の１,,22,203,4100865,,,2025-11-25,清算の結了等,,,2015-10-05,1,,,,,ベクトルデンシ,0
1127,5110002031738,登記記録の閉鎖等,0,2025-12-01,2025-11-21,有限会社とんかつたまき,,有限会社,新潟県,見附市,学校町１丁目６番３７号,,15,211,9540052,,,2025-11-21,清算の結了等,,,2015-10-05,1,,,,,トンカツタマキ,0
1128,5110005016703,登記記録の閉鎖等,0,2025-12-01,2025-11-26,一般社団法人プラスメディカ,,その他の設立登記法人,新潟県,新潟市中央区,上所中１丁目７番１９号北村ビル２Ｆ,,15,103,9500993,,,2025-11-26,清算の結了等,,,2021-08-31,1,,,,,プラスメディカ,0
1148,5120101042098,登記記録の閉鎖等,0,2025-12-01,2025-11-20,浅野毛織株式会社,,株式会社,大阪府,泉大津市,春日町８番２２号,,27,206,5950061,,,2025-11-20,清算の結了等,,,2015-10-05,1,,,,,アサノケオリ,0
1151,5120901037330,登記記録の閉鎖等,0,2025-12-01,2025-11-17,株式会社アートリョウ,,株式会社,大阪府,吹田市,原町１丁目３８番１７号,,27,205,5640004,,,2025-11-17,清算の結了等,,,2016-08-15,1,,,,,アートリョウ,0
1165,5140002036296,登記記録の閉鎖等,0,2025-12-01,2025-11-27,有限会社ニシオ,,有限会社,兵庫県,加古川市,尾上町旭１丁目４８番地の２２,,28,210,6750026,,,2025-11-27,清算の結了等,,,2015-10-05,1,,,,,ニシオ,0
1181,5180001035262,登記記録の閉鎖等,0,2025-12-01,2025-11-21,神谷茂株式会社,,株式会社,愛知県,名古屋市千種区,南明町２丁目４８番地の２,,23,101,4640845,,,2025-11-21,清算の結了等,,,2015-10-05,1,,,,,カミヤシゲ,0
1204,5190002019552,登記記録の閉鎖等,0,2025-12-01,2025-11-27,有限会社オートワタナベ,,有限会社,三重県,四日市市,伊坂町１６５２番地６,,24,202,5128064,,,2025-11-27,清算の結了等,,,2015-10-05,1,,,,,オートワタナベ,0
1207,5210001008421,登記記録の閉鎖等,0,2025-12-01,2025-11-25,株式会社イトー企画,,株式会社,福井県,坂井市,丸岡町南横地第２号２８番地８,,18,210,9100375,,,2025-11-25,清算の結了等,,,2015-10-05,1,,,,,イトーキカク,0
1216,5260001023647,登記記録の閉鎖等,0,2025-12-01,2025-11-26,株式会社ｇｌａｎｃｅ,,株式会社,岡山県,岡山市北区,錦町３番４号,,33,101,7000902,,,2025-11-26,清算の結了等,,,2015-10-05,1,,,,,グランス,0
1224,5290003015607,登記記録の閉鎖等,0,2025-12-01,2025-11-18,合同会社Ｏｌｉｖｅ,,合同会社,福岡県,福岡市中央区,天神５丁目６番１４号２階,,40,133,8100001,,,2025-11-18,清算の結了等,,,2024-08-09,1,,,,,オリーブ,0
1229,5310003004813,登記記録の閉鎖等,0,2025-12-01,2025-11-28,合同会社ｇｏｓｙｏｎｎａ,,合同会社,長崎県,西彼杵郡時津町,左底郷７６７－１１,,42,308,8512106,,,2025-11-28,清算の結了等,,,2024-07-03,1,,,,,ゴションナ,0
1230,5320001011728,登記記録の閉鎖等,0,2025-12-01,2025-11-04,株式会社セイアートギャラリー,,株式会社,千葉県,白井市,西白井１丁目８番７号,,12,232,2701408,,,2025-11-04,清算の結了等,,,2015-10-05,1,,,,,セイアートギャラリー,0
1238,5340002010487,登記記録の閉鎖等,0,2025-12-01,2025-11-17,有限会社ロータス,,有限会社,鹿児島県,鹿児島市,田上３丁目２１番２１号,,46,201,8900034,,,2025-11-17,清算の結了等,,,2015-10-05,1,,,,,ロータス,0
1255,5420002013291,登記記録の閉鎖等,0,2025-12-01,2025-11-21,有限会社佐々木工務所,,有限会社,青森県,弘前市,大字独狐字山辺８３番地２号,,02,202,0368381,,,2025-11-21,清算の結了等,,,2015-10-05,1,,,,,ササキコウムショ,0
1262,6010001009975,登記記録の閉鎖等,0,2025-12-01,2025-11-21,株式会社アートマン,,株式会社,神奈川県,横浜市青葉区,あざみ野南３丁目１３番地６,,14,117,2250012,,,2025-11-21,清算の結了等,,,2015-10-05,1,,,,,アートマン,0
1264,6010001157519,登記記録の閉鎖等,0,2025-12-01,2025-11-04,シンプレスジャパン株式会社,,株式会社,東京都,港区,西麻布１丁目４番４０号西麻布ＳＨＩＮＯビル４階,,13,103,1060031,,,2025-11-04,清算の結了等,,,2015-10-05,1,,,,,シンプレスジャパン,0
1276,6010401141023,登記記録の閉鎖等,0,2025-12-01,2025-11-04,ＴＫ株式会社,,株式会社,東京都,港区,芝３丁目２５番２号黒田芝ビル３１３号室,,13,103,1050014,,,2025-11-04,清算の結了等,,,2018-09-27,1,,,,,ティーケー,0
1293,6010601036460,登記記録の閉鎖等,0,2025-12-01,2025-11-20,株式会社パドゥ,,株式会社,東京都,墨田区,文花１丁目３２番２－１００４号,,13,107,1310044,,,2025-11-20,清算の結了等,,,2015-10-05,1,,,,,パドゥ,0
1295,6010601051781,登記記録の閉鎖等,0,2025-12-01,2025-11-25,晨光株式会社,,株式会社,大阪府,大阪市中央区,材木町１－６第１２新興ビル９０２室,,27,128,5400010,,,2025-11-25,清算の結了等,,,2017-06-23,1,,,,,シンコウ,0
1313,6011101054762,登記記録の閉鎖等,0,2025-12-01,2025-11-05,株式会社山行,,株式会社,東京都,新宿区,愛住町１４番地１,,13,104,1600005,,,2025-11-05,清算の結了等,,,2015-10-05,1,,,,,サンコウ,0
1322,6011205000407,登記記録の閉鎖等,0,2025-12-01,2025-11-27,特定非営利活動法人ヘルパーコール,,その他の設立登記法人,東京都,中野区,江原町３丁目３９番８号,,13,114,1650023,,,2025-11-27,清算の結了等,,,2015-10-05,1,,,,,ヘルパーコール,0
1325,6011801005908,登記記録の閉鎖等,0,2025-12-01,2025-11-25,五十嵐製靴株式会社,,株式会社,東京都,足立区,興野２丁目１７番１号,,13,121,1230844,,,2025-11-25,清算の結了等,,,2015-10-05,1,,,,,イガラシセイカ,0
1327,6011802004586,登記記録の閉鎖等,0,2025-12-01,2025-11-25,有限会社大徳製作所,,有限会社,東京都,葛飾区,東四つ木３丁目３５番１５号,,13,122,1240014,,,2025-11-25,清算の結了等,,,2015-10-05,1,,,,,ダイトクセイサクジョ,0
1340,6020002029352,登記記録の閉鎖等,0,2025-12-01,2025-11-25,有限会社大野屋洋品店,,有限会社,神奈川県,横浜市南区,弘明寺町１３３番地,,14,105,2320067,,,2025-11-25,清算の結了等,,,2015-10-05,1,,,,,オオノヤヨウヒンテン,0
1341,6020003019170,登記記録の閉鎖等,0,2025-12-01,2025-11-25,エソロ合同会社,,合同会社,神奈川県,横浜市中区,桜木町１丁目１０１番地１クロスゲート７Ｆ,,14,104,2310062,,,2025-11-25,清算の結了等,,,2021-01-28,1,,,,,エソロ,0
1344,6030001004157,登記記録の閉鎖等,0,2025-12-01,2025-11-21,ジー・ワイ・エス株式会社,,株式会社,埼玉県,さいたま市北区,日進町３丁目２６９番地の１,,11,102,3310823,,,2025-11-21,清算の結了等,,,2015-10-05,1,,,,,ジーワイエス,0
1358,6040001093273,登記記録の閉鎖等,0,2025-12-01,2025-11-06,株式会社ＪＶＫＭ,,株式会社,千葉県,野田市,山崎１８６９番地の６,,12,208,2780022,,,2025-11-06,清算の結了等,,,2015-12-17,1,,,,,ジェイブイケイエム,0
1371,6070002028424,登記記録の閉鎖等,0,2025-12-01,2025-11-25,有限会社大塚製作所,00025818,有限会社,群馬県,邑楽郡邑楽町,大字中野５１４７番地の２,,10,525,3700603,,,2025-11-25,清算の結了等,,,2015-10-05,1,,,,,オオツカセイサクジョ,0
1372,6080005000123,登記記録の閉鎖等,0,2025-12-01,2025-11-25,赤杉精神修養道場,,その他の設立登記法人,静岡県,静岡市葵区,沓谷５丁目８３２番地,,22,101,4200816,,,2025-11-25,清算の結了等,,,2015-10-05,1,,,,,アカスギセイシンシュウヨウドウジョウ,0
1375,6110001017150,登記記録の閉鎖等,0,2025-12-01,2025-11-27,株式会社内山鉄工所,,株式会社,新潟県,柏崎市,城塚１番１３号,,15,205,9451343,,,2025-11-27,清算の結了等,,,2015-10-05,1,,,,,ウチヤマテッコウショ,0
1381,6120001002069,登記記録の閉鎖等,0,2025-12-01,2025-11-27,大栄紙工株式会社,,株式会社,大阪府,大阪市鶴見区,今津北１丁目４番２１号,,27,124,5380041,,,2025-11-27,清算の結了等,,,2015-10-05,1,,,,,ダイエイシコウ,0
1396,6120002020755,登記記録の閉鎖等,0,2025-12-01,2025-11-27,有限会社ミリオン,,有限会社,大阪府,大阪市浪速区,日本橋西２丁目３番１７号,,27,111,5560004,,,2025-11-27,清算の結了等,,,2015-10-05,1,,,,,ミリオン,0
1408,6122002016196,登記記録の閉鎖等,0,2025-12-01,2025-11-26,有限会社アイアンドアール,,有限会社,大阪府,八尾市,久宝園２丁目３９番地の１,,27,212,5810817,,,2025-11-26,合併による解散等,1150001013217,令和７年１１月２０日奈良県山辺郡山添村大字切幡１２６番地の４日ポリ化工株式会社（1150001013217）に合併し解散,2015-10-05,1,,,,,アイアンドアール,0
1428,6180301017760,登記記録の閉鎖等,0,2025-12-01,2025-11-27,株式会社アイアール,,株式会社,愛知県,豊田市,若宮町５丁目１番地３,,23,211,4710026,,,2025-11-27,清算の結了等,,,2015-10-05,1,,,,,アイアール,0
1445,6230003002139,登記記録の閉鎖等,0,2025-12-01,2025-11-25,合同会社サンレイ,,合同会社,富山県,高岡市,明園町８番３３－１０１号ロイヤルコート壱番館,,16,202,9330015,,,2025-11-25,清算の結了等,,,2024-02-07,1,,,,,サンレイ,0
1460,6300001013741,登記記録の閉鎖等,0,2025-12-01,2025-11-25,ＷＡＡ　ＰＬＵＳ株式会社,,株式会社,佐賀県,佐賀市,兵庫北１丁目７番１２号,,41,201,8490919,,,2025-11-25,清算の結了等,,,2024-05-28,1,,,,,ワープラス,0
1471,6370001020418,登記記録の閉鎖等,0,2025-12-01,2025-11-25,株式会社ジョイクック仙台,,株式会社,宮城県,仙台市太白区,西多賀１丁目１６番６号,,04,104,9820034,,,2025-11-25,清算の結了等,,,2015-10-05,1,,,,,ジョイクックセンダイ,0
1475,6400001000886,登記記録の閉鎖等,0,2025-12-01,2025-11-25,株式会社総合企画新和,,株式会社,岩手県,盛岡市,志家町５番３３号,,03,201,0200883,,,2025-11-25,清算の結了等,,,2015-10-05,1,,,,,ソウゴウキカクシンワ,0
1485,6480001006793,登記記録の閉鎖等,0,2025-12-01,2025-11-28,日本ワープニット株式会社,,株式会社,徳島県,阿南市,津乃峰町東分１０１番地の２,,36,204,7740021,,,2025-11-28,清算の結了等,,,2015-10-05,1,,,,,ニホンワープニット,0
1487,6480002002734,登記記録の閉鎖等,0,2025-12-01,2025-11-28,有限会社拓誉,,有限会社,徳島県,徳島市,八万町橋北４番地１,,36,201,7708070,,,2025-11-28,清算の結了等,,,2015-10-05,1,,,,,タクヨ,0
1488,7010001019461,登記記録の閉鎖等,0,2025-12-01,2025-11-13,株式会社誠信エンジニアリング,,株式会社,東京都,千代田区,一ツ橋２丁目５番５号岩波書店一ツ橋ビル４階,,13,101,1010003,,,2025-11-13,清算の結了等,,,2015-10-05,1,,,,,セイシンエンジニアリング,0
1500,7010002018891,登記記録の閉鎖等,0,2025-12-01,2025-11-14,有限会社京和,,有限会社,東京都,中央区,日本橋人形町１丁目１８番４号,,13,102,1030013,,,2025-11-14,清算の結了等,,,2015-10-05,1,,,,,キョウワ,0
1501,7010003030103,登記記録の閉鎖等,0,2025-12-01,2025-11-14,合同会社名古屋葵,,合同会社,東京都,千代田区,丸の内１丁目４番１号東京共同会計事務所内,,13,101,1000005,,,2025-11-14,清算の結了等,,,2019-07-01,1,,,,,ナゴヤアオイ,0
1505,7010401169055,登記記録の閉鎖等,0,2025-12-01,2025-11-04,監査役ＤＸ株式会社,,株式会社,東京都,港区,浜松町２丁目２番１５号浜松町ダイヤビル２Ｆ,,13,103,1050013,,,2025-11-04,清算の結了等,,,2022-08-24,1,,,,,カンサヤクディーエックス,0
1518,7010701024364,登記記録の閉鎖等,0,2025-12-01,2025-10-30,総合検査株式会社,,株式会社,東京都,新宿区,新宿１丁目５番６号,,13,104,1600022,,,2025-10-30,清算の結了等,,,2015-10-05,1,,,,,ソウゴウケンサ,0
1533,7011103011686,登記記録の閉鎖等,0,2025-12-01,2025-11-26,ＲＥ合同会社,,合同会社,沖縄県,那覇市,字安謝６２０番地３０グランデュールマーサ４０１,,47,201,9000003,,,2025-11-26,清算の結了等,,,2022-04-25,1,,,,,アールイー,0
1534,7011103012552,登記記録の閉鎖等,0,2025-12-01,2025-10-30,合同会社ＬＡＲＡ,,合同会社,東京都,新宿区,西新宿３丁目３番１３号西新宿水間ビル２Ｆ,,13,104,1600023,,,2025-10-30,清算の結了等,,,2023-01-11,1,,,,,ララ,0
1539,7011201015184,登記記録の閉鎖等,0,2025-12-01,2025-11-27,株式会社ヘルパーコール,,株式会社,東京都,中野区,江原町３丁目３９番８号,,13,114,1650023,,,2025-11-27,清算の結了等,,,2015-10-05,1,,,,,ヘルパーコール,0
1544,7011502005041,登記記録の閉鎖等,0,2025-12-01,2025-11-26,有限会社フジタ塗装,,有限会社,東京都,北区,豊島４丁目１１番２号,,13,117,1140003,,,2025-11-26,清算の結了等,,,2015-10-05,1,,,,,フジタトソウ,0
1545,7011601004431,登記記録の閉鎖等,0,2025-12-01,2025-11-21,株式会社テラ・インターナショナル,,株式会社,東京都,杉並区,荻窪２丁目３３番９号碓井マンション１Ｃ,,13,115,1670051,,,2025-11-21,清算の結了等,,,2015-10-05,1,,,,,テラインターナショナル,0
1559,7020001129524,登記記録の閉鎖等,0,2025-12-01,2025-11-26,株式会社ｕｓｅ,,株式会社,神奈川県,横浜市西区,北幸１丁目１１番１号,,14,103,2200004,,,2025-11-26,清算の結了等,,,2019-01-17,1,,,,,ユース,0
1561,7020001153177,登記記録の閉鎖等,0,2025-12-01,2025-11-14,株式会社トポロジー,,株式会社,神奈川県,横浜市南区,中村町４丁目２９０番地の７,,14,105,2320033,,,2025-11-14,清算の結了等,,,2023-08-25,1,,,,,トポロジー,0
1574,7021002031883,登記記録の閉鎖等,0,2025-12-01,2025-11-10,ＪＭＫトレーディング株式会社,,株式会社,神奈川県,厚木市,金田６４１番地,,14,212,2430807,,,2025-11-10,清算の結了等,,,2015-10-05,1,,,,,,0
1581,7030001112082,登記記録の閉鎖等,0,2025-12-01,2025-11-21,ブレインマークス株式会社,,株式会社,埼玉県,上尾市,本町３丁目５番２８号,,11,219,3620014,,,2025-11-21,清算の結了等,,,2016-01-05,1,,,,,ブレインマークス,0
1585,7030002013528,登記記録の閉鎖等,0,2025-12-01,2025-11-26,有限会社メークアンドアイ,,有限会社,埼玉県,さいたま市南区,内谷２丁目１１番７号,,11,108,3360034,,,2025-11-26,清算の結了等,,,2015-10-05,1,,,,,メークアンドアイ,0
1603,7050002022626,登記記録の閉鎖等,0,2025-12-01,2025-11-25,有限会社エンドレスジャパン,,有限会社,茨城県,つくば市,上郷５８２８番地１,,08,220,3002645,,,2025-11-25,清算の結了等,,,2015-10-05,1,,,,,エンドレスジャパン,0
1617,7100002036694,登記記録の閉鎖等,0,2025-12-01,2025-11-25,有限会社タナカ光学,,有限会社,長野県,飯田市,下久堅下虎岩３０１３番地２,,20,205,3992602,,,2025-11-25,清算の結了等,,,2015-10-05,1,,,,,タナカコウガク,0
1619,7110001016192,登記記録の閉鎖等,0,2025-12-01,2025-11-26,株式会社西村プレス,,株式会社,新潟県,燕市,灰方５１５番地１,,15,213,9591201,,,2025-11-26,清算の結了等,,,2015-10-05,1,,,,,ニシムラプレス,0
1625,7120001222913,登記記録の閉鎖等,0,2025-12-01,2025-11-21,こどもたちの株式会社,,株式会社,大阪府,大阪市都島区,都島南通２丁目１番１－１５０５号,,27,102,5340023,,,2025-11-21,清算の結了等,,,2019-08-07,1,,,,,コドモタチノ,0
1660,7180002017175,登記記録の閉鎖等,0,2025-12-01,2025-11-25,愛和住宅販売有限会社,,有限会社,愛知県,清須市,西枇杷島町泉２６番地,,23,233,4520015,,,2025-11-25,清算の結了等,,,2015-10-05,1,,,,,アイワジュウタクハンバイ,0
1661,7180002065785,登記記録の閉鎖等,0,2025-12-01,2025-11-27,有限会社クインゴルフサービス,,有限会社,岐阜県,養老郡養老町,竜泉寺３２８番地の１５,,21,341,5031244,,,2025-11-27,清算の結了等,,,2015-10-05,1,,,,,クインゴルフサービス,0
1666,7180003023651,登記記録の閉鎖等,0,2025-12-01,2025-11-26,合同会社ＮＩＺＹＵ,,合同会社,愛知県,名古屋市西区,名駅２丁目３４番１７号セントラル名古屋１１０１号,,23,104,4510045,,,2025-11-26,清算の結了等,,,2022-03-29,1,,,,,ニジュー,0
1676,7190002021275,登記記録の閉鎖等,0,2025-12-01,2025-11-25,豊田撚糸有限会社,,有限会社,三重県,三重郡川越町,大字豊田１１０７番地,,24,344,5108122,,,2025-11-25,清算の結了等,,,2015-10-05,1,,,,,トヨタネンシ,0
1677,7200001030738,登記記録の閉鎖等,0,2025-12-01,2025-11-26,村瀬あんしん保険サービス株式会社,,株式会社,岐阜県,郡上市,八幡町吉野９９１番地,,21,219,5014206,,,2025-11-26,清算の結了等,,,2015-10-05,1,,,,,ムラセアンシンホケンサービス,0
1682,7220001012833,登記記録の閉鎖等,0,2025-12-01,2025-11-27,株式会社森林自工,,株式会社,石川県,能美市,山口町ル７０番地７,,17,211,9290126,,,2025-11-27,清算の結了等,,,2015-10-05,1,,,,,モリバヤシジコウ,0
1683,7220001020084,登記記録の閉鎖等,0,2025-12-01,2025-11-27,ＭＩＫＯＴＯＬＡ株式会社,,株式会社,石川県,金沢市,西念１丁目２番３０号,,17,201,9200024,,,2025-11-27,清算の結了等,,,2015-10-05,1,,,,,ミコトーラ,0
1690,7260001026862,登記記録の閉鎖等,0,2025-12-01,2025-11-21,株式会社旬菜ふじ田,,株式会社,岡山県,倉敷市,児島下の町１０丁目４番４６号,,33,202,7110906,,,2025-11-21,清算の結了等,,,2015-10-05,1,,,,,シュンサイフジタ,0
1693,7260002025475,登記記録の閉鎖等,0,2025-12-01,2025-11-25,有限会社八起組,,有限会社,岡山県,笠岡市,関戸７８７番地の２,,33,205,7140004,,,2025-11-25,清算の結了等,,,2015-10-05,1,,,,,ヤオキグミ,0
1713,7290803003949,登記記録の閉鎖等,0,2025-12-01,2025-11-18,大電爾晃一製作所合同会社,,合同会社,福岡県,北九州市若松区,東二島１丁目９番２１号,,40,103,8080102,,,2025-11-18,清算の結了等,,,2021-10-08,1,,,,,ダイデンジコウカズセイサクショ,0
1725,7370001005418,登記記録の閉鎖等,0,2025-12-01,2025-11-04,Ｍａｙｆｌｏｗｅｒ　Ｓｔｕｄｉｏ株式会社,,株式会社,東京都,港区,南青山２丁目２番１５号,,13,103,1070062,,,2025-11-04,清算の結了等,,,2015-10-05,1,,,,,メイフラワースタジオ,0
1737,7460001001960,登記記録の閉鎖等,0,2025-12-01,2025-11-25,らんふあん株式会社,,株式会社,兵庫県,尼崎市,南武庫之荘１丁目１７番１号,,28,202,6610033,,,2025-11-25,清算の結了等,,,2015-10-05,1,,,,,ランファン,0
1746,8010001114294,登記記録の閉鎖等,0,2025-12-01,2025-11-14,株式会社エーオーエヌ,,株式会社,東京都,文京区,湯島１丁目９番１０号,,13,105,1130034,,,2025-11-14,清算の結了等,,,2015-10-05,1,,,,,エーオーエヌ,0
1765,8010401058802,登記記録の閉鎖等,0,2025-12-01,2025-11-05,株式会社ＰＢＯソリューションズ,,株式会社,東京都,港区,赤坂８丁目１番２２号,,13,103,1070052,,,2025-11-05,清算の結了等,,,2015-10-05,1,,,,,ピービーオーソリューションズ,0
1792,8011101097413,登記記録の閉鎖等,0,2025-12-01,2025-11-27,株式会社ＲＩＯ,,株式会社,東京都,新宿区,西新宿１丁目２６番２号新宿野村ビル３２階,,13,104,1600023,,,2025-11-27,清算の結了等,,,2022-01-05,1,,,,,アールアイオー,0
1797,8011103013681,登記記録の閉鎖等,0,2025-12-01,2025-10-31,狭山ロジスティクス合同会社,,合同会社,東京都,新宿区,四谷２丁目９番地１５東京ユナイテッド綜合事務所内,,13,104,1600004,,,2025-10-31,清算の結了等,,,2023-11-06,1,,,,,サヤマロジスティクス,0
1802,8011201014755,登記記録の閉鎖等,0,2025-12-01,2025-11-27,株式会社クロゴ,,株式会社,東京都,中野区,本町３丁目２８番８号マストライフ中野坂上アネックス１０２,,13,114,1640012,,,2025-11-27,清算の結了等,,,2015-10-05,1,,,,,クロゴ,0
1826,8020003012974,登記記録の閉鎖等,0,2025-12-01,2025-11-20,スリーアンダー合同会社,,合同会社,神奈川県,横浜市神奈川区,二ツ谷町９番地１ＩＰ・ＳＴＡＧＥ東神奈川１０５号,,14,102,2210823,,,2025-11-20,清算の結了等,,,2017-07-12,1,,,,,スリーアンダー,0
1838,8030001083802,登記記録の閉鎖等,0,2025-12-01,2025-10-31,株式会社ニューワールド商事,,株式会社,東京都,新宿区,大久保１丁目１６番１５号,,13,104,1690072,,,2025-10-31,清算の結了等,,,2015-10-05,1,,,,,,0
1839,8030001086532,登記記録の閉鎖等,0,2025-12-01,2025-11-25,株式会社福ヤ,,株式会社,埼玉県,深谷市,折之口２５０番地１,,11,218,3660812,,,2025-11-25,清算の結了等,,,2015-10-05,1,,,,,フクヤ,0
1851,8040002031924,登記記録の閉鎖等,0,2025-12-01,2025-11-04,フライトホーム有限会社,,有限会社,千葉県,船橋市,南三咲２丁目５番３号,,12,204,2740813,,,2025-11-04,清算の結了等,,,2015-10-05,1,,,,,フライトホーム,0
1878,8120001187610,登記記録の閉鎖等,0,2025-12-01,2025-11-27,株式会社ＣＡＩ,,株式会社,東京都,調布市,小島町１丁目３４番１号,,13,208,1820026,,,2025-11-27,合併による解散等,4011001111764,令和７年１０月３１日東京都渋谷区桜丘町１番２号渋谷サクラステージセントラルビル１１階株式会社アカデミー・オブ・ファースト・パシフィック（4011001111764）に合併し解散,2015-10-05,1,,,,,,0
1891,8122002004819,登記記録の閉鎖等,0,2025-12-01,2025-11-27,有限会社三宅金属工業所,,有限会社,大阪府,東大阪市,若江東町６丁目８番２６号,,27,227,5780935,,,2025-11-27,清算の結了等,,,2015-10-05,1,,,,,ミヤケキンゾクコウギョウショ,0
1892,8130002016957,登記記録の閉鎖等,0,2025-12-01,2025-11-27,トミヤ袋物有限会社,,有限会社,京都府,京都市中京区,河原町通蛸薬師上る奈良屋町２９２番地,00037513,26,104,6048033,,,2025-11-27,清算の結了等,,,2015-10-05,1,,,,,トミヤフクロモノ,0
1903,8150003001493,登記記録の閉鎖等,0,2025-12-01,2025-11-26,合同会社さーぷらす,,合同会社,奈良県,生駒市,西白庭台１丁目１０番地４,,29,209,6300137,,,2025-11-26,清算の結了等,,,2016-08-19,1,,,,,,0
1911,8180003022826,登記記録の閉鎖等,0,2025-12-01,2025-11-21,合同会社エヌエーワン,,合同会社,愛知県,岩倉市,本町前田７９番地２（ティアラ鶴見２Ｂ）,,23,228,4820043,,,2025-11-21,清算の結了等,,,2021-08-04,1,,,,,,0
1914,8190001013396,登記記録の閉鎖等,0,2025-12-01,2025-11-27,株式会社システム創者,,株式会社,三重県,桑名市,大字稗田１９８番地,00075714,24,205,5110852,,,2025-11-27,清算の結了等,,,2015-10-05,1,,,,,システムソウシャ,0
1921,8210001011570,登記記録の閉鎖等,0,2025-12-01,2025-11-25,株式会社神崎家,,株式会社,福井県,越前市,京町１丁目４番３４号,,18,209,9150813,,,2025-11-25,清算の結了等,,,2015-10-05,1,,,,,カンザキヤ,0
1928,8260001038634,登記記録の閉鎖等,0,2025-12-01,2025-11-25,株式会社大原実業,,株式会社,岡山県,岡山市北区,野田３丁目１番７号,,33,101,7000971,,,2025-11-25,清算の結了等,,,2024-01-05,1,,,,,オオハラジツギョウ,0
1931,8260002034582,登記記録の閉鎖等,0,2025-12-01,2025-11-26,有限会社国文社,,有限会社,岡山県,岡山市南区,新保６６８番地の２０,,33,104,7000945,,,2025-11-26,清算の結了等,,,2025-11-18,1,,,,,コクブンシャ,0
1934,8290001050487,登記記録の閉鎖等,0,2025-12-01,2025-11-18,英食糧販売株式会社,,株式会社,福岡県,小郡市,小郡１２６４番地,,40,216,8380141,,,2025-11-18,清算の結了等,,,2015-10-05,1,,,,,ハナブサショクリョウハンバイ,0
1956,8370001050140,登記記録の閉鎖等,0,2025-12-01,2025-11-18,株式会社三和鋼産,,株式会社,宮城県,宮城郡七ヶ浜町,遠山１丁目８番３４号,,04,404,9850823,,,2025-11-18,合併による解散等,5370601003054,令和７年１１月１８日宮城県宮城郡七ケ浜町遠山一丁目８番３４号さくら株式会社（5370601003054）に合併し解散,2023-07-06,1,,,,,ミツワコウサン,0
1957,8380002034091,登記記録の閉鎖等,0,2025-12-01,2025-11-26,笠間商事有限会社,,有限会社,福島県,河沼郡会津坂下町,字沼田甲１８９２番地,,07,421,9696567,,,2025-11-26,清算の結了等,,,2015-10-05,1,,,,,カサマショウジ,0
1961,8400002007251,登記記録の閉鎖等,0,2025-12-01,2025-11-25,有限会社競週社,,有限会社,岩手県,盛岡市,緑が丘１丁目２番１６号,,03,201,0200117,,,2025-11-25,清算の結了等,,,2015-10-05,1,,,,,ケイシュウシャ,0
1962,8400002011419,登記記録の閉鎖等,0,2025-12-01,2025-11-25,有限会社石田魚店,,有限会社,岩手県,釜石市,大渡町３丁目２番９号,,03,211,0260025,,,2025-11-25,清算の結了等,,,2015-10-05,1,,,,,イシダサカナテン,0
1963,8410001002541,登記記録の閉鎖等,0,2025-12-01,2025-11-25,株式会社本山ランドシステム,,株式会社,秋田県,秋田市,泉北１丁目１８番２７号,,05,201,0100916,,,2025-11-25,清算の結了等,,,2015-10-05,1,,,,,モトヤマランドシステム,0
1964,8420001012317,登記記録の閉鎖等,0,2025-12-01,2025-11-04,赤川整備株式会社,,株式会社,青森県,むつ市,大字田名部字赤川ノ内並木１４番地１１７０,,02,208,0350021,,,2025-11-04,合併による解散等,1420001012447,令和７年１１月１日青森県むつ市旭町６番６号野村建設株式会社（1420001012447）に合併し解散,2015-10-05,1,,,,,アカガワセイビ,0
1986,9010001238613,登記記録の閉鎖等,0,2025-12-01,2025-11-25,ルーマヴァース株式会社,,株式会社,東京都,荒川区,町屋２丁目５番１７号１０１号室,,13,118,1160001,,,2025-11-25,清算の結了等,,,2023-09-21,1,,,,,ルーマヴァース,0
1994,9010003036635,登記記録の閉鎖等,0,2025-12-01,2025-11-13,宮益坂上プロパティーズ合同会社,,合同会社,東京都,千代田区,丸の内１丁目４番１号東京共同会計事務所内,,13,101,1000005,,,2025-11-13,清算の結了等,,,2022-01-04,1,,,,,ミヤマスザカウエプロパティーズ,0
2006,9010403033397,登記記録の閉鎖等,0,2025-12-01,2025-11-04,合同会社Ａｎａｍｎｅｓｅ,,合同会社,東京都,港区,南青山３丁目１番３６号青山丸竹ビル６Ｆ,,13,103,1070062,,,2025-11-04,清算の結了等,,,2024-09-10,1,,,,,アナムネーゼ,0
2014,9010603008447,登記記録の閉鎖等,0,2025-12-01,2025-11-05,合同会社セントニコラスアビー,,合同会社,東京都,港区,六本木３丁目６－９,,13,103,1060032,,,2025-11-05,清算の結了等,,,2020-07-28,1,,,,,セントニコラスアビー,0
2032,9011203001965,登記記録の閉鎖等,0,2025-12-01,2025-11-26,Ｍｅｄｉｃａｌ　Ｄａｔａｗａｙ合同会社,,合同会社,東京都,中央区,日本橋兜町５－１兜町第１平和ビル３Ｆ,,13,102,1030026,,,2025-11-26,清算の結了等,,,2015-10-05,1,,,,,メディカルデータウェイ,0
2037,9011601011814,登記記録の閉鎖等,0,2025-12-01,2025-11-25,グローバル・ペイ・サービス株式会社,,株式会社,東京都,練馬区,北町８丁目１５番１９号,,13,120,1790081,,,2025-11-25,清算の結了等,,,2015-10-05,1,,,,,グローバルペイサービス,0
2060,9020002025844,登記記録の閉鎖等,0,2025-12-01,2025-11-21,有限会社大坂屋金物店,,有限会社,神奈川県,横浜市神奈川区,七島町１２７番地ノ３,,14,102,2210061,,,2025-11-21,清算の結了等,,,2015-10-05,1,,,,,オオサカヤカナモノテン,0
2061,9020002088486,登記記録の閉鎖等,0,2025-12-01,2025-11-27,有限会社大塚屋,,有限会社,神奈川県,川崎市高津区,下作延３丁目１３番１７号,,14,134,2130033,,,2025-11-27,清算の結了等,,,2015-10-05,1,,,,,オオツカヤ,0
2081,9040001043267,登記記録の閉鎖等,0,2025-12-01,2025-11-06,株式会社ユナイテッドクリアランスエイジェンシー,,株式会社,千葉県,成田市,古込字込前１５４番４号,,12,211,2860104,,,2025-11-06,清算の結了等,,,2015-10-05,1,,,,,,0
2084,9040002005919,登記記録の閉鎖等,0,2025-12-01,2025-11-05,有限会社末広マイカーセンター,,有限会社,千葉県,千葉市中央区,末広５丁目３番地,,12,101,2600843,,,2025-11-05,清算の結了等,,,2015-10-05,1,,,,,,0
2088,9040002067554,登記記録の閉鎖等,0,2025-12-01,2025-10-31,有限会社平野保険事務所,,有限会社,千葉県,木更津市,高柳１丁目５番２号,,12,206,2920014,,,2025-10-31,清算の結了等,,,2015-10-05,1,,,,,ヒラノホケンジムショ,0
2091,9040002084962,登記記録の閉鎖等,0,2025-12-01,2025-11-06,有限会社ワタナベ工芸,,有限会社,千葉県,旭市,平松１５１７番地,,12,215,2892708,,,2025-11-06,清算の結了等,,,2015-10-05,1,,,,,ワタナベコウゲイ,0
2093,9040003024736,登記記録の閉鎖等,0,2025-12-01,2025-09-11,アナリティックファイナンスアドバイザーズ合同会社,,合同会社,千葉県,千葉市中央区,千葉港３番２５号サングランデザ・レジデンス千葉１１０１号,,12,101,2600026,,,2025-09-11,清算の結了等,,,2024-04-05,1,,,,,アナリティックファイナンスアドバイザーズ,0
2107,9070002010164,登記記録の閉鎖等,0,2025-12-01,2025-11-27,Ｊ－ライフ有限会社,,有限会社,群馬県,高崎市,下和田町１丁目６番１３号,,10,202,3700846,,,2025-11-27,清算の結了等,,,2015-10-05,1,,,,,ジェイライフ,0
2113,9080102006400,登記記録の閉鎖等,0,2025-12-01,2025-11-25,有限会社伊豆エンジニアリング,,有限会社,静岡県,三島市,青木２１１番地の４,,22,206,4110811,,,2025-11-25,清算の結了等,,,2015-10-05,1,,,,,イズエンジニアリング,0
2124,9120001138521,登記記録の閉鎖等,0,2025-12-01,2025-11-25,株式会社ターンオーバー,,株式会社,兵庫県,宝塚市,社町１３番４号,,28,214,6650071,,,2025-11-25,合併による解散等,8140001083386,令和７年９月１日兵庫県宝塚市社町１３番４号株式会社キャピタルラック（8140001083386）に合併し解散,2015-10-05,1,,,,,ターンオーバー,0
2148,9130001078106,登記記録の閉鎖等,0,2025-12-01,2025-11-18,ＮＩＣＥ　ＪＵＭＰ株式会社,,株式会社,京都府,京都市左京区,下鴨岸本町２３番地１サンクシャンブル１０２号室,,26,103,6060853,,,2025-11-18,清算の結了等,,,2024-10-17,1,,,,,ナイスジャンプ,0
2170,9180001131149,登記記録の閉鎖等,0,2025-12-01,2025-11-25,株式会社マネーリテラシー研究所,,株式会社,愛知県,名古屋市天白区,元八事１丁目９６番地,,23,116,4680066,,,2025-11-25,清算の結了等,,,2018-02-08,1,,,,,マネーリテラシーケンキュウジョ,0
2182,9180302013599,登記記録の閉鎖等,0,2025-12-01,2025-11-26,有限会社デック,,有限会社,愛知県,豊川市,御油町五反１番地の７,,23,207,4410211,,,2025-11-26,清算の結了等,,,2015-10-05,1,,,,,デック,0
2189,9200002009531,登記記録の閉鎖等,0,2025-12-01,2025-11-27,有限会社シンケン,,有限会社,岐阜県,本巣市,上真桑２２５８番地の４１,,21,218,5010461,,,2025-11-27,清算の結了等,,,2015-10-05,1,,,,,シンケン,0
2205,9290001103814,登記記録の閉鎖等,0,2025-12-01,2025-11-11,株式会社Ｄａｉｊｏｕｂｕ,,株式会社,福岡県,福岡市中央区,鳥飼３丁目１５番５号リバーサイドソシアル２０６,,40,133,8100053,,,2025-11-11,清算の結了等,,,2023-11-27,1,,,,,ダイジョウブ,0
2206,9290003012105,登記記録の閉鎖等,0,2025-12-01,2025-11-19,合同会社伊藤,,合同会社,福岡県,福岡市博多区,美野島１丁目１０番１２号第５川崎ビル５０２号,,40,132,8120017,,,2025-11-19,清算の結了等,,,2022-02-01,1,,,,,イトウ,0
2208,9290802015869,登記記録の閉鎖等,0,2025-12-01,2025-11-26,有限会社北九州不動産鑑定,,有限会社,福岡県,北九州市八幡西区,折尾４丁目３３番３号,,40,109,8070825,,,2025-11-26,清算の結了等,,,2015-10-05,1,,,,,キタキュウシュウフドウサンカンテイ,0
2219,9360005006031,登記記録の閉鎖等,0,2025-12-01,2025-11-27,一般社団法人ファンプラス,,その他の設立登記法人,沖縄県,那覇市,久米２丁目２０－３,,47,201,9000033,,,2025-11-27,清算の結了等,,,2019-05-09,1,,,,,ファンプラス,0
2225,9390002007203,登記記録の閉鎖等,0,2025-12-01,2025-11-27,有限会社亀ケ崎コンタクトレンズ,,有限会社,山形県,酒田市,亀ケ崎５丁目５番２２号,,06,204,9980842,,,2025-11-27,清算の結了等,,,2015-10-05,1,,,,,,0
