sequenceNumber,corporateNumber,process,correct,updateDate,changeDate,name,nameImageId,kind,prefectureName,cityName,streetNumber,addressImageId,prefectureCode,cityCode,postCode,addressOutside,addressOutsideImageId,closeDate,closeCause,successorCorporateNumber,changeCause,assignmentDate,latest,enName,enPrefectureName,enCityName,enAddressOutside,furigana,hihyoji
24,1010003042137,新規,0,2023-11-08,2023-11-08,合同会社まるねこ,,合同会社,東京都,中央区,日本橋室町１丁目１１番１２号日本橋水野ビル７階,,13,102,1030022,,,,,,,2023-11-08,1,,,,,マルネコ,0
32,1010401178169,新規,0,2023-11-08,2023-11-08,ＣＥＹＳＳＯＮ＆ＢＥＮＥＴＩＥＲＥ株式会社,,株式会社,東京都,港区,東麻布１丁目２３番５号ＰＭＣビル２Ｆ,,13,103,1060044,,,,,,,2023-11-08,1,,,,,セイソンアンドベネティエル,0
33,1010401178301,新規,0,2023-11-08,2023-11-08,株式会社スクリームラボ,,株式会社,東京都,港区,台場１丁目６番１－４Ｆ０９区画,,13,103,1350091,,,,,,,2023-11-08,1,,,,,スクリームラボ,0
39,1010405022645,新規,0,2023-11-08,2023-11-08,Ａｌｐｈａｓ税理士法人,,その他の設立登記法人,東京都,港区,赤坂９丁目１番７－４７５号,,13,103,1070052,,,,,,,2023-11-08,1,,,,,アルファス,0
43,1010603010468,新規,0,2023-11-08,2023-11-08,Ｌｕｃｋｙｏｎｅ合同会社,,合同会社,東京都,墨田区,本所１丁目１１番１２－４０１号,,13,107,1300004,,,,,,,2023-11-08,1,,,,,ラッキーワン,0
45,1010801034475,新規,0,2023-11-08,2023-11-08,Ｔｈｅ　Ｕｎｉｃｏｒｎ　Ｇｒｏｕｐ株式会社,,株式会社,東京都,大田区,東海３丁目７番３号,,13,111,1430001,,,,,,,2023-11-08,1,,,,,ザユニコーングループ,0
46,1010801034500,新規,0,2023-11-08,2023-11-08,ＧＯ　ＵＰ株式会社,,株式会社,東京都,大田区,大森東３丁目４番１０－３０１号,,13,111,1430012,,,,,,,2023-11-08,1,,,,,ゴーアップ,0
47,1010803004740,新規,0,2023-11-08,2023-11-08,アイク合同会社,,合同会社,東京都,大田区,仲六郷２丁目７番１８号,,13,111,1440055,,,,,,,2023-11-08,1,,,,,アイク,0
52,1010901054134,新規,0,2023-11-08,2023-11-08,株式会社クラフターズ,,株式会社,東京都,世田谷区,弦巻５丁目１８番８号,,13,112,1540016,,,,,,,2023-11-08,1,,,,,クラフターズ,0
53,1010901054159,新規,0,2023-11-08,2023-11-08,株式会社ソーシャルグッドコンサルティング,,株式会社,東京都,世田谷区,赤堤３丁目３－７グランジュール赤堤３０２,,13,112,1560044,,,,,,,2023-11-08,1,,,,,ソーシャルグッドコンサルティング,0
56,1010903008567,新規,0,2023-11-08,2023-11-08,合同会社オーエヌプランニング,,合同会社,東京都,世田谷区,砧２丁目５番２５－６０４号,,13,112,1570073,,,,,,,2023-11-08,1,,,,,オーエヌプランニング,0
66,1011103013721,新規,0,2023-11-08,2023-11-08,ＳｉｌｃｏＴｅｋ合同会社,,合同会社,東京都,新宿区,西新宿３丁目７番１号Ｎ３０階,,13,104,1600023,,,,,,,2023-11-08,1,,,,,シルコテック,0
67,1011201025032,新規,0,2023-11-08,2023-11-08,株式会社セーフメイト,,株式会社,東京都,中野区,大和町１丁目１番２３－３０５号,,13,114,1650034,,,,,,,2023-11-08,1,,,,,セーフメイト,0
72,1011401025591,新規,0,2023-11-08,2023-11-08,株式会社オルキャス,,株式会社,東京都,板橋区,三園１丁目２７番８号,,13,119,1750091,,,,,,,2023-11-08,1,,,,,オルキャス,0
74,1011501029963,新規,0,2023-11-08,2023-11-08,株式会社スリーオー,,株式会社,東京都,北区,赤羽西１丁目６番１－６１３号,,13,117,1150055,,,,,,,2023-11-08,1,,,,,スリーオー,0
77,1011801043301,新規,0,2023-11-08,2023-11-08,株式会社ＡＣＥ,,株式会社,東京都,足立区,竹の塚３丁目１０番１５号,,13,121,1210813,,,,,,,2023-11-08,1,,,,,エース,0
78,1012301013653,新規,0,2023-11-08,2023-11-08,株式会社ＰＲＯＶ,,株式会社,東京都,町田市,森野１丁目３９番１７号,,13,209,1940022,,,,,,,2023-11-08,1,,,,,プルーブ,0
84,1012403006258,新規,0,2023-11-08,2023-11-08,ＬＩＨ合同会社,,合同会社,東京都,多摩市,鶴牧５丁目４０‐４‐５０１,,13,224,2060034,,,,,,,2023-11-08,1,,,,,エルアイエイチ,0
86,1012801022757,新規,0,2023-11-08,2023-11-08,株式会社ｒａｖｅｎｃｏｍｐａｎｙ,,株式会社,東京都,国分寺市,富士本３丁目９番地４３シティハイムツチヤ２０２,,13,214,1850031,,,,,,,2023-11-08,1,,,,,レイブンカンパニー,0
92,1013303006868,新規,0,2023-11-08,2023-11-08,合同会社ＨＩＣＯ　ＤＥＳＩＧＮ,,合同会社,東京都,豊島区,東池袋２丁目６番２号メゾン青樹ロイヤルアネックス１１０１号,,13,116,1700013,,,,,,,2023-11-08,1,,,,,ヒコデザイン,0
93,1013305003541,新規,0,2023-11-08,2023-11-08,一般社団法人セントポールズアイスホッケーマネジメント,,その他の設立登記法人,東京都,豊島区,西池袋３丁目３４番１号立教大学体育会アイスホッケー部,,13,116,1710021,,,,,,,2023-11-08,1,,,,,セントポールズアイスホッケーマネジメント,0
105,1020001154338,新規,0,2023-11-08,2023-11-08,株式会社ＮＴＳ,,株式会社,神奈川県,横浜市港南区,港南３丁目３６番３３号,,14,111,2330003,,,,,,,2023-11-08,1,,,,,エヌティーエス,0
106,1020001154354,新規,0,2023-11-08,2023-11-08,株式会社鈴木工業,,株式会社,神奈川県,横浜市青葉区,千草台３１番地２－１０３,,14,117,2270051,,,,,,,2023-11-08,1,,,,,スズキコウギョウ,0
107,1020001154362,新規,0,2023-11-08,2023-11-08,ｓｍａｐ株式会社,,株式会社,神奈川県,横浜市中区,野毛町１丁目９番１号１Ｆ,,14,104,2310064,,,,,,,2023-11-08,1,,,,,スマップ,0
108,1020001154379,新規,0,2023-11-08,2023-11-08,株式会社ＢＲＡＮＣＨ　Ｃａｒｅ,,株式会社,神奈川県,川崎市川崎区,駅前本町１１番地２川崎フロンティアビル４階,,14,131,2100007,,,,,,,2023-11-08,1,,,,,ブランチケア,0
109,1020001154395,新規,0,2023-11-08,2023-11-08,株式会社土地活用コンサルティング,,株式会社,神奈川県,横浜市戸塚区,品濃町５３０番地１ブリリア東戸塚７０４号,,14,110,2440801,,,,,,,2023-11-08,1,,,,,トチカツヨウコンサルティング,0
113,1020003024943,新規,0,2023-11-08,2023-11-08,合同会社ＥＴＯＵ,,合同会社,神奈川県,横浜市中区,相生町４丁目６６番地第１５須賀ビル４階,,14,104,2310012,,,,,,,2023-11-08,1,,,,,イーティーオーユー,0
121,1030001157026,新規,0,2023-11-08,2023-11-08,株式会社大塚伐採土木,,株式会社,埼玉県,東松山市,美原町３丁目１６番地２,,11,212,3550010,,,,,,,2023-11-08,1,,,,,オオツカバッサイドボク,0
122,1030001157059,新規,0,2023-11-08,2023-11-08,株式会社ホワイトベアー,,株式会社,埼玉県,朝霞市,膝折町４丁目２０番３１－２０１号,,11,227,3510014,,,,,,,2023-11-08,1,,,,,ホワイトベアー,0
123,1030001157067,新規,0,2023-11-08,2023-11-08,株式会社ジイル,,株式会社,埼玉県,さいたま市大宮区,北袋町１丁目１５０番地２,,11,103,3300835,,,,,,,2023-11-08,1,,,,,ジイル,0
124,1030003022954,新規,0,2023-11-08,2023-11-08,沖デジタルブルーオーシャン合同会社,,合同会社,埼玉県,さいたま市大宮区,北袋町２丁目２３８番地２２,,11,103,3300835,,,,,,,2023-11-08,1,,,,,オキデジタルブルーオーシャン,0
125,1030003022979,新規,0,2023-11-08,2023-11-08,合同会社ビバウェル,,合同会社,埼玉県,和光市,白子３丁目２０番１１―６０２号,,11,229,3510101,,,,,,,2023-11-08,1,,,,,ビバウェル,0
132,1040001130824,新規,0,2023-11-08,2023-11-08,株式会社ＫＳ　Ｅｎｔｅｒｐｒｉｓｅ,,株式会社,千葉県,我孫子市,新木野１丁目１０番３７号,,12,222,2701114,,,,,,,2023-11-08,1,,,,,ケーエスエンタープライズ,0
134,1040003023670,新規,0,2023-11-08,2023-11-08,タカヤス建設合同会社,,合同会社,千葉県,佐倉市,城２０４番地６,,12,212,2850815,,,,,,,2023-11-08,1,,,,,タカヤスケンセツ,0
135,1040003023687,新規,0,2023-11-08,2023-11-08,合同会社梅澤,,合同会社,千葉県,流山市,鰭ケ崎１丁目２番地の１２,,12,220,2700161,,,,,,,2023-11-08,1,,,,,ウメザワ,0
136,1040003023695,新規,0,2023-11-08,2023-11-08,合同会社Ｄ’ｓ,,合同会社,千葉県,木更津市,桜井新町２丁目２－１,,12,206,2920823,,,,,,,2023-11-08,1,,,,,ディーズ,0
139,1050001053768,新規,0,2023-11-08,2023-11-08,株式会社エイチアールエム,,株式会社,茨城県,古河市,茶屋新田２７０番地３４,,08,204,3060051,,,,,,,2023-11-08,1,,,,,エイチアールエム,0
140,1050001053792,新規,0,2023-11-08,2023-11-08,みややま設備株式会社,,株式会社,茨城県,桜川市,真壁町椎尾３１３６番地,,08,231,3004414,,,,,,,2023-11-08,1,,,,,ミヤヤマセツビ,0
144,1060001036508,新規,0,2023-11-08,2023-11-08,ＪＯＳＨＩ　ＴＥＣＨ．Ｃ株式会社,,株式会社,栃木県,栃木市,岩舟町新里１３０４番地５１号室,,09,203,3294316,,,,,,,2023-11-08,1,,,,,ジョシテクシ,0
153,1070003005154,新規,0,2023-11-08,2023-11-08,合同会社山紫,,合同会社,群馬県,桐生市,川内町２丁目７０８－５,,10,203,3760041,,,,,,,2023-11-08,1,,,,,,0
161,1100001036949,新規,0,2023-11-08,2023-11-08,株式会社太田屋,,株式会社,長野県,飯田市,下殿岡４８８番地４,,20,205,3950154,,,,,,,2023-11-08,1,,,,,オオタヤ,0
162,1100001036957,新規,0,2023-11-08,2023-11-08,株式会社ｓａｔｏｒｉｃｏ,,株式会社,長野県,松本市,中央１丁目３番１２号第２セントラルビル２階,,20,202,3900811,,,,,,,2023-11-08,1,,,,,サトウリコ,0
164,1100003007254,新規,0,2023-11-08,2023-11-08,Ｏｎ　Ｔｈｅ　Ｃｈｏｐ合同会社,,合同会社,長野県,北安曇郡白馬村,大字北城９３４２－２０３,,20,485,3999301,,,,,,,2023-11-08,1,,,,,オンザチョップ,0
165,1100005013093,新規,0,2023-11-08,2023-11-08,一般社団法人ＮＡＧＡＮＯからおすそわけ,,その他の設立登記法人,長野県,上伊那郡箕輪町,大字中箕輪９４４５番地１,,20,383,3994601,,,,,,,2023-11-08,1,,,,,ナガノカラオスソワケ,0
166,1110003005208,新規,0,2023-11-08,2023-11-08,合同会社ザキインターナショナル,,合同会社,新潟県,胎内市,高畑９９１,,15,227,9592703,,,,,,,2023-11-08,1,,,,,ザキインターナショナル,0
191,1120001259481,新規,0,2023-11-08,2023-11-08,美来株式会社,,株式会社,大阪府,大阪市中央区,龍造寺町４番５号,,27,128,5400014,,,,,,,2023-11-08,1,,,,,ミライ,0
192,1120001259548,新規,0,2023-11-08,2023-11-08,株式会社Ｓｐｉｎｎｉｎｇ　ｔｈｅ　Ｓｍｉｌｅ,,株式会社,大阪府,大阪市都島区,善源寺町２丁目２番５－１５２６号,,27,102,5340015,,,,,,,2023-11-08,1,,,,,スピニングザスマイル,0
206,1130001075630,新規,0,2023-11-08,2023-11-08,株式会社遠望不動産,,株式会社,京都府,京都市伏見区,深草西浦町１丁目１８名神第一ビル６Ｆ,,26,109,6120029,,,,,,,2023-11-08,1,,,,,エンボウフドウサン,0
209,1140001132216,新規,0,2023-11-08,2023-11-08,株式会社晃豊運送,,株式会社,兵庫県,神戸市垂水区,舞子坂２丁目１番１３－１０１号,,28,108,6550044,,,,,,,2023-11-08,1,,,,,コウホウウンソウ,0
210,1140001132224,新規,0,2023-11-08,2023-11-08,３Ｓ　ＬＥＡＴＨＥＲ　ＴＥＣＨＮＯＬＯＧＹ株式会社,,株式会社,兵庫県,たつの市,揖保町門前３４３番地１,,28,229,6794153,,,,,,,2023-11-08,1,,,,,スリーエスレザーテクノロジー,0
211,1140001132232,新規,0,2023-11-08,2023-11-08,アンシングローバルネット株式会社,,株式会社,兵庫県,神戸市西区,玉津町高津橋１９７番地の１,,28,111,6512122,,,,,,,2023-11-08,1,,,,,アンシングローバルネット,0
212,1140001132273,新規,0,2023-11-08,2023-11-08,株式会社ｉｐｒｉ,,株式会社,兵庫県,神戸市中央区,磯上通４丁目２番１６－４０６号,,28,110,6510086,,,,,,,2023-11-08,1,,,,,アイプリ,0
215,1150005009509,新規,0,2023-11-08,2023-11-08,一般社団法人災害支援ＯＮＥＴＥＡＭ,,その他の設立登記法人,奈良県,天理市,別所町２３２番地２,,29,204,6320018,,,,,,,2023-11-08,1,,,,,サイガイシエンワンチーム,0
223,1170001017876,新規,0,2023-11-08,2023-11-08,橘清掃サービス株式会社,,株式会社,和歌山県,田辺市,中万呂４２７番地の２,,30,206,6460003,,,,,,,2023-11-08,1,,,,,タチバナセイソウサービス,0
237,1180001158843,新規,0,2023-11-08,2023-11-08,株式会社長尾企画,,株式会社,愛知県,弥富市,鯏浦町下本田１２番地１,,23,235,4980021,,,,,,,2023-11-08,1,,,,,ナガオキカク,0
238,1180001158868,新規,0,2023-11-08,2023-11-08,株式会社ＭＤ．ｉｌｌｕｓ,,株式会社,愛知県,名古屋市港区,浜２丁目１２番２８号,,23,111,4550036,,,,,,,2023-11-08,1,,,,,エムディラス,0
247,1180303005891,新規,0,2023-11-08,2023-11-08,セントラルストラテジック合同会社,,合同会社,愛知県,安城市,二本木町東切替７９番地１,,23,212,4460054,,,,,,,2023-11-08,1,,,,,セントラルストラテジック,0
251,1210003001717,新規,0,2023-11-08,2023-11-08,合同会社Ｉｎｖｉｇｏｒａｔｅ,,合同会社,福井県,大飯郡高浜町,宮崎４５－１０,,18,481,9192225,,,,,,,2023-11-08,1,,,,,インビゴレート,0
254,1240003006399,新規,0,2023-11-08,2023-11-08,合同会社中村会計センター,,合同会社,広島県,呉市,広大新開１丁目１番７－３０１号,,34,202,7370141,,,,,,,2023-11-08,1,,,,,ナカムラカイケイセンター,0
255,1240003006408,新規,0,2023-11-08,2023-11-08,合同会社エフハリスト,,合同会社,広島県,広島市東区,牛田中１丁目７番３３号,,34,102,7320065,,,,,,,2023-11-08,1,,,,,エフハリスト,0
260,1290001103623,新規,0,2023-11-08,2023-11-08,ｓｅｌｅｃｔ７株式会社,,株式会社,福岡県,福岡市早良区,室見１丁目４番５号,,40,137,8140015,,,,,,,2023-11-08,1,,,,,セレクトセブン,0
261,1290001103648,新規,0,2023-11-08,2023-11-08,株式会社スマイルライフ,,株式会社,福岡県,久留米市,荒木町下荒木７番地５,,40,203,8300066,,,,,,,2023-11-08,1,,,,,スマイルライフ,0
262,1290001103689,新規,0,2023-11-08,2023-11-08,ブラン株式会社,,株式会社,福岡県,福岡市中央区,渡辺通３丁目１０番３９アクロス天神センタープラザ１１０７号,,40,133,8100004,,,,,,,2023-11-08,1,,,,,ブラン,0
270,1290801030026,新規,0,2023-11-08,2023-11-08,株式会社クニヒロ緑建,,株式会社,福岡県,遠賀郡岡垣町,高陽台３丁目１６番３号,,40,383,8114227,,,,,,,2023-11-08,1,,,,,クニヒロリョクケン,0
285,1360003013458,新規,0,2023-11-08,2023-11-08,合同会社三山開発,,合同会社,沖縄県,宜野湾市,真栄原１丁目１９番２５号,,47,205,9012215,,,,,,,2023-11-08,1,,,,,サンザンカイハツ,0
291,1380001034116,新規,0,2023-11-08,2023-11-08,株式会社ＰＵＮＫ．ｋ,,株式会社,福島県,いわき市,常磐湯本町下浅貝１０９番地の３９,,07,204,9728321,,,,,,,2023-11-08,1,,,,,パンクドットケー,0
296,1400001016458,新規,0,2023-11-08,2023-11-08,株式会社北いわて資源循環センター,,株式会社,岩手県,二戸郡一戸町,鳥越字上野平１７番地,,03,524,0285313,,,,,,,2023-11-08,1,,,,,キタイワテシゲンジュンカンセンター,0
307,1430001090376,新規,0,2023-11-08,2023-11-08,株式会社ライズフラップ,,株式会社,北海道,札幌市北区,北七条西４丁目１番１号,,01,102,0600807,,,,,,,2023-11-08,1,,,,,ライズフラップ,0
310,1430003015604,新規,0,2023-11-08,2023-11-08,合同会社ＳＫ‐リクリエイト,,合同会社,北海道,札幌市東区,本町二条７丁目５番２２号ヴィラ本町Ａ－２号,,01,103,0650042,,,,,,,2023-11-08,1,,,,,エスケーリクリエイト,0
311,1430005014827,新規,0,2023-11-08,2023-11-08,一般社団法人北海道障がい者共生協会,,その他の設立登記法人,北海道,苫小牧市,弥生町２丁目３番１号,,01,213,0530802,,,,,,,2023-11-08,1,,,,,ホッカイドウショウガイシャキョウセイキョウカイ,0
320,1700150121210,新規,0,2023-11-08,2023-10-13,高校生カーボンニュートラル・ラボ実行委員会,,その他,静岡県,静岡市駿河区,大谷８３６静岡大学内地域連携推進課気付,,22,102,4228017,,,,,,,2023-10-13,1,,,,,コウコウセイカーボンニユートラルラボジツコウイインカイ,0
321,1700150121895,新規,0,2023-11-08,2023-11-08,ｙｉｗｕｓｈｉｙａｎｙｕｄｉａｎｚｉｓｈａｎｇｗｕｙｏｕｘｉａｎｇｏｎｇｓｉ,,外国会社等,,,,,,,,Ｒｏｏｍ２０３，Ｕｎｉｔ　１，Ｎｏ　６　Ｂｕｉｌｄｉｎｇ，Ｌｉｎｇｙｕｎ　５Ｄｉｓｔｒｉｃｔ，Ｂｅｉｙｕａｎ　Ｓｔｒｅｅｔ，Ｙｉｗｕ　Ｚｈｅｊｉａｎｇ,,,,,,2023-11-08,1,,,,,ギウシガンウデンシショウムユウゲンコウシ,0
322,1700150121904,新規,0,2023-11-08,2023-11-08,Ｗｕｈａｎ　Ｔｕｌｉａｎｇ　Ｇｕｏｊｉｄｉａｎｚｉ　Ｓｈａｎｇｗｕ　Ｙｏｕｘｉａｎｇｏｎｇｓｉ,,外国会社等,,,,,,,,ｗｕｈａｎｓｈｉｑｉａｏｋｏｕｑｕｇｕｔｉａｎｌｕ６８ｈａｏｇｕａｎｇｄｉａｎ．Ｊｉａｎｇｗａｎｘｉｎｃｈｅｎｇ３０ｄｏｎｇ２ｃｅｎｇ０２ｓｈｉＢ－１９８　４３００３５　ＣＮ,,,,,,2023-11-08,1,,,,,ブカントリャングオジデンシショウムヨウシェンゴンスー,0
334,2010001239725,新規,0,2023-11-08,2023-11-08,大成貿易株式会社,,株式会社,東京都,文京区,本郷６丁目２－１０－１００２,,13,105,1130033,,,,,,,2023-11-08,1,,,,,タイセイボウエキ,0
335,2010001239741,新規,0,2023-11-08,2023-11-08,株式会社エイドリアン,,株式会社,東京都,千代田区,二番町５番地２,,13,101,1020084,,,,,,,2023-11-08,1,,,,,エイドリアン,0
336,2010001239774,新規,0,2023-11-08,2023-11-08,株式会社マークルデザイン,,株式会社,東京都,千代田区,麹町５丁目２番地Ｋ－ＷＩＮＧビル１０階,,13,101,1020083,,,,,,,2023-11-08,1,,,,,マークルデザイン,0
337,2010001239824,新規,0,2023-11-08,2023-11-08,株式会社ＧＩＦＴ,,株式会社,東京都,千代田区,神田和泉町１番地６－１６ヤマトビル４０５,,13,101,1010024,,,,,,,2023-11-08,1,,,,,ギフト,0
338,2010001239907,新規,0,2023-11-08,2023-11-08,株式会社ＳｏｄａＸ　Ｂｒｉｄｇｅ　Ｊａｐａｎ,,株式会社,東京都,千代田区,神田東松下町３８番地鳥本鋼業ビル５Ｆ,,13,101,1010042,,,,,,,2023-11-08,1,,,,,ソーダエックスブリッジジャパン,0
339,2010001239915,新規,0,2023-11-08,2023-11-08,海藝株式会社,,株式会社,東京都,千代田区,岩本町１丁目１２番１１－７０１号,,13,101,1010032,,,,,,,2023-11-08,1,,,,,カイゲイ,0
343,2010003042152,新規,0,2023-11-08,2023-11-08,合同会社Ｙ＆Ｃ,,合同会社,東京都,千代田区,一番町６－４－６０７,,13,101,1020082,,,,,,,2023-11-08,1,,,,,ワイアンドシー,0
356,2010401178291,新規,0,2023-11-08,2023-11-08,株式会社Ｇｒｏｗｔｈ　Ａｒｅａ,,株式会社,東京都,港区,浜松町２丁目２番１５号浜松町ダイヤビル２Ｆ,,13,103,1050013,,,,,,,2023-11-08,1,,,,,グロースエリア,0
357,2010401178309,新規,0,2023-11-08,2023-11-08,メディカデリ株式会社,,株式会社,東京都,港区,西新橋１丁目１０番２号,,13,103,1050003,,,,,,,2023-11-08,1,,,,,メディカデリ,0
358,2010401178374,新規,0,2023-11-08,2023-11-08,Ｐｒｏｔｅｃｔ　Ｉｎｔｅｒｎａｔｉｏｎａｌ　Ｊａｐａｎ株式会社,,株式会社,東京都,港区,元麻布３丁目１番６号,,13,103,1060046,,,,,,,2023-11-08,1,,,,,プロテクトインターナショナルジャパン,0
369,2010601064093,新規,0,2023-11-08,2023-11-08,株式会社ファクトホーム,,株式会社,東京都,江東区,大島７丁目２３番１０号丹羽ビル１階,,13,108,1360072,,,,,,,2023-11-08,1,,,,,ファクトホーム,0
370,2010601064102,新規,0,2023-11-08,2023-11-08,株式会社Ａｅｒｏｋ,,株式会社,東京都,墨田区,緑２丁目１２番３号,,13,107,1300021,,,,,,,2023-11-08,1,,,,,アーロック,0
371,2010603010467,新規,0,2023-11-08,2023-11-08,合同会社ラブグラス,,合同会社,東京都,江東区,亀戸３丁目５６番９－１３０３号,,13,108,1360071,,,,,,,2023-11-08,1,,,,,ラブグラス,0
372,2010701045092,新規,0,2023-11-08,2023-11-08,株式会社マネーフリー,,株式会社,東京都,品川区,荏原６丁目１５番３号シャトレ西小山２０２,,13,109,1420063,,,,,,,2023-11-08,1,,,,,マネーフリー,0
374,2010801034490,新規,0,2023-11-08,2023-11-08,株式会社テオリア,,株式会社,東京都,大田区,田園調布４丁目２１番１３号,,13,111,1450071,,,,,,,2023-11-08,1,,,,,テオリア,0
375,2010801034499,新規,0,2023-11-08,2023-11-08,株式会社エンパワー・ラボ,,株式会社,東京都,大田区,南久が原２丁目１番２０－５０２号,,13,111,1460084,,,,,,,2023-11-08,1,,,,,エンパワーラボ,0
380,2010901054125,新規,0,2023-11-08,2023-11-08,株式会社Ｅｘｐｅｃｔ,,株式会社,東京都,世田谷区,大原２丁目２２番４号グランペール大原２０２,,13,112,1560041,,,,,,,2023-11-08,1,,,,,エクスペクト,0
383,2010903008574,新規,0,2023-11-08,2023-11-08,マイエジプトジャパン合同会社,,合同会社,東京都,世田谷区,奥沢５丁目２７番５号魚菜エステートビル１Ａ,,13,112,1580083,,,,,,,2023-11-08,1,,,,,マイエジプトジャパン,0
386,2011001158130,新規,0,2023-11-08,2023-11-08,株式会社ｍ・ＰＯＲＴＥ,,株式会社,東京都,渋谷区,神泉町１０番１５号アネックス神泉３０１,,13,113,1500045,,,,,,,2023-11-08,1,,,,,エムポルテ,0
388,2011003017895,新規,0,2023-11-08,2023-11-08,合同会社ＤｏｒａＤｏｒａ,,合同会社,東京都,渋谷区,道玄坂１丁目１０番８号渋谷道玄坂東急ビル２Ｆ－Ｃ,,13,113,1500043,,,,,,,2023-11-08,1,,,,,ドラドラ,0
392,2011101105065,新規,0,2023-11-08,2023-11-08,株式会社ワクイカンパニー,,株式会社,東京都,新宿区,北新宿１丁目２０番１３－１１０４号,,13,104,1690074,,,,,,,2023-11-08,1,,,,,ワクイカンパニー,0
393,2011101105073,新規,0,2023-11-08,2023-11-08,株式会社総合調査,,株式会社,東京都,新宿区,西新宿３丁目３－１３西新宿水間ビル２Ｆ,,13,104,1600023,,,,,,,2023-11-08,1,,,,,ソウゴウチョウサ,0
395,2011103013712,新規,0,2023-11-08,2023-11-08,合同会社Ｒ‐Ｃｒａｆｔｅｒｓ,,合同会社,東京都,新宿区,西新宿３丁目３番１３号西新宿水間ビル６階,,13,104,1600023,,,,,,,2023-11-08,1,,,,,アールクラフターズ,0
396,2011103013720,新規,0,2023-11-08,2023-11-08,合同会社ｐｌｕｓ　ｏＮｅ,,合同会社,東京都,新宿区,新宿７丁目２７番４７号オルソ東新宿３０１,,13,104,1600022,,,,,,,2023-11-08,1,,,,,プラスワン,0
403,2011501029954,新規,0,2023-11-08,2023-11-08,クイーンズリサイクル株式会社,,株式会社,東京都,北区,中里２丁目１８－１０サニービル３階,,13,117,1140015,,,,,,,2023-11-08,1,,,,,クイーンズリサイクル,0
407,2011801043300,新規,0,2023-11-08,2023-11-08,株式会社ＮＯＲ　ＤＥＳＩＧＮ,,株式会社,東京都,足立区,西新井１丁目１４－５,,13,121,1230841,,,,,,,2023-11-08,1,,,,,ノアデザイン,0
408,2012301013652,新規,0,2023-11-08,2023-11-08,株式会社ＲＡＷＤＲＩＰ,,株式会社,東京都,町田市,森野１丁目３９番１７号,,13,209,1940022,,,,,,,2023-11-08,1,,,,,ロウドリップ,0
409,2012401041198,新規,0,2023-11-08,2023-11-08,株式会社東京電子ブレーカー,,株式会社,東京都,武蔵野市,吉祥寺南町２丁目７番５号ＮＰＬＵＳ２０３,,13,203,1800003,,,,,,,2023-11-08,1,,,,,トウキョウデンシブレーカー,0
411,2012403006265,新規,0,2023-11-08,2023-11-08,合同会社グリード,,合同会社,東京都,武蔵野市,吉祥寺本町１丁目１７番１０号石崎ビル１階,,13,203,1800004,,,,,,,2023-11-08,1,,,,,グリード,0
421,2012801022748,新規,0,2023-11-08,2023-11-08,株式会社山美ホームインテリア,,株式会社,東京都,東大和市,芋窪３丁目１６１８番地の１,,13,220,2070033,,,,,,,2023-11-08,1,,,,,ヤマヨシホームインテリア,0
423,2013301051592,新規,0,2023-11-08,2023-11-08,豊川商事株式会社,,株式会社,東京都,豊島区,池袋本町３丁目３０番５号１Ｆ,,13,116,1700011,,,,,,,2023-11-08,1,,,,,トヨカワショウジ,0
425,2013303006867,新規,0,2023-11-08,2023-11-08,合同会社ＧＴＨ,,合同会社,東京都,豊島区,池袋１丁目１番４号４階,,13,116,1700014,,,,,,,2023-11-08,1,,,,,ジーティーエイチ,0
430,2020001154361,新規,0,2023-11-08,2023-11-08,株式会社ＭＩＷＡラボラトリーズ,,株式会社,神奈川県,横浜市港北区,新横浜２丁目１４番地４シルバービル８階,,14,109,2220033,,,,,,,2023-11-08,1,,,,,ミワラボラトリーズ,0
431,2020001154394,新規,0,2023-11-08,2023-11-08,株式会社優工業,,株式会社,神奈川県,横浜市瀬谷区,阿久和南４丁目１番地２,,14,114,2460026,,,,,,,2023-11-08,1,,,,,ユウコウギョウ,0
433,2020003024892,新規,0,2023-11-08,2023-11-08,ＭＩＫＩＯ合同会社,,合同会社,神奈川県,横浜市南区,通町３丁目５０番地２号４０１室,,14,105,2320056,,,,,,,2023-11-08,1,,,,,ミキオ,0
436,2021001080639,新規,0,2023-11-08,2023-11-08,株式会社ＭＵＢＥ,,株式会社,神奈川県,藤沢市,辻堂新町１丁目１番２号５階,,14,205,2510042,,,,,,,2023-11-08,1,,,,,ムベ,0
445,2030001156984,新規,0,2023-11-08,2023-11-08,株式会社雲海商事,,株式会社,埼玉県,草加市,原町２丁目７番４９－２号,,11,221,3400048,,,,,,,2023-11-08,1,,,,,ウンカイショウジ,0
446,2030001157000,新規,0,2023-11-08,2023-11-08,株式会社まるふく商事,,株式会社,埼玉県,所沢市,大字下富９６５番地の１,,11,208,3590001,,,,,,,2023-11-08,1,,,,,マルフクショウジ,0
447,2030001157033,新規,0,2023-11-08,2023-11-08,Ｒ‐ｉｓｅ株式会社,,株式会社,埼玉県,大里郡寄居町,大字用土１７１０番地,,11,408,3691201,,,,,,,2023-11-08,1,,,,,ライズ,0
461,2040001130823,新規,0,2023-11-08,2023-11-08,株式会社ＦＦＦ,,株式会社,千葉県,市川市,市川１丁目１２番８号北澤ビル２Ｆ,,12,203,2720034,,,,,,,2023-11-08,1,,,,,エフエフエフ,0
462,2040001130831,新規,0,2023-11-08,2023-11-08,和連勝株式会社,,株式会社,千葉県,山武市,木原８５７番地７,,12,237,2891212,,,,,,,2023-11-08,1,,,,,ワレンショウ,0
467,2040003023686,新規,0,2023-11-08,2023-11-08,合同会社エムビーエス,,合同会社,千葉県,野田市,中野台１４１番地の１３,,12,208,2780035,,,,,,,2023-11-08,1,,,,,エムビーエス,0
468,2040003023694,新規,0,2023-11-08,2023-11-08,合同会社ｍｏｊｉ,,合同会社,千葉県,八街市,八街ほ５５６番地５ライオンズマンション八街中央３０９号,,12,230,2891115,,,,,,,2023-11-08,1,,,,,モジ,0
469,2040005022190,新規,0,2023-11-08,2023-11-08,一般社団法人ＬＯＩＢＥＣ,,その他の設立登記法人,千葉県,千葉市中央区,星久喜町５９３番地６Ｂ号,,12,101,2600808,,,,,,,2023-11-08,1,,,,,ロイベック,0
474,2050001053800,新規,0,2023-11-08,2023-11-08,タカアンドトモ株式会社,,株式会社,茨城県,稲敷郡阿見町,大字荒川本郷２２６－３－Ｂ室,,08,443,3001152,,,,,,,2023-11-08,1,,,,,タカアンドトモ,0
479,2060003004800,新規,0,2023-11-08,2023-11-08,合同会社ＳＨＡＭＩＭ　ＩＮＴＥＲＮＡＴＩＯＮＡＬ,,合同会社,栃木県,宇都宮市,平松本町３５８番地４メゾンＫＩ－１０６号室,00132562,09,201,3210932,,,,,,,2023-11-08,1,,,,,シャミムインターナショナル,0
495,2100001036931,新規,0,2023-11-08,2023-11-08,株式会社岩垂音楽工房,,株式会社,長野県,松本市,大字笹賀５０８７番地６４,,20,202,3990033,,,,,,,2023-11-08,1,,,,,イワダレオンガクコウボウ,0
496,2100001036948,新規,0,2023-11-08,2023-11-08,株式会社ジントランスレーター,,株式会社,長野県,上田市,東内２５１８番地１,,20,203,3860413,,,,,,,2023-11-08,1,,,,,ジントランスレーター,0
497,2100001036956,新規,0,2023-11-08,2023-11-08,株式会社エイト,,株式会社,長野県,佐久市,岩村田５０３３番地３ＳＡＫＵＤＡＩＲＡＰＩＥＣＥ内,,20,217,3850022,,,,,,,2023-11-08,1,,,,,エイト,0
501,2110003005207,新規,0,2023-11-08,2023-11-08,ＫＡＰＰＡ　ＴＲＡＶＥＬ合同会社,,合同会社,新潟県,新潟市中央区,上所１丁目１２－Ａ９２０,,15,103,9500994,,,,,,,2023-11-08,1,,,,,カッパトラベル,0
513,2120001259497,新規,0,2023-11-08,2023-11-08,株式会社ＢＵＬＬ,,株式会社,大阪府,大阪市西区,北堀江２丁目１番１３－３０１号,,27,106,5500014,,,,,,,2023-11-08,1,,,,,ブル,0
514,2120001259539,新規,0,2023-11-08,2023-11-08,株式会社ＮＹサービス,,株式会社,大阪府,大阪市中央区,内本町１丁目２－１４秀和ビル２階,,27,128,5400026,,,,,,,2023-11-08,1,,,,,エヌワイサービス,0
515,2120001259571,新規,0,2023-11-08,2023-11-08,株式会社ＳＤＬＡＢ,,株式会社,大阪府,寝屋川市,下神田町１３－１０,,27,215,5720054,,,,,,,2023-11-08,1,,,,,エスディラボ,0
516,2120001259588,新規,0,2023-11-08,2023-11-08,株式会社ＯＭコンサルティング,,株式会社,大阪府,大阪市天王寺区,上本町７丁目１番１６－６０７号,,27,109,5430001,,,,,,,2023-11-08,1,,,,,オーエムコンサルティング,0
517,2120001259670,新規,0,2023-11-08,2023-11-08,株式会社ＲｏｂｏＴｅｃｈ,,株式会社,大阪府,大阪市西成区,長橋３丁目５番３号長橋マンションきずな２０１号,,27,122,5570025,,,,,,,2023-11-08,1,,,,,ロボテック,0
518,2120003025294,新規,0,2023-11-08,2023-11-08,合同会社アセットトレス,,合同会社,大阪府,大阪市北区,梅田１丁目１‐３大阪駅前第３ビル２９階１‐１‐１号室,,27,127,5300001,,,,,,,2023-11-08,1,,,,,アセットトレス,0
519,2120003025303,新規,0,2023-11-08,2023-11-08,合同会社もみじ,,合同会社,大阪府,大阪市淀川区,三津屋南２丁目１１－２７－４０２号室,,27,123,5320035,,,,,,,2023-11-08,1,,,,,モミジ,0
528,2120103005527,新規,0,2023-11-08,2023-11-08,合同会社ネクサス,,合同会社,大阪府,堺市東区,北野田１０８４番地１９０３号,,27,143,5998123,,,,,,,2023-11-08,1,,,,,ネクサス,0
529,2120901048314,新規,0,2023-11-08,2023-11-08,株式会社Ｈ＆Ｍセキュリティー,,株式会社,大阪府,豊中市,本町９丁目２－３,,27,203,5600021,,,,,,,2023-11-08,1,,,,,エイチアンドエムセキュリティー,0
530,2120901048339,新規,0,2023-11-08,2023-11-08,東輝商事株式会社,,株式会社,大阪府,池田市,住吉２丁目９番１６号,,27,204,5630033,,,,,,,2023-11-08,1,,,,,トウキショウジ,0
534,2122003002728,新規,0,2023-11-08,2023-11-08,合同会社ＡｃｃｅｓｓｏｒｉｅｓＣｌｏｖｅｒ,,合同会社,大阪府,大東市,三箇４丁目１０番７号Ｒｅｎａｔｕｓ大東２－Ｂ,,27,218,5740077,,,,,,,2023-11-08,1,,,,,アクセサリークローバー,0
547,2130001075695,新規,0,2023-11-08,2023-11-08,釵釧金株式会社,,株式会社,京都府,京都市伏見区,深草西浦町６丁目６５番地１深草団地２－５０４,,26,109,6120029,,,,,,,2023-11-08,1,,,,,サイセイキン,0
552,2140001132215,新規,0,2023-11-08,2023-11-08,株式会社福来朗ｒｅｐａｉｒ,,株式会社,兵庫県,神戸市東灘区,住吉南町１丁目６番１６号グラウンド．Ｓ１０２号,,28,101,6580041,,,,,,,2023-11-08,1,,,,,フクロウリペア,0
554,2140003019781,新規,0,2023-11-08,2023-11-08,ａｔｅｌｉｅｒ　ｈａｋｕ合同会社,,合同会社,兵庫県,丹波市,柏原町柏原１６番地サンコウドウビルヂィング１Ｆ,,28,223,6693309,,,,,,,2023-11-08,1,,,,,アトリエハク,0
564,2180001158776,新規,0,2023-11-08,2023-11-08,株式会社Ｈｏｌｉｄａｙ,,株式会社,愛知県,名古屋市天白区,土原４丁目１２６番地,,23,116,4680026,,,,,,,2023-11-08,1,,,,,ホリデイ,0
565,2180001158784,新規,0,2023-11-08,2023-11-08,株式会社Ｐｏｗｅｒ　Ｄｅｓｉｇｎ　Ｌａｂｏｒａｔｏｒｙ,,株式会社,愛知県,名古屋市千種区,不老町１番,,23,101,4640814,,,,,,,2023-11-08,1,,,,,パワーデザインラボラトリー,0
566,2180001158834,新規,0,2023-11-08,2023-11-08,岩昌株式会社,,株式会社,愛知県,名古屋市南区,柵下町４丁目６番地,,23,112,4570044,,,,,,,2023-11-08,1,,,,,ガンショウ,0
578,2200003006146,新規,0,2023-11-08,2023-11-08,合同会社ＴＹ,,合同会社,岐阜県,岐阜市,茜部菱野３丁目１３菱野ビル１Ｆ,,21,201,5008268,,,,,,,2023-11-08,1,,,,,ティーワイ,0
579,2210005010120,新規,0,2023-11-08,2023-11-08,一般社団法人福井ゆめ教育協会,,その他の設立登記法人,福井県,福井市,光陽３丁目１番３０号ＳｔｅｐＨｏｕｓｅ３Ｆ,,18,201,9100026,,,,,,,2023-11-08,1,,,,,フクイユメキョウイクキョウカイ,0
580,2220001025666,新規,0,2023-11-08,2023-11-08,ＩＴｓ株式会社,,株式会社,石川県,小松市,園町ハ１７８番地１,,17,203,9230801,,,,,,,2023-11-08,1,,,,,イッツ,0
581,2220001025682,新規,0,2023-11-08,2023-11-08,株式会社ＬＶＥ,,株式会社,石川県,白山市,井口町南３番地３,,17,210,9202154,,,,,,,2023-11-08,1,,,,,エルブイイー,0
583,2240001062369,新規,0,2023-11-08,2023-11-08,株式会社ＷＥＥＤ,,株式会社,広島県,広島市東区,上温品１丁目５２４番地１,,34,102,7320032,,,,,,,2023-11-08,1,,,,,ウィード,0
584,2240001062385,新規,0,2023-11-08,2023-11-08,株式会社水の音,,株式会社,広島県,広島市西区,庚午南１丁目３１番６－２０２号,,34,104,7330823,,,,,,,2023-11-08,1,,,,,ミズノネ,0
593,2260003004490,新規,0,2023-11-08,2023-11-08,合同会社山加藝術,,合同会社,岡山県,赤磐市,周匝１３５２番地,,33,213,7012503,,,,,,,2023-11-08,1,,,,,ヤマカゲイジュツ,0
601,2290001103630,新規,0,2023-11-08,2023-11-08,ランドチェック株式会社,,株式会社,福岡県,大野城市,白木原１丁目７番４４号,,40,219,8160943,,,,,,,2023-11-08,1,,,,,ランドチェック,0
602,2290001103655,新規,0,2023-11-08,2023-11-08,株式会社ａｄｓｃｅｎｅｒｙ,,株式会社,福岡県,福岡市南区,老司２丁目１１番１９号,,40,134,8111346,,,,,,,2023-11-08,1,,,,,アドシナリー,0
604,2290003014586,新規,0,2023-11-08,2023-11-08,合同会社Ｓｉｍｐｌｅ,,合同会社,福岡県,福岡市南区,中尾１丁目２７番１０号,,40,134,8111364,,,,,,,2023-11-08,1,,,,,シンプル,0
606,2300001013522,新規,0,2023-11-08,2023-11-08,株式会社Ｍプラス,,株式会社,佐賀県,唐津市,和多田南先石４０８３番地３,,41,202,8470081,,,,,,,2023-11-08,1,,,,,エムプラス,0
608,2300003002044,新規,0,2023-11-08,2023-11-08,Ｋ‐ｓｈｉｎ合同会社,,合同会社,佐賀県,唐津市,町田１７８８番地１３,,41,202,8470821,,,,,,,2023-11-08,1,,,,,ケイシン,0
620,2330001031439,新規,0,2023-11-08,2023-11-08,肉の大塚株式会社,00132556,株式会社,熊本県,阿蘇郡西原村,大字布田５９９番地の２,,43,432,8612403,,,,,,,2023-11-08,1,,,,,ニクノオオツカ,0
621,2330001031447,新規,0,2023-11-08,2023-11-08,株式会社Ｋ・Ｋ,,株式会社,熊本県,熊本市東区,上南部４丁目８番２６号,,43,102,8618010,,,,,,,2023-11-08,1,,,,,,0
624,2340001026058,新規,0,2023-11-08,2023-11-08,株式会社魚見山荘アグリクラブ,,株式会社,鹿児島県,指宿市,東方１０４７２番地３,,46,210,8910404,,,,,,,2023-11-08,1,,,,,ウオミサンソウアグリクラブ,0
627,2350001018649,新規,0,2023-11-08,2023-11-08,株式会社ＣＯ．ＣＯ,,株式会社,宮崎県,宮崎市,丸山２丁目６９番地ＡＫＨＭ３０１号,,45,201,8800052,,,,,,,2023-11-08,1,,,,,ココ,0
632,2360003013457,新規,0,2023-11-08,2023-11-08,合同会社Ｎ．Ｓオートサービス,,合同会社,沖縄県,南城市,大里字平良２５７０番地１,,47,215,9011208,,,,,,,2023-11-08,1,,,,,エヌエスオートサービス,0
634,2370001050609,新規,0,2023-11-08,2023-11-08,株式会社ボルジャーノ,,株式会社,宮城県,仙台市太白区,柳生４丁目１０番地の３,,04,104,9811106,,,,,,,2023-11-08,1,,,,,ボルジャーノ,0
638,2380001034123,新規,0,2023-11-08,2023-11-08,株式会社ＩＣ,,株式会社,福島県,いわき市,平字新田前１－４アパートメントハウスアーデル５０１,,07,204,9708026,,,,,,,2023-11-08,1,,,,,アイシー,0
642,2400001016457,新規,0,2023-11-08,2023-11-08,株式会社リアン・エテルネル,,株式会社,岩手県,一関市,末広２丁目１番４２号,,03,209,0210032,,,,,,,2023-11-08,1,,,,,リアンエテルネル,0
644,2410001013635,新規,0,2023-11-08,2023-11-08,株式会社Ｄｅｌｉｇｈｔｅｄ,,株式会社,秋田県,男鹿市,北浦西水口字堂ノ前５５番地２,,05,206,0100686,,,,,,,2023-11-08,1,,,,,ディライティッド,0
649,2430001090375,新規,0,2023-11-08,2023-11-08,Ｓ．Ｅ．Ｃ．株式会社,,株式会社,北海道,札幌市中央区,大通西１５丁目３番地１２大通西ビル６階,,01,101,0600042,,,,,,,2023-11-08,1,,,,,エスイーシー,0
650,2430001090391,新規,0,2023-11-08,2023-11-08,株式会社ＭＺＢ,,株式会社,北海道,札幌市中央区,南四条東４丁目１番３９－２０２号,,01,101,0600054,,,,,,,2023-11-08,1,,,,,エムゼットビー,0
658,2470001019882,新規,0,2023-11-08,2023-11-08,株式会社藤田,,株式会社,香川県,三豊市,詫間町松崎２７７０番地１６９,,37,208,7691102,,,,,,,2023-11-08,1,,,,,フジタ,0
665,2700150116341,新規,0,2023-11-08,2023-11-08,ｆｏｓｈａｎｙｏｎｇｌｉｗｅｉｊｉｎｇｍｉｋｅｊｉｙｏｕｘｉａｎｇｏｎｇｓｉ,,外国会社等,,,,,,,,１１　ｈａｏ　ｅｒ　ｌｏｕ　ｌｕｏｇｅ　ｍａｄｏｕ　ｇｏｎｇｙｅｑｕ，ｎａｎｚｈｕａｎｇ，ｃｈａｎｃｈｅｎｇ，ｆｏｓｈａｎ，ｇｕａｎｇｄｏｎｇ，ｃｈｉｎａ,,,,,,2023-11-08,1,,,,,フォーシャンヨンリウェイセイミツテクノロジーユウゲンカイシャ,0
666,2700150121424,新規,0,2023-11-08,2023-10-26,広島県共同募金会　海田町共同募金委員会,,その他,広島県,安芸郡海田町,日の出町２－３５,,34,304,7360035,,,,,,,2023-10-26,1,,,,,ヒロシマケンキヨウドウボキンカイカイタチヨウキヨウドウボキンイインカイ,0
667,2700150121894,新規,0,2023-11-08,2023-11-08,ｔｏｎｇｈｕａｓｈｉｙｕｅｘｉｎｇｓｈａｎｇｍａｏｙｏｕｘｉａｎｇｏｎｇｓｉ,,外国会社等,,,,,,,,ｄｏｎｇｃｈａｎｇｑｕｙｕｂｅｉｈｕｔｏｎｇ８９０２ｄｏｎｇ１ｄａｎｙｕａｎ２０２ｓｈｉ　ｔｏｎｇｈｕａｓｈｉ　ｊｉｌｉｎｓｈｅｎｇ　１３４０００　ＣＮ,,,,,,2023-11-08,1,,,,,ツウカシヤクコウショウボウユウゲンコウシ,0
668,2700150121903,新規,0,2023-11-08,2023-11-08,ｈａｎｇｚｈｏｕｌｏｎｇｐｅｎｇｍａｏｙｉ　ｙｏｕｘｉａｎｇｏｎｇｓｉ,,外国会社等,,,,,,,,ｚｈｅｊｉａｎｇｓｈｅｎｇ　ｈａｎｇｚｈｏｕｓｈｉ　ｘｉｈｕｑｕ　ｌｉｎｇｆｕｓｈａｎｇｗｕｚｈｏｎｇｘｉｎ　２ｈａｏｌｏｕ　１６１２ｓｈｉ　３１００００　ＣＮ,,,,,,2023-11-08,1,,,,,コウシュウロンペンマオイヨウシェンゴンスー,0
679,3010001239773,新規,0,2023-11-08,2023-11-08,株式会社ＯＮＯＤＥＲＡヘルスケアサービス,,株式会社,東京都,千代田区,大手町１丁目１番３号,,13,101,1000004,,,,,,,2023-11-08,1,,,,,オノデラヘルスケアサービス,0
680,3010001239798,新規,0,2023-11-08,2023-11-08,ＫＧホールディングス株式会社,,株式会社,東京都,千代田区,平河町２丁目１６番１号平河町森タワー１０階,,13,101,1020093,,,,,,,2023-11-08,1,,,,,ケージーホールディングス,0
682,3010003042168,新規,0,2023-11-08,2023-11-08,合同会社ＰＦシリウス,,合同会社,東京都,千代田区,平河町１丁目６番１５号シルスフィア会計事務所内,,13,101,1020093,,,,,,,2023-11-08,1,,,,,ピーエフシリウス,0
701,3010401178324,新規,0,2023-11-08,2023-11-08,株式会社ＩＢＯＯＳＵＮ　ＪＡＰＡＮ,,株式会社,東京都,港区,南青山１丁目１３番５号４０２,,13,103,1070062,,,,,,,2023-11-08,1,,,,,アイブサンジャパン,0
702,3010401178357,新規,0,2023-11-08,2023-11-08,株式会社ＤＯＯＲＳ,,株式会社,東京都,港区,赤坂４丁目８番１９号赤坂フロントタウン３階,,13,103,1070052,,,,,,,2023-11-08,1,,,,,ドアーズ,0
703,3010401178373,新規,0,2023-11-08,2023-11-08,ＲＡＹ　Ｐａｒｔｎｅｒｓ株式会社,,株式会社,東京都,港区,麻布十番１丁目５番１０号,,13,103,1060045,,,,,,,2023-11-08,1,,,,,アールエーワイパートナーズ,0
709,3010501051298,新規,0,2023-11-08,2023-11-08,株式会社ｈａｐｐｙ　ｓｐａｃｅ,,株式会社,東京都,台東区,清川２丁目３６番１１―２０２号アリュージュ南千住,,13,106,1110022,,,,,,,2023-11-08,1,,,,,ハッピースペース,0
710,3010601064092,新規,0,2023-11-08,2023-11-08,ＧＲＳ株式会社,,株式会社,東京都,墨田区,錦糸１丁目７番２－３０４号ベルガーデンハイツ,,13,107,1300013,,,,,,,2023-11-08,1,,,,,ジーアールエス,0
711,3010601064101,新規,0,2023-11-08,2023-11-08,Ｊｏｙｆｕｌｌ　Ｖｉｌｌａｇｅ　Ｐａｒｔｎｅｒｓ株式会社,,株式会社,東京都,江東区,豊洲３丁目４番１－１６０５号,,13,108,1350061,,,,,,,2023-11-08,1,,,,,ジョイフルヴィレッジパートナーズ,0
712,3010603010466,新規,0,2023-11-08,2023-11-08,ＭＭ３２１合同会社,,合同会社,東京都,江東区,豊洲５丁目１番１３号ブランズタワー豊洲３０１１号室,,13,108,1350061,,,,,,,2023-11-08,1,,,,,エムエムサンニイチ,0
713,3010701045091,新規,0,2023-11-08,2023-11-08,株式会社ＳＯＴ,,株式会社,東京都,品川区,西五反田４丁目９－１４ポルトグランデ目黒かむろ坂１５号室,,13,109,1410031,,,,,,,2023-11-08,1,,,,,ソット,0
715,3010803004739,新規,0,2023-11-08,2023-11-08,合同会社ととあ,,合同会社,東京都,大田区,南馬込４丁目１７番１６号,,13,111,1430025,,,,,,,2023-11-08,1,,,,,トトア,0
718,3010903008573,新規,0,2023-11-08,2023-11-08,ステラ合同会社,,合同会社,東京都,世田谷区,宮坂１丁目１８番１０号ハウス華１０１号室,,13,112,1560051,,,,,,,2023-11-08,1,,,,,ステラ,0
727,3011103013728,新規,0,2023-11-08,2023-11-08,Ｉｎｎｏｖｏ合同会社,,合同会社,東京都,新宿区,西新宿３丁目３番１３号西新宿水間ビル２Ｆ,,13,104,1600023,,,,,,,2023-11-08,1,,,,,イノーボ,0
728,3011201025030,新規,0,2023-11-08,2023-11-08,株式会社タモツ,,株式会社,東京都,中野区,中野２丁目１９番２号リードシー中野ビル３Ｆ,,13,114,1640001,,,,,,,2023-11-08,1,,,,,タモツ,0
729,3011203004222,新規,0,2023-11-08,2023-11-08,合同会社ゼット,,合同会社,東京都,中野区,中野５丁目５２番１５－９０６号,,13,114,1640001,,,,,,,2023-11-08,1,,,,,ゼット,0
734,3011501029953,新規,0,2023-11-08,2023-11-08,株式会社Ｃｅｒｂｅｒｕｓ,,株式会社,東京都,荒川区,町屋２丁目１７番１５号,,13,118,1160001,,,,,,,2023-11-08,1,,,,,サーベラス,0
735,3011501029961,新規,0,2023-11-08,2023-11-08,株式会社ｓｔｙｌｅｓ,,株式会社,東京都,荒川区,南千住２丁目２２番１号ルガルガーデン５０３,,13,118,1160003,,,,,,,2023-11-08,1,,,,,スタイルス,0
739,3011701026726,新規,0,2023-11-08,2023-11-08,株式会社Ｈｏｍｅｓｔ,,株式会社,東京都,江戸川区,東葛西７丁目２０番１２－１０３号,,13,123,1340084,,,,,,,2023-11-08,1,,,,,ホーメスト,0
740,3011701026734,新規,0,2023-11-08,2023-11-08,株式会社アカモ,,株式会社,東京都,江戸川区,平井１丁目２番１１号シャルマンコーポ平井１０３,,13,123,1320035,,,,,,,2023-11-08,1,,,,,アカモ,0
741,3011703003649,新規,0,2023-11-08,2023-11-08,合同会社Ｋ．ｆａｍｉｌｙ,,合同会社,東京都,江戸川区,西小岩２丁目５番９号,,13,123,1330057,,,,,,,2023-11-08,1,,,,,ケーファミリー,0
745,3011801043290,新規,0,2023-11-08,2023-11-08,あすなろ商事株式会社,,株式会社,東京都,足立区,梅島３丁目３９－１８山中ビル２階３階,,13,121,1210816,,,,,,,2023-11-08,1,,,,,アスナロショウジ,0
746,3011801043299,新規,0,2023-11-08,2023-11-08,高瀬工業株式会社,00132565,株式会社,東京都,足立区,入谷９丁目１５番２６号２Ｆ,,13,121,1210836,,,,,,,2023-11-08,1,,,,,タカセコウギョウ,0
747,3012301013651,新規,0,2023-11-08,2023-11-08,株式会社ＤＡＭＡＧＥＤＯＮＥ,,株式会社,東京都,町田市,森野１丁目３９番１７号,,13,209,1940022,,,,,,,2023-11-08,1,,,,,ダメージドン,0
750,3012401041197,新規,0,2023-11-08,2023-11-08,株式会社あいわ,,株式会社,東京都,調布市,布田３丁目４番地５,,13,208,1820024,,,,,,,2023-11-08,1,,,,,アイワ,0
751,3012403006256,新規,0,2023-11-08,2023-11-08,合同会社エバーグリーン,,合同会社,東京都,府中市,片町１丁目１３番１２号,,13,206,1830021,,,,,,,2023-11-08,1,,,,,エバーグリーン,0
752,3012701017938,新規,0,2023-11-08,2023-11-08,株式会社Ｍｉｋｏｔｏ　Ｓｔｕｄｉｏ,,株式会社,東京都,東村山市,栄町３丁目３２－１４,,13,213,1890013,,,,,,,2023-11-08,1,,,,,ミコトスタジオ,0
756,3013301051583,新規,0,2023-11-08,2023-11-08,株式会社Ｓｅｌｌｗａｙ,,株式会社,東京都,豊島区,池袋２丁目５７－６ＭＣオフィス池袋西口ビル４Ｆ,,13,116,1710014,,,,,,,2023-11-08,1,,,,,セルウェイ,0
757,3013303006866,新規,0,2023-11-08,2023-11-08,合同会社Ｓｕｉ,,合同会社,東京都,豊島区,目白５丁目２１番１５号オクトＡＫ４０１号,,13,116,1710031,,,,,,,2023-11-08,1,,,,,スイ,0
763,3020001154336,新規,0,2023-11-08,2023-11-08,未来図オペレーション株式会社,,株式会社,神奈川県,川崎市川崎区,殿町２丁目６番２６号第一岩田１階,,14,131,2100821,,,,,,,2023-11-08,1,,,,,ミライズオペレーション,0
764,3020001154377,新規,0,2023-11-08,2023-11-08,株式会社Ｂｅａｕｔｙ＆Ｕ　Ｓｐａ,,株式会社,神奈川県,横浜市中区,元町３丁目１２４番地１高橋第２ビル２Ｆ,,14,104,2310861,,,,,,,2023-11-08,1,,,,,ビューティーアンドユースパ,0
767,3020003024883,新規,0,2023-11-08,2023-11-08,ＢＡＳＳＦＯＲ合同会社,,合同会社,神奈川県,横浜市港北区,大倉山３丁目１３番７号アイビットビル３０３,,14,109,2220037,,,,,,,2023-11-08,1,,,,,ベースフォー,0
768,3020003024891,新規,0,2023-11-08,2023-11-08,Ｆｕｍｉ合同会社,,合同会社,神奈川県,横浜市南区,通町３丁目５０番地２号３０５室,,14,105,2320056,,,,,,,2023-11-08,1,,,,,フミ,0
769,3020003024925,新規,0,2023-11-08,2023-11-08,ＳＨＩＮＡＧＡＷＡ　ＲＡＣＩＮＧ合同会社,,合同会社,神奈川県,川崎市川崎区,殿町１丁目１８番１１号メゾーン双葉１階,,14,131,2100821,,,,,,,2023-11-08,1,,,,,シナガワレーシング,0
770,3020003024941,新規,0,2023-11-08,2023-11-08,合同会社ｏｎ　ｔｈｅ　ｍｏｖｅ,,合同会社,神奈川県,川崎市高津区,久本３丁目１－１４ｅＭＰＡＲＫＢＬＤＧ１階,,14,134,2130011,,,,,,,2023-11-08,1,,,,,オンザムーブ,0
771,3020003024958,新規,0,2023-11-08,2023-11-08,アガサ合同会社,,合同会社,神奈川県,横浜市泉区,和泉町７５６６ガーデンプレイス弐番館２０６号,,14,116,2450016,,,,,,,2023-11-08,1,,,,,アガサ,0
775,3021003013769,新規,0,2023-11-08,2023-11-08,合同会社Ａｕｔｕｍｎ　Ｓｏｕｎｄ,,合同会社,神奈川県,三浦郡葉山町,一色７０番地の１３,,14,301,2400111,,,,,,,2023-11-08,1,,,,,オータムサウンド,0
786,3030001156983,新規,0,2023-11-08,2023-11-08,株式会社ＧＲＩＴ,,株式会社,埼玉県,蕨市,錦町３丁目３番２３号,,11,223,3350005,,,,,,,2023-11-08,1,,,,,グリット,0
787,3030001157016,新規,0,2023-11-08,2023-11-08,株式会社ＰＬＵＳ　Ｘ,,株式会社,埼玉県,越谷市,大成町６丁目２６７番地,,11,222,3430825,,,,,,,2023-11-08,1,,,,,プラスエックス,0
788,3030001157024,新規,0,2023-11-08,2023-11-08,株式会社橋本工務店,,株式会社,埼玉県,さいたま市岩槻区,大字横根５３１番地６,,11,110,3390036,,,,,,,2023-11-08,1,,,,,ハシモトコウムテン,0
789,3030001157032,新規,0,2023-11-08,2023-11-08,株式会社Ｍｅｔａ　Ｑｕｅｂｅ,,株式会社,埼玉県,鴻巣市,本町４丁目８番１４－１０８号アンプルールフェール鴻巣,,11,217,3650038,,,,,,,2023-11-08,1,,,,,メタキューブ,0
790,3030001157049,新規,0,2023-11-08,2023-11-08,株式会社ベイフィールド,,株式会社,埼玉県,さいたま市浦和区,高砂４丁目９番１３号,,11,107,3300063,,,,,,,2023-11-08,1,,,,,ベイフィールド,0
795,3030003022886,新規,0,2023-11-08,2023-11-08,合同会社うちくる,,合同会社,埼玉県,朝霞市,根岸台１丁目５号８番地,,11,227,3510005,,,,,,,2023-11-08,1,,,,,ウチクル,0
796,3030003022936,新規,0,2023-11-08,2023-11-08,北埼商事合同会社,,合同会社,埼玉県,加須市,阿良川７９８番地,,11,210,3470047,,,,,,,2023-11-08,1,,,,,ホクサイショウジ,0
797,3030003022960,新規,0,2023-11-08,2023-11-08,合同会社遠山,,合同会社,埼玉県,狭山市,柏原４０９５番地,,11,215,3501335,,,,,,,2023-11-08,1,,,,,トオヤマ,0
806,3040001130830,新規,0,2023-11-08,2023-11-08,株式会社ＫＪ物流,,株式会社,千葉県,東金市,関下４５４番地６５,,12,213,2830038,,,,,,,2023-11-08,1,,,,,ケージェイブツリュウ,0
812,3040003023677,新規,0,2023-11-08,2023-11-08,ＫｉｍＢｕｎ建設業合同会社,,合同会社,千葉県,鎌ケ谷市,東道野辺３丁目１０番２３号,,12,224,2730115,,,,,,,2023-11-08,1,,,,,キンブンケンセツギョウ,0
814,3050001053790,新規,0,2023-11-08,2023-11-08,株式会社Ｉ‐ＧＡＲＤＥＮ,,株式会社,茨城県,ひたちなか市,大字金上８１２番地１１,,08,221,3120022,,,,,,,2023-11-08,1,,,,,アイガーデン,0
816,3060003004790,新規,0,2023-11-08,2023-11-08,ＴＮ　Ｒｅｓｏｒｔｓ合同会社,,合同会社,栃木県,日光市,小百１８３４番地１,,09,206,3211265,,,,,,,2023-11-08,1,,,,,ティーエヌリゾーツ,0
821,3080401026831,新規,0,2023-11-08,2023-11-08,株式会社深谷和合プランニング,,株式会社,静岡県,浜松市中区,和合町２７番地の１０４,,22,131,4338125,,,,,,,2023-11-08,1,,,,,フカヤワゴウプランニング,0
835,3120001259257,新規,0,2023-11-08,2023-11-08,株式会社ＵＮＳＡ,,株式会社,大阪府,大阪市中央区,南船場３丁目７番２７号ＮＬＣ心斎橋ビル８Ｆ,,27,128,5420081,,,,,,,2023-11-08,1,,,,,ウンサ,0
836,3120001259562,新規,0,2023-11-08,2023-11-08,株式会社シャルル,,株式会社,大阪府,大阪市西区,北堀江１丁目２番１６号Ｓ－５０２号室おおきにサイタ・サイタビルヂング,,27,106,5500014,,,,,,,2023-11-08,1,,,,,シャルル,0
837,3120001259579,新規,0,2023-11-08,2023-11-08,Ｖａｌｕｅａｔｅ株式会社,,株式会社,大阪府,大阪市中央区,備後町３丁目３番３号サンビル備後町５Ｆ,,27,128,5410051,,,,,,,2023-11-08,1,,,,,バリュエイト,0
838,3120001259678,新規,0,2023-11-08,2023-11-08,ＢＳＪ株式会社,,株式会社,大阪府,大阪市中央区,島之内２丁目１５－１６－４０８,,27,128,5420082,,,,,,,2023-11-08,1,,,,,ビーエスジェイ,0
839,3120001259686,新規,0,2023-11-08,2023-11-08,株式会社Ｄ４Ｃ,,株式会社,大阪府,大阪市北区,大淀南１丁目３番１９号,,27,127,5310075,,,,,,,2023-11-08,1,,,,,ディーフォーシー,0
840,3120001259711,新規,0,2023-11-08,2023-11-08,ホワイトツリー株式会社,,株式会社,大阪府,大阪市平野区,平野北１丁目１０番２０号ユニハイム平野１０３号,,27,126,5470041,,,,,,,2023-11-08,1,,,,,ホワイトツリー,0
853,3120905006531,新規,0,2023-11-08,2023-11-08,一般社団法人マンション管理組合サポートセンター,,その他の設立登記法人,大阪府,吹田市,千里山竹園１丁目６番３－１１２号,,27,205,5650852,,,,,,,2023-11-08,1,,,,,マンションカンリクミアイサポートセンター,0
859,3122003002727,新規,0,2023-11-08,2023-11-08,合同会社喫茶クローバー,,合同会社,大阪府,大東市,三箇４丁目１０番７号Ｒｅｎａｔｕｓ大東２－Ｂ,,27,218,5740077,,,,,,,2023-11-08,1,,,,,キッサクローバー,0
864,3130001075703,新規,0,2023-11-08,2023-11-08,株式会社ティーズティーオフィス,,株式会社,京都府,京都市中京区,西ノ京池ノ内町８番地６,,26,104,6048375,,,,,,,2023-11-08,1,,,,,ティーズティーオフィス,0
872,3140001132214,新規,0,2023-11-08,2023-11-08,株式会社カーサ生野,,株式会社,兵庫県,神戸市東灘区,田中町５丁目２番１４号,,28,101,6580081,,,,,,,2023-11-08,1,,,,,カーサイクノ,0
873,3140001132222,新規,0,2023-11-08,2023-11-08,ＲＹＵＥＮＫＡＮ　ＰＬＡＮＴＳ株式会社,,株式会社,兵庫県,神戸市東灘区,渦森台４丁目２５番７号,,28,101,6580066,,,,,,,2023-11-08,1,,,,,リュウエンカンプランツ,0
874,3140001132263,新規,0,2023-11-08,2023-11-08,株式会社中田工務店,,株式会社,兵庫県,神戸市垂水区,名谷町２３０番地の６,,28,108,6550852,,,,,,,2023-11-08,1,,,,,ナカタコウムテン,0
876,3140003019789,新規,0,2023-11-08,2023-11-08,合同会社スパリン,,合同会社,兵庫県,神戸市北区,鈴蘭台南町４丁目１番５号,,28,109,6511113,,,,,,,2023-11-08,1,,,,,スパリン,0
877,3150001026852,新規,0,2023-11-08,2023-11-08,株式会社惣,,株式会社,奈良県,吉野郡大淀町,大字下渕１５０４番地,,29,442,6380821,,,,,,,2023-11-08,1,,,,,ソウ,0
887,3180001158775,新規,0,2023-11-08,2023-11-08,株式会社Ａｕｌａ,,株式会社,愛知県,一宮市,三条字安１７番地ハーモニーセブン２Ｅ号,,23,203,4940003,,,,,,,2023-11-08,1,,,,,アウラ,0
888,3180001158791,新規,0,2023-11-08,2023-11-08,株式会社リーラ,,株式会社,愛知県,東海市,加木屋町真崎７７番地２,,23,222,4770032,,,,,,,2023-11-08,1,,,,,リーラ,0
889,3180001158841,新規,0,2023-11-08,2023-11-08,株式会社ＨＩＧＥ,,株式会社,愛知県,名古屋市西区,笠取町２丁目９番地,,23,104,4510072,,,,,,,2023-11-08,1,,,,,ヒゲ,0
890,3180001158858,新規,0,2023-11-08,2023-11-08,シンエムケー株式会社,,株式会社,愛知県,名古屋市港区,入船１丁目４０５番地１,,23,111,4550032,,,,,,,2023-11-08,1,,,,,シンエムケー,0
891,3180001158874,新規,0,2023-11-08,2023-11-08,インディビオ株式会社,,株式会社,愛知県,稲沢市,国府宮３丁目１３番２１号,,23,220,4928137,,,,,,,2023-11-08,1,,,,,インディビオ,0
895,3180003025940,新規,0,2023-11-08,2023-11-08,クイナク合同会社,,合同会社,愛知県,名古屋市中区,橘１丁目１４番４３号,,23,106,4600016,,,,,,,2023-11-08,1,,,,,クイナク,0
896,3180003025965,新規,0,2023-11-08,2023-11-08,あさひ合同会社,,合同会社,愛知県,大府市,桃山町２丁目１２２番地の１,,23,223,4740026,,,,,,,2023-11-08,1,,,,,アサヒ,0
907,3200001041879,新規,0,2023-11-08,2023-11-08,株式会社一頂建設,,株式会社,岐阜県,各務原市,須衛町８丁目３７１番１,,21,213,5090108,,,,,,,2023-11-08,1,,,,,イッチョウケンセツ,0
911,3240001062368,新規,0,2023-11-08,2023-11-08,株式会社中川,,株式会社,広島県,広島市安佐北区,可部南３丁目１番１２号,,34,106,7310223,,,,,,,2023-11-08,1,,,,,ナカガワ,0
912,3240001062376,新規,0,2023-11-08,2023-11-08,株式会社日営シビル,,株式会社,広島県,福山市,今町１番１号,,34,207,7200046,,,,,,,2023-11-08,1,,,,,ニチエイシビルエイ,0
927,3260005011294,新規,0,2023-11-08,2023-11-08,特定非営利活動法人岡山救急医療セーフティネットワークＯＫＱＱ,,その他の設立登記法人,岡山県,岡山市北区,鹿田町２丁目５番１号臨床研究棟１階救命救急・災害医学講座医局,,33,101,7000914,,,,,,,2023-11-08,1,,,,,オカヤマキュウキュウイリョウセーフティネットワークオッケーキュウキュウ,0
928,3270001008871,新規,0,2023-11-08,2023-11-08,株式会社Ｒｅ．Ｃｏｎｎｅｃｔ,,株式会社,鳥取県,八頭郡智頭町,大字山根９番地２,,31,328,6891431,,,,,,,2023-11-08,1,,,,,リコネクト,0
937,3290001103662,新規,0,2023-11-08,2023-11-08,株式会社事務長ねっと,,株式会社,福岡県,福岡市博多区,博多駅前１丁目５番１号７階,,40,132,8120011,,,,,,,2023-11-08,1,,,,,ジムチョウネット,0
939,3290003014593,新規,0,2023-11-08,2023-11-08,Ｌｉｖ合同会社,,合同会社,福岡県,糸島市,加布里３丁目５‐３‐２０２,,40,230,8191124,,,,,,,2023-11-08,1,,,,,リブ,0
940,3300001013521,新規,0,2023-11-08,2023-11-08,ＥＫテクノ株式会社,,株式会社,佐賀県,武雄市,山内町大字三間坂甲１５６５０番地１,,41,206,8492303,,,,,,,2023-11-08,1,,,,,イーケイテクノ,0
946,3330001031438,新規,0,2023-11-08,2023-11-08,ｗａｒａｕｋａｎａｕ株式会社,,株式会社,熊本県,天草郡苓北町,志岐２５５番地１Ｍビル２Ｆ,,43,531,8632503,,,,,,,2023-11-08,1,,,,,ワラウカナウ,0
947,3330001031446,新規,0,2023-11-08,2023-11-08,株式会社ＮＥＸＵＳ,,株式会社,熊本県,熊本市東区,榎町２４番地６１,,43,102,8620917,,,,,,,2023-11-08,1,,,,,ネクサス,0
955,3350003004480,新規,0,2023-11-08,2023-11-08,合同会社西教文社,,合同会社,宮崎県,小林市,細野２３６番地１サイケンビル１０１号室,,45,205,8860004,,,,,,,2023-11-08,1,,,,,ニシキョウブンシャ,0
958,3360001032796,新規,0,2023-11-08,2023-11-08,株式会社伊芸農業生産法人,,株式会社,沖縄県,国頭郡金武町,字伊芸７４１番地１,,47,314,9041202,,,,,,,2023-11-08,1,,,,,イゲイノウギョウセイサンホウジン,0
960,3370001050608,新規,0,2023-11-08,2023-11-08,石綿含有建材事前調査仙台株式会社,,株式会社,宮城県,仙台市太白区,ひより台２７番１６号,,04,104,9820811,,,,,,,2023-11-08,1,,,,,イシワタガンユウケンザイジゼンチョウサセンダイ,0
966,3380003005609,新規,0,2023-11-08,2023-11-08,合同会社ＡＹＵＭＩ,,合同会社,福島県,郡山市,大槻町字上篠林４番地の３コスモビレッヂＩＩ２０３号,00132569,07,203,9630201,,,,,,,2023-11-08,1,,,,,アユミ,0
972,3420001018475,新規,0,2023-11-08,2023-11-08,株式会社やまき山本水産,,株式会社,青森県,下北郡大間町,大字奥戸字小奥戸４３４番地１,,02,423,0394602,,,,,,,2023-11-08,1,,,,,ヤマキヤマモトスイサン,0
974,3430003015602,新規,0,2023-11-08,2023-11-08,合同会社レゴリス,,合同会社,北海道,札幌市東区,北六条東５丁目１番地３クリーンリバーフィネス札幌ミッドステージセンター１４１７号,,01,103,0600906,,,,,,,2023-11-08,1,,,,,レゴリス,0
980,3490001010632,新規,0,2023-11-08,2023-11-08,株式会社ＳＴＡＮＤ　ＡＬＯＮＥ,,株式会社,高知県,香南市,野市町大谷２３０番地１,,39,211,7815233,,,,,,,2023-11-08,1,,,,,スタンドアローン,0
989,3700150114501,新規,0,2023-11-08,2023-11-08,Ｂｌａｃｋｓｐａｃｅ　Ｔｅｃｈ　Ｌｔｄ．,,外国会社等,,,,,,,,Ｒｏｏｍ６０６７，Ｆｌｏｏｒ６，Ｂｕｉｌｄｉｎｇ２，Ｙｏｎｇｘｉｎ　Ｔｉｍｅｓ　Ｓｑｕａｒｅ，Ｉｎｔｅｒｓｅｃｔｉｏｎ　ｏｆ　Ｄｏｎｇｂｉｎ　Ｒｏａｄ　ａｎｄ　Ｎａｎｇｕａｎｇ　Ｒｏａｄ，Ｄｅｎｇｌｉａｎｇ　Ｃｏｍｍｕｎｉｔｙ，Ｎａｎｓｈａｎ　Ｓｔｒｅｅｔ　Ｎａｎｓｈａｎ　Ｄｉｓｔｒｉｃｔ，Ｓｈｅｎｚｈｅｎ，ＧｕａｎｇＤｏｎｇ　５１８０００ＣＮ,,,,,,2023-11-08,1,,,,,ヘイコンジーシュトウズーシェンヂェンヨウシィェンゴンスー,0
990,3700150121893,新規,0,2023-11-08,2023-11-08,Ｓｈｅｎｚｈｅｎ　Ｈａｎｇｚｈｉ　Ｔｅｃｈｎｏｌｏｇｙ　Ｃｏ．，Ｌｔｄ．,,外国会社等,,,,,,,,ＦＵ　ＹＯＮＧ　ＦＥＮＧ　ＨＵＡＮＧ　ＤＯＮＧ　ＱＵ　ＢＡＯ　ＡＮ　ＧＵＡＮＧ　ＤＯＮＧ　ＳＨＥＮ　ＺＨＥＮ,,,,,,2023-11-08,1,,,,,シンセンコウチテクノロジーカンパニーリミティッド,0
991,3700150121902,新規,0,2023-11-08,2023-11-08,Ｚｈｅｎｇｚｈｏｕ　Ｆａｎｓｈｉ　Ｎｅｔｗｏｒｋ　Ｔｅｃｈｎｏｌｏｇｙ　Ｃｏ．，Ｌｔｄ,,外国会社等,,,,,,,,Ｎｏ．６０６，６ｔｈ　Ｆｌｏｏｒ，Ｂｕｉｌｄｉｎｇ　Ｇ，Ｅａｓｔ　ｏｆ　Ｈｅｇｕａｎｇ　Ｓｔｒｅｅｔ，Ｎｏｒｔｈ　ｏｆ　Ｓｈａｎｇｄｉｎｇ　Ｒｏａｄ，Ｚｈｅｎｇｄｏｎｇ　Ｎｅｗ　Ｄｉｓｔｒｉｃｔ，Ｚｈｅｎｇｚｈｏｕ　４５００００　ＣＮ,,,,,,2023-11-08,1,,,,,テイシュウファンシネットワークテクノロジーカンパニーリミテッド,0
992,3700150121935,新規,0,2023-11-08,2023-11-08,日立市ラジオ体操普及協議会,,その他,茨城県,日立市,助川町１丁目１－１,,08,202,3170065,,,,,,,2023-11-08,1,,,,,ヒタチシラジオタイソウフキュウキョウギカイ,0
1008,4010001239731,新規,0,2023-11-08,2023-11-08,リアルホールディングス株式会社,,株式会社,東京都,中央区,銀座１丁目２２－１１－２Ｆ,,13,102,1040061,,,,,,,2023-11-08,1,,,,,リアルホールディングス,0
1009,4010001239772,新規,0,2023-11-08,2023-11-08,株式会社エンジェルハート,,株式会社,東京都,文京区,本郷４丁目１６－６,,13,105,1130033,,,,,,,2023-11-08,1,,,,,エンジェルハート,0
1010,4010001239847,新規,0,2023-11-08,2023-11-08,株式会社Ｒ制作,,株式会社,東京都,中央区,銀座１丁目１２番４号Ｎ＆ＥＢＬＤ．６Ｆ,,13,102,1040061,,,,,,,2023-11-08,1,,,,,アールセイサク,0
1011,4010001239871,新規,0,2023-11-08,2023-11-08,株式会社２ｍｏｏｎ,,株式会社,東京都,中央区,日本橋室町１丁目１１番１２号日本橋水野ビル７Ｆ,,13,102,1030022,,,,,,,2023-11-08,1,,,,,ツームーン,0
1018,4010003042126,新規,0,2023-11-08,2023-11-08,カラバッシュ合同会社,,合同会社,東京都,中央区,勝どき２丁目９番１６－１０１号,,13,102,1040054,,,,,,,2023-11-08,1,,,,,カラバッシュ,0
1019,4010003042134,新規,0,2023-11-08,2023-11-08,合同会社Ｐｒｅｃｉｏｕｓ,,合同会社,東京都,千代田区,九段南２丁目５番９号パレスデュディオ九段北の丸５０４,,13,101,1020074,,,,,,,2023-11-08,1,,,,,プレシャス,0
1021,4010101015875,新規,0,2023-11-08,2023-11-08,株式会社スーパーアルプス物流,,株式会社,東京都,八王子市,滝山町２丁目３５１番地,,13,201,1920011,,,,,,,2023-11-08,1,,,,,スーパーアルプスブツリュウ,0
1030,4010401178331,新規,0,2023-11-08,2023-11-08,株式会社ＡＢＣサステナテーブル,,株式会社,東京都,港区,北青山２丁目７番２６－８０３号,,13,103,1070061,,,,,,,2023-11-08,1,,,,,エービーシーサステナテーブル,0
1031,4010401178364,新規,0,2023-11-08,2023-11-08,ＡＲＴＯＬＯＧＹ株式会社,,株式会社,東京都,港区,西麻布１丁目３番１８号ハレのぐちＢ１０２,,13,103,1060031,,,,,,,2023-11-08,1,,,,,アートロジー,0
1036,4010403031298,新規,0,2023-11-08,2023-11-08,Ｍｉｙａｍａ＆Ｊｕｎｇ　Ｐａｒｔｎｅｒｓ合同会社,,合同会社,東京都,港区,浜松町２丁目２番１５号浜松町ダイヤビル２Ｆ,,13,103,1050013,,,,,,,2023-11-08,1,,,,,ミヤマアンドジョンパートナーズ,0
1044,4010601064091,新規,0,2023-11-08,2023-11-08,株式会社Ｓａｎｊｕｓａｎ　Ｐｒｏｄｕｃｔｓ,,株式会社,東京都,江東区,深川２丁目１９番１号,,13,108,1350033,,,,,,,2023-11-08,1,,,,,サンジュウサンプロダクツ,0
1045,4010601064100,新規,0,2023-11-08,2023-11-08,東京華業株式会社,,株式会社,東京都,墨田区,向島４丁目１番１号－２０３号室,,13,107,1310033,,,,,,,2023-11-08,1,,,,,トウキョウカギョウ,0
1047,4010801034489,新規,0,2023-11-08,2023-11-08,株式会社タイエイネクスト,,株式会社,東京都,大田区,久が原４丁目４２番１１号,,13,111,1460085,,,,,,,2023-11-08,1,,,,,タイエイネクスト,0
1048,4010801034506,新規,0,2023-11-08,2023-11-08,株式会社ワーク・キャリア,,株式会社,東京都,大田区,大森西５丁目１番１６号,,13,111,1430015,,,,,,,2023-11-08,1,,,,,ワークキャリア,0
1052,4010901054156,新規,0,2023-11-08,2023-11-08,株式会社プロッシモコンサルティング,,株式会社,東京都,世田谷区,桜丘１丁目５番４号,,13,112,1560054,,,,,,,2023-11-08,1,,,,,プロッシモコンサルティング,0
1062,4011001157881,新規,0,2023-11-08,2023-11-08,Ｉ＆Ｈキャピタル株式会社,,株式会社,東京都,渋谷区,渋谷２丁目２４番１２号渋谷スクランブルスクエア１５階,,13,113,1500002,,,,,,,2023-11-08,1,,,,,アイアンドエイチキャピタル,0
1063,4011001158054,新規,0,2023-11-08,2023-11-08,株式会社ＨＰＳ　ＣＯＮＮＥＣＴ,,株式会社,東京都,渋谷区,道玄坂１丁目１０番８号渋谷道玄坂東急ビル２Ｆ－Ｃ,,13,113,1500043,,,,,,,2023-11-08,1,,,,,エイチピーエスコネクト,0
1065,4011003017893,新規,0,2023-11-08,2023-11-08,Ｓｕｍｍｉｔ　Ｓｅｅｋ合同会社,,合同会社,東京都,目黒区,緑が丘１丁目１１番１０号,,13,110,1520034,,,,,,,2023-11-08,1,,,,,サミットシーク,0
1071,4011101105055,新規,0,2023-11-08,2023-11-08,株式会社ａｒｔｅｒｉｏ,,株式会社,東京都,新宿区,余丁町６番４－１０７号,,13,104,1620055,,,,,,,2023-11-08,1,,,,,アーテリオ,0
1074,4011105010854,新規,0,2023-11-08,2023-11-08,一般社団法人カードローンメディア協会,,その他の設立登記法人,東京都,新宿区,新宿６丁目２７番２９－７１４号,,13,104,1600022,,,,,,,2023-11-08,1,,,,,カードローンメディアキョウカイ,0
1077,4011203004221,新規,0,2023-11-08,2023-11-08,氷舎ｍａｍａｔｏｋｏ合同会社,,合同会社,東京都,中野区,本町６丁目３１番２号,,13,114,1640012,,,,,,,2023-11-08,1,,,,,ヒョウシャママトコ,0
1088,4011801043298,新規,0,2023-11-08,2023-11-08,株式会社幸泉,,株式会社,東京都,葛飾区,立石１丁目１８番５号,,13,122,1240012,,,,,,,2023-11-08,1,,,,,コウセン,0
1089,4011801043307,新規,0,2023-11-08,2023-11-08,興家リアルエステート株式会社,,株式会社,東京都,葛飾区,金町５丁目３３－２５金町５丁目ビル,,13,122,1250042,,,,,,,2023-11-08,1,,,,,コウカリアルエステート,0
1090,4011803005924,新規,0,2023-11-08,2023-11-08,合同会社アールズ,,合同会社,東京都,葛飾区,新小岩２丁目２１番２１号Ｋ・Ｓ・Ｔハイツ１０３,,13,122,1240024,,,,,,,2023-11-08,1,,,,,アールズ,0
1093,4012401041188,新規,0,2023-11-08,2023-11-08,株式会社ＳＲＳコーポレーション,,株式会社,東京都,三鷹市,新川３丁目１６番２２号,,13,204,1810004,,,,,,,2023-11-08,1,,,,,エスアールエスコーポレーション,0
1096,4012703002854,新規,0,2023-11-08,2023-11-08,合同会社アイドム,,合同会社,東京都,西東京市,田無町７丁目３－２３エコーハイム２Ｂ,,13,229,1880011,,,,,,,2023-11-08,1,,,,,アイドム,0
1098,4012801022746,新規,0,2023-11-08,2023-11-08,日本自然研究所株式会社,,株式会社,東京都,武蔵村山市,伊奈平５丁目８７番地５,,13,223,2080023,,,,,,,2023-11-08,1,,,,,ニホンシゼンケンキュウジョ,0
1104,4020001154327,新規,0,2023-11-08,2023-11-08,日立ヴァンタラ株式会社,,株式会社,神奈川県,横浜市戸塚区,吉田町２９２番地,,14,110,2440817,,,,,,,2023-11-08,1,,,,,ヒタチヴァンタラ,0
1105,4020001154376,新規,0,2023-11-08,2023-11-08,株式会社賃貸の森,,株式会社,神奈川県,川崎市中原区,小杉町３丁目６００番地,,14,133,2110063,,,,,,,2023-11-08,1,,,,,チンタイノモリ,0
1109,4020003024940,新規,0,2023-11-08,2023-11-08,合同会社ＥＬ　Ｌｉｆｅ,,合同会社,神奈川県,横浜市港南区,港南台９丁目３２番３２－１０７号,,14,111,2340054,,,,,,,2023-11-08,1,,,,,イーエルライフ,0
1110,4020003024949,新規,0,2023-11-08,2023-11-08,合同会社ＶＩＥＷ,,合同会社,神奈川県,横浜市中区,滝之上１３５番地根岸台第一マンションズ７０６号室,,14,104,2310837,,,,,,,2023-11-08,1,,,,,ヴュー,0
1123,4030001157007,新規,0,2023-11-08,2023-11-08,株式会社ＢｕｙＢｙｅメディカル,,株式会社,埼玉県,所沢市,大字下富５９１番地の５下富倉庫１０２,,11,208,3590001,,,,,,,2023-11-08,1,,,,,バイバイメディカル,0
1124,4030001157015,新規,0,2023-11-08,2023-11-08,株式会社ケイズツー,,株式会社,埼玉県,桶川市,大字篠津１５４番地の２,,11,231,3630003,,,,,,,2023-11-08,1,,,,,ケイズツー,0
1125,4030001157064,新規,0,2023-11-08,2023-11-08,株式会社エスクラス,,株式会社,埼玉県,富士見市,関沢２丁目１８番３７号,,11,235,3540025,,,,,,,2023-11-08,1,,,,,エスクラス,0
1126,4030001157089,新規,0,2023-11-08,2023-11-08,株式会社ハドルアップ,,株式会社,埼玉県,川口市,西川口３丁目７番３号,,11,203,3320021,,,,,,,2023-11-08,1,,,,,ハドルアップ,0
1131,4030003022935,新規,0,2023-11-08,2023-11-08,合同会社ニュースター,,合同会社,埼玉県,戸田市,川岸２丁目２番１－６０２号,,11,224,3350015,,,,,,,2023-11-08,1,,,,,ニュースター,0
1132,4030003022943,新規,0,2023-11-08,2023-11-08,エイム合同会社,,合同会社,埼玉県,さいたま市緑区,東浦和３丁目１０番地２,,11,109,3360926,,,,,,,2023-11-08,1,,,,,エイム,0
1133,4030003022951,新規,0,2023-11-08,2023-11-08,合同会社Ｉｄｅａｌｌ,,合同会社,埼玉県,さいたま市大宮区,桜木町２丁目３番地大宮マルイ７階,,11,103,3300854,,,,,,,2023-11-08,1,,,,,イデオル,0
1138,4040003023668,新規,0,2023-11-08,2023-11-08,合同会社Ｂｉｃｏｕ,,合同会社,千葉県,茂原市,下永吉２７３番地３,,12,210,2970035,,,,,,,2023-11-08,1,,,,,ビコウ,0
1144,4070005010190,新規,0,2023-11-08,2023-11-08,特定非営利活動法人ぐんま・あんなか空き家・空き地相談室,,その他の設立登記法人,群馬県,安中市,郷原３００番地２,,10,211,3790135,,,,,,,2023-11-08,1,,,,,グンマアンナカアキヤアキチソウダンシツ,0
1153,4100001036954,新規,0,2023-11-08,2023-11-08,株式会社南信陸送,,株式会社,長野県,下伊那郡豊丘村,大字神稲６８５３番地５,,20,416,3993202,,,,,,,2023-11-08,1,,,,,ナンシンリクソウ,0
1167,4120001259438,新規,0,2023-11-08,2023-11-08,今海株式会社,,株式会社,大阪府,大阪市東成区,東小橋１丁目１７－３１グランドハイツ東小橋２０６号室,,27,115,5370024,,,,,,,2023-11-08,1,,,,,コンカイ,0
1168,4120001259487,新規,0,2023-11-08,2023-11-08,株式会社Ｏｃｅａｎ　Ｓｉｌｋ,,株式会社,大阪府,大阪市浪速区,敷津東２丁目４番１７－２８０５号,,27,111,5560012,,,,,,,2023-11-08,1,,,,,オーシャンシルク,0
1169,4120001259529,新規,0,2023-11-08,2023-11-08,株式会社大谷工業,,株式会社,大阪府,大阪市西成区,鶴見橋３丁目１番２４号,,27,122,5570031,,,,,,,2023-11-08,1,,,,,オオタニコウギョウ,0
1170,4120001259553,新規,0,2023-11-08,2023-11-08,株式会社Ｇｏｏｄ　Ｗｏｒｋ,,株式会社,大阪府,大阪市東淀川区,大桐１丁目１６番３号ひかりハイツ１Ｆ,,27,114,5330011,,,,,,,2023-11-08,1,,,,,グッドワーク,0
1171,4120001259578,新規,0,2023-11-08,2023-11-08,株式会社ロイヤルシステムズ,,株式会社,大阪府,枚方市,尊延寺５丁目３８番６号,,27,210,5730112,,,,,,,2023-11-08,1,,,,,ロイヤルシステムズ,0
1172,4120001259636,新規,0,2023-11-08,2023-11-08,桃ノ花セキシ堂株式会社,,株式会社,大阪府,大阪市東淀川区,西淡路６丁目３番３８号,,27,114,5330031,,,,,,,2023-11-08,1,,,,,モモノハナセキシドウ,0
1173,4120001259644,新規,0,2023-11-08,2023-11-08,株式会社Ａｓｐｉｒａｔｉｏｎ　Ｅｎｇｉｎｅｅｒｉｎｇ,,株式会社,大阪府,大阪市北区,西天満４丁目１０－２３ＢＲＩＬＬＩＡＮＴ西天満ビル６Ｆ,,27,127,5300047,,,,,,,2023-11-08,1,,,,,アスピレーションエンジニアリング,0
1174,4120001259660,新規,0,2023-11-08,2023-11-08,ＹＹ国際株式会社,,株式会社,大阪府,大阪市中央区,千日前２丁目３番３号千日前ＳＷビル２階,,27,128,5420074,,,,,,,2023-11-08,1,,,,,ワイワイコクサイ,0
1175,4120001259702,新規,0,2023-11-08,2023-11-08,有道株式会社,,株式会社,大阪府,大阪市旭区,赤川１丁目５番１３号天理マンション３０１,,27,117,5350005,,,,,,,2023-11-08,1,,,,,ユウドウ,0
1176,4120001259710,新規,0,2023-11-08,2023-11-08,ＧｏＧｌｏｂａｌ商事株式会社,,株式会社,大阪府,寝屋川市,点野４丁目１番１２号,,27,215,5720077,,,,,,,2023-11-08,1,,,,,ゴーグローバルショウジ,0
1180,4120003025268,新規,0,2023-11-08,2023-11-08,合同会社Ａｑｕａ　Ｌｅａｓｅ,,合同会社,大阪府,大阪市浪速区,浪速西１丁目２番１６－４０５号,,27,111,5560026,,,,,,,2023-11-08,1,,,,,アクアリース,0
1181,4120003025284,新規,0,2023-11-08,2023-11-08,光商事合同会社,,合同会社,大阪府,大阪市東淀川区,西淡路３丁目９番１０－５０５号,,27,114,5330031,,,,,,,2023-11-08,1,,,,,ヒカリショウジ,0
1182,4120003025292,新規,0,2023-11-08,2023-11-08,合同会社ｃｌｅｆ,,合同会社,大阪府,大阪市北区,梅田１丁目１－３大阪駅前第３ビル２９階,,27,127,5300001,,,,,,,2023-11-08,1,,,,,クレフ,0
1183,4120003025301,新規,0,2023-11-08,2023-11-08,合同会社マヌヒャーコーポレーション,,合同会社,大阪府,大阪市天王寺区,夕陽丘町４－２ＭｅｔｒｏＰｏｒｔｅ四天王寺前夕陽ヶ丘３Ｃ２３,,27,109,5430075,,,,,,,2023-11-08,1,,,,,マヌヒャーコーポレーション,0
1193,4120901048320,新規,0,2023-11-08,2023-11-08,株式会社ＭＫＳ,,株式会社,大阪府,吹田市,上山手町２６番２５－５０１号,,27,205,5650841,,,,,,,2023-11-08,1,,,,,エムケーエス,0
1195,4120905006530,新規,0,2023-11-08,2023-11-08,一般社団法人Ｉ　ＦＯＲ　ＹＯＵ　Ｊａｐａｎ,,その他の設立登記法人,大阪府,箕面市,坊島４丁目５番２０号,,27,220,5620013,,,,,,,2023-11-08,1,,,,,アイフォーユージャパン,0
1197,4122001037550,新規,0,2023-11-08,2023-11-08,株式会社カインズクラフト,,株式会社,大阪府,東大阪市,岩田町６丁目７番３６号,,27,227,5780941,,,,,,,2023-11-08,1,,,,,カインズクラフト,0
1198,4122003002726,新規,0,2023-11-08,2023-11-08,ＩＮＤＹ合同会社,,合同会社,大阪府,大東市,諸福５丁目１０番１２号レオパレスフォレストＩＩ２０１号,00132561,27,218,5740044,,,,,,,2023-11-08,1,,,,,インディー,0
1200,4130001075710,新規,0,2023-11-08,2023-11-08,株式会社マナーズ,,株式会社,京都府,京都市山科区,竹鼻堂ノ前町８番地の６,,26,110,6078085,,,,,,,2023-11-08,1,,,,,マナーズ,0
1215,4140001132213,新規,0,2023-11-08,2023-11-08,ＬｉｎＫ株式会社,,株式会社,兵庫県,赤穂市,磯浜町１２３番地,,28,212,6780250,,,,,,,2023-11-08,1,,,,,リンク,0
1216,4140001132221,新規,0,2023-11-08,2023-11-08,株式会社西本工業,,株式会社,兵庫県,姫路市,勝原区朝日谷４５９番地１３４,,28,201,6711204,,,,,,,2023-11-08,1,,,,,ニシモトコウギョウ,0
1217,4140001132238,新規,0,2023-11-08,2023-11-08,株式会社Ｊｅｎｎｙ　Ｐｌｕｓ,,株式会社,兵庫県,三田市,相生町１番４０号相生スカイパーク１Ｆ,,28,219,6691526,,,,,,,2023-11-08,1,,,,,ジェニープラス,0
1218,4140001132262,新規,0,2023-11-08,2023-11-08,株式会社ＡＢＣ,,株式会社,兵庫県,宝塚市,花屋敷荘園３丁目１２－１１,,28,214,6650802,,,,,,,2023-11-08,1,,,,,エービーシー,0
1224,4140003019771,新規,0,2023-11-08,2023-11-08,合同会社マツダ,,合同会社,兵庫県,宝塚市,花屋敷荘園３丁目８番５号,,28,214,6650802,,,,,,,2023-11-08,1,,,,,マツダ,0
1226,4160001025489,新規,0,2023-11-08,2023-11-08,近江コネクト株式会社,,株式会社,滋賀県,東近江市,五個荘新堂町２８７番地,,25,213,5291432,,,,,,,2023-11-08,1,,,,,オウミコネクト,0
1231,4180001158782,新規,0,2023-11-08,2023-11-08,サンテクス株式会社,,株式会社,愛知県,弥富市,東末広７丁目２３番地,,23,235,4980063,,,,,,,2023-11-08,1,,,,,サンテクス,0
1232,4180001158808,新規,0,2023-11-08,2023-11-08,株式会社Ｓ．Ｐ．ＷＯＲＫＳ,,株式会社,愛知県,瀬戸市,上之山町２丁目１７１番地の２２３,,23,204,4890964,,,,,,,2023-11-08,1,,,,,エスピーワークス,0
1233,4180001158816,新規,0,2023-11-08,2023-11-08,株式会社ＢＵＳＣＡＲ,,株式会社,愛知県,名古屋市中村区,名駅１丁目１番１号,,23,105,4500002,,,,,,,2023-11-08,1,,,,,ブスカール,0
1234,4180001158865,新規,0,2023-11-08,2023-11-08,株式会社アート,,株式会社,愛知県,瀬戸市,北脇町２０２番地の１,,23,204,4890918,,,,,,,2023-11-08,1,,,,,アート,0
1236,4180003025956,新規,0,2023-11-08,2023-11-08,合同会社松南グループ,,合同会社,愛知県,海部郡大治町,大字西條字南井口２３番地,,23,424,4901144,,,,,,,2023-11-08,1,,,,,ショウナングループ,0
1242,4210001019535,新規,0,2023-11-08,2023-11-08,株式会社ＥＩＮＺＩＧＥＲ,,株式会社,福井県,越前市,宮谷町第５９号４３番地の１,,18,209,9150013,,,,,,,2023-11-08,1,,,,,アインジガー,0
1243,4210005010119,新規,0,2023-11-08,2023-11-08,一般社団法人ＹＯＲＩＤＯＫＯＲＯプロジェクト,,その他の設立登記法人,福井県,福井市,文京７丁目１番３７号,,18,201,9100017,,,,,,,2023-11-08,1,,,,,ヨリドコロプロジェクト,0
1262,4290001103629,新規,0,2023-11-08,2023-11-08,彰栄建設株式会社,,株式会社,福岡県,福岡市中央区,清川２丁目１番２１号若鶴マンション３０７号,,40,133,8100005,,,,,,,2023-11-08,1,,,,,ショウエイケンセツ,0
1263,4290001103653,新規,0,2023-11-08,2023-11-08,株式会社エヌネット,,株式会社,福岡県,朝倉郡筑前町,朝日９７３番地１（１－１１０５）,,40,447,8380227,,,,,,,2023-11-08,1,,,,,エヌネット,0
1264,4290001103661,新規,0,2023-11-08,2023-11-08,株式会社リペテラス,,株式会社,福岡県,福岡市南区,清水２丁目２０番４‐１２０５号,,40,134,8150031,,,,,,,2023-11-08,1,,,,,リペテラス,0
1265,4290003014568,新規,0,2023-11-08,2023-11-08,合同会社ＥＭＧ,,合同会社,福岡県,久留米市,野中町１５０７番地７,,40,203,8390862,,,,,,,2023-11-08,1,,,,,イーエムジー,0
1269,4300001013520,新規,0,2023-11-08,2023-11-08,株式会社ＬＹＴＨＲＡＭ,,株式会社,佐賀県,三養基郡みやき町,大字東尾３１４７番地１,,41,346,8490113,,,,,,,2023-11-08,1,,,,,リスラム,0
1276,4340001026064,新規,0,2023-11-08,2023-11-08,株式会社ｉｐｏＬ,,株式会社,鹿児島県,鹿児島市,広木３丁目２０番３号,,46,201,8900037,,,,,,,2023-11-08,1,,,,,アイポル,0
1287,4370003006359,新規,0,2023-11-08,2023-11-08,合同会社ｊｉｍｉｃｈｉ,,合同会社,宮城県,仙台市青葉区,中央２丁目９番１号,,04,101,9800021,,,,,,,2023-11-08,1,,,,,ジミチ,0
1299,4430001090373,新規,0,2023-11-08,2023-11-08,株式会社美遊,,株式会社,北海道,札幌市豊平区,平岸一条１０丁目７番１８－１５０１号,,01,105,0620931,,,,,,,2023-11-08,1,,,,,ビユウ,0
1314,4700150114748,新規,0,2023-11-08,2023-11-08,Ｇｕａｎｇｚｈｏｕ　Ｊｉｎｇｌｉｎｇ　ｑｉｍｏｐｅｉｊｉａｎ　Ｃｏ．，Ｌｔｄ．,,外国会社等,,,,,,,,ｐａｎｙｕ　ｄｉｓｔｒｉｃｔ，ｄａｓｈｉ　ｓｔｒｅｅｔ，ｃｈａｏｙａｎｇ　ｅａｓｔ　ｒｏａｄ　Ｎｏ．１６８．ｒｏｏｍ　４１２．Ｇｕａｎｇｚｈｏｕ　Ｇｕａｎｇｄｏｎｇ　５１１４３０　ＣＮ,,,,,,2023-11-08,1,,,,,グゥァンヂョウジンリンチーマァーペイジィェンヨウシィェンゴンスー,0
1315,4700150121901,新規,0,2023-11-08,2023-11-08,Ｘｉａｍｅｎ　ＭＳｔａｒ　Ｓｏｕｒｃｅ　Ｔｅｃｈｎｏｌｏｇｙ　Ｃｏ．Ｌｔｄ．,,外国会社等,,,,,,,,ｒｕａｎ　ｊｉａｎ　ｙｕａｎ　ｅｒ　ｑｉ　ｗａｎｇ　ｈａｉ　ｌｕ　２１　ｈａｏ　５０２－１　ｓｈｉ　ｚｈｉ　ｙｉ　ｘｉａ　ｍｅｎ　ｈｕｏ　ｊｕ　ｇａｏ　ｘｉｎ　ｑｕ　３６１００８　ＣＮ,,,,,,2023-11-08,1,,,,,アモイエムスターソーステクノロジーカンパニーリミテッド,0
1328,5010001239730,新規,0,2023-11-08,2023-11-08,プロトーン株式会社,,株式会社,東京都,千代田区,神田三崎町２丁目１０番１１号Ｐｅｇビル６Ａ－３,,13,101,1010061,,,,,,,2023-11-08,1,,,,,プロトーン,0
1329,5010001239771,新規,0,2023-11-08,2023-11-08,株式会社クリーク,,株式会社,東京都,中央区,築地２丁目１１番１０号築地中央ビル５階,,13,102,1040045,,,,,,,2023-11-08,1,,,,,クリーク,0
1330,5010001239854,新規,0,2023-11-08,2023-11-08,株式会社Ｍｏｏｎｌｉｇｈｔ　Ｈｏｕｓｅ,,株式会社,東京都,文京区,本郷４丁目１６－６－２１６,,13,105,1130033,,,,,,,2023-11-08,1,,,,,ムーンライトハウス,0
1331,5010001239912,新規,0,2023-11-08,2023-11-08,ＦＬ　Ｊａｐａｎ　Ｈｏｌｄｉｎｇｓ株式会社,,株式会社,東京都,千代田区,大手町１丁目１番１号,,13,101,1000004,,,,,,,2023-11-08,1,,,,,エフエルジャパンホールディングス,0
1337,5010003042034,新規,0,2023-11-08,2023-11-08,合同会社Ｃ２,,合同会社,東京都,千代田区,霞が関３丁目２番５号,,13,101,1000013,,,,,,,2023-11-08,1,,,,,シーツー,0
1338,5010003042158,新規,0,2023-11-08,2023-11-08,合同会社オーロラ,,合同会社,東京都,文京区,小石川５丁目１９番２７号,,13,105,1120002,,,,,,,2023-11-08,1,,,,,オーロラ,0
1339,5010005037486,新規,0,2023-11-08,2023-11-08,一般社団法人ＺＥＡ,,その他の設立登記法人,東京都,中央区,日本橋室町１丁目１１番１２号日本橋水野ビル７階,,13,102,1030022,,,,,,,2023-11-08,1,,,,,ゼア,0
1349,5010401178388,新規,0,2023-11-08,2023-11-08,株式会社ＬＥＣＫ,,株式会社,東京都,港区,六本木５丁目１６番２３－４０６号,,13,103,1060032,,,,,,,2023-11-08,1,,,,,エルイーシーケー,0
1357,5010601064090,新規,0,2023-11-08,2023-11-08,トーチ株式会社,,株式会社,東京都,江東区,有明３丁目７番２６号,,13,108,1350063,,,,,,,2023-11-08,1,,,,,トーチ,0
1358,5010605004258,新規,0,2023-11-08,2023-11-08,一般社団法人Ａ　ｃｏｍｐａｎｙ,,その他の設立登記法人,東京都,江東区,木場６丁目４番２号ＫＩビル６階,,13,108,1350042,,,,,,,2023-11-08,1,,,,,アカンパニー,0
1368,5010901054072,新規,0,2023-11-08,2023-11-08,株式会社ＰＴＥＲＡＮＯＤＯＮ,,株式会社,東京都,世田谷区,池尻３丁目２１－１－１００３,,13,112,1540001,,,,,,,2023-11-08,1,,,,,プテラノドン,0
1381,5011103013701,新規,0,2023-11-08,2023-11-08,Ｊｅｓｔｅｒ’ｓ　Ｏｗｌ合同会社,,合同会社,東京都,新宿区,富久町３－２２ＨｏｎｅｓｔＨｉｒｏｍｉ２０２,,13,104,1620067,,,,,,,2023-11-08,1,,,,,ジェスターズオウル,0
1384,5011201025029,新規,0,2023-11-08,2023-11-08,株式会社ライアスレジデンス,,株式会社,東京都,中野区,上高田２丁目３番１４号,,13,114,1640002,,,,,,,2023-11-08,1,,,,,ライアスレジデンス,0
1396,5011403004169,新規,0,2023-11-08,2023-11-08,合同会社ＤＲＭ,,合同会社,東京都,板橋区,高島平１丁目７４番１４号エスペランザ６０３,,13,119,1750082,,,,,,,2023-11-08,1,,,,,ディーアールエム,0
1402,5011801043297,新規,0,2023-11-08,2023-11-08,Ｋ‐Ｑｒｅｅｔｅ株式会社,,株式会社,東京都,足立区,扇３丁目１１番１５号２Ｆ,,13,121,1230873,,,,,,,2023-11-08,1,,,,,ケークリート,0
1403,5011801043306,新規,0,2023-11-08,2023-11-08,株式会社ＹＲＲ,,株式会社,東京都,足立区,千住２丁目６４番地１,,13,121,1200034,,,,,,,2023-11-08,1,,,,,ワイアールアール,0
1406,5012701017936,新規,0,2023-11-08,2023-11-08,株式会社中央グループ,,株式会社,東京都,西東京市,ひばりが丘北３丁目３－１４美照堂ビル３Ｆ,,13,229,2020002,,,,,,,2023-11-08,1,,,,,チュウオウグループ,0
1409,5012801022753,新規,0,2023-11-08,2023-11-08,株式会社Ｍ２ＡＣＥ,,株式会社,東京都,武蔵村山市,大南５丁目６７番地の９,,13,223,2080013,,,,,,,2023-11-08,1,,,,,エムツーエース,0
1417,5020001154318,新規,0,2023-11-08,2023-11-08,石井商事株式会社,,株式会社,神奈川県,川崎市宮前区,水沢３丁目１番３８号,,14,136,2160012,,,,,,,2023-11-08,1,,,,,イシイショウジ,0
1418,5020001154342,新規,0,2023-11-08,2023-11-08,株式会社ショーワネクストインベストメント,,株式会社,神奈川県,横浜市青葉区,榎が丘２６番地６,,14,117,2270063,,,,,,,2023-11-08,1,,,,,ショーワネクストインベストメント,0
1419,5020001154359,新規,0,2023-11-08,2023-11-08,株式会社石幸メンテナンス,,株式会社,神奈川県,横浜市戸塚区,平戸３丁目６番１７－１０１号,,14,110,2440802,,,,,,,2023-11-08,1,,,,,イシコウメンテナンス,0
1420,5020001154367,新規,0,2023-11-08,2023-11-08,富萱工業株式会社,,株式会社,神奈川県,横浜市神奈川区,子安通１丁目２０１－３,,14,102,2210021,,,,,,,2023-11-08,1,,,,,トミカヤコウギョウ,0
1421,5020001154375,新規,0,2023-11-08,2023-11-08,株式会社ＡＲＡコーポレーション,,株式会社,神奈川県,川崎市川崎区,追分町１３番５号１０２,,14,131,2100835,,,,,,,2023-11-08,1,,,,,エーアールエーコーポレーション,0
1424,5020003024931,新規,0,2023-11-08,2023-11-08,合同会社ｋｉｒａｒａ,,合同会社,神奈川県,横浜市保土ケ谷区,天王町１丁目１８番地２レジデンス・チノ１－４０１号,,14,106,2400003,,,,,,,2023-11-08,1,,,,,キララ,0
1425,5020003024948,新規,0,2023-11-08,2023-11-08,合同会社アスプラ,,合同会社,神奈川県,川崎市多摩区,長尾１丁目９番７号,,14,135,2140023,,,,,,,2023-11-08,1,,,,,アスプラ,0
1430,5021001080603,新規,0,2023-11-08,2023-11-08,株式会社クオーレ,,株式会社,神奈川県,横須賀市,公郷町３丁目７０番地１１,,14,201,2380022,,,,,,,2023-11-08,1,,,,,クオーレ,0
1432,5021003013791,新規,0,2023-11-08,2023-11-08,そうちゃん合同会社,,合同会社,神奈川県,藤沢市,羽鳥４丁目５―１８,,14,205,2510056,,,,,,,2023-11-08,1,,,,,ソウチャン,0
1439,5030001156981,新規,0,2023-11-08,2023-11-08,株式会社倉田工建,,株式会社,埼玉県,北足立郡伊奈町,中央４丁目７２番地,,11,301,3620809,,,,,,,2023-11-08,1,,,,,クラタコウケン,0
1440,5030001156998,新規,0,2023-11-08,2023-11-08,株式会社ジーアンドエムＦＰオフィス,,株式会社,埼玉県,白岡市,西６丁目１番７,,11,246,3490205,,,,,,,2023-11-08,1,,,,,ジーアンドエムエフピーオフィス,0
1441,5030001157014,新規,0,2023-11-08,2023-11-08,株式会社ＡＫＩ,,株式会社,埼玉県,越谷市,赤山町１丁目１０７番地１－１０１号,,11,222,3430807,,,,,,,2023-11-08,1,,,,,アキ,0
1442,5030001157022,新規,0,2023-11-08,2023-11-08,株式会社上岡興業,,株式会社,埼玉県,北本市,石戸４丁目１７４番地,,11,233,3640024,,,,,,,2023-11-08,1,,,,,カミオカコウギョウ,0
1443,5030001157055,新規,0,2023-11-08,2023-11-08,Ｂａｒａｌ　Ｂｒｏｔｈｅｒｓ株式会社,,株式会社,埼玉県,さいたま市桜区,西堀２丁目１３番２１号コートハウス中浦和１０２,,11,106,3380832,,,,,,,2023-11-08,1,,,,,バラルブラザーズ,0
1444,5030001157063,新規,0,2023-11-08,2023-11-08,株式会社ゼブラパ,,株式会社,埼玉県,さいたま市中央区,大戸５丁目２３番１６号,,11,105,3380012,,,,,,,2023-11-08,1,,,,,ゼブラパ,0
1445,5030001157071,新規,0,2023-11-08,2023-11-08,株式会社ＡｎｙＧＯ,,株式会社,埼玉県,さいたま市大宮区,桜木町２丁目３番地,,11,103,3300854,,,,,,,2023-11-08,1,,,,,エニゴー,0
1448,5030003022934,新規,0,2023-11-08,2023-11-08,エール合同会社,,合同会社,埼玉県,春日部市,下蛭田２２３番地４,,11,214,3440043,,,,,,,2023-11-08,1,,,,,エール,0
1449,5030003022959,新規,0,2023-11-08,2023-11-08,合同会社安信,,合同会社,埼玉県,川口市,朝日３丁目１３番６号,,11,203,3320001,,,,,,,2023-11-08,1,,,,,アンシン,0
1453,5040001130820,新規,0,2023-11-08,2023-11-08,株式会社ＭａＧＧＳ,,株式会社,千葉県,市原市,潤井戸２２７７番地１１,,12,219,2900171,,,,,,,2023-11-08,1,,,,,マッグス,0
1454,5040001130829,新規,0,2023-11-08,2023-11-08,株式会社駱駝,,株式会社,千葉県,船橋市,旭町３丁目１２－２７－１０１,,12,204,2730041,,,,,,,2023-11-08,1,,,,,ラクダ,0
1455,5040001130861,新規,0,2023-11-08,2023-11-08,株式会社ＹＯＵ　ＡＲＥ　ＨＥＲＥ,,株式会社,千葉県,市川市,須和田２丁目３６番３２号,,12,203,2720825,,,,,,,2023-11-08,1,,,,,ユーアーヒア,0
1460,5040003023650,新規,0,2023-11-08,2023-11-08,合同会社クラージュ,,合同会社,千葉県,我孫子市,高野山６１２,,12,222,2701145,,,,,,,2023-11-08,1,,,,,クラージュ,0
1461,5040003023691,新規,0,2023-11-08,2023-11-08,合同会社藤枝プロダクション,,合同会社,千葉県,浦安市,富士見３丁目２６－２４,,12,227,2790043,,,,,,,2023-11-08,1,,,,,フジエダプロダクション,0
1462,5040005022188,新規,0,2023-11-08,2023-11-08,一般社団法人コットンマム,,その他の設立登記法人,千葉県,千葉市中央区,中央２丁目５－１千葉中央ツインビル２号館７階,,12,101,2600013,,,,,,,2023-11-08,1,,,,,コットンマム,0
1468,5050001053789,新規,0,2023-11-08,2023-11-08,株式会社オートセンサー,,株式会社,茨城県,結城市,大字小田林２５４５番地１８,,08,207,3070007,,,,,,,2023-11-08,1,,,,,オートセンサー,0
1475,5080001025967,新規,0,2023-11-08,2023-11-08,株式会社７ｓｅｎｓｅ静岡,,株式会社,静岡県,静岡市葵区,紺屋町６番地の９紺屋町中ビル２階,,22,101,4200852,,,,,,,2023-11-08,1,,,,,セブンセンスシズオカ,0
1482,5100002028561,新規,0,2023-11-08,2023-11-08,有限会社傳田技研,,有限会社,長野県,諏訪郡下諏訪町,８４２番地９,,20,361,3930000,,,,,,,2023-11-08,1,,,,,デンダギケン,0
1494,5120001259494,新規,0,2023-11-08,2023-11-08,Ｅａｓｏｎ株式会社,,株式会社,大阪府,大阪市淀川区,田川北２丁目５－３４・Ｅ棟１０２号室,,27,123,5320021,,,,,,,2023-11-08,1,,,,,イーソン,0
1495,5120001259536,新規,0,2023-11-08,2023-11-08,ｆｏｒｓ株式会社,,株式会社,大阪府,大阪市北区,中崎西３丁目３－４３－４Ｆ,,27,127,5300015,,,,,,,2023-11-08,1,,,,,フォルス,0
1496,5120001259544,新規,0,2023-11-08,2023-11-08,株式会社カーサ松原,,株式会社,大阪府,大阪市中央区,内久宝寺町４丁目１番７－２００７号,,27,128,5400013,,,,,,,2023-11-08,1,,,,,カーサマツバラ,0
1497,5120001259577,新規,0,2023-11-08,2023-11-08,株式会社やもり住設,,株式会社,大阪府,大阪市西区,北堀江３丁目７番４０－１００１号,,27,106,5500014,,,,,,,2023-11-08,1,,,,,ヤモリジュウセツ,0
1498,5120001259643,新規,0,2023-11-08,2023-11-08,株式会社ＳＡＶＡＧＥ,,株式会社,大阪府,大阪市浪速区,湊町２丁目２番５－９０２号,,27,111,5560017,,,,,,,2023-11-08,1,,,,,サベージ,0
1499,5120001259684,新規,0,2023-11-08,2023-11-08,株式会社友進,,株式会社,大阪府,守口市,京阪本通２丁目７番８号プランドール守口２０５号室,,27,209,5700083,,,,,,,2023-11-08,1,,,,,ユウシン,0
1506,5120003025291,新規,0,2023-11-08,2023-11-08,合同会社ヌー,,合同会社,大阪府,大阪市北区,梅田１丁目２番２号大阪駅前第２ビル１２－１２,,27,127,5300001,,,,,,,2023-11-08,1,,,,,ヌー,0
1507,5120005023979,新規,0,2023-11-08,2023-11-08,税理士法人プレミア,,その他の設立登記法人,大阪府,大阪市城東区,新喜多東２丁目１０番２０号,,27,118,5360017,,,,,,,2023-11-08,1,,,,,プレミア,0
1518,5130001075635,新規,0,2023-11-08,2023-11-08,ルーチェ株式会社,,株式会社,京都府,京都市左京区,高野西開町１－３１４号,,26,103,6068103,,,,,,,2023-11-08,1,,,,,ルーチェ,0
1521,5130003009087,新規,0,2023-11-08,2023-11-08,合同会社川新,,合同会社,京都府,京都市山科区,安朱堂ノ後町１６番地１号,,26,110,6078005,,,,,,,2023-11-08,1,,,,,カワシン,0
1522,5130003009104,新規,0,2023-11-08,2023-11-08,合同会社ｓｅｌｌｗｅｌｌ,,合同会社,京都府,京都市右京区,西院清水町１２番地１プリオーレ京都西院８０１号,,26,108,6150052,,,,,,,2023-11-08,1,,,,,セルウェル,0
1533,5140001132212,新規,0,2023-11-08,2023-11-08,株式会社ｌｅａｆ,,株式会社,兵庫県,伊丹市,野間７丁目２番２１号,,28,207,6640873,,,,,,,2023-11-08,1,,,,,リーフ,0
1534,5140001132220,新規,0,2023-11-08,2023-11-08,株式会社ワイズマルシェ,,株式会社,兵庫県,加古川市,別府町新野辺２５４３番地,,28,210,6750131,,,,,,,2023-11-08,1,,,,,ワイズマルシェ,0
1539,5140003019770,新規,0,2023-11-08,2023-11-08,合同会社ナカハラ,,合同会社,兵庫県,加古川市,加古川町木村４８４番地の１,,28,210,6750038,,,,,,,2023-11-08,1,,,,,ナカハラ,0
1540,5140003019787,新規,0,2023-11-08,2023-11-08,ＲＥＸＥＬ合同会社,,合同会社,兵庫県,神戸市須磨区,神撫町１丁目２番１５号,,28,107,6540003,,,,,,,2023-11-08,1,,,,,レクセル,0
1543,5160001025488,新規,0,2023-11-08,2023-11-08,株式会社ＴＩＰＳ,,株式会社,滋賀県,栗東市,手原４丁目７番１３号,,25,208,5203047,,,,,,,2023-11-08,1,,,,,ティプス,0
1549,5180001158815,新規,0,2023-11-08,2023-11-08,株式会社名西ホーニング,,株式会社,愛知県,海部郡飛島村,大字梅之郷字中梅７５番地,,23,427,4901435,,,,,,,2023-11-08,1,,,,,メイセイホーニング,0
1558,5200001041885,新規,0,2023-11-08,2023-11-08,株式会社即建,,株式会社,岐阜県,岐阜市,加納本町９丁目２１番地２,,21,201,5008474,,,,,,,2023-11-08,1,,,,,ソッケン,0
1559,5210001019542,新規,0,2023-11-08,2023-11-08,株式会社ピットステーションＳＡＢＡＥ,,株式会社,福井県,鯖江市,鳥羽１丁目４番３号,,18,207,9160013,,,,,,,2023-11-08,1,,,,,ピットステーションサバエ,0
1560,5210003001721,新規,0,2023-11-08,2023-11-08,合同会社クローバーの恵,,合同会社,福井県,坂井市,丸岡町四ツ柳第６号７番地９,,18,210,9100341,,,,,,,2023-11-08,1,,,,,クローバーノメグミ,0
1574,5290001103652,新規,0,2023-11-08,2023-11-08,もう株式会社,,株式会社,福岡県,福岡市南区,大楠１丁目１２番２５号３Ｆ,,40,134,8150082,,,,,,,2023-11-08,1,,,,,モウ,0
1575,5290001103660,新規,0,2023-11-08,2023-11-08,株式会社Ｂｅａｕｔｙ　Ｐｌｕｓ,,株式会社,福岡県,福岡市博多区,博多駅東２丁目２番１３号,,40,132,8120013,,,,,,,2023-11-08,1,,,,,ビューティープラス,0
1576,5290001103677,新規,0,2023-11-08,2023-11-08,株式会社ＧＱ,,株式会社,福岡県,福岡市南区,平和１丁目２番１０号ダイアパレス平尾山荘通り５０２号室,,40,134,8150071,,,,,,,2023-11-08,1,,,,,ジーキュー,0
1579,5290003014600,新規,0,2023-11-08,2023-11-08,合同会社リバーウェーブ,,合同会社,福岡県,福岡市中央区,笹丘１丁目３６‐１５‐２０１,,40,133,8100034,,,,,,,2023-11-08,1,,,,,リバーウェーブ,0
1581,5300003002041,新規,0,2023-11-08,2023-11-08,カズヨ・ローハイ・アップ合同会社,,合同会社,佐賀県,小城市,三日月町堀江５７番地５,,41,208,8450031,,,,,,,2023-11-08,1,,,,,カズヨローハイアップ,0
1585,5330001031444,新規,0,2023-11-08,2023-11-08,株式会社ＹｏｕＮｅｗＪａｐａｎ,,株式会社,熊本県,熊本市中央区,細工町４丁目９番地１パールハイム１０８,,43,101,8600041,,,,,,,2023-11-08,1,,,,,ユーニュージャパン,0
1588,5330003010066,新規,0,2023-11-08,2023-11-08,合同会社ＳＡＮＮＯＭＩＹＡ,,合同会社,熊本県,上益城郡益城町,大字馬水８９７番地１３,,43,443,8612232,,,,,,,2023-11-08,1,,,,,サンノミヤ,0
1589,5340001026039,新規,0,2023-11-08,2023-11-08,株式会社ＶａｌｅｕｒＬｉａｉｓｏｎ,,株式会社,鹿児島県,鹿児島市,真砂本町６２番６‐９０２号,,46,201,8900067,,,,,,,2023-11-08,1,,,,,ヴァルールリエゾン,0
1590,5340001026063,新規,0,2023-11-08,2023-11-08,株式会社ＭＩＴＣ,,株式会社,鹿児島県,鹿児島市,真砂本町３１番１７号,,46,201,8900067,,,,,,,2023-11-08,1,,,,,エムアイティーシー,0
1596,5360003013462,新規,0,2023-11-08,2023-11-08,合同会社四角,,合同会社,沖縄県,那覇市,久米２丁目２４番２４号,,47,201,9000033,,,,,,,2023-11-08,1,,,,,ヨスミ,0
1597,5360003013470,新規,0,2023-11-08,2023-11-08,合同会社ＡＲＩ,,合同会社,沖縄県,島尻郡与那原町,字東浜３番地の５フェリス・コスタ５０３,,47,348,9011304,,,,,,,2023-11-08,1,,,,,エーアールアイ,0
1603,5380001034120,新規,0,2023-11-08,2023-11-08,株式会社エムアンドユー,,株式会社,福島県,二本松市,杉沢字宮ノ前４２番地,,07,210,9640302,,,,,,,2023-11-08,1,,,,,エムアンドユー,0
1607,5380003005607,新規,0,2023-11-08,2023-11-08,合同会社橋本企画,,合同会社,福島県,郡山市,八山田４丁目５５番地フローラルビルＢー３,,07,203,9638052,,,,,,,2023-11-08,1,,,,,ハシモトキカク,0
1611,5410001013640,新規,0,2023-11-08,2023-11-08,株式会社池田建設,,株式会社,秋田県,大仙市,刈和野字田中９５番地１,,05,212,0192112,,,,,,,2023-11-08,1,,,,,イケダケンセツ,0
1613,5420001018473,新規,0,2023-11-08,2023-11-08,株式会社ｓｋ　ｗｏｒｋｓ,,株式会社,青森県,弘前市,大字新寺町１０６番地３,,02,202,0368214,,,,,,,2023-11-08,1,,,,,エスケイワークス,0
1629,5700150114136,新規,0,2023-11-08,2023-11-08,Ｑｕｖｉｄｅｏ　（Ｈｏｎｇ　Ｋｏｎｇ）　Ｌｉｍｉｔｅｄ,,外国会社等,,,,,,,,ＦＬＡＴ／ＲＭ　Ａ１，１１／Ｆ，Ｓｕｃｃｅｓｓ　Ｃｏｍｍｅｒｃｉａｌ　Ｂｕｉｌｄｉｎｇ，２４５－２５１　Ｈｅｎｎｅｓｓｙ　Ｒｏａｄ，ＨＫ,,,,,,2023-11-08,1,,,,,チュウェイシィァンガンヨウシィェンゴンスー,0
1630,5700150119119,新規,0,2023-11-08,2023-11-08,ＳｈｅｎＺｈｅｎ　ＷｅｉＰａｎ　Ｅｌｅｃｔｒｏｎｉｃ　Ｔｅｃｈｎｏｌｏｇｙ　Ｃｏ．，Ｌｔｄ,,外国会社等,,,,,,,,Ｒｏｏｍ　９０６，ｂｕｉｌｄｉｎｇ　Ａ，Ｎａｎｘｉａｎ　Ｃｏｍｍｅｒｃｉａｌ　Ｐｌａｚａ，Ｍｅｉｌｏｎｇ　Ｒｏａｄ，Ｎｅｗ　Ｌｏｎｇｈｕａ　Ｄｉｓｔｒｉｃｔ，Ｓｈｅｎｚｈｅｎ，Ｇｕａｎｇｄｏｎｇ,,,,,,2023-11-08,1,,,,,シンセンシビバンデンシカギユウゲンコウシ,0
1631,5700150121900,新規,0,2023-11-08,2023-11-08,Ｓｕｚｈｏｕ　Ｚｈｅｎｑｕａｎ　Ｋｅｊｉ　Ｙｏｕｘｉａｎ　Ｇｏｎｇｓｉ,,外国会社等,,,,,,,,ｘｉｎｇｈｕｊｉｅ　３２８ｈａｏ，ｃｈｕａｎｇｙｉｃｈａｎｙｅｙｕａｎｎｅｉ　１１－１００１　ｄａｎｙｕａｎ　ｚｉｙｏｕｍａｏｙｉｓｈｉｙａｎｑｕ　ｓｕｚｈｏｕｐｉａｎｑｕ　ｓｕｚｈｏｕｇｏｎｇｙｅｙｕａｎｑｕ　Ｊｉａｎｇｓｕ　ＣＮ　２１５０００,,,,,,2023-11-08,1,,,,,ソシュウゼンチユアンカギヨウシェンゴンスー,0
1632,5700150121909,新規,0,2023-11-08,2023-11-08,Ｓｈｅｎｚｈｅｎ　Ｎｏｒｄｉｃ　Ｗｉｎｔｅｒ　Ｃｈｉｌｄｒｅｎ’ｓ　Ｈｏｍｅ　Ｆｕｒｎｉｓｈｉｎｇ　Ｃｏ．，Ｌｔｄ,,外国会社等,,,,,,,,Ｓｈｅｎｚｈｅｎ　Ｌｏｎｇｈｕａ　Ｎｅｗ　Ｄｉｓｔｒｉｃｔ　Ｌｏｎｇｈｕａ　Ｓｔｒｅｅｔ　Ｌｏｎｇｈｕａ　Ｄａｈｅ　Ｒｏａｄ　ａｎｄ　Ｈｕａｑｉｎｇ　３１Ｂ，Ｂｕｉｌｄｉｎｇ　４，Ｑｉｎｇｈｕ　Ｐａｒｋ，Ｈｕａ　Ｂａｎｌｉ，ａｔ　ｔｈｅ　ｉｎｔｅｒｓｅｃｔｉｏｎ　ｏｆ　Ａｖｅｎｕｅ　５７０１００　ＣＮ,,,,,,2023-11-08,1,,,,,シンセンノルディックウィンターチルドレンスホームファーニシングカンパニーリミテッド,0
1633,5700150121933,新規,0,2023-11-08,2023-11-08,南台住宅マンション敷地売却組合,,その他,東京都,中央区,八重洲１丁目４－１６東京建物株式会社内,,13,102,1030028,,,,,,,2023-11-08,1,,,,,ミナミダイジユウタクマンシヨンシキチバイキヤククミアイ,0
1645,6010001239770,新規,0,2023-11-08,2023-11-08,ＴＳＵＢＡＳＡ‐ＡＭＬセンター株式会社,,株式会社,東京都,中央区,日本橋室町１丁目５番５号,,13,102,1030022,,,,,,,2023-11-08,1,,,,,ツバサエーエムエルセンター,0
1646,6010001239804,新規,0,2023-11-08,2023-11-08,株式会社豊田ｓｙｎｄｉｃａｔｅ,,株式会社,東京都,中央区,銀座６丁目１６番５号,,13,102,1040061,,,,,,,2023-11-08,1,,,,,トヨダシンジケート,0
1647,6010001239820,新規,0,2023-11-08,2023-11-08,ＨＫＭプランニング株式会社,,株式会社,東京都,中央区,八丁堀２丁目１５番９号,,13,102,1040032,,,,,,,2023-11-08,1,,,,,エイチケーエムプランニング,0
1649,6010003042033,新規,0,2023-11-08,2023-11-08,合同会社ＤＬＡＰシティレジデンス,,合同会社,東京都,千代田区,霞が関３丁目２番５号,,13,101,1000013,,,,,,,2023-11-08,1,,,,,ディーエルエーピーシティレジデンス,0
1651,6010005037477,新規,0,2023-11-08,2023-11-08,一般財団法人日中人材育成協会,,その他の設立登記法人,東京都,中央区,日本橋３丁目１番４号,,13,102,1030027,,,,,,,2023-11-08,1,,,,,ニッチュウジンザイイクセイキョウカイ,0
1663,6010601064107,新規,0,2023-11-08,2023-11-08,株式会社ｕｐ,,株式会社,東京都,江東区,住吉１丁目１６－３オーベル住吉マスターテラス８０６,,13,108,1350002,,,,,,,2023-11-08,1,,,,,アップ,0
1665,6010701045089,新規,0,2023-11-08,2023-11-08,ロジットコンサルティング株式会社,,株式会社,東京都,品川区,西五反田１丁目２６番２号五反田サンハイツビル２Ｆ,,13,109,1410031,,,,,,,2023-11-08,1,,,,,ロジットコンサルティング,0
1671,6010801034495,新規,0,2023-11-08,2023-11-08,株式会社ゲインライン,,株式会社,東京都,大田区,蒲田４丁目１５番１０号カーサ第二蒲田１０４号室,,13,111,1440052,,,,,,,2023-11-08,1,,,,,ゲインライン,0
1673,6010803004736,新規,0,2023-11-08,2023-11-08,聖傘合同会社,,合同会社,東京都,大田区,大森北６丁目３２番８号平和島ビル２Ｆ,,13,111,1430016,,,,,,,2023-11-08,1,,,,,セザン,0
1674,6010803004744,新規,0,2023-11-08,2023-11-08,合同会社エルドラード,,合同会社,東京都,大田区,多摩川１丁目１５番９号月村マンションＮｏ．２１、５０１,,13,111,1460095,,,,,,,2023-11-08,1,,,,,エルドラード,0
1688,6011301029143,新規,0,2023-11-08,2023-11-08,ＯＳ株式会社,,株式会社,東京都,杉並区,今川１丁目１２番２１号,,13,115,1670035,,,,,,,2023-11-08,1,,,,,オーエス,0
1693,6011701026731,新規,0,2023-11-08,2023-11-08,株式会社アクセル,,株式会社,東京都,江戸川区,北篠崎２丁目２７番７号,,13,123,1330053,,,,,,,2023-11-08,1,,,,,アクセル,0
1696,6011801043305,新規,0,2023-11-08,2023-11-08,株式会社エイチ・アイ・ジー,,株式会社,東京都,葛飾区,亀有１丁目２５番１３号,,13,122,1250061,,,,,,,2023-11-08,1,,,,,エイチアイジー,0
1698,6011803005922,新規,0,2023-11-08,2023-11-08,ａｍｉ合同会社,,合同会社,東京都,足立区,梅島１丁目１６番１６号,,13,121,1210816,,,,,,,2023-11-08,1,,,,,アミ,0
1699,6011805003313,新規,0,2023-11-08,2023-11-08,一般社団法人金町みらい協議会,,その他の設立登記法人,東京都,葛飾区,東金町３丁目３１番１６号,,13,122,1250041,,,,,,,2023-11-08,1,,,,,カナマチミライキョウギカイ,0
1704,6012703002852,新規,0,2023-11-08,2023-11-08,合同会社Ｅｎｔｅｒ,,合同会社,東京都,西東京市,田無町３丁目３番４―４０２号,,13,229,1880011,,,,,,,2023-11-08,1,,,,,エンター,0
1705,6012801022752,新規,0,2023-11-08,2023-11-08,株式会社ＬＡＢＯ,,株式会社,東京都,国立市,西２丁目１９－１３,,13,215,1860005,,,,,,,2023-11-08,1,,,,,ラボ,0
1706,6012803003230,新規,0,2023-11-08,2023-11-08,合同会社Ｄｅｓｉｇｎ　Ｓｔｕｄｉｏ　ｐａｓｓａｇｅ,,合同会社,東京都,日野市,東平山１丁目７番地の１３平山住宅２３３６,,13,212,1910054,,,,,,,2023-11-08,1,,,,,デザインスタジオパッセージ,0
1707,6013301051580,新規,0,2023-11-08,2023-11-08,株式会社コングラット,,株式会社,東京都,豊島区,北大塚１丁目２１番８号,,13,116,1700004,,,,,,,2023-11-08,1,,,,,コングラット,0
1713,6020001154275,新規,0,2023-11-08,2023-11-08,株式会社やすい屋,,株式会社,神奈川県,横浜市中区,山下町１２８番地１０２,,14,104,2310023,,,,,,,2023-11-08,1,,,,,ヤスイヤ,0
1714,6020001154300,新規,0,2023-11-08,2023-11-08,株式会社ホスピタリティ・オペレーション,,株式会社,神奈川県,川崎市高津区,下作延１丁目６番１号,,14,134,2130033,,,,,,,2023-11-08,1,,,,,ホスピタリティオペレーション,0
1715,6020001154317,新規,0,2023-11-08,2023-11-08,株式会社エスティコム,,株式会社,神奈川県,川崎市川崎区,本町１丁目７番地７－１１０２号,,14,131,2100001,,,,,,,2023-11-08,1,,,,,エスティコム,0
1716,6020001154325,新規,0,2023-11-08,2023-11-08,グランワークス株式会社,,株式会社,神奈川県,横浜市旭区,鶴ケ峰本町２丁目３０番１号,,14,112,2410021,,,,,,,2023-11-08,1,,,,,グランワークス,0
1717,6020001154358,新規,0,2023-11-08,2023-11-08,株式会社ＲＥＧＡＩＮ,,株式会社,神奈川県,川崎市川崎区,日進町３番地４,,14,131,2100024,,,,,,,2023-11-08,1,,,,,リゲイン,0
1718,6020001154374,新規,0,2023-11-08,2023-11-08,株式会社スタジオプラスツー,,株式会社,神奈川県,横浜市港北区,日吉１丁目３番１０－１号,,14,109,2230061,,,,,,,2023-11-08,1,,,,,スタジオプラスツー,0
1719,6020001154399,新規,0,2023-11-08,2023-11-08,株式会社こうけん社,,株式会社,神奈川県,横浜市磯子区,汐見台１丁目２番４－２０４号,,14,107,2350022,,,,,,,2023-11-08,1,,,,,コウケンシャ,0
1724,6020003024922,新規,0,2023-11-08,2023-11-08,ｉｍａｇｌｏ合同会社,,合同会社,神奈川県,川崎市宮前区,梶ケ谷１４２２番地５９,,14,136,2160034,,,,,,,2023-11-08,1,,,,,イマグロ,0
1725,6020003024930,新規,0,2023-11-08,2023-11-08,合同会社ＵＣＨＩＤＡ,,合同会社,神奈川県,横浜市戸塚区,平戸１丁目１５番２５－８１０号,,14,110,2440802,,,,,,,2023-11-08,1,,,,,ウチダ,0
1726,6020003024947,新規,0,2023-11-08,2023-11-08,合同会社Ｒ．Ｈ．Ｓ,,合同会社,神奈川県,川崎市高津区,溝口１丁目１３番２４－１３０２号ライオンズステーションプラザ溝の口セントラルアベニュー,,14,134,2130001,,,,,,,2023-11-08,1,,,,,アールエイチエス,0
1729,6021001080643,新規,0,2023-11-08,2023-11-08,株式会社ミラージュ,,株式会社,神奈川県,大和市,南林間２丁目９番１３号Ｙ＆Ｙ南林間２０２,,14,213,2420006,,,,,,,2023-11-08,1,,,,,ミラージュ,0
1737,6030001156964,新規,0,2023-11-08,2023-11-08,株式会社アールコネクト,,株式会社,埼玉県,熊谷市,肥塚１４０３番地１,,11,202,3600015,,,,,,,2023-11-08,1,,,,,アールコネクト,0
1738,6030001156989,新規,0,2023-11-08,2023-11-08,株式会社ＢＳテクノ,,株式会社,埼玉県,さいたま市南区,辻３丁目２番２５－７０１,00132564,11,108,3360026,,,,,,,2023-11-08,1,,,,,ビーエステクノ,0
1739,6030001157005,新規,0,2023-11-08,2023-11-08,株式会社大慈工業,,株式会社,埼玉県,北足立郡伊奈町,大字小室４７８９番６,,11,301,3620806,,,,,,,2023-11-08,1,,,,,ダイジコウギョウ,0
1740,6030001157021,新規,0,2023-11-08,2023-11-08,株式会社ナノテック・システムズ,,株式会社,埼玉県,戸田市,大字新曽２１９６－１ミラージュガーデン７０６,,11,224,3350021,,,,,,,2023-11-08,1,,,,,ナノテックシステムズ,0
1741,6030001157038,新規,0,2023-11-08,2023-11-08,株式会社ＲｅｔＲｏ,,株式会社,埼玉県,坂戸市,大字青木５２３－４,,11,239,3500207,,,,,,,2023-11-08,1,,,,,レトロ,0
1742,6030001157062,新規,0,2023-11-08,2023-11-08,株式会社永笑工業,,株式会社,埼玉県,鴻巣市,本町４丁目８番３３－３０５号クレアドミール鴻巣,,11,217,3650038,,,,,,,2023-11-08,1,,,,,エイワコウギョウ,0
1743,6030003022941,新規,0,2023-11-08,2023-11-08,合同会社ねこちぐら,,合同会社,埼玉県,さいたま市西区,大字二ツ宮１２番地２１,,11,101,3310065,,,,,,,2023-11-08,1,,,,,ネコチグラ,0
1744,6030003022958,新規,0,2023-11-08,2023-11-08,ＳＫ久楽合同会社,,合同会社,埼玉県,川口市,芝４丁目１番１号－１Ｆ,,11,203,3330866,,,,,,,2023-11-08,1,,,,,エスケーキュウラク,0
1752,6040001130794,新規,0,2023-11-08,2023-11-08,株式会社ＹＳＩ,,株式会社,千葉県,市川市,福栄２丁目１１番２４－３０１号,,12,203,2720137,,,,,,,2023-11-08,1,,,,,ワイエスアイ,0
1753,6040001130869,新規,0,2023-11-08,2023-11-08,美健サイエンス株式会社,,株式会社,千葉県,松戸市,新松戸６丁目１１８番地の２,,12,207,2700034,,,,,,,2023-11-08,1,,,,,ビケンサイエンス,0
1757,6040003023666,新規,0,2023-11-08,2023-11-08,合同会社ＰＹＴＨＯＮ　ＡＲＴ　ＷＯＲＫＳ,,合同会社,千葉県,船橋市,本町６丁目１８番１９第３山中ビル４０１号室,,12,204,2730005,,,,,,,2023-11-08,1,,,,,パイソンアートワークス,0
1758,6050001053788,新規,0,2023-11-08,2023-11-08,株式会社リペイント,,株式会社,茨城県,神栖市,堀割２丁目２０番１５号,,08,232,3140135,,,,,,,2023-11-08,1,,,,,リペイント,0
1765,6070005010189,新規,0,2023-11-08,2023-11-08,特定非営利活動法人ｆｌｅｕｒｉｒ,,その他の設立登記法人,群馬県,前橋市,元総社町６２番地３,,10,201,3710846,,,,,,,2023-11-08,1,,,,,,0
1768,6080101024323,新規,0,2023-11-08,2023-11-08,ワタナベ建設株式会社,,株式会社,静岡県,伊豆市,熊坂５８４番地の１,,22,222,4102411,,,,,,,2023-11-08,1,,,,,ワタナベケンセツ,0
1776,6090001018408,新規,0,2023-11-08,2023-11-08,内田國太郎商店株式会社,,株式会社,山梨県,山梨市,上栗原８４２番地の１,,19,205,4050022,,,,,,,2023-11-08,1,,,,,ウチダクニタロウショウテン,0
1780,6100001036952,新規,0,2023-11-08,2023-11-08,株式会社ＴＡＫＡＧＩ,,株式会社,長野県,北佐久郡軽井沢町,大字発地２１６番地２,,20,321,3890113,,,,,,,2023-11-08,1,,,,,タカギ,0
1782,6100003007258,新規,0,2023-11-08,2023-11-08,合同会社とラク,,合同会社,長野県,諏訪市,湖岸通り５丁目１５－９井出ビルＦ１,,20,206,3920027,,,,,,,2023-11-08,1,,,,,トラク,0
1793,6120001259493,新規,0,2023-11-08,2023-11-08,日本新会株式会社,,株式会社,大阪府,大阪市淀川区,田川北２丁目５－３４・Ｅ棟１０１号室,,27,123,5320021,,,,,,,2023-11-08,1,,,,,ニホンシンカイ,0
1794,6120001259502,新規,0,2023-11-08,2023-11-08,株式会社シンカ,,株式会社,大阪府,大阪市東成区,中本５丁目８番４号,,27,115,5370022,,,,,,,2023-11-08,1,,,,,シンカ,0
1795,6120001259510,新規,0,2023-11-08,2023-11-08,株式会社ＩＳＩ,,株式会社,大阪府,大阪市西区,京町堀２丁目１２番１９－１０２号,,27,106,5500003,,,,,,,2023-11-08,1,,,,,イシイ,0
1796,6120001259527,新規,0,2023-11-08,2023-11-08,ＰＲＯ‐ＴＡＣ　Ａｒｍａｄａ株式会社,,株式会社,大阪府,大阪市住吉区,遠里小野１丁目４番２８号ハイムエルザ３０２号室,,27,120,5580032,,,,,,,2023-11-08,1,,,,,プローテックアーマーダー,0
1797,6120001259535,新規,0,2023-11-08,2023-11-08,金燦株式会社,,株式会社,大阪府,大阪市平野区,平野上町１丁目６番５－３０１号室,,27,126,5470045,,,,,,,2023-11-08,1,,,,,キンサン,0
1798,6120001259576,新規,0,2023-11-08,2023-11-08,＿盛株式会社,00132566,株式会社,大阪府,大阪市天王寺区,細工谷１丁目１０番３号,,27,109,5430032,,,,,,,2023-11-08,1,,,,,キンセイ,0
1799,6120001259584,新規,0,2023-11-08,2023-11-08,Ｂｌｕｅ＆Ｂｒｏｗｎ株式会社,,株式会社,大阪府,大阪市北区,西天満３丁目１番５号英和ビル４０１号室,,27,127,5300047,,,,,,,2023-11-08,1,,,,,ブルーアンドブラウン,0
1800,6120001259601,新規,0,2023-11-08,2023-11-08,株式会社Ａｆｆｅｃｔｉｆｙ,,株式会社,大阪府,大阪市北区,梅田１丁目１１番４号,,27,127,5300001,,,,,,,2023-11-08,1,,,,,,0
1801,6120001259675,新規,0,2023-11-08,2023-11-08,株式会社トレ,,株式会社,大阪府,大阪市西区,新町２丁目１２番１３号,,27,106,5500013,,,,,,,2023-11-08,1,,,,,トレ,0
1802,6120001259709,新規,0,2023-11-08,2023-11-08,株式会社ｄｉｇｉｔｉｖｅ,,株式会社,大阪府,大阪市北区,梅田１丁目２番２号大阪駅前第２ビル１２－１２,,27,127,5300001,,,,,,,2023-11-08,1,,,,,デジティブ,0
1807,6120003025274,新規,0,2023-11-08,2023-11-08,合同会社むつき,,合同会社,大阪府,大阪市阿倍野区,北畠３丁目３番４４号,,27,119,5450035,,,,,,,2023-11-08,1,,,,,ムツキ,0
1808,6120003025299,新規,0,2023-11-08,2023-11-08,合同会社ＳＯＵＬＺＡＭ,,合同会社,大阪府,大阪市中央区,東心斎橋２丁目３－２２,,27,128,5420083,,,,,,,2023-11-08,1,,,,,ソウルザム,0
1817,6120901048335,新規,0,2023-11-08,2023-11-08,株式会社Ｄ’ｓＨｏｕｓｅ,,株式会社,大阪府,豊中市,服部寿町３丁目５番１６号,,27,203,5610857,,,,,,,2023-11-08,1,,,,,ディーズハウス,0
1822,6122001037540,新規,0,2023-11-08,2023-11-08,株式会社真輝,,株式会社,大阪府,東大阪市,若江本町３丁目２番１５号,,27,227,5780942,,,,,,,2023-11-08,1,,,,,シンキ,0
1826,6130001075634,新規,0,2023-11-08,2023-11-08,株式会社Ｌａｆ　Ｌｉｆｅ,,株式会社,京都府,京都市右京区,西京極南大入町７１－１エステイト東久２０２,,26,108,6150883,,,,,,,2023-11-08,1,,,,,ラフライフ,0
1835,6140001132211,新規,0,2023-11-08,2023-11-08,昇茂株式会社,,株式会社,兵庫県,尼崎市,宮内町１丁目２番１６号,,28,202,6600877,,,,,,,2023-11-08,1,,,,,ショウモ,0
1836,6140001132228,新規,0,2023-11-08,2023-11-08,株式会社Ｌｉｆｅ　Ｔｉｍｅ　Ｒｅｎｏｖａｔｉｏｎ,,株式会社,兵庫県,神戸市中央区,御幸通８丁目１番６号神戸国際会館２２Ｆ,,28,110,6510087,,,,,,,2023-11-08,1,,,,,ライフタイムリノベーション,0
1840,6140003019778,新規,0,2023-11-08,2023-11-08,合同会社晴耕雨耕,,合同会社,兵庫県,三田市,大川瀬９６３番地２,,28,219,6691349,,,,,,,2023-11-08,1,,,,,セイコウウコウ,0
1841,6150001026858,新規,0,2023-11-08,2023-11-08,株式会社オカート,,株式会社,奈良県,山辺郡山添村,大字片平３８４番地の１,,29,322,6302356,,,,,,,2023-11-08,1,,,,,オカート,0
1843,6160001025487,新規,0,2023-11-08,2023-11-08,株式会社５．ｐｏｕｒ,,株式会社,滋賀県,草津市,大路１丁目９番１－１２１２号アトラスタワー草津,,25,206,5250032,,,,,,,2023-11-08,1,,,,,メポワール,0
1851,6180001158847,新規,0,2023-11-08,2023-11-08,株式会社エヌ・ケイホールディングス,,株式会社,愛知県,一宮市,大和町毛受字正寺３１番地,,23,203,4910932,,,,,,,2023-11-08,1,,,,,エヌケイホールディングス,0
1868,6200001041868,新規,0,2023-11-08,2023-11-08,株式会社ＡＫプロパティ,,株式会社,岐阜県,岐阜市,五反田町１０番地,,21,201,5008328,,,,,,,2023-11-08,1,,,,,エーケープロパティ,0
1869,6200001041884,新規,0,2023-11-08,2023-11-08,株式会社ＫＹＣ,,株式会社,岐阜県,可児市,広眺ケ丘１０丁目２９番地,,21,214,5090221,,,,,,,2023-11-08,1,,,,,ケーワイシー,0
1873,6210001019533,新規,0,2023-11-08,2023-11-08,株式会社グっとサポート．ｗａｋａｓａ,,株式会社,福井県,大飯郡高浜町,薗部第４７号４番地,,18,481,9192224,,,,,,,2023-11-08,1,,,,,グットサポートワカサ,0
1891,6270001008869,新規,0,2023-11-08,2023-11-08,株式会社ヤッターマン,,株式会社,鳥取県,鳥取市,南吉方２丁目２３番地１０１号室,,31,201,6800843,,,,,,,2023-11-08,1,,,,,ヤッターマン,0
1892,6270003001574,新規,0,2023-11-08,2023-11-08,鳥取みなとサポート合同会社,,合同会社,鳥取県,鳥取市,賀露町北２丁目１０番２２号,,31,201,6800907,,,,,,,2023-11-08,1,,,,,トットリミナトサポート,0
1900,6290001103676,新規,0,2023-11-08,2023-11-08,株式会社ブライト,,株式会社,福岡県,福岡市南区,曰佐４丁目１３番１５号,,40,134,8111313,,,,,,,2023-11-08,1,,,,,ブライト,0
1902,6290003014574,新規,0,2023-11-08,2023-11-08,ＫＵＮＺＩＴＥ合同会社,,合同会社,福岡県,福岡市中央区,天神２丁目４－２０天神プラッサ９０２,,40,133,8100001,,,,,,,2023-11-08,1,,,,,クンツァイト,0
1903,6290003014582,新規,0,2023-11-08,2023-11-08,合同会社船城,,合同会社,福岡県,福岡市博多区,上川端町１１番１号新川端グレイスマンションＢ１,,40,132,8120026,,,,,,,2023-11-08,1,,,,,フナキ,0
1905,6300001013519,新規,0,2023-11-08,2023-11-08,株式会社宮崎解体工業,00132554,株式会社,佐賀県,伊万里市,松浦町山形４８１７番地１,,41,205,8495263,,,,,,,2023-11-08,1,,,,,ミヤザキカイタイコウギョウ,0
1911,6330001031427,新規,0,2023-11-08,2023-11-08,小川製網株式会社,,株式会社,熊本県,菊池市,雪野１９９８番地１,,43,210,8611681,,,,,,,2023-11-08,1,,,,,オガワセイモウ,0
1913,6330003010065,新規,0,2023-11-08,2023-11-08,合同会社ちむどんどん,,合同会社,熊本県,荒尾市,緑ケ丘４丁目４番地７,,43,204,8640033,,,,,,,2023-11-08,1,,,,,チムドンドン,0
1919,6340003004306,新規,0,2023-11-08,2023-11-08,合同会社ハイグレード,,合同会社,鹿児島県,姶良市,東餅田５３７番地１,,46,225,8995421,,,,,,,2023-11-08,1,,,,,ハイグレード,0
1921,6350001018653,新規,0,2023-11-08,2023-11-08,ＰＡＡＫ　ＭＡＮＡＧＥＭＥＮＴ株式会社,,株式会社,宮崎県,日南市,飫肥５丁目２番１８号２階,,45,204,8892535,,,,,,,2023-11-08,1,,,,,パークマネジメント,0
1922,6350003004478,新規,0,2023-11-08,2023-11-08,合同会社一,,合同会社,宮崎県,都城市,安久町５９４３番地９,,45,202,8850044,,,,,,,2023-11-08,1,,,,,ハジメ,0
1923,6350005006191,新規,0,2023-11-08,2023-11-08,一般社団法人ハウリング,,その他の設立登記法人,宮崎県,延岡市,浜町５１１９ー１０,,45,203,8820862,,,,,,,2023-11-08,1,,,,,ハウリング,0
1924,6360001032769,新規,0,2023-11-08,2023-11-08,株式会社明エンタープライズ,,株式会社,沖縄県,宜野湾市,伊佐３丁目３０番２７号,,47,205,9012221,,,,,,,2023-11-08,1,,,,,アキラエンタープライズ,0
1927,6360003013461,新規,0,2023-11-08,2023-11-08,ＢＥＥＴＬＥ合同会社,,合同会社,沖縄県,糸満市,字大度３０９番地の３０,,47,210,9010334,,,,,,,2023-11-08,1,,,,,ビートル,0
1939,6370003006357,新規,0,2023-11-08,2023-11-08,合同会社Ｄｏ,,合同会社,宮城県,仙台市青葉区,八幡７丁目２４番２４号,,04,101,9800871,,,,,,,2023-11-08,1,,,,,ディーオー,0
1944,6380001034111,新規,0,2023-11-08,2023-11-08,ＣＨＣ株式会社,,株式会社,福島県,会津若松市,米代２丁目１番１０号,,07,202,9650875,,,,,,,2023-11-08,1,,,,,シーエイチシー,0
1945,6380003005606,新規,0,2023-11-08,2023-11-08,合同会社みんなのミカタ,,合同会社,福島県,福島市,八島田字畑添１１－３３,,07,201,9608056,,,,,,,2023-11-08,1,,,,,ミンナノミカタ,0
1946,6380005012765,新規,0,2023-11-08,2023-11-08,税理士法人みちのくの風,,その他の設立登記法人,福島県,南相馬市,原町区高見町２丁目１０３番地,,07,212,9750033,,,,,,,2023-11-08,1,,,,,ミチノクノカゼ,0
1962,6700150121387,新規,0,2023-11-08,2023-10-25,山代鉱泉宿営業組合,,その他,石川県,加賀市,山代温泉北部３丁目７０番地,,17,206,9220243,,,,,,,2023-10-25,1,,,,,ヤマシロコウセンシユクエイギヨウクミアイ,0
1963,6700150121899,新規,0,2023-11-08,2023-11-08,ｓｈａｎｇｈａｉｒｏｎｇｙｕｍａｏｙｉｙｏｕｘｉａｎｇｏｎｇｓｉ,,外国会社等,,,,,,,,Ｆａｎｇｈｅ　Ｒｄ　Ｎｏ．１０８８　Ｓｈａｎｇｈａｉ　Ｍｉｎｈａｎｇ　２００２４１　ＣＮ,,,,,,2023-11-08,1,,,,,シャンハイロンユィマオイーヨウシェンゴンスー,0
1964,6700150121908,新規,0,2023-11-08,2023-11-08,ｓｈｕａｎｇｓｉ（ｓｈｅｎｚｈｅｎ）ｋｅｊｉｙｏｕｘｉａｎｇｏｎｇｓｉ,,外国会社等,,,,,,,,Ｒｏｏｍ３０１　３ｒｄＦｌｏｏｒＢｌｏｃｋＣ　ＱｉｎｇｈｕＳｃｉｅｎｃｅａｎｄＴｅｃｈｎｏｌｏｇｙＰａｒｋＱｉｎｇｘｉａｎｇＲｏａｄＱｉｎｇｈｕＣｏｍｍｕｎｉｔｙＬｏｎｇｈｕａＳｔｒｅｅｔ　ＬｏｎｇｈｕａＤｉｓｔｒｉｃｔ　Ｓｈｅｎｚｈｅｎ　５１８１０９　ＣＮ,,,,,,2023-11-08,1,,,,,ソウシシンセンカギヨウシェンゴンスー,0
1975,7010001239778,新規,0,2023-11-08,2023-11-08,株式会社ＳＴＰ,,株式会社,東京都,千代田区,内幸町２丁目１番６号,,13,101,1000011,,,,,,,2023-11-08,1,,,,,エスティーピー,0
1976,7010001239869,新規,0,2023-11-08,2023-11-08,松開原株式会社,,株式会社,東京都,中央区,日本橋人形町１丁目２番１２号ＢｏｕｒｎＭａｒｋＮｉｎｇｙｏｃｈｏＢＬＤ．２Ｆ,,13,102,1030013,,,,,,,2023-11-08,1,,,,,ショウカイゲン,0
1983,7010003042032,新規,0,2023-11-08,2023-11-08,合同会社あんばいＬＢ４号,,合同会社,東京都,千代田区,霞が関３丁目２番５号,,13,101,1000013,,,,,,,2023-11-08,1,,,,,アンバイエルビーヨンゴウ,0
1984,7010003042131,新規,0,2023-11-08,2023-11-08,合同会社ペンギンプランニング,,合同会社,東京都,千代田区,九段南１丁目５番６号りそな九段ビル５階ＫＳフロア,,13,101,1020074,,,,,,,2023-11-08,1,,,,,ペンギンプランニング,0
1986,7010005037476,新規,0,2023-11-08,2023-11-08,一般社団法人５デアザフラビン研究会,,その他の設立登記法人,東京都,中央区,銀座３丁目１１－１６ＶＯＲＴ銀座イースト３Ｆ,,13,102,1040061,,,,,,,2023-11-08,1,,,,,フアイブデアザフラビンケンキュウカイ,0
1990,7010401178361,新規,0,2023-11-08,2023-11-08,株式会社リリーミール,,株式会社,東京都,港区,三田１丁目１１番３４号山の上ハウス１０１,,13,103,1080073,,,,,,,2023-11-08,1,,,,,リリーミール,0
1991,7010401178386,新規,0,2023-11-08,2023-11-08,株式会社ＶＡＬＨＡＬＬＡ　ＡＲＭＳ,,株式会社,東京都,港区,北青山１丁目３番１号アールキューブ青山３階,,13,103,1070061,,,,,,,2023-11-08,1,,,,,ヴァルハラアームス,0
1994,7010501051303,新規,0,2023-11-08,2023-11-08,株式会社Ｕｎｉｑｕｅ　ｐｅａｃｅ,,株式会社,東京都,台東区,上野１丁目１４番３号天龍ビル３Ｆ,,13,106,1100005,,,,,,,2023-11-08,1,,,,,ユニークピース,0
2000,7010601064089,新規,0,2023-11-08,2023-11-08,株式会社ドリーム,,株式会社,東京都,墨田区,墨田５丁目４０番１５号,,13,107,1310031,,,,,,,2023-11-08,1,,,,,ドリーム,0
2001,7010601064097,新規,0,2023-11-08,2023-11-08,株式会社今日１フーズ,,株式会社,東京都,墨田区,東向島３丁目３５番６号ＫＳビル１階,,13,107,1310032,,,,,,,2023-11-08,1,,,,,キョウイチフーズ,0
2002,7010601064106,新規,0,2023-11-08,2023-11-08,株式会社ＩＭＧ,,株式会社,東京都,江東区,住吉１丁目１６番３－８０６号,,13,108,1350002,,,,,,,2023-11-08,1,,,,,アイエムジー,0
2003,7010701045088,新規,0,2023-11-08,2023-11-08,トヨクモクラウドコネクト株式会社,,株式会社,東京都,品川区,上大崎３丁目１番１号,,13,109,1410021,,,,,,,2023-11-08,1,,,,,トヨクモクラウドコネクト,0
2006,7010801034503,新規,0,2023-11-08,2023-11-08,株式会社ＴＥＥＴＨ,,株式会社,東京都,大田区,矢口２丁目２番１７号,,13,111,1460093,,,,,,,2023-11-08,1,,,,,ティース,0
2008,7010803004743,新規,0,2023-11-08,2023-11-08,合同会社ＰＥＧ,,合同会社,東京都,大田区,矢口３丁目２４番４４ザ・ガーデンズ大田多摩川１３０２号,,13,111,1460093,,,,,,,2023-11-08,1,,,,,ペグ,0
2011,7010901054153,新規,0,2023-11-08,2023-11-08,デイリーポータルＺ株式会社,,株式会社,東京都,世田谷区,赤堤１丁目３５番１７号,,13,112,1560044,,,,,,,2023-11-08,1,,,,,デイリーポータルゼット,0
2025,7011003017890,新規,0,2023-11-08,2023-11-08,合同会社アップライズ,,合同会社,東京都,目黒区,自由が丘１丁目３番１７号,,13,110,1520035,,,,,,,2023-11-08,1,,,,,アップライズ,0
2030,7011103013666,新規,0,2023-11-08,2023-11-08,合同会社Ｎｏ　Ｓｉｄｅ,,合同会社,東京都,新宿区,西新宿４丁目３８番１３号ルミナス西新宿１０３,,13,104,1600023,,,,,,,2023-11-08,1,,,,,ノーサイド,0
2035,7011501029933,新規,0,2023-11-08,2023-11-08,株式会社グランドエス,,株式会社,東京都,荒川区,荒川３丁目３５番６－５０２号,,13,118,1160002,,,,,,,2023-11-08,1,,,,,グランドエス,0
2036,7011501029958,新規,0,2023-11-08,2023-11-08,鳴一株式会社,,株式会社,東京都,北区,中里１丁目２１番２号中里ビル１Ｆ,,13,117,1140015,,,,,,,2023-11-08,1,,,,,ナルカズ,0
2037,7011501029966,新規,0,2023-11-08,2023-11-08,株式会社健,,株式会社,東京都,荒川区,南千住１丁目１５番１６号,,13,118,1160003,,,,,,,2023-11-08,1,,,,,ケン,0
2038,7011701026722,新規,0,2023-11-08,2023-11-08,株式会社Ｍ　Ｃｏｍｐａｎｙ,,株式会社,東京都,江戸川区,篠崎町７丁目８番７号,,13,123,1330061,,,,,,,2023-11-08,1,,,,,エムカンパニー,0
2039,7011701026730,新規,0,2023-11-08,2023-11-08,株式会社ＧＫ,,株式会社,東京都,江戸川区,上一色３丁目２６番５号,,13,123,1330041,,,,,,,2023-11-08,1,,,,,ジーケー,0
2042,7011801043295,新規,0,2023-11-08,2023-11-08,株式会社ミノルバ,,株式会社,東京都,葛飾区,東金町３丁目６番２０－４０１号ベルシャトゥ金町,,13,122,1250041,,,,,,,2023-11-08,1,,,,,ミノルバ,0
2043,7011801043304,新規,0,2023-11-08,2023-11-08,株式会社Ｆｅｌｉｃｅ,,株式会社,東京都,足立区,六町２丁目５番１２号Ｆｅｌｉｃｅ２Ａ,,13,121,1210073,,,,,,,2023-11-08,1,,,,,フェリーチェ,0
2047,7012702014708,新規,0,2023-11-08,2023-11-08,有限会社三洸建設,,有限会社,東京都,小平市,小川町１丁目１０７０番地１９,,13,211,1870032,,,,,,,2023-11-08,1,,,,,サンコウケンセツ,0
2056,7020001154365,新規,0,2023-11-08,2023-11-08,工藤工業株式会社,,株式会社,神奈川県,川崎市川崎区,小田２丁目１７番２３号第５むさしマンション１０１,,14,131,2100846,,,,,,,2023-11-08,1,,,,,クドウコウギョウ,0
2060,7020003024946,新規,0,2023-11-08,2023-11-08,ＬＳＪコンサルティング合同会社,,合同会社,神奈川県,横浜市中区,山下町１６３番地ザ・ライオンズ横濱山下町９０３号室,,14,104,2310023,,,,,,,2023-11-08,1,,,,,エルエスジェイコンサルティング,0
2061,7021001080601,新規,0,2023-11-08,2023-11-08,Ｎｉｋｋｏ株式会社,,株式会社,神奈川県,厚木市,下依知２丁目３３番５号メープルハイム１０７,,14,212,2430806,,,,,,,2023-11-08,1,,,,,ニッコー,0
2062,7021001080659,新規,0,2023-11-08,2023-11-08,株式会社ＶＩＴＡ,,株式会社,神奈川県,相模原市中央区,清新５丁目２０番地Ｃ棟２０６号室,,14,152,2520216,,,,,,,2023-11-08,1,,,,,ヴィータ,0
2064,7021005012922,新規,0,2023-11-08,2023-11-08,フジタ第一箱根山マンション管理組合法人,,その他の設立登記法人,神奈川県,足柄下郡箱根町,二ノ平１２９７番地の１２２,,14,382,2500407,,,,,,,2023-11-08,1,,,,,フジタダイイチハコネヤママンション,0
2065,7021005012930,新規,0,2023-11-08,2023-11-08,ＮＰＯ法人にゃんこの手,,その他の設立登記法人,神奈川県,相模原市南区,磯部１１８６－７,,14,153,2520327,,,,,,,2023-11-08,1,,,,,ニャンコノテ,0
2069,7030001156988,新規,0,2023-11-08,2023-11-08,北港商事株式会社,,株式会社,埼玉県,川口市,前川３丁目３２－２０,,11,203,3330842,,,,,,,2023-11-08,1,,,,,ホクコウショウジ,0
2070,7030001157004,新規,0,2023-11-08,2023-11-08,富士電サービス株式会社,,株式会社,埼玉県,熊谷市,三本７２８番地２,,11,202,3600116,,,,,,,2023-11-08,1,,,,,フジデンサービス,0
2071,7030001157053,新規,0,2023-11-08,2023-11-08,株式会社Ｍ＆Ｙりふぉーむ,,株式会社,埼玉県,川口市,元郷２丁目１５番１０号,,11,203,3320011,,,,,,,2023-11-08,1,,,,,エムアンドワイリフォーム,0
2074,7030003022949,新規,0,2023-11-08,2023-11-08,合同会社平和,,合同会社,埼玉県,さいたま市大宮区,仲町１丁目８０もりくま４－２Ｆ,,11,103,3300845,,,,,,,2023-11-08,1,,,,,ヘイワ,0
2075,7030003022957,新規,0,2023-11-08,2023-11-08,合同会社ＩＳＯ工業,,合同会社,埼玉県,越谷市,大字長島１４９番地３,,11,222,3430853,,,,,,,2023-11-08,1,,,,,アイエスオーコウギョウ,0
2084,7050001053787,新規,0,2023-11-08,2023-11-08,ブライトプロセス株式会社,,株式会社,茨城県,牛久市,ひたち野東３丁目１６－３０,,08,219,3001207,,,,,,,2023-11-08,1,,,,,ブライトプロセス,0
2085,7050001053795,新規,0,2023-11-08,2023-11-08,株式会社ジップス,,株式会社,茨城県,水戸市,田谷町１５４５番地,,08,201,3114204,,,,,,,2023-11-08,1,,,,,ジップス,0
2096,7070003005165,新規,0,2023-11-08,2023-11-08,合同会社きふや,,合同会社,群馬県,前橋市,元総社町１６０８番地,,10,201,3710846,,,,,,,2023-11-08,1,,,,,キフヤ,0
2097,7070005010188,新規,0,2023-11-08,2023-11-08,一般社団法人サポルト,,その他の設立登記法人,群馬県,高崎市,島野町１３６１番地２,,10,202,3700015,,,,,,,2023-11-08,1,,,,,サポルト,0
2112,7100001036951,新規,0,2023-11-08,2023-11-08,大塚テクニクス株式会社,,株式会社,長野県,長野市,大字富竹８０番地１６,,20,201,3810006,,,,,,,2023-11-08,1,,,,,オオツカテクニクス,0
2113,7110001037965,新規,0,2023-11-08,2023-11-08,株式会社心陽工房,,株式会社,新潟県,柏崎市,大字善根１４４４－１,,15,205,9451432,,,,,,,2023-11-08,1,,,,,シンヨウコウボウ,0
2125,7120001259567,新規,0,2023-11-08,2023-11-08,株式会社エッジコネクト,,株式会社,大阪府,大阪市西淀川区,佃１丁目１番７６－１２０５号,,27,113,5550001,,,,,,,2023-11-08,1,,,,,エッジコネクト,0
2126,7120001259591,新規,0,2023-11-08,2023-11-08,株式会社ハウディエステート,,株式会社,大阪府,大阪市都島区,高倉町２丁目１番６－４０７号,,27,102,5340011,,,,,,,2023-11-08,1,,,,,ハウディエステート,0
2127,7120001259716,新規,0,2023-11-08,2023-11-08,ＪＳ暁スター株式会社,,株式会社,大阪府,大阪市中央区,南船場２丁目２番４号７Ｆ,,27,128,5420081,,,,,,,2023-11-08,1,,,,,ジェイエスギョウスター,0
2140,7130001075641,新規,0,2023-11-08,2023-11-08,金都屋株式会社,,株式会社,京都府,京都市南区,東九条上御霊町２番地４０,,26,107,6018015,,,,,,,2023-11-08,1,,,,,キントヤ,0
2150,7140001132227,新規,0,2023-11-08,2023-11-08,ひょうご不動産販売株式会社,,株式会社,兵庫県,明石市,野々上３丁目１４番地の２,,28,203,6730017,,,,,,,2023-11-08,1,,,,,ヒョウゴフドウサンハンバイ,0
2151,7140001132235,新規,0,2023-11-08,2023-11-08,株式会社栗山空調設備,,株式会社,兵庫県,揖保郡太子町,太田２１１６番地１,,28,464,6711511,,,,,,,2023-11-08,1,,,,,クリヤマクウチョウセツビ,0
2152,7140001132243,新規,0,2023-11-08,2023-11-08,株式会社オリーブ不動産,,株式会社,兵庫県,神戸市北区,藤原台北町７丁目８番９号,,28,109,6511301,,,,,,,2023-11-08,1,,,,,オリーブフドウサン,0
2153,7140001132276,新規,0,2023-11-08,2023-11-08,株式会社Ｓｈｉｎｏｓｔａｒ,,株式会社,兵庫県,神戸市中央区,海岸通５丁目２－１４ディナスティみなと元町６０３号,,28,110,6500024,,,,,,,2023-11-08,1,,,,,シンノスター,0
2154,7140001132284,新規,0,2023-11-08,2023-11-08,株式会社ＪＵＮ,,株式会社,兵庫県,明石市,大久保町大窪４９２番地の２,,28,203,6740051,,,,,,,2023-11-08,1,,,,,ジュン,0
2157,7140003019769,新規,0,2023-11-08,2023-11-08,合同会社利他コーポレーション,,合同会社,兵庫県,神戸市中央区,山本通１丁目７番５号,,28,110,6500003,,,,,,,2023-11-08,1,,,,,リタコーポレーション,0
2158,7150001026857,新規,0,2023-11-08,2023-11-08,株式会社Ｇｒａｎｄｉｒ,,株式会社,奈良県,香芝市,瓦口２２５０番地１,,29,210,6390225,,,,,,,2023-11-08,1,,,,,グランディール,0
2161,7170001017870,新規,0,2023-11-08,2023-11-08,株式会社真成コンサルティング,,株式会社,和歌山県,西牟婁郡上富田町,朝来５０９番地の１,,30,404,6492105,,,,,,,2023-11-08,1,,,,,シンセイコンサルティング,0
2162,7170001017879,新規,0,2023-11-08,2023-11-08,株式会社ウェルビーライフ,,株式会社,和歌山県,和歌山市,美園町５丁目３－３,,30,201,6408331,,,,,,,2023-11-08,1,,,,,ウェルビーライフ,0
2168,7180001158763,新規,0,2023-11-08,2023-11-08,株式会社クピード,,株式会社,愛知県,名古屋市東区,泉１丁目１８番１０号（エルザセンティア久屋７０８号）,,23,102,4610001,,,,,,,2023-11-08,1,,,,,クピード,0
2169,7180001158788,新規,0,2023-11-08,2023-11-08,株式会社宮嶋ネーム,,株式会社,愛知県,名古屋市千種区,今池南１９番２１号,,23,101,4640851,,,,,,,2023-11-08,1,,,,,ミヤジマネーム,0
2170,7180001158870,新規,0,2023-11-08,2023-11-08,株式会社アイムファイン,,株式会社,愛知県,名古屋市中区,大須１丁目１８番２７号,,23,106,4600011,,,,,,,2023-11-08,1,,,,,アイムファイン,0
2172,7180003025953,新規,0,2023-11-08,2023-11-08,グランドソリューション合同会社,,合同会社,愛知県,江南市,今市場町高根７４番地１,,23,217,4838183,,,,,,,2023-11-08,1,,,,,グランドソリューション,0
2181,7200001041883,新規,0,2023-11-08,2023-11-08,株式会社おがた,,株式会社,岐阜県,中津川市,川上１６５５番地１,,21,206,5099201,,,,,,,2023-11-08,1,,,,,オガタ,0
2185,7230001020100,新規,0,2023-11-08,2023-11-08,あいいろ株式会社,,株式会社,富山県,魚津市,上村木２丁目１番１号,,16,204,9370046,,,,,,,2023-11-08,1,,,,,アイイロ,0
2187,7230003002105,新規,0,2023-11-08,2023-11-08,合同会社アーツクラフト,,合同会社,富山県,魚津市,港町１番１０号,,16,204,9370057,,,,,,,2023-11-08,1,,,,,アーツクラフト,0
2202,7260003004494,新規,0,2023-11-08,2023-11-08,Ｎ‐ＢＡＳＥ合同会社,,合同会社,岡山県,倉敷市,広江２丁目９番２７－７号,,33,202,7128043,,,,,,,2023-11-08,1,,,,,エヌベース,0
2203,7270001008868,新規,0,2023-11-08,2023-11-08,だいとも住工株式会社,,株式会社,鳥取県,鳥取市,滝山４４０番地５,,31,201,6800072,,,,,,,2023-11-08,1,,,,,ダイトモジュウコウ,0
2205,7270003001573,新規,0,2023-11-08,2023-11-08,合同会社ＢＯＸＴＲＥＥ’Ｓ　ＣＯＭＰＡＮＹ,,合同会社,鳥取県,鳥取市,元町２７５番地,,31,201,6800037,,,,,,,2023-11-08,1,,,,,ボックスツリーズカンパニー,0
2209,7290001103618,新規,0,2023-11-08,2023-11-08,株式会社ファースト,,株式会社,福岡県,飯塚市,有安４２９番地１,,40,205,8200111,,,,,,,2023-11-08,1,,,,,ファースト,0
2210,7290001103650,新規,0,2023-11-08,2023-11-08,株式会社ｂｒｉｇｈｔ,,株式会社,福岡県,大野城市,紫台２８番７号,,40,219,8160954,,,,,,,2023-11-08,1,,,,,ブライト,0
2211,7290001103675,新規,0,2023-11-08,2023-11-08,株式会社塗り屋,,株式会社,福岡県,大牟田市,大字宮崎３００７番地５,,40,202,8370903,,,,,,,2023-11-08,1,,,,,ヌリヤ,0
2212,7290001103700,新規,0,2023-11-08,2023-11-08,キリデン株式会社,,株式会社,福岡県,福岡市東区,美和台２丁目６２番１０号,,40,131,8110212,,,,,,,2023-11-08,1,,,,,キリデン,0
2215,7290003014573,新規,0,2023-11-08,2023-11-08,ＲＵＢＥＬＬＩＴＥ合同会社,,合同会社,福岡県,福岡市中央区,天神２丁目４－２０天神プラッサ４０５,,40,133,8100001,,,,,,,2023-11-08,1,,,,,ルベライト,0
2218,7300001013518,新規,0,2023-11-08,2023-11-08,株式会社ＡＯＩ,,株式会社,佐賀県,嬉野市,嬉野町下宿乙２３６７番地５,,41,209,8430300,,,,,,,2023-11-08,1,,,,,エーオーアイ,0
2221,7330001031426,新規,0,2023-11-08,2023-11-08,株式会社められうか,,株式会社,熊本県,天草市,本渡町広瀬１６４４番地１４,,43,215,8630001,,,,,,,2023-11-08,1,,,,,メラレウカ,0
2222,7330001031442,新規,0,2023-11-08,2023-11-08,株式会社イシダ,,株式会社,熊本県,八代市,中北町３４１８番地,,43,202,8660044,,,,,,,2023-11-08,1,,,,,イシダ,0
2227,7340003004305,新規,0,2023-11-08,2023-11-08,燎原２４合同会社,,合同会社,鹿児島県,鹿児島市,薬師１丁目１８番１３号Ｍ２ビル,,46,201,8900042,,,,,,,2023-11-08,1,,,,,リョウゲンニジュウシ,0
2231,7360001032792,新規,0,2023-11-08,2023-11-08,株式会社ＵＣＮ,,株式会社,沖縄県,那覇市,牧志３丁目１５番３７－１０６０３号,,47,201,9000013,,,,,,,2023-11-08,1,,,,,ユーシーエヌ,0
2232,7360001032801,新規,0,2023-11-08,2023-11-08,本多リゾート株式会社,,株式会社,沖縄県,名護市,字済井出１２０番地,,47,209,9051635,,,,,,,2023-11-08,1,,,,,ホンダリゾート,0
2233,7360003013460,新規,0,2023-11-08,2023-11-08,合同会社まるみず商会,,合同会社,沖縄県,那覇市,上間１丁目１２番３号,,47,201,9020073,,,,,,,2023-11-08,1,,,,,マルミズショウカイ,0
2239,7370001050612,新規,0,2023-11-08,2023-11-08,株式会社ＧＥＮＥＲＡＬＩＸ,,株式会社,宮城県,仙台市青葉区,小田原６丁目１番８－７０１号,,04,101,9800003,,,,,,,2023-11-08,1,,,,,ゼネラリクス,0
2249,7410001013639,新規,0,2023-11-08,2023-11-08,レンチナス奥羽伊勢株式会社,,株式会社,秋田県,山本郡八峰町,峰浜石川字石川４３０番地４,,05,349,0182504,,,,,,,2023-11-08,1,,,,,レンチナスオウウイセ,0
2255,7430001090362,新規,0,2023-11-08,2023-11-08,株式会社電通光,,株式会社,北海道,札幌市北区,北二十四条西１７丁目３番３号,,01,102,0010024,,,,,,,2023-11-08,1,,,,,デンツウコウ,0
2256,7430001090370,新規,0,2023-11-08,2023-11-08,株式会社ＨＫ,,株式会社,北海道,札幌市白石区,東札幌四条３丁目１番１８－２０５号,,01,104,0030004,,,,,,,2023-11-08,1,,,,,エッチケイ,0
2263,7450001014138,新規,0,2023-11-08,2023-11-08,株式会社沓澤商店,,株式会社,北海道,上川郡比布町,北２線十三号,,01,455,0780322,,,,,,,2023-11-08,1,,,,,クツザワショウテン,0
2270,7700150003535,新規,0,2023-11-08,2015-10-09,歴史学研究会,,その他,東京都,千代田区,神田神保町２丁目２０アイエムビル２Ｆ,,13,101,1010051,,,,,,,2015-10-09,1,,,,,レキシガクケンキユウカイ,0
2276,7700150121502,新規,0,2023-11-08,2023-10-27,千城台ＳＣテナント会,,その他,千葉県,千葉市若葉区,千城台北３丁目２１－１,,12,104,2640005,,,,,,,2023-10-27,1,,,,,チシロダイエスシーテナントカイ,0
2277,7700150121898,新規,0,2023-11-08,2023-11-08,Ｙａｎｊｉ（ＺｈｕｈａｉＨｅｎｇｑｉｎ）Ｇｕｏｊｉｍａｏｙｉｙｏｕｘｉａｎｇｏｎｇｓｉ,,外国会社等,,,,,,,,ｔｉａｎｈｅｊｉｅ２８ｈａｏ　１０５ｓｈｉ－５１５（ｊｉｚｈｏｎｇｂａｎｇｇｏｎｇｑｕ）ｚｈｕｈａｉ　ｈｅｎｇｑｉｎ　５１９０３１　ＣＮ,,,,,,2023-11-08,1,,,,,イェンジージュウハイホンチングオジマオイーヨウシェンゴンスー,0
2278,7700150121907,新規,0,2023-11-08,2023-11-08,Ｓｈｅｎｚｈｅｎ　Ｘｉｎｍａｏｘｉｎｇ　Ｔｒａｄｉｎｇ　Ｃｏ．，Ｌｔｄ．,,外国会社等,,,,,,,,ＬｏｎｇＨｕａＸｉｎＱｕ　ＬｏｎｇＨｕａＪｉｅＤａｏＨｕａＬｉａｎＳｈｅＱｕＹｕＣｕｉＸｉｎＣｕｎＣＱｕＭｉｎｇＣｕｉＤａＳｈａＢ６０９　ＳｈｅｎＺｈｅｎ　５７０１００　ＣＮ,,,,,,2023-11-08,1,,,,,シンセンシンマオシントゥレイディングカンパニーリミテッド,0
2286,8010001239752,新規,0,2023-11-08,2023-11-08,株式会社Ｏｎｅ　Ｅｆｆｅｃｔ,,株式会社,東京都,中央区,銀座１丁目１２番４号Ｎ＆ＥＢＬＤ．６Ｆ,,13,102,1040061,,,,,,,2023-11-08,1,,,,,ワンエフェクト,0
2287,8010001239777,新規,0,2023-11-08,2023-11-08,株式会社レコードブック,,株式会社,東京都,千代田区,二番町１１番地１９,,13,101,1020084,,,,,,,2023-11-08,1,,,,,レコードブック,0
2288,8010001239802,新規,0,2023-11-08,2023-11-08,株式会社エムエイチプラン,,株式会社,東京都,千代田区,神田鍛冶町二丁目３番２号,,13,101,1000000,,,,,,,2023-11-08,1,,,,,エムエイチプラン,0
2289,8010001239810,新規,0,2023-11-08,2023-11-08,株式会社ヒーローズアライアンス,,株式会社,東京都,千代田区,神田東紺屋町２８番地１,,13,101,1010034,,,,,,,2023-11-08,1,,,,,ヒーローズアライアンス,0
2290,8010001239819,新規,0,2023-11-08,2023-11-08,株式会社Ｐｌａｎ・Ｄｏ・Ｓｅｅ　ＡＬＰＳ,,株式会社,東京都,千代田区,丸の内２丁目１番１号,,13,101,1000005,,,,,,,2023-11-08,1,,,,,プランドゥシーアルプス,0
2291,8010001239835,新規,0,2023-11-08,2023-11-08,ココネット設立準備株式会社,,株式会社,東京都,中央区,日本橋人形町１丁目１１番２号,,13,102,1030013,,,,,,,2023-11-08,1,,,,,ココネットセツリツジュンビ,0
2292,8010001239843,新規,0,2023-11-08,2023-11-08,株式会社ニューウェルズ,,株式会社,東京都,千代田区,平河町１丁目７番－１６,,13,101,1020093,,,,,,,2023-11-08,1,,,,,ニューウェルズ,0
2293,8010001239967,新規,0,2023-11-08,2023-11-08,光和テクノロジー株式会社,,株式会社,東京都,千代田区,四番町４番地６－１３０４号,,13,101,1020081,,,,,,,2023-11-08,1,,,,,コウワテクノロジー,0
2304,8010401178261,新規,0,2023-11-08,2023-11-08,推しクリエイティブラブズ株式会社,,株式会社,東京都,港区,南青山３丁目１番３６号青山丸竹ビル６Ｆ,,13,103,1070062,,,,,,,2023-11-08,1,,,,,オシクリエイティブラブズ,0
2313,8010501051302,新規,0,2023-11-08,2023-11-08,株式会社スカイラー,,株式会社,東京都,台東区,下谷３丁目１番２８－１００２号,,13,106,1100004,,,,,,,2023-11-08,1,,,,,スカイラー,0
2328,8011001158133,新規,0,2023-11-08,2023-11-08,株式会社ルートリレーションズ,,株式会社,東京都,渋谷区,道玄坂１丁目１０番８号渋谷道玄坂東急ビル２Ｆ－Ｃ,,13,113,1500043,,,,,,,2023-11-08,1,,,,,ルートリレーションズ,0
2329,8011001158141,新規,0,2023-11-08,2023-11-08,株式会社雪割草,,株式会社,東京都,目黒区,下目黒１丁目１番１４号コノトラビル７Ｆ,,13,110,1530064,,,,,,,2023-11-08,1,,,,,ユキワリソウ,0
2339,8011103013723,新規,0,2023-11-08,2023-11-08,合同会社ＤＹＳＦ,,合同会社,東京都,新宿区,西新宿３丁目５－１２トーカン新宿第二キャステール３１０号室,,13,104,1600023,,,,,,,2023-11-08,1,,,,,ディーワイエスエフ,0
2342,8011201025026,新規,0,2023-11-08,2023-11-08,株式会社センターグラス,,株式会社,東京都,中野区,上高田１丁目１－４３－１０２,,13,114,1640002,,,,,,,2023-11-08,1,,,,,センターグラス,0
2343,8011301029141,新規,0,2023-11-08,2023-11-08,株式会社万代橋,,株式会社,東京都,杉並区,阿佐谷南２丁目２４番６号,,13,115,1660004,,,,,,,2023-11-08,1,,,,,バンダイバシ,0
2347,8011501029957,新規,0,2023-11-08,2023-11-08,甜橙住業株式会社,,株式会社,東京都,北区,中里１丁目２１番２号中里ビル１Ｆ,,13,117,1140015,,,,,,,2023-11-08,1,,,,,テントウジュウギョウ,0
2353,8011801043303,新規,0,2023-11-08,2023-11-08,赤玉株式会社,,株式会社,東京都,葛飾区,新宿６丁目２番１－３５２６号,,13,122,1250051,,,,,,,2023-11-08,1,,,,,アカダマ,0
2360,8013301051579,新規,0,2023-11-08,2023-11-08,株式会社ＹＥＬＬ,,株式会社,東京都,豊島区,北大塚２丁目２番１３号大塚シャトレ・トーコー５０７号室,,13,116,1700004,,,,,,,2023-11-08,1,,,,,エール,0
2361,8013301051587,新規,0,2023-11-08,2023-11-08,ＭＡＡＤ株式会社,,株式会社,東京都,豊島区,東池袋１丁目３２－５大熊ビル４階－Ａ,,13,116,1700013,,,,,,,2023-11-08,1,,,,,エムエーエーディー,0
2362,8013303006861,新規,0,2023-11-08,2023-11-08,ハイルーフ合同会社,,合同会社,東京都,豊島区,東池袋３丁目８番５－５０３号,,13,116,1700013,,,,,,,2023-11-08,1,,,,,ハイルーフ,0
2374,8020001154307,新規,0,2023-11-08,2023-11-08,株式会社ＵＮＩＡＸ,,株式会社,神奈川県,横浜市神奈川区,神之木町８番１６号,,14,102,2210015,,,,,,,2023-11-08,1,,,,,ユニアックス,0
2375,8020001154315,新規,0,2023-11-08,2023-11-08,株式会社昇栄,,株式会社,神奈川県,横浜市保土ケ谷区,上菅田町６１０番地,,14,106,2400051,,,,,,,2023-11-08,1,,,,,ショウエイ,0
2376,8020001154348,新規,0,2023-11-08,2023-11-08,株式会社権,,株式会社,神奈川県,川崎市宮前区,初山２丁目２６番２－２号,,14,136,2160026,,,,,,,2023-11-08,1,,,,,,0
2377,8020001154364,新規,0,2023-11-08,2023-11-08,横浜進興株式会社,,株式会社,神奈川県,横浜市港北区,大倉山４丁目１４番７－４０９号,,14,109,2220037,,,,,,,2023-11-08,1,,,,,ヨコハマシンコウ,0
2378,8020001154380,新規,0,2023-11-08,2023-11-08,株式会社プラチナムパートナーズ,,株式会社,神奈川県,横浜市戸塚区,戸塚町４３６１番地２０,,14,110,2440003,,,,,,,2023-11-08,1,,,,,プラチナムパートナーズ,0
2379,8020001154389,新規,0,2023-11-08,2023-11-08,株式会社カウラナコンサルティング,,株式会社,神奈川県,川崎市高津区,久地３丁目１６番５－１１１号,,14,134,2130032,,,,,,,2023-11-08,1,,,,,カウラナコンサルティング,0
2380,8020001154397,新規,0,2023-11-08,2023-11-08,株式会社ＧＬＩＴＣＨＲＡＶＥ,,株式会社,神奈川県,横浜市神奈川区,金港町５－１４クアドリフォリオ８階,,14,102,2210056,,,,,,,2023-11-08,1,,,,,グリッチレイブ,0
2381,8020003024879,新規,0,2023-11-08,2023-11-08,ビズデブアジア合同会社,,合同会社,神奈川県,横浜市港北区,新横浜３丁目１７番１２号アルファスペース新横浜２Ｆ,,14,109,2220033,,,,,,,2023-11-08,1,,,,,ビズデブアジア,0
2382,8020003024929,新規,0,2023-11-08,2023-11-08,合同会社ＰＥＡＣＥ,,合同会社,神奈川県,川崎市川崎区,東田町２番地４プリムローズ仲見世館５階,,14,131,2100005,,,,,,,2023-11-08,1,,,,,ピース,0
2389,8030001156979,新規,0,2023-11-08,2023-11-08,株式会社ＤＸＣ,,株式会社,埼玉県,蓮田市,東３丁目６番５号ファインレジデンス蓮田ブランシエラ１００３,,11,238,3490111,,,,,,,2023-11-08,1,,,,,ディーエックスシー,0
2390,8030001156987,新規,0,2023-11-08,2023-11-08,株式会社Ａ,,株式会社,埼玉県,坂戸市,千代田３丁目２２番１２号１－１０２,,11,239,3500214,,,,,,,2023-11-08,1,,,,,エイ,0
2391,8030001157003,新規,0,2023-11-08,2023-11-08,株式会社ＭＫセラテック,,株式会社,埼玉県,ふじみ野市,駒林元町１丁目３番３０号,,11,245,3560038,,,,,,,2023-11-08,1,,,,,エムケーセラテック,0
2392,8030001157011,新規,0,2023-11-08,2023-11-08,株式会社Ｃｌｉｍｂ‐ｕｐ,,株式会社,埼玉県,上尾市,大字上尾村５７９番地５,,11,219,3620013,,,,,,,2023-11-08,1,,,,,クライムアップ,0
2393,8030001157028,新規,0,2023-11-08,2023-11-08,株式会社ワイズファクトリー,,株式会社,埼玉県,比企郡小川町,大字大塚１０５０番地１,,11,343,3550328,,,,,,,2023-11-08,1,,,,,ワイズファクトリー,0
2394,8030001157060,新規,0,2023-11-08,2023-11-08,株式会社近代サーカス,,株式会社,埼玉県,新座市,石神４丁目６－５,,11,230,3520033,,,,,,,2023-11-08,1,,,,,キンダイサーカス,0
2395,8030001157069,新規,0,2023-11-08,2023-11-08,株式会社プルス,,株式会社,埼玉県,深谷市,山崎１９５番地,,11,218,3690216,,,,,,,2023-11-08,1,,,,,プルス,0
2399,8030003022931,新規,0,2023-11-08,2023-11-08,健康オフィスサポート合同会社,,合同会社,埼玉県,富士見市,鶴馬２丁目５番２１－１号,,11,235,3540021,,,,,,,2023-11-08,1,,,,,ケンコウオフィスサポート,0
2404,8040001130801,新規,0,2023-11-08,2023-11-08,株式会社ＴＵＫＵＹＯＭＩ,,株式会社,千葉県,千葉市美浜区,磯辺５丁目１５番３棟４０４号,,12,106,2610012,,,,,,,2023-11-08,1,,,,,ツクヨミ,0
2405,8040001130867,新規,0,2023-11-08,2023-11-08,株式会社エースウォーターサービス,,株式会社,千葉県,八千代市,八千代台南１丁目４号１１番１０４号室,,12,221,2760033,,,,,,,2023-11-08,1,,,,,エースウォーターサービス,0
2408,8040003023680,新規,0,2023-11-08,2023-11-08,合同会社ｐｏｎｏｐｏｎｏ,,合同会社,千葉県,船橋市,本中山２丁目１６番１号,,12,204,2730035,,,,,,,2023-11-08,1,,,,,ポノポノ,0
2409,8040003023689,新規,0,2023-11-08,2023-11-08,合同会社Ｋ・トランスポート,,合同会社,千葉県,市川市,行徳駅前２丁目２０番６号,,12,203,2720133,,,,,,,2023-11-08,1,,,,,ケイトランスポート,0
2412,8050001053786,新規,0,2023-11-08,2023-11-08,株式会社共信ゴム,,株式会社,茨城県,猿島郡境町,大字下砂井８４番地２,,08,546,3060411,,,,,,,2023-11-08,1,,,,,キョウシンゴム,0
2414,8050003007922,新規,0,2023-11-08,2023-11-08,合同会社ＰｉＣＫＵＰ,,合同会社,茨城県,取手市,中田７４５―１２,,08,217,3001533,,,,,,,2023-11-08,1,,,,,ピックアップ,0
2417,8060001036534,新規,0,2023-11-08,2023-11-08,株式会社なごみサポート,,株式会社,栃木県,宇都宮市,春日町３番３１号,,09,201,3210108,,,,,,,2023-11-08,1,,,,,ナゴミサポート,0
2422,8070005010187,新規,0,2023-11-08,2023-11-08,一般社団法人ＡＮＤ　ＴＳＵＮＡＧＵ　ＰＲＯＪＥＣＴ,,その他の設立登記法人,群馬県,太田市,大久保町７１番地５,,10,205,3792306,,,,,,,2023-11-08,1,,,,,アンドツナグプロジェクト,0
2436,8100005013087,新規,0,2023-11-08,2023-11-08,一般財団法人ｔｏｗｎ　ｐｌａｎｎｉｎｇ　ｓｕｐｐｏｒｔ　ｇｒｏｕｐ,,その他の設立登記法人,長野県,上田市,常田３丁目１５－１信州大学繊維学部内Ｆｉｉ６０９号,,20,203,3860018,,,,,,,2023-11-08,1,,,,,タウンプランニングサポートグループ,0
2447,8120001259442,新規,0,2023-11-08,2023-11-08,あかりケアネクスト株式会社,,株式会社,大阪府,大阪市中央区,高麗橋４丁目５番１２号,,27,128,5410043,,,,,,,2023-11-08,1,,,,,アカリケアネクスト,0
2448,8120001259533,新規,0,2023-11-08,2023-11-08,株式会社Ｗ,,株式会社,大阪府,大阪市西区,南堀江１丁目２６番１５－３５０３号,,27,106,5500015,,,,,,,2023-11-08,1,,,,,ダブリュー,0
2449,8120001259566,新規,0,2023-11-08,2023-11-08,株式会社ｃｏｐｅ’ｕ,,株式会社,大阪府,大阪市北区,中崎１丁目１１番１０号中崎第一ビル４０２,,27,127,5300016,,,,,,,2023-11-08,1,,,,,クペウ,0
2450,8120001259574,新規,0,2023-11-08,2023-11-08,株式会社トンボリーズ,,株式会社,大阪府,大阪市中央区,宗右衛門町７番１８号７Ｆ－Ａ,,27,128,5420084,,,,,,,2023-11-08,1,,,,,トンボリーズ,0
2451,8120001259582,新規,0,2023-11-08,2023-11-08,株式会社ＡＩ・ミライ・環境,,株式会社,大阪府,大阪市東住吉区,南田辺５丁目１２番２１号４０３号,,27,121,5460033,,,,,,,2023-11-08,1,,,,,アイミライカンキョウ,0
2452,8120001259590,新規,0,2023-11-08,2023-11-08,株式会社ＫｒａｆｔＡ,,株式会社,大阪府,大阪市北区,野崎町６番８号トレックノース梅田ビル,,27,127,5300055,,,,,,,2023-11-08,1,,,,,クラフタ,0
2453,8120001259599,新規,0,2023-11-08,2023-11-08,株式会社セイコーホールディングス,,株式会社,大阪府,大阪市北区,中崎西１丁目５番２２号中山文甫会館２Ｆ,,27,127,5300015,,,,,,,2023-11-08,1,,,,,セイコーホールディングス,0
2454,8120001259665,新規,0,2023-11-08,2023-11-08,Ｌｅｍｏｎ株式会社,,株式会社,大阪府,大阪市淀川区,新高４丁目３－１９小林マンション１０１号,,27,123,5320033,,,,,,,2023-11-08,1,,,,,レモン,0
2459,8120901048333,新規,0,2023-11-08,2023-11-08,株式会社ＡＲＩＣ,,株式会社,大阪府,吹田市,垂水町３丁目２９番３３－８０３号,,27,205,5640062,,,,,,,2023-11-08,1,,,,,アリック,0
2466,8122001037547,新規,0,2023-11-08,2023-11-08,株式会社レミック,,株式会社,大阪府,東大阪市,川中５番１６号,,27,227,5780902,,,,,,,2023-11-08,1,,,,,レミック,0
2469,8130001075632,新規,0,2023-11-08,2023-11-08,株式会社ＫｙｏｔｏＫｉｓｍｅｔｓ,,株式会社,京都府,京都市下京区,七条通油小路東入大黒町２２７番地第２キョートビル４０２,,26,106,6008223,,,,,,,2023-11-08,1,,,,,キョウトキスメッツ,0
2470,8130001075640,新規,0,2023-11-08,2023-11-08,株式会社スタジオナマズ,,株式会社,京都府,京都市上京区,日暮通丸太町下る四町目８０２番４７の２,,26,102,6028154,,,,,,,2023-11-08,1,,,,,スタジオナマズ,0
2473,8130003009092,新規,0,2023-11-08,2023-11-08,旦ｃｒｅａｔｅ合同会社,,合同会社,京都府,京丹後市,峰山町荒山２３１６番地,,26,212,6270004,,,,,,,2023-11-08,1,,,,,,0
2475,8140001132234,新規,0,2023-11-08,2023-11-08,株式会社ＭＯＩＲＡＩ,,株式会社,兵庫県,西宮市,下大市西町１３番１８号,,28,204,6638005,,,,,,,2023-11-08,1,,,,,モイライ,0
2476,8140003019784,新規,0,2023-11-08,2023-11-08,合同会社ｓｅｖｅｎ’ｓ　Ａ,,合同会社,兵庫県,姫路市,勝原区宮田３９６－１６,,28,201,6711213,,,,,,,2023-11-08,1,,,,,セブンズエー,0
2478,8150001026872,新規,0,2023-11-08,2023-11-08,株式会社ｈａｉｎ,,株式会社,奈良県,奈良市,林小路町１３－１第二福田ビル２階Ｃ,,29,201,6308227,,,,,,,2023-11-08,1,,,,,ハイン,0
2479,8150005009519,新規,0,2023-11-08,2023-11-08,一般社団法人マイ・リング,,その他の設立登記法人,奈良県,香芝市,瓦口２２５０番地１,,29,210,6390225,,,,,,,2023-11-08,1,,,,,マイリング,0
2480,8160001025493,新規,0,2023-11-08,2023-11-08,ミケネコ株式会社,,株式会社,滋賀県,長浜市,神照町４０８番地８サニーハイツ堂前２０２号室,,25,203,5260015,,,,,,,2023-11-08,1,,,,,ミケネコ,0
2482,8170001017878,新規,0,2023-11-08,2023-11-08,株式会社麦,,株式会社,和歌山県,紀の川市,貴志川町井ノ口６９３－７,,30,208,6400424,,,,,,,2023-11-08,1,,,,,ムギ,0
2493,8180001158779,新規,0,2023-11-08,2023-11-08,株式会社ＬＩＢＥＲＴＡ,,株式会社,愛知県,稲沢市,平和町下起北１１４番地１,,23,220,4901323,,,,,,,2023-11-08,1,,,,,リベルタ,0
2494,8180001158787,新規,0,2023-11-08,2023-11-08,株式会社ＴＳカンパニー,,株式会社,愛知県,春日井市,如意申町４丁目３番地５１,,23,206,4860918,,,,,,,2023-11-08,1,,,,,ティーエスカンパニー,0
2495,8180001158845,新規,0,2023-11-08,2023-11-08,株式会社エデュクリエイト,,株式会社,愛知県,名古屋市天白区,植田西３丁目１２１２サンスカイル植田３０１,,23,116,4680058,,,,,,,2023-11-08,1,,,,,エデュクリエイト,0
2496,8180001158853,新規,0,2023-11-08,2023-11-08,株式会社ミニマリズム,,株式会社,愛知県,名古屋市千種区,日進通１丁目１８番地２,,23,101,4640844,,,,,,,2023-11-08,1,,,,,ミニマリズム,0
2500,8180003025952,新規,0,2023-11-08,2023-11-08,合同会社アトリエ,,合同会社,愛知県,春日井市,小野町４丁目１５０番地３５,,23,206,4860926,,,,,,,2023-11-08,1,,,,,アトリエ,0
2505,8200001041882,新規,0,2023-11-08,2023-11-08,株式会社フランネルワーク,,株式会社,岐阜県,美濃加茂市,太田町２２６番地,,21,211,5050041,,,,,,,2023-11-08,1,,,,,フランネルワーク,0
2514,8240001062363,新規,0,2023-11-08,2023-11-08,株式会社山本塗装,,株式会社,広島県,尾道市,沖側町４番２号,,34,205,7220006,,,,,,,2023-11-08,1,,,,,ヤマモトトソウ,0
2515,8240001062388,新規,0,2023-11-08,2023-11-08,株式会社Ｌｉｌａｃ,,株式会社,広島県,広島市佐伯区,石内北２丁目２４番９号,,34,108,7315109,,,,,,,2023-11-08,1,,,,,ライラック,0
2518,8260001038469,新規,0,2023-11-08,2023-11-08,株式会社ＣＯＣＯＲＯ,,株式会社,岡山県,瀬戸内市,長船町長船７９３番地１,,33,212,7014271,,,,,,,2023-11-08,1,,,,,ココロ,0
2519,8260001038477,新規,0,2023-11-08,2023-11-08,ビジネス年金株式会社,,株式会社,岡山県,岡山市北区,厚生町３丁目１番１５号,,33,101,7000985,,,,,,,2023-11-08,1,,,,,ビジネスネンキン,0
2524,8290001103625,新規,0,2023-11-08,2023-11-08,株式会社アリス,,株式会社,福岡県,福岡市中央区,赤坂３丁目４番３１－７０２号,,40,133,8100042,,,,,,,2023-11-08,1,,,,,アリス,0
2525,8290001103682,新規,0,2023-11-08,2023-11-08,株式会社尾崎通信技術,,株式会社,福岡県,那珂川市,大字山田１０４９－４,,40,231,8111244,,,,,,,2023-11-08,1,,,,,オザキツウシンギジュツ,0
2530,8290801030011,新規,0,2023-11-08,2023-11-08,株式会社九州糧販,,株式会社,福岡県,宮若市,小伏１５９２番地３,,40,226,8220132,,,,,,,2023-11-08,1,,,,,キュウシュウリョウハン,0
2531,8290801030028,新規,0,2023-11-08,2023-11-08,株式会社青空,,株式会社,福岡県,北九州市小倉南区,志井６丁目１３番１５号,,40,107,8020985,,,,,,,2023-11-08,1,,,,,アオゾラ,0
2538,8330001031441,新規,0,2023-11-08,2023-11-08,高原牧場株式会社,,株式会社,熊本県,球磨郡相良村,大字川辺字上高原６８番地１５,,43,510,8680093,,,,,,,2023-11-08,1,,,,,コウゲンボクジョウ,0
2541,8340001026052,新規,0,2023-11-08,2023-11-08,株式会社マンキ,,株式会社,鹿児島県,大島郡宇検村,大字湯湾１０８６番地５,,46,524,8943301,,,,,,,2023-11-08,1,,,,,マンキ,0
2542,8340001026060,新規,0,2023-11-08,2023-11-08,株式会社南日本ヘルスリサーチラボ,,株式会社,鹿児島県,鹿児島市,伊敷台１丁目３０番３号,,46,201,8900007,,,,,,,2023-11-08,1,,,,,ミナミニホンヘルスリサーチラボ,0
2545,8350001018643,新規,0,2023-11-08,2023-11-08,株式会社緒方家畜人工授精所,,株式会社,宮崎県,東諸県郡国富町,大字八代北俣１２３７番地,,45,382,8801222,,,,,,,2023-11-08,1,,,,,オガタカチクジンコウジュセイショ,0
2550,8360001032767,新規,0,2023-11-08,2023-11-08,株式会社ＲＥＶＩＶＡＬ,,株式会社,沖縄県,南城市,知念字知名８０番地,,47,215,9011503,,,,,,,2023-11-08,1,,,,,リバイバル,0
2554,8370001050611,新規,0,2023-11-08,2023-11-08,株式会社いっしょのチーム,,株式会社,宮城県,仙台市若林区,清水小路６－１東日本不動産仙台ファーストビル２階,,04,103,9840075,,,,,,,2023-11-08,1,,,,,イッショノチーム,0
2578,8440003001555,新規,0,2023-11-08,2023-11-08,合名会社ピックアップ,,合名会社,北海道,函館市,堀川町７番３号,,01,202,0400025,,,,,,,2023-11-08,1,,,,,ピックアップ,0
2579,8460101007460,新規,0,2023-11-08,2023-11-08,株式会社十勝トラベル,,株式会社,北海道,河東郡上士幌町,字上士幌東３線２３７番地３０,,01,633,0801408,,,,,,,2023-11-08,1,,,,,トカチトラベル,0
2585,8700150121897,新規,0,2023-11-08,2023-11-08,ＪｉａｎｇＸｉＧｅＬａｎＭｅｉＣｈｅｎＸｉｎＣａｉＬｉａｏＹｏｕＸｉａｎＧｏｎｇＳｉ,,外国会社等,,,,,,,,ｈｕａｎｇ　ｂｕ　ｚｈｅｎ　ｓｈａｎｇ　ｙｏｕ　ｇｏｎｇ　ｙｅ　ｙｕａｎ　ｇａｎ　ｚｈｏｕ　ｓｈｉ　ｓｈａｎｇ　ｙｏｕ　ｘｉａｎ　ｊｉａｎｇ　ｘｉ　ｓｈｅｎｇ　３４１２００　ＣＮ,,,,,,2023-11-08,1,,,,,ジャンシーゴォランメイチェンシンツァイリァオヨウシェンゴンスー,0
2586,8700150121906,新規,0,2023-11-08,2023-11-08,ｇｕａｎｇｚｈｏｕｙｉｄｉｎｇｍａｏｙｉｙｏｕｘｉａｎｇｏｎｇｓｉ,,外国会社等,,,,,,,,ＣＮ　Ａ２０２　Ｎｏ．２５　ＸｉｐｅｎｇｌｉｎｇＲｏａｄＨｅｌｏｎｇＳｔｒｅｅｔ　ＢａｉｙｕｎＤｉｓｔｒｉｃｔ　ＧｕａｎｇｚｈｏｕＣｉｔｙ　５１００００　ＣＮ,,,,,,2023-11-08,1,,,,,コウシュウイディンマオイヨウシェンゴンスー,0
2593,9010001239702,新規,0,2023-11-08,2023-11-08,株式会社Ｅｌｅｖａｉｚｅ,,株式会社,東京都,中央区,築地６丁目１５番１０号,,13,102,1040045,,,,,,,2023-11-08,1,,,,,エレヴァイズ,0
2594,9010001239776,新規,0,2023-11-08,2023-11-08,ＨＫＳＳ株式会社,,株式会社,東京都,中央区,銀座６丁目１３番１６号銀座ＷａｌｌビルＵＣＦ５階,,13,102,1040061,,,,,,,2023-11-08,1,,,,,エイチケーエスエス,0
2595,9010001239900,新規,0,2023-11-08,2023-11-08,株式会社フロントパートナーズ,,株式会社,東京都,中央区,晴海３丁目６番８－１５１４号,,13,102,1040053,,,,,,,2023-11-08,1,,,,,フロントパートナーズ,0
2596,9010001239917,新規,0,2023-11-08,2023-11-08,株式会社時,,株式会社,東京都,中央区,日本橋浜町１丁目１０番５号プレール・ドゥーク日本橋浜町１００２号,,13,102,1030007,,,,,,,2023-11-08,1,,,,,タイム,0
2616,9010401178351,新規,0,2023-11-08,2023-11-08,株式会社理世,,株式会社,東京都,港区,西新橋１丁目２番９号日比谷セントラルビル１４階,,13,103,1050003,,,,,,,2023-11-08,1,,,,,リセイ,0
2617,9010401178368,新規,0,2023-11-08,2023-11-08,株式会社ＨＥＡＤ　ＨＥＡＶＥＮ,,株式会社,東京都,港区,東麻布２丁目３３番２号,,13,103,1060044,,,,,,,2023-11-08,1,,,,,ヘッドヘブン,0
2621,9010403031293,新規,0,2023-11-08,2023-11-08,合同会社ＭＯＳＡ,,合同会社,東京都,港区,赤坂６丁目１０番３９号ソフトタウン赤坂１０１号室,,13,103,1070052,,,,,,,2023-11-08,1,,,,,モサ,0
2626,9010601064095,新規,0,2023-11-08,2023-11-08,株式会社Ｅｓｐｏｉｒ,,株式会社,東京都,墨田区,錦糸２丁目３番９号アライビル４０１,,13,107,1300013,,,,,,,2023-11-08,1,,,,,エスポワール,0
2644,9011201025033,新規,0,2023-11-08,2023-11-08,株式会社オルフェ,,株式会社,東京都,中野区,中野５丁目６７番７－８０１号,,13,114,1640001,,,,,,,2023-11-08,1,,,,,オルフェ,0
2649,9011305002944,新規,0,2023-11-08,2023-11-08,一般社団法人ポジティブモンスター,,その他の設立登記法人,東京都,杉並区,成田東２丁目３４番３号,,13,115,1660015,,,,,,,2023-11-08,1,,,,,ポジティブモンスター,0
2655,9011501029956,新規,0,2023-11-08,2023-11-08,株式会社アイエスファクトリー,,株式会社,東京都,荒川区,町屋６丁目１６番６－２０２号,,13,118,1160001,,,,,,,2023-11-08,1,,,,,アイエスファクトリー,0
2656,9011501029964,新規,0,2023-11-08,2023-11-08,ルミエール・クルール株式会社,,株式会社,東京都,荒川区,荒川６丁目３１番１０号,,13,118,1160002,,,,,,,2023-11-08,1,,,,,ルミエールクルール,0
2660,9011703003643,新規,0,2023-11-08,2023-11-08,コンフィシステム合同会社,,合同会社,東京都,江戸川区,中央３丁目２番４－９０３号,,13,123,1320021,,,,,,,2023-11-08,1,,,,,コンフィシステム,0
2663,9011801043293,新規,0,2023-11-08,2023-11-08,株式会社ファミリーヒストリー記録社,,株式会社,東京都,足立区,竹の塚１丁目４０番１５号庄栄ビル５ＦＢＰＴ,,13,121,1210813,,,,,,,2023-11-08,1,,,,,ファミリーヒストリーキロクシャ,0
2667,9012401041175,新規,0,2023-11-08,2023-11-08,株式会社Ｓｔｅｍ　Ｍｕｓｉｃ,,株式会社,東京都,調布市,深大寺東町６丁目３１番地１１,,13,208,1820012,,,,,,,2023-11-08,1,,,,,ステムミュージック,0
2668,9012401041191,新規,0,2023-11-08,2023-11-08,ゆめゆめ株式会社,,株式会社,東京都,三鷹市,井の頭４丁目１６番６－４０３号,,13,204,1810001,,,,,,,2023-11-08,1,,,,,ユメユメ,0
2670,9012403006259,新規,0,2023-11-08,2023-11-08,ジェイティーエス合同会社,,合同会社,東京都,武蔵野市,吉祥寺北町１丁目１番１号桜井ビル４１０,,13,203,1800001,,,,,,,2023-11-08,1,,,,,ジェイティーエス,0
2674,9012803003228,新規,0,2023-11-08,2023-11-08,十ＴＥＮＮ合同会社,,合同会社,東京都,東大和市,芋窪６丁目１０１２番地の１０,,13,220,2070033,,,,,,,2023-11-08,1,,,,,テン,0
2675,9013301051586,新規,0,2023-11-08,2023-11-08,八重工株式会社,,株式会社,東京都,豊島区,池袋３丁目４２－５羅ホーム２０１,,13,116,1710014,,,,,,,2023-11-08,1,,,,,ヤエコウ,0
2676,9013301051594,新規,0,2023-11-08,2023-11-08,株式会社澁谷商店,,株式会社,東京都,豊島区,長崎３丁目１９番１０号,,13,116,1710051,,,,,,,2023-11-08,1,,,,,シブヤショウテン,0
2681,9020001154347,新規,0,2023-11-08,2023-11-08,株式会社ＺＥＮＫＩ,,株式会社,神奈川県,川崎市高津区,諏訪１丁目９番１号,,14,134,2130004,,,,,,,2023-11-08,1,,,,,ゼンキ,0
2682,9020001154363,新規,0,2023-11-08,2023-11-08,ＣＡＲＰＥ　ＮＯＣＴＥＮ株式会社,,株式会社,神奈川県,横浜市鶴見区,潮田町３丁目１４０番９号,,14,101,2300041,,,,,,,2023-11-08,1,,,,,カルペノクテム,0
2686,9020003024969,新規,0,2023-11-08,2023-11-08,合同会社幸洋堂,,合同会社,神奈川県,横浜市青葉区,市ケ尾町５３２―４,,14,117,2250024,,,,,,,2023-11-08,1,,,,,コウヨウドウ,0
2688,9021001080640,新規,0,2023-11-08,2023-11-08,株式会社フェローシップコーポレーション,,株式会社,神奈川県,伊勢原市,東大竹６２８番地の１４,,14,214,2591133,,,,,,,2023-11-08,1,,,,,フェローシップコーポレーション,0
2689,9021001080673,新規,0,2023-11-08,2023-11-08,株式会社ユーミーネット湘南,,株式会社,神奈川県,藤沢市,藤沢２２３番地の２,,14,205,2510052,,,,,,,2023-11-08,1,,,,,ユーミーネットショウナン,0
2696,9030001156986,新規,0,2023-11-08,2023-11-08,株式会社ＳＫｃａｒｇｏ,,株式会社,埼玉県,さいたま市桜区,大字白鍬１６３番地８,,11,106,3380811,,,,,,,2023-11-08,1,,,,,エスケーカーゴ,0
2697,9030001157002,新規,0,2023-11-08,2023-11-08,ｌｅｍｏｎｓ株式会社,,株式会社,埼玉県,戸田市,笹目南町２０番２３号,,11,224,3350035,,,,,,,2023-11-08,1,,,,,レモンズ,0
2698,9030001157010,新規,0,2023-11-08,2023-11-08,株式会社ＳＵＮＳＩＲＩ,,株式会社,埼玉県,川越市,今成４丁目１１番地３,,11,201,3501105,,,,,,,2023-11-08,1,,,,,サンシリ,0
2699,9030001157051,新規,0,2023-11-08,2023-11-08,株式会社桜縁キャリア,,株式会社,埼玉県,越谷市,蒲生茜町７番地７ＴＧＫビル３０５,,11,222,3430843,,,,,,,2023-11-08,1,,,,,オウエンキャリア,0
2700,9030001157068,新規,0,2023-11-08,2023-11-08,煌粋株式会社,,株式会社,埼玉県,朝霞市,宮戸１丁目４番２８号,,11,227,3510031,,,,,,,2023-11-08,1,,,,,イキ,0
2702,9030003022930,新規,0,2023-11-08,2023-11-08,合同会社春日部ビニール,,合同会社,埼玉県,越谷市,七左町６丁目９１番地２,,11,222,3430851,,,,,,,2023-11-08,1,,,,,カスカベビニール,0
2707,9040001130825,新規,0,2023-11-08,2023-11-08,株式会社星サイン,,株式会社,千葉県,船橋市,習志野５丁目２番２－２０８号,,12,204,2740071,,,,,,,2023-11-08,1,,,,,ホシサイン,0
2710,9040003023696,新規,0,2023-11-08,2023-11-08,合同会社駒商,,合同会社,千葉県,市川市,堀之内２丁目２６番１５号,,12,203,2720837,,,,,,,2023-11-08,1,,,,,コマショウ,0
2751,9120001259301,新規,0,2023-11-08,2023-11-08,秋山株式会社,,株式会社,大阪府,大阪市北区,樋之口町１番２０－３５１５号,,27,127,5300032,,,,,,,2023-11-08,1,,,,,アキヤマ,0
2752,9120001259383,新規,0,2023-11-08,2023-11-08,日本鏨園株式会社,,株式会社,大阪府,大阪市港区,南市岡３丁目１０－２グリシーヌ弁天町３０４号室,,27,107,5520011,,,,,,,2023-11-08,1,,,,,ニッポンザンエン,0
2753,9120001259499,新規,0,2023-11-08,2023-11-08,株式会社シティエンジン管理,,株式会社,大阪府,大阪市北区,浪花町１３－３１浪花町パールハイツ,,27,127,5300022,,,,,,,2023-11-08,1,,,,,シティエンジンカンリ,0
2754,9120001259565,新規,0,2023-11-08,2023-11-08,株式会社ママノテ,,株式会社,大阪府,枚方市,楠葉中之芝２丁目２１番１１号,,27,210,5731101,,,,,,,2023-11-08,1,,,,,ママノテ,0
2755,9120001259664,新規,0,2023-11-08,2023-11-08,潮水株式会社,,株式会社,大阪府,大阪市浪速区,恵美須西１丁目４－２３住吉ビル２０２,,27,111,5560003,,,,,,,2023-11-08,1,,,,,シオミズ,0
2761,9120003025222,新規,0,2023-11-08,2023-11-08,合同会社ＰＲＯ　ＳＵＰＰＯＲＴ,,合同会社,大阪府,大阪市淀川区,西中島６丁目３番２８－８０２号,,27,123,5320011,,,,,,,2023-11-08,1,,,,,プロサポート,0
2768,9120901048308,新規,0,2023-11-08,2023-11-08,株式会社１６ＪｕＲｏｋｕ,,株式会社,大阪府,茨木市,本町２番２１号,,27,211,5670818,,,,,,,2023-11-08,1,,,,,ジュウロク,0
2769,9120901048332,新規,0,2023-11-08,2023-11-08,株式会社澤村,,株式会社,大阪府,吹田市,千里山竹園１丁目２２番８－４０６号,,27,205,5650852,,,,,,,2023-11-08,1,,,,,サワムラ,0
2771,9120903004911,新規,0,2023-11-08,2023-11-08,合同会社Ｍａｒｉｗｅｌｌ,,合同会社,大阪府,豊中市,寺内１丁目９番２０－６０１号,,27,203,5610872,,,,,,,2023-11-08,1,,,,,マリウェル,0
2772,9122001037546,新規,0,2023-11-08,2023-11-08,株式会社延寿,,株式会社,大阪府,東大阪市,俊徳町４丁目８番２９号,,27,227,5770831,,,,,,,2023-11-08,1,,,,,エンジュ,0
2774,9122003002713,新規,0,2023-11-08,2023-11-08,Ｔ‐ａｒｒｏｗｓ合同会社,,合同会社,大阪府,八尾市,若林町１丁目４４番地の２,,27,212,5810038,,,,,,,2023-11-08,1,,,,,ティーアローズ,0
2775,9122003002721,新規,0,2023-11-08,2023-11-08,合同会社ボディーズ,,合同会社,大阪府,八尾市,南太子堂６丁目２番７号,,27,212,5810056,,,,,,,2023-11-08,1,,,,,ボディーズ,0
2779,9130003009109,新規,0,2023-11-08,2023-11-08,合同会社マキシム,,合同会社,京都府,亀岡市,曽我部町南条向山４番地ヴィラ曽我部２０５号,,26,206,6210022,,,,,,,2023-11-08,1,,,,,マキシム,0
2780,9130003009117,新規,0,2023-11-08,2023-11-08,合同会社ｆｏｒ　Ａｎｓｗｅｒ,,合同会社,京都府,京都市中京区,西ノ京笠殿町６５番地４,,26,104,6048482,,,,,,,2023-11-08,1,,,,,フォーアンサー,0
2787,9140001132282,新規,0,2023-11-08,2023-11-08,株式会社高松パール,,株式会社,兵庫県,神戸市北区,緑町７丁目１５番２０号,,28,109,6511221,,,,,,,2023-11-08,1,,,,,タカマツパール,0
2788,9140003019783,新規,0,2023-11-08,2023-11-08,合同会社キャラベル・パートナーズ,,合同会社,兵庫県,宝塚市,雲雀丘山手１丁目１３番１６号,,28,214,6650804,,,,,,,2023-11-08,1,,,,,キャラベルパートナーズ,0
2791,9150001026863,新規,0,2023-11-08,2023-11-08,マツモトホールディングス株式会社,,株式会社,奈良県,奈良市,帝塚山中町１３番１１号,00132557,29,201,6310063,,,,,,,2023-11-08,1,,,,,マツモトホールディングス,0
2793,9150005009518,新規,0,2023-11-08,2023-11-08,一般社団法人ＣＴＶ‐Ｋｙｏｓａｉ職員互助会,,その他の設立登記法人,奈良県,橿原市,久米町５８６番地森川ビル２Ｆ１,,29,205,6340063,,,,,,,2023-11-08,1,,,,,シィティブイキョウサイショクインゴジョカイ,0
2794,9160001025468,新規,0,2023-11-08,2023-11-08,株式会社ＮＥＷ　ＬＩＦＥ,,株式会社,滋賀県,草津市,野路町７９３番地１６,,25,206,5250055,,,,,,,2023-11-08,1,,,,,ニュウライフ,0
2797,9170001017877,新規,0,2023-11-08,2023-11-08,株式会社リーフコミュニケーション,,株式会社,和歌山県,和歌山市,万町２５番地フューチャー本町ビル４０２号,,30,201,6408035,,,,,,,2023-11-08,1,,,,,リーフコミュニケーション,0
2812,9210003001718,新規,0,2023-11-08,2023-11-08,合同会社Ｆ‐Ｄｒｉｖｅ,,合同会社,福井県,福井市,高屋町第３５号６番地２,,18,201,9100107,,,,,,,2023-11-08,1,,,,,エフドライブ,0
2813,9220003003622,新規,0,2023-11-08,2023-11-08,ＬＡＢＩＸ合同会社,,合同会社,石川県,金沢市,此花町５番６号ライフ金沢第１ビル６０１Ａ,,17,201,9200852,,,,,,,2023-11-08,1,,,,,ラビックス,0
2819,9240003006409,新規,0,2023-11-08,2023-11-08,Ｓｑｕａｌｌ合同会社,,合同会社,広島県,広島市西区,庚午中２丁目６－２５－３０１,,34,104,7330822,,,,,,,2023-11-08,1,,,,,,0
2826,9260003004492,新規,0,2023-11-08,2023-11-08,ＥＳＴホールディングス合同会社,,合同会社,岡山県,倉敷市,東富井８３１－３,,33,202,7100847,,,,,,,2023-11-08,1,,,,,エストホールディングス,0
2828,9270001008866,新規,0,2023-11-08,2023-11-08,株式会社まめきち,,株式会社,鳥取県,境港市,夕日ヶ丘１丁目２０１番地,,31,204,6840076,,,,,,,2023-11-08,1,,,,,マメキチ,0
2833,9290001103624,新規,0,2023-11-08,2023-11-08,株式会社ミズメディカルサポート,,株式会社,福岡県,福岡市博多区,博多駅前３丁目１９番５号博多石川ビル３階,,40,132,8120011,,,,,,,2023-11-08,1,,,,,ミズメディカルサポート,0
2834,9290001103640,新規,0,2023-11-08,2023-11-08,株式会社ナスカ,,株式会社,福岡県,福岡市西区,大字飯氏９６３番地１１,,40,135,8190371,,,,,,,2023-11-08,1,,,,,ナスカ,0
2836,9290003014555,新規,0,2023-11-08,2023-11-08,合同会社ミカンの樹,,合同会社,福岡県,久留米市,上津町２０２１番地１５,,40,203,8300052,,,,,,,2023-11-08,1,,,,,ミカンノキ,0
2838,9290801030027,新規,0,2023-11-08,2023-11-08,株式会社ＲＨＡ,,株式会社,福岡県,北九州市小倉北区,大手町１０番５－３０５号,,40,106,8030814,,,,,,,2023-11-08,1,,,,,アールエイチエー,0
2844,9330001031424,新規,0,2023-11-08,2023-11-08,中＿実業株式会社,00132559,株式会社,熊本県,熊本市東区,長嶺南３丁目７番４１号,,43,102,8618039,,,,,,,2023-11-08,1,,,,,ゾンシンジツギョウ,0
2845,9330001031440,新規,0,2023-11-08,2023-11-08,大塚牧場株式会社,00132555,株式会社,熊本県,阿蘇郡西原村,大字布田５９９番地の２,,43,432,8612403,,,,,,,2023-11-08,1,,,,,オオツカボクジョウ,0
2853,9350001018650,新規,0,2023-11-08,2023-11-08,株式会社タナカ通信,,株式会社,宮崎県,延岡市,南一ケ岡４丁目１０番３号,,45,203,8890506,,,,,,,2023-11-08,1,,,,,タナカツウシン,0
2855,9360001032774,新規,0,2023-11-08,2023-11-08,株式会社コザ事務所,,株式会社,沖縄県,沖縄市,諸見里１丁目２５番６号,,47,211,9040032,,,,,,,2023-11-08,1,,,,,コザジムショ,0
2856,9360001032782,新規,0,2023-11-08,2023-11-08,株式会社Ｌｉｇｈｔ　ｐｌａｎ,,株式会社,沖縄県,沖縄市,美里２丁目３番１６号,,47,211,9042153,,,,,,,2023-11-08,1,,,,,ライトプラン,0
2857,9360001032790,新規,0,2023-11-08,2023-11-08,リアルシティ・ネクサス株式会社,,株式会社,沖縄県,那覇市,天久２丁目２８番９号２階,,47,201,9000005,,,,,,,2023-11-08,1,,,,,リアルシティネクサス,0
2862,9360003013450,新規,0,2023-11-08,2023-11-08,合同会社絆,,合同会社,沖縄県,南城市,大里字古堅１３２１番地６,,47,215,9011207,,,,,,,2023-11-08,1,,,,,キズナ,0
2863,9360005006931,新規,0,2023-11-08,2023-11-08,一般社団法人沖縄県闘牛組合連合会,,その他の設立登記法人,沖縄県,うるま市,石川４１３番地１,,47,213,9041106,,,,,,,2023-11-08,1,,,,,オキナワケントウギュウクミアイレンゴウカイ,0
2873,9420001018478,新規,0,2023-11-08,2023-11-08,株式会社カメショウ,,株式会社,青森県,五所川原市,中央５丁目５６番地,,02,205,0370036,,,,,,,2023-11-08,1,,,,,カメショウ,0
2877,9430003015605,新規,0,2023-11-08,2023-11-08,Ｌａｃｅｙ　Ｉｎｖｅｓｔｍｅｎｔｓ合同会社,,合同会社,北海道,虻田郡倶知安町,南六条東１丁目２番地８,,01,400,0440016,,,,,,,2023-11-08,1,,,,,レーシーインベストメンツ,0
2880,9440001009343,新規,0,2023-11-08,2023-11-08,ＢＡＹ　ＨＯＫＵＥＩ株式会社,,株式会社,北海道,函館市,若松町９番２２号,,01,202,0400063,,,,,,,2023-11-08,1,,,,,ベイホクエイ,0
2890,9500001025301,新規,0,2023-11-08,2023-11-08,株式会社リッツ,,株式会社,愛媛県,松山市,本町６丁目６番地７－１４０２号,,38,201,7900811,,,,,,,2023-11-08,1,,,,,リッツ,0
2892,9700150113976,新規,0,2023-11-08,2023-11-08,Ｓｈｅｎｚｈｅｎｓｈｉｒｕｉｋａｉｈｕｉｋｅｍａｏｙｏｕｘｉａｎｇｏｎｇｓｉ,,外国会社等,,,,,,,,Ｌｏｎｇｈｕａｘｉｎｑｕｄａｌａｎｇｊｉｅｄａｏｓａｎｈｅｈｕａｑｉａｏｘｉｎｃｕｎ　３ｑｕ６３ｃｈｕａｎｇ　５０１　Ｓｈｅｎｚｈｅｎ　Ｇｕａｎｇｄｏｎｇ　５１８１０９　ＣＮ,,,,,,2023-11-08,1,,,,,シェンヂェンシールイカイフウイグェアマオヨウシィェンゴンスー,0
2893,9700150114421,新規,0,2023-11-08,2023-11-08,Ｇａｎ　ｚｈｏｕ　ｓｈｉ　ｎａｎ　ｚｈｅｎ　ｓｈａｎｇ　ｍａｏ　ｙｏｕ　ｘｉａｎ　ｇｏｎｇ　ｓｉ,,外国会社等,,,,,,,,ＧＡＮＺＨＯＵＪＩＮＧＪＩＪＩＳＨＵＫＡＩＦＡＱＵ　ＸＩＡＮＧＪＩＡＮＧＤＡＤＡＯＢＥＩＣＥ　ＨＵＡＪＩＡＮＢＥＩＬＵ　ＸＩＣＥ　ＧＡＮＺＨＯＵＧＵＯＪＩＱＩＹＥＺＨＯＮＧＸＩＮ　Ｂ１２ＨＡＯＬＯＵ６０２ＳＨＩ　ＧＡＮＺＨＯＵＳＨＩ　ＪＩＡＮＧＸＩＳＨＥＮＧ　３４１０００ＣＮ,,,,,,2023-11-08,1,,,,,ガンヂョウシーナンヂェンシャンマオヨウシィェンゴンスー,0
2894,9700150121896,新規,0,2023-11-08,2023-11-08,ＤｏｎｇＧｕａｎＳｈｉＨｏｎｇＢａｉＨｕｉＤｉａｎＺｉＳｈａｎｇＷｕＹｏｕＸｉａｎＧｏｎｇＳｉ,,外国会社等,,,,,,,,ＪｉｎＺｈｏｕＮａｎＦａｎｇＨｅＤｉＬｕＥｒＸｉａｎｇ２３Ｈａｏ３０２Ｆａｎｇ　ＤｏｎｇＧｕａｎ　ＨｕＭｅｎＺｈｅｎ　ＧｕａｎｇＤｏｎｇ　５２３０００　ＣＮ,,,,,,2023-11-08,1,,,,,トウカンシコウヒャクケイデンシショウムユウゲンコウシ,0
2895,9700150121905,新規,0,2023-11-08,2023-11-08,ＪＹ　ＴＥＣ　ＳＵＰＰＬＹ　ＩＮＣ．,,外国会社等,,,,,,,,９１５５　Ｓｔｅｒｌｉｎｇ　Ｓｔ　Ｓｕｉｔｅ　１００　ＩＲＶＩＮＧ　ＴＸ　ＵＳ　７５０６３,,,,,,2023-11-08,1,,,,,ジェイワイテックサプライインコーポレイテッド,0
