sequenceNumber,corporateNumber,process,correct,updateDate,changeDate,name,nameImageId,kind,prefectureName,cityName,streetNumber,addressImageId,prefectureCode,cityCode,postCode,addressOutside,addressOutsideImageId,closeDate,closeCause,successorCorporateNumber,changeCause,assignmentDate,latest,enName,enPrefectureName,enCityName,enAddressOutside,furigana,hihyoji
5,1010001236145,新規,0,2023-06-22,2023-06-22,株式会社ｔａｍａｇｏ,,株式会社,東京都,中央区,銀座１丁目２２－１銀座タワー２１０１,,13,102,1040061,,,,,,,2023-06-22,1,,,,,タマゴ,0
6,1010001236327,新規,0,2023-06-22,2023-06-22,株式会社ダブルアール,,株式会社,東京都,中央区,東日本橋２丁目２番５号ジャコワ東日本橋１１０３号,,13,102,1030004,,,,,,,2023-06-22,1,,,,,ダブルアール,0
7,1010001236335,新規,0,2023-06-22,2023-06-22,株式会社アティックエンターテイメント,,株式会社,東京都,中央区,日本橋蛎殻町１丁目３５－８,,13,102,1030014,,,,,,,2023-06-22,1,,,,,アティックエンターテイメント,0
8,1010001236351,新規,0,2023-06-22,2023-06-22,エンデバー・ユナイテッド・パートナーズ・３１株式会社,,株式会社,東京都,千代田区,丸の内２丁目５番１号丸の内二丁目ビル６階,,13,101,1000005,,,,,,,2023-06-22,1,,,,,エンデバーユナイテッドパートナーズサーティワン,0
11,1010003040933,新規,0,2023-06-22,2023-06-22,アガベソーラー合同会社,,合同会社,東京都,中央区,八丁堀４丁目２番１０号ＡＯＪ税理士法人内,,13,102,1040032,,,,,,,2023-06-22,1,,,,,アガベソーラー,0
22,1010401175174,新規,0,2023-06-22,2023-06-22,株式会社ＧＢＧＨ　ＪＡＰＡＮ,,株式会社,東京都,港区,北青山２丁目７番２７号Ｐ’ｓＧＡＩＥＮＭＡＥ８Ｆ,,13,103,1070061,,,,,,,2023-06-22,1,,,,,ジービージーエイチジャパン,0
23,1010401175273,新規,0,2023-06-22,2023-06-22,株式会社ｎｉｎｉ,,株式会社,東京都,港区,南青山３丁目１番３６号青山丸竹ビル６Ｆ,,13,103,1070062,,,,,,,2023-06-22,1,,,,,ニニ,0
24,1010403030360,新規,0,2023-06-22,2023-06-22,Ｓｅａｂｏａｒｄ　Ｆｏｏｄｓ　Ｊａｐａｎ合同会社,,合同会社,東京都,港区,元麻布３丁目１番６号,,13,103,1060046,,,,,,,2023-06-22,1,,,,,シーボードフーズジャパン,0
25,1010403030369,新規,0,2023-06-22,2023-06-22,合同会社Ｋ．Ｓ,,合同会社,東京都,港区,赤坂２丁目１７番５０－１８０１号,,13,103,1070052,,,,,,,2023-06-22,1,,,,,ケイエス,0
30,1010501050632,新規,0,2023-06-22,2023-06-22,株式会社エーカム,,株式会社,東京都,台東区,上野３丁目１５番７号ＵＥＮＯＹＯＵＲ,,13,106,1100005,,,,,,,2023-06-22,1,,,,,エーカム,0
32,1010601063303,新規,0,2023-06-22,2023-06-22,株式会社クラセロ,,株式会社,東京都,江東区,亀戸３丁目８番４号クレアメゾン天神橋５０３号室,,13,108,1360071,,,,,,,2023-06-22,1,,,,,クラセロ,0
41,1011001155236,新規,0,2023-06-22,2023-06-22,エッセンシャルズ株式会社,,株式会社,東京都,渋谷区,円山町５番５号Ｎａｖｉ渋谷Ｖ３Ｆ,,13,113,1500044,,,,,,,2023-06-22,1,,,,,エッセンシャルズ,0
44,1011101103334,新規,0,2023-06-22,2023-06-22,株式会社ＵＦホールディングス,,株式会社,東京都,新宿区,西新宿７丁目５番６号,,13,104,1600023,,,,,,,2023-06-22,1,,,,,ユーエフホールディングス,0
45,1011101103350,新規,0,2023-06-22,2023-06-22,株式会社ファニーデベロップメント,,株式会社,東京都,新宿区,南榎町４３番地３,,13,104,1620852,,,,,,,2023-06-22,1,,,,,ファニーデベロップメント,0
46,1011101103359,新規,0,2023-06-22,2023-06-22,アカデミックハブ株式会社,,株式会社,東京都,新宿区,歌舞伎町２丁目４６番７号第３平沢ビル５Ｆ－Ｂ,,13,104,1600021,,,,,,,2023-06-22,1,,,,,アカデミックハブ,0
53,1011403004024,新規,0,2023-06-22,2023-06-22,合同会社フェアリースマイル,,合同会社,東京都,板橋区,中丸町２５番２号ＣｏｃｏｏＮ池袋２０１,,13,119,1730026,,,,,,,2023-06-22,1,,,,,フェアリースマイル,0
54,1011403004032,新規,0,2023-06-22,2023-06-22,合同会社オフィスＹ,,合同会社,東京都,板橋区,清水町３７番８号,,13,119,1740053,,,,,,,2023-06-22,1,,,,,オフィスワイ,0
62,1011803005704,新規,0,2023-06-22,2023-06-22,合同会社ｍｅｄｉｃａｌｉｋｅ,,合同会社,東京都,足立区,中川４丁目３３―４亀有中川マンション６０４,,13,121,1200002,,,,,,,2023-06-22,1,,,,,メディカライク,0
63,1012403006035,新規,0,2023-06-22,2023-06-22,合同会社たづくり総合研究所,,合同会社,東京都,調布市,深大寺東町７丁目４１番地７,,13,208,1820012,,,,,,,2023-06-22,1,,,,,タヅクリソウゴウケンキュウショ,0
64,1012801022451,新規,0,2023-06-22,2023-06-22,株式会社鈴木,,株式会社,東京都,日野市,三沢５丁目１６番地の９,,13,212,1910032,,,,,,,2023-06-22,1,,,,,スズキ,0
83,1020003024084,新規,0,2023-06-22,2023-06-22,ライズ・ジャパン合同会社,,合同会社,神奈川県,川崎市中原区,新城３丁目６－１－３Ｆ,,14,133,2110044,,,,,,,2023-06-22,1,,,,,ライズジャパン,0
87,1021001079335,新規,0,2023-06-22,2023-06-22,Ｐｏｗｅｒ　Ｗａｖｅ株式会社,,株式会社,神奈川県,藤沢市,遠藤９４４番地６グリーンヒル湘南１階１０３号室,,14,205,2520816,,,,,,,2023-06-22,1,,,,,パワーウェーブ,0
88,1021001079384,新規,0,2023-06-22,2023-06-22,株式会社ＴＨＥ　ＵＬＴＲＡ　ＢＬＡＣＫ,,株式会社,神奈川県,大和市,中央林間西２丁目９番１０号,,14,213,2420008,,,,,,,2023-06-22,1,,,,,ザウルトラブラック,0
95,1030001154576,新規,0,2023-06-22,2023-06-22,株式会社ＦＩＮＺＡＣＫ,,株式会社,埼玉県,八潮市,大字南川崎７６４番地１,,11,234,3400814,,,,,,,2023-06-22,1,,,,,フィンザック,0
107,1050001053025,新規,0,2023-06-22,2023-06-22,安杰貿易株式会社,,株式会社,茨城県,桜川市,真壁町原方１２０番地,,08,231,3004421,,,,,,,2023-06-22,1,,,,,アンケツボウエキ,0
117,1070003004998,新規,0,2023-06-22,2023-06-22,合同会社ＣＲＡＦＴＹ,,合同会社,群馬県,伊勢崎市,田中島町１４００番地６グランディールビルアネックス２０６,,10,204,3720802,,,,,,,2023-06-22,1,,,,,クラフティー,0
133,1120001255885,新規,0,2023-06-22,2023-06-22,株式会社ＳＨＮ,,株式会社,大阪府,大阪市住吉区,浅香１丁目６番３５号,,27,120,5580021,,,,,,,2023-06-22,1,,,,,エスエイチエヌ,0
134,1120001255910,新規,0,2023-06-22,2023-06-22,ハウスク株式会社,,株式会社,大阪府,大阪市浪速区,難波中２丁目１０番７０号なんばパークスタワー１９Ｆ,,27,111,5560011,,,,,,,2023-06-22,1,,,,,ハウスク,0
135,1120003024371,新規,0,2023-06-22,2023-06-22,合同会社レベルライフ,,合同会社,大阪府,守口市,藤田町６丁目５番５号,,27,209,5700014,,,,,,,2023-06-22,1,,,,,レベルライフ,0
138,1120101067776,新規,0,2023-06-22,2023-06-22,株式会社ＨＪ　Ｉｎｔｅｒｎａｔｉｏｎａｌ　Ｊａｐａｎ,,株式会社,大阪府,岸和田市,荒木町２丁目２－２２平成ビル１Ｆ,,27,202,5960004,,,,,,,2023-06-22,1,,,,,エイチジェイインターナショナルジャパン,0
139,1120103005288,新規,0,2023-06-22,2023-06-22,合同会社文創,,合同会社,大阪府,岸和田市,松風町１３番５８号春木ｗｏｒｋｓｐａｃｅ１０１号室,,27,202,5960021,,,,,,,2023-06-22,1,,,,,ブンソウ,0
142,1122001037025,新規,0,2023-06-22,2023-06-22,Ｖｉｖｉ株式会社,,株式会社,大阪府,東大阪市,加納８丁目２番２６号,,27,227,5780901,,,,,,,2023-06-22,1,,,,,ヴィヴィ,0
143,1122001037099,新規,0,2023-06-22,2023-06-22,株式会社一興,,株式会社,大阪府,東大阪市,横小路町６丁目２番３２号,,27,227,5798063,,,,,,,2023-06-22,1,,,,,イッコウ,0
148,1130001074590,新規,0,2023-06-22,2023-06-22,株式会社ｍｅｌｔ,,株式会社,京都府,京都市中京区,西ノ京島ノ内町２２番地２ベアーレ芳樹１０８,,26,104,6048443,,,,,,,2023-06-22,1,,,,,メルト,0
153,1170001017653,新規,0,2023-06-22,2023-06-22,株式会社エムズカッシュ,,株式会社,和歌山県,伊都郡九度山町,大字慈尊院２７８番地の２３,,30,343,6480151,,,,,,,2023-06-22,1,,,,,エムズカッシュ,0
158,1180001156789,新規,0,2023-06-22,2023-06-22,株式会社ＲＣＡ,,株式会社,愛知県,名古屋市瑞穂区,萩山町２丁目１０番地の５,,23,108,4670011,,,,,,,2023-06-22,1,,,,,アールシーエー,0
159,1180001156814,新規,0,2023-06-22,2023-06-22,株式会社ＳＴＮ,,株式会社,愛知県,名古屋市東区,泉３丁目５番１号,,23,102,4610001,,,,,,,2023-06-22,1,,,,,エスティーエヌ,0
168,1200001041427,新規,0,2023-06-22,2023-06-22,Ｓｕｇａｒ株式会社,,株式会社,岐阜県,山県市,高木７０５番地２８,,21,215,5012113,,,,,,,2023-06-22,1,,,,,シュガー,0
176,1230003002036,新規,0,2023-06-22,2023-06-22,池谷建築計画合同会社,,合同会社,富山県,砺波市,豊町１丁目１６番２６号,,16,208,9391364,,,,,,,2023-06-22,1,,,,,イケヤケンチクケイカク,0
181,1240003006192,新規,0,2023-06-22,2023-06-22,合同会社ねこのひげ,,合同会社,広島県,安芸郡坂町,横浜東２丁目１０番１６号,,34,309,7314322,,,,,,,2023-06-22,1,,,,,ネコノヒゲ,0
182,1250003003296,新規,0,2023-06-22,2023-06-22,合同会社カチドキ,,合同会社,山口県,宇部市,亀浦５丁目３番３３－１号,,35,202,7550002,,,,,,,2023-06-22,1,,,,,カチドキ,0
184,1260001038054,新規,0,2023-06-22,2023-06-22,渡邊建築株式会社,,株式会社,岡山県,岡山市北区,今７丁目２４番８号,,33,101,7000975,,,,,,,2023-06-22,1,,,,,ワタナベケンチク,0
202,1330003009888,新規,0,2023-06-22,2023-06-22,合同会社ひまわり,,合同会社,熊本県,天草市,亀場町亀川１１０２番地８,,43,215,8630043,,,,,,,2023-06-22,1,,,,,ヒマワリ,0
205,1340003004161,新規,0,2023-06-22,2023-06-22,アフロ・トーク合同会社,,合同会社,鹿児島県,南九州市,知覧町郡４８５７番地４９,,46,223,8970302,,,,,,,2023-06-22,1,,,,,アフロトーク,0
212,1380003005494,新規,0,2023-06-22,2023-06-22,アリビオ合同会社,,合同会社,福島県,福島市,渡利字椚町４８－１アリビオ椚２０１,,07,201,9608141,,,,,,,2023-06-22,1,,,,,アリビオ,0
221,1430001089369,新規,0,2023-06-22,2023-06-22,新千歳運輸株式会社,,株式会社,北海道,千歳市,新星２丁目５番１号,,01,224,0660069,,,,,,,2023-06-22,1,,,,,シンチトセウンユ,0
223,1430003015174,新規,0,2023-06-22,2023-06-22,合同会社茶ノン,,合同会社,北海道,札幌市北区,北十条西３丁目２３番地１,,01,102,0010010,,,,,,,2023-06-22,1,,,,,チャノン,0
226,1450003002352,新規,0,2023-06-22,2023-06-22,合同会社ここから,,合同会社,北海道,上川郡東川町,東２号北８,,01,458,0711432,,,,,,,2023-06-22,1,,,,,ココカラ,0
227,1470001019669,新規,0,2023-06-22,2023-06-22,Ｇｕｉｄｉｉ株式会社,,株式会社,香川県,高松市,サンポート２－１高松シンボルタワー４Ｆ５Ｆ,,37,201,7600019,,,,,,,2023-06-22,1,,,,,,0
235,1700150112044,新規,0,2023-06-22,2022-10-07,大統領師匠,,その他,東京都,渋谷区,本町１丁目５０－５サンハイツ１０３,,13,113,1510071,,,,,,,2022-10-07,1,,,,,ダイトウリヨウシシヨウ,0
240,2010001235988,新規,0,2023-06-22,2023-06-22,Ｓｔａｎｄａｒｄ建設株式会社,,株式会社,東京都,中央区,日本橋小舟町９番３号,,13,102,1030024,,,,,,,2023-06-22,1,,,,,スタンダードケンセツ,0
241,2010001236342,新規,0,2023-06-22,2023-06-22,株式会社クレア,,株式会社,東京都,千代田区,紀尾井町３番１２号紀尾井町ビル６階,,13,101,1020094,,,,,,,2023-06-22,1,,,,,クレア,0
242,2010001236359,新規,0,2023-06-22,2023-06-22,リライフホームズ株式会社,,株式会社,東京都,千代田区,九段南１丁目５番６号りそな九段ビル５階ＫＳフロア,,13,101,1020074,,,,,,,2023-06-22,1,,,,,リライフホームズ,0
246,2010005036862,新規,0,2023-06-22,2023-06-22,一般社団法人クレア人財育英協会,,その他の設立登記法人,東京都,千代田区,紀尾井町３番１２号紀尾井町ビル６階,,13,101,1020094,,,,,,,2023-06-22,1,,,,,クレアジンザイイクエイキョウカイ,0
250,2010401175157,新規,0,2023-06-22,2023-06-22,株式会社ＳＪ,,株式会社,東京都,港区,六本木７丁目６番１９号７Ｆ,,13,103,1060032,,,,,,,2023-06-22,1,,,,,エスジェー,0
253,2010403030351,新規,0,2023-06-22,2023-06-22,ＡＣＴｓｔａｇｅ合同会社,,合同会社,東京都,港区,南青山２丁目２番１５号ウィン青山９４２,,13,103,1070062,,,,,,,2023-06-22,1,,,,,アクトステージ,0
258,2010603010211,新規,0,2023-06-22,2023-06-22,リベルテ合同会社,,合同会社,東京都,江東区,東雲１丁目９番１４－１３０７号,,13,108,1350062,,,,,,,2023-06-22,1,,,,,リベルテ,0
266,2011003016939,新規,0,2023-06-22,2023-06-22,合同会社ＢＬＵＴＥ　ＣＯＭＰＡＮＹ,,合同会社,東京都,渋谷区,円山町５番５号Ｎａｖｉ渋谷Ｖ３階,,13,113,1500044,,,,,,,2023-06-22,1,,,,,ブリューテカンパニー,0
276,2011301028801,新規,0,2023-06-22,2023-06-22,株式会社寿コーポレーション,,株式会社,東京都,杉並区,松ノ木１丁目７番９号,,13,115,1660014,,,,,,,2023-06-22,1,,,,,コトブキコーポレーション,0
287,2012401040662,新規,0,2023-06-22,2023-06-22,株式会社かたつくり,,株式会社,東京都,調布市,染地２丁目８番地３Ｃ－１１２,,13,208,1820023,,,,,,,2023-06-22,1,,,,,カタツクリ,0
288,2012403006026,新規,0,2023-06-22,2023-06-22,合同会社カナボリック,,合同会社,東京都,府中市,緑町１丁目１０番地の３パールドゥＮ府中３０２,,13,206,1830006,,,,,,,2023-06-22,1,,,,,カナボリック,0
289,2012801022450,新規,0,2023-06-22,2023-06-22,株式会社ｂｌｕｅｂｉｒｄ,,株式会社,東京都,立川市,若葉町１丁目１７番地の１,,13,202,1900001,,,,,,,2023-06-22,1,,,,,ブルーバード,0
290,2012803003110,新規,0,2023-06-22,2023-06-22,奥村＆Ｃｏｍｐａｎｙ合同会社,,合同会社,東京都,国立市,富士見台２丁目３７番地の７ダイアパレス国立ＩＩ５０１,00130955,13,215,1860003,,,,,,,2023-06-22,1,,,,,オクムラアンドカンパニー,0
303,2020001152209,新規,0,2023-06-22,2023-06-22,日天管理株式会社,,株式会社,神奈川県,横浜市港北区,新横浜１丁目７番地９友泉新横浜一丁目ビル１階,,14,109,2220033,,,,,,,2023-06-22,1,,,,,ニッテンカンリ,0
304,2020001152225,新規,0,2023-06-22,2023-06-22,株式会社レガシー,,株式会社,神奈川県,川崎市中原区,新丸子東３丁目１３０１番地Ｇ３１０４,,14,133,2110004,,,,,,,2023-06-22,1,,,,,レガシー,0
310,2021001079383,新規,0,2023-06-22,2023-06-22,株式会社ジンの設備,,株式会社,神奈川県,三浦市,初声町和田２５５８番地８,,14,210,2380114,,,,,,,2023-06-22,1,,,,,ジンノセツビ,0
311,2021001079391,新規,0,2023-06-22,2023-06-22,Ｘｅｃｏｒ株式会社,,株式会社,神奈川県,藤沢市,鵠沼松が岡５丁目５番７号,,14,205,2510038,,,,,,,2023-06-22,1,,,,,ゼコー,0
319,2030001154476,新規,0,2023-06-22,2023-06-22,株式会社深谷農商会,,株式会社,埼玉県,深谷市,櫛引２０番地１,,11,218,3660815,,,,,,,2023-06-22,1,,,,,フカヤノウショウカイ,0
320,2030001154575,新規,0,2023-06-22,2023-06-22,株式会社エーアイアール,,株式会社,埼玉県,狭山市,大字南入曽７７２番地の１２,,11,215,3501316,,,,,,,2023-06-22,1,,,,,エーアイアール,0
331,2040001128933,新規,0,2023-06-22,2023-06-22,株式会社ＹＷＢ,,株式会社,千葉県,佐倉市,上座４００番地２６６,,12,212,2850854,,,,,,,2023-06-22,1,,,,,ワイダブリュービー,0
332,2040001128941,新規,0,2023-06-22,2023-06-22,福留興産株式会社,,株式会社,千葉県,船橋市,海神町３丁目１１９番地５５,,12,204,2730022,,,,,,,2023-06-22,1,,,,,フクドメコウサン,0
340,2050001053024,新規,0,2023-06-22,2023-06-22,宝淘株式会社,,株式会社,茨城県,つくば市,竹園３丁目１５番地ウエリスつくば竹園５２３号,,08,220,3050032,,,,,,,2023-06-22,1,,,,,バオタオ,0
342,2050005013288,新規,0,2023-06-22,2023-06-22,一般社団法人水戸終活支援センター,,その他の設立登記法人,茨城県,小美玉市,外之内２６９－３５,,08,236,3113414,,,,,,,2023-06-22,1,,,,,ミトシュウカツシエンセンター,0
347,2070001040557,新規,0,2023-06-22,2023-06-22,株式会社ランレア,,株式会社,群馬県,富岡市,富岡１６４７番地８,,10,210,3702316,,,,,,,2023-06-22,1,,,,,ランレア,0
360,2120001255868,新規,0,2023-06-22,2023-06-22,株式会社ＮＩＣＥ,,株式会社,大阪府,大阪市北区,東天満２丁目９番４号,,27,127,5300044,,,,,,,2023-06-22,1,,,,,ナイス,0
367,2120003024346,新規,0,2023-06-22,2023-06-22,ＮＧＯＣ　ＤＵＯＮＧ合同会社,,合同会社,大阪府,大阪市浪速区,大国２丁目６番１０号２８号室,,27,111,5560014,,,,,,,2023-06-22,1,,,,,ゴックズオン,0
380,2140001130623,新規,0,2023-06-22,2023-06-22,株式会社出口工務店,,株式会社,兵庫県,明石市,大久保町山手台２丁目１１１番地の５,,28,203,6740056,,,,,,,2023-06-22,1,,,,,デグチコウムテン,0
381,2140001130631,新規,0,2023-06-22,2023-06-22,株式会社ツープラススリー,,株式会社,兵庫県,神戸市兵庫区,新開地５丁目１番１０号,,28,105,6520811,,,,,,,2023-06-22,1,,,,,ツープラススリー,0
393,2180001156813,新規,0,2023-06-22,2023-06-22,サングリーン株式会社,,株式会社,愛知県,名古屋市港区,天目町１１２番地,,23,111,4550865,,,,,,,2023-06-22,1,,,,,サングリーン,0
394,2180001156821,新規,0,2023-06-22,2023-06-22,株式会社ＴＳＪ,,株式会社,愛知県,名古屋市中区,上前津１丁目１３番２号ドゥーエ上前津８０５号,,23,106,4600013,,,,,,,2023-06-22,1,,,,,ティーエスジェー,0
396,2180003025371,新規,0,2023-06-22,2023-06-22,合同会社トモリス,,合同会社,愛知県,名古屋市昭和区,川名本町２丁目１７番地の２,,23,107,4660855,,,,,,,2023-06-22,1,,,,,トモリス,0
415,2250003003295,新規,0,2023-06-22,2023-06-22,合同会社ｗｏｏｄ　ｂｕｉｌｄｉｎｇ,,合同会社,山口県,防府市,国分寺町６番１５号,,35,206,7470021,,,,,,,2023-06-22,1,,,,,ウッドビルディング,0
417,2260003004342,新規,0,2023-06-22,2023-06-22,ＡＬＩ貿易合同会社,,合同会社,岡山県,浅口市,鴨方町六条院中３８８０番地１,,33,216,7190252,,,,,,,2023-06-22,1,,,,,アリボウエキ,0
421,2290001102038,新規,0,2023-06-22,2023-06-22,株式会社Ｃｏ‐ＴＨＩＮＫ,,株式会社,福岡県,福岡市中央区,天神４丁目１番１８号,,40,133,8100001,,,,,,,2023-06-22,1,,,,,コシンク,0
429,2330001030993,新規,0,2023-06-22,2023-06-22,株式会社ｃｒａｆｔエステート,,株式会社,熊本県,熊本市東区,戸島西２丁目２番５号,,43,102,8618043,,,,,,,2023-06-22,1,,,,,クラフトエステート,0
433,2340001025654,新規,0,2023-06-22,2023-06-22,株式会社盟幸,,株式会社,鹿児島県,出水市,野田町上名２８６番地,,46,208,8990501,,,,,,,2023-06-22,1,,,,,メイコー,0
436,2360001032194,新規,0,2023-06-22,2023-06-22,ナマステ株式会社,,株式会社,沖縄県,那覇市,辻１丁目１５番１－６０３号琉食辻町マンション,00130950,47,201,9000037,,,,,,,2023-06-22,1,,,,,ナマステ,0
450,2430001089376,新規,0,2023-06-22,2023-06-22,大家設備株式会社,,株式会社,北海道,札幌市手稲区,金山二条１丁目５番８号,,01,109,0060042,,,,,,,2023-06-22,1,,,,,オオイエセツビ,0
453,2430003015207,新規,0,2023-06-22,2023-06-22,ＩＲｉＳ合同会社,,合同会社,北海道,札幌市中央区,南七条西１４丁目１番１６－３０３号,,01,101,0640807,,,,,,,2023-06-22,1,,,,,アイリス,0
455,2450003002351,新規,0,2023-06-22,2023-06-22,合同会社ｌｉｃｈｔ,,合同会社,北海道,旭川市,五条通１２丁目１３９５番地２,,01,204,0700035,,,,,,,2023-06-22,1,,,,,リヒト,0
458,2470001019668,新規,0,2023-06-22,2023-06-22,ＭＥＰＲＯ株式会社,,株式会社,香川県,丸亀市,金倉町１１１５番地,,37,202,7630053,,,,,,,2023-06-22,1,,,,,メプロ,0
463,2700150116770,新規,0,2023-06-22,2023-06-01,薮川地区活性化推進協議会,,その他,岩手県,盛岡市,薮川字外山３５－４５,,03,201,0282711,,,,,,,2023-06-01,1,,,,,ヤブカワチクカッセイカスイシンキョウギカイ,0
468,3010001236300,新規,0,2023-06-22,2023-06-22,Ｇｏｌｄ　Ｃｅｌｌａｒ株式会社,,株式会社,東京都,中央区,銀座８丁目２番１１号,,13,102,1040061,,,,,,,2023-06-22,1,,,,,ゴールドセラー,0
469,3010001236309,新規,0,2023-06-22,2023-06-22,株式会社木ノ本,,株式会社,東京都,千代田区,五番町５番地１ＪＳ市ヶ谷ビル２Ｆ,,13,101,1020076,,,,,,,2023-06-22,1,,,,,キノモト,0
470,3010001236317,新規,0,2023-06-22,2023-06-22,株式会社感,,株式会社,東京都,千代田区,飯田橋１丁目９番６号,,13,101,1020072,,,,,,,2023-06-22,1,,,,,カン,0
471,3010001236325,新規,0,2023-06-22,2023-06-22,株式会社ＲＤ７,,株式会社,東京都,文京区,本郷４丁目１６番６号,,13,105,1130033,,,,,,,2023-06-22,1,,,,,アールディーセブン,0
472,3010001236333,新規,0,2023-06-22,2023-06-22,株式会社ドスティー,,株式会社,東京都,中央区,日本橋室町１丁目１１番１２号日本橋水野ビル７階,,13,102,1030022,,,,,,,2023-06-22,1,,,,,ドスティー,0
473,3010001236341,新規,0,2023-06-22,2023-06-22,株式会社ＵｎｉＭｅｄ,,株式会社,東京都,文京区,春日２丁目１１番８－３０４号,,13,105,1120003,,,,,,,2023-06-22,1,,,,,ユニメッド,0
474,3010001236366,新規,0,2023-06-22,2023-06-22,株式会社六方よし,,株式会社,東京都,中央区,銀座２丁目１２番１２号３Ａ,,13,102,1040061,,,,,,,2023-06-22,1,,,,,ロッポウヨシ,0
479,3010003040972,新規,0,2023-06-22,2023-06-22,Ｐｉｎｅｗｏｏｄ　ＤＭＳ　Ｊａｐａｎ合同会社,,合同会社,東京都,千代田区,内幸町１丁目３番１号幸ビルディング９階,,13,101,1000011,,,,,,,2023-06-22,1,,,,,パインウッドディーエムエスジャパン,0
491,3010401175148,新規,0,2023-06-22,2023-06-22,テラス・キャピタルパートナーズ株式会社,,株式会社,東京都,港区,港南１丁目９番３６号,,13,103,1080075,,,,,,,2023-06-22,1,,,,,テラスキャピタルパートナーズ,0
492,3010401175164,新規,0,2023-06-22,2023-06-22,株式会社ｉｏ,,株式会社,東京都,港区,芝１丁目３番２号,,13,103,1050014,,,,,,,2023-06-22,1,,,,,イオ,0
493,3010401175180,新規,0,2023-06-22,2023-06-22,ＪＣＴ　ＪＡＰＡＮ株式会社,,株式会社,東京都,港区,浜松町２丁目５番３号,,13,103,1050013,,,,,,,2023-06-22,1,,,,,ジェーシーティージャパン,0
494,3010401175189,新規,0,2023-06-22,2023-06-22,ｖｉｃｔｏｒｉａｆｒｕｉｔ株式会社,,株式会社,東京都,港区,南青山２丁目２番１５号ウィン青山９４２,,13,103,1070062,,,,,,,2023-06-22,1,,,,,ヴィクトリアフルーツ,0
495,3010401175206,新規,0,2023-06-22,2023-06-22,株式会社アレセ,,株式会社,東京都,港区,南青山３丁目１４－１０シプレ南青山１階,,13,103,1070062,,,,,,,2023-06-22,1,,,,,アレセ,0
496,3010401175247,新規,0,2023-06-22,2023-06-22,パークコミュニティーズ株式会社,,株式会社,東京都,港区,海岸１丁目１番１－６１４号,,13,103,1050022,,,,,,,2023-06-22,1,,,,,パークコミュニティーズ,0
499,3010403030359,新規,0,2023-06-22,2023-06-22,Ｌｉｍｉｔ　Ｂｒｅａｋ　Ｊａｐａｎ合同会社,,合同会社,東京都,港区,元麻布３丁目１番６号,,13,103,1060046,,,,,,,2023-06-22,1,,,,,リミットブレイクジャパン,0
503,3010501050630,新規,0,2023-06-22,2023-06-22,東和株式会社,,株式会社,東京都,台東区,下谷３丁目８番４－２０２号,,13,106,1100004,,,,,,,2023-06-22,1,,,,,トウワ,0
505,3010601063301,新規,0,2023-06-22,2023-06-22,慧徳樂株式会社,00130951,株式会社,東京都,墨田区,緑１丁目２１番１３号キャッスルマンション両国１０１,,13,107,1300021,,,,,,,2023-06-22,1,,,,,ケイトクラク,0
506,3010605004210,新規,0,2023-06-22,2023-06-22,一般社団法人東京安全衛生講習協会,,その他の設立登記法人,東京都,江東区,青海２丁目７番４号ＴｈｅＳＯＨＯ・Ｏｄａｉｂａ７１１号室,,13,108,1350064,,,,,,,2023-06-22,1,,,,,トウキョウアンゼンエイセイコウシュウキョウカイ,0
511,3010705003517,新規,0,2023-06-22,2023-06-22,一般社団法人ＤＸＷＯＲＬＤ,,その他の設立登記法人,東京都,品川区,西五反田１丁目１－８ＮＭＦ五反田駅前ビル６階,,13,109,1410031,,,,,,,2023-06-22,1,,,,,ディーエックスワールド,0
513,3010901053282,新規,0,2023-06-22,2023-06-22,株式会社ｍｏｏｎｂｏｗ,,株式会社,東京都,世田谷区,太子堂１丁目１２－２７コンフォートテラス１００５号,,13,112,1540004,,,,,,,2023-06-22,1,,,,,ムーンボウ,0
519,3011101103324,新規,0,2023-06-22,2023-06-22,スカイウォーカー株式会社,,株式会社,東京都,新宿区,西早稲田１丁目１１番８号ヴィラ早稲田２０２ａ,,13,104,1690051,,,,,,,2023-06-22,1,,,,,スカイウォーカー,0
521,3011503005655,新規,0,2023-06-22,2023-06-22,ＥＭＤ　Ｆａｃｔｏｒｙ合同会社,,合同会社,東京都,荒川区,南千住７丁目１－１ブランズタワー南千住２１０２,,13,118,1160003,,,,,,,2023-06-22,1,,,,,イーエムディーファクトリー,0
526,3011801042607,新規,0,2023-06-22,2023-06-22,渡辺商事株式会社,,株式会社,東京都,葛飾区,水元４丁目５番９号,,13,122,1250032,,,,,,,2023-06-22,1,,,,,ワタナベショウジ,0
530,3012401040661,新規,0,2023-06-22,2023-06-22,株式会社ｓｔｏｒｉａ,,株式会社,東京都,府中市,幸町２丁目３１番地の５,,13,206,1830054,,,,,,,2023-06-22,1,,,,,ストーリア,0
531,3012801022458,新規,0,2023-06-22,2023-06-22,株式会社Ｓｉｒｉｕｓ,,株式会社,東京都,立川市,高松町３丁目１８番１２号ディアコート３０２,,13,202,1900011,,,,,,,2023-06-22,1,,,,,シリウス,0
541,3020001152199,新規,0,2023-06-22,2023-06-22,株式会社アエルデザイン,,株式会社,神奈川県,横浜市神奈川区,平川町１４番地４－２０６,,14,102,2210812,,,,,,,2023-06-22,1,,,,,アエルデザイン,0
552,3021001079390,新規,0,2023-06-22,2023-06-22,クリニカタナカマーケティング株式会社,,株式会社,神奈川県,横須賀市,久里浜７丁目３１番１－１０９号,,14,201,2390831,,,,,,,2023-06-22,1,,,,,クリニカタナカマーケティング,0
564,3030001154558,新規,0,2023-06-22,2023-06-22,ＷａｔｅｒＴｒｅｅＤｅｓｉｇｎ株式会社,,株式会社,埼玉県,さいたま市岩槻区,城町１丁目４番５７号,,11,110,3390053,,,,,,,2023-06-22,1,,,,,ウォーターツリーデザイン,0
565,3030001154582,新規,0,2023-06-22,2023-06-22,株式会社ソーリク,,株式会社,埼玉県,越谷市,流通団地１丁目４－８,,11,222,3430824,,,,,,,2023-06-22,1,,,,,ソーリク,0
572,3040001128940,新規,0,2023-06-22,2023-06-22,株式会社Ｂｌｅｕ,,株式会社,千葉県,市原市,ちはら台東２丁目９番地２５,,12,219,2900141,,,,,,,2023-06-22,1,,,,,ブリュ,0
577,3040003022828,新規,0,2023-06-22,2023-06-22,Ｍ’ｓ合同会社,,合同会社,千葉県,市原市,鶴舞１０５４番地４８,,12,219,2900512,,,,,,,2023-06-22,1,,,,,エムズ,0
581,3050001053023,新規,0,2023-06-22,2023-06-22,株式会社直喜空き家研究所,,株式会社,茨城県,水戸市,元吉田町１２４７－２グリーンヒルハイツ１０１号室,,08,201,3100836,,,,,,,2023-06-22,1,,,,,ナオキアキヤケンキュウジョ,0
582,3050005013287,新規,0,2023-06-22,2023-06-22,一般社団法人未来・美・自然アート研究会,,その他の設立登記法人,茨城県,土浦市,荒川沖東１丁目５番１号,,08,203,3000871,,,,,,,2023-06-22,1,,,,,ミライビシゼンアートケンキュウカイ,0
585,3070001040556,新規,0,2023-06-22,2023-06-22,株式会社ＳＡＴＴＩ　ＴＲＡＤＩＮＧ,,株式会社,群馬県,沼田市,下発知町２９８番地,,10,206,3780074,,,,,,,2023-06-22,1,,,,,サティトレーディング,0
586,3080101024086,新規,0,2023-06-22,2023-06-22,株式会社クレイドル,,株式会社,静岡県,沼津市,岡一色２７５番地の１,,22,203,4100012,,,,,,,2023-06-22,1,,,,,クレイドル,0
587,3080103002833,新規,0,2023-06-22,2023-06-22,エンカウンター・フジ合同会社,,合同会社,静岡県,富士宮市,大宮町９－４,,22,207,4180066,,,,,,,2023-06-22,1,,,,,エンカウンターフジ,0
598,3120001255784,新規,0,2023-06-22,2023-06-22,ＮｏｖａＬｕｘｅ株式会社,,株式会社,大阪府,大阪市旭区,今市１丁目２－５カルム千林４０４号室,,27,117,5350011,,,,,,,2023-06-22,1,,,,,ノヴァリュクス,0
599,3120001255859,新規,0,2023-06-22,2023-06-22,桜之園株式会社,,株式会社,大阪府,大阪市東淀川区,下新庄２丁目８番１６号,,27,114,5330021,,,,,,,2023-06-22,1,,,,,サクラノエン,0
600,3120001255875,新規,0,2023-06-22,2023-06-22,Ｐｒｉｍｅ　Ｗａｒｅ株式会社,,株式会社,大阪府,大阪市西区,南堀江１丁目２６番１５－２９０１号,,27,106,5500015,,,,,,,2023-06-22,1,,,,,プライムウェア,0
601,3120001255891,新規,0,2023-06-22,2023-06-22,株式会社トップエステート,,株式会社,大阪府,大阪市西淀川区,野里１丁目２２番１９号,,27,113,5550024,,,,,,,2023-06-22,1,,,,,トップエステート,0
602,3120001255900,新規,0,2023-06-22,2023-06-22,株式会社寅の家,,株式会社,大阪府,大阪市西成区,天下茶屋３丁目７－１０,,27,122,5570014,,,,,,,2023-06-22,1,,,,,トラノイエ,0
610,3120901047703,新規,0,2023-06-22,2023-06-22,株式会社ｗｉＳｔｅｒｉａ,,株式会社,大阪府,豊中市,刀根山４丁目３番５４－４０３号,,27,203,5600045,,,,,,,2023-06-22,1,,,,,ウィステリア,0
614,3130001074589,新規,0,2023-06-22,2023-06-22,ｗａｋａｂａｒ株式会社,,株式会社,京都府,京都市下京区,七条通油小路東入大黒町２２７番地第２キョートビル４０２,,26,106,6008223,,,,,,,2023-06-22,1,,,,,ワカバー,0
615,3140001130622,新規,0,2023-06-22,2023-06-22,株式会社ＮｉｎｅＰｒｅｓｅａ,,株式会社,兵庫県,神戸市須磨区,高倉台７丁目２番７号,,28,107,6540081,,,,,,,2023-06-22,1,,,,,ナインプレセア,0
616,3140001130630,新規,0,2023-06-22,2023-06-22,株式会社Ｃｉｎｄｅｒｅｌｌａ,,株式会社,兵庫県,神戸市中央区,八幡通３丁目２－５Ｉ・Ｎ東洋ビル３階,,28,110,6510085,,,,,,,2023-06-22,1,,,,,シンデレラ,0
626,3180001156812,新規,0,2023-06-22,2023-06-22,株式会社スリーアローズ,,株式会社,愛知県,半田市,旭町３丁目４８番地,,23,205,4750838,,,,,,,2023-06-22,1,,,,,スリーアローズ,0
627,3180001156820,新規,0,2023-06-22,2023-06-22,株式会社Ｓｏｚａｉ,,株式会社,愛知県,名古屋市中村区,名駅４丁目２４番５号第２森ビル４０１,,23,105,4500002,,,,,,,2023-06-22,1,,,,,ソザイ,0
628,3180001156837,新規,0,2023-06-22,2023-06-22,株式会社ＰＬＵＭ,,株式会社,愛知県,あま市,七宝町鷹居１丁目５９番地,,23,237,4970014,,,,,,,2023-06-22,1,,,,,プラム,0
636,3200003005997,新規,0,2023-06-22,2023-06-22,合同会社リリエステート,,合同会社,岐阜県,羽島郡笠松町,長池１３６－３,,21,303,5016063,,,,,,,2023-06-22,1,,,,,リリエステート,0
648,3260001038052,新規,0,2023-06-22,2023-06-22,株式会社アーバンコートナンバ,,株式会社,岡山県,総社市,総社２丁目１番３３号,,33,208,7191126,,,,,,,2023-06-22,1,,,,,アーバンコートナンバ,0
652,3290001102037,新規,0,2023-06-22,2023-06-22,株式会社寿寿苑,,株式会社,福岡県,久留米市,善導寺町飯田５０３番地３,,40,203,8390824,,,,,,,2023-06-22,1,,,,,ジュジュエン,0
653,3290003014057,新規,0,2023-06-22,2023-06-22,合同会社ファミリアフェイス,,合同会社,福岡県,福岡市東区,下原２丁目３７番２８－１０１号ＳＰＲＩＯ,,40,131,8130002,,,,,,,2023-06-22,1,,,,,,0
666,3350001018417,新規,0,2023-06-22,2023-06-22,株式会社石井内装,,株式会社,宮崎県,東臼杵郡椎葉村,大字不土野１０３９番地イ,,45,430,8831603,,,,,,,2023-06-22,1,,,,,イシイナイソウ,0
669,3360001032169,新規,0,2023-06-22,2023-06-22,株式会社ＤＡＩＬ,,株式会社,沖縄県,名護市,宮里１丁目２８－８南西ビル２階,,47,209,9050011,,,,,,,2023-06-22,1,,,,,デール,0
674,3370005010649,新規,0,2023-06-22,2023-06-22,一般社団法人ＣＯＣＯＡ,,その他の設立登記法人,宮城県,岩沼市,藤波一丁目５番３６号,,04,211,9892400,,,,,,,2023-06-22,1,,,,,ココア,0
692,3430003015172,新規,0,2023-06-22,2023-06-22,合同会社ｇｏｋｉｇｅｎ,,合同会社,北海道,札幌市白石区,菊水三条５丁目３番３０,,01,104,0030803,,,,,,,2023-06-22,1,,,,,ゴキゲン,0
700,3500001025018,新規,0,2023-06-22,2023-06-22,株式会社ユウノキ工業,,株式会社,愛媛県,松山市,東大栗町甲６５１番地２号,,38,201,7992649,,,,,,,2023-06-22,1,,,,,ユウノキコウギョウ,0
705,3700150116811,新規,0,2023-06-22,2023-06-02,ゲンキッズステーションＡＳＯＶＩＶＡ！,,その他,福井県,あわら市,下番２３－２－１４,,18,208,9104138,,,,,,,2023-06-02,1,,,,,ゲンキツズステーシヨンアソビバ,0
711,4010001236266,新規,0,2023-06-22,2023-06-22,株式会社Ｌｕｃｋらく,,株式会社,東京都,千代田区,神田須田町２丁目２５番ＧＹＢ秋葉原５階,,13,101,1010041,,,,,,,2023-06-22,1,,,,,ラックラク,0
712,4010001236274,新規,0,2023-06-22,2023-06-22,株式会社ｔｏｎａｒｉｎｏ,,株式会社,東京都,中央区,日本橋兜町９番５号ＴＨＥ、ＨＵＢ日本橋兜町７０５,,13,102,1030026,,,,,,,2023-06-22,1,,,,,トナリノ,0
713,4010001236282,新規,0,2023-06-22,2023-06-22,株式会社ＤＡＹＳ,,株式会社,東京都,千代田区,丸の内１丁目１１番１号１３Ｆ,,13,101,1000005,,,,,,,2023-06-22,1,,,,,デイズ,0
714,4010001236316,新規,0,2023-06-22,2023-06-22,ＮＣＴアグリ株式会社,,株式会社,東京都,千代田区,外神田１丁目１８番１３号,,13,101,1010021,,,,,,,2023-06-22,1,,,,,エヌシーティーアグリ,0
715,4010001236324,新規,0,2023-06-22,2023-06-22,株式会社Ｄｅｄｅｋｉｎｄ　Ｔｏｋｙｏ,,株式会社,東京都,中央区,日本橋大伝馬町２－２プライムアーバン日本橋大伝馬町１１０３,,13,102,1030011,,,,,,,2023-06-22,1,,,,,デデキントトウキョウ,0
716,4010001236340,新規,0,2023-06-22,2023-06-22,株式会社パレード,,株式会社,東京都,中央区,新川１丁目６番１１号,,13,102,1040033,,,,,,,2023-06-22,1,,,,,パレード,0
718,4010003040889,新規,0,2023-06-22,2023-06-22,合同会社ＢＤ,,合同会社,東京都,文京区,本駒込４丁目３９－２リーラ駒込１０８,,13,105,1130021,,,,,,,2023-06-22,1,,,,,ビーデー,0
719,4010003040897,新規,0,2023-06-22,2023-06-22,ダブルアイ合同会社,,合同会社,東京都,中央区,銀座１丁目１２番４号Ｎ＆ＥＢＬＤ．６Ｆ,,13,102,1040061,,,,,,,2023-06-22,1,,,,,ダブルアイ,0
722,4010005036860,新規,0,2023-06-22,2023-06-22,ＮＰＯ法人みちしるべ,,その他の設立登記法人,東京都,中央区,銀座７丁目１３番２０号銀座ＴＨビル９階,,13,102,1040061,,,,,,,2023-06-22,1,,,,,ミチシルベ,0
731,4010403030275,新規,0,2023-06-22,2023-06-22,Ｓｕｎｎｙｄａｙｓ合同会社,,合同会社,東京都,港区,南青山２丁目２番１５号ＷＩＮ青山５３１,,13,103,1070062,,,,,,,2023-06-22,1,,,,,サニーデイズ,0
732,4010405022262,新規,0,2023-06-22,2023-06-22,船橋一般社団法人,,その他の設立登記法人,東京都,港区,虎ノ門３丁目２２番１０－２０１号,,13,103,1050001,,,,,,,2023-06-22,1,,,,,フナバシ,0
745,4011001155191,新規,0,2023-06-22,2023-06-22,株式会社すし良月,,株式会社,東京都,渋谷区,恵比寿２丁目３７番８号,,13,113,1500013,,,,,,,2023-06-22,1,,,,,スシアキラ,0
749,4011003017043,新規,0,2023-06-22,2023-06-22,合同会社Ｍｉｎａｍｉ,,合同会社,東京都,渋谷区,代々木１丁目５３番１号,,13,113,1510053,,,,,,,2023-06-22,1,,,,,ミナミ,0
752,4011101103190,新規,0,2023-06-22,2023-06-22,株式会社みやみや,,株式会社,東京都,新宿区,荒木町９正起ビル１Ｆ,,13,104,1600007,,,,,,,2023-06-22,1,,,,,ミヤミヤ,0
753,4011103013149,新規,0,2023-06-22,2023-06-22,ＤＵＮＡ＆Ｃｏ．合同会社,,合同会社,東京都,新宿区,市谷加賀町２丁目４番１１－１０１号,,13,104,1620062,,,,,,,2023-06-22,1,,,,,ドゥナアンドコー,0
757,4011201024733,新規,0,2023-06-22,2023-06-22,日本ケアホーム株式会社,,株式会社,東京都,中野区,中野６丁目２３番４号中野ビル１階,,13,114,1640001,,,,,,,2023-06-22,1,,,,,ニホンケアホーム,0
760,4011501029440,新規,0,2023-06-22,2023-06-22,千海株式会社,,株式会社,東京都,荒川区,町屋３丁目２４番２号面川ビル２１５号室,,13,118,1160001,,,,,,,2023-06-22,1,,,,,センカイ,0
773,4021001079373,新規,0,2023-06-22,2023-06-22,株式会社メイコーＮＥＸＴ,,株式会社,神奈川県,綾瀬市,大上５丁目１４番１５号,,14,218,2521104,,,,,,,2023-06-22,1,,,,,メイコーネクスト,0
785,4030001154417,新規,0,2023-06-22,2023-06-22,株式会社ジョイントリンク,,株式会社,埼玉県,さいたま市南区,大字大谷口５３９７番地,,11,108,3360042,,,,,,,2023-06-22,1,,,,,ジョイントリンク,0
791,4030003022002,新規,0,2023-06-22,2023-06-22,合同会社えんむすび,,合同会社,埼玉県,さいたま市岩槻区,本町３丁目２－５,,11,110,3390057,,,,,,,2023-06-22,1,,,,,エンムスビ,0
797,4040001128956,新規,0,2023-06-22,2023-06-22,さくら警備株式会社,,株式会社,千葉県,千葉市花見川区,検見川町３丁目３０８番地１９冨原マンション１０１号,,12,102,2620023,,,,,,,2023-06-22,1,,,,,サクラケイビ,0
810,4070001040555,新規,0,2023-06-22,2023-06-22,株式会社フュージョン・クリエイツ,,株式会社,群馬県,高崎市,あら町２０１番地セレストタワー高崎３０２号,,10,202,3700831,,,,,,,2023-06-22,1,,,,,,0
812,4070003004995,新規,0,2023-06-22,2023-06-22,ＴＳＱＬＡＢ．合同会社,,合同会社,群馬県,前橋市,二之宮町２７３６－７,,10,201,3792117,,,,,,,2023-06-22,1,,,,,,0
815,4080001025679,新規,0,2023-06-22,2023-06-22,株式会社あーす介護ショップ,,株式会社,静岡県,藤枝市,岡出山１丁目９番５号芳村ビル１Ｆ,,22,214,4260026,,,,,,,2023-06-22,1,,,,,アースカイゴショップ,0
819,4080101024085,新規,0,2023-06-22,2023-06-22,株式会社Ｍ,,株式会社,静岡県,富士市,鮫島４４０番地の１７,,22,210,4160934,,,,,,,2023-06-22,1,,,,,エム,0
823,4080405007554,新規,0,2023-06-22,2023-06-22,一般社団法人絵本プロフェッショナル協会,,その他の設立登記法人,静岡県,浜松市西区,平松町１８３０番地の１,,22,133,4311203,,,,,,,2023-06-22,1,,,,,エホンプロフェッショナルキョウカイ,0
830,4120001255890,新規,0,2023-06-22,2023-06-22,株式会社ＣＯＵＲＡＧＥ,,株式会社,大阪府,大阪市西区,南堀江３丁目７番１３－９０４号,,27,106,5500015,,,,,,,2023-06-22,1,,,,,クラージュ,0
832,4120003024344,新規,0,2023-06-22,2023-06-22,キハル合同会社,,合同会社,大阪府,大阪市東成区,神路４丁目１１番１８号,,27,115,5370003,,,,,,,2023-06-22,1,,,,,キハル,0
833,4120101067773,新規,0,2023-06-22,2023-06-22,株式会社Ｋｏｅｒｕ,,株式会社,大阪府,堺市東区,日置荘西町３丁２２番３９－１０２号,,27,143,5998114,,,,,,,2023-06-22,1,,,,,コエル,0
839,4130001074547,新規,0,2023-06-22,2023-06-22,Ｍｉｎｅ　Ａｒｔｓ株式会社,,株式会社,京都府,京都市東山区,祇園町南側５７０－１２７,,26,105,6050074,,,,,,,2023-06-22,1,,,,,マインアーツ,0
876,4290001102003,新規,0,2023-06-22,2023-06-22,岩商事株式会社,,株式会社,福岡県,糟屋郡篠栗町,大字尾仲５８６番地１,,40,342,8112413,,,,,,,2023-06-22,1,,,,,イワショウジ,0
878,4290003014048,新規,0,2023-06-22,2023-06-22,合同会社Ｏｒｉ,,合同会社,福岡県,福津市,中央２丁目１５番１８号,,40,224,8113217,,,,,,,2023-06-22,1,,,,,オーリ,0
879,4290003014056,新規,0,2023-06-22,2023-06-22,合同会社セロ,,合同会社,福岡県,福岡市西区,徳永北１４番５号ヴィルヌーブ１Ｆ,,40,135,8190378,,,,,,,2023-06-22,1,,,,,,0
893,4380003005491,新規,0,2023-06-22,2023-06-22,合同会社ＯＭ開発,,合同会社,福島県,相馬郡飯舘村,小宮字沼平５５１番地,,07,564,9601811,,,,,,,2023-06-22,1,,,,,オーエムカイハツ,0
905,4430001089374,新規,0,2023-06-22,2023-06-22,株式会社ＤＩＧ,,株式会社,北海道,札幌市豊平区,豊平四条９丁目２番１８号,,01,105,0620904,,,,,,,2023-06-22,1,,,,,ディーアイジー,0
906,4430001089382,新規,0,2023-06-22,2023-06-22,株式会社シックハック,,株式会社,北海道,札幌市南区,澄川五条９丁目６番１０号,,01,106,0050005,,,,,,,2023-06-22,1,,,,,シックハック,0
913,4500003003053,新規,0,2023-06-22,2023-06-22,合同会社しあん,,合同会社,愛媛県,四国中央市,土居町野田甲５２３,,38,213,7990705,,,,,,,2023-06-22,1,,,,,シアン,0
922,5010001236257,新規,0,2023-06-22,2023-06-22,株式会社ＦＲＩＣＥ,,株式会社,東京都,中央区,銀座６丁目３番１６号銀座ＷａｌｌビルＵＣＦ５階,,13,102,1040061,,,,,,,2023-06-22,1,,,,,フリス,0
923,5010001236273,新規,0,2023-06-22,2023-06-22,株式会社Ｌｅｅ＆Ｃｅｌｌ　Ｌａｂｏｒａｔｏｒｙ,,株式会社,東京都,中央区,銀座７丁目１３番６号サガミビル２階,,13,102,1040061,,,,,,,2023-06-22,1,,,,,リーアンドセルラボラトリー,0
924,5010001236348,新規,0,2023-06-22,2023-06-22,セラゴンバイオサイエンスジャパン株式会社,,株式会社,東京都,千代田区,丸の内１丁目１１番１号パシフィックセンチュリープレイス丸の内８階,,13,101,1000005,,,,,,,2023-06-22,1,,,,,セラゴンバイオサイエンスジャパン,0
928,5010003040921,新規,0,2023-06-22,2023-06-22,ＨａｄａｌＳｅｃｕｒｉｔｙ合同会社,,合同会社,東京都,中央区,銀座１丁目１２番４号Ｎ＆ＥＢＬＤ．６Ｆ,,13,102,1040061,,,,,,,2023-06-22,1,,,,,ハダルセキュリティ,0
935,5010401175154,新規,0,2023-06-22,2023-06-22,株式会社小顔ｌｏｕｎｇｅ,,株式会社,東京都,港区,赤坂６丁目１９番４５号コートモデリア六本木４０５,,13,103,1070052,,,,,,,2023-06-22,1,,,,,コガオラウンジ,0
936,5010401175187,新規,0,2023-06-22,2023-06-22,飲食店デザイン研究所株式会社,,株式会社,東京都,港区,西麻布３丁目３番１号長井ビル３Ｆ,,13,103,1060031,,,,,,,2023-06-22,1,,,,,インショクテンデザインケンキュウジョ,0
942,5010603010209,新規,0,2023-06-22,2023-06-22,ｅｓｔｙ合同会社,,合同会社,東京都,江東区,白河４丁目４番１－３１２号,,13,108,1350021,,,,,,,2023-06-22,1,,,,,エスティー,0
946,5011001155100,新規,0,2023-06-22,2023-06-22,株式会社ａｄｖｅｎＴＲＹ,,株式会社,東京都,渋谷区,千駄ヶ谷４丁目９番３－３１４号シティハウス神宮北参道,,13,113,1510051,,,,,,,2023-06-22,1,,,,,アドベントライ,0
949,5011101103347,新規,0,2023-06-22,2023-06-22,株式会社ＲｅｖＬｏｎ,,株式会社,東京都,新宿区,新宿２丁目１１－４ストークビル長崎１００３,,13,104,1600022,,,,,,,2023-06-22,1,,,,,レブロン,0
952,5011201024732,新規,0,2023-06-22,2023-06-22,株式会社Ｐｉｅｃｅ,,株式会社,東京都,中野区,本町１丁目１番５－４０５号,,13,114,1640012,,,,,,,2023-06-22,1,,,,,ピース,0
953,5011203004113,新規,0,2023-06-22,2023-06-22,合同会社７ＰＬＡＩＳＩＲ,,合同会社,東京都,中野区,弥生町１丁目６番６号,,13,114,1640013,,,,,,,2023-06-22,1,,,,,セブンプレジール,0
958,5011701026360,新規,0,2023-06-22,2023-06-22,株式会社ＤＯ　ＰＬＡＮ,,株式会社,東京都,江戸川区,東葛西６丁目１８番８号アソルティ葛西４０１号室,,13,123,1340084,,,,,,,2023-06-22,1,,,,,ドゥプラン,0
963,5012801022448,新規,0,2023-06-22,2023-06-22,ＧＩＬ株式会社,,株式会社,東京都,立川市,西砂町１丁目２番地の１４１,,13,202,1900034,,,,,,,2023-06-22,1,,,,,ジーアイエル,0
964,5013301050930,新規,0,2023-06-22,2023-06-22,文映株式会社,,株式会社,東京都,豊島区,東池袋２丁目６２－８ビックオフィスプラザ池袋５０２号,,13,116,1700013,,,,,,,2023-06-22,1,,,,,アヤエ,0
965,5013301050947,新規,0,2023-06-22,2023-06-22,株式会社森盛,,株式会社,東京都,豊島区,高田１丁目３１－５,,13,116,1710033,,,,,,,2023-06-22,1,,,,,モリセイ,0
968,5020001152180,新規,0,2023-06-22,2023-06-22,株式会社ＨＯＰＰＥＲ,,株式会社,神奈川県,横浜市都筑区,仲町台４丁目２２番１１号１０２,,14,118,2240041,,,,,,,2023-06-22,1,,,,,ホッパー,0
985,5021001079364,新規,0,2023-06-22,2023-06-22,日本諾恒医薬株式会社,,株式会社,神奈川県,座間市,広野台１丁目５０番１号吉豊ビル２０１室,,14,216,2520012,,,,,,,2023-06-22,1,,,,,ニホンダクコウイヤク,0
986,5021001079372,新規,0,2023-06-22,2023-06-22,株式会社建設機工,,株式会社,神奈川県,三浦市,南下浦町上宮田３４３９番地３サンコートマホロバ１－５０７,,14,210,2380101,,,,,,,2023-06-22,1,,,,,ケンセツキコウ,0
987,5021001079406,新規,0,2023-06-22,2023-06-22,こどもおりょうりラボ株式会社,,株式会社,神奈川県,藤沢市,片瀬海岸２丁目２０－１２ＯＨＡＮＡｔｅｒｒａｃｅ２Ｆ,,14,205,2510035,,,,,,,2023-06-22,1,,,,,コドモオリョウリラボ,0
989,5021003013247,新規,0,2023-06-22,2023-06-22,合同会社ういんかむ,,合同会社,神奈川県,逗子市,沼間５丁目１８番４６号,,14,208,2490004,,,,,,,2023-06-22,1,,,,,ウインカム,0
995,5030001154589,新規,0,2023-06-22,2023-06-22,ＳＱ株式会社,,株式会社,埼玉県,さいたま市中央区,本町東４丁目１０番５号プリムヴェール十一番館１０２,,11,105,3380003,,,,,,,2023-06-22,1,,,,,エスク,0
1006,5040001128930,新規,0,2023-06-22,2023-06-22,株式会社玉川ＨＯＭＥ’Ｓ,,株式会社,千葉県,茂原市,高師１７３５番地茂原ショッピングプラザアスモ２階,,12,210,2970029,,,,,,,2023-06-22,1,,,,,タマガワホームズ,0
1012,5040003022826,新規,0,2023-06-22,2023-06-22,合同会社シンプルプラン,,合同会社,千葉県,船橋市,芝山１丁目１６番１２号,,12,204,2740816,,,,,,,2023-06-22,1,,,,,シンプルプラン,0
1015,5050001053013,新規,0,2023-06-22,2023-06-22,三建株式会社,,株式会社,茨城県,取手市,桑原１５４９番地５,,08,217,3020017,,,,,,,2023-06-22,1,,,,,サンケン,0
1019,5050005013285,新規,0,2023-06-22,2023-06-22,ＮＰＯ法人つくば・茨城医用画像診断フォーラム,,その他の設立登記法人,茨城県,つくば市,天久保２丁目１－１医学医療系４１５室,,08,220,3050005,,,,,,,2023-06-22,1,,,,,ツクバイバラキイヨウガゾウシンダンフォーラム,0
1023,5080101024084,新規,0,2023-06-22,2023-06-22,株式会社Ｔｅｌｌｕｒｉｃ　Ｈｅａｒｔ,,株式会社,静岡県,伊東市,銀座元町４－１－２Ｆ,,22,208,4140028,,,,,,,2023-06-22,1,,,,,テルリックハート,0
1034,5120001255898,新規,0,2023-06-22,2023-06-22,株式会社ＭＩＲＡＰ　ＤＯＯＲ,,株式会社,大阪府,大阪市中央区,平野町２丁目５－８平野町センチュリービル２階,,27,128,5410046,,,,,,,2023-06-22,1,,,,,ミラップドア,0
1040,5120003024351,新規,0,2023-06-22,2023-06-22,合同会社ＨＹ,,合同会社,大阪府,大阪市生野区,林寺２丁目１６番１４号,,27,116,5440023,,,,,,,2023-06-22,1,,,,,エイチワイ,0
1044,5120103005284,新規,0,2023-06-22,2023-06-22,合同会社けやき,,合同会社,大阪府,岸和田市,大町４丁目６番３３号,,27,202,5960812,,,,,,,2023-06-22,1,,,,,ケヤキ,0
1057,5140001130620,新規,0,2023-06-22,2023-06-22,Ｋ２．エンジ株式会社,,株式会社,兵庫県,神戸市西区,丸塚２丁目３－３０Ａ－２０４,,28,111,6512143,,,,,,,2023-06-22,1,,,,,,0
1062,5160003002907,新規,0,2023-06-22,2023-06-22,ＭＫＯ合同会社,,合同会社,滋賀県,草津市,野路町３０００番地６０１アメニティ南草津ＩＩ,00130945,25,206,5250055,,,,,,,2023-06-22,1,,,,,エムケーオー,0
1065,5180001156835,新規,0,2023-06-22,2023-06-22,株式会社ＳＫＫアセットマネジメント,,株式会社,愛知県,名古屋市中区,栄３丁目１０番２１号,,23,106,4600008,,,,,,,2023-06-22,1,,,,,エスケイケイアセットマネジメント,0
1075,5200001041431,新規,0,2023-06-22,2023-06-22,株式会社フジシマ,,株式会社,岐阜県,岐阜市,長良井田３０番地２シェリルＢ,,21,201,5020054,,,,,,,2023-06-22,1,,,,,フジシマ,0
1083,5240001061715,新規,0,2023-06-22,2023-06-22,ＤＬ　ＪＡＰＡＮ株式会社,,株式会社,広島県,広島市南区,宇品東２丁目１番４０号,,34,103,7340003,,,,,,,2023-06-22,1,,,,,ディーエルジャパン,0
1088,5260001038050,新規,0,2023-06-22,2023-06-22,株式会社アモア,,株式会社,岡山県,赤磐市,周匝１０６９番地１,,33,213,7012503,,,,,,,2023-06-22,1,,,,,アモア,0
1092,5290001102035,新規,0,2023-06-22,2023-06-22,クレシタ株式会社,,株式会社,福岡県,福岡市中央区,天神２丁目３番１０号,,40,133,8100001,,,,,,,2023-06-22,1,,,,,クレシタ,0
1099,5300001013346,新規,0,2023-06-22,2023-06-22,株式会社黒田電機,,株式会社,佐賀県,鳥栖市,田代大官町８０５番地３,,41,203,8410017,,,,,,,2023-06-22,1,,,,,クロダデンキ,0
1100,5330001030990,新規,0,2023-06-22,2023-06-22,株式会社ＳＡＮＫＩ,,株式会社,熊本県,熊本市東区,長嶺南５丁目３番２号,,43,102,8618039,,,,,,,2023-06-22,1,,,,,サンキ,0
1132,5430001089373,新規,0,2023-06-22,2023-06-22,株式会社高森水産,00130954,株式会社,北海道,虻田郡豊浦町,字幸町３０番地３,,01,571,0495414,,,,,,,2023-06-22,1,,,,,タカモリスイサン,0
1133,5430001089381,新規,0,2023-06-22,2023-06-22,札幌重建株式会社,,株式会社,北海道,札幌市中央区,南九条西４丁目１番１０号家安ビル２階,,01,101,0640809,,,,,,,2023-06-22,1,,,,,サッポロジュウケン,0
1136,5430005014732,新規,0,2023-06-22,2023-06-22,一般社団法人北海道トライアスロン連合,,その他の設立登記法人,北海道,札幌市手稲区,前田四条８丁目５番１号,,01,109,0060814,,,,,,,2023-06-22,1,,,,,ホッカイドウトライアスロンレンゴウ,0
1139,5480001012132,新規,0,2023-06-22,2023-06-22,株式会社ＹＡＹＯＩ　ＨＯＭＥ,,株式会社,徳島県,阿南市,見能林町東浦５５番地２,,36,204,7740017,,,,,,,2023-06-22,1,,,,,ヤヨイホーム,0
1158,6010001236280,新規,0,2023-06-22,2023-06-22,Ｔｈｅ　ＯＮＥ株式会社,,株式会社,東京都,中央区,勝どき１丁目３番１－２５０９号,,13,102,1040054,,,,,,,2023-06-22,1,,,,,ザワン,0
1159,6010001236289,新規,0,2023-06-22,2023-06-22,Ｄｅｃｅｎｔｉｆｙ株式会社,,株式会社,東京都,千代田区,丸の内１丁目８番１号丸の内トラストタワーＮ館１９階ｆａｂｂｉｔ内,,13,101,1000005,,,,,,,2023-06-22,1,,,,,ディセンティファイ,0
1160,6010001236330,新規,0,2023-06-22,2023-06-22,株式会社ワープル９３,,株式会社,東京都,中央区,銀座１丁目１２番４号Ｎ＆Ｅ．ＢＬＤ．６Ｆ,,13,102,1040061,,,,,,,2023-06-22,1,,,,,ワープルキュウジュウサン,0
1161,6010001236355,新規,0,2023-06-22,2023-06-22,株式会社ＹＯＫＵＳＵＲＵ,,株式会社,東京都,中央区,銀座１丁目１２番４号Ｎ＆ＥＢＬＤ．６Ｆ,,13,102,1040061,,,,,,,2023-06-22,1,,,,,ヨクスル,0
1162,6010001236396,新規,0,2023-06-22,2023-06-22,株式会社ファーストヘルタス,,株式会社,東京都,千代田区,麹町２丁目１０番３号,,13,101,1020083,,,,,,,2023-06-22,1,,,,,ファーストヘルタス,0
1163,6010003040912,新規,0,2023-06-22,2023-06-22,ＢｉｚＴｅｃｈＰｏｒｔ合同会社,,合同会社,東京都,中央区,日本橋１丁目１３番１号日鉄日本橋ビル３階,,13,102,1030027,,,,,,,2023-06-22,1,,,,,ビズテックポート,0
1164,6010003040937,新規,0,2023-06-22,2023-06-22,合同会社スカイラーシスターズ,,合同会社,東京都,千代田区,大手町１丁目１番１号大手町パークビルディング１７階,,13,101,1000004,,,,,,,2023-06-22,1,,,,,スカイラーシスターズ,0
1165,6010003040961,新規,0,2023-06-22,2023-06-22,マーレ合同会社,,合同会社,東京都,中央区,銀座１丁目１２番４号Ｎ＆ＥＢＬＤ．６Ｆ,,13,102,1040061,,,,,,,2023-06-22,1,,,,,マーレ,0
1179,6010403030389,新規,0,2023-06-22,2023-06-22,備後町インベストメンツ合同会社,,合同会社,東京都,港区,六本木１丁目６番１号泉ガーデンタワー,,13,103,1060032,,,,,,,2023-06-22,1,,,,,ビンゴマチインベストメンツ,0
1187,6010601063307,新規,0,2023-06-22,2023-06-22,株式会社ＮＥＸＴ　ＰＬＵＳ,,株式会社,東京都,墨田区,江東橋４丁目２７番１４号楽天地ビル３階３６号室,,13,107,1300022,,,,,,,2023-06-22,1,,,,,ネクストプラス,0
1191,6010803004579,新規,0,2023-06-22,2023-06-22,合同会社日本コミュニケーション研究所,,合同会社,東京都,大田区,大森北４丁目７－１２,,13,111,1430016,,,,,,,2023-06-22,1,,,,,ニホンコミュニケーションケンキュウジョ,0
1201,6011001155231,新規,0,2023-06-22,2023-06-22,株式会社Ｍｅｗ．,,株式会社,東京都,渋谷区,道玄坂１丁目１２番１号渋谷マークシティ２２Ｆ,,13,113,1500043,,,,,,,2023-06-22,1,,,,,ミュウ,0
1202,6011003017009,新規,0,2023-06-22,2023-06-22,ｍ．ｐａｒｋ合同会社,,合同会社,東京都,渋谷区,神宮前２丁目３０－８エイティ神宮前４０３,,13,113,1500001,,,,,,,2023-06-22,1,,,,,エムパーク,0
1203,6011003017041,新規,0,2023-06-22,2023-06-22,Ｃｒｅｒｙ合同会社,,合同会社,東京都,渋谷区,神宮前６丁目２３－４桑野ビル２階,,13,113,1500001,,,,,,,2023-06-22,1,,,,,クレリー,0
1215,6011201024731,新規,0,2023-06-22,2023-06-22,株式会社ＯＴＡＫＩ　ＫＩＣＫ＆ＢＯＸＩＮＧ,,株式会社,東京都,中野区,新井１丁目３２番３号,,13,114,1650026,,,,,,,2023-06-22,1,,,,,オオタキキックアンドボクシング,0
1223,6011501029439,新規,0,2023-06-22,2023-06-22,株式会社オベロンケア,,株式会社,東京都,北区,豊島８丁目４番１０号,,13,117,1140003,,,,,,,2023-06-22,1,,,,,オベロンケア,0
1240,6020001152213,新規,0,2023-06-22,2023-06-22,川崎南部青果仲卸組合株式会社,,株式会社,神奈川県,川崎市幸区,南幸町３丁目１２６番地１,,14,132,2120016,,,,,,,2023-06-22,1,,,,,カワサキナンブセイカナカオロシクミアイ,0
1242,6020003024088,新規,0,2023-06-22,2023-06-22,合同会社みつおか,,合同会社,神奈川県,横浜市瀬谷区,阿久和東３丁目３番地１０,,14,114,2460023,,,,,,,2023-06-22,1,,,,,ミツオカ,0
1248,6021003013246,新規,0,2023-06-22,2023-06-22,合同会社ライフ,,合同会社,神奈川県,平塚市,北金目３丁目１５番４０号,,14,203,2591207,,,,,,,2023-06-22,1,,,,,ライフ,0
1266,6040001128938,新規,0,2023-06-22,2023-06-22,ＴＯＫＹＯ高原家株式会社,,株式会社,千葉県,柏市,豊四季５２０番地４０－２０３号室,,12,217,2770863,,,,,,,2023-06-22,1,,,,,トウキョウコウゲンヤ,0
1276,6070001040561,新規,0,2023-06-22,2023-06-22,株式会社まちでん,,株式会社,群馬県,前橋市,山王町２１番地６,,10,201,3792123,,,,,,,2023-06-22,1,,,,,,0
1284,6100003007068,新規,0,2023-06-22,2023-06-22,合同会社キソラジ,,合同会社,長野県,木曽郡木曽町,新開大原１２９－１６６,,20,432,3970002,,,,,,,2023-06-22,1,,,,,キソラジ,0
1293,6120001255880,新規,0,2023-06-22,2023-06-22,實澤源商事株式会社,,株式会社,大阪府,大阪市生野区,生野東２丁目３番４９号,,27,116,5440025,,,,,,,2023-06-22,1,,,,,シサワゲンショウジ,0
1294,6120001255914,新規,0,2023-06-22,2023-06-22,株式会社ダイヤモンドラボ,,株式会社,大阪府,大阪市東成区,深江南１丁目１６番３１号,,27,115,5370002,,,,,,,2023-06-22,1,,,,,ダイヤモンドラボ,0
1295,6120001255947,新規,0,2023-06-22,2023-06-22,株式会社ＭａｈｋＢｅｓｔ,,株式会社,大阪府,大阪市西区,土佐堀１丁目４番６号肥後橋新興産ビル９Ｆ,,27,106,5500001,,,,,,,2023-06-22,1,,,,,マアクベスト,0
1311,6120103005283,新規,0,2023-06-22,2023-06-22,合同会社青山,,合同会社,大阪府,和泉市,和田町３０２番地の１,,27,219,5941102,,,,,,,2023-06-22,1,,,,,アオヤマ,0
1316,6122001037094,新規,0,2023-06-22,2023-06-22,株式会社千葉,,株式会社,大阪府,八尾市,高砂町５丁目５５番地の３,,27,212,5810822,,,,,,,2023-06-22,1,,,,,チバ,0
1320,6130001074586,新規,0,2023-06-22,2023-06-22,Ｄｕｃｅ　ｍｉｘ不動産株式会社,,株式会社,京都府,京都市中京区,三条通高倉東入桝屋町５３番地１,,26,104,6048111,,,,,,,2023-06-22,1,,,,,デュースミックスフドウサン,0
1326,6150003002989,新規,0,2023-06-22,2023-06-22,合同会社ＭＮキャリア,,合同会社,奈良県,香芝市,狐井３６２番地３,,29,210,6390234,,,,,,,2023-06-22,1,,,,,エムエヌキャリア,0
1327,6160001025124,新規,0,2023-06-22,2023-06-22,株式会社ＧＭ,,株式会社,滋賀県,大津市,国分１丁目５００番地の１１３,,25,201,5200844,,,,,,,2023-06-22,1,,,,,ジーエム,0
1329,6160005011203,新規,0,2023-06-22,2023-06-22,特定非営利活動法人山帰来,,その他の設立登記法人,滋賀県,大津市,北小松１４９４番地,,25,201,5200501,,,,,,,2023-06-22,1,,,,,サンキライ,0
1330,6170001017657,新規,0,2023-06-22,2023-06-22,株式会社Ｋｅｙｓ,,株式会社,和歌山県,和歌山市,津秦９１番地３５シャーメゾン紀水Ａ－２－２０２,,30,201,6408315,,,,,,,2023-06-22,1,,,,,キース,0
1343,6200001041422,新規,0,2023-06-22,2023-06-22,ＧＬＯＢＡＬ　Ｅ‐ＭＡＮＡＧＥＭＥＮＴ　ＳＥＲＶＩＣＥＳ株式会社,,株式会社,岐阜県,可児市,大森１７６６番地２２４,,21,214,5090238,,,,,,,2023-06-22,1,,,,,グロバルイーマネジメントサービサース,0
1344,6200001041430,新規,0,2023-06-22,2023-06-22,株式会社ＪＵＳＴＥＭ,,株式会社,岐阜県,大垣市,鶴見町６１９番地１５,,21,202,5030805,,,,,,,2023-06-22,1,,,,,ジャステム,0
1349,6240001061714,新規,0,2023-06-22,2023-06-22,Ａ＆Ｆ株式会社,,株式会社,広島県,広島市安佐南区,相田１丁目８－７－６シャーメゾン相田Ｂ２０２,,34,105,7310141,,,,,,,2023-06-22,1,,,,,エーアンドエフ,0
1351,6240005015600,新規,0,2023-06-22,2023-06-22,一般社団法人全国牡蠣協議会,,その他の設立登記法人,広島県,江田島市,江田島町宮ノ原２丁目３１番２３号,,34,215,7372124,,,,,,,2023-06-22,1,,,,,ゼンコクカキキョウギカイ,0
1353,6270001008803,新規,0,2023-06-22,2023-06-22,株式会社瑞建,,株式会社,鳥取県,米子市,河崎２７５番地ラフェスタ河崎３０５号,,31,202,6830852,,,,,,,2023-06-22,1,,,,,ズイケン,0
1355,6290001102034,新規,0,2023-06-22,2023-06-22,シーアップ株式会社,,株式会社,福岡県,大野城市,仲畑４丁目２番１７号,,40,219,8160921,,,,,,,2023-06-22,1,,,,,シーアップ,0
1359,6290801029633,新規,0,2023-06-22,2023-06-22,ＪＹＳ株式会社,,株式会社,福岡県,北九州市小倉南区,朽網西４丁目１７番２号,,40,107,8000233,,,,,,,2023-06-22,1,,,,,ジェーワイエス,0
1360,6290803004444,新規,0,2023-06-22,2023-06-22,見明合同会社,,合同会社,福岡県,北九州市小倉南区,下曽根３丁目１４番１２号,,40,107,8000217,,,,,,,2023-06-22,1,,,,,ミアケ,0
1361,6300001013345,新規,0,2023-06-22,2023-06-22,にくの松株式会社,,株式会社,佐賀県,伊万里市,黒川町福田７８４番地１,,41,205,8480122,,,,,,,2023-06-22,1,,,,,ニクノマツ,0
1383,6410003003812,新規,0,2023-06-22,2023-06-22,合同会社和顔愛語,,合同会社,秋田県,秋田市,雄和椿川字長者屋敷９番地１,,05,201,0101211,,,,,,,2023-06-22,1,,,,,ワガンアイゴ,0
1390,6430001089364,新規,0,2023-06-22,2023-06-22,山田園株式会社,,株式会社,北海道,余市郡仁木町,東町１２丁目３８番地,,01,407,0482411,,,,,,,2023-06-22,1,,,,,ヤマダエン,0
1396,6430003015203,新規,0,2023-06-22,2023-06-22,合同会社ＰＩＸＹ,,合同会社,北海道,札幌市東区,北六条東６丁目１番地２エスポアシティ札幌３１２号,,01,103,0600906,,,,,,,2023-06-22,1,,,,,ピクシー,0
1404,6480001012131,新規,0,2023-06-22,2023-06-22,株式会社ヤングヘア・プラス,,株式会社,徳島県,海部郡海陽町,大里字中小路３９番地４５,,36,388,7750203,,,,,,,2023-06-22,1,,,,,ヤングヘアプラス,0
1407,6700150117212,新規,0,2023-06-22,2023-06-09,江北町シルバー人材センター,,その他,佐賀県,杵島郡江北町,大字山口２６３７－７,,41,424,8490501,,,,,,,2023-06-09,1,,,,,コウホクマチシルバージンザイセンター,0
1415,7010001235983,新規,0,2023-06-22,2023-06-22,ＳｔａｎｄａｒｄＲａｃｉｎｇ株式会社,,株式会社,東京都,中央区,日本橋小舟町９番３号,,13,102,1030024,,,,,,,2023-06-22,1,,,,,スタンダードレーシング,0
1416,7010001236239,新規,0,2023-06-22,2023-06-22,有八有ジャパン株式会社,,株式会社,東京都,中央区,銀座１丁目２２番１１号銀座大竹ビジデンス２Ｆ,,13,102,1040061,,,,,,,2023-06-22,1,,,,,ユウハチユウジャパン,0
1417,7010001236288,新規,0,2023-06-22,2023-06-22,株式会社コネクトワン,,株式会社,東京都,中央区,銀座１丁目２２番１１号銀座大竹ビジデンス２Ｆ,,13,102,1040061,,,,,,,2023-06-22,1,,,,,コネクトワン,0
1418,7010001236362,新規,0,2023-06-22,2023-06-22,株式会社Ｍｉｒａｇｅ,,株式会社,東京都,千代田区,外神田１丁目６番１号外神田ビル６階,,13,101,1010021,,,,,,,2023-06-22,1,,,,,ミラージュ,0
1423,7010003040936,新規,0,2023-06-22,2023-06-22,ヨモギソーラー合同会社,,合同会社,東京都,中央区,八丁堀４丁目２番１０号ＡＯＪ税理士法人内,,13,102,1040032,,,,,,,2023-06-22,1,,,,,ヨモギソーラー,0
1424,7010003040944,新規,0,2023-06-22,2023-06-22,合同会社柴田不動産,,合同会社,東京都,中央区,佃２丁目２番１１－３７０６号,,13,102,1040051,,,,,,,2023-06-22,1,,,,,シバタフドウサン,0
1425,7010003040952,新規,0,2023-06-22,2023-06-22,ＮＩＨＯＮ　ＨＯＢＢＹ　ＳＵＰＰＬＹ合同会社,,合同会社,東京都,千代田区,神田和泉町１番地６－１６ヤマトビル４０５,,13,101,1010024,,,,,,,2023-06-22,1,,,,,ニホンホビーサプライ,0
1426,7010003040969,新規,0,2023-06-22,2023-06-22,合同会社フォウバル,,合同会社,東京都,中央区,銀座１丁目２２番１１号銀座大竹ビジデンス２Ｆ,,13,102,1040061,,,,,,,2023-06-22,1,,,,,フォウバル,0
1429,7010005036858,新規,0,2023-06-22,2023-06-22,弁理士法人山名国際特許事務所,,その他の設立登記法人,東京都,中央区,八丁堀４丁目１０番１１号,,13,102,1040032,,,,,,,2023-06-22,1,,,,,ヤマナコクサイトッキョジムショ,0
1439,7010403030388,新規,0,2023-06-22,2023-06-22,備後町マネジメント合同会社,,合同会社,東京都,港区,六本木１丁目６番１号泉ガーデンタワー,,13,103,1060032,,,,,,,2023-06-22,1,,,,,ビンゴマチマネジメント,0
1441,7010501050627,新規,0,2023-06-22,2023-06-22,光ＴＫ株式会社,,株式会社,東京都,台東区,上野３丁目１６番２号天翔上野末広町ビル６階６０５－Ｃ号室,,13,106,1100005,,,,,,,2023-06-22,1,,,,,ヒカリティーケー,0
1442,7010701044445,新規,0,2023-06-22,2023-06-22,三明興産株式会社,,株式会社,東京都,品川区,西五反田１丁目２１番７号,,13,109,1410031,,,,,,,2023-06-22,1,,,,,サンメイコウサン,0
1443,7010703006749,新規,0,2023-06-22,2023-06-22,ＳｅｎｔｉｎｅｌＱｕａｎｔｕｍＰｈａｒｍａ合同会社,,合同会社,東京都,品川区,二葉３丁目１－２０クレヴィスタ戸越公園３０５,,13,109,1420043,,,,,,,2023-06-22,1,,,,,センチネルクオンタムファーマ,0
1448,7010901053287,新規,0,2023-06-22,2023-06-22,株式会社ユナムライ,,株式会社,東京都,世田谷区,奥沢１丁目５６番１７号,,13,112,1580083,,,,,,,2023-06-22,1,,,,,ユナムライ,0
1451,7011001155189,新規,0,2023-06-22,2023-06-22,株式会社Ｂｉｓｔａｒ,,株式会社,東京都,渋谷区,神宮前６丁目２３－４桑野ビル２Ｆ,,13,113,1500001,,,,,,,2023-06-22,1,,,,,ビスター,0
1452,7011001155222,新規,0,2023-06-22,2023-06-22,株式会社ＡＦＴＥＲ　ＷＯＲＫ　ＳＴＵＤＩＯ,,株式会社,東京都,渋谷区,神南１丁目１４－７ワイズ神南ビル２ＦＳＬＯＴＨ,,13,113,1500041,,,,,,,2023-06-22,1,,,,,アフターワークスタジオ,0
1453,7011001155230,新規,0,2023-06-22,2023-06-22,ｗａｔｅｒ　ｇａｒｄｅｎ株式会社,,株式会社,東京都,渋谷区,神泉町１番２２号コラム神泉１１０６,,13,113,1500045,,,,,,,2023-06-22,1,,,,,ウォーターガーデン,0
1458,7011101103353,新規,0,2023-06-22,2023-06-22,株式会社ロイストリーム,,株式会社,東京都,新宿区,西新宿６丁目５－１新宿アイランドタワー２３階,,13,104,1600023,,,,,,,2023-06-22,1,,,,,ロイストリーム,0
1463,7011401025223,新規,0,2023-06-22,2023-06-22,株式会社ＵＮ　ｆｌｅｕｒｉｓｔｅ,,株式会社,東京都,板橋区,西台１丁目４４番５号,,13,119,1740045,,,,,,,2023-06-22,1,,,,,アンフルーリスト,0
1468,7011601026905,新規,0,2023-06-22,2023-06-22,株式会社高橋,00130947,株式会社,東京都,練馬区,平和台２丁目３０番２号,,13,120,1790083,,,,,,,2023-06-22,1,,,,,タカハシ,0
1477,7012803003114,新規,0,2023-06-22,2023-06-22,合同会社キッケイ,,合同会社,東京都,日野市,百草９２０番地の１２３,,13,212,1910033,,,,,,,2023-06-22,1,,,,,キッケイ,0
1489,7021003013229,新規,0,2023-06-22,2023-06-22,合同会社ＧＭＴカンパニー,,合同会社,神奈川県,藤沢市,鵠沼桜が岡１丁目９番１６号,,14,205,2510027,,,,,,,2023-06-22,1,,,,,ジーエムティーカンパニー,0
1497,7040001128937,新規,0,2023-06-22,2023-06-22,株式会社ＣｈａｌＣｈａｌ,,株式会社,千葉県,松戸市,中根３３番地の７ヴェコーヤ２０２号,,12,207,2710053,,,,,,,2023-06-22,1,,,,,チャルチャル,0
1518,7110001037627,新規,0,2023-06-22,2023-06-22,Ｔ．Ｉエンジニアリング株式会社,,株式会社,新潟県,新発田市,菅谷３００８番地１,,15,206,9592511,,,,,,,2023-06-22,1,,,,,ティーアイエンジニアリング,0
1524,7120003024341,新規,0,2023-06-22,2023-06-22,拡大合同会社,,合同会社,大阪府,大阪市生野区,新今里２丁目１１番１２号カルム今里１階,,27,116,5440001,,,,,,,2023-06-22,1,,,,,カクダイ,0
1525,7120003024358,新規,0,2023-06-22,2023-06-22,合同会社Ｗｉｚｆｌｉｃｋ,,合同会社,大阪府,大阪市北区,堂山町１‐５三共梅田ビル７階オギャーズ梅田内,,27,127,5300027,,,,,,,2023-06-22,1,,,,,ウィズフリック,0
1528,7120101067721,新規,0,2023-06-22,2023-06-22,株式会社ＢＥＬＩＥＶＥ,,株式会社,大阪府,堺市北区,新堀町１丁３２番地１－１２０５号,,27,146,5918005,,,,,,,2023-06-22,1,,,,,ビリーブ,0
1529,7120101067770,新規,0,2023-06-22,2023-06-22,株式会社ｒｏｖｉｃ,,株式会社,大阪府,堺市中区,新家町２４８番地１,,27,142,5998232,,,,,,,2023-06-22,1,,,,,ロビック,0
1535,7130003008772,新規,0,2023-06-22,2023-06-22,合同会社ＫＧ,,合同会社,京都府,綾部市,青野町西ノ後４３番地,,26,203,6230011,,,,,,,2023-06-22,1,,,,,ケージー,0
1541,7180001156817,新規,0,2023-06-22,2023-06-22,株式会社からへ,,株式会社,愛知県,一宮市,大和町妙興寺字中之町５５番地２,,23,203,4910922,,,,,,,2023-06-22,1,,,,,カラエ,0
1550,7210001019359,新規,0,2023-06-22,2023-06-22,株式会社ジャパン・キッチン・エフ,,株式会社,福井県,あわら市,春宮３丁目４番３号,,18,208,9190632,,,,,,,2023-06-22,1,,,,,ジャパンキッチンエフ,0
1560,7240001061713,新規,0,2023-06-22,2023-06-22,株式会社ヌンクアウト,,株式会社,広島県,広島市東区,牛田新町４丁目９番６号,,34,102,7320068,,,,,,,2023-06-22,1,,,,,ヌンクアウト,0
1569,7290003014061,新規,0,2023-06-22,2023-06-22,合同会社ｃｏｍｒａｄｅｓ,,合同会社,福岡県,福岡市南区,大平寺１丁目４１番１８号,,40,134,8111354,,,,,,,2023-06-22,1,,,,,コムレーズ,0
1574,7290801029632,新規,0,2023-06-22,2023-06-22,北九州商事株式会社,,株式会社,福岡県,北九州市小倉北区,清水１丁目１５番７号,,40,106,8030841,,,,,,,2023-06-22,1,,,,,キタキュウシュウショウジ,0
1575,7290805009663,新規,0,2023-06-22,2023-06-22,一般社団法人ＲａｉｓｅＢｅａｕｔｙ協会,,その他の設立登記法人,福岡県,北九州市小倉南区,大字新道寺１０２２番地１,,40,107,8030186,,,,,,,2023-06-22,1,,,,,レイズビューティーキョウカイ,0
1597,7400001016287,新規,0,2023-06-22,2023-06-22,株式会社ａｔｔｒａｉｔ,,株式会社,岩手県,盛岡市,中央通２丁目１番２５号ピアッツァニオービル５階,,03,201,0200021,,,,,,,2023-06-22,1,,,,,アトレ,0
1613,8010001235875,新規,0,2023-06-22,2023-06-22,株式会社Ｓ．Ｏ．Ｐ,,株式会社,東京都,文京区,千石４丁目３９－６,,13,105,1120011,,,,,,,2023-06-22,1,,,,,エスオーピー,0
1614,8010001235982,新規,0,2023-06-22,2023-06-22,ＳｔａｎｄａｒｄＡＤ株式会社,,株式会社,東京都,中央区,日本橋小舟町９番３号,,13,102,1030024,,,,,,,2023-06-22,1,,,,,スタンダードアドバータイジング,0
1615,8010001236279,新規,0,2023-06-22,2023-06-22,株式会社ｆｍｍ,,株式会社,東京都,文京区,本駒込４丁目４０－３,,13,105,1130021,,,,,,,2023-06-22,1,,,,,エフエムエム,0
1616,8010001236312,新規,0,2023-06-22,2023-06-22,チャンネルワン株式会社,,株式会社,東京都,中央区,晴海３丁目１６番１号,,13,102,1040053,,,,,,,2023-06-22,1,,,,,チャンネルワン,0
1617,8010001236337,新規,0,2023-06-22,2023-06-22,株式会社ゆるくかつ,,株式会社,東京都,文京区,千石１丁目２２番２－５０１号,,13,105,1120011,,,,,,,2023-06-22,1,,,,,ユルクカツ,0
1618,8010001236361,新規,0,2023-06-22,2023-06-22,株式会社ＯＦＰ,,株式会社,東京都,中央区,銀座１丁目１２番４号６Ｆ,,13,102,1040061,,,,,,,2023-06-22,1,,,,,オーエフピー,0
1619,8010001236378,新規,0,2023-06-22,2023-06-22,山芳製菓ホールディングス株式会社,,株式会社,東京都,千代田区,丸の内２丁目４番１号,,13,101,1000005,,,,,,,2023-06-22,1,,,,,ヤマヨシセイカホールディングス,0
1623,8010003040935,新規,0,2023-06-22,2023-06-22,ハランソーラー合同会社,,合同会社,東京都,中央区,八丁堀４丁目２番１０号ＡＯＪ税理士法人内,,13,102,1040032,,,,,,,2023-06-22,1,,,,,ハランソーラー,0
1624,8010003040943,新規,0,2023-06-22,2023-06-22,Ｎｉｐｐｏｎ　Ｓｕｎｌｉｔ　Ｐｒｏｐｅｒｔｙ合同会社,,合同会社,東京都,千代田区,麹町１丁目６番１６号半蔵門海和ビル９階（Ｃ／ＯＪｏｏ‐ｒｅａｌｅｓｔａｔｅ‐ｏｆｆｉｃｅ）,,13,101,1020083,,,,,,,2023-06-22,1,,,,,ニッポンサンリットプロパティー,0
1625,8010003040951,新規,0,2023-06-22,2023-06-22,合同会社ｍｕｇｉｂａｔａｋｅ,,合同会社,東京都,中央区,日本橋室町１丁目１１－１２日本橋水野ビル７階,,13,102,1030022,,,,,,,2023-06-22,1,,,,,ムギバタケ,0
1643,8010401175176,新規,0,2023-06-22,2023-06-22,株式会社２３,,株式会社,東京都,港区,南青山２丁目２番１５号,,13,103,1070062,,,,,,,2023-06-22,1,,,,,ツースリー,0
1644,8010401175201,新規,0,2023-06-22,2023-06-22,Ａｉ＆Ｐａｒｔｎｅｒｓ株式会社,,株式会社,東京都,港区,六本木７丁目７番７号Ｔｒｉ－Ｓｅｖｅｎ・Ｒｏｐｐｏｎｇｉ８階,,13,103,1060032,,,,,,,2023-06-22,1,,,,,アイアンドパートナーズ,0
1646,8010403030379,新規,0,2023-06-22,2023-06-22,合同会社ブルーオーシャン・パートナーズ,,合同会社,東京都,港区,芝浦１丁目６番４１－２２２４号,,13,103,1050023,,,,,,,2023-06-22,1,,,,,ブルーオーシャンパートナーズ,0
1649,8010501050626,新規,0,2023-06-22,2023-06-22,如意株式会社,,株式会社,東京都,台東区,台東１丁目３２番６号小島ビル３０１,,13,106,1100016,,,,,,,2023-06-22,1,,,,,ニョイ,0
1663,8011003017048,新規,0,2023-06-22,2023-06-22,合同会社Ｗｅｂｖｅ,,合同会社,東京都,渋谷区,道玄坂１丁目１０番８号渋谷道玄坂東急ビル２Ｆ－Ｃ,,13,113,1500043,,,,,,,2023-06-22,1,,,,,ウェイブ,0
1664,8011005010117,新規,0,2023-06-22,2023-06-22,一般社団法人２０世紀応援団アーカイブ,,その他の設立登記法人,東京都,渋谷区,神宮前６丁目２３番４号桑野ビル２階,,13,113,1500001,,,,,,,2023-06-22,1,,,,,ニジッセイキオウエンダンアーカイブ,0
1668,8011101103352,新規,0,2023-06-22,2023-06-22,株式会社スノードーム,,株式会社,東京都,新宿区,西新宿３丁目３番１３号西新宿水間ビル６階,,13,104,1600023,,,,,,,2023-06-22,1,,,,,スノードーム,0
1669,8011101103360,新規,0,2023-06-22,2023-06-22,株式会社Ｆ‐ＳＫ,,株式会社,東京都,新宿区,新宿１丁目３５番９号カテリーナ新宿蔵王１０２,,13,104,1600022,,,,,,,2023-06-22,1,,,,,エフエスケイ,0
1670,8011105010702,新規,0,2023-06-22,2023-06-22,特定非営利活動法人日本医療健康協会,,その他の設立登記法人,東京都,新宿区,百人町１丁目２２－２４朝日ビル４階,,13,104,1690073,,,,,,,2023-06-22,1,,,,,ニホンイリョウケンコウキョウカイ,0
1672,8011401025214,新規,0,2023-06-22,2023-06-22,株式会社Ｈｅａｖｅｎ’ｓ,,株式会社,東京都,板橋区,南常盤台１丁目１１番６号,,13,119,1740072,,,,,,,2023-06-22,1,,,,,ヘブンズ,0
1673,8011401025222,新規,0,2023-06-22,2023-06-22,株式会社ＴＳＵＴＡＹＡ　ＤＥＳＩＧＮ,,株式会社,東京都,板橋区,西台１丁目４４番５号,,13,119,1740045,,,,,,,2023-06-22,1,,,,,ツタヤデザイン,0
1677,8011701026358,新規,0,2023-06-22,2023-06-22,豊泰時代株式会社,,株式会社,東京都,江戸川区,平井５丁目４５番５号渡辺ハイツ１０１,,13,123,1320035,,,,,,,2023-06-22,1,,,,,トヨタイジダイ,0
1681,8011801042610,新規,0,2023-06-22,2023-06-22,華美株式会社,,株式会社,東京都,足立区,千住橋戸町６２－２天宏ビル４０２号室,,13,121,1200038,,,,,,,2023-06-22,1,,,,,カビ,0
1685,8012701017710,新規,0,2023-06-22,2023-06-22,株式会社ＷＢＤコーポレーション,,株式会社,東京都,西東京市,南町３丁目１８番４１号,,13,229,1880012,,,,,,,2023-06-22,1,,,,,ダブリュービーディーコーポレーション,0
1695,8021001079196,新規,0,2023-06-22,2023-06-22,株式会社吉村建設,,株式会社,神奈川県,相模原市緑区,大島２８４３番地１,,14,151,2520135,,,,,,,2023-06-22,1,,,,,ヨシムラケンセツ,0
1696,8021001079378,新規,0,2023-06-22,2023-06-22,株式会社ＧＥＮＳＥＮ,,株式会社,神奈川県,足柄下郡箱根町,塔之澤９０番地の１,,14,382,2500315,,,,,,,2023-06-22,1,,,,,ゲンセン,0
1752,8120001255771,新規,0,2023-06-22,2023-06-22,銀泰株式会社,,株式会社,大阪府,大阪市旭区,今市１丁目２－５カルム千林４０１号室,,27,117,5350011,,,,,,,2023-06-22,1,,,,,ギンタイ,0
1753,8120001255887,新規,0,2023-06-22,2023-06-22,ＮｏＮＯ株式会社,,株式会社,大阪府,大阪市北区,本庄東２丁目２番２４－２０２,,27,127,5310074,,,,,,,2023-06-22,1,,,,,ノノ,0
1757,8122001037101,新規,0,2023-06-22,2023-06-22,株式会社ｉｃｈｉ,,株式会社,大阪府,八尾市,植松町４丁目５番１８号大東スペース八尾１０１,,27,212,5810084,,,,,,,2023-06-22,1,,,,,イチ,0
1764,8140001130601,新規,0,2023-06-22,2023-06-22,株式会社Ｒｅａｂｕｚｚ,,株式会社,兵庫県,神戸市中央区,御幸通８丁目１－６神戸国際会館２２階,,28,110,6510087,,,,,,,2023-06-22,1,,,,,リアバズ,0
1765,8140001130618,新規,0,2023-06-22,2023-06-22,株式会社ジャパン,,株式会社,兵庫県,神戸市中央区,神仙寺通３丁目１－２３新神戸ファーストビル３０１,,28,110,6510051,,,,,,,2023-06-22,1,,,,,,0
1766,8140001130634,新規,0,2023-06-22,2023-06-22,株式会社ＨＯＵＳＥＮ不動産,,株式会社,兵庫県,神戸市兵庫区,湊町４丁目２番１２－２０１号,,28,105,6520812,,,,,,,2023-06-22,1,,,,,ホウセンフドウサン,0
1769,8140003019223,新規,0,2023-06-22,2023-06-22,合同会社ＰＡＤＡＭ,,合同会社,兵庫県,加東市,長貞１０４９番地１,,28,228,6731304,,,,,,,2023-06-22,1,,,,,パダム,0
1770,8150001026501,新規,0,2023-06-22,2023-06-22,ＢＥＣＳ株式会社,,株式会社,奈良県,奈良市,橋本町３－１,,29,201,6308217,,,,,,,2023-06-22,1,,,,,ベックス,0
1771,8160003002904,新規,0,2023-06-22,2023-06-22,合同会社Ｋｏｔｓｕｂｕ,,合同会社,滋賀県,彦根市,中藪１丁目１４番２号,,25,202,5220051,,,,,,,2023-06-22,1,,,,,コツブ,0
1776,8180001156816,新規,0,2023-06-22,2023-06-22,株式会社Ｃｏｎｖｅｒｓｉｏｎ　Ｈｏｍｅ,,株式会社,愛知県,名古屋市緑区,尾崎山２丁目９１４番地,,23,114,4580024,,,,,,,2023-06-22,1,,,,,コンバージョンホーム,0
1777,8180001156824,新規,0,2023-06-22,2023-06-22,ＴＭＥ株式会社,,株式会社,愛知県,名古屋市西区,天塚町１丁目３６番地の２,,23,104,4510021,,,,,,,2023-06-22,1,,,,,ティーエムイー,0
1783,8180301037492,新規,0,2023-06-22,2023-06-22,株式会社藤春,00130946,株式会社,愛知県,豊田市,貝津町町屋５８番地,,23,211,4700348,,,,,,,2023-06-22,1,,,,,フジハル,0
1788,8200001041429,新規,0,2023-06-22,2023-06-22,株式会社竜幸,,株式会社,岐阜県,土岐市,下石陶史台５丁目２９番地,,21,212,5095203,,,,,,,2023-06-22,1,,,,,リュウコウ,0
1790,8230001019892,新規,0,2023-06-22,2023-06-22,金田株式会社,,株式会社,富山県,中新川郡立山町,利田２２３３番地１,,16,323,9300275,,,,,,,2023-06-22,1,,,,,カネダ,0
1791,8230005009312,新規,0,2023-06-22,2023-06-22,一般社団法人富山県平和大使協議会,,その他の設立登記法人,富山県,富山市,西公文名町１１番１号,,16,201,9398003,,,,,,,2023-06-22,1,,,,,トヤマケンヘイワタイシキョウギカイ,0
1792,8240001061704,新規,0,2023-06-22,2023-06-22,株式会社ＹＯＵ‐０,,株式会社,広島県,広島市西区,己斐本町２丁目１１番３号,,34,104,7330812,,,,,,,2023-06-22,1,,,,,ユーゼロ,0
1793,8240001061712,新規,0,2023-06-22,2023-06-22,株式会社シニフィエ,,株式会社,広島県,広島市中区,大手町１丁目１番２６号大手町一番ビル３０５,,34,101,7300051,,,,,,,2023-06-22,1,,,,,シニフィエ,0
1797,8260001038048,新規,0,2023-06-22,2023-06-22,株式会社一,,株式会社,岡山県,倉敷市,阿知２丁目２番９号Ａ,,33,202,7100055,,,,,,,2023-06-22,1,,,,,ハジメ,0
1798,8260001038056,新規,0,2023-06-22,2023-06-22,風道ホールディングス株式会社,,株式会社,岡山県,岡山市東区,西大寺上２丁目７番４５号,,33,103,7048112,,,,,,,2023-06-22,1,,,,,フウドウホールディングス,0
1803,8290001102024,新規,0,2023-06-22,2023-06-22,Ｂ．Ｂ　ＳＴＯＣＫＹ株式会社,,株式会社,福岡県,福岡市早良区,田村２丁目６番１６－１号,,40,137,8140175,,,,,,,2023-06-22,1,,,,,ビービーストッキー,0
1804,8290001102032,新規,0,2023-06-22,2023-06-22,株式会社らいくえ,,株式会社,福岡県,糸島市,前原１０３７番地１,,40,230,8191113,,,,,,,2023-06-22,1,,,,,ライクエ,0
1810,8290801029623,新規,0,2023-06-22,2023-06-22,ＫＯＵＳＥＩ株式会社,,株式会社,福岡県,北九州市戸畑区,大字中原先の浜４６－１０３,,40,105,8040002,,,,,,,2023-06-22,1,,,,,コウセイ,0
1819,8340001025665,新規,0,2023-06-22,2023-06-22,株式会社エピオンシステム,,株式会社,鹿児島県,鹿児島市,東千石町１－３鹿児島第二ビル　２Ｆ－Ｂ,,46,201,8920842,,,,,,,2023-06-22,1,,,,,エピオンシステム,0
1827,8360001032197,新規,0,2023-06-22,2023-06-22,株式会社ＣａｍＳｑｕａｒｅ,,株式会社,沖縄県,那覇市,松山２丁目２６番１－２０６号,,47,201,9000032,,,,,,,2023-06-22,1,,,,,カムスクエア,0
1828,8360003013055,新規,0,2023-06-22,2023-06-22,合同会社ＮＥＸＴ　Ｇ,,合同会社,沖縄県,那覇市,曙３丁目１６－１ブランシエラ那覇曙プレミスト１２０２号室,,47,201,9000002,,,,,,,2023-06-22,1,,,,,ネクストジー,0
1829,8380001033805,新規,0,2023-06-22,2023-06-22,株式会社契電舎,,株式会社,福島県,福島市,岡島字三島１１番地の３,,07,201,9608201,,,,,,,2023-06-22,1,,,,,ケイデンシャ,0
1835,8420001018314,新規,0,2023-06-22,2023-06-22,株式会社キクチ塗装,,株式会社,青森県,五所川原市,字栄町２１番地,,02,205,0370046,,,,,,,2023-06-22,1,,,,,キクチトソウ,0
1837,8420003002745,新規,0,2023-06-22,2023-06-22,合同会社スイップホック,,合同会社,青森県,北津軽郡板柳町,いたや町２丁目４８番地１,,02,381,0383685,,,,,,,2023-06-22,1,,,,,スイップホック,0
1844,8430003015168,新規,0,2023-06-22,2023-06-22,合同会社プラス,,合同会社,北海道,苫小牧市,表町５丁目１０番７号セントラル駅前ビル３階,,01,213,0530022,,,,,,,2023-06-22,1,,,,,プラス,0
1856,8700150112780,新規,0,2023-06-22,2022-11-11,ＴＯＴＡＬＦＡＴ,,その他,東京都,世田谷区,桜丘４丁目９－１６ガーデンハイツ１０８号,,13,112,1560054,,,,,,,2022-11-11,1,,,,,トータルフアツト,0
1857,8700150117037,新規,0,2023-06-22,2023-06-08,センテラス天文館管理組合,,その他,鹿児島県,鹿児島市,千日町１番１号,,46,201,8920843,,,,,,,2023-06-08,1,,,,,センテラステンモンカンカンリクミアイ,0
1860,9010001235981,新規,0,2023-06-22,2023-06-22,ＳｔａｎｄａｒｄＤａｔａ株式会社,,株式会社,東京都,中央区,日本橋小舟町９番３号,,13,102,1030024,,,,,,,2023-06-22,1,,,,,スタンダードデータ,0
1861,9010001236336,新規,0,2023-06-22,2023-06-22,ＮＯＶＡＳ株式会社,,株式会社,東京都,中央区,銀座１丁目１２番４号Ｎ＆ＥＢＬＤ．６Ｆ,,13,102,1040061,,,,,,,2023-06-22,1,,,,,ノバス,0
1862,9010001236352,新規,0,2023-06-22,2023-06-22,株式会社オレンジセブン,,株式会社,東京都,千代田区,富士見２丁目１７番１号,,13,101,1020071,,,,,,,2023-06-22,1,,,,,オレンジセブン,0
1863,9010001236393,新規,0,2023-06-22,2023-06-22,ミネルヴァ株式会社,,株式会社,東京都,中央区,日本橋兜町１７番２号兜町第６葉山ビル４Ｆ,,13,102,1030026,,,,,,,2023-06-22,1,,,,,ミネルヴァ,0
1869,9010003040918,新規,0,2023-06-22,2023-06-22,ＴＨＳ麓山合同会社,,合同会社,東京都,千代田区,丸の内２丁目１番１号,,13,101,1000005,,,,,,,2023-06-22,1,,,,,ティーエイチエスハヤマ,0
1870,9010003040934,新規,0,2023-06-22,2023-06-22,オークソーラー合同会社,,合同会社,東京都,中央区,八丁堀４丁目２番１０号ＡＯＪ税理士法人内,,13,102,1040032,,,,,,,2023-06-22,1,,,,,オークソーラー,0
1871,9010003040942,新規,0,2023-06-22,2023-06-22,合同会社Ｍｏｎｔ　Ｂｌａｎｃ,,合同会社,東京都,中央区,銀座１丁目１２－４Ｎ＆ＥＢＬＤ．７階,,13,102,1040061,,,,,,,2023-06-22,1,,,,,モンブラン,0
1882,9010401175159,新規,0,2023-06-22,2023-06-22,株式会社ＳＲ,,株式会社,東京都,港区,六本木７丁目６番１９号８Ｆ,,13,103,1060032,,,,,,,2023-06-22,1,,,,,エスアール,0
1883,9010401175175,新規,0,2023-06-22,2023-06-22,株式会社フォアスピード,,株式会社,東京都,港区,芝５丁目３０－１藤和芝コープ２０７,,13,103,1080014,,,,,,,2023-06-22,1,,,,,フォアスピード,0
1884,9010401175241,新規,0,2023-06-22,2023-06-22,アルマレーザーズ・ジャパン株式会社,,株式会社,東京都,港区,芝４丁目４－２０グーゴルプレックスミレニアムビル４階,,13,103,1080014,,,,,,,2023-06-22,1,,,,,アルマレーザーズジャパン,0
1887,9010501050625,新規,0,2023-06-22,2023-06-22,森森株式会社,,株式会社,東京都,台東区,台東１丁目３２番６号小島ビル３０２,,13,106,1100016,,,,,,,2023-06-22,1,,,,,モリモリ,0
1888,9010501050633,新規,0,2023-06-22,2023-06-22,株式会社富森商事,,株式会社,東京都,台東区,上野５丁目７－７－３０５,,13,106,1100005,,,,,,,2023-06-22,1,,,,,トモリショウジ,0
1889,9010601063312,新規,0,2023-06-22,2023-06-22,浅橋株式会社,,株式会社,東京都,墨田区,横川３丁目６番７号２－Ｑ室,,13,107,1300003,,,,,,,2023-06-22,1,,,,,アサバシ,0
1890,9010601063320,新規,0,2023-06-22,2023-06-22,株式会社リアーム,,株式会社,東京都,墨田区,文花１丁目１８－１３,,13,107,1310044,,,,,,,2023-06-22,1,,,,,リアーム,0
1902,9011001155195,新規,0,2023-06-22,2023-06-22,株式会社ＬＯＮＧＯ,,株式会社,東京都,渋谷区,道玄坂１丁目１０番８号渋谷道玄坂東急ビル２Ｆ－Ｃ,,13,113,1500043,,,,,,,2023-06-22,1,,,,,ロンゴ,0
1912,9011003017047,新規,0,2023-06-22,2023-06-22,合同会社芸術花火シリーズ,,合同会社,東京都,渋谷区,恵比寿南２丁目１番８号恵比寿ＯＴビル３Ｆ,,13,113,1500022,,,,,,,2023-06-22,1,,,,,ゲイジュツハナビシリーズ,0
1913,9011005010124,新規,0,2023-06-22,2023-06-22,ＹＯＵ司法書士法人,,その他の設立登記法人,東京都,渋谷区,渋谷２丁目１１番１号,,13,113,1500002,,,,,,,2023-06-22,1,,,,,ユウ,0
1916,9011101103327,新規,0,2023-06-22,2023-06-22,株式会社ＨＲＤ＆Ｒｅｓｅａｒｃｈ,,株式会社,東京都,新宿区,西新宿３丁目３番１３号西新宿水間ビル２Ｆ,,13,104,1600023,,,,,,,2023-06-22,1,,,,,エイチアールディーアンドリサーチ,0
1918,9011201024729,新規,0,2023-06-22,2023-06-22,株式会社エースコネクション,,株式会社,東京都,中野区,東中野２丁目１２番１８号フェリスバニラ２０４,,13,114,1640003,,,,,,,2023-06-22,1,,,,,エースコネクション,0
1923,9011403004033,新規,0,2023-06-22,2023-06-22,合同会社ピーティーピー,,合同会社,東京都,板橋区,桜川３丁目１２番３号,,13,119,1740075,,,,,,,2023-06-22,1,,,,,,0
1930,9011803005705,新規,0,2023-06-22,2023-06-22,合同会社新盛商事,,合同会社,東京都,葛飾区,東新小岩５丁目３番２号,,13,122,1240023,,,,,,,2023-06-22,1,,,,,シンセイショウジ,0
1938,9012803003112,新規,0,2023-06-22,2023-06-22,リベラリオ合同会社,,合同会社,東京都,立川市,柏町３丁目４２番地４６,,13,202,1900004,,,,,,,2023-06-22,1,,,,,リベラリオ,0
1953,9020001152169,新規,0,2023-06-22,2023-06-22,株式会社ハッザ,,株式会社,神奈川県,横浜市港北区,綱島西５丁目２番３１号,,14,109,2230053,,,,,,,2023-06-22,1,,,,,ハッザ,0
1972,9030001154569,新規,0,2023-06-22,2023-06-22,ＥＶＯＬＶＩＮＧ株式会社,,株式会社,埼玉県,所沢市,西所沢１丁目５番１６号３階,,11,208,3591144,,,,,,,2023-06-22,1,,,,,エボルビング,0
1978,9050001053026,新規,0,2023-06-22,2023-06-22,株式会社ａｓｓｉｓｔ,,株式会社,茨城県,牛久市,ひたち野東３丁目２８番地２０,,08,219,3001207,,,,,,,2023-06-22,1,,,,,アシスト,0
1986,9080101024089,新規,0,2023-06-22,2023-06-22,株式会社ワタナベトータルサポート,,株式会社,静岡県,沼津市,高島町１５番５号ぬましんＣＯＭＰＡＳＳ２階,,22,203,4100056,,,,,,,2023-06-22,1,,,,,ワタナベトータルサポート,0
1990,9100001036529,新規,0,2023-06-22,2023-06-22,株式会社ＫＬ,,株式会社,長野県,長野市,大字鶴賀上千歳町１３２３番地長野会館２階,,20,201,3800821,,,,,,,2023-06-22,1,,,,,ケーエル,0
2003,9120001255928,新規,0,2023-06-22,2023-06-22,慧龍株式会社,,株式会社,大阪府,大阪市大正区,三軒家西３丁目４番１６号中山ビル４０９Ｃ,,27,108,5510001,,,,,,,2023-06-22,1,,,,,ケイリュウ,0
2005,9120101067777,新規,0,2023-06-22,2023-06-22,灯株式会社,,株式会社,大阪府,富田林市,藤沢台２丁目２番１８号,,27,214,5840071,,,,,,,2023-06-22,1,,,,,トモシビ,0
2014,9122001037100,新規,0,2023-06-22,2023-06-22,株式会社津代住設,,株式会社,大阪府,東大阪市,稲田上町１丁目３番２８号,,27,227,5770002,,,,,,,2023-06-22,1,,,,,ツシロジュウセツ,0
2022,9140001130575,新規,0,2023-06-22,2023-06-22,株式会社ケーマイト,,株式会社,兵庫県,芦屋市,山手町１２番６号,,28,206,6590096,,,,,,,2023-06-22,1,,,,,ケーマイト,0
2027,9140003019222,新規,0,2023-06-22,2023-06-22,合同会社リリウム,,合同会社,兵庫県,西宮市,南越木岩町２番１２－２０３号,,28,204,6620075,,,,,,,2023-06-22,1,,,,,リリウム,0
2028,9140003019239,新規,0,2023-06-22,2023-06-22,虹龍合同会社,,合同会社,兵庫県,川西市,小花２丁目７番３号シャンテ川西１０５,,28,217,6660015,,,,,,,2023-06-22,1,,,,,コウリュウ,0
2037,9180001156815,新規,0,2023-06-22,2023-06-22,株式会社イエキリ建設,,株式会社,愛知県,愛西市,町方町北前４２番地５,,23,232,4968014,,,,,,,2023-06-22,1,,,,,イエキリケンセツ,0
2038,9180001156823,新規,0,2023-06-22,2023-06-22,トライデント株式会社,,株式会社,愛知県,知多郡武豊町,大字冨貴字砂水７２番地１,,23,447,4702531,,,,,,,2023-06-22,1,,,,,トライデント,0
2041,9180301037500,新規,0,2023-06-22,2023-06-22,株式会社伊藤建築,,株式会社,愛知県,西尾市,寺津町浜南３４番地,,23,213,4440324,,,,,,,2023-06-22,1,,,,,イトウケンチク,0
2055,9230003002037,新規,0,2023-06-22,2023-06-22,合同会社ＩＣＥ,,合同会社,富山県,富山市,堀川町１１番地２,,16,201,9398072,,,,,,,2023-06-22,1,,,,,アイス,0
2058,9240001061711,新規,0,2023-06-22,2023-06-22,株式会社マテリアルゲート,,株式会社,広島県,東広島市,鏡山２丁目３１３番地,,34,212,7390046,,,,,,,2023-06-22,1,,,,,マテリアルゲート,0
2061,9250001020154,新規,0,2023-06-22,2023-06-22,株式会社ｇｕｍｍｙ,,株式会社,山口県,山陽小野田市,大字有帆５７番地,,35,216,7560038,,,,,,,2023-06-22,1,,,,,グミ,0
2070,9280005007558,新規,0,2023-06-22,2023-06-22,一般社団法人アナザーステージ,,その他の設立登記法人,島根県,隠岐郡隠岐の島町,下西１０１４番地１２,,32,528,6850017,,,,,,,2023-06-22,1,,,,,,0
2072,9290001102031,新規,0,2023-06-22,2023-06-22,株式会社ＢＥＹＯＮＤ　ＥＮＧＩＮＥＥＲＩＮＧ,,株式会社,福岡県,福岡市中央区,薬院３丁目１６－２６西鉄薬院ビル５Ｆ,,40,133,8100022,,,,,,,2023-06-22,1,,,,,ビヨンドエンジニアリング,0
2074,9290003014043,新規,0,2023-06-22,2023-06-22,合同会社Ｈａｐｐｙ　Ｈｏｍｅ　Ｓｔｏｒｅ,,合同会社,福岡県,久留米市,東町３９－２７第一森光ビル４０２号,,40,203,8300032,,,,,,,2023-06-22,1,,,,,,0
2076,9290005019073,新規,0,2023-06-22,2023-06-22,あすなろパートナーズ協同組合,,その他の設立登記法人,福岡県,福岡市東区,三苫７丁目１番９号,,40,131,8110201,,,,,,,2023-06-22,1,,,,,アスナロパートナーズ,0
2078,9290805009661,新規,0,2023-06-22,2023-06-22,ＮＰＯ法人未来への扉Ａｓｈ,,その他の設立登記法人,福岡県,北九州市小倉北区,片野４丁目１２番１０号,,40,106,8020064,,,,,,,2023-06-22,1,,,,,ミライヘノトビラアッシュ,0
2083,9330001030995,新規,0,2023-06-22,2023-06-22,株式会社ラグレイス不動産,,株式会社,熊本県,熊本市北区,清水亀井町４３番５３号ラグレイス清水１０７,,43,105,8618066,,,,,,,2023-06-22,1,,,,,ラグレイスフドウサン,0
2092,9340003004162,新規,0,2023-06-22,2023-06-22,Ｂｌｕｅ　Ｆｉｅｌｄｓ合同会社,,合同会社,鹿児島県,阿久根市,多田２８１８番地１,,46,206,8991602,,,,,,,2023-06-22,1,,,,,ブルーフィールズ,0
2093,9340005009622,新規,0,2023-06-22,2023-06-22,一般社団法人錬心舘空手道,,その他の設立登記法人,鹿児島県,日置市,伊集院町下谷口４５６３番地,,46,216,8992501,,,,,,,2023-06-22,1,,,,,レンシンカンカラテドウ,0
2100,9360001032196,新規,0,2023-06-22,2023-06-22,株式会社イーアース,,株式会社,沖縄県,中頭郡北中城村,字安谷屋１９３４番地３階,,47,327,9012316,,,,,,,2023-06-22,1,,,,,イーアース,0
2101,9360003013087,新規,0,2023-06-22,2023-06-22,合同会社ＵＺ,,合同会社,沖縄県,那覇市,三原１丁目２６番４０－３１１号室,,47,201,9020063,,,,,,,2023-06-22,1,,,,,ユーズィー,0
2104,9370001050107,新規,0,2023-06-22,2023-06-22,株式会社オフィス伊東,,株式会社,宮城県,多賀城市,八幡４丁目２番１２号,,04,209,9850874,,,,,,,2023-06-22,1,,,,,オフィスイトウ,0
2105,9370003006180,新規,0,2023-06-22,2023-06-22,三階菱花円合同会社,,合同会社,宮城県,白石市,鷹巣西３丁目１番５号,,04,206,9890220,,,,,,,2023-06-22,1,,,,,サンガイビシハナマル,0
2111,9400001016285,新規,0,2023-06-22,2023-06-22,株式会社ソナム,,株式会社,岩手県,久慈市,長内町３２地割１５番地２,,03,207,0280041,,,,,,,2023-06-22,1,,,,,ソナム,0
2119,9430001089353,新規,0,2023-06-22,2023-06-22,株式会社Ｂｒｉｌｌｅｒ,,株式会社,北海道,札幌市手稲区,金山一条４丁目９番１８号,,01,109,0060041,,,,,,,2023-06-22,1,,,,,ブリエ,0
2120,9430003015175,新規,0,2023-06-22,2023-06-22,キヨエギャラリー合同会社,,合同会社,北海道,虻田郡ニセコ町,字中央通８９番地,,01,395,0481512,,,,,,,2023-06-22,1,,,,,キヨエギャラリー,0
2121,9450003002353,新規,0,2023-06-22,2023-06-22,合同会社ｋｏａ,,合同会社,北海道,旭川市,永山八条５丁目２番１２号エクセレント８５Ａ－１０５,,01,204,0798418,,,,,,,2023-06-22,1,,,,,コア,0
