sequenceNumber,corporateNumber,process,correct,updateDate,changeDate,name,nameImageId,kind,prefectureName,cityName,streetNumber,addressImageId,prefectureCode,cityCode,postCode,addressOutside,addressOutsideImageId,closeDate,closeCause,successorCorporateNumber,changeCause,assignmentDate,latest,enName,enPrefectureName,enCityName,enAddressOutside,furigana,hihyoji
8,1010103002750,新規,0,2026-02-03,2026-02-03,合同会社リンクネスト,,合同会社,東京都,八王子市,越野３番地５キャッスルマンション堀之内４０３号,,13,201,1920361,,,,,,,2026-02-03,1,,,,,リンクネスト,0
13,1010401196195,新規,0,2026-02-03,2026-02-03,株式会社Ｍｅｌ,,株式会社,東京都,港区,北青山３丁目６番２１号青山岡田ビル３階,,13,103,1070061,,,,,,,2026-02-03,1,,,,,メル,0
14,1010401196204,新規,0,2026-02-03,2026-02-03,アークプラス株式会社,,株式会社,東京都,港区,北青山１丁目３番１号アールキューブ青山３階,,13,103,1070061,,,,,,,2026-02-03,1,,,,,アークプラス,0
15,1010401196229,新規,0,2026-02-03,2026-02-03,株式会社コディス,,株式会社,東京都,港区,虎ノ門３丁目８番２号虎ノ門アズマビル４階,,13,103,1050001,,,,,,,2026-02-03,1,,,,,コディス,0
18,1010403037216,新規,0,2026-02-03,2026-02-03,合同会社未来投資,,合同会社,東京都,港区,北青山１丁目３番１号アールキューブ青山３階,,13,103,1070061,,,,,,,2026-02-03,1,,,,,ミライトウシ,0
19,1010403037232,新規,0,2026-02-03,2026-02-03,合同会社Ｍｏｏｎ,,合同会社,東京都,港区,西麻布１丁目２番１３号デュオ・スカーラ西麻布タワーＣＥＮＴＲＡＬ２０１号室,,13,103,1060031,,,,,,,2026-02-03,1,,,,,ムーン,0
27,1010701048963,新規,0,2026-02-03,2026-02-03,株式会社ＫＯＬＯＲＳ,,株式会社,東京都,品川区,西五反田８丁目８番１５号カーニープレイス五反田６Ｆ,,13,109,1410031,,,,,,,2026-02-03,1,,,,,カラーズ,0
39,1011001175275,新規,0,2026-02-03,2026-02-03,株式会社クレア,,株式会社,東京都,渋谷区,恵比寿西２丁目８番４号ＥＸ恵比寿西ビル５階,,13,113,1500021,,,,,,,2026-02-03,1,,,,,クレア,0
40,1011001175283,新規,0,2026-02-03,2026-02-03,Ｂｌａｃｋ　ＡＩ株式会社,,株式会社,東京都,渋谷区,道玄坂１丁目１０番８号渋谷道玄坂東急ビル２Ｆ－Ｃ,,13,113,1500043,,,,,,,2026-02-03,1,,,,,ブラックエーアイ,0
41,1011001175374,新規,0,2026-02-03,2026-02-03,株式会社ＴｒｕｅＶａｎｃｅ,,株式会社,東京都,渋谷区,広尾１丁目２番地１号ヒカリビル４階,,13,113,1500012,,,,,,,2026-02-03,1,,,,,トゥルーヴァンス,0
44,1011003023465,新規,0,2026-02-03,2026-02-03,合同会社ＣＯＳＡ,,合同会社,東京都,目黒区,中根１丁目１２番２０－２０２号,,13,110,1520031,,,,,,,2026-02-03,1,,,,,コーサ,0
45,1011003023473,新規,0,2026-02-03,2026-02-03,碑文谷キャピタル合同会社,,合同会社,東京都,目黒区,下目黒１丁目１番１４号コノトラビル７階,,13,110,1530064,,,,,,,2026-02-03,1,,,,,ヒモンヤキャピタル,0
46,1011005011311,新規,0,2026-02-03,2026-02-03,一般社団法人Ｊａｐａｎ　Ｃｏｍｍｕｎｉｔｙ　ＩＸ,,その他の設立登記法人,東京都,渋谷区,道玄坂１丁目１０番８号渋谷道玄坂東急ビル２Ｆ－Ｃ,,13,113,1500043,,,,,,,2026-02-03,1,,,,,ジャパンコミュニティーアイエックス,0
47,1011005011344,新規,0,2026-02-03,2026-02-03,一般社団法人日本常若,,その他の設立登記法人,東京都,渋谷区,恵比寿西２丁目４番８号ウィンド恵比寿ビル２Ｆ,,13,113,1500021,,,,,,,2026-02-03,1,,,,,ニホントコワカ,0
48,1011101114819,新規,0,2026-02-03,2026-02-03,株式会社Ｚｅｎｏｖｉｔｈ,,株式会社,東京都,新宿区,改代町２３番地オープンレジデンシア神楽坂プレイス６０７,,13,104,1620802,,,,,,,2026-02-03,1,,,,,ゼノヴィス,0
65,1013101009924,新規,0,2026-02-03,2026-02-03,株式会社箱匠,,株式会社,東京都,あきる野市,秋留２丁目９番地９,,13,228,1970828,,,,,,,2026-02-03,1,,,,,ハコショウ,0
67,1013301055685,新規,0,2026-02-03,2026-02-03,株式会社ＯＭＯＬＡＢＯ,,株式会社,東京都,豊島区,東池袋１丁目２５番６号ＰＭＯ池袋１２階,,13,116,1700013,,,,,,,2026-02-03,1,,,,,オモラボ,0
75,1020001166886,新規,0,2026-02-03,2026-02-03,ＩＮＯ　Ｈｏｌｄｉｎｇｓ株式会社,,株式会社,神奈川県,川崎市多摩区,登戸２２１７番地,,14,135,2140014,,,,,,,2026-02-03,1,,,,,アイエヌオーホールディングス,0
82,1021001087395,新規,0,2026-02-03,2026-02-03,株式会社泰和総業,,株式会社,神奈川県,南足柄市,向田４６６,,14,217,2500104,,,,,,,2026-02-03,1,,,,,タイワソウギョウ,0
83,1021001087420,新規,0,2026-02-03,2026-02-03,株式会社６３１,,株式会社,神奈川県,大和市,中央林間２丁目３番１０号メゾンドＫ中央林間３０２,,14,213,2420007,,,,,,,2026-02-03,1,,,,,ロクサンイチ,0
84,1021001087429,新規,0,2026-02-03,2026-02-03,株式会社ＲＡＹ,,株式会社,神奈川県,茅ヶ崎市,柳島海岸２番８－２０９号,,14,207,2530063,,,,,,,2026-02-03,1,,,,,レイ,0
85,1021001087437,新規,0,2026-02-03,2026-02-03,ＷｅｒｕＬｕｘ株式会社,,株式会社,神奈川県,鎌倉市,由比ガ浜２丁目２４番２５－４０５号,,14,204,2480014,,,,,,,2026-02-03,1,,,,,ウェルラックス,0
86,1021001087445,新規,0,2026-02-03,2026-02-03,株式会社オーグメント,,株式会社,神奈川県,小田原市,栄町２丁目１２番１０号ＳｑｕａｒｅＯ２－１階,,14,206,2500011,,,,,,,2026-02-03,1,,,,,オーグメント,0
87,1021003017103,新規,0,2026-02-03,2026-02-03,合同会社文研ビズ,,合同会社,神奈川県,横須賀市,野比３丁目１番４－４０７,,14,201,2390841,,,,,,,2026-02-03,1,,,,,ブンケンビズ,0
91,1030001170788,新規,0,2026-02-03,2026-02-03,株式会社五条,,株式会社,埼玉県,朝霞市,本町３丁目２番４６号デュオブラウンＢ１０５号,,11,227,3510011,,,,,,,2026-02-03,1,,,,,ゴジョウ,0
99,1040003029387,新規,0,2026-02-03,2026-02-03,合同会社アイランド・リライフ,,合同会社,千葉県,柏市,大室１２０９番地２２２,,12,217,2770813,,,,,,,2026-02-03,1,,,,,アイランドリライフ,0
100,1050001057876,新規,0,2026-02-03,2026-02-03,株式会社紬,,株式会社,茨城県,つくば市,松代１丁目９－８パインビル００１号,,08,220,3050035,,,,,,,2026-02-03,1,,,,,ツムギ,0
101,1050001057918,新規,0,2026-02-03,2026-02-03,株式会社ＨＭＣＫ,,株式会社,茨城県,東茨城郡茨城町,大字小鶴１２７番地１,,08,302,3113107,,,,,,,2026-02-03,1,,,,,エイチエムシーケー,0
102,1050001057934,新規,0,2026-02-03,2026-02-03,株式会社愛奇産業,,株式会社,茨城県,東茨城郡城里町,大字上入野２４３５番地の５,,08,310,3114313,,,,,,,2026-02-03,1,,,,,アイキサンギョウ,0
106,1050003009909,新規,0,2026-02-03,2026-02-03,合同会社Ｒｉｎｇｓｉｄｅ　Ｂｒｏｔｈｅｒ’ｓ,,合同会社,茨城県,水戸市,姫子２丁目３４７番１７号,,08,201,3114151,,,,,,,2026-02-03,1,,,,,リングサイドブラザーズ,0
108,1060001038982,新規,0,2026-02-03,2026-02-03,なかやすアドバイザリー株式会社,,株式会社,栃木県,小山市,城山町２丁目５番５号サンリッチタワー３０３号室,,09,208,3230025,,,,,,,2026-02-03,1,,,,,ナカヤスアドバイザリー,0
115,1070003006284,新規,0,2026-02-03,2026-02-03,ｏｃｅａｎ　ｖｉｅｗ合同会社,,合同会社,群馬県,高崎市,箕郷町下芝７７１番地７,,10,202,3703103,,,,,,,2026-02-03,1,,,,,オーシャンビュー,0
118,1080001027406,新規,0,2026-02-03,2026-02-03,ＧＲＥＥＮ　ＷＯＲＫＳ株式会社,,株式会社,静岡県,静岡市駿河区,登呂６丁目２番２７号巧第３ビル４０２号,,22,102,4228033,,,,,,,2026-02-03,1,,,,,グリーンワークス,0
119,1080003003644,新規,0,2026-02-03,2026-02-03,合同会社ＣＯＭＰＡＮＹ,,合同会社,静岡県,静岡市葵区,呉服町１丁目２０番地２００３号,,22,101,4200031,,,,,,,2026-02-03,1,,,,,カンパニー,0
122,1090003002983,新規,0,2026-02-03,2026-02-03,合同会社ファームブリッジ大月,,合同会社,山梨県,大月市,賑岡町浅利５０番地ＡｓａｒｉＭｕｌｔｉＢＡＳＥ,,19,206,4010005,,,,,,,2026-02-03,1,,,,,ファームブリッジオオツキ,0
124,1100003008599,新規,0,2026-02-03,2026-02-03,合同会社クリーンランド,,合同会社,長野県,松本市,大字松原３１番地３９,,20,202,3990022,,,,,,,2026-02-03,1,,,,,クリーンランド,0
136,1120001283911,新規,0,2026-02-03,2026-02-03,株式会社ＦＥＮＩＣＥ,,株式会社,大阪府,大阪市北区,天満１丁目８番１３号,,27,127,5300043,,,,,,,2026-02-03,1,,,,,フェニーチェ,0
139,1120003031772,新規,0,2026-02-03,2026-02-03,まほうのらんぷ合同会社,,合同会社,大阪府,大阪市西区,西本町２丁目１番１号ＲＥ－００９－４Ａ号,,27,106,5500005,,,,,,,2026-02-03,1,,,,,マホウノランプ,0
140,1120003031822,新規,0,2026-02-03,2026-02-03,合同会社ＮｅｘｔＬｉｎｋ,,合同会社,大阪府,大阪市生野区,巽南３丁目１９番１８号ニューハイム南巽４０７号,00142438,27,116,5440015,,,,,,,2026-02-03,1,,,,,ネクストリンク,0
143,1120901052168,新規,0,2026-02-03,2026-02-03,株式会社お仕事創る,,株式会社,大阪府,豊中市,庄内栄町５丁目９番２号,,27,203,5610834,,,,,,,2026-02-03,1,,,,,オシゴトツクル,0
145,1130001081562,新規,0,2026-02-03,2026-02-03,株式会社インバウンドラボ,,株式会社,京都府,京都市東山区,三吉町３３６番地ＭＯＤＩＳＨ祇園白川１Ｆ,,26,105,6050081,,,,,,,2026-02-03,1,,,,,インバウンドラボ,0
146,1130003011071,新規,0,2026-02-03,2026-02-03,真和メビウス合同会社,,合同会社,京都府,綾部市,神宮寺町東谷３－３－１０５,,26,203,6230026,,,,,,,2026-02-03,1,,,,,シンワメビウス,0
147,1130003011121,新規,0,2026-02-03,2026-02-03,合同会社ミルフィーユ,,合同会社,京都府,京都市西京区,大原野東竹の里町１丁目１番地５棟２０２号,,26,111,6101144,,,,,,,2026-02-03,1,,,,,ミルフィーユ,0
155,1150003003827,新規,0,2026-02-03,2026-02-03,合同会社西翔,,合同会社,奈良県,大和高田市,大字大谷６１番地,,29,202,6350076,,,,,,,2026-02-03,1,,,,,セイショウ,0
157,1170001018965,新規,0,2026-02-03,2026-02-03,創広株式会社,,株式会社,和歌山県,和歌山市,元寺町５丁目１５番地１,,30,201,6408024,,,,,,,2026-02-03,1,,,,,ソウコウ,0
166,1180001170492,新規,0,2026-02-03,2026-02-03,株式会社Ｒｕｎａ＆Ｃｏ．,,株式会社,愛知県,名古屋市南区,桜台１丁目２３番２０号,,23,112,4570005,,,,,,,2026-02-03,1,,,,,ルナアンドカンパニー,0
169,1180303006881,新規,0,2026-02-03,2026-02-03,合同会社ＳｔｏｎｅＢｏｏｋ,,合同会社,愛知県,豊橋市,牛川町字東側６５番地１,,23,201,4400016,,,,,,,2026-02-03,1,,,,,ストーンブック,0
171,1230001021277,新規,0,2026-02-03,2026-02-03,ＩＫＧホールディングス株式会社,,株式会社,富山県,砺波市,太郎丸６５６８番地１,,16,208,9391363,,,,,,,2026-02-03,1,,,,,アイケージーホールディングス,0
177,1240001066131,新規,0,2026-02-03,2026-02-03,株式会社ＲｅＢＡＳＥ,,株式会社,広島県,福山市,光南町１丁目１０番１１号,,34,207,7200814,,,,,,,2026-02-03,1,,,,,リベース,0
178,1240003007579,新規,0,2026-02-03,2026-02-03,合同会社つなぐスマイル,,合同会社,広島県,東広島市,西条土与丸５丁目４番３５号慶応ビル２０２,,34,212,7390007,,,,,,,2026-02-03,1,,,,,ツナグスマイル,0
188,1290001113003,新規,0,2026-02-03,2026-02-03,株式会社立祥,,株式会社,福岡県,福岡市中央区,薬院２丁目１３番３３－３０１号,,40,133,8100022,,,,,,,2026-02-03,1,,,,,リッショウ,0
190,1290003017994,新規,0,2026-02-03,2026-02-03,合同会社ＦＡＳＴＧＯＯＤ,,合同会社,福岡県,福岡市中央区,天神２丁目２番１２号,,40,133,8100001,,,,,,,2026-02-03,1,,,,,ファストグッド,0
191,1290003018002,新規,0,2026-02-03,2026-02-03,合同会社福岡ＫＡＭＥＺＵ,,合同会社,福岡県,福岡市中央区,大名２丁目１１番２１号,,40,133,8100041,,,,,,,2026-02-03,1,,,,,フクオカカメズ,0
193,1290801032229,新規,0,2026-02-03,2026-02-03,株式会社イーサン,,株式会社,福岡県,北九州市八幡西区,楠北３丁目１６番１９号,,40,109,8071154,,,,,,,2026-02-03,1,,,,,イーサン,0
195,1310001019940,新規,0,2026-02-03,2026-02-03,株式会社スリーモンキーズジャパン,,株式会社,長崎県,大村市,竹松町４６１番地１,,42,205,8560803,,,,,,,2026-02-03,1,,,,,スリーモンキーズジャパン,0
199,1340001027949,新規,0,2026-02-03,2026-02-03,株式会社ミルズ,,株式会社,鹿児島県,鹿児島市,中山町２５７４番地,,46,201,8910105,,,,,,,2026-02-03,1,,,,,ミルズ,0
201,1340003005077,新規,0,2026-02-03,2026-02-03,Ｂｅｔｗｅｅｎ　Ｌｅａｖｅｓ合同会社,,合同会社,鹿児島県,鹿児島市,西千石町１１番２１号鹿児島ＭＳビル５Ｆ・６Ｆ,,46,201,8920847,,,,,,,2026-02-03,1,,,,,ビトゥウィーンリーヴズ,0
203,1360003015594,新規,0,2026-02-03,2026-02-03,合同会社丸正運送,,合同会社,沖縄県,那覇市,長田２丁目２６番３１－２号,,47,201,9020077,,,,,,,2026-02-03,1,,,,,マルマサウンソウ,0
204,1370001053439,新規,0,2026-02-03,2026-02-03,株式会社１６８ＳＯＬＵＴＩＯＮ,,株式会社,宮城県,仙台市青葉区,宮町５丁目４番８号,,04,101,9800004,,,,,,,2026-02-03,1,,,,,イロハソリューション,0
212,1390001018241,新規,0,2026-02-03,2026-02-03,株式会社おのの,,株式会社,山形県,長井市,横町２０－８,,06,209,9930087,,,,,,,2026-02-03,1,,,,,,0
214,1400003003603,新規,0,2026-02-03,2026-02-03,東北クリーンエネルギー０４合同会社,,合同会社,岩手県,盛岡市,中屋敷町９番２号,,03,201,0200141,,,,,,,2026-02-03,1,,,,,トウホククリーンエネルギーゼロヨン,0
215,1400003003611,新規,0,2026-02-03,2026-02-03,東北クリーンエネルギー１３合同会社,,合同会社,岩手県,盛岡市,中屋敷町９番２号,,03,201,0200141,,,,,,,2026-02-03,1,,,,,トウホククリーンエネルギージュウサン,0
216,1400003003628,新規,0,2026-02-03,2026-02-03,東北クリーンエネルギー３０合同会社,,合同会社,岩手県,盛岡市,中屋敷町９番２号,,03,201,0200141,,,,,,,2026-02-03,1,,,,,トウホククリーンエネルギーサンジュウ,0
217,1400003003636,新規,0,2026-02-03,2026-02-03,東北クリーンエネルギー０３合同会社,,合同会社,岩手県,盛岡市,中屋敷町９番２号,,03,201,0200141,,,,,,,2026-02-03,1,,,,,トウホククリーンエネルギーゼロサン,0
220,1430001096159,新規,0,2026-02-03,2026-02-03,株式会社メイプルパワーエナジー,,株式会社,北海道,札幌市白石区,南郷通１８丁目南４番１６号大光壱番館３Ｆ,,01,104,0030022,,,,,,,2026-02-03,1,,,,,メイプルパワーエナジー,0
229,1700150065481,新規,0,2026-02-03,2015-10-09,都城地区無人ヘリ防除協議会,,その他,宮崎県,都城市,上川東３丁目１０－８,,45,202,8850012,,,,,,,2015-10-09,1,,,,,ミヤコノジヨウチクムジンヘリボウジヨキヨウギカイ,0
240,2010001262289,新規,0,2026-02-03,2026-02-03,健康生活株式会社,,株式会社,東京都,中央区,日本橋浜町３丁目３番１号,,13,102,1030007,,,,,,,2026-02-03,1,,,,,ケンコウセイカツ,0
241,2010001262306,新規,0,2026-02-03,2026-02-03,Ｍｙ　Ｊｏｂ　Ｔａｎｋ株式会社,,株式会社,東京都,中央区,銀座８丁目１０－１－３Ｆ佛蘭西屋ビル,,13,102,1040061,,,,,,,2026-02-03,1,,,,,マイジョブタンク,0
242,2010001262446,新規,0,2026-02-03,2026-02-03,株式会社灯文舎,,株式会社,東京都,千代田区,平河町２丁目５番５号全国旅館会館１Ｆ,,13,101,1020093,,,,,,,2026-02-03,1,,,,,トウブンシャ,0
246,2010101017064,新規,0,2026-02-03,2026-02-03,株式会社進明舎,,株式会社,東京都,八王子市,小比企町５３５番地１４ハイム南山田２０５号,,13,201,1930934,,,,,,,2026-02-03,1,,,,,シンメイシャ,0
250,2010401196079,新規,0,2026-02-03,2026-02-03,株式会社ヒラメント浜松町,,株式会社,東京都,港区,芝大門１丁目１５－７ＡＢＣ館１階,,13,103,1050012,,,,,,,2026-02-03,1,,,,,ヒラメントハママツチョウ,0
251,2010401196194,新規,0,2026-02-03,2026-02-03,株式会社ＭＹ,,株式会社,東京都,港区,北青山１丁目３－３三橋ビル３階,,13,103,1070061,,,,,,,2026-02-03,1,,,,,エムワイ,0
252,2010401196228,新規,0,2026-02-03,2026-02-03,ＳＩ株式会社,,株式会社,東京都,港区,西新橋１丁目２番９号日比谷セントラルビル１４階,,13,103,1050003,,,,,,,2026-02-03,1,,,,,エスアイ,0
253,2010401196244,新規,0,2026-02-03,2026-02-03,株式会社ＺＥＮ,,株式会社,東京都,港区,北青山１丁目３番３号三橋ビル３階,,13,103,1070061,,,,,,,2026-02-03,1,,,,,ゼン,0
254,2010401196269,新規,0,2026-02-03,2026-02-03,リシェスタイル株式会社,,株式会社,東京都,港区,北青山１丁目３番１号アールキューブ青山３階,,13,103,1070061,,,,,,,2026-02-03,1,,,,,リシェスタイル,0
255,2010401196285,新規,0,2026-02-03,2026-02-03,Ｂａｓｅ株式会社,,株式会社,東京都,港区,白金台３丁目２－５,,13,103,1080071,,,,,,,2026-02-03,1,,,,,ベース,0
259,2010403037231,新規,0,2026-02-03,2026-02-03,ｙｓｋｐ合同会社,,合同会社,東京都,港区,西麻布１丁目２番１３号デュオ・スカーラ西麻布タワーＣＥＮＴＲＡＬ２０１号室,,13,103,1060031,,,,,,,2026-02-03,1,,,,,,0
261,2010501055382,新規,0,2026-02-03,2026-02-03,株式会社ＮＩＮＥ,,株式会社,東京都,台東区,元浅草３丁目５－６－２０６,,13,106,1110041,,,,,,,2026-02-03,1,,,,,ナイン,0
262,2010501055390,新規,0,2026-02-03,2026-02-03,株式会社エイ・ケン,,株式会社,東京都,台東区,北上野１丁目１０番１４号,,13,106,1100014,,,,,,,2026-02-03,1,,,,,エイケン,0
279,2011005011335,新規,0,2026-02-03,2026-02-03,一般社団法人ジャパンフューチャー,,その他の設立登記法人,東京都,目黒区,中央町１丁目２番１３号３１２号室,,13,110,1520001,,,,,,,2026-02-03,1,,,,,ジャパンフューチャー,0
281,2011203004941,新規,0,2026-02-03,2026-02-03,合同会社Ｘｍｉｔ,,合同会社,東京都,中野区,中央１丁目２３番８－７０３号,,13,114,1640011,,,,,,,2026-02-03,1,,,,,クロスミット,0
287,2011501033072,新規,0,2026-02-03,2026-02-03,株式会社Ｄｅｃｋｅｒ’ｚ,,株式会社,東京都,北区,王子１丁目２１番１号王子エムビル２０１,,13,117,1140002,,,,,,,2026-02-03,1,,,,,デッカーズ,0
290,2011701029143,新規,0,2026-02-03,2026-02-03,株式会社シゼンリンクス,,株式会社,東京都,江戸川区,東葛西４丁目３番１１号レジデンスタイム３－１０２,,13,123,1340084,,,,,,,2026-02-03,1,,,,,シゼンリンクス,0
292,2012301014700,新規,0,2026-02-03,2026-02-03,株式会社ＢＣＩＰ,,株式会社,東京都,町田市,野津田町１２０番地１,,13,209,1950063,,,,,,,2026-02-03,1,,,,,ビーシップ,0
296,2012401044093,新規,0,2026-02-03,2026-02-03,株式会社ＳＴデザイン,,株式会社,東京都,狛江市,中和泉４丁目２３番７－１号,,13,219,2010012,,,,,,,2026-02-03,1,,,,,エスティーデザイン,0
306,2020001166902,新規,0,2026-02-03,2026-02-03,株式会社ＤＯＬＣＩ　ＴＥＣ,,株式会社,神奈川県,横浜市西区,浅間町１丁目４番地３ウィザードビル４０２,,14,103,2200072,,,,,,,2026-02-03,1,,,,,ドルチテック,0
307,2020001166919,新規,0,2026-02-03,2026-02-03,ＯＬＥＭＩＴＳ株式会社,,株式会社,神奈川県,横浜市中区,桜木町１丁目１番地７ヒューリックみなとみらい１０階,,14,104,2310062,,,,,,,2026-02-03,1,,,,,オレミツ,0
308,2020001166935,新規,0,2026-02-03,2026-02-03,株式会社ＨＲサービス,,株式会社,神奈川県,横浜市鶴見区,佃野町２２番３号鶴見オゼキビル２０２,,14,101,2300061,,,,,,,2026-02-03,1,,,,,エイチアールサービス,0
318,2021001087337,新規,0,2026-02-03,2026-02-03,株式会社アンディーズ,,株式会社,神奈川県,茅ヶ崎市,みずき４丁目１０番６号テラスハウス井上西,,14,207,2530088,,,,,,,2026-02-03,1,,,,,アンディーズ,0
319,2021001087394,新規,0,2026-02-03,2026-02-03,株式会社ＹＴＲ,,株式会社,神奈川県,綾瀬市,寺尾本町１丁目９番１２号カーサ小山田１０３号室,,14,218,2521133,,,,,,,2026-02-03,1,,,,,ワイティーアール,0
320,2021001087403,新規,0,2026-02-03,2026-02-03,株式会社Ｎ　ＣＲＡＦＴ　ＢＡＳＥ,,株式会社,神奈川県,茅ヶ崎市,浜竹１丁目１２番１３－１号,,14,207,2530021,,,,,,,2026-02-03,1,,,,,エヌクラフトベース,0
321,2021001087411,新規,0,2026-02-03,2026-02-03,ＮＡＩＣＯＮ株式会社,,株式会社,神奈川県,平塚市,新町５番２７号,,14,203,2540076,,,,,,,2026-02-03,1,,,,,ナイコン,0
322,2021001087444,新規,0,2026-02-03,2026-02-03,ＳＡＮ　ＭＡＤＥ株式会社,,株式会社,神奈川県,厚木市,上依知１２０６番地,,14,212,2430801,,,,,,,2026-02-03,1,,,,,サンメイド,0
324,2021003017044,新規,0,2026-02-03,2026-02-03,ｅｎ‐ｌｉｎｋ合同会社,,合同会社,神奈川県,藤沢市,鵠沼桜が岡２丁目１１－２５,,14,205,2510027,,,,,,,2026-02-03,1,,,,,エンリンク,0
325,2021003017077,新規,0,2026-02-03,2026-02-03,合同会社ハトリスペース,,合同会社,神奈川県,藤沢市,羽鳥３丁目１番２０号,,14,205,2510056,,,,,,,2026-02-03,1,,,,,ハトリスペース,0
326,2021005013529,新規,0,2026-02-03,2026-02-03,一般社団法人成年後見あおぞら会,,その他の設立登記法人,神奈川県,鎌倉市,大船１丁目２３番１６号サンワード大船５０２号室,,14,204,2470056,,,,,,,2026-02-03,1,,,,,セイネンコウケンアオゾラカイ,0
331,2030001170795,新規,0,2026-02-03,2026-02-03,株式会社ＧＥＮ,,株式会社,埼玉県,三郷市,新和５丁目３４８番地１７,,11,237,3410034,,,,,,,2026-02-03,1,,,,,ゲン,0
334,2030003028554,新規,0,2026-02-03,2026-02-03,合同会社ライゾムノグラウド,,合同会社,埼玉県,さいたま市浦和区,常盤６丁目２０番２号,,11,107,3300061,,,,,,,2026-02-03,1,,,,,ライゾムノグラウド,0
340,2040001142018,新規,0,2026-02-03,2026-02-03,株式会社Ｇ‐ＲＥＸ,,株式会社,千葉県,南房総市,富浦町青木１７７－１,,12,234,2992416,,,,,,,2026-02-03,1,,,,,ジーレックス,0
341,2040001142315,新規,0,2026-02-03,2026-02-03,株式会社ａｎｄ　Ｒ,,株式会社,千葉県,市原市,五井中央南１丁目５番地１５,,12,219,2900082,,,,,,,2026-02-03,1,,,,,アンドアール,0
346,2040003029386,新規,0,2026-02-03,2026-02-03,合同会社パレラボ,,合同会社,千葉県,松戸市,本町１７－１１芹澤ビル６Ｆ,,12,207,2710091,,,,,,,2026-02-03,1,,,,,パレラボ,0
347,2050003009899,新規,0,2026-02-03,2026-02-03,ケイエス工業合同会社,,合同会社,茨城県,神栖市,土合本町１丁目８７６２,,08,232,3140343,,,,,,,2026-02-03,1,,,,,ケイエスコウギョウ,0
348,2050003009908,新規,0,2026-02-03,2026-02-03,合同会社ａｎ,,合同会社,茨城県,龍ケ崎市,野原町１番地風見ビル２階,,08,208,3010831,,,,,,,2026-02-03,1,,,,,アン,0
350,2060001038981,新規,0,2026-02-03,2026-02-03,株式会社さわや,,株式会社,栃木県,宇都宮市,白沢町５２０番地２,,09,201,3291102,,,,,,,2026-02-03,1,,,,,サワヤ,0
352,2060003005947,新規,0,2026-02-03,2026-02-03,パイオニアエコハウス合同会社,,合同会社,栃木県,宇都宮市,桜２丁目１番２０号ナイスアーバンステイツ宇都宮・桜１００８,,09,201,3200043,,,,,,,2026-02-03,1,,,,,パイオニアエコハウス,0
353,2070003006283,新規,0,2026-02-03,2026-02-03,合同会社アスライブ,,合同会社,群馬県,高崎市,宮元町２２９大手前ハイツ９Ａ,,10,202,3700828,,,,,,,2026-02-03,1,,,,,,0
355,2080003003643,新規,0,2026-02-03,2026-02-03,合同会社みらい,,合同会社,静岡県,静岡市駿河区,丸子６２８７番地の３,,22,102,4210103,,,,,,,2026-02-03,1,,,,,ミライ,0
361,2080405007795,新規,0,2026-02-03,2026-02-03,特定非営利活動法人はままつ共助モビリティ,,その他の設立登記法人,静岡県,浜松市中央区,大瀬町８７６番地の１,,22,138,4313113,,,,,,,2026-02-03,1,,,,,ハママツキョウジョモビリティ,0
365,2100001039315,新規,0,2026-02-03,2026-02-03,コンコント株式会社,,株式会社,長野県,長野市,大字高田４２０,,20,201,3810034,,,,,,,2026-02-03,1,,,,,コンコント,0
366,2110003006064,新規,0,2026-02-03,2026-02-03,合同会社ようぐや,,合同会社,新潟県,燕市,東太田１０５６番地８,,15,213,9591289,,,,,,,2026-02-03,1,,,,,ヨウグヤ,0
374,2120003031821,新規,0,2026-02-03,2026-02-03,合同会社シグマ・ケー,,合同会社,大阪府,枚方市,養父西町１２番１３号,,27,210,5731141,,,,,,,2026-02-03,1,,,,,シグマケー,0
378,2120901052167,新規,0,2026-02-03,2026-02-03,株式会社ＥＡＳＥ,,株式会社,大阪府,豊中市,大黒町３丁目７番２２号,,27,203,5610827,,,,,,,2026-02-03,1,,,,,イーズ,0
384,2130001081537,新規,0,2026-02-03,2026-02-03,龍達国際株式会社,,株式会社,京都府,京都市左京区,浄土寺下南田町１２５－２,,26,103,6068404,,,,,,,2026-02-03,1,,,,,リュウダツコクサイ,0
385,2130005017578,新規,0,2026-02-03,2026-02-03,一般社団法人Ｌｉｖｉｎｇ　Ｈｉｓｔｏｒｙ　ＫＹＯＴＯ,,その他の設立登記法人,京都府,京都市上京区,薬屋町４１９番地,,26,102,6020918,,,,,,,2026-02-03,1,,,,,リビングヒストリーキョウト,0
391,2140001141653,新規,0,2026-02-03,2026-02-03,ＳＭＢＤパートナーシップ株式会社,,株式会社,兵庫県,神戸市中央区,磯辺通１丁目１番１８号カサベラ国際プラザビル７０７号室,,28,110,6510084,,,,,,,2026-02-03,1,,,,,エスエムビーディーパートナーシップ,0
395,2140003023164,新規,0,2026-02-03,2026-02-03,合同会社ぽこ,,合同会社,兵庫県,神戸市兵庫区,下祇園町１２－１１,00142424,28,105,6520015,,,,,,,2026-02-03,1,,,,,ポコ,0
397,2150001028701,新規,0,2026-02-03,2026-02-03,株式会社ＲＩＮＫｓ,,株式会社,奈良県,磯城郡田原本町,大字阪手６５６番地の１,,29,363,6360247,,,,,,,2026-02-03,1,,,,,リンクス,0
398,2150003003826,新規,0,2026-02-03,2026-02-03,合同会社りあん,,合同会社,奈良県,奈良市,学園大和町２丁目１６４番地の１,,29,201,6310041,,,,,,,2026-02-03,1,,,,,リアン,0
403,2180001170302,新規,0,2026-02-03,2026-02-03,株式会社ＭＡＲＫＩＴＨ　ＪＡＰＡＮ,,株式会社,愛知県,名古屋市中区,栄３丁目１１‐１４ピボット住吉ビル２Ｆ,,23,106,4600008,,,,,,,2026-02-03,1,,,,,マーキスジャパン,0
404,2180001170401,新規,0,2026-02-03,2026-02-03,株式会社Ｗｉｎｋｓｙ,,株式会社,愛知県,名古屋市中区,丸の内３丁目１６番３１号,,23,106,4600002,,,,,,,2026-02-03,1,,,,,ウィンクシー,0
405,2180001170509,新規,0,2026-02-03,2026-02-03,タケヒロホールディングス株式会社,,株式会社,愛知県,一宮市,伝法寺５丁目４番地１１,,23,203,4910828,,,,,,,2026-02-03,1,,,,,タケヒロホールディングス,0
406,2180001170517,新規,0,2026-02-03,2026-02-03,株式会社ＥＳテック,,株式会社,愛知県,一宮市,開明字神明郭９番地１,,23,203,4940001,,,,,,,2026-02-03,1,,,,,イーエステック,0
409,2200001044676,新規,0,2026-02-03,2026-02-03,ロフテック・インダストリー株式会社,,株式会社,岐阜県,可児市,長坂３丁目５番地,,21,214,5090257,,,,,,,2026-02-03,1,,,,,ロフテックインダストリー,0
417,2240001066114,新規,0,2026-02-03,2026-02-03,株式会社ネクスキャリア,,株式会社,広島県,東広島市,西条西本町２４番２０号,,34,212,7390043,,,,,,,2026-02-03,1,,,,,ネクスキャリア,0
418,2240001066130,新規,0,2026-02-03,2026-02-03,株式会社Ｍｅｌｏｎ　Ｈｏｌｄｉｎｇｓ,,株式会社,広島県,安芸郡府中町,瀬戸ハイム４丁目７番２４号,,34,302,7350011,,,,,,,2026-02-03,1,,,,,メロンホールディングス,0
420,2270001009383,新規,0,2026-02-03,2026-02-03,株式会社Ｎ．Ｌｉｎｋ,,株式会社,鳥取県,日野郡日南町,新屋１４１０番地,,31,401,6895225,,,,,,,2026-02-03,1,,,,,エヌリンク,0
427,2290001112986,新規,0,2026-02-03,2026-02-03,井上建設株式会社,,株式会社,福岡県,久留米市,城島町江上２９７番地２,,40,203,8300213,,,,,,,2026-02-03,1,,,,,イノウエケンセツ,0
436,2290801032236,新規,0,2026-02-03,2026-02-03,株式会社椎野内装,,株式会社,福岡県,行橋市,大字東徳永１８１番地,,40,213,8240025,,,,,,,2026-02-03,1,,,,,シイノナイソウ,0
447,2330003011414,新規,0,2026-02-03,2026-02-03,合同会社つむぎ,,合同会社,熊本県,山鹿市,鹿本町来民２０８９－１,,43,208,8610331,,,,,,,2026-02-03,1,,,,,ツムギ,0
448,2340003005084,新規,0,2026-02-03,2026-02-03,合同会社楓亜,,合同会社,鹿児島県,鹿児島市,中山２丁目１５番１２号,,46,201,8910108,,,,,,,2026-02-03,1,,,,,フウア,0
449,2350003005133,新規,0,2026-02-03,2026-02-03,合同会社風と空,,合同会社,宮崎県,延岡市,牧町４７３６－１４,,45,203,8820023,,,,,,,2026-02-03,1,,,,,カゼトソラ,0
463,2400001017307,新規,0,2026-02-03,2026-02-03,株式会社Ｕ．Ｇミート,,株式会社,岩手県,久慈市,川崎町７番１号,,03,207,0280051,,,,,,,2026-02-03,1,,,,,ユージーミート,0
464,2400003003602,新規,0,2026-02-03,2026-02-03,東北クリーンエネルギー０２合同会社,,合同会社,岩手県,盛岡市,中屋敷町９番２号,,03,201,0200141,,,,,,,2026-02-03,1,,,,,トウホククリーンエネルギーゼロニ,0
465,2400003003610,新規,0,2026-02-03,2026-02-03,東北クリーンエネルギー１２合同会社,,合同会社,岩手県,盛岡市,中屋敷町９番２号,,03,201,0200141,,,,,,,2026-02-03,1,,,,,トウホククリーンエネルギージュウニ,0
466,2400003003619,新規,0,2026-02-03,2026-02-03,東北クリーンエネルギー２１合同会社,,合同会社,岩手県,盛岡市,中屋敷町９番２号,,03,201,0200141,,,,,,,2026-02-03,1,,,,,トウホククリーンエネルギーニジュウイチ,0
467,2400003003627,新規,0,2026-02-03,2026-02-03,東北クリーンエネルギー２９合同会社,,合同会社,岩手県,盛岡市,中屋敷町９番２号,,03,201,0200141,,,,,,,2026-02-03,1,,,,,トウホククリーンエネルギーニジュウキュウ,0
468,2400003003635,新規,0,2026-02-03,2026-02-03,東北クリーンエネルギー４５合同会社,,合同会社,岩手県,盛岡市,中屋敷町９番２号,,03,201,0200141,,,,,,,2026-02-03,1,,,,,トウホククリーンエネルギーヨンジュウゴ,0
469,2410003004186,新規,0,2026-02-03,2026-02-03,合同会社ＥｎＲｏｏｔ,,合同会社,秋田県,秋田市,南通築地３－１１ドットビル２０２号室,,05,201,0100013,,,,,,,2026-02-03,1,,,,,エンルート,0
479,2490005007023,新規,0,2026-02-03,2026-02-03,ＮＰＯ法人高知県防災キッチンカー協会,,その他の設立登記法人,高知県,高知市,薊野北町２丁目１５番１２号,,39,201,7810011,,,,,,,2026-02-03,1,,,,,コウチケンボウサイキッチンカーキョウカイ,0
480,2500003003666,新規,0,2026-02-03,2026-02-03,合同会社輝工業,,合同会社,愛媛県,松山市,朝生田町１丁目１１番１９号,,38,201,7900952,,,,,,,2026-02-03,1,,,,,テルコウギョウ,0
486,3010001262445,新規,0,2026-02-03,2026-02-03,コーンウォール・ニッポン・ホールディングス株式会社,,株式会社,東京都,中央区,日本橋室町２丁目３番１号,,13,102,1030022,,,,,,,2026-02-03,1,,,,,コーンウォールニッポンホールディングス,0
487,3010001262453,新規,0,2026-02-03,2026-02-03,株式会社たこぺん,,株式会社,東京都,千代田区,神田須田町１丁目７番８号ＶＯＲＴ秋葉原ＩＶ・２Ｆ,00142437,13,101,1010041,,,,,,,2026-02-03,1,,,,,タコペン,0
488,3010001262528,新規,0,2026-02-03,2026-02-03,株式会社ｆｏｒ　ｇｏ　ｏｎｅ,,株式会社,東京都,中央区,築地７丁目１１番１２－７０１号,,13,102,1040045,,,,,,,2026-02-03,1,,,,,フォウゴーワン,0
490,3010003050096,新規,0,2026-02-03,2026-02-03,Ｂｒｉｄｇｅ　Ｄａｔａ　Ｃｅｎｔｒｅｓ　Ｊａｐａｎ合同会社,,合同会社,東京都,千代田区,霞が関３丁目２番５号,,13,101,1000013,,,,,,,2026-02-03,1,,,,,ブリッジデータセンターズジャパン,0
491,3010005041333,新規,0,2026-02-03,2026-02-03,一般社団法人本郷建築デザイン研究所,,その他の設立登記法人,東京都,文京区,本郷１丁目３４番４号,,13,105,1130033,,,,,,,2026-02-03,1,,,,,ホンゴウケンチクデザインケンキュウジョ,0
492,3010103002749,新規,0,2026-02-03,2026-02-03,Ａ４Ｘ４合同会社,,合同会社,東京都,八王子市,中野上町５丁目２６－２,,13,201,1920041,,,,,,,2026-02-03,1,,,,,エーフォーバイフォー,0
497,3010401196160,新規,0,2026-02-03,2026-02-03,株式会社Ｓｅｃａｉ　Ａｄｖｉｓｏｒｙ,,株式会社,東京都,港区,六本木３丁目１６番１２号六本木ＫＳビル５Ｆ,,13,103,1060032,,,,,,,2026-02-03,1,,,,,セカイアドバイザリー,0
498,3010401196219,新規,0,2026-02-03,2026-02-03,株式会社ＴＯＹＯＤＡ　ＰＲＥＳＴＩＧＥ,,株式会社,東京都,港区,南青山３丁目６番７号青山パラシオタワー１１階,,13,103,1070062,,,,,,,2026-02-03,1,,,,,トヨダプレスティジ,0
499,3010401196268,新規,0,2026-02-03,2026-02-03,株式会社Ｐｏｌａｒｙ,,株式会社,東京都,港区,北青山１丁目３番１号アールキューブ青山３階,,13,103,1070061,,,,,,,2026-02-03,1,,,,,ポラリー,0
500,3010401196276,新規,0,2026-02-03,2026-02-03,Ｔｈｅ　Ｐｉｅ　Ｈｏｌｅ　Ｌｏｓ　Ａｎｇｅｌｅｓ　Ｊａｐａｎ株式会社,,株式会社,東京都,港区,西麻布２丁目１５番３号,,13,103,1060031,,,,,,,2026-02-03,1,,,,,ザパイホールロサンゼルスジャパン,0
506,3010405025225,新規,0,2026-02-03,2026-02-03,一般社団法人ＴＰＤプロジェクト,,その他の設立登記法人,東京都,港区,港南３丁目９番３３－８１０号,,13,103,1080075,,,,,,,2026-02-03,1,,,,,ティーピーディープロジェクト,0
507,3010601068647,新規,0,2026-02-03,2026-02-03,株式会社楽市,,株式会社,東京都,墨田区,向島１丁目９番１号,,13,107,1310033,,,,,,,2026-02-03,1,,,,,タノイチ,0
508,3010603012017,新規,0,2026-02-03,2026-02-03,ウィテム合同会社,,合同会社,東京都,江東区,塩浜２丁目５番１－４１８号,,13,108,1350043,,,,,,,2026-02-03,1,,,,,ウィテム,0
509,3010701048961,新規,0,2026-02-03,2026-02-03,株式会社シープラス,,株式会社,東京都,品川区,西五反田７丁目９－２ＫＤＸ五反田ビル５Ｆ,,13,109,1410031,,,,,,,2026-02-03,1,,,,,シープラス,0
519,3010901058901,新規,0,2026-02-03,2026-02-03,株式会社ＭＡＲＯ,,株式会社,東京都,世田谷区,北沢４丁目３２番１２号,,13,112,1550031,,,,,,,2026-02-03,1,,,,,マロ,0
534,3011001175190,新規,0,2026-02-03,2026-02-03,株式会社建ＲＡＫＵ,,株式会社,東京都,渋谷区,道玄坂１丁目１０番８号渋谷道玄坂東急ビル２Ｆ－Ｃ,,13,113,1500043,,,,,,,2026-02-03,1,,,,,ケンラク,0
535,3011001175249,新規,0,2026-02-03,2026-02-03,株式会社ＴＯＮＡＲＩ　ＬＡＢ,,株式会社,東京都,渋谷区,上原３丁目２８番１号ラ・トゥール代々木上原Ｂ２０２,,13,113,1510064,,,,,,,2026-02-03,1,,,,,トナリラボ,0
536,3011001175257,新規,0,2026-02-03,2026-02-03,株式会社クレストリアルティ,,株式会社,東京都,渋谷区,南平台町３番１３号渋谷ＳＴビル４Ｆ,,13,113,1500036,,,,,,,2026-02-03,1,,,,,クレストリアルティ,0
546,3011401027776,新規,0,2026-02-03,2026-02-03,松井建業株式会社,,株式会社,東京都,板橋区,大谷口上町１６番２－４０８号,,13,119,1730032,,,,,,,2026-02-03,1,,,,,マツイケンギョウ,0
550,3011601029358,新規,0,2026-02-03,2026-02-03,株式会社ＴＡＮＥ　ＷＯＲＫＳ,,株式会社,東京都,練馬区,練馬２丁目３番１４号,,13,120,1760001,,,,,,,2026-02-03,1,,,,,タネワークス,0
553,3011801047399,新規,0,2026-02-03,2026-02-03,株式会社堀切三和ガレージ,,株式会社,東京都,葛飾区,堀切２丁目６２番６号,,13,122,1240006,,,,,,,2026-02-03,1,,,,,ホリキリサンワガレージ,0
557,3012801024512,新規,0,2026-02-03,2026-02-03,永興株式会社,,株式会社,東京都,立川市,西砂町５丁目２番地の４０,,13,202,1900034,,,,,,,2026-02-03,1,,,,,エイコウ,0
570,3020003030279,新規,0,2026-02-03,2026-02-03,ＢＩＧ　ＢＲＩＤＧＥ合同会社,,合同会社,神奈川県,横浜市港南区,丸山台２丁目３２―２４,,14,111,2330013,,,,,,,2026-02-03,1,,,,,ビッグブリッジ,0
571,3020003030312,新規,0,2026-02-03,2026-02-03,合同会社ＰｕｒｒＴｅｃｈ,,合同会社,神奈川県,横浜市西区,北幸２丁目１０番４８号むつみビル３階,,14,103,2200004,,,,,,,2026-02-03,1,,,,,パーテック,0
574,3021001087385,新規,0,2026-02-03,2026-02-03,特殊清掃神奈川株式会社,,株式会社,神奈川県,座間市,座間２丁目２６３０,,14,216,2520027,,,,,,,2026-02-03,1,,,,,トクシュセイソウカナガワ,0
577,3030001170786,新規,0,2026-02-03,2026-02-03,ＦＭＧ株式会社,,株式会社,埼玉県,さいたま市中央区,上落合２丁目４番４号２階,,11,105,3380001,,,,,,,2026-02-03,1,,,,,エフエムジー,0
578,3030001170794,新規,0,2026-02-03,2026-02-03,株式会社ランドルアーク,,株式会社,埼玉県,川口市,上青木西５丁目１３番２８号,,11,203,3330845,,,,,,,2026-02-03,1,,,,,ランドルアーク,0
583,3040001142231,新規,0,2026-02-03,2026-02-03,株式会社ＨＡＴＴＯＲＩホールディングス,,株式会社,千葉県,館山市,沼９２７番地の３,,12,205,2940034,,,,,,,2026-02-03,1,,,,,ハットリホールディングス,0
584,3040001142297,新規,0,2026-02-03,2026-02-03,株式会社Ｂｅ　ｙｏｕ,,株式会社,千葉県,木更津市,東太田３丁目８番３１号,,12,206,2920043,,,,,,,2026-02-03,1,,,,,ビーユー,0
586,3040003029369,新規,0,2026-02-03,2026-02-03,合同会社ジャパングロース,,合同会社,千葉県,成田市,中台２丁目３２番地８,,12,211,2860015,,,,,,,2026-02-03,1,,,,,ジャパングロース,0
592,3050003009915,新規,0,2026-02-03,2026-02-03,ＯＲＭ合同会社,,合同会社,茨城県,常陸大宮市,下町４０２８番地の３,,08,225,3192262,,,,,,,2026-02-03,1,,,,,オルム,0
593,3060001038980,新規,0,2026-02-03,2026-02-03,株式会社リノア,,株式会社,栃木県,那須郡那珂川町,芳井２４８番地,,09,411,3240505,,,,,,,2026-02-03,1,,,,,リノア,0
594,3060003005946,新規,0,2026-02-03,2026-02-03,合同会社まちのシステム屋さん,,合同会社,栃木県,那須塩原市,井口５６２番地１６６,,09,213,3292763,,,,,,,2026-02-03,1,,,,,マチノシステムヤサン,0
600,3070005010464,新規,0,2026-02-03,2026-02-03,一般社団法人陸達磨,,その他の設立登記法人,群馬県,伊勢崎市,東町２７６４番地３０,,10,204,3792231,,,,,,,2026-02-03,1,,,,,リクダルマ,0
601,3080101026066,新規,0,2026-02-03,2026-02-03,株式会社タテズミ商会,,株式会社,静岡県,御殿場市,保土沢５２２番地の２,,22,215,4120046,,,,,,,2026-02-03,1,,,,,タテズミショウカイ,0
602,3080401028415,新規,0,2026-02-03,2026-02-03,株式会社ビックハウジング,,株式会社,静岡県,浜松市中央区,高丘西１丁目１番１８号,,22,138,4338118,,,,,,,2026-02-03,1,,,,,ビックハウジング,0
606,3080403005437,新規,0,2026-02-03,2026-02-03,合同会社ＳｏＬ,,合同会社,静岡県,浜松市中央区,半田山４丁目４１番１６号,,22,138,4313125,,,,,,,2026-02-03,1,,,,,ソル,0
607,3090001019714,新規,0,2026-02-03,2026-02-03,株式会社トータルサポート結,,株式会社,山梨県,上野原市,松留５４９エステート上野原２０５号室,,19,212,4090115,,,,,,,2026-02-03,1,,,,,トータルサポートユイ,0
608,3100001039314,新規,0,2026-02-03,2026-02-03,ＳｈｉｆｔＨｕｂ株式会社,,株式会社,長野県,長野市,大字稲葉１３８３番地１,,20,201,3800911,,,,,,,2026-02-03,1,,,,,シフトハブ,0
616,3120003031837,新規,0,2026-02-03,2026-02-03,ＯｓｏｂａＨｏｍｅ合同会社,,合同会社,大阪府,寝屋川市,黒原新町１１‐１９,,27,215,5720059,,,,,,,2026-02-03,1,,,,,オソバホーム,0
623,3130001081544,新規,0,2026-02-03,2026-02-03,株式会社結力屋,,株式会社,京都府,京田辺市,三山木直田２８番地２３,,26,211,6100313,,,,,,,2026-02-03,1,,,,,ユイリキヤ,0
629,3140001141644,新規,0,2026-02-03,2026-02-03,ＬａｙＫｏｏｖｅｒ株式会社,,株式会社,兵庫県,神戸市中央区,磯辺通２丁目２－１０ｏｎｅｋｎｏｔ神戸１００６,,28,110,6510084,,,,,,,2026-02-03,1,,,,,レイクーバー,0
631,3140003023106,新規,0,2026-02-03,2026-02-03,合同会社奈央,,合同会社,兵庫県,芦屋市,親王塚町１４番１４号,00142426,28,206,6590016,,,,,,,2026-02-03,1,,,,,,0
632,3150001028691,新規,0,2026-02-03,2026-02-03,高橋自動車株式会社,00142425,株式会社,奈良県,桜井市,大字慈恩寺８２番地,,29,206,6330017,,,,,,,2026-02-03,1,,,,,タカハシジドウシャ,0
633,3160005011478,新規,0,2026-02-03,2026-02-03,社会福祉法人湖蓮会,,その他の設立登記法人,滋賀県,大津市,柳川２丁目７番１号,,25,201,5200014,,,,,,,2026-02-03,1,,,,,コレンカイ,0
638,3180001170499,新規,0,2026-02-03,2026-02-03,株式会社おれんぢほーむ,,株式会社,愛知県,春日井市,気噴町北２丁目３０２番地１,,23,206,4870015,,,,,,,2026-02-03,1,,,,,オレンヂホーム,0
639,3180001170524,新規,0,2026-02-03,2026-02-03,株式会社Ｊアンビシャス,,株式会社,愛知県,名古屋市中区,大須１丁目２番２７号,,23,106,4600011,,,,,,,2026-02-03,1,,,,,ジェイアンビシャス,0
644,3180003029710,新規,0,2026-02-03,2026-02-03,こみっＱ合同会社,,合同会社,愛知県,名古屋市熱田区,大宝２丁目４番７－７１２号白鳥パークハイツ大宝,,23,109,4560062,,,,,,,2026-02-03,1,,,,,コミッキュー,0
645,3180003029719,新規,0,2026-02-03,2026-02-03,ＬＢＲ合同会社,,合同会社,愛知県,名古屋市中区,丸の内３丁目１３－１１プレサンスロジェ丸の内１３０２号,,23,106,4600002,,,,,,,2026-02-03,1,,,,,エルビーアール,0
646,3180003029727,新規,0,2026-02-03,2026-02-03,合同会社ぴーす,,合同会社,愛知県,岩倉市,八剱町樋口１８番地２,,23,228,4820031,,,,,,,2026-02-03,1,,,,,ピース,0
651,3180305009765,新規,0,2026-02-03,2026-02-03,特定非営利活動法人ＲＩＮＧ　ＡＮＪＯ,,その他の設立登記法人,愛知県,安城市,横山町下毛賀知２番地１０,,23,212,4460045,,,,,,,2026-02-03,1,,,,,リングアンジョウ,0
654,3200001044675,新規,0,2026-02-03,2026-02-03,パーチャーズ・マネジメント株式会社,,株式会社,岐阜県,関市,東福野町１番２１号,,21,205,5013242,,,,,,,2026-02-03,1,,,,,パーチャーズマネジメント,0
655,3200001044683,新規,0,2026-02-03,2026-02-03,株式会社ＭＡＡＲＰ,,株式会社,岐阜県,羽島郡笠松町,清住町２４番地,,21,303,5016086,,,,,,,2026-02-03,1,,,,,マープ,0
662,3240003007577,新規,0,2026-02-03,2026-02-03,コダマアセッツ合同会社,,合同会社,広島県,福山市,三之丸町１番１８－１９０６号,,34,207,7200066,,,,,,,2026-02-03,1,,,,,コダマアセッツ,0
669,3270001009382,新規,0,2026-02-03,2026-02-03,マルヤス技建株式会社,,株式会社,鳥取県,米子市,日原７１０番地１６,,31,202,6830015,,,,,,,2026-02-03,1,,,,,マルヤスギケン,0
675,3290801032227,新規,0,2026-02-03,2026-02-03,株式会社建錠,,株式会社,福岡県,北九州市八幡西区,別当町２５番２０号,,40,109,8060062,,,,,,,2026-02-03,1,,,,,ケンジョウ,0
677,3300001014494,新規,0,2026-02-03,2026-02-03,株式会社Ｔａｋｅ‐Ｓｕｎ,,株式会社,佐賀県,佐賀市,駅前中央１丁目１６４番,,41,201,8400801,,,,,,,2026-02-03,1,,,,,テイクサン,0
678,3300003002415,新規,0,2026-02-03,2026-02-03,合同会社Ｗｉｌｌ　Ｄｏ　Ｌｅａｒｎｉｎｇ　Ｌａｂ,,合同会社,佐賀県,唐津市,新興町３９番,,41,202,8470818,,,,,,,2026-02-03,1,,,,,ウィルドゥーラーニングラボ,0
682,3340001027947,新規,0,2026-02-03,2026-02-03,株式会社インテリア絆,,株式会社,鹿児島県,鹿児島市,坂之上２丁目１８番１７号,,46,201,8910150,,,,,,,2026-02-03,1,,,,,インテリアキズナ,0
686,3350003005132,新規,0,2026-02-03,2026-02-03,合同会社希乃巴,,合同会社,宮崎県,宮崎市,佐土原町上田島７０６７番地７,,45,201,8800301,,,,,,,2026-02-03,1,,,,,キノハ,0
689,3360001036335,新規,0,2026-02-03,2026-02-03,株式会社彩奏,,株式会社,沖縄県,沖縄市,古謝津嘉山町１０番１３号レジデンスふくろう１０３号室,,47,211,9042166,,,,,,,2026-02-03,1,,,,,サイソウ,0
691,3370001053445,新規,0,2026-02-03,2026-02-03,株式会社テイク,,株式会社,宮城県,柴田郡柴田町,船岡新栄５丁目１番地２０,,04,323,9891607,,,,,,,2026-02-03,1,,,,,テイク,0
694,3400003003618,新規,0,2026-02-03,2026-02-03,東北クリーンエネルギー２０合同会社,,合同会社,岩手県,盛岡市,中屋敷町９番２号,,03,201,0200141,,,,,,,2026-02-03,1,,,,,トウホククリーンエネルギーニジュウ,0
695,3400003003626,新規,0,2026-02-03,2026-02-03,東北クリーンエネルギー２８合同会社,,合同会社,岩手県,盛岡市,中屋敷町９番２号,,03,201,0200141,,,,,,,2026-02-03,1,,,,,トウホククリーンエネルギーニジュウハチ,0
696,3400003003634,新規,0,2026-02-03,2026-02-03,東北クリーンエネルギー４４合同会社,,合同会社,岩手県,盛岡市,中屋敷町９番２号,,03,201,0200141,,,,,,,2026-02-03,1,,,,,トウホククリーンエネルギーヨンジュウヨン,0
698,3420001019408,新規,0,2026-02-03,2026-02-03,株式会社野村エステート,,株式会社,青森県,つがる市,柏上古川磯野１３番地３,,02,209,0383103,,,,,,,2026-02-03,1,,,,,ノムラエステート,0
700,3430001096165,新規,0,2026-02-03,2026-02-03,株式会社ｎａｎａ　ｂｅｌｌｅ,,株式会社,北海道,札幌市北区,篠路四条４丁目６番１４号,,01,102,0028024,,,,,,,2026-02-03,1,,,,,ナナベル,0
709,4010001262114,新規,0,2026-02-03,2026-02-03,グリーンパステクノロジー株式会社,,株式会社,東京都,中央区,日本橋室町１丁目１１番１２号日本橋水野ビル７階,,13,102,1030022,,,,,,,2026-02-03,1,,,,,グリーンパステクノロジー,0
710,4010005041308,新規,0,2026-02-03,2026-02-03,一般社団法人Ｆｉｒｓｔ　Ｌｉｆｅ　Ｄｅｓｉｇｎ,,その他の設立登記法人,東京都,文京区,春日１丁目７番１２号ＢＡＵＰＴＯＫＹＯ２階,,13,105,1120003,,,,,,,2026-02-03,1,,,,,ファーストライフデザイン,0
711,4010101017070,新規,0,2026-02-03,2026-02-03,Ｐｉｎｖｅｓｔ　Ｃａｐｉｔａｌ株式会社,,株式会社,東京都,八王子市,中野上町１丁目９－１９モンシャトー１０５,,13,201,1920041,,,,,,,2026-02-03,1,,,,,パインベストキャピタル,0
722,4010401196218,新規,0,2026-02-03,2026-02-03,株式会社ＡＩ　Ｍａｆｉａ,,株式会社,東京都,港区,六本木３丁目１６番１２号六本木ＫＳビル５Ｆ,,13,103,1060032,,,,,,,2026-02-03,1,,,,,エーアイマフィア,0
723,4010401196226,新規,0,2026-02-03,2026-02-03,株式会社ＲＥＶＡ,,株式会社,東京都,港区,芝浦３丁目９番１号芝浦ルネサイトタワー２Ｆ,,13,103,1080023,,,,,,,2026-02-03,1,,,,,レヴァ,0
724,4010401196275,新規,0,2026-02-03,2026-02-03,株式会社ＭＩ‐ＺＡ,,株式会社,東京都,港区,北青山１丁目３番１アールキューブ青山３階,,13,103,1070061,,,,,,,2026-02-03,1,,,,,ミーザ,0
725,4010401196283,新規,0,2026-02-03,2026-02-03,株式会社ポストデータ,,株式会社,東京都,港区,六本木３丁目１６番１２号六本木ＫＳビル５Ｆ,,13,103,1060032,,,,,,,2026-02-03,1,,,,,ポストデータ,0
726,4010403037221,新規,0,2026-02-03,2026-02-03,合同会社エン,,合同会社,東京都,港区,白金１丁目２５番１３号,,13,103,1080072,,,,,,,2026-02-03,1,,,,,エン,0
727,4010405025100,新規,0,2026-02-03,2026-02-03,一般社団法人ＯＡＳＩＳジャパン,,その他の設立登記法人,東京都,港区,浜松町２丁目２番１５号,,13,103,1050013,,,,,,,2026-02-03,1,,,,,,0
728,4010405025315,新規,0,2026-02-03,2026-02-03,弁理士法人ＳＨＩＭＩＺＵ　Ｇｌｏｂａｌ　ＩＰ,,その他の設立登記法人,東京都,港区,虎ノ門４丁目３番１号城山トラストタワー,,13,103,1050001,,,,,,,2026-02-03,1,,,,,シミズグローバルアイピー,0
729,4010501055389,新規,0,2026-02-03,2026-02-03,全氏株式会社,,株式会社,東京都,台東区,下谷３丁目１２－６宇田ビル１階,,13,106,1100004,,,,,,,2026-02-03,1,,,,,ゼンシ,0
738,4010903010603,新規,0,2026-02-03,2026-02-03,ＡＵＤＩＶＡＮＣＥ合同会社,,合同会社,東京都,世田谷区,松原１丁目３９番１０号ブルーガーデン初音２０７,,13,112,1560043,,,,,,,2026-02-03,1,,,,,オーディヴァンス,0
745,4011001175272,新規,0,2026-02-03,2026-02-03,株式会社ビタボンバイオＪＰ,,株式会社,東京都,渋谷区,神宮前３丁目２３－７ＥＶＯＬＨＡＲＡＪＵＫＵ,,13,113,1500001,,,,,,,2026-02-03,1,,,,,ビタボンバイオジェーピー,0
746,4011001175280,新規,0,2026-02-03,2026-02-03,株式会社ＳＬＴ,,株式会社,東京都,渋谷区,恵比寿西２丁目８番４号ＥＸ恵比寿西ビル５階,,13,113,1500021,,,,,,,2026-02-03,1,,,,,エスエルティー,0
747,4011001175314,新規,0,2026-02-03,2026-02-03,株式会社ＰＳＲ１ｓｔ,,株式会社,東京都,渋谷区,神宮前２丁目２番３９－１９１６号,,13,113,1500001,,,,,,,2026-02-03,1,,,,,プロテクトスタンスリアルエステートファースト,0
749,4011003023454,新規,0,2026-02-03,2026-02-03,ＯＳ合同会社,,合同会社,東京都,渋谷区,道玄坂１丁目１０番８号渋谷道玄坂東急ビル２Ｆ－Ｃ,,13,113,1500043,,,,,,,2026-02-03,1,,,,,オーエス,0
750,4011005011333,新規,0,2026-02-03,2026-02-03,一般社団法人ＮＡＤＩＡ,,その他の設立登記法人,東京都,渋谷区,道玄坂１丁目１０番８号渋谷道玄坂東急ビル２Ｆ－Ｃ,,13,113,1500043,,,,,,,2026-02-03,1,,,,,ナディア,0
756,4011103016928,新規,0,2026-02-03,2026-02-03,Ｄｒｅａｍａｒｋ合同会社,,合同会社,東京都,新宿区,西新宿３丁目３－１３水間ビル６ｆ,,13,104,1600023,,,,,,,2026-02-03,1,,,,,ドリーマーク,0
764,4011401027775,新規,0,2026-02-03,2026-02-03,株式会社エスティーダイレクト,,株式会社,東京都,板橋区,成増４丁目１７番２２号,,13,119,1750094,,,,,,,2026-02-03,1,,,,,エスティーダイレクト,0
766,4011501033070,新規,0,2026-02-03,2026-02-03,株式会社イシカワモーター,,株式会社,東京都,荒川区,町屋１丁目２０番１３号,,13,118,1160001,,,,,,,2026-02-03,1,,,,,イシカワモーター,0
768,4011701029117,新規,0,2026-02-03,2026-02-03,株式会社小岩優祉会,,株式会社,東京都,江戸川区,東小岩６丁目２１番５号,,13,123,1330052,,,,,,,2026-02-03,1,,,,,コイワユウシカイ,0
769,4011701029133,新規,0,2026-02-03,2026-02-03,ＦＵＪＩストラテジー株式会社,,株式会社,東京都,江戸川区,平井４丁目８番２２号,,13,123,1320035,,,,,,,2026-02-03,1,,,,,フジストラテジー,0
772,4012801024511,新規,0,2026-02-03,2026-02-03,株式会社Ｙ’ｓ,,株式会社,東京都,東大和市,向原５丁目１０７３番地の２向原パークマンション１０１号,,13,220,2070013,,,,,,,2026-02-03,1,,,,,ワイズ,0
783,4020001166933,新規,0,2026-02-03,2026-02-03,株式会社ＯｆｆｉｃｅＴＥＮ,,株式会社,神奈川県,横浜市港北区,綱島西４丁目３番１１号,,14,109,2230053,,,,,,,2026-02-03,1,,,,,オフィステン,0
784,4020001167015,新規,0,2026-02-03,2026-02-03,株式会社桜典会,,株式会社,神奈川県,横浜市旭区,東希望が丘５５番地７,,14,112,2410826,,,,,,,2026-02-03,1,,,,,オウテンカイ,0
785,4020003030311,新規,0,2026-02-03,2026-02-03,合同会社ＷＥＲＥＳコンサルティング,,合同会社,神奈川県,横浜市神奈川区,金港町５－１４クアドリフォリオ８階,,14,102,2210056,,,,,,,2026-02-03,1,,,,,ウィアーズコンサルティング,0
787,4021001087392,新規,0,2026-02-03,2026-02-03,株式会社ｓｔｕｄｉｏ　ＨＥＡＤＳ,,株式会社,神奈川県,平塚市,八重咲町２３番１４－２０４号,,14,203,2540811,,,,,,,2026-02-03,1,,,,,スタジオヘッズ,0
792,4030001170785,新規,0,2026-02-03,2026-02-03,株式会社ｅグリーン・ライン,,株式会社,埼玉県,さいたま市桜区,栄和３丁目１５番３６号,,11,106,3380823,,,,,,,2026-02-03,1,,,,,イーグリーンライン,0
793,4030001170802,新規,0,2026-02-03,2026-02-03,ｇｉｖｅ　ａｎｄ　ｇｉｖｅ株式会社,,株式会社,埼玉県,熊谷市,代９９０番地５,,11,202,3600804,,,,,,,2026-02-03,1,,,,,ギブアンドギブ,0
799,4040001142271,新規,0,2026-02-03,2026-02-03,株式会社ＴＥＮ,,株式会社,千葉県,船橋市,西船４丁目２３番８号プルニエ６３ビル４－Ａ,,12,204,2730031,,,,,,,2026-02-03,1,,,,,テン,0
800,4040001142296,新規,0,2026-02-03,2026-02-03,ＲＫキャピタル株式会社,,株式会社,千葉県,白井市,白井２２６番地１,,12,232,2701421,,,,,,,2026-02-03,1,,,,,アールケーキャピタル,0
807,4050001057915,新規,0,2026-02-03,2026-02-03,株式会社別所工業,,株式会社,茨城県,神栖市,平泉２３９３番地１,,08,232,3140146,,,,,,,2026-02-03,1,,,,,ベッショコウギョウ,0
808,4050001057931,新規,0,2026-02-03,2026-02-03,株式会社ピジョンファーム,,株式会社,茨城県,常陸太田市,小菅町３２８,,08,212,3110507,,,,,,,2026-02-03,1,,,,,ピジョンファーム,0
813,4080105006567,新規,0,2026-02-03,2026-02-03,一般社団法人ｍｏｌｏｃａ,,その他の設立登記法人,静岡県,富士宮市,黒田３１４番地の１７,,22,207,4180034,,,,,,,2026-02-03,1,,,,,モロカ,0
814,4080401028414,新規,0,2026-02-03,2026-02-03,株式会社衣,,株式会社,静岡県,掛川市,満水９１番地の６,,22,213,4360011,,,,,,,2026-02-03,1,,,,,コロモ,0
816,4090001019721,新規,0,2026-02-03,2026-02-03,ＧＰＵテック株式会社,,株式会社,山梨県,甲府市,大手１丁目２番５０号,,19,201,4000015,,,,,,,2026-02-03,1,,,,,ジーピーユーテック,0
825,4110003006038,新規,0,2026-02-03,2026-02-03,合同会社Ｋ２,,合同会社,新潟県,燕市,小池２９６９番地,,15,213,9591276,,,,,,,2026-02-03,1,,,,,ケイツー,0
826,4110003006062,新規,0,2026-02-03,2026-02-03,Ｋ合同会社,,合同会社,新潟県,妙高市,大字関川７２１番地４,,15,217,9492112,,,,,,,2026-02-03,1,,,,,ケー,0
837,4120001283875,新規,0,2026-02-03,2026-02-03,株式会社ナチュレ,,株式会社,大阪府,大阪市住吉区,千躰１丁目４番３２号,,27,120,5580047,,,,,,,2026-02-03,1,,,,,ナチュレ,0
838,4120001283917,新規,0,2026-02-03,2026-02-03,原企画株式会社,,株式会社,大阪府,大阪市東淀川区,下新庄５丁目２０番３７号,,27,114,5330021,,,,,,,2026-02-03,1,,,,,ハラキカク,0
846,4120903006061,新規,0,2026-02-03,2026-02-03,合同会社Ｙフーズ,,合同会社,大阪府,吹田市,南金田２丁目１３番３８号,,27,205,5640044,,,,,,,2026-02-03,1,,,,,ワイフーズ,0
857,4140001141536,新規,0,2026-02-03,2026-02-03,株式会社多聞商会,,株式会社,兵庫県,神戸市垂水区,神陵台７丁目３番１６号,,28,108,6550041,,,,,,,2026-02-03,1,,,,,タモンショウカイ,0
858,4140001141610,新規,0,2026-02-03,2026-02-03,贏空株式会社,,株式会社,兵庫県,神戸市兵庫区,千鳥町１丁目７番９号,,28,105,6520022,,,,,,,2026-02-03,1,,,,,エイクウ,0
864,4170005007185,新規,0,2026-02-03,2026-02-03,一般社団法人学生起業家支援機構,,その他の設立登記法人,和歌山県,和歌山市,太田１丁目１０番１５号ワイチ・イーストビル２０３,,30,201,6408323,,,,,,,2026-02-03,1,,,,,ガクセイキギョウカシエンキコウ,0
872,4180001170515,新規,0,2026-02-03,2026-02-03,株式会社マプラク,,株式会社,愛知県,名古屋市昭和区,鶴舞１丁目２番３２号,,23,107,4660064,,,,,,,2026-02-03,1,,,,,マプラク,0
873,4180001170523,新規,0,2026-02-03,2026-02-03,株式会社連谷小,,株式会社,愛知県,名古屋市中区,大須１丁目２番２７号,,23,106,4600011,,,,,,,2026-02-03,1,,,,,レンゴクショウ,0
877,4180005021417,新規,0,2026-02-03,2026-02-03,一般社団法人やとみ創生プロジェクト,,その他の設立登記法人,愛知県,弥富市,東末広１丁目８３番地,,23,235,4980063,,,,,,,2026-02-03,1,,,,,ヤトミソウセイプロジェクト,0
880,4180301040649,新規,0,2026-02-03,2026-02-03,株式会社日光サービス,,株式会社,愛知県,豊田市,本田町洞ノ脇１１０番地,,23,211,4730938,,,,,,,2026-02-03,1,,,,,ニッコウサービス,0
883,4200003007217,新規,0,2026-02-03,2026-02-03,合同会社ＩＳサービス,,合同会社,岐阜県,各務原市,蘇原希望町２丁目２７番地ナビハイツ第４六軒北３０２,,21,213,5040829,,,,,,,2026-02-03,1,,,,,アイエスサービス,0
888,4230001021266,新規,0,2026-02-03,2026-02-03,株式会社ＪＰＣ,,株式会社,富山県,富山市,新桜町５番地１４新桜町ビル３階,,16,201,9300005,,,,,,,2026-02-03,1,,,,,ジェイピーシー,0
891,4250001021529,新規,0,2026-02-03,2026-02-03,株式会社ミライデザインズ,,株式会社,山口県,宇部市,大字西岐波１９１４番地２,,35,202,7550151,,,,,,,2026-02-03,1,,,,,ミライデザインズ,0
895,4290001112968,新規,0,2026-02-03,2026-02-03,汐凪貿易株式会社,,株式会社,福岡県,福岡市博多区,竹下４丁目９番１５号５階,,40,132,8120895,,,,,,,2026-02-03,1,,,,,シオナギボウエキ,0
896,4290001113000,新規,0,2026-02-03,2026-02-03,株式会社ひまわり商事,,株式会社,福岡県,福岡市博多区,神屋町１０番１６－１００５号,,40,132,8120022,,,,,,,2026-02-03,1,,,,,ヒマワリショウジ,0
899,4290801032234,新規,0,2026-02-03,2026-02-03,株式会社ユーシン,,株式会社,福岡県,北九州市八幡西区,陣原５丁目３番１４号,,40,109,8070821,,,,,,,2026-02-03,1,,,,,ユーシン,0
913,4360005007364,新規,0,2026-02-03,2026-02-03,一般社団法人ＡＲＥＴＥ,,その他の設立登記法人,沖縄県,浦添市,字前田８６０番地,,47,208,9012102,,,,,,,2026-02-03,1,,,,,アレテ,0
915,4370001053444,新規,0,2026-02-03,2026-02-03,株式会社ＳＵＭＩＫＡホールディングス,,株式会社,宮城県,仙台市青葉区,上杉２丁目１０－５３－１３０８,,04,101,9800011,,,,,,,2026-02-03,1,,,,,スミカホールディングス,0
916,4370001053452,新規,0,2026-02-03,2026-02-03,株式会社タカハシ企画,,株式会社,宮城県,仙台市青葉区,小松島３丁目３番４８号,,04,101,9810905,,,,,,,2026-02-03,1,,,,,タカハシキカク,0
919,4380001035838,新規,0,2026-02-03,2026-02-03,ＷＡＨホールディングス株式会社,,株式会社,福島県,郡山市,町東２丁目１１５番地,,07,203,9638046,,,,,,,2026-02-03,1,,,,,ダブルエーエイチホールディングス,0
922,4400003003609,新規,0,2026-02-03,2026-02-03,東北クリーンエネルギー１１合同会社,,合同会社,岩手県,盛岡市,中屋敷町９番２号,,03,201,0200141,,,,,,,2026-02-03,1,,,,,トウホククリーンエネルギージュウイチ,0
923,4400003003617,新規,0,2026-02-03,2026-02-03,東北クリーンエネルギー１９合同会社,,合同会社,岩手県,盛岡市,中屋敷町９番２号,,03,201,0200141,,,,,,,2026-02-03,1,,,,,トウホククリーンエネルギージュウキュウ,0
924,4400003003625,新規,0,2026-02-03,2026-02-03,東北クリーンエネルギー２７合同会社,,合同会社,岩手県,盛岡市,中屋敷町９番２号,,03,201,0200141,,,,,,,2026-02-03,1,,,,,トウホククリーンエネルギーニジュウナナ,0
925,4400003003633,新規,0,2026-02-03,2026-02-03,東北クリーンエネルギー４３合同会社,,合同会社,岩手県,盛岡市,中屋敷町９番２号,,03,201,0200141,,,,,,,2026-02-03,1,,,,,トウホククリーンエネルギーヨンジュウサン,0
933,4500001026758,新規,0,2026-02-03,2026-02-03,株式会社リグノキホク,,株式会社,愛媛県,北宇和郡鬼北町,大字奈良４０４８番地２,,38,488,7981351,,,,,,,2026-02-03,1,,,,,リグノキホク,0
941,5010001262419,新規,0,2026-02-03,2026-02-03,株式会社ＯＡＡＡ,,株式会社,東京都,文京区,弥生２丁目２０番１２号１０１号室,,13,105,1130032,,,,,,,2026-02-03,1,,,,,オーエーエーエー,0
949,5010401196150,新規,0,2026-02-03,2026-02-03,快縁株式会社,,株式会社,東京都,港区,白金５丁目１２番２３－１０３号室,,13,103,1080072,,,,,,,2026-02-03,1,,,,,カイエン,0
950,5010401196183,新規,0,2026-02-03,2026-02-03,新三洋貿易株式会社,,株式会社,東京都,港区,新橋４丁目２１番３号,,13,103,1050004,,,,,,,2026-02-03,1,,,,,シンサンヨウボウエキ,0
952,5010403037179,新規,0,2026-02-03,2026-02-03,合同会社Ｋｅｙｓｔｏｎｅ,,合同会社,東京都,港区,北青山１丁目３番１号アールキューブ青山３階,,13,103,1070061,,,,,,,2026-02-03,1,,,,,キーストーン,0
953,5010405025314,新規,0,2026-02-03,2026-02-03,麻布台ホールディング２一般社団法人,,その他の設立登記法人,東京都,港区,虎ノ門３丁目２２番１０－２０１号,,13,103,1050001,,,,,,,2026-02-03,1,,,,,アザブダイホールディングツー,0
955,5010501055363,新規,0,2026-02-03,2026-02-03,ソラスコープ株式会社,,株式会社,東京都,台東区,上野１丁目１７番６号広小路ビル８Ｆ－Ｂ,,13,106,1100005,,,,,,,2026-02-03,1,,,,,ソラスコープ,0
961,5010901058899,新規,0,2026-02-03,2026-02-03,Ｒｅｖｅｌｉｇｈｔ株式会社,,株式会社,東京都,世田谷区,祖師谷６丁目６番２１号,,13,112,1570072,,,,,,,2026-02-03,1,,,,,リベライト,0
965,5011001175197,新規,0,2026-02-03,2026-02-03,ＴｅｒｒａＳｉｇｎａｌ株式会社,,株式会社,東京都,渋谷区,道玄坂１丁目１０－８渋谷道玄坂東急ビル２Ｆ－Ｃ,,13,113,1500043,,,,,,,2026-02-03,1,,,,,テラシグナル,0
966,5011001175214,新規,0,2026-02-03,2026-02-03,Ｗａｓｔｅｌａｎｄｓ　Ｊａｐａｎ株式会社,,株式会社,東京都,渋谷区,恵比寿西１丁目１６番２号恵比寿フラワーマンション６階Ｂ号室,,13,113,1500021,,,,,,,2026-02-03,1,,,,,ウェイストランズジャパン,0
967,5011001175379,新規,0,2026-02-03,2026-02-03,ペンタス株式会社,,株式会社,東京都,渋谷区,代々木２丁目２７番１６号ハイシティ代々木４０７号室,,13,113,1510053,,,,,,,2026-02-03,1,,,,,ペンタス,0
970,5011003023486,新規,0,2026-02-03,2026-02-03,合同会社ピークホテルマネジメント,,合同会社,東京都,目黒区,自由が丘１丁目２４－２２－１階,,13,110,1520035,,,,,,,2026-02-03,1,,,,,ピークホテルマネジメント,0
971,5011005011340,新規,0,2026-02-03,2026-02-03,弁護士法人渋谷ライツ法律事務所,,その他の設立登記法人,東京都,渋谷区,道玄坂１丁目１２番１号渋谷マークシティＷ２２階,,13,113,1500043,,,,,,,2026-02-03,1,,,,,シブヤライツホウリツジムショ,0
977,5011601029356,新規,0,2026-02-03,2026-02-03,株式会社ＴＴＴ,,株式会社,東京都,練馬区,石神井台３丁目２０－１２－２０２,,13,120,1770045,,,,,,,2026-02-03,1,,,,,ティティティ,0
979,5011701029140,新規,0,2026-02-03,2026-02-03,株式会社ＰＯＰｃｏｒｎ,,株式会社,東京都,江戸川区,鹿骨４丁目１８番１２号,,13,123,1330073,,,,,,,2026-02-03,1,,,,,ポップコーン,0
983,5011803007309,新規,0,2026-02-03,2026-02-03,泰進合同会社,,合同会社,東京都,葛飾区,新小岩４丁目３９番５号,,13,122,1240024,,,,,,,2026-02-03,1,,,,,タイシン,0
987,5012701019305,新規,0,2026-02-03,2026-02-03,株式会社Ａｍｐｈｉｘ,,株式会社,東京都,東村山市,萩山町４丁目２番地２８,,13,213,1890012,,,,,,,2026-02-03,1,,,,,アンフィックス,0
991,5013301055673,新規,0,2026-02-03,2026-02-03,株式会社ソウイ,,株式会社,東京都,豊島区,南池袋１丁目１６番１５号ダイヤゲート池袋５階,,13,116,1710022,,,,,,,2026-02-03,1,,,,,ソウイ,0
992,5013301055681,新規,0,2026-02-03,2026-02-03,株式会社Ｎｅｏｓｔｒａ,,株式会社,東京都,豊島区,東池袋２丁目６２番８号ＢＩＧオフィスプラザ池袋１２０６,,13,116,1700013,,,,,,,2026-02-03,1,,,,,ネオストラ,0
993,5013301055698,新規,0,2026-02-03,2026-02-03,株式会社Ｎｅｘｕｓ,,株式会社,東京都,豊島区,上池袋１丁目１１番１号ソラーナ２０１号,,13,116,1700012,,,,,,,2026-02-03,1,,,,,ネクサス,0
1002,5020001166800,新規,0,2026-02-03,2026-02-03,株式会社ＫＫｍａｎａｇｅｍｅｎｔ,,株式会社,神奈川県,横浜市鶴見区,矢向４丁目３１番１０号,,14,101,2300001,,,,,,,2026-02-03,1,,,,,ケーケーマネジメント,0
1003,5020001166890,新規,0,2026-02-03,2026-02-03,株式会社ＹＡＮ商事,,株式会社,神奈川県,横浜市港北区,新羽町１９７５ＫＭ工場新羽町１０３,,14,109,2230057,,,,,,,2026-02-03,1,,,,,エンショウジ,0
1007,5020003030285,新規,0,2026-02-03,2026-02-03,合同会社ティーダ,,合同会社,神奈川県,川崎市川崎区,境町５番１６号メゾンドスーリール２０１,,14,131,2100838,,,,,,,2026-02-03,1,,,,,ティーダ,0
1008,5020005017132,新規,0,2026-02-03,2026-02-03,一般社団法人慈人会,,その他の設立登記法人,神奈川県,川崎市中原区,木月３丁目７－３,,14,133,2110025,,,,,,,2026-02-03,1,,,,,ジジンカイ,0
1011,5021001087391,新規,0,2026-02-03,2026-02-03,株式会社Ｓｏｌａｒｉｓ,,株式会社,神奈川県,横須賀市,鶴が丘２丁目１０番２号,,14,201,2380056,,,,,,,2026-02-03,1,,,,,ソラリス,0
1012,5021001087417,新規,0,2026-02-03,2026-02-03,株式会社千葉研磨,,株式会社,神奈川県,相模原市緑区,橋本台２丁目４番１６号,,14,151,2520132,,,,,,,2026-02-03,1,,,,,チバケンマ,0
1013,5021003017074,新規,0,2026-02-03,2026-02-03,Ｊｕｍｐｉｎｇ　Ｌｉｆｅ合同会社,,合同会社,神奈川県,海老名市,大谷北２丁目１－３３,,14,215,2430419,,,,,,,2026-02-03,1,,,,,ジャンピングライフ,0
1018,5040001142304,新規,0,2026-02-03,2026-02-03,ソラフィール株式会社,,株式会社,千葉県,富里市,七栄７２３番地２コーポマルシン３０１,,12,233,2860221,,,,,,,2026-02-03,1,,,,,ソラフィール,0
1019,5040001142320,新規,0,2026-02-03,2026-02-03,株式会社アールスリー,,株式会社,千葉県,千葉市中央区,矢作町３０１番地３１,,12,101,2600851,,,,,,,2026-02-03,1,,,,,アールスリー,0
1020,5040001142329,新規,0,2026-02-03,2026-02-03,株式会社ビレッジ建設,,株式会社,千葉県,四街道市,みそら１丁目２２番１３号,,12,228,2840023,,,,,,,2026-02-03,1,,,,,ビレッジケンセツ,0
1024,5040003029367,新規,0,2026-02-03,2026-02-03,もりのこ合同会社,,合同会社,千葉県,市川市,富浜３丁目５番１６号,,12,203,2720115,,,,,,,2026-02-03,1,,,,,モリノコ,0
1025,5040003029391,新規,0,2026-02-03,2026-02-03,メントリ合同会社,,合同会社,千葉県,市原市,君塚５丁目４番地４,,12,219,2900051,,,,,,,2026-02-03,1,,,,,メントリ,0
1029,5050001057939,新規,0,2026-02-03,2026-02-03,株式会社Ｌ＆Ｓ,,株式会社,茨城県,神栖市,太田２９８８－１５,,08,232,3140254,,,,,,,2026-02-03,1,,,,,エルアンドエス,0
1030,5050001057947,新規,0,2026-02-03,2026-02-03,株式会社駒城ファーム,,株式会社,茨城県,下妻市,尻手１３４,,08,210,3040071,,,,,,,2026-02-03,1,,,,,コマジョウファーム,0
1031,5060001038970,新規,0,2026-02-03,2026-02-03,株式会社キャリアみらい,,株式会社,栃木県,下野市,石橋２３７番地４ラポルト２０９,,09,216,3290511,,,,,,,2026-02-03,1,,,,,キャリアミライ,0
1032,5070001043796,新規,0,2026-02-03,2026-02-03,株式会社令和ミート,,株式会社,群馬県,渋川市,行幸田６０９番地２,,10,208,3770006,,,,,,,2026-02-03,1,,,,,レイワミート,0
1044,5120001283643,新規,0,2026-02-03,2026-02-03,株式会社ザックレコーズ,,株式会社,大阪府,大阪市北区,西天満４丁目５番５号マーキス梅田５０１号,,27,127,5300047,,,,,,,2026-02-03,1,,,,,ザックレコーズ,0
1045,5120001283916,新規,0,2026-02-03,2026-02-03,株式会社ＳＨＡＤＯＷ　ＰＲＯＪＥＣＴ,,株式会社,大阪府,大阪市旭区,生江１丁目２番１５号,,27,117,5350004,,,,,,,2026-02-03,1,,,,,シャドウプロジェクト,0
1046,5120001283932,新規,0,2026-02-03,2026-02-03,株式会社ＶＥＲＴＵＲ,,株式会社,大阪府,大阪市中央区,平野町１丁目８番１５号,,27,128,5410046,,,,,,,2026-02-03,1,,,,,ヴェルチャー,0
1047,5120003031843,新規,0,2026-02-03,2026-02-03,合同会社めばえ,,合同会社,大阪府,大阪市此花区,伝法２丁目１１番２６号,,27,104,5540002,,,,,,,2026-02-03,1,,,,,メバエ,0
1054,5130001081534,新規,0,2026-02-03,2026-02-03,株式会社ユリシス,,株式会社,京都府,京都市下京区,朱雀内畑町２番地,,26,106,6008843,,,,,,,2026-02-03,1,,,,,ユリシス,0
1062,5170001018961,新規,0,2026-02-03,2026-02-03,株式会社ＡＤＸ,,株式会社,和歌山県,和歌山市,湊御殿１丁目７番地４１,,30,201,6408286,,,,,,,2026-02-03,1,,,,,エーディーエックス,0
1063,5170003002377,新規,0,2026-02-03,2026-02-03,合同会社かたおか農園,,合同会社,和歌山県,日高郡みなべ町,芝４８４番地,,30,391,6450002,,,,,,,2026-02-03,1,,,,,カタオカノウエン,0
1071,5180001170506,新規,0,2026-02-03,2026-02-03,Ｇｌｏｂａｌ　Ｈｏｓｐｉｔａｌｉｔｙ　Ｇｒｏｕｐ　Ａｉｃｈｉ株式会社,,株式会社,愛知県,名古屋市中区,丸の内２丁目１７番１３号ＮＫ丸の内ビル,,23,106,4600002,,,,,,,2026-02-03,1,,,,,グローバルホスピタリティグループアイチ,0
1074,5180003029717,新規,0,2026-02-03,2026-02-03,Ｆｉｎｅ　Ｔｅｃｈｎｏ合同会社,,合同会社,愛知県,知多郡東浦町,大字石浜字岐路６７番地の１エクセルグランデ東浦６０２号,,23,442,4702103,,,,,,,2026-02-03,1,,,,,ファインテクノ,0
1075,5180003029725,新規,0,2026-02-03,2026-02-03,合同会社Ｓｕｎ　ＪＴ　Ｉｎｔｅｒｎａｔｉｏｎａｌ,,合同会社,愛知県,名古屋市緑区,大高町字東森前３２番地１,,23,114,4598001,,,,,,,2026-02-03,1,,,,,サンジェイティインターナショナル,0
1078,5180301040648,新規,0,2026-02-03,2026-02-03,株式会社日幸サービス,,株式会社,愛知県,安城市,三河安城本町２丁目１１番地１,,23,212,4460059,,,,,,,2026-02-03,1,,,,,ニッコウサービス,0
1081,5200001044681,新規,0,2026-02-03,2026-02-03,株式会社奏建設,,株式会社,岐阜県,岐阜市,河渡４丁目１４３番地１,,21,201,5010105,,,,,,,2026-02-03,1,,,,,カナデケンセツ,0
1082,5200003007208,新規,0,2026-02-03,2026-02-03,第一鶴田商事合同会社,,合同会社,岐阜県,羽島郡岐南町,平島５丁目１４６番地,,21,302,5016003,,,,,,,2026-02-03,1,,,,,ダイイチツルタショウジ,0
1088,5230001021273,新規,0,2026-02-03,2026-02-03,Ｔ．Ｄ．Ｆ株式会社,,株式会社,富山県,中新川郡上市町,久金新３１５番地,,16,322,9300388,,,,,,,2026-02-03,1,,,,,ティーディーエフ,0
1091,5250001021528,新規,0,2026-02-03,2026-02-03,アシストグループ・ホールディングス株式会社,,株式会社,山口県,下関市,卸新町８番地５,,35,201,7510818,,,,,,,2026-02-03,1,,,,,アシストグループホールディングス,0
1093,5260001040956,新規,0,2026-02-03,2026-02-03,グリーンソリューション株式会社,,株式会社,岡山県,津山市,山北４９４－５,,33,203,7080004,,,,,,,2026-02-03,1,,,,,グリーンソリューション,0
1095,5260003005503,新規,0,2026-02-03,2026-02-03,合同会社日本岡山自動車科学技術効率向上研究所,,合同会社,岡山県,岡山市北区,奥田本町８番２４号,,33,101,7000932,,,,,,,2026-02-03,1,,,,,ニッポンオカヤマジドウシャカガクギジュツコウリツコウジョウケンキュウショ,0
1097,5290001113008,新規,0,2026-02-03,2026-02-03,株式会社ヒシャカク,,株式会社,福岡県,福岡市中央区,天神４丁目６－２８いちご天神ノースビル７階,,40,133,8100001,,,,,,,2026-02-03,1,,,,,ヒシャカク,0
1101,5290003017999,新規,0,2026-02-03,2026-02-03,日の出合同会社,,合同会社,福岡県,福岡市博多区,博多駅前４丁目２０－５－１０２,,40,132,8120011,,,,,,,2026-02-03,1,,,,,ヒノデ,0
1103,5290005019960,新規,0,2026-02-03,2026-02-03,協同組合ＨＡＫＡＴＡ　ＯＮＥ,,その他の設立登記法人,福岡県,福岡市南区,野多目５丁目９番１７号,,40,134,8111347,,,,,,,2026-02-03,1,,,,,ハカタワン,0
1104,5290801032225,新規,0,2026-02-03,2026-02-03,株式会社陣建舎,,株式会社,福岡県,宮若市,福丸２３９番地１３,,40,226,8220101,,,,,,,2026-02-03,1,,,,,ジンケンシャ,0
1107,5310001019945,新規,0,2026-02-03,2026-02-03,株式会社ＹＭＤ,,株式会社,長崎県,長崎市,浪の平町４－１８－７Ｆ,,42,201,8500936,,,,,,,2026-02-03,1,,,,,ワイエムディ,0
1111,5320001021561,新規,0,2026-02-03,2026-02-03,アプティックス株式会社,,株式会社,大分県,別府市,元町１９番１０号別府ビル４０５,,44,202,8740944,,,,,,,2026-02-03,1,,,,,アプティックス,0
1115,5330001033960,新規,0,2026-02-03,2026-02-03,株式会社Ｅ・Ｊ・パートナーズ,,株式会社,熊本県,熊本市中央区,花畑町１０－２６,,43,101,8600806,,,,,,,2026-02-03,1,,,,,イージェイパートナーズ,0
1125,5360001036291,新規,0,2026-02-03,2026-02-03,株式会社ＤＡＹＳ,,株式会社,沖縄県,豊見城市,字翁長８５４－１ドン・キホーテ内６Ｆ,,47,212,9010223,,,,,,,2026-02-03,1,,,,,デイズ,0
1130,5370003007463,新規,0,2026-02-03,2026-02-03,合同会社Ｏ＆Ｓ,,合同会社,宮城県,柴田郡柴田町,大字船岡字久根添１９番地５,,04,323,9891606,,,,,,,2026-02-03,1,,,,,オーアンドエス,0
1132,5380001035845,新規,0,2026-02-03,2026-02-03,株式会社オオタケ,,株式会社,福島県,会津若松市,湊町大字共和字家ノ下１番地,,07,202,9650202,,,,,,,2026-02-03,1,,,,,オオタケ,0
1137,5400003003608,新規,0,2026-02-03,2026-02-03,東北クリーンエネルギー０９合同会社,,合同会社,岩手県,盛岡市,中屋敷町９番２号,,03,201,0200141,,,,,,,2026-02-03,1,,,,,トウホククリーンエネルギーゼロキュウ,0
1138,5400003003616,新規,0,2026-02-03,2026-02-03,東北クリーンエネルギー１８合同会社,,合同会社,岩手県,盛岡市,中屋敷町９番２号,,03,201,0200141,,,,,,,2026-02-03,1,,,,,トウホククリーンエネルギージュウハチ,0
1139,5400003003624,新規,0,2026-02-03,2026-02-03,東北クリーンエネルギー２６合同会社,,合同会社,岩手県,盛岡市,中屋敷町９番２号,,03,201,0200141,,,,,,,2026-02-03,1,,,,,トウホククリーンエネルギーニジュウロク,0
1140,5400003003632,新規,0,2026-02-03,2026-02-03,東北クリーンエネルギー４０合同会社,,合同会社,岩手県,盛岡市,中屋敷町９番２号,,03,201,0200141,,,,,,,2026-02-03,1,,,,,トウホククリーンエネルギーヨンジュウ,0
1144,5430001096171,新規,0,2026-02-03,2026-02-03,株式会社金商会,,株式会社,北海道,札幌市白石区,中央二条５丁目１５－３ビッグバーンズマンション白石２－１０３,,01,104,0030012,,,,,,,2026-02-03,1,,,,,コンショウカイ,0
1146,5440003001756,新規,0,2026-02-03,2026-02-03,合同会社つばめ日和,,合同会社,北海道,北斗市,東浜２丁目１１－２４,,01,236,0490122,,,,,,,2026-02-03,1,,,,,ツバメビヨリ,0
1149,5470001021076,新規,0,2026-02-03,2026-02-03,株式会社Ｈｏｐｅｇｒａｎｔ,,株式会社,香川県,三豊市,詫間町詫間９５８番地９セジュール詫間Ｃ－２０２,,37,208,7691101,,,,,,,2026-02-03,1,,,,,ホープグラント,0
1151,5480003002379,新規,0,2026-02-03,2026-02-03,合同会社ことみっけ,,合同会社,徳島県,徳島市,北矢三町３丁目６番１８号,,36,201,7700006,,,,,,,2026-02-03,1,,,,,コトミッケ,0
1155,5700150134266,新規,0,2026-02-03,2026-02-03,住友倉庫健康保険組合,,その他,大阪府,大阪市北区,中之島３丁目２番１８号,,27,127,5300005,,,,,,,2026-02-03,1,,,,,スミトモソウコケンコウホケンクミアイ,0
1159,6010001262442,新規,0,2026-02-03,2026-02-03,カーンピュアテックモンゴル株式会社,,株式会社,東京都,中央区,銀座１丁目１２番４号Ｎ＆ＥＢＬＤ．６Ｆ,,13,102,1040061,,,,,,,2026-02-03,1,,,,,カーンピュアテックモンゴル,0
1160,6010001262467,新規,0,2026-02-03,2026-02-03,株式会社ＢＣＪ‐１０４,,株式会社,東京都,千代田区,丸の内１丁目１番１号パレスビル５階,,13,101,1000005,,,,,,,2026-02-03,1,,,,,ビーシージェイワンハンドレッドフォー,0
1165,6010005041322,新規,0,2026-02-03,2026-02-03,ＡＬＭＩＴＥ１一般社団法人,,その他の設立登記法人,東京都,中央区,日本橋１丁目４番１号日本橋一丁目ビルディング,,13,102,1030027,,,,,,,2026-02-03,1,,,,,アルマイトワン,0
1166,6010005041330,新規,0,2026-02-03,2026-02-03,一般社団法人ＮＣコバルトム,,その他の設立登記法人,東京都,千代田区,霞が関３丁目２番５号,,13,101,1000013,,,,,,,2026-02-03,1,,,,,エヌシーコバルトム,0
1172,6010401195894,新規,0,2026-02-03,2026-02-03,株式会社コモディティシステムズ,,株式会社,東京都,港区,浜松町２丁目２番１５号浜松町ダイヤビル２Ｆ,,13,103,1050013,,,,,,,2026-02-03,1,,,,,コモディティシステムズ,0
1173,6010401196158,新規,0,2026-02-03,2026-02-03,橋和株式会社,,株式会社,東京都,港区,六本木３丁目１６番１２号六本木ＫＳビル５Ｆ,,13,103,1060032,,,,,,,2026-02-03,1,,,,,キョウワ,0
1174,6010401196240,新規,0,2026-02-03,2026-02-03,株式会社ＧＬＯＷＭＥＤＩＡ,,株式会社,東京都,港区,北青山１丁目３－３三橋ビル３階,,13,103,1070061,,,,,,,2026-02-03,1,,,,,グロウメディア,0
1176,6010403036989,新規,0,2026-02-03,2026-02-03,合同会社四街道中台地域基盤整備,,合同会社,東京都,港区,南青山３丁目１番３６号６,,13,103,1070062,,,,,,,2026-02-03,1,,,,,ヨツカイドウナカダイチイキキバンセイビ,0
1177,6010403037194,新規,0,2026-02-03,2026-02-03,合同会社Ｕｇｕｉｓｕ,,合同会社,東京都,港区,虎ノ門１丁目２番６号,,13,103,1050001,,,,,,,2026-02-03,1,,,,,ウグイス,0
1178,6010405025313,新規,0,2026-02-03,2026-02-03,麻布台ホールディング１一般社団法人,,その他の設立登記法人,東京都,港区,虎ノ門３丁目２２番１０－２０１号,,13,103,1050001,,,,,,,2026-02-03,1,,,,,アザブダイホールディングワン,0
1186,6010701048901,新規,0,2026-02-03,2026-02-03,株式会社ＬｉｎｋｓＰｏｒｔ,,株式会社,東京都,品川区,西五反田２丁目２７番３号,,13,109,1410031,,,,,,,2026-02-03,1,,,,,リンクスポート,0
1187,6010701048967,新規,0,2026-02-03,2026-02-03,モアブリッジ株式会社,,株式会社,東京都,品川区,西五反田４丁目９番１２号,,13,109,1410031,,,,,,,2026-02-03,1,,,,,モアブリッジ,0
1189,6010801037011,新規,0,2026-02-03,2026-02-03,株式会社Ｂｒｉｄｇｅ８Ｃａｐｉｔａｌ,,株式会社,東京都,大田区,上池台２丁目３４番３号ゼルコーバ洗足池３０３号室,,13,111,1450064,,,,,,,2026-02-03,1,,,,,ブリッジエイトキャピタル,0
1191,6010901058881,新規,0,2026-02-03,2026-02-03,株式会社ワサビ,,株式会社,東京都,世田谷区,太子堂４丁目１８番１５号マガザン三軒茶屋２－３Ｆ－３,,13,112,1540004,,,,,,,2026-02-03,1,,,,,ワサビ,0
1193,6010903010601,新規,0,2026-02-03,2026-02-03,ＳＫＷアセットマネジメント合同会社,,合同会社,東京都,世田谷区,宮坂３丁目５０－１９,,13,112,1560051,,,,,,,2026-02-03,1,,,,,エスケイダブリュアセットマネジメント,0
1206,6011003023469,新規,0,2026-02-03,2026-02-03,ＫＭＡ３合同会社,,合同会社,東京都,渋谷区,道玄坂１丁目１０番８号渋谷道玄坂東急ビル２Ｆ－Ｃ,,13,113,1500043,,,,,,,2026-02-03,1,,,,,ケイエムエイスリー,0
1207,6011003023527,新規,0,2026-02-03,2026-02-03,合同会社ＥＮＯＤＡＴＥ,,合同会社,東京都,渋谷区,円山町５番５号Ｎａｖｉ渋谷Ｖ３階,,13,113,1500044,,,,,,,2026-02-03,1,,,,,エノデイト,0
1216,6011103017049,新規,0,2026-02-03,2026-02-03,合同会社三共総合住宅設備,,合同会社,東京都,新宿区,富久町４０番１５宮本マンション３０２号室,,13,104,1620067,,,,,,,2026-02-03,1,,,,,サンキョウソウゴウジュウタクセツビ,0
1231,6012701019304,新規,0,2026-02-03,2026-02-03,株式会社トラベラーズ・カフェ,,株式会社,東京都,西東京市,芝久保町３丁目２番１３号,,13,229,1880014,,,,,,,2026-02-03,1,,,,,トラベラーズカフェ,0
1233,6012703003462,新規,0,2026-02-03,2026-02-03,ＫＳＩＴ合同会社,,合同会社,東京都,西東京市,谷戸町１丁目２０－１８ＯＮＯ,,13,229,1880001,,,,,,,2026-02-03,1,,,,,ケーエスアイティー,0
1245,6020003030276,新規,0,2026-02-03,2026-02-03,マイティベル合同会社,,合同会社,神奈川県,横浜市泉区,和泉中央北３丁目２６番２６号,,14,116,2450024,,,,,,,2026-02-03,1,,,,,マイティベル,0
1246,6020003030284,新規,0,2026-02-03,2026-02-03,合同会社リッカ,,合同会社,神奈川県,川崎市中原区,中丸子２７６番地２６,,14,133,2110012,,,,,,,2026-02-03,1,,,,,リッカ,0
1250,6021001087408,新規,0,2026-02-03,2026-02-03,株式会社ＫＬＡＡＲ,,株式会社,神奈川県,藤沢市,南藤沢２０－１８長塚第一ビル７階Ａ号室,,14,205,2510055,,,,,,,2026-02-03,1,,,,,クラール,0
1251,6021001087449,新規,0,2026-02-03,2026-02-03,株式会社杉崎,00142428,株式会社,神奈川県,小田原市,高田１７５番地,,14,206,2500216,,,,,,,2026-02-03,1,,,,,スギサキ,0
1258,6030001170791,新規,0,2026-02-03,2026-02-03,株式会社フィールドストーン,,株式会社,埼玉県,川口市,大字安行原１２０１番地の３,,11,203,3340057,,,,,,,2026-02-03,1,,,,,フィールドストーン,0
1273,6050001057913,新規,0,2026-02-03,2026-02-03,株式会社木村人形,,株式会社,茨城県,坂東市,沓掛１３６８番地,,08,228,3060515,,,,,,,2026-02-03,1,,,,,キムラニンギョウ,0
1274,6050001057921,新規,0,2026-02-03,2026-02-03,株式会社Ｒｅｇｅｎ,,株式会社,茨城県,鹿嶋市,宮中２丁目１番３１－３０３号,,08,222,3140031,,,,,,,2026-02-03,1,,,,,リージェン,0
1275,6050001057946,新規,0,2026-02-03,2026-02-03,株式会社ＩＢＵＫＩ,,株式会社,茨城県,高萩市,大字下手綱５２３―２,,08,214,3180003,,,,,,,2026-02-03,1,,,,,イブキ,0
1276,6050003009904,新規,0,2026-02-03,2026-02-03,合同会社Ｌａ　Ｌｕｃｅ,,合同会社,茨城県,牛久市,ひたち野東２丁目１番地１２,,08,219,3001207,,,,,,,2026-02-03,1,,,,,ラルーチェ,0
1277,6050003009912,新規,0,2026-02-03,2026-02-03,合同会社エクステンポレ,,合同会社,茨城県,石岡市,高浜７９３番地１クワトロ高浜１０１号,,08,205,3150045,,,,,,,2026-02-03,1,,,,,エクステンポレ,0
1283,6070001043779,新規,0,2026-02-03,2026-02-03,戸部組ホールディングス株式会社,,株式会社,群馬県,沼田市,西倉内町５０７番地,,10,206,3780042,,,,,,,2026-02-03,1,,,,,トベグミホールディングス,0
1284,6070001043787,新規,0,2026-02-03,2026-02-03,株式会社エルベ,,株式会社,群馬県,沼田市,薄根町３３６１番地１,,10,206,3780031,,,,,,,2026-02-03,1,,,,,エルベ,0
1285,6080401028412,新規,0,2026-02-03,2026-02-03,株式会社美和不動産,,株式会社,静岡県,浜松市中央区,三和町５５９番地,,22,138,4350038,,,,,,,2026-02-03,1,,,,,ミワフドウサン,0
1286,6080401028420,新規,0,2026-02-03,2026-02-03,株式会社グッドインベストメント,,株式会社,静岡県,浜松市中央区,佐鳴台６丁目１２番２７－５号,,22,138,4328021,,,,,,,2026-02-03,1,,,,,グッドインベストメント,0
1301,6120001283782,新規,0,2026-02-03,2026-02-03,株式会社ゼロテック,,株式会社,大阪府,大阪市北区,梅田１丁目２番２号大阪駅前第２ビル１２の１２,,27,127,5300001,,,,,,,2026-02-03,1,,,,,ゼロテック,0
1302,6120001283816,新規,0,2026-02-03,2026-02-03,株式会社ＣＯＬ,,株式会社,大阪府,大阪市福島区,福島７丁目２０番１８号シティタワー西梅田１２１０,,27,103,5530003,,,,,,,2026-02-03,1,,,,,シーオーエル,0
1303,6120001283873,新規,0,2026-02-03,2026-02-03,池田泉州Ｍ＆Ａソリューション株式会社,,株式会社,大阪府,大阪市北区,茶屋町１８番１４号,,27,127,5300013,,,,,,,2026-02-03,1,,,,,イケダセンシュウエムアンドエーソリューション,0
1304,6120001283923,新規,0,2026-02-03,2026-02-03,株式会社善太郎,,株式会社,大阪府,大阪市中央区,南久宝寺町１丁目６番１号ＣＯＮＣＯＭ堺筋本町Ｓｏｕｔｈ４Ｆ,,27,128,5410058,,,,,,,2026-02-03,1,,,,,ゼンタロウ,0
1313,6140001141526,新規,0,2026-02-03,2026-02-03,リノワン不動産株式会社,,株式会社,兵庫県,姫路市,北今宿２丁目１番１０号,,28,201,6700057,,,,,,,2026-02-03,1,,,,,リノワンフドウサン,0
1317,6150001028706,新規,0,2026-02-03,2026-02-03,株式会社大和ＩＧＮＩＴＥ,,株式会社,奈良県,奈良市,藤ノ木台２丁目１９番２号,,29,201,6310044,,,,,,,2026-02-03,1,,,,,ヤマトイグナイト,0
1325,6180001170414,新規,0,2026-02-03,2026-02-03,株式会社アルコトハ,,株式会社,愛知県,名古屋市南区,呼続１丁目６番２号,,23,112,4570014,,,,,,,2026-02-03,1,,,,,アルコトハ,0
1326,6180001170505,新規,0,2026-02-03,2026-02-03,株式会社ゆたか,,株式会社,愛知県,名古屋市中川区,九重町３番１０号,,23,110,4540808,,,,,,,2026-02-03,1,,,,,ユタカ,0
1327,6180001170513,新規,0,2026-02-03,2026-02-03,石垣アセット株式会社,,株式会社,愛知県,清須市,西枇杷島町古城１丁目１０番地７,,23,233,4520001,,,,,,,2026-02-03,1,,,,,イシガキアセット,0
1329,6180301040655,新規,0,2026-02-03,2026-02-03,株式会社ソルヴィータ,,株式会社,愛知県,豊橋市,小池町７７－１メゾン・ド・アミー１１０号室,,23,201,4418042,,,,,,,2026-02-03,1,,,,,ソルヴィータ,0
1336,6200001044680,新規,0,2026-02-03,2026-02-03,ＡＲＩＳＥ株式会社,,株式会社,岐阜県,可児市,大森台１丁目７６番地,,21,214,5090239,,,,,,,2026-02-03,1,,,,,アライズ,0
1337,6210001020482,新規,0,2026-02-03,2026-02-03,前川工務店株式会社,,株式会社,福井県,大野市,中野町１丁目１番１６号,,18,205,9120021,,,,,,,2026-02-03,1,,,,,マエガワコウムテン,0
1344,6230001021280,新規,0,2026-02-03,2026-02-03,株式会社ＩＮＸ,,株式会社,富山県,砺波市,太郎丸６５６８番地１,,16,208,9391363,,,,,,,2026-02-03,1,,,,,インクス,0
1349,6240001066110,新規,0,2026-02-03,2026-02-03,株式会社Ｔ．Ｓ．Ｋ,,株式会社,広島県,福山市,神島町２番３３号,,34,207,7200091,,,,,,,2026-02-03,1,,,,,ティエスケイ,0
1350,6240001066127,新規,0,2026-02-03,2026-02-03,株式会社Ｓａｌｅｓｂｏｘ,,株式会社,広島県,広島市中区,中町６‐３０‐４Ｆ,,34,101,7300037,,,,,,,2026-02-03,1,,,,,セールスボックス,0
1352,6250001021527,新規,0,2026-02-03,2026-02-03,モノｔｏココロ株式会社,,株式会社,山口県,山口市,小郡下郷１５４５番地５,,35,203,7540002,,,,,,,2026-02-03,1,,,,,モノトココロ,0
1354,6260001040955,新規,0,2026-02-03,2026-02-03,株式会社ＭＩＫＯＳＩ,,株式会社,岡山県,倉敷市,児島下の町５丁目１番５０号,,33,202,7110906,,,,,,,2026-02-03,1,,,,,ミコシ,0
1355,6260003005502,新規,0,2026-02-03,2026-02-03,合同会社ＡＲＣ,,合同会社,岡山県,岡山市南区,福富中２丁目１３番１５号,,33,104,7028032,,,,,,,2026-02-03,1,,,,,アーク,0
1367,6290801032232,新規,0,2026-02-03,2026-02-03,マスダ空調株式会社,,株式会社,福岡県,北九州市八幡西区,金剛３丁目４番５号,,40,109,8071263,,,,,,,2026-02-03,1,,,,,マスダクウチョウ,0
1380,6330003011410,新規,0,2026-02-03,2026-02-03,合同会社ＳＡＩ,,合同会社,熊本県,熊本市東区,渡鹿８丁目１２番１１号,,43,102,8620970,,,,,,,2026-02-03,1,,,,,サイ,0
1383,6340001027944,新規,0,2026-02-03,2026-02-03,株式会社ｈａｒｕ,,株式会社,鹿児島県,鹿児島市,松原町５番７号,,46,201,8920833,,,,,,,2026-02-03,1,,,,,ハル,0
1390,6370003007462,新規,0,2026-02-03,2026-02-03,合同会社ＰＨＯＴＯ　ＳＴＵＤＩＯ２００１,,合同会社,宮城県,仙台市青葉区,本町１丁目１３番２２号,,04,101,9800014,,,,,,,2026-02-03,1,,,,,フォトスタジオニゼロゼロイチ,0
1391,6380001035836,新規,0,2026-02-03,2026-02-03,株式会社ＲＩＳＥ,,株式会社,福島県,郡山市,大槻町字六角北４１番地の１３,,07,203,9630201,,,,,,,2026-02-03,1,,,,,ライズ,0
1395,6400003003607,新規,0,2026-02-03,2026-02-03,東北クリーンエネルギー０８合同会社,,合同会社,岩手県,盛岡市,中屋敷町９番２号,,03,201,0200141,,,,,,,2026-02-03,1,,,,,トウホククリーンエネルギーゼロハチ,0
1396,6400003003615,新規,0,2026-02-03,2026-02-03,東北クリーンエネルギー１７合同会社,,合同会社,岩手県,盛岡市,中屋敷町９番２号,,03,201,0200141,,,,,,,2026-02-03,1,,,,,トウホククリーンエネルギージュウナナ,0
1397,6400003003623,新規,0,2026-02-03,2026-02-03,東北クリーンエネルギー２５合同会社,,合同会社,岩手県,盛岡市,中屋敷町９番２号,,03,201,0200141,,,,,,,2026-02-03,1,,,,,トウホククリーンエネルギーニジュウゴ,0
1398,6400003003631,新規,0,2026-02-03,2026-02-03,東北クリーンエネルギー３９合同会社,,合同会社,岩手県,盛岡市,中屋敷町９番２号,,03,201,0200141,,,,,,,2026-02-03,1,,,,,トウホククリーンエネルギーサンジュウキュウ,0
1406,6440003001755,新規,0,2026-02-03,2026-02-03,合同会社グレンリベット,,合同会社,北海道,函館市,白鳥町１番４－２０３号,,01,202,0400082,,,,,,,2026-02-03,1,,,,,グレンリベット,0
1413,6500001026756,新規,0,2026-02-03,2026-02-03,株式会社ＨＴハピネスト,,株式会社,愛媛県,松山市,千舟町５丁目３番地１７,,38,201,7900011,,,,,,,2026-02-03,1,,,,,エイチティーハピネスト,0
1415,6700150042914,新規,0,2026-02-03,2015-10-09,江南ロータリークラブ,,その他,愛知県,江南市,古知野町小金１１２,,23,217,4838205,,,,,,,2015-10-09,1,,,,,コウナンロータリークラブ,0
1416,6700150134265,新規,0,2026-02-03,2026-02-03,ＮＡＶＹＡ　ＭＯＢＩＬＩＴＹ　ＳＡＳ,,外国会社等,神奈川県,横浜市港北区,新横浜１丁目６－３　マクニカ第１ビル,,14,109,2220033,フランス共和国、リヨン、ビルールバンヌ、ドクター・フルーリー・ピエール・パピヨン通り１,,,,,,2026-02-03,1,,,,,ナビヤモビリテイーエスエーエス,0
1427,7010001262466,新規,0,2026-02-03,2026-02-03,株式会社ＢＣＪ‐１０３‐２,,株式会社,東京都,千代田区,丸の内１丁目１番１号パレスビル５階,,13,101,1000005,,,,,,,2026-02-03,1,,,,,ビーシージェイワンハンドレッドスリートゥー,0
1429,7010003050200,新規,0,2026-02-03,2026-02-03,千葉北ファシリティ合同会社,,合同会社,東京都,中央区,日本橋１丁目４番１号日本橋一丁目ビルディング,,13,102,1030027,,,,,,,2026-02-03,1,,,,,チバキタファシリティ,0
1430,7010003050258,新規,0,2026-02-03,2026-02-03,合同会社ＭＯＮＴ,,合同会社,東京都,中央区,日本橋室町１丁目１１番１２号日本橋水野ビル７階,,13,102,1030022,,,,,,,2026-02-03,1,,,,,モント,0
1431,7010005041321,新規,0,2026-02-03,2026-02-03,一般社団法人グローバル技術研究所,,その他の設立登記法人,東京都,中央区,八丁堀２丁目２７番６号エイケイエス八丁堀ビル２階,,13,102,1040032,,,,,,,2026-02-03,1,,,,,グローバルギジュツケンキュウジョ,0
1437,7010401196198,新規,0,2026-02-03,2026-02-03,株式会社ＨＵ　Ｐａｒｔｎｅｒｓ,,株式会社,東京都,港区,浜松町１丁目１３番２―１４０８号,,13,103,1050013,,,,,,,2026-02-03,1,,,,,エイチユーパートナーズ,0
1439,7010403037210,新規,0,2026-02-03,2026-02-03,ＲｅＶｉｔａＬｉｆｅ　Ｉｎｓｔｉｔｕｔｅ合同会社,,合同会社,東京都,港区,南青山２丁目２－１５,,13,103,1070062,,,,,,,2026-02-03,1,,,,,リバイタライフインスティテュート,0
1441,7010501055386,新規,0,2026-02-03,2026-02-03,株式会社ＯＲＩＧＡＭＩ,,株式会社,東京都,台東区,浅草２丁目２２番８号田中ビル３階,,13,106,1110032,,,,,,,2026-02-03,1,,,,,オリガミ,0
1445,7010801037010,新規,0,2026-02-03,2026-02-03,株式会社ＯＮＥ　ＦＡＣＴＯＲＹ,,株式会社,東京都,大田区,羽田空港１丁目１番４号ＨＩＣｉｔｙＺｏｎｅＫ２０１号室,,13,111,1440041,,,,,,,2026-02-03,1,,,,,ワンファクトリー,0
1448,7010901058906,新規,0,2026-02-03,2026-02-03,株式会社百工,,株式会社,東京都,世田谷区,下馬１丁目２０番１２号,,13,112,1540002,,,,,,,2026-02-03,1,,,,,ヒャッコウ,0
1450,7011001174981,新規,0,2026-02-03,2026-02-03,ＥｔａＦｏｒｃｅ　ＡＩ株式会社,,株式会社,東京都,渋谷区,道玄坂１丁目１０番８号渋谷道玄坂東急ビル２Ｆ－Ｃ,,13,113,1500043,,,,,,,2026-02-03,1,,,,,エタフォースエイアイ,0
1451,7011001175162,新規,0,2026-02-03,2026-02-03,オートディーラー株式会社,,株式会社,東京都,渋谷区,道玄坂１丁目１０－８渋谷道玄坂東急ビル２Ｆ－Ｃ,,13,113,1500043,,,,,,,2026-02-03,1,,,,,オートディーラー,0
1452,7011001175237,新規,0,2026-02-03,2026-02-03,株式会社ＭＫＨＲ,,株式会社,東京都,目黒区,目黒１丁目３番３１－１２０１号パビヨン目黒,,13,110,1530063,,,,,,,2026-02-03,1,,,,,エムケーエイチアール,0
1456,7011003023526,新規,0,2026-02-03,2026-02-03,合同会社ＡＮＴＶＩＬＬＡＧＥ,,合同会社,東京都,渋谷区,道玄坂１丁目１０番８号渋谷道玄坂東急ビル２Ｆ－Ｃ,,13,113,1500043,,,,,,,2026-02-03,1,,,,,アントビレッジ,0
1458,7011005011339,新規,0,2026-02-03,2026-02-03,Ｏ２社会保険労務士法人,,その他の設立登記法人,東京都,渋谷区,神南１丁目１２－１４渋谷宮田ビル６１０,,13,113,1500041,,,,,,,2026-02-03,1,,,,,オーツー,0
1474,7012301014704,新規,0,2026-02-03,2026-02-03,株式会社政,,株式会社,東京都,町田市,図師町２３９番地８３号,,13,209,1940203,,,,,,,2026-02-03,1,,,,,マツリゴト,0
1475,7012303002285,新規,0,2026-02-03,2026-02-03,合同会社シーエーピー,,合同会社,東京都,町田市,三輪町６２番地１,,13,209,1950054,,,,,,,2026-02-03,1,,,,,シーエーピー,0
1479,7013301055696,新規,0,2026-02-03,2026-02-03,株式会社ヒストリエ,,株式会社,東京都,豊島区,東池袋２丁目６２番８号ＢＩＧオフィスプラザ池袋１２０６,,13,116,1700013,,,,,,,2026-02-03,1,,,,,ヒストリエ,0
1481,7013303008082,新規,0,2026-02-03,2026-02-03,合同会社Ｌｕｄａｒｋ,,合同会社,東京都,豊島区,南大塚２丁目１１－１０ミモザビル３階,,13,116,1700005,,,,,,,2026-02-03,1,,,,,ルダーク,0
1489,7020001166848,新規,0,2026-02-03,2026-02-03,株式会社シータ,,株式会社,神奈川県,横浜市中区,不老町１丁目２－１中央第六関内ビル３０２,,14,104,2310032,,,,,,,2026-02-03,1,,,,,シータ,0
1490,7020001166880,新規,0,2026-02-03,2026-02-03,株式会社ＳＭＩＬＥ　ＷＯＲＫＳ,,株式会社,神奈川県,横浜市泉区,白百合３丁目３２－１５グリーンハイツ西ケ谷２０２号室,,14,116,2450005,,,,,,,2026-02-03,1,,,,,スマイルワークス,0
1491,7020001166947,新規,0,2026-02-03,2026-02-03,ｅｃｏｒｏ株式会社,,株式会社,神奈川県,横浜市西区,みなとみらい２丁目２－１ランドマークタワー,,14,103,2200012,,,,,,,2026-02-03,1,,,,,エコロ,0
1494,7020003030242,新規,0,2026-02-03,2026-02-03,ＬＵＭＩＮ　ＤＡＴＡ合同会社,,合同会社,神奈川県,横浜市西区,南幸２丁目１６－１２－９１３,,14,103,2200005,,,,,,,2026-02-03,1,,,,,ルミンデータ,0
1495,7021001087398,新規,0,2026-02-03,2026-02-03,ＨＡＰＰＹ　ＲＥＮＴＣＡＲ株式会社,,株式会社,神奈川県,足柄下郡箱根町,湯本３８６－３８－１階Ａ号室,,14,382,2500311,,,,,,,2026-02-03,1,,,,,ハッピーレンタカー,0
1497,7030001170709,新規,0,2026-02-03,2026-02-03,株式会社Ｇｏｌｄｅｎ　Ｋｅｙ,,株式会社,埼玉県,川口市,南町１丁目１４番８号,,11,203,3320026,,,,,,,2026-02-03,1,,,,,ゴールデンキー,0
1498,7030001170808,新規,0,2026-02-03,2026-02-03,浩安株式会社,,株式会社,埼玉県,さいたま市西区,西大宮３丁目２８番地１８,,11,101,3310078,,,,,,,2026-02-03,1,,,,,コウアン,0
1501,7040001142302,新規,0,2026-02-03,2026-02-03,株式会社ＭＡＩＫＡ,,株式会社,千葉県,富津市,不入斗１９３番地,,12,226,2991613,,,,,,,2026-02-03,1,,,,,マイカ,0
1502,7040001142310,新規,0,2026-02-03,2026-02-03,株式会社ＳＡＫＡＲＩ,,株式会社,千葉県,市原市,ちはら台東５丁目１番地１１,,12,219,2900141,,,,,,,2026-02-03,1,,,,,サカリ,0
1503,7040001142319,新規,0,2026-02-03,2026-02-03,株式会社Ａｃｔ,,株式会社,千葉県,千葉市中央区,中央３丁目１８番３号,,12,101,2600013,,,,,,,2026-02-03,1,,,,,アクト,0
1517,7090001019719,新規,0,2026-02-03,2026-02-03,株式会社ＬＵＭＩＮＡ,,株式会社,山梨県,甲府市,朝気２丁目１番２２号,,19,201,4000862,,,,,,,2026-02-03,1,,,,,ルミナ,0
1525,7110003006043,新規,0,2026-02-03,2026-02-03,ＩＣＡＭＰ　ＡＤＶＥＮＴＵＲＥ合同会社,,合同会社,新潟県,南魚沼郡湯沢町,大字三国１７７番地,,15,461,9496212,,,,,,,2026-02-03,1,,,,,アイキャンプアドベンチャー,0
1535,7120003031817,新規,0,2026-02-03,2026-02-03,合同会社手羽先の先へ,,合同会社,大阪府,守口市,佐太中町４丁目７－１,,27,209,5700002,,,,,,,2026-02-03,1,,,,,テバサキノサキヘ,0
1540,7120901052170,新規,0,2026-02-03,2026-02-03,株式会社Ａｍａｚｉｎｇ　Ａｐｐｌｅ,,株式会社,大阪府,吹田市,吹東町１２番１号,,27,205,5640014,,,,,,,2026-02-03,1,,,,,アメイジングアップル,0
1542,7120903006059,新規,0,2026-02-03,2026-02-03,合同会社エーシーズ,,合同会社,大阪府,豊中市,浜１丁目２８番１１－１０７号,,27,203,5610817,,,,,,,2026-02-03,1,,,,,エーシーズ,0
1543,7130001081499,新規,0,2026-02-03,2026-02-03,株式会社想紡,,株式会社,京都府,京都市中京区,高倉通三条下る丸屋町１７０番地プリオーレ京都三条高倉１５号,,26,104,6048132,,,,,,,2026-02-03,1,,,,,ソウボウ,0
1546,7140001141533,新規,0,2026-02-03,2026-02-03,株式会社桜妃,,株式会社,兵庫県,加西市,北条町５５８番地の５－１Ｆ,,28,220,6750000,,,,,,,2026-02-03,1,,,,,オウキ,0
1547,7140001141582,新規,0,2026-02-03,2026-02-03,株式会社ＳＡＳグリーン,,株式会社,兵庫県,神戸市東灘区,御影本町３丁目３番１２号,,28,101,6580046,,,,,,,2026-02-03,1,,,,,エスエーエスグリーン,0
1548,7140001141616,新規,0,2026-02-03,2026-02-03,株式会社あのね,,株式会社,兵庫県,神戸市長田区,松野通３丁目２番１４号,,28,106,6530841,,,,,,,2026-02-03,1,,,,,アノネ,0
1553,7150003003821,新規,0,2026-02-03,2026-02-03,ＬＶ　Ｍｅｄｉａ合同会社,,合同会社,奈良県,磯城郡田原本町,大字宮古２３５－７,,29,363,6360302,,,,,,,2026-02-03,1,,,,,エルブイメディア,0
1554,7150005009759,新規,0,2026-02-03,2026-02-03,医療法人口福会,,その他の設立登記法人,奈良県,磯城郡田原本町,大字阪手１８７－６,,29,363,6360247,,,,,,,2026-02-03,1,,,,,コウフクカイ,0
1571,7180001170512,新規,0,2026-02-03,2026-02-03,株式会社丸十プランニング,,株式会社,愛知県,名古屋市中村区,名駅３丁目１３番２８号名駅セブンスタービル８０６号室,,23,105,4500002,,,,,,,2026-02-03,1,,,,,マルジュウプランニング,0
1575,7180003029723,新規,0,2026-02-03,2026-02-03,合同会社ＵＬＵＬＡ,,合同会社,愛知県,名古屋市千種区,東明町３丁目１０－４０９,,23,101,4640028,,,,,,,2026-02-03,1,,,,,ウルラ,0
1578,7180303006884,新規,0,2026-02-03,2026-02-03,合同会社Ｓｍｉｌｅ　Ｊｏｙ,,合同会社,愛知県,碧南市,浅間町２丁目２４番地４,,23,209,4470865,,,,,,,2026-02-03,1,,,,,スマイルジョイ,0
1583,7190005012115,新規,0,2026-02-03,2026-02-03,税理士法人小川・井熊会計事務所,,その他の設立登記法人,三重県,津市,丸之内３４番２号,,24,201,5140033,,,,,,,2026-02-03,1,,,,,オガワイクマカイケイジムショ,0
1585,7200001044655,新規,0,2026-02-03,2026-02-03,Ｌｉｂｅｒ　Ｓｅｅｋ株式会社,,株式会社,岐阜県,安八郡神戸町,大字加納３７９番地の４,,21,381,5032325,,,,,,,2026-02-03,1,,,,,リベルシーク,0
1589,7210001020481,新規,0,2026-02-03,2026-02-03,株式会社神田工業,,株式会社,福井県,福井市,中毘沙門町４字２番地２の２,,18,201,9102145,,,,,,,2026-02-03,1,,,,,カンダコウギョウ,0
1590,7220001027154,新規,0,2026-02-03,2026-02-03,株式会社イクイブリッジズ,,株式会社,石川県,金沢市,角間町金沢大学未来知実証センター,,17,201,9201164,,,,,,,2026-02-03,1,,,,,イクイブリッジズ,0
1596,7250001021526,新規,0,2026-02-03,2026-02-03,株式会社Ｂｌｕｅ　Ｌｏｔｕｓ,,株式会社,山口県,岩国市,車町１丁目１３番１５号,,35,208,7400026,,,,,,,2026-02-03,1,,,,,ブルーロータス,0
1597,7260001040954,新規,0,2026-02-03,2026-02-03,株式会社豊和鋼業,,株式会社,岡山県,浅口郡里庄町,大字里見４２１３番地２,,33,445,7190301,,,,,,,2026-02-03,1,,,,,ホウワコウギョウ,0
1598,7260001040962,新規,0,2026-02-03,2026-02-03,星宅不動産株式会社,,株式会社,岡山県,岡山市北区,高柳西町１３番１号ロッソ２０１号,,33,101,7000035,,,,,,,2026-02-03,1,,,,,セイタクフドウサン,0
1600,7260005011571,新規,0,2026-02-03,2026-02-03,一般社団法人ＧＯＯＤ　ＰＬＡＹ,,その他の設立登記法人,岡山県,英田郡西粟倉村,大字影石１７７６番地,,33,643,7070503,,,,,,,2026-02-03,1,,,,,グッドプレイ,0
1603,7290001113006,新規,0,2026-02-03,2026-02-03,ＳＡＫＵＲＡ　ＬＩＮＫ株式会社,,株式会社,福岡県,糸島市,高田１丁目８－２,,40,230,8191102,,,,,,,2026-02-03,1,,,,,サクラリンク,0
1604,7290001113039,新規,0,2026-02-03,2026-02-03,株式会社七つ葉不動産,,株式会社,福岡県,福岡市南区,野間２丁目４－１,,40,134,8150041,,,,,,,2026-02-03,1,,,,,ナナツバフドウサン,0
1608,7290005019983,新規,0,2026-02-03,2026-02-03,一般社団法人郷土を愛する福岡県民の会,,その他の設立登記法人,福岡県,糟屋郡志免町,桜丘５丁目１２番４号,,40,343,8112201,,,,,,,2026-02-03,1,,,,,キョウドヲアイスルフクオカケンミンノカイ,0
1609,7290801032223,新規,0,2026-02-03,2026-02-03,株式会社本郷設備工業,,株式会社,福岡県,行橋市,大字大橋１２９７番地８,,40,213,8240003,,,,,,,2026-02-03,1,,,,,ホンゴウセツビコウギョウ,0
1611,7300005007292,新規,0,2026-02-03,2026-02-03,一般社団法人吉野ヶ里町観光協会,,その他の設立登記法人,佐賀県,神埼郡吉野ヶ里町,吉田１２６２番地２,,41,327,8420031,,,,,,,2026-02-03,1,,,,,ヨシノガリチョウカンコウキョウカイ,0
1614,7310005008892,新規,0,2026-02-03,2026-02-03,一般社団法人長与北児童クラブ,,その他の設立登記法人,長崎県,西彼杵郡長与町,斉藤郷４３１番地１６,,42,307,8512129,,,,,,,2026-02-03,1,,,,,ナガヨキタジドウクラブ,0
1619,7320005010286,新規,0,2026-02-03,2026-02-03,一般社団法人だいだい公社,,その他の設立登記法人,大分県,中津市,耶馬溪町大字平田１３８７番地３平田へき地教員住宅３,,44,203,8710401,,,,,,,2026-02-03,1,,,,,ダイダイコウシャ,0
1639,7400003003606,新規,0,2026-02-03,2026-02-03,東北クリーンエネルギー０７合同会社,,合同会社,岩手県,盛岡市,中屋敷町９番２号,,03,201,0200141,,,,,,,2026-02-03,1,,,,,トウホククリーンエネルギーゼロナナ,0
1640,7400003003614,新規,0,2026-02-03,2026-02-03,東北クリーンエネルギー１６合同会社,,合同会社,岩手県,盛岡市,中屋敷町９番２号,,03,201,0200141,,,,,,,2026-02-03,1,,,,,トウホククリーンエネルギージュウロク,0
1641,7400003003622,新規,0,2026-02-03,2026-02-03,東北クリーンエネルギー２４合同会社,,合同会社,岩手県,盛岡市,中屋敷町９番２号,,03,201,0200141,,,,,,,2026-02-03,1,,,,,トウホククリーンエネルギーニジュウヨン,0
1642,7400003003630,新規,0,2026-02-03,2026-02-03,東北クリーンエネルギー３２合同会社,,合同会社,岩手県,盛岡市,中屋敷町９番２号,,03,201,0200141,,,,,,,2026-02-03,1,,,,,トウホククリーンエネルギーサンジュウニ,0
1646,7430001096178,新規,0,2026-02-03,2026-02-03,株式会社エスティー,,株式会社,北海道,札幌市中央区,北五条西８丁目１番地１,,01,101,0600005,,,,,,,2026-02-03,1,,,,,エスティー,0
1653,7500001026755,新規,0,2026-02-03,2026-02-03,Ｂｌｏｏｍ　Ｌａｂｏ株式会社,,株式会社,愛媛県,松山市,会津町６番１８号Ｐａｓｔｏｒａｌｅ．Ｔ．１９４０Ａ号,,38,201,7918076,,,,,,,2026-02-03,1,,,,,ブルームラボ,0
1663,8010001262399,新規,0,2026-02-03,2026-02-03,株式会社Ｌｉｎｔｏ　Ｍｏｔ,,株式会社,東京都,中央区,銀座１丁目１２番４号Ｎ＆Ｅ・ＢＬＤ．６Ｆ,,13,102,1040061,,,,,,,2026-02-03,1,,,,,リントモット,0
1664,8010001262465,新規,0,2026-02-03,2026-02-03,株式会社ＢＣＪ‐１０３‐１,,株式会社,東京都,千代田区,丸の内１丁目１番１号パレスビル５階,,13,101,1000005,,,,,,,2026-02-03,1,,,,,ビーシージェイワンハンドレッドスリーワン,0
1665,8010001262481,新規,0,2026-02-03,2026-02-03,株式会社ＦＦＲＩセキュリティワークス,,株式会社,東京都,千代田区,丸の内３丁目３番１号,,13,101,1000005,,,,,,,2026-02-03,1,,,,,エフエフアールアイセキュリティワークス,0
1674,8010401196189,新規,0,2026-02-03,2026-02-03,株式会社ＮＥＸＴ,,株式会社,東京都,港区,麻布十番１丁目２番７号７０１,,13,103,1060045,,,,,,,2026-02-03,1,,,,,ネクスト,0
1675,8010401196230,新規,0,2026-02-03,2026-02-03,株式会社グルミナ,,株式会社,東京都,港区,芝１丁目１２番３－５０３号,,13,103,1050014,,,,,,,2026-02-03,1,,,,,グルミナ,0
1676,8010401196247,新規,0,2026-02-03,2026-02-03,株式会社喜多八不動産,,株式会社,東京都,港区,港南２丁目１０番２３－５０９号,,13,103,1080075,,,,,,,2026-02-03,1,,,,,キタハチフドウサン,0
1685,8010503008168,新規,0,2026-02-03,2026-02-03,合同会社文化工房ＰＬＡＮ‐Ｂ,,合同会社,東京都,台東区,谷中２丁目５－８クリエイトハウス谷中２０８,,13,106,1100001,,,,,,,2026-02-03,1,,,,,ブンカコウボウプランビー,0
1687,8010601068659,新規,0,2026-02-03,2026-02-03,１ＮＩＷＡ株式会社,,株式会社,東京都,江東区,豊洲３丁目４－１－２２０１号,,13,108,1350061,,,,,,,2026-02-03,1,,,,,イチニワ,0
1688,8010601068675,新規,0,2026-02-03,2026-02-03,株式会社Ｊｕｕ,,株式会社,東京都,江東区,豊洲６丁目２番２９－３１５号,,13,108,1350061,,,,,,,2026-02-03,1,,,,,ジュー,0
1690,8010605004552,新規,0,2026-02-03,2026-02-03,行政書士法人萬栄リーガルパートナーズ,,その他の設立登記法人,東京都,墨田区,横綱二丁目５番１０号,,13,107,1300000,,,,,,,2026-02-03,1,,,,,マンエイリーガルパートナーズ,0
1693,8010901058863,新規,0,2026-02-03,2026-02-03,株式会社一乃志社中,,株式会社,東京都,世田谷区,岡本３丁目３０番９号,,13,112,1570076,,,,,,,2026-02-03,1,,,,,イチノシシャチュウ,0
1703,8011001175228,新規,0,2026-02-03,2026-02-03,株式会社Ｊ‐ＷＧＥ,,株式会社,東京都,渋谷区,渋谷２丁目２番１６号,,13,113,1500002,,,,,,,2026-02-03,1,,,,,ジェーダブリュージーイー,0
1721,8011603004998,新規,0,2026-02-03,2026-02-03,櫻フォーム合同会社,,合同会社,東京都,練馬区,田柄５丁目４番２０号,,13,120,1790073,,,,,,,2026-02-03,1,,,,,サクラフォーム,0
1725,8012301014703,新規,0,2026-02-03,2026-02-03,株式会社ＴＯＫＹＯ　ＧＡＧ,,株式会社,東京都,町田市,小野路町４４５２－１３８,,13,209,1950064,,,,,,,2026-02-03,1,,,,,トウキョウジーク,0
1726,8012401044088,新規,0,2026-02-03,2026-02-03,バースデー株式会社,,株式会社,東京都,三鷹市,下連雀３丁目２２－１５、１階,,13,204,1810013,,,,,,,2026-02-03,1,,,,,バースデー,0
1727,8012401044096,新規,0,2026-02-03,2026-02-03,株式会社リベテラス,,株式会社,東京都,武蔵野市,吉祥寺本町２丁目８番４号ｉ－ｏｆｆｉｃｅ吉祥寺,,13,203,1800004,,,,,,,2026-02-03,1,,,,,リベテラス,0
1731,8013303008081,新規,0,2026-02-03,2026-02-03,合同会社ＴＡＫ‐Ｕ,,合同会社,東京都,豊島区,東池袋２丁目６２番８号ＢＩＧオフィスプラザ池袋１２０６,,13,116,1700013,,,,,,,2026-02-03,1,,,,,タクユー,0
1735,8020001166814,新規,0,2026-02-03,2026-02-03,株式会社くらしみらい,,株式会社,神奈川県,横浜市鶴見区,下末吉６丁目１２－１４,,14,101,2300012,,,,,,,2026-02-03,1,,,,,クラシミライ,0
1736,8020001166954,新規,0,2026-02-03,2026-02-03,ＶＹエンジニアリング株式会社,,株式会社,神奈川県,横浜市中区,本牧大里町３３－８－２０６,,14,104,2310823,,,,,,,2026-02-03,1,,,,,ブイワイエンジニアリング,0
1737,8020003030258,新規,0,2026-02-03,2026-02-03,合同会社ミラポルテ,,合同会社,神奈川県,川崎市宮前区,有馬３丁目２３―２２,,14,136,2160003,,,,,,,2026-02-03,1,,,,,ミラポルテ,0
1739,8021001087414,新規,0,2026-02-03,2026-02-03,株式会社ピノ,,株式会社,神奈川県,相模原市中央区,相模原３丁目８番２４号グランディール４０４号室,,14,152,2520231,,,,,,,2026-02-03,1,,,,,ピノ,0
1740,8021001087447,新規,0,2026-02-03,2026-02-03,株式会社ＳＨＵ,,株式会社,神奈川県,厚木市,温水２２９１番地,,14,212,2430033,,,,,,,2026-02-03,1,,,,,シュウ,0
1745,8030001170773,新規,0,2026-02-03,2026-02-03,株式会社水蘭,,株式会社,埼玉県,さいたま市浦和区,神明１丁目９番８号レインボー神明３０２,,11,107,3300065,,,,,,,2026-02-03,1,,,,,スイラン,0
1754,8040001142243,新規,0,2026-02-03,2026-02-03,株式会社ブリーズデザイン,,株式会社,千葉県,茂原市,下永吉３４４－１・２Ｆ,,12,210,2970035,,,,,,,2026-02-03,1,,,,,ブリーズデザイン,0
1755,8040001142292,新規,0,2026-02-03,2026-02-03,株式会社ＨＯＭＥＹ,,株式会社,千葉県,白井市,桜台４丁目８番１５号,,12,232,2701412,,,,,,,2026-02-03,1,,,,,ホーミー,0
1756,8040001142318,新規,0,2026-02-03,2026-02-03,株式会社インスパイア,,株式会社,千葉県,千葉市中央区,中央３丁目１８番３号,,12,101,2600013,,,,,,,2026-02-03,1,,,,,インスパイア,0
1764,8050001057911,新規,0,2026-02-03,2026-02-03,株式会社筑波新光,,株式会社,茨城県,つくば市,春日３丁目１９番地２センチ　ュリーつくば壱番館１０１,,08,220,3050821,,,,,,,2026-02-03,1,,,,,ツクバシンコウ,0
1768,8050003009910,新規,0,2026-02-03,2026-02-03,Ｙａｍａｂｉｃｏ合同会社,,合同会社,茨城県,つくば市,上郷１７７３番地１４,,08,220,3002645,,,,,,,2026-02-03,1,,,,,ヤマビコ,0
1774,8070001043793,新規,0,2026-02-03,2026-02-03,株式会社アーガマ,,株式会社,群馬県,高崎市,下之城町５７２番地,,10,202,3700854,,,,,,,2026-02-03,1,,,,,アーガマ,0
1786,8100005013442,新規,0,2026-02-03,2026-02-03,一般社団法人其々,,その他の設立登記法人,長野県,小諸市,大字八満９３番地９９,,20,208,3840051,,,,,,,2026-02-03,1,,,,,ソレゾレ,0
1793,8120001283731,新規,0,2026-02-03,2026-02-03,ＥｖｅｒＬｅａｆ株式会社,,株式会社,大阪府,枚方市,中宮北町１番１５号２０２号室,,27,210,5731194,,,,,,,2026-02-03,1,,,,,エバーリーフ,0
1794,8120001283847,新規,0,2026-02-03,2026-02-03,株式会社ＦＫテクノス,,株式会社,大阪府,大阪市西区,靱本町１丁目１６番８号,,27,106,5500004,,,,,,,2026-02-03,1,,,,,エフケーテクノス,0
1798,8120003031832,新規,0,2026-02-03,2026-02-03,合同会社Ｂｅｌｉｅｖｅ　Ｃｒｅａｔｅ,,合同会社,大阪府,大阪市淀川区,田川３丁目４番１５－２０４号,,27,123,5320027,,,,,,,2026-02-03,1,,,,,ビリーブクリエイト,0
1799,8120101073132,新規,0,2026-02-03,2026-02-03,旭ウエルデックスホールディングス株式会社,,株式会社,大阪府,堺市西区,浜寺昭和町３丁４１５番地,,27,144,5928345,,,,,,,2026-02-03,1,,,,,アサヒウエルデックスホールディングス,0
1804,8130003011131,新規,0,2026-02-03,2026-02-03,合同会社ＬＵＭＩＫＡ,,合同会社,京都府,京都市山科区,勧修寺西金ケ崎１００番地の５６,,26,110,6078221,,,,,,,2026-02-03,1,,,,,ルミカ,0
1811,8140001141565,新規,0,2026-02-03,2026-02-03,太陽株式会社,,株式会社,兵庫県,宝塚市,山本野里１丁目２番１２号,,28,214,6650814,,,,,,,2026-02-03,1,,,,,タイヨウ,0
1812,8140001141573,新規,0,2026-02-03,2026-02-03,株式会社ｏｋ　ｆａｍｉｌｉａｒ,,株式会社,兵庫県,神戸市中央区,磯辺通１丁目１－２０ＫＯＷＡビル１Ｆ１１１号室,,28,110,6510084,,,,,,,2026-02-03,1,,,,,オーケーファミリア,0
1813,8140001141581,新規,0,2026-02-03,2026-02-03,株式会社シージェンジャパン,,株式会社,兵庫県,西宮市,甲子園一番町５番１９－１号,,28,204,6638171,,,,,,,2026-02-03,1,,,,,シージェンジャパン,0
1816,8150003003829,新規,0,2026-02-03,2026-02-03,ナチュラルサポート合同会社,,合同会社,奈良県,大和高田市,神楽３丁目９－３,,29,202,6350025,,,,,,,2026-02-03,1,,,,,ナチュラルサポート,0
1818,8170003002374,新規,0,2026-02-03,2026-02-03,合同会社アミティーコミュニケーション,,合同会社,和歌山県,有田郡有田川町,大字土生４４番地１,,30,366,6430025,,,,,,,2026-02-03,1,,,,,アミティーコミュニケーション,0
1822,8180001170478,新規,0,2026-02-03,2026-02-03,株式会社繕商,,株式会社,愛知県,知多郡武豊町,字北中根４丁目３番地１,,23,447,4702385,,,,,,,2026-02-03,1,,,,,ゼンショウ,0
1827,8180303006883,新規,0,2026-02-03,2026-02-03,合同会社西村,,合同会社,愛知県,安城市,石井町福原７１番地１,,23,212,4441201,,,,,,,2026-02-03,1,,,,,ニシムラ,0
1833,8200001044679,新規,0,2026-02-03,2026-02-03,株式会社Ｋイルソーレ,,株式会社,岐阜県,岐阜市,茜部神清寺２丁目９４番地１（伊藤ビル１階１号室）,,21,201,5008265,,,,,,,2026-02-03,1,,,,,ケーイルソーレ,0
1836,8220001027145,新規,0,2026-02-03,2026-02-03,株式会社Ｐｅｒｃｏｒ,,株式会社,石川県,金沢市,長町３丁目９番２１号,,17,201,9200865,,,,,,,2026-02-03,1,,,,,パーカー,0
1838,8220003004217,新規,0,2026-02-03,2026-02-03,合同会社Ｂｒｉｄｇｅ　Ｗｏｒｋｓ　Ｉｎｔｅｒｎａｔｉｏｎａｌ,,合同会社,石川県,羽咋市,大町ナ１１番地,,17,207,9250072,,,,,,,2026-02-03,1,,,,,ブリッジワークスインターナショナル,0
1839,8230001021279,新規,0,2026-02-03,2026-02-03,株式会社Ｉ‐ＳＴＥＰ,,株式会社,富山県,砺波市,太郎丸６５６８番地１,,16,208,9391363,,,,,,,2026-02-03,1,,,,,アイステップ,0
1841,8250001021525,新規,0,2026-02-03,2026-02-03,株式会社ランブル,,株式会社,山口県,下松市,せせらぎ町２丁目９番１２号,,35,207,7440076,,,,,,,2026-02-03,1,,,,,ランブル,0
1847,8290003017988,新規,0,2026-02-03,2026-02-03,合同会社Ｌｅｅｗａｙ,,合同会社,福岡県,福岡市中央区,清川２丁目６番２０号,,40,133,8100005,,,,,,,2026-02-03,1,,,,,リーウェイ,0
1849,8300001014498,新規,0,2026-02-03,2026-02-03,株式会社エンターナット,,株式会社,佐賀県,唐津市,二タ子３丁目１番１号からつキティビル３階,,41,202,8470861,,,,,,,2026-02-03,1,,,,,エンターナット,0
1850,8310001019942,新規,0,2026-02-03,2026-02-03,株式会社Ｚｅｕｓ,,株式会社,長崎県,佐世保市,折橋町３２６番地５２,,42,202,8570021,,,,,,,2026-02-03,1,,,,,ゼウス,0
1853,8310005008891,新規,0,2026-02-03,2026-02-03,一般社団法人長大附属未来創造アカデミー,,その他の設立登記法人,長崎県,長崎市,文教町４番２３号長崎大学教育学部附属中学校内,,42,201,8528131,,,,,,,2026-02-03,1,,,,,チョウダイフゾクミライソウゾウアカデミー,0
1859,8370001053440,新規,0,2026-02-03,2026-02-03,株式会社大工のカシワ家,,株式会社,宮城県,東松島市,大塩字緑ケ丘二丁目２番地７,,04,214,9810505,,,,,,,2026-02-03,1,,,,,ダイクノカシワヤ,0
1878,8400003003605,新規,0,2026-02-03,2026-02-03,東北クリーンエネルギー０６合同会社,,合同会社,岩手県,盛岡市,中屋敷町９番２号,,03,201,0200141,,,,,,,2026-02-03,1,,,,,トウホククリーンエネルギーゼロロク,0
1879,8400003003613,新規,0,2026-02-03,2026-02-03,東北クリーンエネルギー１４合同会社,,合同会社,岩手県,盛岡市,中屋敷町９番２号,,03,201,0200141,,,,,,,2026-02-03,1,,,,,トウホククリーンエネルギージュウヨン,0
1880,8400003003621,新規,0,2026-02-03,2026-02-03,東北クリーンエネルギー２３合同会社,,合同会社,岩手県,盛岡市,中屋敷町９番２号,,03,201,0200141,,,,,,,2026-02-03,1,,,,,トウホククリーンエネルギーニジュウサン,0
1881,8420003003231,新規,0,2026-02-03,2026-02-03,合同会社Ｔｒｅａｓｕｒｅ,,合同会社,青森県,八戸市,下長７丁目８番２０号イーストパレスＩＡ－３,,02,203,0391164,,,,,,,2026-02-03,1,,,,,トレジャー,0
1882,8430001096169,新規,0,2026-02-03,2026-02-03,株式会社Ｂｉｒｃｈｂｉｔ,,株式会社,北海道,北広島市,栄町１丁目５２番地,,01,234,0611133,,,,,,,2026-02-03,1,,,,,バーチビット,0
1883,8430001096177,新規,0,2026-02-03,2026-02-03,株式会社オニキス・ラボ,,株式会社,北海道,札幌市中央区,北八条西１３丁目２８番地２１,,01,101,0600008,,,,,,,2026-02-03,1,,,,,オニキスラボ,0
1884,8430003018550,新規,0,2026-02-03,2026-02-03,Ｌｕｃｉａｌ合同会社,,合同会社,北海道,札幌市西区,二十四軒四条２丁目９－２８,,01,107,0630804,,,,,,,2026-02-03,1,,,,,ルシアル,0
1890,8500001026754,新規,0,2026-02-03,2026-02-03,エコモーション株式会社,,株式会社,愛媛県,松山市,空港通３丁目１１番１８号,,38,201,7910054,,,,,,,2026-02-03,1,,,,,エコモーション,0
1899,9010001262282,新規,0,2026-02-03,2026-02-03,株式会社カクシアジ,,株式会社,東京都,千代田区,神田和泉町１番地６－１６ヤマトビル４０５,,13,101,1010024,,,,,,,2026-02-03,1,,,,,カクシアジ,0
1901,9010003050165,新規,0,2026-02-03,2026-02-03,合同会社ＳＯＲＡ,,合同会社,東京都,千代田区,内神田２丁目９－９神田ビル４－５号,,13,101,1010047,,,,,,,2026-02-03,1,,,,,ソラ,0
1902,9010003050256,新規,0,2026-02-03,2026-02-03,合同会社Ｐｒａｘｉａ　Ｖｅｎｔｕｒｅｓ,,合同会社,東京都,中央区,日本橋室町１丁目１１番１２号日本橋水野ビル７階,,13,102,1030022,,,,,,,2026-02-03,1,,,,,プラクシアベンチャーズ,0
1903,9010005041328,新規,0,2026-02-03,2026-02-03,一般社団法人防災社会推進機構,,その他の設立登記法人,東京都,中央区,日本橋堀留町１丁目１１番５号日本橋吉泉ビル２Ｆ,,13,102,1030012,,,,,,,2026-02-03,1,,,,,ボウサイシャカイスイシンキコウ,0
1905,9010103002751,新規,0,2026-02-03,2026-02-03,Ａｅｖｕｍ合同会社,,合同会社,東京都,八王子市,川口町１５４０番地４１８,,13,201,1930801,,,,,,,2026-02-03,1,,,,,エヴム,0
1915,9010401195405,新規,0,2026-02-03,2026-02-03,株式会社Ａｇｅｎｔｉｃ　Ｃａｐｉｔａｌ,,株式会社,東京都,港区,台場１丁目３番５－３０４号,,13,103,1350091,,,,,,,2026-02-03,1,,,,,エージェンティックキャピタル,0
1916,9010401196171,新規,0,2026-02-03,2026-02-03,株式会社Ｖａ’ｌｕｅＱ,,株式会社,東京都,港区,六本木３丁目１６番１２号六本木ＫＳビル５Ｆ,,13,103,1060032,,,,,,,2026-02-03,1,,,,,バリューキュー,0
1917,9010401196221,新規,0,2026-02-03,2026-02-03,ｐＨｏｅｎｉｘ株式会社,,株式会社,東京都,港区,北青山１丁目３番１号アールキューブ青山３階,,13,103,1070061,,,,,,,2026-02-03,1,,,,,フェニックス,0
1918,9010401196279,新規,0,2026-02-03,2026-02-03,株式会社ＱＵＥＥＮＳ,,株式会社,東京都,港区,高輪１丁目２番６－５０４号,,13,103,1080074,,,,,,,2026-02-03,1,,,,,クイーンズ,0
1919,9010401196287,新規,0,2026-02-03,2026-02-03,株式会社瑞穂堂,,株式会社,東京都,港区,南麻布１丁目８番２１号,,13,103,1060047,,,,,,,2026-02-03,1,,,,,ミズホドウ,0
1920,9010403037209,新規,0,2026-02-03,2026-02-03,合同会社Ｓｉｇｎａｌ３Ｐａｒｔｎｅｒｓ,,合同会社,東京都,港区,北青山１丁目３番１号アールキューブ青山３階,,13,103,1070061,,,,,,,2026-02-03,1,,,,,シグナルスリーパートナーズ,0
1921,9010403037233,新規,0,2026-02-03,2026-02-03,合同会社ＥＶＥ,,合同会社,東京都,港区,西麻布１丁目２番１３号デュオ・スカーラ西麻布タワーＣＥＮＴＲＡＬ２０１号室,,13,103,1060031,,,,,,,2026-02-03,1,,,,,イブ,0
1922,9010405025228,新規,0,2026-02-03,2026-02-03,一般社団法人ＣＩＮＪＩ,,その他の設立登記法人,東京都,港区,芝５丁目２７番６号泉田町ビル５階,,13,103,1080014,,,,,,,2026-02-03,1,,,,,シンジ,0
1923,9010405025260,新規,0,2026-02-03,2026-02-03,一般社団法人アセット開発事業,,その他の設立登記法人,東京都,港区,西新橋１丁目２番９号メンターキャピタル税理士法人内,,13,103,1050003,,,,,,,2026-02-03,1,,,,,アセットカイハツジギョウ,0
1924,9010405025327,新規,0,2026-02-03,2026-02-03,特定目的会社八重山ゲート,,その他の設立登記法人,東京都,港区,西新橋１丁目２番９号メンターキャピタル税理士法人内,,13,103,1050003,,,,,,,2026-02-03,1,,,,,ヤエヤマゲート,0
1927,9010501055392,新規,0,2026-02-03,2026-02-03,株式会社大洋,,株式会社,東京都,台東区,東上野１丁目２２番１号宝華ビル３０２,,13,106,1100015,,,,,,,2026-02-03,1,,,,,タイヨウ,0
1930,9010801037000,新規,0,2026-02-03,2026-02-03,株式会社ＴＭＫ,,株式会社,東京都,大田区,仲六郷２丁目３１－４－１０３,,13,111,1440055,,,,,,,2026-02-03,1,,,,,ティーエムケー,0
1933,9010901058887,新規,0,2026-02-03,2026-02-03,ＷＡＸ株式会社,,株式会社,東京都,世田谷区,深沢８丁目１０番１９号,,13,112,1580081,,,,,,,2026-02-03,1,,,,,ワックス,0
1934,9010903010598,新規,0,2026-02-03,2026-02-03,合同会社ＬＵＸＶＩＡ,,合同会社,東京都,世田谷区,池尻２丁目３７－３－２０５,,13,112,1540001,,,,,,,2026-02-03,1,,,,,ルクスヴィア,0
1936,9011001174963,新規,0,2026-02-03,2026-02-03,株式会社Ｅｍｉｓｔ,,株式会社,東京都,渋谷区,恵比寿１丁目１５番６号,,13,113,1500013,,,,,,,2026-02-03,1,,,,,エミスト,0
1938,9011103017005,新規,0,2026-02-03,2026-02-03,合同会社ＭＡＲＩＮＥ　ＧＯＬＤ,,合同会社,東京都,新宿区,水道町４－１８－９０６,,13,104,1620811,,,,,,,2026-02-03,1,,,,,マリーンゴールド,0
1942,9011401027770,新規,0,2026-02-03,2026-02-03,春序株式会社,,株式会社,東京都,板橋区,大和町６番地１２板橋本町ビル６０２号室,,13,119,1730012,,,,,,,2026-02-03,1,,,,,シュンジョ,0
1950,9011801047393,新規,0,2026-02-03,2026-02-03,株式会社ＳＪＹ,,株式会社,東京都,足立区,江北２丁目６番５号,,13,121,1230872,,,,,,,2026-02-03,1,,,,,エスジェイワイ,0
1952,9012301014702,新規,0,2026-02-03,2026-02-03,株式会社エムズワイ,,株式会社,東京都,町田市,高ヶ坂５丁目２１番２２号,,13,209,1940014,,,,,,,2026-02-03,1,,,,,エムズワイ,0
1953,9012401044070,新規,0,2026-02-03,2026-02-03,共叶電設株式会社,,株式会社,東京都,稲城市,長峰３丁目５番地杜の三番街４－８０２,,13,225,2060821,,,,,,,2026-02-03,1,,,,,キョウカデンセツ,0
1954,9012403007595,新規,0,2026-02-03,2026-02-03,合同会社Ｇａｌａｘｙ　Ａｓｓｅｔ,,合同会社,東京都,稲城市,東長沼１９８８番地の１ダイアパレス稲城５０１号,,13,225,2060802,,,,,,,2026-02-03,1,,,,,ギャラクシーアセット,0
1957,9013301055703,新規,0,2026-02-03,2026-02-03,株式会社Ｈ２ビルサービス,,株式会社,東京都,豊島区,南池袋３丁目９番８号Ｈ２ビル９Ｆ,,13,116,1710022,,,,,,,2026-02-03,1,,,,,エイチツービルサービス,0
1963,9020001166937,新規,0,2026-02-03,2026-02-03,匯成威株式会社,,株式会社,神奈川県,横浜市南区,浦舟町１丁目１番１７号冨田ビル３Ｆ,,14,105,2320024,,,,,,,2026-02-03,1,,,,,カイセイイ,0
1964,9020001166945,新規,0,2026-02-03,2026-02-03,株式会社久永,,株式会社,神奈川県,横浜市金沢区,柴町３４３番地７シーリア金沢文庫３０２,,14,108,2360012,,,,,,,2026-02-03,1,,,,,キュウエイ,0
1968,9020003030307,新規,0,2026-02-03,2026-02-03,合同会社月心,,合同会社,神奈川県,横浜市金沢区,釜利谷南３丁目２１番４－３号,,14,108,2360045,,,,,,,2026-02-03,1,,,,,ゲッシン,0
1969,9020003030315,新規,0,2026-02-03,2026-02-03,マルスフィア合同会社,,合同会社,神奈川県,横浜市中区,日ノ出町１丁目４番地１―２０６号,,14,104,2310066,,,,,,,2026-02-03,1,,,,,マルスフィア,0
1971,9021001087413,新規,0,2026-02-03,2026-02-03,株式会社小出解体,,株式会社,神奈川県,座間市,新田宿１０７番地の１,,14,216,2520026,,,,,,,2026-02-03,1,,,,,コイデカイタイ,0
1972,9021001087438,新規,0,2026-02-03,2026-02-03,ＧＲＩＴ　ＨＯＭＥ株式会社,,株式会社,神奈川県,相模原市中央区,上溝１９３６番地１－１４１０,,14,152,2520243,,,,,,,2026-02-03,1,,,,,グリットホーム,0
1973,9021003017104,新規,0,2026-02-03,2026-02-03,日本住環不動産合同会社,,合同会社,神奈川県,相模原市中央区,上溝２２６４番地６,,14,152,2520243,,,,,,,2026-02-03,1,,,,,ニホンジュウカンフドウサン,0
1974,9021005013530,新規,0,2026-02-03,2026-02-03,一般社団法人５つ星コミュニケーション協会,,その他の設立登記法人,神奈川県,座間市,座間１丁目３３７９番地の２１ＣａＳａみらい２０２号,,14,216,2520027,,,,,,,2026-02-03,1,,,,,イツツボシコミュニケーションキョウカイ,0
1982,9040001142291,新規,0,2026-02-03,2026-02-03,株式会社ｓｏｒｅｍｉ,,株式会社,千葉県,松戸市,河原塚２０８番地の１６ＥＭＭＡ東松戸１０３号,,12,207,2702254,,,,,,,2026-02-03,1,,,,,ソレミ,0
1991,9050001057919,新規,0,2026-02-03,2026-02-03,ミスティ・ラグーン・ワイナリー株式会社,,株式会社,茨城県,かすみがうら市,坂２０３９番地１,,08,230,3000214,,,,,,,2026-02-03,1,,,,,ミスティラグーンワイナリー,0
1992,9070001043792,新規,0,2026-02-03,2026-02-03,株式会社アラバファーム川場,,株式会社,群馬県,利根郡川場村,大字川場湯原２４５３番地３,,10,444,3780102,,,,,,,2026-02-03,1,,,,,アラバファームカワバ,0
1999,9100001039309,新規,0,2026-02-03,2026-02-03,株式会社ＳＴソリューション,,株式会社,長野県,上水内郡信濃町,大字野尻４３０番地１１－１０２号室,,20,583,3891303,,,,,,,2026-02-03,1,,,,,エスティーソリューション,0
2003,9110001039877,新規,0,2026-02-03,2026-02-03,株式会社祐和興業,,株式会社,新潟県,新発田市,中曽根町３丁目８番２０号３,,15,206,9570067,,,,,,,2026-02-03,1,,,,,ユウワコウギョウ,0
2020,9120001283854,新規,0,2026-02-03,2026-02-03,株式会社ＭＡＡＺ,,株式会社,大阪府,守口市,佐太中町６丁目１５番２６号,,27,209,5700002,,,,,,,2026-02-03,1,,,,,マーズ,0
2021,9120001283862,新規,0,2026-02-03,2026-02-03,株式会社サングレイス光陽,,株式会社,大阪府,大阪市生野区,新今里３丁目１１番６ガーデンビル２Ｆ,,27,116,5440001,,,,,,,2026-02-03,1,,,,,サングレイスコウヨウ,0
2022,9120001283879,新規,0,2026-02-03,2026-02-03,ニシイケ株式会社,,株式会社,大阪府,大阪市天王寺区,烏ケ辻２丁目２番１１号天王寺福岡ビル,00142427,27,109,5430042,,,,,,,2026-02-03,1,,,,,ニシイケ,0
2027,9120003031823,新規,0,2026-02-03,2026-02-03,合同会社ピースオブスター,,合同会社,大阪府,大阪市鶴見区,諸口１丁目１－９,,27,124,5380051,,,,,,,2026-02-03,1,,,,,ピースオブスター,0
2029,9120901052169,新規,0,2026-02-03,2026-02-03,株式会社東宝ハウス江坂,,株式会社,大阪府,吹田市,広芝町４番１号,,27,205,5640052,,,,,,,2026-02-03,1,,,,,トウホウハウスエサカ,0
2033,9130001081522,新規,0,2026-02-03,2026-02-03,エフ・シー・ジャパン株式会社,,株式会社,京都府,京都市東山区,祇園縄手新橋西側ＳＰＡＣＥしんばし１Ｆ,,26,105,6050000,,,,,,,2026-02-03,1,,,,,エフシージャパン,0
2034,9130003011122,新規,0,2026-02-03,2026-02-03,ユニベーションの樹合同会社,,合同会社,京都府,京都市下京区,朱雀宝蔵町４４番地協栄ビル２階京都朱雀スタジオＡＶ－３０５,,26,106,6008846,,,,,,,2026-02-03,1,,,,,ユニベーションノキ,0
2035,9130003011130,新規,0,2026-02-03,2026-02-03,合同会社Ｂ‐ＦＩＥＬＤ,,合同会社,京都府,綴喜郡宇治田原町,大字岩山小字奥浄戸７番地４,,26,344,6100261,,,,,,,2026-02-03,1,,,,,ビーフィールド,0
2041,9140001140657,新規,0,2026-02-03,2026-02-03,ＲｅｕｓｅＭ株式会社,,株式会社,兵庫県,尼崎市,大物町１丁目１番３３－１号,,28,202,6600823,,,,,,,2026-02-03,1,,,,,リユーズエム,0
2043,9140003023158,新規,0,2026-02-03,2026-02-03,合同会社Ａｆｒｉ‐Ｓｐｉｒｉｔ,,合同会社,兵庫県,西宮市,甲陽園若江町３番１４－２号,,28,204,6620016,,,,,,,2026-02-03,1,,,,,アフリスピリッツ,0
2046,9160005011480,新規,0,2026-02-03,2026-02-03,一般社団法人ＭＡＩＫＥＹ,,その他の設立登記法人,滋賀県,草津市,草津町１６６０番地２,,25,206,5250036,,,,,,,2026-02-03,1,,,,,マイキー,0
2052,9180001170436,新規,0,2026-02-03,2026-02-03,カカミカ株式会社,,株式会社,愛知県,名古屋市中区,松原２丁目２２番２１号メゾン松原３０３号,,23,106,4600017,,,,,,,2026-02-03,1,,,,,カカミカ,0
2053,9180001170477,新規,0,2026-02-03,2026-02-03,株式会社Ｉｓｋａｎｄａｒ,,株式会社,愛知県,名古屋市中区,新栄１丁目２番２９号ウエストビルＢ１,,23,106,4600007,,,,,,,2026-02-03,1,,,,,イスカンダル,0
2054,9180001170485,新規,0,2026-02-03,2026-02-03,株式会社創栄クリエイト,,株式会社,愛知県,常滑市,白山町６丁目１０３番地の１,,23,216,4790824,,,,,,,2026-02-03,1,,,,,ソウエイクリエイト,0
2056,9180003029721,新規,0,2026-02-03,2026-02-03,熊本ＥＮＧ合同会社,,合同会社,愛知県,名古屋市名東区,香流１丁目２０７番地の１,,23,115,4650005,,,,,,,2026-02-03,1,,,,,クマモトイーエヌジー,0
2064,9180301040652,新規,0,2026-02-03,2026-02-03,ＴＫ．ＨＯＭＥ株式会社,,株式会社,愛知県,安城市,横山町横山１９１番地ＡＣＳ東海ビル３Ｆ,,23,212,4460045,,,,,,,2026-02-03,1,,,,,ティーケーホーム,0
2072,9200001044686,新規,0,2026-02-03,2026-02-03,ティーフォー株式会社,,株式会社,岐阜県,揖斐郡揖斐川町,谷汲大洞５９０番地,00142440,21,401,5011312,,,,,,,2026-02-03,1,,,,,ティーフォー,0
2074,9220001027144,新規,0,2026-02-03,2026-02-03,株式会社ＭＳ‐ＹＫＲ工業,,株式会社,石川県,羽咋郡宝達志水町,小川２の部７５番地１－２０４号室,,17,386,9291343,,,,,,,2026-02-03,1,,,,,エムエスワイケーアール,0
2078,9230001021278,新規,0,2026-02-03,2026-02-03,株式会社ＩＫＧ,,株式会社,富山県,砺波市,太郎丸６５６８番地１,,16,208,9391363,,,,,,,2026-02-03,1,,,,,アイケージー,0
2082,9240001066132,新規,0,2026-02-03,2026-02-03,株式会社アルニホン,,株式会社,広島県,東広島市,西条町福本４７０番地１,,34,212,7390031,,,,,,,2026-02-03,1,,,,,アルニホン,0
2084,9260001040952,新規,0,2026-02-03,2026-02-03,株式会社Ｍ’Ａｒｔ,,株式会社,岡山県,津山市,林田８２４番地９,,33,203,7080822,,,,,,,2026-02-03,1,,,,,マート,0
2093,9290001113012,新規,0,2026-02-03,2026-02-03,株式会社キューデン・インターナショナル・インディア,,株式会社,福岡県,福岡市中央区,薬院３丁目２番２３号ＫＭＧビル,,40,133,8100022,,,,,,,2026-02-03,1,,,,,キューデンインターナショナルインディア,0
2094,9290003017839,新規,0,2026-02-03,2026-02-03,ｕｎｉｒ合同会社,,合同会社,福岡県,福岡市博多区,祇園町２－２１フェルト６２７・１１０５号,,40,132,8120038,,,,,,,2026-02-03,1,,,,,ウニール,0
2095,9290003017954,新規,0,2026-02-03,2026-02-03,合同会社Ｒ‐Ｓｔａｒ,,合同会社,福岡県,福岡市博多区,博多駅南３丁目１２－５－２０１号室,,40,132,8120016,,,,,,,2026-02-03,1,,,,,,0
2096,9290003018011,新規,0,2026-02-03,2026-02-03,合同会社ＭＡＫＥＷＡＹ,,合同会社,福岡県,福岡市西区,室見が丘３丁目１３番７号,,40,135,8190030,,,,,,,2026-02-03,1,,,,,メイクウェイ,0
2100,9310001019941,新規,0,2026-02-03,2026-02-03,株式会社レイールＨＤ,,株式会社,長崎県,長崎市,豊洋台１丁目３２番１０号,,42,201,8512216,,,,,,,2026-02-03,1,,,,,レイールホールディングス,0
2108,9370001053448,新規,0,2026-02-03,2026-02-03,株式会社スカイエステート,,株式会社,宮城県,宮城郡利府町,菅谷台４丁目２８番地３,,04,406,9810135,,,,,,,2026-02-03,1,,,,,スカイエステート,0
2113,9400001017300,新規,0,2026-02-03,2026-02-03,ＨＫホールディングス株式会社,,株式会社,岩手県,九戸郡九戸村,大字山屋第３地割字山屋１２０番地１,,03,506,0286506,,,,,,,2026-02-03,1,,,,,エイチケーホールディングス,0
2114,9400003003604,新規,0,2026-02-03,2026-02-03,東北クリーンエネルギー０５合同会社,,合同会社,岩手県,盛岡市,中屋敷町９番２号,,03,201,0200141,,,,,,,2026-02-03,1,,,,,トウホククリーンエネルギーゼロゴ,0
2115,9400003003612,新規,0,2026-02-03,2026-02-03,東北クリーンエネルギー１５合同会社,,合同会社,岩手県,盛岡市,中屋敷町９番２号,,03,201,0200141,,,,,,,2026-02-03,1,,,,,トウホククリーンエネルギージュウゴ,0
2116,9400003003620,新規,0,2026-02-03,2026-02-03,東北クリーンエネルギー２２合同会社,,合同会社,岩手県,盛岡市,中屋敷町９番２号,,03,201,0200141,,,,,,,2026-02-03,1,,,,,トウホククリーンエネルギーニジュウニ,0
2117,9400003003629,新規,0,2026-02-03,2026-02-03,東北クリーンエネルギー３１合同会社,,合同会社,岩手県,盛岡市,中屋敷町９番２号,,03,201,0200141,,,,,,,2026-02-03,1,,,,,トウホククリーンエネルギーサンジュウイチ,0
2118,9400005008543,新規,0,2026-02-03,2026-02-03,一般社団法人セルーレ北上,,その他の設立登記法人,岩手県,胆沢郡金ケ崎町,西根石田６番地１,,03,381,0294503,,,,,,,2026-02-03,1,,,,,セルーレキタカミ,0
2122,9440005002815,新規,0,2026-02-03,2026-02-03,一般社団法人函館タータン協会,,その他の設立登記法人,北海道,函館市,亀田町７番１４号,,01,202,0400072,,,,,,,2026-02-03,1,,,,,,0
2125,9490003002093,新規,0,2026-02-03,2026-02-03,合同会社Ａｄｖａｎｃｅ,,合同会社,高知県,香南市,野市町新宮１７３番地１シャーメゾンみどり野Ｄ棟２０２号,,39,211,7815204,,,,,,,2026-02-03,1,,,,,アドバンス,0
