sequenceNumber,corporateNumber,process,correct,updateDate,changeDate,name,nameImageId,kind,prefectureName,cityName,streetNumber,addressImageId,prefectureCode,cityCode,postCode,addressOutside,addressOutsideImageId,closeDate,closeCause,successorCorporateNumber,changeCause,assignmentDate,latest,enName,enPrefectureName,enCityName,enAddressOutside,furigana,hihyoji
4,1010001223523,新規,0,2022-01-04,2022-01-04,株式会社ＵＣｏｎｎｅｃｔ,,株式会社,東京都,中央区,銀座１丁目２２番１１号銀座大竹ビジデンス２階,,13,102,1040061,,,,,,,2022-01-04,1,,,,,ユーコネクト,0
5,1010001223556,新規,0,2022-01-04,2022-01-04,株式会社ＢＵＬＬＥＴ,,株式会社,東京都,千代田区,飯田橋３丁目２番１２号,,13,101,1020072,,,,,,,2022-01-04,1,,,,,ブレット,0
6,1010001223564,新規,0,2022-01-04,2022-01-04,株式会社ＰＲＥＣＩＯＵＳ,,株式会社,東京都,中央区,銀座１丁目２２番１１号－２階,,13,102,1040061,,,,,,,2022-01-04,1,,,,,,0
9,1010003036634,新規,0,2022-01-04,2022-01-04,合同会社ＪＵＮ,,合同会社,東京都,文京区,千石１丁目１９－５、６０１,,13,105,1120011,,,,,,,2022-01-04,1,,,,,ジュン,0
10,1010003036642,新規,0,2022-01-04,2022-01-04,ＡＣＶＥホールディングス合同会社,,合同会社,東京都,千代田区,丸の内３丁目２番３号,,13,101,1000005,,,,,,,2022-01-04,1,,,,,エーシーブイイーホールディングス,0
19,1010403026664,新規,0,2022-01-04,2022-01-04,合同会社ｎｏｚｏｍｉ,,合同会社,東京都,港区,南青山２丁目２番１５号,,13,103,1070062,,,,,,,2022-01-04,1,,,,,ノゾミ,0
20,1010403026796,新規,0,2022-01-04,2022-01-04,ジャパンインフラ１８号合同会社,,合同会社,東京都,港区,元赤坂１丁目１番７号,,13,103,1070051,,,,,,,2022-01-04,1,,,,,ジャパンインフラジュウハチゴウ,0
21,1010403026813,新規,0,2022-01-04,2022-01-04,Ｊ．Ｃｌａｒｋ　Ｃｏｎｓｕｌｔｉｎｇ合同会社,,合同会社,東京都,港区,赤坂８丁目１１番１９ー４０６号,,13,103,1070052,,,,,,,2022-01-04,1,,,,,ジェイクラークコンサルティング,0
22,1010405020541,新規,0,2022-01-04,2022-01-04,一般社団法人日本飲食団体連合会,,その他の設立登記法人,東京都,港区,赤坂９丁目７番２号,,13,103,1070052,,,,,,,2022-01-04,1,,,,,ニホンインショクダンタイレンゴウカイ,0
24,1010603009329,新規,0,2022-01-04,2022-01-04,合同会社Ｇ－ｈｏｐｅ,,合同会社,東京都,江東区,富岡１丁目２２番２５号３階,,13,108,1350047,,,,,,,2022-01-04,1,,,,,ジーホープ,0
27,1010701041992,新規,0,2022-01-04,2022-01-04,株式会社オールワンエージェント,,株式会社,東京都,品川区,西五反田７丁目２２番１７号ＴＯＣビル１２Ｆ,,13,109,1410031,,,,,,,2022-01-04,1,,,,,オールワンエージェント,0
28,1010703006052,新規,0,2022-01-04,2022-01-04,合同会社Ｂｅａｍｓ,,合同会社,東京都,品川区,荏原４丁目８－１１－３０１,,13,109,1420063,,,,,,,2022-01-04,1,,,,,ビームス,0
31,1010803004006,新規,0,2022-01-04,2022-01-04,合同会社ドローンファクトリー,,合同会社,東京都,大田区,田園調布１丁目６１番７号,,13,111,1450071,,,,,,,2022-01-04,1,,,,,ドローンファクトリー,0
33,1010901050075,新規,0,2022-01-04,2022-01-04,株式会社Ｃａｋａ,,株式会社,東京都,世田谷区,北沢２丁目３５番９号,,13,112,1550031,,,,,,,2022-01-04,1,,,,,カカ,0
35,1010903007040,新規,0,2022-01-04,2022-01-04,合同会社３５５デザイン編集室,,合同会社,東京都,世田谷区,北烏山３丁目１０番１２号メゾン烏山１０１,,13,112,1570061,,,,,,,2022-01-04,1,,,,,サンゴーゴーデザインヘンシュウシツ,0
37,1011001144841,新規,0,2022-01-04,2022-01-04,株式会社アースビギニング,,株式会社,東京都,渋谷区,道玄坂１丁目２番３号渋谷フクラス１７Ｆ,,13,113,1500043,,,,,,,2022-01-04,1,,,,,アースビギニング,0
38,1011001144858,新規,0,2022-01-04,2022-01-04,株式会社ピコピコポン,,株式会社,東京都,目黒区,下目黒１丁目８番１号,,13,110,1530064,,,,,,,2022-01-04,1,,,,,ピコピコポン,0
41,1011003013929,新規,0,2022-01-04,2022-01-04,合同会社Ｌｕｍｉｎｏｕｓ　Ｆｌａｉｒ,,合同会社,東京都,渋谷区,道玄坂１丁目１０番８号渋谷道玄坂東急ビル２Ｆ－Ｃ,,13,113,1500043,,,,,,,2022-01-04,1,,,,,ルミナスフレア,0
42,1011003013937,新規,0,2022-01-04,2022-01-04,合同会社ルイ・ドール,,合同会社,東京都,渋谷区,大山町１７番２５号２階,,13,113,1510065,,,,,,,2022-01-04,1,,,,,ルイドール,0
44,1011101097378,新規,0,2022-01-04,2022-01-04,株式会社Ｌｕｎａ　Ｏｆｆｉｃｅ,,株式会社,東京都,新宿区,西新宿３丁目３番１３号西新宿水間ビル６階,,13,104,1600023,,,,,,,2022-01-04,1,,,,,ルーナオフィス,0
46,1011201023498,新規,0,2022-01-04,2022-01-04,ＧＩＣ株式会社,,株式会社,東京都,中野区,南台４丁目３番７－９０３号,,13,114,1640014,,,,,,,2022-01-04,1,,,,,ジーアイシー,0
48,1011501027612,新規,0,2022-01-04,2022-01-04,株式会社トヨタアソシエイト,,株式会社,東京都,荒川区,南千住４丁目９番７－１６１１号,,13,118,1160003,,,,,,,2022-01-04,1,,,,,トヨタアソシエイト,0
49,1011603003486,新規,0,2022-01-04,2022-01-04,合同会社ＭＵＴＡＦＵ,,合同会社,東京都,練馬区,豊玉中２丁目３番１０－２０３号,,13,120,1760013,,,,,,,2022-01-04,1,,,,,ムタフ,0
51,1011701024946,新規,0,2022-01-04,2022-01-04,株式会社Ｚｉｐａｎｇ　Ｐｏｒｔ,,株式会社,東京都,江戸川区,東瑞江２丁目１８番１１号,,13,123,1320014,,,,,,,2022-01-04,1,,,,,ジパングポート,0
56,1012401038658,新規,0,2022-01-04,2022-01-04,株式会社ツバキアーツ,,株式会社,東京都,多摩市,馬引沢１丁目１４－１０,,13,224,2060023,,,,,,,2022-01-04,1,,,,,ツバキアーツ,0
57,1012401038716,新規,0,2022-01-04,2022-01-04,ラフ・エンジニアリング株式会社,,株式会社,東京都,府中市,美好町１丁目３２番地の１１,,13,206,1830045,,,,,,,2022-01-04,1,,,,,ラフエンジニアリング,0
71,1020001144504,新規,0,2022-01-04,2022-01-04,ＳＡＬＴＯ　Ｃｏｎｓｕｌｔｉｎｇ株式会社,,株式会社,神奈川県,川崎市幸区,都町１４番地２－５０４,,14,132,2120021,,,,,,,2022-01-04,1,,,,,サルトコンサルティング,0
72,1020003021024,新規,0,2022-01-04,2022-01-04,ＧＯＲＡＫＨＡＬＩ合同会社,,合同会社,神奈川県,川崎市中原区,北谷町４番地田島相和ビル３０８,,14,133,2110015,,,,,,,2022-01-04,1,,,,,ゴラカーリ,0
73,1020003021040,新規,0,2022-01-04,2022-01-04,Ｄｏｇｗｏｏｄ合同会社,,合同会社,神奈川県,横浜市青葉区,荏田西３丁目２８番地２８,,14,117,2250014,,,,,,,2022-01-04,1,,,,,ドッグウッド,0
75,1021001074848,新規,0,2022-01-04,2022-01-04,クロスハート株式会社,,株式会社,神奈川県,座間市,入谷西５丁目５２番９－４０１号,,14,216,2520029,,,,,,,2022-01-04,1,,,,,クロスハート,0
78,1021003011238,新規,0,2022-01-04,2022-01-04,合同会社Ｍｅｄｉｔａｔｉｏｎ　Ｍａｒｋｅｔｉｎｇ,,合同会社,神奈川県,藤沢市,鵠沼藤が谷１丁目３－１５,,14,205,2510031,,,,,,,2022-01-04,1,,,,,メディテーションマーケティング,0
79,1021003011246,新規,0,2022-01-04,2022-01-04,ＡＲＹ－ＯＮ合同会社,,合同会社,神奈川県,大和市,つきみ野４丁目６つきみ野ビレジＣ－２－６０５,,14,213,2420002,,,,,,,2022-01-04,1,,,,,アリーオン,0
80,1021005012408,新規,0,2022-01-04,2022-01-04,一般社団法人Ａｚ,,その他の設立登記法人,神奈川県,座間市,ひばりが丘５丁目４４番７号,,14,216,2520003,,,,,,,2022-01-04,1,,,,,エーゼット,0
85,1030001146078,新規,0,2022-01-04,2022-01-04,株式会社ハレ,,株式会社,埼玉県,川越市,東田町４番地１３４,,11,201,3501114,,,,,,,2022-01-04,1,,,,,ハレ,0
112,1040003019215,新規,0,2022-01-04,2022-01-04,＿博合同会社,00125277,合同会社,千葉県,山武市,横田５１８－１,,12,237,2891226,,,,,,,2022-01-04,1,,,,,イクハク,0
132,1080101023008,新規,0,2022-01-04,2022-01-04,株式会社Ｃｕｒｅｔｅｌｉｅｒ,,株式会社,静岡県,駿東郡長泉町,桜堤２丁目１４番８号,,22,342,4110951,,,,,,,2022-01-04,1,,,,,キュアトリエ,0
133,1080105006207,新規,0,2022-01-04,2022-01-04,一般社団法人サバーソニック＆アジロックフェスティバル,,その他の設立登記法人,静岡県,伊東市,猪戸１丁目５番３５号,,22,208,4140004,,,,,,,2022-01-04,1,,,,,サバーソニックアンドアジロックフェスティバル,0
137,1090005007452,新規,0,2022-01-04,2022-01-04,一般社団法人バハール山梨,,その他の設立登記法人,山梨県,甲府市,池田１丁目７番２５号タウンハイツ五味５０３,,19,201,4000062,,,,,,,2022-01-04,1,,,,,バハールヤマナシ,0
138,1100001034944,新規,0,2022-01-04,2022-01-04,株式会社エアープラス２１,,株式会社,長野県,長野市,大字風間７７８番地１４,,20,201,3810023,,,,,,,2022-01-04,1,,,,,エアープラスニジュウイチ,0
139,1100003006339,新規,0,2022-01-04,2022-01-04,合同会社フォレスト,,合同会社,長野県,須坂市,大字豊丘７９５番地,,20,207,3820000,,,,,,,2022-01-04,1,,,,,フォレスト,0
141,1110001036304,新規,0,2022-01-04,2022-01-04,アセットリバティー株式会社,,株式会社,新潟県,長岡市,悠久町１丁目１１０６番地３,,15,202,9400827,,,,,,,2022-01-04,1,,,,,アセットリバティー,0
157,1120001242743,新規,0,2022-01-04,2022-01-04,ＭＳＫ株式会社,,株式会社,大阪府,寝屋川市,上神田２丁目１７番６号,,27,215,5720052,,,,,,,2022-01-04,1,,,,,エムエスケー,0
158,1120001242768,新規,0,2022-01-04,2022-01-04,蘭泰留美株式会社,,株式会社,大阪府,大阪市生野区,新今里３丁目４番１７号シャトー第４今里６０３Ｂ,,27,116,5440001,,,,,,,2022-01-04,1,,,,,ランタイルミ,0
159,1120001242826,新規,0,2022-01-04,2022-01-04,株式会社ＣＲＯＷＴＥＣＨ,,株式会社,大阪府,大阪市中央区,内淡路町２丁目４番１０－２０１号,,27,128,5400038,,,,,,,2022-01-04,1,,,,,クローテック,0
166,1120003020858,新規,0,2022-01-04,2022-01-04,合同会社ネットバック,,合同会社,大阪府,枚方市,中宮東之町２２番５－２,,27,210,5731195,,,,,,,2022-01-04,1,,,,,ネットバック,0
182,1140001124386,新規,0,2022-01-04,2022-01-04,株式会社ＦＢＤ,,株式会社,兵庫県,神戸市灘区,岩屋中町４丁目３－１４、２Ｆ,,28,102,6570845,,,,,,,2022-01-04,1,,,,,エフビーディー,0
183,1140003017159,新規,0,2022-01-04,2022-01-04,合同会社Ｍｏｎｔ－Ｂｌａｎｃ,,合同会社,兵庫県,加西市,段下町２０８番地,,28,220,6752241,,,,,,,2022-01-04,1,,,,,モンブラン,0
187,1160001023909,新規,0,2022-01-04,2022-01-04,飯塚電気株式会社,00125274,株式会社,滋賀県,守山市,勝部２丁目１番３３号,,25,207,5240041,,,,,,,2022-01-04,1,,,,,イイツカデンキ,0
196,1180001149322,新規,0,2022-01-04,2022-01-04,株式会社ＫＭＫサポート,,株式会社,愛知県,犬山市,字藪畔４５番地７,,23,215,4840865,,,,,,,2022-01-04,1,,,,,ケーエムケーサポート,0
218,1240001059110,新規,0,2022-01-04,2022-01-04,ＳＰＬＥＮＤＯＲＥ株式会社,,株式会社,広島県,広島市南区,東雲１丁目１６番１３号,,34,103,7340022,,,,,,,2022-01-04,1,,,,,スプレンドーレ,0
223,1240003005426,新規,0,2022-01-04,2022-01-04,合同会社Ｔ’ｓ　Ｌａｂ,,合同会社,広島県,広島市南区,東雲本町２丁目５番２１号シャンポール８０１,,34,103,7340023,,,,,,,2022-01-04,1,,,,,ティーズラボ,0
228,1260003003758,新規,0,2022-01-04,2022-01-04,合同会社オレンジポピー,,合同会社,岡山県,総社市,駅南１丁目２１－２０,,33,208,7191137,,,,,,,2022-01-04,1,,,,,オレンジポピー,0
229,1280001008591,新規,0,2022-01-04,2022-01-04,株式会社南波商店,,株式会社,島根県,松江市,西長江町１０２７番地７,,32,201,6900132,,,,,,,2022-01-04,1,,,,,ナンバショウテン,0
231,1290001095877,新規,0,2022-01-04,2022-01-04,ＨＴＰ株式会社,,株式会社,福岡県,福岡市東区,箱崎７丁目２０番１０－６０７号県営高須磨団地１０棟,,40,131,8120053,,,,,,,2022-01-04,1,,,,,エィチティピィ,0
237,1290805009504,新規,0,2022-01-04,2022-01-04,医療法人たけうちクリニック,,その他の設立登記法人,福岡県,北九州市小倉北区,京町３丁目１番１号地下１階,,40,106,8020002,,,,,,,2022-01-04,1,,,,,タケウチクリニック,0
257,1370001048001,新規,0,2022-01-04,2022-01-04,株式会社イナシマ,,株式会社,宮城県,仙台市宮城野区,白鳥２丁目３１番２５号,,04,102,9830006,,,,,,,2022-01-04,1,,,,,イナシマ,0
269,1430001085698,新規,0,2022-01-04,2022-01-04,拓伸総業株式会社,,株式会社,北海道,札幌市厚別区,厚別北二条２丁目６番３号,,01,108,0040072,,,,,,,2022-01-04,1,,,,,タクシンソウギョウ,0
277,1470001018893,新規,0,2022-01-04,2022-01-04,株式会社ラルーチェ,,株式会社,香川県,高松市,御厩町４１５番地,00125269,37,201,7618042,,,,,,,2022-01-04,1,,,,,ラルーチェ,0
285,1500001023898,新規,0,2022-01-04,2022-01-04,ユノマチベーカリー株式会社,,株式会社,愛媛県,松山市,岩崎町１丁目４番６３号,,38,201,7900854,,,,,,,2022-01-04,1,,,,,ユノマチベーカリー,0
289,2010001223547,新規,0,2022-01-04,2022-01-04,ＰＣＲ検査株式会社,,株式会社,東京都,千代田区,五番町１２番７号ドミール五番町１－０２５,,13,101,1020076,,,,,,,2022-01-04,1,,,,,ピーシーアールケンサ,0
290,2010001223555,新規,0,2022-01-04,2022-01-04,株式会社ＳＧテクノロジー,,株式会社,東京都,中央区,日本橋兜町１７番１号,,13,102,1030026,,,,,,,2022-01-04,1,,,,,エスジーテクノロジー,0
291,2010001223563,新規,0,2022-01-04,2022-01-04,株式会社オーロラ,,株式会社,東京都,中央区,東日本橋２丁目２８番５号５０８,,13,102,1030004,,,,,,,2022-01-04,1,,,,,オーロラ,0
292,2010001223571,新規,0,2022-01-04,2022-01-04,株式会社発達教育研究所,,株式会社,東京都,千代田区,丸の内１丁目８番地３丸の内トラストタワー２０階,,13,101,1000005,,,,,,,2022-01-04,1,,,,,ハッタツキョウイクケンキュウジョ,0
293,2010001223596,新規,0,2022-01-04,2022-01-04,クリアビューコンサルティング株式会社,,株式会社,東京都,千代田区,神田須田町１丁目１４番１号,,13,101,1010041,,,,,,,2022-01-04,1,,,,,クリアビューコンサルティング,0
307,2010401164696,新規,0,2022-01-04,2022-01-04,株式会社ＧＲＯＰＰＩＮＧ　ＷＩＮＧ,,株式会社,東京都,港区,芝大門２丁目８番５号ＭＨＫビル４Ｆ,,13,103,1050012,,,,,,,2022-01-04,1,,,,,グロッピングウィング,0
308,2010403026795,新規,0,2022-01-04,2022-01-04,ジャパンインフラ１７号合同会社,,合同会社,東京都,港区,元赤坂１丁目１番７号,,13,103,1070051,,,,,,,2022-01-04,1,,,,,ジャパンインフラジュウナナゴウ,0
312,2010503006466,新規,0,2022-01-04,2022-01-04,合同会社Ｍｏｒｅ,,合同会社,東京都,台東区,上野６丁目１１番６号,,13,106,1100005,,,,,,,2022-01-04,1,,,,,モア,0
319,2010901050082,新規,0,2022-01-04,2022-01-04,株式会社ＡＬＩ,,株式会社,東京都,世田谷区,船橋２丁目１１番１５－１２０号,,13,112,1560055,,,,,,,2022-01-04,1,,,,,アリ,0
323,2011001144782,新規,0,2022-01-04,2022-01-04,株式会社Ｌａ　Ｐｈｉｌｏｓｏｐｈｉｅ,,株式会社,東京都,渋谷区,恵比寿西２丁目６番７号ユニオン第一マンション２０１,,13,113,1500021,,,,,,,2022-01-04,1,,,,,ラフィロソフィー,0
324,2011001144907,新規,0,2022-01-04,2022-01-04,ＮＢＳ株式会社,,株式会社,東京都,渋谷区,渋谷２丁目１９番１５－６０９号宮益坂ビルディング,,13,113,1500002,,,,,,,2022-01-04,1,,,,,エヌビーエス,0
325,2011101097360,新規,0,2022-01-04,2022-01-04,株式会社リュウール,,株式会社,東京都,新宿区,西新宿８丁目１３番２号星野ビル,,13,104,1600023,,,,,,,2022-01-04,1,,,,,リュウール,0
327,2011203003720,新規,0,2022-01-04,2022-01-04,ＥＲＴＩ合同会社,,合同会社,東京都,中野区,南台４丁目３番１５号,,13,114,1640014,,,,,,,2022-01-04,1,,,,,エルティ,0
330,2011403003529,新規,0,2022-01-04,2022-01-04,ドミンゴ合同会社,,合同会社,東京都,板橋区,徳丸５丁目３６番４号,,13,119,1750083,,,,,,,2022-01-04,1,,,,,ドミンゴ,0
337,2011601025630,新規,0,2022-01-04,2022-01-04,億澤株式会社,,株式会社,東京都,練馬区,北町１丁目５－５,,13,120,1790081,,,,,,,2022-01-04,1,,,,,オクザワ,0
339,2011801040116,新規,0,2022-01-04,2022-01-04,Ｍｅｅｔ　Ｒｕｎ株式会社,,株式会社,東京都,足立区,千住仲町３１番８－４０２号,,13,121,1200036,,,,,,,2022-01-04,1,,,,,ミートラン,0
345,2013301048498,新規,0,2022-01-04,2022-01-04,株式会社Ｓｏｆｔ　Ｍｏｂｉｌｉｔｙ　Ｉｎｉｔｉａｔｉｖｅ,,株式会社,東京都,豊島区,西池袋２丁目３６番１－９０８号,,13,116,1710021,,,,,,,2022-01-04,1,,,,,ソフトモビリティイニシアティブ,0
361,2021001074839,新規,0,2022-01-04,2022-01-04,株式会社ル・シエル,,株式会社,神奈川県,足柄上郡大井町,金子９３５番地,,14,362,2580019,,,,,,,2022-01-04,1,,,,,ルシエル,0
364,2021003011237,新規,0,2022-01-04,2022-01-04,ＬｉｂｅＲｏ合同会社,,合同会社,神奈川県,相模原市南区,東林間１丁目１３－１－３１０,,14,153,2520311,,,,,,,2022-01-04,1,,,,,リベロ,0
369,2030003018571,新規,0,2022-01-04,2022-01-04,合同会社ＴＲＯＮＧ　ＤＯＮＧ,,合同会社,埼玉県,さいたま市大宮区,下町１丁目４３番８号ＣＯＴＴＯＮＣＡＮＤＹＳＨＩＭＯＣＨＯ２Ｆ,,11,103,3300844,,,,,,,2022-01-04,1,,,,,チョンドン,0
373,2040001121517,新規,0,2022-01-04,2022-01-04,株式会社Ｏｎｅ　ｂｅａｕｔｙ,,株式会社,千葉県,成田市,玉造７丁目１番地３（コミュニティープラザ９号棟１０４号）,,12,211,2860011,,,,,,,2022-01-04,1,,,,,ワンビューティー,0
376,2040003019197,新規,0,2022-01-04,2022-01-04,ＲＡＩＮＢＯＷ　ＩＮＴＥＲＮＡＴＩＯＮＡＬ合同会社,,合同会社,千葉県,成田市,御所の内１９番地１０,,12,211,2860137,,,,,,,2022-01-04,1,,,,,レインボウインターナショナル,0
377,2040003019214,新規,0,2022-01-04,2022-01-04,合同会社すみれ,,合同会社,千葉県,浦安市,高洲３丁目１１番１号,,12,227,2790023,,,,,,,2022-01-04,1,,,,,スミレ,0
379,2050001050376,新規,0,2022-01-04,2022-01-04,株式会社ＳＧ．ｆｏｏｄｓ,,株式会社,茨城県,水戸市,備前町７番３１号,,08,201,3100024,,,,,,,2022-01-04,1,,,,,エスジーフーズ,0
381,2050003006293,新規,0,2022-01-04,2022-01-04,合同会社奏,,合同会社,茨城県,龍ケ崎市,川原代町字小屋１０７８番地１０,,08,208,3010005,,,,,,,2022-01-04,1,,,,,カナデ,0
384,2080001024666,新規,0,2022-01-04,2022-01-04,株式会社ｍｏｗｌ,,株式会社,静岡県,焼津市,岡当目１０５番地の１,,22,212,4250013,,,,,,,2022-01-04,1,,,,,マウル,0
399,2100001034935,新規,0,2022-01-04,2022-01-04,Ｐｏｔ株式会社,,株式会社,長野県,松本市,大字寿豊丘１０３２番地１,,20,202,3990021,,,,,,,2022-01-04,1,,,,,ポット,0
401,2110001036303,新規,0,2022-01-04,2022-01-04,ピーチビレッジファーム株式会社,,株式会社,新潟県,刈羽郡刈羽村,大字刈羽４２７８番地５,,15,504,9450307,,,,,,,2022-01-04,1,,,,,ピーチビレッジファーム,0
411,2120001242791,新規,0,2022-01-04,2022-01-04,株式会社山川水道商会,,株式会社,大阪府,門真市,打越町１６番３号,,27,223,5710029,,,,,,,2022-01-04,1,,,,,ヤマカワスイドウショウカイ,0
412,2120001242800,新規,0,2022-01-04,2022-01-04,株式会社Ｋ．,,株式会社,大阪府,大阪市大正区,泉尾２丁目２３番５号,,27,108,5510031,,,,,,,2022-01-04,1,,,,,ケイドット,0
413,2120001242809,新規,0,2022-01-04,2022-01-04,ユアーズ株式会社,,株式会社,大阪府,大阪市大正区,鶴町３丁目２５番２６号,,27,108,5510023,,,,,,,2022-01-04,1,,,,,ユアーズ,0
414,2120001242825,新規,0,2022-01-04,2022-01-04,美納生日本株式会社,,株式会社,大阪府,大阪市西成区,旭１丁目１０番２５号１０３号室,,27,122,5570032,,,,,,,2022-01-04,1,,,,,ミノウセイニホン,0
422,2130001070804,新規,0,2022-01-04,2022-01-04,株式会社銀狐投資倶楽部,,株式会社,京都府,京都市右京区,太秦一ノ井町３３番地１０,,26,108,6168107,,,,,,,2022-01-04,1,,,,,ギンギツネトウシクラブ,0
423,2130001070812,新規,0,2022-01-04,2022-01-04,株式会社Ｍｅｅｅｅ,,株式会社,京都府,宇治市,伊勢田町名木１丁目１番地の１１３,,26,204,6110044,,,,,,,2022-01-04,1,,,,,ミー,0
427,2140001124253,新規,0,2022-01-04,2022-01-04,株式会社ｔｈｒｅｅ,,株式会社,兵庫県,神戸市須磨区,禅昌寺町１丁目１６番１９号,,28,107,6540001,,,,,,,2022-01-04,1,,,,,スリー,0
428,2140001124352,新規,0,2022-01-04,2022-01-04,株式会社令和教育研究所,,株式会社,兵庫県,神戸市中央区,北長狭通２丁目１０番１号,,28,110,6500012,,,,,,,2022-01-04,1,,,,,レイワキョウイクケンキュウジョ,0
429,2140001124369,新規,0,2022-01-04,2022-01-04,株式会社トラスト建機,,株式会社,兵庫県,神戸市西区,白水１丁目３番１５号,,28,111,6512129,,,,,,,2022-01-04,1,,,,,トラストケンキ,0
433,2150001025211,新規,0,2022-01-04,2022-01-04,株式会社ビジュトワール,,株式会社,奈良県,奈良市,三条町６０６番地の７６奈良ハイタウン２－２０４号,,29,201,6308244,,,,,,,2022-01-04,1,,,,,ビジュトワール,0
436,2160001023908,新規,0,2022-01-04,2022-01-04,株式会社ワイズテック,,株式会社,滋賀県,野洲市,大篠原２１２４番地,,25,210,5202313,,,,,,,2022-01-04,1,,,,,ワイズテック,0
445,2180003023326,新規,0,2022-01-04,2022-01-04,プライムライフ合同会社,,合同会社,愛知県,名古屋市西区,中小田井２丁目１９３番地,,23,104,4520822,,,,,,,2022-01-04,1,,,,,プライムライフ,0
450,2180301035774,新規,0,2022-01-04,2022-01-04,株式会社ハラ防災,,株式会社,愛知県,岡崎市,細川町字上大針５５番地１６５,,23,202,4442149,,,,,,,2022-01-04,1,,,,,ハラボウサイ,0
469,2260001036354,新規,0,2022-01-04,2022-01-04,株式会社ＳＴＵＮＮＡ　ＦＩＥＬＤ　ＲＥＣＯＲＤＳ,,株式会社,岡山県,岡山市北区,伊島町２丁目２０－２６エクセレント津島２Ｆ,,33,101,7000016,,,,,,,2022-01-04,1,,,,,スタナフィールドレコーズ,0
470,2260001036362,新規,0,2022-01-04,2022-01-04,ＣＨＡＭＭＹ’Ｓ株式会社,,株式会社,岡山県,倉敷市,水江９０５番地７,,33,202,7100802,,,,,,,2022-01-04,1,,,,,チャミーズ,0
472,2260003003757,新規,0,2022-01-04,2022-01-04,合同会社Ｔ＆Ｉネットリサイクル,,合同会社,岡山県,岡山市東区,君津３５番地,,33,103,7048166,,,,,,,2022-01-04,1,,,,,ティーアンドアイネットリサイクル,0
487,2310001017654,新規,0,2022-01-04,2022-01-04,株式会社はやぶさ技研,,株式会社,長崎県,南松浦郡新上五島町,有川郷２５１５番地１,,42,411,8574211,,,,,,,2022-01-04,1,,,,,ハヤブサギケン,0
492,2340001024367,新規,0,2022-01-04,2022-01-04,株式会社Ｍｅｓ　Ｌｅｙｅｎｄｏ,,株式会社,鹿児島県,鹿児島市,宇宿７丁目１８番１２号サザンカーサＡ２０２号,,46,201,8900073,,,,,,,2022-01-04,1,,,,,メスレジェンド,0
493,2340003003666,新規,0,2022-01-04,2022-01-04,合同会社魚見賃貸,,合同会社,鹿児島県,鹿児島市,下荒田３丁目３３番８号,,46,201,8900056,,,,,,,2022-01-04,1,,,,,ウオミチンタイ,0
494,2340005009389,新規,0,2022-01-04,2022-01-04,一般社団法人ＳＴＥＰ　ＯＮＥ,,その他の設立登記法人,鹿児島県,日置市,伊集院町猪鹿倉６２２番地５０,,46,216,8992505,,,,,,,2022-01-04,1,,,,,ステップワン,0
496,2360001029827,新規,0,2022-01-04,2022-01-04,株式会社クダカ,,株式会社,沖縄県,うるま市,字昆布６５６番地,,47,213,9042201,,,,,,,2022-01-04,1,,,,,クダカ,0
497,2360003011683,新規,0,2022-01-04,2022-01-04,Ａｂｕｎｄａｎｃｅ合同会社,,合同会社,沖縄県,那覇市,久茂地１丁目１－１パレット久茂地９階,,47,201,9000015,,,,,,,2022-01-04,1,,,,,アバンデンス,0
500,2370001048000,新規,0,2022-01-04,2022-01-04,株式会社ＹＴＲ,,株式会社,宮城県,仙台市宮城野区,榴岡２丁目２番２４号名掛丁パルス熊万ビル３Ｆ,,04,102,9830852,,,,,,,2022-01-04,1,,,,,ワイティーアール,0
502,2370003005528,新規,0,2022-01-04,2022-01-04,合同会社バグース,,合同会社,宮城県,仙台市宮城野区,幸町２丁目２２番３５－５１３号,,04,102,9830836,,,,,,,2022-01-04,1,,,,,バグース,0
503,2370003005536,新規,0,2022-01-04,2022-01-04,合同会社ＨＯＲＩＺＯＮ,,合同会社,宮城県,仙台市青葉区,下愛子字月橋６６番地の５,,04,101,9893125,,,,,,,2022-01-04,1,,,,,ホライゾン,0
506,2380001032440,新規,0,2022-01-04,2022-01-04,株式会社山口断熱,,株式会社,福島県,郡山市,字名倉８７番地,,07,203,9638845,,,,,,,2022-01-04,1,,,,,ヤマグチダンネツ,0
511,2430001085697,新規,0,2022-01-04,2022-01-04,株式会社三伸電機,,株式会社,北海道,札幌市東区,伏古十三条４丁目７番６号,,01,103,0070873,,,,,,,2022-01-04,1,,,,,サンシンデンキ,0
512,2430005014347,新規,0,2022-01-04,2022-01-04,特定非営利活動法人ＴＳＵＮＡＧＵ,,その他の設立登記法人,北海道,札幌市南区,藤野一条８丁目１４番２２号,,01,106,0612281,,,,,,,2022-01-04,1,,,,,ツナグ,0
518,2700150105583,新規,0,2022-01-04,2021-11-02,なかはらワークショップ,,その他,東京都,新宿区,新宿７丁目３－４２古山様方,,13,104,1600022,,,,,,,2021-11-02,1,,,,,ナカハラワークシヨツプ,0
524,3010001223141,新規,0,2022-01-04,2022-01-04,株式会社太助,,株式会社,東京都,中央区,八丁堀２丁目４番１号ダイヤモンドレジデンス八丁堀４０３,,13,102,1040032,,,,,,,2022-01-04,1,,,,,タスケ,0
525,3010001223471,新規,0,2022-01-04,2022-01-04,株式会社ベルコインベスコ,,株式会社,東京都,中央区,日本橋茅場町３丁目２番２号ＥＫＫビル,,13,102,1030025,,,,,,,2022-01-04,1,,,,,ベルコインベスコ,0
526,3010001223546,新規,0,2022-01-04,2022-01-04,スリーネックス株式会社,,株式会社,東京都,中央区,勝どき１丁目１番１－１２１８号,,13,102,1040054,,,,,,,2022-01-04,1,,,,,スリーネックス,0
527,3010001223554,新規,0,2022-01-04,2022-01-04,株式会社ｃｏｍｐａｓｓ,,株式会社,東京都,文京区,小石川５丁目３８－２クレストヒルズ小石川４０１,,13,105,1120002,,,,,,,2022-01-04,1,,,,,コンパス,0
528,3010001223562,新規,0,2022-01-04,2022-01-04,ドーラ株式会社,,株式会社,東京都,中央区,銀座１丁目２２番１１号銀座大竹ビジデンス２階,,13,102,1040061,,,,,,,2022-01-04,1,,,,,ドーラ,0
529,3010005034386,新規,0,2022-01-04,2022-01-04,プライムスリー特定目的会社,,その他の設立登記法人,東京都,千代田区,丸の内１丁目６番５号,,13,101,1000005,,,,,,,2022-01-04,1,,,,,プライムスリー,0
541,3010401164695,新規,0,2022-01-04,2022-01-04,株式会社ＭｏｏｎＭｏｏｎ,,株式会社,東京都,港区,南麻布５丁目１番１１－７０３号,,13,103,1060047,,,,,,,2022-01-04,1,,,,,ムーンムーン,0
542,3010401164704,新規,0,2022-01-04,2022-01-04,株式会社Ｍａｊｏｒ　Ｉｎｄｕｓｔｒｉｅｓ,,株式会社,東京都,港区,六本木７丁目３－２４メゾン明石４０１,,13,103,1060032,,,,,,,2022-01-04,1,,,,,メジャーインダストリーズ,0
543,3010403026778,新規,0,2022-01-04,2022-01-04,ＤＴＰ合同会社,,合同会社,東京都,港区,虎ノ門１丁目２３番３号虎ノ門ヒルズガーデンハウス,,13,103,1050001,,,,,,,2022-01-04,1,,,,,ディーティーピー,0
544,3010403026794,新規,0,2022-01-04,2022-01-04,ジャパンインフラ１６号合同会社,,合同会社,東京都,港区,元赤坂１丁目１番７号,,13,103,1070051,,,,,,,2022-01-04,1,,,,,ジャパンインフラジュウロクゴウ,0
545,3010501048278,新規,0,2022-01-04,2022-01-04,好運来株式会社,,株式会社,東京都,台東区,上野３丁目１８番４号,,13,106,1100005,,,,,,,2022-01-04,1,,,,,コウウンライ,0
546,3010503006465,新規,0,2022-01-04,2022-01-04,合同会社クラスエステート,,合同会社,東京都,台東区,根岸５丁目９番２２－４０１号,,13,106,1100003,,,,,,,2022-01-04,1,,,,,クラスエステート,0
547,3010601060455,新規,0,2022-01-04,2022-01-04,株式会社ｏｎｅ,,株式会社,東京都,墨田区,墨田３丁目３６番２５号,,13,107,1310031,,,,,,,2022-01-04,1,,,,,ワン,0
553,3010803003988,新規,0,2022-01-04,2022-01-04,Ａ＆Ｂ合同会社,,合同会社,東京都,大田区,西蒲田８丁目１５番７号第７３シンエイビル２０１,,13,111,1440051,,,,,,,2022-01-04,1,,,,,エーアンドビー,0
557,3011001144781,新規,0,2022-01-04,2022-01-04,株式会社アーデックス,,株式会社,東京都,目黒区,上目黒１丁目２６番１－３６１０号,,13,110,1530051,,,,,,,2022-01-04,1,,,,,アーデックス,0
558,3011001144848,新規,0,2022-01-04,2022-01-04,株式会社ＳＨＤ,,株式会社,東京都,目黒区,三田１丁目４番３－９０２号,,13,110,1530062,,,,,,,2022-01-04,1,,,,,エスエイチディー,0
559,3011001144864,新規,0,2022-01-04,2022-01-04,株式会社ＭＩＹＡＢＩ,,株式会社,東京都,渋谷区,千駄ヶ谷５丁目３０番１－１２０４号,,13,113,1510051,,,,,,,2022-01-04,1,,,,,ミヤビ,0
563,3011101097343,新規,0,2022-01-04,2022-01-04,株式会社ｅａｃｈ　ｏｔｈｅｒ,,株式会社,東京都,新宿区,西新宿７丁目２番１０号,,13,104,1600023,,,,,,,2022-01-04,1,,,,,イーチアザー,0
564,3011101097401,新規,0,2022-01-04,2022-01-04,千桜株式会社,,株式会社,東京都,新宿区,西新宿３丁目２番９号,,13,104,1600023,,,,,,,2022-01-04,1,,,,,センオウ,0
565,3011103011335,新規,0,2022-01-04,2022-01-04,ＶＥＲＴ　ＪＡＰＡＮ合同会社,,合同会社,東京都,新宿区,津久戸町３番１９号ＤｅＬＣＣＳ神楽坂津久戸町２階Ａ区画,,13,104,1620821,,,,,,,2022-01-04,1,,,,,ベールジャパン,0
568,3011201023513,新規,0,2022-01-04,2022-01-04,ＬａＫａｎｏａ株式会社,,株式会社,東京都,中野区,野方１丁目４０番６－７０１号,,13,114,1650027,,,,,,,2022-01-04,1,,,,,ラカノア,0
570,3011301027455,新規,0,2022-01-04,2022-01-04,株式会社フェボン,,株式会社,東京都,杉並区,堀ノ内２丁目３６番８号カーサＩＩ２０３,00125271,13,115,1660013,,,,,,,2022-01-04,1,,,,,フェボン,0
572,3011505002444,新規,0,2022-01-04,2022-01-04,一般社団法人在日ベトナム女性協会,,その他の設立登記法人,東京都,北区,王子２丁目１７番１２号,,13,117,1140002,,,,,,,2022-01-04,1,,,,,ザイニチベトナムジョセイキョウカイ,0
577,3013301048489,新規,0,2022-01-04,2022-01-04,株式会社оｎｔｅｍｂａａｒ,,株式会社,東京都,豊島区,南大塚３丁目２番１２号,,13,116,1700005,,,,,,,2022-01-04,1,,,,,オンテンバール,0
579,3013303005967,新規,0,2022-01-04,2022-01-04,合同会社ＯＳ住宅社,,合同会社,東京都,豊島区,巣鴨４丁目１７番２０号,,13,116,1700002,,,,,,,2022-01-04,1,,,,,オーエスジュウタクシャ,0
590,3021001074838,新規,0,2022-01-04,2022-01-04,株式会社Ｒａｙｌｅｉｇｈ,,株式会社,神奈川県,相模原市中央区,陽光台３丁目１５番２０号,,14,152,2520226,,,,,,,2022-01-04,1,,,,,レイリー,0
602,3030001146084,新規,0,2022-01-04,2022-01-04,株式会社エムズ,,株式会社,埼玉県,さいたま市北区,吉野町２丁目２２６番地１サービス棟２階,,11,102,3310811,,,,,,,2022-01-04,1,,,,,エムズ,0
603,3030001146092,新規,0,2022-01-04,2022-01-04,株式会社Ｅｉｇｈｔ,,株式会社,埼玉県,川口市,青木４丁目１０番１８号,,11,203,3320031,,,,,,,2022-01-04,1,,,,,エイト,0
606,3040001121557,新規,0,2022-01-04,2022-01-04,株式会社楽都,,株式会社,千葉県,千葉市若葉区,都賀の台４丁目５番２０号１０２号室,,12,104,2640033,,,,,,,2022-01-04,1,,,,,ラクト,0
607,3040001121565,新規,0,2022-01-04,2022-01-04,株式会社ティエムコーポレーション,,株式会社,千葉県,松戸市,西馬橋５丁目２４５番地の１３,,12,207,2710044,,,,,,,2022-01-04,1,,,,,ティエムコーポレーション,0
608,3040001121581,新規,0,2022-01-04,2022-01-04,株式会社Ｇｒａｎｄａｒｂｏ,,株式会社,千葉県,松戸市,小金原４丁目２４－６－２,,12,207,2700021,,,,,,,2022-01-04,1,,,,,グランダーボ,0
611,3050001050367,新規,0,2022-01-04,2022-01-04,株式会社Ｒａｂｂｉｔｓ　Ｉｎｔｅｒｎａｔｉｏｎａｌ,,株式会社,茨城県,かすみがうら市,下稲吉３２８９番地１－１０２号,,08,230,3150052,,,,,,,2022-01-04,1,,,,,ラビッツインターナショナル,0
612,3050001050383,新規,0,2022-01-04,2022-01-04,株式会社４４サイケデリック,,株式会社,茨城県,常総市,十花町４１９番地３,,08,211,3030018,,,,,,,2022-01-04,1,,,,,ヨンジュウヨンサイケデリック,0
613,3050001050391,新規,0,2022-01-04,2022-01-04,株式会社ＦＴＫホールディングス,,株式会社,茨城県,牛久市,南７丁目１２番地１５,,08,219,3001222,,,,,,,2022-01-04,1,,,,,エフティーケイホールディングス,0
614,3050001050400,新規,0,2022-01-04,2022-01-04,株式会社スマイルプロジェクト,,株式会社,茨城県,水戸市,堀町１１９４番地の６ハイツサンライフＡ棟２０２号,,08,201,3100903,,,,,,,2022-01-04,1,,,,,スマイルプロジェクト,0
616,3050003006292,新規,0,2022-01-04,2022-01-04,日本アシスタンス合同会社,,合同会社,茨城県,稲敷市,犬塚１００１番地１９,00125276,08,229,3000507,,,,,,,2022-01-04,1,,,,,ニホンアシスタンス,0
621,3060001034435,新規,0,2022-01-04,2022-01-04,ＪＨＪ　ＴＲＡＤＩＮＧ株式会社,,株式会社,栃木県,足利市,山下町１３１０番地４,,09,202,3260846,,,,,,,2022-01-04,1,,,,,ジェイエッチジェイトレーディング,0
631,3080001024665,新規,0,2022-01-04,2022-01-04,株式会社ＴＳＵＴＡＥＲＵ,,株式会社,静岡県,静岡市葵区,御幸町１０番地の１幸映ビル３階,,22,101,4200857,,,,,,,2022-01-04,1,,,,,ツタエル,0
638,3090001017346,新規,0,2022-01-04,2022-01-04,株式会社田中電気コンストラクション,,株式会社,山梨県,笛吹市,境川町藤垈９９番地３,,19,211,4060853,,,,,,,2022-01-04,1,,,,,タナカデンキコンストラクション,0
640,3090003002016,新規,0,2022-01-04,2022-01-04,合同会社アグリインパクト,,合同会社,山梨県,上野原市,鶴川７１,,19,212,4090132,,,,,,,2022-01-04,1,,,,,アグリインパクト,0
647,3100003006337,新規,0,2022-01-04,2022-01-04,合同会社Ｂｉｇ　Ｈｏｕｓｅ,,合同会社,長野県,伊那市,西春近２６８６番地１,,20,209,3994431,,,,,,,2022-01-04,1,,,,,ビッグハウス,0
665,3120001242799,新規,0,2022-01-04,2022-01-04,株式会社ネクストギア,,株式会社,大阪府,大阪市西区,西本町１丁目１３番３８号,,27,106,5500005,,,,,,,2022-01-04,1,,,,,ネクストギア,0
666,3120001242816,新規,0,2022-01-04,2022-01-04,対顧客関係再構築株式会社,,株式会社,大阪府,大阪市淀川区,西宮原１丁目８番３３号日宝新大阪第２ビル７階４号,,27,123,5320004,,,,,,,2022-01-04,1,,,,,タイコキャクカンケイサイコウチク,0
673,3120101064854,新規,0,2022-01-04,2022-01-04,ひまわり株式会社,,株式会社,大阪府,堺市美原区,多治井２３２番地７６,,27,147,5870012,,,,,,,2022-01-04,1,,,,,ヒマワリ,0
675,3120903003968,新規,0,2022-01-04,2022-01-04,合同会社Ｎａ・Ｋａｎｒｉ,,合同会社,大阪府,吹田市,岸部中４丁目８番３２号マザーズ岸部５０６号室,,27,205,5640002,,,,,,,2022-01-04,1,,,,,エヌエーカンリ,0
678,3130001070803,新規,0,2022-01-04,2022-01-04,株式会社ＫＹＯＴＯ　ＤＥＴＡＩＬ,,株式会社,京都府,京都市北区,上賀茂梅ケ辻町２４番地ＰＬＵＭＨＯＵＳＥ２０３,00125280,26,101,6038087,,,,,,,2022-01-04,1,,,,,キョウトディティール,0
682,3130003007662,新規,0,2022-01-04,2022-01-04,合同会社Ｍｅｄｕｌｉｏｎ,,合同会社,京都府,京都市中京区,御池通東洞院東入笹屋町４３６永和御池ビル６０６号,,26,104,6048187,,,,,,,2022-01-04,1,,,,,メデュリオン,0
689,3140001124319,新規,0,2022-01-04,2022-01-04,株式会社龍,,株式会社,兵庫県,明石市,大久保町西島５２３番地,,28,203,6740065,,,,,,,2022-01-04,1,,,,,リュウ,0
690,3140001124368,新規,0,2022-01-04,2022-01-04,株式会社ムーンライト,,株式会社,兵庫県,尼崎市,南塚口町３丁目１６番７号グラン・ソラーレ２０２,,28,202,6610012,,,,,,,2022-01-04,1,,,,,ムーンライト,0
693,3140003017165,新規,0,2022-01-04,2022-01-04,合同会社ＳＫＹｅｎｔｅｒｔａｉｎｍｅｎｔ,,合同会社,兵庫県,神戸市中央区,中山手通１丁目６－１３－２０１号,,28,110,6500004,,,,,,,2022-01-04,1,,,,,スカイエンターテイメント,0
701,3160001023907,新規,0,2022-01-04,2022-01-04,株式会社Ｂｅｙｏｎｄ,,株式会社,滋賀県,守山市,川田町９０５番地４,,25,207,5240001,,,,,,,2022-01-04,1,,,,,ビヨンド,0
714,3180001149329,新規,0,2022-01-04,2022-01-04,株式会社エムケーワークス,,株式会社,愛知県,名古屋市中川区,東春田１丁目７４番地,,23,110,4540983,,,,,,,2022-01-04,1,,,,,エムケーワークス,0
717,3180003023333,新規,0,2022-01-04,2022-01-04,合同会社ｚｅＣＣａ,,合同会社,愛知県,名古屋市千種区,田代町字四観音道西５番地１９－３０５号,,23,101,4640052,,,,,,,2022-01-04,1,,,,,ゼットイーシーシーエー,0
719,3190001028985,新規,0,2022-01-04,2022-01-04,株式会社ワールドドッグタナカ,,株式会社,三重県,桑名市,多度町古野２８８６番地,,24,205,5110122,,,,,,,2022-01-04,1,,,,,ワールドドッグタナカ,0
720,3190001028993,新規,0,2022-01-04,2022-01-04,伊藤総合設備株式会社,,株式会社,三重県,津市,高茶屋小森町１５４番地４,,24,201,5140817,,,,,,,2022-01-04,1,,,,,イトウソウゴウセツビ,0
723,3200001039584,新規,0,2022-01-04,2022-01-04,株式会社ぱいんほーむ,,株式会社,岐阜県,山県市,大門８８０番地１,,21,215,5012121,,,,,,,2022-01-04,1,,,,,パインホーム,0
725,3220001024618,新規,0,2022-01-04,2022-01-04,株式会社ＬＯＲＥ,,株式会社,石川県,金沢市,黒田１丁目２０３番地,,17,201,9218051,,,,,,,2022-01-04,1,,,,,ロア,0
744,3290001095859,新規,0,2022-01-04,2022-01-04,株式会社ＵＲＥ,,株式会社,福岡県,福岡市城南区,鳥飼５丁目１７番９号,,40,136,8140103,,,,,,,2022-01-04,1,,,,,ユーアールイー,0
745,3290001095867,新規,0,2022-01-04,2022-01-04,株式会社ＯＮＣ　ＡＬＰＨＡ,,株式会社,福岡県,福岡市城南区,樋井川１丁目１番１号,,40,136,8140153,,,,,,,2022-01-04,1,,,,,オーエヌシーアルファ,0
752,3300003001771,新規,0,2022-01-04,2022-01-04,マルアンジュ合同会社,,合同会社,佐賀県,佐賀市,久保田町大字徳万１９０３番地,,41,201,8490201,,,,,,,2022-01-04,1,,,,,マルアンジュ,0
756,3340001024366,新規,0,2022-01-04,2022-01-04,株式会社更生工,,株式会社,鹿児島県,鹿児島市,吉野町４３３６番地３,,46,201,8920871,,,,,,,2022-01-04,1,,,,,コウセイコウ,0
759,3350005006038,新規,0,2022-01-04,2022-01-04,医療法人惠和会,,その他の設立登記法人,宮崎県,宮崎市,池内町９８４番地１,,45,201,8800041,,,,,,,2022-01-04,1,,,,,ケイワカイ,0
763,3360001029826,新規,0,2022-01-04,2022-01-04,株式会社Ｒｙｕｋｉｕｓ,,株式会社,沖縄県,豊見城市,字豊崎１番地２ミオビエント豊崎１３０１号,,47,212,9010225,,,,,,,2022-01-04,1,,,,,リュキウス,0
775,3430001085663,新規,0,2022-01-04,2022-01-04,株式会社Ｋｓカンパニー,,株式会社,北海道,小樽市,銭函２丁目１１番７号,,01,203,0470261,,,,,,,2022-01-04,1,,,,,ケーズカンパニー,0
776,3430001085688,新規,0,2022-01-04,2022-01-04,イタダキ株式会社,,株式会社,北海道,日高郡新ひだか町,三石本町５７番地,,01,610,0593108,,,,,,,2022-01-04,1,,,,,イタダキ,0
780,3470001018891,新規,0,2022-01-04,2022-01-04,高鴨興業株式会社,,株式会社,香川県,高松市,塩江町安原上東４４３番地１０,,37,201,7611612,,,,,,,2022-01-04,1,,,,,タカガモコウギョウ,0
786,3700150033817,新規,0,2022-01-04,2015-10-09,旭川地方労働基準協会,,その他,北海道,旭川市,常盤通１丁目道北経済センタービル６階,,01,204,0700043,,,,,,,2015-10-09,1,,,,,アサヒカワチホウロウドウキジユンキヨウカイ,0
787,3700150106275,新規,0,2022-01-04,2021-12-15,東京地方バプテスト教会連合,,その他,千葉県,市川市,南大野１丁目１１－２８市川大野キリスト教会内,,12,203,2720804,,,,,,,2021-12-15,1,,,,,トウキヨウチホウバプテストキヨウカイレンゴウ,0
793,4010001223553,新規,0,2022-01-04,2022-01-04,エレガントスタイルデザイン株式会社,,株式会社,東京都,千代田区,岩本町３丁目３番８号ガラ・ステーション岩本町Ｎｏｒｔｈ１１０４,,13,101,1010032,,,,,,,2022-01-04,1,,,,,エレガントスタイルデザイン,0
794,4010001223561,新規,0,2022-01-04,2022-01-04,株式会社ノースリバー,,株式会社,東京都,中央区,銀座１丁目２２番１１号銀座大竹ビジデンス２階,,13,102,1040061,,,,,,,2022-01-04,1,,,,,ノースリバー,0
796,4010003036648,新規,0,2022-01-04,2022-01-04,合同会社円海山,,合同会社,東京都,千代田区,丸の内３丁目１番１号東京共同会計事務所内,,13,101,1000005,,,,,,,2022-01-04,1,,,,,エンカイザン,0
797,4010003036656,新規,0,2022-01-04,2022-01-04,ｆｓ．ｒａｎｄｐ合同会社,,合同会社,東京都,中央区,月島２丁目１３－１２、２０８,,13,102,1040052,,,,,,,2022-01-04,1,,,,,エフエスドットアールアンドピー,0
803,4010401164661,新規,0,2022-01-04,2022-01-04,Ｗｏｒｌｄｇｏ　Ｇｒｏｕｐ株式会社,,株式会社,東京都,港区,六本木７丁目７番７号,,13,103,1060032,,,,,,,2022-01-04,1,,,,,ワールドゴーグループ,0
804,4010401164694,新規,0,2022-01-04,2022-01-04,株式会社ＲＵＭＳ,,株式会社,東京都,港区,虎ノ門３丁目１９番１０号,,13,103,1050001,,,,,,,2022-01-04,1,,,,,ラムズ,0
807,4010405020547,新規,0,2022-01-04,2022-01-04,Ｔインフラホールディングス７号一般社団法人,,その他の設立登記法人,東京都,港区,元赤坂１丁目１番７号,,13,103,1070051,,,,,,,2022-01-04,1,,,,,ティーインフラホールディングスナナゴウ,0
810,4010603009326,新規,0,2022-01-04,2022-01-04,合同会社やゆけ,,合同会社,東京都,江東区,東雲１丁目９番４２－２７０５号,,13,108,1350062,,,,,,,2022-01-04,1,,,,,ヤユケ,0
813,4010701041998,新規,0,2022-01-04,2022-01-04,株式会社リプレイ,,株式会社,東京都,品川区,北品川５丁目９番１５号,,13,109,1410001,,,,,,,2022-01-04,1,,,,,リプレイ,0
815,4010705003301,新規,0,2022-01-04,2022-01-04,一般社団法人香葉会,,その他の設立登記法人,東京都,品川区,戸越４丁目９番１２号アビタシオン戸越１０１,,13,109,1420041,,,,,,,2022-01-04,1,,,,,コウヨウカイ,0
821,4011001144797,新規,0,2022-01-04,2022-01-04,株式会社ＥＬＴＥ,,株式会社,東京都,渋谷区,神宮前３丁目３１番１４号８８．ＪＩＮＧＵＭＡＥ１０２号室,,13,113,1500001,,,,,,,2022-01-04,1,,,,,エルテ,0
824,4011101097342,新規,0,2022-01-04,2022-01-04,株式会社ネオパワー,,株式会社,東京都,新宿区,上落合３丁目３４番２号,,13,104,1610034,,,,,,,2022-01-04,1,,,,,ネオパワー,0
825,4011101097375,新規,0,2022-01-04,2022-01-04,株式会社Ｂｌｕｅ　Ｇｒａｃｅ,,株式会社,東京都,新宿区,新宿５丁目１１番１３号富士新宿ビル４階,,13,104,1600022,,,,,,,2022-01-04,1,,,,,ブルーグレース,0
827,4011105010078,新規,0,2022-01-04,2022-01-04,一般社団法人全国治療家アシスト協会,,その他の設立登記法人,東京都,新宿区,西新宿２丁目７番地１小田急第一生命ビル２５階,,13,104,1600023,,,,,,,2022-01-04,1,,,,,ゼンコクチリョウカアシストキョウカイ,0
828,4011401023931,新規,0,2022-01-04,2022-01-04,株式会社ファーストフォロースルー,,株式会社,東京都,板橋区,舟渡１丁目１３番１０号アイ・タワー２ＦスタートアップオフィスＮｏ．９,,13,119,1740041,,,,,,,2022-01-04,1,,,,,ファーストフォロースルー,0
829,4011503005019,新規,0,2022-01-04,2022-01-04,ＭＩＮＨ　ＮＨＡＴ合同会社,,合同会社,東京都,荒川区,西日暮里２丁目１６番２号,,13,118,1160013,,,,,,,2022-01-04,1,,,,,ミンニャット,0
834,4011701024935,新規,0,2022-01-04,2022-01-04,フォーシーズ株式会社,,株式会社,東京都,江戸川区,一之江８丁目１８番１号,,13,123,1320024,,,,,,,2022-01-04,1,,,,,フォーシーズ,0
840,4012401038705,新規,0,2022-01-04,2022-01-04,株式会社サザンホールディング,,株式会社,東京都,稲城市,押立１２３９番地の３,,13,225,2060811,,,,,,,2022-01-04,1,,,,,サザンホールディング,0
841,4013301048496,新規,0,2022-01-04,2022-01-04,家電部屋株式会社,,株式会社,東京都,豊島区,巣鴨５丁目３８－５グランドパレス巣鴨１０１号室,,13,116,1700002,,,,,,,2022-01-04,1,,,,,カデンベヤ,0
843,4013303005974,新規,0,2022-01-04,2022-01-04,大強合同会社,,合同会社,東京都,豊島区,目白５丁目７番１７号,,13,116,1710031,,,,,,,2022-01-04,1,,,,,ダイキョウ,0
846,4020001144534,新規,0,2022-01-04,2022-01-04,株式会社ｖｉｓｉｔｅｒ,,株式会社,神奈川県,横浜市旭区,鶴ケ峰２丁目６－８グリーンビレッジ鶴ヶ峰１２０５,,14,112,2410022,,,,,,,2022-01-04,1,,,,,ビジテ,0
851,4020003021046,新規,0,2022-01-04,2022-01-04,合同会社ＹＴＭ,,合同会社,神奈川県,横浜市戸塚区,平戸町１１５４番地２ｈａｇｕ組む東戸塚１０９号,,14,110,2440803,,,,,,,2022-01-04,1,,,,,ワイティーエム,0
860,4021001074837,新規,0,2022-01-04,2022-01-04,株式会社Ｆｉｌｍ　Ｐａｌｅｔｔｅ,,株式会社,神奈川県,相模原市緑区,橋本５丁目２０番４－８号,,14,151,2520143,,,,,,,2022-01-04,1,,,,,フィルムパレット,0
862,4021005012405,新規,0,2022-01-04,2022-01-04,一般社団法人ｍｅｇｕｒｕ,,その他の設立登記法人,神奈川県,鎌倉市,稲村ガ崎４丁目１番８号,,14,204,2480024,,,,,,,2022-01-04,1,,,,,メグル,0
865,4030001146117,新規,0,2022-01-04,2022-01-04,株式会社Ｓａｌｕｃｅ,,株式会社,埼玉県,さいたま市緑区,東浦和７丁目３２番地１４パレマロン５０５,,11,109,3360926,,,,,,,2022-01-04,1,,,,,サルーチェ,0
869,4030003018578,新規,0,2022-01-04,2022-01-04,花合同会社,,合同会社,埼玉県,久喜市,菖蒲町新堀１８９９番地１共栄マーケット東３号,,11,232,3460105,,,,,,,2022-01-04,1,,,,,ハナ,0
878,4040001121572,新規,0,2022-01-04,2022-01-04,株式会社ｅｓｏｌａ．,,株式会社,千葉県,八千代市,吉橋１０６４番地１３,,12,221,2760047,,,,,,,2022-01-04,1,,,,,エソラ,0
885,4050001050366,新規,0,2022-01-04,2022-01-04,株式会社あしよ,,株式会社,茨城県,守谷市,薬師台２丁目１０番地６５,,08,224,3020105,,,,,,,2022-01-04,1,,,,,アシヨ,0
886,4050001050399,新規,0,2022-01-04,2022-01-04,ＭＩＴＳＵＩ株式会社,,株式会社,茨城県,那珂郡東海村,大字須和間６７９番地１２９,,08,341,3191114,,,,,,,2022-01-04,1,,,,,ミツイ,0
887,4050003006291,新規,0,2022-01-04,2022-01-04,合同会社むすび,,合同会社,茨城県,かすみがうら市,中志筑２４８１－１,,08,230,3150075,,,,,,,2022-01-04,1,,,,,ムスビ,0
890,4060001034434,新規,0,2022-01-04,2022-01-04,株式会社ＫＲＤ彩創,,株式会社,栃木県,那須塩原市,東三島１丁目１０４番地１９,,09,213,3292751,,,,,,,2022-01-04,1,,,,,クロダサイソウ,0
898,4080001024664,新規,0,2022-01-04,2022-01-04,株式会社タクマＣＮ,,株式会社,静岡県,静岡市葵区,山崎２丁目１４番地の１,,22,101,4211213,,,,,,,2022-01-04,1,,,,,タクマシーエヌ,0
908,4110003004669,新規,0,2022-01-04,2022-01-04,合同会社ＵＮＩＴＹ,,合同会社,新潟県,新潟市中央区,大島６９番地２,,15,103,9500953,,,,,,,2022-01-04,1,,,,,ユニティ,0
909,4110005016745,新規,0,2022-01-04,2022-01-04,一般社団法人燕北福祉会,,その他の設立登記法人,新潟県,燕市,花園町２９番１５号,,15,213,9591221,,,,,,,2022-01-04,1,,,,,ツバメキタフクシカイ,0
926,4120001242781,新規,0,2022-01-04,2022-01-04,株式会社ＳＡＫＵＲＡ,,株式会社,大阪府,大阪市西成区,玉出東２丁目３番２５号２Ｆ,,27,122,5570043,,,,,,,2022-01-04,1,,,,,サクラ,0
927,4120001242798,新規,0,2022-01-04,2022-01-04,株式会社ＨＫクリーニング,,株式会社,大阪府,大阪市浪速区,幸町２丁目２番４０－３０７号,,27,111,5560021,,,,,,,2022-01-04,1,,,,,エイチケイクリーニング,0
928,4120001242815,新規,0,2022-01-04,2022-01-04,鶏ｄｉａｎ株式会社,,株式会社,大阪府,大阪市城東区,鴫野西５丁目１５番５号,,27,118,5360014,,,,,,,2022-01-04,1,,,,,トリディアン,0
930,4120003020847,新規,0,2022-01-04,2022-01-04,米御合同会社,,合同会社,大阪府,大阪市住之江区,粉浜１丁目１７番１９,,27,125,5590001,,,,,,,2022-01-04,1,,,,,ミユ,0
931,4120101064837,新規,0,2022-01-04,2022-01-04,株式会社Ｓａｎ＆３．ＦＣ・ＨＤ,,株式会社,大阪府,堺市西区,菱木２丁２３８０番地１,,27,144,5938315,,,,,,,2022-01-04,1,,,,,サンタスサンエフシーホールディングス,0
936,4120901045409,新規,0,2022-01-04,2022-01-04,ベルアート株式会社,,株式会社,大阪府,吹田市,南正雀５丁目１－７,,27,205,5640012,,,,,,,2022-01-04,1,,,,,ベルアート,0
946,4140001124350,新規,0,2022-01-04,2022-01-04,株式会社ＬＩＢ　ｃｒｅａｔｉｏｎ．,,株式会社,兵庫県,神戸市中央区,栄町通５丁目２番２号ＲＥＡＬＩＺＥＫＯＢＥ２０３,,28,110,6500023,,,,,,,2022-01-04,1,,,,,リブクリエイション,0
947,4140001124359,新規,0,2022-01-04,2022-01-04,株式会社アイボーリング,,株式会社,兵庫県,三田市,藍本３７１番地,,28,219,6691358,,,,,,,2022-01-04,1,,,,,アイボーリング,0
948,4140001124367,新規,0,2022-01-04,2022-01-04,株式会社本田建築,,株式会社,兵庫県,高砂市,阿弥陀町北池６０－３,,28,216,6760825,,,,,,,2022-01-04,1,,,,,ホンダケンチク,0
949,4140005025966,新規,0,2022-01-04,2022-01-04,一般社団法人カーザ・ミア,,その他の設立登記法人,兵庫県,尼崎市,七松町１丁目１０番２８号,,28,202,6600052,,,,,,,2022-01-04,1,,,,,カーザミア,0
959,4180001149328,新規,0,2022-01-04,2022-01-04,株式会社ＫＣＳ　ＳＥＲＶＩＣＥ,,株式会社,愛知県,津島市,大坪町字折戸５２,,23,208,4960012,,,,,,,2022-01-04,1,,,,,ケーシーエスサービス,0
963,4180003023332,新規,0,2022-01-04,2022-01-04,合同会社アレン,,合同会社,愛知県,津島市,橘町６丁目９５番地,,23,208,4960038,,,,,,,2022-01-04,1,,,,,アレン,0
976,4200001039583,新規,0,2022-01-04,2022-01-04,株式会社足立電工,,株式会社,岐阜県,各務原市,前渡東町４丁目３３７番地,,21,213,5040922,,,,,,,2022-01-04,1,,,,,アダチデンコウ,0
997,4290001095874,新規,0,2022-01-04,2022-01-04,株式会社大石,,株式会社,福岡県,久留米市,朝妻町六丁目３５番地レオパレス福丸ＩＩＩ３１１号,00125281,40,203,8390843,,,,,,,2022-01-04,1,,,,,オオイシ,0
998,4290001095882,新規,0,2022-01-04,2022-01-04,株式会社エンジョイ・マーケティング,,株式会社,福岡県,福岡市中央区,大名１丁目３番２３号,,40,133,8100041,,,,,,,2022-01-04,1,,,,,エンジョイマーケティング,0
1002,4290803004017,新規,0,2022-01-04,2022-01-04,合同会社コアトラ,,合同会社,福岡県,北九州市小倉南区,貫弥生が丘２丁目１５番１号,,40,107,8000234,,,,,,,2022-01-04,1,,,,,コアトラ,0
1003,4310001017652,新規,0,2022-01-04,2022-01-04,株式会社Ｒｉｈｓｓｙ,,株式会社,長崎県,長崎市,本石灰町３番１３号富田ビル２階,,42,201,8500901,,,,,,,2022-01-04,1,,,,,リフシー,0
1012,4330003009183,新規,0,2022-01-04,2022-01-04,合同会社Ｎｏｒｔｈｅｒｎ　Ｄｒａｇｏｎ　Ｂａｓｅ,,合同会社,熊本県,熊本市北区,龍田８丁目９番６０号,,43,105,8618006,,,,,,,2022-01-04,1,,,,,ノーザンドラゴンベース,0
1015,4340001024365,新規,0,2022-01-04,2022-01-04,株式会社メープルツリー,,株式会社,鹿児島県,鹿児島市,城山１丁目３番２号,,46,201,8900013,,,,,,,2022-01-04,1,,,,,メープルツリー,0
1017,4340003003664,新規,0,2022-01-04,2022-01-04,合同会社ＴＥＲＡＣＨＩ,,合同会社,鹿児島県,鹿児島市,紫原６丁目８番１６号,,46,201,8900082,,,,,,,2022-01-04,1,,,,,テラチ,0
1018,4350005006037,新規,0,2022-01-04,2022-01-04,特定非営利活動法人まち・ねこ環境向上委員会,,その他の設立登記法人,宮崎県,宮崎市,宮崎駅東３丁目６番地５,,45,201,8800879,,,,,,,2022-01-04,1,,,,,マチネコカンキョウコウジョウイインカイ,0
1020,4360001029833,新規,0,2022-01-04,2022-01-04,株式会社ナカマ設備工業,,株式会社,沖縄県,那覇市,字国場８６９番地１テラス東門４０２,,47,201,9020075,,,,,,,2022-01-04,1,,,,,ナカマセツビコウギョウ,0
1022,4360003011681,新規,0,2022-01-04,2022-01-04,合同会社リネクトレンタカー,,合同会社,沖縄県,那覇市,具志３丁目２３番７号１階,,47,201,9010146,,,,,,,2022-01-04,1,,,,,リネクトレンタカー,0
1027,4370003005534,新規,0,2022-01-04,2022-01-04,合同会社ＷＥＥＤＳ,,合同会社,宮城県,仙台市太白区,根岸町１１番５号,,04,104,9820844,,,,,,,2022-01-04,1,,,,,ウィーズ,0
1031,4380001032439,新規,0,2022-01-04,2022-01-04,株式会社ＳＳＣ,,株式会社,福島県,いわき市,好間町川中子字愛宕後１番地の３,,07,204,9708015,,,,,,,2022-01-04,1,,,,,,0
1039,4390003001903,新規,0,2022-01-04,2022-01-04,合同会社輝,,合同会社,山形県,最上郡大蔵村,大字清水２０４３番地,,06,365,9960212,,,,,,,2022-01-04,1,,,,,カガヤキ,0
1041,4430001085695,新規,0,2022-01-04,2022-01-04,株式会社ＧＯＪＩＧＥＮ,,株式会社,北海道,札幌市南区,定山渓温泉西１丁目６３番地２,,01,106,0612303,,,,,,,2022-01-04,1,,,,,ゴジゲン,0
1065,5010001223478,新規,0,2022-01-04,2022-01-04,株式会社創萌ホールディングス,,株式会社,東京都,千代田区,二番町８番地７二番町パークフォレスト１００７号,,13,101,1020084,,,,,,,2022-01-04,1,,,,,ソウメイホールディングス,0
1066,5010001223552,新規,0,2022-01-04,2022-01-04,株式会社ＮＩＢＵＲＥＮ,,株式会社,東京都,千代田区,富士見１丁目３番１１号富士見デュープレックスＢ’ｓ４Ｆ,,13,101,1020071,,,,,,,2022-01-04,1,,,,,ニブレン,0
1067,5010001223560,新規,0,2022-01-04,2022-01-04,株式会社三角,,株式会社,東京都,中央区,銀座１丁目２２番１１号銀座大竹ビジデンス２Ｆ,,13,102,1040061,,,,,,,2022-01-04,1,,,,,サンカク,0
1068,5010003036639,新規,0,2022-01-04,2022-01-04,合同会社ＦＰＢｉｚ,,合同会社,東京都,中央区,銀座１丁目１２－４Ｎ＆ＥＢＬＤ．７階,,13,102,1040061,,,,,,,2022-01-04,1,,,,,エフピービズ,0
1069,5010003036655,新規,0,2022-01-04,2022-01-04,銀座和縁合同会社,,合同会社,東京都,中央区,銀座７丁目５番１２号ニューギンザビル８号館３階,,13,102,1040061,,,,,,,2022-01-04,1,,,,,ギンザワエン,0
1076,5010401164710,新規,0,2022-01-04,2022-01-04,Ｃ．Ｐｏｒｔ　Ａｓｓｅｔ　Ｍａｎａｇｅｍｅｎｔ株式会社,,株式会社,東京都,港区,芝大門１丁目１６番４号,,13,103,1050012,,,,,,,2022-01-04,1,,,,,シーポートアセットマネジメント,0
1078,5010405020546,新規,0,2022-01-04,2022-01-04,マーキュリーインフラホールディングス一般社団法人,,その他の設立登記法人,東京都,港区,元赤坂１丁目１番７号,,13,103,1070051,,,,,,,2022-01-04,1,,,,,マーキュリーインフラホールディングス,0
1082,5010501048276,新規,0,2022-01-04,2022-01-04,株式会社ＣＬＩＭＢＥＲＳ,,株式会社,東京都,台東区,元浅草２丁目７番５号モダンビルディング４階,,13,106,1110041,,,,,,,2022-01-04,1,,,,,クライマーズ,0
1086,5010601060437,新規,0,2022-01-04,2022-01-04,株式会社ＫＩＲＩＮクリーンサービス,,株式会社,東京都,墨田区,京島１丁目２６番４号Ｋ＆Ｍ田山２Ｆ,,13,107,1310046,,,,,,,2022-01-04,1,,,,,キリンクリーンサービス,0
1093,5011001144846,新規,0,2022-01-04,2022-01-04,株式会社Ｓｃｕｔｏｍ,,株式会社,東京都,渋谷区,渋谷２丁目２番４青山アルコーブ８１２,,13,113,1500002,,,,,,,2022-01-04,1,,,,,スキュータム,0
1094,5011001144862,新規,0,2022-01-04,2022-01-04,株式会社Ｓｏｃｉａｌ　Ｉｎｎｏｖａｔｉｏｎ　Ｊａｐａｎ,,株式会社,東京都,渋谷区,神南１丁目６番５号,,13,113,1500041,,,,,,,2022-01-04,1,,,,,ソーシャルイノベーションジャパン,0
1096,5011101097358,新規,0,2022-01-04,2022-01-04,株式会社Ｇｅｎｅｒａｌｉｓｔ,,株式会社,東京都,新宿区,西新宿３丁目３番１３号西新宿水間ビル６階,,13,104,1600023,,,,,,,2022-01-04,1,,,,,ジェネラリスト,0
1097,5011101097382,新規,0,2022-01-04,2022-01-04,株式会社Ｇｒｏｗｔｈ,,株式会社,東京都,新宿区,高田馬場４丁目２２番３３号,,13,104,1690075,,,,,,,2022-01-04,1,,,,,グロウス,0
1098,5011101097416,新規,0,2022-01-04,2022-01-04,株式会社アットミー,,株式会社,東京都,新宿区,西新宿１丁目４番１１－４１４号,,13,104,1600023,,,,,,,2022-01-04,1,,,,,アットミー,0
1100,5011105010077,新規,0,2022-01-04,2022-01-04,一般社団法人青草の原,,その他の設立登記法人,東京都,新宿区,西新宿７丁目２２－５,,13,104,1600023,,,,,,,2022-01-04,1,,,,,アオクサノハラ,0
1101,5011201023511,新規,0,2022-01-04,2022-01-04,遠紅株式会社,,株式会社,東京都,中野区,松が丘２丁目１５番７号レオパード中野３１２,,13,114,1650024,,,,,,,2022-01-04,1,,,,,エンコウ,0
1102,5011501027609,新規,0,2022-01-04,2022-01-04,株式会社ＨＩＮＥ,,株式会社,東京都,北区,西ケ原４丁目４１番２号ヒカリハイム３０２,,13,117,1140024,,,,,,,2022-01-04,1,,,,,ヒネ,0
1110,5011801040121,新規,0,2022-01-04,2022-01-04,株式会社Ｔａｋａ　Ｎｅｋｏ,,株式会社,東京都,葛飾区,宝町２丁目１１番２３号,,13,122,1240005,,,,,,,2022-01-04,1,,,,,タカネコ,0
1112,5012401038704,新規,0,2022-01-04,2022-01-04,株式会社コンフィテック・スペース,,株式会社,東京都,三鷹市,新川２丁目９番１５号,,13,204,1810004,,,,,,,2022-01-04,1,,,,,コンフィテックスペース,0
1113,5012803002670,新規,0,2022-01-04,2022-01-04,フィル合同会社,,合同会社,東京都,日野市,南平５丁目１番地の７,,13,212,1910041,,,,,,,2022-01-04,1,,,,,フィル,0
1121,5020001144517,新規,0,2022-01-04,2022-01-04,ブランディングジャパン株式会社,,株式会社,神奈川県,横浜市中区,弁天通４丁目５３番地２馬車道ＤＯＭＯＮビルＢ１,,14,104,2310007,,,,,,,2022-01-04,1,,,,,ブランディングジャパン,0
1122,5020001144541,新規,0,2022-01-04,2022-01-04,株式会社ライズ,,株式会社,神奈川県,横浜市磯子区,洋光台１丁目１８番３０－２０５号,,14,107,2350045,,,,,,,2022-01-04,1,,,,,ライズ,0
1123,5020001144558,新規,0,2022-01-04,2022-01-04,株式会社ＩＭゼロワンサポート,,株式会社,神奈川県,川崎市中原区,上平間１２９０番地サンモール小宮３０４,,14,133,2110013,,,,,,,2022-01-04,1,,,,,アイエムゼロワンサポート,0
1131,5021001074844,新規,0,2022-01-04,2022-01-04,株式会社ひな事務所,,株式会社,神奈川県,横須賀市,林２丁目４番１３－Ａ３０１号,,14,201,2380315,,,,,,,2022-01-04,1,,,,,ヒナジムショ,0
1140,5030001146108,新規,0,2022-01-04,2022-01-04,株式会社ＭＡＣＳ,,株式会社,埼玉県,三郷市,栄１丁目１８８番地１,,11,237,3410043,,,,,,,2022-01-04,1,,,,,マックス,0
1141,5030001146116,新規,0,2022-01-04,2022-01-04,株式会社楓,,株式会社,埼玉県,富士見市,羽沢１丁目２４番２９号,,11,235,3540033,,,,,,,2022-01-04,1,,,,,カエデ,0
1143,5030003018544,新規,0,2022-01-04,2022-01-04,合同会社ＳＭ農機,,合同会社,埼玉県,深谷市,大谷２８１６番地,,11,218,3660814,,,,,,,2022-01-04,1,,,,,エスエムノウキ,0
1144,5030003018569,新規,0,2022-01-04,2022-01-04,合同会社ＣＲＥＡＴＩＶＥ　ＬＯＯＫ,,合同会社,埼玉県,坂戸市,花影町２６－１マハナファレ２０３,,11,239,3500236,,,,,,,2022-01-04,1,,,,,クリエイティブルック,0
1149,5040001121539,新規,0,2022-01-04,2022-01-04,株式会社レボリューション,,株式会社,千葉県,松戸市,東松戸１丁目２１番１０号サンライズヒル１０５号室,,12,207,2702225,,,,,,,2022-01-04,1,,,,,レボリューション,0
1150,5040001121563,新規,0,2022-01-04,2022-01-04,Ｒｉｃｈｍａｎ　Ｆａｍｉｌｙ株式会社,,株式会社,千葉県,松戸市,二十世紀が丘萩町２７４番地の３東宏ビル２０１,,12,207,2710086,,,,,,,2022-01-04,1,,,,,リッチマンファミリー,0
1156,5050001050373,新規,0,2022-01-04,2022-01-04,株式会社ＮＴＹ,,株式会社,茨城県,水戸市,赤塚１丁目１９７５番地４,00125273,08,201,3114141,,,,,,,2022-01-04,1,,,,,エヌティーワイ,0
1157,5050001050381,新規,0,2022-01-04,2022-01-04,会田電気株式会社,,株式会社,茨城県,つくば市,西高野８０７番地５,,08,220,3002613,,,,,,,2022-01-04,1,,,,,アイタデンキ,0
1158,5050003006290,新規,0,2022-01-04,2022-01-04,叶スタイルホーム合同会社,,合同会社,茨城県,取手市,西２丁目２９番５号,,08,217,3020025,,,,,,,2022-01-04,1,,,,,カナウスタイルホーム,0
1161,5060001034433,新規,0,2022-01-04,2022-01-04,株式会社山田屋商店,,株式会社,栃木県,鹿沼市,御成橋町１丁目２２５３番地８,,09,205,3220005,,,,,,,2022-01-04,1,,,,,ヤマダヤショウテン,0
1165,5080001024663,新規,0,2022-01-04,2022-01-04,株式会社テイクオーバー,,株式会社,静岡県,焼津市,八楠４丁目１５－２１,,22,212,4250091,,,,,,,2022-01-04,1,,,,,テイクオーバー,0
1172,5100001034940,新規,0,2022-01-04,2022-01-04,株式会社ｋｉｉｔｏｓ,,株式会社,長野県,長野市,大字北尾張部３９９番地,,20,201,3810014,,,,,,,2022-01-04,1,,,,,キートス,0
1176,5110001036309,新規,0,2022-01-04,2022-01-04,株式会社ＭＮＥ,,株式会社,新潟県,新潟市西蒲区,遠藤２４９５番地,,15,108,9590506,,,,,,,2022-01-04,1,,,,,エムエヌイー,0
1188,5120001242789,新規,0,2022-01-04,2022-01-04,株式会社サン・ギャランティサービス,,株式会社,大阪府,大阪市北区,本庄東１丁目４番１７号,,27,127,5310074,,,,,,,2022-01-04,1,,,,,サンギャランティサービス,0
1189,5120001242797,新規,0,2022-01-04,2022-01-04,株式会社Ｒｉｖｅｒｕｐ,,株式会社,大阪府,大阪市西区,土佐堀１丁目４番６号,,27,106,5500001,,,,,,,2022-01-04,1,,,,,リバーアップ,0
1190,5120003020854,新規,0,2022-01-04,2022-01-04,ＵＮＧ合同会社,,合同会社,大阪府,大阪市住之江区,南港北１丁目３０番３０号,,27,125,5590034,,,,,,,2022-01-04,1,,,,,ユーエヌジー,0
1191,5120101064860,新規,0,2022-01-04,2022-01-04,株式会社ゴールド健康,,株式会社,大阪府,堺市南区,城山台１丁１８番７号,,27,145,5900137,,,,,,,2022-01-04,1,,,,,ゴールドケンコウ,0
1196,5120903003966,新規,0,2022-01-04,2022-01-04,合同会社大優,,合同会社,大阪府,箕面市,船場西１丁目１１－３３,,27,220,5620036,,,,,,,2022-01-04,1,,,,,ダイユウ,0
1225,5180001149285,新規,0,2022-01-04,2022-01-04,株式会社東海リアルティ,,株式会社,愛知県,岩倉市,稲荷町稲荷西１５５番地３,,23,228,4820012,,,,,,,2022-01-04,1,,,,,トウカイリアルティ,0
1226,5180001149310,新規,0,2022-01-04,2022-01-04,株式会社ＨＡＳＯＣＫ,,株式会社,愛知県,名古屋市西区,名駅１丁目１番１７号,,23,104,4510045,,,,,,,2022-01-04,1,,,,,ハソック,0
1228,5180003023331,新規,0,2022-01-04,2022-01-04,合同会社ｉｎｔ．ｄｅｓｉｇｎ　ｏｆｆｉｃｅ,,合同会社,愛知県,名古屋市天白区,音聞山１１１５番地,,23,116,4680063,,,,,,,2022-01-04,1,,,,,イントデザインオフィス,0
1246,5240005015312,新規,0,2022-01-04,2022-01-04,一般社団法人ＵＮＩＲ,,その他の設立登記法人,広島県,三原市,中之町１丁目１９番８－１０１号,,34,204,7230003,,,,,,,2022-01-04,1,,,,,ウニール,0
1248,5260001036368,新規,0,2022-01-04,2022-01-04,株式会社ビッグマンプロジェクト,,株式会社,岡山県,倉敷市,連島４丁目１番６号,,33,202,7128012,,,,,,,2022-01-04,1,,,,,ビッグマンプロジェクト,0
1259,5290001095857,新規,0,2022-01-04,2022-01-04,株式会社Ｒｅｂｏｒｎ　ＴＫ　Ｊａｐａｎ,,株式会社,福岡県,福岡市博多区,博多駅前２丁目５番７号３Ｆ,,40,132,8120011,,,,,,,2022-01-04,1,,,,,リボーンティーケージャパン,0
1260,5290001095865,新規,0,2022-01-04,2022-01-04,株式会社ＨＡＧＩＯ,,株式会社,福岡県,福岡市博多区,下呉服町１０番４－６０１号,,40,132,8120034,,,,,,,2022-01-04,1,,,,,ハギオ,0
1261,5290001095881,新規,0,2022-01-04,2022-01-04,株式会社ＫＹＳメディカル,,株式会社,福岡県,飯塚市,高田９７２番地１,,40,205,8200079,,,,,,,2022-01-04,1,,,,,ケーワイエスメディカル,0
1277,5330001029307,新規,0,2022-01-04,2022-01-04,株式会社アンカー,,株式会社,熊本県,菊池市,隈府４２８番地４,,43,210,8611331,,,,,,,2022-01-04,1,,,,,アンカー,0
1282,5350001017499,新規,0,2022-01-04,2022-01-04,Ｍｉｒａｉつのエナジー株式会社,,株式会社,宮崎県,児湯郡都農町,大字川北４８７４番地２,,45,406,8891201,,,,,,,2022-01-04,1,,,,,ミライツノエナジー,0
1283,5360001029816,新規,0,2022-01-04,2022-01-04,株式会社沖盛システム,,株式会社,沖縄県,沖縄市,古謝２丁目１８－２４門ビル２０１号,,47,211,9042161,,,,,,,2022-01-04,1,,,,,オキモリシステム,0
1304,5430001085686,新規,0,2022-01-04,2022-01-04,株式会社ｓｅｒｅｎａｔａ,,株式会社,北海道,札幌市中央区,南五条西３丁目３番地中銀三番館ビル,,01,101,0640805,,,,,,,2022-01-04,1,,,,,セレナータ,0
1307,5430005014344,新規,0,2022-01-04,2022-01-04,農事組合法人御園ダイヂ,,その他の設立登記法人,北海道,夕張郡栗山町,字御園３００番地１,,01,429,0680355,,,,,,,2022-01-04,1,,,,,ミソノダイヂ,0
1310,5450001013570,新規,0,2022-01-04,2022-01-04,株式会社天鵞絨,,株式会社,北海道,旭川市,東光二十三条６丁目３番７号,,01,204,0788363,,,,,,,2022-01-04,1,,,,,ビロード,0
1314,5470003002099,新規,0,2022-01-04,2022-01-04,合同会社宮本産業,,合同会社,香川県,高松市,香西南町５７８番地２メゾンソレイユ２０１,,37,201,7618014,,,,,,,2022-01-04,1,,,,,ミヤモトサンギョウ,0
1320,5700150105936,新規,0,2022-01-04,2021-11-24,ＮＥＯ囃子伝承会,,その他,青森県,弘前市,大字五所字野沢６１－２４,,02,202,0361503,,,,,,,2021-11-24,1,,,,,ネオハヤシデンシヨウカイ,0
1330,6010001223510,新規,0,2022-01-04,2022-01-04,株式会社Ｈａｒｋ,,株式会社,東京都,千代田区,神田神保町２丁目１３番地１西遊ビル３Ｆ,,13,101,1010051,,,,,,,2022-01-04,1,,,,,ハルク,0
1331,6010005034383,新規,0,2022-01-04,2022-01-04,一般社団法人いきいきライフ協会銀座,,その他の設立登記法人,東京都,中央区,佃２丁目２番１１号,,13,102,1040051,,,,,,,2022-01-04,1,,,,,イキイキライフキョウカイギンザ,0
1332,6010103001839,新規,0,2022-01-04,2022-01-04,Ａｚｚｕｒｒｏ　ｐｌｕｓ８１合同会社,,合同会社,東京都,八王子市,千人町３丁目１－７カサーレ西八王子１０７号室,,13,201,1930835,,,,,,,2022-01-04,1,,,,,,0
1337,6010401164651,新規,0,2022-01-04,2022-01-04,株式会社ＯＳイースト,,株式会社,東京都,港区,六本木５丁目１１番２２－５０４号,,13,103,1060032,,,,,,,2022-01-04,1,,,,,オーエスイースト,0
1338,6010401164668,新規,0,2022-01-04,2022-01-04,株式会社イグナイト・ベンチャーズ,,株式会社,東京都,港区,高輪１丁目２３番２３－３４０１号,,13,103,1080074,,,,,,,2022-01-04,1,,,,,イグナイトベンチャーズ,0
1339,6010401164701,新規,0,2022-01-04,2022-01-04,彦星ｃｏｍｐａｎｙ株式会社,,株式会社,東京都,港区,西新橋３丁目９番１－４０１号,,13,103,1050003,,,,,,,2022-01-04,1,,,,,ヒコボシカンパニー,0
1342,6010405020545,新規,0,2022-01-04,2022-01-04,ジャパンインフラホールディングス１９号一般社団法人,,その他の設立登記法人,東京都,港区,元赤坂１丁目１番７号,,13,103,1070051,,,,,,,2022-01-04,1,,,,,ジャパンインフラホールディングスジュウキュウゴウ,0
1346,6010501048275,新規,0,2022-01-04,2022-01-04,ＡＰ　Ｉｎｔｅｒｎａｔｉｏｎａｌ株式会社,,株式会社,東京都,台東区,上野５丁目１６－１７Ｂ１,,13,106,1100005,,,,,,,2022-01-04,1,,,,,エーピーインターナショナル,0
1351,6010601060436,新規,0,2022-01-04,2022-01-04,株式会社Ｎｉｐｐｏｎ　Ｇｌｏｂａｌ,,株式会社,東京都,墨田区,江東橋３丁目９番２４号ニュー錦糸町ビル２０７号室,,13,107,1300022,,,,,,,2022-01-04,1,,,,,ニッポングローバル,0
1352,6010603009324,新規,0,2022-01-04,2022-01-04,合同会社ＩＬＬＵＭＩＮＡＴＥ　ＬＩＦＥ,,合同会社,東京都,江東区,森下２丁目２４番３号グレアハウス３０１,,13,108,1350004,,,,,,,2022-01-04,1,,,,,イルミネイトライフ,0
1353,6010701041996,新規,0,2022-01-04,2022-01-04,アールインタラクティブ株式会社,,株式会社,東京都,品川区,平塚２丁目６番１３号スバルビル６Ｆ,,13,109,1420051,,,,,,,2022-01-04,1,,,,,アールインタラクティブ,0
1355,6010903007044,新規,0,2022-01-04,2022-01-04,合同会社ＳＳ企画,,合同会社,東京都,世田谷区,代沢５丁目２９番１２－５０３号,,13,112,1550032,,,,,,,2022-01-04,1,,,,,エスエスキカク,0
1358,6011001144829,新規,0,2022-01-04,2022-01-04,株式会社Ｏｕｔｌｉｅｒ　Ｐｒｏｄｕｃｔｓ,,株式会社,東京都,渋谷区,恵比寿４丁目２０番３号恵比寿ガーデンプレイスタワー１８階,,13,113,1500013,,,,,,,2022-01-04,1,,,,,アウトライヤープロダクツ,0
1366,6011101097357,新規,0,2022-01-04,2022-01-04,株式会社Ｒａｎｄ,,株式会社,東京都,新宿区,歌舞伎町２丁目２０番１７号朝日新宿館３０２,,13,104,1600021,,,,,,,2022-01-04,1,,,,,ランド,0
1372,6011301027452,新規,0,2022-01-04,2022-01-04,株式会社なりた,,株式会社,東京都,杉並区,荻窪３丁目７番２－１４－２０４号シャレール荻窪,,13,115,1670051,,,,,,,2022-01-04,1,,,,,ナリタ,0
1378,6011503005017,新規,0,2022-01-04,2022-01-04,合同会社Ｓ＆Ｈ,,合同会社,東京都,北区,西ケ原１丁目４番１１号,,13,117,1140024,,,,,,,2022-01-04,1,,,,,,0
1385,6013301048486,新規,0,2022-01-04,2022-01-04,株式会社リビングパートナーズ,,株式会社,東京都,豊島区,池袋２丁目１１番９号安藤ビル１階,,13,116,1710014,,,,,,,2022-01-04,1,,,,,リビングパートナーズ,0
1390,6020001144458,新規,0,2022-01-04,2022-01-04,株式会社インフィレイジ,,株式会社,神奈川県,横浜市栄区,公田町１０５１番地１２７,,14,115,2470014,,,,,,,2022-01-04,1,,,,,インフィレイジ,0
1391,6020001144549,新規,0,2022-01-04,2022-01-04,ＹＧＤＲＡＳＩＬ株式会社,,株式会社,神奈川県,横浜市西区,みなとみらい４丁目７番１－１６２４号,,14,103,2200012,,,,,,,2022-01-04,1,,,,,ユグドラシル,0
1404,6021003011241,新規,0,2022-01-04,2022-01-04,合同会社きまる社,,合同会社,神奈川県,大和市,大和南２丁目２番１４号ハスミハイツ３０２号,,14,213,2420016,,,,,,,2022-01-04,1,,,,,キマルシャ,0
1413,6030001146098,新規,0,2022-01-04,2022-01-04,株式会社ＪＯＪＯ　ＨＯＭＥ,,株式会社,埼玉県,川口市,川口２丁目１７－４８グリーンビュー第３川口６０９号室,,11,203,3320015,,,,,,,2022-01-04,1,,,,,ジョジョホーム,0
1414,6030001146107,新規,0,2022-01-04,2022-01-04,株式会社ウジイエ,,株式会社,埼玉県,川口市,戸塚東４丁目２４番１号,,11,203,3330802,,,,,,,2022-01-04,1,,,,,ウジイエ,0
1426,6060001034432,新規,0,2022-01-04,2022-01-04,株式会社フジカンパニー,,株式会社,栃木県,下都賀郡壬生町,駅東町９番２３－３号,,09,361,3210222,,,,,,,2022-01-04,1,,,,,フジカンパニー,0
1428,6070001038787,新規,0,2022-01-04,2022-01-04,株式会社Ａｌｐｈａ　Ｆａｃｔｏｒｙ,,株式会社,群馬県,藤岡市,中栗須２７４番地３,,10,209,3750015,,,,,,,2022-01-04,1,,,,,アルファファクトリー,0
1454,6120001242796,新規,0,2022-01-04,2022-01-04,株式会社花かんざし,,株式会社,大阪府,門真市,常称寺町１２番２０号,,27,223,5710063,,,,,,,2022-01-04,1,,,,,ハナカンザシ,0
1455,6120001242805,新規,0,2022-01-04,2022-01-04,松トランスポート株式会社,,株式会社,大阪府,大阪市大正区,三軒家西３丁目５番２０－４０８号,,27,108,5510001,,,,,,,2022-01-04,1,,,,,マツトランスポート,0
1456,6120001242821,新規,0,2022-01-04,2022-01-04,株式会社時に,,株式会社,大阪府,大阪市住之江区,西加賀屋２丁目６－１７,,27,125,5590016,,,,,,,2022-01-04,1,,,,,トキニ,0
1458,6120003020853,新規,0,2022-01-04,2022-01-04,ＴＨＡＯ　ＡＮＨ合同会社,,合同会社,大阪府,大阪市港区,南市岡３丁目３番１８号,,27,107,5520011,,,,,,,2022-01-04,1,,,,,タオアン,0
1459,6120003020861,新規,0,2022-01-04,2022-01-04,合同会社ＨＥＬＦＩＴ,,合同会社,大阪府,大阪市東淀川区,東中島４丁目１１－３２ネオライフ新大阪東棟８０５号室,,27,114,5330033,,,,,,,2022-01-04,1,,,,,ヘルフィット,0
1461,6120005022674,新規,0,2022-01-04,2022-01-04,税理士法人杉田会計事務所,,その他の設立登記法人,大阪府,大阪市西区,西本町１丁目３番１０号,,27,106,5500005,,,,,,,2022-01-04,1,,,,,スギタカイケイジムショ,0
1463,6120903003965,新規,0,2022-01-04,2022-01-04,ｓａｎｔｅｘ合同会社,,合同会社,大阪府,箕面市,船場東２丁目４番１号フレスデザインビル５Ｆ－Ｓ０９,,27,220,5620035,,,,,,,2022-01-04,1,,,,,サンテックス,0
1474,6130001070800,新規,0,2022-01-04,2022-01-04,株式会社ＳＡＭＡＳＡＭＡ　ＥＡＴ,,株式会社,京都府,京都市南区,上鳥羽苗代町２１番地,,26,107,6018111,,,,,,,2022-01-04,1,,,,,サマサマイート,0
1478,6140001124349,新規,0,2022-01-04,2022-01-04,株式会社ｅｓ,,株式会社,兵庫県,尼崎市,久々知西町２丁目１４番１３号,,28,202,6610978,,,,,,,2022-01-04,1,,,,,エス,0
1492,6180001149276,新規,0,2022-01-04,2022-01-04,株式会社Ｌｉｍｔｙ,,株式会社,愛知県,名古屋市中村区,名駅南１丁目２３番１号第２アスタービル６階,,23,105,4500003,,,,,,,2022-01-04,1,,,,,リミティ,0
1493,6180001149342,新規,0,2022-01-04,2022-01-04,株式会社ラポーツ,,株式会社,愛知県,名古屋市緑区,大高台２丁目６０６番地の２,,23,114,4598003,,,,,,,2022-01-04,1,,,,,ラポーツ,0
1495,6180003023330,新規,0,2022-01-04,2022-01-04,合同会社小松家長三郎,,合同会社,愛知県,名古屋市千種区,菊坂町１丁目７番地の１パインエリゼ１１０１号,,23,101,4640836,,,,,,,2022-01-04,1,,,,,コマツヤチョウザブロウ,0
1496,6180003023339,新規,0,2022-01-04,2022-01-04,合同会社結フードサービス,,合同会社,愛知県,名古屋市中区,大須４丁目１０番６５号,,23,106,4600011,,,,,,,2022-01-04,1,,,,,ムスブフードサービス,0
1511,6240001059106,新規,0,2022-01-04,2022-01-04,株式会社ｋｎｏｔ,,株式会社,広島県,広島市西区,三篠町３丁目７番２０号,,34,104,7330003,,,,,,,2022-01-04,1,,,,,ノット,0
1526,6290001095864,新規,0,2022-01-04,2022-01-04,久留米ビルド株式会社,,株式会社,福岡県,久留米市,東合川新町１０番１号,,40,203,8390808,,,,,,,2022-01-04,1,,,,,クルメビルド,0
1527,6290003011976,新規,0,2022-01-04,2022-01-04,合同会社洋工務店,,合同会社,福岡県,久留米市,山本町耳納１２２２－１,,40,203,8390826,,,,,,,2022-01-04,1,,,,,ヨウコウムテン,0
1534,6310003004242,新規,0,2022-01-04,2022-01-04,合同会社池田総業,,合同会社,長崎県,諫早市,黒崎町３３９番地,,42,204,8540033,,,,,,,2022-01-04,1,,,,,イケダソウギョウ,0
1536,6320001018813,新規,0,2022-01-04,2022-01-04,健誠株式会社,,株式会社,大分県,別府市,北浜１丁目１５番１４号シーサイドビル富士吉７０５号,,44,202,8740920,,,,,,,2022-01-04,1,,,,,ケンセイ,0
1541,6350001017498,新規,0,2022-01-04,2022-01-04,ひむかコミュニティパワー株式会社,,株式会社,宮崎県,日向市,曽根町１丁目５番地,,45,206,8830011,,,,,,,2022-01-04,1,,,,,ヒムカコミュニティパワー,0
1550,6370003005532,新規,0,2022-01-04,2022-01-04,合同会社ＯＣＰ,,合同会社,宮城県,仙台市若林区,荒井７丁目４１番地の１６,,04,103,9840032,,,,,,,2022-01-04,1,,,,,オーシーピー,0
1551,6370005010423,新規,0,2022-01-04,2022-01-04,一般社団法人浅田クリニック,,その他の設立登記法人,宮城県,仙台市太白区,四郎丸字神明２９番地の１０,,04,104,9811101,,,,,,,2022-01-04,1,,,,,アサダクリニック,0
1566,6430001085693,新規,0,2022-01-04,2022-01-04,株式会社Ｂｕｔｔｅｒ,,株式会社,北海道,札幌市中央区,南三条東３丁目８番地４０４号,,01,101,0600053,,,,,,,2022-01-04,1,,,,,バター,0
1572,6480001011595,新規,0,2022-01-04,2022-01-04,株式会社応変,,株式会社,徳島県,板野郡藍住町,富吉字中新田７６番地１８,,36,403,7711230,,,,,,,2022-01-04,1,,,,,オウヘン,0
1590,7010001223542,新規,0,2022-01-04,2022-01-04,キリロムデジタル株式会社,,株式会社,東京都,千代田区,富士見１丁目３番１１号,,13,101,1020071,,,,,,,2022-01-04,1,,,,,キリロムデジタル,0
1591,7010001223559,新規,0,2022-01-04,2022-01-04,アドバース株式会社,,株式会社,東京都,中央区,銀座１丁目２２番１１号銀座大竹ビジデンス２階,,13,102,1040061,,,,,,,2022-01-04,1,,,,,アドバース,0
1592,7010001223567,新規,0,2022-01-04,2022-01-04,ＡＴＡＭＩ　ＲＥＳＯＲＴ株式会社,,株式会社,東京都,中央区,八丁堀４丁目９番１２号,,13,102,1040032,,,,,,,2022-01-04,1,,,,,アタミリゾート,0
1595,7010003036620,新規,0,2022-01-04,2022-01-04,合同会社鈴木メモ,,合同会社,東京都,中央区,銀座１丁目２２番１１号銀座大竹ビジデンス２階,,13,102,1040061,,,,,,,2022-01-04,1,,,,,スズキメモ,0
1596,7010003036637,新規,0,2022-01-04,2022-01-04,Ｈｉｌｌｓ合同会社,,合同会社,東京都,中央区,東日本橋３丁目９番６－２０４号,,13,102,1030004,,,,,,,2022-01-04,1,,,,,ヒルズ,0
1601,7010005034382,新規,0,2022-01-04,2022-01-04,一般社団法人国際文化芸術振興協会,,その他の設立登記法人,東京都,中央区,銀座１丁目２２番１１号２Ｆ,,13,102,1040061,,,,,,,2022-01-04,1,,,,,コクサイブンカゲイジュツシンコウキョウカイ,0
1602,7010005034390,新規,0,2022-01-04,2022-01-04,一般社団法人ＺＳ２,,その他の設立登記法人,東京都,千代田区,丸の内３丁目１番１号東京共同会計事務所内,,13,101,1000005,,,,,,,2022-01-04,1,,,,,ゼットエスツー,0
1605,7010401164642,新規,0,2022-01-04,2022-01-04,Ｄ－Ｃｒｅａｔｉｏｎ株式会社,,株式会社,東京都,港区,赤坂６丁目１０番４２－３１１号,,13,103,1070052,,,,,,,2022-01-04,1,,,,,ディークリエーション,0
1606,7010401164700,新規,0,2022-01-04,2022-01-04,株式会社Ａ＆ＪＤ,,株式会社,東京都,港区,南麻布１丁目５番２２－４０５号,,13,103,1060047,,,,,,,2022-01-04,1,,,,,エーアンドジェーディー,0
1607,7010403026799,新規,0,2022-01-04,2022-01-04,マーキュリーインフラファンド合同会社,,合同会社,東京都,港区,元赤坂１丁目１番７号,,13,103,1070051,,,,,,,2022-01-04,1,,,,,マーキュリーインフラファンド,0
1608,7010405020544,新規,0,2022-01-04,2022-01-04,ジャパンインフラホールディングス１８号一般社団法人,,その他の設立登記法人,東京都,港区,元赤坂１丁目１番７号,,13,103,1070051,,,,,,,2022-01-04,1,,,,,ジャパンインフラホールディングスジュウハチゴウ,0
1612,7010603009323,新規,0,2022-01-04,2022-01-04,ひまわり画報合同会社,,合同会社,東京都,江東区,東砂８丁目１８番２２－７２１号,,13,108,1360074,,,,,,,2022-01-04,1,,,,,ヒマワリガホウ,0
1619,7010801032622,新規,0,2022-01-04,2022-01-04,株式会社窓ライフ,,株式会社,東京都,大田区,大森北５丁目２番４号テラスセザール大森１Ｆ,,13,111,1430016,,,,,,,2022-01-04,1,,,,,マドライフ,0
1626,7011001144860,新規,0,2022-01-04,2022-01-04,株式会社Ｚｉｐａｎｇｕ,,株式会社,東京都,目黒区,東山１丁目２３番２３号東山ハウス２ー１Ｆ,,13,110,1530043,,,,,,,2022-01-04,1,,,,,ジパング,0
1637,7011801040128,新規,0,2022-01-04,2022-01-04,株式会社坂田設備,,株式会社,東京都,足立区,平野１丁目１０番２０号,,13,121,1210076,,,,,,,2022-01-04,1,,,,,サカタセツビ,0
1643,7012401038702,新規,0,2022-01-04,2022-01-04,株式会社ＰＯＰ　ＣＵＬＴＵＲＥＳ　ＴＯＫＹＯ,,株式会社,東京都,稲城市,百村５２５番地フロムＳ１０５,,13,225,2060804,,,,,,,2022-01-04,1,,,,,ポップカルチャーズトウキョウ,0
1646,7013301048485,新規,0,2022-01-04,2022-01-04,株式会社ソリド,,株式会社,東京都,豊島区,東池袋２丁目６０番２号池袋パークハイツ２階,,13,116,1700013,,,,,,,2022-01-04,1,,,,,ソリド,0
1647,7013303005971,新規,0,2022-01-04,2022-01-04,合同会社レスポワール,,合同会社,東京都,豊島区,巣鴨１丁目３６番６号コンテル巣鴨１０２号,,13,116,1700002,,,,,,,2022-01-04,1,,,,,レスポワール,0
1650,7020001144457,新規,0,2022-01-04,2022-01-04,株式会社ワイズエル,,株式会社,神奈川県,横浜市中区,相生町１丁目７－１和同ビル２階,,14,104,2310012,,,,,,,2022-01-04,1,,,,,ワイズエル,0
1651,7020001144507,新規,0,2022-01-04,2022-01-04,株式会社菊池総業,,株式会社,神奈川県,川崎市幸区,古市場２丁目１３３番地９,,14,132,2120052,,,,,,,2022-01-04,1,,,,,キクチソウギョウ,0
1652,7020001144556,新規,0,2022-01-04,2022-01-04,Ｔｏｍｏｒｒｏｗ　Ｆｕｔｕｒｅ株式会社,,株式会社,神奈川県,横浜市青葉区,梅が丘３７番地１藤和ライブタウン青葉台５０２号,,14,117,2270052,,,,,,,2022-01-04,1,,,,,トゥモローフューチャー,0
1661,7021001074834,新規,0,2022-01-04,2022-01-04,株式会社ルミナストーン,,株式会社,神奈川県,茅ヶ崎市,幸町１７番２号アポセントＶＩＩ１Ｆ,00125270,14,207,2530052,,,,,,,2022-01-04,1,,,,,ルミナストーン,0
1662,7021001074842,新規,0,2022-01-04,2022-01-04,株式会社アリスタジャパン,,株式会社,神奈川県,海老名市,本郷１３６８番地,,14,215,2430417,,,,,,,2022-01-04,1,,,,,アリスタジャパン,0
1672,7030001146114,新規,0,2022-01-04,2022-01-04,新和株式会社,,株式会社,埼玉県,さいたま市西区,大字西新井５０５番地１０１,,11,101,3310049,,,,,,,2022-01-04,1,,,,,シンワ,0
1677,7040001121495,新規,0,2022-01-04,2022-01-04,株式会社オペレーションコンサルティングマーケット,,株式会社,千葉県,船橋市,夏見１丁目２０番１－４０５号,,12,204,2730865,,,,,,,2022-01-04,1,,,,,オペレーションコンサルティングマーケット,0
1678,7040001121545,新規,0,2022-01-04,2022-01-04,株式会社上匠,,株式会社,千葉県,柏市,南逆井３丁目７番１０号,,12,217,2770043,,,,,,,2022-01-04,1,,,,,ジョウショウ,0
1679,7040001121561,新規,0,2022-01-04,2022-01-04,株式会社クローバーアセットマネジメント,,株式会社,千葉県,千葉市中央区,松波１丁目１７番９号,,12,101,2600044,,,,,,,2022-01-04,1,,,,,クローバーアセットマネジメント,0
1684,7050001050371,新規,0,2022-01-04,2022-01-04,株式会社金成金属,,株式会社,茨城県,北相馬郡利根町,大字大平８６番地１,,08,564,3001605,,,,,,,2022-01-04,1,,,,,キンセイキンゾク,0
1685,7050001050388,新規,0,2022-01-04,2022-01-04,株式会社ＫＯＵＳＨＩＮ,,株式会社,茨城県,ひたちなか市,釈迦町２１番３－１号,,08,221,3111225,,,,,,,2022-01-04,1,,,,,コウシン,0
1698,7100001034914,新規,0,2022-01-04,2022-01-04,株式会社祝戸ホテルマネジメント,,株式会社,長野県,北佐久郡軽井沢町,大字長倉２１４８番地,,20,321,3890111,,,,,,,2022-01-04,1,,,,,イワイドホテルマネジメント,0
1714,7120001242795,新規,0,2022-01-04,2022-01-04,株式会社ヴェリタス,,株式会社,大阪府,大阪市西区,江戸堀２丁目１番１号江戸堀センタービル９階,,27,106,5500002,,,,,,,2022-01-04,1,,,,,ヴェリタス,0
1715,7120001242804,新規,0,2022-01-04,2022-01-04,株式会社ＷＥＭＡＩＳＯＮ,,株式会社,大阪府,大阪市浪速区,難波中２丁目３番６号,,27,111,5560011,,,,,,,2022-01-04,1,,,,,ウィーメゾン,0
1720,7120003020852,新規,0,2022-01-04,2022-01-04,合同会社ＰＥＲＦＥＣＴ　ＷＩＮ　ＪＡＰＡＮ,,合同会社,大阪府,門真市,柳町１０番１３－１号,,27,223,5710041,,,,,,,2022-01-04,1,,,,,パーフェクトウィンジャパン,0
1721,7120003020860,新規,0,2022-01-04,2022-01-04,合同会社ＢＯＴＨ,,合同会社,大阪府,大阪市中央区,内本町１丁目１－６内本町Ｂ＆Ｍビル６階ＢｕｓｉｎｅｓｓＣｅｎｔｅｒ内,,27,128,5400026,,,,,,,2022-01-04,1,,,,,ボウス,0
1723,7120105009496,新規,0,2022-01-04,2022-01-04,ＮＹ協同組合,,その他の設立登記法人,大阪府,堺市美原区,材木通四丁目１３番２８号,,27,147,5870000,,,,,,,2022-01-04,1,,,,,エヌワイ,0
1730,7122001035469,新規,0,2022-01-04,2022-01-04,株式会社摂津Ｃ＆Ｍ,,株式会社,大阪府,大東市,南新田１丁目３番１３号,,27,218,5740023,,,,,,,2022-01-04,1,,,,,セッツシーアンドエム,0
1732,7130001070808,新規,0,2022-01-04,2022-01-04,株式会社火,,株式会社,京都府,京都市中京区,竪大恩寺町７５３番地７０２,,26,104,6040012,,,,,,,2022-01-04,1,,,,,ホ,0
1733,7130001070816,新規,0,2022-01-04,2022-01-04,株式会社Ｆｏｏｄｉｅ,,株式会社,京都府,京都市中京区,烏丸通夷川上る少将井町２２２番地,,26,104,6040862,,,,,,,2022-01-04,1,,,,,フーディー,0
1744,7140003017153,新規,0,2022-01-04,2022-01-04,合同会社ＴＷＥＬＶＥ,,合同会社,兵庫県,加古川市,野口町野口６６番地の１,,28,210,6750012,,,,,,,2022-01-04,1,,,,,トゥエルヴ,0
1759,7180001149309,新規,0,2022-01-04,2022-01-04,株式会社ランドフル,,株式会社,愛知県,名古屋市天白区,土原４丁目６３４番地,,23,116,4680026,,,,,,,2022-01-04,1,,,,,ランドフル,0
1760,7180001149333,新規,0,2022-01-04,2022-01-04,株式会社春栄,,株式会社,愛知県,北名古屋市,熊之庄小烏１５５番地,,23,234,4810006,,,,,,,2022-01-04,1,,,,,ハルエイ,0
1774,7190003003859,新規,0,2022-01-04,2022-01-04,合同会社エクセルイシイ,,合同会社,三重県,鈴鹿市,住吉５丁目４番３９号,,24,207,5130826,,,,,,,2022-01-04,1,,,,,エクセルイシイ,0
1777,7230001019159,新規,0,2022-01-04,2022-01-04,株式会社グッドワン,,株式会社,富山県,高岡市,守護町２丁目４番４４号,,16,202,9330983,,,,,,,2022-01-04,1,,,,,グッドワン,0
1792,7290001095863,新規,0,2022-01-04,2022-01-04,株式会社ＮＥＸＴ,,株式会社,福岡県,福岡市城南区,西片江２丁目１２番５号,,40,136,8140141,,,,,,,2022-01-04,1,,,,,ネクスト,0
1793,7290003011959,新規,0,2022-01-04,2022-01-04,合同会社サードドア,,合同会社,福岡県,古賀市,日吉３丁目１０－２６アムールシェソワ１０４,,40,223,8113106,,,,,,,2022-01-04,1,,,,,サードドア,0
1794,7290003011975,新規,0,2022-01-04,2022-01-04,合同会社Ｒａｄｉｃａｌ　Ｅａｒｔｈ,,合同会社,福岡県,福岡市中央区,地行２丁目４番７号,,40,133,8100064,,,,,,,2022-01-04,1,,,,,ラディカルアース,0
1796,7290801028130,新規,0,2022-01-04,2022-01-04,株式会社ＴＡＯ,,株式会社,福岡県,北九州市小倉北区,平松町８番１０号,,40,106,8030832,,,,,,,2022-01-04,1,,,,,タオ,0
1809,7330001029305,新規,0,2022-01-04,2022-01-04,株式会社ｂ．ｍ．ｃ,,株式会社,熊本県,熊本市中央区,水前寺５丁目５番１号,,43,101,8620950,,,,,,,2022-01-04,1,,,,,ビーエムシー,0
1810,7330003009180,新規,0,2022-01-04,2022-01-04,合同会社ＮＵＩ,,合同会社,熊本県,熊本市中央区,北千反畑町７－３,,43,101,8600855,,,,,,,2022-01-04,1,,,,,ヌイ,0
1814,7360001029830,新規,0,2022-01-04,2022-01-04,株式会社パインスリーコーポレーション,,株式会社,沖縄県,中頭郡北谷町,字伊平５３１番地３（２０１）,,47,326,9040102,,,,,,,2022-01-04,1,,,,,パインスリーコーポレーション,0
1815,7360001029839,新規,0,2022-01-04,2022-01-04,株式会社崇苑,,株式会社,沖縄県,那覇市,字安里１０１番地３コーポ南潮１Ｆ,,47,201,9020067,,,,,,,2022-01-04,1,,,,,ソウエン,0
1816,7360005006578,新規,0,2022-01-04,2022-01-04,一般社団法人ユクダキ会,,その他の設立登記法人,沖縄県,宮古島市,城辺字西里添１８２番地４,,47,214,9060106,,,,,,,2022-01-04,1,,,,,ユクダキカイ,0
1825,7430001085692,新規,0,2022-01-04,2022-01-04,株式会社ＳｈｉｇＭａ　ＳｕｎＺｉｎ,,株式会社,北海道,札幌市西区,発寒十三条３丁目６番１０号尾方ビル３階,,01,107,0630833,,,,,,,2022-01-04,1,,,,,シグマサンジン,0
1829,7430005014350,新規,0,2022-01-04,2022-01-04,一般社団法人北海道労使問題研究会,,その他の設立登記法人,北海道,札幌市中央区,南一条西１０丁目４番地南大通ビルアネックス４階,,01,101,0600061,,,,,,,2022-01-04,1,,,,,ホッカイドウロウシモンダイケンキュウカイ,0
1850,8010001223517,新規,0,2022-01-04,2022-01-04,ＭＩＲＡＩＮＯ株式会社,,株式会社,東京都,千代田区,九段南１丁目５番６号りそな九段ビル５階ＫＳフロア,,13,101,1020074,,,,,,,2022-01-04,1,,,,,ミライノ,0
1851,8010001223541,新規,0,2022-01-04,2022-01-04,株式会社アコルデ・コンサルティング,,株式会社,東京都,千代田区,二番町１番地２番町ハイム７１８,,13,101,1020084,,,,,,,2022-01-04,1,,,,,アコルデコンサルティング,0
1852,8010001223558,新規,0,2022-01-04,2022-01-04,株式会社Ｌｕｋｅ,,株式会社,東京都,中央区,銀座１丁目２２番１１号銀座大竹ビジデンス２Ｆ,,13,102,1040061,,,,,,,2022-01-04,1,,,,,ルーク,0
1854,8010003036636,新規,0,2022-01-04,2022-01-04,東京オフィス２合同会社,,合同会社,東京都,千代田区,丸の内３丁目１番１号東京共同会計事務所内,,13,101,1000005,,,,,,,2022-01-04,1,,,,,トウキョウオフィスツー,0
1855,8010003036644,新規,0,2022-01-04,2022-01-04,施工図屋さん合同会社,,合同会社,東京都,中央区,銀座１丁目２２番１１号銀座大竹ビジデンス２階,,13,102,1040061,,,,,,,2022-01-04,1,,,,,セコウズヤサン,0
1868,8010401164699,新規,0,2022-01-04,2022-01-04,株式会社Ｓｐｏｒｔｓ　Ｍａｒｋｅｔｉｎｇ　Ａｓｉａ　Ｐａｃｉｆｉｃ,,株式会社,東京都,港区,港南１丁目９番３６号アレア品川１３階,,13,103,1080075,,,,,,,2022-01-04,1,,,,,スポーツマーケティングアジアパシフィック,0
1869,8010401164716,新規,0,2022-01-04,2022-01-04,ＰＯＤキャピタル株式会社,,株式会社,東京都,港区,六本木１丁目４番５号アークヒルズサウスタワー１６階,,13,103,1060032,,,,,,,2022-01-04,1,,,,,ピーオーディーキャピタル,0
1872,8010403026798,新規,0,2022-01-04,2022-01-04,Ｔインフラ７号合同会社,,合同会社,東京都,港区,元赤坂１丁目１番７号,,13,103,1070051,,,,,,,2022-01-04,1,,,,,ティーインフラナナゴウ,0
1873,8010403026807,新規,0,2022-01-04,2022-01-04,合同会社グリーンウッズジャパン,,合同会社,東京都,港区,浜松町２丁目２番１５号浜松町ダイヤビル２Ｆ,,13,103,1050013,,,,,,,2022-01-04,1,,,,,グリーンウッズジャパン,0
1877,8010601060450,新規,0,2022-01-04,2022-01-04,株式会社ナカザワ,,株式会社,東京都,江東区,塩浜２丁目５番１－３２２号,,13,108,1350043,,,,,,,2022-01-04,1,,,,,ナカザワ,0
1882,8010701041994,新規,0,2022-01-04,2022-01-04,株式会社水道,,株式会社,東京都,品川区,荏原２丁目１０番２－１０１号,,13,109,1420063,,,,,,,2022-01-04,1,,,,,スイドウ,0
1890,8011001144777,新規,0,2022-01-04,2022-01-04,株式会社アバウトゼロ,,株式会社,東京都,目黒区,目黒２丁目１１－３印刷工場１階,,13,110,1530063,,,,,,,2022-01-04,1,,,,,アバウトゼロ,0
1891,8011103011330,新規,0,2022-01-04,2022-01-04,スワニルダ合同会社,,合同会社,東京都,新宿区,住吉町４番１号四谷ガーデニア４２６,,13,104,1620065,,,,,,,2022-01-04,1,,,,,スワニルダ,0
1892,8011201023509,新規,0,2022-01-04,2022-01-04,株式会社斉藤,,株式会社,東京都,中野区,江古田３丁目１４番１号,,13,114,1650022,,,,,,,2022-01-04,1,,,,,サイトウ,0
1905,8012803002668,新規,0,2022-01-04,2022-01-04,合同会社リバーズ,,合同会社,東京都,日野市,南平５丁目７－５４,,13,212,1910041,,,,,,,2022-01-04,1,,,,,リバーズ,0
1915,8020001144506,新規,0,2022-01-04,2022-01-04,株式会社大河,,株式会社,神奈川県,横浜市泉区,上飯田町２２８番地４,,14,116,2450018,,,,,,,2022-01-04,1,,,,,タイガ,0
1916,8020001144530,新規,0,2022-01-04,2022-01-04,ＢＯＤＨＩＳＡＴＴＶＡ　ＪＡＰＡＮ株式会社,,株式会社,神奈川県,横浜市緑区,霧が丘３丁目２２番地５霧が丘グリーンタウン２２－１号棟３０２号,,14,113,2260016,,,,,,,2022-01-04,1,,,,,ボーディサトワジャパン,0
1917,8020001144555,新規,0,2022-01-04,2022-01-04,株式会社フリースタイル,,株式会社,神奈川県,横浜市西区,北幸１丁目１１番１号水信ビル７階,,14,103,2200004,,,,,,,2022-01-04,1,,,,,フリースタイル,0
1918,8020001144563,新規,0,2022-01-04,2022-01-04,株式会社ＴＲＥＣＨ,,株式会社,神奈川県,横浜市港北区,大倉山３丁目２番２５号加藤ビル２階,,14,109,2220037,,,,,,,2022-01-04,1,,,,,トレッチ,0
1921,8020005015331,新規,0,2022-01-04,2022-01-04,医療法人ｅｃｒｕ,,その他の設立登記法人,神奈川県,横浜市都筑区,北山田２丁目２番１号フォーレスト北山田２、３階,,14,118,2240021,,,,,,,2022-01-04,1,,,,,エクリュ,0
1923,8021001074825,新規,0,2022-01-04,2022-01-04,コイステイ株式会社,,株式会社,神奈川県,足柄下郡箱根町,元箱根９０－１３２,,14,382,2500522,,,,,,,2022-01-04,1,,,,,コイステイ,0
1934,8030001146088,新規,0,2022-01-04,2022-01-04,株式会社サンフィ,,株式会社,埼玉県,吉川市,美南５丁目８番地１０,,11,243,3420038,,,,,,,2022-01-04,1,,,,,サンフィ,0
1935,8030001146105,新規,0,2022-01-04,2022-01-04,Ｌｉｆｅａｔｅ株式会社,,株式会社,埼玉県,戸田市,大字新曽２２０９番地,,11,224,3350021,,,,,,,2022-01-04,1,,,,,リフィート,0
1940,8040001121560,新規,0,2022-01-04,2022-01-04,株式会社ＴＲＳ,,株式会社,千葉県,船橋市,二和東３丁目４番１号,,12,204,2740805,,,,,,,2022-01-04,1,,,,,ティーアールエス,0
1941,8040001121569,新規,0,2022-01-04,2022-01-04,株式会社ハマ,,株式会社,千葉県,袖ケ浦市,長浦５８０番地１８７,,12,229,2990265,,,,,,,2022-01-04,1,,,,,ハマ,0
1944,8040003019191,新規,0,2022-01-04,2022-01-04,ＮＡＮＡ国際物流合同会社,,合同会社,千葉県,松戸市,竹ケ花４０番地の９ベルアーム松戸３０３号,,12,207,2710072,,,,,,,2022-01-04,1,,,,,ナナコクサイブツリュウ,0
1945,8040003019217,新規,0,2022-01-04,2022-01-04,合同会社メタプライム,,合同会社,千葉県,松戸市,根木内３８５番地の１メローヒルズ２０１号,,12,207,2700011,,,,,,,2022-01-04,1,,,,,メタプライム,0
1946,8040003019225,新規,0,2022-01-04,2022-01-04,ＲＥＭＩＫＯ　ＥＮＴＥＲＰＲＩＳＥＳ合同会社,,合同会社,千葉県,富里市,御料６７４番地,,12,233,2860211,,,,,,,2022-01-04,1,,,,,レミコエンタープライズ,0
1949,8050001050370,新規,0,2022-01-04,2022-01-04,株式会社ＴＲＵＮＫ,,株式会社,茨城県,鉾田市,田崎１２８７番地２,,08,234,3111406,,,,,,,2022-01-04,1,,,,,トランク,0
1964,8080401025548,新規,0,2022-01-04,2022-01-04,三金国際株式会社,,株式会社,静岡県,浜松市東区,中郡町１９５１番地の６,,22,132,4313111,,,,,,,2022-01-04,1,,,,,サンキンコクサイ,0
1965,8090005007454,新規,0,2022-01-04,2022-01-04,特定非営利活動法人リライト,,その他の設立登記法人,山梨県,山梨市,小原東７２,,19,205,4050005,,,,,,,2022-01-04,1,,,,,リライト,0
1966,8100001034946,新規,0,2022-01-04,2022-01-04,株式会社ＳＩＫＩ,,株式会社,長野県,長野市,吉田４丁目２４番６号,,20,201,3810043,,,,,,,2022-01-04,1,,,,,シキ,0
1971,8120001242646,新規,0,2022-01-04,2022-01-04,株式会社ＹＡＭＡＳＨＩＮ,,株式会社,大阪府,大阪市生野区,鶴橋４丁目１番３８号,,27,116,5440031,,,,,,,2022-01-04,1,,,,,ヤマシン,0
1972,8120001242695,新規,0,2022-01-04,2022-01-04,栄和株式会社,,株式会社,大阪府,大阪市東成区,東小橋１丁目１７－３１グランドハイツ東小橋２１５号室,,27,115,5370024,,,,,,,2022-01-04,1,,,,,エイワ,0
1973,8120001242761,新規,0,2022-01-04,2022-01-04,寿製薬株式会社,,株式会社,大阪府,大阪市天王寺区,生玉町１１番２９号,,27,109,5430071,,,,,,,2022-01-04,1,,,,,コトブキセイヤク,0
1974,8120001242811,新規,0,2022-01-04,2022-01-04,クリエーション産業株式会社,,株式会社,大阪府,大阪市福島区,吉野１丁目３番２８号,,27,103,5530006,,,,,,,2022-01-04,1,,,,,クリエーションサンギョウ,0
1975,8120001242828,新規,0,2022-01-04,2022-01-04,三勝開発株式会社,,株式会社,大阪府,大阪市中央区,北久宝寺町２丁目６番１０－５０３号,,27,128,5410057,,,,,,,2022-01-04,1,,,,,サンショウカイハツ,0
1991,8130001070798,新規,0,2022-01-04,2022-01-04,株式会社ｃｙｄａ,,株式会社,京都府,京都市中京区,富小路通六角下る骨屋之町５５２番地エクセル四条富小路４０２,,26,104,6048064,,,,,,,2022-01-04,1,,,,,シーダ,0
1995,8140001124306,新規,0,2022-01-04,2022-01-04,株式会社アトム鐵工,,株式会社,兵庫県,三木市,別所町巴２番地,,28,215,6730443,,,,,,,2022-01-04,1,,,,,アトムテッコウ,0
1997,8160001023893,新規,0,2022-01-04,2022-01-04,株式会社河路興業,,株式会社,滋賀県,湖南市,石部東２丁目５番４－１０７号,,25,211,5203107,,,,,,,2022-01-04,1,,,,,カワジコウギョウ,0
2010,8180001149308,新規,0,2022-01-04,2022-01-04,株式会社ＡＮＥＬＡ,,株式会社,愛知県,名古屋市中区,丸の内３丁目５番３３号名古屋有楽ビル３０３号室,,23,106,4600002,,,,,,,2022-01-04,1,,,,,アネラ,0
2011,8180001149316,新規,0,2022-01-04,2022-01-04,近藤工業株式会社,,株式会社,愛知県,春日井市,味美町１丁目１３番地４,,23,206,4860968,,,,,,,2022-01-04,1,,,,,コンドウコウギョウ,0
2012,8180001149340,新規,0,2022-01-04,2022-01-04,進板金工業株式会社,,株式会社,愛知県,常滑市,白山町３丁目９６番地,,23,216,4790824,,,,,,,2022-01-04,1,,,,,ススムバンキンコウギョウ,0
2025,8240001059095,新規,0,2022-01-04,2022-01-04,株式会社センテレオ,,株式会社,広島県,広島市安佐南区,相田３丁目６１番６号,,34,105,7310141,,,,,,,2022-01-04,1,,,,,センテレオ,0
2040,8310003004240,新規,0,2022-01-04,2022-01-04,エム・リワード合同会社,,合同会社,長崎県,長崎市,下西山町１番５号,,42,201,8500004,,,,,,,2022-01-04,1,,,,,エムリワード,0
2042,8320001018811,新規,0,2022-01-04,2022-01-04,株式会社Ｔｒооｐ,,株式会社,大分県,別府市,大字鶴見２７６６番地コーポ宮島１Ｆ,,44,202,8740840,,,,,,,2022-01-04,1,,,,,トゥループ,0
2048,8330001029304,新規,0,2022-01-04,2022-01-04,株式会社ＡＩＬＡ,,株式会社,熊本県,八代市,萩原町１丁目４２１－１,,43,202,8660831,,,,,,,2022-01-04,1,,,,,アイラ,0
2051,8350003003998,新規,0,2022-01-04,2022-01-04,合同会社コーティー,,合同会社,宮崎県,宮崎市,清水１丁目８番４５号レジデンス１２番館１０３号,,45,201,8800021,,,,,,,2022-01-04,1,,,,,コーティー,0
2057,8360003011686,新規,0,2022-01-04,2022-01-04,合同会社六工業,,合同会社,沖縄県,宜野湾市,新城２丁目３８番５号２Ｆ,,47,205,9012201,,,,,,,2022-01-04,1,,,,,ロクコウギョウ,0
2067,8380001032393,新規,0,2022-01-04,2022-01-04,ｋｉｋｕｃｈｉ’ｓ　ｃａｍｐ株式会社,,株式会社,福島県,白河市,高山８６番地４０９号室,,07,205,9610854,,,,,,,2022-01-04,1,,,,,キクチズキャンプ,0
2082,8500005008443,新規,0,2022-01-04,2022-01-04,一般社団法人日本スリランカ友好親善協会,,その他の設立登記法人,愛媛県,今治市,玉川町三反地甲１０番地１,,38,202,7940101,,,,,,,2022-01-04,1,,,,,ニホンスリランカユウコウシンゼンキョウカイ,0
2083,8700150106469,新規,0,2022-01-04,2022-01-04,株式会社アイエヌアイソフト日本支店,,外国会社等,東京都,渋谷区,渋谷２丁目７－１４ＶＯＲＴ　ＡＯＹＡＭＡ４０１号室,,13,113,1500002,大韓民国、ギョンギド、ヨンインシ、スジグ、シンスロ、７６７、ジェエイドン、第２２階、第２２１２号（ドンチョンドン、ブンダン、スジ、ユータワー）,,,,,,2022-01-04,1,,,,,カブシキガイシヤアイエヌアイソフトニホンシテン,0
2090,9010001223508,新規,0,2022-01-04,2022-01-04,株式会社アレンダンド,,株式会社,東京都,中央区,京橋２丁目２番１号,,13,102,1040031,,,,,,,2022-01-04,1,,,,,アレンダンド,0
2091,9010001223524,新規,0,2022-01-04,2022-01-04,株式会社ＭＦ６,,株式会社,東京都,千代田区,一番町２２番地４一番町館１階,,13,101,1020082,,,,,,,2022-01-04,1,,,,,エムエフシックス,0
2092,9010001223540,新規,0,2022-01-04,2022-01-04,株式会社ＭＳＹＫ,,株式会社,東京都,中央区,勝どき３丁目６番１０－５０７号,,13,102,1040054,,,,,,,2022-01-04,1,,,,,エムエスワイケー,0
2093,9010001223549,新規,0,2022-01-04,2022-01-04,番町開発株式会社,,株式会社,東京都,千代田区,六番町１番地２,,13,101,1020085,,,,,,,2022-01-04,1,,,,,バンチョウカイハツ,0
2094,9010001223565,新規,0,2022-01-04,2022-01-04,グローバル志和株式会社,,株式会社,東京都,千代田区,岩本町２丁目１７－４－４０２,,13,101,1010032,,,,,,,2022-01-04,1,,,,,グローバルシワ,0
2096,9010003036635,新規,0,2022-01-04,2022-01-04,宮益坂上プロパティーズ合同会社,,合同会社,東京都,千代田区,丸の内３丁目１番１号東京共同会計事務所内,,13,101,1000005,,,,,,,2022-01-04,1,,,,,ミヤマスザカウエプロパティーズ,0
2097,9010003036643,新規,0,2022-01-04,2022-01-04,Ｆｕｓｉｏｎ　Ｔｒａｄｅ　Ｊａｐａｎ合同会社,,合同会社,東京都,千代田区,丸の内１丁目６番２号新丸の内センタービル２１階,,13,101,1000005,,,,,,,2022-01-04,1,,,,,フュージョントレードジャパン,0
2098,9010003036651,新規,0,2022-01-04,2022-01-04,合同会社ＬＡＫＥ,,合同会社,東京都,千代田区,霞が関３丁目２番５号,,13,101,1000013,,,,,,,2022-01-04,1,,,,,レイク,0
2110,9010403026731,新規,0,2022-01-04,2022-01-04,合同会社Ｆｒｏｍ２７,,合同会社,東京都,港区,南青山４丁目２番１２－２２１号,,13,103,1070062,,,,,,,2022-01-04,1,,,,,フロムニジュウナナ,0
2111,9010403026789,新規,0,2022-01-04,2022-01-04,セントラルリース合同会社,,合同会社,東京都,港区,南青山２丁目２番１５号,,13,103,1070062,,,,,,,2022-01-04,1,,,,,セントラルリース,0
2112,9010403026797,新規,0,2022-01-04,2022-01-04,ジャパンインフラ１９号合同会社,,合同会社,東京都,港区,元赤坂１丁目１番７号,,13,103,1070051,,,,,,,2022-01-04,1,,,,,ジャパンインフラジュウキュウゴウ,0
2113,9010403026830,新規,0,2022-01-04,2022-01-04,合同会社ＣｈｅｒｉｅＡｓｓｅｔ,,合同会社,東京都,港区,東麻布３丁目７番地１３号ＭＤ麻布５０１,,13,103,1060044,,,,,,,2022-01-04,1,,,,,ケリーアセット,0
2114,9010405020550,新規,0,2022-01-04,2022-01-04,一般社団法人日本再生医療協会,,その他の設立登記法人,東京都,港区,南青山５丁目６－２４Ｂａｒｂｉｚｏｎ２３・１Ｆ,,13,103,1070062,,,,,,,2022-01-04,1,,,,,ニホンサイセイイリョウキョウカイ,0
2115,9010601060433,新規,0,2022-01-04,2022-01-04,株式会社ＲＥＮＴ,,株式会社,東京都,墨田区,江東橋４丁目６番１５号,,13,107,1300022,,,,,,,2022-01-04,1,,,,,レント,0
2119,9010701041993,新規,0,2022-01-04,2022-01-04,宏達商事株式会社,,株式会社,東京都,品川区,八潮５丁目６番３８－１０１０号,,13,109,1400003,,,,,,,2022-01-04,1,,,,,コウダツショウジ,0
2128,9010901050084,新規,0,2022-01-04,2022-01-04,株式会社ＳＪ－ｗｏｒｋｓ,,株式会社,東京都,世田谷区,世田谷１丁目３７番４－６０３号,,13,112,1540017,,,,,,,2022-01-04,1,,,,,エスジェイワークス,0
2132,9011001144719,新規,0,2022-01-04,2022-01-04,Ｂｅ－Ａｌｌ株式会社,,株式会社,東京都,渋谷区,渋谷２丁目１１番５号,,13,113,1500002,,,,,,,2022-01-04,1,,,,,ビーオール,0
2133,9011001144768,新規,0,2022-01-04,2022-01-04,ＥＬＥＰＨＡＮＴ‐ＷＥＢ株式会社,,株式会社,東京都,渋谷区,神宮前６丁目２３番４号桑野ビル２階,,13,113,1500001,,,,,,,2022-01-04,1,,,,,エレファントウェブ,0
2134,9011001144859,新規,0,2022-01-04,2022-01-04,Ｓｋｕｌｌｃａｎｄｙ　Ｊａｐａｎ株式会社,,株式会社,東京都,渋谷区,神宮前５丁目１７番１１号パークサイドオーサキ２階,,13,113,1500001,,,,,,,2022-01-04,1,,,,,スカルキャンディージャパン,0
2135,9011001144891,新規,0,2022-01-04,2022-01-04,株式会社もふもふ,,株式会社,東京都,渋谷区,代官山町７番７－２０１号,,13,113,1500034,,,,,,,2022-01-04,1,,,,,モフモフ,0
2139,9011101097395,新規,0,2022-01-04,2022-01-04,株式会社インフィニティエイト,,株式会社,東京都,新宿区,西新宿７丁目５番６号,,13,104,1600023,,,,,,,2022-01-04,1,,,,,インフィニティエイト,0
2143,9011105010081,新規,0,2022-01-04,2022-01-04,一般社団法人欧州製薬団体連合会,,その他の設立登記法人,東京都,新宿区,西新宿３丁目２０番２号,,13,104,1600023,,,,,,,2022-01-04,1,,,,,オウシュウセイヤクダンタイレンゴウカイ,0
2144,9011201023508,新規,0,2022-01-04,2022-01-04,株式会社アサニュース,,株式会社,東京都,中野区,中央３丁目３６番１１号,,13,114,1640011,,,,,,,2022-01-04,1,,,,,アサニュース,0
2146,9011501027613,新規,0,2022-01-04,2022-01-04,株式会社ラグーンザビューティー,,株式会社,東京都,荒川区,東日暮里４丁目２９番９号,,13,118,1160014,,,,,,,2022-01-04,1,,,,,ラグーンザビューティー,0
2147,9011601025640,新規,0,2022-01-04,2022-01-04,株式会社シャーロット,,株式会社,東京都,練馬区,下石神井５丁目２番１８号,,13,120,1770042,,,,,,,2022-01-04,1,,,,,シャーロット,0
2157,9012701016843,新規,0,2022-01-04,2022-01-04,株式会社北原商会,,株式会社,東京都,西東京市,北原町３丁目６番２３号,,13,229,1880003,,,,,,,2022-01-04,1,,,,,キタハラショウカイ,0
2158,9012703002379,新規,0,2022-01-04,2022-01-04,合同会社ＢＡＲＭ,,合同会社,東京都,東村山市,富士見町５丁目１０番地１０５,,13,213,1890024,,,,,,,2022-01-04,1,,,,,バーム,0
2165,9020001144505,新規,0,2022-01-04,2022-01-04,株式会社サバービア,,株式会社,神奈川県,横浜市金沢区,能見台５丁目１３番地１７－２,,14,108,2360057,,,,,,,2022-01-04,1,,,,,サバービア,0
2166,9020001144538,新規,0,2022-01-04,2022-01-04,株式会社ＨＴＮ,,株式会社,神奈川県,横浜市青葉区,鉄町１２０１番地,,14,117,2250025,,,,,,,2022-01-04,1,,,,,エイチティーエヌ,0
2167,9020001144554,新規,0,2022-01-04,2022-01-04,株式会社オフィス北川,,株式会社,神奈川県,横浜市青葉区,荏田北３丁目５番地２９,,14,117,2250015,,,,,,,2022-01-04,1,,,,,オフィスキタガワ,0
2182,9021003011239,新規,0,2022-01-04,2022-01-04,合同会社ＨＡＭＡＳＫＹ,,合同会社,神奈川県,茅ヶ崎市,浜須賀９番４８号,,14,207,2530035,,,,,,,2022-01-04,1,,,,,ハマスカイ,0
2183,9021005012409,新規,0,2022-01-04,2022-01-04,一般社団法人山田耐性菌自然療法研究所,,その他の設立登記法人,神奈川県,横須賀市,衣笠町１３番２２号,,14,201,2380025,,,,,,,2022-01-04,1,,,,,ヤマダタイセイキンシゼンリョウホウケンキュウジョ,0
2193,9030001146120,新規,0,2022-01-04,2022-01-04,株式会社ＴＭＧ,,株式会社,埼玉県,川越市,大字藤間７２８－１,,11,201,3501142,,,,,,,2022-01-04,1,,,,,ティーエムジー,0
2194,9030003018581,新規,0,2022-01-04,2022-01-04,合同会社ＶＡＳＫＥＴ,,合同会社,埼玉県,八潮市,大字八條２７３２番地１０,,11,234,3400801,,,,,,,2022-01-04,1,,,,,バスケット,0
2196,9040001121568,新規,0,2022-01-04,2022-01-04,株式会社藤原学園,,株式会社,千葉県,千葉市若葉区,小倉町１７６４番地１ル・グラン小倉台３０９,,12,104,2640007,,,,,,,2022-01-04,1,,,,,フジワラガクエン,0
2197,9040001121584,新規,0,2022-01-04,2022-01-04,ＣＨＩＢＡ　ＡＵＴＯ株式会社,,株式会社,千葉県,野田市,関宿台町２８８４番地１,,12,208,2700202,,,,,,,2022-01-04,1,,,,,チバオート,0
2204,9040005021475,新規,0,2022-01-04,2022-01-04,一般社団法人たてぐや,,その他の設立登記法人,千葉県,市川市,平田２丁目１４番１号,,12,203,2720031,,,,,,,2022-01-04,1,,,,,タテグヤ,0
2205,9050001050394,新規,0,2022-01-04,2022-01-04,株式会社キョウシンワイヤリング,,株式会社,茨城県,日立市,鮎川町１丁目１番１４号,,08,202,3160036,,,,,,,2022-01-04,1,,,,,キョウシンワイヤリング,0
2214,9080101023009,新規,0,2022-01-04,2022-01-04,Ｃａｌｕｍｅ株式会社,,株式会社,静岡県,三島市,梅名２８０番地の９,,22,206,4110816,,,,,,,2022-01-04,1,,,,,カルム,0
2223,9110001036305,新規,0,2022-01-04,2022-01-04,株式会社御園電器商会,,株式会社,新潟県,新潟市中央区,湊町通２ノ町２６４４番地,,15,103,9518027,,,,,,,2022-01-04,1,,,,,ミソノデンキショウカイ,0
2234,9120001242694,新規,0,2022-01-04,2022-01-04,新茂株式会社,,株式会社,大阪府,大阪市東成区,東小橋１丁目１７－３１グランドハイツ東小橋２１３号室,,27,115,5370024,,,,,,,2022-01-04,1,,,,,シンモ,0
2235,9120001242802,新規,0,2022-01-04,2022-01-04,株式会社美豊,,株式会社,大阪府,大阪市生野区,新今里３丁目１０番２５号,,27,116,5440001,,,,,,,2022-01-04,1,,,,,ミプン,0
2243,9120101064849,新規,0,2022-01-04,2022-01-04,株式会社ミシェルミィ,,株式会社,大阪府,堺市堺区,香ヶ丘町１丁１２番２２号,,27,141,5900011,,,,,,,2022-01-04,1,,,,,ミシェルミィ,0
2244,9120101064857,新規,0,2022-01-04,2022-01-04,株式会社イット,,株式会社,大阪府,堺市東区,野尻町５３７番地２－２１１号,,27,143,5998116,,,,,,,2022-01-04,1,,,,,イット,0
2247,9120903003962,新規,0,2022-01-04,2022-01-04,まち不動産合同会社,,合同会社,大阪府,茨木市,水尾１丁目４－６,,27,211,5670891,,,,,,,2022-01-04,1,,,,,マチフドウサン,0
2253,9130001070797,新規,0,2022-01-04,2022-01-04,株式会社ＷｕＸｉ　ＡｐｐＴｅｃ　Ｊａｐａｎ,,株式会社,京都府,京都市下京区,中堂寺粟田町９３番地,,26,106,6008815,,,,,,,2022-01-04,1,,,,,ウーシーアップテックジャパン,0
2254,9130003007649,新規,0,2022-01-04,2022-01-04,Ｐｏｗｅｒｈｅａｒｔ合同会社,,合同会社,京都府,京都市伏見区,向島庚申町１０－６１５号,,26,109,6128122,,,,,,,2022-01-04,1,,,,,パワーハート,0
2260,9140001124354,新規,0,2022-01-04,2022-01-04,株式会社Ｒｅ－ｆｌｏｏｒ,,株式会社,兵庫県,川西市,けやき坂４丁目１４番地の６,,28,217,6660145,,,,,,,2022-01-04,1,,,,,リフロア,0
2261,9140001124370,新規,0,2022-01-04,2022-01-04,株式会社ＴＡＫＡＲＡ建設,,株式会社,兵庫県,尼崎市,下坂部３丁目１８番２１号,,28,202,6610975,,,,,,,2022-01-04,1,,,,,タカラケンセツ,0
2262,9140001124379,新規,0,2022-01-04,2022-01-04,株式会社洸将,,株式会社,兵庫県,西宮市,浜甲子園１丁目１７番１２号,,28,204,6638154,,,,,,,2022-01-04,1,,,,,コウショウ,0
2263,9140003017135,新規,0,2022-01-04,2022-01-04,合同会社ＫＵＬＢＡＹ,,合同会社,兵庫県,西宮市,寿町１番２４－１０７号,,28,204,6620047,,,,,,,2022-01-04,1,,,,,クルベイ,0
2268,9180001149307,新規,0,2022-01-04,2022-01-04,株式会社ＵＺＯＵ,,株式会社,愛知県,海部郡大治町,大字堀之内字大堀２０２番地の１,,23,424,4901137,,,,,,,2022-01-04,1,,,,,ウゾウ,0
2269,9180001149331,新規,0,2022-01-04,2022-01-04,ケービートランスポート株式会社,,株式会社,愛知県,一宮市,緑２丁目１１番２１号,,23,203,4910862,,,,,,,2022-01-04,1,,,,,ケービートランスポート,0
2271,9180003023328,新規,0,2022-01-04,2022-01-04,ＲａｙＳ合同会社,,合同会社,愛知県,名古屋市北区,志賀本通２丁目３７番地,,23,103,4620853,,,,,,,2022-01-04,1,,,,,レイズ,0
2273,9180301035768,新規,0,2022-01-04,2022-01-04,株式会社ＭＴ．ＣＡＫＥ,,株式会社,愛知県,岡崎市,鉢地町字開山２２番地３,,23,202,4443512,,,,,,,2022-01-04,1,,,,,エムティケーキ,0
2278,9190001028988,新規,0,2022-01-04,2022-01-04,株式会社クリマロ,,株式会社,三重県,桑名市,北鍋屋町８４番地１,,24,205,5110066,,,,,,,2022-01-04,1,,,,,クリマロ,0
2280,9190003003857,新規,0,2022-01-04,2022-01-04,ＣＲＯＳＳＰＡＴ合同会社,,合同会社,三重県,津市,高茶屋小森町字大新田４３５番地５,,24,201,5140817,,,,,,,2022-01-04,1,,,,,クロスパチ,0
2283,9200001039579,新規,0,2022-01-04,2022-01-04,株式会社ＬＩＮＫ　ＪＡＰＡＮ,,株式会社,岐阜県,高山市,名田町３丁目８６番地６,,21,203,5060021,,,,,,,2022-01-04,1,,,,,リンクジャパン,0
2284,9230001019157,新規,0,2022-01-04,2022-01-04,株式会社パレット,,株式会社,富山県,富山市,桜町１丁目５番１５号プレミア富山駅前３１１,,16,201,9300003,,,,,,,2022-01-04,1,,,,,パレット,0
2291,9260003003759,新規,0,2022-01-04,2022-01-04,合同会社エーアール,,合同会社,岡山県,倉敷市,水島西弥生町６番４号高橋ビルＣ,,33,202,7128036,,,,,,,2022-01-04,1,,,,,エーアール,0
2292,9260005011017,新規,0,2022-01-04,2022-01-04,税理士法人國富・冨山会計,,その他の設立登記法人,岡山県,岡山市北区,富田町１丁目９番１９号,,33,101,7000816,,,,,,,2022-01-04,1,,,,,クニトミトミヤマカイケイ,0
2301,9290001095861,新規,0,2022-01-04,2022-01-04,株式会社ｓｈｅｅｐ,,株式会社,福岡県,福岡市博多区,博多駅前２丁目１９番１７号３１２号室,,40,132,8120011,,,,,,,2022-01-04,1,,,,,シープ,0
2309,9290003011965,新規,0,2022-01-04,2022-01-04,合同会社ＭＡＮＡＭＯ,,合同会社,福岡県,福岡市東区,高美台４丁目２９番１２号,,40,131,8110215,,,,,,,2022-01-04,1,,,,,マナモ,0
2310,9290801028129,新規,0,2022-01-04,2022-01-04,株式会社ＦＴＳ,,株式会社,福岡県,北九州市小倉北区,大畠１丁目４番１８号（２０３）,,40,106,8020026,,,,,,,2022-01-04,1,,,,,エフティーエス,0
2311,9290805009505,新規,0,2022-01-04,2022-01-04,一般社団法人ＳＭＴドローンインテック,,その他の設立登記法人,福岡県,北九州市若松区,青葉台東１丁目１２番１３号,,40,103,8080141,,,,,,,2022-01-04,1,,,,,エスエムティードローンインテック,0
2327,9380001032442,新規,0,2022-01-04,2022-01-04,株式会社リバート,,株式会社,福島県,西白河郡西郷村,大字羽太字狸屋敷４５番地,,07,461,9618001,,,,,,,2022-01-04,1,,,,,,0
2333,9430001085682,新規,0,2022-01-04,2022-01-04,株式会社リンクネクスト,,株式会社,北海道,札幌市中央区,南四条西１３丁目１番３８－３０７号,,01,101,0640804,,,,,,,2022-01-04,1,,,,,リンクネクスト,0
2334,9430001085690,新規,0,2022-01-04,2022-01-04,株式会社建築板金名徳,,株式会社,北海道,岩見沢市,南町六条１丁目８番２６号,,01,210,0680806,,,,,,,2022-01-04,1,,,,,ケンチクバンキンミョウトク,0
2335,9430001085699,新規,0,2022-01-04,2022-01-04,株式会社真斗建創,,株式会社,北海道,江別市,東光町３０―６,,01,217,0670023,,,,,,,2022-01-04,1,,,,,マトケンソウ,0
2336,9430003013492,新規,0,2022-01-04,2022-01-04,合同会社ｙａｍａ,,合同会社,北海道,札幌市厚別区,厚別中央二条３丁目５番３－１Ｆ,,01,108,0040052,,,,,,,2022-01-04,1,,,,,ヤマ,0
2348,9500001023899,新規,0,2022-01-04,2022-01-04,株式会社ＲＯＧＵ,,株式会社,愛媛県,松山市,室町７２番地,,38,201,7900026,,,,,,,2022-01-04,1,,,,,ログ,0
2349,9500003002744,新規,0,2022-01-04,2022-01-04,ｃｅｎ合同会社,,合同会社,愛媛県,今治市,矢田甲８２４番地７,,38,202,7940073,,,,,,,2022-01-04,1,,,,,セン,0
2350,9700150106468,新規,0,2022-01-04,2022-01-04,ＢＲＥＮＤＡＮ　ＳＴＥＥＬＥ，ＩＮＣＯＲＰＯＲＡＴＥＤ,,外国会社等,,,,,,,,３０１１　Ｔｏｗｎｓｇａｔｅ　Ｒｏａｄ，Ｓｔｅ．４００　Ｗｅｓｔｌａｋｅ　Ｖｉｌｌａｇｅ，ＣＡ　９１３６１,,,,,,2022-01-04,1,,,,,ブレンダンステイールインコーポレイテイツド,0
