sequenceNumber,corporateNumber,process,correct,updateDate,changeDate,name,nameImageId,kind,prefectureName,cityName,streetNumber,addressImageId,prefectureCode,cityCode,postCode,addressOutside,addressOutsideImageId,closeDate,closeCause,successorCorporateNumber,changeCause,assignmentDate,latest,enName,enPrefectureName,enCityName,enAddressOutside,furigana,hihyoji
1,1010001062681,登記記録の閉鎖等,0,2021-07-15,2021-07-05,日本橋ティージーサービス株式会社,,株式会社,東京都,中央区,日本橋２丁目７番１号,,13,102,1030027,,,2021-07-05,合併による解散等,5010001045856,令和３年７月１日東京都中央区日本橋二丁目７番１号新日本橋通商株式会社（5010001045856）に合併し解散,2015-10-05,1,,,,,ニホンバシティージーサービス,0
7,1010001210703,登記記録の閉鎖等,0,2021-07-15,2021-07-01,株式会社ＢＭパートナーズ,,株式会社,東京都,千代田区,神田司町２丁目１５番地９,,13,101,1010048,,,2021-07-01,清算の結了等,,,2020-07-16,1,,,,,ビーエムパートナーズ,0
24,1010403006872,登記記録の閉鎖等,0,2021-07-15,2021-07-05,Ｘｉｎｏｖａ　Ｊａｐａｎ合同会社,,合同会社,東京都,中央区,八重洲２丁目７番２号八重洲三井ビルディング６階,,13,102,1040028,,,2021-07-05,清算の結了等,,,2015-10-05,1,,,,,ジノバジャパン,0
85,1013101001749,登記記録の閉鎖等,0,2021-07-15,2021-07-01,株式会社エム・ジー・エー,,株式会社,東京都,福生市,大字福生９６５番地,,13,218,1970011,,,2021-07-01,合併による解散等,2013101006409,令和３年７月１日東京都羽村市栄町三丁目３番地３株式会社オフィス裕（2013101006409）に合併し解散,2015-10-05,1,,,,,エムジーエー,0
91,1020001012207,登記記録の閉鎖等,0,2021-07-15,2021-07-06,山崎建設株式会社,,株式会社,神奈川県,横浜市青葉区,桂台２丁目１８番地１２,,14,117,2270034,,,2021-07-06,清算の結了等,,,2015-10-05,1,,,,,ヤマザキケンセツ,0
101,1021001054701,登記記録の閉鎖等,0,2021-07-15,2021-07-06,株式会社ウィッツ,,株式会社,神奈川県,藤沢市,鵠沼東４番１９号,00012837,14,205,2510026,,,2021-07-06,清算の結了等,,,2015-10-05,1,,,,,ウィッツ,0
108,1021005011434,登記記録の閉鎖等,0,2021-07-15,2021-07-05,一般社団法人新教リセの会,,その他の設立登記法人,神奈川県,厚木市,泉町５番２１号旭ハイツ１階,,14,212,2430013,,,2021-07-05,清算の結了等,,,2018-11-07,1,,,,,シンキョウリセノカイ,0
112,1030002077157,登記記録の閉鎖等,0,2021-07-15,2021-06-30,有限会社タカオ,,有限会社,埼玉県,入間郡三芳町,大字竹間沢２６９番地２,,11,324,3540043,,,2021-06-30,清算の結了等,,,2015-10-05,1,,,,,タカオ,0
136,1050003000495,登記記録の閉鎖等,0,2021-07-15,2021-07-05,合資会社常陽エレック,,合資会社,茨城県,東茨城郡茨城町,大字奥谷７１５番地１,,08,302,3113156,,,2021-07-05,清算の結了等,,,2015-10-05,1,,,,,ジョウヨウエレック,0
139,1060001006849,登記記録の閉鎖等,0,2021-07-15,2021-07-02,株式会社Ｅ＆Ｔ,,株式会社,栃木県,宇都宮市,鶴田町２８１０番地９レジデンスＴＯＹＯＵＫＥ８０３号室,,09,201,3200851,,,2021-07-02,清算の結了等,,,2015-10-05,1,,,,,イーアンドティー,0
149,1070001006369,登記記録の閉鎖等,0,2021-07-15,2021-07-08,エステイ商事株式会社,,株式会社,群馬県,高崎市,倉賀野町４１番地,,10,202,3701201,,,2021-07-08,清算の結了等,,,2015-10-05,1,,,,,エステイショウジ,0
152,1080102001846,登記記録の閉鎖等,0,2021-07-15,2021-07-07,有限会社杉山土地建物,,有限会社,静岡県,沼津市,岡宮５２０番地,,22,203,4100011,,,2021-07-07,清算の結了等,,,2015-10-05,1,,,,,スギヤマトチタテモノ,0
159,1100001017585,登記記録の閉鎖等,0,2021-07-15,2021-07-12,株式会社梨子田,,株式会社,長野県,北安曇郡松川村,５７８８番地３,,20,482,3998501,,,2021-07-12,合併による解散等,6010901003581,令和３年７月１日東京都世田谷区成城七丁目８番１８号株式会社グラム（6010901003581）に合併し解散,2015-10-05,1,,,,,ナシダ,0
160,1100002030059,登記記録の閉鎖等,0,2021-07-15,2021-07-07,株式会社四季,,株式会社,長野県,茅野市,北山２９７７番地１,,20,214,3910301,,,2021-07-07,清算の結了等,,,2015-10-05,1,,,,,シキ,0
166,1120001123126,登記記録の閉鎖等,0,2021-07-15,2021-07-07,株式会社ＭＣＣ,,株式会社,京都府,京都市右京区,嵯峨天龍寺車道町３５番地１１,,26,108,6168373,,,2021-07-07,清算の結了等,,,2015-10-05,1,,,,,エムシーシー,0
170,1120002032846,登記記録の閉鎖等,0,2021-07-15,2021-07-06,有限会社マーケティング・エー・シー,,有限会社,大阪府,大阪市北区,同心２丁目４－１７サンワビル,,27,127,5300035,,,2021-07-06,清算の結了等,,,2015-10-05,1,,,,,マーケティングエーシー,0
184,1130002006485,登記記録の閉鎖等,0,2021-07-15,2021-07-01,有限会社ワイエムエー,,有限会社,京都府,京都市上京区,丸太町通千本東入小山町９０６番地,,26,102,6028157,,,2021-07-01,清算の結了等,,,2015-10-05,1,,,,,ワイエムエー,0
192,1140002025294,登記記録の閉鎖等,0,2021-07-15,2021-07-05,有限会社北神幸和,,有限会社,兵庫県,神戸市北区,鹿の子台南町３丁目２番５号,,28,109,6511514,,,2021-07-05,清算の結了等,,,2015-10-05,1,,,,,ホクシンコウワ,0
197,1170002007414,登記記録の閉鎖等,0,2021-07-15,2021-07-14,有限会社ハンドシステム,,有限会社,和歌山県,有田市,箕島５１番地,,30,204,6490304,,,2021-07-14,清算の結了等,,,2015-10-05,1,,,,,ハンドシステム,0
198,1170005004136,登記記録の閉鎖等,0,2021-07-15,2021-07-14,特定非営利活動法人アルファ田辺,,その他の設立登記法人,和歌山県,田辺市,高雄１丁目２３番１号,,30,206,6460028,,,2021-07-14,清算の結了等,,,2015-10-05,1,,,,,アルファタナベ,0
214,1230002013810,登記記録の閉鎖等,0,2021-07-15,2021-07-01,ブリヂストン富山臨港タイヤセンター有限会社,,有限会社,富山県,射水市,作道３０６番地,,16,211,9340042,,,2021-07-01,合併による解散等,6230001003717,令和３年７月１日富山市山王町４番５号株式会社北信タイヤサービス（6230001003717）に合併し解散,2015-10-05,1,,,,,ブリヂストントヤマリンコウタイヤセンター,0
231,1270001004906,登記記録の閉鎖等,0,2021-07-15,2021-07-01,株式会社チュウブ緑地,,株式会社,鳥取県,東伯郡琴浦町,大字逢束１０６１番地６,00004261,31,371,6892304,,,2021-07-01,合併による解散等,2270001004905,令和３年６月３０日鳥取県東伯郡琴浦町大字逢束１０６１番地６株式会社チュウブ（2270001004905）に合併し解散,2015-10-05,1,,,,,チュウブリョクチ,0
237,1290803003491,登記記録の閉鎖等,0,2021-07-15,2021-07-12,ＭＩＲＡＩクリエイト合同会社,,合同会社,福岡県,北九州市小倉北区,神岳２丁目７番２０－２１０号,,40,106,8020045,,,2021-07-12,清算の結了等,,,2020-02-10,1,,,,,ミライクリエイト,0
238,1300005005640,登記記録の閉鎖等,0,2021-07-15,2021-07-05,厳木町漁業協同組合,,その他の設立登記法人,佐賀県,唐津市,厳木町厳木９９７番地,,41,202,8493131,,,2021-07-05,清算の結了等,,,2015-10-05,1,,,,,キュウラギマチ,0
266,1380003002211,登記記録の閉鎖等,0,2021-07-15,2021-07-05,合同会社西方カタクリの会,,合同会社,福島県,大沼郡三島町,大字西方字上原３５８０番地,,07,444,9697401,,,2021-07-05,清算の結了等,,,2015-10-05,1,,,,,ニシカタカタクリノカイ,0
287,1460102003028,登記記録の閉鎖等,0,2021-07-15,2021-07-13,有限会社北勝美興,,有限会社,北海道,河東郡音更町,東通１２丁目４番地５,,01,631,0800106,,,2021-07-13,清算の結了等,,,2015-10-05,1,,,,,ホクショウビコウ,0
300,2010001203375,登記記録の閉鎖等,0,2021-07-15,2021-06-30,ＢＯＯＲＴＭＡＬＴ　ＪＡＰＡＮ株式会社,,株式会社,東京都,中央区,新富１丁目１５番３号ジパングアウトソーシングサービス株式会社内,,13,102,1040041,,,2021-06-30,清算の結了等,,,2019-08-19,1,,,,,ボールトモルトジャパン,0
309,2010005031203,登記記録の閉鎖等,0,2021-07-15,2021-07-02,エクイニクス・ハイパースケール１・ジャパン一般社団法人,,その他の設立登記法人,東京都,千代田区,丸の内３丁目１番１号東京共同会計事務所内,,13,101,1000005,,,2021-07-02,清算の結了等,,,2019-12-17,1,,,,,エクイニクスハイパースケールワンジャパン,0
337,2011101045856,登記記録の閉鎖等,0,2021-07-15,2021-07-02,株式会社ジャム,,株式会社,愛知県,名古屋市瑞穂区,密柑山町２丁目１２番地,,23,108,4670041,,,2021-07-02,清算の結了等,,,2015-10-05,1,,,,,ジャム,0
372,2020002054123,登記記録の閉鎖等,0,2021-07-15,2021-07-07,有限会社ラムキューブ,,有限会社,神奈川県,横浜市戸塚区,汲沢１丁目７番３８号,00011115,14,110,2450061,,,2021-07-07,清算の結了等,,,2015-10-05,1,,,,,ラムキューブ,0
397,2030005004207,登記記録の閉鎖等,0,2021-07-15,2021-07-02,特定非営利活動法人たけのこ会,,その他の設立登記法人,埼玉県,入間市,東町５丁目６番５号,,11,225,3580002,,,2021-07-02,清算の結了等,,,2015-10-05,1,,,,,タケノコカイ,0
410,2070001035623,登記記録の閉鎖等,0,2021-07-15,2021-07-07,株式会社ＮＥＸＴ　ＩＮＮＯＶＡＴＩＯＮ,,株式会社,群馬県,前橋市,天川原町２丁目４１番地８ＮＩＷＡ－ＡＬＫ２階,,10,201,3710803,,,2021-07-07,合併による解散等,9070001031054,令和３年７月１日群馬県前橋市天川原町二丁目４１番地８ＮＩＷＡ－ＡＬＫ２階株式会社ＮＥＸＴ　ＨＯＬＤＩＮＧＳ（9070001031054）に合併し解散,2019-04-09,1,,,,,ネクストイノベーション,0
430,2120001114215,登記記録の閉鎖等,0,2021-07-15,2021-07-09,株式会社マツヤデンキ,,株式会社,大阪府,大阪市中央区,日本橋１丁目１７番１７号,,27,128,5420073,,,2021-07-09,合併による解散等,2070001036729,令和３年７月１日群馬県高崎市栄町１番１号株式会社ヤマダデンキ（2070001036729）に合併し解散,2015-10-05,1,,,,,マツヤデンキ,0
439,2120102015254,登記記録の閉鎖等,0,2021-07-15,2021-07-12,有限会社塚田設計,,有限会社,大阪府,大阪狭山市,山本南１０２番地,,27,231,5890033,,,2021-07-12,清算の結了等,,,2015-10-05,1,,,,,ツカダセッケイ,0
453,2140001056117,登記記録の閉鎖等,0,2021-07-15,2021-07-07,株式会社万勝,,株式会社,兵庫県,豊岡市,中央町８番８号,,28,209,6680033,,,2021-07-07,清算の結了等,,,2015-10-05,1,,,,,マンカツ,0
461,2140003013735,登記記録の閉鎖等,0,2021-07-15,2021-07-07,合同会社ＱｕｅＳｅｒａＳｅｒａＥｄｇｅ,,合同会社,兵庫県,たつの市,揖保川町山津屋６４番地１バン・プロピスⅡ３０１号,00115941,28,229,6711631,,,2021-07-07,清算の結了等,,,2019-03-06,1,,,,,ケセラセラエッジ,0
463,2140005012041,登記記録の閉鎖等,0,2021-07-15,2021-07-05,畑生産森林組合,,その他の設立登記法人,兵庫県,美方郡香美町,香住区畑４９５番地の２,,28,585,6696423,,,2021-07-05,清算の結了等,,,2015-10-05,1,,,,,ハタセイサンシンリンクミアイ,0
464,2140005024169,登記記録の閉鎖等,0,2021-07-15,2021-07-08,一般社団法人Ｄｙ－Ｄｉ会,,その他の設立登記法人,兵庫県,神戸市中央区,北野町４丁目７番３号,,28,110,6500002,,,2021-07-08,清算の結了等,,,2018-06-13,1,,,,,ディディカイ,0
474,2180002011645,登記記録の閉鎖等,0,2021-07-15,2021-07-05,有限会社順天堂薬局,,有限会社,愛知県,名古屋市北区,大曽根２丁目９番５９号,,23,103,4620825,,,2021-07-05,清算の結了等,,,2015-10-05,1,,,,,ジュンテンドウヤッキョク,0
485,2200001032219,登記記録の閉鎖等,0,2021-07-15,2021-07-13,株式会社ＢＨエステート,,株式会社,岐阜県,岐阜市,加納鉄砲町５丁目２３番地２,,21,201,5008453,,,2021-07-13,清算の結了等,,,2015-10-30,1,,,,,ビーエイチエステート,0
561,2430002020587,登記記録の閉鎖等,0,2021-07-15,2021-07-05,有限会社山下マリンサーベイ,,有限会社,北海道,札幌市東区,北十二条東１１丁目３番１２号,,01,103,0650012,,,2021-07-05,清算の結了等,,,2015-10-05,1,,,,,ヤマシタマリンサーベイ,0
577,3010001194283,登記記録の閉鎖等,0,2021-07-15,2021-07-12,株式会社アクシスヒューマンデベロップメント,,株式会社,東京都,中央区,日本橋人形町１丁目１番１１号,,13,102,1030013,,,2021-07-12,合併による解散等,7010001184347,令和３年７月１日東京都中央区日本橋人形町一丁目１番１１号株式会社アクシス・クリエイト（7010001184347）に合併し解散,2018-08-21,1,,,,,アクシスヒューマンデベロップメント,0
598,3010602002241,登記記録の閉鎖等,0,2021-07-15,2021-07-07,有限会社小林寝具センター,,有限会社,東京都,中野区,中野５丁目５２番１５号,,13,114,1640001,,,2021-07-07,清算の結了等,,,2015-10-05,1,,,,,コバヤシシングセンター,0
621,3011403002307,登記記録の閉鎖等,0,2021-07-15,2021-07-09,合同会社シンギョウエンジニアリング,,合同会社,東京都,板橋区,相生町２１番９号,,13,119,1740044,,,2021-07-09,清算の結了等,,,2018-02-07,1,,,,,シンギョウエンジニアリング,0
634,3012402006819,登記記録の閉鎖等,0,2021-07-15,2021-07-07,有限会社堀田企画,,有限会社,東京都,国立市,泉３丁目１５番地の７,,13,215,1860012,,,2021-07-07,清算の結了等,,,2015-10-05,1,,,,,ホッタキカク,0
641,3020001012436,登記記録の閉鎖等,0,2021-07-15,2021-07-06,有田商事株式会社,,株式会社,神奈川県,横浜市南区,山谷９２番地,,14,105,2320036,,,2021-07-06,清算の結了等,,,2015-10-05,1,,,,,,0
664,3021002072460,登記記録の閉鎖等,0,2021-07-15,2021-07-02,有限会社日研精機,,有限会社,神奈川県,藤沢市,石川６８６番地の５,,14,205,2520815,,,2021-07-02,清算の結了等,,,2015-10-05,1,,,,,,0
671,3030002007005,登記記録の閉鎖等,0,2021-07-15,2021-07-02,清水自動車有限会社,,有限会社,埼玉県,さいたま市大宮区,大成町３丁目５２６番地,,11,103,3300852,,,2021-07-02,清算の結了等,,,2015-10-05,1,,,,,シミズジドウシャ,0
689,3080103001109,登記記録の閉鎖等,0,2021-07-15,2021-07-07,合同会社インテレスト,,合同会社,静岡県,三島市,西若町５番１４号,,22,206,4110038,,,2021-07-07,清算の結了等,,,2015-10-05,1,,,,,インテレスト,0
699,3110005005526,登記記録の閉鎖等,0,2021-07-15,2021-07-07,医療法人社団水品医院,,その他の設立登記法人,新潟県,三条市,一ノ門２丁目４番３５号,,15,204,9550045,,,2021-07-07,清算の結了等,,,2015-10-05,1,,,,,ミズシナイイン,0
720,3120901030452,登記記録の閉鎖等,0,2021-07-15,2021-07-12,株式会社サンテクノ,,株式会社,大阪府,豊能郡豊能町,新光風台１丁目２番６号,,27,321,5630105,,,2021-07-12,清算の結了等,,,2015-10-05,1,,,,,サンテクノ,0
722,3122001004964,登記記録の閉鎖等,0,2021-07-15,2021-07-09,株式会社ツネミオートテクニカ,,株式会社,大阪府,東大阪市,吉原２丁目１１番４４号,,27,227,5780904,,,2021-07-09,合併による解散等,3120101048997,令和３年７月１日大阪府堺市堺区海山町三丁１５３番地大阪中央スズキ販売株式会社（3120101048997）に合併し解散,2015-10-05,1,,,,,ツネミオートテクニカ,0
723,3122001025077,登記記録の閉鎖等,0,2021-07-15,2021-07-12,株式会社ロイド,,株式会社,大阪府,東大阪市,若江東町４丁目１－９,,27,227,5780935,,,2021-07-12,清算の結了等,,,2015-10-05,1,,,,,ロイド,0
746,3160001020169,登記記録の閉鎖等,0,2021-07-15,2021-07-05,近畿測量調査株式会社,,株式会社,滋賀県,草津市,野村１丁目２番１６号,,25,206,5250027,,,2021-07-05,清算の結了等,,,2017-05-01,1,,,,,キンキソクリョウチョウサ,0
750,3170002007494,登記記録の閉鎖等,0,2021-07-15,2021-07-14,有限会社ツモロー企画,,有限会社,和歌山県,有田郡有田川町,大字徳田１５７６番地の１,,30,366,6430801,,,2021-07-14,清算の結了等,,,2015-10-05,1,,,,,,0
787,3240002034366,登記記録の閉鎖等,0,2021-07-15,2021-07-01,有限会社山本長寿園,,有限会社,広島県,呉市,築地町１番２４号,,34,202,7370822,,,2021-07-01,合併による解散等,8240001056704,令和３年７月１日広島県呉市築地町１番２４号株式会社ダイクレホールディングス（8240001056704）に合併し解散,2015-10-05,1,,,,,ヤマモトチョウジュエン,0
791,3250003000878,登記記録の閉鎖等,0,2021-07-15,2021-07-06,合資会社パンセ,,合資会社,山口県,萩市,大字堀内７９番地１,,35,204,7580057,,,2021-07-06,清算の結了等,,,2015-10-05,1,,,,,パンセ,0
804,3310002020697,登記記録の閉鎖等,0,2021-07-15,2021-07-05,有限会社丸吉屋,00096265,有限会社,長崎県,五島市,富江町富江２９２番地,,42,211,8530201,,,2021-07-05,清算の結了等,,,2015-10-05,1,,,,,マルヨシヤ,0
822,3370602000127,登記記録の閉鎖等,0,2021-07-15,2021-07-01,有限会社アラキ,,有限会社,宮城県,宮城郡七ヶ浜町,松ヶ浜字謡３０番地の５,,04,404,9850812,,,2021-07-01,清算の結了等,,,2015-10-05,1,,,,,アラキ,0
839,3430001001447,登記記録の閉鎖等,0,2021-07-15,2021-07-02,株式会社イチイ,,株式会社,北海道,札幌市白石区,川下四条３丁目４番７号,,01,104,0030864,,,2021-07-02,清算の結了等,,,2015-10-05,1,,,,,イチイ,0
848,3500003001909,登記記録の閉鎖等,0,2021-07-15,2021-07-05,合同会社Ｃｏｒｅ　Ｌｉｅｂ,,合同会社,愛媛県,新居浜市,西原町１丁目１番,,38,205,7920011,,,2021-07-05,合併による解散等,6010603005389,令和３年６月２９日大阪市住之江区南港中三丁目９番２５－１１０５号合同会社ＣＯＲＥ　ＥＩＮ（6010603005389）に合併し解散,2017-04-03,1,,,,,,0
853,4010001067307,登記記録の閉鎖等,0,2021-07-15,2021-07-01,エム・シーライフ株式会社,,株式会社,東京都,中央区,日本橋兜町１５番１２号,,13,102,1030026,,,2021-07-01,清算の結了等,,,2015-10-05,1,,,,,エムシーライフ,0
854,4010001083997,登記記録の閉鎖等,0,2021-07-15,2021-07-12,株式会社日本プロパティ・ソリューションズ,,株式会社,東京都,千代田区,神田神保町２丁目４番地,,13,101,1010051,,,2021-07-12,合併による解散等,2010401098911,令和３年７月１日東京都港区西新橋一丁目１４番２号東京キャピタルマネジメント株式会社（2010401098911）に合併し解散,2015-10-05,1,,,,,ニホンプロパティソリューションズ,0
868,4010401013777,登記記録の閉鎖等,0,2021-07-15,2021-07-02,株式会社商業界,,株式会社,東京都,港区,麻布台２丁目４番９号,,13,103,1060041,,,2021-07-02,清算の結了等,,,2015-10-05,1,,,,,ショウギョウカイ,0
870,4010401071098,登記記録の閉鎖等,0,2021-07-15,2021-07-13,フェニックスインターナショナル株式会社,,株式会社,東京都,港区,元赤坂１丁目５番１１号,,13,103,1070051,,,2021-07-13,合併による解散等,2080001017034,令和３年７月１日静岡県藤枝市青葉町四丁目４番２号イズミヒューマンアップ株式会社（2080001017034）に合併し解散,2015-10-05,1,,,,,フェニックスインターナショナル,0
898,4011101073954,登記記録の閉鎖等,0,2021-07-15,2021-07-06,アニコムキャピタル株式会社,,株式会社,東京都,新宿区,西新宿８丁目１７番１号住友不動産新宿グランドタワー３９階,,13,104,1600023,,,2021-07-06,清算の結了等,,,2015-10-05,1,,,,,アニコムキャピタル,0
916,4020001077049,登記記録の閉鎖等,0,2021-07-15,2021-07-07,アジアブリッジジャパン株式会社,,株式会社,神奈川県,川崎市高津区,末長２丁目３６番１１－１１５号ロイヤルシーズンズ３９,,14,134,2130013,,,2021-07-07,清算の結了等,,,2015-10-05,1,,,,,アジアブリッジジャパン,0
948,4060001024187,登記記録の閉鎖等,0,2021-07-15,2021-07-02,ライズアゲイン株式会社,,株式会社,栃木県,下野市,石橋４２８番地,,09,216,3290511,,,2021-07-02,清算の結了等,,,2015-10-05,1,,,,,ライズアゲイン,0
954,4070001001615,登記記録の閉鎖等,0,2021-07-15,2021-07-09,ドリーム株式会社,,株式会社,群馬県,前橋市,駒形町８３３番地２１,,10,201,3792122,,,2021-07-09,清算の結了等,,,2015-10-05,1,,,,,,0
958,4070001034821,登記記録の閉鎖等,0,2021-07-15,2021-07-07,株式会社Ｎｅｘｔ　Ｍｏｒｅ,,株式会社,群馬県,みどり市,笠懸町鹿４６０９番地７レールデュタンⅡＢ１号,00117512,10,212,3792313,,,2021-07-07,合併による解散等,9070001031054,令和３年７月１日群馬県前橋市天川原町二丁目４１番地８ＮＩＷＡ－ＡＬＫ２階株式会社ＮＥＸＴ　ＨＯＬＤＩＮＧＳ（9070001031054）に合併し解散,2018-06-20,1,,,,,ネクストモア,0
959,4070002000500,登記記録の閉鎖等,0,2021-07-15,2021-07-12,有限会社石川建材工業,,有限会社,群馬県,前橋市,市之関町３９８番地の４,,10,201,3710245,,,2021-07-12,清算の結了等,,,2015-10-05,1,,,,,イシカワケンザイコウギョウ,0
996,4120105007759,登記記録の閉鎖等,0,2021-07-15,2021-07-01,一般社団法人おだわ社会福祉士事務所,,その他の設立登記法人,大阪府,堺市堺区,櫛屋町東４丁２番２２号,00033194,27,141,5900944,,,2021-07-01,清算の結了等,,,2015-10-05,1,,,,,オダワシャカイフクシシジムショ,0
1025,4170001007940,登記記録の閉鎖等,0,2021-07-15,2021-07-12,株式会社ヤタヤ薬局,,株式会社,和歌山県,和歌山市,榎原７３番地１,,30,201,6408434,,,2021-07-12,合併による解散等,7290001008379,令和３年７月１日福岡市中央区天神二丁目１４番８号総合メディカル株式会社（7290001008379）に合併し解散,2015-10-05,1,,,,,ヤタヤヤッキョク,0
1029,4180002006882,登記記録の閉鎖等,0,2021-07-15,2021-07-06,有限会社ねじ山精工所,,有限会社,愛知県,名古屋市港区,当知町８丁目７１番地,,23,111,4550805,,,2021-07-06,清算の結了等,,,2015-10-05,1,,,,,ネジヤマセイコウショ,0
1031,4180301014231,登記記録の閉鎖等,0,2021-07-15,2021-07-12,中京スズキ販売株式会社,,株式会社,愛知県,刈谷市,恩田町３丁目１５９番地１９,,23,210,4480013,,,2021-07-12,清算の結了等,,,2015-10-05,1,,,,,チュウキョウスズキハンバイ,0
1033,4180302023784,登記記録の閉鎖等,0,2021-07-15,2021-07-14,有限会社山崎創美,,有限会社,愛知県,豊田市,泉町梅ケ根２４２番地５,,23,211,4710803,,,2021-07-14,清算の結了等,,,2015-10-05,1,,,,,ヤマザキソウビ,0
1041,4200002004801,登記記録の閉鎖等,0,2021-07-15,2021-07-12,有限会社メディコア安藤,,有限会社,岐阜県,岐阜市,祈年町１０丁目１５番地１,,21,201,5008156,,,2021-07-12,合併による解散等,6010901003581,令和３年７月１日東京都世田谷区成城七丁目８番１８号株式会社グラム（6010901003581）に合併し解散,2015-10-05,1,,,,,,0
1103,4430005008289,登記記録の閉鎖等,0,2021-07-15,2021-07-02,特定非営利活動法人余市水泳協会,,その他の設立登記法人,北海道,余市郡余市町,大川町９丁目３番地,,01,408,0460004,,,2021-07-02,清算の結了等,,,2015-10-05,1,,,,,ヨイチスイエイキョウカイ,0
1108,4460001000668,登記記録の閉鎖等,0,2021-07-15,2021-07-12,株式会社三日市,,株式会社,北海道,釧路市,新富士町４丁目４番１３号,,01,206,0840904,,,2021-07-12,清算の結了等,,,2015-10-05,1,,,,,ミッカイチ,0
1117,5010001000687,登記記録の閉鎖等,0,2021-07-15,2021-07-01,株式会社インタービジコム,,株式会社,東京都,文京区,小石川５丁目１４番８号,,13,105,1120002,,,2021-07-01,清算の結了等,,,2015-10-05,1,,,,,インタービジコム,0
1134,5010401103305,登記記録の閉鎖等,0,2021-07-15,2021-07-02,株式会社ＳＰＧ　ｌａｂｏ,,株式会社,東京都,港区,六本木６丁目１０番１号,,13,103,1060032,,,2021-07-02,清算の結了等,,,2015-10-05,1,,,,,エスピージーラボ,0
1150,5010701032666,登記記録の閉鎖等,0,2021-07-15,2021-07-12,株式会社イベント・プラス,,株式会社,東京都,品川区,戸越５丁目２番１４号,,13,109,1420041,,,2021-07-12,清算の結了等,,,2016-07-04,1,,,,,イベントプラス,0
1155,5011001124716,登記記録の閉鎖等,0,2021-07-15,2021-07-12,株式会社ＡＲＡＴＡ,,株式会社,東京都,渋谷区,恵比寿西１丁目１０番１０号,,13,113,1500021,,,2021-07-12,合併による解散等,6030001117289,令和３年７月１日埼玉県久喜市久喜東二丁目１６番１３号株式会社ＡＲＡＴＡ（6030001117289）に合併し解散,2018-10-17,1,,,,,アラタ,0
1174,5011601003195,登記記録の閉鎖等,0,2021-07-15,2021-07-13,株式会社集建築設計事務所,,株式会社,東京都,練馬区,富士見台１丁目９番１６号,,13,120,1770034,,,2021-07-13,清算の結了等,,,2015-10-05,1,,,,,ツドイケンチクセッケイジムショ,0
1177,5011601020190,登記記録の閉鎖等,0,2021-07-15,2021-07-08,株式会社エスアールエルウェルネスプロモーション,,株式会社,東京都,新宿区,西新宿２丁目１番１号,,13,104,1600023,,,2021-07-08,合併による解散等,5010601020283,令和３年７月１日東京都練馬区錦二丁目９番１４号Ｈ．Ｕ．ウェルネス株式会社（5010601020283）に合併し解散,2015-10-05,1,,,,,エスアールエルウェルネスプロモーション,0
1179,5011602001132,登記記録の閉鎖等,0,2021-07-15,2021-07-12,有限会社岩附電設,,有限会社,東京都,練馬区,高松４丁目３番１９号,,13,120,1790075,,,2021-07-12,清算の結了等,,,2015-10-05,1,,,,,イワツキデンセツ,0
1185,5012801018693,登記記録の閉鎖等,0,2021-07-15,2021-07-05,株式会社Ｔｉｇｈｔｌｉｎｋ,,株式会社,東京都,立川市,曙町２丁目３４番地の１３オリンピック第３ビル,,13,202,1900012,,,2021-07-05,清算の結了等,,,2018-04-19,1,,,,,タイトリンク,0
1187,5013101003799,登記記録の閉鎖等,0,2021-07-15,2021-07-06,高橋工芸株式会社,00059682,株式会社,東京都,青梅市,日向和田３丁目６０５番地,,13,205,1980046,,,2021-07-06,清算の結了等,,,2015-10-05,1,,,,,,0
1188,5013201015744,登記記録の閉鎖等,0,2021-07-15,2021-07-01,株式会社なごみ介護サービス,,株式会社,東京都,目黒区,中央町１丁目１７番１２号,,13,110,1520001,,,2021-07-01,清算の結了等,,,2015-10-05,1,,,,,ナゴミカイゴサービス,0
1195,5020001011907,登記記録の閉鎖等,0,2021-07-15,2021-07-06,株式会社浜テラス,,株式会社,神奈川県,横浜市青葉区,市ケ尾町１１７９番地１１,,14,117,2250024,,,2021-07-06,清算の結了等,,,2015-10-05,1,,,,,ハマテラス,0
1198,5020002050177,登記記録の閉鎖等,0,2021-07-15,2021-07-06,有限会社小関電設,,有限会社,神奈川県,横浜市青葉区,奈良５丁目８番地２,,14,117,2270038,,,2021-07-06,清算の結了等,,,2015-10-05,1,,,,,オゼキデンセツ,0
1255,5120001059366,登記記録の閉鎖等,0,2021-07-15,2021-07-05,日本コンピュータ・エイディッド・テクノロジ株式会社,,株式会社,大阪府,大阪市東淀川区,東中島１丁目５番７号,,27,114,5330033,,,2021-07-05,清算の結了等,,,2015-10-05,1,,,,,ニホンコンピュータエイディッドテクノロジ,0
1267,5120101048491,登記記録の閉鎖等,0,2021-07-15,2021-07-12,株式会社Ａ・Ｃプラン,,株式会社,大阪府,堺市北区,野遠町５４７番地１,,27,146,5918013,,,2021-07-12,清算の結了等,,,2015-10-05,1,,,,,エーシープラン,0
1273,5130001032719,登記記録の閉鎖等,0,2021-07-15,2021-07-02,城南リース株式会社,,株式会社,京都府,宇治市,宇治宇文字２番地の４７城南ビル３階,,26,204,6110021,,,2021-07-02,清算の結了等,,,2021-05-31,1,,,,,ジョウナンリース,0
1295,5180301023173,登記記録の閉鎖等,0,2021-07-15,2021-07-13,株式会社天本商店,,株式会社,愛知県,西尾市,一色町酒手島東芝野通１４番地５,,23,213,4440415,,,2021-07-13,清算の結了等,,,2015-10-05,1,,,,,アマモトショウテン,0
1306,5210001000114,登記記録の閉鎖等,0,2021-07-15,2021-07-08,安全用品製造株式会社,,株式会社,福井県,福井市,日光２丁目１１番１号,,18,201,9100029,,,2021-07-08,清算の結了等,,,2015-10-05,1,,,,,アンゼンヨウヒンセイゾウ,0
1315,5230005003714,登記記録の閉鎖等,0,2021-07-15,2021-07-01,妙教寺,,その他の設立登記法人,富山県,魚津市,大字下村木町定籍,,16,204,9370802,,,2021-07-01,清算の結了等,,,2015-10-05,1,,,,,,0
1332,5290003005426,登記記録の閉鎖等,0,2021-07-15,2021-06-30,合同会社震災復興プロジェクト,,合同会社,福岡県,福岡市博多区,博多駅前４丁目３番１８号,,40,132,8120011,,,2021-06-30,清算の結了等,,,2015-10-05,1,,,,,シンサイフッコウプロジェクト,0
1333,5290003006333,登記記録の閉鎖等,0,2021-07-15,2021-06-30,合同会社アブリリゾートＨ．Ｋ．Ｃ,,合同会社,福岡県,福岡市博多区,博多駅前４丁目３番１８号,,40,132,8120011,,,2021-06-30,清算の結了等,,,2016-03-03,1,,,,,アブリリゾートエッチケイシー,0
1336,5290802004413,登記記録の閉鎖等,0,2021-07-15,2021-07-12,有限会社トヨス技研工業,,有限会社,福岡県,北九州市小倉北区,中井口９番１３号,,40,106,8030837,,,2021-07-12,清算の結了等,,,2015-10-05,1,,,,,トヨスギケンコウギョウ,0
1340,5310003001983,登記記録の閉鎖等,0,2021-07-15,2021-07-05,合資会社伯川商店,,合資会社,長崎県,島原市,６４番地,,42,203,8550038,,,2021-07-05,合併による解散等,5310002018079,令和３年７月１日長崎県島原市湊町４６番地株式会社ファミリーフード（5310002018079）に合併し解散,2015-10-05,1,,,,,ハクカワショウテン,0
1384,5470001002712,登記記録の閉鎖等,0,2021-07-15,2021-07-12,株式会社辰馬商事,,株式会社,香川県,高松市,築地町３番地２,,37,201,7600061,,,2021-07-12,清算の結了等,,,2015-10-05,1,,,,,タツウマショウジ,0
1412,6010003020947,登記記録の閉鎖等,0,2021-07-15,2021-07-01,第三十七発電合同会社,,合同会社,東京都,文京区,本郷４丁目９番２２号,,13,105,1130033,,,2021-07-01,清算の結了等,,,2015-10-05,1,,,,,ダイサンジュウナナハツデン,0
1477,6021003002793,登記記録の閉鎖等,0,2021-07-15,2021-07-05,合資会社泉園茶舖,,合資会社,神奈川県,横須賀市,若松町１丁目８番地,,14,201,2380007,,,2021-07-05,清算の結了等,,,2015-10-05,1,,,,,イズミエンチャホ,0
1490,6040002025993,登記記録の閉鎖等,0,2021-07-15,2021-07-05,有限会社山木商工,,有限会社,千葉県,船橋市,習志野２丁目１１番２２号,,12,204,2740071,,,2021-07-05,清算の結了等,,,2015-10-05,1,,,,,ヤマキショウコウ,0
1494,6050001026117,登記記録の閉鎖等,0,2021-07-15,2021-06-30,株式会社河内工業所,,株式会社,茨城県,稲敷郡河内町,十三間戸９０２番地,,08,447,3001401,,,2021-06-30,清算の結了等,,,2015-10-05,1,,,,,カワチコウギョウショ,0
1514,6080101008103,登記記録の閉鎖等,0,2021-07-15,2021-07-09,石川クレーン株式会社,,株式会社,静岡県,富士市,鵜無ケ渕２０５番地,,22,210,4170000,,,2021-07-09,清算の結了等,,,2015-10-05,1,,,,,イシカワクレーン,0
1515,6080101010439,登記記録の閉鎖等,0,2021-07-15,2021-07-09,株式会社エムワン,,株式会社,静岡県,富士市,中丸１６６番地の３,,22,210,4160933,,,2021-07-09,清算の結了等,,,2015-10-05,1,,,,,エムワン,0
1532,6120002015747,登記記録の閉鎖等,0,2021-07-15,2021-07-05,有限会社日弘輸送商会,,有限会社,大阪府,大阪市港区,市岡元町２丁目１６番１２号,,27,107,5520002,,,2021-07-05,清算の結了等,,,2015-10-05,1,,,,,ニッコウユソウショウカイ,0
1564,6180002023125,登記記録の閉鎖等,0,2021-07-15,2021-07-05,有限会社キヤンリツチ,,有限会社,愛知県,名古屋市西区,幅下２丁目２０番１８号,,23,104,4510041,,,2021-07-05,清算の結了等,,,2015-10-05,1,,,,,,0
1593,6250001005091,登記記録の閉鎖等,0,2021-07-15,2021-07-09,株式会社五十鈴商会,,株式会社,山口県,下関市,山手町５番１号,,35,201,7500033,,,2021-07-09,清算の結了等,,,2015-10-05,1,,,,,イスズショウカイ,0
1594,6250001009935,登記記録の閉鎖等,0,2021-07-15,2021-07-09,周南ファインケミカル株式会社,,株式会社,山口県,周南市,開成町４９８０番地,,35,215,7460006,,,2021-07-09,清算の結了等,,,2015-10-05,1,,,,,シュウナンファインケミカル,0
1615,6340002006336,登記記録の閉鎖等,0,2021-07-15,2021-07-05,有限会社鶴田ポンプ工業,,有限会社,鹿児島県,鹿児島市,伊敷８丁目２０番６号,,46,201,8900008,,,2021-07-05,清算の結了等,,,2015-10-05,1,,,,,,0
1625,6380001005351,登記記録の閉鎖等,0,2021-07-15,2021-07-06,株式会社サニーテック,,株式会社,福島県,郡山市,土瓜２丁目１１番地,,07,203,9630204,,,2021-07-06,清算の結了等,,,2015-10-05,1,,,,,サニーテック,0
1632,6400002000415,登記記録の閉鎖等,0,2021-07-15,2021-07-05,有限会社いのうえ,,有限会社,岩手県,盛岡市,箱清水１丁目３５番２３号,,03,201,0200116,,,2021-07-05,清算の結了等,,,2015-10-05,1,,,,,イノウエ,0
1633,6410001004333,登記記録の閉鎖等,0,2021-07-15,2021-07-07,株式会社カンキョウ設備企画,,株式会社,秋田県,秋田市,将軍野南３丁目１２番１３号,,05,201,0110936,,,2021-07-07,清算の結了等,,,2015-10-05,1,,,,,カンキョウセツビキカク,0
1663,7010401098345,登記記録の閉鎖等,0,2021-07-15,2021-07-02,株式会社Ｏｒｉｇａｍｉ,,株式会社,東京都,港区,六本木６丁目１０番１号,,13,103,1060032,,,2021-07-02,清算の結了等,,,2015-10-05,1,,,,,オリガミ,0
1689,7011102030027,登記記録の閉鎖等,0,2021-07-15,2021-07-01,株式会社アクシス,,株式会社,埼玉県,草加市,松原４丁目１番８号,,11,221,3400041,,,2021-07-01,清算の結了等,,,2015-10-05,1,,,,,アクシス,0
1722,7020002106217,登記記録の閉鎖等,0,2021-07-15,2021-07-06,有限会社アイ・プリント,,有限会社,神奈川県,横浜市鶴見区,寛政町９番４号,,14,101,2300034,,,2021-07-06,清算の結了等,,,2015-10-05,1,,,,,アイプリント,0
1723,7020003018428,登記記録の閉鎖等,0,2021-07-15,2021-07-06,Ｓｅｃａｉｅ合同会社,,合同会社,神奈川県,川崎市中原区,新丸子東３丁目１１００番１２号,,14,133,2110004,,,2021-07-06,清算の結了等,,,2020-09-09,1,,,,,セカイエ,0
1725,7021001032511,登記記録の閉鎖等,0,2021-07-15,2021-07-05,株式会社神奈川塗装サービス,,株式会社,神奈川県,小田原市,荻窪５４９番地１８,,14,206,2500042,,,2021-07-05,清算の結了等,,,2015-10-05,1,,,,,,0
1730,7021002061063,登記記録の閉鎖等,0,2021-07-15,2021-07-02,有限会社柳平工務店,,有限会社,神奈川県,中郡二宮町,二宮３３１番地,,14,342,2590123,,,2021-07-02,清算の結了等,,,2015-10-05,1,,,,,,0
1739,7030002019491,登記記録の閉鎖等,0,2021-07-15,2021-07-01,有限会社Ｍｏｎｏｌｉｔｈ,,有限会社,埼玉県,さいたま市浦和区,元町１丁目１５番１４号,,11,107,3300073,,,2021-07-01,清算の結了等,,,2015-10-05,1,,,,,モノリス,0
1745,7040001059249,登記記録の閉鎖等,0,2021-07-15,2021-07-06,菅谷ホーム株式会社,,株式会社,千葉県,長生郡睦沢町,上市場３２０番地３２,,12,422,2994403,,,2021-07-06,清算の結了等,,,2015-10-05,1,,,,,スガヤホーム,0
1746,7040002104854,登記記録の閉鎖等,0,2021-07-15,2021-07-02,有限会社稔台木材センター,,有限会社,千葉県,松戸市,稔台１１３３番地,,12,207,2702231,,,2021-07-02,清算の結了等,,,2021-05-21,1,,,,,ミノリダイモクザイセンター,0
1750,7050001035604,登記記録の閉鎖等,0,2021-07-15,2021-07-05,株式会社トライム,,株式会社,茨城県,古河市,原町１２番８号,,08,204,3060025,,,2021-07-05,清算の結了等,,,2015-10-05,1,,,,,トライム,0
1752,7050001041180,登記記録の閉鎖等,0,2021-07-15,2021-07-06,Ｈｏｐｅａｓｅ株式会社,,株式会社,茨城県,取手市,野々井６９４番地２１,,08,217,3020032,,,2021-07-06,清算の結了等,,,2016-06-22,1,,,,,,0
1755,7050003004177,登記記録の閉鎖等,0,2021-07-15,2021-07-02,合同会社ワイライズ,,合同会社,茨城県,小美玉市,野田１５７番地３３,,08,236,3113411,,,2021-07-02,清算の結了等,,,2018-04-27,1,,,,,ワイライズ,0
1777,7100002031704,登記記録の閉鎖等,0,2021-07-15,2021-07-07,有限会社ビーエスアンドビー,,有限会社,長野県,岡谷市,若宮１丁目５番１１号,,20,204,3940032,,,2021-07-07,清算の結了等,,,2015-10-05,1,,,,,ビーエスアンドビー,0
1805,7120005015215,登記記録の閉鎖等,0,2021-07-15,2021-07-08,公益財団法人枚方市文化国際財団,,その他の設立登記法人,大阪府,枚方市,岡東町８番３３号枚方市市民会館内,,27,210,5730032,,,2021-07-08,清算の結了等,,,2015-10-05,1,,,,,ヒラカタシブンカコクサイザイダン,0
1817,7130002025579,登記記録の閉鎖等,0,2021-07-15,2021-07-07,京都アム有限会社,,有限会社,京都府,長岡京市,天神３丁目９番１９号,,26,209,6170824,,,2021-07-07,清算の結了等,,,2015-10-05,1,,,,,キョウトアム,0
1824,7140001085581,登記記録の閉鎖等,0,2021-07-15,2021-07-07,株式会社三代目,,株式会社,兵庫県,神戸市中央区,多聞通２丁目１番７号法友会館３階,,28,110,6500015,,,2021-07-07,清算の結了等,,,2015-10-05,1,,,,,サンダイメ,0
1849,7180003016069,登記記録の閉鎖等,0,2021-07-15,2021-07-05,未来サポート合同会社,,合同会社,愛知県,名古屋市千種区,鍋屋上野町字東脇１０７０番地の１,,23,101,4640097,,,2021-07-05,清算の結了等,,,2015-10-05,1,,,,,ミライサポート,0
1879,7290005004507,登記記録の閉鎖等,0,2021-07-15,2021-06-28,一般社団法人高速料金回収代行,,その他の設立登記法人,福岡県,福岡市中央区,天神２丁目１２番１号,,40,133,8100001,,,2021-06-28,清算の結了等,,,2015-10-05,1,,,,,コウソクリョウキンカイシュウダイコウ,0
1894,7340002008174,登記記録の閉鎖等,0,2021-07-15,2021-07-02,有限会社福産食研,,有限会社,鹿児島県,鹿児島市,平之町１３番３号,,46,201,8920848,,,2021-07-02,清算の結了等,,,2015-10-05,1,,,,,フクサンショッケン,0
1898,7340005006365,登記記録の閉鎖等,0,2021-07-15,2021-07-05,特定非営利活動法人鹿児島呼吸器研究支援機構,,その他の設立登記法人,鹿児島県,鹿児島市,桜ヶ丘８丁目３５番地１,,46,201,8900075,,,2021-07-05,清算の結了等,,,2015-10-05,1,,,,,カゴシマコキュウキケンキュウシエンキコウ,0
1910,7380005007814,登記記録の閉鎖等,0,2021-07-15,2021-07-05,社会福祉法人養高会,,その他の設立登記法人,福島県,双葉郡広野町,大字下北迫字東町２１１番地２,,07,541,9790402,,,2021-07-05,清算の結了等,,,2015-10-05,1,,,,,ヨウコウカイ,0
1925,7400002010413,登記記録の閉鎖等,0,2021-07-15,2021-07-06,有限会社フロム,,有限会社,岩手県,遠野市,宮守町下宮守２８地割４０番地１,,03,208,0280304,,,2021-07-06,清算の結了等,,,2015-10-05,1,,,,,フロム,0
1936,7450001009600,登記記録の閉鎖等,0,2021-07-15,2021-07-13,株式会社雄武運送社,,株式会社,北海道,紋別郡雄武町,字雄武２１９番地,,01,563,0981702,,,2021-07-13,清算の結了等,,,2015-10-05,1,,,,,オウムウンソウシャ,0
1953,8010001085536,登記記録の閉鎖等,0,2021-07-15,2021-07-09,株式会社シーティーケイＥＡＳＴ,,株式会社,東京都,千代田区,神田和泉町１番地,,13,101,1010024,,,2021-07-09,合併による解散等,4011401023114,令和３年７月１日東京都板橋区舟渡三丁目２８番９号株式会社シーティーケイ（4011401023114）に合併し解散,2015-10-05,1,,,,,シーティーケイイースト,0
1956,8010001136074,登記記録の閉鎖等,0,2021-07-15,2021-07-05,株式会社夢風船,,株式会社,東京都,千代田区,二番町７番地１ミレニアムガーデンコート１３０４号,,13,101,1020084,,,2021-07-05,清算の結了等,,,2015-10-05,1,,,,,ユメフウセン,0
1968,8010005026759,登記記録の閉鎖等,0,2021-07-15,2021-07-02,一般社団法人東京不動産開発協会,,その他の設立登記法人,東京都,千代田区,霞が関３丁目２番５号,,13,101,1000013,,,2021-07-02,清算の結了等,,,2017-04-20,1,,,,,トウキョウフドウサンカイハツキョウカイ,0
1977,8010402032418,登記記録の閉鎖等,0,2021-07-15,2021-07-02,有限会社イー・ワイ・イー・フードラボ,,有限会社,東京都,港区,西麻布３丁目１３番１６号,,13,103,1060031,,,2021-07-02,清算の結了等,,,2015-10-05,1,,,,,イーワイイーフードラボ,0
1978,8010403014555,登記記録の閉鎖等,0,2021-07-15,2021-07-01,合同会社はやてソーラー,,合同会社,東京都,千代田区,丸の内３丁目１番１号東京共同会計事務所内,,13,101,1000005,,,2021-07-01,合併による解散等,2010003034224,令和３年７月１日東京都千代田区丸の内三丁目１番１号東京共同会計事務所内合同会社はやぶさソーラー（2010003034224）に合併し解散,2016-03-15,1,,,,,ハヤテソーラー,0
2007,8011703001409,登記記録の閉鎖等,0,2021-07-15,2021-07-06,サルヴィア合同会社,,合同会社,東京都,江戸川区,東小岩３丁目７番１８号,,13,123,1330052,,,2021-07-06,清算の結了等,,,2016-01-27,1,,,,,サルヴィア,0
2045,8030001095046,登記記録の閉鎖等,0,2021-07-15,2021-07-01,エヌ・ティ外装株式会社,,株式会社,埼玉県,吉川市,大字保４８０番地６,,11,243,3420041,,,2021-07-01,清算の結了等,,,2015-10-05,1,,,,,,0
2089,8110001020937,登記記録の閉鎖等,0,2021-07-15,2021-07-07,上村商事株式会社,,株式会社,新潟県,十日町市,美雪町３丁目７１番地,,15,210,9480052,,,2021-07-07,清算の結了等,,,2015-10-05,1,,,,,カミムラショウジ,0
2091,8110001027503,登記記録の閉鎖等,0,2021-07-15,2021-07-07,おけさ酒造株式会社,,株式会社,新潟県,佐渡市,窪田７９８番地,,15,224,9521325,,,2021-07-07,清算の結了等,,,2015-10-05,1,,,,,オケサシュゾウ,0
2092,8110002026958,登記記録の閉鎖等,0,2021-07-15,2021-07-01,有限会社エスケイ,,有限会社,新潟県,長岡市,西津町字本田３８６４番地１,,15,202,9402126,,,2021-07-01,清算の結了等,,,2015-10-05,1,,,,,エスケイ,0
2105,8120001203953,登記記録の閉鎖等,0,2021-07-15,2021-07-12,株式会社Ａｚ－ｗｅｓｔ,,株式会社,大阪府,大阪市都島区,東野田町２丁目９番１０号,,27,102,5340024,,,2021-07-12,合併による解散等,9120001181760,令和３年７月１日京都市下京区奈良物町３７３ＨＩ－ＲＥＫＳビル６Ｆ株式会社ＢＲＡＶＥ（9120001181760）に合併し解散,2017-02-24,1,,,,,アズウェスト,0
2112,8120101033945,登記記録の閉鎖等,0,2021-07-15,2021-07-12,松葉製鋲株式会社,,株式会社,大阪府,河内長野市,高向９４番地,,27,216,5860036,,,2021-07-12,清算の結了等,,,2015-10-05,1,,,,,マツバセイビョウ,0
2140,8150005006508,登記記録の閉鎖等,0,2021-07-15,2021-07-05,特定非営利活動法人きずな会,,その他の設立登記法人,奈良県,御所市,大字増６８６番地,,29,208,6392327,,,2021-07-05,清算の結了等,,,2015-10-05,1,,,,,キズナカイ,0
2148,8180001107166,登記記録の閉鎖等,0,2021-07-15,2021-07-06,大隅機工株式会社,,株式会社,愛知県,名古屋市北区,清水２丁目２３番５号,,23,103,4620844,,,2021-07-06,清算の結了等,,,2015-10-05,1,,,,,オオスミキコウ,0
2152,8180003002662,登記記録の閉鎖等,0,2021-07-15,2021-07-06,合資会社中川ベンヂンクリーニング商会,,合資会社,愛知県,名古屋市中川区,元中野町３丁目５９６番地,,23,110,4540048,,,2021-07-06,清算の結了等,,,2015-10-05,1,,,,,ナカガワベンジンクリーニングショウカイ,0
2170,8240002016731,登記記録の閉鎖等,0,2021-07-15,2021-07-01,有限会社モアービューティ美健,,有限会社,広島県,広島市安芸区,船越２丁目４５番１号,,34,107,7360081,,,2021-07-01,清算の結了等,,,2015-10-05,1,,,,,モアービューティビケン,0
2173,8260001024130,登記記録の閉鎖等,0,2021-07-15,2021-07-08,株式会社ＰＨＣ,,株式会社,岡山県,赤磐市,徳富２５番地,,33,213,7090716,,,2021-07-08,合併による解散等,8260001008703,令和３年７月１日岡山県赤磐市徳富３６３番地備前化成株式会社（8260001008703）に合併し解散,2015-10-05,1,,,,,ピーエイチシー,0
2178,8270002011184,登記記録の閉鎖等,0,2021-07-15,2021-07-06,有限会社大樹,,有限会社,鳥取県,倉吉市,広栄町８０１番地２１,,31,203,6820035,,,2021-07-06,清算の結了等,,,2015-10-05,1,,,,,タイジュ,0
2226,8430001068911,登記記録の閉鎖等,0,2021-07-15,2021-07-02,イナイ自動車株式会社,,株式会社,北海道,札幌市豊平区,豊平四条１１丁目５－２６,,01,105,0620904,,,2021-07-02,清算の結了等,,,2015-10-05,1,,,,,イナイジドウシャ,0
2229,8430005007725,登記記録の閉鎖等,0,2021-07-15,2021-07-05,医療法人社団城小児科クリニック,,その他の設立登記法人,北海道,小樽市,緑２丁目１９番１号,,01,203,0470034,,,2021-07-05,清算の結了等,,,2015-10-05,1,,,,,ジョウショウニカクリニック,0
2232,8450001009599,登記記録の閉鎖等,0,2021-07-15,2021-07-13,雄武砂利工業株式会社,,株式会社,北海道,紋別郡雄武町,字雄武２１９番地,,01,563,0981702,,,2021-07-13,清算の結了等,,,2015-10-05,1,,,,,オウムジャリコウギョウ,0
2233,8460102003434,登記記録の閉鎖等,0,2021-07-15,2021-07-09,有限会社ミナト商会,,有限会社,北海道,帯広市,西二十三条北２丁目１１番地２０,,01,207,0802463,,,2021-07-09,清算の結了等,,,2015-10-05,1,,,,,ミナトショウカイ,0
2277,9011001128300,登記記録の閉鎖等,0,2021-07-15,2021-07-13,株式会社Ｒａｓｉｋａ,,株式会社,宮崎県,東臼杵郡美郷町,西郷田代８７３２番地,,45,431,8831101,,,2021-07-13,清算の結了等,,,2019-06-05,1,,,,,ラシカ,0
2287,9011102000374,登記記録の閉鎖等,0,2021-07-15,2021-07-07,有限会社アズ,,有限会社,東京都,新宿区,喜久井町６７番地,,13,104,1620044,,,2021-07-07,清算の結了等,,,2015-10-05,1,,,,,アズ,0
2321,9030001032816,登記記録の閉鎖等,0,2021-07-15,2021-07-01,埼玉企業株式会社,,株式会社,埼玉県,羽生市,大字上新郷５１５５番地,,11,216,3480041,,,2021-07-01,清算の結了等,,,2015-10-05,1,,,,,サイタマキギョウ,0
2371,9110002018269,登記記録の閉鎖等,0,2021-07-15,2021-07-07,有限会社県央食品,,有限会社,新潟県,加茂市,大字後須田１４９番地,,15,209,9591303,,,2021-07-07,清算の結了等,,,2015-10-05,1,,,,,ケンオウショクヒン,0
2373,9120001003295,登記記録の閉鎖等,0,2021-07-15,2021-07-07,株式会社熊谷本店,,株式会社,大阪府,大阪市中央区,平野町４丁目７番８号２０３,,27,128,5410046,,,2021-07-07,清算の結了等,,,2015-10-05,1,,,,,クマガヤホンテン,0
2415,9180002003280,登記記録の閉鎖等,0,2021-07-15,2021-07-06,有限会社モリ,,有限会社,愛知県,名古屋市名東区,貴船３丁目１０１番地の１,,23,115,4650058,,,2021-07-06,清算の結了等,,,2015-10-05,1,,,,,モリ,0
2453,9290002011099,登記記録の閉鎖等,0,2021-07-15,2021-06-30,有限会社四季,,有限会社,福岡県,福岡市南区,井尻３丁目１０番３９号,,40,134,8111302,,,2021-06-30,清算の結了等,,,2015-10-05,1,,,,,シキ,0
2460,9310002018819,登記記録の閉鎖等,0,2021-07-15,2021-07-05,吉祥海運有限会社,,有限会社,長崎県,壱岐市,石田町久喜触６０番地,,42,210,8115223,,,2021-07-05,清算の結了等,,,2015-10-05,1,,,,,キチショウカイウン,0
2463,9330001027315,登記記録の閉鎖等,0,2021-07-15,2021-07-02,株式会社Ｆｏｒ　Ｑ,,株式会社,熊本県,玉名市,大倉４３４番地,,43,206,8650023,,,2021-07-02,清算の結了等,,,2020-04-03,1,,,,,フォーキュー,0
2470,9360001026537,登記記録の閉鎖等,0,2021-07-15,2021-07-09,株式会社キーウェストクラブ,,株式会社,沖縄県,国頭郡恩納村,字名嘉真２２８８番地２８,,47,311,9040401,,,2021-07-09,清算の結了等,,,2019-12-03,1,,,,,キーウェストクラブ,0
2471,9360002001902,登記記録の閉鎖等,0,2021-07-15,2021-07-05,有限会社作真建築設計事務所,,有限会社,沖縄県,那覇市,古島２丁目２８番地２佐辺ビル４－Ｃ,,47,201,9020061,,,2021-07-05,清算の結了等,,,2015-10-05,1,,,,,,0
2502,9430002030927,登記記録の閉鎖等,0,2021-07-15,2021-07-02,有限会社ファーマコリサーチ,,有限会社,埼玉県,さいたま市大宮区,桜木町４丁目２４０番地,,11,103,3300854,,,2021-07-02,清算の結了等,,,2015-10-05,1,,,,,ファーマコリサーチ,0
2507,9490001005445,登記記録の閉鎖等,0,2021-07-15,2021-07-13,サンコー製紙株式会社,,株式会社,高知県,土佐市,用石５６５番地,,39,205,7811152,,,2021-07-13,清算の結了等,,,2015-10-05,1,,,,,サンコーセイシ,0
2508,9500001012753,登記記録の閉鎖等,0,2021-07-15,2021-07-07,株式会社パルティーレ,,株式会社,愛媛県,今治市,常盤町４丁目７番地２８,,38,202,7940015,,,2021-07-07,清算の結了等,,,2015-10-05,1,,,,,,0
