sequenceNumber,corporateNumber,process,correct,updateDate,changeDate,name,nameImageId,kind,prefectureName,cityName,streetNumber,addressImageId,prefectureCode,cityCode,postCode,addressOutside,addressOutsideImageId,closeDate,closeCause,successorCorporateNumber,changeCause,assignmentDate,latest,enName,enPrefectureName,enCityName,enAddressOutside,furigana,hihyoji
11,1010003015258,登記記録の閉鎖等,0,2022-11-22,2022-11-17,ウェルアンドモート合同会社,,合同会社,神奈川県,横浜市西区,北幸２丁目９番３０号横浜西口加藤ビル６階,,14,103,2200004,,,2022-11-17,清算の結了等,,,2015-10-05,1,,,,,ウェルアンドモート,0
16,1010101010417,登記記録の閉鎖等,0,2022-11-22,2022-11-21,Ｌ．Ｆ．Ｐ株式会社,,株式会社,東京都,八王子市,南大沢２丁目２７,,13,201,1920364,,,2022-11-21,清算の結了等,,,2015-10-05,1,,,,,エルエフピー,0
55,1011801002075,登記記録の閉鎖等,0,2022-11-22,2022-11-18,株式会社システムアビリティー,,株式会社,東京都,葛飾区,小菅３丁目１２番１５号,,13,122,1240001,,,2022-11-18,清算の結了等,,,2015-10-05,1,,,,,,0
61,1012703001504,登記記録の閉鎖等,0,2022-11-22,2022-11-17,合同会社光武興業,,合同会社,東京都,東久留米市,八幡町２丁目７番６７号,,13,222,2030042,,,2022-11-17,清算の結了等,,,2017-09-13,1,,,,,ミツタケコウギョウ,0
62,1013202004832,登記記録の閉鎖等,0,2022-11-22,2022-11-11,有限会社ニュークロップ,,有限会社,東京都,目黒区,中町２丁目３８番２７号,,13,110,1530065,,,2022-11-11,清算の結了等,,,2015-10-05,1,,,,,ニュークロップ,0
89,1021002056069,登記記録の閉鎖等,0,2022-11-22,2022-11-16,有限会社サンライズ興業,,有限会社,神奈川県,小田原市,城山１丁目８番４０号,,14,206,2500045,,,2022-11-16,清算の結了等,,,2015-10-05,1,,,,,サンライズコウギョウ,0
90,1021003008597,登記記録の閉鎖等,0,2022-11-22,2022-11-17,合同会社佐野ビル,,合同会社,神奈川県,横須賀市,久里浜４丁目７番５号佐野ビル３Ｆ,,14,201,2390831,,,2022-11-17,清算の結了等,,,2019-08-13,1,,,,,サノビル,0
101,1030002057051,登記記録の閉鎖等,0,2022-11-22,2022-11-08,有限会社第一エージェンシーさいたま,,有限会社,埼玉県,上尾市,向山４丁目１４番地２５,,11,219,3620045,,,2022-11-08,清算の結了等,,,2015-10-05,1,,,,,ダイイチエージェンシーサイタマ,0
109,1040001020595,登記記録の閉鎖等,0,2022-11-22,2022-11-15,株式会社かつやブロック,,株式会社,千葉県,八千代市,高津２９９番地１７,,12,221,2760036,,,2022-11-15,清算の結了等,,,2015-10-05,1,,,,,カツヤブロック,0
113,1040002006214,登記記録の閉鎖等,0,2022-11-22,2022-11-14,有限会社生産者連邦・ブイ・ジー室,,有限会社,千葉県,千葉市緑区,あすみが丘東２丁目１８０９番地の３２,,12,105,2670067,,,2022-11-14,清算の結了等,,,2015-10-05,1,,,,,セイサンシャレンポウブイジーシツ,0
119,1050001037168,登記記録の閉鎖等,0,2022-11-22,2022-11-14,株式会社日北塗装,,株式会社,茨城県,日立市,相田町３丁目１５番６号,,08,202,3191415,,,2022-11-14,清算の結了等,,,2015-10-05,1,,,,,ニッポクトソウ,0
124,1060001004035,登記記録の閉鎖等,0,2022-11-22,2022-11-16,豊洋建商株式会社,,株式会社,栃木県,宇都宮市,宝木本町２３７２番地,,09,201,3200075,,,2022-11-16,清算の結了等,,,2015-10-05,1,,,,,ホウヨウケンショウ,0
136,1120001020406,登記記録の閉鎖等,0,2022-11-22,2022-11-17,株式会社こぴー工房,,株式会社,大阪府,大阪市天王寺区,南河堀町９番４３号１Ｃ,,27,109,5430054,,,2022-11-17,清算の結了等,,,2015-10-05,1,,,,,コピーコウボウ,0
198,1240002027776,登記記録の閉鎖等,0,2022-11-22,2022-11-21,有限会社白市新聞販売所,,有限会社,広島県,東広島市,高屋町小谷３３８６番地の２,,34,212,7392121,,,2022-11-21,清算の結了等,,,2015-10-05,1,,,,,シライチシンブンハンバイショ,0
204,1250005005027,登記記録の閉鎖等,0,2022-11-22,2022-11-09,徳山青果仲卸協同組合,,その他の設立登記法人,山口県,周南市,鼓海１丁目３２４番地の１８,,35,215,7450814,,,2022-11-09,清算の結了等,,,2015-10-05,1,,,,,トクヤマセイカナカオロシ,0
225,1300003001815,登記記録の閉鎖等,0,2022-11-22,2022-11-17,合同会社さがもり,,合同会社,佐賀県,佐賀市,富士町大字古湯２７９４番地,,41,201,8400501,,,2022-11-17,清算の結了等,,,2022-04-06,1,,,,,サガモリ,0
230,1350001005508,登記記録の閉鎖等,0,2022-11-22,2022-11-17,エムアール交通株式会社,,株式会社,宮崎県,児湯郡高鍋町,大字高鍋町９０２番地２,,45,401,8840001,,,2022-11-17,合併による解散等,6350001005585,令和４年１１月１日宮崎県西都市御舟町一丁目８３番地三和交通株式会社（6350001005585）に合併し解散,2015-10-05,1,,,,,エムアールコウツウ,0
256,1450001009985,登記記録の閉鎖等,0,2022-11-22,2022-11-18,株式会社オオカネホン竹本水産,,株式会社,北海道,紋別市,弁天町２丁目２番１０号,,01,219,0940003,,,2022-11-18,清算の結了等,,,2015-10-05,1,,,,,オオカネホンタケモトスイサン,0
257,1450001012527,登記記録の閉鎖等,0,2022-11-22,2022-11-18,株式会社Ｄｅｃｏ　Ｓｔｙｌｅ,,株式会社,北海道,旭川市,緑町１２丁目２５５９番地－１２ＡＢＣヴィレッジ１Ｆ,,01,204,0700823,,,2022-11-18,清算の結了等,,,2018-09-18,1,,,,,デコスタイル,0
268,1500002006885,登記記録の閉鎖等,0,2022-11-22,2022-11-21,有限会社モリオカ,,有限会社,愛媛県,松山市,柳井町２丁目１９番地２０,,38,201,7900014,,,2022-11-21,清算の結了等,,,2015-10-05,1,,,,,モリオカ,0
272,2010001157992,登記記録の閉鎖等,0,2022-11-22,2022-11-11,クロスタス株式会社,,株式会社,東京都,千代田区,神田小川町１丁目１１番地,,13,101,1010052,,,2022-11-11,合併による解散等,9010001197990,令和４年１１月１日東京都千代田区神田小川町一丁目１１番地千代田小川町クロスタ５階株式会社ＥｘａＳｃａｌｅｒ（9010001197990）に合併し解散,2015-10-05,1,,,,,クロスタス,0
293,2010401104784,登記記録の閉鎖等,0,2022-11-22,2022-11-11,株式会社Ｂｅｇｉｎ,,株式会社,東京都,港区,芝浦４丁目２０番２ブルームタワー３０３号,,13,103,1080023,,,2022-11-11,清算の結了等,,,2015-10-05,1,,,,,ビギン,0
315,2011001021445,登記記録の閉鎖等,0,2022-11-22,2022-11-14,豊栄貿易株式会社,,株式会社,東京都,渋谷区,代々木２丁目１５番１２号,,13,113,1510053,,,2022-11-14,清算の結了等,,,2015-10-05,1,,,,,ホウエイボウエキ,0
336,2011105002102,登記記録の閉鎖等,0,2022-11-22,2022-11-17,特定非営利活動法人国際食道疾患会議,,その他の設立登記法人,東京都,新宿区,河田町８番１号,,13,104,1620054,,,2022-11-17,清算の結了等,,,2015-10-05,1,,,,,コクサイショクドウシッカンカイギ,0
344,2011602006480,登記記録の閉鎖等,0,2022-11-22,2022-11-15,田中硝子建材有限会社,,有限会社,東京都,練馬区,北町３丁目１８番９号,,13,120,1790081,,,2022-11-15,清算の結了等,,,2015-10-05,1,,,,,タナカガラスケンザイ,0
351,2011802029397,登記記録の閉鎖等,0,2022-11-22,2022-11-18,有限会社使命事業所,,有限会社,東京都,葛飾区,四つ木１丁目３９番１２号,,13,122,1240011,,,2022-11-18,清算の結了等,,,2015-10-05,1,,,,,シメイジギョウショ,0
367,2020001125437,登記記録の閉鎖等,0,2022-11-22,2022-11-16,王庭株式会社,,株式会社,神奈川県,横浜市中区,羽衣町３丁目６３－６秋山ビル２Ｆ,,14,104,2310047,,,2022-11-16,清算の結了等,,,2018-03-09,1,,,,,オウテイ,0
370,2020003007872,登記記録の閉鎖等,0,2022-11-22,2022-11-17,合同会社ＡＦホレクス,,合同会社,神奈川県,横浜市青葉区,市ケ尾町１１７７番４号,,14,117,2250024,,,2022-11-17,清算の結了等,,,2015-10-05,1,,,,,エフホレクス,0
383,2021003010536,登記記録の閉鎖等,0,2022-11-22,2022-11-18,合同会社東海,,合同会社,神奈川県,平塚市,めぐみが丘１丁目９－７,,14,203,2591220,,,2022-11-18,清算の結了等,,,2021-06-15,1,,,,,トウカイ,0
392,2030001125477,登記記録の閉鎖等,0,2022-11-22,2022-11-14,ＡＳｃｕｏｒｅ株式会社,,株式会社,埼玉県,熊谷市,銀座２丁目２９番地,,11,202,3600032,,,2022-11-14,清算の結了等,,,2018-05-08,1,,,,,アズクオーレ,0
412,2040002083731,登記記録の閉鎖等,0,2022-11-22,2022-11-15,有限会社時宝堂,,有限会社,千葉県,香取郡多古町,多古２７４３番地,,12,347,2892241,,,2022-11-15,清算の結了等,,,2015-10-05,1,,,,,ジホウドウ,0
419,2070003004106,登記記録の閉鎖等,0,2022-11-22,2022-11-15,合同会社ｋｏｎｃｅｐｔ,,合同会社,群馬県,前橋市,古市町１丁目１１番地１２ヒラタビル２階,,10,201,3710844,,,2022-11-15,清算の結了等,,,2021-05-18,1,,,,,コンセプト,0
429,2100002017591,登記記録の閉鎖等,0,2022-11-22,2022-11-17,有限会社東山,,有限会社,長野県,下高井郡木島平村,大字往郷１４８５番地１,,20,562,3892302,,,2022-11-17,清算の結了等,,,2015-10-05,1,,,,,ヒガシヤマ,0
431,2110002027532,登記記録の閉鎖等,0,2022-11-22,2022-11-11,有限会社古井丸エンジニアサービス,,有限会社,新潟県,長岡市,川崎３丁目２２１２番地１,,15,202,9400864,,,2022-11-11,清算の結了等,,,2015-10-05,1,,,,,コイマルエンジニアサービス,0
439,2120001216317,登記記録の閉鎖等,0,2022-11-22,2022-11-08,株式会社ＦＵＬＬＷＥＬＬ,,株式会社,大阪府,大阪市都島区,友渕町１丁目３番２４－４０６号,,27,102,5340016,,,2022-11-08,清算の結了等,,,2018-10-03,1,,,,,フルウェル,0
467,2180001077233,登記記録の閉鎖等,0,2022-11-22,2022-11-17,株式会社星山金属,,株式会社,愛知県,春日井市,南下原町１丁目１番地１,,23,206,4860841,,,2022-11-17,清算の結了等,,,2015-10-05,1,,,,,ホシヤマキンゾク,0
474,2180302003103,登記記録の閉鎖等,0,2022-11-22,2022-11-18,有限会社ヤナセ,,有限会社,愛知県,岡崎市,松本町１丁目１８番地,,23,202,4440062,,,2022-11-18,清算の結了等,,,2015-10-05,1,,,,,ヤナセ,0
490,2260001031644,登記記録の閉鎖等,0,2022-11-22,2022-11-21,株式会社西山農林,,株式会社,岡山県,赤磐市,仁堀東１０７７番地,,33,213,7012434,,,2022-11-21,清算の結了等,,,2018-01-24,1,,,,,ニシヤマノウリン,0
505,2300002010519,登記記録の閉鎖等,0,2022-11-22,2022-11-14,有限会社トーコー,,有限会社,佐賀県,唐津市,和多田海士町１番１５号,,41,202,8470071,,,2022-11-14,清算の結了等,,,2015-10-05,1,,,,,トーコー,0
506,2310002009700,登記記録の閉鎖等,0,2022-11-22,2022-11-18,有限会社木村自動車,,有限会社,長崎県,佐世保市,有福町４１５０番地５,,42,202,8593241,,,2022-11-18,清算の結了等,,,2015-10-05,1,,,,,キムラジドウシャ,0
512,2320002017082,登記記録の閉鎖等,0,2022-11-22,2022-11-21,有限会社錦寿司,,有限会社,大分県,佐伯市,日の出町１番６号,,44,205,8760802,,,2022-11-21,清算の結了等,,,2015-10-05,1,,,,,ニシキスシ,0
520,2340002012081,登記記録の閉鎖等,0,2022-11-22,2022-11-21,有限会社南武貿易,,有限会社,鹿児島県,鹿児島市,下福元町３４４７番地７,,46,201,8910144,,,2022-11-21,清算の結了等,,,2015-10-05,1,,,,,ナンブボウエキ,0
524,2340002018153,登記記録の閉鎖等,0,2022-11-22,2022-11-14,有限会社川口食品,,有限会社,鹿児島県,いちき串木野市,羽島字三竹１８００番地,,46,219,8960064,,,2022-11-14,清算の結了等,,,2015-10-05,1,,,,,カワグチショクヒン,0
530,2370002020890,登記記録の閉鎖等,0,2022-11-22,2022-11-14,有限会社菱光サービス東北,,有限会社,宮城県,仙台市泉区,加茂１丁目１８番地７０,,04,105,9813122,,,2022-11-14,清算の結了等,,,2015-10-05,1,,,,,リョウコウサービストウホク,0
536,2380001022318,登記記録の閉鎖等,0,2022-11-22,2022-11-21,株式会社タベイプランニング,,株式会社,東京都,千代田区,三番町２０番地２／２０９,,13,101,1020075,,,2022-11-21,清算の結了等,,,2015-10-05,1,,,,,タベイプランニング,0
537,2380002001700,登記記録の閉鎖等,0,2022-11-22,2022-11-15,有限会社信夫コンサルタント,,有限会社,福島県,福島市,飯坂町平野字三角田９番地の７,,07,201,9600231,,,2022-11-15,清算の結了等,,,2015-10-05,1,,,,,シノブコンサルタント,0
545,2430002048348,登記記録の閉鎖等,0,2022-11-22,2022-11-17,有限会社三井建具,,有限会社,北海道,千歳市,北斗５丁目４番１６号,,01,224,0660073,,,2022-11-17,清算の結了等,,,2015-10-05,1,,,,,ミツイタテグ,0
560,3010001197988,登記記録の閉鎖等,0,2022-11-22,2022-11-11,株式会社Ｉｎｆｉｎｉｔｅ　Ｃｕｒａｔｉｏｎ,,株式会社,東京都,千代田区,神田小川町１丁目１１番地千代田小川町クロスタ６階,,13,101,1010052,,,2022-11-11,合併による解散等,9010001197990,令和４年１１月１日東京都千代田区神田小川町一丁目１１番地千代田小川町クロスタ５階株式会社ＥｘａＳｃａｌｅｒ（9010001197990）に合併し解散,2019-02-06,1,,,,,インフィニットキュレーション,0
563,3010002017889,登記記録の閉鎖等,0,2022-11-22,2022-11-18,有限会社カトレア・マリン,,有限会社,東京都,中央区,新川２丁目２７番１号,,13,102,1040033,,,2022-11-18,清算の結了等,,,2015-10-05,1,,,,,カトレアマリン,0
564,3010002027624,登記記録の閉鎖等,0,2022-11-22,2022-11-18,有限会社デルタキャピタル,,有限会社,東京都,中央区,入船２丁目５－８,,13,102,1040042,,,2022-11-18,清算の結了等,,,2015-10-05,1,,,,,デルタキャピタル,0
572,3010103001164,登記記録の閉鎖等,0,2022-11-22,2022-11-18,合同会社雅テクノロジーズ,,合同会社,東京都,八王子市,東浅川町５５０番地５４,,13,201,1930834,,,2022-11-18,清算の結了等,,,2017-08-01,1,,,,,ミヤビテクノロジーズ,0
576,3010401135341,登記記録の閉鎖等,0,2022-11-22,2022-11-10,株式会社エルコイン,,株式会社,東京都,港区,赤坂２丁目９番１１号,,13,103,1070052,,,2022-11-10,清算の結了等,,,2017-12-05,1,,,,,エルコイン,0
577,3010401146198,登記記録の閉鎖等,0,2022-11-22,2022-11-10,株式会社ＣＩＲＣＵＳ　ＤＩＧＩＴＡＬ　ＩＮＴＥＲＮＡＴＩＯＮＡＬ,,株式会社,東京都,港区,麻布台１丁目５番９号,,13,103,1060041,,,2022-11-10,清算の結了等,,,2019-06-13,1,,,,,サーカスデジタルインターナショナル,0
583,3010403019823,登記記録の閉鎖等,0,2022-11-22,2022-11-11,合同会社大大,,合同会社,東京都,港区,芝大門２丁目１番地１８号ＧＳハイム芝大門２０４,,13,103,1050012,,,2022-11-11,清算の結了等,,,2018-12-13,1,,,,,ダイダイ,0
588,3010602032981,登記記録の閉鎖等,0,2022-11-22,2022-11-16,有限会社オフィス秀明,,有限会社,東京都,墨田区,石原１丁目２０番４号,,13,107,1300011,,,2022-11-16,清算の結了等,,,2015-10-05,1,,,,,,0
597,3010705002097,登記記録の閉鎖等,0,2022-11-22,2022-11-11,特定非営利活動法人キャリア・ラボラトリー,,その他の設立登記法人,東京都,港区,高輪４丁目５番２号センプレ高輪６０２,,13,103,1080074,,,2022-11-11,清算の結了等,,,2015-10-05,1,,,,,キャリアラボラトリー,0
638,3013402003525,登記記録の閉鎖等,0,2022-11-22,2022-10-31,有限会社三和堂,,有限会社,東京都,稲城市,大丸１２４番地,,13,225,2060801,,,2022-10-31,清算の結了等,,,2015-10-05,1,,,,,サンワドウ,0
647,3020003014967,登記記録の閉鎖等,0,2022-11-22,2022-11-17,合同会社ワイズコンサルティング,,合同会社,神奈川県,横浜市保土ケ谷区,権太坂３丁目１３番２２号,,14,106,2400026,,,2022-11-17,清算の結了等,,,2018-09-27,1,,,,,ワイズコンサルティング,0
655,3021001031525,登記記録の閉鎖等,0,2022-11-22,2022-11-16,株式会社昭和タイル・イシダ,,株式会社,神奈川県,綾瀬市,寺尾中３丁目１番２０号,,14,218,2521132,,,2022-11-16,清算の結了等,,,2015-10-05,1,,,,,ショウワタイルイシダ,0
671,3030002045021,登記記録の閉鎖等,0,2022-11-22,2022-11-15,有限会社寺井硝子店,,有限会社,埼玉県,草加市,新里町５２番地,,11,221,3400031,,,2022-11-15,清算の結了等,,,2015-10-05,1,,,,,テライガラステン,0
684,3040002010032,登記記録の閉鎖等,0,2022-11-22,2022-11-15,有限会社藤代染物店,,有限会社,千葉県,千葉市中央区,中央３丁目１２番１４号,,12,101,2600013,,,2022-11-15,清算の結了等,,,2015-10-05,1,,,,,フジシロソメモノテン,0
697,3060002033155,登記記録の閉鎖等,0,2022-11-22,2022-11-15,有限会社和泉産業,,有限会社,栃木県,栃木市,岩舟町静和８６６番地２,,09,203,3294304,,,2022-11-15,清算の結了等,,,2015-10-05,1,,,,,イズミサンギョウ,0
714,3080102006397,登記記録の閉鎖等,0,2022-11-22,2022-11-21,有限会社沼水配送,,有限会社,静岡県,沼津市,下香貫牛臥３０１９番地の６,,22,203,4100822,,,2022-11-21,清算の結了等,,,2015-10-05,1,,,,,ヌマスイハイソウ,0
716,3080401013978,登記記録の閉鎖等,0,2022-11-22,2022-11-22,株式会社ネットワーク施設計画,,株式会社,静岡県,浜松市中区,鴨江３丁目３８番７号,,22,131,4328023,,,2022-11-22,清算の結了等,,,2015-10-05,1,,,,,ネットワークシセツケイカク,0
720,3110001035155,登記記録の閉鎖等,0,2022-11-22,2022-11-17,株式会社さくらパブリック,,株式会社,新潟県,長岡市,上前島町３９６番地１,,15,202,9401144,,,2022-11-17,清算の結了等,,,2020-09-23,1,,,,,サクラパブリック,0
763,3180001119521,登記記録の閉鎖等,0,2022-11-22,2022-11-14,株式会社空,,株式会社,愛知県,名古屋市中川区,伏屋２丁目６０６番地,,23,110,4540996,,,2022-11-14,清算の結了等,,,2015-10-05,1,,,,,ソラ,0
783,3200002013811,登記記録の閉鎖等,0,2022-11-22,2022-11-18,有限会社あさのスタジオ,,有限会社,岐阜県,安八郡輪之内町,楡俣新田４１番地の１,,21,382,5030203,,,2022-11-18,清算の結了等,,,2015-10-05,1,,,,,アサノスタジオ,0
787,3240001041132,登記記録の閉鎖等,0,2022-11-22,2022-11-15,株式会社長尾テック,,株式会社,広島県,広島市南区,大州３丁目６番３８号,,34,103,7320802,,,2022-11-15,清算の結了等,,,2015-10-05,1,,,,,ナガオテック,0
796,3260002001546,登記記録の閉鎖等,0,2022-11-22,2022-11-21,有限会社エムケイ産業,,有限会社,岡山県,岡山市南区,福田１４－１１,,33,104,7028021,,,2022-11-21,清算の結了等,,,2015-10-05,1,,,,,,0
809,3310001003406,登記記録の閉鎖等,0,2022-11-22,2022-11-18,桜林薬品株式会社,,株式会社,長崎県,西彼杵郡長与町,嬉里郷３００番地１８,,42,307,8512128,,,2022-11-18,清算の結了等,,,2015-10-05,1,,,,,オウリンヤクヒン,0
812,3320005003005,登記記録の閉鎖等,0,2022-11-22,2022-11-21,医療法人緑慈会,,その他の設立登記法人,大分県,別府市,上田の湯町１７－８,,44,202,8740908,,,2022-11-21,清算の結了等,,,2015-10-05,1,,,,,リョクジカイ,0
821,3360001007146,登記記録の閉鎖等,0,2022-11-22,2022-11-14,株式会社ＨＡＮＳ　ＡＤＶＥＮＴＵＲＥ,,株式会社,沖縄県,那覇市,久茂地２丁目１５番３号嘉栄産業ビル２階,,47,201,9000015,,,2022-11-14,清算の結了等,,,2015-10-05,1,,,,,ハンスアドベンチャー,0
836,3420002007725,登記記録の閉鎖等,0,2022-11-22,2022-11-14,有限会社エヌ・ケーサービス,,有限会社,青森県,八戸市,高州２丁目２２番１９号,,02,203,0391163,,,2022-11-14,清算の結了等,,,2015-10-05,1,,,,,エヌケーサービス,0
837,3430001005076,登記記録の閉鎖等,0,2022-11-22,2022-11-16,株式会社グリーンシステム,,株式会社,北海道,札幌市白石区,栄通７丁目６番３３号,,01,104,0030021,,,2022-11-16,清算の結了等,,,2015-10-05,1,,,,,グリーンシステム,0
843,3430005008001,登記記録の閉鎖等,0,2022-11-22,2022-11-15,医療法人社団そうま耳鼻咽喉科,,その他の設立登記法人,北海道,小樽市,稲穂２丁目２２番８号,,01,203,0470032,,,2022-11-15,清算の結了等,,,2015-10-05,1,,,,,ソウマジビインコウカ,0
849,3700150104477,削除,,2022-11-22,,,,,,,,,,,,,,,,,,,,,,,,,
874,4010405013113,登記記録の閉鎖等,0,2022-11-22,2022-11-10,一般社団法人日本アセアン研究開発機構,,その他の設立登記法人,東京都,港区,港南１丁目９番３６号,,13,103,1080075,,,2022-11-10,清算の結了等,,,2015-10-05,1,,,,,ニホンアセアンケンキュウカイハツキコウ,0
876,4010501038880,登記記録の閉鎖等,0,2022-11-22,2022-11-14,ｅコンサルティング＆デザイン株式会社,,株式会社,千葉県,市川市,曽谷２丁目３番２３号,,12,203,2720832,,,2022-11-14,清算の結了等,,,2015-12-08,1,,,,,イーコンサルティングアンドデザイン,0
887,4010701038425,登記記録の閉鎖等,0,2022-11-22,2022-11-17,株式会社ミッシュ,,株式会社,東京都,品川区,西五反田１丁目３２番１１号,,13,109,1410031,,,2022-11-17,合併による解散等,6013201012600,令和４年１０月１５日東京都目黒区自由が丘一丁目１１番４号株式会社アッカ・エンタープライズ（6013201012600）に合併し解散,2019-11-08,1,,,,,ミッシュ,0
893,4010802020364,登記記録の閉鎖等,0,2022-11-22,2022-11-11,有限会社アドニス,,有限会社,東京都,大田区,鵜の木２丁目２６番２０号,,13,111,1460091,,,2022-11-11,清算の結了等,,,2015-10-05,1,,,,,アドニス,0
901,4011101089496,登記記録の閉鎖等,0,2022-11-22,2022-11-17,株式会社間取リード,,株式会社,東京都,新宿区,西新宿７丁目２２番３７号ストーク西新宿福星ビル５Ｆ,,13,104,1600023,,,2022-11-17,合併による解散等,4020001064666,令和４年１１月１日川崎市多摩区登戸５８３番地２ビルドエフ株式会社（4020001064666）に合併し解散,2019-11-07,1,,,,,マドリード,0
930,4020001097484,登記記録の閉鎖等,0,2022-11-22,2022-11-09,創造パートナーズ株式会社,,株式会社,神奈川県,横浜市戸塚区,品濃町１番地１シャトレー戸塚ガーデン１０１,,14,110,2440801,,,2022-11-09,清算の結了等,,,2015-10-05,1,,,,,ソウゾウパートナーズ,0
934,4020002054583,登記記録の閉鎖等,0,2022-11-22,2022-11-17,有限会社アロマ,,有限会社,神奈川県,横浜市泉区,中田東１丁目３３番３０号,,14,116,2450013,,,2022-11-17,清算の結了等,,,2015-10-05,1,,,,,アロマ,0
940,4021002025772,登記記録の閉鎖等,0,2022-11-22,2022-11-17,有限会社サンホーセイ,,有限会社,神奈川県,相模原市緑区,下九沢１５３５番地１０号,,14,151,2520134,,,2022-11-17,清算の結了等,,,2015-10-05,1,,,,,サンホーセイ,0
943,4030001005165,登記記録の閉鎖等,0,2022-11-22,2022-11-14,大光冷熱株式会社,,株式会社,埼玉県,さいたま市見沼区,丸ヶ崎町７番地１,,11,104,3370007,,,2022-11-14,清算の結了等,,,2015-10-05,1,,,,,ダイコウレイネツ,0
968,4050002039490,登記記録の閉鎖等,0,2022-11-22,2022-11-16,有限会社吉河設計事務所,,有限会社,茨城県,守谷市,松ケ丘５丁目２６番地５,,08,224,3020127,,,2022-11-16,清算の結了等,,,2015-10-05,1,,,,,ヨシカワセッケイジムショ,0
972,4080401013127,登記記録の閉鎖等,0,2022-11-22,2022-11-18,株式会社鈴,,株式会社,静岡県,浜松市中区,鹿谷町６番１号,,22,131,4328014,,,2022-11-18,清算の結了等,,,2015-10-05,1,,,,,スズ,0
974,4080402019065,登記記録の閉鎖等,0,2022-11-22,2022-11-18,有限会社サクラ工業,,有限会社,静岡県,御前崎市,佐倉１１３９番地の４３,,22,223,4371604,,,2022-11-18,清算の結了等,,,2015-10-05,1,,,,,サクラコウギョウ,0
998,4160001000442,登記記録の閉鎖等,0,2022-11-22,2022-11-21,関西測量設計株式会社,,株式会社,滋賀県,大津市,音羽台１０番９号,,25,201,5200053,,,2022-11-21,清算の結了等,,,2015-10-05,1,,,,,カンサイソクリョウセッケイ,0
1006,4180001117532,登記記録の閉鎖等,0,2022-11-22,2022-11-16,日本貿易株式会社,,株式会社,愛知県,名古屋市熱田区,四番１丁目１６番１５号,,23,109,4560051,,,2022-11-16,清算の結了等,,,2015-10-05,1,,,,,ニホンボウエキ,0
1017,4180303000361,登記記録の閉鎖等,0,2022-11-22,2022-11-16,イーエムアイコーポレーション合同会社,,合同会社,愛知県,岡崎市,井田町字唐機関３番地２８,,23,202,4440076,,,2022-11-16,清算の結了等,,,2015-10-05,1,,,,,イーエムアイコーポレーション,0
1019,4190002012491,登記記録の閉鎖等,0,2022-11-22,2022-11-18,有限会社松村鈑金,,有限会社,三重県,伊賀市,寺田字東川原４３８番地１,,24,216,5180004,,,2022-11-18,清算の結了等,,,2015-10-05,1,,,,,マツムラバンキン,0
1027,4250002005308,登記記録の閉鎖等,0,2022-11-22,2022-11-18,有限会社豊広組,,有限会社,山口県,宇部市,大字妻崎開作５０７番地アドバンス２１ブルーシエル黒石３０１号,,35,202,7590204,,,2022-11-18,清算の結了等,,,2015-10-05,1,,,,,トヨヒログミ,0
1051,4350002017111,登記記録の閉鎖等,0,2022-11-22,2022-11-17,有限会社塚本,,有限会社,宮崎県,日南市,南郷町潟上１３４番地２３,,45,204,8893213,,,2022-11-17,清算の結了等,,,2015-10-05,1,,,,,ツカモト,0
1058,4370102002952,登記記録の閉鎖等,0,2022-11-22,2022-11-15,有限会社テックデザイン,,有限会社,宮城県,柴田郡柴田町,北船岡３丁目１３番５号,,04,323,9891623,,,2022-11-15,清算の結了等,,,2015-10-05,1,,,,,テックデザイン,0
1060,4370202003149,登記記録の閉鎖等,0,2022-11-22,2022-11-16,有限会社旅館紅せん,,有限会社,宮城県,大崎市,鳴子温泉字久田８３番地の４,,04,215,9896711,,,2022-11-16,清算の結了等,,,2015-10-05,1,,,,,,0
1062,4370801001726,登記記録の閉鎖等,0,2022-11-22,2022-11-14,東大路産業株式会社,,株式会社,宮城県,名取市,堀内字北竹９４番地,,04,207,9892412,,,2022-11-14,清算の結了等,,,2015-10-05,1,,,,,,0
1077,4450001006880,登記記録の閉鎖等,0,2022-11-22,2022-11-18,株式会社ジンテック,,株式会社,北海道,旭川市,永山二条２丁目５番６号,,01,204,0798412,,,2022-11-18,清算の結了等,,,2015-10-05,1,,,,,ジンテック,0
1090,5010401126289,登記記録の閉鎖等,0,2022-11-22,2022-11-15,ＵＴＥＣ　Ｅｌｅｃｔｒｏｎｉｃｓ株式会社,,株式会社,東京都,港区,虎ノ門５丁目１３番１号虎ノ門４０ＭＴビル７階,,13,103,1050001,,,2022-11-15,清算の結了等,,,2016-08-04,1,,,,,ユーテックエレクトロニクス,0
1094,5010403013205,登記記録の閉鎖等,0,2022-11-22,2022-11-15,タワーヒル・インベストメント合同会社,,合同会社,東京都,港区,白金４丁目１０番１１号,,13,103,1080072,,,2022-11-15,清算の結了等,,,2015-10-05,1,,,,,タワーヒルインベストメント,0
1128,5011005009319,登記記録の閉鎖等,0,2022-11-22,2022-11-14,一般社団法人ＳＨＣ天戸台,,その他の設立登記法人,東京都,目黒区,洗足２丁目１６番１９号,,13,110,1520012,,,2022-11-14,清算の結了等,,,2021-11-30,1,,,,,エスエイチシーアマドダイ,0
1155,5012803002506,登記記録の閉鎖等,0,2022-11-22,2022-11-14,合同会社シード,,合同会社,東京都,立川市,錦町１丁目３番１１号Ｎ・Ｆビル４０１号,,13,202,1900022,,,2022-11-14,清算の結了等,,,2021-05-28,1,,,,,シード,0
1164,5020001067552,登記記録の閉鎖等,0,2022-11-22,2022-11-16,大孝運輸株式会社,,株式会社,神奈川県,横浜市青葉区,恩田町１１６５－１４,,14,117,2270065,,,2022-11-16,清算の結了等,,,2015-10-05,1,,,,,ダイコウウンユ,0
1165,5020001105304,登記記録の閉鎖等,0,2022-11-22,2022-11-15,株式会社エオニア,,株式会社,神奈川県,横浜市保土ケ谷区,今井町４８８番地１,,14,106,2400035,,,2022-11-15,清算の結了等,,,2015-10-05,1,,,,,エオニア,0
1170,5020002098002,登記記録の閉鎖等,0,2022-11-22,2022-11-17,有限会社田中実商店,,有限会社,神奈川県,川崎市川崎区,東田町５番地１,,14,131,2100005,,,2022-11-17,清算の結了等,,,2015-10-05,1,,,,,タナカミノルショウテン,0
1175,5030001030781,登記記録の閉鎖等,0,2022-11-22,2022-11-14,セントラル化工株式会社,,株式会社,埼玉県,久喜市,南１丁目４番１２号月曜館１０１,,11,232,3460004,,,2022-11-14,清算の結了等,,,2015-10-05,1,,,,,セントラルカコウ,0
1183,5030002118865,登記記録の閉鎖等,0,2022-11-22,2022-11-14,有限会社美心館,,有限会社,埼玉県,深谷市,西田３２０番地７,,11,218,3690224,,,2022-11-14,清算の結了等,,,2015-10-05,1,,,,,ビシンカン,0
1193,5050001023750,登記記録の閉鎖等,0,2022-11-22,2022-11-17,株式会社日立サービスルーム,,株式会社,茨城県,日立市,十王町伊師本郷９２５番地４,,08,202,3191302,,,2022-11-17,清算の結了等,,,2015-10-05,1,,,,,ヒタチサービスルーム,0
1194,5050003004658,登記記録の閉鎖等,0,2022-11-22,2022-11-17,合同会社ライフケアラボ,,合同会社,茨城県,取手市,谷中４４番地３,,08,217,3001532,,,2022-11-17,清算の結了等,,,2019-05-14,1,,,,,ライフケアラボ,0
1198,5060002027329,登記記録の閉鎖等,0,2022-11-22,2022-11-16,有限会社ユーアイテクノケア,,有限会社,栃木県,大田原市,福原１４３１番地４,,09,210,3240024,,,2022-11-16,清算の結了等,,,2015-10-05,1,,,,,ユーアイテクノケア,0
1201,5070001013551,登記記録の閉鎖等,0,2022-11-22,2022-11-17,株式会社田沼,,株式会社,群馬県,伊勢崎市,日乃出町７０２番地,,10,204,3720022,,,2022-11-17,清算の結了等,,,2015-10-05,1,,,,,タヌマ,0
1207,5070002013410,登記記録の閉鎖等,0,2022-11-22,2022-11-17,有限会社レディスファッション美光,,有限会社,群馬県,高崎市,金古町２１５８番地１２,,10,202,3703511,,,2022-11-17,清算の結了等,,,2015-10-05,1,,,,,レディスファッションビコウ,0
1209,5080101012824,登記記録の閉鎖等,0,2022-11-22,2022-11-17,株式会社久元建設,,株式会社,神奈川県,横浜市栄区,笠間２丁目３１番３号パレットコート１０２,,14,115,2470006,,,2022-11-17,清算の結了等,,,2015-10-05,1,,,,,ヒサモトケンセツ,0
1211,5080401016013,登記記録の閉鎖等,0,2022-11-22,2022-11-18,株式会社マック,,株式会社,静岡県,磐田市,大久保５６番地の１,,22,211,4380002,,,2022-11-18,清算の結了等,,,2015-10-05,1,,,,,マック,0
1215,5100005006928,登記記録の閉鎖等,0,2022-11-22,2022-11-17,特定非営利活動法人信州自然再生フォーラム,,その他の設立登記法人,長野県,安曇野市,穂高１２６４番地,,20,220,3998303,,,2022-11-17,清算の結了等,,,2015-10-05,1,,,,,シンシュウシゼンサイセイフォーラム,0
1230,5120002000766,登記記録の閉鎖等,0,2022-11-22,2022-11-17,有限会社ヤマツカ,,有限会社,大阪府,大阪市旭区,清水２丁目１４番６号,,27,117,5350021,,,2022-11-17,清算の結了等,,,2015-10-05,1,,,,,,0
1257,5180001098268,登記記録の閉鎖等,0,2022-11-22,2022-11-17,株式会社後藤ゴム,,株式会社,愛知県,あま市,七宝町鷹居４丁目９０番地の１,,23,237,4970014,,,2022-11-17,清算の結了等,,,2015-10-05,1,,,,,ゴトウゴム,0
1259,5180001152082,登記記録の閉鎖等,0,2022-11-22,2022-11-16,株式会社サードアイ,,株式会社,愛知県,名古屋市中区,栄５丁目２６－３９ＧＳ栄ビル３Ｆ,,23,106,4600008,,,2022-11-16,清算の結了等,,,2022-07-07,1,,,,,サードアイ,0
1261,5180002006816,登記記録の閉鎖等,0,2022-11-22,2022-11-16,有限会社奈東銘木店,,有限会社,愛知県,名古屋市港区,善進町３丁目１０番地,,23,111,4550811,,,2022-11-16,清算の結了等,,,2015-10-05,1,,,,,ナトウメイモクテン,0
1263,5180002060193,登記記録の閉鎖等,0,2022-11-22,2022-11-17,有限会社やすまさ,,有限会社,愛知県,名古屋市東区,東桜２丁目１２番１号,,23,102,4610005,,,2022-11-17,清算の結了等,,,2015-10-05,1,,,,,ヤスマサ,0
1310,5360001012920,登記記録の閉鎖等,0,2022-11-22,2022-11-15,株式会社九州ＭＴＳ商事,,株式会社,沖縄県,糸満市,字潮平７４９番地,,47,210,9010302,,,2022-11-15,清算の結了等,,,2015-10-05,1,,,,,キュウシュウエムティエスショウジ,0
1313,5360001026953,登記記録の閉鎖等,0,2022-11-22,2022-11-15,株式会社ちゃちゃま,,株式会社,沖縄県,中頭郡西原町,字棚原６２番地,,47,329,9030126,,,2022-11-15,清算の結了等,,,2020-03-30,1,,,,,チャチャマ,0
1322,5380005012460,登記記録の閉鎖等,0,2022-11-22,2022-11-14,司法書士法人おおたま法務事務所,,その他の設立登記法人,福島県,安達郡大玉村,玉井字的場８６番地１メープルハイム的場Ｃ号室,,07,322,9691302,,,2022-11-14,清算の結了等,,,2021-07-26,1,,,,,オオタマホウムジムショ,0
1333,5430005012892,登記記録の閉鎖等,0,2022-11-22,2022-11-15,特定非営利活動法人あおぞらプロジェクト,,その他の設立登記法人,北海道,札幌市清田区,真栄一条２丁目１番２８号,,01,110,0040831,,,2022-11-15,清算の結了等,,,2016-09-06,1,,,,,アオゾラプロジェクト,0
1363,6010401159453,登記記録の閉鎖等,0,2022-11-22,2022-11-07,株式会社Ｂｅａｕｔｅｒｓ,,株式会社,東京都,港区,南青山２丁目２番１５号,,13,103,1070062,,,2022-11-07,清算の結了等,,,2021-04-09,1,,,,,ビューターズ,0
1401,6011103008130,登記記録の閉鎖等,0,2022-11-22,2022-11-14,合同会社ゴールドボックス,,合同会社,東京都,新宿区,新宿５丁目１８番２０号ルックハイツ新宿８０３号,,13,104,1600022,,,2022-11-14,清算の結了等,,,2018-08-03,1,,,,,ゴールドボックス,0
1422,6012703002308,登記記録の閉鎖等,0,2022-11-22,2022-11-09,ｉ　Ｐｒｏｄｕｃｔｉｏｎ合同会社,,合同会社,沖縄県,中頭郡読谷村,字儀間９０番地６－２号室,,47,324,9040327,,,2022-11-09,清算の結了等,,,2021-09-10,1,,,,,アイプロダクション,0
1436,6020001109584,登記記録の閉鎖等,0,2022-11-22,2022-11-14,株式会社アクア,,株式会社,神奈川県,横浜市港北区,大倉山１丁目１３番２６号,,14,109,2220037,,,2022-11-14,清算の結了等,,,2015-10-05,1,,,,,アクア,0
1465,6030001127024,登記記録の閉鎖等,0,2022-11-22,2022-11-14,日本先進健康科学機構株式会社,,株式会社,埼玉県,さいたま市南区,南浦和２丁目２８番１３－５１１号,,11,108,3360017,,,2022-11-14,清算の結了等,,,2018-08-20,1,,,,,ニホンセンシンケンコウカガクキコウ,0
1471,6030002051900,登記記録の閉鎖等,0,2022-11-22,2022-11-14,有限会社倉石鋲螺製作所,,有限会社,埼玉県,八潮市,大字西袋１４００番地,,11,234,3400833,,,2022-11-14,清算の結了等,,,2015-10-05,1,,,,,クライシビョウラセイサクショ,0
1472,6030002052997,登記記録の閉鎖等,0,2022-11-22,2022-11-10,有限会社アイワーク,,有限会社,埼玉県,北足立郡伊奈町,中央２丁目１８８番地,,11,301,3620809,,,2022-11-10,清算の結了等,,,2015-10-05,1,,,,,,0
1474,6030002084677,登記記録の閉鎖等,0,2022-11-22,2022-11-14,有限会社愛電エンジニヤリング,,有限会社,埼玉県,越谷市,西方１丁目３４４０番地１,,11,222,3430822,,,2022-11-14,清算の結了等,,,2015-10-05,1,,,,,アイデンエンジニヤリング,0
1479,6040001063623,登記記録の閉鎖等,0,2022-11-22,2022-11-15,ティ・エス・システム株式会社,,株式会社,千葉県,香取市,鴇崎６３０番地,,12,236,2870047,,,2022-11-15,清算の結了等,,,2015-10-05,1,,,,,ティエスシステム,0
1492,6050002008048,登記記録の閉鎖等,0,2022-11-22,2022-11-16,有限会社いけだ,,有限会社,茨城県,ひたちなか市,東石川３丁目９番１号,,08,221,3120052,,,2022-11-16,清算の結了等,,,2015-10-05,1,,,,,,0
1497,6060001020944,登記記録の閉鎖等,0,2022-11-22,2022-11-16,菱苦土工業株式会社,,株式会社,栃木県,佐野市,豊代町５８５番地,,09,204,3270512,,,2022-11-16,清算の結了等,,,2015-10-05,1,,,,,リョウクドコウギョウ,0
1504,6070001035363,登記記録の閉鎖等,0,2022-11-22,2022-11-10,株式会社フォードアーズジャパン,,株式会社,群馬県,前橋市,小相木町２０８番地１,,10,201,3710831,,,2022-11-10,清算の結了等,,,2018-12-28,1,,,,,フォードアーズジャパン,0
1516,6120001120837,登記記録の閉鎖等,0,2022-11-22,2022-11-18,株式会社Ｄｏ・Ｏ・Ｍｏ,,株式会社,大阪府,大阪市東成区,中本１丁目９番２１－８０３号,,27,115,5370022,,,2022-11-18,清算の結了等,,,2015-10-05,1,,,,,ドオモ,0
1532,6140001012702,登記記録の閉鎖等,0,2022-11-22,2022-11-18,奥本工業株式会社,,株式会社,兵庫県,神戸市兵庫区,浜中町１丁目４番８号,,28,105,6520875,,,2022-11-18,清算の結了等,,,2015-10-05,1,,,,,,0
1533,6140001013857,登記記録の閉鎖等,0,2022-11-22,2022-11-18,日満ゴムタイル株式会社,,株式会社,兵庫県,神戸市兵庫区,湊川町１０丁目１３番１号,,28,105,6520041,,,2022-11-18,清算の結了等,,,2015-10-05,1,,,,,ニチマンゴムタイル,0
1535,6140001056278,登記記録の閉鎖等,0,2022-11-22,2022-11-18,株式会社栃尾商店,,株式会社,兵庫県,豊岡市,日高町殿５番地,,28,209,6695358,,,2022-11-18,清算の結了等,,,2015-10-05,1,,,,,トチオショウテン,0
1557,6180002015353,登記記録の閉鎖等,0,2022-11-22,2022-11-17,有限会社アド・コンサルタントモリジン,,有限会社,愛知県,名古屋市東区,芳野１丁目１８番１６号,,23,102,4610027,,,2022-11-17,清算の結了等,,,2015-10-05,1,,,,,アドコンサルタントモリジン,0
1563,6200001038889,登記記録の閉鎖等,0,2022-11-22,2022-11-15,双王金属株式会社,,株式会社,岐阜県,羽島郡笠松町,米野字野畑２６０,,21,303,5016031,,,2022-11-15,清算の結了等,,,2021-07-15,1,,,,,ソウオウキンゾク,0
1578,6240005002219,登記記録の閉鎖等,0,2022-11-22,2022-11-18,協同組合マグネトピア広島,,その他の設立登記法人,広島県,安芸郡府中町,新地１番１４号,,34,302,7350028,,,2022-11-18,清算の結了等,,,2015-10-05,1,,,,,マグネトピアヒロシマ,0
1583,6270005000070,登記記録の閉鎖等,0,2022-11-22,2022-11-21,医療法人社団森医院,,その他の設立登記法人,鳥取県,鳥取市,国府町糸谷１１番地５,,31,201,6800136,,,2022-11-21,清算の結了等,,,2015-10-05,1,,,,,モリイイン,0
1607,6370001012547,登記記録の閉鎖等,0,2022-11-22,2022-11-16,株式会社正大,,株式会社,宮城県,仙台市若林区,六丁の目西町７番３３号,,04,103,9840011,,,2022-11-16,清算の結了等,,,2015-10-05,1,,,,,,0
1611,6380002031644,登記記録の閉鎖等,0,2022-11-22,2022-11-16,有限会社木村土建,,有限会社,福島県,会津若松市,天神町２９番１５号,,07,202,9650832,,,2022-11-16,清算の結了等,,,2015-10-05,1,,,,,キムラドケン,0
1623,6430005001572,登記記録の閉鎖等,0,2022-11-22,2022-11-15,医療法人社団いなべ医院,,その他の設立登記法人,北海道,札幌市西区,発寒六条１１丁目７番１８号,,01,107,0630826,,,2022-11-15,清算の結了等,,,2015-10-05,1,,,,,イナベイイン,0
1635,6490005001708,登記記録の閉鎖等,0,2022-11-22,2022-11-15,特定非営利活動法人　高知龍馬の会,,その他の設立登記法人,高知県,高知市,横内２１７番地５５,,39,201,7800964,,,2022-11-15,清算の結了等,,,2015-10-05,1,,,,,コウチリョウマノカイ,0
1659,7010403022939,登記記録の閉鎖等,0,2022-11-22,2022-11-14,ＨＹＰＲ合同会社,,合同会社,東京都,港区,西麻布１丁目４番４０号西麻布ＳＨＩＮＯビル４階,,13,103,1060031,,,2022-11-14,清算の結了等,,,2020-05-13,1,,,,,エイチワイピーアール,0
1665,7010405019850,登記記録の閉鎖等,0,2022-11-22,2022-11-11,ＲＢソーラーヤマブキホールディングス一般社団法人,,その他の設立登記法人,東京都,港区,虎ノ門３丁目２２番１０－２０１号,,13,103,1050001,,,2022-11-11,清算の結了等,,,2021-05-28,1,,,,,アールビーソーラーヤマブキホールディングス,0
1666,7010501005696,登記記録の閉鎖等,0,2022-11-22,2022-11-21,シグマ株式会社,,株式会社,東京都,台東区,根岸３丁目８番３号,,13,106,1100003,,,2022-11-21,清算の結了等,,,2015-10-05,1,,,,,シグマ,0
1686,7011503004967,登記記録の閉鎖等,0,2022-11-22,2022-11-14,合同会社カトレア,,合同会社,東京都,北区,志茂４丁目１１番９号アシスト赤羽マンション３０１号,,13,117,1150042,,,2022-11-14,清算の結了等,,,2021-11-12,1,,,,,カトレア,0
1696,7013301023430,登記記録の閉鎖等,0,2022-11-22,2022-11-14,株式会社インターナショナルリクルーティングＣＵＥ,,株式会社,東京都,港区,南青山３丁目３番２４号２Ｆ,,13,103,1070062,,,2022-11-14,合併による解散等,9013301022422,令和４年１１月７日東京都港区南青山三丁目３番２４号１Ｆ株式会社ＣＵＥ（9013301022422）に合併し解散,2015-10-05,1,,,,,インターナショナルリクルーティングキュー,0
1707,7020003019839,登記記録の閉鎖等,0,2022-11-22,2022-11-18,合同会社アイブラン,,合同会社,東京都,新宿区,新宿３丁目１２番４号新宿Ｎタウンプラザ３０９号,,13,104,1600022,,,2022-11-18,清算の結了等,,,2021-05-21,1,,,,,アイブラン,0
1723,7030002073043,登記記録の閉鎖等,0,2022-11-22,2022-11-14,有限会社共和設備,,有限会社,埼玉県,川越市,大字上老袋４９２番地１,,11,201,3500845,,,2022-11-14,清算の結了等,,,2015-10-05,1,,,,,キョウワセツビ,0
1732,7040001075543,登記記録の閉鎖等,0,2022-11-22,2022-11-14,株式会社アズ,,株式会社,千葉県,木更津市,東中央２丁目７番１０号,,12,206,2920057,,,2022-11-14,清算の結了等,,,2015-10-05,1,,,,,アズ,0
1733,7040001111356,登記記録の閉鎖等,0,2022-11-22,2022-11-14,千葉金属商事株式会社,,株式会社,千葉県,千葉市花見川区,三角町１００番地,,12,102,2620011,,,2022-11-14,清算の結了等,,,2019-11-06,1,,,,,チバキンゾクショウジ,0
1772,7140001030802,登記記録の閉鎖等,0,2022-11-22,2022-11-18,株式会社エス・エー・シー,,株式会社,兵庫県,神戸市兵庫区,下沢通８丁目４番１１号,,28,105,6520047,,,2022-11-18,清算の結了等,,,2015-10-05,1,,,,,エスエーシー,0
1777,7140005010131,登記記録の閉鎖等,0,2022-11-22,2022-11-21,ＮＰＯ法人癒居,,その他の設立登記法人,兵庫県,加古川市,尾上町養田１１４５－５白菊マンション２－５,,28,210,6750025,,,2022-11-21,清算の結了等,,,2015-10-05,1,,,,,ユイ,0
1781,7180001046720,登記記録の閉鎖等,0,2022-11-22,2022-11-17,株式会社タンデム,,株式会社,愛知県,名古屋市中村区,日比津町１丁目１２番１号,,23,105,4530061,,,2022-11-17,清算の結了等,,,2015-10-05,1,,,,,タンデム,0
1784,7180001138352,登記記録の閉鎖等,0,2022-11-22,2022-11-16,株式会社Ｋ　ｓｍｉｌｅ,,株式会社,愛知県,名古屋市中川区,野田１丁目５２４番地,,23,110,4540912,,,2022-11-16,清算の結了等,,,2019-10-07,1,,,,,ケースマイル,0
1794,7200001010590,登記記録の閉鎖等,0,2022-11-22,2022-11-21,株式会社森建築工業,,株式会社,岐阜県,本巣市,数屋９３２番地１,,21,218,5010414,,,2022-11-21,清算の結了等,,,2015-10-05,1,,,,,モリケンチクコウギョウ,0
1805,7220002015026,登記記録の閉鎖等,0,2022-11-22,2022-11-18,有限会社村上製作所,,有限会社,石川県,羽咋郡宝達志水町,免田ニ，３１番地２,,17,386,9291333,,,2022-11-18,清算の結了等,,,2015-10-05,1,,,,,ムラカミセイサクショ,0
1817,7260001031367,登記記録の閉鎖等,0,2022-11-22,2022-11-21,株式会社Ｗｉｌｄ　Ｓｔｒａｗｂｅｒｒｙ,,株式会社,岡山県,瀬戸内市,牛窓町牛窓４９２３番地４,,33,212,7014302,,,2022-11-21,清算の結了等,,,2017-10-20,1,,,,,,0
1821,7280002010269,登記記録の閉鎖等,0,2022-11-22,2022-11-21,有限会社紅屋,,有限会社,島根県,益田市,横田町１６６－２,,32,204,6995132,,,2022-11-21,清算の結了等,,,2015-10-05,1,,,,,ベニヤ,0
1826,7290002040918,登記記録の閉鎖等,0,2022-11-22,2022-11-15,有限会社タカヤ商会,,有限会社,福岡県,春日市,須玖南６丁目１４５－３,,40,218,8160863,,,2022-11-15,清算の結了等,,,2015-10-05,1,,,,,タカヤショウカイ,0
1831,7290802007380,登記記録の閉鎖等,0,2022-11-22,2022-11-21,有限会社アルニーズ,,有限会社,福岡県,北九州市小倉南区,横代北町２丁目３番２号,,40,107,8020821,,,2022-11-21,清算の結了等,,,2015-10-05,1,,,,,アルニーズ,0
1836,7320002018530,登記記録の閉鎖等,0,2022-11-22,2022-11-18,有限会社阿南製畳所,,有限会社,大分県,豊後大野市,大野町北園１７０１番地,,44,212,8796435,,,2022-11-18,清算の結了等,,,2015-10-05,1,,,,,,0
1839,7340001006930,登記記録の閉鎖等,0,2022-11-22,2022-11-21,アサヒクリエイト株式会社,,株式会社,鹿児島県,鹿児島市,春山町１９０２番地３,,46,201,8992704,,,2022-11-21,清算の結了等,,,2015-10-05,1,,,,,アサヒクリエイト,0
1854,7390002014259,登記記録の閉鎖等,0,2022-11-22,2022-11-16,有限会社オガワサービス,,有限会社,山形県,南陽市,二色根６番地の２,,06,213,9992231,,,2022-11-16,清算の結了等,,,2015-10-05,1,,,,,オガワサービス,0
1880,8010401106973,登記記録の閉鎖等,0,2022-11-22,2022-11-14,株式会社アベベネクスト,,株式会社,東京都,港区,南青山３丁目７番３号,,13,103,1070062,,,2022-11-14,清算の結了等,,,2015-10-05,1,,,,,アベベネクスト,0
1888,8010403010125,登記記録の閉鎖等,0,2022-11-22,2022-11-11,合同会社山城,,合同会社,東京都,港区,芝浦４丁目２１番１－４０１３号,,13,103,1080023,,,2022-11-11,清算の結了等,,,2015-10-05,1,,,,,ヤマシロ,0
1900,8010801015741,登記記録の閉鎖等,0,2022-11-22,2022-11-14,株式会社國分電気工事,,株式会社,東京都,大田区,中央８丁目４３番１２号,,13,111,1430024,,,2022-11-14,清算の結了等,,,2015-10-05,1,,,,,コクブデンキコウジ,0
1905,8010901005436,登記記録の閉鎖等,0,2022-11-22,2022-11-21,株式会社ジンジャパン,,株式会社,東京都,世田谷区,上野毛２丁目５番２１号,,13,112,1580093,,,2022-11-21,清算の結了等,,,2015-10-05,1,,,,,ジンジャパン,0
1920,8011101096885,登記記録の閉鎖等,0,2022-11-22,2022-11-18,株式会社ＮＥＯ　ＧＲＡＮＴＳ,,株式会社,東京都,新宿区,西新宿３丁目３番１３号西新宿水間ビル６階,,13,104,1600023,,,2022-11-18,清算の結了等,,,2021-11-15,1,,,,,ネオグランツ,0
1928,8011801002829,登記記録の閉鎖等,0,2022-11-22,2022-11-17,株式会社高村,,株式会社,東京都,葛飾区,亀有５丁目２８番１２号,,13,122,1250061,,,2022-11-17,清算の結了等,,,2015-10-05,1,,,,,タカムラ,0
1935,8013302020707,登記記録の閉鎖等,0,2022-11-22,2022-11-11,有限会社ふくもと,,有限会社,東京都,豊島区,西巣鴨２丁目６番１２号,,13,116,1700001,,,2022-11-11,清算の結了等,,,2015-10-05,1,,,,,フクモト,0
1951,8030001100912,登記記録の閉鎖等,0,2022-11-22,2022-11-14,株式会社ワールドソリューション,,株式会社,千葉県,松戸市,秋山９０番地,,12,207,2702223,,,2022-11-14,清算の結了等,,,2015-10-05,1,,,,,ワールドソリューション,0
1952,8030002025786,登記記録の閉鎖等,0,2022-11-22,2022-11-15,有限会社笠井電装,,有限会社,埼玉県,蕨市,中央６丁目６番１６号,,11,223,3350004,,,2022-11-15,清算の結了等,,,2015-10-05,1,,,,,カサイデンソウ,0
1954,8030002094501,登記記録の閉鎖等,0,2022-11-22,2022-11-15,アイ・エス・ティ有限会社,,有限会社,埼玉県,坂戸市,大字善能寺４３番地１３,,11,239,3500256,,,2022-11-15,清算の結了等,,,2015-10-05,1,,,,,アイエスティ,0
1957,8040001073050,登記記録の閉鎖等,0,2022-11-22,2022-11-14,株式会社エスコミュニケーション,,株式会社,千葉県,松戸市,秋山８８番地１,,12,207,2702223,,,2022-11-14,清算の結了等,,,2015-10-05,1,,,,,エスコミュニケーション,0
1960,8040001121528,登記記録の閉鎖等,0,2022-11-22,2022-11-14,株式会社えんむすび,,株式会社,千葉県,野田市,七光台１５７番地の７,,12,208,2780051,,,2022-11-14,清算の結了等,,,2021-12-28,1,,,,,エンムスビ,0
1961,8040002072010,登記記録の閉鎖等,0,2022-11-22,2022-11-07,有限会社アークサービス,,有限会社,千葉県,市原市,池和田２５６番地の２５,,12,219,2900516,,,2022-11-07,清算の結了等,,,2015-10-05,1,,,,,アークサービス,0
1969,8060002036319,登記記録の閉鎖等,0,2022-11-22,2022-11-15,サミットレース有限会社,,有限会社,栃木県,足利市,久保田町６８０番地,,09,202,3260324,,,2022-11-15,清算の結了等,,,2015-10-05,1,,,,,サミットレース,0
1970,8070001019026,登記記録の閉鎖等,0,2022-11-22,2022-11-15,株式会社カマタ,,株式会社,群馬県,太田市,西野谷町２３３番地２,,10,205,3730043,,,2022-11-15,清算の結了等,,,2015-10-05,1,,,,,カマタ,0
1974,8070002019941,登記記録の閉鎖等,0,2022-11-22,2022-11-14,有限会社山二不動産,,有限会社,群馬県,伊勢崎市,山王町６９２番地１,,10,204,3720831,,,2022-11-14,清算の結了等,,,2015-10-05,1,,,,,ヤマニフドウサン,0
1977,8080102021152,登記記録の閉鎖等,0,2022-11-22,2022-11-18,有限会社前田工業,,有限会社,静岡県,下田市,北湯ケ野３９５番地の２,,22,219,4130714,,,2022-11-18,清算の結了等,,,2015-10-05,1,,,,,マエダコウギョウ,0
1982,8100002000501,登記記録の閉鎖等,0,2022-11-22,2022-11-18,有限会社イツワ企画,,有限会社,長野県,長野市,大字高田１４５６番地１４,,20,201,3810034,,,2022-11-18,清算の結了等,,,2015-10-05,1,,,,,イツワキカク,0
1987,8100005004961,登記記録の閉鎖等,0,2022-11-22,2022-11-16,農事組合法人山中きのこ園生産組合,,その他の設立登記法人,長野県,下高井郡野沢温泉村,大字豊郷３１６３番地２,,20,563,3892502,,,2022-11-16,清算の結了等,,,2015-10-05,1,,,,,ヤマナカキノコエンセイサンクミアイ,0
1993,8120001199886,登記記録の閉鎖等,0,2022-11-22,2022-11-21,株式会社リインステイト,,株式会社,三重県,志摩市,磯部町恵利原９９５番地,,24,215,5170209,,,2022-11-21,清算の結了等,,,2016-08-03,1,,,,,リインステイト,0
2014,8140001036914,登記記録の閉鎖等,0,2022-11-22,2022-11-18,株式会社ピーオーエム,,株式会社,兵庫県,明石市,大久保町緑が丘１２番６号,,28,203,6740055,,,2022-11-18,清算の結了等,,,2015-10-05,1,,,,,ピーオーエム,0
2038,8180002017331,登記記録の閉鎖等,0,2022-11-22,2022-11-16,有限会社荒子研磨,,有限会社,愛知県,名古屋市中川区,荒子１丁目３５番地の１,,23,110,4540869,,,2022-11-16,清算の結了等,,,2015-10-05,1,,,,,アラコケンマ,0
2042,8180005016941,登記記録の閉鎖等,0,2022-11-22,2022-11-11,一般社団法人日本ヌアットタイ協会,,その他の設立登記法人,愛知県,名古屋市緑区,大高台２丁目６１３番地,,23,114,4598003,,,2022-11-11,清算の結了等,,,2016-09-15,1,,,,,ニホンヌアットタイキョウカイ,0
2051,8190003002216,登記記録の閉鎖等,0,2022-11-22,2022-11-18,アメジスト合同会社,,合同会社,三重県,度会郡玉城町,佐田１７５番地,,24,461,5190414,,,2022-11-18,清算の結了等,,,2015-10-05,1,,,,,アメジスト,0
2058,8240001029239,登記記録の閉鎖等,0,2022-11-22,2022-11-18,株式会社ｉｍｐｅｒｉａｌ,,株式会社,広島県,広島市安佐南区,毘沙門台３丁目３７番１１号,,34,105,7310152,,,2022-11-18,清算の結了等,,,2015-10-05,1,,,,,インペリアル,0
2072,8290802009194,登記記録の閉鎖等,0,2022-11-22,2022-11-18,株式会社エスペランサー,,株式会社,福岡県,北九州市門司区,大字畑３３８番地の２,,40,101,8000112,,,2022-11-18,清算の結了等,,,2015-10-05,1,,,,,エスペランサー,0
2076,8320002015642,登記記録の閉鎖等,0,2022-11-22,2022-11-16,有限会社川野工業所,,有限会社,大分県,速見郡日出町,大字川崎４１番地の２,,44,341,8791505,,,2022-11-16,清算の結了等,,,2015-10-05,1,,,,,,0
2078,8330002014288,登記記録の閉鎖等,0,2022-11-22,2022-11-15,有限会社クリーンハート,,有限会社,熊本県,熊本市東区,長嶺東２丁目１番３０号,,43,102,8618038,,,2022-11-15,清算の結了等,,,2015-10-05,1,,,,,クリーンハート,0
2092,8380001030372,登記記録の閉鎖等,0,2022-11-22,2022-11-09,キョウワグループホールディングス株式会社,,株式会社,福島県,福島市,五月町３番２０号,,07,201,9608061,,,2022-11-09,合併による解散等,3380001000405,令和４年１０月１日福島市五月町３番２０号キョウワプロテック株式会社（3380001000405）に合併し解散,2019-10-16,1,,,,,キョウワグループホールディングス,0
2101,8430002034490,登記記録の閉鎖等,0,2022-11-22,2022-11-15,有限会社中川電設工務店,,有限会社,北海道,札幌市中央区,円山西町５丁目３番７号,,01,101,0640944,,,2022-11-15,清算の結了等,,,2015-10-05,1,,,,,ナカガワデンセツコウムテン,0
2128,9010001092886,登記記録の閉鎖等,0,2022-11-22,2022-11-16,株式会社アルテック一級建築士事務所,,株式会社,東京都,千代田区,神田佐久間町１丁目１４番第２東ビル６０７,,13,101,1010025,,,2022-11-16,清算の結了等,,,2015-10-05,1,,,,,アルテックイッキュウケンチクシジムショ,0
2142,9010002051008,登記記録の閉鎖等,0,2022-11-22,2022-11-21,クリエイテイブカオス有限会社,,有限会社,東京都,千代田区,九段北１丁目１－７カーサ九段６０６,,13,101,1020073,,,2022-11-21,清算の結了等,,,2015-10-05,1,,,,,クリエイテイブカオス,0
2151,9010401116807,登記記録の閉鎖等,0,2022-11-22,2022-11-14,Ｓｏｃｉａｌ　Ｐｏｉｎｔ株式会社,,株式会社,東京都,港区,元赤坂１丁目２番７号赤坂Ｋタワー,,13,103,1070051,,,2022-11-14,清算の結了等,,,2015-10-05,1,,,,,ソーシャルポイント,0
2158,9010403018217,登記記録の閉鎖等,0,2022-11-22,2022-11-11,合同会社さくらインベストメント,,合同会社,東京都,港区,北青山１丁目２番３号,,13,103,1070061,,,2022-11-11,清算の結了等,,,2018-03-05,1,,,,,サクラインベストメント,0
2195,9012402023412,登記記録の閉鎖等,0,2022-11-22,2022-11-18,有限会社オフィスザイ,,有限会社,東京都,調布市,菊野台２丁目１２番地６,,13,208,1820007,,,2022-11-18,清算の結了等,,,2015-10-05,1,,,,,オフィスザイ,0
2232,9030001114721,登記記録の閉鎖等,0,2022-11-22,2022-11-09,株式会社エリアサポート,,株式会社,埼玉県,鶴ヶ島市,大字五味ヶ谷６７番地１４,,11,241,3502202,,,2022-11-09,清算の結了等,,,2016-06-10,1,,,,,エリアサポート,0
2241,9040003018291,登記記録の閉鎖等,0,2022-11-22,2022-11-14,合同会社ＴＤＮ,,合同会社,千葉県,船橋市,前原西２丁目３０番１７号ウエストヒルズ１０１号,,12,204,2740825,,,2022-11-14,清算の結了等,,,2021-08-04,1,,,,,ティディエヌ,0
2252,9070001026137,登記記録の閉鎖等,0,2022-11-22,2022-11-18,株式会社Ａ’ｓｔａｆｆ,,株式会社,群馬県,高崎市,飯塚町４８７番地タイガービル３Ｆ,,10,202,3700069,,,2022-11-18,清算の結了等,,,2015-10-05,1,,,,,,0
2283,9120005015007,登記記録の閉鎖等,0,2022-11-22,2022-11-15,特定非営利活動法人東北復興支援きずなの輪,,その他の設立登記法人,宮城県,登米市,津山町柳津字大柳津６３番地,,04,212,9860401,,,2022-11-15,清算の結了等,,,2015-10-05,1,,,,,,0
2302,9180002046032,登記記録の閉鎖等,0,2022-11-22,2022-11-16,有限会社ひさだ,,有限会社,愛知県,名古屋市中川区,八田町９０１番地,,23,110,4540877,,,2022-11-16,清算の結了等,,,2015-10-05,1,,,,,ヒサダ,0
2303,9180002074339,登記記録の閉鎖等,0,2022-11-22,2022-11-16,有限会社新東技研,,有限会社,愛知県,犬山市,字中道１番地の２１,,23,215,4840919,,,2022-11-16,清算の結了等,,,2015-10-05,1,,,,,シントウギケン,0
2356,9370001038647,登記記録の閉鎖等,0,2022-11-22,2022-11-14,株式会社Ｉ．Ｃ．Ｅ,,株式会社,宮城県,仙台市青葉区,二日町１７番２２号ディープランナー８０２号室,,04,101,9800802,,,2022-11-14,清算の結了等,,,2015-10-19,1,,,,,,0
2361,9370201002378,登記記録の閉鎖等,0,2022-11-22,2022-11-16,株式会社星栄商店,,株式会社,宮城県,加美郡加美町,字西町３４番地の１,,04,445,9814251,,,2022-11-16,清算の結了等,,,2015-10-05,1,,,,,,0
2374,9490001008778,登記記録の閉鎖等,0,2022-11-22,2022-11-18,株式会社Ｍ’Ｓ,,株式会社,高知県,南国市,駅前町２丁目１番８号,,39,204,7830002,,,2022-11-18,清算の結了等,,,2017-09-07,1,,,,,エムズ,0
