sequenceNumber,corporateNumber,process,correct,updateDate,changeDate,name,nameImageId,kind,prefectureName,cityName,streetNumber,addressImageId,prefectureCode,cityCode,postCode,addressOutside,addressOutsideImageId,closeDate,closeCause,successorCorporateNumber,changeCause,assignmentDate,latest,enName,enPrefectureName,enCityName,enAddressOutside,furigana,hihyoji
11,1010001221106,新規,0,2021-09-16,2021-09-16,株式会社ＹＵＣＡＴ,,株式会社,東京都,中央区,銀座７丁目１５番８号タウンハイツ銀座４０６,,13,102,1040061,,,,,,,2021-09-16,1,,,,,ユーキャット,0
12,1010001221130,新規,0,2021-09-16,2021-09-16,株式会社Ａｃｔｕａｌｌｙ,,株式会社,東京都,中央区,銀座１丁目２２番１１号,,13,102,1040061,,,,,,,2021-09-16,1,,,,,アクチュアリー,0
19,1010003035850,新規,0,2021-09-16,2021-09-16,えびす殖産合同会社,,合同会社,東京都,中央区,勝どき５丁目３番１－１８０３号,,13,102,1040054,,,,,,,2021-09-16,1,,,,,エビスショクサン,0
21,1010103001769,新規,0,2021-09-16,2021-09-16,合同会社アリオン産業,,合同会社,東京都,八王子市,小宮町３２４番ハ６,,13,201,1920031,,,,,,,2021-09-16,1,,,,,アリオンサンギョウ,0
30,1010401162354,新規,0,2021-09-16,2021-09-16,株式会社Ｓｉｇｎ　ｏｆ,,株式会社,東京都,港区,西新橋３丁目２４番６号３階,,13,103,1050003,,,,,,,2021-09-16,1,,,,,サインオブ,0
31,1010401162668,新規,0,2021-09-16,2021-09-16,株式会社ＦＲＥＳＨ＆Ｃｏ．,,株式会社,東京都,港区,港南１丁目９番３６号,,13,103,1080075,,,,,,,2021-09-16,1,,,,,フレッシュアンドコー,0
32,1010401162676,新規,0,2021-09-16,2021-09-16,株式会社Ｍｉｅ　Ｄｅｓｉｇｎ,,株式会社,東京都,港区,南青山３丁目１５番９号ＭＩＮＯＷＡ表参道３階,,13,103,1070062,,,,,,,2021-09-16,1,,,,,ミーデザイン,0
33,1010401162692,新規,0,2021-09-16,2021-09-16,アマラントス株式会社,,株式会社,東京都,港区,赤坂２丁目１８番５号ＦＵＮ・ＡＲＴＡＫＡＳＡＫＡ２階,,13,103,1070052,,,,,,,2021-09-16,1,,,,,アマラントス,0
34,1010403026128,新規,0,2021-09-16,2021-09-16,ジャパンインフラ１４号合同会社,,合同会社,東京都,港区,元赤坂１丁目１番７号,,13,103,1070051,,,,,,,2021-09-16,1,,,,,ジャパンインフラジュウヨンゴウ,0
35,1010405020228,新規,0,2021-09-16,2021-09-16,ジャパンインフラホールディングス１５号一般社団法人,,その他の設立登記法人,東京都,港区,元赤坂１丁目１番７号,,13,103,1070051,,,,,,,2021-09-16,1,,,,,ジャパンインフラホールディングスジュウゴゴウ,0
39,1010603009155,新規,0,2021-09-16,2021-09-16,エーワン合同会社,,合同会社,東京都,江東区,住吉２丁目９番１－４Ｆ,,13,108,1350002,,,,,,,2021-09-16,1,,,,,エーワン,0
41,1010701041514,新規,0,2021-09-16,2021-09-16,株式会社渋谷ホースクリニック,,株式会社,東京都,品川区,勝島２丁目２番３４号,,13,109,1400012,,,,,,,2021-09-16,1,,,,,シブタニホースクリニック,0
44,1010705003270,新規,0,2021-09-16,2021-09-16,医療法人社団Ｔｅａｍ　ＡＬＯＨＡ,,その他の設立登記法人,東京都,品川区,西五反田４丁目２７番１０号印刷産業ビル３階,,13,109,1410031,,,,,,,2021-09-16,1,,,,,チームアロハ,0
54,1011003013350,新規,0,2021-09-16,2021-09-16,ＭＭ合同会社,,合同会社,東京都,目黒区,青葉台３丁目６番２８号－２６０３,,13,110,1530042,,,,,,,2021-09-16,1,,,,,エムエム,0
55,1011005009215,新規,0,2021-09-16,2021-09-16,医療法人社団雄美会,,その他の設立登記法人,東京都,渋谷区,宇田川町３２番１２号アソルティ渋谷２階,,13,113,1500042,,,,,,,2021-09-16,1,,,,,ユウビカイ,0
59,1011201023250,新規,0,2021-09-16,2021-09-16,ＡｉｒＴ　Ｖｉｄｅｏ株式会社,,株式会社,東京都,中野区,本町１丁目６－６エクセデール坂上４０３,,13,114,1640012,,,,,,,2021-09-16,1,,,,,エアートビデオ,0
62,1011203003639,新規,0,2021-09-16,2021-09-16,合同会社Ｈ２Ｋ,,合同会社,東京都,中野区,中野１丁目４６番２号,,13,114,1640001,,,,,,,2021-09-16,1,,,,,エイチツーケイ,0
65,1011303004173,新規,0,2021-09-16,2021-09-16,合同会社ＫＹワークス,,合同会社,東京都,杉並区,天沼２丁目４３番１１号クウォーターキャビン２０１,,13,115,1670032,,,,,,,2021-09-16,1,,,,,ケーワイワークス,0
74,1012301012713,新規,0,2021-09-16,2021-09-16,株式会社フェアマーゲン,,株式会社,東京都,町田市,金井２丁目２８－１３,,13,209,1950072,,,,,,,2021-09-16,1,,,,,フェアマーゲン,0
79,1013301048020,新規,0,2021-09-16,2021-09-16,株式会社ワンダーエンポリウム承継会社,,株式会社,東京都,豊島区,上池袋１丁目２９番１５号,,13,116,1700012,,,,,,,2021-09-16,1,,,,,ワンダーエンポリウムショウケイカイシャ,0
89,1020001143002,新規,0,2021-09-16,2021-09-16,桜本株式会社,,株式会社,神奈川県,横浜市泉区,上飯田町２５１１番地,,14,116,2450018,,,,,,,2021-09-16,1,,,,,サクラモト,0
90,1020001143010,新規,0,2021-09-16,2021-09-16,ＳＧエンタープライズ株式会社,,株式会社,神奈川県,横浜市都筑区,中川４丁目１２番１７号,,14,118,2240001,,,,,,,2021-09-16,1,,,,,エスジーエンタープライズ,0
91,1020001143035,新規,0,2021-09-16,2021-09-16,株式会社Ｖｅｒｉｔａ,,株式会社,神奈川県,横浜市緑区,十日市場町８０４番地２ホーメストプラザ十日市場Ｗ－６０４号,,14,113,2260025,,,,,,,2021-09-16,1,,,,,ヴェリタ,0
92,1020001143043,新規,0,2021-09-16,2021-09-16,株式会社ＦＪＴ,,株式会社,神奈川県,横浜市都筑区,茅ケ崎中央２３番１０号ラ・フルーレ１Ｆ,,14,118,2240032,,,,,,,2021-09-16,1,,,,,エフジェイティー,0
99,1021001073965,新規,0,2021-09-16,2021-09-16,株式会社Ｂｕｄｄｙ’ｓ,,株式会社,神奈川県,藤沢市,本鵠沼５丁目１３番２０号,,14,205,2510028,,,,,,,2021-09-16,1,,,,,バーディーズ,0
106,1030001144305,新規,0,2021-09-16,2021-09-16,株式会社アイコネクト,,株式会社,埼玉県,川口市,東川口４丁目２１番地５けやきヒルズ２０３,,11,203,3330801,,,,,,,2021-09-16,1,,,,,アイコネクト,0
115,1040001120197,新規,0,2021-09-16,2021-09-16,株式会社ＢＢエンタープライズ,,株式会社,千葉県,松戸市,常盤平６丁目２９番地の９,,12,207,2702261,,,,,,,2021-09-16,1,,,,,ビービーエンタープライズ,0
116,1040001120206,新規,0,2021-09-16,2021-09-16,株式会社ＩＴＳＵＫＩ　Ｅｎｔｅｒｐｒｉｓｅ,,株式会社,千葉県,八街市,四木１３８５番地５,,12,230,2891122,,,,,,,2021-09-16,1,,,,,イツキエンタープライズ,0
117,1040001120214,新規,0,2021-09-16,2021-09-16,株式会社ＴＥＬＡ,,株式会社,千葉県,木更津市,大和１丁目４－７イーストワン１Ｆ,,12,206,2920805,,,,,,,2021-09-16,1,,,,,テラ,0
118,1040001120222,新規,0,2021-09-16,2021-09-16,海洋興業株式会社,,株式会社,千葉県,千葉市美浜区,高洲２丁目９番１２号,,12,106,2610004,,,,,,,2021-09-16,1,,,,,カイヨウコウギョウ,0
130,1070001038437,新規,0,2021-09-16,2021-09-16,ドリームゲート株式会社,,株式会社,群馬県,みどり市,笠懸町鹿２９８０番地１３,,10,212,3792313,,,,,,,2021-09-16,1,,,,,ドリームゲート,0
133,1080101022777,新規,0,2021-09-16,2021-09-16,株式会社ＦＡＮ　ＯＵＴ,,株式会社,静岡県,富士宮市,西町３０番２４号ボナールＣ,,22,207,4180056,,,,,,,2021-09-16,1,,,,,ファンアウト,0
164,1120001240425,新規,0,2021-09-16,2021-09-16,株式会社南田建設,,株式会社,大阪府,大阪市淀川区,新高１丁目１６番１７－１４０２号,,27,123,5320033,,,,,,,2021-09-16,1,,,,,ミナミダケンセツ,0
165,1120001240433,新規,0,2021-09-16,2021-09-16,ＷＯＲＫＡＨＯＬＩＣ株式会社,,株式会社,大阪府,大阪市北区,梅田１丁目１１番４－１６００号,,27,127,5300001,,,,,,,2021-09-16,1,,,,,ワーカホリック,0
166,1120001240466,新規,0,2021-09-16,2021-09-16,株式会社ジョイントコンセプト,,株式会社,大阪府,大阪市中央区,南船場４丁目１０番５号南船場ＳＯＨＯビル７０２,,27,128,5420081,,,,,,,2021-09-16,1,,,,,ジョイントコンセプト,0
167,1120001240474,新規,0,2021-09-16,2021-09-16,株式会社イオンサポート,,株式会社,大阪府,大阪市西区,北堀江１丁目２番１７号,,27,106,5500014,,,,,,,2021-09-16,1,,,,,イオンサポート,0
168,1120001240482,新規,0,2021-09-16,2021-09-16,株式会社広景,,株式会社,大阪府,大阪市住吉区,杉本２丁目２６番３２－１０６号,,27,120,5580022,,,,,,,2021-09-16,1,,,,,コウケイ,0
173,1120003020230,新規,0,2021-09-16,2021-09-16,ＴＡＳＣマネジメント合同会社,,合同会社,大阪府,枚方市,南楠葉２丁目１４番８－１０１号,,27,210,5731105,,,,,,,2021-09-16,1,,,,,タスクマネジメント,0
174,1120003020247,新規,0,2021-09-16,2021-09-16,合同会社コールアンドパートナーズ,,合同会社,大阪府,大阪市淀川区,西中島７丁目１－２９新大阪ＳＯＮＥビル５Ｆ,,27,123,5320011,,,,,,,2021-09-16,1,,,,,コールアンドパートナーズ,0
175,1120003020255,新規,0,2021-09-16,2021-09-16,合同会社ＨＡＭＡＲＯ,,合同会社,大阪府,枚方市,楠葉花園町５番３,,27,210,5731121,,,,,,,2021-09-16,1,,,,,ハマロ,0
176,1120003020263,新規,0,2021-09-16,2021-09-16,合同会社惠美商事,,合同会社,大阪府,大阪市西区,新町４丁目２１番７号,,27,106,5500013,,,,,,,2021-09-16,1,,,,,エミショウジ,0
179,1120901044900,新規,0,2021-09-16,2021-09-16,株式会社オフィス有田,,株式会社,大阪府,吹田市,竹見台４丁目１番５－３０１号,,27,205,5650863,,,,,,,2021-09-16,1,,,,,オフィスアリタ,0
190,1140001123058,新規,0,2021-09-16,2021-09-16,株式会社ＰＵＴ,,株式会社,兵庫県,神戸市中央区,楠町６丁目３番５号,,28,110,6500017,,,,,,,2021-09-16,1,,,,,プット,0
205,1180001147862,新規,0,2021-09-16,2021-09-16,株式会社小岩工業,,株式会社,愛知県,名古屋市港区,十一屋２丁目３８７番地の４,,23,111,4550831,,,,,,,2021-09-16,1,,,,,コイワコウギョウ,0
208,1180003022964,新規,0,2021-09-16,2021-09-16,合同会社くりあすとりーむ,,合同会社,愛知県,名古屋市緑区,大高台２丁目１０１番地１０,,23,114,4598003,,,,,,,2021-09-16,1,,,,,クリアストリーム,0
214,1200005013249,新規,0,2021-09-16,2021-09-16,特定非営利活動法人全国動物避難所協会,,その他の設立登記法人,岐阜県,岐阜市,岩地２丁目４番３号,,21,201,5008225,,,,,,,2021-09-16,1,,,,,ゼンコクドウブツヒナンジョキョウカイ,0
219,1240001058582,新規,0,2021-09-16,2021-09-16,ＩＴｂｏｏｋひろしま株式会社,,株式会社,広島県,山県郡安芸太田町,大字津浪７８５番地２,,34,368,7313502,,,,,,,2021-09-16,1,,,,,アイティーブックヒロシマ,0
220,1240001058616,新規,0,2021-09-16,2021-09-16,株式会社ＹＯＳＨＩＴＡＫＡ,,株式会社,広島県,広島市安佐南区,緑井２丁目２９番１１号,,34,105,7310103,,,,,,,2021-09-16,1,,,,,ヨシタカ,0
231,1290001094631,新規,0,2021-09-16,2021-09-16,株式会社９９ＮＥＥＤＳ,,株式会社,福岡県,福岡市東区,多の津５丁目２０番２５－１号,,40,131,8130034,,,,,,,2021-09-16,1,,,,,キュウキュウニーズ,0
232,1290001094648,新規,0,2021-09-16,2021-09-16,株式会社エージェントプラス,,株式会社,福岡県,福岡市博多区,博多駅前２丁目１３番３号,,40,132,8120011,,,,,,,2021-09-16,1,,,,,エージェントプラス,0
233,1290001094672,新規,0,2021-09-16,2021-09-16,住まいとお金の相談窓口株式会社,,株式会社,福岡県,春日市,大谷８丁目１２２番地,,40,218,8160831,,,,,,,2021-09-16,1,,,,,スマイトオカネノソウダンマドグチ,0
234,1290003011568,新規,0,2021-09-16,2021-09-16,Ｇブレイン合同会社,,合同会社,福岡県,福岡市中央区,天神２丁目４－５,,40,133,8100001,,,,,,,2021-09-16,1,,,,,ジーブレイン,0
235,1290003011626,新規,0,2021-09-16,2021-09-16,すまいるらいふ合同会社,,合同会社,福岡県,糟屋郡新宮町,夜臼４丁目８番１７号メゾネット新宮Ａ,,40,345,8110110,,,,,,,2021-09-16,1,,,,,スマイルライフ,0
243,1300001012632,新規,0,2021-09-16,2021-09-16,Ｌｏｔｕｓ株式会社,,株式会社,佐賀県,佐賀市,東与賀町大字田中１０１０番地,,41,201,8402222,,,,,,,2021-09-16,1,,,,,ロータス,0
255,1330005010398,新規,0,2021-09-16,2021-09-16,ＮＰＯ法人自立生活支援熊本ほほえみの会,,その他の設立登記法人,熊本県,熊本市東区,錦ケ丘１６－１２－１階,,43,102,8620912,,,,,,,2021-09-16,1,,,,,ジリツセイカツシエンクマモトホホエミノカイ,0
257,1350003003922,新規,0,2021-09-16,2021-09-16,合同会社虹の色,,合同会社,宮崎県,日向市,大字富高３１８番地山本アパート西の２,,45,206,8830034,,,,,,,2021-09-16,1,,,,,ニジノイロ,0
258,1360003011445,新規,0,2021-09-16,2021-09-16,合同会社琉美エンタープライズ,,合同会社,沖縄県,那覇市,金城３丁目１０番５号ルピナス２Ｆ,,47,201,9010155,,,,,,,2021-09-16,1,,,,,リュウビエンタープライズ,0
263,1380003005008,新規,0,2021-09-16,2021-09-16,合同会社サンライズ,,合同会社,福島県,須賀川市,森宿字下宿１３４番地２１,,07,207,9620001,,,,,,,2021-09-16,1,,,,,サンライズ,0
268,1400001015600,新規,0,2021-09-16,2021-09-16,株式会社アグリ・セイコウ,,株式会社,岩手県,一関市,末広１丁目７番３８号,,03,209,0210032,,,,,,,2021-09-16,1,,,,,アグリセイコウ,0
271,1420001017586,新規,0,2021-09-16,2021-09-16,和魂洋才株式会社,,株式会社,青森県,弘前市,大字小沢字御笠見２６番地２,,02,202,0368243,,,,,,,2021-09-16,1,,,,,ワコンヨウサイ,0
276,1430003013153,新規,0,2021-09-16,2021-09-16,合同会社ＩＭＩＣＳ,,合同会社,北海道,札幌市中央区,南十八条西１６丁目１番１－２０６号,,01,101,0640918,,,,,,,2021-09-16,1,,,,,アイミックス,0
278,1480001011492,新規,0,2021-09-16,2021-09-16,株式会社カナザワ,,株式会社,徳島県,徳島市,国府町早淵２３７番地の３,,36,201,7793125,,,,,,,2021-09-16,1,,,,,カナザワ,0
281,1700150104784,新規,0,2021-09-16,2021-09-16,尼崎市認可地縁団体東園田町会,,その他,兵庫県,尼崎市,東園田町４丁目９４番地の２,,28,202,6610953,,,,,,,2021-09-16,1,,,,,アマガサキシニンカチエンダンタイヒガシソノダチヨウカイ,0
290,2010001220882,新規,0,2021-09-16,2021-09-16,株式会社ＴＲＹＺＥＮ,,株式会社,東京都,千代田区,九段南１丁目５番６号りそな九段ビル５階ＫＳフロア,,13,101,1020074,,,,,,,2021-09-16,1,,,,,トライゼン,0
300,2010403026127,新規,0,2021-09-16,2021-09-16,Ｄホテル札幌合同会社,,合同会社,東京都,港区,元赤坂１丁目１番７号,,13,103,1070051,,,,,,,2021-09-16,1,,,,,ディーホテルサッポロ,0
301,2010405020227,新規,0,2021-09-16,2021-09-16,ジャパンインフラホールディングス１４号一般社団法人,,その他の設立登記法人,東京都,港区,元赤坂１丁目１番７号,,13,103,1070051,,,,,,,2021-09-16,1,,,,,ジャパンインフラホールディングスジュウヨンゴウ,0
304,2010601059944,新規,0,2021-09-16,2021-09-16,ＧＡＲＵＵＵ株式会社,,株式会社,東京都,墨田区,文花１丁目１８番１３号,,13,107,1310044,,,,,,,2021-09-16,1,,,,,ガルゥー,0
306,2010603009162,新規,0,2021-09-16,2021-09-16,ＮＡＫＫＡ合同会社,,合同会社,東京都,墨田区,石原２丁目１１番５号シティハイム石原３０２,,13,107,1300011,,,,,,,2021-09-16,1,,,,,ナッカ,0
307,2010701041513,新規,0,2021-09-16,2021-09-16,株式会社ＳＹＹＳ,,株式会社,東京都,品川区,旗の台４丁目５番１７号,,13,109,1420064,,,,,,,2021-09-16,1,,,,,エスワイワイエス,0
313,2010801032321,新規,0,2021-09-16,2021-09-16,株式会社ＫＢＳコンサルタント,,株式会社,東京都,大田区,大森北６丁目３１番５号,,13,111,1430016,,,,,,,2021-09-16,1,,,,,ケービーエスコンサルタント,0
315,2010901049447,新規,0,2021-09-16,2021-09-16,株式会社ＴＹｖｅｔ,,株式会社,東京都,世田谷区,等々力１丁目３４番１８号シュロス等々力３０１,,13,112,1580082,,,,,,,2021-09-16,1,,,,,ティーワイベッツ,0
316,2010901049455,新規,0,2021-09-16,2021-09-16,株式会社グリーンイーツ,,株式会社,東京都,世田谷区,若林２丁目３７番６号,,13,112,1540023,,,,,,,2021-09-16,1,,,,,グリーンイーツ,0
317,2010903006801,新規,0,2021-09-16,2021-09-16,合同会社エヴェレカンパニー,,合同会社,東京都,世田谷区,経堂５丁目３番２９号,,13,112,1560052,,,,,,,2021-09-16,1,,,,,エヴェレカンパニー,0
325,2011301027183,新規,0,2021-09-16,2021-09-16,ｏｎｓａ株式会社,,株式会社,東京都,杉並区,宮前５丁目１４番１７号,,13,115,1680081,,,,,,,2021-09-16,1,,,,,オンサ,0
329,2011501027314,新規,0,2021-09-16,2021-09-16,株式会社明来,,株式会社,東京都,北区,赤羽１丁目５５番６号,,13,117,1150045,,,,,,,2021-09-16,1,,,,,アキ,0
332,2012303001589,新規,0,2021-09-16,2021-09-16,Ｔ＆Ａｓｓｏｃｉａｔｅ合同会社,,合同会社,東京都,町田市,金森７丁目９番３４号１０１,,13,209,1940012,,,,,,,2021-09-16,1,,,,,ティーアンドアソシエイト,0
335,2012801021089,新規,0,2021-09-16,2021-09-16,株式会社村内コーポレーション,,株式会社,東京都,武蔵村山市,中藤１丁目１９番地の７,,13,223,2080001,,,,,,,2021-09-16,1,,,,,ムラウチコーポレーション,0
354,2020001142985,新規,0,2021-09-16,2021-09-16,株式会社ＣｒｅＶａｌｕｅ,,株式会社,神奈川県,横浜市鶴見区,佃野町２３番２３号,,14,101,2300061,,,,,,,2021-09-16,1,,,,,クレバリュー,0
355,2020001143001,新規,0,2021-09-16,2021-09-16,シーサイドグループ株式会社,,株式会社,神奈川県,横浜市港北区,菊名１丁目１１－３ドゥエル甲斐１Ｆ店舗,,14,109,2220011,,,,,,,2021-09-16,1,,,,,シーサイドグループ,0
356,2020001143018,新規,0,2021-09-16,2021-09-16,株式会社ＭＡＣＨＩＤＡ,,株式会社,神奈川県,横浜市戸塚区,品濃町９４６番地２,,14,110,2440801,,,,,,,2021-09-16,1,,,,,マチダ,0
357,2020001143034,新規,0,2021-09-16,2021-09-16,ステーブル株式会社,,株式会社,神奈川県,横浜市戸塚区,前田町５０６番地３ガーデンハウス東戸塚Ｂ棟１０２号,,14,110,2440804,,,,,,,2021-09-16,1,,,,,ステーブル,0
358,2020001143059,新規,0,2021-09-16,2021-09-16,株式会社京光商事,,株式会社,神奈川県,横浜市青葉区,美しが丘５丁目２９番地３,,14,117,2250002,,,,,,,2021-09-16,1,,,,,キョウミツシヨウジ,0
362,2021001073964,新規,0,2021-09-16,2021-09-16,株式会社ＮＡＧＡＳＡＫＩ,,株式会社,神奈川県,海老名市,社家３丁目１９－１５,,14,215,2430424,,,,,,,2021-09-16,1,,,,,ナガサキ,0
365,2021003010899,新規,0,2021-09-16,2021-09-16,リポットガーデン合同会社,,合同会社,神奈川県,小田原市,北ノ窪４２０－９,,14,206,2500051,,,,,,,2021-09-16,1,,,,,リポットガーデン,0
371,2030001144329,新規,0,2021-09-16,2021-09-16,グリーンハート株式会社,,株式会社,埼玉県,越谷市,弥栄町２丁目５１４番１３１号,,11,222,3430046,,,,,,,2021-09-16,1,,,,,グリーンハート,0
373,2030003017961,新規,0,2021-09-16,2021-09-16,マスター国際合同会社,,合同会社,埼玉県,蕨市,北町１丁目１６番１３号本田マンション２号棟１１５,,11,223,3350001,,,,,,,2021-09-16,1,,,,,マスターコクサイ,0
378,2040001120196,新規,0,2021-09-16,2021-09-16,株式会社ＤＡＹＭＡＤＥ,,株式会社,千葉県,市川市,高石神２５番１２号,,12,203,2720814,,,,,,,2021-09-16,1,,,,,デイメイド,0
379,2040001120213,新規,0,2021-09-16,2021-09-16,ライフワン株式会社,,株式会社,千葉県,千葉市若葉区,加曽利町１８００番地３４,,12,104,2640017,,,,,,,2021-09-16,1,,,,,ライフワン,0
383,2050005012934,新規,0,2021-09-16,2021-09-16,医療法人茨城不妊センター,,その他の設立登記法人,茨城県,水戸市,三の丸３丁目１１番１号,,08,201,3100011,,,,,,,2021-09-16,1,,,,,イバラキフニンセンター,0
386,2060001034056,新規,0,2021-09-16,2021-09-16,株式会社ダブリュー,,株式会社,栃木県,大田原市,浅香３丁目３５７８浅香サンコーポ７号１０１,,09,210,3240043,,,,,,,2021-09-16,1,,,,,,0
387,2060001034097,新規,0,2021-09-16,2021-09-16,さくらビズ株式会社,,株式会社,栃木県,那須郡那珂川町,矢又１２５５,,09,411,3240607,,,,,,,2021-09-16,1,,,,,,0
393,2080101022768,新規,0,2021-09-16,2021-09-16,株式会社日誠ロジスティクス,,株式会社,静岡県,富士宮市,小泉２２１７番地の１,,22,207,4180022,,,,,,,2021-09-16,1,,,,,ニッセイロジスティクス,0
399,2090003001943,新規,0,2021-09-16,2021-09-16,合同会社スマイルサポート,,合同会社,山梨県,笛吹市,石和町駅前１２番地３,,19,211,4060028,,,,,,,2021-09-16,1,,,,,,0
401,2100003006230,新規,0,2021-09-16,2021-09-16,ＳＨＯＮＥＮ合同会社,,合同会社,長野県,東筑摩郡生坂村,上生坂６３３９,,20,448,3997200,,,,,,,2021-09-16,1,,,,,ショウネン,0
413,2120001240390,新規,0,2021-09-16,2021-09-16,株式会社シティクリエイト,,株式会社,大阪府,大阪市北区,豊崎３丁目８番５－１００３号,,27,127,5310072,,,,,,,2021-09-16,1,,,,,シティクリエイト,0
414,2120001240432,新規,0,2021-09-16,2021-09-16,株式会社小倉工務店,,株式会社,大阪府,枚方市,茄子作３丁目８番１－２０３号,,27,210,5730071,,,,,,,2021-09-16,1,,,,,オグラコウムテン,0
415,2120001240465,新規,0,2021-09-16,2021-09-16,株式会社ＧＨ　Ｌａｂ．,,株式会社,大阪府,大阪市福島区,福島６丁目３番２－９０３号,,27,103,5530003,,,,,,,2021-09-16,1,,,,,ジーエイチラボ,0
422,2120003020196,新規,0,2021-09-16,2021-09-16,合同会社アース,,合同会社,大阪府,大阪市北区,西天満５丁目１３－１１シェルディ東梅田４０３号,,27,127,5300047,,,,,,,2021-09-16,1,,,,,アース,0
423,2120003020221,新規,0,2021-09-16,2021-09-16,ジクウ合同会社,,合同会社,大阪府,大阪市北区,梅田１丁目２番２－２００号大阪駅前第２ビル２階３の１の２,,27,127,5300001,,,,,,,2021-09-16,1,,,,,ジクウ,0
424,2120003020254,新規,0,2021-09-16,2021-09-16,合同会社訪問看護ステーションバディ,,合同会社,大阪府,枚方市,新之栄町１９番９号,,27,210,5731166,,,,,,,2021-09-16,1,,,,,ホウモンカンゴステーションバディ,0
425,2120003020262,新規,0,2021-09-16,2021-09-16,ブリッジオフィス合同会社,,合同会社,大阪府,大阪市淀川区,西中島６丁目２番３号,,27,123,5320011,,,,,,,2021-09-16,1,,,,,ブリッジオフィス,0
434,2130001070119,新規,0,2021-09-16,2021-09-16,株式会社ｍｅｒｉｘ,,株式会社,京都府,京都市下京区,綾小路通烏丸東入る竹屋之町２５１番地２,,26,106,6000000,,,,,,,2021-09-16,1,,,,,メリックス,0
439,2140001122991,新規,0,2021-09-16,2021-09-16,株式会社ｐｌａｙ,,株式会社,兵庫県,豊岡市,船谷２９６番地,,28,209,6680076,,,,,,,2021-09-16,1,,,,,プレイ,0
440,2140001123065,新規,0,2021-09-16,2021-09-16,センティアＨＲ株式会社,,株式会社,兵庫県,神戸市中央区,伊藤町１１０番地２,,28,110,6500032,,,,,,,2021-09-16,1,,,,,センティアエイチアール,0
447,2150001024923,新規,0,2021-09-16,2021-09-16,株式会社Ｓｕｐｐｏｒｔ　Ｈｏｕｓｅみつる会,,株式会社,奈良県,奈良市,東九条町５１１番地の１,,29,201,6308144,,,,,,,2021-09-16,1,,,,,サポートハウスミツルカイ,0
449,2170001016778,新規,0,2021-09-16,2021-09-16,株式会社ＭＳ興産,,株式会社,和歌山県,和歌山市,吹上４丁目３番１７号,,30,201,6408137,,,,,,,2021-09-16,1,,,,,エムエスコウサン,0
458,2180001147837,新規,0,2021-09-16,2021-09-16,株式会社ウェルケア,,株式会社,愛知県,名古屋市中川区,二女子町７丁目８３番地,,23,110,4540036,,,,,,,2021-09-16,1,,,,,ウェルケア,0
459,2180001147861,新規,0,2021-09-16,2021-09-16,株式会社Ｏｎｅ　Ｃｈｅｍｉｃａｌ　Ｃｏｍｐａｎｙ,,株式会社,愛知県,名古屋市西区,新道１丁目１９番３２号第３泰水堂ビル４階,,23,104,4510043,,,,,,,2021-09-16,1,,,,,ワンケミカルカンパニー,0
467,2200001039098,新規,0,2021-09-16,2021-09-16,株式会社ＧａＢａ,,株式会社,岐阜県,土岐市,妻木町３０８９番１０,,21,212,5095301,,,,,,,2021-09-16,1,,,,,ガバ,0
477,2240003005276,新規,0,2021-09-16,2021-09-16,ＭＵＳＥＳ合同会社,,合同会社,広島県,広島市南区,京橋町１番７号アスティ広島京橋ビルディング,,34,103,7320828,,,,,,,2021-09-16,1,,,,,ミューズ,0
479,2250001019137,新規,0,2021-09-16,2021-09-16,株式会社烏兎匆匆,,株式会社,山口県,岩国市,周東町差川４８９番地,,35,208,7420424,,,,,,,2021-09-16,1,,,,,ウトソウソウ,0
480,2250003002900,新規,0,2021-09-16,2021-09-16,合同会社Ｅ．,,合同会社,山口県,宇部市,則貞１丁目３－３３,,35,202,7550003,,,,,,,2021-09-16,1,,,,,イードット,0
484,2270001008360,新規,0,2021-09-16,2021-09-16,株式会社ＨＡＳＵＮＡＢＥ,,株式会社,鳥取県,倉吉市,清谷４０９番１地,,31,203,6820012,,,,,,,2021-09-16,1,,,,,ハスナビ,0
495,2290001094671,新規,0,2021-09-16,2021-09-16,株式会社Ａ－ＯＮＥ,,株式会社,福岡県,福岡市博多区,中洲３丁目５番１号,,40,132,8100801,,,,,,,2021-09-16,1,,,,,エーワン,0
497,2290003011633,新規,0,2021-09-16,2021-09-16,合同会社パーフェクト,,合同会社,福岡県,福岡市博多区,中洲１丁目５番１５号,,40,132,8100801,,,,,,,2021-09-16,1,,,,,パーフェクト,0
509,2360001029380,新規,0,2021-09-16,2021-09-16,株式会社ゴールドソイル,,株式会社,沖縄県,豊見城市,字翁長７９９番地２,,47,212,9010223,,,,,,,2021-09-16,1,,,,,ゴールドソイル,0
520,2390001016599,新規,0,2021-09-16,2021-09-16,株式会社ＢＲＵＳＨ‐ＵＰ,,株式会社,山形県,西置賜郡白鷹町,大字荒砥乙４１４番地１,,06,402,9920832,,,,,,,2021-09-16,1,,,,,ブラッシュアップ,0
523,2420001017585,新規,0,2021-09-16,2021-09-16,満月堂商会株式会社,,株式会社,青森県,青森市,新町１丁目８番３号,,02,201,0300801,,,,,,,2021-09-16,1,,,,,マンゲツドウショウカイ,0
527,2430001084988,新規,0,2021-09-16,2021-09-16,株式会社エゾ・コメルス,,株式会社,北海道,札幌市中央区,北四条西１２丁目１番地２８北４条ビル５０３,,01,101,0600004,,,,,,,2021-09-16,1,,,,,エゾコメルス,0
529,2470003002036,新規,0,2021-09-16,2021-09-16,合同会社八や,,合同会社,香川県,丸亀市,大手町３丁目１１番２号,,37,202,7630034,,,,,,,2021-09-16,1,,,,,ハチヤ,0
538,3010001220824,新規,0,2021-09-16,2021-09-16,株式会社ｒｍｃ,,株式会社,東京都,中央区,銀座２丁目４番１８号,,13,102,1040061,,,,,,,2021-09-16,1,,,,,アールエムシー,0
539,3010001221186,新規,0,2021-09-16,2021-09-16,ＧＷＧ株式会社,,株式会社,東京都,千代田区,九段南３丁目６番４－６０１号,,13,101,1020074,,,,,,,2021-09-16,1,,,,,ジーダブリュージー,0
540,3010003035849,新規,0,2021-09-16,2021-09-16,合同会社ＡＶＥＮＤ,,合同会社,東京都,千代田区,九段南１丁目５番６号りそな九段ビル５ＦＫＳフロア,,13,101,1020074,,,,,,,2021-09-16,1,,,,,アベンド,0
541,3010003035857,新規,0,2021-09-16,2021-09-16,ＨＵＴ合同会社,,合同会社,東京都,千代田区,神田鍛冶町３丁目７番２１号リアルブルーキャピタル合同会社内,,13,101,1010045,,,,,,,2021-09-16,1,,,,,ハット,0
553,3010401162666,新規,0,2021-09-16,2021-09-16,株式会社アドバンスト,,株式会社,東京都,港区,北青山３丁目６番７号青山パラシオタワー１１Ｆ,,13,103,1070061,,,,,,,2021-09-16,1,,,,,アドバンスト,0
554,3010401162732,新規,0,2021-09-16,2021-09-16,株式会社おがの,,株式会社,東京都,港区,三田５丁目７番１２号,,13,103,1080073,,,,,,,2021-09-16,1,,,,,オガノ,0
558,3010405020226,新規,0,2021-09-16,2021-09-16,Ｄホテル札幌ホールディングス一般社団法人,,その他の設立登記法人,東京都,港区,元赤坂１丁目１番７号,,13,103,1070051,,,,,,,2021-09-16,1,,,,,ディーホテルサッポロホールディングス,0
559,3010501047841,新規,0,2021-09-16,2021-09-16,株式会社ＭＡＤＥ　ＭＡＮ,,株式会社,東京都,台東区,台東１丁目３８番９号イトーピア清洲橋ビル５階４１号室,,13,106,1100016,,,,,,,2021-09-16,1,,,,,メイドマン,0
561,3010605003996,新規,0,2021-09-16,2021-09-16,特定非営利活動法人いのちのネットワーク江東,,その他の設立登記法人,東京都,江東区,富岡２丁目１０番１２－７０３号,,13,108,1350047,,,,,,,2021-09-16,1,,,,,イノチノネットワークコオトオ,0
567,3010803003889,新規,0,2021-09-16,2021-09-16,エートスライド合同会社,,合同会社,東京都,大田区,山王２丁目１７番９号１Ｆ,,13,111,1430023,,,,,,,2021-09-16,1,,,,,エートスライド,0
568,3010901049421,新規,0,2021-09-16,2021-09-16,株式会社トレビナ,,株式会社,東京都,世田谷区,上祖師谷１丁目５番３号,,13,112,1570065,,,,,,,2021-09-16,1,,,,,トレビナ,0
569,3010901049446,新規,0,2021-09-16,2021-09-16,株式会社ＯＶＡＯ,,株式会社,東京都,世田谷区,玉川２丁目１５番１２号,,13,112,1580094,,,,,,,2021-09-16,1,,,,,オバオ,0
570,3010905004208,新規,0,2021-09-16,2021-09-16,医療法人社団三六九会,,その他の設立登記法人,東京都,世田谷区,奥沢５丁目２５番９号インディペンデンスビル４階,,13,112,1580083,,,,,,,2021-09-16,1,,,,,ミロクカイ,0
578,3011001142810,新規,0,2021-09-16,2021-09-16,株式会社ブラッジ,,株式会社,東京都,渋谷区,恵比寿１丁目２５－３－２０２,,13,113,1500013,,,,,,,2021-09-16,1,,,,,ブラッジ,0
580,3011005009213,新規,0,2021-09-16,2021-09-16,医療法人社団英祐会,,その他の設立登記法人,東京都,目黒区,祐天寺２丁目２０番９号三橋ビル１階,,13,110,1530052,,,,,,,2021-09-16,1,,,,,エイユウカイ,0
585,3011401023676,新規,0,2021-09-16,2021-09-16,株式会社ピコア,,株式会社,東京都,板橋区,成増３丁目１０番１９号,,13,119,1750094,,,,,,,2021-09-16,1,,,,,ピコア,0
586,3011605002402,新規,0,2021-09-16,2021-09-16,一般社団法人沖縄学童疎開船対馬丸こども未来平和基金,,その他の設立登記法人,東京都,練馬区,桜台１丁目３４番１０号,,13,120,1760002,,,,,,,2021-09-16,1,,,,,オキナワガクドウソカイセンツシママルコドモミライヘイワキキン,0
588,3012301012711,新規,0,2021-09-16,2021-09-16,ＩＷＡＳＡＫＩコンサルティング株式会社,,株式会社,東京都,町田市,原町田３丁目１７番１７号,,13,209,1940013,,,,,,,2021-09-16,1,,,,,イワサキコンサルティング,0
592,3013301048010,新規,0,2021-09-16,2021-09-16,株式会社ふわふわ,,株式会社,東京都,豊島区,南池袋２丁目８番１号角田ビル７Ｆ,,13,116,1710022,,,,,,,2021-09-16,1,,,,,フワフワ,0
593,3013301048019,新規,0,2021-09-16,2021-09-16,子実芸術学院株式会社,,株式会社,東京都,豊島区,高田３丁目１８番９号マリビル３０１号室,,13,116,1710033,,,,,,,2021-09-16,1,,,,,コノミゲイジュツガクイン,0
604,3020001143025,新規,0,2021-09-16,2021-09-16,テシ・ストラテジック・アソシエイツ株式会社,,株式会社,神奈川県,横浜市泉区,緑園４丁目３－１サンステージ緑園都市東の街５番館８０５,,14,116,2450002,,,,,,,2021-09-16,1,,,,,テシストラテジックアソシエイツ,0
605,3020001143033,新規,0,2021-09-16,2021-09-16,株式会社プログレス,,株式会社,神奈川県,横浜市港南区,笹下６丁目３８番５３号芙蓉ハイツ２０１,,14,111,2340052,,,,,,,2021-09-16,1,,,,,プログレス,0
606,3020001143041,新規,0,2021-09-16,2021-09-16,株式会社フォークロア,,株式会社,神奈川県,横浜市旭区,南希望が丘４７番地３,,14,112,2410824,,,,,,,2021-09-16,1,,,,,フォークロア,0
616,3020003020486,新規,0,2021-09-16,2021-09-16,ＲＩＶＥＲＵＰ　ＳＴＹＬＥ合同会社,,合同会社,神奈川県,横浜市港北区,新羽町４０９９番地１,,14,109,2230057,,,,,,,2021-09-16,1,,,,,リバーアップスタイル,0
617,3020003020494,新規,0,2021-09-16,2021-09-16,Ｗｏｒｋｉｎｇ　Ｇｒｏｕｐ　Ｔｗｏ合同会社,,合同会社,神奈川県,横浜市神奈川区,栄町５番地１横浜クリエーションスクエア１４Ｆ,,14,102,2210052,,,,,,,2021-09-16,1,,,,,ワーキンググループツー,0
629,3030003017960,新規,0,2021-09-16,2021-09-16,合同会社マルーク,,合同会社,埼玉県,ふじみ野市,緑ケ丘１丁目２番１０号,,11,245,3560043,,,,,,,2021-09-16,1,,,,,マルーク,0
631,3030005020525,新規,0,2021-09-16,2021-09-16,一般社団法人諏訪北開発,,その他の設立登記法人,埼玉県,桶川市,大字川田谷６６３４番地の２,,11,231,3630027,,,,,,,2021-09-16,1,,,,,スワキタカイハツ,0
637,3040001120195,新規,0,2021-09-16,2021-09-16,岩井株式会社,,株式会社,千葉県,松戸市,松戸１３０７番地の１松戸ビル,,12,207,2710092,,,,,,,2021-09-16,1,,,,,イワイ,0
638,3040001120204,新規,0,2021-09-16,2021-09-16,株式会社作奈,,株式会社,千葉県,柏市,大津ケ丘３丁目２１番地１,,12,217,2770921,,,,,,,2021-09-16,1,,,,,サナ,0
639,3040001120229,新規,0,2021-09-16,2021-09-16,株式会社ＧＩＫ,,株式会社,千葉県,柏市,大井１４６番地３８号,,12,217,2770902,,,,,,,2021-09-16,1,,,,,ジーアイケー,0
645,3040003018520,新規,0,2021-09-16,2021-09-16,合同会社三和建物,,合同会社,千葉県,香取郡多古町,北中２３８０番地１,,12,347,2892251,,,,,,,2021-09-16,1,,,,,サンワタテモノ,0
646,3040003018537,新規,0,2021-09-16,2021-09-16,合同会社ＴＳ国際,,合同会社,千葉県,白井市,河原子３１０番地１,,12,232,2701403,,,,,,,2021-09-16,1,,,,,ティエスコクサイ,0
647,3050003006086,新規,0,2021-09-16,2021-09-16,合同会社ウイング,,合同会社,茨城県,水戸市,泉町２丁目２番３３号水戸泉町ビル７Ｆ,,08,201,3100026,,,,,,,2021-09-16,1,,,,,ウイング,0
651,3080101022767,新規,0,2021-09-16,2021-09-16,株式会社日誠リサイクル,,株式会社,静岡県,富士宮市,小泉２２１７番地の１,,22,207,4180022,,,,,,,2021-09-16,1,,,,,ニッセイリサイクル,0
652,3080101022775,新規,0,2021-09-16,2021-09-16,株式会社伊豆の不動産屋さん,,株式会社,静岡県,賀茂郡西伊豆町,仁科５２１番地の１６６,,22,306,4103514,,,,,,,2021-09-16,1,,,,,イズノフドウサンヤサン,0
657,3080403004364,新規,0,2021-09-16,2021-09-16,ボリショイ物販合同会社,,合同会社,静岡県,浜松市中区,高丘北４丁目１３番２２号,,22,131,4338119,,,,,,,2021-09-16,1,,,,,ボリショイブッパン,0
662,3100001034612,新規,0,2021-09-16,2021-09-16,株式会社山庄ｗｏｒｋｓ,,株式会社,長野県,茅野市,湖東３６８０番地ロ,,20,214,3910211,,,,,,,2021-09-16,1,,,,,ヤマショウワークス,0
680,3120001240456,新規,0,2021-09-16,2021-09-16,株式会社Ｊｕｒｌｉｑｕｅ　ｐｌｕｓ,,株式会社,大阪府,大阪市中央区,南船場４丁目１２－９－８０１,,27,128,5420081,,,,,,,2021-09-16,1,,,,,ジュリークプラス,0
681,3120001240464,新規,0,2021-09-16,2021-09-16,Ｈａｚ　Ｃａｒｓ　Ｊａｐａｎ株式会社,,株式会社,大阪府,大阪市西成区,長橋３丁目５番２号１Ａ,,27,122,5570025,,,,,,,2021-09-16,1,,,,,ハズカーズジャパン,0
682,3120001240472,新規,0,2021-09-16,2021-09-16,株式会社レジリエンス,,株式会社,大阪府,大阪市中央区,高麗橋２丁目２番２号４階,,27,128,5410043,,,,,,,2021-09-16,1,,,,,レジリエンス,0
688,3120003020237,新規,0,2021-09-16,2021-09-16,ＭＴＧ合同会社,,合同会社,大阪府,大阪市西区,北堀江２丁目２－１１アジル北堀江８０１,,27,106,5500014,,,,,,,2021-09-16,1,,,,,エムティージー,0
689,3120003020253,新規,0,2021-09-16,2021-09-16,合同会社喜代,,合同会社,大阪府,大阪市鶴見区,横堤１丁目５番３８号,,27,124,5380052,,,,,,,2021-09-16,1,,,,,キヨ,0
690,3120003020261,新規,0,2021-09-16,2021-09-16,合同会社ゆず,,合同会社,大阪府,大阪市鶴見区,今津中４丁目５番１８号ライトオール鶴見２０１号室,,27,124,5380042,,,,,,,2021-09-16,1,,,,,ユズ,0
693,3120101064301,新規,0,2021-09-16,2021-09-16,株式会社いけべ８１１１,,株式会社,大阪府,和泉市,仏並町８１１番地の１,,27,219,5941136,,,,,,,2021-09-16,1,,,,,イケベハチイチイチイチ,0
700,3130001070118,新規,0,2021-09-16,2021-09-16,株式会社心希,,株式会社,京都府,京都市伏見区,桃山羽柴長吉東町６９番地,,26,109,6120065,,,,,,,2021-09-16,1,,,,,ココノ,0
714,3140001123064,新規,0,2021-09-16,2021-09-16,インアイスター株式会社,,株式会社,兵庫県,神戸市灘区,岩屋北町５丁目１番１０号レジデンス灘４０５,,28,102,6570846,,,,,,,2021-09-16,1,,,,,インアイスター,0
716,3140003016753,新規,0,2021-09-16,2021-09-16,合同会社スリーエイチ,,合同会社,兵庫県,尼崎市,塚口本町２丁目１０－２８,,28,202,6610001,,,,,,,2021-09-16,1,,,,,スリーエイチ,0
720,3150003002488,新規,0,2021-09-16,2021-09-16,芝口商事合同会社,,合同会社,奈良県,桜井市,大字吉備６３８番地の１,,29,206,6330065,,,,,,,2021-09-16,1,,,,,シバグチショウジ,0
731,3180001147860,新規,0,2021-09-16,2021-09-16,株式会社ｍａｎａ,,株式会社,愛知県,名古屋市名東区,勢子坊３丁目１６０７番地の３,,23,115,4650055,,,,,,,2021-09-16,1,,,,,マナ,0
739,3180301035377,新規,0,2021-09-16,2021-09-16,ＹＬＫＮ株式会社,,株式会社,愛知県,豊川市,堺町２丁目１５番地２,,23,207,4420836,,,,,,,2021-09-16,1,,,,,ワイエルケーエヌ,0
745,3240001058622,新規,0,2021-09-16,2021-09-16,ＴＲＹＴＥＣ株式会社,,株式会社,広島県,広島市中区,江波東１丁目５番１３号,,34,101,7300832,,,,,,,2021-09-16,1,,,,,トライテック,0
749,3260001035966,新規,0,2021-09-16,2021-09-16,株式会社カナミツ建設,,株式会社,岡山県,岡山市中区,御成町１番２号,,33,102,7038277,,,,,,,2021-09-16,1,,,,,カナミツケンセツ,0
756,3290001094662,新規,0,2021-09-16,2021-09-16,株式会社レーサム福岡,,株式会社,福岡県,福岡市中央区,今泉１丁目２番８号,,40,133,8100021,,,,,,,2021-09-16,1,,,,,レーサムフクオカ,0
757,3290001094679,新規,0,2021-09-16,2021-09-16,株式会社ＭＩＷ,,株式会社,福岡県,福岡市中央区,春吉３丁目２１番２１号春野ビル８０５号,,40,133,8100003,,,,,,,2021-09-16,1,,,,,ミウ,0
760,3290801027805,新規,0,2021-09-16,2021-09-16,総合リサイクルコンサル株式会社,,株式会社,福岡県,田川郡福智町,伊方２４７７番地１２,,40,610,8221211,,,,,,,2021-09-16,1,,,,,ソウゴウリサイクルコンサル,0
761,3290803003928,新規,0,2021-09-16,2021-09-16,彦縁合同会社,,合同会社,福岡県,北九州市小倉北区,須賀町３番９－１０２号,,40,106,8020034,,,,,,,2021-09-16,1,,,,,イーエン,0
762,3300001012630,新規,0,2021-09-16,2021-09-16,山﨑建築株式会社,00124261,株式会社,佐賀県,藤津郡太良町,大字多良６４２２番地,,41,441,8491602,,,,,,,2021-09-16,1,,,,,ヤマサキケンチク,0
787,3430001084987,新規,0,2021-09-16,2021-09-16,マリーゴールド株式会社,,株式会社,北海道,札幌市北区,北三十二条西５丁目３番２８号,,01,102,0010032,,,,,,,2021-09-16,1,,,,,マリーゴールド,0
798,4010001221144,新規,0,2021-09-16,2021-09-16,東和オペレーションワークス株式会社,,株式会社,東京都,千代田区,東神田１丁目７番８号,,13,101,1010031,,,,,,,2021-09-16,1,,,,,トーワオペレーションワークス,0
806,4010003035848,新規,0,2021-09-16,2021-09-16,ＡｄａｐｔｉｖｅＮｏｄｅ合同会社,,合同会社,東京都,千代田区,二番町９－３ＴＨＥＢＡＳＥ麹町１Ｆ,,13,101,1020084,,,,,,,2021-09-16,1,,,,,アダプティブノード,0
818,4010403026075,新規,0,2021-09-16,2021-09-16,ＦＳＲ　ＡＮＧＥＬ１合同会社,,合同会社,東京都,港区,芝公園３丁目４番３０号３２芝公園ビルＲｏｇｅｒｓ　Ｉｎｖｅｓｔｍｅｎｔ　Ａｄｖｉｓｏｒｓ株式会社内,,13,103,1050011,,,,,,,2021-09-16,1,,,,,エフエスアールエンジェルイチ,0
819,4010403026133,新規,0,2021-09-16,2021-09-16,合同会社Ｈ＆Ａ,,合同会社,東京都,港区,赤坂６丁目１０番９号氷川坂ホームズ２０２,,13,103,1070052,,,,,,,2021-09-16,1,,,,,エイチアンドエー,0
821,4010501047840,新規,0,2021-09-16,2021-09-16,株式会社アシスト,,株式会社,東京都,台東区,竜泉１丁目９番１号,,13,106,1100012,,,,,,,2021-09-16,1,,,,,アシスト,0
824,4010703005943,新規,0,2021-09-16,2021-09-16,合同会社Ｓｏｌ,,合同会社,東京都,品川区,東五反田２丁目９番１－５０８号,,13,109,1410022,,,,,,,2021-09-16,1,,,,,ソル,0
830,4010901049461,新規,0,2021-09-16,2021-09-16,株式会社ｆｉｎｏｊｅｃｔ,,株式会社,東京都,世田谷区,桜丘２丁目８番３０－７１２号,,13,112,1560054,,,,,,,2021-09-16,1,,,,,フィノジェクト,0
831,4010905004207,新規,0,2021-09-16,2021-09-16,医療法人社団ＦＤＣ,,その他の設立登記法人,東京都,世田谷区,駒沢２丁目５９番８号１階,,13,112,1540012,,,,,,,2021-09-16,1,,,,,エフディーシー,0
835,4011001142438,新規,0,2021-09-16,2021-09-16,ＡＭｅｗＺ株式会社,,株式会社,東京都,渋谷区,桜丘町２３番１７号シティコート桜丘４０８,,13,113,1500031,,,,,,,2021-09-16,1,,,,,アミューズ,0
845,4011201023248,新規,0,2021-09-16,2021-09-16,ホクイチ株式会社,,株式会社,東京都,中野区,東中野４丁目２０番１９号,,13,114,1640003,,,,,,,2021-09-16,1,,,,,ホクイチ,0
846,4011203003628,新規,0,2021-09-16,2021-09-16,合同会社ＨＡＫＵＭＡ,,合同会社,東京都,中野区,江古田１丁目３７－１１ミッドコート中野１０１,,13,114,1650022,,,,,,,2021-09-16,1,,,,,ハクマ,0
847,4011301027181,新規,0,2021-09-16,2021-09-16,スプリング・アドバイザリー株式会社,,株式会社,東京都,杉並区,和泉２丁目４５番１９号,,13,115,1680063,,,,,,,2021-09-16,1,,,,,スプリングアドバイザリー,0
853,4011503004895,新規,0,2021-09-16,2021-09-16,蒼晴建装合同会社,,合同会社,東京都,荒川区,町屋３丁目２番１号Ｂ１Ｆ,,13,118,1160001,,,,,,,2021-09-16,1,,,,,ソウセイケンソウ,0
855,4011803004777,新規,0,2021-09-16,2021-09-16,ＫＲ合同会社,,合同会社,東京都,葛飾区,新小岩五丁目１４番１０号１０１号室,,13,122,1240000,,,,,,,2021-09-16,1,,,,,ケーアール,0
873,4020001143008,新規,0,2021-09-16,2021-09-16,株式会社熊建,,株式会社,神奈川県,横浜市戸塚区,南舞岡４丁目２７番１７号,,14,110,2440814,,,,,,,2021-09-16,1,,,,,,0
881,4020005015203,新規,0,2021-09-16,2021-09-16,一般社団法人古民家移築推進機構,,その他の設立登記法人,神奈川県,横浜市西区,みなとみらい３丁目６番１号,,14,103,2200012,,,,,,,2021-09-16,1,,,,,,0
887,4021001073970,新規,0,2021-09-16,2021-09-16,株式会社相和メディカル,,株式会社,神奈川県,相模原市緑区,大島字下沖原１７５２番地,,14,151,2520135,,,,,,,2021-09-16,1,,,,,ソウワメディカル,0
896,4030001144368,新規,0,2021-09-16,2021-09-16,株式会社ＡＢＩＨＡ　ＴＲＡＤＩＮＧ,,株式会社,埼玉県,北葛飾郡杉戸町,大字木野川４６２番地２３０,,11,464,3450003,,,,,,,2021-09-16,1,,,,,アビハトレーディング,0
902,4030003017968,新規,0,2021-09-16,2021-09-16,合同会社トリコワークス,,合同会社,埼玉県,さいたま市見沼区,大字大谷７８６－１,,11,104,3370014,,,,,,,2021-09-16,1,,,,,トリコワークス,0
904,4030005020524,新規,0,2021-09-16,2021-09-16,行政書士法人ひらの事務所,,その他の設立登記法人,埼玉県,川口市,中青木３丁目５番８号,,11,203,3320032,,,,,,,2021-09-16,1,,,,,ヒラノジムショ,0
913,4040001120186,新規,0,2021-09-16,2021-09-16,株式会社仁興業,,株式会社,千葉県,野田市,野田５６９番地の１,,12,208,2780037,,,,,,,2021-09-16,1,,,,,ジンコウギョウ,0
914,4040001120211,新規,0,2021-09-16,2021-09-16,株式会社Ｍｏｍｅｎｔ,,株式会社,千葉県,船橋市,葛飾町２丁目３７６番地２－９０２号,,12,204,2730032,,,,,,,2021-09-16,1,,,,,モーメント,0
917,4040003018544,新規,0,2021-09-16,2021-09-16,合同会社財務コンサルファーム,,合同会社,千葉県,印西市,大森２２９６番地,,12,231,2701327,,,,,,,2021-09-16,1,,,,,ザイムコンサルファーム,0
920,4060003003809,新規,0,2021-09-16,2021-09-16,アクトジャパン合同会社,,合同会社,栃木県,小山市,神山１丁目４番１４号,,09,208,3230828,,,,,,,2021-09-16,1,,,,,アクトジャパン,0
921,4070001038434,新規,0,2021-09-16,2021-09-16,株式会社竹内設備,,株式会社,群馬県,高崎市,新町１５６８番地２,,10,202,3701301,,,,,,,2021-09-16,1,,,,,タケウチセツビ,0
922,4070001038442,新規,0,2021-09-16,2021-09-16,株式会社テクサス,,株式会社,群馬県,藤岡市,上栗須２２１番地１,,10,209,3750016,,,,,,,2021-09-16,1,,,,,テクサス,0
923,4070003004228,新規,0,2021-09-16,2021-09-16,合同会社Ｚｅｒｏ　Ｓｔａｒ,,合同会社,群馬県,前橋市,表町２丁目３０番３号ハーモニービル４階Ｂ,,10,201,3710024,,,,,,,2021-09-16,1,,,,,ゼロスター,0
928,4080401025345,新規,0,2021-09-16,2021-09-16,株式会社プラウドデザイン,,株式会社,静岡県,浜松市東区,積志町１５９番地の２プラウド１０３号室,,22,132,4313114,,,,,,,2021-09-16,1,,,,,プラウドデザイン,0
938,4100001034611,新規,0,2021-09-16,2021-09-16,株式会社宮澤工業,,株式会社,長野県,埴科郡坂城町,大字坂城１０２８２番地,,20,521,3890601,,,,,,,2021-09-16,1,,,,,ミヤザワコウギョウ,0
951,4120001240372,新規,0,2021-09-16,2021-09-16,株式会社ミライマル,,株式会社,大阪府,大阪市中央区,安土町２丁目５－５,,27,128,5410052,,,,,,,2021-09-16,1,,,,,ミライマル,0
952,4120001240414,新規,0,2021-09-16,2021-09-16,株式会社ＯＴＥＮＴＯ,,株式会社,大阪府,大阪市中央区,備後町３丁目４番８号,,27,128,5410051,,,,,,,2021-09-16,1,,,,,オテント,0
953,4120001240430,新規,0,2021-09-16,2021-09-16,シンワ不動産販売株式会社,,株式会社,大阪府,大阪市住之江区,中加賀屋３丁目９番２４号,,27,125,5590017,,,,,,,2021-09-16,1,,,,,シンワフドウサンハンバイ,0
954,4120001240439,新規,0,2021-09-16,2021-09-16,株式会社ＹＧＫ,,株式会社,大阪府,大阪市福島区,福島５丁目６番３１号,,27,103,5530003,,,,,,,2021-09-16,1,,,,,ワイジーケー,0
955,4120001240463,新規,0,2021-09-16,2021-09-16,ＡＢＣ株式会社,,株式会社,大阪府,大阪市西淀川区,野里２丁目１６－１０,,27,113,5550024,,,,,,,2021-09-16,1,,,,,エービーシー,0
956,4120001240471,新規,0,2021-09-16,2021-09-16,株式会社Ｃｏｓｍｅｔｉｃ　Ｌａｂ．,,株式会社,大阪府,大阪市天王寺区,筆ケ崎町２番１７号,,27,109,5430027,,,,,,,2021-09-16,1,,,,,コスメティックラボ,0
964,4120003020062,新規,0,2021-09-16,2021-09-16,Ｂｙｚａｎｔｉｎｅ合同会社,,合同会社,大阪府,大阪市鶴見区,鶴見５丁目２番４１号,,27,124,5380053,,,,,,,2021-09-16,1,,,,,ビザンツ,0
965,4120003020236,新規,0,2021-09-16,2021-09-16,アマス企画合同会社,,合同会社,大阪府,大阪市大正区,三軒家西３丁目５番２０号２０６号室,,27,108,5510001,,,,,,,2021-09-16,1,,,,,アマスキカク,0
966,4120003020260,新規,0,2021-09-16,2021-09-16,合同会社ＴＩ　ＡＳＳＥＴ　ＭＡＮＡＧＥＭＥＮＴ,,合同会社,大阪府,大阪市中央区,高麗橋２丁目１番８－２９０７号,,27,128,5410043,,,,,,,2021-09-16,1,,,,,ティーアイアセットマネジメント,0
969,4120101064291,新規,0,2021-09-16,2021-09-16,株式会社ＲｅｔｕｒｎＯｒｉｇｉｎａｌ,,株式会社,大阪府,和泉市,池上町２丁目１０番１４号,,27,219,5940083,,,,,,,2021-09-16,1,,,,,リターンオリジナル,0
970,4120101064300,新規,0,2021-09-16,2021-09-16,株式会社ＺＡＰ,,株式会社,大阪府,堺市堺区,中瓦町１丁４－２２大阪信用金庫堺東ビル２Ｆ,,27,141,5900077,,,,,,,2021-09-16,1,,,,,ザップ,0
971,4120101064317,新規,0,2021-09-16,2021-09-16,株式会社Ｊ－ｂｅａｕｔｙ,,株式会社,大阪府,南河内郡太子町,聖和台３丁目６番地の１,,27,381,5830996,,,,,,,2021-09-16,1,,,,,ジェイビューティー,0
973,4120103004345,新規,0,2021-09-16,2021-09-16,松田工業合同会社,,合同会社,大阪府,松原市,天美東７丁目３番１８号,,27,217,5800032,,,,,,,2021-09-16,1,,,,,,0
978,4120903003827,新規,0,2021-09-16,2021-09-16,合同会社鏘燦,,合同会社,大阪府,吹田市,広芝町１２－２８－１２０４,,27,205,5640052,,,,,,,2021-09-16,1,,,,,ソウサン,0
982,4122001035174,新規,0,2021-09-16,2021-09-16,株式会社ＣＬＪ　ＧＬＯＢＡＬ,,株式会社,大阪府,東大阪市,寿町１丁目６番２８号,,27,227,5770837,,,,,,,2021-09-16,1,,,,,シーエルジェーグローバル,0
993,4140001123006,新規,0,2021-09-16,2021-09-16,株式会社ＮＴ　Ｐａｒｔｎｅｒｓ　Ｓｕｐｐｏｒｔ,,株式会社,兵庫県,神戸市西区,伊川谷町有瀬８１７番地の１・３１０号,,28,111,6512113,,,,,,,2021-09-16,1,,,,,エヌティパートナーズサポート,0
994,4140005025818,新規,0,2021-09-16,2021-09-16,一般社団法人正光会,,その他の設立登記法人,兵庫県,神戸市灘区,八幡町１丁目９番７号１階北,,28,102,6570051,,,,,,,2021-09-16,1,,,,,セイコウカイ,0
1008,4180001147851,新規,0,2021-09-16,2021-09-16,株式会社Ａ　ＰＡＲＫ,,株式会社,愛知県,名古屋市西区,名駅２丁目３４番１７号セントラル名古屋１１０１号,,23,104,4510045,,,,,,,2021-09-16,1,,,,,エーパーク,0
1009,4180001147868,新規,0,2021-09-16,2021-09-16,株式会社ＤＥＥＰ,,株式会社,愛知県,名古屋市中区,錦３丁目１３番１０号シャイン錦ビル７０２号,,23,106,4600003,,,,,,,2021-09-16,1,,,,,ディープ,0
1010,4180001147876,新規,0,2021-09-16,2021-09-16,株式会社トリナ,,株式会社,愛知県,名古屋市中区,栄４丁目８番３３号,,23,106,4600008,,,,,,,2021-09-16,1,,,,,トリナ,0
1013,4180003022961,新規,0,2021-09-16,2021-09-16,合同会社富雅,,合同会社,愛知県,名古屋市守山区,新守山３４０９,,23,113,4630070,,,,,,,2021-09-16,1,,,,,トミマサ,0
1027,4210005009986,新規,0,2021-09-16,2021-09-16,一般社団法人武高３７オレンジーズ,,その他の設立登記法人,福井県,越前市,下中津原町第５４号３番地,,18,209,9151222,,,,,,,2021-09-16,1,,,,,ブコウサンナナオレンジーズ,0
1033,4240001058621,新規,0,2021-09-16,2021-09-16,株式会社エコフロンティア,,株式会社,広島県,広島市中区,八丁堀６－１１,,34,101,7300013,,,,,,,2021-09-16,1,,,,,エコフロンティア,0
1040,4280005007439,新規,0,2021-09-16,2021-09-16,一般社団法人青山エステートマネジメント,,その他の設立登記法人,島根県,江津市,都野津町１９１５番地,,32,207,6950021,,,,,,,2021-09-16,1,,,,,アオヤマエステートマネジメント,0
1049,4290001094612,新規,0,2021-09-16,2021-09-16,株式会社Ａｌｂａｔｒｏｓｓ,,株式会社,福岡県,福岡市博多区,堅粕５丁目１－１２メルベーユ博多２０３,,40,132,8120043,,,,,,,2021-09-16,1,,,,,アルバトロス,0
1050,4290001094645,新規,0,2021-09-16,2021-09-16,株式会社芙蓉,,株式会社,福岡県,福岡市東区,箱崎ふ頭６丁目８番４９号,,40,131,8120051,,,,,,,2021-09-16,1,,,,,フヨウ,0
1051,4290001094678,新規,0,2021-09-16,2021-09-16,株式会社グローリ,,株式会社,福岡県,春日市,須玖北９丁目１２１番地２０２号,,40,218,8160864,,,,,,,2021-09-16,1,,,,,グローリ,0
1054,4290801027812,新規,0,2021-09-16,2021-09-16,株式会社ケイム,,株式会社,福岡県,北九州市若松区,小石本村町１０番３１－１０８号,,40,103,8080001,,,,,,,2021-09-16,1,,,,,ケイム,0
1073,4360001029379,新規,0,2021-09-16,2021-09-16,株式会社北斗販売,,株式会社,沖縄県,島尻郡八重瀬町,字友寄９７５番地１,,47,362,9010411,,,,,,,2021-09-16,1,,,,,ホクトハンバイ,0
1086,4430001084986,新規,0,2021-09-16,2021-09-16,株式会社小林家,,株式会社,北海道,千歳市,富士４丁目１番１２号,,01,224,0660039,,,,,,,2021-09-16,1,,,,,コバヤシケ,0
1089,4430003013159,新規,0,2021-09-16,2021-09-16,合同会社よくま,,合同会社,北海道,札幌市中央区,南二条西１丁目９－６,,01,101,0600062,,,,,,,2021-09-16,1,,,,,ヨクマ,0
1092,4450001013480,新規,0,2021-09-16,2021-09-16,株式会社Ｓｅｉ,,株式会社,北海道,旭川市,東光五条３丁目２番１８号コンドル１－２０２,,01,204,0788345,,,,,,,2021-09-16,1,,,,,セイ,0
1112,5010001221110,新規,0,2021-09-16,2021-09-16,株式会社レッツ,,株式会社,東京都,中央区,佃２丁目１番１－４６０５号,,13,102,1040051,,,,,,,2021-09-16,1,,,,,レッツ,0
1113,5010001221143,新規,0,2021-09-16,2021-09-16,株式会社エヌ・イー・エヌ・エル,,株式会社,東京都,中央区,新川１丁目２３番４号Ｉ．Ｓリバーサイドビル１２０７号室,,13,102,1040033,,,,,,,2021-09-16,1,,,,,エヌイーエヌエル,0
1114,5010001221151,新規,0,2021-09-16,2021-09-16,トラストゲインジャパン株式会社,,株式会社,東京都,中央区,日本橋茅場町２丁目８番１号,,13,102,1030025,,,,,,,2021-09-16,1,,,,,トラストゲインジャパン,0
1116,5010003035830,新規,0,2021-09-16,2021-09-16,合同会社Ｆｏｒｔｕｎｅ　Ｈｏｌｄｉｎｇｓ,,合同会社,東京都,千代田区,二番町１番地,,13,101,1020084,,,,,,,2021-09-16,1,,,,,フォーチュンホールディングス,0
1121,5010401162664,新規,0,2021-09-16,2021-09-16,株式会社ＵＧＯＱ,,株式会社,東京都,港区,西麻布２丁目２５番２９号フレミッシュ西麻布１０１,,13,103,1060031,,,,,,,2021-09-16,1,,,,,ウゴーク,0
1122,5010401162730,新規,0,2021-09-16,2021-09-16,株式会社日臨,,株式会社,東京都,港区,虎ノ門５丁目１３番１号,,13,103,1050001,,,,,,,2021-09-16,1,,,,,ニチリン,0
1126,5010403026116,新規,0,2021-09-16,2021-09-16,合同会社ＴＲＬ,,合同会社,東京都,港区,南麻布１丁目２番２２号,,13,103,1060047,,,,,,,2021-09-16,1,,,,,ティーアールエル,0
1127,5010403026149,新規,0,2021-09-16,2021-09-16,ＮＳ　Ｙｏｋｏｈａｍａ　ＭＬ合同会社,,合同会社,東京都,港区,虎ノ門４丁目３番１号城山トラストタワー２７階ＳａｎｎｅＧｒｏｕｐＪａｐａｎ株式会社内,,13,103,1050001,,,,,,,2021-09-16,1,,,,,エヌエスヨコハマエムエル,0
1136,5010501047823,新規,0,2021-09-16,2021-09-16,アークワン株式会社,,株式会社,東京都,台東区,浅草橋３丁目２０番１６号,,13,106,1110053,,,,,,,2021-09-16,1,,,,,アークワン,0
1142,5010601059925,新規,0,2021-09-16,2021-09-16,緋村株式会社,,株式会社,東京都,墨田区,押上１丁目１５番２－２０１号,,13,107,1310045,,,,,,,2021-09-16,1,,,,,ヒムラ,0
1143,5010701041510,新規,0,2021-09-16,2021-09-16,株式会社ＳＰＥＣ,,株式会社,東京都,品川区,小山３丁目２１番１９－５０１号,,13,109,1420062,,,,,,,2021-09-16,1,,,,,スペック,0
1161,5011201023247,新規,0,2021-09-16,2021-09-16,株式会社ＲＥＢＥＬ,,株式会社,東京都,中野区,中野５丁目５７番４号,,13,114,1640001,,,,,,,2021-09-16,1,,,,,レベル,0
1162,5011201023255,新規,0,2021-09-16,2021-09-16,株式会社フィードライフ,,株式会社,東京都,中野区,丸山１丁目１１番４号スカイタウン中野１０２号,,13,114,1650021,,,,,,,2021-09-16,1,,,,,フィードライフ,0
1164,5011301027180,新規,0,2021-09-16,2021-09-16,株式会社神プロダクション,,株式会社,東京都,杉並区,浜田山４丁目３１番５号,,13,115,1680065,,,,,,,2021-09-16,1,,,,,ジンプロダクション,0
1187,5020001143031,新規,0,2021-09-16,2021-09-16,株式会社フォー・フィックス,,株式会社,神奈川県,横浜市港北区,小机町１００９番地１,,14,109,2220036,,,,,,,2021-09-16,1,,,,,フォーフィックス,0
1190,5020003020492,新規,0,2021-09-16,2021-09-16,合同会社ａｍｅｌｕｃｋ＆ｉ,,合同会社,神奈川県,川崎市幸区,戸手４丁目９番３－１００６号グラン・エステ川崎ツインタワー弐番館,,14,132,2120005,,,,,,,2021-09-16,1,,,,,アメラックアンドアイ,0
1207,5030001144326,新規,0,2021-09-16,2021-09-16,パマデンス株式会社,,株式会社,埼玉県,戸田市,本町３丁目４番１４号,,11,224,3350023,,,,,,,2021-09-16,1,,,,,パマデンス,0
1208,5030001144383,新規,0,2021-09-16,2021-09-16,トラストリフォーム株式会社,,株式会社,埼玉県,川口市,東川口６丁目２番２２－３０２号,,11,203,3330801,,,,,,,2021-09-16,1,,,,,トラストリフォーム,0
1210,5030003017950,新規,0,2021-09-16,2021-09-16,合同会社マリゴー,,合同会社,埼玉県,久喜市,本町８丁目３番２３号,,11,232,3460005,,,,,,,2021-09-16,1,,,,,マリゴー,0
1211,5030003017967,新規,0,2021-09-16,2021-09-16,合同会社あかつき,,合同会社,埼玉県,越谷市,千間台西１丁目２６番地１,,11,222,3430041,,,,,,,2021-09-16,1,,,,,アカツキ,0
1220,5040001120193,新規,0,2021-09-16,2021-09-16,株式会社ＳＯＫＥＮ,,株式会社,千葉県,流山市,南流山７丁目８－１９,,12,220,2700163,,,,,,,2021-09-16,1,,,,,ソーケン,0
1221,5040001120202,新規,0,2021-09-16,2021-09-16,ファイブリック株式会社,,株式会社,千葉県,千葉市美浜区,真砂５丁目１７番１棟６１５号,,12,106,2610011,,,,,,,2021-09-16,1,,,,,ファイブリック,0
1226,5070001038441,新規,0,2021-09-16,2021-09-16,株式会社アビリティー,,株式会社,群馬県,太田市,浜町５２番２８角丸ビル２階,,10,205,3730853,,,,,,,2021-09-16,1,,,,,アビリティー,0
1227,5070003004227,新規,0,2021-09-16,2021-09-16,合同会社アースブリッジ,,合同会社,群馬県,安中市,板鼻３３２２番地４,,10,211,3790111,,,,,,,2021-09-16,1,,,,,アースブリッジ,0
1232,5080401025344,新規,0,2021-09-16,2021-09-16,株式会社マルスギ,,株式会社,静岡県,掛川市,宮脇２丁目１７番地の５,,22,213,4360086,,,,,,,2021-09-16,1,,,,,マルスギ,0
1256,5120001240396,新規,0,2021-09-16,2021-09-16,株式会社Ｄｉｎｅ,,株式会社,大阪府,大阪市都島区,片町２丁目１１－２４,,27,102,5340025,,,,,,,2021-09-16,1,,,,,ダイン,0
1257,5120001240438,新規,0,2021-09-16,2021-09-16,株式会社希咲ＬＩＮＥ,,株式会社,大阪府,大阪市住之江区,南港東４丁目７番２２－１０５号,,27,125,5590031,,,,,,,2021-09-16,1,,,,,キサキライン,0
1258,5120001240446,新規,0,2021-09-16,2021-09-16,株式会社オーシャス,,株式会社,大阪府,大阪市淀川区,東三国５丁目１３番５－９０３号,,27,123,5320002,,,,,,,2021-09-16,1,,,,,オーシャス,0
1259,5120001240470,新規,0,2021-09-16,2021-09-16,株式会社ＫＡＹ,,株式会社,大阪府,大阪市北区,中崎西３丁目１番１０－４０７号,,27,127,5300015,,,,,,,2021-09-16,1,,,,,カイ,0
1268,5120101064316,新規,0,2021-09-16,2021-09-16,株式会社ＧＯＫＡＮ,,株式会社,大阪府,岸和田市,春木南浜町９番２号,,27,202,5960036,,,,,,,2021-09-16,1,,,,,ゴカン,0
1273,5122001035173,新規,0,2021-09-16,2021-09-16,Ｋ．Ａ．Ｙ株式会社,,株式会社,大阪府,八尾市,南本町７丁目５番５０号,,27,212,5810081,,,,,,,2021-09-16,1,,,,,ケイエイワイ,0
1280,5140001123062,新規,0,2021-09-16,2021-09-16,株式会社ＳＨＧ．セレクトン神戸三田,,株式会社,兵庫県,三田市,けやき台１丁目１１番地,,28,219,6691321,,,,,,,2021-09-16,1,,,,,エスエイチジーセレクトンコウベサンダ,0
1283,5160001023632,新規,0,2021-09-16,2021-09-16,高田電設工事株式会社,00124260,株式会社,滋賀県,大津市,本堅田６丁目１５番１７号,,25,201,5200242,,,,,,,2021-09-16,1,,,,,タカダデンセツコウジ,0
1289,5180001147834,新規,0,2021-09-16,2021-09-16,株式会社くら乃屋,,株式会社,愛知県,名古屋市中区,千代田３丁目１１番１１号麦島第２ビル４０２,,23,106,4600012,,,,,,,2021-09-16,1,,,,,クラノヤ,0
1290,5180001147867,新規,0,2021-09-16,2021-09-16,株式会社不動産アシスト,,株式会社,愛知県,尾張旭市,庄中町１丁目１０番地１０,,23,226,4880838,,,,,,,2021-09-16,1,,,,,フドウサンアシスト,0
1291,5180001147875,新規,0,2021-09-16,2021-09-16,株式会社ＳＫＹ－ＢＲＩＤＧＥ,,株式会社,愛知県,名古屋市名東区,牧の里３丁目３０８番地,,23,115,4650068,,,,,,,2021-09-16,1,,,,,スカイブリッジ,0
1303,5180301035375,新規,0,2021-09-16,2021-09-16,株式会社ＭＫ,,株式会社,愛知県,豊川市,小坂井町倉屋敷９６番地１,,23,207,4410103,,,,,,,2021-09-16,1,,,,,エムケイ,0
1309,5210001018610,新規,0,2021-09-16,2021-09-16,株式会社藤宮金属,,株式会社,福井県,三方郡美浜町,松原第３６号４番地の１－１０４号,,18,442,9191122,,,,,,,2021-09-16,1,,,,,フジミヤキンゾク,0
1310,5210005009985,新規,0,2021-09-16,2021-09-16,特定非営利活動法人あわら市名泉郷住みよい街を創る会,,その他の設立登記法人,福井県,あわら市,下金屋第２３号３番地１名泉郷会館,,18,208,9190727,,,,,,,2021-09-16,1,,,,,アワラシメイセンキョウスミヨイマチヲツクルカイ,0
1312,5230001018988,新規,0,2021-09-16,2021-09-16,株式会社Ｆｉｒｓｔ　Ｓｔｅｐ,,株式会社,富山県,南砺市,柴田屋２３番地５,,16,210,9391552,,,,,,,2021-09-16,1,,,,,ファーストステップ,0
1315,5240001058612,新規,0,2021-09-16,2021-09-16,株式会社ＪＩＮ,,株式会社,広島県,福山市,南蔵王町６丁目２５番３号,,34,207,7210973,,,,,,,2021-09-16,1,,,,,ジン,0
1316,5240001058620,新規,0,2021-09-16,2021-09-16,ｍ．ｍ．ｈｉｒｏｈｏ株式会社,,株式会社,広島県,廿日市市,城内３丁目１７番１号,,34,213,7380007,,,,,,,2021-09-16,1,,,,,エムエムヒロホー,0
1317,5260001035964,新規,0,2021-09-16,2021-09-16,株式会社ファースト,,株式会社,岡山県,岡山市中区,乙多見３２１番地,,33,102,7038228,,,,,,,2021-09-16,1,,,,,ファースト,0
1319,5260005010971,新規,0,2021-09-16,2021-09-16,一般社団法人日越交流赤磐農園,,その他の設立登記法人,岡山県,赤磐市,神田６１２番地,,33,213,7090801,,,,,,,2021-09-16,1,,,,,ニチエツコウリュウアカイワノウエン,0
1326,5290003011630,新規,0,2021-09-16,2021-09-16,プライムアセットマネジメント合同会社,,合同会社,福岡県,福岡市早良区,早良５丁目７番３４号,,40,137,8111122,,,,,,,2021-09-16,1,,,,,プライムアセットマネジメント,0
1327,5290005018368,新規,0,2021-09-16,2021-09-16,一般社団法人ウエキサイト,,その他の設立登記法人,福岡県,久留米市,田主丸町牧１２１０番地,,40,203,8391224,,,,,,,2021-09-16,1,,,,,ウエキサイト,0
1331,5290801027803,新規,0,2021-09-16,2021-09-16,株式会社ティーアールエス,,株式会社,福岡県,田川郡香春町,大字高野１２３２番地９,,40,601,8221403,,,,,,,2021-09-16,1,,,,,ティーアールエス,0
1333,5290803003926,新規,0,2021-09-16,2021-09-16,ＨＥＲＭＥＳ　ＬＯＶＥＲ合同会社,,合同会社,福岡県,北九州市門司区,柳原町６番１３－５０２号,,40,101,8000036,,,,,,,2021-09-16,1,,,,,エルメスラバー,0
1334,5300001012629,新規,0,2021-09-16,2021-09-16,株式会社ＩＺＡＫＩ,,株式会社,佐賀県,佐賀市,駅前中央２丁目１０番２８号,,41,201,8400801,,,,,,,2021-09-16,1,,,,,イザキ,0
1342,5330001029001,新規,0,2021-09-16,2021-09-16,株式会社金のわらじフードサービス,,株式会社,熊本県,玉名市,高瀬４５９番地８,,43,206,8650025,,,,,,,2021-09-16,1,,,,,キンノワラジフードサービス,0
1354,5370003005392,新規,0,2021-09-16,2021-09-16,合同会社ルチェッタ,,合同会社,宮城県,仙台市宮城野区,岩切３丁目１番２８,,04,102,9830821,,,,,,,2021-09-16,1,,,,,ルチェッタ,0
1378,5470003002033,新規,0,2021-09-16,2021-09-16,６Ｗ１ＤＣ合同会社,,合同会社,香川県,高松市,田村町４１６番地１フルールＭ２０１,,37,201,7618057,,,,,,,2021-09-16,1,,,,,シックスダブリューワンディーシー,0
1396,6010001221175,新規,0,2021-09-16,2021-09-16,株式会社ＹＳＨ,,株式会社,東京都,千代田区,一番町２０番地３－５０１,,13,101,1020082,,,,,,,2021-09-16,1,,,,,ワイエスエイチ,0
1399,6010101014867,新規,0,2021-09-16,2021-09-16,株式会社フットループ,,株式会社,東京都,八王子市,千人町１丁目１番８号,,13,201,1930835,,,,,,,2021-09-16,1,,,,,,0
1406,6010401162671,新規,0,2021-09-16,2021-09-16,ベルガ株式会社,,株式会社,東京都,港区,南青山３丁目１５番９号,,13,103,1070062,,,,,,,2021-09-16,1,,,,,ベルガ,0
1407,6010401162705,新規,0,2021-09-16,2021-09-16,株式会社ＴｅｍＰｅａｋ,,株式会社,東京都,港区,北青山３丁目５番１４号青山鈴木硝子ビル７階,,13,103,1070061,,,,,,,2021-09-16,1,,,,,テンピーク,0
1416,6010903006780,新規,0,2021-09-16,2021-09-16,合同会社ＰＯＴ,,合同会社,東京都,世田谷区,北沢５丁目３－５クレストフォルム代々木上原４０１,,13,112,1550031,,,,,,,2021-09-16,1,,,,,ポット,0
1417,6010903006814,新規,0,2021-09-16,2021-09-16,合同会社メディカルクリエイティブ東京,,合同会社,東京都,世田谷区,宮坂３丁目１番５２号８１３,,13,112,1560051,,,,,,,2021-09-16,1,,,,,メディカルクリエイティブトウキョウ,0
1418,6010905004205,新規,0,2021-09-16,2021-09-16,医療法人社団Ｒ・Ｅ・Ｉ,,その他の設立登記法人,東京都,世田谷区,梅丘１丁目２５番１号第一山本ビル２－Ａ,,13,112,1540022,,,,,,,2021-09-16,1,,,,,レイ,0
1424,6011001142741,新規,0,2021-09-16,2021-09-16,株式会社クォンタムコネクト,,株式会社,東京都,渋谷区,広尾１丁目１－３１,,13,113,1500012,,,,,,,2021-09-16,1,,,,,クォンタムコネクト,0
1433,6011103011002,新規,0,2021-09-16,2021-09-16,Ｐａｇｏ’ｓ合同会社,,合同会社,東京都,新宿区,上落合１丁目７番８号１Ｆ,,13,104,1610034,,,,,,,2021-09-16,1,,,,,パゴス,0
1436,6011201023246,新規,0,2021-09-16,2021-09-16,株式会社敬英,,株式会社,東京都,中野区,野方５丁目１９番１０号,,13,114,1650027,,,,,,,2021-09-16,1,,,,,ケイエイ,0
1449,6012803002595,新規,0,2021-09-16,2021-09-16,ＭＹエンタープライズ合同会社,,合同会社,東京都,立川市,曙町３丁目３３番１９号曙町ロイヤルハイツ３０２号,,13,202,1900012,,,,,,,2021-09-16,1,,,,,エムワイエンタープライズ,0
1456,6013301048016,新規,0,2021-09-16,2021-09-16,株式会社ＥＭＫ,,株式会社,東京都,豊島区,雑司が谷３丁目３番２５－７０７号,,13,116,1710032,,,,,,,2021-09-16,1,,,,,イーエムケイ,0
1468,6020001142998,新規,0,2021-09-16,2021-09-16,株式会社ユニヴァース,,株式会社,神奈川県,横浜市中区,住吉町４丁目４２番地１,,14,104,2310013,,,,,,,2021-09-16,1,,,,,ユニヴァース,0
1469,6020001143006,新規,0,2021-09-16,2021-09-16,コンプライアンス・デザイン・ラボ株式会社,,株式会社,神奈川県,横浜市中区,山下町１番地シルクセンタービル９０４号,,14,104,2310023,,,,,,,2021-09-16,1,,,,,コンプライアンスデザインラボ,0
1470,6020001143022,新規,0,2021-09-16,2021-09-16,株式会社アステクス,,株式会社,神奈川県,川崎市宮前区,宮前平２丁目９番地１２,,14,136,2160006,,,,,,,2021-09-16,1,,,,,アステクス,0
1471,6020001143030,新規,0,2021-09-16,2021-09-16,株式会社エスイーワークス,,株式会社,神奈川県,横浜市南区,若宮町４丁目７８番３号,,14,105,2320057,,,,,,,2021-09-16,1,,,,,エスイーワークス,0
1472,6020001143039,新規,0,2021-09-16,2021-09-16,ミユキ高圧株式会社,,株式会社,神奈川県,川崎市川崎区,池田２丁目３番６－３号,,14,131,2100022,,,,,,,2021-09-16,1,,,,,,0
1473,6020001143047,新規,0,2021-09-16,2021-09-16,フューチャーチャレンジ株式会社,,株式会社,神奈川県,川崎市川崎区,港町５－３－１６２５,,14,131,2100807,,,,,,,2021-09-16,1,,,,,フューチャーチャレンジ,0
1481,6021001073969,新規,0,2021-09-16,2021-09-16,石井商事株式会社,,株式会社,神奈川県,小田原市,東町５丁目１２番２８号,,14,206,2500003,,,,,,,2021-09-16,1,,,,,イシイショウジ,0
1492,6030001144341,新規,0,2021-09-16,2021-09-16,株式会社シーキンズ,,株式会社,埼玉県,所沢市,日吉町１１番８号リ・クリエ所沢Ｂ館１Ｆ,,11,208,3591123,,,,,,,2021-09-16,1,,,,,シーキンズ,0
1493,6030001144358,新規,0,2021-09-16,2021-09-16,株式会社三共,,株式会社,埼玉県,所沢市,林２丁目４７７番地の４２,,11,208,3591167,,,,,,,2021-09-16,1,,,,,サンキョウ,0
1494,6030001144366,新規,0,2021-09-16,2021-09-16,株式会社菊地企画,,株式会社,埼玉県,川越市,新宿町１丁目１７番地１７,,11,201,3501124,,,,,,,2021-09-16,1,,,,,キクチキカク,0
1496,6030003017958,新規,0,2021-09-16,2021-09-16,合同会社ＨＴ,,合同会社,埼玉県,入間郡三芳町,大字上富１５４５番地１５,,11,324,3540045,,,,,,,2021-09-16,1,,,,,エイチティー,0
1500,6040001120184,新規,0,2021-09-16,2021-09-16,株式会社なでしこファーム,,株式会社,千葉県,銚子市,親田町９３０番地,,12,202,2880823,,,,,,,2021-09-16,1,,,,,ナデシコファーム,0
1501,6040001120226,新規,0,2021-09-16,2021-09-16,株式会社Ｓｋｙ‐ｈｉｇｈ,,株式会社,千葉県,千葉市花見川区,幕張町６丁目７２－１１ｃａｓａｆｅｌｉｃｅ１０１,,12,102,2620032,,,,,,,2021-09-16,1,,,,,スカイハイ,0
1510,6070003004226,新規,0,2021-09-16,2021-09-16,ユニバーサル総合企画合同会社,,合同会社,群馬県,利根郡みなかみ町,布施１６６６番地,,10,449,3791414,,,,,,,2021-09-16,1,,,,,ユニバーサルソウゴウキカク,0
1512,6080105006177,新規,0,2021-09-16,2021-09-16,一般社団法人とらのゆめ,,その他の設立登記法人,静岡県,伊豆の国市,吉田１２６番地の３,,22,225,4102322,,,,,,,2021-09-16,1,,,,,トラノユメ,0
1546,6120001240437,新規,0,2021-09-16,2021-09-16,株式会社Ｃｈａｎｇｅ－ＵＰ,,株式会社,大阪府,大阪市北区,野崎町６番８号,,27,127,5300055,,,,,,,2021-09-16,1,,,,,チェンジアップ,0
1547,6120001240453,新規,0,2021-09-16,2021-09-16,株式会社ＭＩＣ医薬,,株式会社,大阪府,大阪市西淀川区,御幣島５丁目８番２８号,,27,113,5550012,,,,,,,2021-09-16,1,,,,,エムアイシーイヤク,0
1548,6120001240461,新規,0,2021-09-16,2021-09-16,株式会社ネットハークス,,株式会社,大阪府,大阪市淀川区,東川東四丁目７－２３サンマンション・新大阪１階,,27,123,5320000,,,,,,,2021-09-16,1,,,,,ネットハークス,0
1549,6120001240478,新規,0,2021-09-16,2021-09-16,株式会社禮則商事,,株式会社,大阪府,大阪市平野区,瓜破７丁目３番９号,,27,126,5470024,,,,,,,2021-09-16,1,,,,,レイソクショウジ,0
1552,6120003020226,新規,0,2021-09-16,2021-09-16,ＴＳＳＫ合同会社,,合同会社,大阪府,大阪市中央区,徳井町２丁目２番１１号,,27,128,5400025,,,,,,,2021-09-16,1,,,,,ティーエスエスケー,0
1553,6120003020242,新規,0,2021-09-16,2021-09-16,合同会社ＨＡＮＩＣＯ,,合同会社,大阪府,大阪市北区,本庄西２丁目１８番９号,,27,127,5310073,,,,,,,2021-09-16,1,,,,,ハニコ,0
1554,6120003020259,新規,0,2021-09-16,2021-09-16,合同会社ｃｈｅｅｒｆｕｌ,,合同会社,大阪府,大阪市大正区,千島１丁目４番６号,,27,108,5510003,,,,,,,2021-09-16,1,,,,,チアフル,0
1556,6120101064307,新規,0,2021-09-16,2021-09-16,株式会社Ｕｅｋｅｎ,,株式会社,大阪府,岸和田市,沼町１９番１２号,,27,202,5960053,,,,,,,2021-09-16,1,,,,,ウエケン,0
1561,6122001035172,新規,0,2021-09-16,2021-09-16,株式会社エムテック,,株式会社,大阪府,東大阪市,西堤本通東１丁目１番１号,,27,227,5770045,,,,,,,2021-09-16,1,,,,,エムテック,0
1566,6130001070123,新規,0,2021-09-16,2021-09-16,株式会社ＡＦＹ,,株式会社,京都府,京都市中京区,河原町通二条下る一之船入町３７６番地,,26,104,6040924,,,,,,,2021-09-16,1,,,,,エーエフワイ,0
1589,6180001147833,新規,0,2021-09-16,2021-09-16,スマイルコンタクト株式会社,,株式会社,愛知県,北名古屋市,西之保立石３番地,,23,234,4810033,,,,,,,2021-09-16,1,,,,,スマイルコンタクト,0
1590,6180001147841,新規,0,2021-09-16,2021-09-16,グローバルネクスト株式会社,,株式会社,愛知県,知多市,八幡字細見４８番地サンベール朝倉１０３,,23,224,4780001,,,,,,,2021-09-16,1,,,,,グローバルネクスト,0
1591,6180001147858,新規,0,2021-09-16,2021-09-16,株式会社ドリフト,,株式会社,愛知県,名古屋市守山区,森孝１丁目１７１１番地,,23,113,4630035,,,,,,,2021-09-16,1,,,,,ドリフト,0
1592,6180001147866,新規,0,2021-09-16,2021-09-16,コルディアコンサルティング株式会社,,株式会社,愛知県,春日井市,朝宮町２丁目１３番地２３,,23,206,4860846,,,,,,,2021-09-16,1,,,,,コルディアコンサルティング,0
1607,6230001018987,新規,0,2021-09-16,2021-09-16,株式会社イタナフーズ,,株式会社,富山県,高岡市,江尻８４６－１,,16,202,9330062,,,,,,,2021-09-16,1,,,,,イタナフーズ,0
1613,6240003005272,新規,0,2021-09-16,2021-09-16,音泉ＳＯＵＮＤＳＰＲＩＮＧ合同会社,,合同会社,広島県,尾道市,長江１丁目２４－７,,34,205,7220046,,,,,,,2021-09-16,1,,,,,オンセンサウンドスプリング,0
1622,6290001094651,新規,0,2021-09-16,2021-09-16,株式会社ＪＥＲＵ,,株式会社,福岡県,太宰府市,朱雀２丁目１７番２２号,,40,221,8180103,,,,,,,2021-09-16,1,,,,,ジェルー,0
1627,6290801027802,新規,0,2021-09-16,2021-09-16,サイキック株式会社,,株式会社,福岡県,北九州市八幡西区,千代５丁目１３番８号,,40,109,8071112,,,,,,,2021-09-16,1,,,,,サイキック,0
1628,6290803003925,新規,0,2021-09-16,2021-09-16,ＥＭＩＬＩＥ　ｅｔ　ＬＩＮＡ合同会社,,合同会社,福岡県,北九州市門司区,柳原町６番１３－５０２号,,40,101,8000036,,,,,,,2021-09-16,1,,,,,エミリエリナ,0
1643,6330001029000,新規,0,2021-09-16,2021-09-16,シャーリーウィル株式会社,,株式会社,熊本県,熊本市中央区,大江本町２番１０号,,43,101,8620973,,,,,,,2021-09-16,1,,,,,シャーリーウィル,0
1649,6360001029377,新規,0,2021-09-16,2021-09-16,アニマート・グループ琉球株式会社,,株式会社,沖縄県,国頭郡宜野座村,字惣慶１６３７番地,,47,313,9041303,,,,,,,2021-09-16,1,,,,,アニマートグループリュウキュウ,0
1650,6360001029385,新規,0,2021-09-16,2021-09-16,株式会社ベフ,,株式会社,沖縄県,うるま市,字高江洲８２５番地４７,,47,213,9042242,,,,,,,2021-09-16,1,,,,,ベフ,0
1651,6360003011449,新規,0,2021-09-16,2021-09-16,合同会社ＴＡＫＡＭＩＹＡ,,合同会社,沖縄県,那覇市,字上間４８１,,47,201,9020073,,,,,,,2021-09-16,1,,,,,タカミヤ,0
1655,6380001032197,新規,0,2021-09-16,2021-09-16,プランアシスト株式会社,,株式会社,福島県,伊達市,北後２８番地２６,,07,213,9600468,,,,,,,2021-09-16,1,,,,,プランアシスト,0
1658,6380005012476,新規,0,2021-09-16,2021-09-16,ＮＰＯ法人レインボー８８,,その他の設立登記法人,福島県,郡山市,久留米４丁目１００番地の２,,07,203,9638846,,,,,,,2021-09-16,1,,,,,エヌピーオーホウジンレインボーエイティエイト,0
1670,6450001013479,新規,0,2021-09-16,2021-09-16,株式会社子ねこの手,,株式会社,北海道,旭川市,神居二条２１丁目９１番地２３,,01,204,0708012,,,,,,,2021-09-16,1,,,,,コネコノテ,0
1677,6480001011496,新規,0,2021-09-16,2021-09-16,株式会社太洋トラベル,,株式会社,徳島県,阿南市,富岡町滝の下４２番地４,,36,204,7740030,,,,,,,2021-09-16,1,,,,,タイヨウトラベル,0
1687,7010001221158,新規,0,2021-09-16,2021-09-16,株式会社ＳＡＫＵＲＡ　Ｐｒｏ．,,株式会社,東京都,中央区,日本橋３丁目２番１４号新槇町ビル別館第一２階,,13,102,1030027,,,,,,,2021-09-16,1,,,,,サクラプロ,0
1688,7010001221208,新規,0,2021-09-16,2021-09-16,株式会社ＳＩＲ,,株式会社,東京都,中央区,銀座８丁目７番２１号,,13,102,1040061,,,,,,,2021-09-16,1,,,,,エスアイアール,0
1690,7010003035845,新規,0,2021-09-16,2021-09-16,アクティブリーシング１１号合同会社,,合同会社,東京都,千代田区,麹町４丁目７番２号Ｄａｉｗａ麹町四丁目ビル８階,,13,101,1020083,,,,,,,2021-09-16,1,,,,,アクティブリーシングジュウイチゴウ,0
1692,7010005033962,新規,0,2021-09-16,2021-09-16,医療法人社団宮心会,,その他の設立登記法人,東京都,中央区,銀座３丁目１０番１５号東銀第２ビル６階,,13,102,1040061,,,,,,,2021-09-16,1,,,,,ミヤシンカイ,0
1698,7010401162670,新規,0,2021-09-16,2021-09-16,株式会社ｃｏｍｉｐｒｏ,,株式会社,東京都,港区,北青山２丁目７番１３号プラセオ青山ビル３Ｆ,,13,103,1070061,,,,,,,2021-09-16,1,,,,,コミプロ,0
1700,7010403026130,新規,0,2021-09-16,2021-09-16,合同会社フル・ハウス４,,合同会社,東京都,港区,元赤坂１丁目１番７号,,13,103,1070051,,,,,,,2021-09-16,1,,,,,フルハウスフォー,0
1702,7010405020214,新規,0,2021-09-16,2021-09-16,埼玉伊奈特定目的会社,,その他の設立登記法人,東京都,港区,元赤坂１丁目１番８号株式会社赤坂国際会計内,,13,103,1070051,,,,,,,2021-09-16,1,,,,,サイタマイナ,0
1709,7010901049434,新規,0,2021-09-16,2021-09-16,株式会社ＫＯＴＳＵＭＥＴ,,株式会社,東京都,世田谷区,三軒茶屋１丁目６番４号,,13,112,1540024,,,,,,,2021-09-16,1,,,,,コツメット,0
1710,7010903006788,新規,0,2021-09-16,2021-09-16,合同会社５８,,合同会社,東京都,世田谷区,玉川田園調布１丁目１５番４号ＩＳハイツ,,13,112,1580085,,,,,,,2021-09-16,1,,,,,フィフティーエイト,0
1717,7011001142724,新規,0,2021-09-16,2021-09-16,株式会社来春,,株式会社,東京都,渋谷区,富ヶ谷１丁目２６番２号ｆｉｔ代々木公園３０２,,13,113,1510063,,,,,,,2021-09-16,1,,,,,ライハル,0
1725,7011101096291,新規,0,2021-09-16,2021-09-16,株式会社ＢＲＥＡＫ　ＯＲＤＥＲ,,株式会社,東京都,新宿区,西新宿４丁目２番１５－２３０６号,,13,104,1600023,,,,,,,2021-09-16,1,,,,,ブレイクオーダー,0
1736,7011503004892,新規,0,2021-09-16,2021-09-16,合同会社ままんやｃｏｓｍｅｔｉｃｓ,,合同会社,東京都,北区,赤羽南２丁目１０番１５号８０９号室,,13,117,1150044,,,,,,,2021-09-16,1,,,,,ママンヤコスメティックス,0
1741,7012301012708,新規,0,2021-09-16,2021-09-16,株式会社スタックハウス,,株式会社,東京都,町田市,中町１丁目１－２－５－３階,,13,209,1940021,,,,,,,2021-09-16,1,,,,,スタックハウス,0
1743,7012405004642,新規,0,2021-09-16,2021-09-16,医療法人社団メドプリースト,,その他の設立登記法人,東京都,小金井市,本町１丁目１３番１３号１階,,13,210,1840004,,,,,,,2021-09-16,1,,,,,メドプリースト,0
1745,7012803002594,新規,0,2021-09-16,2021-09-16,東京エクスプレス合同会社,,合同会社,東京都,国分寺市,南町２丁目１１番８号グリーンヴィレッジ１階２号,,13,214,1850021,,,,,,,2021-09-16,1,,,,,トウキョウエクスプレス,0
1763,7020001142948,新規,0,2021-09-16,2021-09-16,大和振興株式会社,,株式会社,神奈川県,横浜市南区,南吉田町５丁目４５番地８ポートハイム第一吉野町５０８号,,14,105,2320012,,,,,,,2021-09-16,1,,,,,ダイワシンコウ,0
1764,7020001143013,新規,0,2021-09-16,2021-09-16,株式会社オープロダクツ,,株式会社,神奈川県,横浜市戸塚区,戸塚町４５３６－２６－Ａ－５０３,,14,110,2440003,,,,,,,2021-09-16,1,,,,,オープロダクツ,0
1765,7020001143021,新規,0,2021-09-16,2021-09-16,株式会社ＫＨＡＹ,,株式会社,神奈川県,横浜市青葉区,恩田町３２４６番地,,14,117,2270065,,,,,,,2021-09-16,1,,,,,ケーエイチエーワイ,0
1769,7020003020490,新規,0,2021-09-16,2021-09-16,合同会社匠興業,,合同会社,神奈川県,川崎市中原区,井田３丁目１０番１号ファーストプラザ２０２,,14,133,2110035,,,,,,,2021-09-16,1,,,,,タクミコウギョウ,0
1773,7021001073976,新規,0,2021-09-16,2021-09-16,株式会社Ｏｃｏｍｏｔｔｏ,,株式会社,神奈川県,相模原市南区,鵜野森１丁目４７番４６号,,14,153,2520301,,,,,,,2021-09-16,1,,,,,オコモット,0
1779,7030001144340,新規,0,2021-09-16,2021-09-16,株式会社ＹＵＭＥＭＩ工業,,株式会社,埼玉県,さいたま市岩槻区,原町７番２３－５号,,11,110,3390047,,,,,,,2021-09-16,1,,,,,ユメミコウギョウ,0
1781,7030003017940,新規,0,2021-09-16,2021-09-16,ＮＫＫ合同会社,,合同会社,埼玉県,新座市,新座２丁目１８番４９号,,11,230,3520006,,,,,,,2021-09-16,1,,,,,エヌケイケイ,0
1782,7030003017957,新規,0,2021-09-16,2021-09-16,ソレイユ合同会社,,合同会社,埼玉県,川口市,幸町２丁目６番２３号山幸ハイツ２０５号,,11,203,3320016,,,,,,,2021-09-16,1,,,,,ソレイユ,0
1783,7030003017965,新規,0,2021-09-16,2021-09-16,合同会社アナキラ,,合同会社,埼玉県,さいたま市北区,盆栽町８３番地１０,,11,102,3310805,,,,,,,2021-09-16,1,,,,,アナキラ,0
1785,7040001120217,新規,0,2021-09-16,2021-09-16,株式会社餃子とラーメンの店木更津宙,,株式会社,千葉県,千葉市緑区,大椎町１２２９番地１８３,,12,105,2670065,,,,,,,2021-09-16,1,,,,,ギョーザトラーメンノミセキサラヅソラ,0
1786,7040001120225,新規,0,2021-09-16,2021-09-16,株式会社みらいリリーフ,,株式会社,千葉県,木更津市,八幡台７丁目４番１３号,,12,206,2920814,,,,,,,2021-09-16,1,,,,,ミライリリーフ,0
1789,7040003018517,新規,0,2021-09-16,2021-09-16,合同会社雅,,合同会社,千葉県,千葉市稲毛区,長沼原町３１７番地１ヴィルフォーレ稲毛四番館２０３号,,12,103,2630001,,,,,,,2021-09-16,1,,,,,ミヤビ,0
1790,7040003018541,新規,0,2021-09-16,2021-09-16,合同会社日輪装建,,合同会社,千葉県,船橋市,習志野台１丁目１６－２２,,12,204,2740063,,,,,,,2021-09-16,1,,,,,,0
1794,7050003006082,新規,0,2021-09-16,2021-09-16,合同会社鈴木興業,,合同会社,茨城県,日立市,十王町友部１５１６番地２,,08,202,3191304,,,,,,,2021-09-16,1,,,,,スズキコウギョウ,0
1829,7120001240411,新規,0,2021-09-16,2021-09-16,株式会社エス・エスコーポレーション,,株式会社,大阪府,大阪市浪速区,恵美須西３丁目１２番１２号１Ｆ,,27,111,5560003,,,,,,,2021-09-16,1,,,,,エスエスコーポレーション,0
1830,7120001240428,新規,0,2021-09-16,2021-09-16,株式会社ＴｉＦｉＬｉｄ,,株式会社,大阪府,大阪市中央区,淡路町１丁目２－９中谷ビル７０２,,27,128,5410047,,,,,,,2021-09-16,1,,,,,ティフィリッド,0
1831,7120001240460,新規,0,2021-09-16,2021-09-16,株式会社リアルフレーバー,,株式会社,大阪府,大阪市生野区,鶴橋２丁目５番１８号,,27,116,5440031,,,,,,,2021-09-16,1,,,,,リアルフレーバー,0
1840,7120003020233,新規,0,2021-09-16,2021-09-16,合同会社ＯＳＥＩ　ＴＲＡＤＩＮＧ　ＥＮＴＥＲＰＲＩＳＥ,,合同会社,大阪府,大阪市住之江区,新北島２丁目２番４３－９０２号,,27,125,5590024,,,,,,,2021-09-16,1,,,,,オセイトレーディングエンタープライズ,0
1841,7120003020266,新規,0,2021-09-16,2021-09-16,合同会社ｓｔｏｒｋ,,合同会社,大阪府,大阪市城東区,新喜多２丁目５番１号ドゥージエム京橋３０２,,27,118,5360015,,,,,,,2021-09-16,1,,,,,ストーク,0
1843,7120101064314,新規,0,2021-09-16,2021-09-16,株式会社トータル,,株式会社,大阪府,岸和田市,天神山町１丁目４番３２号,,27,202,5960834,,,,,,,2021-09-16,1,,,,,トータル,0
1855,7122001035171,新規,0,2021-09-16,2021-09-16,株式会社ユニオン・ウィル,,株式会社,大阪府,東大阪市,横小路町４丁目５番３７号,,27,227,5798063,,,,,,,2021-09-16,1,,,,,ユニオンウィル,0
1857,7130003007485,新規,0,2021-09-16,2021-09-16,合同会社シード,,合同会社,京都府,京都市南区,東九条中御霊町５５番地１０グランディール大石橋（１Ｆ）,,26,107,6018027,,,,,,,2021-09-16,1,,,,,シード,0
1865,7140001123052,新規,0,2021-09-16,2021-09-16,ＴＨＥ　ＣＨＩＣＫＥＮ　ＫＯＢＥ株式会社,,株式会社,兵庫県,神戸市灘区,篠原南町６丁目１番１０号グランビア灘東棟２１２,,28,102,6570059,,,,,,,2021-09-16,1,,,,,ザチキンコウベ,0
1868,7140005025815,新規,0,2021-09-16,2021-09-16,スタートアップ協同組合,,その他の設立登記法人,兵庫県,神戸市北区,藤原台中町８丁目７番５号,,28,109,6511302,,,,,,,2021-09-16,1,,,,,スタートアップ,0
1872,7150001024927,新規,0,2021-09-16,2021-09-16,ＭＮＫ株式会社,,株式会社,奈良県,葛城市,八川１３３番地ピーアニ当麻３０３号,,29,211,6392163,,,,,,,2021-09-16,1,,,,,エムエヌケイ,0
1874,7160001023630,新規,0,2021-09-16,2021-09-16,あ・うん株式会社,,株式会社,滋賀県,大津市,鏡が浜３－１－１２０７,,25,201,5200012,,,,,,,2021-09-16,1,,,,,アウン,0
1875,7160003002368,新規,0,2021-09-16,2021-09-16,山忠製作所合同会社,,合同会社,滋賀県,彦根市,馬場２丁目１番５０号,,25,202,5220069,,,,,,,2021-09-16,1,,,,,ヤマチュウセイサクショ,0
1877,7180001147840,新規,0,2021-09-16,2021-09-16,株式会社ＷＦＧ,,株式会社,愛知県,名古屋市中区,千代田１丁目１１番２６号,,23,106,4600012,,,,,,,2021-09-16,1,,,,,ダブリュエフジー,0
1880,7180003022959,新規,0,2021-09-16,2021-09-16,合同会社縁,,合同会社,愛知県,大府市,桃山町１丁目４番地の３,,23,223,4740026,,,,,,,2021-09-16,1,,,,,エン,0
1887,7200001039143,新規,0,2021-09-16,2021-09-16,株式会社ｉＣＯＮＯＬＯＧＹ,,株式会社,岐阜県,岐阜市,御望２丁目７８番地,,21,201,5011171,,,,,,,2021-09-16,1,,,,,イコノロジー,0
1899,7270001008356,新規,0,2021-09-16,2021-09-16,株式会社ミヤネ開発,,株式会社,鳥取県,鳥取市,福部町八重原３７９番地,,31,201,6890115,,,,,,,2021-09-16,1,,,,,ミヤネカイハツ,0
1917,7290801027801,新規,0,2021-09-16,2021-09-16,エンシエイト株式会社,,株式会社,福岡県,北九州市八幡東区,中央１丁目６番１５号,,40,108,8050019,,,,,,,2021-09-16,1,,,,,エンシエイト,0
1919,7290803003924,新規,0,2021-09-16,2021-09-16,ＫＯＳＨＩＢＡ１１３２合同会社,,合同会社,福岡県,北九州市門司区,柳原町６番１３－５０２号,,40,101,8000036,,,,,,,2021-09-16,1,,,,,コシバイチイチサンニ,0
1924,7300003001719,新規,0,2021-09-16,2021-09-16,Ｔ．ｇｉｒｌ合同会社,,合同会社,佐賀県,西松浦郡有田町,下本甲１８９１番地１,,41,401,8494172,,,,,,,2021-09-16,1,,,,,ティーガール,0
1939,7380005012475,新規,0,2021-09-16,2021-09-16,特定非営利活動法人いわきＳＤＧｓ,,その他の設立登記法人,福島県,いわき市,平上荒川字桜町２１番地の１,,07,204,9708034,,,,,,,2021-09-16,1,,,,,イワキエスディージーズ,0
1946,7410003003571,新規,0,2021-09-16,2021-09-16,合同会社ＲＯＣ　ＩＡ　ＡＫＩＴＡ　ＪＡＰＡＮ,,合同会社,秋田県,南秋田郡大潟村,字中央３－４７促進住宅Ａ－１９,,05,368,0100443,,,,,,,2021-09-16,1,,,,,ロックアイエーアキタジャパン,0
1950,7450001013478,新規,0,2021-09-16,2021-09-16,株式会社高田,,株式会社,北海道,雨竜郡北竜町,字三谷３３番地１,,01,437,0782513,,,,,,,2021-09-16,1,,,,,タカダ,0
1958,7480001011495,新規,0,2021-09-16,2021-09-16,徳島シノテックス株式会社,,株式会社,徳島県,徳島市,吉野本町１丁目１３－３－１２,,36,201,7700802,,,,,,,2021-09-16,1,,,,,,0
1959,7480003001726,新規,0,2021-09-16,2021-09-16,合同会社Ｃｏｃｏｒｏ　Ｗｏｒｋｓ,,合同会社,徳島県,阿南市,新野町清貞１７１－７,,36,204,7791510,,,,,,,2021-09-16,1,,,,,ココロワークス,0
1973,8010101014865,新規,0,2021-09-16,2021-09-16,株式会社Ｄ＆Ｙ,,株式会社,東京都,八王子市,東中野５２８番１－２０１号,,13,201,1920351,,,,,,,2021-09-16,1,,,,,ディーアンドワイ,0
1985,8010503006386,新規,0,2021-09-16,2021-09-16,埼玉不動産合同会社,,合同会社,東京都,台東区,清川２丁目２８番７－８０１号ＭＡＸＩＶｓｃｅｎｅ南千住,,13,106,1110022,,,,,,,2021-09-16,1,,,,,サイタマフドウサン,0
2007,8011003013410,新規,0,2021-09-16,2021-09-16,合同会社アシスト,,合同会社,東京都,渋谷区,神宮前６丁目２３番４号桑野ビル２階,,13,113,1500001,,,,,,,2021-09-16,1,,,,,アシスト,0
2014,8011101096332,新規,0,2021-09-16,2021-09-16,株式会社ＯＲＥＺ,,株式会社,東京都,新宿区,大久保２丁目７番１号大久保フジビル３０９号,,13,104,1690072,,,,,,,2021-09-16,1,,,,,オレズ,0
2020,8011701024709,新規,0,2021-09-16,2021-09-16,ＦＳＢインターナショナル株式会社,,株式会社,東京都,江戸川区,東葛西２丁目２番１６号,,13,123,1340084,,,,,,,2021-09-16,1,,,,,エフエスビーインターナショナル,0
2021,8011703002943,新規,0,2021-09-16,2021-09-16,ハレルアナ合同会社,,合同会社,東京都,江戸川区,大杉１丁目６番１５号,,13,123,1320022,,,,,,,2021-09-16,1,,,,,ハレルアナ,0
2030,8013301048014,新規,0,2021-09-16,2021-09-16,株式会社方圓,,株式会社,東京都,豊島区,長崎５丁目１７番１３号,,13,116,1710051,,,,,,,2021-09-16,1,,,,,ホウエン,0
2037,8020001143012,新規,0,2021-09-16,2021-09-16,株式会社ＹＥＬＬ,,株式会社,神奈川県,横浜市港北区,小机町３６９番地１小机パークスクエアＫ－１０２,,14,109,2220036,,,,,,,2021-09-16,1,,,,,エール,0
2038,8020001143037,新規,0,2021-09-16,2021-09-16,株式会社トラスト・コンサルティング,,株式会社,神奈川県,横浜市青葉区,梅が丘１４番地３８,,14,117,2270052,,,,,,,2021-09-16,1,,,,,トラストコンサルティング,0
2039,8020001143053,新規,0,2021-09-16,2021-09-16,株式会社アセット,,株式会社,神奈川県,川崎市高津区,北見方３丁目１２番１４号,,14,134,2130005,,,,,,,2021-09-16,1,,,,,アセット,0
2050,8030001144380,新規,0,2021-09-16,2021-09-16,株式会社ＥＭＫ,,株式会社,埼玉県,さいたま市大宮区,宮町４丁目９０番地１７ＹＤヒルズ１０１,,11,103,3300802,,,,,,,2021-09-16,1,,,,,イーエムケー,0
2053,8030003017923,新規,0,2021-09-16,2021-09-16,ＳＷプルミエール合同会社,,合同会社,埼玉県,新座市,栗原１丁目９－４,,11,230,3520035,,,,,,,2021-09-16,1,,,,,エスダヴリュプルミエール,0
2054,8030003017948,新規,0,2021-09-16,2021-09-16,Ｍ＆Ｔ合同会社,,合同会社,埼玉県,さいたま市浦和区,元町３丁目２５番１８号,,11,107,3300073,,,,,,,2021-09-16,1,,,,,エムアンドティー,0
2055,8030003017956,新規,0,2021-09-16,2021-09-16,合同会社Ｄａｍｏｎ,,合同会社,埼玉県,春日部市,西八木崎２丁目１０番８－２０３号,,11,214,3440059,,,,,,,2021-09-16,1,,,,,ダモン,0
2059,8040001120190,新規,0,2021-09-16,2021-09-16,株式会社医療総合ケア,,株式会社,千葉県,茂原市,緑ケ丘３丁目２９番地１０,,12,210,2970065,,,,,,,2021-09-16,1,,,,,イリョウソウゴウケア,0
2060,8040001120199,新規,0,2021-09-16,2021-09-16,阿部株式会社,,株式会社,千葉県,市川市,菅野４丁目１５番１５号,,12,203,2720824,,,,,,,2021-09-16,1,,,,,アベ,0
2061,8040001120216,新規,0,2021-09-16,2021-09-16,株式会社大入計画,,株式会社,千葉県,流山市,おおたかの森北３丁目３６番地の１－１０１,,12,220,2700119,,,,,,,2021-09-16,1,,,,,オオイリケイカク,0
2062,8040001120232,新規,0,2021-09-16,2021-09-16,株式会社Ｗｈｉｔｅ,,株式会社,千葉県,市原市,島野１８６２番地４０,,12,219,2900034,,,,,,,2021-09-16,1,,,,,ホワイト,0
2063,8040001120240,新規,0,2021-09-16,2021-09-16,ＴＭＫマテリアルズ株式会社,,株式会社,千葉県,習志野市,藤崎６丁目３番２２号,,12,216,2750017,,,,,,,2021-09-16,1,,,,,ティーエムケーマテリアルズ,0
2065,8040003018516,新規,0,2021-09-16,2021-09-16,合同会社ＨＫスマイルカンパニー,,合同会社,千葉県,松戸市,松戸１６１０番地,,12,207,2710092,,,,,,,2021-09-16,1,,,,,エッチケースマイルカンパニー,0
2066,8040003018532,新規,0,2021-09-16,2021-09-16,合同会社長松,,合同会社,千葉県,安房郡鋸南町,竜島５１番地,,12,463,2992118,,,,,,,2021-09-16,1,,,,,チョウマツ,0
2068,8050001049834,新規,0,2021-09-16,2021-09-16,株式会社クーファクトリー,,株式会社,茨城県,結城市,新矢畑１番６,,08,207,3070029,,,,,,,2021-09-16,1,,,,,クーファクトリー,0
2071,8070001038439,新規,0,2021-09-16,2021-09-16,株式会社フェリーチェ,,株式会社,群馬県,邑楽郡邑楽町,大字藤川１６３番地８,,10,525,3700605,,,,,,,2021-09-16,1,,,,,フェリーチェ,0
2079,8100001034590,新規,0,2021-09-16,2021-09-16,株式会社ｈｅｍｏｎｏｍｏｓ,,株式会社,長野県,下高井郡山ノ内町,大字平穏２８３０番地１,,20,561,3810401,,,,,,,2021-09-16,1,,,,,ヘモノモス,0
2082,8100005012766,新規,0,2021-09-16,2021-09-16,一般社団法人グローブソーシャル,,その他の設立登記法人,長野県,諏訪市,大字四賀１５４８番地１,,20,206,3920012,,,,,,,2021-09-16,1,,,,,グローブソーシャル,0
2087,8110003004574,新規,0,2021-09-16,2021-09-16,ｇｌｏｂａｌ．ｉ合同会社,,合同会社,新潟県,新潟市西蒲区,鷲ノ木１７３１番地３,,15,108,9530072,,,,,,,2021-09-16,1,,,,,グローバルアイ,0
2100,8120001240393,新規,0,2021-09-16,2021-09-16,Ｂｌｕｅ　Ｃａｒｂｏｎ　Ｔｅｃｈ株式会社,,株式会社,大阪府,大阪市港区,南市岡３丁目１０－２グリシーヌ弁天町７０５号室,,27,107,5520011,,,,,,,2021-09-16,1,,,,,ブルーカーボンテック,0
2101,8120001240410,新規,0,2021-09-16,2021-09-16,株式会社グランシャリオ,,株式会社,大阪府,大阪市平野区,喜連東１丁目２番４３号,,27,126,5470021,,,,,,,2021-09-16,1,,,,,グランシャリオ,0
2102,8120001240419,新規,0,2021-09-16,2021-09-16,株式会社Ｓｍｉｌｅｙ,,株式会社,大阪府,寝屋川市,葛原新町２番１号,,27,215,5720037,,,,,,,2021-09-16,1,,,,,スマイリー,0
2103,8120001240451,新規,0,2021-09-16,2021-09-16,株式会社ｅｋｏｌｕ’ｓ,,株式会社,大阪府,枚方市,香里ケ丘１丁目２１１５番地の８,,27,210,5730084,,,,,,,2021-09-16,1,,,,,エコルズ,0
2104,8120001240468,新規,0,2021-09-16,2021-09-16,株式会社ＦＴＦ,,株式会社,大阪府,大阪市住吉区,長居３丁目６番１２号プレアール長居西Ⅱ４０５号,00124258,27,120,5580003,,,,,,,2021-09-16,1,,,,,エフティーエフ,0
2105,8120001240476,新規,0,2021-09-16,2021-09-16,株式会社モアゼン,,株式会社,大阪府,大阪市生野区,桃谷５丁目５－４,,27,116,5440034,,,,,,,2021-09-16,1,,,,,モアゼン,0
2109,8120003020257,新規,0,2021-09-16,2021-09-16,Ｆｒｉｅｎｄｌｙ合同会社,,合同会社,大阪府,大阪市生野区,桃谷１丁目１１番２８－１０３号,,27,116,5440034,,,,,,,2021-09-16,1,,,,,フレンドリー,0
2132,8140001123043,新規,0,2021-09-16,2021-09-16,恒洋海運株式会社,,株式会社,兵庫県,神戸市中央区,京町６７番地,,28,110,6500034,,,,,,,2021-09-16,1,,,,,コウヨウカイウン,0
2133,8140001123068,新規,0,2021-09-16,2021-09-16,株式会社４ＭＥＵＮＩ,,株式会社,兵庫県,神戸市中央区,新港町８－２－６,,28,110,6500041,,,,,,,2021-09-16,1,,,,,フォーミーユニ,0
2138,8150001024926,新規,0,2021-09-16,2021-09-16,メディカルパートナーズ株式会社,,株式会社,奈良県,香芝市,五位堂３丁目４５４番地２,,29,210,6390226,,,,,,,2021-09-16,1,,,,,メディカルパートナーズ,0
2139,8160003002375,新規,0,2021-09-16,2021-09-16,合同会社辻本商会,00124259,合同会社,滋賀県,草津市,大路１丁目１６番１６号エルミナリュクス３０２,,25,206,5250032,,,,,,,2021-09-16,1,,,,,ツジモトショウカイ,0
2142,8180001147831,新規,0,2021-09-16,2021-09-16,株式会社エムデア,,株式会社,愛知県,名古屋市中村区,熊野町１丁目７９番地の１,,23,105,4530814,,,,,,,2021-09-16,1,,,,,エムデア,0
2143,8180001147848,新規,0,2021-09-16,2021-09-16,株式会社イワシー,,株式会社,愛知県,小牧市,桜井１番地リースホーム小牧桜井Ｃ号,,23,219,4850042,,,,,,,2021-09-16,1,,,,,イワシー,0
2147,8180301035372,新規,0,2021-09-16,2021-09-16,東海コーポレーション株式会社,,株式会社,愛知県,豊田市,猿投町池田８１番地１４,,23,211,4700361,,,,,,,2021-09-16,1,,,,,トウカイコーポレーション,0
2156,8230001018985,新規,0,2021-09-16,2021-09-16,株式会社キラースマイル,,株式会社,富山県,富山市,掛尾町２３６番地１,,16,201,9398212,,,,,,,2021-09-16,1,,,,,キラースマイル,0
2163,8290001094674,新規,0,2021-09-16,2021-09-16,株式会社ｆ‐ｌａｂｏ,,株式会社,福岡県,太宰府市,高雄６丁目１９番１４号,,40,221,8180122,,,,,,,2021-09-16,1,,,,,エフラボ,0
2168,8290003011611,新規,0,2021-09-16,2021-09-16,イレブンスタッグス合同会社,,合同会社,福岡県,福岡市博多区,博多駅前３丁目７－３５博多ハイテックビル５０５,,40,132,8120011,,,,,,,2021-09-16,1,,,,,イレブンスタッグス,0
2169,8290003011628,新規,0,2021-09-16,2021-09-16,合同会社あい,,合同会社,福岡県,大牟田市,中島町４番地３ＮＯＩＣＥビル４０３号,,40,202,8360023,,,,,,,2021-09-16,1,,,,,アイ,0
2170,8290803003923,新規,0,2021-09-16,2021-09-16,合同会社ライフ,,合同会社,福岡県,北九州市八幡西区,藤原３丁目１８番２号,,40,109,8070873,,,,,,,2021-09-16,1,,,,,ライフ,0
2196,8480001011494,新規,0,2021-09-16,2021-09-16,株式会社オカケン不動産研究所,,株式会社,徳島県,徳島市,住吉１丁目６番２１号ｔｒｅａｓｕｒｅ２０２,,36,201,7700861,,,,,,,2021-09-16,1,,,,,オカケンフドウサンケンキュウジョ,0
2198,8500001023685,新規,0,2021-09-16,2021-09-16,株式会社伊東英朗事務所,,株式会社,愛媛県,松山市,山越６丁目６番２２号白鳳会館２Ｆ,,38,201,7918013,,,,,,,2021-09-16,1,,,,,イトウヒデアキジムショ,0
2205,9010001221098,新規,0,2021-09-16,2021-09-16,４Ｐ’ｓ　ＪＡＰＡＮ株式会社,,株式会社,東京都,中央区,銀座８丁目１５番１０－３０１号,,13,102,1040061,,,,,,,2021-09-16,1,,,,,フォーピースジャパン,0
2206,9010001221115,新規,0,2021-09-16,2021-09-16,株式会社ＭＥＧＭＡＬＥ　ＪＡＰＡＮ,,株式会社,東京都,千代田区,内神田２丁目１０番２号,,13,101,1010047,,,,,,,2021-09-16,1,,,,,メグマーレジャパン,0
2215,9010401162710,新規,0,2021-09-16,2021-09-16,株式会社Ｓｈｉｂｕｙａ　Ａｒｔ　Ｃｏｎｎｅｃｔｉｏｎ,,株式会社,東京都,港区,北青山３丁目６番７号青山パラシオタワー１１Ｆ,,13,103,1070061,,,,,,,2021-09-16,1,,,,,シブヤアートコネクション,0
2216,9010403026129,新規,0,2021-09-16,2021-09-16,ジャパンインフラ１５号合同会社,,合同会社,東京都,港区,元赤坂１丁目１番７号,,13,103,1070051,,,,,,,2021-09-16,1,,,,,ジャパンインフラジュウゴゴウ,0
2217,9010405020212,新規,0,2021-09-16,2021-09-16,一般社団法人エジミウソンファンズ・アジア,,その他の設立登記法人,東京都,港区,東麻布１丁目２３番３号東麻布アパートメント９０１,,13,103,1060044,,,,,,,2021-09-16,1,,,,,エジミウソンファンズアジア,0
2226,9010705003271,新規,0,2021-09-16,2021-09-16,一般社団法人サステナブルライフ協会,,その他の設立登記法人,東京都,品川区,小山台１丁目３３番７号エスセナーリオ不動前１０１,,13,109,1420061,,,,,,,2021-09-16,1,,,,,サステナブルライフキョウカイ,0
2230,9010801032315,新規,0,2021-09-16,2021-09-16,Ａ．Ｒ．Ｅ．株式会社,,株式会社,東京都,大田区,中央１丁目１１番２３号,,13,111,1430024,,,,,,,2021-09-16,1,,,,,エーアールイー,0
2233,9010903006803,新規,0,2021-09-16,2021-09-16,合同会社Ｒｕｇ,,合同会社,東京都,世田谷区,南烏山４丁目３番１４号ウィンヒルズ１０４,,13,112,1570062,,,,,,,2021-09-16,1,,,,,ラグ,0
2238,9011003013351,新規,0,2021-09-16,2021-09-16,ＫＡ合同会社,,合同会社,東京都,目黒区,青葉台３丁目６－２８－２６０３,,13,110,1530042,,,,,,,2021-09-16,1,,,,,ケーエー,0
2239,9011005009216,新規,0,2021-09-16,2021-09-16,医療法人社団ＢＬＯＯＭ　ＲＯＴＵＳ,,その他の設立登記法人,東京都,渋谷区,神宮前５丁目４６番７号ＧＥＭＳＡＯＹＡＭＡＣＲＯＳＳ２階,,13,113,1500001,,,,,,,2021-09-16,1,,,,,ブルームロータス,0
2241,9011101096182,新規,0,2021-09-16,2021-09-16,株式会社Ｆｕｎｅｘｕｓ,,株式会社,東京都,新宿区,西新宿１丁目３番３号品川ステーションビル新宿６０２,,13,104,1600023,,,,,,,2021-09-16,1,,,,,ファンネクサス,0
2250,9011601025401,新規,0,2021-09-16,2021-09-16,株式会社ＢＢグループ,,株式会社,東京都,練馬区,旭町３丁目２６番４号２Ｆ,,13,120,1790071,,,,,,,2021-09-16,1,,,,,ビービーグループ,0
2261,9012801021090,新規,0,2021-09-16,2021-09-16,株式会社タイライ,,株式会社,東京都,昭島市,松原町２丁目２番１８号,,13,207,1960003,,,,,,,2021-09-16,1,,,,,タイライ,0
2264,9013305003261,新規,0,2021-09-16,2021-09-16,一般社団法人国際基督者同盟,,その他の設立登記法人,東京都,豊島区,南池袋２丁目４９番７号池袋パークビル,,13,116,1710022,,,,,,,2021-09-16,1,,,,,コクサイキリストシャドウメイ,0
2273,9020001143003,新規,0,2021-09-16,2021-09-16,株式会社ＳＷＥＥＴＡ,,株式会社,神奈川県,横浜市神奈川区,守屋町１丁目２番５,,14,102,2210022,,,,,,,2021-09-16,1,,,,,,0
2274,9020001143028,新規,0,2021-09-16,2021-09-16,株式会社ｒｉｃｈｌｉｎｋｓ,,株式会社,神奈川県,横浜市西区,平沼１丁目４０番１号嶋森ビル８階,,14,103,2200023,,,,,,,2021-09-16,1,,,,,リッチリンクス,0
2275,9020001143052,新規,0,2021-09-16,2021-09-16,株式会社Ｒｅｌｉｖｅ,,株式会社,神奈川県,横浜市金沢区,寺前１丁目１－２７－２０３,,14,108,2360014,,,,,,,2021-09-16,1,,,,,リライブ,0
2287,9021001073966,新規,0,2021-09-16,2021-09-16,ＡＬＯＲ株式会社,,株式会社,神奈川県,足柄下郡箱根町,仙石原字大井平１２９２番３,,14,382,2500631,,,,,,,2021-09-16,1,,,,,アロール,0
2291,9021005012301,新規,0,2021-09-16,2021-09-16,一般社団法人ＡＬＬかいせい,,その他の設立登記法人,神奈川県,足柄上郡開成町,吉田島１６６４番地１,,14,366,2580021,,,,,,,2021-09-16,1,,,,,オールカイセイ,0
2301,9030001144322,新規,0,2021-09-16,2021-09-16,株式会社リストック,,株式会社,埼玉県,上尾市,向山３丁目５１番地２０,,11,219,3620045,,,,,,,2021-09-16,1,,,,,リストック,0
2302,9030001144355,新規,0,2021-09-16,2021-09-16,株式会社ルナケア,,株式会社,埼玉県,川越市,脇田本町１５番地２１ＫＪ３ビル,,11,201,3501123,,,,,,,2021-09-16,1,,,,,ルナケア,0
2303,9030001144363,新規,0,2021-09-16,2021-09-16,株式会社埼玉アグリバイオパワー,,株式会社,埼玉県,児玉郡上里町,大字勅使河原７１７番地,,11,385,3690311,,,,,,,2021-09-16,1,,,,,サイタマアグリバイオパワー,0
2304,9030001144388,新規,0,2021-09-16,2021-09-16,株式会社ラッドクルー,,株式会社,埼玉県,さいたま市大宮区,北袋町１丁目６０１番地１,,11,103,3300835,,,,,,,2021-09-16,1,,,,,ラッドクルー,0
2309,9040001120181,新規,0,2021-09-16,2021-09-16,株式会社ボナメス,,株式会社,千葉県,船橋市,七林町４３７番地２３,,12,204,2740821,,,,,,,2021-09-16,1,,,,,ボナメス,0
2310,9040001120198,新規,0,2021-09-16,2021-09-16,株式会社ＲＫハウジング,,株式会社,千葉県,東金市,日吉台１丁目５番地１１,,12,213,2830803,,,,,,,2021-09-16,1,,,,,アールケーハウジング,0
2311,9040001120215,新規,0,2021-09-16,2021-09-16,株式会社墨井商事,,株式会社,千葉県,千葉市若葉区,愛生町１５３番地２０,,12,104,2640031,,,,,,,2021-09-16,1,,,,,スミイショウジ,0
2313,9040003018515,新規,0,2021-09-16,2021-09-16,モリガンゲームズ合同会社,,合同会社,千葉県,船橋市,本町７丁目１５番５号２Ｆ,,12,204,2730005,,,,,,,2021-09-16,1,,,,,モリガンゲームズ,0
2314,9040003018523,新規,0,2021-09-16,2021-09-16,増一屋合同会社,,合同会社,千葉県,千葉市中央区,富士見１丁目１４番１３号千葉大栄ビル８階,,12,101,2600015,,,,,,,2021-09-16,1,,,,,マスイチヤ,0
2315,9040003018531,新規,0,2021-09-16,2021-09-16,合同会社エムズキャピタルマネジメント,,合同会社,千葉県,安房郡鋸南町,竜島５１番地,,12,463,2992118,,,,,,,2021-09-16,1,,,,,エムズキャピタルマネジメント,0
2318,9050003006080,新規,0,2021-09-16,2021-09-16,Ｃｈｉｋｉｉｎａ合同会社,,合同会社,茨城県,土浦市,下高津３丁目１５番５号,,08,203,3000812,,,,,,,2021-09-16,1,,,,,チキイナ,0
2348,9120001240418,新規,0,2021-09-16,2021-09-16,株式会社ＬＥ　ＦＯＯＮ,,株式会社,大阪府,大阪市中央区,千日前１丁目５－１３ＩＡＭＨＯＴＥＬ１階,,27,128,5420074,,,,,,,2021-09-16,1,,,,,ルフォン,0
2349,9120001240434,新規,0,2021-09-16,2021-09-16,Ｋ－ＪＥＴ株式会社,,株式会社,大阪府,守口市,大久保町３丁目１番１号－２０２,,27,209,5700012,,,,,,,2021-09-16,1,,,,,ケージェット,0
2350,9120001240450,新規,0,2021-09-16,2021-09-16,湯姆株式会社,,株式会社,大阪府,大阪市城東区,蒲生３丁目１５番１２号セザンヌ藤３０２Ｂ,,27,118,5360016,,,,,,,2021-09-16,1,,,,,ユボ,0
2351,9120001240459,新規,0,2021-09-16,2021-09-16,ＧＡＲＡＧＥ　ＬＩＢＥＲＴＡＤ株式会社,,株式会社,大阪府,寝屋川市,点野５丁目４番１０号点野ライゼホビー０２号,,27,215,5720077,,,,,,,2021-09-16,1,,,,,ガレージリベルタ,0
2352,9120001240475,新規,0,2021-09-16,2021-09-16,東輝株式会社,,株式会社,大阪府,大阪市生野区,巽北２丁目７番１５号メゾン北巽２０１,00124268,27,116,5440004,,,,,,,2021-09-16,1,,,,,トウキ,0
2353,9120001240483,新規,0,2021-09-16,2021-09-16,Ｍｓｔｏｃｋ株式会社,,株式会社,大阪府,門真市,大橋町２０番２３号,,27,223,5710077,,,,,,,2021-09-16,1,,,,,エムストック,0
2355,9120003020215,新規,0,2021-09-16,2021-09-16,合同会社プラスメイク,,合同会社,大阪府,大阪市福島区,福島８丁目１８番３号メゾンド日西１０３号,,27,103,5530003,,,,,,,2021-09-16,1,,,,,プラスメイク,0
2356,9120003020256,新規,0,2021-09-16,2021-09-16,合同会社グッドストラテジー,,合同会社,大阪府,大阪市北区,長柄西１丁目３番２２－２３０５号,,27,127,5310061,,,,,,,2021-09-16,1,,,,,グッドストラテジー,0
2359,9120101064312,新規,0,2021-09-16,2021-09-16,株式会社ＲＤＳ,,株式会社,大阪府,高石市,東羽衣６丁目１番１１号,,27,225,5920003,,,,,,,2021-09-16,1,,,,,アールディーエス,0
2365,9120901044901,新規,0,2021-09-16,2021-09-16,株式会社ＳＫＹＴＲＵＳＴ,,株式会社,大阪府,池田市,古江町１番地の２２４,,27,204,5630015,,,,,,,2021-09-16,1,,,,,スカイトラスト,0
2368,9122001035178,新規,0,2021-09-16,2021-09-16,株式会社はる不動産,,株式会社,大阪府,東大阪市,六万寺町３丁目１５番９号,,27,227,5798061,,,,,,,2021-09-16,1,,,,,ハルフドウサン,0
2374,9130001070112,新規,0,2021-09-16,2021-09-16,株式会社ファースト,,株式会社,京都府,京都市下京区,水銀屋町６３７第五長谷ビル８階,,26,106,6008411,,,,,,,2021-09-16,1,,,,,ファースト,0
2375,9130003007483,新規,0,2021-09-16,2021-09-16,Ｋｉｒａｋｕ　Ｄｅｖｅｌｏｐｍｅｎｔｓ合同会社,,合同会社,京都府,京都市東山区,新橋通東大路東入林下町４０３番地,,26,105,6050062,,,,,,,2021-09-16,1,,,,,キラクディベロップメンツ,0
2376,9130003007491,新規,0,2021-09-16,2021-09-16,合同会社Ｓｕｉｒｅｎ,,合同会社,京都府,舞鶴市,字大波下１２９３番地１－５０６号,,26,202,6250007,,,,,,,2021-09-16,1,,,,,スイレン,0
2383,9140001123042,新規,0,2021-09-16,2021-09-16,ロコズ株式会社,,株式会社,兵庫県,神戸市灘区,宮山町１丁目１番２２号,,28,102,6570065,,,,,,,2021-09-16,1,,,,,ロコズ,0
2384,9140001123067,新規,0,2021-09-16,2021-09-16,株式会社Ｂｉｔｅｚ,,株式会社,兵庫県,神戸市須磨区,妙法寺字下池ノ尻１２１２－１,,28,107,6540121,,,,,,,2021-09-16,1,,,,,バイツ,0
2385,9140005025813,新規,0,2021-09-16,2021-09-16,一般社団法人陸上競技物語,,その他の設立登記法人,兵庫県,西宮市,苦楽園二番町６番１３号,,28,204,6620082,,,,,,,2021-09-16,1,,,,,リクジョウキョウギモノガタリ,0
2390,9150001024925,新規,0,2021-09-16,2021-09-16,株式会社東野製作所,,株式会社,奈良県,天理市,遠田町５４７番地６,,29,204,6320055,,,,,,,2021-09-16,1,,,,,ヒガシノセイサクショ,0
2402,9180001147822,新規,0,2021-09-16,2021-09-16,株式会社ＹＫテック,,株式会社,愛知県,東海市,加木屋町丑寅海戸１３７番地１,,23,222,4770032,,,,,,,2021-09-16,1,,,,,ワイケイテック,0
2403,9180001147830,新規,0,2021-09-16,2021-09-16,株式会社ロボ派遣,,株式会社,愛知県,名古屋市千種区,春里町１丁目１８番地の１,,23,101,4640038,,,,,,,2021-09-16,1,,,,,ロボハケン,0
2404,9180001147855,新規,0,2021-09-16,2021-09-16,株式会社Ｍ’ｓ　ｃｏｎｎｅｃｔｉｏｎ,,株式会社,愛知県,名古屋市昭和区,折戸町２丁目２９番地メゾン・ド・コリーヌ２１１号,,23,107,4660858,,,,,,,2021-09-16,1,,,,,エムズコネクション,0
2412,9200001039141,新規,0,2021-09-16,2021-09-16,株式会社ガーデン・ヒロ,,株式会社,岐阜県,加茂郡富加町,加治田３２４３番地２,,21,502,5013301,,,,,,,2021-09-16,1,,,,,ガーデンヒロ,0
2419,9230001018984,新規,0,2021-09-16,2021-09-16,株式会社ＳＡＢＯ,,株式会社,富山県,富山市,婦中町下瀬６５９番地,,16,201,9392624,,,,,,,2021-09-16,1,,,,,サボ,0
2421,9240001058617,新規,0,2021-09-16,2021-09-16,株式会社ＫＡＷＡＮＡＫＡ,,株式会社,広島県,広島市中区,大手町２丁目２番１２号１Ｆ,,34,101,7300051,,,,,,,2021-09-16,1,,,,,カワナカ,0
2424,9240005015275,新規,0,2021-09-16,2021-09-16,医療法人高松歯科・矯正歯科,,その他の設立登記法人,広島県,福山市,伊勢丘５丁目１番２０号,,34,207,7210915,,,,,,,2021-09-16,1,,,,,タカマツシカキョウセイシカ,0
2437,9290001094649,新規,0,2021-09-16,2021-09-16,ビッグ・ストーン・クリエイティブ株式会社,,株式会社,福岡県,福岡市中央区,天神２丁目３番１０号天神パインクレスト７１９号,,40,133,8100001,,,,,,,2021-09-16,1,,,,,ビッグストーンクリエイティブ,0
2439,9290003011610,新規,0,2021-09-16,2021-09-16,Ｃｏｎｖｅｙ　Ｎｅｔ　Ｊａｐａｎ合同会社,,合同会社,福岡県,福岡市東区,香椎浜３丁目３－５－９１７,,40,131,8130016,,,,,,,2021-09-16,1,,,,,コンベアネットジャパン,0
2440,9290003011627,新規,0,2021-09-16,2021-09-16,合同会社インベストＦＡ,,合同会社,福岡県,福岡市西区,大字徳永４９０番地２１シャトー伊都の里ピーシス７０１,,40,135,8190375,,,,,,,2021-09-16,1,,,,,インベストエフエー,0
2443,9290805009471,新規,0,2021-09-16,2021-09-16,心美庵,,その他の設立登記法人,福岡県,遠賀郡芦屋町,幸町２－４３,,40,381,8070101,,,,,,,2021-09-16,1,,,,,シンビアン,0
2453,9330005010399,新規,0,2021-09-16,2021-09-16,特定非営利活動法人月と太陽,,その他の設立登記法人,熊本県,荒尾市,牛水８３７番地,,43,204,8640026,,,,,,,2021-09-16,1,,,,,ツキトタイヨウ,0
2454,9350003003923,新規,0,2021-09-16,2021-09-16,合同会社伊豆農園,,合同会社,宮崎県,宮崎市,大字田吉５５１０番地,,45,201,8800911,,,,,,,2021-09-16,1,,,,,イズノウエン,0
2478,9430001084957,新規,0,2021-09-16,2021-09-16,株式会社オフィスエム,,株式会社,北海道,札幌市東区,北二十二条東７丁目２番２６号,,01,103,0650022,,,,,,,2021-09-16,1,,,,,オフィスエム,0
2484,9470001018705,新規,0,2021-09-16,2021-09-16,株式会社ｐｈｙｓｉｃａｌ　ｉｍｐｒｏｖｅ,,株式会社,香川県,木田郡三木町,大字井上１２４２－１,,37,341,7610705,,,,,,,2021-09-16,1,,,,,フィジカルインプルーブ,0
