sequenceNumber,corporateNumber,process,correct,updateDate,changeDate,name,nameImageId,kind,prefectureName,cityName,streetNumber,addressImageId,prefectureCode,cityCode,postCode,addressOutside,addressOutsideImageId,closeDate,closeCause,successorCorporateNumber,changeCause,assignmentDate,latest,enName,enPrefectureName,enCityName,enAddressOutside,furigana,hihyoji
21,1010402026665,登記記録の閉鎖等,0,2025-09-10,2025-08-12,有限会社吉野企画事務所,,有限会社,東京都,港区,南青山１丁目１５番１８－１２０２号,,13,103,1070062,,,2025-08-12,清算の結了等,,,2015-10-05,1,,,,,ヨシノキカクジムショ,0
33,1010901012728,登記記録の閉鎖等,0,2025-09-10,2025-08-12,株式会社ラフアンド・レディ,,株式会社,東京都,港区,南青山６丁目７番１３－７０２号,,13,103,1070062,,,2025-08-12,清算の結了等,,,2015-10-05,1,,,,,ラフアンドレディ,0
34,1010902014302,登記記録の閉鎖等,0,2025-09-10,2025-09-08,有限会社松乃矢,,有限会社,東京都,世田谷区,経堂２丁目１６番１５号,,13,112,1560052,,,2025-09-08,清算の結了等,,,2015-10-05,1,,,,,マツノヤ,0
35,1010905003566,登記記録の閉鎖等,0,2025-09-10,2025-09-09,一般社団法人色彩心理学術協会,,その他の設立登記法人,東京都,世田谷区,玉川３丁目２０番２号マノア玉川第３ビル５０１号室,,13,112,1580094,,,2025-09-09,清算の結了等,,,2018-04-04,1,,,,,シキサイシンリガクジュツキョウカイ,0
52,1011101059171,登記記録の閉鎖等,0,2025-09-10,2025-08-19,スガテック３Ｄシステムサービス株式会社,,株式会社,東京都,新宿区,新宿４丁目３－１７,,13,104,1600022,,,2025-08-19,清算の結了等,,,2015-10-05,1,,,,,スガテックスリーディーシステムサービス,0
58,1011301020627,登記記録の閉鎖等,0,2025-09-10,2025-09-05,とだや本舗株式会社,,株式会社,東京都,杉並区,成田東５丁目１７番１５－７０２号,,13,115,1660015,,,2025-09-05,清算の結了等,,,2015-10-05,1,,,,,トダヤホンポ,0
63,1011802021925,登記記録の閉鎖等,0,2025-09-10,2025-09-02,有限会社ノア・エンタプライズ,,有限会社,東京都,葛飾区,東新小岩８丁目９番３７号,,13,122,1240023,,,2025-09-02,清算の結了等,,,2015-10-05,1,,,,,,0
77,1020001146987,登記記録の閉鎖等,0,2025-09-10,2025-08-25,株式会社アイ・レジャー・エンターテインメント,,株式会社,神奈川県,川崎市川崎区,日進町１番地１１川崎ルフロン１０階,,14,131,2100024,,,2025-08-25,清算の結了等,,,2022-06-21,1,,,,,アイレジャーエンターテインメント,0
81,1020003025223,登記記録の閉鎖等,0,2025-09-10,2025-08-20,合同会社山手進研,,合同会社,神奈川県,横浜市磯子区,下町１３番３－４０５号,,14,107,2350004,,,2025-08-20,清算の結了等,,,2023-12-25,1,,,,,ヤマテシンケン,0
84,1021001026114,登記記録の閉鎖等,0,2025-09-10,2025-08-26,株式会社ワイジーシー,,株式会社,神奈川県,大和市,中央２丁目５番２０号,,14,213,2420021,,,2025-08-26,清算の結了等,,,2015-10-05,1,,,,,ワイジーシー,0
85,1021001044941,登記記録の閉鎖等,0,2025-09-10,2025-08-26,株式会社ケンオーダイニング,,株式会社,神奈川県,平塚市,平塚５丁目２１番２６号,,14,203,2540052,,,2025-08-26,清算の結了等,,,2015-10-05,1,,,,,ケンオーダイニング,0
114,1060001015057,登記記録の閉鎖等,0,2025-09-10,2025-09-05,セントラルグラスモジュール株式会社,,株式会社,栃木県,下野市,下古山字周防塚２３３３番地,,09,216,3290502,,,2025-09-05,清算の結了等,,,2015-10-05,1,,,,,セントラルグラスモジュール,0
123,1100001009302,登記記録の閉鎖等,0,2025-09-10,2025-09-08,ＲＹＵ　ＧＯＬＦ　ＪＡＰＡＮ株式会社,,株式会社,長野県,北佐久郡御代田町,大字御代田１１７５番地３,,20,323,3890206,,,2025-09-08,清算の結了等,,,2015-10-05,1,,,,,リューゴルフジャパン,0
126,1100002009755,登記記録の閉鎖等,0,2025-09-10,2025-09-08,有限会社ピーシー・シカダ,,有限会社,長野県,千曲市,大字磯部６５６番地１,,20,218,3890806,,,2025-09-08,清算の結了等,,,2015-10-05,1,,,,,ピーシーシカダ,0
150,1120005000643,登記記録の閉鎖等,0,2025-09-10,2025-09-08,企業組合阿倍野山兼食糧店,,その他の設立登記法人,大阪府,大阪市阿倍野区,天王寺町北２丁目２７番８号,,27,119,5450001,,,2025-09-08,清算の結了等,,,2015-10-05,1,,,,,アベノヤマカネショクリョウテン,0
157,1130001020677,登記記録の閉鎖等,0,2025-09-10,2025-09-05,ケーイーマリン株式会社,,株式会社,京都府,京都市中京区,西ノ京東月光町１１番地の４,,26,104,6048422,,,2025-09-05,合併による解散等,2160001022298,令和７年９月２日滋賀県大津市大物１７７番地の１１株式会社ＫＥ　ＲＡＣＩＮＧ（2160001022298）に合併し解散,2015-10-05,1,,,,,ケーイーマリン,0
180,1180001008627,登記記録の閉鎖等,0,2025-09-10,2025-08-27,大輝建設株式会社,,株式会社,愛知県,名古屋市昭和区,北山町３丁目２３番地,,23,107,4660006,,,2025-08-27,清算の結了等,,,2015-10-05,1,,,,,ダイキケンセツ,0
197,1210002004547,登記記録の閉鎖等,0,2025-09-10,2025-09-08,有限会社イワタシステム,,有限会社,福井県,福井市,馬垣町下馬境３０４番地,,18,201,9188111,,,2025-09-08,清算の結了等,,,2015-10-05,1,,,,,イワタシステム,0
198,1220001012046,登記記録の閉鎖等,0,2025-09-10,2025-09-05,株式会社佐伯鉄工所,,株式会社,石川県,小松市,長田町甲１７番地,,17,203,9230034,,,2025-09-05,清算の結了等,,,2015-10-05,1,,,,,サエキテッコウショ,0
211,1260002015952,登記記録の閉鎖等,0,2025-09-10,2025-09-01,有限会社Ｃ・Ｔレンタリース,,有限会社,岡山県,岡山市南区,藤田５６４番地の１３０,,33,104,7010221,,,2025-09-01,清算の結了等,,,2015-10-05,1,,,,,シイテイレンタリース,0
224,1320003001350,登記記録の閉鎖等,0,2025-09-10,2025-09-08,岩尾林産合資会社,,合資会社,大分県,玖珠郡九重町,大字野上３８４６番地,,44,461,8794802,,,2025-09-08,清算の結了等,,,2015-10-05,1,,,,,イワオリンサン,0
253,1440001005176,登記記録の閉鎖等,0,2025-09-10,2025-09-05,株式会社ミチコ函館,,株式会社,北海道,函館市,宇賀浦町４番２４号,,01,202,0400023,,,2025-09-05,清算の結了等,,,2015-10-05,1,,,,,ミチコハコダテ,0
258,1500002000863,登記記録の閉鎖等,0,2025-09-10,2025-09-08,有限会社イーイー共栄,,有限会社,愛媛県,松山市,森松町１１６３番地１,,38,201,7911113,,,2025-09-08,清算の結了等,,,2015-10-05,1,,,,,イーイーキョウエイ,0
277,2010401006171,登記記録の閉鎖等,0,2025-09-10,2025-09-01,荻原舞台美術株式会社,,株式会社,東京都,港区,南麻布３丁目９番２７－４０５号,,13,103,1060047,,,2025-09-01,清算の結了等,,,2015-10-05,1,,,,,オギハラブタイビジュツ,0
295,2010801034284,登記記録の閉鎖等,0,2025-09-10,2025-09-02,開源株式会社,,株式会社,東京都,大田区,東海３丁目７番３号,,13,111,1430001,,,2025-09-02,清算の結了等,,,2023-08-28,1,,,,,カイゲン,0
300,2011001042210,登記記録の閉鎖等,0,2025-09-10,2025-08-12,株式会社ＢＵＯＮＯ,,株式会社,東京都,渋谷区,神宮前３丁目３８番１７号,,13,113,1500001,,,2025-08-12,清算の結了等,,,2015-10-05,1,,,,,ボーノ,0
302,2011001144361,登記記録の閉鎖等,0,2025-09-10,2025-08-08,ＴＤＧホールディングス株式会社,,株式会社,東京都,目黒区,中根２丁目１２番２号,,13,110,1520031,,,2025-08-08,合併による解散等,8013201006674,令和７年８月１日東京都目黒区中根二丁目１２番２号東京電気技術工業株式会社（8013201006674）に合併し解散,2021-12-06,1,,,,,ティディジーホールディングス,0
310,2011101096940,登記記録の閉鎖等,0,2025-09-10,2025-08-25,株式会社Ｒｅ‐ｒｅｎｔ,,株式会社,東京都,千代田区,神田多町２丁目１番地,,13,101,1010046,,,2025-08-25,清算の結了等,,,2021-11-18,1,,,,,リレント,0
323,2011602010631,登記記録の閉鎖等,0,2025-09-10,2025-08-28,有限会社羊群社,,有限会社,東京都,練馬区,豊玉北１丁目１２番３号,,13,120,1760012,,,2025-08-28,清算の結了等,,,2015-10-05,1,,,,,ヨウグンシャ,0
325,2011703003435,登記記録の閉鎖等,0,2025-09-10,2025-09-03,合同会社ＴＥＲＩＯ,,合同会社,東京都,江戸川区,東葛西９丁目３番１４－７０５号,,13,123,1340084,,,2025-09-03,清算の結了等,,,2023-04-03,1,,,,,テリオ,0
356,2030002087279,登記記録の閉鎖等,0,2025-09-10,2025-09-02,有限会社永井薬局,,有限会社,埼玉県,越谷市,蒲生寿町１４番１６号,,11,222,3430836,,,2025-09-02,清算の結了等,,,2015-10-05,1,,,,,ナガイヤッキョク,0
369,2040002084993,登記記録の閉鎖等,0,2025-09-10,2025-08-19,有限会社金杉呉服店,,有限会社,千葉県,旭市,鏑木２１３２番地,,12,215,2890511,,,2025-08-19,清算の結了等,,,2015-10-05,1,,,,,カナスギゴフクテン,0
383,2080101006564,登記記録の閉鎖等,0,2025-09-10,2025-09-04,日本ＧＳＢ株式会社,,株式会社,静岡県,駿東郡長泉町,南一色６６番地の３３,,22,342,4110932,,,2025-09-04,清算の結了等,,,2015-10-05,1,,,,,ニホンジーエスビー,0
388,2100002035321,登記記録の閉鎖等,0,2025-09-10,2025-09-08,有限会社橋場工業,,有限会社,長野県,上伊那郡辰野町,大字平出２６９３番地１,,20,382,3990422,,,2025-09-08,清算の結了等,,,2015-10-05,1,,,,,ハシバコウギョウ,0
408,2120003024338,登記記録の閉鎖等,0,2025-09-10,2025-08-29,合同会社ＴＭサポート,,合同会社,大阪府,枚方市,宮之阪１丁目２３‐１４‐１２０５,,27,210,5730022,,,2025-08-29,清算の結了等,,,2023-06-20,1,,,,,ティーエムサポート,0
412,2120101025675,登記記録の閉鎖等,0,2025-09-10,2025-08-18,株式会社ブラザーテック,,株式会社,大阪府,松原市,小川５丁目２３番１０号,,27,217,5800002,,,2025-08-18,清算の結了等,,,2015-10-05,1,,,,,ブラザーテック,0
413,2120101052257,登記記録の閉鎖等,0,2025-09-10,2025-09-04,株式会社セイワリース,,株式会社,大阪府,貝塚市,三ツ松２３６４番地１,,27,208,5970105,,,2025-09-04,合併による解散等,1120001106989,令和７年９月１日大阪市住之江区柴谷二丁目５番１４号株式会社成和工業（1120001106989）に合併し解散,2015-10-05,1,,,,,セイワリース,0
428,2140002021243,登記記録の閉鎖等,0,2025-09-10,2025-09-01,有限会社アイ・エス・ディ・エンタープライズ,,有限会社,兵庫県,神戸市中央区,三宮町１丁目６番１５号,,28,110,6500021,,,2025-09-01,合併による解散等,2140002050746,令和７年９月１日兵庫県姫路市飾磨区恵美酒２７０番地株式会社イクティス姫路（2140002050746）に合併し解散,2015-10-05,1,,,,,アイエスディエンタープライズ,0
444,2180003018581,登記記録の閉鎖等,0,2025-09-10,2025-08-19,合同会社ＹＵＫＡＲＩ,,合同会社,愛知県,小牧市,小木東１丁目２６７番地,,23,219,4850059,,,2025-08-19,清算の結了等,,,2018-01-11,1,,,,,ユカリ,0
450,2190002024357,登記記録の閉鎖等,0,2025-09-10,2025-09-01,有限会社平成プランニング,,有限会社,三重県,四日市市,西坂部町４００３番地２１,,24,202,5120913,,,2025-09-01,清算の結了等,,,2015-10-05,1,,,,,ヘイセイプランニング,0
472,2290003004208,登記記録の閉鎖等,0,2025-09-10,2025-08-15,合同会社若生,,合同会社,福岡県,福岡市東区,和白東１丁目２０番１２－１０１号,,40,131,8110214,,,2025-08-15,清算の結了等,,,2015-10-05,1,,,,,ワコウ,0
480,2300002008901,登記記録の閉鎖等,0,2025-09-10,2025-09-04,有限会社久保建設,,有限会社,佐賀県,鳥栖市,秋葉町２丁目１２１９番地１０,,41,203,8410036,,,2025-09-04,清算の結了等,,,2015-10-05,1,,,,,クボケンセツ,0
494,2350001016735,登記記録の閉鎖等,0,2025-09-10,2025-09-04,株式会社井上林業,,株式会社,宮崎県,小林市,細野４９８２番地１,,45,205,8860004,,,2025-09-04,清算の結了等,,,2020-11-25,1,,,,,イノウエリンギョウ,0
495,2350003003665,登記記録の閉鎖等,0,2025-09-10,2025-09-01,合同会社ＡＲＢＲＥ,,合同会社,宮崎県,延岡市,二ツ島町９７０２番地３６,,45,203,8820022,,,2025-09-01,合併による解散等,3350001011099,令和７年９月１日宮崎県延岡市二ツ島町９７０２番地３６株式会社ＡＲＢＲＥ（3350001011099）に合併し解散,2020-09-09,1,,,,,アーバ,0
499,2370002002773,登記記録の閉鎖等,0,2025-09-10,2025-08-28,有限会社クロップ,,有限会社,宮城県,仙台市太白区,東中田６丁目９番５３号,,04,104,9811107,,,2025-08-28,清算の結了等,,,2015-10-05,1,,,,,クロップ,0
501,2380001025972,登記記録の閉鎖等,0,2025-09-10,2025-09-01,株式会社瀬戸,,株式会社,福島県,福島市,八木田字榎内１番地の１０,,07,201,9608164,,,2025-09-01,清算の結了等,,,2015-10-05,1,,,,,セト,0
551,3010602007298,登記記録の閉鎖等,0,2025-09-10,2025-09-05,有限会社日高運送店,,有限会社,東京都,江東区,北砂４丁目４０番１９号,,13,108,1360073,,,2025-09-05,清算の結了等,,,2015-10-05,1,,,,,ヒダカウンソウテン,0
585,3011105009261,登記記録の閉鎖等,0,2025-09-10,2025-08-18,一般社団法人台湾友の会,,その他の設立登記法人,東京都,新宿区,西新宿７丁目１－７新宿ダイカンプラザＡ１０１８,,13,104,1600023,,,2025-08-18,清算の結了等,,,2020-02-26,1,,,,,タイワントモノカイ,0
593,3011601011571,登記記録の閉鎖等,0,2025-09-10,2025-08-28,株式会社美彌樹,,株式会社,東京都,練馬区,中村１丁目１４番２－２０７号,,13,120,1760024,,,2025-08-28,清算の結了等,,,2015-10-05,1,,,,,ミヤキ,0
594,3011801012634,登記記録の閉鎖等,0,2025-09-10,2025-09-03,株式会社谷古宇商店,,株式会社,東京都,足立区,西保木間１丁目１２番２１号,,13,121,1210812,,,2025-09-03,清算の結了等,,,2015-10-05,1,,,,,ヤコウショウテン,0
603,3020001009812,登記記録の閉鎖等,0,2025-09-10,2025-08-25,機電総業株式会社,,株式会社,神奈川県,横浜市保土ケ谷区,星川３丁目２２番３３号,,14,106,2400006,,,2025-08-25,清算の結了等,,,2015-10-05,1,,,,,キデンソウギョウ,0
604,3020001060939,登記記録の閉鎖等,0,2025-09-10,2025-08-27,株式会社まさはしや,,株式会社,神奈川県,横浜市鶴見区,上末吉５丁目９番１５号,,14,101,2300011,,,2025-08-27,清算の結了等,,,2015-10-05,1,,,,,マサハシヤ,0
607,3020001094144,登記記録の閉鎖等,0,2025-09-10,2025-08-22,株式会社ライフ・ラボ,,株式会社,神奈川県,横浜市都筑区,中川３丁目１９番１号,,14,118,2240001,,,2025-08-22,清算の結了等,,,2015-10-05,1,,,,,ライフラボ,0
608,3020001139031,登記記録の閉鎖等,0,2025-09-10,2025-09-05,株式会社センターフィールズ,,株式会社,神奈川県,横浜市中区,本牧三之谷４４番４号,,14,104,2310824,,,2025-09-05,合併による解散等,8180301036866,令和７年８月１７日愛知県豊橋市柱二番町７５番地１株式会社ＣＲＥＣＥＮＯ（8180301036866）に合併し解散,2020-12-16,1,,,,,センターフィールズ,0
614,3021001024314,登記記録の閉鎖等,0,2025-09-10,2025-08-29,免震ハウス株式会社,,株式会社,神奈川県,厚木市,宮の里４丁目１番３－４０２号,,14,212,2430216,,,2025-08-29,清算の結了等,,,2015-10-05,1,,,,,メンシンハウス,0
615,3021001072833,登記記録の閉鎖等,0,2025-09-10,2025-08-20,株式会社プログリッジ,,株式会社,愛知県,知多郡美浜町,大字北方字東側５３－１,,23,446,4702403,,,2025-08-20,清算の結了等,,,2021-05-07,1,,,,,プログリッジ,0
618,3021002060630,登記記録の閉鎖等,0,2025-09-10,2025-09-04,有限会社マリンビューロー,,有限会社,神奈川県,中郡大磯町,東小磯５４８番地１０,,14,341,2550004,,,2025-09-04,清算の結了等,,,2015-10-05,1,,,,,マリンビューロー,0
619,3030001031708,登記記録の閉鎖等,0,2025-09-10,2025-08-18,協立建興株式会社,,株式会社,埼玉県,北葛飾郡杉戸町,大字堤根３９８９,,11,464,3450024,,,2025-08-18,清算の結了等,,,2015-10-05,1,,,,,キョウリツケンコウ,0
622,3030002085471,登記記録の閉鎖等,0,2025-09-10,2025-09-02,有限会社開伸工業,,有限会社,埼玉県,越谷市,七左町４丁目４４９番地,,11,222,3430851,,,2025-09-02,清算の結了等,,,2015-10-05,1,,,,,カイシンコウギョウ,0
627,3040002048139,登記記録の閉鎖等,0,2025-09-10,2025-08-20,有限会社ピットイン,,有限会社,千葉県,松戸市,稔台８丁目４０番地の２０,,12,207,2702231,,,2025-08-20,清算の結了等,,,2015-10-05,1,,,,,ピットイン,0
628,3040002051010,登記記録の閉鎖等,0,2025-09-10,2025-08-18,アライトレーディング有限会社,,有限会社,千葉県,松戸市,新松戸６丁目３２番地サンライトハイツＩＩ,00125862,12,207,2700034,,,2025-08-18,清算の結了等,,,2015-10-05,1,,,,,アライトレーディング,0
632,3050001053114,登記記録の閉鎖等,0,2025-09-10,2025-09-02,サウステック株式会社,,株式会社,茨城県,東茨城郡城里町,大字下赤沢５０４番地,,08,310,3114406,,,2025-09-02,清算の結了等,,,2023-07-11,1,,,,,サウステック,0
639,3060002028592,登記記録の閉鎖等,0,2025-09-10,2025-09-03,有限会社椎名事務所,,有限会社,栃木県,小山市,駅南町４丁目３１番１１号,,09,208,3230822,,,2025-09-03,清算の結了等,,,2015-10-05,1,,,,,シイナジムショ,0
674,3140005008988,登記記録の閉鎖等,0,2025-09-10,2025-09-05,医療法人社団天野歯科医院,,その他の設立登記法人,兵庫県,丹波篠山市,上宿３２０番地１,,28,221,6692415,,,2025-09-05,清算の結了等,,,2015-10-05,1,,,,,,0
702,3270003001164,登記記録の閉鎖等,0,2025-09-10,2025-09-09,日南町バイオマスパワー合同会社,,合同会社,鳥取県,日野郡日南町,下石見１８２９番地１０３,,31,401,6895665,,,2025-09-09,清算の結了等,,,2019-09-12,1,,,,,ニチナンチョウバイオマスパワー,0
722,3330002018566,登記記録の閉鎖等,0,2025-09-10,2025-09-01,有限会社成貢建設,,有限会社,熊本県,山鹿市,菊鹿町矢谷４７３番地,,43,208,8610413,,,2025-09-01,清算の結了等,,,2015-10-05,1,,,,,セイコウケンセツ,0
738,3370002000108,登記記録の閉鎖等,0,2025-09-10,2025-08-27,有限会社アーキス,,有限会社,宮城県,仙台市泉区,将監８丁目１１番７号,,04,105,9813132,,,2025-08-27,清算の結了等,,,2015-10-05,1,,,,,アーキス,0
744,3380002006384,登記記録の閉鎖等,0,2025-09-10,2025-09-01,有限会社瓶子電設,,有限会社,福島県,伊達市,保原町字弥生町５０番地２,,07,213,9600629,,,2025-09-01,清算の結了等,,,2015-10-05,1,,,,,ヘイシデンセツ,0
745,3380002025442,登記記録の閉鎖等,0,2025-09-10,2025-08-27,有限会社長谷川管工,,有限会社,福島県,いわき市,平塩字西川原２０番地の１,,07,204,9708022,,,2025-08-27,清算の結了等,,,2015-10-05,1,,,,,ハセガワカンコウ,0
748,3410001009764,登記記録の閉鎖等,0,2025-09-10,2025-09-08,株式会社伊勢自動車販売,,株式会社,秋田県,横手市,十文字町佐賀会字上沖田２９０番地１,,05,203,0190506,,,2025-09-08,清算の結了等,,,2015-10-05,1,,,,,,0
755,3460302004641,登記記録の閉鎖等,0,2025-09-10,2025-09-08,有限会社敏,,有限会社,北海道,網走郡大空町,女満別西二条３丁目１番１２号,,01,564,0992322,,,2025-09-08,清算の結了等,,,2015-10-05,1,,,,,,0
774,4010405021017,登記記録の閉鎖等,0,2025-09-10,2025-08-12,虎ノ門スリー特定目的会社,,その他の設立登記法人,東京都,港区,虎ノ門３丁目２２番１０－２０１号,,13,103,1050001,,,2025-08-12,清算の結了等,,,2022-05-24,1,,,,,トラノモンスリー,0
783,4010701038615,登記記録の閉鎖等,0,2025-09-10,2025-09-04,株式会社アウトソーシングＣＦＯ,,株式会社,東京都,江戸川区,東葛西４丁目６－１０－３０２,,13,123,1340084,,,2025-09-04,清算の結了等,,,2019-12-09,1,,,,,アウトソーシングシーエフオー,0
790,4010901030974,登記記録の閉鎖等,0,2025-09-10,2025-09-08,株式会社ＳＴ,,株式会社,東京都,世田谷区,用賀３丁目１１番１号,,13,112,1580097,,,2025-09-08,合併による解散等,6012301012279,令和７年９月１日東京都町田市木曽東三丁目３番１号株式会社ＳＴケア（6012301012279）に合併し解散,2015-10-05,1,,,,,エスティー,0
801,4011003015220,登記記録の閉鎖等,0,2025-09-10,2025-08-20,ｄｅｖｄｅｓｉｇｎ合同会社,,合同会社,神奈川県,横浜市青葉区,もみの木台２４－２５もみの木台フラット３０２,,14,117,2250026,,,2025-08-20,清算の結了等,,,2022-08-16,1,,,,,デブデザイン,0
804,4011101090438,登記記録の閉鎖等,0,2025-09-10,2025-08-25,株式会社アンドデータ,,株式会社,東京都,中央区,京橋１丁目１－５セントラルビル２階,,13,102,1040031,,,2025-08-25,清算の結了等,,,2020-02-17,1,,,,,アンドデータ,0
808,4011201013356,登記記録の閉鎖等,0,2025-09-10,2025-09-01,株式会社アイシステム,,株式会社,東京都,中野区,鷺宮２丁目９番１０号,,13,114,1650032,,,2025-09-01,清算の結了等,,,2015-10-05,1,,,,,アイシステム,0
817,4011702008706,登記記録の閉鎖等,0,2025-09-10,2025-09-02,成田工業有限会社,,有限会社,東京都,江戸川区,中葛西３丁目２８番１０号富士ビル２０１号,,13,123,1340083,,,2025-09-02,清算の結了等,,,2015-10-05,1,,,,,ナリタコウギョウ,0
818,4011703002229,登記記録の閉鎖等,0,2025-09-10,2025-09-02,ゲートウェイ合同会社,,合同会社,東京都,江戸川区,船堀３丁目１３番１２－１０１号,,13,123,1340091,,,2025-09-02,清算の結了等,,,2019-04-03,1,,,,,ゲートウェイ,0
829,4012801001428,登記記録の閉鎖等,0,2025-09-10,2025-08-28,株式会社不二商会,,株式会社,東京都,立川市,富士見町５丁目９番１２号,,13,202,1900013,,,2025-08-28,清算の結了等,,,2015-10-05,1,,,,,,0
831,4012802003720,登記記録の閉鎖等,0,2025-09-10,2025-08-28,有限会社ポーラスエンジニアリング,,有限会社,東京都,昭島市,昭和町１丁目１番２４号,,13,207,1960015,,,2025-08-28,清算の結了等,,,2015-10-05,1,,,,,ポーラスエンジニアリング,0
836,4020001135995,登記記録の閉鎖等,0,2025-09-10,2025-08-25,株式会社ＡＲＴｕｒａｌ,,株式会社,神奈川県,横浜市瀬谷区,下瀬谷２丁目２５番９号Ａ,,14,114,2460035,,,2025-08-25,清算の結了等,,,2020-05-08,1,,,,,アーチュラル,0
838,4020002008746,登記記録の閉鎖等,0,2025-09-10,2025-08-27,有限会社ヘアーサロンクラウン,,有限会社,神奈川県,横浜市金沢区,洲崎町２番４号,,14,108,2360028,,,2025-08-27,清算の結了等,,,2015-10-05,1,,,,,ヘアーサロンクラウン,0
854,4040001050945,登記記録の閉鎖等,0,2025-09-10,2025-08-18,株式会社松本,,株式会社,千葉県,木更津市,潮見６丁目３番地４,,12,206,2920834,,,2025-08-18,清算の結了等,,,2015-10-05,1,,,,,マツモト,0
856,4040001101905,登記記録の閉鎖等,0,2025-09-10,2025-08-18,株式会社リロード,,株式会社,千葉県,千葉市稲毛区,園生町１３１２番地１－３１３,,12,103,2630051,,,2025-08-18,清算の結了等,,,2017-09-27,1,,,,,リロード,0
859,4050001008447,登記記録の閉鎖等,0,2025-09-10,2025-09-02,株式会社ケイテック,,株式会社,茨城県,水戸市,酒門町３１７６番１５号,,08,201,3100841,,,2025-09-02,清算の結了等,,,2015-10-05,1,,,,,ケイテック,0
860,4050001019709,登記記録の閉鎖等,0,2025-09-10,2025-09-02,ハマエンタープライズ株式会社,,株式会社,茨城県,古河市,三杉町１丁目７番２３号,,08,204,3060002,,,2025-09-02,清算の結了等,,,2015-10-05,1,,,,,ハマエンタープライズ,0
861,4050001045052,登記記録の閉鎖等,0,2025-09-10,2025-09-01,株式会社ケーエムワン,,株式会社,茨城県,土浦市,荒川沖３９９番地６,,08,203,3000873,,,2025-09-01,合併による解散等,2050001018027,令和７年９月１日茨城県つくば市松代二丁目７番７号株式会社ハートフルランド（2050001018027）に合併し解散,2018-10-10,1,,,,,ケーエムワン,0
864,4050002022380,登記記録の閉鎖等,0,2025-09-10,2025-09-01,有限会社コージースペース,,有限会社,茨城県,つくば市,吉瀬字中嶋久保１０８７番地の７,,08,220,3050022,,,2025-09-01,合併による解散等,8050002022377,令和７年９月１日茨城県つくば市吉瀬字中嶋久保１０８７番地の７株式会社高林（8050002022377）に合併し解散,2015-10-05,1,,,,,コージースペース,0
880,4110002016376,登記記録の閉鎖等,0,2025-09-10,2025-08-26,有限会社渡辺運輸,,有限会社,新潟県,新発田市,三日市字道上２２９番地,,15,206,9592453,,,2025-08-26,清算の結了等,,,2015-10-05,1,,,,,ワタナベウンユ,0
881,4110002029948,登記記録の閉鎖等,0,2025-09-10,2025-08-26,有限会社会館やまご,,有限会社,新潟県,長岡市,気比宮１１３８番地,,15,202,9402322,,,2025-08-26,清算の結了等,,,2015-10-05,1,,,,,カイカンヤマゴ,0
882,4110003004140,登記記録の閉鎖等,0,2025-09-10,2025-08-20,ＧＫトレーディング合同会社,,合同会社,東京都,港区,芝２丁目１番２４号,,13,103,1050014,,,2025-08-20,合併による解散等,6010401010021,令和７年８月２０日東京都港区芝二丁目１番２４号五幸商事株式会社（6010401010021）に合併し解散,2020-04-07,1,,,,,ジーケートレーディング,0
926,4140001098594,登記記録の閉鎖等,0,2025-09-10,2025-09-03,株式会社創心館,,株式会社,兵庫県,姫路市,勝原区宮田６４８番地,,28,201,6711213,,,2025-09-03,清算の結了等,,,2015-10-05,1,,,,,ソウシンカン,0
966,4200005011638,登記記録の閉鎖等,0,2025-09-10,2025-09-04,特定非営利活動法人熟年ライフサポートセンター,,その他の設立登記法人,岐阜県,羽島市,舟橋町出須賀２丁目８番地,,21,209,5016304,,,2025-09-04,清算の結了等,,,2015-10-05,1,,,,,ジュクネンライフサポートセンター,0
969,4210001001278,登記記録の閉鎖等,0,2025-09-10,2025-09-05,小林繊維株式会社,,株式会社,福井県,福井市,東森田１丁目８０２番地,,18,201,9100138,,,2025-09-05,清算の結了等,,,2015-10-05,1,,,,,コバヤシセンイ,0
974,4240002050767,登記記録の閉鎖等,0,2025-09-10,2025-09-03,有限会社鈴木石油店,,有限会社,広島県,尾道市,尾崎本町１３番１号,,34,205,7220054,,,2025-09-03,清算の結了等,,,2015-10-05,1,,,,,スズキセキユテン,0
983,4300005003996,登記記録の閉鎖等,0,2025-09-10,2025-09-05,特定非営利活動法人こだま,,その他の設立登記法人,佐賀県,嬉野市,嬉野町大字吉田甲１３１４番地,,41,209,8430303,,,2025-09-05,清算の結了等,,,2015-10-05,1,,,,,コダマ,0
988,4330002026080,登記記録の閉鎖等,0,2025-09-10,2025-09-01,有限会社土田商会,,有限会社,熊本県,八代市,高小原町１５４３番地の３,00097910,43,202,8660012,,,2025-09-01,清算の結了等,,,2015-10-05,1,,,,,ツチダショウカイ,0
1002,4400002008443,登記記録の閉鎖等,0,2025-09-10,2025-08-29,有限会社花巻三和,,有限会社,岩手県,花巻市,一日市５番２８号,,03,205,0250073,,,2025-08-29,清算の結了等,,,2015-10-05,1,,,,,ハナマキサンワ,0
1005,4440001006411,登記記録の閉鎖等,0,2025-09-10,2025-09-01,株式会社乙部観光,,株式会社,北海道,爾志郡乙部町,字館浦５２７番地の２,,01,364,0430104,,,2025-09-01,清算の結了等,,,2015-10-05,1,,,,,オトベカンコウ,0
1016,4500002017855,登記記録の閉鎖等,0,2025-09-10,2025-09-08,有限会社エスティーエス,,有限会社,愛媛県,今治市,延喜甲２８５番地５,,38,202,7940084,,,2025-09-08,清算の結了等,,,2015-10-05,1,,,,,エスティーエス,0
1022,5010001236843,登記記録の閉鎖等,0,2025-09-10,2025-08-25,株式会社ｙｏｎｋａｉ,,株式会社,東京都,千代田区,九段南１丁目５番６号,,13,101,1020074,,,2025-08-25,清算の結了等,,,2023-07-12,1,,,,,ヨンカイ,0
1044,5010701030273,登記記録の閉鎖等,0,2025-09-10,2025-09-05,株式会社オーエスコーポレーション,,株式会社,東京都,中央区,日本橋人形町１丁目３番６号,,13,102,1030013,,,2025-09-05,合併による解散等,1120001049081,令和７年９月１日大阪市西淀川区御幣島一丁目１６番１１号アイエスケー株式会社（1120001049081）に合併し解散,2015-10-05,1,,,,,オーエスコーポレーション,0
1061,5011101090296,登記記録の閉鎖等,0,2025-09-10,2025-08-19,株式会社ＫＩＭＩＴＯ,,株式会社,東京都,新宿区,高田馬場２丁目１５番９号鈴や第五ビル３０１号室,,13,104,1690075,,,2025-08-19,清算の結了等,,,2020-02-03,1,,,,,キミト,0
1067,5011201023437,登記記録の閉鎖等,0,2025-09-10,2025-09-01,株式会社ナックテクノサイエンス,,株式会社,東京都,中野区,松が丘２丁目１９番９－４１２号,,13,114,1650024,,,2025-09-01,清算の結了等,,,2021-11-25,1,,,,,ナックテクノサイエンス,0
1080,5012701012466,登記記録の閉鎖等,0,2025-09-10,2025-09-01,株式会社いなり,,株式会社,北海道,札幌市豊平区,平岸六条１７丁目１－２－Ｃ１Ａ,,01,105,0620936,,,2025-09-01,清算の結了等,,,2015-10-05,1,,,,,イナリ,0
1084,5013202014159,登記記録の閉鎖等,0,2025-09-10,2025-08-27,有限会社オフィスサンマリー,,有限会社,神奈川県,小田原市,城山３丁目１９番２５号の２０６,,14,206,2500045,,,2025-08-27,清算の結了等,,,2015-10-05,1,,,,,オフィスサンマリー,0
1099,5021001028932,登記記録の閉鎖等,0,2025-09-10,2025-08-22,株式会社メディアサウンド,,株式会社,神奈川県,大和市,上草柳７丁目１０番１４－３０５号,,14,213,2420029,,,2025-08-22,清算の結了等,,,2015-10-05,1,,,,,メディアサウンド,0
1118,5050001001145,登記記録の閉鎖等,0,2025-09-10,2025-09-02,株式会社澤田表具工業,,株式会社,茨城県,水戸市,浜田２丁目３番２０号,,08,201,3100812,,,2025-09-02,清算の結了等,,,2015-10-05,1,,,,,,0
1120,5080005003201,登記記録の閉鎖等,0,2025-09-10,2025-09-01,医療法人社団克己会田村医院,,その他の設立登記法人,静岡県,静岡市清水区,船越東町１８０番地の９,,22,103,4240862,,,2025-09-01,清算の結了等,,,2015-10-05,1,,,,,コッキカイタムライイン,0
1121,5080102021213,登記記録の閉鎖等,0,2025-09-10,2025-09-04,有限会社渡辺工業,,有限会社,静岡県,下田市,横川３３３番地,,22,219,4130712,,,2025-09-04,清算の結了等,,,2015-10-05,1,,,,,ワタナベコウギョウ,0
1127,5110001027745,登記記録の閉鎖等,0,2025-09-10,2025-08-22,エス・エス・ケー株式会社,,株式会社,新潟県,佐渡市,加茂歌代９７０番地,,15,224,9520028,,,2025-08-22,清算の結了等,,,2015-10-05,1,,,,,エスエスケー,0
1149,5120103002488,登記記録の閉鎖等,0,2025-09-10,2025-09-02,合同会社プラス和,,合同会社,大阪府,堺市中区,小阪６３５番地,,27,142,5998276,,,2025-09-02,清算の結了等,,,2016-06-09,1,,,,,プラスカズ,0
1165,5140001090245,登記記録の閉鎖等,0,2025-09-10,2025-09-03,クロネコキューブ株式会社,,株式会社,兵庫県,神戸市東灘区,森南町２丁目８－２,,28,101,6580011,,,2025-09-03,清算の結了等,,,2015-10-05,1,,,,,クロネコキューブ,0
1169,5140002065015,登記記録の閉鎖等,0,2025-09-10,2025-09-03,有限会社ナカタニ,,有限会社,兵庫県,川辺郡猪名川町,柏梨田字塩井２２７番地の１,,28,301,6660243,,,2025-09-03,清算の結了等,,,2015-10-05,1,,,,,ナカタニ,0
1173,5160001011802,登記記録の閉鎖等,0,2025-09-10,2025-09-04,安曇川木材株式会社,,株式会社,滋賀県,高島市,安曇川町常磐木３５４番地,,25,212,5201211,,,2025-09-04,清算の結了等,,,2015-10-05,1,,,,,アドガワモクザイ,0
1178,5180001078360,登記記録の閉鎖等,0,2025-09-10,2025-08-20,株式会社ホットハートダイニング,,株式会社,愛知県,春日井市,宮町１丁目６番地８,,23,206,4860904,,,2025-08-20,清算の結了等,,,2015-10-05,1,,,,,ホットハートダイニング,0
1202,5240001046047,登記記録の閉鎖等,0,2025-09-10,2025-09-01,株式会社木下エネルギーパーク,,株式会社,広島県,広島市佐伯区,五日市町大字石内５９９８番地１,,34,108,7315102,,,2025-09-01,合併による解散等,9240001034048,令和７年８月３１日広島県福山市西新涯町二丁目３番２５号株式会社神原組（9240001034048）に合併し解散,2015-10-05,1,,,,,キノシタエネルギーパーク,0
1210,5260005001426,登記記録の閉鎖等,0,2025-09-10,2025-09-03,協同組合岡山中央物流ネットワーク,,その他の設立登記法人,岡山県,岡山市北区,横井上４２番地の１,,33,101,7011145,,,2025-09-03,清算の結了等,,,2015-10-05,1,,,,,オカヤマチュウオウブツリュウネットワーク,0
1219,5290802003456,登記記録の閉鎖等,0,2025-09-10,2025-09-09,有限会社スマイルコンタクト,,有限会社,福岡県,北九州市小倉北区,都１丁目１番１９号,,40,106,8030834,,,2025-09-09,清算の結了等,,,2015-10-05,1,,,,,スマイルコンタクト,0
1227,5340002022821,登記記録の閉鎖等,0,2025-09-10,2025-09-01,有限会社福徳金物店,,有限会社,鹿児島県,出水郡長島町,鷹巣１６６１番地,,46,404,8991401,,,2025-09-01,合併による解散等,2340002022502,令和７年８月３１日鹿児島県出水郡長島町諸浦１１２９番地５株式会社白石水産（2340002022502）に合併し解散,2015-10-05,1,,,,,フクトクカナモノテン,0
1236,5380001005542,登記記録の閉鎖等,0,2025-09-10,2025-09-01,株式会社スカイウェイ,,株式会社,福島県,郡山市,安積荒井３丁目６４番地,,07,203,9630117,,,2025-09-01,清算の結了等,,,2015-10-05,1,,,,,スカイウェイ,0
1253,6010001028760,登記記録の閉鎖等,0,2025-09-10,2025-08-25,株式会社ベガ・メディカル,,株式会社,東京都,千代田区,内神田１丁目４番１号,,13,101,1010047,,,2025-08-25,清算の結了等,,,2015-10-05,1,,,,,ベガメディカル,0
1255,6010001111839,登記記録の閉鎖等,0,2025-09-10,2025-08-25,日総防災株式会社,,株式会社,東京都,千代田区,九段北１丁目９番５‐６０８号,,13,101,1020073,,,2025-08-25,清算の結了等,,,2015-10-05,1,,,,,ニッソウボウサイ,0
1272,6010101012656,登記記録の閉鎖等,0,2025-09-10,2025-09-08,株式会社いまい動物病院,,株式会社,東京都,八王子市,南大沢１丁目２３番地５,,13,201,1920364,,,2025-09-08,清算の結了等,,,2017-01-10,1,,,,,,0
1278,6010103001401,登記記録の閉鎖等,0,2025-09-10,2025-09-05,合同会社レオリオ,,合同会社,東京都,八王子市,八日町３番１－１１１３号,,13,201,1920071,,,2025-09-05,清算の結了等,,,2019-05-08,1,,,,,レオリオ,0
1314,6011201016860,登記記録の閉鎖等,0,2025-09-10,2025-09-01,株式会社ＥＦＳ,,株式会社,東京都,中野区,南台４丁目１３番８号,,13,114,1640014,,,2025-09-01,合併による解散等,6011201000641,令和７年９月１日東京都中野区南台三丁目１４番５号株式会社エイコー（6011201000641）に合併し解散,2015-10-05,1,,,,,イーエフエス,0
1335,6013302017044,登記記録の閉鎖等,0,2025-09-10,2025-09-05,有限会社ソルトデンタルラボ,,有限会社,東京都,豊島区,駒込２丁目７番３号,,13,116,1700003,,,2025-09-05,合併による解散等,5100002022119,令和７年９月１日長野県松本市大字笹賀７１７８番地１株式会社ワイドデンタル（5100002022119）に合併し解散,2015-10-05,1,,,,,ソルトデンタルラボ,0
1342,6020001124798,登記記録の閉鎖等,0,2025-09-10,2025-08-25,株式会社ＮＧＳ,,株式会社,神奈川県,横浜市中区,不老町３丁目１３番地５－２１３,,14,104,2310032,,,2025-08-25,清算の結了等,,,2018-01-30,1,,,,,エヌジーエス,0
1358,6030002080305,登記記録の閉鎖等,0,2025-09-10,2025-08-29,有限会社みやびコーポレーション,,有限会社,東京都,練馬区,高野台４丁目１番５号,,13,120,1770033,,,2025-08-29,清算の結了等,,,2015-10-05,1,,,,,ミヤビコーポレーション,0
1359,6030003013387,登記記録の閉鎖等,0,2025-09-10,2025-09-02,ワイティー合同会社,,合同会社,埼玉県,蕨市,中央１丁目１７番４０号,,11,223,3350004,,,2025-09-02,清算の結了等,,,2019-04-11,1,,,,,ワイティー,0
1362,6040001035829,登記記録の閉鎖等,0,2025-09-10,2025-08-20,株式会社ステルスコーポレーション,,株式会社,千葉県,松戸市,稔台８丁目４０番地の１８,,12,207,2702231,,,2025-08-20,清算の結了等,,,2015-10-05,1,,,,,ステルスコーポレーション,0
1363,6040001075833,登記記録の閉鎖等,0,2025-09-10,2025-08-15,株式会社ＪＵＨＯ　ｐｌａｎｎｉｎｇ,,株式会社,千葉県,鎌ケ谷市,東鎌ケ谷３丁目１２番１２号,,12,224,2730104,,,2025-08-15,清算の結了等,,,2015-10-05,1,,,,,ジュホウプランニング,0
1374,6070002023929,登記記録の閉鎖等,0,2025-09-10,2025-08-26,有限会社大松,,有限会社,群馬県,桐生市,仲町２丁目２番１１号,,10,203,3760035,,,2025-08-26,清算の結了等,,,2015-10-05,1,,,,,ダイマツ,0
1380,6080402006549,登記記録の閉鎖等,0,2025-09-10,2025-09-02,有限会社早川商店,,有限会社,静岡県,浜松市中央区,三方原町７６４番地の４,,22,138,4338105,,,2025-09-02,清算の結了等,,,2015-10-05,1,,,,,ハヤカワショウテン,0
1386,6100001027811,登記記録の閉鎖等,0,2025-09-10,2025-09-05,株式会社ＭＫ,,株式会社,長野県,長野市,桐原１丁目３番５号,,20,201,3810045,,,2025-09-05,合併による解散等,8100001004528,令和７年９月１日長野市市場４番地６三共建設株式会社（8100001004528）に合併し解散,2015-10-05,1,,,,,エムケー,0
1391,6100002002094,登記記録の閉鎖等,0,2025-09-10,2025-09-05,有限会社さんるうむ,,有限会社,長野県,長野市,篠ノ井御幣川５８６番地の２,,20,201,3888006,,,2025-09-05,清算の結了等,,,2015-10-05,1,,,,,サンルウム,0
1398,6120001147013,登記記録の閉鎖等,0,2025-09-10,2025-09-02,株式会社小泉タイル工業,,株式会社,大阪府,枚方市,香里ケ丘１２丁目６番６号,,27,210,5730084,,,2025-09-02,清算の結了等,,,2015-10-05,1,,,,,コイズミタイルコウギョウ,0
1421,6120105007484,登記記録の閉鎖等,0,2025-09-10,2025-09-01,司法書士法人エムエス合同事務所,,その他の設立登記法人,大阪府,岸和田市,八阪町３丁目４番４０号,,27,202,5960049,,,2025-09-01,清算の結了等,,,2015-10-05,1,,,,,エムエスゴウドウジムショ,0
1438,6180001146728,登記記録の閉鎖等,0,2025-09-10,2025-08-07,株式会社マルコ,,株式会社,愛知県,名古屋市中村区,賑町２４番地,,23,105,4530025,,,2025-08-07,清算の結了等,,,2021-06-28,1,,,,,マルコ,0
1439,6180001155605,登記記録の閉鎖等,0,2025-09-10,2025-08-26,株式会社セキュアー,,株式会社,愛知県,一宮市,緑４丁目１２番４号－１０３号,,23,203,4910862,,,2025-08-26,合併による解散等,1190001020473,令和７年８月２６日愛知県一宮市開明字大橋北２番地１株式会社プロジェクト品川（1190001020473）に合併し解散,2023-04-03,1,,,,,セキュアー,0
1452,6210001008908,登記記録の閉鎖等,0,2025-09-10,2025-09-08,テクニカルプロデュース株式会社,,株式会社,福井県,坂井市,丸岡町猪爪第６号１９番地２,,18,210,9100303,,,2025-09-08,清算の結了等,,,2015-10-05,1,,,,,テクニカルプロデュース,0
1453,6210002009698,登記記録の閉鎖等,0,2025-09-10,2025-09-04,吉村建設有限会社,,有限会社,福井県,大野市,中野第２８号乙１１番地,,18,205,9120021,,,2025-09-04,清算の結了等,,,2015-10-05,1,,,,,ヨシムラケンセツ,0
1483,6350001018389,登記記録の閉鎖等,0,2025-09-10,2025-09-05,株式会社グラン・ブルー,,株式会社,宮崎県,宮崎市,薫る坂２丁目２３番７号,,45,201,8800947,,,2025-09-05,清算の結了等,,,2023-06-07,1,,,,,グランブルー,0
1488,6370001019468,登記記録の閉鎖等,0,2025-09-10,2025-08-28,株式会社あすとサポート,,株式会社,宮城県,仙台市太白区,郡山１丁目８番６０－７０２号,,04,104,9820003,,,2025-08-28,清算の結了等,,,2015-10-05,1,,,,,アストサポート,0
1490,6370005009969,登記記録の閉鎖等,0,2025-09-10,2025-09-01,一般社団法人病児の家族を支える会,,その他の設立登記法人,宮城県,仙台市泉区,泉中央１丁目７番地の１,,04,105,9813133,,,2025-09-01,清算の結了等,,,2019-07-10,1,,,,,ビョウジノカゾクヲササエルカイ,0
1493,6380002013808,登記記録の閉鎖等,0,2025-09-10,2025-08-27,有限会社アニエス,,有限会社,福島県,郡山市,富田町字下双又１番地の３,,07,203,9638041,,,2025-08-27,清算の結了等,,,2015-10-05,1,,,,,アニエス,0
1495,6390001007933,登記記録の閉鎖等,0,2025-09-10,2025-09-04,庄内タクシー株式会社,,株式会社,山形県,鶴岡市,湯温海甲２４７番地１,,06,203,9997204,,,2025-09-04,清算の結了等,,,2015-10-05,1,,,,,ショウナイタクシー,0
1503,6430005002281,登記記録の閉鎖等,0,2025-09-10,2025-08-22,札幌板硝子商協同組合,,その他の設立登記法人,北海道,札幌市白石区,流通センター６丁目２番４３号,,01,104,0030030,,,2025-08-22,清算の結了等,,,2015-10-05,1,,,,,サッポロイタガラスショウ,0
1514,7010001138286,登記記録の閉鎖等,0,2025-09-10,2025-08-12,ジエイエツチシー株式会社,,株式会社,東京都,港区,新橋２丁目１６番１号,,13,103,1050004,,,2025-08-12,清算の結了等,,,2015-10-05,1,,,,,ジエイエツチシー,0
1518,7010001241899,登記記録の閉鎖等,0,2025-09-10,2025-08-26,株式会社優Ｔｉｍｅ,,株式会社,東京都,千代田区,神田佐久間町３丁目２８Ｅ＆Ｔビル３Ｆ,,13,101,1010025,,,2025-08-26,清算の結了等,,,2024-01-31,1,,,,,ユウタイム,0
1539,7010401146228,登記記録の閉鎖等,0,2025-09-10,2025-08-27,株式会社ＬＩＮＤＥＮＢＬＡＴＴ,,株式会社,東京都,港区,南青山２丁目２番１５号ウィン青山１２１４号,,13,103,1070062,,,2025-08-27,清算の結了等,,,2019-06-17,1,,,,,リンデンブラット,0
1543,7010401181092,登記記録の閉鎖等,0,2025-09-10,2025-08-12,株式会社Ｗｅａｖｅ　Ｃｒｅａｔｉｖｅ,,株式会社,東京都,港区,六本木７丁目１２番２号,,13,103,1060032,,,2025-08-12,清算の結了等,,,2024-03-18,1,,,,,ウィーブクリエイティブ,0
1545,7010501049520,登記記録の閉鎖等,0,2025-09-10,2025-09-04,株式会社ＴＹＧ商事,,株式会社,東京都,台東区,東上野４丁目２６番１２号,,13,106,1100015,,,2025-09-04,合併による解散等,9040001005498,令和７年８月１日千葉市美浜区新港４４番地３株式会社トポスエンタープライズ（9040001005498）に合併し解散,2022-10-21,1,,,,,ティーワイジーショウジ,0
1577,7011401015075,登記記録の閉鎖等,0,2025-09-10,2025-09-03,ワイエフコンサルタント株式会社,,株式会社,東京都,板橋区,坂下２丁目２４番地７号,,13,119,1740043,,,2025-09-03,清算の結了等,,,2015-10-05,1,,,,,ワイエフコンサルタント,0
1582,7011601003061,登記記録の閉鎖等,0,2025-09-10,2025-08-28,株式会社シンタク,,株式会社,東京都,練馬区,関町南２丁目２４番６－３０２号,,13,120,1770053,,,2025-08-28,清算の結了等,,,2015-10-05,1,,,,,シンタク,0
1583,7011701005065,登記記録の閉鎖等,0,2025-09-10,2025-09-04,株式会社千葉設備,,株式会社,東京都,江戸川区,谷河内１丁目２番２４号,,13,123,1320002,,,2025-09-04,清算の結了等,,,2015-10-05,1,,,,,チバセツビ,0
1602,7020001063995,登記記録の閉鎖等,0,2025-09-10,2025-08-26,崎東水道工業株式会社,,株式会社,神奈川県,川崎市多摩区,長沢１丁目６番２３号,,14,135,2140035,,,2025-08-26,清算の結了等,,,2015-10-05,1,,,,,キトウスイドウコウギョウ,0
1615,7021002010771,登記記録の閉鎖等,0,2025-09-10,2025-08-28,有限会社湘南建陶,,有限会社,神奈川県,茅ヶ崎市,代官町６番５１号,,14,207,2530015,,,2025-08-28,清算の結了等,,,2015-10-05,1,,,,,ショウナンケントウ,0
1616,7021002023930,登記記録の閉鎖等,0,2025-09-10,2025-09-01,有限会社プラス,,有限会社,神奈川県,相模原市南区,当麻１１０５番地１５,,14,153,2520336,,,2025-09-01,清算の結了等,,,2015-10-05,1,,,,,プラス,0
1617,7021002028731,登記記録の閉鎖等,0,2025-09-10,2025-09-04,有限会社やまなみ測量,,有限会社,神奈川県,相模原市緑区,又野１５３番地１５－２０５,,14,151,2520158,,,2025-09-04,清算の結了等,,,2015-10-05,1,,,,,ヤマナミソクリョウ,0
1630,7040002049439,登記記録の閉鎖等,0,2025-09-10,2025-08-15,有限会社友斗ぴあ,,有限会社,千葉県,松戸市,五香２丁目３５番地の３１,,12,207,2702213,,,2025-08-15,清算の結了等,,,2015-10-05,1,,,,,ユウトピア,0
1641,7060001018517,登記記録の閉鎖等,0,2025-09-10,2025-09-03,株式会社キッチンストアー,,株式会社,栃木県,足利市,伊勢町２丁目９番地３０,,09,202,3260053,,,2025-09-03,清算の結了等,,,2015-10-05,1,,,,,キッチンストアー,0
1650,7080005007638,登記記録の閉鎖等,0,2025-09-10,2025-09-03,クロスケア協同組合,,その他の設立登記法人,静岡県,牧之原市,坂部５６４番地６,,22,226,4210412,,,2025-09-03,清算の結了等,,,2024-08-22,1,,,,,クロスケア,0
1656,7100002028659,登記記録の閉鎖等,0,2025-09-10,2025-09-08,有限会社中村精機,,有限会社,長野県,諏訪郡下諏訪町,８３１番地５,,20,361,3930000,,,2025-09-08,清算の結了等,,,2015-10-05,1,,,,,ナカムラセイキ,0
1668,7120003009037,登記記録の閉鎖等,0,2025-09-10,2025-08-28,合同会社横山ロードクリーンサービス,,合同会社,大阪府,寝屋川市,池田１丁目５番９号,,27,215,5720039,,,2025-08-28,清算の結了等,,,2015-10-05,1,,,,,ヨコヤマロードクリーンサービス,0
1682,7130001051766,登記記録の閉鎖等,0,2025-09-10,2025-09-01,株式会社しのみ家,,株式会社,京都府,京都市南区,吉祥院前河原町１,,26,107,6018304,,,2025-09-01,清算の結了等,,,2015-10-05,1,,,,,シノミヤ,0
1683,7130001055544,登記記録の閉鎖等,0,2025-09-10,2025-09-01,株式会社藤み光産,,株式会社,京都府,京都市左京区,岩倉花園町５４１番地の１０１,,26,103,6060024,,,2025-09-01,清算の結了等,,,2015-10-05,1,,,,,フジミコウサン,0
1689,7130003009812,登記記録の閉鎖等,0,2025-09-10,2025-09-02,合同会社ＭａｒｋｅＯＮＥ,,合同会社,京都府,京都市下京区,七条御所ノ内北町９３,,26,106,6008861,,,2025-09-02,清算の結了等,,,2024-08-26,1,,,,,マーケワン,0
1703,7180001087005,登記記録の閉鎖等,0,2025-09-10,2025-08-26,株式会社アーキネット,,株式会社,愛知県,一宮市,千秋町小山字東六反２０番地３,,23,203,4910814,,,2025-08-26,合併による解散等,4180001085036,令和７年８月１９日愛知県一宮市千秋町佐野字清水５５番地２株式会社ヒカリコハウス（4180001085036）に合併し解散,2015-10-05,1,,,,,アーキネット,0
1704,7180001124823,登記記録の閉鎖等,0,2025-09-10,2025-08-22,十八建設株式会社,,株式会社,愛知県,名古屋市南区,柵下町４丁目３５番地の３（Ｋ．プライムハウスＫ－２号）,,23,112,4570044,,,2025-08-22,清算の結了等,,,2016-09-14,1,,,,,ジュウハチケンセツ,0
1710,7180301018857,登記記録の閉鎖等,0,2025-09-10,2025-09-04,豊田オートガラス株式会社,,株式会社,愛知県,豊田市,朝日町３丁目５４番地１,,23,211,4710031,,,2025-09-04,清算の結了等,,,2015-10-05,1,,,,,トヨタオートガラス,0
1726,7240002037670,登記記録の閉鎖等,0,2025-09-10,2025-09-01,有限会社末広梱包,,有限会社,広島県,大竹市,北栄１２番７号,,34,211,7390604,,,2025-09-01,合併による解散等,2240001028460,令和７年９月１日広島県大竹市北栄１２番７号株式会社末広工務店（2240001028460）に合併し解散,2015-10-05,1,,,,,スエヒロコンポウ,0
1727,7260001038016,登記記録の閉鎖等,0,2025-09-10,2025-09-03,株式会社大貴工業,,株式会社,岡山県,倉敷市,中島１５４１番地４,,33,202,7100803,,,2025-09-03,清算の結了等,,,2023-06-09,1,,,,,タイキコウギョウ,0
1728,7260002000429,登記記録の閉鎖等,0,2025-09-10,2025-09-05,株式会社アップビート・バルーン,,株式会社,岡山県,岡山市北区,中仙道５６番地１２４,,33,101,7000964,,,2025-09-05,清算の結了等,,,2015-10-05,1,,,,,アップビートバルーン,0
1733,7290005004738,登記記録の閉鎖等,0,2025-09-10,2025-08-26,特定非営利活動法人里まちサイクルコミュニティ,,その他の設立登記法人,福岡県,福岡市早良区,田村１丁目１０番３号,,40,137,8140175,,,2025-08-26,清算の結了等,,,2015-10-05,1,,,,,,0
1738,7320002020379,登記記録の閉鎖等,0,2025-09-10,2025-09-05,有限会社葵工業,,有限会社,大分県,中津市,大字永添２７６５番地６７,,44,203,8710162,,,2025-09-05,清算の結了等,,,2015-10-05,1,,,,,アオイコウギョウ,0
1746,7340002010056,登記記録の閉鎖等,0,2025-09-10,2025-09-03,有限会社友觀,,有限会社,鹿児島県,鹿児島市,下荒田２丁目２４番３号,,46,201,8900056,,,2025-09-03,清算の結了等,,,2015-10-05,1,,,,,ユウカン,0
1765,7430001064291,登記記録の閉鎖等,0,2025-09-10,2025-08-27,株式会社ＭＵＳＨ,,株式会社,北海道,札幌市豊平区,平岸一条７丁目２番３号,,01,105,0620931,,,2025-08-27,合併による解散等,6430001044889,令和７年１月１日札幌市北区あいの里二条五丁目１番４５号株式会社三育（6430001044889）に合併し解散,2015-10-05,1,,,,,ムッシュ,0
1782,7500002017968,登記記録の閉鎖等,0,2025-09-10,2025-09-08,有限会社小沢電気商会,,有限会社,愛媛県,今治市,長沢甲８５６番地１,,38,202,7991527,,,2025-09-08,清算の結了等,,,2015-10-05,1,,,,,オザワデンキショウカイ,0
1783,7500002018990,登記記録の閉鎖等,0,2025-09-10,2025-09-05,有限会社廣瀬正雄商店,00008163,有限会社,愛媛県,今治市,常盤町４丁目７番地１４,,38,202,7940015,,,2025-09-05,清算の結了等,,,2015-10-05,1,,,,,ヒロセマサオショウテン,0
1847,8011701006640,登記記録の閉鎖等,0,2025-09-10,2025-09-04,株式会社日高設備,,株式会社,東京都,江戸川区,篠崎町３丁目１５番１０号,,13,123,1330061,,,2025-09-04,清算の結了等,,,2015-10-05,1,,,,,ヒダカセツビ,0
1854,8012701010013,登記記録の閉鎖等,0,2025-09-10,2025-09-04,株式会社アイテック,,株式会社,東京都,東村山市,久米川町２丁目１９番地４１,,13,213,1890003,,,2025-09-04,清算の結了等,,,2015-10-05,1,,,,,アイテック,0
1857,8013101005462,登記記録の閉鎖等,0,2025-09-10,2025-09-09,株式会社関口設計測量事務所,,株式会社,東京都,青梅市,師岡町２丁目３１９番地の６,,13,205,1980031,,,2025-09-09,清算の結了等,,,2015-10-05,1,,,,,セキグチセッケイソクリョウジムショ,0
1860,8020001006796,登記記録の閉鎖等,0,2025-09-10,2025-08-25,友和産業株式会社,,株式会社,神奈川県,横浜市金沢区,東朝比奈１丁目４６番６号,,14,108,2360033,,,2025-08-25,清算の結了等,,,2015-10-05,1,,,,,ユウワサンギョウ,0
1862,8020002048524,登記記録の閉鎖等,0,2025-09-10,2025-09-08,有限会社アルファ・ティー,,有限会社,神奈川県,横浜市保土ケ谷区,上星川３丁目１１番８号ベルメゾン西谷,,14,106,2400042,,,2025-09-08,合併による解散等,1080401001547,令和７年９月１日静岡県浜松市中央区東三方町６９番地株式会社クレステック（1080401001547）に合併し解散,2015-10-05,1,,,,,アルファティー,0
1873,8021002001349,登記記録の閉鎖等,0,2025-09-10,2025-09-02,有限会社釜七金物店,,有限会社,神奈川県,藤沢市,藤沢５５９番地,,14,205,2510052,,,2025-09-02,清算の結了等,,,2015-10-05,1,,,,,カマシチカナモノテン,0
1894,8050002033952,登記記録の閉鎖等,0,2025-09-10,2025-09-02,有限会社サンセイ美建,,有限会社,茨城県,龍ケ崎市,白羽２丁目２２番地２,,08,208,3010841,,,2025-09-02,清算の結了等,,,2015-10-05,1,,,,,サンセイビケン,0
1899,8080001014307,登記記録の閉鎖等,0,2025-09-10,2025-09-03,株式会社匠,,株式会社,静岡県,島田市,稲荷３丁目１３番２６号,,22,209,4270038,,,2025-09-03,清算の結了等,,,2015-10-05,1,,,,,タクミ,0
1932,8120002026305,登記記録の閉鎖等,0,2025-09-10,2025-09-03,有限会社鵜飼商店,,有限会社,大阪府,大阪市淀川区,三国本町２丁目１９番１８号,,27,123,5320005,,,2025-09-03,清算の結了等,,,2015-10-05,1,,,,,ウカイショウテン,0
1944,8122002013489,登記記録の閉鎖等,0,2025-09-10,2025-08-27,有限会社カンサイ・テック,,有限会社,大阪府,八尾市,木の本２丁目１２１番地の１４,,27,212,5810044,,,2025-08-27,清算の結了等,,,2015-10-05,1,,,,,カンサイテック,0
1948,8140001001430,登記記録の閉鎖等,0,2025-09-10,2025-09-03,カナリア株式会社,,株式会社,兵庫県,神戸市東灘区,森南町２丁目８番２号,,28,101,6580011,,,2025-09-03,清算の結了等,,,2015-10-05,1,,,,,カナリア,0
1949,8140001017030,登記記録の閉鎖等,0,2025-09-10,2025-08-29,株式会社山平屋商店,,株式会社,兵庫県,神戸市長田区,庄山町２丁目２番５号,,28,106,6530853,,,2025-08-29,清算の結了等,,,2015-10-05,1,,,,,ヤマヒラヤショウテン,0
1961,8170002010386,登記記録の閉鎖等,0,2025-09-10,2025-09-05,有限会社柏木設計,,有限会社,和歌山県,御坊市,湯川町小松原５０２番地４,,30,205,6440012,,,2025-09-05,清算の結了等,,,2015-10-05,1,,,,,カシワギセッケイ,0
1985,8260001024782,登記記録の閉鎖等,0,2025-09-10,2025-08-29,ＥＭ　Ｃｏｎｓｕｌｔｉｎｇ株式会社,,株式会社,岡山県,岡山市北区,津島福居１丁目６番２０－３号,,33,101,7000080,,,2025-08-29,清算の結了等,,,2015-10-05,1,,,,,イーエムコンサルティング,0
2024,8380002029447,登記記録の閉鎖等,0,2025-09-10,2025-08-29,有限会社相良建築技能所,,有限会社,福島県,南相馬市,小高区羽倉字南沢１３９番地の６,,07,212,9792175,,,2025-08-29,清算の結了等,,,2015-10-05,1,,,,,サガラケンチクギノウショ,0
2042,8500002017018,登記記録の閉鎖等,0,2025-09-10,2025-09-05,有限会社新居浜通信,,有限会社,愛媛県,新居浜市,萩生２７８９番地３,,38,205,7920050,,,2025-09-05,清算の結了等,,,2015-10-05,1,,,,,ニイハマツウシン,0
2043,8500002023131,登記記録の閉鎖等,0,2025-09-10,2025-09-05,有限会社舛森組,00008236,有限会社,愛媛県,宇和島市,柿原甲１６８番地１１,,38,203,7980027,,,2025-09-05,清算の結了等,,,2015-10-05,1,,,,,マスモリグミ,0
2044,9010001014064,登記記録の閉鎖等,0,2025-09-10,2025-08-25,株式会社カヴァリーノ,,株式会社,東京都,千代田区,麹町３丁目５番８号麹町センタービル７階,00060247,13,101,1020083,,,2025-08-25,清算の結了等,,,2015-10-05,1,,,,,カヴァリーノ,0
2049,9010001248876,登記記録の閉鎖等,0,2025-09-10,2025-08-12,株式会社ＢＣＪ‐８８,,株式会社,東京都,千代田区,丸の内１丁目１番１号パレスビル５階,,13,101,1000005,,,2025-08-12,清算の結了等,,,2024-10-07,1,,,,,ビーシージェイエイティーエイト,0
2055,9010005039693,登記記録の閉鎖等,0,2025-09-10,2025-08-18,医療法人社団トラスト,,その他の設立登記法人,東京都,中央区,銀座７丁目３番７号ブランエスパ銀座地下１階,,13,102,1040061,,,2025-08-18,清算の結了等,,,2025-03-10,1,,,,,トラスト,0
2081,9011002004376,登記記録の閉鎖等,0,2025-09-10,2025-09-04,有限会社サンキ,,有限会社,神奈川県,逗子市,久木８丁目７番１７号,,14,208,2490001,,,2025-09-04,清算の結了等,,,2015-10-05,1,,,,,サンキ,0
2109,9012402011326,登記記録の閉鎖等,0,2025-09-10,2025-09-05,有限会社室内装飾タカハシ,,有限会社,東京都,調布市,調布ケ丘２丁目１８番地５,,13,208,1820021,,,2025-09-05,清算の結了等,,,2015-10-05,1,,,,,シツナイソウショクタカハシ,0
2119,9020001009220,登記記録の閉鎖等,0,2025-09-10,2025-08-25,株式会社ピーク・ジャパン,,株式会社,神奈川県,横浜市港北区,新横浜２丁目１３番地１３ＴＰＲ新横浜ビル３Ｆ－Ｂ,,14,109,2220033,,,2025-08-25,清算の結了等,,,2015-10-05,1,,,,,ピークジャパン,0
2120,9020001014617,登記記録の閉鎖等,0,2025-09-10,2025-08-27,木全商事株式会社,,株式会社,神奈川県,横浜市西区,西戸部町２丁目２４９番地,,14,103,2200046,,,2025-08-27,清算の結了等,,,2015-10-05,1,,,,,キマタショウジ,0
2133,9020005013607,登記記録の閉鎖等,0,2025-09-10,2025-08-26,特定非営利活動法人緑蔭塾,,その他の設立登記法人,神奈川県,横浜市緑区,三保町１５７７番地１,,14,113,2260015,,,2025-08-26,清算の結了等,,,2018-05-08,1,,,,,リョクインジュク,0
2151,9040001094616,登記記録の閉鎖等,0,2025-09-10,2025-08-19,株式会社やすらぎ,,株式会社,千葉県,山武市,蓮沼イの２６２８番地,,12,237,2891801,,,2025-08-19,清算の結了等,,,2016-03-25,1,,,,,ヤスラギ,0
2162,9050002043851,登記記録の閉鎖等,0,2025-09-10,2025-09-02,有限会社谷貝土木,,有限会社,茨城県,筑西市,関本下３５９番地３,,08,227,3080127,,,2025-09-02,清算の結了等,,,2015-10-05,1,,,,,ヤガイドボク,0
2168,9070003003191,登記記録の閉鎖等,0,2025-09-10,2025-09-04,合同会社和気の研究社,,合同会社,群馬県,高崎市,小八木町１４４５番地１,,10,202,3700071,,,2025-09-04,清算の結了等,,,2018-06-11,1,,,,,ワキノケンキュウシャ,0
2173,9100001009303,登記記録の閉鎖等,0,2025-09-10,2025-09-08,株式会社イサン,,株式会社,長野県,佐久市,中込３３５７番地２,,20,217,3850051,,,2025-09-08,清算の結了等,,,2015-10-05,1,,,,,イサン,0
2174,9100001013932,登記記録の閉鎖等,0,2025-09-10,2025-09-08,株式会社ｆｉｎａｎｃｉａｌ　ｐｒｏｘｙ,,株式会社,長野県,松本市,横田２丁目２３番１号,,20,202,3900804,,,2025-09-08,清算の結了等,,,2015-10-05,1,,,,,ファイナンシャルプラクシー,0
2208,9130002028910,登記記録の閉鎖等,0,2025-09-10,2025-08-27,有限会社後藤建設,,有限会社,京都府,亀岡市,千代川町小川２丁目１２番２２号,,26,206,6210041,,,2025-08-27,清算の結了等,,,2015-10-05,1,,,,,ゴトウケンセツ,0
2226,9180001152995,登記記録の閉鎖等,0,2025-09-10,2025-08-22,株式会社あざらし食堂,,株式会社,愛知県,名古屋市西区,名西２丁目８番１８号水谷ビル１階,,23,104,4510064,,,2025-08-22,清算の結了等,,,2022-09-14,1,,,,,アザラシショクドウ,0
2251,9270003001200,登記記録の閉鎖等,0,2025-09-10,2025-09-09,日南町バイオマスヒート合同会社,,合同会社,鳥取県,日野郡日南町,下石見１８４３－１,,31,401,6895665,,,2025-09-09,清算の結了等,,,2020-03-11,1,,,,,ニチナンチョウバイオマスヒート,0
2254,9290005017655,登記記録の閉鎖等,0,2025-09-10,2025-08-25,一般社団法人ゼブ推進協議会,,その他の設立登記法人,福岡県,福岡市博多区,博多駅南４丁目１９番２９号駅南第２ケイコービル１階,,40,132,8120016,,,2025-08-25,清算の結了等,,,2020-02-14,1,,,,,ゼブスイシンキョウギカイ,0
2258,9330002026381,登記記録の閉鎖等,0,2025-09-10,2025-08-29,有限会社松村商会,,有限会社,熊本県,八代市,古閑中町２２６１番地の３,,43,202,8660898,,,2025-08-29,清算の結了等,,,2015-10-05,1,,,,,マツムラショウカイ,0
2277,9430003001704,登記記録の閉鎖等,0,2025-09-10,2025-08-27,Ｋコーポレーション合同会社,,合同会社,北海道,札幌市豊平区,福住三条１０丁目３番３号,,01,105,0620043,,,2025-08-27,清算の結了等,,,2015-10-05,1,,,,,ケイコーポレーション,0
2280,9440001005565,登記記録の閉鎖等,0,2025-09-10,2025-09-04,株式会社ＴＯＫＩＹＡ,,株式会社,北海道,函館市,高盛町７番８号,,01,202,0400024,,,2025-09-04,清算の結了等,,,2015-10-05,1,,,,,トキヤ,0
