sequenceNumber,corporateNumber,process,correct,updateDate,changeDate,name,nameImageId,kind,prefectureName,cityName,streetNumber,addressImageId,prefectureCode,cityCode,postCode,addressOutside,addressOutsideImageId,closeDate,closeCause,successorCorporateNumber,changeCause,assignmentDate,latest,enName,enPrefectureName,enCityName,enAddressOutside,furigana,hihyoji
16,1010401131474,登記記録の閉鎖等,0,2024-05-02,2024-04-12,Ｓａｔｕｒｄａｙ　Ｃｌｕｂ株式会社,,株式会社,東京都,港区,西新橋１丁目２０番９号ＴＳＲビル３Ｆ,,13,103,1050003,,,2024-04-12,清算の結了等,,,2017-05-19,1,,,,,サタデークラブ,0
23,1010403014512,登記記録の閉鎖等,0,2024-05-02,2024-04-22,ｉＺｅｎｅジャパン合同会社,,合同会社,東京都,台東区,上野３丁目１６番２号天翔上野末広町ビル６階６０５－Ｄ号室,,13,106,1100005,,,2024-04-22,清算の結了等,,,2016-03-11,1,,,,,アイゼンジャパン,0
67,1011502008727,登記記録の閉鎖等,0,2024-05-02,2024-04-09,有限会社佐藤吉雄商店,,有限会社,東京都,荒川区,東日暮里３丁目１１番２７号,,13,118,1160014,,,2024-04-09,清算の結了等,,,2015-10-05,1,,,,,サトウヨシオショウテン,0
74,1012303001103,登記記録の閉鎖等,0,2024-05-02,2024-04-25,エスエスコム合同会社,,合同会社,東京都,町田市,南町田５丁目１４番１－６１３号,,13,209,1940005,,,2024-04-25,清算の結了等,,,2017-12-08,1,,,,,エスエスコム,0
86,1013401005144,登記記録の閉鎖等,0,2024-05-02,2024-04-22,株式会社川本屋,,株式会社,東京都,国分寺市,日吉町２丁目２４番地１０,,13,214,1850032,,,2024-04-22,清算の結了等,,,2015-10-05,1,,,,,カワモトヤ,0
97,1030001069163,登記記録の閉鎖等,0,2024-05-02,2024-04-30,オムロンプレシジョンテクノロジー株式会社,,株式会社,京都府,京都市下京区,塩小路通堀川東入南不動堂町８０１番地,,26,106,6008234,,,2024-04-30,清算の結了等,,,2015-10-05,1,,,,,オムロンプレシジョンテクノロジー,0
106,1030002113465,登記記録の閉鎖等,0,2024-05-02,2024-04-23,有限会社シネマパーキング,,有限会社,埼玉県,熊谷市,星川２丁目４１番地,,11,202,3600043,,,2024-04-23,合併による解散等,5030001084976,令和６年３月３１日埼玉県熊谷市宮町一丁目８９番地鷹の羽興業株式会社（5030001084976）に合併し解散,2015-10-05,1,,,,,シネマパーキング,0
108,1030002113688,登記記録の閉鎖等,0,2024-05-02,2024-04-23,有限会社タカノハ,,有限会社,埼玉県,熊谷市,星川２丁目４１番地,,11,202,3600043,,,2024-04-23,合併による解散等,5030001084976,令和６年３月３１日埼玉県熊谷市宮町一丁目８９番地鷹の羽興業株式会社（5030001084976）に合併し解散,2015-10-05,1,,,,,タカノハ,0
119,1050002000819,登記記録の閉鎖等,0,2024-05-02,2024-04-25,有限会社カタオカ相互商産,,有限会社,茨城県,水戸市,元吉田町１７７６番地２５号,,08,201,3100836,,,2024-04-25,清算の結了等,,,2024-04-24,1,,,,,カタオカソウゴショウサン,0
121,1050003005676,登記記録の閉鎖等,0,2024-05-02,2024-04-26,丸真荷役合同会社,,合同会社,茨城県,下妻市,皆葉５８番地,,08,210,3040822,,,2024-04-26,清算の結了等,,,2021-03-10,1,,,,,,0
122,1070001014041,登記記録の閉鎖等,0,2024-05-02,2024-04-30,株式会社柳沢技研,,株式会社,群馬県,伊勢崎市,平井町１２８３番地の１,,10,204,3792233,,,2024-04-30,清算の結了等,,,2015-10-05,1,,,,,,0
123,1070001014438,登記記録の閉鎖等,0,2024-05-02,2024-05-01,株式会社エス・エス・ティー,,株式会社,群馬県,伊勢崎市,連取町１６１３番地２,,10,204,3720812,,,2024-05-01,清算の結了等,,,2015-10-05,1,,,,,エスエスティー,0
131,1080402016577,登記記録の閉鎖等,0,2024-05-02,2024-04-30,有限会社サスダイ工業,,有限会社,静岡県,浜松市天竜区,春野町気田１０番地,,22,140,4370605,,,2024-04-30,清算の結了等,,,2015-10-05,1,,,,,サスダイコウギョウ,0
174,1160001015419,登記記録の閉鎖等,0,2024-05-02,2024-04-26,株式会社パーソナルバランス,,株式会社,滋賀県,守山市,吉身２丁目１０番６０号,,25,207,5240021,,,2024-04-26,清算の結了等,,,2015-10-05,1,,,,,パーソナルバランス,0
183,1180001076806,登記記録の閉鎖等,0,2024-05-02,2024-04-23,株式会社中部ＩＴサポート,,株式会社,愛知県,小牧市,大字東田中１５７０番地の１,,23,219,4850826,,,2024-04-23,清算の結了等,,,2015-10-05,1,,,,,チュウブアイティサポート,0
190,1180001154165,登記記録の閉鎖等,0,2024-05-02,2024-04-23,明誠リフォーム株式会社,,株式会社,愛知県,長久手市,五合池７１１番地ハンズコート１０２号,,23,238,4801156,,,2024-04-23,清算の結了等,,,2022-12-12,1,,,,,メイセイリフォーム,0
196,1180003020423,登記記録の閉鎖等,0,2024-05-02,2024-04-17,合同会社サイトウ企画,,合同会社,愛知県,名古屋市北区,芳野３丁目１２番６号,,23,103,4620824,,,2024-04-17,清算の結了等,,,2019-10-09,1,,,,,サイトウキカク,0
203,1200001016536,登記記録の閉鎖等,0,2024-05-02,2024-04-30,株式会社カワイ創建,,株式会社,岐阜県,大垣市,本今５丁目１０８番地１,,21,202,5030931,,,2024-04-30,合併による解散等,5200001039459,令和６年４月３０日岐阜県大垣市本今五丁目１０８番地１カワイ建設工業株式会社（5200001039459）に合併し解散,2015-10-05,1,,,,,カワイソウケン,0
204,1200001020942,登記記録の閉鎖等,0,2024-05-02,2024-04-30,ピィレックス株式会社,,株式会社,岐阜県,多治見市,高根町１丁目９７番地,,21,204,5070078,,,2024-04-30,清算の結了等,,,2015-10-05,1,,,,,ピィレックス,0
207,1200002015082,登記記録の閉鎖等,0,2024-05-02,2024-04-30,有限会社マブチインテリア,,有限会社,岐阜県,安八郡神戸町,大字南方５２２番地,,21,381,5032328,,,2024-04-30,清算の結了等,,,2015-10-05,1,,,,,マブチインテリア,0
211,1200003002261,登記記録の閉鎖等,0,2024-05-02,2024-04-30,ホームアシスト合同会社,,合同会社,岐阜県,関市,小瀬２３５４番地１,,21,205,5013265,,,2024-04-30,清算の結了等,,,2015-10-05,1,,,,,ホームアシスト,0
227,1260002016422,登記記録の閉鎖等,0,2024-05-02,2024-04-17,有限会社池元健鋼業,,有限会社,岡山県,倉敷市,玉島道口４９１９番地の１,,33,202,7138115,,,2024-04-17,清算の結了等,,,2015-10-05,1,,,,,イケモトタケルコウギョウ,0
235,1290801003659,登記記録の閉鎖等,0,2024-05-02,2024-04-24,向商事株式会社,,株式会社,福岡県,北九州市小倉南区,長行西３丁目２０番６号,,40,107,8030272,,,2024-04-24,清算の結了等,,,2015-10-05,1,,,,,,0
252,1360001019787,登記記録の閉鎖等,0,2024-05-02,2024-04-30,大栄トラスティ株式会社,,株式会社,鹿児島県,奄美市,笠利町大字節田１７２３番地５,,46,222,8940504,,,2024-04-30,清算の結了等,,,2015-10-05,1,,,,,,0
254,1360003007971,登記記録の閉鎖等,0,2024-05-02,2024-04-25,合同会社ＳｈａｎＴｒｉｐ,,合同会社,沖縄県,国頭郡今帰仁村,字勢理客４８１番地１緑ヶ丘荘Ｄ室,,47,306,9050405,,,2024-04-25,清算の結了等,,,2017-01-17,1,,,,,シャントリップ,0
260,1380005003620,登記記録の閉鎖等,0,2024-05-02,2024-04-08,八坂神社,,その他の設立登記法人,福島県,田村市,船引町大倉字日向２８７番地,,07,211,9634435,,,2024-04-08,合併による解散等,7380005003474,令和６年４月８日福島県田村市船引町大倉字鐇田２２６番地大倉神社（7380005003474）に合併し解散,2015-10-05,1,,,,,ヤサカジンジャ,0
263,1402701000708,登記記録の閉鎖等,0,2024-05-02,2024-04-19,株式会社鳥井,,株式会社,岩手県,大船渡市,大船渡町字新田５１番地１,,03,203,0220002,,,2024-04-19,清算の結了等,,,2015-10-05,1,,,,,トリイ,0
275,1500002004823,登記記録の閉鎖等,0,2024-05-02,2024-04-30,有限会社トミタ電子システムパーツ,,有限会社,愛媛県,松山市,保免中２丁目１４番１８号,,38,201,7900042,,,2024-04-30,清算の結了等,,,2015-10-05,1,,,,,トミタデンシシステムパーツ,0
291,2010501016780,登記記録の閉鎖等,0,2024-05-02,2024-04-26,筑波通信工業株式会社,,株式会社,東京都,台東区,東上野５丁目１番８号,,13,106,1100015,,,2024-04-26,清算の結了等,,,2015-10-05,1,,,,,ツクバツウシンコウギョウ,0
303,2011001107509,登記記録の閉鎖等,0,2024-05-02,2024-04-30,株式会社奇酷工場,,株式会社,東京都,台東区,上野３丁目１１番５号,,13,106,1100005,,,2024-04-30,清算の結了等,,,2015-10-05,1,,,,,キコクコウジョウ,0
306,2011001143339,登記記録の閉鎖等,0,2024-05-02,2024-04-15,株式会社アウロ,,株式会社,東京都,渋谷区,東３丁目２５番３－３１２号,,13,113,1500011,,,2024-04-15,清算の結了等,,,2021-10-12,1,,,,,アウロ,0
330,2011801021033,登記記録の閉鎖等,0,2024-05-02,2024-04-26,株式会社ナガサキ,,株式会社,東京都,足立区,島根３丁目１０番２３号,,13,121,1210815,,,2024-04-26,清算の結了等,,,2015-10-05,1,,,,,ナガサキ,0
334,2012401012521,登記記録の閉鎖等,0,2024-05-02,2024-04-26,株式会社サム電子機械,,株式会社,東京都,西多摩郡瑞穂町,長岡３丁目４番１７号,,13,303,1901232,,,2024-04-26,合併による解散等,9050001013780,令和６年４月１日茨城県下妻市高道祖４２１０番地１５株式会社Ａ＆Ｄマニュファクチャリング（9050001013780）に合併し解散,2015-10-05,1,,,,,サムデンシキカイ,0
348,2021001019876,登記記録の閉鎖等,0,2024-05-02,2024-04-30,株式会社新清,,株式会社,神奈川県,厚木市,下川入１７番地１,,14,212,2430206,,,2024-04-30,清算の結了等,,,2015-10-05,1,,,,,,0
349,2021001023639,登記記録の閉鎖等,0,2024-05-02,2024-04-30,株式会社ウィン,,株式会社,神奈川県,厚木市,中町２丁目１番２号,,14,212,2430018,,,2024-04-30,清算の結了等,,,2015-10-05,1,,,,,,0
379,2040001042317,登記記録の閉鎖等,0,2024-05-02,2024-04-26,株式会社スチールプラス,,株式会社,群馬県,高崎市,倉賀野町３３０４番地,,10,202,3701201,,,2024-04-26,清算の結了等,,,2015-10-05,1,,,,,スチールプラス,0
396,2070002019377,登記記録の閉鎖等,0,2024-05-02,2024-05-01,有限会社デ・アール,,有限会社,群馬県,伊勢崎市,上諏訪町１２８８番地１,,10,204,3720021,,,2024-05-01,清算の結了等,,,2015-10-05,1,,,,,デアール,0
401,2080402022178,登記記録の閉鎖等,0,2024-05-02,2024-04-30,有限会社森町モータース,,有限会社,静岡県,周智郡森町,睦実１７５４番地,,22,461,4370213,,,2024-04-30,清算の結了等,,,2015-10-05,1,,,,,モリマチモータース,0
441,2140001025170,登記記録の閉鎖等,0,2024-05-02,2024-04-26,株式会社ブルーム,,株式会社,兵庫県,神戸市西区,二ツ屋１丁目２３番２４号,,28,111,6512142,,,2024-04-26,清算の結了等,,,2015-10-05,1,,,,,ブルーム,0
448,2170001015549,登記記録の閉鎖等,0,2024-05-02,2024-05-01,株式会社コア・ライジング,,株式会社,和歌山県,和歌山市,神前１１４番地１２,,30,201,6408314,,,2024-05-01,清算の結了等,,,2019-04-10,1,,,,,コアライジング,0
456,2180301005315,登記記録の閉鎖等,0,2024-05-02,2024-04-23,株式会社落合三郎商店,,株式会社,愛知県,豊橋市,新栄町字鳥畷４０番地,,23,201,4418016,,,2024-04-23,清算の結了等,,,2015-10-05,1,,,,,オチアイサブロウショウテン,0
458,2190002020414,登記記録の閉鎖等,0,2024-05-02,2024-04-30,三和機設工業有限会社,,有限会社,三重県,四日市市,三重１丁目８４番地,,24,202,5120912,,,2024-04-30,清算の結了等,,,2015-10-05,1,,,,,サンワキセツコウギョウ,0
459,2190002024233,登記記録の閉鎖等,0,2024-05-02,2024-04-30,有限会社岡野新聞店,,有限会社,三重県,四日市市,川北１丁目１３番７号,,24,202,5108031,,,2024-04-30,清算の結了等,,,2015-10-05,1,,,,,オカノシンブンテン,0
469,2220001001873,登記記録の閉鎖等,0,2024-05-02,2024-04-24,カナショク株式会社,,株式会社,石川県,金沢市,南森本町ロ９８番地,,17,201,9203116,,,2024-04-24,合併による解散等,4460101000213,令和６年４月１日北海道帯広市東四条南十丁目２番地株式会社オカモト（4460101000213）に合併し解散,2015-10-05,1,,,,,,0
477,2240002001103,登記記録の閉鎖等,0,2024-05-02,2024-04-30,有限会社池村商店,,有限会社,広島県,広島市南区,皆実町５丁目１２番１５号,,34,103,7340007,,,2024-04-30,清算の結了等,,,2015-10-05,1,,,,,イケムラショウテン,0
482,2250001015144,登記記録の閉鎖等,0,2024-05-02,2024-04-26,株式会社三陽技研,,株式会社,山口県,山口市,湯田温泉３丁目３番３６号,,35,203,7530056,,,2024-04-26,清算の結了等,,,2015-10-05,1,,,,,サンヨウギケン,0
483,2250002018633,登記記録の閉鎖等,0,2024-05-02,2024-04-30,丸善商事有限会社,,有限会社,山口県,岩国市,錦見１丁目３番４８号,,35,208,7410061,,,2024-04-30,清算の結了等,,,2015-10-05,1,,,,,マルゼンショウジ,0
493,2290801024258,登記記録の閉鎖等,0,2024-05-02,2024-04-25,株式会社アンビシャス,,株式会社,福岡県,北九州市小倉南区,横代東町２丁目１番１３－１号,,40,107,8020822,,,2024-04-25,清算の結了等,,,2018-01-09,1,,,,,アンビシャス,0
494,2300001012425,登記記録の閉鎖等,0,2024-05-02,2024-04-30,株式会社原口塗装,,株式会社,佐賀県,神埼市,神埼町本堀２８６８番地１４,,41,210,8420003,,,2024-04-30,清算の結了等,,,2021-04-01,1,,,,,ハラグチトソウ,0
500,2340005005999,登記記録の閉鎖等,0,2024-05-02,2024-04-19,知覧酒販協同組合,,その他の設立登記法人,鹿児島県,南九州市,知覧町郡６２１５番地１,,46,223,8970302,,,2024-04-19,合併による解散等,6340005000170,令和６年４月１日鹿児島県日置市伊集院町下谷口１８１１番地２薩摩酒販協同組合（6340005000170）に合併し解散,2015-10-05,1,,,,,チランシュハン,0
504,2370001018473,登記記録の閉鎖等,0,2024-05-02,2024-04-24,ＪＡ全農北日本くみあい飼料株式会社,,株式会社,宮城県,仙台市宮城野区,宮城野１丁目１２番地１,,04,102,9830045,,,2024-04-24,合併による解散等,8070001021304,令和６年４月１日群馬県太田市東新町８１８番地ＪＡ全農くみあい飼料株式会社（8070001021304）に合併し解散,2015-10-05,1,,,,,ジェーエーゼンノウキタニホンクミアイシリョウ,0
507,2370001043208,登記記録の閉鎖等,0,2024-05-02,2024-04-19,株式会社マルユーフーズ,,株式会社,山形県,天童市,大字蔵増１４７５番地１０（西側事務所）,,06,210,9940075,,,2024-04-19,清算の結了等,,,2018-06-20,1,,,,,マルユーフーズ,0
514,2390002003712,登記記録の閉鎖等,0,2024-05-02,2024-04-19,有限会社ベストワーキング,,有限会社,山形県,天童市,大字蔵増１４７５番地１０（西側事務所）,,06,210,9940075,,,2024-04-19,清算の結了等,,,2015-10-05,1,,,,,ベストワーキング,0
532,2500002004822,登記記録の閉鎖等,0,2024-05-02,2024-04-30,冨田電子器機有限会社,,有限会社,愛媛県,松山市,保免中２丁目１４番１８号,,38,201,7900042,,,2024-04-30,清算の結了等,,,2015-10-05,1,,,,,トミタデンシキキ,0
535,3010001098410,登記記録の閉鎖等,0,2024-05-02,2024-04-26,フジライトビジネスサービス株式会社,,株式会社,東京都,足立区,西伊興４丁目９番１０号,,13,121,1210824,,,2024-04-26,清算の結了等,,,2015-10-05,1,,,,,フジライトビジネスサービス,0
544,3010003033720,登記記録の閉鎖等,0,2024-05-02,2024-04-19,合同会社メディカル・インベストメント３号,,合同会社,東京都,中央区,日本橋兜町３番１１号三田証券株式会社内,,13,102,1030026,,,2024-04-19,清算の結了等,,,2020-12-11,1,,,,,メディカルインベストメントサンゴウ,0
568,3010601016837,登記記録の閉鎖等,0,2024-05-02,2024-04-22,株式会社吉野家具工芸,,株式会社,東京都,墨田区,向島４丁目２８番１号,,13,107,1310033,,,2024-04-22,清算の結了等,,,2015-10-05,1,,,,,ヨシノカグコウゲイ,0
569,3010601055942,登記記録の閉鎖等,0,2024-05-02,2024-04-18,ＴＭＫ・ＪＡＰＡＮ株式会社,,株式会社,東京都,千代田区,平河町１丁目３番２号平河町リリエンハイム６０３号,,13,101,1020093,,,2024-04-18,清算の結了等,,,2019-08-08,1,,,,,ティーエムケイジャパン,0
576,3010901030067,登記記録の閉鎖等,0,2024-05-02,2024-04-19,リューダ株式会社,,株式会社,東京都,墨田区,横川４丁目１０番９号,,13,107,1300003,,,2024-04-19,合併による解散等,4010601017041,令和６年３月３１日東京都墨田区横川四丁目１０番９号フヨー株式会社（4010601017041）に合併し解散,2015-10-05,1,,,,,リューダ,0
577,3010901035999,登記記録の閉鎖等,0,2024-05-02,2024-04-24,株式会社ギルモット,,株式会社,東京都,世田谷区,松原３丁目３０番１０号２Ｆ,,13,112,1560043,,,2024-04-24,清算の結了等,,,2015-10-05,1,,,,,,0
611,3011803004943,登記記録の閉鎖等,0,2024-05-02,2024-04-26,合同会社ＡＩ商事,,合同会社,東京都,葛飾区,柴又６丁目４番１号,,13,122,1250052,,,2024-04-26,清算の結了等,,,2022-01-26,1,,,,,エーアイショウジ,0
612,3012301006696,登記記録の閉鎖等,0,2024-05-02,2024-04-30,株式会社アベ企画,,株式会社,東京都,町田市,本町田２０４６番地２４,,13,209,1940032,,,2024-04-30,清算の結了等,,,2015-10-05,1,,,,,アベキカク,0
636,3020005010114,登記記録の閉鎖等,0,2024-05-02,2024-04-22,ＮＰＯ法人それいゆ,,その他の設立登記法人,神奈川県,横浜市南区,大岡２丁目７番１号第二浅岡ビル３０６,,14,105,2320061,,,2024-04-22,清算の結了等,,,2015-10-05,1,,,,,ソレイユ,0
670,3060002041109,登記記録の閉鎖等,0,2024-05-02,2024-04-25,有限会社青龍観光,,有限会社,栃木県,小山市,大字間々田２４６４番地１０,,09,208,3290205,,,2024-04-25,清算の結了等,,,2020-07-30,1,,,,,セイリュウカンコウ,0
681,3080101021587,登記記録の閉鎖等,0,2024-05-02,2024-04-30,樹ファミリーケア株式会社,,株式会社,静岡県,駿東郡長泉町,下土狩１１１６番地の７６,,22,342,4110943,,,2024-04-30,清算の結了等,,,2020-01-29,1,,,,,イツキファミリーケア,0
694,3110002020981,登記記録の閉鎖等,0,2024-05-02,2024-04-26,有限会社松村商店,,有限会社,新潟県,柏崎市,西本町１丁目６番１０号,,15,205,9450066,,,2024-04-26,清算の結了等,,,2015-10-05,1,,,,,マツムラショウテン,0
699,3120001058213,登記記録の閉鎖等,0,2024-05-02,2024-04-26,フレッシュ株式会社,,株式会社,大阪府,大阪市住吉区,大領２丁目５番３－５１０号,,27,120,5580001,,,2024-04-26,清算の結了等,,,2015-10-05,1,,,,,フレッシュ,0
731,3140005019754,登記記録の閉鎖等,0,2024-05-02,2024-04-30,一般社団法人やすらぎ会,,その他の設立登記法人,兵庫県,淡路市,岩屋１５１４番地の１８,,28,226,6562401,,,2024-04-30,清算の結了等,,,2015-10-05,1,,,,,ヤスラギカイ,0
740,3180001016314,登記記録の閉鎖等,0,2024-05-02,2024-04-22,株式会社オオムラ開発,,株式会社,愛知県,名古屋市中区,丸の内１丁目１４番６号,,23,106,4600002,,,2024-04-22,清算の結了等,,,2015-10-05,1,,,,,オオムラカイハツ,0
741,3180001029332,登記記録の閉鎖等,0,2024-05-02,2024-04-22,株式会社アメック,,株式会社,愛知県,名古屋市中村区,太閤２丁目５番１６号,,23,105,4530801,,,2024-04-22,清算の結了等,,,2015-10-05,1,,,,,アメック,0
743,3180001089707,登記記録の閉鎖等,0,2024-05-02,2024-04-19,光進建設株式会社,,株式会社,愛知県,名古屋市中村区,稲西町１８２番地の２,,23,105,4530849,,,2024-04-19,清算の結了等,,,2015-10-05,1,,,,,コウシンケンセツ,0
754,3180002022897,登記記録の閉鎖等,0,2024-05-02,2024-04-23,有限会社大瀬良製作所,,有限会社,愛知県,北名古屋市,高田寺北の川５４番地１,,23,234,4810011,,,2024-04-23,清算の結了等,,,2015-10-05,1,,,,,オオセラセイサクショ,0
755,3180002041105,登記記録の閉鎖等,0,2024-05-02,2024-04-23,有限会社フジクリーン,,有限会社,愛知県,北名古屋市,宇福寺中杁１１４番地の５,,23,234,4810035,,,2024-04-23,清算の結了等,,,2015-10-05,1,,,,,フジクリーン,0
769,3200001031780,登記記録の閉鎖等,0,2024-05-02,2024-04-30,株式会社アイエス,,株式会社,岐阜県,各務原市,蘇原旭町２丁目３５番地,,21,213,5040824,,,2024-04-30,清算の結了等,,,2015-10-05,1,,,,,アイエス,0
770,3200002003589,登記記録の閉鎖等,0,2024-05-02,2024-05-01,有限会社野口書店,,有限会社,岐阜県,岐阜市,早田大通２丁目３番地,,21,201,5020902,,,2024-05-01,清算の結了等,,,2015-10-05,1,,,,,ノグチショテン,0
779,3240001043120,登記記録の閉鎖等,0,2024-05-02,2024-04-17,株式会社センシーズ,,株式会社,岡山県,岡山市北区,中山下１丁目９番４０号,,33,101,7000821,,,2024-04-17,清算の結了等,,,2015-10-05,1,,,,,センシーズ,0
782,3240002027980,登記記録の閉鎖等,0,2024-05-02,2024-04-30,有限会社中国新聞吉弘新聞舗,00001051,有限会社,広島県,東広島市,黒瀬松ケ丘８番１１号,,34,212,7392614,,,2024-04-30,清算の結了等,,,2015-10-05,1,,,,,チュウゴクシンブンヨシヒロシンブンホ,0
799,3300005002603,登記記録の閉鎖等,0,2024-05-02,2024-04-26,建物づくり協同組合,,その他の設立登記法人,佐賀県,多久市,北多久町大字小侍４５番地５７,,41,204,8460002,,,2024-04-26,清算の結了等,,,2015-10-05,1,,,,,タテモノヅクリ,0
801,3330001019169,登記記録の閉鎖等,0,2024-05-02,2024-04-26,株式会社ソルヴィア,,株式会社,熊本県,天草市,大浜町７番７号,,43,215,8630015,,,2024-04-26,清算の結了等,,,2015-10-05,1,,,,,ソルヴィア,0
808,3340002024910,登記記録の閉鎖等,0,2024-05-02,2024-04-30,有限会社入船運送,,有限会社,鹿児島県,肝属郡錦江町,城元７０２番地１,,46,490,8932302,,,2024-04-30,清算の結了等,,,2015-10-05,1,,,,,イリフネウンソウ,0
818,3380001000413,登記記録の閉鎖等,0,2024-05-02,2024-04-25,株式会社ケーアイ,,株式会社,福島県,福島市,東浜町７番３５号,,07,201,9608132,,,2024-04-25,清算の結了等,,,2015-10-05,1,,,,,ケーアイ,0
822,3380002006665,登記記録の閉鎖等,0,2024-05-02,2024-04-25,有限会社梁川丸公,,有限会社,福島県,伊達市,梁川町字田町１４番地の１,,07,213,9600784,,,2024-04-25,清算の結了等,,,2015-10-05,1,,,,,ヤナガワマルコウ,0
824,3380005003577,登記記録の閉鎖等,0,2024-05-02,2024-04-08,麓山神社,,その他の設立登記法人,福島県,田村市,船引町大倉字高月２２６番地,,07,211,9634435,,,2024-04-08,合併による解散等,7380005003474,令和６年４月８日福島県田村市船引町大倉字鐇田２２６番地大倉神社（7380005003474）に合併し解散,2015-10-05,1,,,,,ハヤマジンジャ,0
827,3400002013007,登記記録の閉鎖等,0,2024-05-02,2024-04-17,有限会社二子海産,,有限会社,岩手県,久慈市,長内町第４３地割８１番地の１,,03,207,0280041,,,2024-04-17,清算の結了等,,,2015-10-05,1,,,,,フタゴカイサン,0
829,3410001009748,登記記録の閉鎖等,0,2024-05-02,2024-04-15,株式会社北海道日高牧場,,株式会社,北海道,新冠郡新冠町,字太陽３３８番地１０,,01,604,0592343,,,2024-04-15,合併による解散等,7410001009083,令和６年４月１日秋田県横手市平鹿町下鍋倉字下六ツ段１３２番地１株式会社菅与（7410001009083）に合併し解散,2015-10-05,1,,,,,ホッカイドウヒダカボクジョウ,0
832,3420002010324,登記記録の閉鎖等,0,2024-05-02,2024-04-22,有限会社柴田工業,,有限会社,青森県,八戸市,岬台３丁目２０番１９号,,02,203,0310842,,,2024-04-22,清算の結了等,,,2015-10-05,1,,,,,,0
851,4010001189514,登記記録の閉鎖等,0,2024-05-02,2024-04-19,株式会社リピートアップ,,株式会社,東京都,中央区,銀座７丁目１３番６号サガミビル２階,,13,102,1040061,,,2024-04-19,清算の結了等,,,2018-02-07,1,,,,,リピートアップ,0
865,4010401101714,登記記録の閉鎖等,0,2024-05-02,2024-04-26,すし青柳株式会社,,株式会社,東京都,千代田区,丸の内１丁目９番１号,,13,101,1000005,,,2024-04-26,合併による解散等,7220001001497,令和６年４月１日石川県金沢市八日市三丁目６０４番地株式会社エムアンドケイ（7220001001497）に合併し解散,2015-10-05,1,,,,,スシアオヤギ,0
867,4010401168274,登記記録の閉鎖等,0,2024-05-02,2024-04-11,ナイセン・エンターテインメント株式会社,,株式会社,東京都,港区,芝大門１丁目１６番５号,,13,103,1050012,,,2024-04-11,清算の結了等,,,2022-07-13,1,,,,,ナイセンエンターテインメント,0
895,4010903003623,登記記録の閉鎖等,0,2024-05-02,2024-04-24,アンドロータス合同会社,,合同会社,東京都,世田谷区,桜２丁目１６－１２,,13,112,1560053,,,2024-04-24,清算の結了等,,,2017-04-25,1,,,,,アンドロータス,0
920,4013301009424,登記記録の閉鎖等,0,2024-05-02,2024-04-26,株式会社西村商店,,株式会社,東京都,豊島区,南大塚２丁目３５番８号,00066864,13,116,1700005,,,2024-04-26,清算の結了等,,,2015-10-05,1,,,,,ニシムラショウテン,0
926,4013402004670,登記記録の閉鎖等,0,2024-05-02,2024-04-26,有限会社オーティー通信,,有限会社,東京都,稲城市,矢野口３９８番地,,13,225,2060812,,,2024-04-26,清算の結了等,,,2015-10-05,1,,,,,オーティーツウシン,0
932,4021001005478,登記記録の閉鎖等,0,2024-05-02,2024-04-30,株式会社菅原総建,,株式会社,神奈川県,藤沢市,下土棚４９８番地の３３,,14,205,2520807,,,2024-04-30,清算の結了等,,,2015-10-05,1,,,,,スガワラソウケン,0
933,4021001020270,登記記録の閉鎖等,0,2024-05-02,2024-04-30,株式会社日本省力センター,,株式会社,神奈川県,厚木市,妻田北３丁目３８番３２号,,14,212,2430812,,,2024-04-30,清算の結了等,,,2015-10-05,1,,,,,,0
942,4021002052635,登記記録の閉鎖等,0,2024-05-02,2024-05-01,有限会社成田ハウス,,有限会社,神奈川県,小田原市,飯泉８３８番地１１,,14,206,2500863,,,2024-05-01,清算の結了等,,,2015-10-05,1,,,,,,0
945,4030001002773,登記記録の閉鎖等,0,2024-05-02,2024-04-25,コーケンバイオ株式会社,,株式会社,埼玉県,さいたま市中央区,上落合１丁目９番１－１６０２号,,11,105,3380001,,,2024-04-25,清算の結了等,,,2015-10-05,1,,,,,コーケンバイオ,0
971,4040002102919,登記記録の閉鎖等,0,2024-05-02,2024-04-19,有限会社ＹＵＭＥクリエイト,,有限会社,千葉県,夷隅郡御宿町,新町５７－１,,12,443,2995103,,,2024-04-19,清算の結了等,,,2015-10-05,1,,,,,ユメクリエイト,0
987,4080101012437,登記記録の閉鎖等,0,2024-05-02,2024-04-30,株式会社富士と生きる,,株式会社,静岡県,御殿場市,川島田１８４５番地の９,,22,215,4120045,,,2024-04-30,清算の結了等,,,2015-10-05,1,,,,,フジトイキル,0
999,4120001179504,登記記録の閉鎖等,0,2024-05-02,2024-04-25,株式会社ＴＨＥ・ＷＯＲＬＤ,,株式会社,大阪府,大阪市淀川区,西三国１丁目１３番４号共栄マンション１Ｆ,,27,123,5320006,,,2024-04-25,清算の結了等,,,2015-10-05,1,,,,,,0
1019,4120101060786,登記記録の閉鎖等,0,2024-05-02,2024-04-26,株式会社フットアップ,,株式会社,大阪府,岸和田市,松風町２８番２１号,,27,202,5960021,,,2024-04-26,清算の結了等,,,2019-11-08,1,,,,,フットアップ,0
1025,4122005000372,登記記録の閉鎖等,0,2024-05-02,2024-04-30,新和デパート事業協同組合,,その他の設立登記法人,大阪府,東大阪市,岩田町３丁目１０番５号,,27,227,5780941,,,2024-04-30,清算の結了等,,,2015-10-05,1,,,,,シンワデパート,0
1040,4140001095856,登記記録の閉鎖等,0,2024-05-02,2024-04-30,ＰＩＮＴ株式会社,,株式会社,兵庫県,神戸市中央区,加納町４丁目５番１１号,,28,110,6500001,,,2024-04-30,清算の結了等,,,2015-10-05,1,,,,,,0
1041,4140001097638,登記記録の閉鎖等,0,2024-05-02,2024-04-30,株式会社イズム,,株式会社,兵庫県,明石市,和坂３丁目８番１５－７１９号,,28,203,6730012,,,2024-04-30,清算の結了等,,,2015-10-05,1,,,,,,0
1055,4170002008574,登記記録の閉鎖等,0,2024-05-02,2024-04-30,有限会社稲成鉄工所,,有限会社,和歌山県,田辺市,上の山２丁目１９番１８号,,30,206,6460061,,,2024-04-30,清算の結了等,,,2015-10-05,1,,,,,,0
1074,4180003016757,登記記録の閉鎖等,0,2024-05-02,2024-04-30,Ｎａｋａｍｕｒａ　Ｅｘｐｏｒｔ合同会社,,合同会社,愛知県,豊橋市,小向町字北小向６８番地７,,23,201,4418003,,,2024-04-30,清算の結了等,,,2015-12-09,1,,,,,,0
1087,4240001006984,登記記録の閉鎖等,0,2024-05-02,2024-04-26,中陽建設株式会社,,株式会社,広島県,広島市南区,翠５丁目１７番２５号,00000082,34,103,7340005,,,2024-04-26,清算の結了等,,,2015-10-05,1,,,,,チュウヨウケンセツ,0
1108,4280005004915,登記記録の閉鎖等,0,2024-05-02,2024-04-30,專修寺,00004946,その他の設立登記法人,島根県,邑智郡美郷町,浜原４３２番地,,32,448,6994701,,,2024-04-30,清算の結了等,,,2015-10-05,1,,,,,センシュウジ,0
1112,4290802015576,登記記録の閉鎖等,0,2024-05-02,2024-04-25,有限会社八幡エアーサービス,,有限会社,福岡県,北九州市八幡西区,永犬丸２丁目２０番１号,,40,109,8070851,,,2024-04-25,清算の結了等,,,2015-10-05,1,,,,,ヤハタエアーサービス,0
1136,4380001004264,登記記録の閉鎖等,0,2024-05-02,2024-04-25,株式会社よつ葉介護センター,,株式会社,福島県,福島市,飯坂町平野字林添７１番地の１,,07,201,9600231,,,2024-04-25,清算の結了等,,,2015-10-05,1,,,,,ヨツバカイゴセンター,0
1140,4380003005070,登記記録の閉鎖等,0,2024-05-02,2024-04-23,合同会社ＷＡ‐ＷＡ,,合同会社,福島県,相馬市,中村字田町１８（２階）,,07,209,9760042,,,2024-04-23,清算の結了等,,,2021-12-10,1,,,,,ワーワ,0
1149,4430002047918,登記記録の閉鎖等,0,2024-05-02,2024-04-25,槻勝工芸有限会社,,有限会社,北海道,恵庭市,恵み野南２丁目６番１７,,01,231,0611372,,,2024-04-25,清算の結了等,,,2015-10-05,1,,,,,,0
1169,5010401115341,登記記録の閉鎖等,0,2024-05-02,2024-04-12,Ｌｏｎｅｓｔａ　Ｐｒｉｍｕｌａ　Ｂａｎｋ株式会社,,株式会社,東京都,品川区,東五反田２丁目８番８号,,13,109,1410022,,,2024-04-12,清算の結了等,,,2015-10-05,1,,,,,ロネスタプリムラバンク,0
1178,5010402019616,登記記録の閉鎖等,0,2024-05-02,2024-04-12,有限会社ゴーゴープロモーション,,有限会社,東京都,港区,赤坂２丁目１３番２１号,,13,103,1070052,,,2024-04-12,清算の結了等,,,2015-10-05,1,,,,,ゴーゴープロモーション,0
1182,5010403024994,登記記録の閉鎖等,0,2024-05-02,2024-04-11,ＳＫＹマリン合同会社,,合同会社,東京都,港区,海岸３丁目３３番１７号東京ベイサイドビル,,13,103,1080022,,,2024-04-11,清算の結了等,,,2021-03-30,1,,,,,スカイマリン,0
1188,5010602023005,登記記録の閉鎖等,0,2024-05-02,2024-04-23,有限会社丸市,,有限会社,東京都,墨田区,東駒形１丁目１８番１３号,,13,107,1300005,,,2024-04-23,清算の結了等,,,2015-10-05,1,,,,,マルイチ,0
1195,5010802014588,登記記録の閉鎖等,0,2024-05-02,2024-04-23,有限会社本吉塗装店,,有限会社,東京都,大田区,南蒲田３丁目５番１９号,,13,111,1440035,,,2024-04-23,清算の結了等,,,2015-10-05,1,,,,,モトヨシトソウテン,0
1222,5011301029466,登記記録の閉鎖等,0,2024-05-02,2024-04-30,株式会社Ｊ‐ＦＵＮ１２．５,,株式会社,東京都,杉並区,宮前４丁目２９番３号,,13,115,1680081,,,2024-04-30,合併による解散等,8010001239926,令和６年４月１５日東京都千代田区丸の内一丁目８番２号株式会社Ｊ‐ＦＵＮ１２（8010001239926）に合併し解散,2024-03-05,1,,,,,ジェイファントゥエルブポイントファイブ,0
1250,5020002090917,登記記録の閉鎖等,0,2024-05-02,2024-04-22,有限会社吉野商会,,有限会社,神奈川県,川崎市高津区,諏訪３丁目３番１号,,14,134,2130004,,,2024-04-22,清算の結了等,,,2015-10-05,1,,,,,ヨシノショウカイ,0
1279,5050002008180,登記記録の閉鎖等,0,2024-05-02,2024-04-26,有限会社オオワダピアノサービス,,有限会社,茨城県,ひたちなか市,大字東石川３５８７番地の４,,08,221,3120052,,,2024-04-26,清算の結了等,,,2015-10-05,1,,,,,,0
1282,5050005000969,登記記録の閉鎖等,0,2024-05-02,2024-04-08,社会福祉法人聖明福祉会,,その他の設立登記法人,茨城県,東茨城郡城里町,大字高根台１番地５３,,08,310,3114332,,,2024-04-08,合併による解散等,8050005000520,令和６年４月１日茨城県水戸市千波町２７７０－２０社会福祉法人親愛会（8050005000520）に合併し解散,2015-10-05,1,,,,,セイメイフクシカイ,0
1287,5070001013733,登記記録の閉鎖等,0,2024-05-02,2024-04-30,株式会社堀越組,,株式会社,群馬県,伊勢崎市,柴町９５３番地３８,,10,204,3720824,,,2024-04-30,清算の結了等,,,2015-10-05,1,,,,,ホリコシグミ,0
1298,5120001163647,登記記録の閉鎖等,0,2024-05-02,2024-04-24,株式会社ディーアール,,株式会社,大阪府,守口市,大日東町４番Ｄ－７０５号,,27,209,5700016,,,2024-04-24,清算の結了等,,,2015-10-05,1,,,,,ディーアール,0
1306,5120002060819,登記記録の閉鎖等,0,2024-05-02,2024-04-30,有限会社オルタ・デザインアソシエイツ,,有限会社,大阪府,大阪市中央区,瓦町１丁目１番６号,,27,128,5410048,,,2024-04-30,清算の結了等,,,2015-10-05,1,,,,,オルタデザインアソシエイツ,0
1313,5120102006606,登記記録の閉鎖等,0,2024-05-02,2024-04-25,株式会社タニモト,,株式会社,大阪府,堺市中区,毛穴町１５５番地の２,,27,142,5998266,,,2024-04-25,清算の結了等,,,2015-10-05,1,,,,,タニモト,0
1315,5120901032653,登記記録の閉鎖等,0,2024-05-02,2024-04-19,株式会社グラムスタイル,,株式会社,大阪府,高槻市,成合南の町５番３号,,27,207,5691013,,,2024-04-19,合併による解散等,5010001236422,令和６年４月１日東京都千代田区丸の内二丁目４番１号ＧＬＭ株式会社（5010001236422）に合併し解散,2015-10-05,1,,,,,グラムスタイル,0
1317,5130001036496,登記記録の閉鎖等,0,2024-05-02,2024-04-30,株式会社吉田ファッション,,株式会社,京都府,久世郡久御山町,佐古東角５６番地,,26,322,6130031,,,2024-04-30,清算の結了等,,,2015-10-05,1,,,,,ヨシダファッション,0
1324,5130002032197,登記記録の閉鎖等,0,2024-05-02,2024-04-30,有限会社正電社,,有限会社,京都府,与謝郡与謝野町,字幾地１４０１番地の１,,26,465,6292311,,,2024-04-30,清算の結了等,,,2015-10-05,1,,,,,ショウデンシャ,0
1331,5140002066310,登記記録の閉鎖等,0,2024-05-02,2024-04-26,有限会社中植商事,,有限会社,兵庫県,川辺郡猪名川町,松尾台３丁目２番地４２,,28,301,6660261,,,2024-04-26,清算の結了等,,,2015-10-05,1,,,,,ナカウエショウジ,0
1337,5170001016924,登記記録の閉鎖等,0,2024-05-02,2024-04-30,ＳＫマネジメント株式会社,,株式会社,和歌山県,和歌山市,友田町３丁目１６番地（１００１号）,,30,201,6408342,,,2024-04-30,清算の結了等,,,2022-01-07,1,,,,,エスケイマネジメント,0
1359,5180302011549,登記記録の閉鎖等,0,2024-05-02,2024-04-23,有限会社あっとエージェンシー,,有限会社,愛知県,豊橋市,三本木町字元三本木８７番地の１,,23,201,4418152,,,2024-04-23,清算の結了等,,,2015-10-05,1,,,,,アットエージェンシー,0
1365,5200001018545,登記記録の閉鎖等,0,2024-05-02,2024-05-01,株式会社クラックユニット,,株式会社,岐阜県,可児市,皐ケ丘４丁目１５９番地,,21,214,5090236,,,2024-05-01,清算の結了等,,,2015-10-05,1,,,,,クラックユニット,0
1370,5200003001664,登記記録の閉鎖等,0,2024-05-02,2024-05-01,合資会社田畑,,合資会社,岐阜県,大垣市,俵町８３番地,,21,202,5030876,,,2024-05-01,清算の結了等,,,2015-10-05,1,,,,,タバタ,0
1388,5300002007875,登記記録の閉鎖等,0,2024-05-02,2024-04-30,西部冷凍機有限会社,,有限会社,佐賀県,伊万里市,立花町２３５７番地１７,,41,205,8480027,,,2024-04-30,清算の結了等,,,2015-10-05,1,,,,,セイブレイトウキ,0
1389,5300002007941,登記記録の閉鎖等,0,2024-05-02,2024-04-30,有限会社津房マリンサービス,,有限会社,佐賀県,伊万里市,大坪町乙１６５番地１０５,,41,205,8480022,,,2024-04-30,清算の結了等,,,2015-10-05,1,,,,,ツフサマリンサービス,0
1395,5340001011189,登記記録の閉鎖等,0,2024-05-02,2024-04-26,株式会社川薩土木,00098751,株式会社,鹿児島県,薩摩川内市,永利町１４５３番地１,,46,215,8950005,,,2024-04-26,清算の結了等,,,2015-10-05,1,,,,,センサツドボク,0
1397,5340005003439,登記記録の閉鎖等,0,2024-05-02,2024-04-19,川内酒販協同組合,,その他の設立登記法人,鹿児島県,薩摩川内市,若葉町１番１１号,,46,215,8950063,,,2024-04-19,合併による解散等,6340005000170,令和６年４月１日鹿児島県日置市伊集院町下谷口１８１１番地２薩摩酒販協同組合（6340005000170）に合併し解散,2015-10-05,1,,,,,センダイシュハン,0
1398,5350002002087,登記記録の閉鎖等,0,2024-05-02,2024-04-23,有限会社サンライト住宅,,有限会社,宮崎県,宮崎市,祇園３丁目４４番地１,,45,201,8800024,,,2024-04-23,清算の結了等,,,2024-03-05,1,,,,,,0
1412,5380005007345,登記記録の閉鎖等,0,2024-05-02,2024-04-10,大神社,,その他の設立登記法人,福島県,相馬郡新地町,駒ケ嶺字白子下３０番地,,07,561,9792611,,,2024-04-10,合併による解散等,9380005007275,令和６年４月１０日福島県相馬郡新地町駒ケ嶺字大作４４番地子眉嶺神社（9380005007275）に合併し解散,2015-10-05,1,,,,,ダイジンジャ,0
1420,5410005004628,登記記録の閉鎖等,0,2024-05-02,2024-04-15,農事組合法人みやび,,その他の設立登記法人,秋田県,大仙市,北楢岡字北楢岡２７番地,00087224,05,212,0191702,,,2024-04-15,清算の結了等,,,2015-10-05,1,,,,,,0
1425,5430003012556,登記記録の閉鎖等,0,2024-05-02,2024-04-15,ＮＯＩＳＥ　ＤＥＳＩＧＮ　ＬＡＢ合同会社,,合同会社,北海道,虻田郡喜茂別町,字鈴川２５番地の２,,01,398,0440451,,,2024-04-15,清算の結了等,,,2021-03-30,1,,,,,ノイズデザインラボ,0
1436,6010001228823,登記記録の閉鎖等,0,2024-05-02,2024-04-16,株式会社Ｓｔｙｌｅ　Ｃｏｌｏｒ　Ｊａｐａｎ,,株式会社,東京都,品川区,大井３丁目１９番２０号,,13,109,1400014,,,2024-04-16,清算の結了等,,,2022-08-15,1,,,,,スタイルカラージャパン,0
1444,6010401037576,登記記録の閉鎖等,0,2024-05-02,2024-04-10,株式会社京急システム,,株式会社,神奈川県,横浜市西区,高島１丁目２番８号,,14,103,2200011,,,2024-04-10,合併による解散等,7010401009277,令和６年４月１日神奈川県横浜市西区高島一丁目２番８号京浜急行電鉄株式会社（7010401009277）に合併し解散,2015-10-05,1,,,,,ケイキュウシステム,0
1453,6010501050041,登記記録の閉鎖等,0,2024-05-02,2024-04-11,株式会社Ｋｉｒａｋｕｔａ,,株式会社,東京都,台東区,浅草橋５丁目８－１１大富ビル４０２号室,,13,106,1110053,,,2024-04-11,清算の結了等,,,2023-02-28,1,,,,,キラクタ,0
1464,6011001111894,登記記録の閉鎖等,0,2024-05-02,2024-04-26,株式会社ＮＩ－ＷＡ,,株式会社,東京都,千代田区,九段北１丁目１５番９号,,13,101,1020073,,,2024-04-26,合併による解散等,1120001085408,令和６年４月１日大阪市中央区上町一丁目１番２８号東邦レオ株式会社（1120001085408）に合併し解散,2016-07-19,1,,,,,ニワ,0
1470,6011101026299,登記記録の閉鎖等,0,2024-05-02,2024-04-23,株式会社ネオクリード,,株式会社,東京都,新宿区,信濃町１８番地マヤ信濃町２番館２Ｆ,,13,104,1600016,,,2024-04-23,合併による解散等,2010901012388,令和６年４月１日東京都世田谷区松原三丁目３９番２９－１４０１号株式会社悠久（2010901012388）に合併し解散,2015-10-05,1,,,,,ネオクリード,0
1477,6011403004110,登記記録の閉鎖等,0,2024-05-02,2024-04-23,合同会社ＭＩＣＩ,,合同会社,東京都,板橋区,南常盤台１丁目１１番６号,,13,119,1740072,,,2024-04-23,清算の結了等,,,2023-09-11,1,,,,,ミチ,0
1481,6011801037042,登記記録の閉鎖等,0,2024-05-02,2024-04-22,株式会社ヴェルデ,,株式会社,東京都,葛飾区,奥戸９丁目１３番３号,,13,122,1240022,,,2024-04-22,清算の結了等,,,2019-12-19,1,,,,,ヴェルデ,0
1485,6012401034198,登記記録の閉鎖等,0,2024-05-02,2024-04-18,株式会社キッズコネクト,,株式会社,岩手県,釜石市,甲子町第９地割１２－１,,03,211,0260055,,,2024-04-18,合併による解散等,6011101063318,令和６年４月１日東京都中央区日本橋３－１２－２朝日ビルヂング４Ｆ－Ａ、ＳＯＵキッズケア株式会社（6011101063318）に合併し解散,2018-07-10,1,,,,,キッズコネクト,0
1486,6012701000412,登記記録の閉鎖等,0,2024-05-02,2024-04-26,株式会社新研,,株式会社,東京都,小平市,御幸町１２７番地,,13,211,1870012,,,2024-04-26,清算の結了等,,,2015-10-05,1,,,,,シンケン,0
1487,6012701011640,登記記録の閉鎖等,0,2024-05-02,2024-04-25,エンドウエムエム株式会社,,株式会社,東京都,西東京市,ひばりが丘１丁目１４番６号グランフォーレ学園通り１０２号,,13,229,2020001,,,2024-04-25,清算の結了等,,,2015-10-05,1,,,,,エンドウエムエム,0
1505,6021002048879,登記記録の閉鎖等,0,2024-05-02,2024-04-30,有限会社陽だまり,,有限会社,神奈川県,座間市,ひばりが丘２丁目６５番１０号,,14,216,2520003,,,2024-04-30,清算の結了等,,,2015-10-05,1,,,,,ヒダマリ,0
1506,6021002068893,登記記録の閉鎖等,0,2024-05-02,2024-04-30,有限会社高井企画整体指導室,00013957,有限会社,神奈川県,三浦郡葉山町,一色１６２０番地,,14,301,2400111,,,2024-04-30,清算の結了等,,,2015-10-05,1,,,,,タカイキカクセイタイシドウシツ,0
1532,6040002062483,登記記録の閉鎖等,0,2024-05-02,2024-04-19,有限会社蜂谷管工,,有限会社,千葉県,四街道市,四街道１５３３番地,,12,228,2840005,,,2024-04-19,清算の結了等,,,2015-10-05,1,,,,,ハチヤカンコウ,0
1550,6070001021132,登記記録の閉鎖等,0,2024-05-02,2024-04-26,株式会社新田総建,,株式会社,群馬県,太田市,新田市野井町１５９３番地１２,,10,205,3700314,,,2024-04-26,清算の結了等,,,2015-10-05,1,,,,,,0
1552,6070001027988,登記記録の閉鎖等,0,2024-05-02,2024-04-30,株式会社トライ・ド,,株式会社,群馬県,前橋市,前箱田町４３３番地３,,10,201,3710835,,,2024-04-30,清算の結了等,,,2015-10-05,1,,,,,,0
1566,6110001021730,登記記録の閉鎖等,0,2024-05-02,2024-04-26,株式会社境産業,,株式会社,新潟県,糸魚川市,大字大野１３９２番地１,,15,216,9410071,,,2024-04-26,清算の結了等,,,2015-10-05,1,,,,,,0
1572,6120001052519,登記記録の閉鎖等,0,2024-05-02,2024-05-01,株式会社ナカムラ電業,,株式会社,大阪府,大阪市東淀川区,小松１丁目１８番２８号,,27,114,5330004,,,2024-05-01,清算の結了等,,,2015-10-05,1,,,,,ナカムラデンギョウ,0
1573,6120001069281,登記記録の閉鎖等,0,2024-05-02,2024-04-26,株式会社ハピネスコンシェルジュ,,株式会社,大阪府,大阪市都島区,友渕町１丁目５番５－３４０６号,,27,102,5340016,,,2024-04-26,清算の結了等,,,2015-10-05,1,,,,,ハピネスコンシェルジュ,0
1576,6120001172861,登記記録の閉鎖等,0,2024-05-02,2024-04-01,ＤＣ　ＴＲＡＮＳＰＯＲＴＡＴＩＯＮ株式会社,,株式会社,大阪府,大阪市東成区,神路１丁目９番１３号,,27,115,5370003,,,2024-04-01,合併による解散等,7120001012851,令和６年４月１日大阪市東成区神路一丁目９番１３号大和製罐運送株式会社（7120001012851）に合併し解散,2015-10-05,1,,,,,ディーシートランスポーテーション,0
1579,6120001181565,登記記録の閉鎖等,0,2024-05-02,2024-04-22,三陽アキュラシー株式会社,,株式会社,大阪府,大阪市福島区,海老江６丁目６番１６号,,27,103,5530001,,,2024-04-22,合併による解散等,6120001036810,令和６年４月２１日大阪市福島区海老江六丁目６番１６号ＹＫアキュラシー株式会社（6120001036810）に合併し解散,2015-10-05,1,,,,,サンヨウアキュラシー,0
1590,6120003015944,登記記録の閉鎖等,0,2024-05-02,2024-04-26,合同会社Ｅｎｄｉａｎ,,合同会社,大阪府,大阪市北区,中之島６丁目１番２１号,,27,127,5300005,,,2024-04-26,清算の結了等,,,2019-07-08,1,,,,,エンディアン,0
1597,6120101037270,登記記録の閉鎖等,0,2024-05-02,2024-04-24,株式会社南高工務店,,株式会社,大阪府,岸和田市,流木町１４３番地,,27,202,5960835,,,2024-04-24,清算の結了等,,,2015-10-05,1,,,,,ナンコウコウムテン,0
1605,6130001004849,登記記録の閉鎖等,0,2024-05-02,2024-05-01,株式会社ジー・エイチ・ネットシステム,,株式会社,京都府,京都市北区,上賀茂榊田町７８番地,00035176,26,101,6038051,,,2024-05-01,合併による解散等,7130001004848,令和６年５月１日京都市左京区下鴨水口町４６番地１株式会社ジー・エイチ・コミュニティ（7130001004848）に合併し解散,2015-10-05,1,,,,,ジーエイチネットシステム,0
1614,6140001106727,登記記録の閉鎖等,0,2024-05-02,2024-04-30,ＦＡＩ株式会社,,株式会社,兵庫県,神戸市灘区,森後町２丁目３番１１号,,28,102,6570028,,,2024-04-30,清算の結了等,,,2017-07-04,1,,,,,,0
1629,6180002002748,登記記録の閉鎖等,0,2024-05-02,2024-04-26,有限会社東名無線工業,,有限会社,愛知県,名古屋市天白区,高坂町１４１番地,,23,116,4680025,,,2024-04-26,清算の結了等,,,2015-10-05,1,,,,,トウメイムセンコウギョウ,0
1631,6180003025756,登記記録の閉鎖等,0,2024-05-02,2024-04-15,合同会社シティ開発,,合同会社,愛知県,犬山市,大字五郎丸字郷瀬川３５番地１,,23,215,4840066,,,2024-04-15,清算の結了等,,,2023-09-27,1,,,,,シティカイハツ,0
1635,6180303002133,登記記録の閉鎖等,0,2024-05-02,2024-04-24,合名会社大藤屋洋品店,,合名会社,愛知県,知立市,新富１丁目６４番地,,23,225,4720047,,,2024-04-24,清算の結了等,,,2015-10-05,1,,,,,オオフジヤヨウヒンテン,0
1688,6380005003541,登記記録の閉鎖等,0,2024-05-02,2024-04-08,祖與内神社,,その他の設立登記法人,福島県,田村市,船引町大倉字祖與内１５０番地ノ２,,07,211,9634435,,,2024-04-08,合併による解散等,7380005003474,令和６年４月８日福島県田村市船引町大倉字鐇田２２６番地大倉神社（7380005003474）に合併し解散,2015-10-05,1,,,,,ソヨウチジンジャ,0
1690,6390001011191,登記記録の閉鎖等,0,2024-05-02,2024-04-30,東北羽田コンクリート株式会社,,株式会社,山形県,長井市,上伊佐沢２２１０番地,,06,209,9930021,,,2024-04-30,合併による解散等,3010001062242,令和６年４月１日東京都千代田区麹町五丁目７番地２ベルテクス株式会社（3010001062242）に合併し解散,2015-10-05,1,,,,,トウホクハネダコンクリート,0
1693,6400001006941,登記記録の閉鎖等,0,2024-05-02,2024-04-17,株式会社平山,,株式会社,岩手県,宮古市,築地２丁目２番２８号,,03,202,0270091,,,2024-04-17,清算の結了等,,,2015-10-05,1,,,,,ヒラヤマ,0
1721,7010002036794,登記記録の閉鎖等,0,2024-05-02,2024-04-17,株式会社肥後屋,,株式会社,東京都,千代田区,神田錦町３丁目１７番地,,13,101,1010054,,,2024-04-17,清算の結了等,,,2015-10-05,1,,,,,ヒゴヤ,0
1722,7010003033502,登記記録の閉鎖等,0,2024-05-02,2024-04-19,合同会社メディカル・インベストメント２号,,合同会社,東京都,中央区,日本橋兜町３番１１号三田証券株式会社内,,13,102,1030026,,,2024-04-19,清算の結了等,,,2020-11-12,1,,,,,メディカルインベストメントニゴウ,0
1727,7010401096522,登記記録の閉鎖等,0,2024-05-02,2024-04-30,株式会社アイ・アクセス,,株式会社,東京都,中央区,東日本橋２丁目２８番４号日本橋ＣＥＴビル２階,,13,102,1030004,,,2024-04-30,合併による解散等,7011003005276,令和６年４月３０日東京都中央区日本橋室町一丁目１３番１号ＤＫノア４階株式会社サイブリッジ（7011003005276）に合併し解散,2015-10-05,1,,,,,アイアクセス,0
1732,7010401167959,登記記録の閉鎖等,0,2024-05-02,2024-04-12,メンタルノイズ株式会社,,株式会社,東京都,港区,台場１丁目１番１－２３０８号,,13,103,1350091,,,2024-04-12,清算の結了等,,,2022-06-17,1,,,,,メンタルノイズ,0
1741,7010601012915,登記記録の閉鎖等,0,2024-05-02,2024-04-24,たちばな堂印刷株式会社,,株式会社,東京都,墨田区,立花４丁目２７番５号,,13,107,1310043,,,2024-04-24,清算の結了等,,,2015-10-05,1,,,,,タチバナドウインサツ,0
1745,7010701015479,登記記録の閉鎖等,0,2024-05-02,2024-04-15,株式会社コサインシステムズ,,株式会社,東京都,品川区,大井４丁目１０番３－５０２号,,13,109,1400014,,,2024-04-15,清算の結了等,,,2015-10-05,1,,,,,コサインシステムズ,0
1756,7011001111539,登記記録の閉鎖等,0,2024-05-02,2024-03-06,株式会社ＴＡＫＥＮＯＫＯ,,株式会社,北海道,札幌市北区,北六条西６丁目２番地２４,,01,102,0600806,,,2024-03-06,清算の結了等,,,2016-06-23,1,,,,,タケノコ,0
1758,7011001139638,登記記録の閉鎖等,0,2024-05-02,2024-04-12,株式会社ＥＮＩＣＡ,,株式会社,東京都,渋谷区,道玄坂１丁目２０番８号寿パークビル５Ｆ,,13,113,1500043,,,2024-04-12,合併による解散等,3011001135657,令和６年３月３１日東京都渋谷区道玄坂一丁目２０番８号寿パークビル５Ｆ株式会社ＫＩＴＥＮ（3011001135657）に合併し解散,2021-04-06,1,,,,,エニカ,0
1768,7011103006554,登記記録の閉鎖等,0,2024-05-02,2024-04-23,合同会社ＡＳＨ７,,合同会社,東京都,新宿区,大久保１丁目２番１８号,,13,104,1690072,,,2024-04-23,清算の結了等,,,2016-09-30,1,,,,,アッシュセブン,0
1769,7011201022742,登記記録の閉鎖等,0,2024-05-02,2024-04-30,株式会社ＥＭＥＴ　ＬＥ　ＪＯＵＥＴ,,株式会社,東京都,中野区,弥生町１丁目３４番８－２０８号,,13,114,1640013,,,2024-04-30,清算の結了等,,,2021-02-15,1,,,,,エメルジュエ,0
1771,7011601017367,登記記録の閉鎖等,0,2024-05-02,2024-04-26,株式会社ソラザ,,株式会社,東京都,練馬区,石神井台１丁目８番１２号,,13,120,1770045,,,2024-04-26,清算の結了等,,,2015-10-05,1,,,,,ソラザ,0
1776,7011802024063,登記記録の閉鎖等,0,2024-05-02,2024-04-25,有限会社サト・プランニング,,有限会社,東京都,足立区,六町３丁目６番２３号,,13,121,1210073,,,2024-04-25,合併による解散等,5011801022821,令和６年４月２５日東京都足立区六町三丁目６番２３号株式会社スタジオ・エムズ（5011801022821）に合併し解散,2015-10-05,1,,,,,サトプランニング,0
1793,7021001012257,登記記録の閉鎖等,0,2024-05-02,2024-04-30,株式会社財盛不動産,,株式会社,神奈川県,相模原市中央区,千代田１丁目３番１２号,,14,152,2520237,,,2024-04-30,清算の結了等,,,2015-10-05,1,,,,,ザイセイフドウサン,0
1796,7021001032585,登記記録の閉鎖等,0,2024-05-02,2024-05-01,株式会社キョードーホーム,,株式会社,神奈川県,小田原市,飯泉８３８番地,,14,206,2500863,,,2024-05-01,清算の結了等,,,2015-10-05,1,,,,,キョードーホーム,0
1799,7021002025720,登記記録の閉鎖等,0,2024-05-02,2024-04-30,有限会社イフ,,有限会社,神奈川県,相模原市緑区,橋本６丁目４番１５号橋本嶋崎ビル３０３,,14,151,2520143,,,2024-04-30,清算の結了等,,,2015-10-05,1,,,,,,0
1808,7030001085139,登記記録の閉鎖等,0,2024-05-02,2024-04-23,長谷川不動産株式会社,,株式会社,埼玉県,熊谷市,宮町１丁目８９番地,,11,202,3600041,,,2024-04-23,合併による解散等,5030001084976,令和６年３月３１日埼玉県熊谷市宮町一丁目８９番地鷹の羽興業株式会社（5030001084976）に合併し解散,2015-10-05,1,,,,,ハセガワフドウサン,0
1815,7030002002869,登記記録の閉鎖等,0,2024-05-02,2024-04-25,有限会社オリジン,,有限会社,埼玉県,さいたま市中央区,鈴谷７丁目３番１７号,,11,105,3380013,,,2024-04-25,清算の結了等,,,2015-10-05,1,,,,,オリジン,0
1816,7030002009492,登記記録の閉鎖等,0,2024-05-02,2024-04-25,有限会社徳島建設,,有限会社,埼玉県,さいたま市緑区,大字三室１４４５番地１３,,11,109,3360911,,,2024-04-25,清算の結了等,,,2015-10-05,1,,,,,トクシマケンセツ,0
1832,7040002040348,登記記録の閉鎖等,0,2024-05-02,2024-04-17,有限会社岩上技研,,有限会社,千葉県,浦安市,舞浜３丁目１７番１０号,,12,227,2790031,,,2024-04-17,清算の結了等,,,2015-10-05,1,,,,,イワカミギケン,0
1835,7040002099401,登記記録の閉鎖等,0,2024-05-02,2024-04-18,有限会社サンエイ企画,,有限会社,千葉県,館山市,大賀１２１番地の６,,12,205,2940031,,,2024-04-18,清算の結了等,,,2015-10-05,1,,,,,サンエイキカク,0
1846,7050002030760,登記記録の閉鎖等,0,2024-05-02,2024-04-26,有限会社杉山商店,,有限会社,茨城県,日立市,弁天町２丁目１８番１１号,,08,202,3170072,,,2024-04-26,清算の結了等,,,2015-10-05,1,,,,,スギヤマショウテン,0
1851,7070002005950,登記記録の閉鎖等,0,2024-05-02,2024-04-30,有限会社じゃんてぃー,,有限会社,群馬県,前橋市,小相木町３４１番地５,,10,201,3710831,,,2024-04-30,清算の結了等,,,2015-10-05,1,,,,,ジャンティー,0
1854,7070002021394,登記記録の閉鎖等,0,2024-05-02,2024-04-30,有限会社エイチ・ジーワークス,,有限会社,群馬県,伊勢崎市,柴町９５３番地３８,,10,204,3720824,,,2024-04-30,清算の結了等,,,2015-10-05,1,,,,,エイチジーワークス,0
1855,7070005000767,登記記録の閉鎖等,0,2024-05-02,2024-04-30,医療法人なんきつこどもクリニック,,その他の設立登記法人,群馬県,前橋市,荒牧町１丁目１１番地１３,,10,201,3710044,,,2024-04-30,清算の結了等,,,2015-10-05,1,,,,,ナンキツコドモクリニック,0
1870,7100002013181,登記記録の閉鎖等,0,2024-05-02,2024-04-15,有限会社ＳＲＵＪＥ,,有限会社,長野県,北佐久郡軽井沢町,大字長倉２４８４番地２０,,20,321,3890111,,,2024-04-15,清算の結了等,,,2015-10-05,1,,,,,スルジェ,0
1880,7120001122634,登記記録の閉鎖等,0,2024-05-02,2024-04-30,株式会社アフロディーテ,,株式会社,大阪府,茨木市,並木町１７番１６号,,27,211,5670892,,,2024-04-30,清算の結了等,,,2015-10-05,1,,,,,アフロディーテ,0
1889,7120002039844,登記記録の閉鎖等,0,2024-05-02,2024-04-30,有限会社関口商店,,有限会社,大阪府,大阪市東住吉区,今林１丁目２番６８号,,27,121,5460001,,,2024-04-30,清算の結了等,,,2015-10-05,1,,,,,セキグチショウテン,0
1920,7180001056538,登記記録の閉鎖等,0,2024-05-02,2024-04-19,株式会社光設備工業,,株式会社,愛知県,海部郡大治町,大字砂子字五反畑９９２,,23,424,4901143,,,2024-04-19,清算の結了等,,,2015-10-05,1,,,,,ヒカリセツビコウギョウ,0
1930,7190001031003,登記記録の閉鎖等,0,2024-05-02,2024-04-30,愛和自動車株式会社,,株式会社,三重県,鈴鹿市,住吉５丁目１１番８号,,24,207,5130826,,,2024-04-30,清算の結了等,,,2024-01-12,1,,,,,アイワジドウシャ,0
1937,7210001007371,登記記録の閉鎖等,0,2024-05-02,2024-04-30,株式会社ティアラ,,株式会社,福井県,坂井市,三国町三国東６丁目５番５号,,18,210,9130016,,,2024-04-30,清算の結了等,,,2015-10-05,1,,,,,ティアラ,0
1947,7250001011097,登記記録の閉鎖等,0,2024-05-02,2024-04-30,株式会社アキ装飾,,株式会社,山口県,岩国市,麻里布町５丁目１２番１８－２０２号エンブレム麻里布,,35,208,7400018,,,2024-04-30,清算の結了等,,,2015-10-05,1,,,,,,0
1948,7260001002896,登記記録の閉鎖等,0,2024-05-02,2024-04-18,三協グラビア株式会社,,株式会社,岡山県,岡山市南区,浦安南町５６５番地の３,,33,104,7028024,,,2024-04-18,清算の結了等,,,2015-10-05,1,,,,,サンキョウグラビア,0
1950,7260001034246,登記記録の閉鎖等,0,2024-05-02,2024-04-17,株式会社Ｔ‐ＦＯＯＤＳ,,株式会社,岡山県,岡山市北区,西崎本町１４番３５号,,33,101,7000056,,,2024-04-17,合併による解散等,3260001028441,令和６年４月１日東京都港区芝公園二丁目３番２７号芝公園ＰＲ－ＥＸ６Ｆ株式会社イースト・ソリューションズ（3260001028441）に合併し解散,2020-04-14,1,,,,,ティーフーズ,0
1966,7300002002115,登記記録の閉鎖等,0,2024-05-02,2024-04-30,有限会社相互オガ粉クリーン,,有限会社,佐賀県,佐賀市,兵庫町大字若宮１３５番地１,,41,201,8490911,,,2024-04-30,清算の結了等,,,2015-10-05,1,,,,,ソウゴオガコクリーン,0
1983,7400002007533,登記記録の閉鎖等,0,2024-05-02,2024-04-18,有限会社田村左官工業,,有限会社,岩手県,八幡平市,平舘第８地割１３５番地,,03,214,0287405,,,2024-04-18,清算の結了等,,,2015-10-05,1,,,,,タムラサカンコウギョウ,0
1996,7440002001144,登記記録の閉鎖等,0,2024-05-02,2024-04-26,有限会社川崎燃料,,有限会社,北海道,函館市,宇賀浦町５番１７号,,01,202,0400023,,,2024-04-26,清算の結了等,,,2015-10-05,1,,,,,カワサキネンリョウ,0
2042,8010701007541,登記記録の閉鎖等,0,2024-05-02,2024-04-16,日新産業設備株式会社,,株式会社,東京都,品川区,二葉１丁目１２番１５号,,13,109,1420043,,,2024-04-16,清算の結了等,,,2015-10-05,1,,,,,ニッシンサンギョウセツビ,0
2055,8011001138366,登記記録の閉鎖等,0,2024-05-02,2024-04-24,株式会社ＴＨＭ,,株式会社,東京都,渋谷区,桜丘町３１番２号,,13,113,1500031,,,2024-04-24,合併による解散等,7011001016291,令和６年４月１日東京都渋谷区南平台町５番６号東急株式会社（7011001016291）に合併し解散,2021-02-09,1,,,,,ティーエイチエム,0
2068,8011303002105,登記記録の閉鎖等,0,2024-05-02,2024-04-22,合同会社オフィス西村,,合同会社,東京都,杉並区,和泉２丁目２４番１２号,,13,115,1680063,,,2024-04-22,清算の結了等,,,2015-10-05,1,,,,,オフィスニシムラ,0
2078,8013302003579,登記記録の閉鎖等,0,2024-05-02,2024-04-18,有限会社Ｃｏ　ＦＡＶＯＲＩＴＯ,,有限会社,東京都,豊島区,巣鴨４丁目３番１１号,,13,116,1700002,,,2024-04-18,清算の結了等,,,2015-10-05,1,,,,,コファボリート,0
2081,8020002017859,登記記録の閉鎖等,0,2024-05-02,2024-04-23,有限会社リア,,有限会社,神奈川県,横浜市都筑区,仲町台３丁目１２番４－４３６号,,14,118,2240041,,,2024-04-23,清算の結了等,,,2015-10-05,1,,,,,リア,0
2089,8021002001175,登記記録の閉鎖等,0,2024-05-02,2024-04-30,有限会社カオル商事,,有限会社,神奈川県,藤沢市,片瀬３９０番地の１１１,,14,205,2510032,,,2024-04-30,清算の結了等,,,2015-10-05,1,,,,,カオルショウジ,0
2091,8021002051014,登記記録の閉鎖等,0,2024-05-02,2024-04-30,有限会社インテリア・リバーストーン,,有限会社,神奈川県,小田原市,栢山２３９４番地の１,,14,206,2500852,,,2024-04-30,清算の結了等,,,2015-10-05,1,,,,,インテリアリバーストーン,0
2110,8040005014819,登記記録の閉鎖等,0,2024-05-02,2024-04-19,特定非営利活動法人システム薬学研究機構,,その他の設立登記法人,千葉県,野田市,山崎２６４１番地東京理科大学内,,12,208,2780022,,,2024-04-19,清算の結了等,,,2015-10-05,1,,,,,システムヤクガクケンキュウキコウ,0
2133,8070003004422,登記記録の閉鎖等,0,2024-05-02,2024-04-30,残月堂合同会社,,合同会社,群馬県,伊勢崎市,境伊与久３１１６番地２,,10,204,3700105,,,2024-04-30,清算の結了等,,,2022-03-16,1,,,,,ザンゲツドウ,0
2135,8080002000108,登記記録の閉鎖等,0,2024-05-02,2024-04-25,有限会社アートブレイン,,有限会社,静岡県,静岡市葵区,長沼１丁目９番３０号,,22,101,4200813,,,2024-04-25,清算の結了等,,,2015-10-05,1,,,,,アートブレイン,0
2139,8080101011419,登記記録の閉鎖等,0,2024-05-02,2024-04-30,佐野製缶株式会社,,株式会社,静岡県,富士宮市,三園平５８４番地,,22,207,4180004,,,2024-04-30,清算の結了等,,,2015-10-05,1,,,,,サノセイカン,0
2148,8100002019327,登記記録の閉鎖等,0,2024-05-02,2024-04-15,有限会社栄光電機,,有限会社,長野県,松本市,城東２丁目８番３号,,20,202,3900807,,,2024-04-15,清算の結了等,,,2015-10-05,1,,,,,エイコウデンキ,0
2150,8110001011317,登記記録の閉鎖等,0,2024-05-02,2024-04-30,株式会社カワトー,,株式会社,新潟県,阿賀野市,岡山町５番２８号,,15,223,9592025,,,2024-04-30,清算の結了等,,,2015-10-05,1,,,,,カワトー,0
2152,8110001021729,登記記録の閉鎖等,0,2024-05-02,2024-04-26,株式会社大野産業,,株式会社,新潟県,糸魚川市,大字大野１３９２番地１,,15,216,9410071,,,2024-04-26,清算の結了等,,,2015-10-05,1,,,,,オオノサンギョウ,0
2158,8120001206337,登記記録の閉鎖等,0,2024-05-02,2024-04-25,株式会社さくらクリエイターズ,,株式会社,大阪府,大阪市城東区,蒲生１丁目１０番１０－２０２号,,27,118,5360016,,,2024-04-25,清算の結了等,,,2017-06-09,1,,,,,,0
2181,8130001019878,登記記録の閉鎖等,0,2024-05-02,2024-05-01,井上絹織株式会社,,株式会社,京都府,京都市中京区,西洞院通丸太町下る田中町１３４番地,,26,104,6040081,,,2024-05-01,清算の結了等,,,2015-10-05,1,,,,,イノウエケンショク,0
2189,8140001003716,登記記録の閉鎖等,0,2024-05-02,2024-04-26,東神交通株式会社,,株式会社,兵庫県,神戸市灘区,味泥町５－７,,28,102,6570851,,,2024-04-26,清算の結了等,,,2015-10-05,1,,,,,トウシンコウツウ,0
2193,8140001103193,登記記録の閉鎖等,0,2024-05-02,2024-04-26,株式会社デラシネ,,株式会社,山口県,山口市,小郡下郷８３７番地１,,35,203,7540002,,,2024-04-26,清算の結了等,,,2016-08-23,1,,,,,デラシネ,0
2198,8140005011203,登記記録の閉鎖等,0,2024-05-02,2024-04-30,リベル商店街振興組合,,その他の設立登記法人,兵庫県,尼崎市,竹谷町２丁目１８３番地,,28,202,6600876,,,2024-04-30,清算の結了等,,,2015-10-05,1,,,,,リベル,0
2204,8180001060349,登記記録の閉鎖等,0,2024-05-02,2024-04-23,トラベルウインズ株式会社,,株式会社,愛知県,名古屋市昭和区,川名本町２丁目２０番地の４,,23,107,4660855,,,2024-04-23,清算の結了等,,,2015-10-05,1,,,,,トラベルウインズ,0
2206,8180001100749,登記記録の閉鎖等,0,2024-05-02,2024-04-22,株式会社リタンク,,株式会社,愛知県,日進市,三本木町大池下５番１,,23,230,4700101,,,2024-04-22,清算の結了等,,,2015-10-05,1,,,,,リタンク,0
2208,8180001106861,登記記録の閉鎖等,0,2024-05-02,2024-04-22,株式会社Ｅａｒｔｈ　Ｆｒｅｅ,,株式会社,愛知県,弥富市,鯏浦町東気開３３番地８,,23,235,4980021,,,2024-04-22,清算の結了等,,,2015-10-05,1,,,,,アースフリー,0
2215,8180002025391,登記記録の閉鎖等,0,2024-05-02,2024-04-18,有限会社エムケイテック,,有限会社,愛知県,名古屋市緑区,野末町１００４番地,,23,114,4580915,,,2024-04-18,清算の結了等,,,2015-10-05,1,,,,,エムケイテック,0
2216,8180002027223,登記記録の閉鎖等,0,2024-05-02,2024-04-22,有限会社エスジープロジェクト,,有限会社,愛知県,名古屋市中村区,荒輪井町２丁目１８番地,,23,105,4530848,,,2024-04-22,清算の結了等,,,2015-10-05,1,,,,,エスジープロジェクト,0
2217,8180002066155,登記記録の閉鎖等,0,2024-05-02,2024-04-22,有限会社ジェス商会,,有限会社,愛知県,春日井市,穴橋町２丁目５番地９,,23,206,4860853,,,2024-04-22,清算の結了等,,,2015-10-05,1,,,,,ジェスショウカイ,0
2220,8180303001884,登記記録の閉鎖等,0,2024-05-02,2024-04-23,花屋合同会社,,合同会社,愛知県,蒲郡市,港町５番２号,,23,214,4430034,,,2024-04-23,清算の結了等,,,2015-10-05,1,,,,,ハナヤ,0
2222,8190002017066,登記記録の閉鎖等,0,2024-05-02,2024-04-30,有限会社富士鋳造所,,有限会社,三重県,桑名市,大字和泉２５３番地の２,,24,205,5110838,,,2024-04-30,清算の結了等,,,2015-10-05,1,,,,,フジチュウゾウショ,0
2228,8210001004401,登記記録の閉鎖等,0,2024-05-02,2024-04-26,株式会社山崎木材,,株式会社,福井県,福井市,城東４丁目１７番２１号,,18,201,9100853,,,2024-04-26,清算の結了等,,,2015-10-05,1,,,,,ヤマザキモクザイ,0
2252,8280002000252,登記記録の閉鎖等,0,2024-05-02,2024-05-01,犬山不動産有限会社,,有限会社,島根県,松江市,新雑賀町４番８号,,32,201,6900054,,,2024-05-01,合併による解散等,6280001000800,令和６年５月１日島根県松江市浜乃木六丁目１番５１号立駐企業株式会社（6280001000800）に合併し解散,2015-10-05,1,,,,,イヌヤマフドウサン,0
2282,8370005010140,登記記録の閉鎖等,0,2024-05-02,2024-04-23,一般社団法人天音,,その他の設立登記法人,宮城県,仙台市太白区,八本松２丁目２番３７－７０３号,,04,104,9820001,,,2024-04-23,清算の結了等,,,2020-07-10,1,,,,,ソラオト,0
2285,8370601000305,登記記録の閉鎖等,0,2024-05-02,2024-04-24,株式会社三晶,,株式会社,宮城県,多賀城市,笠神４丁目３番３７号,,04,209,9850831,,,2024-04-24,清算の結了等,,,2015-10-05,1,,,,,サンショウ,0
2297,8470001019002,登記記録の閉鎖等,0,2024-05-02,2024-04-23,株式会社シンクエイ,,株式会社,香川県,高松市,由良町１０９１番地２,,37,201,7610441,,,2024-04-23,清算の結了等,,,2022-03-15,1,,,,,シンクエイ,0
2302,9010001142220,登記記録の閉鎖等,0,2024-05-02,2024-04-18,株式会社ＢＢリゾート,,株式会社,東京都,千代田区,六番町１番７号,,13,101,1020085,,,2024-04-18,清算の結了等,,,2015-10-05,1,,,,,ビービーリゾート,0
2314,9010003034119,登記記録の閉鎖等,0,2024-05-02,2024-04-19,合同会社メディカル・インベストメント４号,,合同会社,東京都,中央区,日本橋兜町３番１１号三田証券株式会社内,,13,102,1030026,,,2024-04-19,清算の結了等,,,2021-02-09,1,,,,,メディカルインベストメントヨンゴウ,0
2315,9010003036585,登記記録の閉鎖等,0,2024-05-02,2024-04-19,合同会社メディカル・インベストメント８号,,合同会社,東京都,中央区,日本橋兜町３番１１号三田証券株式会社内,,13,102,1030026,,,2024-04-19,清算の結了等,,,2021-12-27,1,,,,,メディカルインベストメントハチゴウ,0
2317,9010102011027,登記記録の閉鎖等,0,2024-05-02,2024-04-30,有限会社ワイエス企業,,有限会社,東京都,八王子市,尾崎町３３６番地,,13,201,1920025,,,2024-04-30,清算の結了等,,,2015-10-05,1,,,,,ワイエスキギョウ,0
2324,9010402036054,登記記録の閉鎖等,0,2024-05-02,2024-04-26,有限会社朱永真コーポレーション,,有限会社,東京都,葛飾区,亀有５丁目２２番９号,,13,122,1250061,,,2024-04-26,清算の結了等,,,2015-10-05,1,,,,,シュエイシンコーポレーション,0
2325,9010402036418,登記記録の閉鎖等,0,2024-05-02,2024-04-11,有限会社ヴァーゴミュージック,,有限会社,東京都,港区,東麻布３丁目４番１８号,,13,103,1060044,,,2024-04-11,合併による解散等,7010401003420,令和６年４月１日東京都港区東麻布三丁目４番１８号株式会社ヴァーゴ音楽出版（7010401003420）に合併し解散,2015-10-05,1,,,,,,0
2332,9010601033471,登記記録の閉鎖等,0,2024-05-02,2024-04-26,ホーチキエンジニアリング株式会社,,株式会社,東京都,中央区,日本橋本町３丁目９番４号,,13,102,1030023,,,2024-04-26,合併による解散等,3010701008973,令和６年４月１日東京都品川区上大崎二丁目１０番４３号ホーチキ株式会社（3010701008973）に合併し解散,2015-10-05,1,,,,,ホーチキエンジニアリング,0
2340,9010702003051,登記記録の閉鎖等,0,2024-05-02,2024-04-15,有限会社小西印刷,,有限会社,東京都,品川区,荏原６丁目１７番４号,,13,109,1420063,,,2024-04-15,清算の結了等,,,2015-10-05,1,,,,,コニシインサツ,0
2348,9011001000137,登記記録の閉鎖等,0,2024-05-02,2024-04-30,株式会社ＯＳファシリティーズ,,株式会社,東京都,新宿区,新宿４丁目１番２３号,,13,104,1600022,,,2024-04-30,合併による解散等,4013301021800,令和６年４月１日東京都千代田区丸の内一丁目８番３号株式会社アウトソーシングトータルサポート（4013301021800）に合併し解散,2015-10-05,1,,,,,オーエスファシリティーズ,0
2369,9011802027667,登記記録の閉鎖等,0,2024-05-02,2024-04-26,有限会社ライデン,,有限会社,東京都,足立区,舎人２丁目１１番１７号,,13,121,1210831,,,2024-04-26,清算の結了等,,,2015-10-05,1,,,,,,0
2386,9020002046378,登記記録の閉鎖等,0,2024-05-02,2024-04-23,有限会社アキ,,有限会社,神奈川県,横浜市瀬谷区,三ツ境２０番地の１０,,14,114,2460022,,,2024-04-23,清算の結了等,,,2015-10-05,1,,,,,アキ,0
2390,9021001000409,登記記録の閉鎖等,0,2024-05-02,2024-04-30,株式会社オフィスネット・システム,,株式会社,神奈川県,藤沢市,善行２丁目２６番１８号,,14,205,2510871,,,2024-04-30,清算の結了等,,,2015-10-05,1,,,,,オフィスネットシステム,0
2392,9021002016940,登記記録の閉鎖等,0,2024-05-02,2024-04-30,有限会社鎌倉ちひろポーター,,有限会社,神奈川県,鎌倉市,材木座５丁目１１番３３号,,14,204,2480013,,,2024-04-30,清算の結了等,,,2015-10-05,1,,,,,カマクラチヒロポーター,0
2395,9030001089897,登記記録の閉鎖等,0,2024-05-02,2024-04-23,株式会社マイムコーポレーション,,株式会社,埼玉県,飯能市,南町８番６号,,11,209,3570036,,,2024-04-23,合併による解散等,9030001090574,令和６年４月１日埼玉県飯能市南町８番６号株式会社マイムエステート（9030001090574）に合併し解散,2015-10-05,1,,,,,マイムコーポレーション,0
2411,9040002055006,登記記録の閉鎖等,0,2024-05-02,2024-04-22,有限会社京増,,有限会社,千葉県,成田市,中台２丁目１６番７号,,12,211,2860015,,,2024-04-22,清算の結了等,,,2015-10-05,1,,,,,キョウマス,0
2414,9050001047655,登記記録の閉鎖等,0,2024-05-02,2024-04-22,株式会社カートピアサッポロ,,株式会社,兵庫県,神戸市中央区,新港町１１番１号,,28,110,6500041,,,2024-04-22,合併による解散等,2210002003853,令和６年４月１日福井市真木町第１０６号４２番地株式会社ヤマザキ（2210002003853）に合併し解散,2020-06-15,1,,,,,カートピアサッポロ,0
2441,9120002006322,登記記録の閉鎖等,0,2024-05-02,2024-04-30,有限会社優勝,,有限会社,大阪府,大阪市東住吉区,北田辺２丁目３－６,,27,121,5460044,,,2024-04-30,清算の結了等,,,2015-10-05,1,,,,,ユウショウ,0
2444,9120101050238,登記記録の閉鎖等,0,2024-05-02,2024-04-25,株式会社Ｙコーポレーション,,株式会社,大阪府,岸和田市,上町２０番２３号,,27,202,5960077,,,2024-04-25,清算の結了等,,,2015-10-05,1,,,,,ワイコーポレーション,0
2454,9130002024703,登記記録の閉鎖等,0,2024-05-02,2024-05-01,有限会社桂彫刻,,有限会社,京都府,長岡京市,馬場井料田５番地の５,,26,209,6170828,,,2024-05-01,清算の結了等,,,2015-10-05,1,,,,,カツラチョウコク,0
2456,9130005013876,登記記録の閉鎖等,0,2024-05-02,2024-04-18,学校法人ＡＲＣ学園,,その他の設立登記法人,京都府,京都市中京区,弁財天町２９７番地,,26,104,6040093,,,2024-04-18,合併による解散等,4010005027554,令和６年４月１日東京都文京区後楽二丁目２３番１０号学校法人ＡＲＣ学園（4010005027554）に合併し解散,2015-10-05,1,,,,,アークガクエン,0
2459,9140001124825,登記記録の閉鎖等,0,2024-05-02,2024-04-24,株式会社セルリアン・ビクロ,,株式会社,兵庫県,神戸市中央区,港島南町１丁目５番地の４ＴＲＩ３Ｆ,,28,110,6500047,,,2024-04-24,清算の結了等,,,2022-02-10,1,,,,,セルリアンビクロ,0
2464,9150001024371,登記記録の閉鎖等,0,2024-05-02,2024-04-26,株式会社フォーティーシステム,,株式会社,奈良県,生駒市,谷田町８５１番地１,,29,209,6300251,,,2024-04-26,合併による解散等,3120001223816,令和６年４月９日大阪市天王寺区石ケ辻町１２番３８号株式会社黒澤産業（3120001223816）に合併し解散,2021-02-05,1,,,,,フォーティーシステム,0
2471,9180001026563,登記記録の閉鎖等,0,2024-05-02,2024-04-22,株式会社ナゴヤマーシヤルアート,,株式会社,愛知県,長久手市,戸田谷１４０７番地,,23,238,4801124,,,2024-04-22,清算の結了等,,,2015-10-05,1,,,,,ナゴヤマーシヤルアート,0
2473,9180001116744,登記記録の閉鎖等,0,2024-05-02,2024-04-17,株式会社ＫＴエンタープライズ,,株式会社,愛知県,春日井市,堀ノ内町５丁目４番地１０,,23,206,4860829,,,2024-04-17,清算の結了等,,,2015-10-05,1,,,,,ケーティーエンタープライズ,0
2492,9200002008822,登記記録の閉鎖等,0,2024-05-02,2024-04-30,有限会社坂井工務店,,有限会社,岐阜県,岐阜市,柳津町蓮池１丁目９０番地,,21,201,5016103,,,2024-04-30,清算の結了等,,,2015-10-05,1,,,,,サカイコウムテン,0
2501,9240002051637,登記記録の閉鎖等,0,2024-05-02,2024-04-30,有限会社メニーフイールズ,,有限会社,広島県,尾道市,十四日元町１番２２号,,34,205,7220034,,,2024-04-30,清算の結了等,,,2015-10-05,1,,,,,メニーフイールズ,0
2508,9270002010953,登記記録の閉鎖等,0,2024-05-02,2024-04-30,有限会社カッサマ企画,,有限会社,鳥取県,倉吉市,関金町郡家７２１番地１,,31,203,6820413,,,2024-04-30,清算の結了等,,,2015-10-05,1,,,,,カッサマキカク,0
2517,9290002012741,登記記録の閉鎖等,0,2024-05-02,2024-04-04,有限会社福岡ビジネス産商,,有限会社,福岡県,福岡市中央区,渡辺通５丁目２４番３０号－６１９,,40,133,8100004,,,2024-04-04,清算の結了等,,,2015-10-05,1,,,,,フクオカビジネスサンショウ,0
2518,9290002048372,登記記録の閉鎖等,0,2024-05-02,2024-04-01,有限会社あらまきインテリア,,有限会社,福岡県,久留米市,御井町１７８８番地１,,40,203,8390851,,,2024-04-01,合併による解散等,5290001056867,令和６年４月１日福岡市中央区渡辺通五丁目２４番３０－４階株式会社ソソグー不動産（5290001056867）に合併し解散,2015-10-05,1,,,,,アラマキインテリア,0
2521,9310002019858,登記記録の閉鎖等,0,2024-05-02,2024-04-26,有限会社山斗,,有限会社,長崎県,松浦市,今福町東免７３４番地,,42,208,8594522,,,2024-04-26,清算の結了等,,,2015-10-05,1,,,,,ヤマト,0
2522,9310003003860,登記記録の閉鎖等,0,2024-05-02,2024-04-25,合同会社アトムファーム,,合同会社,長崎県,壱岐市,郷ノ浦町長峰東触１５５番地,,42,210,8115102,,,2024-04-25,清算の結了等,,,2020-05-28,1,,,,,アトムファーム,0
2547,9380005003621,登記記録の閉鎖等,0,2024-05-02,2024-04-08,八坂神社,,その他の設立登記法人,福島県,田村市,船引町大倉字北ノ内２８８番地,,07,211,9634435,,,2024-04-08,合併による解散等,7380005003474,令和６年４月８日福島県田村市船引町大倉字鐇田２２６番地大倉神社（7380005003474）に合併し解散,2015-10-05,1,,,,,ヤサカジンジャ,0
2551,9400001008811,登記記録の閉鎖等,0,2024-05-02,2024-04-19,アイファー株式会社,,株式会社,岩手県,下閉伊郡岩泉町,岩泉字合の山１２－２,,03,483,0270501,,,2024-04-19,清算の結了等,,,2015-10-05,1,,,,,アイファー,0
2555,9420001008140,登記記録の閉鎖等,0,2024-05-02,2024-04-26,陸奥高圧ガス株式会社,00087339,株式会社,青森県,五所川原市,字栄町５０番地,,02,205,0370046,,,2024-04-26,合併による解散等,6390001004641,令和６年４月１日仙台市青葉区二日町２番２７号株式会社ミツウロコヴェッセル東北（6390001004641）に合併し解散,2015-10-05,1,,,,,ムツコウアツガス,0
2557,9420002014633,登記記録の閉鎖等,0,2024-05-02,2024-04-24,有限会社山のホテル,,有限会社,青森県,弘前市,大字常盤野字湯の沢１９番地,,02,202,0361345,,,2024-04-24,清算の結了等,,,2015-10-05,1,,,,,ヤマノホテル,0
