sequenceNumber,corporateNumber,process,correct,updateDate,changeDate,name,nameImageId,kind,prefectureName,cityName,streetNumber,addressImageId,prefectureCode,cityCode,postCode,addressOutside,addressOutsideImageId,closeDate,closeCause,successorCorporateNumber,changeCause,assignmentDate,latest,enName,enPrefectureName,enCityName,enAddressOutside,furigana,hihyoji
25,1010405020698,新規,0,2022-02-17,2022-02-17,信永中和国際法務事務所行政書士法人,,その他の設立登記法人,東京都,港区,新橋６丁目８番１号信永中和ビル６階,,13,103,1050004,,,,,,,2022-02-17,1,,,,,シンエイチュウワコクサイホウムジムショ,0
26,1010405020707,新規,0,2022-02-17,2022-02-17,一般社団法人Ｉｎｆｅｃｔｉｏｕｓ　Ｄｉｓｅａｓｅ　Ｃｏｎｔｒｏｌ　Ａｓｓｏｃｉａｔｉｏｎ,,その他の設立登記法人,東京都,港区,赤坂２丁目２１－１５赤坂ＯＳビル３階,,13,103,1070052,,,,,,,2022-02-17,1,,,,,インフェクショスディシーズコントロールアソシエーション,0
28,1010601060688,新規,0,2022-02-17,2022-02-17,株式会社アビアント,,株式会社,東京都,江東区,富岡１丁目１番１６号,,13,108,1350047,,,,,,,2022-02-17,1,,,,,アビアント,0
34,1010803004063,新規,0,2022-02-17,2022-02-17,合同会社ＳＵＲ　Ｔｈｅ　Ｔｏｋｙｏ,,合同会社,東京都,大田区,羽田５丁目１番８号,,13,111,1440043,,,,,,,2022-02-17,1,,,,,シュールザトーキョー,0
36,1010903007156,新規,0,2022-02-17,2022-02-17,合同会社ＨＹＨ,,合同会社,東京都,世田谷区,世田谷１丁目４７番１０号,,13,112,1540017,,,,,,,2022-02-17,1,,,,,エイチワイエイチ,0
41,1011001145600,新規,0,2022-02-17,2022-02-17,株式会社イーヴ,,株式会社,東京都,渋谷区,神南１丁目６番５号,,13,113,1500041,,,,,,,2022-02-17,1,,,,,イーヴ,0
42,1011001145682,新規,0,2022-02-17,2022-02-17,マキ・アセット・マネジメント株式会社,,株式会社,東京都,渋谷区,神宮前６丁目２３番４号桑野ビル２階,,13,113,1500001,,,,,,,2022-02-17,1,,,,,マキアセットマネジメント,0
43,1011001145765,新規,0,2022-02-17,2022-02-17,株式会社ＯＶＩＳ,,株式会社,東京都,渋谷区,神宮前６丁目２３番４号桑野ビル２階,,13,113,1500001,,,,,,,2022-02-17,1,,,,,オーヴィス,0
46,1011101097840,新規,0,2022-02-17,2022-02-17,株式会社ＡＬＳ,,株式会社,東京都,新宿区,西新宿５丁目１０番２号ライトコート１０２号室,,13,104,1600023,,,,,,,2022-02-17,1,,,,,エーエルエス,0
50,1011201023647,新規,0,2022-02-17,2022-02-17,株式会社ＡＮＤ’ｓ　Ｄｅｓｉｇｎ,,株式会社,東京都,中野区,中央４丁目２番３－８０３号,,13,114,1640011,,,,,,,2022-02-17,1,,,,,アンズデザイン,0
52,1011303004314,新規,0,2022-02-17,2022-02-17,合同会社ｍｏｈａｎａ,,合同会社,東京都,杉並区,高円寺南４丁目４４－６,,13,115,1660003,,,,,,,2022-02-17,1,,,,,モハナ,0
57,1011701025052,新規,0,2022-02-17,2022-02-17,株式会社ｓｋｙｚ　ｐｒｏｍｏｔｉｏｎ,,株式会社,東京都,江戸川区,東葛西１丁目１０番１０号,,13,123,1340084,,,,,,,2022-02-17,1,,,,,スカイズプロモーション,0
74,1013301048689,新規,0,2022-02-17,2022-02-17,株式会社Ｓｅｌｅｃｔ　Ｂｕｄｄｙ,,株式会社,東京都,豊島区,南池袋２丁目４５－２ブリリアタワー１４１５室,,13,116,1710022,,,,,,,2022-02-17,1,,,,,セレクトバディ,0
75,1013303006042,新規,0,2022-02-17,2022-02-17,合同会社ＭＵＯ,,合同会社,東京都,豊島区,高田３丁目５番１７号グローリア初穂高田馬場５０１号,,13,116,1710033,,,,,,,2022-02-17,1,,,,,エムユーオー,0
81,1020001145246,新規,0,2022-02-17,2022-02-17,株式会社東芳,,株式会社,神奈川県,横浜市旭区,四季美台４９－２１,,14,112,2410025,,,,,,,2022-02-17,1,,,,,トウホウ,0
89,1020005015387,新規,0,2022-02-17,2022-02-17,一般社団法人ａｏｓｏｒａ,,その他の設立登記法人,神奈川県,横浜市港南区,上永谷３丁目３１番３９号,,14,111,2330012,,,,,,,2022-02-17,1,,,,,アオソラ,0
103,1030003018845,新規,0,2022-02-17,2022-02-17,信義合同会社,,合同会社,埼玉県,草加市,八幡町７３９－１,,11,221,3400006,,,,,,,2022-02-17,1,,,,,シンギ,0
104,1030003018861,新規,0,2022-02-17,2022-02-17,國枝石材合同会社,,合同会社,埼玉県,志木市,本町５丁目２３番２４号第３本吉ビル４階４２７号室,,11,228,3530004,,,,,,,2022-02-17,1,,,,,クニエダセキザイ,0
115,1040003019495,新規,0,2022-02-17,2022-02-17,合同会社ケイアールプランニング,,合同会社,千葉県,野田市,二ツ塚５４７番地の２２,,12,208,2780016,,,,,,,2022-02-17,1,,,,,ケイアールプランニング,0
116,1050003006377,新規,0,2022-02-17,2022-02-17,笑来餅合同会社,,合同会社,茨城県,筑西市,舟生７４６番地１,,08,227,3080111,,,,,,,2022-02-17,1,,,,,ワライモチ,0
120,1080001024758,新規,0,2022-02-17,2022-02-17,株式会社ＡＳ　ＯＮＥ,,株式会社,静岡県,藤枝市,田沼１丁目３番３７－９０１号レーベン藤枝ＰＲＩＯＲ,,22,214,4260061,,,,,,,2022-02-17,1,,,,,アズワン,0
124,1080101023098,新規,0,2022-02-17,2022-02-17,株式会社モリモリ,,株式会社,静岡県,裾野市,平松４０３‐１コーポ斉藤Ｂ１０３,,22,220,4101127,,,,,,,2022-02-17,1,,,,,モリモリ,0
126,1080401025629,新規,0,2022-02-17,2022-02-17,株式会社三松花,,株式会社,静岡県,浜松市西区,入野町９１４０番地の１,,22,133,4328061,,,,,,,2022-02-17,1,,,,,サンショウカ,0
145,1120001243808,新規,0,2022-02-17,2022-02-17,日本邁極康医療株式会社,,株式会社,大阪府,大阪市中央区,松屋町９番２０号ローレルステート松屋町７０４Ｂ,,27,128,5420067,,,,,,,2022-02-17,1,,,,,ニホンマンゴクコウイリョウ,0
146,1120001243865,新規,0,2022-02-17,2022-02-17,株式会社日興すまいる,,株式会社,大阪府,大阪市中央区,平野町２丁目５番８号,,27,128,5410046,,,,,,,2022-02-17,1,,,,,ニッコウスマイル,0
147,1120001243873,新規,0,2022-02-17,2022-02-17,ユーウィルビー株式会社,,株式会社,大阪府,大阪市北区,梅田１丁目１１番４号大阪駅前第４ビル９階９２３－１６２７号,,27,127,5300001,,,,,,,2022-02-17,1,,,,,ユーウィルビー,0
149,1120003021154,新規,0,2022-02-17,2022-02-17,三協合同会社,,合同会社,大阪府,大阪市西成区,千本中１丁目６番２４号メゾンエイト４０１,,27,122,5570054,,,,,,,2022-02-17,1,,,,,サンキョウ,0
158,1130003007755,新規,0,2022-02-17,2022-02-17,ハウジング・サポート合同会社,,合同会社,京都府,亀岡市,南つつじケ丘大葉台２丁目３７番１３号,,26,206,6210846,,,,,,,2022-02-17,1,,,,,ハウジングサポート,0
164,1140001124915,新規,0,2022-02-17,2022-02-17,株式会社ケンデザイン住宅販売,,株式会社,兵庫県,西宮市,中須佐町９番１２号,,28,204,6620851,,,,,,,2022-02-17,1,,,,,ケンデザインジュウタクハンバイ,0
165,1140001124923,新規,0,2022-02-17,2022-02-17,ネオウィル大阪株式会社,,株式会社,兵庫県,神戸市兵庫区,湊町２丁目４番７－３０１号,,28,105,6520812,,,,,,,2022-02-17,1,,,,,ネオウィルオオサカ,0
168,1140003017365,新規,0,2022-02-17,2022-02-17,合同会社ＨＭカンパニー,,合同会社,兵庫県,神戸市中央区,元町通５丁目４番１号,,28,110,6500022,,,,,,,2022-02-17,1,,,,,エイチエムカンパニー,0
184,1180001149982,新規,0,2022-02-17,2022-02-17,トミートラスト株式会社,,株式会社,愛知県,名古屋市中川区,尾頭橋４丁目８番１５号,,23,110,4540012,,,,,,,2022-02-17,1,,,,,トミートラスト,0
185,1180001150008,新規,0,2022-02-17,2022-02-17,株式会社メロスグローバル,,株式会社,愛知県,名古屋市中区,錦１丁目１８－１１（株式会社ＴＡ内）,,23,106,4600003,,,,,,,2022-02-17,1,,,,,メロスグローバル,0
186,1180001150016,新規,0,2022-02-17,2022-02-17,株式会社イシハラ,,株式会社,愛知県,名古屋市中区,橘１丁目１５番１６号,,23,106,4600016,,,,,,,2022-02-17,1,,,,,イシハラ,0
190,1180003023483,新規,0,2022-02-17,2022-02-17,合同会社白鯨,,合同会社,愛知県,名古屋市中区,栄１丁目６番１５号グランドメゾン御園座タワー１６０１号,,23,106,4600008,,,,,,,2022-02-17,1,,,,,ハクゲイ,0
192,1180303005256,新規,0,2022-02-17,2022-02-17,合同会社Ｌｕｘｚｓ　ｅｎｔｅｒｔａｉｎｍｅｎｔ,,合同会社,愛知県,豊田市,吉原町平池１７番地３,,23,211,4730916,,,,,,,2022-02-17,1,,,,,ラグジスエンターテイメント,0
200,1220001024693,新規,0,2022-02-17,2022-02-17,マナブ建設株式会社,,株式会社,石川県,金沢市,高柳町ソ２番地２２,,17,201,9200005,,,,,,,2022-02-17,1,,,,,マナブケンセツ,0
203,1220005008635,新規,0,2022-02-17,2022-02-17,一般社団法人石川県ドローン協会,,その他の設立登記法人,石川県,野々市市,野代３丁目１４３番地１０６号,,17,212,9218804,,,,,,,2022-02-17,1,,,,,イシカワケンドローンキョウカイ,0
213,1270003001389,新規,0,2022-02-17,2022-02-17,合同会社ＬＯＴ,,合同会社,鳥取県,西伯郡大山町,末長２９６番地３６,,31,386,6893332,,,,,,,2022-02-17,1,,,,,エルオーティー,0
218,1290001096462,新規,0,2022-02-17,2022-02-17,オドビス株式会社,,株式会社,福岡県,福岡市早良区,百道浜３丁目５番１－５０２号,,40,137,8140001,,,,,,,2022-02-17,1,,,,,オドビス,0
247,1430001086011,新規,0,2022-02-17,2022-02-17,株式会社ｒｉｒｉ,,株式会社,北海道,札幌市白石区,南郷通９丁目南６番６号,,01,104,0030022,,,,,,,2022-02-17,1,,,,,リリ,0
253,1500001024005,新規,0,2022-02-17,2022-02-17,株式会社ＯＧＦａｒｍ,,株式会社,愛媛県,松山市,朝日ケ丘２丁目３番１９号,,38,201,7918024,,,,,,,2022-02-17,1,,,,,オージーファーム,0
266,2010001224611,新規,0,2022-02-17,2022-02-17,株式会社Ｃｉｅｌ　Ｒａｙｏｎ,,株式会社,東京都,文京区,千石４丁目３４番１８号,,13,105,1120011,,,,,,,2022-02-17,1,,,,,シエルレイヨン,0
267,2010001224636,新規,0,2022-02-17,2022-02-17,株式会社ＳＥＳＳＩ,,株式会社,東京都,中央区,銀座１丁目１２番４号－７Ｆ,,13,102,1040061,,,,,,,2022-02-17,1,,,,,セッシ,0
268,2010001224644,新規,0,2022-02-17,2022-02-17,株式会社五幸産業,,株式会社,東京都,千代田区,二番町１番地２番町ハイム７０４,,13,101,1020084,,,,,,,2022-02-17,1,,,,,ゴコウサンギョウ,0
269,2010001224652,新規,0,2022-02-17,2022-02-17,ＧＡＰ　ＡＣＣＥＳＳコンサルティング株式会社,,株式会社,東京都,中央区,日本橋堀留町１丁目２番１３号,,13,102,1030012,,,,,,,2022-02-17,1,,,,,ギャップアクセスコンサルティング,0
272,2010003037020,新規,0,2022-02-17,2022-02-17,東京オフィス３合同会社,,合同会社,東京都,千代田区,丸の内３丁目１番１号東京共同会計事務所内,,13,101,1000005,,,,,,,2022-02-17,1,,,,,トウキョウオフィススリー,0
273,2010003037029,新規,0,2022-02-17,2022-02-17,合同会社福島トランジション,,合同会社,東京都,千代田区,丸の内３丁目１番１号東京共同会計事務所内,,13,101,1000005,,,,,,,2022-02-17,1,,,,,フクシマトランジション,0
278,2010401165595,新規,0,2022-02-17,2022-02-17,株式会社Ｍ＆Ｍ,,株式会社,東京都,港区,浜松町１丁目３番２号パークコート浜離宮ザ・タワー１６１２,,13,103,1050013,,,,,,,2022-02-17,1,,,,,エムアンドエム,0
279,2010401165637,新規,0,2022-02-17,2022-02-17,株式会社ブローレ,,株式会社,東京都,港区,南青山２丁目２番１５号ウィン青山１２１４号,,13,103,1070062,,,,,,,2022-02-17,1,,,,,ブローレ,0
280,2010403027091,新規,0,2022-02-17,2022-02-17,合同会社プラニーＡＯ,,合同会社,東京都,港区,高輪１丁目２３番２３－８０６号,,13,103,1080074,,,,,,,2022-02-17,1,,,,,プラニーアオ,0
281,2010405020706,新規,0,2022-02-17,2022-02-17,一般社団法人日米芸術振興協会,,その他の設立登記法人,東京都,港区,三田５丁目２番２２－５０２号,,13,103,1080073,,,,,,,2022-02-17,1,,,,,ニチベイゲイジュツシンコウキョウカイ,0
282,2010603009393,新規,0,2022-02-17,2022-02-17,ももあつ合同会社,,合同会社,東京都,江東区,大島１丁目１番３５－４２１号,,13,108,1360072,,,,,,,2022-02-17,1,,,,,モモアツ,0
285,2010801032734,新規,0,2022-02-17,2022-02-17,株式会社ケイエムＡｇｅｎｃｙ,,株式会社,東京都,大田区,中央８丁目１６番２１号,,13,111,1430024,,,,,,,2022-02-17,1,,,,,ケイエムエージェンシー,0
296,2011001145748,新規,0,2022-02-17,2022-02-17,株式会社サニー・トリガー,,株式会社,東京都,渋谷区,千駄ヶ谷５丁目１７番２１号芝山ビル１Ｆ,,13,113,1510051,,,,,,,2022-02-17,1,,,,,サニートリガー,0
297,2011001145764,新規,0,2022-02-17,2022-02-17,株式会社ロトス,,株式会社,東京都,目黒区,鷹番３丁目１８番１４号,,13,110,1520004,,,,,,,2022-02-17,1,,,,,ロトス,0
300,2011101097831,新規,0,2022-02-17,2022-02-17,株式会社ＭＥＧＡ　ＳＰＩＲＩＴ,,株式会社,東京都,新宿区,大久保１丁目３－１４ＷＢＣ８０２号,,13,104,1690072,,,,,,,2022-02-17,1,,,,,メガスピリット,0
301,2011101097848,新規,0,2022-02-17,2022-02-17,文京資産管理株式会社,,株式会社,東京都,新宿区,西五軒町１２番１号,,13,104,1620812,,,,,,,2022-02-17,1,,,,,ブンキョウシサンカンリ,0
302,2011101097864,新規,0,2022-02-17,2022-02-17,株式会社ＭＹＺ,,株式会社,東京都,新宿区,歌舞伎町２丁目９番１８号ライオンズプラザ新宿７１０,,13,104,1600021,,,,,,,2022-02-17,1,,,,,エムワイゼット,0
306,2011401024023,新規,0,2022-02-17,2022-02-17,株式会社エム・ジェー・サービス,,株式会社,東京都,板橋区,高島平１丁目８２番１－９０１号,,13,119,1750082,,,,,,,2022-02-17,1,,,,,エムジェーサービス,0
312,2011701025051,新規,0,2022-02-17,2022-02-17,スマイルアット株式会社,,株式会社,東京都,江戸川区,船堀３丁目７番１１－３０３号,,13,123,1340091,,,,,,,2022-02-17,1,,,,,スマイルアット,0
319,2012703002402,新規,0,2022-02-17,2022-02-17,岡島コンサルティング＆セールス合同会社,,合同会社,東京都,清瀬市,元町２丁目４番９号,,13,221,2040021,,,,,,,2022-02-17,1,,,,,オカジマコンサルティングアンドセールス,0
332,2020001145229,新規,0,2022-02-17,2022-02-17,株式会社イルカ,,株式会社,神奈川県,横浜市港北区,日吉２丁目４番３号,,14,109,2230061,,,,,,,2022-02-17,1,,,,,イルカ,0
333,2020001145237,新規,0,2022-02-17,2022-02-17,株式会社紅梅ホールディングス,,株式会社,神奈川県,横浜市西区,花咲町７丁目１５０番地ウエインズ＆イッセイ横浜ビル６階,,14,103,2200022,,,,,,,2022-02-17,1,,,,,コウバイホールディングス,0
337,2021001075192,新規,0,2022-02-17,2022-02-17,株式会社幸生堂,,株式会社,神奈川県,相模原市中央区,相模原４丁目３番１５－５０２号,,14,152,2520231,,,,,,,2022-02-17,1,,,,,コウセイドウ,0
340,2021003011410,新規,0,2022-02-17,2022-02-17,合同会社げんかんみっつ,,合同会社,神奈川県,三浦郡葉山町,一色２１４２番地の２,,14,301,2400111,,,,,,,2022-02-17,1,,,,,ゲンカンミッツ,0
345,2030001146837,新規,0,2022-02-17,2022-02-17,株式会社立ち華,,株式会社,埼玉県,川越市,大字大仙波９７０番地１,,11,201,3500032,,,,,,,2022-02-17,1,,,,,タチバナ,0
347,2030003018778,新規,0,2022-02-17,2022-02-17,合同会社趣味市場,,合同会社,埼玉県,ふじみ野市,松山１丁目１－２,,11,245,3560027,,,,,,,2022-02-17,1,,,,,シュミイチバ,0
353,2040001122250,新規,0,2022-02-17,2022-02-17,株式会社Ｌｉｓｅｇｅ,,株式会社,千葉県,習志野市,大久保１丁目１１番１９－５０４号,,12,216,2750011,,,,,,,2022-02-17,1,,,,,リセージ,0
354,2040001122267,新規,0,2022-02-17,2022-02-17,株式会社ＦＬＳ,,株式会社,千葉県,八千代市,村上１６１０番地６号川嶋ビル３階,,12,221,2760028,,,,,,,2022-02-17,1,,,,,エフエルエス,0
356,2040003019494,新規,0,2022-02-17,2022-02-17,合同会社Ｔ６,,合同会社,千葉県,市川市,南行徳３丁目１番６号,,12,203,2720138,,,,,,,2022-02-17,1,,,,,ティーシックス,0
357,2040003019503,新規,0,2022-02-17,2022-02-17,合同会社アネモネ,,合同会社,千葉県,柏市,逆井５丁目１７番１８号,,12,217,2770042,,,,,,,2022-02-17,1,,,,,アネモネ,0
358,2040003019511,新規,0,2022-02-17,2022-02-17,合同会社ＣＭＭ５号,,合同会社,千葉県,柏市,柏４丁目５番１０号,,12,217,2770005,,,,,,,2022-02-17,1,,,,,シーエムエムゴゴウ,0
359,2040005021515,新規,0,2022-02-17,2022-02-17,一般社団法人ＪＭＣ,,その他の設立登記法人,千葉県,四街道市,鷹の台２丁目３５番１３号,,12,228,2840033,,,,,,,2022-02-17,1,,,,,ジェイエムシー,0
361,2050001050640,新規,0,2022-02-17,2022-02-17,株式会社エヌ・ワークス,,株式会社,茨城県,稲敷郡美浦村,大字舟子２５９７番地２,,08,442,3000428,,,,,,,2022-02-17,1,,,,,エヌワークス,0
371,2080003002736,新規,0,2022-02-17,2022-02-17,合同会社大川設備,,合同会社,静岡県,榛原郡吉田町,神戸２８２４番地の１,,22,424,4210304,,,,,,,2022-02-17,1,,,,,オオカワセツビ,0
379,2100001035074,新規,0,2022-02-17,2022-02-17,株式会社ＮＮメンテナンス,,株式会社,長野県,長野市,大字南長野新田町１４５８番地３,,20,201,3800835,,,,,,,2022-02-17,1,,,,,エヌエヌメンテナンス,0
392,2120003021161,新規,0,2022-02-17,2022-02-17,ＮＴＶ合同会社,,合同会社,大阪府,大阪市浪速区,大国２丁目１２番１３号Ｃａｓａ浪速４０１,,27,111,5560014,,,,,,,2022-02-17,1,,,,,エヌティヴィ,0
393,2120005022802,新規,0,2022-02-17,2022-02-17,行政書士法人パートナーズ大阪法務事務所,,その他の設立登記法人,大阪府,大阪市北区,曾根崎２丁目８番５号お初天神ＥＡＳＴＢＬＤＧ６階４４号室,,27,127,5300057,,,,,,,2022-02-17,1,,,,,パートナーズオオサカホウムジムショ,0
397,2120101065077,新規,0,2022-02-17,2022-02-17,ＨＫ　ＧＲＯＵＰマネジメント株式会社,,株式会社,大阪府,堺市堺区,霞ヶ丘町３丁１番１２号,,27,141,5900812,,,,,,,2022-02-17,1,,,,,エイチケーグループマネジメント,0
406,2122001035589,新規,0,2022-02-17,2022-02-17,株式会社飛車角,,株式会社,大阪府,八尾市,西山本町７丁目９番１９号,,27,212,5810868,,,,,,,2022-02-17,1,,,,,ヒシャカク,0
413,2130001071141,新規,0,2022-02-17,2022-02-17,株式会社きんそくグループＨＤ,,株式会社,京都府,京都市南区,上鳥羽大溝６番地,,26,107,6018134,,,,,,,2022-02-17,1,,,,,キンソクグループホールディングス,0
423,2150001025335,新規,0,2022-02-17,2022-02-17,株式会社Ａｖａｎｃｅ,,株式会社,奈良県,生駒郡安堵町,大字笠目４８７番地の１,,29,345,6391065,,,,,,,2022-02-17,1,,,,,アバンセ,0
425,2150003002621,新規,0,2022-02-17,2022-02-17,Ｐｅａｋｓ　Ｄｅｓｉｇｎ合同会社,,合同会社,奈良県,橿原市,大軽町１２０,,29,205,6340044,,,,,,,2022-02-17,1,,,,,ピークスデザイン,0
432,2180001149981,新規,0,2022-02-17,2022-02-17,株式会社中村ホールディングス,,株式会社,愛知県,大府市,横根町家下１１１番地の７,,23,223,4740011,,,,,,,2022-02-17,1,,,,,ナカムラホールディングス,0
433,2180001150007,新規,0,2022-02-17,2022-02-17,株式会社ＫＮＡ,,株式会社,愛知県,海部郡大治町,大字鎌須賀字山廻３０番地の３,,23,424,4901135,,,,,,,2022-02-17,1,,,,,ケーエヌエー,0
436,2180301035931,新規,0,2022-02-17,2022-02-17,株式会社動画制作専門所,,株式会社,愛知県,豊田市,高岡町池端７９番地９７,,23,211,4730933,,,,,,,2022-02-17,1,,,,,ドウガセイサクセンモンショ,0
437,2190001029126,新規,0,2022-02-17,2022-02-17,株式会社山村ハウジング,,株式会社,三重県,名張市,朝日町１２２９番地１,,24,208,5180721,,,,,,,2022-02-17,1,,,,,ヤマムラハウジング,0
438,2190001029134,新規,0,2022-02-17,2022-02-17,十三屋株式会社,,株式会社,三重県,津市,海岸町１８番９号,,24,201,5140013,,,,,,,2022-02-17,1,,,,,ジュウサンヤ,0
439,2190001029142,新規,0,2022-02-17,2022-02-17,株式会社Ｂ．Ｂスタジオ,,株式会社,三重県,津市,鳥居町１９番地１０,,24,201,5140005,,,,,,,2022-02-17,1,,,,,ビービースタジオ,0
442,2220003003216,新規,0,2022-02-17,2022-02-17,合同会社Ｈ＆Ｃ,,合同会社,石川県,河北郡内灘町,字鶴ケ丘５丁目１番地１４２,,17,365,9200271,,,,,,,2022-02-17,1,,,,,エイチアンドシー,0
460,2290001096461,新規,0,2022-02-17,2022-02-17,株式会社創美技建,,株式会社,福岡県,春日市,日の出町３丁目１－１アーベインビオ春日５－１００３,,40,218,8160873,,,,,,,2022-02-17,1,,,,,ソウビギケン,0
466,2350001017584,新規,0,2022-02-17,2022-02-17,株式会社ヤマダ．ファーマ,,株式会社,宮崎県,都城市,若葉町８６号５番地,,45,202,8850054,,,,,,,2022-02-17,1,,,,,ヤマダファーマ,0
476,2430001086010,新規,0,2022-02-17,2022-02-17,伊藤アグリワークス株式会社,,株式会社,北海道,雨竜郡雨竜町,字オシラリカ２２００番地１８,,01,436,0782600,,,,,,,2022-02-17,1,,,,,イトウアグリワークス,0
488,3010001224635,新規,0,2022-02-17,2022-02-17,Ｍａｃｈｉｎｅ　Ｌｅａｒｎｉｎｇ　Ａｃａｄｅｍｙ株式会社,,株式会社,東京都,文京区,目白台１丁目６番１３－１０５号,,13,105,1120015,,,,,,,2022-02-17,1,,,,,マシンラーニングアカデミー,0
496,3010003037028,新規,0,2022-02-17,2022-02-17,合同会社オルタナ１１,,合同会社,東京都,千代田区,丸の内３丁目１番１号東京共同会計事務所内,,13,101,1000005,,,,,,,2022-02-17,1,,,,,オルタナイレブン,0
497,3010003037036,新規,0,2022-02-17,2022-02-17,アクト合同会社,,合同会社,東京都,中央区,銀座１丁目２２番１１号銀座大竹ビジデンス２階,,13,102,1040061,,,,,,,2022-02-17,1,,,,,アクト,0
498,3010005034618,新規,0,2022-02-17,2022-02-17,一般社団法人枚方穂谷物流センター,,その他の設立登記法人,東京都,中央区,日本橋１丁目４番１号,,13,102,1030027,,,,,,,2022-02-17,1,,,,,ヒラカタホタニブツリュウセンター,0
511,3010403027099,新規,0,2022-02-17,2022-02-17,合同会社霧島山,,合同会社,東京都,港区,北青山１丁目２番３号,,13,103,1070061,,,,,,,2022-02-17,1,,,,,キリシマヤマ,0
520,3010601060678,新規,0,2022-02-17,2022-02-17,株式会社まねき屋,,株式会社,東京都,江東区,亀戸６丁目４２番６－７０１号,,13,108,1360071,,,,,,,2022-02-17,1,,,,,マネキヤ,0
521,3010603009401,新規,0,2022-02-17,2022-02-17,日本サンパワーエネルギーマネジメント合同会社,,合同会社,東京都,江東区,潮見２丁目３番９号２階,,13,108,1350052,,,,,,,2022-02-17,1,,,,,ニホンサンパワーエネルギーマネジメント,0
523,3010701042246,新規,0,2022-02-17,2022-02-17,ＡＡＡテクノロジーズ株式会社,,株式会社,東京都,品川区,東品川５丁目９番６号－１９０９,,13,109,1400002,,,,,,,2022-02-17,1,,,,,スリーエーテクノロジーズ,0
527,3010901050362,新規,0,2022-02-17,2022-02-17,株式会社Ｓａｌｅｓ　Ｆｏｒｃｅ　Ａｃａｄｅｍｙ,,株式会社,東京都,世田谷区,松原４丁目１１番１０－４０９号,,13,112,1560043,,,,,,,2022-02-17,1,,,,,セールスフォースアカデミー,0
532,3011001145672,新規,0,2022-02-17,2022-02-17,ＱＲＥＮ株式会社,,株式会社,東京都,渋谷区,神宮前１丁目１０番３４－５１０号,,13,113,1500001,,,,,,,2022-02-17,1,,,,,キューレン,0
533,3011001145763,新規,0,2022-02-17,2022-02-17,株式会社ＳＨＩＮＴＳＵホールディングス,,株式会社,東京都,渋谷区,神宮前３丁目３８番８－７０１号,,13,113,1500001,,,,,,,2022-02-17,1,,,,,シンツウホールディングス,0
537,3011003014157,新規,0,2022-02-17,2022-02-17,合同会社２７６８,,合同会社,東京都,渋谷区,神宮前６丁目２３番４号桑野ビル２階,,13,113,1500001,,,,,,,2022-02-17,1,,,,,ニナナロクハチ,0
538,3011003014181,新規,0,2022-02-17,2022-02-17,合同会社ＫＯＫＥＳＨＩ　Ａｒｔｓ,,合同会社,東京都,渋谷区,神宮前６丁目２３番４号桑野ビル２階,,13,113,1500001,,,,,,,2022-02-17,1,,,,,コケシアーツ,0
540,3011101097847,新規,0,2022-02-17,2022-02-17,株式会社ＭＫＢ　Ｉｎｃ．,,株式会社,東京都,新宿区,高田馬場１丁目５番１９－１１０１号,,13,104,1690075,,,,,,,2022-02-17,1,,,,,マーカーベイ,0
541,3011101097863,新規,0,2022-02-17,2022-02-17,株式会社Ａ．Ｃ．Ｐ,,株式会社,東京都,新宿区,新宿１丁目２番９号ＪＦ新宿御苑ビル８階,,13,104,1600022,,,,,,,2022-02-17,1,,,,,エーシーピー,0
544,3011201023629,新規,0,2022-02-17,2022-02-17,オーナソン株式会社,,株式会社,東京都,中野区,東中野２丁目２４番１３号,,13,114,1640003,,,,,,,2022-02-17,1,,,,,オーナソン,0
549,3011303004304,新規,0,2022-02-17,2022-02-17,ジエル合同会社,,合同会社,東京都,杉並区,高円寺南２丁目４６番１０号第２シュヴェルニー２０１,,13,115,1660003,,,,,,,2022-02-17,1,,,,,ジエル,0
564,3011801040338,新規,0,2022-02-17,2022-02-17,株式会社ヒマラヤゴルカ,,株式会社,東京都,葛飾区,新小岩４丁目７番１１号,,13,122,1240024,,,,,,,2022-02-17,1,,,,,ヒマラヤゴルカ,0
573,3012703002401,新規,0,2022-02-17,2022-02-17,はなもも合同会社,,合同会社,東京都,西東京市,芝久保町２丁目８－２０,,13,229,1880014,,,,,,,2022-02-17,1,,,,,ハナモモ,0
574,3012705002291,新規,0,2022-02-17,2022-02-17,一般社団法人オレンジ保育園,,その他の設立登記法人,東京都,小平市,花小金井１丁目１４番５－５０５号,,13,211,1870002,,,,,,,2022-02-17,1,,,,,オレンジホイクエン,0
588,3020003021303,新規,0,2022-02-17,2022-02-17,合同会社ｏｈａｎａ,,合同会社,神奈川県,川崎市高津区,諏訪３丁目１１番１７－１号,,14,134,2130004,,,,,,,2022-02-17,1,,,,,オハナ,0
595,3030001146794,新規,0,2022-02-17,2022-02-17,株式会社Ｅａｃｈ　Ｐｒｏｆｅｓｓｉｏｎａｌ　Ｆｉｅｌｄ,,株式会社,埼玉県,北葛飾郡杉戸町,杉戸４丁目４－１８,,11,464,3450036,,,,,,,2022-02-17,1,,,,,イーチプロフェッショナルフィールド,0
599,3030005020723,新規,0,2022-02-17,2022-02-17,社会福祉法人誠会,,その他の設立登記法人,埼玉県,久喜市,東大輪４３７番地２,,11,232,3400202,,,,,,,2022-02-17,1,,,,,マコトカイ,0
601,3040001122241,新規,0,2022-02-17,2022-02-17,株式会社リタ・マネジメント,,株式会社,千葉県,習志野市,実籾２丁目４０番１－６２２号,,12,216,2750002,,,,,,,2022-02-17,1,,,,,リタマネジメント,0
604,3040003019502,新規,0,2022-02-17,2022-02-17,ｄｅｆｔ　ｂｒａｎｄｉｎｇ合同会社,,合同会社,千葉県,流山市,向小金１丁目４５０番地の５,,12,220,2700143,,,,,,,2022-02-17,1,,,,,デフトブランディング,0
605,3040003019510,新規,0,2022-02-17,2022-02-17,合同会社ＣＭＭ６号,,合同会社,千葉県,柏市,柏４丁目５番１０号,,12,217,2770005,,,,,,,2022-02-17,1,,,,,シーエムエムロクゴウ,0
611,3080001024764,新規,0,2022-02-17,2022-02-17,株式会社３６９ひかり,,株式会社,静岡県,静岡市駿河区,大谷４５８９－１,,22,102,4228017,,,,,,,2022-02-17,1,,,,,ミロクヒカリ,0
636,3120001243855,新規,0,2022-02-17,2022-02-17,株式会社ＯＨＡＧＩ,,株式会社,大阪府,大阪市北区,中津６丁目７番２２－１２０１号,,27,127,5310071,,,,,,,2022-02-17,1,,,,,オハギ,0
637,3120001243863,新規,0,2022-02-17,2022-02-17,株式会社ケイプラスト,,株式会社,大阪府,大阪市城東区,古市１丁目１０番１５号,,27,118,5360001,,,,,,,2022-02-17,1,,,,,ケイプラスト,0
653,3120901045608,新規,0,2022-02-17,2022-02-17,株式会社装人,,株式会社,大阪府,高槻市,柳川町２丁目１７番１号,,27,207,5690853,,,,,,,2022-02-17,1,,,,,ソウト,0
664,3130003007753,新規,0,2022-02-17,2022-02-17,ｆｌａｔ合同会社,,合同会社,京都府,京都市中京区,東洞院通竹屋町上る三本木町４５３,,26,104,6040871,,,,,,,2022-02-17,1,,,,,フラット,0
667,3140001124871,新規,0,2022-02-17,2022-02-17,株式会社なぎさ薬局,,株式会社,兵庫県,神戸市灘区,岩屋北町２丁目３番１３号１階,,28,102,6570846,,,,,,,2022-02-17,1,,,,,ナギサヤッキョク,0
672,3140003017363,新規,0,2022-02-17,2022-02-17,ハレル合同会社,,合同会社,兵庫県,神戸市東灘区,森北町７丁目１５番５号,,28,101,6580001,,,,,,,2022-02-17,1,,,,,ハレル,0
676,3150005009374,新規,0,2022-02-17,2022-02-17,Ｉ－Ｊｏｂ協同組合,,その他の設立登記法人,奈良県,奈良市,法蓮町１６６番地の１シャトレー井田２ＦＢ号,,29,201,6308113,,,,,,,2022-02-17,1,,,,,イージョブ,0
688,3180003023507,新規,0,2022-02-17,2022-02-17,合同会社さくらそう,,合同会社,愛知県,名古屋市西区,浮野町１６６番地ソフィア２０３,,23,104,4520846,,,,,,,2022-02-17,1,,,,,サクラソウ,0
689,3180005019602,新規,0,2022-02-17,2022-02-17,一般社団法人ＪＪ人材育成戦略設計協会,,その他の設立登記法人,愛知県,名古屋市東区,泉１丁目２３番３７号,,23,102,4610001,,,,,,,2022-02-17,1,,,,,ジェジェジンザイイクセイセッケイキョウカイ,0
723,3370003005584,新規,0,2022-02-17,2022-02-17,合同会社Ｋ－Ｔｅｃ,,合同会社,宮城県,名取市,増田２丁目７番５１－５０７号ステーションプラザ名取,,04,207,9811224,,,,,,,2022-02-17,1,,,,,ケーテック,0
731,3380005012537,新規,0,2022-02-17,2022-02-17,一般財団法人カゲヤマホールディングス育英会,,その他の設立登記法人,福島県,郡山市,石渕町１番９号,,07,203,9638814,,,,,,,2022-02-17,1,,,,,カゲヤマホールディングスイクエイカイ,0
733,3390005008939,新規,0,2022-02-17,2022-02-17,一般社団法人日本ウェルネスカラー協会,,その他の設立登記法人,山形県,山形市,七日町３丁目２番３１号マイムビル３階,,06,201,9900042,,,,,,,2022-02-17,1,,,,,ニホンウェルネスカラーキョウカイ,0
738,3500001024003,新規,0,2022-02-17,2022-02-17,株式会社芝桜,,株式会社,愛媛県,伊予郡松前町,大字浜７７５番地１バルーンビル２号室,,38,401,7913110,,,,,,,2022-02-17,1,,,,,シバザクラ,0
759,4010001224592,新規,0,2022-02-17,2022-02-17,オーシャン・ウェーブズ・ホールディングス株式会社,,株式会社,東京都,千代田区,丸の内１丁目５番１号,,13,101,1000005,,,,,,,2022-02-17,1,,,,,オーシャンウェーブズホールディングス,0
760,4010001224642,新規,0,2022-02-17,2022-02-17,株式会社Ａ－ｏｎｅ,,株式会社,東京都,千代田区,飯田橋１丁目１０番５号,,13,101,1020072,,,,,,,2022-02-17,1,,,,,エーワン,0
761,4010001224659,新規,0,2022-02-17,2022-02-17,株式会社Ｕｎｙ,,株式会社,東京都,中央区,日本橋箱崎町１８番５－４０３号,,13,102,1030015,,,,,,,2022-02-17,1,,,,,ユニー,0
762,4010003037035,新規,0,2022-02-17,2022-02-17,枚方穂谷物流センター合同会社,,合同会社,東京都,中央区,日本橋１丁目４番１号,,13,102,1030027,,,,,,,2022-02-17,1,,,,,ヒラカタホタニブツリュウセンター,0
765,4010005034617,新規,0,2022-02-17,2022-02-17,弁護士法人轟木総合法律事務所,,その他の設立登記法人,東京都,中央区,月島１丁目２２－１－１２１４,,13,102,1040052,,,,,,,2022-02-17,1,,,,,トドロキソウゴウホウリツジムショ,0
772,4010401165602,新規,0,2022-02-17,2022-02-17,オールブルー株式会社,,株式会社,東京都,港区,麻布台３丁目５番３－２９０２号,,13,103,1060041,,,,,,,2022-02-17,1,,,,,オールブルー,0
774,4010601060685,新規,0,2022-02-17,2022-02-17,株式会社ＥａｒＢｒａｉｎ,,株式会社,東京都,墨田区,亀沢４丁目１５－１８ＪＰｎｏｉｅ錦糸町８０１号室,,13,107,1300014,,,,,,,2022-02-17,1,,,,,イヤーブレイン,0
776,4010603009400,新規,0,2022-02-17,2022-02-17,合同会社クリエイティブポウ,,合同会社,東京都,墨田区,東向島３丁目４番１号,,13,107,1310032,,,,,,,2022-02-17,1,,,,,クリエイティブポウ,0
779,4010701042245,新規,0,2022-02-17,2022-02-17,Ｉｎｔｅｇｒｉｔｙ　Ｍｉｎｄ株式会社,,株式会社,東京都,品川区,上大崎３丁目１１番２号ＲＡＹＨＡＵＳ花房山Ｉ３０２号室,00125729,13,109,1410021,,,,,,,2022-02-17,1,,,,,インテグリティマインド,0
780,4010703006116,新規,0,2022-02-17,2022-02-17,合同会社Ａｃｈｔ,,合同会社,東京都,品川区,上大崎２丁目８番１号カスタリア目黒長者丸１０８,,13,109,1410021,,,,,,,2022-02-17,1,,,,,アクト,0
783,4010901050378,新規,0,2022-02-17,2022-02-17,ｏｒｉｇｉｎａｌ－ｎｅｔｗｏｒｋｓ株式会社,,株式会社,東京都,世田谷区,北沢１丁目３８番地１４号しょうわ下北ビル２Ｆ,,13,112,1550031,,,,,,,2022-02-17,1,,,,,オリジナルネットワークス,0
793,4011001145614,新規,0,2022-02-17,2022-02-17,株式会社ドットミソ,,株式会社,東京都,渋谷区,笹塚２丁目１－１０スカイプラザ笹塚３０８,,13,113,1510073,,,,,,,2022-02-17,1,,,,,ドットミソ,0
801,4011303004311,新規,0,2022-02-17,2022-02-17,合同会社はじまりの和泉,,合同会社,東京都,杉並区,和泉１丁目１－７リーゼ代田橋２０１,,13,115,1680063,,,,,,,2022-02-17,1,,,,,ハジマリノイズミ,0
818,4020001145235,新規,0,2022-02-17,2022-02-17,株式会社Ｌｉｂｅｒｔｙ,,株式会社,神奈川県,横浜市港南区,港南２丁目２２番２０号,,14,111,2330003,,,,,,,2022-02-17,1,,,,,リバティ,0
819,4020001145243,新規,0,2022-02-17,2022-02-17,株式会社クラプラス,,株式会社,神奈川県,横浜市栄区,野七里１丁目３１番２１号,,14,115,2470024,,,,,,,2022-02-17,1,,,,,クラプラス,0
822,4020003021310,新規,0,2022-02-17,2022-02-17,合同会社福商会,,合同会社,神奈川県,川崎市高津区,久本１丁目２番２号スキップスビル５階,,14,134,2130011,,,,,,,2022-02-17,1,,,,,フクショウカイ,0
833,4021003011409,新規,0,2022-02-17,2022-02-17,合同会社Ｒｅｏｌ,,合同会社,神奈川県,厚木市,上荻野２３３５,,14,212,2430201,,,,,,,2022-02-17,1,,,,,レヲル,0
841,4030001146835,新規,0,2022-02-17,2022-02-17,株式会社ＭＫＳ,,株式会社,埼玉県,戸田市,氷川町１丁目７番５号,,11,224,3350027,,,,,,,2022-02-17,1,,,,,エムケーエス,0
842,4030001146843,新規,0,2022-02-17,2022-02-17,二瓶建工株式会社,,株式会社,埼玉県,新座市,池田５丁目９番１６号,,11,230,3520015,,,,,,,2022-02-17,1,,,,,ニヘイケンコウ,0
848,4030005020722,新規,0,2022-02-17,2022-02-17,ＮＰＯ法人埼玉県私立学校芸術文化連盟,,その他の設立登記法人,埼玉県,川越市,大字山田字東町１０４２番地,,11,201,3500822,,,,,,,2022-02-17,1,,,,,サイタマケンシリツガッコウゲイジュツブンカレンメイ,0
853,4040001122257,新規,0,2022-02-17,2022-02-17,株式会社ＭＴＳ,,株式会社,千葉県,長生郡長生村,七井土１３８１番地４,,12,423,2994333,,,,,,,2022-02-17,1,,,,,エムティーエス,0
854,4040001122265,新規,0,2022-02-17,2022-02-17,ＭＮＳ株式会社,,株式会社,千葉県,習志野市,大久保１丁目１８番５号,,12,216,2750011,,,,,,,2022-02-17,1,,,,,エムエヌエス,0
856,4040003019501,新規,0,2022-02-17,2022-02-17,ｄｅｆｔ　ｄｅｓｉｇｎ合同会社,,合同会社,千葉県,流山市,向小金１丁目４５０番地の５,,12,220,2700143,,,,,,,2022-02-17,1,,,,,デフトデザイン,0
861,4050003006374,新規,0,2022-02-17,2022-02-17,ＭＢＡＹＥ　ＴＲＡＤＩＮＧ合同会社,,合同会社,茨城県,土浦市,西根南３丁目３番１４号,,08,203,3000842,,,,,,,2022-02-17,1,,,,,ムバイトレーディング,0
862,4050003006382,新規,0,2022-02-17,2022-02-17,ジョイライフ合同会社,,合同会社,茨城県,守谷市,みずき野８丁目１６番地１０,,08,224,3020121,,,,,,,2022-02-17,1,,,,,ジョイライフ,0
869,4080001024763,新規,0,2022-02-17,2022-02-17,ハウスペインターアイ株式会社,,株式会社,静岡県,静岡市清水区,北脇４３７番地,,22,103,4240052,,,,,,,2022-02-17,1,,,,,ハウスペインターアイ,0
889,4120101065091,新規,0,2022-02-17,2022-02-17,ホームメイクス株式会社,,株式会社,大阪府,富田林市,美山台７番３－１００４号,,27,214,5840039,,,,,,,2022-02-17,1,,,,,ホームメイクス,0
901,4130001071148,新規,0,2022-02-17,2022-02-17,株式会社稲井,,株式会社,京都府,京都市北区,上賀茂岩ケ垣内町７６番地,,26,101,6038053,,,,,,,2022-02-17,1,,,,,イナイ,0
904,4130003007752,新規,0,2022-02-17,2022-02-17,ＯＫかいご合同会社,,合同会社,京都府,京都市山科区,音羽前田町３３番地１エーデル音羽２０７,,26,110,6078067,,,,,,,2022-02-17,1,,,,,オーケーカイゴ,0
905,4130003007760,新規,0,2022-02-17,2022-02-17,合同会社ｃｈａｃｏｌｅ,,合同会社,京都府,京都市下京区,朱雀宝蔵町４４番地協栄ビル２階京都朱雀スタジオ,,26,106,6008846,,,,,,,2022-02-17,1,,,,,チャコル,0
907,4140001124929,新規,0,2022-02-17,2022-02-17,株式会社Ｄｒｅａｍ　Ａｇｅｎｃｙ　Ｇｒｏｕｐ,,株式会社,兵庫県,西宮市,馬場町２番２５－５０１号,,28,204,6620915,,,,,,,2022-02-17,1,,,,,ドリームエージェンシーグループ,0
912,4150001025300,新規,0,2022-02-17,2022-02-17,株式会社ニフ,,株式会社,奈良県,吉野郡吉野町,大字上市２０７,,29,441,6393111,,,,,,,2022-02-17,1,,,,,ニフ,0
920,4180001149996,新規,0,2022-02-17,2022-02-17,トモベ電工株式会社,,株式会社,愛知県,瀬戸市,曽野町１７４１番地,,23,204,4890008,,,,,,,2022-02-17,1,,,,,トモベデンコウ,0
923,4180003023489,新規,0,2022-02-17,2022-02-17,合同会社グラシアス,,合同会社,愛知県,名古屋市中区,門前町１－４８－６０１,,23,106,4600018,,,,,,,2022-02-17,1,,,,,グラシアス,0
924,4180003023497,新規,0,2022-02-17,2022-02-17,ＬＵＣＥ－ＪＡＰＡＮ合同会社,,合同会社,愛知県,名古屋市中区,丸の内１丁目１４－２４,,23,106,4600002,,,,,,,2022-02-17,1,,,,,ルーチェジャパン,0
925,4180003023506,新規,0,2022-02-17,2022-02-17,ａｒｓｃｉｄｅｔ合同会社,,合同会社,愛知県,名古屋市昭和区,南分町４丁目４８番地の２,,23,107,4660849,,,,,,,2022-02-17,1,,,,,アーサイデット,0
933,4210005010011,新規,0,2022-02-17,2022-02-17,社会福祉法人城山,,その他の設立登記法人,福井県,福井市,福町第２８号４９番地,,18,201,9188027,,,,,,,2022-02-17,1,,,,,シロヤマ,0
939,4240005015313,新規,0,2022-02-17,2022-02-17,一般社団法人ひろしま農育プロジェクト,,その他の設立登記法人,広島県,東広島市,西条町吉行９９３－１,,34,212,7390002,,,,,,,2022-02-17,1,,,,,ヒロシマノウイクプロジェクト,0
942,4250005008720,新規,0,2022-02-17,2022-02-17,一般社団法人プレイスマネジメント,,その他の設立登記法人,山口県,宇部市,中央町３丁目９番７号,,35,202,7550045,,,,,,,2022-02-17,1,,,,,プレイスマネジメント,0
944,4260001036526,新規,0,2022-02-17,2022-02-17,株式会社たにおファーム,,株式会社,岡山県,和気郡和気町,和気８１４番地,,33,346,7090451,,,,,,,2022-02-17,1,,,,,タニオファーム,0
945,4260003003805,新規,0,2022-02-17,2022-02-17,ｋ’ｓ　ｃｏｍｐａｎｙ合同会社,,合同会社,岡山県,倉敷市,安江５５０－１（４－５０３）,,33,202,7100825,,,,,,,2022-02-17,1,,,,,ケーズカンパニー,0
972,4400001015779,新規,0,2022-02-17,2022-02-17,陸前高田しみん発電所株式会社,,株式会社,岩手県,陸前高田市,気仙町字町３０８番地５,,03,210,0292204,,,,,,,2022-02-17,1,,,,,リクゼンタカダシミンハツデンショ,0
973,4400003002899,新規,0,2022-02-17,2022-02-17,合同会社ごろり,,合同会社,岩手県,盛岡市,鉈屋町３－１０八百倉町家,,03,201,0200827,,,,,,,2022-02-17,1,,,,,ゴロリ,0
994,5010003037034,新規,0,2022-02-17,2022-02-17,トレクシア合同会社,,合同会社,東京都,千代田区,霞が関３丁目６番１５号霞ヶ関ＭＨタワーズ６Ｆ,,13,101,1000013,,,,,,,2022-02-17,1,,,,,トレクシア,0
998,5010401165601,新規,0,2022-02-17,2022-02-17,株式会社ｍｏｎｏｐｏｌｅ,,株式会社,東京都,港区,赤坂９丁目４番１－３２０２号,,13,103,1070052,,,,,,,2022-02-17,1,,,,,モノポール,0
999,5010403027097,新規,0,2022-02-17,2022-02-17,葛飾合同会社,,合同会社,東京都,港区,元赤坂１丁目１番８号株式会社赤坂国際会計内,,13,103,1070051,,,,,,,2022-02-17,1,,,,,カツシカ,0
1004,5010601060692,新規,0,2022-02-17,2022-02-17,株式会社ＡＫＡＳＩ,,株式会社,東京都,墨田区,押上１丁目４８－７,,13,107,1310045,,,,,,,2022-02-17,1,,,,,アカシ,0
1010,5010901050360,新規,0,2022-02-17,2022-02-17,株式会社ＧＲＥＥＤ,,株式会社,東京都,世田谷区,砧４丁目３１番４号１０６号室,,13,112,1570073,,,,,,,2022-02-17,1,,,,,グリード,0
1015,5011001145670,新規,0,2022-02-17,2022-02-17,プレミアムウォーター朝来株式会社,,株式会社,東京都,渋谷区,神宮前１丁目２３番２６号,,13,113,1500001,,,,,,,2022-02-17,1,,,,,プレミアムウォーターアサゴ,0
1016,5011001145695,新規,0,2022-02-17,2022-02-17,株式会社ドレイコット・リサーチ,,株式会社,東京都,渋谷区,恵比寿２丁目２４番６－８０１号,,13,113,1500013,,,,,,,2022-02-17,1,,,,,ドレイコットリサーチ,0
1017,5011001145836,新規,0,2022-02-17,2022-02-17,レナセンス株式会社,,株式会社,東京都,渋谷区,渋谷３丁目２１番１１号渋谷サウスビル７階,,13,113,1500002,,,,,,,2022-02-17,1,,,,,レナセンス,0
1021,5011003014221,新規,0,2022-02-17,2022-02-17,ＫＵＳＡＭＡＮＩ合同会社,,合同会社,東京都,渋谷区,渋谷１丁目１９番１８－２３０８号,,13,113,1500002,,,,,,,2022-02-17,1,,,,,クサマーニ,0
1024,5011101097837,新規,0,2022-02-17,2022-02-17,株式会社ＨＡＣＣＩ,,株式会社,東京都,新宿区,新宿２丁目２番４－３０２号,,13,104,1600022,,,,,,,2022-02-17,1,,,,,ハッチ,0
1025,5011101097845,新規,0,2022-02-17,2022-02-17,株式会社ＶＰ,,株式会社,東京都,新宿区,西新宿３丁目３番１３号西新宿水間ビル６階,,13,104,1600023,,,,,,,2022-02-17,1,,,,,ブイピー,0
1026,5011101097861,新規,0,2022-02-17,2022-02-17,株式会社Ｙ．Ｂ．Ｃ,,株式会社,東京都,新宿区,戸山２丁目２７番１４１５号,,13,104,1620052,,,,,,,2022-02-17,1,,,,,ワイブラザーカンパニー,0
1031,5011103011481,新規,0,2022-02-17,2022-02-17,アド合同会社,,合同会社,東京都,新宿区,大京町１２番地４６阿部ビル２階,,13,104,1600015,,,,,,,2022-02-17,1,,,,,アド,0
1033,5011201023651,新規,0,2022-02-17,2022-02-17,株式会社ＧＯＫＫＯ,,株式会社,東京都,中野区,中央２丁目８－１５スタンビューレ中野坂上１００３,,13,114,1640011,,,,,,,2022-02-17,1,,,,,ゴッコ,0
1037,5011303004302,新規,0,2022-02-17,2022-02-17,Ｌ３Ｃ合同会社,,合同会社,東京都,杉並区,宮前４丁目３０番１９号,,13,115,1680081,,,,,,,2022-02-17,1,,,,,エルスリーシー,0
1038,5011303004310,新規,0,2022-02-17,2022-02-17,合同会社マトカ,,合同会社,東京都,杉並区,高円寺北４丁目３４番１１号馬橋パークメゾン２Ｆ,,13,115,1660002,,,,,,,2022-02-17,1,,,,,マトカ,0
1040,5011401024029,新規,0,2022-02-17,2022-02-17,株式会社ｌａｚｙ　ｓｔｙｌｅ,,株式会社,東京都,板橋区,大谷口北町３２番４号,,13,119,1730031,,,,,,,2022-02-17,1,,,,,レイジースタイル,0
1055,5012805003089,新規,0,2022-02-17,2022-02-17,税理士法人木村会計事務所,,その他の設立登記法人,東京都,国立市,東２丁目２番地の１５,,13,215,1860002,,,,,,,2022-02-17,1,,,,,キムラカイケイジムショ,0
1058,5013105001790,新規,0,2022-02-17,2022-02-17,特定非営利活動法人大多摩農林,,その他の設立登記法人,東京都,青梅市,新町５丁目３８番地の３メゾネットＦＵＪＩＺＵＫＡ・Ｄ,,13,205,1980024,,,,,,,2022-02-17,1,,,,,オオタマノウリン,0
1059,5013301048693,新規,0,2022-02-17,2022-02-17,Ａ．Ｓ．Ｔｒａｄｉｎｇ株式会社,,株式会社,東京都,豊島区,池袋１丁目１５番７－１０３号,,13,116,1700014,,,,,,,2022-02-17,1,,,,,エーエストレーディング,0
1067,5020001145242,新規,0,2022-02-17,2022-02-17,株式会社カルビ,,株式会社,神奈川県,横浜市瀬谷区,東野台２２番地８,,14,114,2460011,,,,,,,2022-02-17,1,,,,,カルビ,0
1071,5020003021301,新規,0,2022-02-17,2022-02-17,合同会社インダプリ,,合同会社,神奈川県,横浜市港北区,箕輪町３丁目１５番４３号,,14,109,2230051,,,,,,,2022-02-17,1,,,,,インダプリ,0
1080,5021003011408,新規,0,2022-02-17,2022-02-17,ｍｅｌｗｅ合同会社,,合同会社,神奈川県,鎌倉市,材木座１丁目２番２４号ワイズクレスト材木座３Ｆ,,14,204,2480013,,,,,,,2022-02-17,1,,,,,メロウ,0
1100,5040001122231,新規,0,2022-02-17,2022-02-17,株式会社オルタナ,,株式会社,千葉県,流山市,野々下３丁目９６４番地の１１,,12,220,2700135,,,,,,,2022-02-17,1,,,,,オルタナ,0
1101,5040001122256,新規,0,2022-02-17,2022-02-17,株式会社Ｋ－ＰＲＯＤＵＣＴＳ,,株式会社,千葉県,流山市,南流山７丁目２７番地の８－３０１,,12,220,2700163,,,,,,,2022-02-17,1,,,,,ケープロダクツ,0
1102,5040001122264,新規,0,2022-02-17,2022-02-17,株式会社ＭＫ商事,,株式会社,千葉県,木更津市,東太田１丁目１１番７号山口第二店舗Ｃ号室,,12,206,2920043,,,,,,,2022-02-17,1,,,,,エムケイショウジ,0
1107,5050001050638,新規,0,2022-02-17,2022-02-17,株式会社６２８,,株式会社,茨城県,潮来市,日の出２丁目１６番地１,,08,223,3112423,,,,,,,2022-02-17,1,,,,,ロクニハチ,0
1108,5060003003956,新規,0,2022-02-17,2022-02-17,合同会社ウィル・マックス,,合同会社,栃木県,宇都宮市,材木町５番５号ヴィラージュマンション８０３,,09,201,3200042,,,,,,,2022-02-17,1,,,,,ウィルマックス,0
1112,5080001024762,新規,0,2022-02-17,2022-02-17,株式会社ＩＰＲＯＭＯＴＩＯＮ,,株式会社,静岡県,静岡市葵区,両替町２丁目４番地の９フィエスタ両替町１－Ｃ,,22,101,4200032,,,,,,,2022-02-17,1,,,,,アイプロモーション,0
1117,5100003006368,新規,0,2022-02-17,2022-02-17,合同会社オレンジレオパード,,合同会社,長野県,松本市,大字岡田松岡２０４番地８,,20,202,3900312,,,,,,,2022-02-17,1,,,,,オレンジレオパード,0
1133,5120003021159,新規,0,2022-02-17,2022-02-17,合同会社関西クラシック音楽制作室,,合同会社,大阪府,大阪市北区,梅田１丁目１－３大阪駅前第３ビル２９階１－１－１号室,,27,127,5300001,,,,,,,2022-02-17,1,,,,,カンサイクラシックオンガクセイサクシツ,0
1146,5130001071139,新規,0,2022-02-17,2022-02-17,株式会社高上商事,,株式会社,京都府,綾部市,物部町的場２４番地,,26,203,6230362,,,,,,,2022-02-17,1,,,,,タカウエショウジ,0
1163,5180001149979,新規,0,2022-02-17,2022-02-17,株式会社Ｔｙｐｅ　Ｓ,,株式会社,愛知県,名古屋市東区,泉３丁目２９番１２号,,23,102,4610001,,,,,,,2022-02-17,1,,,,,タイプエス,0
1164,5180001149995,新規,0,2022-02-17,2022-02-17,郁文株式会社,,株式会社,愛知県,名古屋市中区,正木３丁目４番３３号,,23,106,4600024,,,,,,,2022-02-17,1,,,,,イクブン,0
1165,5180001150020,新規,0,2022-02-17,2022-02-17,株式会社イロハデザイン,,株式会社,愛知県,名古屋市守山区,西川原町２７番地,,23,113,4630089,,,,,,,2022-02-17,1,,,,,イロハデザイン,0
1171,5190003003902,新規,0,2022-02-17,2022-02-17,合同会社デザイム,,合同会社,三重県,四日市市,芝田１丁目２番４１－２号リベルジェＩ－１０４,00125728,24,202,5100822,,,,,,,2022-02-17,1,,,,,デザイム,0
1181,5240001059338,新規,0,2022-02-17,2022-02-17,ペースノーツ株式会社,,株式会社,広島県,広島市中区,東千田町１丁目１番６１号ｈｉｔｏｔｏ広島ナレッジスクエア１階いいオフィス,,34,101,7300053,,,,,,,2022-02-17,1,,,,,ペースノーツ,0
1182,5240003005505,新規,0,2022-02-17,2022-02-17,合同会社野々下葬祭,,合同会社,広島県,広島市佐伯区,薬師が丘３丁目７番２号,,34,108,7315154,,,,,,,2022-02-17,1,,,,,ノノシタソウサイ,0
1189,5260003003804,新規,0,2022-02-17,2022-02-17,合同会社Ｋｏｋｏｒｏ,,合同会社,岡山県,岡山市東区,西庄１４８番地３０,,33,103,7048106,,,,,,,2022-02-17,1,,,,,ココロ,0
1199,5290001096459,新規,0,2022-02-17,2022-02-17,Ｈ．ＡＲＴＳ株式会社,,株式会社,福岡県,宗像市,赤間４丁目１０番１１号,,40,220,8114146,,,,,,,2022-02-17,1,,,,,エイチアーツ,0
1203,5290003012166,新規,0,2022-02-17,2022-02-17,ｍｏｔｗａｔ合同会社,,合同会社,福岡県,福岡市博多区,博多駅前２丁目１９番１７号トーカン博多第５ビル３１２号室,,40,132,8120011,,,,,,,2022-02-17,1,,,,,モトワット,0
1208,5320001018896,新規,0,2022-02-17,2022-02-17,株式会社アゼリア,,株式会社,大分県,玖珠郡玖珠町,大字塚脇６７８番地１０,,44,462,8794413,,,,,,,2022-02-17,1,,,,,アゼリア,0
1221,5430003013637,新規,0,2022-02-17,2022-02-17,合同会社ＰＬＯ,,合同会社,北海道,札幌市手稲区,明日風５丁目９番１２－１０１号,,01,109,0060861,,,,,,,2022-02-17,1,,,,,ピーエルオー,0
1224,5490001010119,新規,0,2022-02-17,2022-02-17,株式会社Ｋｅｉ　ｃｏｒｐｏｒａｔｉｏｎ,,株式会社,高知県,高知市,鴨部３丁目７番１６－１９号,,39,201,7808052,,,,,,,2022-02-17,1,,,,,ケイコーポレーション,0
1233,6010003037025,新規,0,2022-02-17,2022-02-17,アクティブリーシング１５号合同会社,,合同会社,東京都,千代田区,麹町４丁目７番２号,,13,101,1020083,,,,,,,2022-02-17,1,,,,,アクティブリーシングジュウゴゴウ,0
1234,6010003037033,新規,0,2022-02-17,2022-02-17,合同会社プレゼントジャパン,,合同会社,東京都,中央区,勝どき１丁目１番１－１０１０号,,13,102,1040054,,,,,,,2022-02-17,1,,,,,プレゼントジャパン,0
1235,6010005034607,新規,0,2022-02-17,2022-02-17,一般社団法人竹橋総合研究所,,その他の設立登記法人,東京都,千代田区,神田錦町１丁目１４番地１１,,13,101,1010054,,,,,,,2022-02-17,1,,,,,タケバシソウゴウケンキュウジョ,0
1240,6010401165600,新規,0,2022-02-17,2022-02-17,株式会社ＫＥＩ　Ｉｎｔｅｒｎａｔｉｏｎａｌ,,株式会社,東京都,港区,海岸３丁目２６番１号,,13,103,1080022,,,,,,,2022-02-17,1,,,,,ケイインターナショナル,0
1241,6010401165609,新規,0,2022-02-17,2022-02-17,ラインサイトジャパン株式会社,,株式会社,東京都,港区,赤坂２丁目２３番１号アークヒルズフロントタワーＲｏＰ８０６号,,13,103,1070052,,,,,,,2022-02-17,1,,,,,ラインサイトジャパン,0
1242,6010401165617,新規,0,2022-02-17,2022-02-17,株式会社キッズイン,,株式会社,東京都,港区,愛宕２丁目５番１号,,13,103,1050002,,,,,,,2022-02-17,1,,,,,キッズイン,0
1243,6010401165625,新規,0,2022-02-17,2022-02-17,ＴＴＫＮＹ　Ｃｏｒｐｏｒａｔｉｏｎ株式会社,,株式会社,東京都,港区,白金台２丁目４－１０,,13,103,1080071,,,,,,,2022-02-17,1,,,,,ティーティーケーエヌワイコーポレーション,0
1246,6010403027096,新規,0,2022-02-17,2022-02-17,ＴＩＺＩＡＮＡ　ＡＬＡＭＰＲＥＳＥ　ＣＯＮＳＵＬＥＮＺＡ合同会社,,合同会社,東京都,港区,南麻布３丁目９番１６号ＨＩＬＬＴＯＰ南麻布３０２,,13,103,1060047,,,,,,,2022-02-17,1,,,,,ティツィアナアランプレセコンシュレンザ,0
1261,6010901050376,新規,0,2022-02-17,2022-02-17,株式会社Ｍｉｚｕｔａｎｉ　Ｋｏｎｚｅｒｎ,,株式会社,東京都,世田谷区,大蔵５丁目２２番１１－２０５号,,13,112,1570074,,,,,,,2022-02-17,1,,,,,ミズタニコンツェルン,0
1267,6011003014204,新規,0,2022-02-17,2022-02-17,合同会社ＧＭＳ―Ｔｅｃｈ,,合同会社,東京都,渋谷区,渋谷２丁目１９―１５宮益坂ビルディング６０９,,13,113,1500002,,,,,,,2022-02-17,1,,,,,ジーエムエステック,0
1271,6011105010142,新規,0,2022-02-17,2022-02-17,三王行政書士法人,,その他の設立登記法人,東京都,新宿区,歌舞伎町２丁目２５番８号エコプレイス新宿１１１,,13,104,1600021,,,,,,,2022-02-17,1,,,,,サンノウ,0
1280,6011801040343,新規,0,2022-02-17,2022-02-17,株式会社ＡＲＰ,,株式会社,東京都,葛飾区,西新小岩４丁目３７番７号,,13,122,1240025,,,,,,,2022-02-17,1,,,,,エーアールピー,0
1286,6012701016937,新規,0,2022-02-17,2022-02-17,株式会社ＫＵＲＯＮ,,株式会社,東京都,西東京市,北原町２丁目１０番１２号,,13,229,1880003,,,,,,,2022-02-17,1,,,,,クロン,0
1295,6013301048692,新規,0,2022-02-17,2022-02-17,ｓａｎｏ株式会社,,株式会社,東京都,豊島区,目白４丁目２２番９号,,13,116,1710031,,,,,,,2022-02-17,1,,,,,サノ,0
1303,6020001145233,新規,0,2022-02-17,2022-02-17,株式会社Ｍｅｇａｌａｂ　Ｇｌｏｂａｌ,,株式会社,神奈川県,川崎市高津区,二子３丁目４番４号,,14,134,2130002,,,,,,,2022-02-17,1,,,,,メガラボグローバル,0
1306,6020003021309,新規,0,2022-02-17,2022-02-17,合同会社スリーリアリズムプランニング,,合同会社,神奈川県,川崎市川崎区,小田栄２丁目３番３－４０８号,,14,131,2100843,,,,,,,2022-02-17,1,,,,,スリーリアリズムプランニング,0
1323,6030005020720,新規,0,2022-02-17,2022-02-17,一般社団法人大塚ポリテック共助会,,その他の設立登記法人,埼玉県,比企郡滑川町,大字羽尾４９６２番地,,11,341,3550811,,,,,,,2022-02-17,1,,,,,オオツカポリテックキョウジョカイ,0
1326,6040001122172,新規,0,2022-02-17,2022-02-17,株式会社ＭＩＮＧ’Ｓ,,株式会社,千葉県,市川市,田尻３丁目７－２０、３０３号,,12,203,2720014,,,,,,,2022-02-17,1,,,,,ミンズ,0
1327,6040001122239,新規,0,2022-02-17,2022-02-17,株式会社富士ライフネット,,株式会社,千葉県,君津市,中野６丁目１番２４号,,12,225,2991151,,,,,,,2022-02-17,1,,,,,フジライフネット,0
1330,6040003019508,新規,0,2022-02-17,2022-02-17,合同会社ＣＭＭ７号,,合同会社,千葉県,柏市,柏４丁目５番１０号,,12,217,2770005,,,,,,,2022-02-17,1,,,,,シーエムエムナナゴウ,0
1335,6050005013020,新規,0,2022-02-17,2022-02-17,特定非営利活動法人茨城こどもＥＣＨＯゼミナール,,その他の設立登記法人,茨城県,水戸市,双葉台３丁目３番地１,,08,201,3114145,,,,,,,2022-02-17,1,,,,,イバラキコドモエコーゼミナール,0
1341,6070003004390,新規,0,2022-02-17,2022-02-17,合同会社明里,,合同会社,群馬県,富岡市,岡本９０５番地３,,10,210,3702321,,,,,,,2022-02-17,1,,,,,アカリ,0
1342,6080105006219,新規,0,2022-02-17,2022-02-17,特定非営利活動法人かんなみ子育てネットワーク・ぴあ,,その他の設立登記法人,静岡県,田方郡函南町,柏谷８５３番地の２０,,22,325,4190112,,,,,,,2022-02-17,1,,,,,カンナミコソダテネットワークピア,0
1344,6080403004469,新規,0,2022-02-17,2022-02-17,合同会社Ａｄｄ　ｖａｌｕｅ,,合同会社,静岡県,浜松市東区,北島町９３７－８,,22,132,4350041,,,,,,,2022-02-17,1,,,,,アッドヴァリュー,0
1368,6120001243836,新規,0,2022-02-17,2022-02-17,株式会社ＫＲＥＳＴ,,株式会社,大阪府,大阪市北区,堂島２丁目１番２５号,,27,127,5300003,,,,,,,2022-02-17,1,,,,,クレスト,0
1383,6120903004039,新規,0,2022-02-17,2022-02-17,合同会社ＡＮＤ１,,合同会社,大阪府,豊中市,西泉丘２丁目２４１８番地の１（２０１号）,,27,203,5610862,,,,,,,2022-02-17,1,,,,,アンドワン,0
1389,6130001071138,新規,0,2022-02-17,2022-02-17,株式会社ウィズ,,株式会社,京都府,京都市上京区,下立売通千本東入田中町４２２番地１－７Ｆ,,26,102,6028163,,,,,,,2022-02-17,1,,,,,ウィズ,0
1390,6130001071154,新規,0,2022-02-17,2022-02-17,エリクサー株式会社,,株式会社,京都府,綾部市,桜が丘１丁目１４番地の２,,26,203,6230008,,,,,,,2022-02-17,1,,,,,エリクサー,0
1397,6140001124910,新規,0,2022-02-17,2022-02-17,株式会社ｌａｚｏ,,株式会社,兵庫県,尼崎市,大庄中通１丁目２１番地,,28,202,6600075,,,,,,,2022-02-17,1,,,,,ラソ,0
1398,6140001124919,新規,0,2022-02-17,2022-02-17,モアナライズ株式会社,,株式会社,兵庫県,芦屋市,朝日ケ丘町２８番２３号,,28,206,6590012,,,,,,,2022-02-17,1,,,,,モアナライズ,0
1399,6140001124927,新規,0,2022-02-17,2022-02-17,株式会社Ｐｏｎｏｌｅａ,,株式会社,兵庫県,神戸市須磨区,村雨町５丁目１番１４号,,28,107,6540046,,,,,,,2022-02-17,1,,,,,ポノレア,0
1407,6180001149994,新規,0,2022-02-17,2022-02-17,ＡＫＫマリンサービス株式会社,,株式会社,愛知県,名古屋市港区,名港２丁目１番７号,,23,111,4550037,,,,,,,2022-02-17,1,,,,,エーケーケーマリンサービス,0
1408,6180001150028,新規,0,2022-02-17,2022-02-17,株式会社ＭＯＪ,,株式会社,愛知県,一宮市,丹陽町重吉字城戸１５９番地１,,23,203,4910821,,,,,,,2022-02-17,1,,,,,エムオージェイ,0
1412,6180003023504,新規,0,2022-02-17,2022-02-17,合同会社Ｇｒａｃｅ　ｈｏｍｅ,,合同会社,愛知県,瀬戸市,西松山町１丁目８９番地,,23,204,4890912,,,,,,,2022-02-17,1,,,,,グレースホーム,0
1415,6180301035928,新規,0,2022-02-17,2022-02-17,株式会社アジアＴ＆Ｃ,,株式会社,愛知県,豊橋市,野田町字野田２４番地４,,23,201,4418001,,,,,,,2022-02-17,1,,,,,アジアティーアンドシー,0
1417,6180305009300,新規,0,2022-02-17,2022-02-17,特定非営利活動法人魚の釣り方,,その他の設立登記法人,愛知県,豊川市,八幡町亀が坪１２０番地７,,23,207,4420857,,,,,,,2022-02-17,1,,,,,サカナノツリカタ,0
1419,6190005011670,新規,0,2022-02-17,2022-02-17,特定非営利活動法人あゆみ野,,その他の設立登記法人,三重県,津市,夢が丘１丁目６番地２,,24,201,5140116,,,,,,,2022-02-17,1,,,,,アユミノ,0
1431,6240001059329,新規,0,2022-02-17,2022-02-17,秀株式会社,,株式会社,広島県,東広島市,黒瀬町大多田４６０番地６,,34,212,7392611,,,,,,,2022-02-17,1,,,,,ヒデ,0
1432,6240001059337,新規,0,2022-02-17,2022-02-17,株式会社ｋ＆ｍ,,株式会社,広島県,山県郡北広島町,有田３３５３番地１４,,34,369,7311533,,,,,,,2022-02-17,1,,,,,ケイアンドエム,0
1434,6240003005504,新規,0,2022-02-17,2022-02-17,合同会社アートコンシェルジュ,,合同会社,広島県,広島市安佐北区,白木町大字三田１０８６番地２１,,34,106,7391521,,,,,,,2022-02-17,1,,,,,アートコンシェルジュ,0
1436,6240005015328,新規,0,2022-02-17,2022-02-17,一般社団法人子どもアドボカシーセンター広島,,その他の設立登記法人,広島県,広島市中区,上幟町１番１７号ソフィアコート上幟町Ａｎｎｅｘ３階,,34,101,7300014,,,,,,,2022-02-17,1,,,,,コドモアドボカシーセンターヒロシマ,0
1439,6260001036540,新規,0,2022-02-17,2022-02-17,鎌田電機工事株式会社,,株式会社,岡山県,倉敷市,帯高２２５番地,,33,202,7100023,,,,,,,2022-02-17,1,,,,,カマダデンキコウジ,0
1447,6290001096425,新規,0,2022-02-17,2022-02-17,株式会社日興商会,,株式会社,福岡県,福岡市博多区,那珂５丁目１６番９号,,40,132,8120893,,,,,,,2022-02-17,1,,,,,ニッコウショウカイ,0
1449,6290003012165,新規,0,2022-02-17,2022-02-17,Ｈａｉ　Ｎａｖｉ　Ｇｒｏｕｐ合同会社,,合同会社,福岡県,福岡市中央区,渡辺通５丁目１４－１２,,40,133,8100004,,,,,,,2022-02-17,1,,,,,ハイナビグループ,0
1458,6330005010468,新規,0,2022-02-17,2022-02-17,一般社団法人教育を盛り上げる会,,その他の設立登記法人,熊本県,熊本市中央区,下通１丁目３－８下通ＮＳビル６Ｆリージャス熊本下通ビジネスセンター,,43,101,8600807,,,,,,,2022-02-17,1,,,,,キョウイクヲモリアゲルカイ,0
1470,6700150104409,新規,0,2022-02-17,2021-08-17,宮原総合型クラブみかんの森たわわ設立準備委員会,,その他,和歌山県,有田市,宮原町滝川原５６０－１,,30,204,6490435,,,,,,,2021-08-17,1,,,,,ミヤハラソウゴウガタクラブミカンノモリタワワセツリツジユンビイインカイ,0
1479,7010001224276,新規,0,2022-02-17,2022-02-17,株式会社ＴＲＴ,,株式会社,東京都,中央区,新川１丁目１０－３ブンゴビル３Ｆ,,13,102,1040033,,,,,,,2022-02-17,1,,,,,ティーアールティー,0
1480,7010001224615,新規,0,2022-02-17,2022-02-17,株式会社トレファクテクノロジーズ,,株式会社,東京都,千代田区,神田佐久間町２丁目２０番地翔和秋葉原ビル,,13,101,1010025,,,,,,,2022-02-17,1,,,,,トレファクテクノロジーズ,0
1483,7010005034606,新規,0,2022-02-17,2022-02-17,一般社団法人医療サポートサービス,,その他の設立登記法人,東京都,千代田区,東神田２丁目８番１１号,,13,101,1010031,,,,,,,2022-02-17,1,,,,,イリョウサポートサービス,0
1484,7010005034614,新規,0,2022-02-17,2022-02-17,一般社団法人ナノマテリアル研究所,,その他の設立登記法人,東京都,千代田区,内神田３丁目４番６号冨士エレベータービル２階,,13,101,1010047,,,,,,,2022-02-17,1,,,,,ナノマテリアルケンキュウショ,0
1508,7010901050375,新規,0,2022-02-17,2022-02-17,Ｃｏｎｃｒｅａｔｅ　Ｐａｒｔｎｅｒｓ株式会社,,株式会社,東京都,世田谷区,北沢５丁目３４番７－２０１号,,13,112,1550031,,,,,,,2022-02-17,1,,,,,コンクリートパートナーズ,0
1511,7011001145735,新規,0,2022-02-17,2022-02-17,ＦＥＥＬ　Ｅｎｔｅｒｔａｉｎｍｅｎｔ　Ｈｏｌｄｉｎｇｓ株式会社,,株式会社,東京都,渋谷区,東３丁目１番３－５０５号,,13,113,1500011,,,,,,,2022-02-17,1,,,,,フィールエンターテイメントホールディングス,0
1513,7011003014161,新規,0,2022-02-17,2022-02-17,合同会社トリプルスクエア,,合同会社,東京都,目黒区,下目黒３丁目２番１－１４０２号ザ・パークハビオ目黒,,13,110,1530064,,,,,,,2022-02-17,1,,,,,トリプルスクエア,0
1514,7011003014186,新規,0,2022-02-17,2022-02-17,ＭＬＣＨ合同会社,,合同会社,東京都,渋谷区,恵比寿西２丁目１９－９フランセスビル１階,,13,113,1500021,,,,,,,2022-02-17,1,,,,,エムエルシーエイチ,0
1518,7011101097843,新規,0,2022-02-17,2022-02-17,株式会社長島電業社,,株式会社,東京都,新宿区,市谷薬王寺町７１番地,,13,104,1620063,,,,,,,2022-02-17,1,,,,,ナガシマデンギョウシャ,0
1519,7011101097876,新規,0,2022-02-17,2022-02-17,株式会社ＲＩＳ,,株式会社,東京都,新宿区,西新宿３丁目３番１３号西新宿水間ビル６階,,13,104,1600023,,,,,,,2022-02-17,1,,,,,アールアイエス,0
1526,7011301027559,新規,0,2022-02-17,2022-02-17,おうちサポート株式会社,,株式会社,東京都,杉並区,久我山４丁目２８番５号レジデンス久我山３０２,,13,115,1680082,,,,,,,2022-02-17,1,,,,,オウチサポート,0
1527,7011303004309,新規,0,2022-02-17,2022-02-17,合同会社ヘルスビューティ,,合同会社,東京都,杉並区,荻窪５丁目２９番１０号,,13,115,1670051,,,,,,,2022-02-17,1,,,,,ヘルスビューティ,0
1531,7011801040342,新規,0,2022-02-17,2022-02-17,株式会社ＥＮＪＯＹＭＥＮＴ,,株式会社,東京都,足立区,千住寿町１４番７号,,13,121,1200033,,,,,,,2022-02-17,1,,,,,エンジョイメント,0
1538,7012701016936,新規,0,2022-02-17,2022-02-17,株式会社ｍｏｋｋ,,株式会社,東京都,小平市,美園町２丁目１９－１６－５,,13,211,1870041,,,,,,,2022-02-17,1,,,,,モック,0
1552,7020001145232,新規,0,2022-02-17,2022-02-17,株式会社ＫＴＳホーム,,株式会社,神奈川県,川崎市中原区,苅宿１－１７,,14,133,2110022,,,,,,,2022-02-17,1,,,,,ケイティーエスホーム,0
1557,7020003021308,新規,0,2022-02-17,2022-02-17,合同会社ＧＲＥＥＮ　ＦＯＯＴ,,合同会社,神奈川県,川崎市多摩区,宿河原６丁目３０番２５－４０５号,,14,135,2140021,,,,,,,2022-02-17,1,,,,,グリーンフット,0
1567,7021003011406,新規,0,2022-02-17,2022-02-17,合同会社角屋,,合同会社,神奈川県,足柄下郡湯河原町,宮上４６８,,14,384,2590314,,,,,,,2022-02-17,1,,,,,カドヤ,0
1584,7050001050636,新規,0,2022-02-17,2022-02-17,株式会社クイック,,株式会社,茨城県,取手市,小浮気８３０番地１,,08,217,3001531,,,,,,,2022-02-17,1,,,,,クイック,0
1585,7050001050644,新規,0,2022-02-17,2022-02-17,株式会社紫善,,株式会社,茨城県,取手市,紫水２丁目３番地８,,08,217,3001508,,,,,,,2022-02-17,1,,,,,シゼン,0
1589,7070001038951,新規,0,2022-02-17,2022-02-17,株式会社Ｋ＆Ｆ,,株式会社,群馬県,太田市,茂木町５８１番地,,10,205,3730809,,,,,,,2022-02-17,1,,,,,ケイアンドエフ,0
1592,7080001024760,新規,0,2022-02-17,2022-02-17,ＫＥＮＮＥＤＹ＆ＨＯＬＤＩＮＧＳ株式会社,,株式会社,静岡県,島田市,阿知ケ谷１１８番地の２,,22,209,4270006,,,,,,,2022-02-17,1,,,,,ケネディアンドホールディングス,0
1622,7120101065089,新規,0,2022-02-17,2022-02-17,株式会社大場電設,,株式会社,大阪府,岸和田市,西大路町２０３番地の４９,,27,202,5960802,,,,,,,2022-02-17,1,,,,,オオバデンセツ,0
1623,7120103004581,新規,0,2022-02-17,2022-02-17,雅合同会社,,合同会社,大阪府,貝塚市,澤６７８番地３,,27,208,5970062,,,,,,,2022-02-17,1,,,,,ミヤビ,0
1639,7130001071153,新規,0,2022-02-17,2022-02-17,ＳＫＭ株式会社,,株式会社,京都府,綾部市,桜が丘１丁目１４番地の２,,26,203,6230008,,,,,,,2022-02-17,1,,,,,エスケーエム,0
1645,7140005026037,新規,0,2022-02-17,2022-02-17,一般社団法人みくもや,,その他の設立登記法人,兵庫県,神戸市中央区,琴ノ緒町３丁目３－２１蒲鉾ビル２Ｆ東,,28,110,6510094,,,,,,,2022-02-17,1,,,,,ミクモヤ,0
1655,7180001149977,新規,0,2022-02-17,2022-02-17,株式会社マルシンベターライフ,,株式会社,愛知県,東海市,名和町二番割上３３番地,,23,222,4760002,,,,,,,2022-02-17,1,,,,,マルシンベターライフ,0
1656,7180001150019,新規,0,2022-02-17,2022-02-17,日中コンサル株式会社,,株式会社,愛知県,名古屋市中区,千代田３丁目１５番３０号プレサンスロジェ鶴舞公園１３０１号,,23,106,4600012,,,,,,,2022-02-17,1,,,,,ニッチュウコンサル,0
1657,7180001150027,新規,0,2022-02-17,2022-02-17,株式会社Ｇｌａｎｚ,,株式会社,愛知県,名古屋市東区,東桜２丁目９番３４号,,23,102,4610005,,,,,,,2022-02-17,1,,,,,グランツ,0
1659,7180003023503,新規,0,2022-02-17,2022-02-17,合同会社Ｃｙｐｈｅｒ,,合同会社,愛知県,名古屋市中区,丸の内３丁目１６番１９号,,23,106,4600002,,,,,,,2022-02-17,1,,,,,サイファー,0
1664,7180301035927,新規,0,2022-02-17,2022-02-17,アットヒーロープランニング株式会社,,株式会社,愛知県,豊橋市,三ツ相町７４番地,,23,201,4418008,,,,,,,2022-02-17,1,,,,,アットヒーロープランニング,0
1691,7290801028262,新規,0,2022-02-17,2022-02-17,保険リンクス株式会社,,株式会社,福岡県,北九州市八幡西区,陣原４丁目６番２３号,,40,109,8070821,,,,,,,2022-02-17,1,,,,,ホケンリンクス,0
1693,7300003001792,新規,0,2022-02-17,2022-02-17,合同会社ユニコーン産業,,合同会社,佐賀県,佐賀市,中央本町５番２号,,41,201,8400825,,,,,,,2022-02-17,1,,,,,ユニコーンサンギョウ,0
1695,7310001017716,新規,0,2022-02-17,2022-02-17,株式会社長崎船舶コンサルタント,,株式会社,長崎県,長崎市,戸町４丁目１番１８号,,42,201,8500952,,,,,,,2022-02-17,1,,,,,ナガサキセンパクコンサルタント,0
1702,7360003011811,新規,0,2022-02-17,2022-02-17,合同会社活生実業,,合同会社,沖縄県,宜野湾市,愛知１丁目１０番５号,,47,205,9012206,,,,,,,2022-02-17,1,,,,,カッセイジツギョウ,0
1736,8010003037031,新規,0,2022-02-17,2022-02-17,合同会社アールシー・フラッツ,,合同会社,東京都,中央区,銀座１丁目１５番７号ＭＡＣ銀座ビル３階,,13,102,1040061,,,,,,,2022-02-17,1,,,,,アールシーフラッツ,0
1746,8010403027078,新規,0,2022-02-17,2022-02-17,合同会社ｆｅｌｉｃｅ,,合同会社,東京都,港区,赤坂３丁目１－１６,,13,103,1070052,,,,,,,2022-02-17,1,,,,,フェリーチェ,0
1754,8010901050358,新規,0,2022-02-17,2022-02-17,株式会社３５,,株式会社,東京都,世田谷区,下馬１丁目９－６ロイヤルコーポアサヒ４０１,,13,112,1540002,,,,,,,2022-02-17,1,,,,,サンジュウゴ,0
1763,8011001145701,新規,0,2022-02-17,2022-02-17,株式会社ケーオーキャピタル,,株式会社,東京都,目黒区,青葉台３丁目２２番１－８０２号目黒ハイツ,,13,110,1530042,,,,,,,2022-02-17,1,,,,,ケーオーキャピタル,0
1764,8011001145742,新規,0,2022-02-17,2022-02-17,株式会社ＴＡＮＴＡＮ,,株式会社,東京都,渋谷区,恵比寿西２丁目８番１－７０６号シャレール恵比寿,,13,113,1500021,,,,,,,2022-02-17,1,,,,,タンタン,0
1765,8011001145767,新規,0,2022-02-17,2022-02-17,株式会社ＨＩＲＴ,,株式会社,東京都,渋谷区,東２丁目２２番３号ＥＡＳＴＰＬＵＳ,,13,113,1500011,,,,,,,2022-02-17,1,,,,,ヒルト,0
1767,8011003014136,新規,0,2022-02-17,2022-02-17,合同会社ココプラ,,合同会社,東京都,渋谷区,神宮前６丁目２３番４号桑野ビル２階,,13,113,1500001,,,,,,,2022-02-17,1,,,,,ココプラ,0
1768,8011003014177,新規,0,2022-02-17,2022-02-17,キロワットエンタテイメント合同会社,,合同会社,東京都,渋谷区,神宮前６丁目２３番４号桑野ビル２階,,13,113,1500001,,,,,,,2022-02-17,1,,,,,キロワットエンタテイメント,0
1769,8011003014202,新規,0,2022-02-17,2022-02-17,合同会社ニューシアター,,合同会社,東京都,渋谷区,代官山町９番１０号５階,,13,113,1500034,,,,,,,2022-02-17,1,,,,,ニューシアター,0
1773,8011101097818,新規,0,2022-02-17,2022-02-17,株式会社銀河コンサルティング,,株式会社,東京都,新宿区,北新宿３丁目４－３プラザ北新宿２０３号室,,13,104,1690074,,,,,,,2022-02-17,1,,,,,ギンガコンサルティング,0
1777,8011103011487,新規,0,2022-02-17,2022-02-17,合同会社ジェイ・エス・ビー,,合同会社,東京都,新宿区,下宮比町１番４号,,13,104,1620822,,,,,,,2022-02-17,1,,,,,ジェイエスビー,0
1778,8011301027558,新規,0,2022-02-17,2022-02-17,株式会社ＴＲＹ．Ｄｒｅａｍ,,株式会社,東京都,杉並区,高井戸東４丁目２７番２４号,,13,115,1680072,,,,,,,2022-02-17,1,,,,,ティーアールワイドリーム,0
1780,8011403003572,新規,0,2022-02-17,2022-02-17,合同会社不動産流通エスクロー,,合同会社,東京都,板橋区,板橋１丁目３０番２号,,13,119,1730004,,,,,,,2022-02-17,1,,,,,フドウサンリュウツウエスクロー,0
1782,8011501027754,新規,0,2022-02-17,2022-02-17,株式会社ｌｉｌｌｉ,,株式会社,東京都,荒川区,東日暮里５丁目３９番１０－１３０４号,,13,118,1160014,,,,,,,2022-02-17,1,,,,,リリー,0
1784,8011701025046,新規,0,2022-02-17,2022-02-17,株式会社ＷＡＷＡＷＡ,,株式会社,東京都,江戸川区,南小岩６丁目１４番１０号フォレスト沖３０２,,13,123,1330056,,,,,,,2022-02-17,1,,,,,ワワワ,0
1793,8012701016935,新規,0,2022-02-17,2022-02-17,株式会社Ｓ＆Ｓコーポレーション,,株式会社,東京都,東久留米市,東本町１１番９号マルシンハイツ１０３号,,13,222,2030014,,,,,,,2022-02-17,1,,,,,エスアンドエスコーポレーション,0
1796,8012703002405,新規,0,2022-02-17,2022-02-17,合同会社ＭＳ－ＵＬＩＫＥ,,合同会社,東京都,西東京市,芝久保町１丁目２４－２２－８,,13,229,1880014,,,,,,,2022-02-17,1,,,,,エムエスユーライク,0
1804,8013301048690,新規,0,2022-02-17,2022-02-17,株式会社クオンタム,,株式会社,東京都,豊島区,上池袋３丁目１番１号,,13,116,1700012,,,,,,,2022-02-17,1,,,,,クオンタム,0
1824,8020003021315,新規,0,2022-02-17,2022-02-17,合同会社ＫＩＳレクサス,,合同会社,神奈川県,川崎市宮前区,馬絹２丁目１０番１９－６０６号,,14,136,2160035,,,,,,,2022-02-17,1,,,,,ケイアイエスレクサス,0
1830,8021001075195,新規,0,2022-02-17,2022-02-17,グッドビープラス株式会社,,株式会社,神奈川県,相模原市中央区,相模原６丁目２５番５号,,14,152,2520231,,,,,,,2022-02-17,1,,,,,グッドビープラス,0
1846,8030005020719,新規,0,2022-02-17,2022-02-17,一般社団法人天眞正自源流,,その他の設立登記法人,埼玉県,さいたま市南区,別所５丁目１５番２号,,11,108,3360021,,,,,,,2022-02-17,1,,,,,テンシンショウジゲンリュウ,0
1849,8040001122237,新規,0,2022-02-17,2022-02-17,ｌｉｌｙｅｓｔ株式会社,,株式会社,千葉県,松戸市,松戸２１２６番地の１スターテラスＦ号,,12,207,2710092,,,,,,,2022-02-17,1,,,,,リリエスト,0
1851,8040003019506,新規,0,2022-02-17,2022-02-17,合同会社ＧＲＵＳ　ＭＡＨＡＬＯ,,合同会社,千葉県,東金市,日吉台３丁目２４番地７,,12,213,2830803,,,,,,,2022-02-17,1,,,,,グルースマハロ,0
1855,8050001050635,新規,0,2022-02-17,2022-02-17,株式会社ミラクル星,,株式会社,茨城県,つくば市,上ノ室７５０番地１,,08,220,3050023,,,,,,,2022-02-17,1,,,,,ミラクルセイ,0
1856,8050001050643,新規,0,2022-02-17,2022-02-17,株式会社ＪＰＲＥ,,株式会社,茨城県,土浦市,大和町５番地１０,,08,203,3000036,,,,,,,2022-02-17,1,,,,,ジェーピーアールイー,0
1857,8050003006379,新規,0,2022-02-17,2022-02-17,合同会社ＩＶＹ,,合同会社,茨城県,結城市,新福寺４丁目８番地１２,,08,207,3070053,,,,,,,2022-02-17,1,,,,,アイビー,0
1858,8050005013019,新規,0,2022-02-17,2022-02-17,一般社団法人花みち元気塾,,その他の設立登記法人,茨城県,つくば市,松代２丁目９番地１８,,08,220,3050035,,,,,,,2022-02-17,1,,,,,ハナミチゲンキジュク,0
1866,8080103002515,新規,0,2022-02-17,2022-02-17,合同会社上伸建材,,合同会社,静岡県,沼津市,下香貫宮脇２３０番地の１エルディム田中２０１号,,22,203,4100822,,,,,,,2022-02-17,1,,,,,ジョウシンケンザイ,0
1873,8090003002044,新規,0,2022-02-17,2022-02-17,合同会社山梨アグリ,,合同会社,山梨県,甲府市,中央１丁目１２番３７号ＩＲＩＸビル７Ｆ,,19,201,4000032,,,,,,,2022-02-17,1,,,,,ヤマナシアグリ,0
1891,8120001243891,新規,0,2022-02-17,2022-02-17,株式会社Ｙ,,株式会社,大阪府,大阪市阿倍野区,旭町３丁目３番７－７０８号,,27,119,5450051,,,,,,,2022-02-17,1,,,,,ワイ,0
1892,8120001243900,新規,0,2022-02-17,2022-02-17,株式会社ＲＥＰＩＳＩＡ,,株式会社,大阪府,大阪市天王寺区,空堀町９番２９号,,27,109,5430012,,,,,,,2022-02-17,1,,,,,リピシア,0
1903,8130005016376,新規,0,2022-02-17,2022-02-17,一般社団法人京阪マーケティング・リサーチ機構,,その他の設立登記法人,京都府,京都市下京区,西七条西久保町４４番地３,,26,106,6008874,,,,,,,2022-02-17,1,,,,,ケイハンマーケティングリサーチキコオウ,0
1908,8140001124933,新規,0,2022-02-17,2022-02-17,株式会社ＤＩＳ　ＭＡＮ,,株式会社,兵庫県,神戸市東灘区,御影本町５丁目３番１４号,,28,101,6580046,,,,,,,2022-02-17,1,,,,,ディスマン,0
1909,8140003017367,新規,0,2022-02-17,2022-02-17,合同会社ＳＨＳ,,合同会社,兵庫県,神戸市長田区,池田寺町８番地の４,,28,106,6530822,,,,,,,2022-02-17,1,,,,,エスエイチエス,0
1918,8180001149984,新規,0,2022-02-17,2022-02-17,株式会社ＯＮＥ,,株式会社,愛知県,名古屋市中区,錦３丁目１番１４号プレサンス錦プレミアム４０６号,,23,106,4600003,,,,,,,2022-02-17,1,,,,,ワン,0
1919,8180001149992,新規,0,2022-02-17,2022-02-17,株式会社Ｖｉｎｅｓ,,株式会社,愛知県,名古屋市守山区,白山４丁目４０６番地,,23,113,4630032,,,,,,,2022-02-17,1,,,,,ヴァインズ,0
1920,8180001150018,新規,0,2022-02-17,2022-02-17,きづき株式会社,,株式会社,愛知県,名古屋市南区,豊田５丁目１８番２１号,,23,112,4570841,,,,,,,2022-02-17,1,,,,,キヅキ,0
1921,8180001150026,新規,0,2022-02-17,2022-02-17,ＷｉｎＷｉｎＷｉｎ株式会社,,株式会社,愛知県,知多郡武豊町,字多賀２丁目６番地,,23,447,4702361,,,,,,,2022-02-17,1,,,,,ウィンウィンウィン,0
1931,8190001029145,新規,0,2022-02-17,2022-02-17,株式会社ミチテル,,株式会社,三重県,桑名市,長島町西外面３８９－１,,24,205,5111143,,,,,,,2022-02-17,1,,,,,ミチテル,0
1932,8200001039753,新規,0,2022-02-17,2022-02-17,株式会社シーホース,,株式会社,岐阜県,羽島郡岐南町,徳田３丁目５５番地,,21,302,5016016,,,,,,,2022-02-17,1,,,,,シーホース,0
1947,8260001036539,新規,0,2022-02-17,2022-02-17,株式会社ファンメタル,,株式会社,岡山県,岡山市北区,伊島町２丁目２０番２６号エクセレント津島,,33,101,7000016,,,,,,,2022-02-17,1,,,,,ファンメタル,0
1953,8290001096448,新規,0,2022-02-17,2022-02-17,株式会社ＮｕｍｂｅｒＤ,,株式会社,福岡県,福岡市中央区,大名１丁目１番３２号ＧＬＡＮＺビル４階,,40,133,8100041,,,,,,,2022-02-17,1,,,,,ナンバード,0
1969,8340003003710,新規,0,2022-02-17,2022-02-17,ＢＬＥＳＳ　ＵＰ合同会社,,合同会社,鹿児島県,熊毛郡屋久島町,宮之浦２３５１―４７,,46,505,8914205,,,,,,,2022-02-17,1,,,,,ブレスアップ,0
1985,8420005007791,新規,0,2022-02-17,2022-02-17,一般社団法人青森福祉会,,その他の設立登記法人,青森県,青森市,勝田２丁目７番３号,,02,201,0300821,,,,,,,2022-02-17,1,,,,,アオモリフクシカイ,0
1990,8430001086005,新規,0,2022-02-17,2022-02-17,株式会社石森重機,,株式会社,北海道,岩見沢市,日の出台２丁目２番１号,,01,210,0680822,,,,,,,2022-02-17,1,,,,,イシモリジュウキ,0
1997,8490001010116,新規,0,2022-02-17,2022-02-17,株式会社土佐商店,,株式会社,高知県,高知市,桜井町１丁目２番２０号,,39,201,7800821,,,,,,,2022-02-17,1,,,,,トサショウテン,0
2001,8700150106923,新規,0,2022-02-17,2022-02-04,ＪａＸｏｎプロジェクト,,その他,神奈川県,横浜市南区,二葉町２丁目１９－１５ステラコート横浜南９０６,,14,105,2320026,,,,,,,2022-02-04,1,,,,,ジヤクソンプロジエクト,0
2009,9010001224638,新規,0,2022-02-17,2022-02-17,株式会社ダイコーロジテック,,株式会社,東京都,中央区,日本橋茅場町１丁目１０番５号,,13,102,1030025,,,,,,,2022-02-17,1,,,,,ダイコーロジテック,0
2010,9010001224646,新規,0,2022-02-17,2022-02-17,株式会社オープンハウス合人社コミュニティ,,株式会社,東京都,中央区,日本橋室町４丁目１番５号,,13,102,1030022,,,,,,,2022-02-17,1,,,,,オープンハウスゴウジンシャコミュニティ,0
2012,9010003036874,新規,0,2022-02-17,2022-02-17,リオアセットマネジメント合同会社,,合同会社,東京都,中央区,銀座１丁目２２ー１１,,13,102,1040061,,,,,,,2022-02-17,1,,,,,リオアセットマネジメント,0
2013,9010003037022,新規,0,2022-02-17,2022-02-17,合同会社ＬＯＧＩ　ＦＬＡＧ７号,,合同会社,東京都,中央区,日本橋１丁目４番１号,,13,102,1030027,,,,,,,2022-02-17,1,,,,,ロジフラッグナナゴウ,0
2014,9010003037030,新規,0,2022-02-17,2022-02-17,Ｓｅｋａｉ　Ｂｕｓｉｎｅｓｓ　Ｍａｒｋｅｔｉｎｇ　Ｊａｐａｎ合同会社,,合同会社,東京都,中央区,銀座７丁目１３番６号サガミビル２階,,13,102,1040061,,,,,,,2022-02-17,1,,,,,セカイビジネスマーケティングジャパン,0
2019,9010401165622,新規,0,2022-02-17,2022-02-17,株式会社Ｌｉｆｅ－ｐａｓｓｉｏｎ,,株式会社,東京都,港区,芝浦２丁目１６－１１オアーゼ芝浦レジデンス１３０４,,13,103,1080023,,,,,,,2022-02-17,1,,,,,ライフパッション,0
2021,9010405020708,新規,0,2022-02-17,2022-02-17,ＰＡＴＲＩＺＩＡ　ＭＦ１特定目的会社,,その他の設立登記法人,東京都,港区,虎ノ門３丁目２２番１０－２０１号,,13,103,1050001,,,,,,,2022-02-17,1,,,,,パトリチアエムエフワン,0
2023,9010701042249,新規,0,2022-02-17,2022-02-17,株式会社ファナソート,,株式会社,東京都,品川区,旗の台６丁目２４番１２号６０３号室,,13,109,1420064,,,,,,,2022-02-17,1,,,,,ファナソート,0
2024,9010801032728,新規,0,2022-02-17,2022-02-17,株式会社輝,,株式会社,東京都,大田区,大森東２丁目２６番１０号,,13,111,1430012,,,,,,,2022-02-17,1,,,,,カガヤキ,0
2025,9010803004064,新規,0,2022-02-17,2022-02-17,成宝合同会社,,合同会社,東京都,大田区,矢口３丁目４番６号,,13,111,1460093,,,,,,,2022-02-17,1,,,,,セイホウ,0
2032,9011001145667,新規,0,2022-02-17,2022-02-17,株式会社ポリー,,株式会社,東京都,渋谷区,渋谷２丁目１９－１５宮益坂ビルディング６０９,,13,113,1500002,,,,,,,2022-02-17,1,,,,,ポリー,0
2033,9011001145766,新規,0,2022-02-17,2022-02-17,株式会社ＭＥＥＴｓ,,株式会社,東京都,目黒区,下目黒２丁目２３番５号,,13,110,1530064,,,,,,,2022-02-17,1,,,,,ミーツ,0
2034,9011003014184,新規,0,2022-02-17,2022-02-17,ボーリンズ合同会社,,合同会社,東京都,渋谷区,幡ヶ谷３丁目７６番５－５０３号,,13,113,1510072,,,,,,,2022-02-17,1,,,,,ボーリンズ,0
2039,9011101097833,新規,0,2022-02-17,2022-02-17,株式会社ＭＯＯＶ,,株式会社,東京都,新宿区,水道町３番７－４０８号,,13,104,1620811,,,,,,,2022-02-17,1,,,,,ムーブ,0
2040,9011101097841,新規,0,2022-02-17,2022-02-17,エルアンドヴイコンサルタント株式会社,,株式会社,東京都,新宿区,新宿２丁目１５番１号,,13,104,1600022,,,,,,,2022-02-17,1,,,,,エルアンドヴイコンサルタント,0
2041,9011101097874,新規,0,2022-02-17,2022-02-17,株式会社ＳＢＳ,,株式会社,東京都,新宿区,西新宿３丁目３番１３号西新宿水間ビル６階,,13,104,1600023,,,,,,,2022-02-17,1,,,,,エスビーエス,0
2042,9011103011486,新規,0,2022-02-17,2022-02-17,合同会社ジェイ・エス・エー,,合同会社,東京都,新宿区,下宮比町１番４号,,13,104,1620822,,,,,,,2022-02-17,1,,,,,ジェイエスエー,0
2046,9011301027557,新規,0,2022-02-17,2022-02-17,株式会社ブレス,,株式会社,東京都,杉並区,永福４丁目９番２０号,,13,115,1680064,,,,,,,2022-02-17,1,,,,,ブレス,0
2047,9011303004307,新規,0,2022-02-17,2022-02-17,合同会社Ｌｉｌｉｂｅｌｌｅ’ｓ,,合同会社,東京都,杉並区,和田３丁目１３番５号,,13,115,1660012,,,,,,,2022-02-17,1,,,,,リーリーベールス,0
2048,9011303004315,新規,0,2022-02-17,2022-02-17,セイウチクラブ合同会社,,合同会社,東京都,杉並区,堀ノ内２丁目４－１１ルミネ方南町２０４,,13,115,1660013,,,,,,,2022-02-17,1,,,,,セイウチクラブ,0
2053,9011701025053,新規,0,2022-02-17,2022-02-17,株式会社ＦＲＯＮＴ．Ａ,,株式会社,東京都,江戸川区,西葛西５丁目２番９号,,13,123,1340088,,,,,,,2022-02-17,1,,,,,フロントエー,0
2067,9012703002404,新規,0,2022-02-17,2022-02-17,合同会社ティックウエーブ,,合同会社,東京都,西東京市,南町１丁目２番１４号,,13,229,1880012,,,,,,,2022-02-17,1,,,,,ティックウエーブ,0
2073,9013301048681,新規,0,2022-02-17,2022-02-17,株式会社ＮｉｎｅＳ,,株式会社,東京都,豊島区,東池袋１丁目２－１１カタヤマビル２Ｆ,,13,116,1700013,,,,,,,2022-02-17,1,,,,,ナインズ,0
2076,9013303006035,新規,0,2022-02-17,2022-02-17,ＫＧＭ合同会社,,合同会社,東京都,豊島区,東池袋１丁目３１－１０ドミール池袋９０１号,,13,116,1700013,,,,,,,2022-02-17,1,,,,,ケージーエム,0
2077,9013303006043,新規,0,2022-02-17,2022-02-17,合同会社方栄,,合同会社,東京都,豊島区,駒込１丁目１５番５号,,13,116,1700003,,,,,,,2022-02-17,1,,,,,ホウエイ,0
2083,9020001145239,新規,0,2022-02-17,2022-02-17,株式会社ハゼルアド,,株式会社,神奈川県,横浜市旭区,鶴ケ峰２丁目７３番地６,,14,112,2410022,,,,,,,2022-02-17,1,,,,,ハゼルアド,0
2090,9020003021264,新規,0,2022-02-17,2022-02-17,ＨａｐｐｙＨｏｎｅｙ合同会社,,合同会社,神奈川県,横浜市港北区,新横浜２丁目５番地２２エクセレントプラザ新横浜６０２号,,14,109,2220033,,,,,,,2022-02-17,1,,,,,ハッピーハニー,0
2093,9020005015388,新規,0,2022-02-17,2022-02-17,一般社団法人ｙｏｋｏｈａｍａアートモデル,,その他の設立登記法人,神奈川県,横浜市南区,宮元町３丁目５１番地タカハルビル,,14,105,2320016,,,,,,,2022-02-17,1,,,,,,0
2101,9021001075186,新規,0,2022-02-17,2022-02-17,株式会社Ｉｎｆｉｎｉｔｙ　ＮＥＯ,,株式会社,神奈川県,座間市,小松原２丁目４４番１－１００３号南林間ハイライズ,,14,216,2520002,,,,,,,2022-02-17,1,,,,,インフィニティネオ,0
2104,9030001146814,新規,0,2022-02-17,2022-02-17,ＨＵＥＮＴ　ＬＩＮＫＳ株式会社,,株式会社,埼玉県,北足立郡伊奈町,本町１丁目４１番地２,,11,301,3620804,,,,,,,2022-02-17,1,,,,,ヒューエントリンクス,0
2105,9030001146839,新規,0,2022-02-17,2022-02-17,株式会社シンシアプランニング,,株式会社,埼玉県,越谷市,蒲生西町２丁目１１番地６,,11,222,3430835,,,,,,,2022-02-17,1,,,,,シンシアプランニング,0
2108,9030003018862,新規,0,2022-02-17,2022-02-17,＿源合同会社,00125737,合同会社,埼玉県,北葛飾郡松伏町,大字松伏４７２０番地７,,11,465,3430111,,,,,,,2022-02-17,1,,,,,キンゲン,0
2113,9040001122244,新規,0,2022-02-17,2022-02-17,株式会社Ｘ．Ｏ,,株式会社,千葉県,習志野市,奏の杜１丁目１６番３号,,12,216,2750028,,,,,,,2022-02-17,1,,,,,エックスオー,0
2118,9040003019505,新規,0,2022-02-17,2022-02-17,団杰貿易合同会社,,合同会社,千葉県,市川市,平田２丁目１２番１０号,,12,203,2720031,,,,,,,2022-02-17,1,,,,,ダンケツボウエキ,0
2119,9040003019513,新規,0,2022-02-17,2022-02-17,合同会社ケー・エス,,合同会社,千葉県,柏市,名戸ケ谷１３０８番地５,,12,217,2770032,,,,,,,2022-02-17,1,,,,,ケーエス,0
2121,9050001050642,新規,0,2022-02-17,2022-02-17,株式会社優美建総,,株式会社,茨城県,古河市,尾崎３４４３番地５,,08,204,3060101,,,,,,,2022-02-17,1,,,,,ユウビケンソウ,0
2125,9060003003952,新規,0,2022-02-17,2022-02-17,ＴＡＱＷＡ　ＨＡＬＡＬ　ＭＡＲＴ合同会社,,合同会社,栃木県,佐野市,栃本町２０２６番地１,,09,204,3270312,,,,,,,2022-02-17,1,,,,,タクワハラルマート,0
2126,9080001024759,新規,0,2022-02-17,2022-02-17,株式会社三氣屋,,株式会社,静岡県,焼津市,利右衛門２５０８番地,,22,212,4210212,,,,,,,2022-02-17,1,,,,,ミキヤ,0
2131,9090003002043,新規,0,2022-02-17,2022-02-17,ＣＭ　Ｔｅｃｈ合同会社,,合同会社,山梨県,甲斐市,竜王新町７６９番地６深沢ハイツ竜王２０２号,,19,210,4000111,,,,,,,2022-02-17,1,,,,,シーエムテック,0
2133,9100001035068,新規,0,2022-02-17,2022-02-17,株式会社タケショウ,,株式会社,長野県,長野市,大字屋島７５１番地２,,20,201,3810021,,,,,,,2022-02-17,1,,,,,タケショウ,0
2167,9130001071151,新規,0,2022-02-17,2022-02-17,セラベストジャパン株式会社,,株式会社,京都府,京都市下京区,中堂寺粟田町９３,,26,106,6008815,,,,,,,2022-02-17,1,,,,,セラベストジャパン,0
2176,9180001149950,新規,0,2022-02-17,2022-02-17,株式会社スペース鑑定,,株式会社,愛知県,名古屋市名東区,猪子石原３丁目５０２番地,,23,115,4650008,,,,,,,2022-02-17,1,,,,,スペースカンテイ,0
2177,9180001150000,新規,0,2022-02-17,2022-02-17,株式会社ユタカンパニー,,株式会社,愛知県,名古屋市中村区,松重町４番５５号,,23,105,4500004,,,,,,,2022-02-17,1,,,,,ユタカンパニー,0
2178,9180001150009,新規,0,2022-02-17,2022-02-17,ビーエス株式会社,,株式会社,愛知県,名古屋市中川区,荒江町６番８号,,23,110,4540032,,,,,,,2022-02-17,1,,,,,ビーエス,0
2179,9180001150017,新規,0,2022-02-17,2022-02-17,株式会社建設業安全推進協会,,株式会社,愛知県,名古屋市中村区,名駅４丁目２番２８号,,23,105,4500002,,,,,,,2022-02-17,1,,,,,ケンセツギョウアンゼンスイシンキョウカイ,0
2183,9180003023501,新規,0,2022-02-17,2022-02-17,合同会社コスパ研究所,,合同会社,愛知県,西春日井郡豊山町,大字豊場字城屋敷１２２番地,,23,342,4800202,,,,,,,2022-02-17,1,,,,,コスパケンキュウジョ,0
2190,9200001039752,新規,0,2022-02-17,2022-02-17,ヒラキン株式会社,,株式会社,岐阜県,岐阜市,東中島１丁目１１番１０号,,21,201,5008235,,,,,,,2022-02-17,1,,,,,ヒラキン,0
2193,9220003003218,新規,0,2022-02-17,2022-02-17,合同会社幸伸物流,,合同会社,石川県,金沢市,木越２丁目２２７番地,,17,201,9200202,,,,,,,2022-02-17,1,,,,,コウシンブツリュウ,0
2197,9230001019231,新規,0,2022-02-17,2022-02-17,古里技建株式会社,,株式会社,富山県,中新川郡立山町,浦田１２４番地,,16,323,9300208,,,,,,,2022-02-17,1,,,,,フルサトギケン,0
2200,9240001059342,新規,0,2022-02-17,2022-02-17,創謙興業株式会社,,株式会社,広島県,広島市安佐南区,川内１丁目３１番３３号,,34,105,7310102,,,,,,,2022-02-17,1,,,,,ソウケンコウギョウ,0
2217,9290801028260,新規,0,2022-02-17,2022-02-17,タラキ設備株式会社,,株式会社,福岡県,行橋市,南泉３丁目５５番１号ハウスモカＡ,,40,213,8240036,,,,,,,2022-02-17,1,,,,,タラキセツビ,0
2222,9360001030010,新規,0,2022-02-17,2022-02-17,株式会社マルティプライド,,株式会社,沖縄県,那覇市,安謝１丁目９番１９号石原マンション２０１,,47,201,9000003,,,,,,,2022-02-17,1,,,,,マルティプライド,0
2224,9370001048209,新規,0,2022-02-17,2022-02-17,株式会社東北建設ネットワーク,,株式会社,宮城県,黒川郡大郷町,味明字広畑１０番地の１１,,04,422,9813513,,,,,,,2022-02-17,1,,,,,トウホクケンセツネットワーク,0
2225,9370003005587,新規,0,2022-02-17,2022-02-17,合同会社ＭＡＲＩＳＳ,,合同会社,宮城県,仙台市青葉区,千代田町４番２６号ロワイヤルユウ千代田４０３号,,04,101,9810936,,,,,,,2022-02-17,1,,,,,マリス,0
2234,9400001015782,新規,0,2022-02-17,2022-02-17,株式会社エクセルノースジャパン,,株式会社,岩手県,盛岡市,大沢川原３丁目４番４号ビューラいとう１０８号,,03,201,0200025,,,,,,,2022-02-17,1,,,,,エクセルノースジャパン,0
2236,9420003002455,新規,0,2022-02-17,2022-02-17,舘合同会社,,合同会社,青森県,八戸市,大字田面木字松長根４番地１,,02,203,0391104,,,,,,,2022-02-17,1,,,,,ダテ,0
