sequenceNumber,corporateNumber,process,correct,updateDate,changeDate,name,nameImageId,kind,prefectureName,cityName,streetNumber,addressImageId,prefectureCode,cityCode,postCode,addressOutside,addressOutsideImageId,closeDate,closeCause,successorCorporateNumber,changeCause,assignmentDate,latest,enName,enPrefectureName,enCityName,enAddressOutside,furigana,hihyoji
7,1010001106083,登記記録の閉鎖等,0,2025-07-11,2025-07-02,ブラウン・アンド・カンパニー株式会社,,株式会社,東京都,中央区,東日本橋１丁目９番１０号,,13,102,1030004,,,2025-07-02,合併による解散等,5010001086768,令和７年７月１日東京都中央区東日本橋一丁目９番１０号ブラウン・アンド・カンパニー株式会社（5010001086768）に合併し解散,2015-10-05,1,,,,,ブラウンアンドカンパニー,0
10,1010001143234,登記記録の閉鎖等,0,2025-07-11,2025-07-03,レイヤーズ・ＴＤＩソリューションズ株式会社,,株式会社,東京都,品川区,上大崎３丁目１番１号目黒セントラルスクエア１４階,,13,109,1410021,,,2025-07-03,清算の結了等,,,2015-10-05,1,,,,,レイヤーズティーディーアイソリューションズ,0
22,1010101000418,登記記録の閉鎖等,0,2025-07-11,2025-07-07,株式会社イベントサービス飛鳥,,株式会社,東京都,八王子市,小宮町１０９８番地の１,,13,201,1920031,,,2025-07-07,清算の結了等,,,2015-10-05,1,,,,,イベントサービスアスカ,0
37,1010605002050,登記記録の閉鎖等,0,2025-07-11,2025-06-30,特定非営利活動法人ＢＩＯ－ＩＴ研究開発機構,,その他の設立登記法人,東京都,墨田区,立川２丁目６番５－６０５号,,13,107,1300023,,,2025-06-30,清算の結了等,,,2015-10-05,1,,,,,,0
40,1010802005938,登記記録の閉鎖等,0,2025-07-11,2025-07-01,有限会社ザ・クインテットインク,,有限会社,東京都,大田区,中央６丁目２２番１２号,,13,111,1430024,,,2025-07-01,清算の結了等,,,2015-10-05,1,,,,,ザクインテットインク,0
41,1010901012843,登記記録の閉鎖等,0,2025-07-11,2025-07-07,株式会社リビングエース,,株式会社,東京都,世田谷区,上祖師谷７丁目１番１４号,,13,112,1570065,,,2025-07-07,清算の結了等,,,2015-10-05,1,,,,,,0
74,1012801008211,登記記録の閉鎖等,0,2025-07-11,2025-07-07,株式会社ソパック,,株式会社,東京都,あきる野市,雨間７３０番地１５,,13,228,1970825,,,2025-07-07,清算の結了等,,,2015-10-05,1,,,,,ソパック,0
80,1020001055742,登記記録の閉鎖等,0,2025-07-11,2025-06-30,株式会社クリーンプロデュース,,株式会社,神奈川県,横浜市栄区,亀井町３７番１４号,,14,115,2470028,,,2025-06-30,清算の結了等,,,2015-10-05,1,,,,,クリーンプロデュース,0
83,1020001148372,登記記録の閉鎖等,0,2025-07-11,2025-06-27,株式会社ＬＩＮＫＲＩＺＥＳＴ,,株式会社,神奈川県,横浜市青葉区,新石川１丁目３２番地４ＲＩＣＨＣＨＩＬＤ１０１,,14,117,2250003,,,2025-06-27,清算の結了等,,,2022-10-04,1,,,,,リンクライゼスト,0
85,1021001009639,登記記録の閉鎖等,0,2025-07-11,2025-07-01,米田興産株式会社,,株式会社,神奈川県,鎌倉市,関谷１７３９番地２,,14,204,2470075,,,2025-07-01,清算の結了等,,,2015-10-05,1,,,,,ヨネダコウサン,0
86,1021001046459,登記記録の閉鎖等,0,2025-07-11,2025-07-04,株式会社ＫＳＫ,,株式会社,神奈川県,平塚市,長持４３５番地の１０,,14,203,2591217,,,2025-07-04,清算の結了等,,,2015-10-05,1,,,,,ケイエスケイ,0
93,1021005012770,登記記録の閉鎖等,0,2025-07-11,2025-07-04,一般社団法人スプラウト・プラス,,その他の設立登記法人,神奈川県,小田原市,酒匂２丁目３５番２５号,,14,206,2560816,,,2025-07-04,清算の結了等,,,2023-03-30,1,,,,,スプラウトプラス,0
101,1040001015604,登記記録の閉鎖等,0,2025-07-11,2025-06-24,株式会社ネクスト,,株式会社,千葉県,習志野市,津田沼３丁目１３番４－１０５号,,12,216,2750016,,,2025-06-24,清算の結了等,,,2015-10-05,1,,,,,ネクスト,0
103,1040001120866,登記記録の閉鎖等,0,2025-07-11,2025-06-25,ビルド・ワーク株式会社,,株式会社,千葉県,南房総市,千倉町白間津２９３番地,,12,234,2950027,,,2025-06-25,清算の結了等,,,2021-11-05,1,,,,,ビルドワーク,0
108,1040003009018,登記記録の閉鎖等,0,2025-07-11,2025-06-26,合同会社和心,,合同会社,千葉県,千葉市中央区,今井２丁目１番地１３号３階,,12,101,2600834,,,2025-06-26,清算の結了等,,,2016-09-05,1,,,,,ワナミ,0
127,1100001021620,登記記録の閉鎖等,0,2025-07-11,2025-07-07,株式会社赤羽工業,,株式会社,長野県,上伊那郡辰野町,大字伊那富３１２６番地,,20,382,3990428,,,2025-07-07,清算の結了等,,,2015-10-05,1,,,,,アカハネコウギョウ,0
130,1120001257964,登記記録の閉鎖等,0,2025-07-11,2025-06-30,和城株式会社,,株式会社,大阪府,大阪市淀川区,西中島４丁目４－２５,,27,123,5320011,,,2025-06-30,清算の結了等,,,2023-09-06,1,,,,,ワセイ,0
153,1140001038322,登記記録の閉鎖等,0,2025-07-11,2025-07-02,株式会社共栄,,株式会社,兵庫県,たつの市,揖保町門前９６番地,,28,229,6794153,,,2025-07-02,清算の結了等,,,2015-10-05,1,,,,,キョウエイ,0
176,1190003004375,登記記録の閉鎖等,0,2025-07-11,2025-06-30,エムプラン合同会社,,合同会社,三重県,伊勢市,御薗町新開９１５番地フレグランスアサノ１０１号室,,24,203,5160802,,,2025-06-30,合併による解散等,6190001007029,令和７年６月３０日三重県伊勢市二見町江６８１番地４６マルカ水産株式会社（6190001007029）に合併し解散,2023-07-26,1,,,,,エムプラン,0
184,1220001017268,登記記録の閉鎖等,0,2025-07-11,2025-07-04,株式会社七田組,,株式会社,石川県,河北郡内灘町,字鶴ケ丘４丁目１番地１７３,,17,365,9200271,,,2025-07-04,清算の結了等,,,2015-10-05,1,,,,,シチダグミ,0
189,1230002014494,登記記録の閉鎖等,0,2025-07-11,2025-07-01,有限会社アグリトープ,,有限会社,富山県,射水市,高木３２９番地１,,16,211,9340047,,,2025-07-01,合併による解散等,9230001020040,令和７年７月１日富山県高岡市向野町三丁目４３番地１７株式会社ＥＲＣエコロ（9230001020040）に合併し解散,2015-10-05,1,,,,,アグリトープ,0
190,1240001041299,登記記録の閉鎖等,0,2025-07-11,2025-07-04,株式会社ＡＤＡＭ,,株式会社,広島県,広島市東区,上温品３丁目２４－１０－１２,,34,102,7320032,,,2025-07-04,清算の結了等,,,2015-10-05,1,,,,,アダム,0
200,1250002003363,登記記録の閉鎖等,0,2025-07-11,2025-07-07,有限会社ビジネス道中,,有限会社,山口県,防府市,沖今宿２丁目６番１７号,,35,206,7470013,,,2025-07-07,清算の結了等,,,2015-10-05,1,,,,,,0
213,1290803003748,登記記録の閉鎖等,0,2025-07-11,2025-07-01,Ｋ１０９合同会社,,合同会社,福岡県,北九州市小倉南区,田原新町１丁目１３番２号,,40,107,8000226,,,2025-07-01,合併による解散等,4290801006460,令和７年７月１日北九州市小倉南区田原新町一丁目１３番２号スピードネットワーク株式会社（4290801006460）に合併し解散,2021-02-24,1,,,,,ケイイチマルキュウ,0
223,1340002019219,登記記録の閉鎖等,0,2025-07-11,2025-06-27,有限会社ギンザ薬局,,有限会社,鹿児島県,西之表市,西町７０８７番地２,,46,213,8913111,,,2025-06-27,清算の結了等,,,2015-10-05,1,,,,,ギンザヤッキョク,0
225,1370001006685,登記記録の閉鎖等,0,2025-07-11,2025-06-30,仙台日通運輸株式会社,,株式会社,宮城県,仙台市若林区,卸町東２丁目９番１０号,,04,103,9840002,,,2025-06-30,清算の結了等,,,2015-10-05,1,,,,,センダイニッツウウンユ,0
228,1370802001983,登記記録の閉鎖等,0,2025-07-11,2025-06-27,株式会社オサダ,,株式会社,宮城県,岩沼市,三色吉字杉ノ内１０番地,,04,211,9892464,,,2025-06-27,清算の結了等,,,2015-10-05,1,,,,,オサダ,0
237,1430003011594,登記記録の閉鎖等,0,2025-07-11,2025-06-30,Ｂｌｏｗｈａｒｄ　Ｌｏｄｇｅ合同会社,,合同会社,北海道,虻田郡ニセコ町,字富川２３４番地５,,01,395,0481554,,,2025-06-30,清算の結了等,,,2020-05-22,1,,,,,ブローハードロッジ,0
260,2010003026535,登記記録の閉鎖等,0,2025-07-11,2025-07-01,合同会社弥生エステート,,合同会社,東京都,中央区,東日本橋２丁目２８番４号日本橋ＣＥＴビル２階,,13,102,1030004,,,2025-07-01,合併による解散等,6010003027488,令和７年７月１日東京都中央区日本橋室町一丁目１３番１号ＤＫノア４階合同会社グリームライン（6010003027488）に合併し解散,2017-12-04,1,,,,,ヤヨイエステート,0
269,2010401033026,登記記録の閉鎖等,0,2025-07-11,2025-07-09,エレクトロラックス・プロフェッショナル・ジャパン株式会社,,株式会社,東京都,港区,芝大門２丁目５番５号,,13,103,1050012,,,2025-07-09,合併による解散等,9010001196927,令和７年７月１日東京都品川区東五反田一丁目２４番２号株式会社ＴＯＳＥＩ（9010001196927）に合併し解散,2015-10-05,1,,,,,エレクトロラックスプロフェッショナルジャパン,0
308,2011401025995,登記記録の閉鎖等,0,2025-07-11,2025-07-04,株式会社矢野,,株式会社,東京都,板橋区,南常盤台１丁目１３番５号ハイプレースときわ台３０１,,13,119,1740072,,,2025-07-04,清算の結了等,,,2024-04-12,1,,,,,ヤノ,0
315,2011702017155,登記記録の閉鎖等,0,2025-07-11,2025-07-01,有限会社ＦＯＯＤ　ＮＥＸＴ,,有限会社,東京都,千代田区,神田錦町２丁目５番１６号,,13,101,1010054,,,2025-07-01,合併による解散等,6010001152957,令和７年７月１日東京都千代田区神田錦町二丁目５番１６号株式会社ＳＭＩＬＥ　ＷＨＯ’Ｓ（6010001152957）に合併し解散,2015-10-05,1,,,,,フードネクスト,0
324,2012702003392,登記記録の閉鎖等,0,2025-07-11,2025-07-01,有限会社美容室塚田,,有限会社,東京都,東村山市,栄町１丁目１１番５０号小山ビル１階,,13,213,1890013,,,2025-07-01,清算の結了等,,,2015-10-05,1,,,,,ビヨウシツツカダ,0
332,2013301051725,登記記録の閉鎖等,0,2025-07-11,2025-06-13,智ジャパン株式会社,,株式会社,東京都,豊島区,高田２丁目１１番１１号,,13,116,1710033,,,2025-06-13,清算の結了等,,,2023-12-06,1,,,,,トモジャパン,0
344,2040001000992,登記記録の閉鎖等,0,2025-07-11,2025-06-26,株式会社エヌ・ケー電子,,株式会社,千葉県,千葉市美浜区,幕張西１丁目１０番１１号,,12,106,2610026,,,2025-06-26,清算の結了等,,,2015-10-05,1,,,,,エヌケーデンシ,0
350,2040001123760,登記記録の閉鎖等,0,2025-07-11,2025-06-25,株式会社ＳＴＡＴＥＳ‐１,,株式会社,千葉県,浦安市,当代島１丁目３番２３－３０２号,,12,227,2790001,,,2025-06-25,清算の結了等,,,2022-06-07,1,,,,,ステイツワン,0
354,2050001046317,登記記録の閉鎖等,0,2025-07-11,2025-06-30,株式会社ビーオートジャパン,,株式会社,茨城県,小美玉市,栗又四ケ１４２５番地,,08,236,3113434,,,2025-06-30,清算の結了等,,,2019-07-30,1,,,,,ビーオートジャパン,0
377,2100001025257,登記記録の閉鎖等,0,2025-07-11,2025-07-02,株式会社イヌズカ,,株式会社,長野県,松本市,南松本２丁目３番１０号,,20,202,3900832,,,2025-07-02,清算の結了等,,,2015-10-05,1,,,,,イヌズカ,0
386,2120001228353,登記記録の閉鎖等,0,2025-07-11,2025-07-02,ＭａｍｅＤａｉ株式会社,,株式会社,大阪府,大阪市淀川区,西中島４丁目１３番１２号,,27,123,5320011,,,2025-07-02,清算の結了等,,,2020-04-06,1,,,,,マメダイ,0
396,2120002042191,登記記録の閉鎖等,0,2025-07-11,2025-07-02,有限会社ビルドノジリ,,有限会社,大阪府,大阪市此花区,高見１丁目７番１４－１２０２号,,27,104,5540001,,,2025-07-02,清算の結了等,,,2015-10-05,1,,,,,ビルドノジリ,0
398,2120005022414,登記記録の閉鎖等,0,2025-07-11,2025-07-01,ＮＰＯ法人虐待どっとネット,,その他の設立登記法人,大阪府,大阪市中央区,平野町１丁目７－１堺筋高橋ビル５階Ｂ－５０１,,27,128,5410046,,,2025-07-01,清算の結了等,,,2021-08-02,1,,,,,ギャクタイドットネット,0
416,2150002002408,登記記録の閉鎖等,0,2025-07-11,2025-07-08,有限会社ダイム,,有限会社,奈良県,奈良市,西大寺宝ヶ丘４番５号,,29,201,6310831,,,2025-07-08,清算の結了等,,,2015-10-05,1,,,,,ダイム,0
418,2160005004862,登記記録の閉鎖等,0,2025-07-11,2025-07-04,愛知川養殖漁業生産組合,,その他の設立登記法人,滋賀県,愛知郡愛荘町,愛知川１２４８番地,,25,425,5291331,,,2025-07-04,清算の結了等,,,2015-10-05,1,,,,,エチガワヨウショク,0
433,2200001012443,登記記録の閉鎖等,0,2025-07-11,2025-07-01,株式会社軽たろう,,株式会社,岐阜県,本巣市,早野１２５番地,,21,218,5010419,,,2025-07-01,合併による解散等,6200002015268,令和７年７月１日岐阜県揖斐郡大野町大字稲富１２２８番地の１株式会社稲富石油（6200002015268）に合併し解散,2015-10-05,1,,,,,ケイタロウ,0
439,2240002012298,登記記録の閉鎖等,0,2025-07-11,2025-06-30,有限会社ニッショー,,有限会社,広島県,広島市安佐南区,祇園３丁目１９番１７号,,34,105,7310138,,,2025-06-30,合併による解散等,5240001004590,令和７年６月３０日広島市安佐南区祇園三丁目１９番１７号株式会社シンセー（5240001004590）に合併し解散,2015-10-05,1,,,,,ニッショー,0
459,2460101000636,登記記録の閉鎖等,0,2025-07-11,2025-07-07,株式会社太平洋管財,,株式会社,北海道,帯広市,西四条南１丁目１８番地１,,01,207,0800014,,,2025-07-07,清算の結了等,,,2015-10-05,1,,,,,タイヘイヨウカンザイ,0
462,2480001003646,登記記録の閉鎖等,0,2025-07-11,2025-07-07,株式会社アインス,,株式会社,徳島県,鳴門市,撫養町南浜字東浜１５８番地１３,,36,202,7720003,,,2025-07-07,合併による解散等,7470001001910,令和７年７月１日香川県高松市古新町１番地７株式会社四国電子計算センター（7470001001910）に合併し解散,2015-10-05,1,,,,,,0
468,3010001219478,登記記録の閉鎖等,0,2025-07-11,2025-07-01,株式会社ＣＡＲＴＡ　ＣＯＭＭＵＮＩＣＡＴＩＯＮＳ,,株式会社,東京都,港区,虎ノ門２丁目６番１号虎ノ門ヒルズステーションタワー３６階,,13,103,1050001,,,2025-07-01,合併による解散等,6011001068854,令和７年７月１日東京都港区虎ノ門二丁目６番１号虎ノ門ヒルズステーションタワー３６階株式会社ＣＡＲＴＡ　ＺＥＲＯ（6011001068854）に合併し解散,2021-07-09,1,,,,,カルタコミュニケーションズ,0
479,3010402005774,登記記録の閉鎖等,0,2025-07-11,2025-06-19,三陸不動産有限会社,,有限会社,東京都,港区,東新橋１丁目２番１１号,,13,103,1050021,,,2025-06-19,清算の結了等,,,2015-10-05,1,,,,,サンリクフドウサン,0
505,3011101071158,登記記録の閉鎖等,0,2025-07-11,2025-06-27,株式会社ウエスト電力,,株式会社,広島県,広島市西区,楠木町１丁目１５番２４号,,34,104,7330002,,,2025-06-27,清算の結了等,,,2015-10-05,1,,,,,ウエストデンリョク,0
508,3011301002862,登記記録の閉鎖等,0,2025-07-11,2025-06-30,三正電子機器株式会社,,株式会社,東京都,杉並区,松ノ木３丁目２９番１８号,,13,115,1660014,,,2025-06-30,清算の結了等,,,2015-10-05,1,,,,,サンセイデンシキキ,0
525,3013401002032,登記記録の閉鎖等,0,2025-07-11,2025-07-01,日本情報機器株式会社,,株式会社,東京都,稲城市,東長沼１４２２番地,,13,225,2060802,,,2025-07-01,清算の結了等,,,2015-10-05,1,,,,,ニホンジョウホウキキ,0
527,3020001107161,登記記録の閉鎖等,0,2025-07-11,2025-06-30,株式会社ＷＩＳＨ,,株式会社,神奈川県,川崎市中原区,上平間１８１１番地４,,14,133,2110013,,,2025-06-30,清算の結了等,,,2015-10-05,1,,,,,ウィシュ,0
549,3030001079763,登記記録の閉鎖等,0,2025-07-11,2025-07-03,株式会社高橋工務店,,株式会社,埼玉県,川口市,差間１丁目１０番５号,,11,203,3330816,,,2025-07-03,清算の結了等,,,2015-10-05,1,,,,,タカハシコウムテン,0
565,3040005017925,登記記録の閉鎖等,0,2025-07-11,2025-06-25,新京成バス労働組合,,その他の設立登記法人,千葉県,松戸市,金ケ作４０８番地１２４,,12,207,2702251,,,2025-06-25,清算の結了等,,,2015-10-05,1,,,,,シンケイセイバス,0
576,3070001002151,登記記録の閉鎖等,0,2025-07-11,2025-07-01,株式会社データシステム,,株式会社,群馬県,前橋市,古市町２１０番地３,,10,201,3710844,,,2025-07-01,合併による解散等,2070001005915,令和７年７月１日群馬県前橋市古市町２１０番地３株式会社ＣＳテクノ（2070001005915）に合併し解散,2015-10-05,1,,,,,データシステム,0
593,3120001235150,登記記録の閉鎖等,0,2025-07-11,2025-06-30,株式会社ジニア,,株式会社,大阪府,大阪市中央区,南本町２丁目３番１２号ＥＤＧＥ本町３階,,27,128,5410054,,,2025-06-30,清算の結了等,,,2021-02-09,1,,,,,ジニア,0
594,3120001247666,登記記録の閉鎖等,0,2025-07-11,2025-07-01,株式会社Ｓａｉ,,株式会社,大阪府,大阪市西区,川口２丁目３番２６－８０６号,,27,106,5500021,,,2025-07-01,合併による解散等,4120001243763,令和７年７月１日大阪市福島区福島一丁目４番４－２Ａ号ＳＴＡ株式会社（4120001243763）に合併し解散,2022-07-29,1,,,,,サイ,0
610,3120101022390,登記記録の閉鎖等,0,2025-07-11,2025-07-02,株式会社ＩＮＬ,,株式会社,大阪府,堺市北区,百舌鳥本町１丁２２番地の３,,27,146,5918036,,,2025-07-02,清算の結了等,,,2015-10-05,1,,,,,アイエヌエル,0
611,3120101045400,登記記録の閉鎖等,0,2025-07-11,2025-06-30,株式会社イナーヴ・ジャパン,,株式会社,大阪府,和泉市,室堂町７９０番地の８,,27,219,5941101,,,2025-06-30,清算の結了等,,,2015-10-05,1,,,,,イナーヴジャパン,0
641,3180002075359,登記記録の閉鎖等,0,2025-07-11,2025-06-27,有限会社よしみ,,有限会社,愛知県,犬山市,大字塔野地字東浦９２番地２,,23,215,4840094,,,2025-06-27,清算の結了等,,,2015-10-05,1,,,,,ヨシミ,0
642,3180002091769,登記記録の閉鎖等,0,2025-07-11,2025-06-27,株式会社ＳＵＭＩＣＡ,,株式会社,愛知県,北名古屋市,九之坪梅田７０番地,,23,234,4810041,,,2025-06-27,清算の結了等,,,2015-10-05,1,,,,,スミカ,0
668,3280005000551,登記記録の閉鎖等,0,2025-07-11,2025-07-03,医療法人社団正心会,,その他の設立登記法人,島根県,松江市,下東川津町２５１番地１,,32,201,6900822,,,2025-07-03,清算の結了等,,,2015-10-05,1,,,,,セイシンカイ,0
669,3280005005583,登記記録の閉鎖等,0,2025-07-11,2025-07-03,特定非営利活動法人地域活動支援センターよしかの里,,その他の設立登記法人,島根県,鹿足郡吉賀町,六日市２６３番地２,,32,505,6995513,,,2025-07-03,清算の結了等,,,2015-10-05,1,,,,,チイキカツドウシエンセンターヨシカノサト,0
674,3290002020980,登記記録の閉鎖等,0,2025-07-11,2025-06-26,有限会社タンパ,,有限会社,福岡県,福岡市博多区,金の隈３丁目１１番２４号,,40,132,8120863,,,2025-06-26,清算の結了等,,,2015-10-05,1,,,,,タンパ,0
699,3400002004996,登記記録の閉鎖等,0,2025-07-11,2025-06-26,有限会社オフィスサービス,,有限会社,岩手県,盛岡市,上堂１丁目１９番８４号,,03,201,0200125,,,2025-06-26,清算の結了等,,,2015-10-05,1,,,,,オフィスサービス,0
703,3410002006158,登記記録の閉鎖等,0,2025-07-11,2025-07-07,有限会社カーショップ三浦,,有限会社,秋田県,男鹿市,男鹿中滝川字三ツ森下台２１５番地１,,05,206,0100663,,,2025-07-07,清算の結了等,,,2015-10-05,1,,,,,カーショップミウラ,0
704,3430001056474,登記記録の閉鎖等,0,2025-07-11,2025-06-30,橋本建設株式会社,,株式会社,北海道,虻田郡洞爺湖町,洞爺町５６番地の５,,01,584,0495802,,,2025-06-30,清算の結了等,,,2015-10-05,1,,,,,ハシモトケンセツ,0
718,4010001238493,登記記録の閉鎖等,0,2025-07-11,2025-07-02,株式会社テクノテックホールディング,,株式会社,東京都,文京区,本郷３丁目６番６号,,13,105,1130033,,,2025-07-02,合併による解散等,1010001005079,令和７年７月１日東京都文京区本郷三丁目６番６号株式会社テクノテック（1010001005079）に合併し解散,2023-09-15,1,,,,,テクノテックホールディング,0
721,4010003036846,登記記録の閉鎖等,0,2025-07-11,2025-06-20,市谷砂土原町１丁目プロジェクト合同会社,,合同会社,東京都,千代田区,丸の内２丁目３番２号,,13,101,1000005,,,2025-06-20,清算の結了等,,,2022-01-25,1,,,,,イチガヤサドハラチョウイッチョウメプロジェクト,0
726,4010401081972,登記記録の閉鎖等,0,2025-07-11,2025-07-01,ＳＯＮ　Ｃａｐｉｔａｌ　Ｐａｒｔｎｅｒｓ合同会社,,合同会社,東京都,中央区,東日本橋２丁目２６番１７号,,13,102,1030004,,,2025-07-01,合併による解散等,6010401064050,令和７年７月１日東京都中央区東日本橋二丁目２６番１７号ＳＯＮ　Ｆｉｎａｎｃｉａｌ合同会社（6010401064050）に合併し解散,2015-10-05,1,,,,,ソンキャピタルパートナーズ,0
731,4010503006877,登記記録の閉鎖等,0,2025-07-11,2025-06-24,合同会社ＭＳＫ,,合同会社,東京都,台東区,三筋１丁目１５番７号ＣＯＮＭＯＴＯＭＩＫＵＮＩ２０１,,13,106,1110055,,,2025-06-24,清算の結了等,,,2023-02-07,1,,,,,エムエスケー,0
732,4010601007637,登記記録の閉鎖等,0,2025-07-11,2025-07-01,五興運輸株式会社,,株式会社,東京都,江東区,永代１丁目１３番６号,,13,108,1350034,,,2025-07-01,清算の結了等,,,2015-10-05,1,,,,,ゴコウウンユ,0
733,4010601040976,登記記録の閉鎖等,0,2025-07-11,2025-07-01,みずほトラストビジネスオペレーションズ株式会社,,株式会社,東京都,江東区,佐賀１丁目１７番７号,,13,108,1350031,,,2025-07-01,清算の結了等,,,2015-10-05,1,,,,,ミズホトラストビジネスオペレーションズ,0
737,4010801026049,登記記録の閉鎖等,0,2025-07-11,2025-07-03,株式会社深井製作所,,株式会社,東京都,大田区,東蒲田２丁目３０番６号,,13,111,1440031,,,2025-07-03,清算の結了等,,,2015-10-05,1,,,,,フカイセイサクショ,0
753,4011101080216,登記記録の閉鎖等,0,2025-07-11,2025-06-18,株式会社アーバンシー,,株式会社,東京都,杉並区,上井草１丁目２８番４号,,13,115,1670023,,,2025-06-18,清算の結了等,,,2017-04-17,1,,,,,アーバンシー,0
757,4011201019213,登記記録の閉鎖等,0,2025-07-11,2025-06-23,ＪＩＮ株式会社,,株式会社,東京都,新宿区,西新宿３丁目９番７号ＢＩＺＳＭＡＲＴ西新宿２２６号,,13,104,1600023,,,2025-06-23,清算の結了等,,,2016-07-12,1,,,,,ジン,0
764,4011305002346,登記記録の閉鎖等,0,2025-07-11,2025-07-07,一般社団法人生きにくさを抱えた障害者等の支援者ネットワーク,,その他の設立登記法人,東京都,八王子市,千人町２丁目１４番１号,,13,201,1930835,,,2025-07-07,清算の結了等,,,2016-10-07,1,,,,,イキニクサヲカカエタショウガイシャトウノシエンシャネットワーク,0
767,4011601027798,登記記録の閉鎖等,0,2025-07-11,2025-07-03,京耀株式会社,,株式会社,埼玉県,所沢市,大字山口９４０番地２,,11,208,3591145,,,2025-07-03,清算の結了等,,,2024-06-10,1,,,,,キョウヨウ,0
772,4011702000365,登記記録の閉鎖等,0,2025-07-11,2025-07-01,有限会社秋元毛皮,,有限会社,東京都,江戸川区,北小岩７丁目１７番１５号,,13,123,1330051,,,2025-07-01,清算の結了等,,,2015-10-05,1,,,,,アキモトケガワ,0
779,4012702004901,登記記録の閉鎖等,0,2025-07-11,2025-07-01,有限会社マキシムジェイ・アンド・エム,,有限会社,東京都,西東京市,ひばりが丘北３丁目４番１１号,,13,229,2020002,,,2025-07-01,清算の結了等,,,2015-10-05,1,,,,,マキシムジェイアンドエム,0
782,4013101009129,登記記録の閉鎖等,0,2025-07-11,2025-06-03,株式会社永興,,株式会社,東京都,羽村市,川崎１丁目１番５号ＭＡＣ羽村コートＩＩ３０４,00129714,13,227,2050021,,,2025-06-03,清算の結了等,,,2023-03-10,1,,,,,エイコウ,0
804,4030002082600,登記記録の閉鎖等,0,2025-07-11,2025-07-03,有限会社河野ニット,,有限会社,埼玉県,鴻巣市,登戸２８０番地の３,,11,217,3650052,,,2025-07-03,清算の結了等,,,2015-10-05,1,,,,,コウノニット,0
808,4040001100213,登記記録の閉鎖等,0,2025-07-11,2025-07-03,株式会社キッズグロウ,,株式会社,埼玉県,川口市,青木３丁目２６－１６,,11,203,3320031,,,2025-07-03,清算の結了等,,,2017-05-25,1,,,,,キッズグロウ,0
857,4130001073268,登記記録の閉鎖等,0,2025-07-11,2025-07-08,株式会社Ｍ’ｓ,,株式会社,京都府,京都市東山区,一橋野本町１０５番地１３,,26,105,6050995,,,2025-07-08,清算の結了等,,,2022-12-13,1,,,,,エムズ,0
877,4180302003530,登記記録の閉鎖等,0,2025-07-11,2025-07-02,有限会社丸廣,,有限会社,愛知県,額田郡幸田町,大字菱池字欠間３２番地１,,23,501,4440113,,,2025-07-02,清算の結了等,,,2015-10-05,1,,,,,マルヒロ,0
878,4180302016937,登記記録の閉鎖等,0,2025-07-11,2025-07-02,有限会社電化のヨシムラ,,有限会社,愛知県,安城市,美園町１丁目１番地１,,23,212,4460076,,,2025-07-02,清算の結了等,,,2015-10-05,1,,,,,デンカノヨシムラ,0
880,4200002009486,登記記録の閉鎖等,0,2025-07-11,2025-07-03,有限会社サンテクノ,,有限会社,岐阜県,瑞穂市,別府１２４２番地の２,,21,216,5010222,,,2025-07-03,清算の結了等,,,2015-10-05,1,,,,,サンテクノ,0
881,4200002018405,登記記録の閉鎖等,0,2025-07-11,2025-07-02,有限会社アンドウデザイン,,有限会社,岐阜県,関市,山田１０６２番地の５,,21,205,5013944,,,2025-07-02,清算の結了等,,,2015-10-05,1,,,,,アンドウデザイン,0
891,4250001014945,登記記録の閉鎖等,0,2025-07-11,2025-07-04,株式会社やまうち,,株式会社,山口県,美祢市,大嶺町西分１６８１番地,,35,213,7592213,,,2025-07-04,清算の結了等,,,2015-10-05,1,,,,,ヤマウチ,0
922,4370001042166,登記記録の閉鎖等,0,2025-07-11,2025-06-30,株式会社農墾,,株式会社,宮城県,加美郡加美町,字原町桜檀２２番地３,,04,445,9814373,,,2025-06-30,清算の結了等,,,2017-10-16,1,,,,,ノウコン,0
923,4370001045301,登記記録の閉鎖等,0,2025-07-11,2025-06-30,株式会社アゼットハウス,,株式会社,宮城県,仙台市若林区,大和町３丁目２番５号グローバルビル３階北側,,04,103,9840042,,,2025-06-30,清算の結了等,,,2020-01-20,1,,,,,アゼットハウス,0
925,4370301000914,登記記録の閉鎖等,0,2025-07-11,2025-06-30,東邦エンジニアリング株式会社,,株式会社,宮城県,石巻市,中浦２丁目１番１３５号,,04,202,9860847,,,2025-06-30,清算の結了等,,,2015-10-05,1,,,,,,0
926,4380001034484,登記記録の閉鎖等,0,2025-07-11,2025-07-01,株式会社くすりのマルト医療福祉協会,,株式会社,福島県,いわき市,勿来町窪田十条３番１,,07,204,9790141,,,2025-07-01,合併による解散等,9380001012766,令和７年７月１日福島県いわき市勿来町窪田十条３番１株式会社くすりのマルト（9380001012766）に合併し解散,2024-04-23,1,,,,,クスリノマルトイリョウフクシキョウカイ,0
934,4460001004743,登記記録の閉鎖等,0,2025-07-11,2025-07-08,環和建設株式会社,,株式会社,北海道,釧路市,治水町６番１３０１号,,01,206,0850055,,,2025-07-08,清算の結了等,,,2015-10-05,1,,,,,カンワケンセツ,0
950,5010001192509,登記記録の閉鎖等,0,2025-07-11,2025-07-08,株式会社ＥＤＵＰＬＡ,,株式会社,東京都,千代田区,神田駿河台４丁目４番地５駿河台スピックビル,,13,101,1010062,,,2025-07-08,合併による解散等,1030001002669,令和７年６月３０日埼玉県さいたま市浦和区常盤九丁目１９番１０号株式会社こうゆう（1030001002669）に合併し解散,2018-06-13,1,,,,,エデュプラ,0
994,5011102010567,登記記録の閉鎖等,0,2025-07-11,2025-06-23,有限会社ビクトリー,,有限会社,東京都,新宿区,新宿１丁目１８番１７号,,13,104,1600022,,,2025-06-23,清算の結了等,,,2015-10-05,1,,,,,ビクトリー,0
1005,5011703002269,登記記録の閉鎖等,0,2025-07-11,2025-07-01,合同会社ＷＨＯ’Ｓ　ＴＥＡ　ＪＡＰＡＮ,,合同会社,東京都,千代田区,神田錦町２丁目５番１６号,,13,101,1010054,,,2025-07-01,合併による解散等,6010001152957,令和７年７月１日東京都千代田区神田錦町二丁目５番１６号株式会社ＳＭＩＬＥ　ＷＨＯ’Ｓ（6010001152957）に合併し解散,2019-05-23,1,,,,,フーズティジャパン,0
1030,5030001082609,登記記録の閉鎖等,0,2025-07-11,2025-07-03,株式会社アトム・コーポレーション,,株式会社,埼玉県,川口市,戸塚東４丁目１番５号,,11,203,3330802,,,2025-07-03,清算の結了等,,,2015-10-05,1,,,,,アトムコーポレーション,0
1042,5040002010352,登記記録の閉鎖等,0,2025-07-11,2025-06-27,有限会社平和,,有限会社,千葉県,千葉市中央区,栄町１８番２号,,12,101,2600016,,,2025-06-27,清算の結了等,,,2015-10-05,1,,,,,ヘイワ,0
1043,5040002045167,登記記録の閉鎖等,0,2025-07-11,2025-06-26,有限会社河合商店,,有限会社,千葉県,松戸市,松戸１８３２番地,,12,207,2710092,,,2025-06-26,清算の結了等,,,2015-10-05,1,,,,,カワイショウテン,0
1054,5060002024078,登記記録の閉鎖等,0,2025-07-11,2025-07-01,有限会社シマ興業,,有限会社,栃木県,那須塩原市,下永田４丁目４番地６１５,,09,213,3292712,,,2025-07-01,清算の結了等,,,2015-10-05,1,,,,,シマコウギョウ,0
1090,5140002018468,登記記録の閉鎖等,0,2025-07-11,2025-07-03,有限会社山田工務店,,有限会社,兵庫県,神戸市東灘区,深江北町３丁目１０番２３－１０１号,,28,101,6580013,,,2025-07-03,清算の結了等,,,2015-10-05,1,,,,,ヤマダコウムテン,0
1093,5160001015844,登記記録の閉鎖等,0,2025-07-11,2025-07-01,日通滋賀運輸株式会社,,株式会社,滋賀県,野洲市,上屋字北川１４４番地５,,25,210,5202316,,,2025-07-01,清算の結了等,,,2015-10-05,1,,,,,ニッツウシガウンユ,0
1096,5180001136283,登記記録の閉鎖等,0,2025-07-11,2025-06-27,株式会社ｃｏｍ－ｍｉｔ．,,株式会社,愛知県,名古屋市北区,山田北町１丁目２２番地の３,,23,103,4620811,,,2025-06-27,清算の結了等,,,2019-04-25,1,,,,,コミット,0
1104,5180302010204,登記記録の閉鎖等,0,2025-07-11,2025-06-30,有限会社森岡製作所,,有限会社,愛知県,豊橋市,多米中町１丁目１１番地の８,,23,201,4400027,,,2025-06-30,清算の結了等,,,2015-10-05,1,,,,,モリオカセイサクショ,0
1119,5240001020877,登記記録の閉鎖等,0,2025-07-11,2025-07-04,株式会社ベルトラスト,,株式会社,広島県,広島市南区,仁保新町１丁目７番９－２０７号,,34,103,7340024,,,2025-07-04,清算の結了等,,,2015-10-05,1,,,,,ベルトラスト,0
1124,5240005002343,登記記録の閉鎖等,0,2025-07-11,2025-07-03,広島生花出荷協同組合,,その他の設立登記法人,広島県,広島市西区,草津港１丁目８番１号,,34,104,7330832,,,2025-07-03,清算の結了等,,,2015-10-05,1,,,,,ヒロシマセイカシュッカ,0
1145,5340002004209,登記記録の閉鎖等,0,2025-07-11,2025-06-30,有限会社アトラス,,有限会社,鹿児島県,鹿児島市,吉野町４９９６番地,,46,201,8920871,,,2025-06-30,清算の結了等,,,2015-10-05,1,,,,,アトラス,0
1146,5350001011659,登記記録の閉鎖等,0,2025-07-11,2025-06-30,株式会社スタジオインク,,株式会社,宮崎県,宮崎市,大字島之内９２１３番地１４９,,45,201,8800121,,,2025-06-30,清算の結了等,,,2015-10-05,1,,,,,スタジオインク,0
1147,5350002014099,登記記録の閉鎖等,0,2025-07-11,2025-07-01,有限会社ケイ,,有限会社,宮崎県,都城市,都原町８１４８番地１,,45,202,8850094,,,2025-07-01,清算の結了等,,,2015-10-05,1,,,,,ケイ,0
1149,5360001024949,登記記録の閉鎖等,0,2025-07-11,2025-07-02,株式会社Ｓｍａｒｔ　Ｄｅｌｉ,,株式会社,東京都,品川区,西品川２丁目２番４０号,,13,109,1410033,,,2025-07-02,清算の結了等,,,2018-12-05,1,,,,,スマートデリ,0
1158,5370102000550,登記記録の閉鎖等,0,2025-07-11,2025-06-26,有限会社マコト商会,,有限会社,宮城県,柴田郡大河原町,字南２０番地の２,,04,321,9891243,,,2025-06-26,清算の結了等,,,2015-10-05,1,,,,,マコトショウカイ,0
1163,5400001005481,登記記録の閉鎖等,0,2025-07-11,2025-06-26,株式会社花巻保険センター,,株式会社,岩手県,花巻市,上小舟渡２４番地１,,03,205,0250062,,,2025-06-26,清算の結了等,,,2015-10-05,1,,,,,ハナマキホケンセンター,0
1177,5460101005021,登記記録の閉鎖等,0,2025-07-11,2025-07-04,Ｌｏｆｔｙ　ｃｈａｌｌｅｎｇｅ　ｄｒｅａｍ　ｗｏｒｌｄ　Ｈ・Ｋｓ株式会社,,株式会社,北海道,広尾郡大樹町,字中島１８２番地２,,01,641,0892122,,,2025-07-04,清算の結了等,,,2015-10-05,1,,,,,ロフティチャレンジドリームワールドエイチケーズ,0
1178,5470001017198,登記記録の閉鎖等,0,2025-07-11,2025-07-02,二王株式会社,,株式会社,香川県,木田郡三木町,大字平木２６４番地２,,37,341,7610702,,,2025-07-02,清算の結了等,,,2018-12-17,1,,,,,ニオウ,0
1183,5500002016996,登記記録の閉鎖等,0,2025-07-11,2025-07-01,有限会社東屋商店,,有限会社,愛媛県,新居浜市,喜光地町２丁目５番３号,,38,205,7920826,,,2025-07-01,清算の結了等,,,2015-10-05,1,,,,,ヒガシヤショウテン,0
1185,6010001067379,登記記録の閉鎖等,0,2025-07-11,2025-07-08,株式会社エッセンシャル出版社,,株式会社,東京都,中央区,日本橋小伝馬町７番１０号,,13,102,1030001,,,2025-07-08,合併による解散等,1030001002669,令和７年６月３０日埼玉県さいたま市浦和区常盤九丁目１９番１０号株式会社こうゆう（1030001002669）に合併し解散,2015-10-05,1,,,,,エッセンシャルシュッパンシャ,0
1190,6010001223270,登記記録の閉鎖等,0,2025-07-11,2025-06-19,株式会社ＤＳＧ,,株式会社,東京都,文京区,本郷４丁目１４番１０号,,13,105,1130033,,,2025-06-19,清算の結了等,,,2021-12-15,1,,,,,ディーエスジー,0
1217,6010903005857,登記記録の閉鎖等,0,2025-07-11,2025-07-02,合同会社湘南プロパティーズ,,合同会社,東京都,世田谷区,玉川３丁目１５番１２－２０８号,,13,112,1580094,,,2025-07-02,合併による解散等,9010401121220,令和７年７月１日東京都世田谷区玉川三丁目１５番１２－２０８号株式会社グリーン・キャピタル（9010401121220）に合併し解散,2020-07-30,1,,,,,ショウナンプロパティーズ,0
1224,6011001163993,登記記録の閉鎖等,0,2025-07-11,2025-06-11,株式会社ａｍｖｉｓｉｏｎ,,株式会社,東京都,渋谷区,神宮前４丁目３０－３東急プラザ表参道「オモカド」５Ｆ,,13,113,1500001,,,2025-06-11,清算の結了等,,,2024-08-22,1,,,,,アンビジョン,0
1262,6020002039252,登記記録の閉鎖等,0,2025-07-11,2025-07-02,有限会社ティーエムサービス,,有限会社,神奈川県,横浜市鶴見区,鶴見中央３丁目１０番２６－４１４号,,14,101,2300051,,,2025-07-02,清算の結了等,,,2015-10-05,1,,,,,ティーエムサービス,0
1273,6030001072360,登記記録の閉鎖等,0,2025-07-11,2025-07-03,株式会社マツヤマ,,株式会社,埼玉県,東松山市,大字松山２６０７番地,,11,212,3550005,,,2025-07-03,清算の結了等,,,2015-10-05,1,,,,,マツヤマ,0
1307,6080102003929,登記記録の閉鎖等,0,2025-07-11,2025-07-08,有限会社服部製作所,,有限会社,静岡県,沼津市,戸田７９５番地の１,,22,203,4103402,,,2025-07-08,合併による解散等,7080001016948,令和７年７月１日静岡県藤枝市潮４６２番地の１株式会社サンテル（7080001016948）に合併し解散,2015-10-05,1,,,,,ハットリセイサクショ,0
1315,6100001000314,登記記録の閉鎖等,0,2025-07-11,2025-07-07,株式会社ヴオーグ,,株式会社,長野県,長野市,大字鶴賀七瀬４０９番地２モダンイースト１０１号室,,20,201,3800906,,,2025-07-07,清算の結了等,,,2015-10-05,1,,,,,ヴオーグ,0
1324,6120001097299,登記記録の閉鎖等,0,2025-07-11,2025-07-08,株式会社セルク,,株式会社,奈良県,奈良市,鳥見町２丁目８番地の３,,29,201,6310065,,,2025-07-08,清算の結了等,,,2015-10-05,1,,,,,セルク,0
1358,6140001096935,登記記録の閉鎖等,0,2025-07-11,2025-07-03,株式会社エコリングパテント,,株式会社,兵庫県,高砂市,阿弥陀町南池４５２番地の２,,28,216,6760824,,,2025-07-03,清算の結了等,,,2015-10-05,1,,,,,エコリングパテント,0
1375,6180002066529,登記記録の閉鎖等,0,2025-07-11,2025-06-27,有限会社高崎測量設計社,00073307,有限会社,愛知県,春日井市,岩成台８丁目３番地の６,,23,206,4870033,,,2025-06-27,清算の結了等,,,2015-10-05,1,,,,,タカサキソクリョウセッケイシャシャ,0
1376,6180002088358,登記記録の閉鎖等,0,2025-07-11,2025-06-27,有限会社縄錠紙器,,有限会社,愛知県,知多市,八幡字里之前２番地,,23,224,4780001,,,2025-06-27,清算の結了等,,,2015-10-05,1,,,,,ナワジョウシキ,0
1378,6180005019756,登記記録の閉鎖等,0,2025-07-11,2025-06-27,一般社団法人ＳＤＧｓ振興会,,その他の設立登記法人,愛知県,名古屋市中区,三の丸１丁目１４番７号本丸ビル４階,,23,106,4600001,,,2025-06-27,清算の結了等,,,2022-04-28,1,,,,,エスディージーズシンコウカイ,0
1386,6200001015236,登記記録の閉鎖等,0,2025-07-11,2025-06-30,株式会社ビジネスアーキテクト総合研究所,,株式会社,岐阜県,大垣市,今宿６丁目５２番地１８,,21,202,5030807,,,2025-06-30,清算の結了等,,,2015-10-05,1,,,,,ビジネスアーキテクトソウゴウケンキュウジョ,0
1395,6240002037779,登記記録の閉鎖等,0,2025-07-11,2025-07-03,有限会社ミナミ,,有限会社,広島県,大竹市,玖波２丁目１０番１５号,,34,211,7390651,,,2025-07-03,清算の結了等,,,2015-10-05,1,,,,,ミナミ,0
1418,6340001018118,登記記録の閉鎖等,0,2025-07-11,2025-06-25,株式会社ＢＮＦ,,株式会社,新潟県,南魚沼市,吉里８１１番地３,,15,226,9496402,,,2025-06-25,清算の結了等,,,2015-10-05,1,,,,,ビーエヌエフ,0
1430,6350005005508,登記記録の閉鎖等,0,2025-07-11,2025-06-30,特定非営利活動法人日本航海協会,,その他の設立登記法人,宮崎県,日向市,大字富高６２８５－１８,,45,206,8830034,,,2025-06-30,清算の結了等,,,2015-10-05,1,,,,,ニッポンコウカイキョウカイ,0
1437,6370002018246,登記記録の閉鎖等,0,2025-07-11,2025-06-30,有限会社アコンプリシュ,,有限会社,宮城県,仙台市青葉区,八幡７丁目１８番２５－３０１号,,04,101,9800871,,,2025-06-30,清算の結了等,,,2015-10-05,1,,,,,アコンプリシュ,0
1438,6370602002285,登記記録の閉鎖等,0,2025-07-11,2025-06-30,有限会社ビー・ピース・フル,,有限会社,宮城県,仙台市泉区,鶴が丘３丁目１４番地の２０,,04,105,9813109,,,2025-06-30,清算の結了等,,,2015-10-05,1,,,,,ビーピースフル,0
1445,6410001005678,登記記録の閉鎖等,0,2025-07-11,2025-07-07,株式会社秋田電設,,株式会社,秋田県,湯沢市,小野字油屋敷１５番地,,05,207,0190205,,,2025-07-07,合併による解散等,2010101002537,令和７年７月１日東京都八王子市元横山町一丁目１２番５号株式会社電設（2010101002537）に合併し解散,2015-10-05,1,,,,,アキタデンセツ,0
1447,6450002009212,登記記録の閉鎖等,0,2025-07-11,2025-07-07,富良野保険サービス株式会社,,株式会社,北海道,富良野市,日の出町４番２号,,01,229,0760025,,,2025-07-07,清算の結了等,,,2015-10-05,1,,,,,フラノホケンサービス,0
1472,7010003034426,登記記録の閉鎖等,0,2025-07-11,2025-06-20,平川門管理合同会社,,合同会社,東京都,千代田区,丸の内１丁目４番１号東京共同会計事務所内,,13,101,1000005,,,2025-06-20,清算の結了等,,,2021-03-17,1,,,,,ヒラカワモンカンリ,0
1473,7010003035713,登記記録の閉鎖等,0,2025-07-11,2025-06-20,ＶＥＲＥＤ１合同会社,,合同会社,東京都,中央区,八丁堀４丁目２番１０号ＡＯＪ税理士法人内,,13,102,1040032,,,2025-06-20,清算の結了等,,,2021-09-06,1,,,,,ヴェレッドワン,0
1474,7010003042957,登記記録の閉鎖等,0,2025-07-11,2025-06-20,松原２丁目プロジェクト合同会社,,合同会社,東京都,千代田区,丸の内２丁目３番２号,,13,101,1000005,,,2025-06-20,清算の結了等,,,2024-02-19,1,,,,,マツバラニチョウメプロジェクト,0
1480,7010101003407,登記記録の閉鎖等,0,2025-07-11,2025-07-01,株式会社フォーライフ不動産企画,,株式会社,東京都,八王子市,清川町１４番地の１,,13,201,1930804,,,2025-07-01,清算の結了等,,,2015-10-05,1,,,,,フォーライフフドウサンキカク,0
1499,7010601009969,登記記録の閉鎖等,0,2025-07-11,2025-07-02,梶産業株式会社,,株式会社,東京都,墨田区,本所３丁目１３番２号,,13,107,1300004,,,2025-07-02,清算の結了等,,,2015-10-05,1,,,,,カジサンギョウ,0
1521,7011702009247,登記記録の閉鎖等,0,2025-07-11,2025-07-01,有限会社はつとり無線,,有限会社,東京都,江戸川区,平井５丁目２５番７号,,13,123,1320035,,,2025-07-01,清算の結了等,,,2015-10-05,1,,,,,ハツトリムセン,0
1529,7013201012112,登記記録の閉鎖等,0,2025-07-11,2025-07-07,株式会社サバラン,,株式会社,東京都,中野区,東中野５丁目８番９－３０９号,,13,114,1640003,,,2025-07-07,清算の結了等,,,2015-10-05,1,,,,,サバラン,0
1542,7030001099205,登記記録の閉鎖等,0,2025-07-11,2025-07-01,株式会社るうぷ,,株式会社,埼玉県,大里郡寄居町,大字桜沢６９１番地６,,11,408,3691202,,,2025-07-01,合併による解散等,1030001033549,令和７年６月２６日埼玉県加須市砂原２８７番地１ウイステリア株式会社（1030001033549）に合併し解散,2015-10-05,1,,,,,ルウプ,0
1555,7040003022873,登記記録の閉鎖等,0,2025-07-11,2025-06-25,輪工合同会社,,合同会社,千葉県,木更津市,請西東２丁目１３番地１５,,12,206,2920806,,,2025-06-25,清算の結了等,,,2023-07-03,1,,,,,リンク,0
1577,7080102016509,登記記録の閉鎖等,0,2025-07-11,2025-07-03,有限会社エムウエル,,有限会社,静岡県,富士宮市,宮町１０番１６号,,22,207,4180067,,,2025-07-03,清算の結了等,,,2015-10-05,1,,,,,エムウエル,0
1581,7100001022464,登記記録の閉鎖等,0,2025-07-11,2025-07-07,株式会社サンフード,,株式会社,長野県,飯田市,松川町２２５１番地１,,20,205,3950074,,,2025-07-07,清算の結了等,,,2015-10-05,1,,,,,サンフード,0
1589,7120001064926,登記記録の閉鎖等,0,2025-07-11,2025-06-30,株式会社システムカラー,,株式会社,大阪府,大阪市北区,西天満５丁目１番１９号,,27,127,5300047,,,2025-06-30,清算の結了等,,,2015-10-05,1,,,,,システムカラー,0
1621,7130001069123,登記記録の閉鎖等,0,2025-07-11,2025-07-08,株式会社正旺,,株式会社,京都府,京都市南区,西九条蔵王町６２番地,,26,107,6018414,,,2025-07-08,清算の結了等,,,2021-04-16,1,,,,,,0
1633,7180002073747,登記記録の閉鎖等,0,2025-07-11,2025-06-27,有限会社ライフモア,,有限会社,愛知県,尾張旭市,緑町緑ケ丘１００番地１２２,,23,226,4880822,,,2025-06-27,清算の結了等,,,2015-10-05,1,,,,,ライフモア,0
1636,7180302023988,登記記録の閉鎖等,0,2025-07-11,2025-07-01,有限会社石川サービス,,有限会社,愛知県,みよし市,三好町湯ノ気３４番地,,23,236,4700224,,,2025-07-01,清算の結了等,,,2015-10-05,1,,,,,イシカワサービス,0
1637,7190002018866,登記記録の閉鎖等,0,2025-07-11,2025-06-30,有限会社フクマルトレード,,有限会社,三重県,桑名市,立花町１丁目２１番地２,,24,205,5110828,,,2025-06-30,清算の結了等,,,2015-10-05,1,,,,,フクマルトレード,0
1654,7280005003245,登記記録の閉鎖等,0,2025-07-11,2025-07-07,医療法人山田皮膚科医院,,その他の設立登記法人,島根県,出雲市,大社町修理免５８０番地１,,32,203,6990721,,,2025-07-07,清算の結了等,,,2015-10-05,1,,,,,ヤマダヒフカイイン,0
1657,7290001109870,登記記録の閉鎖等,0,2025-07-11,2025-07-01,株式会社トライアル九重管理,,株式会社,福岡県,福岡市東区,多の津１丁目１２番２号,,40,131,8130034,,,2025-07-01,合併による解散等,4330001025364,令和７年６月３０日福岡市東区多の津一丁目１２番２号株式会社トライアルゴルフ＆リゾート（4330001025364）に合併し解散,2025-05-02,1,,,,,トライアルココノエカンリ,0
1660,7290002029820,登記記録の閉鎖等,0,2025-07-11,2025-06-25,有限会社ウィルカンパニー,,有限会社,福岡県,福岡市西区,福重５丁目３－５,,40,135,8190022,,,2025-06-25,清算の結了等,,,2015-10-05,1,,,,,ウィルカンパニー,0
1664,7290803003098,登記記録の閉鎖等,0,2025-07-11,2025-07-01,Ｋ１０５合同会社,,合同会社,福岡県,北九州市小倉南区,田原新町１丁目１３番２号,,40,107,8000226,,,2025-07-01,合併による解散等,4290801006460,令和７年７月１日北九州市小倉南区田原新町一丁目１３番２号スピードネットワーク株式会社（4290801006460）に合併し解散,2018-04-09,1,,,,,ケイイチマルゴ,0
1685,7400001005174,登記記録の閉鎖等,0,2025-07-11,2025-06-25,株式会社ミルハウス,,株式会社,岩手県,盛岡市,本町通１丁目７番４号,,03,201,0200015,,,2025-06-25,清算の結了等,,,2015-10-05,1,,,,,ミルハウス,0
1687,7400002001461,登記記録の閉鎖等,0,2025-07-11,2025-07-09,有限会社サン不動産,,有限会社,岩手県,盛岡市,加賀野１丁目１番２５－１０１号,,03,201,0200807,,,2025-07-09,清算の結了等,,,2015-10-05,1,,,,,サンフドウサン,0
1691,7410001004068,登記記録の閉鎖等,0,2025-07-11,2025-07-07,株式会社三久,,株式会社,秋田県,男鹿市,脇本脇本字打ケ崎６１番地の２０,,05,206,0100342,,,2025-07-07,清算の結了等,,,2015-10-05,1,,,,,サンキュウ,0
1696,7430002023016,登記記録の閉鎖等,0,2025-07-11,2025-06-30,有限会社サンワサービス,,有限会社,北海道,札幌市北区,新琴似四条１５丁目２番１８号,,01,102,0010904,,,2025-06-30,清算の結了等,,,2015-10-05,1,,,,,サンワサービス,0
1697,7430002064150,登記記録の閉鎖等,0,2025-07-11,2025-06-30,有限会社興和企業,,有限会社,北海道,室蘭市,中島町２丁目１７番１５号第２小がねビル１Ｆ,,01,205,0500074,,,2025-06-30,清算の結了等,,,2015-10-05,1,,,,,コウワキギョウ,0
1700,7460105002104,登記記録の閉鎖等,0,2025-07-11,2025-07-04,一般社団法人ほっかいどう十勝ベースボールクラブ,,その他の設立登記法人,北海道,河西郡芽室町,東めむろ三条南１丁目１番地３,,01,637,0820813,,,2025-07-04,清算の結了等,,,2016-06-07,1,,,,,ホッカイドウトカチベースボールクラブ,0
1746,8010801020444,登記記録の閉鎖等,0,2025-07-11,2025-07-02,株式会社グラート,,株式会社,東京都,大田区,仲六郷１丁目３５番７号,,13,111,1440055,,,2025-07-02,清算の結了等,,,2015-10-05,1,,,,,グラート,0
1749,8011001154710,登記記録の閉鎖等,0,2025-07-11,2025-07-10,株式会社リクロマート,,株式会社,東京都,世田谷区,野沢２丁目３４－６ビルディングオグラ３階,,13,112,1540003,,,2025-07-10,合併による解散等,1010001102487,令和７年６月１日東京都渋谷区神宮前三丁目２１番１７号株式会社オズビジョン（1010001102487）に合併し解散,2023-05-30,1,,,,,リクロマート,0
1761,8011101068232,登記記録の閉鎖等,0,2025-07-11,2025-06-23,加茂株式会社,,株式会社,東京都,新宿区,若松町２５番１７号ウイン新宿若松町７０２号室,,13,104,1620056,,,2025-06-23,清算の結了等,,,2015-10-05,1,,,,,カモ,0
1786,8013101006626,登記記録の閉鎖等,0,2025-07-11,2025-07-07,株式会社ハイアンドミィマネジメント,,株式会社,東京都,青梅市,師岡町３丁目１９番地の８,,13,205,1980031,,,2025-07-07,清算の結了等,,,2015-10-05,1,,,,,ハイアンドミィマネジメント,0
1787,8020001077598,登記記録の閉鎖等,0,2025-07-11,2025-06-30,株式会社ビッグウィリージャパン,,株式会社,神奈川県,川崎市多摩区,長沢２丁目１１番２０号,,14,135,2140035,,,2025-06-30,清算の結了等,,,2015-10-05,1,,,,,ビッグウィリージャパン,0
1788,8020001151790,登記記録の閉鎖等,0,2025-07-11,2025-07-02,株式会社ＬＭＲ,,株式会社,神奈川県,横浜市中区,日本大通７番地合人社横浜日本大通７ビル４階,,14,104,2310021,,,2025-07-02,清算の結了等,,,2023-05-29,1,,,,,エルエムアール,0
1794,8020002075106,登記記録の閉鎖等,0,2025-07-11,2025-06-30,有限会社ＳＴＴ,,有限会社,神奈川県,川崎市中原区,木月住吉町７番１号,,14,133,2110021,,,2025-06-30,清算の結了等,,,2015-10-05,1,,,,,エステイテイ,0
1795,8020002102529,登記記録の閉鎖等,0,2025-07-11,2025-07-02,有限会社亀島荘,,有限会社,神奈川県,川崎市川崎区,渡田向町７番５号,,14,131,2100841,,,2025-07-02,清算の結了等,,,2015-10-05,1,,,,,カメシマソウ,0
1800,8021001047178,登記記録の閉鎖等,0,2025-07-11,2025-07-04,株式会社結,,株式会社,神奈川県,三浦郡葉山町,一色２１４１番地の１６,,14,301,2400111,,,2025-07-04,清算の結了等,,,2015-10-05,1,,,,,ユイ,0
1833,8060002038868,登記記録の閉鎖等,0,2025-07-11,2025-07-01,有限会社カミオカ,,有限会社,栃木県,佐野市,浅沼町３１３番地の１,,09,204,3270831,,,2025-07-01,清算の結了等,,,2015-10-05,1,,,,,カミオカ,0
1849,8100003007784,登記記録の閉鎖等,0,2025-07-11,2025-07-07,合名会社鈴木靴店,,合名会社,長野県,松本市,大手２丁目２番１１号,,20,202,3900874,,,2025-07-07,清算の結了等,,,2024-09-26,1,,,,,スズキクツテン,0
1852,8110003003403,登記記録の閉鎖等,0,2025-07-11,2025-06-25,合同会社Ｂａｌｔｈａｓａｒ,,合同会社,新潟県,南魚沼市,吉里８１１番地３、２０１号,,15,226,9496402,,,2025-06-25,清算の結了等,,,2016-11-29,1,,,,,バルタザール,0
1858,8120001246969,登記記録の閉鎖等,0,2025-07-11,2025-07-01,株式会社なみ太郎,,株式会社,大阪府,大阪市福島区,吉野４丁目２７番２３－２０２号,,27,103,5530006,,,2025-07-01,合併による解散等,4120001243763,令和７年７月１日大阪市福島区福島一丁目４番４－２Ａ号ＳＴＡ株式会社（4120001243763）に合併し解散,2022-06-30,1,,,,,ナミタロウ,0
1894,8180301008881,登記記録の閉鎖等,0,2025-07-11,2025-07-10,株式会社Ｋ－ＮＥＴシステム,,株式会社,愛知県,豊橋市,東脇３丁目９－１１,,23,201,4418083,,,2025-07-10,清算の結了等,,,2015-10-05,1,,,,,ケーネットシステム,0
1895,8180301036123,登記記録の閉鎖等,0,2025-07-11,2025-06-30,ＺｅｎＷａ株式会社,,株式会社,愛知県,安城市,今池町１丁目１９－１３ＦＸビル１０５,,23,212,4460071,,,2025-06-30,清算の結了等,,,2022-04-18,1,,,,,ゼンワ,0
1900,8200005005735,登記記録の閉鎖等,0,2025-07-11,2025-07-02,上野河戸生産森林組合,,その他の設立登記法人,岐阜県,海津市,南濃町上野河戸５１０番地１,,21,221,5030414,,,2025-07-02,清算の結了等,,,2015-10-05,1,,,,,ウエノコウズ,0
1908,8230005005732,登記記録の閉鎖等,0,2025-07-11,2025-07-07,特定非営利活動法人かがやき,,その他の設立登記法人,富山県,小矢部市,埴生２８３９番地９,,16,209,9320836,,,2025-07-07,清算の結了等,,,2015-10-05,1,,,,,カガヤキ,0
1911,8240001031954,登記記録の閉鎖等,0,2025-07-11,2025-07-02,藤徳電機株式会社,,株式会社,広島県,福山市,胡町６番１号,,34,207,7200055,,,2025-07-02,清算の結了等,,,2015-10-05,1,,,,,フジトクデンキ,0
1912,8240001057859,登記記録の閉鎖等,0,2025-07-11,2025-07-03,ｅｓｔ株式会社,,株式会社,広島県,安芸郡府中町,柳ケ丘１４番２２－３０２号,,34,302,7350014,,,2025-07-03,清算の結了等,,,2021-04-22,1,,,,,エスト,0
1914,8240002001840,登記記録の閉鎖等,0,2025-07-11,2025-07-04,有限会社上森電工,,有限会社,広島県,広島市安佐南区,山本９丁目２１番９号,,34,105,7310137,,,2025-07-04,清算の結了等,,,2015-10-05,1,,,,,ウエモリデンコウ,0
1915,8240002020155,登記記録の閉鎖等,0,2025-07-11,2025-07-07,有限会社豆腐家,,有限会社,広島県,広島市安佐南区,八木２丁目１８番３号,,34,105,7310101,,,2025-07-07,清算の結了等,,,2015-10-05,1,,,,,トウフヤ,0
1924,8290001043078,登記記録の閉鎖等,0,2025-07-11,2025-06-27,株式会社ファインライズジャパン,,株式会社,福岡県,太宰府市,観世音寺１丁目１８番１号,,40,221,8180101,,,2025-06-27,清算の結了等,,,2015-10-05,1,,,,,ファインライズジャパン,0
1932,8300002008598,登記記録の閉鎖等,0,2025-07-11,2025-07-02,有限会社有祥堂,,有限会社,佐賀県,西松浦郡有田町,大樽２丁目２番１号,00095395,41,401,8440004,,,2025-07-02,清算の結了等,,,2015-10-05,1,,,,,ユウショウドウ,0
1945,8340003001978,登記記録の閉鎖等,0,2025-07-11,2025-07-09,ひかる合名会社,,合名会社,鹿児島県,鹿児島市,長田町４番１２号,,46,201,8920854,,,2025-07-09,清算の結了等,,,2015-10-21,1,,,,,ヒカル,0
1949,8350002010814,登記記録の閉鎖等,0,2025-07-11,2025-06-27,有限会社バイテック,,有限会社,宮崎県,日向市,大字日知屋１４５８４番地,,45,206,8830062,,,2025-06-27,清算の結了等,,,2015-10-05,1,,,,,バイテック,0
1957,8400001008515,登記記録の閉鎖等,0,2025-07-11,2025-06-24,株式会社彩の国,,株式会社,岩手県,和賀郡西和賀町,沢内字新町９地割１５番地５,,03,366,0295611,,,2025-06-24,清算の結了等,,,2015-10-05,1,,,,,サイノクニ,0
1963,8430003001746,登記記録の閉鎖等,0,2025-07-11,2025-06-30,合資会社アーバンプロジェクト,,合資会社,北海道,札幌市南区,川沿三条４丁目１２番２７号,,01,106,0050803,,,2025-06-30,清算の結了等,,,2015-10-05,1,,,,,アーバンプロジェクト,0
1966,8460105001971,登記記録の閉鎖等,0,2025-07-11,2025-07-01,一般社団法人足寄特産,,その他の設立登記法人,北海道,足寄郡足寄町,南一条３丁目２０番地,,01,647,0893711,,,2025-07-01,清算の結了等,,,2015-10-05,1,,,,,アショロトクサン,0
1972,8490003001220,登記記録の閉鎖等,0,2025-07-11,2025-07-10,合同会社Ｙａｉｋａ　ｆａｃｔｏｒｙ,,合同会社,高知県,高岡郡中土佐町,矢井賀甲１５５番５地,,39,401,7891303,,,2025-07-10,清算の結了等,,,2018-04-24,1,,,,,ヤイカファクトリー,0
1984,9010001214408,登記記録の閉鎖等,0,2025-07-11,2025-07-01,ｕｎｋｎｏｗｎｄｏｏｒ株式会社,,株式会社,東京都,千代田区,神田淡路町２丁目１番７号,,13,101,1010063,,,2025-07-01,合併による解散等,7010601027896,令和７年７月１日東京都千代田区神田淡路町二丁目１番７号テクノブリッジＮＫＥ株式会社（7010601027896）に合併し解散,2020-12-15,1,,,,,アンノウンドア,0
2001,9010401087189,登記記録の閉鎖等,0,2025-07-11,2025-07-01,Ｆｒａｃｔａｌ　Ｍｅｄｉａ株式会社,,株式会社,東京都,中央区,東日本橋２丁目２６番１７号,,13,102,1030004,,,2025-07-01,合併による解散等,6010401064050,令和７年７月１日東京都中央区東日本橋二丁目２６番１７号ＳＯＮ　Ｆｉｎａｎｃｉａｌ合同会社（6010401064050）に合併し解散,2015-10-05,1,,,,,フラクタルメディア,0
2008,9010502016278,登記記録の閉鎖等,0,2025-07-11,2025-06-16,有限会社アメ横カメラ,,有限会社,東京都,台東区,上野４丁目７番８号,,13,106,1100005,,,2025-06-16,清算の結了等,,,2015-10-05,1,,,,,アメヨコカメラ,0
2009,9010601007608,登記記録の閉鎖等,0,2025-07-11,2025-07-02,株式会社幸和鉄工所,,株式会社,東京都,江東区,大島８丁目３８番４号,,13,108,1360072,,,2025-07-02,清算の結了等,,,2015-10-05,1,,,,,コウワテッコウジョ,0
2010,9010601022565,登記記録の閉鎖等,0,2025-07-11,2025-07-03,株式会社新成興産,,株式会社,東京都,江東区,塩浜２丁目１１番１号,,13,108,1350043,,,2025-07-03,清算の結了等,,,2015-10-05,1,,,,,シンセイコウサン,0
2020,9010903005854,登記記録の閉鎖等,0,2025-07-11,2025-07-02,合同会社二子玉川プロパティーズ,,合同会社,東京都,世田谷区,玉川３丁目１５番１２－２０８号,,13,112,1580094,,,2025-07-02,合併による解散等,9010401121220,令和７年７月１日東京都世田谷区玉川三丁目１５番１２－２０８号株式会社グリーン・キャピタル（9010401121220）に合併し解散,2020-07-30,1,,,,,フタコタマガワプロパティーズ,0
2021,9010903006134,登記記録の閉鎖等,0,2025-07-11,2025-07-02,合同会社横浜プロパティーズ,,合同会社,東京都,世田谷区,玉川３丁目１番１８－１２０５号,,13,112,1580094,,,2025-07-02,合併による解散等,9010401121220,令和７年７月１日東京都世田谷区玉川三丁目１５番１２－２０８号株式会社グリーン・キャピタル（9010401121220）に合併し解散,2020-12-15,1,,,,,ヨコハマプロパティーズ,0
2025,9011001131213,登記記録の閉鎖等,0,2025-07-11,2025-04-21,株式会社モンスターラボミュージック,,株式会社,東京都,渋谷区,広尾１丁目１番３９号恵比寿プライムスクエアタワー４Ｆ,,13,113,1500012,,,2025-04-21,合併による解散等,3013201019037,令和７年４月１日東京都渋谷区広尾一丁目１番３９号恵比寿プライムスクエアタワー４Ｆ株式会社モンスターラボ（3013201019037）に合併し解散,2019-12-16,1,,,,,モンスターラボミュージック,0
2060,9020001096515,登記記録の閉鎖等,0,2025-07-11,2025-06-30,株式会社シャンブル・ヴェール,,株式会社,神奈川県,横浜市都筑区,中川８丁目３番２７号,,14,118,2240001,,,2025-06-30,合併による解散等,1020001140998,令和７年６月３０日川崎市高津区久本三丁目２番１８号エムビルコーポ３０２株式会社ラポール（1020001140998）に合併し解散,2015-10-05,1,,,,,シャンブルヴェール,0
2085,9050002034264,登記記録の閉鎖等,0,2025-07-11,2025-06-30,有限会社川渡,,有限会社,茨城県,稲敷市,柏木古渡１３番地,,08,229,3000637,,,2025-06-30,清算の結了等,,,2015-10-05,1,,,,,カワト,0
2087,9060002039964,登記記録の閉鎖等,0,2025-07-11,2025-07-01,有限会社向田プリーツ加工,,有限会社,栃木県,佐野市,山形町４２２番地,,09,204,3270324,,,2025-07-01,清算の結了等,,,2015-10-05,1,,,,,ムカダプリーツカコウ,0
2088,9070001027275,登記記録の閉鎖等,0,2025-07-11,2025-07-01,株式会社グリーンベース,,株式会社,群馬県,桐生市,巴町２丁目１８３２番地９,,10,203,3760021,,,2025-07-01,合併による解散等,7070001015513,令和７年７月１日群馬県桐生市巴町二丁目１８３２番地９株式会社アンカー（7070001015513）に合併し解散,2015-10-05,1,,,,,グリーンベース,0
2122,9120005005635,登記記録の閉鎖等,0,2025-07-11,2025-07-03,医療法人社団花橘会,,その他の設立登記法人,東京都,品川区,南品川６丁目１５番５号三越ゼームス坂マンション１階,,13,109,1400004,,,2025-07-03,清算の結了等,,,2015-10-05,1,,,,,カキツカイ,0
2132,9130001031782,登記記録の閉鎖等,0,2025-07-11,2025-07-09,株式会社ＨＦＭファシリティーズ,,株式会社,京都府,京都市中京区,六角通室町西入玉蔵町１３０番地スペリオン四条烏丸４０３号,,26,104,6048211,,,2025-07-09,清算の結了等,,,2015-10-05,1,,,,,エイチエフエムファシリティーズ,0
2153,9180301017130,登記記録の閉鎖等,0,2025-07-11,2025-07-07,アルファ住宅販売名古屋株式会社,,株式会社,愛知県,名古屋市瑞穂区,妙音通２丁目４１番地２,,23,108,4670842,,,2025-07-07,合併による解散等,9180301013666,令和７年７月１日愛知県安城市緑町一丁目２５番地１東海インプル建設株式会社（9180301013666）に合併し解散,2015-10-05,1,,,,,アルファジュウタクハンバイナゴヤ,0
2154,9180301018434,登記記録の閉鎖等,0,2025-07-11,2025-07-02,株式会社シモヤマ,,株式会社,愛知県,豊田市,宮町６丁目５０番地２,,23,211,4710043,,,2025-07-02,清算の結了等,,,2015-10-05,1,,,,,シモヤマ,0
2155,9180301035280,登記記録の閉鎖等,0,2025-07-11,2025-07-10,株式会社ＲＡＤＪＡＰＡＮ,,株式会社,愛知県,額田郡幸田町,大字横落字向野４１番地３,,23,501,4440114,,,2025-07-10,清算の結了等,,,2021-08-19,1,,,,,ラッドジャパン,0
2157,9190002013626,登記記録の閉鎖等,0,2025-07-11,2025-07-01,有限会社エンゼル商会,,有限会社,三重県,松阪市,茶与町２３番地７,,24,204,5150077,,,2025-07-01,清算の結了等,,,2015-10-05,1,,,,,エンゼルショウカイ,0
2161,9200005012045,登記記録の閉鎖等,0,2025-07-11,2025-07-02,一般社団法人鈴蘭高原等テレビ共聴組合,,その他の設立登記法人,岐阜県,下呂市,小川１２２６番地３,,21,220,5092203,,,2025-07-02,清算の結了等,,,2015-10-05,1,,,,,スズランコウゲントウテレビキョウチョウクミアイ,0
2188,9290803003162,登記記録の閉鎖等,0,2025-07-11,2025-07-01,Ｋ１０７合同会社,,合同会社,福岡県,北九州市小倉南区,田原新町１丁目１３番２号,,40,107,8000226,,,2025-07-01,合併による解散等,4290801006460,令和７年７月１日北九州市小倉南区田原新町一丁目１３番２号スピードネットワーク株式会社（4290801006460）に合併し解散,2018-07-20,1,,,,,ケイイチマルナナ,0
2222,9490001000330,登記記録の閉鎖等,0,2025-07-11,2025-07-04,釜原不動産株式会社,,株式会社,高知県,高知市,南金田１０番２２号,,39,201,7810074,,,2025-07-04,清算の結了等,,,2015-10-05,1,,,,,カマハラフドウサン,0
