sequenceNumber,corporateNumber,process,correct,updateDate,changeDate,name,nameImageId,kind,prefectureName,cityName,streetNumber,addressImageId,prefectureCode,cityCode,postCode,addressOutside,addressOutsideImageId,closeDate,closeCause,successorCorporateNumber,changeCause,assignmentDate,latest,enName,enPrefectureName,enCityName,enAddressOutside,furigana,hihyoji
1,1010001044580,登記記録の閉鎖等,0,2024-07-03,2024-06-20,株式会社三和広報社,,株式会社,東京都,中央区,新川１丁目５番１９号,,13,102,1040033,,,2024-06-20,合併による解散等,4010001044561,令和６年６月３日東京都中央区新川一丁目５番１９号株式会社三和印刷社（4010001044561）に合併し解散,2015-10-05,1,,,,,サンワコウホウシャ,0
15,1010005026096,登記記録の閉鎖等,0,2024-07-03,2024-05-30,一般社団法人ゲームチェンジャー・インスティテュート,,その他の設立登記法人,東京都,文京区,本郷３丁目４番３号ヒルズ８８４お茶の水ビル５Ｆ,,13,105,1130033,,,2024-05-30,清算の結了等,,,2016-12-12,1,,,,,ゲームチェンジャーインスティテュート,0
42,1011001070237,登記記録の閉鎖等,0,2024-07-03,2024-06-18,株式会社都市開発機構,,株式会社,東京都,目黒区,上目黒３丁目１４番９号,,13,110,1530051,,,2024-06-18,清算の結了等,,,2015-10-05,1,,,,,トシカイハツキコウ,0
73,1020001089220,登記記録の閉鎖等,0,2024-07-03,2024-06-20,株式会社リーディングエッジブランディング,,株式会社,神奈川県,横浜市青葉区,たちばな台１丁目３番地３３,,14,117,2270046,,,2024-06-20,清算の結了等,,,2015-10-05,1,,,,,リーディングエッジブランディング,0
74,1020001142557,登記記録の閉鎖等,0,2024-07-03,2024-06-28,株式会社ＭＣハウス,,株式会社,神奈川県,横浜市港北区,新横浜１丁目２９番地１５,,14,109,2220033,,,2024-06-28,清算の結了等,,,2021-08-06,1,,,,,エムシーハウス,0
84,1021002010793,登記記録の閉鎖等,0,2024-07-03,2024-07-01,有限会社湘南住宅設備,,有限会社,神奈川県,茅ヶ崎市,香川１丁目１３－７－４０５,,14,207,2530082,,,2024-07-01,清算の結了等,,,2015-10-05,1,,,,,ショウナンジュウタクセツビ,0
88,1030002056425,登記記録の閉鎖等,0,2024-07-03,2024-06-28,有限会社星製作所,,有限会社,埼玉県,北足立郡伊奈町,西小針３丁目９６番地,,11,301,3620811,,,2024-06-28,清算の結了等,,,2015-10-05,1,,,,,ホシセイサクショ,0
114,1110005012094,登記記録の閉鎖等,0,2024-07-03,2024-06-24,特定非営利活動法人夢ながおか,,その他の設立登記法人,新潟県,長岡市,来迎寺２３９０番地,,15,202,9495411,,,2024-06-24,清算の結了等,,,2015-10-05,1,,,,,ユメナガオカ,0
115,1120001021247,登記記録の閉鎖等,0,2024-07-03,2024-07-01,株式会社日東産業,,株式会社,大阪府,大阪市平野区,加美北３丁目１５番３号,,27,126,5470001,,,2024-07-01,清算の結了等,,,2015-10-05,1,,,,,ニットウサンギョウ,0
116,1120001040313,登記記録の閉鎖等,0,2024-07-03,2024-07-01,山崎電機工業株式会社,,株式会社,大阪府,大阪市浪速区,元町３丁目３番１９号,,27,111,5560016,,,2024-07-01,清算の結了等,,,2015-10-05,1,,,,,ヤマサキデンキコウギョウ,0
120,1120001145062,登記記録の閉鎖等,0,2024-07-03,2024-06-28,株式会社ユニウエル,,株式会社,大阪府,大阪市北区,同心１丁目４番３２号北岡ビル３階,,27,127,5300035,,,2024-06-28,清算の結了等,,,2015-10-05,1,,,,,ユニウエル,0
141,1120101050757,登記記録の閉鎖等,0,2024-07-03,2024-06-28,株式会社デプス,,株式会社,大阪府,大阪市中央区,南船場４丁目１０番５号,,27,128,5420081,,,2024-06-28,清算の結了等,,,2015-10-05,1,,,,,デプス,0
159,1130002028612,登記記録の閉鎖等,0,2024-07-03,2024-06-28,有限会社八広レンタル,,有限会社,京都府,南丹市,八木町柴山坊田６０番地,,26,213,6290154,,,2024-06-28,清算の結了等,,,2015-10-05,1,,,,,ハッコウレンタル,0
174,1150002010700,登記記録の閉鎖等,0,2024-07-03,2024-06-28,有限会社栄進,,有限会社,奈良県,大和高田市,旭南町２番２１号,,29,202,6350035,,,2024-06-28,合併による解散等,6150002009721,令和６年６月２８日奈良県香芝市関屋北六丁目２番５号株式会社榮和（6150002009721）に合併し解散,2015-10-05,1,,,,,エイシン,0
177,1170001005930,登記記録の閉鎖等,0,2024-07-03,2024-07-01,下津港湾給水株式会社,,株式会社,和歌山県,海南市,下津町大崎３３６番地,00049064,30,202,6490112,,,2024-07-01,清算の結了等,,,2015-10-05,1,,,,,シモツコウワンキュウスイ,0
195,1200001032780,登記記録の閉鎖等,0,2024-07-03,2024-06-19,株式会社甲組,,株式会社,愛知県,名古屋市南区,呼続５丁目１５番３号,,23,112,4570014,,,2024-06-19,清算の結了等,,,2016-04-26,1,,,,,カブトグミ,0
198,1200002027540,登記記録の閉鎖等,0,2024-07-03,2024-06-28,タカ・インポート有限会社,,有限会社,岐阜県,下呂市,宮地６４９番地の１,,21,220,5092314,,,2024-06-28,清算の結了等,,,2015-10-05,1,,,,,タカインポート,0
223,1280002009655,登記記録の閉鎖等,0,2024-07-03,2024-07-01,瑞穂生コンクリート有限会社,,有限会社,島根県,邑智郡邑南町,上田所５０番地１,,32,449,6960225,,,2024-07-01,清算の結了等,,,2015-10-05,1,,,,,ミズホナマコンクリート,0
247,1370001043010,登記記録の閉鎖等,0,2024-07-03,2024-06-20,未来建設株式会社,,株式会社,宮城県,仙台市若林区,今泉１丁目２０番２４号,,04,103,9840835,,,2024-06-20,清算の結了等,,,2018-05-08,1,,,,,ミライケンセツ,0
252,1380002033463,登記記録の閉鎖等,0,2024-07-03,2024-06-27,有限会社リキ土建,,有限会社,福島県,会津若松市,一箕町松長１丁目１番地１０,,07,202,9650001,,,2024-06-27,清算の結了等,,,2015-10-05,1,,,,,リキドケン,0
255,1400005002826,登記記録の閉鎖等,0,2024-07-03,2024-06-20,企業組合創進いわて,,その他の設立登記法人,岩手県,盛岡市,本宮２丁目１１番８号,,03,201,0200866,,,2024-06-20,清算の結了等,,,2015-10-05,1,,,,,ソウシンイワテ,0
256,1410001001079,登記記録の閉鎖等,0,2024-07-03,2024-06-20,株式会社コイズミ工芸,,株式会社,秋田県,秋田市,茨島６丁目２０番１５号,00086196,05,201,0100065,,,2024-06-20,清算の結了等,,,2015-10-05,1,,,,,コイズミコウゲイ,0
270,1700150024074,登記記録の閉鎖等,0,2024-07-03,2023-07-31,関西労務経営管理協会,,その他,大阪府,大阪市此花区,西九条２丁目５－１８,,27,104,5540012,,,2023-07-31,その他の清算の結了等,,,2015-10-09,1,,,,,カンサイロウムケイエイカンリキヨウカイ,0
271,1700150042357,登記記録の閉鎖等,0,2024-07-03,2023-04-21,長久手中央土地区画整理組合,,その他,愛知県,長久手市,菅池１６３番地１,,23,238,4801127,,,2023-04-21,その他の清算の結了等,,,2015-10-09,1,,,,,ナガクテチユウオウトチクカクセイリクミアイ,0
273,1700150113967,登記記録の閉鎖等,0,2024-07-03,2024-03-31,さいたま国際芸術祭実行委員会,,その他,埼玉県,さいたま市浦和区,常盤６丁目４－４（さいたま市役所文化政策室内）,,11,107,3300061,,,2024-03-31,その他の清算の結了等,,,2023-01-27,1,,,,,サイタマコクサイゲイジユツサイジツコウイインカイ,0
277,2010003020959,登記記録の閉鎖等,0,2024-07-03,2024-06-21,日光７リエール若松町合同会社,,合同会社,東京都,千代田区,丸の内３丁目１番１号東京共同会計事務所内,,13,101,1000005,,,2024-06-21,清算の結了等,,,2015-10-05,1,,,,,ニッコウセブンリエールワカマツチョウ,0
295,2010503004313,登記記録の閉鎖等,0,2024-07-03,2024-06-25,合同会社ケイパテント,,合同会社,東京都,台東区,東上野６丁目１－４イワツキビル４階,,13,106,1100015,,,2024-06-25,清算の結了等,,,2015-10-05,1,,,,,ケイパテント,0
299,2010701011210,登記記録の閉鎖等,0,2024-07-03,2024-06-19,株式会社エスティエス,,株式会社,東京都,品川区,北品川２丁目２５番１８号,,13,109,1400001,,,2024-06-19,清算の結了等,,,2015-10-05,1,,,,,エスティエス,0
319,2011301013299,登記記録の閉鎖等,0,2024-07-03,2024-06-26,株式会社ブレイク,,株式会社,東京都,杉並区,阿佐谷南１丁目３４番１０号,,13,115,1660004,,,2024-06-26,清算の結了等,,,2015-10-05,1,,,,,ブレイク,0
332,2012403004797,登記記録の閉鎖等,0,2024-07-03,2024-07-01,ＮＥＫＯプラニング合同会社,,合同会社,東京都,稲城市,若葉台２丁目１２番地Ｃ５０５,,13,225,2060824,,,2024-07-01,清算の結了等,,,2021-04-07,1,,,,,ネコプラニング,0
339,2013201000757,登記記録の閉鎖等,0,2024-07-03,2024-06-17,株式会社牛場事務所,,株式会社,東京都,目黒区,大岡山１丁目２９番１３号－１０１,,13,110,1520033,,,2024-06-17,清算の結了等,,,2015-10-05,1,,,,,ウシバジムショ,0
340,2013301039646,登記記録の閉鎖等,0,2024-07-03,2024-06-19,株式会社ＹｅｎＴｏｗｎ,,株式会社,東京都,渋谷区,渋谷２丁目１９ー１５宮益坂ビルディング６０９号,,13,113,1500002,,,2024-06-19,清算の結了等,,,2016-11-04,1,,,,,エンタウン,0
366,2030001003195,登記記録の閉鎖等,0,2024-07-03,2024-06-28,株式会社三盛,,株式会社,埼玉県,さいたま市南区,曲本２丁目１２番１９号,,11,108,3360033,,,2024-06-28,清算の結了等,,,2015-10-05,1,,,,,ミツモリ,0
370,2030002060186,登記記録の閉鎖等,0,2024-07-03,2024-06-26,有限会社南大門,,有限会社,埼玉県,新座市,東北２丁目３１番３号,,11,230,3520001,,,2024-06-26,清算の結了等,,,2015-10-05,1,,,,,ナンダイモン,0
375,2040001039230,登記記録の閉鎖等,0,2024-07-03,2024-06-20,株式会社ウインズ,,株式会社,千葉県,松戸市,松戸新田５２８番地の３,,12,207,2702241,,,2024-06-20,清算の結了等,,,2015-10-05,1,,,,,ウインズ,0
382,2040005017819,登記記録の閉鎖等,0,2024-07-03,2024-06-21,特定非営利活動法人子ども自立支援の会,,その他の設立登記法人,千葉県,柏市,柏５丁目１１番地１１号ゼネラルビル柏,,12,217,2770005,,,2024-06-21,清算の結了等,,,2015-10-05,1,,,,,コドモジリツシエンノカイ,0
386,2060001022218,登記記録の閉鎖等,0,2024-07-03,2024-06-24,ＶＡＮＶＥＳ株式会社,,株式会社,栃木県,宇都宮市,インターパーク４丁目２番地３,,09,201,3210118,,,2024-06-24,清算の結了等,,,2015-10-05,1,,,,,ヴァンブゥ,0
390,2070003000773,登記記録の閉鎖等,0,2024-07-03,2024-07-01,サンデー合同会社,,合同会社,群馬県,高崎市,問屋町西１丁目１０番地１,,10,202,3700007,,,2024-07-01,清算の結了等,,,2015-10-05,1,,,,,サンデー,0
401,2120001100231,登記記録の閉鎖等,0,2024-07-03,2024-07-02,株式会社ライフアジャスト,,株式会社,大阪府,大阪市北区,芝田１丁目１２番７号,,27,127,5300012,,,2024-07-02,清算の結了等,,,2015-10-05,1,,,,,ライフアジャスト,0
417,2120105008494,登記記録の閉鎖等,0,2024-07-03,2024-06-18,一般社団法人日本ホスピタリティ教育研究所,,その他の設立登記法人,東京都,港区,南青山２丁目２番１５号ウィン青山９４２,,13,103,1070062,,,2024-06-18,清算の結了等,,,2016-04-26,1,,,,,ニホンホスピタリティキョウイクケンキュウジョ,0
419,2130001037316,登記記録の閉鎖等,0,2024-07-03,2024-06-03,二条不動産株式会社,,株式会社,京都府,木津川市,相楽台３丁目１番地５,,26,214,6190223,,,2024-06-03,合併による解散等,9130001036856,令和６年６月１日京都府木津川市相楽台三丁目１番地５株式会社二条丸八（9130001036856）に合併し解散,2015-10-05,1,,,,,ニジョウフドウサン,0
423,2140001061868,登記記録の閉鎖等,0,2024-07-03,2024-06-28,三輪電機株式会社,,株式会社,兵庫県,姫路市,網干区坂上１５８番地の７,,28,201,6711223,,,2024-06-28,清算の結了等,,,2015-10-05,1,,,,,ミワデンキ,0
424,2140001117802,登記記録の閉鎖等,0,2024-07-03,2024-06-27,フューチャースカイ株式会社,,株式会社,兵庫県,姫路市,御立東４丁目３０番８号,,28,201,6700072,,,2024-06-27,清算の結了等,,,2020-06-24,1,,,,,フューチャースカイ,0
427,2140002068771,登記記録の閉鎖等,0,2024-07-03,2024-06-27,有限会社大橋鉄工所,,有限会社,兵庫県,洲本市,五色町鳥飼浦２７７８番地の１,,28,205,6561344,,,2024-06-27,清算の結了等,,,2015-10-05,1,,,,,オオハシテッコウショ,0
434,2180001071863,登記記録の閉鎖等,0,2024-07-03,2024-06-21,株式会社グランデ,,株式会社,愛知県,名古屋市中区,千代田３丁目１１番１１号,,23,106,4600012,,,2024-06-21,清算の結了等,,,2015-10-05,1,,,,,グランデ,0
438,2180002012627,登記記録の閉鎖等,0,2024-07-03,2024-06-19,有限会社纏組,,有限会社,愛知県,名古屋市北区,西味鋺３丁目４１８番地,,23,103,4620016,,,2024-06-19,清算の結了等,,,2015-10-05,1,,,,,マトイグミ,0
454,2240001048038,登記記録の閉鎖等,0,2024-07-03,2024-07-01,株式会社Ｍ＆Ｍ,,株式会社,広島県,広島市安佐北区,口田３丁目４０番１０号,,34,106,7391734,,,2024-07-01,清算の結了等,,,2015-10-05,1,,,,,エムアンドエム,0
467,2290001099571,登記記録の閉鎖等,0,2024-07-03,2024-07-01,三和株式会社,,株式会社,東京都,北区,豊島３丁目１７番４号,,13,117,1140003,,,2024-07-01,清算の結了等,,,2022-11-11,1,,,,,サンワ,0
484,2350002003807,登記記録の閉鎖等,0,2024-07-03,2024-06-25,有限会社日高工務店,00100694,有限会社,宮崎県,宮崎市,大字赤江１５番地４,,45,201,8800912,,,2024-06-25,清算の結了等,,,2015-10-05,1,,,,,ヒダカコウムテン,0
522,2430002008475,登記記録の閉鎖等,0,2024-07-03,2024-06-20,有限会社佐々木運送,,有限会社,北海道,札幌市南区,常盤二条２丁目１９番３号,,01,106,0050852,,,2024-06-20,清算の結了等,,,2015-10-05,1,,,,,ササキウンソウ,0
528,2700150004182,登記記録の閉鎖等,0,2024-07-03,2024-03-31,全国信用組合連合企業年金基金,,その他,東京都,中央区,京橋１丁目９番５号,,13,102,1040031,,,2024-03-31,その他の清算の結了等,,,2015-10-09,1,,,,,ゼンコクシンヨウクミアイレンゴウキギヨウネンキンキキン,0
531,2700150107951,登記記録の閉鎖等,0,2024-07-03,2023-04-30,モーツァルトの音楽をたのしむ会,,その他,神奈川県,川崎市多摩区,菅北浦４丁目１４－１－１１２,,14,135,2140008,,,2023-04-30,その他の清算の結了等,,,2022-04-14,1,,,,,モーツアルトノオンガクヲタノシムカイ,0
543,3010401155034,登記記録の閉鎖等,0,2024-07-03,2024-06-18,ポラリス株式会社,,株式会社,東京都,港区,新橋２丁目１６番１号ニュー新橋ビル９階,,13,103,1050004,,,2024-06-18,清算の結了等,,,2020-09-04,1,,,,,ポラリス,0
559,3011001017715,登記記録の閉鎖等,0,2024-07-03,2024-06-20,日本システムインテグレーション株式会社,,株式会社,東京都,渋谷区,千駄ヶ谷４丁目２０番１０号,,13,113,1510051,,,2024-06-20,清算の結了等,,,2023-01-31,1,,,,,,0
563,3011002027498,登記記録の閉鎖等,0,2024-07-03,2024-07-01,有限会社エムズ・プランニング,,有限会社,東京都,渋谷区,富ヶ谷２丁目２番５号ネオーバ６０４,,13,113,1510063,,,2024-07-01,清算の結了等,,,2015-10-05,1,,,,,エムズプランニング,0
572,3011802030123,登記記録の閉鎖等,0,2024-07-03,2024-07-01,有限会社マジカルエッグ,,有限会社,東京都,足立区,一ツ家１丁目２２番１８号西尾ビル２階,,13,121,1210075,,,2024-07-01,清算の結了等,,,2015-10-05,1,,,,,,0
576,3012801003524,登記記録の閉鎖等,0,2024-07-03,2024-06-26,デンテックサプライ株式会社,,株式会社,東京都,東大和市,上北台３丁目４３６番地の７,,13,220,2070023,,,2024-06-26,清算の結了等,,,2015-10-05,1,,,,,デンテックサプライ,0
593,3030001067223,登記記録の閉鎖等,0,2024-07-03,2024-06-28,株式会社Ｍ－ＳＴＹＬＥ,,株式会社,埼玉県,越谷市,宮本町１丁目１１９,,11,222,3430806,,,2024-06-28,清算の結了等,,,2015-10-05,1,,,,,エムスタイル,0
612,3040001095685,登記記録の閉鎖等,0,2024-07-03,2024-06-21,ＺＥＲＯ工務店株式会社,,株式会社,千葉県,夷隅郡大多喜町,大戸３４９番地,,12,441,2980225,,,2024-06-21,清算の結了等,,,2016-06-10,1,,,,,ゼロコウムテン,0
615,3040002021491,登記記録の閉鎖等,0,2024-07-03,2024-06-20,有限会社亀屋クリーニング商会,,有限会社,千葉県,船橋市,宮本１丁目４番７号,,12,204,2730003,,,2024-06-20,清算の結了等,,,2015-10-05,1,,,,,カメヤクリーニングショウカイ,0
620,3040005001656,登記記録の閉鎖等,0,2024-07-03,2024-06-21,特定非営利活動法人日本映像文化保存協会,,その他の設立登記法人,千葉県,千葉市中央区,本千葉町１０番２３号ＤＩＫマンション５階１号室,,12,101,2600014,,,2024-06-21,清算の結了等,,,2015-10-05,1,,,,,ニホンエイゾウブンカホゾンキョウカイ,0
622,3050002035202,登記記録の閉鎖等,0,2024-07-03,2024-07-01,有限会社村上製作所,,有限会社,茨城県,那珂郡東海村,大字須和間１１９５番地１２,,08,341,3191114,,,2024-07-01,清算の結了等,,,2015-10-05,1,,,,,ムラカミセイサクショ,0
658,3120002040120,登記記録の閉鎖等,0,2024-07-03,2024-06-27,あさひ電気有限会社,,有限会社,大阪府,大阪市住吉区,山之内１丁目２５番２６,,27,120,5580023,,,2024-06-27,清算の結了等,,,2015-10-05,1,,,,,アサヒデンキ,0
663,3120101026697,登記記録の閉鎖等,0,2024-07-03,2024-06-28,ブリッジインターナショナル株式会社,,株式会社,大阪府,大阪狭山市,茱萸木３丁目１８８番地の２（５０４号）,00046844,27,231,5890013,,,2024-06-28,清算の結了等,,,2015-10-05,1,,,,,ブリッジインターナショナル,0
673,3120902006369,登記記録の閉鎖等,0,2024-07-03,2024-06-28,有限会社システック,,有限会社,大阪府,吹田市,垂水町３丁目３６番３６－６０２号,,27,205,5640062,,,2024-06-28,清算の結了等,,,2015-10-05,1,,,,,システック,0
676,3120905005946,登記記録の閉鎖等,0,2024-07-03,2024-06-27,協同組合アジア・エンジニア支援センター,,その他の設立登記法人,大阪府,豊中市,桜の町３丁目２番１３号,,27,203,5600054,,,2024-06-27,清算の結了等,,,2019-10-17,1,,,,,アジアエンジニアシエンセンター,0
703,3180001065022,登記記録の閉鎖等,0,2024-07-03,2024-06-18,株式会社ラディカル,,株式会社,愛知県,名古屋市中川区,新家１丁目２６０６番地,,23,110,4540972,,,2024-06-18,清算の結了等,,,2015-10-05,1,,,,,ラディカル,0
714,3180302015650,登記記録の閉鎖等,0,2024-07-03,2024-06-24,有限会社ティーディー英会話学院,,有限会社,愛知県,蒲郡市,緑町７番地の８,,23,214,4430048,,,2024-06-24,清算の結了等,,,2015-10-05,1,,,,,ティーディーエイカイワガクイン,0
755,3330001023724,登記記録の閉鎖等,0,2024-07-03,2024-06-24,株式会社ハッピー総合物流,,株式会社,熊本県,菊池市,泗水町永２６０３番地５５,,43,210,8611204,,,2024-06-24,清算の結了等,,,2017-02-09,1,,,,,,0
757,3340005007730,登記記録の閉鎖等,0,2024-07-03,2024-06-27,特定非営利活動法人かごしまミュージックヘルパー協会,,その他の設立登記法人,鹿児島県,日置市,伊集院町下谷口２７０３番地１,,46,216,8992501,,,2024-06-27,清算の結了等,,,2015-10-05,1,,,,,カゴシマミュージックヘルパーキョウカイ,0
786,3430002046937,登記記録の閉鎖等,0,2024-07-03,2024-06-28,有限会社建商,,有限会社,北海道,江別市,中央町３９番地１０,,01,217,0690801,,,2024-06-28,清算の結了等,,,2015-10-05,1,,,,,,0
797,3700150101648,登記記録の閉鎖等,0,2024-07-03,2024-03-31,長野県言語聴覚士会,,その他,長野県,飯田市,羽場権現９７８－４大原屋内　なりわいオフィス飯田,,20,205,3950067,,,2024-03-31,その他の清算の結了等,,,2021-01-14,1,,,,,ナガノケンゲンゴチヨウカクシカイ,0
809,4010401149745,登記記録の閉鎖等,0,2024-07-03,2024-06-18,株式会社ケイブーン,,株式会社,東京都,港区,南青山２丁目１１番１４号イチーズビル４階,,13,103,1070062,,,2024-06-18,清算の結了等,,,2019-12-06,1,,,,,ケイブーン,0
824,4010702011612,登記記録の閉鎖等,0,2024-07-03,2024-06-28,有限会社アルファプロシード,,有限会社,東京都,品川区,東五反田５丁目１０番５－４０４,,13,109,1410022,,,2024-06-28,清算の結了等,,,2015-10-05,1,,,,,アルファプロシード,0
832,4010903003598,登記記録の閉鎖等,0,2024-07-03,2024-06-28,清和合同会社,,合同会社,東京都,世田谷区,代沢２丁目４６番１３号,,13,112,1550032,,,2024-06-28,清算の結了等,,,2017-04-10,1,SEIWA LLC,Tokyo,"Daizawa 2-46-13, Setagaya",,セイワ,0
848,4011101090966,登記記録の閉鎖等,0,2024-07-03,2024-06-25,株式会社マリンデータバンク,,株式会社,山口県,岩国市,装束町５丁目８番２７号,,35,208,7400001,,,2024-06-25,清算の結了等,,,2020-04-07,1,,,,,マリンデータバンク,0
874,4013401007187,登記記録の閉鎖等,0,2024-07-03,2024-07-01,株式会社シンクス,,株式会社,東京都,多摩市,連光寺１丁目２番地の１ライオンズ聖蹟桜ヶ丘パシーナ１６０４,,13,224,2060021,,,2024-07-01,清算の結了等,,,2015-10-05,1,,,,,,0
888,4021002046117,登記記録の閉鎖等,0,2024-07-03,2024-07-01,有限会社乾広建設,,有限会社,神奈川県,綾瀬市,上土棚中３丁目３番４１号,,14,218,2521113,,,2024-07-01,清算の結了等,,,2015-10-05,1,,,,,ケンコウケンセツ,0
906,4030005004254,登記記録の閉鎖等,0,2024-07-03,2024-07-01,一般社団法人フォレスト・サーベイ,,その他の設立登記法人,埼玉県,入間市,扇町屋１丁目４番１７号３０５,,11,225,3580022,,,2024-07-01,清算の結了等,,,2015-10-05,1,,,,,フォレストサーベイ,0
935,4120001080331,登記記録の閉鎖等,0,2024-07-03,2024-06-21,三恵株式会社,,株式会社,大阪府,大阪市中央区,南船場２丁目６番１７号,,27,128,5420081,,,2024-06-21,清算の結了等,,,2024-05-02,1,,,,,サンケイ,0
936,4120001130607,登記記録の閉鎖等,0,2024-07-03,2024-06-28,株式会社ルームクリエイト,,株式会社,大阪府,大阪市阿倍野区,阿倍野筋３丁目６番１０号,,27,119,5450052,,,2024-06-28,清算の結了等,,,2015-10-05,1,,,,,ルームクリエイト,0
950,4120001253804,登記記録の閉鎖等,0,2024-07-03,2024-07-01,株式会社ｇｒｉｔ,,株式会社,大阪府,大阪市中央区,内平野町２丁目２番６－１１０２号,,27,128,5400037,,,2024-07-01,清算の結了等,,,2023-04-10,1,,,,,グリット,0
959,4120002012795,登記記録の閉鎖等,0,2024-07-03,2024-07-01,有限会社亀甲,,有限会社,大阪府,大阪市北区,中崎西２丁目１番１号ゼネラルビル３Ｆ,,27,127,5300015,,,2024-07-01,清算の結了等,,,2015-10-05,1,,,,,キッコウ,0
960,4120002068656,登記記録の閉鎖等,0,2024-07-03,2024-06-27,有限会社関西建設興産,,有限会社,大阪府,大阪市住之江区,安立４丁目３番４号,,27,125,5590003,,,2024-06-27,清算の結了等,,,2015-10-05,1,,,,,カンサイケンセツコウサン,0
971,4130001011153,登記記録の閉鎖等,0,2024-07-03,2024-07-01,株式会社丹宇,,株式会社,京都府,京都市西京区,御陵大原１番地３９京大桂ベンチャープラザ南館２２０２号,,26,111,6158245,,,2024-07-01,清算の結了等,,,2015-10-05,1,,,,,タンウ,0
979,4140005018805,登記記録の閉鎖等,0,2024-07-03,2024-06-28,農事組合法人宝塚綜合植物センター,00042453,その他の設立登記法人,兵庫県,宝塚市,境野字柳谷１番地,,28,214,6691222,,,2024-06-28,清算の結了等,,,2015-10-05,1,,,,,タカラヅカソウゴウショクブツセンター,0
992,4180001084070,登記記録の閉鎖等,0,2024-07-03,2024-06-21,株式会社メグロ,,株式会社,愛知県,一宮市,浅井町黒岩字郷西２４番地,,23,203,4910141,,,2024-06-21,清算の結了等,,,2015-10-05,1,,,,,メグロ,0
993,4180001106477,登記記録の閉鎖等,0,2024-07-03,2024-06-26,株式会社アイソルバ,,株式会社,東京都,中央区,八丁堀３丁目９番８号,,13,102,1040032,,,2024-06-26,清算の結了等,,,2015-10-05,1,,,,,アイソルバ,0
1000,4180302015971,登記記録の閉鎖等,0,2024-07-03,2024-07-01,有限会社美輪,,有限会社,愛知県,蒲郡市,三谷北通３丁目１９０番地,,23,214,4430022,,,2024-07-01,清算の結了等,,,2015-10-05,1,,,,,,0
1001,4180302016482,登記記録の閉鎖等,0,2024-07-03,2024-06-24,有限会社オフィス三洲,,有限会社,愛知県,安城市,弁天町１番１９号,,23,212,4460064,,,2024-06-24,清算の結了等,,,2015-10-05,1,,,,,オフィスサンシュウ,0
1007,4190005008735,登記記録の閉鎖等,0,2024-07-03,2024-06-26,共和食品協同組合,,その他の設立登記法人,三重県,四日市市,小古曽東２丁目３番２３号,,24,202,5100951,,,2024-06-26,清算の結了等,,,2015-10-05,1,,,,,キョウワショクヒン,0
1015,4220002013107,登記記録の閉鎖等,0,2024-07-03,2024-06-26,有限会社香寿園細川,,有限会社,石川県,加賀市,山中温泉長谷田町リ３７７番地,,17,206,9220103,,,2024-06-26,清算の結了等,,,2015-10-05,1,,,,,コウジュエンホソカワ,0
1028,4240001055684,登記記録の閉鎖等,0,2024-07-03,2024-06-28,株式会社イントスリー,,株式会社,広島県,広島市東区,山根町２３番８号,,34,102,7320048,,,2024-06-28,清算の結了等,,,2020-02-17,1,,,,,イントスリー,0
1036,4250003002997,登記記録の閉鎖等,0,2024-07-03,2024-06-27,合同会社花葉,,合同会社,山口県,岩国市,今津町２丁目７番３５－７号,,35,208,7400017,,,2024-06-27,清算の結了等,,,2022-02-02,1,,,,,ハナハ,0
1040,4290001058055,登記記録の閉鎖等,0,2024-07-03,2024-06-07,株式会社ロマンス・リコ,,株式会社,福岡県,福岡市博多区,吉塚３丁目１２番１４号,,40,132,8120041,,,2024-06-07,清算の結了等,,,2015-10-05,1,,,,,ロマンスリコ,0
1090,5010001053966,登記記録の閉鎖等,0,2024-07-03,2024-06-20,株式会社サポートエアサービス,,株式会社,東京都,中央区,日本橋蠣殻町一丁目２９番６号,,13,102,1030000,,,2024-06-20,清算の結了等,,,2015-10-05,1,,,,,サポートエアサービス,0
1118,5010401083588,登記記録の閉鎖等,0,2024-07-03,2024-06-28,株式会社ヴォイス,,株式会社,埼玉県,久喜市,南栗橋１２丁目１１番地２,,11,232,3491117,,,2024-06-28,清算の結了等,,,2015-10-05,1,,,,,ヴォイス,0
1122,5010401134275,登記記録の閉鎖等,0,2024-07-03,2024-06-19,株式会社ＧＯＬＤＥＮ　ＢＡＬＬＥＹ,,株式会社,東京都,港区,南青山２丁目２番１５号ウィン青山９４２,,13,103,1070062,,,2024-06-19,清算の結了等,,,2017-10-18,1,,,,,,0
1127,5010502015218,登記記録の閉鎖等,0,2024-07-03,2024-06-26,有限会社コーエーテック,,有限会社,東京都,台東区,浅草５丁目１番１０号,,13,106,1110032,,,2024-06-26,清算の結了等,,,2015-10-05,1,,,,,コーエーテック,0
1148,5011101082780,登記記録の閉鎖等,0,2024-07-03,2024-06-24,株式会社ＢＥＡＭＯ,,株式会社,東京都,新宿区,西早稲田２丁目２０番９号,,13,104,1690051,,,2024-06-24,合併による解散等,3011101053437,令和６年５月３１日東京都新宿区西早稲田二丁目２０番９号スマートモバイルコミュニケーションズ株式会社（3011101053437）に合併し解散,2018-01-10,1,,,,,ビーモ,0
1149,5011101085577,登記記録の閉鎖等,0,2024-07-03,2024-06-25,ソフィア株式会社,,株式会社,東京都,豊島区,高田３丁目３０番３号グランパセオ高田馬場６０４号,,13,116,1710033,,,2024-06-25,清算の結了等,,,2018-10-10,1,,,,,ソフィア,0
1164,5012301000185,登記記録の閉鎖等,0,2024-07-03,2024-07-01,株式会社明石雅弘建築・都市デザインシステム,,株式会社,東京都,町田市,成瀬が丘１丁目１９番２－２１３号,,13,209,1940011,,,2024-07-01,清算の結了等,,,2015-10-05,1,,,,,,0
1175,5013301048826,登記記録の閉鎖等,0,2024-07-03,2024-06-25,株式会社Ｅａｔｂｙｈａｎｄ,,株式会社,東京都,豊島区,東池袋１丁目１７－１１パークハイツ池袋１１０５,,13,116,1700013,,,2024-06-25,清算の結了等,,,2022-03-25,1,,,,,イートバイハンド,0
1192,5020003023784,登記記録の閉鎖等,0,2024-07-03,2024-06-18,ＳＮＳｐｉｒｅ合同会社,,合同会社,神奈川県,横浜市南区,別所中里台２６番１７号,,14,105,2320065,,,2024-06-18,清算の結了等,,,2023-04-24,1,,,,,エスエヌスパイアー,0
1194,5021001037719,登記記録の閉鎖等,0,2024-07-03,2024-07-01,神奈川梅草株式会社西山商店,,株式会社,神奈川県,中郡二宮町,山西４７６番地,,14,342,2590124,,,2024-07-01,清算の結了等,,,2015-10-05,1,,,,,カナガワバイソウニシヤマショウテン,0
1204,5030001109031,登記記録の閉鎖等,0,2024-07-03,2024-06-25,株式会社けあらぶ,,株式会社,東京都,中央区,日本橋蛎殻町１丁目５番６号,,13,102,1030014,,,2024-06-25,清算の結了等,,,2015-10-05,1,,,,,ケアラブ,0
1213,5030002091922,登記記録の閉鎖等,0,2024-07-03,2024-06-25,有限会社岩崎工業所,,有限会社,栃木県,佐野市,富岡町１０１番地８,,09,204,3270844,,,2024-06-25,清算の結了等,,,2015-10-05,1,,,,,イワサキコウギョウショ,0
1218,5040001127560,登記記録の閉鎖等,0,2024-07-03,2024-06-21,株式会社ボックスマン,,株式会社,千葉県,八千代市,上高野１４３６番地２,,12,221,2760022,,,2024-06-21,清算の結了等,,,2023-03-20,1,,,,,ボックスマン,0
1220,5040003015004,登記記録の閉鎖等,0,2024-07-03,2024-06-20,合同会社Ｔ’ｓ　Ａｓｓｅｔ　Ｍａｎａｇｅｍｅｎｔ,,合同会社,千葉県,八千代市,村上３５５５番地１３,,12,221,2760028,,,2024-06-20,清算の結了等,,,2020-03-09,1,,,,,ティーズアセットマネジメント,0
1230,5070002002421,登記記録の閉鎖等,0,2024-07-03,2024-07-01,有限会社さびえん舎,,有限会社,群馬県,前橋市,関根町２丁目１０番地１,,10,201,3710047,,,2024-07-01,清算の結了等,,,2015-10-05,1,,,,,サビエンシャ,0
1234,5080005006939,登記記録の閉鎖等,0,2024-07-03,2024-06-24,一般社団法人れんげ畑,,その他の設立登記法人,静岡県,静岡市葵区,北安東２丁目２８－２２,,22,101,4200881,,,2024-06-24,清算の結了等,,,2017-02-13,1,,,,,レンゲバタケ,0
1286,5180001082123,登記記録の閉鎖等,0,2024-07-03,2024-06-20,株式会社一志設備,,株式会社,愛知県,一宮市,丹羽字井端１３３０番地の９,,23,203,4910083,,,2024-06-20,清算の結了等,,,2015-10-05,1,,,,,イチシセツビ,0
1294,5180002070325,登記記録の閉鎖等,0,2024-07-03,2024-06-20,有限会社友人社,,有限会社,愛知県,小牧市,城山５丁目６４番地の１１,,23,219,4850812,,,2024-06-20,清算の結了等,,,2015-10-05,1,,,,,ユウジンシャ,0
1307,5200002011169,登記記録の閉鎖等,0,2024-07-03,2024-06-28,有限会社フジハウスセンター,,有限会社,岐阜県,羽島郡笠松町,田代６７５番地１,,21,303,5016062,,,2024-06-28,清算の結了等,,,2015-10-05,1,,,,,フジハウスセンター,0
1382,5700150030886,登記記録の閉鎖等,0,2024-07-03,2024-02-20,すさみイノブタ生産組合,,その他,和歌山県,西牟婁郡すさみ町,周参見４２２６,,30,406,6492621,,,2024-02-20,その他の清算の結了等,,,2015-10-09,1,,,,,スサミイノブタセイサンクミアイ,0
1385,6010001006551,登記記録の閉鎖等,0,2024-07-03,2024-06-21,株式会社ビーエスピーグループ壱六壱アンド偕井上建築事務所,,株式会社,東京都,文京区,本郷１丁目１３番１号,,13,105,1130033,,,2024-06-21,清算の結了等,,,2015-10-05,1,,,,,ビーエスピーグループイチロクイチアンドカイイノウエケンチクジムショ,0
1390,6010003019642,登記記録の閉鎖等,0,2024-07-03,2024-06-21,合同会社パシフィックスリー,,合同会社,東京都,千代田区,丸の内３丁目１番１号東京共同会計事務所内,,13,101,1000005,,,2024-06-21,清算の結了等,,,2015-10-05,1,,,,,パシフィックスリー,0
1451,6012402011221,登記記録の閉鎖等,0,2024-07-03,2024-07-01,有限会社山雄,,有限会社,東京都,調布市,深大寺東町３丁目１２番地４１,,13,208,1820012,,,2024-07-01,清算の結了等,,,2015-10-05,1,,,,,サンユウ,0
1463,6020003023783,登記記録の閉鎖等,0,2024-07-03,2024-06-18,Ｉｎｎｏｖａｔｉｖｅ　Ｄｅｓｉｇｎ　Ｌａｂ合同会社,,合同会社,神奈川県,横浜市南区,別所中里台２６番１７号,,14,105,2320065,,,2024-06-18,清算の結了等,,,2023-04-24,1,,,,,イノベーティブデザインラボ,0
1464,6021001017109,登記記録の閉鎖等,0,2024-07-03,2024-07-01,株式会社ウェブアイエックス,,株式会社,神奈川県,相模原市南区,相模大野８丁目１０番６号ユタカビル７Ｆ,,14,153,2520303,,,2024-07-01,清算の結了等,,,2015-10-05,1,,,,,ウェブアイエックス,0
1466,6030001001468,登記記録の閉鎖等,0,2024-07-03,2024-06-28,尾間木造園株式会社,,株式会社,埼玉県,さいたま市緑区,大字中尾２０９２番地３,,11,109,3360932,,,2024-06-28,清算の結了等,,,2015-10-05,1,,,,,オマギゾウエン,0
1467,6030001122710,登記記録の閉鎖等,0,2024-07-03,2024-07-01,エートスジェーピー株式会社,,株式会社,東京都,渋谷区,松濤１丁目２８番５号,,13,113,1500046,,,2024-07-01,清算の結了等,,,2017-10-24,1,,,,,エートスジェーピー,0
1482,6040002032420,登記記録の閉鎖等,0,2024-07-03,2024-06-20,有限会社飯田米＿,00020023,有限会社,千葉県,市川市,若宮３丁目１４番８号,,12,203,2720812,,,2024-06-20,清算の結了等,,,2015-10-05,1,,,,,イイダベイコク,0
1483,6040002037634,登記記録の閉鎖等,0,2024-07-03,2024-06-21,有限会社エイ・ユー・ケイ,,有限会社,千葉県,鎌ケ谷市,南初富２丁目７番１３号,,12,224,2730123,,,2024-06-21,清算の結了等,,,2015-10-05,1,,,,,エイユーケイ,0
1484,6040002041776,登記記録の閉鎖等,0,2024-07-03,2024-06-21,有限会社ミキインターナショナル,,有限会社,千葉県,浦安市,舞浜３丁目２番１６号,,12,227,2790031,,,2024-06-21,清算の結了等,,,2015-10-05,1,,,,,ミキインターナショナル,0
1493,6070002008327,登記記録の閉鎖等,0,2024-07-03,2024-06-28,有限会社ケーエスシー,,有限会社,群馬県,前橋市,荒子町１２００番地３,,10,201,3792106,,,2024-06-28,清算の結了等,,,2015-10-05,1,,,,,ケーエスシー,0
1498,6080001017939,登記記録の閉鎖等,0,2024-07-03,2024-06-24,株式会社トラスティナイツ,,株式会社,静岡県,静岡市駿河区,豊原町３番１５号多々良ビル１Ｆ,,22,102,4228071,,,2024-06-24,清算の結了等,,,2015-10-05,1,,,,,トラスティナイツ,0
1510,6120001030573,登記記録の閉鎖等,0,2024-07-03,2024-06-27,近畿水道株式会社,,株式会社,大阪府,大阪市住之江区,安立４丁目３番４号,,27,125,5590003,,,2024-06-27,清算の結了等,,,2015-10-05,1,,,,,キンキスイドウ,0
1514,6120001205704,登記記録の閉鎖等,0,2024-07-03,2024-06-28,株式会社田邊,,株式会社,大阪府,門真市,常称寺町１番１４号,,27,223,5710063,,,2024-06-28,清算の結了等,,,2017-05-18,1,,,,,タナベ,0
1536,6130001063424,登記記録の閉鎖等,0,2024-07-03,2024-06-28,ジュピタ株式会社,,株式会社,京都府,京都市南区,久世大藪町１４９番地８,,26,107,6010000,,,2024-06-28,清算の結了等,,,2018-12-04,1,,,,,ジュピタ,0
1553,6180001113224,登記記録の閉鎖等,0,2024-07-03,2024-06-21,柴田電設株式会社,,株式会社,愛知県,名古屋市港区,藤高１丁目８４番地,,23,111,4550854,,,2024-06-21,清算の結了等,,,2015-10-05,1,,,,,シバタデンセツ,0
1557,6180003000809,登記記録の閉鎖等,0,2024-07-03,2024-06-19,合資会社東京理容房,,合資会社,愛知県,名古屋市昭和区,阿由知通２丁目７番地,,23,107,4660027,,,2024-06-19,清算の結了等,,,2015-10-05,1,,,,,トウキョウリヨウボウ,0
1580,6260002021525,登記記録の閉鎖等,0,2024-07-03,2024-06-19,有限会社三宅住宅産業,,有限会社,岡山県,倉敷市,東塚３丁目２２番５号,,33,202,7128044,,,2024-06-19,清算の結了等,,,2015-10-05,1,,,,,ミヤケジュウタクサンギョウ,0
1582,6280001008562,登記記録の閉鎖等,0,2024-07-03,2024-07-01,株式会社相信電通,,株式会社,島根県,松江市,長海町３７６番地,,32,201,6901112,,,2024-07-01,清算の結了等,,,2021-11-17,1,,,,,アイシンデンツウ,0
1590,6290805000053,登記記録の閉鎖等,0,2024-07-03,2024-06-19,安徳院,,その他の設立登記法人,福岡県,北九州市小倉北区,砂津５４９番地,,40,106,8020000,,,2024-06-19,清算の結了等,,,2015-10-05,1,,,,,アントクイン,0
1609,6380001029037,登記記録の閉鎖等,0,2024-07-03,2024-06-25,田村電力株式会社,,株式会社,福島県,田村市,滝根町菅谷字沖田１５番地,,07,211,9633601,,,2024-06-25,清算の結了等,,,2018-04-18,1,,,,,タムラデンリョク,0
1612,6380005007773,登記記録の閉鎖等,0,2024-07-03,2024-06-25,医療法人なみえ眼科,,その他の設立登記法人,福島県,双葉郡浪江町,大字権現堂字上川原６３番地１,,07,547,9791521,,,2024-06-25,清算の結了等,,,2015-10-05,1,,,,,ナミエガンカ,0
1639,7010003021011,登記記録の閉鎖等,0,2024-07-03,2024-06-21,日光１８３アドニス本山合同会社,,合同会社,東京都,千代田区,丸の内３丁目１番１号東京共同会計事務所内,,13,101,1000005,,,2024-06-21,清算の結了等,,,2015-10-05,1,,,,,ニッコウワンハンドレッドエイティーサンアドニスモトヤマ,0
1648,7010401068001,登記記録の閉鎖等,0,2024-07-03,2024-07-01,株式会社トゥルースピリットタバコカンパニー,,株式会社,東京都,港区,虎ノ門４丁目１番１号神谷町トラストタワー,,13,103,1050001,,,2024-07-01,清算の結了等,,,2015-10-05,1,,,,,トゥルースピリットタバコカンパニー,0
1653,7010403017880,登記記録の閉鎖等,0,2024-07-03,2024-06-18,日乃出グリーン電力１号合同会社,,合同会社,東京都,港区,芝浦３丁目９番１号芝浦ルネサイトタワー６階,,13,103,1080023,,,2024-06-18,清算の結了等,,,2018-01-05,1,,,,,ヒノデグリーンデンリョクイチゴウ,0
1675,7011001102471,登記記録の閉鎖等,0,2024-07-03,2024-07-01,株式会社マイヤーズ,,株式会社,東京都,渋谷区,神南１丁目８番１８－１２０５号,,13,113,1500041,,,2024-07-01,清算の結了等,,,2015-10-05,1,,,,,マイヤーズ,0
1682,7011201021942,登記記録の閉鎖等,0,2024-07-03,2024-07-01,ワスド株式会社,,株式会社,東京都,中野区,新井２丁目２８－３エスセナーリオ中野２０１,,13,114,1650026,,,2024-07-01,清算の結了等,,,2020-01-31,1,,,,,ワスド,0
1695,7020001124087,登記記録の閉鎖等,0,2024-07-03,2024-06-24,株式会社ＴＯＰ．Ｋ,,株式会社,東京都,新宿区,大久保１丁目３－１４－８０２号,,13,104,1690072,,,2024-06-24,清算の結了等,,,2017-12-05,1,,,,,トップケー,0
1700,7021001009170,登記記録の閉鎖等,0,2024-07-03,2024-07-02,株式会社昌和製作所,,株式会社,神奈川県,鎌倉市,上町屋３６２番地,,14,204,2470065,,,2024-07-02,清算の結了等,,,2015-10-05,1,,,,,ショウワセイサクショ,0
1701,7021001019640,登記記録の閉鎖等,0,2024-07-03,2024-06-28,株式会社共和建設,,株式会社,神奈川県,厚木市,上落合７０９番地,,14,212,2430025,,,2024-06-28,清算の結了等,,,2015-10-05,1,,,,,キョウワケンセツ,0
1707,7021003009788,登記記録の閉鎖等,0,2024-07-03,2024-07-01,ｓｕｎｓｈｉｎｅ合同会社,,合同会社,神奈川県,鎌倉市,坂ノ下３２番２２－１０２号,,14,204,2480021,,,2024-07-01,清算の結了等,,,2020-10-19,1,,,,,サンシャイン,0
1722,7040001074009,登記記録の閉鎖等,0,2024-07-03,2024-06-21,奥村興業株式会社,,株式会社,千葉県,安房郡鋸南町,下佐久間９８９番地,,12,463,2992115,,,2024-06-21,清算の結了等,,,2015-10-05,1,,,,,オクムラコウギョウ,0
1724,7040001084775,登記記録の閉鎖等,0,2024-07-03,2024-06-21,海宙株式会社,,株式会社,千葉県,南房総市,千倉町平舘８７９番地１,,12,234,2950021,,,2024-06-21,清算の結了等,,,2015-10-05,1,,,,,ウミソラ,0
1737,7060005009140,登記記録の閉鎖等,0,2024-07-03,2024-06-25,特定非営利活動法人足利きものガールズ,,その他の設立登記法人,栃木県,足利市,助戸１丁目６０１番地,,09,202,3260044,,,2024-06-25,清算の結了等,,,2016-03-10,1,,,,,アシカガキモノガールズ,0
1742,7070002028745,登記記録の閉鎖等,0,2024-07-03,2024-06-28,有限会社川井鉄工所,,有限会社,群馬県,太田市,吉沢町８５１番地４,,10,205,3730019,,,2024-06-28,清算の結了等,,,2015-10-05,1,,,,,カワイテッコウショ,0
1768,7120002078000,登記記録の閉鎖等,0,2024-07-03,2024-06-20,有限会社イタヤ住宅,,有限会社,大阪府,守口市,馬場町３丁目１４番６号,,27,209,5700062,,,2024-06-20,清算の結了等,,,2024-01-31,1,,,,,イタヤジュウタク,0
1772,7120105006618,登記記録の閉鎖等,0,2024-07-03,2024-06-27,特定非営利活動法人田尻町まちづくり住民会議,,その他の設立登記法人,大阪府,泉佐野市,羽倉崎２丁目３番８号,,27,213,5980046,,,2024-06-27,清算の結了等,,,2015-10-05,1,,,,,タジリチョウマチヅクリジュウミンカイギ,0
1784,7130002016578,登記記録の閉鎖等,0,2024-07-03,2024-06-27,有限会社新装,,有限会社,京都府,京都市下京区,五条通西洞院西入平屋町４２３番地リソシエ西洞院センシア１１０１,,26,106,6008109,,,2024-06-27,清算の結了等,,,2015-10-05,1,,,,,シンソウ,0
1802,7180302018848,登記記録の閉鎖等,0,2024-07-03,2024-06-24,有限会社ビジュアルセキュリティーサービス,,有限会社,愛知県,刈谷市,井ケ谷町松根七丁目１番,,23,210,4480001,,,2024-06-24,清算の結了等,,,2015-10-05,1,,,,,ビジュアルセキュリティーサービス,0
1805,7190002010096,登記記録の閉鎖等,0,2024-07-03,2024-06-28,有限会社大大,,有限会社,三重県,伊勢市,御薗町王中島７９７番地,,24,203,5160803,,,2024-06-28,清算の結了等,,,2015-10-05,1,,,,,ダイダイ,0
1809,7200005012807,登記記録の閉鎖等,0,2024-07-03,2024-06-19,一般社団法人ｃｒｅａｔｅ　ｆｏｒ,,その他の設立登記法人,岐阜県,美濃加茂市,西町５丁目５７番１号,,21,211,5050046,,,2024-06-19,清算の結了等,,,2018-04-17,1,,,,,クリエイトフォー,0
1868,7430002059984,登記記録の閉鎖等,0,2024-07-03,2024-07-01,有限会社マテン・エンジニア,,有限会社,北海道,苫小牧市,花園町４丁目１４番７号,,01,213,0530853,,,2024-07-01,清算の結了等,,,2015-10-05,1,,,,,マテンエンジニア,0
1871,7450002006324,登記記録の閉鎖等,0,2024-07-03,2024-06-28,有限会社ハートフル・ミキ,,有限会社,北海道,旭川市,末広東一条９丁目８番３号,,01,204,0718121,,,2024-06-28,清算の結了等,,,2015-10-05,1,,,,,,0
1872,7450005002279,登記記録の閉鎖等,0,2024-07-03,2024-07-01,特定非営利活動法人かたくりの会,,その他の設立登記法人,北海道,上川郡東川町,東町４丁目１５番１２号,,01,458,0711423,,,2024-07-01,清算の結了等,,,2015-10-05,1,,,,,カタクリノカイ,0
1876,7700150108615,登記記録の閉鎖等,0,2024-07-03,2024-03-31,太田久遠二胡事務所,,その他,東京都,目黒区,鷹番３丁目１３番５号シャンボール学芸大学３０６,,13,110,1520004,,,2024-03-31,その他の清算の結了等,,,2022-05-11,1,,,,,オオタヒサトニコジムシヨ,0
1881,8010001137816,登記記録の閉鎖等,0,2024-07-03,2024-06-27,株式会社イー・ケア・サポート,,株式会社,埼玉県,さいたま市西区,大字中野林２８９番地７,,11,101,3310057,,,2024-06-27,清算の結了等,,,2015-10-05,1,,,,,イーケアサポート,0
1885,8010003020961,登記記録の閉鎖等,0,2024-07-03,2024-06-21,日光９コート東麻布合同会社,,合同会社,東京都,千代田区,丸の内３丁目１番１号東京共同会計事務所内,,13,101,1000005,,,2024-06-21,清算の結了等,,,2015-10-05,1,,,,,ニッコウナインコートヒガシアザブ,0
1934,8011801040408,登記記録の閉鎖等,0,2024-07-03,2024-07-01,株式会社ドドンゴ,,株式会社,東京都,葛飾区,新小岩１丁目５１番１３号大栄ビル５階,,13,122,1240024,,,2024-07-01,清算の結了等,,,2022-03-04,1,,,,,ドドンゴ,0
1948,8013201007251,登記記録の閉鎖等,0,2024-07-03,2024-06-19,株式会社ティーマインド,,株式会社,東京都,目黒区,碑文谷５丁目１５番１－４０４号,,13,110,1520003,,,2024-06-19,清算の結了等,,,2015-10-05,1,,,,,ティーマインド,0
1956,8020005009317,登記記録の閉鎖等,0,2024-07-03,2024-06-21,ＮＰＯ法人子どもがかける虹の森ネットワーク,,その他の設立登記法人,神奈川県,横浜市都筑区,大棚西３番３－４０９号,,14,118,2240028,,,2024-06-21,清算の結了等,,,2015-10-05,1,,,,,コドモガカケルニジノモリネットワーク,0
1965,8021005010306,登記記録の閉鎖等,0,2024-07-03,2024-07-01,一般社団法人日本キャリアアップ支援協会,,その他の設立登記法人,神奈川県,藤沢市,藤沢２２３番の９号,,14,205,2510052,,,2024-07-01,清算の結了等,,,2015-10-05,1,,,,,ニホンキャリアアップシエンキョウカイ,0
1971,8030001056691,登記記録の閉鎖等,0,2024-07-03,2024-06-27,株式会社島崎鍍金,,株式会社,埼玉県,川越市,今成４丁目１２番地１,,11,201,3501105,,,2024-06-27,清算の結了等,,,2015-10-05,1,,,,,シマザキメッキ,0
1989,8050002030132,登記記録の閉鎖等,0,2024-07-03,2024-07-01,有限会社稲野辺建設,,有限会社,茨城県,日立市,石名坂町２丁目８番１７号,,08,202,3191225,,,2024-07-01,清算の結了等,,,2015-10-05,1,,,,,イナノベケンセツ,0
1998,8100001002572,登記記録の閉鎖等,0,2024-07-03,2024-06-17,中島製パン株式会社,,株式会社,長野県,長野市,大字栗田５５番地,,20,201,3800921,,,2024-06-17,清算の結了等,,,2015-10-05,1,,,,,ナカジマセイパン,0
2009,8120001149701,登記記録の閉鎖等,0,2024-07-03,2024-06-28,三協防水工業株式会社,,株式会社,大阪府,枚方市,伊加賀西町６８番８号,,27,210,5730066,,,2024-06-28,清算の結了等,,,2015-10-05,1,,,,,サンキョウボウスイコウギョウ,0
2018,8120002046278,登記記録の閉鎖等,0,2024-07-03,2024-06-27,西日本電機有限会社,,有限会社,大阪府,大阪市北区,中之島５丁目３番９２－２１１号,,27,127,5300005,,,2024-06-27,清算の結了等,,,2015-10-05,1,,,,,ニシニホンデンキ,0
2034,8130001056797,登記記録の閉鎖等,0,2024-07-03,2024-06-28,株式会社ＭＯＲＩＴＡ－ＹＡ,,株式会社,京都府,京都市中京区,三条通富小路西入中之町８番地,,26,104,6048083,,,2024-06-28,清算の結了等,,,2016-02-04,1,,,,,モリタヤ,0
2035,8130001062754,登記記録の閉鎖等,0,2024-07-03,2024-06-28,株式会社アスワールド,,株式会社,京都府,城陽市,寺田水度坂１５番地の１５７,,26,207,6100121,,,2024-06-28,清算の結了等,,,2018-08-16,1,,,,,アスワールド,0
2054,8160001012863,登記記録の閉鎖等,0,2024-07-03,2024-06-17,株式会社滋賀住建,,株式会社,滋賀県,草津市,草津町１６６０番地５,,25,206,5250036,,,2024-06-17,清算の結了等,,,2015-10-05,1,,,,,シガジュウケン,0
2055,8160003002301,登記記録の閉鎖等,0,2024-07-03,2024-06-28,合同会社ＮＢＴ,,合同会社,滋賀県,彦根市,後三条町５００番地５,,25,202,5220086,,,2024-06-28,清算の結了等,,,2021-06-01,1,,,,,エヌビーティー,0
2064,8180003015482,登記記録の閉鎖等,0,2024-07-03,2024-06-19,合同会社八琴ダイニング,,合同会社,愛知県,名古屋市昭和区,広路町字石坂２番地１,,23,107,4660834,,,2024-06-19,清算の結了等,,,2015-10-05,1,,,,,ヤゴトダイニング,0
2082,8240002004942,登記記録の閉鎖等,0,2024-07-03,2024-06-27,有限会社ほまれ,,有限会社,広島県,広島市西区,福島町１丁目４番１７号,,34,104,7330024,,,2024-06-27,清算の結了等,,,2015-10-05,1,,,,,,0
2089,8290002046121,登記記録の閉鎖等,0,2024-07-03,2024-06-07,理容タテイワ有限会社,,有限会社,福岡県,飯塚市,川島５８８番地の８,,40,205,8200002,,,2024-06-07,清算の結了等,,,2015-10-05,1,,,,,リヨウタテイワ,0
2105,8350003001936,登記記録の閉鎖等,0,2024-07-03,2024-06-25,合同会社にこにこ,,合同会社,宮崎県,都城市,鷹尾３丁目２街区５号,,45,202,8850081,,,2024-06-25,清算の結了等,,,2015-10-05,1,,,,,ニコニコ,0
2113,8370002014904,登記記録の閉鎖等,0,2024-07-03,2024-06-20,有限会社ガーデックス,,有限会社,宮城県,仙台市太白区,四郎丸字渡道１５番地の４,,04,104,9811101,,,2024-06-20,清算の結了等,,,2015-10-05,1,,,,,ガーデックス,0
2133,8470001012650,登記記録の閉鎖等,0,2024-07-03,2024-06-26,瓦乃匠いとせ株式会社,,株式会社,香川県,高松市,中間町１８０番地４,,37,201,7618043,,,2024-06-26,清算の結了等,,,2015-10-05,1,,,,,カワラノタクミイトセ,0
2135,8700150015026,登記記録の閉鎖等,0,2024-07-03,2024-03-31,千葉県公社等運営協議会,,その他,千葉県,千葉市中央区,富士見２丁目３番１号,,12,101,2600015,,,2024-03-31,その他の清算の結了等,,,2015-10-09,1,,,,,チバケンコウシヤトウウンエイキヨウギカイ,0
2136,8700150089788,登記記録の閉鎖等,0,2024-07-03,2024-02-29,川和町駅周辺西地区土地区画整理組合,,その他,神奈川県,横浜市都筑区,川和町３０５０,,14,118,2240057,,,2024-02-29,その他の清算の結了等,,,2018-06-27,1,,,,,カワワチヨウエキシユウヘンニシチクトチクカクセイリクミアイ,0
2141,9010003040521,登記記録の閉鎖等,0,2024-07-03,2024-06-21,Ｏｘｅｎｔｉａ　Ｊａｐａｎ合同会社,,合同会社,東京都,中央区,日本橋本町２丁目３番１１号日本橋ライフサイエンスビルディング５Ｆ,,13,102,1030023,,,2024-06-21,清算の結了等,,,2023-05-11,1,,,,,オクセンティアジャパン,0
2147,9010401062299,登記記録の閉鎖等,0,2024-07-03,2024-07-01,株式会社ダブルイーグルジャパンリミテッド,,株式会社,東京都,町田市,中町１丁目１７－１０－２０２,,13,209,1940021,,,2024-07-01,清算の結了等,,,2015-10-05,1,,,,,ダブルイーグルジャパンリミテッド,0
2162,9010701010206,登記記録の閉鎖等,0,2024-07-03,2024-06-28,株式会社フィンチ・マネジメントサービス,,株式会社,東京都,品川区,西五反田８丁目３番１３号,,13,109,1410031,,,2024-06-28,清算の結了等,,,2015-10-05,1,,,,,,0
2168,9010902018122,登記記録の閉鎖等,0,2024-07-03,2024-06-27,有限会社クオリティーライフ,,有限会社,東京都,世田谷区,成城８丁目５番２号,,13,112,1570066,,,2024-06-27,清算の結了等,,,2015-10-05,1,,,,,クオリティーライフ,0
2182,9011102002305,登記記録の閉鎖等,0,2024-07-03,2024-06-25,有限会社エム・ワイ・エムコーポレーション,,有限会社,東京都,新宿区,市谷仲之町１番１０号パークコート市谷ノーブルヒルズ６０１,,13,104,1620064,,,2024-06-25,清算の結了等,,,2015-10-05,1,,,,,エムワイエムコーポレーション,0
2209,9013401005855,登記記録の閉鎖等,0,2024-07-03,2024-07-01,アペント株式会社,,株式会社,東京都,多摩市,関戸３丁目１１番地１５,,13,224,2060011,,,2024-07-01,清算の結了等,,,2015-10-05,1,,,,,アペント,0
2210,9020001054877,登記記録の閉鎖等,0,2024-07-03,2024-06-20,明正株式会社,,株式会社,神奈川県,横浜市港南区,上永谷４丁目６番９号,,14,111,2330012,,,2024-06-20,清算の結了等,,,2015-10-05,1,,,,,メイショウ,0
2238,9030002019993,登記記録の閉鎖等,0,2024-07-03,2024-07-01,有限会社ビーエムプラン,,有限会社,埼玉県,さいたま市北区,日進町１丁目４３番地６号,,11,102,3310823,,,2024-07-01,清算の結了等,,,2015-10-05,1,,,,,ビーエムプラン,0
2241,9040001119827,登記記録の閉鎖等,0,2024-07-03,2024-06-20,株式会社石の華,,株式会社,千葉県,千葉市中央区,中央１丁目６番４号中央ハイツ１Ｆ,,12,101,2600013,,,2024-06-20,清算の結了等,,,2021-08-17,1,,,,,イシノハナ,0
2249,9040005013852,登記記録の閉鎖等,0,2024-07-03,2024-06-21,医療法人社団大串小児科医院,,その他の設立登記法人,千葉県,我孫子市,柴崎台３丁目７番５号,,12,222,2701176,,,2024-06-21,清算の結了等,,,2015-10-05,1,,,,,オオグシショウニカイイン,0
2254,9070003003431,登記記録の閉鎖等,0,2024-07-03,2024-06-28,合同会社プレイス,,合同会社,群馬県,伊勢崎市,豊城町２０８０番地７,,10,204,3720012,,,2024-06-28,清算の結了等,,,2019-04-19,1,,,,,プレイス,0
2266,9100002001382,登記記録の閉鎖等,0,2024-07-03,2024-06-18,有限会社キャロット秀和,,有限会社,長野県,長野市,大字富竹１１３番地,,20,201,3810006,,,2024-06-18,清算の結了等,,,2015-10-05,1,,,,,キャロットシュウワ,0
2282,9120101053769,登記記録の閉鎖等,0,2024-07-03,2024-07-01,シラミズガーデン株式会社,,株式会社,大阪府,泉佐野市,日根野７２１７,,27,213,5980021,,,2024-07-01,清算の結了等,,,2015-10-22,1,,,,,シラミズガーデン,0
2326,9180301037434,登記記録の閉鎖等,0,2024-07-03,2024-06-28,株式会社ガレージ・スズキ,,株式会社,愛知県,安城市,新田町郷東３９番地４,,23,212,4460061,,,2024-06-28,清算の結了等,,,2023-06-19,1,,,,,ガレージスズキ,0
2334,9200002022294,登記記録の閉鎖等,0,2024-07-03,2024-07-01,有限会社貴味寿司,,有限会社,岐阜県,多治見市,笠原町１６４７番地の１５７,,21,204,5070901,,,2024-07-01,清算の結了等,,,2015-10-05,1,,,,,キミズシ,0
2348,9280005007046,登記記録の閉鎖等,0,2024-07-03,2024-06-27,特定非営利活動法人祭プラス,,その他の設立登記法人,島根県,出雲市,大津新崎町４丁目１８番地,,32,203,6930012,,,2024-06-27,清算の結了等,,,2015-10-05,1,,,,,マツリプラス,0
2349,9290001078172,登記記録の閉鎖等,0,2024-07-03,2024-06-27,株式会社シックスワン,,株式会社,沖縄県,那覇市,若狭２丁目４番２５号,,47,201,9000031,,,2024-06-27,清算の結了等,,,2017-06-09,1,,,,,シックスワン,0
2361,9330001020518,登記記録の閉鎖等,0,2024-07-03,2024-06-24,株式会社ＩＮ　ＴＥＣ,,株式会社,熊本県,菊池市,旭志新明２７７５番地１あさひのハイツ１０５号室,,43,210,8691207,,,2024-06-24,清算の結了等,,,2015-10-05,1,,,,,インテック,0
2391,9420002010995,登記記録の閉鎖等,0,2024-07-03,2024-07-01,有限会社オガワ商事,,有限会社,青森県,五所川原市,大字太刀打字柳川１６２番地２,,02,205,0370091,,,2024-07-01,清算の結了等,,,2015-10-05,1,,,,,オガワショウジ,0
2406,9430005001413,登記記録の閉鎖等,0,2024-07-03,2024-07-01,一般財団法人北海道運輸交通研究センター,,その他の設立登記法人,北海道,札幌市北区,北七条西４丁目５番地１,,01,102,0600807,,,2024-07-01,清算の結了等,,,2015-10-05,1,,,,,ホッカイドウウンユコウツウケンキュウセンター,0
2412,9700150007559,登記記録の閉鎖等,0,2024-07-03,2024-03-14,武蔵小山パルム駅前地区市街地再開発組合,,その他,東京都,品川区,小山３丁目２６－９駅サイドビル６階,,13,109,1420062,,,2024-03-14,その他の清算の結了等,,,2015-10-09,1,,,,,ムサシコヤマパルムエキマエチクシガイチサイカイハツクミアイ,0
2414,9700150041681,登記記録の閉鎖等,0,2024-07-03,2024-03-31,中京銀行健康保険組合,,その他,愛知県,名古屋市中区,栄３丁目３３－１３,,23,106,4600008,,,2024-03-31,その他の清算の結了等,,,2015-10-09,1,,,,,チユウキヨウギンコウケンコウホケンクミアイ,0
2415,9700150098152,登記記録の閉鎖等,0,2024-07-03,2022-04-01,松本市生涯現役促進協議会,,その他,長野県,松本市,中央４丁目７－２６,,20,202,3900811,,,2022-04-01,その他の清算の結了等,,,2020-03-02,1,,,,,マツモトシシヨウガイゲンエキソクシンキヨウギカイ,0
2416,9700150106534,登記記録の閉鎖等,0,2024-07-03,2024-03-31,ＢｌａｃｋＲｏｍａｎｃｅＦｉｌｍｓ,,その他,東京都,練馬区,小竹町２丁目８－４,,13,120,1760004,,,2024-03-31,その他の清算の結了等,,,2022-01-06,1,,,,,ブラツクロマンスフイルムズ,0
