sequenceNumber,corporateNumber,process,correct,updateDate,changeDate,name,nameImageId,kind,prefectureName,cityName,streetNumber,addressImageId,prefectureCode,cityCode,postCode,addressOutside,addressOutsideImageId,closeDate,closeCause,successorCorporateNumber,changeCause,assignmentDate,latest,enName,enPrefectureName,enCityName,enAddressOutside,furigana,hihyoji
6,1010001242077,新規,0,2024-02-08,2024-02-08,株式会社ＭＫクリニック,,株式会社,東京都,千代田区,九段南２丁目４番１１号パシフィックスクエア九段南７０１,,13,101,1020074,,,,,,,2024-02-08,1,,,,,エムケイクリニック,0
8,1010003042905,新規,0,2024-02-08,2024-02-08,合同会社Ｇｒｏｗ　Ｄｒｉｖｅ,,合同会社,東京都,中央区,日本橋室町１丁目１１番１２号,,13,102,1030022,,,,,,,2024-02-08,1,,,,,グロードライブ,0
23,1010401180224,新規,0,2024-02-08,2024-02-08,源泉株式会社,,株式会社,東京都,港区,新橋６丁目８番１号信永中和ビル２０１,,13,103,1050004,,,,,,,2024-02-08,1,,,,,ゲンセン,0
30,1010403031920,新規,0,2024-02-08,2024-02-08,秋田コーメン合同会社,,合同会社,東京都,港区,新橋６丁目５番４号２階,,13,103,1050004,,,,,,,2024-02-08,1,,,,,アキタコーメン,0
34,1010603010633,新規,0,2024-02-08,2024-02-08,合同会社ＯＭ,,合同会社,東京都,江東区,有明２丁目１番２－１６１２号,,13,108,1350063,,,,,,,2024-02-08,1,,,,,オーエム,0
35,1010603010641,新規,0,2024-02-08,2024-02-08,合同会社Ｇｉｎｓ,,合同会社,東京都,江東区,南砂４丁目３‐１１ライオンズマンション南砂７０２,,13,108,1360076,,,,,,,2024-02-08,1,,,,,ギンズ,0
38,1010701045531,新規,0,2024-02-08,2024-02-08,Ａｌｔｅｒ　Ａｌｔｅｒ株式会社,,株式会社,東京都,品川区,東大井２丁目２３番１号名人亭ビル２階,,13,109,1400011,,,,,,,2024-02-08,1,,,,,オルターオルター,0
40,1010801034764,新規,0,2024-02-08,2024-02-08,株式会社ＪｅｅＰｅ,,株式会社,東京都,大田区,山王２丁目５－１３大森北口ビル５Ｆ,,13,111,1430023,,,,,,,2024-02-08,1,,,,,ジェーピー,0
49,1011001159906,新規,0,2024-02-08,2024-02-08,ラムダ株式会社,,株式会社,東京都,渋谷区,神宮前６丁目２３番４号桑野ビル２階,,13,113,1500001,,,,,,,2024-02-08,1,,,,,ラムダ,0
52,1011005010362,新規,0,2024-02-08,2024-02-08,一般社団法人オール青山スポーツコミュニティ,,その他の設立登記法人,東京都,渋谷区,渋谷４丁目４番２５号,,13,113,1500002,,,,,,,2024-02-08,1,,,,,オールアオヤマスポーツコミュニティ,0
61,1011501030260,新規,0,2024-02-08,2024-02-08,株式会社Ａｒｂｒ,,株式会社,東京都,北区,中里１丁目９番１２－１００１号,,13,117,1140015,,,,,,,2024-02-08,1,,,,,アルブル,0
62,1011501030310,新規,0,2024-02-08,2024-02-08,株式会社ＡＥＭＵＳ　ＧＬＯＢＡＬ　ＴＲＡＤＩＮＧ,,株式会社,東京都,北区,赤羽１丁目５９番９号,,13,117,1150045,,,,,,,2024-02-08,1,,,,,イームスグローバルトレーディング,0
67,1011703003733,新規,0,2024-02-08,2024-02-08,Ｙｕｍｉ’ｓ合同会社,,合同会社,東京都,江戸川区,西葛西６丁目１３番１号,,13,123,1340088,,,,,,,2024-02-08,1,,,,,ユミーズ,0
71,1011801043755,新規,0,2024-02-08,2024-02-08,株式会社Ｓ．ｍａｒｔ,,株式会社,東京都,葛飾区,西新小岩４丁目１４番１４号,,13,122,1240025,,,,,,,2024-02-08,1,,,,,スマート,0
72,1011801043763,新規,0,2024-02-08,2024-02-08,株式会社もてぎ,,株式会社,東京都,足立区,伊興本町２丁目２番２０号,,13,121,1210807,,,,,,,2024-02-08,1,,,,,モテギ,0
74,1011803006082,新規,0,2024-02-08,2024-02-08,合同会社ケイブリッジ,,合同会社,東京都,足立区,大谷田５丁目３番１４号,,13,121,1200001,,,,,,,2024-02-08,1,,,,,,0
79,1012403006407,新規,0,2024-02-08,2024-02-08,合同会社ＩＴＯ,,合同会社,東京都,府中市,府中町１丁目５番地の５ＳＲビル３階,,13,206,1830055,,,,,,,2024-02-08,1,,,,,アイティオー,0
89,1020001155682,新規,0,2024-02-08,2024-02-08,ＫＫ株式会社,,株式会社,神奈川県,横浜市港北区,篠原町１４８７－５５,,14,109,2220026,,,,,,,2024-02-08,1,,,,,ケイケイ,0
90,1020001155690,新規,0,2024-02-08,2024-02-08,株式会社ＳＨＩＭ,,株式会社,神奈川県,横浜市戸塚区,上矢部町１１８０番地３,,14,110,2450053,,,,,,,2024-02-08,1,,,,,シム,0
91,1020001155749,新規,0,2024-02-08,2024-02-08,Ｋ’ｓハウス株式会社,,株式会社,神奈川県,横浜市保土ケ谷区,狩場町２６番地１,,14,106,2400025,,,,,,,2024-02-08,1,,,,,ケーズハウス,0
92,1020003025495,新規,0,2024-02-08,2024-02-08,ｉｒｏｄｏｒｉ合同会社,,合同会社,神奈川県,横浜市中区,北仲通５丁目５７番地２ザ・タワー横浜北仲６１２号室,,14,104,2310003,,,,,,,2024-02-08,1,,,,,イロドリ,0
93,1020003025520,新規,0,2024-02-08,2024-02-08,合同会社アソビココロ,,合同会社,神奈川県,川崎市高津区,蟹ケ谷２２番地１,,14,134,2130025,,,,,,,2024-02-08,1,,,,,アソビココロ,0
94,1021001081407,新規,0,2024-02-08,2024-02-08,ｓｅｌｆｓｐａｃｅ株式会社,,株式会社,神奈川県,茅ヶ崎市,常盤町２番６８－７号,,14,207,2530032,,,,,,,2024-02-08,1,,,,,セルフスペース,0
97,1021003014133,新規,0,2024-02-08,2024-02-08,合同会社２２０２ゲームズ,,合同会社,神奈川県,相模原市緑区,西橋本５丁目２番１３‐２２０２号,,14,151,2520131,,,,,,,2024-02-08,1,,,,,ニャンニャンマルニャンゲームズ,0
101,1030001158503,新規,0,2024-02-08,2024-02-08,株式会社エービックラボ,,株式会社,埼玉県,北本市,宮内５丁目２５１番地,,11,233,3640002,,,,,,,2024-02-08,1,,,,,エービックラボ,0
102,1030001158536,新規,0,2024-02-08,2024-02-08,株式会社Ｊ＆Ｂ,,株式会社,埼玉県,草加市,氷川町３９６番地３マイキャッスル草加ＩＩ－１０１号,00133664,11,221,3400034,,,,,,,2024-02-08,1,,,,,ジェイアンドビー,0
112,1040001132135,新規,0,2024-02-08,2024-02-08,Ｓ．Ｋ　Ｐｒｏｊｅｃｔ株式会社,,株式会社,千葉県,八千代市,高津４７０キャッスルマキ１号棟１ＦＤ,,12,221,2760036,,,,,,,2024-02-08,1,,,,,エスケープロジェクト,0
114,1040005022282,新規,0,2024-02-08,2024-02-08,一般社団法人照敬会,,その他の設立登記法人,千葉県,成田市,並木町７０番地２,,12,211,2860045,,,,,,,2024-02-08,1,,,,,ショウケイカイ,0
121,1060001036796,新規,0,2024-02-08,2024-02-08,株式会社エムケーサービス,,株式会社,栃木県,宇都宮市,八千代２丁目１０番５号,,09,201,3210169,,,,,,,2024-02-08,1,,,,,エムケーサービス,0
122,1070001041366,新規,0,2024-02-08,2024-02-08,株式会社コンツェルト,,株式会社,群馬県,伊勢崎市,三室町５２６７番地８センターフィールドＣ,,10,204,3792235,,,,,,,2024-02-08,1,,,,,コンツェルト,0
127,1090001018536,新規,0,2024-02-08,2024-02-08,株式会社Ｓｏｌｌｅｖｉｇｎａ,,株式会社,山梨県,山梨市,上神内川１２６５番地１－３０１,,19,205,4050018,,,,,,,2024-02-08,1,,,,,ソルレヴィーニャ,0
129,1100001037204,新規,0,2024-02-08,2024-02-08,株式会社彩クリエイション,,株式会社,長野県,長野市,大字西尾張部２９０番地２サーパス東長野第２・６０１,,20,201,3810031,,,,,,,2024-02-08,1,,,,,イロドリクリエイション,0
130,1100003007394,新規,0,2024-02-08,2024-02-08,ユニフォワード合同会社,,合同会社,長野県,東御市,田中５５９番地１,,20,219,3890516,,,,,,,2024-02-08,1,,,,,ユニフォワード,0
141,1120001262097,新規,0,2024-02-08,2024-02-08,株式会社パンダテック,,株式会社,大阪府,枚方市,中宮本町１１番３０号,,27,210,5731196,,,,,,,2024-02-08,1,,,,,パンダテック,0
142,1120001262114,新規,0,2024-02-08,2024-02-08,株式会社ＵＮｉ,,株式会社,大阪府,大阪市北区,豊崎４丁目９番１９－７０４号,,27,127,5310072,,,,,,,2024-02-08,1,,,,,ユニ,0
143,1120001262122,新規,0,2024-02-08,2024-02-08,不落教育科技株式会社,,株式会社,大阪府,大阪市中央区,本町２丁目３番４号アソルティ本町４Ｆ,,27,128,5410053,,,,,,,2024-02-08,1,,,,,フラクキョウイクカギ,0
144,1120001262270,新規,0,2024-02-08,2024-02-08,株式会社フロンティア,,株式会社,大阪府,大阪市中央区,島之内１丁目２２番２２号第一住建島之内堺筋ビル７０２,,27,128,5420082,,,,,,,2024-02-08,1,,,,,フロンティア,0
151,1120005024147,新規,0,2024-02-08,2024-02-08,一般社団法人日本ヒト幹細胞培養上清研究会,,その他の設立登記法人,大阪府,大阪市旭区,千林２丁目１８番３－２０３号,,27,117,5350012,,,,,,,2024-02-08,1,,,,,ニホンヒトカンサイボウバイヨウジョウセイケンキュウカイ,0
156,1120103005676,新規,0,2024-02-08,2024-02-08,ライジング合同会社,,合同会社,大阪府,泉大津市,虫取町１丁目１６番２１号,,27,206,5950037,,,,,,,2024-02-08,1,,,,,ライジング,0
162,1122003002794,新規,0,2024-02-08,2024-02-08,合同会社ＫＡＭＧ,,合同会社,大阪府,八尾市,山本高安町２丁目１２－５ＳＯＨＯビル１階,,27,212,5810021,,,,,,,2024-02-08,1,,,,,ケーエーエムジー,0
163,1130001076331,新規,0,2024-02-08,2024-02-08,株式会社京都天風,,株式会社,京都府,城陽市,寺田宮ノ谷１１番地の２２１,,26,207,6100121,,,,,,,2024-02-08,1,,,,,キョウトテンプウ,0
168,1140001133206,新規,0,2024-02-08,2024-02-08,株式会社トーヨーホールディングス,,株式会社,兵庫県,三田市,香下字長谷６９９番地９,,28,219,6691507,,,,,,,2024-02-08,1,,,,,トーヨーホールディングス,0
169,1140001133263,新規,0,2024-02-08,2024-02-08,株式会社パナハウスごとう電化,,株式会社,兵庫県,神崎郡福崎町,福田３３２－１７,,28,443,6792212,,,,,,,2024-02-08,1,,,,,パナハウスゴトウデンカ,0
170,1140001133288,新規,0,2024-02-08,2024-02-08,株式会社タイラ建築設計室,,株式会社,兵庫県,神戸市西区,月が丘２丁目１１番地の１１,,28,111,6512217,,,,,,,2024-02-08,1,,,,,タイラケンチクセッケイシツ,0
173,1140003020154,新規,0,2024-02-08,2024-02-08,合同会社クリエイティブヒーローズ,,合同会社,兵庫県,神崎郡福崎町,福崎新３７６番地１サファイア福崎Ｃ棟２号,,28,443,6792214,,,,,,,2024-02-08,1,,,,,クリエイティブヒーローズ,0
196,1180301038308,新規,0,2024-02-08,2024-02-08,オンビリンジャパン株式会社,,株式会社,愛知県,西尾市,羽塚町新坂１５番地１,,23,213,4440316,,,,,,,2024-02-08,1,,,,,オンビリンジャパン,0
198,1190003004581,新規,0,2024-02-08,2024-02-08,合同会社福楽,,合同会社,三重県,伊勢市,小俣町元町１６５０番地,,24,203,5190503,,,,,,,2024-02-08,1,,,,,フクラク,0
201,1200001042136,新規,0,2024-02-08,2024-02-08,株式会社ＥＮシステム,,株式会社,岐阜県,多治見市,喜多町３丁目３２番地,,21,204,5070055,,,,,,,2024-02-08,1,,,,,エンシステム,0
204,1220003003670,新規,0,2024-02-08,2024-02-08,合同会社Ｏｋｕｎｏｔｏ　Ａｒｃｈｉｔｅｃｔｓ,,合同会社,石川県,輪島市,門前町黒島町ロの１１２番地２,,17,204,9272165,,,,,,,2024-02-08,1,,,,,オクノトアーキテクツ,0
207,1240001062766,新規,0,2024-02-08,2024-02-08,株式会社花,,株式会社,広島県,広島市中区,本通９番２９号,,34,101,7300035,,,,,,,2024-02-08,1,,,,,ハナ,0
208,1240001062774,新規,0,2024-02-08,2024-02-08,株式会社流石,,株式会社,広島県,広島市佐伯区,八幡東２丁目２６番６－５０１号,,34,108,7315115,,,,,,,2024-02-08,1,,,,,サスガ,0
211,1240003006523,新規,0,2024-02-08,2024-02-08,合同会社いしはら商店,,合同会社,広島県,尾道市,平原２丁目３番５号,,34,205,7220018,,,,,,,2024-02-08,1,,,,,イシハラショウテン,0
215,1260001038748,新規,0,2024-02-08,2024-02-08,株式会社ＰＬＡＮＴ　ＨＯＭＥ,,株式会社,岡山県,岡山市北区,中山下２丁目８番５５号フローレンス中山下グランドアーク６０２,,33,101,7000821,,,,,,,2024-02-08,1,,,,,プラントホーム,0
228,1290003014901,新規,0,2024-02-08,2024-02-08,合同会社創生,,合同会社,福岡県,飯塚市,横田２５３－３－１,,40,205,8200044,,,,,,,2024-02-08,1,,,,,ソウセイ,0
229,1290801030298,新規,0,2024-02-08,2024-02-08,ＧＯＭＩソリューションズ株式会社,,株式会社,福岡県,北九州市小倉北区,浅野３丁目８番１号ＡＩＭビル　コンパス小倉,,40,106,8020001,,,,,,,2024-02-08,1,,,,,ゴミソリューションズ,0
234,1320001020278,新規,0,2024-02-08,2024-02-08,株式会社アップグレード,,株式会社,大分県,大分市,萩原１丁目６番１４号朝日ビル１０９,,44,201,8700921,,,,,,,2024-02-08,1,,,,,アップグレード,0
235,1320001020286,新規,0,2024-02-08,2024-02-08,株式会社スター・マイン,,株式会社,大分県,大分市,東浜２丁目１番２８号アンビエント東浜３０２,,44,201,8700932,,,,,,,2024-02-08,1,,,,,スターマイン,0
237,1330003010202,新規,0,2024-02-08,2024-02-08,合同会社心結,,合同会社,熊本県,熊本市中央区,黒髪７丁目７２０－２０６,,43,101,8600862,,,,,,,2024-02-08,1,,,,,コヨリ,0
241,1360003013689,新規,0,2024-02-08,2024-02-08,農業生産法人合同会社蝶豆農園,,合同会社,沖縄県,中頭郡読谷村,字宇座１６８１番地,,47,324,9040328,,,,,,,2024-02-08,1,,,,,ノウギョウセイサンホウジンチョウマメノウエン,0
244,1380003005676,新規,0,2024-02-08,2024-02-08,合同会社ＫＡＴＥＫＹＯいわき,,合同会社,福島県,いわき市,平字南町６０番地勇屋ビル３Ｆ,,07,204,9708026,,,,,,,2024-02-08,1,,,,,カテキョーイワキ,0
245,1390001017516,新規,0,2024-02-08,2024-02-08,株式会社ＷｏｎｄｅｒＦｕｔｕｒｅ,,株式会社,山形県,西置賜郡白鷹町,大字鮎貝２２２６番地２５,,06,402,9920771,,,,,,,2024-02-08,1,,,,,ワンダーフューチャー,0
247,1430001091011,新規,0,2024-02-08,2024-02-08,三和商行株式会社,,株式会社,北海道,札幌市東区,伏古八条４丁目７番２２号,,01,103,0070868,,,,,,,2024-02-08,1,,,,,サンワショウコウ,0
248,1430001091052,新規,0,2024-02-08,2024-02-08,株式会社エスワン,,株式会社,北海道,札幌市豊平区,月寒中央通８丁目４番２８号,,01,105,0620020,,,,,,,2024-02-08,1,,,,,エスワン,0
249,1440001009383,新規,0,2024-02-08,2024-02-08,株式会社ＡＯａｇｒｉ,,株式会社,北海道,檜山郡上ノ国町,字中須田４０７番地８,,01,362,0490624,,,,,,,2024-02-08,1,,,,,エーオーアグリ,0
250,1480001012383,新規,0,2024-02-08,2024-02-08,株式会社コンフィデンス,,株式会社,徳島県,徳島市,南出来島町１丁目７１番地,,36,201,7700824,,,,,,,2024-02-08,1,,,,,コンフィデンス,0
252,1700150123891,新規,0,2024-02-08,2024-02-08,ＷｏｒｌｄＭａｒｔ　Ｉｎｔｅｒｎａｔｉｏｎａｌ　Ｌｉｍｉｔｅｄ,,外国会社等,,,,,,,,５／Ｆ，Ｐｒｉｍｏｋｎｉｔ　Ｉｎｄｕｓｔｒｉａｌ　Ｂｕｉｌｄｉｎｇ，７－９　Ｋｕｎｇ　Ｙｉｐ　Ｓｔｒｅｅｔ，Ｋｗａｉ　Ｃｈｕｎｇ　ＮＴ,,,,,,2024-02-08,1,,,,,エビコクサイユウゲンコウシ,0
253,1700150123900,新規,0,2024-02-08,2024-02-08,鳳凰紅（嘉興）文化傳媒有限公司,,外国会社等,,,,,,,,中国浙江省嘉興市南湖区東柵街道富潤路２５７号１幢３０５室,,,,,,2024-02-08,1,,,,,ホウオウコウカコウブンカデンバイユウゲンコウシ,0
261,2010003042854,新規,0,2024-02-08,2024-02-08,ＬＥＶＥＣＨＹファンド１５号合同会社,,合同会社,東京都,千代田区,紀尾井町３－８第２紀尾井町ビル９０１アクシス綜合会計事務所内,,13,101,1020094,,,,,,,2024-02-08,1,,,,,レベチーファンドジュウゴゴウ,0
280,2010405022917,新規,0,2024-02-08,2024-02-08,一般社団法人ＵＭＩＳＵＫＥ,,その他の設立登記法人,東京都,港区,東新橋１丁目６番１号,,13,103,1050021,,,,,,,2024-02-08,1,,,,,ウミスケ,0
281,2010405022941,新規,0,2024-02-08,2024-02-08,ＤＯＦ１号一般社団法人,,その他の設立登記法人,東京都,港区,元赤坂１丁目１番７号,,13,103,1070051,,,,,,,2024-02-08,1,,,,,ディーオーエフイチゴウ,0
282,2010501051737,新規,0,2024-02-08,2024-02-08,株式会社ヴィースパイアエンターテイメント,,株式会社,東京都,台東区,小島２丁目２０番１１号ＬＩＧビル,,13,106,1110056,,,,,,,2024-02-08,1,,,,,ヴィースパイアエンターテイメント,0
283,2010501051753,新規,0,2024-02-08,2024-02-08,株式会社Ｒａｒｅ　Ｃｏｏｌ,,株式会社,東京都,台東区,入谷２丁目３８番４－１４０５号パークアクシス入谷,,13,106,1100013,,,,,,,2024-02-08,1,,,,,レアクール,0
285,2010601064614,新規,0,2024-02-08,2024-02-08,株式会社ＫＵＳ‐ＺＯＯ,,株式会社,東京都,墨田区,江東橋３丁目９番１５号,,13,107,1300022,,,,,,,2024-02-08,1,,,,,ケーユーエスズー,0
287,2010603010632,新規,0,2024-02-08,2024-02-08,合同会社ＢＡＢＢＡＢＹ　ＨＯＵＳＥ,,合同会社,東京都,江東区,森下１丁目１２番５号,,13,108,1350004,,,,,,,2024-02-08,1,,,,,ババビーハウス,0
295,2010901054686,新規,0,2024-02-08,2024-02-08,株式会社ＴＷＯ,,株式会社,東京都,世田谷区,大蔵１丁目２番２１－１０４号,,13,112,1570074,,,,,,,2024-02-08,1,,,,,ティーダブリュオー,0
301,2011001159839,新規,0,2024-02-08,2024-02-08,クラウン・アンド・マナー株式会社,,株式会社,東京都,目黒区,碑文谷２丁目２０番２４－１０１号,,13,110,1520003,,,,,,,2024-02-08,1,,,,,クラウンアンドマナー,0
302,2011001159921,新規,0,2024-02-08,2024-02-08,株式会社ＭｅｎｔａｒＲｉｓｅ,,株式会社,東京都,渋谷区,渋谷２丁目１９番１５号宮益坂ビルディング６０９,,13,113,1500002,,,,,,,2024-02-08,1,,,,,メンターライズ,0
309,2011205002588,新規,0,2024-02-08,2024-02-08,一般社団法人ジェネシス東京,,その他の設立登記法人,東京都,中野区,弥生町１丁目２７番２号,,13,114,1640013,,,,,,,2024-02-08,1,,,,,ジェネシストウキョウ,0
311,2011401025847,新規,0,2024-02-08,2024-02-08,株式会社ＧＯＳＡＩ,,株式会社,東京都,板橋区,大谷口２丁目６２－５、１０２号室,,13,119,1730035,,,,,,,2024-02-08,1,,,,,ゴサイ,0
312,2011501030318,新規,0,2024-02-08,2024-02-08,睿雲聯日本株式会社,,株式会社,東京都,北区,浮間１丁目７－２３兆豊浮間ビル５０２号室,,13,117,1150051,,,,,,,2024-02-08,1,,,,,エウンレンニホン,0
316,2011603004236,新規,0,2024-02-08,2024-02-08,合同会社とりいろは,,合同会社,東京都,練馬区,小竹町２丁目１番１－２１０号クレヴィア小竹向原,,13,120,1760004,,,,,,,2024-02-08,1,,,,,トリイロハ,0
319,2011801043754,新規,0,2024-02-08,2024-02-08,株式会社エスプランニング,,株式会社,東京都,葛飾区,東新小岩８丁目２７番１９号,,13,122,1240023,,,,,,,2024-02-08,1,,,,,エスプランニング,0
320,2011801043762,新規,0,2024-02-08,2024-02-08,株式会社アドニス・ケア,,株式会社,東京都,足立区,梅田７丁目３２番６号,,13,121,1230851,,,,,,,2024-02-08,1,,,,,アドニスケア,0
322,2011805003341,新規,0,2024-02-08,2024-02-08,一般社団法人日本障害者コミュニケーション支援協会,,その他の設立登記法人,東京都,葛飾区,立石７丁目７番９号,,13,122,1240012,,,,,,,2024-02-08,1,,,,,ニホンショウガイシャコミュニケーションシエンキョウカイ,0
323,2012401041479,新規,0,2024-02-08,2024-02-08,宏祥設備株式会社,,株式会社,東京都,調布市,国領町５丁目６２番地１７,,13,208,1820022,,,,,,,2024-02-08,1,,,,,コウショウセツビ,0
330,2013301052046,新規,0,2024-02-08,2024-02-08,株式会社Ａ　ｂｉｅｎｔｏｔ,,株式会社,東京都,豊島区,東池袋２丁目８番１－９０７号,,13,116,1700013,,,,,,,2024-02-08,1,,,,,アビアントゥ,0
332,2020001155698,新規,0,2024-02-08,2024-02-08,Ｈｏｕｓｅ　ｅｎｔｅｒｐｒｉｓｅ株式会社,,株式会社,神奈川県,横浜市港北区,菊名５丁目６番４号,,14,109,2220011,,,,,,,2024-02-08,1,,,,,ハウスエンタープライズ,0
334,2020003025445,新規,0,2024-02-08,2024-02-08,未来を明るく合同会社,,合同会社,神奈川県,横浜市都筑区,茅ケ崎南５丁目１０－１４サンパレス吉野Ｂ１,,14,118,2240037,,,,,,,2024-02-08,1,,,,,ミライヲアカルク,0
337,2021003014132,新規,0,2024-02-08,2024-02-08,ＪＳＫＹＴｒａｎｓｐｏｒｔ合同会社,,合同会社,神奈川県,足柄上郡大井町,金子９０番地６,,14,362,2580019,,,,,,,2024-02-08,1,,,,,ジェイスカイトランスポート,0
351,2040001132101,新規,0,2024-02-08,2024-02-08,株式会社ランベスト,,株式会社,千葉県,柏市,高田１００１番地６,,12,217,2770861,,,,,,,2024-02-08,1,,,,,ランベスト,0
363,2070001041357,新規,0,2024-02-08,2024-02-08,株式会社サンアイＩｎｆｉｎｉｔｙ,,株式会社,群馬県,伊勢崎市,西久保町２丁目１９５番地４,,10,204,3792204,,,,,,,2024-02-08,1,,,,,サンアイインフィニティー,0
365,2080101024525,新規,0,2024-02-08,2024-02-08,株式会社三幸コーポレーションホールディングス,,株式会社,静岡県,沼津市,柳町１番５０号,,22,203,4100043,,,,,,,2024-02-08,1,,,,,サンコウコーポレーションホールディングス,0
366,2080401026997,新規,0,2024-02-08,2024-02-08,ＪＳＭエアロスペースジャパン株式会社,,株式会社,静岡県,浜松市中央区,中野町１０３０番地の１４,,22,138,4350004,,,,,,,2024-02-08,1,,,,,ジェイエスエムエアロスペースジャパン,0
367,2100001037203,新規,0,2024-02-08,2024-02-08,株式会社ＳＣ　ｍｅｄｉｃａｌ,,株式会社,長野県,松本市,野溝木工２丁目９－Ａ３０６,,20,202,3990005,,,,,,,2024-02-08,1,,,,,エスシーメディカル,0
370,2110001038167,新規,0,2024-02-08,2024-02-08,株式会社ＡＬＦＳ,,株式会社,新潟県,新潟市西区,木山４６４番地１,,15,107,9502253,,,,,,,2024-02-08,1,,,,,アルフス,0
378,2120001262088,新規,0,2024-02-08,2024-02-08,卓川株式会社,,株式会社,大阪府,大阪市東成区,中道４丁目１６番２１一４０１号,,27,115,5370025,,,,,,,2024-02-08,1,,,,,タクカワ,0
379,2120001262113,新規,0,2024-02-08,2024-02-08,Ｅｎｐｈａｎｔ株式会社,,株式会社,大阪府,大阪市北区,梅田１丁目２番２号大阪駅前第２ビル１２－１２,,27,127,5300001,,,,,,,2024-02-08,1,,,,,エンファント,0
380,2120001262121,新規,0,2024-02-08,2024-02-08,株式会社Ｃａｒｅ　ｍｉｎｔ,,株式会社,大阪府,大阪市淀川区,三津屋南２丁目１１番９ハイツＣＡＢＩＮ,,27,123,5320035,,,,,,,2024-02-08,1,,,,,ケアミント,0
381,2120003025848,新規,0,2024-02-08,2024-02-08,合同会社事務サポートセンター,,合同会社,大阪府,大阪市中央区,北久宝寺町１丁目２番１－６０４号,,27,128,5410057,,,,,,,2024-02-08,1,,,,,ジムサポートセンター,0
382,2120003025889,新規,0,2024-02-08,2024-02-08,ＯＳＡＫＡ　ＨＯＭＥ合同会社,,合同会社,大阪府,大阪市中央区,北久宝寺町１丁目５－８－３Ａ,,27,128,5410057,,,,,,,2024-02-08,1,,,,,オオサカホーム,0
385,2122001037817,新規,0,2024-02-08,2024-02-08,株式会社けあみんと,,株式会社,大阪府,東大阪市,長田西３丁目３番１５号,,27,227,5770016,,,,,,,2024-02-08,1,,,,,ケアミント,0
391,2150001027059,新規,0,2024-02-08,2024-02-08,親和株式会社,,株式会社,奈良県,生駒市,白庭台６丁目８番７号,,29,209,6300136,,,,,,,2024-02-08,1,,,,,シンワ,0
392,2170001017999,新規,0,2024-02-08,2024-02-08,中村養蜂園株式会社,,株式会社,和歌山県,日高郡みなべ町,晩稲５０２番地４,,30,391,6450022,,,,,,,2024-02-08,1,,,,,ナカムラヨウホウエン,0
398,2180001160088,新規,0,2024-02-08,2024-02-08,株式会社ｗｉｎｗｉｎ,,株式会社,愛知県,名古屋市瑞穂区,柳ケ枝町２丁目４２番地の６,,23,108,4670825,,,,,,,2024-02-08,1,,,,,ウィンウィン,0
403,2210003001749,新規,0,2024-02-08,2024-02-08,ふくしマネジメント合同会社,,合同会社,福井県,福井市,南四ツ居町第９号１番地３,,18,201,9188201,,,,,,,2024-02-08,1,,,,,フクシマネジメント,0
408,2240001062773,新規,0,2024-02-08,2024-02-08,ＭＩＲＡＩＦ・ＤＥＳＩＧＮ株式会社,,株式会社,広島県,広島市安佐南区,西原４丁目３番１０－４０３号,,34,105,7310113,,,,,,,2024-02-08,1,,,,,ミライフデザイン,0
411,2250001020516,新規,0,2024-02-08,2024-02-08,しらまつファーム株式会社,,株式会社,山口県,山口市,阿東篠目３５７番地１,,35,203,7591232,,,,,,,2024-02-08,1,,,,,シラマツファーム,0
418,2290001104637,新規,0,2024-02-08,2024-02-08,ＭＡＣＣ株式会社,,株式会社,福岡県,福岡市東区,香椎照葉４丁目４番２０号,,40,131,8130017,,,,,,,2024-02-08,1,,,,,エムエーシーシー,0
419,2290001104645,新規,0,2024-02-08,2024-02-08,株式会社ロジスティックエイド,,株式会社,福岡県,福岡市東区,多の津１丁目２番５号,,40,131,8130034,,,,,,,2024-02-08,1,,,,,ロジスティックエイド,0
420,2290001104661,新規,0,2024-02-08,2024-02-08,株式会社虹富,,株式会社,福岡県,福岡市東区,三苫６丁目１１番１３号,,40,131,8110201,,,,,,,2024-02-08,1,,,,,ニジトミ,0
422,2290003014958,新規,0,2024-02-08,2024-02-08,合同会社プログレス,,合同会社,福岡県,福岡市中央区,天神１丁目１３番１７号天神１丁目ビル７階,,40,133,8100001,,,,,,,2024-02-08,1,,,,,プログレス,0
432,2310003004725,新規,0,2024-02-08,2024-02-08,合同会社サクセス,,合同会社,長崎県,佐世保市,常盤町７番１３号パークサイドパル２階,,42,202,8570053,,,,,,,2024-02-08,1,,,,,サクセス,0
441,2360001033168,新規,0,2024-02-08,2024-02-08,株式会社ＫＯＵＲＩ　ＢＡＮＡＮＡ,,株式会社,沖縄県,国頭郡今帰仁村,字古宇利２５２－１,,47,306,9050406,,,,,,,2024-02-08,1,,,,,コウリバナナ,0
445,2360003013688,新規,0,2024-02-08,2024-02-08,合同会社ときわ,,合同会社,沖縄県,那覇市,字識名１１４８番１１号,,47,201,9020078,,,,,,,2024-02-08,1,,,,,トキワ,0
461,2420001018591,新規,0,2024-02-08,2024-02-08,株式会社ＭＤサービス,,株式会社,青森県,三沢市,平畑１丁目５－３コーポラベンダー西棟,,02,207,0330012,,,,,,,2024-02-08,1,,,,,エムディサービス,0
463,2430001091051,新規,0,2024-02-08,2024-02-08,株式会社Ｎ‐ｓｔｙｌｅ,,株式会社,北海道,札幌市北区,新琴似五条１７丁目１番１２号,,01,102,0010905,,,,,,,2024-02-08,1,,,,,エヌスタイル,0
467,2430003015941,新規,0,2024-02-08,2024-02-08,合同会社Ｐｒｏｆｉｔｅｒ,,合同会社,北海道,白老郡白老町,字石山４１番地８８,,01,578,0590921,,,,,,,2024-02-08,1,,,,,プロフィテ,0
468,2440001009382,新規,0,2024-02-08,2024-02-08,アグリ水堀株式会社,,株式会社,北海道,檜山郡江差町,字水堀町３４３番地,,01,361,0430017,,,,,,,2024-02-08,1,,,,,アグリミズホリ,0
471,2470001020015,新規,0,2024-02-08,2024-02-08,オリーブアイランド株式会社,,株式会社,香川県,小豆郡小豆島町,片城甲３７７番地１,,37,324,7614431,,,,,,,2024-02-08,1,,,,,オリーブアイランド,0
475,2700150123899,新規,0,2024-02-08,2024-02-08,仏山市富海森貿易有限公司,00133628,外国会社等,,,,,,,,中国広東省仏山市南海区獅山鎮山南西村五巷３８号,00133629,,,,,2024-02-08,1,,,,,ブツザンシフカイシンボウエキユウゲンコウシ,0
476,2700150123908,新規,0,2024-02-08,2024-02-08,ＳＨＥＮＺＨＥＮＳＨＩＱＩＡＮＯＵＸＩＮＸＩＸＩＴＯＮＧＹＯＵＸＩＡＮＧＯＮＧＳＩ,,外国会社等,,,,,,,,ＳｈｅｎＺｈｅｎＳｈｉＬｏｎｇＧａｎｇＱｕ，ＬｏｎｇＧａｎｇＪｉｅＤａｏＸｉｎＳｈｅｎｇＳｈｅＱｕ，ＸｉｎＳｈｅｎｇＬｕ７２－９４Ｈａｏ，ＸｉｎＳｈｅｎｇＬｕ７４Ｈａｏ,,,,,,2024-02-08,1,,,,,シェンジェンシーチエンオウシンシーシートンヨウシエンゾーレンゴンスー,0
485,3010003042845,新規,0,2024-02-08,2024-02-08,合同会社Ｈａｒｉ,,合同会社,東京都,中央区,八丁堀４丁目２番１０号ＡＯＪ税理士法人内,,13,102,1040032,,,,,,,2024-02-08,1,,,,,ハリ,0
486,3010003042894,新規,0,2024-02-08,2024-02-08,合同会社御殿山キャピタル,,合同会社,東京都,千代田区,丸の内１丁目６番５号,,13,101,1000005,,,,,,,2024-02-08,1,,,,,ゴテンヤマキャピタル,0
492,3010401180049,新規,0,2024-02-08,2024-02-08,株式会社スイングストーリー,,株式会社,東京都,港区,南青山３丁目１番３６号青山丸竹ビル６Ｆ,,13,103,1070062,,,,,,,2024-02-08,1,,,,,スイングストーリー,0
493,3010401180263,新規,0,2024-02-08,2024-02-08,株式会社ＩＴＡＢＥＬＬＥ,,株式会社,東京都,港区,南青山２丁目２番１５号,,13,103,1070062,,,,,,,2024-02-08,1,,,,,イタベル,0
495,3010403031919,新規,0,2024-02-08,2024-02-08,鴻鼎投資管理合同会社,,合同会社,東京都,港区,新橋６丁目５番４号２階,,13,103,1050004,,,,,,,2024-02-08,1,,,,,コウテイトウシカンリ,0
496,3010403031935,新規,0,2024-02-08,2024-02-08,合同会社ステップアップスタディサロン,,合同会社,東京都,港区,虎ノ門１丁目２１－１０グランスイート虎ノ門７０３,,13,103,1050001,,,,,,,2024-02-08,1,,,,,ステップアップスタディサロン,0
497,3010403031951,新規,0,2024-02-08,2024-02-08,ＲＥＶＯＬＶＥＲ合同会社,,合同会社,東京都,港区,南青山２丁目２番１５号,,13,103,1070062,,,,,,,2024-02-08,1,,,,,リボルバー,0
498,3010405022916,新規,0,2024-02-08,2024-02-08,一般社団法人慶應バスケットボール倶楽部,,その他の設立登記法人,東京都,港区,三田２丁目１５番４５号,,13,103,1080073,,,,,,,2024-02-08,1,,,,,ケイオウバスケットボールクラブ,0
499,3010405022932,新規,0,2024-02-08,2024-02-08,一般社団法人クリーン資源循環機構,,その他の設立登記法人,東京都,港区,虎ノ門２丁目１０番４号オークラプレステージタワー,,13,103,1050001,,,,,,,2024-02-08,1,,,,,クリーンシゲンジュンカンキコウ,0
500,3010501051744,新規,0,2024-02-08,2024-02-08,株式会社ｉｍａｓｏｒａ,,株式会社,東京都,台東区,上野６丁目１番６号御徒町グリーンハイツ１００５号,,13,106,1100005,,,,,,,2024-02-08,1,,,,,イマソラ,0
501,3010501051760,新規,0,2024-02-08,2024-02-08,株式会社東昇,,株式会社,東京都,台東区,東上野６丁目４番４－２０２号,,13,106,1100015,,,,,,,2024-02-08,1,,,,,トウショウ,0
511,3010703007049,新規,0,2024-02-08,2024-02-08,ＴＳ合同会社,,合同会社,東京都,品川区,東大井５丁目２４番１６－３０４号,,13,109,1400011,,,,,,,2024-02-08,1,,,,,ティーエス,0
516,3010901054693,新規,0,2024-02-08,2024-02-08,株式会社Ｍ＆Ｙ　ｓｔｕｄｉｏ,,株式会社,東京都,世田谷区,弦巻５丁目１１－６ライオンズマンション馬事公苑第３・３０１号室,,13,112,1540016,,,,,,,2024-02-08,1,,,,,エムアンドワイスタジオ,0
528,3011001159788,新規,0,2024-02-08,2024-02-08,株式会社ＳｋｉｌｌＨｕｂ,,株式会社,東京都,渋谷区,神宮前４丁目２６－２８－２階,,13,113,1500001,,,,,,,2024-02-08,1,,,,,,0
529,3011001159904,新規,0,2024-02-08,2024-02-08,ｖｅｅｗ株式会社,,株式会社,東京都,渋谷区,神南１丁目１１－３ＦＤ－３１,,13,113,1500041,,,,,,,2024-02-08,1,,,,,ビュー,0
531,3011201025229,新規,0,2024-02-08,2024-02-08,株式会社Ｂｕｓｈｉ,,株式会社,東京都,中野区,中野２丁目１９番２号,,13,114,1640001,,,,,,,2024-02-08,1,,,,,ブシ,0
537,3011503005944,新規,0,2024-02-08,2024-02-08,合同会社ＭＦ,,合同会社,東京都,荒川区,東尾久２丁目２０番１４号,,13,118,1160012,,,,,,,2024-02-08,1,,,,,エムエフ,0
549,3011803006080,新規,0,2024-02-08,2024-02-08,合同会社ＢＥＬＬｓＮＵＳ．,,合同会社,東京都,足立区,保塚町１１番２号,,13,121,1210072,,,,,,,2024-02-08,1,,,,,ベルナス,0
554,3012801022953,新規,0,2024-02-08,2024-02-08,アイランド株式会社,,株式会社,東京都,昭島市,東町３丁目１０番８号－１階,,13,207,1960033,,,,,,,2024-02-08,1,,,,,アイランド,0
559,3013301052053,新規,0,2024-02-08,2024-02-08,株式会社ＧＥＮ,,株式会社,東京都,豊島区,池袋２丁目６５番５号町田ビルＢ１Ｆ２号室,,13,116,1710014,,,,,,,2024-02-08,1,,,,,ゲン,0
564,3020001155648,新規,0,2024-02-08,2024-02-08,株式会社ＳＥＡ　ＳＩＤＥ　ＣＩＴＹ,,株式会社,神奈川県,横浜市神奈川区,松見町３丁目５２５番地４ストークハイツＩＺＵＭＩ２０３号,,14,102,2210005,,,,,,,2024-02-08,1,,,,,シーサイドシティ,0
565,3020001155697,新規,0,2024-02-08,2024-02-08,株式会社エクセル,,株式会社,神奈川県,川崎市麻生区,千代ケ丘４丁目１３番４号,,14,137,2150005,,,,,,,2024-02-08,1,,,,,エクセル,0
566,3020001155706,新規,0,2024-02-08,2024-02-08,マイテン電子株式会社,,株式会社,神奈川県,横浜市西区,浅間町１丁目４番３号,,14,103,2200072,,,,,,,2024-02-08,1,,,,,マイテンデンシ,0
567,3020001155747,新規,0,2024-02-08,2024-02-08,株式会社レッドブロンクス,,株式会社,神奈川県,横浜市神奈川区,金港町５－１４クアドリフォリオ８階,,14,102,2210056,,,,,,,2024-02-08,1,,,,,レッドブロンクス,0
573,3020003025493,新規,0,2024-02-08,2024-02-08,合同会社みらいちず,,合同会社,神奈川県,川崎市中原区,上小田中５丁目９‐１１コンフォートナカハラ５１０,,14,133,2110053,,,,,,,2024-02-08,1,,,,,ミライチズ,0
575,3020005016276,新規,0,2024-02-08,2024-02-08,特定非営利活動法人Ｓｅａ　Ｔｕｒｔｌｅ　Ｅｃｏｌｏｇｙ　Ｌａｂ,,その他の設立登記法人,神奈川県,横浜市鶴見区,市場上町１０番３－２０６号,,14,101,2300021,,,,,,,2024-02-08,1,,,,,シータートルエコロジーラボ,0
576,3021003014123,新規,0,2024-02-08,2024-02-08,サンウィッチ合同会社,,合同会社,神奈川県,三浦郡葉山町,長柄７０５－４３８,,14,301,2400113,,,,,,,2024-02-08,1,,,,,サンウィッチ,0
581,3030001158542,新規,0,2024-02-08,2024-02-08,株式会社イワセツ,,株式会社,埼玉県,草加市,青柳６丁目３６番１０号,,11,221,3400002,,,,,,,2024-02-08,1,,,,,イワセツ,0
587,3040001132100,新規,0,2024-02-08,2024-02-08,株式会社Ｈａｇｕｒｕｍａ,,株式会社,千葉県,四街道市,大日４６０番地７,,12,228,2840001,,,,,,,2024-02-08,1,,,,,ハグルマ,0
588,3040001132133,新規,0,2024-02-08,2024-02-08,株式会社太陽工業,,株式会社,千葉県,流山市,こうのす台６３３番地の３４,,12,220,2700102,,,,,,,2024-02-08,1,,,,,タイヨウコウギョウ,0
595,3050001054244,新規,0,2024-02-08,2024-02-08,株式会社ＴＭＣソリューションズ,,株式会社,茨城県,水戸市,南町２丁目４－５１－１８０４,,08,201,3100021,,,,,,,2024-02-08,1,,,,,,0
600,3050005013386,新規,0,2024-02-08,2024-02-08,一般社団法人自然と野生動物観察会,,その他の設立登記法人,茨城県,筑西市,辻１５３０番地,00133666,08,227,3080103,,,,,,,2024-02-08,1,,,,,シゼントヤセイドウブツカンサツカイ,0
602,3080003003130,新規,0,2024-02-08,2024-02-08,合同会社ウルファ,,合同会社,静岡県,静岡市葵区,羽鳥６丁目３－１８,,22,101,4211215,,,,,,,2024-02-08,1,,,,,ウルファ,0
609,3100003007392,新規,0,2024-02-08,2024-02-08,合同会社いこう,,合同会社,長野県,松本市,大字洞２６３－１,,20,202,3900317,,,,,,,2024-02-08,1,,,,,イコウ,0
616,3120001262087,新規,0,2024-02-08,2024-02-08,Ｒａｙｄｚ株式会社,,株式会社,大阪府,大阪市天王寺区,城南寺町５－３８－２０５室,,27,109,5430017,,,,,,,2024-02-08,1,,,,,レイズ,0
617,3120001262120,新規,0,2024-02-08,2024-02-08,棲梧株式会社,,株式会社,大阪府,大阪市西成区,松１丁目２－１６,,27,122,5570034,,,,,,,2024-02-08,1,,,,,セイゴ,0
618,3120001262178,新規,0,2024-02-08,2024-02-08,株式会社シリウス,,株式会社,大阪府,大阪市中央区,東心斎橋１丁目１６番９号第８ＫＳビル,,27,128,5420083,,,,,,,2024-02-08,1,,,,,シリウス,0
620,3120003025806,新規,0,2024-02-08,2024-02-08,Ａ＆Ｍトレーディング合同会社,,合同会社,大阪府,大阪市中央区,内本町２丁目４－１０－５１２,,27,128,5400026,,,,,,,2024-02-08,1,,,,,エイアンドエムトレーディング,0
621,3120101069011,新規,0,2024-02-08,2024-02-08,株式会社治,,株式会社,大阪府,堺市北区,百舌鳥本町１丁４１番地４,,27,146,5918036,,,,,,,2024-02-08,1,,,,,ハル,0
623,3120103005674,新規,0,2024-02-08,2024-02-08,ＣＷ　Ｓｙｓｔｅｍ合同会社,,合同会社,大阪府,和泉市,唐国町３丁目１６－５３,,27,219,5941151,,,,,,,2024-02-08,1,,,,,シーダブルシステム,0
626,3122003002792,新規,0,2024-02-08,2024-02-08,Ｊｏｉｎｔｒｅｅ合同会社,,合同会社,大阪府,東大阪市,西堤学園町１丁目４番１７号,,27,227,5770044,,,,,,,2024-02-08,1,,,,,ジョイントリー,0
631,3140001133253,新規,0,2024-02-08,2024-02-08,港橋株式会社,,株式会社,兵庫県,神戸市西区,池上１丁目１３番地の１８Ｂ棟５１６号,,28,111,6512111,,,,,,,2024-02-08,1,,,,,ミナトハシ,0
632,3140003020144,新規,0,2024-02-08,2024-02-08,合同会社Ｗ＆Ｍ,,合同会社,兵庫県,神戸市西区,玉津町西河原字七反田２－１,,28,111,6512127,,,,,,,2024-02-08,1,,,,,ワム,0
643,3180001160087,新規,0,2024-02-08,2024-02-08,株式会社ＭＩＸ　ＳＥＥＤ,,株式会社,愛知県,名古屋市南区,明治１丁目２１番８号（メゾンボナール１０２号）,,23,112,4570861,,,,,,,2024-02-08,1,,,,,ミクシード,0
650,3180003026328,新規,0,2024-02-08,2024-02-08,ＳＢ合同会社,,合同会社,愛知県,名古屋市西区,大野木５丁目４番地,,23,104,4520803,,,,,,,2024-02-08,1,,,,,エスビー,0
652,3210003001748,新規,0,2024-02-08,2024-02-08,ＷｅｂＮｅｘｔｙ合同会社,,合同会社,福井県,坂井市,坂井町田島第１号２６番地,,18,210,9190513,,,,,,,2024-02-08,1,,,,,ウェブネクスティ,0
657,3260001038746,新規,0,2024-02-08,2024-02-08,井手工業株式会社,,株式会社,岡山県,倉敷市,五日市１１０９番地１３,,33,202,7100041,,,,,,,2024-02-08,1,,,,,イデコウギョウ,0
669,3290001104644,新規,0,2024-02-08,2024-02-08,ＯＮＥ　ＴＥＡＭジャパン株式会社,,株式会社,福岡県,三潴郡大木町,大字横溝１７７番地,,40,522,8300405,,,,,,,2024-02-08,1,,,,,ワンチームジャパン,0
670,3290001104652,新規,0,2024-02-08,2024-02-08,三縁株式会社,,株式会社,福岡県,大牟田市,神田町６５－１,,40,202,8360093,,,,,,,2024-02-08,1,,,,,サンエン,0
671,3290001104660,新規,0,2024-02-08,2024-02-08,株式会社ＪＡＰＡＮＷＡＶＥ,,株式会社,福岡県,福岡市中央区,天神２丁目３番１０号天神パインクレスト７１９号,,40,133,8100001,,,,,,,2024-02-08,1,,,,,ジャパンウェーブ,0
679,3330001031735,新規,0,2024-02-08,2024-02-08,株式会社明樹苑,,株式会社,熊本県,阿蘇市,小野田９４４番地,,43,214,8692314,,,,,,,2024-02-08,1,,,,,メイジュエン,0
697,3400003003213,新規,0,2024-02-08,2024-02-08,合同会社ふるさと農場,,合同会社,岩手県,九戸郡軽米町,大字晴山第５地割４番地,,03,501,0286221,,,,,,,2024-02-08,1,,,,,フルサトノウジョウ,0
699,3410003003889,新規,0,2024-02-08,2024-02-08,合同会社ロット,,合同会社,秋田県,由利本荘市,鳥海町下笹子字中台１－４,,05,210,0150722,,,,,,,2024-02-08,1,,,,,ロット,0
700,3420001018590,新規,0,2024-02-08,2024-02-08,株式会社エスケン不動産,,株式会社,青森県,八戸市,大字市川町字中谷地１７７番地５,,02,203,0392241,,,,,,,2024-02-08,1,,,,,エスケンフドウサン,0
704,3430001090993,新規,0,2024-02-08,2024-02-08,株式会社Ｔｎｅｔｗｏｒｋ,,株式会社,北海道,札幌市白石区,東札幌一条１丁目７番２５－７０４号,,01,104,0030001,,,,,,,2024-02-08,1,,,,,ティーネットワーク,0
705,3430001091026,新規,0,2024-02-08,2024-02-08,株式会社ＮＤＳＬ,,株式会社,北海道,札幌市中央区,北一条西２０丁目１番２５－３０５号,,01,101,0640821,,,,,,,2024-02-08,1,,,,,エヌディーエスエル,0
706,3430001091050,新規,0,2024-02-08,2024-02-08,株式会社ＢＥ　ＯＮＥＳＥＬＦ,,株式会社,北海道,札幌市中央区,南一条西８丁目６－２ＳＩＴＹビル４Ｆ,,01,101,0600061,,,,,,,2024-02-08,1,,,,,ビーワンセルフ,0
711,3500001025463,新規,0,2024-02-08,2024-02-08,株式会社ウェシャドウ,,株式会社,愛媛県,松山市,空港通２丁目９－３６福川ビル２０２,,38,201,7900054,,,,,,,2024-02-08,1,,,,,ウェシャドウ,0
712,3700150123898,新規,0,2024-02-08,2024-02-08,常州奇加跨境電商有限公司,,外国会社等,,,,,,,,中国常州市武進区常武中路１８号常州科教城科教会堂南２３２０－１,,,,,,2024-02-08,1,,,,,ジョウシュウキカコキョウデンショウユウゲンコウシ,0
713,3700150123907,新規,0,2024-02-08,2024-02-08,Ｓｈａｎｇｈａｉ　ＨｕａｎＪｉ　ＫｅＪｉ　ＹｏｕＸｉａｎＧｏｎｇＳｉ,,外国会社等,,,,,,,,ＹｕａｎＪｉａｎｇＬｕ　５５００　Ｈａｏ　Ｄｉ　１　Ｄｏｎｇ　ＭｉｎＨａｎｇＱｕ　ＳｈａｎｇＨａｉ　２０１１１１　ＣＮ,,,,,,2024-02-08,1,,,,,シャンハイフアンジーコージーヨウシエンゴンスー,0
715,4010001242009,新規,0,2024-02-08,2024-02-08,株式会社わんがい不動産,,株式会社,東京都,中央区,銀座６丁目１４番８号銀座石井ビル７１８号室,,13,102,1040061,,,,,,,2024-02-08,1,,,,,ワンガイフドウサン,0
716,4010001242207,新規,0,2024-02-08,2024-02-08,ＳＡＬ　Ｎｏｒｔｈ　Ａｓｉａ株式会社,,株式会社,東京都,中央区,銀座３丁目４番１号大倉別館５Ｆ,,13,102,1040061,,,,,,,2024-02-08,1,,,,,エスエーエルノースアジア,0
717,4010001242215,新規,0,2024-02-08,2024-02-08,福雲株式会社,,株式会社,東京都,中央区,八丁堀３丁目２２番１３号株式会社風間＆パートナーズ内,,13,102,1040032,,,,,,,2024-02-08,1,,,,,フクウン,0
720,4010003042844,新規,0,2024-02-08,2024-02-08,合同会社ルミナ,,合同会社,東京都,中央区,八丁堀４丁目２番１０号ＡＯＪ税理士法人内,,13,102,1040032,,,,,,,2024-02-08,1,,,,,ルミナ,0
721,4010003042852,新規,0,2024-02-08,2024-02-08,ＬＥＶＥＣＨＹファンド１３号合同会社,,合同会社,東京都,千代田区,紀尾井町３－８第２紀尾井町ビル９０１アクシス綜合会計事務所内,,13,101,1020094,,,,,,,2024-02-08,1,,,,,レベチーファンドジュウサンゴウ,0
722,4010005037826,新規,0,2024-02-08,2024-02-08,特定非営利活動法人やすらぎの里,,その他の設立登記法人,東京都,千代田区,外神田２丁目２番１９号丸和ビル２階,,13,101,1010021,,,,,,,2024-02-08,1,,,,,ヤスラギノサト,0
723,4010101015990,新規,0,2024-02-08,2024-02-08,株式会社お家屋さん,,株式会社,東京都,八王子市,追分町１７番３号長田ビル１Ｆ,,13,201,1920056,,,,,,,2024-02-08,1,,,,,オウチヤサン,0
724,4010101015999,新規,0,2024-02-08,2024-02-08,株式会社山和,,株式会社,東京都,八王子市,緑町４１２番地７京王山田マンションＡ棟２０７,,13,201,1930932,,,,,,,2024-02-08,1,,,,,サンワ,0
734,4010401180270,新規,0,2024-02-08,2024-02-08,株式会社お台場トムズ,,株式会社,東京都,港区,台場１丁目３番２－１９０２号,,13,103,1350091,,,,,,,2024-02-08,1,,,,,オダイバトムズ,0
736,4010403031901,新規,0,2024-02-08,2024-02-08,ＥＳ太陽光合同会社,,合同会社,東京都,港区,六本木６丁目１０番１号六本木ヒルズ森タワー１５ＦＣＩＲＣＬＥｂｙＡＮＲＩ内,,13,103,1060032,,,,,,,2024-02-08,1,,,,,イーエスタイヨウコウ,0
737,4010403031918,新規,0,2024-02-08,2024-02-08,ＤＯＦ１号合同会社,,合同会社,東京都,港区,元赤坂１丁目１番７号,,13,103,1070051,,,,,,,2024-02-08,1,,,,,ディーオーエフイチゴウ,0
738,4010403031942,新規,0,2024-02-08,2024-02-08,合同会社ＹＣＨ１４,,合同会社,東京都,港区,南青山２丁目２番１５－８２５号,,13,103,1070062,,,,,,,2024-02-08,1,,,,,ワイシーエイチフォーティーン,0
740,4010405022931,新規,0,2024-02-08,2024-02-08,特定非営利活動法人Ｃｏｎｇｏ　Ｊａｐａｎ　Ｂｏｍｏｋｏ　ａｓｓｏｃｉａｔｉｏｎ,,その他の設立登記法人,東京都,港区,西麻布３丁目２１番２０号霞町コーポ７０３,,13,103,1060031,,,,,,,2024-02-08,1,,,,,コンゴジャパンボモコアソシエーション,0
742,4010501051743,新規,0,2024-02-08,2024-02-08,Ｔｏｋｙｏ　ｇｏｌｄ　ｍａｎ　Ｈｏｌｄｉｎｇｓ株式会社,,株式会社,東京都,台東区,台東４丁目１９番１５号玉野ビル２０１,,13,106,1100016,,,,,,,2024-02-08,1,,,,,トウキョウゴールドマンホールディングス,0
743,4010501051768,新規,0,2024-02-08,2024-02-08,Ｌｉａｉｓｏｎ株式会社,,株式会社,東京都,台東区,下谷３丁目２０番３号,,13,106,1100004,,,,,,,2024-02-08,1,,,,,リエゾン,0
750,4010601064612,新規,0,2024-02-08,2024-02-08,百悦メディカルヘルス株式会社,,株式会社,東京都,江東区,亀戸６丁目５９番１０号サンシャレード亀戸５０１号室,,13,108,1360071,,,,,,,2024-02-08,1,,,,,ヒャクエツメディカルヘルス,0
753,4010701045529,新規,0,2024-02-08,2024-02-08,株式会社Ａｍｉｒｉｔｅ,,株式会社,東京都,品川区,西五反田１丁目１８番９号五反田ＮＴビル５Ｆ,,13,109,1410031,,,,,,,2024-02-08,1,,,,,アミライ,0
754,4010703007048,新規,0,2024-02-08,2024-02-08,千歳蓄電所合同会社,,合同会社,東京都,品川区,東五反田２丁目１０番２号,,13,109,1410022,,,,,,,2024-02-08,1,,,,,チトセチクデンショ,0
759,4010803004845,新規,0,2024-02-08,2024-02-08,合同会社戦略研究機関ながつき,,合同会社,東京都,大田区,田園調布本町２２番４号,,13,111,1450072,,,,,,,2024-02-08,1,,,,,センリャクケンキュウキカンナガツキ,0
761,4010901054692,新規,0,2024-02-08,2024-02-08,株式会社ＳＴＥＰＰＩＮＧ,,株式会社,東京都,世田谷区,池尻２丁目３７番３,,13,112,1540001,,,,,,,2024-02-08,1,,,,,ステッピング,0
762,4010903008804,新規,0,2024-02-08,2024-02-08,Ｋ’ｓ　ｋｉｔｃｈｅｎ　Ｍｉｌａｎｏ合同会社,,合同会社,東京都,世田谷区,梅丘１丁目５６番２号,,13,112,1540022,,,,,,,2024-02-08,1,,,,,ケーズキッチンミラノ,0
769,4011001159911,新規,0,2024-02-08,2024-02-08,シーズ・オブ・タイム株式会社,,株式会社,東京都,渋谷区,千駄ヶ谷４丁目７番１号ＨＩビル４階,,13,113,1510051,,,,,,,2024-02-08,1,,,,,シーズオブタイム,0
770,4011001159944,新規,0,2024-02-08,2024-02-08,Ｆ＆Ｅパートナーズ株式会社,,株式会社,東京都,渋谷区,代官山町１０番１５－４０２号,,13,113,1500034,,,,,,,2024-02-08,1,,,,,エフアンドイーパートナーズ,0
771,4011003018470,新規,0,2024-02-08,2024-02-08,合同会社あおいお,,合同会社,東京都,目黒区,目黒１丁目２４番３－２０６号イニシアイオ目黒,,13,110,1530063,,,,,,,2024-02-08,1,,,,,アオイオ,0
774,4011105010937,新規,0,2024-02-08,2024-02-08,司法書士法人小野寺事務所,,その他の設立登記法人,東京都,新宿区,西新宿８丁目５番３号渡邊ビル４階,,13,104,1600023,,,,,,,2024-02-08,1,,,,,オノデラジムショ,0
775,4011201025236,新規,0,2024-02-08,2024-02-08,株式会社Ｍｉｍｉｑｕｉ,,株式会社,東京都,中野区,本町４丁目３８番地１６号スクエアハウス新中野５０２,,13,114,1640012,,,,,,,2024-02-08,1,,,,,ミミック,0
783,4011801043760,新規,0,2024-02-08,2024-02-08,株式会社Ｖｉｓｔａ　ｓｔｙｌｅ,,株式会社,東京都,葛飾区,亀有４丁目３１番１７号,,13,122,1250061,,,,,,,2024-02-08,1,,,,,ヴィスタスタイル,0
789,4012403006404,新規,0,2024-02-08,2024-02-08,ＨＩクリエイティブ合同会社,,合同会社,東京都,府中市,宮西町１丁目１８番地の６ライオンズステージ府中シティタワー１６０１,,13,206,1830022,,,,,,,2024-02-08,1,,,,,エイチアイクリエイティブ,0
790,4012405004942,新規,0,2024-02-08,2024-02-08,ＮＰＯ法人こまえにほんごしえん・日本語スクール,,その他の設立登記法人,東京都,狛江市,元和泉３丁目１５番４号,,13,219,2010013,,,,,,,2024-02-08,1,,,,,コマエニホンゴシエンニホンゴスクール,0
795,4013301052052,新規,0,2024-02-08,2024-02-08,株式会社炭す,,株式会社,東京都,豊島区,北大塚２丁目２７－２シューエイト北大塚ビル２Ｆ,,13,116,1700004,,,,,,,2024-02-08,1,,,,,スミス,0
799,4020001155713,新規,0,2024-02-08,2024-02-08,株式会社ＤＯＵＢＬＥ‐ＤＵＥＣＥ．Ｈ．Ｆａｍ,,株式会社,神奈川県,川崎市川崎区,小田５丁目１０番２０号,,14,131,2100846,,,,,,,2024-02-08,1,,,,,ダブルデュースエイチファム,0
817,4030001158517,新規,0,2024-02-08,2024-02-08,ＸＰＥＡＫＥＲ株式会社,,株式会社,埼玉県,さいたま市中央区,大戸３丁目８番１８－１１号,,11,105,3380012,,,,,,,2024-02-08,1,,,,,クロスピーカー,0
818,4030001158574,新規,0,2024-02-08,2024-02-08,株式会社ＭＩＫＡＴＡ,,株式会社,埼玉県,さいたま市大宮区,北袋町１丁目３４６番地２ザ・レジデンスさいたま新都心７１１号室,,11,103,3300835,,,,,,,2024-02-08,1,,,,,ミカタ,0
821,4030003023603,新規,0,2024-02-08,2024-02-08,合同会社ドランチキッズスクール,,合同会社,埼玉県,さいたま市北区,奈良町７９番地６３,,11,102,3310822,,,,,,,2024-02-08,1,,,,,ドランチキッズスクール,0
830,4040001132041,新規,0,2024-02-08,2024-02-08,株式会社ドラゴンワン,,株式会社,千葉県,松戸市,松戸新田３０番地５松久ハイツ７号棟１０１号,,12,207,2702241,,,,,,,2024-02-08,1,,,,,ドラゴンワン,0
832,4040003024162,新規,0,2024-02-08,2024-02-08,合同会社Ｂ‐ＯｎｅＮｅｘｔ,,合同会社,千葉県,船橋市,西船５丁目７－１０ハイライズ西船壱番館３０２号室,,12,204,2730031,,,,,,,2024-02-08,1,,,,,ビーワンネクスト,0
833,4050001054210,新規,0,2024-02-08,2024-02-08,株式会社一見,,株式会社,茨城県,笠間市,下郷４５４３番地８５,,08,216,3190202,,,,,,,2024-02-08,1,,,,,ヒトミ,0
838,4070001041355,新規,0,2024-02-08,2024-02-08,株式会社岸工業,,株式会社,群馬県,高崎市,金古町９７番地１４,,10,202,3703511,,,,,,,2024-02-08,1,,,,,キシコウギョウ,0
839,4070001041363,新規,0,2024-02-08,2024-02-08,関東モービル株式会社,,株式会社,群馬県,みどり市,笠懸町阿左美８１番地２,,10,212,3792311,,,,,,,2024-02-08,1,,,,,カントウモービル,0
851,4110001038165,新規,0,2024-02-08,2024-02-08,ＳＯＬＩＤ　ＳＴＡＲＴ株式会社,,株式会社,新潟県,上越市,春日山町２丁目１番２０号,,15,222,9430807,,,,,,,2024-02-08,1,,,,,ソリッドスタート,0
863,4120001262144,新規,0,2024-02-08,2024-02-08,株式会社Ｍａｃｈｉｎｅ．Ｐｌａｎｎｅｒ,,株式会社,大阪府,枚方市,東香里３丁目２６番１０号,,27,210,5730075,,,,,,,2024-02-08,1,,,,,マシンプランナー,0
874,4120101069027,新規,0,2024-02-08,2024-02-08,株式会社ウルス,,株式会社,大阪府,堺市東区,日置荘田中町１５１番地１０,,27,143,5998113,,,,,,,2024-02-08,1,,,,,ウルス,0
875,4120903005039,新規,0,2024-02-08,2024-02-08,合同会社ＹＡＭＡＴＯ,,合同会社,大阪府,摂津市,三島３丁目４番２６号アトリエール摂津２０２,,27,224,5660022,,,,,,,2024-02-08,1,,,,,ヤマト,0
886,4140001133277,新規,0,2024-02-08,2024-02-08,株式会社ＫＡＮＯＮ,,株式会社,兵庫県,神戸市中央区,海岸通４丁目３－１７清和ビル３７号,,28,110,6500024,,,,,,,2024-02-08,1,,,,,カノン,0
890,4150001027065,新規,0,2024-02-08,2024-02-08,株式会社丸美木材,,株式会社,奈良県,橿原市,小槻町２６０番地の７,,29,205,6340846,,,,,,,2024-02-08,1,,,,,マルミモクザイ,0
893,4160001025679,新規,0,2024-02-08,2024-02-08,タッショウリアルエステート株式会社,,株式会社,滋賀県,草津市,岡本町４９０番地,,25,206,5250044,,,,,,,2024-02-08,1,,,,,タッショウリアルエステート,0
902,4180001160103,新規,0,2024-02-08,2024-02-08,株式会社バイソンホールディングス,,株式会社,愛知県,名古屋市中村区,烏森町８丁目８２２番地,,23,105,4530855,,,,,,,2024-02-08,1,,,,,バイソンホールディングス,0
925,4240001062771,新規,0,2024-02-08,2024-02-08,株式会社リアン,,株式会社,広島県,広島市中区,立町４番３号,,34,101,7300032,,,,,,,2024-02-08,1,,,,,リアン,0
929,4260001038737,新規,0,2024-02-08,2024-02-08,株式会社ＳＩＳＯ,,株式会社,岡山県,岡山市南区,藤田５６６‐１８２,,33,104,7010221,,,,,,,2024-02-08,1,,,,,シソ,0
934,4290001104635,新規,0,2024-02-08,2024-02-08,株式会社Ｌｏｇ　Ｌｉｎｋ,,株式会社,福岡県,福岡市中央区,天神１丁目４番１号西日本新聞会館１６Ｆ,,40,133,8100001,,,,,,,2024-02-08,1,,,,,ログリンク,0
935,4290001104643,新規,0,2024-02-08,2024-02-08,深見経営株式会社,,株式会社,福岡県,福岡市南区,向野２丁目２番６－４０５号,,40,134,8150035,,,,,,,2024-02-08,1,,,,,フカミケイエイ,0
936,4290001104651,新規,0,2024-02-08,2024-02-08,株式会社Ｓｙｍｂｏｌ,,株式会社,福岡県,福岡市博多区,博多駅前１丁目２３番２号ＰａｒｋＦｒｏｎｔ博多駅前１丁目５Ｆ－Ｂ,,40,132,8120011,,,,,,,2024-02-08,1,,,,,シンボル,0
938,4290005019292,新規,0,2024-02-08,2024-02-08,一般社団法人こそだて楽しみ隊,,その他の設立登記法人,福岡県,福岡市早良区,南庄６丁目２番３０号古開ビル２０２号室,,40,137,8140031,,,,,,,2024-02-08,1,,,,,コソダテタノシミタイ,0
940,4290801030295,新規,0,2024-02-08,2024-02-08,株式会社バーテックス,,株式会社,福岡県,北九州市小倉北区,竪町１丁目１番１１－６０３号,,40,106,8030818,,,,,,,2024-02-08,1,,,,,バーテックス,0
946,4290803004611,新規,0,2024-02-08,2024-02-08,合同会社ＳＵＮ,,合同会社,福岡県,北九州市小倉北区,菜園場１丁目８－１１,,40,106,8030823,,,,,,,2024-02-08,1,,,,,サン,0
950,4310001018849,新規,0,2024-02-08,2024-02-08,株式会社ＧＲＯＷ　ＳＥＲＶＩＣＥ,,株式会社,長崎県,大村市,徳泉川内町６４９番地６エクリュ徳泉川内Ｅ,,42,205,8560041,,,,,,,2024-02-08,1,,,,,グロウサービス,0
954,4340003004365,新規,0,2024-02-08,2024-02-08,合同会社アシスト,,合同会社,鹿児島県,鹿児島市,西千石町１７番２７号第２ＮＡＤＥＳＨＩＫＯビル５階,,46,201,8920847,,,,,,,2024-02-08,1,,,,,アシスト,0
958,4360005006985,新規,0,2024-02-08,2024-02-08,一般社団法人あふそ,,その他の設立登記法人,沖縄県,国頭郡恩納村,字安富祖１２０番地,,47,311,9040402,,,,,,,2024-02-08,1,,,,,アフソ,0
961,4370001050929,新規,0,2024-02-08,2024-02-08,株式会社みらいわお,,株式会社,宮城県,仙台市宮城野区,岩切字洞ノ口８２番地の５３,,04,102,9830821,,,,,,,2024-02-08,1,,,,,ミライワオ,0
967,4400003003204,新規,0,2024-02-08,2024-02-08,合同会社チャイムコンタクト,,合同会社,岩手県,盛岡市,上田字宇登坂長根１６－１５,,03,201,0200102,,,,,,,2024-02-08,1,,,,,チャイムコンタクト,0
969,4430003015931,新規,0,2024-02-08,2024-02-08,Ｈ＆Ｐカンパニー合同会社,,合同会社,北海道,札幌市中央区,南四条西１２丁目１２９３番地３５ＦＫヒルズ南４条１０３号,,01,101,0640804,,,,,,,2024-02-08,1,,,,,エイチアンドピーカンパニー,0
970,4430003015948,新規,0,2024-02-08,2024-02-08,ブルービレッジ合同会社,,合同会社,北海道,虻田郡洞爺湖町,月浦９４－３４０,,01,584,0495723,,,,,,,2024-02-08,1,,,,,ブルービレッジ,0
971,4450001014223,新規,0,2024-02-08,2024-02-08,株式会社ＩＮＤＩＧＯ,,株式会社,北海道,旭川市,七条通３丁目２５００番地の５８,,01,204,0700037,,,,,,,2024-02-08,1,,,,,,0
974,4700150123880,新規,0,2024-02-08,2024-02-08,Ｎｉｎｇｂｏ　Ｓｈｉｊｉａ　Ｃｌｅａｎｉｎｇ　Ｔｏｏｌｓ　Ｃｏ．，Ｌｔｄ．,,外国会社等,,,,,,,,Ｎｏ．１０８　Ｓｏｕｔｈ　Ｒｏａｄ，Ｘｉｗｕ　Ｓｔｒｅｅｔ，Ｆｅｎｇｈｕａ　Ｄｉｓｔｒｉｃｔ，Ｎｉｎｇｂｏ，Ｚｈｅｊｉａｎｇ，３１５５０５，Ｃｈｉｎａ,,,,,,2024-02-08,1,,,,,ニンボーシジャアクリーニングツールズカンパニーリミテッド,0
975,4700150123897,新規,0,2024-02-08,2024-02-08,ｓｈｅｎｚｈｅｎｓｈｉ　ｌｅｃｈｕａｎｇｗｅｉｌａｉｋｅｊｉ　ｙｏｕｘｉａｎｇｏｎｇｓｉ,,外国会社等,,,,,,,,ＳｈｅｎｚｈｅｎｓｈｉＬｏｎｇｈｕａｑｕ　ｍｉｎｚｈｉｊｉｅｄａｏｘｉｎｎｉｕｓｈｅｑｕ　ｍｉｎｚｈｉｄａｄａｏｙｕ　ｇｏｎｇｙｅｄｏｎｇｌｕｊｉａｏｈｕｉｃｈｕ　ｚｈａｎｔａｏｋｅｊｉｄａｓｈａＣｚｕｏＣ１４１５,,,,,,2024-02-08,1,,,,,シンセンシガクソウミライカギユウゲンコウシ,0
976,4700150123906,新規,0,2024-02-08,2024-02-08,Ｙｏｎｇｋａｎｇｓｈｉ　ｊｉａｎｈｕｉ　ｇｏｎｇｍａｏ　Ｃｏ．，Ｌｔｄ,,外国会社等,,,,,,,,ｄｉ　ｓａｎ　ｃｅｎｇ，ｙｉ　ｌｏｕ　ｄｏｎｇ　ｑｉ　ｄｉ　３　ｊｉａｎ，ｄｉ　ｙｉ　ｚｈｕａｎｇｊｉｕ　ｄｉｎｇ　ｌｕ　７６　ｈａｏ　ｙｏｎｇ　ｋａｎｇ　ｓｈｉ　ｊｉｎｇ　ｊｉ　ｋａｉ　ｆａ　ｑｕ，Ｙｏｎｇ　ｋａｎｇ　ｓｈｉ，Ｊｉｎ　ｈｕａ　ｓｈｉＺｈｅ　ｊｉａｎｇ　ｓｈｅｎｇ３２１３００ＣＮ,,,,,,2024-02-08,1,,,,,ヨンカンシージエンフイゴンマオヨウシエンゴンスー,0
981,5010005037841,新規,0,2024-02-08,2024-02-08,一般社団法人ＬＥＶＥＣＨＹ１４号,,その他の設立登記法人,東京都,千代田区,紀尾井町３－８第２紀尾井町ビル９０１アクシス綜合会計事務所内,,13,101,1020094,,,,,,,2024-02-08,1,,,,,レベチージュウヨンゴウ,0
983,5010101015998,新規,0,2024-02-08,2024-02-08,株式会社ＰＩＴＫ,,株式会社,東京都,八王子市,西寺方町１００６番地１２３,,13,201,1920153,,,,,,,2024-02-08,1,,,,,ピーアイティーケー,0
994,5010401180278,新規,0,2024-02-08,2024-02-08,Ｐｅｎｔａｇｒａｍ　Ｃａｐｉｔａｌ　Ｍａｎａｇｅｍｅｎｔ株式会社,,株式会社,東京都,港区,芝浦２丁目９番１－３１２号,,13,103,1080023,,,,,,,2024-02-08,1,,,,,ペンタグラムキャピタルマネジメント,0
996,5010403031925,新規,0,2024-02-08,2024-02-08,合同会社レジデンシャルエム,,合同会社,東京都,港区,西新橋１丁目２番９号メンターキャピタル税理士法人内,,13,103,1050003,,,,,,,2024-02-08,1,,,,,レジデンシャルエム,0
997,5010403031933,新規,0,2024-02-08,2024-02-08,オールデイミュージック合同会社,,合同会社,東京都,港区,南青山２丁目２－１５ＷｉｎＡｏｙａｍａビルＵＣＦ６階,,13,103,1070062,,,,,,,2024-02-08,1,,,,,オールデイミュージック,0
998,5010405022930,新規,0,2024-02-08,2024-02-08,一般社団法人二枚田風力開発,,その他の設立登記法人,東京都,港区,虎ノ門３丁目２２番１０－２０１号,,13,103,1050001,,,,,,,2024-02-08,1,,,,,ニマイダフウリョクカイハツ,0
1001,5010603010638,新規,0,2024-02-08,2024-02-08,合同会社しかく,,合同会社,東京都,墨田区,文花１丁目１８番１３号,,13,107,1310044,,,,,,,2024-02-08,1,,,,,シカク,0
1007,5010901054691,新規,0,2024-02-08,2024-02-08,セキュア株式会社,,株式会社,東京都,世田谷区,三軒茶屋２丁目１３番２０－１００３号,,13,112,1540024,,,,,,,2024-02-08,1,,,,,セキュア,0
1019,5011003018461,新規,0,2024-02-08,2024-02-08,Ａ・ＨＯＰＥ合同会社,,合同会社,東京都,渋谷区,恵比寿西２丁目８番４号ＥＸ恵比寿西ビル５階,,13,113,1500021,,,,,,,2024-02-08,1,,,,,エーホープ,0
1024,5011101106102,新規,0,2024-02-08,2024-02-08,ノヴァテックス株式会社,,株式会社,東京都,新宿区,西新宿３丁目３番１３号西新宿水間ビル６階,,13,104,1600023,,,,,,,2024-02-08,1,,,,,ノヴァテックス,0
1026,5011501030298,新規,0,2024-02-08,2024-02-08,株式会社Ｔｅｒａ,,株式会社,東京都,荒川区,西尾久７丁目１７番９号レルム城北２０４,,13,118,1160011,,,,,,,2024-02-08,1,,,,,テラ,0
1027,5011501030315,新規,0,2024-02-08,2024-02-08,株式会社あんずプロダクション,,株式会社,東京都,北区,上十条２丁目５番１３号十条会館２０４－Ｂ,,13,117,1140034,,,,,,,2024-02-08,1,,,,,アンズプロダクション,0
1034,5011801043751,新規,0,2024-02-08,2024-02-08,株式会社レーニスワン,,株式会社,東京都,足立区,宮城１丁目２３番５号,,13,121,1200047,,,,,,,2024-02-08,1,,,,,レーニスワン,0
1036,5011805003339,新規,0,2024-02-08,2024-02-08,一般社団法人東京遺品整理組合,,その他の設立登記法人,東京都,足立区,扇２丁目２６番４１号,,13,121,1230873,,,,,,,2024-02-08,1,,,,,トウキョウイヒンセイリクミアイ,0
1037,5012301013773,新規,0,2024-02-08,2024-02-08,株式会社アアルト,,株式会社,東京都,町田市,金森４丁目２０番２号ＲタウンＢ１－Ｃ,,13,209,1940012,,,,,,,2024-02-08,1,,,,,アアルト,0
1039,5012403006403,新規,0,2024-02-08,2024-02-08,合同会社エムズ,,合同会社,東京都,調布市,飛田給２丁目１０番地１３４,,13,208,1820036,,,,,,,2024-02-08,1,,,,,エムズ,0
1042,5013101009342,新規,0,2024-02-08,2024-02-08,ビットムーブスジャパン株式会社,,株式会社,東京都,羽村市,玉川１丁目５番１１号,,13,227,2050024,,,,,,,2024-02-08,1,,,,,ビットムーブスジャパン,0
1047,5020001155753,新規,0,2024-02-08,2024-02-08,株式会社こんぺいとう,,株式会社,神奈川県,川崎市多摩区,登戸２９７０番地１ミオカステーロ向ヶ丘遊園ＩＩ５０１,00133663,14,135,2140014,,,,,,,2024-02-08,1,,,,,コンペイトウ,0
1049,5020003025483,新規,0,2024-02-08,2024-02-08,合同会社ルリエ,,合同会社,神奈川県,横浜市西区,北幸２丁目１０番４８号むつみビル３階,,14,103,2200004,,,,,,,2024-02-08,1,,,,,ルリエ,0
1050,5020003025491,新規,0,2024-02-08,2024-02-08,合同会社ＧＯＤＭＯＯＮ,,合同会社,神奈川県,川崎市川崎区,宮前町二丁目１番地ライオンズマンション１１０３,,14,131,2100012,,,,,,,2024-02-08,1,,,,,ゴッドムーン,0
1051,5020003025517,新規,0,2024-02-08,2024-02-08,合同会社ＧＴライン,,合同会社,神奈川県,横浜市西区,高島２丁目７番２－１２１０号,,14,103,2200011,,,,,,,2024-02-08,1,,,,,ジーティーライン,0
1057,5021003014138,新規,0,2024-02-08,2024-02-08,合同会社ＰＡＲＴＩＲ,,合同会社,神奈川県,大和市,福田８丁目１４番地８フォレスタ３０４,,14,213,2420024,,,,,,,2024-02-08,1,,,,,パルティール,0
1063,5030001158474,新規,0,2024-02-08,2024-02-08,株式会社ＥＮＭＴ,,株式会社,埼玉県,久喜市,桜田２丁目２－１－３１２,,11,232,3400203,,,,,,,2024-02-08,1,,,,,エント,0
1064,5030001158516,新規,0,2024-02-08,2024-02-08,株式会社日本バイオプラスチック研究所,,株式会社,埼玉県,北葛飾郡杉戸町,高野台南３丁目１番地６シーアイマンション杉戸高野台２０７Ｃ,,11,464,3450046,,,,,,,2024-02-08,1,,,,,ニッポンバイオプラスチックケンキュウジョ,0
1065,5030001158549,新規,0,2024-02-08,2024-02-08,株式会社ピグムント,,株式会社,埼玉県,八潮市,中央３丁目９番地７,,11,234,3400816,,,,,,,2024-02-08,1,,,,,ピグムント,0
1066,5030001158573,新規,0,2024-02-08,2024-02-08,Ｓ・Ｎ・Ｄ株式会社,,株式会社,埼玉県,上尾市,大字瓦葺１２０２番地３オークヒルズ黒須ＮＯ１－１０１,,11,219,3620022,,,,,,,2024-02-08,1,,,,,エスエヌディー,0
1070,5030003023602,新規,0,2024-02-08,2024-02-08,合同会社海向,,合同会社,埼玉県,さいたま市北区,吉野町２丁目２２６番地の１,,11,102,3310811,,,,,,,2024-02-08,1,,,,,カイコウ,0
1073,5040001132098,新規,0,2024-02-08,2024-02-08,株式会社ステップワン,,株式会社,千葉県,市川市,大野町４丁目２８２０番地３４,,12,203,2720805,,,,,,,2024-02-08,1,,,,,ステップワン,0
1077,5040003024277,新規,0,2024-02-08,2024-02-08,合同会社Ｆｏｒｔｕｎａ,,合同会社,千葉県,印西市,草深２５８番地１,,12,231,2701337,,,,,,,2024-02-08,1,,,,,フォルトゥナ,0
1078,5040003024285,新規,0,2024-02-08,2024-02-08,合同会社ＡＱＵＡ　ＤＩＶＡ,,合同会社,千葉県,大網白里市,みどりが丘４丁目２番地８,,12,239,2993255,,,,,,,2024-02-08,1,,,,,アクアディヴァ,0
1080,5050001054226,新規,0,2024-02-08,2024-02-08,株式会社エレガルディア,,株式会社,茨城県,つくば市,二の宮２丁目１２番地９,,08,220,3050051,,,,,,,2024-02-08,1,,,,,エレガルディア,0
1081,5050001054234,新規,0,2024-02-08,2024-02-08,株式会社Ｌｉｂｒｅ　Ｏｎｅ,,株式会社,茨城県,稲敷郡阿見町,中央６丁目１５番７号,,08,443,3000332,,,,,,,2024-02-08,1,,,,,リーブルワン,0
1085,5070001041370,新規,0,2024-02-08,2024-02-08,株式会社カミナリテ,,株式会社,群馬県,甘楽郡甘楽町,大字天引８２番地,,10,384,3702217,,,,,,,2024-02-08,1,,,,,カミナリテ,0
1087,5080001026123,新規,0,2024-02-08,2024-02-08,株式会社Ｌｉｆｅ　ｔｒｅｅホールディングス,,株式会社,静岡県,静岡市葵区,馬場町９２番地の７,,22,101,4200867,,,,,,,2024-02-08,1,,,,,ライフツリーホールディングス,0
1089,5110001038148,新規,0,2024-02-08,2024-02-08,ＢＩＬＡＬ　ＴＲＡＤＩＮＧ株式会社,,株式会社,新潟県,十日町市,中条戊７１９番地中条戊オフィスビルＡ－１,,15,210,9498618,,,,,,,2024-02-08,1,,,,,ビラルトレーディング,0
1097,5120001261748,新規,0,2024-02-08,2024-02-08,株式会社エーアールエイチ建設,,株式会社,大阪府,大阪市阿倍野区,阿倍野筋４丁目２番４号,,27,119,5450052,,,,,,,2024-02-08,1,,,,,エーアールエイチ,0
1098,5120001262102,新規,0,2024-02-08,2024-02-08,株式会社ＥＫＡＲＡ,,株式会社,大阪府,大阪市都島区,内代町１丁目１４番３号,,27,102,5340013,,,,,,,2024-02-08,1,,,,,エカラ,0
1099,5120001262110,新規,0,2024-02-08,2024-02-08,草木間株式会社,,株式会社,大阪府,大阪市中央区,松屋町９番２０号ローレルステート松屋町１２０１Ｃ,,27,128,5420067,,,,,,,2024-02-08,1,,,,,ソウキカン,0
1100,5120001262119,新規,0,2024-02-08,2024-02-08,Ｓｍａｒｔ　Ｍｅ・ｏ・ｗ株式会社,,株式会社,大阪府,大阪市東淀川区,豊新１丁目１７番２６－４０５号,,27,114,5330014,,,,,,,2024-02-08,1,,,,,スマートミャオウ,0
1104,5120003025878,新規,0,2024-02-08,2024-02-08,シルバーストーン合同会社,,合同会社,大阪府,大阪市北区,西天満４丁目３－１、５階,,27,127,5300047,,,,,,,2024-02-08,1,,,,,シルバーストーン,0
1108,5120101069026,新規,0,2024-02-08,2024-02-08,株式会社一心,,株式会社,大阪府,藤井寺市,北岡１丁目７番７－２０２号,,27,226,5830035,,,,,,,2024-02-08,1,,,,,イッシン,0
1109,5120103005664,新規,0,2024-02-08,2024-02-08,合同会社Ｓｕｃｃｅｓｓ　Ｌａｂ,,合同会社,大阪府,羽曳野市,はびきの５丁目２１番７号,,27,222,5830872,,,,,,,2024-02-08,1,,,,,サクセスラボ,0
1115,5122001037797,新規,0,2024-02-08,2024-02-08,株式会社マニュファクチュア・ラボ,,株式会社,大阪府,東大阪市,荒本北２丁目２番４７号,,27,227,5770011,,,,,,,2024-02-08,1,,,,,マニュファクチュアラボ,0
1119,5140003020150,新規,0,2024-02-08,2024-02-08,プリフロップ企画合同会社,,合同会社,兵庫県,姫路市,北今宿２丁目４番５２号北今宿ビル３階,,28,201,6700057,,,,,,,2024-02-08,1,,,,,プリフロップ,0
1122,5150003003179,新規,0,2024-02-08,2024-02-08,ｎｏｔ　ｓｏ　ｆａｒ合同会社,,合同会社,奈良県,大和高田市,幸町２－３３－４０３,,29,202,6350015,,,,,,,2024-02-08,1,,,,,ノットソーファー,0
1136,5180001160102,新規,0,2024-02-08,2024-02-08,株式会社ｍ‐ｂｏｔ,,株式会社,愛知県,一宮市,上祖父江字東外山５７番地２,,23,203,4940014,,,,,,,2024-02-08,1,,,,,エムボット,0
1146,5200001042140,新規,0,2024-02-08,2024-02-08,アセットデザイン株式会社,,株式会社,岐阜県,岐阜市,八代１丁目１３番１０－４０１号（キャッスルハイツ長良西）,,21,201,5020812,,,,,,,2024-02-08,1,,,,,アセットデザイン,0
1166,5280005007594,新規,0,2024-02-08,2024-02-08,労働者協同組合うんなん,,その他の設立登記法人,島根県,雲南市,三刀屋町乙加宮２４４６番地２,,32,209,6902634,,,,,,,2024-02-08,1,,,,,,0
1168,5290001104601,新規,0,2024-02-08,2024-02-08,株式会社中原牧場,,株式会社,福岡県,糸島市,板持１１７番地,,40,230,8191101,,,,,,,2024-02-08,1,,,,,ナカハラボクジョウ,0
1169,5290001104642,新規,0,2024-02-08,2024-02-08,ＩＤＳ　ＪＡＰＡＮ株式会社,,株式会社,福岡県,春日市,白水ヶ丘４丁目１４９番地４０３号,,40,218,8160845,,,,,,,2024-02-08,1,,,,,アイディーエスジャパン,0
1171,5290005019291,新規,0,2024-02-08,2024-02-08,一般社団法人Ｒｅ．ＳＴＡＲ,,その他の設立登記法人,福岡県,福岡市博多区,石城町７－９,,40,132,8120032,,,,,,,2024-02-08,1,,,,,リスター,0
1185,5330001031741,新規,0,2024-02-08,2024-02-08,株式会社Ｄフォワード,,株式会社,熊本県,熊本市中央区,坪井１丁目１番１０号２０５,,43,101,8600863,,,,,,,2024-02-08,1,,,,,ディーフォワード,0
1186,5330003010198,新規,0,2024-02-08,2024-02-08,合同会社ニッショウ,,合同会社,熊本県,熊本市北区,山室６丁目９番２７号,,43,105,8600084,,,,,,,2024-02-08,1,,,,,ニッショウ,0
1187,5330003010207,新規,0,2024-02-08,2024-02-08,合同会社ジェイウィング,,合同会社,熊本県,八代市,郡築九番町６７番地２,,43,202,8660004,,,,,,,2024-02-08,1,,,,,ジェイウィング,0
1188,5330005010758,新規,0,2024-02-08,2024-02-08,医療法人陽桜会,,その他の設立登記法人,熊本県,上益城郡益城町,大字広崎１０３７番地１,,43,443,8612236,,,,,,,2024-02-08,1,,,,,ヨウオウカイ,0
1190,5340003004364,新規,0,2024-02-08,2024-02-08,合同会社ＬＣＡＦ,,合同会社,鹿児島県,姶良市,西宮島町１９－１１,,46,225,8995433,,,,,,,2024-02-08,1,,,,,エルシーエーエフ,0
1193,5350003004561,新規,0,2024-02-08,2024-02-08,合同会社ＫＡＩ,,合同会社,宮崎県,延岡市,大貫町３丁目９６３番地１サンネクシオ大貫５０１,,45,203,8820803,,,,,,,2024-02-08,1,,,,,カイ,0
1197,5360001033181,新規,0,2024-02-08,2024-02-08,株式会社元気ファーム,,株式会社,沖縄県,石垣市,字真栄里３０７番地１,,47,207,9070002,,,,,,,2024-02-08,1,,,,,ゲンキファーム,0
1199,5370001050928,新規,0,2024-02-08,2024-02-08,株式会社アイデン不動産,,株式会社,宮城県,仙台市宮城野区,扇町７丁目１番２２号,,04,102,9830034,,,,,,,2024-02-08,1,,,,,アイデンフドウサン,0
1204,5410003003887,新規,0,2024-02-08,2024-02-08,合同会社白神山麓農産,,合同会社,秋田県,山本郡藤里町,藤琴字一の渡１９番地２,,05,346,0183201,,,,,,,2024-02-08,1,,,,,シラカミサンロクノウサン,0
1205,5410005006566,新規,0,2024-02-08,2024-02-08,医療法人櫻井会,,その他の設立登記法人,秋田県,秋田市,広面字昼寝４４番地２,,05,201,0100041,,,,,,,2024-02-08,1,,,,,サクライカイ,0
1206,5420001018589,新規,0,2024-02-08,2024-02-08,株式会社Ｎ＆Ｋ,,株式会社,青森県,青森市,浪岡大字浪岡字稲村１３８番地５,,02,201,0381311,,,,,,,2024-02-08,1,,,,,エヌアンドケー,0
1208,5420003002871,新規,0,2024-02-08,2024-02-08,合同会社オンリーワン,,合同会社,青森県,青森市,大字大野字片岡６番地３２,,02,201,0300852,,,,,,,2024-02-08,1,,,,,オンリーワン,0
1211,5430003015947,新規,0,2024-02-08,2024-02-08,合同会社ＮＯＺＩ,,合同会社,北海道,札幌市清田区,里塚一条３丁目４番３号,,01,110,0040801,,,,,,,2024-02-08,1,,,,,ノジ,0
1214,5460005001579,新規,0,2024-02-08,2024-02-08,農事組合法人アグリサポート,,その他の設立登記法人,北海道,釧路市,春採２丁目１６番１１号内海マンション２０２号,,01,206,0850813,,,,,,,2024-02-08,1,,,,,アグリサポート,0
1218,5490005006922,新規,0,2024-02-08,2024-02-08,一般財団法人もりとみず基金,,その他の設立登記法人,高知県,土佐郡土佐町,土居１９４,,39,363,7813401,,,,,,,2024-02-08,1,,,,,モリトミズキキン,0
1221,5500001025461,新規,0,2024-02-08,2024-02-08,寛造園設計株式会社,,株式会社,愛媛県,新居浜市,中村３丁目９番２９号,,38,205,7920044,,,,,,,2024-02-08,1,,,,,カンゾウエンセッケイ,0
1223,5700150123839,新規,0,2024-02-08,2024-02-06,湘南人権擁護委員協議会,,その他,神奈川県,藤沢市,辻堂神台２丁目２－３横浜地方法務局湘南支局内,,14,205,2510041,,,,,,,2024-02-06,1,,,,,シヨウナンジンケンヨウゴイインキヨウギカイ,0
1224,5700150123847,新規,0,2024-02-08,2024-02-06,ハマノ芸能舎,,その他,東京都,渋谷区,桜丘町４番１８－１１０３,,13,113,1500031,,,,,,,2024-02-06,1,,,,,ハマノゲイノウシヤ,0
1225,5700150123896,新規,0,2024-02-08,2024-02-08,ｘｉｎｇ　ｗａｉ　ｓｈｕ　ｍａ　ｐｅｉ　ｊｉａｎ　ｓｈｅｎｚｈｅｎ　ｙｏｕ　ｘｉａｎ　ｇｏｎｇ　ｓｉ,,外国会社等,,,,,,,,ｓｈｅｎｚｈｅｎｓｈｉｌｏｎｇｈｕａｑｕｍｉｎｚｈｉｊｉｅｄａｏ　ｄａｌｉｎｇｓｈｅｑｕｓｈｕｉｘｉｅｃｈｕｎｔｉａｎｈｕａｙｕａｎ　ｓａｎｑｉ１２ｄｏｎｇｙｕｌａｎｙｕａｎｙｉｄａｎｙｕａｎ２５Ｄ,,,,,,2024-02-08,1,,,,,セイガイカズマハイケンシンセンユウゲンコウシ,0
1226,5700150123905,新規,0,2024-02-08,2024-02-08,ＡＩＧＥＮＳＩＴＯＮＧＫＥＪＩＹＯＵＸＩＡＮＧＯＮＧＳＩ,,外国会社等,,,,,,,,Ｒｏｏｍ　２０１，Ｂｕｉｌｄｉｎｇ　Ａ，Ｎｏ．１　Ｑｉａｎｗａｎ　１ｓｔ　Ｒｏａｄ，Ｑｉａｎｈａｉ　Ｓｈｅｎｚｈｅｎ　Ｈｏｎｇ　Ｋｏｎｇ　Ｃｏｏｐｅｒａｔｉｏｎ　Ｚｏｎｅ，Ｓｈｅｎｚｈｅｎ（ｓｅｔｔｌｅｄ　ｉｎ　Ｓｈｅｎｚｈｅｎ　Ｑｉａｎｈａｉ　Ｂｕｓｉｎｅｓｓ　Ｓｅｃｒｅｔａｒｙ　Ｃｏ．，Ｌｔｄ．）,,,,,,2024-02-08,1,,,,,アイゲンスートーンコーァジーヨウシエンゴーンスー,0
1238,6010001242072,新規,0,2024-02-08,2024-02-08,株式会社ＢＵＩＳ,,株式会社,東京都,中央区,日本橋兜町５－１第一平和ビル３階,,13,102,1030026,,,,,,,2024-02-08,1,,,,,ビユアイエス,0
1239,6010001242130,新規,0,2024-02-08,2024-02-08,株式会社エディソン＆エディソン,,株式会社,東京都,中央区,京橋２丁目１２番２号ＮＥＷＳＸビル４Ｆ,,13,102,1040031,,,,,,,2024-02-08,1,,,,,エディソンアンドエディソン,0
1241,6010005037873,新規,0,2024-02-08,2024-02-08,一般社団法人ＫＨＦ,,その他の設立登記法人,東京都,中央区,日本橋１丁目４番１号日本橋一丁目ビルディング,,13,102,1030027,,,,,,,2024-02-08,1,,,,,ケイエイチエフ,0
1249,6010401180252,新規,0,2024-02-08,2024-02-08,順能電力株式会社,,株式会社,東京都,港区,新橋１丁目５番６号,,13,103,1050004,,,,,,,2024-02-08,1,,,,,ジュンノウデンリョク,0
1250,6010401180260,新規,0,2024-02-08,2024-02-08,株式会社オルカ,,株式会社,東京都,港区,赤坂４丁目１４番１４－２９０３号,,13,103,1070052,,,,,,,2024-02-08,1,,,,,オルカ,0
1255,6010403031924,新規,0,2024-02-08,2024-02-08,合同会社城南ファンド,,合同会社,東京都,港区,西新橋１丁目２番９号メンターキャピタル税理士法人内,,13,103,1050003,,,,,,,2024-02-08,1,,,,,ジョウナンファンド,0
1256,6010403031932,新規,0,2024-02-08,2024-02-08,アーカディ合同会社,,合同会社,東京都,港区,赤坂２丁目１４－５Ｄａｉｗａ赤坂ビル７階,,13,103,1070052,,,,,,,2024-02-08,1,,,,,アーカディ,0
1257,6010403031949,新規,0,2024-02-08,2024-02-08,ＳａａＳホールディングス合同会社,,合同会社,東京都,港区,六本木６丁目１０番１号六本木ヒルズ森タワー,,13,103,1060032,,,,,,,2024-02-08,1,,,,,サースホールディングス,0
1260,6010501051725,新規,0,2024-02-08,2024-02-08,マーキュリー株式会社,,株式会社,東京都,台東区,蔵前３丁目１０番８－３０１号,,13,106,1110051,,,,,,,2024-02-08,1,,,,,マーキュリー,0
1266,6010803004843,新規,0,2024-02-08,2024-02-08,合同会社スミール,,合同会社,東京都,大田区,蒲田本町１丁目１番３－１４０９号,,13,111,1440053,,,,,,,2024-02-08,1,,,,,スミール,0
1267,6010901054690,新規,0,2024-02-08,2024-02-08,アイエスビースタイルアンドカンパニー株式会社,,株式会社,東京都,世田谷区,太子堂５丁目３番５号ジョリー・シー・サンチャ１０１,,13,112,1540004,,,,,,,2024-02-08,1,,,,,アイエスビースタイルアンドカンパニー,0
1270,6011001159843,新規,0,2024-02-08,2024-02-08,タクタク株式会社,,株式会社,東京都,渋谷区,道玄坂１丁目１０番８号,,13,113,1500043,,,,,,,2024-02-08,1,,,,,タクタク,0
1273,6011003018403,新規,0,2024-02-08,2024-02-08,ノブレス合同会社,,合同会社,東京都,渋谷区,神宮前３丁目１８－４２－３０９,,13,113,1500001,,,,,,,2024-02-08,1,,,,,ノブレス,0
1274,6011003018460,新規,0,2024-02-08,2024-02-08,合同会社ＰｌａｙＯｎｅ,,合同会社,東京都,渋谷区,松濤２丁目１４番８号Ｆｅｅｌ・ｉ・松濤５０１,,13,113,1500046,,,,,,,2024-02-08,1,,,,,プレイワン,0
1277,6011103014062,新規,0,2024-02-08,2024-02-08,合同会社オオラボ,,合同会社,東京都,新宿区,西新宿３丁目３番１３号西新宿水間ビル６階,,13,104,1600023,,,,,,,2024-02-08,1,,,,,オオラボ,0
1278,6011403004267,新規,0,2024-02-08,2024-02-08,８１合同会社,,合同会社,東京都,板橋区,常盤台４丁目２７番６号,,13,119,1740071,,,,,,,2024-02-08,1,,,,,ハチワン,0
1279,6011501030280,新規,0,2024-02-08,2024-02-08,秀和家株式会社,,株式会社,東京都,北区,浮間１丁目１番１４号リムジンビル３１３,,13,117,1150051,,,,,,,2024-02-08,1,,,,,シュウワカ,0
1285,6012301013772,新規,0,2024-02-08,2024-02-08,株式会社Ｋ　ｐｌｕｓ　Ｈ　Ａｒｃｈｉｔｅｃｔｕｒｅ　Ｓｔｕｄｉｏ,,株式会社,東京都,町田市,薬師台３丁目１６－９,,13,209,1950073,,,,,,,2024-02-08,1,,,,,ケープラスエイチアーキテクチャスタジオ,0
1288,6012803003305,新規,0,2024-02-08,2024-02-08,合同会社Ｎｅｕｒｏｎ,,合同会社,東京都,国立市,谷保６丁目２４番地１３,,13,215,1860011,,,,,,,2024-02-08,1,,,,,ネウロン,0
1290,6013301052050,新規,0,2024-02-08,2024-02-08,株式会社ｓｕｃｃｅｓｓｆｕｌ　ｚｏｏ,,株式会社,東京都,豊島区,西池袋３丁目３０番１１号,,13,116,1710021,,,,,,,2024-02-08,1,,,,,サクセスフルズー,0
1294,6020001155728,新規,0,2024-02-08,2024-02-08,株式会社サポートブレイン,,株式会社,神奈川県,横浜市西区,北幸１丁目１１番１号水信ビル７階,,14,103,2200004,,,,,,,2024-02-08,1,,,,,サポートブレイン,0
1295,6020001155752,新規,0,2024-02-08,2024-02-08,ウェルシティ株式会社,,株式会社,神奈川県,横浜市港北区,新吉田町４４６０番地,,14,109,2230056,,,,,,,2024-02-08,1,,,,,ウェルシティ,0
1297,6020003025524,新規,0,2024-02-08,2024-02-08,合同会社渡邉輪業,,合同会社,神奈川県,横浜市旭区,下川井町１５１－９,,14,112,2410806,,,,,,,2024-02-08,1,,,,,ワタナベリンギョウ,0
1299,6021001081410,新規,0,2024-02-08,2024-02-08,株式会社Ｒａｐｉｓ,,株式会社,神奈川県,綾瀬市,上土棚中２丁目１２番２３号,,14,218,2521113,,,,,,,2024-02-08,1,,,,,ラピス,0
1300,6021003014120,新規,0,2024-02-08,2024-02-08,合同会社ＭＩフーズ,,合同会社,神奈川県,茅ヶ崎市,南湖４丁目１７番２号,,14,207,2530061,,,,,,,2024-02-08,1,,,,,エムアイフーズ,0
1308,6030001158523,新規,0,2024-02-08,2024-02-08,株式会社セイア,,株式会社,埼玉県,三郷市,三郷２丁目１１番地５－９０２号,,11,237,3410024,,,,,,,2024-02-08,1,,,,,セイア,0
1309,6030001158556,新規,0,2024-02-08,2024-02-08,株式会社Ｆｌｅｕｒ,,株式会社,埼玉県,三郷市,鷹野３丁目１１８番２号,,11,237,3410035,,,,,,,2024-02-08,1,,,,,フルール,0
1310,6030001158564,新規,0,2024-02-08,2024-02-08,株式会社ＴＯＫＹＯ　ＥＣＯ　ＴＲＡＤＩＮＧ,,株式会社,埼玉県,上尾市,原新町２４番２号オハナ北上尾４０１号室,,11,219,3620016,,,,,,,2024-02-08,1,,,,,トウキョウエコートレーディング,0
1312,6030003023601,新規,0,2024-02-08,2024-02-08,ＭｅｌｉｕｓＷｏｒｋｓ合同会社,,合同会社,埼玉県,白岡市,上野田１５９０番地２,,11,246,3490221,,,,,,,2024-02-08,1,,,,,メリウスワークス,0
1321,6040001131999,新規,0,2024-02-08,2024-02-08,株式会社Ｕｎｉｆｙ　Ｓｉｍｐｌｅ,,株式会社,千葉県,松戸市,二ツ木１６４８番地の１,,12,207,2700027,,,,,,,2024-02-08,1,,,,,ユニフィーシンプル,0
1322,6040001132089,新規,0,2024-02-08,2024-02-08,ＬＩＴ　ＮＥＸＴ株式会社,,株式会社,千葉県,柏市,藤ケ谷１１７３－１,,12,217,2770931,,,,,,,2024-02-08,1,,,,,リットネクスト,0
1323,6040001132097,新規,0,2024-02-08,2024-02-08,株式会社ＫＨＹ‐ＳＴａＲｃｈ,,株式会社,千葉県,船橋市,大穴南２丁目４０番１７号,,12,204,2740067,,,,,,,2024-02-08,1,,,,,カイストラーキ,0
1327,6050001054233,新規,0,2024-02-08,2024-02-08,水戸ミートセンター株式会社,,株式会社,茨城県,水戸市,見川町１８２２番地の１,,08,201,3100913,,,,,,,2024-02-08,1,,,,,ミトミートセンター,0
1332,6070001041361,新規,0,2024-02-08,2024-02-08,株式会社Ｒｏｇｅｒ企画,,株式会社,群馬県,太田市,飯田町８６６番地関口ビル１Ｆ,,10,205,3730851,,,,,,,2024-02-08,1,,,,,ロージャーキカク,0
1350,6110005017048,新規,0,2024-02-08,2024-02-08,一般社団法人セブンヴァレー,,その他の設立登記法人,新潟県,加茂市,大字黒水８４７番地２,,15,209,9591336,,,,,,,2024-02-08,1,,,,,セブンヴァレー,0
1361,6120001262035,新規,0,2024-02-08,2024-02-08,富貴株式会社,,株式会社,大阪府,大阪市大正区,小林東２丁目９－５－５０７,,27,108,5510011,,,,,,,2024-02-08,1,,,,,フウキ,0
1362,6120001262150,新規,0,2024-02-08,2024-02-08,スマイル株式会社,,株式会社,大阪府,大阪市旭区,千林２丁目１８番３－２０３号,,27,117,5350012,,,,,,,2024-02-08,1,,,,,スマイル,0
1363,6120001262183,新規,0,2024-02-08,2024-02-08,ＯＳ１株式会社,,株式会社,大阪府,大阪市東淀川区,東中島１丁目１７番５－７１１号,,27,114,5330033,,,,,,,2024-02-08,1,,,,,オーエスワン,0
1364,6120003025885,新規,0,2024-02-08,2024-02-08,合同会社Ｎｏａｋ,,合同会社,大阪府,大阪市北区,豊崎２丁目８番１３号ジョリーフローラ５０２,,27,127,5310072,,,,,,,2024-02-08,1,,,,,ノアック,0
1367,6120101069033,新規,0,2024-02-08,2024-02-08,株式会社サンライズ,,株式会社,大阪府,堺市西区,上野芝町８丁２２番３３号,,27,144,5938301,,,,,,,2024-02-08,1,,,,,サンライズ,0
1370,6120103005663,新規,0,2024-02-08,2024-02-08,吉合同会社,,合同会社,大阪府,堺市西区,浜寺石津町東３丁９番２４号,,27,144,5928335,,,,,,,2024-02-08,1,,,,,キチ,0
1379,6170001018003,新規,0,2024-02-08,2024-02-08,株式会社ＴＷＳ,,株式会社,和歌山県,和歌山市,岩橋５８番地９,,30,201,6408301,,,,,,,2024-02-08,1,,,,,ティダブリュエス,0
1381,6170005007068,新規,0,2024-02-08,2024-02-08,一般社団法人南紀熊野創生機構,,その他の設立登記法人,和歌山県,西牟婁郡白浜町,３３５４番地の９,,30,401,6492211,,,,,,,2024-02-08,1,,,,,ナンキクマノソウセイキコウ,0
1394,6180003026291,新規,0,2024-02-08,2024-02-08,Ｐａｉｎａ　Ｖａｌｌｅｙ　Ｃｏｎｓｕｌｔｉｎｇ合同会社,,合同会社,愛知県,名古屋市中村区,名駅４丁目２４番５号第２森ビル４０１,,23,105,4500002,,,,,,,2024-02-08,1,,,,,パイナバレーコンサルティング,0
1410,6290003014954,新規,0,2024-02-08,2024-02-08,Ｙｕｍｉｉ合同会社,,合同会社,福岡県,福岡市中央区,舞鶴１丁目９番３－４１３号朝日プラザ天神,,40,133,8100073,,,,,,,2024-02-08,1,,,,,ユミィ,0
1414,6300001013618,新規,0,2024-02-08,2024-02-08,株式会社大誠開発,,株式会社,佐賀県,神埼市,神埼町鶴１０２２番地６,,41,210,8420007,,,,,,,2024-02-08,1,,,,,タイセイカイハツ,0
1417,6310001018847,新規,0,2024-02-08,2024-02-08,株式会社アルメイク,,株式会社,長崎県,佐世保市,原分町１７３８番地１,,42,202,8570103,,,,,,,2024-02-08,1,,,,,アルメイク,0
1419,6330001031732,新規,0,2024-02-08,2024-02-08,三文元株式会社,,株式会社,熊本県,菊池郡菊陽町,武蔵ヶ丘北３丁目１番２８－３０１号,,43,404,8691112,,,,,,,2024-02-08,1,,,,,サンブンゲン,0
1421,6330003010206,新規,0,2024-02-08,2024-02-08,合同会社ＮＥＸＴ,,合同会社,熊本県,荒尾市,四ツ山町１丁目１１番３０号イルファーロ１０２号,,43,204,8640052,,,,,,,2024-02-08,1,,,,,ネクスト,0
1423,6340005009699,新規,0,2024-02-08,2024-02-08,特定非営利活動法人スマイルシェアフードキャンプ,,その他の設立登記法人,鹿児島県,鹿児島市,鼓川町１８番２８号,,46,201,8900000,,,,,,,2024-02-08,1,,,,,スマイルシェアフードキャンプ,0
1431,6380001034292,新規,0,2024-02-08,2024-02-08,株式会社ｆｌｏｆ,,株式会社,福島県,双葉郡大熊町,大字下野上字清水２３０,,07,545,9791308,,,,,,,2024-02-08,1,,,,,フロッフ,0
1434,6400003003210,新規,0,2024-02-08,2024-02-08,合同会社ウェルビーイング,,合同会社,岩手県,盛岡市,湯沢７地割３１番地１,,03,201,0200842,,,,,,,2024-02-08,1,,,,,ウェルビーイング,0
1435,6410003003886,新規,0,2024-02-08,2024-02-08,男鹿・潟上・秋田Ｏｆｆｓｈｏｒｅ　Ｇｒｅｅｎ　Ｅｎｅｒｇｙ合同会社,,合同会社,秋田県,秋田市,中通２丁目２番３２号,,05,201,0100001,,,,,,,2024-02-08,1,,,,,オガカタガミアキタオフショアグリーンエナジー,0
1439,6430001091048,新規,0,2024-02-08,2024-02-08,株式会社Ｃｈｉｌｄｈｏｏｄ,,株式会社,北海道,小樽市,花園２丁目４番２０１号ヴェルビュ小樽公園,,01,203,0470024,,,,,,,2024-02-08,1,,,,,チャイルドフッド,0
1440,6430001091056,新規,0,2024-02-08,2024-02-08,株式会社美福工業,,株式会社,北海道,石狩市,花川南二条６丁目２０６番地,,01,235,0613202,,,,,,,2024-02-08,1,,,,,ミフクコウギョウ,0
1443,6430003015921,新規,0,2024-02-08,2024-02-08,合同会社オリジンリンク,,合同会社,北海道,札幌市中央区,南四条西１２丁目１２９６－２２ラ・ビスタ４－１２　４０２号室,,01,101,0640804,,,,,,,2024-02-08,1,,,,,オリジンリンク,0
1444,6430003015938,新規,0,2024-02-08,2024-02-08,合同会社ミタステージ,,合同会社,北海道,札幌市南区,藤野一条１０丁目６番２０号,,01,106,0612281,,,,,,,2024-02-08,1,,,,,ミタステージ,0
1445,6460005001578,新規,0,2024-02-08,2024-02-08,農事組合法人ベストパーソン,,その他の設立登記法人,北海道,釧路市,春採２丁目１６番１１号内海マンション２０２号,,01,206,0850813,,,,,,,2024-02-08,1,,,,,ベストパーソン,0
1451,6470003002577,新規,0,2024-02-08,2024-02-08,合同会社アドボカシー,,合同会社,香川県,高松市,城東町１丁目９番２０号,,37,201,7600036,,,,,,,2024-02-08,1,,,,,アドボカシー,0
1453,6500001025460,新規,0,2024-02-08,2024-02-08,村上水産株式会社,,株式会社,愛媛県,今治市,宮窪町友浦６０４番地２,,38,202,7942204,,,,,,,2024-02-08,1,,,,,ムラカミスイサン,0
1456,6700150123895,新規,0,2024-02-08,2024-02-08,ｙｉｎｇｋｏｕｙｕａｎｃｈｅｎｇｍａｏｙｉｙｏｕｘｉａｎｇｏｎｇｓｉ,,外国会社等,,,,,,,,ＬｉａｏｎｉｎｇｓｈｅｎｇＹｉｎｇｋｏｕｓｈｉＢａｙｕｑｕａｎｑｕ１９Ｈｕａｎｇｈｅｌｕ１２＃ｌｏｕＤｏｎｇｓｈｕ８＃ｍｅｎｓｈｉ,,,,,,2024-02-08,1,,,,,エイコウエンショウボウエキユウゲンコウシ,0
1457,6700150123904,新規,0,2024-02-08,2024-02-08,ＥＮＪＯＹＩＮＧ　ＧＯ　ＣＯ．，ＬＴＤ,,外国会社等,,,,,,,,３Ｆ－３，ＮＯ．４３，ＬＮ．１１，ＳＨＡＮＧ　ＡＮ　ＲＤ．，Ｘｉｔｕｎ　Ｄｉｓｔ．Ｔａｉｃｈｕｎｇ　Ｃｉｔｙ　４０７１６７　ＴＷ，ＸＩＴＵＮ　ＤＩＳＴ，ＴＡＩＣＨＵＮＧ　ＣＩＴＹ,,,,,,2024-02-08,1,,,,,イージョウヨウシエンゴーンスー,0
1469,7010003042874,新規,0,2024-02-08,2024-02-08,合同会社Ｓ２アート,,合同会社,東京都,千代田区,内神田１丁目５番４号加藤ビル２階,,13,101,1010047,,,,,,,2024-02-08,1,,,,,エスツーアート,0
1470,7010003042899,新規,0,2024-02-08,2024-02-08,合同会社筈,,合同会社,東京都,千代田区,神田神保町１丁目３６番地１,,13,101,1010051,,,,,,,2024-02-08,1,,,,,ハズ,0
1471,7010003042916,新規,0,2024-02-08,2024-02-08,合同会社Ｍａｓ　Ａｕｄｉｏ　Ｓｏｕｎｄ,,合同会社,東京都,千代田区,神田和泉町１番地６－１６ヤマトビル４０５,,13,101,1010024,,,,,,,2024-02-08,1,,,,,マスオーディオサウンド,0
1472,7010103002308,新規,0,2024-02-08,2024-02-08,ＢｌｕｅＳａｉｌ合同会社,,合同会社,東京都,八王子市,東町１０番３号１階,,13,201,1920082,,,,,,,2024-02-08,1,,,,,ブルーセイル,0
1478,7010401180210,新規,0,2024-02-08,2024-02-08,株式会社ＢＢＳマネージドサービス,,株式会社,東京都,港区,西新橋１丁目１番１号,,13,103,1050003,,,,,,,2024-02-08,1,,,,,ビービーエスマネージドサービス,0
1479,7010401180276,新規,0,2024-02-08,2024-02-08,株式会社ワークス,,株式会社,東京都,港区,新橋５丁目１２番１１号１００１号室,,13,103,1050004,,,,,,,2024-02-08,1,,,,,ワークス,0
1482,7010405022929,新規,0,2024-02-08,2024-02-08,一般社団法人中浦風力開発,,その他の設立登記法人,東京都,港区,虎ノ門３丁目２２番１０－２０１号,,13,103,1050001,,,,,,,2024-02-08,1,,,,,ナカウラフウリョクカイハツ,0
1489,7010601064618,新規,0,2024-02-08,2024-02-08,りそなＣＶＣ設立準備株式会社,,株式会社,東京都,江東区,木場１丁目５番２５号,,13,108,1350042,,,,,,,2024-02-08,1,,,,,リソナシーブイシーセツリツジュンビ,0
1496,7010801034767,新規,0,2024-02-08,2024-02-08,株式会社ＨｉｔＲ,,株式会社,東京都,大田区,南馬込３丁目５番９－３０４号,,13,111,1430025,,,,,,,2024-02-08,1,,,,,ヒットアール,0
1505,7011001159900,新規,0,2024-02-08,2024-02-08,Ｚ　ｔｅｃｈｎｏｌｏｇｙ株式会社,,株式会社,東京都,渋谷区,道玄坂１丁目１０番８号渋谷道玄坂東急ビル２Ｆ－Ｃ,,13,113,1500043,,,,,,,2024-02-08,1,,,,,ゼットテクノロジー,0
1516,7011101106141,新規,0,2024-02-08,2024-02-08,株式会社ＩＭＰ,,株式会社,東京都,新宿区,新宿１丁目３０番１６号,,13,104,1600022,,,,,,,2024-02-08,1,,,,,アイエムピー,0
1528,7011501030305,新規,0,2024-02-08,2024-02-08,ＪＩＮ株式会社,,株式会社,東京都,荒川区,西日暮里５丁目１８－１０プチグランデミライ３０１,,13,118,1160013,,,,,,,2024-02-08,1,,,,,ジン,0
1540,7020001155693,新規,0,2024-02-08,2024-02-08,株式会社Ｒｅｓｏｌｕｔｉｏｎ　Ｂｅａｔ,,株式会社,神奈川県,横浜市港北区,大豆戸町６３６番地２コンフォート・パレス菊名ウエストコート２０３号室,,14,109,2220032,,,,,,,2024-02-08,1,,,,,レゾリューションビート,0
1541,7020001155710,新規,0,2024-02-08,2024-02-08,株式会社秩父興産,,株式会社,神奈川県,横浜市緑区,北八朔町１９０８－７,,14,113,2260021,,,,,,,2024-02-08,1,,,,,チチブコウサン,0
1542,7020001155743,新規,0,2024-02-08,2024-02-08,株式会社リバー・コンサルティング,,株式会社,神奈川県,横浜市西区,楠町１番地３ＢＬＡ横浜西口８Ｆ,,14,103,2200003,,,,,,,2024-02-08,1,,,,,リバーコンサルティング,0
1545,7021001081418,新規,0,2024-02-08,2024-02-08,フィンテック・ジャパン株式会社,,株式会社,神奈川県,横須賀市,根岸町４丁目２番１０号飯島ビル２階,,14,201,2390807,,,,,,,2024-02-08,1,,,,,フィンテックジャパン,0
1557,7030001158563,新規,0,2024-02-08,2024-02-08,ＭＥ保険サービス株式会社,,株式会社,埼玉県,さいたま市南区,南浦和２丁目４０番１０号第三草野ビル５階,,11,108,3360017,,,,,,,2024-02-08,1,,,,,エムイーホケンサービス,0
1563,7030003023600,新規,0,2024-02-08,2024-02-08,合同会社菊電,,合同会社,埼玉県,さいたま市緑区,大字中尾７１７番地４,,11,109,3360932,,,,,,,2024-02-08,1,,,,,キクデン,0
1580,7050005013382,新規,0,2024-02-08,2024-02-08,農事組合法人アオイ,,その他の設立登記法人,茨城県,牛久市,田宮２丁目５１番地３５,,08,219,3001237,,,,,,,2024-02-08,1,,,,,アオイ,0
1585,7070003005264,新規,0,2024-02-08,2024-02-08,合同会社鈴木社,,合同会社,群馬県,北群馬郡吉岡町,大字上野田１１６８番地１,,10,345,3703606,,,,,,,2024-02-08,1,,,,,スズキシャ,0
1586,7080101024529,新規,0,2024-02-08,2024-02-08,株式会社とんび,,株式会社,静岡県,沼津市,戸田７７９番地,,22,203,4103402,,,,,,,2024-02-08,1,,,,,トンビ,0
1601,7120001262034,新規,0,2024-02-08,2024-02-08,禾田木林株式会社,,株式会社,大阪府,大阪市阿倍野区,北畠３丁目９番２３号１０１号室,,27,119,5450035,,,,,,,2024-02-08,1,,,,,カデンリンボク,0
1602,7120001262067,新規,0,2024-02-08,2024-02-08,株式会社ツインズ,,株式会社,大阪府,大阪市西区,靱本町１丁目１０番７－３６０６号,,27,106,5500004,,,,,,,2024-02-08,1,,,,,ツインズ,0
1603,7120001262091,新規,0,2024-02-08,2024-02-08,森多株式会社,,株式会社,大阪府,大阪市港区,市岡３丁目１３番９号藤原文化１０１Ｃ,,27,107,5520012,,,,,,,2024-02-08,1,,,,,モリタ,0
1606,7120003025884,新規,0,2024-02-08,2024-02-08,合同会社ＢＳＯ,,合同会社,大阪府,大阪市東淀川区,東淡路１丁目５番４－５０１号,,27,114,5330023,,,,,,,2024-02-08,1,,,,,ビーエスオー,0
1607,7120003025892,新規,0,2024-02-08,2024-02-08,合同会社ＳＥＫ２,,合同会社,大阪府,大阪市淀川区,加島１丁目２２番２０号ピレーネ加島２０１号,,27,123,5320031,,,,,,,2024-02-08,1,,,,,エスイーケーツー,0
1609,7120101069024,新規,0,2024-02-08,2024-02-08,株式会社宣,,株式会社,大阪府,堺市北区,八下北２番３８号,,27,146,5918014,,,,,,,2024-02-08,1,,,,,セン,0
1629,7170001018002,新規,0,2024-02-08,2024-02-08,株式会社ミムテック,,株式会社,和歌山県,和歌山市,出島２７３番地２,,30,201,6408306,,,,,,,2024-02-08,1,,,,,ミムテック,0
1636,7180001160091,新規,0,2024-02-08,2024-02-08,株式会社ＹＡＭＡＴＯ,,株式会社,愛知県,長久手市,市が洞３丁目２５０１番地１,,23,238,4801147,,,,,,,2024-02-08,1,,,,,ヤマト,0
1637,7180001160100,新規,0,2024-02-08,2024-02-08,株式会社ボヤージュ,,株式会社,愛知県,名古屋市中区,錦３丁目１３番２８号ＣＥＮＴＲＡＬ・ＴＯＷＥＲ・ＮＩＳＨＩＫＩ８Ｆ,,23,106,4600003,,,,,,,2024-02-08,1,,,,,ボヤージュ,0
1638,7180001160109,新規,0,2024-02-08,2024-02-08,株式会社輝,,株式会社,愛知県,名古屋市北区,上飯田西町１丁目１６番地,,23,103,4620809,,,,,,,2024-02-08,1,,,,,カガヤキ,0
1647,7180301038310,新規,0,2024-02-08,2024-02-08,株式会社Ｅ・ファーム,,株式会社,愛知県,刈谷市,井ケ谷町久伝原３９番地１,,23,210,4480001,,,,,,,2024-02-08,1,,,,,イーファーム,0
1648,7190001031093,新規,0,2024-02-08,2024-02-08,北勢ホールディングス株式会社,,株式会社,三重県,桑名市,多度町御衣野９９０番地の１,,24,205,5110118,,,,,,,2024-02-08,1,,,,,ホクセイホールディングス,0
1657,7220001025810,新規,0,2024-02-08,2024-02-08,Ｄｒｏｎｅ　Ｗｏｒｋｓ株式会社,,株式会社,石川県,白山市,蕪城３丁目８番地１,,17,210,9240025,,,,,,,2024-02-08,1,,,,,ドローンワークス,0
1659,7230001020208,新規,0,2024-02-08,2024-02-08,株式会社ここいく,,株式会社,富山県,富山市,町村１１２番地８,,16,201,9300952,,,,,,,2024-02-08,1,,,,,ココイク,0
1660,7230005009362,新規,0,2024-02-08,2024-02-08,一般社団法人ＡＲＴ　ＳＴＵＤＩＥＳ,,その他の設立登記法人,富山県,南砺市,福光６３０８番地,,16,210,9391610,,,,,,,2024-02-08,1,,,,,アートスタディーズ,0
1663,7240001062769,新規,0,2024-02-08,2024-02-08,明瑞商貿株式会社,,株式会社,広島県,東広島市,西条町下見３６６５番地１,,34,212,7390044,,,,,,,2024-02-08,1,,,,,メイズイショウボウ,0
1669,7260003004569,新規,0,2024-02-08,2024-02-08,光不動産コンサル合同会社,,合同会社,岡山県,倉敷市,有城１１６９番地１４６,,33,202,7100031,,,,,,,2024-02-08,1,,,,,ヒカリフドウサンコンサル,0
1670,7270001008918,新規,0,2024-02-08,2024-02-08,サンフラワー株式会社,,株式会社,鳥取県,倉吉市,伊木２１５番地３,,31,203,6820024,,,,,,,2024-02-08,1,,,,,サンフラワー,0
1673,7290001104632,新規,0,2024-02-08,2024-02-08,精進株式会社,,株式会社,福岡県,福岡市早良区,弥生２丁目２番１７号サンアート弥生２０３号室,,40,137,8140014,,,,,,,2024-02-08,1,,,,,ショウジン,0
1674,7290001104640,新規,0,2024-02-08,2024-02-08,株式会社Ｂｌｕｅ　Ｓｉｇｎａｌ,,株式会社,福岡県,福岡市博多区,博多駅前２丁目１－１福岡朝日ビル１階,,40,132,8120011,,,,,,,2024-02-08,1,,,,,ブルーシグナル,0
1675,7290001104649,新規,0,2024-02-08,2024-02-08,株式会社Ｐｒｅｓｃｅｎｄ,,株式会社,福岡県,福岡市中央区,天神４丁目６－２８天神ファーストビル７階,,40,133,8100001,,,,,,,2024-02-08,1,,,,,プレシェンド,0
1690,7330003010205,新規,0,2024-02-08,2024-02-08,ＴＴ１合同会社,,合同会社,熊本県,熊本市東区,長嶺南７丁目１４番２８－１０５号,,43,102,8618039,,,,,,,2024-02-08,1,,,,,ティーティーワン,0
1703,7410001013721,新規,0,2024-02-08,2024-02-08,ＴＯＹＯＳＨＩＭＡ　ＦＡＲＭ株式会社,,株式会社,秋田県,由利本荘市,矢島町元町字郷内３９番地,,05,210,0150417,,,,,,,2024-02-08,1,,,,,トヨシマファーム,0
1704,7420001018587,新規,0,2024-02-08,2024-02-08,ＳＭＢ株式会社,,株式会社,青森県,青森市,浪館前田４丁目１７番１３号,,02,201,0380024,,,,,,,2024-02-08,1,,,,,エスエムビー,0
1706,7430001091022,新規,0,2024-02-08,2024-02-08,株式会社ＷＩＬＬ,,株式会社,北海道,苫小牧市,あけぼの町１丁目４番４号,,01,213,0591366,,,,,,,2024-02-08,1,,,,,ウィル,0
1707,7430001091047,新規,0,2024-02-08,2024-02-08,株式会社フォレストプランナー,,株式会社,北海道,札幌市南区,常盤五条２丁目９９番地４,,01,106,0050855,,,,,,,2024-02-08,1,,,,,フォレストプランナー,0
1716,7700150123894,新規,0,2024-02-08,2024-02-08,ｓｈｅｎｚｈｅｎｓｈｉｔａｉｆｅｎｇｚｈｉｎｅｎｇｋｅｊｉｙｏｕｘｉａｎｇｏｎｇｓｉ,,外国会社等,,,,,,,,ｍｉｎｚｈｉｊｉｅｄａｏｂａｎｚｈａｎｇｋｅｎｇ３ｑｕ７３ｄｏｎｇ５０６ｓｈｉ，ｓｈｅｎｚｈｅｎｓｈｉ，ｌｏｎｇｈｕａｘｉｎｑｕ，ｇｕａｎｇｄｏｎｇｓｈｅｎｇ,,,,,,2024-02-08,1,,,,,シンセンシタイフウチノウカギユウゲンコウシ,0
1717,7700150123903,新規,0,2024-02-08,2024-02-08,ｓｈｅｎｚｈｅｎｓｈｉｈｏｎｇｈｕｉｌｉａｎｘｉｎｋｅｊｉｙｏｕｘｉａｎｇｏｎｇｓｉ,,外国会社等,,,,,,,,Ｙｕｙｅ　Ｃｏｍｍｕｎｉｔｙ，Ｘｉｘｉａｎｇ　Ｓｔｒｅｅｔ，Ｂａｏａｎ　Ｄｉｓｔｒｉｃｔ　６０８，Ｂｌｏｃｋ　Ｂ，Ｚｏｎｅ　３，Ｆａｍｏｕｓ　Ｐｒｏｃｕｒｅｍｅｎｔ　Ｃｅｎｔｅｒ，Ｓｈｅｎｚｈｅｎ　Ｇｕａｎｇｄｏｎｇ,,,,,,2024-02-08,1,,,,,シェンジェンシーホーンホゥイリエンシンコーァジーヨウシエンゴーンスー,0
1736,8010001242095,新規,0,2024-02-08,2024-02-08,ＡＮＤ　ＬＯＣＫ株式会社,,株式会社,東京都,千代田区,大手町２丁目２－１－４Ｆ,,13,101,1000004,,,,,,,2024-02-08,1,,,,,アンドロック,0
1740,8010005037871,新規,0,2024-02-08,2024-02-08,一般社団法人グリーンエネルギー２号,,その他の設立登記法人,東京都,中央区,日本橋１丁目４番１号日本橋一丁目ビルディング,,13,102,1030027,,,,,,,2024-02-08,1,,,,,グリーンエネルギーニゴウ,0
1745,8010401180300,新規,0,2024-02-08,2024-02-08,順城株式会社,,株式会社,東京都,港区,新橋１丁目５番６号,,13,103,1050004,,,,,,,2024-02-08,1,,,,,ジュンセイ,0
1752,8010601064609,新規,0,2024-02-08,2024-02-08,金昇株式会社,,株式会社,東京都,墨田区,業平４丁目６番１４号ＳＩＤＰＬＡＣＥＯＳＨＩＡＧＥ４０１号室,,13,107,1300002,,,,,,,2024-02-08,1,,,,,キンショウ,0
1762,8011001159908,新規,0,2024-02-08,2024-02-08,ＰｉｏｎＮｅｔ株式会社,,株式会社,東京都,渋谷区,富ヶ谷１丁目１４番１４号３階,,13,113,1510063,,,,,,,2024-02-08,1,,,,,パイオンネット,0
1771,8011601027506,新規,0,2024-02-08,2024-02-08,ＴＴＦ株式会社,,株式会社,東京都,練馬区,下石神井６丁目４１番１６－１０９号,,13,120,1770042,,,,,,,2024-02-08,1,,,,,ティーティーエフ,0
1772,8011605002562,新規,0,2024-02-08,2024-02-08,一般社団法人日本中華道教協会,,その他の設立登記法人,東京都,練馬区,練馬３丁目２２番２号,,13,120,1760001,,,,,,,2024-02-08,1,,,,,ニッポンチュウカドウキョウキョウカイ,0
1780,8012301013770,新規,0,2024-02-08,2024-02-08,株式会社Ｍｅｒｃｉ,,株式会社,東京都,町田市,原町田４丁目１番７号,,13,209,1940013,,,,,,,2024-02-08,1,,,,,メルシー,0
1781,8012401041498,新規,0,2024-02-08,2024-02-08,株式会社ｔｅｓ,,株式会社,東京都,武蔵野市,中町１丁目３９番７号,,13,203,1800006,,,,,,,2024-02-08,1,,,,,テス,0
1793,8020003025514,新規,0,2024-02-08,2024-02-08,ピオニー合同会社,,合同会社,神奈川県,横浜市神奈川区,新浦島町１丁目１－１－１２６,,14,102,2210031,,,,,,,2024-02-08,1,,,,,ピオニー,0
1794,8020003025522,新規,0,2024-02-08,2024-02-08,合同会社ラウラワークス,,合同会社,神奈川県,横浜市緑区,霧が丘６丁目１５番地２霧が丘グリーンタウン３棟２０１号室,,14,113,2260016,,,,,,,2024-02-08,1,,,,,ラウラワークス,0
1796,8021001081383,新規,0,2024-02-08,2024-02-08,株式会社ｔｗｅｌｖｅ,,株式会社,神奈川県,大和市,西鶴間３丁目２番２号,,14,213,2420005,,,,,,,2024-02-08,1,,,,,トゥエルブ,0
1797,8021001081441,新規,0,2024-02-08,2024-02-08,株式会社レミーネエステート,,株式会社,神奈川県,鎌倉市,腰越２丁目８番６号こゆるぎＲ／Ｔ３０２,,14,204,2480033,,,,,,,2024-02-08,1,,,,,レミーネエステート,0
1806,8030003023599,新規,0,2024-02-08,2024-02-08,合同会社ＩＴＳ,,合同会社,埼玉県,川口市,大字赤井６４６番地の９２,,11,203,3340073,,,,,,,2024-02-08,1,,,,,アイティエス,0
1811,8040001132021,新規,0,2024-02-08,2024-02-08,ＣＧＭ株式会社,,株式会社,千葉県,長生郡長生村,七井土１９８５番地,,12,423,2994333,,,,,,,2024-02-08,1,,,,,シージーエム,0
1812,8040001132104,新規,0,2024-02-08,2024-02-08,力天株式会社,,株式会社,千葉県,佐倉市,宮前３丁目２２番地４ＧＡＲＤＥＮＥＬＥＧＡＮＴ２１８号室,,12,212,2850005,,,,,,,2024-02-08,1,,,,,リキテン,0
1820,8050001054248,新規,0,2024-02-08,2024-02-08,ＳＢＭ　Ｔｅｃｈ　Ｓｏｌｕｔｉｏｎｓ株式会社,,株式会社,茨城県,つくば市,吾妻２丁目５番地１,,08,220,3050031,,,,,,,2024-02-08,1,,,,,エスビーエムテックソリューションズ,0
1823,8050003008128,新規,0,2024-02-08,2024-02-08,丸正サービス合同会社,,合同会社,茨城県,つくば市,千現２丁目１１番地１５サンクレイドルつくば１０２号,,08,220,3050047,,,,,,,2024-02-08,1,,,,,マルショウサービス,0
1828,8080101024503,新規,0,2024-02-08,2024-02-08,株式会社ｉｚｕＲｏｃｋＦｏｒｅｓｔｒｙ,,株式会社,静岡県,伊豆市,菅引２９番地,,22,222,4102513,,,,,,,2024-02-08,1,,,,,イズロックフォレストリー,0
1835,8100001037206,新規,0,2024-02-08,2024-02-08,長野道路警備株式会社,,株式会社,長野県,長野市,篠ノ井山布施８５４４番地１,,20,201,3888017,,,,,,,2024-02-08,1,,,,,ナガノドウロケイビ,0
1848,8120001262041,新規,0,2024-02-08,2024-02-08,株式会社ＢＯＮＤｓ　ＣＡＰＩＴＡＬ,,株式会社,大阪府,大阪市中央区,南船場３丁目２番２２号おおきに南船場ビル２０５,,27,128,5420081,,,,,,,2024-02-08,1,,,,,ボンズキャピタル,0
1849,8120001262066,新規,0,2024-02-08,2024-02-08,メシヤノミカタ株式会社,,株式会社,大阪府,大阪市中央区,北浜２丁目６番１８号,,27,128,5410041,,,,,,,2024-02-08,1,,,,,メシヤノミカタ,0
1850,8120001262082,新規,0,2024-02-08,2024-02-08,海平株式会社,,株式会社,大阪府,大阪市東淀川区,菅原３丁目８番９－６０３号,,27,114,5330022,,,,,,,2024-02-08,1,,,,,ウミヒラ,0
1851,8120001262090,新規,0,2024-02-08,2024-02-08,株式会社ビルドアップ,,株式会社,大阪府,守口市,八雲西町４丁目１９番１８号,,27,209,5700006,,,,,,,2024-02-08,1,,,,,ビルドアップ,0
1852,8120001262099,新規,0,2024-02-08,2024-02-08,株式会社ＡＣＳ,,株式会社,大阪府,大阪市港区,市岡元町２丁目２番４号,,27,107,5520002,,,,,,,2024-02-08,1,,,,,エーシーエス,0
1853,8120001262108,新規,0,2024-02-08,2024-02-08,福佑株式会社,,株式会社,大阪府,大阪市城東区,蒲生３丁目１５番１２号セザンヌ藤４０３Ｂ,,27,118,5360016,,,,,,,2024-02-08,1,,,,,フクユウ,0
1854,8120001262149,新規,0,2024-02-08,2024-02-08,株式会社ＴＩ‐ＭＵ,,株式会社,大阪府,大阪市旭区,千林２丁目１８番３－２０３号,,27,117,5350012,,,,,,,2024-02-08,1,,,,,チーム,0
1855,8120001262157,新規,0,2024-02-08,2024-02-08,株式会社旅する本屋,,株式会社,大阪府,大阪市北区,天満橋１丁目２番３－１００７号,,27,127,5300042,,,,,,,2024-02-08,1,,,,,タビスルホンヤ,0
1857,8120003025875,新規,0,2024-02-08,2024-02-08,合同会社トリガー,,合同会社,大阪府,大阪市平野区,加美西１丁目１０番１２号,,27,126,5470005,,,,,,,2024-02-08,1,,,,,トリガー,0
1859,8120005024149,新規,0,2024-02-08,2024-02-08,一般社団法人ななつほし,,その他の設立登記法人,大阪府,大阪市城東区,成育４丁目２９番６号３０１号室,,27,118,5360007,,,,,,,2024-02-08,1,,,,,ナナツホシ,0
1866,8120101069007,新規,0,2024-02-08,2024-02-08,株式会社Ｒ＆Ｒ,,株式会社,大阪府,河内長野市,三日市町３７９番地の１,,27,216,5860048,,,,,,,2024-02-08,1,,,,,アールアンドアール,0
1867,8120101069023,新規,0,2024-02-08,2024-02-08,ＯＣ．ＣＯＲＰＯＲＡＴＩＯＮ株式会社,,株式会社,大阪府,岸和田市,土生町２丁目９番１０号,,27,202,5960825,,,,,,,2024-02-08,1,,,,,オーシーコーポレーション,0
1873,8120903005043,新規,0,2024-02-08,2024-02-08,合同会社かいごの学校,,合同会社,大阪府,豊中市,大島町２丁目４－５カサベルデ中雅３０３,,27,203,5610824,,,,,,,2024-02-08,1,,,,,カイゴノガッコウ,0
1874,8120905006568,新規,0,2024-02-08,2024-02-08,一般社団法人大阪インターナショナルバプテスト教会,,その他の設立登記法人,大阪府,高槻市,北大樋町２１－１２－１,,27,207,5690041,,,,,,,2024-02-08,1,,,,,オオサカインターナショナルバプテストキョウカイ,0
1881,8130001076300,新規,0,2024-02-08,2024-02-08,株式会社錦庵,,株式会社,京都府,京都市東山区,清水２丁目２５３,,26,105,6050862,,,,,,,2024-02-08,1,,,,,ニシキアン,0
1882,8130001076325,新規,0,2024-02-08,2024-02-08,アイテクニック株式会社,,株式会社,京都府,京都市下京区,朱雀宝蔵町４４番地協栄ビル２階京都朱雀スタジオ,,26,106,6008846,,,,,,,2024-02-08,1,,,,,アイテクニック,0
1883,8130003009290,新規,0,2024-02-08,2024-02-08,マルケイ合同会社,,合同会社,京都府,木津川市,兜台７丁目１５番地７,,26,214,6190224,,,,,,,2024-02-08,1,,,,,マルケイ,0
1887,8140001133281,新規,0,2024-02-08,2024-02-08,株式会社ひよこカンパニー,,株式会社,兵庫県,神崎郡神河町,南小田２３８番地の１,,28,446,6793124,,,,,,,2024-02-08,1,,,,,ヒヨコカンパニー,0
1893,8140003020148,新規,0,2024-02-08,2024-02-08,合同会社チェリーベル,,合同会社,兵庫県,神戸市須磨区,白川台５丁目２２－３２,,28,107,6540103,,,,,,,2024-02-08,1,,,,,チェリーベル,0
1905,8180001160108,新規,0,2024-02-08,2024-02-08,株式会社ツムギホーム,,株式会社,愛知県,一宮市,音羽３丁目６番１９号,,23,203,4910045,,,,,,,2024-02-08,1,,,,,ツムギホーム,0
1914,8180003026281,新規,0,2024-02-08,2024-02-08,合同会社ＨＫ　ＪＡＰＡＮ,,合同会社,愛知県,名古屋市中村区,那古野１丁目４７番１号名古屋国際センタービル１８階,,23,105,4500001,,,,,,,2024-02-08,1,,,,,エイチケージャパン,0
1919,8210001019630,新規,0,2024-02-08,2024-02-08,技建ホールディングス株式会社,,株式会社,福井県,福井市,手寄１丁目１７番１３号,,18,201,9100858,,,,,,,2024-02-08,1,,,,,ギケンホールディングス,0
1922,8220003003672,新規,0,2024-02-08,2024-02-08,合同会社ジュビロ,,合同会社,石川県,金沢市,新保本２丁目４２２番地（ロビン・２０３号）,,17,201,9218062,,,,,,,2024-02-08,1,,,,,ジュビロ,0
1926,8240003006525,新規,0,2024-02-08,2024-02-08,阿波島開発合同会社,,合同会社,広島県,竹原市,竹原町３５７２番地,,34,203,7250021,,,,,,,2024-02-08,1,,,,,アバシマカイハツ,0
1929,8260001038741,新規,0,2024-02-08,2024-02-08,株式会社ＳＴＥＬＬＡ,,株式会社,岡山県,岡山市南区,妹尾３５１５番地,,33,104,7010205,,,,,,,2024-02-08,1,,,,,ステラ,0
1933,8290001104631,新規,0,2024-02-08,2024-02-08,株式会社ｕｓ,,株式会社,福岡県,福岡市博多区,博多駅南２丁目３番３６号,,40,132,8120016,,,,,,,2024-02-08,1,,,,,アス,0
1934,8290001104648,新規,0,2024-02-08,2024-02-08,株式会社ｃａｌｍ　ｄａｙｓ,,株式会社,福岡県,福岡市中央区,赤坂１丁目８番２３号,,40,133,8100042,,,,,,,2024-02-08,1,,,,,カームデイズ,0
1935,8290003014928,新規,0,2024-02-08,2024-02-08,合同会社大島,,合同会社,福岡県,糟屋郡宇美町,原田３丁目１３－３１,,40,341,8112132,,,,,,,2024-02-08,1,,,,,オオシマ,0
1936,8290003014936,新規,0,2024-02-08,2024-02-08,合同会社サンワース,,合同会社,福岡県,福岡市博多区,上呉服町１１番２６－４１０号,,40,132,8120036,,,,,,,2024-02-08,1,,,,,サンワース,0
1937,8290003014952,新規,0,2024-02-08,2024-02-08,合同会社ＥＮ,,合同会社,福岡県,福岡市中央区,西中洲１２番８－９０５号ＴＨＥ天神シティ,,40,133,8100002,,,,,,,2024-02-08,1,,,,,エン,0
1942,8320001020288,新規,0,2024-02-08,2024-02-08,株式会社ビルトムービー,,株式会社,大分県,別府市,楠町１９番１２号,,44,202,8740943,,,,,,,2024-02-08,1,,,,,,0
1946,8340001026275,新規,0,2024-02-08,2024-02-08,株式会社ＧＲＥＥＮ　ＦＡＲＭ,,株式会社,鹿児島県,鹿児島市,田上５丁目３９番５号,,46,201,8900034,,,,,,,2024-02-08,1,,,,,グリーンファーム,0
1947,8340005009697,新規,0,2024-02-08,2024-02-08,一般社団法人セレーネ会,,その他の設立登記法人,鹿児島県,鹿児島市,荒田１丁目１４番１１号,,46,201,8900054,,,,,,,2024-02-08,1,,,,,セレーネカイ,0
1951,8360003013690,新規,0,2024-02-08,2024-02-08,合同会社ＨＹなかま,,合同会社,沖縄県,うるま市,字兼箇段１８７２番地,,47,213,9042241,,,,,,,2024-02-08,1,,,,,エイチワイナカマ,0
1967,8430001090989,新規,0,2024-02-08,2024-02-08,株式会社サンフューチャー,,株式会社,北海道,札幌市中央区,南五条西２丁目１番地１４オークラビル６階,,01,101,0640805,,,,,,,2024-02-08,1,,,,,サンフューチャー,0
1972,8700150123893,新規,0,2024-02-08,2024-02-08,Ｌｉｓｈｕｉ　Ｈｕｉｍｅｉ　Ｔｒａｄｉｎｇ　Ｃｏ．，ＬＴＤ,,外国会社等,,,,,,,,Ｎｏ．７－１　Ｂａｏａｎ　Ｒｏａｄ，Ｈｕｚｈｅｎ　Ｔｏｗｎ，Ｊｉｎｙｕｎ　Ｃｏｕｎｔｙ，Ｌｉｓｈｕｉ　Ｚｈｅｊｉａｎｇ,,,,,,2024-02-08,1,,,,,レイスイエビショウボウユウゲンコウシ,0
1973,8700150123902,新規,0,2024-02-08,2024-02-08,ｓｈｅｎｚｈｅｎｓｈｉｈｅｎｇｄａｚｈｉｋｅｊｉｙｏｕｘｉａｎｇｏｎｇｓｉ,,外国会社等,,,,,,,,４０５，Ｂｕｉｌｄｉｎｇ　１７，３　ｘｉａｎｇ，ｚｈｕｃｕｎ　ｄｏｎｇｑｕ　Ｇｕａｎ　Ｌａｎ　Ｔｏｗｎ，Ｌｏｎｇ　Ｈｕａ　Ｄｉｓｔｒｉｃｔ，ｓｈｅｎｚｈｅｎ，ｇｕａｎｇｄｏｎｇ,,,,,,2024-02-08,1,,,,,シェンジェンシーホゥオンダージーコーァジーヨウシエンゴーンスー,0
1990,9010001242136,新規,0,2024-02-08,2024-02-08,ＵＣＨＵ株式会社,,株式会社,東京都,中央区,築地２丁目１４番２号,,13,102,1040045,,,,,,,2024-02-08,1,,,,,ウチュ,0
1991,9010001242152,新規,0,2024-02-08,2024-02-08,ＹＧＣａｓｔｌｅ株式会社,,株式会社,東京都,中央区,晴海３丁目１３番２－５２０６号,,13,102,1040053,,,,,,,2024-02-08,1,,,,,ワイジーキャッスル,0
1992,9010003042897,新規,0,2024-02-08,2024-02-08,Ｂｌｕｅ　Ｍａｐ２合同会社,,合同会社,東京都,千代田区,霞が関３丁目２番５号,,13,101,1000013,,,,,,,2024-02-08,1,,,,,ブルーマップツー,0
1993,9010005037870,新規,0,2024-02-08,2024-02-08,一般社団法人ソーラープラネット,,その他の設立登記法人,東京都,千代田区,神田三崎町２丁目２０番７号,,13,101,1010061,,,,,,,2024-02-08,1,,,,,ソーラープラネット,0
2001,9010403031913,新規,0,2024-02-08,2024-02-08,合同会社Ｒａｃｉｎｅ,,合同会社,東京都,港区,浜松町２丁目２番１５号浜松町ダイヤビル２Ｆ,,13,103,1050013,,,,,,,2024-02-08,1,,,,,ラシーヌ,0
2005,9010501051763,新規,0,2024-02-08,2024-02-08,株式会社ＩｄｅａｌＳｙｎｃ,,株式会社,東京都,台東区,浅草橋３丁目２７番３号アルジャンテ・シャルム４０１,,13,106,1110053,,,,,,,2024-02-08,1,,,,,イデアルシンク,0
2015,9010701045540,新規,0,2024-02-08,2024-02-08,株式会社Ｃ．Ｃ,,株式会社,東京都,品川区,豊町４丁目１９番５号,,13,109,1420042,,,,,,,2024-02-08,1,,,,,シーシー,0
2019,9010801034765,新規,0,2024-02-08,2024-02-08,ロックヒル投資株式会社,,株式会社,東京都,大田区,東海３丁目７番３号東海ビル,,13,111,1430001,,,,,,,2024-02-08,1,,,,,ロックヒルトウシ,0
2022,9010903008774,新規,0,2024-02-08,2024-02-08,ルミヌ合同会社,,合同会社,東京都,世田谷区,代田４丁目１２番１２号,,13,112,1550033,,,,,,,2024-02-08,1,,,,,ルミヌ,0
2026,9011001159907,新規,0,2024-02-08,2024-02-08,株式会社７ｔｈ,,株式会社,東京都,渋谷区,神宮前６丁目２３番４号桑野ビル２階,,13,113,1500001,,,,,,,2024-02-08,1,,,,,セブンス,0
2027,9011101106123,新規,0,2024-02-08,2024-02-08,ＹＵＭＭＹ株式会社,,株式会社,東京都,新宿区,百人町１丁目１８－８－２０４,,13,104,1690073,,,,,,,2024-02-08,1,,,,,ヤミー,0
2032,9011501030303,新規,0,2024-02-08,2024-02-08,株式会社ｕｎ　ｐａｓｓｏ,,株式会社,東京都,北区,志茂１丁目１８－１７,,13,117,1150042,,,,,,,2024-02-08,1,,,,,アンパッソ,0
2033,9011501030311,新規,0,2024-02-08,2024-02-08,株式会社Ｂｅｂｅｔａ,,株式会社,東京都,荒川区,西尾久１丁目２７番１号,,13,118,1160011,,,,,,,2024-02-08,1,,,,,ベベタ,0
2039,9013301052048,新規,0,2024-02-08,2024-02-08,ＴＩＷＴＣトレーニング株式会社,,株式会社,東京都,豊島区,要町３丁目３７番１号－１Ｂ,,13,116,1710043,,,,,,,2024-02-08,1,,,,,ティーアイダブリューティーシートレーニング,0
2043,9020003025496,新規,0,2024-02-08,2024-02-08,合同会社ＮｓＴｅｃｈ,,合同会社,神奈川県,川崎市中原区,上小田中２丁目４番３４号梅林館２０１,,14,133,2110053,,,,,,,2024-02-08,1,,,,,エヌズテック,0
2044,9021001081366,新規,0,2024-02-08,2024-02-08,大鳳建設株式会社,,株式会社,神奈川県,藤沢市,西俣野１２７番地の５２,,14,205,2520812,,,,,,,2024-02-08,1,,,,,タイホウケンセツ,0
2045,9021001081424,新規,0,2024-02-08,2024-02-08,株式会社フックネクスト,,株式会社,神奈川県,足柄上郡松田町,松田惣領３２１－１,,14,363,2580003,,,,,,,2024-02-08,1,,,,,フックネクスト,0
2049,9021003014142,新規,0,2024-02-08,2024-02-08,合同会社Ｌｉｂｅｒｔ　ｅ　Ｓｐｅｒａｎｚａ,,合同会社,神奈川県,鎌倉市,梶原２丁目１５－４,,14,204,2470063,,,,,,,2024-02-08,1,,,,,リベルトスペランツァ,0
2059,9030001158537,新規,0,2024-02-08,2024-02-08,株式会社ＨＯＲＹ,,株式会社,埼玉県,草加市,氷川町２１２９番地６高林ビル２階,,11,221,3400034,,,,,,,2024-02-08,1,,,,,ホーリー,0
2060,9030001158578,新規,0,2024-02-08,2024-02-08,株式会社和光工業,,株式会社,埼玉県,朝霞市,栄町２丁目３番４６号,,11,227,3510012,,,,,,,2024-02-08,1,,,,,ワコウコウギョウ,0
2061,9030001158603,新規,0,2024-02-08,2024-02-08,株式会社下総ビルメンテ,,株式会社,埼玉県,さいたま市南区,大字円正寺７番地,,11,108,3360043,,,,,,,2024-02-08,1,,,,,シモフサビルメンテ,0
2070,9040001132111,新規,0,2024-02-08,2024-02-08,ＡＬＬ　ＩＳ　ＧＯＯＤ　ＧＬＯＢＡＬ株式会社,,株式会社,千葉県,市原市,養老１２３７番地,,12,219,2900557,,,,,,,2024-02-08,1,,,,,オールイズグッドグローバル,0
2072,9040005022283,新規,0,2024-02-08,2024-02-08,特定非営利活動法人夏見台チャイルドクラブ,,その他の設立登記法人,千葉県,船橋市,夏見台３丁目４番１５号,,12,204,2730866,,,,,,,2024-02-08,1,,,,,ナツミダイチャイルドクラブ,0
2073,9050001054239,新規,0,2024-02-08,2024-02-08,株式会社高野商店,00133665,株式会社,茨城県,龍ケ崎市,長山４丁目１番地３６,,08,208,3010042,,,,,,,2024-02-08,1,,,,,タカノショウテン,0
2075,9050003008119,新規,0,2024-02-08,2024-02-08,合同会社ＶＭ　ＩＮＴＥＲＮＡＴＩＯＮＡＬ,,合同会社,茨城県,龍ケ崎市,出し山町１１６番地２ロイヤルコート出し山１０４号室,,08,208,3010839,,,,,,,2024-02-08,1,,,,,ウィエムインターナショナル,0
2079,9080001026111,新規,0,2024-02-08,2024-02-08,株式会社ＦアンドＳ,,株式会社,静岡県,静岡市清水区,平川地４番１５号,,22,103,4240872,,,,,,,2024-02-08,1,,,,,エフアンドエス,0
2091,9100001037205,新規,0,2024-02-08,2024-02-08,株式会社ＴＤ,,株式会社,長野県,上田市,諏訪形９７６－３,,20,203,3860032,,,,,,,2024-02-08,1,,,,,ティーディー,0
2098,9120001262115,新規,0,2024-02-08,2024-02-08,Ｍｉｌｌｄｅ株式会社,,株式会社,大阪府,大阪市北区,梅田１丁目１－３大阪駅前第３ビル２９階１－１－１号室,,27,127,5300001,,,,,,,2024-02-08,1,,,,,ミルデ,0
2099,9120001262123,新規,0,2024-02-08,2024-02-08,株式会社ＷＩＨＯＭＥ,,株式会社,大阪府,大阪市鶴見区,緑４丁目３番２０号,,27,124,5380054,,,,,,,2024-02-08,1,,,,,ウィーホーム,0
2102,9120003025874,新規,0,2024-02-08,2024-02-08,合同会社リョクシン,,合同会社,大阪府,大阪市西淀川区,歌島２丁目１－２２,,27,113,5550021,,,,,,,2024-02-08,1,,,,,リョクシン,0
2105,9120103005677,新規,0,2024-02-08,2024-02-08,合同会社Ｏｆｆｉｃｅ　Ｌｙｒｉｌｕｃａ,,合同会社,大阪府,堺市北区,百舌鳥本町３丁３７６番地３,,27,146,5918036,,,,,,,2024-02-08,1,,,,,オフィスリリルカ,0
2111,9122003002795,新規,0,2024-02-08,2024-02-08,合同会社シェア,,合同会社,大阪府,八尾市,高安町北３丁目６－８,,27,212,5810871,,,,,,,2024-02-08,1,,,,,シェア,0
2115,9130001076316,新規,0,2024-02-08,2024-02-08,株式会社嘉季,,株式会社,京都府,京都市山科区,北花山中道町８４番地２４,,26,110,6078481,,,,,,,2024-02-08,1,,,,,ヨシキ,0
2116,9130001076324,新規,0,2024-02-08,2024-02-08,都屋台株式会社,,株式会社,京都府,京都市下京区,堀川通四条下る四条堀川町２８５番地プレサンス京都四条堀川４０４,,26,106,6008481,,,,,,,2024-02-08,1,,,,,ミヤコヤタイ,0
2120,9130005017002,新規,0,2024-02-08,2024-02-08,ＮＰＯ法人防災レジリエンス二輪協会,,その他の設立登記法人,京都府,京都市中京区,西ノ京原町９７番地コスモ御池通５０５,,26,104,6048431,,,,,,,2024-02-08,1,,,,,ボウサイレジリエンスニリンキョウカイ,0
2128,9140003020147,新規,0,2024-02-08,2024-02-08,スマイルキッチン合同会社,,合同会社,兵庫県,芦屋市,高浜町５番１－２５１号,,28,206,6590033,,,,,,,2024-02-08,1,,,,,スマイルキッチン,0
2139,9180301038309,新規,0,2024-02-08,2024-02-08,株式会社ＲＥＬＩＦＥ,,株式会社,愛知県,豊田市,寿町６丁目５１番地１,,23,211,4710834,,,,,,,2024-02-08,1,,,,,リライフ,0
2141,9190001031091,新規,0,2024-02-08,2024-02-08,株式会社ＦＡＢＷＯＲＫ,,株式会社,三重県,三重郡川越町,大字北福崎１５３番地,,24,344,5108125,,,,,,,2024-02-08,1,,,,,ファブワーク,0
2145,9220001025809,新規,0,2024-02-08,2024-02-08,株式会社レシピエイド,,株式会社,石川県,小松市,村松町５５番地１,,17,203,9230968,,,,,,,2024-02-08,1,,,,,レシピエイド,0
2148,9240001062767,新規,0,2024-02-08,2024-02-08,四葉訪問介護株式会社,,株式会社,広島県,広島市安佐北区,落合２丁目３１番１７－１号,,34,106,7391731,,,,,,,2024-02-08,1,,,,,ヨツバホウモンカイゴ,0
2149,9240001062775,新規,0,2024-02-08,2024-02-08,株式会社ウォード,,株式会社,広島県,江田島市,沖美町是永１６５０－１９,,34,215,7372100,,,,,,,2024-02-08,1,,,,,ウォード,0
2164,9290001104622,新規,0,2024-02-08,2024-02-08,株式会社Ｃｌｅｖｅｒ　Ｃｏｕｇｈ,,株式会社,福岡県,福岡市中央区,春吉２丁目４番１４号２Ｆ－Ｄ,,40,133,8100003,,,,,,,2024-02-08,1,,,,,クレバーカーフ,0
2165,9290001104639,新規,0,2024-02-08,2024-02-08,株式会社鈴吉,,株式会社,福岡県,太宰府市,宰都２丁目８番１号ステラルーチェ宰都４０５号室,,40,221,8180139,,,,,,,2024-02-08,1,,,,,スズキチ,0
2166,9290001104647,新規,0,2024-02-08,2024-02-08,株式会社サアリアル,,株式会社,福岡県,福岡市東区,箱崎１丁目４０番３－１００２号,,40,131,8120053,,,,,,,2024-02-08,1,,,,,サアリアル,0
2167,9290001104655,新規,0,2024-02-08,2024-02-08,株式会社ＭＩＹＡＢＩ,,株式会社,福岡県,福岡市東区,千早５丁目１４番１９号,,40,131,8130044,,,,,,,2024-02-08,1,,,,,ミヤビ,0
2168,9290801030299,新規,0,2024-02-08,2024-02-08,株式会社秀栄コーポレーション,,株式会社,福岡県,田川郡糸田町,２７番地,,40,604,8221300,,,,,,,2024-02-08,1,,,,,シュウエイコーポレーション,0
2172,9320001020287,新規,0,2024-02-08,2024-02-08,株式会社ＦｉｎｄＶａｌｕｅ,,株式会社,大分県,大分市,高松東２丁目７番２７号,,44,201,8700916,,,,,,,2024-02-08,1,,,,,ファインドバリュー,0
2177,9340001026274,新規,0,2024-02-08,2024-02-08,おまかせリフォーム株式会社,,株式会社,鹿児島県,鹿児島市,光山２丁目３番４５号,,46,201,8910151,,,,,,,2024-02-08,1,,,,,オマカセリフォーム,0
2182,9350001018782,新規,0,2024-02-08,2024-02-08,株式会社オアシス不動産,,株式会社,宮崎県,宮崎市,浮城町１番地２,,45,201,8800821,,,,,,,2024-02-08,1,,,,,オアシスフドウサン,0
2185,9350003004558,新規,0,2024-02-08,2024-02-08,合同会社ＨＡＴＡ,,合同会社,宮崎県,延岡市,浜町５３７１番地１,,45,203,8820862,,,,,,,2024-02-08,1,,,,,ハタ,0
2188,9370001050924,新規,0,2024-02-08,2024-02-08,アルココ株式会社,,株式会社,宮城県,仙台市泉区,向陽台５丁目２７番１６号,,04,105,9813102,,,,,,,2024-02-08,1,,,,,アルココ,0
2192,9380001034298,新規,0,2024-02-08,2024-02-08,ＮｅｏＩｎｎｏｖａｔｉｏｎｓ株式会社,,株式会社,福島県,郡山市,富田町字西原５２番地の１スターハイツＡ－１号,,07,203,9638041,,,,,,,2024-02-08,1,,,,,ネオイノベーションズ,0
2197,9390001017517,新規,0,2024-02-08,2024-02-08,美和内装株式会社,,株式会社,山形県,東置賜郡高畠町,大字上平柳２０９２番地２８,,06,381,9992178,,,,,,,2024-02-08,1,,,,,ミワナイソウ,0
2199,9410001013728,新規,0,2024-02-08,2024-02-08,株式会社秋田ステップ,,株式会社,秋田県,秋田市,仁井田本町３丁目２０番１２号,,05,201,0101421,,,,,,,2024-02-08,1,,,,,アキタステップ,0
2204,9430003015943,新規,0,2024-02-08,2024-02-08,合同会社ロゴスライフ,,合同会社,北海道,札幌市白石区,栄通２丁目３番１－４０２号,,01,104,0030021,,,,,,,2024-02-08,1,,,,,ロゴスライフ,0
2206,9460301005197,新規,0,2024-02-08,2024-02-08,株式会社邦憲丸漁業,,株式会社,北海道,網走市,北三条東２丁目３番地,,01,211,0930053,,,,,,,2024-02-08,1,,,,,ホウケンマルギョギョウ,0
2207,9480003002086,新規,0,2024-02-08,2024-02-08,合同会社ｃｏｎｔｅ,,合同会社,徳島県,勝浦郡勝浦町,大字沼江字天川７９番地１,,36,301,7714301,,,,,,,2024-02-08,1,,,,,コンテ,0
2210,9700150123892,新規,0,2024-02-08,2024-02-08,ｓｈｅｎｚｈｅｎｈａｉｋｅｚｈｏｎｇｘｉｎｄｉａｎｚｉｙｏｕｘｉａｎｇｏｎｇｓｉ,,外国会社等,,,,,,,,ｌｏｎｇｈｕａｑｕｄａｌａｎｇｊｉｅｄａｏｘｉｎｓｈｉｓｈｅｑｕ，ｌａｎｇｒｏｎｇｌｕ１９ｈａｏ３０１，ｓｈｅｎｚｈｅｎ　ｇｕａｎｇｄｏｎｇ，Ｌｉｓｈｕｉ　Ｚｈｅｊｉａｎｇ,,,,,,2024-02-08,1,,,,,シンセンカイカシュウシンデンシユウゲンコウシ,0
2211,9700150123901,新規,0,2024-02-08,2024-02-08,仏山市順徳区勒流鎮勒南彩印廠,,外国会社等,,,,,,,,中国仏山市順徳区勒流鎮工業区工業二路１５号,,,,,,2024-02-08,1,,,,,ブツザンシジュントククロクリュウチンロクナンサイインショウ,0
