sequenceNumber,corporateNumber,process,correct,updateDate,changeDate,name,nameImageId,kind,prefectureName,cityName,streetNumber,addressImageId,prefectureCode,cityCode,postCode,addressOutside,addressOutsideImageId,closeDate,closeCause,successorCorporateNumber,changeCause,assignmentDate,latest,enName,enPrefectureName,enCityName,enAddressOutside,furigana,hihyoji
2,1010001165030,登記記録の閉鎖等,0,2023-08-09,2023-08-02,ハルメク・ベンチャーズ株式会社,,株式会社,東京都,千代田区,神田神保町２丁目２番地,,13,101,1010051,,,2023-08-02,合併による解散等,7010403009762,令和５年８月１日東京都新宿区神楽坂四丁目１番１号株式会社ハルメク（7010403009762）に合併し解散,2015-10-05,1,,,,,ハルメクベンチャーズ,0
51,1011001065385,登記記録の閉鎖等,0,2023-08-09,2023-07-26,株式会社ティエイチアール,,株式会社,神奈川県,横浜市南区,六ツ川１丁目７７０番地５,,14,105,2320066,,,2023-07-26,清算の結了等,,,2015-10-05,1,,,,,ティエイチアール,0
73,1011401016574,登記記録の閉鎖等,0,2023-08-09,2023-07-31,株式会社ゆうケア,,株式会社,東京都,板橋区,高島平２丁目３２番１－６０７号,,13,119,1750082,,,2023-07-31,清算の結了等,,,2015-10-05,1,,,,,ユウケア,0
80,1011703001290,登記記録の閉鎖等,0,2023-08-09,2023-08-07,リベルタ合同会社,,合同会社,東京都,江戸川区,東小岩３丁目７番１８号,,13,123,1330052,,,2023-08-07,清算の結了等,,,2015-10-05,1,,,,,リベルタ,0
90,1012802010331,登記記録の閉鎖等,0,2023-08-09,2023-08-02,有限会社Ｔ・Ｉ・Ｓ,,有限会社,東京都,立川市,錦町３丁目６番１１号,,13,202,1900022,,,2023-08-02,清算の結了等,,,2015-10-05,1,,,,,ティーアイエス,0
100,1020001121973,登記記録の閉鎖等,0,2023-08-09,2023-07-26,株式会社ＮｅｗＬｉｎｋｓ,,株式会社,神奈川県,横浜市神奈川区,松本町２丁目２０番１号,,14,102,2210841,,,2023-07-26,清算の結了等,,,2017-06-26,1,,,,,ニューリンクス,0
113,1021002052316,登記記録の閉鎖等,0,2023-08-09,2023-08-04,有限会社第一興産,,有限会社,神奈川県,足柄下郡箱根町,仙石原１２４５番地６５５,,14,382,2500631,,,2023-08-04,清算の結了等,,,2015-10-05,1,,,,,,0
122,1030002090077,登記記録の閉鎖等,0,2023-08-09,2023-07-14,有限会社菊名硝子,,有限会社,埼玉県,吉川市,大字中曽根１２０８番地６,,11,243,3420033,,,2023-07-14,清算の結了等,,,2015-10-05,1,,,,,,0
123,1030003016403,登記記録の閉鎖等,0,2023-08-09,2023-07-18,合同会社Ｓｔｅｒｎｔａｌｅｒ,,合同会社,埼玉県,吉川市,木売２丁目１４番地２２,,11,243,3420045,,,2023-07-18,清算の結了等,,,2020-12-28,1,,,,,シュテルンターラー,0
124,1030003016493,登記記録の閉鎖等,0,2023-08-09,2023-07-18,合同会社Ｐｉｅｃｅ,,合同会社,埼玉県,さいたま市大宮区,桜木町１丁目３７８,,11,103,3300854,,,2023-07-18,清算の結了等,,,2021-01-12,1,,,,,ピース,0
147,1050005008999,登記記録の閉鎖等,0,2023-08-09,2023-07-26,医療法人米山医院,,その他の設立登記法人,茨城県,牛久市,栄町６丁目５７番地の２,,08,219,3001233,,,2023-07-26,清算の結了等,,,2015-10-05,1,,,,,ヨネヤマイイン,0
161,1080402006611,登記記録の閉鎖等,0,2023-08-09,2023-08-07,有限会社東山,,有限会社,静岡県,浜松市南区,若林町８７６番地の７,,22,134,4328051,,,2023-08-07,清算の結了等,,,2015-10-05,1,,,,,ヒガシヤマ,0
162,1080402016676,登記記録の閉鎖等,0,2023-08-09,2023-08-07,有限会社洛北,,有限会社,静岡県,浜松市西区,入野町１６１０３番地の３７,,22,133,4328061,,,2023-08-07,清算の結了等,,,2015-10-05,1,,,,,ラクホク,0
167,1110001001241,登記記録の閉鎖等,0,2023-08-09,2023-08-01,株式会社石附商工,,株式会社,新潟県,新潟市中央区,上近江３丁目３５番７号,,15,103,9500973,,,2023-08-01,清算の結了等,,,2015-10-05,1,,,,,イシヅキショウコウ,0
200,1120902016246,登記記録の閉鎖等,0,2023-08-09,2023-08-01,有限会社岡村興産,,有限会社,大阪府,箕面市,粟生新家２丁目１番５２号,,27,220,5620024,,,2023-08-01,清算の結了等,,,2015-10-05,1,,,,,オカムラコウサン,0
225,1180001062995,登記記録の閉鎖等,0,2023-08-09,2023-08-07,株式会社アークオン,,株式会社,愛知県,名古屋市熱田区,金山町１丁目１５番地１０号,,23,109,4560002,,,2023-08-07,清算の結了等,,,2015-10-05,1,,,,,アークオン,0
242,1180002019929,登記記録の閉鎖等,0,2023-08-09,2023-08-04,有限会社明野鉄工所,,有限会社,愛知県,名古屋市熱田区,河田町７３番地１,,23,109,4560065,,,2023-08-04,清算の結了等,,,2015-10-05,1,,,,,アケノテッコウジョ,0
266,1240002044887,登記記録の閉鎖等,0,2023-08-09,2023-08-04,おしゃれ工房昴有限会社,,有限会社,広島県,福山市,久松台１丁目１３番３－１号,,34,207,7200083,,,2023-08-04,清算の結了等,,,2015-10-05,1,,,,,オシャレコウボウスバル,0
301,1370002010810,登記記録の閉鎖等,0,2023-08-09,2023-08-02,有限会社ケンソー,,有限会社,宮城県,仙台市青葉区,中山１丁目３番１８号,,04,101,9810952,,,2023-08-02,清算の結了等,,,2015-10-05,1,,,,,ケンソー,0
305,1370602001168,登記記録の閉鎖等,0,2023-08-09,2023-08-02,有限会社高商,00082881,有限会社,宮城県,塩竈市,泉沢町２２番３７号,,04,203,9850062,,,2023-08-02,清算の結了等,,,2015-10-05,1,,,,,,0
322,1420001013049,登記記録の閉鎖等,0,2023-08-09,2023-07-28,株式会社喜久吉義塾スクール,,株式会社,青森県,八戸市,大字田面木字美濃助平２２番地４,,02,203,0391104,,,2023-07-28,清算の結了等,,,2015-10-05,1,,,,,キクヨシギジュクスクール,0
328,1480002010155,登記記録の閉鎖等,0,2023-08-09,2023-08-04,有限会社平本建設,,有限会社,徳島県,吉野川市,川島町桑村４９６番地３,00008988,36,205,7793303,,,2023-08-04,清算の結了等,,,2015-10-05,1,,,,,ヒラモトケンセツ,0
330,1490002009493,登記記録の閉鎖等,0,2023-08-09,2023-08-04,有限会社スズエ,,有限会社,高知県,吾川郡いの町,３６６０番地の３,,39,386,7812110,,,2023-08-04,清算の結了等,,,2015-10-05,1,,,,,スズエ,0
346,2010001181497,登記記録の閉鎖等,0,2023-08-09,2023-08-02,株式会社五佳,,株式会社,東京都,中央区,銀座７丁目３番１３号,,13,102,1040061,,,2023-08-02,合併による解散等,3011101080555,令和５年８月１日東京都新宿区神楽坂五丁目３７番地株式会社一龍三虎堂（3011101080555）に合併し解散,2017-02-15,1,,,,,ゴケイ,0
411,2011101021907,登記記録の閉鎖等,0,2023-08-09,2023-08-07,株式会社横山彰人建築設計事務所,,株式会社,東京都,新宿区,西新宿３丁目３番２３－１００６,,13,104,1600023,,,2023-08-07,清算の結了等,,,2015-10-05,1,,,,,,0
429,2012402016991,登記記録の閉鎖等,0,2023-08-09,2023-08-07,有限会社秀和印刷,,有限会社,東京都,武蔵野市,中町２丁目３２番７号,,13,203,1800006,,,2023-08-07,清算の結了等,,,2015-10-05,1,,,,,シュウワインサツ,0
430,2012402018006,登記記録の閉鎖等,0,2023-08-09,2023-08-03,有限会社ゆうりコーポレーション,,有限会社,東京都,武蔵野市,境南町２丁目３番６号,,13,203,1800023,,,2023-08-03,清算の結了等,,,2015-10-05,1,,,,,ユウリコーポレーション,0
431,2012402018138,登記記録の閉鎖等,0,2023-08-09,2023-08-08,有限会社アイダ,,有限会社,東京都,三鷹市,中原２丁目１９番１６号,,13,204,1810005,,,2023-08-08,清算の結了等,,,2015-10-05,1,,,,,アイダ,0
436,2013201003966,登記記録の閉鎖等,0,2023-08-09,2023-08-01,東亜事業株式会社,,株式会社,東京都,渋谷区,松濤１丁目２６番１０号,,13,113,1500046,,,2023-08-01,合併による解散等,3011001003285,令和５年８月１日東京都渋谷区松濤一丁目２６番１０号株式会社栄光エステート（3011001003285）に合併し解散,2015-10-05,1,,,,,トウアジギョウ,0
443,2020001147448,登記記録の閉鎖等,0,2023-08-09,2023-07-26,株式会社ＫＥＳＳＡＩ,,株式会社,神奈川県,横浜市保土ケ谷区,新井町４０８番地１、２０１号,,14,106,2400053,,,2023-07-26,清算の結了等,,,2022-07-26,1,,,,,ケッサイ,0
447,2021001010471,登記記録の閉鎖等,0,2023-08-09,2023-08-02,湘南プラネット株式会社,,株式会社,神奈川県,鎌倉市,梶原３丁目３番１号,,14,204,2470063,,,2023-08-02,清算の結了等,,,2015-10-05,1,,,,,ショウナンプラネット,0
458,2030001146845,登記記録の閉鎖等,0,2023-08-09,2023-07-10,株式会社ブルーム,,株式会社,埼玉県,鴻巣市,袋４６１番地１,,11,217,3690131,,,2023-07-10,清算の結了等,,,2022-02-18,1,,,,,ブルーム,0
482,2050001043842,登記記録の閉鎖等,0,2023-08-09,2023-08-01,京南製薬ジャパン株式会社,,株式会社,東京都,台東区,浅草橋１丁目１３－６,,13,106,1110053,,,2023-08-01,合併による解散等,3010501049895,令和５年８月１日東京都台東区浅草橋１－１３－６株式会社ＫＮ　ＥＮＴＥＲＴＡＩＮＭＥＮＴ（3010501049895）に合併し解散,2018-01-09,1,,,,,キョンナンセイヤクジャパン,0
495,2070002034673,登記記録の閉鎖等,0,2023-08-09,2023-08-04,奥利根運輸有限会社,,有限会社,群馬県,沼田市,下川田町３３２２番地,,10,206,3780024,,,2023-08-04,清算の結了等,,,2015-10-05,1,,,,,オクトネウンユ,0
509,2110002018333,登記記録の閉鎖等,0,2023-08-09,2023-08-01,有限会社かあちゃんのおかずや,,有限会社,新潟県,加茂市,松坂町３番１７号,,15,209,9591373,,,2023-08-01,清算の結了等,,,2015-10-05,1,,,,,カアチャンノオカズヤ,0
532,2120102025055,登記記録の閉鎖等,0,2023-08-09,2023-08-07,大阪プラント設計有限会社,,有限会社,大阪府,和泉市,伏屋町４丁目５番２号,,27,219,5940031,,,2023-08-07,清算の結了等,,,2015-10-05,1,,,,,オオサカプラントセッケイ,0
540,2130001039089,登記記録の閉鎖等,0,2023-08-09,2023-07-25,三共サポート株式会社,,株式会社,京都府,城陽市,枇杷庄島ノ宮５７番地,,26,207,6100117,,,2023-07-25,清算の結了等,,,2015-10-05,1,,,,,サンキョウサポート,0
584,2180002090045,登記記録の閉鎖等,0,2023-08-09,2023-08-04,有限会社中馬塗装店,,有限会社,愛知県,弥富市,佐古木４丁目５７６番地の２,,23,235,4980006,,,2023-08-04,清算の結了等,,,2015-10-05,1,,,,,チュウマトソウテン,0
598,2200002022697,登記記録の閉鎖等,0,2023-08-09,2023-08-04,ワイズサポート有限会社,,有限会社,岐阜県,瑞浪市,北小田町４丁目１８７番地,,21,208,5096115,,,2023-08-04,清算の結了等,,,2015-10-05,1,,,,,ワイズサポート,0
608,2240001056718,登記記録の閉鎖等,0,2023-08-09,2023-08-07,ジョインフラット株式会社,,株式会社,広島県,広島市中区,鉄砲町１０番１８号,,34,101,7300017,,,2023-08-07,清算の結了等,,,2020-10-02,1,,,,,ジョインフラット,0
632,2290001083344,登記記録の閉鎖等,0,2023-08-09,2023-07-27,株式会社ＣＧキャピタル,,株式会社,福岡県,福岡市東区,箱崎ふ頭６丁目６番４７号,,40,131,8120051,,,2023-07-27,清算の結了等,,,2018-11-14,1,,,,,シージーキャピタル,0
635,2290002053081,登記記録の閉鎖等,0,2023-08-09,2023-07-28,大川電気興業有限会社,,有限会社,福岡県,大川市,大字小保８０９番地の１４,,40,212,8310041,,,2023-07-28,清算の結了等,,,2015-10-05,1,,,,,オオカワデンキコウギョウ,0
678,2430003009183,登記記録の閉鎖等,0,2023-08-09,2023-08-04,ＧＰＳＳアグリＡ合同会社,,合同会社,北海道,札幌市北区,北三十五条西８丁目３番６号,,01,102,0010035,,,2023-08-04,合併による解散等,9010403017078,令和５年７月３１日東京都港区芝公園二丁目２番１０号中和ビル３階ＧＰＳＳ４合同会社（9010403017078）に合併し解散,2018-03-08,1,,,,,ジーピーエスエスアグリエー,0
698,3010001019977,登記記録の閉鎖等,0,2023-08-09,2023-07-31,株式会社ジョイ設計,,株式会社,東京都,千代田区,神田東松下町２８番１６号,,13,101,1010042,,,2023-07-31,清算の結了等,,,2015-10-05,1,,,,,ジョイセッケイ,0
738,3010702004947,登記記録の閉鎖等,0,2023-08-09,2023-08-07,有限会社高梨工務店,00051981,有限会社,東京都,品川区,南品川４丁目８番１５号,,13,109,1400004,,,2023-08-07,清算の結了等,,,2015-10-05,1,,,,,タカナシコウムテン,0
759,3011301018512,登記記録の閉鎖等,0,2023-08-09,2023-08-04,オンシー株式会社,,株式会社,東京都,新宿区,新宿３丁目１番１３号京王新宿追分ビル４階,,13,104,1600022,,,2023-08-04,清算の結了等,,,2015-10-05,1,,,,,オンシー,0
760,3011302015459,登記記録の閉鎖等,0,2023-08-09,2023-08-07,有限会社ワイズプログレス,,有限会社,東京都,杉並区,南荻窪１丁目２７番２０号,,13,115,1670052,,,2023-08-07,清算の結了等,,,2015-10-05,1,,,,,ワイズプログレス,0
766,3011502008337,登記記録の閉鎖等,0,2023-08-09,2023-08-02,有限会社甲陽堂印刷,,有限会社,東京都,荒川区,東尾久２丁目２０番４号,,13,118,1160012,,,2023-08-02,清算の結了等,,,2015-10-05,1,,,,,コウヨウドウインサツ,0
805,3030002026368,登記記録の閉鎖等,0,2023-08-09,2023-07-14,有限会社ミノル紙工,,有限会社,埼玉県,蕨市,錦町１丁目１１番３７号,,11,223,3350005,,,2023-07-14,清算の結了等,,,2022-08-25,1,,,,,ミノルシコウ,0
829,3040002073038,登記記録の閉鎖等,0,2023-08-09,2023-07-18,有限会社蔵本工務店,,有限会社,千葉県,市原市,島野１５７３番地,,12,219,2900034,,,2023-07-18,清算の結了等,,,2015-10-05,1,,,,,クラモトコウムテン,0
840,3070002012819,登記記録の閉鎖等,0,2023-08-09,2023-08-04,有限会社ルパングループ,,有限会社,群馬県,高崎市,寺尾町６７番地,,10,202,3700865,,,2023-08-04,清算の結了等,,,2015-10-05,1,,,,,ルパングループ,0
861,3120001182459,登記記録の閉鎖等,0,2023-08-09,2023-08-01,株式会社琥珀,,株式会社,大阪府,東大阪市,布市町３丁目２番５７号,,27,227,5798004,,,2023-08-01,合併による解散等,7122001027276,令和５年８月１日大阪府東大阪市布市町三丁目２番５７号株式会社カラーズバリュー（7122001027276）に合併し解散,2015-10-05,1,,,,,コハク,0
870,3120101045945,登記記録の閉鎖等,0,2023-08-09,2023-08-04,株式会社ＮＳＦ,,株式会社,大阪府,泉南市,信達市場８９３番地の３（サンハイツ和泉砂川３０９号）,,27,228,5900504,,,2023-08-04,清算の結了等,,,2015-10-05,1,,,,,エヌエスエフ,0
886,3130001052487,登記記録の閉鎖等,0,2023-08-09,2023-07-25,株式会社茜祥工務店,,株式会社,京都府,宇治市,小倉町老ノ木２１番地の１１,,26,204,6110042,,,2023-07-25,清算の結了等,,,2015-10-05,1,,,,,アカショウコウムテン,0
901,3160005000010,登記記録の閉鎖等,0,2023-08-09,2023-08-04,医療法人叡湖会,,その他の設立登記法人,滋賀県,大津市,螢谷８－４６,,25,201,5200853,,,2023-08-04,清算の結了等,,,2015-10-05,1,,,,,エイコカイ,0
909,3180002084863,登記記録の閉鎖等,0,2023-08-09,2023-08-04,有限会社末広工業所,,有限会社,愛知県,大府市,共西町６丁目２４６番地,,23,223,4740062,,,2023-08-04,清算の結了等,,,2015-10-05,1,,,,,スエヒロコウギョウショ,0
917,3180301030403,登記記録の閉鎖等,0,2023-08-09,2023-07-31,株式会社ジョイルーツ,,株式会社,愛知県,豊川市,平尾町上藤井２１番２２番合併地,,23,207,4420863,,,2023-07-31,清算の結了等,,,2017-05-31,1,,,,,ジョイルーツ,0
936,3260002006727,登記記録の閉鎖等,0,2023-08-09,2023-08-02,有限会社鉄本鉄工所,,有限会社,岡山県,岡山市北区,北長瀬本町２４番１号,,33,101,7000961,,,2023-08-02,清算の結了等,,,2015-10-05,1,,,,,テツモトテッコウショ,0
938,3270003000777,登記記録の閉鎖等,0,2023-08-09,2023-08-01,合同会社ＭＩＲＡＩ　ｎｅｘｔ,,合同会社,鳥取県,鳥取市,末広温泉町１６３番地,,31,201,6800833,,,2023-08-01,清算の結了等,,,2015-10-05,1,,,,,ミライネクスト,0
942,3290001037530,登記記録の閉鎖等,0,2023-08-09,2023-07-27,株式会社Ｓ．ＧＡＲＡＧＥ,,株式会社,福岡県,古賀市,新原６３０番地２,,40,223,8113127,,,2023-07-27,清算の結了等,,,2015-10-05,1,,,,,エスガレージ,0
955,3340001001811,登記記録の閉鎖等,0,2023-08-09,2023-08-04,株式会社迫田建設,,株式会社,鹿児島県,鹿児島市,樋之口町９番２４号,00098500,46,201,8920845,,,2023-08-04,清算の結了等,,,2015-10-05,1,,,,,サコダケンセツ,0
1076,4011201017902,登記記録の閉鎖等,0,2023-08-09,2023-08-07,株式会社ファーストアッセント,,株式会社,東京都,中野区,新井１丁目３１番６号,,13,114,1650026,,,2023-08-07,清算の結了等,,,2015-10-05,1,,,,,ファーストアッセント,0
1081,4011301026844,登記記録の閉鎖等,0,2023-08-09,2023-07-13,株式会社Ｗｅｅｋｌｙ,,株式会社,東京都,杉並区,堀ノ内３丁目３番３４号コリビングハウス１０４号室,,13,115,1660013,,,2023-07-13,清算の結了等,,,2021-05-21,1,,,,,ウイークリー,0
1088,4011601020415,登記記録の閉鎖等,0,2023-08-09,2023-08-02,湯川商事株式会社,,株式会社,東京都,練馬区,氷川台３丁目３９－１１ハイツメルヘン１０２,,13,120,1790084,,,2023-08-02,清算の結了等,,,2015-10-14,1,,,,,ユカワショウジ,0
1101,4012401033607,登記記録の閉鎖等,0,2023-08-09,2023-07-24,株式会社車屋,,株式会社,熊本県,熊本市東区,戸島西１丁目２番２４号,,43,102,8618043,,,2023-07-24,清算の結了等,,,2018-01-30,1,,,,,クルマヤ,0
1105,4012702014099,登記記録の閉鎖等,0,2023-08-09,2023-08-04,有限会社ミュー・ワークス,,有限会社,東京都,西東京市,新町１丁目４番２－１００９,,13,229,2020023,,,2023-08-04,清算の結了等,,,2015-10-05,1,,,,,ミューワークス,0
1118,4020002032416,登記記録の閉鎖等,0,2023-08-09,2023-07-20,有限会社茨木精工,00010707,有限会社,神奈川県,横浜市港北区,綱島東５丁目４番２６号,,14,109,2230052,,,2023-07-20,清算の結了等,,,2015-10-05,1,,,,,イバラキセイコウ,0
1123,4021001024701,登記記録の閉鎖等,0,2023-08-09,2023-08-03,株式会社ラビー,,株式会社,神奈川県,鎌倉市,材木座６丁目５番２６号,,14,204,2480013,,,2023-08-03,清算の結了等,,,2015-10-05,1,,,,,ラビー,0
1124,4021001039162,登記記録の閉鎖等,0,2023-08-09,2023-08-07,マークデバイシス株式会社,,株式会社,神奈川県,平塚市,八重咲町１９番２３－３０６号ココス八重咲,,14,203,2540811,,,2023-08-07,清算の結了等,,,2015-10-05,1,,,,,マークデバイシス,0
1135,4030002007219,登記記録の閉鎖等,0,2023-08-09,2023-07-27,有限会社白田薬局,,有限会社,埼玉県,さいたま市大宮区,天沼町１丁目３０９番地,,11,103,3300834,,,2023-07-27,合併による解散等,8030002007215,令和５年７月２７日埼玉県さいたま市大宮区仲町二丁目２２番地株式会社白田商事（8030002007215）に合併し解散,2015-10-05,1,,,,,シロタヤッキョク,0
1136,4030002026053,登記記録の閉鎖等,0,2023-08-09,2023-07-12,有限会社大黒屋酒店,,有限会社,埼玉県,蕨市,錦町５丁目４番２６号,,11,223,3350005,,,2023-07-12,清算の結了等,,,2015-10-05,1,,,,,ダイコクヤサケテン,0
1137,4030002055606,登記記録の閉鎖等,0,2023-08-09,2023-07-11,有限会社加藤ダクト工業所,,有限会社,埼玉県,桶川市,大字上日出谷４２番地１１６,,11,231,3630026,,,2023-07-11,清算の結了等,,,2015-10-05,1,,,,,カトウダクトコウギョウショ,0
1158,4050002036934,登記記録の閉鎖等,0,2023-08-09,2023-07-20,有限会社元禄,,有限会社,茨城県,守谷市,本町３２２０番地の９,,08,224,3020109,,,2023-07-20,清算の結了等,,,2015-10-05,1,,,,,,0
1163,4070005007856,登記記録の閉鎖等,0,2023-08-09,2023-08-03,特定非営利活動法人群馬コアラ,,その他の設立登記法人,群馬県,前橋市,関根町３丁目２８番地１クラインヴィラ１０１号,,10,201,3710047,,,2023-08-03,清算の結了等,,,2015-10-05,1,,,,,グンマコアラ,0
1180,4110002028818,登記記録の閉鎖等,0,2023-08-09,2023-07-31,有限会社バンバ,,有限会社,新潟県,長岡市,藤沢１丁目９番１２号,,15,202,9402011,,,2023-07-31,清算の結了等,,,2015-10-05,1,,,,,バンバ,0
1187,4120001025971,登記記録の閉鎖等,0,2023-08-09,2023-08-08,株式会社大阪屋,,株式会社,大阪府,大阪市天王寺区,真法院町２０番１４号,,27,109,5430041,,,2023-08-08,清算の結了等,,,2015-10-05,1,,,,,オオサカヤ,0
1188,4120001032539,登記記録の閉鎖等,0,2023-08-09,2023-08-07,グローバル産商株式会社,,株式会社,大阪府,大阪市住吉区,清水丘３丁目１６番１３号,,27,120,5580033,,,2023-08-07,清算の結了等,,,2015-10-05,1,,,,,グローバルサンショウ,0
1189,4120001046324,登記記録の閉鎖等,0,2023-08-09,2023-08-04,日新不動産株式会社,,株式会社,東京都,品川区,東五反田２丁目７番１８号,,13,109,1410022,,,2023-08-04,合併による解散等,8010701019388,令和５年８月１日東京都品川区東五反田二丁目７番１８号豊川物産株式会社（8010701019388）に合併し解散,2015-10-05,1,,,,,ニッシンフドウサン,0
1192,4120001177103,登記記録の閉鎖等,0,2023-08-09,2023-08-07,株式会社本湖月,,株式会社,大阪府,大阪市東淀川区,下新庄４丁目１番３２号,,27,114,5330021,,,2023-08-07,清算の結了等,,,2015-10-05,1,,,,,ホンコゲツ,0
1226,4130001041134,登記記録の閉鎖等,0,2023-08-09,2023-08-04,北近畿菅公学生服株式会社,,株式会社,京都府,福知山市,問屋町２０番の１３,,26,201,6200057,,,2023-08-04,合併による解散等,2260001015663,令和５年８月１日岡山市北区駅元町１５番１号ＫＡＮＫＯエステート株式会社（2260001015663）に合併し解散,2015-10-05,1,,,,,キタキンキカンコウガクセイフク,0
1233,4130002016498,登記記録の閉鎖等,0,2023-08-09,2023-07-19,有限会社柴田商事,,有限会社,京都府,京都市山科区,西野大鳥井町１１８番地の４６,,26,110,6078355,,,2023-07-19,清算の結了等,,,2015-10-05,1,,,,,シバタショウジ,0
1267,4200002013843,登記記録の閉鎖等,0,2023-08-09,2023-08-03,有限会社野原製作所,,有限会社,岐阜県,安八郡輪之内町,大薮７２９番地,,21,382,5030200,,,2023-08-03,清算の結了等,,,2015-10-05,1,,,,,ノハラセイサクショ,0
1280,4240002028573,登記記録の閉鎖等,0,2023-08-09,2023-08-07,有限会社山内,,有限会社,広島県,東広島市,西条町寺家５３５４番地,,34,212,7390041,,,2023-08-07,清算の結了等,,,2015-10-05,1,,,,,ヤマウチ,0
1305,4290802023926,登記記録の閉鎖等,0,2023-08-09,2023-08-07,有限会社ティ・アンド・エス,,有限会社,福岡県,行橋市,大字稲童２６５７番地１３,,40,213,8240022,,,2023-08-07,清算の結了等,,,2015-10-05,1,,,,,ティアンドエス,0
1329,4370801000661,登記記録の閉鎖等,0,2023-08-09,2023-08-01,宮城新田産業株式会社,,株式会社,宮城県,亘理郡山元町,大平字清水６７番地,,04,362,9892206,,,2023-08-01,清算の結了等,,,2015-10-05,1,,,,,ミヤギニッタサンギョウ,0
1384,5010003024255,登記記録の閉鎖等,0,2023-08-09,2023-08-04,ＧＰＳＳ１合同会社,,合同会社,北海道,札幌市北区,北三十五条西８丁目３番６号,,01,102,0010035,,,2023-08-04,合併による解散等,9010403017078,令和５年７月３１日東京都港区芝公園二丁目２番１０号中和ビル３階ＧＰＳＳ４合同会社（9010403017078）に合併し解散,2016-10-18,1,,,,,ジーピーエスエスワン,0
1385,5010003025179,登記記録の閉鎖等,0,2023-08-09,2023-07-31,合同会社ＳＡ３,,合同会社,東京都,千代田区,内幸町１丁目１番１号,,13,101,1000011,,,2023-07-31,清算の結了等,,,2017-04-11,1,,,,,,0
1390,5010005023635,登記記録の閉鎖等,0,2023-08-09,2023-07-13,一般社団法人エコスタディーズ,,その他の設立登記法人,東京都,港区,虎ノ門２丁目２番５号,,13,103,1050001,,,2023-07-13,清算の結了等,,,2015-10-05,1,,,,,エコスタディーズ,0
1397,5010401160453,登記記録の閉鎖等,0,2023-08-09,2023-07-14,株式会社アップハウス,,株式会社,東京都,港区,六本木３丁目２番１号,,13,103,1060032,,,2023-07-14,合併による解散等,5011001101005,令和５年７月１日東京都港区芝大門一丁目１番２３号株式会社テラーノベル（5011001101005）に合併し解散,2021-05-27,1,,,,,アップハウス,0
1402,5010403023071,登記記録の閉鎖等,0,2023-08-09,2023-07-18,新宿開発合同会社,,合同会社,東京都,港区,六本木４丁目３番１１－３１９号,,13,103,1060032,,,2023-07-18,清算の結了等,,,2020-06-02,1,,,,,シンジュクカイハツ,0
1413,5010902025535,登記記録の閉鎖等,0,2023-08-09,2023-07-27,有限会社ピュール,,有限会社,神奈川県,横浜市金沢区,谷津町３５９番地４,,14,108,2360016,,,2023-07-27,清算の結了等,,,2015-10-05,1,,,,,ピュール,0
1435,5011702011849,登記記録の閉鎖等,0,2023-08-09,2023-08-04,有限会社やぶ忠,,有限会社,東京都,江戸川区,東葛西５丁目７番８号,,13,123,1340084,,,2023-08-04,清算の結了等,,,2015-10-05,1,,,,,ヤブチュウ,0
1447,5011802006765,登記記録の閉鎖等,0,2023-08-09,2023-08-07,有限会社渕上工業,,有限会社,東京都,葛飾区,堀切６丁目１１番８号,,13,122,1240006,,,2023-08-07,清算の結了等,,,2015-10-05,1,,,,,フチガミコウギョウ,0
1510,5040002043955,登記記録の閉鎖等,0,2023-08-09,2023-07-14,有限会社アイモード,,有限会社,千葉県,松戸市,常盤平５丁目１７番地の１０,,12,207,2702261,,,2023-07-14,清算の結了等,,,2015-10-05,1,,,,,アイモード,0
1516,5050002015755,登記記録の閉鎖等,0,2023-08-09,2023-08-02,有限会社農業法人鈴木ファーム,,有限会社,茨城県,石岡市,宮ケ崎７４７番地の３,,08,205,3150123,,,2023-08-02,清算の結了等,,,2015-10-05,1,,,,,,0
1518,5050003003107,登記記録の閉鎖等,0,2023-08-09,2023-08-03,合同会社オフィス小枝,,合同会社,茨城県,神栖市,息栖２８８５番地１８９,,08,232,3140133,,,2023-08-03,清算の結了等,,,2015-12-03,1,,,,,オフィスコエダ,0
1537,5080402017869,登記記録の閉鎖等,0,2023-08-09,2023-08-07,有限会社セブンス・アベニュー,,有限会社,静岡県,掛川市,駅前１番地の８,,22,213,4360077,,,2023-08-07,清算の結了等,,,2015-10-05,1,,,,,セブンスアベニュー,0
1550,5120001061644,登記記録の閉鎖等,0,2023-08-09,2023-08-02,岡田株式会社,,株式会社,大阪府,大阪市北区,曾根崎新地１丁目６番１０号,,27,127,5300002,,,2023-08-02,清算の結了等,,,2015-10-05,1,,,,,オカダ,0
1557,5120001217923,登記記録の閉鎖等,0,2023-08-09,2023-08-02,株式会社ＣＵＬ,,株式会社,大阪府,大阪市淀川区,西中島７丁目１番３－５０９号,,27,123,5320011,,,2023-08-02,清算の結了等,,,2018-12-20,1,,,,,シーユーエル,0
1615,5180002076594,登記記録の閉鎖等,0,2023-08-09,2023-08-03,有限会社ショーエイ中部販売,,有限会社,愛知県,一宮市,神山１丁目１０番１号,,23,203,4910904,,,2023-08-03,清算の結了等,,,2015-10-05,1,,,,,ショーエイチュウブハンバイ,0
1620,5180302027834,登記記録の閉鎖等,0,2023-08-09,2023-07-31,有限会社山崎商店,00075261,有限会社,愛知県,新城市,字南畑７番地の１,,23,221,4411386,,,2023-07-31,清算の結了等,,,2015-10-05,1,,,,,ヤマザキショウテン,0
1626,5210002013949,登記記録の閉鎖等,0,2023-08-09,2023-08-02,有限会社村金商店,,有限会社,福井県,小浜市,新小松原第４号１２番地,,18,204,9170008,,,2023-08-02,清算の結了等,,,2015-10-05,1,,,,,ムラキンショウテン,0
1629,5230002008526,登記記録の閉鎖等,0,2023-08-09,2023-08-07,宮崎定置漁業有限会社,,有限会社,富山県,下新川郡朝日町,宮崎３２５１番地,,16,343,9390703,,,2023-08-07,清算の結了等,,,2015-10-05,1,,,,,,0
1658,5290802015336,登記記録の閉鎖等,0,2023-08-09,2023-08-04,有限会社丸幸物産,,有限会社,福岡県,北九州市八幡西区,三ケ森１丁目５番７号,,40,109,8070843,,,2023-08-04,清算の結了等,,,2015-10-05,1,,,,,マルコウブッサン,0
1667,5340001005026,登記記録の閉鎖等,0,2023-08-09,2023-08-03,株式会社バードランド鹿児島,,株式会社,鹿児島県,鹿児島市,宇宿２丁目２６番１８号,,46,201,8900073,,,2023-08-03,合併による解散等,5300001006498,令和５年７月３１日佐賀県鳥栖市養父町４８８番地９株式会社バードランド（5300001006498）に合併し解散,2015-10-05,1,,,,,バードランドカゴシマ,0
1669,5340001018556,登記記録の閉鎖等,0,2023-08-09,2023-08-07,株式会社健陽,,株式会社,鹿児島県,姶良市,東餅田２４０番地１,,46,225,8995421,,,2023-08-07,清算の結了等,,,2015-10-05,1,,,,,ケンヨウ,0
1700,5400001015010,登記記録の閉鎖等,0,2023-08-09,2023-07-27,株式会社ＳＰＨ,,株式会社,岩手県,陸前高田市,米崎町字松峰５９－４１,,03,210,0292206,,,2023-07-27,清算の結了等,,,2020-04-22,1,,,,,,0
1711,5430002061554,登記記録の閉鎖等,0,2023-08-09,2023-07-31,有限会社食友,,有限会社,北海道,日高郡新ひだか町,静内春立５０番地の１,,01,610,0592565,,,2023-07-31,清算の結了等,,,2015-10-05,1,,,,,ショクユウ,0
1716,5460401000341,登記記録の閉鎖等,0,2023-08-09,2023-08-04,株式会社北昇,,株式会社,北海道,帯広市,西八条南３０丁目５番地４,,01,207,0800018,,,2023-08-04,清算の結了等,,,2015-10-05,1,,,,,ホクショウ,0
1729,6010001097351,登記記録の閉鎖等,0,2023-08-09,2023-08-02,エレクラフト株式会社,,株式会社,東京都,北区,赤羽１丁目５９番６－４０２号,,13,117,1150045,,,2023-08-02,清算の結了等,,,2015-10-05,1,,,,,エレクラフト,0
1771,6010801009456,登記記録の閉鎖等,0,2023-08-09,2023-08-02,二宮産機株式会社,,株式会社,東京都,大田区,西糀谷２丁目１０番１９号,,13,111,1440034,,,2023-08-02,清算の結了等,,,2015-10-05,1,,,,,ニノミヤサンキ,0
1790,6011101061049,登記記録の閉鎖等,0,2023-08-09,2023-08-03,株式会社ジェーエスアールアイ,,株式会社,福島県,福島市,三河南町１８番１号,,07,201,9608053,,,2023-08-03,清算の結了等,,,2015-10-05,1,,,,,ジェーエスアールアイ,0
1815,6013202004687,登記記録の閉鎖等,0,2023-08-09,2023-08-07,有限会社長沼印刷,,有限会社,東京都,目黒区,原町２丁目２４番１５号,,13,110,1520011,,,2023-08-07,清算の結了等,,,2015-10-05,1,,,,,ナガヌマインサツ,0
1821,6020003019303,登記記録の閉鎖等,0,2023-08-09,2023-07-28,合同会社フィールド,,合同会社,神奈川県,川崎市高津区,溝口２丁目８番５号フィールドビル１Ｆ,,14,134,2130001,,,2023-07-28,清算の結了等,,,2021-02-18,1,,,,,フィールド,0
1828,6021002064422,登記記録の閉鎖等,0,2023-08-09,2023-08-04,有限会社坂田工業,,有限会社,神奈川県,横須賀市,大矢部３丁目２９番５号,,14,201,2380024,,,2023-08-04,清算の結了等,,,2015-10-05,1,,,,,,0
1859,6050003006422,登記記録の閉鎖等,0,2023-08-09,2023-08-02,クローバーの丘合同会社,,合同会社,茨城県,笠間市,大橋１８５８,,08,216,3091601,,,2023-08-02,清算の結了等,,,2022-03-09,1,,,,,クローバーノオカ,0
1882,6120001244553,登記記録の閉鎖等,0,2023-08-09,2023-07-31,ＡＳＳＥＴＢＡＮＫ　ＷＩＮＥ　ＭＡＮＡＧＥＭＥＮＴ株式会社,,株式会社,東京都,千代田区,一番町４番地４ＴＨＥＣＲＯＳＳ一番町Ｂ１,,13,101,1020082,,,2023-07-31,清算の結了等,,,2022-03-24,1,,,,,アセットバンクワインマネジメント,0
1889,6120002041082,登記記録の閉鎖等,0,2023-08-09,2023-08-07,池田組有限会社,,有限会社,大阪府,大阪市西淀川区,大和田６丁目９番１２号,,27,113,5550032,,,2023-08-07,清算の結了等,,,2015-10-05,1,,,,,イケダグミ,0
1899,6120103003725,登記記録の閉鎖等,0,2023-08-09,2023-08-07,合同会社両雄,,合同会社,大阪府,堺市堺区,南向陽町１丁１番３２－１２０３号,,27,141,5900073,,,2023-08-07,清算の結了等,,,2020-06-09,1,,,,,リョウユウ,0
1916,6140001053911,登記記録の閉鎖等,0,2023-08-09,2023-08-02,株式会社大放光社,,株式会社,兵庫県,尼崎市,大庄中通１丁目４８番地４,,28,202,6600075,,,2023-08-02,清算の結了等,,,2015-10-05,1,,,,,ダイホウコウシャ,0
1931,6180001058106,登記記録の閉鎖等,0,2023-08-09,2023-08-04,株式会社トーキサービス,,株式会社,愛知県,名古屋市南区,城下町１丁目１番地,,23,112,4570047,,,2023-08-04,合併による解散等,1180001015004,令和５年８月１日名古屋市南区城下町一丁目１番地東海産機株式会社（1180001015004）に合併し解散,2015-10-05,1,,,,,トーキサービス,0
1960,6230003001693,登記記録の閉鎖等,0,2023-08-09,2023-08-07,合同会社ハートマネジメント,,合同会社,富山県,氷見市,上田子１１４５番地,,16,205,9350035,,,2023-08-07,清算の結了等,,,2021-06-28,1,,,,,ハートマネジメント,0
1983,6300005005917,登記記録の閉鎖等,0,2023-08-09,2023-07-28,特定非営利活動法人オフィスはがくれ,,その他の設立登記法人,佐賀県,神埼市,神埼町本堀２９２３番地１７,,41,210,8420003,,,2023-07-28,清算の結了等,,,2015-10-05,1,,,,,オフィスハガクレ,0
1985,6310002003162,登記記録の閉鎖等,0,2023-08-09,2023-08-09,有限会社谷建設,,有限会社,長崎県,長崎市,蚊焼町４５５１番地,,42,201,8510401,,,2023-08-09,清算の結了等,,,2015-10-05,1,,,,,,0
1993,6330002002039,登記記録の閉鎖等,0,2023-08-09,2023-07-26,甲斐工業有限会社,,有限会社,熊本県,熊本市西区,河内町船津２２２２番地１０,,43,103,8615347,,,2023-07-26,清算の結了等,,,2015-10-05,1,,,,,カイコウギョウ,0
2014,6380002003899,登記記録の閉鎖等,0,2023-08-09,2023-08-04,株式会社マウントスマイル,,株式会社,山形県,米沢市,成島町３丁目２番１１７号,,06,202,9920057,,,2023-08-04,清算の結了等,,,2015-10-05,1,,,,,マウントスマイル,0
2018,6400002004523,登記記録の閉鎖等,0,2023-08-09,2023-07-28,有限会社イノセント,,有限会社,岩手県,盛岡市,厨川５丁目１２番５８号,,03,201,0200124,,,2023-07-28,清算の結了等,,,2015-10-05,1,,,,,イノセント,0
2026,6430001033149,登記記録の閉鎖等,0,2023-08-09,2023-08-04,大地ミート株式会社,,株式会社,北海道,石狩市,新港西３丁目７６４番地１０,,01,235,0613241,,,2023-08-04,清算の結了等,,,2015-10-05,1,,,,,ダイチミート,0
2052,7010001006740,登記記録の閉鎖等,0,2023-08-09,2023-07-31,富士工業株式会社,,株式会社,東京都,文京区,湯島４丁目１番１４号,,13,105,1130034,,,2023-07-31,清算の結了等,,,2015-10-05,1,,,,,フジコウギョウ,0
2053,7010001009207,登記記録の閉鎖等,0,2023-08-09,2023-07-31,株式会社淡路亭,,株式会社,東京都,千代田区,神田須田町１丁目２４番地,,13,101,1010041,,,2023-07-31,清算の結了等,,,2015-10-05,1,,,,,アワジテイ,0
2077,7010401081573,登記記録の閉鎖等,0,2023-08-09,2023-07-14,株式会社プロスパシア,,株式会社,東京都,港区,西新橋１丁目２番９号,,13,103,1050003,,,2023-07-14,清算の結了等,,,2015-10-05,1,,,,,プロスパシア,0
2086,7010501030892,登記記録の閉鎖等,0,2023-08-09,2023-08-02,宏成建商株式会社,,株式会社,宮城県,仙台市太白区,郡山１丁目１７番１０号,,04,104,9820003,,,2023-08-02,清算の結了等,,,2015-10-05,1,,,,,コウセイケンショウ,0
2120,7011202011414,登記記録の閉鎖等,0,2023-08-09,2023-08-07,有限会社アフロビート,,有限会社,東京都,中野区,中央４丁目１９－１８－Ｇ,,13,114,1640011,,,2023-08-07,清算の結了等,,,2015-10-05,1,,,,,,0
2139,7013301040789,登記記録の閉鎖等,0,2023-08-09,2023-08-07,株式会社グラナーク,,株式会社,東京都,葛飾区,東四つ木３丁目１９番１１号,,13,122,1240014,,,2023-08-07,清算の結了等,,,2017-07-11,1,,,,,,0
2140,7013301043750,登記記録の閉鎖等,0,2023-08-09,2023-08-04,株式会社ＳＯＵＲＣＥ,,株式会社,東京都,新宿区,新宿１丁目３６番２号新宿第７葉山ビル３Ｆ,,13,104,1600022,,,2023-08-04,清算の結了等,,,2019-04-19,1,,,,,ソース,0
2153,7020003021027,登記記録の閉鎖等,0,2023-08-09,2023-07-28,ＧＲＵ　ＪＡＰＡＮ合同会社,,合同会社,神奈川県,川崎市川崎区,駅前本町１１番地２フロンティアビル４階,,14,131,2100007,,,2023-07-28,清算の結了等,,,2021-12-27,1,,,,,グルージャパン,0
2161,7021003009706,登記記録の閉鎖等,0,2023-08-09,2023-07-31,合同会社ＲＴＭ,,合同会社,神奈川県,海老名市,中央３丁目３番２３－８０４号,,14,215,2430432,,,2023-07-31,清算の結了等,,,2020-09-17,1,,,,,アールティーエム,0
2185,7040002032485,登記記録の閉鎖等,0,2023-08-09,2023-07-14,石沢電材有限会社,,有限会社,千葉県,市川市,下貝塚２丁目１５番１２号,,12,203,2720821,,,2023-07-14,清算の結了等,,,2015-10-05,1,,,,,イシザワデンザイ,0
2190,7050001013758,登記記録の閉鎖等,0,2023-08-09,2023-08-02,株式会社エヌテック,,株式会社,茨城県,結城郡八千代町,大字若１５１８番地の１,,08,521,3003544,,,2023-08-02,清算の結了等,,,2015-10-05,1,,,,,エヌテック,0
2204,7080102010610,登記記録の閉鎖等,0,2023-08-09,2023-08-08,有限会社鈴木薬房,,有限会社,静岡県,駿東郡長泉町,下土狩１３１８番地,,22,342,4110943,,,2023-08-08,清算の結了等,,,2015-10-05,1,,,,,スズキヤクボウ,0
2208,7080401024757,登記記録の閉鎖等,0,2023-08-09,2023-08-07,株式会社いわた警備,,株式会社,静岡県,磐田市,上万能４９４番地二美ビル２階１号室,,22,211,4380817,,,2023-08-07,清算の結了等,,,2020-12-17,1,,,,,イワタケイビ,0
2211,7100002037081,登記記録の閉鎖等,0,2023-08-09,2023-08-03,有限会社梅月堂製菓,,有限会社,長野県,飯田市,上殿岡６７５番地５,,20,205,3950153,,,2023-08-03,清算の結了等,,,2015-10-05,1,,,,,バイゲツドウセイカ,0
2212,7110001006251,登記記録の閉鎖等,0,2023-08-09,2023-08-01,株式会社パロム,,株式会社,新潟県,新潟市中央区,上近江１丁目２番２０号,,15,103,9500973,,,2023-08-01,合併による解散等,4110001034379,令和５年８月１日新潟市中央区西堀通五番町８５５番地５ちいきてらす株式会社（4110001034379）に合併し解散,2015-10-05,1,,,,,パロム,0
2213,7110001013999,登記記録の閉鎖等,0,2023-08-09,2023-08-01,柄澤金物株式会社,,株式会社,新潟県,三条市,荒町２丁目１４番１６号,,15,204,9550083,,,2023-08-01,清算の結了等,,,2015-10-05,1,,,,,カラサワカナモノ,0
2257,7130001055817,登記記録の閉鎖等,0,2023-08-09,2023-07-14,ＳＨＩＢＡ　ＲＡＫＵ株式会社,,株式会社,京都府,京都市東山区,泉涌寺山内町二十五丁目１４番,,26,105,6050977,,,2023-07-14,清算の結了等,,,2015-10-05,1,,,,,シバラク,0
2273,7140002061838,登記記録の閉鎖等,0,2023-08-09,2023-08-02,修盛織布有限会社,,有限会社,兵庫県,多可郡多可町,中区安坂４６３番地の２,,28,365,6791135,,,2023-08-02,清算の結了等,,,2015-10-05,1,,,,,シュウセイショクフ,0
2293,7180002037289,登記記録の閉鎖等,0,2023-08-09,2023-08-01,有限会社ウイックル,,有限会社,愛知県,名古屋市東区,山口町１５番８号,,23,102,4610024,,,2023-08-01,清算の結了等,,,2015-10-05,1,,,,,ウイックル,0
2305,7180302010631,登記記録の閉鎖等,0,2023-08-09,2023-07-31,有限会社あらはっと,,有限会社,愛知県,田原市,加治町恩中５５番地２,,23,231,4413427,,,2023-07-31,清算の結了等,,,2015-10-05,1,,,,,アラハット,0
2323,7250002015618,登記記録の閉鎖等,0,2023-08-09,2023-07-31,有限会社笠戸島商會,,有限会社,山口県,下松市,大字笠戸島１５３０番地,,35,207,7440001,,,2023-07-31,清算の結了等,,,2015-10-05,1,,,,,カサドシマショウカイ,0
2336,7300002005448,登記記録の閉鎖等,0,2023-08-09,2023-08-07,富士緑化園有限会社,,有限会社,佐賀県,佐賀市,富士町大字上熊川２３８５番地,,41,201,8400512,,,2023-08-07,清算の結了等,,,2015-10-05,1,,,,,,0
2339,7320003002005,登記記録の閉鎖等,0,2023-08-09,2023-08-01,ホリデイズ大分株式会社,,株式会社,大分県,大分市,新川西１丁目１番１号,,44,201,8700015,,,2023-08-01,合併による解散等,8320003002004,令和５年８月１日大分県由布市湯布院町川上１５０５番６ホリデイズ湯布院株式会社（8320003002004）に合併し解散,2015-10-05,1,,,,,ホリデイズオオイタ,0
2351,7340002011789,登記記録の閉鎖等,0,2023-08-09,2023-08-07,有限会社ＥＳＰ,,有限会社,鹿児島県,鹿児島市,坂之上２丁目１４番１０号,,46,201,8910150,,,2023-08-07,清算の結了等,,,2015-10-05,1,,,,,,0
2352,7340003003018,登記記録の閉鎖等,0,2023-08-09,2023-08-04,合同会社人と人でまちづくり,,合同会社,鹿児島県,鹿児島市,西別府町２９４１番地３６,,46,201,8900033,,,2023-08-04,清算の結了等,,,2020-01-23,1,,,,,ヒトトヒトデマチヅクリ,0
2363,7370002011464,登記記録の閉鎖等,0,2023-08-09,2023-08-02,有限会社徐州楼,,有限会社,宮城県,仙台市青葉区,国分町３丁目９番１３号,,04,101,9800803,,,2023-08-02,清算の結了等,,,2015-10-05,1,,,,,ジョシュウロウ,0
2398,8010001125580,登記記録の閉鎖等,0,2023-08-09,2023-07-31,ＵＴＥＣ　Ｖｅｎｔｕｒｅ　Ｐａｒｔｎｅｒｓ株式会社,,株式会社,東京都,文京区,本郷７丁目３番１号,,13,105,1130033,,,2023-07-31,清算の結了等,,,2015-10-05,1,,,,,ユーテックベンチャーパートナーズ,0
2437,8010601029421,登記記録の閉鎖等,0,2023-08-09,2023-08-02,株式会社けんちく工房邑,,株式会社,茨城県,つくば市,沼崎８５５番地,,08,220,3002631,,,2023-08-02,清算の結了等,,,2015-10-05,1,,,,,,0
2456,8011001145197,登記記録の閉鎖等,0,2023-08-09,2023-08-01,株式会社Ｌｕｎａｔｏｍｏ,,株式会社,東京都,渋谷区,宇田川町４０番１号,,13,113,1500042,,,2023-08-01,清算の結了等,,,2022-01-20,1,,,,,ルナトモ,0
2474,8011102020695,登記記録の閉鎖等,0,2023-08-09,2023-08-07,有限会社ケイ・アート,,有限会社,東京都,新宿区,新宿１丁目１８番１３号,,13,104,1600022,,,2023-08-07,清算の結了等,,,2015-10-05,1,,,,,,0
2501,8020001042271,登記記録の閉鎖等,0,2023-08-09,2023-07-25,株式会社ひなた,,株式会社,神奈川県,横浜市青葉区,美しが丘１丁目１３番地１０吉村ビル１０７号,,14,117,2250002,,,2023-07-25,清算の結了等,,,2015-10-05,1,,,,,ヒナタ,0
2505,8020001127667,登記記録の閉鎖等,0,2023-08-09,2023-07-27,株式会社ラルゴ８,,株式会社,神奈川県,横浜市旭区,中希望が丘６４番地４５,,14,112,2410825,,,2023-07-27,清算の結了等,,,2018-08-20,1,,,,,ラルゴエイト,0
2534,8040001034564,登記記録の閉鎖等,0,2023-08-09,2023-07-14,株式会社ＳＤＳ,,株式会社,千葉県,鎌ケ谷市,丸山１丁目２番３３号,,12,224,2730103,,,2023-07-14,清算の結了等,,,2015-10-05,1,,,,,エスディーエス,0
2556,8060005001781,登記記録の閉鎖等,0,2023-08-09,2023-07-26,企業組合愛,,その他の設立登記法人,栃木県,宇都宮市,元今泉２丁目２５番３８号,,09,201,3210954,,,2023-07-26,清算の結了等,,,2015-10-05,1,,,,,アイ,0
2566,8090002004000,登記記録の閉鎖等,0,2023-08-09,2023-08-01,有限会社竜王メディカルサービス,,有限会社,山梨県,甲斐市,篠原２１９９番地,,19,210,4000115,,,2023-08-01,清算の結了等,,,2015-10-05,1,,,,,,0
2578,8120001137367,登記記録の閉鎖等,0,2023-08-09,2023-08-07,光伸商事株式会社,,株式会社,大阪府,大阪市港区,築港２丁目１番２号第一大阪港ビル５階,,27,107,5520021,,,2023-08-07,清算の結了等,,,2015-10-05,1,,,,,コウシンショウジ,0
2584,8120001244031,登記記録の閉鎖等,0,2023-08-09,2023-08-07,株式会社ゴンバーガーウエスト,,株式会社,大阪府,大阪市浪速区,日本橋東１丁目１０番７号,,27,111,5560006,,,2023-08-07,清算の結了等,,,2022-03-01,1,,,,,ゴンバーガーウエスト,0
2592,8120101044819,登記記録の閉鎖等,0,2023-08-09,2023-08-07,株式会社山岡工務店,,株式会社,大阪府,阪南市,尾崎町５１２番地の３の１Ｆ,,27,232,5990201,,,2023-08-07,清算の結了等,,,2015-10-05,1,,,,,ヤマオカコウムテン,0
2615,8160001014562,登記記録の閉鎖等,0,2023-08-09,2023-08-08,株式会社ケーエス企画,,株式会社,滋賀県,草津市,矢倉２丁目２番４９号,,25,206,5250053,,,2023-08-08,清算の結了等,,,2015-10-05,1,,,,,ケーエスキカク,0
2629,8180302004343,登記記録の閉鎖等,0,2023-08-09,2023-08-01,有限会社ＥＧＡＯ　ＧＲＯＵＰ,,有限会社,愛知県,岡崎市,羽根町字若宮３０番地,,23,202,4440813,,,2023-08-01,合併による解散等,4180301002054,令和５年８月１日愛知県岡崎市羽根町字若宮３０番地株式会社ＥＧＡＯ　ＧＲＯＵＰ（4180301002054）に合併し解散,2015-10-05,1,,,,,エガオグループ,0
2636,8210001007288,登記記録の閉鎖等,0,2023-08-09,2023-08-04,株式会社ＹＧ整理会社,,株式会社,福井県,あわら市,温泉４丁目４１８番地,,18,208,9104104,,,2023-08-04,清算の結了等,,,2015-10-05,1,,,,,ワイジーセイリガイシャ,0
2640,8220002014563,登記記録の閉鎖等,0,2023-08-09,2023-08-02,有限会社美容室テリナ,,有限会社,石川県,羽咋郡志賀町,富来領家町甲の２６番地,,17,384,9250447,,,2023-08-02,清算の結了等,,,2015-10-05,1,,,,,ビヨウシツテリナ,0
2642,8230003001700,登記記録の閉鎖等,0,2023-08-09,2023-08-03,合同会社考木,,合同会社,富山県,高岡市,向野町６丁目３９－５,,16,202,9330902,,,2023-08-03,清算の結了等,,,2021-07-13,1,,,,,コウモク,0
2657,8280002010508,登記記録の閉鎖等,0,2023-08-09,2023-08-03,有限会社ミヤタ,,有限会社,島根県,鹿足郡津和野町,後田ロ２３６番地１,,32,501,6995605,,,2023-08-03,清算の結了等,,,2015-10-05,1,,,,,ミヤタ,0
2662,8290001080815,登記記録の閉鎖等,0,2023-08-09,2023-07-27,株式会社ジャパングラフィックス,,株式会社,福岡県,福岡市東区,箱崎ふ頭６丁目６番４７号,,40,131,8120051,,,2023-07-27,清算の結了等,,,2018-03-14,1,,,,,ジャパングラフィックス,0
2673,8290803003972,登記記録の閉鎖等,0,2023-08-09,2023-08-04,みらいねＥコマース合同会社,,合同会社,福岡県,北九州市八幡西区,熊西１丁目９番５号,,40,109,8060031,,,2023-08-04,清算の結了等,,,2021-11-01,1,,,,,ミライネイーコマース,0
2677,8330002005964,登記記録の閉鎖等,0,2023-08-09,2023-07-27,有限会社総合インテリアウチダ,,有限会社,熊本県,熊本市東区,上南部２丁目７番１１３号,,43,102,8618010,,,2023-07-27,清算の結了等,,,2015-10-05,1,,,,,ソウゴウインテリアウチダ,0
2680,8340001011021,登記記録の閉鎖等,0,2023-08-09,2023-08-01,株式会社ヒガ,,株式会社,鹿児島県,大島郡喜界町,大字赤連２８９６番地の１２,,46,529,8916201,,,2023-08-01,合併による解散等,4340001011033,令和５年８月１日鹿児島県大島郡喜界町赤連２８９６番地の１２株式会社比嘉建設（4340001011033）に合併し解散,2015-10-05,1,,,,,ヒガ,0
2700,8360005005001,登記記録の閉鎖等,0,2023-08-09,2023-07-31,一般社団法人日本肉食裸足推進協会,,その他の設立登記法人,沖縄県,那覇市,上之屋１丁目１１番１号,,47,201,9000011,,,2023-07-31,清算の結了等,,,2015-10-05,1,,,,,ニホンニクショクハダシスイシンキョウカイ,0
2707,8400001014414,登記記録の閉鎖等,0,2023-08-09,2023-07-27,しんこう園株式会社,,株式会社,岩手県,紫波郡紫波町,桜町字本町１５番地７,,03,321,0283307,,,2023-07-27,清算の結了等,,,2018-11-29,1,,,,,シンコウエン,0
2724,8500001012127,登記記録の閉鎖等,0,2023-08-09,2023-08-07,ノシマ産業株式会社,,株式会社,愛媛県,今治市,上徳甲３５０番地２０,,38,202,7991511,,,2023-08-07,清算の結了等,,,2015-10-05,1,,,,,ノシマサンギョウ,0
2741,9010001220190,登記記録の閉鎖等,0,2023-08-09,2023-08-01,株式会社クロストラクト,,株式会社,東京都,千代田区,神田和泉町１番地６の１３ＫＨビル２階,,13,101,1010024,,,2023-08-01,清算の結了等,,,2021-08-06,1,,,,,クロストラクト,0
2775,9010802018189,登記記録の閉鎖等,0,2023-08-09,2023-07-31,有限会社千鳥土地建物,,有限会社,兵庫県,神戸市垂水区,塩屋町６６７番地の５ジェームス山パーク・ホームズ１０１０号,,28,108,6550872,,,2023-07-31,清算の結了等,,,2015-10-05,1,,,,,チドリトチタテモノ,0
2779,9011001045974,登記記録の閉鎖等,0,2023-08-09,2023-08-04,株式会社東京療術学院,,株式会社,東京都,渋谷区,幡ヶ谷２丁目１４番３号,,13,113,1510072,,,2023-08-04,合併による解散等,5010701041733,令和５年８月１日東京都品川区東五反田一丁目１４番１４号株式会社飛鳥コーポレーション（5010701041733）に合併し解散,2015-10-05,1,,,,,トウキョウリョウジュツガクイン,0
2791,9011102012790,登記記録の閉鎖等,0,2023-08-09,2023-08-07,有限会社明和空調,,有限会社,東京都,新宿区,戸山２丁目３１番１１０号,,13,104,1620052,,,2023-08-07,清算の結了等,,,2015-10-05,1,,,,,メイワクウチョウ,0
2803,9011502012911,登記記録の閉鎖等,0,2023-08-09,2023-08-02,有限会社岩下,,有限会社,東京都,北区,滝野川２丁目１０番１４号,,13,117,1140023,,,2023-08-02,清算の結了等,,,2015-10-05,1,,,,,イワシタ,0
2815,9012401036324,登記記録の閉鎖等,0,2023-08-09,2023-08-07,コスメティック・ハラル＆オーガニック株式会社,,株式会社,東京都,府中市,寿町１丁目４－１７寿ビル４階,,13,206,1830056,,,2023-08-07,清算の結了等,,,2020-03-06,1,"Cosmetics Halal & Organic Co., Ltd.",Tokyo,"2-14-10-502, Fuchu cho, Fuchu shi",,コスメティックハラルアンドオーガニック,0
2830,9020001089931,登記記録の閉鎖等,0,2023-08-09,2023-07-26,仁創工業株式会社,,株式会社,神奈川県,横浜市港南区,上永谷３丁目３６番２５号,,14,111,2330012,,,2023-07-26,清算の結了等,,,2015-10-05,1,,,,,ジンソウコウギョウ,0
2838,9021001010060,登記記録の閉鎖等,0,2023-08-09,2023-08-03,株式会社バニーフーズ,,株式会社,神奈川県,鎌倉市,材木座６丁目５番２６号,,14,204,2480013,,,2023-08-03,清算の結了等,,,2015-10-05,1,,,,,バニーフーズ,0
2854,9040001034209,登記記録の閉鎖等,0,2023-08-09,2023-07-14,株式会社エフアンドエヌ,,株式会社,千葉県,鎌ケ谷市,東道野辺７丁目１０番２９号,,12,224,2730115,,,2023-07-14,清算の結了等,,,2015-10-05,1,,,,,エフアンドエヌ,0
2866,9040005017606,登記記録の閉鎖等,0,2023-08-09,2023-07-18,あさひ住環境整備協同組合,,その他の設立登記法人,千葉県,旭市,神宮寺２１０６番地,,12,215,2892524,,,2023-07-18,清算の結了等,,,2015-10-05,1,,,,,アサヒジュウカンキョウセイビ,0
2888,9100003004995,登記記録の閉鎖等,0,2023-08-09,2023-08-03,オルタード合同会社,,合同会社,長野県,上田市,別所温泉１９６サクラハウス３０１号,,20,203,3861431,,,2023-08-03,清算の結了等,,,2018-05-23,1,,,,,オルタード,0
2892,9110001035959,登記記録の閉鎖等,0,2023-08-09,2023-08-01,株式会社とちたて不動産,,株式会社,新潟県,新潟市中央区,天神１丁目１番地プラーカ３、２Ｆ,,15,103,9500917,,,2023-08-01,合併による解散等,5110001029089,令和５年８月１日新潟市中央区日の出一丁目９番２２号株式会社とちたて（5110001029089）に合併し解散,2021-08-06,1,,,,,トチタテフドウサン,0
2904,9120002007394,登記記録の閉鎖等,0,2023-08-09,2023-08-02,有限会社ミリオン製作所,,有限会社,大阪府,大阪市東成区,大今里南５丁目１６番４号,,27,115,5370013,,,2023-08-02,清算の結了等,,,2015-10-05,1,,,,,ミリオンセイサクショ,0
2912,9120005010593,登記記録の閉鎖等,0,2023-08-09,2023-08-07,特定非営利活動法人シニアメッセージ２１,,その他の設立登記法人,大阪府,大阪市都島区,友渕町１丁目５番８号ベルパークシティＪ棟２１０７号,,27,102,5340016,,,2023-08-07,清算の結了等,,,2015-10-05,1,,,,,シニアメッセージニジュウイチ,0
2924,9120901036072,登記記録の閉鎖等,0,2023-08-09,2023-08-03,株式会社コラボ,,株式会社,兵庫県,伊丹市,松ケ丘１丁目１５７番地,,28,207,6640024,,,2023-08-03,清算の結了等,,,2015-10-30,1,,,,,コラボ,0
2930,9130001069740,登記記録の閉鎖等,0,2023-08-09,2023-07-24,セリーナコンサルティング株式会社,,株式会社,京都府,京都市中京区,御池通東洞院東入笹屋町４３６永和御池ビル６０６号,,26,104,6048187,,,2023-07-24,清算の結了等,,,2021-07-15,1,"Selina Consulting Co., Ltd.",Kyoto,"606 Eiwaoike Building, 436 Sasaya Cho (Oike-dori Higashinotoin Higashiiru), Nakagyo Ward, Kyoto City",,セリーナコンサルティング,0
2931,9130001071151,登記記録の閉鎖等,0,2023-08-09,2023-08-03,セラベストジャパン株式会社,,株式会社,兵庫県,神戸市中央区,港島南町６丁目３番地の７,,28,110,6500047,,,2023-08-03,清算の結了等,,,2022-02-17,1,,,,,セラベストジャパン,0
2953,9170005005283,登記記録の閉鎖等,0,2023-08-09,2023-08-07,医療法人井畑医院,,その他の設立登記法人,和歌山県,新宮市,三輪崎２丁目３番２１号,,30,207,6470061,,,2023-08-07,清算の結了等,,,2015-10-05,1,,,,,イバタイイン,0
2956,9180001096895,登記記録の閉鎖等,0,2023-08-09,2023-08-04,株式会社名神,,株式会社,愛知県,海部郡蟹江町,大字蟹江新田字上芝切２３４番地,,23,425,4970044,,,2023-08-04,合併による解散等,9180001096813,令和５年８月１日名古屋市中区丸の内二丁目１番３７号エスパシオ丸の内９階カニエＪＡＰＡＮ株式会社（9180001096813）に合併し解散,2015-10-05,1,,,,,メイシン,0
2984,9230001006469,登記記録の閉鎖等,0,2023-08-09,2023-08-07,澤井建設株式会社,,株式会社,富山県,中新川郡立山町,女川新１２２番地,,16,323,9303202,,,2023-08-07,清算の結了等,,,2015-10-05,1,,,,,サワイケンセツ,0
3014,9310002012334,登記記録の閉鎖等,0,2023-08-09,2023-08-02,有限会社石村建築設計事務所,,有限会社,長崎県,東彼杵郡波佐見町,折敷瀬郷２１７６番地,,42,323,8593701,,,2023-08-02,清算の結了等,,,2015-10-05,1,,,,,イシムラケンチクセッケイジムショ,0
3021,9340001010212,登記記録の閉鎖等,0,2023-08-09,2023-08-07,株式会社新山物流,,株式会社,鹿児島県,大島郡伊仙町,大字伊仙３２０８番地,,46,532,8918201,,,2023-08-07,清算の結了等,,,2015-10-05,1,,,,,ニイヤマブツリュウ,0
3025,9340002012372,登記記録の閉鎖等,0,2023-08-09,2023-08-07,有限会社アンアン,,有限会社,鹿児島県,鹿児島市,東谷山２丁目２２番５－１号,,46,201,8910113,,,2023-08-07,清算の結了等,,,2015-10-05,1,,,,,,0
3026,9340002025787,登記記録の閉鎖等,0,2023-08-09,2023-08-04,有限会社大丸農産,,有限会社,鹿児島県,鹿屋市,川東町７２０４番地６,,46,203,8930031,,,2023-08-04,清算の結了等,,,2015-10-05,1,,,,,ダイマルノウサン,0
3041,9380002014308,登記記録の閉鎖等,0,2023-08-09,2023-08-03,有限会社スノーク,,有限会社,福島県,郡山市,桑野１丁目１３番２２号－２０９号,,07,203,9638025,,,2023-08-03,清算の結了等,,,2015-10-05,1,,,,,スノーク,0
3044,9400001005932,登記記録の閉鎖等,0,2023-08-09,2023-08-02,株式会社銀河高原ビール,,株式会社,長野県,北佐久郡御代田町,大字馬瀬口１８７３番地４,,20,323,3890207,,,2023-08-02,清算の結了等,,,2015-10-05,1,,,,,ギンガコウゲンビール,0
