sequenceNumber,corporateNumber,process,correct,updateDate,changeDate,name,nameImageId,kind,prefectureName,cityName,streetNumber,addressImageId,prefectureCode,cityCode,postCode,addressOutside,addressOutsideImageId,closeDate,closeCause,successorCorporateNumber,changeCause,assignmentDate,latest,enName,enPrefectureName,enCityName,enAddressOutside,furigana,hihyoji
8,1010001229462,新規,0,2022-09-12,2022-09-12,株式会社千羽,,株式会社,東京都,千代田区,神田須田町１丁目７番１号ウィン神田ビル４階アントレオフィス秋葉原Ａ４１０号室,,13,101,1010041,,,,,,,2022-09-12,1,,,,,チハネ,0
9,1010001229479,新規,0,2022-09-12,2022-09-12,株式会社ＳＨＩＰ第３０４号,,株式会社,東京都,千代田区,丸の内２丁目７番２号,,13,101,1000005,,,,,,,2022-09-12,1,,,,,エスエイチアイピーダイサンビャクヨンゴウ,0
23,1010401169630,新規,0,2022-09-12,2022-09-12,教育情報パートナーズ株式会社,,株式会社,東京都,港区,浜松町２丁目２番１５号浜松町ダイヤビル２Ｆ,,13,103,1050013,,,,,,,2022-09-12,1,,,,,キョウイクジョウホウパートナーズ,0
24,1010401169639,新規,0,2022-09-12,2022-09-12,ＦＯＯＤ　Ｃｕｒｅ株式会社,,株式会社,東京都,港区,南青山２丁目２番１５号ウィン青山１２１４号,,13,103,1070062,,,,,,,2022-09-12,1,,,,,フードキュア,0
25,1010401169655,新規,0,2022-09-12,2022-09-12,株式会社Ｓｔｕｄｉｏ　ＫＵＭＡＳＡＮ,,株式会社,東京都,港区,六本木３丁目２番１号,,13,103,1060032,,,,,,,2022-09-12,1,,,,,スタジオクマサン,0
26,1010401169671,新規,0,2022-09-12,2022-09-12,株式会社クレア・ビータ,,株式会社,東京都,港区,南青山２丁目２番１５号ウィン青山９４２,,13,103,1070062,,,,,,,2022-09-12,1,,,,,クレアビータ,0
32,1010403028446,新規,0,2022-09-12,2022-09-12,合同会社ＳＭＨ　Ｄｅｖｅｌｏｐｍｅｎｔ,,合同会社,東京都,港区,南青山３丁目１７番３号,,13,103,1070062,,,,,,,2022-09-12,1,,,,,エスエムエイチデベロップメント,0
44,1010901051619,新規,0,2022-09-12,2022-09-12,株式会社ダダーズ,,株式会社,東京都,世田谷区,太子堂４丁目２３－９ｏｒｄｉｎ三茶１ｓｔビル７Ｆ,,13,112,1540004,,,,,,,2022-09-12,1,,,,,ダダーズ,0
51,1011001149650,新規,0,2022-09-12,2022-09-12,株式会社シティ,,株式会社,東京都,渋谷区,神宮前２丁目１３－５第６渡辺ビル３Ｆ,,13,113,1500001,,,,,,,2022-09-12,1,,,,,シティ,0
52,1011001149733,新規,0,2022-09-12,2022-09-12,株式会社レイヴンＭａｋｅｓ,,株式会社,東京都,渋谷区,渋谷２丁目９番８号日総第２５ビル,,13,113,1500002,,,,,,,2022-09-12,1,,,,,レイヴンメイクス,0
57,1011105010394,新規,0,2022-09-12,2022-09-12,特定非営利活動法人君だけの道育英会,,その他の設立登記法人,東京都,新宿区,北新宿１丁目４番１１号ＹＭＤビル２０３,,13,104,1690074,,,,,,,2022-09-12,1,,,,,キミダケノドウイクエイカイ,0
70,1011701025597,新規,0,2022-09-12,2022-09-12,株式会社ライズワン,,株式会社,東京都,江戸川区,松江７丁目２４番２号,,13,123,1320025,,,,,,,2022-09-12,1,,,,,ライズワン,0
73,1011801041271,新規,0,2022-09-12,2022-09-12,大幸工業株式会社,,株式会社,東京都,葛飾区,青戸３丁目３７番１５号京成青戸ビル３Ｆ,,13,122,1250062,,,,,,,2022-09-12,1,,,,,ダイコウコウギョウ,0
76,1012401039631,新規,0,2022-09-12,2022-09-12,株式会社木塊,,株式会社,東京都,武蔵野市,吉祥寺南町３丁目１８番５号,,13,203,1800003,,,,,,,2022-09-12,1,,,,,モッカイ,0
83,1020001148109,新規,0,2022-09-12,2022-09-12,新亜エレクトロニクスジャパン株式会社,,株式会社,神奈川県,横浜市港北区,新横浜３丁目１７－１２－２Ｆ,,14,109,2220033,,,,,,,2022-09-12,1,,,,,シンヤエレクトロニクスジャパン,0
84,1020001148182,新規,0,2022-09-12,2022-09-12,株式会社ａｏ,,株式会社,神奈川県,横浜市栄区,本郷台４丁目２８番１８号,,14,115,2470008,,,,,,,2022-09-12,1,,,,,アオ,0
86,1020003022369,新規,0,2022-09-12,2022-09-12,キャリー・オンサポート合同会社,,合同会社,神奈川県,横浜市都筑区,東山田１丁目３７番３４号,,14,118,2240023,,,,,,,2022-09-12,1,,,,,キャリーオンサポート,0
89,1021001076968,新規,0,2022-09-12,2022-09-12,株式会社ルークル,,株式会社,神奈川県,相模原市中央区,横山３丁目３１－１淡路ビル４０３,,14,152,2520242,,,,,,,2022-09-12,1,,,,,ルークル,0
91,1021003012129,新規,0,2022-09-12,2022-09-12,合同会社ＳＵＮ　ＨＩＬＬ,,合同会社,神奈川県,厚木市,上荻野６８０－２－１,,14,212,2430201,,,,,,,2022-09-12,1,,,,,サンヒル,0
92,1021005012614,新規,0,2022-09-12,2022-09-12,特定非営利活動法人ホームホスピス絆,,その他の設立登記法人,神奈川県,逗子市,逗子６丁目７番９号,,14,208,2490006,,,,,,,2022-09-12,1,,,,,ホームホスピスキズナ,0
95,1030001150006,新規,0,2022-09-12,2022-09-12,株式会社アリア,,株式会社,埼玉県,熊谷市,万吉２５０８番地１９,,11,202,3600161,,,,,,,2022-09-12,1,,,,,アリア,0
96,1030001150055,新規,0,2022-09-12,2022-09-12,株式会社Ｔｏ　Ｄｏ　Ｃａｒｅ,,株式会社,埼玉県,越谷市,谷中町１丁目５１番地１,,11,222,3430856,,,,,,,2022-09-12,1,,,,,トゥドゥケアー,0
98,1030003020173,新規,0,2022-09-12,2022-09-12,合同会社スカール,,合同会社,埼玉県,草加市,新里町１４２２ヴィシティ草加１－４１６号,,11,221,3400031,,,,,,,2022-09-12,1,,,,,スカール,0
99,1030003020181,新規,0,2022-09-12,2022-09-12,合同会社クレージュ,,合同会社,埼玉県,和光市,白子３丁目２４番９－２号,,11,229,3510101,,,,,,,2022-09-12,1,,,,,クレージュ,0
106,1040005021730,新規,0,2022-09-12,2022-09-12,一般社団法人ふなばしリカレント教育協会,,その他の設立登記法人,千葉県,船橋市,馬込西２丁目１８番１４号,,12,204,2730855,,,,,,,2022-09-12,1,,,,,フナバシリカレントキョウイクキョウカイ,0
107,1050001051672,新規,0,2022-09-12,2022-09-12,ルミエ株式会社,,株式会社,茨城県,水戸市,笠原町１１８９－２グリーンヒル西野ビル,,08,201,3100852,,,,,,,2022-09-12,1,,,,,ルミエ,0
113,1070001039633,新規,0,2022-09-12,2022-09-12,株式会社ＵＩＫ,,株式会社,群馬県,前橋市,敷島町２６１番地４６,,10,201,3710036,,,,,,,2022-09-12,1,,,,,ユーアイケー,0
124,1100005012913,新規,0,2022-09-12,2022-09-12,グリーン税理士法人,,その他の設立登記法人,長野県,長野市,南千歳１丁目１７番地３,,20,201,3800823,,,,,,,2022-09-12,1,,,,,グリーン,0
128,1110001036964,新規,0,2022-09-12,2022-09-12,ＦＣＥテック株式会社,,株式会社,新潟県,阿賀野市,久保１７６５番地２,,15,223,9592212,,,,,,,2022-09-12,1,,,,,エフシーイーテック,0
136,1120001248798,新規,0,2022-09-12,2022-09-12,株式会社８Ｔ,,株式会社,大阪府,大阪市西区,南堀江１丁目３番１２－３４０１号,,27,106,5500015,,,,,,,2022-09-12,1,,,,,エイトティ,0
140,1120101066209,新規,0,2022-09-12,2022-09-12,オディシススイーツ大阪オペレーションズ株式会社,,株式会社,大阪府,泉佐野市,りんくう往来北１番地,,27,213,5980048,,,,,,,2022-09-12,1,,,,,オディシススイーツオオサカオペレーションズ,0
142,1122001036225,新規,0,2022-09-12,2022-09-12,豊縁商事株式会社,,株式会社,大阪府,東大阪市,高井田西１丁目３番１８号,,27,227,5770067,,,,,,,2022-09-12,1,,,,,ホウエンショウジ,0
147,1130001072578,新規,0,2022-09-12,2022-09-12,艸居アツミ株式会社,,株式会社,京都府,京都市西京区,大枝北沓掛町４丁目４番地６,,26,111,6101101,,,,,,,2022-09-12,1,,,,,ソウキョアツミ,0
153,1140001127356,新規,0,2022-09-12,2022-09-12,株式会社ＡＳＬＡＮ,,株式会社,兵庫県,川西市,けやき坂４丁目１４－１０,,28,217,6660145,,,,,,,2022-09-12,1,,,,,アスラン,0
157,1140003018108,新規,0,2022-09-12,2022-09-12,合同会社松蒼,,合同会社,兵庫県,西宮市,豊楽町１２－３６,,28,204,6620072,,,,,,,2022-09-12,1,,,,,ショウソウ,0
158,1140003018116,新規,0,2022-09-12,2022-09-12,合同会社かさはら,,合同会社,兵庫県,尼崎市,武庫の里１丁目１７番１４－２号,,28,202,6610041,,,,,,,2022-09-12,1,,,,,カサハラ,0
173,1180001152978,新規,0,2022-09-12,2022-09-12,株式会社ＭＩＮＡＴＯ,,株式会社,愛知県,名古屋市東区,泉１丁目２３番３７号,,23,102,4610001,,,,,,,2022-09-12,1,,,,,ミナト,0
182,1180003024242,新規,0,2022-09-12,2022-09-12,合同会社すまいりー,,合同会社,愛知県,名古屋市中村区,太閤１丁目２０－１０名古屋プレミアム医療モール太閤４Ｆ,,23,105,4530801,,,,,,,2022-09-12,1,,,,,スマイリー,0
184,1180303005438,新規,0,2022-09-12,2022-09-12,合同会社こだまの家ＭＯＯＮ,,合同会社,愛知県,豊田市,藤岡飯野町田ノ平２７番地２,,23,211,4700451,,,,,,,2022-09-12,1,,,,,コダマノイエムーン,0
189,1210001019083,新規,0,2022-09-12,2022-09-12,株式会社白亜,,株式会社,福井県,福井市,大手２丁目６番４号,,18,201,9100005,,,,,,,2022-09-12,1,,,,,ハクア,0
215,1290003012938,新規,0,2022-09-12,2022-09-12,ＴＴＬ合同会社,,合同会社,福岡県,久留米市,東和町４番地５,,40,203,8300035,,,,,,,2022-09-12,1,,,,,ティーティーエル,0
224,1320001019329,新規,0,2022-09-12,2022-09-12,株式会社行成,,株式会社,大分県,別府市,浜町２０番１７号,,44,202,8740945,,,,,,,2022-09-12,1,,,,,ユキナリ,0
229,1370001049049,新規,0,2022-09-12,2022-09-12,株式会社未来渡,,株式会社,宮城県,仙台市青葉区,本町１丁目１３－３２,,04,101,9800014,,,,,,,2022-09-12,1,,,,,ミライト,0
234,1390005008973,新規,0,2022-09-12,2022-09-12,一般社団法人全国社会活動支援協会,,その他の設立登記法人,山形県,天童市,老野森２丁目５番２号２階,,06,210,9940013,,,,,,,2022-09-12,1,,,,,ゼンコクシャカイカツドウシエンキョウカイ,0
246,1460005001558,新規,0,2022-09-12,2022-09-12,医療法人釧路こうわクリニック,,その他の設立登記法人,北海道,釧路郡釧路町,光和２丁目２２番地,,01,661,0880623,,,,,,,2022-09-12,1,,,,,クシロコウワクリニック,0
247,1460301005097,新規,0,2022-09-12,2022-09-12,Ｇｒａｃｅ　Ｄｏｏｒ株式会社,,株式会社,北海道,網走郡美幌町,字青山北３７番地の６,,01,543,0920066,,,,,,,2022-09-12,1,,,,,グレイスドア,0
250,1470005006465,新規,0,2022-09-12,2022-09-12,医療法人かしづかクリニック,,その他の設立登記法人,香川県,三豊市,高瀬町下勝間２３２４番地,,37,208,7670011,,,,,,,2022-09-12,1,,,,,カシヅカクリニック,0
251,1500001024459,新規,0,2022-09-12,2022-09-12,ｂａ株式会社,,株式会社,愛媛県,松山市,三番町１丁目４番地４レジデンス三番町壱番館４０１号,,38,201,7900003,,,,,,,2022-09-12,1,,,,,ビーエー,0
266,2010001229478,新規,0,2022-09-12,2022-09-12,株式会社ＳＨＩＰ第３０５号,,株式会社,東京都,千代田区,丸の内２丁目７番２号,,13,101,1000005,,,,,,,2022-09-12,1,,,,,エスエイチアイピーダイサンビャクゴゴウ,0
268,2010003038596,新規,0,2022-09-12,2022-09-12,合同会社ＨＩ０号,,合同会社,東京都,千代田区,丸の内３丁目１番１号東京共同会計事務所内,,13,101,1000005,,,,,,,2022-09-12,1,,,,,エイチアイゼロゴウ,0
269,2010005035542,新規,0,2022-09-12,2022-09-12,一般社団法人図書館等公衆送信補償金管理協会,,その他の設立登記法人,東京都,千代田区,神田神保町１丁目３２番地,,13,101,1010051,,,,,,,2022-09-12,1,,,,,トショカントウコウシュウソウシンホショウキンカンリキョウカイ,0
276,2010401169596,新規,0,2022-09-12,2022-09-12,株式会社茜坂大沼,,株式会社,東京都,港区,赤坂３丁目１２番２号,,13,103,1070052,,,,,,,2022-09-12,1,,,,,アカネザカオオヌマ,0
277,2010401169605,新規,0,2022-09-12,2022-09-12,株式会社エムアンドエディターズ,,株式会社,東京都,港区,赤坂９丁目１番７号赤坂レジデンシャルホテル５０６号,,13,103,1070052,,,,,,,2022-09-12,1,,,,,エムアンドエディターズ,0
278,2010401169638,新規,0,2022-09-12,2022-09-12,株式会社キャピタリンク・ソリューションズ,,株式会社,東京都,港区,六本木５丁目１１番１６号,,13,103,1060032,,,,,,,2022-09-12,1,,,,,キャピタリンクソリューションズ,0
279,2010401169662,新規,0,2022-09-12,2022-09-12,株式会社Ｗａｌｌｉｎｇｆｏｒｄ,,株式会社,東京都,港区,東新橋２丁目１０番７－２０２号,,13,103,1050021,,,,,,,2022-09-12,1,,,,,ウォリングフォード,0
287,2010405021373,新規,0,2022-09-12,2022-09-12,ＡＣＲＥＦ　ＯＳＬ一般社団法人,,その他の設立登記法人,東京都,港区,赤坂２丁目１０番５号税理士法人赤坂国際会計事務所内,,13,103,1070052,,,,,,,2022-09-12,1,,,,,エーシーアールイーエフオーエスエル,0
301,2010701043187,新規,0,2022-09-12,2022-09-12,株式会社Ａｉｉｄ,,株式会社,東京都,品川区,南大井６丁目２４番１４号,,13,109,1400013,,,,,,,2022-09-12,1,,,,,エイド,0
302,2010701043204,新規,0,2022-09-12,2022-09-12,株式会社ＡＭＢＩＴＩＯＮ　ＡＣＡＤＥＭＹ,,株式会社,東京都,品川区,北品川５丁目１６－９,,13,109,1410001,,,,,,,2022-09-12,1,,,,,アンビションアカデミー,0
308,2011001149625,新規,0,2022-09-12,2022-09-12,株式会社Ｍｅｔａｍａｇｉｃ,,株式会社,東京都,渋谷区,松濤１丁目２８－２ＷＯＲＫＣＯＵＲＴ渋谷松濤,,13,113,1500046,,,,,,,2022-09-12,1,,,,,メタマジック,0
309,2011001149658,新規,0,2022-09-12,2022-09-12,株式会社ＹＵＭＲＩＣＨ,,株式会社,東京都,渋谷区,東２丁目９－８瑞光マンション１０５,,13,113,1500011,,,,,,,2022-09-12,1,,,,,ヤムリッチ,0
310,2011001149674,新規,0,2022-09-12,2022-09-12,株式会社ユラルズ,,株式会社,東京都,渋谷区,渋谷２丁目２－１７,,13,113,1500002,,,,,,,2022-09-12,1,,,,,ユラルズ,0
311,2011001149732,新規,0,2022-09-12,2022-09-12,株式会社ＭＥＤＩＳＴＯ,,株式会社,東京都,渋谷区,神宮前６丁目２３番４号桑野ビル２階,,13,113,1500001,,,,,,,2022-09-12,1,,,,,メディスト,0
318,2011003015354,新規,0,2022-09-12,2022-09-12,合同会社アカサク,,合同会社,東京都,渋谷区,神宮前６丁目２３番４号桑野ビル２階,,13,113,1500001,,,,,,,2022-09-12,1,,,,,アカサク,0
319,2011005009718,新規,0,2022-09-12,2022-09-12,一般社団法人ウェブ広告協会,,その他の設立登記法人,東京都,渋谷区,渋谷３丁目１９番１号,,13,113,1500002,,,,,,,2022-09-12,1,,,,,ウェブコウコクキョウカイ,0
332,2011401024535,新規,0,2022-09-12,2022-09-12,株式会社Ｒ．Ｓ,,株式会社,東京都,板橋区,若木２丁目１４番１４号,,13,119,1740065,,,,,,,2022-09-12,1,,,,,アールエス,0
334,2011403003768,新規,0,2022-09-12,2022-09-12,ＳＵＮ　ＰＶ　ＰＯＷＥＲ合同会社,,合同会社,東京都,板橋区,蓮根２丁目２７番１２号,,13,119,1740046,,,,,,,2022-09-12,1,,,,,サンピービーパワー,0
338,2011601026240,新規,0,2022-09-12,2022-09-12,株式会社ｓｈｏｗｔｉｍｅ,,株式会社,東京都,練馬区,田柄４丁目１番３号,,13,120,1790073,,,,,,,2022-09-12,1,,,,,ショウタイム,0
342,2011703003253,新規,0,2022-09-12,2022-09-12,美咲内装合同会社,,合同会社,東京都,江戸川区,松江３丁目１８番４号,,13,123,1320025,,,,,,,2022-09-12,1,,,,,ミサキナイソウ,0
354,2013301049637,新規,0,2022-09-12,2022-09-12,株式会社中央ホールディングス,,株式会社,東京都,豊島区,南大塚３丁目４２番５号,,13,116,1700005,,,,,,,2022-09-12,1,,,,,チュウオウホールディングス,0
355,2013301049645,新規,0,2022-09-12,2022-09-12,株式会社トライサウンド,,株式会社,東京都,豊島区,東池袋３丁目８番５号パレドール池袋６０２号室,,13,116,1700013,,,,,,,2022-09-12,1,,,,,トライサウンド,0
356,2013303006289,新規,0,2022-09-12,2022-09-12,合同会社ホーストーム,,合同会社,東京都,豊島区,千早２丁目３４番１７号ミハス千早２０９号,,13,116,1710044,,,,,,,2022-09-12,1,,,,,ホーストーム,0
357,2013305003383,新規,0,2022-09-12,2022-09-12,特定非営利活動法人リテル,,その他の設立登記法人,東京都,豊島区,東池袋４丁目２９番６号三角ビル４Ｆ,,13,116,1700013,,,,,,,2022-09-12,1,,,,,リテル,0
362,2020001148157,新規,0,2022-09-12,2022-09-12,株式会社Ｃｈａｐｔｅｒｓ,,株式会社,神奈川県,横浜市港北区,菊名６丁目６番１号,,14,109,2220011,,,,,,,2022-09-12,1,,,,,チャプターズ,0
363,2020001148173,新規,0,2022-09-12,2022-09-12,特莱米株式会社,,株式会社,神奈川県,横浜市西区,花咲町４丁目１０７番地６藤和シティホームズ桜木町５０２号,,14,103,2200022,,,,,,,2022-09-12,1,,,,,トクライメイ,0
364,2020003022368,新規,0,2022-09-12,2022-09-12,合同会社虎鷹地所,,合同会社,神奈川県,横浜市中区,山下町２２２－３ドメス山下町１２０５号室,,14,104,2310023,,,,,,,2022-09-12,1,,,,,トラタカジショ,0
365,2020005015659,新規,0,2022-09-12,2022-09-12,建設発生土事業協同組合,,その他の設立登記法人,神奈川県,横浜市西区,高島町二丁目１１番２号,,14,103,2200000,,,,,,,2022-09-12,1,,,,,ケンセツハッセイドジギョウ,0
373,2021003012128,新規,0,2022-09-12,2022-09-12,ＰＲＥＭＩＵＭ商会合同会社,,合同会社,神奈川県,高座郡寒川町,大蔵３４７５－１,,14,321,2530104,,,,,,,2022-09-12,1,,,,,プルミエムショカイ,0
382,2030001149996,新規,0,2022-09-12,2022-09-12,株式会社聖鋼業,,株式会社,埼玉県,蕨市,北町５丁目６番２５号ミルフルール３０１号,,11,223,3350001,,,,,,,2022-09-12,1,,,,,ヒジリコウギョウ,0
383,2030001150046,新規,0,2022-09-12,2022-09-12,株式会社ＬＭＬ,,株式会社,埼玉県,草加市,新里町１４２２番地・４－４２０号,,11,221,3400031,,,,,,,2022-09-12,1,,,,,エルエムエル,0
384,2030001150054,新規,0,2022-09-12,2022-09-12,株式会社藤野,,株式会社,埼玉県,深谷市,武蔵野１７８６番地,,11,218,3691241,,,,,,,2022-09-12,1,,,,,フジノ,0
385,2030001150062,新規,0,2022-09-12,2022-09-12,株式会社ケイズワン,,株式会社,埼玉県,桶川市,大字篠津１５４番地の２,,11,231,3630003,,,,,,,2022-09-12,1,,,,,ケイズワン,0
386,2030001150070,新規,0,2022-09-12,2022-09-12,株式会社ｎｏｂｌｅｍｅ,,株式会社,埼玉県,上尾市,中妻３丁目１４番地３,,11,219,3620072,,,,,,,2022-09-12,1,,,,,ノブルム,0
387,2030003020164,新規,0,2022-09-12,2022-09-12,ディーアイエム合同会社,,合同会社,埼玉県,羽生市,大字稲子１３２８,,11,216,3480061,,,,,,,2022-09-12,1,,,,,ディーアイエム,0
394,2040001125022,新規,0,2022-09-12,2022-09-12,ダイワホーム株式会社,,株式会社,千葉県,浦安市,猫実４丁目６番２６号,,12,227,2790004,,,,,,,2022-09-12,1,,,,,ダイワホーム,0
400,2040003020782,新規,0,2022-09-12,2022-09-12,合同会社ちひろ,,合同会社,千葉県,千葉市中央区,中央２丁目５－１千葉中央ツインビル２号館７階,,12,101,2600013,,,,,,,2022-09-12,1,,,,,チヒロ,0
401,2040003020808,新規,0,2022-09-12,2022-09-12,Ｎ‐Ｈ合同会社,,合同会社,千葉県,四街道市,和良比１１８－７スプリングスプレイス２０５,,12,228,2840044,,,,,,,2022-09-12,1,,,,,エヌエイチ,0
402,2040003020824,新規,0,2022-09-12,2022-09-12,合同会社Ｖａｌｓｈｅ,,合同会社,千葉県,柏市,つくしが丘５丁目８－１５,,12,217,2770072,,,,,,,2022-09-12,1,,,,,バルシェ,0
408,2070001039624,新規,0,2022-09-12,2022-09-12,株式会社ＳＥＡ,,株式会社,群馬県,太田市,東別所町１７５番地１,,10,205,3730815,,,,,,,2022-09-12,1,,,,,シー,0
414,2090001017776,新規,0,2022-09-12,2022-09-12,株式会社まつもといちご,,株式会社,山梨県,甲府市,小瀬町４７６番地３,,19,201,4000836,,,,,,,2022-09-12,1,,,,,マツモトイチゴ,0
423,2110005016854,新規,0,2022-09-12,2022-09-12,みらい人財国際事業協同組合,,その他の設立登記法人,新潟県,新潟市南区,茨曽根６４０１番地１,,15,106,9501456,,,,,,,2022-09-12,1,,,,,ミライジンザイコクサイ,0
432,2120001248541,新規,0,2022-09-12,2022-09-12,趣玩堂株式会社,,株式会社,大阪府,大阪市東成区,神路４丁目３－１０スターレジデンス新深江５０５号室,,27,115,5370003,,,,,,,2022-09-12,1,,,,,シュガンドウ,0
433,2120001248780,新規,0,2022-09-12,2022-09-12,株式会社Ｏ＆Ｏ,,株式会社,大阪府,大阪市中央区,淡路町３丁目５番１３号創建御堂筋ビル２階,,27,128,5410047,,,,,,,2022-09-12,1,,,,,オーアンドオー,0
434,2120001248797,新規,0,2022-09-12,2022-09-12,株式会社ウロボロス,,株式会社,大阪府,大阪市西区,南堀江１丁目２６番２７号南堀江スカイハイツ９０５号室,,27,106,5500015,,,,,,,2022-09-12,1,,,,,ウロボロス,0
435,2120003022432,新規,0,2022-09-12,2022-09-12,合同会社上田商事,,合同会社,大阪府,大阪市生野区,新今里５丁目１５番１７号ブランシュＩＩ３Ａ号室,00127811,27,116,5440001,,,,,,,2022-09-12,1,,,,,ウエダショウジ,0
438,2120101066224,新規,0,2022-09-12,2022-09-12,株式会社シーティーエル,,株式会社,大阪府,和泉市,幸３丁目７番３８号,,27,219,5940005,,,,,,,2022-09-12,1,,,,,シーティーエル,0
440,2120905006367,新規,0,2022-09-12,2022-09-12,特定非営利活動法人おお樹に,,その他の設立登記法人,大阪府,豊中市,新千里南町２丁目７番８－２０１号,,27,203,5600084,,,,,,,2022-09-12,1,,,,,オオキニ,0
441,2122001036224,新規,0,2022-09-12,2022-09-12,株式会社ＫＥＮＫＯ,,株式会社,大阪府,東大阪市,長田東１丁目２番１８－８０１号,,27,227,5770012,,,,,,,2022-09-12,1,,,,,ケンコー,0
446,2130001072610,新規,0,2022-09-12,2022-09-12,株式会社ひのき硝子,,株式会社,京都府,京都市西京区,上桂前田町３番地の１０,,26,111,6158223,,,,,,,2022-09-12,1,,,,,ヒノキガラス,0
453,2140001127347,新規,0,2022-09-12,2022-09-12,株式会社優,,株式会社,兵庫県,神戸市灘区,岩屋北町２丁目２番９号,,28,102,6570846,,,,,,,2022-09-12,1,,,,,ユウ,0
462,2180001152837,新規,0,2022-09-12,2022-09-12,株式会社ＢＯＳＳＭＹＴＥ,,株式会社,愛知県,名古屋市守山区,大字上志段味字稲堀田新田１９２２番地,,23,113,4630001,,,,,,,2022-09-12,1,,,,,ボスマイト,0
463,2180001152977,新規,0,2022-09-12,2022-09-12,ビーセルフ株式会社,,株式会社,愛知県,名古屋市西区,名駅２丁目３４番１７号,,23,104,4510045,,,,,,,2022-09-12,1,,,,,ビーセルフ,0
464,2180001152985,新規,0,2022-09-12,2022-09-12,株式会社レアル運送,,株式会社,愛知県,春日井市,鳥居松町４丁目１６５番地春日井中央ビル１階,,23,206,4860844,,,,,,,2022-09-12,1,,,,,レアルウンソウ,0
465,2180001152993,新規,0,2022-09-12,2022-09-12,クレデンシャル・アンド・カンパニー株式会社,,株式会社,愛知県,名古屋市西区,牛島町６番１号名古屋ルーセントタワー４０階,,23,104,4510046,,,,,,,2022-09-12,1,,,,,クレデンシャルアンドカンパニー,0
472,2180303005437,新規,0,2022-09-12,2022-09-12,合同会社サイドキックスジャパン,,合同会社,愛知県,岡崎市,竜美台１丁目１１番地１２,,23,202,4440873,,,,,,,2022-09-12,1,,,,,サイドキックスジャパン,0
478,2200003005668,新規,0,2022-09-12,2022-09-12,ＡＪジャパン合同会社,,合同会社,岐阜県,多治見市,田代町１丁目５９番地Ｔ－ＢＡＳＥ－４０２,,21,204,5070036,,,,,,,2022-09-12,1,,,,,エイジェイジャパン,0
479,2200005013388,新規,0,2022-09-12,2022-09-12,一般社団法人スポーツと人をつなげる会,,その他の設立登記法人,岐阜県,瑞浪市,寺河戸町９３８番地の２,,21,208,5096121,,,,,,,2022-09-12,1,,,,,スポーツトヒトヲツナゲルカイ,0
484,2240003005796,新規,0,2022-09-12,2022-09-12,合同会社ひらの,,合同会社,広島県,広島市南区,皆実町４丁目２４番１２号,,34,103,7340007,,,,,,,2022-09-12,1,,,,,ヒラノ,0
488,2260001037245,新規,0,2022-09-12,2022-09-12,還童幹鍼灸接骨院株式会社,,株式会社,岡山県,津山市,東一宮４６番地９,,33,203,7080814,,,,,,,2022-09-12,1,,,,,カンゲンジュシンキュウセッコツイン,0
499,2290001098813,新規,0,2022-09-12,2022-09-12,株式会社ＯｆｆｉｃｅＳａｓａｋｉ,,株式会社,福岡県,福岡市博多区,博多駅前２丁目１０番１９号ＦＦＢ,,40,132,8120011,,,,,,,2022-09-12,1,,,,,オフィスササキ,0
500,2290001098895,新規,0,2022-09-12,2022-09-12,株式会社ファインテイスト,,株式会社,福岡県,久留米市,梅満町１６３４番地１,,40,203,8300048,,,,,,,2022-09-12,1,,,,,ファインテイスト,0
516,2370003005825,新規,0,2022-09-12,2022-09-12,合同会社ＳＶクリエーション,,合同会社,宮城県,仙台市青葉区,花京院１丁目４番４７号ＡＬＬＥＬＬ花京院ビル２Ｆ,,04,101,9800013,,,,,,,2022-09-12,1,,,,,エスブイクリエーション,0
532,2470001019255,新規,0,2022-09-12,2022-09-12,株式会社ルミエール,,株式会社,香川県,高松市,国分寺町国分５７８番地１,,37,201,7690102,,,,,,,2022-09-12,1,,,,,ルミエール,0
534,2470003002250,新規,0,2022-09-12,2022-09-12,つむぐ合同会社,,合同会社,香川県,高松市,六条町１４１８番地１３,,37,201,7610303,,,,,,,2022-09-12,1,,,,,ツムグ,0
550,3010001229469,新規,0,2022-09-12,2022-09-12,株式会社曹,,株式会社,東京都,千代田区,平河町１丁目６－１５ＵＳビル８Ｆ,,13,101,1020093,,,,,,,2022-09-12,1,,,,,ソウ,0
551,3010001229477,新規,0,2022-09-12,2022-09-12,株式会社ＳＨＩＰ第３０６号,,株式会社,東京都,千代田区,丸の内２丁目７番２号,,13,101,1000005,,,,,,,2022-09-12,1,,,,,エスエイチアイピーダイサンビャクロクゴウ,0
559,3010401169604,新規,0,2022-09-12,2022-09-12,株式会社Ｙｕｉ’ｓ,,株式会社,東京都,港区,南青山３丁目１番３６号青山丸竹ビル６Ｆ,,13,103,1070062,,,,,,,2022-09-12,1,,,,,ユイズ,0
560,3010401169629,新規,0,2022-09-12,2022-09-12,株式会社転職専科,,株式会社,東京都,港区,赤坂２丁目１７番７３号赤坂エムアイビル３階,,13,103,1070052,,,,,,,2022-09-12,1,,,,,テンショクセンカ,0
561,3010401169637,新規,0,2022-09-12,2022-09-12,ａｏ株式会社,,株式会社,東京都,港区,元麻布３丁目６番９号,,13,103,1060046,,,,,,,2022-09-12,1,,,,,アオ,0
562,3010401169686,新規,0,2022-09-12,2022-09-12,株式会社Ｔｅｒｒａ　Ｆｉｒｍａ　Ｓｐａｃｅ　Ｔｅｃｈｎｏｌｏｇｉｅｓ,,株式会社,東京都,港区,浜松町２丁目２番１５号浜松町ダイヤビル２Ｆ,,13,103,1050013,,,,,,,2022-09-12,1,,,,,テラファーマースペーステクノロジー,0
566,3010403028444,新規,0,2022-09-12,2022-09-12,羽生合同会社,,合同会社,東京都,港区,元赤坂１丁目１番８号株式会社赤坂国際会計内,,13,103,1070051,,,,,,,2022-09-12,1,,,,,ハニュウ,0
567,3010403028469,新規,0,2022-09-12,2022-09-12,合同会社Ｏｘｆｏｒｄ２,,合同会社,東京都,港区,虎ノ門５丁目１番４号,,13,103,1050001,,,,,,,2022-09-12,1,,,,,オックスフォードツー,0
568,3010403028493,新規,0,2022-09-12,2022-09-12,合同会社桜,,合同会社,東京都,港区,元赤坂１丁目１番８号赤坂コミュニティビル４階,,13,103,1070051,,,,,,,2022-09-12,1,,,,,サクラ,0
574,3010801033260,新規,0,2022-09-12,2022-09-12,株式会社ＳＵＮＮＹ’Ｓ　ＦＡＣＴＯＲＹ,,株式会社,東京都,大田区,東六郷１丁目１０－１１,,13,111,1440046,,,,,,,2022-09-12,1,,,,,サニーズファクトリー,0
579,3010901051617,新規,0,2022-09-12,2022-09-12,株式会社８５,,株式会社,東京都,世田谷区,中町２丁目１番１８号,,13,112,1580091,,,,,,,2022-09-12,1,,,,,ハチゴウ,0
584,3011001149467,新規,0,2022-09-12,2022-09-12,Ｕｎｉｖｅｒｓｅ株式会社,,株式会社,東京都,渋谷区,道玄坂１丁目１２番１号渋谷マークシティＷ１６階,,13,113,1500043,,,,,,,2022-09-12,1,,,,,ユニバース,0
585,3011001149649,新規,0,2022-09-12,2022-09-12,株式会社レットミー,,株式会社,東京都,渋谷区,東３丁目１６番６号恵比寿レジデンス一番館７０３,,13,113,1500011,,,,,,,2022-09-12,1,,,,,レットミー,0
586,3011001149673,新規,0,2022-09-12,2022-09-12,株式会社４Ｕ,,株式会社,東京都,目黒区,碑文谷６丁目２番３号,,13,110,1520003,,,,,,,2022-09-12,1,,,,,フォーユー,0
588,3011003015345,新規,0,2022-09-12,2022-09-12,ヴェールマラン合同会社,,合同会社,東京都,渋谷区,広尾３丁目９－１４羽沢ハウス２０１,,13,113,1500012,,,,,,,2022-09-12,1,,,,,ヴェールマラン,0
605,3013301049628,新規,0,2022-09-12,2022-09-12,ＡＳ２株式会社,,株式会社,東京都,豊島区,西池袋５丁目２６番１６号ＣＨＩＢＡビル,,13,116,1710021,,,,,,,2022-09-12,1,,,,,エーエスツー,0
606,3013301049636,新規,0,2022-09-12,2022-09-12,株式会社ケーエスケー,,株式会社,東京都,豊島区,東池袋１丁目１７－１１,,13,116,1700013,,,,,,,2022-09-12,1,,,,,ケーエスケー,0
608,3013305003382,新規,0,2022-09-12,2022-09-12,税理士法人尾谷＆パートナーズ,,その他の設立登記法人,東京都,豊島区,南大塚３丁目３９番１４号大塚南ビル,,13,116,1700005,,,,,,,2022-09-12,1,,,,,オタニアンドパートナーズ,0
617,3020001148206,新規,0,2022-09-12,2022-09-12,ＳＫＢハウジング株式会社,,株式会社,神奈川県,川崎市中原区,木月１丁目２１番５号,,14,133,2110025,,,,,,,2022-09-12,1,,,,,エスケービーハウジング,0
621,3020003022367,新規,0,2022-09-12,2022-09-12,合同会社アイエフオー,,合同会社,神奈川県,横浜市港北区,綱島東３丁目４番１１号,,14,109,2230052,,,,,,,2022-09-12,1,,,,,アイエフオー,0
633,3030001150020,新規,0,2022-09-12,2022-09-12,株式会社Ｅ・ＣＵＳＴＯＭ,,株式会社,埼玉県,東松山市,大字高坂１２０１番地１山岸荘１０２,,11,212,3550047,,,,,,,2022-09-12,1,,,,,イーカスタム,0
634,3030001150053,新規,0,2022-09-12,2022-09-12,株式会社砂川商事,,株式会社,埼玉県,深谷市,高島４１５番地１,,11,218,3660010,,,,,,,2022-09-12,1,,,,,スナガワショウジ,0
635,3030001150061,新規,0,2022-09-12,2022-09-12,ＥＭＡ株式会社,,株式会社,埼玉県,川越市,大字鯨井新田１２－２７,,11,201,3500809,,,,,,,2022-09-12,1,,,,,イーエムエイ,0
636,3030001150078,新規,0,2022-09-12,2022-09-12,ＯＪＢ株式会社,,株式会社,埼玉県,比企郡川島町,八幡２丁目９番地８,,11,346,3500151,,,,,,,2022-09-12,1,,,,,オージェービー,0
637,3030001150086,新規,0,2022-09-12,2022-09-12,株式会社ラ・カーサ建築設計事務所,,株式会社,埼玉県,所沢市,林１丁目３７３番地の４,,11,208,3591167,,,,,,,2022-09-12,1,,,,,ラカーサケンチクセッケイジムショ,0
639,3030003020139,新規,0,2022-09-12,2022-09-12,合同会社八重商会,,合同会社,埼玉県,川越市,並木新町１６番地４,,11,201,3500024,,,,,,,2022-09-12,1,,,,,ヤエショウカイ,0
640,3030003020171,新規,0,2022-09-12,2022-09-12,ＬＯＧ合同会社,,合同会社,埼玉県,草加市,住吉２丁目６番４５号,,11,221,3400014,,,,,,,2022-09-12,1,,,,,エルオージー,0
650,3040001124997,新規,0,2022-09-12,2022-09-12,ＭＡＩ株式会社,,株式会社,千葉県,我孫子市,寿２丁目２番１５号,,12,222,2701152,,,,,,,2022-09-12,1,,,,,マイ,0
651,3040001125038,新規,0,2022-09-12,2022-09-12,ＭＡＳＡＫＩ株式会社,,株式会社,千葉県,松戸市,新松戸１丁目３３８番地シャリエ新松戸１０４号,,12,207,2700034,,,,,,,2022-09-12,1,,,,,マサキ,0
668,3050003006838,新規,0,2022-09-12,2022-09-12,合同会社Ｏｍ　ｇａｎｐａｔｉ,,合同会社,茨城県,常陸太田市,栄町１１９－４,,08,212,3130005,,,,,,,2022-09-12,1,,,,,オムガナパティ,0
671,3050005013139,新規,0,2022-09-12,2022-09-12,一般社団法人ドローンＣＩＴＹ研究所,,その他の設立登記法人,茨城県,水戸市,鯉淵町５９６５鯉淵学園内１１番教室,,08,201,3190323,,,,,,,2022-09-12,1,,,,,ドローンシティケンキュウジョ,0
677,3070001039623,新規,0,2022-09-12,2022-09-12,株式会社ＪＤ　ＴＲＡＤＩＮＧ　ＣＯＭＰＡＮＹ,,株式会社,群馬県,邑楽郡大泉町,大字古氷３０６番地３,,10,524,3700536,,,,,,,2022-09-12,1,,,,,ジェーディートレーディングカンパニー,0
681,3080003002867,新規,0,2022-09-12,2022-09-12,合同会社ｆｅｉ,,合同会社,静岡県,焼津市,東小川７丁目１７―１,,22,212,4250035,,,,,,,2022-09-12,1,,,,,フェイ,0
689,3090001017775,新規,0,2022-09-12,2022-09-12,株式会社ＴＯＰ　ＯＮＥ,,株式会社,山梨県,笛吹市,御坂町成田２３９５番地２,,19,211,4060801,,,,,,,2022-09-12,1,,,,,トップワン,0
706,3120001248714,新規,0,2022-09-12,2022-09-12,株式会社ライフサーチ,,株式会社,大阪府,大阪市東淀川区,大桐４丁目４番６７－Ｃ５０４号,,27,114,5330011,,,,,,,2022-09-12,1,,,,,ライフサーチ,0
707,3120001248747,新規,0,2022-09-12,2022-09-12,はんわ印刷株式会社,,株式会社,大阪府,大阪市生野区,新今里１丁目２０番３号,,27,116,5440001,,,,,,,2022-09-12,1,,,,,ハンワインサツ,0
712,3120003022431,新規,0,2022-09-12,2022-09-12,ＬＣＪ合同会社,,合同会社,大阪府,大阪市西淀川区,佃２丁目１番３１号２０２号室,,27,113,5550001,,,,,,,2022-09-12,1,,,,,エルシージェー,0
719,3120901046473,新規,0,2022-09-12,2022-09-12,Ｔａｉｙｏ　Ｔｈｉｎｋｓ株式会社,,株式会社,大阪府,吹田市,垂水町３丁目２５－１２ファーストステージ江坂パークサイド１１０２,,27,205,5640062,,,,,,,2022-09-12,1,,,,,タイヨウシンクス,0
730,3130005016570,新規,0,2022-09-12,2022-09-12,一般社団法人再犯防止起業家教育協会,,その他の設立登記法人,京都府,京都市伏見区,深草西浦町６丁目７９－５ＥＤＡアドバンスビル２階,,26,109,6120029,,,,,,,2022-09-12,1,,,,,サイハンボウシキギョウカキョウイクキョウカイ,0
731,3140001127338,新規,0,2022-09-12,2022-09-12,株式会社ＥＡＲＬ,,株式会社,兵庫県,姫路市,白国２丁目１２番５号,,28,201,6700808,,,,,,,2022-09-12,1,,,,,アール,0
732,3150001025821,新規,0,2022-09-12,2022-09-12,ＮＰＣ株式会社,,株式会社,奈良県,北葛城郡上牧町,服部台１丁目７番１６号,,29,424,6390212,,,,,,,2022-09-12,1,,,,,エヌピーシー,0
733,3150003002777,新規,0,2022-09-12,2022-09-12,合同会社エポックエム,,合同会社,奈良県,香芝市,真美ヶ丘１丁目１０－２,,29,210,6390223,,,,,,,2022-09-12,1,,,,,エポックエム,0
745,3180001152893,新規,0,2022-09-12,2022-09-12,株式会社ＩＳＴＮ,,株式会社,愛知県,瀬戸市,紺屋田町３６番地７,,23,204,4890035,,,,,,,2022-09-12,1,,,,,アイエスティーエヌ,0
746,3180001152919,新規,0,2022-09-12,2022-09-12,株式会社デビッドスカルノレコード,,株式会社,愛知県,名古屋市中区,栄１丁目１１番６号,,23,106,4600008,,,,,,,2022-09-12,1,,,,,デビッドスカルノレコード,0
747,3180001152968,新規,0,2022-09-12,2022-09-12,Ｄ．Ｗｏｒｋｓ株式会社,,株式会社,愛知県,小牧市,小木４丁目５７番地４,,23,219,4850058,,,,,,,2022-09-12,1,,,,,ディーワークス,0
760,3200001040377,新規,0,2022-09-12,2022-09-12,株式会社ＳＡＮＪＵＮＩ,,株式会社,岐阜県,多治見市,市之倉町３丁目９０番地の３,,21,204,5070814,,,,,,,2022-09-12,1,,,,,サンジュニ,0
761,3200001040443,新規,0,2022-09-12,2022-09-12,株式会社作倉社,,株式会社,岐阜県,岐阜市,薬師町１番地８,,21,201,5008253,,,,,,,2022-09-12,1,,,,,サクラシャ,0
777,3290001098878,新規,0,2022-09-12,2022-09-12,株式会社ｂｒｉｌｌｉａｎｔ,,株式会社,福岡県,福岡市博多区,千代１丁目１６番１４号ギャラクシー県庁口１１０１号,,40,132,8120044,,,,,,,2022-09-12,1,,,,,ブリリアント,0
778,3290001098903,新規,0,2022-09-12,2022-09-12,株式会社ＡＲＣ,,株式会社,福岡県,福岡市中央区,六本松４丁目２番６－２０６号,,40,133,8100044,,,,,,,2022-09-12,1,,,,,アーク,0
783,3290003012928,新規,0,2022-09-12,2022-09-12,合同会社ＫＳＲＴ,,合同会社,福岡県,大野城市,錦町４丁目１番１号イオン大野城２Ｆ,,40,219,8160935,,,,,,,2022-09-12,1,,,,,ケーエスアールティー,0
784,3290005018799,新規,0,2022-09-12,2022-09-12,一般社団法人ライフキャリア教育普及協会,,その他の設立登記法人,福岡県,飯塚市,宮町１３番６号,,40,205,8200069,,,,,,,2022-09-12,1,,,,,ライフキャリアキョウイクフキュウキョウカイ,0
791,3310001018024,新規,0,2022-09-12,2022-09-12,プレシャスホームズ株式会社,,株式会社,長崎県,佐世保市,野中町１２９番地３,,42,202,8570142,,,,,,,2022-09-12,1,,,,,プレシャスホームズ,0
802,3360001030949,新規,0,2022-09-12,2022-09-12,株式会社アチーブコム,,株式会社,沖縄県,那覇市,久茂地１丁目１－１パレットくもじ９階,,47,201,9000015,,,,,,,2022-09-12,1,,,,,アチーブコム,0
804,3360003012301,新規,0,2022-09-12,2022-09-12,合同会社ＭＩＲＡＩクリエイティブ・パートナーズ,,合同会社,沖縄県,那覇市,字小禄１１４番地アネックス小禄３０１,,47,201,9010152,,,,,,,2022-09-12,1,,,,,ミライクリエイティブパートナーズ,0
806,3370001049055,新規,0,2022-09-12,2022-09-12,株式会社ささゆう,,株式会社,宮城県,仙台市若林区,なないろの里１丁目７－１コンフォート荒井西１０２,,04,103,9840017,,,,,,,2022-09-12,1,,,,,ササユウ,0
810,3410001013279,新規,0,2022-09-12,2022-09-12,株式会社コータｗｏｒｋｓ,,株式会社,秋田県,潟上市,天王字上北野７１番地３,,05,211,0100101,,,,,,,2022-09-12,1,,,,,コータワークス,0
812,3430003014257,新規,0,2022-09-12,2022-09-12,合同会社合田設備,,合同会社,北海道,札幌市白石区,本郷通７丁目北４番２５－３０７号,,01,104,0030025,,,,,,,2022-09-12,1,,,,,ゴウダセツビ,0
813,3440001009150,新規,0,2022-09-12,2022-09-12,株式会社参優,,株式会社,北海道,函館市,東山２丁目３６番６号,,01,202,0410835,,,,,,,2022-09-12,1,,,,,サンユウ,0
826,3700150111671,新規,0,2022-09-12,2022-09-12,Ｍ．Ｎ．Ｋ．Ｇｌｏｂａｌ　株式会社,,外国会社等,東京都,台東区,根岸４丁目１０番４－２０２号,,13,106,1100003,ネパールポカラ市ポカラ４番地,,,,,,2022-09-12,1,,,,,エムエヌケイグローバルカブシキカイシヤ,0
833,4010001229427,新規,0,2022-09-12,2022-09-12,タッグクロスマーケティング株式会社,,株式会社,東京都,中央区,銀座１丁目２２番１１号銀座大竹ビジデンス２階,,13,102,1040061,,,,,,,2022-09-12,1,,,,,タッグクロスマーケティング,0
834,4010001229476,新規,0,2022-09-12,2022-09-12,株式会社ＳＨＩＰ第３０７号,,株式会社,東京都,千代田区,丸の内２丁目７番２号,,13,101,1000005,,,,,,,2022-09-12,1,,,,,エスエイチアイピーダイサンビャクナナゴウ,0
845,4010401169603,新規,0,2022-09-12,2022-09-12,Ｓｐａｒｋｌｅ’ｓ株式会社,,株式会社,東京都,港区,芝２丁目２番１５号芝２丁目ビル５Ｆ,,13,103,1050014,,,,,,,2022-09-12,1,,,,,スパークルス,0
846,4010401169628,新規,0,2022-09-12,2022-09-12,株式会社Ｓｔａｒｔ　ｏｆｆ,,株式会社,東京都,港区,赤坂３丁目１９番９号,,13,103,1070052,,,,,,,2022-09-12,1,,,,,スタートオフ,0
847,4010401169652,新規,0,2022-09-12,2022-09-12,ＢｅｎｔｏＢｏｘ　Ｉｎｎｏｖａｔｉｏｎ株式会社,,株式会社,東京都,港区,赤坂１丁目５番１２号第二虎ノ門ビル４階,,13,103,1070052,,,,,,,2022-09-12,1,,,,,ベントウボックスイノベーション,0
857,4010503006720,新規,0,2022-09-12,2022-09-12,合同会社Ｌａｚｔａｌｅ,,合同会社,東京都,台東区,東上野６丁目１０－１３北村１０３号,,13,106,1100015,,,,,,,2022-09-12,1,,,,,ラズテル,0
863,4010701043202,新規,0,2022-09-12,2022-09-12,株式会社東京城南レジデンシャル,,株式会社,東京都,品川区,西五反田８丁目７番７号スタジオスウィート品川五反田８０４号室,,13,109,1410031,,,,,,,2022-09-12,1,,,,,トウキョウジョウナンレジデンシャル,0
870,4010901051608,新規,0,2022-09-12,2022-09-12,株式会社Ｉｎｔｅｒｎａｔｉｏｎａｌ　Ｋｉｄｓ,,株式会社,東京都,世田谷区,岡本１丁目２５－１７,,13,112,1570076,,,,,,,2022-09-12,1,,,,,インターナショナルキッズ,0
876,4011001149648,新規,0,2022-09-12,2022-09-12,株式会社ＷＨＹ　ＮＯＴ,,株式会社,東京都,渋谷区,円山町６番７号,,13,113,1500044,,,,,,,2022-09-12,1,,,,,ワイノット,0
877,4011001149730,新規,0,2022-09-12,2022-09-12,ｅｆ　ｔｏｏｎ　ｓｔｕｄｉｏ株式会社,,株式会社,東京都,目黒区,東山１丁目６番１号,,13,110,1530043,,,,,,,2022-09-12,1,,,,,イーエフトゥーンスタジオ,0
878,4011003015344,新規,0,2022-09-12,2022-09-12,合同会社ＮｅｘｔＨａｃｋ,,合同会社,東京都,渋谷区,渋谷２丁目１９番１５号宮益坂ビルディング６０９号室,,13,113,1500002,,,,,,,2022-09-12,1,,,,,ネクストハック,0
879,4011005009716,新規,0,2022-09-12,2022-09-12,医療法人社団メルシー,,その他の設立登記法人,東京都,渋谷区,恵比寿１丁目９番５号恵比寿ＳＴビル５階,,13,113,1500013,,,,,,,2022-09-12,1,,,,,メルシー,0
888,4011403003766,新規,0,2022-09-12,2022-09-12,Ｏｆｆｉｃｅ　ＴＡＫＡＮＯ合同会社,,合同会社,東京都,板橋区,坂下１丁目４番１０－２０６,,13,119,1740043,,,,,,,2022-09-12,1,,,,,オフィスタカノ,0
890,4011601026239,新規,0,2022-09-12,2022-09-12,株式会社Ａｎｄａｒｅ　Ｏｌｔｒｅ,,株式会社,東京都,練馬区,西大泉３丁目１６番６号,,13,120,1780065,,,,,,,2022-09-12,1,,,,,アンダーレオルトレイ,0
896,4011805003208,新規,0,2022-09-12,2022-09-12,一般社団法人地域活性支援ラボ,,その他の設立登記法人,東京都,足立区,東和２丁目２２番２３号,,13,121,1200003,,,,,,,2022-09-12,1,,,,,チイキカッセイシエンラボ,0
900,4012801021839,新規,0,2022-09-12,2022-09-12,株式会社ミノヤ,,株式会社,東京都,立川市,錦町１丁目５番３３号,,13,202,1900022,,,,,,,2022-09-12,1,,,,,ミノヤ,0
901,4012805003148,新規,0,2022-09-12,2022-09-12,医療法人社団おひさま会,,その他の設立登記法人,東京都,立川市,幸町１丁目３３番地１０ペルレ立川１階,,13,202,1900002,,,,,,,2022-09-12,1,,,,,オヒサマカイ,0
907,4013303006287,新規,0,2022-09-12,2022-09-12,合同会社ソーシャライズ,,合同会社,東京都,豊島区,池袋２丁目３６番１号,,13,116,1710014,,,,,,,2022-09-12,1,,,,,ソーシャライズ,0
908,4013305003381,新規,0,2022-09-12,2022-09-12,弁護士法人尾谷＆パートナーズ,,その他の設立登記法人,東京都,豊島区,南大塚３丁目３９番１４号大塚南ビル,,13,116,1700005,,,,,,,2022-09-12,1,,,,,オタニアンドパートナーズ,0
912,4020003022382,新規,0,2022-09-12,2022-09-12,スゴイボックス合同会社,,合同会社,神奈川県,横浜市青葉区,松風台１番地１２ロイヤルシーズン青葉台ＥＡＳＴ４０４,,14,117,2270067,,,,,,,2022-09-12,1,,,,,スゴイボックス,0
914,4021001076973,新規,0,2022-09-12,2022-09-12,株式会社ぐるんとびーむ,,株式会社,神奈川県,鎌倉市,大町２丁目１２番３号,,14,204,2480007,,,,,,,2022-09-12,1,,,,,グルントビーム,0
917,4021003012126,新規,0,2022-09-12,2022-09-12,合同会社がじゅまるの木,,合同会社,神奈川県,小田原市,久野１６５４番地の１０,,14,206,2500055,,,,,,,2022-09-12,1,,,,,ガジュマルノキ,0
921,4030001149961,新規,0,2022-09-12,2022-09-12,株式会社メトラボ,,株式会社,埼玉県,さいたま市大宮区,宮町２丁目７３番地２ＮＫビル,,11,103,3300802,,,,,,,2022-09-12,1,,,,,メトラボ,0
922,4030001150028,新規,0,2022-09-12,2022-09-12,株式会社新栄商事,,株式会社,埼玉県,川越市,旭町１丁目１２番地２８,,11,201,3501126,,,,,,,2022-09-12,1,,,,,シンエイショウジ,0
923,4030001150044,新規,0,2022-09-12,2022-09-12,株式会社ヨシイ,,株式会社,埼玉県,越谷市,相模町１丁目１２２番地１１,,11,222,3430823,,,,,,,2022-09-12,1,,,,,ヨシイ,0
924,4030001150077,新規,0,2022-09-12,2022-09-12,株式会社アイリード,,株式会社,埼玉県,坂戸市,伊豆の山町４番地３４,,11,239,3500275,,,,,,,2022-09-12,1,,,,,アイリード,0
925,4030001150085,新規,0,2022-09-12,2022-09-12,株式会社ネオコム,,株式会社,埼玉県,越谷市,南越谷１丁目１２番１１号,,11,222,3430845,,,,,,,2022-09-12,1,,,,,ネオコム,0
926,4030001150110,新規,0,2022-09-12,2022-09-12,株式会社福丸,,株式会社,埼玉県,上尾市,大字原市２６３番地２７,,11,219,3620021,,,,,,,2022-09-12,1,,,,,フクマル,0
927,4030003020105,新規,0,2022-09-12,2022-09-12,合同会社Ｎ　ｔａｓｔｅ,,合同会社,埼玉県,さいたま市北区,土呂町１丁目１７番地６丸八ビル３０３,,11,102,3310804,,,,,,,2022-09-12,1,,,,,エヌテイスト,0
928,4030003020170,新規,0,2022-09-12,2022-09-12,エルドラード合同会社,,合同会社,埼玉県,川口市,並木２丁目４１番９号九龍ビル２０１,,11,203,3320034,,,,,,,2022-09-12,1,,,,,エルドラード,0
936,4040003020789,新規,0,2022-09-12,2022-09-12,合同会社ｓｏｉｌ　ａｎｄ　ｈｅａｌｔｈｙ,,合同会社,千葉県,野田市,木間ケ瀬２４７３番地１２,,12,208,2700222,,,,,,,2022-09-12,1,,,,,ソイルアンドヘルシー,0
950,4070003004616,新規,0,2022-09-12,2022-09-12,合同会社Ｈ＆Ｎ　ＴＲＡＤＩＮＧ,,合同会社,群馬県,太田市,由良町９７２番地２サンヒルズ由良Ａ－１０８号,,10,205,3730036,,,,,,,2022-09-12,1,,,,,エイチアンドエヌトレーディング,0
960,4110001036961,新規,0,2022-09-12,2022-09-12,株式会社小国製麺ホールディングス,00127813,株式会社,新潟県,胎内市,清水９番１５４,,15,227,9592600,,,,,,,2022-09-12,1,,,,,オグニセイメンホールディングス,0
968,4120001248597,新規,0,2022-09-12,2022-09-12,圓融貿易株式会社,,株式会社,大阪府,大阪市天王寺区,空清町４－１１杉野ビル本館１１２号室,,27,109,5430018,,,,,,,2022-09-12,1,,,,,エンユウボウエキ,0
969,4120001248746,新規,0,2022-09-12,2022-09-12,株式会社翔愛,,株式会社,大阪府,寝屋川市,上神田１丁目４４番２２－１０１号,,27,215,5720052,,,,,,,2022-09-12,1,,,,,ショウアイ,0
970,4120001248762,新規,0,2022-09-12,2022-09-12,株式会社オーシャンズクライム,,株式会社,大阪府,大阪市福島区,福島４丁目３番２３－３８０７号,,27,103,5530003,,,,,,,2022-09-12,1,,,,,オーシャンズクライム,0
971,4120001248779,新規,0,2022-09-12,2022-09-12,アール株式会社,,株式会社,大阪府,大阪市旭区,清水１丁目１６番１６号,,27,117,5350021,,,,,,,2022-09-12,1,,,,,アール,0
973,4120005023179,新規,0,2022-09-12,2022-09-12,一般社団法人Ｏｌａｂｏ,,その他の設立登記法人,大阪府,大阪市中央区,南船場２丁目３番６号第一住建長堀橋駅前ビル２階,,27,128,5420081,,,,,,,2022-09-12,1,,,,,オーラボ,0
974,4120101066214,新規,0,2022-09-12,2022-09-12,株式会社タイラ製作所,,株式会社,大阪府,堺市堺区,中向陽町１丁６番７号,,27,141,5900072,,,,,,,2022-09-12,1,,,,,タイラセイサクショ,0
976,4120903004305,新規,0,2022-09-12,2022-09-12,合同会社ＩＰ企画,,合同会社,大阪府,池田市,東山町７２０番地の４,,27,204,5630012,,,,,,,2022-09-12,1,,,,,アイピーキカク,0
986,4130001072591,新規,0,2022-09-12,2022-09-12,すがわら不動産株式会社,,株式会社,京都府,京都市伏見区,醍醐大高町７番地の５,,26,109,6011311,,,,,,,2022-09-12,1,,,,,スガワラフドウサン,0
987,4130001072609,新規,0,2022-09-12,2022-09-12,Ｋ’ｓウェルテクノ株式会社,,株式会社,京都府,宇治市,槇島町三十五４５番地４－４５（４５番４の２）,,26,204,6110041,,,,,,,2022-09-12,1,,,,,ケーズウェルテクノ,0
1015,4180001152967,新規,0,2022-09-12,2022-09-12,株式会社ＲＳＭＡ,,株式会社,愛知県,名古屋市天白区,植田山４丁目１１０９番地,,23,116,4680001,,,,,,,2022-09-12,1,,,,,アールエスエムエー,0
1016,4180001152991,新規,0,2022-09-12,2022-09-12,株式会社ＨＩＹＵＵ,,株式会社,愛知県,名古屋市中区,丸の内３丁目７番２６号ＡＣＡビル５階,,23,106,4600002,,,,,,,2022-09-12,1,,,,,ヒユウ,0
1017,4180001153008,新規,0,2022-09-12,2022-09-12,株式会社ａｒｔｋａｋｅ,,株式会社,愛知県,名古屋市中村区,平池町４丁目６０番地の１２グローバルゲート名古屋１１Ｆ,,23,105,4530872,,,,,,,2022-09-12,1,,,,,アトカケ,0
1023,4180005019931,新規,0,2022-09-12,2022-09-12,医療法人オリーブ,,その他の設立登記法人,愛知県,名古屋市天白区,高宮町１３０８番地,,23,116,4680031,,,,,,,2022-09-12,1,,,,,オリーブ,0
1030,4190005011739,新規,0,2022-09-12,2022-09-12,特定非営利活動法人ＳｕｎＰａｎＳａ,,その他の設立登記法人,三重県,松阪市,鎌田町７３２番地,,24,204,5150005,,,,,,,2022-09-12,1,,,,,サンパンサ,0
1035,4210005010052,新規,0,2022-09-12,2022-09-12,一般社団法人福丼県プロジェクト,,その他の設立登記法人,福井県,福井市,問屋町３丁目４１０番地５階,,18,201,9188231,,,,,,,2022-09-12,1,,,,,フクドンケンプロジェクト,0
1037,4230005009258,新規,0,2022-09-12,2022-09-12,特定非営利活動法人まいぺーす,,その他の設立登記法人,富山県,下新川郡入善町,青木１２０７番地,,16,342,9390643,,,,,,,2022-09-12,1,,,,,マイペース,0
1043,4250003003145,新規,0,2022-09-12,2022-09-12,合同会社ＬＸｉ,,合同会社,山口県,周南市,大字徳山１０５８７番地の４８グランベール遠石壱番館３０１号,,35,215,7450851,,,,,,,2022-09-12,1,,,,,エルシ,0
1055,4290003012943,新規,0,2022-09-12,2022-09-12,合同会社まこいち,,合同会社,福岡県,大野城市,瓦田５丁目１１番１３号,,40,219,8160932,,,,,,,2022-09-12,1,,,,,マコイチ,0
1056,4310003004442,新規,0,2022-09-12,2022-09-12,合同会社チルチルクリエイティブエージェンシー,,合同会社,長崎県,諫早市,長田町１７６０－５ファミリーＳｕｎ長田１０６,,42,204,8590301,,,,,,,2022-09-12,1,,,,,チルチルクリエイティブエージェンシー,0
1057,4340005009503,新規,0,2022-09-12,2022-09-12,医療法人顕桜会,,その他の設立登記法人,鹿児島県,鹿児島市,南郡元町６番１６号－２Ｆ,,46,201,8900069,,,,,,,2022-09-12,1,,,,,ケンオウカイ,0
1060,4350001017954,新規,0,2022-09-12,2022-09-12,株式会社九州クレド・大,,株式会社,宮崎県,宮崎市,清武町今泉甲２８００番地１,,45,201,8891602,,,,,,,2022-09-12,1,,,,,キュウシュウクレドダイ,0
1062,4360001030956,新規,0,2022-09-12,2022-09-12,沖縄リネンサプライ株式会社,,株式会社,沖縄県,糸満市,西崎四丁目１７番地の９,,47,210,9010300,,,,,,,2022-09-12,1,,,,,オキナワリネンサプライ,0
1063,4360001030964,新規,0,2022-09-12,2022-09-12,株式会社ＡＣＩリサーチ,,株式会社,沖縄県,国頭郡恩納村,字谷茶１９１９番地１,,47,311,9040412,,,,,,,2022-09-12,1,,,,,エーシーアイリサーチ,0
1065,4360003012300,新規,0,2022-09-12,2022-09-12,合同会社ラメール,,合同会社,沖縄県,宮古島市,平良字西里１７１番地,,47,214,9060012,,,,,,,2022-09-12,1,,,,,ラメール,0
1069,4380001033115,新規,0,2022-09-12,2022-09-12,株式会社ＭＩＭＩＣ,,株式会社,福島県,いわき市,常磐湯本町傾城１０番地の１３,,07,204,9728321,,,,,,,2022-09-12,1,,,,,ミミック,0
1070,4400001016001,新規,0,2022-09-12,2022-09-12,ＣＬＡＩＲホールディングス株式会社,,株式会社,岩手県,盛岡市,開運橋通五丁目６番第五菱和ビル５階,,03,201,0200026,,,,,,,2022-09-12,1,,,,,クレアホールディングス,0
1073,4430001087444,新規,0,2022-09-12,2022-09-12,河盛興業株式会社,,株式会社,北海道,虻田郡倶知安町,字高砂１０２番地４,,01,400,0440076,,,,,,,2022-09-12,1,,,,,カワモリコウギョウ,0
1080,4500001024456,新規,0,2022-09-12,2022-09-12,Ｐｅｒｓｏｎ　Ｇｌａｄ　Ｃｒｅａｔｅ　ｃｏ，Ｌｔｄ．株式会社,,株式会社,愛媛県,松山市,立花３丁目６番３号,,38,201,7900966,,,,,,,2022-09-12,1,,,,,パーソングラッドクリエイトカンパニーリミテッド,0
1081,4700150111670,新規,0,2022-09-12,2022-09-12,ＨＩＱＭＡ　ＥＮＴＥＲＰＲＩＳＥＳ,,外国会社等,神奈川県,綾瀬市,深谷上５丁目１９－２第一杉本ハイツＡ－２,,14,218,2521108,スリランカ民主社会主義共和国、キャンディ、アクラナ、クルゴダ、デルガステンナＮｏ．２４３／Ａ,,,,,,2022-09-12,1,,,,,ヒクマエンタープライセス,0
1082,4700150111679,新規,0,2022-09-12,2022-09-12,ＷＳＣＰ８　ＥＥ　ＨＫ　リミテッド,,外国会社等,東京都,港区,六本木６丁目１０番１号六本木ヒルズ森タワー,,13,103,1060032,中華人民共和国香港特別行政区コーズウェイベイ、３３ハイサンアベニュー、リーガーデンワン１９階１９０１,,,,,,2022-09-12,1,,,,,ダブリユーエスシーピーエイトイーイーエイチケーリミテツド,0
1093,5010001229277,新規,0,2022-09-12,2022-09-12,株式会社Ｔｒａｎｚｉｓｔａｒ,,株式会社,東京都,千代田区,九段南１丁目５番６号りそな九段ビル５階ＫＳフロア,,13,101,1020074,,,,,,,2022-09-12,1,,,,,トランジスター,0
1103,5010401169593,新規,0,2022-09-12,2022-09-12,株式会社オフィスジパング,,株式会社,東京都,港区,南青山２丁目２番１５号,,13,103,1070062,,,,,,,2022-09-12,1,,,,,オフィスジパング,0
1104,5010401169602,新規,0,2022-09-12,2022-09-12,新建築書店株式会社,,株式会社,東京都,港区,南青山２丁目１９番１４号,,13,103,1070062,,,,,,,2022-09-12,1,,,,,シンケンチクショテン,0
1105,5010401169610,新規,0,2022-09-12,2022-09-12,株式会社トラストワイ,,株式会社,東京都,港区,芝３丁目１７番１５号クリエート三田３０４,,13,103,1050014,,,,,,,2022-09-12,1,,,,,トラストワイ,0
1106,5010401169627,新規,0,2022-09-12,2022-09-12,アレスカジャパン農業テック株式会社,,株式会社,東京都,港区,虎ノ門４丁目３番１号城山トラストタワー４Ｆ,,13,103,1050001,,,,,,,2022-09-12,1,,,,,アレスカジャパンノウギョウテック,0
1107,5010401169742,新規,0,2022-09-12,2022-09-12,株式会社フォーデジットホールディングス,,株式会社,東京都,港区,赤坂８丁目５番３２号,,13,103,1070052,,,,,,,2022-09-12,1,,,,,フォーデジットホールディングス,0
1112,5010403028426,新規,0,2022-09-12,2022-09-12,音葉商会合同会社,,合同会社,東京都,港区,南青山２丁目２番１５号,,13,103,1070062,,,,,,,2022-09-12,1,,,,,オトハショウカイ,0
1113,5010403028467,新規,0,2022-09-12,2022-09-12,ＩｎｄｉＧｏＬｏｔｕｓ合同会社,,合同会社,東京都,港区,西麻布３丁目２１－２０－４０４,,13,103,1060031,,,,,,,2022-09-12,1,,,,,インディゴーロータス,0
1114,5010403028475,新規,0,2022-09-12,2022-09-12,合同会社ＯＷ３,,合同会社,東京都,港区,愛宕２丁目５番１号愛宕グリーンヒルズＭＯＲＩタワー３７階,,13,103,1050002,,,,,,,2022-09-12,1,,,,,オーダブリュースリー,0
1115,5010403028483,新規,0,2022-09-12,2022-09-12,セルリアワークス合同会社,,合同会社,東京都,港区,赤坂８丁目４－１４青山タワープレイス８Ｆ,,13,103,1070052,,,,,,,2022-09-12,1,,,,,セルリアワークス,0
1116,5010403028500,新規,0,2022-09-12,2022-09-12,村尾制作合同会社,,合同会社,東京都,港区,麻布台３丁目３番２７号麻布台フラット１０１,,13,103,1060041,,,,,,,2022-09-12,1,,,,,ムラオセイサク,0
1136,5011001149622,新規,0,2022-09-12,2022-09-12,株式会社ゼディアスカイ,,株式会社,東京都,目黒区,下目黒１丁目２－２１泰山堂ビル３Ｆ,,13,110,1530064,,,,,,,2022-09-12,1,,,,,ゼディアスカイ,0
1139,5011003015343,新規,0,2022-09-12,2022-09-12,合同会社Ｍａｋｏ＆Ｃｏ．,,合同会社,東京都,目黒区,中根１丁目１７番５号,,13,110,1520031,,,,,,,2022-09-12,1,,,,,マコアンドゴー,0
1163,5012801021838,新規,0,2022-09-12,2022-09-12,株式会社えんたていな,,株式会社,東京都,国分寺市,本町３丁目８番１９号,,13,214,1850012,,,,,,,2022-09-12,1,,,,,エンタテイナ,0
1164,5012801021846,新規,0,2022-09-12,2022-09-12,株式会社Ｍｅｖｉｅｗｍ,,株式会社,東京都,昭島市,昭和町４丁目１１番４号,,13,207,1960015,,,,,,,2022-09-12,1,,,,,メビューム,0
1169,5013301049626,新規,0,2022-09-12,2022-09-12,株式会社シックスライフ,,株式会社,東京都,豊島区,東池袋１丁目３４番５号いちご東池袋ビル６階,,13,116,1700013,,,,,,,2022-09-12,1,,,,,シックスライフ,0
1170,5013301049634,新規,0,2022-09-12,2022-09-12,ナオマ株式会社,,株式会社,東京都,豊島区,目白３丁目９番９号,,13,116,1710031,,,,,,,2022-09-12,1,,,,,ナオマ,0
1172,5020001148179,新規,0,2022-09-12,2022-09-12,株式会社横浜ファイン,,株式会社,神奈川県,横浜市旭区,善部町１４２番地,,14,112,2410823,,,,,,,2022-09-12,1,,,,,ヨコハマファイン,0
1176,5021001076972,新規,0,2022-09-12,2022-09-12,株式会社ＩｎｇｏｏｄＰｒｉｃｅ,,株式会社,神奈川県,小田原市,鴨宮５５９番地の１あさみハイツ１０２,,14,206,2500874,,,,,,,2022-09-12,1,,,,,イングッドプライス,0
1178,5021003012091,新規,0,2022-09-12,2022-09-12,モンカダイヤ合同会社,,合同会社,神奈川県,平塚市,吉際２２４番地の１,,14,203,2540011,,,,,,,2022-09-12,1,,,,,モンカダイヤ,0
1183,5030001149886,新規,0,2022-09-12,2022-09-12,ＩＳＩコンサルティング株式会社,,株式会社,埼玉県,川口市,大字石神１０８８番地,,11,203,3330823,,,,,,,2022-09-12,1,,,,,アイエスアイコンサルティング,0
1184,5030001150068,新規,0,2022-09-12,2022-09-12,ＩＴトレーディング株式会社,,株式会社,埼玉県,所沢市,大字南永井３９４番地の４,,11,208,3590011,,,,,,,2022-09-12,1,,,,,アイティートレーディング,0
1186,5030003020178,新規,0,2022-09-12,2022-09-12,合同会社引越サポート,,合同会社,埼玉県,川口市,前川１丁目２番３－３１８号ライオンズステージ川口,,11,203,3330842,,,,,,,2022-09-12,1,,,,,ヒッコシサポート,0
1190,5040001125060,新規,0,2022-09-12,2022-09-12,株式会社ｄｅｆｉ,,株式会社,千葉県,松戸市,松戸１８３６番地の２にしきのビル５階,,12,207,2710092,,,,,,,2022-09-12,1,,,,,ディファイ,0
1195,5040003020805,新規,0,2022-09-12,2022-09-12,ＨＡＮＡ　ＡＵＴＯ　ＴＲＡＤＩＮＧ合同会社,,合同会社,千葉県,山武郡九十九里町,小関３１２５番地,,12,403,2830102,,,,,,,2022-09-12,1,,,,,ハナオートトレーディング,0
1198,5040005021727,新規,0,2022-09-12,2022-09-12,一般社団法人いすみコミュニティーアップ,,その他の設立登記法人,千葉県,いすみ市,万木１８９８－８,,12,238,2980111,,,,,,,2022-09-12,1,,,,,イスミコミュニティーアップ,0
1199,5050001051677,新規,0,2022-09-12,2022-09-12,株式会社ここのつ,,株式会社,茨城県,常総市,豊岡町丙２８７９番地９,,08,211,3030041,,,,,,,2022-09-12,1,,,,,ココノツ,0
1213,5070003004607,新規,0,2022-09-12,2022-09-12,ナツノソラ合同会社,,合同会社,群馬県,前橋市,粕川町深津１３９７番地４,,10,201,3710215,,,,,,,2022-09-12,1,,,,,ナツノソラ,0
1228,5120001248761,新規,0,2022-09-12,2022-09-12,株式会社エンブレム,,株式会社,大阪府,大阪市中央区,南本町４丁目５番７号,,27,128,5410054,,,,,,,2022-09-12,1,,,,,エンブレム,0
1229,5120001248786,新規,0,2022-09-12,2022-09-12,Ｍ’ｓ　Ｌｉｎｋ株式会社,,株式会社,大阪府,大阪市東住吉区,田辺１丁目８番４号,,27,121,5460031,,,,,,,2022-09-12,1,,,,,エムズリンク,0
1232,5120005023178,新規,0,2022-09-12,2022-09-12,一般社団法人未来翔会,,その他の設立登記法人,大阪府,大阪市西区,京町堀１丁目８番５号,,27,106,5500003,,,,,,,2022-09-12,1,,,,,ミライショウウカイ,0
1233,5120101066213,新規,0,2022-09-12,2022-09-12,株式会社アイサポート,,株式会社,大阪府,河内長野市,加賀田３７５番地の１０,,27,216,5860071,,,,,,,2022-09-12,1,,,,,アイサポート,0
1234,5120103004848,新規,0,2022-09-12,2022-09-12,ほんわか合同会社,,合同会社,大阪府,堺市西区,鶴田町２５番１３号,,27,144,5938323,,,,,,,2022-09-12,1,,,,,ホンワカ,0
1236,5120901046496,新規,0,2022-09-12,2022-09-12,ＤＯＵＢＬＥ　ＩＮＦＩＮＩＴＹ株式会社,,株式会社,大阪府,吹田市,垂水町３丁目６番３３号（３０８）,,27,205,5640062,,,,,,,2022-09-12,1,,,,,ダブルインフィニティ,0
1246,5130001072590,新規,0,2022-09-12,2022-09-12,ラクトフーズ株式会社,,株式会社,京都府,宇治市,槇島町大川原４番地７,,26,204,6110041,,,,,,,2022-09-12,1,,,,,ラクトフーズ,0
1252,5130003008171,新規,0,2022-09-12,2022-09-12,Ｌｉｇｈｔｉｎｖｅｓｔ合同会社,,合同会社,京都府,相楽郡精華町,光台７丁目２６番地８,,26,366,6190237,,,,,,,2022-09-12,1,,,,,ライトインベスト,0
1253,5140001127336,新規,0,2022-09-12,2022-09-12,株式会社りあん,,株式会社,兵庫県,神戸市西区,押部谷町養田６１１番地の４,,28,111,6512205,,,,,,,2022-09-12,1,,,,,リアン,0
1254,5140001127344,新規,0,2022-09-12,2022-09-12,株式会社オマツ,,株式会社,兵庫県,伊丹市,野間５丁目８番１６号,,28,207,6640873,,,,,,,2022-09-12,1,,,,,オマツ,0
1255,5140001127352,新規,0,2022-09-12,2022-09-12,プールスオクト株式会社,,株式会社,兵庫県,高砂市,中筋５丁目１０－１０,,28,216,6760812,,,,,,,2022-09-12,1,,,,,プールスオクト,0
1257,5140005026311,新規,0,2022-09-12,2022-09-12,ＮＰＯ法人ｏｈａｎａ,,その他の設立登記法人,兵庫県,尼崎市,神田中通５丁目１９６番地,,28,202,6600884,,,,,,,2022-09-12,1,,,,,オハナ,0
1261,5170001017278,新規,0,2022-09-12,2022-09-12,株式会社ＢＫ,,株式会社,和歌山県,田辺市,目良４５番１５号,,30,206,6460058,,,,,,,2022-09-12,1,,,,,ビーケイ,0
1269,5180001152917,新規,0,2022-09-12,2022-09-12,株式会社山本塗装店,,株式会社,愛知県,名古屋市緑区,鳴海町字清水寺２６番地１,,23,114,4580801,,,,,,,2022-09-12,1,,,,,ヤマモトトソウテン,0
1270,5180001152966,新規,0,2022-09-12,2022-09-12,株式会社竹装,,株式会社,愛知県,名古屋市中区,千代田１丁目１１番１９号,,23,106,4600012,,,,,,,2022-09-12,1,,,,,タケソウ,0
1271,5180001152990,新規,0,2022-09-12,2022-09-12,株式会社日本設備,,株式会社,愛知県,春日井市,大手町１１２番地１大手町ビル４Ｆ,,23,206,4860807,,,,,,,2022-09-12,1,,,,,ニホンセツビ,0
1272,5180001153007,新規,0,2022-09-12,2022-09-12,株式会社Ｎｏｂｌｅ　ｈｅａｒｔｓ,,株式会社,愛知県,名古屋市千種区,御棚町３丁目１６番地,,23,101,4640835,,,,,,,2022-09-12,1,,,,,ノーブルハーツ,0
1273,5180001153015,新規,0,2022-09-12,2022-09-12,株式会社１ｓｔ　ｗｉｎｇ,,株式会社,愛知県,江南市,村久野町金森１５４番地,,23,217,4838312,,,,,,,2022-09-12,1,,,,,ファーストウィング,0
1280,5180003024247,新規,0,2022-09-12,2022-09-12,合同会社ＲＴコンサルティング,,合同会社,愛知県,一宮市,馬見塚字北出７９４番地６,,23,203,4910874,,,,,,,2022-09-12,1,,,,,アールティコンサルティング,0
1290,5210003001556,新規,0,2022-09-12,2022-09-12,合同会社福井県看護実践教育研究センター,,合同会社,福井県,福井市,大宮５丁目８番４号,,18,201,9100016,,,,,,,2022-09-12,1,,,,,フクイケンカンゴジッセンキョウイクケンキュウセンター,0
1301,5240001060361,新規,0,2022-09-12,2022-09-12,株式会社マルデコーポレーション,,株式会社,広島県,広島市東区,二葉の里２丁目７番１４－８０１号,,34,102,7320057,,,,,,,2022-09-12,1,,,,,マルデコーポレーション,0
1309,5260005011136,新規,0,2022-09-12,2022-09-12,一般社団法人日本スクールドッグ協会,,その他の設立登記法人,岡山県,英田郡西粟倉村,大字大茅８７３番地,,33,643,7070501,,,,,,,2022-09-12,1,,,,,ニホンスクールドッグキョウカイ,0
1319,5290001098827,新規,0,2022-09-12,2022-09-12,ＦＲＥＳＣＯ株式会社,,株式会社,福岡県,大野城市,南ケ丘５丁目１４番１８号,,40,219,8160964,,,,,,,2022-09-12,1,,,,,フレスコ,0
1327,5300001013057,新規,0,2022-09-12,2022-09-12,イージーシステムズ株式会社,,株式会社,佐賀県,唐津市,鏡４７１７番地１,,41,202,8470022,,,,,,,2022-09-12,1,,,,,イージーシステムズ,0
1328,5310001018030,新規,0,2022-09-12,2022-09-12,ｅリビング株式会社,,株式会社,長崎県,佐世保市,天神３丁目９番３７号,,42,202,8571174,,,,,,,2022-09-12,1,,,,,イーリビング,0
1329,5320003003888,新規,0,2022-09-12,2022-09-12,合同会社Ｌｉｆｉｘ,,合同会社,大分県,大分市,都町２丁目６－９コスモビル２Ｆ,,44,201,8700034,,,,,,,2022-09-12,1,,,,,リフィックス,0
1340,5360001030963,新規,0,2022-09-12,2022-09-12,株式会社六代目高砂商店,,株式会社,沖縄県,那覇市,辻１丁目４番１０号,00127814,47,201,9000037,,,,,,,2022-09-12,1,,,,,ロクダイメタカサゴショウテン,0
1342,5360003012299,新規,0,2022-09-12,2022-09-12,合同会社クローバー,,合同会社,沖縄県,うるま市,石川伊波１４８２番地２号棟４０５号室,,47,213,9041115,,,,,,,2022-09-12,1,,,,,クローバー,0
1343,5360003012308,新規,0,2022-09-12,2022-09-12,ＣＯＮＥＣＴ合同会社,,合同会社,沖縄県,沖縄市,南桃原４丁目２９－１２アルスカビラ２０３号室,,47,211,9040035,,,,,,,2022-09-12,1,,,,,コネクト,0
1344,5370005010531,新規,0,2022-09-12,2022-09-12,司法書士法人ゴーイング,,その他の設立登記法人,宮城県,仙台市宮城野区,平成１丁目１８番２７号,,04,102,9830037,,,,,,,2022-09-12,1,,,,,ゴーイング,0
1351,5430001087468,新規,0,2022-09-12,2022-09-12,幸永サービス株式会社,,株式会社,北海道,北広島市,大曲柏葉１丁目１４番地８,,01,234,0611273,,,,,,,2022-09-12,1,,,,,コウエイサービス,0
1352,5440001009149,新規,0,2022-09-12,2022-09-12,株式会社ミヤウチメディカル,,株式会社,北海道,函館市,富岡町２丁目２３番５号,,01,202,0410811,,,,,,,2022-09-12,1,,,,,,0
1360,5700150111678,新規,0,2022-09-12,2022-09-12,ＷＳＳＳ　ＥＥ　ＨＫ２Ｄ　リミテッド,,外国会社等,東京都,港区,六本木６丁目１０番１号六本木ヒルズ森タワー,,13,103,1060032,中華人民共和国香港特別行政区コーズウェイベイ、３３ハイサンアベニュー、リーガーデンワン１９階１９０１,,,,,,2022-09-12,1,,,,,ダブリユーエスエスエスイーイーエイチケーツーデイーリミテツド,0
1366,6010001229301,新規,0,2022-09-12,2022-09-12,ドドーン株式会社,,株式会社,東京都,千代田区,四番町１－８四番町セントラルシティハウス６０１,,13,101,1020081,,,,,,,2022-09-12,1,,,,,ドドーン,0
1367,6010001229433,新規,0,2022-09-12,2022-09-12,株式会社Ｃｏｎｔｉｎｕｅ,,株式会社,東京都,千代田区,九段南４丁目８番３３号,,13,101,1020074,,,,,,,2022-09-12,1,,,,,コンティニュー,0
1368,6010001229466,新規,0,2022-09-12,2022-09-12,ＡｎＤｅソリューションズ株式会社,,株式会社,東京都,千代田区,二番町９－３ＴＨＥＢＡＳＥ麹町１Ｆ,,13,101,1020084,,,,,,,2022-09-12,1,,,,,アンデソリューションズ,0
1369,6010001229482,新規,0,2022-09-12,2022-09-12,株式会社ＳＨＩＰ第３０１号,,株式会社,東京都,千代田区,丸の内２丁目７番２号,,13,101,1000005,,,,,,,2022-09-12,1,,,,,エスエイチアイピーダイサンビャクイチゴウ,0
1370,6010003038659,新規,0,2022-09-12,2022-09-12,エフィカス合同会社,,合同会社,東京都,中央区,銀座１丁目２２－１１銀座大竹ビジデンス２Ｆ,,13,102,1040061,,,,,,,2022-09-12,1,,,,,エフィカス,0
1372,6010103001987,新規,0,2022-09-12,2022-09-12,合同会社Ｒｅ　Ｐａｉｎｔ,,合同会社,東京都,八王子市,打越町３３３番地２,,13,201,1920911,,,,,,,2022-09-12,1,,,,,リペイント,0
1383,6010401169618,新規,0,2022-09-12,2022-09-12,株式会社Ｄｒｅａｍ　Ｌｉｆｅ,,株式会社,東京都,港区,南青山２丁目２番１５号ウィン青山９４２,,13,103,1070062,,,,,,,2022-09-12,1,,,,,ドリームライフ,0
1384,6010401169634,新規,0,2022-09-12,2022-09-12,株式会社テラコヤ,,株式会社,東京都,港区,六本木４丁目１０番７号地下１階,,13,103,1060032,,,,,,,2022-09-12,1,,,,,テラコヤ,0
1385,6010401169667,新規,0,2022-09-12,2022-09-12,株式会社Ｖｅｎｔｕｒｅ’ｓ　Ｂａｓｅ,,株式会社,東京都,港区,赤坂８丁目５番４１号イースタン青山ビル５Ｆ,,13,103,1070052,,,,,,,2022-09-12,1,,,,,ベンチャーズベース,0
1386,6010403028458,新規,0,2022-09-12,2022-09-12,ＴＫ２合同会社,,合同会社,東京都,港区,北青山１丁目６番５－１０４号,,13,103,1070061,,,,,,,2022-09-12,1,,,,,ティーケーツー,0
1387,6010403028474,新規,0,2022-09-12,2022-09-12,Ｒｅｂｏｏｔｓ合同会社,,合同会社,東京都,港区,浜松町２丁目２番１５号浜松町ダイヤビル２Ｆ,,13,103,1050013,,,,,,,2022-09-12,1,,,,,リブーツ,0
1390,6010503006719,新規,0,2022-09-12,2022-09-12,合同会社サン・ルイ,,合同会社,東京都,台東区,上野３丁目１６－２天翔上野末広町ビル４階,,13,106,1100005,,,,,,,2022-09-12,1,,,,,サンルイ,0
1392,6010601061847,新規,0,2022-09-12,2022-09-12,友良商事株式会社,,株式会社,東京都,墨田区,文花１丁目３４番１１－３１０号,,13,107,1310044,,,,,,,2022-09-12,1,,,,,ユウリョウショウジ,0
1411,6011001149704,新規,0,2022-09-12,2022-09-12,株式会社Ｆｏｒｗａｒｄ　Ｐｌｕｓ,,株式会社,東京都,渋谷区,代々木１丁目１０番７号島村ビル２階,,13,113,1510053,,,,,,,2022-09-12,1,,,,,フォワードプラス,0
1413,6011005009722,新規,0,2022-09-12,2022-09-12,医療法人社団ＧＯＤ,,その他の設立登記法人,東京都,目黒区,東山２丁目５番１８号,,13,110,1530043,,,,,,,2022-09-12,1,,,,,ジーオーディー,0
1432,6011601026237,新規,0,2022-09-12,2022-09-12,株式会社優助,,株式会社,東京都,練馬区,羽沢２丁目６番９号－１０２号,,13,120,1760003,,,,,,,2022-09-12,1,,,,,ユウジョウ,0
1435,6011705001747,新規,0,2022-09-12,2022-09-12,医療法人社団世羅会,,その他の設立登記法人,東京都,江戸川区,西篠崎２丁目７番３０号,,13,123,1330055,,,,,,,2022-09-12,1,,,,,セラカイ,0
1436,6011801041267,新規,0,2022-09-12,2022-09-12,アイプラス株式会社,,株式会社,東京都,葛飾区,西新小岩１丁目２番６号,,13,122,1240025,,,,,,,2022-09-12,1,,,,,アイプラス,0
1444,6013301049633,新規,0,2022-09-12,2022-09-12,株式会社Ｂ．Ｂ．Ｋ,,株式会社,東京都,豊島区,西池袋３丁目２６番５号,,13,116,1710021,,,,,,,2022-09-12,1,,,,,,0
1445,6013301049641,新規,0,2022-09-12,2022-09-12,株式会社いこい,,株式会社,東京都,豊島区,池袋２丁目４８番１号,,13,116,1710014,,,,,,,2022-09-12,1,,,,,イコイ,0
1449,6020001148178,新規,0,2022-09-12,2022-09-12,株式会社Ｕ‐ｓｔｙｌｅ,,株式会社,神奈川県,横浜市金沢区,富岡東５丁目８番１－２０２号,,14,108,2360051,,,,,,,2022-09-12,1,,,,,ユースタイル,0
1456,6030001149951,新規,0,2022-09-12,2022-09-12,株式会社ＣＵＴＥＳＴ,,株式会社,埼玉県,和光市,新倉１丁目４番８４号,,11,229,3510115,,,,,,,2022-09-12,1,,,,,キューテスト,0
1457,6030001150059,新規,0,2022-09-12,2022-09-12,株式会社ＳＤ‐Ｋ,,株式会社,埼玉県,さいたま市南区,大字大谷口１２７９番地７,,11,108,3360042,,,,,,,2022-09-12,1,,,,,エスディーケー,0
1458,6030001150083,新規,0,2022-09-12,2022-09-12,株式会社プロフィットシェア,,株式会社,埼玉県,川口市,大字東内野５６５－１４,,11,203,3330821,,,,,,,2022-09-12,1,,,,,プロフィットシェア,0
1460,6030003020202,新規,0,2022-09-12,2022-09-12,合同会社ライクイット,,合同会社,埼玉県,さいたま市桜区,西堀３丁目２１番３４－１０１号,,11,106,3380832,,,,,,,2022-09-12,1,,,,,ライクイット,0
1468,6040003020787,新規,0,2022-09-12,2022-09-12,合同会社Ｓｕｎｎｙ,,合同会社,千葉県,千葉市緑区,おゆみ野２丁目９番地５メゾネットおゆみ野Ｄ－１号,,12,105,2660031,,,,,,,2022-09-12,1,,,,,サニー,0
1477,6070003004614,新規,0,2022-09-12,2022-09-12,ＤＩＬＩＰ　ＭＯＴＯＲＳ合同会社,,合同会社,群馬県,前橋市,下小出町１丁目７番地１３コンテッサＩＩ１０２号室,00127808,10,201,3710031,,,,,,,2022-09-12,1,,,,,ディリップモータース,0
1479,6080101023523,新規,0,2022-09-12,2022-09-12,株式会社和みワークス,,株式会社,静岡県,富士市,鈴川町１１番１６号,,22,210,4170015,,,,,,,2022-09-12,1,,,,,ナゴミワークス,0
1480,6080103002649,新規,0,2022-09-12,2022-09-12,合同会社いずばじ,,合同会社,静岡県,熱海市,伊豆山６６５‐５,,22,205,4130002,,,,,,,2022-09-12,1,,,,,イズバジ,0
1493,6120001248777,新規,0,2022-09-12,2022-09-12,株式会社ウルズ,,株式会社,大阪府,枚方市,西船橋２丁目３９番１６号,,27,210,5731122,,,,,,,2022-09-12,1,,,,,ウルズ,0
1494,6120001248793,新規,0,2022-09-12,2022-09-12,株式会社ドリームプロジェクト,,株式会社,大阪府,大阪市北区,中津３丁目２４番３－９０３号,,27,127,5310071,,,,,,,2022-09-12,1,,,,,ドリームプロジェクト,0
1495,6120001248827,新規,0,2022-09-12,2022-09-12,株式会社ｐａｔｈ．,,株式会社,大阪府,大阪市中央区,谷町６丁目１８番１２号,,27,128,5420012,,,,,,,2022-09-12,1,,,,,パス,0
1498,6120005023185,新規,0,2022-09-12,2022-09-12,特定非営利活動法人保護団体ｄ＆ｈｕｍａｎ,,その他の設立登記法人,大阪府,大阪市東成区,大今里西１丁目１１番１１号今里船瀬ビル,,27,115,5370014,,,,,,,2022-09-12,1,,,,,ホゴダンタイダンドヒューマン,0
1499,6120101066212,新規,0,2022-09-12,2022-09-12,株式会社Ｖヘルスコネクト,,株式会社,大阪府,南河内郡太子町,大字太子１５０７番地の１,,27,381,5830995,,,,,,,2022-09-12,1,,,,,ブイヘルスコネクト,0
1504,6120903004303,新規,0,2022-09-12,2022-09-12,合同会社アベイル,,合同会社,大阪府,吹田市,千里丘北１番２０－１２０１号,,27,205,5650815,,,,,,,2022-09-12,1,,,,,アベイル,0
1509,6122001036229,新規,0,2022-09-12,2022-09-12,株式会社ＳＲ総合不動産販売,,株式会社,大阪府,東大阪市,岩田町１丁目６番２０号,,27,227,5780941,,,,,,,2022-09-12,1,,,,,エスアールソウゴウフドウサンハンバイ,0
1515,6130001072573,新規,0,2022-09-12,2022-09-12,株式会社ファーストプレイス,,株式会社,京都府,京都市伏見区,桃山町安芸山６２番地の４,,26,109,6120834,,,,,,,2022-09-12,1,,,,,ファーストプレイス,0
1516,6130001072598,新規,0,2022-09-12,2022-09-12,株式会社Ｍ＆Ｊ,,株式会社,京都府,京都市下京区,西洞院通仏光寺下る本柳水町７７１番地ラ・セーム７７１、４０５号,,26,106,6008462,,,,,,,2022-09-12,1,,,,,エムアンドジェイ,0
1517,6130003008170,新規,0,2022-09-12,2022-09-12,合同会社ＱＵＩＮＣＥ,,合同会社,京都府,京都市下京区,玉津島町２９４,,26,106,6008427,,,,,,,2022-09-12,1,,,,,クインス,0
1520,6140001127335,新規,0,2022-09-12,2022-09-12,株式会社シンエイ兵庫,,株式会社,兵庫県,西脇市,黒田庄町船町字土井ノ内７８９番地,,28,213,6790304,,,,,,,2022-09-12,1,,,,,シンエイヒョウゴ,0
1523,6150001025819,新規,0,2022-09-12,2022-09-12,アイ・オー・エス株式会社,,株式会社,奈良県,生駒市,上町２２４４番地１,,29,209,6300131,,,,,,,2022-09-12,1,,,,,アイオーエス,0
1525,6150003002774,新規,0,2022-09-12,2022-09-12,白山合同会社,,合同会社,奈良県,橿原市,観音寺町４８８番地４号,,29,205,6340825,,,,,,,2022-09-12,1,,,,,シラヤマ,0
1526,6150005009421,新規,0,2022-09-12,2022-09-12,一般社団法人川谷山林保全会,,その他の設立登記法人,奈良県,吉野郡黒滝村,大字寺戸３０４番地,,29,444,6380251,,,,,,,2022-09-12,1,,,,,カワタニサンリンホゼンカイ,0
1533,6180001152965,新規,0,2022-09-12,2022-09-12,エピソード・ラーニング株式会社,,株式会社,愛知県,名古屋市瑞穂区,高田町２丁目２８番地の１,,23,108,4670808,,,,,,,2022-09-12,1,,,,,エピソードラーニング,0
1534,6180001152981,新規,0,2022-09-12,2022-09-12,株式会社ニューアプローチ,,株式会社,愛知県,名古屋市中村区,名駅３丁目２６番８号ＫＤＸ名古屋駅前ビル１３階,,23,105,4500002,,,,,,,2022-09-12,1,,,,,ニューアプローチ,0
1535,6180001153006,新規,0,2022-09-12,2022-09-12,株式会社イアス,,株式会社,愛知県,名古屋市港区,知多３丁目５０３番地,,23,111,4550883,,,,,,,2022-09-12,1,,,,,イアス,0
1545,6180003024238,新規,0,2022-09-12,2022-09-12,合同会社Ｔｓｕｍｕｇｉ,,合同会社,愛知県,名古屋市中村区,名駅４丁目２４番５号第２森ビル４０１,,23,105,4500002,,,,,,,2022-09-12,1,,,,,ツムギ,0
1546,6180003024246,新規,0,2022-09-12,2022-09-12,合同会社ギフテックス,,合同会社,愛知県,名古屋市中川区,西伏屋３丁目６０２－１－３０４,,23,110,4540982,,,,,,,2022-09-12,1,,,,,ギフテックス,0
1550,6180301036629,新規,0,2022-09-12,2022-09-12,Ｇｏｏｄ　Ｗｏｒｋ株式会社,,株式会社,愛知県,豊橋市,植田町字上リ戸３２番地４,,23,201,4418134,,,,,,,2022-09-12,1,,,,,グッドワーク,0
1566,6230003001909,新規,0,2022-09-12,2022-09-12,合同会社ハシテク,,合同会社,富山県,富山市,婦中町外輪野１２００２番地１,,16,201,9392632,,,,,,,2022-09-12,1,,,,,ハシテク,0
1589,6330001030107,新規,0,2022-09-12,2022-09-12,株式会社エム・エイト,,株式会社,熊本県,熊本市中央区,出水１丁目４番２８号,,43,101,8620941,,,,,,,2022-09-12,1,,,,,エムエイト,0
1591,6330003009512,新規,0,2022-09-12,2022-09-12,合同会社イロリ不動産,,合同会社,熊本県,熊本市東区,江津３丁目４－１２－２,,43,102,8620942,,,,,,,2022-09-12,1,,,,,イロリフドウサン,0
1592,6340001025031,新規,0,2022-09-12,2022-09-12,株式会社大健,,株式会社,鹿児島県,大島郡徳之島町,亀津４１９５番地５,,46,530,8917101,,,,,,,2022-09-12,1,,,,,ダイケン,0
1596,6350003004164,新規,0,2022-09-12,2022-09-12,合同会社バグジー,,合同会社,宮崎県,日向市,新生町２丁目８７,,45,206,8830013,,,,,,,2022-09-12,1,,,,,バグジー,0
1608,6440001009148,新規,0,2022-09-12,2022-09-12,株式会社エイト・アドバンス,,株式会社,北海道,函館市,亀田中野町２１９番地１４,,01,202,0410803,,,,,,,2022-09-12,1,,,,,エイトアドバンス,0
1614,6500001024454,新規,0,2022-09-12,2022-09-12,株式会社イチエコ開発,,株式会社,愛媛県,四国中央市,豊岡町長田２９７番地１,,38,213,7990435,,,,,,,2022-09-12,1,,,,,イチエコカイハツ,0
1621,7010001229481,新規,0,2022-09-12,2022-09-12,株式会社ＳＨＩＰ第３０２号,,株式会社,東京都,千代田区,丸の内２丁目７番２号,,13,101,1000005,,,,,,,2022-09-12,1,,,,,エスエイチアイピーダイサンビヤクニゴウ,0
1623,7010005035538,新規,0,2022-09-12,2022-09-12,医療法人社団たかやま会,,その他の設立登記法人,東京都,文京区,根津１丁目４番４号河内ビル６階,,13,105,1130031,,,,,,,2022-09-12,1,,,,,タカヤマカイ,0
1640,7010401169609,新規,0,2022-09-12,2022-09-12,株式会社ルーンマスター,,株式会社,東京都,港区,北青山１丁目３番６号ＳＩビル青山,,13,103,1070061,,,,,,,2022-09-12,1,,,,,ルーンマスター,0
1641,7010401169633,新規,0,2022-09-12,2022-09-12,ジャパンホテルオペレーションズ株式会社,,株式会社,東京都,港区,芝大門２丁目２番１号ＡＣＮ芝大門ビルディング６階,,13,103,1050012,,,,,,,2022-09-12,1,,,,,ジャパンホテルオペレーションズ,0
1642,7010401169682,新規,0,2022-09-12,2022-09-12,株式会社ＰＡＮＤＡ,,株式会社,東京都,港区,元赤坂１丁目２－７赤坂Ｋタワー４階,,13,103,1070051,,,,,,,2022-09-12,1,,,,,パンダ,0
1646,7010403028449,新規,0,2022-09-12,2022-09-12,合同会社アール,,合同会社,東京都,港区,南青山２丁目２番１５号,,13,103,1070062,,,,,,,2022-09-12,1,,,,,アール,0
1647,7010403028457,新規,0,2022-09-12,2022-09-12,ＴＫ１合同会社,,合同会社,東京都,港区,北青山１丁目６番５－１０４号,,13,103,1070061,,,,,,,2022-09-12,1,,,,,ティーケーワン,0
1648,7010403028465,新規,0,2022-09-12,2022-09-12,合同会社豊昌フーズ,,合同会社,東京都,港区,南青山５丁目１７－２シドニービル５０２,,13,103,1070062,,,,,,,2022-09-12,1,,,,,ホウショウフーズ,0
1649,7010403028473,新規,0,2022-09-12,2022-09-12,Ｌｉｍａ商事合同会社,,合同会社,東京都,港区,東新橋２丁目１０番１０号東新橋ビル６１１号,,13,103,1050021,,,,,,,2022-09-12,1,,,,,リマショウジ,0
1652,7010501049363,新規,0,2022-09-12,2022-09-12,中＿株式会社,00127820,株式会社,東京都,台東区,雷門２丁目１９番１７号浅草雷一ビル５１１,,13,106,1110034,,,,,,,2022-09-12,1,,,,,チュウギョク,0
1669,7011001149629,新規,0,2022-09-12,2022-09-12,株式会社ウーマンネクスト,,株式会社,東京都,渋谷区,恵比寿南１丁目２０－６第２１荒井ビル４Ｆ,,13,113,1500022,,,,,,,2022-09-12,1,,,,,ウーマンネクスト,0
1673,7011005009721,新規,0,2022-09-12,2022-09-12,医療法人社団ｔｒｏｉｓ,,その他の設立登記法人,東京都,渋谷区,恵比寿１丁目８番１８号恵比寿森ビル６階,,13,113,1500013,,,,,,,2022-09-12,1,,,,,トワ,0
1680,7011301028103,新規,0,2022-09-12,2022-09-12,株式会社江州ホールディングス,,株式会社,東京都,杉並区,阿佐谷南３丁目２番２号,,13,115,1660004,,,,,,,2022-09-12,1,,,,,ゴウシュウホールディングス,0
1682,7011601026244,新規,0,2022-09-12,2022-09-12,株式会社ＡＬＬｉｎ,,株式会社,東京都,練馬区,栄町３－８新日本パレス江古田３階,,13,120,1760006,,,,,,,2022-09-12,1,,,,,オールイン,0
1684,7011603003695,新規,0,2022-09-12,2022-09-12,合同会社アオキメディカルコンサルティング,,合同会社,東京都,練馬区,高野台３丁目３３番２３号,,13,120,1770033,,,,,,,2022-09-12,1,,,,,アオキメディカルコンサルティング,0
1687,7011701025583,新規,0,2022-09-12,2022-09-12,株式会社もみじＮＫＴ,,株式会社,東京都,江戸川区,西葛西８丁目４番１３－１１１０号,,13,123,1340088,,,,,,,2022-09-12,1,,,,,モミジエヌケイティ,0
1688,7011701025600,新規,0,2022-09-12,2022-09-12,株式会社エミエルハウス,,株式会社,東京都,江戸川区,南小岩１丁目２番１７号,,13,123,1330056,,,,,,,2022-09-12,1,,,,,エミエルハウス,0
1689,7011801041266,新規,0,2022-09-12,2022-09-12,株式会社ＡＬＰＨＡ,,株式会社,東京都,足立区,東伊興２丁目４－２３－３０３,,13,121,1210801,,,,,,,2022-09-12,1,,,,,アルファ,0
1692,7013301049599,新規,0,2022-09-12,2022-09-12,Ｆｌｙｕｓ株式会社,,株式会社,東京都,豊島区,東池袋１丁目３４番５号いちご東池袋ビル６階,,13,116,1700013,,,,,,,2022-09-12,1,,,,,フライアス,0
1693,7013303006292,新規,0,2022-09-12,2022-09-12,ＨＤ貿易合同会社,,合同会社,東京都,豊島区,西池袋１丁目２９番１４号オリエント池袋３０６,,13,116,1710021,,,,,,,2022-09-12,1,,,,,エイチディーボウエキ,0
1698,7020003022388,新規,0,2022-09-12,2022-09-12,和幸デザイン合同会社,,合同会社,神奈川県,横浜市磯子区,中原２丁目３番１１－４０１号,,14,107,2350036,,,,,,,2022-09-12,1,,,,,ワコウデザイン,0
1706,7030001150033,新規,0,2022-09-12,2022-09-12,株式会社Ｄｉｈｏ,,株式会社,埼玉県,草加市,氷川町２１２２番地４日建第４ビル４Ｆ,,11,221,3400034,,,,,,,2022-09-12,1,,,,,ディホ,0
1707,7030001150066,新規,0,2022-09-12,2022-09-12,株式会社プティポワ,,株式会社,埼玉県,草加市,高砂１丁目５－１７高砂ビル２階,,11,221,3400015,,,,,,,2022-09-12,1,,,,,プティポワ,0
1708,7030003020168,新規,0,2022-09-12,2022-09-12,合同会社ＴＩＧＥＲ　ＨＯＬＥ,,合同会社,埼玉県,川口市,西青木１丁目３番３４号２Ｆ,,11,203,3320035,,,,,,,2022-09-12,1,,,,,タイガーホール,0
1709,7030003020184,新規,0,2022-09-12,2022-09-12,Ｗ　Ｌｉｆｅ　ｄｅｃｏ合同会社,,合同会社,埼玉県,三郷市,彦成４丁目１番２０－２３６号,,11,237,3410003,,,,,,,2022-09-12,1,,,,,ダブルライフデコ,0
1712,7040001125083,新規,0,2022-09-12,2022-09-12,株式会社Ａｖｅｎｔａ,,株式会社,千葉県,柏市,松ケ崎１０９２番地,,12,217,2770835,,,,,,,2022-09-12,1,,,,,アベンタ,0
1721,7050001051626,新規,0,2022-09-12,2022-09-12,株式会社みんなの夢サロン,,株式会社,茨城県,ひたちなか市,大字馬渡３９０５番地３,,08,221,3120012,,,,,,,2022-09-12,1,,,,,ミンナノユメサロン,0
1722,7050001051675,新規,0,2022-09-12,2022-09-12,株式会社和実,,株式会社,茨城県,つくば市,高崎７３６番地６,,08,220,3001245,,,,,,,2022-09-12,1,,,,,ナゴミ,0
1727,7060001035264,新規,0,2022-09-12,2022-09-12,株式会社トーセンホールディングス,,株式会社,栃木県,矢板市,山田６７番地,,09,211,3292511,,,,,,,2022-09-12,1,,,,,トーセンホールディングス,0
1731,7070001039628,新規,0,2022-09-12,2022-09-12,ＭＴＳ　ＴＲＡＤＩＮＧ株式会社,,株式会社,群馬県,桐生市,天神町２丁目２番１４号,,10,203,3760052,,,,,,,2022-09-12,1,,,,,エムティーエストレーディング,0
1747,7120001248644,新規,0,2022-09-12,2022-09-12,Ｃｈａｉｎ　Ｌｕｃｋ　Ｉｎｖｅｓｔｍｅｎｔ株式会社,,株式会社,大阪府,大阪市中央区,島之内１丁目１６番３－７０２号,,27,128,5420082,,,,,,,2022-09-12,1,,,,,チェインラックインベストメント,0
1748,7120001248660,新規,0,2022-09-12,2022-09-12,澄株式会社,,株式会社,大阪府,大阪市中央区,松屋町９番２０号ローレルステート松屋町９０２Ａ,,27,128,5420067,,,,,,,2022-09-12,1,,,,,チョウ,0
1749,7120001248792,新規,0,2022-09-12,2022-09-12,株式会社美ＰＯ,,株式会社,大阪府,大阪市東成区,東小橋３丁目３番２７号ハウスエージェントビル３階,,27,115,5370024,,,,,,,2022-09-12,1,,,,,ビピオ,0
1759,7122001036228,新規,0,2022-09-12,2022-09-12,不二機工業株式会社,,株式会社,大阪府,八尾市,天王寺屋２丁目１１９番地の２,,27,212,5810025,,,,,,,2022-09-12,1,,,,,フジキコウギョウ,0
1760,7122003002418,新規,0,2022-09-12,2022-09-12,合同会社おかげ,,合同会社,大阪府,東大阪市,中小阪１丁目１９番１６号,,27,227,5770804,,,,,,,2022-09-12,1,,,,,オカゲ,0
1773,7140003018110,新規,0,2022-09-12,2022-09-12,合同会社ＮＧＵＹＥＮ　ＴＡＩ,,合同会社,兵庫県,神戸市北区,鈴蘭台西町１丁目２０番８－２０１号,,28,109,6511114,,,,,,,2022-09-12,1,,,,,グェンタイ,0
1778,7150005009420,新規,0,2022-09-12,2022-09-12,特定非営利活動法人奈良福祉センターグリーン,,その他の設立登記法人,奈良県,天理市,杣之内町８１８番地２,,29,204,6320032,,,,,,,2022-09-12,1,,,,,ナラフクシセンターグリーン,0
1779,7170001017276,新規,0,2022-09-12,2022-09-12,プラス株式会社,,株式会社,和歌山県,岩出市,森２０１番地の８５,,30,209,6496205,,,,,,,2022-09-12,1,,,,,プラス,0
1793,7180001152873,新規,0,2022-09-12,2022-09-12,株式会社りんどう,,株式会社,愛知県,東海市,養父町浅間前４９番地１,,23,222,4770034,,,,,,,2022-09-12,1,,,,,リンドウ,0
1794,7180001152956,新規,0,2022-09-12,2022-09-12,株式会社ＮＩＳＨＩＫＩ管理,,株式会社,愛知県,名古屋市中区,丸の内３丁目２０番５号,,23,106,4600002,,,,,,,2022-09-12,1,,,,,ニシキカンリ,0
1795,7180001152964,新規,0,2022-09-12,2022-09-12,株式会社Ｌｉｆｅ　ｒｉｂｕｔｉｏｎ,,株式会社,愛知県,一宮市,花池３丁目９番地９,,23,203,4910914,,,,,,,2022-09-12,1,,,,,ライフリビューション,0
1796,7180001152980,新規,0,2022-09-12,2022-09-12,株式会社ＢＯＲＤＥＲＬＥＳＳ,,株式会社,愛知県,名古屋市東区,東桜２丁目１３番１号ｅａｓｔｇａｔｈｅｒ東桜３階３Ｂ号,,23,102,4610005,,,,,,,2022-09-12,1,,,,,ボーダレス,0
1797,7180001153005,新規,0,2022-09-12,2022-09-12,株式会社ＡＳＡホーム,,株式会社,愛知県,名古屋市守山区,泉が丘６２４番地,,23,113,4630804,,,,,,,2022-09-12,1,,,,,アサホーム,0
1804,7180003024237,新規,0,2022-09-12,2022-09-12,合同会社ｎｅｘｔ　ｍａｎａｇｅｍｅｎｔ,,合同会社,愛知県,名古屋市守山区,川宮町２９５番地,,23,113,4630081,,,,,,,2022-09-12,1,,,,,ネクストマネジメント,0
1805,7180003024245,新規,0,2022-09-12,2022-09-12,ＣＰＴＡアソシエイツ合同会社,,合同会社,愛知県,名古屋市中村区,則武２丁目３番２号,,23,105,4530014,,,,,,,2022-09-12,1,,,,,シーピーティーエーアソシエイツ,0
1812,7180303005440,新規,0,2022-09-12,2022-09-12,合同会社ｌｉｆｅ　ＣＨＡＮＧＥ,,合同会社,愛知県,豊田市,保見町松本６－２,,23,211,4700344,,,,,,,2022-09-12,1,,,,,ライフチェンジ,0
1817,7200003005663,新規,0,2022-09-12,2022-09-12,カイコンサルパートナーズ合同会社,,合同会社,岐阜県,揖斐郡大野町,大字黒野１２７７－１５,,21,403,5010521,,,,,,,2022-09-12,1,,,,,カイコンサルパートナーズ,0
1822,7240003005800,新規,0,2022-09-12,2022-09-12,合同会社リビジョン,,合同会社,広島県,広島市安佐南区,伴東８丁目２１－２９,,34,105,7313164,,,,,,,2022-09-12,1,,,,,リビジョン,0
1824,7260003004032,新規,0,2022-09-12,2022-09-12,ちとせメタバースデザイン合同会社,,合同会社,岡山県,倉敷市,西中新田３７６番地１１,,33,202,7100833,,,,,,,2022-09-12,1,,,,,チトセメタバースデザイン,0
1829,7290003012940,新規,0,2022-09-12,2022-09-12,ＧＯＡＬｆｏｒＫ合同会社,,合同会社,福岡県,福岡市東区,唐原４丁目１８番１２－１号,,40,131,8130001,,,,,,,2022-09-12,1,,,,,ゴールフォーク,0
1839,7340001025030,新規,0,2022-09-12,2022-09-12,Ａｍｕｌｅｔ株式会社,,株式会社,鹿児島県,鹿児島市,平川町８３６番地９,,46,201,8910133,,,,,,,2022-09-12,1,,,,,アミュレット,0
1845,7360001030961,新規,0,2022-09-12,2022-09-12,美作株式会社,,株式会社,沖縄県,那覇市,前島３丁目２５番２号泊ポートビル１階,,47,201,9000016,,,,,,,2022-09-12,1,,,,,チュラサク,0
1849,7360003012297,新規,0,2022-09-12,2022-09-12,合同会社安里自動車整備工場,,合同会社,沖縄県,宮古郡多良間村,字塩川４９８番地,,47,375,9060601,,,,,,,2022-09-12,1,,,,,アサトジドウシャセイビコウジョウ,0
1850,7370003005829,新規,0,2022-09-12,2022-09-12,合同会社ＫＩＰ,,合同会社,宮城県,仙台市青葉区,木町通１丁目２番３２－５０５号,,04,101,9800801,,,,,,,2022-09-12,1,,,,,キップ,0
1858,7420001017993,新規,0,2022-09-12,2022-09-12,十和田商会株式会社,,株式会社,青森県,十和田市,大字三本木字稲吉１２１番地６８１,,02,206,0340001,,,,,,,2022-09-12,1,,,,,トワダショウカイ,0
1875,7500001024453,新規,0,2022-09-12,2022-09-12,株式会社ＭＥＧ,,株式会社,愛媛県,今治市,大正町２丁目３番地１３,,38,202,7940025,,,,,,,2022-09-12,1,,,,,メグ,0
1878,7700150111668,新規,0,2022-09-12,2022-09-12,Ｐａｔｈ　ｔｏ　Ｓｃｉｅｎｃｅ　ｆｏｒ　Ｇｉｒｌｓ,,その他,東京都,文京区,本郷７丁目３－１東京大学大学院医学系研究科　健康科学・看護学専攻内　山本則子研究室,,13,105,1130033,,,,,,,2022-09-12,1,,,,,パストゥサイエンスフォアガールズ,0
1879,7700150111676,新規,0,2022-09-12,2022-09-12,ＷＳＳＳ　ＥＥ　ＨＫ２Ｅ　リミテッド,,外国会社等,東京都,港区,六本木６丁目１０番１号六本木ヒルズ森タワー,,13,103,1060032,中華人民共和国香港特別行政区コーズウェイベイ、３３ハイサンアベニュー、リーガーデンワン１９階１９０１,,,,,,2022-09-12,1,,,,,ダブリユーエスエスエスイーイーエイチケーツーイーリミテツド,0
1886,8010001229480,新規,0,2022-09-12,2022-09-12,株式会社ＳＨＩＰ第３０３号,,株式会社,東京都,千代田区,丸の内２丁目７番２号,,13,101,1000005,,,,,,,2022-09-12,1,,,,,エスエイチアイピーダイサンビャクサンゴウ,0
1887,8010005035537,新規,0,2022-09-12,2022-09-12,東京オフィスＥａｓｔ２一般社団法人,,その他の設立登記法人,東京都,千代田区,丸の内３丁目１番１号東京共同会計事務所内,,13,101,1000005,,,,,,,2022-09-12,1,,,,,トウキョウオフィスイーストツー,0
1888,8010005035553,新規,0,2022-09-12,2022-09-12,一般社団法人Ｔｏｔｓｕ　Ｒｅｓｉｄｅｎｃｅ,,その他の設立登記法人,東京都,中央区,新川１丁目１７番１８号,,13,102,1040033,,,,,,,2022-09-12,1,,,,,トウツウレジデンス,0
1903,8010401169608,新規,0,2022-09-12,2022-09-12,株式会社シーカーズポート,,株式会社,東京都,港区,六本木３丁目２番１号,,13,103,1060032,,,,,,,2022-09-12,1,,,,,シーカーズポート,0
1904,8010401169616,新規,0,2022-09-12,2022-09-12,株式会社ＴＯＧＯ,,株式会社,東京都,港区,浜松町２丁目２番１５号浜松町ダイヤビル２階,,13,103,1050013,,,,,,,2022-09-12,1,,,,,トゴウ,0
1905,8010401169632,新規,0,2022-09-12,2022-09-12,株式会社オペラボーテ,,株式会社,東京都,港区,南青山６丁目８番１１号２Ｆ,,13,103,1070062,,,,,,,2022-09-12,1,,,,,オペラボーテ,0
1906,8010401169640,新規,0,2022-09-12,2022-09-12,株式会社Ｏ２Ｄ,,株式会社,東京都,港区,白金３丁目２３番地６号フォリア白金１Ｆ,,13,103,1080072,,,,,,,2022-09-12,1,,,,,オーツーディー,0
1914,8010403028480,新規,0,2022-09-12,2022-09-12,タイズ合同会社,,合同会社,東京都,港区,南青山２丁目２番１５号ウィン青山９４２,,13,103,1070062,,,,,,,2022-09-12,1,,,,,タイズ,0
1916,8010405021343,新規,0,2022-09-12,2022-09-12,グローバル・パートナー税理士法人,,その他の設立登記法人,東京都,港区,赤坂６丁目１０番８号,,13,103,1070052,,,,,,,2022-09-12,1,,,,,グローバルパートナー,0
1917,8010405021384,新規,0,2022-09-12,2022-09-12,一般社団法人ＯＷ３,,その他の設立登記法人,東京都,港区,愛宕２丁目５番１号愛宕グリーンヒルズＭＯＲＩタワー３７階,,13,103,1050002,,,,,,,2022-09-12,1,,,,,オーダブリュースリー,0
1919,8010601061812,新規,0,2022-09-12,2022-09-12,日本佐藏株式会社,,株式会社,東京都,墨田区,横川３丁目６番７号２－Ａ室,,13,107,1300003,,,,,,,2022-09-12,1,,,,,ニホンサクラ,0
1920,8010603009727,新規,0,2022-09-12,2022-09-12,合同会社アミクス,,合同会社,東京都,墨田区,石原１丁目１番４－４０２号,,13,107,1300011,,,,,,,2022-09-12,1,,,,,アミクス,0
1922,8010703006384,新規,0,2022-09-12,2022-09-12,合同会社ＡＮＥＬＡ,,合同会社,東京都,品川区,西五反田３丁目１２番地８号カーサグラン五反田３０５号,,13,109,1410031,,,,,,,2022-09-12,1,,,,,アネラ,0
1932,8011001149628,新規,0,2022-09-12,2022-09-12,株式会社かいこう,,株式会社,東京都,渋谷区,恵比寿４丁目１０－８ｏｒａｎｇｅ恵比寿２Ｆ,,13,113,1500013,,,,,,,2022-09-12,1,,,,,カイコウ,0
1933,8011001149652,新規,0,2022-09-12,2022-09-12,株式会社ミクロック,,株式会社,東京都,渋谷区,道玄坂１丁目１６－６二葉ビル８Ｂ,,13,113,1500043,,,,,,,2022-09-12,1,,,,,ミクロック,0
1935,8011005009720,新規,0,2022-09-12,2022-09-12,医療法人社団協修会,,その他の設立登記法人,東京都,渋谷区,本町３丁目１０番３号清水橋矢部ビル６０１号室,,13,113,1510071,,,,,,,2022-09-12,1,,,,,キョウシュウカイ,0
1943,8011701025599,新規,0,2022-09-12,2022-09-12,嘉の礼株式会社,,株式会社,東京都,江戸川区,平井７丁目２０番１３－２０２,,13,123,1320035,,,,,,,2022-09-12,1,,,,,カノレイ,0
1954,8013301049631,新規,0,2022-09-12,2022-09-12,株式会社ビズコネクト,,株式会社,東京都,豊島区,南池袋１丁目１６番１５号ダイヤゲート池袋５階,,13,116,1710022,,,,,,,2022-09-12,1,,,,,ビズコネクト,0
1955,8013303006291,新規,0,2022-09-12,2022-09-12,合同会社助佐家,,合同会社,東京都,豊島区,千早２丁目２１番１２号,,13,116,1710044,,,,,,,2022-09-12,1,,,,,,0
1957,8020001148151,新規,0,2022-09-12,2022-09-12,株式会社Ｖ・Ｆカンパニー,,株式会社,神奈川県,横浜市港北区,日吉本町１丁目２番４号,,14,109,2230062,,,,,,,2022-09-12,1,,,,,ヴィエフカンパニー,0
1964,8021003012130,新規,0,2022-09-12,2022-09-12,合同会社ＨｘＲ,,合同会社,神奈川県,茅ヶ崎市,東海岸南２丁目１１番２４－３０２号グランドメゾン東海岸南,,14,207,2530054,,,,,,,2022-09-12,1,,,,,エイチバイアール,0
1971,8030001150016,新規,0,2022-09-12,2022-09-12,株式会社ジェイパフォーマンス,,株式会社,埼玉県,比企郡吉見町,大字下細谷６１１番２,,11,347,3550118,,,,,,,2022-09-12,1,,,,,ジェイパフォーマンス,0
1972,8030001150032,新規,0,2022-09-12,2022-09-12,株式会社ビー・オー・ティー,,株式会社,埼玉県,川越市,旭町１丁目４番地６（サンクレイドル川越旭町３０４号室）,,11,201,3501126,,,,,,,2022-09-12,1,,,,,ビーオーティー,0
1973,8030001150049,新規,0,2022-09-12,2022-09-12,株式会社ｗｅｅｄ,,株式会社,埼玉県,吉川市,美南５丁目１２番地１２,,11,243,3420038,,,,,,,2022-09-12,1,,,,,ウィード,0
1974,8030001150073,新規,0,2022-09-12,2022-09-12,株式会社美工,,株式会社,埼玉県,越谷市,大字平方３０７０番地７,,11,222,3430002,,,,,,,2022-09-12,1,,,,,ビコウ,0
1975,8030003020167,新規,0,2022-09-12,2022-09-12,合同会社徳積進,,合同会社,埼玉県,川越市,砂新田１丁目２２番地１,,11,201,3501137,,,,,,,2022-09-12,1,,,,,トクシン,0
1976,8030003020183,新規,0,2022-09-12,2022-09-12,合同会社サクラジャパン,,合同会社,埼玉県,春日部市,藤塚１３７４番地５,,11,214,3440011,,,,,,,2022-09-12,1,,,,,サクラジャパン,0
1980,8040001125058,新規,0,2022-09-12,2022-09-12,株式会社キワカンパニー,,株式会社,千葉県,松戸市,常盤平６丁目６番地の１,,12,207,2702261,,,,,,,2022-09-12,1,,,,,キワカンパニー,0
1981,8040001125074,新規,0,2022-09-12,2022-09-12,ＷＡＮＫＯ株式会社,,株式会社,千葉県,四街道市,和良比９５１－４１４,,12,228,2840044,,,,,,,2022-09-12,1,,,,,ワンコ,0
1992,8050001051666,新規,0,2022-09-12,2022-09-12,株式会社三協,,株式会社,茨城県,稲敷郡阿見町,大字実穀字横町１２９９番地２,,08,443,3001153,,,,,,,2022-09-12,1,,,,,サンキョウ,0
1997,8060003004225,新規,0,2022-09-12,2022-09-12,ｃｏｃｏｔｔｅ合同会社,,合同会社,栃木県,矢板市,東町１２３９番地１サンタヒルズ矢板１階,,09,211,3292136,,,,,,,2022-09-12,1,,,,,ココット,0
1999,8070001039627,新規,0,2022-09-12,2022-09-12,株式会社きたかる,,株式会社,群馬県,吾妻郡長野原町,大字北軽井沢１９２４番地１１５０,,10,424,3771412,,,,,,,2022-09-12,1,,,,,キタカル,0
2001,8080001025188,新規,0,2022-09-12,2022-09-12,株式会社ＫＩＹＡＭＡＨＯＭＥ,,株式会社,静岡県,静岡市駿河区,宮竹１丁目１８番１５号豊ハイツ１０５号,,22,102,4228035,,,,,,,2022-09-12,1,,,,,キヤマホーム,0
2009,8100003006687,新規,0,2022-09-12,2022-09-12,合同会社サウザンドクレイン,,合同会社,長野県,松本市,寿中１丁目８番１５号,,20,202,3990026,,,,,,,2022-09-12,1,,,,,サウザンドクレイン,0
2018,8110005016857,新規,0,2022-09-12,2022-09-12,医療法人社団みやざわクリニック,,その他の設立登記法人,新潟県,上越市,大和５丁目２０番１６号,,15,222,9430861,,,,,,,2022-09-12,1,,,,,ミヤザワクリニック,0
2028,8120001248742,新規,0,2022-09-12,2022-09-12,株式会社ディグナイト,,株式会社,大阪府,大阪市生野区,新今里５丁目１５番１７号ブランシュＩＩ２Ｄ号室,00127810,27,116,5440001,,,,,,,2022-09-12,1,,,,,ディグナイト,0
2029,8120001248800,新規,0,2022-09-12,2022-09-12,東仁貿易株式会社,,株式会社,大阪府,大阪市生野区,巽北１丁目２１－２９－９１９号室,00127821,27,116,5440004,,,,,,,2022-09-12,1,,,,,トウジンボウエキ,0
2031,8120003022393,新規,0,2022-09-12,2022-09-12,合同会社Ｃｒｏｗｎ　Ｏｎ,,合同会社,大阪府,大阪市中央区,日本橋２丁目１１番２号,,27,128,5420073,,,,,,,2022-09-12,1,,,,,クラウンオン,0
2035,8120101066210,新規,0,2022-09-12,2022-09-12,株式会社ライカブリッジ,,株式会社,大阪府,堺市堺区,熊野町東４丁４番１９号平成ビル７階７０１号,,27,141,5900946,,,,,,,2022-09-12,1,,,,,ライカブリッジ,0
2036,8120101066219,新規,0,2022-09-12,2022-09-12,株式会社ダイヤパワー,,株式会社,大阪府,堺市堺区,北花田口町１丁１番２３号,,27,141,5900074,,,,,,,2022-09-12,1,,,,,ダイヤパワー,0
2040,8130001072588,新規,0,2022-09-12,2022-09-12,ＢＵＺＺ　ＭＥＤＩＡ株式会社,,株式会社,京都府,京都市中京区,河原町通御池下る下丸屋町３９０番地２ＱＵＥＳＴＩＯＮ内,,26,104,6048006,,,,,,,2022-09-12,1,,,,,バズメディア,0
2043,8130005016574,新規,0,2022-09-12,2022-09-12,一般社団法人ＬＳＰ,,その他の設立登記法人,京都府,京都市左京区,吉田上阿達町１７地域経済牽引拠点ビル,,26,103,6068307,,,,,,,2022-09-12,1,,,,,エルエスピー,0
2053,8140003018084,新規,0,2022-09-12,2022-09-12,Ｇｒｏｗ　ｗｉｔｈ合同会社,,合同会社,兵庫県,神戸市東灘区,向洋町中７丁目２－１－４番館９０４号室,,28,101,6580032,,,,,,,2022-09-12,1,,,,,グローウィズ,0
2068,8180001152963,新規,0,2022-09-12,2022-09-12,株式会社ＬＯＣＴ,,株式会社,愛知県,名古屋市昭和区,伊勝町１丁目２６番地の２,,23,107,4660805,,,,,,,2022-09-12,1,,,,,ロクト,0
2069,8180001152988,新規,0,2022-09-12,2022-09-12,株式会社たべれもフーズ,,株式会社,愛知県,名古屋市西区,押切１丁目１０番７号１Ｆ,,23,104,4510063,,,,,,,2022-09-12,1,,,,,タベレモフーズ,0
2098,8290001098857,新規,0,2022-09-12,2022-09-12,株式会社ＬＡＰＯＲＬ,,株式会社,福岡県,福岡市博多区,山王１丁目１０番２７号山王川上ビルＣ－１,,40,132,8120015,,,,,,,2022-09-12,1,,,,,ラポール,0
2099,8290001098898,新規,0,2022-09-12,2022-09-12,新日本ウェルネス株式会社,,株式会社,福岡県,飯塚市,吉原町３－１,,40,205,8200040,,,,,,,2022-09-12,1,,,,,シンニホンウェルネス,0
2103,8290005018803,新規,0,2022-09-12,2022-09-12,特定非営利活動法人ほすぴぃ八女んちゃ,,その他の設立登記法人,福岡県,八女市,黒木町本分２３６６番地１,,40,210,8341213,,,,,,,2022-09-12,1,,,,,ホスピィヤメンチャ,0
2105,8290801028864,新規,0,2022-09-12,2022-09-12,株式会社藤井工業,,株式会社,福岡県,田川市,大字川宮８９３番地１,,40,206,8260042,,,,,,,2022-09-12,1,,,,,フジイコウギョウ,0
2106,8290801028872,新規,0,2022-09-12,2022-09-12,株式会社ヒューマンプラネット,,株式会社,福岡県,北九州市小倉北区,紺屋町１３番１号,,40,106,8020081,,,,,,,2022-09-12,1,,,,,ヒューマンプラネット,0
2112,8320003003902,新規,0,2022-09-12,2022-09-12,合同会社Ｆｏｒｅｓｔ,,合同会社,大分県,由布市,挾間町田代５１９番地２,,44,213,8795519,,,,,,,2022-09-12,1,,,,,フォレスト,0
2115,8330001030105,新規,0,2022-09-12,2022-09-12,株式会社橋永農園,,株式会社,熊本県,八代市,東陽町河俣３５１７番地,,43,202,8694303,,,,,,,2022-09-12,1,,,,,ハシナガノウエン,0
2119,8360001030952,新規,0,2022-09-12,2022-09-12,株式会社沖廃工業,,株式会社,沖縄県,那覇市,繁多川４丁目１４番５号,,47,201,9020071,,,,,,,2022-09-12,1,,,,,オキハイコウギョウ,0
2120,8360001030960,新規,0,2022-09-12,2022-09-12,株式会社ナカラボ,,株式会社,沖縄県,浦添市,当山１丁目５番２号－１０１,,47,208,9012104,,,,,,,2022-09-12,1,,,,,ナカラボ,0
2126,8420001018000,新規,0,2022-09-12,2022-09-12,株式会社デーリー東北おいらせ専売所,,株式会社,青森県,上北郡おいらせ町,下明堂２１番地２,,02,412,0392224,,,,,,,2022-09-12,1,,,,,デーリートウホクオイラセセンバイジョ,0
2129,8430001087457,新規,0,2022-09-12,2022-09-12,住環境プランニング株式会社,,株式会社,北海道,札幌市南区,簾舞五条１丁目１２番１７号,00127812,01,106,0612265,,,,,,,2022-09-12,1,,,,,ジュウカンキョウプランニング,0
2133,8490003001699,新規,0,2022-09-12,2022-09-12,合同会社フィンガーズクロス,,合同会社,高知県,高知市,高須３丁目１－４５メゾン北村４０６,,39,201,7818104,,,,,,,2022-09-12,1,,,,,フィンガーズクロス,0
2135,8700150111675,新規,0,2022-09-12,2022-09-12,ＴＨＡＩＬＡＮＫＡ　ＩＭＰＥＸ,,外国会社等,神奈川県,綾瀬市,蓼川１丁目１２番１０号チェリーヒル１０１,,14,218,2521105,スリランカ民主社会主義共和国、ラガメ、ケレンゲポクネ、ペマナンデロード、４９／３番,,,,,,2022-09-12,1,,,,,タイランカインペクス,0
2148,9010001229463,新規,0,2022-09-12,2022-09-12,株式会社ＹＯＳＨＩ,,株式会社,東京都,文京区,千石４丁目２７－１３マルキュウビル４０１,,13,105,1120011,,,,,,,2022-09-12,1,,,,,ヨシ,0
2151,9010003038631,新規,0,2022-09-12,2022-09-12,合同会社Ｒｉｎｇ．,,合同会社,東京都,中央区,銀座１丁目２２番１１号銀座大竹ビジデンス２階,,13,102,1040061,,,,,,,2022-09-12,1,,,,,リング,0
2152,9010005035536,新規,0,2022-09-12,2022-09-12,一般社団法人ＧＦＫ,,その他の設立登記法人,東京都,千代田区,丸の内３丁目１番１号東京共同会計事務所内,,13,101,1000005,,,,,,,2022-09-12,1,,,,,ジーエフケイ,0
2162,9010401169425,新規,0,2022-09-12,2022-09-12,株式会社ＳＨＡＰＥ　Ｐａｒｔｎｅｒｓ,,株式会社,東京都,港区,北青山２丁目７番１３号,,13,103,1070061,,,,,,,2022-09-12,1,,,,,シェイプパートナーズ,0
2163,9010401169607,新規,0,2022-09-12,2022-09-12,ＯＺＡＷＡ　ＩＰ株式会社,,株式会社,東京都,港区,芝５丁目３２番１２号,,13,103,1080014,,,,,,,2022-09-12,1,,,,,オザワアイピー,0
2164,9010401169623,新規,0,2022-09-12,2022-09-12,株式会社Ａ＆Ａカンパニー,,株式会社,東京都,港区,南青山７丁目１３番２－３１１号,,13,103,1070062,,,,,,,2022-09-12,1,,,,,エーアンドエーカンパニー,0
2165,9010401169631,新規,0,2022-09-12,2022-09-12,Ｙ２Ｔｅｘｔｕｒｅ株式会社,,株式会社,東京都,港区,南青山２丁目２番１５号ＷｉｎＡｏｙａｍａビルＵＣＦ６３５,,13,103,1070062,,,,,,,2022-09-12,1,,,,,ワイツーテクスチャ,0
2166,9010401169656,新規,0,2022-09-12,2022-09-12,株式会社ＤＭＭ　ＦＳ,,株式会社,東京都,港区,六本木３丁目２番１号,,13,103,1060032,,,,,,,2022-09-12,1,,,,,ディーエムエムエフエス,0
2170,9010403028447,新規,0,2022-09-12,2022-09-12,クリソプレーズ合同会社,,合同会社,東京都,港区,東麻布２丁目３番１号,,13,103,1060044,,,,,,,2022-09-12,1,,,,,クリソプレーズ,0
2171,9010403028455,新規,0,2022-09-12,2022-09-12,東京地建合同会社,,合同会社,東京都,港区,六本木７丁目３番１９－２１１号,,13,103,1060032,,,,,,,2022-09-12,1,,,,,トウキョウチケン,0
2172,9010403028488,新規,0,2022-09-12,2022-09-12,合同会社ＲＦＰ,,合同会社,東京都,港区,海岸１丁目１番１－４２０８号,,13,103,1050022,,,,,,,2022-09-12,1,,,,,アールエフピー,0
2173,9010403028496,新規,0,2022-09-12,2022-09-12,Ｗｅｉｂｏ　Ｊａｐａｎ合同会社,,合同会社,東京都,港区,白金台３丁目１０番１０号,,13,103,1080071,,,,,,,2022-09-12,1,,,,,ウェイボージャパン,0
2184,9010701043189,新規,0,2022-09-12,2022-09-12,株式会社アクトアウト,,株式会社,東京都,品川区,東大井５丁目７番１４号杉山ビル２Ｆ,,13,109,1400011,,,,,,,2022-09-12,1,,,,,アクトアウト,0
2185,9010703006383,新規,0,2022-09-12,2022-09-12,合同会社ｆａｍｉｌｌｅ,,合同会社,東京都,品川区,南品川４丁目４番１７号品川サウスタワー,,13,109,1400004,,,,,,,2022-09-12,1,,,,,ファミーユ,0
2196,9011001149676,新規,0,2022-09-12,2022-09-12,シンポ商事株式会社,,株式会社,東京都,渋谷区,千駄ヶ谷５丁目２６番５号,,13,113,1510051,,,,,,,2022-09-12,1,,,,,シンポショウジ,0
2197,9011001149718,新規,0,2022-09-12,2022-09-12,株式会社メントル自動車教習所,,株式会社,東京都,渋谷区,渋谷２丁目２１番１号,,13,113,1500002,,,,,,,2022-09-12,1,,,,,メントルジドウシャキョウシュウジョ,0
2199,9011003015315,新規,0,2022-09-12,2022-09-12,ＳＧＬ合同会社,,合同会社,東京都,渋谷区,神山町２７番９号５Ａ,,13,113,1500047,,,,,,,2022-09-12,1,,,,,エスジーエル,0
2200,9011003015348,新規,0,2022-09-12,2022-09-12,合同会社工房３７３,,合同会社,東京都,渋谷区,神山町３８番８号インナートリッププラザ神山町２２２号室,,13,113,1500047,,,,,,,2022-09-12,1,,,,,コウボウサンナナサン,0
2217,9011701025598,新規,0,2022-09-12,2022-09-12,株式会社Ｃｒｅａｔｉｖｅ　Ｗｏｒｋｓ,,株式会社,東京都,江戸川区,西一之江４丁目３番５号,,13,123,1320023,,,,,,,2022-09-12,1,,,,,クリエイティブワークス,0
2221,9011801041272,新規,0,2022-09-12,2022-09-12,株式会社Ｃｒａｚｙ‐Ｗｏｒｋ‐Ｃｒａｆｔｓｍｅｎ,,株式会社,東京都,葛飾区,東金町５丁目２１番２２号,,13,122,1250041,,,,,,,2022-09-12,1,,,,,クレイジーワーククラフトメン,0
2222,9012305002026,新規,0,2022-09-12,2022-09-12,一般社団法人国際人間安全保障機構,,その他の設立登記法人,東京都,町田市,三輪町３２１番地２シャンポール斉藤Ｂ－２０８,,13,209,1950054,,,,,,,2022-09-12,1,,,,,コクサイニンゲンアンゼンホショウキコウ,0
2224,9012401039632,新規,0,2022-09-12,2022-09-12,株式会社３Ｄｆｉｎｅ,,株式会社,東京都,稲城市,矢野口７３０番地の１,,13,225,2060812,,,,,,,2022-09-12,1,,,,,スリーディーファイン,0
2244,9021001076969,新規,0,2022-09-12,2022-09-12,株式会社邸宅巣箱,,株式会社,神奈川県,鎌倉市,佐助１丁目５番６号ヒルズコート鎌倉１０１号室,,14,204,2480017,,,,,,,2022-09-12,1,,,,,テイタクスバコ,0
2246,9021003012138,新規,0,2022-09-12,2022-09-12,合同会社ＭｏｕｎｔａｉｎＨｉｇｈ,,合同会社,神奈川県,相模原市緑区,二本松３丁目１９番２６号,,14,151,2520137,,,,,,,2022-09-12,1,,,,,マウンテンハイ,0
2247,9030001150007,新規,0,2022-09-12,2022-09-12,株式会社京,,株式会社,埼玉県,比企郡滑川町,大字羽尾２８２番地,,11,341,3550811,,,,,,,2022-09-12,1,,,,,ケイ,0
2248,9030001150072,新規,0,2022-09-12,2022-09-12,埼玉リフォーム株式会社,,株式会社,埼玉県,さいたま市大宮区,桜木町２丁目３番地大宮マルイ７階,,11,103,3300854,,,,,,,2022-09-12,1,,,,,サイタマリフォーム,0
2250,9030005020981,新規,0,2022-09-12,2022-09-12,一般社団法人日本３Ｄプリンティング矯正歯科学会,,その他の設立登記法人,埼玉県,さいたま市大宮区,宮町２丁目１１８番地１,,11,103,3300802,,,,,,,2022-09-12,1,,,,,ニホンスリーディープリンティングキョウセイシカガッカイ,0
2253,9040001125057,新規,0,2022-09-12,2022-09-12,株式会社ＫＩＷＡコーポレーション,,株式会社,千葉県,松戸市,常盤平６丁目６－１,,12,207,2702261,,,,,,,2022-09-12,1,,,,,キワコーポレーション,0
2260,9050003006840,新規,0,2022-09-12,2022-09-12,合同会社マリンリュウ,,合同会社,茨城県,稲敷郡阿見町,大字荒川本郷１３２７番地２５,,08,443,3001152,,,,,,,2022-09-12,1,,,,,マリンリュウ,0
2267,9070001039618,新規,0,2022-09-12,2022-09-12,株式会社ゼネラルチャレンジ,,株式会社,群馬県,前橋市,天川大島町３丁目７７９番地,,10,201,3792154,,,,,,,2022-09-12,1,,,,,ゼネラルチャレンジ,0
2268,9070001039626,新規,0,2022-09-12,2022-09-12,株式会社ＮＥＴＢＬＯＸ,,株式会社,群馬県,伊勢崎市,山王町１１４２番地１５,,10,204,3720831,,,,,,,2022-09-12,1,,,,,ネットブロックス,0
2275,9100001035695,新規,0,2022-09-12,2022-09-12,株式会社ラフリエイト,,株式会社,長野県,上伊那郡中川村,片桐４０５９番地５,,20,386,3993802,,,,,,,2022-09-12,1,,,,,ラフリエイト,0
2288,9120001248717,新規,0,2022-09-12,2022-09-12,もりふく株式会社,,株式会社,大阪府,大阪市北区,野崎町１番２５号新大和ビル７０２,,27,127,5300055,,,,,,,2022-09-12,1,,,,,モリフク,0
2289,9120001248741,新規,0,2022-09-12,2022-09-12,株式会社ＳＤＣ,,株式会社,大阪府,大阪市北区,西天満１丁目２番５号,,27,127,5300047,,,,,,,2022-09-12,1,,,,,エスディーシー,0
2290,9120001248799,新規,0,2022-09-12,2022-09-12,タリア株式会社,,株式会社,大阪府,大阪市東淀川区,瑞光２丁目１２－３３－５０３,,27,114,5330005,,,,,,,2022-09-12,1,,,,,タリア,0
2292,9120101066226,新規,0,2022-09-12,2022-09-12,株式会社ＡＩＷＡ,,株式会社,大阪府,堺市南区,御池台２丁４２番１５号,,27,145,5900134,,,,,,,2022-09-12,1,,,,,アイワ,0
2295,9120901046492,新規,0,2022-09-12,2022-09-12,株式会社ＳＩＮＧ,,株式会社,大阪府,吹田市,樫切山１９番３６号,,27,205,5650806,,,,,,,2022-09-12,1,,,,,シング,0
2296,9120903004300,新規,0,2022-09-12,2022-09-12,ＡＳ企画合同会社,,合同会社,大阪府,箕面市,粟生間谷西６丁目１６番１４号,,27,220,5620023,,,,,,,2022-09-12,1,,,,,エーエスキカク,0
2311,9140001127340,新規,0,2022-09-12,2022-09-12,ＴｒｕｓＴ　ｆａｍｉｌｙ株式会社,,株式会社,兵庫県,加古川市,野口町古大内４９９番地の１４,,28,210,6750014,,,,,,,2022-09-12,1,,,,,トラストファミリー,0
2313,9140003018117,新規,0,2022-09-12,2022-09-12,合同会社Ｌａｋｉ,,合同会社,兵庫県,神戸市須磨区,平田町３丁目１番１０号,,28,107,6540021,,,,,,,2022-09-12,1,,,,,ラキ,0
2314,9140003018133,新規,0,2022-09-12,2022-09-12,イーリスフロンティアジャパン合同会社,,合同会社,兵庫県,赤穂市,高野１１３１,,28,212,6780171,,,,,,,2022-09-12,1,,,,,イーリスフロンティアジャパン,0
2330,9180001152987,新規,0,2022-09-12,2022-09-12,三洋ホールディングス株式会社,,株式会社,愛知県,名古屋市瑞穂区,堀田通５丁目８番地,,23,108,4670862,,,,,,,2022-09-12,1,,,,,サンヨウホールディングス,0
2335,9180003024227,新規,0,2022-09-12,2022-09-12,ｂｌａｎｃｈｅ合同会社,,合同会社,愛知県,名古屋市東区,泉３丁目１３－２１マノアール泉５０６,,23,102,4610001,,,,,,,2022-09-12,1,,,,,ブランシェ,0
2339,9180303005372,新規,0,2022-09-12,2022-09-12,ＢＯＸ　ＢＲＡＳＩＬ合同会社,,合同会社,愛知県,豊橋市,岩屋町字岩屋西１－３－２Ｆ,,23,201,4400842,,,,,,,2022-09-12,1,,,,,ボックスブラジル,0
2354,9250001019766,新規,0,2022-09-12,2022-09-12,株式会社ｉｃｒａｔｔ,,株式会社,山口県,周南市,住吉町２番７号尾崎ビル６階,,35,215,7450064,,,,,,,2022-09-12,1,,,,,アイクラット,0
2356,9260003004030,新規,0,2022-09-12,2022-09-12,合同会社ＨＯＰＬＵＳ,,合同会社,岡山県,津山市,小原２００番地５,,33,203,7080001,,,,,,,2022-09-12,1,,,,,ホープラス,0
2368,9290003012939,新規,0,2022-09-12,2022-09-12,合同会社ハル,,合同会社,福岡県,福岡市博多区,築港本町１１－３エルスタンザ天神東６０２,,40,132,8120021,,,,,,,2022-09-12,1,,,,,ハル,0
2371,9300005007092,新規,0,2022-09-12,2022-09-12,特定非営利活動法人子ども未来Ｌａｂ,,その他の設立登記法人,佐賀県,杵島郡白石町,大字福田２２１９番地エスポアハウス・鈴２０５号室,,41,425,8491112,,,,,,,2022-09-12,1,,,,,コドモミライラボ,0
2375,9320003003901,新規,0,2022-09-12,2022-09-12,Ｎピカテック合同会社,,合同会社,大分県,中津市,沖代町２丁目８番６８号,,44,203,8710021,,,,,,,2022-09-12,1,,,,,エヌピカテック,0
2386,9360003012295,新規,0,2022-09-12,2022-09-12,合同会社スリーズ,,合同会社,沖縄県,那覇市,壺川２丁目７－４－３Ｆ,,47,201,9000025,,,,,,,2022-09-12,1,,,,,スリーズ,0
2392,9380003005272,新規,0,2022-09-12,2022-09-12,合同会社サリエ,,合同会社,福島県,伊達市,柳内４８番地１９ガーデンパレス伊達１０１号室,,07,213,9600483,,,,,,,2022-09-12,1,,,,,サリエ,0
2395,9390003001997,新規,0,2022-09-12,2022-09-12,合同会社ＳＫ‐Ｓｏｆｔｗａｒｅ,,合同会社,山形県,長井市,館町北６番２７号タスビル２階ｉ‐ｂａｙ内,,06,209,9930011,,,,,,,2022-09-12,1,,,,,エスケーソフトウエア,0
2398,9430001087448,新規,0,2022-09-12,2022-09-12,株式会社内藤工業,,株式会社,北海道,苫小牧市,日吉町４丁目２４番６号,,01,213,0530816,,,,,,,2022-09-12,1,,,,,ナイトウコウギョウ,0
2403,9460005001559,新規,0,2022-09-12,2022-09-12,豊伸協同組合,,その他の設立登記法人,北海道,厚岸郡厚岸町,奔渡３丁目１０３番地,,01,662,0881111,,,,,,,2022-09-12,1,,,,,ホウシン,0
2409,9700150111674,新規,0,2022-09-12,2022-09-12,ＨＳ　Ｇｒｏｕｐ　Ｊａｐａｎ　Ｃａｙｍａｎ,,外国会社等,東京都,港区,虎ノ門１丁目１７番１号虎ノ門ヒルズビジネスタワー１５階,,13,103,1050001,英国領ケイマン諸島、グランド・ケイマン、アグランド・ハウス、ピーオーボックス３０９、メイプルズ・コーポレート・サービシズ・リミテッド内,,,,,,2022-09-12,1,,,,,エイチエスグループジヤパンケイマン,0
