sequenceNumber,corporateNumber,process,correct,updateDate,changeDate,name,nameImageId,kind,prefectureName,cityName,streetNumber,addressImageId,prefectureCode,cityCode,postCode,addressOutside,addressOutsideImageId,closeDate,closeCause,successorCorporateNumber,changeCause,assignmentDate,latest,enName,enPrefectureName,enCityName,enAddressOutside,furigana,hihyoji
3,1010001162325,登記記録の閉鎖等,0,2024-04-18,2024-04-10,北海道環境資源開発株式会社,,株式会社,北海道,北広島市,輪厚中央４丁目２番地２５,,01,234,0611268,,,2024-04-10,清算の結了等,,,2015-10-05,1,,,,,ホッカイドウカンキョウシゲンカイハツ,0
29,1010803002620,登記記録の閉鎖等,0,2024-04-18,2024-04-15,合同会社クワドラント,,合同会社,東京都,新宿区,新宿５丁目１８番２０号ルックハイツ新宿８０３号,,13,104,1600022,,,2024-04-15,合併による解散等,1011003005380,令和６年４月１日東京都豊島区東池袋一丁目１７番１１号パークハイツ池袋１１０５号合同会社コンテクスト（1011003005380）に合併し解散,2018-03-14,1,,,,,クワドラント,0
56,1011701001994,登記記録の閉鎖等,0,2024-04-18,2024-04-10,関東機工株式会社,,株式会社,東京都,江戸川区,中央１丁目１８番３号,,13,123,1320021,,,2024-04-10,清算の結了等,,,2015-10-05,1,,,,,カントウキコウ,0
94,1030002006636,登記記録の閉鎖等,0,2024-04-18,2024-04-11,有限会社昭和薬局,,有限会社,埼玉県,さいたま市浦和区,常盤９丁目３２番２２号,,11,107,3300061,,,2024-04-11,清算の結了等,,,2015-10-05,1,,,,,ショウワヤッキョク,0
112,1060002019940,登記記録の閉鎖等,0,2024-04-18,2024-04-08,有限会社鹿沼製作所,,有限会社,栃木県,鹿沼市,樅山町６２０番地,,09,205,3220046,,,2024-04-08,清算の結了等,,,2015-10-05,1,,,,,カヌマセイサクショ,0
117,1070002026250,登記記録の閉鎖等,0,2024-04-18,2024-04-15,有限会社小林クリーンサービス,,有限会社,群馬県,北群馬郡吉岡町,大字南下５７９番地５,,10,345,3703604,,,2024-04-15,清算の結了等,,,2015-10-05,1,,,,,コバヤシクリーンサービス,0
118,1070005000153,登記記録の閉鎖等,0,2024-04-18,2024-04-15,農事組合法人宮城集約生産肉牛組合,,その他の設立登記法人,群馬県,前橋市,苗ヶ島町３６９番地,,10,201,3710241,,,2024-04-15,清算の結了等,,,2015-10-05,1,,,,,ミヤギシュウヤクセイサンニクウシクミアイ,0
180,1220002016921,登記記録の閉鎖等,0,2024-04-18,2024-04-10,有限会社沢本繊維,,有限会社,石川県,かほく市,内日角ト１０番地３,,17,209,9291126,,,2024-04-10,清算の結了等,,,2015-10-05,1,,,,,サワモトセンイ,0
183,1240001041687,登記記録の閉鎖等,0,2024-04-18,2024-04-16,株式会社フィフティ,,株式会社,広島県,広島市佐伯区,五日市町大字石内３７１５番地の２,,34,108,7315102,,,2024-04-16,清算の結了等,,,2015-10-05,1,,,,,フィフティ,0
202,1300002011014,登記記録の閉鎖等,0,2024-04-18,2024-04-15,有限会社エデンのタマゴ,,有限会社,佐賀県,唐津市,鎮西町加倉１１９６番地の１,,41,202,8470325,,,2024-04-15,清算の結了等,,,2015-10-05,1,,,,,エデンノタマゴ,0
214,1340001004056,登記記録の閉鎖等,0,2024-04-18,2024-04-15,丸松建設株式会社,,株式会社,鹿児島県,鹿児島市,西坂元町６１番７号,,46,201,8920863,,,2024-04-15,合併による解散等,6340001004407,令和６年４月１５日鹿児島市吉野町１０５８番地１山口興業株式会社（6340001004407）に合併し解散,2015-10-05,1,,,,,マルマツケンセツ,0
240,1500002002736,登記記録の閉鎖等,0,2024-04-18,2024-04-11,有限会社小銀寿司,,有限会社,愛媛県,松山市,二番町１丁目５番地２９,,38,201,7900002,,,2024-04-11,清算の結了等,,,2015-10-05,1,,,,,コギンズシ,0
252,2010001195002,登記記録の閉鎖等,0,2024-04-18,2024-04-08,株式会社マイナビリテイリング,,株式会社,東京都,千代田区,一ツ橋１丁目１番１号,,13,101,1000003,,,2024-04-08,清算の結了等,,,2018-09-25,1,,,,,マイナビリテイリング,0
262,2010401116838,登記記録の閉鎖等,0,2024-04-18,2024-04-03,Ｏｐｔｉｍａｌ　Ｐｌｕｓ　Ｊａｐａｎ株式会社,,株式会社,東京都,港区,虎ノ門４丁目３番１号城山トラストタワー東京赤坂法律事務所内,,13,103,1050001,,,2024-04-03,清算の結了等,,,2015-10-05,1,,,,,オプティマルプラスジャパン,0
263,2010401169472,登記記録の閉鎖等,0,2024-04-18,2024-04-12,ＭＴテクノロジーズ株式会社,,株式会社,東京都,港区,虎ノ門３丁目２番２号,,13,103,1050001,,,2024-04-12,合併による解散等,6010001225960,令和６年４月１日東京都千代田区大手町一丁目２番１号ＭＴテクノロジーズ株式会社（6010001225960）に合併し解散,2022-09-05,1,,,,,エムティーテクノロジーズ,0
267,2010501003977,登記記録の閉鎖等,0,2024-04-18,2024-04-08,株式会社駒田電気,,株式会社,東京都,台東区,台東４丁目４番４号,,13,106,1100016,,,2024-04-08,清算の結了等,,,2015-10-05,1,,,,,コマダデンキ,0
268,2010502010460,登記記録の閉鎖等,0,2024-04-18,2024-04-08,有限会社松田屋商店,,有限会社,東京都,台東区,日本堤２丁目２０番１７号,,13,106,1110021,,,2024-04-08,清算の結了等,,,2015-10-05,1,,,,,マツダヤショウテン,0
269,2010601016409,登記記録の閉鎖等,0,2024-04-18,2024-04-08,山木土木株式会社,,株式会社,東京都,墨田区,千歳３丁目３番３号,,13,107,1300025,,,2024-04-08,清算の結了等,,,2015-10-05,1,,,,,ヤマキドボク,0
346,2030002044635,登記記録の閉鎖等,0,2024-04-18,2024-04-10,有限会社関光メディカル,,有限会社,埼玉県,草加市,中央１丁目２番２２号,,11,221,3400016,,,2024-04-10,清算の結了等,,,2015-10-05,1,,,,,カンコウメディカル,0
357,2040003019569,登記記録の閉鎖等,0,2024-04-18,2024-04-09,リスクリワード合同会社,,合同会社,千葉県,千葉市中央区,弁天１丁目１５－３,,12,101,2600045,,,2024-04-09,清算の結了等,,,2022-02-28,1,,,,,リスクリワード,0
368,2070002034277,登記記録の閉鎖等,0,2024-04-18,2024-04-12,有限会社ユナイテッド,,有限会社,群馬県,館林市,本町１丁目１０番５号,,10,207,3740024,,,2024-04-12,清算の結了等,,,2015-10-05,1,,,,,ユナイテッド,0
380,2100002037739,登記記録の閉鎖等,0,2024-04-18,2024-04-03,有限会社インフィニ,,有限会社,長野県,飯田市,駄科２３４１番地３９,,20,205,3992561,,,2024-04-03,清算の結了等,,,2015-10-05,1,,,,,インフィニ,0
403,2120905005451,登記記録の閉鎖等,0,2024-04-18,2024-04-12,特定非営利活動法人ジョイントハート,,その他の設立登記法人,大阪府,豊中市,東泉丘４丁目１番３－３０９号,,27,203,5610861,,,2024-04-12,清算の結了等,,,2016-09-15,1,,,,,ジョイントハート,0
410,2130002006906,登記記録の閉鎖等,0,2024-04-18,2024-04-16,有限会社川本,,有限会社,京都府,京都市下京区,室町通四条下る鶏鉾町５０１番地,,26,106,6008491,,,2024-04-16,清算の結了等,,,2015-10-05,1,,,,,カワモト,0
419,2140002037264,登記記録の閉鎖等,0,2024-04-18,2024-04-08,有限会社能勢工務店,,有限会社,兵庫県,高砂市,米田町島６０番地の２,,28,216,6760807,,,2024-04-08,清算の結了等,,,2015-10-05,1,,,,,ノセコウムテン,0
424,2140005004600,登記記録の閉鎖等,0,2024-04-18,2024-04-10,特定非営利活動法人兵庫文化研究所,,その他の設立登記法人,兵庫県,神戸市中央区,御幸通３丁目１－１,,28,110,6510087,,,2024-04-10,清算の結了等,,,2015-10-05,1,,,,,ヒョウゴブンカケンキュウショ,0
426,2160001000709,登記記録の閉鎖等,0,2024-04-18,2024-04-08,近若石油株式会社,,株式会社,滋賀県,大津市,瀬田大江町１３番１０,,25,201,5202123,,,2024-04-08,清算の結了等,,,2015-10-05,1,,,,,キンジャクセキユ,0
443,2200001035287,登記記録の閉鎖等,0,2024-04-18,2024-04-15,福田興業株式会社,,株式会社,岐阜県,岐阜市,薮田南５丁目８番２０号ガーデンロイヤルＢ棟１０６,,21,201,5008384,,,2024-04-15,清算の結了等,,,2018-06-19,1,,,,,フクダコウギョウ,0
458,2280002008318,登記記録の閉鎖等,0,2024-04-18,2024-04-16,澤村運輸有限会社,,有限会社,島根県,浜田市,生湯町１３６３番地７,,32,202,6970002,,,2024-04-16,清算の結了等,,,2015-10-05,1,,,,,サワムラウンユ,0
467,2290801012320,登記記録の閉鎖等,0,2024-04-18,2024-04-15,東海カラー株式会社,,株式会社,福岡県,北九州市若松区,大字安瀬１番地,,40,103,8080022,,,2024-04-15,合併による解散等,3010001139107,令和６年４月１日東京都中央区日本橋本町二丁目２番５号日鉄鋼板株式会社（3010001139107）に合併し解散,2015-10-05,1,,,,,トウカイカラー,0
469,2320005002288,登記記録の閉鎖等,0,2024-04-18,2024-04-05,特定非営利活動法人ムラづくりＮＰＯ　風の原っぱ,,その他の設立登記法人,大分県,由布市,湯布院町川上１５２４番地７,,44,213,8795102,,,2024-04-05,清算の結了等,,,2015-10-05,1,,,,,ムラヅクリエヌピーオーカゼノハラッパ,0
470,2330001031018,登記記録の閉鎖等,0,2024-04-18,2024-04-09,株式会社ロア薬局,,株式会社,熊本県,熊本市中央区,水前寺４丁目５２番５１号,,43,101,8620950,,,2024-04-09,清算の結了等,,,2023-07-07,1,,,,,ロアヤッキョク,0
503,2430001054792,登記記録の閉鎖等,0,2024-04-18,2024-04-10,株式会社リリーフトウショウ,,株式会社,北海道,苫小牧市,花園町４丁目１２番１７号,,01,213,0530853,,,2024-04-10,清算の結了等,,,2015-10-05,1,,,,,リリーフトウショウ,0
509,2430003003946,登記記録の閉鎖等,0,2024-04-18,2024-04-11,合同会社ライフセキユ,,合同会社,北海道,札幌市白石区,北郷二条７丁目８番１５号,,01,104,0030832,,,2024-04-11,清算の結了等,,,2015-10-05,1,,,,,ライフセキユ,0
513,2470001003960,登記記録の閉鎖等,0,2024-04-18,2024-04-09,株式会社みのり,,株式会社,香川県,高松市,太田上町２３１番地２,,37,201,7618074,,,2024-04-09,清算の結了等,,,2015-10-05,1,,,,,ミノリ,0
514,2470001005247,登記記録の閉鎖等,0,2024-04-18,2024-04-10,株式会社だるま,,株式会社,香川県,高松市,国分寺町柏原６３７番地２５,,37,201,7690105,,,2024-04-10,清算の結了等,,,2015-10-05,1,,,,,ダルマ,0
524,3010001095762,登記記録の閉鎖等,0,2024-04-18,2024-04-11,株式会社マルハニチロリテールサービス,,株式会社,東京都,中央区,入船３丁目５番１０号,,13,102,1040042,,,2024-04-11,合併による解散等,5010701025050,令和６年４月１日静岡県榛原郡吉田町川尻１１４２番地の１株式会社マルハニチロオーシャン（5010701025050）に合併し解散,2015-10-05,1,,,,,マルハニチロリテールサービス,0
541,3010405015333,登記記録の閉鎖等,0,2024-04-18,2024-04-15,一般社団法人育勉普及協会,,その他の設立登記法人,静岡県,浜松市中央区,高林１丁目８番４３号,,22,138,4300907,,,2024-04-15,清算の結了等,,,2016-12-08,1,,,,,イクベンフキュウキョウカイ,0
547,3010601033601,登記記録の閉鎖等,0,2024-04-18,2024-04-10,株式会社Ｓｅａｒｃｈｃｏ,,株式会社,東京都,江東区,福住２丁目６番９－４１２号,,13,108,1350032,,,2024-04-10,清算の結了等,,,2015-10-05,1,,,,,サーチコ,0
557,3011001096247,登記記録の閉鎖等,0,2024-04-18,2024-04-03,株式会社ハビテック,,株式会社,東京都,品川区,西五反田１丁目３番８号,,13,109,1410031,,,2024-04-03,清算の結了等,,,2015-10-05,1,,,,,ハビテック,0
566,3011003005032,登記記録の閉鎖等,0,2024-04-18,2024-04-15,株式会社ランド,,株式会社,東京都,目黒区,平町１丁目１０番２６－６０２号,,13,110,1520032,,,2024-04-15,合併による解散等,1011003005380,令和６年４月１日東京都豊島区東池袋一丁目１７番１１号パークハイツ池袋１１０５号合同会社コンテクスト（1011003005380）に合併し解散,2015-10-05,1,,,,,ランド,0
590,3020001100430,登記記録の閉鎖等,0,2024-04-18,2024-04-09,株式会社翼晴,,株式会社,神奈川県,川崎市宮前区,初山２丁目２２番１７号向ヶ丘矢沢荘３号室,,14,136,2160026,,,2024-04-09,清算の結了等,,,2015-10-05,1,,,,,スケハル,0
608,3040001113851,登記記録の閉鎖等,0,2024-04-18,2024-04-08,株式会社プランビングコーポレーション,,株式会社,千葉県,船橋市,薬円台５丁目２０番２号ルージェ薬円台１０１号,,12,204,2740077,,,2024-04-08,清算の結了等,,,2020-06-08,1,,,,,プランビングコーポレーション,0
617,3060001021730,登記記録の閉鎖等,0,2024-04-18,2024-04-10,ジーヴィエス・エムシー株式会社,,株式会社,栃木県,芳賀郡市貝町,大字市塙１３８２番地２,,09,344,3213423,,,2024-04-10,清算の結了等,,,2015-10-05,1,,,,,ジーヴィエスエムシー,0
626,3080401005174,登記記録の閉鎖等,0,2024-04-18,2024-04-12,株式会社マルナカランバー,,株式会社,静岡県,浜松市中央区,篠原町２２４８９番地,,22,138,4310201,,,2024-04-12,合併による解散等,7080402001739,令和６年４月１日東京都渋谷区渋谷二丁目１０番１５号株式会社オーランドカンパニー（7080402001739）に合併し解散,2015-10-05,1,,,,,マルナカランバー,0
629,3090002012115,登記記録の閉鎖等,0,2024-04-18,2024-04-15,有限会社城東緑化,,有限会社,山梨県,富士吉田市,上吉田東５丁目７番３２号,,19,202,4030032,,,2024-04-15,清算の結了等,,,2015-10-05,1,,,,,ジョウトウリョッカ,0
642,3120001230003,登記記録の閉鎖等,0,2024-04-18,2024-04-04,フィルターテクノジャパン株式会社,,株式会社,大阪府,大阪市住之江区,新北島１丁目２番１号オスカードリーム５Ｆ,,27,125,5590024,,,2024-04-04,合併による解散等,5120001231230,令和６年３月３１日大阪市住之江区新北島一丁目２番１号オスカードリーム５Ｆ株式会社ＡＴＪ（5120001231230）に合併し解散,2020-06-26,1,,,,,フィルターテクノジャパン,0
668,3140002014808,登記記録の閉鎖等,0,2024-04-18,2024-04-08,タカノトレーディング有限会社,,有限会社,北海道,千歳市,大和２丁目６番２号,,01,224,0660066,,,2024-04-08,清算の結了等,,,2015-10-05,1,,,,,タカノトレーディング,0
670,3150001013495,登記記録の閉鎖等,0,2024-04-18,2024-04-16,三喜物流株式会社,,株式会社,奈良県,葛城市,南道穗２０２番地,,29,211,6392143,,,2024-04-16,清算の結了等,,,2015-10-05,1,,,,,ミキブツリュウ,0
677,3180001043317,登記記録の閉鎖等,0,2024-04-18,2024-04-04,神田画廊株式会社,,株式会社,愛知県,名古屋市名東区,梅森坂３丁目３３０１番地,,23,115,4650065,,,2024-04-04,清算の結了等,,,2015-10-05,1,,,,,カンダガロウ,0
683,3180003009927,登記記録の閉鎖等,0,2024-04-18,2024-04-04,合同会社ファミリー,,合同会社,愛知県,名古屋市昭和区,御器所３丁目１６番２１号,,23,107,4660051,,,2024-04-04,清算の結了等,,,2015-10-05,1,,,,,ファミリー,0
687,3200002019032,登記記録の閉鎖等,0,2024-04-18,2024-04-12,有限会社ハヤカワ,,有限会社,岐阜県,関市,小瀬南２丁目１２番２号,,21,205,5013266,,,2024-04-12,清算の結了等,,,2015-10-05,1,,,,,ハヤカワ,0
701,3260005003226,登記記録の閉鎖等,0,2024-04-18,2024-04-01,公益財団法人倉敷考古館,,その他の設立登記法人,岡山県,倉敷市,中央１丁目３番１３号,,33,202,7100046,,,2024-04-01,合併による解散等,8260005008823,令和６年４月１日岡山県倉敷市中央一丁目１番１５号公益財団法人大原美術館（8260005008823）に合併し解散,2015-10-05,1,,,,,クラシキコウコカン,0
714,3320001017628,登記記録の閉鎖等,0,2024-04-18,2024-04-09,株式会社エー・ディー・イー,,株式会社,大分県,別府市,大字内竈１３９１番,,44,202,8740011,,,2024-04-09,合併による解散等,1010601041630,令和６年４月１日東京都江東区豊洲五丁目６番５２号株式会社オートバックス・マネジメントサービス（1010601041630）に合併し解散,2020-04-07,1,,,,,エーディーイー,0
724,3370202004098,登記記録の閉鎖等,0,2024-04-18,2024-04-09,有限会社システム・エンドウ,,有限会社,宮城県,加美郡加美町,下多田川字山田原一番６番地３,,04,445,9814202,,,2024-04-09,清算の結了等,,,2015-10-05,1,,,,,システムエンドウ,0
726,3380001014859,登記記録の閉鎖等,0,2024-04-18,2024-04-09,まごころ保険株式会社,,株式会社,福島県,いわき市,小島町３丁目１０番地の２,,07,204,9738411,,,2024-04-09,清算の結了等,,,2015-10-05,1,,,,,マゴコロホケン,0
731,3430001048083,登記記録の閉鎖等,0,2024-04-18,2024-04-11,株式会社アメニテイ開発,,株式会社,北海道,砂川市,東二条北３丁目１番１号,,01,226,0730152,,,2024-04-11,合併による解散等,6430001048816,令和６年４月１日東京都港区北青山三丁目６番７号青山パラシオタワー８Ｆ株式会社シロ（6430001048816）に合併し解散,2015-10-05,1,,,,,アメニテイカイハツ,0
739,3460002003134,登記記録の閉鎖等,0,2024-04-18,2024-04-16,宮下商事有限会社,,有限会社,北海道,釧路市,宝町２番１０号,,01,206,0850025,,,2024-04-16,清算の結了等,,,2015-10-05,1,,,,,ミヤシタショウジ,0
741,3470002003934,登記記録の閉鎖等,0,2024-04-18,2024-04-09,有限会社清和園,,有限会社,香川県,高松市,塩屋町９番地１１,,37,201,7600047,,,2024-04-09,清算の結了等,,,2015-10-05,1,,,,,セイワエン,0
748,4010001134759,登記記録の閉鎖等,0,2024-04-18,2024-04-15,株式会社アイ・ライティング・システム,,株式会社,埼玉県,鴻巣市,赤城台２１２番地１０,,11,217,3650001,,,2024-04-15,合併による解散等,3010001231953,令和６年４月１日東京都中央区東日本橋一丁目１番７号岩崎電気株式会社（3010001231953）に合併し解散,2015-10-05,1,,,,,アイライティングシステム,0
751,4010003035658,登記記録の閉鎖等,0,2024-04-18,2024-03-26,合同会社エルエーサイエンス・ラボ,,合同会社,東京都,文京区,音羽１丁目１５番１２号,,13,105,1120013,,,2024-03-26,清算の結了等,,,2021-08-24,1,,,,,エルエーサイエンスラボ,0
758,4010401168852,登記記録の閉鎖等,0,2024-04-18,2024-04-15,株式会社ジャフコグループＳＩＤ‐１,,株式会社,東京都,港区,虎ノ門１丁目２３番１号ジャフコグループ株式会社内,,13,103,1050001,,,2024-04-15,合併による解散等,9010001102075,令和６年４月１日東京都文京区後楽二丁目５番１号飯田橋ファーストビル９階株式会社キャリタス（9010001102075）に合併し解散,2022-08-03,1,,,,,ジャフコグループエスアイディーワン,0
777,4010803001776,登記記録の閉鎖等,0,2024-04-18,2024-04-15,合同会社ミナモト,,合同会社,東京都,渋谷区,恵比寿１丁目１５番９号シルク恵比寿４０３,,13,113,1500013,,,2024-04-15,合併による解散等,1011003005380,令和６年４月１日東京都豊島区東池袋一丁目１７番１１号パークハイツ池袋１１０５号合同会社コンテクスト（1011003005380）に合併し解散,2015-10-05,1,,,,,ミナモト,0
794,4011105001548,登記記録の閉鎖等,0,2024-04-18,2024-04-10,特定非営利活動法人東京国際福祉センター,,その他の設立登記法人,東京都,新宿区,新宿１丁目１７番１１号,,13,104,1600022,,,2024-04-10,清算の結了等,,,2015-10-05,1,,,,,トウキョウコクサイフクシセンター,0
806,4011803004760,登記記録の閉鎖等,0,2024-04-18,2024-04-15,合同会社ワタベ,,合同会社,東京都,足立区,保木間３丁目１７番１３号,,13,121,1210064,,,2024-04-15,清算の結了等,,,2021-09-03,1,,,,,ワタベ,0
807,4013301046608,登記記録の閉鎖等,0,2024-04-18,2024-04-11,株式会社未来の学校教育,,株式会社,東京都,中央区,築地５丁目３番２号,,13,102,1040045,,,2024-04-11,合併による解散等,6120001059605,令和６年４月１日大阪市北区中之島二丁目３番１８号株式会社朝日新聞社（6120001059605）に合併し解散,2020-12-14,1,,,,,ミライノガッコウキョウイク,0
833,4021002065918,登記記録の閉鎖等,0,2024-04-18,2024-04-16,有限会社中里農園,,有限会社,神奈川県,横須賀市,不入斗町３丁目２２番地,,14,201,2380051,,,2024-04-16,清算の結了等,,,2015-10-05,1,,,,,ナカザトノウエン,0
847,4030002086691,登記記録の閉鎖等,0,2024-04-18,2024-04-11,有限会社星光商事,,有限会社,埼玉県,越谷市,大字下間久里１０８８番地５,,11,222,3430045,,,2024-04-11,清算の結了等,,,2015-10-05,1,,,,,セイコウショウジ,0
853,4050002010063,登記記録の閉鎖等,0,2024-04-18,2024-04-10,有限会社カサマ電子工業,,有限会社,茨城県,笠間市,笠間２０９５番地,,08,216,3091611,,,2024-04-10,清算の結了等,,,2015-10-05,1,,,,,カサマデンシコウギョウ,0
857,4060001009799,登記記録の閉鎖等,0,2024-04-18,2024-04-11,藤村産業株式会社,,株式会社,栃木県,真岡市,勝瓜２３７番地６,,09,209,3214366,,,2024-04-11,清算の結了等,,,2015-10-05,1,,,,,フジムラサンギョウ,0
868,4080101015547,登記記録の閉鎖等,0,2024-04-18,2024-04-12,株式会社恵,,株式会社,静岡県,富士宮市,鳥並３７番地,,22,207,4190304,,,2024-04-12,清算の結了等,,,2015-10-05,1,,,,,メグミ,0
869,4080101017519,登記記録の閉鎖等,0,2024-04-18,2024-04-16,株式会社セカンドハビタット,,株式会社,神奈川県,海老名市,国分南１丁目２８番１２号,,14,215,2430405,,,2024-04-16,清算の結了等,,,2015-10-05,1,,,,,セカンドハビタット,0
879,4100002010140,登記記録の閉鎖等,0,2024-04-18,2024-04-02,有限会社かみやまだ建築,,有限会社,長野県,千曲市,大字上山田４６８番地５,,20,218,3890822,,,2024-04-02,清算の結了等,,,2015-10-05,1,,,,,カミヤマダケンチク,0
885,4120001078251,登記記録の閉鎖等,0,2024-04-18,2024-04-08,株式会社近畿鑑定地所,,株式会社,大阪府,大阪市中央区,南本町３丁目３番２３－６０８号,,27,128,5410054,,,2024-04-08,清算の結了等,,,2015-10-05,1,,,,,キンキカンテイジショ,0
889,4120001189908,登記記録の閉鎖等,0,2024-04-18,2024-04-15,株式会社インテンツ,,株式会社,大阪府,大阪市淀川区,西中島２丁目１４番６号,,27,123,5320011,,,2024-04-15,合併による解散等,8010001239835,令和６年４月１日東京都中央区日本橋人形町一丁目１１番２号ココネット株式会社（8010001239835）に合併し解散,2015-10-05,1,,,,,インテンツ,0
903,4122001024276,登記記録の閉鎖等,0,2024-04-18,2024-04-11,株式会社サイドスタッフ,,株式会社,大阪府,柏原市,本郷３丁目６番６号,,27,221,5820001,,,2024-04-11,清算の結了等,,,2015-10-05,1,,,,,サイドスタッフ,0
921,4140002028526,登記記録の閉鎖等,0,2024-04-18,2024-04-11,有限会社大久保薬局,,有限会社,兵庫県,神戸市西区,美賀多台７丁目５番地の６,,28,111,6512277,,,2024-04-11,清算の結了等,,,2015-10-05,1,,,,,オオクボヤッキョク,0
923,4140005018128,登記記録の閉鎖等,0,2024-04-18,2024-04-16,いなの運輸事業協同組合,,その他の設立登記法人,兵庫県,伊丹市,野間北３丁目４番８号,,28,207,6640875,,,2024-04-16,清算の結了等,,,2015-10-05,1,,,,,,0
947,4210001003885,登記記録の閉鎖等,0,2024-04-18,2024-04-15,株式会社又四郎商会,,株式会社,福井県,福井市,板垣１丁目７０３番,,18,201,9188104,,,2024-04-15,清算の結了等,,,2015-10-05,1,,,,,マタシロウショウカイ,0
950,4220002009823,登記記録の閉鎖等,0,2024-04-18,2024-04-01,株式会社ユニベールソーイング,,株式会社,石川県,金沢市,湊１丁目９３番地９,,17,201,9200211,,,2024-04-01,合併による解散等,4220001007357,令和６年４月１日石川県金沢市湊一丁目１５番地２ユニベール株式会社（4220001007357）に合併し解散,2015-10-05,1,,,,,ユニベールソーイング,0
967,4290001038247,登記記録の閉鎖等,0,2024-04-18,2024-04-11,ヤンマー発電システム製造株式会社,,株式会社,福岡県,糟屋郡宇美町,障子岳南３丁目９番６号,,40,341,8112126,,,2024-04-11,合併による解散等,7260001007565,令和６年４月１日岡山市東区西大寺新地３８３番地の２ヤンマーエネルギーシステム製造株式会社（7260001007565）に合併し解散,2015-10-05,1,,,,,ヤンマーハツデンシステムセイゾウ,0
991,4400003000977,登記記録の閉鎖等,0,2024-04-18,2024-04-04,株式会社エス・ティー・シー,,株式会社,秋田県,秋田市,飯島松根東町６番５７－２号,,05,201,0110922,,,2024-04-04,清算の結了等,,,2015-10-05,1,,,,,エスティーシー,0
1059,5011003007803,登記記録の閉鎖等,0,2024-04-18,2024-04-15,合同会社インタレスト,,合同会社,東京都,品川区,南品川４丁目４番１７号品川サウスタワー,,13,109,1400004,,,2024-04-15,合併による解散等,1011003005380,令和６年４月１日東京都豊島区東池袋一丁目１７番１１号パークハイツ池袋１１０５号合同会社コンテクスト（1011003005380）に合併し解散,2017-06-22,1,,,,,,0
1061,5011101000040,登記記録の閉鎖等,0,2024-04-18,2024-04-12,株式会社アイエスアール,,株式会社,東京都,千代田区,岩本町２丁目８番１２号,,13,101,1010032,,,2024-04-12,合併による解散等,3120001072817,令和６年４月１日大阪市北区中之島二丁目３番１８号日本システム技術株式会社（3120001072817）に合併し解散,2015-10-05,1,,,,,アイエスアール,0
1079,5011801016501,登記記録の閉鎖等,0,2024-04-18,2024-04-15,クニケミカル株式会社,,株式会社,東京都,足立区,東綾瀬１丁目４番１１号,,13,121,1200004,,,2024-04-15,清算の結了等,,,2015-10-05,1,,,,,クニケミカル,0
1122,5040005014268,登記記録の閉鎖等,0,2024-04-18,2024-04-08,柏鷲野谷テクノパーク協同組合,,その他の設立登記法人,千葉県,柏市,鷲野谷８０６番２３,,12,217,2701443,,,2024-04-08,清算の結了等,,,2015-10-05,1,,,,,カシワワシノヤテクノパーク,0
1125,5050003004518,登記記録の閉鎖等,0,2024-04-18,2024-04-08,ｉｂａｒ合同会社,,合同会社,東京都,中央区,銀座１丁目２２番１１号銀座大竹ビジデンス２階,,13,102,1040061,,,2024-04-08,清算の結了等,,,2019-01-28,1,,,,,アイバー,0
1150,5120001180683,登記記録の閉鎖等,0,2024-04-18,2024-04-11,グリーンフォーラム株式会社,,株式会社,大阪府,大阪市北区,野崎町６番７号,,27,127,5300055,,,2024-04-11,清算の結了等,,,2015-10-05,1,,,,,グリーンフォーラム,0
1158,5120002038344,登記記録の閉鎖等,0,2024-04-18,2024-04-11,有限会社ＢＳＴマーケティング,,有限会社,大阪府,大阪市中央区,北浜１丁目１番１８号,,27,128,5410041,,,2024-04-11,清算の結了等,,,2015-10-05,1,,,,,ビーエスティマーケティング,0
1161,5120003025168,登記記録の閉鎖等,0,2024-04-18,2024-04-05,合同会社一粟,,合同会社,大阪府,大阪市生野区,田島５丁目１８番４号２０２号室,,27,116,5440011,,,2024-04-05,清算の結了等,,,2023-10-24,1,,,,,イチゾク,0
1178,5130002006226,登記記録の閉鎖等,0,2024-04-18,2024-04-15,有限会社御蔭,,有限会社,京都府,京都市左京区,上高野防山１番地１９,,26,103,6060071,,,2024-04-15,清算の結了等,,,2015-10-05,1,,,,,オカゲ,0
1184,5180001093657,登記記録の閉鎖等,0,2024-04-18,2024-04-09,中部国際空港施設サービス株式会社,,株式会社,愛知県,常滑市,セントレア１丁目１番地,,23,216,4790881,,,2024-04-09,合併による解散等,4180001093658,令和６年４月１日愛知県常滑市セントレア一丁目１番地中部国際空港テクニカルコネクト株式会社（4180001093658）に合併し解散,2015-10-05,1,,,,,チュウブコクサイクウコウシセツサービス,0
1195,5220002009822,登記記録の閉鎖等,0,2024-04-18,2024-04-01,株式会社ロジス金沢,,株式会社,石川県,金沢市,湊１丁目１５番地２,,17,201,9200211,,,2024-04-01,合併による解散等,4220001007357,令和６年４月１日石川県金沢市湊一丁目１５番地２ユニベール株式会社（4220001007357）に合併し解散,2015-10-05,1,,,,,ロジスカナザワ,0
1198,5240001011538,登記記録の閉鎖等,0,2024-04-18,2024-04-15,株式会社ミヨシ,,株式会社,広島県,広島市中区,立町２番２７号,,34,101,7300032,,,2024-04-15,合併による解散等,3010401086675,令和６年４月１日東京都港区港南二丁目１５番１号タキロンシーアイプラス株式会社（3010401086675）に合併し解散,2015-10-05,1,,,,,ミヨシ,0
1199,5240001037277,登記記録の閉鎖等,0,2024-04-18,2024-04-15,竹原大同青果株式会社,,株式会社,広島県,竹原市,港町３丁目２番１号,,34,203,7250024,,,2024-04-15,清算の結了等,,,2015-10-05,1,,,,,,0
1207,5260001015173,登記記録の閉鎖等,0,2024-04-18,2024-04-05,ワドー株式会社,,株式会社,岡山県,倉敷市,玉島勇崎１１９０番地,,33,202,7138125,,,2024-04-05,清算の結了等,,,2015-10-05,1,,,,,ワドー,0
1234,5370001018801,登記記録の閉鎖等,0,2024-04-18,2024-04-05,大衡物流株式会社,,株式会社,宮城県,黒川郡大衡村,大衡字河原６７番地１３,,04,424,9813602,,,2024-04-05,清算の結了等,,,2015-10-05,1,,,,,オオヒラブツリュウ,0
1236,5370002013124,登記記録の閉鎖等,0,2024-04-18,2024-04-01,有限会社フェニックス青葉,,有限会社,宮城県,仙台市青葉区,上愛子字平治２８番地の１７,,04,101,9893124,,,2024-04-01,清算の結了等,,,2015-10-05,1,,,,,フェニックスアオバ,0
1238,5380001030755,登記記録の閉鎖等,0,2024-04-18,2024-04-08,あいづ環境システム株式会社,,株式会社,福島県,会津若松市,東千石２丁目２番１０号,,07,202,9650818,,,2024-04-08,合併による解散等,6380001018543,令和６年４月１日福島県会津若松市東千石二丁目２番１０号会津メンテ株式会社（6380001018543）に合併し解散,2020-03-09,1,,,,,アイヅカンキョウシステム,0
1245,5430001050178,登記記録の閉鎖等,0,2024-04-18,2024-04-11,株式会社太誠堂薬局,,株式会社,北海道,小樽市,塩谷２丁目１７番１２号,,01,203,0482672,,,2024-04-11,合併による解散等,9010401095530,令和６年４月１日東京都中央区八重洲二丁目２番１号株式会社ストレチア（9010401095530）に合併し解散,2015-10-05,1,,,,,タイセイドウヤッキョク,0
1254,5470005005083,登記記録の閉鎖等,0,2024-04-18,2024-04-09,特定非営利活動法人三豊市手をつなぐ育成会,,その他の設立登記法人,香川県,三豊市,仁尾町仁尾丁３７５番地,,37,208,7691407,,,2024-04-09,清算の結了等,,,2015-10-05,1,,,,,ミトヨシテヲツナグイクセイカイ,0
1261,6010001055334,登記記録の閉鎖等,0,2024-04-18,2024-04-15,菱紙株式会社,,株式会社,東京都,墨田区,両国２丁目１０番１４号,,13,107,1300026,,,2024-04-15,合併による解散等,3010001058083,令和６年４月１日東京都墨田区両国二丁目１０番１４号三菱王子紙販売株式会社（3010001058083）に合併し解散,2015-10-05,1,,,,,リョウシ,0
1263,6010001134765,登記記録の閉鎖等,0,2024-04-18,2024-04-15,株式会社アイ・エレクトロンビーム,,株式会社,埼玉県,行田市,壱里山町１番地１,,11,206,3610046,,,2024-04-15,合併による解散等,3010001231953,令和６年４月１日東京都中央区東日本橋一丁目１番７号岩崎電気株式会社（3010001231953）に合併し解散,2015-10-05,1,,,,,アイエレクトロンビーム,0
1289,6010501048903,登記記録の閉鎖等,0,2024-04-18,2024-04-08,ラノップ株式会社,,株式会社,東京都,台東区,元浅草３丁目３番７－１１０４号日神デュオステージ新御徒町,,13,106,1110041,,,2024-04-08,清算の結了等,,,2022-06-01,1,,,,,ラノップ,0
1295,6010701042219,登記記録の閉鎖等,0,2024-04-18,2024-04-03,ＢｅｅｎｏＳｔｏｒｍ株式会社,,株式会社,東京都,品川区,北品川４丁目７番３５号,,13,109,1400001,,,2024-04-03,合併による解散等,2010701020921,令和６年４月１日東京都品川区北品川四丁目７番３５号ｔｅｎｓｏ株式会社（2010701020921）に合併し解散,2022-02-10,1,,,,,ビーノストーム,0
1305,6011001136685,登記記録の閉鎖等,0,2024-04-18,2024-04-08,株式会社Ｇｕｅｒｒｉｌｌａ　Ｓｐａｃｅ,,株式会社,東京都,渋谷区,円山町５番５号Ｎａｖｉ渋谷Ｖ・３階,,13,113,1500044,,,2024-04-08,清算の結了等,,,2020-11-02,1,,,,,ゲリラスペース,0
1307,6011003005756,登記記録の閉鎖等,0,2024-04-18,2024-04-15,合同会社スワン,,合同会社,東京都,渋谷区,幡ヶ谷３丁目３９番１２号渋谷ウェストビル１階,,13,113,1510072,,,2024-04-15,合併による解散等,1011003005380,令和６年４月１日東京都豊島区東池袋一丁目１７番１１号パークハイツ池袋１１０５号合同会社コンテクスト（1011003005380）に合併し解散,2015-10-05,1,,,,,スワン,0
1356,6021003011126,登記記録の閉鎖等,0,2024-04-18,2024-04-15,合同会社成功商事,,合同会社,神奈川県,大和市,大和東３丁目１０－２－Ｂ１Ｆ,,14,213,2420017,,,2024-04-15,清算の結了等,,,2021-11-25,1,,,,,セイコウショウジ,0
1361,6030001091096,登記記録の閉鎖等,0,2024-04-18,2024-04-15,株式会社秩父イワサキ,,株式会社,埼玉県,秩父郡長瀞町,大字岩田７７０番地,,11,363,3691311,,,2024-04-15,合併による解散等,3010001231953,令和６年４月１日東京都中央区東日本橋一丁目１番７号岩崎電気株式会社（3010001231953）に合併し解散,2015-10-05,1,,,,,チチブイワサキ,0
1369,6040001001260,登記記録の閉鎖等,0,2024-04-18,2024-04-11,株式会社オタフク,,株式会社,千葉県,千葉市稲毛区,山王町３４９番地９,,12,103,2630002,,,2024-04-11,合併による解散等,8370001008114,令和６年４月１日仙台市青葉区花京院二丁目２番７５号株式会社小山商会（8370001008114）に合併し解散,2015-10-05,1,,,,,オタフク,0
1394,6080001008574,登記記録の閉鎖等,0,2024-04-18,2024-04-15,大和サービス株式会社,,株式会社,静岡県,静岡市清水区,中之郷３丁目６番１号,,22,103,4240888,,,2024-04-15,合併による解散等,2010001049273,令和６年４月１日東京都千代田区丸の内二丁目７番２号大和製罐株式会社（2010001049273）に合併し解散,2015-10-05,1,,,,,ダイワサービス,0
1400,6100002036522,登記記録の閉鎖等,0,2024-04-18,2024-04-04,有限会社信州金属工芸,,有限会社,長野県,飯田市,上郷黒田４１０５番地１,,20,205,3950004,,,2024-04-04,清算の結了等,,,2015-10-05,1,,,,,シンシュウキンゾクコウゲイ,0
1441,6150001018863,登記記録の閉鎖等,0,2024-04-18,2024-04-15,株式会社エクスグレイ,,株式会社,奈良県,生駒郡斑鳩町,阿波２丁目１２番３１号,,29,344,6360122,,,2024-04-15,清算の結了等,,,2015-10-05,1,,,,,エクスグレイ,0
1452,6180301007282,登記記録の閉鎖等,0,2024-04-18,2024-04-05,水鳥食糧株式会社,,株式会社,愛知県,豊橋市,上野町字新上野２２番地の１,,23,201,4418157,,,2024-04-05,清算の結了等,,,2015-10-05,1,,,,,ミズトリショクリョウ,0
1453,6180301014130,登記記録の閉鎖等,0,2024-04-18,2024-04-05,スピカ創研株式会社,,株式会社,愛知県,刈谷市,泉田町伊勢倉１番地４０,,23,210,4480004,,,2024-04-05,清算の結了等,,,2015-10-05,1,,,,,スピカソウケン,0
1480,6260001026938,登記記録の閉鎖等,0,2024-04-18,2024-04-05,株式会社六甲食品,,株式会社,岡山県,津山市,新野東６８５番地,,33,203,7081205,,,2024-04-05,清算の結了等,,,2015-10-05,1,,,,,ロッコウショクヒン,0
1508,6370002011861,登記記録の閉鎖等,0,2024-04-18,2024-04-08,有限会社関農材,,有限会社,宮城県,仙台市青葉区,新坂町１６番９号,,04,101,9810934,,,2024-04-08,清算の結了等,,,2015-10-05,1,,,,,セキノウザイ,0
1551,7010002018090,登記記録の閉鎖等,0,2024-04-18,2024-04-08,有限会社尾芳商店,,有限会社,東京都,中央区,築地５丁目２番１号,,13,102,1040045,,,2024-04-08,清算の結了等,,,2015-10-05,1,,,,,オヨシショウテン,0
1552,7010005028434,登記記録の閉鎖等,0,2024-04-18,2024-04-12,一般社団法人ママフォトグラファーアカデミー,,その他の設立登記法人,東京都,千代田区,丸の内１丁目８番３号丸の内トラストタワー本館２０階,,13,101,1000005,,,2024-04-12,清算の結了等,,,2018-04-20,1,,,,,ママフォトグラファーアカデミー,0
1576,7011001095955,登記記録の閉鎖等,0,2024-04-18,2024-04-02,株式会社名入れ印刷センター,,株式会社,大阪府,大阪市北区,中之島３丁目２番１８号,,27,127,5300005,,,2024-04-02,合併による解散等,5120001164141,令和６年４月１日大阪市北区中之島三丁目２番１８号株式会社レスタス（5120001164141）に合併し解散,2015-10-05,1,,,,,ナイレインサツセンター,0
1579,7011002036561,登記記録の閉鎖等,0,2024-04-18,2024-04-12,有限会社蔵忠,,有限会社,東京都,渋谷区,松濤１丁目１８番１１号,,13,113,1500046,,,2024-04-12,合併による解散等,9260001019732,令和６年３月１日岡山県津山市沼７７番地の７株式会社くらや（9260001019732）に合併し解散,2015-10-05,1,,,,,クラチュウ,0
1584,7011003005755,登記記録の閉鎖等,0,2024-04-18,2024-04-15,合同会社パワフル,,合同会社,東京都,渋谷区,恵比寿１丁目１５番９号シルク恵比寿４０３,,13,113,1500013,,,2024-04-15,合併による解散等,1011003005380,令和６年４月１日東京都豊島区東池袋一丁目１７番１１号パークハイツ池袋１１０５号合同会社コンテクスト（1011003005380）に合併し解散,2015-10-05,1,,,,,パワフル,0
1618,7020001091658,登記記録の閉鎖等,0,2024-04-18,2024-04-09,株式会社横浜総研,,株式会社,神奈川県,横浜市鶴見区,江ケ崎町２１番１１号,,14,101,2300002,,,2024-04-09,清算の結了等,,,2015-10-05,1,,,,,ヨコハマソウケン,0
1629,7021002019086,登記記録の閉鎖等,0,2024-04-18,2024-04-15,有限会社加藤工務店,,有限会社,神奈川県,相模原市中央区,矢部３丁目２５番１０号,,14,152,2520232,,,2024-04-15,清算の結了等,,,2015-10-05,1,,,,,カトウコウムテン,0
1635,7030001155585,登記記録の閉鎖等,0,2024-04-18,2024-04-10,協縁株式会社,,株式会社,埼玉県,所沢市,西新井町８番１２号モンシャトー小畑２０６,,11,208,3590035,,,2024-04-10,清算の結了等,,,2023-08-24,1,,,,,キョウエン,0
1642,7030002095962,登記記録の閉鎖等,0,2024-04-18,2024-04-11,有限会社鈴木うどん,,有限会社,埼玉県,東松山市,箭弓町１丁目１７番１０号,00017426,11,212,3550028,,,2024-04-11,清算の結了等,,,2015-10-05,1,,,,,スズキウドン,0
1650,7040001054910,登記記録の閉鎖等,0,2024-04-18,2024-04-15,永井産業株式会社,,株式会社,千葉県,市原市,五井金杉１丁目３６番地,,12,219,2900057,,,2024-04-15,合併による解散等,2010001024994,令和６年４月１日東京都千代田区神田須田町一丁目３２番地中川金属株式会社（2010001024994）に合併し解散,2015-10-05,1,,,,,ナガイサンギョウ,0
1659,7040003016966,登記記録の閉鎖等,0,2024-04-18,2024-04-08,ＴＯＭ’Ｓ　ＦＡＣＴＯＲＹ合同会社,,合同会社,千葉県,千葉市中央区,星久喜町１０５１－１２,,12,101,2600808,,,2024-04-08,清算の結了等,,,2021-02-01,1,,,,,トムズファクトリー,0
1672,7070001030826,登記記録の閉鎖等,0,2024-04-18,2024-04-15,株式会社セレプランニング,,株式会社,群馬県,富岡市,黒川１００１番地１,,10,210,3702344,,,2024-04-15,清算の結了等,,,2015-10-05,1,,,,,セレプランニング,0
1673,7070002010422,登記記録の閉鎖等,0,2024-04-18,2024-04-12,有限会社樹親,,有限会社,群馬県,高崎市,吉井町吉井１７１番地２,,10,202,3702132,,,2024-04-12,清算の結了等,,,2015-10-05,1,,,,,ジュシン,0
1689,7120001063291,登記記録の閉鎖等,0,2024-04-18,2024-04-15,株式会社近畿ライトキューブ,,株式会社,大阪府,大阪市中央区,農人橋１丁目１番２２号,,27,128,5400011,,,2024-04-15,合併による解散等,3010001231953,令和６年４月１日東京都中央区東日本橋一丁目１番７号岩崎電気株式会社（3010001231953）に合併し解散,2015-10-05,1,,,,,キンキライトキューブ,0
1691,7120001157630,登記記録の閉鎖等,0,2024-04-18,2024-04-15,千成産業株式会社,,株式会社,大阪府,門真市,柳町１５番１号,,27,223,5710041,,,2024-04-15,合併による解散等,4010001142571,令和６年４月１日東京都千代田区大手町一丁目３番２号渡辺パイプ株式会社（4010001142571）に合併し解散,2015-10-05,1,,,,,センナリサンギョウ,0
1706,7122002003516,登記記録の閉鎖等,0,2024-04-18,2024-04-11,有限会社肉の森田屋,,有限会社,大阪府,東大阪市,大蓮北３丁目３番６号,,27,227,5770826,,,2024-04-11,清算の結了等,,,2023-12-19,1,,,,,ニクノモリタヤ,0
1737,7210001010375,登記記録の閉鎖等,0,2024-04-18,2024-04-01,株式会社アートソフトウェア,,株式会社,福井県,福井市,下馬２丁目４０５番地,,18,201,9188112,,,2024-04-01,合併による解散等,4210001013827,令和６年４月１日福井県鯖江市上河端町第６号１番地３３株式会社アートテクノロジー（4210001013827）に合併し解散,2015-10-05,1,,,,,アートソフトウェア,0
1738,7210001011720,登記記録の閉鎖等,0,2024-04-18,2024-04-15,大成電工株式会社,,株式会社,福井県,越前市,家久町第９４号１８番地の１,,18,209,9150801,,,2024-04-15,清算の結了等,,,2015-10-05,1,,,,,タイセイデンコウ,0
1741,7220001013303,登記記録の閉鎖等,0,2024-04-18,2024-04-08,トヨダ株式会社,,株式会社,石川県,加賀市,大聖寺八間道６０番地,,17,206,9220057,,,2024-04-08,清算の結了等,,,2015-10-05,1,,,,,トヨダ,0
1758,7290001058903,登記記録の閉鎖等,0,2024-04-18,2024-03-28,株式会社コスモウェーブ,,株式会社,福岡県,福岡市博多区,博多駅前３丁目１８番２７－１号,,40,132,8120011,,,2024-03-28,清算の結了等,,,2015-10-05,1,,,,,コスモウェーブ,0
1767,7290005014563,登記記録の閉鎖等,0,2024-04-18,2024-04-04,一般社団法人筑紫野むらさきまちづくり協会,,その他の設立登記法人,福岡県,筑紫野市,大字柚須原１９２番地,,40,217,8180001,,,2024-04-04,清算の結了等,,,2015-10-05,1,,,,,チクシノムラサキマチヅクリキョウカイ,0
1773,7320001006057,登記記録の閉鎖等,0,2024-04-18,2024-04-09,株式会社内田工務店,,株式会社,大分県,大分市,大道町２丁目２番２号,,44,201,8700822,,,2024-04-09,清算の結了等,,,2015-10-05,1,,,,,ウチダコウムテン,0
1796,7400502000244,登記記録の閉鎖等,0,2024-04-18,2024-04-04,有限会社金泉堂,,有限会社,岩手県,一関市,山目町２丁目２番４３号,,03,209,0210011,,,2024-04-04,清算の結了等,,,2015-10-05,1,,,,,キンセンドウ,0
1834,8010401150625,登記記録の閉鎖等,0,2024-04-18,2024-04-12,株式会社ＳＡＮＴＡ　ＧＲＥＥＮ,,株式会社,東京都,港区,六本木７丁目１４番２３号４階クロスオフィス六本木内,,13,103,1060032,,,2024-04-12,合併による解散等,1290001018292,令和６年４月１日福岡市博多区博多駅東三丁目５番１５号株式会社アサヒ緑健（1290001018292）に合併し解散,2020-01-28,1,,,,,サンタグリーン,0
1856,8011003005374,登記記録の閉鎖等,0,2024-04-18,2024-04-15,合同会社インテグリティ,,合同会社,東京都,中央区,東日本橋２丁目２８番４号日本橋ＣＥＴビル２階,,13,102,1030004,,,2024-04-15,合併による解散等,1011003005380,令和６年４月１日東京都豊島区東池袋一丁目１７番１１号パークハイツ池袋１１０５号合同会社コンテクスト（1011003005380）に合併し解散,2015-10-05,1,,,,,インテグリティ,0
1857,8011003008063,登記記録の閉鎖等,0,2024-04-18,2024-04-15,合同会社あるがまま,,合同会社,東京都,中央区,東日本橋２丁目２８番４号日本橋ＣＥＴビル２階,,13,102,1030004,,,2024-04-15,合併による解散等,1011003005380,令和６年４月１日東京都豊島区東池袋一丁目１７番１１号パークハイツ池袋１１０５号合同会社コンテクスト（1011003005380）に合併し解散,2017-09-22,1,,,,,アルガママ,0
1883,8011802007711,登記記録の閉鎖等,0,2024-04-18,2024-04-15,有限会社武藤経営研究所,,有限会社,東京都,葛飾区,お花茶屋１丁目１５番１６号,,13,122,1240003,,,2024-04-15,清算の結了等,,,2015-10-05,1,,,,,ムトウケイエイケンキュウジョ,0
1904,8030001020276,登記記録の閉鎖等,0,2024-04-18,2024-04-11,埼京ミタチ販売株式会社,,株式会社,埼玉県,戸田市,笹目１丁目２８番７号,,11,224,3350034,,,2024-04-11,清算の結了等,,,2015-10-05,1,,,,,サイキョウミタチハンバイ,0
1908,8030001145775,登記記録の閉鎖等,0,2024-04-18,2024-04-10,株式会社アセットハイム,,株式会社,埼玉県,吉川市,高久１丁目３番地３３,,11,243,3420035,,,2024-04-10,清算の結了等,,,2021-12-09,1,,,,,アセットハイム,0
1916,8030003014912,登記記録の閉鎖等,0,2024-04-18,2024-04-10,合同会社ミヤコリース,,合同会社,埼玉県,川口市,本町４丁目３番１４号,,11,203,3320012,,,2024-04-10,清算の結了等,,,2020-03-09,1,,,,,ミヤコリース,0
1920,8040001117146,登記記録の閉鎖等,0,2024-04-18,2024-04-01,セキュアリンク株式会社,,株式会社,東京都,千代田区,神田佐久間町３丁目２１番地２４,,13,101,1010025,,,2024-04-01,合併による解散等,4020001118109,令和６年３月３１日東京都千代田区神田佐久間町三丁目２１番地２４アイシーティーリンク株式会社（4020001118109）に合併し解散,2021-02-17,1,,,,,セキュアリンク,0
1925,8040005003986,登記記録の閉鎖等,0,2024-04-18,2024-04-08,医療法人社団光風会,,その他の設立登記法人,千葉県,市川市,南八幡４丁目１８番１８号コープ野村本八幡１階,,12,203,2720023,,,2024-04-08,清算の結了等,,,2015-10-05,1,,,,,コウフウカイ,0
1932,8060001009985,登記記録の閉鎖等,0,2024-04-18,2024-04-11,樋口産業株式会社,00024025,株式会社,栃木県,真岡市,鬼怒ケ丘１８番地２,,09,209,3214367,,,2024-04-11,清算の結了等,,,2015-10-05,1,,,,,ヒグチサンギョウ,0
1933,8060001020091,登記記録の閉鎖等,0,2024-04-18,2024-04-11,株式会社ＯＮＫ,,株式会社,栃木県,足利市,五十部町９５３番地１１,,09,202,3260843,,,2024-04-11,清算の結了等,,,2015-10-05,1,,,,,オーエヌケー,0
1936,8060002017343,登記記録の閉鎖等,0,2024-04-18,2024-04-10,有限会社すみれ,,有限会社,栃木県,真岡市,台町４１４８番地,,09,209,3214306,,,2024-04-10,清算の結了等,,,2015-10-05,1,,,,,スミレ,0
1938,8070001028828,登記記録の閉鎖等,0,2024-04-18,2024-04-15,株式会社ＭＡＲＵ　ＨＡＣＨＩ,,株式会社,群馬県,伊勢崎市,上諏訪町２１１２番地１４,,10,204,3720021,,,2024-04-15,清算の結了等,,,2015-10-05,1,,,,,マルハチ,0
1940,8070002016402,登記記録の閉鎖等,0,2024-04-18,2024-04-12,有限会社武田建設,,有限会社,群馬県,富岡市,上小林４４５番地,,10,210,3702456,,,2024-04-12,清算の結了等,,,2015-10-05,1,,,,,,0
1943,8080001013085,登記記録の閉鎖等,0,2024-04-18,2024-04-08,株式会社島田理化テクノサービス,,株式会社,東京都,調布市,柴崎２丁目１番地３,,13,208,1820014,,,2024-04-08,合併による解散等,5012401007907,令和６年４月１日東京都調布市柴崎二丁目１番地３島田理化工業株式会社（5012401007907）に合併し解散,2015-10-05,1,,,,,シマダリカテクノサービス,0
1954,8110002021158,登記記録の閉鎖等,0,2024-04-18,2024-04-12,有限会社サンビュア,,有限会社,新潟県,柏崎市,大字平井３３７８番地,,15,205,9451353,,,2024-04-12,清算の結了等,,,2015-10-05,1,,,,,サンビュア,0
2000,8180301031792,登記記録の閉鎖等,0,2024-04-18,2024-04-04,株式会社マルキン,,株式会社,愛知県,豊橋市,日色野町字藤井３番地５,,23,201,4410151,,,2024-04-04,合併による解散等,6010001230911,令和６年４月１日愛知県豊橋市日色野町字藤井３番地５株式会社マルキン（6010001230911）に合併し解散,2018-08-24,1,,,,,マルキン,0
2006,8210002005010,登記記録の閉鎖等,0,2024-04-18,2024-04-12,有限会社アルファ・ビジネス・コンサルタント,,有限会社,福井県,福井市,安田町２０字２番３号,,18,201,9188073,,,2024-04-12,清算の結了等,,,2015-10-05,1,,,,,アルファビジネスコンサルタント,0
2012,8260001008471,登記記録の閉鎖等,0,2024-04-18,2024-04-12,センターミール株式会社,,株式会社,岡山県,岡山市北区,奥田２丁目２番２５,,33,101,7000933,,,2024-04-12,合併による解散等,3010001237348,令和６年４月１日東京都千代田区大手町一丁目９番２号センターミール株式会社（3010001237348）に合併し解散,2015-10-05,1,,,,,センターミール,0
2018,8290001033351,登記記録の閉鎖等,0,2024-04-18,2024-03-28,株式会社ジャネッツ,,株式会社,福岡県,糸島市,南風台５丁目５番２８号,,40,230,8191137,,,2024-03-28,清算の結了等,,,2015-10-05,1,,,,,ジャネッツ,0
2019,8290001035050,登記記録の閉鎖等,0,2024-04-18,2024-03-29,株式会社キーマンズ九州,,株式会社,福岡県,福岡市博多区,東那珂１丁目４番３号,00092377,40,132,8120892,,,2024-03-29,清算の結了等,,,2015-10-05,1,,,,,キーマンズキュウシュウ,0
2028,8300001007114,登記記録の閉鎖等,0,2024-04-18,2024-04-15,朝日電材株式会社,,株式会社,佐賀県,唐津市,栄町２５７６番地２,,41,202,8470011,,,2024-04-15,清算の結了等,,,2015-10-05,1,,,,,アサヒデンザイ,0
2063,9010001138210,登記記録の閉鎖等,0,2024-04-18,2024-04-08,ジャパンデジタルシネマサポート株式会社,,株式会社,東京都,中央区,八丁堀４丁目９番４号,,13,102,1040032,,,2024-04-08,清算の結了等,,,2015-10-05,1,,,,,ジャパンデジタルシネマサポート,0
2070,9010001195854,登記記録の閉鎖等,0,2024-04-18,2024-04-08,Ｉｎｔｅｒｎａｔｉｏｎａｌ　Ｓｐｏｒｔｓ　Ａｃａｄｅｍｙ　Ｔｏｋｙｏ株式会社,,株式会社,東京都,千代田区,九段南１丁目５番６号りそな九段ビル,,13,101,1020074,,,2024-04-08,清算の結了等,,,2018-10-25,1,,,,,インターナショナルスポーツアカデミートウキョウ,0
2091,9010502022680,登記記録の閉鎖等,0,2024-04-18,2024-04-09,有限会社ＬＵＪＡＮ,,有限会社,東京都,台東区,橋場１丁目２４番１０号,,13,106,1110023,,,2024-04-09,清算の結了等,,,2015-10-05,1,,,,,ルハン,0
2093,9010701029576,登記記録の閉鎖等,0,2024-04-18,2024-04-03,株式会社ＡｆｒｉｃａＳｃａｎ,,株式会社,東京都,品川区,西五反田１丁目３番８号,,13,109,1410031,,,2024-04-03,清算の結了等,,,2015-10-05,1,,,,,アフリカスキャン,0
2097,9010803002621,登記記録の閉鎖等,0,2024-04-18,2024-04-15,合同会社コイン,,合同会社,東京都,千代田区,神田佐久間町１丁目８番４号アルテール秋葉原７０８,,13,101,1010025,,,2024-04-15,合併による解散等,1011003005380,令和６年４月１日東京都豊島区東池袋一丁目１７番１１号パークハイツ池袋１１０５号合同会社コンテクスト（1011003005380）に合併し解散,2018-03-14,1,,,,,コイン,0
2098,9010803002662,登記記録の閉鎖等,0,2024-04-18,2024-04-15,合同会社ファーストトラック,,合同会社,東京都,渋谷区,渋谷３丁目１番９号Ｙａｚａｗａビル４階,,13,113,1500002,,,2024-04-15,合併による解散等,1011003005380,令和６年４月１日東京都豊島区東池袋一丁目１７番１１号パークハイツ池袋１１０５号合同会社コンテクスト（1011003005380）に合併し解散,2018-04-24,1,,,,,ファーストトラック,0
2107,9011003004953,登記記録の閉鎖等,0,2024-04-18,2024-04-15,合同会社ランドマーク,,合同会社,東京都,千代田区,二番町５番地２麹町駅プラザ９０１,,13,101,1020084,,,2024-04-15,合併による解散等,1011003005380,令和６年４月１日東京都豊島区東池袋一丁目１７番１１号パークハイツ池袋１１０５号合同会社コンテクスト（1011003005380）に合併し解散,2015-10-05,1,,,,,ランドマーク,0
2114,9011103012567,登記記録の閉鎖等,0,2024-04-18,2024-04-09,Ｕｐｓｉｄｅ　Ｃｒｙｐｔｏ　Ｒｅｓｅａｒｃｈ合同会社,,合同会社,東京都,新宿区,西新宿７丁目２番６号西新宿Ｋ－１ビル３階,,13,104,1600023,,,2024-04-09,清算の結了等,,,2023-01-11,1,,,,,アップサイドクリプトリサーチ,0
2120,9011401024000,登記記録の閉鎖等,0,2024-04-18,2024-04-08,株式会社ａｄｆｏｒｃｅ,,株式会社,東京都,板橋区,徳丸１丁目５０番３号,,13,119,1750083,,,2024-04-08,清算の結了等,,,2022-02-04,1,,,,,アドフォース,0
2140,9012402002028,登記記録の閉鎖等,0,2024-04-18,2024-04-11,有限会社新沼工務店,,有限会社,東京都,府中市,若松町４丁目８番地５ライオンズマンション東府中第２（５０７号）,,13,206,1830005,,,2024-04-11,清算の結了等,,,2015-10-05,1,,,,,ニイヌマコウムテン,0
2182,9030002037335,登記記録の閉鎖等,0,2024-04-18,2024-04-01,有限会社セキュリティ・ライセンス・ＫＯＢ,,有限会社,埼玉県,所沢市,松葉町３番１号,,11,208,3590044,,,2024-04-01,合併による解散等,6030001024411,令和６年４月１日埼玉県所沢市松葉町３番１号株式会社セキュリティ（6030001024411）に合併し解散,2015-10-05,1,,,,,セキュリティライセンスケイオービー,0
2183,9030003015760,登記記録の閉鎖等,0,2024-04-18,2024-04-10,新光警備保障合同会社,,合同会社,埼玉県,八潮市,大字西袋１４７１番地１,,11,234,3400833,,,2024-04-10,清算の結了等,,,2020-08-25,1,,,,,シンコウケイビホショウ,0
2191,9040002019761,登記記録の閉鎖等,0,2024-04-18,2024-04-08,有限会社ポラリス,,有限会社,千葉県,習志野市,津田沼５丁目１０番１０号,,12,216,2750016,,,2024-04-08,清算の結了等,,,2015-10-05,1,,,,,ポラリス,0
2195,9050001015918,登記記録の閉鎖等,0,2024-04-18,2024-04-12,塚田タイヤセンター株式会社,,株式会社,茨城県,つくば市,春日４丁目１７番地１８,,08,220,3050821,,,2024-04-12,清算の結了等,,,2015-10-05,1,,,,,ツカダタイヤセンター,0
2215,9110005009109,登記記録の閉鎖等,0,2024-04-18,2024-04-11,光善寺,,その他の設立登記法人,新潟県,上越市,吉川区入河沢４６番地,,15,222,9493421,,,2024-04-11,清算の結了等,,,2015-10-05,1,,,,,コウゼンジ,0
2222,9120001146169,登記記録の閉鎖等,0,2024-04-18,2024-04-15,株式会社ベクトルワン,,株式会社,大阪府,大阪市淀川区,西中島２丁目１４番６号,,27,123,5320011,,,2024-04-15,合併による解散等,1010001142764,令和６年４月１日東京都中央区日本橋人形町一丁目１１番２号セイノーラストワンマイル株式会社（1010001142764）に合併し解散,2015-10-05,1,,,,,ベクトルワン,0
2243,9130001014184,登記記録の閉鎖等,0,2024-04-18,2024-04-15,キダエンジニアリング株式会社,,株式会社,京都府,京都市伏見区,羽束師鴨川町３８番地の３４,,26,109,6128484,,,2024-04-15,清算の結了等,,,2015-10-05,1,,,,,キダエンジニアリング,0
2259,9140002052389,登記記録の閉鎖等,0,2024-04-18,2024-04-15,有限会社石宝,,有限会社,兵庫県,姫路市,土山２丁目１４－５,,28,201,6700996,,,2024-04-15,清算の結了等,,,2015-10-05,1,,,,,セキホウ,0
2267,9170002009485,登記記録の閉鎖等,0,2024-04-18,2024-04-15,有限会社富士産業,,有限会社,和歌山県,日高郡みなべ町,芝３６９番地の５,,30,391,6450002,,,2024-04-15,清算の結了等,,,2015-10-05,1,,,,,フジサンギョウ,0
2269,9180001127824,登記記録の閉鎖等,0,2024-04-18,2024-04-04,株式会社洛遊造園,,株式会社,愛知県,江南市,飛高町宮町７０番地３,,23,217,4838069,,,2024-04-04,清算の結了等,,,2017-05-16,1,,,,,ラクユウゾウエン,0
2274,9180003024788,登記記録の閉鎖等,0,2024-04-18,2024-04-04,Ｂ‐ＣＯＭＭＯＮＳ合同会社,,合同会社,愛知県,日進市,赤池町箕ノ手２－３２バンベール赤池ヒルズ４０１,,23,230,4700126,,,2024-04-04,清算の結了等,,,2023-01-30,1,,,,,ビーコモンズ,0
2280,9190001029326,登記記録の閉鎖等,0,2024-04-18,2024-04-10,伊勢周遊観光街並創造株式会社,,株式会社,三重県,伊勢市,二見町茶屋２７７番地２,,24,203,5190609,,,2024-04-10,清算の結了等,,,2022-04-14,1,,,,,イセシュウユウカンコウマチナミソウゾウ,0
2299,9260002031810,登記記録の閉鎖等,0,2024-04-18,2024-04-08,有限会社総合衣料もりした,,有限会社,岡山県,備前市,日生町日生１４３９番地の５,,33,211,7013204,,,2024-04-08,清算の結了等,,,2015-10-05,1,,,,,ソウゴウイリョウモリシタ,0
2302,9290001003923,登記記録の閉鎖等,0,2024-04-18,2024-04-10,株式会社スワロー物流福岡,,株式会社,福岡県,福岡市東区,蒲田４丁目９番７号,,40,131,8130023,,,2024-04-10,合併による解散等,5200001012077,令和６年４月１日岐阜県羽島郡岐南町平成四丁目６８番地株式会社エスラインギフ（5200001012077）に合併し解散,2015-10-05,1,,,,,スワローブツリュウフクオカ,0
2307,9330002030235,登記記録の閉鎖等,0,2024-04-18,2024-04-09,有限会社スーパーかど,,有限会社,熊本県,人吉市,駒井田町１０７２番地,,43,203,8680006,,,2024-04-09,清算の結了等,,,2015-10-05,1,,,,,,0
2325,9430001040670,登記記録の閉鎖等,0,2024-04-18,2024-04-11,クロカワベニヤ株式会社,,株式会社,北海道,札幌市白石区,中央三条２丁目６番２０号,,01,104,0030013,,,2024-04-11,合併による解散等,1010601035558,令和６年４月１日東京都江東区新木場一丁目７番２２号新木場タワー株式会社ＫＥＹ　ＢＯＡＲＤ（1010601035558）に合併し解散,2015-10-05,1,,,,,クロカワベニヤ,0
2334,9470002013481,登記記録の閉鎖等,0,2024-04-18,2024-04-04,有限会社ヒカル写真館,,有限会社,香川県,仲多度郡まんのう町,東高篠１４６６番地１,,37,406,7660013,,,2024-04-04,清算の結了等,,,2015-10-05,1,,,,,ヒカルシャシンカン,0
2338,9500005004747,登記記録の閉鎖等,0,2024-04-18,2024-04-10,菊間瓦工業協同組合,,その他の設立登記法人,愛媛県,今治市,菊間町浜３１６番地２,,38,202,7992303,,,2024-04-10,清算の結了等,,,2015-10-05,1,,,,,キクマカワラコウギョウ,0
