sequenceNumber,corporateNumber,process,correct,updateDate,changeDate,name,nameImageId,kind,prefectureName,cityName,streetNumber,addressImageId,prefectureCode,cityCode,postCode,addressOutside,addressOutsideImageId,closeDate,closeCause,successorCorporateNumber,changeCause,assignmentDate,latest,enName,enPrefectureName,enCityName,enAddressOutside,furigana,hihyoji
7,1010003039001,新規,0,2022-11-11,2022-11-11,合同会社ねこじゃらし,,合同会社,東京都,中央区,築地３丁目７番１号,,13,102,1040045,,,,,,,2022-11-11,1,,,,,ネコジャラシ,0
17,1010401170786,新規,0,2022-11-11,2022-11-11,株式会社Ｌａｖｅ,,株式会社,東京都,港区,浜松町２丁目２番１５号浜松町ダイヤビル２Ｆ,,13,103,1050013,,,,,,,2022-11-11,1,,,,,レイブ,0
19,1010403028875,新規,0,2022-11-11,2022-11-11,柏科合同会社,,合同会社,東京都,港区,高輪２丁目１５番３１－１００６号,,13,103,1080074,,,,,,,2022-11-11,1,,,,,ハクカ,0
23,1010603009840,新規,0,2022-11-11,2022-11-11,宏偉合同会社,,合同会社,東京都,墨田区,吾妻橋３丁目１－１７吾妻橋ハイム４０１室,,13,107,1300001,,,,,,,2022-11-11,1,,,,,コウイ,0
27,1010801033428,新規,0,2022-11-11,2022-11-11,株式会社ＭＡ８,,株式会社,東京都,大田区,蒲田５丁目２１番１１号日比野ビル３階,,13,111,1440052,,,,,,,2022-11-11,1,,,,,エムエーエイト,0
32,1010901051940,新規,0,2022-11-11,2022-11-11,株式会社ＧＥ　ＴＨＲＥＥ,,株式会社,東京都,世田谷区,等々力７丁目２７番６－２０１号,,13,112,1580082,,,,,,,2022-11-11,1,,,,,ジーイースリー,0
46,1011001150798,新規,0,2022-11-11,2022-11-11,株式会社ｒｉｐｌａ,,株式会社,東京都,渋谷区,神宮前６丁目２３番４号桑野ビル２階,,13,113,1500001,,,,,,,2022-11-11,1,,,,,リプラ,0
47,1011001150856,新規,0,2022-11-11,2022-11-11,ＢＲＩＧＨＴＥＳＴ株式会社,,株式会社,東京都,渋谷区,幡ヶ谷１丁目１５番３号,,13,113,1510072,,,,,,,2022-11-11,1,,,,,ブライテスト,0
48,1011001150880,新規,0,2022-11-11,2022-11-11,株式会社赤猫本舗,,株式会社,東京都,目黒区,目黒本町１丁目３番５号,,13,110,1520002,,,,,,,2022-11-11,1,,,,,アカネコホンポ,0
49,1011001150889,新規,0,2022-11-11,2022-11-11,株式会社Ｈａｐｐｉｎｅｓｓ,,株式会社,東京都,渋谷区,宇田川町１０番２号３Ｆ,,13,113,1500042,,,,,,,2022-11-11,1,,,,,ハピネス,0
50,1011001150939,新規,0,2022-11-11,2022-11-11,株式会社ＴＫ企画,,株式会社,東京都,渋谷区,本町３丁目４３番４－１０１号,,13,113,1510071,,,,,,,2022-11-11,1,,,,,ティーケーキカク,0
56,1011003015669,新規,0,2022-11-11,2022-11-11,合同会社Ｗｉｔｈ　Ｗｈｏｍ,,合同会社,東京都,渋谷区,恵比寿西２丁目９番９号クリスタルスクエア代官山３Ｂ,,13,113,1500021,,,,,,,2022-11-11,1,,,,,ウィズフーム,0
57,1011003015702,新規,0,2022-11-11,2022-11-11,合同会社久冨企画,,合同会社,東京都,目黒区,八雲５丁目１５番１４号,,13,110,1520023,,,,,,,2022-11-11,1,,,,,ヒサトミキカク,0
58,1011005009818,新規,0,2022-11-11,2022-11-11,税理士法人Ａｏｉパートナーズ,,その他の設立登記法人,東京都,目黒区,三田１丁目７番１３－４１５号ヒューリック目黒三田,,13,110,1530062,,,,,,,2022-11-11,1,,,,,アオイパートナーズ,0
62,1011103012368,新規,0,2022-11-11,2022-11-11,ＣＯＳＭＥＳＴ合同会社,,合同会社,東京都,新宿区,北新宿３丁目５番１２号,,13,104,1690074,,,,,,,2022-11-11,1,,,,,コスメスト,0
63,1011103012376,新規,0,2022-11-11,2022-11-11,合同会社ＴＫ,,合同会社,東京都,新宿区,神楽坂３丁目６番３号ヒルトップビル地下１階,,13,104,1620825,,,,,,,2022-11-11,1,,,,,ティーケー,0
65,1011301028249,新規,0,2022-11-11,2022-11-11,Ｈｏｒｉｚｏｎ　ｍｅｔａ株式会社,,株式会社,東京都,杉並区,下井草１丁目２３番２３号,,13,115,1670022,,,,,,,2022-11-11,1,,,,,ホライズンメタ,0
68,1011403003810,新規,0,2022-11-11,2022-11-11,合同会社キビル蒸溜所,,合同会社,東京都,板橋区,南常盤台１丁目１１－６レフア南常盤台１０２号室,,13,119,1740072,,,,,,,2022-11-11,1,,,,,キビルジョウリュウジョ,0
71,1011601026365,新規,0,2022-11-11,2022-11-11,株式会社ＣＡＥＬＵ　ＤＥＳＩＧＮ　ＯＦＦＩＣＥ,,株式会社,東京都,練馬区,東大泉１丁目１３番８号,,13,120,1780063,,,,,,,2022-11-11,1,,,,,カエルデザインオフィス,0
82,1011801041511,新規,0,2022-11-11,2022-11-11,株式会社山城ホールディングス,,株式会社,東京都,足立区,西新井７丁目１９番１２号,,13,121,1230841,,,,,,,2022-11-11,1,,,,,ヤマシロホールディングス,0
84,1012401039854,新規,0,2022-11-11,2022-11-11,株式会社ファルコン商事,,株式会社,東京都,三鷹市,中原４丁目１７番３７号,,13,204,1810005,,,,,,,2022-11-11,1,,,,,ファルコンショウジ,0
89,1013103001185,新規,0,2022-11-11,2022-11-11,ＨＵＥ　ＭＡＮＨ合同会社,,合同会社,東京都,福生市,北田園２丁目２０番地６シティハイム北田園２０２号室,,13,218,1970005,,,,,,,2022-11-11,1,,,,,フェマン,0
95,1020001148827,新規,0,2022-11-11,2022-11-11,株式会社こはけん,,株式会社,神奈川県,横浜市港北区,新横浜２丁目５番１４号ＷＩＳＥＮＥＸＴ３階,,14,109,2220033,,,,,,,2022-11-11,1,,,,,コハケン,0
97,1020003022708,新規,0,2022-11-11,2022-11-11,エビネス合同会社,,合同会社,神奈川県,横浜市鶴見区,鶴見中央５丁目８番１２－３０５号,,14,101,2300051,,,,,,,2022-11-11,1,,,,,エビネス,0
98,1020003022732,新規,0,2022-11-11,2022-11-11,合同会社Ｎｏｏｓａ,,合同会社,神奈川県,横浜市神奈川区,平川町６番地４,,14,102,2210812,,,,,,,2022-11-11,1,,,,,ヌーサ,0
102,1021001077421,新規,0,2022-11-11,2022-11-11,株式会社ラウレア建築工房,,株式会社,神奈川県,鎌倉市,津６０５番地１,,14,204,2480032,,,,,,,2022-11-11,1,,,,,ラウレアケンチクコウボウ,0
103,1021001077438,新規,0,2022-11-11,2022-11-11,株式会社ＴＲＩＰＬＥＢＡＲＲＥＬ,,株式会社,神奈川県,藤沢市,片瀬山３丁目１０番８～３号,,14,205,2510033,,,,,,,2022-11-11,1,,,,,トリプルバレル,0
106,1021003012351,新規,0,2022-11-11,2022-11-11,合同会社ｂｅａｕｔｙｌｉｆｅ　ＲＡＭＡ,,合同会社,神奈川県,相模原市緑区,橋本６丁目３７番１４号,,14,151,2520143,,,,,,,2022-11-11,1,,,,,ビューティライフラマ,0
121,1030003020561,新規,0,2022-11-11,2022-11-11,合同会社Ｌｕｓｔ,,合同会社,埼玉県,さいたま市大宮区,仲町１丁目３３番地２野口ビル３階,,11,103,3300845,,,,,,,2022-11-11,1,,,,,ルスト,0
122,1030005021062,新規,0,2022-11-11,2022-11-11,一般社団法人埼玉県スマートキャリア支援,,その他の設立登記法人,埼玉県,さいたま市大宮区,宮町２丁目７３番地２ＮＫビル,,11,103,3300802,,,,,,,2022-11-11,1,,,,,サイタマケンスマートキャリアシエン,0
128,1040001125774,新規,0,2022-11-11,2022-11-11,株式会社神木建設,,株式会社,千葉県,千葉市中央区,中央３丁目１８－３加瀬ビル１５８,,12,101,2600013,,,,,,,2022-11-11,1,,,,,カミキケンセツ,0
129,1040001125790,新規,0,2022-11-11,2022-11-11,株式会社ＭＦＲ,,株式会社,千葉県,市川市,福栄２丁目３番１８号,,12,203,2720137,,,,,,,2022-11-11,1,,,,,エムエフアール,0
130,1040001125799,新規,0,2022-11-11,2022-11-11,株式会社極美,,株式会社,千葉県,四街道市,栗山１０７４番地２１４,,12,228,2840027,,,,,,,2022-11-11,1,,,,,キワミ,0
136,1040003021229,新規,0,2022-11-11,2022-11-11,合同会社ネクスター,,合同会社,千葉県,千葉市稲毛区,長沼町２８８番地２９,,12,103,2630005,,,,,,,2022-11-11,1,,,,,ネクスター,0
137,1040003021245,新規,0,2022-11-11,2022-11-11,合同会社ＢＡＹ．ＳＩＤＥ．ＥＸＰＲＥＳＳ,,合同会社,千葉県,市原市,青柳５６９番地２５,,12,219,2990102,,,,,,,2022-11-11,1,,,,,ベイサイドエクスプレス,0
138,1040003021253,新規,0,2022-11-11,2022-11-11,ＨＭ船橋馬込沢合同会社,,合同会社,千葉県,船橋市,丸山１丁目５２－９,,12,204,2730048,,,,,,,2022-11-11,1,,,,,エイチエムフナバシマゴメザワ,0
139,1040003021261,新規,0,2022-11-11,2022-11-11,あすか未来グローバル合同会社,,合同会社,千葉県,千葉市若葉区,千城台北２丁目２１番１１号,,12,104,2640005,,,,,,,2022-11-11,1,,,,,アスカミライグローバル,0
144,1050001051953,新規,0,2022-11-11,2022-11-11,株式会社傍楽会,,株式会社,茨城県,坂東市,長谷１５９５番地４,,08,228,3060642,,,,,,,2022-11-11,1,,,,,ハタラクカイ,0
148,1050005013165,新規,0,2022-11-11,2022-11-11,特定非営利活動法人水戸ＴＴフリースクールＦｉｇｈｔ,,その他の設立登記法人,茨城県,水戸市,三湯町１６７番地,,08,201,3190316,,,,,,,2022-11-11,1,,,,,ミトテイテイフリースクールファイト,0
155,1070003004701,新規,0,2022-11-11,2022-11-11,大発合同会社,,合同会社,群馬県,太田市,新田木崎町１８３番地６９,,10,205,3700321,,,,,,,2022-11-11,1,,,,,ダイハツ,0
157,1080001025293,新規,0,2022-11-11,2022-11-11,森田タイル株式会社,,株式会社,静岡県,静岡市葵区,金座町４番地,,22,101,4200025,,,,,,,2022-11-11,1,,,,,モリタタイル,0
170,1120001250192,新規,0,2022-11-11,2022-11-11,大歓フードサービス株式会社,,株式会社,大阪府,大阪市中央区,東心斎橋１丁目９番１２号,,27,128,5420083,,,,,,,2022-11-11,1,,,,,ダイカンフードサービス,0
171,1120001250201,新規,0,2022-11-11,2022-11-11,株式会社ＭＩＣＣＥ,,株式会社,大阪府,大阪市東淀川区,東中島１丁目９番３１－１００８号室,,27,114,5330033,,,,,,,2022-11-11,1,,,,,ミックス,0
172,1120001250242,新規,0,2022-11-11,2022-11-11,ＲＥＶＯＲＮ株式会社,,株式会社,大阪府,大阪市北区,大深町３番１号グランフロント大阪北館６階,,27,127,5300011,,,,,,,2022-11-11,1,,,,,リボーン,0
176,1120003022862,新規,0,2022-11-11,2022-11-11,合同会社ＡＮＤ,,合同会社,大阪府,大阪市福島区,福島８丁目１６番１０号８０４号室,,27,103,5530003,,,,,,,2022-11-11,1,,,,,アンド,0
184,1122005003650,新規,0,2022-11-11,2022-11-11,ＮＥＯ協同組合,,その他の設立登記法人,大阪府,東大阪市,西岩田２丁目６－２９－３Ｆ,,27,227,5780947,,,,,,,2022-11-11,1,,,,,ネオ,0
188,1130001073048,新規,0,2022-11-11,2022-11-11,株式会社ＡＧＵ　ＮＥＸＴ,,株式会社,京都府,京都市左京区,一乗寺地蔵本町１８番地５,,26,103,6068181,,,,,,,2022-11-11,1,,,,,アグネクスト,0
194,1140001127975,新規,0,2022-11-11,2022-11-11,株式会社クラシスマイ,,株式会社,兵庫県,尼崎市,次屋３丁目１５番地の２０,,28,202,6610965,,,,,,,2022-11-11,1,,,,,クラシスマイ,0
195,1140001128008,新規,0,2022-11-11,2022-11-11,株式会社Ｍａｃｏｔｔｏ,,株式会社,兵庫県,神戸市長田区,山下町１丁目２番８号,,28,106,6530852,,,,,,,2022-11-11,1,,,,,マコット,0
201,1160001024642,新規,0,2022-11-11,2022-11-11,株式会社Ｓ．Ｆａｃｔｏｒｙ,,株式会社,滋賀県,東近江市,種町１７００－５２,,25,213,5211212,,,,,,,2022-11-11,1,,,,,エスファクトリー,0
205,1180001153778,新規,0,2022-11-11,2022-11-11,株式会社ＡＲ,,株式会社,愛知県,名古屋市中川区,下之一色町字松蔭５丁目１７番地の８,,23,110,4540945,,,,,,,2022-11-11,1,,,,,エール,0
206,1180001153786,新規,0,2022-11-11,2022-11-11,株式会社ワン・ファイブ,,株式会社,愛知県,海部郡蟹江町,富吉４丁目９３番地,,23,425,4970058,,,,,,,2022-11-11,1,,,,,ワンファイブ,0
207,1180001153794,新規,0,2022-11-11,2022-11-11,株式会社おぺお,,株式会社,愛知県,名古屋市中川区,富田町大字千音寺字粉諸２２７４番地の３,,23,110,4540971,,,,,,,2022-11-11,1,,,,,オペオ,0
208,1180001153811,新規,0,2022-11-11,2022-11-11,株式会社エネルＥ,,株式会社,愛知県,長久手市,喜婦嶽６０２番地,,23,238,4801117,,,,,,,2022-11-11,1,,,,,エネルイー,0
209,1180001153828,新規,0,2022-11-11,2022-11-11,株式会社ＯＧＡＷＡ　ＧＲＯＵＰ,,株式会社,愛知県,一宮市,三ツ井７丁目１５番５号,,23,203,4910827,,,,,,,2022-11-11,1,,,,,オガワグループ,0
210,1180001153836,新規,0,2022-11-11,2022-11-11,株式会社ヨシトモ,,株式会社,愛知県,北名古屋市,九之坪天神１０５番地,,23,234,4810041,,,,,,,2022-11-11,1,,,,,ヨシトモ,0
222,1190003004136,新規,0,2022-11-11,2022-11-11,合同会社アクシス,,合同会社,三重県,四日市市,釆女町１２６番地７,,24,202,5100954,,,,,,,2022-11-11,1,,,,,アクシス,0
230,1240003005888,新規,0,2022-11-11,2022-11-11,ＤＭＪ合同会社,,合同会社,広島県,福山市,元町１３番１８号３Ｆ,,34,207,7200063,,,,,,,2022-11-11,1,,,,,ディーエムジェー,0
231,1240003005896,新規,0,2022-11-11,2022-11-11,合同会社グッドコネクト,,合同会社,広島県,廿日市市,上平良１１７５番地６,,34,213,7380026,,,,,,,2022-11-11,1,,,,,グッドコネクト,0
236,1260001037403,新規,0,2022-11-11,2022-11-11,ソラシドファーム株式会社,,株式会社,岡山県,岡山市中区,桑野４５５番地２２,,33,102,7028002,,,,,,,2022-11-11,1,,,,,ソラシドファーム,0
255,1360003012451,新規,0,2022-11-11,2022-11-11,合同会社Ｆ・ＩＮあいでん,,合同会社,沖縄県,沖縄市,登川３丁目７番２１号,,47,211,9042142,,,,,,,2022-11-11,1,,,,,エフアイエヌアイデン,0
259,1370001049247,新規,0,2022-11-11,2022-11-11,株式会社仙台いずみ資産運用設計事務所,,株式会社,宮城県,富谷市,東向陽台３丁目２－１１,,04,216,9813331,,,,,,,2022-11-11,1,,,,,センダイイズミシサンウンヨウセッケイジムショ,0
265,1410001013322,新規,0,2022-11-11,2022-11-11,株式会社マイグレーションチーム,,株式会社,秋田県,秋田市,土崎港南３丁目９番３０号,,05,201,0110943,,,,,,,2022-11-11,1,,,,,マイグレーションチーム,0
266,1410003003718,新規,0,2022-11-11,2022-11-11,Ａ．Ｄ．Ｔ合同会社,,合同会社,秋田県,秋田市,中通６丁目７―９,,05,201,0100001,,,,,,,2022-11-11,1,,,,,エーディーティー,0
271,1430001087777,新規,0,2022-11-11,2022-11-11,ＯＴＴＯ８株式会社,,株式会社,北海道,札幌市中央区,南七条西４丁目４２４番地１２すすきのプラザビル５０２,,01,101,0640807,,,,,,,2022-11-11,1,,,,,オットーエイト,0
272,1430001087785,新規,0,2022-11-11,2022-11-11,株式会社ＧＡＲＤＥＮ,,株式会社,北海道,江別市,野幌松並町２６番地の１,,01,217,0690814,,,,,,,2022-11-11,1,,,,,ガーデン,0
273,1430001087851,新規,0,2022-11-11,2022-11-11,株式会社Ａｇａｒｕ．,,株式会社,北海道,札幌市豊平区,豊平四条１２丁目２番１０号,,01,105,0620904,,,,,,,2022-11-11,1,,,,,アガル,0
274,1430003014449,新規,0,2022-11-11,2022-11-11,カモ合同会社,,合同会社,北海道,札幌市中央区,南一条西１６丁目１番地３２３春野ビル３Ｆ,,01,101,0600061,,,,,,,2022-11-11,1,,,,,カモ,0
278,1470001019330,新規,0,2022-11-11,2022-11-11,株式会社ＷＡＬＴ　ＡＣＡＤＥＭＩＡ,,株式会社,香川県,三豊市,高瀬町比地２９５９番地１,,37,208,7670004,,,,,,,2022-11-11,1,,,,,ウォルトアカデミア,0
294,2010001230576,新規,0,2022-11-11,2022-11-11,株式会社ＮｅＲＦ　Ｓｔｒａｔｅｇｙ．,,株式会社,東京都,中央区,銀座１丁目１２番４号Ｎ＆Ｅ、ＢＬＤ．７階,,13,102,1040061,,,,,,,2022-11-11,1,,,,,ナーフストラテジー,0
304,2010003039058,新規,0,2022-11-11,2022-11-11,合同会社ＲＦ６,,合同会社,東京都,千代田区,内幸町２丁目１番６号,,13,101,1000011,,,,,,,2022-11-11,1,,,,,アールエフシックス,0
305,2010005035773,新規,0,2022-11-11,2022-11-11,一般社団法人産業技術基盤創新機構,,その他の設立登記法人,東京都,中央区,銀座１丁目２２番１１号銀座大竹ビジデンス２階,,13,102,1040061,,,,,,,2022-11-11,1,,,,,サンギョウギジュツキバンソウシンキコウ,0
315,2010401170736,新規,0,2022-11-11,2022-11-11,株式会社パステルバリエーション,,株式会社,東京都,港区,南青山２丁目２番１５号,,13,103,1070062,,,,,,,2022-11-11,1,,,,,パステルバリエーション,0
316,2010401170769,新規,0,2022-11-11,2022-11-11,株式会社ＲＥＩＯＮＥＰＬＵＳ,,株式会社,東京都,港区,新橋１丁目５番２号ＦａｂｕｌｏｕｓＧＩＮＺＡ７Ｆ,,13,103,1050004,,,,,,,2022-11-11,1,,,,,レイワンプラス,0
317,2010401170777,新規,0,2022-11-11,2022-11-11,ＦＩＬＬ株式会社,,株式会社,東京都,港区,南麻布４丁目１２番４号プラチナコート広尾１階,,13,103,1060047,,,,,,,2022-11-11,1,,,,,フィル,0
321,2010403028866,新規,0,2022-11-11,2022-11-11,ＬＩＶＥコーポレーション合同会社,,合同会社,東京都,港区,南青山２丁目２番１５－１４１９号,,13,103,1070062,,,,,,,2022-11-11,1,,,,,ライブコーポレーション,0
322,2010403028874,新規,0,2022-11-11,2022-11-11,クレアシオン・メザニン合同会社,,合同会社,東京都,港区,赤坂９丁目７番１号,,13,103,1070052,,,,,,,2022-11-11,1,,,,,クレアシオンメザニン,0
328,2010701043451,新規,0,2022-11-11,2022-11-11,株式会社エモーショナルバリュー,,株式会社,東京都,品川区,東品川４丁目１１番３６号,,13,109,1400002,,,,,,,2022-11-11,1,,,,,エモーショナルバリュー,0
330,2010801033427,新規,0,2022-11-11,2022-11-11,株式会社そわか,,株式会社,東京都,大田区,田園調布５丁目２５番２号,,13,111,1450071,,,,,,,2022-11-11,1,,,,,,0
344,2011001150830,新規,0,2022-11-11,2022-11-11,株式会社馬絃,,株式会社,東京都,渋谷区,富ヶ谷２丁目１６番１４－７０３号,,13,113,1510063,,,,,,,2022-11-11,1,,,,,ウマゲン,0
345,2011001150839,新規,0,2022-11-11,2022-11-11,株式会社デジタルホライズン,,株式会社,東京都,渋谷区,恵比寿西２丁目１１番８号ＲＯＯＢ５ビル２Ｆ,,13,113,1500021,,,,,,,2022-11-11,1,,,,,デジタルホライズン,0
346,2011001150855,新規,0,2022-11-11,2022-11-11,株式会社Ｍｙ　Ｒｅｌｅａｓｅ,,株式会社,東京都,目黒区,目黒本町４丁目１７番２４号,,13,110,1520002,,,,,,,2022-11-11,1,,,,,マイリリース,0
347,2011001150888,新規,0,2022-11-11,2022-11-11,ＪＮキャピタル株式会社,,株式会社,東京都,渋谷区,恵比寿西１丁目８番３－１１０１号,,13,113,1500021,,,,,,,2022-11-11,1,,,,,ジェイエヌキャピタル,0
348,2011001150896,新規,0,2022-11-11,2022-11-11,株式会社ＬＥ　ＣＯＭＰＡＳ,,株式会社,東京都,渋谷区,恵比寿１丁目２６番１７号阿部ビル２Ｆ,,13,113,1500013,,,,,,,2022-11-11,1,,,,,ルコンパ,0
350,2011003015643,新規,0,2022-11-11,2022-11-11,ＡＫＩＴＳＵ合同会社,,合同会社,東京都,目黒区,中目黒１丁目８番地３号ＰＩＡＳ中目黒ローレルアイ４０７,,13,110,1530061,,,,,,,2022-11-11,1,,,,,アキツ,0
351,2011003015692,新規,0,2022-11-11,2022-11-11,合同会社アヴェイルパートナーズ,,合同会社,東京都,渋谷区,千駄ヶ谷５丁目１２番１６号,,13,113,1510051,,,,,,,2022-11-11,1,,,,,アヴェイルパートナーズ,0
352,2011003015701,新規,0,2022-11-11,2022-11-11,合同会社三方吉,,合同会社,東京都,目黒区,碑文谷５丁目２１番１９号サウスガーデンハウスグレイス１０１,,13,110,1520003,,,,,,,2022-11-11,1,,,,,サンポウヨシ,0
373,2011803005364,新規,0,2022-11-11,2022-11-11,合同会社るりか,,合同会社,東京都,足立区,西新井栄町１丁目１２－５,,13,121,1230843,,,,,,,2022-11-11,1,,,,,ルリカ,0
376,2012701017344,新規,0,2022-11-11,2022-11-11,ＦＯＵＲＳＩＳ株式会社,,株式会社,東京都,西東京市,下保谷１丁目６番１５号,,13,229,2020004,,,,,,,2022-11-11,1,,,,,フォアシス,0
382,2013301049926,新規,0,2022-11-11,2022-11-11,Ａｌｌｅｚ　Ｈｏｐ株式会社,,株式会社,東京都,豊島区,南大塚３丁目３８番１４号－２０２室,,13,116,1700005,,,,,,,2022-11-11,1,,,,,アレホップ,0
392,2020001148933,新規,0,2022-11-11,2022-11-11,安信産業株式会社,,株式会社,神奈川県,横浜市旭区,さちが丘１３０番地１１,,14,112,2410822,,,,,,,2022-11-11,1,,,,,アンシンサンギョウ,0
393,2020001148958,新規,0,2022-11-11,2022-11-11,株式会社ｅｓｔｕｄｉｏ　ｆｉｘｅｒ,,株式会社,神奈川県,川崎市高津区,下作延７丁目７番３０号,,14,134,2130033,,,,,,,2022-11-11,1,,,,,エスタディオフィクサー,0
394,2020001148974,新規,0,2022-11-11,2022-11-11,株式会社カルチベート,,株式会社,神奈川県,横浜市保土ケ谷区,桜ケ丘１丁目４８番１－２号,,14,106,2400011,,,,,,,2022-11-11,1,,,,,カルチベート,0
404,2021001077420,新規,0,2022-11-11,2022-11-11,株式会社丸正ホーム,,株式会社,神奈川県,相模原市南区,磯部１８２４番地７,,14,153,2520327,,,,,,,2022-11-11,1,,,,,マルショウホーム,0
405,2021001077429,新規,0,2022-11-11,2022-11-11,株式会社Ｐｌｕｓ　Ｏｎｅ,,株式会社,神奈川県,厚木市,愛名後谷１７９番地,,14,212,2430038,,,,,,,2022-11-11,1,,,,,プラスワン,0
406,2021001077437,新規,0,2022-11-11,2022-11-11,株式会社ＴＶＴ商会,,株式会社,神奈川県,平塚市,豊田打間木６８７番地,,14,203,2540081,,,,,,,2022-11-11,1,,,,,ティーブイティーショウカイ,0
419,2030001151052,新規,0,2022-11-11,2022-11-11,株式会社永塗建創,,株式会社,埼玉県,さいたま市北区,日進町１丁目６１番地１６,,11,102,3310823,,,,,,,2022-11-11,1,,,,,エイトケンソウ,0
427,2030005021061,新規,0,2022-11-11,2022-11-11,社会保険労務士法人高橋社会保険労務管理事務所,,その他の設立登記法人,埼玉県,川口市,西青木５丁目１０番１７号コアハウス１０２号室,,11,203,3320035,,,,,,,2022-11-11,1,,,,,タカハシシャカイホケンロウムカンリジムショ,0
434,2040001125798,新規,0,2022-11-11,2022-11-11,株式会社幌都ホールディングス,,株式会社,千葉県,市川市,市川南３丁目１２番Ｃ－９０４号,,12,203,2720033,,,,,,,2022-11-11,1,,,,,ホロトホールディングス,0
435,2040001125807,新規,0,2022-11-11,2022-11-11,株式会社秋葉サービス,,株式会社,千葉県,大網白里市,柳橋６３１番地４,,12,239,2993263,,,,,,,2022-11-11,1,,,,,アキバサービス,0
436,2040001125815,新規,0,2022-11-11,2022-11-11,株式会社ミニットマン,,株式会社,千葉県,千葉市緑区,椎名崎町１１４８番地,,12,105,2660016,,,,,,,2022-11-11,1,,,,,ミニットマン,0
437,2040001125823,新規,0,2022-11-11,2022-11-11,株式会社ＡＭＯＹ,,株式会社,千葉県,八千代市,緑が丘１丁目６番地７,,12,221,2760049,,,,,,,2022-11-11,1,,,,,アモイ,0
439,2040005021804,新規,0,2022-11-11,2022-11-11,一般社団法人Ｍｅｇｕｍｉ‐Ｇｒａｃｅ　Ａｓｓｏｃｉａｔｅ,,その他の設立登記法人,千葉県,野田市,今上３０１１番地の１,,12,208,2780025,,,,,,,2022-11-11,1,,,,,メグミグレイスアソシエイツ,0
440,2050001051936,新規,0,2022-11-11,2022-11-11,株式会社Ａｒｃ　ｅｎ　Ｃｉｅｌ,,株式会社,茨城県,つくば市,作谷１０３８番地２５,,08,220,3004204,,,,,,,2022-11-11,1,,,,,アークアンシエル,0
442,2050003007003,新規,0,2022-11-11,2022-11-11,合同会社Ｒａｙ,,合同会社,茨城県,猿島郡境町,１０３番地１,,08,546,3060433,,,,,,,2022-11-11,1,,,,,レイ,0
446,2060001035434,新規,0,2022-11-11,2022-11-11,株式会社ブルックブリッジ,,株式会社,栃木県,小山市,城山町２丁目２番２０号１階,,09,208,3230025,,,,,,,2022-11-11,1,,,,,ブルックブリッジ,0
450,2070001039806,新規,0,2022-11-11,2022-11-11,株式会社ｔｈｒｅｅ,,株式会社,群馬県,桐生市,堤町１丁目２番９号,,10,203,3760042,,,,,,,2022-11-11,1,,,,,スリー,0
451,2070001039822,新規,0,2022-11-11,2022-11-11,株式会社Ｈｕｍｍｉｎｇｂｉｒｄ,,株式会社,群馬県,沼田市,東倉内町７７１番地３,,10,206,3780043,,,,,,,2022-11-11,1,,,,,ハミングバード,0
460,2090001017850,新規,0,2022-11-11,2022-11-11,株式会社エスティエフ,,株式会社,山梨県,甲府市,大里町４３２６番地５,,19,201,4000053,,,,,,,2022-11-11,1,,,,,エスティエフ,0
462,2100001035850,新規,0,2022-11-11,2022-11-11,株式会社ＡｃＴＲＡＮＳ,,株式会社,長野県,北佐久郡軽井沢町,軽井沢１０１３－７,,20,321,3890103,,,,,,,2022-11-11,1,,,,,アクトランス,0
468,2120001249969,新規,0,2022-11-11,2022-11-11,株式会社Ｌｅｖｅｌ　Ｓ,,株式会社,大阪府,大阪市淀川区,宮原１丁目３－２０新大阪ステーションビル７０４,,27,123,5320003,,,,,,,2022-11-11,1,,,,,レベルエス,0
469,2120001250118,新規,0,2022-11-11,2022-11-11,株式会社ヴィレジストン,,株式会社,大阪府,大阪市西区,北堀江１丁目１３番１６号２０１,,27,106,5500014,,,,,,,2022-11-11,1,,,,,ヴィレジストン,0
470,2120001250150,新規,0,2022-11-11,2022-11-11,株式会社ディーコーポレーション,,株式会社,大阪府,大阪市西成区,花園北２丁目５番１２号,,27,122,5570016,,,,,,,2022-11-11,1,,,,,ディーコーポレーション,0
471,2120001250200,新規,0,2022-11-11,2022-11-11,株式会社ＵＰＢＥＡＲ,,株式会社,大阪府,大阪市浪速区,敷津西１丁目１－１６,,27,111,5560015,,,,,,,2022-11-11,1,,,,,アップベアー,0
472,2120001250225,新規,0,2022-11-11,2022-11-11,吉穫マーケティング株式会社,,株式会社,大阪府,大阪市北区,天神橋４丁目４番２１号,,27,127,5300041,,,,,,,2022-11-11,1,,,,,キッカマーケティング,0
473,2120001250266,新規,0,2022-11-11,2022-11-11,株式会社ｐａｐｔｉｍｕｓ,,株式会社,大阪府,大阪市浪速区,敷津東１丁目７番１３号第三辻本ビル２０３号,,27,111,5560012,,,,,,,2022-11-11,1,,,,,パプテマス,0
474,2120001250274,新規,0,2022-11-11,2022-11-11,ＤＥＳＩＧＮ　ＨＯＲＳＥ株式会社,,株式会社,大阪府,守口市,八雲西町２丁目１５番６号,,27,209,5700006,,,,,,,2022-11-11,1,,,,,デザインホース,0
475,2120001250282,新規,0,2022-11-11,2022-11-11,株式会社アドバンス,,株式会社,大阪府,大阪市中央区,東心斎橋２丁目２番１２号エグゼ東心斎橋,,27,128,5420083,,,,,,,2022-11-11,1,,,,,アドバンス,0
476,2120003022845,新規,0,2022-11-11,2022-11-11,ＨＳフェローズ合同会社,,合同会社,大阪府,大阪市天王寺区,上本町１丁目１番１８号武島ビル４１１号,,27,109,5430001,,,,,,,2022-11-11,1,,,,,エイチエスフェローズ,0
477,2120003022861,新規,0,2022-11-11,2022-11-11,合同会社Ｌｅｔ’ｓ,,合同会社,大阪府,大阪市中央区,南本町４丁目３番１６－２６０２号,,27,128,5410054,,,,,,,2022-11-11,1,,,,,レッツ,0
478,2120103004925,新規,0,2022-11-11,2022-11-11,合同会社二階堂,,合同会社,大阪府,堺市北区,南長尾町３丁２番２５号,,27,146,5918045,,,,,,,2022-11-11,1,,,,,ニカイドウ,0
480,2120105009641,新規,0,2022-11-11,2022-11-11,特定非営利活動法人鷹の爪純系品種堺鷹の爪保存会,,その他の設立登記法人,大阪府,堺市中区,福田２８０番地,,27,142,5998241,,,,,,,2022-11-11,1,,,,,タカノツメジュンケイヒンシュサカイタカノツメホゾンカイ,0
482,2120901046730,新規,0,2022-11-11,2022-11-11,株式会社ＮＯＭＡＤ　ＤＩＲＥＣＴＩＯＮ,,株式会社,大阪府,吹田市,桃山台５丁目３番８－９０９号,,27,205,5650854,,,,,,,2022-11-11,1,,,,,ノマドディレクション,0
487,2122001036372,新規,0,2022-11-11,2022-11-11,株式会社山口,,株式会社,大阪府,東大阪市,加納７丁目１６番１号,,27,227,5780901,,,,,,,2022-11-11,1,,,,,ヤマグチ,0
492,2130001073047,新規,0,2022-11-11,2022-11-11,ＡＥ株式会社,,株式会社,京都府,京都市中京区,壬生森町２６番地の２,,26,104,6048862,,,,,,,2022-11-11,1,,,,,エイイー,0
493,2130001073055,新規,0,2022-11-11,2022-11-11,株式会社Ｐｏｉｎｔ　Ａ,,株式会社,京都府,京都市上京区,七本松通一条下る三軒町４８番地,,26,102,6028341,,,,,,,2022-11-11,1,,,,,ポイントエー,0
495,2130003008298,新規,0,2022-11-11,2022-11-11,トラスト合同会社,,合同会社,京都府,京都市右京区,嵯峨野千代ノ道町５０番地－１４,,26,108,6168321,,,,,,,2022-11-11,1,,,,,トラスト,0
502,2140005026371,新規,0,2022-11-11,2022-11-11,特定非営利活動法人淡路島コウノトリの会,,その他の設立登記法人,兵庫県,淡路市,大町下５３６番地,,28,226,6562156,,,,,,,2022-11-11,1,,,,,アワジシマコウノトリノカイ,0
504,2150001025938,新規,0,2022-11-11,2022-11-11,株式会社中和技研,,株式会社,奈良県,御所市,大字楢原９５,,29,208,6392313,,,,,,,2022-11-11,1,,,,,チュウワギケン,0
516,2180001153744,新規,0,2022-11-11,2022-11-11,株式会社バイオレット,,株式会社,愛知県,一宮市,島崎１丁目７番地６,,23,203,4910834,,,,,,,2022-11-11,1,,,,,バイオレット,0
517,2180001153777,新規,0,2022-11-11,2022-11-11,ジェイライン株式会社,,株式会社,愛知県,東海市,大田町寺下１番地の１２,,23,222,4770031,,,,,,,2022-11-11,1,,,,,ジェイライン,0
518,2180001153793,新規,0,2022-11-11,2022-11-11,株式会社リジョン,,株式会社,愛知県,小牧市,小牧５丁目４６５番地,,23,219,4850041,,,,,,,2022-11-11,1,,,,,リジョン,0
519,2180001153810,新規,0,2022-11-11,2022-11-11,株式会社Ｓ　ｐｌｕｓ,,株式会社,愛知県,名古屋市中区,栄３丁目１２番６号ライオンズマンション栄１０１２号,,23,106,4600008,,,,,,,2022-11-11,1,,,,,エスプラス,0
520,2180001153827,新規,0,2022-11-11,2022-11-11,株式会社ｍａｎａｇｅ　ｆｉｖｅ,,株式会社,愛知県,大府市,柊山町８丁目５３番地の２,,23,223,4740053,,,,,,,2022-11-11,1,,,,,マネージファイブ,0
527,2190001029927,新規,0,2022-11-11,2022-11-11,株式会社Ｌ＆Ｅ,,株式会社,三重県,四日市市,三重２丁目１３７番地,,24,202,5120912,,,,,,,2022-11-11,1,,,,,エルアンドイー,0
534,2210001019149,新規,0,2022-11-11,2022-11-11,株式会社エムワイロード,,株式会社,福井県,福井市,問屋町３丁目７１７番地レジデンスＴＨＩＩ－１０２,00128462,18,201,9188231,,,,,,,2022-11-11,1,,,,,エムワイロード,0
535,2210001019157,新規,0,2022-11-11,2022-11-11,青葉モータース株式会社,,株式会社,福井県,大飯郡高浜町,東三松第２５号１番地２,,18,481,9192382,,,,,,,2022-11-11,1,,,,,アオバモータース,0
551,2260005011155,新規,0,2022-11-11,2022-11-11,一般社団法人ｒａｉｓｅ　ｙｏｕ　ｕｐ,,その他の設立登記法人,岡山県,岡山市北区,伊福町２丁目８番１８号,,33,101,7000013,,,,,,,2022-11-11,1,,,,,レイズユーアップ,0
554,2280005007515,新規,0,2022-11-11,2022-11-11,一般社団法人高津川てらす,,その他の設立登記法人,島根県,鹿足郡吉賀町,沢田２０番地,,32,505,6995516,,,,,,,2022-11-11,1,,,,,タカツガワテラス,0
562,2290001099571,新規,0,2022-11-11,2022-11-11,三和株式会社,,株式会社,福岡県,久留米市,三潴町生岩２１６番地,,40,203,8300113,,,,,,,2022-11-11,1,,,,,サンワ,0
566,2320003003949,新規,0,2022-11-11,2022-11-11,ＳＴ合同会社,,合同会社,大分県,佐伯市,中の島１丁目９番３３号,,44,205,8760843,,,,,,,2022-11-11,1,,,,,エスティー,0
571,2340001025167,新規,0,2022-11-11,2022-11-11,Ｄｒｅｓｓ　Ｕｐ　Ａｇｒｉ株式会社,,株式会社,鹿児島県,鹿屋市,旭原町２５２５番地１,,46,203,8930022,,,,,,,2022-11-11,1,,,,,ドレスアップアグリ,0
575,2360003012459,新規,0,2022-11-11,2022-11-11,ＤＣＴ合同会社,,合同会社,沖縄県,那覇市,首里儀保町３丁目２７番地ＬＭ首里儀保駅前８０１,,47,201,9030821,,,,,,,2022-11-11,1,,,,,ディーシーティー,0
589,2430001087784,新規,0,2022-11-11,2022-11-11,オオタニホーム株式会社,,株式会社,北海道,岩見沢市,幌向南三条２丁目２３１番地１４９,,01,210,0690373,,,,,,,2022-11-11,1,,,,,オオタニホーム,0
590,2430001087818,新規,0,2022-11-11,2022-11-11,株式会社セピアート,,株式会社,北海道,札幌市中央区,南一条西４丁目１３番地１,,01,101,0600061,,,,,,,2022-11-11,1,,,,,セピアート,0
593,2430005014594,新規,0,2022-11-11,2022-11-11,税理士法人大空みらい,,その他の設立登記法人,北海道,札幌市北区,新琴似六条２丁目７番１７号,,01,102,0010906,,,,,,,2022-11-11,1,,,,,オオゾラミライ,0
597,2460303000780,新規,0,2022-11-11,2022-11-11,合同会社サンフラワーあんどう,,合同会社,北海道,網走市,錦町１２０番地の２０,,01,211,0930043,,,,,,,2022-11-11,1,,,,,サンフラワーアンドウ,0
601,2500001024598,新規,0,2022-11-11,2022-11-11,株式会社ＮＥＷ　ＳＥＥ,,株式会社,愛媛県,松山市,三番町４丁目３番地１０竹尾ビル２Ｆ,,38,201,7900003,,,,,,,2022-11-11,1,,,,,ニューシー,0
620,3010003039065,新規,0,2022-11-11,2022-11-11,内幸町キャピタル・ワンＥ合同会社,,合同会社,東京都,千代田区,内幸町２丁目１番６号,,13,101,1000011,,,,,,,2022-11-11,1,,,,,ウチサイワイチョウキャピタルワンイー,0
631,3010401170735,新規,0,2022-11-11,2022-11-11,株式会社Ｔａｕｒｕｓ,,株式会社,東京都,港区,三田３丁目１４番１０号,,13,103,1080073,,,,,,,2022-11-11,1,,,,,トーラス,0
632,3010401170768,新規,0,2022-11-11,2022-11-11,株式会社Ｋホールディングス,,株式会社,東京都,港区,南青山２丁目２番１５号ウィン青山１２１４号,,13,103,1070062,,,,,,,2022-11-11,1,,,,,ケーホールディングス,0
633,3010401170776,新規,0,2022-11-11,2022-11-11,株式会社Ｌｉｂｅｒｔｙ,,株式会社,東京都,港区,赤坂３丁目１番１６号ＢＩビル６Ｆ,,13,103,1070052,,,,,,,2022-11-11,1,,,,,リバティー,0
638,3010701043459,新規,0,2022-11-11,2022-11-11,株式会社一列小路,,株式会社,東京都,品川区,小山６丁目１９番７号,,13,109,1420062,,,,,,,2022-11-11,1,,,,,イチレツコウジ,0
639,3010801033426,新規,0,2022-11-11,2022-11-11,株式会社ハンドメイド・ジャパン,,株式会社,東京都,大田区,西蒲田１丁目１９番８号,,13,111,1440051,,,,,,,2022-11-11,1,,,,,ハンドメイドジャパン,0
647,3010901051939,新規,0,2022-11-11,2022-11-11,株式会社のびしろ舎,,株式会社,東京都,世田谷区,経堂２丁目１１番１０号,,13,112,1560052,,,,,,,2022-11-11,1,,,,,ノビシロシャ,0
650,3010903007773,新規,0,2022-11-11,2022-11-11,合同会社ＦＯＣＵＳ,,合同会社,東京都,世田谷区,野毛１丁目２４番１－２１０号,,13,112,1580092,,,,,,,2022-11-11,1,,,,,フォーカス,0
664,3011001150846,新規,0,2022-11-11,2022-11-11,株式会社Ｕｍｅｅｅ,,株式会社,東京都,渋谷区,道玄坂１丁目１０番８号,,13,113,1500043,,,,,,,2022-11-11,1,,,,,ユミー,0
665,3011001150887,新規,0,2022-11-11,2022-11-11,株式会社日本経営総合研究所,,株式会社,東京都,渋谷区,神宮前５丁目４６番４号ＵＮＢＡＢＥＬ,,13,113,1500001,,,,,,,2022-11-11,1,,,,,ニホンケイエイソウゴウケンキュウジョ,0
666,3011001150904,新規,0,2022-11-11,2022-11-11,株式会社Ｐｈｏｔｏｉｓｍ　Ｊａｐａｎ,,株式会社,東京都,渋谷区,道玄坂１丁目２番３号渋谷フクラス１７Ｆ,,13,113,1500043,,,,,,,2022-11-11,1,,,,,フォトイズムジャパン,0
668,3011003015691,新規,0,2022-11-11,2022-11-11,合同会社ＢＥＩＧＥ,,合同会社,東京都,渋谷区,渋谷２丁目１番１２号ＶＯＲＴ・ＡＯＹＡＭＡＩＩ２Ｆ,00128456,13,113,1500002,,,,,,,2022-11-11,1,,,,,ベージュ,0
670,3011101100791,新規,0,2022-11-11,2022-11-11,株式会社ｃｏｎｎｅｃｔ,,株式会社,東京都,新宿区,西新宿７丁目１０番１７号,,13,104,1600023,,,,,,,2022-11-11,1,,,,,コネクト,0
672,3011103012366,新規,0,2022-11-11,2022-11-11,合同会社ＭＳＫＹＴＥＣＨ,,合同会社,東京都,新宿区,西新宿３丁目３番１３号西新宿水間ビル２Ｆ,,13,104,1600023,,,,,,,2022-11-11,1,,,,,エムエスケーワイテック,0
677,3011403003817,新規,0,2022-11-11,2022-11-11,合同会社Ｒｉｍ‐ｓｔｙｌｅ,,合同会社,東京都,板橋区,蓮根２丁目１０－１０,,13,119,1740046,,,,,,,2022-11-11,1,,,,,リムスタイル,0
685,3011703003302,新規,0,2022-11-11,2022-11-11,東俊合同会社,,合同会社,東京都,江戸川区,西葛西５丁目８番５－１０３号,,13,123,1340088,,,,,,,2022-11-11,1,,,,,トウシュン,0
686,3011801041550,新規,0,2022-11-11,2022-11-11,株式会社ラフチル,,株式会社,東京都,葛飾区,新小岩１丁目２６－１８熊谷ビル１Ｆ,,13,122,1240024,,,,,,,2022-11-11,1,,,,,ラフチル,0
689,3012301013206,新規,0,2022-11-11,2022-11-11,コタケエスアールケイ株式会社,,株式会社,東京都,町田市,中町１丁目５番９号,,13,209,1940021,,,,,,,2022-11-11,1,,,,,コタケエスアールケイ,0
705,3013305003408,新規,0,2022-11-11,2022-11-11,一般社団法人ｓｉｅｎｔｅ,,その他の設立登記法人,東京都,豊島区,高田１丁目２４番１１号,,13,116,1710033,,,,,,,2022-11-11,1,,,,,シエンテ,0
712,3020001148924,新規,0,2022-11-11,2022-11-11,株式会社プラスワンテクノ,,株式会社,神奈川県,横浜市港北区,高田東４丁目２１番２２－１０４号,,14,109,2230065,,,,,,,2022-11-11,1,,,,,プラスワンテクノ,0
713,3020001148957,新規,0,2022-11-11,2022-11-11,株式会社クロワッサン,,株式会社,神奈川県,横浜市緑区,中山３丁目３４番３１－１０１号,,14,113,2260019,,,,,,,2022-11-11,1,,,,,クロワッサン,0
717,3020005015716,新規,0,2022-11-11,2022-11-11,ＮＰＯ法人住まいるライフ,,その他の設立登記法人,神奈川県,横浜市磯子区,森３丁目１６番８号就労継続支援Ｂ型事業所らいくすのごはん内,,14,107,2350023,,,,,,,2022-11-11,1,,,,,スマイルライフ,0
726,3021001077345,新規,0,2022-11-11,2022-11-11,株式会社湘南広告社,,株式会社,神奈川県,藤沢市,藤沢９７１番地の３パール湘南５階ビズコンフォート湘南藤沢７号室,,14,205,2510052,,,,,,,2022-11-11,1,,,,,ショウナンコウコクシャ,0
727,3021001077444,新規,0,2022-11-11,2022-11-11,株式会社プリズム,,株式会社,神奈川県,厚木市,愛甲東１丁目２２番３０号クレセンビル,,14,212,2430027,,,,,,,2022-11-11,1,,,,,プリズム,0
756,3040001125797,新規,0,2022-11-11,2022-11-11,株式会社ｎｅｏ　ｍａｍａ　ｏｉｌｓ,,株式会社,千葉県,千葉市中央区,神明町１３番地１神明ビル１Ｆ,,12,101,2600022,,,,,,,2022-11-11,1,,,,,ネオママオイルズ,0
757,3040001125847,新規,0,2022-11-11,2022-11-11,皆栄株式会社,,株式会社,千葉県,木更津市,金田東１丁目１２番地１１Ａ－２,,12,206,2920009,,,,,,,2022-11-11,1,,,,,カイエイ,0
765,3040003021251,新規,0,2022-11-11,2022-11-11,ナチュラルハウス春風合同会社,,合同会社,千葉県,旭市,西足洗７４２番地２２,,12,215,2892515,,,,,,,2022-11-11,1,,,,,ナチュラルハウスハルカゼ,0
766,3040005021803,新規,0,2022-11-11,2022-11-11,一般社団法人地域枠医師等キャリアデザイン機構,,その他の設立登記法人,千葉県,千葉市中央区,亥鼻３丁目１番２２号志学書店ビル３階,,12,101,2600856,,,,,,,2022-11-11,1,,,,,チイキワクイシトウキャリアデザインキコウ,0
770,3050001051951,新規,0,2022-11-11,2022-11-11,株式会社アール商事,,株式会社,茨城県,つくば市,学園の森３丁目４７番地２８,,08,220,3050816,,,,,,,2022-11-11,1,,,,,アールショウジ,0
772,3060001035441,新規,0,2022-11-11,2022-11-11,優慶株式会社,,株式会社,栃木県,小山市,城東２丁目１６番２１号サンガーデン城東Ｂ棟１０２号,,09,208,3230807,,,,,,,2022-11-11,1,,,,,ユウケイ,0
775,3060003004304,新規,0,2022-11-11,2022-11-11,ＡＬＬＥＹＳ合同会社,,合同会社,栃木県,那須烏山市,中山１６１－３,,09,215,3210604,,,,,,,2022-11-11,1,,,,,アレイス,0
780,3070001039821,新規,0,2022-11-11,2022-11-11,株式会社ヤマムラ開発,,株式会社,群馬県,太田市,南ヶ丘町１１７１番地４,,10,205,3700415,,,,,,,2022-11-11,1,,,,,ヤマムラカイハツ,0
781,3070003004699,新規,0,2022-11-11,2022-11-11,太陽合同会社,,合同会社,群馬県,太田市,泉町１４９０番地２８,,10,205,3730845,,,,,,,2022-11-11,1,,,,,タイヨウ,0
798,3120001249927,新規,0,2022-11-11,2022-11-11,株式会社ＺＡＮ,,株式会社,大阪府,大阪市中央区,南船場４丁目１１番２６号３階,,27,128,5420081,,,,,,,2022-11-11,1,,,,,ザン,0
799,3120001250199,新規,0,2022-11-11,2022-11-11,株式会社背乗り文鳥,,株式会社,大阪府,大阪市淀川区,宮原３丁目５番２４号新大阪第一生命ビル,,27,123,5320003,,,,,,,2022-11-11,1,,,,,セノリブンチョウ,0
800,3120001250232,新規,0,2022-11-11,2022-11-11,株式会社Ｒｉｒｅ,,株式会社,大阪府,大阪市中央区,南久宝寺町２丁目５番１号,,27,128,5410058,,,,,,,2022-11-11,1,,,,,リル,0
801,3120001250273,新規,0,2022-11-11,2022-11-11,大拙芸術株式会社,,株式会社,大阪府,大阪市都島区,都島中通２丁目５番１２号２階,,27,102,5340022,,,,,,,2022-11-11,1,,,,,ダイセツゲイジュツ,0
802,3120001250281,新規,0,2022-11-11,2022-11-11,株式会社ＴＲ,,株式会社,大阪府,大阪市中央区,日本橋２丁目１２番２８号和光マンション６０２,,27,128,5420073,,,,,,,2022-11-11,1,,,,,ティーアール,0
805,3120003022869,新規,0,2022-11-11,2022-11-11,合同会社ピーブイ,,合同会社,大阪府,大阪市北区,中崎西４丁目３―３２タカ大阪梅田ビル１２０２,,27,127,5300015,,,,,,,2022-11-11,1,,,,,ピーブイ,0
808,3122001036388,新規,0,2022-11-11,2022-11-11,株式会社ヤシロネクスト,,株式会社,大阪府,四條畷市,大字上田原１３６６番地,,27,229,5750014,,,,,,,2022-11-11,1,,,,,ヤシロネクスト,0
809,3122005003649,新規,0,2022-11-11,2022-11-11,一般社団法人Ｔｅｃ‐Ｋｏｄａ,,その他の設立登記法人,大阪府,東大阪市,若江北町３丁目１４番３３号,,27,227,5780945,,,,,,,2022-11-11,1,,,,,テックコーダ,0
812,3130001073054,新規,0,2022-11-11,2022-11-11,株式会社天光創建,,株式会社,京都府,京都市南区,吉祥院石原上川原町４６番地５ヤマキビル３Ｆ,,26,107,6018382,,,,,,,2022-11-11,1,,,,,テンコウソウケン,0
814,3130003008297,新規,0,2022-11-11,2022-11-11,ＰＭＣ合同会社,,合同会社,京都府,宇治市,木幡南山５０番地の４,,26,204,6110002,,,,,,,2022-11-11,1,,,,,ピーエムシー,0
826,3140003018345,新規,0,2022-11-11,2022-11-11,合同会社Ｗｈｅａｔ,,合同会社,兵庫県,西宮市,甲子園洲鳥町１番７－６０４号,,28,204,6638151,,,,,,,2022-11-11,1,,,,,ウィート,0
829,3150001025945,新規,0,2022-11-11,2022-11-11,株式会社ｄｕｅｌ,,株式会社,奈良県,香芝市,穴虫３２６０番地１８,,29,210,6390252,,,,,,,2022-11-11,1,,,,,デュエル,0
831,3160003002735,新規,0,2022-11-11,2022-11-11,合同会社ｅスポーツｅｘｐａｎｄ,,合同会社,滋賀県,彦根市,戸賀町１９２番地１,,25,202,5220042,,,,,,,2022-11-11,1,,,,,イースポーツイクスパンド,0
835,3180001153776,新規,0,2022-11-11,2022-11-11,株式会社岡土建,,株式会社,愛知県,半田市,亀崎町３丁目８４番地,,23,205,4750023,,,,,,,2022-11-11,1,,,,,オカドケン,0
836,3180001153818,新規,0,2022-11-11,2022-11-11,株式会社安定のＢ,,株式会社,愛知県,名古屋市中区,栄３丁目１３番６号オー・ド・ヴィー栄３Ｆ,,23,106,4600008,,,,,,,2022-11-11,1,,,,,アンテイノビー,0
840,3180003024471,新規,0,2022-11-11,2022-11-11,合同会社ａｐｓｅｅ,,合同会社,愛知県,名古屋市西区,赤城町６番地,,23,104,4520813,,,,,,,2022-11-11,1,,,,,アプシー,0
848,3190005011764,新規,0,2022-11-11,2022-11-11,医療法人かわぐち脳神経クリニック,,その他の設立登記法人,三重県,鈴鹿市,桜島町６丁目２０番５,,24,207,5130817,,,,,,,2022-11-11,1,,,,,カワグチノウシンケイクリニック,0
858,3240001060636,新規,0,2022-11-11,2022-11-11,株式会社ＭＯＳＴ,,株式会社,広島県,広島市中区,宝町５番１０－１８０１号,,34,101,7300044,,,,,,,2022-11-11,1,,,,,モスト,0
868,3290001099546,新規,0,2022-11-11,2022-11-11,株式会社つなぐと,,株式会社,福岡県,福岡市中央区,大手門３丁目１番１－５０１号,,40,133,8100074,,,,,,,2022-11-11,1,,,,,ツナグト,0
873,3290003013182,新規,0,2022-11-11,2022-11-11,合同会社ユニマック,,合同会社,福岡県,福岡市東区,松島２丁目２番５１号,,40,131,8120062,,,,,,,2022-11-11,1,,,,,ユニマック,0
874,3290003013190,新規,0,2022-11-11,2022-11-11,ＭＤ貿易合同会社,,合同会社,福岡県,福岡市東区,馬出５丁目２９番８号コーポプログレンスＤ棟,,40,131,8120054,,,,,,,2022-11-11,1,,,,,エムディーボウエキ,0
876,3300001013125,新規,0,2022-11-11,2022-11-11,ＰＩＢＥＲホールディングス株式会社,,株式会社,佐賀県,佐賀市,鍋島町大字蛎久字津留１１０１番３,,41,201,8490931,,,,,,,2022-11-11,1,,,,,ピベルホールディングス,0
880,3320001019418,新規,0,2022-11-11,2022-11-11,株式会社スカイ・ファイブ,,株式会社,大分県,別府市,亀川東町２７番２３号ＤＡＩＶＥＫＡＭＥＧＡＷＡ３階,,44,202,8740022,,,,,,,2022-11-11,1,,,,,スカイファイブ,0
889,3340001025166,新規,0,2022-11-11,2022-11-11,ｋｏｔｏｂｕｋｉ　ｃｈｅｅｓｅ株式会社,,株式会社,鹿児島県,鹿屋市,旭原町２５２５番地１,,46,203,8930022,,,,,,,2022-11-11,1,,,,,コトブキチーズ,0
891,3340003003946,新規,0,2022-11-11,2022-11-11,合同会社ＥＫＡＭ,,合同会社,鹿児島県,熊毛郡屋久島町,湯泊４５４,,46,505,8914407,,,,,,,2022-11-11,1,,,,,エーカム,0
897,3360001031204,新規,0,2022-11-11,2022-11-11,株式会社アールライン,,株式会社,沖縄県,浦添市,内間４丁目１６番１０号,,47,208,9012121,,,,,,,2022-11-11,1,,,,,アールライン,0
898,3360003012458,新規,0,2022-11-11,2022-11-11,にかわネットワーク合同会社,,合同会社,沖縄県,糸満市,字座波２４６番地,,47,210,9010314,,,,,,,2022-11-11,1,,,,,ニカワネットワーク,0
908,3420003002601,新規,0,2022-11-11,2022-11-11,合同会社ＫＴ．カンパニー,,合同会社,青森県,弘前市,大字清原３丁目４番地４,,02,202,0368163,,,,,,,2022-11-11,1,,,,,ケイティードットカンパニー,0
912,3430001087783,新規,0,2022-11-11,2022-11-11,ＴＥＮＣＡ株式会社,,株式会社,北海道,登別市,柏木町４丁目３番地４,,01,230,0590017,,,,,,,2022-11-11,1,,,,,テンカ,0
913,3430001087791,新規,0,2022-11-11,2022-11-11,株式会社Ｖ‐ＰＬＡＣＥ,,株式会社,北海道,札幌市白石区,中央二条６丁目６－１５－２０２,,01,104,0030012,,,,,,,2022-11-11,1,,,,,ブイープレイス,0
914,3430001087825,新規,0,2022-11-11,2022-11-11,株式会社ソライロ,,株式会社,北海道,札幌市中央区,南一条西１１丁目１番３１２号コンチネンタルＷＥＳＴ－Ｓビル１階,,01,101,0600061,,,,,,,2022-11-11,1,,,,,ソライロ,0
915,3430001087841,新規,0,2022-11-11,2022-11-11,あしすと株式会社,,株式会社,北海道,札幌市清田区,清田一条４丁目１番５５号,,01,110,0040841,,,,,,,2022-11-11,1,,,,,アシスト,0
918,3430003014430,新規,0,2022-11-11,2022-11-11,合同会社Ｍ‐ＩＳＭ,,合同会社,北海道,札幌市白石区,中央二条６丁目６－１５－２０２,,01,104,0030012,,,,,,,2022-11-11,1,,,,,エムアイエスエム,0
919,3430003014447,新規,0,2022-11-11,2022-11-11,合同会社３９Ｒａｃｉｎｇ　Ｓｅｒｖｉｃｅ,,合同会社,北海道,空知郡南幌町,西町４丁目１番１２号,,01,423,0690236,,,,,,,2022-11-11,1,,,,,サンキュウレーシングサービス,0
922,3460105002248,新規,0,2022-11-11,2022-11-11,医療法人社団一精会,,その他の設立登記法人,北海道,帯広市,西二条南１０丁目１１番地３,,01,207,0800012,,,,,,,2022-11-11,1,,,,,イッセイカイ,0
927,3500001024597,新規,0,2022-11-11,2022-11-11,株式会社イーエルジェー関西,,株式会社,愛媛県,松山市,北井門２丁目１４番７号,,38,201,7911105,,,,,,,2022-11-11,1,,,,,イーエルジェーカンサイ,0
929,3700150112802,新規,0,2022-11-11,2022-11-11,ＡＬ　ＡＩＮ　ＮＩＨＯＮ　ＰＲＩＶＡＴＥ　ＬＩＭＩＴＥＤ,,外国会社等,神奈川県,厚木市,下川入８３６－７オリエンタルハイツ２０１,,14,212,2430206,スリランカ民主社会主義共和国、ポロンナルワ、タンバラ、メインストリート、６４番,,,,,,2022-11-11,1,,,,,アルアインニホンプライベートリミテツド,0
942,4010001230748,新規,0,2022-11-11,2022-11-11,株式会社ＭＩＲエンターテインメント,,株式会社,東京都,千代田区,神田須田町１丁目２２番地２,,13,101,1010041,,,,,,,2022-11-11,1,,,,,ミールエンターテインメント,0
943,4010001230764,新規,0,2022-11-11,2022-11-11,ＤＥＨ１株式会社,,株式会社,東京都,千代田区,有楽町１丁目１番２号,,13,101,1000006,,,,,,,2022-11-11,1,,,,,ディーイーエイチワン,0
944,4010003039056,新規,0,2022-11-11,2022-11-11,合同会社ＪＲＷＤファンド第４号,,合同会社,東京都,中央区,日本橋１丁目４番１号日本橋一丁目ビルディング,,13,102,1030027,,,,,,,2022-11-11,1,,,,,ジェイアールダブリューディーファンドダイヨンゴウ,0
945,4010003039064,新規,0,2022-11-11,2022-11-11,内幸町キャピタル・ワンＤ合同会社,,合同会社,東京都,千代田区,内幸町２丁目１番６号,,13,101,1000011,,,,,,,2022-11-11,1,,,,,ウチサイワイチョウキャピタルワンディー,0
946,4010003039072,新規,0,2022-11-11,2022-11-11,合同会社ＣａｎＢｉｒｔｈ,,合同会社,東京都,文京区,本郷４丁目２５－１１メゾンベリテ３０２号室,,13,105,1130033,,,,,,,2022-11-11,1,,,,,キャンバス,0
954,4010401170759,新規,0,2022-11-11,2022-11-11,株式会社エルアース,,株式会社,東京都,港区,新橋１丁目９番２号新橋二光ビル７階,,13,103,1050004,,,,,,,2022-11-11,1,,,,,エルアース,0
955,4010401170767,新規,0,2022-11-11,2022-11-11,株式会社ＴＨＥ　ＡＥＯＮ,,株式会社,東京都,港区,浜松町２丁目２番１５号浜松町ダイヤビル２Ｆ,,13,103,1050013,,,,,,,2022-11-11,1,,,,,ザイオン,0
958,4010403028856,新規,0,2022-11-11,2022-11-11,合同会社ＣｏＥ,,合同会社,東京都,港区,六本木７丁目１２番２号Ｒ７ビルディングＳＰＡＣＥＳ六本木,,13,103,1060032,,,,,,,2022-11-11,1,,,,,コエ,0
959,4010403028864,新規,0,2022-11-11,2022-11-11,合同会社ＫＥＨＩＣＡ,,合同会社,東京都,港区,高輪１丁目２３番２６－１２０１号,,13,103,1080074,,,,,,,2022-11-11,1,,,,,ケヒカ,0
960,4010403028872,新規,0,2022-11-11,2022-11-11,アニスキャンサービス・ジャパン合同会社,,合同会社,東京都,港区,六本木３丁目４番２４－１０１号,,13,103,1060032,,,,,,,2022-11-11,1,,,,,アニスキャンサービスジャパン,0
972,4010903007772,新規,0,2022-11-11,2022-11-11,合同会社ミミプランニング,,合同会社,東京都,世田谷区,世田谷１丁目１０番８号,,13,112,1540017,,,,,,,2022-11-11,1,,,,,,0
981,4011001150853,新規,0,2022-11-11,2022-11-11,ＩＭＴ株式会社,,株式会社,東京都,渋谷区,鉢山町１３番４号,,13,113,1500035,,,,,,,2022-11-11,1,,,,,,0
982,4011001150861,新規,0,2022-11-11,2022-11-11,株式会社ＫＡＳＨＩＫＡ,,株式会社,東京都,渋谷区,渋谷２丁目１９番１５号宮益坂ビルディング６０９,,13,113,1500002,,,,,,,2022-11-11,1,,,,,カシカ,0
983,4011001150886,新規,0,2022-11-11,2022-11-11,株式会社ヒューマンリソースマネジメント研究所,,株式会社,東京都,渋谷区,渋谷１丁目８番５号,,13,113,1500002,,,,,,,2022-11-11,1,,,,,ヒューマンリソースマネジメントケンキュウショ,0
984,4011001150894,新規,0,2022-11-11,2022-11-11,株式会社芳福,,株式会社,東京都,渋谷区,笹塚１丁目６２番３号,,13,113,1510073,,,,,,,2022-11-11,1,,,,,ヨシフク,0
987,4011005009823,新規,0,2022-11-11,2022-11-11,一般社団法人アジアエンタテイメント文化促進協会,,その他の設立登記法人,東京都,渋谷区,東２丁目２１番２号ＣＫヒルズ２０３,,13,113,1500011,,,,,,,2022-11-11,1,,,,,アジアエンタテイメントブンカソクシンキョウカイ,0
988,4011101100799,新規,0,2022-11-11,2022-11-11,株式会社エニシオン,,株式会社,東京都,新宿区,下落合４丁目２６番１３号目白金井ビル３０２号室,,13,104,1610033,,,,,,,2022-11-11,1,,,,,エニシオン,0
997,4011601026362,新規,0,2022-11-11,2022-11-11,株式会社Ｋ．Ｓ．Ｋ‐Ｓｏｌｕｔｉｏｎｓ,,株式会社,東京都,練馬区,西大泉４丁目３番４５号,,13,120,1780065,,,,,,,2022-11-11,1,,,,,ケーエスケーソリューションズ,0
999,4011701025776,新規,0,2022-11-11,2022-11-11,株式会社ＦＬＹＤＡＹ,,株式会社,東京都,江戸川区,平井３丁目２４番９号,,13,123,1320035,,,,,,,2022-11-11,1,,,,,フライデイ,0
1004,4013103001182,新規,0,2022-11-11,2022-11-11,合同会社澄笑,,合同会社,東京都,青梅市,東青梅４丁目１７番地の４７,,13,205,1980042,,,,,,,2022-11-11,1,,,,,スイショウ,0
1005,4013301049916,新規,0,2022-11-11,2022-11-11,株式会社ＳＰＲＯＵＴ,,株式会社,東京都,豊島区,長崎４丁目１６番７号,,13,116,1710051,,,,,,,2022-11-11,1,,,,,スプラウト,0
1012,4020003022738,新規,0,2022-11-11,2022-11-11,ライフ・レボ合同会社,,合同会社,神奈川県,横浜市西区,境之谷８７番地５,,14,103,2200054,,,,,,,2022-11-11,1,,,,,ライフレボ,0
1017,4021001077419,新規,0,2022-11-11,2022-11-11,ツーピース株式会社,,株式会社,神奈川県,藤沢市,高倉２４９７番地の５,,14,205,2520802,,,,,,,2022-11-11,1,,,,,ツーピース,0
1018,4021001077427,新規,0,2022-11-11,2022-11-11,東和株式会社,,株式会社,神奈川県,平塚市,西真土１丁目１０番４８号,,14,203,2540019,,,,,,,2022-11-11,1,,,,,トウワ,0
1019,4021001077435,新規,0,2022-11-11,2022-11-11,株式会社良,,株式会社,神奈川県,相模原市中央区,千代田３丁目１８番１１－２号,,14,152,2520237,,,,,,,2022-11-11,1,,,,,リョウ,0
1020,4021001077451,新規,0,2022-11-11,2022-11-11,株式会社泉建業,,株式会社,神奈川県,平塚市,寺田縄２３番地の６出口ハイツ２－２０２,,14,203,2591215,,,,,,,2022-11-11,1,,,,,イズミケンギョウ,0
1026,4021003012282,新規,0,2022-11-11,2022-11-11,Ａ．Ｒ．ＭＯＴＯＲＳ合同会社,,合同会社,神奈川県,厚木市,温水２２２９番地１５リモード本厚木Ｂ棟１０１,,14,212,2430033,,,,,,,2022-11-11,1,,,,,エーアールモータース,0
1027,4021003012357,新規,0,2022-11-11,2022-11-11,ＺＱＷ合同会社,,合同会社,神奈川県,伊勢原市,板戸３４１スカイマンション板戸３０７,,14,214,2591145,,,,,,,2022-11-11,1,,,,,ゼットキューダブリュー,0
1028,4021003012365,新規,0,2022-11-11,2022-11-11,ＡＲＸＩＡ　Ｄｅｓｉｇｎ合同会社,,合同会社,神奈川県,平塚市,紅谷町２番３号,,14,203,2540043,,,,,,,2022-11-11,1,,,,,アークシアデザイン,0
1041,4040001125771,新規,0,2022-11-11,2022-11-11,株式会社ＵＮＩＣＯ測量設計,,株式会社,千葉県,千葉市花見川区,幕張本郷１丁目９番２７号第一中昭ビル３階,,12,102,2620033,,,,,,,2022-11-11,1,,,,,ユニコソクリョウセッケイ,0
1042,4040001125846,新規,0,2022-11-11,2022-11-11,株式会社アイスリヤ,,株式会社,千葉県,野田市,中野台８４０番地１,,12,208,2780035,,,,,,,2022-11-11,1,,,,,アイスリヤ,0
1048,4040005021810,新規,0,2022-11-11,2022-11-11,一般社団法人バウムベイサイド,,その他の設立登記法人,千葉県,船橋市,前原西２丁目１４番２号津田沼駅前安田ビル５Ｆ,,12,204,2740825,,,,,,,2022-11-11,1,,,,,バウムベイサイド,0
1051,4050001051934,新規,0,2022-11-11,2022-11-11,株式会社ＤＵＡ　ＴＲＡＤＩＮＧ,,株式会社,茨城県,古河市,大和田１７１４番地１,,08,204,3060111,,,,,,,2022-11-11,1,,,,,ドゥアトレーディング,0
1056,4060001035449,新規,0,2022-11-11,2022-11-11,株式会社ハイトップスマネジメント,,株式会社,栃木県,那須塩原市,接骨木４４３番地,,09,213,3292807,,,,,,,2022-11-11,1,,,,,ハイトップスマネジメント,0
1062,4070001039820,新規,0,2022-11-11,2022-11-11,株式会社コクア,,株式会社,群馬県,太田市,新田反町町９１７番１,,10,205,3700313,,,,,,,2022-11-11,1,,,,,コクア,0
1063,4070001039829,新規,0,2022-11-11,2022-11-11,株式会社グランデ,,株式会社,群馬県,伊勢崎市,堀下町１３７６番地１,,10,204,3792212,,,,,,,2022-11-11,1,,,,,グランデ,0
1065,4070003004698,新規,0,2022-11-11,2022-11-11,合同会社大興企画,,合同会社,群馬県,前橋市,総社町桜が丘１２０８番地２８,,10,201,3710858,,,,,,,2022-11-11,1,,,,,ダイコウキカク,0
1067,4080001025290,新規,0,2022-11-11,2022-11-11,株式会社清美,,株式会社,静岡県,静岡市清水区,高橋３丁目１０－４７カドデ高橋ビル２Ｆ－２号室,,22,103,4240041,,,,,,,2022-11-11,1,,,,,セイビ,0
1078,4100003006773,新規,0,2022-11-11,2022-11-11,合同会社ジェイズコーポレーション,,合同会社,長野県,上田市,菅平高原１２６５番地４,,20,203,3862204,,,,,,,2022-11-11,1,,,,,ジェイズコーポレーション,0
1095,4120001250198,新規,0,2022-11-11,2022-11-11,Ｘｉｎ　Ｔｅｃｈｎｏｌｏｇｉｅｓ株式会社,,株式会社,大阪府,大阪市中央区,瓦町１丁目３番２号ヒガシビル３０６,,27,128,5410048,,,,,,,2022-11-11,1,,,,,シンテクノロジーズ,0
1096,4120001250223,新規,0,2022-11-11,2022-11-11,株式会社ＦＩＶＥ　ＣＬＵＶ,,株式会社,大阪府,大阪市天王寺区,上本町５丁目３番１７－６０２号,,27,109,5430001,,,,,,,2022-11-11,1,,,,,ファイブクラブ,0
1097,4120001250231,新規,0,2022-11-11,2022-11-11,株式会社Ｍｙｔｈｉｃ,,株式会社,大阪府,大阪市中央区,南久宝寺町２丁目５番１号,,27,128,5410058,,,,,,,2022-11-11,1,,,,,ミシック,0
1098,4120001250248,新規,0,2022-11-11,2022-11-11,鼎麟株式会社,,株式会社,大阪府,大阪市中央区,松屋町９番２０号ローレルステート松屋町１３０２Ａ,,27,128,5420067,,,,,,,2022-11-11,1,,,,,テイリン,0
1099,4120001250256,新規,0,2022-11-11,2022-11-11,株式会社ｃｏｌｏｒａｔｏ,,株式会社,大阪府,大阪市天王寺区,上本町９丁目３番４号,,27,109,5430001,,,,,,,2022-11-11,1,,,,,コロラート,0
1101,4120003022851,新規,0,2022-11-11,2022-11-11,合同会社トレファーロ,,合同会社,大阪府,大阪市城東区,中浜３丁目１７番１８号,,27,118,5360024,,,,,,,2022-11-11,1,,,,,トレファーロ,0
1119,4140001127997,新規,0,2022-11-11,2022-11-11,株式会社Ｋ．Ｇ　Ｃｏｒｐｏｒａｔｉｏｎ,,株式会社,兵庫県,姫路市,夢前町寺９番地２８フローリッシュＩ４０１号,00128450,28,201,6712116,,,,,,,2022-11-11,1,,,,,ケイジーコーポレーション,0
1120,4140001128005,新規,0,2022-11-11,2022-11-11,株式会社ＣＩＰＨＥＲインターナショナル,,株式会社,兵庫県,神戸市東灘区,森南町１丁目５番１号１２４,,28,101,6580011,,,,,,,2022-11-11,1,,,,,サイファーインターナショナル,0
1124,4140003018352,新規,0,2022-11-11,2022-11-11,ミヤナガ建設合同会社,,合同会社,兵庫県,加古川市,志方町細工所４５５番地の１,,28,210,6750303,,,,,,,2022-11-11,1,,,,,ミヤナガケンセツ,0
1134,4160001024648,新規,0,2022-11-11,2022-11-11,株式会社ＴＡＴＳＵＫＯ,,株式会社,滋賀県,大津市,平津１丁目２１番１５号湖南ハイツ１０２,,25,201,5200862,,,,,,,2022-11-11,1,,,,,タツコ,0
1138,4180001153783,新規,0,2022-11-11,2022-11-11,株式会社Ｎａｎａ,,株式会社,愛知県,日進市,岩崎町芦廻間１１２番地１６９１,00128452,23,230,4700131,,,,,,,2022-11-11,1,,,,,ナナ,0
1139,4180001153791,新規,0,2022-11-11,2022-11-11,株式会社ｂｙｔａｋｅ,,株式会社,愛知県,名古屋市中村区,名駅４丁目２４番５号第２森ビル４０１,,23,105,4500002,,,,,,,2022-11-11,1,,,,,バイテイク,0
1140,4180001153809,新規,0,2022-11-11,2022-11-11,オ・ハナ緑会株式会社,,株式会社,愛知県,名古屋市緑区,大清水５丁目１７１９番地１,,23,114,4580805,,,,,,,2022-11-11,1,,,,,オハナミドリカイ,0
1141,4180001153833,新規,0,2022-11-11,2022-11-11,株式会社ＣＬＡＰ,,株式会社,愛知県,名古屋市中村区,太閤１丁目２０番１０号名古屋プレミアム医療モール４階,,23,105,4530801,,,,,,,2022-11-11,1,,,,,クラップ,0
1142,4180001153841,新規,0,2022-11-11,2022-11-11,株式会社ＥＦジャパン,,株式会社,愛知県,名古屋市中川区,川前町１３７番地,,23,110,4540916,,,,,,,2022-11-11,1,,,,,イーエフジャパン,0
1144,4180003024454,新規,0,2022-11-11,2022-11-11,合同会社オフィスエイド,,合同会社,愛知県,春日井市,高座台１丁目５番地２１,,23,206,4870017,,,,,,,2022-11-11,1,,,,,オフィスエイド,0
1145,4180003024470,新規,0,2022-11-11,2022-11-11,合同会社ｌａｇｕｚ．,,合同会社,愛知県,名古屋市千種区,姫池通２丁目２‐３第二小山ビル１号,,23,101,4640055,,,,,,,2022-11-11,1,,,,,ラグズ,0
1146,4180003024479,新規,0,2022-11-11,2022-11-11,合同会社ＮＥＯ,,合同会社,愛知県,東海市,高横須賀町坂下１８番地５,,23,222,4770037,,,,,,,2022-11-11,1,,,,,ネオ,0
1155,4190001029925,新規,0,2022-11-11,2022-11-11,株式会社ＭＹテックサービス,,株式会社,三重県,四日市市,芝田１丁目３番１１号,,24,202,5100822,,,,,,,2022-11-11,1,,,,,マイテックサービス,0
1158,4190005011763,新規,0,2022-11-11,2022-11-11,医療法人誠佑会,,その他の設立登記法人,三重県,四日市市,小杉新町１５３番７,,24,202,5120903,,,,,,,2022-11-11,1,,,,,セイユウカイ,0
1181,4290001099487,新規,0,2022-11-11,2022-11-11,株式会社ハットトリック,,株式会社,福岡県,福岡市東区,香椎浜１丁目９番２－８０７号,,40,131,8130016,,,,,,,2022-11-11,1,,,,,ハットトリック,0
1182,4290001099561,新規,0,2022-11-11,2022-11-11,株式会社コルティーレ,,株式会社,福岡県,福岡市早良区,田村４丁目１５番４８－２０１号,,40,137,8140175,,,,,,,2022-11-11,1,,,,,コルティーレ,0
1185,4290003013173,新規,0,2022-11-11,2022-11-11,Ｂｅｌｌｅｆｏｌｉｏ合同会社,,合同会社,福岡県,福岡市早良区,西新４丁目１番１号,,40,137,8140002,,,,,,,2022-11-11,1,,,,,ベルフォリオ,0
1186,4290003013181,新規,0,2022-11-11,2022-11-11,ギャルリーＭｉｃｋ合同会社,,合同会社,福岡県,大野城市,若草３丁目１９番２１号,,40,219,8160981,,,,,,,2022-11-11,1,,,,,ギャルリーミック,0
1188,4290803004256,新規,0,2022-11-11,2022-11-11,永田商事合同会社,,合同会社,福岡県,北九州市若松区,高須東２丁目９番１４号,,40,103,8080144,,,,,,,2022-11-11,1,,,,,ナガタショウジ,0
1200,4360003012449,新規,0,2022-11-11,2022-11-11,合同会社Ｋスリー,,合同会社,沖縄県,宜野湾市,我如古３丁目１５番２７号,,47,205,9012214,,,,,,,2022-11-11,1,,,,,ケースリー,0
1201,4370001049252,新規,0,2022-11-11,2022-11-11,株式会社Ｋウッド,,株式会社,宮城県,白石市,郡山字東中堀４番地１,,04,206,9890203,,,,,,,2022-11-11,1,,,,,ケイウッド,0
1215,4430001087816,新規,0,2022-11-11,2022-11-11,株式会社Ｅｇｏｉｓｔ,,株式会社,北海道,札幌市東区,北三十二条東１７丁目１番７号,,01,103,0650032,,,,,,,2022-11-11,1,,,,,エゴイスト,0
1216,4430001087832,新規,0,2022-11-11,2022-11-11,株式会社Ａ・Ｉ,,株式会社,北海道,札幌市手稲区,前田三条８丁目３番１８－２号,,01,109,0060813,,,,,,,2022-11-11,1,,,,,エーアイ,0
1237,5010003039022,新規,0,2022-11-11,2022-11-11,合同会社ＣＯＮＥＴ,,合同会社,東京都,中央区,銀座１丁目１５番７号マック銀座ビル３階,,13,102,1040061,,,,,,,2022-11-11,1,,,,,コネット,0
1238,5010003039063,新規,0,2022-11-11,2022-11-11,内幸町キャピタル・ワンＣ合同会社,,合同会社,東京都,千代田区,内幸町２丁目１番６号,,13,101,1000011,,,,,,,2022-11-11,1,,,,,ウチサイワイチョウキャピタルワンシー,0
1239,5010003039071,新規,0,2022-11-11,2022-11-11,合同会社ＫＭｙ２ｈ,,合同会社,東京都,千代田区,丸の内２丁目７―２ＪＰタワー,,13,101,1000005,,,,,,,2022-11-11,1,,,,,ケーエムワイツーエイチ,0
1247,5010401170766,新規,0,2022-11-11,2022-11-11,リジェネロン・ジャパン株式会社,,株式会社,東京都,港区,六本木１丁目９番１０号アークヒルズ仙石山森タワー２８階ベーカー＆マッケンジー法律事務所（外国法共同事業）内,,13,103,1060032,,,,,,,2022-11-11,1,,,,,リジェネロンジャパン,0
1248,5010401170782,新規,0,2022-11-11,2022-11-11,株式会社プラットＳＰＣ,,株式会社,東京都,港区,浜松町１丁目７番３号第一ビル５階,,13,103,1050013,,,,,,,2022-11-11,1,,,,,プラットエスピーシー,0
1249,5010401170824,新規,0,2022-11-11,2022-11-11,株式会社Ｂｒｉｌｌｉａｎｔｃｒｙｐｔｏ,,株式会社,東京都,港区,赤坂９丁目７番２号,,13,103,1070052,,,,,,,2022-11-11,1,,,,,ブリリアントクリプト,0
1253,5010605004150,新規,0,2022-11-11,2022-11-11,一般社団法人ＦＵＫＵ・ＷＡＲＡＩ,,その他の設立登記法人,東京都,江東区,古石場３丁目１１番１７号,,13,108,1350045,,,,,,,2022-11-11,1,,,,,フクワライ,0
1266,5011001150893,新規,0,2022-11-11,2022-11-11,株式会社パック,,株式会社,東京都,目黒区,大橋１丁目７番１８－６０２号,,13,110,1530044,,,,,,,2022-11-11,1,,,,,パック,0
1271,5011003015673,新規,0,2022-11-11,2022-11-11,合同会社Ｚｅｎ,,合同会社,東京都,渋谷区,道玄坂１丁目１０番８号渋谷道玄坂東急ビル２Ｆ－Ｃ,,13,113,1500043,,,,,,,2022-11-11,1,,,,,ゼン,0
1272,5011003015698,新規,0,2022-11-11,2022-11-11,ＮＫコンサルティング合同会社,,合同会社,東京都,目黒区,中町１丁目２６番１１号,,13,110,1530065,,,,,,,2022-11-11,1,,,,,エヌケーコンサルティング,0
1282,5011101100798,新規,0,2022-11-11,2022-11-11,株式会社サーチアップ,,株式会社,東京都,新宿区,歌舞伎町２丁目１１番７号メトロビル６階,,13,104,1600021,,,,,,,2022-11-11,1,,,,,サーチアップ,0
1283,5011101100807,新規,0,2022-11-11,2022-11-11,株式会社ノア・コーポレーション,,株式会社,東京都,新宿区,西新宿１丁目２０番３号西新宿高木ビル７・８階,00128449,13,104,1600023,,,,,,,2022-11-11,1,,,,,ノアコーポレーション,0
1291,5011501028656,新規,0,2022-11-11,2022-11-11,株式会社美夢宮,,株式会社,東京都,北区,田端新町２丁目１１番４－９０２号,,13,117,1140012,,,,,,,2022-11-11,1,,,,,ミライエ,0
1293,5011503005356,新規,0,2022-11-11,2022-11-11,合同会社こせのぶ,,合同会社,東京都,北区,浮間２丁目５番３号,,13,117,1150051,,,,,,,2022-11-11,1,,,,,コセノブ,0
1301,5011701025783,新規,0,2022-11-11,2022-11-11,ＴＯＭＯ　ＪＡＰＡＮ株式会社,,株式会社,東京都,江戸川区,中央２丁目３３番６号,,13,123,1320021,,,,,,,2022-11-11,1,,,,,トモジャパン,0
1305,5011801041549,新規,0,2022-11-11,2022-11-11,株式会社ハヤト,,株式会社,東京都,足立区,興野１丁目１４番１９号Ｂｅａｕ２０１号室,,13,121,1230844,,,,,,,2022-11-11,1,,,,,ハヤト,0
1312,5012401039826,新規,0,2022-11-11,2022-11-11,株式会社Ｇｌａｄｉｏｌｕｓ　ＬＡＢ,,株式会社,東京都,多摩市,落合１丁目７番地１２,,13,224,2060033,,,,,,,2022-11-11,1,,,,,グラジオラスラボ,0
1313,5012403005660,新規,0,2022-11-11,2022-11-11,合同会社ＯＺＡＷＡ,,合同会社,東京都,多摩市,永山２丁目２１番地の３ファミリー汪１階,,13,224,2060025,,,,,,,2022-11-11,1,,,,,オザワ,0
1324,5013305003406,新規,0,2022-11-11,2022-11-11,一般財団法人水波アフリカ財団,,その他の設立登記法人,東京都,豊島区,南池袋２丁目２８番１４号大和証券池袋ビル３Ｆ,,13,116,1710022,,,,,,,2022-11-11,1,,,,,ミズナミアフリカザイダン,0
1328,5020001148939,新規,0,2022-11-11,2022-11-11,ｋｕｒｏｄａ．ｋ株式会社,,株式会社,神奈川県,川崎市高津区,溝口１丁目９番７号,,14,134,2130001,,,,,,,2022-11-11,1,,,,,クロダドットケー,0
1329,5020001148971,新規,0,2022-11-11,2022-11-11,株式会社ＬＩＢＥＲＴＥ,,株式会社,神奈川県,川崎市多摩区,登戸７７２クレールメゾンＡ２０３,,14,135,2140014,,,,,,,2022-11-11,1,,,,,リベルテ,0
1333,5020003022737,新規,0,2022-11-11,2022-11-11,合同会社瀧田不動産,,合同会社,神奈川県,川崎市多摩区,西生田４丁目１０番１９号,,14,135,2140037,,,,,,,2022-11-11,1,,,,,タキタフドウサン,0
1336,5021001077426,新規,0,2022-11-11,2022-11-11,フォージフード株式会社,,株式会社,神奈川県,横須賀市,根岸町２丁目１２番４０号,,14,201,2390807,,,,,,,2022-11-11,1,,,,,フォージフード,0
1337,5021001077442,新規,0,2022-11-11,2022-11-11,株式会社すたじお香箱,,株式会社,神奈川県,藤沢市,鵠沼海岸３丁目４番５号クリオ鵠沼海岸３０１,,14,205,2510037,,,,,,,2022-11-11,1,,,,,スタジオコウバコ,0
1339,5021003012356,新規,0,2022-11-11,2022-11-11,合同会社キミオテラス,,合同会社,神奈川県,秦野市,南矢名３１９番地の１５,,14,211,2570003,,,,,,,2022-11-11,1,,,,,キミオテラス,0
1347,5030001150992,新規,0,2022-11-11,2022-11-11,株式会社Ｈｅａｒｔ　ｌａｎｄ,,株式会社,埼玉県,所沢市,小手指町１丁目２２番地の１２,,11,208,3591141,,,,,,,2022-11-11,1,,,,,ハートランド,0
1350,5030003020566,新規,0,2022-11-11,2022-11-11,合同会社おいも,,合同会社,埼玉県,八潮市,中央１丁目２７番地４８,,11,234,3400816,,,,,,,2022-11-11,1,,,,,オイモ,0
1351,5030005021067,新規,0,2022-11-11,2022-11-11,一般社団法人あい和学童クラブ運営法人,,その他の設立登記法人,埼玉県,上尾市,大字瓦葺２６７０番地７,,11,219,3620022,,,,,,,2022-11-11,1,,,,,アイワガクドウクラブウンエイホウジン,0
1358,5040001125795,新規,0,2022-11-11,2022-11-11,株式会社Ｃａｓｅ,,株式会社,千葉県,旭市,椎名内１５９１番地,,12,215,2892514,,,,,,,2022-11-11,1,,,,,カセ,0
1359,5040001125804,新規,0,2022-11-11,2022-11-11,株式会社Ｈｏｌｉｄａｙ,,株式会社,千葉県,千葉市美浜区,高洲２丁目９番３８号,,12,106,2610004,,,,,,,2022-11-11,1,,,,,ホリディ,0
1360,5040001125812,新規,0,2022-11-11,2022-11-11,株式会社プチアンジュ,,株式会社,千葉県,館山市,館山１２１２番地１,,12,205,2940036,,,,,,,2022-11-11,1,,,,,プチアンジュ,0
1361,5040001125845,新規,0,2022-11-11,2022-11-11,ＨＡ株式会社,,株式会社,千葉県,柏市,柏１３６５番地８クレストフォルム柏サウスウイング１１７号,,12,217,2770005,,,,,,,2022-11-11,1,,,,,エイチエー,0
1373,5060003004302,新規,0,2022-11-11,2022-11-11,ＥＬＬＥ　ＡＭＯＲ合同会社,,合同会社,栃木県,宇都宮市,緑１丁目１１－２２－１０３,,09,201,3210165,,,,,,,2022-11-11,1,,,,,エルアモール,0
1382,5100001035823,新規,0,2022-11-11,2022-11-11,株式会社みすゞ中小企業診断士事務所,,株式会社,長野県,飯田市,川路４７０２番地１,,20,205,3992431,,,,,,,2022-11-11,1,,,,,ミスズチュウショウキギョウシンダンシジムショ,0
1386,5110001037109,新規,0,2022-11-11,2022-11-11,株式会社ＧＥＮＴＬＥ,,株式会社,新潟県,新潟市中央区,南万代町９番１２号,,15,103,9500902,,,,,,,2022-11-11,1,,,,,ジェントル,0
1397,5120001250197,新規,0,2022-11-11,2022-11-11,株式会社キミッツ,,株式会社,大阪府,大阪市城東区,新喜多東２丁目３番２－１０１６号,,27,118,5360017,,,,,,,2022-11-11,1,,,,,キミッツ,0
1398,5120001250230,新規,0,2022-11-11,2022-11-11,株式会社Ａｉｍ,,株式会社,大阪府,大阪市中央区,南久宝寺町２丁目５番１号,,27,128,5410058,,,,,,,2022-11-11,1,,,,,エイム,0
1399,5120001250239,新規,0,2022-11-11,2022-11-11,ロック・ヘビイ株式会社,,株式会社,大阪府,大阪市北区,西天満３丁目１４番１１号,,27,127,5300047,,,,,,,2022-11-11,1,,,,,ロックヘビイ,0
1400,5120001250263,新規,0,2022-11-11,2022-11-11,株式会社Ｎｅｘｕｓ,,株式会社,大阪府,交野市,星田山手５丁目９番２号,,27,230,5760014,,,,,,,2022-11-11,1,,,,,ネクサス,0
1401,5120001250305,新規,0,2022-11-11,2022-11-11,株式会社ＶＲ,,株式会社,大阪府,大阪市西区,西本町３丁目１番４３号３０１Ａ,,27,106,5500005,,,,,,,2022-11-11,1,,,,,ブイアール,0
1404,5120003022818,新規,0,2022-11-11,2022-11-11,合同会社都ｒｅｎｔサービス,,合同会社,大阪府,大阪市都島区,都島北通１丁目４番１５号マンション大和２号館３０２号,,27,102,5340014,,,,,,,2022-11-11,1,,,,,ミヤコレントサービス,0
1405,5120003022867,新規,0,2022-11-11,2022-11-11,ＴＮＢ合同会社,,合同会社,大阪府,大阪市西成区,花園北２丁目３番１０号,,27,122,5570016,,,,,,,2022-11-11,1,,,,,ティーエヌビー,0
1407,5120101066502,新規,0,2022-11-11,2022-11-11,株式会社ジンセイ,,株式会社,大阪府,泉大津市,豊中町３丁目２－２９インテリジェントビル１Ｂ,,27,206,5950023,,,,,,,2022-11-11,1,,,,,ジンセイ,0
1408,5120101066519,新規,0,2022-11-11,2022-11-11,ＡＬ　ＳＨＡＭＳ株式会社,,株式会社,大阪府,羽曳野市,大黒８０２－４,,27,222,5830847,,,,,,,2022-11-11,1,,,,,アルシャムズ,0
1415,5130001073069,新規,0,2022-11-11,2022-11-11,株式会社Ｑｕｅｓｓａａ春雀,,株式会社,京都府,京都市東山区,上梅屋町１６２番地メゾンロビ３Ｆ３０１,,26,105,6050876,,,,,,,2022-11-11,1,,,,,クエッサシュンジャク,0
1420,5140001127988,新規,0,2022-11-11,2022-11-11,株式会社パートナーズ,,株式会社,兵庫県,宍粟市,山崎町須賀沢８１７番地１,,28,227,6712533,,,,,,,2022-11-11,1,,,,,パートナーズ,0
1421,5140001128045,新規,0,2022-11-11,2022-11-11,株式会社益栄精密工作所,,株式会社,兵庫県,姫路市,打越２３番地２,,28,201,6712246,,,,,,,2022-11-11,1,,,,,マスエイセイミツコウサクショ,0
1429,5160001024647,新規,0,2022-11-11,2022-11-11,株式会社滋賀県装蹄師会中央競馬栗東装蹄師会,,株式会社,滋賀県,栗東市,御園１０２８番地競走馬診療所装蹄室,,25,208,5203005,,,,,,,2022-11-11,1,,,,,シガケンソウテイシカイチュウオウケイバリットウソウテイシカイ,0
1434,5180001153782,新規,0,2022-11-11,2022-11-11,株式会社Ａｌｇｏｓｔａ,,株式会社,愛知県,長久手市,長配１丁目４１３番地,,23,238,4801114,,,,,,,2022-11-11,1,,,,,アルゴスタ,0
1435,5180001153799,新規,0,2022-11-11,2022-11-11,株式会社ＫＡＲＥＩＤＯ,,株式会社,愛知県,名古屋市中川区,松葉町２丁目５７番地,,23,110,4540818,,,,,,,2022-11-11,1,,,,,カレイド,0
1436,5180001153808,新規,0,2022-11-11,2022-11-11,アール住設株式会社,,株式会社,愛知県,春日井市,美濃町２丁目１５３番地,,23,206,4860917,,,,,,,2022-11-11,1,,,,,アールジュウセツ,0
1437,5180001153824,新規,0,2022-11-11,2022-11-11,株式会社Ｐｌｕｓ‐ｏｎｅ,,株式会社,愛知県,東海市,名和町平戸口１７番地１,,23,222,4760002,,,,,,,2022-11-11,1,,,,,プラスワン,0
1438,5180001153832,新規,0,2022-11-11,2022-11-11,Ｃ・Ｊテック株式会社,,株式会社,愛知県,名古屋市千種区,赤坂町１丁目６１番地の３,,23,101,4640094,,,,,,,2022-11-11,1,,,,,シージェイテック,0
1441,5180003024486,新規,0,2022-11-11,2022-11-11,合同会社ＢＬＯＣＫＰＡＲＴＹ,,合同会社,愛知県,大府市,長草町上田ノ松７５番地の８,,23,223,4740052,,,,,,,2022-11-11,1,,,,,ブロックパーティー,0
1460,5290001099577,新規,0,2022-11-11,2022-11-11,株式会社田浦建設,,株式会社,福岡県,大牟田市,南船津町４丁目１番地９,,40,202,8360075,,,,,,,2022-11-11,1,,,,,タウラケンセツ,0
1469,5320003003946,新規,0,2022-11-11,2022-11-11,合同会社Ｔ・Ｋ,,合同会社,大分県,大分市,大字玉沢１０２９番地の１,,44,201,8701155,,,,,,,2022-11-11,1,,,,,ティーケイ,0
1475,5330003009587,新規,0,2022-11-11,2022-11-11,誠龍合同会社,,合同会社,熊本県,熊本市東区,月出５丁目４番１５－１号,,43,102,8620920,,,,,,,2022-11-11,1,,,,,セイリュウ,0
1480,5360001031193,新規,0,2022-11-11,2022-11-11,株式会社優心,,株式会社,沖縄県,宜野湾市,大謝名１丁目１２番３１号,,47,205,9012225,,,,,,,2022-11-11,1,,,,,ユウシン,0
1482,5360003012448,新規,0,2022-11-11,2022-11-11,農地所有適格法人合同会社おきなわ山里ファーム,,合同会社,沖縄県,名護市,宮里６丁目２番１８号,,47,209,9050011,,,,,,,2022-11-11,1,,,,,オキナワヤマザトファーム,0
1485,5370001049235,新規,0,2022-11-11,2022-11-11,ピュアハウス株式会社,,株式会社,宮城県,仙台市太白区,東中田３丁目２番３５号,,04,104,9811107,,,,,,,2022-11-11,1,,,,,ピュアハウス,0
1489,5380003005318,新規,0,2022-11-11,2022-11-11,合同会社ｓｏｉｉ,,合同会社,福島県,いわき市,錦町江栗馬場５７番地,,07,204,9748232,,,,,,,2022-11-11,1,,,,,ソーイ,0
1496,5430001087831,新規,0,2022-11-11,2022-11-11,株式会社ＭＲＥ,,株式会社,北海道,札幌市中央区,南七条西１３丁目３番２８号,,01,101,0640807,,,,,,,2022-11-11,1,,,,,エムアールイー,0
1507,5480001011910,新規,0,2022-11-11,2022-11-11,株式会社大安吉日,,株式会社,徳島県,名西郡神山町,上分字川又２１５－１,,36,342,7713422,,,,,,,2022-11-11,1,,,,,タイアンキチジツ,0
1511,5500001024595,新規,0,2022-11-11,2022-11-11,株式会社オフィス・スリー,,株式会社,愛媛県,松山市,天山３丁目２番３１号ドラゴンビル２Ｆ南,,38,201,7900951,,,,,,,2022-11-11,1,,,,,オフィススリー,0
1519,6010001230713,新規,0,2022-11-11,2022-11-11,株式会社ＢＩＭＥＮＴＥ,,株式会社,東京都,中央区,銀座６丁目１３番９号ＧＩＲＡＣＧＩＮＺＡ８Ｆ,,13,102,1040061,,,,,,,2022-11-11,1,,,,,ビメンテ,0
1520,6010001230746,新規,0,2022-11-11,2022-11-11,株式会社クロップ,,株式会社,東京都,中央区,人形町三丁目７番１３－１００２号,,13,102,1030000,,,,,,,2022-11-11,1,,,,,クロップ,0
1522,6010003039046,新規,0,2022-11-11,2022-11-11,合同会社ｂｏｕｎｄａｒｙ,,合同会社,東京都,中央区,日本橋堀留町１丁目８－１５－２階,,13,102,1030012,,,,,,,2022-11-11,1,,,,,バウンダリー,0
1523,6010003039062,新規,0,2022-11-11,2022-11-11,内幸町キャピタル・ワンＢ合同会社,,合同会社,東京都,千代田区,内幸町２丁目１番６号,,13,101,1000011,,,,,,,2022-11-11,1,,,,,ウチサイワイチョウキャピタルワンビー,0
1524,6010101015411,新規,0,2022-11-11,2022-11-11,株式会社白山倉庫,,株式会社,東京都,八王子市,長沼町１３４番地３３４,,13,201,1920907,,,,,,,2022-11-11,1,,,,,シラヤマソウコ,0
1538,6010401170724,新規,0,2022-11-11,2022-11-11,株式会社Ａｌｌｔｅｃｈ,,株式会社,東京都,港区,新橋１丁目１２－９新橋プレイス８階,,13,103,1050004,,,,,,,2022-11-11,1,,,,,オールテック,0
1539,6010401170765,新規,0,2022-11-11,2022-11-11,株式会社シアーワークス,,株式会社,東京都,港区,南青山３丁目１番３６号青山丸竹ビル６Ｆ,,13,103,1070062,,,,,,,2022-11-11,1,,,,,シアーワークス,0
1540,6010401170773,新規,0,2022-11-11,2022-11-11,株式会社ｗｉｔｈ　ｆｕｎ,,株式会社,東京都,港区,南青山２丁目２番１５号,,13,103,1070062,,,,,,,2022-11-11,1,,,,,ウィズファン,0
1541,6010401170781,新規,0,2022-11-11,2022-11-11,株式会社ＷＩＬ　Ｃｏｎｓｕｌｔｉｎｇ,,株式会社,東京都,港区,芝５丁目３６－４札の辻スクエア９階,,13,103,1080014,,,,,,,2022-11-11,1,,,,,ウィルコンサルティング,0
1542,6010401170807,新規,0,2022-11-11,2022-11-11,株式会社ＷＯＬＦ,,株式会社,東京都,港区,西麻布４丁目１４番２４－３０２号,,13,103,1060031,,,,,,,2022-11-11,1,,,,,ウルフ,0
1545,6010403028862,新規,0,2022-11-11,2022-11-11,ライフ・リコネクト合同会社,,合同会社,東京都,港区,元麻布３丁目６番１９号,,13,103,1060046,,,,,,,2022-11-11,1,,,,,ライフリコネクト,0
1550,6010601062135,新規,0,2022-11-11,2022-11-11,株式会社エント・アール,,株式会社,東京都,江東区,東雲１丁目９番３１－２８０６号,,13,108,1350062,,,,,,,2022-11-11,1,,,,,エントアール,0
1553,6010701043448,新規,0,2022-11-11,2022-11-11,株式会社Ｂｅｅｆｕｌｌ,,株式会社,東京都,品川区,東品川４丁目１１番３６－４０９号,,13,109,1400002,,,,,,,2022-11-11,1,,,,,ビーフル,0
1557,6010901051944,新規,0,2022-11-11,2022-11-11,株式会社Ｒｏｌｉｇｔ　Ｐｌａｔｓ,,株式会社,東京都,世田谷区,経堂１丁目１２番１７号ＲｅｓｉｄｅｎｃｅＧ経堂Ｊ０３,,13,112,1560052,,,,,,,2022-11-11,1,,,,,,0
1575,6011001150843,新規,0,2022-11-11,2022-11-11,株式会社プライム,,株式会社,東京都,渋谷区,広尾１丁目１番７号,,13,113,1500012,,,,,,,2022-11-11,1,,,,,プライム,0
1576,6011001150868,新規,0,2022-11-11,2022-11-11,アニマルキャラバン３９株式会社,,株式会社,東京都,目黒区,目黒４丁目５－３１－Ｊ,,13,110,1530063,,,,,,,2022-11-11,1,,,,,アニマルキャラバンサンクス,0
1577,6011003015680,新規,0,2022-11-11,2022-11-11,ＥＬＳＡ　Ｊａｐａｎ合同会社,,合同会社,東京都,渋谷区,千駄ヶ谷５丁目２７番５号リンクスクエア新宿１６Ｆ,,13,113,1510051,,,,,,,2022-11-11,1,,,,,エルサジャパン,0
1581,6011101100814,新規,0,2022-11-11,2022-11-11,株式会社ＵＫＣ,,株式会社,東京都,新宿区,高田馬場１丁目１番１５号オリンピック早稲田ビル６０２号,,13,104,1690075,,,,,,,2022-11-11,1,,,,,ユーケーシー,0
1582,6011103012355,新規,0,2022-11-11,2022-11-11,Ｕｎｉｖｅｒｓａｌ　Ｐａｃｉｆｉｃ　Ｉｎｖｅｓｔｍｅｎｔ合同会社,,合同会社,東京都,新宿区,西早稲田２丁目２０番１０号－３０８号,,13,104,1690051,,,,,,,2022-11-11,1,,,,,ユニバーサルパシフィックインベストメント,0
1583,6011103012371,新規,0,2022-11-11,2022-11-11,合同会社チケットオンライン,,合同会社,東京都,新宿区,西新宿３丁目３番１３号,,13,104,1600023,,,,,,,2022-11-11,1,,,,,チケットオンライン,0
1592,6011401024671,新規,0,2022-11-11,2022-11-11,湯治場株式会社,,株式会社,東京都,板橋区,大谷口２丁目２０番１号,,13,119,1730035,,,,,,,2022-11-11,1,,,,,トウジバ,0
1600,6011603003746,新規,0,2022-11-11,2022-11-11,合同会社やもりや,,合同会社,東京都,練馬区,練馬１丁目２０番８号日建練馬ビル２Ｆ,,13,120,1760001,,,,,,,2022-11-11,1,,,,,ヤモリヤ,0
1604,6011703003299,新規,0,2022-11-11,2022-11-11,合同会社ＲＥＶＯＬＬＳ,,合同会社,東京都,江戸川区,中央３丁目１６番９号,,13,123,1320021,,,,,,,2022-11-11,1,,,,,レボルズ,0
1607,6011801041548,新規,0,2022-11-11,2022-11-11,ＮＴＲ株式会社,,株式会社,東京都,葛飾区,高砂１丁目２６－１１,,13,122,1250054,,,,,,,2022-11-11,1,,,,,エンティーアー,0
1631,6020001148616,新規,0,2022-11-11,2022-11-11,星浩実業株式会社,,株式会社,神奈川県,横浜市戸塚区,矢部町１４１８番地,,14,110,2440002,,,,,,,2022-11-11,1,,,,,セイコウジツギョウ,0
1632,6020001148938,新規,0,2022-11-11,2022-11-11,株式会社マクロ・ビオ,,株式会社,神奈川県,横浜市青葉区,美しが丘西３丁目６０番地１４,,14,117,2250001,,,,,,,2022-11-11,1,,,,,マクロビオ,0
1633,6020001148970,新規,0,2022-11-11,2022-11-11,株式会社スタジオＳｏｕｐ．,,株式会社,神奈川県,横浜市神奈川区,反町３丁目２２－３,,14,102,2210825,,,,,,,2022-11-11,1,,,,,,0
1634,6020001148979,新規,0,2022-11-11,2022-11-11,富士箱根山荘株式会社,,株式会社,神奈川県,横浜市中区,石川町１丁目１番地カーサ元町１００４号,,14,104,2310868,,,,,,,2022-11-11,1,,,,,フジハコネサンソウ,0
1638,6020003022703,新規,0,2022-11-11,2022-11-11,合同会社オフィス一誠,,合同会社,神奈川県,横浜市戸塚区,上矢部町３１７７－５６,,14,110,2450053,,,,,,,2022-11-11,1,,,,,オフィスイッセイ,0
1639,6020003022736,新規,0,2022-11-11,2022-11-11,合同会社フェリーチェ,,合同会社,神奈川県,横浜市港北区,菊名６丁目２７番１－５０３号,,14,109,2220011,,,,,,,2022-11-11,1,,,,,フェリーチェ,0
1645,6021001077400,新規,0,2022-11-11,2022-11-11,株式会社ＨｅｔＨ,,株式会社,神奈川県,鎌倉市,常盤６４８番地４スカイ鎌倉,,14,204,2480022,,,,,,,2022-11-11,1,,,,,アッシュエアッシュ,0
1646,6021001077417,新規,0,2022-11-11,2022-11-11,株式会社富松工業,,株式会社,神奈川県,海老名市,国分北１丁目３６番４３号,,14,215,2430406,,,,,,,2022-11-11,1,,,,,トミマツコウギョウ,0
1647,6021001077425,新規,0,2022-11-11,2022-11-11,ダイニチスポーツ株式会社,,株式会社,神奈川県,小田原市,上曽我４１２番地の１,,14,206,2500202,,,,,,,2022-11-11,1,,,,,ダイニチスポーツ,0
1648,6021001077441,新規,0,2022-11-11,2022-11-11,スカイベース株式会社,,株式会社,神奈川県,平塚市,四之宮５丁目２７番１７号,,14,203,2540014,,,,,,,2022-11-11,1,,,,,スカイベース,0
1652,6021003012355,新規,0,2022-11-11,2022-11-11,合同会社Ｊｏｙ　Ｓｔｏｒｍ,,合同会社,神奈川県,綾瀬市,大上５丁目１５番４４号,,14,218,2521104,,,,,,,2022-11-11,1,,,,,ジョイストーム,0
1661,6030001150983,新規,0,2022-11-11,2022-11-11,株式会社Ｋ２,,株式会社,埼玉県,所沢市,大字本郷１００９番地の６,,11,208,3590022,,,,,,,2022-11-11,1,,,,,ケーツー,0
1665,6040001125794,新規,0,2022-11-11,2022-11-11,株式会社ＣＵＤＤＬＥ　ＳＭＩＬＥ,,株式会社,千葉県,千葉市美浜区,高洲１丁目１６番５３号,,12,106,2610004,,,,,,,2022-11-11,1,,,,,カドゥルスマイル,0
1666,6040001125803,新規,0,2022-11-11,2022-11-11,飯島基礎工業株式会社,,株式会社,千葉県,千葉市稲毛区,園生町３８３－２１第五中島ハイツ１０３号室,,12,103,2630051,,,,,,,2022-11-11,1,,,,,イイジマキソコウギョウ,0
1667,6040001125811,新規,0,2022-11-11,2022-11-11,株式会社大栄カンパニー,,株式会社,千葉県,山武市,蓮沼ロ２１８１番地１,,12,237,2891802,,,,,,,2022-11-11,1,,,,,ダイエイカンパニー,0
1668,6040001125844,新規,0,2022-11-11,2022-11-11,九田株式会社,,株式会社,千葉県,松戸市,西馬橋蔵元町５５番地ｃ室,,12,207,2710046,,,,,,,2022-11-11,1,,,,,キュウデン,0
1670,6040003021257,新規,0,2022-11-11,2022-11-11,合同会社オリーブスマイル＆ヘルスケア研究所,,合同会社,千葉県,習志野市,津田沼１丁目１３番２４－２０２号,,12,216,2750016,,,,,,,2022-11-11,1,,,,,オリーブスマイルアンドヘルスケアケンキュウジョ,0
1673,6050001051949,新規,0,2022-11-11,2022-11-11,ＮＶホーム株式会社,,株式会社,茨城県,日立市,十王町友部２０１番地４,,08,202,3191304,,,,,,,2022-11-11,1,,,,,エヌブイホーム,0
1686,6080001025289,新規,0,2022-11-11,2022-11-11,株式会社こけむす,,株式会社,静岡県,静岡市葵区,西千代田町２７番１５号,,22,101,4200847,,,,,,,2022-11-11,1,,,,,コケムス,0
1694,6110003004898,新規,0,2022-11-11,2022-11-11,合同会社ウィットリシェス,,合同会社,新潟県,長岡市,錦３丁目４番３１号,,15,202,9400835,,,,,,,2022-11-11,1,,,,,ウィットリシェス,0
1698,6120001250196,新規,0,2022-11-11,2022-11-11,株式会社エンハンス,,株式会社,大阪府,大阪市此花区,伝法３丁目１番１２号,,27,104,5540002,,,,,,,2022-11-11,1,,,,,エンハンス,0
1699,6120001250213,新規,0,2022-11-11,2022-11-11,株式会社サンイーストメガストア,,株式会社,大阪府,大阪市北区,西天満５丁目９番３号,,27,127,5300047,,,,,,,2022-11-11,1,,,,,サンイーストメガストア,0
1700,6120001250238,新規,0,2022-11-11,2022-11-11,ＷＡＬＫ株式会社,,株式会社,大阪府,大阪市福島区,海老江１丁目１１番２グリーンシティＯＳＡＫＡ２－１０６号,,27,103,5530001,,,,,,,2022-11-11,1,,,,,ウォーク,0
1701,6120001250246,新規,0,2022-11-11,2022-11-11,ｋｏｋｏｎａｒｉ株式会社,,株式会社,大阪府,大阪市東成区,大今里南４丁目５番８号,,27,115,5370013,,,,,,,2022-11-11,1,,,,,ココナリ,0
1702,6120001250254,新規,0,2022-11-11,2022-11-11,株式会社Ｆｏｕｒｌｅｖｅｒ,,株式会社,大阪府,大阪市東成区,中道２丁目２４番１５号,,27,115,5370025,,,,,,,2022-11-11,1,,,,,フォーリバー,0
1703,6120001250270,新規,0,2022-11-11,2022-11-11,獅子林株式会社,,株式会社,大阪府,大阪市中央区,高津３丁目１５番１０号朝日プラザ夕陽丘ＩＩＩ９０３号室,00128461,27,128,5420072,,,,,,,2022-11-11,1,,,,,シシリン,0
1705,6120003022817,新規,0,2022-11-11,2022-11-11,合同会社蒼い光,,合同会社,大阪府,大阪市平野区,長吉出戸１丁目１１番６３号,,27,126,5470011,,,,,,,2022-11-11,1,,,,,アオイヒカリ,0
1719,6130001073051,新規,0,2022-11-11,2022-11-11,株式会社一輪,,株式会社,京都府,長岡京市,こがねが丘１番地２,,26,209,6170854,,,,,,,2022-11-11,1,,,,,イチリン,0
1720,6130001073076,新規,0,2022-11-11,2022-11-11,株式会社Ｅｘｌｅａｄ,,株式会社,京都府,城陽市,枇杷庄鹿背田１０６番地の１６,,26,207,6100117,,,,,,,2022-11-11,1,,,,,エクスリード,0
1725,6140001127970,新規,0,2022-11-11,2022-11-11,株式会社ＯＫ‐ＴＩＩＬＡ,,株式会社,兵庫県,神戸市中央区,磯辺通２丁目２番１０号ワンノットトレーズビル２階,,28,110,6510084,,,,,,,2022-11-11,1,,,,,オーケイティーラ,0
1738,6180001153781,新規,0,2022-11-11,2022-11-11,株式会社ＳＭＩＬＥｗｏｒｋｓ,,株式会社,愛知県,北名古屋市,徳重小崎３５番地グランオーブ１０１号,,23,234,4810038,,,,,,,2022-11-11,1,,,,,スマイルワークス,0
1739,6180001153798,新規,0,2022-11-11,2022-11-11,株式会社吉良興業,,株式会社,愛知県,江南市,山尻町本丸西７６番地,,23,217,4838036,,,,,,,2022-11-11,1,,,,,キラコウギョウ,0
1740,6180001153807,新規,0,2022-11-11,2022-11-11,株式会社ｎｅｓｅ,,株式会社,愛知県,名古屋市中区,橘２丁目２番１０号,,23,106,4600016,,,,,,,2022-11-11,1,,,,,ニーズ,0
1741,6180001153823,新規,0,2022-11-11,2022-11-11,株式会社ＶＩＳＩＯＬＩＺＥ,,株式会社,愛知県,北名古屋市,鹿田花の木１３８番地１,,23,234,4810004,,,,,,,2022-11-11,1,,,,,ヴィジョライズ,0
1747,6180003024485,新規,0,2022-11-11,2022-11-11,合同会社かねまん,,合同会社,愛知県,春日井市,桃山町１丁目３３８番地２,,23,206,4860802,,,,,,,2022-11-11,1,,,,,カネマン,0
1750,6180303005508,新規,0,2022-11-11,2022-11-11,合同会社イーサン企画,,合同会社,愛知県,安城市,三河安城東町２丁目１番地１２ライオンズプラザ三河安城９０６,,23,212,4460057,,,,,,,2022-11-11,1,,,,,イーサンキカク,0
1753,6190001029915,新規,0,2022-11-11,2022-11-11,株式会社Ｇｒａｃｅ　Ｔｏｐ,,株式会社,三重県,四日市市,諏訪栄町３番４号１Ｆ,,24,202,5100086,,,,,,,2022-11-11,1,,,,,グレイストップ,0
1754,6190001029923,新規,0,2022-11-11,2022-11-11,住吉整備株式会社,,株式会社,三重県,鈴鹿市,住吉町７２６５番地の６８,,24,207,5130825,,,,,,,2022-11-11,1,,,,,スミヨシセイビ,0
1756,6190005011761,新規,0,2022-11-11,2022-11-11,医療法人岡歯科医院,,その他の設立登記法人,三重県,亀山市,東町１丁目３番２号,,24,210,5190125,,,,,,,2022-11-11,1,,,,,オカシカイイン,0
1758,6200001040671,新規,0,2022-11-11,2022-11-11,株式会社ステップライク,,株式会社,岐阜県,土岐市,妻木町１６４８番地の３,,21,212,5095301,,,,,,,2022-11-11,1,,,,,ステップライク,0
1762,6210001019153,新規,0,2022-11-11,2022-11-11,株式会社紀リュウ,,株式会社,福井県,鯖江市,上野田町第１６号１番地５,,18,207,9160074,,,,,,,2022-11-11,1,,,,,キリュウ,0
1779,6290803004254,新規,0,2022-11-11,2022-11-11,合同会社グリーンサクシード,,合同会社,福岡県,北九州市小倉北区,日明３丁目６番１６号,,40,106,8030831,,,,,,,2022-11-11,1,,,,,グリーンサクシード,0
1786,6330001030296,新規,0,2022-11-11,2022-11-11,株式会社Ｐ２ｅＬａｂｏ,,株式会社,熊本県,菊池郡菊陽町,大字原水４９５５－８１,,43,404,8691102,,,,,,,2022-11-11,1,,,,,ピーツーイーラボ,0
1791,6360001031201,新規,0,2022-11-11,2022-11-11,株式会社サポラボ,,株式会社,沖縄県,那覇市,安里１丁目８番９号ベイサージュ崇元寺７０２,,47,201,9020067,,,,,,,2022-11-11,1,,,,,サポラボ,0
1794,6360003012447,新規,0,2022-11-11,2022-11-11,合同会社ＳＫ,,合同会社,沖縄県,石垣市,美崎町９番地５,,47,207,9070012,,,,,,,2022-11-11,1,,,,,エスケー,0
1795,6360005006744,新規,0,2022-11-11,2022-11-11,税理士法人ＴＦＰコンサルティング,,その他の設立登記法人,沖縄県,那覇市,銘苅２丁目４番４０号ティファニーＫＹ２階,,47,201,9000004,,,,,,,2022-11-11,1,,,,,ティーエフピーコンサルティング,0
1799,6370001049234,新規,0,2022-11-11,2022-11-11,株式会社もくりファーム,,株式会社,宮城県,登米市,迫町新田字番屋６６番地４,,04,212,9894601,,,,,,,2022-11-11,1,,,,,モクリファーム,0
1803,6380001033261,新規,0,2022-11-11,2022-11-11,株式会社ＬＵＡＮＡ,,株式会社,福島県,いわき市,泉町下川字薬師前１２５番１泉下川テナント２０１,,07,204,9718183,,,,,,,2022-11-11,1,,,,,ルアナ,0
1805,6380003005309,新規,0,2022-11-11,2022-11-11,合同会社共和仮設,,合同会社,福島県,白河市,田島香取３０番地１,,07,205,9610015,,,,,,,2022-11-11,1,,,,,キョウワカセツ,0
1806,6380003005317,新規,0,2022-11-11,2022-11-11,合同会社たかはぎ,,合同会社,福島県,いわき市,平塩字古川１番地の１,,07,204,9708022,,,,,,,2022-11-11,1,,,,,タカハギ,0
1816,6430001087830,新規,0,2022-11-11,2022-11-11,株式会社Ｆ　Ｓｔｙｌｅ　Ｇｒｏｕｐ,,株式会社,北海道,札幌市厚別区,厚別中央一条２丁目１３番２３号サンルーミナスビル２０１,,01,108,0040051,,,,,,,2022-11-11,1,,,,,エフスタイルグループ,0
1817,6430001087839,新規,0,2022-11-11,2022-11-11,株式会社アーキリボーン,,株式会社,北海道,札幌市北区,北七条西４丁目１番地１,,01,102,0600807,,,,,,,2022-11-11,1,,,,,アーキリボーン,0
1822,6430003014452,新規,0,2022-11-11,2022-11-11,合同会社ＳＧＰ,,合同会社,北海道,恵庭市,島松寿町１丁目９０番地３５,,01,231,0611355,,,,,,,2022-11-11,1,,,,,エスジーピー,0
1831,6480005006930,新規,0,2022-11-11,2022-11-11,行政書士法人森事務所,,その他の設立登記法人,徳島県,徳島市,昭和町６丁目３８番地１,,36,201,7700942,,,,,,,2022-11-11,1,,,,,モリジムショ,0
1834,6500001024594,新規,0,2022-11-11,2022-11-11,株式会社ＳＴ,,株式会社,愛媛県,松山市,湊町３丁目５番地４２,,38,201,7900012,,,,,,,2022-11-11,1,,,,,エスティ,0
1845,7010001230638,新規,0,2022-11-11,2022-11-11,株式会社ＤＭＺ,,株式会社,東京都,中央区,築地３丁目７番１号ＴＳＵＫＩＪＩＧＲＡＮＤＥ２階,,13,102,1040045,,,,,,,2022-11-11,1,,,,,ディーエムジー,0
1846,7010001230679,新規,0,2022-11-11,2022-11-11,Ｏｎｅ　Ｌｉｆｅ　Ｅｎｔｅｒｔａｉｎｍｅｎｔ株式会社,,株式会社,東京都,中央区,日本橋本町３丁目７番９号日本橋ＭＯビル６階,,13,102,1030023,,,,,,,2022-11-11,1,,,,,ワンライフエンタテインメント,0
1847,7010001230778,新規,0,2022-11-11,2022-11-11,株式会社Ｆｌａｔ,,株式会社,東京都,千代田区,神田平河町１番第３東ビル５階,,13,101,1010027,,,,,,,2022-11-11,1,,,,,フラット,0
1850,7010003039037,新規,0,2022-11-11,2022-11-11,合同会社Ｍｏｎｄｏ　Ｎｉｎａ,,合同会社,東京都,中央区,銀座１丁目１２番４号Ｎ＆ＥＢＬＤ．６Ｆ,,13,102,1040061,,,,,,,2022-11-11,1,,,,,,0
1868,7010401170780,新規,0,2022-11-11,2022-11-11,株式会社コー＆パートナーズ,,株式会社,東京都,港区,南青山１丁目３番１－１１１４号,,13,103,1070062,,,,,,,2022-11-11,1,,,,,コーアンドパートナーズ,0
1872,7010403028829,新規,0,2022-11-11,2022-11-11,合同会社Ｗｏｎｄｅｒ,,合同会社,東京都,港区,赤坂４丁目３番３－８０２号,,13,103,1070052,,,,,,,2022-11-11,1,,,,,ワンダー,0
1874,7010501049611,新規,0,2022-11-11,2022-11-11,株式会社プロキスタ東京,,株式会社,東京都,台東区,上野６丁目９番５号２階,,13,106,1100005,,,,,,,2022-11-11,1,,,,,プロキスタトウキョウ,0
1878,7010603009819,新規,0,2022-11-11,2022-11-11,合同会社ｉＵ　Ｚ　ｉｎｖｅｓｔｍｅｎｔ,,合同会社,東京都,墨田区,文花１丁目１８番１３号,,13,107,1310044,,,,,,,2022-11-11,1,,,,,アイユーゼットインベストメント,0
1890,7011001150784,新規,0,2022-11-11,2022-11-11,ｃｏｕｌｅｕｒ株式会社,,株式会社,東京都,渋谷区,渋谷２丁目１９番１５号宮益坂ビルディング６０９,,13,113,1500002,,,,,,,2022-11-11,1,,,,,クルール,0
1891,7011001150826,新規,0,2022-11-11,2022-11-11,株式会社ＴＡＣＳ,,株式会社,東京都,渋谷区,上原１丁目３２番１５号第２小林ビル４Ｆ,,13,113,1510064,,,,,,,2022-11-11,1,,,,,ティーエーシーエス,0
1892,7011001150867,新規,0,2022-11-11,2022-11-11,株式会社ライオンズゲート,,株式会社,東京都,渋谷区,桜丘町２６番１号セルリアンタワー１５階,,13,113,1500031,,,,,,,2022-11-11,1,,,,,ライオンズゲート,0
1893,7011001150891,新規,0,2022-11-11,2022-11-11,株式会社ＥＳＨ,,株式会社,東京都,渋谷区,神宮前６丁目２３番４号桑野ビル２階,,13,113,1500001,,,,,,,2022-11-11,1,,,,,イーエスエイチ,0
1894,7011003015639,新規,0,2022-11-11,2022-11-11,コムトラックス合同会社,,合同会社,東京都,渋谷区,神宮前６丁目２３番４号桑野ビル２Ｆ,,13,113,1500001,,,,,,,2022-11-11,1,,,,,コムトラックス,0
1895,7011003015705,新規,0,2022-11-11,2022-11-11,橋本事務所合同会社,,合同会社,東京都,目黒区,鷹番１丁目５番７号,,13,110,1520004,,,,,,,2022-11-11,1,,,,,ハシモトジムショ,0
1896,7011003015721,新規,0,2022-11-11,2022-11-11,Ｓｕｒｆ　ａｎｄ　Ｓｎｏｗ合同会社,,合同会社,東京都,目黒区,青葉台３丁目１７番７号,,13,110,1530042,,,,,,,2022-11-11,1,,,,,サーフアンドスノー,0
1900,7011101100747,新規,0,2022-11-11,2022-11-11,株式会社ライズジャパンカンパニー,,株式会社,東京都,新宿区,市谷田町２丁目１９番地１,,13,104,1620843,,,,,,,2022-11-11,1,,,,,ライズジャパンカンパニー,0
1901,7011101100788,新規,0,2022-11-11,2022-11-11,株式会社ＲＵＭＡＨＫ,,株式会社,東京都,新宿区,西新宿８丁目１１番１０号星野ビル３階,,13,104,1600023,,,,,,,2022-11-11,1,,,,,ルマーク,0
1902,7011101100813,新規,0,2022-11-11,2022-11-11,株式会社福蓉,,株式会社,東京都,新宿区,新宿４丁目１番２２号１００６室,,13,104,1600022,,,,,,,2022-11-11,1,,,,,フクヨウ,0
1919,7011701025773,新規,0,2022-11-11,2022-11-11,株式会社ＢＭＭ,,株式会社,東京都,江戸川区,西葛西５丁目２番２－８０２号,,13,123,1340088,,,,,,,2022-11-11,1,,,,,ビエムエム,0
1920,7011701025781,新規,0,2022-11-11,2022-11-11,東京峨眉酒家株式会社,,株式会社,東京都,江戸川区,船堀２丁目７番９号,,13,123,1340091,,,,,,,2022-11-11,1,,,,,トウキョウオウメイシュカ,0
1921,7011703003298,新規,0,2022-11-11,2022-11-11,三七三合同会社,,合同会社,東京都,江戸川区,西葛西８丁目３番２１号,,13,123,1340088,,,,,,,2022-11-11,1,,,,,ミナミ,0
1938,7013303006367,新規,0,2022-11-11,2022-11-11,合同会社アイリス,,合同会社,東京都,豊島区,長崎１丁目１５－４,,13,116,1710051,,,,,,,2022-11-11,1,,,,,アイリス,0
1943,7020001148920,新規,0,2022-11-11,2022-11-11,株式会社Ｕｎｉｓｏｎ,,株式会社,神奈川県,横浜市青葉区,鉄町２２０３番地１－２０１号,,14,117,2250025,,,,,,,2022-11-11,1,,,,,ユニゾン,0
1944,7020001148929,新規,0,2022-11-11,2022-11-11,株式会社名残,,株式会社,神奈川県,横浜市鶴見区,平安町２丁目１番地２９グリーンハイツ平安３０６,,14,101,2300031,,,,,,,2022-11-11,1,,,,,ナゴリ,0
1952,7021001077416,新規,0,2022-11-11,2022-11-11,株式会社豊田工業,,株式会社,神奈川県,相模原市緑区,原宿５丁目２０番１０－２号,,14,151,2520102,,,,,,,2022-11-11,1,,,,,トヨダコウギョウ,0
1953,7021001077432,新規,0,2022-11-11,2022-11-11,株式会社Ａｍｉｃａｌ,,株式会社,神奈川県,小田原市,栄町２丁目９番１９号東亜小田原ビル４階,,14,206,2500011,,,,,,,2022-11-11,1,,,,,アミカル,0
1954,7021001077449,新規,0,2022-11-11,2022-11-11,株式会社小澤商事,,株式会社,神奈川県,足柄下郡真鶴町,真鶴１１１７番地,,14,383,2590201,,,,,,,2022-11-11,1,,,,,オザワショウジ,0
1957,7021003012354,新規,0,2022-11-11,2022-11-11,合同会社ＳＫＹ,,合同会社,神奈川県,横須賀市,鴨居３丁目１６番２号,,14,201,2390813,,,,,,,2022-11-11,1,,,,,スカイ,0
1959,7021005012658,新規,0,2022-11-11,2022-11-11,一般社団法人台湾人戦没者慰霊施設建立の会,,その他の設立登記法人,神奈川県,大和市,中央４丁目１番２４号５Ｆ,,14,213,2420021,,,,,,,2022-11-11,1,,,,,タイワンジンセンボツシャイレイシセツコンリュウノカイ,0
1978,7040001125752,新規,0,2022-11-11,2022-11-11,株式会社ＶＩＰ,,株式会社,千葉県,市川市,南八幡３丁目１６番３号,,12,203,2720023,,,,,,,2022-11-11,1,,,,,ブイアイピー,0
1979,7040001125793,新規,0,2022-11-11,2022-11-11,株式会社マルイ,,株式会社,千葉県,千葉市花見川区,こてはし台１丁目１－１５－２Ｆ,,12,102,2620005,,,,,,,2022-11-11,1,,,,,マルイ,0
1980,7040001125810,新規,0,2022-11-11,2022-11-11,株式会社成和,,株式会社,千葉県,旭市,清和甲６１番地,,12,215,2890507,,,,,,,2022-11-11,1,,,,,セイワ,0
1981,7040001125819,新規,0,2022-11-11,2022-11-11,株式会社オレスト,,株式会社,千葉県,市川市,平田３丁目１９番４号,,12,203,2720031,,,,,,,2022-11-11,1,,,,,オレスト,0
1982,7040001125827,新規,0,2022-11-11,2022-11-11,金碩株式会社,,株式会社,千葉県,松戸市,小金清志町３丁目８２番地の１１,,12,207,2700016,,,,,,,2022-11-11,1,,,,,キンセキ,0
1986,7040003021231,新規,0,2022-11-11,2022-11-11,合同会社Ｊ＆Ｂ　ＴＲＡＤＩＮＧ,,合同会社,千葉県,成田市,幸町１０３０番地１－２０１号,,12,211,2860028,,,,,,,2022-11-11,1,,,,,ジェイアンドビートレーディング,0
1989,7050001051948,新規,0,2022-11-11,2022-11-11,株式会社ｓｅｒａ．,,株式会社,茨城県,ひたちなか市,大字中根５２７４番地１,,08,221,3120011,,,,,,,2022-11-11,1,,,,,セラ,0
1992,7050003007007,新規,0,2022-11-11,2022-11-11,合同会社マルキカーライン,,合同会社,茨城県,水戸市,河和田１丁目１５３５番地４４,,08,201,3114152,,,,,,,2022-11-11,1,,,,,マルキカーライン,0
1995,7070001039826,新規,0,2022-11-11,2022-11-11,林道株式会社,,株式会社,群馬県,桐生市,本町５丁目５１番地東武桐生ビル２階,,10,203,3760031,,,,,,,2022-11-11,1,,,,,リンドウ,0
2010,7120001250253,新規,0,2022-11-11,2022-11-11,株式会社ファインワールド,,株式会社,大阪府,大阪市西区,立売堀４丁目３番１６号５階,,27,106,5500012,,,,,,,2022-11-11,1,,,,,ファインワールド,0
2011,7120001250278,新規,0,2022-11-11,2022-11-11,株式会社ａｉｍｅｒ,,株式会社,大阪府,大阪市東住吉区,桑津４丁目７番２７号,,27,121,5460041,,,,,,,2022-11-11,1,,,,,エメ,0
2012,7120001250286,新規,0,2022-11-11,2022-11-11,Ｍｉｄｏｒｉ株式会社,,株式会社,大阪府,大阪市中央区,日本橋２丁目８番１５号ユーロハイツ日本橋２０５号室,,27,128,5420073,,,,,,,2022-11-11,1,,,,,ミドリ,0
2024,7120101066525,新規,0,2022-11-11,2022-11-11,ＥＣＯシステム株式会社,,株式会社,大阪府,和泉市,府中町７丁目５番５２号,,27,219,5940071,,,,,,,2022-11-11,1,,,,,エコシステム,0
2027,7120903004368,新規,0,2022-11-11,2022-11-11,合同会社ＴＯＫＵＷＡＡ,,合同会社,大阪府,吹田市,南正雀１丁目６－３－１０２,,27,205,5640012,,,,,,,2022-11-11,1,,,,,トクワア,0
2035,7130001073050,新規,0,2022-11-11,2022-11-11,株式会社ムウ,,株式会社,京都府,京都市南区,久世大薮町４１－２,,26,107,6018206,,,,,,,2022-11-11,1,,,,,ムウ,0
2045,7160001024645,新規,0,2022-11-11,2022-11-11,株式会社グリア,,株式会社,滋賀県,彦根市,西葛籠町１６５番地,,25,202,5220213,,,,,,,2022-11-11,1,,,,,グリア,0
2047,7170001017367,新規,0,2022-11-11,2022-11-11,株式会社ＭＮＫ,,株式会社,和歌山県,和歌山市,太田４丁目５番９号,,30,201,6408323,,,,,,,2022-11-11,1,,,,,エムエヌケー,0
2048,7170001017375,新規,0,2022-11-11,2022-11-11,株式会社マツクボ建設,,株式会社,和歌山県,田辺市,鮎川６０９番地の６４,,30,206,6461101,,,,,,,2022-11-11,1,,,,,マツクボケンセツ,0
2050,7180001153780,新規,0,2022-11-11,2022-11-11,株式会社マルデン,,株式会社,愛知県,一宮市,猿海道３丁目１４番１８号,,23,203,4910838,,,,,,,2022-11-11,1,,,,,マルデン,0
2051,7180001153814,新規,0,2022-11-11,2022-11-11,株式会社ファインシックス,,株式会社,愛知県,あま市,花長茶木島５番地１,,23,237,4901204,,,,,,,2022-11-11,1,,,,,ファインシックス,0
2054,7180303005507,新規,0,2022-11-11,2022-11-11,合同会社Ｋ２,,合同会社,愛知県,額田郡幸田町,大字相見字相見３８番地（５０２）,,23,501,4440117,,,,,,,2022-11-11,1,,,,,ケイツー,0
2057,7190001029922,新規,0,2022-11-11,2022-11-11,株式会社Ｏｒｇａｎｉｃ　Ｎｏｓｈ,,株式会社,三重県,伊勢市,大湊町１８０番地４,,24,203,5160001,,,,,,,2022-11-11,1,,,,,オーガニックナッシュ,0
2059,7200001040670,新規,0,2022-11-11,2022-11-11,株式会社アトリエＦＵＤＯ,,株式会社,岐阜県,各務原市,川島河田町２２３番地２２,,21,213,5016025,,,,,,,2022-11-11,1,,,,,アトリエフドウ,0
2071,7240001060632,新規,0,2022-11-11,2022-11-11,株式会社ガレージエヌ,,株式会社,広島県,広島市東区,福田５丁目１０２４番地１,,34,102,7320029,,,,,,,2022-11-11,1,,,,,ガレージエヌ,0
2072,7240001060649,新規,0,2022-11-11,2022-11-11,株式会社縁,,株式会社,広島県,広島市安佐南区,相田５丁目１３番１０号,,34,105,7310141,,,,,,,2022-11-11,1,,,,,エニシ,0
2075,7260001027051,新規,0,2022-11-11,2022-11-11,岡南土地株式会社,,株式会社,岡山県,都窪郡早島町,大字早島１９７０番地,,33,423,7010300,,,,,,,2022-11-11,1,,,,,,0
2079,7290001099526,新規,0,2022-11-11,2022-11-11,Ａｇｄｏｎｉｓｈ株式会社,,株式会社,福岡県,飯塚市,楽市５８６番地１０,,40,205,8200074,,,,,,,2022-11-11,1,,,,,アグドニッシュ,0
2080,7290001099559,新規,0,2022-11-11,2022-11-11,株式会社Ｅｄｇｅ,,株式会社,福岡県,福岡市東区,香椎駅前１丁目１７－４３ベリタスビル４０３,,40,131,8130013,,,,,,,2022-11-11,1,,,,,エッジ,0
2084,7290801029054,新規,0,2022-11-11,2022-11-11,ブラウン企画株式会社,,株式会社,福岡県,北九州市八幡西区,星ケ丘３丁目１４番１２号,,40,109,8071264,,,,,,,2022-11-11,1,,,,,ブラウンキカク,0
2092,7340001025162,新規,0,2022-11-11,2022-11-11,株式会社２１０３,,株式会社,鹿児島県,鹿児島市,平之町１０番２１号コンフォートビラ高見馬場１階,,46,201,8920848,,,,,,,2022-11-11,1,,,,,ニイチゼロサン,0
2094,7350003004221,新規,0,2022-11-11,2022-11-11,合同会社ＲＥＡＬＩＺＥ,,合同会社,宮崎県,宮崎市,清武町加納甲３００４番地４４,,45,201,8891605,,,,,,,2022-11-11,1,,,,,リアライズ,0
2096,7360001031183,新規,0,2022-11-11,2022-11-11,株式会社プラスＭ,,株式会社,沖縄県,国頭郡金武町,字金武５０６番地、１Ｆ,,47,314,9041201,,,,,,,2022-11-11,1,,,,,プラスエム,0
2097,7360001031200,新規,0,2022-11-11,2022-11-11,南星ライトハウス株式会社,,株式会社,沖縄県,那覇市,鏡原町１３番６号,,47,201,9010151,,,,,,,2022-11-11,1,,,,,ナンセイライトハウス,0
2098,7360003012446,新規,0,2022-11-11,2022-11-11,合同会社かをり果樹園石垣,,合同会社,沖縄県,石垣市,字石垣４３８番地１１,,47,207,9070023,,,,,,,2022-11-11,1,,,,,カヲリカジュエンイシガキ,0
2099,7360003012462,新規,0,2022-11-11,2022-11-11,合同会社Ｇエンタープライズ,,合同会社,沖縄県,豊見城市,字根差部４０９番地１,,47,212,9010205,,,,,,,2022-11-11,1,,,,,ジーエンタープライズ,0
2101,7370001049233,新規,0,2022-11-11,2022-11-11,株式会社ＫＡＭＩＫＩ,,株式会社,宮城県,仙台市青葉区,国分町２丁目１０番１７号花久ビル５階,,04,101,9800803,,,,,,,2022-11-11,1,,,,,カミキ,0
2102,7370003005894,新規,0,2022-11-11,2022-11-11,合同会社総合コンサルタントＫ,,合同会社,宮城県,仙台市青葉区,一番町２丁目６番１号,,04,101,9800811,,,,,,,2022-11-11,1,,,,,ソウゴウコンサルタントケイ,0
2105,7380003005316,新規,0,2022-11-11,2022-11-11,ワイズカンパニー合同会社,,合同会社,福島県,双葉郡浪江町,大字樋渡字内城６番地コーポ内城１０１号,00128451,07,547,9791532,,,,,,,2022-11-11,1,,,,,ワイズカンパニー,0
2106,7400001016056,新規,0,2022-11-11,2022-11-11,株式会社ことぶきクリエート,,株式会社,岩手県,一関市,藤沢町保呂羽字大宝城２５９番地,,03,209,0293521,,,,,,,2022-11-11,1,,,,,コトブキクリエート,0
2119,7430001087805,新規,0,2022-11-11,2022-11-11,オールトーンズカフェ株式会社,,株式会社,北海道,千歳市,栄町４丁目８番地,,01,224,0660061,,,,,,,2022-11-11,1,,,,,オールトーンズカフェ,0
2132,8010001230736,新規,0,2022-11-11,2022-11-11,ＡＲＸ株式会社,,株式会社,東京都,中央区,銀座１丁目２２番１１号銀座大竹ビジデンス２階,,13,102,1040061,,,,,,,2022-11-11,1,,,,,アークス,0
2137,8010003039036,新規,0,2022-11-11,2022-11-11,合同会社おつなぎ本舗Ｇｉｎｚａ,,合同会社,東京都,中央区,銀座７丁目１３番２０号銀座ＴＨビル９階,,13,102,1040061,,,,,,,2022-11-11,1,,,,,オツナギホンポギンザ,0
2144,8010401170739,新規,0,2022-11-11,2022-11-11,株式会社アラジン,,株式会社,東京都,港区,南青山３丁目１番３６号青山丸竹ビル６Ｆ,,13,103,1070062,,,,,,,2022-11-11,1,,,,,アラジン,0
2145,8010403028860,新規,0,2022-11-11,2022-11-11,合同会社ＰＥＯＰＬＥ　ＯＮ　ＴＨＥ　ＭＯＶＥ,,合同会社,東京都,港区,白金３丁目７－５トリニティ白金２０２,,13,103,1080072,,,,,,,2022-11-11,1,,,,,ピープルオンザムーブ,0
2146,8010403028877,新規,0,2022-11-11,2022-11-11,Ｇｒａｃｅ　Ｃｏ‐Ｃｒｅａｔｉｖｅ合同会社,,合同会社,東京都,港区,三田１丁目３－４０－４０７Ａ号,,13,103,1080073,,,,,,,2022-11-11,1,,,,,グレイスコクリエイティブ,0
2148,8010405021541,新規,0,2022-11-11,2022-11-11,一般社団法人全国花き輸出拡大協議会,,その他の設立登記法人,東京都,港区,赤坂６丁目４番２２号,,13,103,1070052,,,,,,,2022-11-11,1,,,,,ゼンコクカキユシュツカクダイキョウギカイ,0
2151,8010803004346,新規,0,2022-11-11,2022-11-11,合同会社雪見坂２３,,合同会社,東京都,大田区,東雪谷３丁目１２番１９号,,13,111,1450065,,,,,,,2022-11-11,1,,,,,ユキミザカニジュウサン,0
2156,8010901051959,新規,0,2022-11-11,2022-11-11,株式会社エルエスピー,,株式会社,東京都,世田谷区,太子堂２丁目７－１３,,13,112,1540004,,,,,,,2022-11-11,1,,,,,エルエスピー,0
2165,8011001150899,新規,0,2022-11-11,2022-11-11,株式会社ＣＯＮＦＹ,,株式会社,東京都,渋谷区,神宮前６丁目２３番４号桑野ビル２階,,13,113,1500001,,,,,,,2022-11-11,1,,,,,コンフィー,0
2166,8011001150908,新規,0,2022-11-11,2022-11-11,ＧｅａｒＵＰ株式会社,,株式会社,東京都,渋谷区,円山町５番５号Ｎａｖｉ渋谷Ｖ３階,00128453,13,113,1500044,,,,,,,2022-11-11,1,,,,,ギアアップ,0
2169,8011003015654,新規,0,2022-11-11,2022-11-11,合同会社ＥＶＯＬＥＧ,,合同会社,東京都,渋谷区,渋谷２丁目１９－１５宮益坂ビルディング６０９,,13,113,1500002,,,,,,,2022-11-11,1,,,,,エボレッグ,0
2170,8011005009828,新規,0,2022-11-11,2022-11-11,一般社団法人マネジメントセンター,,その他の設立登記法人,東京都,渋谷区,東３丁目２５番３号,,13,113,1500011,,,,,,,2022-11-11,1,,,,,マネジメントセンター,0
2175,8011103012361,新規,0,2022-11-11,2022-11-11,Ｄｅｘｔｅｒｉｔｙ　Ｊａｐａｎ合同会社,,合同会社,東京都,新宿区,西新宿３丁目３番１３号西新宿水間ビル６Ｆ,,13,104,1600023,,,,,,,2022-11-11,1,,,,,デクステリティジャパン,0
2181,8011405002226,新規,0,2022-11-11,2022-11-11,一般財団法人ひと・住文化研究所,,その他の設立登記法人,東京都,板橋区,大山町１７番４号,,13,119,1730023,,,,,,,2022-11-11,1,,,,,ヒトジュウブンカケンキュウショ,0
2186,8011501028653,新規,0,2022-11-11,2022-11-11,ＡＶＥＴＥ株式会社,,株式会社,東京都,北区,豊島５丁目６番１０－６０１号,,13,117,1140003,,,,,,,2022-11-11,1,,,,,アヴェテ,0
2187,8011601026350,新規,0,2022-11-11,2022-11-11,Ｓｅｒｅｎｄｉｐｉｔｙ　Ａｓｉａ株式会社,,株式会社,東京都,練馬区,南大泉４丁目１１番２号,,13,120,1780064,,,,,,,2022-11-11,1,,,,,セレンディピティアジア,0
2195,8012401039848,新規,0,2022-11-11,2022-11-11,Ｊ’ａｉｍｅ　Ｌｅ　Ｓｙｍ株式会社,,株式会社,東京都,小金井市,本町５丁目１７番１６－９０２号ユニーブル武蔵小金井クインテット,,13,210,1840004,,,,,,,2022-11-11,1,,,,,ジェイメルシン,0
2202,8013301049821,新規,0,2022-11-11,2022-11-11,連順株式会社,,株式会社,東京都,豊島区,北大塚２丁目１８－８大塚エースビル３Ｆ,,13,116,1700004,,,,,,,2022-11-11,1,,,,,レンジュン,0
2203,8013301049912,新規,0,2022-11-11,2022-11-11,株式会社ＡＹ,,株式会社,東京都,豊島区,東池袋４丁目３－１３エディット東池袋４０２,,13,116,1700013,,,,,,,2022-11-11,1,,,,,エーワイ,0
2205,8013303006366,新規,0,2022-11-11,2022-11-11,合同会社１０８,,合同会社,東京都,豊島区,池袋４丁目１番３－１００６号,,13,116,1710014,,,,,,,2022-11-11,1,,,,,ヒャクヤッツ,0
2216,8020001148928,新規,0,2022-11-11,2022-11-11,ＵＩＸ株式会社,,株式会社,神奈川県,横浜市中区,山下町２番地産業貿易センタービル９０５号室,,14,104,2310023,,,,,,,2022-11-11,1,,,,,ユーアイエックス,0
2217,8020001148944,新規,0,2022-11-11,2022-11-11,株式会社ＳＵＳＡＮＡ　Ｂｅｉｎｇ,,株式会社,神奈川県,横浜市青葉区,たちばな台１丁目１１番地４カドリル青葉台１０６号,,14,117,2270046,,,,,,,2022-11-11,1,,,,,スサナビーイング,0
2218,8020001148960,新規,0,2022-11-11,2022-11-11,ＫＥＥＰ　ＳＭＩＬＥ株式会社,,株式会社,神奈川県,横浜市中区,元町１丁目２４番１６号ＫＫＲ２０１,,14,104,2310861,,,,,,,2022-11-11,1,,,,,キープスマイル,0
2219,8020001148977,新規,0,2022-11-11,2022-11-11,株式会社ジェイテック,,株式会社,神奈川県,川崎市高津区,新作４丁目１６番２２号,,14,134,2130014,,,,,,,2022-11-11,1,,,,,ジェイテック,0
2256,8040003021247,新規,0,2022-11-11,2022-11-11,合同会社Ｓｈｅ,,合同会社,千葉県,匝瑳市,八日市場イ２８２５番地,,12,235,2892144,,,,,,,2022-11-11,1,,,,,シー,0
2261,8050001051939,新規,0,2022-11-11,2022-11-11,株式会社Ｍｉｌｌｅ　Ｄｅｓｉｇｎ,,株式会社,茨城県,土浦市,右籾１１１１番地１１,,08,203,3000837,,,,,,,2022-11-11,1,,,,,ミレデザイン,0
2268,8070001039825,新規,0,2022-11-11,2022-11-11,株式会社優信工業,,株式会社,群馬県,高崎市,藤塚町１６４番地３,,10,202,3700875,,,,,,,2022-11-11,1,,,,,ユウシンコウギョウ,0
2270,8070003004703,新規,0,2022-11-11,2022-11-11,Ｌａｇｏｏｎ合同会社,,合同会社,群馬県,前橋市,東善町３７２番地６,,10,201,3792132,,,,,,,2022-11-11,1,,,,,ラグーン,0
2272,8080101023637,新規,0,2022-11-11,2022-11-11,株式会社Ｎｋｍｎ,,株式会社,静岡県,富士宮市,舞々木町２６,,22,207,4180015,,,,,,,2022-11-11,1,,,,,エヌケーエムエヌ,0
2285,8120001250211,新規,0,2022-11-11,2022-11-11,株式会社Ｆｉｎａｎｃｉａｌ　Ｄｅｓｉｇｎｅｒ,,株式会社,大阪府,大阪市中央区,淡路町３丁目３番２－１４０２号,,27,128,5410047,,,,,,,2022-11-11,1,,,,,ファイナンシャルデザイナー,0
2286,8120001250244,新規,0,2022-11-11,2022-11-11,株式会社ノーブ,,株式会社,大阪府,大阪市東淀川区,東中島２丁目９番１５－５０３号,,27,114,5330033,,,,,,,2022-11-11,1,,,,,ノーブ,0
2287,8120001250285,新規,0,2022-11-11,2022-11-11,株式会社ＶＡＮＱＵＩＳＨ,,株式会社,大阪府,大阪市北区,豊崎３丁目１７－１０ＭＡＫビル３Ｆ,,27,127,5310072,,,,,,,2022-11-11,1,,,,,バンキッシュ,0
2288,8120001250310,新規,0,2022-11-11,2022-11-11,Ｗｏｒｃａ株式会社,,株式会社,大阪府,大阪市中央区,久太郎町３丁目１－６－６Ｆ,,27,128,5410056,,,,,,,2022-11-11,1,,,,,ウォーカ,0
2289,8120001250327,新規,0,2022-11-11,2022-11-11,株式会社Ｋｏｍｕ,,株式会社,大阪府,大阪市東住吉区,照ケ丘矢田１丁目３番１２号毎日マンション,,27,121,5460021,,,,,,,2022-11-11,1,,,,,コム,0
2292,8120003022848,新規,0,2022-11-11,2022-11-11,合同会社大義工業,,合同会社,大阪府,大阪市西区,九条南４丁目１０番１１－３０６号,,27,106,5500025,,,,,,,2022-11-11,1,,,,,ダイギコウギョウ,0
2295,8120101066516,新規,0,2022-11-11,2022-11-11,百恵株式会社,,株式会社,大阪府,堺市北区,中長尾町１丁７番２７号,,27,146,5918044,,,,,,,2022-11-11,1,,,,,モモエ,0
2306,8130001073058,新規,0,2022-11-11,2022-11-11,結い経営株式会社,,株式会社,京都府,京都市東山区,宮川筋２丁目２５５,,26,105,6050801,,,,,,,2022-11-11,1,,,,,ユイケイエイ,0
2315,8140005026374,新規,0,2022-11-11,2022-11-11,一般社団法人エデュマーレ,,その他の設立登記法人,兵庫県,神戸市東灘区,岡本１丁目１１番１７号ＡＳＹ岡本２Ｆ,,28,101,6580072,,,,,,,2022-11-11,1,,,,,エデュマーレ,0
2322,8160001024644,新規,0,2022-11-11,2022-11-11,株式会社えん,,株式会社,滋賀県,大津市,一里山１丁目９番１２－７０３号,,25,201,5202153,,,,,,,2022-11-11,1,,,,,エン,0
2329,8180001153739,新規,0,2022-11-11,2022-11-11,株式会社ＷＡＤＡＣＨＩ,,株式会社,愛知県,名古屋市中区,錦１丁目１７－１３名興ビルディング２階Ｂ２,,23,106,4600003,,,,,,,2022-11-11,1,,,,,ワダチ,0
2330,8180001153771,新規,0,2022-11-11,2022-11-11,株式会社愛斗建設,,株式会社,愛知県,北名古屋市,片場六所１番地２パレス師勝３０３号,,23,234,4810002,,,,,,,2022-11-11,1,,,,,アイトケンセツ,0
2331,8180001153788,新規,0,2022-11-11,2022-11-11,Ｙ’ｓ設計株式会社,,株式会社,愛知県,名古屋市緑区,鳴海町字向田１７６番地１ＢＥＬＬＢ．Ｌ．Ｄ．２０１号室,,23,114,4580831,,,,,,,2022-11-11,1,,,,,ワイズセッケイ,0
2332,8180001153821,新規,0,2022-11-11,2022-11-11,ＢＥＹＯＮＤ株式会社,,株式会社,愛知県,名古屋市名東区,本郷３丁目５番地グロウバルビル５階Ａ号室,,23,115,4650024,,,,,,,2022-11-11,1,,,,,ビヨンド,0
2352,8240001060648,新規,0,2022-11-11,2022-11-11,株式会社ランドオーナー,,株式会社,広島県,広島市中区,東千田町１丁目１番５５－２１１１号,,34,101,7300053,,,,,,,2022-11-11,1,,,,,ランドオーナー,0
2362,8260001037405,新規,0,2022-11-11,2022-11-11,津山株式会社,,株式会社,岡山県,津山市,川崎５３番地５,,33,203,7080841,,,,,,,2022-11-11,1,,,,,ツヤマ,0
2371,8290001099434,新規,0,2022-11-11,2022-11-11,株式会社Ｋ’Ｓ　ＣＲＡＦＴ,,株式会社,福岡県,糸島市,志摩御床４９１番地,,40,230,8191322,,,,,,,2022-11-11,1,,,,,ケーズクラフト,0
2372,8290001099533,新規,0,2022-11-11,2022-11-11,株式会社Ｍａｖｉｅ　Ｊａｐａｎ,,株式会社,福岡県,福岡市南区,大橋３丁目１７番２２号グランマコイ大橋２０５,,40,134,8150033,,,,,,,2022-11-11,1,,,,,マヴィージャパン,0
2373,8290001099541,新規,0,2022-11-11,2022-11-11,ＡＳＣＯＭＥ株式会社,,株式会社,福岡県,久留米市,梅満町１５８０番地１シャルマンドミール３０５号,,40,203,8300048,,,,,,,2022-11-11,1,,,,,アスカム,0
2374,8290001099558,新規,0,2022-11-11,2022-11-11,株式会社Ｋｉｔｅ,,株式会社,福岡県,福岡市城南区,樋井川３丁目１番３７号,,40,136,8140153,,,,,,,2022-11-11,1,,,,,カイト,0
2375,8290001099574,新規,0,2022-11-11,2022-11-11,株式会社Ａ‐ｉｓｍ,,株式会社,福岡県,朝倉郡筑前町,栗田１４０８番地２,,40,447,8380801,,,,,,,2022-11-11,1,,,,,エーイズム,0
2376,8290001099582,新規,0,2022-11-11,2022-11-11,株式会社ｎｉｃｏｔｔｏ,,株式会社,福岡県,福岡市早良区,野芥５丁目１１番１０号,,40,137,8140171,,,,,,,2022-11-11,1,,,,,ニコット,0
2378,8290801029053,新規,0,2022-11-11,2022-11-11,株式会社Ｔ，ｓＧｒｏｕｐ,,株式会社,福岡県,北九州市小倉北区,魚町２丁目３－２０第３０エルザビル,,40,106,8020006,,,,,,,2022-11-11,1,,,,,ティーズグループ,0
2381,8290803004252,新規,0,2022-11-11,2022-11-11,合同会社桜昂,,合同会社,福岡県,築上郡築上町,大字下別府１４２６番地６,,40,647,8290108,,,,,,,2022-11-11,1,,,,,オウコウ,0
2382,8290805009605,新規,0,2022-11-11,2022-11-11,一般社団法人北Ｑ１００,,その他の設立登記法人,福岡県,北九州市小倉北区,魚町３丁目４番５号アビーロードＩ８Ｆ,00128455,40,106,8020006,,,,,,,2022-11-11,1,,,,,キタキュウヒャク,0
2388,8320001019421,新規,0,2022-11-11,2022-11-11,株式会社かんなわ農産,,株式会社,大分県,別府市,大字鉄輪３４５番地の４,,44,202,8740000,,,,,,,2022-11-11,1,,,,,カンナワノウサン,0
2403,8360001031190,新規,0,2022-11-11,2022-11-11,株式会社東恩納塗装,,株式会社,沖縄県,うるま市,字栄野比８５３番地７,,47,213,9042205,,,,,,,2022-11-11,1,,,,,ヒガシオンナトソウ,0
2404,8360003012445,新規,0,2022-11-11,2022-11-11,合同会社カビラボ,,合同会社,沖縄県,石垣市,字登野城５４４番地３与那原アパート２０１,,47,207,9070004,,,,,,,2022-11-11,1,,,,,カビラボ,0
2405,8360003012453,新規,0,2022-11-11,2022-11-11,合同会社福元,,合同会社,沖縄県,島尻郡八重瀬町,字富盛３９３番地,,47,362,9010402,,,,,,,2022-11-11,1,,,,,フクモト,0
2409,8370001049240,新規,0,2022-11-11,2022-11-11,株式会社桐原,,株式会社,宮城県,仙台市太白区,松が丘４４番２０号,,04,104,9820821,,,,,,,2022-11-11,1,,,,,キリハラ,0
2410,8370003005893,新規,0,2022-11-11,2022-11-11,合同会社ぴーすらいふ不動産,,合同会社,宮城県,仙台市青葉区,双葉ケ丘１丁目１８番２７号,,04,101,9810924,,,,,,,2022-11-11,1,,,,,ピースライフフドウサン,0
2417,8430001087779,新規,0,2022-11-11,2022-11-11,株式会社ＬＡ　ＰＡＮＴＨＥＲＥ　ＤＥＳ　ＮＥＩＧＥＳ,,株式会社,北海道,札幌市中央区,南一条西７丁目６番地６ファインシティ札幌ザ・タワー大通公園２１０１号,,01,101,0600061,,,,,,,2022-11-11,1,,,,,ラパンテールデネージュ,0
2418,8430001087837,新規,0,2022-11-11,2022-11-11,株式会社ＷＡＧ,,株式会社,北海道,札幌市中央区,北四条西４丁目１－７ＭＭＳ札幌駅前ビル１Ｆ,,01,101,0600004,,,,,,,2022-11-11,1,,,,,ワグ,0
2419,8430001087861,新規,0,2022-11-11,2022-11-11,株式会社ダイニング・エイト,,株式会社,北海道,札幌市白石区,南郷通１丁目南９番２５－４０１号,,01,104,0030022,,,,,,,2022-11-11,1,,,,,ダイニングエイト,0
2427,8490001010339,新規,0,2022-11-11,2022-11-11,株式会社アクセプト,,株式会社,高知県,高知市,瀬戸南町１丁目６番１４号,,39,201,7810253,,,,,,,2022-11-11,1,,,,,アクセプト,0
2439,9010001230768,新規,0,2022-11-11,2022-11-11,ガードハロー株式会社,,株式会社,東京都,千代田区,西神田２丁目５－８壱五番館ビル２Ｆ,,13,101,1010065,,,,,,,2022-11-11,1,,,,,ガードハロー,0
2445,9010103002025,新規,0,2022-11-11,2022-11-11,合同会社こちび企画,,合同会社,東京都,八王子市,東町１２番８号長澤ビル４Ｆ,,13,201,1920082,,,,,,,2022-11-11,1,,,,,コチビキカク,0
2451,9010401170721,新規,0,2022-11-11,2022-11-11,株式会社ＪＡＣＫ,,株式会社,東京都,港区,南青山２丁目２番１５号ＷＩＮ青山５３１,,13,103,1070062,,,,,,,2022-11-11,1,,,,,ジャック,0
2452,9010401170779,新規,0,2022-11-11,2022-11-11,Ｓｐｉｎ　Ｉｎｔｅｒａｃｔｉｖｅ株式会社,,株式会社,東京都,港区,芝５丁目２７番３号ＭＢＣ,,13,103,1080014,,,,,,,2022-11-11,1,,,,,スピンインタラクティブ,0
2453,9010401170812,新規,0,2022-11-11,2022-11-11,キエジ・ファーマ・ジャパン株式会社,,株式会社,東京都,港区,元麻布３丁目１番６号,,13,103,1060046,,,,,,,2022-11-11,1,,,,,キエジファーマジャパン,0
2456,9010601062132,新規,0,2022-11-11,2022-11-11,株式会社ｕｕｂｉｑ．ｃｏｍ,,株式会社,東京都,江東区,有明１丁目４－２０－１４１９,,13,108,1350063,,,,,,,2022-11-11,1,,,,,ユウユウビックドットコム,0
2459,9010603009833,新規,0,2022-11-11,2022-11-11,合同会社ＫＴコムテック,,合同会社,東京都,江東区,有明１丁目２番１１号,,13,108,1350063,,,,,,,2022-11-11,1,,,,,ケーティーコムテック,0
2478,9010903007776,新規,0,2022-11-11,2022-11-11,合同会社プランタールジャパン,,合同会社,東京都,世田谷区,南烏山３丁目２２－１４－５０３,,13,112,1570062,,,,,,,2022-11-11,1,,,,,プランタールジャパン,0
2482,9011001150691,新規,0,2022-11-11,2022-11-11,株式会社とり将,,株式会社,東京都,渋谷区,恵比寿２丁目１４番４号,,13,113,1500013,,,,,,,2022-11-11,1,,,,,トリショウ,0
2483,9011001150799,新規,0,2022-11-11,2022-11-11,株式会社ＧｅｔＵＢａｃｋ,,株式会社,東京都,渋谷区,神宮前６丁目２３番４号桑野ビル２階,,13,113,1500001,,,,,,,2022-11-11,1,,,,,ゲットユバック,0
2484,9011001150849,新規,0,2022-11-11,2022-11-11,株式会社パラディデコ,,株式会社,東京都,渋谷区,代々木２丁目２３番１ニューステイトメナー５５３号,,13,113,1510053,,,,,,,2022-11-11,1,,,,,パラディデコ,0
2485,9011001150857,新規,0,2022-11-11,2022-11-11,株式会社ＦＡＮ　ＴＯＫＹＯ,,株式会社,東京都,目黒区,青葉台１丁目２８番１１号ブルックスビル２Ｆ,,13,110,1530042,,,,,,,2022-11-11,1,,,,,ファントウキョウ,0
2491,9011005009827,新規,0,2022-11-11,2022-11-11,一般社団法人日本キックボクシングトレーナー協会,,その他の設立登記法人,東京都,渋谷区,道玄坂１丁目１６番６号二葉ビル８ｂ,,13,113,1500043,,,,,,,2022-11-11,1,,,,,ニホンキックボクシングトレーナーキョウカイ,0
2493,9011103012377,新規,0,2022-11-11,2022-11-11,合同会社ＯＮＥ,,合同会社,東京都,新宿区,新宿６丁目２７番１－５０８号ライオンズガーデン新宿,,13,104,1600022,,,,,,,2022-11-11,1,,,,,ワン,0
2497,9011303004570,新規,0,2022-11-11,2022-11-11,Ｗｏｒｌｄ　Ｇｅａｒ合同会社,,合同会社,東京都,杉並区,久我山４丁目４２番１１号グリーンヴィラ１０３号室,,13,115,1680082,,,,,,,2022-11-11,1,,,,,ワールドギア,0
2499,9011501028660,新規,0,2022-11-11,2022-11-11,株式会社ＵＴＮカフェ＆ザ・バー,,株式会社,東京都,北区,王子１丁目１３番１４号,,13,117,1140002,,,,,,,2022-11-11,1,,,,,ユーティーエヌカフェアンドザバー,0
2506,9011701025771,新規,0,2022-11-11,2022-11-11,スタンダード鴻業株式会社,,株式会社,東京都,江戸川区,松島４丁目２２番６号,,13,123,1320031,,,,,,,2022-11-11,1,,,,,スタンダードコウギョウ,0
2514,9012401039839,新規,0,2022-11-11,2022-11-11,株式会社ビルドスペース,,株式会社,東京都,府中市,紅葉丘１丁目３５番地の３,,13,206,1830004,,,,,,,2022-11-11,1,,,,,ビルドスペース,0
2515,9012401039855,新規,0,2022-11-11,2022-11-11,ヒーリング・デザイン株式会社,,株式会社,東京都,武蔵野市,中町２丁目１９番５－４０４号,,13,203,1800006,,,,,,,2022-11-11,1,,,,,ヒーリングデザイン,0
2517,9012703002569,新規,0,2022-11-11,2022-11-11,合同会社ＦＥＲＭＥＮＴ　Ｕ,,合同会社,東京都,東村山市,本町３丁目２９－５,,13,213,1890014,,,,,,,2022-11-11,1,,,,,ファーメントユー,0
2524,9013301049894,新規,0,2022-11-11,2022-11-11,株式会社伊勢屋,,株式会社,東京都,豊島区,上池袋４丁目３－５恩田ビル３０６,,13,116,1700012,,,,,,,2022-11-11,1,,,,,イセヤ,0
2530,9020001148968,新規,0,2022-11-11,2022-11-11,株式会社バーテックス,,株式会社,神奈川県,横浜市緑区,十日市場町８５１番地１３,,14,113,2260025,,,,,,,2022-11-11,1,,,,,バーテックス,0
2531,9020001148984,新規,0,2022-11-11,2022-11-11,株式会社ＹｕＡ．ｃｓ,,株式会社,神奈川県,川崎市川崎区,旭町１丁目８－９ロードスプリング旭１Ｆ,,14,131,2100808,,,,,,,2022-11-11,1,,,,,ユアクリーンサービス,0
2533,9020003022717,新規,0,2022-11-11,2022-11-11,合同会社Ｂｅ　ｕｐ,,合同会社,神奈川県,横浜市港南区,港南２丁目５番２４号,,14,111,2330003,,,,,,,2022-11-11,1,,,,,ビーアップ,0
2537,9021001077406,新規,0,2022-11-11,2022-11-11,株式会社サポートガレージ,,株式会社,神奈川県,藤沢市,菖蒲沢５１２番地１,,14,205,2520823,,,,,,,2022-11-11,1,,,,,サポートガレージ,0
2538,9021001077430,新規,0,2022-11-11,2022-11-11,株式会社ｅｃｌａｔ,,株式会社,神奈川県,相模原市南区,東林間６丁目１２番１３号,,14,153,2520311,,,,,,,2022-11-11,1,,,,,エクラ,0
2541,9021003012360,新規,0,2022-11-11,2022-11-11,石井総建合同会社,,合同会社,神奈川県,厚木市,毛利台１丁目７番１０号,,14,212,2430037,,,,,,,2022-11-11,1,,,,,イシイソウケン,0
2560,9040001125791,新規,0,2022-11-11,2022-11-11,株式会社森工房,,株式会社,千葉県,市川市,堀之内４丁目４番３号,,12,203,2720837,,,,,,,2022-11-11,1,,,,,モリコウボウ,0
2561,9040001125825,新規,0,2022-11-11,2022-11-11,ＢＩＣ電子株式会社,,株式会社,千葉県,千葉市若葉区,太田町９５番地,,12,104,2640013,,,,,,,2022-11-11,1,,,,,ビーアイシーデンシ,0
2565,9040003021238,新規,0,2022-11-11,2022-11-11,合同会社マージナルゲイン,,合同会社,千葉県,船橋市,前原西７丁目１４番２６－５号,,12,204,2740825,,,,,,,2022-11-11,1,,,,,マージナルゲイン,0
2566,9040003021246,新規,0,2022-11-11,2022-11-11,合同会社横関エンタープライズ,,合同会社,千葉県,千葉市花見川区,朝日ケ丘４丁目１２番１号コープ野村新検見川１棟１０２号,,12,102,2620019,,,,,,,2022-11-11,1,,,,,ヨコゼキエンタープライズ,0
2567,9040005021806,新規,0,2022-11-11,2022-11-11,医療法人社団真,,その他の設立登記法人,千葉県,千葉市花見川区,幕張本郷１丁目２７番９号Ｗｉｎｇビル１階,,12,102,2620033,,,,,,,2022-11-11,1,,,,,マコト,0
2570,9060001035452,新規,0,2022-11-11,2022-11-11,株式会社ＡＱＥＥＬ　ＴＲＡＤＩＮＧ,,株式会社,栃木県,小山市,大字羽川３１８番地５ネモトハイツＩＩ２０３号室,00128447,09,208,3230012,,,,,,,2022-11-11,1,,,,,アキールトレーディング,0
2583,9100001035877,新規,0,2022-11-11,2022-11-11,邑三庫株式会社,,株式会社,長野県,松本市,大手３丁目４番３号松本Ｍ－１ビル４階,,20,202,3900874,,,,,,,2022-11-11,1,,,,,ユウサンコ,0
2591,9110003004912,新規,0,2022-11-11,2022-11-11,Ｌｏｕｌｏｕ合同会社,,合同会社,新潟県,新潟市東区,山木戸５丁目１６－３－１ボニートＢ１０２,,15,102,9500871,,,,,,,2022-11-11,1,,,,,ルル,0
2599,9120001250243,新規,0,2022-11-11,2022-11-11,株式会社ＡＭＢＥＲ,,株式会社,大阪府,大阪市北区,本庄西１丁目１番７－４４０４号,,27,127,5310073,,,,,,,2022-11-11,1,,,,,アンバー,0
2600,9120001250251,新規,0,2022-11-11,2022-11-11,万川集海株式会社,,株式会社,大阪府,大阪市中央区,松屋町９番２０号ローレルステート松屋町１２０１Ｂ,,27,128,5420067,,,,,,,2022-11-11,1,,,,,バンセンシュウカイ,0
2601,9120003022814,新規,0,2022-11-11,2022-11-11,合同会社ａｎｄｎｏｗ,,合同会社,大阪府,大阪市西区,西本町３丁目１番２０－１５０９号,,27,106,5500005,,,,,,,2022-11-11,1,,,,,アンドナウ,0
2602,9120101066498,新規,0,2022-11-11,2022-11-11,株式会社阪奈商事,,株式会社,大阪府,和泉市,府中町４丁目５番１２号,,27,219,5940071,,,,,,,2022-11-11,1,,,,,ハンナショウジ,0
2603,9120101066523,新規,0,2022-11-11,2022-11-11,株式会社Ｔｅｓｓ２４,,株式会社,大阪府,松原市,上田３丁目９番８号,,27,217,5800016,,,,,,,2022-11-11,1,,,,,テストゥエンティフォー,0
2608,9120901046724,新規,0,2022-11-11,2022-11-11,株式会社めぐみ,,株式会社,大阪府,池田市,住吉１丁目８番１４－Ｃ号,,27,204,5630033,,,,,,,2022-11-11,1,,,,,メグミ,0
2609,9120901046732,新規,0,2022-11-11,2022-11-11,ビルドエナジー株式会社,,株式会社,大阪府,摂津市,東一津屋７番１８号Ｃ,,27,224,5660074,,,,,,,2022-11-11,1,,,,,ビルドエナジー,0
2610,9120901046740,新規,0,2022-11-11,2022-11-11,株式会社春日,,株式会社,大阪府,高槻市,柳川町１丁目１３番１１号,,27,207,5690853,,,,,,,2022-11-11,1,,,,,ハルヒ,0
2615,9130001072942,新規,0,2022-11-11,2022-11-11,株式会社日本ワイズＰＭＣ,,株式会社,京都府,京都市中京区,寺町通夷川上る藤木町４１番地２,,26,104,6040992,,,,,,,2022-11-11,1,,,,,ニホンワイズピーエムシー,0
2616,9130005016623,新規,0,2022-11-11,2022-11-11,ＮＰＯ法人ルミナ,,その他の設立登記法人,京都府,南丹市,園部町木崎町中川端１１番地１,,26,213,6220015,,,,,,,2022-11-11,1,,,,,ルミナ,0
2620,9140001128025,新規,0,2022-11-11,2022-11-11,株式会社福順,,株式会社,兵庫県,尼崎市,建家町１１４－６,,28,202,6600871,,,,,,,2022-11-11,1,,,,,フクジュン,0
2623,9140003018348,新規,0,2022-11-11,2022-11-11,東條まみ合同会社,,合同会社,兵庫県,西宮市,今津水波町１３番１２号,,28,204,6638215,,,,,,,2022-11-11,1,,,,,トウジョウマミ,0
2624,9150001025948,新規,0,2022-11-11,2022-11-11,株式会社ＮＩＣＯＡ,,株式会社,奈良県,奈良市,大宮町４丁目３０２－４山田ビル,,29,201,6308115,,,,,,,2022-11-11,1,,,,,ニコア,0
2626,9160001024643,新規,0,2022-11-11,2022-11-11,株式会社ＮＮＴ,,株式会社,滋賀県,高島市,今津町桜町２丁目２番地４グランディール天翔１０１号,,25,212,5201632,,,,,,,2022-11-11,1,,,,,エヌエヌティー,0
2627,9160003002721,新規,0,2022-11-11,2022-11-11,つくしプラス合同会社,,合同会社,滋賀県,近江八幡市,上田町１３１５－３,,25,204,5230015,,,,,,,2022-11-11,1,,,,,ツクシプラス,0
2630,9180001153762,新規,0,2022-11-11,2022-11-11,株式会社三辰会,,株式会社,愛知県,名古屋市瑞穂区,師長町８１番地,,23,108,4670061,,,,,,,2022-11-11,1,,,,,サンシンカイ,0
2631,9180001153779,新規,0,2022-11-11,2022-11-11,株式会社Ｒ,,株式会社,愛知県,名古屋市港区,港陽１丁目１番３３号,,23,111,4550013,,,,,,,2022-11-11,1,,,,,アール,0
2632,9180001153787,新規,0,2022-11-11,2022-11-11,株式会社リブラン,,株式会社,愛知県,常滑市,栄町４丁目３７番地,,23,216,4790836,,,,,,,2022-11-11,1,,,,,リブラン,0
2633,9180001153795,新規,0,2022-11-11,2022-11-11,株式会社ルーツ,,株式会社,愛知県,名古屋市西区,中小田井５丁目２５７番地の１,,23,104,4520822,,,,,,,2022-11-11,1,,,,,ルーツ,0
2634,9180001153804,新規,0,2022-11-11,2022-11-11,株式会社エムワークス,,株式会社,愛知県,津島市,神守町字中ノ折５８番地,,23,208,4960005,,,,,,,2022-11-11,1,,,,,エムワークス,0
2635,9180001153820,新規,0,2022-11-11,2022-11-11,Ｂａｂｙ　Ｍｉｒａｃｌｅ株式会社,,株式会社,愛知県,名古屋市昭和区,元宮町１丁目８－１,,23,107,4660851,,,,,,,2022-11-11,1,,,,,ベビーミラクル,0
2636,9180001153829,新規,0,2022-11-11,2022-11-11,ＬＭＣサービス株式会社,,株式会社,愛知県,岩倉市,八剱町郷前４７番地２,,23,228,4820031,,,,,,,2022-11-11,1,,,,,エルエムシーサービス,0
2647,9190005011767,新規,0,2022-11-11,2022-11-11,一般社団法人日本古典チャクラ協会,,その他の設立登記法人,三重県,名張市,さつき台２番町１３０番地,,24,208,5180604,,,,,,,2022-11-11,1,,,,,ニホンコテンチャクラキョウカイ,0
2650,9220001025131,新規,0,2022-11-11,2022-11-11,株式会社Ａｄｂｅｅ,,株式会社,石川県,かほく市,大崎４字１２番地４１,,17,209,9291127,,,,,,,2022-11-11,1,,,,,アドビー,0
2651,9220003003399,新規,0,2022-11-11,2022-11-11,合同会社サンライズｌａｂｏ,,合同会社,石川県,河北郡津幡町,字横浜い４３番地１,,17,361,9290341,,,,,,,2022-11-11,1,,,,,サンライズラボ,0
2653,9230001019586,新規,0,2022-11-11,2022-11-11,株式会社エムケアライフ,,株式会社,富山県,富山市,太郎丸本町１丁目４番地９－３Ｆ,,16,201,9398272,,,,,,,2022-11-11,1,,,,,エムケアライフ,0
2673,9290001099532,新規,0,2022-11-11,2022-11-11,ＳＴＡＹ　ＧＯＬＤ株式会社,,株式会社,福岡県,福津市,宮司４丁目６番７号,,40,224,8113305,,,,,,,2022-11-11,1,,,,,ステイゴールド,0
2678,9290801029052,新規,0,2022-11-11,2022-11-11,株式会社スズミヤ,,株式会社,福岡県,遠賀郡水巻町,頃末南１丁目４番１５号,,40,382,8070025,,,,,,,2022-11-11,1,,,,,スズミヤ,0
2683,9300001013128,新規,0,2022-11-11,2022-11-11,スムーズ株式会社,,株式会社,佐賀県,三養基郡みやき町,大字中津隈３６３４番地６２,,41,346,8490114,,,,,,,2022-11-11,1,,,,,スムーズ,0
2701,9360005006741,新規,0,2022-11-11,2022-11-11,一般社団法人ひとまちｃｒｅａｔｅなは,,その他の設立登記法人,沖縄県,那覇市,牧志３丁目１番１号,,47,201,9000013,,,,,,,2022-11-11,1,,,,,ヒトマチクリエイトナハ,0
2710,9370005010552,新規,0,2022-11-11,2022-11-11,一般社団法人キボウノオト,,その他の設立登記法人,宮城県,仙台市青葉区,本町１丁目５番２８号カーニープレイス仙台駅前通６０３号室,,04,101,9800014,,,,,,,2022-11-11,1,,,,,キボウノオト,0
2718,9380001033250,新規,0,2022-11-11,2022-11-11,株式会社常松工業,,株式会社,福島県,郡山市,富田町字稲川原５３番地レジデンスワタナベ１０１,,07,203,9638041,,,,,,,2022-11-11,1,,,,,ツネマツコウギョウ,0
2729,9430001087811,新規,0,2022-11-11,2022-11-11,Ｒクリーンサービス株式会社,,株式会社,北海道,札幌市西区,発寒十二条２丁目５番３号,,01,107,0630832,,,,,,,2022-11-11,1,,,,,アールクリーンサービス,0
2730,9430001087836,新規,0,2022-11-11,2022-11-11,ベストリンク株式会社,,株式会社,北海道,札幌市清田区,里塚三条１丁目１４番１０号,,01,110,0040803,,,,,,,2022-11-11,1,,,,,ベストリンク,0
2733,9430003014433,新規,0,2022-11-11,2022-11-11,合同会社グローム,,合同会社,北海道,千歳市,文京５丁目５番地の１１,,01,224,0660052,,,,,,,2022-11-11,1,,,,,グローム,0
2738,9490001010338,新規,0,2022-11-11,2022-11-11,株式会社ｅｅｌ　Ｃｏｍｐａｎｙ,,株式会社,高知県,高知市,長浜蒔絵台２丁目２９番地２,,39,201,7810245,,,,,,,2022-11-11,1,,,,,イールカンパニー,0
