sequenceNumber,corporateNumber,process,correct,updateDate,changeDate,name,nameImageId,kind,prefectureName,cityName,streetNumber,addressImageId,prefectureCode,cityCode,postCode,addressOutside,addressOutsideImageId,closeDate,closeCause,successorCorporateNumber,changeCause,assignmentDate,latest,enName,enPrefectureName,enCityName,enAddressOutside,furigana,hihyoji
13,1010005016824,登記記録の閉鎖等,0,2022-09-29,2022-09-28,山佐ＴＨＹ２一般社団法人,,その他の設立登記法人,東京都,千代田区,丸の内３丁目１番１号東京共同会計事務所内,,13,101,1000005,,,2022-09-28,清算の結了等,,,2015-10-05,1,,,,,ヤマサティーエイチワイツー,0
32,1010901019756,登記記録の閉鎖等,0,2022-09-29,2022-09-21,久哲商事株式会社,,株式会社,東京都,世田谷区,下馬６丁目２０番４号,,13,112,1540002,,,2022-09-21,清算の結了等,,,2015-10-05,1,,,,,ヒサテツショウジ,0
44,1011101086967,登記記録の閉鎖等,0,2022-09-29,2022-09-26,株式会社日本米穀アライアンス,,株式会社,東京都,新宿区,下宮比町１番４号,,13,104,1620822,,,2022-09-26,清算の結了等,,,2019-02-25,1,,,,,ニホンベイコクアライアンス,0
50,1011502007646,登記記録の閉鎖等,0,2022-09-29,2022-09-26,有限会社小俣製作所,,有限会社,東京都,荒川区,荒川６丁目６３番６号,,13,118,1160002,,,2022-09-26,清算の結了等,,,2015-10-05,1,,,,,オマタセイサクショ,0
53,1011702008782,登記記録の閉鎖等,0,2022-09-29,2022-09-26,有限会社肉のむさしや,,有限会社,東京都,江戸川区,北小岩７丁目１５番４号,,13,123,1330051,,,2022-09-26,清算の結了等,,,2015-10-05,1,,,,,ニクノムサシヤ,0
71,1020002022411,登記記録の閉鎖等,0,2022-09-29,2022-09-21,有限会社本郷一夫建築事務所,,有限会社,神奈川県,横浜市旭区,今宿１丁目５１番１６号,,14,112,2410817,,,2022-09-21,清算の結了等,,,2015-10-05,1,,,,,ホンゴウカズオケンチクジムショ,0
75,1021001054461,登記記録の閉鎖等,0,2022-09-29,2022-09-27,株式会社Ｔ２ＨＹ,,株式会社,神奈川県,鎌倉市,御成町１５番３７号,,14,204,2480012,,,2022-09-27,清算の結了等,,,2015-10-05,1,,,,,ティーツーエイチワイ,0
80,1030001040859,登記記録の閉鎖等,0,2022-09-29,2022-09-22,株式会社真原精機,,株式会社,埼玉県,八潮市,大字大曽根１３２４番地３,,11,234,3400834,,,2022-09-22,清算の結了等,,,2015-10-05,1,,,,,マハラセイキ,0
92,1030002096231,登記記録の閉鎖等,0,2022-09-29,2022-09-12,有限会社ビッグボーイ,,有限会社,埼玉県,東松山市,大字下野本１４３４番地４,,11,212,3550036,,,2022-09-12,清算の結了等,,,2015-10-05,1,,,,,ビッグボーイ,0
94,1030002111023,登記記録の閉鎖等,0,2022-09-29,2022-09-14,有限会社岡部製作所,,有限会社,埼玉県,川口市,幸町２丁目２番３－２０４号,,11,203,3320016,,,2022-09-14,清算の結了等,,,2015-10-05,1,,,,,オカベセイサクショ,0
128,1090002003322,登記記録の閉鎖等,0,2022-09-29,2022-09-21,有限会社山村電工社,,有限会社,山梨県,甲府市,丸の内１丁目９番７号,,19,201,4000031,,,2022-09-21,清算の結了等,,,2015-10-05,1,,,,,ヤマムラデンコウシャ,0
160,1122002016457,登記記録の閉鎖等,0,2022-09-29,2022-09-26,有限会社和企画,,有限会社,大阪府,藤井寺市,小山８丁目１５番３７－４０１号,,27,226,5830033,,,2022-09-26,清算の結了等,,,2015-10-05,1,,,,,カズキカク,0
165,1140001060565,登記記録の閉鎖等,0,2022-09-29,2022-09-21,株式会社日本観光旅行社,,株式会社,兵庫県,姫路市,御立西１丁目１１番２２号,,28,201,6700074,,,2022-09-21,清算の結了等,,,2015-10-05,1,,,,,ニホンカンコウリョコウシャ,0
167,1140001090819,登記記録の閉鎖等,0,2022-09-29,2022-09-21,株式会社Ｇｌｏｂａｌ　Ｏｓａｋａ’ｓ　Ｃｏｒｐｏｒａｔｉｏｎ,,株式会社,兵庫県,神戸市垂水区,清玄町６番地の８,,28,108,6550865,,,2022-09-21,清算の結了等,,,2015-10-05,1,,,,,グローバルオオサカズコーポレーション,0
170,1180001028757,登記記録の閉鎖等,0,2022-09-29,2022-09-22,ビケンズベッド販売株式会社,,株式会社,愛知県,名古屋市緑区,浦里２丁目１５０番地,,23,114,4580847,,,2022-09-22,清算の結了等,,,2015-10-05,1,,,,,ビケンズベッドハンバイ,0
176,1180001112032,登記記録の閉鎖等,0,2022-09-29,2022-09-26,株式会社浮野地所,,株式会社,愛知県,一宮市,千秋町浮野字屋敷７３番地,,23,203,4910806,,,2022-09-26,清算の結了等,,,2015-10-05,1,,,,,ウキノジショ,0
189,1180305006822,登記記録の閉鎖等,0,2022-09-29,2022-09-07,西尾食肉商業協同組合,,その他の設立登記法人,愛知県,西尾市,米津町里６７番地,,23,213,4450802,,,2022-09-07,清算の結了等,,,2015-10-05,1,,,,,ニシオショクニクショウギョウ,0
215,1290805000859,登記記録の閉鎖等,0,2022-09-29,2022-09-28,協同組合丸福チエーン,,その他の設立登記法人,福岡県,北九州市小倉北区,西港町９４番地の２２,,40,106,8030801,,,2022-09-28,清算の結了等,,,2015-10-05,1,,,,,マルフクチエーン,0
225,1340002023889,登記記録の閉鎖等,0,2022-09-29,2022-09-22,有限会社プラザ立神,,有限会社,鹿児島県,枕崎市,中央町３９８番地,,46,204,8980051,,,2022-09-22,合併による解散等,9340001012596,令和４年９月１日鹿児島県枕崎市西本町７番地株式会社プラザ立神（9340001012596）に合併し解散,2015-10-05,1,,,,,,0
234,1420001007612,登記記録の閉鎖等,0,2022-09-29,2022-09-27,株式会社ルートスリー,,株式会社,青森県,上北郡おいらせ町,洗平６番地３,,02,412,0392172,,,2022-09-27,清算の結了等,,,2015-10-05,1,,,,,ルートスリー,0
237,1420005003178,登記記録の閉鎖等,0,2022-09-29,2022-09-22,袖平牧野畜産農業協同組合,,その他の設立登記法人,青森県,三戸郡田子町,大字田子字袖平２４番地２号,,02,443,0390201,,,2022-09-22,清算の結了等,,,2015-10-05,1,,,,,ソデタイラボクヤチクサン,0
240,1460002002641,登記記録の閉鎖等,0,2022-09-29,2022-09-14,有限会社北島電機工業社,,有限会社,北海道,釧路市,桜ケ岡１丁目３番９号,,01,206,0850805,,,2022-09-14,清算の結了等,,,2015-10-05,1,,,,,キタジマデンキコウギョウシャ,0
242,1490002002382,登記記録の閉鎖等,0,2022-09-29,2022-09-22,有限会社新階企画,,有限会社,高知県,高知市,宇津野２０番地１８８,,39,201,7800031,,,2022-09-22,清算の結了等,,,2021-02-12,1,,,,,シンカイキカク,0
256,2010005016360,登記記録の閉鎖等,0,2022-09-29,2022-09-28,幹細胞評価基盤技術研究組合,,その他の設立登記法人,東京都,中央区,八丁堀２丁目２６番９号,,13,102,1040032,,,2022-09-28,清算の結了等,,,2015-10-05,1,,,,,カンサイボウヒョウカキバン,0
264,2010501042315,登記記録の閉鎖等,0,2022-09-29,2022-09-26,株式会社カナリヤ,,株式会社,東京都,台東区,西浅草３丁目３番１号,,13,106,1110035,,,2022-09-26,清算の結了等,,,2018-03-16,1,,,,,カナリヤ,0
289,2011502001383,登記記録の閉鎖等,0,2022-09-29,2022-09-22,有限会社加賀谷精工,00055760,有限会社,東京都,北区,田端新町２丁目２０番１４号,,13,117,1140012,,,2022-09-22,清算の結了等,,,2015-10-05,1,,,,,カガヤセイコウ,0
306,2021001033910,登記記録の閉鎖等,0,2022-09-29,2022-09-27,福沢商事株式会社,,株式会社,神奈川県,南足柄市,怒田９６０番地,,14,217,2500106,,,2022-09-27,清算の結了等,,,2015-10-05,1,,,,,,0
337,2060005009260,登記記録の閉鎖等,0,2022-09-29,2022-09-13,特定非営利活動法人行道山くものかけはし,,その他の設立登記法人,栃木県,足利市,月谷町５８４番地,,09,202,3260068,,,2022-09-13,清算の結了等,,,2016-12-05,1,,,,,ギョウドウサンクモノカケハシ,0
341,2070002005138,登記記録の閉鎖等,0,2022-09-29,2022-09-20,有限会社丸文,,有限会社,群馬県,前橋市,河原浜町６８０番地の３,,10,201,3710224,,,2022-09-20,清算の結了等,,,2015-10-05,1,,,,,マルブン,0
362,2122005003030,登記記録の閉鎖等,0,2022-09-29,2022-09-27,特定非営利活動法人プロセス,,その他の設立登記法人,大阪府,大阪市北区,天神橋３丁目１０番３０－５１１号,,27,127,5300041,,,2022-09-27,清算の結了等,,,2015-10-05,1,,,,,プロセス,0
366,2130002028958,登記記録の閉鎖等,0,2022-09-29,2022-09-20,有限会社四方,,有限会社,京都府,亀岡市,北河原町２丁目６番２－４０４号,,26,206,6210802,,,2022-09-20,清算の結了等,,,2015-10-05,1,,,,,シカタ,0
367,2140001067139,登記記録の閉鎖等,0,2022-09-29,2022-09-20,株式会社クリーン三田,,株式会社,兵庫県,三田市,高次１丁目８番１号,,28,219,6691512,,,2022-09-20,清算の結了等,,,2015-10-05,1,,,,,クリーンサンダ,0
381,2140005024284,登記記録の閉鎖等,0,2022-09-29,2022-09-22,特定非営利活動法人リボンズ,,その他の設立登記法人,兵庫県,尼崎市,長洲中通３丁目１５－１,,28,202,6600802,,,2022-09-22,清算の結了等,,,2018-09-27,1,,,,,リボンズ,0
389,2180005007252,登記記録の閉鎖等,0,2022-09-29,2022-09-26,特定非営利活動法人ＣＡＮ缶アートＧ,,その他の設立登記法人,愛知県,名古屋市天白区,植田山１丁目５２１番地,,23,116,4680001,,,2022-09-26,清算の結了等,,,2015-10-05,1,,,,,カンカンアートジー,0
390,2180301019661,登記記録の閉鎖等,0,2022-09-29,2022-09-15,サンホ工業株式会社,,株式会社,愛知県,みよし市,三好丘桜２丁目９番地１,,23,236,4700204,,,2022-09-15,清算の結了等,,,2015-10-05,1,,,,,,0
394,2200001000150,登記記録の閉鎖等,0,2022-09-29,2022-09-28,株式会社下茶屋,,株式会社,岐阜県,岐阜市,下茶屋町１３番地,,21,201,5008022,,,2022-09-28,清算の結了等,,,2015-10-05,1,,,,,シモチャヤ,0
405,2250005001132,登記記録の閉鎖等,0,2022-09-29,2022-09-22,特定非営利活動法人支えてねットワーク,,その他の設立登記法人,山口県,山口市,秋穂西１２６７番地１,,35,203,7541102,,,2022-09-22,清算の結了等,,,2015-10-05,1,,,,,ササエテネットワーク,0
409,2260005009109,登記記録の閉鎖等,0,2022-09-29,2022-09-28,特定非営利活動法人ｅ倶楽部,,その他の設立登記法人,岡山県,赤磐市,桜が丘西１丁目２８番３号,,33,213,7090802,,,2022-09-28,清算の結了等,,,2015-10-05,1,,,,,イークラブ,0
411,2270002005670,登記記録の閉鎖等,0,2022-09-29,2022-09-27,有限会社和プランニング,,有限会社,鳥取県,米子市,観音寺１４３番地１,,31,202,6830007,,,2022-09-27,清算の結了等,,,2015-10-05,1,,,,,,0
413,2290001086487,登記記録の閉鎖等,0,2022-09-29,2022-09-21,株式会社コネクトハンズ,,株式会社,福岡県,福岡市博多区,博多駅東２丁目５番２８号,,40,132,8120013,,,2022-09-21,清算の結了等,,,2019-09-13,1,,,,,コネクトハンズ,0
421,2310001003720,登記記録の閉鎖等,0,2022-09-29,2022-09-28,しょたん株式会社,,株式会社,長崎県,長崎市,西海町２０３２番地２,,42,201,8513101,,,2022-09-28,清算の結了等,,,2015-10-05,1,,,,,ショタン,0
427,2340001010581,登記記録の閉鎖等,0,2022-09-29,2022-09-28,興亜産業株式会社,,株式会社,鹿児島県,奄美市,名瀬入舟町１番５号,,46,222,8940034,,,2022-09-28,清算の結了等,,,2015-10-05,1,,,,,コウアサンギョウ,0
429,2340002001398,登記記録の閉鎖等,0,2022-09-29,2022-09-28,有限会社インテリア東口,,有限会社,鹿児島県,鹿児島市,東開町３番地７６,,46,201,8910115,,,2022-09-28,清算の結了等,,,2015-10-05,1,,,,,インテリアヒガシグチ,0
451,3010001018756,登記記録の閉鎖等,0,2022-09-29,2022-09-21,株式会社進星,,株式会社,東京都,千代田区,神田神保町１丁目４番地,,13,101,1010051,,,2022-09-21,清算の結了等,,,2015-10-05,1,,,,,シンセイ,0
462,3010102006684,登記記録の閉鎖等,0,2022-09-29,2022-09-26,有限会社峰構造設計事務所,,有限会社,東京都,八王子市,大楽寺町４５６番地２２,,13,201,1930816,,,2022-09-26,清算の結了等,,,2015-10-05,1,,,,,ミネコウゾウセッケイジムショ,0
472,3010502009535,登記記録の閉鎖等,0,2022-09-29,2022-09-27,有限会社深川,,有限会社,東京都,台東区,東上野３丁目２番５号,,13,106,1100015,,,2022-09-27,清算の結了等,,,2015-10-05,1,,,,,フカガワ,0
482,3011001102665,登記記録の閉鎖等,0,2022-09-29,2022-09-16,Ｈａｍｅｅコンサルティング株式会社,,株式会社,神奈川県,小田原市,栄町２丁目１２番１０号ＳｑｕａｒｅＯ２,,14,206,2500011,,,2022-09-16,合併による解散等,2021001075886,令和４年９月５日神奈川県小田原市栄町二丁目１２番１０号ＳｑｕａｒｅＯ２ＮＥ株式会社（2021001075886）に合併し解散,2015-10-05,1,,,,,ハミィコンサルティング,0
486,3011002017152,登記記録の閉鎖等,0,2022-09-29,2022-09-09,ウルトラ・シー有限会社,,有限会社,東京都,渋谷区,神宮前３丁目２１番１６号,,13,113,1500001,,,2022-09-09,清算の結了等,,,2015-10-05,1,,,,,ウルトラシー,0
497,3011602006406,登記記録の閉鎖等,0,2022-09-29,2022-09-27,有限会社田切鉄平石商店,,有限会社,東京都,練馬区,谷原２丁目６番５号,,13,120,1770032,,,2022-09-27,清算の結了等,,,2015-10-05,1,,,,,タギリテッペイセキショウテン,0
500,3011701006728,登記記録の閉鎖等,0,2022-09-29,2022-09-28,株式会社藤枝工務店,,株式会社,東京都,江戸川区,平井１丁目１８番２４号,,13,123,1320035,,,2022-09-28,清算の結了等,,,2015-10-05,1,,,,,フジエダコウムテン,0
533,3030002016807,登記記録の閉鎖等,0,2022-09-29,2022-09-14,有限会社小島硝子建窓,,有限会社,埼玉県,さいたま市見沼区,大字御蔵２１８番地１６,,11,104,3370033,,,2022-09-14,清算の結了等,,,2015-10-05,1,,,,,コジマガラスケンソウ,0
550,3070001010633,登記記録の閉鎖等,0,2022-09-29,2022-09-22,株式会社石黒工業所,,株式会社,群馬県,高崎市,新町１６５７番地３,,10,202,3701301,,,2022-09-22,清算の結了等,,,2015-10-05,1,,,,,イシグロコウギョウジョ,0
586,3120102021714,登記記録の閉鎖等,0,2022-09-29,2022-09-28,有限会社ユウキ,,有限会社,大阪府,岸和田市,春木若松町３番２７号,,27,202,5960006,,,2022-09-28,清算の結了等,,,2015-10-05,1,,,,,ユウキ,0
601,3140002040845,登記記録の閉鎖等,0,2022-09-29,2022-09-20,有限会社コスモプロダクシヨン,,有限会社,兵庫県,尼崎市,開明町１丁目５２番地,,28,202,6600862,,,2022-09-20,清算の結了等,,,2015-10-05,1,,,,,コスモプロダクシヨン,0
605,3150001018932,登記記録の閉鎖等,0,2022-09-29,2022-09-26,株式会社Ｋスタイル,,株式会社,奈良県,橿原市,醍醐町３８４番１,,29,205,6340072,,,2022-09-26,合併による解散等,1150001008175,令和４年９月２６日奈良市西ノ京町１４３番地の３株式会社Ｋネクスト（1150001008175）に合併し解散,2015-10-05,1,,,,,ケイスタイル,0
609,3170001008015,登記記録の閉鎖等,0,2022-09-29,2022-09-27,株式会社デリカ和光,,株式会社,和歌山県,紀の川市,粉河１３１番地の１,,30,208,6496531,,,2022-09-27,合併による解散等,5120001128419,令和４年９月２１日大阪市淀川区西中島五丁目１１番９号株式会社リーディアル（5120001128419）に合併し解散,2015-10-05,1,,,,,デリカワコウ,0
632,3190003003516,登記記録の閉鎖等,0,2022-09-29,2022-09-26,合同会社リュール,,合同会社,三重県,四日市市,中部７番５号ナビシティ中部ＩＩ－６０４,00121334,24,202,5100082,,,2022-09-26,清算の結了等,,,2020-11-13,1,,,,,リュール,0
653,3310003003255,登記記録の閉鎖等,0,2022-09-29,2022-09-28,合同会社スローフードファクトリー長崎あぐりの丘,,合同会社,長崎県,長崎市,築町３番１８号メルカ築町１０３号,,42,201,8500877,,,2022-09-28,清算の結了等,,,2017-02-17,1,,,,,スローフードファクトリーナガサキアグリノオカ,0
668,3370301003562,登記記録の閉鎖等,0,2022-09-29,2022-09-16,株式会社まめ福フードカンパニー,,株式会社,宮城県,石巻市,広渕字柏木前８２番地１,,04,202,9871222,,,2022-09-16,清算の結了等,,,2015-10-05,1,,,,,,0
692,4010002049493,登記記録の閉鎖等,0,2022-09-29,2022-09-22,有限会社アッシュ・レジデンシャル１,,有限会社,東京都,千代田区,九段南３丁目７番７号成和綜合会計事務所内,,13,101,1020074,,,2022-09-22,清算の結了等,,,2015-10-05,1,,,,,アッシュレジデンシャルイチ,0
746,4011802018729,登記記録の閉鎖等,0,2022-09-29,2022-09-22,有限会社松葉屋商店,,有限会社,東京都,足立区,千住大川町５番１－３０５号,,13,121,1200031,,,2022-09-22,清算の結了等,,,2015-10-05,1,,,,,マツバヤショウテン,0
751,4012801003259,登記記録の閉鎖等,0,2022-09-29,2022-09-22,株式会社エイ・エム・コンサルティング,,株式会社,東京都,東大和市,蔵敷３丁目８８０番地の４,,13,220,2070032,,,2022-09-22,清算の結了等,,,2015-10-05,1,,,,,エイエムコンサルティング,0
765,4020001066811,登記記録の閉鎖等,0,2022-09-29,2022-09-22,株式会社西谷保温工業所,,株式会社,神奈川県,川崎市高津区,北野川８番７号,,14,134,2130028,,,2022-09-22,清算の結了等,,,2015-10-05,1,,,,,ニシタニホオンコウギョウショ,0
784,4030002100717,登記記録の閉鎖等,0,2022-09-29,2022-09-21,有限会社牛上工務店,,有限会社,埼玉県,川口市,前川４丁目１番２３号,,11,203,3330842,,,2022-09-21,清算の結了等,,,2015-10-05,1,,,,,ウシガミコウムテン,0
801,4080101020646,登記記録の閉鎖等,0,2022-09-29,2022-09-28,株式会社キヌエコーポレート,,株式会社,静岡県,三島市,中島１１１番地の５,,22,206,4110814,,,2022-09-28,清算の結了等,,,2018-08-17,1,,,,,キヌエコーポレート,0
824,4120101041563,登記記録の閉鎖等,0,2022-09-29,2022-09-28,株式会社スタッグ,,株式会社,大阪府,和泉市,幸２丁目１１番３０号,,27,219,5940005,,,2022-09-28,清算の結了等,,,2015-10-05,1,,,,,スタッグ,0
847,4140002037733,登記記録の閉鎖等,0,2022-09-29,2022-09-22,有限会社ダイテック,,有限会社,兵庫県,加古郡稲美町,六分一字百丁歩１２９３番地の１,,28,381,6751112,,,2022-09-22,清算の結了等,,,2015-10-05,1,,,,,ダイテック,0
876,4210002003372,登記記録の閉鎖等,0,2022-09-29,2022-09-27,有限会社ぽけっと,,有限会社,福井県,坂井市,春江町為国幸３番地１,,18,210,9190435,,,2022-09-27,清算の結了等,,,2015-10-05,1,,,,,ポケット,0
882,4240001025968,登記記録の閉鎖等,0,2022-09-29,2022-09-27,株式会社しもたお,,株式会社,広島県,呉市,宝町２－２４レクレヴァンデュール呉駅南５０１,,34,202,7370029,,,2022-09-27,清算の結了等,,,2015-10-05,1,,,,,シモタオ,0
896,4290803000684,登記記録の閉鎖等,0,2022-09-29,2022-09-22,合資会社浪花湯,,合資会社,福岡県,北九州市門司区,大里東口３番７号,,40,101,8000029,,,2022-09-22,清算の結了等,,,2015-10-05,1,,,,,ナニワユ,0
917,4380003000699,登記記録の閉鎖等,0,2022-09-29,2022-09-21,合資会社安藤製材所,,合資会社,福島県,西白河郡矢吹町,中町２５２番地,,07,466,9690221,,,2022-09-21,清算の結了等,,,2015-10-05,1,,,,,アンドウセイザイショ,0
918,4390001008958,登記記録の閉鎖等,0,2022-09-29,2022-09-21,最上バイオマスエネルギー供給株式会社,,株式会社,山形県,最上郡金山町,大字金山３２５番地,,06,361,9995402,,,2022-09-21,清算の結了等,,,2015-10-05,1,,,,,モガミバイオマスエネルギーキョウキュウ,0
919,4390001009650,登記記録の閉鎖等,0,2022-09-29,2022-09-26,株式会社ＧＳＭ,,株式会社,山形県,尾花沢市,上町６丁目１番１６号,,06,212,9994228,,,2022-09-26,清算の結了等,,,2015-10-05,1,,,,,ジーエスエム,0
932,4500002022021,登記記録の閉鎖等,0,2022-09-29,2022-09-28,有限会社越智青果,,有限会社,愛媛県,四国中央市,土居町藤原５番耕地３００番地,,38,213,7990703,,,2022-09-28,清算の結了等,,,2015-10-05,1,,,,,,0
947,5010003022829,登記記録の閉鎖等,0,2022-09-29,2022-09-22,ＨＡＮＳＡ　ＴＲＡＤＩＮＧ合同会社,,合同会社,東京都,千代田区,霞が関３丁目２番６号東京倶楽部ビルディング１１階,,13,101,1000013,,,2022-09-22,清算の結了等,,,2015-12-21,1,,,,,ハンサトレーデインング,0
961,5010401145925,登記記録の閉鎖等,0,2022-09-29,2022-09-05,蘭馨国際介護研修センター株式会社,,株式会社,東京都,港区,南青山２丁目２番１５号ウィン青山９４２,,13,103,1070062,,,2022-09-05,清算の結了等,,,2019-06-04,1,,,,,ランシンコクサイカイゴケンシュウセンター,0
997,5013202003954,登記記録の閉鎖等,0,2022-09-29,2022-09-13,有限会社高野ビルサービス,,有限会社,東京都,目黒区,南１丁目４番５号,,13,110,1520013,,,2022-09-13,清算の結了等,,,2015-10-05,1,,,,,タカノビルサービス,0
998,5013301012047,登記記録の閉鎖等,0,2022-09-29,2022-09-26,株式会社メイユウビルド,,株式会社,東京都,豊島区,池袋２丁目５９番２号,,13,116,1710014,,,2022-09-26,清算の結了等,,,2015-10-05,1,,,,,メイユウビルド,0
1000,5013303002013,登記記録の閉鎖等,0,2022-09-29,2022-09-26,東京ビズマイニング合同会社,,合同会社,東京都,豊島区,南池袋３丁目１１番８号,,13,116,1710022,,,2022-09-26,清算の結了等,,,2015-10-05,1,,,,,トウキョウビズマイニング,0
1017,5030001101987,登記記録の閉鎖等,0,2022-09-29,2022-09-14,株式会社トータルワークス,,株式会社,埼玉県,三郷市,戸ケ崎１丁目１５７番地１,,11,237,3410044,,,2022-09-14,清算の結了等,,,2015-10-05,1,,,,,トータルワークス,0
1018,5030002082194,登記記録の閉鎖等,0,2022-09-29,2022-09-22,有限会社シナモン,,有限会社,埼玉県,本庄市,北堀７０５番地１,,11,211,3670031,,,2022-09-22,清算の結了等,,,2015-10-05,1,,,,,シナモン,0
1019,5030002083481,登記記録の閉鎖等,0,2022-09-29,2022-09-22,有限会社とらや,,有限会社,埼玉県,北本市,古市場３丁目７１番地,,11,233,3640003,,,2022-09-22,清算の結了等,,,2015-10-05,1,,,,,トラヤ,0
1021,5030003015566,登記記録の閉鎖等,0,2022-09-29,2022-09-14,帝南合同会社,,合同会社,埼玉県,越谷市,大沢４丁目１４番２５号オーベル北越谷Ｉ－３１０号,00120312,11,222,3430025,,,2022-09-14,清算の結了等,,,2020-07-21,1,,,,,テイナン,0
1045,5080003001834,登記記録の閉鎖等,0,2022-09-29,2022-09-26,イレブンハイツ合同会社,,合同会社,静岡県,静岡市駿河区,馬淵二丁目３番５－２０１号,,22,102,4220000,,,2022-09-26,清算の結了等,,,2016-01-07,1,,,,,イレブンハイツ,0
1063,5120001112562,登記記録の閉鎖等,0,2022-09-29,2022-09-28,株式会社ベルコ,,株式会社,大阪府,大阪市東淀川区,東淡路１丁目５番２－１１４３号,,27,114,5330023,,,2022-09-28,清算の結了等,,,2015-10-05,1,,,,,,0
1077,5120101043872,登記記録の閉鎖等,0,2022-09-29,2022-09-26,株式会社富洋商事,,株式会社,大阪府,大阪市浪速区,元町２丁目６番１３号ロックペイシスビル５０１,,27,111,5560016,,,2022-09-26,清算の結了等,,,2015-10-05,1,,,,,フヨウショウジ,0
1082,5140001001623,登記記録の閉鎖等,0,2022-09-29,2022-09-22,株式会社サンプラス,,株式会社,兵庫県,神戸市東灘区,岡本３丁目４番２０号,,28,101,6580072,,,2022-09-22,清算の結了等,,,2015-10-05,1,,,,,サンプラス,0
1083,5140001002299,登記記録の閉鎖等,0,2022-09-29,2022-09-20,株式会社花力総本店,,株式会社,兵庫県,神戸市東灘区,岡本２丁目７番１７号,,28,101,6580072,,,2022-09-20,清算の結了等,,,2015-10-05,1,,,,,ハナリキソウホンテン,0
1088,5140005004878,登記記録の閉鎖等,0,2022-09-29,2022-09-26,特定非営利活動法人Ｔｏｕｃｈ　ｉｎ　ＰＥＡＣＥ,,その他の設立登記法人,兵庫県,神戸市灘区,篠原南町１丁目５番１７－５０２号,,28,102,6570059,,,2022-09-26,清算の結了等,,,2015-10-05,1,,,,,,0
1103,5190003003720,登記記録の閉鎖等,0,2022-09-29,2022-09-26,合同会社ＲＥＲＩＴＹ　ＭＡＲＫ,,合同会社,三重県,四日市市,蒔田４丁目２番２１－１号,,24,202,5108022,,,2022-09-26,清算の結了等,,,2021-07-19,1,,,,,レリティーマーク,0
1132,5280005002579,登記記録の閉鎖等,0,2022-09-29,2022-09-26,特定非営利活動法人日本古民家研究会,,その他の設立登記法人,島根県,松江市,美保関町森山４９６番地,,32,201,6901312,,,2022-09-26,清算の結了等,,,2015-10-05,1,,,,,ニホンコミンカケンケンキュウカイ,0
1158,5370002018593,登記記録の閉鎖等,0,2022-09-29,2022-09-16,有限会社テクノ大地,,有限会社,宮城県,仙台市太白区,郡山５丁目１７番４号,,04,104,9820003,,,2022-09-16,清算の結了等,,,2015-10-05,1,,,,,テクノダイチ,0
1174,5460001000485,登記記録の閉鎖等,0,2022-09-29,2022-09-14,釧路電機暖房株式会社,,株式会社,北海道,釧路市,桜ケ岡１丁目５番４２号,,01,206,0850805,,,2022-09-14,清算の結了等,,,2015-10-05,1,,,,,クシロデンキダンボウ,0
1196,6010401118871,登記記録の閉鎖等,0,2022-09-29,2022-09-09,レガーロ株式会社,,株式会社,東京都,港区,浜松町２丁目２番５号,,13,103,1050013,,,2022-09-09,清算の結了等,,,2015-10-05,1,,,,,,0
1202,6010501007314,登記記録の閉鎖等,0,2022-09-29,2022-09-28,株式会社田所洋紙店,,株式会社,東京都,台東区,三筋１丁目１７番９号,,13,106,1110055,,,2022-09-28,清算の結了等,,,2015-10-05,1,,,,,タドコロヨウシテン,0
1204,6010601047912,登記記録の閉鎖等,0,2022-09-29,2022-09-22,株式会社木場組,,株式会社,東京都,江東区,新木場２丁目６番４号,,13,108,1360082,,,2022-09-22,清算の結了等,,,2015-10-05,1,,,,,キバグミ,0
1220,6011003012736,登記記録の閉鎖等,0,2022-09-29,2022-09-14,合同会社二重橋,,合同会社,東京都,目黒区,大岡山２丁目３番１９号,,13,110,1520033,,,2022-09-14,清算の結了等,,,2021-05-18,1,,,,,ニジュウバシ,0
1226,6011401019861,登記記録の閉鎖等,0,2022-09-29,2022-09-26,株式会社Ｆ－ＣＲＥＷＳ,,株式会社,東京都,北区,浮間３丁目６番１３－１０１１号,,13,117,1150051,,,2022-09-26,清算の結了等,,,2016-11-21,1,,,,,エフクルーズ,0
1238,6012701016169,登記記録の閉鎖等,0,2022-09-29,2022-09-27,株式会社アプライズオーエス,,株式会社,東京都,清瀬市,松山２丁目６番８号,,13,221,2040022,,,2022-09-27,清算の結了等,,,2020-11-25,1,,,,,アプライズオーエス,0
1244,6020001106235,登記記録の閉鎖等,0,2022-09-29,2022-09-21,株式会社どっとぷらす,,株式会社,神奈川県,横浜市港南区,最戸２丁目３番２２号,,14,111,2330008,,,2022-09-21,清算の結了等,,,2015-10-05,1,,,,,ドットプラス,0
1252,6020005010375,登記記録の閉鎖等,0,2022-09-29,2022-09-20,特定非営利活動法人まめな人生,,その他の設立登記法人,神奈川県,川崎市多摩区,菅馬場３丁目２７番１号,,14,135,2140004,,,2022-09-20,清算の結了等,,,2015-10-05,1,,,,,マメナジンセイ,0
1254,6021001011425,登記記録の閉鎖等,0,2022-09-29,2022-09-26,エス・ケイ・ワーカー株式会社,,株式会社,神奈川県,相模原市南区,大野台７丁目１１番９号,,14,153,2520331,,,2022-09-26,清算の結了等,,,2015-10-05,1,,,,,エスケイワーカー,0
1256,6021002046156,登記記録の閉鎖等,0,2022-09-29,2022-09-28,有限会社金田工業,,有限会社,神奈川県,座間市,東原４丁目１番１５－６０１号,,14,216,2520004,,,2022-09-28,清算の結了等,,,2015-10-05,1,,,,,カネダコウギョウ,0
1276,6040002063597,登記記録の閉鎖等,0,2022-09-29,2022-09-14,有限会社日光商事,,有限会社,千葉県,八街市,八街ほ８１番地,,12,230,2891115,,,2022-09-14,清算の結了等,,,2015-10-05,1,,,,,ニッコウショウジ,0
1289,6080102011527,登記記録の閉鎖等,0,2022-09-29,2022-09-26,有限会社ホークス産業,,有限会社,静岡県,駿東郡清水町,徳倉１８２２番地の２,,22,341,4110917,,,2022-09-26,清算の結了等,,,2015-10-05,1,,,,,ホークスサンギョウ,0
1296,6120001050951,登記記録の閉鎖等,0,2022-09-29,2022-09-28,株式会社ヤマコン,,株式会社,大阪府,大阪市西淀川区,竹島３丁目４番４号,,27,113,5550011,,,2022-09-28,清算の結了等,,,2015-10-05,1,,,,,,0
1307,6122001007923,登記記録の閉鎖等,0,2022-09-29,2022-09-22,株式会社吉川歯切工場,,株式会社,大阪府,大東市,灰塚３丁目４番９号,,27,218,5740043,,,2022-09-22,清算の結了等,,,2015-10-05,1,,,,,ヨシカワハキリコウジョウ,0
1319,6140002002116,登記記録の閉鎖等,0,2022-09-29,2022-09-21,阪神興産有限会社,,有限会社,兵庫県,神戸市東灘区,甲南町４丁目１０番１０号,,28,101,6580084,,,2022-09-21,清算の結了等,,,2015-10-05,1,,,,,ハンシンコウサン,0
1320,6140002011380,登記記録の閉鎖等,0,2022-09-29,2022-09-20,有限会社サロン・ド・ベラ,,有限会社,兵庫県,神戸市兵庫区,湊川町６丁目１６番地,,28,105,6520041,,,2022-09-20,清算の結了等,,,2015-10-05,1,,,,,サロンドベラ,0
1329,6180001116227,登記記録の閉鎖等,0,2022-09-29,2022-09-22,株式会社プライムライフ,,株式会社,愛知県,長久手市,段の上６０５番地２,,23,238,4801162,,,2022-09-22,清算の結了等,,,2015-10-05,1,,,,,プライムライフ,0
1352,6290001089024,登記記録の閉鎖等,0,2022-09-29,2022-09-22,株式会社ａｄｏｐｔ　ｔｅｃｈ,,株式会社,福岡県,福岡市早良区,田隈３丁目２２番７号,,40,137,8140174,,,2022-09-22,清算の結了等,,,2020-06-02,1,,,,,アダプトテック,0
1359,6290801009809,登記記録の閉鎖等,0,2022-09-29,2022-09-28,北九州印刷株式会社,,株式会社,福岡県,北九州市八幡西区,穴生４丁目８番１号,,40,109,8060049,,,2022-09-28,清算の結了等,,,2015-10-05,1,,,,,キタキュウシュウインサツ,0
1374,6420003001212,登記記録の閉鎖等,0,2022-09-29,2022-09-26,合同会社三沢市民ソーラー,,合同会社,青森県,三沢市,松園町３丁目７番１８号,,02,207,0330037,,,2022-09-26,清算の結了等,,,2015-10-05,1,,,,,ミサワシミンソーラー,0
1406,7010901016839,登記記録の閉鎖等,0,2022-09-29,2022-09-26,Ｙ’ｓラーニング株式会社,,株式会社,東京都,世田谷区,上用賀１丁目１番１－２０５号,,13,112,1580098,,,2022-09-26,清算の結了等,,,2015-10-05,1,,,,,ワイズラーニング,0
1408,7010902006574,登記記録の閉鎖等,0,2022-09-29,2022-09-22,有限会社三扇,,有限会社,東京都,世田谷区,南烏山５丁目２４番１１号,,13,112,1570062,,,2022-09-22,清算の結了等,,,2015-10-05,1,,,,,サンセン,0
1414,7011001123831,登記記録の閉鎖等,0,2022-09-29,2022-09-12,株式会社エヌ・ジー・ティー・ジャパン,,株式会社,東京都,渋谷区,神宮前３丁目３８番７号小林ビル２０１号,,13,113,1500001,,,2022-09-12,清算の結了等,,,2018-08-24,1,,,,,エヌジーティージャパン,0
1437,7011702005535,登記記録の閉鎖等,0,2022-09-29,2022-09-26,有限会社丸岡工業,,有限会社,東京都,江戸川区,北小岩３丁目２３番１号,,13,123,1330051,,,2022-09-26,清算の結了等,,,2015-10-05,1,,,,,マルオカコウギョウ,0
1441,7012401022490,登記記録の閉鎖等,0,2022-09-29,2022-09-22,株式会社アートネットワークＭＣ,,株式会社,東京都,三鷹市,井の頭５丁目２番３号,,13,204,1810001,,,2022-09-22,清算の結了等,,,2015-10-05,1,,,,,アートネットワークエムシー,0
1444,7013202004546,登記記録の閉鎖等,0,2022-09-29,2022-09-15,ドムス・エキスパート有限会社,,有限会社,東京都,目黒区,自由が丘３丁目６番１１号,,13,110,1520035,,,2022-09-15,清算の結了等,,,2015-10-05,1,,,,,ドムスエキスパート,0
1447,7020001087623,登記記録の閉鎖等,0,2022-09-29,2022-09-22,株式会社シーサイドハウス,,株式会社,愛知県,名古屋市千種区,池上町２丁目２番３号,,23,101,4640029,,,2022-09-22,清算の結了等,,,2015-10-05,1,,,,,シーサイドハウス,0
1462,7030001072293,登記記録の閉鎖等,0,2022-09-29,2022-09-16,株式会社ビジネスアシスト,,株式会社,千葉県,千葉市花見川区,長作町４６４番地８,,12,102,2620044,,,2022-09-16,清算の結了等,,,2015-10-05,1,,,,,ビジネスアシスト,0
1496,7120001196785,登記記録の閉鎖等,0,2022-09-29,2022-09-28,株式会社ワンダーワーカーズ,,株式会社,大阪府,大阪市西区,立売堀５丁目５番７号,,27,106,5500012,,,2022-09-28,清算の結了等,,,2016-03-08,1,,,,,ワンダーワーカーズ,0
1505,7120101040414,登記記録の閉鎖等,0,2022-09-29,2022-09-27,七宝タオル株式会社,,株式会社,大阪府,泉南郡熊取町,大久保南２丁目１３番５号,,27,361,5900405,,,2022-09-27,清算の結了等,,,2015-10-05,1,,,,,シッポウタオル,0
1508,7122003001849,登記記録の閉鎖等,0,2022-09-29,2022-09-27,合同会社エーアールティー,,合同会社,大阪府,八尾市,水越４丁目１３４番地,,27,212,5810856,,,2022-09-27,清算の結了等,,,2020-05-12,1,,,,,エーアールティー,0
1524,7150001021676,登記記録の閉鎖等,0,2022-09-29,2022-09-26,株式会社Ｋプラス,,株式会社,奈良県,橿原市,醍醐町３８４番１,,29,205,6340072,,,2022-09-26,合併による解散等,1150001008175,令和４年９月２６日奈良市西ノ京町１４３番地の３株式会社Ｋネクスト（1150001008175）に合併し解散,2017-07-25,1,,,,,ケイプラス,0
1540,7190001012218,登記記録の閉鎖等,0,2022-09-29,2022-09-27,株式会社齋藤モールド,,株式会社,三重県,桑名市,大字西汰上１１９番地の４,,24,205,5110807,,,2022-09-27,清算の結了等,,,2015-10-05,1,,,,,サイトウモールド,0
1542,7190002022942,登記記録の閉鎖等,0,2022-09-29,2022-09-27,有限会社松本,,有限会社,三重県,四日市市,赤堀南町６番５号,,24,202,5100827,,,2022-09-27,清算の結了等,,,2015-10-05,1,,,,,,0
1549,7220002015629,登記記録の閉鎖等,0,2022-09-29,2022-09-27,有限会社馬宗水産,,有限会社,石川県,鳳珠郡能登町,字鵜川２字１４４番甲地,,17,463,9270302,,,2022-09-27,清算の結了等,,,2015-10-05,1,,,,,バソウスイサン,0
1555,7240002003697,登記記録の閉鎖等,0,2022-09-29,2022-09-27,有限会社カーランドオキ,,有限会社,広島県,広島市安佐北区,落合２丁目３６番１６号,,34,106,7391731,,,2022-09-27,清算の結了等,,,2015-10-05,1,,,,,カーランドオキ,0
1580,7340001019651,登記記録の閉鎖等,0,2022-09-29,2022-09-28,株式会社村崎興業,00107747,株式会社,鹿児島県,鹿児島市,谷山中央５丁目２９番１９号,,46,201,8910141,,,2022-09-28,清算の結了等,,,2016-09-06,1,,,,,ムラサキコウギョウ,0
1610,8010502001520,登記記録の閉鎖等,0,2022-09-29,2022-09-27,有限会社遠藤商店,,有限会社,東京都,台東区,寿４丁目４番７号,,13,106,1110042,,,2022-09-27,清算の結了等,,,2015-10-05,1,,,,,エンドウショウテン,0
1618,8010703004512,登記記録の閉鎖等,0,2022-09-29,2022-09-26,Ｓｎｏｗｂａｌｌ合同会社,,合同会社,東京都,品川区,北品川１丁目９番７号トップルーム品川１０１５号,,13,109,1400001,,,2022-09-26,清算の結了等,,,2018-10-26,1,,,,,スノーボール,0
1619,8010801029667,登記記録の閉鎖等,0,2022-09-29,2022-09-21,株式会社リッキー,,株式会社,東京都,大田区,南馬込２丁目２７番３号,,13,111,1430025,,,2022-09-21,清算の結了等,,,2019-03-11,1,,,,,リッキー,0
1621,8010803003546,登記記録の閉鎖等,0,2022-09-29,2022-09-21,合同会社ＫＮＴ,,合同会社,東京都,大田区,蒲田５丁目１９番１５号蒲田東口中央ビル４Ｆ,,13,111,1440052,,,2022-09-21,清算の結了等,,,2020-11-18,1,,,,,ケーエヌティー,0
1629,8011001141155,登記記録の閉鎖等,0,2022-09-29,2022-09-20,株式会社Ｓｐａｒｔｙ　Ｃｒｅａｔｉｖｅ　Ｓｔｕｄｉｏ,,株式会社,東京都,渋谷区,恵比寿１丁目１９番１９号恵比寿ビジネスタワー,,13,113,1500013,,,2022-09-20,清算の結了等,,,2021-06-21,1,,,,,スパーティークリエイティブスタジオ,0
1634,8011101058968,登記記録の閉鎖等,0,2022-09-29,2022-09-28,パフェック株式会社,,株式会社,広島県,広島市東区,光町１丁目７番２４号,,34,102,7320052,,,2022-09-28,清算の結了等,,,2015-10-05,1,,,,,パフェック,0
1642,8011701022134,登記記録の閉鎖等,0,2022-09-29,2022-09-26,株式会社Ａｌｉｃｅ,,株式会社,東京都,江戸川区,南葛西５丁目１６番１号,,13,123,1340085,,,2022-09-26,合併による解散等,3011701001753,令和４年９月２５日東京都江戸川区南葛西五丁目１６番１号株式会社オーティーエス（3011701001753）に合併し解散,2018-10-09,1,,,,,アリス,0
1654,8012802002818,登記記録の閉鎖等,0,2022-09-29,2022-09-22,有限会社エムエステック,,有限会社,東京都,昭島市,武蔵野２丁目１５番１０号,,13,207,1960021,,,2022-09-22,清算の結了等,,,2015-10-05,1,,,,,エムエステック,0
1655,8013201018018,登記記録の閉鎖等,0,2022-09-29,2022-09-27,株式会社スール,,株式会社,東京都,港区,港南４丁目６番８号１２０３,,13,103,1080075,,,2022-09-27,合併による解散等,6011001108461,令和４年８月３１日東京都渋谷区代官山町１４番１０号株式会社ｙｏｕｒ　ｄｏｃｔｏｒ（6011001108461）に合併し解散,2015-10-05,1,,,,,スール,0
1662,8020001112479,登記記録の閉鎖等,0,2022-09-29,2022-09-22,株式会社ウィニングゲイト,,株式会社,神奈川県,横浜市港北区,樽町４丁目９番２４号,,14,109,2220001,,,2022-09-22,清算の結了等,,,2015-10-05,1,,,,,ウィニングゲイト,0
1674,8030001130637,登記記録の閉鎖等,0,2022-09-29,2022-09-26,株式会社エコセンター武蔵野,,株式会社,埼玉県,朝霞市,大字根岸７７１番地,,11,227,3510004,,,2022-09-26,清算の結了等,,,2019-04-26,1,,,,,エコセンタームサシノ,0
1699,8070002034404,登記記録の閉鎖等,0,2022-09-29,2022-09-22,平成建設有限会社,,有限会社,群馬県,館林市,成島町字離１４４７番地６２,,10,207,3740055,,,2022-09-22,清算の結了等,,,2015-10-05,1,,,,,ヘイセイケンセツ,0
1702,8080102016276,登記記録の閉鎖等,0,2022-09-29,2022-09-28,有限会社望月組,,有限会社,静岡県,富士市,中之郷３９８５番地,,22,210,4213306,,,2022-09-28,清算の結了等,,,2015-10-05,1,,,,,モチヅキグミ,0
1717,8120001010788,登記記録の閉鎖等,0,2022-09-29,2022-09-26,阪南昆布株式会社,,株式会社,大阪府,大阪市東住吉区,北田辺６丁目５番６号,,27,121,5460044,,,2022-09-26,清算の結了等,,,2015-10-05,1,,,,,ハンナンコンブ,0
1733,8140001033077,登記記録の閉鎖等,0,2022-09-29,2022-09-20,株式会社ジョイプランニング,,株式会社,兵庫県,神戸市中央区,元町高架通３－１４７,,28,110,6500014,,,2022-09-20,清算の結了等,,,2015-10-05,1,,,,,ジョイプランニング,0
1738,8150001016758,登記記録の閉鎖等,0,2022-09-29,2022-09-26,株式会社ＫＰライトスタッフ,,株式会社,奈良県,橿原市,醍醐町３８４番地の１,,29,205,6340072,,,2022-09-26,合併による解散等,1150001008175,令和４年９月２６日奈良市西ノ京町１４３番地の３株式会社Ｋネクスト（1150001008175）に合併し解散,2015-10-05,1,,,,,ケイピーライトスタッフ,0
1742,8160001015627,登記記録の閉鎖等,0,2022-09-29,2022-09-28,シンエー株式会社,,株式会社,滋賀県,野洲市,野洲１１４７番地,,25,210,5202342,,,2022-09-28,清算の結了等,,,2015-10-05,1,,,,,シンエー,0
1755,8180002041703,登記記録の閉鎖等,0,2022-09-29,2022-09-26,有限会社カワモトコーポレーション,,有限会社,愛知県,名古屋市名東区,極楽１丁目１５番地の３,,23,115,4650053,,,2022-09-26,清算の結了等,,,2015-10-05,1,,,,,カワモトコーポレーション,0
1757,8180003001565,登記記録の閉鎖等,0,2022-09-29,2022-09-22,コバヤシ黒板合資会社,,合資会社,愛知県,名古屋市北区,垣戸町１丁目１１番地の１,,23,103,4620867,,,2022-09-22,清算の結了等,,,2015-10-05,1,,,,,コバヤシコクバン,0
1760,8180301013741,登記記録の閉鎖等,0,2022-09-29,2022-09-15,株式会社エルシティ,,株式会社,愛知県,刈谷市,高倉町２丁目６０１番地,,23,210,4480037,,,2022-09-15,清算の結了等,,,2015-10-05,1,,,,,エルシティ,0
1770,8200002025694,登記記録の閉鎖等,0,2022-09-29,2022-09-26,有限会社農業生産法人飛騨せせらぎ,,有限会社,岐阜県,高山市,清見町三ツ谷１１７３番地１,,21,203,5060105,,,2022-09-26,清算の結了等,,,2015-10-05,1,,,,,ノウギョウセイサンホウジンヒダセセラギ,0
1771,8210001007263,登記記録の閉鎖等,0,2022-09-29,2022-09-21,平成建設株式会社,,株式会社,福井県,あわら市,田中々第２号１１番地１,,18,208,9104124,,,2022-09-21,合併による解散等,3210002007580,令和４年９月１３日福井県あわら市北潟５１字１４０番湖北建設興業株式会社（3210002007580）に合併し解散,2015-10-05,1,,,,,ヘイセイケンセツ,0
1786,8280003001233,登記記録の閉鎖等,0,2022-09-29,2022-09-28,合同会社悠久の宙,,合同会社,島根県,松江市,大輪町３９２番地１３,,32,201,6900882,,,2022-09-28,清算の結了等,,,2018-06-28,1,,,,,,0
1791,8290005015346,登記記録の閉鎖等,0,2022-09-29,2022-09-28,一般社団法人ダイヤモンドヘッドアカデミー,,その他の設立登記法人,福岡県,福岡市西区,愛宕４丁目２番４５－８１３号コアマンションマリナヒルズ室見,,40,135,8190015,,,2022-09-28,清算の結了等,,,2015-10-05,1,,,,,ダイヤモンドヘッドアカデミー,0
1799,8330002018834,登記記録の閉鎖等,0,2022-09-29,2022-09-26,有限会社鹿門館,,有限会社,熊本県,山鹿市,古閑９１０番地１３,,43,208,8610533,,,2022-09-26,清算の結了等,,,2015-10-05,1,,,,,ロクモンカン,0
1800,8330003009015,登記記録の閉鎖等,0,2022-09-29,2022-09-22,Ｓｔａｒｒｙｂａｓｅ合同会社,,合同会社,熊本県,熊本市南区,田迎２丁目５番地８９号,,43,104,8620962,,,2022-09-22,清算の結了等,,,2021-08-23,1,,,,,スターリーベース,0
1802,8340001008117,登記記録の閉鎖等,0,2022-09-29,2022-09-22,榊建設株式会社,,株式会社,鹿児島県,霧島市,国分野口東７番３号,,46,218,8994341,,,2022-09-22,清算の結了等,,,2015-10-05,1,,,,,サカキケンセツ,0
1809,8410001002252,登記記録の閉鎖等,0,2022-09-29,2022-09-26,株式会社不動産鑑定センター,,株式会社,秋田県,秋田市,東通３丁目９番２０号,,05,201,0100003,,,2022-09-26,清算の結了等,,,2015-10-05,1,,,,,フドウサンカンテイセンター,0
1835,9010401056128,登記記録の閉鎖等,0,2022-09-29,2022-09-14,ＬＨキャピタル株式会社,,株式会社,東京都,中央区,日本橋２丁目９番９号ＹＭＴ日本橋ビル,,13,102,1030027,,,2022-09-14,清算の結了等,,,2015-10-05,1,,,,,エルエイチキャピタル,0
1863,9011402010536,登記記録の閉鎖等,0,2022-09-29,2022-09-26,有限会社リングエド,,有限会社,神奈川県,中郡大磯町,東小磯４６番地,,14,341,2550004,,,2022-09-26,清算の結了等,,,2015-10-05,1,,,,,リングエド,0
1902,9030001122724,登記記録の閉鎖等,0,2022-09-29,2022-09-12,株式会社ＰＬＡＮ　Ｂｅｅ,,株式会社,埼玉県,さいたま市見沼区,大和田町２丁目３３５番地１１,,11,104,3370053,,,2022-09-12,清算の結了等,,,2017-10-25,1,,,,,プランビー,0
1907,9030002052953,登記記録の閉鎖等,0,2022-09-29,2022-09-21,上尾流通有限会社,,有限会社,埼玉県,上尾市,本町４丁目２番９号,,11,219,3620014,,,2022-09-21,清算の結了等,,,2015-10-05,1,,,,,アゲオリュウツウ,0
1917,9040002024943,登記記録の閉鎖等,0,2022-09-29,2022-09-16,有限会社藤久建設,,有限会社,千葉県,船橋市,咲が丘２丁目３２番５号,,12,204,2740807,,,2022-09-16,清算の結了等,,,2015-10-05,1,,,,,フジヒサケンセツ,0
1934,9090002010765,登記記録の閉鎖等,0,2022-09-29,2022-09-21,有限会社佐藤建材,,有限会社,山梨県,山梨市,牧丘町窪平２４７番地,,19,205,4040013,,,2022-09-21,清算の結了等,,,2015-10-05,1,,,,,,0
1945,9120001022650,登記記録の閉鎖等,0,2022-09-29,2022-09-28,赤崎商事株式会社,,株式会社,大阪府,大阪市天王寺区,堂ケ芝２丁目１３番７号,,27,109,5430033,,,2022-09-28,清算の結了等,,,2015-10-05,1,,,,,アカサキショウジ,0
1951,9120001123440,登記記録の閉鎖等,0,2022-09-29,2022-09-26,株式会社大和商行,,株式会社,大阪府,大阪市住之江区,南港東１丁目５番３１号,,27,125,5590031,,,2022-09-26,清算の結了等,,,2015-10-05,1,,,,,ヤマトショウコウ,0
1953,9120001136442,登記記録の閉鎖等,0,2022-09-29,2022-09-28,匠工房株式会社,,株式会社,大阪府,大阪市住之江区,浜口西１丁目５番８号,,27,125,5590006,,,2022-09-28,清算の結了等,,,2015-10-05,1,,,,,タクミコウボウ,0
1968,9120901019390,登記記録の閉鎖等,0,2022-09-29,2022-09-27,池田開発株式会社,,株式会社,大阪府,池田市,畑３丁目１１番地,,27,204,5630021,,,2022-09-27,清算の結了等,,,2015-10-05,1,,,,,イケダカイハツ,0
1986,9180001007893,登記記録の閉鎖等,0,2022-09-29,2022-09-22,伊藤内燃機株式会社,,株式会社,愛知県,名古屋市昭和区,吹上町１丁目３番地,,23,107,4660002,,,2022-09-22,清算の結了等,,,2015-10-05,1,,,,,イトウナイネンキ,0
1991,9180001108238,登記記録の閉鎖等,0,2022-09-29,2022-09-21,ジェネシス・システムズ・グループ・ジャパン合同会社,,合同会社,神奈川県,横浜市港北区,新羽町９２０番地,,14,109,2230057,,,2022-09-21,清算の結了等,,,2015-10-05,1,,,,,ジェネシスシステムズグループジャパン,0
1992,9180002021217,登記記録の閉鎖等,0,2022-09-29,2022-09-22,有限会社鳳自動車,,有限会社,愛知県,名古屋市天白区,天白町大字平針字荒池下７番地の１５１,,23,116,4680021,,,2022-09-22,清算の結了等,,,2015-10-05,1,,,,,オオトリジドウシャ,0
1993,9180003020317,登記記録の閉鎖等,0,2022-09-29,2022-09-22,Ｗｏｒｌｄ　Ｓｍｉｌｅ　Ｔｒａｄｉｎｇ合同会社,,合同会社,愛知県,半田市,本町２丁目６２,,23,205,4750871,,,2022-09-22,清算の結了等,,,2019-09-04,1,,,,,ワールドスマイルトレーディング,0
2007,9220002012327,登記記録の閉鎖等,0,2022-09-29,2022-09-27,有限会社九谷作見窯,,有限会社,石川県,加賀市,冨塚町リ１番地１,,17,206,9220421,,,2022-09-27,清算の結了等,,,2015-10-05,1,,,,,クタニサクミガマ,0
2015,9240002051967,登記記録の閉鎖等,0,2022-09-29,2022-09-26,有限会社エイコウ産業,,有限会社,広島県,尾道市,因島田熊町１８番地の２,,34,205,7222324,,,2022-09-26,清算の結了等,,,2015-10-05,1,,,,,エイコウサンギョウ,0
2031,9290001093799,登記記録の閉鎖等,0,2022-09-29,2022-09-21,株式会社ネオン,,株式会社,福岡県,福岡市南区,大橋１丁目１０番１４号３０１号,,40,134,8150033,,,2022-09-21,清算の結了等,,,2021-07-12,1,,,,,ネオン,0
2055,9360003006784,登記記録の閉鎖等,0,2022-09-29,2022-09-20,合同会社宇栄原ホーム,,合同会社,沖縄県,豊見城市,字豊見城１５－１カーサグレイシアゆたか４０７,,47,212,9010241,,,2022-09-20,清算の結了等,,,2015-10-05,1,,,,,ウエバルホーム,0
