sequenceNumber,corporateNumber,process,correct,updateDate,changeDate,name,nameImageId,kind,prefectureName,cityName,streetNumber,addressImageId,prefectureCode,cityCode,postCode,addressOutside,addressOutsideImageId,closeDate,closeCause,successorCorporateNumber,changeCause,assignmentDate,latest,enName,enPrefectureName,enCityName,enAddressOutside,furigana,hihyoji
2,1010001199879,登記記録の閉鎖等,0,2024-07-17,2024-07-02,実久利パートナーズ株式会社,,株式会社,東京都,千代田区,二番町９番地３ＴＨＥＢＡＳＥ麹町２Ｆ,,13,101,1020084,,,2024-07-02,清算の結了等,,,2019-04-08,1,,,,,ミクリパートナーズ,0
23,1010401154772,登記記録の閉鎖等,0,2024-07-17,2024-06-20,株式会社六本木,,株式会社,茨城県,水戸市,泉町１丁目６番１号,,08,201,3100026,,,2024-06-20,合併による解散等,6050001002497,令和６年６月１日茨城県水戸市泉町一丁目６番１号株式会社水戸京成百貨店（6050001002497）に合併し解散,2020-08-26,1,,,,,ロッポンギ,0
30,1010405022216,登記記録の閉鎖等,0,2024-07-17,2024-07-01,司法書士法人青葉リーガルオフィス,,その他の設立登記法人,東京都,港区,北青山２丁目７番１３号プラセオ青山ビル３階,,13,103,1070061,,,2024-07-01,清算の結了等,,,2023-06-08,1,,,,,アオバリーガルオフィス,0
39,1010901002043,登記記録の閉鎖等,0,2024-07-17,2024-07-09,株式会社エムズ,,株式会社,東京都,世田谷区,砧２丁目７番２号,,13,112,1570073,,,2024-07-09,清算の結了等,,,2015-10-05,1,,,,,エムズ,0
54,1011301021187,登記記録の閉鎖等,0,2024-07-17,2024-07-10,株式会社Ｒｏｂｂｙ　Ｐｉｃｔｕｒｅｓ,,株式会社,東京都,杉並区,永福３丁目５７番１９号東都ビル７階,,13,115,1680064,,,2024-07-10,清算の結了等,,,2015-10-05,1,,,,,ロビーピクチャーズ,0
66,1012801000449,登記記録の閉鎖等,0,2024-07-17,2024-07-04,株式会社経理協会,,株式会社,東京都,立川市,高松町２丁目２５番２８号,,13,202,1900011,,,2024-07-04,合併による解散等,5012801000767,令和６年７月１日東京都立川市高松町二丁目２５番２８号株式会社税務経営会館（5012801000767）に合併し解散,2015-10-05,1,,,,,ケイリキョウカイ,0
80,1020002086480,登記記録の閉鎖等,0,2024-07-17,2024-06-28,有限会社カネコ企画,,有限会社,神奈川県,川崎市宮前区,梶ケ谷１３８５番地,,14,136,2160034,,,2024-06-28,清算の結了等,,,2015-10-05,1,,,,,カネコキカク,0
88,1021002071299,登記記録の閉鎖等,0,2024-07-17,2024-07-12,有限会社いづみタクシー,,有限会社,神奈川県,三浦市,天神町５番２６号,,14,210,2380241,,,2024-07-12,合併による解散等,4021001041044,令和６年６月３０日神奈川県横須賀市内川一丁目７番６５号芙蓉交通株式会社（4021001041044）に合併し解散,2015-10-05,1,,,,,イヅミタクシー,0
102,1030005015799,登記記録の閉鎖等,0,2024-07-17,2024-07-03,税理士法人セカンド,,その他の設立登記法人,東京都,豊島区,東池袋５丁目８番１７－１１０３号,,13,116,1700013,,,2024-07-03,清算の結了等,,,2015-10-05,1,,,,,セカンド,0
104,1040001123084,登記記録の閉鎖等,0,2024-07-17,2024-07-12,株式会社ベストハウス,,株式会社,千葉県,市川市,南行徳３丁目１番２号,,12,203,2720138,,,2024-07-12,清算の結了等,,,2022-04-20,1,,,,,ベストハウス,0
106,1040002055005,登記記録の閉鎖等,0,2024-07-17,2024-07-02,有限会社叶園,,有限会社,千葉県,印西市,内野１丁目８番地２棟３０４号,,12,231,2701347,,,2024-07-02,清算の結了等,,,2015-10-05,1,,,,,カノウエン,0
110,1040002094630,登記記録の閉鎖等,0,2024-07-17,2024-07-02,ｎａｍｅ８有限会社,,有限会社,千葉県,柏市,向原町３番１９－８１５号,,12,217,2770851,,,2024-07-02,清算の結了等,,,2015-10-05,1,,,,,ネームエイト,0
116,1060001020635,登記記録の閉鎖等,0,2024-07-17,2024-07-03,丸玉土木建築株式会社,,株式会社,栃木県,佐野市,犬伏上町２１９１番地,,09,204,3270806,,,2024-07-03,清算の結了等,,,2015-10-05,1,,,,,マルタマドボクケンチク,0
117,1060001023101,登記記録の閉鎖等,0,2024-07-17,2024-06-25,株式会社高橋工業,00024138,株式会社,栃木県,小山市,大字粟宮１５９８番地１,,09,208,3290201,,,2024-06-25,清算の結了等,,,2015-10-05,1,,,,,タカハシコウギョウ,0
127,1070003001640,登記記録の閉鎖等,0,2024-07-17,2024-07-11,ケアサポートさくら合同会社,,合同会社,群馬県,伊勢崎市,中央町２７番３号ダイアパレスパークサイド伊勢崎１０５,,10,204,3720042,,,2024-07-11,清算の結了等,,,2015-10-05,1,,,,,ケアサポートサクラ,0
131,1090002001656,登記記録の閉鎖等,0,2024-07-17,2024-07-10,有限会社ジュエリークラフトうえだ,,有限会社,山梨県,甲府市,大里町２０９８番地の７,,19,201,4000053,,,2024-07-10,清算の結了等,,,2015-10-05,1,,,,,ジュエリークラフトウエダ,0
133,1100005006188,登記記録の閉鎖等,0,2024-07-17,2024-07-01,医療法人エヌ・ケー・シー,,その他の設立登記法人,長野県,松本市,村井町南１丁目３６番１２号,,20,202,3990036,,,2024-07-01,清算の結了等,,,2015-10-05,1,,,,,エヌケーシー,0
134,1110001007156,登記記録の閉鎖等,0,2024-07-17,2024-07-04,佐藤造機株式会社,,株式会社,新潟県,新潟市秋葉区,善道町２丁目７番１号,,15,105,9560865,,,2024-07-04,合併による解散等,8110001002571,令和６年６月２１日新潟市江南区酒屋町１９９番地１柴田屋加工紙株式会社（8110001002571）に合併し解散,2015-10-05,1,,,,,サトウゾウキ,0
137,1120001027038,登記記録の閉鎖等,0,2024-07-17,2024-07-11,アイシンガルバー株式会社,,株式会社,大阪府,大阪市大正区,南恩加島５丁目２番１６号,,27,108,5510021,,,2024-07-11,清算の結了等,,,2015-10-05,1,,,,,,0
140,1120001175877,登記記録の閉鎖等,0,2024-07-17,2024-07-08,株式会社アサヒライティング,,株式会社,大阪府,大阪市住之江区,新北島３丁目２番５３号,,27,125,5590024,,,2024-07-08,清算の結了等,,,2015-10-05,1,,,,,,0
141,1120001213521,登記記録の閉鎖等,0,2024-07-17,2024-07-08,株式会社ＴＹＧ,,株式会社,大阪府,寝屋川市,上神田１丁目８－１４,,27,215,5720052,,,2024-07-08,清算の結了等,,,2018-05-21,1,,,,,ティーワイジー,0
143,1120001220476,登記記録の閉鎖等,0,2024-07-17,2024-07-11,株式会社ＲＡＤＩ－Ｘ,,株式会社,大阪府,大阪市中央区,内本町２丁目４番１６号オフィスポート内本町６Ｆ,,27,128,5400026,,,2024-07-11,清算の結了等,,,2019-04-22,1,,,,,ラディックス,0
157,1120003013060,登記記録の閉鎖等,0,2024-07-17,2024-07-11,合同会社うらら,,合同会社,大阪府,大阪市城東区,野江２丁目１６番２５号アークプラザ京橋４１１号室,,27,118,5360006,,,2024-07-11,清算の結了等,,,2017-07-26,1,,,,,ウララ,0
169,1130001017351,登記記録の閉鎖等,0,2024-07-17,2024-07-05,株式会社サイテック,,株式会社,京都府,京都市下京区,岩上通木津屋橋下る松本町１２２番地,,26,106,6008256,,,2024-07-05,清算の結了等,,,2015-10-05,1,,,,,サイテック,0
171,1130001058214,登記記録の閉鎖等,0,2024-07-17,2024-07-08,株式会社礼,,株式会社,京都府,京丹後市,丹後町間人１２９７番地の３,,26,212,6270201,,,2024-07-08,清算の結了等,,,2016-09-08,1,,,,,レイ,0
172,1130001064641,登記記録の閉鎖等,0,2024-07-17,2024-07-10,株式会社ＮＥＸＴ　ＬＥＶＥＬ,,株式会社,京都府,京都市下京区,夕顔町４９３番地１シンフォニーアミゾント夕顔２０２,,26,106,6008077,,,2024-07-10,清算の結了等,,,2019-06-07,1,,,,,ネクストレベル,0
183,1140002068715,登記記録の閉鎖等,0,2024-07-17,2024-07-01,有限会社アートサービス,,有限会社,兵庫県,洲本市,桑間５８４番地３,,28,205,6560014,,,2024-07-01,清算の結了等,,,2015-10-05,1,,,,,アートサービス,0
188,1150003000873,登記記録の閉鎖等,0,2024-07-17,2024-07-11,合同会社エヌケー,,合同会社,奈良県,生駒市,壱分町１４０８番地,,29,209,6300222,,,2024-07-11,清算の結了等,,,2015-10-05,1,,,,,エヌケー,0
190,1180001018799,登記記録の閉鎖等,0,2024-07-17,2024-07-02,朝日板金工業株式会社,,株式会社,愛知県,名古屋市中川区,小碓通１丁目５番地,,23,110,4540856,,,2024-07-02,清算の結了等,,,2015-10-05,1,,,,,アサヒバンキンコウギョウ,0
208,1200001031213,登記記録の閉鎖等,0,2024-07-17,2024-07-12,ＢＥＴロジスティクス株式会社,,株式会社,岐阜県,関市,武芸川町跡部７８８番地７,,21,205,5012605,,,2024-07-12,清算の結了等,,,2015-10-05,1,,,,,ビィーティロジスティクス,0
209,1200001035313,登記記録の閉鎖等,0,2024-07-17,2024-07-08,株式会社ＬＩＦＥ　ａｒｃｓ,,株式会社,岐阜県,岐阜市,旦島６丁目１番９号,,21,201,5020926,,,2024-07-08,清算の結了等,,,2018-06-28,1,,,,,ライフアークス,0
218,1240002028089,登記記録の閉鎖等,0,2024-07-17,2024-07-09,中村工業有限会社,,有限会社,広島県,東広島市,河内町中河内７２２番地の１,,34,212,7392201,,,2024-07-09,清算の結了等,,,2015-10-05,1,,,,,ナカムラコウギョウ,0
220,1240003005426,登記記録の閉鎖等,0,2024-07-17,2024-07-09,合同会社Ｔ’ｓ　Ｌａｂ,,合同会社,広島県,広島市南区,東雲本町２丁目５番２１号シャンポール８０１,,34,103,7340023,,,2024-07-09,清算の結了等,,,2022-01-04,1,,,,,ティーズラボ,0
237,1290801005077,登記記録の閉鎖等,0,2024-07-17,2024-07-09,アジアトランス株式会社,,株式会社,福岡県,北九州市門司区,大字恒見１３７６番地,,40,101,8000117,,,2024-07-09,清算の結了等,,,2015-10-05,1,,,,,アジアトランス,0
242,1300003001947,登記記録の閉鎖等,0,2024-07-17,2024-07-09,ＴＮＹ貿易合同会社,,合同会社,佐賀県,佐賀市,神野東１丁目９番２６号,,41,201,8400804,,,2024-07-09,清算の結了等,,,2023-04-05,1,,,,,ティーエヌワイボウエキ,0
244,1320001001666,登記記録の閉鎖等,0,2024-07-17,2024-06-27,株式会社ダイボウ・グラウト,,株式会社,大分県,大分市,三佐３丁目１２番２４号,,44,201,8700108,,,2024-06-27,清算の結了等,,,2015-10-05,1,,,,,,0
246,1330002024905,登記記録の閉鎖等,0,2024-07-17,2024-07-04,有限会社熊日加悦新聞販売センター,,有限会社,熊本県,宇土市,一里木町５番地,,43,211,8690435,,,2024-07-04,清算の結了等,,,2015-10-05,1,,,,,クマニチカエツシンブンハンバイセンター,0
273,1430005009843,登記記録の閉鎖等,0,2024-07-17,2024-07-08,医療法人社団いな川こどもクリニック,,その他の設立登記法人,北海道,室蘭市,寿町１丁目５番１４号,,01,205,0500082,,,2024-07-08,清算の結了等,,,2015-10-05,1,,,,,イナガワコドモクリニック,0
274,1430005013713,登記記録の閉鎖等,0,2024-07-17,2024-07-05,一般社団法人ルアージュ,,その他の設立登記法人,北海道,札幌市北区,あいの里三条１０丁目１０番２８号,,01,102,0028073,,,2024-07-05,清算の結了等,,,2019-06-20,1,,,,,ルアージュ,0
280,1480005006902,登記記録の閉鎖等,0,2024-07-17,2024-07-10,一般社団法人徳島県南部古民家再生協会,,その他の設立登記法人,徳島県,小松島市,江田町字敷地前７９番地１,,36,203,7730014,,,2024-07-10,清算の結了等,,,2022-05-10,1,,,,,トクシマケンナンブコミンカサイセイキョウカイ,0
301,2010401141613,登記記録の閉鎖等,0,2024-07-17,2024-07-01,株式会社Ｔｒｏｐｈｙ,,株式会社,東京都,港区,南麻布５丁目４番２号,,13,103,1060047,,,2024-07-01,清算の結了等,,,2018-10-22,1,,,,,トロフィー,0
302,2010401155621,登記記録の閉鎖等,0,2024-07-17,2024-07-01,アイペットホールディングス株式会社,,株式会社,東京都,江東区,豊洲５丁目６番１５号,,13,108,1350061,,,2024-07-01,合併による解散等,6010001087807,令和６年６月２８日東京都江東区豊洲五丁目６番１５号アイペット損害保険株式会社（6010001087807）に合併し解散,2020-10-09,1,,,,,アイペットホールディングス,0
314,2010901044010,登記記録の閉鎖等,0,2024-07-17,2024-07-01,株式会社ティーズファン,,株式会社,東京都,港区,南青山２丁目２番１５号ウィン青山９４２,,13,103,1070062,,,2024-07-01,清算の結了等,,,2019-04-25,1,,,,,ティーズファン,0
315,2010902008195,登記記録の閉鎖等,0,2024-07-17,2024-07-09,有限会社鈴生,,有限会社,東京都,世田谷区,宮坂２丁目１５番４号,,13,112,1560051,,,2024-07-09,清算の結了等,,,2015-10-05,1,,,,,スズオ,0
335,2011302015699,登記記録の閉鎖等,0,2024-07-17,2024-07-08,有限会社スペシャル・サンクス,,有限会社,東京都,杉並区,西荻南３丁目１０番９号ＮＳツインビル,,13,115,1670053,,,2024-07-08,清算の結了等,,,2015-10-05,1,,,,,スペシャルサンクス,0
338,2011401025120,登記記録の閉鎖等,0,2024-07-17,2024-07-03,株式会社諦愛４２０,,株式会社,東京都,板橋区,高島平８丁目３２番１４－２０９号ルーブル高島平,,13,119,1750082,,,2024-07-03,清算の結了等,,,2023-05-08,1,,,,,テイアイ,0
339,2011402018767,登記記録の閉鎖等,0,2024-07-17,2024-07-08,有限会社ケーエムコーポレーション,,有限会社,東京都,板橋区,赤塚新町３丁目３４－３,,13,119,1750093,,,2024-07-08,清算の結了等,,,2015-10-05,1,,,,,ケーエムコーポレーション,0
347,2012401012562,登記記録の閉鎖等,0,2024-07-17,2024-07-16,株式会社システムジャパン,,株式会社,東京都,三鷹市,中原４丁目８番１５号,,13,204,1810005,,,2024-07-16,清算の結了等,,,2015-10-05,1,,,,,システムジャパン,0
356,2020002005811,登記記録の閉鎖等,0,2024-07-17,2024-07-01,有限会社見修設備,,有限会社,神奈川県,横浜市都筑区,川和町８１番地４エクセル市ヶ尾南４０３,,14,118,2240057,,,2024-07-01,清算の結了等,,,2015-10-05,1,,,,,ケンシュウセツビ,0
362,2030001062365,登記記録の閉鎖等,0,2024-07-17,2024-07-10,株式会社ハセハウジング,,株式会社,埼玉県,鴻巣市,屈巣４２０１番地１,,11,217,3650014,,,2024-07-10,清算の結了等,,,2015-10-05,1,,,,,ハセハウジング,0
372,2040002069508,登記記録の閉鎖等,0,2024-07-17,2024-07-02,有限会社あきエンジニアリング,,有限会社,千葉県,君津市,中野６丁目５番１１号,,12,225,2991151,,,2024-07-02,清算の結了等,,,2015-10-05,1,,,,,アキエンジニアリング,0
389,2080402015883,登記記録の閉鎖等,0,2024-07-17,2024-07-09,有限会社太洋システムサービス,,有限会社,静岡県,浜松市浜名区,細江町中川５００番地,,22,139,4311304,,,2024-07-09,清算の結了等,,,2015-10-05,1,,,,,タイヨウシステムサービス,0
390,2090001018535,登記記録の閉鎖等,0,2024-07-17,2024-07-05,株式会社エターナルライフ,,株式会社,山梨県,上野原市,犬目１０４８,,19,212,4090124,,,2024-07-05,清算の結了等,,,2024-02-13,1,,,,,,0
399,2110001031378,登記記録の閉鎖等,0,2024-07-17,2024-07-04,株式会社野村興業,,株式会社,新潟県,小千谷市,若葉３丁目１３０番地,,15,208,9470054,,,2024-07-04,清算の結了等,,,2016-04-04,1,,,,,ノムラコウギョウ,0
402,2120001142595,登記記録の閉鎖等,0,2024-07-17,2024-07-12,株式会社コデアス,,株式会社,大阪府,大阪市淀川区,木川西１丁目３番１７号,,27,123,5320013,,,2024-07-12,清算の結了等,,,2015-10-05,1,,,,,,0
422,2130001044931,登記記録の閉鎖等,0,2024-07-17,2024-07-08,株式会社ＴＡＩＹＯ,,株式会社,京都府,久世郡久御山町,野村村東２６９番地,,26,322,6130023,,,2024-07-08,清算の結了等,,,2015-10-05,1,,,,,,0
443,2180001114928,登記記録の閉鎖等,0,2024-07-17,2024-06-21,株式会社ＷＡ,,株式会社,愛知県,名古屋市瑞穂区,八勝通１丁目９番地４,,23,108,4670042,,,2024-06-21,清算の結了等,,,2015-10-05,1,,,,,ワ,0
451,2180002010944,登記記録の閉鎖等,0,2024-07-17,2024-06-28,有限会社イーオフィス,,有限会社,愛知県,名古屋市北区,金城３丁目１２番２２号,,23,103,4620847,,,2024-06-28,清算の結了等,,,2015-10-05,1,,,,,イーオフィス,0
469,2240002034755,登記記録の閉鎖等,0,2024-07-17,2024-07-09,有限会社寺口商事,,有限会社,広島県,呉市,音戸町早瀬２丁目１０番２１号,,34,202,7371215,,,2024-07-09,清算の結了等,,,2015-10-05,1,,,,,テラグチショウジ,0
471,2270002009440,登記記録の閉鎖等,0,2024-07-17,2024-07-09,宇津木縫製有限会社,,有限会社,鳥取県,東伯郡琴浦町,大字保６番地２,,31,371,6892351,,,2024-07-09,清算の結了等,,,2015-10-05,1,,,,,ウツギホウセイ,0
473,2290001067826,登記記録の閉鎖等,0,2024-07-17,2024-06-18,株式会社インビクタス,,株式会社,福岡県,福岡市早良区,高取１丁目３番２３－２０１号,,40,137,8140011,,,2024-06-18,清算の結了等,,,2015-10-05,1,,,,,インビクタス,0
475,2290002021732,登記記録の閉鎖等,0,2024-07-17,2024-06-18,有限会社イーコス,,有限会社,福岡県,那珂川市,片縄５丁目１５７番地,,40,231,8111201,,,2024-06-18,清算の結了等,,,2015-10-05,1,,,,,イーコス,0
480,2310005006463,登記記録の閉鎖等,0,2024-07-17,2024-07-04,公益財団法人厳原愛育会,,その他の設立登記法人,長崎県,対馬市,厳原町国分１４４１番地,,42,209,8170022,,,2024-07-04,清算の結了等,,,2015-10-05,1,,,,,イヅハラアイイクカイ,0
485,2370002008283,登記記録の閉鎖等,0,2024-07-17,2024-07-01,有限会社永野金型製作所,,有限会社,宮城県,仙台市宮城野区,岩切字水分６４番地の５,,04,102,9830821,,,2024-07-01,清算の結了等,,,2015-10-05,1,,,,,ナガノカナガタセイサクショ,0
487,2380001022251,登記記録の閉鎖等,0,2024-07-17,2024-07-04,株式会社仁愛,,株式会社,福島県,いわき市,明治団地１８番地の４,,07,204,9708035,,,2024-07-04,清算の結了等,,,2015-10-05,1,,,,,ジンアイ,0
498,2430001001968,登記記録の閉鎖等,0,2024-07-17,2024-07-09,ウサミ工業株式会社,,株式会社,北海道,札幌市白石区,北郷三条３丁目２番１６号,,01,104,0030833,,,2024-07-09,清算の結了等,,,2015-10-05,1,,,,,ウサミコウギョウ,0
502,2430002022658,登記記録の閉鎖等,0,2024-07-17,2024-07-12,三喜工業有限会社,,有限会社,北海道,札幌市東区,東苗穂十四条２丁目６番２号,,01,103,0070814,,,2024-07-12,清算の結了等,,,2015-10-05,1,,,,,ミヨシコウギョウ,0
537,3010403026761,登記記録の閉鎖等,0,2024-07-17,2024-07-01,合同会社ＵＣ加島２,,合同会社,東京都,港区,虎ノ門５丁目１番４号,,13,103,1050001,,,2024-07-01,清算の結了等,,,2021-12-23,1,,,,,ユーシーカシマツー,0
539,3010405016505,登記記録の閉鎖等,0,2024-07-17,2024-06-28,一般社団法人ロケット,,その他の設立登記法人,東京都,港区,元赤坂１丁目１番８号赤坂コミュニティビル４階,,13,103,1070051,,,2024-06-28,清算の結了等,,,2018-03-05,1,,,,,ロケット,0
543,3010602013809,登記記録の閉鎖等,0,2024-07-17,2024-07-10,有限会社箔清,,有限会社,東京都,墨田区,緑２丁目４番８号,,13,107,1300021,,,2024-07-10,清算の結了等,,,2015-10-05,1,,,,,ハクセイ,0
574,3012402013443,登記記録の閉鎖等,0,2024-07-17,2024-07-16,有限会社成城オートサービス,,有限会社,東京都,狛江市,中和泉４丁目１２番７号,,13,219,2010012,,,2024-07-16,清算の結了等,,,2015-10-05,1,,,,,セイジョウオートサービス,0
581,3013301007305,登記記録の閉鎖等,0,2024-07-17,2024-07-04,株式会社高松組,00059876,株式会社,東京都,豊島区,千川２丁目６番２号,,13,116,1710041,,,2024-07-04,清算の結了等,,,2015-10-05,1,,,,,タカマツグミ,0
590,3020002087642,登記記録の閉鎖等,0,2024-07-17,2024-06-28,有限会社ワンセブンティーン,,有限会社,神奈川県,川崎市宮前区,鷺沼１丁目５番１号,,14,136,2160004,,,2024-06-28,清算の結了等,,,2015-10-05,1,,,,,ワンセブンティーン,0
616,3050001005552,登記記録の閉鎖等,0,2024-07-17,2024-07-05,株式会社おおぞら保険,,株式会社,茨城県,水戸市,元吉田町２２３８番地１,,08,201,3100836,,,2024-07-05,合併による解散等,1050001022343,令和６年７月１日茨城県潮来市日の出二丁目２４－２１株式会社ウィズアイ（1050001022343）に合併し解散,2015-10-05,1,,,,,オオゾラホケン,0
624,3080001003644,登記記録の閉鎖等,0,2024-07-17,2024-07-04,株式会社トーア,,株式会社,静岡県,静岡市駿河区,北丸子１丁目２番１１号,,22,102,4210106,,,2024-07-04,清算の結了等,,,2015-10-05,1,,,,,トーア,0
662,3140002021077,登記記録の閉鎖等,0,2024-07-17,2024-07-09,サンメディック有限会社,,有限会社,兵庫県,神戸市須磨区,北落合６丁目２番１号７１３,,28,107,6540151,,,2024-07-09,清算の結了等,,,2015-10-05,1,,,,,サンメディック,0
671,3150003002694,登記記録の閉鎖等,0,2024-07-17,2024-07-16,Ｎ　ＦＵＴＵＲＥ合同会社,,合同会社,奈良県,奈良市,西大寺本町３番５号ブリリア西大寺ローレルコート７０７号,,29,201,6310816,,,2024-07-16,清算の結了等,,,2022-05-31,1,,,,,エヌフューチャー,0
678,3180001141590,登記記録の閉鎖等,0,2024-07-17,2024-07-01,ＭＯＴＨＥＲ　ＥＡＲＴＨ　ＳＵＰＰＬＹ株式会社,,株式会社,愛知県,知多市,東大僧３丁目１番地,,23,224,4780061,,,2024-07-01,合併による解散等,8180001080784,令和６年７月１日愛知県犬山市大字犬山字東古券３１番地キューホールディングス株式会社（8180001080784）に合併し解散,2020-06-12,1,,,,,マザーアースサプライ,0
682,3180002008640,登記記録の閉鎖等,0,2024-07-17,2024-07-01,有限会社広田商店,,有限会社,愛知県,名古屋市昭和区,明月町３丁目２２番地の４,,23,107,4660034,,,2024-07-01,清算の結了等,,,2015-10-05,1,,,,,ヒロタショウテン,0
690,3200001031797,登記記録の閉鎖等,0,2024-07-17,2024-07-08,株式会社ＬＡＢＯ,,株式会社,岐阜県,羽島郡笠松町,大池町２４番地,,21,303,5016087,,,2024-07-08,清算の結了等,,,2015-10-05,1,,,,,ラボ,0
691,3200002007004,登記記録の閉鎖等,0,2024-07-17,2024-07-08,有限会社井上工業,,有限会社,岐阜県,各務原市,蘇原青雲町２丁目１８番地の１１,,21,213,5040843,,,2024-07-08,清算の結了等,,,2015-10-05,1,,,,,,0
695,3210002012944,登記記録の閉鎖等,0,2024-07-17,2024-07-05,エムエーコンサルタント有限会社,,有限会社,福井県,鯖江市,落井町第２８号１７番地の１,,18,207,9161115,,,2024-07-05,清算の結了等,,,2015-10-05,1,,,,,エムエーコンサルタント,0
697,3220005000788,登記記録の閉鎖等,0,2024-07-17,2024-07-04,宝幢寺,,その他の設立登記法人,石川県,金沢市,幸町８番１３号,,17,201,9200968,,,2024-07-04,清算の結了等,,,2015-10-05,1,,,,,ホウドウジ,0
698,3230002003495,登記記録の閉鎖等,0,2024-07-17,2024-07-10,有限会社水橋商業開発,,有限会社,富山県,富山市,水橋市江４７番地,,16,201,9390531,,,2024-07-10,清算の結了等,,,2015-10-05,1,,,,,ミズハシショウギョウカイハツ,0
699,3240001033261,登記記録の閉鎖等,0,2024-07-17,2024-07-10,株式会社夢笛,,株式会社,広島県,福山市,霞町１丁目５番２号,,34,207,7200812,,,2024-07-10,清算の結了等,,,2015-10-05,1,,,,,ムテキ,0
709,3300002007613,登記記録の閉鎖等,0,2024-07-17,2024-07-09,有限会社朝野武道具,,有限会社,佐賀県,伊万里市,伊万里町甲１２５番地,,41,205,8480047,,,2024-07-09,清算の結了等,,,2015-10-05,1,,,,,アサノブドウグ,0
728,3370601003213,登記記録の閉鎖等,0,2024-07-17,2024-07-01,たかはし外構株式会社,,株式会社,宮城県,塩竈市,袖野田町２２番１７号,,04,203,9850043,,,2024-07-01,清算の結了等,,,2015-10-05,1,,,,,タカハシガイコウ,0
737,3400002004055,登記記録の閉鎖等,0,2024-07-17,2024-07-01,有限会社鳶釜石組,,有限会社,岩手県,滝沢市,木賊川４１０番５,,03,216,0200616,,,2024-07-01,清算の結了等,,,2015-10-05,1,,,,,トビカマイシグミ,0
738,3410001001028,登記記録の閉鎖等,0,2024-07-17,2024-07-05,株式会社粂川クリーニング工場,,株式会社,秋田県,秋田市,飯島道東１丁目８番１４号,,05,201,0110917,,,2024-07-05,合併による解散等,7130001037872,令和６年７月１日京都府綴喜郡井手町大字多賀小字茶臼塚１２番地の２ワタキューセイモア株式会社（7130001037872）に合併し解散,2015-10-05,1,,,,,クメカワクリーニングコウジョウ,0
739,3410001009450,登記記録の閉鎖等,0,2024-07-17,2024-07-01,株式会社アジマックスランド,,株式会社,秋田県,秋田市,大町３丁目２番３０号,,05,201,0100921,,,2024-07-01,合併による解散等,1410001001987,令和６年７月１日秋田市大町三丁目２番３０号株式会社アジマックス（1410001001987）に合併し解散,2015-10-05,1,,,,,アジマックスランド,0
742,3420001011216,登記記録の閉鎖等,0,2024-07-17,2024-07-05,松橋株式会社,,株式会社,青森県,十和田市,西二番町２番１５号,,02,206,0340082,,,2024-07-05,清算の結了等,,,2015-10-05,1,,,,,マツハシ,0
753,3480002008346,登記記録の閉鎖等,0,2024-07-17,2024-07-12,有限会社Ｐｏｌａｒｉｓ,,有限会社,徳島県,徳島市,城南町３丁目１番２３号,,36,201,7708064,,,2024-07-12,清算の結了等,,,2015-10-05,1,,,,,ポラリス,0
771,4010401095114,登記記録の閉鎖等,0,2024-07-17,2024-07-01,株式会社Ｈｉｇｈ　＆　Ｈｉｇｈ,,株式会社,東京都,港区,六本木３丁目５番２７号,,13,103,1060032,,,2024-07-01,合併による解散等,5010001185347,令和６年７月１日東京都港区六本木三丁目５番２７号株式会社サン・スマイル（5010001185347）に合併し解散,2015-10-05,1,,,,,ハイアンドハイ,0
772,4010403023403,登記記録の閉鎖等,0,2024-07-17,2024-06-28,栗原太陽光発電合同会社,,合同会社,東京都,港区,虎ノ門３丁目２２番１０－２０１号,,13,103,1050001,,,2024-06-28,清算の結了等,,,2020-08-04,1,,,,,クリハラタイヨウコウハツデン,0
773,4010403026760,登記記録の閉鎖等,0,2024-07-17,2024-07-01,合同会社ＵＣ加島１,,合同会社,東京都,港区,虎ノ門５丁目１番４号,,13,103,1050001,,,2024-07-01,清算の結了等,,,2021-12-23,1,,,,,ユーシーカシマワン,0
807,4011402017692,登記記録の閉鎖等,0,2024-07-17,2024-07-08,有限会社創造計画,,有限会社,東京都,板橋区,赤塚４丁目３番１号,00066401,13,119,1750092,,,2024-07-08,清算の結了等,,,2015-10-05,1,,,,,ソウゾウケイカク,0
812,4012402014861,登記記録の閉鎖等,0,2024-07-17,2024-07-16,有限会社東方工業,,有限会社,東京都,狛江市,東野川３丁目１１番１８号,,13,219,2010002,,,2024-07-16,清算の結了等,,,2015-10-05,1,,,,,トウホウコウギョウ,0
815,4020001076851,登記記録の閉鎖等,0,2024-07-17,2024-07-01,株式会社トノマチ,,株式会社,神奈川県,川崎市川崎区,中瀬３丁目１４番１１－３０３号,,14,131,2100818,,,2024-07-01,清算の結了等,,,2015-10-05,1,,,,,トノマチ,0
819,4020002007153,登記記録の閉鎖等,0,2024-07-17,2024-06-28,有限会社武藤工務店,,有限会社,神奈川県,横浜市都筑区,川和町２３３１番地２,,14,118,2240057,,,2024-06-28,清算の結了等,,,2015-10-05,1,,,,,ムトウコウムテン,0
824,4021001052280,登記記録の閉鎖等,0,2024-07-17,2024-07-12,株式会社ソディック,,株式会社,神奈川県,相模原市南区,相南４丁目２４番５４号,,14,153,2520312,,,2024-07-12,清算の結了等,,,2015-10-05,1,,,,,ソディック,0
831,4021002021202,登記記録の閉鎖等,0,2024-07-17,2024-07-12,有限会社秀教材,,有限会社,神奈川県,相模原市南区,相模台７丁目３２番２３号,,14,153,2520321,,,2024-07-12,清算の結了等,,,2015-10-05,1,,,,,シュウキョウザイ,0
834,4030001071232,登記記録の閉鎖等,0,2024-07-17,2024-07-10,株式会社アイシステム,,株式会社,埼玉県,比企郡滑川町,大字福田５８９番地１,,11,341,3550803,,,2024-07-10,清算の結了等,,,2015-10-05,1,,,,,アイシステム,0
840,4030002084233,登記記録の閉鎖等,0,2024-07-17,2024-07-09,有限会社ＦＰＣ,,有限会社,埼玉県,北本市,緑２丁目１９４番地,,11,233,3640032,,,2024-07-09,清算の結了等,,,2015-10-05,1,,,,,エフピーシー,0
851,4040005020721,登記記録の閉鎖等,0,2024-07-17,2024-07-02,さくら国際協同組合,,その他の設立登記法人,千葉県,佐倉市,田町２１２番地,,12,212,2850012,,,2024-07-02,清算の結了等,,,2020-02-25,1,,,,,サクラコクサイ,0
860,4070001022719,登記記録の閉鎖等,0,2024-07-17,2024-07-10,株式会社日本グランド,,株式会社,群馬県,邑楽郡千代田町,大字赤岩１８１４－１,,10,523,3700503,,,2024-07-10,清算の結了等,,,2015-10-05,1,,,,,ニホングランド,0
862,4070001036388,登記記録の閉鎖等,0,2024-07-17,2024-07-11,株式会社みようがの里,,株式会社,群馬県,吾妻郡東吾妻町,大字萩生１８６８番地６,,10,429,3770932,,,2024-07-11,清算の結了等,,,2019-12-12,1,,,,,ミヨウガノサト,0
869,4080405006151,登記記録の閉鎖等,0,2024-07-17,2024-07-03,特定非営利活動法人ブライツ,,その他の設立登記法人,静岡県,袋井市,堀越２丁目１２番地の１,,22,216,4370065,,,2024-07-03,清算の結了等,,,2015-10-05,1,,,,,ブライツ,0
880,4120001030237,登記記録の閉鎖等,0,2024-07-17,2024-07-08,旭金属熱錬株式会社,,株式会社,大阪府,大阪市住之江区,中加賀屋３丁目１３番４号,,27,125,5590017,,,2024-07-08,清算の結了等,,,2015-10-05,1,,,,,,0
903,4120103003677,登記記録の閉鎖等,0,2024-07-17,2024-07-12,合同会社ＴｒｉＯ,,合同会社,大阪府,泉大津市,旭町２３番５６－５号,,27,206,5950025,,,2024-07-12,清算の結了等,,,2020-04-27,1,,,,,トリオ,0
924,4180001035627,登記記録の閉鎖等,0,2024-07-17,2024-06-25,呉羽産業株式会社,,株式会社,愛知県,名古屋市緑区,鳴子町２丁目１３７番地の２,,23,114,4580041,,,2024-06-25,清算の結了等,,,2015-10-05,1,,,,,クレハサンギョウ,0
951,4180005016895,登記記録の閉鎖等,0,2024-07-17,2024-07-02,一般社団法人エンジェルフラワー,,その他の設立登記法人,愛知県,津島市,本町１丁目４８番地,,23,208,4960805,,,2024-07-02,清算の結了等,,,2016-08-18,1,,,,,エンジェルフラワー,0
953,4190002001503,登記記録の閉鎖等,0,2024-07-17,2024-07-12,有限会社丸和整備,,有限会社,三重県,津市,白塚町４４８７番地,,24,201,5140101,,,2024-07-12,清算の結了等,,,2015-10-05,1,,,,,マルワセイビ,0
954,4190002020296,登記記録の閉鎖等,0,2024-07-17,2024-07-10,有限会社阪本技建,,有限会社,三重県,四日市市,万古町７番１３号,,24,202,5100804,,,2024-07-10,清算の結了等,,,2015-10-05,1,,,,,サカモトギケン,0
974,4290001072097,登記記録の閉鎖等,0,2024-07-17,2024-06-17,白澤株式会社,,株式会社,福岡県,福岡市中央区,春吉１丁目１６番８－４０１号,,40,133,8100003,,,2024-06-17,清算の結了等,,,2015-12-02,1,,,,,ハクタク,0
982,4300005002718,登記記録の閉鎖等,0,2024-07-17,2024-07-09,特定非営利活動法人訪問看護ステーション陽だまり,,その他の設立登記法人,佐賀県,佐賀市,鍋島町大字八戸３１３８番地山田ビル１０２号,,41,201,8400857,,,2024-07-09,清算の結了等,,,2015-10-05,1,,,,,ホウモンカンゴステーションヒダマリ,0
991,4350002007161,登記記録の閉鎖等,0,2024-07-17,2024-07-04,有限会社ナカノオートサービス,,有限会社,宮崎県,東諸県郡国富町,大字木脇５２９７番地１,,45,382,8801113,,,2024-07-04,清算の結了等,,,2015-10-05,1,,,,,ナカノオートサービス,0
998,4370005001845,登記記録の閉鎖等,0,2024-07-17,2024-07-01,特定非営利活動法人宮城県不動産コンサルティング協会,,その他の設立登記法人,宮城県,仙台市青葉区,柏木１丁目２番４０号,,04,101,9810933,,,2024-07-01,清算の結了等,,,2015-10-05,1,,,,,ミヤギケンフドウサンコンサルティングキョウカイ,0
1001,4370202000121,登記記録の閉鎖等,0,2024-07-17,2024-06-28,有限会社エルエ設備,,有限会社,宮城県,遠田郡美里町,関根字道明５１番地,,04,505,9870006,,,2024-06-28,清算の結了等,,,2015-10-05,1,,,,,エルエセツビ,0
1007,4410001013006,登記記録の閉鎖等,0,2024-07-17,2024-07-01,株式会社ＭＩＵＲＡＹＡ,,株式会社,秋田県,大仙市,大曲西根字鳥居１９４番地,,05,212,0140072,,,2024-07-01,合併による解散等,4410001012131,令和６年７月１日秋田県大仙市花館字鶴田７８番地１０株式会社カンタンソ（4410001012131）に合併し解散,2021-11-04,1,,,,,ミウラヤ,0
1018,4460103001119,登記記録の閉鎖等,0,2024-07-17,2024-07-12,合同会社夢,,合同会社,北海道,帯広市,東十三条南２丁目１番地２,,01,207,0800813,,,2024-07-12,清算の結了等,,,2018-02-23,1,,,,,ユメ,0
1027,4500005003571,登記記録の閉鎖等,0,2024-07-17,2024-07-08,三崎漁業協同組合,,その他の設立登記法人,愛媛県,西宇和郡伊方町,串４２番地,,38,442,7960822,,,2024-07-08,清算の結了等,,,2015-10-05,1,,,,,ミサキ,0
1036,5010001007402,登記記録の閉鎖等,0,2024-07-17,2024-07-10,文永堂薬品株式会社,,株式会社,東京都,文京区,本郷２丁目２７番１８号,,13,105,1130033,,,2024-07-10,合併による解散等,9050001011867,令和６年７月１日茨城県小美玉市上合前野台１１６６番地文永堂製薬株式会社（9050001011867）に合併し解散,2015-10-05,1,,,,,ブンエイドウヤクヒン,0
1042,5010001198811,登記記録の閉鎖等,0,2024-07-17,2024-07-02,グローバルテクノロジー宮崎株式会社,,株式会社,東京都,中央区,日本橋本町４丁目８番１５号,,13,102,1030023,,,2024-07-02,合併による解散等,8010001168679,令和６年７月１日東京都中央区日本橋本町四丁目８番１５号株式会社はばたーく（8010001168679）に合併し解散,2019-02-27,1,,,,,グローバルテクノロジーミヤザキ,0
1053,5010401003389,登記記録の閉鎖等,0,2024-07-17,2024-07-01,株式会社野口医学研究所,,株式会社,東京都,港区,虎ノ門１丁目１２番９号,,13,103,1050001,,,2024-07-01,合併による解散等,5010401174296,令和６年７月１日東京都港区虎ノ門一丁目１２番９号株式会社野口医学研究所（5010401174296）に合併し解散,2015-10-05,1,,,,,ノグチイガクケンキュウショ,0
1070,5010405012007,登記記録の閉鎖等,0,2024-07-17,2024-07-01,一般財団法人日本戦略支援機構,,その他の設立登記法人,東京都,港区,北青山１丁目２番３号,,13,103,1070061,,,2024-07-01,清算の結了等,,,2015-10-05,1,,,,,ニホンセンリャクシエンキコウ,0
1091,5011103010764,登記記録の閉鎖等,0,2024-07-17,2024-07-04,合同会社ジェイ・ヴイ・ユー,,合同会社,東京都,新宿区,下宮比町１番４号,,13,104,1620822,,,2024-07-04,清算の結了等,,,2021-06-16,1,,,,,ジェイヴイユー,0
1110,5020001027606,登記記録の閉鎖等,0,2024-07-17,2024-07-01,株式会社チエリー商会,,株式会社,神奈川県,横浜市中区,元町２丁目８２番地,,14,104,2310861,,,2024-07-01,清算の結了等,,,2015-10-05,1,,,,,チエリーショウカイ,0
1111,5020001092963,登記記録の閉鎖等,0,2024-07-17,2024-06-28,株式会社南生田,,株式会社,神奈川県,川崎市多摩区,南生田４丁目１１番８号,,14,135,2140036,,,2024-06-28,清算の結了等,,,2015-10-05,1,,,,,ミナミイクタ,0
1112,5020001126399,登記記録の閉鎖等,0,2024-07-17,2024-06-28,株式会社ａｍ’ｓ　ｓｔｙｌｅ,,株式会社,神奈川県,横浜市都筑区,早渕１丁目４番９号,,14,118,2240025,,,2024-06-28,清算の結了等,,,2018-05-23,1,,,,,アムズスタイル,0
1115,5020002079753,登記記録の閉鎖等,0,2024-07-17,2024-06-28,有限会社アスカ企画,,有限会社,神奈川県,横浜市中区,長者町４丁目１１番地１１,,14,104,2310033,,,2024-06-28,清算の結了等,,,2015-10-05,1,,,,,アスカキカク,0
1118,5021002045836,登記記録の閉鎖等,0,2024-07-17,2024-07-12,有限会社渡辺電気工事,,有限会社,神奈川県,海老名市,上今泉５丁目３３番１７号神後谷ハウスＢ,,14,215,2430431,,,2024-07-12,清算の結了等,,,2015-10-05,1,,,,,ワタナベデンキコウジ,0
1151,5080402020039,登記記録の閉鎖等,0,2024-07-17,2024-07-16,有限会社渡辺製作所,,有限会社,静岡県,磐田市,中野４５７番地の１,,22,211,4380053,,,2024-07-16,清算の結了等,,,2024-07-02,1,,,,,ワタナベセイサクショ,0
1162,5120001058203,登記記録の閉鎖等,0,2024-07-17,2024-07-12,株式会社ブルート・プラニング,,株式会社,大阪府,大阪市淀川区,西宮原１丁目７番２７号,,27,123,5320004,,,2024-07-12,清算の結了等,,,2015-10-05,1,,,,,ブルートプラニング,0
1164,5120001133617,登記記録の閉鎖等,0,2024-07-17,2024-07-12,株式会社オプスデザイン,,株式会社,大阪府,大阪市中央区,南船場２丁目３番１７号,,27,128,5420081,,,2024-07-12,清算の結了等,,,2015-10-05,1,,,,,オプスデザイン,0
1184,5130001026588,登記記録の閉鎖等,0,2024-07-17,2024-07-08,エコパッケージ株式会社,,株式会社,京都府,京都市伏見区,羽束師古川町２９３番地２,,26,109,6128486,,,2024-07-08,清算の結了等,,,2015-10-05,1,,,,,エコパッケージ,0
1207,5180001136746,登記記録の閉鎖等,0,2024-07-17,2024-07-01,株式会社３Ｒ,,株式会社,愛知県,小牧市,大字北外山２３００番地３３,,23,219,4850023,,,2024-07-01,清算の結了等,,,2019-05-30,1,,,,,スリーアール,0
1211,5180002015809,登記記録の閉鎖等,0,2024-07-17,2024-07-01,有限会社ケー・ホッタ・アンド・カンパニー,,有限会社,愛知県,名古屋市守山区,大字中志段味字南原２６８５番地の２０５,,23,113,4630002,,,2024-07-01,清算の結了等,,,2015-10-05,1,,,,,ケーホッタアンドカンパニー,0
1212,5180002031426,登記記録の閉鎖等,0,2024-07-17,2024-07-03,有限会社センゴー,,有限会社,愛知県,名古屋市中区,新栄３丁目５番５号,,23,106,4600007,,,2024-07-03,清算の結了等,,,2015-10-05,1,,,,,センゴー,0
1219,5180302025276,登記記録の閉鎖等,0,2024-07-17,2024-07-03,有限会社東名測量設計,,有限会社,愛知県,豊田市,西中山町又吉洞１番２,,23,211,4700431,,,2024-07-03,清算の結了等,,,2015-10-05,1,,,,,トウメイソクリョウセッケイ,0
1221,5190002018538,登記記録の閉鎖等,0,2024-07-17,2024-07-12,有限会社加藤軽合金,,有限会社,三重県,桑名市,大字東方１６１番地２,,24,205,5110811,,,2024-07-12,清算の結了等,,,2015-10-05,1,,,,,カトウケイゴウキン,0
1227,5220001009781,登記記録の閉鎖等,0,2024-07-17,2024-07-10,株式会社栄進工業,,株式会社,石川県,金沢市,粟崎町５丁目７番地２４,,17,201,9200226,,,2024-07-10,清算の結了等,,,2015-10-05,1,,,,,エイシンコウギョウ,0
1233,5270002006352,登記記録の閉鎖等,0,2024-07-17,2024-07-12,有限会社タジミ,,有限会社,鳥取県,米子市,花園町１０４番地４,,31,202,6830836,,,2024-07-12,清算の結了等,,,2015-10-05,1,,,,,タジミ,0
1241,5290002031530,登記記録の閉鎖等,0,2024-07-17,2024-06-18,有限会社ｌｏｉｄ,,有限会社,福岡県,福岡市中央区,平尾浄水町９番５－３０２号,,40,133,8100029,,,2024-06-18,清算の結了等,,,2015-10-05,1,,,,,ロイド,0
1254,5370001020963,登記記録の閉鎖等,0,2024-07-17,2024-07-10,太陽工業ジオテクノサービス株式会社,,株式会社,大阪府,大阪市淀川区,木川東４丁目８番４号,,27,123,5320012,,,2024-07-10,合併による解散等,9120001056632,令和６年７月１日大阪市淀川区木川東四丁目８番４号太陽工業株式会社（9120001056632）に合併し解散,2015-10-05,1,,,,,タイヨウコウギョウジオテクノサービス,0
1255,5370002005237,登記記録の閉鎖等,0,2024-07-17,2024-07-01,有限会社シンセイ建機,,有限会社,宮城県,仙台市若林区,木ノ下５丁目５番５号,,04,103,9840047,,,2024-07-01,清算の結了等,,,2015-10-05,1,,,,,シンセイケンキ,0
1263,5410001004243,登記記録の閉鎖等,0,2024-07-17,2024-07-01,株式会社中小企業活性化サポート,,株式会社,秋田県,秋田市,卸町１丁目３番２号秋ト協ビル２Ｆ,,05,201,0100061,,,2024-07-01,清算の結了等,,,2015-10-05,1,,,,,チュウショウキギョウカッセイカサポート,0
1272,5490001007115,登記記録の閉鎖等,0,2024-07-17,2024-07-08,株式会社ミヤマ,,株式会社,高知県,高知市,知寄町２丁目２番７号株式会社玉井４階,,39,201,7810806,,,2024-07-08,清算の結了等,,,2015-10-05,1,,,,,ミヤマ,0
1308,6010403026932,登記記録の閉鎖等,0,2024-07-17,2024-07-01,合同会社ＵＣ日本橋,,合同会社,東京都,港区,虎ノ門５丁目１番４号,,13,103,1050001,,,2024-07-01,清算の結了等,,,2022-01-21,1,,,,,ユーシーニッポンバシ,0
1332,6011001141173,登記記録の閉鎖等,0,2024-07-17,2024-07-12,フォーシェア株式会社,,株式会社,東京都,港区,東麻布２丁目２６番５号リブスイースト麻布５０３号,,13,103,1060044,,,2024-07-12,清算の結了等,,,2021-06-18,1,,,,,フォーシェア,0
1347,6011301002034,登記記録の閉鎖等,0,2024-07-17,2024-07-08,クノーテクノクラフト株式会社,,株式会社,東京都,杉並区,堀ノ内３丁目３６番１３号,,13,115,1660013,,,2024-07-08,清算の結了等,,,2015-10-05,1,,,,,クノーテクノクラフト,0
1349,6011401003221,登記記録の閉鎖等,0,2024-07-17,2024-07-08,株式会社ショッピング関口,,株式会社,東京都,板橋区,蓮沼町３２番３号,00054724,13,119,1740052,,,2024-07-08,清算の結了等,,,2015-10-05,1,,,,,ショッビングセキグチ,0
1383,6040001103734,登記記録の閉鎖等,0,2024-07-17,2024-06-20,株式会社ＭＹＣ,,株式会社,千葉県,千葉市緑区,平山町１０４９－１７６,,12,105,2660002,,,2024-06-20,合併による解散等,1040002016816,令和６年５月３１日千葉県千葉市緑区平山町１０４９－１７６株式会社丸義（1040002016816）に合併し解散,2018-03-02,1,,,,,エムワイシー,0
1386,6040002010054,登記記録の閉鎖等,0,2024-07-17,2024-07-02,有限会社フジタ食品,,有限会社,千葉県,千葉市稲毛区,六方町９番地の３,,12,103,2630004,,,2024-07-02,清算の結了等,,,2015-10-05,1,,,,,フジタショクヒン,0
1387,6040002050694,登記記録の閉鎖等,0,2024-07-17,2024-07-01,有限会社パーク,,有限会社,千葉県,流山市,名都借１１８３番地６,,12,220,2700145,,,2024-07-01,清算の結了等,,,2015-10-05,1,,,,,パーク,0
1390,6040002088041,登記記録の閉鎖等,0,2024-07-17,2024-07-02,有限会社太田屋商店,,有限会社,千葉県,香取市,竹之内４５２番地,,12,236,2890405,,,2024-07-02,清算の結了等,,,2015-10-05,1,,,,,オオタヤショウテン,0
1399,6060003003261,登記記録の閉鎖等,0,2024-07-17,2024-07-01,ＢＥＳＴＬＡ合同会社,,合同会社,栃木県,大田原市,下石上１６６３番地３,,09,210,3240036,,,2024-07-01,清算の結了等,,,2020-01-22,1,,,,,ベストラ,0
1409,6080002017962,登記記録の閉鎖等,0,2024-07-17,2024-06-27,藤菱電興有限会社,,有限会社,静岡県,藤枝市,下之郷字吉添１６０６番地の２,,22,214,4260203,,,2024-06-27,清算の結了等,,,2015-10-05,1,,,,,フジビシデンコウ,0
1416,6120001037387,登記記録の閉鎖等,0,2024-07-17,2024-07-12,株式会社ウエダ商事,,株式会社,大阪府,大阪市浪速区,大国３丁目１２番１８号,,27,111,5560014,,,2024-07-12,清算の結了等,,,2015-10-05,1,,,,,ウエダショウジ,0
1425,6120001242053,登記記録の閉鎖等,0,2024-07-17,2024-07-10,株式会社ＴＩＰ,,株式会社,東京都,杉並区,阿佐谷北２丁目３６番１－４０２号キングダム阿佐谷,,13,115,1660001,,,2024-07-10,清算の結了等,,,2021-11-26,1,,,,,ティップ,0
1434,6120002064686,登記記録の閉鎖等,0,2024-07-17,2024-07-08,有限会社コーヨーハウス,,有限会社,大阪府,大阪市東住吉区,駒川３丁目２８番７号,,27,121,5460043,,,2024-07-08,清算の結了等,,,2015-10-05,1,,,,,,0
1435,6120002074306,登記記録の閉鎖等,0,2024-07-17,2024-07-11,有限会社新和緑化,,有限会社,大阪府,枚方市,野村元町２２番１０号,,27,210,5730132,,,2024-07-11,清算の結了等,,,2015-10-05,1,,,,,,0
1445,6122001028234,登記記録の閉鎖等,0,2024-07-17,2024-07-12,株式会社リファイン,,株式会社,大阪府,大阪市北区,東天満２丁目９番４号,,27,127,5300044,,,2024-07-12,清算の結了等,,,2015-10-05,1,,,,,リファイン,0
1462,6150001024069,登記記録の閉鎖等,0,2024-07-17,2024-07-16,Ｎ　ＳＥＬＥＣＴ株式会社,,株式会社,奈良県,奈良市,宝来４丁目１７番１３号,,29,201,6310845,,,2024-07-16,清算の結了等,,,2020-09-23,1,,,,,エヌセレクト,0
1477,6180001100503,登記記録の閉鎖等,0,2024-07-17,2024-07-01,トラスティアール株式会社,,株式会社,愛知県,名古屋市中川区,尾頭橋３丁目３番２９号,,23,110,4540012,,,2024-07-01,清算の結了等,,,2015-10-05,1,,,,,トラスティアール,0
1489,6180302002448,登記記録の閉鎖等,0,2024-07-17,2024-07-03,有限会社ビジテック,,有限会社,愛知県,岡崎市,上地２丁目２３番地１９,,23,202,4440823,,,2024-07-03,清算の結了等,,,2015-10-05,1,,,,,ビジテック,0
1493,6200001041661,登記記録の閉鎖等,0,2024-07-17,2024-07-11,株式会社ＲｉＮＵＸ,,株式会社,岐阜県,大垣市,新開町９５番地１パティオＢ２０３,,21,202,5030004,,,2024-07-11,清算の結了等,,,2023-09-04,1,,,,,リナックス,0
1499,6220001012529,登記記録の閉鎖等,0,2024-07-17,2024-07-08,谷敷ニット株式会社,,株式会社,石川県,小松市,下粟津町ロ８４番地,,17,203,9230304,,,2024-07-08,清算の結了等,,,2015-10-05,1,,,,,ヤシキニット,0
1503,6230001016322,登記記録の閉鎖等,0,2024-07-17,2024-07-11,株式会社ディコネクト,,株式会社,富山県,富山市,金山新中３５９番地,,16,201,9302206,,,2024-07-11,清算の結了等,,,2016-02-22,1,,,,,ディコネクト,0
1504,6230001018797,登記記録の閉鎖等,0,2024-07-17,2024-07-11,株式会社Ｊ・ＶＥＧＥ,,株式会社,富山県,射水市,稲積５２番地２８,,16,211,9390301,,,2024-07-11,清算の結了等,,,2021-04-27,1,,,,,ジェイベジ,0
1511,6260001018571,登記記録の閉鎖等,0,2024-07-17,2024-07-01,両備高速観光株式会社,,株式会社,岡山県,浅口市,金光町占見新田１４８番地１,,33,216,7190104,,,2024-07-01,合併による解散等,9260001017991,令和６年６月３０日岡山県浅口市鴨方町鴨方２０８８番地の１両備高速株式会社（9260001017991）に合併し解散,2015-10-05,1,,,,,リョウビコウソクカンコウ,0
1513,6260002026631,登記記録の閉鎖等,0,2024-07-17,2024-07-01,ＲＫタクシー有限会社,,有限会社,岡山県,浅口市,金光町占見新田１４８番地１,,33,216,7190104,,,2024-07-01,合併による解散等,9260001017991,令和６年６月３０日岡山県浅口市鴨方町鴨方２０８８番地の１両備高速株式会社（9260001017991）に合併し解散,2015-10-05,1,,,,,アールケイタクシー,0
1527,6290802024328,登記記録の閉鎖等,0,2024-07-17,2024-06-28,有限会社仲村鉄工,,有限会社,福岡県,田川市,大字川宮１４０番地の６,,40,206,8260042,,,2024-06-28,清算の結了等,,,2015-10-05,1,,,,,ナカムラテッコウ,0
1534,6340002005437,登記記録の閉鎖等,0,2024-07-17,2024-07-05,有限会社ゼロ設計,,有限会社,鹿児島県,鹿児島市,明和４丁目７番１０号,,46,201,8900024,,,2024-07-05,清算の結了等,,,2015-10-05,1,,,,,ゼロセッケイ,0
1545,6370001024757,登記記録の閉鎖等,0,2024-07-17,2024-07-03,フコク資材株式会社,,株式会社,宮城県,仙台市青葉区,本町１丁目１３番２２号仙台松村ビル７階,,04,101,9800014,,,2024-07-03,清算の結了等,,,2015-10-05,1,,,,,フコクシザイ,0
1570,6430005008295,登記記録の閉鎖等,0,2024-07-17,2024-07-10,特定非営利活動法人赤井川観光協会,,その他の設立登記法人,北海道,余市郡赤井川村,字赤井川８３番地,,01,409,0460501,,,2024-07-10,清算の結了等,,,2015-10-05,1,,,,,アカイガワカンコウキョウカイ,0
1577,6500002013695,登記記録の閉鎖等,0,2024-07-17,2024-07-05,有限会社八幡浜丸三,,有限会社,愛媛県,八幡浜市,松柏乙１０１３番地１,,38,204,7960010,,,2024-07-05,清算の結了等,,,2015-10-05,1,,,,,ヤワタハママルサン,0
1584,7010001215242,登記記録の閉鎖等,0,2024-07-17,2024-07-02,株式会社アクセス,,株式会社,東京都,中央区,銀座７丁目５－４毛利ビル５Ｆ,,13,102,1040061,,,2024-07-02,清算の結了等,,,2021-01-21,1,,,,,アクセス,0
1591,7010102001599,登記記録の閉鎖等,0,2024-07-17,2024-07-16,有限会社小沢鉄工所,,有限会社,東京都,八王子市,中野上町２丁目２７番１３号,,13,201,1920041,,,2024-07-16,清算の結了等,,,2015-10-05,1,,,,,オザワテッコウジョ,0
1593,7010401050248,登記記録の閉鎖等,0,2024-07-17,2024-07-01,株式会社聰合企画,00050708,株式会社,東京都,港区,六本木３丁目７番１－２６０８号,,13,103,1060032,,,2024-07-01,清算の結了等,,,2015-10-05,1,,,,,ソウゴウキカク,0
1597,7010403026931,登記記録の閉鎖等,0,2024-07-17,2024-07-01,合同会社ＵＣ江坂,,合同会社,東京都,港区,虎ノ門５丁目１番４号,,13,103,1050001,,,2024-07-01,清算の結了等,,,2022-01-21,1,,,,,ユーシーエサカ,0
1621,7011103011190,登記記録の閉鎖等,0,2024-07-17,2024-07-04,ミナミケイソク合同会社,,合同会社,東京都,新宿区,高田馬場４丁目１８番９号－４０７,,13,104,1690075,,,2024-07-04,清算の結了等,,,2021-11-22,1,,,,,ミナミケイソク,0
1631,7011602023109,登記記録の閉鎖等,0,2024-07-17,2024-07-08,有限会社ハマダ設備工業,,有限会社,東京都,練馬区,北町２丁目２９番１９号,,13,120,1790081,,,2024-07-08,清算の結了等,,,2015-10-05,1,,,,,ハマダセツビコウギョウ,0
1651,7030001056263,登記記録の閉鎖等,0,2024-07-17,2024-07-11,あぜくら産業株式会社,,株式会社,埼玉県,川越市,大字府川１２９６番地２,,11,201,3500831,,,2024-07-11,合併による解散等,1120001077529,令和６年７月１日大阪市中央区南本町四丁目１番１号淀鋼商事株式会社（1120001077529）に合併し解散,2015-10-05,1,,,,,アゼクラサンギョウ,0
1671,7070001026403,登記記録の閉鎖等,0,2024-07-17,2024-07-08,株式会社建築企画トラスト,,株式会社,群馬県,前橋市,飯土井町８３３番地,,10,201,3792111,,,2024-07-08,清算の結了等,,,2015-10-05,1,,,,,ケンチクキカクトラスト,0
1686,7100003006812,登記記録の閉鎖等,0,2024-07-17,2024-06-11,合同会社ＨＴＭ,,合同会社,長野県,長野市,大字鶴賀緑町１６２９番地１,,20,201,3800813,,,2024-06-11,清算の結了等,,,2022-12-09,1,,,,,エイチティーエム,0
1689,7120001014187,登記記録の閉鎖等,0,2024-07-17,2024-07-11,株式会社アサヒ建材,,株式会社,大阪府,大阪市城東区,新喜多東２丁目３番２８号,,27,118,5360017,,,2024-07-11,清算の結了等,,,2015-10-05,1,,,,,,0
1690,7120001042576,登記記録の閉鎖等,0,2024-07-17,2024-07-11,株式会社北村神鳴堂薬局,,株式会社,大阪府,大阪市西区,北堀江４丁目２番２４－１４１０号,,27,106,5500014,,,2024-07-11,清算の結了等,,,2015-10-05,1,,,,,キタムラシンメイドウヤッキョク,0
1691,7120001185292,登記記録の閉鎖等,0,2024-07-17,2024-07-08,株式会社アゴスト,,株式会社,大阪府,大阪市住之江区,粉浜西２丁目９番４号,,27,125,5590007,,,2024-07-08,清算の結了等,,,2015-10-05,1,,,,,アゴスト,0
1692,7120001187347,登記記録の閉鎖等,0,2024-07-17,2024-07-08,株式会社ピースマイル,,株式会社,大阪府,大阪市平野区,加美北３丁目６番１６号,,27,126,5470001,,,2024-07-08,清算の結了等,,,2015-10-05,1,,,,,ピースマイル,0
1695,7120001213037,登記記録の閉鎖等,0,2024-07-17,2024-07-10,ＤＦＬプロパティ株式会社,,株式会社,大阪府,大阪市中央区,伏見町４丁目１番１号,,27,128,5410044,,,2024-07-10,合併による解散等,7030001012506,令和６年７月１日東京都千代田区神田美土代町９番地１アール・エル・パートナーズ株式会社（7030001012506）に合併し解散,2018-04-27,1,,,,,ディーエフエルプロパティ,0
1703,7120002038870,登記記録の閉鎖等,0,2024-07-17,2024-07-12,有限会社ミランダ,,有限会社,大阪府,大阪市中央区,南船場２丁目３番１７号,,27,128,5420081,,,2024-07-12,清算の結了等,,,2015-10-05,1,,,,,,0
1724,7130002006091,登記記録の閉鎖等,0,2024-07-17,2024-07-05,有限会社ベーカリー柳月堂,,有限会社,京都府,京都市左京区,田中下柳町５番地,,26,103,6068204,,,2024-07-05,清算の結了等,,,2015-10-05,1,,,,,ベーカリーリュウゲツドウ,0
1725,7140001066409,登記記録の閉鎖等,0,2024-07-17,2024-07-10,三田忠石株式会社,,株式会社,兵庫県,三田市,三田町５２番１２号,,28,219,6691533,,,2024-07-10,清算の結了等,,,2015-10-05,1,,,,,サンダチュウセキ,0
1727,7140001103343,登記記録の閉鎖等,0,2024-07-17,2024-07-03,味蔵たんとう株式会社,,株式会社,兵庫県,豊岡市,但東町佐田５２６番地,,28,209,6680364,,,2024-07-03,清算の結了等,,,2016-09-09,1,,,,,アジクラタントウ,0
1753,7200001003719,登記記録の閉鎖等,0,2024-07-17,2024-07-12,株式会社図書館実務代行機構,,株式会社,岐阜県,岐阜市,野一色６丁目１１番４号,,21,201,5008226,,,2024-07-12,清算の結了等,,,2015-10-05,1,,,,,トショカンジツムダイコウキコウ,0
1785,7330005008453,登記記録の閉鎖等,0,2024-07-17,2024-07-02,ＮＰＯ法人ヒーリング,,その他の設立登記法人,熊本県,合志市,豊岡１９００－１７８,,43,216,8611115,,,2024-07-02,清算の結了等,,,2015-10-05,1,,,,,ヒーリング,0
1796,7380002019473,登記記録の閉鎖等,0,2024-07-17,2024-07-08,有限会社熊田商店,,有限会社,福島県,西白河郡矢吹町,中町１１３番地,,07,466,9690221,,,2024-07-08,清算の結了等,,,2015-10-05,1,,,,,クマダショウテン,0
1814,7470001003163,登記記録の閉鎖等,0,2024-07-17,2024-07-10,株式会社日本総合ビジネス,,株式会社,香川県,高松市,伏石町１３９９番地６,,37,201,7618071,,,2024-07-10,清算の結了等,,,2015-10-05,1,,,,,ニホンソウゴウビジネス,0
1817,7470002017443,登記記録の閉鎖等,0,2024-07-17,2024-07-08,有限会社エーシーワークス,,有限会社,香川県,三豊市,高瀬町比地２２６５番地,,37,208,7670004,,,2024-07-08,清算の結了等,,,2015-10-05,1,,,,,エーシーワークス,0
1828,8010001143112,登記記録の閉鎖等,0,2024-07-17,2024-07-02,前橋ビル株式会社,,株式会社,東京都,千代田区,神田小川町２丁目３番地１３,,13,101,1010052,,,2024-07-02,清算の結了等,,,2015-10-05,1,,,,,マエバシビル,0
1848,8010403019488,登記記録の閉鎖等,0,2024-07-17,2024-07-01,合同会社ＤＲ亀戸,,合同会社,東京都,港区,虎ノ門５丁目１番４号,,13,103,1050001,,,2024-07-01,清算の結了等,,,2018-10-11,1,,,,,ディーアールカメイド,0
1855,8010801019874,登記記録の閉鎖等,0,2024-07-17,2024-07-08,株式会社萬作酒蔵,,株式会社,東京都,大田区,大森北１丁目４番１０号駅前共同ビルＢ１,,13,111,1430016,,,2024-07-08,清算の結了等,,,2015-10-05,1,,,,,マンサクシュゾウ,0
1857,8010901011987,登記記録の閉鎖等,0,2024-07-17,2024-07-10,株式会社メイプル,,株式会社,東京都,世田谷区,喜多見６丁目６番１３号,,13,112,1570067,,,2024-07-10,清算の結了等,,,2015-10-05,1,,,,,,0
1868,8011601025360,登記記録の閉鎖等,0,2024-07-17,2024-07-09,株式会社サカシタ,,株式会社,東京都,練馬区,豊玉中３丁目２５番４号,,13,120,1760013,,,2024-07-09,清算の結了等,,,2021-09-01,1,,,,,サカシタ,0
1892,8020003017899,登記記録の閉鎖等,0,2024-07-17,2024-06-28,合同会社ＮｏｖａＧａｔｅ,,合同会社,神奈川県,横浜市青葉区,荏子田２丁目３３番地７１,,14,117,2250005,,,2024-06-28,清算の結了等,,,2020-05-26,1,,,,,ノヴァゲート,0
1900,8021002059271,登記記録の閉鎖等,0,2024-07-17,2024-07-12,有限会社原田電気商会,,有限会社,神奈川県,平塚市,花水台３２番２９号,,14,203,2540824,,,2024-07-12,清算の結了等,,,2015-10-05,1,,,,,ハラダデンキショウカイ,0
1905,8030001100152,登記記録の閉鎖等,0,2024-07-17,2024-07-02,Ｔｒｉｇｇｅｒ株式会社,,株式会社,東京都,千代田区,岩本町３丁目８番１１号,,13,101,1010032,,,2024-07-02,合併による解散等,1011101046616,令和６年７月１日東京都千代田区神田淡路町二丁目１０１番地株式会社ＮＳＤ（1011101046616）に合併し解散,2015-10-05,1,,,,,トリガー,0
1913,8040001103022,登記記録の閉鎖等,0,2024-07-17,2024-07-01,モリタホーム株式会社,,株式会社,千葉県,印旛郡栄町,竜角寺台４丁目１９番１４号,,12,329,2701505,,,2024-07-01,合併による解散等,6040001045852,令和６年６月３０日千葉県富里市日吉台三丁目１２番地３株式会社モリタ・ホーム（6040001045852）に合併し解散,2018-01-09,1,,,,,モリタホーム,0
1918,8060001018549,登記記録の閉鎖等,0,2024-07-17,2024-07-03,株式会社グラン・シャリオ,,株式会社,栃木県,足利市,山川町１１１３番地１２,,09,202,3260021,,,2024-07-03,清算の結了等,,,2015-10-05,1,,,,,グランシャリオ,0
1921,8070001038629,登記記録の閉鎖等,0,2024-07-17,2024-06-07,おみやげ株式会社,,株式会社,群馬県,北群馬郡榛東村,大字新井１９２５番地４,,10,344,3703503,,,2024-06-07,清算の結了等,,,2021-11-22,1,,,,,オミヤゲ,0
1937,8120001044150,登記記録の閉鎖等,0,2024-07-17,2024-07-12,シーアンドジークリエーティブ株式会社,,株式会社,大阪府,大阪市淀川区,西宮原１丁目８－２４新大阪第３ドイビル６Ｆ,,27,123,5320004,,,2024-07-12,清算の結了等,,,2015-10-05,1,,,,,シーアンドジークリエーティブ,0
1964,8130002029331,登記記録の閉鎖等,0,2024-07-17,2024-07-10,有限会社建営工,,有限会社,京都府,亀岡市,南つつじケ丘大葉台１丁目９番１３号,,26,206,6210846,,,2024-07-10,清算の結了等,,,2015-10-05,1,,,,,ケンエイコウ,0
1965,8140001118332,登記記録の閉鎖等,0,2024-07-17,2024-07-03,株式会社ナインデザイン,,株式会社,兵庫県,姫路市,飾磨区妻鹿３３９番地,,28,201,6728031,,,2024-07-03,清算の結了等,,,2020-08-14,1,,,,,ナインデザイン,0
1972,8180001077558,登記記録の閉鎖等,0,2024-07-17,2024-07-02,株式会社松村装建,,株式会社,愛知県,春日井市,中野町１丁目３番地の１４,,23,206,4860957,,,2024-07-02,清算の結了等,,,2015-10-05,1,,,,,マツムラソウケン,0
1974,8180001082789,登記記録の閉鎖等,0,2024-07-17,2024-07-03,佐藤株式会社,,株式会社,愛知県,一宮市,大赤見２２２番地,,23,203,4910015,,,2024-07-03,清算の結了等,,,2015-10-05,1,,,,,サトウ,0
1982,8180002021655,登記記録の閉鎖等,0,2024-07-17,2024-07-02,有限会社スピカ,,有限会社,愛知県,名古屋市天白区,保呂町２３１２番地,,23,116,4680041,,,2024-07-02,清算の結了等,,,2015-10-05,1,,,,,スピカ,0
2066,8450002011793,登記記録の閉鎖等,0,2024-07-17,2024-07-01,有限会社きむら塗装,,有限会社,北海道,留萌市,港町１丁目２１番地,,01,212,0770046,,,2024-07-01,清算の結了等,,,2015-10-05,1,,,,,キムラトソウ,0
2085,9010001172069,登記記録の閉鎖等,0,2024-07-17,2024-07-10,ＪＶインターナショナル株式会社,,株式会社,東京都,江東区,東陽４丁目３番１号,,13,108,1350016,,,2024-07-10,清算の結了等,,,2015-12-07,1,,,,,ジェイブイインターナショナル,0
2089,9010001234356,登記記録の閉鎖等,0,2024-07-17,2024-07-02,株式会社Ｔｒｕｓｔ　Ｌａｎｇｕａｇｅ,,株式会社,東京都,中央区,日本橋蛎殻町１丁目１６番１１号ＥＤＧＥ日本橋蛎殻町５階,,13,102,1030014,,,2024-07-02,清算の結了等,,,2023-04-11,1,,,,,トラストランゲージ,0
2115,9010403019487,登記記録の閉鎖等,0,2024-07-17,2024-07-01,合同会社ＤＲ学大,,合同会社,東京都,港区,虎ノ門５丁目１番４号,,13,103,1050001,,,2024-07-01,清算の結了等,,,2018-10-11,1,,,,,ディーアールガクダイ,0
2120,9010602034031,登記記録の閉鎖等,0,2024-07-17,2024-06-28,有限会社エムケイ企画,,有限会社,神奈川県,横浜市神奈川区,入江１丁目２９番２２号,,14,102,2210014,,,2024-06-28,清算の結了等,,,2015-10-05,1,,,,,エムケイキカク,0
2148,9013202007984,登記記録の閉鎖等,0,2024-07-17,2024-07-01,有限会社メデイカル情報研究所,,有限会社,東京都,目黒区,緑が丘２丁目９番１９号,,13,110,1520034,,,2024-07-01,清算の結了等,,,2015-10-05,1,,,,,メデイカルジョウホウケンキュウショ,0
2149,9020001102628,登記記録の閉鎖等,0,2024-07-17,2024-06-28,株式会社横浜中企画,,株式会社,神奈川県,横浜市中区,石川町２丁目６２番地１,,14,104,2310868,,,2024-06-28,清算の結了等,,,2015-10-05,1,,,,,ヨコハマナカキカク,0
2150,9020001107040,登記記録の閉鎖等,0,2024-07-17,2024-07-01,株式会社アグリソリューション,,株式会社,神奈川県,横浜市鶴見区,鶴見１丁目５番５号,,14,101,2300063,,,2024-07-01,清算の結了等,,,2015-10-05,1,,,,,アグリソリューション,0
2160,9021003009943,登記記録の閉鎖等,0,2024-07-17,2024-07-11,合同会社ＹＡＳＵＤＡウエットスーツ,,合同会社,神奈川県,小田原市,中曽根３２４－８,,14,206,2500866,,,2024-07-11,清算の結了等,,,2020-12-15,1,,,,,ヤスダウエットスーツ,0
2164,9030001008238,登記記録の閉鎖等,0,2024-07-17,2024-07-11,武蔵建材工業株式会社,,株式会社,東京都,武蔵野市,吉祥寺北町１丁目２４番１号,,13,203,1800001,,,2024-07-11,清算の結了等,,,2015-10-05,1,,,,,ムサシケンザイコウギョウ,0
2174,9030002105538,登記記録の閉鎖等,0,2024-07-17,2024-07-10,有限会社永瀬商会,,有限会社,埼玉県,川口市,川口５丁目１番７号,,11,203,3320015,,,2024-07-10,清算の結了等,,,2015-10-05,1,,,,,ナガセショウカイ,0
2192,9080002015988,登記記録の閉鎖等,0,2024-07-17,2024-07-04,有限会社ダルマヤ焼津店,,有限会社,静岡県,焼津市,石津８１３番地の１,,22,212,4250041,,,2024-07-04,清算の結了等,,,2015-10-05,1,,,,,ダルマヤヤイズテン,0
2194,9080002018611,登記記録の閉鎖等,0,2024-07-17,2024-07-01,有限会社笑和,,有限会社,静岡県,藤枝市,与左衛門１７２番１号,,22,214,4260047,,,2024-07-01,合併による解散等,4080001009954,令和６年７月１日静岡市葵区上伝馬３２番９号株式会社フォーユー（4080001009954）に合併し解散,2015-10-05,1,,,,,ショウワ,0
2198,9120001053712,登記記録の閉鎖等,0,2024-07-17,2024-07-12,株式会社ＡＬＰ,,株式会社,大阪府,大阪市淀川区,西宮原１丁目７番２７号,,27,123,5320004,,,2024-07-12,清算の結了等,,,2015-10-05,1,,,,,エーエルピー,0
2205,9120001210362,登記記録の閉鎖等,0,2024-07-17,2024-07-12,株式会社ディーライト,,株式会社,大阪府,大阪市淀川区,西宮原１丁目７番２７号,,27,123,5320004,,,2024-07-12,清算の結了等,,,2017-12-26,1,,,,,ディーライト,0
2240,9150001022433,登記記録の閉鎖等,0,2024-07-17,2024-07-09,Ｒｅｔａｒｏ株式会社,,株式会社,奈良県,香芝市,北今市２丁目２１３番地の５,,29,210,6390242,,,2024-07-09,清算の結了等,,,2018-08-07,1,,,,,レタロ,0
2241,9150002009207,登記記録の閉鎖等,0,2024-07-17,2024-07-10,有限会社ナガオカ装飾,,有限会社,奈良県,北葛城郡河合町,大字川合６２５番地１,,29,427,6360051,,,2024-07-10,清算の結了等,,,2015-10-05,1,,,,,ナガオカソウショク,0
2245,9180001002135,登記記録の閉鎖等,0,2024-07-17,2024-06-28,新統情報センター株式会社,,株式会社,愛知県,名古屋市千種区,池下１丁目６番２０号チサンマンション池下３０５号室,,23,101,4640067,,,2024-06-28,清算の結了等,,,2015-10-05,1,,,,,シントウジョウホウセンター,0
2255,9180002076434,登記記録の閉鎖等,0,2024-07-17,2024-07-01,有限会社三協電気,,有限会社,愛知県,一宮市,北方町北方字畑下郷７６番地の２３,,23,203,4938001,,,2024-07-01,清算の結了等,,,2015-10-05,1,,,,,サンキョウデンキ,0
2256,9180002088495,登記記録の閉鎖等,0,2024-07-17,2024-07-01,有限会社阿久比テック,,有限会社,愛知県,知多市,梅が丘１丁目２１４番地,,23,224,4780016,,,2024-07-01,清算の結了等,,,2015-10-05,1,,,,,アグイテック,0
2262,9200001012379,登記記録の閉鎖等,0,2024-07-17,2024-07-08,株式会社あおぞら建匠,,株式会社,岐阜県,岐阜市,本荘西１丁目１８１番地,,21,201,5008361,,,2024-07-08,清算の結了等,,,2015-10-05,1,,,,,アオゾラケンショウ,0
2266,9200002027293,登記記録の閉鎖等,0,2024-07-17,2024-07-10,有限会社三幸,,有限会社,岐阜県,下呂市,少ケ野２４４番地の１０,,21,220,5092205,,,2024-07-10,清算の結了等,,,2015-10-05,1,,,,,サンコウ,0
2268,9220002006122,登記記録の閉鎖等,0,2024-07-17,2024-07-10,有限会社山安,,有限会社,石川県,金沢市,観音堂町ホ１９番地１,,17,201,9200352,,,2024-07-10,清算の結了等,,,2015-10-05,1,,,,,ヤマヤス,0
2273,9240001046761,登記記録の閉鎖等,0,2024-07-17,2024-07-05,株式会社トヨタ外装,,株式会社,広島県,府中市,土生町９７０番地２,,34,208,7260021,,,2024-07-05,清算の結了等,,,2015-10-05,1,,,,,トヨタガイソウ,0
2284,9290001087859,登記記録の閉鎖等,0,2024-07-17,2024-06-18,株式会社Ｖｉｓｉｏｎｅｓｔ,,株式会社,福岡県,小郡市,美鈴が丘１丁目４番地４０,,40,216,8380101,,,2024-06-18,清算の結了等,,,2020-01-28,1,,,,,ビジョネスト,0
2321,9380002018845,登記記録の閉鎖等,0,2024-07-17,2024-07-01,有限会社ユーキ商産,,有限会社,福島県,白河市,表郷八幡字上後久保５８番地,,07,205,9610406,,,2024-07-01,清算の結了等,,,2015-10-05,1,,,,,ユーキショウサン,0
2326,9420001010303,登記記録の閉鎖等,0,2024-07-17,2024-07-04,株式会社ＳＫＧ,,株式会社,青森県,弘前市,大字取上２丁目３番地１４,,02,202,0368171,,,2024-07-04,清算の結了等,,,2015-10-05,1,,,,,エスケージー,0
