sequenceNumber,corporateNumber,process,correct,updateDate,changeDate,name,nameImageId,kind,prefectureName,cityName,streetNumber,addressImageId,prefectureCode,cityCode,postCode,addressOutside,addressOutsideImageId,closeDate,closeCause,successorCorporateNumber,changeCause,assignmentDate,latest,enName,enPrefectureName,enCityName,enAddressOutside,furigana,hihyoji
4,1010001097174,登記記録の閉鎖等,0,2021-12-07,2021-12-01,株式会社リオ原宿,,株式会社,東京都,千代田区,永田町２丁目１２番４号,,13,101,1000014,,,2021-12-01,合併による解散等,1010001091482,令和３年１２月１日東京都千代田区永田町二丁目１２番４号株式会社リオ・コンサルティング（1010001091482）に合併し解散,2015-10-05,1,,,,,リオハラジュク,0
7,1010001182967,登記記録の閉鎖等,0,2021-12-07,2021-12-03,株式会社ウィニングエッジホールディングス,,株式会社,東京都,千代田区,神田須田町１丁目３４番地４,,13,101,1010041,,,2021-12-03,清算の結了等,,,2017-04-26,1,,,,,ウィニングエッジホールディングス,0
23,1010601011113,登記記録の閉鎖等,0,2021-12-07,2021-12-01,三栄電設工業株式会社,,株式会社,東京都,墨田区,墨田３丁目１０番２２号,,13,107,1310031,,,2021-12-01,清算の結了等,,,2015-10-05,1,,,,,サンエイデンセツコウギョウ,0
29,1010801024071,登記記録の閉鎖等,0,2021-12-07,2021-11-30,株式会社エクストリームウェーブ,,株式会社,東京都,大田区,田園調布３丁目３番１２号,,13,111,1450071,,,2021-11-30,合併による解散等,7010803003670,令和３年１１月３０日東京都大田区田園調布三丁目３番１２号ステージ合同会社（7010803003670）に合併し解散,2015-10-05,1,,,,,エクストリームウェーブ,0
40,1011001047895,登記記録の閉鎖等,0,2021-12-07,2021-12-02,建替えサポート株式会社,,株式会社,東京都,板橋区,高島平８丁目５番６号,,13,119,1750082,,,2021-12-02,清算の結了等,,,2015-10-05,1,,,,,タテカエサポート,0
43,1011001111957,登記記録の閉鎖等,0,2021-12-07,2021-11-29,ホタニ商事株式会社,,株式会社,東京都,町田市,木曽西４丁目２２番２０号,,13,209,1940037,,,2021-11-29,清算の結了等,,,2016-07-26,1,,,,,ホタニショウジ,0
74,1012701015150,登記記録の閉鎖等,0,2021-12-07,2021-11-30,ハクヨー販売株式会社,,株式会社,東京都,清瀬市,中里５丁目１８番地,,13,221,2040003,,,2021-11-30,清算の結了等,,,2018-12-27,1,,,,,ハクヨーハンバイ,0
75,1012702014119,登記記録の閉鎖等,0,2021-12-07,2021-12-03,有限会社経理課長,,有限会社,東京都,西東京市,住吉町５丁目１１番１０号,,13,229,2020005,,,2021-12-03,清算の結了等,,,2015-10-05,1,,,,,ケイリカチョウ,0
91,1020005008110,登記記録の閉鎖等,0,2021-12-07,2021-12-02,昭和電工川崎生活協同組合,,その他の設立登記法人,神奈川県,川崎市川崎区,扇町５番１号,,14,131,2100867,,,2021-12-02,清算の結了等,,,2015-10-05,1,,,,,ショウワデンコウカワサキ,0
106,1030002099291,登記記録の閉鎖等,0,2021-12-07,2021-11-30,白楽砲金有限会社,,有限会社,埼玉県,川口市,大字里３１９番地１,,11,203,3340005,,,2021-11-30,清算の結了等,,,2015-10-05,1,,,,,シラクホウキン,0
109,1040001042540,登記記録の閉鎖等,0,2021-12-07,2021-12-01,ハジーサプライ株式会社,,株式会社,千葉県,茂原市,小林１９７８番地２９,,12,210,2970074,,,2021-12-01,清算の結了等,,,2015-10-05,1,,,,,ハジーサプライ,0
124,1060002008720,登記記録の閉鎖等,0,2021-12-07,2021-12-02,有限会社緑の館,,有限会社,栃木県,宇都宮市,清原台６丁目１６番５号,,09,201,3213223,,,2021-12-02,清算の結了等,,,2015-10-05,1,,,,,ミドリノヤカタ,0
129,1070002014156,登記記録の閉鎖等,0,2021-12-07,2021-12-03,有限会社関口自動車,,有限会社,群馬県,高崎市,箕郷町上芝８５２番地の４,,10,202,3703104,,,2021-12-03,清算の結了等,,,2015-10-05,1,,,,,セキグチジドウシャ,0
137,1110002016247,登記記録の閉鎖等,0,2021-12-07,2021-12-01,有限会社西酒店,,有限会社,新潟県,胎内市,長橋上３４番１,,15,227,9592637,,,2021-12-01,清算の結了等,,,2015-10-05,1,,,,,ニシサケテン,0
194,1180001124787,登記記録の閉鎖等,0,2021-12-07,2021-12-01,株式会社ＬＩＭＥ,,株式会社,大阪府,大阪市中央区,平野町１丁目７番３号,,27,128,5410046,,,2021-12-01,合併による解散等,1120901018680,令和３年１２月１日大阪市中央区平野町一丁目７番３号日本地所株式会社（1120901018680）に合併し解散,2016-09-08,1,,,,,ライム,0
195,1180001126932,登記記録の閉鎖等,0,2021-12-07,2021-12-02,株式会社ｐｕｂｌｉｃ　ｃｈａｒｇｅ,,株式会社,愛知県,名古屋市中川区,山王３丁目８番２８号,,23,110,4540011,,,2021-12-02,清算の結了等,,,2017-03-13,1,,,,,パブリックチャージ,0
211,1180303003516,登記記録の閉鎖等,0,2021-12-07,2021-12-06,合同会社スマートブレイン,,合同会社,愛知県,西尾市,山下町城南８番地６,,23,213,4450877,,,2021-12-06,清算の結了等,,,2015-10-23,1,,,,,スマートブレイン,0
223,1210002007491,登記記録の閉鎖等,0,2021-12-07,2021-12-03,有限会社テックイトウ,,有限会社,福井県,坂井市,坂井町蔵垣内第３号２７番地,,18,210,9190542,,,2021-12-03,清算の結了等,,,2015-10-05,1,,,,,テックイトウ,0
228,1240002002275,登記記録の閉鎖等,0,2021-12-07,2021-12-03,有限会社エスティ企画,,有限会社,広島県,広島市東区,戸坂大上４丁目１５番２６号,,34,102,7320014,,,2021-12-03,清算の結了等,,,2015-10-05,1,,,,,エスティキカク,0
252,1290005013216,登記記録の閉鎖等,0,2021-12-07,2021-12-06,ＮＰＯ法人九州ラグビーアカデミー,,その他の設立登記法人,福岡県,福岡市東区,香椎照葉１丁目５番５７号,,40,131,8130017,,,2021-12-06,清算の結了等,,,2015-10-05,1,,,,,キュウシュウラグビーアカデミー,0
266,1320002010781,登記記録の閉鎖等,0,2021-12-07,2021-12-06,有限会社阿部牛乳店,,有限会社,大分県,別府市,元町５番６号ネクスト元町１０２号,,44,202,8740944,,,2021-12-06,清算の結了等,,,2015-10-05,1,,,,,アベギュウニュウテン,0
286,1370005009957,登記記録の閉鎖等,0,2021-12-07,2021-11-24,特定非営利活動法人パセリの会,,その他の設立登記法人,宮城県,石巻市,大街道南２丁目８番１３号,,04,202,9860856,,,2021-11-24,清算の結了等,,,2019-06-27,1,,,,,パセリノカイ,0
298,1380002012525,登記記録の閉鎖等,0,2021-12-07,2021-12-01,有限会社三英,,有限会社,福島県,郡山市,神明町１１番１３号,,07,203,9638013,,,2021-12-01,清算の結了等,,,2015-10-05,1,,,,,,0
302,1390002010701,登記記録の閉鎖等,0,2021-12-07,2021-12-01,有限会社新庄の菓匠たかはし,,有限会社,山形県,新庄市,住吉町１番１４号,,06,205,9960022,,,2021-12-01,清算の結了等,,,2015-10-05,1,,,,,シンジョウノカショウタカハシ,0
312,1450002004218,登記記録の閉鎖等,0,2021-12-07,2021-12-06,有限会社能登商会,,有限会社,北海道,上川郡鷹栖町,１１線七号４番地,,01,452,0711251,,,2021-12-06,清算の結了等,,,2015-10-05,1,,,,,ノトショウカイ,0
320,2010001034606,登記記録の閉鎖等,0,2021-12-07,2021-12-02,株式会社ティグレ社,,株式会社,東京都,新宿区,西新宿６丁目１２番１号パークウェストビル１０Ｆ,,13,104,1600023,,,2021-12-02,清算の結了等,,,2015-10-05,1,,,,,ティグレシャ,0
404,2021001023556,登記記録の閉鎖等,0,2021-12-07,2021-12-01,株式会社ｉ．ｐｒｏｊｅｃｔ,,株式会社,神奈川県,秦野市,柳町２丁目３番２２号,,14,211,2591315,,,2021-12-01,清算の結了等,,,2015-10-05,1,,,,,アイプロジェクト,0
429,2040002102383,登記記録の閉鎖等,0,2021-12-07,2021-12-01,有限会社フジヒラ薬局,,有限会社,千葉県,勝浦市,墨名４８５番地１２３,,12,218,2995225,,,2021-12-01,合併による解散等,7040002076607,令和３年１２月１日千葉県市原市姉崎１９９６番地１株式会社ウィーズ千葉（7040002076607）に合併し解散,2015-10-05,1,,,,,フジヒラヤッキョク,0
436,2050002029155,登記記録の閉鎖等,0,2021-12-07,2021-12-01,有限会社ファイン,,有限会社,茨城県,行方市,沖洲１１４番地,,08,233,3113508,,,2021-12-01,清算の結了等,,,2015-10-05,1,,,,,ファイン,0
444,2070002013883,登記記録の閉鎖等,0,2021-12-07,2021-12-03,有限会社高橋ステンレス工業,,有限会社,群馬県,高崎市,三ツ寺町１０３４番地,,10,202,3703525,,,2021-12-03,清算の結了等,,,2015-10-05,1,,,,,タカハシステンレスコウギョウ,0
453,2080403003383,登記記録の閉鎖等,0,2021-12-07,2021-12-02,エムイーティー合同会社,,合同会社,静岡県,浜松市中区,曳馬２丁目１０番１３－５号,,22,131,4300901,,,2021-12-02,清算の結了等,,,2017-01-18,1,,,,,エムイーティー,0
458,2100002014977,登記記録の閉鎖等,0,2021-12-07,2021-12-02,有限会社ユモトコーポレーション,,有限会社,長野県,上田市,大屋５１８番地１,,20,203,3860152,,,2021-12-02,清算の結了等,,,2015-10-05,1,,,,,ユモトコーポレーション,0
463,2110002029727,登記記録の閉鎖等,0,2021-12-07,2021-12-01,有限会社コウ・コーゾー設計,,有限会社,新潟県,長岡市,来迎寺３９５０番地,,15,202,9495411,,,2021-12-01,清算の結了等,,,2015-10-05,1,,,,,コウコーゾーセッケイ,0
464,2110005004966,登記記録の閉鎖等,0,2021-12-07,2021-11-18,天理教鴻沼分教会,,その他の設立登記法人,新潟県,新発田市,長畑２９６番地１,,15,206,9570005,,,2021-11-18,合併による解散等,8110005007716,令和３年１１月１８日新潟県村上市岩船縦新町１番１９号天理教岩船分教会（8110005007716）に合併し解散,2015-10-05,1,,,,,,0
471,2120001116319,登記記録の閉鎖等,0,2021-12-07,2021-12-02,株式会社リベレンス,,株式会社,大阪府,大阪市平野区,長吉川辺３丁目１４番１８号,,27,126,5470014,,,2021-12-02,清算の結了等,,,2015-10-05,1,,,,,,0
475,2120001233460,登記記録の閉鎖等,0,2021-12-07,2021-12-02,ＴＤＸホールディングス株式会社,,株式会社,大阪府,大阪市北区,中崎西２丁目４番１２号１１Ｆ,,27,127,5300015,,,2021-12-02,合併による解散等,3010401157261,令和３年１１月２９日東京都港区赤坂九丁目７番１号ＴＤＸホールディングス株式会社（3010401157261）に合併し解散,2020-12-01,1,,,,,,0
499,2122001002143,登記記録の閉鎖等,0,2021-12-07,2021-12-01,株式会社コーシンテクノ,,株式会社,大阪府,東大阪市,角田３丁目２番３２号,,27,227,5780912,,,2021-12-01,合併による解散等,3122002001713,令和３年１２月１日大阪府東大阪市角田三丁目２番３２号株式会社ＫＳ（3122002001713）に合併し解散,2015-10-05,1,,,,,コーシンテクノ,0
516,2140001022168,登記記録の閉鎖等,0,2021-12-07,2021-12-01,株式会社ケイズオプティック,,株式会社,大阪府,守口市,菊水通２丁目９番１３号,,27,209,5700032,,,2021-12-01,清算の結了等,,,2015-10-05,1,,,,,ケイズオプティック,0
530,2180001012768,登記記録の閉鎖等,0,2021-12-07,2021-12-03,株式会社塚下製作所,00071855,株式会社,愛知県,名古屋市北区,安井４丁目１９番８号,,23,103,4620023,,,2021-12-03,清算の結了等,,,2015-10-05,1,,,,,ツカシタセイサクショ,0
537,2180001075798,登記記録の閉鎖等,0,2021-12-07,2021-12-03,株式会社コアパックニシカワ,,株式会社,愛知県,小牧市,大字文津字山岸１０００番地,,23,219,4850827,,,2021-12-03,清算の結了等,,,2015-10-05,1,,,,,コアパックニシカワ,0
548,2180002013435,登記記録の閉鎖等,0,2021-12-07,2021-12-02,有限会社愛広,,有限会社,愛知県,名古屋市南区,砂口町５２番地の２,,23,112,4570054,,,2021-12-02,清算の結了等,,,2015-10-05,1,,,,,アイコウ,0
549,2180002071169,登記記録の閉鎖等,0,2021-12-07,2021-12-02,有限会社アイテクノ,,有限会社,愛知県,春日井市,四ツ家町字二ツ杁１０５番地２,,23,206,4860909,,,2021-12-02,清算の結了等,,,2015-10-05,1,,,,,アイテクノ,0
553,2190001000557,登記記録の閉鎖等,0,2021-12-07,2021-12-03,株式会社大信工機,,株式会社,三重県,津市,雲出長常町字西浜垣内１１００番地の２,,24,201,5140303,,,2021-12-03,清算の結了等,,,2015-10-05,1,,,,,ダイシンコウキ,0
560,2200002021773,登記記録の閉鎖等,0,2021-12-07,2021-12-02,有限会社山善石油店,,有限会社,岐阜県,土岐市,鶴里町柿野１２２７番地の１,,21,212,5095312,,,2021-12-02,清算の結了等,,,2015-10-05,1,,,,,ヤマゼンセキユテン,0
577,2240002004304,登記記録の閉鎖等,0,2021-12-07,2021-12-02,有限会社川本,,有限会社,広島県,広島市安佐南区,山本４丁目２５番４４号,,34,105,7310137,,,2021-12-02,清算の結了等,,,2015-10-05,1,,,,,カワモト,0
589,2260002007247,登記記録の閉鎖等,0,2021-12-07,2021-12-06,有限会社長町商店,,有限会社,岡山県,岡山市北区,奉還町４丁目１４番４号,,33,101,7000026,,,2021-12-06,清算の結了等,,,2015-10-05,1,,,,,ナガマチショウテン,0
608,2290802006214,登記記録の閉鎖等,0,2021-12-07,2021-12-03,有限会社宮廣,00094403,有限会社,福岡県,北九州市小倉北区,黒原１丁目４番３７号,,40,106,8020051,,,2021-12-03,清算の結了等,,,2015-10-05,1,,,,,ミヤヒロ,0
627,2350002010836,登記記録の閉鎖等,0,2021-12-07,2021-12-03,有限会社ピーターパン,,有限会社,宮崎県,日向市,山下町１丁目１番地,,45,206,8830032,,,2021-12-03,清算の結了等,,,2015-10-05,1,,,,,ピーターパン,0
652,2450001006511,登記記録の閉鎖等,0,2021-12-07,2021-12-03,富良野日通運輸株式会社,,株式会社,北海道,富良野市,花園町３番７０号,,01,229,0760027,,,2021-12-03,清算の結了等,,,2015-10-05,1,,,,,フラノニッツウウンユ,0
653,2470002000692,登記記録の閉鎖等,0,2021-12-07,2021-12-03,有限会社東温泉,,有限会社,香川県,高松市,松福町２丁目９番１１号,,37,201,7600067,,,2021-12-03,清算の結了等,,,2015-10-05,1,,,,,アズマオンセン,0
663,2700150069845,登記記録の閉鎖等,0,2021-12-07,2017-09-01,月桂冠厚生年金基金,,その他,京都府,京都市伏見区,南浜町２４７番地,,26,109,6128045,,,2017-09-01,その他の清算の結了等,,,2016-01-19,1,,,,,ゲツケイカンコウセイネンキンキキン,0
666,3010001092512,登記記録の閉鎖等,0,2021-12-07,2021-12-02,株式会社ボディーズ,,株式会社,東京都,千代田区,丸の内３丁目１番１号,,13,101,1000005,,,2021-12-02,合併による解散等,7010001070761,令和３年１２月１日東京都千代田区丸の内三丁目１番１号株式会社エービーシーキャピタル（7010001070761）に合併し解散,2015-10-05,1,,,,,ボディーズ,0
669,3010002004821,登記記録の閉鎖等,0,2021-12-07,2021-12-01,有限会社馬場商店,,有限会社,東京都,文京区,白山４丁目３３番６号,,13,105,1120001,,,2021-12-01,清算の結了等,,,2015-10-05,1,,,,,ババショウテン,0
672,3010401008150,登記記録の閉鎖等,0,2021-12-07,2021-11-30,株式会社共和トラベル,,株式会社,東京都,港区,西新橋１丁目２０番１１号,,13,103,1050003,,,2021-11-30,清算の結了等,,,2015-10-05,1,,,,,キョウワトラベル,0
694,3010801006043,登記記録の閉鎖等,0,2021-12-07,2021-12-01,株式会社セイカ,,株式会社,東京都,品川区,上大崎３丁目１番１号目黒セントラルスクエア１５階,,13,109,1410021,,,2021-12-01,合併による解散等,6010703005941,令和３年１１月２９日東京都品川区上大崎三丁目１番１号目黒セントラルスクエア１５階ファーストビルホールディングス合同会社（6010703005941）に合併し解散,2015-10-05,1,,,,,セイカ,0
724,3011202001749,登記記録の閉鎖等,0,2021-12-07,2021-12-02,有限会社木友,,有限会社,東京都,中野区,弥生町１丁目４８番９号,,13,114,1640013,,,2021-12-02,清算の結了等,,,2015-10-05,1,,,,,キトモ,0
738,3012402000623,登記記録の閉鎖等,0,2021-12-07,2021-12-01,有限会社小沢塗装,,有限会社,東京都,府中市,矢崎町２丁目２４番地の１０,,13,206,1830025,,,2021-12-01,清算の結了等,,,2015-10-05,1,,,,,オザワトソウ,0
741,3013105001751,登記記録の閉鎖等,0,2021-12-07,2021-12-02,一般社団法人日本リバーボーディング協会,,その他の設立登記法人,東京都,青梅市,御岳本町２６６斉藤マンション１０１号室,,13,205,1980173,,,2021-12-02,清算の結了等,,,2020-04-06,1,,,,,ニホンリバーボーディングキョウカイ,0
746,3013402001751,登記記録の閉鎖等,0,2021-12-07,2021-12-02,有限会社安比設計工業,,有限会社,東京都,多摩市,豊ヶ丘１丁目５番地の４,,13,224,2060031,,,2021-12-02,清算の結了等,,,2015-10-05,1,,,,,,0
757,3021001019917,登記記録の閉鎖等,0,2021-12-07,2021-12-03,株式会社秀和ロジスティクス,,株式会社,神奈川県,厚木市,下川入１０２番地,,14,212,2430206,,,2021-12-03,合併による解散等,7080001012939,令和３年１２月１日静岡県島田市横井二丁目２２番３５号大河原運送株式会社（7080001012939）に合併し解散,2015-10-05,1,,,,,シュウワロジスティクス,0
769,3021002025071,登記記録の閉鎖等,0,2021-12-07,2021-11-19,有限会社山下書店,,有限会社,神奈川県,相模原市南区,上鶴間７丁目６番６号,,14,153,2520302,,,2021-11-19,清算の結了等,,,2015-10-05,1,,,,,ヤマシタショテン,0
794,3040002101979,登記記録の閉鎖等,0,2021-12-07,2021-12-01,有限会社秋葉設備,,有限会社,千葉県,いすみ市,岬町江場土１６３４番地,,12,238,2994612,,,2021-12-01,清算の結了等,,,2015-10-05,1,,,,,アキバセツビ,0
847,3120901015841,登記記録の閉鎖等,0,2021-12-07,2021-12-01,未来株式会社,,株式会社,大阪府,大阪市北区,豊崎３丁目１０番９号,,27,127,5310072,,,2021-12-01,合併による解散等,8120001062557,令和３年１２月１日大阪市北区豊崎三丁目１９番３号関西住宅株式会社（8120001062557）に合併し解散,2015-10-05,1,,,,,ミライ,0
859,3130002030005,登記記録の閉鎖等,0,2021-12-07,2021-11-30,有限会社ケーユー,,有限会社,京都府,木津川市,加茂町兎並小防院１番地,00037907,26,214,6191112,,,2021-11-30,清算の結了等,,,2015-10-05,1,,,,,ケーユー,0
878,3170001004344,登記記録の閉鎖等,0,2021-12-07,2021-12-06,株式会社西浜金属産業,,株式会社,和歌山県,和歌山市,西小二里２丁目４番８３号,,30,201,6410031,,,2021-12-06,清算の結了等,,,2015-10-05,1,,,,,ニシハマキンゾクサンギョウ,0
886,3180001129215,登記記録の閉鎖等,0,2021-12-07,2021-12-03,株式会社レゴリス,,株式会社,愛知県,名古屋市中区,千代田１丁目６番２号ＵＰ２ビル４階,,23,106,4600012,,,2021-12-03,清算の結了等,,,2017-08-29,1,,,,,レゴリス,0
900,3180005004587,登記記録の閉鎖等,0,2021-12-07,2021-12-06,愛知県工業ミシン商業協同組合,,その他の設立登記法人,愛知県,愛知郡東郷町,白鳥２丁目８番地の６,,23,302,4700155,,,2021-12-06,清算の結了等,,,2015-10-05,1,,,,,アイチケンコウギョウミシンショウギョウ,0
907,3180302027398,登記記録の閉鎖等,0,2021-12-07,2021-12-02,有限会社斎藤工業,,有限会社,愛知県,西尾市,上矢田町水向４８番地２,,23,213,4440313,,,2021-12-02,清算の結了等,,,2015-10-05,1,,,,,サイトウコウギョウ,0
923,3260002029439,登記記録の閉鎖等,0,2021-12-07,2021-12-03,有限会社的場造園石材センター,,有限会社,岡山県,津山市,高野本郷２４３７番地の１,,33,203,7081125,,,2021-12-03,清算の結了等,,,2015-10-05,1,,,,,マトバゾウエンセキザイセンター,0
924,3280001000266,登記記録の閉鎖等,0,2021-12-07,2021-12-06,株式会社山陰日東サービス,,株式会社,島根県,松江市,学園南２丁目１番５号,,32,201,6900826,,,2021-12-06,清算の結了等,,,2015-10-05,1,,,,,サンインニットウサービス,0
925,3290001035336,登記記録の閉鎖等,0,2021-12-07,2021-12-01,株式会社黒田コンサルティングファーム,,株式会社,福岡県,福岡市中央区,大名１丁目８番２５号,,40,133,8100041,,,2021-12-01,清算の結了等,,,2015-10-05,1,,,,,,0
941,3320001016571,登記記録の閉鎖等,0,2021-12-07,2021-12-01,株式会社フォーティー,,株式会社,大分県,大分市,大手町３丁目５番５－３０４号,,44,201,8700022,,,2021-12-01,合併による解散等,9320001013902,令和３年１２月１日大分市賀来南一丁目１７番２５号株式会社エムズ（9320001013902）に合併し解散,2018-08-29,1,,,,,フォーティー,0
947,3340001006224,登記記録の閉鎖等,0,2021-12-07,2021-12-01,株式会社満留工務店,,株式会社,鹿児島県,鹿児島市,鴨池新町２８番１－９０３号,,46,201,8900064,,,2021-12-01,清算の結了等,,,2015-10-05,1,,,,,ミツドメコウムテン,0
962,3380001018042,登記記録の閉鎖等,0,2021-12-07,2021-12-01,株式会社会津観光コンシェルジェ,,株式会社,福島県,会津若松市,東山町大字石山字院内３９１番地,,07,202,9650813,,,2021-12-01,清算の結了等,,,2015-10-05,1,,,,,アイヅカンコウコンシェルジェ,0
986,3470005003601,登記記録の閉鎖等,0,2021-12-07,2021-11-22,天理教白峰分教会,,その他の設立登記法人,香川県,坂出市,加茂町９４４番地２,,37,203,7620023,,,2021-11-22,合併による解散等,8470005000321,令和３年１１月２２日香川県高松市三名町６４６番地天理教讃高分教会（8470005000321）に合併し解散,2015-10-05,1,,,,,テンリキョウシロミネブンキョウカイ,0
997,4010001185050,登記記録の閉鎖等,0,2021-12-07,2021-12-02,Ｓｌａｃｋ　Ｊａｐａｎ株式会社,,株式会社,東京都,千代田区,大手町１丁目１番１号大手町パークビルディング,,13,101,1000004,,,2021-12-02,合併による解散等,4010401076766,令和３年１２月１日東京都千代田区丸の内二丁目７番２号株式会社セールスフォース・ドットコム（4010401076766）に合併し解散,2017-07-24,1,,,,,スラックジャパン,0
1004,4010001221549,登記記録の閉鎖等,0,2021-12-07,2021-12-01,株式会社エムエイチエム,,株式会社,東京都,中央区,銀座３丁目５番８号,,13,102,1040061,,,2021-12-01,合併による解散等,2010001221550,令和３年１２月１日東京都中央区銀座三丁目５番８号株式会社サファイアハウス（2010001221550）に合併し解散,2021-10-07,1,,,,,エムエイチエム,0
1029,4010602020977,登記記録の閉鎖等,0,2021-12-07,2021-11-22,有限会社イチコー,,有限会社,東京都,墨田区,両国３丁目１７番５号,,13,107,1300026,,,2021-11-22,清算の結了等,,,2015-10-05,1,,,,,イチコー,0
1030,4010702004574,登記記録の閉鎖等,0,2021-12-07,2021-12-01,有限会社セリタ製作所,,有限会社,東京都,品川区,荏原１丁目１１番１号,,13,109,1420063,,,2021-12-01,清算の結了等,,,2015-10-05,1,,,,,セリタセイサクショ,0
1055,4011501024276,登記記録の閉鎖等,0,2021-12-07,2021-12-01,岡田建物株式会社,,株式会社,東京都,荒川区,南千住８丁目１２番５－９０１号,,13,118,1160003,,,2021-12-01,清算の結了等,,,2018-11-28,1,,,,,オカダタテモノ,0
1073,4020001044123,登記記録の閉鎖等,0,2021-12-07,2021-12-02,株式会社フィールドライフ,,株式会社,神奈川県,横浜市中区,山手町２７番地５ベイステージ元町４階,,14,104,2310862,,,2021-12-02,清算の結了等,,,2015-10-05,1,,,,,フィールドライフ,0
1081,4021001060622,登記記録の閉鎖等,0,2021-12-07,2021-12-03,株式会社ホリエステート,,株式会社,神奈川県,平塚市,北金目１丁目１番１５号,,14,203,2591207,,,2021-12-03,清算の結了等,,,2016-11-09,1,,,,,ホリエステート,0
1087,4030001011725,登記記録の閉鎖等,0,2021-12-07,2021-12-03,リンクサーキット株式会社,,株式会社,埼玉県,さいたま市緑区,芝原３丁目９番地１,,11,109,3360917,,,2021-12-03,合併による解散等,6021001010492,令和３年１２月１日横浜市戸塚区川上町９０－６東戸塚ウエストビル７Ｆ株式会社ＳＤＫ（6021001010492）に合併し解散,2015-10-05,1,,,,,リンクサーキット,0
1088,4030001017152,登記記録の閉鎖等,0,2021-12-07,2021-12-01,株式会社ブロック・マイスター,,株式会社,埼玉県,さいたま市北区,本郷町１５７６番地,,11,102,3310802,,,2021-12-01,合併による解散等,3030001014893,令和３年１２月１日埼玉県さいたま市北区本郷町１５７６番地株式会社ガーデンエクスプレス（3030001014893）に合併し解散,2015-10-05,1,,,,,ブロックマイスター,0
1089,4030001032341,登記記録の閉鎖等,0,2021-12-07,2021-12-03,松崎興産株式会社,,株式会社,埼玉県,久喜市,西大輪１７１－１,,11,232,3400206,,,2021-12-03,合併による解散等,7011401005951,令和３年１２月１日東京都板橋区中丸町４５番８号松崎商事株式会社（7011401005951）に合併し解散,2015-10-05,1,,,,,マツザキコウサン,0
1118,4070001025465,登記記録の閉鎖等,0,2021-12-07,2021-12-03,プラスタウン株式会社,,株式会社,群馬県,伊勢崎市,東上之宮町１２４８番地８,,10,204,3720815,,,2021-12-03,清算の結了等,,,2015-10-05,1,,,,,プラスタウン,0
1123,4080102020851,登記記録の閉鎖等,0,2021-12-07,2021-12-02,有限会社アイエスカンパニー,,有限会社,静岡県,下田市,柿崎６５２番地の１,,22,219,4150013,,,2021-12-02,清算の結了等,,,2015-10-05,1,,,,,アイエスカンパニー,0
1134,4110002019494,登記記録の閉鎖等,0,2021-12-07,2021-12-01,有限会社マルタケ,,有限会社,新潟県,燕市,吉田西太田１８２１番地１,,15,213,9590221,,,2021-12-01,清算の結了等,,,2015-10-05,1,,,,,マルタケ,0
1135,4110002029519,登記記録の閉鎖等,0,2021-12-07,2021-12-02,有限会社横山製袋,,有限会社,新潟県,長岡市,千歳１丁目３番２６号,,15,202,9400082,,,2021-12-02,清算の結了等,,,2015-10-05,1,,,,,ヨコヤマセイタイ,0
1137,4110003003555,登記記録の閉鎖等,0,2021-12-07,2021-12-01,合同会社大平産業,,合同会社,新潟県,三条市,直江町２丁目７番７号,,15,204,9550832,,,2021-12-01,清算の結了等,,,2017-09-12,1,,,,,タイヘイサンギョウ,0
1140,4120001035343,登記記録の閉鎖等,0,2021-12-07,2021-12-01,株式会社スミレ薬局,,株式会社,大阪府,大阪市福島区,福島４丁目２番７２号,,27,103,5530003,,,2021-12-01,合併による解散等,1120001103433,令和３年１２月１日大阪市北区豊崎三丁目３番１３号株式会社ニチホス（1120001103433）に合併し解散,2015-10-05,1,,,,,スミレヤッキョク,0
1141,4120001085289,登記記録の閉鎖等,0,2021-12-07,2021-12-03,株式会社東京工芸,,株式会社,兵庫県,尼崎市,浜２丁目１４番１－５０６号,,28,202,6610967,,,2021-12-03,清算の結了等,,,2015-10-05,1,,,,,トウキョウコウゲイ,0
1142,4120001128907,登記記録の閉鎖等,0,2021-12-07,2021-12-01,株式会社勇吉商事,,株式会社,大阪府,大阪市西成区,南津守６丁目４番１号,,27,122,5570063,,,2021-12-01,清算の結了等,,,2015-10-05,1,,,,,,0
1150,4120002064168,登記記録の閉鎖等,0,2021-12-07,2021-12-03,有限会社アクアマリン,,有限会社,大阪府,大阪市中央区,南本町３丁目２番２号,,27,128,5410054,,,2021-12-03,清算の結了等,,,2015-10-05,1,,,,,アクアマリン,0
1154,4120003016969,登記記録の閉鎖等,0,2021-12-07,2021-12-02,合同会社伸和,,合同会社,大阪府,大阪市北区,天神橋８丁目１０－１メゾンドール天神橋１０１号,,27,127,5310041,,,2021-12-02,清算の結了等,,,2020-02-12,1,,,,,シンワ,0
1160,4120103003198,登記記録の閉鎖等,0,2021-12-07,2021-12-03,合同会社Ｆｒｅｅ　Ｄｏｔ,,合同会社,大阪府,岸和田市,別所町２丁目１２番１５号,,27,202,5960045,,,2021-12-03,清算の結了等,,,2018-12-05,1,,,,,フリードット,0
1169,4130001013661,登記記録の閉鎖等,0,2021-12-07,2021-12-02,日本共立食品工業株式会社,,株式会社,京都府,京都市山科区,勧修寺冷尻２２番地の５,,26,110,6078241,,,2021-12-02,清算の結了等,,,2015-10-05,1,,,,,,0
1173,4130002000857,登記記録の閉鎖等,0,2021-12-07,2021-12-03,有限会社真生ビル,,有限会社,京都府,京都市右京区,宇多野福王子町５２番地の２９,,26,108,6168208,,,2021-12-03,清算の結了等,,,2015-10-05,1,,,,,シンセイビル,0
1188,4140005005316,登記記録の閉鎖等,0,2021-12-07,2021-12-06,特定非営利活動法人阪神淡路大震災よろず相談室,,その他の設立登記法人,兵庫県,神戸市東灘区,住吉宮町３丁目１５－１６コンフォート住吉２０１,,28,101,6580053,,,2021-12-06,清算の結了等,,,2015-10-05,1,,,,,ハンシンアワジダイシンサイヨロズソウダンシツ,0
1190,4170002006586,登記記録の閉鎖等,0,2021-12-07,2021-12-07,有限会社福永商店,,有限会社,和歌山県,海南市,野上中３４１番地,,30,202,6401171,,,2021-12-07,清算の結了等,,,2015-10-05,1,,,,,フクナガショウテン,0
1210,4180002019637,登記記録の閉鎖等,0,2021-12-07,2021-12-02,有限会社モリシュウ,,有限会社,愛知県,名古屋市中川区,法華１丁目１８２番地,,23,110,4540933,,,2021-12-02,清算の結了等,,,2015-10-05,1,,,,,モリシュウ,0
1211,4180002036558,登記記録の閉鎖等,0,2021-12-07,2021-12-01,有限会社アミューズ,,有限会社,愛知県,名古屋市西区,庄内通２丁目１１番地,,23,104,4510016,,,2021-12-01,清算の結了等,,,2015-10-05,1,,,,,アミューズ,0
1218,4190001026063,登記記録の閉鎖等,0,2021-12-07,2021-12-02,株式会社ＴＯＭＯ,,株式会社,三重県,津市,一志町片野４０９番地１,,24,201,5152511,,,2021-12-02,清算の結了等,,,2018-12-13,1,,,,,トモ,0
1219,4190002001354,登記記録の閉鎖等,0,2021-12-07,2021-12-06,有限会社ブティックモア,,有限会社,三重県,津市,羽所町３４６番地,,24,201,5140009,,,2021-12-06,清算の結了等,,,2015-10-05,1,,,,,ブティックモア,0
1224,4220001018874,登記記録の閉鎖等,0,2021-12-07,2021-12-01,株式会社プレシャス,,株式会社,石川県,金沢市,近岡町８４９番地１,,17,201,9208217,,,2021-12-01,合併による解散等,5220001010962,令和３年１２月１日石川県金沢市問屋町一丁目３７番地株式会社ｉｔｏｓｉｅ．（5220001010962）に合併し解散,2015-10-05,1,,,,,プレシャス,0
1225,4230001000823,登記記録の閉鎖等,0,2021-12-07,2021-12-02,呉羽窯業株式会社,,株式会社,富山県,富山市,追分茶屋４７５番地の１,,16,201,9300116,,,2021-12-02,清算の結了等,,,2015-10-05,1,,,,,クレハヨウギョウ,0
1232,4240003004400,登記記録の閉鎖等,0,2021-12-07,2021-12-03,サポートハウジング合同会社,,合同会社,広島県,広島市東区,上温品２丁目１５番８号,,34,102,7320032,,,2021-12-03,清算の結了等,,,2019-10-01,1,,,,,サポートハウジング,0
1237,4260001017815,登記記録の閉鎖等,0,2021-12-07,2021-12-03,株式会社佐藤商店,,株式会社,岡山県,笠岡市,中央町３３番地の５,,33,205,7140088,,,2021-12-03,清算の結了等,,,2015-10-05,1,,,,,サトウショウテン,0
1240,4260002025627,登記記録の閉鎖等,0,2021-12-07,2021-12-03,岡本設備有限会社,,有限会社,岡山県,井原市,高屋町３丁目１５番地の１３,,33,207,7150024,,,2021-12-03,清算の結了等,,,2015-10-05,1,,,,,オカモトセツビ,0
1262,4320001007644,登記記録の閉鎖等,0,2021-12-07,2021-11-30,後藤塩干冷凍株式会社,,株式会社,大分県,宇佐市,大字江須賀１９６３番地の２,,44,211,8720032,,,2021-11-30,清算の結了等,,,2015-10-05,1,,,,,ゴトウエンカンレイトウ,0
1276,4380002028997,登記記録の閉鎖等,0,2021-12-07,2021-12-01,有限会社原町薬局,,有限会社,福島県,南相馬市,原町区三島町２丁目１０７番地の１,,07,212,9750012,,,2021-12-01,清算の結了等,,,2015-10-05,1,,,,,ハラマチヤッキョク,0
1281,4400603000014,登記記録の閉鎖等,0,2021-12-07,2021-12-02,合資会社魚三商店,,合資会社,岩手県,奥州市,水沢東上野町７番１６号,,03,215,0230853,,,2021-12-02,清算の結了等,,,2015-10-05,1,,,,,ウオサンショウテン,0
1318,5010101014141,登記記録の閉鎖等,0,2021-12-07,2021-12-01,Ｇｒｅｅｎｓ　Ｖｉｅｗ株式会社,,株式会社,東京都,八王子市,北野台３丁目２３番７号,,13,201,1920913,,,2021-12-01,清算の結了等,,,2020-04-08,1,,,,,,0
1341,5010601003429,登記記録の閉鎖等,0,2021-12-07,2021-12-02,武下建設株式会社,,株式会社,東京都,江東区,千田２０番１４号,,13,108,1350013,,,2021-12-02,清算の結了等,,,2015-10-05,1,,,,,タケシタケンセツ,0
1349,5010701030546,登記記録の閉鎖等,0,2021-12-07,2021-12-02,株式会社はにー,,株式会社,東京都,品川区,上大崎１丁目１２番２１号２０５,,13,109,1410021,,,2021-12-02,清算の結了等,,,2015-10-05,1,,,,,ハニー,0
1371,5011201005897,登記記録の閉鎖等,0,2021-12-07,2021-12-02,株式会社リビング通信,,株式会社,東京都,中野区,本町５丁目６番１０号,,13,114,1640012,,,2021-12-02,清算の結了等,,,2015-10-05,1,,,,,リビングツウシン,0
1379,5011802006971,登記記録の閉鎖等,0,2021-12-07,2021-12-03,有限会社保坂米店,,有限会社,東京都,葛飾区,立石６丁目５番７号,,13,122,1240012,,,2021-12-03,清算の結了等,,,2015-10-05,1,,,,,ホサカコメテン,0
1389,5013201019183,登記記録の閉鎖等,0,2021-12-07,2021-12-01,ショップフォース株式会社,,株式会社,東京都,目黒区,上目黒２丁目４７－１司ビル２Ｂ,,13,110,1530051,,,2021-12-01,合併による解散等,8010401098864,令和３年１２月１日東京都渋谷区東三丁目１６番３号ヘイ株式会社（8010401098864）に合併し解散,2015-10-05,1,,,,,ショップフォース,0
1403,5021002020822,登記記録の閉鎖等,0,2021-12-07,2021-12-01,有限会社サンライズ企画,,有限会社,神奈川県,相模原市緑区,東橋本１丁目２４番１３号,,14,151,2520144,,,2021-12-01,清算の結了等,,,2015-10-05,1,,,,,サンライズキカク,0
1407,5021005005960,登記記録の閉鎖等,0,2021-12-07,2021-12-01,湯河原町水産加工出荷協同組合,,その他の設立登記法人,神奈川県,足柄下郡湯河原町,福浦吉浜１９１番地,,14,384,2590316,,,2021-12-01,清算の結了等,,,2015-10-05,1,,,,,ユガワラマチスイサンカコウシュッカ,0
1412,5030001079670,登記記録の閉鎖等,0,2021-12-07,2021-12-01,株式会社ステージクルー,,株式会社,埼玉県,川口市,三ツ和２丁目３５番地の１,,11,203,3340011,,,2021-12-01,清算の結了等,,,2015-10-05,1,,,,,ステージクルー,0
1414,5030001087863,登記記録の閉鎖等,0,2021-12-07,2021-11-29,株式会社写真興業通信,,株式会社,埼玉県,熊谷市,石原７１２番地１２,,11,202,3600816,,,2021-11-29,清算の結了等,,,2015-10-05,1,,,,,シャシンコウギョウツウシン,0
1423,5040001077376,登記記録の閉鎖等,0,2021-12-07,2021-12-01,株式会社萬楽,,株式会社,千葉県,千葉市若葉区,桜木１丁目３１番１号,,12,104,2640028,,,2021-12-01,合併による解散等,1040002010620,令和３年１２月１日千葉市若葉区桜木一丁目３１番１号株式会社穂康鶴（1040002010620）に合併し解散,2015-10-05,1,,,,,マンラク,0
1437,5070001018187,登記記録の閉鎖等,0,2021-12-07,2021-12-02,互亨不動産株式会社,,株式会社,群馬県,渋川市,半田２４２０番地,,10,208,3770004,,,2021-12-02,清算の結了等,,,2015-10-05,1,,,,,ゴコウフドウサン,0
1439,5080002014911,登記記録の閉鎖等,0,2021-12-07,2021-11-30,有限会社旅クラブ,,有限会社,静岡県,牧之原市,大沢１丁目７３番地,,22,226,4210526,,,2021-11-30,清算の結了等,,,2015-10-05,1,,,,,タビクラブ,0
1446,5100002023950,登記記録の閉鎖等,0,2021-12-07,2021-12-01,有限会社藤原砂利店,,有限会社,長野県,安曇野市,明科七貴５４８４番地,,20,220,3997104,,,2021-12-01,清算の結了等,,,2015-10-05,1,,,,,フジワラジャリテン,0
1512,5170002003946,登記記録の閉鎖等,0,2021-12-07,2021-12-06,有限会社山利青果,,有限会社,和歌山県,和歌山市,西浜１６６０番地の４０１和歌山市中央卸売市場内,,30,201,6410036,,,2021-12-06,清算の結了等,,,2015-10-05,1,,,,,ヤマリセイカ,0
1520,5180002084176,登記記録の閉鎖等,0,2021-12-07,2021-12-02,有限会社石川メデイカル,,有限会社,愛知県,知多郡武豊町,字西門１番地の３５,,23,447,4702345,,,2021-12-02,清算の結了等,,,2015-10-05,1,,,,,イシカワメデイカル,0
1524,5180301012754,登記記録の閉鎖等,0,2021-12-07,2021-12-03,株式会社お茶の泉園,,株式会社,愛知県,安城市,日の出町７番２号,,23,212,4460033,,,2021-12-03,清算の結了等,,,2015-10-05,1,,,,,オチャノイズミエン,0
1525,5180301026390,登記記録の閉鎖等,0,2021-12-07,2021-12-03,株式会社恵比須電工,,株式会社,愛知県,刈谷市,稲場町１丁目４０８番地２,,23,210,4480038,,,2021-12-03,清算の結了等,,,2015-10-05,1,,,,,エビスデンコウ,0
1532,5190001024132,登記記録の閉鎖等,0,2021-12-07,2021-12-02,株式会社リーププロジェクト,,株式会社,三重県,四日市市,黄金町３０番,,24,202,5128062,,,2021-12-02,清算の結了等,,,2016-11-08,1,,,,,リーププロジェクト,0
1542,5220002006662,登記記録の閉鎖等,0,2021-12-07,2021-12-03,有限会社オービット,,有限会社,石川県,金沢市,野町５丁目７番１０号,,17,201,9218031,,,2021-12-03,清算の結了等,,,2015-10-05,1,,,,,オービット,0
1550,5260005003364,登記記録の閉鎖等,0,2021-12-07,2021-12-06,児島酒販協同組合,,その他の設立登記法人,岡山県,倉敷市,児島小川２丁目５番５４号,,33,202,7110911,,,2021-12-06,清算の結了等,,,2015-10-05,1,,,,,コジマシュハン,0
1551,5260005003752,登記記録の閉鎖等,0,2021-12-07,2021-12-06,児島小売酒販組合,,その他の設立登記法人,岡山県,倉敷市,児島小川２丁目５番５４号,,33,202,7110911,,,2021-12-06,清算の結了等,,,2015-10-05,1,,,,,コジマコウリ,0
1578,5340002015783,登記記録の閉鎖等,0,2021-12-07,2021-12-03,有限会社コスモ技研,,有限会社,鹿児島県,姶良市,西餅田１９４番地６,00099334,46,225,8995431,,,2021-12-03,清算の結了等,,,2015-10-05,1,,,,,コスモギケン,0
1587,5370002004164,登記記録の閉鎖等,0,2021-12-07,2021-12-01,有限会社旅館山菜荘,,有限会社,宮城県,仙台市太白区,秋保町湯元字薬師２０番地,,04,104,9820241,,,2021-12-01,清算の結了等,,,2015-10-05,1,,,,,,0
1598,5420002012574,登記記録の閉鎖等,0,2021-12-07,2021-12-03,有限会社サン・フォー,,有限会社,青森県,西津軽郡深浦町,大字深浦字浜町１０７番地,,02,323,0382324,,,2021-12-03,清算の結了等,,,2015-10-05,1,,,,,サンフォー,0
1609,5460001005195,登記記録の閉鎖等,0,2021-12-07,2021-12-03,株式会社ＩＮＦ,,株式会社,北海道,釧路市,鳥取大通８丁目７番１３号,,01,206,0840906,,,2021-12-03,清算の結了等,,,2017-10-19,1,,,,,アイエヌエフ,0
1627,6010001212439,登記記録の閉鎖等,0,2021-12-07,2021-12-02,株式会社Ｇ２Ｗ,,株式会社,東京都,中央区,日本橋２丁目２番３号ＲＩＳＨＥビルＵＣＦ４階,,13,102,1030027,,,2021-12-02,清算の結了等,,,2020-09-23,1,,,,,ジーツーダブリュー,0
1656,6010901020338,登記記録の閉鎖等,0,2021-12-07,2021-12-01,株式会社Ｍｏｂｉｌｅ　Ｃｏｍｍｅｒｃｅ,,株式会社,東京都,中央区,日本橋蛎殻町１丁目２２番１－５０９号,,13,102,1030014,,,2021-12-01,清算の結了等,,,2015-10-05,1,,,,,モバイルコマース,0
1675,6011103009806,登記記録の閉鎖等,0,2021-12-07,2021-12-01,合同会社天狗,,合同会社,東京都,新宿区,西新宿３丁目５番１５‐１４０５号ＺＯＯＭ都庁前,,13,104,1600023,,,2021-12-01,清算の結了等,,,2020-07-02,1,,,,,テング,0
1677,6011201001813,登記記録の閉鎖等,0,2021-12-07,2021-12-02,権田宝飾株式会社,,株式会社,東京都,中野区,本町３丁目１３番４号,,13,114,1640012,,,2021-12-02,清算の結了等,,,2015-10-05,1,,,,,ゴンダホウショク,0
1683,6011301017692,登記記録の閉鎖等,0,2021-12-07,2021-12-03,株式会社Ｔ’ｓ,,株式会社,東京都,杉並区,久我山２丁目８番１２号,,13,115,1680082,,,2021-12-03,清算の結了等,,,2015-10-05,1,,,,,ティーズ,0
1690,6011702010684,登記記録の閉鎖等,0,2021-12-07,2021-12-03,有限会社マツエ,,有限会社,東京都,江戸川区,松江５丁目１０番１６号,,13,123,1320025,,,2021-12-03,清算の結了等,,,2015-10-05,1,,,,,マツエ,0
1740,6030002118443,登記記録の閉鎖等,0,2021-12-07,2021-12-01,有限会社清水製作所,,有限会社,埼玉県,行田市,城南２番５号,,11,206,3610054,,,2021-12-01,清算の結了等,,,2015-10-05,1,,,,,シミズセイサクショ,0
1745,6040001021688,登記記録の閉鎖等,0,2021-12-07,2021-12-01,株式会社光徳,,株式会社,東京都,千代田区,平河町１丁目７番地１７,,13,101,1020093,,,2021-12-01,清算の結了等,,,2015-10-05,1,,,,,コウトク,0
1777,6120001169354,登記記録の閉鎖等,0,2021-12-07,2021-12-01,株式会社サンショー,,株式会社,大阪府,大阪市淀川区,十八条１丁目１３番３４号,,27,123,5320001,,,2021-12-01,合併による解散等,1120001103433,令和３年１２月１日大阪市北区豊崎三丁目３番１３号株式会社ニチホス（1120001103433）に合併し解散,2015-10-05,1,,,,,サンショー,0
1779,6120002036223,登記記録の閉鎖等,0,2021-12-07,2021-12-02,有限会社シナジーワークス,,有限会社,大阪府,堺市西区,上野芝町７丁８番１号,,27,144,5938301,,,2021-12-02,清算の結了等,,,2015-10-05,1,,,,,シナジーワークス,0
1780,6120002064934,登記記録の閉鎖等,0,2021-12-07,2021-12-02,有限会社みなとねっと,,有限会社,大阪府,大阪市北区,末広町３番２１号,,27,127,5300053,,,2021-12-02,清算の結了等,,,2015-10-05,1,,,,,ミナトネット,0
1792,6120902014294,登記記録の閉鎖等,0,2021-12-07,2021-12-03,有限会社アラキ,,有限会社,大阪府,池田市,渋谷３丁目１８番４号,,27,204,5630028,,,2021-12-03,清算の結了等,,,2015-10-05,1,,,,,アラキ,0
1808,6180001019801,登記記録の閉鎖等,0,2021-12-07,2021-12-03,須藤ネジ株式会社,,株式会社,愛知県,名古屋市中川区,八家町１丁目４９番地,,23,110,4540835,,,2021-12-03,清算の結了等,,,2015-10-05,1,,,,,スドウネジ,0
1827,6180003016763,登記記録の閉鎖等,0,2021-12-07,2021-12-03,Ａｑｕａｐｌａｎｅｔ合同会社,,合同会社,愛知県,北名古屋市,六ツ師１０８０番地１１５,,23,234,4810001,,,2021-12-03,清算の結了等,,,2015-12-14,1,,,,,アクアプラネット,0
1834,6190005008428,登記記録の閉鎖等,0,2021-12-07,2021-12-02,桑名市播磨前農住組合,,その他の設立登記法人,三重県,桑名市,中央町２丁目３６番地,,24,205,5110068,,,2021-12-02,清算の結了等,,,2015-10-05,1,,,,,クワナシハリママエ,0
1841,6200002003669,登記記録の閉鎖等,0,2021-12-07,2021-12-02,有限会社パスワールド,,有限会社,岐阜県,岐阜市,栗矢田町１丁目１番地,,21,201,5008174,,,2021-12-02,清算の結了等,,,2015-10-05,1,,,,,パスワールド,0
1850,6230002005729,登記記録の閉鎖等,0,2021-12-07,2021-12-02,有限会社くまさん設備,,有限会社,富山県,富山市,金山新東３番地１,,16,201,9302205,,,2021-12-02,清算の結了等,,,2015-10-05,1,,,,,クマサンセツビ,0
1854,6240002038678,登記記録の閉鎖等,0,2021-12-07,2021-12-03,有限会社精美堂印刷所,,有限会社,広島県,福山市,神辺町大字川南１０４３番地の５,,34,207,7202124,,,2021-12-03,清算の結了等,,,2015-10-05,1,,,,,セイビドウインサツショ,0
1857,6260001025403,登記記録の閉鎖等,0,2021-12-07,2021-12-01,株式会社情報スペース,,株式会社,岡山県,岡山市南区,新保１１８６番６号,,33,104,7000945,,,2021-12-01,清算の結了等,,,2015-10-05,1,,,,,ジョウホウスペース,0
1870,6310003003715,登記記録の閉鎖等,0,2021-12-07,2021-11-26,合同会社土山商店,,合同会社,長崎県,長崎市,八幡町３番１９号,,42,201,8500801,,,2021-11-26,清算の結了等,,,2019-08-02,1,,,,,ツチヤマショウテン,0
1887,6360003003834,登記記録の閉鎖等,0,2021-12-07,2021-12-01,合資会社キャスコ,,合資会社,沖縄県,中頭郡嘉手納町,字屋良６７８番地の１,,47,325,9040202,,,2021-12-01,清算の結了等,,,2015-10-05,1,,,,,キャスコ,0
1894,6380005002295,登記記録の閉鎖等,0,2021-12-07,2021-12-01,特定非営利活動法人大河トゥエンティワン,,その他の設立登記法人,福島県,福島市,桜木町１２番２号,,07,201,9608133,,,2021-12-01,清算の結了等,,,2015-10-05,1,,,,,タイガトゥエンティワン,0
1900,6420001016690,登記記録の閉鎖等,0,2021-12-07,2021-12-03,ＥＬ－ＰＲＯ企画株式会社,,株式会社,青森県,青森市,金沢３丁目８番１８号,,02,201,0300853,,,2021-12-03,清算の結了等,,,2019-08-05,1,,,,,イーエルプロキカク,0
1901,6420002009479,登記記録の閉鎖等,0,2021-12-07,2021-12-03,有限会社内城鉄筋,,有限会社,青森県,三戸郡階上町,大字田代字番屋１１番地,,02,446,0391206,,,2021-12-03,清算の結了等,,,2015-10-05,1,,,,,ナイジョウテッキン,0
1916,6460001003529,登記記録の閉鎖等,0,2021-12-07,2021-12-01,大地資材開発株式会社,,株式会社,北海道,釧路市,星が浦南２丁目１番２２号,,01,206,0840913,,,2021-12-01,合併による解散等,1460002003771,令和３年１２月１日北海道釧路市星が浦南二丁目１番２２号大地運輸株式会社（1460002003771）に合併し解散,2015-10-05,1,,,,,ダイチシザイカイハツ,0
1921,6470005000331,登記記録の閉鎖等,0,2021-12-07,2021-11-24,天理教平賀分教会,,その他の設立登記法人,香川県,高松市,香西北町１４２番地,,37,201,7618011,,,2021-11-24,合併による解散等,2470005000310,令和３年１１月２４日香川県高松市鬼無町是竹１６１番地１天理教高西分教会（2470005000310）に合併し解散,2015-10-05,1,,,,,テンリキョウヒラガブンキョウカイ,0
1934,7010001221546,登記記録の閉鎖等,0,2021-12-07,2021-12-01,株式会社サウス・ケンジントン,,株式会社,東京都,中央区,銀座３丁目５番８号,,13,102,1040061,,,2021-12-01,合併による解散等,8010001221545,令和３年１２月１日東京都中央区銀座三丁目５番８号株式会社ポラリス（8010001221545）に合併し解散,2021-10-06,1,,,,,サウスケンジントン,0
1944,7010401140981,登記記録の閉鎖等,0,2021-12-07,2021-12-01,株式会社大明ジャパン,,株式会社,東京都,港区,赤坂３丁目１６番４号,,13,103,1070052,,,2021-12-01,清算の結了等,,,2018-09-20,1,,,,,ダイメイジャパン,0
1950,7010402027955,登記記録の閉鎖等,0,2021-12-07,2021-11-30,有限会社犬塚設計研究所,,有限会社,東京都,港区,虎ノ門１丁目１６番４号,,13,103,1050001,,,2021-11-30,清算の結了等,,,2015-10-05,1,,,,,イヌヅカセッケイケンキュウジョ,0
1958,7010502014440,登記記録の閉鎖等,0,2021-12-07,2021-12-01,福田興産有限会社,,有限会社,東京都,台東区,根岸１丁目１０番１３号,,13,106,1100003,,,2021-12-01,合併による解散等,7010501002958,令和３年１２月１日東京都台東区根岸一丁目１０番１３号福田ビル株式会社共栄オーメック（7010501002958）に合併し解散,2015-10-05,1,,,,,フクダコウサン,0
1967,7010702003854,登記記録の閉鎖等,0,2021-12-07,2021-12-03,有限会社シスターコーポレーション,,有限会社,東京都,品川区,上大崎３丁目１０番２９号,,13,109,1410021,,,2021-12-03,清算の結了等,,,2015-10-05,1,,,,,シスターコーポレーション,0
1973,7010902013109,登記記録の閉鎖等,0,2021-12-07,2021-12-02,有限会社フジクスセンチュリー,,有限会社,東京都,世田谷区,千歳台５丁目８番１３号,,13,112,1570071,,,2021-12-02,清算の結了等,,,2015-10-05,1,,,,,フジクスセンチュリー,0
1990,7011503004372,登記記録の閉鎖等,0,2021-12-07,2021-12-03,哲也合同会社,,合同会社,東京都,北区,赤羽北２丁目２８－１コーポ原島１０２号室,,13,117,1150052,,,2021-12-03,合併による解散等,2030003014777,令和３年１２月１日さいたま市南区大字大谷口２４８８番地ドレミハイツ１０５号合同会社哲也（2030003014777）に合併し解散,2020-05-08,1,,,,,テツヤ,0
1992,7011601022078,登記記録の閉鎖等,0,2021-12-07,2021-12-03,株式会社赤塚アルト,,株式会社,東京都,練馬区,北町８丁目３７番８号,,13,120,1790081,,,2021-12-03,合併による解散等,6011401010787,令和３年１２月１日東京都板橋区坂下二丁目３２番２３号株式会社エスシーグループ（6011401010787）に合併し解散,2017-09-20,1,,,,,アカツカアルト,0
1995,7011702000775,登記記録の閉鎖等,0,2021-12-07,2021-12-03,有限会社イースタンベイ,,有限会社,東京都,江戸川区,松江５丁目１０番１６号,,13,123,1320025,,,2021-12-03,清算の結了等,,,2015-10-05,1,,,,,イースタンベイ,0
2027,7021002043326,登記記録の閉鎖等,0,2021-12-07,2021-11-29,有限会社オルソ,,有限会社,東京都,町田市,中町１丁目２８番４号,,13,209,1940021,,,2021-11-29,清算の結了等,,,2015-10-05,1,,,,,オルソ,0
2032,7030001059456,登記記録の閉鎖等,0,2021-12-07,2021-12-01,株式会社エンルート,,株式会社,東京都,港区,赤坂１丁目８番１号,,13,103,1070052,,,2021-12-01,清算の結了等,,,2015-10-05,1,,,,,エンルート,0
2033,7030001061552,登記記録の閉鎖等,0,2021-12-07,2021-12-02,株式会社中島不動産事務所,,株式会社,群馬県,高崎市,石原町３９５４番地１三島屋ビル１０２号室,,10,202,3700864,,,2021-12-02,清算の結了等,,,2015-10-05,1,,,,,ナカジマフドウサンジムショ,0
2037,7030001119573,登記記録の閉鎖等,0,2021-12-07,2021-12-02,マエモト住建株式会社,,株式会社,埼玉県,さいたま市南区,鹿手袋２丁目５番１５号,,11,108,3360031,,,2021-12-02,清算の結了等,,,2017-04-11,1,,,,,マエモトジュウケン,0
2058,7050003003344,登記記録の閉鎖等,0,2021-12-07,2021-12-01,合同会社ＮＷ－１,,合同会社,東京都,千代田区,神田錦町２丁目５番１６号,,13,101,1010054,,,2021-12-01,合併による解散等,1010001094543,令和３年１２月１日東京都千代田区神田錦町二丁目５番１６号株式会社ホスピタリティオペレーションズ（1010001094543）に合併し解散,2016-07-11,1,,,,,エヌダブリューイチ,0
2077,7100002018684,登記記録の閉鎖等,0,2021-12-07,2021-12-01,有限会社湯田中温泉設備,,有限会社,長野県,下高井郡山ノ内町,大字平穏２８９７番地１,,20,561,3810401,,,2021-12-01,清算の結了等,,,2015-10-05,1,,,,,ユダナカオンセンセツビ,0
2078,7100002036372,登記記録の閉鎖等,0,2021-12-07,2021-11-30,有限会社サンオフイス,,有限会社,愛知県,江南市,木賀東町新宮２３番地,,23,217,4838163,,,2021-11-30,清算の結了等,,,2015-10-05,1,,,,,サンオフィス,0
2108,7120102007081,登記記録の閉鎖等,0,2021-12-07,2021-12-01,有限会社アイ・テック,,有限会社,大阪府,堺市堺区,旭ヶ丘北町３丁３番２１号,,27,141,5900809,,,2021-12-01,清算の結了等,,,2015-10-05,1,,,,,アイテック,0
2117,7130001050586,登記記録の閉鎖等,0,2021-12-07,2021-12-02,株式会社フェール,,株式会社,京都府,長岡京市,金ケ原平井４０番地の３５,,26,209,6170856,,,2021-12-02,清算の結了等,,,2015-10-05,1,,,,,フェール,0
2127,7140001064610,登記記録の閉鎖等,0,2021-12-07,2021-12-02,株式会社祐庵,,株式会社,兵庫県,姫路市,飾磨区今在家９４８番地２,,28,201,6728079,,,2021-12-02,清算の結了等,,,2015-10-05,1,,,,,ユウアン,0
2140,7140005023612,登記記録の閉鎖等,0,2021-12-07,2021-12-06,一般社団法人障がい者支援協会志明会,,その他の設立登記法人,兵庫県,西宮市,樋ノ口町１丁目１０番３９号,,28,204,6638011,,,2021-12-06,清算の結了等,,,2017-06-21,1,,,,,ショウガイシャシエンキョウカイシメイカイ,0
2167,7190001007787,登記記録の閉鎖等,0,2021-12-07,2021-12-06,株式会社ビーグルコーポレーション,,株式会社,三重県,伊勢市,曽祢２丁目１５番１１号,,24,203,5160078,,,2021-12-06,清算の結了等,,,2015-10-05,1,,,,,,0
2170,7200002028533,登記記録の閉鎖等,0,2021-12-07,2021-12-06,川信産業有限会社,,有限会社,岐阜県,各務原市,川島渡町５６５番地の１,,21,213,5016028,,,2021-12-06,清算の結了等,,,2021-11-17,1,,,,,カワノブサンギョウ,0
2175,7220001024291,登記記録の閉鎖等,0,2021-12-07,2021-12-01,サクネクスト株式会社,,株式会社,石川県,羽咋市,中央町キ５２番地１,,17,207,9250052,,,2021-12-01,清算の結了等,,,2021-07-08,1,,,,,サクネクスト,0
2183,7240002024768,登記記録の閉鎖等,0,2021-12-07,2021-12-03,有限会社ＭＩＣ,,有限会社,広島県,広島市西区,横川新町６番６－１３１１号,,34,104,7330013,,,2021-12-03,清算の結了等,,,2015-10-05,1,,,,,エムアイシー,0
2195,7290002053300,登記記録の閉鎖等,0,2021-12-07,2021-12-01,有限会社古賀設備,,有限会社,福岡県,大川市,大字津２０１番地の２,,40,212,8310035,,,2021-12-01,清算の結了等,,,2015-10-05,1,,,,,コガセツビ,0
2212,7320002013928,登記記録の閉鎖等,0,2021-12-07,2021-11-30,有限会社重峯牧場,,有限会社,大分県,宇佐市,大字山下２７３番地,,44,211,8790474,,,2021-11-30,清算の結了等,,,2015-10-05,1,,,,,シゲミネボクジョウ,0
2220,7340005006497,登記記録の閉鎖等,0,2021-12-07,2021-12-03,医療法人蒼龍会,,その他の設立登記法人,鹿児島県,鹿屋市,寿８丁目１６番４８号,,46,203,8930014,,,2021-12-03,清算の結了等,,,2015-10-05,1,,,,,ソウリュウカイ,0
2259,7450002001606,登記記録の閉鎖等,0,2021-12-07,2021-12-06,有限会社旭建宅地,,有限会社,北海道,上川郡鷹栖町,１１線七号４番地,,01,452,0711251,,,2021-12-06,清算の結了等,,,2015-10-05,1,,,,,キョクケンタクチ,0
2260,7450002005359,登記記録の閉鎖等,0,2021-12-07,2021-12-06,有限会社丸石片野商店,,有限会社,北海道,旭川市,四条通２４丁目左２号,,01,204,0788214,,,2021-12-06,清算の結了等,,,2015-10-05,1,,,,,マルイシカタノショウテン,0
2263,7460102003113,登記記録の閉鎖等,0,2021-12-07,2021-12-03,有限会社邦英,,有限会社,北海道,帯広市,西一条南１１丁目１番地２,,01,207,0800011,,,2021-12-03,清算の結了等,,,2015-10-05,1,,,,,ホウエイ,0
2267,7470002005860,登記記録の閉鎖等,0,2021-12-07,2021-12-03,有限会社不二書店,,有限会社,香川県,高松市,藤塚町６番地７,,37,201,7600071,,,2021-12-03,清算の結了等,,,2015-10-05,1,,,,,フジショテン,0
2268,7470005006229,登記記録の閉鎖等,0,2021-12-07,2021-12-03,ブリッジ税理士法人,,その他の設立登記法人,香川県,高松市,桜町２丁目１５番４１号２０１,,37,201,7600074,,,2021-12-03,清算の結了等,,,2019-11-06,1,,,,,ブリッジ,0
2276,8010001049648,登記記録の閉鎖等,0,2021-12-07,2021-11-22,株式会社たきやま,,株式会社,東京都,中央区,築地３丁目５番１０号,,13,102,1040045,,,2021-11-22,合併による解散等,7010601029810,令和３年１１月１日東京都江東区新木場一丁目８番１１号滝山運輸株式会社（7010601029810）に合併し解散,2015-10-05,1,,,,,タキヤマ,0
2318,8011002001564,登記記録の閉鎖等,0,2021-12-07,2021-11-25,有限会社エバーススタジオ,,有限会社,東京都,渋谷区,代官山町２番６号,,13,113,1500034,,,2021-11-25,清算の結了等,,,2015-10-05,1,,,,,エバーススタジオ,0
2359,8020002103320,登記記録の閉鎖等,0,2021-12-07,2021-12-03,有限会社小野寺翻訳サポート,,有限会社,神奈川県,横浜市中区,伊勢佐木町７丁目１５５番地９,,14,104,2310045,,,2021-12-03,清算の結了等,,,2015-10-05,1,,,,,オノデラホンヤクサポート,0
2398,8110001025952,登記記録の閉鎖等,0,2021-12-07,2021-11-30,バイオ・テクノ株式会社,,株式会社,新潟県,見附市,今町５丁目４５番２８号,,15,211,9540111,,,2021-11-30,清算の結了等,,,2015-10-05,1,,,,,バイオテクノ,0
2416,8120003017609,登記記録の閉鎖等,0,2021-12-07,2021-12-02,合同会社万永商店,,合同会社,大阪府,大阪市生野区,桃谷２丁目２３－２４,,27,116,5440034,,,2021-12-02,清算の結了等,,,2020-06-23,1,,,,,マンエイショウテン,0
2421,8120102021924,登記記録の閉鎖等,0,2021-12-07,2021-12-01,有限会社ツカヤテック,,有限会社,大阪府,大阪市西区,立売堀２丁目５番４１号,,27,106,5500012,,,2021-12-01,清算の結了等,,,2015-10-05,1,,,,,,0
2431,8130002004037,登記記録の閉鎖等,0,2021-12-07,2021-12-01,有限会社ドゥ・カラー,,有限会社,京都府,京都市北区,紫野雲林院町４番地の７,,26,101,6038214,,,2021-12-01,清算の結了等,,,2015-10-05,1,,,,,ドゥカラー,0
2433,8130003007006,登記記録の閉鎖等,0,2021-12-07,2021-12-02,アイティーリンク合同会社,,合同会社,京都府,京都市右京区,嵯峨新宮町４３番地１パークホームズ嵯峨嵐山桜邸４０２,,26,108,6168355,,,2021-12-02,清算の結了等,,,2021-02-04,1,,,,,アイティーリンク,0
2453,8180001026531,登記記録の閉鎖等,0,2021-12-07,2021-12-03,株式会社ナゴヤサービス,,株式会社,愛知県,名古屋市西区,木前町６０番地１,,23,104,4520834,,,2021-12-03,清算の結了等,,,2015-10-05,1,,,,,ナゴヤサービス,0
2459,8180001108148,登記記録の閉鎖等,0,2021-12-07,2021-11-30,神祗院フード＆レストランズ株式会社,,株式会社,滋賀県,長浜市,野瀬町８７４番地,,25,203,5260203,,,2021-11-30,清算の結了等,,,2015-10-05,1,,,,,ジンギインフードアンドレストランズ,0
2484,8240002002962,登記記録の閉鎖等,0,2021-12-07,2021-12-02,有限会社大手町車庫,,有限会社,広島県,広島市中区,大手町３丁目８番２４号,,34,101,7300051,,,2021-12-02,清算の結了等,,,2015-10-05,1,,,,,オオテマチシャコ,0
2487,8240002051134,登記記録の閉鎖等,0,2021-12-07,2021-12-03,有限会社仁井谷ミシン商会,,有限会社,広島県,尾道市,山波町６７８番地の１６３,,34,205,7220052,,,2021-12-03,清算の結了等,,,2015-10-05,1,,,,,ニイタニミシンショウカイ,0
2488,8240005014286,登記記録の閉鎖等,0,2021-12-07,2021-11-30,一般社団法人日本石庭文化保存協会,,その他の設立登記法人,広島県,東広島市,高屋町高屋堀１５８９番地７,,34,212,7392111,,,2021-11-30,合併による解散等,1240005015266,令和３年１１月３０日広島県東広島市高屋町高屋堀１５８９番地７一般財団法人仙石庭園（1240005015266）に合併し解散,2016-12-08,1,,,,,ニホンセキテイブンカホゾンキョウカイ,0
2490,8260001020773,登記記録の閉鎖等,0,2021-12-07,2021-12-03,株式会社ジェム,,株式会社,岡山県,美作市,栄町１２４番地の１,,33,215,7070025,,,2021-12-03,清算の結了等,,,2015-10-05,1,,,,,ジェム,0
2510,8290802013428,登記記録の閉鎖等,0,2021-12-07,2021-12-02,有限会社植木米穀店,,有限会社,福岡県,北九州市八幡西区,大浦２丁目１４－１７－９１２,,40,109,8070874,,,2021-12-02,清算の結了等,,,2015-10-05,1,,,,,ウエキベイコクテン,0
2529,8380001016314,登記記録の閉鎖等,0,2021-12-07,2021-12-01,株式会社みどり介護タクシー,,株式会社,福島県,南相馬市,原町区大木戸字北西原１４５番地の３,,07,212,9750061,,,2021-12-01,清算の結了等,,,2015-10-05,1,,,,,ミドリカイゴタクシー,0
2536,8380001029530,登記記録の閉鎖等,0,2021-12-07,2021-12-01,末続イノベーション農業株式会社,,株式会社,福島県,いわき市,久之浜町末続字淵石３４番地,,07,204,9790331,,,2021-12-01,清算の結了等,,,2018-10-29,1,,,,,,0
2543,8402705000433,登記記録の閉鎖等,0,2021-12-07,2021-12-03,一般社団法人美ら海大船渡,,その他の設立登記法人,岩手県,大船渡市,大船渡町字赤沢７８番地１,,03,203,0220002,,,2021-12-03,清算の結了等,,,2015-10-05,1,,,,,チュラウミオオフナト,0
2545,8410005001614,登記記録の閉鎖等,0,2021-12-07,2021-12-03,社会福祉法人富永会,,その他の設立登記法人,秋田県,男鹿市,脇本富永字南前田７２番地,,05,206,0100344,,,2021-12-03,清算の結了等,,,2015-10-05,1,,,,,トミナガカイ,0
2553,8430002025226,登記記録の閉鎖等,0,2021-12-07,2021-12-03,有限会社丸宗酒田産業,,有限会社,北海道,札幌市西区,八軒五条東４丁目１番１０号,,01,107,0630865,,,2021-12-03,清算の結了等,,,2015-10-05,1,,,,,マルソウサカタサンギョウ,0
2555,8430002063003,登記記録の閉鎖等,0,2021-12-07,2021-12-01,有限会社スズランオート,,有限会社,北海道,沙流郡平取町,字荷菜２０番地１３,,01,602,0550106,,,2021-12-01,清算の結了等,,,2015-10-05,1,,,,,スズランオート,0
2570,8490002002194,登記記録の閉鎖等,0,2021-12-07,2021-12-06,有限会社サンケンホーム,,有限会社,高知県,高知市,万々６２６番地１８,,39,201,7800973,,,2021-12-06,清算の結了等,,,2015-10-05,1,,,,,サンケンホーム,0
2600,9010001187942,登記記録の閉鎖等,0,2021-12-07,2021-12-01,株式会社くおん,,株式会社,大阪府,枚方市,招提大谷２丁目１７番１号,,27,210,5731153,,,2021-12-01,合併による解散等,1120001148833,令和３年１２月１日大阪府枚方市招提大谷二丁目１７番１号株式会社横井製作所（1120001148833）に合併し解散,2017-11-30,1,,,,,クオン,0
2617,9010401145434,登記記録の閉鎖等,0,2021-12-07,2021-12-01,株式会社ＳＪ＆Ｔ,,株式会社,東京都,港区,赤坂１丁目３番１９号,,13,103,1070052,,,2021-12-01,合併による解散等,7010401017255,令和３年１２月１日東京都港区赤坂二丁目２１番１２号株式会社タンデム（7010401017255）に合併し解散,2019-05-15,1,,,,,エスジェイアンドティー,0
2621,9010502022391,登記記録の閉鎖等,0,2021-12-07,2021-12-02,有限会社拓建築設計事務所,,有限会社,東京都,小平市,上水本町６丁目１５６８－１,,13,211,1870022,,,2021-12-02,清算の結了等,,,2015-10-05,1,,,,,タクケンチクセッケイジムショ,0
2628,9010603006211,登記記録の閉鎖等,0,2021-12-07,2021-12-01,合同会社秀隆実業,,合同会社,東京都,墨田区,東駒形４丁目１番７号グリーンキャピタル東駒形１０２号,,13,107,1300005,,,2021-12-01,清算の結了等,,,2016-03-04,1,,,,,ヒデタカジツギョウ,0
2644,9011001044670,登記記録の閉鎖等,0,2021-12-07,2021-11-26,株式会社インテグリティ,,株式会社,東京都,渋谷区,渋谷１丁目１番１０号ニューハイツ青山６０１,,13,113,1500002,,,2021-11-26,清算の結了等,,,2015-10-05,1,,,,,インテグリティ,0
2675,9011802030290,登記記録の閉鎖等,0,2021-12-07,2021-12-06,有限会社川崎企画,,有限会社,東京都,足立区,宮城１丁目１番２３－１５０４号,,13,121,1200047,,,2021-12-06,清算の結了等,,,2015-10-05,1,,,,,カワサキキカク,0
2682,9012802006685,登記記録の閉鎖等,0,2021-12-07,2021-12-02,有限会社小林通信,,有限会社,東京都,立川市,高松町１丁目１１番１４号,,13,202,1900011,,,2021-12-02,清算の結了等,,,2015-10-05,1,,,,,,0
2704,9021001051534,登記記録の閉鎖等,0,2021-12-07,2021-12-01,株式会社ＭＳＫ企画,,株式会社,神奈川県,小田原市,田島６７０番地,,14,206,2560811,,,2021-12-01,清算の結了等,,,2015-10-05,1,,,,,エムエスケイキカク,0
2726,9040001089013,登記記録の閉鎖等,0,2021-12-07,2021-12-03,株式会社ＰＧＩ,,株式会社,千葉県,柏市,松葉町７丁目１９番地５,,12,217,2770827,,,2021-12-03,清算の結了等,,,2015-10-05,1,,,,,ピージーアイ,0
2731,9040002070509,登記記録の閉鎖等,0,2021-12-07,2021-12-01,有限会社パテスリーロンシャン,,有限会社,千葉県,君津市,中野２丁目５番２２号,,12,225,2991151,,,2021-12-01,清算の結了等,,,2015-10-05,1,,,,,パテスリーロンシャン,0
2739,9050002025049,登記記録の閉鎖等,0,2021-12-07,2021-12-01,有限会社総和ジャンボゴルフ,,有限会社,茨城県,古河市,下大野８３０番地,,08,204,3060204,,,2021-12-01,清算の結了等,,,2015-10-05,1,,,,,ソウワジャンボゴルフ,0
2762,9110002015209,登記記録の閉鎖等,0,2021-12-07,2021-12-02,有限会社関谷,,有限会社,新潟県,新発田市,中曽根７７０番地,,15,206,9570000,,,2021-12-02,清算の結了等,,,2015-10-05,1,,,,,,0
2763,9110002016322,登記記録の閉鎖等,0,2021-12-07,2021-12-01,有限会社リカーズ羽田,,有限会社,新潟県,胎内市,若松町２番３０号,,15,227,9592641,,,2021-12-01,清算の結了等,,,2015-10-05,1,,,,,リカーズハダ,0
2767,9120001121519,登記記録の閉鎖等,0,2021-12-07,2021-12-01,株式会社渡辺建築設計,,株式会社,大阪府,大阪市平野区,流町１丁目１番２３号,,27,126,5470032,,,2021-12-01,清算の結了等,,,2015-10-05,1,,,,,ワタナベケンチクセッケイ,0
2777,9120001204125,登記記録の閉鎖等,0,2021-12-07,2021-12-01,株式会社ＫＯＴＯハウス,,株式会社,大阪府,大阪市東住吉区,公園南矢田２丁目１番１９号,,27,121,5460024,,,2021-12-01,清算の結了等,,,2017-03-07,1,,,,,,0
2821,9180001053327,登記記録の閉鎖等,0,2021-12-07,2021-12-02,株式会社ムネヒロ,,株式会社,愛知県,名古屋市中川区,澄池町２１番１号,,23,110,4540806,,,2021-12-02,清算の結了等,,,2015-10-05,1,,,,,ムネヒロ,0
2822,9180001085989,登記記録の閉鎖等,0,2021-12-07,2021-12-03,中嶋合成株式会社,,株式会社,愛知県,稲沢市,井之口親畑町１３３番地,,23,220,4928156,,,2021-12-03,合併による解散等,2120001021304,令和３年１２月１日大阪市平野区加美北六丁目１５番１４号ハシダ技研工業株式会社（2120001021304）に合併し解散,2015-10-05,1,,,,,ナカシマゴウセイ,0
2823,9180001099592,登記記録の閉鎖等,0,2021-12-07,2021-12-02,株式会社ビジネスエボリューション,,株式会社,愛知県,名古屋市東区,泉１丁目２１番２７号,,23,102,4610001,,,2021-12-02,清算の結了等,,,2015-10-05,1,,,,,ビジネスエボリューション,0
2834,9180302023557,登記記録の閉鎖等,0,2021-12-07,2021-12-03,有限会社丸善自動車,,有限会社,愛知県,豊田市,竹元町南嶋５番地,,23,211,4730913,,,2021-12-03,清算の結了等,,,2015-10-05,1,,,,,マルゼンジドウシャ,0
2855,9260002032107,登記記録の閉鎖等,0,2021-12-07,2021-12-03,有限会社山本汽船,,有限会社,岡山県,備前市,日生町寒河１４４７番地,,33,211,7013202,,,2021-12-03,清算の結了等,,,2015-10-05,1,,,,,ヤマモトキセン,0
2911,9380002019975,登記記録の閉鎖等,0,2021-12-07,2021-12-01,有限会社清栄,,有限会社,福島県,須賀川市,北山寺町２３６番地,,07,207,9620061,,,2021-12-01,清算の結了等,,,2015-10-05,1,,,,,,0
2918,9390001000910,登記記録の閉鎖等,0,2021-12-07,2021-12-03,株式会社食の山形情報社,,株式会社,山形県,山形市,旅篭町２丁目１番１５号,,06,201,9900047,,,2021-12-03,清算の結了等,,,2015-10-05,1,,,,,ショクノヤマガタジョウホウシャ,0
2928,9430001045109,登記記録の閉鎖等,0,2021-12-07,2021-12-01,株式会社ＹＯＳＳ,,株式会社,北海道,札幌市中央区,大通西５丁目１１番地１,,01,101,0600042,,,2021-12-01,清算の結了等,,,2015-10-05,1,,,,,ユース,0
