sequenceNumber,corporateNumber,process,correct,updateDate,changeDate,name,nameImageId,kind,prefectureName,cityName,streetNumber,addressImageId,prefectureCode,cityCode,postCode,addressOutside,addressOutsideImageId,closeDate,closeCause,successorCorporateNumber,changeCause,assignmentDate,latest,enName,enPrefectureName,enCityName,enAddressOutside,furigana,hihyoji
9,1010001232755,新規,0,2023-02-08,2023-02-08,暗号資産取引準備株式会社,,株式会社,東京都,千代田区,永田町２丁目１１番１号,,13,101,1000014,,,,,,,2023-02-08,1,,,,,アンゴウシサントリヒキジュンビ,0
10,1010001232788,新規,0,2023-02-08,2023-02-08,ＴＥＣ株式会社,,株式会社,東京都,中央区,銀座１丁目１２番４号Ｎ＆ＥＢＬＤ．６Ｆ,,13,102,1040061,,,,,,,2023-02-08,1,,,,,テック,0
11,1010001232821,新規,0,2023-02-08,2023-02-08,株式会社Ｒｅｌｙ,,株式会社,東京都,中央区,日本橋２丁目１－３アーバンネット日本橋二丁目ビル１０階,,13,102,1030027,,,,,,,2023-02-08,1,,,,,リライ,0
23,1010401172221,新規,0,2023-02-08,2023-02-08,トプシュー株式会社,,株式会社,東京都,港区,新橋１丁目１２－９,,13,103,1050004,,,,,,,2023-02-08,1,,,,,トプシュー,0
24,1010401172337,新規,0,2023-02-08,2023-02-08,Ｔｈｅ　ＤＯＯＲＳ株式会社,,株式会社,東京都,港区,浜松町１丁目１８番１３号高桑ビル３階,,13,103,1050013,,,,,,,2023-02-08,1,,,,,ザドアーズ,0
26,1010403029460,新規,0,2023-02-08,2023-02-08,Ｓ４合同会社,,合同会社,東京都,港区,西麻布１丁目１５番４号グラード西麻布７０２,,13,103,1060031,,,,,,,2023-02-08,1,,,,,エスフォー,0
27,1010403029469,新規,0,2023-02-08,2023-02-08,ＶＪ　ＣＯＩＮ合同会社,,合同会社,東京都,港区,東新橋２丁目７番３号,,13,103,1050021,,,,,,,2023-02-08,1,,,,,ブイジェイコイン,0
46,1010703006580,新規,0,2023-02-08,2023-02-08,合同会社ｆｌｅｕｒ,,合同会社,東京都,品川区,上大崎１丁目１番１７号プライムメゾン白金台タワー６１２,,13,109,1410021,,,,,,,2023-02-08,1,,,,,フルール,0
48,1010803004443,新規,0,2023-02-08,2023-02-08,ひつじ不動産合同会社,,合同会社,東京都,大田区,中馬込１丁目１１番２５号ウィンベルソロ中馬込Ｎｏ１－２０５号室,,13,111,1430027,,,,,,,2023-02-08,1,,,,,ヒツジフドウサン,0
50,1010901052492,新規,0,2023-02-08,2023-02-08,株式会社ＷＷＡ,,株式会社,東京都,世田谷区,松原１丁目４５番１０号ＫＴスクエアー５Ｄ,,13,112,1560043,,,,,,,2023-02-08,1,,,,,ダブルダブルエー,0
60,1011001152472,新規,0,2023-02-08,2023-02-08,株式会社ＡＣＣＥＳＳ　ＤＥＳＩＧＮ　ＳＴＵＤＩＯ,,株式会社,東京都,目黒区,目黒１丁目１番１６号目黒台マンション－Ａ１００７,,13,110,1530063,,,,,,,2023-02-08,1,,,,,アクセスデザインスタジオ,0
62,1011003016205,新規,0,2023-02-08,2023-02-08,Ｋａｐｎｏｓ合同会社,,合同会社,東京都,渋谷区,笹塚２丁目４１－２２,,13,113,1510073,,,,,,,2023-02-08,1,,,,,カプノス,0
66,1011101101791,新規,0,2023-02-08,2023-02-08,株式会社Ｂｕｂｂｌｅ,,株式会社,東京都,新宿区,大久保１丁目１番７号シーフォルム東新宿ＩＩ２１１,00129381,13,104,1690072,,,,,,,2023-02-08,1,,,,,バブル,0
68,1011103012681,新規,0,2023-02-08,2023-02-08,合同会社定心,,合同会社,東京都,新宿区,西新宿３丁目３番１３号西新宿水間ビル２Ｆ,,13,104,1600023,,,,,,,2023-02-08,1,,,,,テイシン,0
69,1011201024406,新規,0,2023-02-08,2023-02-08,リリックテクノロジー株式会社,,株式会社,東京都,中野区,若宮１丁目７番１４号,,13,114,1650033,,,,,,,2023-02-08,1,,,,,リリックテクノロジー,0
75,1011601026571,新規,0,2023-02-08,2023-02-08,株式会社ＴＥＩＳＯ　ＧＲＯＵＰ,,株式会社,東京都,練馬区,平和台４丁目２番５号,,13,120,1790083,,,,,,,2023-02-08,1,,,,,テイソグループ,0
80,1012703002634,新規,0,2023-02-08,2023-02-08,合同会社ＴＯ　ｔｒａｄｉｎｇ,,合同会社,東京都,西東京市,住吉町４丁目２番２号,,13,229,2020005,,,,,,,2023-02-08,1,,,,,ティーオートレーディング,0
84,1013301050281,新規,0,2023-02-08,2023-02-08,株式会社アラウンドＩ,,株式会社,東京都,豊島区,西池袋２丁目２２番７号目白第三欅マンション２０２号,00129376,13,116,1710021,,,,,,,2023-02-08,1,,,,,アラウンドアイ,0
101,1021001078155,新規,0,2023-02-08,2023-02-08,株式会社Ｎａｎａｌａｐｉｓ,,株式会社,神奈川県,小田原市,久野７５２番地の２－２０３,,14,206,2500055,,,,,,,2023-02-08,1,,,,,ナナラピス,0
102,1021001078163,新規,0,2023-02-08,2023-02-08,株式会社勇心空設,,株式会社,神奈川県,秦野市,南矢名１７９８番地の６,,14,211,2570003,,,,,,,2023-02-08,1,,,,,イサミクウセツ,0
103,1021003012723,新規,0,2023-02-08,2023-02-08,合同会社ゴールドライン,,合同会社,神奈川県,秦野市,北矢名５２４－５シティ５－２０１号,,14,211,2570006,,,,,,,2023-02-08,1,,,,,ゴールドライン,0
107,1030001152308,新規,0,2023-02-08,2023-02-08,株式会社Ｔｒｅｎｄ　Ｌｉｎｋ,,株式会社,埼玉県,草加市,長栄４丁目１８番地２０,,11,221,3400051,,,,,,,2023-02-08,1,,,,,トレンドリンク,0
108,1030001152324,新規,0,2023-02-08,2023-02-08,樹楽株式会社,,株式会社,埼玉県,所沢市,東新井町１３６番地の１,,11,208,3590034,,,,,,,2023-02-08,1,,,,,ジュガク,0
114,1030005021129,新規,0,2023-02-08,2023-02-08,一般社団法人埼玉県介護タクシー協会,,その他の設立登記法人,埼玉県,さいたま市大宮区,堀の内町１丁目２９２番地コーポ棕梠２０３,,11,103,3300804,,,,,,,2023-02-08,1,,,,,サイタマケンカイゴタクシーキョウカイ,0
117,1040001127003,新規,0,2023-02-08,2023-02-08,株式会社Ｒ　Ｇｒｏｕｐ,,株式会社,千葉県,千葉市中央区,中央３丁目１８番３号加瀬ビル１５８・４０４号室,,12,101,2600013,,,,,,,2023-02-08,1,,,,,アールグループ,0
121,1050001052357,新規,0,2023-02-08,2023-02-08,株式会社ＡＬＹＡＮ　ＴＲＡＤＩＮＧ,,株式会社,茨城県,坂東市,岩井４４０８番地１ベルハイムＩ２０２,00129375,08,228,3060631,,,,,,,2023-02-08,1,,,,,アルヤントレーディング,0
130,1100003006875,新規,0,2023-02-08,2023-02-08,合同会社プランニング軽井沢,,合同会社,長野県,北佐久郡軽井沢町,大字発地２５３２番地６,,20,321,3890113,,,,,,,2023-02-08,1,,,,,プランニングカルイザワ,0
134,1120001043712,新規,0,2023-02-08,2023-02-08,三東保温株式会社,,株式会社,大阪府,大阪市西区,南堀江４丁目２５番１号東芝ビル,,27,106,5500015,,,,,,,2023-02-08,1,,,,,,0
142,1120001252271,新規,0,2023-02-08,2023-02-08,株式会社Ｂｉｚ　Ｅｓｓｅｎｃｅ,,株式会社,大阪府,大阪市生野区,桃谷５丁目８番２号,,27,116,5440034,,,,,,,2023-02-08,1,,,,,ビズエッセンス,0
143,1120001252321,新規,0,2023-02-08,2023-02-08,ソウロ株式会社,,株式会社,大阪府,大阪市西成区,旭２丁目１番２８－３０３号,,27,122,5570032,,,,,,,2023-02-08,1,,,,,ソウロ,0
144,1120001252346,新規,0,2023-02-08,2023-02-08,株式会社ツインテール,,株式会社,大阪府,大阪市浪速区,日本橋西１丁目６番３号,,27,111,5560004,,,,,,,2023-02-08,1,,,,,ツインテール,0
145,1120001252362,新規,0,2023-02-08,2023-02-08,株式会社ＳＩ,,株式会社,大阪府,大阪市生野区,巽北１丁目１５番２号,00129374,27,116,5440004,,,,,,,2023-02-08,1,,,,,エスアイ,0
159,1122003002514,新規,0,2023-02-08,2023-02-08,合同会社つむぎ福祉会,,合同会社,大阪府,八尾市,南久宝寺２丁目４４－６,,27,212,5810076,,,,,,,2023-02-08,1,,,,,ツムギフクシカイ,0
167,1140001129071,新規,0,2023-02-08,2023-02-08,朝来商事株式会社,,株式会社,兵庫県,尼崎市,金楽寺町１丁目４番３０－１０５,,28,202,6600806,,,,,,,2023-02-08,1,,,,,アサゴショウジ,0
181,1180001154909,新規,0,2023-02-08,2023-02-08,株式会社ＭＯＤＡ,,株式会社,愛知県,名古屋市名東区,八前１丁目８０１番地ライオンビル１０２号,,23,115,4650018,,,,,,,2023-02-08,1,,,,,モーダ,0
182,1180001154917,新規,0,2023-02-08,2023-02-08,株式会社ＬＩＦＥ　ＤＥＰＴ．,,株式会社,愛知県,名古屋市中川区,細米町２丁目２１番地,,23,110,4540847,,,,,,,2023-02-08,1,,,,,ライフデプト,0
184,1180003024829,新規,0,2023-02-08,2023-02-08,合同会社プレーンフィールド,,合同会社,愛知県,名古屋市中村区,鳥居通２丁目２４番地１－３０１号室,,23,105,4530044,,,,,,,2023-02-08,1,,,,,プレーンフィールド,0
198,1270003001488,新規,0,2023-02-08,2023-02-08,真和精工合同会社,,合同会社,鳥取県,鳥取市,古海３０５古海テナント２号,,31,201,6800921,,,,,,,2023-02-08,1,,,,,シンワセイコウ,0
199,1280001008880,新規,0,2023-02-08,2023-02-08,株式会社ＳＫクリエイト,,株式会社,島根県,益田市,駅前町１１番７号,,32,204,6980024,,,,,,,2023-02-08,1,,,,,エスケイクリエイト,0
203,1290003013507,新規,0,2023-02-08,2023-02-08,合同会社ぴいす,,合同会社,福岡県,福岡市東区,蒲田３丁目１４番３２号,,40,131,8130023,,,,,,,2023-02-08,1,,,,,ピイス,0
217,1310001018265,新規,0,2023-02-08,2023-02-08,株式会社ネクスタ,,株式会社,長崎県,西彼杵郡長与町,嬉里郷４８０番地３満本ビル１Ｆ　Ａ,,42,307,8512128,,,,,,,2023-02-08,1,,,,,ネクスタ,0
220,1320003004015,新規,0,2023-02-08,2023-02-08,福源建築合同会社,,合同会社,大分県,大分市,敷戸東町２７番１号,,44,201,8701104,,,,,,,2023-02-08,1,,,,,フクゲンケンチク,0
230,1370001049528,新規,0,2023-02-08,2023-02-08,株式会社Ａｍｉｓｔａｄ　ｗｅａｒ,,株式会社,宮城県,仙台市宮城野区,栄１丁目４番１４－１０１号,,04,102,9830011,,,,,,,2023-02-08,1,,,,,アミスタウェア,0
231,1370003005982,新規,0,2023-02-08,2023-02-08,合同会社ＡＳＨ,,合同会社,宮城県,石巻市,大街道北３丁目６番２号,,04,202,9860854,,,,,,,2023-02-08,1,,,,,エイエスエイチ,0
238,1410003003750,新規,0,2023-02-08,2023-02-08,合同会社ブンノー,,合同会社,秋田県,仙北市,角館町下延上川原２０１,,05,215,0140343,,,,,,,2023-02-08,1,,,,,ブンノー,0
243,1430003014713,新規,0,2023-02-08,2023-02-08,ハセナイ合同会社,,合同会社,北海道,小樽市,見晴町１６番２６号,,01,203,0470263,,,,,,,2023-02-08,1,,,,,ハセナイ,0
246,1440003001512,新規,0,2023-02-08,2023-02-08,合同会社Ｂａｔｏｎ　Ｔｏｕｃｈ,,合同会社,北海道,山越郡長万部町,字長万部４２９番地１５２,,01,347,0493521,,,,,,,2023-02-08,1,,,,,バトンタッチ,0
249,1470001019470,新規,0,2023-02-08,2023-02-08,株式会社ｙＡｍＡ,,株式会社,香川県,坂出市,福江町２丁目２番５号べレオ福江３０３号,,37,203,7620034,,,,,,,2023-02-08,1,,,,,ヤマ,0
250,1480001011996,新規,0,2023-02-08,2023-02-08,株式会社トクスイ,,株式会社,徳島県,徳島市,北沖洲４丁目１番３８号,,36,201,7700872,,,,,,,2023-02-08,1,,,,,トクスイ,0
272,2010001232779,新規,0,2023-02-08,2023-02-08,株式会社伸栄ジャパン,,株式会社,東京都,中央区,日本橋茅場町２丁目１番１１号,,13,102,1030025,,,,,,,2023-02-08,1,,,,,シンエイジャパン,0
273,2010001232853,新規,0,2023-02-08,2023-02-08,株式会社ＴＣＷ,,株式会社,東京都,中央区,月島３丁目３番２号,,13,102,1040052,,,,,,,2023-02-08,1,,,,,ティーシーダブリュウ,0
274,2010005036185,新規,0,2023-02-08,2023-02-08,一般社団法人日本環境資源再生協会,,その他の設立登記法人,東京都,中央区,日本橋箱崎町７番２‐３０２号,,13,102,1030015,,,,,,,2023-02-08,1,,,,,ニホンカンキョウシゲンサイセイキョウカイ,0
282,2010401172261,新規,0,2023-02-08,2023-02-08,リレイジー株式会社,,株式会社,東京都,港区,港南２丁目４－１４－３０４,,13,103,1080075,,,,,,,2023-02-08,1,,,,,リレイジー,0
283,2010401172278,新規,0,2023-02-08,2023-02-08,株式会社Ｎｅｗ　Ｎｏｒｍａｌ,,株式会社,東京都,港区,白金６丁目１６番２５－２４１０号,,13,103,1080072,,,,,,,2023-02-08,1,,,,,ニューノーマル,0
284,2010401172393,新規,0,2023-02-08,2023-02-08,株式会社ＰＵＲＰＬｅ,,株式会社,東京都,港区,南青山３丁目１番３６号青山丸竹ビル６Ｆ,,13,103,1070062,,,,,,,2023-02-08,1,,,,,パープル,0
285,2010403029468,新規,0,2023-02-08,2023-02-08,メディウム合同会社,,合同会社,東京都,港区,南青山２丁目２番１５号,,13,103,1070062,,,,,,,2023-02-08,1,,,,,メディウム,0
289,2010501049970,新規,0,2023-02-08,2023-02-08,洪塘商事株式会社,,株式会社,東京都,台東区,浅草橋５丁目８番３号新田ビル１０２室,,13,106,1110053,,,,,,,2023-02-08,1,,,,,コウトウショウジ,0
292,2010601062568,新規,0,2023-02-08,2023-02-08,符号堂株式会社,,株式会社,東京都,墨田区,錦糸１丁目２番１号アルカセントラル１４階,,13,107,1300013,,,,,,,2023-02-08,1,,,,,フゴウドウ,0
298,2010801033666,新規,0,2023-02-08,2023-02-08,Ｔｒｙ　ＭＴＣ株式会社,,株式会社,東京都,大田区,池上３丁目４１番３号ハウスコンフォート１０２号,,13,111,1460082,,,,,,,2023-02-08,1,,,,,トライエムティーシー,0
302,2010901052434,新規,0,2023-02-08,2023-02-08,株式会社ＣｏＣｅｒｔ,,株式会社,東京都,世田谷区,代田４丁目２８番１０号,,13,112,1550033,,,,,,,2023-02-08,1,,,,,コーチェルト,0
311,2011003016261,新規,0,2023-02-08,2023-02-08,サステナブルエネルギー合同会社,,合同会社,東京都,渋谷区,渋谷２丁目１５番１号渋谷クロスタワー１３階ＰＨＯＴＯＮＣＡＰＩＴＡＬ合同会社内,,13,113,1500002,,,,,,,2023-02-08,1,,,,,サステナブルエネルギー,0
316,2011103012680,新規,0,2023-02-08,2023-02-08,合同会社まる,,合同会社,東京都,新宿区,西新宿７丁目５－９ファーストリアルタワー新宿２００６,,13,104,1600023,,,,,,,2023-02-08,1,,,,,マル,0
319,2011701026000,新規,0,2023-02-08,2023-02-08,日本先進医旅サービス株式会社,,株式会社,東京都,江戸川区,北小岩６丁目１６番８号リッツハウス４０２,,13,123,1330051,,,,,,,2023-02-08,1,,,,,ニホンセンシンイリョサービス,0
322,2012401040159,新規,0,2023-02-08,2023-02-08,株式会社ＡＲＡＨＡＴ,,株式会社,東京都,調布市,深大寺東町５丁目２４番地１４,,13,208,1820012,,,,,,,2023-02-08,1,,,,,アラハット,0
323,2012401040167,新規,0,2023-02-08,2023-02-08,市場食品工房株式会社,,株式会社,東京都,調布市,多摩川３丁目４１番地３長谷川ビル１０２,,13,208,1820025,,,,,,,2023-02-08,1,,,,,イチバショクヒンコウボウ,0
328,2013303006487,新規,0,2023-02-08,2023-02-08,フェニックス合同会社,,合同会社,東京都,豊島区,池袋２丁目３０－１５三田池袋西コーポ４０２,,13,116,1710014,,,,,,,2023-02-08,1,,,,,フェニックス,0
333,2020001150138,新規,0,2023-02-08,2023-02-08,株式会社神部建築設計事務所,,株式会社,神奈川県,横浜市港北区,綱島西６丁目１番２１号ピアチェーレ２０１,,14,109,2230053,,,,,,,2023-02-08,1,,,,,カンベケンチクセッケイジムショ,0
334,2020001150146,新規,0,2023-02-08,2023-02-08,株式会社Ｊｅｘｅｎ,,株式会社,神奈川県,横浜市青葉区,美しが丘１丁目１３番地１０吉村ビル１０７号,,14,117,2250002,,,,,,,2023-02-08,1,,,,,ジュクセン,0
335,2020003023267,新規,0,2023-02-08,2023-02-08,合同会社Ｌｉｋｅ　Ｆａｃｔｏｒｙ,,合同会社,神奈川県,横浜市中区,元浜町３丁目２３番地,,14,104,2310004,,,,,,,2023-02-08,1,,,,,ライクファクトリー,0
336,2021001078162,新規,0,2023-02-08,2023-02-08,アローエンジニアリング株式会社,,株式会社,神奈川県,平塚市,南金目１０番地,,14,203,2591201,,,,,,,2023-02-08,1,,,,,アローエンジニアリング,0
340,2021003012730,新規,0,2023-02-08,2023-02-08,合同会社ｓａｉ,,合同会社,神奈川県,小田原市,前川５５２番地の１ロッキーホーム前川２０１,,14,206,2560813,,,,,,,2023-02-08,1,,,,,サイ,0
346,2030001152298,新規,0,2023-02-08,2023-02-08,ＡＫＷＩＮＧ株式会社,,株式会社,埼玉県,さいたま市岩槻区,大字岩槻５２２４番地２,,11,110,3390061,,,,,,,2023-02-08,1,,,,,エーケーウイング,0
351,2030003021121,新規,0,2023-02-08,2023-02-08,合同会社ＲｅｖｅｒＳｉ,,合同会社,埼玉県,さいたま市中央区,鈴谷７丁目４番１４号,,11,105,3380013,,,,,,,2023-02-08,1,,,,,リヴァーシ,0
358,2040002101708,新規,0,2023-02-08,2023-02-08,有限会社池田鉄筋,,有限会社,千葉県,いすみ市,山田１０２８番地,,12,238,2980025,,,,,,,2023-02-08,1,,,,,イケダテッキン,0
359,2040003021871,新規,0,2023-02-08,2023-02-08,ＬｉｉＬｕ合同会社,,合同会社,千葉県,流山市,南流山７丁目１８－１１,,12,220,2700163,,,,,,,2023-02-08,1,,,,,リイル,0
360,2040003021896,新規,0,2023-02-08,2023-02-08,合同会社ＡＫエンジニア,,合同会社,千葉県,船橋市,田喜野井２丁目２７番７号,,12,204,2740073,,,,,,,2023-02-08,1,,,,,エーケーエンジニア,0
366,2050003007234,新規,0,2023-02-08,2023-02-08,合同会社悠々スマイル,,合同会社,茨城県,牛久市,中央２丁目１８番地７,,08,219,3001234,,,,,,,2023-02-08,1,,,,,ユウユウスマイル,0
367,2070001040103,新規,0,2023-02-08,2023-02-08,株式会社シーサー不動産,,株式会社,群馬県,高崎市,台新田町１３６番地２,,10,202,3701206,,,,,,,2023-02-08,1,,,,,シーサーフドウサン,0
368,2070001040111,新規,0,2023-02-08,2023-02-08,株式会社Ａｉｍｈｉｇｈ　ＲＥＵＮＩＯＮ,,株式会社,群馬県,高崎市,浜尻町５２３Ｅ－ＳＴＡＧＥ、Ｄ号室,,10,202,3700005,,,,,,,2023-02-08,1,,,,,エイムハイリユニオン,0
369,2080001025458,新規,0,2023-02-08,2023-02-08,株式会社Ｒｅｖｉｎｇ,,株式会社,静岡県,島田市,菊川９３－３,,22,209,4280037,,,,,,,2023-02-08,1,,,,,リビング,0
373,2100001036139,新規,0,2023-02-08,2023-02-08,株式会社ぶどうやぶ,,株式会社,長野県,長野市,信州新町下市場４１２番地７,,20,201,3812413,,,,,,,2023-02-08,1,,,,,ブドウヤブ,0
379,2110003004976,新規,0,2023-02-08,2023-02-08,合同会社北越リペア,,合同会社,新潟県,長岡市,希望が丘２丁目４番地１１,,15,202,9402124,,,,,,,2023-02-08,1,,,,,ホクエツリペア,0
389,2120001252188,新規,0,2023-02-08,2023-02-08,株式会社ＴＷＯ　ＢＡＮＫ,,株式会社,大阪府,大阪市北区,梅田１丁目１番３－２９００号大阪駅前第三ビル２９階１－１－１号室,,27,127,5300001,,,,,,,2023-02-08,1,,,,,トゥーバンク,0
390,2120001252320,新規,0,2023-02-08,2023-02-08,株式会社ｕｎｄｅｒ,,株式会社,大阪府,大阪市浪速区,日本橋４丁目３番１６号,,27,111,5560005,,,,,,,2023-02-08,1,,,,,アンダー,0
395,2120005023461,新規,0,2023-02-08,2023-02-08,弁理士法人Ｗｉｓ　ＩＰディレクション,,その他の設立登記法人,大阪府,大阪市浪速区,難波中１丁目１３番５号タイヨービル６０２号,,27,111,5560011,,,,,,,2023-02-08,1,,,,,ウィズアイピーディレクション,0
401,2122001036661,新規,0,2023-02-08,2023-02-08,サンブルーム株式会社,,株式会社,大阪府,東大阪市,高井田中１丁目９番地２０,,27,227,5770065,,,,,,,2023-02-08,1,,,,,サンブルーム,0
402,2122001036686,新規,0,2023-02-08,2023-02-08,株式会社ＹＳＲソリューションズ,,株式会社,大阪府,東大阪市,神田町１９番２号,,27,227,5798058,,,,,,,2023-02-08,1,,,,,ワイエスアールソリューションズ,0
408,2130001073609,新規,0,2023-02-08,2023-02-08,株式会社Ｅｄｍｏｎｄｓ,,株式会社,京都府,京都市下京区,河原町通正面下る万屋町３４２番地,,26,106,6008199,,,,,,,2023-02-08,1,,,,,エドモンズ,0
412,2140001129070,新規,0,2023-02-08,2023-02-08,株式会社ＫＲＡＭＥＬ,,株式会社,兵庫県,神戸市東灘区,青木２丁目１４番２１－７０２号,,28,101,6580027,,,,,,,2023-02-08,1,,,,,クラメル,0
418,2140003018701,新規,0,2023-02-08,2023-02-08,合同会社ｍａｒｃｈｅｒ,,合同会社,兵庫県,神戸市中央区,中町通３丁目１－１６サンビル５０２,,28,110,6500027,,,,,,,2023-02-08,1,,,,,マルシェ,0
422,2160001024823,新規,0,2023-02-08,2023-02-08,株式会社８１２６,,株式会社,滋賀県,米原市,本市場１８２番地１,,25,214,5210223,,,,,,,2023-02-08,1,,,,,ハチイチニロク,0
423,2160003002793,新規,0,2023-02-08,2023-02-08,合同会社オール・ウェル,,合同会社,滋賀県,草津市,大路２丁目３番１１号ハイレス２１、４０５号,,25,206,5250032,,,,,,,2023-02-08,1,,,,,オールウェル,0
432,2180001154825,新規,0,2023-02-08,2023-02-08,四つ葉造園株式会社,,株式会社,愛知県,北名古屋市,九之坪長堀１４番地,,23,234,4810041,,,,,,,2023-02-08,1,,,,,ヨツバゾウエン,0
433,2180001154890,新規,0,2023-02-08,2023-02-08,ミライズアセット株式会社,,株式会社,愛知県,名古屋市中村区,名駅３丁目４番１０号アルティメイト名駅１ｓｔ８階,,23,105,4500002,,,,,,,2023-02-08,1,,,,,ミライズアセット,0
434,2180001154916,新規,0,2023-02-08,2023-02-08,株式会社ヨネザワ鉄筋,,株式会社,愛知県,名古屋市緑区,桶狭間神明２６２２番地,,23,114,4580919,,,,,,,2023-02-08,1,,,,,ヨネザワテッキン,0
435,2180001154924,新規,0,2023-02-08,2023-02-08,株式会社Ｊｏｕｒｎｅｙ,,株式会社,愛知県,名古屋市守山区,元郷２丁目６０２番地,,23,113,4630025,,,,,,,2023-02-08,1,,,,,ジャーニー,0
436,2180001154932,新規,0,2023-02-08,2023-02-08,株式会社志婦や,,株式会社,愛知県,名古屋市瑞穂区,塩入町４番１０号,,23,108,4670851,,,,,,,2023-02-08,1,,,,,シブヤ,0
446,2190003004226,新規,0,2023-02-08,2023-02-08,合同会社フカタマ,,合同会社,三重県,四日市市,生桑町１５８番地２,,24,202,5120911,,,,,,,2023-02-08,1,,,,,フカタマ,0
457,2240001061073,新規,0,2023-02-08,2023-02-08,株式会社ＭａｓｔｅｒＭａｌｌｅｔ,,株式会社,広島県,広島市中区,上幟町４－３－１００３,,34,101,7300014,,,,,,,2023-02-08,1,,,,,マスターマレット,0
460,2290001100512,新規,0,2023-02-08,2023-02-08,株式会社インプルーブ,,株式会社,福岡県,久留米市,日吉町１１番地１９,,40,203,8300017,,,,,,,2023-02-08,1,,,,,インプルーブ,0
463,2290801029273,新規,0,2023-02-08,2023-02-08,株式会社西日本テクノエンジ,,株式会社,福岡県,北九州市八幡西区,陣原１丁目１番６８号,,40,109,8070821,,,,,,,2023-02-08,1,,,,,ニシニホンテクノエンジ,0
473,2340001025365,新規,0,2023-02-08,2023-02-08,株式会社オレンジ,,株式会社,鹿児島県,鹿児島市,三和町２１番１－１０８号,,46,201,8900071,,,,,,,2023-02-08,1,,,,,オレンジ,0
477,2360001031543,新規,0,2023-02-08,2023-02-08,株式会社５２４,,株式会社,沖縄県,石垣市,字新川１５８３番地２７１,,47,207,9070024,,,,,,,2023-02-08,1,,,,,コニシ,0
478,2360003012698,新規,0,2023-02-08,2023-02-08,合同会社Ｓ,,合同会社,沖縄県,那覇市,西１丁目１１－１ＹＥＡ　ＨＩＧＡ８０３,,47,201,9000036,,,,,,,2023-02-08,1,,,,,エス,0
479,2360003012707,新規,0,2023-02-08,2023-02-08,Ｔｙｍｅｗｉｓｅ合同会社,,合同会社,沖縄県,那覇市,牧志２丁目１７－２７－４０１,,47,201,9000013,,,,,,,2023-02-08,1,,,,,タイムワイズ,0
485,2410003003758,新規,0,2023-02-08,2023-02-08,合同会社ｆｌｙ　ＪＡＰＡＮ,,合同会社,秋田県,仙北郡美郷町,六郷字西高方町１０２－６０,,05,434,0191404,,,,,,,2023-02-08,1,,,,,フライジャパン,0
493,2430001088361,新規,0,2023-02-08,2023-02-08,ＦＤホールディングス株式会社,,株式会社,北海道,札幌市東区,北四十三条東２丁目４番２０号,,01,103,0070843,,,,,,,2023-02-08,1,,,,,エフディーホールディングス,0
494,2430001088378,新規,0,2023-02-08,2023-02-08,株式会社ローダンセＴ・Ａファーム,,株式会社,北海道,虻田郡倶知安町,字樺山２２８番地１,,01,400,0440078,,,,,,,2023-02-08,1,,,,,ローダンセティーエーファーム,0
495,2430001088386,新規,0,2023-02-08,2023-02-08,株式会社Ｒｅ　ｒａｙｓ,,株式会社,北海道,札幌市清田区,平岡四条３丁目１９番５号,,01,110,0040874,,,,,,,2023-02-08,1,,,,,リレイズ,0
496,2430001088403,新規,0,2023-02-08,2023-02-08,ＹＡＯ建築都市設計株式会社,,株式会社,北海道,札幌市西区,八軒一条西１丁目１番２６号,,01,107,0630841,,,,,,,2023-02-08,1,,,,,ワイエーオーケンチクトシセッケイ,0
513,3010001232786,新規,0,2023-02-08,2023-02-08,株式会社Ｉ‐ＲｉＢＢＯＮ,,株式会社,東京都,千代田区,神田和泉町一丁目６番１６号ヤマトビル４０５,,13,101,1010024,,,,,,,2023-02-08,1,,,,,アイリボン,0
514,3010001232910,新規,0,2023-02-08,2023-02-08,株式会社ＮｅＸＴ　ＦＯＲＥＳＴ,,株式会社,東京都,千代田区,大手町１丁目３番２号,,13,101,1000004,,,,,,,2023-02-08,1,,,,,ネクストフォレスト,0
522,3010401172269,新規,0,2023-02-08,2023-02-08,ＹＵＩ　ｃａｐｉｔａｌ株式会社,,株式会社,東京都,港区,港南２丁目５番３号,,13,103,1080075,,,,,,,2023-02-08,1,,,,,ユイキャピタル,0
523,3010401172351,新規,0,2023-02-08,2023-02-08,ＪＪ　ｈｏｌｄｉｎｇｓ株式会社,,株式会社,東京都,港区,港南４丁目６番８－３００７号,,13,103,1080075,,,,,,,2023-02-08,1,,,,,ジェイジェイホールディングス,0
524,3010403029459,新規,0,2023-02-08,2023-02-08,Ｓ３合同会社,,合同会社,東京都,港区,六本木７丁目１８番１５号六本木７１８ビル１１階,,13,103,1060032,,,,,,,2023-02-08,1,,,,,エススリー,0
525,3010403029475,新規,0,2023-02-08,2023-02-08,もみじアセット合同会社,,合同会社,東京都,港区,浜松町２丁目２番１５号,,13,103,1050013,,,,,,,2023-02-08,1,,,,,モミジアセット,0
526,3010403029491,新規,0,2023-02-08,2023-02-08,合同会社パブテックラボ,,合同会社,東京都,港区,麻布十番２丁目２０番７号,,13,103,1060045,,,,,,,2023-02-08,1,,,,,パブテックラボ,0
527,3010601062567,新規,0,2023-02-08,2023-02-08,株式会社１２０,,株式会社,東京都,江東区,豊洲３丁目６番５－２０１０号,,13,108,1350061,,,,,,,2023-02-08,1,,,,,ワントゥオー,0
537,3010901052499,新規,0,2023-02-08,2023-02-08,ＪＡＰＡＮ　ＦＡＣＴＯＲＹ　ＵＮＩＯＮ株式会社,,株式会社,東京都,世田谷区,世田谷１丁目４１番２号,,13,112,1540017,,,,,,,2023-02-08,1,,,,,ジャパンファクトリーユニオン,0
553,3011605002492,新規,0,2023-02-08,2023-02-08,特定非営利活動法人中小企業・地域創生ネットワーク,,その他の設立登記法人,東京都,練馬区,高野台１丁目３番７－１００４号,,13,120,1770033,,,,,,,2023-02-08,1,,,,,チュウショウキギョウチイキソウセイネットワーク,0
558,3011803005495,新規,0,2023-02-08,2023-02-08,三和合同会社,,合同会社,東京都,足立区,千住曙町４０番１－９１４号,00129372,13,121,1200023,,,,,,,2023-02-08,1,,,,,サンワ,0
559,3012401040166,新規,0,2023-02-08,2023-02-08,株式会社ＰＲＯＰ,,株式会社,東京都,調布市,富士見町４丁目７番地３７,,13,208,1820033,,,,,,,2023-02-08,1,,,,,プロップ,0
560,3012701017475,新規,0,2023-02-08,2023-02-08,株式会社シノ電,,株式会社,東京都,東久留米市,新川町２丁目６番７号ニューシャトル１０６号室,,13,222,2030013,,,,,,,2023-02-08,1,,,,,シノデン,0
562,3013101009113,新規,0,2023-02-08,2023-02-08,株式会社なかい,,株式会社,東京都,西多摩郡奥多摩町,大丹波１７５番地,,13,308,1980101,,,,,,,2023-02-08,1,,,,,ナカイ,0
566,3013303006478,新規,0,2023-02-08,2023-02-08,合同会社ＷＩＮ‐ＷＩＮ,,合同会社,東京都,豊島区,東池袋１丁目８番６号ＤＫＹ１２ビル５Ｆ,,13,116,1700013,,,,,,,2023-02-08,1,,,,,ウィンウィン,0
567,3013305003440,新規,0,2023-02-08,2023-02-08,税理士法人ＨＳ会計,,その他の設立登記法人,東京都,豊島区,南大塚１丁目３２番１９号後藤ビル２Ｆ,,13,116,1700005,,,,,,,2023-02-08,1,,,,,エイチエスカイケイ,0
576,3020001150145,新規,0,2023-02-08,2023-02-08,株式会社リビングパートナー,,株式会社,神奈川県,横浜市保土ケ谷区,帷子町１丁目４２番地１藤巻ビル２０４,,14,106,2400013,,,,,,,2023-02-08,1,,,,,リビングパートナー,0
577,3020001150178,新規,0,2023-02-08,2023-02-08,株式会社Ｆｏｒｅｓｔ　ｏｆ　Ｆｕｔｕｒｅ,,株式会社,神奈川県,横浜市戸塚区,名瀬町７６４番地２,,14,110,2450051,,,,,,,2023-02-08,1,,,,,フォレストオブフューチャー,0
578,3020001150186,新規,0,2023-02-08,2023-02-08,株式会社ＢｉＧＭＯＭ,,株式会社,神奈川県,川崎市宮前区,有馬８丁目２０番３号,,14,136,2160003,,,,,,,2023-02-08,1,,,,,ビッグマム,0
580,3020003023225,新規,0,2023-02-08,2023-02-08,合同会社カイ,,合同会社,神奈川県,川崎市宮前区,犬蔵２丁目２２番１８号,,14,136,2160011,,,,,,,2023-02-08,1,,,,,カイ,0
581,3020003023266,新規,0,2023-02-08,2023-02-08,合同会社うらくわハウジング,,合同会社,神奈川県,横浜市西区,北幸２丁目１０番地２８むつみビル３Ｆ,,14,103,2200004,,,,,,,2023-02-08,1,,,,,ウラクワハウジング,0
582,3020003023274,新規,0,2023-02-08,2023-02-08,ＯＶＥＲ　ＦＬＡＹ合同会社,,合同会社,神奈川県,横浜市中区,曙町１丁目３番地藤和伊勢佐木町ハイタウン３０７号室,,14,104,2310057,,,,,,,2023-02-08,1,,,,,オーバーフレイ,0
588,3021001078153,新規,0,2023-02-08,2023-02-08,株式会社軽スポット渡辺運送,,株式会社,神奈川県,足柄上郡大井町,金子１０６３番地サンセールシマダ１０６,,14,362,2580019,,,,,,,2023-02-08,1,,,,,ケイスポットワタナベウンソウ,0
601,3030001152314,新規,0,2023-02-08,2023-02-08,株式会社中野仮設,,株式会社,埼玉県,加須市,南大桑２８６７番地３,,11,210,3470015,,,,,,,2023-02-08,1,,,,,ナカノカセツ,0
610,3030003021129,新規,0,2023-02-08,2023-02-08,合同会社そんちょう,,合同会社,埼玉県,さいたま市北区,櫛引町２丁目４９９－２プリムローズ大宮８０５,,11,102,3310825,,,,,,,2023-02-08,1,,,,,ソンチョウ,0
612,3030005021135,新規,0,2023-02-08,2023-02-08,一般社団法人仁愛会,,その他の設立登記法人,埼玉県,さいたま市大宮区,桜木町１丁目１３２番地、第２高井ビル６階,,11,103,3300854,,,,,,,2023-02-08,1,,,,,ジンアイカイ,0
620,3040001126993,新規,0,2023-02-08,2023-02-08,株式会社長岡,,株式会社,千葉県,我孫子市,船戸２丁目２番２４号,,12,222,2701158,,,,,,,2023-02-08,1,,,,,ナガオカ,0
622,3040003021805,新規,0,2023-02-08,2023-02-08,ＳａａＦ合同会社,,合同会社,千葉県,千葉市中央区,村田町７３３－１１,,12,101,2600825,,,,,,,2023-02-08,1,,,,,サーフ,0
623,3040003021879,新規,0,2023-02-08,2023-02-08,合同会社Ｊ・Ｋ　ｔｅｃｈ　ｍｏｔｏｒｓ,,合同会社,千葉県,八街市,八街は１０６番地２０６,,12,230,2891107,,,,,,,2023-02-08,1,,,,,ジェイケイテックモーターズ,0
624,3040003021887,新規,0,2023-02-08,2023-02-08,合同会社丹野資産管理,,合同会社,千葉県,松戸市,小根本１２番地の１パークホームズ松戸マークレジデンス２１２号,,12,207,2710073,,,,,,,2023-02-08,1,,,,,タンノシサンカンリ,0
626,3050001052363,新規,0,2023-02-08,2023-02-08,株式会社Ｊｉｎｓｅｉｄｏ,,株式会社,茨城県,土浦市,川口１丁目８番１２号,,08,203,3000033,,,,,,,2023-02-08,1,,,,,ジンセイド,0
628,3050003007233,新規,0,2023-02-08,2023-02-08,Ｊ＆Ｌ　ＣＯＲＰＯＲＡＴＩＯＮ合同会社,,合同会社,茨城県,坂東市,逆井３５３６大都ビル２０６,,08,228,3060501,,,,,,,2023-02-08,1,,,,,ジェイアンドエルコーポレーション,0
631,3070001040102,新規,0,2023-02-08,2023-02-08,株式会社ウチダ,,株式会社,群馬県,太田市,世良田町３０３－３,,10,205,3700426,,,,,,,2023-02-08,1,,,,,ウチダ,0
632,3070001040110,新規,0,2023-02-08,2023-02-08,株式会社アルス,,株式会社,群馬県,高崎市,小八木町３１２－１５ビジネスパーク小八木２階,,10,202,3700071,,,,,,,2023-02-08,1,,,,,アルス,0
634,3070003004815,新規,0,2023-02-08,2023-02-08,合同会社Ｙ．Ｓ．Ｍ,,合同会社,群馬県,高崎市,中豊岡町８２６番地１－２３３,,10,202,3700874,,,,,,,2023-02-08,1,,,,,ワイエスエム,0
641,3090005007533,新規,0,2023-02-08,2023-02-08,一般社団法人ＳＰＩＲＩＴＳ,,その他の設立登記法人,山梨県,甲斐市,中下条１８３０番地６,,19,210,4000124,,,,,,,2023-02-08,1,,,,,スピリッツ,0
642,3100001036138,新規,0,2023-02-08,2023-02-08,ＳＲＹ株式会社,,株式会社,長野県,佐久市,跡部１５４番地１,,20,217,3850054,,,,,,,2023-02-08,1,,,,,エスアールワイ,0
644,3100005012969,新規,0,2023-02-08,2023-02-08,税理士法人つばさ,,その他の設立登記法人,長野県,松本市,桐２丁目５－１２Ｍ１ビル２Ａ,,20,202,3900871,,,,,,,2023-02-08,1,,,,,ツバサ,0
658,3120001252237,新規,0,2023-02-08,2023-02-08,株式会社中島組,,株式会社,大阪府,大阪市浪速区,元町１丁目１２－９－９Ｃ,,27,111,5560016,,,,,,,2023-02-08,1,,,,,ナカシマグミ,0
659,3120001252352,新規,0,2023-02-08,2023-02-08,ここａｎｄめりぃフーズ株式会社,,株式会社,大阪府,大阪市東淀川区,菅原７丁目３番１３号,,27,114,5330022,,,,,,,2023-02-08,1,,,,,ココアンドメリィフーズ,0
660,3120001252377,新規,0,2023-02-08,2023-02-08,株式会社エヌジーエヌ,,株式会社,大阪府,大阪市中央区,久太郎町２丁目５番６号Ｂ－３０１号,,27,128,5410056,,,,,,,2023-02-08,1,,,,,エヌジーエヌ,0
661,3120001252385,新規,0,2023-02-08,2023-02-08,株式会社セイオス,,株式会社,大阪府,大阪市中央区,南本町２丁目３番１２号,,27,128,5410054,,,,,,,2023-02-08,1,,,,,セイオス,0
684,3130003008520,新規,0,2023-02-08,2023-02-08,合同会社ＭＯＡ,,合同会社,京都府,木津川市,南加茂台７丁目１－３,,26,214,6191127,,,,,,,2023-02-08,1,,,,,モア,0
689,3140001129037,新規,0,2023-02-08,2023-02-08,株式会社アトラクト,,株式会社,兵庫県,神戸市須磨区,北落合１丁目１－４白川コーポビル１Ｆ,,28,107,6540151,,,,,,,2023-02-08,1,,,,,アトラクト,0
694,3160001024822,新規,0,2023-02-08,2023-02-08,株式会社Ｍａｚｅｎｏ　ｒｉｄｇｅ,,株式会社,滋賀県,米原市,本市場４番地１１,,25,214,5210223,,,,,,,2023-02-08,1,,,,,マゼノリッジ,0
703,3180001154840,新規,0,2023-02-08,2023-02-08,株式会社ＡＮＥＬＡ,,株式会社,愛知県,名古屋市西区,新道１丁目１５番２５号,,23,104,4510043,,,,,,,2023-02-08,1,,,,,アネラ,0
704,3180001154923,新規,0,2023-02-08,2023-02-08,株式会社ＭＹファーマシー,,株式会社,愛知県,名古屋市天白区,平針２丁目１６０１番地,,23,116,4680011,,,,,,,2023-02-08,1,,,,,エムワイファーマシー,0
706,3180003024810,新規,0,2023-02-08,2023-02-08,ＧＲ合同会社,,合同会社,愛知県,名古屋市中区,大須３丁目５－４９第２ハセビル３Ｆ,,23,106,4600011,,,,,,,2023-02-08,1,,,,,ジーアール,0
707,3180003024819,新規,0,2023-02-08,2023-02-08,ＲＹＯＷＯＲＫＳ合同会社,,合同会社,愛知県,小牧市,光ケ丘１丁目３７番地４,,23,219,4850811,,,,,,,2023-02-08,1,,,,,リョウワークス,0
708,3180003024835,新規,0,2023-02-08,2023-02-08,ビヨンドフード合同会社,,合同会社,愛知県,瀬戸市,東赤重町２丁目１１６番地サンコーポ瀬戸口Ｃ－１０１,,23,204,4890877,,,,,,,2023-02-08,1,,,,,ビヨンドフード,0
713,3190003004225,新規,0,2023-02-08,2023-02-08,合同会社Ｄ＆Ｓ　ＣＯＬＬＥＣＴＩＯＮ,,合同会社,三重県,桑名市,藤が丘９丁目８０２番地,,24,205,5110865,,,,,,,2023-02-08,1,,,,,ディーアンドエスコレクション,0
716,3200001040947,新規,0,2023-02-08,2023-02-08,株式会社ＦＵＳＩＯＮ,,株式会社,岐阜県,岐阜市,平和通１丁目１３ソワンポルテＢ２,,21,201,5020827,,,,,,,2023-02-08,1,,,,,フュージョン,0
721,3210005010078,新規,0,2023-02-08,2023-02-08,農事組合法人ファーム和田,,その他の設立登記法人,福井県,福井市,和田中２丁目２６１１番地,,18,201,9188236,,,,,,,2023-02-08,1,,,,,ファームワダ,0
725,3240001061072,新規,0,2023-02-08,2023-02-08,株式会社令和建設,,株式会社,広島県,広島市東区,中山上２丁目１４－１９,,34,102,7320027,,,,,,,2023-02-08,1,,,,,レイワケンセツ,0
739,3290801029272,新規,0,2023-02-08,2023-02-08,株式会社パンジャ,,株式会社,福岡県,京都郡みやこ町,国作８５番地３,,40,625,8240125,,,,,,,2023-02-08,1,,,,,パンジャ,0
740,3290805009634,新規,0,2023-02-08,2023-02-08,特定非営利活動法人寝たきりをつくらない有志の会,,その他の設立登記法人,福岡県,直方市,大字感田１８４０番地２,,40,204,8220001,,,,,,,2023-02-08,1,,,,,ネタキリヲツクラナイユウシノカイ,0
746,3310001018255,新規,0,2023-02-08,2023-02-08,株式会社ＬＩＦＴ,,株式会社,長崎県,大村市,水主町２丁目５８６－１,,42,205,8560827,,,,,,,2023-02-08,1,,,,,リフト,0
747,3310001018263,新規,0,2023-02-08,2023-02-08,株式会社絆希,,株式会社,長崎県,長崎市,千歳町１番５号フォーサイト千歳３０１,,42,201,8528135,,,,,,,2023-02-08,1,,,,,キズナキ,0
757,3340001025364,新規,0,2023-02-08,2023-02-08,株式会社ＴＡＴＥＫＡＴＡ,,株式会社,鹿児島県,鹿児島市,下荒田４丁目８番１６号,,46,201,8900056,,,,,,,2023-02-08,1,,,,,タテカタ,0
765,3370001049583,新規,0,2023-02-08,2023-02-08,守誠商事株式会社,,株式会社,宮城県,仙台市青葉区,荒巻本沢３丁目１１番８号ドエル本沢２０１,,04,101,9810966,,,,,,,2023-02-08,1,,,,,シュセイショウジ,0
768,3380001033462,新規,0,2023-02-08,2023-02-08,株式会社サン企画,,株式会社,福島県,郡山市,久留米３丁目３６番地の２,,07,203,9638846,,,,,,,2023-02-08,1,,,,,サンキカク,0
778,3420005007838,新規,0,2023-02-08,2023-02-08,北西協同組合,,その他の設立登記法人,青森県,北津軽郡中泊町,大字芦野字福泊２３番１,00129373,02,387,0370316,,,,,,,2023-02-08,1,,,,,ホクセイ,0
784,3470001019469,新規,0,2023-02-08,2023-02-08,株式会社コダマプラス,,株式会社,香川県,高松市,円座町１１３２番地６,,37,201,7618044,,,,,,,2023-02-08,1,,,,,コダマプラス,0
815,4010001232686,新規,0,2023-02-08,2023-02-08,株式会社家族えんまん相続ラボ,,株式会社,東京都,中央区,銀座１丁目２０番１４号ＫＤＸ銀座一丁目ビル１階,,13,102,1040061,,,,,,,2023-02-08,1,,,,,カゾクエンマンソウゾクラボ,0
816,4010001232777,新規,0,2023-02-08,2023-02-08,株式会社ますＨＤ,,株式会社,東京都,千代田区,外神田５丁目２番２号浜田ビルディング４Ｆ,,13,101,1010021,,,,,,,2023-02-08,1,,,,,マスエイチディー,0
817,4010001232819,新規,0,2023-02-08,2023-02-08,株式会社現,,株式会社,東京都,千代田区,九段南１丁目５番６号,,13,101,1020074,,,,,,,2023-02-08,1,,,,,ウツツ,0
818,4010001232835,新規,0,2023-02-08,2023-02-08,株式会社テイクフォー,,株式会社,東京都,中央区,銀座１丁目２２－１１銀座大竹ビジデンス２Ｆ,,13,102,1040061,,,,,,,2023-02-08,1,,,,,テイクフォー,0
820,4010003039733,新規,0,2023-02-08,2023-02-08,合同会社ダンデジ,,合同会社,東京都,文京区,春日２丁目１９番１２－４０１号,,13,105,1120003,,,,,,,2023-02-08,1,,,,,ダンデジ,0
821,4010003039782,新規,0,2023-02-08,2023-02-08,ライフ・リクリエーション合同会社,,合同会社,東京都,千代田区,麹町１丁目５番４－２０５号,,13,101,1020083,,,,,,,2023-02-08,1,,,,,ライフリクリエーション,0
831,4010401172334,新規,0,2023-02-08,2023-02-08,株式会社ＡＭＰ運輸,,株式会社,東京都,港区,虎ノ門５丁目２番５号,,13,103,1050001,,,,,,,2023-02-08,1,,,,,エーエムピーウンユ,0
832,4010401172350,新規,0,2023-02-08,2023-02-08,Ａｔｈｅｎｅ　Ｒｅ　Ｊａｐａｎ　Ｓｏｌｕｔｉｏｎｓ株式会社,,株式会社,東京都,港区,虎ノ門２丁目１０番４号オークラプレステージタワー,,13,103,1050001,,,,,,,2023-02-08,1,,,,,アテーネーリージャパンソリューションズ,0
833,4010401172359,新規,0,2023-02-08,2023-02-08,Ｇｌａｄｄｅｎ株式会社,,株式会社,東京都,港区,赤坂３丁目１４－２ドルミ赤坂Ｂ１，Ｂ－１,,13,103,1070052,,,,,,,2023-02-08,1,,,,,グラッデン,0
836,4010403029490,新規,0,2023-02-08,2023-02-08,合同会社ＬｏｖｅｌｙＢａｙＢ,,合同会社,東京都,港区,南青山３丁目１番３６号青山丸竹ビル６Ｆ,,13,103,1070062,,,,,,,2023-02-08,1,,,,,ラブリーベイビー,0
839,4010603009961,新規,0,2023-02-08,2023-02-08,ＨＡＱＵＡ　ｃｏｎｓｔｒｕｃｔｉｏｎ合同会社,,合同会社,東京都,墨田区,立花５丁目９番５号,,13,107,1310043,,,,,,,2023-02-08,1,,,,,ハクアコンストラクション,0
840,4010603009986,新規,0,2023-02-08,2023-02-08,合同会社ＨＭＪ,,合同会社,東京都,江東区,亀戸９丁目７番１１号,,13,108,1360071,,,,,,,2023-02-08,1,,,,,エイチエムジェイ,0
841,4010701043813,新規,0,2023-02-08,2023-02-08,株式会社ハンズ,,株式会社,東京都,品川区,大井４丁目２７番１号ＪＬＢグランエクリュ大井町１０１,,13,109,1400014,,,,,,,2023-02-08,1,,,,,ハンズ,0
842,4010801033672,新規,0,2023-02-08,2023-02-08,株式会社スペース・エヌ,,株式会社,東京都,大田区,田園調布本町２５番２１号,,13,111,1450072,,,,,,,2023-02-08,1,,,,,スペースエヌ,0
860,4011101101764,新規,0,2023-02-08,2023-02-08,株式会社ラヴィア,,株式会社,東京都,新宿区,新宿１丁目３６番７号,,13,104,1600022,,,,,,,2023-02-08,1,,,,,ラヴィア,0
868,4011201024403,新規,0,2023-02-08,2023-02-08,株式会社ｅｗｉｌｌ,,株式会社,東京都,中野区,東中野１丁目２６番２号,,13,114,1640003,,,,,,,2023-02-08,1,,,,,イーウィル,0
869,4011503005464,新規,0,2023-02-08,2023-02-08,合同会社ＳＴＥＬＬＡ．ｅｓｒ,,合同会社,東京都,北区,浮間５丁目１２番１－８０４号,,13,117,1150051,,,,,,,2023-02-08,1,,,,,ステラドットイーエスアール,0
871,4011701025999,新規,0,2023-02-08,2023-02-08,シュワット株式会社,,株式会社,東京都,江戸川区,北小岩６丁目１６番８号リッツハウス４０２,,13,123,1330051,,,,,,,2023-02-08,1,,,,,シュワット,0
872,4012301013304,新規,0,2023-02-08,2023-02-08,株式会社ＳＷＩＴＣＨ　Ｌｉｂｒａｒｙ,,株式会社,東京都,町田市,能ヶ谷７丁目２３番３１号,,13,209,1950053,,,,,,,2023-02-08,1,,,,,スイッチライブラリー,0
876,4012401040165,新規,0,2023-02-08,2023-02-08,株式会社スマイリー,,株式会社,東京都,調布市,深大寺東町８丁目３０番地１９,,13,208,1820012,,,,,,,2023-02-08,1,,,,,スマイリー,0
881,4013303006493,新規,0,2023-02-08,2023-02-08,合同会社関ホーム,,合同会社,東京都,豊島区,南大塚３丁目３７番５－６０６号,,13,116,1700005,,,,,,,2023-02-08,1,,,,,セキホーム,0
888,4020001150169,新規,0,2023-02-08,2023-02-08,株式会社向ヶ丘遊園ホールディングス,,株式会社,神奈川県,川崎市多摩区,菅５丁目１７番６号,,14,135,2140001,,,,,,,2023-02-08,1,,,,,ムコウガオカユウエンホールディングス,0
889,4020001150202,新規,0,2023-02-08,2023-02-08,株式会社フューリエイト,,株式会社,神奈川県,横浜市西区,みなとみらい２丁目２番１号横浜ランドマークタワー２０階,,14,103,2200012,,,,,,,2023-02-08,1,,,,,フューリエイト,0
893,4020003023240,新規,0,2023-02-08,2023-02-08,合同会社ＴＩコンサルティング,,合同会社,神奈川県,川崎市高津区,二子１丁目７番３９号,,14,134,2130002,,,,,,,2023-02-08,1,,,,,ティーアイコンサルティング,0
894,4020003023273,新規,0,2023-02-08,2023-02-08,ＢＡＹＳＨＯＲＥ　ＩＮＴＥＲＮＡＴＩＯＮＡＬ合同会社,,合同会社,神奈川県,横浜市緑区,寺山町１８３番地８－１０６号,,14,113,2260013,,,,,,,2023-02-08,1,,,,,ベイショアインターナショナル,0
899,4021003012695,新規,0,2023-02-08,2023-02-08,合同会社東神,,合同会社,神奈川県,相模原市中央区,鹿沼台１丁目１番１５号１Ｆ,,14,152,2520233,,,,,,,2023-02-08,1,,,,,トウジン,0
904,4030001152263,新規,0,2023-02-08,2023-02-08,正創株式会社,,株式会社,埼玉県,川口市,西川口２丁目１４番６号イーストハイム３０３号,,11,203,3320021,,,,,,,2023-02-08,1,,,,,セイソウ,0
905,4030001152305,新規,0,2023-02-08,2023-02-08,株式会社Ｐ２,,株式会社,埼玉県,さいたま市大宮区,仲町３丁目３６番地１コンフォリア大宮１４０１,,11,103,3300845,,,,,,,2023-02-08,1,,,,,ピーツー,0
915,4040001127009,新規,0,2023-02-08,2023-02-08,アクアジャスト株式会社,,株式会社,千葉県,市川市,鬼高２丁目６番２２号,,12,203,2720015,,,,,,,2023-02-08,1,,,,,アクアジャスト,0
922,4040003021886,新規,0,2023-02-08,2023-02-08,合同会社ＬＥＧＡＸＩＡ,,合同会社,千葉県,市原市,西広８２８番地グランリヴィエール１０５,,12,219,2900022,,,,,,,2023-02-08,1,,,,,レガシア,0
923,4040003021894,新規,0,2023-02-08,2023-02-08,ｗｅｎｉウェンイー合同会社,,合同会社,千葉県,富里市,日吉台５丁目３７－８,,12,233,2860201,,,,,,,2023-02-08,1,,,,,ウェンイー,0
924,4040003021903,新規,0,2023-02-08,2023-02-08,合同会社ゴンドラ,,合同会社,千葉県,我孫子市,日秀７４番地の５,,12,222,2701123,,,,,,,2023-02-08,1,,,,,ゴンドラ,0
925,4050001052370,新規,0,2023-02-08,2023-02-08,株式会社ＤｉＮ工業,,株式会社,茨城県,龍ケ崎市,小通幸谷町１９７番地５,,08,208,3010034,,,,,,,2023-02-08,1,,,,,ディーアイエヌコウギョウ,0
928,4060003004410,新規,0,2023-02-08,2023-02-08,ＷＡＲＡＶＩＴＡ　ＴＲＡＤＩＮＧ　ＣＯＭＰＡＮＹ合同会社,,合同会社,栃木県,佐野市,田島町９３２番地,,09,204,3270031,,,,,,,2023-02-08,1,,,,,ワラビタトレーディングカンパニー,0
933,4080101023789,新規,0,2023-02-08,2023-02-08,株式会社ココセンタ,,株式会社,静岡県,富士市,厚原１４１４番地の１,,22,210,4190201,,,,,,,2023-02-08,1,,,,,ココセンタ,0
937,4080401026310,新規,0,2023-02-08,2023-02-08,株式会社ＳＨＩＮＥ,,株式会社,静岡県,浜松市浜北区,宮口３５１５番地の１ドエルコートＡ－１,,22,136,4340004,,,,,,,2023-02-08,1,,,,,シャイン,0
938,4080403004727,新規,0,2023-02-08,2023-02-08,わりん合同会社,,合同会社,静岡県,浜松市中区,旭町６番地の１－２００２,,22,131,4300927,,,,,,,2023-02-08,1,,,,,ワリン,0
939,4090001017956,新規,0,2023-02-08,2023-02-08,株式会社新昇龍,,株式会社,山梨県,甲府市,川田町５０２番地１,,19,201,4000811,,,,,,,2023-02-08,1,,,,,シンショウリュウ,0
943,4110003004982,新規,0,2023-02-08,2023-02-08,合同会社新潟総合企画,,合同会社,新潟県,新潟市東区,中野山６丁目２番８号,,15,102,9500841,,,,,,,2023-02-08,1,,,,,ニイガタソウゴウキカク,0
956,4120001252236,新規,0,2023-02-08,2023-02-08,株式会社濱野,,株式会社,大阪府,大阪市都島区,毛馬町３丁目２－１－９０６,,27,102,5340001,,,,,,,2023-02-08,1,,,,,ハマノ,0
957,4120001252302,新規,0,2023-02-08,2023-02-08,株式会社Ｉ’Ｍ　ＣＡＲＥ,,株式会社,大阪府,大阪市旭区,新森２丁目１４番３１－３０３号,,27,117,5350022,,,,,,,2023-02-08,1,,,,,アイムケアー,0
958,4120001252343,新規,0,2023-02-08,2023-02-08,株式会社映せば,,株式会社,大阪府,大阪市北区,梅田１丁目２番２号大阪駅前第２ビル１２－１２,,27,127,5300001,,,,,,,2023-02-08,1,,,,,ウツセバ,0
959,4120001252368,新規,0,2023-02-08,2023-02-08,株式会社ＡｅｇｉｓＲａｃｃｏｏｎ,,株式会社,大阪府,大阪市北区,梅田１丁目２番２号大阪駅前第２ビル１２－１２,,27,127,5300001,,,,,,,2023-02-08,1,,,,,イージスラクーン,0
960,4120001252376,新規,0,2023-02-08,2023-02-08,株式会社ＯＨＫセキュリティ,,株式会社,大阪府,大阪市東住吉区,駒川４丁目５番１３号第５フラワーハイツ４０３,,27,121,5460043,,,,,,,2023-02-08,1,,,,,オーエイチケーセキュリティ,0
962,4120003023412,新規,0,2023-02-08,2023-02-08,合同会社ＮＣ,,合同会社,大阪府,大阪市西区,九条南２丁目１番１６号フジガーデン１０１号,,27,106,5500025,,,,,,,2023-02-08,1,,,,,エヌシー,0
964,4120103005070,新規,0,2023-02-08,2023-02-08,合同会社ジェイパートナーズ,,合同会社,大阪府,和泉市,光明台二丁４３番１号,,27,219,5940000,,,,,,,2023-02-08,1,,,,,ジェイパートナーズ,0
966,4120901047099,新規,0,2023-02-08,2023-02-08,株式会社ＭＡＳＵＤＡ,,株式会社,大阪府,豊中市,本町１丁目１１番３０－１２０８号,,27,203,5600021,,,,,,,2023-02-08,1,,,,,マスダ,0
972,4122001036684,新規,0,2023-02-08,2023-02-08,宮崎水産株式会社,00129380,株式会社,大阪府,東大阪市,御厨５丁目３番５号,,27,227,5770032,,,,,,,2023-02-08,1,,,,,ミヤザキスイサン,0
980,4140001129069,新規,0,2023-02-08,2023-02-08,株式会社かぶと,,株式会社,兵庫県,姫路市,花田町一本松２９５番地２,,28,201,6710253,,,,,,,2023-02-08,1,,,,,カブト,0
985,4150001026166,新規,0,2023-02-08,2023-02-08,株式会社リトコム,,株式会社,奈良県,香芝市,下田西４丁目１８７番地１シティロイヤル近鉄下田駅前７０２号室,,29,210,6390231,,,,,,,2023-02-08,1,,,,,リトコム,0
992,4170001017469,新規,0,2023-02-08,2023-02-08,株式会社田辺観光バス,,株式会社,和歌山県,西牟婁郡白浜町,堅田２４３４番地の１,,30,401,6492201,,,,,,,2023-02-08,1,,,,,タナベカンコウバス,0
994,4180001154914,新規,0,2023-02-08,2023-02-08,株式会社Ｓｉｅｇ,,株式会社,愛知県,名古屋市瑞穂区,松園町２丁目４５番地の１,,23,108,4670065,,,,,,,2023-02-08,1,,,,,ジーク,0
995,4180001154930,新規,0,2023-02-08,2023-02-08,株式会社ＤＡＩＫＯＳＵプロ,,株式会社,愛知県,名古屋市名東区,社台３丁目１９１番地（ナビシティ上社４０５号室）,,23,115,4650092,,,,,,,2023-02-08,1,,,,,ダイコスプロ,0
1001,4180301037075,新規,0,2023-02-08,2023-02-08,株式会社野澤興業,,株式会社,愛知県,豊橋市,上野町字上原１２４番地,,23,201,4418157,,,,,,,2023-02-08,1,,,,,ノザワコウギョウ,0
1006,4190003004224,新規,0,2023-02-08,2023-02-08,フェニックスジャパン合同会社,,合同会社,三重県,松阪市,豊原町１１５６番地,,24,204,5150205,,,,,,,2023-02-08,1,,,,,フェニックスジャパン,0
1007,4200001040946,新規,0,2023-02-08,2023-02-08,株式会社ｅｓｑｕｅ,,株式会社,岐阜県,羽島市,正木町曲利１３４５番地,,21,209,5016227,,,,,,,2023-02-08,1,,,,,エスク,0
1016,4280003001699,新規,0,2023-02-08,2023-02-08,合同会社ＡＵＬＡ,,合同会社,島根県,松江市,南田町１１９番地,,32,201,6900884,,,,,,,2023-02-08,1,,,,,アウラ,0
1024,4290801029271,新規,0,2023-02-08,2023-02-08,株式会社サンコーリック,,株式会社,福岡県,宮若市,金丸８３番地２,,40,226,8220111,,,,,,,2023-02-08,1,,,,,サンコーリック,0
1028,4310001018262,新規,0,2023-02-08,2023-02-08,株式会社ｉリノベート,,株式会社,長崎県,諫早市,多良見町化屋７４２番地１２－２０３,,42,204,8590401,,,,,,,2023-02-08,1,,,,,アイリノベート,0
1031,4330001030587,新規,0,2023-02-08,2023-02-08,株式会社ＴＳ・ワンエイト,,株式会社,熊本県,上益城郡御船町,大字滝川１３８３番地１,,43,441,8613205,,,,,,,2023-02-08,1,,,,,ティエスワンエイト,0
1033,4340001025363,新規,0,2023-02-08,2023-02-08,株式会社ヨカマクラ,,株式会社,鹿児島県,鹿児島市,南林寺町１７番３９号ゼブラビル１０１,,46,201,8920834,,,,,,,2023-02-08,1,,,,,ヨカマクラ,0
1034,4340003004043,新規,0,2023-02-08,2023-02-08,ＦＡＲＶＥ．ＳＨ合同会社,,合同会社,鹿児島県,霧島市,国分中央５丁目８番２２号パティオ内,,46,218,8994332,,,,,,,2023-02-08,1,,,,,ファーベッシュ,0
1037,4370001049582,新規,0,2023-02-08,2023-02-08,株式会社さいせい不動産,,株式会社,宮城県,遠田郡美里町,藤ケ崎１丁目６１番地,,04,505,9870001,,,,,,,2023-02-08,1,,,,,サイセイフドウサン,0
1040,4380001033461,新規,0,2023-02-08,2023-02-08,株式会社Ｌｉｎｅ,,株式会社,福島県,郡山市,咲田２丁目２４番７号,,07,203,9638012,,,,,,,2023-02-08,1,,,,,ライン,0
1042,4390003002050,新規,0,2023-02-08,2023-02-08,合同会社ＭＵＳＵＢＩ,,合同会社,山形県,長井市,川原沢１０８９番地の２,,06,209,9930062,,,,,,,2023-02-08,1,,,,,ムスビ,0
1045,4400005008300,新規,0,2023-02-08,2023-02-08,一般社団法人ＯｎｅＤｉｓｈ,,その他の設立登記法人,岩手県,二戸市,石切所字上里沢９１番地,,03,213,0286103,,,,,,,2023-02-08,1,,,,,ワンディッシュ,0
1046,4410003003756,新規,0,2023-02-08,2023-02-08,西宮合名会社,,合名会社,秋田県,仙北市,角館町田町上丁１２番地,,05,215,0140311,,,,,,,2023-02-08,1,,,,,,0
1047,4410005006501,新規,0,2023-02-08,2023-02-08,農事組合法人本田ファーム,,その他の設立登記法人,秋田県,秋田市,雄和田草川字本田１４３番地１,,05,201,0101201,,,,,,,2023-02-08,1,,,,,ホンデンファーム,0
1055,4430003014719,新規,0,2023-02-08,2023-02-08,ＬａＬａＬａＦａｒｍ合同会社,,合同会社,北海道,虻田郡ニセコ町,字本通２２９番地２本通Ａ団地９号棟１０３号室,,01,395,0481502,,,,,,,2023-02-08,1,,,,,ラララファーム,0
1056,4440001009216,新規,0,2023-02-08,2023-02-08,株式会社ホクリュウ,,株式会社,北海道,茅部郡森町,字尾白内町２２３番地,,01,345,0492301,,,,,,,2023-02-08,1,,,,,ホクリュウ,0
1062,4460301005128,新規,0,2023-02-08,2023-02-08,株式会社あすなろ,,株式会社,北海道,北見市,寿町１丁目１番５号,,01,208,0900065,,,,,,,2023-02-08,1,,,,,アスナロ,0
1066,4470001019468,新規,0,2023-02-08,2023-02-08,株式会社Ｋ’ｓアースプロテクト,,株式会社,香川県,善通寺市,中村町１７７１番地１,,37,204,7650073,,,,,,,2023-02-08,1,,,,,ケイズアースプロテクト,0
1075,4700150114228,新規,0,2023-02-08,2023-02-08,石神井公園駅南口西地区市街地再開発組合,,その他,東京都,練馬区,石神井町３丁目２７番２３号,,13,120,1770041,,,,,,,2023-02-08,1,,,,,シヤクジイコウエンエキミナミグチニシチクシガイチサイカイハツクミアイ,0
1091,5010001232776,新規,0,2023-02-08,2023-02-08,シー・シックス・スリー・ホールディングス株式会社,,株式会社,東京都,千代田区,丸の内２丁目４番１号,,13,101,1000005,,,,,,,2023-02-08,1,,,,,シーシックススリーホールディングス,0
1092,5010001232792,新規,0,2023-02-08,2023-02-08,株式会社ＳＵＮＮＹ　ＰＲＥＳＥＮＣＥ,,株式会社,東京都,中央区,日本橋茅場町１丁目２番１４号日本ビルディング３号館３Ｆ,,13,102,1030025,,,,,,,2023-02-08,1,,,,,サニープレゼンス,0
1093,5010001232867,新規,0,2023-02-08,2023-02-08,株式会社Ｉｎｔｅｒｐｏｓｉｔｉｏｎ,,株式会社,東京都,中央区,銀座１丁目２２番１１号銀座大竹ビジデンス２Ｆ,,13,102,1040061,,,,,,,2023-02-08,1,,,,,インターポジション,0
1096,5010003039633,新規,0,2023-02-08,2023-02-08,合同会社ＭＥＣ,,合同会社,東京都,千代田区,神田和泉町一丁目６番１６号ヤマトビル４０５,,13,101,1010024,,,,,,,2023-02-08,1,,,,,エムイーシー,0
1097,5010003039798,新規,0,2023-02-08,2023-02-08,金川合同会社,,合同会社,東京都,千代田区,隼町２番１２号藤和半蔵門コープ７０５号,,13,101,1020092,,,,,,,2023-02-08,1,,,,,カネカワ,0
1100,5010005036232,新規,0,2023-02-08,2023-02-08,一般社団法人ＤＳソーラープロジェクトＨＤデルタ,,その他の設立登記法人,東京都,千代田区,丸の内３丁目１番１号東京共同会計事務所内,,13,101,1000005,,,,,,,2023-02-08,1,,,,,ディーエスソーラープロジェクトエイチディーデルタ,0
1110,5010401172309,新規,0,2023-02-08,2023-02-08,インガスタジオ株式会社,,株式会社,東京都,港区,芝５丁目２７番３号ＭＢＣ,,13,103,1080014,,,,,,,2023-02-08,1,,,,,インガスタジオ,0
1111,5010401172358,新規,0,2023-02-08,2023-02-08,株式会社ＬＩＥＮＡ,,株式会社,東京都,港区,六本木３丁目２－２－２６０３,,13,103,1060032,,,,,,,2023-02-08,1,,,,,リエナ,0
1112,5010401172390,新規,0,2023-02-08,2023-02-08,ｉｋｅｂａ株式会社,,株式会社,東京都,港区,北青山３丁目６－７青山パラシオタワー１１階,,13,103,1070061,,,,,,,2023-02-08,1,,,,,イケバ,0
1113,5010403029449,新規,0,2023-02-08,2023-02-08,Ｒｏｃｋｅｆｅｌｌｅｒ　Ｇｒｏｕｐ　Ａｓｉａ合同会社,,合同会社,東京都,港区,南青山３丁目８－４０青山センタービル２Ｆ,,13,103,1070062,,,,,,,2023-02-08,1,,,,,ロックフェラーグループアジア,0
1114,5010403029481,新規,0,2023-02-08,2023-02-08,合同会社絳音スタジオ,,合同会社,東京都,港区,南青山２丁目２番１５号ウィン青山１２１４号,,13,103,1070062,,,,,,,2023-02-08,1,,,,,アカネスタジオ,0
1129,5010703006577,新規,0,2023-02-08,2023-02-08,合同会社ロールストア,,合同会社,東京都,品川区,小山１丁目８番１１号シダーハウス武蔵小山１０１,,13,109,1420062,,,,,,,2023-02-08,1,,,,,ロールストア,0
1136,5010903007961,新規,0,2023-02-08,2023-02-08,合同会社そらラボ,,合同会社,東京都,世田谷区,東玉川２丁目２８番３号,,13,112,1580084,,,,,,,2023-02-08,1,,,,,ソララボ,0
1143,5011003016242,新規,0,2023-02-08,2023-02-08,ｍｉｚｔａｍａｒｉ合同会社,,合同会社,東京都,渋谷区,神宮前６丁目２３番４号桑野ビル２階,,13,113,1500001,,,,,,,2023-02-08,1,,,,,ミズタマリ,0
1158,5012301013303,新規,0,2023-02-08,2023-02-08,株式会社渡邊家,,株式会社,東京都,町田市,常盤町３３２６番地１カーサフィオーレトロワ１０３,,13,209,1940213,,,,,,,2023-02-08,1,,,,,ワタナベヤ,0
1163,5012403005818,新規,0,2023-02-08,2023-02-08,ゲッコートラスト合同会社,,合同会社,東京都,稲城市,大丸９２７芦川ビル２Ｆ,,13,225,2060801,,,,,,,2023-02-08,1,,,,,ゲッコートラスト,0
1166,5013101009111,新規,0,2023-02-08,2023-02-08,株式会社微応研,,株式会社,東京都,あきる野市,伊奈１４１番地２,,13,228,1900142,,,,,,,2023-02-08,1,,,,,ビオウケン,0
1169,5013301050294,新規,0,2023-02-08,2023-02-08,ビレッジ株式会社,,株式会社,東京都,豊島区,西池袋５丁目１３番１８号,,13,116,1710021,,,,,,,2023-02-08,1,,,,,ビレッジ,0
1177,5020003023223,新規,0,2023-02-08,2023-02-08,ＢＡＯＴＵ合同会社,,合同会社,神奈川県,横浜市鶴見区,鶴見中央４丁目２７,,14,101,2300051,,,,,,,2023-02-08,1,,,,,バオツ,0
1178,5020003023272,新規,0,2023-02-08,2023-02-08,ｔｏｕｒＥ合同会社,,合同会社,神奈川県,横浜市保土ケ谷区,仏向町４８５番地１パピヨン橘２０１号,,14,106,2400044,,,,,,,2023-02-08,1,,,,,ツアーイー,0
1180,5021003012728,新規,0,2023-02-08,2023-02-08,合同会社イタルフードラボ,,合同会社,神奈川県,相模原市中央区,横山４丁目２３番１５号江上マンション１２号室,,14,152,2520242,,,,,,,2023-02-08,1,,,,,イタルフードラボ,0
1186,5030001152246,新規,0,2023-02-08,2023-02-08,株式会社俊賢,,株式会社,埼玉県,川口市,元郷５丁目２２番１５号,,11,203,3320011,,,,,,,2023-02-08,1,,,,,シュンケン,0
1187,5030001152279,新規,0,2023-02-08,2023-02-08,株式会社日幸,,株式会社,埼玉県,さいたま市緑区,大字三室２０３６番地３,,11,109,3360911,,,,,,,2023-02-08,1,,,,,ヒサチ,0
1188,5030001152295,新規,0,2023-02-08,2023-02-08,株式会社Ｔ．Ｓコンサルタント,,株式会社,埼玉県,さいたま市大宮区,高鼻町３丁目１１４番地,,11,103,3300803,,,,,,,2023-02-08,1,,,,,ティーエスコンサルタント,0
1192,5040001126950,新規,0,2023-02-08,2023-02-08,ＲＩＣＨ　ＭＡＮ株式会社,,株式会社,千葉県,野田市,関宿台町６５４２,,12,208,2700202,,,,,,,2023-02-08,1,,,,,リチマン,0
1193,5040001126975,新規,0,2023-02-08,2023-02-08,信洋産業株式会社,,株式会社,千葉県,香取市,鳥羽２０５番１,,12,236,2870038,,,,,,,2023-02-08,1,,,,,シンヨウサンギョウ,0
1195,5040003021893,新規,0,2023-02-08,2023-02-08,合同会社ＶＩＤＵＲＡ　ＡＳＩＡ　ＩＮＴＥＲＮＡＴＩＯＮＡＬ,,合同会社,千葉県,柏市,藤ケ谷２１５番地６,,12,217,2770931,,,,,,,2023-02-08,1,,,,,ヴィドゥラアジアインターナショナル,0
1205,5070003004821,新規,0,2023-02-08,2023-02-08,Ｍｉｓｔｅｒ　Ｓｐｉｃｅｓ＆Ｒｅｓｔａｕｒａｎｔ合同会社,,合同会社,群馬県,甘楽郡甘楽町,大字福島７１４番地,,10,384,3702212,,,,,,,2023-02-08,1,,,,,ミスタースパイスアンドレストラン,0
1211,5080403004726,新規,0,2023-02-08,2023-02-08,ソフトテック掛川合同会社,,合同会社,静岡県,掛川市,南２丁目２５－７オチアイビル２階北,,22,213,4360029,,,,,,,2023-02-08,1,,,,,ソフトテックカケガワ,0
1213,5100001036136,新規,0,2023-02-08,2023-02-08,ＬａＮｏｂｌｅｓｓｅ株式会社,,株式会社,長野県,茅野市,湖東６２７１－１蓼科ハイツＢ２０１,,20,214,3910211,,,,,,,2023-02-08,1,,,,,ラノブレス,0
1239,5120001252251,新規,0,2023-02-08,2023-02-08,株式会社ＳＦＣ,,株式会社,大阪府,大阪市城東区,鴫野西２丁目６番１－１００１号,,27,118,5360014,,,,,,,2023-02-08,1,,,,,エスエフシー,0
1240,5120001252326,新規,0,2023-02-08,2023-02-08,株式会社Ｃａｎｄｌｅ,,株式会社,大阪府,寝屋川市,葛原２丁目７番３号,,27,215,5720075,,,,,,,2023-02-08,1,,,,,キャンドル,0
1241,5120001252342,新規,0,2023-02-08,2023-02-08,株式会社ＳＴＥＬＬＡ　ＥＮＴＥＲＴＡＩＮＭＥＮＴ,,株式会社,大阪府,大阪市西区,靱本町１丁目１８番８号８０１号室,,27,106,5500004,,,,,,,2023-02-08,1,,,,,ステラエンターテイメント,0
1242,5120001252359,新規,0,2023-02-08,2023-02-08,株式会社時弘,,株式会社,大阪府,大阪市東淀川区,菅原３丁目１番１８号,,27,114,5330022,,,,,,,2023-02-08,1,,,,,トキヒロ,0
1243,5120001252375,新規,0,2023-02-08,2023-02-08,株式会社ＳＵＷＡＮ,,株式会社,大阪府,大阪市北区,梅田１丁目２番２号大阪駅前第２ビル１２－１２,,27,127,5300001,,,,,,,2023-02-08,1,,,,,スワン,0
1249,5120003023386,新規,0,2023-02-08,2023-02-08,合同会社ＭＹＵ’Ｓ　ＬＡＢＯ,,合同会社,大阪府,寝屋川市,河北中町２－７,,27,215,5720816,,,,,,,2023-02-08,1,,,,,ミュウズラボ,0
1258,5130001073663,新規,0,2023-02-08,2023-02-08,株式会社アールワイハウス,,株式会社,京都府,福知山市,大字私市小字立石５番地の３,,26,201,6200003,,,,,,,2023-02-08,1,,,,,アールワイハウス,0
1266,5140001129019,新規,0,2023-02-08,2023-02-08,株式会社碧い虹,,株式会社,兵庫県,西宮市,高畑町１番２―５１０号,,28,204,6638202,,,,,,,2023-02-08,1,,,,,アオイニジ,0
1267,5140001129068,新規,0,2023-02-08,2023-02-08,プルーデント不動産株式会社,,株式会社,兵庫県,川西市,栄町３番２号,,28,217,6660033,,,,,,,2023-02-08,1,,,,,プルーデントフドウサン,0
1269,5140003018698,新規,0,2023-02-08,2023-02-08,Ｎ＆Ｈ　Ｓｈｏｐ合同会社,,合同会社,兵庫県,神戸市兵庫区,福原町２１番１５号ユキハウス１０１号室,,28,105,6520036,,,,,,,2023-02-08,1,,,,,エヌアンドエイチショップ,0
1276,5180001154921,新規,0,2023-02-08,2023-02-08,株式会社Ｒａｎｄｉｓ医薬開発研究所,,株式会社,愛知県,名古屋市西区,名駅１丁目１－１７名駅ダイヤメイテツビル１１階,,23,104,4510045,,,,,,,2023-02-08,1,,,,,ランディスイヤクカイハツケンキュウジョ,0
1285,5190001030163,新規,0,2023-02-08,2023-02-08,中村商事株式会社,,株式会社,三重県,鈴鹿市,肥田町３２８番地,,24,207,5130819,,,,,,,2023-02-08,1,,,,,ナカムラショウジ,0
1293,5240001061070,新規,0,2023-02-08,2023-02-08,株式会社Ｍホールディングス,,株式会社,広島県,東広島市,西条町御薗宇５１６６番地３,,34,212,7390024,,,,,,,2023-02-08,1,,,,,エムホールディングス,0
1296,5250003003219,新規,0,2023-02-08,2023-02-08,合同会社ワールドトレードＧＡＯ,,合同会社,山口県,下関市,椋野町３丁目２５番３２号,,35,201,7510816,,,,,,,2023-02-08,1,,,,,ワールドトレードガオ,0
1302,5290001100410,新規,0,2023-02-08,2023-02-08,株式会社成森,,株式会社,福岡県,福岡市東区,香椎照葉７丁目３番５号,,40,131,8130017,,,,,,,2023-02-08,1,,,,,ナルモリ,0
1307,5290003013511,新規,0,2023-02-08,2023-02-08,合同会社ＲＯＯＴ　ＷＥＬＬ,,合同会社,福岡県,福岡市城南区,別府５丁目２１番５号,,40,136,8140104,,,,,,,2023-02-08,1,,,,,ルートウェル,0
1308,5290801029270,新規,0,2023-02-08,2023-02-08,株式会社積み嬉,,株式会社,福岡県,北九州市八幡西区,楠橋東２丁目８番２６－１０１号,,40,109,8071142,,,,,,,2023-02-08,1,,,,,ツミキ,0
1311,5300003001935,新規,0,2023-02-08,2023-02-08,ネクスト工房合同会社,,合同会社,佐賀県,佐賀市,諸富町大字山領８１３番地１０,,41,201,8402106,,,,,,,2023-02-08,1,,,,,ネクストコウボウ,0
1316,5320001019564,新規,0,2023-02-08,2023-02-08,株式会社ＬｕＬｕ,,株式会社,大分県,大分市,京が丘南２丁目１３番４号,,44,201,8700129,,,,,,,2023-02-08,1,,,,,ルル,0
1324,5360003012695,新規,0,2023-02-08,2023-02-08,合同会社Ａｄｖａｎｃｅ．,,合同会社,沖縄県,沖縄市,登川１丁目２４番８号,,47,211,9042142,,,,,,,2023-02-08,1,,,,,アドヴァンス,0
1326,5370001049581,新規,0,2023-02-08,2023-02-08,株式会社Ｗ,,株式会社,宮城県,仙台市泉区,八乙女１丁目３－１,,04,105,9813112,,,,,,,2023-02-08,1,,,,,ダブリュー,0
1333,5410005006500,新規,0,2023-02-08,2023-02-08,特定非営利活動法人日本空手協会秋田県本部,,その他の設立登記法人,秋田県,秋田市,柳田字鳥越９９番地３,,05,201,0100825,,,,,,,2023-02-08,1,,,,,ニホンカラテキョウカイアキタケンホンブ,0
1344,5430005014633,新規,0,2023-02-08,2023-02-08,一般社団法人北海道国際産業調査機構,,その他の設立登記法人,北海道,札幌市中央区,南一条西１５丁目１番地３１９,,01,101,0600061,,,,,,,2023-02-08,1,,,,,ホッカイドウコクサイサンギョウチョウサキコウ,0
1347,5460005001562,新規,0,2023-02-08,2023-02-08,労働者協同組合ケアワーカーズコープわたすげ,,その他の設立登記法人,北海道,釧路市,共栄大通４丁目２番７号,,01,206,0850035,,,,,,,2023-02-08,1,,,,,ケアワーカーズコープワタスゲ,0
1350,5470001019467,新規,0,2023-02-08,2023-02-08,株式会社ＢＵＶＩＳＴＡ,,株式会社,香川県,高松市,牟礼町牟礼３７２０番地８２,,37,201,7610121,,,,,,,2023-02-08,1,,,,,バビスタ,0
1352,5490001010399,新規,0,2023-02-08,2023-02-08,株式会社川と森,,株式会社,高知県,吾川郡仁淀川町,竹ノ谷１０４３番地,,39,387,7811610,,,,,,,2023-02-08,1,,,,,カワトモリ,0
1358,5500001024760,新規,0,2023-02-08,2023-02-08,株式会社ｅｎｊｏｙ,,株式会社,愛媛県,松山市,小坂１丁目６番３０号,,38,201,7900963,,,,,,,2023-02-08,1,,,,,エンジョイ,0
1362,5700150114227,新規,0,2023-02-08,2023-02-08,ＮＵＳＫＡＮ　ＲＯＹＡＬ　ＥＮＴＥＲＰＲＩＳＥＳ　ＰＲＩＶＡＴＥ　ＬＩＭＩＴＥＤ,,外国会社等,群馬県,太田市,藤久良町２７－１４吉岡ハイツ２０３,,10,205,3730035,スリランカ民主社会主義共和国、ウェウダ、パラガデニヤ、スクールロード、１８６番,,,,,,2023-02-08,1,,,,,ヌスカンロヤルエンタープライセスプライベートリミテツド,0
1376,6010001232701,新規,0,2023-02-08,2023-02-08,ＧＵＡＲＡＮＴＥＥ　ＩＮＴＥＲＮＡＴＩＯＮＡＬ株式会社,,株式会社,東京都,千代田区,岩本町２丁目１１番２号,,13,101,1010032,,,,,,,2023-02-08,1,,,,,ギャランティインターナショナル,0
1377,6010001232718,新規,0,2023-02-08,2023-02-08,株式会社ＳＵＭＥＳＨＩ,,株式会社,東京都,中央区,日本橋堀留町１丁目１０番１３号,,13,102,1030012,,,,,,,2023-02-08,1,,,,,スメシ,0
1378,6010001232750,新規,0,2023-02-08,2023-02-08,新一株式会社,,株式会社,東京都,中央区,銀座１丁目２１－５－２Ｆ,,13,102,1040061,,,,,,,2023-02-08,1,,,,,シンイチ,0
1379,6010003039764,新規,0,2023-02-08,2023-02-08,自然エネルギーＳＩＰＰ１０合同会社,,合同会社,東京都,文京区,本郷５丁目３３番１０号,,13,105,1130033,,,,,,,2023-02-08,1,,,,,シゼンエネルギーエスアイピーピージュウ,0
1380,6010005036231,新規,0,2023-02-08,2023-02-08,一般社団法人ＤＳソーラープロジェクトＨＤイプシロン,,その他の設立登記法人,東京都,千代田区,丸の内３丁目１番１号東京共同会計事務所内,,13,101,1000005,,,,,,,2023-02-08,1,,,,,ディーエスソーラープロジェクトエイチディーイプシロン,0
1391,6010401172316,新規,0,2023-02-08,2023-02-08,株式会社ボルタエナジー,,株式会社,東京都,港区,六本木１丁目４番５号アークヒルズサウスタワー１６階,,13,103,1060032,,,,,,,2023-02-08,1,,,,,ボルタエナジー,0
1392,6010401172373,新規,0,2023-02-08,2023-02-08,レグリア株式会社,,株式会社,東京都,港区,海岸１丁目２－３汐留浜離宮ビルディング２１階,,13,103,1050022,,,,,,,2023-02-08,1,,,,,レグリア,0
1399,6010501049967,新規,0,2023-02-08,2023-02-08,超研株式会社,,株式会社,東京都,台東区,松が谷２丁目９番１－４０３号,,13,106,1110036,,,,,,,2023-02-08,1,,,,,チョウケン,0
1402,6010705003472,新規,0,2023-02-08,2023-02-08,行政書士法人明るい法務事務所,,その他の設立登記法人,東京都,品川区,上大崎４丁目５番２６号,,13,109,1410021,,,,,,,2023-02-08,1,,,,,アカルイホウムジムショ,0
1406,6011001152402,新規,0,2023-02-08,2023-02-08,株式会社ＰＲＩＳＭ．ＥＲ,,株式会社,東京都,渋谷区,道玄坂１丁目２番３号,,13,113,1500043,,,,,,,2023-02-08,1,,,,,プリズマー,0
1414,6011101101770,新規,0,2023-02-08,2023-02-08,株式会社オヤノコトステーション,,株式会社,東京都,新宿区,市谷田町２丁目６－４エアマンズビル市ヶ谷１Ｆ,,13,104,1620843,,,,,,,2023-02-08,1,,,,,オヤノコトステーション,0
1425,6011701025989,新規,0,2023-02-08,2023-02-08,日本フェレックス株式会社,,株式会社,東京都,江戸川区,平井７丁目２０番１３－３０３,,13,123,1320035,,,,,,,2023-02-08,1,,,,,ニッポンフェレックス,0
1426,6011703003381,新規,0,2023-02-08,2023-02-08,合同会社リボーンフロア,,合同会社,東京都,江戸川区,松島１丁目２７番１６号,,13,123,1320031,,,,,,,2023-02-08,1,,,,,リボーンフロア,0
1430,6012403005817,新規,0,2023-02-08,2023-02-08,合同会社Ｇｈｏｓｔ,,合同会社,東京都,調布市,東つつじケ丘２丁目３９‐１８ガーディアスミダ２０２,,13,208,1820005,,,,,,,2023-02-08,1,,,,,ゴースト,0
1441,6020001150126,新規,0,2023-02-08,2023-02-08,株式会社ＹＴＣ‐ｄｅｓｉｇｎ,,株式会社,神奈川県,横浜市神奈川区,神大寺４丁目１番１８－３０３号,,14,102,2210801,,,,,,,2023-02-08,1,,,,,ワイティーシーデザイン,0
1442,6020001150175,新規,0,2023-02-08,2023-02-08,株式会社アカシアオフィス,,株式会社,神奈川県,川崎市麻生区,白山５丁目１番２－２０５号,,14,137,2150014,,,,,,,2023-02-08,1,,,,,アカシアオフィス,0
1445,6020003023263,新規,0,2023-02-08,2023-02-08,ティー・オー・エフ合同会社,,合同会社,神奈川県,横浜市西区,浅間町１丁目４番３号ウィザードビル４０２,,14,103,2200072,,,,,,,2023-02-08,1,,,,,ティーオーエフ,0
1446,6020003023271,新規,0,2023-02-08,2023-02-08,合同会社エルケド,,合同会社,神奈川県,横浜市西区,北幸２丁目１０番地２８むつみビル３Ｆ,,14,103,2200004,,,,,,,2023-02-08,1,,,,,エルケド,0
1453,6030001152220,新規,0,2023-02-08,2023-02-08,株式会社音壱,,株式会社,埼玉県,新座市,石神３丁目６番１６号,,11,230,3520033,,,,,,,2023-02-08,1,,,,,オトイチ,0
1465,6050003007230,新規,0,2023-02-08,2023-02-08,ＳＩＮＥＴＡ　ＩＮＴＥＲＮＡＴＩＯＮＡＬ合同会社,,合同会社,茨城県,稲敷郡美浦村,大字木原１８８９番地５２,,08,442,3000421,,,,,,,2023-02-08,1,,,,,シネタインターナショナル,0
1469,6070003004820,新規,0,2023-02-08,2023-02-08,合同会社ＥＳＰ,,合同会社,群馬県,伊勢崎市,除ケ町４２６－２,,10,204,3720832,,,,,,,2023-02-08,1,,,,,イーエスピー,0
1471,6080001025454,新規,0,2023-02-08,2023-02-08,ベアクラス株式会社,,株式会社,静岡県,藤枝市,田中３丁目６番１７号,,22,214,4260012,,,,,,,2023-02-08,1,,,,,ベアクラス,0
1476,6080401026309,新規,0,2023-02-08,2023-02-08,株式会社森のくまさん,,株式会社,静岡県,浜松市中区,和合町１１４６－１,,22,131,4338125,,,,,,,2023-02-08,1,,,,,モリノクマサン,0
1477,6080403004725,新規,0,2023-02-08,2023-02-08,合同会社ミライシエン,,合同会社,静岡県,浜松市中区,萩丘２丁目３３番２０号ハイツアセンドＣ,,22,131,4338121,,,,,,,2023-02-08,1,,,,,ミライシエン,0
1478,6090003002244,新規,0,2023-02-08,2023-02-08,７ｄｒｅａｍ合同会社,,合同会社,山梨県,南巨摩郡南部町,福士４５９９番地,,19,366,4092102,,,,,,,2023-02-08,1,,,,,ナナドリーム,0
1483,6100001036135,新規,0,2023-02-08,2023-02-08,株式会社灯,,株式会社,長野県,南佐久郡小海町,大字千代里３０２８番地,,20,303,3841105,,,,,,,2023-02-08,1,,,,,トモシ,0
1487,6110001037289,新規,0,2023-02-08,2023-02-08,株式会社長翔建設,,株式会社,新潟県,新潟市江南区,横越上町３丁目３－１３,,15,104,9500210,,,,,,,2023-02-08,1,,,,,ナガトケンセツ,0
1489,6110003004980,新規,0,2023-02-08,2023-02-08,合同会社Ｍｉｔａｓｕ,,合同会社,新潟県,新潟市中央区,南笹口１丁目１‐３８コープオリンピア８０８,,15,103,9500912,,,,,,,2023-02-08,1,,,,,ミタス,0
1496,6120001252341,新規,0,2023-02-08,2023-02-08,株式会社ＫＹＯ,,株式会社,大阪府,寝屋川市,香里西之町２０番２７号,,27,215,5720089,,,,,,,2023-02-08,1,,,,,キョウ,0
1497,6120001252382,新規,0,2023-02-08,2023-02-08,優里株式会社,,株式会社,大阪府,大阪市北区,天神橋７丁目１５番１３－５０２号,,27,127,5310041,,,,,,,2023-02-08,1,,,,,ユウリ,0
1501,6120003023385,新規,0,2023-02-08,2023-02-08,ＳＥＩＫＡ合同会社,,合同会社,大阪府,大阪市生野区,林寺４丁目１０番２７号,,27,116,5440023,,,,,,,2023-02-08,1,,,,,セイカ,0
1504,6120005023466,新規,0,2023-02-08,2023-02-08,一般社団法人西成稲川ホテル,,その他の設立登記法人,大阪府,大阪市北区,西天満４丁目１４番３号,,27,127,5300047,,,,,,,2023-02-08,1,,,,,ニシナリイナガワホテル,0
1511,6122001036690,新規,0,2023-02-08,2023-02-08,株式会社ＢＬＥＳＳＩＮＧ,,株式会社,大阪府,大東市,錦町７番６号－３０３号,,27,218,5740002,,,,,,,2023-02-08,1,,,,,ブレッシング,0
1515,6130001073654,新規,0,2023-02-08,2023-02-08,リンク・ステージ株式会社,,株式会社,京都府,京都市下京区,東洞院通七条下る東塩小路町５４７番地４ステーションコートヤード７０２号,,26,106,6008216,,,,,,,2023-02-08,1,,,,,リンクステージ,0
1519,6130005016691,新規,0,2023-02-08,2023-02-08,一般社団法人日本僧侶協会,,その他の設立登記法人,京都府,京都市山科区,御陵荒巻町５６－１７,,26,110,6078429,,,,,,,2023-02-08,1,,,,,ニホンソウリョキョウカイ,0
1525,6170003001832,新規,0,2023-02-08,2023-02-08,ブルーレオ合同会社,,合同会社,和歌山県,海南市,山崎町３丁目２番４,,30,202,6420003,,,,,,,2023-02-08,1,,,,,ブルーレオ,0
1530,6180001154821,新規,0,2023-02-08,2023-02-08,アースパワープロダクツ株式会社,,株式会社,愛知県,津島市,鹿伏兎町西清水４７番地,,23,208,4960023,,,,,,,2023-02-08,1,,,,,アースパワープロダクツ,0
1531,6180001154929,新規,0,2023-02-08,2023-02-08,プレシャスエージェント株式会社,,株式会社,愛知県,名古屋市東区,筒井３丁目１２番５号,,23,102,4610003,,,,,,,2023-02-08,1,,,,,プレシャスエージェント,0
1539,6190001030162,新規,0,2023-02-08,2023-02-08,株式会社デルタ,,株式会社,三重県,伊勢市,上野町２７５４番地８,,24,203,5161104,,,,,,,2023-02-08,1,,,,,デルタ,0
1546,6220001025258,新規,0,2023-02-08,2023-02-08,Ｔｅａｍ　Ｈａｐｐｉｎｅｓｓ．株式会社,,株式会社,石川県,金沢市,大河端西２丁目１１７番地,,17,201,9200210,,,,,,,2023-02-08,1,,,,,チームハピネス,0
1548,6260003004198,新規,0,2023-02-08,2023-02-08,合同会社Ｔ‐Ｈｏｍｅｓ,,合同会社,岡山県,岡山市北区,吉備津７３７番地,,33,101,7011341,,,,,,,2023-02-08,1,,,,,ティーホームズ,0
1549,6260005011192,新規,0,2023-02-08,2023-02-08,一般社団法人ＧｒａｎＳｅｅｄ,,その他の設立登記法人,岡山県,岡山市中区,兼基８９番地１ヴァンテアン百間川公園２０２号,,33,102,7038227,,,,,,,2023-02-08,1,,,,,グランシード,0
1551,6280003001697,新規,0,2023-02-08,2023-02-08,合同会社デイリーエモ,,合同会社,島根県,出雲市,大社町杵築東７２５番地,,32,203,6990701,,,,,,,2023-02-08,1,,,,,デイリーエモ,0
1556,6290003013477,新規,0,2023-02-08,2023-02-08,合同会社Ｉ‐ｐａｃｈｉ,,合同会社,福岡県,筑紫野市,原田６丁目５－１５サンクレーゼ２０２,,40,217,8180024,,,,,,,2023-02-08,1,,,,,アイパチ,0
1577,6390003002049,新規,0,2023-02-08,2023-02-08,日本海企画合同会社,,合同会社,山形県,飽海郡遊佐町,比子字青塚３１番地の３８地域活性化拠点施設,,06,461,9998438,,,,,,,2023-02-08,1,,,,,ニホンカイキカク,0
1583,6410001013391,新規,0,2023-02-08,2023-02-08,株式会社ワイズホールディングス,,株式会社,秋田県,横手市,安田字ブンナ沢３番地,,05,203,0130043,,,,,,,2023-02-08,1,,,,,ワイズホールディングス,0
1587,6430001088358,新規,0,2023-02-08,2023-02-08,株式会社アフターグロー,,株式会社,北海道,札幌市中央区,南二条東２丁目１６番地堀尾ビル２階,,01,101,0600052,,,,,,,2023-02-08,1,,,,,アフターグロー,0
1588,6430001088408,新規,0,2023-02-08,2023-02-08,わがまま出版株式会社,,株式会社,北海道,江別市,文京台南町５８－６,,01,217,0690835,,,,,,,2023-02-08,1,,,,,ワガママシュッパン,0
1590,6450005004359,新規,0,2023-02-08,2023-02-08,労働者協同組合ケアワーカーズコープ北海道,,その他の設立登記法人,北海道,旭川市,住吉四条１丁目４番５号,,01,204,0700864,,,,,,,2023-02-08,1,,,,,ケアワーカーズコープホッカイドウ,0
1594,6470001019466,新規,0,2023-02-08,2023-02-08,株式会社ＢＲＡＣＡ,,株式会社,香川県,高松市,香西南町２９２番地１２,,37,201,7618014,,,,,,,2023-02-08,1,,,,,ブレイカ,0
1595,6480003001933,新規,0,2023-02-08,2023-02-08,ソーラーファクトリー合同会社,,合同会社,徳島県,阿波市,市場町上喜来字正田９４７番地２,,36,206,7711612,,,,,,,2023-02-08,1,,,,,ソーラーファクトリー,0
1600,6490001010398,新規,0,2023-02-08,2023-02-08,株式会社Ｊ９シロアム地盤,,株式会社,高知県,高知市,横浜西町５２番１６号,,39,201,7810242,,,,,,,2023-02-08,1,,,,,ジェイキュウシロアムジバン,0
1611,7010001232758,新規,0,2023-02-08,2023-02-08,株式会社ＹＯＭＵ,,株式会社,東京都,中央区,入船１丁目６番１２号ＩＲＩＦＵＮＥＰＬＡＣＥ２Ｆ,,13,102,1040042,,,,,,,2023-02-08,1,,,,,ヨム,0
1628,7010401172356,新規,0,2023-02-08,2023-02-08,ハッチ株式会社,,株式会社,東京都,港区,浜松町２丁目２番１５号浜松町ダイヤビル２Ｆ,,13,103,1050013,,,,,,,2023-02-08,1,,,,,ハッチ,0
1629,7010401172397,新規,0,2023-02-08,2023-02-08,株式会社シンコンテック,,株式会社,東京都,港区,六本木２丁目２－６六本木福吉町ビル,,13,103,1060032,,,,,,,2023-02-08,1,,,,,シンコンテック,0
1635,7010501049966,新規,0,2023-02-08,2023-02-08,三生株式会社,,株式会社,東京都,台東区,松が谷２丁目９番１－４０４号,,13,106,1110036,,,,,,,2023-02-08,1,,,,,サンセイ,0
1641,7010803004446,新規,0,2023-02-08,2023-02-08,翔栄設備合同会社,,合同会社,東京都,大田区,北馬込２丁目１番１号,,13,111,1430021,,,,,,,2023-02-08,1,,,,,ショウエイセツビ,0
1642,7010901052487,新規,0,2023-02-08,2023-02-08,株式会社匠,,株式会社,東京都,世田谷区,松原６丁目１２番１１号３Ｆ,,13,112,1560043,,,,,,,2023-02-08,1,,,,,タクミ,0
1647,7011001152442,新規,0,2023-02-08,2023-02-08,株式会社Ｍａｋｉｅｉｇｏ,,株式会社,東京都,渋谷区,神宮前６丁目２３－４桑野ビル２階,,13,113,1500001,,,,,,,2023-02-08,1,,,,,マキエイゴ,0
1656,7011101101753,新規,0,2023-02-08,2023-02-08,株式会社ＶＰＳ,,株式会社,東京都,新宿区,上落合１丁目２２番１２号,,13,104,1610034,,,,,,,2023-02-08,1,,,,,ブイピーエス,0
1658,7011105010546,新規,0,2023-02-08,2023-02-08,一般社団法人東京中央連絡會,,その他の設立登記法人,東京都,新宿区,下宮比町２－２８飯田橋ハイタウン８２０,,13,104,1620822,,,,,,,2023-02-08,1,,,,,,0
1667,7011403003904,新規,0,2023-02-08,2023-02-08,合同会社和雅風,,合同会社,東京都,板橋区,前野町６丁目２６番７号ヴィラサンベルナールときわ台２０６号室,,13,119,1740063,,,,,,,2023-02-08,1,,,,,ワガフウ,0
1671,7011603003811,新規,0,2023-02-08,2023-02-08,合同会社ナガトモ,,合同会社,東京都,練馬区,西大泉５丁目２９番２３－１４０３号,,13,120,1780065,,,,,,,2023-02-08,1,,,,,ナガトモ,0
1675,7012403005816,新規,0,2023-02-08,2023-02-08,合同会社ｂｅｐｏ,,合同会社,東京都,三鷹市,井の頭３丁目３１番５号リファイン井の頭公園,,13,204,1810001,,,,,,,2023-02-08,1,,,,,ベポ,0
1676,7012701017471,新規,0,2023-02-08,2023-02-08,株式会社福原商会,,株式会社,東京都,清瀬市,元町１丁目８番２０号エスタ清瀬ビル３０５号室,,13,221,2040021,,,,,,,2023-02-08,1,,,,,フクハラショウカイ,0
1681,7012801022124,新規,0,2023-02-08,2023-02-08,アシタエ株式会社,,株式会社,東京都,国分寺市,本町２丁目１２番２号,,13,214,1850012,,,,,,,2023-02-08,1,,,,,アシタエ,0
1683,7013303006490,新規,0,2023-02-08,2023-02-08,アップコンパス合同会社,,合同会社,東京都,豊島区,西池袋５丁目１３番１８号Ａｔｔｉｃ,,13,116,1710021,,,,,,,2023-02-08,1,,,,,アップコンパス,0
1689,7020001150091,新規,0,2023-02-08,2023-02-08,ケラテック株式会社,,株式会社,神奈川県,横浜市保土ケ谷区,神戸町１３４番地,,14,106,2400005,,,,,,,2023-02-08,1,,,,,ケラテック,0
1690,7020001150158,新規,0,2023-02-08,2023-02-08,株式会社ＢＥＬＤＡＤ,,株式会社,神奈川県,横浜市青葉区,青葉台２丁目１９番８号ファミール青葉台１００３,,14,117,2270062,,,,,,,2023-02-08,1,,,,,ベルダ,0
1691,7020001150174,新規,0,2023-02-08,2023-02-08,株式会社アゴモンド,,株式会社,神奈川県,川崎市宮前区,宮崎２丁目２番地４エクセル佐々木２１０号,,14,136,2160033,,,,,,,2023-02-08,1,,,,,アゴモンド,0
1697,7020003023238,新規,0,2023-02-08,2023-02-08,テレビプロモ合同会社,,合同会社,神奈川県,横浜市中区,千代崎町１丁目２５番地２１ライオンズマンション横浜山手４０１号室,,14,104,2310864,,,,,,,2023-02-08,1,,,,,テレビプロモ,0
1698,7020003023262,新規,0,2023-02-08,2023-02-08,Ｇｌｏｂａｌ　ｃｉｔｉｚｅｎ合同会社,,合同会社,神奈川県,横浜市港北区,下田町３丁目１５番６－４号,,14,109,2230064,,,,,,,2023-02-08,1,,,,,グローバルシチズン,0
1699,7020003023279,新規,0,2023-02-08,2023-02-08,Ｆｏｒｓｅｅ　Ｐｏｗｅｒ　Ｊａｐａｎ合同会社,,合同会社,神奈川県,横浜市中区,山下町２番地産業貿易センタービル２階,,14,104,2310023,,,,,,,2023-02-08,1,,,,,フォーシーパワージャパン,0
1703,7021001078141,新規,0,2023-02-08,2023-02-08,株式会社アイ・ピー・エルＨＤ,,株式会社,神奈川県,厚木市,中町４丁目９番１７号,,14,212,2430018,,,,,,,2023-02-08,1,,,,,アイピーエルエイチディー,0
1704,7021001078158,新規,0,2023-02-08,2023-02-08,ＫＭ建設株式会社,,株式会社,神奈川県,横須賀市,武３丁目１１番１０号,,14,201,2380313,,,,,,,2023-02-08,1,,,,,ケイエムケンセツ,0
1705,7021001078166,新規,0,2023-02-08,2023-02-08,厚木市文化会館ＰＦＩ株式会社,,株式会社,神奈川県,厚木市,栄町１丁目２番２号,,14,212,2430017,,,,,,,2023-02-08,1,,,,,アツギシブンカカイカンピーエフアイ,0
1715,7030001152302,新規,0,2023-02-08,2023-02-08,株式会社Ｇｉａｒｄｉｎｏ,,株式会社,埼玉県,川越市,新富町１丁目１８番２号,,11,201,3500043,,,,,,,2023-02-08,1,,,,,ジャルディーノ,0
1716,7030001152310,新規,0,2023-02-08,2023-02-08,株式会社うるおいエレガンス,,株式会社,埼玉県,越谷市,東大沢２丁目３４番地１８,,11,222,3430022,,,,,,,2023-02-08,1,,,,,ウルオイエレガンス,0
1720,7030003021133,新規,0,2023-02-08,2023-02-08,合同会社Ｓｌｕｓｈ,,合同会社,埼玉県,さいたま市南区,別所５丁目１５－２,,11,108,3360021,,,,,,,2023-02-08,1,,,,,スラッシュ,0
1728,7070001040098,新規,0,2023-02-08,2023-02-08,ショーサン株式会社,,株式会社,群馬県,前橋市,清野町６番地３,,10,201,3703574,,,,,,,2023-02-08,1,,,,,ショーサン,0
1729,7070001040107,新規,0,2023-02-08,2023-02-08,株式会社桐生工業,,株式会社,群馬県,前橋市,大手町１丁目２番８号,,10,201,3710026,,,,,,,2023-02-08,1,,,,,キリュウコウギョウ,0
1732,7080401026308,新規,0,2023-02-08,2023-02-08,株式会社ＢＳ,,株式会社,静岡県,浜松市西区,篠原町９４４９番地の１,,22,133,4310201,,,,,,,2023-02-08,1,,,,,ビーエス,0
1763,7120001252381,新規,0,2023-02-08,2023-02-08,紫麟株式会社,,株式会社,大阪府,大阪市西区,南堀江４丁目２４－１０－５０３,,27,106,5500015,,,,,,,2023-02-08,1,,,,,シリン,0
1776,7120903004491,新規,0,2023-02-08,2023-02-08,ＳＨＩＮＥ合同会社,,合同会社,大阪府,豊中市,上津島２丁目１６番１２号,,27,203,5610843,,,,,,,2023-02-08,1,,,,,シャイン,0
1784,7130001073645,新規,0,2023-02-08,2023-02-08,株式会社世界とつなぐ,,株式会社,京都府,京都市中京区,御池通東洞院東入笹屋町４３６番地永和御池ビル６０６号,,26,104,6048187,,,,,,,2023-02-08,1,,,,,セカイトツナグ,0
1785,7130001073661,新規,0,2023-02-08,2023-02-08,株式会社ｒｅｍｅｍｂｅｒ,,株式会社,京都府,京都市中京区,富小路通錦小路上る高宮町５９０番地ＦＯＲＣＥＴＯＭＩＮＯＫＯＪＩ１Ｆ,,26,104,6048056,,,,,,,2023-02-08,1,,,,,リメンバー,0
1787,7130003008517,新規,0,2023-02-08,2023-02-08,合同会社総合コンサルティングＫ,,合同会社,京都府,城陽市,寺田大谷１１５－２１５,,26,207,6100121,,,,,,,2023-02-08,1,,,,,ソウゴウコンサルティングケー,0
1788,7130005016690,新規,0,2023-02-08,2023-02-08,一般財団法人クラッパードイン,,その他の設立登記法人,京都府,京都市上京区,烏丸通今出川上る岡松町２５５番２,,26,102,6020032,,,,,,,2023-02-08,1,,,,,クラッパードイン,0
1793,7140003018696,新規,0,2023-02-08,2023-02-08,合同会社ＳＫクオーレ,,合同会社,兵庫県,伊丹市,稲野町６丁目７２番地１田中マンション３階,,28,207,6640861,,,,,,,2023-02-08,1,,,,,エスケイクオーレ,0
1800,7180001154894,新規,0,2023-02-08,2023-02-08,株式会社Ｓｅｇｕｒｏ　Ｔｕｙｏ,,株式会社,愛知県,瀬戸市,湯之根町４７番地,,23,204,4890078,,,,,,,2023-02-08,1,,,,,セグーロトゥーヨ,0
1801,7180001154911,新規,0,2023-02-08,2023-02-08,株式会社Ｃｅｎｄｒｉｌｌｏｎ,,株式会社,愛知県,名古屋市熱田区,金山町１丁目１１番２号メイプル金山６０１,,23,109,4560002,,,,,,,2023-02-08,1,,,,,サンドリヨン,0
1802,7180001154928,新規,0,2023-02-08,2023-02-08,Ｔ’ｓｍｉｌｅ株式会社,,株式会社,愛知県,一宮市,新生１丁目１０番１５号,,23,203,4910912,,,,,,,2023-02-08,1,,,,,ティースマイル,0
1805,7180003024831,新規,0,2023-02-08,2023-02-08,合同会社シンコーホールディングス,,合同会社,愛知県,名古屋市中村区,千原町１２番１４号,,23,105,4530011,,,,,,,2023-02-08,1,,,,,シンコーホールディングス,0
1818,7220001025265,新規,0,2023-02-08,2023-02-08,株式会社ナオト電工,,株式会社,石川県,金沢市,福久東１丁目６９番地３,,17,201,9203123,,,,,,,2023-02-08,1,,,,,ナオトデンコウ,0
1827,7260001037637,新規,0,2023-02-08,2023-02-08,株式会社シンシア,,株式会社,岡山県,津山市,安井９８３番地,,33,203,7081212,,,,,,,2023-02-08,1,,,,,シンシア,0
1828,7260001037645,新規,0,2023-02-08,2023-02-08,株式会社ＫＡＩＮＯｉｎｔｅｒｎａｔｉｏｎａｌ中四国,,株式会社,岡山県,岡山市北区,庭瀬９７番地２２,,33,101,7010153,,,,,,,2023-02-08,1,,,,,カイノインターナショナルチュウシコク,0
1835,7290001100508,新規,0,2023-02-08,2023-02-08,株式会社Ｍ’ｓ,,株式会社,福岡県,久留米市,長門石２丁目１５番２１－２０６号,,40,203,8300027,,,,,,,2023-02-08,1,,,,,エムズ,0
1837,7290003013492,新規,0,2023-02-08,2023-02-08,ラクスト合同会社,,合同会社,福岡県,春日市,桜ヶ丘２丁目１９番地１エバーライフ井尻駅南１０１４,,40,218,8160872,,,,,,,2023-02-08,1,,,,,ラクスト,0
1843,7300003001933,新規,0,2023-02-08,2023-02-08,三権開発興業合同会社,,合同会社,佐賀県,佐賀市,大財３丁目１番１２号,,41,201,8400811,,,,,,,2023-02-08,1,,,,,サンケンカイハツコウギョウ,0
1848,7330001030584,新規,0,2023-02-08,2023-02-08,株式会社ＲｅＢＩＲＴＨ,,株式会社,熊本県,熊本市東区,若葉１丁目４２番１７号クレールコート健軍２０２,,43,102,8620903,,,,,,,2023-02-08,1,,,,,リバース,0
1849,7340001025360,新規,0,2023-02-08,2023-02-08,株式会社キャストアイ,,株式会社,鹿児島県,鹿児島市,上荒田町２０番１５号,,46,201,8900055,,,,,,,2023-02-08,1,,,,,キャストアイ,0
1851,7350001018181,新規,0,2023-02-08,2023-02-08,株式会社バンビ運輸,,株式会社,宮崎県,都城市,横市町６０４２番地４,,45,202,8850091,,,,,,,2023-02-08,1,,,,,バンビウンユ,0
1853,7360003012702,新規,0,2023-02-08,2023-02-08,合同会社道農園,,合同会社,沖縄県,那覇市,首里汀良町２丁目９番地,,47,201,9030806,,,,,,,2023-02-08,1,,,,,タオノウエン,0
1855,7370003005985,新規,0,2023-02-08,2023-02-08,合同会社ぽかぽか,,合同会社,宮城県,柴田郡村田町,大字小泉字狢沢１０,,04,322,9891302,,,,,,,2023-02-08,1,,,,,ポカポカ,0
1859,7400005008297,新規,0,2023-02-08,2023-02-08,一般社団法人ふぁいる,,その他の設立登記法人,岩手県,北上市,稲瀬町上台２０５番地,,03,206,0240041,,,,,,,2023-02-08,1,,,,,ファイル,0
1862,7410001013382,新規,0,2023-02-08,2023-02-08,株式会社ＳＡＫＩＹＡＭＡＫＡＷＡ,,株式会社,秋田県,秋田市,寺内児桜３丁目５番１号,,05,201,0110909,,,,,,,2023-02-08,1,,,,,サキヤマカワ,0
1863,7410001013390,新規,0,2023-02-08,2023-02-08,株式会社越刻,,株式会社,秋田県,秋田市,南通亀の町４番１号ルーミー７３０－７０６,,05,201,0100011,,,,,,,2023-02-08,1,,,,,エッコク,0
1867,7430001088381,新規,0,2023-02-08,2023-02-08,飛栄興業株式会社,,株式会社,北海道,沙流郡日高町,宮下町１丁目４１２番地の３,,01,601,0552306,,,,,,,2023-02-08,1,,,,,ヒエイコウギョウ,0
1871,7470001019465,新規,0,2023-02-08,2023-02-08,株式会社虎屋,,株式会社,香川県,仲多度郡琴平町,９６３番地,,37,403,7660001,,,,,,,2023-02-08,1,,,,,トラヤ,0
1873,7480001012007,新規,0,2023-02-08,2023-02-08,株式会社ＤＡＤＡｉｓｍ,,株式会社,徳島県,徳島市,三軒屋町東１８番地の４,,36,201,7708025,,,,,,,2023-02-08,1,,,,,ダダイズム,0
1877,7500001024759,新規,0,2023-02-08,2023-02-08,株式会社シゼンタイ,,株式会社,愛媛県,松山市,久谷町７６８番地,,38,201,7911132,,,,,,,2023-02-08,1,,,,,シゼンタイ,0
1879,7700150114217,新規,0,2023-02-08,2023-02-08,青梅駅前地区市街地再開発組合,,その他,東京都,青梅市,本町１３０番地１７,,13,205,1980083,,,,,,,2023-02-08,1,,,,,オウメエキマエチクシガイチサイカイハツクミアイ,0
1889,8010001232757,新規,0,2023-02-08,2023-02-08,ＡｋｉＷａｙｓ株式会社,,株式会社,東京都,中央区,銀座１丁目２２番１１号銀座大竹ビジデンス２Ｆ,,13,102,1040061,,,,,,,2023-02-08,1,,,,,アキウェイズ,0
1894,8010401172396,新規,0,2023-02-08,2023-02-08,株式会社Ｓｕｅ,,株式会社,東京都,港区,南青山３丁目１番３６号青山丸竹ビル６Ｆ,,13,103,1070062,,,,,,,2023-02-08,1,,,,,スー,0
1896,8010403029470,新規,0,2023-02-08,2023-02-08,種子島サステナブル合同会社,,合同会社,東京都,港区,六本木６丁目１０番１号六本木ヒルズ森タワー３７階,,13,103,1060032,,,,,,,2023-02-08,1,,,,,タネガシマサステナブル,0
1901,8010501049981,新規,0,2023-02-08,2023-02-08,愛遊株式会社,,株式会社,東京都,台東区,西浅草３丁目２６番５－１２０２号レーベン浅草ＡＹＡＧＩＮＵ,,13,106,1110035,,,,,,,2023-02-08,1,,,,,アイユウ,0
1905,8010803004445,新規,0,2023-02-08,2023-02-08,合同会社諭吉,,合同会社,東京都,大田区,蒲田５丁目２０番３号,,13,111,1440052,,,,,,,2023-02-08,1,,,,,ユキチ,0
1907,8010903007959,新規,0,2023-02-08,2023-02-08,合同会社Ｒ．Ｊ,,合同会社,東京都,世田谷区,奥沢７丁目３番９－２０８号,,13,112,1580083,,,,,,,2023-02-08,1,,,,,アールジェイ,0
1913,8011001152499,新規,0,2023-02-08,2023-02-08,ＰＩＡ　ＤＡＩＭＡＮＩ　Ｈｏｓｐｉｔａｌｉｔｙ　Ｅｘｐｅｒｉｅｎｃｅ株式会社,,株式会社,東京都,渋谷区,東１丁目２番２０号,,13,113,1500011,,,,,,,2023-02-08,1,,,,,ピアダイマニホスピタリティエクスペリエンス,0
1919,8011101101777,新規,0,2023-02-08,2023-02-08,株式会社おおや綜合才能教育研究所,,株式会社,東京都,新宿区,西早稲田２丁目１１番６号,,13,104,1690051,,,,,,,2023-02-08,1,,,,,オオヤソウゴウサイノウキョウイクケンキュウジョ,0
1922,8011105010545,新規,0,2023-02-08,2023-02-08,一般社団法人タバーワ功徳バンク,,その他の設立登記法人,東京都,新宿区,高田馬場４丁目４番１０号コーポラス徳光３０３,,13,104,1690075,,,,,,,2023-02-08,1,,,,,タバーワコウトクバンク,0
1925,8011303004662,新規,0,2023-02-08,2023-02-08,ｔｔｕＳＰＡＣＥ合同会社,,合同会社,東京都,杉並区,宮前３丁目３１－１７シティテラス西荻窪４２７,,13,115,1680081,,,,,,,2023-02-08,1,,,,,ティーティーユースペース,0
1928,8011403003903,新規,0,2023-02-08,2023-02-08,合同会社将輝,,合同会社,東京都,板橋区,泉町２１番２－４０５号,,13,119,1740055,,,,,,,2023-02-08,1,,,,,ショウキ,0
1929,8011503005460,新規,0,2023-02-08,2023-02-08,合同会社行政コンシェルジュ,,合同会社,東京都,北区,東十条２丁目１６－１３ＤＩＰＳ東十条駅前ＰＲＥＭＩＵＭ１２０３,,13,117,1140001,,,,,,,2023-02-08,1,,,,,ギョウセイコンシェルジュ,0
1930,8011601026565,新規,0,2023-02-08,2023-02-08,日本欣宇株式会社,,株式会社,東京都,練馬区,桜台１丁目７番７－４０１号室,,13,120,1760002,,,,,,,2023-02-08,1,,,,,ニッホンキンウ,0
1933,8012702002042,新規,0,2023-02-08,2023-02-08,渡辺建築有限会社,,有限会社,東京都,小平市,学園東町１丁目２０番９号,,13,211,1870043,,,,,,,2023-02-08,1,,,,,ワタナベケンチク,0
1940,8013301050300,新規,0,2023-02-08,2023-02-08,株式会社世界開発,,株式会社,東京都,豊島区,西池袋３丁目３０－６磯野ビル４０１,,13,116,1710021,,,,,,,2023-02-08,1,,,,,セカイカイハツ,0
1946,8020001150173,新規,0,2023-02-08,2023-02-08,株式会社シーアール,,株式会社,神奈川県,横浜市中区,日ノ出町１丁目２００番地ザ・スカイクルーズタワー１４１１,,14,104,2310066,,,,,,,2023-02-08,1,,,,,シーアール,0
1947,8020001150215,新規,0,2023-02-08,2023-02-08,ワイエイチアール株式会社,,株式会社,神奈川県,横浜市青葉区,新石川４丁目１３番地３１,,14,117,2250003,,,,,,,2023-02-08,1,,,,,ワイエイチアール,0
1949,8021001078149,新規,0,2023-02-08,2023-02-08,湘南道標株式会社,,株式会社,神奈川県,小田原市,本町１丁目１３番２５号,,14,206,2500012,,,,,,,2023-02-08,1,,,,,ショウナンミチシルベ,0
1956,8030001152210,新規,0,2023-02-08,2023-02-08,株式会社高田工舎,00129371,株式会社,埼玉県,さいたま市緑区,大間木２丁目１７番地１１,,11,109,3360923,,,,,,,2023-02-08,1,,,,,タカダコウシャ,0
1957,8030001152292,新規,0,2023-02-08,2023-02-08,株式会社英工業,,株式会社,埼玉県,幸手市,大字内国府間１４５－８,,11,240,3400103,,,,,,,2023-02-08,1,,,,,ハナブサコウギョウ,0
1958,8030001152301,新規,0,2023-02-08,2023-02-08,株式会社塩野組,,株式会社,埼玉県,春日部市,西金野井１６８１番地２ボヌ－ルＣ２０３,,11,214,3440112,,,,,,,2023-02-08,1,,,,,シオノグミ,0
1959,8030001152326,新規,0,2023-02-08,2023-02-08,株式会社阿部製作所,,株式会社,埼玉県,さいたま市南区,曲本２丁目１２－２０,,11,108,3360033,,,,,,,2023-02-08,1,,,,,アベセイサクショ,0
1970,8040001126782,新規,0,2023-02-08,2023-02-08,株式会社柴崎建業,,株式会社,千葉県,松戸市,五香西２丁目５１番地の２０,,12,207,2702218,,,,,,,2023-02-08,1,,,,,シバサキケンギョウ,0
1971,8040001126865,新規,0,2023-02-08,2023-02-08,株式会社らぐなろっく,,株式会社,千葉県,市川市,高谷２丁目２番１８－３０１号（クレール市川）,,12,203,2720013,,,,,,,2023-02-08,1,,,,,ラグナロック,0
1972,8040001127013,新規,0,2023-02-08,2023-02-08,株式会社Ａ　ｃｈａｒｍ,,株式会社,千葉県,印西市,牧の原６丁目７－６０,,12,231,2701331,,,,,,,2023-02-08,1,,,,,エーチャーム,0
1975,8040003021899,新規,0,2023-02-08,2023-02-08,合同会社ラペッシュ,,合同会社,千葉県,野田市,清水２４１－８,,12,208,2780043,,,,,,,2023-02-08,1,,,,,ラペッシュ,0
1987,8070001040106,新規,0,2023-02-08,2023-02-08,株式会社大和空調サービス,,株式会社,群馬県,伊勢崎市,山王町８２２番地３,,10,204,3720831,,,,,,,2023-02-08,1,,,,,ヤマトクウチョウサービス,0
1993,8090005007545,新規,0,2023-02-08,2023-02-08,一般社団法人山梨県士業連携協会,,その他の設立登記法人,山梨県,甲府市,伊勢１丁目４番１１号ニューウェーブビル３階,,19,201,4000856,,,,,,,2023-02-08,1,,,,,ヤマナシケンシギョウレンケイキョウカイ,0
2000,8110001037287,新規,0,2023-02-08,2023-02-08,株式会社相馬総合企画,,株式会社,新潟県,佐渡市,新穂瓜生屋６４８,,15,224,9520106,,,,,,,2023-02-08,1,,,,,ソウマソウゴウキカク,0
2010,8120001252216,新規,0,2023-02-08,2023-02-08,ファーム株式会社,,株式会社,大阪府,大阪市住吉区,清水丘１丁目９番３号,,27,120,5580033,,,,,,,2023-02-08,1,,,,,ファーム,0
2011,8120001252348,新規,0,2023-02-08,2023-02-08,株式会社ふぁんシステム,,株式会社,大阪府,大阪市西成区,梅南１丁目３－１０パラゴン梅南９０２,,27,122,5570033,,,,,,,2023-02-08,1,,,,,ファンシステム,0
2012,8120001252380,新規,0,2023-02-08,2023-02-08,株式会社春天,,株式会社,大阪府,大阪市東住吉区,公園南矢田４丁目１６番１２号－２０１号,,27,121,5460024,,,,,,,2023-02-08,1,,,,,ハルテン,0
2013,8120001252389,新規,0,2023-02-08,2023-02-08,株式会社皇貴,,株式会社,大阪府,大阪市北区,中之島４丁目３番２０－３２０４号,,27,127,5300005,,,,,,,2023-02-08,1,,,,,コウキ,0
2030,8130001073652,新規,0,2023-02-08,2023-02-08,株式会社下峰工務店,,株式会社,京都府,長岡京市,友岡４丁目１２番９号,,26,209,6170843,,,,,,,2023-02-08,1,,,,,シモミネコウムテン,0
2031,8130003008508,新規,0,2023-02-08,2023-02-08,Ｂｅ　Ｔｈｉｎｋ　Ｐａｒｔｎｅｒ合同会社,,合同会社,京都府,京都市西京区,大枝北福西町２丁目１３番地６,,26,111,6101112,,,,,,,2023-02-08,1,,,,,ビーシンクパートナー,0
2038,8140003018712,新規,0,2023-02-08,2023-02-08,ＭＡＲＫＳ合同会社,,合同会社,兵庫県,川西市,石道字下ノ山９番地１２,,28,217,6660156,,,,,,,2023-02-08,1,,,,,マークス,0
2043,8160001024818,新規,0,2023-02-08,2023-02-08,アトリエＣｏｏｈ株式会社,,株式会社,滋賀県,草津市,青地町２１３番地の１,,25,206,5250041,,,,,,,2023-02-08,1,,,,,アトリエクー,0
2052,8180001154836,新規,0,2023-02-08,2023-02-08,株式会社エコってる,,株式会社,愛知県,名古屋市西区,名駅２丁目２９番３号プリマヴェール名駅シュール４０３号,,23,104,4510045,,,,,,,2023-02-08,1,,,,,エコッテル,0
2053,8180001154877,新規,0,2023-02-08,2023-02-08,株式会社Ａｎｄａｎｔｅ,,株式会社,愛知県,名古屋市千種区,西山元町３丁目７番地の４,,23,101,4640063,,,,,,,2023-02-08,1,,,,,アンダンテ,0
2059,8180005020101,新規,0,2023-02-08,2023-02-08,一般社団法人三ツ屋会,,その他の設立登記法人,愛知県,大府市,共栄町７丁目１３番地の１６,,23,223,4740074,,,,,,,2023-02-08,1,,,,,ミツヤカイ,0
2062,8190003004220,新規,0,2023-02-08,2023-02-08,３ＲＡｉＭｉＧｉ合同会社,,合同会社,三重県,四日市市,富田栄町２１－１,,24,202,5108025,,,,,,,2023-02-08,1,,,,,サンアールアイミギ,0
2067,8200001040942,新規,0,2023-02-08,2023-02-08,株式会社ＦＥＲ　ａ　ＣＨＥＶＡＬ,,株式会社,岐阜県,瑞穂市,古橋８７３番地１,,21,216,5010322,,,,,,,2023-02-08,1,,,,,フェールアシュヴァル,0
2073,8220001025264,新規,0,2023-02-08,2023-02-08,株式会社ＣＯＭＰＡＳＵ,,株式会社,石川県,金沢市,無量寺１丁目６７番地,,17,201,9200333,,,,,,,2023-02-08,1,,,,,コンパス,0
2082,8240001061076,新規,0,2023-02-08,2023-02-08,株式会社エムスリー,,株式会社,広島県,広島市中区,八丁堀１番１５－２０１号,,34,101,7300013,,,,,,,2023-02-08,1,,,,,エムスリー,0
2088,8260001037644,新規,0,2023-02-08,2023-02-08,株式会社チームモデレーション,,株式会社,岡山県,岡山市北区,下中野７０７番地１０１アビターレ下中野６０１,,33,101,7000973,,,,,,,2023-02-08,1,,,,,チームモデレーション,0
2090,8260003004196,新規,0,2023-02-08,2023-02-08,合同会社ファインコーポレーション,,合同会社,岡山県,岡山市中区,土田１８－２,,33,102,7038217,,,,,,,2023-02-08,1,,,,,ファインコーポレーション,0
2094,8290001100449,新規,0,2023-02-08,2023-02-08,株式会社和福農園,,株式会社,福岡県,福津市,中央２丁目１７番１－１０１号,,40,224,8113217,,,,,,,2023-02-08,1,,,,,ワフクノウエン,0
2095,8290001100498,新規,0,2023-02-08,2023-02-08,株式会社りふぃーか,,株式会社,福岡県,福岡市東区,香椎浜４丁目１番６－７０２号,,40,131,8130016,,,,,,,2023-02-08,1,,,,,リフィーカ,0
2096,8290001100507,新規,0,2023-02-08,2023-02-08,株式会社Ｂｅａｒ＆Ｂｕｌｌ　Ｎｏｒｔｈ　Ａｍｅｒｉｃａ,,株式会社,福岡県,福岡市中央区,春吉２丁目１３番７－１０３号,,40,133,8100003,,,,,,,2023-02-08,1,,,,,ベアアンドブルノースアメリカ,0
2113,8360001031546,新規,0,2023-02-08,2023-02-08,株式会社ＡＦＦ,,株式会社,沖縄県,沖縄市,大里３丁目２４番８号ミルコマンション沖縄市大里セレーナ５０１号室,,47,211,9042163,,,,,,,2023-02-08,1,,,,,エフ,0
2114,8360003012692,新規,0,2023-02-08,2023-02-08,合同会社ＧＲＮ,,合同会社,沖縄県,中頭郡中城村,字伊集８１番地,,47,328,9012417,,,,,,,2023-02-08,1,,,,,ジーアールエヌ,0
2115,8360003012701,新規,0,2023-02-08,2023-02-08,ゆいまーるガス合同会社,,合同会社,沖縄県,宜野湾市,上原２丁目２１－６Ｖｅｒｉｔａ１０２,,47,205,9012204,,,,,,,2023-02-08,1,,,,,ユイマールガス,0
2121,8380001033466,新規,0,2023-02-08,2023-02-08,株式会社住安工務店,,株式会社,福島県,郡山市,富久山町久保田字太郎殿前１１０第五田代コーポ１０１,,07,203,9638071,,,,,,,2023-02-08,1,,,,,スミヤスコウムテン,0
2122,8380003005380,新規,0,2023-02-08,2023-02-08,合同会社大美組,,合同会社,福島県,伊達郡川俣町,大字羽田字宮ノ脇６４－２,,07,308,9601408,,,,,,,2023-02-08,1,,,,,オオミグミ,0
2128,8430001088348,新規,0,2023-02-08,2023-02-08,株式会社ダブルアンドエス,,株式会社,北海道,浦河郡浦河町,字西幌別３５３番地の３,,01,607,0570002,,,,,,,2023-02-08,1,,,,,ダブルアンドエス,0
2129,8430001088380,新規,0,2023-02-08,2023-02-08,株式会社フルコ,,株式会社,北海道,札幌市中央区,南十九条西１３丁目２番１５号テレパレス山鼻１９条１１１号,,01,101,0640919,,,,,,,2023-02-08,1,,,,,フルコ,0
2133,8470001019464,新規,0,2023-02-08,2023-02-08,株式会社ＧＯＯＤ　ＬＵＣＫ　ＭＯＴＯＲＳ,,株式会社,香川県,綾歌郡綾川町,陶７００４番地１,,37,387,7612103,,,,,,,2023-02-08,1,,,,,グッドラックモーターズ,0
2138,8490003001740,新規,0,2023-02-08,2023-02-08,合同会社二心,,合同会社,高知県,高知市,薊野北町２丁目１９番５－７号,,39,201,7810011,,,,,,,2023-02-08,1,,,,,ニコ,0
2151,9010001232780,新規,0,2023-02-08,2023-02-08,株式会社クオリア・リビング・ソリューションズ,,株式会社,東京都,千代田区,神田神保町１丁目１０３番地,,13,101,1010051,,,,,,,2023-02-08,1,,,,,クオリアリビングソリューションズ,0
2152,9010001232855,新規,0,2023-02-08,2023-02-08,株式会社ＮｅｗｓＰｉｃｋｓ　ｆｏｒ　Ｂｕｓｉｎｅｓｓ,,株式会社,東京都,千代田区,丸の内２丁目５番２号,,13,101,1000005,,,,,,,2023-02-08,1,,,,,ニューズピックスフォービジネス,0
2153,9010001232905,新規,0,2023-02-08,2023-02-08,株式会社イーファイトスポーツ,,株式会社,東京都,中央区,新川２丁目２７番４－１２０６号,,13,102,1040033,,,,,,,2023-02-08,1,,,,,イーファイトスポーツ,0
2156,9010003039811,新規,0,2023-02-08,2023-02-08,Ｓｕｚｕｍｅ　ＰＲ合同会社,,合同会社,東京都,中央区,日本橋浜町１丁目３‐６，２０３,,13,102,1030007,,,,,,,2023-02-08,1,,,,,スズメピーアール,0
2157,9010005036220,新規,0,2023-02-08,2023-02-08,一般社団法人ＩＦＲＳ　Ｆｏｕｎｄａｔｉｏｎアジア・オセアニア,,その他の設立登記法人,東京都,千代田区,大手町１丁目９番７号大手町フィナンシャルシティサウスタワー５階,,13,101,1000004,,,,,,,2023-02-08,1,,,,,アイエフアールエスファウンデーションアジアオセアニア,0
2158,9010005036229,新規,0,2023-02-08,2023-02-08,一般社団法人ソエルテ関東,,その他の設立登記法人,東京都,中央区,日本橋２丁目１６番３号１８山京ビル,,13,102,1030027,,,,,,,2023-02-08,1,,,,,ソエルテカントウ,0
2167,9010401172263,新規,0,2023-02-08,2023-02-08,北辰ホールディングス株式会社,,株式会社,東京都,港区,六本木３丁目２番１号,,13,103,1060032,,,,,,,2023-02-08,1,,,,,ホクシンホールディングス,0
2168,9010401172346,新規,0,2023-02-08,2023-02-08,株式会社Ｐｒｏｏｎ,,株式会社,東京都,港区,南青山２丁目２番１５号,,13,103,1070062,,,,,,,2023-02-08,1,,,,,プルーン,0
2169,9010401172379,新規,0,2023-02-08,2023-02-08,株式会社遊美人,,株式会社,東京都,港区,浜松町１丁目２１番４号,,13,103,1050013,,,,,,,2023-02-08,1,,,,,アソビジン,0
2170,9010401172395,新規,0,2023-02-08,2023-02-08,株式会社Ａｓｓｅｔ　ｍａｎａｇｅｍｅｎｔ,,株式会社,東京都,港区,六本木７丁目２１番２４号ＴＨＥＭＯＤＵＬＥｒｏｐｐｏｎｇｉ４０３号室,,13,103,1060032,,,,,,,2023-02-08,1,,,,,アセットマネジメント,0
2171,9010405021796,新規,0,2023-02-08,2023-02-08,エリスホールディングス一般社団法人,,その他の設立登記法人,東京都,港区,元赤坂１丁目１番７号,,13,103,1070051,,,,,,,2023-02-08,1,,,,,エリスホールディングス,0
2183,9010601062578,新規,0,2023-02-08,2023-02-08,株式会社メガトップジャパン江東,,株式会社,東京都,江東区,東陽１丁目２４番地８号,,13,108,1350016,,,,,,,2023-02-08,1,,,,,メガトップジャパンコウトウ,0
2186,9010703006581,新規,0,2023-02-08,2023-02-08,合同会社ＳＡＫＵＲＡＳ,,合同会社,東京都,品川区,大崎４丁目１番１７－８０１号,,13,109,1410032,,,,,,,2023-02-08,1,,,,,サクラス,0
2194,9010901052444,新規,0,2023-02-08,2023-02-08,株式会社ＡＬＩＡＴＴＩＶＩ,,株式会社,東京都,世田谷区,太子堂３丁目３６番１号,,13,112,1540004,,,,,,,2023-02-08,1,,,,,アーリアッティーヴィ,0
2197,9011003016230,新規,0,2023-02-08,2023-02-08,合同会社マイルートふくの山,,合同会社,東京都,目黒区,駒場１丁目１４番４号,,13,110,1530041,,,,,,,2023-02-08,1,,,,,マイルートフクノヤマ,0
2207,9011101101768,新規,0,2023-02-08,2023-02-08,Ｆｌａｒｅ　Ｓｔｙｌｅ株式会社,,株式会社,東京都,新宿区,西新宿３丁目３番１３号西新宿水間ビル６階,,13,104,1600023,,,,,,,2023-02-08,1,,,,,フレアスタイル,0
2208,9011103012674,新規,0,2023-02-08,2023-02-08,合同会社Ｍｏｏｎ　Ｈｏｐｅ,,合同会社,東京都,新宿区,新宿６丁目２９番１１号新宿イーストクロスタワー１０Ｆ,,13,104,1600022,,,,,,,2023-02-08,1,,,,,ムーンホープ,0
2209,9011105010544,新規,0,2023-02-08,2023-02-08,一般社団法人日本宇宙科学産業協会,,その他の設立登記法人,東京都,新宿区,神楽坂４丁目２,,13,104,1620825,,,,,,,2023-02-08,1,,,,,ニホンウチュウカガクサンギョウキョウカイ,0
2213,9011303004661,新規,0,2023-02-08,2023-02-08,合同会社ＪＯＳＫＥ,,合同会社,東京都,杉並区,本天沼２丁目４０番１２号,,13,115,1670031,,,,,,,2023-02-08,1,,,,,ジョースケ,0
2218,9011701025994,新規,0,2023-02-08,2023-02-08,株式会社ＴＨＲＥＥＳＯＭＥ,,株式会社,東京都,江戸川区,平井５丁目３４番５号,,13,123,1320035,,,,,,,2023-02-08,1,,,,,スリーサム,0
2220,9011801041891,新規,0,2023-02-08,2023-02-08,株式会社小倉商事,,株式会社,東京都,葛飾区,東金町５丁目２１番１７号,,13,122,1250041,,,,,,,2023-02-08,1,,,,,オグラショウジ,0
2222,9012301013299,新規,0,2023-02-08,2023-02-08,株式会社恭栄企画,,株式会社,東京都,町田市,図師町１２７７番地１,,13,209,1940203,,,,,,,2023-02-08,1,,,,,キョウエイキカク,0
2225,9012703002635,新規,0,2023-02-08,2023-02-08,合同会社ＡＳＳ,,合同会社,東京都,西東京市,芝久保町３丁目２４番３号,,13,229,1880014,,,,,,,2023-02-08,1,,,,,エイエスエス,0
2230,9013301050299,新規,0,2023-02-08,2023-02-08,カプリコン株式会社,,株式会社,東京都,豊島区,南長崎４丁目１１－１,,13,116,1710052,,,,,,,2023-02-08,1,,,,,カプリコン,0
2238,9020001150172,新規,0,2023-02-08,2023-02-08,２４ホームズ株式会社,,株式会社,神奈川県,横浜市保土ケ谷区,上菅田町１２８番地３,,14,106,2400051,,,,,,,2023-02-08,1,,,,,トゥエンティーフォーホームズ,0
2239,9020001150180,新規,0,2023-02-08,2023-02-08,ＳＵＧＡＲＢＩＲＤ　ＪＡＰＡＮ株式会社,,株式会社,神奈川県,横浜市西区,北幸１丁目１１番６号水信ビル７階,,14,103,2200004,,,,,,,2023-02-08,1,,,,,シュガーバードジャパン,0
2240,9020001150189,新規,0,2023-02-08,2023-02-08,株式会社知的利益,,株式会社,神奈川県,横浜市中区,野毛町２丁目７７番地１,,14,104,2310064,,,,,,,2023-02-08,1,,,,,チテキリエキ,0
2241,9020001150214,新規,0,2023-02-08,2023-02-08,株式会社近江・システム,,株式会社,神奈川県,横浜市西区,北幸２丁目１０番２８号むつみビル３Ｆ,,14,103,2200004,,,,,,,2023-02-08,1,,,,,オオミシステム,0
2247,9020003023269,新規,0,2023-02-08,2023-02-08,合同会社三方幸,,合同会社,神奈川県,横浜市青葉区,たちばな台２丁目４－１６,,14,117,2270046,,,,,,,2023-02-08,1,,,,,サンポウコウ,0
2250,9021001078148,新規,0,2023-02-08,2023-02-08,株式会社Ｍａｓａ,,株式会社,神奈川県,藤沢市,湘南台２丁目３番地５湘南台ビル３Ｆ,,14,205,2520804,,,,,,,2023-02-08,1,,,,,マサ,0
2251,9021001078156,新規,0,2023-02-08,2023-02-08,株式会社ＭＡＸＷＯＲＫ,,株式会社,神奈川県,横須賀市,日の出町１丁目８番地７,,14,201,2380006,,,,,,,2023-02-08,1,,,,,マックスワーク,0
2252,9021001078172,新規,0,2023-02-08,2023-02-08,六浦工業ホールディングス株式会社,,株式会社,神奈川県,横須賀市,内川１丁目３番２３号,,14,201,2390836,,,,,,,2023-02-08,1,,,,,ムツウラコウギョウホールディングス,0
2261,9030001152291,新規,0,2023-02-08,2023-02-08,十色屋商店株式会社,,株式会社,埼玉県,深谷市,沓掛５９番地１,,11,218,3690225,,,,,,,2023-02-08,1,,,,,トイロヤショウテン,0
2262,9030001152300,新規,0,2023-02-08,2023-02-08,株式会社オノ商事,,株式会社,埼玉県,上尾市,大字大谷本郷５５番地２５,,11,219,3620044,,,,,,,2023-02-08,1,,,,,オノショウジ,0
2265,9030003021098,新規,0,2023-02-08,2023-02-08,易成合同会社,,合同会社,埼玉県,戸田市,喜沢１丁目３２番１０号,,11,224,3350013,,,,,,,2023-02-08,1,,,,,イセイ,0
2270,9040001127012,新規,0,2023-02-08,2023-02-08,株式会社Ｅｐｏｃｈｓ,,株式会社,千葉県,千葉市中央区,富士見２丁目７番９号富士見ビル６０９号,,12,101,2600015,,,,,,,2023-02-08,1,,,,,エポックス,0
2271,9040003021881,新規,0,2023-02-08,2023-02-08,合同会社にゃんまき,,合同会社,千葉県,柏市,篠籠田６９４－１０,,12,217,2770862,,,,,,,2023-02-08,1,,,,,ニャンマキ,0
2272,9040003021898,新規,0,2023-02-08,2023-02-08,合同会社ＦＲＥＥ,,合同会社,千葉県,船橋市,北本町１丁目２番１４号,,12,204,2730864,,,,,,,2023-02-08,1,,,,,フリー,0
2281,9070001040105,新規,0,2023-02-08,2023-02-08,Ｂｒｉｇｈｔ　ｂｅａｎｓ株式会社,,株式会社,群馬県,伊勢崎市,赤堀今井町１丁目２６９番地の１０,,10,204,3792215,,,,,,,2023-02-08,1,,,,,ブライトビーンズ,0
2286,9080401026306,新規,0,2023-02-08,2023-02-08,株式会社ロージーライフ,,株式会社,静岡県,浜松市南区,安松町９０番地の１２,,22,134,4350034,,,,,,,2023-02-08,1,,,,,ロージーライフ,0
2288,9100001036132,新規,0,2023-02-08,2023-02-08,株式会社ごえん,,株式会社,長野県,千曲市,大字小島３１２９番地,,20,218,3870013,,,,,,,2023-02-08,1,,,,,ゴエン,0
2290,9110003004978,新規,0,2023-02-08,2023-02-08,合同会社ゼロ・フロンティア,,合同会社,新潟県,上越市,大字岩木３９０番地５,,15,222,9430814,,,,,,,2023-02-08,1,,,,,ゼロフロンティア,0
2297,9120001252322,新規,0,2023-02-08,2023-02-08,東琳株式会社,,株式会社,大阪府,大阪市港区,市岡元町２丁目６番１１－３０１号,,27,107,5520002,,,,,,,2023-02-08,1,,,,,トウリン,0
2298,9120001252355,新規,0,2023-02-08,2023-02-08,株式会社Ｂｌｅｉｓｕｒｅ　Ｊａｐａｎ,,株式会社,大阪府,大阪市北区,梅田１丁目２番２号大阪駅前第２ビル１２－１２,,27,127,5300001,,,,,,,2023-02-08,1,,,,,ブレジャージャパン,0
2299,9120001252388,新規,0,2023-02-08,2023-02-08,株式会社美フレクト,,株式会社,大阪府,大阪市北区,梅田２丁目５番８号千代田ビル西別館Ｄ号室,,27,127,5300001,,,,,,,2023-02-08,1,,,,,ビフレクト,0
2302,9120003023408,新規,0,2023-02-08,2023-02-08,コトラ合同会社,,合同会社,大阪府,大阪市北区,梅田１丁目２番２号大阪駅前第２ビル１２―１２,,27,127,5300001,,,,,,,2023-02-08,1,,,,,コトラ,0
2304,9120005023471,新規,0,2023-02-08,2023-02-08,一般社団法人アップサイクル,,その他の設立登記法人,大阪府,大阪市中央区,本町３丁目３－９本町岩尾ビル,,27,128,5410053,,,,,,,2023-02-08,1,,,,,アップサイクル,0
2309,9130001073619,新規,0,2023-02-08,2023-02-08,株式会社３,,株式会社,京都府,亀岡市,三宅町２８番地,,26,206,6210814,,,,,,,2023-02-08,1,,,,,サン,0
2312,9130003008507,新規,0,2023-02-08,2023-02-08,東亜第一小水力発電事業合同会社,,合同会社,京都府,長岡京市,今里５丁目１３番１１号,,26,209,6170814,,,,,,,2023-02-08,1,,,,,トウアダイイチショウスイリョクハツデンジギョウ,0
2313,9130003008523,新規,0,2023-02-08,2023-02-08,合同会社ユキヒロショップ,,合同会社,京都府,長岡京市,馬場川原１７－１８,,26,209,6170828,,,,,,,2023-02-08,1,,,,,ユキヒロショップ,0
2317,9140001129097,新規,0,2023-02-08,2023-02-08,クリエイトリアライズ株式会社,,株式会社,兵庫県,芦屋市,船戸町５番２６号,,28,206,6590093,,,,,,,2023-02-08,1,,,,,クリエイトリアライズ,0
2323,9160003002795,新規,0,2023-02-08,2023-02-08,合同会社ＧＲＢ,,合同会社,滋賀県,長浜市,朝日町３８番８号オリエンタルハイツ朝日２０２,,25,203,5260056,,,,,,,2023-02-08,1,,,,,ジーアールビー,0
2329,9180001154918,新規,0,2023-02-08,2023-02-08,株式会社Ｊ＆Ｔアグリ,,株式会社,愛知県,愛西市,宮地町前田面２０番地,,23,232,4960937,,,,,,,2023-02-08,1,,,,,ジェイアンドティーアグリ,0
2332,9180003024763,新規,0,2023-02-08,2023-02-08,合同会社Ｒｉｃｅｒｃａ,,合同会社,愛知県,名古屋市中村区,名駅４丁目２４番５号第２森ビル４０１,,23,105,4500002,,,,,,,2023-02-08,1,,,,,リチェェルカ,0
2333,9180003024805,新規,0,2023-02-08,2023-02-08,中電テレメータリング合同会社,,合同会社,愛知県,名古屋市東区,東新町１番地,,23,102,4610006,,,,,,,2023-02-08,1,,,,,チュウデンテレメータリング,0
2334,9180003024838,新規,0,2023-02-08,2023-02-08,合同会社ＧＬＯＳＳ,,合同会社,愛知県,名古屋市北区,清水５丁目５－１６,,23,103,4620844,,,,,,,2023-02-08,1,,,,,グロス,0
2355,9290001100506,新規,0,2023-02-08,2023-02-08,株式会社タナプラＴＡＮＡＫＡ　ＰＬＡＮＮＩＮＧ　ＦＵＫＵＯＫＡ,,株式会社,福岡県,福岡市東区,原田１丁目６番７－７０３号,,40,131,8120063,,,,,,,2023-02-08,1,,,,,タナプラタナカプラニングフクオカ,0
2356,9290001100514,新規,0,2023-02-08,2023-02-08,エアフォルク株式会社,,株式会社,福岡県,糟屋郡宇美町,若草１丁目３番８号,,40,341,8112124,,,,,,,2023-02-08,1,,,,,エアフォルク,0
2365,9290801029267,新規,0,2023-02-08,2023-02-08,株式会社ハピネス,,株式会社,福岡県,田川郡糸田町,３８１番地８グリーンヒルズＩＩ７０６号,00129382,40,604,8221300,,,,,,,2023-02-08,1,,,,,ハピネス,0
2366,9300001013210,新規,0,2023-02-08,2023-02-08,株式会社綜合葬祭やすらぎ,,株式会社,佐賀県,三養基郡みやき町,大字東尾３１５９番地,,41,346,8490113,,,,,,,2023-02-08,1,,,,,ソウゴウソウサイヤスラギ,0
2368,9320003004016,新規,0,2023-02-08,2023-02-08,合同会社ジョイフィット,,合同会社,大分県,大分市,けやき台１丁目８番１２号,,44,201,8797762,,,,,,,2023-02-08,1,,,,,ジョイフィット,0
2372,9330003009716,新規,0,2023-02-08,2023-02-08,合同会社エクセル,,合同会社,熊本県,熊本市中央区,花畑町１番１４号,,43,101,8600806,,,,,,,2023-02-08,1,,,,,エクセル,0
2386,9380001033465,新規,0,2023-02-08,2023-02-08,リンクエフ株式会社,,株式会社,福島県,郡山市,田村町徳定字中河原１番１ものづくりインキュベーションセンター１０号室,,07,203,9631165,,,,,,,2023-02-08,1,,,,,,0
2395,9430001088339,新規,0,2023-02-08,2023-02-08,株式会社ブライトキッズ,,株式会社,北海道,札幌市中央区,南一条西１６丁目１－３２３春野ビル３階,,01,101,0600061,,,,,,,2023-02-08,1,,,,,ブライトキッズ,0
2396,9430001088371,新規,0,2023-02-08,2023-02-08,株式会社ゴールドラッシュ,,株式会社,北海道,札幌市南区,川沿二条３丁目２番６号グローバル川沿Ｔ－１号室,,01,106,0050802,,,,,,,2023-02-08,1,,,,,ゴールドラッシュ,0
2397,9430001088396,新規,0,2023-02-08,2023-02-08,株式会社ＣＯＮＥＪＯ　ＴＨＩＲＤ,,株式会社,北海道,札幌市中央区,南五条西４丁目９番地４新世界ビル,,01,101,0640805,,,,,,,2023-02-08,1,,,,,コネホサード,0
2405,9470001019471,新規,0,2023-02-08,2023-02-08,株式会社セレクト・ワン,,株式会社,香川県,高松市,仏生山町甲２３９番地３,,37,201,7618078,,,,,,,2023-02-08,1,,,,,セレクトワン,0
2415,9490001010395,新規,0,2023-02-08,2023-02-08,株式会社ＫＡＩＹＵ,,株式会社,高知県,土佐清水市,大岐字茶屋駄馬２７７７－１２,,39,209,7870301,,,,,,,2023-02-08,1,,,,,,0
2418,9700150114223,新規,0,2023-02-08,2023-02-08,Ｈｅｒｒｅｎｋｎｅｃｈｔ　Ａｓｉａ　Ｈｅａｄｑｕａｒｔｅｒｓ　Ｐｔｅ．Ｌｔｄ．,,外国会社等,神奈川県,横浜市中区,桜木町１丁目１番地７ヒューリックみなとみらい１０階,,14,104,2310062,シンガポール共和国、（３３９２１３）カラン・プレイス３０Ａ、＃１３－０８,,,,,,2023-02-08,1,,,,,ヘレンクネヒトアジアヘツドクオーターズ,0
