sequenceNumber,corporateNumber,process,correct,updateDate,changeDate,name,nameImageId,kind,prefectureName,cityName,streetNumber,addressImageId,prefectureCode,cityCode,postCode,addressOutside,addressOutsideImageId,closeDate,closeCause,successorCorporateNumber,changeCause,assignmentDate,latest,enName,enPrefectureName,enCityName,enAddressOutside,furigana,hihyoji
1,1010001139307,登記記録の閉鎖等,0,2025-07-24,2025-07-03,株式会社ルコネサンス,,株式会社,千葉県,浦安市,高洲４丁目３番１－８２９号プラウド新浦安,,12,227,2790023,,,2025-07-03,清算の結了等,,,2015-10-05,1,,,,,ルコネサンス,0
6,1010001248537,登記記録の閉鎖等,0,2025-07-24,2025-06-27,菲菲株式会社,,株式会社,東京都,千代田区,神田神保町２丁目３４－１－２１６,,13,101,1010051,,,2025-06-27,清算の結了等,,,2024-09-27,1,,,,,ヒヒ,0
37,1010601060440,登記記録の閉鎖等,0,2025-07-24,2025-06-24,鈴銀株式会社,,株式会社,東京都,港区,虎ノ門３丁目１８番６号朝日虎ノ門マンション６１４号室,,13,103,1050001,,,2025-06-24,清算の結了等,,,2021-12-27,1,,,,,スズギン,0
40,1010702002894,登記記録の閉鎖等,0,2025-07-24,2025-07-14,有限会社光元社,,有限会社,東京都,品川区,南品川５丁目１０番１３号,,13,109,1400004,,,2025-07-14,清算の結了等,,,2015-10-05,1,,,,,コウゲンシャ,0
79,1011705000737,登記記録の閉鎖等,0,2025-07-24,2025-07-10,医療法人社団昇英会,,その他の設立登記法人,東京都,江戸川区,松島２丁目３０番１号１階,,13,123,1320031,,,2025-07-10,清算の結了等,,,2015-10-05,1,,,,,ショウエイカイ,0
86,1012302004065,登記記録の閉鎖等,0,2025-07-24,2025-07-16,有限会社ブレーメン,,有限会社,東京都,町田市,三輪緑山４丁目１６番地２９,,13,209,1950055,,,2025-07-16,清算の結了等,,,2015-10-05,1,,,,,ブレーメン,0
88,1012305001869,登記記録の閉鎖等,0,2025-07-24,2025-07-17,特定非営利活動法人町田みらい創造研究所,,その他の設立登記法人,東京都,町田市,木曽東３丁目１２番１４号,,13,209,1940036,,,2025-07-17,清算の結了等,,,2019-03-04,1,,,,,マチダミライソウゾウケンキュウジョ,0
112,1040002015082,登記記録の閉鎖等,0,2025-07-24,2025-07-03,有限会社エイシン,,有限会社,千葉県,千葉市若葉区,原町８２８番地５,,12,104,2640034,,,2025-07-03,清算の結了等,,,2015-10-05,1,,,,,エイシン,0
118,1050001024868,登記記録の閉鎖等,0,2025-07-24,2025-07-08,株式会社松本薬研堂薬局,,株式会社,茨城県,北茨城市,磯原町磯原１丁目２１２番地,,08,215,3191541,,,2025-07-08,清算の結了等,,,2015-10-05,1,,,,,マツモトヤッケンドウヤッキョク,0
123,1080001003539,登記記録の閉鎖等,0,2025-07-24,2025-07-11,東海菱友株式会社,,株式会社,静岡県,静岡市駿河区,向敷地５丁目１番１２号,,22,102,4210101,,,2025-07-11,清算の結了等,,,2015-10-05,1,,,,,トウカイリョウユウ,0
148,1120103000834,登記記録の閉鎖等,0,2025-07-24,2025-07-08,合同会社くすの樹,,合同会社,大阪府,堺市北区,百舌鳥本町１丁６７番地１０メゾンパークス百舌鳥１０２号室,,27,146,5918036,,,2025-07-08,清算の結了等,,,2015-10-05,1,,,,,クスノキ,0
154,1120905005790,登記記録の閉鎖等,0,2025-07-24,2025-07-08,ＮＰＯ法人囲碁タス,,その他の設立登記法人,大阪府,豊中市,北桜塚４丁目５番５－４０４号,,27,203,5600022,,,2025-07-08,清算の結了等,,,2018-10-16,1,,,,,イゴタス,0
155,1122002004412,登記記録の閉鎖等,0,2025-07-24,2025-07-04,有限会社ボーノ染色,,有限会社,大阪府,東大阪市,稲田新町２丁目３６番２６号,,27,227,5770004,,,2025-07-04,清算の結了等,,,2015-10-05,1,,,,,ボーノセンショク,0
187,1180301023739,登記記録の閉鎖等,0,2025-07-24,2025-07-10,株式会社おふくろ,,株式会社,愛知県,西尾市,下町鳥居前１８番地６,,23,213,4450891,,,2025-07-10,清算の結了等,,,2015-10-05,1,,,,,オフクロ,0
190,1190002018211,登記記録の閉鎖等,0,2025-07-24,2025-07-09,有限会社建忠商店,,有限会社,三重県,いなべ市,藤原町東禅寺９８７番地の２,,24,214,5110515,,,2025-07-09,清算の結了等,,,2015-10-05,1,,,,,タテチュウショウテン,0
199,1210002009075,登記記録の閉鎖等,0,2025-07-24,2025-07-15,有限会社ジェイスタイル,,有限会社,福井県,福井市,木下町第６号１番地の２９,,18,201,9103147,,,2025-07-15,清算の結了等,,,2015-10-05,1,,,,,ジェイスタイル,0
230,1300005002761,登記記録の閉鎖等,0,2025-07-24,2025-07-22,下無津呂生産森林組合,,その他の設立登記法人,佐賀県,佐賀市,富士町大字下無津呂５６５番地,,41,201,8400535,,,2025-07-22,清算の結了等,,,2015-10-05,1,,,,,シモムツロセイサン,0
232,1320002001863,登記記録の閉鎖等,0,2025-07-24,2025-07-11,有限会社樫村グループ,,有限会社,大分県,大分市,大字奥田２１２番地の９,,44,201,8700100,,,2025-07-11,清算の結了等,,,2015-10-05,1,,,,,,0
236,1340002017734,登記記録の閉鎖等,0,2025-07-24,2025-07-07,株式会社ライフサポート,,株式会社,鹿児島県,いちき串木野市,東塩田町１番地,,46,219,8960006,,,2025-07-07,清算の結了等,,,2015-10-05,1,,,,,ライフサポート,0
237,1340002021026,登記記録の閉鎖等,0,2025-07-24,2025-06-30,有限会社武商店,,有限会社,鹿児島県,奄美市,名瀬真名津町３番２１号,,46,222,8940015,,,2025-06-30,清算の結了等,,,2015-10-05,1,,,,,タケショウテン,0
245,1370201002633,登記記録の閉鎖等,0,2025-07-24,2025-07-02,株式会社ブリーズ,,株式会社,宮城県,大崎市,古川穂波２丁目１７番６号,,04,215,9896136,,,2025-07-02,清算の結了等,,,2015-10-05,1,,,,,ブリーズ,0
274,2010001102247,登記記録の閉鎖等,0,2025-07-24,2025-06-25,株式会社ＣＮＳ,,株式会社,東京都,渋谷区,初台１丁目４７番４号,,13,113,1510061,,,2025-06-25,清算の結了等,,,2015-10-05,1,,,,,シーエヌエス,0
284,2010001224603,登記記録の閉鎖等,0,2025-07-24,2025-06-30,株式会社ジョブスグ,,株式会社,東京都,千代田区,外神田２丁目５番１２号,,13,101,1010021,,,2025-06-30,清算の結了等,,,2022-02-15,1,,,,,ジョブスグ,0
291,2010003023359,登記記録の閉鎖等,0,2025-07-24,2025-07-14,ＫＭＣ合同会社,,合同会社,神奈川県,横浜市西区,北幸２丁目１０番２８号むつみビル３Ｆ,,14,103,2200004,,,2025-07-14,清算の結了等,,,2016-04-12,1,,,,,ケーエムシー,0
314,2010703003057,登記記録の閉鎖等,0,2025-07-24,2025-07-22,合同会社Ｆｉｒｓｔ　Ｓｔｅｐ,,合同会社,東京都,渋谷区,神宮前６丁目２３番４号桑野ビル２階,,13,113,1500001,,,2025-07-22,合併による解散等,4010003023415,令和７年７月７日東京都中央区銀座一丁目１５番７号ＭＡＣ銀座ビル３階合同会社Ｆｏｒ　ｔｈｅ　Ｆｕｔｕｒｅ（4010003023415）に合併し解散,2016-03-23,1,,,,,ファーストステップ,0
381,2040001133264,登記記録の閉鎖等,0,2025-07-24,2025-07-01,株式会社Ｂｏｔｈ　Ａｒｍｓ,,株式会社,千葉県,柏市,若柴２２７番地６柏の葉キャンパス１４７街区Ｃ－２００８号,,12,217,2770871,,,2025-07-01,清算の結了等,,,2024-04-22,1,,,,,ボースアームズ,0
401,2080101006283,登記記録の閉鎖等,0,2025-07-24,2025-07-17,三島ビジネスホテル株式会社,,株式会社,静岡県,三島市,寿町９番１７号,,22,206,4110039,,,2025-07-17,清算の結了等,,,2015-10-05,1,,,,,ミシマビジネスホテル,0
403,2080102002182,登記記録の閉鎖等,0,2025-07-24,2025-07-16,有限会社大和土地建物,,有限会社,静岡県,沼津市,下香貫浜田２９８２番地の１,,22,203,4100822,,,2025-07-16,清算の結了等,,,2015-10-05,1,,,,,ダイワトチタテモノ,0
404,2080102015267,登記記録の閉鎖等,0,2025-07-24,2025-07-14,有限会社八州鳶秋山組,,有限会社,静岡県,富士市,久沢８５０番地の２,,22,210,4190202,,,2025-07-14,清算の結了等,,,2015-10-05,1,,,,,ヤシマトビアキヤマグミ,0
415,2120003019214,登記記録の閉鎖等,0,2025-07-24,2025-07-07,合同会社ｍｙライン,,合同会社,大阪府,大阪市福島区,吉野３丁目２６番１５の１４０３号,,27,103,5530006,,,2025-07-07,清算の結了等,,,2021-04-12,1,,,,,,0
426,2120901002650,登記記録の閉鎖等,0,2025-07-24,2025-07-07,共栄機材株式会社,,株式会社,大阪府,大阪市住吉区,長峡町５番９号,,27,120,5580044,,,2025-07-07,清算の結了等,,,2015-10-05,1,,,,,キョウエイキザイ,0
434,2130002002285,登記記録の閉鎖等,0,2025-07-24,2025-07-07,有限会社クーシン,,有限会社,京都府,京都市左京区,一乗寺染殿町４０番地チサンマンション１階,,26,103,6068174,,,2025-07-07,清算の結了等,,,2015-10-05,1,,,,,クーシン,0
437,2130002020972,登記記録の閉鎖等,0,2025-07-24,2025-07-09,有限会社アロー,,有限会社,京都府,京都市山科区,音羽前出町２９番地の１ファインフラッツ山科音羽４０６,,26,110,6078079,,,2025-07-09,清算の結了等,,,2015-10-05,1,,,,,アロー,0
442,2140001043461,登記記録の閉鎖等,0,2025-07-24,2025-07-22,株式会社バンレン,,株式会社,兵庫県,加古川市,志方町上冨木５１番地,,28,210,6750314,,,2025-07-22,合併による解散等,2480001006632,令和７年７月１日徳島県板野郡北島町中村字前須１９番地１樫野石灰工業株式会社（2480001006632）に合併し解散,2015-10-05,1,,,,,バンレン,0
465,2200002002609,登記記録の閉鎖等,0,2025-07-24,2025-07-11,有限会社早田飯店,,有限会社,岐阜県,岐阜市,早田栄町３丁目３８番地,,21,201,5020847,,,2025-07-11,清算の結了等,,,2015-10-05,1,,,,,ソウデンハンテン,0
468,2230005009078,登記記録の閉鎖等,0,2025-07-24,2025-07-09,一般社団法人とやま接合技術推進協会,,その他の設立登記法人,富山県,高岡市,本丸町１３番６号本丸ビル３階Ｃ号室,,16,202,9330045,,,2025-07-09,清算の結了等,,,2020-05-15,1,,,,,トヤマセツゴウギジュツスイシンキョウカイ,0
476,2240005011553,登記記録の閉鎖等,0,2025-07-24,2025-07-10,医療法人岸医院,,その他の設立登記法人,広島県,世羅郡世羅町,大字小国４５１３番地の１,,34,462,7221701,,,2025-07-10,清算の結了等,,,2015-10-05,1,,,,,キシイイン,0
477,2240005012080,登記記録の閉鎖等,0,2025-07-24,2025-07-10,医療法人社団宮本クリニック,,その他の設立登記法人,広島県,三原市,下北方２丁目２９番１５号,,34,204,7290414,,,2025-07-10,清算の結了等,,,2015-10-05,1,,,,,ミヤモトクリニック,0
480,2260001020762,登記記録の閉鎖等,0,2025-07-24,2025-07-14,作州機工株式会社,,株式会社,岡山県,美作市,楢原下１０９番地の１,,33,215,7070024,,,2025-07-14,清算の結了等,,,2015-10-05,1,,,,,サクシュウキコウ,0
490,2290001097939,登記記録の閉鎖等,0,2025-07-24,2025-07-01,株式会社ＡｓＯｎｅ,,株式会社,福岡県,福岡市早良区,原７丁目１１番８号,,40,137,8140022,,,2025-07-01,清算の結了等,,,2022-06-16,1,,,,,アズワン,0
496,2320002001854,登記記録の閉鎖等,0,2025-07-24,2025-07-10,有限会社春日保険センター,,有限会社,大分県,大分市,南春日町７番７号７０６号室,,44,201,8700815,,,2025-07-10,清算の結了等,,,2015-10-05,1,,,,,カスガホケンセンター,0
500,2360001007097,登記記録の閉鎖等,0,2025-07-24,2025-07-02,株式会社アイアット沖縄,,株式会社,沖縄県,島尻郡南風原町,字照屋９２番地,,47,350,9011116,,,2025-07-02,合併による解散等,5360001027398,令和７年７月１日沖縄県島尻郡南風原町字照屋９２番地株式会社アイアット（5360001027398）に合併し解散,2015-10-05,1,,,,,アイアットオキナワ,0
504,2360002016403,登記記録の閉鎖等,0,2025-07-24,2025-07-01,株式会社てだこ,,株式会社,沖縄県,浦添市,当山２丁目５番６号,,47,208,9012104,,,2025-07-01,合併による解散等,4360001013738,令和７年７月１日沖縄県宮古島市平良字西里１１０７番地７住宅情報センター株式会社（4360001013738）に合併し解散,2015-10-05,1,,,,,テダコ,0
509,2370002000991,登記記録の閉鎖等,0,2025-07-24,2025-07-04,有限会社庄司建設,,有限会社,宮城県,仙台市泉区,福岡字松場７番地,,04,105,9813225,,,2025-07-04,清算の結了等,,,2015-10-05,1,,,,,ショウジケンセツ,0
516,2390001014520,登記記録の閉鎖等,0,2025-07-24,2025-07-22,株式会社ニホフ,,株式会社,神奈川県,逗子市,小坪２丁目２１番２号,,14,208,2490008,,,2025-07-22,清算の結了等,,,2016-06-06,1,,,,,ニホフ,0
519,2400003000797,登記記録の閉鎖等,0,2025-07-24,2025-07-22,合同会社あすなろ薬局,,合同会社,岩手県,宮古市,保久田３番９号,,03,202,0270074,,,2025-07-22,合併による解散等,7370201000573,令和７年７月１日宮城県大崎市古川駅南一丁目９番地株式会社医薬品情報センター（7370201000573）に合併し解散,2015-10-05,1,,,,,,0
531,2480002015608,登記記録の閉鎖等,0,2025-07-24,2025-07-16,有限会社西部経営管理センター,,有限会社,徳島県,三好郡東みよし町,加茂１８０７番地１５,,36,489,7794701,,,2025-07-16,清算の結了等,,,2015-10-05,1,,,,,セイブケイエイカンリ,0
533,2500001021538,登記記録の閉鎖等,0,2025-07-24,2025-07-11,株式会社ｉＸｉＯ,,株式会社,愛媛県,松山市,久米窪田町３３７－１テクノプラザ愛媛,,38,201,7911101,,,2025-07-11,清算の結了等,,,2018-08-23,1,,,,,イクシオ,0
545,3010002019365,登記記録の閉鎖等,0,2025-07-24,2025-07-01,有限会社クラブ麻衣子,,有限会社,東京都,中央区,銀座６丁目４番１７号,,13,102,1040061,,,2025-07-01,合併による解散等,2010001037591,令和７年７月１日東京都中央区銀座六丁目４番１７号株式会社ウイズ・リアルエステート（2010001037591）に合併し解散,2015-10-05,1,,,,,クラブマイコ,0
565,3010802008427,登記記録の閉鎖等,0,2025-07-24,2025-07-14,有限会社太申印刷,,有限会社,東京都,大田区,仲池上２丁目２８番６号,,13,111,1460081,,,2025-07-14,清算の結了等,,,2015-10-05,1,,,,,,0
572,3010902010547,登記記録の閉鎖等,0,2025-07-24,2025-07-14,有限会社東光鈑金工業所,,有限会社,東京都,世田谷区,等々力４丁目２番１４号,,13,112,1580082,,,2025-07-14,清算の結了等,,,2015-10-05,1,,,,,トウコウバンキンコウギョウショ,0
577,3011001147388,登記記録の閉鎖等,0,2025-07-24,2025-07-18,株式会社ダウ九萬,,株式会社,東京都,渋谷区,恵比寿南２丁目２３番７号,,13,113,1500022,,,2025-07-18,清算の結了等,,,2022-05-11,1,,,,,ダウキュウマン,0
592,3011801019027,登記記録の閉鎖等,0,2025-07-24,2025-07-16,株式会社ハヤシキカイ,,株式会社,東京都,足立区,六月１丁目１０番１６号,,13,121,1210814,,,2025-07-16,清算の結了等,,,2015-10-05,1,,,,,ハヤシキカイ,0
606,3013402006305,登記記録の閉鎖等,0,2025-07-24,2025-07-07,有限会社エムズ・ホーム,,有限会社,東京都,日野市,新井３丁目１０番地の１９,,13,212,1910022,,,2025-07-07,清算の結了等,,,2015-10-05,1,,,,,エムズホーム,0
638,3040002004802,登記記録の閉鎖等,0,2025-07-24,2025-07-03,有限会社サクマ電気,,有限会社,千葉県,千葉市稲毛区,稲毛東２丁目１６番３７号,,12,103,2630031,,,2025-07-03,清算の結了等,,,2015-10-05,1,,,,,サクマデンキ,0
647,3070001028907,登記記録の閉鎖等,0,2025-07-24,2025-07-10,株式会社Ｇライン,,株式会社,群馬県,高崎市,倉賀野町４６７７番地１,,10,202,3701201,,,2025-07-10,清算の結了等,,,2015-10-05,1,,,,,ジーライン,0
652,3080101011209,登記記録の閉鎖等,0,2025-07-24,2025-07-16,株式会社ＡＮ商事,,株式会社,静岡県,富士宮市,根原４４９番地の１,,22,207,4180101,,,2025-07-16,清算の結了等,,,2015-10-05,1,,,,,エイエヌショウジ,0
653,3080101012479,登記記録の閉鎖等,0,2025-07-24,2025-07-18,株式会社エスコート,,株式会社,静岡県,沼津市,下香貫木ノ宮８７４番地の２,,22,203,4100822,,,2025-07-18,清算の結了等,,,2015-10-05,1,,,,,エスコート,0
686,3140001060860,登記記録の閉鎖等,0,2025-07-24,2025-07-14,株式会社はりまテント製作所,,株式会社,兵庫県,姫路市,東夢前台３丁目１１４番地,,28,201,6700064,,,2025-07-14,清算の結了等,,,2015-10-05,1,,,,,ハリマテントセイサクショ,0
699,3180001027369,登記記録の閉鎖等,0,2025-07-24,2025-07-02,株式会社名進,,株式会社,愛知県,名古屋市西区,枇杷島３丁目２６番１１号,,23,104,4510053,,,2025-07-02,合併による解散等,3180002059907,令和７年６月２０日名古屋市西区枇杷島三丁目２６番１１号株式会社ＺＵＣＣＯＴＴＯ（3180002059907）に合併し解散,2015-10-05,1,,,,,メイシン,0
709,3190001019893,登記記録の閉鎖等,0,2025-07-24,2025-07-09,株式会社エヌビー,,株式会社,三重県,桑名市,長島町又木８５番地３７,,24,205,5111126,,,2025-07-09,清算の結了等,,,2015-10-05,1,,,,,エヌビー,0
713,3200002013365,登記記録の閉鎖等,0,2025-07-24,2025-07-11,有限会社安八新聞店,,有限会社,岐阜県,安八郡安八町,氷取１１６番地,,21,383,5030121,,,2025-07-11,清算の結了等,,,2015-10-05,1,,,,,アンパチシンブンテン,0
727,3240002041008,登記記録の閉鎖等,0,2025-07-24,2025-07-11,有限会社シーフーズ・ウイッシュ,,有限会社,広島県,福山市,引野町４丁目５０番４１号,,34,207,7210942,,,2025-07-11,合併による解散等,4240001032758,令和７年７月１日広島県福山市引野町一丁目１番１号株式会社福山中央水産（4240001032758）に合併し解散,2015-10-05,1,,,,,シーフーズウィッシュ,0
731,3250002005275,登記記録の閉鎖等,0,2025-07-24,2025-07-16,有限会社東冷設備工業,,有限会社,山口県,宇部市,恩田町１丁目２番２号,,35,202,7550023,,,2025-07-16,清算の結了等,,,2015-10-05,1,,,,,トウレイセツビコウギョウ,0
742,3290802009876,登記記録の閉鎖等,0,2025-07-24,2025-07-23,有限会社文化社,,有限会社,福岡県,北九州市門司区,原町別院４番５号,,40,101,8000037,,,2025-07-23,清算の結了等,,,2015-10-05,1,,,,,ブンカシャ,0
760,3400002007925,登記記録の閉鎖等,0,2025-07-24,2025-07-01,有限会社アクセス,,有限会社,岩手県,花巻市,下幅１０番１号,,03,205,0250068,,,2025-07-01,清算の結了等,,,2015-10-05,1,,,,,アクセス,0
767,3470001013604,登記記録の閉鎖等,0,2025-07-24,2025-07-15,株式会社生駒相続・事業承継研究所,,株式会社,香川県,高松市,亀井町４番地２,,37,201,7600050,,,2025-07-15,合併による解散等,2470001005916,令和７年７月１５日香川県高松市亀井町４番地２株式会社生駒経営（2470001005916）に合併し解散,2015-10-05,1,,,,,イコマソウゾクジギョウショウケイケンキュウショ,0
768,3470001016243,登記記録の閉鎖等,0,2025-07-24,2025-07-15,株式会社生駒保険サービスシステム,,株式会社,香川県,高松市,亀井町４番地２,,37,201,7600050,,,2025-07-15,合併による解散等,2470001005916,令和７年７月１５日香川県高松市亀井町４番地２株式会社生駒経営（2470001005916）に合併し解散,2017-04-17,1,,,,,イコマホケンサービスシステム,0
773,3500002007213,登記記録の閉鎖等,0,2025-07-24,2025-07-10,有限会社ゆめの野,,有限会社,愛媛県,松山市,竹原４丁目１０番１７号,,38,201,7900053,,,2025-07-10,清算の結了等,,,2015-10-05,1,,,,,ユメノノ,0
791,4010601038376,登記記録の閉鎖等,0,2025-07-24,2025-07-08,株式会社ビートゥーシー,,株式会社,東京都,江東区,北砂５丁目２０番１８－１０１５号,,13,108,1360073,,,2025-07-08,清算の結了等,,,2015-10-05,1,,,,,ビートゥーシー,0
798,4010702000078,登記記録の閉鎖等,0,2025-07-24,2025-07-11,有限会社アイント,,有限会社,東京都,品川区,二葉４丁目２０番５号,,13,109,1420043,,,2025-07-11,清算の結了等,,,2015-10-05,1,,,,,アイント,0
818,4011105009780,登記記録の閉鎖等,0,2025-07-24,2025-06-27,一般社団法人日本木造分譲住宅協会,,その他の設立登記法人,東京都,新宿区,西新宿１丁目２５番１号,,13,104,1600023,,,2025-06-27,清算の結了等,,,2021-04-20,1,,,,,ニホンモクゾウブンジョウジュウタクキョウカイ,0
846,4040001018372,登記記録の閉鎖等,0,2025-07-24,2025-07-04,日通船橋運輸株式会社,,株式会社,千葉県,船橋市,栄町２丁目１番１号,,12,204,2730018,,,2025-07-04,清算の結了等,,,2015-10-05,1,,,,,ニッツウフナバシウンユ,0
852,4050001013793,登記記録の閉鎖等,0,2025-07-24,2025-06-30,イーステージ株式会社,,株式会社,茨城県,下妻市,本宗道９８７番地の７,,08,210,3040813,,,2025-06-30,清算の結了等,,,2015-10-05,1,,,,,イーステージ,0
863,4080402000462,登記記録の閉鎖等,0,2025-07-24,2025-07-15,有限会社アド・ワイズ,,有限会社,静岡県,浜松市中央区,早出町１２０３番地の３,,22,138,4350054,,,2025-07-15,清算の結了等,,,2015-10-05,1,,,,,アドワイズ,0
877,4120001049509,登記記録の閉鎖等,0,2025-07-24,2025-07-11,株式会社近畿興産,,株式会社,大阪府,大阪市北区,末広町３番１１号,,27,127,5300053,,,2025-07-11,清算の結了等,,,2015-10-05,1,,,,,キンキコウサン,0
878,4120001142924,登記記録の閉鎖等,0,2025-07-24,2025-07-07,株式会社ＪＮＴ,,株式会社,大阪府,大阪市阿倍野区,昭和町１丁目２１番１８号,,27,119,5450011,,,2025-07-07,清算の結了等,,,2015-10-05,1,,,,,ジェイエヌティ,0
900,4140001106225,登記記録の閉鎖等,0,2025-07-24,2025-07-15,株式会社アルン,,株式会社,兵庫県,神戸市長田区,西山町４丁目１６番１３号,,28,106,6530862,,,2025-07-15,清算の結了等,,,2017-05-19,1,,,,,アルン,0
904,4140003018534,登記記録の閉鎖等,0,2025-07-24,2025-07-15,合同会社ＴＵＧＵＭＩ　ｆｏｏｄ　ｓｔｕｄｉｏ,,合同会社,兵庫県,宝塚市,清荒神３丁目２番１６号,,28,214,6650836,,,2025-07-15,清算の結了等,,,2023-01-18,1,,,,,ツグミフードスタジオ,0
911,4170005002021,登記記録の閉鎖等,0,2025-07-24,2025-07-18,医療法人アイサイト,,その他の設立登記法人,和歌山県,海南市,名高５３１番地の３,,30,202,6420032,,,2025-07-18,清算の結了等,,,2015-10-05,1,,,,,アイサイト,0
919,4190002000942,登記記録の閉鎖等,0,2025-07-24,2025-07-09,有限会社ダルマヤ薬品,,有限会社,三重県,津市,中央８番２７号,,24,201,5140032,,,2025-07-09,清算の結了等,,,2015-10-05,1,,,,,,0
923,4200002008802,登記記録の閉鎖等,0,2025-07-24,2025-07-14,有限会社エムエスシー,,有限会社,岐阜県,羽島郡笠松町,北及１８０番地,,21,303,5016064,,,2025-07-14,清算の結了等,,,2015-10-05,1,,,,,エムエスシー,0
926,4200005012603,登記記録の閉鎖等,0,2025-07-24,2025-07-15,ＮＣＣ協同組合,,その他の設立登記法人,岐阜県,羽島郡岐南町,平成２丁目８０番地,,21,302,5016013,,,2025-07-15,清算の結了等,,,2017-01-24,1,,,,,エヌシーシー,0
931,4240001031842,登記記録の閉鎖等,0,2025-07-24,2025-07-15,株式会社ヒロシゲ,,株式会社,広島県,福山市,南手城町４丁目１５番２３号,,34,207,7210963,,,2025-07-15,清算の結了等,,,2015-10-05,1,,,,,ヒロシゲ,0
937,4250002018813,登記記録の閉鎖等,0,2025-07-24,2025-07-16,有限会社米本建築設計事務所,,有限会社,山口県,岩国市,川下町１丁目７番３５号,,35,208,7400023,,,2025-07-16,清算の結了等,,,2015-10-05,1,,,,,ヨネモトケンチクセッケイジムショ,0
938,4260001017922,登記記録の閉鎖等,0,2025-07-24,2025-07-14,株式会社渡辺定温運輸,,株式会社,岡山県,笠岡市,入江１５４番地の１,,33,205,7140041,,,2025-07-14,清算の結了等,,,2015-10-05,1,,,,,,0
961,4340002006370,登記記録の閉鎖等,0,2025-07-24,2025-07-07,有限会社ティー・エヌ・ケイ・エンタープライズ,,有限会社,鹿児島県,鹿児島市,上竜尾町４１番６号,,46,201,8920851,,,2025-07-07,清算の結了等,,,2015-10-05,1,,,,,ティーエヌケイエンタープライズ,0
977,4400002011629,登記記録の閉鎖等,0,2025-07-24,2025-07-01,有限会社サンランド技術,,有限会社,岩手県,北上市,相去町荒屋敷１５６番地３,,03,206,0240051,,,2025-07-01,清算の結了等,,,2015-10-05,1,,,,,サンランドギジュツ,0
987,4440002009982,登記記録の閉鎖等,0,2025-07-24,2025-07-22,有限会社スーパーあおなえ,,有限会社,北海道,奥尻郡奥尻町,字青苗２４２番地,,01,367,0431521,,,2025-07-22,清算の結了等,,,2015-10-05,1,,,,,スーパーアオナエ,0
992,4480001003875,登記記録の閉鎖等,0,2025-07-24,2025-07-15,ＪＡ医療サービス株式会社,,株式会社,徳島県,徳島市,北佐古一番町５番１２号,,36,201,7700011,,,2025-07-15,清算の結了等,,,2015-10-05,1,,,,,ゼイエイイリョウサービス,0
1004,5010002012194,登記記録の閉鎖等,0,2025-07-24,2025-06-30,有限会社貴千代,,有限会社,東京都,千代田区,神田猿楽町２丁目５番２号,,13,101,1010064,,,2025-06-30,清算の結了等,,,2015-10-05,1,,,,,タカチヨ,0
1016,5010402006358,登記記録の閉鎖等,0,2025-07-24,2025-06-23,有限会社篠原エンタープライズ,,有限会社,東京都,港区,六本木５丁目１３番２８－４０５号,,13,103,1060032,,,2025-06-23,合併による解散等,2010401171172,令和７年６月１日東京都港区六本木五丁目１３番２８－４０５号株式会社ＮＳＣ（2010401171172）に合併し解散,2015-10-05,1,,,,,シノハラエンタープライズ,0
1029,5011002035615,登記記録の閉鎖等,0,2025-07-24,2025-06-25,有限会社モビレ,,有限会社,東京都,渋谷区,初台１丁目５０番４号１３０７,,13,113,1510061,,,2025-06-25,清算の結了等,,,2015-10-05,1,,,,,モビレ,0
1083,5040005006686,登記記録の閉鎖等,0,2025-07-24,2025-06-30,医療法人社団鋭友会,,その他の設立登記法人,千葉県,成田市,並木町字野沢台１４３番地９７,,12,211,2860045,,,2025-06-30,清算の結了等,,,2015-10-05,1,,,,,エイユウカイ,0
1084,5050002015516,登記記録の閉鎖等,0,2025-07-24,2025-07-08,有限会社高橋商事,00022822,有限会社,茨城県,石岡市,行里川１９番１３号,,08,205,3150022,,,2025-07-08,清算の結了等,,,2015-10-05,1,,,,,タカハシショウジ,0
1090,5060002007272,登記記録の閉鎖等,0,2025-07-24,2025-07-10,有限会社橋本金雄商店,,有限会社,栃木県,宇都宮市,駒生町１４０６番地２１,,09,201,3200065,,,2025-07-10,清算の結了等,,,2015-10-05,1,,,,,ハシモトカネオショウテン,0
1093,5070003004706,登記記録の閉鎖等,0,2025-07-24,2025-07-02,合同会社Ｄａｙｓ　ｗｉｔｈｏｕｔ　ｓｕｆｆｅｒｉｎｇ,,合同会社,群馬県,沼田市,屋形原町５４３,,10,206,3780022,,,2025-07-02,清算の結了等,,,2022-11-16,1,,,,,デイズサウトサッフェリング,0
1100,5090002010934,登記記録の閉鎖等,0,2025-07-24,2025-07-14,有限会社八幡運輸,,有限会社,山梨県,山梨市,南１０１０番地１,,19,205,4050042,,,2025-07-14,清算の結了等,,,2015-10-05,1,,,,,ヤハタウンユ,0
1139,5140001025399,登記記録の閉鎖等,0,2025-07-24,2025-07-09,株式会社ゴールドビュー,,株式会社,兵庫県,神戸市垂水区,松風台２丁目１番２－９０７号,,28,108,6550871,,,2025-07-09,清算の結了等,,,2015-10-05,1,,,,,ゴールドビュー,0
1144,5140002052186,登記記録の閉鎖等,0,2025-07-24,2025-07-15,有限会社ホウメイ,,有限会社,兵庫県,姫路市,城見町６３,,28,201,6700831,,,2025-07-15,清算の結了等,,,2015-10-05,1,,,,,ホウメイ,0
1145,5180001031088,登記記録の閉鎖等,0,2025-07-24,2025-07-02,ダイシヨー化成株式会社,,株式会社,愛知県,名古屋市中村区,日ノ宮町２丁目２６番地,,23,105,4530823,,,2025-07-02,合併による解散等,8180001031003,令和７年７月２日名古屋市中村区日ノ宮町二丁目２６番地大昌産業株式会社（8180001031003）に合併し解散,2015-10-05,1,,,,,ダイシヨーカセイ,0
1165,5240001052482,登記記録の閉鎖等,0,2025-07-24,2025-07-11,ブルーオーシャンホールディングス株式会社,,株式会社,広島県,福山市,引野町１丁目１番１号,,34,207,7210942,,,2025-07-11,合併による解散等,4240001032758,令和７年７月１日広島県福山市引野町一丁目１番１号株式会社福山中央水産（4240001032758）に合併し解散,2018-03-06,1,,,,,ブルーオーシャンホールディングス,0
1170,5240005010008,登記記録の閉鎖等,0,2025-07-24,2025-07-11,特定非営利活動法人千年の里,,その他の設立登記法人,広島県,福山市,沼隈町大字草深１８９１番地の６沼隈内海商工会内,,34,207,7200311,,,2025-07-11,清算の結了等,,,2015-10-05,1,,,,,チトセノサト,0
1172,5250002019620,登記記録の閉鎖等,0,2025-07-24,2025-07-15,有限会社エバーグリーン,,有限会社,山口県,柳井市,新庄３００番地２２,,35,212,7420033,,,2025-07-15,清算の結了等,,,2015-10-05,1,,,,,エバーグリーン,0
1205,5380002000377,登記記録の閉鎖等,0,2025-07-24,2025-07-22,有限会社いずみ調剤,,有限会社,福島県,福島市,泉字弐斗蒔３５番地の２,,07,201,9608253,,,2025-07-22,合併による解散等,7370201000573,令和７年７月１日宮城県大崎市古川駅南一丁目９番地株式会社医薬品情報センター（7370201000573）に合併し解散,2015-10-05,1,,,,,イズミチョウザイ,0
1206,5390001015763,登記記録の閉鎖等,0,2025-07-24,2025-07-09,株式会社ジャムズインテリア,,株式会社,山形県,山形市,流通センター３丁目７番地３,,06,201,9900071,,,2025-07-09,清算の結了等,,,2019-07-09,1,,,,,ジャムズインテリア,0
1221,5430002039261,登記記録の閉鎖等,0,2025-07-24,2025-07-04,有限会社堂源,,有限会社,北海道,石狩市,花川北三条６丁目５５番地,,01,235,0613213,,,2025-07-04,清算の結了等,,,2015-10-05,1,,,,,ドウゲン,0
1222,5430003009222,登記記録の閉鎖等,0,2025-07-24,2025-07-04,合同会社ツナグマチいわみざわ,,合同会社,北海道,岩見沢市,四条西２丁目８番地５の５,,01,210,0680024,,,2025-07-04,清算の結了等,,,2018-03-29,1,,,,,ツナグマチイワミザワ,0
1227,5470001000261,登記記録の閉鎖等,0,2025-07-24,2025-07-15,株式会社アイ・エス・ケイ,,株式会社,香川県,高松市,亀井町４番地２,,37,201,7600050,,,2025-07-15,合併による解散等,2470001005916,令和７年７月１５日香川県高松市亀井町４番地２株式会社生駒経営（2470001005916）に合併し解散,2015-10-05,1,,,,,アイエスケイ,0
1231,5480002004509,登記記録の閉鎖等,0,2025-07-24,2025-07-15,有限会社真鍋会計事務センター,,有限会社,徳島県,徳島市,上八万町西山１１６４番地,,36,201,7708041,,,2025-07-15,清算の結了等,,,2015-10-05,1,,,,,マナベカイケイジムセンター,0
1247,6010005025143,登記記録の閉鎖等,0,2025-07-24,2025-07-07,一般社団法人サステナブルプロパティ,,その他の設立登記法人,東京都,中央区,日本橋１丁目４番１号,,13,102,1030027,,,2025-07-07,清算の結了等,,,2016-03-24,1,,,,,サステナブルプロパティ,0
1278,6011102025093,登記記録の閉鎖等,0,2025-07-24,2025-06-27,有限会社谷垣システム研究所,,有限会社,東京都,新宿区,南榎町５４番地５０２号,,13,104,1620852,,,2025-06-27,清算の結了等,,,2015-10-05,1,,,,,,0
1284,6011602010834,登記記録の閉鎖等,0,2025-07-24,2025-07-08,有限会社リエゾンプラス,,有限会社,東京都,練馬区,早宮３丁目１５番８号,,13,120,1790085,,,2025-07-08,清算の結了等,,,2015-10-05,1,,,,,リエゾンプラス,0
1309,6021002066823,登記記録の閉鎖等,0,2025-07-24,2025-07-07,有限会社マート須田,,有限会社,神奈川県,横須賀市,平作５丁目２９番６号,,14,201,2380032,,,2025-07-07,清算の結了等,,,2015-10-05,1,,,,,マートスダ,0
1327,6040002002712,登記記録の閉鎖等,0,2025-07-24,2025-07-02,有限会社環境クリーンサービス,,有限会社,千葉県,千葉市若葉区,御殿町２２４５番地１８,,12,104,2650074,,,2025-07-02,清算の結了等,,,2015-10-05,1,,,,,カンキョウクリーンサービス,0
1346,6110002013834,登記記録の閉鎖等,0,2025-07-24,2025-07-02,有限会社星酒店,,有限会社,新潟県,五泉市,宮町６番２号,,15,218,9591872,,,2025-07-02,清算の結了等,,,2015-10-05,1,,,,,ホシサケテン,0
1381,6170001000159,登記記録の閉鎖等,0,2025-07-24,2025-06-30,株式会社Ｂ,,株式会社,大阪府,大阪市中央区,北浜２丁目３番９号,,27,128,5410041,,,2025-06-30,清算の結了等,,,2015-10-05,1,,,,,ビー,0
1393,6180002071801,登記記録の閉鎖等,0,2025-07-24,2025-07-03,有限会社サンホーム,,有限会社,愛知県,瀬戸市,はぎの台４丁目７番地,,23,204,4890905,,,2025-07-03,清算の結了等,,,2015-10-05,1,,,,,サンホーム,0
1402,6190002017051,登記記録の閉鎖等,0,2025-07-24,2025-07-08,有限会社フォー・ユー,,有限会社,三重県,桑名市,筒尾３丁目１４番地の７,,24,205,5110901,,,2025-07-08,清算の結了等,,,2015-10-05,1,,,,,フォーユー,0
1413,6250001016790,登記記録の閉鎖等,0,2025-07-24,2025-07-16,株式会社ＣＨＯＵ－ＣＨＯＵ,,株式会社,山口県,下関市,長府日の出町６番１７号,,35,201,7520951,,,2025-07-16,清算の結了等,,,2017-09-12,1,,,,,シュシュ,0
1416,6290001083365,登記記録の閉鎖等,0,2025-07-24,2025-07-01,株式会社メディアランス,,株式会社,福岡県,福岡市博多区,博多駅前４丁目２５番１３号１階,,40,132,8120011,,,2025-07-01,合併による解散等,6010001172022,令和７年７月１日福岡市東区名子三丁目１７番１６号株式会社ＭＡＹＯＴＡＳ（6010001172022）に合併し解散,2018-11-16,1,,,,,メディアランス,0
1429,6320005004479,登記記録の閉鎖等,0,2025-07-24,2025-07-10,医療法人慈元会,,その他の設立登記法人,大分県,速見郡日出町,大字豊岡６７９番地１,,44,341,8791507,,,2025-07-10,清算の結了等,,,2015-10-05,1,,,,,ジゲンカイ,0
1441,6360002008644,登記記録の閉鎖等,0,2025-07-24,2025-07-03,有限会社アイゼン介護サービス,,有限会社,沖縄県,豊見城市,字長堂３４７番地の５,,47,212,9010203,,,2025-07-03,清算の結了等,,,2015-10-05,1,,,,,アイゼンカイゴサービス,0
1462,6480002014127,登記記録の閉鎖等,0,2025-07-24,2025-07-16,有限会社尾上水産,,有限会社,徳島県,海部郡牟岐町,大字牟岐浦字宮ノ本１９４番地の２,,36,383,7750012,,,2025-07-16,清算の結了等,,,2015-10-05,1,,,,,オノウエスイサン,0
1464,7010001025518,登記記録の閉鎖等,0,2025-07-24,2025-06-27,日通神田中央運輸株式会社,,株式会社,東京都,千代田区,外神田４丁目１２番１０号,,13,101,1010021,,,2025-06-27,清算の結了等,,,2015-10-05,1,,,,,ニッツウカンダチュウオウウンユ,0
1472,7010003032421,登記記録の閉鎖等,0,2025-07-24,2025-06-27,合同会社ａｒｔ　ｔｉｍｅｓ,,合同会社,東京都,文京区,目白台２丁目１６番地８,,13,105,1120015,,,2025-06-27,清算の結了等,,,2020-06-19,1,,,,,アートタイムズ,0
1473,7010003045019,登記記録の閉鎖等,0,2025-07-24,2025-06-27,合同会社幹光文化,,合同会社,東京都,中央区,銀座１丁目２２番１１号銀座大竹ビジデンス２Ｆ,,13,102,1040061,,,2025-06-27,清算の結了等,,,2024-09-30,1,,,,,カンコウブンカ,0
1492,7010403021511,登記記録の閉鎖等,0,2025-07-24,2025-07-01,合同会社藤井,,合同会社,東京都,港区,高輪３丁目１０番１８－１０２号,,13,103,1080074,,,2025-07-01,合併による解散等,4010403022454,令和７年７月１日東京都港区高輪三丁目１０番１８－１０２号合同会社スプリング（4010403022454）に合併し解散,2019-09-26,1,,,,,フジイ,0
1495,7010701020891,登記記録の閉鎖等,0,2025-07-24,2025-07-14,株式会社オートインフォス,,株式会社,東京都,渋谷区,渋谷１丁目１５番２１号,,13,113,1500002,,,2025-07-14,合併による解散等,6011101022645,令和７年５月３１日東京都渋谷区神南一丁目６番５号リックス株式会社（6011101022645）に合併し解散,2015-10-05,1,,,,,オートインフォス,0
1507,7011001071097,登記記録の閉鎖等,0,2025-07-24,2025-06-25,人事部サービス株式会社,,株式会社,東京都,渋谷区,代々木１丁目４番８－６０４号,,13,113,1510053,,,2025-06-25,清算の結了等,,,2015-10-05,1,,,,,ジンジブサービス,0
1511,7011001161261,登記記録の閉鎖等,0,2025-07-24,2025-06-23,株式会社くぼみ,,株式会社,東京都,渋谷区,初台１丁目３９番１２号富士ハイライズ２０７,,13,113,1510061,,,2025-06-23,清算の結了等,,,2024-04-11,1,,,,,クボミ,0
1512,7011101093066,登記記録の閉鎖等,0,2025-07-24,2025-07-07,株式会社ＨＲＦ,,株式会社,東京都,新宿区,西新宿５丁目８番１号,,13,104,1600023,,,2025-07-07,清算の結了等,,,2020-11-09,1,,,,,エイチアールエフ,0
1516,7011202004335,登記記録の閉鎖等,0,2025-07-24,2025-07-18,寅次郎商事有限会社,,有限会社,東京都,中野区,弥生町３丁目２８番５－４０２号,,13,114,1640013,,,2025-07-18,清算の結了等,,,2015-10-05,1,,,,,,0
1521,7011701017317,登記記録の閉鎖等,0,2025-07-24,2025-07-14,株式会社プレオン,,株式会社,東京都,江戸川区,船堀６丁目９番７－９０１号,,13,123,1340091,,,2025-07-14,清算の結了等,,,2015-10-05,1,,,,,プレオン,0
1524,7011801034740,登記記録の閉鎖等,0,2025-07-24,2025-07-18,株式会社ヤマヨ,,株式会社,東京都,葛飾区,細田４丁目１１番２０号,,13,122,1240021,,,2025-07-18,清算の結了等,,,2018-05-21,1,,,,,ヤマヨ,0
1526,7012301000935,登記記録の閉鎖等,0,2025-07-24,2025-07-11,株式会社サントロン,,株式会社,東京都,町田市,野津田町１２番地,,13,209,1950063,,,2025-07-11,清算の結了等,,,2015-10-05,1,,,,,サントロン,0
1595,7120003013889,登記記録の閉鎖等,0,2025-07-24,2025-07-11,合同会社繊維革新技術研究所,,合同会社,大阪府,大阪市北区,茶屋町８番２１－７０３号,,27,127,5300013,,,2025-07-11,清算の結了等,,,2018-02-07,1,,,,,センイカクシンギジュツケンキュウジョ,0
1602,7120101058316,登記記録の閉鎖等,0,2025-07-24,2025-07-14,株式会社ホームセット,,株式会社,大阪府,堺市堺区,新町３番７号ＳＴＣビル,,27,141,5900079,,,2025-07-14,清算の結了等,,,2018-06-12,1,,,,,ホームセット,0
1621,7140002036261,登記記録の閉鎖等,0,2025-07-24,2025-07-15,有限会社直井ゼミナール,,有限会社,兵庫県,加古川市,神野町石守５７５番地の９１,,28,210,6750005,,,2025-07-15,清算の結了等,,,2015-10-05,1,,,,,ナオイゼミナール,0
1638,7190002021639,登記記録の閉鎖等,0,2025-07-24,2025-07-09,有限会社ビジネス旅館まつい,,有限会社,三重県,四日市市,御薗町２丁目７０番地,,24,202,5100862,,,2025-07-09,清算の結了等,,,2015-10-05,1,,,,,ビジネスリョカンマツイ,0
1651,7240002053107,登記記録の閉鎖等,0,2025-07-24,2025-07-15,有限会社グランドピッチ,,有限会社,広島県,三原市,長谷５丁目６番１６号,,34,204,7230132,,,2025-07-15,清算の結了等,,,2015-10-05,1,,,,,グランドピッチ,0
1653,7240005008314,登記記録の閉鎖等,0,2025-07-24,2025-07-10,十二神社,,その他の設立登記法人,広島県,福山市,千田町大字薮路甲１０５番地の１５,,34,207,7200017,,,2025-07-10,清算の結了等,,,2015-10-05,1,,,,,ジュウニジンジャ,0
1654,7250002003688,登記記録の閉鎖等,0,2025-07-24,2025-07-15,有限会社矢野産業,,有限会社,山口県,防府市,大字牟礼７７７番地,,35,206,7470004,,,2025-07-15,清算の結了等,,,2015-10-05,1,,,,,ヤノサンギョウ,0
1668,7290002035307,登記記録の閉鎖等,0,2025-07-24,2025-07-18,有限会社トモロー企画,,有限会社,福岡県,宗像市,陵厳寺２丁目２９番１号,,40,220,8114145,,,2025-07-18,合併による解散等,5330002027169,令和７年７月１日熊本県八代市古閑下町２２２５番地株式会社ラポール．（5330002027169）に合併し解散,2015-10-05,1,,,,,,0
1693,7370005003541,登記記録の閉鎖等,0,2025-07-24,2025-06-30,一般社団法人ＲｅＲｏｏｔｓ,,その他の設立登記法人,宮城県,仙台市若林区,荒浜字今泉５９番３号,,04,103,9840033,,,2025-06-30,清算の結了等,,,2015-10-05,1,,,,,リルーツ,0
1700,7390005002723,登記記録の閉鎖等,0,2025-07-24,2025-07-09,特定非営利活動法人エッセンシャルケアセンター,,その他の設立登記法人,山形県,天童市,東長岡３丁目６番３号,,06,210,9940063,,,2025-07-09,清算の結了等,,,2015-10-05,1,,,,,エッセンシャルケアセンター,0
1708,7490003001221,登記記録の閉鎖等,0,2025-07-24,2025-07-18,合同会社ベスト,,合同会社,高知県,須崎市,大間本町４番１号,,39,206,7850034,,,2025-07-18,清算の結了等,,,2018-04-24,1,,,,,ベスト,0
1711,7500005003651,登記記録の閉鎖等,0,2025-07-24,2025-07-14,医療法人坪内整形外科,,その他の設立登記法人,愛媛県,八幡浜市,保内町川之石１番耕地４３番地１,,38,204,7960201,,,2025-07-14,清算の結了等,,,2015-10-05,1,,,,,ツボウチセイケイゲカ,0
1716,8010001248167,登記記録の閉鎖等,0,2025-07-24,2025-06-27,株式会社レッドプロダクション,,株式会社,東京都,千代田区,神田和泉町１番地６－１６ヤマトビル４０５,,13,101,1010024,,,2025-06-27,清算の結了等,,,2024-09-09,1,,,,,レッドプロダクション,0
1736,8010701026509,登記記録の閉鎖等,0,2025-07-24,2025-07-14,株式会社自然食ニュース社,,株式会社,東京都,品川区,上大崎３丁目４番１－２０１号,,13,109,1410021,,,2025-07-14,清算の結了等,,,2015-10-05,1,,,,,,0
1741,8010703006153,登記記録の閉鎖等,0,2025-07-24,2025-07-14,Ｔｅｓｈｉｇｏｔｏ合同会社,,合同会社,東京都,品川区,西五反田４丁目３１番１８号,,13,109,1410031,,,2025-07-14,清算の結了等,,,2022-03-17,1,,,,,テシゴト,0
1744,8010801022309,登記記録の閉鎖等,0,2025-07-24,2025-07-14,株式会社祷,,株式会社,東京都,大田区,南雪谷４丁目１番１１号,,13,111,1450066,,,2025-07-14,清算の結了等,,,2015-10-05,1,,,,,イノリ,0
1747,8010902024815,登記記録の閉鎖等,0,2025-07-24,2025-07-22,有限会社ワイ・ワイ・ユートピア,,有限会社,東京都,世田谷区,瀬田４丁目３４番４号,,13,112,1580095,,,2025-07-22,清算の結了等,,,2015-10-05,1,,,,,,0
1748,8011001008098,登記記録の閉鎖等,0,2025-07-24,2025-06-27,コスモシステム株式会社,,株式会社,東京都,新宿区,大久保２丁目２９番６号大祥ビル,,13,104,1690072,,,2025-06-27,清算の結了等,,,2015-10-05,1,,,,,コスモシステム,0
1754,8011201003089,登記記録の閉鎖等,0,2025-07-24,2025-07-18,株式会社大丸屋,,株式会社,東京都,中野区,大和町３丁目３２番４号,,13,114,1650034,,,2025-07-18,清算の結了等,,,2015-10-05,1,,,,,ダイマルヤ,0
1769,8020001144324,登記記録の閉鎖等,0,2025-07-24,2025-07-07,株式会社Ｋ－ＦＲＥＥ,,株式会社,神奈川県,横浜市泉区,岡津町２２５６番地レモンバーム２Ｇ号室,,14,116,2450003,,,2025-07-07,清算の結了等,,,2021-12-15,1,,,,,ケーフリー,0
1803,8070002023092,登記記録の閉鎖等,0,2025-07-24,2025-07-08,有限会社鹿の川,,有限会社,群馬県,みどり市,笠懸町鹿４８００番地７,,10,212,3792313,,,2025-07-08,清算の結了等,,,2015-10-05,1,,,,,カノカワ,0
1815,8110001014939,登記記録の閉鎖等,0,2025-07-24,2025-07-01,三条日通運輸株式会社,,株式会社,新潟県,三条市,猪子場新田１０７２番地,,15,204,9591151,,,2025-07-01,清算の結了等,,,2015-10-05,1,,,,,サンジョウニッツウウンユ,0
1817,8110003004104,登記記録の閉鎖等,0,2025-07-24,2025-07-02,合同会社ＤＥＬＴＡ,,合同会社,新潟県,南魚沼市,美佐島１９０５－１,,15,226,9496608,,,2025-07-02,清算の結了等,,,2020-01-30,1,,,,,デルタ,0
1851,8140002007757,登記記録の閉鎖等,0,2025-07-24,2025-07-11,ファイバーテック有限会社,,有限会社,兵庫県,神戸市須磨区,北落合４丁目５番２６号,,28,107,6540151,,,2025-07-11,清算の結了等,,,2015-10-05,1,,,,,ファイバーテック,0
1862,8180001071825,登記記録の閉鎖等,0,2025-07-24,2025-07-02,株式会社エムエスティ,,株式会社,愛知県,名古屋市港区,油屋町２丁目２１番地,,23,111,4550815,,,2025-07-02,清算の結了等,,,2015-10-05,1,,,,,エムエスティ,0
1863,8180001126505,登記記録の閉鎖等,0,2025-07-24,2025-07-18,アキタロジ株式会社,,株式会社,新潟県,新潟市北区,太郎代６５３番地５９,,15,101,9503101,,,2025-07-18,合併による解散等,2180001085137,令和７年７月１日名古屋市中村区平池町四丁目６０番地の１２グローバルゲート１０Ｆアキタ株式会社（2180001085137）に合併し解散,2017-02-13,1,,,,,アキタロジ,0
1868,8180005015910,登記記録の閉鎖等,0,2025-07-24,2025-07-07,一般社団法人しもん協会,,その他の設立登記法人,愛知県,名古屋市西区,枇杷島５丁目３番１３号,,23,104,4510053,,,2025-07-07,清算の結了等,,,2015-10-05,1,,,,,シモンキョウカイ,0
1883,8240002011492,登記記録の閉鎖等,0,2025-07-24,2025-07-14,有限会社トラウト,,有限会社,広島県,広島市安佐北区,可部５丁目９番７号,,34,106,7310221,,,2025-07-14,清算の結了等,,,2015-10-05,1,,,,,トラウト,0
1885,8250001009405,登記記録の閉鎖等,0,2025-07-24,2025-07-15,伊藤機械産業株式会社,,株式会社,山口県,下松市,美里町４丁目５番１号,,35,207,7440073,,,2025-07-15,清算の結了等,,,2015-10-05,1,,,,,イトウキカイサンギョウ,0
1886,8250001018496,登記記録の閉鎖等,0,2025-07-24,2025-07-15,高森板金工業株式会社,00120985,株式会社,山口県,防府市,大字仁井令７７２番地の９,,35,206,7470845,,,2025-07-15,清算の結了等,,,2020-10-08,1,,,,,タカモリバンキンコウギョウ,0
1914,8370105001114,登記記録の閉鎖等,0,2025-07-24,2025-07-03,角田市下高倉生産森林組合,,その他の設立登記法人,宮城県,角田市,高倉字梅ケ崎１４番地,,04,208,9811516,,,2025-07-03,清算の結了等,,,2015-10-05,1,,,,,カクダシシモタカクラ,0
1927,8500001020823,登記記録の閉鎖等,0,2025-07-24,2025-07-10,電力用地サービス株式会社,,株式会社,愛媛県,大洲市,東大洲１３５番地２,,38,207,7950064,,,2025-07-10,清算の結了等,,,2017-08-16,1,,,,,デンリョクヨウチサービス,0
1931,9010001007761,登記記録の閉鎖等,0,2025-07-24,2025-07-14,株式会社ＭＦＣメディカル,,株式会社,東京都,文京区,本郷３丁目１２番７号協立印刷ビル１階,,13,105,1130033,,,2025-07-14,合併による解散等,6010001000190,令和７年７月１日東京都文京区本郷二丁目１５番１３号株式会社アイビジョン（6010001000190）に合併し解散,2015-10-05,1,,,,,エムエフシーメディカル,0
1934,9010001031068,登記記録の閉鎖等,0,2025-07-24,2025-06-30,株式会社山屋,,株式会社,東京都,千代田区,神田神保町３丁目１７番地３６,,13,101,1010051,,,2025-06-30,清算の結了等,,,2015-10-05,1,,,,,ヤマヤ,0
1939,9010001118022,登記記録の閉鎖等,0,2025-07-24,2025-07-16,株式会社マリーナホッププロパティ,,株式会社,広島県,広島市中区,大手町５丁目３番１２号,,34,101,7300051,,,2025-07-16,清算の結了等,,,2015-10-05,1,,,,,マリーナホッププロパティ,0
1942,9010001213954,登記記録の閉鎖等,0,2025-07-24,2025-07-15,株式会社ホープ,,株式会社,東京都,千代田区,岩本町１丁目３番１号,,13,101,1010032,,,2025-07-15,清算の結了等,,,2020-11-30,1,,,,,ホープ,0
1943,9010001227938,登記記録の閉鎖等,0,2025-07-24,2025-06-30,テックス・フーズ株式会社,,株式会社,東京都,千代田区,神田和泉町１番１－１６,,13,101,1010024,,,2025-06-30,清算の結了等,,,2022-07-08,1,,,,,テックスフーズ,0
1944,9010001252655,登記記録の閉鎖等,0,2025-07-24,2025-07-17,ＡＣＡメディケイション株式会社,,株式会社,東京都,千代田区,平河町２丁目１６番９号永田町グラスゲート６階ＡＣＡ株式会社内,,13,101,1020093,,,2025-07-17,合併による解散等,7370201000573,令和７年７月１日宮城県大崎市古川駅南一丁目９番地株式会社医薬品情報センター（7370201000573）に合併し解散,2025-03-04,1,,,,,エーシーエーメディケイション,0
1957,9010401147174,登記記録の閉鎖等,0,2025-07-24,2025-06-30,株式会社ビューティフルホープ,,株式会社,東京都,千代田区,平河町２丁目３番１０号,,13,101,1020093,,,2025-06-30,清算の結了等,,,2019-08-02,1,,,,,ビューティフルホープ,0
1974,9010702001567,登記記録の閉鎖等,0,2025-07-24,2025-07-14,オーエス不動産有限会社,,有限会社,東京都,品川区,平塚３丁目３番２３号,,13,109,1420051,,,2025-07-14,清算の結了等,,,2015-10-05,1,,,,,,0
1976,9010805003114,登記記録の閉鎖等,0,2025-07-24,2025-07-14,一般社団法人といろ会,,その他の設立登記法人,東京都,大田区,蒲田５丁目２４番４号,,13,111,1440052,,,2025-07-14,清算の結了等,,,2024-06-24,1,,,,,トイロカイ,0
1987,9011402000867,登記記録の閉鎖等,0,2025-07-24,2025-07-22,有限会社イシダ電気,,有限会社,東京都,板橋区,赤塚新町１丁目２１番９号,00065889,13,119,1750093,,,2025-07-22,清算の結了等,,,2015-10-05,1,,,,,イシダデンキ,0
2023,9030003019349,登記記録の閉鎖等,0,2025-07-24,2025-07-10,合同会社ピース,,合同会社,埼玉県,越谷市,大字船渡１８９８番地,,11,222,3430003,,,2025-07-10,清算の結了等,,,2022-05-11,1,,,,,ピース,0
2024,9040001061616,登記記録の閉鎖等,0,2025-07-24,2025-07-03,株式会社飯島三蔵商店,,株式会社,千葉県,旭市,ロの８９６番地の１,,12,215,2892516,,,2025-07-03,清算の結了等,,,2015-10-05,1,,,,,イイジマサンゾウショウテン,0
2029,9040002064023,登記記録の閉鎖等,0,2025-07-24,2025-07-01,有限会社ニーズ,,有限会社,千葉県,佐倉市,臼井４３７番地２,,12,212,2850863,,,2025-07-01,清算の結了等,,,2015-10-05,1,,,,,ニーズ,0
2030,9040002082322,登記記録の閉鎖等,0,2025-07-24,2025-07-03,有限会社倖徳産業,,有限会社,千葉県,茂原市,緑ケ丘２丁目５番３号,,12,210,2970065,,,2025-07-03,清算の結了等,,,2015-10-05,1,,,,,コウトクサンギョウ,0
2058,9120001186727,登記記録の閉鎖等,0,2025-07-24,2025-07-07,ＪＯＩＮＵＳ株式会社,,株式会社,大阪府,大阪市城東区,鴫野東３丁目２１番１１号,,27,118,5360013,,,2025-07-07,清算の結了等,,,2015-10-05,1,,,,,ジョイナス,0
2070,9120002023631,登記記録の閉鎖等,0,2025-07-24,2025-07-11,株式会社キンキ・コーポレーション,,株式会社,大阪府,大阪市淀川区,塚本２丁目２２番１４号,,27,123,5320026,,,2025-07-11,清算の結了等,,,2015-10-05,1,,,,,キンキコーポレーション,0
2085,9140003013241,登記記録の閉鎖等,0,2025-07-24,2025-07-15,合同会社宮崎ソーラー,,合同会社,兵庫県,尼崎市,猪名寺１丁目３８番１６号,,28,202,6610981,,,2025-07-15,清算の結了等,,,2018-08-15,1,,,,,ミヤザキソーラー,0
2100,9180003023088,登記記録の閉鎖等,0,2025-07-24,2025-07-03,合同会社かいごの窓口,,合同会社,愛知県,一宮市,南印田２丁目２番３２号,,23,203,4910881,,,2025-07-03,清算の結了等,,,2021-10-19,1,,,,,カイゴノマドグチ,0
2103,9180301002009,登記記録の閉鎖等,0,2025-07-24,2025-07-08,三河舗装建設株式会社,,株式会社,愛知県,額田郡幸田町,大字横落字長根７７番地１,,23,501,4440114,,,2025-07-08,清算の結了等,,,2015-10-05,1,,,,,ミカワホソウケンセツ,0
2105,9180303002659,登記記録の閉鎖等,0,2025-07-24,2025-07-04,合同会社フォーテック豊田,,合同会社,愛知県,豊田市,伊保町向山６６番地１６,,23,211,4700374,,,2025-07-04,清算の結了等,,,2015-10-05,1,,,,,フォーテックトヨタ,0
2107,9190002013163,登記記録の閉鎖等,0,2025-07-24,2025-07-09,有限会社マルチメディア研究所,,有限会社,三重県,名張市,富貴ケ丘６番町２番地,,24,208,5180419,,,2025-07-09,清算の結了等,,,2015-10-05,1,,,,,,0
2108,9190005008557,登記記録の閉鎖等,0,2025-07-24,2025-07-07,特定非営利活動法人スタイルワイナリー,,その他の設立登記法人,三重県,伊賀市,鍛冶屋６１２番地の２,,24,216,5181143,,,2025-07-07,清算の結了等,,,2015-10-05,1,,,,,スタイルワイナリー,0
2110,9200001036452,登記記録の閉鎖等,0,2025-07-24,2025-07-14,株式会社ポイントブランク,,株式会社,岐阜県,岐阜市,江崎南２７番２５号,,21,201,5010122,,,2025-07-14,清算の結了等,,,2019-07-10,1,,,,,ポイントブランク,0
2117,9240001006708,登記記録の閉鎖等,0,2025-07-24,2025-07-16,株式会社ユーキ,,株式会社,広島県,広島市南区,大須賀町１４番１６号,,34,103,7320821,,,2025-07-16,清算の結了等,,,2015-10-05,1,,,,,ユーキ,0
2155,9360001005301,登記記録の閉鎖等,0,2025-07-24,2025-07-04,沖縄丸仲株式会社,,株式会社,沖縄県,島尻郡南風原町,字神里５４３番地５,,47,350,9011114,,,2025-07-04,清算の結了等,,,2015-10-05,1,,,,,オキナワマルナカ,0
2159,9360002011091,登記記録の閉鎖等,0,2025-07-24,2025-07-04,有限会社オリジン物産,,有限会社,沖縄県,南城市,佐敷字手登根６６８番地の６,,47,215,9011402,,,2025-07-04,清算の結了等,,,2015-10-05,1,,,,,オリジンブッサン,0
2163,9370202004794,登記記録の閉鎖等,0,2025-07-24,2025-07-03,有限会社熊谷建設,,有限会社,宮城県,栗原市,一迫北沢野山１５番地の２,,04,213,9872304,,,2025-07-03,清算の結了等,,,2015-10-05,1,,,,,クマガイケンセツ,0
2164,9370301002385,登記記録の閉鎖等,0,2025-07-24,2025-07-23,株式会社ホームプラン,,株式会社,宮城県,石巻市,清水町１丁目９番８－９号,,04,202,9860871,,,2025-07-23,清算の結了等,,,2015-10-05,1,,,,,ホームプラン,0
2177,9470001014431,登記記録の閉鎖等,0,2025-07-24,2025-07-15,株式会社生駒事業再生プロジェクト,,株式会社,香川県,高松市,亀井町４番地２岡内第２ビル５階,,37,201,7600050,,,2025-07-15,合併による解散等,2470001005916,令和７年７月１５日香川県高松市亀井町４番地２株式会社生駒経営（2470001005916）に合併し解散,2015-10-05,1,,,,,イコマジギョウサイセイプロジェクト,0
