sequenceNumber,corporateNumber,process,correct,updateDate,changeDate,name,nameImageId,kind,prefectureName,cityName,streetNumber,addressImageId,prefectureCode,cityCode,postCode,addressOutside,addressOutsideImageId,closeDate,closeCause,successorCorporateNumber,changeCause,assignmentDate,latest,enName,enPrefectureName,enCityName,enAddressOutside,furigana,hihyoji
9,1010001221626,新規,0,2021-10-08,2021-10-08,株式会社ＵＭＷ,,株式会社,東京都,千代田区,内神田３丁目１７番１０号,,13,101,1010047,,,,,,,2021-10-08,1,,,,,ユーエムダブリュー,0
10,1010001221634,新規,0,2021-10-08,2021-10-08,ＡｕｔｏＭａｇｉｃ株式会社,,株式会社,東京都,千代田区,平河町１丁目６番１５号ＵＳビル８Ｆ,,13,101,1020093,,,,,,,2021-10-08,1,,,,,オートマジック,0
11,1010001221642,新規,0,2021-10-08,2021-10-08,ＭｅｔａＴｅｃｈ株式会社,,株式会社,東京都,千代田区,麹町４丁目５番地２１紀尾井町ＰＲＥＸ１０階,,13,101,1020083,,,,,,,2021-10-08,1,,,,,メタテック,0
24,1010401163039,新規,0,2021-10-08,2021-10-08,ＡＮＤＢ株式会社,,株式会社,東京都,港区,南青山１丁目１５番９号,,13,103,1070062,,,,,,,2021-10-08,1,,,,,アンドビー,0
25,1010401163063,新規,0,2021-10-08,2021-10-08,Ｃｈｅｃｋ　Ｉｎｎ株式会社,,株式会社,東京都,港区,六本木４丁目２－４５高會堂ビル２階,,13,103,1060032,,,,,,,2021-10-08,1,,,,,チェックイン,0
26,1010401163071,新規,0,2021-10-08,2021-10-08,株式会社Ｎｅａｕｔｙ,,株式会社,東京都,港区,赤坂４丁目１５番１号,,13,103,1070052,,,,,,,2021-10-08,1,,,,,ニューティー,0
27,1010401163113,新規,0,2021-10-08,2021-10-08,株式会社グリーンライフ,,株式会社,東京都,港区,浜松町２丁目２番１５号,,13,103,1050013,,,,,,,2021-10-08,1,,,,,グリーンライフ,0
28,1010401163162,新規,0,2021-10-08,2021-10-08,株式会社花工房ＭＩＹＡＫＯ,,株式会社,東京都,港区,芝３丁目１５番９号,,13,103,1050014,,,,,,,2021-10-08,1,,,,,ハナコウボウミヤコ,0
30,1010403026268,新規,0,2021-10-08,2021-10-08,ａｃｕ合同会社,,合同会社,東京都,港区,白金３丁目９番１６号マロン白金３Ａ,,13,103,1080072,,,,,,,2021-10-08,1,,,,,エーシーユー,0
31,1010403026284,新規,0,2021-10-08,2021-10-08,初台プロパティ１合同会社,,合同会社,東京都,港区,六本木１丁目６番１号泉ガーデンタワー,,13,103,1060032,,,,,,,2021-10-08,1,,,,,ハツダイプロパティワン,0
33,1010405020293,新規,0,2021-10-08,2021-10-08,初台プロパティ一般社団法人,,その他の設立登記法人,東京都,港区,六本木１丁目６番１号泉ガーデンタワー,,13,103,1060032,,,,,,,2021-10-08,1,,,,,ハツダイプロパティ,0
43,1010903006851,新規,0,2021-10-08,2021-10-08,合同会社ＳＡＳＡＫＩ,,合同会社,東京都,世田谷区,成城１丁目３０番１６号,,13,112,1570066,,,,,,,2021-10-08,1,,,,,ササキ,0
48,1011001143141,新規,0,2021-10-08,2021-10-08,株式会社ＵＬＴＲＡ　ＧＯＡＬ,,株式会社,東京都,渋谷区,恵比寿西１丁目３２番１６号,,13,113,1500021,,,,,,,2021-10-08,1,,,,,ウルトラゴール,0
51,1011003013482,新規,0,2021-10-08,2021-10-08,合同会社オレンジボックス,,合同会社,東京都,渋谷区,神宮前６丁目２３－４桑野ビル２Ｆ,,13,113,1500001,,,,,,,2021-10-08,1,,,,,オレンジボックス,0
52,1011003013508,新規,0,2021-10-08,2021-10-08,合同会社サンタハウスの庭,,合同会社,東京都,目黒区,下目黒６丁目２０番２４号,,13,110,1530064,,,,,,,2021-10-08,1,,,,,サンタハウスノニワ,0
61,1011103011072,新規,0,2021-10-08,2021-10-08,合同会社ＹＯＳＨＩＧＯ,,合同会社,東京都,新宿区,歌舞伎町２丁目４１番８号植木ビル５０２,,13,104,1600021,,,,,,,2021-10-08,1,,,,,ヨシゴ,0
73,1011401023728,新規,0,2021-10-08,2021-10-08,株式会社Ｎｅｂｌｉｎａ,,株式会社,東京都,板橋区,中台３丁目４番８号,,13,119,1740064,,,,,,,2021-10-08,1,,,,,ネブリナ,0
74,1011401023736,新規,0,2021-10-08,2021-10-08,株式会社ＴＥＸ,,株式会社,東京都,板橋区,南常盤台１丁目１１－６レフア南常盤台１０１,,13,119,1740072,,,,,,,2021-10-08,1,,,,,テックス,0
75,1011401023744,新規,0,2021-10-08,2021-10-08,株式会社Ｒｉｆｉｘ,,株式会社,東京都,板橋区,板橋１丁目６番５号３０２,,13,119,1730004,,,,,,,2021-10-08,1,,,,,リィフィックス,0
79,1011703002966,新規,0,2021-10-08,2021-10-08,Ｈａｐｐｉｅ　Ｈｅａｒｔｓ合同会社,,合同会社,東京都,江戸川区,船堀６丁目２番１５号,,13,123,1340091,,,,,,,2021-10-08,1,,,,,ハッピーハーツ,0
81,1012301012738,新規,0,2021-10-08,2021-10-08,株式会社森本電設,,株式会社,東京都,町田市,木曽西１丁目２番７号,,13,209,1940037,,,,,,,2021-10-08,1,,,,,モリモトデンセツ,0
87,1013101008744,新規,0,2021-10-08,2021-10-08,株式会社ＫＡＦＵＡＬＬ,,株式会社,東京都,あきる野市,小和田１５番地２,,13,228,1900151,,,,,,,2021-10-08,1,,,,,カフオール,0
93,1013303005845,新規,0,2021-10-08,2021-10-08,Ｃ　ｆｏｒ　ｍｅ合同会社,,合同会社,東京都,豊島区,南池袋１丁目８－２５ウェルシャン第２池袋６０２,,13,116,1710022,,,,,,,2021-10-08,1,,,,,シーフォーミー,0
98,1020001143373,新規,0,2021-10-08,2021-10-08,株式会社ＴＥＬＬＵＳ,,株式会社,神奈川県,川崎市高津区,下作延３丁目１３番１０号,,14,134,2130033,,,,,,,2021-10-08,1,,,,,テルス,0
102,1021001074154,新規,0,2021-10-08,2021-10-08,多田硝子建材株式会社,,株式会社,神奈川県,中郡大磯町,国府新宿９６番地,,14,341,2590112,,,,,,,2021-10-08,1,,,,,タダガラスケンザイ,0
103,1021001074162,新規,0,2021-10-08,2021-10-08,株式会社Ｑｕｒｉｏｓｉｔｙ,,株式会社,神奈川県,三浦市,南下浦町上宮田２６３８－５９,,14,210,2380101,,,,,,,2021-10-08,1,,,,,キュリオシティー,0
104,1021001074179,新規,0,2021-10-08,2021-10-08,株式会社Ｒｅｇｕｌａｒ,,株式会社,神奈川県,鎌倉市,腰越１６５４番地１４,,14,204,2480033,,,,,,,2021-10-08,1,,,,,レギュラー,0
106,1030001144585,新規,0,2021-10-08,2021-10-08,株式会社シャイント,,株式会社,埼玉県,草加市,柿木町２２９番地１,,11,221,3400001,,,,,,,2021-10-08,1,,,,,シャイント,0
107,1030001144718,新規,0,2021-10-08,2021-10-08,ＫＣ株式会社,,株式会社,埼玉県,さいたま市緑区,美園４丁目１番地１、１４０２号室,,11,109,3360967,,,,,,,2021-10-08,1,,,,,ケーシー,0
110,1030003018093,新規,0,2021-10-08,2021-10-08,合同会社ヤマト医療,,合同会社,埼玉県,川口市,仲町１４番６号,,11,203,3320022,,,,,,,2021-10-08,1,,,,,ヤマトイリョウ,0
117,1040001120486,新規,0,2021-10-08,2021-10-08,株式会社ＹＡＮＯＳＨＩＮ,,株式会社,千葉県,成田市,並木町３番地３,,12,211,2860045,,,,,,,2021-10-08,1,,,,,ヤノシン,0
121,1040003018687,新規,0,2021-10-08,2021-10-08,合同会社みらい,,合同会社,千葉県,千葉市中央区,南町２丁目９番４号マルエイ第６ビル５階,,12,101,2600842,,,,,,,2021-10-08,1,,,,,ミライ,0
124,1050001049907,新規,0,2021-10-08,2021-10-08,株式会社Ｓｔａｒ　ｆｌｏｗｅｒ,,株式会社,茨城県,龍ケ崎市,姫宮町８１４１番地２,,08,208,3010017,,,,,,,2021-10-08,1,,,,,スターフラワー,0
125,1050001049964,新規,0,2021-10-08,2021-10-08,株式会社冨士翔,,株式会社,茨城県,土浦市,今泉１４４６番地１０,,08,203,3000001,,,,,,,2021-10-08,1,,,,,フジショウ,0
131,1060005009906,新規,0,2021-10-08,2021-10-08,医療法人社団フィーカ,,その他の設立登記法人,栃木県,小山市,中久喜５丁目２番１号,,09,208,3230806,,,,,,,2021-10-08,1,,,,,フィーカ,0
143,1080003002654,新規,0,2021-10-08,2021-10-08,合同会社むすび,,合同会社,静岡県,静岡市駿河区,宮竹１丁目１３番６号,,22,102,4228035,,,,,,,2021-10-08,1,,,,,ムスビ,0
149,1080403004382,新規,0,2021-10-08,2021-10-08,リンクライン合同会社,,合同会社,静岡県,磐田市,豊岡１５５０番地,,22,211,4380231,,,,,,,2021-10-08,1,,,,,リンクライン,0
154,1090003001969,新規,0,2021-10-08,2021-10-08,ＦＩＲＫＩＮ合同会社,,合同会社,山梨県,北杜市,高根町小池４５番地１,,19,209,4080014,,,,,,,2021-10-08,1,,,,,ファーキン,0
157,1100001034705,新規,0,2021-10-08,2021-10-08,株式会社ｍｏｕｎｔａｉｎ　ｓｔｙｌｅ,,株式会社,長野県,安曇野市,穂高２８２３番地,,20,220,3998303,,,,,,,2021-10-08,1,,,,,マウンテンスタイル,0
181,1120001241019,新規,0,2021-10-08,2021-10-08,ネクセンチュアアセッツ株式会社,,株式会社,大阪府,大阪市北区,堂島１丁目５番１７号堂島グランドビル４階,,27,127,5300003,,,,,,,2021-10-08,1,,,,,ネクセンチュアアセッツ,0
182,1120001241035,新規,0,2021-10-08,2021-10-08,株式会社クオリアホールディングス,,株式会社,大阪府,枚方市,山之上北町４番１５号２Ｆ,,27,210,5730049,,,,,,,2021-10-08,1,,,,,クオリアホールディングス,0
183,1120001241043,新規,0,2021-10-08,2021-10-08,株式会社Ｚｕｓｈｉ,,株式会社,大阪府,大阪市天王寺区,国分町１３番８号３Ｆ,,27,109,5430044,,,,,,,2021-10-08,1,,,,,ズシ,0
185,1120003020354,新規,0,2021-10-08,2021-10-08,ラシンプランニング合同会社,,合同会社,大阪府,大阪市中央区,東心斎橋１丁目１７番２号アニーズビル４階,,27,128,5420083,,,,,,,2021-10-08,1,,,,,ラシンプランニング,0
186,1120003020370,新規,0,2021-10-08,2021-10-08,合同会社ＮＲ,,合同会社,大阪府,大阪市東淀川区,東中島４丁目１番３９－２１４号,,27,114,5330033,,,,,,,2021-10-08,1,,,,,エヌアール,0
187,1120003020379,新規,0,2021-10-08,2021-10-08,合同会社ラウレア,,合同会社,大阪府,大阪市浪速区,湊町２丁目２番５－３１３号,,27,111,5560017,,,,,,,2021-10-08,1,,,,,ラウレア,0
188,1120003020387,新規,0,2021-10-08,2021-10-08,Ｎｅｏ　Ｓｅａｓｏｎ合同会社,,合同会社,大阪府,大阪市中央区,瓦屋町３丁目７番２０－３０７号,,27,128,5420066,,,,,,,2021-10-08,1,,,,,ネオシーズン,0
193,1120901045031,新規,0,2021-10-08,2021-10-08,株式会社彩工舎,,株式会社,大阪府,茨木市,上野町１番２２号の１０,,27,211,5670064,,,,,,,2021-10-08,1,,,,,サイコウシャ,0
196,1122001035251,新規,0,2021-10-08,2021-10-08,Ａｑｏｕｒｓ　Ｓｕｎｓｈｉｎｅ株式会社,,株式会社,大阪府,東大阪市,六万寺町２丁目１番４５号,,27,227,5798061,,,,,,,2021-10-08,1,,,,,アクアサンシャイン,0
201,1130001070227,新規,0,2021-10-08,2021-10-08,株式会社タロド,,株式会社,京都府,京都市中京区,寺町通押小路下る上本能寺前町４７２番地５Ｆ,,26,104,6040925,,,,,,,2021-10-08,1,,,,,タロド,0
202,1130001070301,新規,0,2021-10-08,2021-10-08,株式会社プレシア,,株式会社,京都府,宇治市,槇島町一ノ坪３４４番地１,,26,204,6110041,,,,,,,2021-10-08,1,,,,,プレシア,0
204,1130003007532,新規,0,2021-10-08,2021-10-08,合同会社嘉光,,合同会社,京都府,京都市北区,上賀茂山本町２番地４９,,26,101,6038076,,,,,,,2021-10-08,1,,,,,ヨシミツ,0
209,1140001123280,新規,0,2021-10-08,2021-10-08,ワキテック株式会社,,株式会社,兵庫県,高砂市,高砂町浜田町２丁目１０番７号,,28,216,6760022,,,,,,,2021-10-08,1,,,,,ワキテック,0
210,1140001123314,新規,0,2021-10-08,2021-10-08,ＤＫＰ株式会社,,株式会社,兵庫県,三木市,自由が丘本町１丁目３１９番地の５,,28,215,6730424,,,,,,,2021-10-08,1,,,,,ディーケーピー,0
211,1140001123339,新規,0,2021-10-08,2021-10-08,株式会社菊池建築鈑金,,株式会社,兵庫県,神戸市長田区,蓮宮通２丁目８番地の６,,28,106,6530831,,,,,,,2021-10-08,1,,,,,キクチケンチクバンキン,0
212,1140001123347,新規,0,2021-10-08,2021-10-08,株式会社田中屋,,株式会社,兵庫県,神戸市中央区,港島中町２丁目２番地の１,,28,110,6500046,,,,,,,2021-10-08,1,,,,,タナカヤ,0
213,1140001123371,新規,0,2021-10-08,2021-10-08,株式会社ＡＮＳＬＥＹ,,株式会社,兵庫県,西宮市,木津山町２番９号,,28,204,6620062,,,,,,,2021-10-08,1,,,,,アンスレー,0
214,1140001123388,新規,0,2021-10-08,2021-10-08,株式会社ＣＳ　ｌｉｆｅｓｔｙｌｅ,,株式会社,兵庫県,神戸市東灘区,青木５丁目１６番１１号ウイステリア青木１Ｆ北,,28,101,6580027,,,,,,,2021-10-08,1,,,,,シーエスライフスタイル,0
215,1140001123421,新規,0,2021-10-08,2021-10-08,株式会社ＢＧ,,株式会社,兵庫県,宝塚市,山本中３丁目６番１９号,,28,214,6650883,,,,,,,2021-10-08,1,,,,,ビージー,0
217,1150001025006,新規,0,2021-10-08,2021-10-08,株式会社ＰＬＡＺＡ,,株式会社,奈良県,奈良市,富雄元町２丁目６番４８号ライオンズプラザ,,29,201,6310078,,,,,,,2021-10-08,1,,,,,プラザ,0
225,1180001148084,新規,0,2021-10-08,2021-10-08,株式会社３ｒｄＰｌａｃｅ,,株式会社,愛知県,名古屋市中区,栄３丁目１１番１４号ピボット住吉ビル５１１号室,,23,106,4600008,,,,,,,2021-10-08,1,,,,,サードプレイス,0
226,1180001148150,新規,0,2021-10-08,2021-10-08,株式会社たいよう,,株式会社,愛知県,一宮市,猿海道１丁目２番７号,,23,203,4910838,,,,,,,2021-10-08,1,,,,,タイヨウ,0
227,1180001148233,新規,0,2021-10-08,2021-10-08,株式会社グランドエモーション,,株式会社,愛知県,名古屋市中区,千代田５丁目１４番１０号伸和ビル２Ｂ,,23,106,4600012,,,,,,,2021-10-08,1,,,,,グランドエモーション,0
234,1180003023054,新規,0,2021-10-08,2021-10-08,合同会社おと,,合同会社,愛知県,一宮市,丹羽字六反畑８６８番地１,,23,203,4910083,,,,,,,2021-10-08,1,,,,,オト,0
235,1180003023062,新規,0,2021-10-08,2021-10-08,合同会社ｍａｋｅ　ｕｐ,,合同会社,愛知県,名古屋市中村区,名駅３丁目２３番２号,,23,105,4500002,,,,,,,2021-10-08,1,,,,,メイクアップ,0
251,1200005013257,新規,0,2021-10-08,2021-10-08,特定非営利活動法人はみんぐアニマル,,その他の設立登記法人,岐阜県,高山市,西之一色町３丁目８１３番地６,,21,203,5060031,,,,,,,2021-10-08,1,,,,,ハミングアニマル,0
259,1240001058723,新規,0,2021-10-08,2021-10-08,株式会社吉田総建興業,,株式会社,広島県,呉市,郷原学びの丘２丁目８番３－３０５号,,34,202,7370162,,,,,,,2021-10-08,1,,,,,ヨシダソウケンコウギョウ,0
265,1260001036066,新規,0,2021-10-08,2021-10-08,株式会社Ｋｙｏｋｕ,,株式会社,岡山県,岡山市中区,門田本町２丁目３番６８号,,33,102,7038274,,,,,,,2021-10-08,1,,,,,キョク,0
275,1290001094912,新規,0,2021-10-08,2021-10-08,株式会社ＭＪＧＡ,,株式会社,福岡県,朝倉市,下渕１００５番地１,,40,228,8380016,,,,,,,2021-10-08,1,,,,,エムジェィガ,0
281,1290801027856,新規,0,2021-10-08,2021-10-08,株式会社ＴＫＵ,,株式会社,福岡県,北九州市八幡東区,桃園２丁目３番９号,,40,108,8050068,,,,,,,2021-10-08,1,,,,,ティーケーユー,0
283,1300005007034,新規,0,2021-10-08,2021-10-08,一般社団法人事業承継支援協会,,その他の設立登記法人,佐賀県,佐賀市,若宮１丁目９番１０－１号,,41,201,8490926,,,,,,,2021-10-08,1,,,,,ジギョウショウケイシエンキョウカイ,0
284,1310001017523,新規,0,2021-10-08,2021-10-08,ＯＳＪＰ株式会社,,株式会社,長崎県,長崎市,大黒町１０番１０号ＫｏＫｏＲｏビル　６ＤＴ号室,,42,201,8500057,,,,,,,2021-10-08,1,,,,,オーエスジェイピー,0
302,1350005006031,新規,0,2021-10-08,2021-10-08,一般社団法人ぽると,,その他の設立登記法人,宮崎県,宮崎市,大塚町柳ケ迫３８０８番地４,,45,201,8800951,,,,,,,2021-10-08,1,,,,,ポルト,0
311,1380001032235,新規,0,2021-10-08,2021-10-08,株式会社廣木三郎次,,株式会社,福島県,河沼郡会津坂下町,字市中二番甲３５７４番地,,07,421,9696543,,,,,,,2021-10-08,1,,,,,ヒロキサブロウジ,0
312,1380001032243,新規,0,2021-10-08,2021-10-08,株式会社スギモト外装建築,,株式会社,福島県,白河市,関辺西ノ内３３番地２,,07,205,9610021,,,,,,,2021-10-08,1,,,,,スギモトガイソウケンチク,0
316,1390005008916,新規,0,2021-10-08,2021-10-08,社会保険労務士法人はるかぜ事務所,,その他の設立登記法人,山形県,米沢市,春日１丁目２番２９号春日第一ビル２Ｆ,,06,202,9920044,,,,,,,2021-10-08,1,,,,,ハルカゼジムショ,0
320,1420003002396,新規,0,2021-10-08,2021-10-08,合同会社ハーベスト,,合同会社,青森県,青森市,浪岡大字徳才子字福田６番地２５,,02,201,0381303,,,,,,,2021-10-08,1,,,,,ハーベスト,0
327,1430001085112,新規,0,2021-10-08,2021-10-08,株式会社ＢＷＯＲＫＳリゾルゼ,,株式会社,北海道,札幌市中央区,大通西８丁目２－２４桂和大通３０ビル５Ｆ,,01,101,0600042,,,,,,,2021-10-08,1,,,,,ビーワークスリゾルゼ,0
328,1430001085120,新規,0,2021-10-08,2021-10-08,株式会社ＮＯＲＴＨ　ＳＥＩＫＯＵ,,株式会社,北海道,札幌市豊平区,西岡５３８番地１２,,01,105,0620039,,,,,,,2021-10-08,1,,,,,ノースセイコウ,0
329,1430001085137,新規,0,2021-10-08,2021-10-08,スノーフレーク株式会社,,株式会社,北海道,札幌市中央区,南三条東１丁目４番地５１０,,01,101,0600053,,,,,,,2021-10-08,1,,,,,スノーフレーク,0
330,1430001085145,新規,0,2021-10-08,2021-10-08,株式会社ＳＫ　ｓｙｓｔｅｍｓ,,株式会社,北海道,札幌市東区,東雁来八条２丁目６番１０号,,01,103,0070828,,,,,,,2021-10-08,1,,,,,エスケーシステムズ,0
331,1430003013211,新規,0,2021-10-08,2021-10-08,Ｎａｋａｔａ　Ｅｄｕｃａｔｉｏｎ合同会社,,合同会社,北海道,恵庭市,島松本町１丁目５番１０号,,01,231,0611353,,,,,,,2021-10-08,1,,,,,ナカタエデュケイション,0
332,1430003013244,新規,0,2021-10-08,2021-10-08,合同会社のうさぽ,,合同会社,北海道,樺戸郡新十津川町,字弥生１０４番地１,,01,432,0731104,,,,,,,2021-10-08,1,,,,,ノウサポ,0
334,1430005014298,新規,0,2021-10-08,2021-10-08,一般社団法人ｃｈｉｋｕ．ｗａ,,その他の設立登記法人,北海道,勇払郡厚真町,本町２７番地１,,01,581,0591603,,,,,,,2021-10-08,1,,,,,チクワ,0
343,1470001018737,新規,0,2021-10-08,2021-10-08,株式会社アクルックス,,株式会社,香川県,高松市,昭和町１丁目１２番３号,,37,201,7600014,,,,,,,2021-10-08,1,,,,,アクルックス,0
349,1480001011518,新規,0,2021-10-08,2021-10-08,株式会社明希,,株式会社,徳島県,板野郡藍住町,勝瑞字東勝地４１番地９,,36,403,7711273,,,,,,,2021-10-08,1,,,,,メイキ,0
361,2010001221666,新規,0,2021-10-08,2021-10-08,藤原省事株式会社,,株式会社,東京都,千代田区,麹町６丁目４番６号,,13,101,1020083,,,,,,,2021-10-08,1,,,,,フジワラショウジ,0
367,2010005034049,新規,0,2021-10-08,2021-10-08,ＨＲストーリーズ社会保険労務士法人,,その他の設立登記法人,東京都,中央区,日本橋富沢町４番１０号京成日本橋富沢町ビル２階１号室,,13,102,1030006,,,,,,,2021-10-08,1,,,,,エイチアールストーリーズ,0
376,2010401163070,新規,0,2021-10-08,2021-10-08,株式会社ＩＮＮＯＶＡＲＫ,,株式会社,東京都,港区,東新橋２丁目１８番４－１２１２号,,13,103,1050021,,,,,,,2021-10-08,1,,,,,イノヴァーク,0
377,2010401163079,新規,0,2021-10-08,2021-10-08,株式会社ｈｉｎｔ,,株式会社,東京都,港区,芝浦１丁目６番４１－２６０９号,,13,103,1050023,,,,,,,2021-10-08,1,,,,,ヒント,0
378,2010401163087,新規,0,2021-10-08,2021-10-08,株式会社エイジケアプラス,,株式会社,東京都,港区,南青山２丁目２番１５号ウィン青山９４２,,13,103,1070062,,,,,,,2021-10-08,1,,,,,エイジケアプラス,0
379,2010401163112,新規,0,2021-10-08,2021-10-08,株式会社ＬＡＧＯＯＮ,,株式会社,東京都,港区,赤坂２丁目１７番５０号,,13,103,1070052,,,,,,,2021-10-08,1,,,,,ラグーン,0
380,2010401163120,新規,0,2021-10-08,2021-10-08,株式会社ＪＩＮＧＩ,,株式会社,東京都,港区,虎ノ門４丁目１番２８号虎ノ門タワーズオフィス１９Ｆ,,13,103,1050001,,,,,,,2021-10-08,1,,,,,ジンギ,0
382,2010403026267,新規,0,2021-10-08,2021-10-08,合同会社ＧＩＮＯ,,合同会社,東京都,港区,浜松町２丁目２番１５号浜松町ダイヤビル２Ｆ,,13,103,1050013,,,,,,,2021-10-08,1,,,,,ジーノ,0
383,2010405020292,新規,0,2021-10-08,2021-10-08,エス・シー・アイ一般社団法人,,その他の設立登記法人,東京都,港区,六本木１丁目６番１号泉ガーデンタワー,,13,103,1060032,,,,,,,2021-10-08,1,,,,,エスシーアイ,0
389,2010701041629,新規,0,2021-10-08,2021-10-08,株式会社ｐｏＣｏａ,,株式会社,東京都,品川区,西五反田２丁目１４－１３リバーサイドニックハイム五反田,,13,109,1410031,,,,,,,2021-10-08,1,,,,,ポコア,0
395,2010803003907,新規,0,2021-10-08,2021-10-08,合同会社ＬＩＮＯ　Ｆｒｏｎｔｉｅｒ,,合同会社,東京都,大田区,山王１丁目２５－３,,13,111,1430023,,,,,,,2021-10-08,1,,,,,リノフロンティア,0
400,2011001143033,新規,0,2021-10-08,2021-10-08,株式会社ＡＩＯＯＮ,,株式会社,東京都,渋谷区,神南１丁目１０番７号テルス神南７０１号,,13,113,1500041,,,,,,,2021-10-08,1,,,,,アイオン,0
401,2011001143140,新規,0,2021-10-08,2021-10-08,グレイトテイルズ株式会社,,株式会社,東京都,目黒区,大橋２丁目１６番２４号新大橋スカイマンション５０３号室,,13,110,1530044,,,,,,,2021-10-08,1,,,,,グレイトテイルズ,0
402,2011001143149,新規,0,2021-10-08,2021-10-08,株式会社クオリティアップ,,株式会社,東京都,目黒区,碑文谷４丁目５－２８－２１０,,13,110,1520003,,,,,,,2021-10-08,1,,,,,クオリティアップ,0
403,2011001143272,新規,0,2021-10-08,2021-10-08,株式会社ＴＨＥ　ＤＡＹ,,株式会社,東京都,渋谷区,神宮前６丁目８番４号,,13,113,1500001,,,,,,,2021-10-08,1,,,,,ザデイ,0
404,2011003013507,新規,0,2021-10-08,2021-10-08,ＳＫＹ合同会社,,合同会社,東京都,目黒区,上目黒３丁目３６番７－２１０号,,13,110,1530051,,,,,,,2021-10-08,1,,,,,スカイ,0
405,2011003013531,新規,0,2021-10-08,2021-10-08,ＢＭＡＸ合同会社,,合同会社,東京都,渋谷区,神宮前６丁目２３番４号桑野ビル２階,,13,113,1500001,,,,,,,2021-10-08,1,,,,,ビーマックス,0
406,2011005009222,新規,0,2021-10-08,2021-10-08,一般社団法人芸術文化継承機構,,その他の設立登記法人,東京都,渋谷区,恵比寿２丁目３０番１－３０１号,,13,113,1500013,,,,,,,2021-10-08,1,,,,,ゲイジュツブンカケイショウキコウ,0
407,2011005009247,新規,0,2021-10-08,2021-10-08,一般社団法人ＧａｏＣａｏ．Ｊａｐａｎ,,その他の設立登記法人,東京都,渋谷区,代々木５丁目７番５号ＰｏｒｔａｌＰｏｉｎｔＹｏｙｏｇｉ‐Ｋｏｅｎ４Ｅ,,13,113,1510053,,,,,,,2021-10-08,1,,,,,ガオカオジャパン,0
408,2011005009255,新規,0,2021-10-08,2021-10-08,一般社団法人外国人美容師監理実施機関,,その他の設立登記法人,東京都,渋谷区,代々木１丁目５６番４号美容会館３Ｆ,,13,113,1510053,,,,,,,2021-10-08,1,,,,,ガイコクジンビヨウシカンリジッシキカン,0
412,2011101096536,新規,0,2021-10-08,2021-10-08,株式会社Ｑｕａｒｔｏ,,株式会社,東京都,新宿区,下落合１丁目３番６号ハイシティ高田馬場２１３,,13,104,1610033,,,,,,,2021-10-08,1,,,,,クアルト,0
419,2011301027241,新規,0,2021-10-08,2021-10-08,株式会社ＫＩＰＰＵ　ＤＲＥＡＭ,,株式会社,東京都,杉並区,阿佐谷南１丁目２６番５号,,13,115,1660004,,,,,,,2021-10-08,1,,,,,キップドリーム,0
421,2011303004197,新規,0,2021-10-08,2021-10-08,合同会社Ｙａｒｎ　Ｄｅｐｏｔ,,合同会社,東京都,杉並区,上荻１丁目２１番２３号,,13,115,1670043,,,,,,,2021-10-08,1,,,,,ヤーンディポー,0
425,2011403003462,新規,0,2021-10-08,2021-10-08,合同会社ＫＯＴＯＢＵＫＩ　ＩＮＴＬ．,,合同会社,東京都,板橋区,双葉町４７番２４号,,13,119,1730011,,,,,,,2021-10-08,1,,,,,コトブキインターナショナル,0
432,2011801039802,新規,0,2021-10-08,2021-10-08,ストーンフリー株式会社,,株式会社,東京都,葛飾区,四つ木５丁目１４番１２－６０３号フォレストコート四ツ木,,13,122,1240011,,,,,,,2021-10-08,1,,,,,ストーンフリー,0
440,2012401038376,新規,0,2021-10-08,2021-10-08,株式会社ＮＥＸＵＳ,,株式会社,東京都,小金井市,東町４丁目８番１９－２０７号,,13,210,1840011,,,,,,,2021-10-08,1,,,,,ネクサス,0
443,2012803002616,新規,0,2021-10-08,2021-10-08,ラクパイ合同会社,,合同会社,東京都,日野市,南平１丁目３１番１０号,,13,212,1910041,,,,,,,2021-10-08,1,,,,,ラクパイ,0
447,2013301048119,新規,0,2021-10-08,2021-10-08,ＡＳ－ＰＡＲＴＮＥＲＳ株式会社,,株式会社,東京都,豊島区,東池袋２丁目６２－８,,13,116,1700013,,,,,,,2021-10-08,1,,,,,エーエスパートナーズ,0
451,2013303005844,新規,0,2021-10-08,2021-10-08,合同会社倉,,合同会社,東京都,豊島区,南大塚１丁目２８番１１号アーバンコート南大塚２０１号,,13,116,1700005,,,,,,,2021-10-08,1,,,,,クラ,0
455,2020003020611,新規,0,2021-10-08,2021-10-08,ＢＬＵＥ　ＳＨＥＬＬ　ＭＡＲＩＴＩＭＥ合同会社,,合同会社,神奈川県,横浜市神奈川区,子安通２丁目２７１番地ＫＳビル２０１号,,14,102,2210021,,,,,,,2021-10-08,1,,,,,ブルーシェルマリタイム,0
463,2021001074161,新規,0,2021-10-08,2021-10-08,株式会社ＷＯ,,株式会社,神奈川県,三浦郡葉山町,長柄４２４番地の２,,14,301,2400113,,,,,,,2021-10-08,1,,,,,ダブリューオー,0
465,2021003010981,新規,0,2021-10-08,2021-10-08,合同会社こころ,,合同会社,神奈川県,南足柄市,広町５０５番地１,,14,217,2500121,,,,,,,2021-10-08,1,,,,,ココロ,0
473,2030001144691,新規,0,2021-10-08,2021-10-08,セブンステージ株式会社,,株式会社,埼玉県,所沢市,中富南４丁目１９番地の６,,11,208,3590003,,,,,,,2021-10-08,1,,,,,セブンステージ,0
474,2030001144725,新規,0,2021-10-08,2021-10-08,株式会社元気移人研究所,,株式会社,埼玉県,さいたま市南区,文蔵５丁目３１番１８号,,11,108,3360025,,,,,,,2021-10-08,1,,,,,ゲンキイジンケンキュウジョ,0
475,2030001144733,新規,0,2021-10-08,2021-10-08,株式会社ＯＦＦＲＯＡＤ,,株式会社,埼玉県,さいたま市大宮区,三橋４丁目３９３番地６,,11,103,3300856,,,,,,,2021-10-08,1,,,,,オフロード,0
488,2040001120502,新規,0,2021-10-08,2021-10-08,株式会社マクシーム,,株式会社,千葉県,印西市,岩戸１５９２番地,,12,231,2701616,,,,,,,2021-10-08,1,,,,,マクシーム,0
489,2040003018694,新規,0,2021-10-08,2021-10-08,合同会社ミクス,,合同会社,千葉県,鎌ケ谷市,東初富５丁目１２番１７号,,12,224,2730122,,,,,,,2021-10-08,1,,,,,ミクス,0
490,2040003018711,新規,0,2021-10-08,2021-10-08,ライズプレイス合同会社,,合同会社,千葉県,市川市,鬼高３丁目１２番３９－１０７号（ファミール市川ガーデンプラザ・ウエスト）,,12,203,2720015,,,,,,,2021-10-08,1,,,,,ライズプレイス,0
497,2050003006112,新規,0,2021-10-08,2021-10-08,カシマデザイン合同会社,,合同会社,茨城県,鹿嶋市,大字荒井３６０番１１,,08,222,3112204,,,,,,,2021-10-08,1,,,,,カシマデザイン,0
508,2080105006180,新規,0,2021-10-08,2021-10-08,弁護士法人はなぶさ法律事務所,,その他の設立登記法人,静岡県,富士宮市,東町１８番６号,,22,207,4180077,,,,,,,2021-10-08,1,,,,,ハナブサホウリツジムショ,0
510,2090001005979,新規,0,2021-10-08,2021-10-08,株式会社櫛形商事,00124440,株式会社,山梨県,笛吹市,御坂町成田２６３７番地１２,,19,211,4060801,,,,,,,2021-10-08,1,,,,,クシガタショウジ,0
517,2090001017231,新規,0,2021-10-08,2021-10-08,株式会社Ｂｏｏｍ,,株式会社,山梨県,甲府市,大里町１９８６番地１２,,19,201,4000053,,,,,,,2021-10-08,1,,,,,ブーム,0
518,2090003001968,新規,0,2021-10-08,2021-10-08,ＭＥＥＳＨＡ合同会社,,合同会社,山梨県,北杜市,高根町小池４５番地１,,19,209,4080014,,,,,,,2021-10-08,1,,,,,ミーシャ,0
520,2100001034704,新規,0,2021-10-08,2021-10-08,Ｅｉｇｈｔ　Ｐｅａｋｓ　Ｒｅｓｏｒｔ株式会社,,株式会社,長野県,北佐久郡立科町,７４３番地,,20,324,3842300,,,,,,,2021-10-08,1,,,,,エイトピークスリゾート,0
527,2110005016722,新規,0,2021-10-08,2021-10-08,医療法人社団石田歯科医院,,その他の設立登記法人,新潟県,燕市,吉田日之出町２番１１号,,15,213,9590231,,,,,,,2021-10-08,1,,,,,イシダシカイイン,0
542,2120001240944,新規,0,2021-10-08,2021-10-08,株式会社アムールワン,,株式会社,大阪府,大阪市東淀川区,西淡路１丁目３番地３２ダレモビル３階,,27,114,5330031,,,,,,,2021-10-08,1,,,,,アムールワン,0
543,2120001241001,新規,0,2021-10-08,2021-10-08,株式会社ｓｐｉｒｉｔｕｅｌｌｅ　ｂｅａｕｔｅ,,株式会社,大阪府,大阪市北区,芝田１丁目１－３阪急三番街南館Ｂ１Ｆ－ＳＢ１－０２７号,,27,127,5300012,,,,,,,2021-10-08,1,,,,,スピリチュアルボーテ,0
544,2120001241018,新規,0,2021-10-08,2021-10-08,株式会社Ｋ－ＣＲＥＡＴＥ,,株式会社,大阪府,大阪市北区,堂島２丁目２番８－２７０６号,,27,127,5300003,,,,,,,2021-10-08,1,,,,,ケイクリエイト,0
546,2120003020394,新規,0,2021-10-08,2021-10-08,合同会社ＳＰＡ　ＨＡＮＡ,,合同会社,大阪府,大阪市生野区,新今里３丁目２番６号グランド寿７１５号,,27,116,5440001,,,,,,,2021-10-08,1,,,,,スパハナ,0
561,2130001070291,新規,0,2021-10-08,2021-10-08,株式会社シーラ,,株式会社,京都府,京都市左京区,北白川東久保田町１７番地９,,26,103,6068285,,,,,,,2021-10-08,1,,,,,シーラ,0
572,2140001123296,新規,0,2021-10-08,2021-10-08,株式会社スマイルチェイン,,株式会社,兵庫県,姫路市,花田町加納原田７０７番地４,,28,201,6710252,,,,,,,2021-10-08,1,,,,,スマイルチェイン,0
573,2140001123313,新規,0,2021-10-08,2021-10-08,株式会社ＦＡＬ,,株式会社,兵庫県,神戸市灘区,大土平町１丁目４番１８号六甲セレスコート１０２,,28,102,6570014,,,,,,,2021-10-08,1,,,,,エフエーエル,0
574,2140001123321,新規,0,2021-10-08,2021-10-08,ＷｒａｐＴａｇ株式会社,,株式会社,兵庫県,神戸市東灘区,向洋町中６丁目９番地神戸ファッションマート８階,,28,101,6580032,,,,,,,2021-10-08,1,,,,,ラップタグ,0
575,2140001123354,新規,0,2021-10-08,2021-10-08,株式会社Ｍｏｎｒｏｅ　Ｂｅａｕｔｙ,,株式会社,兵庫県,芦屋市,宮塚町３番４号,,28,206,6590062,,,,,,,2021-10-08,1,,,,,モンロービューティー,0
576,2140001123370,新規,0,2021-10-08,2021-10-08,株式会社ソレイユ,,株式会社,兵庫県,明石市,二見町西二見３３２番地の２,,28,203,6740094,,,,,,,2021-10-08,1,,,,,ソレイユ,0
577,2140001123404,新規,0,2021-10-08,2021-10-08,株式会社大栄機械,,株式会社,兵庫県,神戸市北区,南五葉５丁目７番３２号,,28,109,6511132,,,,,,,2021-10-08,1,,,,,ダイエイキカイ,0
578,2140001123420,新規,0,2021-10-08,2021-10-08,セリカシステム株式会社,,株式会社,兵庫県,神戸市中央区,下山手通３丁目１２番１号トア山手プラザ２０３－１,,28,110,6500011,,,,,,,2021-10-08,1,,,,,セリカシステム,0
580,2150001024997,新規,0,2021-10-08,2021-10-08,東洋サポーティング株式会社,,株式会社,奈良県,大和郡山市,小泉町５０９番地１,,29,203,6391042,,,,,,,2021-10-08,1,,,,,トウヨウサポーティング,0
594,2180001148050,新規,0,2021-10-08,2021-10-08,メニック株式会社,,株式会社,愛知県,名古屋市名東区,上社１丁目２０６番地の１,,23,115,4650025,,,,,,,2021-10-08,1,,,,,メニック,0
595,2180001148067,新規,0,2021-10-08,2021-10-08,株式会社Ｓａｔｔｏｎ,,株式会社,愛知県,名古屋市中区,栄４丁目１４番２１号愛旅連ビルＢ１,,23,106,4600008,,,,,,,2021-10-08,1,,,,,サットン,0
596,2180001148125,新規,0,2021-10-08,2021-10-08,株式会社ピュア動物病院,,株式会社,愛知県,岩倉市,大地町半田２９番地１,,23,228,4820026,,,,,,,2021-10-08,1,,,,,ピュアドウブツビョウイン,0
597,2180001148133,新規,0,2021-10-08,2021-10-08,株式会社立志社,,株式会社,愛知県,名古屋市緑区,東神の倉１丁目２１０９番地（サニーヒル神ノ倉１０３号）,,23,114,4580808,,,,,,,2021-10-08,1,,,,,リッシシャ,0
598,2180001148182,新規,0,2021-10-08,2021-10-08,株式会社Ｂｅｉｇｈｔ,,株式会社,愛知県,一宮市,栄２丁目１３－９駅北ビル２Ｆ,,23,203,4910858,,,,,,,2021-10-08,1,,,,,ベイト,0
599,2180001148208,新規,0,2021-10-08,2021-10-08,株式会社プロマジック,,株式会社,愛知県,名古屋市中川区,かの里１丁目３１０６番地サンフラワー２０１号,,23,110,4540957,,,,,,,2021-10-08,1,,,,,プロマジック,0
600,2180001148216,新規,0,2021-10-08,2021-10-08,株式会社Ｆ　ＴＷＯ　Ｂ,,株式会社,愛知県,名古屋市港区,入場１丁目９０４番地,,23,111,4550803,,,,,,,2021-10-08,1,,,,,エフトゥービー,0
601,2180001148224,新規,0,2021-10-08,2021-10-08,アサヒ事務代行株式会社,,株式会社,愛知県,岩倉市,曽野町大畔４番地コーポしず２０５号,,23,228,4820003,,,,,,,2021-10-08,1,,,,,アサヒジムダイコウ,0
602,2180001148240,新規,0,2021-10-08,2021-10-08,株式会社Ｒｕｎ　ｕｐ,,株式会社,愛知県,名古屋市中区,新栄２丁目４０番６号,,23,106,4600007,,,,,,,2021-10-08,1,,,,,ランアップ,0
607,2180003023045,新規,0,2021-10-08,2021-10-08,合同会社ＤＲＥＡＭ　ＦＲＩＥＮＤＳ　ＦＩＲＭ,,合同会社,愛知県,稲沢市,平和町下起中１６０番地,,23,220,4901323,,,,,,,2021-10-08,1,,,,,ドリームフレンズファーム,0
608,2180003023053,新規,0,2021-10-08,2021-10-08,合同会社Ｔｒａｍｏｎｔｏ　Ｆｉｅｌｄ,,合同会社,愛知県,春日井市,中切町６７４番地,,23,206,4860925,,,,,,,2021-10-08,1,,,,,トラモントフィールド,0
616,2180301035477,新規,0,2021-10-08,2021-10-08,株式会社Ｗ．Ｄ．,,株式会社,愛知県,豊橋市,緑ケ丘１丁目９番地２５,,23,201,4400005,,,,,,,2021-10-08,1,,,,,ダブリューディー,0
629,2230001019023,新規,0,2021-10-08,2021-10-08,株式会社ＮＡＴ．Ｄｅｖｅｌｏｐｍｅｎｔ,,株式会社,富山県,南砺市,坪野１９２番地,,16,210,9320218,,,,,,,2021-10-08,1,,,,,ナットディベロップメント,0
636,2240001058747,新規,0,2021-10-08,2021-10-08,ＡＲＣＳ株式会社,,株式会社,広島県,広島市東区,戸坂大上４丁目１７番１９－１０１号,,34,102,7320014,,,,,,,2021-10-08,1,,,,,アークス,0
644,2260001036057,新規,0,2021-10-08,2021-10-08,美星農機株式会社,,株式会社,岡山県,井原市,美星町黒忠２８５５番地,,33,207,7141407,,,,,,,2021-10-08,1,,,,,ビセイノウキ,0
651,2290001094903,新規,0,2021-10-08,2021-10-08,クロノキャピタル株式会社,,株式会社,福岡県,福岡市早良区,高取２丁目８番１０号,,40,137,8140011,,,,,,,2021-10-08,1,,,,,クロノキャピタル,0
654,2290005018379,新規,0,2021-10-08,2021-10-08,行政書士法人吉田事務所,,その他の設立登記法人,福岡県,久留米市,上津町２２０３番地２７９,,40,203,8300052,,,,,,,2021-10-08,1,,,,,ヨシダジムショ,0
656,2290801027896,新規,0,2021-10-08,2021-10-08,株式会社馬場工業,,株式会社,福岡県,北九州市門司区,永黒１丁目１番６号,,40,101,8000017,,,,,,,2021-10-08,1,,,,,ババコウギョウ,0
658,2300003001731,新規,0,2021-10-08,2021-10-08,合同会社クリエイターズギルド,,合同会社,佐賀県,唐津市,鏡２５３７番地１,,41,202,8470022,,,,,,,2021-10-08,1,,,,,クリエイターズギルド,0
660,2310005008550,新規,0,2021-10-08,2021-10-08,一般社団法人Ｏｈａｎａ・Ｌａｕｌｅ’ａ,,その他の設立登記法人,長崎県,西彼杵郡時津町,西時津郷１８番４号田崎アパート１０１,,42,308,8512101,,,,,,,2021-10-08,1,,,,,オハナラウレア,0
664,2330001029037,新規,0,2021-10-08,2021-10-08,株式会社サニーサイド熊本,,株式会社,熊本県,山鹿市,鹿本町梶屋１３９５番地,,43,208,8610312,,,,,,,2021-10-08,1,,,,,サニーサイドクマモト,0
667,2330003009078,新規,0,2021-10-08,2021-10-08,合同会社凡凡堂,,合同会社,熊本県,熊本市中央区,水道町１番９号,,43,101,8600844,,,,,,,2021-10-08,1,,,,,ボンボンドウ,0
676,2360003011485,新規,0,2021-10-08,2021-10-08,合同会社宮古島観光,,合同会社,沖縄県,宮古島市,平良字西里８６０番地１３第一嘉数マンション２Ｆ,,47,214,9060012,,,,,,,2021-10-08,1,,,,,ミヤコジマカンコウ,0
681,2370001047654,新規,0,2021-10-08,2021-10-08,株式会社二休,,株式会社,宮城県,仙台市宮城野区,五輪２丁目６番１６号,,04,102,9830842,,,,,,,2021-10-08,1,,,,,ニキュウ,0
682,2370001047670,新規,0,2021-10-08,2021-10-08,株式会社ホットスタッフ仙台東,,株式会社,宮城県,仙台市若林区,六丁の目西町８番１号（斎喜センタービル１０６号室）,,04,103,9840011,,,,,,,2021-10-08,1,,,,,ホットスタッフセンダイヒガシ,0
683,2370003005437,新規,0,2021-10-08,2021-10-08,ジャパンビルズ合同会社,,合同会社,宮城県,名取市,名取が丘６丁目７番３－４０１号,,04,207,9811235,,,,,,,2021-10-08,1,,,,,,0
691,2410003003576,新規,0,2021-10-08,2021-10-08,合同会社Ｒ＆Ｍ,,合同会社,秋田県,大館市,中道２丁目１番５０号,,05,204,0170045,,,,,,,2021-10-08,1,,,,,アールアンドエム,0
700,2430001085103,新規,0,2021-10-08,2021-10-08,株式会社知熊屋,,株式会社,北海道,勇払郡厚真町,字豊沢２４０番地３８,,01,581,0591624,,,,,,,2021-10-08,1,,,,,チグマヤ,0
701,2430001085144,新規,0,2021-10-08,2021-10-08,クラーク総研株式会社,,株式会社,北海道,札幌市北区,新琴似一条１１丁目１番１９号,,01,102,0010901,,,,,,,2021-10-08,1,,,,,クラークソウケン,0
703,2430003013185,新規,0,2021-10-08,2021-10-08,高木商事合同会社,00124499,合同会社,北海道,岩見沢市,二条西８丁目３番地,,01,210,0680022,,,,,,,2021-10-08,1,,,,,タカギショウジ,0
709,2480001011517,新規,0,2021-10-08,2021-10-08,株式会社グリーンベース,,株式会社,徳島県,阿波市,阿波町東原４３番地,,36,206,7711703,,,,,,,2021-10-08,1,,,,,グリーンベース,0
711,2480003001739,新規,0,2021-10-08,2021-10-08,あわ愛Ｌｉｎｋｓ合同会社,,合同会社,徳島県,阿波市,阿波町南整理１５９番地２,,36,206,7711706,,,,,,,2021-10-08,1,,,,,アワアイリンクス,0
712,2700150104651,新規,0,2021-10-08,2021-09-08,帯広市防火管理協会,,その他,北海道,帯広市,西六条南６丁目３番地１,,01,207,0800016,,,,,,,2021-09-08,1,,,,,オビヒロシボウカカンリキヨウカイ,0
721,3010001221533,新規,0,2021-10-08,2021-10-08,株式会社角丸サプライズ,,株式会社,東京都,千代田区,神田三崎町３丁目３番３号太陽ビル４０４,,13,101,1010061,,,,,,,2021-10-08,1,,,,,カクマルサプライズ,0
722,3010001221599,新規,0,2021-10-08,2021-10-08,ニューラルエンジニアリング株式会社,,株式会社,東京都,千代田区,有楽町１丁目１番２号,,13,101,1000006,,,,,,,2021-10-08,1,,,,,ニューラルエンジニアリング,0
723,3010001221649,新規,0,2021-10-08,2021-10-08,株式会社ＢＩＹＵＪＩＮ,,株式会社,東京都,中央区,銀座１丁目２２番１１号銀座大竹ビジデンス２階,,13,102,1040061,,,,,,,2021-10-08,1,,,,,ビユウジン,0
726,3010003035964,新規,0,2021-10-08,2021-10-08,高階刀剣合同会社,,合同会社,東京都,中央区,銀座１丁目３番３号,,13,102,1040061,,,,,,,2021-10-08,1,,,,,タカシナトウケン,0
728,3010005034048,新規,0,2021-10-08,2021-10-08,お茶の水パートナーズ税理士法人,,その他の設立登記法人,東京都,千代田区,神田淡路町１丁目３番１号トーハン淡路町ビル５Ｆ,,13,101,1010063,,,,,,,2021-10-08,1,,,,,オチャノミズパートナーズ,0
739,3010401163029,新規,0,2021-10-08,2021-10-08,株式会社シグマクシス,,株式会社,東京都,港区,虎ノ門４丁目１番２８号,,13,103,1050001,,,,,,,2021-10-08,1,,,,,シグマクシス,0
740,3010401163078,新規,0,2021-10-08,2021-10-08,ＳＰＴ　ＰＬＵＳ株式会社,,株式会社,東京都,港区,六本木４丁目３番６号三河台ハイツ１０５,,13,103,1060032,,,,,,,2021-10-08,1,,,,,エスピーティープラス,0
741,3010401163094,新規,0,2021-10-08,2021-10-08,株式会社ｓｐａｒｋ,,株式会社,東京都,港区,六本木５丁目１６番５号インペリアル六本木１号館Ｓ１０３Ｃ,,13,103,1060032,,,,,,,2021-10-08,1,,,,,スパーク,0
743,3010403026282,新規,0,2021-10-08,2021-10-08,合同会社ＧＫ０５１,,合同会社,東京都,港区,虎ノ門３丁目２２番１０－２０１号,,13,103,1050001,,,,,,,2021-10-08,1,,,,,ジーケイゼロファイブワン,0
744,3010405020291,新規,0,2021-10-08,2021-10-08,エス・シー・アイ特定目的会社,,その他の設立登記法人,東京都,港区,六本木１丁目６番１号泉ガーデンタワー,,13,103,1060032,,,,,,,2021-10-08,1,,,,,エスシーアイ,0
747,3010503006408,新規,0,2021-10-08,2021-10-08,合同会社利海,,合同会社,東京都,台東区,千束３丁目８番１１号ルクシェール浅草５０２,,13,106,1110031,,,,,,,2021-10-08,1,,,,,リカイ,0
758,3010903006858,新規,0,2021-10-08,2021-10-08,合同会社フライングスター,,合同会社,東京都,世田谷区,太子堂１丁目１２番２７号コンフォートテラス１００５号,,13,112,1540004,,,,,,,2021-10-08,1,,,,,フライングスター,0
767,3011001143148,新規,0,2021-10-08,2021-10-08,株式会社Ｍａｏ,,株式会社,東京都,渋谷区,渋谷１丁目７番５号青山セブンハイツ９０４号,,13,113,1500002,,,,,,,2021-10-08,1,,,,,マオ,0
768,3011001143321,新規,0,2021-10-08,2021-10-08,株式会社ｃｒｅｆ,,株式会社,東京都,渋谷区,神宮前６丁目２３番４号桑野ビル２階,,13,113,1500001,,,,,,,2021-10-08,1,,,,,クリフ,0
777,3011101096535,新規,0,2021-10-08,2021-10-08,株式会社クリエイト,,株式会社,東京都,新宿区,新宿１丁目３２番１１号,,13,104,1600022,,,,,,,2021-10-08,1,,,,,クリエイト,0
780,3011201023298,新規,0,2021-10-08,2021-10-08,株式会社ＬＦＧ,,株式会社,東京都,中野区,鷺宮４丁目２２番１５号,,13,114,1650032,,,,,,,2021-10-08,1,,,,,エルエフジー,0
781,3011201023307,新規,0,2021-10-08,2021-10-08,株式会社パワーブレインソリューションズ,,株式会社,東京都,中野区,弥生町５丁目２６－９富士見町ビル２階,,13,114,1640013,,,,,,,2021-10-08,1,,,,,パワーブレインソリューションズ,0
782,3011303004196,新規,0,2021-10-08,2021-10-08,合同会社ＣＨＩＫＡＲＡ,,合同会社,東京都,杉並区,荻窪１丁目１４番１５号,,13,115,1670051,,,,,,,2021-10-08,1,,,,,チカラ,0
785,3011401023718,新規,0,2021-10-08,2021-10-08,株式会社ＦＭＫ,,株式会社,東京都,板橋区,赤塚４丁目３３番２１号,,13,119,1750092,,,,,,,2021-10-08,1,,,,,エフエムケー,0
786,3011401023750,新規,0,2021-10-08,2021-10-08,株式会社Ｏｐｅｒａｔｉｏｎ　Ｓｑｕａｒｅ,,株式会社,東京都,板橋区,前野町１丁目４５番２２－１００４号,,13,119,1740063,,,,,,,2021-10-08,1,,,,,オペレーションスクエア,0
787,3011501027354,新規,0,2021-10-08,2021-10-08,株式会社ｉｓｌｅ,,株式会社,東京都,荒川区,東日暮里２丁目１９番７号Ｓｐａｃｅ－Ａ－１０２,,13,118,1160014,,,,,,,2021-10-08,1,,,,,アイル,0
793,3011701024738,新規,0,2021-10-08,2021-10-08,ＰＩＭＵＭＯ　ＮＩＭＦＡ株式会社,,株式会社,東京都,江戸川区,瑞江２丁目５番３グレイス瑞江２Ｆ０８号室,,13,123,1320011,,,,,,,2021-10-08,1,,,,,ピムモニンファ,0
795,3011703002964,新規,0,2021-10-08,2021-10-08,ＡＬＬＯＷＳ合同会社,,合同会社,東京都,江戸川区,西瑞江５丁目５番地１２,,13,123,1340015,,,,,,,2021-10-08,1,,,,,アローズ,0
805,3012803002623,新規,0,2021-10-08,2021-10-08,合同会社Ｃａｌｌａ　Ｍａｒｙ,,合同会社,東京都,国分寺市,新町１丁目１番地１２,,13,214,1850004,,,,,,,2021-10-08,1,,,,,カラーマリー,0
809,3013303005843,新規,0,2021-10-08,2021-10-08,合同会社Ｓｔｏｒｍ　ｕｐ,,合同会社,東京都,豊島区,目白２丁目４番１－１１０５号,,13,116,1710031,,,,,,,2021-10-08,1,,,,,ストームアップ,0
813,3020001143396,新規,0,2021-10-08,2021-10-08,ＧＥＮＵＩＮＥ　ＡＳＳＥＴ　ＭＡＮＡＧＥＭＥＮＴ株式会社,,株式会社,神奈川県,横浜市港北区,新横浜３丁目１８番３号,,14,109,2220033,,,,,,,2021-10-08,1,,,,,ジェニュインアセットマネジメント,0
819,3021001074111,新規,0,2021-10-08,2021-10-08,株式会社МＯＴ,,株式会社,神奈川県,藤沢市,村岡東２丁目２０番地の１３ミリョーレ２０２,,14,205,2510012,,,,,,,2021-10-08,1,,,,,エムオーティー,0
820,3021001074152,新規,0,2021-10-08,2021-10-08,株式会社倉地造園設計,,株式会社,神奈川県,藤沢市,円行２丁目２３番地の１１コスモヴィラＡ,,14,205,2520805,,,,,,,2021-10-08,1,,,,,クラチゾウエンセッケイ,0
821,3021001074177,新規,0,2021-10-08,2021-10-08,株式会社Ｂｅｌｕｇａ,,株式会社,神奈川県,茅ヶ崎市,高田２丁目１－２３,,14,207,2530002,,,,,,,2021-10-08,1,,,,,ベルーガ,0
825,3021003010980,新規,0,2021-10-08,2021-10-08,合同会社Ｄ－１,,合同会社,神奈川県,藤沢市,片瀬海岸２丁目２０－１２ＯＨＡＮＡｔｅｒｒａｃｅ（オハナテラス）２Ｆ,,14,205,2510035,,,,,,,2021-10-08,1,,,,,ディーマイナスワン,0
834,3030001144724,新規,0,2021-10-08,2021-10-08,株式会社岡電気工業,,株式会社,埼玉県,さいたま市中央区,鈴谷５丁目１５番９号２０１号室,,11,105,3380013,,,,,,,2021-10-08,1,,,,,オカデンキコウギョウ,0
835,3030001144732,新規,0,2021-10-08,2021-10-08,株式会社ｋａｉｋｏ,,株式会社,埼玉県,さいたま市南区,内谷７丁目１番１２－２０２号,,11,108,3360034,,,,,,,2021-10-08,1,,,,,カイコ,0
836,3030001144740,新規,0,2021-10-08,2021-10-08,株式会社上西,,株式会社,埼玉県,草加市,柿木町２９５－１－１,,11,221,3400001,,,,,,,2021-10-08,1,,,,,ジョウニシ,0
837,3030001144757,新規,0,2021-10-08,2021-10-08,株式会社ＣＲＥＡＭ,,株式会社,埼玉県,さいたま市大宮区,大門町１丁目９２番地１,,11,103,3300846,,,,,,,2021-10-08,1,,,,,クリーム,0
842,3030003018059,新規,0,2021-10-08,2021-10-08,合同会社Ａｐｒｉｌ,,合同会社,埼玉県,所沢市,東狭山ケ丘１丁目４９番地の２,,11,208,3591106,,,,,,,2021-10-08,1,,,,,エイプリル,0
843,3030003018067,新規,0,2021-10-08,2021-10-08,合同会社大和梱包リース,,合同会社,埼玉県,上尾市,大字西門前２８８－１,,11,219,3620005,,,,,,,2021-10-08,1,,,,,ヤマトコンポウリース,0
850,3040001120352,新規,0,2021-10-08,2021-10-08,株式会社ＳＯＬＥＩＬ,,株式会社,千葉県,浦安市,富士見１丁目１２番８号,,12,227,2790043,,,,,,,2021-10-08,1,,,,,ソレイユ,0
858,3040005021365,新規,0,2021-10-08,2021-10-08,一般社団法人嶺岡牧士家保存活用協会,,その他の設立登記法人,千葉県,鴨川市,坂東１０２番地,,12,223,2960016,,,,,,,2021-10-08,1,,,,,ミネオカモクシケホゾンカツヨウキョウカイ,0
878,3070001038518,新規,0,2021-10-08,2021-10-08,株式会社ＡＬＡＴＡ,,株式会社,群馬県,高崎市,田町７２番地、１Ｆ,,10,202,3700824,,,,,,,2021-10-08,1,,,,,アラタ,0
883,3070003004261,新規,0,2021-10-08,2021-10-08,ＲＩＲＥ　ＭＯＯＮ合同会社,,合同会社,群馬県,高崎市,新町４５６－１１,,10,202,3701301,,,,,,,2021-10-08,1,,,,,リルムーン,0
885,3080003002660,新規,0,2021-10-08,2021-10-08,Ｓ＆Ｗアセットマネジメント合同会社,,合同会社,静岡県,静岡市駿河区,大和２丁目３番３７号,,22,102,4228077,,,,,,,2021-10-08,1,,,,,エスアンドダブリュアセットマネジメント,0
886,3080101022809,新規,0,2021-10-08,2021-10-08,ＳＳＹトレーディング株式会社,,株式会社,静岡県,富士宮市,ひばりが丘９２番地,,22,207,4180003,,,,,,,2021-10-08,1,,,,,エスエスワイトレーディング,0
889,3080401025412,新規,0,2021-10-08,2021-10-08,株式会社デジナーレ,,株式会社,静岡県,浜松市南区,白羽町１０３番地,,22,134,4300846,,,,,,,2021-10-08,1,,,,,デジナーレ,0
894,3100001034694,新規,0,2021-10-08,2021-10-08,株式会社Ｇｌｏｂａｌ　Ｏｎｌｉｎｅ,,株式会社,長野県,上田市,大字仁古田１１５３番地１,,20,203,3860000,,,,,,,2021-10-08,1,,,,,グローバルオンライン,0
903,3110005016721,新規,0,2021-10-08,2021-10-08,シンシア社会保険労務士法人,,その他の設立登記法人,新潟県,新潟市北区,川西３丁目８番地１７,,15,101,9503341,,,,,,,2021-10-08,1,,,,,シンシア,0
913,3120001240927,新規,0,2021-10-08,2021-10-08,株式会社Ａｍｂｉｔｉｏｎ,,株式会社,大阪府,大阪市中央区,大手前１丁目７番３１号ＯＭＭビル１２階,,27,128,5400008,,,,,,,2021-10-08,1,,,,,アンビション,0
914,3120001240935,新規,0,2021-10-08,2021-10-08,株式会社志善,,株式会社,大阪府,大阪市中央区,東心斎橋１丁目２０番８号,,27,128,5420083,,,,,,,2021-10-08,1,,,,,シゼン,0
915,3120001240984,新規,0,2021-10-08,2021-10-08,株式会社シキ,,株式会社,大阪府,大阪市中央区,博労町３丁目１－８チサンマンション心斎橋二番館６０７号室,,27,128,5410059,,,,,,,2021-10-08,1,,,,,シキ,0
916,3120001241025,新規,0,2021-10-08,2021-10-08,株式会社Ｈａｒｒｙ,,株式会社,大阪府,大阪市阿倍野区,丸山通１丁目５番３号２Ｂ号,,27,119,5450042,,,,,,,2021-10-08,1,,,,,ハリー,0
918,3120003020377,新規,0,2021-10-08,2021-10-08,Ｒ．Ｃ合同会社,,合同会社,大阪府,大阪市此花区,高見２丁目６番２６号ハッピーテラス高見１０１号,,27,104,5540001,,,,,,,2021-10-08,1,,,,,アールシー,0
919,3120003020385,新規,0,2021-10-08,2021-10-08,合同会社カレンチャン,,合同会社,大阪府,大阪市北区,芝田２丁目８番１１号共栄ビル３Ｆ,,27,127,5300012,,,,,,,2021-10-08,1,,,,,カレンチャン,0
926,3120903003860,新規,0,2021-10-08,2021-10-08,合同会社関西エコ,,合同会社,大阪府,豊中市,庄内西町４丁目２５－１５－３０２,,27,203,5610832,,,,,,,2021-10-08,1,,,,,カンサイエコ,0
936,3130001070290,新規,0,2021-10-08,2021-10-08,株式会社福原表具店,,株式会社,京都府,舞鶴市,字平野屋３６番地,,26,202,6240927,,,,,,,2021-10-08,1,,,,,フクハラヒョウグテン,0
937,3130001070299,新規,0,2021-10-08,2021-10-08,株式会社プライド,,株式会社,京都府,京都市右京区,西京極中町１２番地,,26,108,6150822,,,,,,,2021-10-08,1,,,,,プライド,0
944,3140001123270,新規,0,2021-10-08,2021-10-08,株式会社ＡＫリテイリング,,株式会社,兵庫県,西宮市,甲陽園西山町１１番１号,,28,204,6620017,,,,,,,2021-10-08,1,,,,,エーケーリテイリング,0
945,3140001123295,新規,0,2021-10-08,2021-10-08,株式会社Ｊ－ＡＭＰ,,株式会社,兵庫県,芦屋市,東山町７番７－２０６号,,28,206,6590091,,,,,,,2021-10-08,1,,,,,ジェイアンプ,0
946,3140001123320,新規,0,2021-10-08,2021-10-08,株式会社寺田建築,,株式会社,兵庫県,姫路市,町坪南町１０番地,,28,201,6700989,,,,,,,2021-10-08,1,,,,,テラダケンチク,0
947,3140001123345,新規,0,2021-10-08,2021-10-08,株式会社ＤＡＩＫＥＮ,,株式会社,兵庫県,豊岡市,庄境１３１番地１,,28,209,6680873,,,,,,,2021-10-08,1,,,,,ダイケン,0
948,3140001123361,新規,0,2021-10-08,2021-10-08,株式会社ＭＭＭ,,株式会社,兵庫県,神戸市東灘区,御影本町２丁目１６－３,,28,101,6580046,,,,,,,2021-10-08,1,,,,,エムエムエム,0
949,3140001123403,新規,0,2021-10-08,2021-10-08,エムスタイル不動産株式会社,,株式会社,兵庫県,西宮市,甲子園口２丁目３番７号２階,,28,204,6638113,,,,,,,2021-10-08,1,,,,,エムスタイルフドウサン,0
952,3140003016836,新規,0,2021-10-08,2021-10-08,合同会社Ｈａｐｐｙ　Ｅａｒｔｈ,,合同会社,兵庫県,尼崎市,武庫之荘１丁目１７番１６－２０５号,,28,202,6610035,,,,,,,2021-10-08,1,,,,,ハッピーアース,0
953,3150001024996,新規,0,2021-10-08,2021-10-08,坂上水産株式会社,,株式会社,奈良県,奈良市,秋篠町１５４６番地の３８,,29,201,6310811,,,,,,,2021-10-08,1,,,,,サカガミスイサン,0
954,3150001025004,新規,0,2021-10-08,2021-10-08,株式会社ｉｃｈｉｋａ,,株式会社,奈良県,橿原市,葛本町５２番地１,,29,205,6340007,,,,,,,2021-10-08,1,,,,,イチカ,0
963,3180001148149,新規,0,2021-10-08,2021-10-08,株式会社みんなの春夏秋冬,,株式会社,愛知県,名古屋市西区,赤城町１８７番地の１,,23,104,4520813,,,,,,,2021-10-08,1,,,,,ミンナノシュンカシュウトウ,0
964,3180001148173,新規,0,2021-10-08,2021-10-08,株式会社ジュリアン,,株式会社,愛知県,名古屋市中村区,太閤通３丁目３５番地アメリカンヒルズ,,23,105,4530811,,,,,,,2021-10-08,1,,,,,ジュリアン,0
965,3180001148181,新規,0,2021-10-08,2021-10-08,株式会社アルス,,株式会社,愛知県,名古屋市中区,新栄２丁目８番２２号,,23,106,4600007,,,,,,,2021-10-08,1,,,,,アルス,0
971,3180301035492,新規,0,2021-10-08,2021-10-08,株式会社いるか,,株式会社,愛知県,刈谷市,中山町２丁目３７番地１ＹＯＵＬＵＣＫ５ＳＱＵＡＲＥ‐Ａ,,23,210,4480026,,,,,,,2021-10-08,1,,,,,イルカ,0
992,3240003005309,新規,0,2021-10-08,2021-10-08,合同会社カドヤ,,合同会社,広島県,広島市東区,尾長東２丁目３番９－１０２号,,34,102,7320046,,,,,,,2021-10-08,1,,,,,カドヤ,0
1002,3260005010981,新規,0,2021-10-08,2021-10-08,西日本ショウエイ協同組合,,その他の設立登記法人,岡山県,岡山市北区,西古松１丁目３番５号,,33,101,7000927,,,,,,,2021-10-08,1,,,,,ニシニホンショウエイ,0
1014,3290001094860,新規,0,2021-10-08,2021-10-08,株式会社一華,,株式会社,福岡県,久留米市,東合川３丁目１０番６号リバティビル３Ｆ,,40,203,8390809,,,,,,,2021-10-08,1,,,,,イッカ,0
1015,3290001094902,新規,0,2021-10-08,2021-10-08,株式会社アンドエヌ,,株式会社,福岡県,福岡市南区,市崎１丁目２番８号高宮マンション１５３,,40,134,8150084,,,,,,,2021-10-08,1,,,,,アンドエヌ,0
1021,3290801027879,新規,0,2021-10-08,2021-10-08,株式会社ホットスタッフ宮若,,株式会社,福岡県,宮若市,本城１０８４番地１,,40,226,8230003,,,,,,,2021-10-08,1,,,,,ホットスタッフミヤワカ,0
1022,3300001012655,新規,0,2021-10-08,2021-10-08,株式会社大和ホールディングス,,株式会社,佐賀県,鳥栖市,永吉町７７３番地１,,41,203,8410011,,,,,,,2021-10-08,1,,,,,ヤマトホールディングス,0
1025,3300003001730,新規,0,2021-10-08,2021-10-08,合同会社サンエスラボ,,合同会社,佐賀県,唐津市,千代田町２１０９番地６７,,41,202,8470041,,,,,,,2021-10-08,1,,,,,サンエスラボ,0
1033,3360001029462,新規,0,2021-10-08,2021-10-08,株式会社沖縄ＳＴＥＰ　ＯＮＥ,,株式会社,沖縄県,那覇市,おもろまち２丁目１番２４－５０８号リリーベルおもろまちサーモス,,47,201,9000006,,,,,,,2021-10-08,1,,,,,オキナワステップワン,0
1034,3360005006524,新規,0,2021-10-08,2021-10-08,弁護士法人当山法律事務所,,その他の設立登記法人,沖縄県,那覇市,松尾２丁目１６番５２号松尾公園テミスビル４階,,47,201,9000014,,,,,,,2021-10-08,1,,,,,,0
1035,3370001047653,新規,0,2021-10-08,2021-10-08,株式会社徹心,,株式会社,宮城県,仙台市太白区,山田新町６６番地,,04,104,9820818,,,,,,,2021-10-08,1,,,,,テッシン,0
1054,3430001085127,新規,0,2021-10-08,2021-10-08,株式会社ＡＧＲ４７１,,株式会社,北海道,北広島市,大曲４６２番地,,01,234,0611270,,,,,,,2021-10-08,1,,,,,アグリヨナイ,0
1056,3430003013201,新規,0,2021-10-08,2021-10-08,合同会社ベジタボ,,合同会社,北海道,夕張郡栗山町,字阿野呂１７５番地,,01,429,0680351,,,,,,,2021-10-08,1,,,,,ベジタボ,0
1057,3430003013234,新規,0,2021-10-08,2021-10-08,ＳＵＳＴＡＩＮＥＲ合同会社,,合同会社,北海道,札幌市北区,屯田四条６丁目６番３６号,,01,102,0020854,,,,,,,2021-10-08,1,,,,,サスティナー,0
1058,3430003013242,新規,0,2021-10-08,2021-10-08,合同会社ＧＦＣ,,合同会社,北海道,札幌市南区,澄川五条１１丁目１番５号,,01,106,0050005,,,,,,,2021-10-08,1,,,,,ジーエフシー,0
1059,3430005014305,新規,0,2021-10-08,2021-10-08,一般社団法人建設業事業承継支援協会,,その他の設立登記法人,北海道,札幌市中央区,南一条西３丁目８番地,,01,101,0600061,,,,,,,2021-10-08,1,,,,,ケンセツギョウジギョウショウケイシエンキョウカイ,0
1066,3480001011516,新規,0,2021-10-08,2021-10-08,株式会社スコディア,,株式会社,徳島県,徳島市,寺島本町東３丁目１５番地の５－６０７,,36,201,7700832,,,,,,,2021-10-08,1,,,,,スコディア,0
1067,3480003001738,新規,0,2021-10-08,2021-10-08,合同会社Ｇカッティング,,合同会社,徳島県,三好郡東みよし町,東山字内野７４番地,,36,489,7712503,,,,,,,2021-10-08,1,,,,,ジーカッティング,0
1081,4010001221656,新規,0,2021-10-08,2021-10-08,Ｊｅｌｌｙｓｍａｃｋ　Ｊａｐａｎ株式会社,,株式会社,東京都,中央区,新富１丁目１５番３号新富ミハマビル４階ジパング,,13,102,1040041,,,,,,,2021-10-08,1,,,,,ジェリースマックジャパン,0
1095,4010401163036,新規,0,2021-10-08,2021-10-08,株式会社Ｆｉｘｓｔａｒｓ　Ａｍｐｌｉｆｙ,,株式会社,東京都,港区,芝浦３丁目１番１号,,13,103,1080023,,,,,,,2021-10-08,1,,,,,フィックスターズアンプリファイ,0
1096,4010401163069,新規,0,2021-10-08,2021-10-08,ベジイン株式会社,,株式会社,東京都,港区,南青山３丁目５番１０号,,13,103,1070062,,,,,,,2021-10-08,1,,,,,ベジイン,0
1097,4010401163077,新規,0,2021-10-08,2021-10-08,株式会社ＳＨＩＲＡＨＡ,,株式会社,東京都,港区,南青山３丁目１５番９号ＭＩＮＯＷＡ表参道３階,,13,103,1070062,,,,,,,2021-10-08,1,,,,,シラハ,0
1099,4010403026249,新規,0,2021-10-08,2021-10-08,ｖｉｐ　ｃｒｅａｔｉｖｅ　ｈａｉｒ合同会社,,合同会社,東京都,港区,元麻布２丁目１番２１号元麻布ＹＳビル２Ｆ,,13,103,1060046,,,,,,,2021-10-08,1,,,,,ヴィップクリエイティブヘアー,0
1101,4010405020266,新規,0,2021-10-08,2021-10-08,一般社団法人ティーアール・イレブン,,その他の設立登記法人,東京都,港区,赤坂２丁目１０番５号税理士法人赤坂国際会計事務所内,,13,103,1070052,,,,,,,2021-10-08,1,,,,,ティーアールイレブン,0
1102,4010405020290,新規,0,2021-10-08,2021-10-08,初台プロパティ特定目的会社,,その他の設立登記法人,東京都,港区,六本木１丁目６番１号泉ガーデンタワー,,13,103,1060032,,,,,,,2021-10-08,1,,,,,ハツダイプロパティ,0
1104,4010501006516,新規,0,2021-10-08,2021-10-08,株式会社ジャパン・フード・システムズ,,株式会社,東京都,台東区,東上野１丁目１２番１号,,13,106,1100015,,,,,,,2021-10-08,1,,,,,ジャパンフードシステムズ,0
1108,4010501047931,新規,0,2021-10-08,2021-10-08,株式会社ＩＣ,,株式会社,東京都,台東区,下谷３丁目１番２４号,,13,106,1100004,,,,,,,2021-10-08,1,,,,,アイシー,0
1117,4010901049585,新規,0,2021-10-08,2021-10-08,テトテヲ株式会社,,株式会社,東京都,世田谷区,駒沢５丁目１５番１号中村ビル,,13,112,1540012,,,,,,,2021-10-08,1,,,,,テトテヲ,0
1132,4011001143337,新規,0,2021-10-08,2021-10-08,株式会社ＭＡＭＡＢＯＯ,,株式会社,東京都,目黒区,東山１丁目６－５－１００１,,13,110,1530043,,,,,,,2021-10-08,1,,,,,ママブー,0
1135,4011003013455,新規,0,2021-10-08,2021-10-08,合同会社オオタキ,,合同会社,東京都,渋谷区,恵比寿２丁目６番２４号アルビレオ４０２,,13,113,1500013,,,,,,,2021-10-08,1,,,,,オオタキ,0
1136,4011003013463,新規,0,2021-10-08,2021-10-08,合同会社ｍａｎｕｒｕ,,合同会社,東京都,渋谷区,代々木５丁目７－５ＰＯＲＴＡＬＰＯＩＮＴＹｏｙｏｇｉ－ｋｏｅｎ４Ｈ,,13,113,1510053,,,,,,,2021-10-08,1,,,,,マヌル,0
1137,4011003013488,新規,0,2021-10-08,2021-10-08,リーベルパートナーズ合同会社,,合同会社,東京都,渋谷区,神南１丁目１２番１８号,,13,113,1500041,,,,,,,2021-10-08,1,,,,,リーベルパートナーズ,0
1145,4011101096526,新規,0,2021-10-08,2021-10-08,株式会社アーガス,,株式会社,東京都,新宿区,新宿１丁目３１番７号新宿御苑ダイカンプラザ１３０６号室,,13,104,1600022,,,,,,,2021-10-08,1,,,,,アーガス,0
1156,4011803004819,新規,0,2021-10-08,2021-10-08,華元商事合同会社,,合同会社,東京都,葛飾区,亀有３丁目１１－１０エミネンス亀有ビル２階,,13,122,1250061,,,,,,,2021-10-08,1,,,,,ハナモトショウジ,0
1160,4012401038390,新規,0,2021-10-08,2021-10-08,株式会社キングハウス,,株式会社,東京都,多摩市,唐木田２丁目２３番地１４パワーク唐木田１階,,13,224,2060035,,,,,,,2021-10-08,1,,,,,,0
1162,4012703002326,新規,0,2021-10-08,2021-10-08,合同会社カンテラ,,合同会社,東京都,小平市,大沼町２丁目２９－６－３０１,,13,211,1870001,,,,,,,2021-10-08,1,,,,,カンテラ,0
1163,4012801021153,新規,0,2021-10-08,2021-10-08,Ｏｆｆｉｃｅ　Ｒｅｉｋａ株式会社,,株式会社,東京都,立川市,柴崎町３丁目１４番６号,,13,202,1900023,,,,,,,2021-10-08,1,,,,,オフィスレイカ,0
1165,4012803002622,新規,0,2021-10-08,2021-10-08,合同会社Ｂｌａｎｋ－４Ｄ,,合同会社,東京都,立川市,羽衣町２丁目８番２号,,13,202,1900021,,,,,,,2021-10-08,1,,,,,ブランクフォーディー,0
1169,4013301048117,新規,0,2021-10-08,2021-10-08,株式会社Ｄｉｃｅ,,株式会社,東京都,豊島区,巣鴨２丁目１番５号ｂｏｘ’ｒｓｕｇａｍｏ４Ｆ,,13,116,1700002,,,,,,,2021-10-08,1,,,,,ダイス,0
1176,4020001143370,新規,0,2021-10-08,2021-10-08,株式会社ＴＰ,,株式会社,神奈川県,川崎市高津区,二子２丁目４番１２号,,14,134,2130002,,,,,,,2021-10-08,1,,,,,ティーピー,0
1177,4020001143395,新規,0,2021-10-08,2021-10-08,株式会社ワイアネック,,株式会社,神奈川県,川崎市中原区,中丸子１３番地１７ザ・コスギタワー１９０１,,14,133,2110012,,,,,,,2021-10-08,1,,,,,ワイアネック,0
1179,4021001074176,新規,0,2021-10-08,2021-10-08,株式会社宮忠,,株式会社,神奈川県,横須賀市,公郷町２丁目１６番地８－４０２,,14,201,2380022,,,,,,,2021-10-08,1,,,,,,0
1184,4021003010971,新規,0,2021-10-08,2021-10-08,合同会社ＧＮＥ,,合同会社,神奈川県,大和市,中央林間西４丁目２７－２３－３,,14,213,2420008,,,,,,,2021-10-08,1,,,,,ジーエヌイー,0
1188,4030001144723,新規,0,2021-10-08,2021-10-08,株式会社ＨＡＬＵ,,株式会社,埼玉県,川越市,岸町２丁目２０番地４１川越ＭＭハイツ３０３,,11,201,3501131,,,,,,,2021-10-08,1,,,,,ハル,0
1189,4030001144756,新規,0,2021-10-08,2021-10-08,株式会社カミ設備工業,,株式会社,埼玉県,三郷市,高州３丁目４２１番地１,,11,237,3410037,,,,,,,2021-10-08,1,,,,,カミセツビコウギョウ,0
1196,4040001120509,新規,0,2021-10-08,2021-10-08,株式会社亀田設備,,株式会社,千葉県,柏市,柏７４６番地４,,12,217,2770005,,,,,,,2021-10-08,1,,,,,カメダセツビ,0
1201,4050001049937,新規,0,2021-10-08,2021-10-08,株式会社ＭＤホールディングス,,株式会社,茨城県,那珂市,額田南郷１０９９番地７,,08,226,3110107,,,,,,,2021-10-08,1,,,,,エムディーホールディングス,0
1203,4050003006119,新規,0,2021-10-08,2021-10-08,シイナ不動産カンパニー合同会社,,合同会社,茨城県,守谷市,野木崎３８８番地,,08,224,3020117,,,,,,,2021-10-08,1,,,,,シイナフドウサンカンパニー,0
1219,4080101022816,新規,0,2021-10-08,2021-10-08,株式会社わたや,,株式会社,静岡県,伊豆の国市,古奈４１２番地の３エムアーク１０５号,,22,225,4102201,,,,,,,2021-10-08,1,,,,,ワタヤ,0
1225,4100001034702,新規,0,2021-10-08,2021-10-08,通信エンジニアリング株式会社,,株式会社,長野県,長野市,金井田６８番地２,,20,201,3812222,,,,,,,2021-10-08,1,,,,,ツウシンエンジニアリング,0
1244,4120001240983,新規,0,2021-10-08,2021-10-08,株式会社ＳＴＭ,,株式会社,大阪府,大阪市西淀川区,福町２丁目３１番１６号,,27,113,5550034,,,,,,,2021-10-08,1,,,,,エスティエム,0
1245,4120001241016,新規,0,2021-10-08,2021-10-08,株式会社Ｂｅｅ,,株式会社,大阪府,大阪市北区,西天満６丁目４番１６－１００７号,,27,127,5300047,,,,,,,2021-10-08,1,,,,,ベー,0
1246,4120001241040,新規,0,2021-10-08,2021-10-08,株式会社Ｋ’ｓコーポレーション,,株式会社,大阪府,大阪市北区,曾根崎新地１丁目１０番１６号永楽ビル地下１階,,27,127,5300002,,,,,,,2021-10-08,1,,,,,ケーズコーポレーション,0
1260,4120905006233,新規,0,2021-10-08,2021-10-08,一般社団法人日本パラリンビューティ協会,,その他の設立登記法人,大阪府,摂津市,千里丘東３丁目８番２１号２階,,27,224,5660011,,,,,,,2021-10-08,1,,,,,ニホンパラリンビューティキョウカイ,0
1261,4122001035257,新規,0,2021-10-08,2021-10-08,株式会社Ｆ．Ｉ．Ｒ．,,株式会社,大阪府,東大阪市,森河内西２丁目２５番２１号,,27,227,5770061,,,,,,,2021-10-08,1,,,,,エフアイアール,0
1271,4140001123294,新規,0,2021-10-08,2021-10-08,株式会社レインズ,,株式会社,兵庫県,尼崎市,宮内町１丁目２番地の１７,,28,202,6600877,,,,,,,2021-10-08,1,,,,,レインズ,0
1272,4140001123311,新規,0,2021-10-08,2021-10-08,株式会社杉浦工業,,株式会社,兵庫県,加古川市,加古川町備後３０５番地の９,,28,210,6750032,,,,,,,2021-10-08,1,,,,,スギウラコウギョウ,0
1273,4140001123352,新規,0,2021-10-08,2021-10-08,ヤマケンｗｏｒｋｓ株式会社,,株式会社,兵庫県,三田市,富士が丘２丁目１７番地５,,28,219,6691547,,,,,,,2021-10-08,1,,,,,ヤマケンワークス,0
1274,4140001123377,新規,0,2021-10-08,2021-10-08,株式会社Ｍ－ＴＥＣＨ,,株式会社,兵庫県,尼崎市,小中島２丁目３番２４号,,28,202,6610972,,,,,,,2021-10-08,1,,,,,エムテック,0
1275,4140001123410,新規,0,2021-10-08,2021-10-08,株式会社ピオネロ,,株式会社,兵庫県,加古川市,加古川町粟津４２０番地の８,,28,210,6750039,,,,,,,2021-10-08,1,,,,,ピオネロ,0
1277,4140003016827,新規,0,2021-10-08,2021-10-08,合同会社ハンドシェイク,,合同会社,兵庫県,神戸市北区,筑紫が丘６丁目９番地の８,,28,109,6511212,,,,,,,2021-10-08,1,,,,,ハンドシェイク,0
1282,4150001025003,新規,0,2021-10-08,2021-10-08,株式会社キトスム,,株式会社,奈良県,吉野郡川上村,大字迫１３３５番地の９,,29,452,6393553,,,,,,,2021-10-08,1,,,,,キトスム,0
1295,4180001148206,新規,0,2021-10-08,2021-10-08,宮里塗装株式会社,,株式会社,愛知県,清須市,西枇杷島町地領１丁目１２番地７,,23,233,4520008,,,,,,,2021-10-08,1,,,,,ミヤザトトソウ,0
1296,4180001148230,新規,0,2021-10-08,2021-10-08,株式会社酒井美装,,株式会社,愛知県,尾張旭市,西山町２丁目７番地２,,23,226,4880824,,,,,,,2021-10-08,1,,,,,サカイビソウ,0
1297,4180001148239,新規,0,2021-10-08,2021-10-08,株式会社Ｓスタイルスタジオ,,株式会社,愛知県,名古屋市名東区,香坂１１１２番地,,23,115,4650007,,,,,,,2021-10-08,1,,,,,エススタイルスタジオ,0
1305,4180003023076,新規,0,2021-10-08,2021-10-08,合同会社ラフレクス,,合同会社,愛知県,名古屋市中区,栄５丁目２６－３９ＧＳ栄ビル３Ｆ,,23,106,4600008,,,,,,,2021-10-08,1,,,,,ラフレクス,0
1308,4180005019469,新規,0,2021-10-08,2021-10-08,社会保険労務士法人こころ労務応援センター,,その他の設立登記法人,愛知県,名古屋市中村区,名駅２丁目４５番１４号東進名駅ビル４階リージャスビジネスセンター４０８,,23,105,4500002,,,,,,,2021-10-08,1,,,,,ココロロウムオウエンセンター,0
1327,4240001058745,新規,0,2021-10-08,2021-10-08,株式会社地域の風,,株式会社,広島県,福山市,木之庄町４丁目５番２５号,,34,207,7200082,,,,,,,2021-10-08,1,,,,,チイキノカゼ,0
1335,4260001036063,新規,0,2021-10-08,2021-10-08,株式会社ｇｏｏｄ　ｕｍｂｒｅｌｌａ,,株式会社,岡山県,加賀郡吉備中央町,井原９２４番地２,,33,681,7092552,,,,,,,2021-10-08,1,,,,,グッドアンブレラ,0
1345,4290001094876,新規,0,2021-10-08,2021-10-08,株式会社セイシュウ,,株式会社,福岡県,古賀市,小竹７７９番地,,40,223,8113135,,,,,,,2021-10-08,1,,,,,セイシュウ,0
1346,4290001094918,新規,0,2021-10-08,2021-10-08,株式会社ｏｆｆｉｃｅ　Ｗｉｓｈ,,株式会社,福岡県,福岡市中央区,荒戸３丁目４番７０－６０１号,,40,133,8100062,,,,,,,2021-10-08,1,,,,,オフィスウィッシュ,0
1347,4290001094967,新規,0,2021-10-08,2021-10-08,株式会社Ｍｉｓｔｅｒ　Ｂｒｏｗｎ,,株式会社,福岡県,福岡市南区,塩原４丁目３番１０号,,40,134,8150032,,,,,,,2021-10-08,1,,,,,ミスターブラウン,0
1358,4290805009476,新規,0,2021-10-08,2021-10-08,特定非営利活動法人Ｓｃｕｏｌａ　ｄｅｉ　Ｂａｍｂｉｎｉ,,その他の設立登記法人,福岡県,北九州市小倉北区,吉野町１２番１９号,,40,106,8020085,,,,,,,2021-10-08,1,,,,,スコーラデバンビーニ,0
1362,4320001018658,新規,0,2021-10-08,2021-10-08,ひびきや株式会社,,株式会社,大分県,由布市,庄内町中１３９番地１,,44,213,8795435,,,,,,,2021-10-08,1,,,,,ヒビキヤ,0
1370,4360003011491,新規,0,2021-10-08,2021-10-08,室川印刷合同会社,,合同会社,沖縄県,沖縄市,胡屋５丁目１１番３号,,47,211,9040021,,,,,,,2021-10-08,1,,,,,ムロカワインサツ,0
1371,4360005006523,新規,0,2021-10-08,2021-10-08,沖縄県ビジネスプランニング事業協同組合,,その他の設立登記法人,沖縄県,浦添市,勢理客４丁目１３番１号浦添市産業振興センター結の街５０５,,47,208,9012122,,,,,,,2021-10-08,1,,,,,オキナワケンビジネスプランニング,0
1372,4370001047685,新規,0,2021-10-08,2021-10-08,株式会社イワマファクトリー,,株式会社,宮城県,仙台市太白区,緑ケ丘４丁目２１番１１号,,04,104,9820021,,,,,,,2021-10-08,1,,,,,イワマファクトリー,0
1376,4370003005427,新規,0,2021-10-08,2021-10-08,風の沢合同会社,,合同会社,宮城県,栗原市,一迫片子沢外の沢１１番地,,04,213,9872302,,,,,,,2021-10-08,1,,,,,カゼノサワ,0
1388,4430001085118,新規,0,2021-10-08,2021-10-08,株式会社ＦＬＩＮＴＺ,,株式会社,北海道,札幌市中央区,南三条西３丁目１番サンスリービル３階,,01,101,0600063,,,,,,,2021-10-08,1,,,,,フリンツ,0
1390,4430003013209,新規,0,2021-10-08,2021-10-08,合同会社Ａ‐ＰＬＡＮＴ,,合同会社,北海道,登別市,美園町４丁目１３番地６,,01,230,0590036,,,,,,,2021-10-08,1,,,,,エープラント,0
1391,4430003013233,新規,0,2021-10-08,2021-10-08,合同会社かえでコンサルティングサービス,,合同会社,北海道,札幌市豊平区,西岡三条５丁目６番３６－１０２号,,01,105,0620033,,,,,,,2021-10-08,1,,,,,カエデコンサルティングサービス,0
1393,4440003001419,新規,0,2021-10-08,2021-10-08,合同会社ＬＩＦＩＸ,,合同会社,北海道,函館市,日吉町４丁目３番１５号,,01,202,0410841,,,,,,,2021-10-08,1,,,,,リフィックス,0
1403,4480001011515,新規,0,2021-10-08,2021-10-08,株式会社ｎａｖｙ,,株式会社,徳島県,徳島市,住吉２丁目９番４８号,,36,201,7700861,,,,,,,2021-10-08,1,,,,,ネイビー,0
1404,4480003001737,新規,0,2021-10-08,2021-10-08,合同会社アーツクリエーション,,合同会社,徳島県,那賀郡那賀町,水崎字水崎原２７番地,,36,368,7715511,,,,,,,2021-10-08,1,,,,,アーツクリエーション,0
1406,4490001010012,新規,0,2021-10-08,2021-10-08,株式会社横田建築,,株式会社,高知県,高知市,長浜４９４８番地,,39,201,7810270,,,,,,,2021-10-08,1,,,,,ヨコタケンチク,0
1419,5010001221614,新規,0,2021-10-08,2021-10-08,日本栄達株式会社,,株式会社,東京都,中央区,東日本橋２丁目２８番５号５０８,,13,102,1030004,,,,,,,2021-10-08,1,,,,,ニホンエイタツ,0
1420,5010001221663,新規,0,2021-10-08,2021-10-08,株式会社ネットテック,,株式会社,東京都,中央区,日本橋兜町１７番２号兜町第６葉山ビル４階,,13,102,1030026,,,,,,,2021-10-08,1,,,,,ネットテック,0
1426,5010005034046,新規,0,2021-10-08,2021-10-08,社会保険労務士法人ＭｉＲＡＩＺ,,その他の設立登記法人,東京都,千代田区,神田須田町１丁目１４番１号,,13,101,1010041,,,,,,,2021-10-08,1,,,,,ミライズ,0
1428,5010103001781,新規,0,2021-10-08,2021-10-08,合同会社Ｅ．Ｃ．Ｌ,,合同会社,東京都,八王子市,長房町１５０１番地６,,13,201,1930824,,,,,,,2021-10-08,1,,,,,イーシーエル,0
1438,5010401163076,新規,0,2021-10-08,2021-10-08,株式会社はらぺこ,,株式会社,東京都,港区,赤坂１丁目８番１号,,13,103,1070052,,,,,,,2021-10-08,1,,,,,ハラペコ,0
1439,5010401163084,新規,0,2021-10-08,2021-10-08,株式会社ＴｏｐＲｉｇｈｔ,,株式会社,東京都,港区,南青山２丁目２番１５号,,13,103,1070062,,,,,,,2021-10-08,1,,,,,トップライト,0
1440,5010401163092,新規,0,2021-10-08,2021-10-08,株式会社ピグレス,,株式会社,東京都,港区,南青山２丁目２番１５号,,13,103,1070062,,,,,,,2021-10-08,1,,,,,ピグレス,0
1442,5010403026248,新規,0,2021-10-08,2021-10-08,合同会社繁田屋,,合同会社,東京都,港区,芝浦１丁目６番４１－４２０号,,13,103,1050023,,,,,,,2021-10-08,1,,,,,シゲタヤ,0
1451,5010803003904,新規,0,2021-10-08,2021-10-08,合同会社ＯＢＮ,,合同会社,東京都,大田区,西蒲田１丁目１７番２３号,,13,111,1440051,,,,,,,2021-10-08,1,,,,,オービーエヌ,0
1455,5010901049592,新規,0,2021-10-08,2021-10-08,株式会社ＦａｔＣｕｔＰｒｅｓｓ,,株式会社,東京都,世田谷区,代田４丁目２９番２号,,13,112,1550033,,,,,,,2021-10-08,1,,,,,ファットカットプレス,0
1456,5010903006864,新規,0,2021-10-08,2021-10-08,ＡＳＡＮＯ合同会社,,合同会社,東京都,世田谷区,玉川２丁目２８番６,,13,112,1580094,,,,,,,2021-10-08,1,,,,,アサノ,0
1463,5011001143220,新規,0,2021-10-08,2021-10-08,株式会社Ｖｏｘｅｌ　Ｗｏｒｋｓ,,株式会社,東京都,渋谷区,代々木１丁目２１－１０インターパーク代々木４階,,13,113,1510053,,,,,,,2021-10-08,1,,,,,ボクセルワークス,0
1464,5011001143303,新規,0,2021-10-08,2021-10-08,生きのびるブックス株式会社,,株式会社,東京都,渋谷区,代官山町４番１号,,13,113,1500034,,,,,,,2021-10-08,1,,,,,イキノビルブックス,0
1465,5011001143336,新規,0,2021-10-08,2021-10-08,ＴＫコンサルティング株式会社,,株式会社,東京都,渋谷区,宇田川町３３番１号グランド渋谷東京ビル９階,,13,113,1500042,,,,,,,2021-10-08,1,,,,,ティーケーコンサルティング,0
1466,5011003013487,新規,0,2021-10-08,2021-10-08,ＵＴＡＴＡ合同会社,,合同会社,東京都,渋谷区,桜丘町２３番１７号シティコート桜丘４０８,,13,113,1500031,,,,,,,2021-10-08,1,,,,,ウタタ,0
1467,5011003013504,新規,0,2021-10-08,2021-10-08,合同会社Ｂ－Ｐｒｏ,,合同会社,東京都,渋谷区,神宮前６丁目２３番４号桑野ビル２階,,13,113,1500001,,,,,,,2021-10-08,1,,,,,ビープロ,0
1468,5011003013529,新規,0,2021-10-08,2021-10-08,合同会社ＡＫＡＭＯＫＵ．,,合同会社,東京都,渋谷区,神宮前６丁目２３番４号桑野ビル２階,,13,113,1500001,,,,,,,2021-10-08,1,,,,,アカモク,0
1470,5011101096533,新規,0,2021-10-08,2021-10-08,株式会社スーテックス,,株式会社,東京都,新宿区,新宿１丁目３６番２号新宿第七葉山ビル３階,,13,104,1600022,,,,,,,2021-10-08,1,,,,,スーテックス,0
1472,5011201023305,新規,0,2021-10-08,2021-10-08,株式会社ＫＯＯ　Ａｓｓｏｃｉａｔｅｓ,,株式会社,東京都,中野区,沼袋２丁目２８番３７号ライブタウン沼袋１１１,,13,114,1650025,,,,,,,2021-10-08,1,,,,,クーアソシエイツ,0
1477,5011401023740,新規,0,2021-10-08,2021-10-08,株式会社Ｓｑｕａｒｅ　Ｗｈｅｅｌ,,株式会社,東京都,板橋区,加賀２丁目１１－１－５０７,,13,119,1730003,,,,,,,2021-10-08,1,,,,,スクエアウィール,0
1479,5011501027369,新規,0,2021-10-08,2021-10-08,Ｔ．Ｋ．ＳＰＩＲＡＬ株式会社,,株式会社,東京都,北区,滝野川７丁目２０番２－９０３号,,13,117,1140023,,,,,,,2021-10-08,1,,,,,ティーケースパイラル,0
1482,5011701024769,新規,0,2021-10-08,2021-10-08,株式会社Ｉｎｔｅｒｉｏｒ　Ｄｅｃｏ,,株式会社,東京都,江戸川区,船堀７丁目２０番１９－１０１号,,13,123,1340091,,,,,,,2021-10-08,1,,,,,インテリアデコ,0
1487,5011801039808,新規,0,2021-10-08,2021-10-08,株式会社Ｔｓｕｂａｋｉ,,株式会社,東京都,葛飾区,東金町１丁目２０番５号ＡＯＩビル５階,,13,122,1250041,,,,,,,2021-10-08,1,,,,,ツバキ,0
1498,5012403005058,新規,0,2021-10-08,2021-10-08,オフィス・レジリエンス合同会社,,合同会社,東京都,調布市,調布ケ丘３丁目６６番地１ライオンズガーデン調布ヶ丘４０４,,13,208,1820021,,,,,,,2021-10-08,1,,,,,オフィスレジリエンス,0
1500,5012801021152,新規,0,2021-10-08,2021-10-08,株式会社アルバ石川,,株式会社,東京都,立川市,高松町２丁目２５番３３号,,13,202,1900011,,,,,,,2021-10-08,1,,,,,アルバイシカワ,0
1513,5020003020609,新規,0,2021-10-08,2021-10-08,合同会社オルフェ,,合同会社,神奈川県,横浜市金沢区,六浦南２丁目９番１４号,,14,108,2360038,,,,,,,2021-10-08,1,,,,,オルフェ,0
1526,5021003010979,新規,0,2021-10-08,2021-10-08,合同会社松本,,合同会社,神奈川県,横須賀市,田浦泉町６番地５,,14,201,2370073,,,,,,,2021-10-08,1,,,,,マツモト,0
1530,5030001144680,新規,0,2021-10-08,2021-10-08,株式会社やはぎ不動産,,株式会社,埼玉県,川口市,鳩ヶ谷本町４丁目７番１８号,,11,203,3340002,,,,,,,2021-10-08,1,,,,,ヤハギフドウサン,0
1531,5030001144697,新規,0,2021-10-08,2021-10-08,株式会社Ｓｍｉｌｅ　Ｍａｋｅｒ,,株式会社,埼玉県,深谷市,西島町２丁目１番地８,,11,218,3660824,,,,,,,2021-10-08,1,,,,,スマイルメーカー,0
1532,5030001144722,新規,0,2021-10-08,2021-10-08,株式会社ＴＯ　ＬＩＮＫ,,株式会社,埼玉県,白岡市,西６丁目２番９,,11,246,3490205,,,,,,,2021-10-08,1,,,,,トゥリンク,0
1533,5030001144747,新規,0,2021-10-08,2021-10-08,株式会社ＮｅｘｔＦｌｏｏｒ,,株式会社,埼玉県,草加市,青柳４丁目３５番１３号,,11,221,3400002,,,,,,,2021-10-08,1,,,,,ネクストフロアー,0
1540,5040001120499,新規,0,2021-10-08,2021-10-08,株式会社ＭＯコンサル,,株式会社,千葉県,松戸市,上矢切１４１３番地の２,,12,207,2710094,,,,,,,2021-10-08,1,,,,,エムオーコンサル,0
1541,5040001120508,新規,0,2021-10-08,2021-10-08,株式会社Ｐｒｏｆｉ,,株式会社,千葉県,柏市,若柴１７８番地４柏の葉キャンパス１４８街区ショップ＆オフィス棟６階,,12,217,2770871,,,,,,,2021-10-08,1,,,,,プロフィ,0
1542,5040001120516,新規,0,2021-10-08,2021-10-08,株式会社Ｊ．Ｐプランニング,,株式会社,千葉県,柏市,篠籠田１３３６番地１２,,12,217,2770862,,,,,,,2021-10-08,1,,,,,ジェイピープランニング,0
1545,5040003018691,新規,0,2021-10-08,2021-10-08,アーヴォ合同会社,,合同会社,千葉県,千葉市花見川区,千種町１０９番地２,,12,102,2620012,,,,,,,2021-10-08,1,,,,,アーヴォ,0
1546,5040003018709,新規,0,2021-10-08,2021-10-08,合同会社清和,,合同会社,千葉県,浦安市,弁天１丁目２３番１－７０７号,,12,227,2790026,,,,,,,2021-10-08,1,,,,,セイワ,0
1555,5060005009910,新規,0,2021-10-08,2021-10-08,医療法人百生会,,その他の設立登記法人,栃木県,宇都宮市,竹林町字高田８７７番地１,,09,201,3210974,,,,,,,2021-10-08,1,,,,,ヒャクセイカイ,0
1565,5080101022807,新規,0,2021-10-08,2021-10-08,株式会社昇出,,株式会社,静岡県,富士市,今泉３０４５番地の１,,22,210,4170001,,,,,,,2021-10-08,1,,,,,ショウスイ,0
1577,5100002039294,新規,0,2021-10-08,2021-10-08,有限会社竜東建設,,有限会社,長野県,下伊那郡天龍村,平岡５９１番地,,20,413,3991201,,,,,,,2021-10-08,1,,,,,リュウトウケンセツ,0
1588,5120001240974,新規,0,2021-10-08,2021-10-08,株式会社Ｓ＆Ｋ,,株式会社,大阪府,大阪市北区,芝田２丁目８－１１共栄ビル３Ｆ,,27,127,5300012,,,,,,,2021-10-08,1,,,,,エスアンドケー,0
1589,5120001240990,新規,0,2021-10-08,2021-10-08,株式会社カミテック,,株式会社,大阪府,大阪市阿倍野区,阪南町１丁目２７番２号昭和町ビル７階,,27,119,5450021,,,,,,,2021-10-08,1,,,,,カミテック,0
1590,5120001241015,新規,0,2021-10-08,2021-10-08,株式会社Ｆｉｎｄｇｏｏｄ,,株式会社,大阪府,大阪市住吉区,千躰１丁目４番７号,,27,120,5580047,,,,,,,2021-10-08,1,,,,,ファインドグッド,0
1591,5120001241056,新規,0,2021-10-08,2021-10-08,株式会社Ｓｏｕｇａｗａ,,株式会社,大阪府,大阪市西区,南堀江２丁目３番２７－３０５号,,27,106,5500015,,,,,,,2021-10-08,1,,,,,ソウガワ,0
1593,5120003020383,新規,0,2021-10-08,2021-10-08,合同会社ＭＯＯＮ,,合同会社,大阪府,大阪市浪速区,日本橋東２丁目４番１１号,,27,111,5560006,,,,,,,2021-10-08,1,,,,,ムーン,0
1597,5120103004385,新規,0,2021-10-08,2021-10-08,合同会社Ｌｉｇｈｔ－ｇｒｅｅｎ,,合同会社,大阪府,河内長野市,加賀田４３５番地の１３,,27,216,5860071,,,,,,,2021-10-08,1,,,,,ライトグリーン,0
1605,5122001035256,新規,0,2021-10-08,2021-10-08,株式会社ＭＯＨＡＭＥＤ　ＥＬＡＳＨＲＡＭ,,株式会社,大阪府,八尾市,沼１丁目３７番地の３フロム八尾２０３号,,27,212,5810036,,,,,,,2021-10-08,1,,,,,モハメドエラシュラム,0
1608,5130001070306,新規,0,2021-10-08,2021-10-08,株式会社横山建装,,株式会社,京都府,京都市右京区,太秦西野町８番地２７,,26,108,6168156,,,,,,,2021-10-08,1,,,,,ヨコヤマケンソウ,0
1619,5140001123269,新規,0,2021-10-08,2021-10-08,株式会社Ｆｒｅｅｎｙ,,株式会社,兵庫県,尼崎市,南塚口町２丁目５番８号,,28,202,6610012,,,,,,,2021-10-08,1,,,,,フリーニー,0
1620,5140001123293,新規,0,2021-10-08,2021-10-08,吉岡建築株式会社,00124498,株式会社,兵庫県,神戸市西区,岩岡町古郷１２４０番地の１,,28,111,6512404,,,,,,,2021-10-08,1,,,,,ヨシオカケンチク,0
1621,5140001123319,新規,0,2021-10-08,2021-10-08,株式会社アスレチック,,株式会社,兵庫県,西宮市,甲陽園西山町１番６１号,,28,204,6620017,,,,,,,2021-10-08,1,,,,,アスレチック,0
1622,5140001123343,新規,0,2021-10-08,2021-10-08,株式会社フジワラオートモービル,,株式会社,兵庫県,加古郡稲美町,加古３６５３番地の３,,28,381,6751105,,,,,,,2021-10-08,1,,,,,フジワラオートモービル,0
1623,5140001123368,新規,0,2021-10-08,2021-10-08,株式会社ビーデンス,,株式会社,兵庫県,神戸市須磨区,若木町３丁目２番９号,,28,107,6540014,,,,,,,2021-10-08,1,,,,,ビーデンス,0
1624,5140001123376,新規,0,2021-10-08,2021-10-08,株式会社アークテック,,株式会社,兵庫県,神戸市長田区,大塚町一丁目８番１１－４０５号,00124501,28,106,6530000,,,,,,,2021-10-08,1,,,,,アークテック,0
1625,5140001123401,新規,0,2021-10-08,2021-10-08,株式会社ａｌｂｅｒｏ３９,,株式会社,兵庫県,たつの市,神岡町沢田９１５番地５,,28,229,6794116,,,,,,,2021-10-08,1,,,,,アルベロサンキュウ,0
1628,5140003016818,新規,0,2021-10-08,2021-10-08,合同会社セレニティー,,合同会社,兵庫県,西宮市,門戸東町３番５７号モンディパレス２Ｆ,,28,204,6620824,,,,,,,2021-10-08,1,,,,,セレニティー,0
1632,5150001025002,新規,0,2021-10-08,2021-10-08,株式会社Ｗｉｌｌ,,株式会社,奈良県,香芝市,別所９３８番地１３,,29,210,6390224,,,,,,,2021-10-08,1,,,,,ウィル,0
1633,5150003002511,新規,0,2021-10-08,2021-10-08,合同会社エンターパラダイス,,合同会社,奈良県,生駒市,東生駒１丁目３７１,,29,209,6300213,,,,,,,2021-10-08,1,,,,,エンターパラダイス,0
1642,5180001148080,新規,0,2021-10-08,2021-10-08,株式会社松下釣船,,株式会社,愛知県,知多郡南知多町,大字師崎字天神山１７番地の３,,23,445,4703503,,,,,,,2021-10-08,1,,,,,マツシタツリブネ,0
1643,5180001148106,新規,0,2021-10-08,2021-10-08,株式会社中古でいいじゃん,,株式会社,愛知県,名古屋市中区,大須１丁目７番１４号パークＩＭビル２Ｆ,,23,106,4600011,,,,,,,2021-10-08,1,,,,,チュウコデイイジャン,0
1644,5180003023059,新規,0,2021-10-08,2021-10-08,バイオマスエナジー田原白浜合同会社,,合同会社,愛知県,名古屋市熱田区,桜田町１９番１８号,,23,109,4560004,,,,,,,2021-10-08,1,,,,,バイオマスエナジータハラシラハマ,0
1655,5200003005343,新規,0,2021-10-08,2021-10-08,セルフ商事合同会社,,合同会社,岐阜県,大垣市,熊野町１１８１番地,,21,202,5030032,,,,,,,2021-10-08,1,,,,,セルフショウジ,0
1659,5210005009993,新規,0,2021-10-08,2021-10-08,医療法人丈久会,,その他の設立登記法人,福井県,小浜市,大手町７番３号,,18,204,9170078,,,,,,,2021-10-08,1,,,,,ジョウキュウカイ,0
1660,5220001001920,新規,0,2021-10-08,2021-10-08,上山建設株式会社,,株式会社,石川県,金沢市,緑が丘６番１５号,,17,201,9218117,,,,,,,2021-10-08,1,,,,,ウエヤマケンセツ,0
1662,5220001024450,新規,0,2021-10-08,2021-10-08,株式会社北國フィナンシャルホールディングス,,株式会社,石川県,金沢市,広岡２丁目１２番６号,,17,201,9200031,,,,,,,2021-10-08,1,,,,,ホッコクフィナンシャルホールディングス,0
1672,5240001058728,新規,0,2021-10-08,2021-10-08,株式会社日章自動車,,株式会社,広島県,尾道市,高須町５４８９番地,,34,205,7290141,,,,,,,2021-10-08,1,,,,,ニッショウジドウシャ,0
1683,5290001094850,新規,0,2021-10-08,2021-10-08,株式会社翔電,,株式会社,福岡県,飯塚市,下三緒１７１番地１５,,40,205,8200012,,,,,,,2021-10-08,1,,,,,ショウデン,0
1684,5290001094891,新規,0,2021-10-08,2021-10-08,株式会社エー・アール・ティ,,株式会社,福岡県,福岡市南区,老司１丁目１７番１９－１Ｆ,,40,134,8111346,,,,,,,2021-10-08,1,,,,,エーアールティ,0
1685,5290001094941,新規,0,2021-10-08,2021-10-08,株式会社ＢＩＺＬＡＢ,,株式会社,福岡県,福岡市博多区,博多駅東２丁目５－１９サンライフ第３ビル５階,,40,132,8120013,,,,,,,2021-10-08,1,,,,,ビズラボ,0
1694,5330001029059,新規,0,2021-10-08,2021-10-08,株式会社エンパサイズ,,株式会社,熊本県,阿蘇市,一の宮町宮地５６４４番地５０,,43,214,8692612,,,,,,,2021-10-08,1,,,,,エンパサイズ,0
1706,5350001017342,新規,0,2021-10-08,2021-10-08,株式会社ＷＥＳＴＡＩＲ,,株式会社,宮崎県,宮崎市,吉村町曽師中甲３０９７番地２イルパラッツォ・ソシ１０５号,,45,201,8800841,,,,,,,2021-10-08,1,,,,,ウエストエアー,0
1709,5350003003943,新規,0,2021-10-08,2021-10-08,合同会社脱兎コンサルティング,,合同会社,宮崎県,宮崎市,大島町馬場尻１８８７番１５,,45,201,8800824,,,,,,,2021-10-08,1,,,,,ダットコンサルティング,0
1710,5360001029460,新規,0,2021-10-08,2021-10-08,株式会社ＧＲＥＥＮ,,株式会社,沖縄県,名護市,宇茂佐の森２丁目１４番地２,,47,209,9050009,,,,,,,2021-10-08,1,,,,,グリーン,0
1711,5360003011490,新規,0,2021-10-08,2021-10-08,合同会社アクティブ,,合同会社,沖縄県,那覇市,宇栄原２丁目７番１号,,47,201,9010153,,,,,,,2021-10-08,1,,,,,アクティブ,0
1714,5370001047676,新規,0,2021-10-08,2021-10-08,株式会社Ｒｅ’ａｌｌ,,株式会社,宮城県,石巻市,羽黒町２丁目４番１号,,04,202,9860831,,,,,,,2021-10-08,1,,,,,リオール,0
1715,5370001047684,新規,0,2021-10-08,2021-10-08,ＴＡＫＡＳＥ株式会社,,株式会社,宮城県,石巻市,鹿又字梅木屋敷２６番地１,,04,202,9861111,,,,,,,2021-10-08,1,,,,,タカセ,0
1716,5370003005434,新規,0,2021-10-08,2021-10-08,合同会社アレンジメント東北,,合同会社,宮城県,仙台市宮城野区,福田町２丁目１６番２１号,,04,102,9830023,,,,,,,2021-10-08,1,,,,,アレンジメントトウホク,0
1733,5430001085075,新規,0,2021-10-08,2021-10-08,株式会社匠家ワイズ,,株式会社,北海道,岩見沢市,栄町７丁目３４番地,,01,210,0680821,,,,,,,2021-10-08,1,,,,,タクミヤワイズ,0
1734,5430001085100,新規,0,2021-10-08,2021-10-08,モーグ株式会社,,株式会社,北海道,札幌市東区,北十一条東６丁目１番７８号,,01,103,0650011,,,,,,,2021-10-08,1,,,,,モーグ,0
1735,5430001085141,新規,0,2021-10-08,2021-10-08,株式会社ＲＥＮＡＴＵＳ,,株式会社,北海道,札幌市中央区,南八条西７丁目１０３３番地１５ドミ山鼻八条３０７号,,01,101,0640808,,,,,,,2021-10-08,1,,,,,レナトス,0
1737,5430003013224,新規,0,2021-10-08,2021-10-08,ＫＴＬ合同会社,,合同会社,北海道,札幌市中央区,南一条西９丁目９番地ビッグパレス南１条４０７号,,01,101,0600061,,,,,,,2021-10-08,1,,,,,ケーティーエル,0
1738,5430003013232,新規,0,2021-10-08,2021-10-08,合同会社メタルプロダクト,,合同会社,北海道,札幌市東区,北四十条東８丁目３番２２号,,01,103,0070840,,,,,,,2021-10-08,1,,,,,メタルプロダクト,0
1754,5480001011514,新規,0,2021-10-08,2021-10-08,株式会社鳴門アスリートフーズ,,株式会社,徳島県,板野郡北島町,中村字東堤ノ内６番地９,,36,402,7710203,,,,,,,2021-10-08,1,,,,,ナルトアスリートフーズ,0
1755,5480003001736,新規,0,2021-10-08,2021-10-08,合同会社Ｆｏｕｒｓ,,合同会社,徳島県,徳島市,渋野町日開谷３９番地２号,,36,201,7714267,,,,,,,2021-10-08,1,,,,,,0
1761,5700150105184,新規,0,2021-10-08,2021-10-08,湯舟区地縁団体,,その他,静岡県,伊豆市,修善寺２８２３番地,,22,222,4102416,,,,,,,2021-10-08,1,,,,,ユブネクチエンダンタイ,0
1766,6010001221588,新規,0,2021-10-08,2021-10-08,株式会社ｖｉｖｉＯＮ,,株式会社,東京都,千代田区,神田練塀町３００番地,,13,101,1010022,,,,,,,2021-10-08,1,,,,,ヴィヴィオン,0
1775,6010401163026,新規,0,2021-10-08,2021-10-08,ベストホールディングス株式会社,,株式会社,東京都,港区,新橋５丁目１４番４号,,13,103,1050004,,,,,,,2021-10-08,1,,,,,ベストホールディングス,0
1776,6010401163083,新規,0,2021-10-08,2021-10-08,株式会社Ａｋｉｎａｉ　Ｔｅｃｈｎｏｌｏｇｉｅｓ,,株式会社,東京都,港区,南青山２丁目２番１５号ウィン青山９４２,,13,103,1070062,,,,,,,2021-10-08,1,,,,,アキナイテクノロジーズ,0
1778,6010403026263,新規,0,2021-10-08,2021-10-08,合同会社Ｈｅａｒｔｙ,,合同会社,東京都,港区,西麻布２丁目２４番３１号オープンレジデンシア表参道ｅｓｔ,,13,103,1060031,,,,,,,2021-10-08,1,,,,,ハーティー,0
1782,6010501047921,新規,0,2021-10-08,2021-10-08,株式会社Ｓｅｅｍｓ,,株式会社,東京都,台東区,台東３丁目１３番５号ＧＴビル１０１,,13,106,1100016,,,,,,,2021-10-08,1,,,,,シームス,0
1802,6010901049600,新規,0,2021-10-08,2021-10-08,グリーンバックス株式会社,,株式会社,東京都,世田谷区,世田谷２丁目１８番７号カルムフォーレ３０２,,13,112,1540017,,,,,,,2021-10-08,1,,,,,グリーンバックス,0
1807,6011001143005,新規,0,2021-10-08,2021-10-08,つなぐコーポレーション株式会社,,株式会社,東京都,目黒区,上目黒３丁目１８番２号,,13,110,1530051,,,,,,,2021-10-08,1,,,,,ツナグコーポレーション,0
1808,6011001143038,新規,0,2021-10-08,2021-10-08,株式会社ＫＡＮＡＫＯ　ＳＡＫＡＩ,,株式会社,東京都,目黒区,五本木２丁目１番１０号ＦＡＩＲＷＩＮＤ－３０２,,13,110,1530053,,,,,,,2021-10-08,1,,,,,カナコサカイ,0
1809,6011001143302,新規,0,2021-10-08,2021-10-08,株式会社Ｄｅｓｉｇｎ　Ａ　Ｐｌｕｓ,,株式会社,東京都,渋谷区,渋谷２丁目１９番１５号宮益坂ビルディング６０９,,13,113,1500002,,,,,,,2021-10-08,1,,,,,デザインエープラス,0
1810,6011003013511,新規,0,2021-10-08,2021-10-08,合同会社リンク,,合同会社,東京都,渋谷区,渋谷１丁目８番５号,,13,113,1500002,,,,,,,2021-10-08,1,,,,,リンク,0
1811,6011005009243,新規,0,2021-10-08,2021-10-08,一般社団法人日本シュガーアートドール協会,,その他の設立登記法人,東京都,渋谷区,神宮前５丁目１３番１６号,,13,113,1500001,,,,,,,2021-10-08,1,,,,,ニホンシュガーアートドールキョウカイ,0
1820,6011101096466,新規,0,2021-10-08,2021-10-08,株式会社メディアーノ,,株式会社,東京都,新宿区,西新宿３丁目２０番２号,,13,104,1600023,,,,,,,2021-10-08,1,,,,,メディアーノ,0
1821,6011201023295,新規,0,2021-10-08,2021-10-08,株式会社Ｙ－ｄｏ,,株式会社,東京都,中野区,江古田３丁目５番１２号,,13,114,1650022,,,,,,,2021-10-08,1,,,,,ワイドー,0
1822,6011201023304,新規,0,2021-10-08,2021-10-08,株式会社笑福デザイン,,株式会社,東京都,中野区,中央２丁目５５番１２号,,13,114,1640011,,,,,,,2021-10-08,1,,,,,ショウフクデザイン,0
1828,6011501027368,新規,0,2021-10-08,2021-10-08,株式会社ＣＫプランニング,,株式会社,東京都,荒川区,西尾久６丁目３２番１２号,,13,118,1160011,,,,,,,2021-10-08,1,,,,,シーケープランニング,0
1830,6011601025445,新規,0,2021-10-08,2021-10-08,株式会社シダーブックペイント,,株式会社,東京都,練馬区,田柄４丁目５番１９号,,13,120,1790073,,,,,,,2021-10-08,1,,,,,シダーブックペイント,0
1834,6011801039757,新規,0,2021-10-08,2021-10-08,株式会社ＱＵＥＥＮ’Ｓ,,株式会社,東京都,葛飾区,高砂７丁目３番２５号メゾン八千代１０１,,13,122,1250054,,,,,,,2021-10-08,1,,,,,クイーンズ,0
1835,6011801039807,新規,0,2021-10-08,2021-10-08,株式会社ＡＭＮ,,株式会社,東京都,足立区,皿沼１丁目１４－１３－３０３,,13,121,1230862,,,,,,,2021-10-08,1,,,,,エーエムエヌ,0
1836,6012301012741,新規,0,2021-10-08,2021-10-08,株式会社ジョン,,株式会社,東京都,町田市,木曽西１丁目３番３２号,,13,209,1940037,,,,,,,2021-10-08,1,,,,,ジョン,0
1842,6012801021143,新規,0,2021-10-08,2021-10-08,株式会社ＭＭＫ立川,,株式会社,東京都,国立市,中１丁目５番地の１６０,,13,215,1860004,,,,,,,2021-10-08,1,,,,,エムエムケータチカワ,0
1845,6013301048115,新規,0,2021-10-08,2021-10-08,株式会社Ｒａｉｎｂｏｗ,,株式会社,東京都,豊島区,池袋２丁目３６番１号ＩＮＦＩＮＩＴＹ・ＩＫＥＢＵＫＵＲＯ８階,,13,116,1710014,,,,,,,2021-10-08,1,,,,,レインボー,0
1856,6020001143377,新規,0,2021-10-08,2021-10-08,株式会社清人,,株式会社,神奈川県,横浜市都筑区,茅ケ崎東５丁目６番８号,,14,118,2240033,,,,,,,2021-10-08,1,,,,,キヨト,0
1858,6020003020616,新規,0,2021-10-08,2021-10-08,ＣＨＡＲＭＢＯＹ合同会社,,合同会社,神奈川県,川崎市川崎区,藤崎４丁目３０－１,,14,131,2100804,,,,,,,2021-10-08,1,,,,,チャームボーイ,0
1859,6020005015226,新規,0,2021-10-08,2021-10-08,東日本専門工事協同組合,,その他の設立登記法人,神奈川県,横浜市保土ケ谷区,岩井町３３番地１,,14,106,2400023,,,,,,,2021-10-08,1,,,,,ヒガシニホンセンモンコウジ,0
1863,6021001074166,新規,0,2021-10-08,2021-10-08,株式会社スローテック,,株式会社,神奈川県,鎌倉市,笛田４丁目１３番４号,,14,204,2480027,,,,,,,2021-10-08,1,,,,,スローテック,0
1864,6021001074174,新規,0,2021-10-08,2021-10-08,株式会社山建商,,株式会社,神奈川県,相模原市中央区,南橋本３丁目４番１号,,14,152,2520253,,,,,,,2021-10-08,1,,,,,ヤマケンショウ,0
1865,6021001074182,新規,0,2021-10-08,2021-10-08,株式会社Ｃｈｉｌｄｈｏｏｄ,,株式会社,神奈川県,綾瀬市,小園９２３－１,,14,218,2521121,,,,,,,2021-10-08,1,,,,,チャイルドフッド,0
1869,6021003010978,新規,0,2021-10-08,2021-10-08,合同会社ＳＴＥＰ　ＦＯＲＷＡＲＤ,,合同会社,神奈川県,鎌倉市,御成町１１－２ヤノヤビル２階,,14,204,2480012,,,,,,,2021-10-08,1,,,,,ステップフォワード,0
1880,6030003018089,新規,0,2021-10-08,2021-10-08,合同会社ガレージオートユー,,合同会社,埼玉県,越谷市,東町５丁目１１８番地,,11,222,3430826,,,,,,,2021-10-08,1,,,,,ガレージオートユー,0
1881,6030003018097,新規,0,2021-10-08,2021-10-08,エヌエフティアート合同会社,,合同会社,埼玉県,川口市,飯塚２丁目１－３９,,11,203,3320023,,,,,,,2021-10-08,1,,,,,エヌエフティアート,0
1899,6070005009909,新規,0,2021-10-08,2021-10-08,社会保険労務士法人冨労務管理事務所,,その他の設立登記法人,群馬県,館林市,富士見町５番３０号,,10,207,3740027,,,,,,,2021-10-08,1,,,,,トミロウムカンリジムショ,0
1903,6080003002658,新規,0,2021-10-08,2021-10-08,さくらモータース合同会社,,合同会社,静岡県,静岡市葵区,駒形通２丁目２番８号,,22,101,4200042,,,,,,,2021-10-08,1,,,,,サクラモータース,0
1905,6080101022806,新規,0,2021-10-08,2021-10-08,株式会社ａｉｍ－ｄｅｓｉｇｎ,,株式会社,静岡県,富士宮市,光町８番８号,,22,207,4180054,,,,,,,2021-10-08,1,,,,,アイムデザイン,0
1909,6100001034683,新規,0,2021-10-08,2021-10-08,株式会社Ｓｈｉｎａｎｏｗａ,,株式会社,長野県,佐久市,佐久平駅北３番地４セピア１Ａ,,20,217,3850027,,,,,,,2021-10-08,1,,,,,シナノワ,0
1923,6120001241039,新規,0,2021-10-08,2021-10-08,株式会社Ｄ＆Ｋ,,株式会社,大阪府,寝屋川市,高柳５丁目２８番３号（１０１号）,,27,215,5720051,,,,,,,2021-10-08,1,,,,,ディーアンドケー,0
1924,6120001241055,新規,0,2021-10-08,2021-10-08,株式会社Ｓｅｎｓｈｉｋｉ,,株式会社,大阪府,大阪市天王寺区,四天王寺１丁目５番４３－１７０２号,,27,109,5430051,,,,,,,2021-10-08,1,,,,,センシキ,0
1927,6120003020382,新規,0,2021-10-08,2021-10-08,合同会社カブキスクエア,,合同会社,大阪府,大阪市阿倍野区,播磨町１丁目２０－２３,,27,119,5450022,,,,,,,2021-10-08,1,,,,,カブキスクエア,0
1928,6120005022542,新規,0,2021-10-08,2021-10-08,社会保険労務士法人ＨＲ．Ａ,,その他の設立登記法人,大阪府,大阪市北区,梅田１丁目１１番４号大阪駅前第４ビル９階９２３－１３０１号,,27,127,5300001,,,,,,,2021-10-08,1,,,,,エイチアールエー,0
1931,6120101064414,新規,0,2021-10-08,2021-10-08,太陽工業株式会社,,株式会社,大阪府,堺市堺区,三条通１番２号,,27,141,5900046,,,,,,,2021-10-08,1,,,,,タイヨウコウギョウ,0
1932,6120101064439,新規,0,2021-10-08,2021-10-08,株式会社アセンス,,株式会社,大阪府,藤井寺市,北岡２丁目７番１４号,,27,226,5830035,,,,,,,2021-10-08,1,,,,,アセンス,0
1933,6120101064455,新規,0,2021-10-08,2021-10-08,株式会社岡之上工業,,株式会社,大阪府,高石市,東羽衣３丁目１０番５－１０３号,,27,225,5920003,,,,,,,2021-10-08,1,,,,,オカノウエコウギョウ,0
1934,6120103004384,新規,0,2021-10-08,2021-10-08,合同会社ＵＮＩＴＥ,,合同会社,大阪府,河内長野市,加賀田７７６番地の５,,27,216,5860071,,,,,,,2021-10-08,1,,,,,ユナイト,0
1940,6120901045019,新規,0,2021-10-08,2021-10-08,株式会社ｃａｌｍ,,株式会社,大阪府,豊中市,西緑丘３丁目１番３７号,,27,203,5600005,,,,,,,2021-10-08,1,,,,,カーム,0
1941,6120901045035,新規,0,2021-10-08,2021-10-08,株式会社える,,株式会社,大阪府,池田市,住吉１丁目１１番５－Ａ号（１０２）,,27,204,5630033,,,,,,,2021-10-08,1,,,,,エル,0
1944,6122001035255,新規,0,2021-10-08,2021-10-08,株式会社価値創造,,株式会社,大阪府,八尾市,中田３丁目１２番地,,27,212,5810014,,,,,,,2021-10-08,1,,,,,カチソウゾウ,0
1947,6130001070288,新規,0,2021-10-08,2021-10-08,株式会社匠建堂,,株式会社,京都府,亀岡市,＿田野町芦ノ山車谷１番地２,00124500,26,206,6210034,,,,,,,2021-10-08,1,,,,,ショウケンドウ,0
1952,6130005016287,新規,0,2021-10-08,2021-10-08,医療法人大志会,,その他の設立登記法人,京都府,京丹後市,久美浜町７８１番地の２,,26,212,6293410,,,,,,,2021-10-08,1,,,,,タイシカイ,0
1961,6140001123268,新規,0,2021-10-08,2021-10-08,株式会社Ｋ．Ｏテック,,株式会社,兵庫県,姫路市,広畑区蒲田１丁目９４番地１０３,,28,201,6711102,,,,,,,2021-10-08,1,,,,,ケーオーテック,0
1962,6140001123318,新規,0,2021-10-08,2021-10-08,株式会社ＯＨＲ,,株式会社,兵庫県,加古川市,野口町北野５９番地の１ラ・スイート北野１０２号,,28,210,6750011,,,,,,,2021-10-08,1,,,,,オーエイチアール,0
1963,6140001123375,新規,0,2021-10-08,2021-10-08,株式会社ＳＳＺ,,株式会社,兵庫県,豊岡市,日高町浅倉１０１１番地の１,,28,209,6695315,,,,,,,2021-10-08,1,,,,,エスエスゼット,0
1964,6140001123400,新規,0,2021-10-08,2021-10-08,株式会社ＳｕｎＷｅｌｄｉｎｇ,,株式会社,兵庫県,たつの市,神岡町西横内６９番地１,,28,229,6794107,,,,,,,2021-10-08,1,,,,,サンウェルディング,0
1966,6140003016833,新規,0,2021-10-08,2021-10-08,ワイネクスト合同会社,,合同会社,兵庫県,姫路市,大津区西土井１０３番地７,,28,201,6711141,,,,,,,2021-10-08,1,,,,,ワイネクスト,0
1967,6150001024993,新規,0,2021-10-08,2021-10-08,株式会社エム,,株式会社,奈良県,高市郡高取町,大字清水谷１１４８番地１,,29,401,6350103,,,,,,,2021-10-08,1,,,,,エム,0
1968,6150001025001,新規,0,2021-10-08,2021-10-08,菊川建設株式会社,,株式会社,奈良県,吉野郡大淀町,大字下渕９１２番地の１,,29,442,6380821,,,,,,,2021-10-08,1,,,,,キクガワケンセツ,0
1982,6180001148154,新規,0,2021-10-08,2021-10-08,ブリッジ株式会社,,株式会社,愛知県,名古屋市西区,上名古屋４丁目６番３０号,,23,104,4510025,,,,,,,2021-10-08,1,,,,,ブリッジ,0
1983,6180001148212,新規,0,2021-10-08,2021-10-08,ＫＵＷＡＨＡＲＡスポーツサービス株式会社,,株式会社,愛知県,稲沢市,大矢町大矢田３２番地,,23,220,4928412,,,,,,,2021-10-08,1,,,,,クワハラスポーツサービス,0
1984,6180001148220,新規,0,2021-10-08,2021-10-08,株式会社ＲＩＮＡＴＯ,,株式会社,愛知県,春日井市,惣中町３丁目１９番地,,23,206,4860949,,,,,,,2021-10-08,1,,,,,リナート,0
1985,6180001148229,新規,0,2021-10-08,2021-10-08,ソルティオ株式会社,,株式会社,愛知県,名古屋市中区,丸の内２丁目１７－１３ＮＫ丸の内ビル８Ｆ,,23,106,4600002,,,,,,,2021-10-08,1,,,,,ソルティオ,0
1986,6180001148237,新規,0,2021-10-08,2021-10-08,株式会社全日本プロダクション,,株式会社,愛知県,半田市,白山町１丁目３７番地,,23,205,4750912,,,,,,,2021-10-08,1,,,,,ゼンニホンプロダクション,0
1988,6180003023041,新規,0,2021-10-08,2021-10-08,合同会社ＰＬＵＳ　ＨＵＢ,,合同会社,愛知県,小牧市,中央３丁目１７７番地,,23,219,4850029,,,,,,,2021-10-08,1,,,,,プラスハブ,0
1989,6180003023058,新規,0,2021-10-08,2021-10-08,合同会社ＫＭＡ,,合同会社,愛知県,名古屋市名東区,梅森坂３丁目３４８番地,,23,115,4650065,,,,,,,2021-10-08,1,,,,,ケーエムエー,0
1990,6180003023066,新規,0,2021-10-08,2021-10-08,合同会社白ごはん．ｃｏｍ,,合同会社,愛知県,江南市,古知野町古渡５９番地,,23,217,4838217,,,,,,,2021-10-08,1,,,,,シロゴハンドットコム,0
1991,6180003023074,新規,0,2021-10-08,2021-10-08,合同会社Ａｒｖｅ,,合同会社,愛知県,名古屋市中川区,南脇町１丁目３番地の３,,23,110,4540817,,,,,,,2021-10-08,1,,,,,アルヴ,0
1998,6200001039268,新規,0,2021-10-08,2021-10-08,ｓｕｍｉｄａ－ｄｅｓｉｇｎ株式会社,,株式会社,岐阜県,多治見市,小泉町３丁目１６０番地,,21,204,5070073,,,,,,,2021-10-08,1,,,,,スミダデザイン,0
2001,6200005013260,新規,0,2021-10-08,2021-10-08,一般社団法人岐阜県ラグビーフットボール協会,,その他の設立登記法人,岐阜県,羽島郡岐南町,八剣北４丁目１１０番地,,21,302,5016011,,,,,,,2021-10-08,1,,,,,ギフケンラグビーフットボールキョウカイ,0
2002,6210005009992,新規,0,2021-10-08,2021-10-08,医療法人ＭＤＯ,,その他の設立登記法人,福井県,福井市,大手２丁目３番１号三の丸ビル１階,,18,201,9100005,,,,,,,2021-10-08,1,,,,,エムディーオー,0
2005,6230001019028,新規,0,2021-10-08,2021-10-08,株式会社Ｌｅｇｒａｎ,,株式会社,富山県,富山市,大泉２００番地２７シャルク２０１号,,16,201,9398058,,,,,,,2021-10-08,1,,,,,ルグラン,0
2015,6250001019190,新規,0,2021-10-08,2021-10-08,株式会社クリーンシル,,株式会社,山口県,岩国市,三笠町３丁目８番２１号,,35,208,7400016,,,,,,,2021-10-08,1,,,,,クリーンシル,0
2016,6250005008693,新規,0,2021-10-08,2021-10-08,一般社団法人ＭＡＯ遺品整理協会,,その他の設立登記法人,山口県,熊毛郡田布施町,大字上田布施４３７番地１,,35,343,7421515,,,,,,,2021-10-08,1,,,,,マオイヒンセイリキョウカイ,0
2025,6290001094916,新規,0,2021-10-08,2021-10-08,株式会社ＦｒｅｅＰｌｕｓ,,株式会社,福岡県,福岡市中央区,今泉２丁目３番２２－４０４号,,40,133,8100021,,,,,,,2021-10-08,1,,,,,フリープラス,0
2026,6290001094940,新規,0,2021-10-08,2021-10-08,株式会社ＹＫＣ,,株式会社,福岡県,大野城市,栄町３丁目１番３３号リスクマネジメントビル３Ｆ,,40,219,8160924,,,,,,,2021-10-08,1,,,,,ワイケーシー,0
2031,6290003011662,新規,0,2021-10-08,2021-10-08,エンビロ合同会社,,合同会社,福岡県,福岡市南区,若久６丁目１番２５号,,40,134,8150042,,,,,,,2021-10-08,1,,,,,エンビロ,0
2032,6290003011687,新規,0,2021-10-08,2021-10-08,オリオンコーヒー合同会社,,合同会社,福岡県,福岡市東区,箱崎３丁目２番２３号,,40,131,8120053,,,,,,,2021-10-08,1,,,,,オリオンコーヒー,0
2037,6300001012644,新規,0,2021-10-08,2021-10-08,株式会社Ｋ‐ＳＴＹＬＥ,,株式会社,佐賀県,佐賀市,駅南本町４番２４号スカイアベニュー２Ｆ,,41,201,8400816,,,,,,,2021-10-08,1,,,,,ケースタイル,0
2038,6300001012660,新規,0,2021-10-08,2021-10-08,株式会社Ｃｈｅｒｉｅｎ,,株式会社,佐賀県,鳥栖市,前田町２２６６番地１９,,41,203,8410065,,,,,,,2021-10-08,1,,,,,シェリアン,0
2049,6330001029058,新規,0,2021-10-08,2021-10-08,ゆめあや不動産株式会社,,株式会社,熊本県,菊池郡菊陽町,大字津久礼１７４番地２４号,,43,404,8691101,,,,,,,2021-10-08,1,,,,,ユメアヤフドウサン,0
2061,6360001029451,新規,0,2021-10-08,2021-10-08,株式会社ツアーデザイナーズ,,株式会社,沖縄県,那覇市,久米２丁目３番１５号,,47,201,9000033,,,,,,,2021-10-08,1,,,,,ツアーデザイナーズ,0
2068,6370001047650,新規,0,2021-10-08,2021-10-08,株式会社中央企画,,株式会社,宮城県,大崎市,古川北町１丁目３番１０号,,04,215,9896171,,,,,,,2021-10-08,1,,,,,チュウオウキカク,0
2086,6430001085082,新規,0,2021-10-08,2021-10-08,マルスイホールディングス株式会社,,株式会社,北海道,札幌市中央区,北十二条西２０丁目２番１号,,01,101,0600012,,,,,,,2021-10-08,1,,,,,マルスイホールディングス,0
2087,6430001085132,新規,0,2021-10-08,2021-10-08,株式会社育つ心,,株式会社,北海道,砂川市,西豊沼１４２番地,,01,226,0730148,,,,,,,2021-10-08,1,,,,,ソダツココロ,0
2088,6430001085149,新規,0,2021-10-08,2021-10-08,本野博之会計システムズ株式会社,,株式会社,北海道,苫小牧市,新富町２丁目８番５号,,01,213,0530805,,,,,,,2021-10-08,1,,,,,モトノヒロユキカイケイシステムズ,0
2092,6430003013215,新規,0,2021-10-08,2021-10-08,Ｓｔｏｖｅ合同会社,,合同会社,北海道,札幌市白石区,中央一条６丁目１２番３０号,,01,104,0030011,,,,,,,2021-10-08,1,,,,,ストーブ,0
2093,6430003013231,新規,0,2021-10-08,2021-10-08,ライフデザインクラブ合同会社,,合同会社,北海道,札幌市豊平区,月寒東三条１９丁目１１番１１号,,01,105,0620053,,,,,,,2021-10-08,1,,,,,ライフデザインクラブ,0
2098,6480001011513,新規,0,2021-10-08,2021-10-08,株式会社ヒューマン・トレイン警備保障,,株式会社,徳島県,吉野川市,山川町前川６９番地４,,36,205,7793403,,,,,,,2021-10-08,1,,,,,ヒューマントレインケイビホショウ,0
2101,6480005006864,新規,0,2021-10-08,2021-10-08,医療法人メディカルトラスト,,その他の設立登記法人,徳島県,小松島市,松島町８－２３,,36,203,7730003,,,,,,,2021-10-08,1,,,,,メディカルトラスト,0
2107,6700150104763,新規,0,2021-10-08,2021-09-16,ＪＪ　ＣＡＬＬ’Ｎ,,その他,鹿児島県,鹿児島市,千日町８番１２号第２三木ビル６階,,46,201,8920843,,,,,,,2021-09-16,1,,,,,ジエイジエイコーリン,0
2110,7010001221629,新規,0,2021-10-08,2021-10-08,株式会社Ｌｉｆｉｋａ,,株式会社,東京都,中央区,銀座１丁目１２番４号Ｎ＆Ｅ．ＢＬＤ．７階,,13,102,1040061,,,,,,,2021-10-08,1,,,,,リフィーカ,0
2111,7010001221637,新規,0,2021-10-08,2021-10-08,株式会社ＴＯＣＨＩＯＴＯＭＥ,,株式会社,東京都,文京区,本郷４丁目３６番８－３０６号,,13,105,1130033,,,,,,,2021-10-08,1,,,,,トチオトメ,0
2120,7010101014899,新規,0,2021-10-08,2021-10-08,株式会社東城,,株式会社,東京都,八王子市,三崎町２番１３号前田ビル４０５号,,13,201,1920084,,,,,,,2021-10-08,1,,,,,トウジョウ,0
2131,7010401163025,新規,0,2021-10-08,2021-10-08,株式会社ＭｉＬｅ,,株式会社,東京都,港区,浜松町２丁目２番１５号浜松町ダイヤビル２階,,13,103,1050013,,,,,,,2021-10-08,1,,,,,マイル,0
2132,7010401163066,新規,0,2021-10-08,2021-10-08,株式会社ｃｈｅｋｋ,,株式会社,東京都,港区,白金６丁目５－１,,13,103,1080072,,,,,,,2021-10-08,1,,,,,チェック,0
2133,7010401163082,新規,0,2021-10-08,2021-10-08,株式会社ＪＡＰＥ,,株式会社,東京都,港区,麻布十番３丁目２番７号リゾーム麻布十番７０１,,13,103,1060045,,,,,,,2021-10-08,1,,,,,ジェイプ,0
2134,7010401163090,新規,0,2021-10-08,2021-10-08,株式会社タラントン,,株式会社,東京都,港区,港南２丁目５番３号,,13,103,1080075,,,,,,,2021-10-08,1,,,,,タラントン,0
2135,7010401163099,新規,0,2021-10-08,2021-10-08,株式会社スタディオン,,株式会社,東京都,港区,麻布十番３丁目５番７号麻布カジタ４０５号室,,13,103,1060045,,,,,,,2021-10-08,1,,,,,スタディオン,0
2137,7010403026246,新規,0,2021-10-08,2021-10-08,リテールプランズ合同会社,,合同会社,東京都,港区,虎ノ門１丁目２番４号,,13,103,1050001,,,,,,,2021-10-08,1,,,,,リテールプランズ,0
2138,7010403026287,新規,0,2021-10-08,2021-10-08,エス・シー・アイ２合同会社,,合同会社,東京都,港区,六本木１丁目６番１号泉ガーデンタワー,,13,103,1060032,,,,,,,2021-10-08,1,,,,,エスシーアイツー,0
2145,7010703005965,新規,0,2021-10-08,2021-10-08,合同会社ＳＥＤＡＩ,,合同会社,東京都,品川区,北品川３丁目３番７号ＫＳ０７０－１００１,,13,109,1400001,,,,,,,2021-10-08,1,,,,,セダイ,0
2158,7011001143111,新規,0,2021-10-08,2021-10-08,株式会社ＲｅＬｉｋｅ,,株式会社,東京都,渋谷区,渋谷２丁目１９－１５宮益坂ビルディング６０９,,13,113,1500002,,,,,,,2021-10-08,1,,,,,リライク,0
2159,7011001143136,新規,0,2021-10-08,2021-10-08,株式会社黒野真吾,,株式会社,東京都,渋谷区,神宮前６丁目２３番４号桑野ビル２階,,13,113,1500001,,,,,,,2021-10-08,1,,,,,クロノシンゴ,0
2160,7011001143144,新規,0,2021-10-08,2021-10-08,株式会社ＳＴＲＥＴＣＨ　ＴＯＫＹＯ,,株式会社,東京都,渋谷区,西原３丁目１９－７ラヴィアン吉井２０２号,,13,113,1510066,,,,,,,2021-10-08,1,,,,,ストレッチトウキョウ,0
2161,7011001143284,新規,0,2021-10-08,2021-10-08,株式会社Ｃｒａｖｉｎｇ,,株式会社,東京都,渋谷区,神宮前６丁目２３番４号桑野ビル２階,,13,113,1500001,,,,,,,2021-10-08,1,,,,,クレイビング,0
2162,7011001143334,新規,0,2021-10-08,2021-10-08,株式会社ゴーワック,,株式会社,東京都,渋谷区,恵比寿１丁目１４番６号オーツースリービル５Ｆ,,13,113,1500013,,,,,,,2021-10-08,1,,,,,ゴーワック,0
2170,7011101096531,新規,0,2021-10-08,2021-10-08,株式会社ＤＥＦＯ,,株式会社,東京都,新宿区,大久保１丁目１番１５－２０３号,,13,104,1690072,,,,,,,2021-10-08,1,,,,,デフォ,0
2172,7011103011075,新規,0,2021-10-08,2021-10-08,合同会社ＧｒｏＷｉｎｇ,,合同会社,東京都,新宿区,新宿３丁目１２番４号新宿Ｎタウンプラザ３０９号,,13,104,1600022,,,,,,,2021-10-08,1,,,,,グローウィング,0
2177,7011403003466,新規,0,2021-10-08,2021-10-08,メゾクレア合同会社,,合同会社,東京都,板橋区,南常盤台１丁目１１－６－１０１,,13,119,1740072,,,,,,,2021-10-08,1,,,,,メゾクレア,0
2197,7012301012740,新規,0,2021-10-08,2021-10-08,株式会社ＯＫＥＡＮＯＳ,,株式会社,東京都,町田市,南町田２丁目２番３号,,13,209,1940005,,,,,,,2021-10-08,1,,,,,オケアノス,0
2201,7012701016713,新規,0,2021-10-08,2021-10-08,株式会社結,,株式会社,東京都,東久留米市,浅間町３丁目２番９パレスひばりが丘１０７号,,13,222,2030012,,,,,,,2021-10-08,1,,,,,ユイ,0
2208,7013301048114,新規,0,2021-10-08,2021-10-08,株式会社ＦＪＣ,,株式会社,東京都,豊島区,池袋２丁目２３－４・４０３号室,,13,116,1710014,,,,,,,2021-10-08,1,,,,,エフジェーシー,0
2209,7013401002020,新規,0,2021-10-08,2021-10-08,株式会社中塚工務店,,株式会社,東京都,稲城市,矢野口１７５２番地,,13,225,2060812,,,,,,,2021-10-08,1,,,,,ナカツカコウムテン,0
2216,7020001143285,新規,0,2021-10-08,2021-10-08,株式会社Ｗｉｓｔｅｒｉａ,,株式会社,神奈川県,川崎市中原区,中丸子１３５－２,,14,133,2110012,,,,,,,2021-10-08,1,,,,,ウィステリア,0
2217,7020001143368,新規,0,2021-10-08,2021-10-08,株式会社エル・メディカル,,株式会社,神奈川県,横浜市磯子区,洋光台６丁目２２番２８号,,14,107,2350045,,,,,,,2021-10-08,1,,,,,エルメディカル,0
2218,7020001143384,新規,0,2021-10-08,2021-10-08,株式会社海企画,,株式会社,神奈川県,横浜市西区,楠町１７番１号,,14,103,2200003,,,,,,,2021-10-08,1,,,,,ウミキカク,0
2219,7020001143392,新規,0,2021-10-08,2021-10-08,ブレスワンシステムサービス株式会社,,株式会社,神奈川県,川崎市宮前区,菅生３丁目３５番２０号,,14,136,2160015,,,,,,,2021-10-08,1,,,,,ブレスワンシステムサービス,0
2227,7020003020607,新規,0,2021-10-08,2021-10-08,合同会社ライフプランニング,,合同会社,神奈川県,横浜市神奈川区,白幡南町３４－Ａ２０７,,14,102,2210073,,,,,,,2021-10-08,1,,,,,ライフプランニング,0
2228,7020003020615,新規,0,2021-10-08,2021-10-08,ＢＨＵＰＡＬ　ＣＯＲＰＯＲＡＴＩＯＮ合同会社,,合同会社,神奈川県,横浜市神奈川区,松ケ丘２７番地２０,,14,102,2210843,,,,,,,2021-10-08,1,,,,,ブパルコーポレーション,0
2239,7021003010969,新規,0,2021-10-08,2021-10-08,マリノマ合同会社,,合同会社,神奈川県,横須賀市,秋谷４５４０－１０９,,14,201,2400105,,,,,,,2021-10-08,1,,,,,マリノマ,0
2240,7021003010977,新規,0,2021-10-08,2021-10-08,ＯＨＡＮＡ＆ＣＯ合同会社,,合同会社,神奈川県,大和市,つきみ野１丁目９番地１４,,14,213,2420002,,,,,,,2021-10-08,1,,,,,オハナアンドコー,0
2250,7030001144679,新規,0,2021-10-08,2021-10-08,株式会社ＬＩＮＫＳ,,株式会社,埼玉県,所沢市,緑町４丁目３４番３２号ＨＯＵＳＥ．Ｙ１０２,,11,208,3591111,,,,,,,2021-10-08,1,,,,,リンクス,0
2251,7030001144753,新規,0,2021-10-08,2021-10-08,株式会社オオクマ,,株式会社,埼玉県,八潮市,八潮３丁目１６番地２２,,11,234,3400815,,,,,,,2021-10-08,1,,,,,オオクマ,0
2255,7030003018096,新規,0,2021-10-08,2021-10-08,合同会社Ａｕｂｅｒｇｉｎｅ,,合同会社,埼玉県,川口市,柳崎５丁目４番４号,,11,203,3330861,,,,,,,2021-10-08,1,,,,,オーベルジーヌ,0
2262,7040001120497,新規,0,2021-10-08,2021-10-08,クローバー建築株式会社,,株式会社,千葉県,木更津市,真里谷２５２番地４,,12,206,2920201,,,,,,,2021-10-08,1,,,,,クローバーケンチク,0
2263,7040001120514,新規,0,2021-10-08,2021-10-08,株式会社わかまつ,,株式会社,千葉県,千葉市若葉区,若松町９５１番地１９,,12,104,2640021,,,,,,,2021-10-08,1,,,,,ワカマツ,0
2277,7050001049959,新規,0,2021-10-08,2021-10-08,株式会社Ｓ－ＰＲＯ,,株式会社,茨城県,石岡市,石岡２８０７番地７,,08,205,3150001,,,,,,,2021-10-08,1,,,,,エスプロ,0
2288,7070003004258,新規,0,2021-10-08,2021-10-08,合同会社スタジオアルファ,,合同会社,群馬県,高崎市,上佐野町５７７番地２,,10,202,3700857,,,,,,,2021-10-08,1,,,,,スタジオアルファ,0
2290,7080401025409,新規,0,2021-10-08,2021-10-08,株式会社斉藤＿工,00124508,株式会社,静岡県,御前崎市,佐倉２４１１番地の１,,22,223,4371604,,,,,,,2021-10-08,1,,,,,サイトウテッコウ,0
2305,7100005012775,新規,0,2021-10-08,2021-10-08,社会保険労務士法人傳田・塚田事務所,,その他の設立登記法人,長野県,長野市,三輪６丁目２３番１号,,20,201,3800803,,,,,,,2021-10-08,1,,,,,デンダツカダジムショ,0
2313,7120001240980,新規,0,2021-10-08,2021-10-08,株式会社堀尾商店,,株式会社,大阪府,大阪市西淀川区,佃５丁目５番２０号,,27,113,5550001,,,,,,,2021-10-08,1,,,,,ホリオショウテン,0
2314,7120001241013,新規,0,2021-10-08,2021-10-08,新日本保険流通機構株式会社,,株式会社,大阪府,大阪市此花区,酉島２丁目１番２９号,,27,104,5540051,,,,,,,2021-10-08,1,,,,,シンニホンホケンリュウツウキコウ,0
2319,7120003020381,新規,0,2021-10-08,2021-10-08,合同会社ｉＳＹＳ,,合同会社,大阪府,大阪市北区,豊崎６丁目８番８号コーポ豊崎４０１号室,,27,127,5310072,,,,,,,2021-10-08,1,,,,,アイシス,0
2320,7120005022533,新規,0,2021-10-08,2021-10-08,一般社団法人国際ＳＤＧｓ人財支援協会,,その他の設立登記法人,大阪府,守口市,八雲西町２丁目１０番１５号ヨドガワコーポレーションビル２Ｆ,,27,209,5700006,,,,,,,2021-10-08,1,,,,,コクサイエスディージーズジンザイシエンキョウカイ,0
2323,7120101064454,新規,0,2021-10-08,2021-10-08,株式会社ワープデザイン,,株式会社,大阪府,和泉市,光明台３丁目２８番８号,,27,219,5941111,,,,,,,2021-10-08,1,,,,,ワープデザイン,0
2324,7120103004383,新規,0,2021-10-08,2021-10-08,合同会社スタープラチナ,,合同会社,大阪府,阪南市,尾崎町３丁目１２番３０号,,27,232,5990201,,,,,,,2021-10-08,1,,,,,スタープラチナ,0
2338,7130001070295,新規,0,2021-10-08,2021-10-08,株式会社やまぼうし,,株式会社,京都府,京都市北区,衣笠北高橋町１５番地１,,26,101,6038373,,,,,,,2021-10-08,1,,,,,ヤマボウシ,0
2346,7140001123283,新規,0,2021-10-08,2021-10-08,株式会社Ｒｅ創,,株式会社,兵庫県,淡路市,郡家７１番地７,,28,226,6561511,,,,,,,2021-10-08,1,,,,,リソウ,0
2347,7140001123291,新規,0,2021-10-08,2021-10-08,一心，ｉｓｓｈｉｎ株式会社,,株式会社,兵庫県,姫路市,花田町加納原田９４番地１７,,28,201,6710252,,,,,,,2021-10-08,1,,,,,イッシンイッシン,0
2348,7140001123366,新規,0,2021-10-08,2021-10-08,株式会社ＮＡＲＩＳ,,株式会社,兵庫県,川西市,向陽台３丁目２番地の８０,,28,217,6660115,,,,,,,2021-10-08,1,,,,,ナリス,0
2349,7140001123374,新規,0,2021-10-08,2021-10-08,株式会社自由空間,,株式会社,兵庫県,朝来市,和田山町土田６２９番地９,,28,225,6695241,,,,,,,2021-10-08,1,,,,,ジユウクウカン,0
2350,7140001123399,新規,0,2021-10-08,2021-10-08,株式会社ＷＥＳＴ　ＪＡＰＡＮ,,株式会社,兵庫県,たつの市,揖保川町原４００番地１,,28,229,6711641,,,,,,,2021-10-08,1,,,,,ウエストジャパン,0
2351,7140001123416,新規,0,2021-10-08,2021-10-08,株式会社セレクトトラック,,株式会社,兵庫県,神戸市東灘区,住吉東町１丁目２番１７－２号,,28,101,6580052,,,,,,,2021-10-08,1,,,,,セレクトトラック,0
2352,7140003016824,新規,0,2021-10-08,2021-10-08,合同会社Ｓ．Ｍグループ,,合同会社,兵庫県,神戸市灘区,友田町４丁目２－２１,,28,102,6570035,,,,,,,2021-10-08,1,,,,,エスエムグループ,0
2353,7140003016832,新規,0,2021-10-08,2021-10-08,ｓｔｕｄｉｏ　ｍｕｔｅ合同会社,,合同会社,兵庫県,加古川市,平岡町新在家１丁目２６３－１９テットロージュ・ダイキＡ４０２,,28,210,6750101,,,,,,,2021-10-08,1,,,,,スタジオミュート,0
2354,7150001025000,新規,0,2021-10-08,2021-10-08,株式会社天平旅館,,株式会社,奈良県,奈良市,東向中町９番地,,29,201,6308215,,,,,,,2021-10-08,1,,,,,テンピョウリョカン,0
2366,7180001148054,新規,0,2021-10-08,2021-10-08,株式会社ＨＥＡＴ,,株式会社,愛知県,名古屋市千種区,吹上１丁目２０６番地,,23,101,4640856,,,,,,,2021-10-08,1,,,,,ヒート,0
2367,7180001148079,新規,0,2021-10-08,2021-10-08,株式会社海神丸,,株式会社,愛知県,知多郡南知多町,大字片名字新師崎１９番地の１０,,23,445,4703502,,,,,,,2021-10-08,1,,,,,カイジンマル,0
2368,7180001148129,新規,0,2021-10-08,2021-10-08,株式会社ＣｏｒａｌＴｅｃｈ,,株式会社,愛知県,名古屋市中区,栄３丁目２番３号名古屋日興證券ビル４階,,23,106,4600008,,,,,,,2021-10-08,1,,,,,コーラルテック,0
2369,7180001148137,新規,0,2021-10-08,2021-10-08,中部ユーティリティ株式会社,,株式会社,愛知県,一宮市,平島１丁目１１番地４,,23,203,4910833,,,,,,,2021-10-08,1,,,,,チュウブユーティリティ,0
2370,7180001148203,新規,0,2021-10-08,2021-10-08,株式会社林組,,株式会社,愛知県,春日井市,八田町１丁目１０番地８ル・クプルＣ棟２０１号,,23,206,4860849,,,,,,,2021-10-08,1,,,,,ハヤシグミ,0
2371,7180001148211,新規,0,2021-10-08,2021-10-08,サンレックス株式会社,,株式会社,愛知県,愛知郡東郷町,白鳥３丁目９番地１,,23,302,4700155,,,,,,,2021-10-08,1,,,,,サンレックス,0
2374,7180003023049,新規,0,2021-10-08,2021-10-08,合同会社金城冷機,,合同会社,愛知県,あま市,上萱津薬師３９番地１,,23,237,4901112,,,,,,,2021-10-08,1,,,,,キンジョウレイキ,0
2379,7180301035472,新規,0,2021-10-08,2021-10-08,フェアネス株式会社,,株式会社,愛知県,豊田市,花園町新田４５番地１,,23,211,4730924,,,,,,,2021-10-08,1,,,,,フェアネス,0
2380,7180301035489,新規,0,2021-10-08,2021-10-08,Ｓｈｉｎｂｕｎｃｈａ株式会社,,株式会社,愛知県,豊田市,月見町３丁目３‐２,,23,211,4710033,,,,,,,2021-10-08,1,,,,,シンブンカ,0
2405,7260003000519,新規,0,2021-10-08,2021-10-08,合資会社坂口屋商店,,合資会社,岡山県,倉敷市,船穂町船穂１４８９番地,,33,202,7100261,,,,,,,2021-10-08,1,,,,,,0
2407,7280001008529,新規,0,2021-10-08,2021-10-08,株式会社クークチュール出雲工場,,株式会社,島根県,出雲市,大社町杵築西１９９９番地６,,32,203,6990751,,,,,,,2021-10-08,1,,,,,クークチュールイズモコウジョウ,0
2412,7290001094873,新規,0,2021-10-08,2021-10-08,株式会社ＤＩＳＨ,,株式会社,福岡県,飯塚市,椿１９２番地１,,40,205,8200084,,,,,,,2021-10-08,1,,,,,ディッシュ,0
2413,7290001094907,新規,0,2021-10-08,2021-10-08,株式会社ＡＩＲ　ＰＬＡＮＴ,,株式会社,福岡県,福岡市早良区,原８丁目３６番３１号,,40,137,8140022,,,,,,,2021-10-08,1,,,,,エアープラント,0
2417,7290003011620,新規,0,2021-10-08,2021-10-08,合同会社クインティア,,合同会社,福岡県,福岡市中央区,大宮２丁目５番３号１０－２０３号室,,40,133,8100013,,,,,,,2021-10-08,1,,,,,クインティア,0
2418,7290005018390,新規,0,2021-10-08,2021-10-08,一般社団法人ラブ＆ピース,,その他の設立登記法人,福岡県,福岡市中央区,赤坂２丁目１番１２－１２０１号,,40,133,8100042,,,,,,,2021-10-08,1,,,,,ラブアンドピース,0
2419,7290803003949,新規,0,2021-10-08,2021-10-08,大電爾晃一製作所合同会社,,合同会社,福岡県,北九州市若松区,東二島１丁目９番２１号,,40,103,8080102,,,,,,,2021-10-08,1,,,,,ダイデンジコウカズセイサクショ,0
2428,7330001029057,新規,0,2021-10-08,2021-10-08,株式会社ＶｉＳＡＮＴＥ,,株式会社,熊本県,熊本市中央区,水前寺６丁目１０番４４号水前寺ビル３Ｆ３０１,,43,101,8620950,,,,,,,2021-10-08,1,,,,,ヴィサンテ,0
2434,7340001024156,新規,0,2021-10-08,2021-10-08,福里工務店株式会社,,株式会社,鹿児島県,肝属郡錦江町,馬場１１２５番地１２,,46,490,8932303,,,,,,,2021-10-08,1,,,,,フクザトコウムテン,0
2435,7340005009351,新規,0,2021-10-08,2021-10-08,一般社団法人いきいきライフ協会鹿児島中央,,その他の設立登記法人,鹿児島県,鹿児島市,田上５丁目１５番２号,,46,201,8900034,,,,,,,2021-10-08,1,,,,,イキイキライフキョウカイカゴシマチュウオウ,0
2440,7370001047641,新規,0,2021-10-08,2021-10-08,株式会社スリースター,,株式会社,宮城県,仙台市泉区,紫山３丁目４番地の１１,,04,105,9813205,,,,,,,2021-10-08,1,,,,,スリースター,0
2442,7370005010364,新規,0,2021-10-08,2021-10-08,ＫＯＭＡＣＨＩ社会保険労務士法人,,その他の設立登記法人,宮城県,仙台市青葉区,二日町１３番２６－６０６号ネオハイツ勾当台,,04,101,9800802,,,,,,,2021-10-08,1,,,,,コマチ,0
2446,7380001032246,新規,0,2021-10-08,2021-10-08,株式会社大道技術コンサルタント,,株式会社,福島県,西白河郡矢吹町,弥栄２９８番地,,07,466,9690261,,,,,,,2021-10-08,1,,,,,ダイドウギジュツコンサルタント,0
2457,7430001085081,新規,0,2021-10-08,2021-10-08,株式会社アレックス,,株式会社,北海道,苫小牧市,美原町２丁目２８番２２号,,01,213,0591262,,,,,,,2021-10-08,1,,,,,アレックス,0
2459,7430003013214,新規,0,2021-10-08,2021-10-08,合同会社やまた浦川漁業,,合同会社,北海道,浦河郡浦河町,荻伏町２８４番地の１９,,01,607,0593451,,,,,,,2021-10-08,1,,,,,ヤマタウラカワギョギョウ,0
2460,7430003013239,新規,0,2021-10-08,2021-10-08,合同会社リンクレンタル札幌,,合同会社,北海道,札幌市厚別区,上野幌三条５丁目１番１号モンレーブ厚別サウスウイング１０５号,,01,108,0040033,,,,,,,2021-10-08,1,,,,,リンクレンタルサッポロ,0
2467,7480001011512,新規,0,2021-10-08,2021-10-08,株式会社ピントグラム,,株式会社,徳島県,徳島市,新町橋２丁目１４番地１,,36,201,7700904,,,,,,,2021-10-08,1,,,,,ピントグラム,0
2468,7480005006863,新規,0,2021-10-08,2021-10-08,医療法人きたじま皮フ科,,その他の設立登記法人,徳島県,板野郡北島町,北村字千田ノ木５６番地５,,36,402,7710201,,,,,,,2021-10-08,1,,,,,キタジマヒフカ,0
2471,7700150104804,新規,0,2021-10-08,2021-09-21,ガブリエルガブリエラ,,その他,埼玉県,上尾市,富士見１丁目１６－２富士見団地,,11,219,3620041,,,,,,,2021-09-21,1,,,,,ガブリエルガブリエラ,0
2483,8010001221636,新規,0,2021-10-08,2021-10-08,株式会社ＤＸカルテット,,株式会社,東京都,千代田区,外神田５丁目３番１３号,,13,101,1010021,,,,,,,2021-10-08,1,,,,,ディーエックスカルテット,0
2485,8010003035976,新規,0,2021-10-08,2021-10-08,合同会社Ｓｕｒｆｉｅｅ,,合同会社,東京都,中央区,銀座１丁目２２番１１号銀座大竹ビジデンス２階,,13,102,1040061,,,,,,,2021-10-08,1,,,,,サーフィー,0
2488,8010103001787,新規,0,2021-10-08,2021-10-08,合同会社Ｍａｎｉｆｏｌｄ　Ｄｒａｗｅｒｓ,,合同会社,東京都,八王子市,長房町４６３番地１８,,13,201,1930824,,,,,,,2021-10-08,1,,,,,マニフォールドドロワーズ,0
2502,8010401163024,新規,0,2021-10-08,2021-10-08,株式会社ＩＮＯＰＩＡ,,株式会社,東京都,港区,南青山３丁目１５番９号３階－１８４,,13,103,1070062,,,,,,,2021-10-08,1,,,,,イノピア,0
2503,8010401163032,新規,0,2021-10-08,2021-10-08,ＭＹＳｉｍ株式会社,,株式会社,東京都,港区,元赤坂１丁目１番２号,,13,103,1070051,,,,,,,2021-10-08,1,,,,,マイシム,0
2504,8010401163073,新規,0,2021-10-08,2021-10-08,株式会社ＢＡＬＥＳ,,株式会社,東京都,港区,芝浦３丁目１３番９号藤ビル２Ｆ,,13,103,1080023,,,,,,,2021-10-08,1,,,,,バレス,0
2505,8010401163081,新規,0,2021-10-08,2021-10-08,株式会社日本アクティブワーカーズ,,株式会社,東京都,港区,南青山２丁目２番１５号,,13,103,1070062,,,,,,,2021-10-08,1,,,,,ニホンアクティブワーカーズ,0
2508,8010403026286,新規,0,2021-10-08,2021-10-08,エス・シー・アイ１合同会社,,合同会社,東京都,港区,六本木１丁目６番１号泉ガーデンタワー,,13,103,1060032,,,,,,,2021-10-08,1,,,,,エスシーアイワン,0
2512,8010501047936,新規,0,2021-10-08,2021-10-08,株式会社小蝴蝶彩宝,,株式会社,東京都,台東区,台東３丁目１０番５号藤原ビル５０１,,13,106,1100016,,,,,,,2021-10-08,1,,,,,ショウコチョウサイホウ,0
2523,8010903006861,新規,0,2021-10-08,2021-10-08,合同会社ＨＣＫ,,合同会社,東京都,世田谷区,千歳台６丁目１６番６－５１５号,,13,112,1570071,,,,,,,2021-10-08,1,,,,,エイチシーケー,0
2527,8011001143135,新規,0,2021-10-08,2021-10-08,株式会社Ｇｒａｐｅ,,株式会社,東京都,渋谷区,代々木１丁目２５番５号ＢＩＺＳＭＡＲＴ代々木,,13,113,1510053,,,,,,,2021-10-08,1,,,,,グレープ,0
2528,8011001143201,新規,0,2021-10-08,2021-10-08,株式会社Ｐｅａｋｌｅ,,株式会社,東京都,渋谷区,代々木４丁目２４番１１号クレッセント参宮橋６０１,,13,113,1510053,,,,,,,2021-10-08,1,,,,,ピークル,0
2529,8011001143341,新規,0,2021-10-08,2021-10-08,株式会社ＪＩＫ,,株式会社,東京都,渋谷区,恵比寿南２丁目２０番１４号,,13,113,1500022,,,,,,,2021-10-08,1,,,,,ジェイアイケー,0
2535,8011101096539,新規,0,2021-10-08,2021-10-08,株式会社Ｊａｓｍｉｎｅ,,株式会社,東京都,新宿区,西新宿８丁目１４番１８号,,13,104,1600023,,,,,,,2021-10-08,1,,,,,ジャスミン,0
2538,8011301027228,新規,0,2021-10-08,2021-10-08,株式会社ふじ房,,株式会社,東京都,杉並区,浜田山３丁目１番４号,,13,115,1680065,,,,,,,2021-10-08,1,,,,,フジボウ,0
2539,8011403003465,新規,0,2021-10-08,2021-10-08,合同会社ＯＡＲ,,合同会社,東京都,板橋区,中丸町１２番４－２０１号,,13,119,1730026,,,,,,,2021-10-08,1,,,,,オール,0
2542,8011501027366,新規,0,2021-10-08,2021-10-08,株式会社ｒｅｆｏ・ｔｅｃｈ,,株式会社,東京都,北区,昭和町３丁目９番４号ビスパレスビル１階,,13,117,1140011,,,,,,,2021-10-08,1,,,,,リフォテック,0
2546,8011803004823,新規,0,2021-10-08,2021-10-08,合同会社さくらサービス,,合同会社,東京都,葛飾区,小菅４丁目１８－６,,13,122,1240001,,,,,,,2021-10-08,1,,,,,サクラサービス,0
2547,8012301012731,新規,0,2021-10-08,2021-10-08,株式会社時コーポレーション,,株式会社,東京都,町田市,玉川学園２丁目６番９号レジデンス時３０１号室,,13,209,1940041,,,,,,,2021-10-08,1,,,,,トキコーポレーション,0
2551,8012401038387,新規,0,2021-10-08,2021-10-08,株式会社沼田塗装,,株式会社,東京都,稲城市,東長沼４１０番地の２５,,13,225,2060802,,,,,,,2021-10-08,1,,,,,ヌマタトソウ,0
2552,8012403005063,新規,0,2021-10-08,2021-10-08,合同会社ぽん,,合同会社,東京都,武蔵野市,桜堤１丁目１番６－８０３号,,13,203,1800021,,,,,,,2021-10-08,1,,,,,ポン,0
2553,8012701016712,新規,0,2021-10-08,2021-10-08,株式会社イーエム防災,,株式会社,東京都,東村山市,野口町２丁目２４番地２リヴァージュ静２０６,,13,213,1890022,,,,,,,2021-10-08,1,,,,,イーエムボウサイ,0
2554,8012801021133,新規,0,2021-10-08,2021-10-08,ＳＯＬ株式会社,,株式会社,東京都,東大和市,中央４丁目１０２９番地の４７―１０２,,13,220,2070015,,,,,,,2021-10-08,1,,,,,ソル,0
2555,8012801021158,新規,0,2021-10-08,2021-10-08,株式会社コンノ,,株式会社,東京都,国分寺市,内藤１丁目８番地６９,,13,214,1850033,,,,,,,2021-10-08,1,,,,,コンノ,0
2557,8012803002619,新規,0,2021-10-08,2021-10-08,合同会社くにたちＡ．Ｈ．,,合同会社,東京都,国立市,谷保６８４６番地の１,,13,215,1860011,,,,,,,2021-10-08,1,,,,,クニタチエイエイチ,0
2559,8013301048113,新規,0,2021-10-08,2021-10-08,株式会社食藝飛行,,株式会社,東京都,豊島区,池袋４丁目２６番１１号中本ビル１０２,,13,116,1710014,,,,,,,2021-10-08,1,,,,,ショクゲイヒコウ,0
2560,8013301048121,新規,0,2021-10-08,2021-10-08,株式会社ｅｌｍｉａ,,株式会社,東京都,豊島区,池袋４丁目１５番７号ポナント池袋３０４,,13,116,1710014,,,,,,,2021-10-08,1,,,,,エルミア,0
2567,8020001143318,新規,0,2021-10-08,2021-10-08,株式会社ＴＳＵＢＡＫＩ　ＳＴＵＤＩＯ,,株式会社,神奈川県,横浜市青葉区,奈良町２３４１番地,,14,117,2270036,,,,,,,2021-10-08,1,,,,,ツバキスタジオ,0
2568,8020001143383,新規,0,2021-10-08,2021-10-08,オスローシステム株式会社,,株式会社,神奈川県,横浜市中区,桜木町１丁目１０１番地１クロスゲート７階,,14,104,2310062,,,,,,,2021-10-08,1,,,,,オスローシステム,0
2569,8020001143391,新規,0,2021-10-08,2021-10-08,シンクドームセキュリティ株式会社,,株式会社,神奈川県,横浜市金沢区,東朝比奈１丁目３６番２２号,,14,108,2360033,,,,,,,2021-10-08,1,,,,,シンクドームセキュリティ,0
2574,8020003020606,新規,0,2021-10-08,2021-10-08,合同会社Ｅ－ｈｏｌｉｃ,,合同会社,神奈川県,横浜市中区,矢口台６５番地２１,,14,104,2310831,,,,,,,2021-10-08,1,,,,,イーホリック,0
2575,8020005015224,新規,0,2021-10-08,2021-10-08,一般財団法人旭交通安全協会,,その他の設立登記法人,神奈川県,横浜市旭区,本村町３３番地８,,14,112,2410024,,,,,,,2021-10-08,1,,,,,アサヒコウツウアンゼンキョウカイ,0
2578,8021001074156,新規,0,2021-10-08,2021-10-08,株式会社横浜鉄工,,株式会社,神奈川県,綾瀬市,早川２６４７番地１７,,14,218,2521123,,,,,,,2021-10-08,1,,,,,,0
2579,8021001074180,新規,0,2021-10-08,2021-10-08,株式会社Ｗｏｒｋ　Ｐｅａｃｅ　Ｌｏｇｉｓｔｉｃｓ,,株式会社,神奈川県,相模原市中央区,田名５５９６番地１,,14,152,2520244,,,,,,,2021-10-08,1,,,,,ワークピースロジスティクス,0
2595,8030001144595,新規,0,2021-10-08,2021-10-08,株式会社西川通商,,株式会社,埼玉県,所沢市,大字南永井８６７番地１,,11,208,3590011,,,,,,,2021-10-08,1,,,,,ニシカワツウショウ,0
2596,8030001144637,新規,0,2021-10-08,2021-10-08,株式会社グッドライフ,,株式会社,埼玉県,三郷市,戸ケ崎４丁目１１２番地３,,11,237,3410044,,,,,,,2021-10-08,1,,,,,グッドライフ,0
2597,8030005020545,新規,0,2021-10-08,2021-10-08,社会福祉法人博愛会,,その他の設立登記法人,埼玉県,川口市,宮町１６８番地１,,11,203,3320028,,,,,,,2021-10-08,1,,,,,ハクアイカイ,0
2605,8040001120496,新規,0,2021-10-08,2021-10-08,株式会社杉山耐火,,株式会社,千葉県,市川市,曽谷５丁目３３番３－４号,,12,203,2720832,,,,,,,2021-10-08,1,,,,,スギヤマタイカ,0
2606,8040001120505,新規,0,2021-10-08,2021-10-08,株式会社Ｌｅｉ,,株式会社,千葉県,成田市,並木町４１番地２８６,,12,211,2860045,,,,,,,2021-10-08,1,,,,,レイ,0
2607,8040001120521,新規,0,2021-10-08,2021-10-08,Ｆａｂ　Ｆｏｕｒ株式会社,,株式会社,千葉県,流山市,大字平方字下中谷８０６番１,,12,220,2700105,,,,,,,2021-10-08,1,,,,,ファブフォー,0
2615,8040003018706,新規,0,2021-10-08,2021-10-08,マテリアル合同会社,,合同会社,千葉県,松戸市,松戸１２２８－１松戸ステーションビル５Ｆ,,12,207,2710092,,,,,,,2021-10-08,1,,,,,マテリアル,0
2618,8050001049958,新規,0,2021-10-08,2021-10-08,株式会社加藤建設工業,,株式会社,茨城県,神栖市,須田２４１６番地２,,08,232,3140253,,,,,,,2021-10-08,1,,,,,カトウケンセツコウギョウ,0
2636,8090003001970,新規,0,2021-10-08,2021-10-08,ラハイナーズ合同会社,,合同会社,山梨県,北杜市,長坂町大井ヶ森９５７番地１０９,,19,209,4080032,,,,,,,2021-10-08,1,,,,,,0
2657,8120001240831,新規,0,2021-10-08,2021-10-08,エムズサッシ工業株式会社,,株式会社,大阪府,大阪市西成区,玉出西２丁目１３番１４号,,27,122,5570045,,,,,,,2021-10-08,1,,,,,エムズサッシコウギョウ,0
2658,8120001240955,新規,0,2021-10-08,2021-10-08,河馬屋株式会社,,株式会社,大阪府,大阪市平野区,加美西２丁目１０－３５,,27,126,5470005,,,,,,,2021-10-08,1,,,,,カバヤ,0
2659,8120001240988,新規,0,2021-10-08,2021-10-08,コンクエスト株式会社,,株式会社,大阪府,枚方市,高野道２丁目５０番１７号,,27,210,5731131,,,,,,,2021-10-08,1,,,,,コンクエスト,0
2660,8120001240996,新規,0,2021-10-08,2021-10-08,株式会社Ｌｅｍｏｎ,,株式会社,大阪府,大阪市城東区,今福西５丁目１番２５－４１１号,,27,118,5360004,,,,,,,2021-10-08,1,,,,,レモン,0
2661,8120003020364,新規,0,2021-10-08,2021-10-08,ＭＯＣＡＬ合同会社,,合同会社,大阪府,枚方市,東中振２丁目２０番１・１２１８,,27,210,5730093,,,,,,,2021-10-08,1,,,,,モカル,0
2662,8120003020372,新規,0,2021-10-08,2021-10-08,卉美合同会社,,合同会社,大阪府,大阪市浪速区,桜川４丁目１７番２７号桜リバーテラス１０３号室,,27,111,5560022,,,,,,,2021-10-08,1,,,,,キミ,0
2663,8120003020380,新規,0,2021-10-08,2021-10-08,合同会社ハトホル・フェニックスアイ,,合同会社,大阪府,大阪市淀川区,十三東５丁目１番６２－５０２号,,27,123,5320023,,,,,,,2021-10-08,1,,,,,ハトホルフェニックスアイ,0
2670,8120103004382,新規,0,2021-10-08,2021-10-08,合同会社ｄａｉｃｈｉ,,合同会社,大阪府,泉南郡熊取町,小垣内２丁目４１番地の６７,,27,361,5900432,,,,,,,2021-10-08,1,,,,,ダイチ,0
2681,8130001070286,新規,0,2021-10-08,2021-10-08,あずま電気株式会社,,株式会社,京都府,舞鶴市,字吉野４９９番地６６,,26,202,6250003,,,,,,,2021-10-08,1,,,,,アズマデンキ,0
2682,8130001070303,新規,0,2021-10-08,2021-10-08,フェザーインク株式会社,,株式会社,京都府,京都市下京区,烏丸通七条下る東塩小路町７３５－１京阪京都ビル８階,,26,106,6008216,,,,,,,2021-10-08,1,,,,,フェザーインク,0
2690,8140001123217,新規,0,2021-10-08,2021-10-08,株式会社Ｓｍｉｌｅ　Ａｎｇｅｌ,,株式会社,兵庫県,赤穂市,加里屋中洲４丁目１番地,,28,212,6780233,,,,,,,2021-10-08,1,,,,,スマイルエンジェル,0
2691,8140001123266,新規,0,2021-10-08,2021-10-08,株式会社ＯＨＡＮＡ,,株式会社,兵庫県,神戸市垂水区,朝谷町１９番地の５,,28,108,6550862,,,,,,,2021-10-08,1,,,,,,0
2692,8140001123316,新規,0,2021-10-08,2021-10-08,株式会社シリウスオートパーツ,,株式会社,兵庫県,姫路市,大津区天神町２丁目５３番地２,,28,201,6711131,,,,,,,2021-10-08,1,,,,,シリウスオートパーツ,0
2693,8140001123357,新規,0,2021-10-08,2021-10-08,株式会社塩崎,,株式会社,兵庫県,芦屋市,津知町１４番７－２０２号,,28,206,6590075,,,,,,,2021-10-08,1,,,,,シオザキ,0
2694,8140001123365,新規,0,2021-10-08,2021-10-08,株式会社クレアシュエット,,株式会社,兵庫県,西宮市,熊野町１番３１号,,28,204,6638103,,,,,,,2021-10-08,1,,,,,クレアシュエット,0
2695,8140001123381,新規,0,2021-10-08,2021-10-08,コーヒースタイルユーシーシー株式会社,,株式会社,兵庫県,神戸市中央区,港島中町７丁目７番７号,,28,110,6500046,,,,,,,2021-10-08,1,,,,,コーヒースタイルユーシーシー,0
2696,8140001123415,新規,0,2021-10-08,2021-10-08,ソアーズ株式会社,,株式会社,兵庫県,神戸市中央区,多聞通２丁目１－７法友会館７Ｆ,,28,110,6500015,,,,,,,2021-10-08,1,,,,,ソアーズ,0
2701,8140005025839,新規,0,2021-10-08,2021-10-08,税理士法人前川税務会計,,その他の設立登記法人,兵庫県,姫路市,北条口２丁目１８番地宮本ビル５階,,28,201,6700935,,,,,,,2021-10-08,1,,,,,マエカワゼイムカイケイ,0
2702,8150001024983,新規,0,2021-10-08,2021-10-08,株式会社ホットスタッフ奈良南,,株式会社,奈良県,橿原市,新賀町８４番地６,,29,205,6340006,,,,,,,2021-10-08,1,,,,,ホットスタッフナラミナミ,0
2718,8180001148086,新規,0,2021-10-08,2021-10-08,株式会社真星創建,,株式会社,愛知県,名古屋市北区,会所町８２番地の３（楠団地９０３号）,,23,103,4620061,,,,,,,2021-10-08,1,,,,,シンセイソウケン,0
2719,8180001148210,新規,0,2021-10-08,2021-10-08,ＩＲＥＸ株式会社,,株式会社,愛知県,名古屋市熱田区,三本松町５番１７号エムズシティ神宮前１０１０号,,23,109,4560032,,,,,,,2021-10-08,1,,,,,アイレックス,0
2720,8180001148219,新規,0,2021-10-08,2021-10-08,株式会社ＭＡＧＯＴＯ,,株式会社,愛知県,海部郡蟹江町,城２丁目２３７番地,,23,425,4970040,,,,,,,2021-10-08,1,,,,,マコト,0
2721,8180003023048,新規,0,2021-10-08,2021-10-08,合同会社ＢＩＯ,,合同会社,愛知県,名古屋市守山区,川上町１４５番地の３,,23,113,4630091,,,,,,,2021-10-08,1,,,,,ビィアイオー,0
2722,8180003023064,新規,0,2021-10-08,2021-10-08,デンタルコネクト合同会社,,合同会社,愛知県,春日井市,大泉寺町１４８－６,,23,206,4860812,,,,,,,2021-10-08,1,,,,,デンタルコネクト,0
2723,8180003023072,新規,0,2021-10-08,2021-10-08,合同会社ＮＡＺＡＲＥ商店,,合同会社,愛知県,名古屋市名東区,貴船３丁目３０５番地１０１,,23,115,4650058,,,,,,,2021-10-08,1,,,,,ナザレショウテン,0
2724,8180301035463,新規,0,2021-10-08,2021-10-08,ダイシンテクノ株式会社,,株式会社,愛知県,刈谷市,広小路４丁目８２番地,,23,210,4480844,,,,,,,2021-10-08,1,,,,,ダイシンテクノ,0
2725,8180305009249,新規,0,2021-10-08,2021-10-08,社会保険労務士法人天野事務所,,その他の設立登記法人,愛知県,豊田市,小坂本町１丁目５番地５ＹＡＭＡＴＯＢＬＤＧ２階,,23,211,4710034,,,,,,,2021-10-08,1,,,,,アマノジムショ,0
2728,8190003003783,新規,0,2021-10-08,2021-10-08,ヒビノオート合同会社,,合同会社,三重県,伊勢市,小俣町新村１４４番地３,,24,203,5190507,,,,,,,2021-10-08,1,,,,,ヒビノオート,0
2738,8220005008604,新規,0,2021-10-08,2021-10-08,協同組合ＷｏｒｌｄＡｇｅｎｃｙ,,その他の設立登記法人,石川県,金沢市,野田１丁目７８番地,,17,201,9218107,,,,,,,2021-10-08,1,,,,,ワールドエージェンシー,0
2741,8230001019026,新規,0,2021-10-08,2021-10-08,北陸東洋金属株式会社,,株式会社,富山県,小矢部市,城山町５番５４号,,16,209,9320047,,,,,,,2021-10-08,1,,,,,ホクリクトウヨウキンゾク,0
2749,8240001058741,新規,0,2021-10-08,2021-10-08,ハマ不動産販売株式会社,,株式会社,広島県,福山市,本庄町中１丁目９番１０号,,34,207,7200076,,,,,,,2021-10-08,1,,,,,ハマフドウサンハンバイ,0
2753,8250005008691,新規,0,2021-10-08,2021-10-08,税理士法人フォートレス,,その他の設立登記法人,山口県,下関市,生野町２丁目３２番２８号,,35,201,7510832,,,,,,,2021-10-08,1,,,,,フォートレス,0
2765,8290001094856,新規,0,2021-10-08,2021-10-08,楠田塗装株式会社,,株式会社,福岡県,宗像市,葉山１丁目７番地１６,,40,220,8114171,,,,,,,2021-10-08,1,,,,,クスダトソウ,0
2766,8290001094872,新規,0,2021-10-08,2021-10-08,株式会社岡田電気,,株式会社,福岡県,福岡市東区,名島４丁目１１番１２号,,40,131,8130043,,,,,,,2021-10-08,1,,,,,オカダデンキ,0
2767,8290001094939,新規,0,2021-10-08,2021-10-08,株式会社中央ビル管理,,株式会社,福岡県,福岡市中央区,薬院４丁目１８番１０－５０３号,,40,133,8100022,,,,,,,2021-10-08,1,,,,,チュウオウビルカンリ,0
2769,8290003011677,新規,0,2021-10-08,2021-10-08,合同会社ヒューマンリソース・エデュケーション,,合同会社,福岡県,筑後市,大字長浜１１８１番地１０,,40,211,8330005,,,,,,,2021-10-08,1,,,,,ヒューマンリソースエデュケーション,0
2770,8290003011685,新規,0,2021-10-08,2021-10-08,Ｇｒｏｗ　Ｌｉｆｅ合同会社,,合同会社,福岡県,朝倉郡筑前町,朝日１０７１番地１９,,40,447,8380227,,,,,,,2021-10-08,1,,,,,グロウライフ,0
2772,8290801027882,新規,0,2021-10-08,2021-10-08,株式会社ＴＫ,,株式会社,福岡県,北九州市門司区,長谷１丁目１７番１３号,,40,101,8010861,,,,,,,2021-10-08,1,,,,,ティーケー,0
2774,8300001012650,新規,0,2021-10-08,2021-10-08,株式会社Ｄ‐ＢＯＸ,,株式会社,佐賀県,杵島郡大町町,大字福母１１９６番地２,,41,423,8492102,,,,,,,2021-10-08,1,,,,,ディーボックス,0
2775,8300001012659,新規,0,2021-10-08,2021-10-08,さぎんコネクト株式会社,,株式会社,佐賀県,佐賀市,唐人２丁目７番２０号,,41,201,8400813,,,,,,,2021-10-08,1,,,,,サギンコネクト,0
2776,8300005007036,新規,0,2021-10-08,2021-10-08,ＳＡＧＡ　ＣＯＬＬＥＣＴＩＶＥ協同組合,,その他の設立登記法人,佐賀県,佐賀市,諸富町大字山領２６６番地１,,41,201,8402106,,,,,,,2021-10-08,1,,,,,サガコレクティブ,0
2777,8310003004182,新規,0,2021-10-08,2021-10-08,合同会社エフ・プランニング,,合同会社,長崎県,南島原市,深江町丁４７２２番地２,,42,214,8591504,,,,,,,2021-10-08,1,,,,,エフプランニング,0
2782,8320003003621,新規,0,2021-10-08,2021-10-08,ＲＹＯＣＡＮ．ＣＯＭ合同会社,,合同会社,大分県,由布市,湯布院町川上３５７０番地５,,44,213,8795102,,,,,,,2021-10-08,1,,,,,リョカンドットコム,0
2793,8370001047698,新規,0,2021-10-08,2021-10-08,株式会社チームエスコンサルティング,,株式会社,宮城県,宮城郡利府町,沢乙字大沢西２１番地１,,04,406,9810123,,,,,,,2021-10-08,1,,,,,チームエスコンサルティング,0
2794,8370005010363,新規,0,2021-10-08,2021-10-08,一般社団法人マイスターズギルド,,その他の設立登記法人,宮城県,仙台市宮城野区,榴岡４丁目７番１６号,,04,102,9830852,,,,,,,2021-10-08,1,,,,,マイスターズギルド,0
2799,8380001032245,新規,0,2021-10-08,2021-10-08,株式会社ベストサービス,,株式会社,福島県,いわき市,鹿島町久保１丁目７番地の１５,,07,204,9718144,,,,,,,2021-10-08,1,,,,,ベストサービス,0
2806,8400003002846,新規,0,2021-10-08,2021-10-08,合同会社岩手福祉会,,合同会社,岩手県,盛岡市,黒石野２丁目１３番４７号,,03,201,0200111,,,,,,,2021-10-08,1,,,,,イワテフクシカイ,0
2816,8430001085114,新規,0,2021-10-08,2021-10-08,三愛地所ホールディングス株式会社,,株式会社,北海道,札幌市東区,北三十二条東７丁目１番１５号,,01,103,0650032,,,,,,,2021-10-08,1,,,,,サンアイジショホールディングス,0
2817,8430001085122,新規,0,2021-10-08,2021-10-08,株式会社クラフトワークソルト,,株式会社,北海道,札幌市北区,新川二条４丁目８番３７号,,01,102,0010922,,,,,,,2021-10-08,1,,,,,クラフトワークソルト,0
2818,8430001085139,新規,0,2021-10-08,2021-10-08,株式会社白石機工,,株式会社,北海道,札幌市白石区,本通３丁目北３番７－１０４号,,01,104,0030027,,,,,,,2021-10-08,1,,,,,シロイシキコウ,0
2819,8430001085147,新規,0,2021-10-08,2021-10-08,トーセツ株式会社,,株式会社,北海道,札幌市西区,西町南５丁目１番２３号９Ｚ,,01,107,0630062,,,,,,,2021-10-08,1,,,,,トーセツ,0
2820,8430003013213,新規,0,2021-10-08,2021-10-08,合同会社縁び,,合同会社,北海道,恵庭市,恵み野南２丁目９番１３,,01,231,0611372,,,,,,,2021-10-08,1,,,,,エンビ,0
2821,8440001008957,新規,0,2021-10-08,2021-10-08,栄翔株式会社,,株式会社,北海道,二海郡八雲町,栄浜１７２番地２,,01,346,0492563,,,,,,,2021-10-08,1,,,,,エイショウ,0
2834,8480001011511,新規,0,2021-10-08,2021-10-08,株式会社ウエストジャパン,,株式会社,徳島県,徳島市,南末広町２番４１号末広ポートサイドハウス７号,,36,201,7700865,,,,,,,2021-10-08,1,,,,,ウエストジャパン,0
2835,8490001010009,新規,0,2021-10-08,2021-10-08,丸の内建物管理株式会社,,株式会社,高知県,四万十市,中村丸の内１８３２番地１７,,39,210,7870003,,,,,,,2021-10-08,1,,,,,マルノウチタテモノカンリ,0
2838,8700150040115,新規,0,2021-10-08,2015-10-09,上山市中川地区公民館運営協議会,,その他,山形県,上山市,高野字念仏檀６６－３,,06,207,9993115,,,,,,,2015-10-09,1,,,,,カミノヤマシナカガワチクコウミンカンウンエイキヨウギカイ,0
2839,8700150105173,新規,0,2021-10-08,2021-10-08,一木藍敬神氏子会,,その他,福岡県,朝倉市,一木１７４番地１,,40,228,8380065,,,,,,,2021-10-08,1,,,,,ヒトツギアイキヨウジンウジコカイ,0
2844,9010001221503,新規,0,2021-10-08,2021-10-08,株式会社キューブアンドダイニング,,株式会社,東京都,中央区,日本橋茅場町２丁目１７番５号,,13,102,1030025,,,,,,,2021-10-08,1,,,,,キューブアンドダイニング,0
2845,9010001221627,新規,0,2021-10-08,2021-10-08,株式会社コムニコス,,株式会社,東京都,中央区,銀座４丁目１３番８号,,13,102,1040061,,,,,,,2021-10-08,1,,,,,コムニコス,0
2846,9010001221651,新規,0,2021-10-08,2021-10-08,株式会社Ｍｏｎｅｙ　Ｔｏｄａｙ　Ｊａｐａｎ,,株式会社,東京都,千代田区,二番町１番地２、番町ハイム１１０２,,13,101,1020084,,,,,,,2021-10-08,1,,,,,マネートゥデイジャパン,0
2851,9010005034042,新規,0,2021-10-08,2021-10-08,社会保険労務士法人さくら事務所,,その他の設立登記法人,東京都,千代田区,神田淡路町１丁目９番地２－２階,,13,101,1010063,,,,,,,2021-10-08,1,,,,,サクラジムショ,0
2852,9010103001786,新規,0,2021-10-08,2021-10-08,合同会社ＯＦＦＩＣＥ－ＴＦＰ,,合同会社,東京都,八王子市,小宮町６５８番地４,,13,201,1920031,,,,,,,2021-10-08,1,,,,,オフィスティーエフピー,0
2864,9010401163023,新規,0,2021-10-08,2021-10-08,株式会社Ａｕｇｅｌｕｓ,,株式会社,東京都,港区,赤坂９丁目６番２９号,,13,103,1070052,,,,,,,2021-10-08,1,,,,,アンゲルス,0
2865,9010401163031,新規,0,2021-10-08,2021-10-08,Ｉｎｔｅｒｎｅｔ　Ｓｅｃｕｒｅ　Ｓｅｒｖｉｃｅｓ株式会社,,株式会社,東京都,港区,三田３丁目１３番１６号,,13,103,1080073,,,,,,,2021-10-08,1,,,,,インターネットセキュアサービシーズ,0
2866,9010401163072,新規,0,2021-10-08,2021-10-08,ｄｙｌｙｌ株式会社,,株式会社,東京都,港区,白金台３丁目１８番１４号,,13,103,1080071,,,,,,,2021-10-08,1,,,,,ディリール,0
2867,9010401163089,新規,0,2021-10-08,2021-10-08,株式会社エムエーシー,,株式会社,東京都,港区,港南２丁目５番３号,,13,103,1080075,,,,,,,2021-10-08,1,,,,,エムエーシー,0
2870,9010403026252,新規,0,2021-10-08,2021-10-08,枠屋合同会社,,合同会社,東京都,港区,海岸１丁目２番３号汐留芝離宮ビルディング２１Ｆ,,13,103,1050022,,,,,,,2021-10-08,1,,,,,ワクヤ,0
2871,9010403026285,新規,0,2021-10-08,2021-10-08,初台プロパティ２合同会社,,合同会社,東京都,港区,六本木１丁目６番１号泉ガーデンタワー,,13,103,1060032,,,,,,,2021-10-08,1,,,,,ハツダイプロパティツー,0
2872,9010403026302,新規,0,2021-10-08,2021-10-08,ＦＪＤＣＦ３合同会社,,合同会社,東京都,港区,六本木１丁目６番１号泉ガーデンタワー２７階,,13,103,1060032,,,,,,,2021-10-08,1,,,,,エフジェイディーシーエフスリー,0
2887,9011001143134,新規,0,2021-10-08,2021-10-08,株式会社くみかけ,,株式会社,東京都,渋谷区,神宮前６丁目２３－４桑野ビル２階,,13,113,1500001,,,,,,,2021-10-08,1,,,,,クミカケ,0
2888,9011001143209,新規,0,2021-10-08,2021-10-08,株式会社フラッグスポーツマーケティング,,株式会社,東京都,渋谷区,東１丁目２９番３号,,13,113,1500011,,,,,,,2021-10-08,1,,,,,フラッグスポーツマーケティング,0
2889,9011001143233,新規,0,2021-10-08,2021-10-08,ＡＣＴ　ＦＡＳＴ株式会社,,株式会社,東京都,渋谷区,東３丁目２４番８号マーサ恵比寿１００号室,,13,113,1500011,,,,,,,2021-10-08,1,,,,,アクトファスト,0
2890,9011001143282,新規,0,2021-10-08,2021-10-08,株式会社ＫＢＴ,,株式会社,東京都,渋谷区,広尾４丁目１番３０号,,13,113,1500012,,,,,,,2021-10-08,1,,,,,ケービーティー,0
2891,9011001143299,新規,0,2021-10-08,2021-10-08,Ｊ－Ｔｒａｄｉｎｇ株式会社,,株式会社,東京都,渋谷区,幡ヶ谷１丁目９番６号,,13,113,1510072,,,,,,,2021-10-08,1,,,,,ジェイトレーディング,0
2892,9011001143340,新規,0,2021-10-08,2021-10-08,株式会社マッチプレイス,,株式会社,東京都,渋谷区,神宮前６丁目２３番４号桑野ビル２階,,13,113,1500001,,,,,,,2021-10-08,1,,,,,マッチプレイス,0
2895,9011003013475,新規,0,2021-10-08,2021-10-08,ＥＰＯＨ合同会社,,合同会社,東京都,渋谷区,猿楽町７－１２ＣＯＭＦＯＵＲＴＩＳ‐０３２,,13,113,1500033,,,,,,,2021-10-08,1,,,,,エポー,0
2904,9011401023729,新規,0,2021-10-08,2021-10-08,株式会社ガイナテクノロジー,,株式会社,東京都,板橋区,相生町１７－５ティエム相生１Ｆ,,13,119,1740044,,,,,,,2021-10-08,1,,,,,ガイナテクノロジー,0
2905,9011401023745,新規,0,2021-10-08,2021-10-08,株式会社Ｋｏｃｏｒｏｎｏ,,株式会社,東京都,板橋区,蓮根１丁目２７番地１４号河村屋グリーンハイツ１０２,,13,119,1740046,,,,,,,2021-10-08,1,,,,,ココロノ,0
2915,9011701024765,新規,0,2021-10-08,2021-10-08,ＡＣＥ　ＡＣＴＩＯＮ株式会社,,株式会社,東京都,江戸川区,北葛西１丁目２３番２８号,,13,123,1340081,,,,,,,2021-10-08,1,,,,,エースアクション,0
2930,9012401038386,新規,0,2021-10-08,2021-10-08,株式会社ｂｅｌａ　ｓｋｒｉｐｔａ,,株式会社,東京都,武蔵野市,関前２丁目２８番２号,,13,203,1800014,,,,,,,2021-10-08,1,,,,,ベラスクリプタ,0
2935,9012701016711,新規,0,2021-10-08,2021-10-08,株式会社Ｖｉｌｌ,,株式会社,東京都,西東京市,富士町２丁目６－７,,13,229,2020014,,,,,,,2021-10-08,1,,,,,ヴィル,0
2936,9012801021149,新規,0,2021-10-08,2021-10-08,株式会社Ｋｏｎｙ’ｓ　Ｆａｃｔｏｒｙ,,株式会社,東京都,立川市,錦町１丁目５－３５アマチクビル２Ｆ,,13,202,1900022,,,,,,,2021-10-08,1,,,,,コニーズファクトリー,0
2946,9013301048120,新規,0,2021-10-08,2021-10-08,株式会社ｃｌａｉｒ,,株式会社,東京都,豊島区,千早１丁目１５番８－４０４号,,13,116,1710044,,,,,,,2021-10-08,1,,,,,クレール,0
2947,9013303005846,新規,0,2021-10-08,2021-10-08,合同会社ｃｌоｕｄ９,,合同会社,東京都,豊島区,東池袋２丁目２２番７－５０３号,,13,116,1700013,,,,,,,2021-10-08,1,,,,,クラウドナイン,0
2953,9020001143275,新規,0,2021-10-08,2021-10-08,株式会社ＩＮＧ,,株式会社,神奈川県,横浜市栄区,元大橋１丁目３１番２５号,,14,115,2470011,,,,,,,2021-10-08,1,,,,,アイエヌジー,0
2954,9020001143374,新規,0,2021-10-08,2021-10-08,株式会社クレアーレ,,株式会社,神奈川県,横浜市都筑区,南山田２丁目１番１－７１０号,,14,118,2240029,,,,,,,2021-10-08,1,,,,,クレアーレ,0
2955,9020001143390,新規,0,2021-10-08,2021-10-08,株式会社Ｓｈａｍｒｏｃｋ　Ｈｅａｒｔｓ,,株式会社,神奈川県,横浜市西区,北幸１丁目１番８号エキニア横浜５階ＨａｍａＰｏｒｔ内,,14,103,2200004,,,,,,,2021-10-08,1,,,,,シャムロックハーツ,0
2957,9020003020605,新規,0,2021-10-08,2021-10-08,テクシア合同会社,,合同会社,神奈川県,川崎市幸区,小向町２４番６号,,14,132,2120003,,,,,,,2021-10-08,1,,,,,テクシア,0
2966,9021001074155,新規,0,2021-10-08,2021-10-08,モノノキ株式会社,,株式会社,神奈川県,鎌倉市,長谷１丁目９番２号,,14,204,2480016,,,,,,,2021-10-08,1,,,,,モノノキ,0
2974,9030001144719,新規,0,2021-10-08,2021-10-08,株式会社ソラローブ,,株式会社,埼玉県,所沢市,くすのき台１丁目１０番７号,,11,208,3590037,,,,,,,2021-10-08,1,,,,,ソラローブ,0
2975,9030001144751,新規,0,2021-10-08,2021-10-08,株式会社ＧＥＮＩＩ　ＳＯＬＵＴＩＯＮ,,株式会社,埼玉県,坂戸市,溝端町９番地（１３－５０４）,,11,239,3500274,,,,,,,2021-10-08,1,,,,,ジニーアイソルーション,0
2983,9040001120504,新規,0,2021-10-08,2021-10-08,株式会社エイチアンドエー,,株式会社,千葉県,千葉市若葉区,東寺山町５１２番地１,,12,104,2640035,,,,,,,2021-10-08,1,,,,,エイチアンドエー,0
2988,9040003018688,新規,0,2021-10-08,2021-10-08,Ｘ－Ｕｒｂａｎ合同会社,,合同会社,千葉県,佐倉市,中志津４丁目１３－１,,12,212,2850843,,,,,,,2021-10-08,1,,,,,クロスアーバン,0
2990,9040005021368,新規,0,2021-10-08,2021-10-08,税理士法人梅田会計事務所,,その他の設立登記法人,千葉県,千葉市稲毛区,稲毛東３丁目８番１９号中元中央ビル５階５０１号室,,12,103,2630031,,,,,,,2021-10-08,1,,,,,ウメダカイケイジムショ,0
2996,9060005009907,新規,0,2021-10-08,2021-10-08,一般社団法人子どもの未来を支える会,,その他の設立登記法人,栃木県,佐野市,大橋町１１６４番地３,,09,204,3270003,,,,,,,2021-10-08,1,,,,,コドモノミライヲササエルカイ,0
3000,9070003004256,新規,0,2021-10-08,2021-10-08,合同会社ＧＲｅｅＮ,,合同会社,群馬県,みどり市,東町荻原乙２９４番地,,10,212,3760306,,,,,,,2021-10-08,1,,,,,グリーン,0
3038,9120001240789,新規,0,2021-10-08,2021-10-08,株式会社Ｒｅ　Ｎｅｗ,,株式会社,大阪府,大阪市北区,神山町１０番３号プレサンス梅田１２０５,,27,127,5300026,,,,,,,2021-10-08,1,,,,,リニュー,0
3039,9120001240987,新規,0,2021-10-08,2021-10-08,株式会社三友ジャパン,,株式会社,大阪府,大阪市中央区,東心斎橋１丁目１１番１３号グランドメゾン心斎橋６０６号室,,27,128,5420083,,,,,,,2021-10-08,1,,,,,ミツトモジャパン,0
3040,9120001241044,新規,0,2021-10-08,2021-10-08,ジェイエルフォーユー株式会社,,株式会社,大阪府,大阪市東成区,東今里３丁目８番２７号,,27,115,5370011,,,,,,,2021-10-08,1,,,,,ジェイエルフォーユー,0
3043,9120003020363,新規,0,2021-10-08,2021-10-08,プレミアシード合同会社,,合同会社,大阪府,大阪市中央区,安土町２丁目３－１３大阪国際ビルディング３１階,,27,128,5410052,,,,,,,2021-10-08,1,,,,,プレミアシード,0
3044,9120003020371,新規,0,2021-10-08,2021-10-08,ＡＳＫＹ合同会社,,合同会社,大阪府,大阪市東淀川区,東中島５丁目１７番３号バルゴイースト１０６号,,27,114,5330033,,,,,,,2021-10-08,1,,,,,エーエスケイワイ,0
3047,9120101064436,新規,0,2021-10-08,2021-10-08,株式会社リスペクトフォアライフ,,株式会社,大阪府,堺市西区,草部１４８０番地,,27,144,5938312,,,,,,,2021-10-08,1,,,,,リスペクトフォアライフ,0
3048,9120101064444,新規,0,2021-10-08,2021-10-08,株式会社ＳＡＶＯＲＹ,,株式会社,大阪府,松原市,天美南６丁目６番７号,,27,217,5800033,,,,,,,2021-10-08,1,,,,,サヴォリー,0
3052,9120901045032,新規,0,2021-10-08,2021-10-08,株式会社Ａｔ　ｗｉｌｌ,,株式会社,大阪府,豊中市,服部寿町５丁目４８番１号,,27,203,5610857,,,,,,,2021-10-08,1,,,,,アットウイル,0
3053,9120903003863,新規,0,2021-10-08,2021-10-08,悠コンサルティング合同会社,,合同会社,大阪府,高槻市,大蔵司１丁目１番１７号,,27,207,5691034,,,,,,,2021-10-08,1,,,,,ユウコンサルティング,0
3057,9122001035252,新規,0,2021-10-08,2021-10-08,株式会社ｉｎｆｉｎｉｔｙ８,,株式会社,大阪府,八尾市,宮町４丁目１番１７号,,27,212,5810815,,,,,,,2021-10-08,1,,,,,インフィニティエイト,0
3079,9140001123307,新規,0,2021-10-08,2021-10-08,株式会社まごころ自動車,,株式会社,兵庫県,三木市,福井２１４３番地,,28,215,6730433,,,,,,,2021-10-08,1,,,,,マゴコロジドウシャ,0
3080,9140001123331,新規,0,2021-10-08,2021-10-08,株式会社エコールブラン,,株式会社,兵庫県,神戸市中央区,下山手通３丁目１０番９号,,28,110,6500011,,,,,,,2021-10-08,1,,,,,エコールブラン,0
3081,9140001123389,新規,0,2021-10-08,2021-10-08,株式会社ＤＥＬＩＶＡＲＩＺＥ,,株式会社,兵庫県,神戸市中央区,中山手通２丁目１８番８号パインヒルズ山手１ｆ,,28,110,6500004,,,,,,,2021-10-08,1,,,,,デリバライズ,0
3082,9140001123406,新規,0,2021-10-08,2021-10-08,株式会社フロート,,株式会社,兵庫県,養父市,大屋町門野７０番地,,28,222,6670433,,,,,,,2021-10-08,1,,,,,フロート,0
3086,9160001023711,新規,0,2021-10-08,2021-10-08,株式会社ＨＩＤＥＹＯＳＨＩ,,株式会社,滋賀県,栗東市,綣３丁目８番２３号,,25,208,5203031,,,,,,,2021-10-08,1,,,,,ヒデヨシ,0
3088,9160003002399,新規,0,2021-10-08,2021-10-08,合同会社Ｇ’ＤＡＹ　ＭＡＴＥ,,合同会社,滋賀県,守山市,矢島町７５,,25,207,5240015,,,,,,,2021-10-08,1,,,,,グッデイメイト,0
3094,9180001148044,新規,0,2021-10-08,2021-10-08,株式会社ＰＡＬＳ　Ｍａｒｋｅｔｉｎｇ,,株式会社,愛知県,名古屋市中区,大須３丁目３０番４０号万松寺ビル９Ｆ,,23,106,4600011,,,,,,,2021-10-08,1,,,,,パルスマーケティング,0
3095,9180001148085,新規,0,2021-10-08,2021-10-08,ＭＹ　ＷＡＹ株式会社,,株式会社,愛知県,名古屋市北区,山田１丁目９番５号ミヤマビル２階南,,23,103,4620810,,,,,,,2021-10-08,1,,,,,マイウェイ,0
3096,9180001148102,新規,0,2021-10-08,2021-10-08,株式会社道翔,,株式会社,愛知県,丹羽郡大口町,豊田３丁目２番１,,23,361,4800134,,,,,,,2021-10-08,1,,,,,ミチショウ,0
3097,9180001148110,新規,0,2021-10-08,2021-10-08,株式会社結鈑金,,株式会社,愛知県,名古屋市北区,清水２丁目１番１１号ジュネス清水９０３号,,23,103,4620844,,,,,,,2021-10-08,1,,,,,ユイバンキン,0
3098,9180001148176,新規,0,2021-10-08,2021-10-08,株式会社ｄｒｏｐ　ＳＴＡＲＳ,,株式会社,愛知県,愛知郡東郷町,春木台２丁目１４番地１３,,23,302,4700161,,,,,,,2021-10-08,1,,,,,ドロップスターズ,0
3099,9180001148218,新規,0,2021-10-08,2021-10-08,株式会社コーポレートファクトリープロダクツ２,,株式会社,愛知県,名古屋市中区,栄２丁目９番３号,,23,106,4600008,,,,,,,2021-10-08,1,,,,,コーポレートファクトリープロダクツツー,0
3100,9180001148234,新規,0,2021-10-08,2021-10-08,株式会社ＭＫオフィス,,株式会社,愛知県,名古屋市緑区,鹿山３丁目１０番地,,23,114,4580045,,,,,,,2021-10-08,1,,,,,エムケーオフィス,0
3102,9180003023039,新規,0,2021-10-08,2021-10-08,健和技建合同会社,,合同会社,愛知県,尾張旭市,吉岡町３丁目１０番地２１ナビタウン吉岡町ＩＩ－４０１,00124511,23,226,4880827,,,,,,,2021-10-08,1,,,,,ケンワギケン,0
3103,9180003023047,新規,0,2021-10-08,2021-10-08,星亜合同会社,,合同会社,愛知県,名古屋市北区,成願寺１丁目６番６号ザ・シーン城北アストロタワー２４０１,,23,103,4620021,,,,,,,2021-10-08,1,,,,,セイヤ,0
3104,9180003023055,新規,0,2021-10-08,2021-10-08,合同会社アクア,,合同会社,愛知県,一宮市,奥町字内込４７番地３コーポ内込１０２号,,23,203,4910201,,,,,,,2021-10-08,1,,,,,アクア,0
3106,9180301035454,新規,0,2021-10-08,2021-10-08,株式会社ロジカルピッグ,,株式会社,愛知県,豊橋市,西幸町字浜池３３３‐９豊橋サイエンスコア１０９,,23,201,4418113,,,,,,,2021-10-08,1,,,,,ロジカルピッグ,0
3117,9220001024471,新規,0,2021-10-08,2021-10-08,株式会社ＯＮＥＯＮ,,株式会社,石川県,金沢市,西泉１丁目１３４番地アイボリーコート１０２号,,17,201,9218043,,,,,,,2021-10-08,1,,,,,ワンオン,0
3126,9240003005311,新規,0,2021-10-08,2021-10-08,ハリエス合同会社,,合同会社,広島県,広島市中区,千田町２丁目１１番１８－２０１号,,34,101,7300052,,,,,,,2021-10-08,1,,,,,ハリエス,0
3128,9250001019163,新規,0,2021-10-08,2021-10-08,株式会社ＩＷＡＮＡＭＩ　ＮＥＸＴ,,株式会社,山口県,岩国市,門前町３丁目１７番１１号,,35,208,7400031,,,,,,,2021-10-08,1,,,,,イワナミネクスト,0
3136,9270001008370,新規,0,2021-10-08,2021-10-08,株式会社ＵＰＷＡＲＤ,,株式会社,鳥取県,米子市,安倍９８番地６,,31,202,6830846,,,,,,,2021-10-08,1,,,,,アップワード,0
3144,9290001094847,新規,0,2021-10-08,2021-10-08,株式会社ＡＬＰＨＡ＆ＯＭＥＧＡ,,株式会社,福岡県,福岡市中央区,小笹２丁目１０番４０－１０１号,,40,133,8100033,,,,,,,2021-10-08,1,,,,,アルファアンドオメガ,0
3145,9290001094905,新規,0,2021-10-08,2021-10-08,株式会社Ｙメディカル,,株式会社,福岡県,福岡市早良区,原６丁目２９番１０号,,40,137,8140022,,,,,,,2021-10-08,1,,,,,ワイメディカル,0
3147,9290003011619,新規,0,2021-10-08,2021-10-08,合同会社スカイクラッド,,合同会社,福岡県,福岡市中央区,大宮２丁目５番３号１０－２０３号室,,40,133,8100013,,,,,,,2021-10-08,1,,,,,スカイクラッド,0
3152,9290801027873,新規,0,2021-10-08,2021-10-08,株式会社ｉｅｉｃｏ,,株式会社,福岡県,北九州市戸畑区,東大谷２丁目８番４号,,40,105,8040031,,,,,,,2021-10-08,1,,,,,イエイコ,0
3160,9320001018645,新規,0,2021-10-08,2021-10-08,株式会社雲雀,,株式会社,大分県,玖珠郡九重町,大字湯坪６２８番地の２１,,44,461,8794912,,,,,,,2021-10-08,1,,,,,ヒバリ,0
3165,9330001029055,新規,0,2021-10-08,2021-10-08,株式会社ＧＲＩＰｓ,,株式会社,熊本県,熊本市東区,長嶺東４丁目１２番２５号,,43,102,8618038,,,,,,,2021-10-08,1,,,,,グリップス,0
3166,9330001029063,新規,0,2021-10-08,2021-10-08,株式会社緑栽,,株式会社,熊本県,上益城郡甲佐町,大字吉田２２６－１,,43,444,8613245,,,,,,,2021-10-08,1,,,,,リョクサイ,0
3174,9360003011495,新規,0,2021-10-08,2021-10-08,合同会社みーとぅ,,合同会社,沖縄県,那覇市,首里石嶺町４丁目２８１番地５サニーフラット石嶺１０３,,47,201,9030804,,,,,,,2021-10-08,1,,,,,ミートゥ,0
3176,9370001047697,新規,0,2021-10-08,2021-10-08,株式会社Ｍｏｔｉｏｎ　Ｉｎｆｏ．,,株式会社,宮城県,仙台市泉区,高森３丁目４番地の３２２,,04,105,9813203,,,,,,,2021-10-08,1,,,,,モーションインフォ,0
3178,9380001032252,新規,0,2021-10-08,2021-10-08,株式会社アニメート,,株式会社,福島県,会津若松市,白虎町１６０番地,,07,202,9650024,,,,,,,2021-10-08,1,,,,,アニメート,0
3181,9410003003578,新規,0,2021-10-08,2021-10-08,あきたブリューイングカンパニー合同会社,,合同会社,秋田県,大仙市,大花町１５番４３号,,05,212,0140022,,,,,,,2021-10-08,1,,,,,アキタブリューイングカンパニー,0
3182,9420001017604,新規,0,2021-10-08,2021-10-08,ライトランス株式会社,,株式会社,青森県,八戸市,日計２丁目９－９－１,,02,203,0391169,,,,,,,2021-10-08,1,,,,,ライトランス,0
3183,9420001017620,新規,0,2021-10-08,2021-10-08,株式会社ＳＤＦ,,株式会社,青森県,三戸郡南部町,大字斗賀字上斗賀４７番地,,02,445,0390611,,,,,,,2021-10-08,1,,,,,エスディーエフ,0
3187,9420005007774,新規,0,2021-10-08,2021-10-08,行政書士法人アップル経営コンサル,,その他の設立登記法人,青森県,弘前市,大字末広２丁目１－２佐藤惣ビル２階１号,,02,202,0368085,,,,,,,2021-10-08,1,,,,,アップルケイエイコンサル,0
3189,9430001085105,新規,0,2021-10-08,2021-10-08,ＮＦホルスタイン株式会社,,株式会社,北海道,恵庭市,恵南５６番地,,01,231,0611411,,,,,,,2021-10-08,1,,,,,エヌエフホルスタイン,0
3190,9430001085113,新規,0,2021-10-08,2021-10-08,三愛自動車ホールディングス株式会社,,株式会社,北海道,札幌市東区,北四十二条東１９丁目１番１号,,01,103,0070842,,,,,,,2021-10-08,1,,,,,サンアイジドウシャホールディングス,0
3191,9430001085138,新規,0,2021-10-08,2021-10-08,株式会社ＩＮＳ,,株式会社,北海道,札幌市南区,澄川四条２丁目１３番２４号,,01,106,0050004,,,,,,,2021-10-08,1,,,,,アイエヌエス,0
3196,9430005014308,新規,0,2021-10-08,2021-10-08,Ｋ’ｓ社会保険労務士法人,,その他の設立登記法人,北海道,岩見沢市,一条西９丁目１番地３,,01,210,0680021,,,,,,,2021-10-08,1,,,,,ケイズ,0
3202,9480001011519,新規,0,2021-10-08,2021-10-08,株式会社秋山配送,,株式会社,徳島県,阿波市,阿波町東条３００番地１東条団地１６２号,,36,206,7711703,,,,,,,2021-10-08,1,,,,,アキヤマハイソウ,0
3205,9480003001740,新規,0,2021-10-08,2021-10-08,ＲＡＲＡｃｏｒｐｓ合同会社,,合同会社,徳島県,三好郡東みよし町,昼間１５３１番地５,,36,489,7712501,,,,,,,2021-10-08,1,,,,,ララコープス,0
3208,9480005006861,新規,0,2021-10-08,2021-10-08,特定非営利活動法人徳島こども食堂ネットワーク,,その他の設立登記法人,徳島県,徳島市,南佐古七番町８番３０号第二辻マンション１０３号,,36,201,7700037,,,,,,,2021-10-08,1,,,,,トクシマコドモショクドウネットワーク,0
