sequenceNumber,corporateNumber,process,correct,updateDate,changeDate,name,nameImageId,kind,prefectureName,cityName,streetNumber,addressImageId,prefectureCode,cityCode,postCode,addressOutside,addressOutsideImageId,closeDate,closeCause,successorCorporateNumber,changeCause,assignmentDate,latest,enName,enPrefectureName,enCityName,enAddressOutside,furigana,hihyoji
19,1010402007756,登記記録の閉鎖等,0,2023-05-25,2023-05-10,有限会社大成通信工業,,有限会社,東京都,港区,赤坂６丁目３番９号,,13,103,1070052,,,2023-05-10,清算の結了等,,,2015-10-05,1,,,,,タイセイツウシンコウギョウ,0
35,1011001106024,登記記録の閉鎖等,0,2023-05-25,2023-05-22,株式会社ｍｅｒＬｅｖｏ,,株式会社,東京都,渋谷区,恵比寿４丁目２０番４号,,13,113,1500013,,,2023-05-22,清算の結了等,,,2015-10-05,1,,,,,,0
36,1011001106032,登記記録の閉鎖等,0,2023-05-25,2023-05-22,株式会社アーキテクトネット,,株式会社,東京都,渋谷区,渋谷１丁目１７番１号,,13,113,1500002,,,2023-05-22,清算の結了等,,,2015-10-05,1,,,,,アーキテクトネット,0
46,1011501019948,登記記録の閉鎖等,0,2023-05-25,2023-05-19,株式会社ＡＫＡＲＩ　ｆｏｏｄ　ｃｏｌｏｒ,,株式会社,東京都,北区,東十条２丁目１４番４号佐藤ビルマンション１０１,,13,117,1140001,,,2023-05-19,清算の結了等,,,2015-10-05,1,,,,,,0
49,1011601011136,登記記録の閉鎖等,0,2023-05-25,2023-05-12,株式会社マネージメントリサーチ,,株式会社,東京都,豊島区,南池袋２丁目２６番５号,,13,116,1710022,,,2023-05-12,清算の結了等,,,2015-10-05,1,,,,,マネージメントリサーチ,0
54,1011705001470,登記記録の閉鎖等,0,2023-05-25,2023-05-18,特定非営利活動法人ココＣＯＬＯＲねっと江戸川,,その他の設立登記法人,東京都,江戸川区,西葛西５丁目６番１１号第２ツボイビル６０３号室,,13,123,1340088,,,2023-05-18,清算の結了等,,,2017-06-30,1,,,,,ココカラーネットエドガワ,0
72,1013301033071,登記記録の閉鎖等,0,2023-05-25,2023-05-10,株式会社Ｍ’Ｓ　ＳＫＹ,,株式会社,埼玉県,新座市,中野１丁目１５番８,,11,230,3520005,,,2023-05-10,清算の結了等,,,2015-10-05,1,,,,,エムズスカイ,0
85,1020002010341,登記記録の閉鎖等,0,2023-05-25,2023-05-19,有限会社ナカタ創建,,有限会社,神奈川県,横浜市磯子区,岡村７丁目２９番２３号,,14,107,2350021,,,2023-05-19,清算の結了等,,,2015-10-05,1,,,,,ナカタソウケン,0
89,1020005012038,登記記録の閉鎖等,0,2023-05-25,2023-05-22,特定非営利活動法人ＹＣＣ,,その他の設立登記法人,神奈川県,横浜市中区,本牧三之谷１８番４号,,14,104,2310824,,,2023-05-22,清算の結了等,,,2015-10-05,1,,,,,ワイシーシー,0
90,1020005012640,登記記録の閉鎖等,0,2023-05-25,2023-05-22,一般社団法人マルナオ,,その他の設立登記法人,神奈川県,横浜市青葉区,新石川４丁目１１番地１１,,14,117,2250003,,,2023-05-22,清算の結了等,,,2016-05-25,1,,,,,マルナオ,0
115,1040002045542,登記記録の閉鎖等,0,2023-05-25,2023-05-08,有限会社ケイ・ディ・エル,,有限会社,千葉県,松戸市,小金きよしケ丘２丁目８番地の２１,,12,207,2700013,,,2023-05-08,清算の結了等,,,2015-10-05,1,,,,,ケイディエル,0
117,1040002089944,登記記録の閉鎖等,0,2023-05-25,2023-05-09,有限会社佐々木建築設計,,有限会社,千葉県,柏市,八幡町１番１１号,,12,217,2770016,,,2023-05-09,清算の結了等,,,2015-10-05,1,,,,,,0
156,1170001004321,登記記録の閉鎖等,0,2023-05-25,2023-05-24,株式会社ヨシミホーム,,株式会社,和歌山県,和歌山市,手平１丁目５番２５号,,30,201,6408319,,,2023-05-24,清算の結了等,,,2015-10-05,1,,,,,ヨシミホーム,0
160,1180001131081,登記記録の閉鎖等,0,2023-05-25,2023-05-17,株式会社藁屋,,株式会社,愛知県,名古屋市昭和区,広見町２丁目２１番１号,,23,107,4660046,,,2023-05-17,合併による解散等,7180001101533,令和５年５月１６日名古屋市昭和区広見町二丁目２２番地株式会社映像畑（7180001101533）に合併し解散,2018-02-05,1,,,,,ワラヤ,0
166,1180002038103,登記記録の閉鎖等,0,2023-05-25,2023-05-22,有限会社プランニングフォー,,有限会社,愛知県,名古屋市中川区,尾頭橋３丁目３番３号,,23,110,4540012,,,2023-05-22,清算の結了等,,,2015-10-05,1,,,,,プランニングフォー,0
171,1180302008458,登記記録の閉鎖等,0,2023-05-25,2023-05-22,有限会社知多一,,有限会社,愛知県,豊橋市,花田町字越水６１番地３,,23,201,4418019,,,2023-05-22,清算の結了等,,,2015-10-05,1,,,,,チタイチ,0
174,1220001004662,登記記録の閉鎖等,0,2023-05-25,2023-05-22,株式会社供龍板金工業所,,株式会社,石川県,金沢市,千日町１０番１７号,,17,201,9218023,,,2023-05-22,清算の結了等,,,2015-10-05,1,,,,,トモリュウバンキンコウギョウショ,0
184,1270001002505,登記記録の閉鎖等,0,2023-05-25,2023-05-18,株式会社エムズプランニング,,株式会社,鳥取県,鳥取市,宮長３番地１,,31,201,6800872,,,2023-05-18,清算の結了等,,,2015-10-05,1,,,,,エムズプランニング,0
191,1290003001354,登記記録の閉鎖等,0,2023-05-25,2023-05-18,合同会社Ｐｒｏｄｏｔｔｏ　ｄｉ　Ｅｃｈｏ,,合同会社,福岡県,福岡市中央区,平尾３丁目１番３号,,40,133,8100014,,,2023-05-18,清算の結了等,,,2015-10-05,1,,,,,,0
198,1310001007532,登記記録の閉鎖等,0,2023-05-25,2023-05-23,株式会社Ｅ．ＲＯＣＫ,,株式会社,長崎県,佐世保市,白岳町５７０番２６,,42,202,8571164,,,2023-05-23,清算の結了等,,,2015-10-05,1,,,,,イーロック,0
241,2010001147787,登記記録の閉鎖等,0,2023-05-25,2023-05-18,株式会社シンコウ,,株式会社,東京都,中央区,湊１丁目２番７号カワジリビル八丁堀５階,,13,102,1040043,,,2023-05-18,清算の結了等,,,2015-10-05,1,,,,,シンコウ,0
257,2010403024964,登記記録の閉鎖等,0,2023-05-25,2023-05-09,六本木インベストメンツ２合同会社,,合同会社,東京都,港区,六本木１丁目６番１号泉ガーデンタワー,,13,103,1060032,,,2023-05-09,清算の結了等,,,2021-03-24,1,,,,,ロッポンギインベストメンツツー,0
260,2010501041531,登記記録の閉鎖等,0,2023-05-25,2023-05-23,株式会社ｂｒｏｋｋｅｒ,,株式会社,東京都,台東区,浅草６丁目１９－４ヤマヨシビル５０１,,13,106,1110032,,,2023-05-23,合併による解散等,9110001028252,令和５年５月２０日新潟県新潟市西区大学南２－２２－１８株式会社ＨＳ（9110001028252）に合併し解散,2017-09-07,1,,,,,,0
297,2011801019333,登記記録の閉鎖等,0,2023-05-25,2023-05-19,株式会社弥生運輸,,株式会社,東京都,足立区,本木１丁目２５番地７,,13,121,1230853,,,2023-05-19,合併による解散等,1030001083544,令和５年５月１日埼玉県川口市本蓮一丁目１４番１号株式会社日之出運輸（1030001083544）に合併し解散,2015-10-05,1,,,,,ヤヨイウンユ,0
334,2030001097659,登記記録の閉鎖等,0,2023-05-25,2023-05-09,株式会社クローバー２１,,株式会社,埼玉県,草加市,北谷２丁目１６番１０号,,11,221,3400046,,,2023-05-09,清算の結了等,,,2015-10-05,1,,,,,クローバーニジュウイチ,0
358,2100001009136,登記記録の閉鎖等,0,2023-05-25,2023-05-19,株式会社ケイスリー,,株式会社,長野県,佐久市,内山１２６７番地３,,20,217,3850031,,,2023-05-19,清算の結了等,,,2015-10-05,1,,,,,ケイスリー,0
363,2120001007410,登記記録の閉鎖等,0,2023-05-25,2023-05-23,国土建設株式会社,,株式会社,大阪府,大阪市都島区,東野田町２丁目９番７号,,27,102,5340024,,,2023-05-23,合併による解散等,7010703006600,令和５年５月１６日東京都品川区上大崎三丁目１番１号目黒セントラルスクエア１５階国土建設ホールディングス合同会社（7010703006600）に合併し解散,2015-10-05,1,,,,,コクドケンセツ,0
383,2140005010268,登記記録の閉鎖等,0,2023-05-25,2023-05-23,本誓寺,,その他の設立登記法人,兵庫県,養父市,八鹿町八木１５６５番地,,28,222,6670041,,,2023-05-23,清算の結了等,,,2015-10-05,1,,,,,ホンセイジ,0
398,2180003013368,登記記録の閉鎖等,0,2023-05-25,2023-05-23,合同会社水津商会,,合同会社,愛知県,東海市,名和町一番割上１１５番地の１－Ｃ－２０１号,,23,222,4760002,,,2023-05-23,清算の結了等,,,2015-10-05,1,,,,,スイヅショウカイ,0
406,2240005005679,登記記録の閉鎖等,0,2023-05-25,2023-05-22,特定非営利活動法人マツタケ山再生研究会,,その他の設立登記法人,広島県,庄原市,高町１５１３番地,,34,210,7295811,,,2023-05-22,清算の結了等,,,2015-10-05,1,,,,,マツタケヤマサイセイケンキュウカイ,0
444,2370201003572,登記記録の閉鎖等,0,2023-05-25,2023-05-19,株式会社日之出運輸,,株式会社,宮城県,栗原市,若柳字大林西千刈３３番地１９,,04,213,9895506,,,2023-05-19,合併による解散等,1030001083544,令和５年５月１日埼玉県川口市本蓮一丁目１４番１号株式会社日之出運輸（1030001083544）に合併し解散,2015-10-05,1,,,,,,0
452,2420001016884,登記記録の閉鎖等,0,2023-05-25,2023-05-22,株式会社Ｈ．Ｋ．９,,株式会社,青森県,弘前市,大字紺屋町１６５番地ブリックワールドＣ－３０１号,,02,202,0368361,,,2023-05-22,清算の結了等,,,2020-02-05,1,,,,,エイチケイナイン,0
472,3010001222283,登記記録の閉鎖等,0,2023-05-25,2023-05-22,株式会社ＪＣＲ,,株式会社,東京都,千代田区,麹町２丁目３番地９,,13,101,1020083,,,2023-05-22,清算の結了等,,,2021-11-04,1,,,,,ジェイシーアール,0
496,3011001002725,登記記録の閉鎖等,0,2023-05-25,2023-05-22,株式会社イルサッコ,,株式会社,東京都,渋谷区,神宮前４丁目４番９号,,13,113,1500001,,,2023-05-22,清算の結了等,,,2015-10-05,1,,,,,イルサッコ,0
497,3011001026344,登記記録の閉鎖等,0,2023-05-25,2023-05-22,株式会社山崎料理研究所,00053118,株式会社,東京都,渋谷区,渋谷１丁目９番５号,,13,113,1500002,,,2023-05-22,清算の結了等,,,2015-10-05,1,,,,,,0
499,3011001042151,登記記録の閉鎖等,0,2023-05-25,2023-05-18,ペスカ・コム株式会社,,株式会社,東京都,渋谷区,渋谷２丁目７番１４号,,13,113,1500002,,,2023-05-18,清算の結了等,,,2015-10-05,1,,,,,ペスカコム,0
513,3011201001428,登記記録の閉鎖等,0,2023-05-25,2023-05-24,株式会社ギルドジャパン,,株式会社,東京都,中野区,東中野１丁目５７番７号,,13,114,1640003,,,2023-05-24,清算の結了等,,,2015-10-05,1,,,,,ギルドジャパン,0
532,3020001034884,登記記録の閉鎖等,0,2023-05-25,2023-05-22,株式会社アド・オンワード,,株式会社,神奈川県,横浜市中区,山手町２７番地５,,14,104,2310862,,,2023-05-22,清算の結了等,,,2015-10-05,1,,,,,アドオンワード,0
543,3020003018472,登記記録の閉鎖等,0,2023-05-25,2023-05-23,合同会社ｇｏｏｄ　ｂｕｙ,,合同会社,神奈川県,横浜市中区,万代町３丁目５－１０シャロン横浜大通り公園９０１,,14,104,2310031,,,2023-05-23,清算の結了等,,,2020-09-11,1,,,,,グッドバイ,0
549,3021001041160,登記記録の閉鎖等,0,2023-05-25,2023-05-22,三井住宅設備株式会社,,株式会社,神奈川県,横須賀市,追浜本町２丁目４７番地２１,,14,201,2370068,,,2023-05-22,清算の結了等,,,2015-10-05,1,,,,,ミツイジュウタクセツビ,0
555,3030001016510,登記記録の閉鎖等,0,2023-05-25,2023-05-22,ブラストハードテクノロジー株式会社,,株式会社,神奈川県,横浜市中区,弁天通１丁目１５番地１,,14,104,2310007,,,2023-05-22,清算の結了等,,,2015-10-05,1,,,,,ブラストハードテクノロジー,0
568,3030003006014,登記記録の閉鎖等,0,2023-05-25,2023-05-11,いずみサポートＩＳＣ合同会社,,合同会社,埼玉県,さいたま市北区,奈良町１０２番地１７,,11,102,3310822,,,2023-05-11,清算の結了等,,,2015-10-05,1,,,,,イズミサポートアイエスシー,0
571,3040001066075,登記記録の閉鎖等,0,2023-05-25,2023-05-02,株式会社東邦プラント,,株式会社,千葉県,柏市,加賀１丁目３１番８号,,12,217,2770051,,,2023-05-02,清算の結了等,,,2015-10-05,1,,,,,トウホウプラント,0
579,3040002047140,登記記録の閉鎖等,0,2023-05-25,2023-05-09,有限会社ダブ美容室,,有限会社,千葉県,松戸市,本町１７番地１９波場ビル２階,,12,207,2710091,,,2023-05-09,清算の結了等,,,2015-10-05,1,,,,,ダブビヨウシツ,0
585,3040005007190,登記記録の閉鎖等,0,2023-05-25,2023-05-08,千葉製茶工業協同組合,,その他の設立登記法人,千葉県,八街市,八街ほ２２４番地,,12,230,2891115,,,2023-05-08,清算の結了等,,,2015-10-05,1,,,,,チバセイチャコウギョウ,0
603,3120002016995,登記記録の閉鎖等,0,2023-05-25,2023-05-23,有限会社南木材横挽工業所,00030629,有限会社,大阪府,大阪市住之江区,御崎１丁目１１番２号,,27,125,5590013,,,2023-05-23,清算の結了等,,,2015-10-05,1,,,,,ミナミモクザイヨコビキコウギョウショ,0
641,3190005004826,登記記録の閉鎖等,0,2023-05-25,2023-05-22,浄久寺,,その他の設立登記法人,三重県,伊勢市,中島１丁目３番５号,,24,203,5160067,,,2023-05-22,清算の結了等,,,2015-10-05,1,,,,,ジョウキュウジ,0
645,3230001018271,登記記録の閉鎖等,0,2023-05-25,2023-05-23,株式会社働力,,株式会社,富山県,魚津市,仏田３７３０番地,,16,204,9370061,,,2023-05-23,清算の結了等,,,2020-03-18,1,,,,,ドウリョク,0
648,3240002034886,登記記録の閉鎖等,0,2023-05-25,2023-05-23,住宝海運有限会社,,有限会社,広島県,呉市,倉橋町３２７０番地,,34,202,7371377,,,2023-05-23,清算の結了等,,,2015-10-05,1,,,,,スミホウカイウン,0
669,3330001014616,登記記録の閉鎖等,0,2023-05-25,2023-05-08,農業生産法人Ｆｕｋｕｄａ　Ｒａｉｚ　Ｆａｒｍ株式会社,,株式会社,熊本県,水俣市,陳内２５２５番地,,43,205,8670000,,,2023-05-08,合併による解散等,8330002027876,令和５年５月１日熊本県水俣市陳内２５２５番地株式会社福田商会（8330002027876）に合併し解散,2015-10-05,1,,,,,ノウギョウセイサンホウジンフクダライズファーム,0
721,4010401072336,登記記録の閉鎖等,0,2023-05-25,2023-03-31,日本旭千ソフト株式会社,,株式会社,東京都,港区,芝２丁目９番１０号,,13,103,1050014,,,2023-03-31,清算の結了等,,,2015-10-05,1,,,,,,0
728,4010403010681,登記記録の閉鎖等,0,2023-05-25,2023-05-09,Ｍｕｎｒｏ合同会社,,合同会社,東京都,港区,西新橋１丁目１番１号ＥＰコンサルティングサービス内,,13,103,1050003,,,2023-05-09,清算の結了等,,,2015-10-05,1,,,,,ムンロー,0
729,4010403028055,登記記録の閉鎖等,0,2023-05-25,2023-05-09,谷田部ファシリティ合同会社,,合同会社,東京都,港区,六本木１丁目６番１号泉ガーデンタワー,,13,103,1060032,,,2023-05-09,清算の結了等,,,2022-07-06,1,,,,,ヤタベファシリティ,0
731,4010405020761,登記記録の閉鎖等,0,2023-05-25,2023-05-09,境古河ファシリティ一般社団法人,,その他の設立登記法人,東京都,港区,六本木１丁目６番１号泉ガーデンタワー,,13,103,1060032,,,2023-05-09,清算の結了等,,,2022-02-28,1,,,,,サカイコガファシリティ,0
764,4011801022203,登記記録の閉鎖等,0,2023-05-25,2023-05-23,株式会社ミシンハウス,,株式会社,東京都,足立区,大谷田１丁目７番１０号,,13,121,1200001,,,2023-05-23,清算の結了等,,,2015-10-05,1,,,,,ミシンハウス,0
825,4120001243573,登記記録の閉鎖等,0,2023-05-25,2023-05-23,花山手開発株式会社,,株式会社,大阪府,大阪市都島区,東野田町１丁目１７番１３号,,27,102,5340024,,,2023-05-23,合併による解散等,7010703006600,令和５年５月１６日東京都品川区上大崎三丁目１番１号目黒セントラルスクエア１５階国土建設ホールディングス合同会社（7010703006600）に合併し解散,2022-02-03,1,,,,,ハナヤマテカイハツ,0
839,4120102002969,登記記録の閉鎖等,0,2023-05-25,2023-05-22,大仙興産有限会社,,有限会社,大阪府,堺市西区,家原寺町２丁１５番１８号,,27,144,5938304,,,2023-05-22,合併による解散等,4120101029328,令和５年５月２２日大阪府堺市西区家原寺町二丁１５番１８号株式会社エヌケー・ネクスト（4120101029328）に合併し解散,2015-10-05,1,,,,,ダイセンコウサン,0
847,4140001010848,登記記録の閉鎖等,0,2023-05-25,2023-05-22,本丹羽酒造株式会社,,株式会社,兵庫県,神戸市中央区,葺合町字蝉山１番地の７,,28,110,6510058,,,2023-05-22,清算の結了等,,,2015-10-05,1,,,,,ホンニワシュゾウ,0
856,4180001055047,登記記録の閉鎖等,0,2023-05-25,2023-05-22,株式会社ギガ・ネットワーク,,株式会社,愛知県,名古屋市熱田区,一番１丁目２１番２５号,,23,109,4560053,,,2023-05-22,清算の結了等,,,2015-10-05,1,,,,,ギガネットワーク,0
867,4180002062983,登記記録の閉鎖等,0,2023-05-25,2023-05-23,有限会社三共クリーン,,有限会社,愛知県,日進市,藤塚３丁目３６７番地,,23,230,4700117,,,2023-05-23,清算の結了等,,,2015-10-05,1,,,,,サンキョウクリーン,0
892,4330005009660,登記記録の閉鎖等,0,2023-05-25,2023-05-22,ＮＰＯ法人種蒔く人,,その他の設立登記法人,熊本県,合志市,栄３７９２番地８２,,43,216,8611113,,,2023-05-22,清算の結了等,,,2017-05-01,1,,,,,タネマクヒト,0
900,4370001042595,登記記録の閉鎖等,0,2023-05-25,2023-05-23,株式会社ベリアス,,株式会社,宮城県,仙台市太白区,泉崎１丁目３２番３１号,,04,104,9820031,,,2023-05-23,清算の結了等,,,2018-01-25,1,,,,,ベリアス,0
917,4460101000832,登記記録の閉鎖等,0,2023-05-25,2023-05-18,大栄機工株式会社,,株式会社,北海道,河西郡芽室町,東芽室北１線６番地２０,,01,637,0820004,,,2023-05-18,清算の結了等,,,2015-10-05,1,,,,,ダイエイキコウ,0
929,5010001067917,登記記録の閉鎖等,0,2023-05-25,2023-05-17,サイバーソリューションズ株式会社,,株式会社,東京都,港区,三田３丁目１３番１６号,,13,103,1080073,,,2023-05-17,合併による解散等,7010001231677,令和５年５月１日東京都千代田区永田町一丁目１１番３０号サウスヒル永田町５階サイバーソリューションズ株式会社（7010001231677）に合併し解散,2015-10-05,1,,,,,サイバーソリューションズ,0
934,5010003028421,登記記録の閉鎖等,0,2023-05-25,2023-04-24,合同会社Ｒｏｃｋ　ｂｏｏｋ,,合同会社,東京都,文京区,水道２丁目８番１号－１０２,,13,105,1120005,,,2023-04-24,清算の結了等,,,2018-10-10,1,,,,,ロックブック,0
946,5010405019596,登記記録の閉鎖等,0,2023-05-25,2023-05-09,六本木キャピタル２一般社団法人,,その他の設立登記法人,東京都,港区,六本木１丁目６番１号泉ガーデンタワー,,13,103,1060032,,,2023-05-09,清算の結了等,,,2021-03-17,1,,,,,ロッポンギキャピタルツー,0
959,5011001113974,登記記録の閉鎖等,0,2023-05-25,2023-05-24,株式会社エフリンクシティ,,株式会社,東京都,渋谷区,神南１丁目１２－１４,,13,113,1500041,,,2023-05-24,清算の結了等,,,2016-12-09,1,,,,,エフリンクシティ,0
970,5011401020770,登記記録の閉鎖等,0,2023-05-25,2023-05-23,株式会社Ａｎｏｔｈｅｒ　Ｉｎｎｏｖａｔｉｏｎ,,株式会社,東京都,板橋区,南常盤台２丁目１８番６号ＧＲＯＷＳときわ台２０５,,13,119,1740072,,,2023-05-23,清算の結了等,,,2018-01-18,1,,,,,アナザーイノベーション,0
973,5011502007353,登記記録の閉鎖等,0,2023-05-25,2023-05-19,有限会社エヌエス工務店,,有限会社,東京都,荒川区,町屋５丁目１０番１６号,,13,118,1160001,,,2023-05-19,清算の結了等,,,2015-10-05,1,,,,,エヌエスコウムテン,0
982,5012402005158,登記記録の閉鎖等,0,2023-05-25,2023-05-09,有限会社大惠,,有限会社,東京都,小金井市,本町５丁目１３番１－７０１号,,13,210,1840004,,,2023-05-09,清算の結了等,,,2015-10-05,1,,,,,ダイケイ,0
1003,5021002057708,登記記録の閉鎖等,0,2023-05-25,2023-05-23,有限会社紅洋製作所,,有限会社,神奈川県,平塚市,大神３３４１番地８,,14,203,2540012,,,2023-05-23,清算の結了等,,,2015-10-05,1,,,,,コウヨウセイサクショ,0
1015,5050003005400,登記記録の閉鎖等,0,2023-05-25,2023-05-18,合同会社高翔,00120855,合同会社,茨城県,北茨城市,中郷町足洗３８２,,08,215,3191552,,,2023-05-18,清算の結了等,,,2020-09-25,1,,,,,タカショウ,0
1019,5080001016520,登記記録の閉鎖等,0,2023-05-25,2023-05-23,株式会社杉村製作所,,株式会社,静岡県,藤枝市,高岡３丁目８番６号,,22,214,4260062,,,2023-05-23,清算の結了等,,,2015-10-05,1,,,,,スギムラセイサクショ,0
1020,5080002000143,登記記録の閉鎖等,0,2023-05-25,2023-05-24,有限会社アールシーリファイン技研,,有限会社,静岡県,静岡市葵区,人宿町２丁目３番地の１３,,22,101,4200037,,,2023-05-24,清算の結了等,,,2015-10-05,1,,,,,アールシーリファインギケン,0
1062,5150005009050,登記記録の閉鎖等,0,2023-05-25,2023-05-23,特定非営利活動法人カルチャーツーリズム,,その他の設立登記法人,奈良県,宇陀市,菟田野古市場１３５番地の２,,29,212,6332226,,,2023-05-23,清算の結了等,,,2019-02-20,1,,,,,カルチャーツーリズム,0
1082,5290001026861,登記記録の閉鎖等,0,2023-05-25,2023-05-19,株式会社大河,,株式会社,福岡県,福岡市中央区,春吉２丁目４番１１号,,40,133,8100003,,,2023-05-19,合併による解散等,5350001002187,令和５年５月１日宮崎市橘通東三丁目８番２１号株式会社レジャークリエイトホールディングス（5350001002187）に合併し解散,2015-10-05,1,,,,,タイガ,0
1085,5290002011565,登記記録の閉鎖等,0,2023-05-25,2023-05-18,有限会社大名莊,,有限会社,福岡県,福岡市中央区,笹丘２丁目１番１０号,,40,133,8100034,,,2023-05-18,清算の結了等,,,2015-10-05,1,,,,,ダイミョウソウ,0
1105,5380005012295,登記記録の閉鎖等,0,2023-05-25,2023-05-22,一般社団法人ジェイゾイグループ空,,その他の設立登記法人,福島県,田村市,大越町下大越字洞入１６４番地,,07,211,9634112,,,2023-05-22,清算の結了等,,,2020-04-22,1,,,,,ジェイゾイグループソラ,0
1118,5460102004212,登記記録の閉鎖等,0,2023-05-25,2023-05-22,有限会社トーレスト,,有限会社,北海道,帯広市,西五条南２４丁目１番地,,01,207,0800015,,,2023-05-22,清算の結了等,,,2015-10-05,1,,,,,トーレスト,0
1157,6010403022816,登記記録の閉鎖等,0,2023-05-25,2023-05-09,千代田マネジメント合同会社,,合同会社,東京都,港区,六本木１丁目６番１号泉ガーデンタワー,,13,103,1060032,,,2023-05-09,清算の結了等,,,2020-04-09,1,,,,,チヨダマネジメント,0
1168,6010602027046,登記記録の閉鎖等,0,2023-05-25,2023-05-22,有限会社東京数寄屋倶楽部,,有限会社,東京都,江東区,東陽５丁目２８番１４号,,13,108,1350016,,,2023-05-22,清算の結了等,,,2015-10-05,1,,,,,トウキョウスキヤクラブ,0
1170,6010801013631,登記記録の閉鎖等,0,2023-05-25,2023-05-15,株式会社大光,,株式会社,東京都,大田区,大森北２丁目３番３号,,13,111,1430016,,,2023-05-15,清算の結了等,,,2015-10-05,1,,,,,,0
1182,6011001150604,登記記録の閉鎖等,0,2023-05-25,2023-05-22,株式会社レナトル,,株式会社,東京都,渋谷区,道玄坂１丁目１０番８号渋谷道玄坂東急ビル２Ｆ－Ｃ,,13,113,1500043,,,2023-05-22,清算の結了等,,,2022-11-01,1,,,,,レナトル,0
1187,6011101056362,登記記録の閉鎖等,0,2023-05-25,2023-05-22,株式会社ブギーナイツ,,株式会社,東京都,新宿区,戸山１丁目１０番３号,,13,104,1620052,,,2023-05-22,清算の結了等,,,2015-10-05,1,,,,,ブギーナイツ,0
1212,6013401006261,登記記録の閉鎖等,0,2023-05-25,2023-05-16,株式会社ＦｏｒＧｏｏｄ,,株式会社,東京都,多摩市,馬引沢２丁目２番地８,,13,224,2060023,,,2023-05-16,清算の結了等,,,2015-10-05,1,,,,,フォアグッド,0
1233,6030001140027,登記記録の閉鎖等,0,2023-05-25,2023-05-10,ＫｉｒｙｕＦＰ株式会社,,株式会社,埼玉県,上尾市,大字上１１９２番地５,,11,219,3620001,,,2023-05-10,清算の結了等,,,2021-01-05,1,,,,,キリュウエフピー,0
1297,6160003001775,登記記録の閉鎖等,0,2023-05-25,2023-04-28,合同会社ｉｋａ－ｎｉ－ｃａｍ,,合同会社,滋賀県,大津市,逢坂１丁目８番１号５０１,00115520,25,201,5200054,,,2023-04-28,清算の結了等,,,2019-01-18,1,,,,,イカニカン,0
1311,6180302018601,登記記録の閉鎖等,0,2023-05-25,2023-05-19,有限会社筒井運送,,有限会社,愛知県,刈谷市,板倉町２丁目１１番地１,,23,210,4480801,,,2023-05-19,清算の結了等,,,2015-10-05,1,,,,,ツツイウンソウ,0
1313,6200001002168,登記記録の閉鎖等,0,2023-05-25,2023-05-22,株式会社栄屋物産,,株式会社,岐阜県,岐阜市,茜部菱野４丁目１４７番地の２,,21,201,5008268,,,2023-05-22,清算の結了等,,,2015-10-05,1,,,,,サカエヤブッサン,0
1317,6210002007173,登記記録の閉鎖等,0,2023-05-25,2023-05-22,有限会社福井新聞三国北販売店,,有限会社,福井県,坂井市,三国町緑ケ丘４丁目１９番１９号,,18,210,9130048,,,2023-05-22,清算の結了等,,,2015-10-05,1,,,,,フクイシンブンミクニキタハンバイテン,0
1331,6250001014613,登記記録の閉鎖等,0,2023-05-25,2023-05-18,株式会社トータルケア,,株式会社,山口県,下関市,一の宮本町１丁目７番１７号,,35,201,7510808,,,2023-05-18,清算の結了等,,,2015-10-05,1,,,,,トータルケア,0
1343,6330001030676,登記記録の閉鎖等,0,2023-05-25,2023-05-22,肥後繊維株式会社,,株式会社,熊本県,熊本市東区,御領町１８１番地３,,43,102,8610000,,,2023-05-22,清算の結了等,,,2023-03-29,1,,,,,ヒゴセンイ,0
1380,6470001000104,登記記録の閉鎖等,0,2023-05-25,2023-05-22,株式会社三愛システム,,株式会社,香川県,高松市,牟礼町大町１１６８番地２３,,37,201,7610122,,,2023-05-22,清算の結了等,,,2015-10-05,1,,,,,サンアイシステム,0
1413,7010403022815,登記記録の閉鎖等,0,2023-05-25,2023-05-09,千代田プロパティ２合同会社,,合同会社,東京都,港区,六本木１丁目６番１号泉ガーデンタワー,,13,103,1060032,,,2023-05-09,清算の結了等,,,2020-04-09,1,,,,,チヨダプロパティツー,0
1415,7010405018687,登記記録の閉鎖等,0,2023-05-25,2023-05-09,千代田プロパティ一般社団法人,,その他の設立登記法人,東京都,港区,六本木１丁目６番１号泉ガーデンタワー,,13,103,1060032,,,2023-05-09,清算の結了等,,,2020-04-08,1,,,,,チヨダプロパティ,0
1416,7010405021179,登記記録の閉鎖等,0,2023-05-25,2023-05-09,谷田部ファシリティ一般社団法人,,その他の設立登記法人,東京都,港区,六本木１丁目６番１号泉ガーデンタワー,,13,103,1060032,,,2023-05-09,清算の結了等,,,2022-07-06,1,,,,,ヤタベファシリティ,0
1427,7010702012632,登記記録の閉鎖等,0,2023-05-25,2023-05-19,有限会社ランドライン,,有限会社,東京都,足立区,本木１丁目２５番地７,,13,121,1230853,,,2023-05-19,合併による解散等,1030001083544,令和５年５月１日埼玉県川口市本蓮一丁目１４番１号株式会社日之出運輸（1030001083544）に合併し解散,2015-10-05,1,,,,,ランドライン,0
1428,7010705002746,登記記録の閉鎖等,0,2023-05-25,2023-05-22,特定非営利活動法人Ｗｏｒｌｄ　Ｋｉｄｓ　Ｍｕｓｅｕｍ,,その他の設立登記法人,神奈川県,茅ヶ崎市,矢畑８９７番１－Ｓ－１２１７,,14,207,2530085,,,2023-05-22,清算の結了等,,,2018-03-16,1,,,,,ワールドキッズミュージアム,0
1445,7011002022157,登記記録の閉鎖等,0,2023-05-25,2023-05-19,有限会社ケープラス,,有限会社,東京都,渋谷区,広尾１丁目１番３５－７０７号,,13,113,1500012,,,2023-05-19,清算の結了等,,,2015-10-05,1,,,,,ケープラス,0
1454,7011201018220,登記記録の閉鎖等,0,2023-05-25,2023-05-23,Ｓｔｅｌｌａ　Ｉｍｐｏｒｔｓ株式会社,,株式会社,東京都,中野区,東中野３丁目２番７号ハドソンＢ１,,13,114,1640003,,,2023-05-23,清算の結了等,,,2015-10-05,1,,,,,ステラインポーツ,0
1462,7011801019279,登記記録の閉鎖等,0,2023-05-25,2023-05-22,株式会社ＫＯＭＡＫＩ,,株式会社,東京都,葛飾区,水元２丁目１６番２２号,,13,122,1250032,,,2023-05-22,清算の結了等,,,2015-10-05,1,,,,,コマキ,0
1496,7021005001396,登記記録の閉鎖等,0,2023-05-25,2023-05-22,一般社団法人藤沢市介護保険事業所連絡会,,その他の設立登記法人,神奈川県,藤沢市,石川４８６２番地,,14,205,2520815,,,2023-05-22,清算の結了等,,,2015-10-05,1,,,,,フジサワシカイゴホケンジギョウショレンラクカイ,0
1503,7030002058457,登記記録の閉鎖等,0,2023-05-25,2023-05-01,有限会社香椎,,有限会社,埼玉県,朝霞市,泉水３丁目６番１３号,,11,227,3510024,,,2023-05-01,清算の結了等,,,2015-10-05,1,,,,,カシイ,0
1507,7040001066922,登記記録の閉鎖等,0,2023-05-25,2023-05-01,タムラ商事株式会社,,株式会社,千葉県,我孫子市,つくし野３丁目２番１１０７号,,12,222,2701164,,,2023-05-01,清算の結了等,,,2015-10-05,1,,,,,タムラショウジ,0
1508,7050001002926,登記記録の閉鎖等,0,2023-05-25,2023-05-19,株式会社大鈴商事,,株式会社,茨城県,水戸市,開江町１５３０番地２,,08,201,3114144,,,2023-05-19,清算の結了等,,,2015-10-05,1,,,,,ダイレイショウジ,0
1540,7120002007900,登記記録の閉鎖等,0,2023-05-25,2023-05-22,有限会社カワバタ電子,,有限会社,大阪府,大阪市城東区,中央２丁目８番７－３０６号,,27,118,5360005,,,2023-05-22,清算の結了等,,,2015-10-05,1,,,,,カワバタデンシ,0
1565,7180001062965,登記記録の閉鎖等,0,2023-05-25,2023-05-15,株式会社ロイドブラザーズ,,株式会社,東京都,中央区,日本橋本石町３丁目１番２号ＦＯＲＥＣＡＳＴ新常盤橋１１Ｆ,,13,102,1030021,,,2023-05-15,清算の結了等,,,2015-10-05,1,,,,,ロイドブラザーズ,0
1566,7180001075851,登記記録の閉鎖等,0,2023-05-25,2023-05-22,株式会社山和ボデー,,株式会社,愛知県,小牧市,大字二重堀７３１番地３６,,23,219,4850021,,,2023-05-22,清算の結了等,,,2015-10-05,1,,,,,サンワボデー,0
1567,7180001098860,登記記録の閉鎖等,0,2023-05-25,2023-05-23,大一建設株式会社,,株式会社,愛知県,あま市,森６丁目２４番地１４,,23,237,4901107,,,2023-05-23,清算の結了等,,,2015-10-05,1,,,,,ダイイチケンセツ,0
1580,7180005007314,登記記録の閉鎖等,0,2023-05-25,2023-05-19,性海寺,,その他の設立登記法人,愛知県,日進市,浅田町森下４番地,,23,230,4700124,,,2023-05-19,清算の結了等,,,2015-10-05,1,,,,,ショウカイジ,0
1596,7290001095599,登記記録の閉鎖等,0,2023-05-25,2023-05-18,株式会社ＴＫ工業,,株式会社,福岡県,大牟田市,山上町４番地１－４０７号,,40,202,8360833,,,2023-05-18,清算の結了等,,,2021-12-10,1,,,,,ティーケーコウギョウ,0
1601,7290801022595,登記記録の閉鎖等,0,2023-05-25,2023-05-25,株式会社アスピレーションクラフト,,株式会社,福岡県,北九州市小倉北区,緑ケ丘２丁目１１番２０号,,40,106,8030827,,,2023-05-25,清算の結了等,,,2016-06-07,1,,,,,アスピレーションクラフト,0
1613,7400005004370,登記記録の閉鎖等,0,2023-05-25,2023-05-19,大槌米雑穀協同組合,00086032,その他の設立登記法人,岩手県,上閉伊郡大槌町,末広町１番２号,,03,461,0281117,,,2023-05-19,清算の結了等,,,2015-10-05,1,,,,,オオツチベイザッコク,0
1621,7430005014359,登記記録の閉鎖等,0,2023-05-25,2023-05-16,一般社団法人北海道環境研究開発機構,,その他の設立登記法人,北海道,札幌市中央区,南四条西１０丁目１００５番地１,,01,101,0640804,,,2023-05-16,清算の結了等,,,2022-01-07,1,,,,,ホッカイドウカンキョウケンキュウカイハツキコウ,0
1636,8010001177366,登記記録の閉鎖等,0,2023-05-25,2023-05-16,株式会社ＣＣＧ　ＱＵＯＫＫＡ,,株式会社,東京都,千代田区,九段北１丁目３番５号,,13,101,1020073,,,2023-05-16,合併による解散等,1010001157382,令和５年５月１５日東京都千代田区九段北一丁目３番５号株式会社ＣＣＧ　ＳＴＡＧＧ（1010001157382）に合併し解散,2016-08-04,1,,,,,シーシージークオッカ,0
1638,8010001211983,登記記録の閉鎖等,0,2023-05-25,2023-04-26,Ｌｅａｐｅｘ株式会社,,株式会社,東京都,文京区,音羽１丁目２１－１０－４０２,,13,105,1120013,,,2023-04-26,清算の結了等,,,2020-08-31,1,,,,,リーペツクス,0
1660,8010403022814,登記記録の閉鎖等,0,2023-05-25,2023-05-09,千代田プロパティ１合同会社,,合同会社,東京都,港区,六本木１丁目６番１号泉ガーデンタワー,,13,103,1060032,,,2023-05-09,清算の結了等,,,2020-04-09,1,,,,,チヨダプロパティワン,0
1662,8010405018686,登記記録の閉鎖等,0,2023-05-25,2023-05-09,千代田プロパティ特定目的会社,,その他の設立登記法人,東京都,港区,六本木１丁目６番１号泉ガーデンタワー,,13,103,1060032,,,2023-05-09,清算の結了等,,,2020-04-08,1,,,,,チヨダプロパティ,0
1685,8011003012569,登記記録の閉鎖等,0,2023-05-25,2023-05-09,ＴＴ２合同会社,,合同会社,東京都,港区,六本木３丁目２番１号,,13,103,1060032,,,2023-05-09,合併による解散等,3011003007945,令和５年４月１日東京都港区六本木三丁目２番１号東京通信キャピタル合同会社（3011003007945）に合併し解散,2021-04-13,1,,,,,ティーティーツー,0
1694,8011102003238,登記記録の閉鎖等,0,2023-05-25,2023-05-23,有限会社桂城事務サービス,,有限会社,東京都,新宿区,百人町１丁目４番２２号,,13,104,1690073,,,2023-05-23,清算の結了等,,,2015-10-05,1,,,,,ケイジョウジムサービス,0
1702,8011203003252,登記記録の閉鎖等,0,2023-05-25,2023-05-23,Ｈｏｍｅ　Ｏｆｆｉｃｅ　Ｃｏｎｓｕｌｔａｎｔ合同会社,,合同会社,東京都,中野区,白鷺３丁目５番１６－２１３号,,13,114,1650035,,,2023-05-23,清算の結了等,,,2020-03-19,1,,,,,ホームオフィスコンサルタント,0
1705,8011701017191,登記記録の閉鎖等,0,2023-05-25,2023-05-19,日の出コンテナライン株式会社,,株式会社,東京都,足立区,本木１丁目２５番地７,,13,121,1230853,,,2023-05-19,合併による解散等,1030001083544,令和５年５月１日埼玉県川口市本蓮一丁目１４番１号株式会社日之出運輸（1030001083544）に合併し解散,2015-10-05,1,,,,,ヒノデコンテナライン,0
1717,8013301007003,登記記録の閉鎖等,0,2023-05-25,2023-05-22,株式会社大洋商事,,株式会社,東京都,豊島区,北大塚２丁目１０番１号オカベビル内,,13,116,1700004,,,2023-05-22,清算の結了等,,,2015-10-05,1,,,,,タイヨウショウジ,0
1732,8021002014755,登記記録の閉鎖等,0,2023-05-25,2023-05-22,有限会社シーキヤツスル,,有限会社,神奈川県,鎌倉市,長谷２丁目７番１５号,,14,204,2480016,,,2023-05-22,清算の結了等,,,2015-10-05,1,,,,,シーキヤツスル,0
1737,8030001072400,登記記録の閉鎖等,0,2023-05-25,2023-05-11,株式会社シー・ジャパン,,株式会社,埼玉県,比企郡吉見町,東野３丁目１６番地１０,,11,347,3550110,,,2023-05-11,清算の結了等,,,2015-10-05,1,,,,,シージャパン,0
1756,8050001011397,登記記録の閉鎖等,0,2023-05-25,2023-05-22,株式会社茨城篠田製作所,,株式会社,神奈川県,横浜市都筑区,北山田４丁目１８番１２号,,14,118,2240021,,,2023-05-22,清算の結了等,,,2015-10-05,1,,,,,イバラキシノダセイサクショ,0
1799,8200001004492,登記記録の閉鎖等,0,2023-05-25,2023-05-23,ファッションセミナー株式会社,,株式会社,岐阜県,岐阜市,常盤町１８番地,,21,201,5008058,,,2023-05-23,清算の結了等,,,2015-10-05,1,,,,,ファッションセミナー,0
1812,8240002045739,登記記録の閉鎖等,0,2023-05-25,2023-05-16,有限会社クリスタルテクニカ,,有限会社,広島県,福山市,神村町６６２３番地の１,,34,207,7290112,,,2023-05-16,清算の結了等,,,2015-10-05,1,,,,,クリスタルテクニカ,0
1824,8290805005538,登記記録の閉鎖等,0,2023-05-25,2023-05-23,協同組合直方市商店連合会,,その他の設立登記法人,福岡県,直方市,古町８番８号,,40,204,8220027,,,2023-05-23,清算の結了等,,,2015-10-05,1,,,,,ノオガタシショウテンレンゴウカイ,0
1832,8360002003222,登記記録の閉鎖等,0,2023-05-25,2023-05-23,有限会社仲座産業,,有限会社,沖縄県,豊見城市,字高安５６６番地１,,47,212,9010242,,,2023-05-23,清算の結了等,,,2015-10-05,1,,,,,ナカザサンギョウ,0
1836,8370005001214,登記記録の閉鎖等,0,2023-05-25,2023-05-23,医療法人光萩会大内歯科診療所,,その他の設立登記法人,宮城県,仙台市青葉区,中央４丁目６番１号,,04,101,9800021,,,2023-05-23,清算の結了等,,,2015-10-05,1,,,,,,0
1852,8470002013235,登記記録の閉鎖等,0,2023-05-25,2023-05-22,有限会社こんぴら商事,,有限会社,香川県,仲多度郡琴平町,榎井５５７番地,,37,403,7660004,,,2023-05-22,清算の結了等,,,2015-10-05,1,,,,,,0
1880,9010403027176,登記記録の閉鎖等,0,2023-05-25,2023-05-09,境古河ファシリティ合同会社,,合同会社,東京都,港区,六本木１丁目６番１号泉ガーデンタワー,,13,103,1060032,,,2023-05-09,清算の結了等,,,2022-02-28,1,,,,,サカイコガファシリティ,0
1926,9011802011828,登記記録の閉鎖等,0,2023-05-25,2023-05-22,協一鋼板工業有限会社,,有限会社,東京都,足立区,青井２丁目２０番１７号,,13,121,1200012,,,2023-05-22,清算の結了等,,,2015-10-05,1,,,,,キョウイツコウバンコウギョウ,0
1933,9013301002754,登記記録の閉鎖等,0,2023-05-25,2023-05-17,久保田産業株式会社,,株式会社,東京都,豊島区,南池袋２丁目２２番１号,,13,116,1710022,,,2023-05-17,清算の結了等,,,2015-10-05,1,,,,,クボタサンギョウ,0
1961,9030001048317,登記記録の閉鎖等,0,2023-05-25,2023-05-10,株式会社ライフワーク,,株式会社,埼玉県,和光市,白子３丁目３５番５号,,11,229,3510101,,,2023-05-10,清算の結了等,,,2015-10-05,1,,,,,ライフワーク,0
1985,9040005006179,登記記録の閉鎖等,0,2023-05-25,2023-05-02,医療法人社団明江会,,その他の設立登記法人,千葉県,成田市,吾妻３丁目４９番地の１,,12,211,2860018,,,2023-05-02,清算の結了等,,,2015-10-05,1,,,,,メイコウカイ,0
1994,9110002015019,登記記録の閉鎖等,0,2023-05-25,2023-05-18,ケータリングフード有限会社,,有限会社,新潟県,新潟市西区,流通センター３丁目３番地４流通会館１Ｆ,,15,107,9502031,,,2023-05-18,清算の結了等,,,2015-10-05,1,,,,,ケータリングフード,0
2021,9130001045989,登記記録の閉鎖等,0,2023-05-25,2023-05-12,株式会社典祥,,株式会社,京都府,舞鶴市,字行永４３７番地,,26,202,6250052,,,2023-05-12,清算の結了等,,,2015-10-05,1,,,,,テンショウ,0
2038,9180301021850,登記記録の閉鎖等,0,2023-05-25,2023-05-22,株式会社エムアイエム,,株式会社,愛知県,豊田市,聖心町３丁目４１番地１,,23,211,4710844,,,2023-05-22,清算の結了等,,,2015-10-05,1,,,,,エムアイエム,0
2040,9180302022716,登記記録の閉鎖等,0,2023-05-25,2023-05-22,有限会社辻工業,00075182,有限会社,愛知県,豊田市,西岡町切畑１２６番地,,23,211,4730936,,,2023-05-22,清算の結了等,,,2015-10-05,1,,,,,ツジコウギョウ,0
2043,9200002011330,登記記録の閉鎖等,0,2023-05-25,2023-05-24,有限会社ヤマウチ,,有限会社,岐阜県,羽島市,竹鼻町９５番地,,21,209,5016241,,,2023-05-24,清算の結了等,,,2015-10-05,1,,,,,ヤマウチ,0
2045,9240002021210,登記記録の閉鎖等,0,2023-05-25,2023-05-23,有限会社広島ウッドワーク,,有限会社,広島県,広島市安芸区,中野３丁目３番１１－２０６号,,34,107,7390321,,,2023-05-23,清算の結了等,,,2015-10-05,1,,,,,ヒロシマウッドワーク,0
2050,9260001006680,登記記録の閉鎖等,0,2023-05-25,2023-05-23,株式会社モリヤキット,,株式会社,岡山県,岡山市中区,江崎１７０番地の５,,33,102,7028005,,,2023-05-23,清算の結了等,,,2015-10-05,1,,,,,モリヤキット,0
