sequenceNumber,corporateNumber,process,correct,updateDate,changeDate,name,nameImageId,kind,prefectureName,cityName,streetNumber,addressImageId,prefectureCode,cityCode,postCode,addressOutside,addressOutsideImageId,closeDate,closeCause,successorCorporateNumber,changeCause,assignmentDate,latest,enName,enPrefectureName,enCityName,enAddressOutside,furigana,hihyoji
10,1010001131164,新規,0,2025-03-26,2025-03-26,株式会社西濱工務店,,株式会社,東京都,大島町,波浮港１７番地,,13,361,1000212,,,,,,,2025-03-26,1,,,,,ニシハマコウムテン,0
18,1010001253520,新規,0,2025-03-26,2025-03-26,株式会社ＴＥＣＨＩＮ,,株式会社,東京都,中央区,日本橋３丁目２番１４号新槇町ビル別館第一１階,,13,102,1030027,,,,,,,2025-03-26,1,,,,,テックイン,0
19,1010001253553,新規,0,2025-03-26,2025-03-26,株式会社佑恩ランド,,株式会社,東京都,中央区,日本橋浜町１丁目３番９－７０１号,,13,102,1030007,,,,,,,2025-03-26,1,,,,,ユウオンランド,0
25,1010003046872,新規,0,2025-03-26,2025-03-26,ＡＱＵＡ　ＰＯＭＭＥ　ＪＡＰＡＮ合同会社,,合同会社,東京都,中央区,銀座１丁目１２番４号,,13,102,1040061,,,,,,,2025-03-26,1,,,,,アクアポムジャパン,0
26,1010003046880,新規,0,2025-03-26,2025-03-26,コードアーツ合同会社,,合同会社,東京都,千代田区,神田須田町１丁目７番８号ＶＯＲＴ秋葉原ＩＶ２Ｆ,00138459,13,101,1010041,,,,,,,2025-03-26,1,,,,,コードアーツ,0
32,1010401189050,新規,0,2025-03-26,2025-03-26,Ａｃｔｉｖｅ　Ｕｎｉｔｅｄ株式会社,,株式会社,東京都,港区,港南４丁目７番５５－１００２号,,13,103,1080075,,,,,,,2025-03-26,1,,,,,アクティブユナイテッド,0
33,1010401189117,新規,0,2025-03-26,2025-03-26,株式会社ＭＤＦ,,株式会社,東京都,港区,虎ノ門３丁目７番１１号神谷町アネックス２号館６階,,13,103,1050001,,,,,,,2025-03-26,1,,,,,エムディーエフ,0
34,1010401189125,新規,0,2025-03-26,2025-03-26,株式会社ナースイズ,,株式会社,東京都,港区,三田２丁目１４番５－７０４号,,13,103,1080073,,,,,,,2025-03-26,1,,,,,ナースイズ,0
35,1010401189141,新規,0,2025-03-26,2025-03-26,アプリシエイト株式会社,,株式会社,東京都,港区,新橋３丁目２２番７号新橋ＮビルＢ１,,13,103,1050004,,,,,,,2025-03-26,1,,,,,アプリシエイト,0
36,1010403034700,新規,0,2025-03-26,2025-03-26,合同会社ＥＶＥ,,合同会社,東京都,港区,赤坂９丁目１番７赤坂レジデンシャルホテル３５５号室,,13,103,1070052,,,,,,,2025-03-26,1,,,,,イヴ,0
37,1010403034709,新規,0,2025-03-26,2025-03-26,合同会社Ｚｅｖ,,合同会社,東京都,港区,虎ノ門１丁目１番１８号ヒューリック虎ノ門ビル９階Ｌ＆Ｐ司法書士法人内,,13,103,1050001,,,,,,,2025-03-26,1,,,,,ゼヴ,0
39,1010501053841,新規,0,2025-03-26,2025-03-26,橋際株式会社,,株式会社,東京都,台東区,東上野３丁目２５－２鈴木ビル２階Ａ号,,13,106,1100015,,,,,,,2025-03-26,1,,,,,ハシキワ,0
40,1010601067023,新規,0,2025-03-26,2025-03-26,株式会社捷永Ｉｎｔｅｒｎａｔｉｏｎａｌ,,株式会社,東京都,江東区,辰巳３丁目９番２７号ＯＣＳ東京スカイゲート７階,,13,108,1350053,,,,,,,2025-03-26,1,,,,,ショウエイインターナショナル,0
42,1010701047461,新規,0,2025-03-26,2025-03-26,株式会社ＣＳエンジニア,,株式会社,東京都,品川区,西品川２丁目１４番４号２Ｆ,,13,109,1410033,,,,,,,2025-03-26,1,,,,,シーエスエンジニア,0
43,1010703007637,新規,0,2025-03-26,2025-03-26,合同会社グレイプス,,合同会社,東京都,品川区,小山１丁目９番１０－２０１号,,13,109,1420062,,,,,,,2025-03-26,1,,,,,グレイプス,0
47,1010901057070,新規,0,2025-03-26,2025-03-26,株式会社かげやまＦＰ事務所,,株式会社,東京都,世田谷区,北沢４丁目２８番４号,,13,112,1550031,,,,,,,2025-03-26,1,,,,,カゲヤマエフピージムショ,0
50,1011001168618,新規,0,2025-03-26,2025-03-26,株式会社リック,,株式会社,東京都,渋谷区,桜丘町２３番１７号シティコート桜丘４０８,,13,113,1500031,,,,,,,2025-03-26,1,,,,,リック,0
51,1011001168709,新規,0,2025-03-26,2025-03-26,Ｋｉｍｏｃｈｉｎｏ株式会社,,株式会社,東京都,目黒区,原町１丁目２９‐５‐１０１,,13,110,1520011,,,,,,,2025-03-26,1,,,,,キモチノ,0
56,1011101111031,新規,0,2025-03-26,2025-03-26,簡西文化株式会社,,株式会社,東京都,新宿区,富久町３２－３東新富久町ビル２０５号室,,13,104,1620067,,,,,,,2025-03-26,1,,,,,カンセイブンカ,0
58,1011103015701,新規,0,2025-03-26,2025-03-26,首都圏レジ２合同会社,,合同会社,東京都,新宿区,四谷４丁目３２番８号ＹＫＢサニービル６階,,13,104,1600004,,,,,,,2025-03-26,1,,,,,シュトケンレジツー,0
65,1012401042916,新規,0,2025-03-26,2025-03-26,株式会社Ｍｉｄｎｅｘｕｓ,,株式会社,東京都,調布市,深大寺東町６丁目３番地１０,,13,208,1820012,,,,,,,2025-03-26,1,,,,,ミッドネクサス,0
80,1020001161945,新規,0,2025-03-26,2025-03-26,Ｎｅｗｂｅｅ株式会社,,株式会社,神奈川県,横浜市保土ケ谷区,岩井町２８６－１,,14,106,2400023,,,,,,,2025-03-26,1,,,,,ニュービー,0
81,1020001162002,新規,0,2025-03-26,2025-03-26,株式会社アルテス,,株式会社,神奈川県,横浜市瀬谷区,目黒町３４番９号,,14,114,2460007,,,,,,,2025-03-26,1,,,,,アルテス,0
84,1020003028085,新規,0,2025-03-26,2025-03-26,アートステイ合同会社,,合同会社,神奈川県,横浜市港南区,丸山台３丁目３２－１５,,14,111,2330013,,,,,,,2025-03-26,1,,,,,アートステイ,0
85,1020003028093,新規,0,2025-03-26,2025-03-26,合同会社ソレイユ,,合同会社,神奈川県,横浜市保土ケ谷区,常盤台３８番２７号,,14,106,2400067,,,,,,,2025-03-26,1,,,,,ソレイユ,0
86,1020003028102,新規,0,2025-03-26,2025-03-26,合同会社Ｋ＆Ａ,,合同会社,神奈川県,川崎市高津区,久地２丁目１７番地１２号,,14,134,2130032,,,,,,,2025-03-26,1,,,,,ケーアンドエー,0
87,1020003028119,新規,0,2025-03-26,2025-03-26,合同会社ＰＨＯＴＯ‐ＣＩＴＲＵＳ,,合同会社,神奈川県,川崎市多摩区,登戸１７５番地第２ふじたけマンション１０６,,14,135,2140014,,,,,,,2025-03-26,1,,,,,フォトシトラス,0
88,1020003028127,新規,0,2025-03-26,2025-03-26,合同会社エイト,,合同会社,神奈川県,横浜市泉区,和泉が丘２丁目１９番１８号,,14,116,2450022,,,,,,,2025-03-26,1,,,,,エイト,0
92,1021001084772,新規,0,2025-03-26,2025-03-26,株式会社ニツコー,,株式会社,神奈川県,平塚市,御殿２丁目１２番８号,,14,203,2540061,,,,,,,2025-03-26,1,,,,,ニッコー,0
96,1030001165549,新規,0,2025-03-26,2025-03-26,西山ホールディングス株式会社,,株式会社,埼玉県,さいたま市見沼区,大字東門前２１６番地２,,11,104,3370016,,,,,,,2025-03-26,1,,,,,ニシヤマホールディングス,0
97,1030001165565,新規,0,2025-03-26,2025-03-26,株式会社ウイング,,株式会社,埼玉県,さいたま市浦和区,元町２丁目３５番１２号,,11,107,3300073,,,,,,,2025-03-26,1,,,,,ウイング,0
100,1030003026402,新規,0,2025-03-26,2025-03-26,合同会社しの,,合同会社,埼玉県,草加市,花栗１丁目１３番８号,,11,221,3400044,,,,,,,2025-03-26,1,,,,,シノ,0
101,1030003026410,新規,0,2025-03-26,2025-03-26,合同会社Ｂｅａｕｔｉｆｕｌ　Ｊａｐａｎ,,合同会社,埼玉県,東松山市,大字下唐子１１２１番地４,,11,212,3550076,,,,,,,2025-03-26,1,,,,,ビューティフルジャパン,0
109,1040001137976,新規,0,2025-03-26,2025-03-26,ＭＥＩＹＵＵ　ＧＬＯＢＡＬ株式会社,,株式会社,千葉県,柏市,加賀３丁目４番３号,,12,217,2770051,,,,,,,2025-03-26,1,,,,,メイユウグローバル,0
116,1060001038041,新規,0,2025-03-26,2025-03-26,株式会社サポートライフ,,株式会社,栃木県,宇都宮市,みどり野町２２番１３－１０５号,,09,201,3210136,,,,,,,2025-03-26,1,,,,,サポートライフ,0
121,1070003005823,新規,0,2025-03-26,2025-03-26,Ｓｈｗｅ　Ｐｈｙｏ　Ｎｇｅ合同会社,,合同会社,群馬県,館林市,高根町２５２２－１プレジェントハイツ館林１０３,,10,207,3740074,,,,,,,2025-03-26,1,,,,,シュエピョーゲー,0
123,1080003003421,新規,0,2025-03-26,2025-03-26,合同会社Ａ＆Ｓ,,合同会社,静岡県,榛原郡吉田町,川尻３５８３番地６８,,22,424,4210302,,,,,,,2025-03-26,1,,,,,エーアンドエス,0
126,1080101025400,新規,0,2025-03-26,2025-03-26,株式会社ワラフィーユ,,株式会社,静岡県,三島市,川原ケ谷２３０―２８,,22,206,4110022,,,,,,,2025-03-26,1,,,,,ワラフィーユ,0
130,1090003002785,新規,0,2025-03-26,2025-03-26,Ｔａｌｈａ　ｔｒａｄｉｎｇ合同会社,,合同会社,山梨県,南アルプス市,六科１４３９番地マイタウンしみず１２２号,,19,208,4000206,,,,,,,2025-03-26,1,,,,,タルハトレーディング,0
131,1100001038433,新規,0,2025-03-26,2025-03-26,ジュラル・インベストメンツ株式会社,,株式会社,長野県,北佐久郡軽井沢町,大字長倉１９３番地９３野村別荘地Ｂ１７,,20,321,3890111,,,,,,,2025-03-26,1,,,,,ジュラルインベストメンツ,0
132,1100003008054,新規,0,2025-03-26,2025-03-26,緑水金悦合同会社,,合同会社,長野県,上田市,舞田５７２番地,,20,203,3861326,,,,,,,2025-03-26,1,,,,,リョクスイキンエツ,0
141,1120001273697,新規,0,2025-03-26,2025-03-26,株式会社ものづくりｐｒｏ,,株式会社,大阪府,大阪市鶴見区,放出東３丁目２１番４０号ローレルコート放出２０５号室,,27,124,5380044,,,,,,,2025-03-26,1,,,,,モノヅクリプロ,0
142,1120001273821,新規,0,2025-03-26,2025-03-26,如如株式会社,,株式会社,大阪府,大阪市西成区,鶴見橋１丁目１０番１４号２０３室,,27,122,5570031,,,,,,,2025-03-26,1,,,,,ジョジョ,0
143,1120001273920,新規,0,2025-03-26,2025-03-26,先端ＡＩロボテック株式会社,,株式会社,大阪府,大阪市中央区,瓦町３丁目４番１０号日宝御堂ビル４Ｆ,,27,128,5410048,,,,,,,2025-03-26,1,,,,,センタンエーアイロボテック,0
144,1120001273937,新規,0,2025-03-26,2025-03-26,皇寿不動産株式会社,,株式会社,大阪府,大阪市北区,東天満２丁目７－４篠原東天満第２ビル６Ｆ,,27,127,5300044,,,,,,,2025-03-26,1,,,,,コウジュフドウサン,0
145,1120001273986,新規,0,2025-03-26,2025-03-26,ＩＭＧ　ＪＡＰＡＮ加日株式会社,,株式会社,大阪府,大阪市東成区,玉津１丁目３番２１号,,27,115,5370023,,,,,,,2025-03-26,1,,,,,アイエムジージャパンカニチ,0
151,1120003028934,新規,0,2025-03-26,2025-03-26,合同会社Ｓｕｎｒｉｓｅ,,合同会社,大阪府,大阪市西区,新町２丁目１９番２０号,,27,106,5500013,,,,,,,2025-03-26,1,,,,,サンライズ,0
152,1120003028942,新規,0,2025-03-26,2025-03-26,ｋｉｎｄ合同会社,,合同会社,大阪府,大阪市大正区,泉尾５丁目６番１号,,27,108,5510031,,,,,,,2025-03-26,1,,,,,カインド,0
166,1140001137900,新規,0,2025-03-26,2025-03-26,ｗｏｏｔｄｅｓｉｇｎ株式会社,,株式会社,兵庫県,神戸市長田区,海運町３丁目６番６号,,28,106,6530052,,,,,,,2025-03-26,1,,,,,ウートデザイン,0
174,1140003021838,新規,0,2025-03-26,2025-03-26,Ｋｏｍｏｄａ　Ｆｕｎｄ合同会社,,合同会社,兵庫県,神戸市東灘区,御影２丁目８－１１－４０２,,28,101,6580047,,,,,,,2025-03-26,1,,,,,コモダファンド,0
184,1180001166004,新規,0,2025-03-26,2025-03-26,株式会社大島屋,,株式会社,愛知県,丹羽郡扶桑町,大字高雄字定松６３番地１,,23,362,4800102,,,,,,,2025-03-26,1,,,,,オオシマヤ,0
185,1180001166029,新規,0,2025-03-26,2025-03-26,株式会社ＯＫＡＤＡ,,株式会社,愛知県,名古屋市緑区,曽根２丁目３８番地の２,,23,114,4580035,,,,,,,2025-03-26,1,,,,,オカダ,0
186,1180001166045,新規,0,2025-03-26,2025-03-26,株式会社ヤスノ,,株式会社,愛知県,名古屋市北区,楠５丁目１０３番地,,23,103,4620012,,,,,,,2025-03-26,1,,,,,ヤスノ,0
187,1180001166053,新規,0,2025-03-26,2025-03-26,株式会社Ｒインテリア,,株式会社,愛知県,瀬戸市,瘤木町８７番地の８,,23,204,4890879,,,,,,,2025-03-26,1,,,,,アールインテリア,0
188,1180001166061,新規,0,2025-03-26,2025-03-26,株式会社高蔵寺猫研究所,,株式会社,愛知県,春日井市,白山町６丁目１５番地４,,23,206,4870034,,,,,,,2025-03-26,1,,,,,コウゾウジネコケンキュウジョ,0
191,1180003028136,新規,0,2025-03-26,2025-03-26,合同会社Ｗｏｒｌｄ　Ｔｒａｄｅｒｓ,,合同会社,愛知県,名古屋市港区,高木町４丁目１４番地ハイツ高木２０１,,23,111,4550821,,,,,,,2025-03-26,1,,,,,,0
192,1180003028193,新規,0,2025-03-26,2025-03-26,合同会社ＲＥＡＧＡＮ,,合同会社,愛知県,名古屋市天白区,御前場町１５３番地の１０（島田分譲５４８号）,,23,116,4680023,,,,,,,2025-03-26,1,,,,,リーガン,0
196,1180301039644,新規,0,2025-03-26,2025-03-26,相生発酵株式会社,,株式会社,愛知県,西尾市,下町丸山５番地,,23,213,4450891,,,,,,,2025-03-26,1,,,,,アイオイハッコウ,0
198,1180303006502,新規,0,2025-03-26,2025-03-26,ＴａｍａＣｒｅａｔｅ合同会社,,合同会社,愛知県,高浜市,春日町６丁目５番地６０,,23,227,4441334,,,,,,,2025-03-26,1,,,,,タマクリエイト,0
204,1190003004978,新規,0,2025-03-26,2025-03-26,合同会社オンダ化成,,合同会社,三重県,三重郡川越町,大字豊田５１２番地３,,24,344,5108122,,,,,,,2025-03-26,1,,,,,オンダカセイ,0
206,1200001043555,新規,0,2025-03-26,2025-03-26,ＭＪレンタカー株式会社,,株式会社,岐阜県,羽島市,足近町市場１７５番地,,21,209,5016202,,,,,,,2025-03-26,1,,,,,エムジェイレンタカー,0
207,1200001043563,新規,0,2025-03-26,2025-03-26,ウッドブロック株式会社,,株式会社,岐阜県,加茂郡八百津町,和知２２７番地７,,21,505,5050305,,,,,,,2025-03-26,1,,,,,ウッドブロック,0
210,1230003002399,新規,0,2025-03-26,2025-03-26,合同会社ｗｒｅａｔｈ．Ｒ,,合同会社,富山県,富山市,北代４５１４番地２,,16,201,9300103,,,,,,,2025-03-26,1,,,,,リースアール,0
215,1260001040043,新規,0,2025-03-26,2025-03-26,株式会社ニシヤマ,,株式会社,岡山県,倉敷市,玉島１２０４番地１０,,33,202,7138102,,,,,,,2025-03-26,1,,,,,ニシヤマ,0
227,1290001109414,新規,0,2025-03-26,2025-03-26,株式会社ガクデンコウ,,株式会社,福岡県,朝倉郡筑前町,中牟田２４８番地９,,40,447,8380226,,,,,,,2025-03-26,1,,,,,ガクデンコウ,0
228,1290001109422,新規,0,2025-03-26,2025-03-26,株式会社松恵商会,,株式会社,福岡県,福岡市東区,和白丘２丁目３０番７号,,40,131,8110213,,,,,,,2025-03-26,1,,,,,マツエショウカイ,0
229,1290001109447,新規,0,2025-03-26,2025-03-26,株式会社ソウマ,,株式会社,福岡県,福岡市東区,箱崎４丁目２５－１０－３０６室,,40,131,8120053,,,,,,,2025-03-26,1,,,,,ソウマ,0
231,1290003016591,新規,0,2025-03-26,2025-03-26,合同会社ｄｒｅａｍ　ｏｎ,,合同会社,福岡県,嘉麻市,上山田６３６－３,,40,227,8210012,,,,,,,2025-03-26,1,,,,,ドリームオン,0
232,1290801031370,新規,0,2025-03-26,2025-03-26,青松技術株式会社,,株式会社,福岡県,北九州市小倉北区,下富野１丁目１１－１７トメコソウＡ１号室,,40,106,8020023,,,,,,,2025-03-26,1,,,,,アオマツギジュツ,0
233,1310001019511,新規,0,2025-03-26,2025-03-26,株式会社ＤＡＲＵＴＳＵ,,株式会社,長崎県,諫早市,貝津町８８１番地１,,42,204,8540063,,,,,,,2025-03-26,1,,,,,ダルツ,0
241,1340005009836,新規,0,2025-03-26,2025-03-26,一般財団法人徳之島町地域振興公社,,その他の設立登記法人,鹿児島県,大島郡徳之島町,亀津２９１８番地,,46,530,8917101,,,,,,,2025-03-26,1,,,,,トクノシマチョウチイキシンコウコウシャ,0
252,1390001017929,新規,0,2025-03-26,2025-03-26,株式会社遊佐ウインド,,株式会社,山形県,飽海郡遊佐町,比子字白木２３番の内４３番地,,06,461,9998438,,,,,,,2025-03-26,1,,,,,ユザウインド,0
254,1420001019062,新規,0,2025-03-26,2025-03-26,株式会社Ｆａｒｍなる実,,株式会社,青森県,弘前市,大字独狐字松ケ沢８番地１,,02,202,0368381,,,,,,,2025-03-26,1,,,,,ファームナルミ,0
255,1420003003089,新規,0,2025-03-26,2025-03-26,合同会社船越商事,,合同会社,青森県,下北郡佐井村,大字佐井字中道７８番地４１,,02,426,0394711,,,,,,,2025-03-26,1,,,,,フナコシショウジ,0
257,1430001093924,新規,0,2025-03-26,2025-03-26,株式会社Ｍａｒｉｎｅ,,株式会社,北海道,千歳市,花園７丁目６番３－５０５号,,01,224,0660028,,,,,,,2025-03-26,1,,,,,マリン,0
258,1430001094006,新規,0,2025-03-26,2025-03-26,株式会社Ｂｕｆｆａｌｏ,,株式会社,北海道,石狩市,花川南十条２丁目１８２番地,,01,235,0613210,,,,,,,2025-03-26,1,,,,,バッファロー,0
259,1430001094014,新規,0,2025-03-26,2025-03-26,株式会社ニーカーズ,,株式会社,北海道,札幌市豊平区,月寒東三条１８丁目１５番２１号,,01,105,0620053,,,,,,,2025-03-26,1,,,,,ニーカーズ,0
260,1430003017427,新規,0,2025-03-26,2025-03-26,合同会社Ｔａｂｅｓａ,,合同会社,北海道,札幌市南区,澄川五条５丁目１４番７号,,01,106,0050005,,,,,,,2025-03-26,1,,,,,タベサー,0
261,1430003017443,新規,0,2025-03-26,2025-03-26,合同会社Ｍ＆Ｙ　ＣＬＥＡＮ,,合同会社,北海道,札幌市南区,簾舞五条１丁目８番１０号,,01,106,0612265,,,,,,,2025-03-26,1,,,,,エムアンドワイクリーン,0
264,1470001020643,新規,0,2025-03-26,2025-03-26,株式会社ニルヤカナヤー,,株式会社,香川県,三豊市,三野町大見甲４９番地２,,37,208,7670031,,,,,,,2025-03-26,1,,,,,ニルヤカナヤー,0
267,1700150129699,新規,0,2025-03-26,2025-03-26,ＩＳＬＡＮＤ　ＥＮＴＥＲＰＲＩＳＥＳ,,外国会社等,千葉県,山武市,森１５０７番地３０オフィス５号,,12,237,2891214,スリランカ民主社会主義共和国、キャンディ、マハイヤワ、Ｎｏ．６９／Ｂ,,,,,,2025-03-26,1,,,,,アイランドエンタープライズ,0
279,2010001253552,新規,0,2025-03-26,2025-03-26,株式会社アマキギリ,,株式会社,東京都,文京区,大塚３丁目３５番１４－５０２号,,13,105,1120012,,,,,,,2025-03-26,1,,,,,アマキギリ,0
280,2010003046871,新規,0,2025-03-26,2025-03-26,ＭＡＩＣ合同会社,,合同会社,東京都,文京区,千石２丁目３３番３－３０９号,,13,105,1120011,,,,,,,2025-03-26,1,,,,,エムエーアイシー,0
282,2010005039799,新規,0,2025-03-26,2025-03-26,一般社団法人Ｓｍａｒｔ　ｓｋｉｎ,,その他の設立登記法人,東京都,千代田区,神田錦町３丁目１６番１号ＥＸ神田錦町ビル８階,,13,101,1010054,,,,,,,2025-03-26,1,,,,,スマートスキン,0
283,2010005039808,新規,0,2025-03-26,2025-03-26,一般社団法人剱岳,,その他の設立登記法人,東京都,千代田区,丸の内１丁目４番１号東京共同会計事務所内,,13,101,1000005,,,,,,,2025-03-26,1,,,,,ツルギダケ,0
289,2010401189124,新規,0,2025-03-26,2025-03-26,クアドリック株式会社,,株式会社,東京都,港区,港南２丁目１６番４号品川グランドセントラルタワー８階,,13,103,1080075,,,,,,,2025-03-26,1,,,,,クアドリック,0
290,2010401189149,新規,0,2025-03-26,2025-03-26,株式会社コザワガヴァネスインターナショナル,,株式会社,東京都,港区,北青山１丁目３番１号アールキューブ青山３階,,13,103,1070061,,,,,,,2025-03-26,1,,,,,コザワガヴァネスインターナショナル,0
291,2010403034708,新規,0,2025-03-26,2025-03-26,３Ｃ　Ａｄｖｉｓｏｒｓ合同会社,,合同会社,東京都,港区,六本木５丁目１７番１４－４０１号,,13,103,1060032,,,,,,,2025-03-26,1,,,,,スリーシーアドバイザーズ,0
296,2010701047460,新規,0,2025-03-26,2025-03-26,株式会社湾岸ファクトリー,,株式会社,東京都,品川区,上大崎２丁目１８番１６号ヴェリテ目黒３Ｆ,,13,109,1410021,,,,,,,2025-03-26,1,,,,,ワンガンファクトリー,0
300,2010901057078,新規,0,2025-03-26,2025-03-26,株式会社ＲＯＳＥＮＢＥＲＧ,,株式会社,東京都,世田谷区,深沢２丁目８番１４号,,13,112,1580081,,,,,,,2025-03-26,1,,,,,ローゼンバーグ,0
303,2011001168419,新規,0,2025-03-26,2025-03-26,フォース・イレヴン株式会社,,株式会社,東京都,渋谷区,渋谷２丁目１９番１９号ワコー宮益坂ビル５階,,13,113,1500002,,,,,,,2025-03-26,1,,,,,フォースイレヴン,0
304,2011001168567,新規,0,2025-03-26,2025-03-26,株式会社ｐｕｅｌｌａ,,株式会社,東京都,渋谷区,神宮前５丁目３６番１７号,,13,113,1500001,,,,,,,2025-03-26,1,,,,,プエラ,0
305,2011003021253,新規,0,2025-03-26,2025-03-26,ＥＬＶＩＡ　ＧＬＯＢＡＬ　ＥＸＰＲＥＳＳ合同会社,,合同会社,東京都,渋谷区,神宮前６丁目２３番４号桑野ビル２階,,13,113,1500001,,,,,,,2025-03-26,1,,,,,エルビアグローバルエクスプレス,0
310,2011501031852,新規,0,2025-03-26,2025-03-26,株式会社坂本商事,,株式会社,東京都,荒川区,町屋５丁目１９番３号富島ビル４０４Ｃ,,13,118,1160001,,,,,,,2025-03-26,1,,,,,サカモトショウジ,0
312,2011503006464,新規,0,2025-03-26,2025-03-26,合同会社ポジション,,合同会社,東京都,北区,赤羽南１丁目５番７号,,13,117,1150044,,,,,,,2025-03-26,1,,,,,ポジション,0
319,2011701028186,新規,0,2025-03-26,2025-03-26,Ａｄａｌｉ株式会社,,株式会社,東京都,江戸川区,西小岩５丁目１３番１３号小出マンション１２８号室,,13,123,1330057,,,,,,,2025-03-26,1,,,,,アタリ,0
320,2011701028194,新規,0,2025-03-26,2025-03-26,株式会社ＳＵＧＡＹＡ,,株式会社,東京都,江戸川区,平井３丁目３０番２号ビューネタワー２００９,,13,123,1320035,,,,,,,2025-03-26,1,,,,,スガヤ,0
322,2012401042915,新規,0,2025-03-26,2025-03-26,ＳＯＥＲＵ経営株式会社,,株式会社,東京都,稲城市,大丸３１５－３,,13,225,2060801,,,,,,,2025-03-26,1,,,,,ソエルケイエイ,0
324,2013101009659,新規,0,2025-03-26,2025-03-26,株式会社サンキューヤ設備,,株式会社,東京都,青梅市,塩船２５４番地,,13,205,1980011,,,,,,,2025-03-26,1,,,,,サンキューヤセツビ,0
325,2013103001424,新規,0,2025-03-26,2025-03-26,合同会社アクティブリサーチ,,合同会社,東京都,福生市,大字福生１２３３,,13,218,1970011,,,,,,,2025-03-26,1,,,,,アクティブリサーチ,0
327,2020001161936,新規,0,2025-03-26,2025-03-26,株式会社フロリア,,株式会社,神奈川県,横浜市鶴見区,下末吉２丁目２４番３－３１８号,,14,101,2300012,,,,,,,2025-03-26,1,,,,,フロリア,0
328,2020001161985,新規,0,2025-03-26,2025-03-26,４ＡＭ株式会社,,株式会社,神奈川県,横浜市中区,福富町西通１番地７セントレー横浜関内１０１号室,,14,104,2310042,,,,,,,2025-03-26,1,,,,,フォーエーエム,0
329,2020003028118,新規,0,2025-03-26,2025-03-26,合同会社ワンネス,,合同会社,神奈川県,横浜市青葉区,新石川１丁目３６番地５アヴニール第１－４１１号,,14,117,2250003,,,,,,,2025-03-26,1,,,,,ワンネス,0
332,2021001084788,新規,0,2025-03-26,2025-03-26,株式会社Ｑｕａｄ　Ｌａｎｄ,,株式会社,神奈川県,藤沢市,鵠沼橘１丁目３番１２～３０１号,00138437,14,205,2510024,,,,,,,2025-03-26,1,,,,,クアッドランド,0
334,2021003015774,新規,0,2025-03-26,2025-03-26,合同会社Ｃ‐ｇｌｏｂａｌ,,合同会社,神奈川県,相模原市中央区,南橋本１丁目１３番１５号,,14,152,2520253,,,,,,,2025-03-26,1,,,,,シーグローバル,0
339,2030001165572,新規,0,2025-03-26,2025-03-26,トーテックスホールディングス株式会社,,株式会社,埼玉県,上尾市,大字上野７６５番地,,11,219,3620058,,,,,,,2025-03-26,1,,,,,トーテックスホールディングス,0
340,2030001165580,新規,0,2025-03-26,2025-03-26,株式会社Ｙ’ｓ,,株式会社,埼玉県,行田市,大字長野１００６番地２,,11,206,3610023,,,,,,,2025-03-26,1,,,,,ワイズ,0
342,2030003026418,新規,0,2025-03-26,2025-03-26,合同会社ＴＥＰ,,合同会社,埼玉県,さいたま市中央区,本町東７丁目１番１－１１１２号,,11,105,3380003,,,,,,,2025-03-26,1,,,,,テーイーピー,0
343,2030005022092,新規,0,2025-03-26,2025-03-26,特定非営利活動法人沼と里山,,その他の設立登記法人,埼玉県,比企郡滑川町,大字福田２１３２,,11,341,3550803,,,,,,,2025-03-26,1,,,,,ヌマトサトヤマ,0
348,2040001137975,新規,0,2025-03-26,2025-03-26,株式会社オークリンク,,株式会社,千葉県,千葉市若葉区,若松町４１１番地３４,,12,104,2640021,,,,,,,2025-03-26,1,,,,,,0
350,2040003027159,新規,0,2025-03-26,2025-03-26,京葉管工合同会社,,合同会社,千葉県,市原市,椎津９９８－３スクエアハイム１０６号室,,12,219,2990118,,,,,,,2025-03-26,1,,,,,ケイヨウカンコウ,0
351,2040003027183,新規,0,2025-03-26,2025-03-26,合同会社ＫＵＳＡ　ｎｏ　ＧＯＥＮ,,合同会社,千葉県,千葉市美浜区,高浜３丁目５番６棟１０４号,,12,106,2610003,,,,,,,2025-03-26,1,,,,,クサノゴエン,0
363,2080101025399,新規,0,2025-03-26,2025-03-26,株式会社ＨＩＲＯ　ＳＴＡＧＥ,,株式会社,静岡県,駿東郡長泉町,本宿５９５番地の１６,,22,342,4110945,,,,,,,2025-03-26,1,,,,,ヒロステージ,0
368,2090003002768,新規,0,2025-03-26,2025-03-26,ＢＩＧ　ＫＩＮＧ　ＣＯＭＰＡＮＹ合同会社,,合同会社,山梨県,南都留郡山中湖村,山中１３８５番地の３３,,19,425,4010501,,,,,,,2025-03-26,1,,,,,ビッグキングカンパニー,0
372,2100001038432,新規,0,2025-03-26,2025-03-26,株式会社Ｐｌａｉｓｉｒ,,株式会社,長野県,松本市,波田２１９８－４,,20,202,3901401,,,,,,,2025-03-26,1,,,,,プレジール,0
373,2100001038440,新規,0,2025-03-26,2025-03-26,株式会社グランディール・ナナ,,株式会社,長野県,小県郡長和町,大門３５１８番地２３８１,,20,350,3860601,,,,,,,2025-03-26,1,,,,,グランディールナナ,0
386,2120001273944,新規,0,2025-03-26,2025-03-26,Ａ‐ＭＩＴ株式会社,,株式会社,大阪府,大阪市住之江区,東加賀屋３丁目１番３号,,27,125,5590012,,,,,,,2025-03-26,1,,,,,エーミット,0
387,2120001273969,新規,0,2025-03-26,2025-03-26,株式会社大南商事,,株式会社,大阪府,大阪市中央区,日本橋１丁目１８番１号日本一会舘４階,,27,128,5420073,,,,,,,2025-03-26,1,,,,,ダイナンショウジ,0
394,2120003028933,新規,0,2025-03-26,2025-03-26,合同会社ＪＩＫＫＥＮ,,合同会社,大阪府,大阪市中央区,南船場１丁目１０－１２ラインビルド南船場１００４号,,27,128,5420081,,,,,,,2025-03-26,1,,,,,ジッケン,0
395,2120003028941,新規,0,2025-03-26,2025-03-26,合同会社アクシオンラボ,,合同会社,大阪府,大阪市北区,梅田１丁目１－３大阪駅前第３ビル２９階１－１－１号室,,27,127,5300001,,,,,,,2025-03-26,1,,,,,アクシオンラボ,0
403,2120901050633,新規,0,2025-03-26,2025-03-26,栄盛株式会社,,株式会社,大阪府,豊中市,寺内１丁目１０－７エレガンス緑地公園２０３,,27,203,5610872,,,,,,,2025-03-26,1,,,,,エイセイ,0
422,2140001137841,新規,0,2025-03-26,2025-03-26,株式会社メッドケア,,株式会社,兵庫県,伊丹市,中央３丁目３番１４－１０７号,,28,207,6640851,,,,,,,2025-03-26,1,,,,,メッドケア,0
423,2140001137858,新規,0,2025-03-26,2025-03-26,株式会社ハレルヤ建築企画,,株式会社,兵庫県,加古川市,西神吉町岸５２２番地の１－１４０３号,,28,210,6750045,,,,,,,2025-03-26,1,,,,,ハレルヤケンチクキカク,0
424,2140001137882,新規,0,2025-03-26,2025-03-26,株式会社東政,,株式会社,兵庫県,姫路市,大津区勘兵衛町２丁目５７番地の３,,28,201,6711132,,,,,,,2025-03-26,1,,,,,トウセイ,0
425,2140001137890,新規,0,2025-03-26,2025-03-26,株式会社食で笑顔を,,株式会社,兵庫県,神戸市中央区,中山手通２丁目１１－１ニイビル４Ｆ,,28,110,6500004,,,,,,,2025-03-26,1,,,,,ショクデエガオヲ,0
426,2140003021829,新規,0,2025-03-26,2025-03-26,あたたかりんく合同会社,,合同会社,兵庫県,加古川市,加古川町本町３１０番地,,28,210,6750037,,,,,,,2025-03-26,1,,,,,アタタカリンク,0
433,2160003003429,新規,0,2025-03-26,2025-03-26,合同会社Ｊｏｉｎｏｐｉａ,,合同会社,滋賀県,大津市,下阪本４丁目１４番２５－２０１号ＬＵＣＥ比叡,,25,201,5200105,,,,,,,2025-03-26,1,,,,,ジョイノピア,0
437,2170003002181,新規,0,2025-03-26,2025-03-26,合同会社ＲＥＯＬＩＴＥ,,合同会社,和歌山県,橋本市,原田４８７番地の２４,,30,203,6480063,,,,,,,2025-03-26,1,,,,,レオライト,0
442,2180001166003,新規,0,2025-03-26,2025-03-26,隠市株式会社,,株式会社,愛知県,名古屋市中区,新栄１丁目１１番１５号イトサンビル２０２号,,23,106,4600007,,,,,,,2025-03-26,1,,,,,インイチ,0
443,2180001166028,新規,0,2025-03-26,2025-03-26,羽柴技建株式会社,,株式会社,愛知県,愛西市,諏訪町郷東９５番地４,,23,232,4968011,,,,,,,2025-03-26,1,,,,,ハシバギケン,0
444,2180001166060,新規,0,2025-03-26,2025-03-26,ハレナ・グループ株式会社,,株式会社,愛知県,名古屋市天白区,荒池２丁目２３１０番地,,23,116,4680013,,,,,,,2025-03-26,1,,,,,ハレナグループ,0
449,2180003028192,新規,0,2025-03-26,2025-03-26,エバーグリーンコンサルティング合同会社,,合同会社,愛知県,名古屋市緑区,藤塚１丁目２３２３番地,,23,114,4580813,,,,,,,2025-03-26,1,,,,,エバーグリーンコンサルティング,0
450,2180005020998,新規,0,2025-03-26,2025-03-26,一般社団法人中小企業ＤＸ推進機構,,その他の設立登記法人,愛知県,名古屋市北区,五反田町２８８番地,,23,103,4620011,,,,,,,2025-03-26,1,,,,,チュウショウキギョウディーエックススイシンキコウ,0
451,2180301039643,新規,0,2025-03-26,2025-03-26,株式会社相生ユニビオ,,株式会社,愛知県,西尾市,下町丸山５番地,,23,213,4450891,,,,,,,2025-03-26,1,,,,,アイオイユニビオ,0
455,2190001032096,新規,0,2025-03-26,2025-03-26,福田鉱業株式会社,,株式会社,三重県,津市,河芸町東千里９２４番地,,24,201,5100303,,,,,,,2025-03-26,1,,,,,フクダコウギョウ,0
456,2190003004977,新規,0,2025-03-26,2025-03-26,合同会社しもむら,,合同会社,三重県,伊勢市,中村町３０２番地１８７,,24,203,5160028,,,,,,,2025-03-26,1,,,,,シモムラ,0
462,2230001020798,新規,0,2025-03-26,2025-03-26,株式会社椿電設,,株式会社,富山県,富山市,町村１０８番地５,,16,201,9300952,,,,,,,2025-03-26,1,,,,,ツバキデンセツ,0
463,2230002007844,新規,0,2025-03-26,2025-03-26,有限会社北陸教育研究社,,有限会社,富山県,魚津市,大海寺野５９１番地の２,,16,204,9370816,,,,,,,2025-03-26,1,,,,,ホクリクキョウイクケンキュウシャ,0
465,2240001064695,新規,0,2025-03-26,2025-03-26,ヒカルプランニング株式会社,,株式会社,広島県,広島市南区,東雲３丁目１番２５－２１号,,34,103,7340022,,,,,,,2025-03-26,1,,,,,ヒカルプランニング,0
466,2240001064704,新規,0,2025-03-26,2025-03-26,ジュンヤク・コーポレーション株式会社,,株式会社,広島県,広島市中区,加古町７番４メディスビルわたなべ２０１号,,34,101,7300812,,,,,,,2025-03-26,1,,,,,ジュンヤクコーポレーション,0
473,2250005008994,新規,0,2025-03-26,2025-03-26,医療法人厚心会,,その他の設立登記法人,山口県,下関市,大字石原１２７,,35,201,7510886,,,,,,,2025-03-26,1,,,,,コウシンカイ,0
483,2290001109413,新規,0,2025-03-26,2025-03-26,ライズ株式会社,,株式会社,福岡県,朝倉市,三奈木４２１７,,40,228,8380023,,,,,,,2025-03-26,1,,,,,ライズ,0
484,2290001109438,新規,0,2025-03-26,2025-03-26,株式会社そばに,,株式会社,福岡県,小郡市,あすみ１丁目６４番地３,,40,216,8380109,,,,,,,2025-03-26,1,,,,,ソバニ,0
485,2290001109446,新規,0,2025-03-26,2025-03-26,ＴＡＳＵＫＡＬ株式会社,,株式会社,福岡県,福岡市博多区,美野島２丁目２９－１０－１０３,,40,132,8120017,,,,,,,2025-03-26,1,,,,,タスカル,0
488,2290002057826,新規,0,2025-03-26,2025-03-26,有限会社一心亭,,有限会社,福岡県,福岡市中央区,長浜１丁目４番２２号,,40,133,8100072,,,,,,,2025-03-26,1,,,,,イッシンテイ,0
490,2300001014124,新規,0,2025-03-26,2025-03-26,株式会社Ｗｅ　Ｋｎｏｔ,,株式会社,佐賀県,三養基郡みやき町,大字江口３６１６番地,,41,346,8490112,,,,,,,2025-03-26,1,,,,,ウィノット,0
495,2330001033006,新規,0,2025-03-26,2025-03-26,株式会社ギブライブ,,株式会社,熊本県,宇土市,境目町３１－２,,43,211,8690417,,,,,,,2025-03-26,1,,,,,ギブライブ,0
501,2350001019449,新規,0,2025-03-26,2025-03-26,株式会社尾前の環,,株式会社,宮崎県,東臼杵郡椎葉村,大字不土野３５７番地,,45,430,8831603,,,,,,,2025-03-26,1,,,,,オマエノワ,0
513,2430001093997,新規,0,2025-03-26,2025-03-26,株式会社ＱＵＡＲＣＯ,,株式会社,北海道,札幌市中央区,南三条西８丁目１１番地２島屋ビル２－Ｃ,,01,101,0600063,,,,,,,2025-03-26,1,,,,,カルコ,0
514,2430001094005,新規,0,2025-03-26,2025-03-26,株式会社Ｉｔｅｒ　Ｔｏｕｒ,,株式会社,北海道,札幌市中央区,大通西８丁目１番地８Ｆ６０－２０４号,,01,101,0600042,,,,,,,2025-03-26,1,,,,,イーテルツアー,0
515,2430001094013,新規,0,2025-03-26,2025-03-26,ＦｏｏｄＳＨＩＦＴ株式会社,,株式会社,北海道,札幌市北区,新琴似十一条９丁目７番１号,,01,102,0010911,,,,,,,2025-03-26,1,,,,,フードシフト,0
518,2440001009580,新規,0,2025-03-26,2025-03-26,株式会社ＨＩＤＥ坊,,株式会社,北海道,函館市,湯川町２丁目１４－２１,,01,202,0420932,,,,,,,2025-03-26,1,,,,,ヒデボウ,0
519,2450003002624,新規,0,2025-03-26,2025-03-26,石川ガーデン合同会社,,合同会社,北海道,上川郡当麻町,緑郷３区,,01,454,0781335,,,,,,,2025-03-26,1,,,,,イシカワガーデン,0
525,2490001010996,新規,0,2025-03-26,2025-03-26,株式会社嶺南,,株式会社,高知県,高知市,大原町９３－１,,39,201,7808031,,,,,,,2025-03-26,1,,,,,,0
530,2700150129698,新規,0,2025-03-26,2025-03-26,ＲＵＨＵＮＵ　ＥＮＴＥＲＰＲＩＳＥＳ,,外国会社等,千葉県,山武市,森１５０７番地３０オフィス４号,,12,237,2891214,スリランカ民主社会主義共和国、ウクウェラ、マタレロード、Ｎｏ．１９９／８,,,,,,2025-03-26,1,,,,,ルフヌエンタープライズ,0
542,3010001253519,新規,0,2025-03-26,2025-03-26,株式会社ＬＩＴＡＩ,,株式会社,東京都,千代田区,麹町３丁目５番地４麹町インテリジェントビルＢ－１,,13,101,1020083,,,,,,,2025-03-26,1,,,,,リタアイ,0
543,3010001253551,新規,0,2025-03-26,2025-03-26,株式会社ｇｒｏｗ,,株式会社,東京都,文京区,音羽１丁目２２番２０－１０２号,,13,105,1120013,,,,,,,2025-03-26,1,,,,,グロウ,0
547,3010003046788,新規,0,2025-03-26,2025-03-26,合同会社スマートリーガル,,合同会社,東京都,中央区,日本橋室町１丁目１１番１２号日本橋水野ビル７階,,13,102,1030022,,,,,,,2025-03-26,1,,,,,スマートリーガル,0
548,3010003046862,新規,0,2025-03-26,2025-03-26,伏見テック合同会社,,合同会社,東京都,中央区,日本橋室町１丁目１１番１２号日本橋水野ビル７階,,13,102,1030022,,,,,,,2025-03-26,1,,,,,フシミテック,0
550,3010005039798,新規,0,2025-03-26,2025-03-26,一般社団法人日本個人事業主支援協会,,その他の設立登記法人,東京都,中央区,明石町８番１号聖路加タワー３２階,,13,102,1040044,,,,,,,2025-03-26,1,,,,,ニッポンコジンジギョウヌシシエンキョウカイ,0
561,3010401188876,新規,0,2025-03-26,2025-03-26,株式会社みもざコンサルティング,,株式会社,東京都,港区,新橋２丁目２０－１５新橋駅前ビル１号館フィルポート,,13,103,1050004,,,,,,,2025-03-26,1,,,,,ミモザコンサルティング,0
562,3010401189115,新規,0,2025-03-26,2025-03-26,株式会社ｚｉｃｃａ,,株式会社,東京都,港区,南青山３丁目１８番１９号,,13,103,1070062,,,,,,,2025-03-26,1,,,,,ジッカ,0
563,3010401189164,新規,0,2025-03-26,2025-03-26,株式会社アン・ラポール,,株式会社,東京都,港区,高輪１丁目４番２３号,,13,103,1080074,,,,,,,2025-03-26,1,,,,,アンラポール,0
564,3010403034632,新規,0,2025-03-26,2025-03-26,合同会社ＨＣＣ,,合同会社,東京都,港区,白金３丁目１番１３号日恵ビル２階,,13,103,1080072,,,,,,,2025-03-26,1,,,,,エイチシーシー,0
566,3010405024243,新規,0,2025-03-26,2025-03-26,一般社団法人Ｗｕｔｉｐ,,その他の設立登記法人,東京都,港区,虎ノ門１丁目１番１８号ヒューリック虎ノ門ビル９階Ｌ＆Ｐ司法書士法人内,,13,103,1050001,,,,,,,2025-03-26,1,,,,,ウーティップ,0
572,3010703007643,新規,0,2025-03-26,2025-03-26,合同会社燦,,合同会社,東京都,品川区,旗の台２丁目５番９－２０４号マイキャッスル旗の台,,13,109,1420064,,,,,,,2025-03-26,1,,,,,サン,0
576,3010901057069,新規,0,2025-03-26,2025-03-26,株式会社Ａ．ＣＯＣＯＰＲＯ　ＴＥＲＡＣＣＥ,,株式会社,東京都,世田谷区,奥沢５丁目２０番１１号自由が丘ＴＳビル３Ｆ,,13,112,1580083,,,,,,,2025-03-26,1,,,,,エードットココプロテラス,0
577,3010901057077,新規,0,2025-03-26,2025-03-26,ｋａｙａ　ｈｏｌｄｉｎｇｓ株式会社,,株式会社,東京都,世田谷区,池尻３丁目４番５号,,13,112,1540001,,,,,,,2025-03-26,1,,,,,カヤホールディングス,0
578,3010903009794,新規,0,2025-03-26,2025-03-26,ＭａｔｃｈａＣｒｅａｔｅ合同会社,,合同会社,東京都,世田谷区,太子堂４丁目１８番１５号マガザン三軒茶屋２－３Ｆ－３,,13,112,1540004,,,,,,,2025-03-26,1,,,,,マッチャクリエイト,0
585,3011003021285,新規,0,2025-03-26,2025-03-26,合同会社ＲｅＮＥＷ,,合同会社,東京都,渋谷区,恵比寿西２丁目２１番１５号荒井ビル１０３,,13,113,1500021,,,,,,,2025-03-26,1,,,,,レニュー,0
586,3011103015690,新規,0,2025-03-26,2025-03-26,合同会社新日本総研,,合同会社,東京都,新宿区,新宿６丁目１９番１５号,,13,104,1600022,,,,,,,2025-03-26,1,,,,,シンニッポンソウケン,0
589,3011201026210,新規,0,2025-03-26,2025-03-26,株式会社アリイイリエアーキテクツ,,株式会社,東京都,中野区,本町４丁目５番１８号‐２階,,13,114,1640012,,,,,,,2025-03-26,1,,,,,アリイイリエアーキテクツ,0
590,3011201026219,新規,0,2025-03-26,2025-03-26,株式会社クラフトマン,,株式会社,東京都,中野区,上鷺宮４丁目１５－８,,13,114,1650031,,,,,,,2025-03-26,1,,,,,クラフトマン,0
591,3011303005475,新規,0,2025-03-26,2025-03-26,祥瑞合同会社,,合同会社,東京都,杉並区,高円寺南２丁目４９－２－１０３,,13,115,1660003,,,,,,,2025-03-26,1,,,,,ショウズイ,0
602,3012303002132,新規,0,2025-03-26,2025-03-26,Ｌｏｃｏｚｉｋ合同会社,,合同会社,東京都,町田市,大蔵町２９５３－１－１０２,,13,209,1950062,,,,,,,2025-03-26,1,,,,,ロコジンク,0
605,3012805003330,新規,0,2025-03-26,2025-03-26,一般社団法人全日本無通整体協会,,その他の設立登記法人,東京都,立川市,錦町５丁目１８番５号シャルマンハウス２０５,,13,202,1900022,,,,,,,2025-03-26,1,,,,,ゼンニホンムツウセイタイキョウカイ,0
606,3013101009658,新規,0,2025-03-26,2025-03-26,株式会社ＳＴＡＢＬＥ,,株式会社,東京都,福生市,加美平３丁目１８番地３,,13,218,1970012,,,,,,,2025-03-26,1,,,,,ステイブル,0
613,3020001161976,新規,0,2025-03-26,2025-03-26,株式会社スリスタ,,株式会社,神奈川県,横浜市神奈川区,金港町５－１４クアドリフォリオ８階,,14,102,2210056,,,,,,,2025-03-26,1,,,,,スリスタ,0
615,3020003028100,新規,0,2025-03-26,2025-03-26,合同会社ＳｈｏｗＲａｄＳ,,合同会社,神奈川県,横浜市神奈川区,金港町５－１４クアドリフォリオ８階,,14,102,2210056,,,,,,,2025-03-26,1,,,,,シャワーズ,0
616,3020003028117,新規,0,2025-03-26,2025-03-26,ＡｔｈｌｅＣｏｒｅ合同会社,,合同会社,神奈川県,川崎市多摩区,東生田４丁目１０番１４－１号,,14,135,2140031,,,,,,,2025-03-26,1,,,,,アスレコア,0
622,3021001084795,新規,0,2025-03-26,2025-03-26,フジモトホールディングス株式会社,,株式会社,神奈川県,藤沢市,湘南台７丁目９番地の２７,,14,205,2520804,,,,,,,2025-03-26,1,,,,,フジモトホールディングス,0
623,3021001084804,新規,0,2025-03-26,2025-03-26,株式会社ｔｆｆ,,株式会社,神奈川県,足柄下郡湯河原町,土肥１丁目１３番地の１,,14,384,2590303,,,,,,,2025-03-26,1,,,,,ティーエフエフ,0
629,3030001165588,新規,0,2025-03-26,2025-03-26,株式会社ガラスステーション東松山,,株式会社,埼玉県,東松山市,箭弓町１丁目１１－７,,11,212,3550028,,,,,,,2025-03-26,1,,,,,ガラスステーションヒガシマツヤマ,0
632,3030003026400,新規,0,2025-03-26,2025-03-26,拓新合同会社,,合同会社,埼玉県,越谷市,大字大里１０７番地８,,11,222,3430031,,,,,,,2025-03-26,1,,,,,タクシン,0
633,3030003026409,新規,0,2025-03-26,2025-03-26,合同会社ＫＡＡＹＡＲＡ　ＧＲＯＵＰ,,合同会社,埼玉県,富士見市,東みずほ台４丁目１２番７号スカイピアみずほ台１０１,,11,235,3540015,,,,,,,2025-03-26,1,,,,,カーヤラグループ,0
643,3040003027166,新規,0,2025-03-26,2025-03-26,天和合同会社,,合同会社,千葉県,千葉市若葉区,大宮町３８３１番地２７,,12,104,2640016,,,,,,,2025-03-26,1,,,,,テンワ,0
648,3050001056372,新規,0,2025-03-26,2025-03-26,株式会社明日香,,株式会社,茨城県,水戸市,元吉田町１３１２番地の２,,08,201,3100836,,,,,,,2025-03-26,1,,,,,アスカ,0
649,3050003009147,新規,0,2025-03-26,2025-03-26,合同会社ＢＬＯＯＭ,,合同会社,茨城県,牛久市,南７丁目１７番地１７号,,08,219,3001222,,,,,,,2025-03-26,1,,,,,ブルーム,0
651,3060001038048,新規,0,2025-03-26,2025-03-26,株式会社ｍｉＲＩＰｕｒｅ,,株式会社,栃木県,下野市,薬師寺３３１１番地１,,09,216,3290431,,,,,,,2025-03-26,1,,,,,ミリピュア,0
653,3070001042742,新規,0,2025-03-26,2025-03-26,株式会社Ｄｏｍｉｎａｔｅ,,株式会社,群馬県,沼田市,利根町追貝４１３番地２,,10,206,3780303,,,,,,,2025-03-26,1,,,,,ドミネイト,0
654,3070001042759,新規,0,2025-03-26,2025-03-26,株式会社Ｓｈｉｋｉ＆Ａｒｔｉｓａｎｓ,,株式会社,群馬県,太田市,東長岡町５１３－４０,,10,205,3730812,,,,,,,2025-03-26,1,,,,,シキアンドアーティサンズ,0
664,3090003002783,新規,0,2025-03-26,2025-03-26,ＤＵＣ　ＰＨＵＣ合同会社,,合同会社,山梨県,南巨摩郡富士川町,長澤９７番地ビレッジハウス増穂１－４０２,,19,368,4000505,,,,,,,2025-03-26,1,,,,,ドゥックフック,0
666,3100001038431,新規,0,2025-03-26,2025-03-26,株式会社三角家,,株式会社,長野県,飯田市,鼎中平２３６３番地５,,20,205,3950801,,,,,,,2025-03-26,1,,,,,サンカクヤ,0
674,3120001273729,新規,0,2025-03-26,2025-03-26,株式会社ＧＩＶＥＲ,,株式会社,大阪府,大阪市城東区,蒲生１丁目８番３２号,,27,118,5360016,,,,,,,2025-03-26,1,,,,,ギバー,0
675,3120001273828,新規,0,2025-03-26,2025-03-26,Ａｏｉｎｏｖａ株式会社,,株式会社,大阪府,大阪市港区,市岡１丁目１２番１３－１０４号,,27,107,5520012,,,,,,,2025-03-26,1,,,,,アオイノバ,0
676,3120001273869,新規,0,2025-03-26,2025-03-26,株式会社リトアート,,株式会社,大阪府,大阪市北区,梅田１丁目１－３大阪駅前第３ビル２９階１－１－１号室,,27,127,5300001,,,,,,,2025-03-26,1,,,,,リトアート,0
677,3120001273976,新規,0,2025-03-26,2025-03-26,株式会社アグリ京阪,,株式会社,大阪府,交野市,星田北８丁目１番１号,,27,230,5760017,,,,,,,2025-03-26,1,,,,,アグリケイハン,0
678,3120001273992,新規,0,2025-03-26,2025-03-26,株式会社端建設,,株式会社,大阪府,門真市,北岸和田２丁目５番２３号,,27,223,5710007,,,,,,,2025-03-26,1,,,,,ハシケンセツ,0
681,3120003028932,新規,0,2025-03-26,2025-03-26,合同会社ＫＡＩＲＯＳＳ,,合同会社,大阪府,大阪市北区,中津６丁目８番４－２０１号,,27,127,5310071,,,,,,,2025-03-26,1,,,,,カイロス,0
682,3120003028940,新規,0,2025-03-26,2025-03-26,ＪＯＹＦＡＮ合同会社,,合同会社,大阪府,大阪市北区,長柄西１丁目４番１５号ＵｒｂｅｘＴｅｎｒｏｋｕ１０２号室,,27,127,5310061,,,,,,,2025-03-26,1,,,,,ジョイファン,0
698,3130001079266,新規,0,2025-03-26,2025-03-26,株式会社有光,,株式会社,京都府,京都市下京区,柳馬場通松原下る忠庵町３１６番地デトム・ワン烏丸五条２０６,,26,106,6008068,,,,,,,2025-03-26,1,,,,,ユウコウ,0
706,3140001137857,新規,0,2025-03-26,2025-03-26,株式会社Ｂｌｕｅ　Ｅｇｇ　Ｊａｐａｎ,,株式会社,兵庫県,西宮市,甲陽園西山町１番５５号,,28,204,6620017,,,,,,,2025-03-26,1,,,,,ブルーエッグジャパン,0
709,3140003021836,新規,0,2025-03-26,2025-03-26,Ｆｏｒｅｓｔ　Ｂａｓｅ合同会社,,合同会社,兵庫県,神戸市西区,伊川谷町有瀬６２０番地,,28,111,6512113,,,,,,,2025-03-26,1,,,,,フォレストベース,0
710,3140005027410,新規,0,2025-03-26,2025-03-26,医療法人ＯｒｔｈｏＮｅｘｔ,,その他の設立登記法人,兵庫県,西宮市,東町１丁目１２番３号コープ西宮南３階,,28,204,6620922,,,,,,,2025-03-26,1,,,,,オルソネクスト,0
712,3160003003428,新規,0,2025-03-26,2025-03-26,合同会社島福,,合同会社,滋賀県,近江八幡市,馬淵町１６３９番地３,,25,204,5230022,,,,,,,2025-03-26,1,,,,,シマフク,0
725,3180001166051,新規,0,2025-03-26,2025-03-26,株式会社Ｎｉミュージック,,株式会社,愛知県,春日井市,高森台２丁目４番地３,,23,206,4870032,,,,,,,2025-03-26,1,,,,,エヌアイミュージック,0
731,3180003028134,新規,0,2025-03-26,2025-03-26,合同会社ルトワ,,合同会社,愛知県,犬山市,橋爪東６丁目２８番地,,23,215,4840075,,,,,,,2025-03-26,1,,,,,ルトワ,0
732,3180003028191,新規,0,2025-03-26,2025-03-26,合同会社オンカ,,合同会社,愛知県,小牧市,大字小牧原新田１７６１番地２８,,23,219,4850012,,,,,,,2025-03-26,1,,,,,オンカ,0
739,3220001026564,新規,0,2025-03-26,2025-03-26,株式会社ココロリーベン,,株式会社,石川県,小松市,一針町ト９８番地１,,17,203,9230043,,,,,,,2025-03-26,1,,,,,ココロリーベン,0
740,3230003002397,新規,0,2025-03-26,2025-03-26,水上商会合同会社,,合同会社,富山県,魚津市,寿町７８番地１１,,16,204,9370009,,,,,,,2025-03-26,1,,,,,ミズカミショウカイ,0
741,3230005009449,新規,0,2025-03-26,2025-03-26,一般社団法人谷の風,,その他の設立登記法人,富山県,富山市,西四十物町３番１８号,,16,201,9300068,,,,,,,2025-03-26,1,,,,,タンノカゼ,0
744,3240001064686,新規,0,2025-03-26,2025-03-26,株式会社アートリンガル,,株式会社,広島県,広島市中区,幟町１４番１４号,,34,101,7300016,,,,,,,2025-03-26,1,,,,,アートリンガル,0
746,3240005015917,新規,0,2025-03-26,2025-03-26,一般社団法人日本ウェルネス子育て協会,,その他の設立登記法人,広島県,広島市東区,二葉の里３丁目５－７ＧＲＡＮＯＤＥ広島３階,,34,102,7320057,,,,,,,2025-03-26,1,,,,,ニホンウェルネスコソダテキョウカイ,0
748,3260001040033,新規,0,2025-03-26,2025-03-26,株式会社カウンターポイント,,株式会社,岡山県,井原市,井原町２００番地１,,33,207,7150019,,,,,,,2025-03-26,1,,,,,カウンターポイント,0
758,3290001109420,新規,0,2025-03-26,2025-03-26,株式会社Ｔ‐Ａｉｒｓ,,株式会社,福岡県,久留米市,城島町下田４４１番地１,,40,203,8300202,,,,,,,2025-03-26,1,,,,,ティーエアーズ,0
765,3310001019468,新規,0,2025-03-26,2025-03-26,ＲＩＫＩ株式会社,,株式会社,長崎県,長崎市,元船町９番８－１００５号,,42,201,8500035,,,,,,,2025-03-26,1,,,,,リキ,0
769,3330003010910,新規,0,2025-03-26,2025-03-26,合同会社Ｗｏｏｄ　Ｓｔａｒｓ,,合同会社,熊本県,熊本市東区,画図町大字下無田２７４番地７,,43,102,8620945,,,,,,,2025-03-26,1,,,,,ウッドスターズ,0
779,3370001052380,新規,0,2025-03-26,2025-03-26,株式会社マルマサ機工,,株式会社,宮城県,石巻市,須江字欠５０番地５９,,04,202,9871221,,,,,,,2025-03-26,1,,,,,マルマサキコウ,0
780,3370001052389,新規,0,2025-03-26,2025-03-26,株式会社まさとり,,株式会社,宮城県,名取市,愛島笠島字上平８１番地の１,,04,207,9811238,,,,,,,2025-03-26,1,,,,,マサトリ,0
783,3370003006995,新規,0,2025-03-26,2025-03-26,道安産業合同会社,,合同会社,宮城県,本吉郡南三陸町,志津川字平磯２６番地３,,04,606,9860716,,,,,,,2025-03-26,1,,,,,ドウアンサンギョウ,0
786,3380005012941,新規,0,2025-03-26,2025-03-26,ＮＰＯ法人ＭＴＢＴ協議会,,その他の設立登記法人,福島県,南会津郡南会津町,木伏字権現堂１１９８番地,,07,368,9670601,,,,,,,2025-03-26,1,,,,,エムティビーティキョウギカイ,0
794,3430001094004,新規,0,2025-03-26,2025-03-26,サンエス株式会社,,株式会社,北海道,札幌市西区,西野九条７丁目７番１８号,,01,107,0630039,,,,,,,2025-03-26,1,,,,,サンエス,0
795,3430001094012,新規,0,2025-03-26,2025-03-26,株式会社リムース,,株式会社,北海道,小樽市,見晴町４０番地１１,,01,203,0470263,,,,,,,2025-03-26,1,,,,,リムース,0
796,3430003017433,新規,0,2025-03-26,2025-03-26,合同会社メディアワークス,,合同会社,北海道,札幌市中央区,南八条西５丁目２８９－８１,,01,101,0640808,,,,,,,2025-03-26,1,,,,,メディアワークス,0
797,3430003017441,新規,0,2025-03-26,2025-03-26,合同会社ｍｉｎｔＨｏｋｋａｉｄｏ,,合同会社,北海道,札幌市中央区,南六条西８丁目８－９グランスター９－２０３号,,01,101,0640806,,,,,,,2025-03-26,1,,,,,ミントホッカイドウ,0
799,3460103001697,新規,0,2025-03-26,2025-03-26,合同会社ＫＵＲＯ,,合同会社,北海道,帯広市,西四条南２５丁目１１－１ミレニアム４２５　１－Ａ,,01,207,0800014,,,,,,,2025-03-26,1,,,,,クロ,0
805,3700150129697,新規,0,2025-03-26,2025-03-26,ＣＥＹＬＯＮ　ＡＵＴＯ　ＷＯＲＬＤ,,外国会社等,千葉県,山武市,森１５０７番地３０オフィス２号,,12,237,2891214,スリランカ民主社会主義共和国、ウェレッラガマ、ミーガスデニヤ、ワララゲダラ、Ｎｏ．７８／６,,,,,,2025-03-26,1,,,,,セイロンオートワールド,0
815,4010001253484,新規,0,2025-03-26,2025-03-26,ＪＰＡ第３３５号株式会社,,株式会社,東京都,千代田区,霞が関３丁目２番１号,,13,101,1000013,,,,,,,2025-03-26,1,,,,,ジェイピーエーダイサンビャクサンジュウゴゴウ,0
816,4010001253518,新規,0,2025-03-26,2025-03-26,株式会社ＭＵＤ,,株式会社,東京都,千代田区,神田多町２丁目９番地大藤ビル７階,,13,101,1010046,,,,,,,2025-03-26,1,,,,,マッド,0
817,4010001253583,新規,0,2025-03-26,2025-03-26,株式会社ＯＮＩＸＩＯＮ,,株式会社,東京都,文京区,本郷６丁目２５番１４号,,13,105,1130033,,,,,,,2025-03-26,1,,,,,オニクシオン,0
818,4010003046878,新規,0,2025-03-26,2025-03-26,耀星合同会社,,合同会社,東京都,中央区,日本橋横山町７番１０号第２７イチオクビル４－Ｃ,,13,102,1030003,,,,,,,2025-03-26,1,,,,,ヨウホシ,0
822,4010005039797,新規,0,2025-03-26,2025-03-26,一般社団法人刀剣文化研究保全機構,,その他の設立登記法人,東京都,中央区,日本橋本町２丁目２番２号日本橋本町ＹＳビル７階,,13,102,1030023,,,,,,,2025-03-26,1,,,,,トウケンブンカケンキュウホゼンキコウ,0
823,4010005039814,新規,0,2025-03-26,2025-03-26,マカロンプロパティ一般社団法人,,その他の設立登記法人,東京都,千代田区,丸の内１丁目４番１号東京共同会計事務所内,,13,101,1000005,,,,,,,2025-03-26,1,,,,,マカロンプロパティ,0
831,4010401189114,新規,0,2025-03-26,2025-03-26,Ｃｒｏｓｓ　Ｓｔｏｃｋ株式会社,,株式会社,東京都,港区,南青山５丁目１７番２号,,13,103,1070062,,,,,,,2025-03-26,1,,,,,クロスストック,0
832,4010401189122,新規,0,2025-03-26,2025-03-26,株式会社カフク,,株式会社,東京都,港区,北青山１丁目３番１号アールキューブ青山３階,,13,103,1070061,,,,,,,2025-03-26,1,,,,,カフク,0
833,4010401189147,新規,0,2025-03-26,2025-03-26,株式会社Ｓｅｎｏｐｉａ,,株式会社,東京都,港区,東麻布３丁目７番３号３Ｆ,,13,103,1060044,,,,,,,2025-03-26,1,,,,,セノピア,0
834,4010401189163,新規,0,2025-03-26,2025-03-26,株式会社紀尾井,,株式会社,東京都,港区,虎ノ門３丁目１８番６号朝日虎ノ門マンション６１４号室,,13,103,1050001,,,,,,,2025-03-26,1,,,,,キオイ,0
835,4010401189188,新規,0,2025-03-26,2025-03-26,創アセット株式会社,,株式会社,東京都,港区,赤坂７丁目９番４号ＡｋａｓａｋａＶｅｔｏｒｏ４階,,13,103,1070052,,,,,,,2025-03-26,1,,,,,ソウアセット,0
837,4010403034689,新規,0,2025-03-26,2025-03-26,合同会社ＯＮＥ　ＣＨＡＮＣＥ　ＭＥＤＩＡ,,合同会社,東京都,港区,南青山４丁目１８番１１号フォレストヒルズイーストウィング２Ｆ２０２室,,13,103,1070062,,,,,,,2025-03-26,1,,,,,ワンチャンスメディア,0
838,4010405024242,新規,0,2025-03-26,2025-03-26,一般社団法人Ｐａｂｕｋ,,その他の設立登記法人,東京都,港区,虎ノ門１丁目１番１８号ヒューリック虎ノ門ビル９階Ｌ＆Ｐ司法書士法人内,,13,103,1050001,,,,,,,2025-03-26,1,,,,,パブーク,0
845,4010701047467,新規,0,2025-03-26,2025-03-26,株式会社Ｐ‐Ｆｏｕｒｔｈ,,株式会社,東京都,品川区,西五反田２丁目１８番２号,,13,109,1410031,,,,,,,2025-03-26,1,,,,,ピーフォース,0
847,4010901057076,新規,0,2025-03-26,2025-03-26,株式会社マトカリ,,株式会社,東京都,世田谷区,喜多見７丁目２番２１号,,13,112,1570067,,,,,,,2025-03-26,1,,,,,マトカリ,0
852,4011001168549,新規,0,2025-03-26,2025-03-26,株式会社エルビア,,株式会社,東京都,渋谷区,恵比寿西２丁目４番８号,,13,113,1500021,,,,,,,2025-03-26,1,,,,,エルビア,0
861,4011301030458,新規,0,2025-03-26,2025-03-26,株式会社ＨＯＰＥ,,株式会社,東京都,杉並区,上荻１丁目１８番３号第二亀屋酒販ビル２１０号室,,13,115,1670043,,,,,,,2025-03-26,1,,,,,ホープ,0
862,4011401026942,新規,0,2025-03-26,2025-03-26,株式会社Ｒｅｓｉｌｉｏ,,株式会社,東京都,板橋区,高島平５丁目４８番１４号,,13,119,1750082,,,,,,,2025-03-26,1,,,,,レジリオ,0
865,4011801045848,新規,0,2025-03-26,2025-03-26,株式会社アッパー,,株式会社,東京都,葛飾区,水元３丁目３番１３号クレドール水元公園１０６,,13,122,1250032,,,,,,,2025-03-26,1,,,,,アッパー,0
867,4012401042913,新規,0,2025-03-26,2025-03-26,ＩＺＡ株式会社,,株式会社,東京都,武蔵野市,境１丁目１５番１０－３０２号イストワール,,13,203,1800022,,,,,,,2025-03-26,1,,,,,イザ,0
868,4012401042921,新規,0,2025-03-26,2025-03-26,株式会社ＭＡ‐ＶＥＲｉＣＫｅ,,株式会社,東京都,三鷹市,野崎３丁目２０番１２号マンション雅清１０３,,13,204,1810014,,,,,,,2025-03-26,1,,,,,マーベリック,0
877,4020001161934,新規,0,2025-03-26,2025-03-26,株式会社オンウェル,,株式会社,神奈川県,横浜市戸塚区,矢部町１５４４－５０,,14,110,2440002,,,,,,,2025-03-26,1,,,,,オンウェル,0
878,4020001161959,新規,0,2025-03-26,2025-03-26,株式会社アルベナ・テラ,,株式会社,神奈川県,川崎市麻生区,栗木台２丁目４番２２号,,14,137,2150032,,,,,,,2025-03-26,1,,,,,アルベナテラ,0
879,4020001161975,新規,0,2025-03-26,2025-03-26,株式会社ＢＯＮ,,株式会社,神奈川県,川崎市多摩区,登戸３１２番地ジェルエープラザ１０３,,14,135,2140014,,,,,,,2025-03-26,1,,,,,ビーオーエヌ,0
880,4020001161983,新規,0,2025-03-26,2025-03-26,株式会社Ｍａｒｉｓ,,株式会社,神奈川県,横浜市中区,滝之上１２９番地３９,,14,104,2310837,,,,,,,2025-03-26,1,,,,,マリス,0
882,4020003028099,新規,0,2025-03-26,2025-03-26,合同会社ｍａｒｕｈｉｒｏ,,合同会社,神奈川県,横浜市金沢区,六浦南４丁目２０番４－５１０号,,14,108,2360038,,,,,,,2025-03-26,1,,,,,マルヒロ,0
883,4020003028116,新規,0,2025-03-26,2025-03-26,合同会社Ｕ‐ＡＮＤ,,合同会社,神奈川県,横浜市青葉区,美しが丘４丁目１９－２２－１０２,,14,117,2250002,,,,,,,2025-03-26,1,,,,,ユーアンド,0
884,4020005016746,新規,0,2025-03-26,2025-03-26,医療法人ＳＡＹＵＲＩ,,その他の設立登記法人,神奈川県,横浜市保土ケ谷区,川辺町３番地５イオン天王町ショッピングセンター３階３０２,,14,106,2400001,,,,,,,2025-03-26,1,,,,,サユリ,0
892,4030001165570,新規,0,2025-03-26,2025-03-26,株式会社ダブルティー・コーポレーション,,株式会社,埼玉県,新座市,片山１丁目１７番５号,,11,230,3520025,,,,,,,2025-03-26,1,,,,,ダブルティーコーポレーション,0
908,4040001138022,新規,0,2025-03-26,2025-03-26,クマガイ・プロパティーズ株式会社,,株式会社,千葉県,佐倉市,染井野５丁目７－３,,12,212,2850831,,,,,,,2025-03-26,1,,,,,クマガイプロパティーズ,0
915,4060001038047,新規,0,2025-03-26,2025-03-26,ひいらぎ不動産株式会社,,株式会社,栃木県,足利市,南大町３３６３番地４,,09,202,3260836,,,,,,,2025-03-26,1,,,,,ヒイラギフドウサン,0
917,4070001042758,新規,0,2025-03-26,2025-03-26,株式会社ムルシャド８０４,,株式会社,群馬県,館林市,成島町２７９番地の４,,10,207,3740055,,,,,,,2025-03-26,1,,,,,ムルシャドハチゼロヨン,0
926,4090003002782,新規,0,2025-03-26,2025-03-26,リマークス合同会社,,合同会社,山梨県,甲府市,千塚１丁目３番地１号ハイツシーマ３０５,,19,201,4000074,,,,,,,2025-03-26,1,,,,,リマークス,0
929,4100001038430,新規,0,2025-03-26,2025-03-26,株式会社松本Ｃｌａｓｓ,,株式会社,長野県,東筑摩郡山形村,字下中原２６２４番１０,,20,450,3901301,,,,,,,2025-03-26,1,,,,,マツモトクラス,0
930,4100001038439,新規,0,2025-03-26,2025-03-26,株式会社ＮＤ　Ｐｌａｎｎｉｎｇ,,株式会社,長野県,安曇野市,三郷明盛４９１９番地１８,,20,220,3998101,,,,,,,2025-03-26,1,,,,,エヌディプランニング,0
933,4110003005709,新規,0,2025-03-26,2025-03-26,合同会社ＩＨＳ,,合同会社,新潟県,上越市,大字下富川１７５番地７,,15,222,9430125,,,,,,,2025-03-26,1,,,,,アイエイチエス,0
941,4120001273678,新規,0,2025-03-26,2025-03-26,株式会社ＡＢＯＵＴＵＳ．,,株式会社,大阪府,大阪市中央区,南船場２丁目２番２１号ライフ＆デザインビル３０１,,27,128,5420081,,,,,,,2025-03-26,1,,,,,アバウトアス,0
942,4120001273892,新規,0,2025-03-26,2025-03-26,Ａｍｉ株式会社,,株式会社,大阪府,大阪市中央区,島之内１丁目１３番４－１３０３号,,27,128,5420082,,,,,,,2025-03-26,1,,,,,アミ,0
943,4120001273934,新規,0,2025-03-26,2025-03-26,株式会社マイペンライ,,株式会社,大阪府,大阪市北区,梅田１丁目１－３大阪駅前第３ビル２９階１－１－１号室,,27,127,5300001,,,,,,,2025-03-26,1,,,,,マイペンライ,0
950,4120003028907,新規,0,2025-03-26,2025-03-26,ザＳＥＯ合同会社,,合同会社,大阪府,大阪市北区,梅田１丁目２番２号大阪駅前第２ビル１２－１２,,27,127,5300001,,,,,,,2025-03-26,1,,,,,ザエスイーオー,0
951,4120003028931,新規,0,2025-03-26,2025-03-26,アジア貿易合同会社,,合同会社,大阪府,大阪市平野区,長吉六反３丁目１７番２５号３Ｆ－Ｇ,,27,126,5470012,,,,,,,2025-03-26,1,,,,,アジアボウエキ,0
957,4120901050631,新規,0,2025-03-26,2025-03-26,株式会社もーりー運送,,株式会社,大阪府,豊中市,曽根西町３丁目６－２４－１０１,,27,203,5610801,,,,,,,2025-03-26,1,,,,,モーリーウンソウ,0
960,4122001039010,新規,0,2025-03-26,2025-03-26,株式会社ＧＡＴＥ,,株式会社,大阪府,東大阪市,岩田町４丁目３番４６－９１４号,,27,227,5780941,,,,,,,2025-03-26,1,,,,,ゲート,0
966,4140001137864,新規,0,2025-03-26,2025-03-26,株式会社三ツ野建装,,株式会社,兵庫県,姫路市,広畑区末広町１丁目５番地,,28,201,6711115,,,,,,,2025-03-26,1,,,,,ミツノケンソウ,0
967,4140001137872,新規,0,2025-03-26,2025-03-26,株式会社ＫＨプロパティ,,株式会社,兵庫県,神戸市東灘区,御影３丁目５番５号,,28,101,6580047,,,,,,,2025-03-26,1,,,,,ケイエッチプロパティ,0
968,4140001137880,新規,0,2025-03-26,2025-03-26,株式会社入船サポート,,株式会社,兵庫県,高砂市,高砂町横町１０３３番地,,28,216,6760051,,,,,,,2025-03-26,1,,,,,イリフネサポート,0
972,4140003021827,新規,0,2025-03-26,2025-03-26,Ｎｅｗ　ＯＮＥ合同会社,,合同会社,兵庫県,神戸市長田区,久保町３丁目６番２号,,28,106,6530041,,,,,,,2025-03-26,1,,,,,ニューワン,0
982,4160005011386,新規,0,2025-03-26,2025-03-26,農事組合法人山の神ファーム,,その他の設立登記法人,滋賀県,高島市,武曽横山２２１８番地２,,25,212,5201101,,,,,,,2025-03-26,1,,,,,ヤマノカミファーム,0
984,4180001166042,新規,0,2025-03-26,2025-03-26,株式会社シティデジタルホールディングス,,株式会社,愛知県,名古屋市中区,栄４丁目１番１号,,23,106,4600008,,,,,,,2025-03-26,1,,,,,シティデジタルホールディングス,0
985,4180001166050,新規,0,2025-03-26,2025-03-26,株式会社イターナル,,株式会社,愛知県,一宮市,西萩原字東浦１２７１番地,,23,203,4940011,,,,,,,2025-03-26,1,,,,,イターナル,0
986,4180001166059,新規,0,2025-03-26,2025-03-26,ＬＣＣ株式会社,,株式会社,愛知県,名古屋市緑区,万場山２丁目１０９番地の２,,23,114,4580043,,,,,,,2025-03-26,1,,,,,エルシーシー,0
987,4180003028182,新規,0,2025-03-26,2025-03-26,合同会社ＣｏＣｏ．ＴＲｕｓｔ,,合同会社,愛知県,名古屋市東区,葵２丁目５番６号,,23,102,4610004,,,,,,,2025-03-26,1,,,,,ココトラスト,0
988,4180003028190,新規,0,2025-03-26,2025-03-26,合同会社ティーシーエス,,合同会社,愛知県,海部郡大治町,大字西條字尼ケ須賀１０２番地の４,,23,424,4901144,,,,,,,2025-03-26,1,,,,,ティーシーエス,0
994,4190003004975,新規,0,2025-03-26,2025-03-26,ＭＩＴＳＵＩ　ＨＤ合同会社,,合同会社,三重県,津市,末広町７番２２号,,24,201,5140012,,,,,,,2025-03-26,1,,,,,ミツイエイチディー,0
997,4220001026563,新規,0,2025-03-26,2025-03-26,株式会社Ｐｉｎｅ　ｉｎｔｅｒｉｏｒ,,株式会社,石川県,金沢市,神野町東１２９番地,,17,201,9200365,,,,,,,2025-03-26,1,,,,,パインテリア,0
1000,4250001001877,新規,0,2025-03-26,2025-03-26,株式会社うつみ,,株式会社,山口県,防府市,栄町１丁目５番１号,,35,206,7470035,,,,,,,2025-03-26,1,,,,,ウツミ,0
1005,4290001109155,新規,0,2025-03-26,2025-03-26,株式会社Ｋｏｔｏｄａｍａ　Ａｒｃｈｉｔｅｃｔ,,株式会社,福岡県,福岡市西区,石丸１丁目２５番５号,,40,135,8190025,,,,,,,2025-03-26,1,,,,,,0
1006,4290001109411,新規,0,2025-03-26,2025-03-26,株式会社Ｆｃｅｅｄ,,株式会社,福岡県,福岡市中央区,高砂２丁目４番２トライアルビル９Ｆ,,40,133,8100011,,,,,,,2025-03-26,1,,,,,エフシード,0
1009,4290003016572,新規,0,2025-03-26,2025-03-26,ＥＦＫ合同会社,,合同会社,福岡県,古賀市,薬王寺１１８９番地９,,40,223,8113124,,,,,,,2025-03-26,1,,,,,イーエフケー,0
1010,4290003016589,新規,0,2025-03-26,2025-03-26,合同会社Ｃ・Ｂ・Ｍ,,合同会社,福岡県,糟屋郡須惠町,大字須惠３７７番地１０１,,40,344,8112113,,,,,,,2025-03-26,1,,,,,シービーエム,0
1012,4290801031376,新規,0,2025-03-26,2025-03-26,基石株式会社,,株式会社,福岡県,北九州市八幡西区,日吉台１丁目４番３号,,40,109,8070866,,,,,,,2025-03-26,1,,,,,キセキ,0
1017,4310005008838,新規,0,2025-03-26,2025-03-26,ニッチツ労働組合,,その他の設立登記法人,長崎県,松浦市,調川町下免１番地８,,42,208,8594536,,,,,,,2025-03-26,1,,,,,ニッチツ,0
1020,4330001033004,新規,0,2025-03-26,2025-03-26,株式会社グローカルブレイン,,株式会社,熊本県,上益城郡益城町,大字田原１１５５番地１２,,43,443,8612202,,,,,,,2025-03-26,1,,,,,グローカルブレイン,0
1035,4380003005995,新規,0,2025-03-26,2025-03-26,合同会社ＮＡＭＩＥ　ＤＲＥＡＭ　ＰＲＯＪＥＣＴ,,合同会社,福島県,双葉郡浪江町,大字川添字葉山４０番地,,07,547,9791531,,,,,,,2025-03-26,1,,,,,ナミエドリームプロジェクト,0
1037,4380005012940,新規,0,2025-03-26,2025-03-26,会津東山温泉旅館協同組合,,その他の設立登記法人,福島県,会津若松市,東山町大字湯本字滝ノ湯１１０番地,,07,202,9650814,,,,,,,2025-03-26,1,,,,,アイヅヒガシヤマオンセンリョカン,0
1043,4430001094003,新規,0,2025-03-26,2025-03-26,株式会社ＹＬＰ,,株式会社,北海道,札幌市西区,発寒六条９丁目３番１－４０１号,,01,107,0630826,,,,,,,2025-03-26,1,,,,,ワイエルピー,0
1044,4430001094011,新規,0,2025-03-26,2025-03-26,株式会社ミナトキ,,株式会社,北海道,札幌市中央区,南五条西１５丁目２番３－５０３号,,01,101,0640805,,,,,,,2025-03-26,1,,,,,ミナトキ,0
1047,4430003017432,新規,0,2025-03-26,2025-03-26,合同会社シモヤ工業,,合同会社,北海道,札幌市白石区,東札幌四条３丁目３番２号,,01,104,0030004,,,,,,,2025-03-26,1,,,,,シモヤコウギョウ,0
1048,4430003017440,新規,0,2025-03-26,2025-03-26,合同会社さぽら,,合同会社,北海道,札幌市中央区,南四条西１丁目１５番地２栗林ビルディング５階,,01,101,0640804,,,,,,,2025-03-26,1,,,,,サポラ,0
1064,5010001253509,新規,0,2025-03-26,2025-03-26,株式会社南洋堂書店,,株式会社,東京都,千代田区,神田神保町１丁目２１,,13,101,1010051,,,,,,,2025-03-26,1,,,,,ナンヨウドウショテン,0
1065,5010001253525,新規,0,2025-03-26,2025-03-26,東京サポート株式会社,,株式会社,東京都,中央区,銀座１丁目１２－４Ｎ＆ＥＢＬＤ．７階,,13,102,1040061,,,,,,,2025-03-26,1,,,,,トウキョウサポート,0
1069,5010005039805,新規,0,2025-03-26,2025-03-26,Ｔｏｋｙｏ　Ａｐａｒｔｍｅｎｔ　Ｈｏｔｅｌ１一般社団法人,,その他の設立登記法人,東京都,千代田区,霞が関３丁目２番５号,,13,101,1000013,,,,,,,2025-03-26,1,,,,,トウキョウアパートメントホテルワン,0
1070,5010005039813,新規,0,2025-03-26,2025-03-26,マカロンホールディング一般社団法人,,その他の設立登記法人,東京都,千代田区,丸の内１丁目４番１号東京共同会計事務所内,,13,101,1000005,,,,,,,2025-03-26,1,,,,,マカロンホールディング,0
1072,5010401189088,新規,0,2025-03-26,2025-03-26,Ｅｙｎａｌ株式会社,,株式会社,東京都,港区,麻布十番３丁目７番５号マスコビル麻布弐番館４０２号室,,13,103,1060045,,,,,,,2025-03-26,1,,,,,エイナル,0
1073,5010401189105,新規,0,2025-03-26,2025-03-26,株式会社ＰＢＥ,,株式会社,東京都,港区,北青山１丁目３番１号アールキューブ青山３階,,13,103,1070061,,,,,,,2025-03-26,1,,,,,ピービーイー,0
1074,5010401189113,新規,0,2025-03-26,2025-03-26,桜花システムズ株式会社,,株式会社,東京都,港区,赤坂５丁目１番２６号サンライズ赤坂ビル,,13,103,1070052,,,,,,,2025-03-26,1,,,,,オウカシステムズ,0
1075,5010401189121,新規,0,2025-03-26,2025-03-26,スカーレット・アドバイザリー株式会社,,株式会社,東京都,港区,南麻布５丁目１０番２７号,,13,103,1060047,,,,,,,2025-03-26,1,,,,,スカーレットアドバイザリー,0
1076,5010401189138,新規,0,2025-03-26,2025-03-26,株式会社ＯＣＴＡＲＣ,,株式会社,東京都,港区,南青山３丁目１番３６号青山丸竹ビル６Ｆ,,13,103,1070062,,,,,,,2025-03-26,1,,,,,オクトアーク,0
1077,5010403034713,新規,0,2025-03-26,2025-03-26,リフアクト合同会社,,合同会社,東京都,港区,高輪１丁目２０番２号,,13,103,1080074,,,,,,,2025-03-26,1,,,,,リフアクト,0
1078,5010403034721,新規,0,2025-03-26,2025-03-26,合同会社Ｈｉｓｔｏｉｒｅ,,合同会社,東京都,港区,北青山１丁目３番１号アールキューブ３階,,13,103,1070061,,,,,,,2025-03-26,1,,,,,イストワール,0
1079,5010405024241,新規,0,2025-03-26,2025-03-26,一般社団法人Ｕｓａｇｉ,,その他の設立登記法人,東京都,港区,虎ノ門１丁目１番１８号ヒューリック虎ノ門ビル９階Ｌ＆Ｐ司法書士法人内,,13,103,1050001,,,,,,,2025-03-26,1,,,,,ウサギ,0
1080,5010501005839,新規,0,2025-03-26,2025-03-26,桂ビル興業株式会社,,株式会社,東京都,台東区,蔵前３丁目１６番４号,,13,106,1110051,,,,,,,2025-03-26,1,,,,,カツラビルコウギョウ,0
1089,5010901057059,新規,0,2025-03-26,2025-03-26,ＣＲＥＡＴＩＶＥ　ＵＮＩＯＮ　ＭＵＬＴＥＳＥ株式会社,,株式会社,東京都,世田谷区,上用賀１丁目７－１６－１０３,,13,112,1580098,,,,,,,2025-03-26,1,,,,,クリエイティブユニオンマルチズ,0
1090,5010901057067,新規,0,2025-03-26,2025-03-26,ｉ　Ｐｒｏｃｏａｃｈ株式会社,,株式会社,東京都,世田谷区,太子堂４丁目１８番１５号マガザン三軒茶屋２－３Ｆ－３,,13,112,1540004,,,,,,,2025-03-26,1,,,,,アイプロコーチ,0
1100,5011001168457,新規,0,2025-03-26,2025-03-26,ウェルスマネジメントジャパン株式会社,,株式会社,東京都,渋谷区,神宮前５丁目４０番７号,,13,113,1500001,,,,,,,2025-03-26,1,,,,,ウェルスマネジメントジャパン,0
1101,5011003021201,新規,0,2025-03-26,2025-03-26,合同会社ＡｌｐｈａＬａｂ,,合同会社,東京都,渋谷区,道玄坂１丁目１６－６二葉ビル８ｂ,,13,113,1500043,,,,,,,2025-03-26,1,,,,,アルファラボ,0
1102,5011003021267,新規,0,2025-03-26,2025-03-26,合同会社ガジュマル,,合同会社,東京都,目黒区,大橋２丁目８番２１号ドミシール柿澤５０１,,13,110,1530044,,,,,,,2025-03-26,1,,,,,ガジュマル,0
1110,5011501031858,新規,0,2025-03-26,2025-03-26,ＧＰＡ　ＩＮＮＯＶＡＴＩＯＮ株式会社,,株式会社,東京都,北区,十条仲原２丁目８－１２,,13,117,1140031,,,,,,,2025-03-26,1,,,,,ジーピーエーイノベーション,0
1114,5011601028523,新規,0,2025-03-26,2025-03-26,株式会社ＫＵＷ建築設計,,株式会社,東京都,練馬区,関町南３丁目４番３７号ロイヤル吉祥寺１０１号,,13,120,1770053,,,,,,,2025-03-26,1,,,,,クウケンチクセッケイ,0
1117,5011701028200,新規,0,2025-03-26,2025-03-26,株式会社裕代,,株式会社,東京都,江戸川区,西小岩１丁目２８番１号ＵＧＡビル４階,,13,123,1330057,,,,,,,2025-03-26,1,,,,,ユウダイ,0
1120,5011801045855,新規,0,2025-03-26,2025-03-26,株式会社Ｒｅｎｏｖｉｘ,,株式会社,東京都,足立区,古千谷本町２丁目８番２号,,13,121,1210832,,,,,,,2025-03-26,1,,,,,レノビクス,0
1122,5011803006756,新規,0,2025-03-26,2025-03-26,ＡＩ　Ｅｎｅｒｇｙ合同会社,,合同会社,東京都,葛飾区,新小岩１丁目２５－２－６０２,,13,122,1240024,,,,,,,2025-03-26,1,,,,,エイアイエナジー,0
1137,5020001161982,新規,0,2025-03-26,2025-03-26,株式会社ＩＧ　ＮＥＷＴＯＷＮ,,株式会社,神奈川県,川崎市川崎区,池上新町２丁目２２番１０号,,14,131,2100832,,,,,,,2025-03-26,1,,,,,アイジーニュータウン,0
1141,5020003028115,新規,0,2025-03-26,2025-03-26,合同会社アフターユーアカデミー,,合同会社,神奈川県,横浜市西区,北幸２丁目１０番４８号むつみビル３階,,14,103,2200004,,,,,,,2025-03-26,1,,,,,アフターユーアカデミー,0
1143,5020005016745,新規,0,2025-03-26,2025-03-26,医療法人社団ヨツユビ会,,その他の設立登記法人,神奈川県,横浜市都筑区,中川１丁目２１番２０号マイキャッスル港北中川ＩＩ１階,00138436,14,118,2240001,,,,,,,2025-03-26,1,,,,,ヨツユビカイ,0
1145,5021001084793,新規,0,2025-03-26,2025-03-26,ＲｅＵｎｉｏｎ株式会社,,株式会社,神奈川県,鎌倉市,腰越１丁目６番３号,,14,204,2480033,,,,,,,2025-03-26,1,,,,,リユニオン,0
1150,5030001165594,新規,0,2025-03-26,2025-03-26,株式会社ＴＨＥ　ＰＯＬＡＲＩＳ,,株式会社,埼玉県,吉川市,美南２丁目２０番地１０,,11,243,3420038,,,,,,,2025-03-26,1,,,,,ザポラリス,0
1151,5030003026332,新規,0,2025-03-26,2025-03-26,ＨｉｔｏＡｉ　Ｃａｐｉｔａｌ　Ｐａｒｔｎｅｒｓ合同会社,,合同会社,埼玉県,深谷市,武蔵野１５９４番地２,,11,218,3691241,,,,,,,2025-03-26,1,,,,,ヒトアイキャピタルパートナーズ,0
1156,5040001138021,新規,0,2025-03-26,2025-03-26,株式会社ＥＳＴ１,,株式会社,千葉県,印西市,大塚３丁目１９－１７,,12,231,2701352,,,,,,,2025-03-26,1,,,,,エストワン,0
1157,5040001138054,新規,0,2025-03-26,2025-03-26,フォーサイト不動産株式会社,,株式会社,千葉県,松戸市,馬橋３２６６番地の２,,12,207,2710051,,,,,,,2025-03-26,1,,,,,フォーサイトフドウサン,0
1158,5040003027123,新規,0,2025-03-26,2025-03-26,合同会社Ｐｒｉｍｅ　Ｃｅｙｌｏｎ,,合同会社,千葉県,松戸市,新松戸６丁目２０９番地,,12,207,2700034,,,,,,,2025-03-26,1,,,,,プライムセイロン,0
1167,5070003005836,新規,0,2025-03-26,2025-03-26,ＨＩＭＡＬＡＹＡＮ合同会社,,合同会社,群馬県,館林市,青柳町１５８７－１協栄マンション１０８号室,,10,207,3740035,,,,,,,2025-03-26,1,,,,,ヒマラヤン,0
1169,5090001019191,新規,0,2025-03-26,2025-03-26,株式会社ＯＮＥ　Ｇｏｌｄ,,株式会社,山梨県,南巨摩郡身延町,身延３７２２番地,,19,365,4092524,,,,,,,2025-03-26,1,,,,,ワンゴールド,0
1170,5090005007688,新規,0,2025-03-26,2025-03-26,一般社団法人Ｒｏｕｔｅ山梨,,その他の設立登記法人,山梨県,甲斐市,富竹新田４７６番地１,,19,210,4000113,,,,,,,2025-03-26,1,,,,,ルートヤマナシ,0
1171,5100001038438,新規,0,2025-03-26,2025-03-26,株式会社グリーンドリーム研究所,,株式会社,長野県,安曇野市,穂高有明５９７５番地１６,,20,220,3998301,,,,,,,2025-03-26,1,,,,,グリーンドリームケンキュウジョ,0
1172,5100001038446,新規,0,2025-03-26,2025-03-26,株式会社ホーミー,,株式会社,長野県,佐久市,上平尾８３５番地１,,20,217,3850002,,,,,,,2025-03-26,1,,,,,ホーミー,0
1175,5110001039138,新規,0,2025-03-26,2025-03-26,株式会社イシカワ工業,,株式会社,新潟県,新潟市西区,みずき野４丁目６番７号,,15,107,9502264,,,,,,,2025-03-26,1,,,,,イシカワコウギョウ,0
1180,5120001273834,新規,0,2025-03-26,2025-03-26,栄安達株式会社,,株式会社,大阪府,大阪市城東区,関目５丁目１９番９号関目花博公館４１４Ａ,,27,118,5360008,,,,,,,2025-03-26,1,,,,,エイアンタツ,0
1181,5120001273867,新規,0,2025-03-26,2025-03-26,株式会社すまいの平野,,株式会社,大阪府,大阪市生野区,小路東５丁目２２番２０号,,27,116,5440003,,,,,,,2025-03-26,1,,,,,スマイノヒラノ,0
1182,5120001273925,新規,0,2025-03-26,2025-03-26,株式会社ＩＭＯ,,株式会社,大阪府,大阪市福島区,福島１丁目１番１２－９０２号,,27,103,5530003,,,,,,,2025-03-26,1,,,,,アイエムオー,0
1183,5120001273933,新規,0,2025-03-26,2025-03-26,株式会社Ｃａｒｅｅｒ　Ｍｏｖｅ,,株式会社,大阪府,大阪市北区,西天満６丁目２番１４号マッセ梅田ビル２号館７０６,,27,127,5300047,,,,,,,2025-03-26,1,,,,,,0
1184,5120001273966,新規,0,2025-03-26,2025-03-26,ＵＫＳＣＨＯＯＬ株式会社,,株式会社,大阪府,大阪市淀川区,東三国２丁目３８番１２－３０７号,,27,123,5320002,,,,,,,2025-03-26,1,,,,,ユーケイスクール,0
1185,5120001273974,新規,0,2025-03-26,2025-03-26,登輝株式会社,,株式会社,大阪府,大阪市都島区,片町２丁目６番１１号おおきに京橋駅前ビル３０３,,27,102,5340025,,,,,,,2025-03-26,1,,,,,トキ,0
1186,5120001273982,新規,0,2025-03-26,2025-03-26,株式会社新政,,株式会社,大阪府,大阪市北区,天神橋７丁目１５－２ユーロハイツ天神橋５０３号室,,27,127,5310041,,,,,,,2025-03-26,1,,,,,シンセイ,0
1188,5120003028939,新規,0,2025-03-26,2025-03-26,ＡＭＯＲ＆ＡＬＭＡ合同会社,,合同会社,大阪府,大阪市浪速区,難波中２丁目６番４－４０１号,,27,111,5560011,,,,,,,2025-03-26,1,,,,,アモールアンドアルマ,0
1193,5130001079272,新規,0,2025-03-26,2025-03-26,株式会社ｍｏｋｋｕｒｕ,,株式会社,京都府,京都市山科区,大塚丹田２６－８－２０２号室,00138444,26,110,6078136,,,,,,,2025-03-26,1,,,,,モックル,0
1196,5140001137847,新規,0,2025-03-26,2025-03-26,長栄建設株式会社,,株式会社,兵庫県,神戸市長田区,四番町２丁目８番地の１５,,28,106,6530004,,,,,,,2025-03-26,1,,,,,チョウエイケンセツ,0
1197,5140001137855,新規,0,2025-03-26,2025-03-26,栄吉株式会社,,株式会社,兵庫県,神戸市中央区,元町通４丁目５番１０号－３０１号室,,28,110,6500022,,,,,,,2025-03-26,1,,,,,エイキチ,0
1198,5140003021834,新規,0,2025-03-26,2025-03-26,デリスドゥウエスト合同会社,,合同会社,兵庫県,神戸市中央区,磯辺通１丁目１番１８号カサベラ国際プラザビル７０７号室,,28,110,6510084,,,,,,,2025-03-26,1,,,,,デリスドゥウエスト,0
1199,5140005027409,新規,0,2025-03-26,2025-03-26,医療法人Ｏ＆Ｏ,,その他の設立登記法人,兵庫県,姫路市,西中島２８０－７,,28,201,6700805,,,,,,,2025-03-26,1,,,,,オーアンドオー,0
1202,5160003003426,新規,0,2025-03-26,2025-03-26,合同会社エヴァーヴィクトリアス,,合同会社,滋賀県,大津市,中央１丁目２番１８号,,25,201,5200043,,,,,,,2025-03-26,1,,,,,エヴァーヴィクトリアス,0
1203,5170005007143,新規,0,2025-03-26,2025-03-26,一般社団法人やますそ,,その他の設立登記法人,和歌山県,橋本市,しらさぎ台８番地の８グリーンフルしらさぎ台２０５号,,30,203,6480053,,,,,,,2025-03-26,1,,,,,ヤマスソ,0
1210,5180001166017,新規,0,2025-03-26,2025-03-26,株式会社エムエックス,,株式会社,愛知県,名古屋市守山区,大字上志段味字東谷２０７９番地の５６,,23,113,4630001,,,,,,,2025-03-26,1,,,,,エムエックス,0
1211,5180001166033,新規,0,2025-03-26,2025-03-26,株式会社Ｃ＆Ｈｃｏｒｐｏｒａｔｉｏｎ,,株式会社,愛知県,北名古屋市,六ツ師１０８０番地３２,,23,234,4810001,,,,,,,2025-03-26,1,,,,,シーアンドエイチコーポレーション,0
1218,5190001032102,新規,0,2025-03-26,2025-03-26,土屋輪業株式会社,,株式会社,三重県,桑名市,星見ヶ丘９丁目１０２番地,,24,205,5110912,,,,,,,2025-03-26,1,,,,,ツチヤリンギョウ,0
1219,5190003004974,新規,0,2025-03-26,2025-03-26,合同会社Ｓａｎ　Ｆａｒｍ　Ｔａｉｋｉ,,合同会社,三重県,度会郡大紀町,崎４９２２番地１,,24,471,5192802,,,,,,,2025-03-26,1,,,,,サンファームタイキ,0
1230,5240001064701,新規,0,2025-03-26,2025-03-26,株式会社コウヤマキ,,株式会社,広島県,広島市安佐南区,山本新町２丁目３番５号,,34,105,7310139,,,,,,,2025-03-26,1,,,,,コウヤマキ,0
1252,5290001109419,新規,0,2025-03-26,2025-03-26,株式会社ＫＹＭＡ,,株式会社,福岡県,福岡市南区,井尻２丁目３５番２０号,,40,134,8111302,,,,,,,2025-03-26,1,,,,,キーマ,0
1253,5290001109427,新規,0,2025-03-26,2025-03-26,グラ株式会社,,株式会社,福岡県,福岡市博多区,博多駅前３丁目２３番１５号,,40,132,8120011,,,,,,,2025-03-26,1,,,,,グラ,0
1254,5290001109435,新規,0,2025-03-26,2025-03-26,株式会社ＣＩＴＲＵＳＴ,,株式会社,福岡県,福岡市東区,箱崎ふ頭５丁目８番４号,,40,131,8120051,,,,,,,2025-03-26,1,,,,,シトラスト,0
1256,5310001019516,新規,0,2025-03-26,2025-03-26,株式会社栄東,,株式会社,長崎県,五島市,木場町２５７番地３,,42,211,8530033,,,,,,,2025-03-26,1,,,,,エイトン,0
1263,5330003010909,新規,0,2025-03-26,2025-03-26,合同会社レリーフ,,合同会社,熊本県,熊本市東区,江津１丁目８番１０号,,43,102,8620942,,,,,,,2025-03-26,1,,,,,レリーフ,0
1278,5380001035184,新規,0,2025-03-26,2025-03-26,株式会社暁,,株式会社,福島県,会津若松市,西七日町２１―２７,,07,202,9650045,,,,,,,2025-03-26,1,,,,,アカツキ,0
1279,5380003005994,新規,0,2025-03-26,2025-03-26,合同会社ＹｅＮ,,合同会社,福島県,須賀川市,緑町１１４番地６,,07,207,9620863,,,,,,,2025-03-26,1,,,,,エン,0
1282,5400001016982,新規,0,2025-03-26,2025-03-26,グローパスコンサルタント株式会社,,株式会社,岩手県,盛岡市,大通１丁目１番１６号岩手教育会館４階,,03,201,0200022,,,,,,,2025-03-26,1,,,,,グローパスコンサルタント,0
1283,5410003004068,新規,0,2025-03-26,2025-03-26,合同会社超神ネイガー,,合同会社,秋田県,にかほ市,金浦字堀切１９９－１,,05,214,0180311,,,,,,,2025-03-26,1,,,,,チョウジンネイガー,0
1287,5430001094010,新規,0,2025-03-26,2025-03-26,株式会社海老仙人,,株式会社,北海道,札幌市中央区,南三条西６丁目７番４号アーク３６ビル４階,,01,101,0600063,,,,,,,2025-03-26,1,,,,,エビセンニン,0
1288,5430001094019,新規,0,2025-03-26,2025-03-26,株式会社ＴＯＰ　ＰＲＩＣＥ,,株式会社,北海道,千歳市,幸福４丁目１番－１－３０１号,,01,224,0660082,,,,,,,2025-03-26,1,,,,,トッププライス,0
1292,5430003017431,新規,0,2025-03-26,2025-03-26,合同会社びらとりワクＷＯＲＫ,,合同会社,北海道,沙流郡平取町,字荷菜１１番地２,,01,602,0550106,,,,,,,2025-03-26,1,,,,,ビラトリワクワーク,0
1294,5450001014569,新規,0,2025-03-26,2025-03-26,木村総合ホールディングス株式会社,,株式会社,北海道,士別市,武徳町四十五線東三号,,01,220,0950062,,,,,,,2025-03-26,1,,,,,キムラソウゴウホールディングス,0
1296,5460103001695,新規,0,2025-03-26,2025-03-26,合同会社Ｊｏｈｎ　ｃｒｅｗ,,合同会社,北海道,帯広市,西二十一条西三丁目７番地２２メゾンＲＥＩ－Ｂ号室,,01,207,0800000,,,,,,,2025-03-26,1,,,,,ジョンクルー,0
1300,5480003002247,新規,0,2025-03-26,2025-03-26,合同会社サイクロン,,合同会社,徳島県,鳴門市,大麻町板東字笠木ケ峰９番地１,,36,202,7790230,,,,,,,2025-03-26,1,,,,,サイクロン,0
1301,5480005007070,新規,0,2025-03-26,2025-03-26,医療法人藍想会,,その他の設立登記法人,徳島県,徳島市,南昭和町１丁目２３三谷第一ビル５階５０３号室,,36,201,7700944,,,,,,,2025-03-26,1,,,,,アイソウカイ,0
1310,6010001253400,新規,0,2025-03-26,2025-03-26,株式会社Ｌ＆Ｎ,,株式会社,東京都,千代田区,九段南２丁目４番１２号アビスタ九段ビル１Ｆ,,13,101,1020074,,,,,,,2025-03-26,1,,,,,エルアンドエヌ,0
1313,6010003046876,新規,0,2025-03-26,2025-03-26,合同会社Ｎｅｘｔ　Ｌｅａｐ,,合同会社,東京都,文京区,関口１丁目１０番１５－１００１号,,13,105,1120014,,,,,,,2025-03-26,1,,,,,ネクストリープ,0
1321,6010401189104,新規,0,2025-03-26,2025-03-26,Ａｔｙｅｔｉ　Ｊａｐａｎ株式会社,,株式会社,東京都,港区,元麻布３丁目１番６号,,13,103,1060046,,,,,,,2025-03-26,1,,,,,アトイェティジャパン,0
1322,6010401189112,新規,0,2025-03-26,2025-03-26,未来をテラス株式会社,,株式会社,東京都,港区,海岸１丁目７番１号東京ポートシティ竹芝オフィスタワー８階,,13,103,1050022,,,,,,,2025-03-26,1,,,,,ミライヲテラス,0
1323,6010401189120,新規,0,2025-03-26,2025-03-26,株式会社Ｔｈｅ　Ｗｉｎｅ　Ｌｕｘ,,株式会社,東京都,港区,南麻布４丁目１１番４６－３１１号,,13,103,1060047,,,,,,,2025-03-26,1,,,,,ザワインラックス,0
1324,6010401189137,新規,0,2025-03-26,2025-03-26,株式会社ｃｏｍ,,株式会社,東京都,港区,南青山３丁目１番３６号青山丸竹ビル６Ｆ,,13,103,1070062,,,,,,,2025-03-26,1,,,,,コム,0
1325,6010401189145,新規,0,2025-03-26,2025-03-26,株式会社トリニティ,,株式会社,東京都,港区,麻布十番３丁目８番４号麻布Ｋ’ｓビル１Ｆ,,13,103,1060045,,,,,,,2025-03-26,1,,,,,トリニティ,0
1328,6010403034712,新規,0,2025-03-26,2025-03-26,合同会社パワーセル・テクノロジーズ１号,,合同会社,東京都,港区,新橋４丁目２１番３号新橋東急ビル８階,,13,103,1050004,,,,,,,2025-03-26,1,,,,,パワーセルテクノロジーズイチゴウ,0
1337,6010601067010,新規,0,2025-03-26,2025-03-26,株式会社ネクストリフォーム,,株式会社,東京都,墨田区,太平２丁目１５番５－７０２号,,13,107,1300012,,,,,,,2025-03-26,1,,,,,ネクストリフォーム,0
1345,6010901057074,新規,0,2025-03-26,2025-03-26,株式会社ＰＳ,,株式会社,東京都,世田谷区,南烏山６丁目３３番１号サンライズプラザ５０２,,13,112,1570062,,,,,,,2025-03-26,1,,,,,ピーエス,0
1347,6011003021200,新規,0,2025-03-26,2025-03-26,ＰＡＮＣＡＫＥ１６９合同会社,,合同会社,東京都,渋谷区,代々木４丁目２８－８代々木村田マンション４０５,,13,113,1510053,,,,,,,2025-03-26,1,,,,,パンケーキイチロクキュウ,0
1352,6011103015705,新規,0,2025-03-26,2025-03-26,合同会社ＳｔｏｃｋＦｉｅｌｄ,,合同会社,東京都,新宿区,市谷田町２丁目２１番地２グランベスタージュ市ヶ谷５０４,,13,104,1620843,,,,,,,2025-03-26,1,,,,,ストックフィールド,0
1353,6011201026224,新規,0,2025-03-26,2025-03-26,絆コンサルタント株式会社,,株式会社,東京都,中野区,南台５丁目９番２２号メゾン・ド・ヴァンクール３０５号室,,13,114,1640014,,,,,,,2025-03-26,1,,,,,キズナコンサルタント,0
1355,6011301030448,新規,0,2025-03-26,2025-03-26,聯衆株式会社,,株式会社,東京都,杉並区,下井草１丁目２９番１３号,,13,115,1670022,,,,,,,2025-03-26,1,,,,,レンシュウ,0
1356,6011303005472,新規,0,2025-03-26,2025-03-26,合同会社イン・リサーチ,,合同会社,東京都,杉並区,上井草１丁目９番２１号,,13,115,1670023,,,,,,,2025-03-26,1,,,,,インリサーチ,0
1359,6011502016931,新規,0,2025-03-26,2025-03-26,有限会社蛭川紙器工業所,,有限会社,東京都,荒川区,東尾久１丁目１１番２号,,13,118,1160012,,,,,,,2025-03-26,1,,,,,,0
1362,6011605002639,新規,0,2025-03-26,2025-03-26,医療法人社団千歳会,,その他の設立登記法人,東京都,練馬区,桜台１丁目２８番８シースリーモール新桜台２階－３,,13,120,1760002,,,,,,,2025-03-26,1,,,,,チトセカイ,0
1366,6012401042911,新規,0,2025-03-26,2025-03-26,ネクストビルダーズ株式会社,,株式会社,東京都,稲城市,矢野口２８１６番地１Ｆ,,13,225,2060812,,,,,,,2025-03-26,1,,,,,ネクストビルダーズ,0
1371,6020001161932,新規,0,2025-03-26,2025-03-26,ＭｅｄＢｒｉｄｇｅ株式会社,,株式会社,神奈川県,横浜市西区,北幸２丁目１０番４８号むつみビル３階,,14,103,2200004,,,,,,,2025-03-26,1,,,,,メドブリッジ,0
1372,6020001161940,新規,0,2025-03-26,2025-03-26,株式会社Ｔｓｕｂａｋｕｒａｍｅ,,株式会社,神奈川県,川崎市中原区,井田中ノ町２６－１０－３０５,,14,133,2110034,,,,,,,2025-03-26,1,,,,,ツバクラメ,0
1373,6020001161949,新規,0,2025-03-26,2025-03-26,株式会社あまね,,株式会社,神奈川県,横浜市神奈川区,金港町５－１４クアドリフォリオ８階,,14,102,2210056,,,,,,,2025-03-26,1,,,,,アマネ,0
1374,6020001161965,新規,0,2025-03-26,2025-03-26,株式会社ティーエスコーポレーション,,株式会社,神奈川県,横浜市神奈川区,西神奈川１丁目７番地９,,14,102,2210822,,,,,,,2025-03-26,1,,,,,ティーエスコーポレーション,0
1376,6020003028114,新規,0,2025-03-26,2025-03-26,合同会社Ｃｏｎｔｉｇｏ,,合同会社,神奈川県,川崎市川崎区,池上新町１丁目７番８号ダイヤモンドパレス２０２号室,,14,131,2100832,,,,,,,2025-03-26,1,,,,,コンティゴ,0
1393,6030001165478,新規,0,2025-03-26,2025-03-26,株式会社神留,,株式会社,埼玉県,熊谷市,宮前町２丁目７３番１号,,11,202,3600045,,,,,,,2025-03-26,1,,,,,カミドメ,0
1394,6030001165552,新規,0,2025-03-26,2025-03-26,株式会社日本アセットギャランティ,,株式会社,埼玉県,熊谷市,筑波２丁目１４番地,,11,202,3600037,,,,,,,2025-03-26,1,,,,,ニホンアセットギャランティ,0
1395,6030001165585,新規,0,2025-03-26,2025-03-26,株式会社ｕ‐ｐｌａｎＤ,,株式会社,埼玉県,春日部市,備後東６丁目１２番１－４号,,11,214,3440032,,,,,,,2025-03-26,1,,,,,ユープランディ,0
1396,6030001165593,新規,0,2025-03-26,2025-03-26,株式会社Ｓｈｉｎｋａｉ　Ｌａｂ,,株式会社,埼玉県,川越市,脇田本町３１－１（２０７）,,11,201,3501123,,,,,,,2025-03-26,1,,,,,シンカイラボ,0
1402,6040001137988,新規,0,2025-03-26,2025-03-26,双極総合建設株式会社,,株式会社,千葉県,千葉市花見川区,作新台２丁目８番２５号,,12,102,2620045,,,,,,,2025-03-26,1,,,,,ソウキョクソウゴウケンセツ,0
1403,6040001138029,新規,0,2025-03-26,2025-03-26,株式会社馬事信用保証,,株式会社,千葉県,千葉市稲毛区,山王町１２０番地９,,12,103,2630002,,,,,,,2025-03-26,1,,,,,バジシンヨウホショウ,0
1404,6040003027163,新規,0,2025-03-26,2025-03-26,合同会社Ｋｏｋｏｌｅｋａ,,合同会社,千葉県,船橋市,三山６丁目４０番６号シティハイツ小川ＩＩ－１０３号,00138435,12,204,2740072,,,,,,,2025-03-26,1,,,,,ココレカ,0
1407,6050001056262,新規,0,2025-03-26,2025-03-26,株式会社関東真田組,,株式会社,茨城県,鉾田市,常磐１６５６番地１１８,,08,234,3111427,,,,,,,2025-03-26,1,,,,,カントウサナダグミ,0
1408,6050001056361,新規,0,2025-03-26,2025-03-26,株式会社田仲農場サービス,,株式会社,茨城県,稲敷市,釜井７４２番地５,,08,229,3000604,,,,,,,2025-03-26,1,,,,,タナカノウジョウサービス,0
1410,6050003009128,新規,0,2025-03-26,2025-03-26,合同会社ＧＤ　ｇｒｏｕｐ,,合同会社,茨城県,つくば市,梅ケ丘１２－２,,08,220,3001275,,,,,,,2025-03-26,1,,,,,ジディグループ,0
1417,6100001038437,新規,0,2025-03-26,2025-03-26,株式会社モンスターラウンジ,,株式会社,長野県,上田市,上野１１００番地４２,,20,203,3860003,,,,,,,2025-03-26,1,,,,,モンスターラウンジ,0
1418,6100001038445,新規,0,2025-03-26,2025-03-26,株式会社ライフデザインＭ．ＢＯＤＹ,,株式会社,長野県,塩尻市,大門桔梗町４番２１号,,20,215,3990745,,,,,,,2025-03-26,1,,,,,ライフデザインエムボディー,0
1421,6110001039137,新規,0,2025-03-26,2025-03-26,株式会社ｓａｎｄｅｍｏｏｎ,,株式会社,新潟県,新潟市中央区,礎町通５ノ町２２６７番地１ｗｉｌｌＤｏ礎町６０１,,15,103,9518055,,,,,,,2025-03-26,1,,,,,サンデムーン,0
1432,6120001273899,新規,0,2025-03-26,2025-03-26,大阪＿＿株式会社,00138456,株式会社,大阪府,大阪市西区,江戸堀１丁目２３－１３肥後橋ビル３号館１２０１－Ｈ,,27,106,5500002,,,,,,,2025-03-26,1,,,,,オオサカキンゲツ,0
1433,6120001273908,新規,0,2025-03-26,2025-03-26,株式会社ＡＦＦＴ,,株式会社,大阪府,大阪市都島区,都島北通１丁目１８番２号ＦＡビルディング４階,,27,102,5340014,,,,,,,2025-03-26,1,,,,,エーエフエフティー,0
1434,6120001273924,新規,0,2025-03-26,2025-03-26,株式会社あんしんはけん,,株式会社,大阪府,大阪市城東区,中央１丁目２番３－１１１８号,,27,118,5360005,,,,,,,2025-03-26,1,,,,,アンシンハケン,0
1435,6120001273940,新規,0,2025-03-26,2025-03-26,スマーティー・テクノロジー・ジャパン株式会社,,株式会社,大阪府,大阪市東淀川区,東中島１丁目２０番１２－７１８号,,27,114,5330033,,,,,,,2025-03-26,1,,,,,スマーティーテクノロジージャパン,0
1436,6120001273965,新規,0,2025-03-26,2025-03-26,株式会社Ｗｏｒｌｄ　Ｖｉｓｉｏｎ,,株式会社,大阪府,大阪市西成区,北津守３丁目１２番２１－２０３,,27,122,5570061,,,,,,,2025-03-26,1,,,,,ワールドヴィジョン,0
1437,6120001273981,新規,0,2025-03-26,2025-03-26,株式会社龍泉,,株式会社,大阪府,大阪市淀川区,宮原２丁目１２－１４ライオンズマンション新大阪第五４０４号室,,27,123,5320003,,,,,,,2025-03-26,1,,,,,リュウセン,0
1441,6120005024852,新規,0,2025-03-26,2025-03-26,一般社団法人ウィービジョン,,その他の設立登記法人,大阪府,大阪市中央区,船場中央３丁目２番８号船場センタービル８号館２１１号,,27,128,5410055,,,,,,,2025-03-26,1,,,,,ウィービジョン,0
1456,6130001079271,新規,0,2025-03-26,2025-03-26,株式会社みんなのＡＩ,,株式会社,京都府,京都市下京区,七条御所ノ内西町２５番地７,,26,106,6008865,,,,,,,2025-03-26,1,,,,,ミンナノエーアイ,0
1465,6140001137862,新規,0,2025-03-26,2025-03-26,ＪＨ　ＴＲＡＤＩＮＧ株式会社,,株式会社,兵庫県,姫路市,香寺町香呂５２番地５ＣＨｏｕｓｅ２０１,,28,201,6792151,,,,,,,2025-03-26,1,,,,,ジェイエイチトレーディング,0
1467,6140003021833,新規,0,2025-03-26,2025-03-26,合同会社ＭＯＡＴ,,合同会社,兵庫県,高砂市,中島１丁目５－６,,28,216,6760001,,,,,,,2025-03-26,1,,,,,モート,0
1468,6140005027416,新規,0,2025-03-26,2025-03-26,医療法人社団蒼樹会,,その他の設立登記法人,兵庫県,伊丹市,山田２丁目２番２５－３号,,28,207,6640874,,,,,,,2025-03-26,1,,,,,ソウジュカイ,0
1469,6150003003533,新規,0,2025-03-26,2025-03-26,ＪＡＰＡＮ　ＡＵＴＯＳ合同会社,,合同会社,奈良県,大和高田市,大字大中２５－９,,29,202,6350095,,,,,,,2025-03-26,1,,,,,ジャパンオートス,0
1478,6180001166024,新規,0,2025-03-26,2025-03-26,株式会社嵐心,,株式会社,愛知県,名古屋市中区,丸の内３丁目７－９チサンマンション丸の内第２・４０３号室,,23,106,4600002,,,,,,,2025-03-26,1,,,,,ランシン,0
1479,6180001166032,新規,0,2025-03-26,2025-03-26,Ｋａｚｏｏ株式会社,,株式会社,愛知県,小牧市,小牧２丁目２８７番地,,23,219,4850041,,,,,,,2025-03-26,1,,,,,カズー,0
1480,6180001166040,新規,0,2025-03-26,2025-03-26,株式会社Ｋ‐ＬＩＧＨＴ,,株式会社,愛知県,名古屋市西区,十方町８８番地テクノ十方Ａ号,,23,104,4520837,,,,,,,2025-03-26,1,,,,,ケイライト,0
1481,6180001166049,新規,0,2025-03-26,2025-03-26,藤ファミリー株式会社,,株式会社,愛知県,名古屋市南区,駈上１丁目４番８号,,23,112,4570007,,,,,,,2025-03-26,1,,,,,フジファミリー,0
1482,6180001166065,新規,0,2025-03-26,2025-03-26,株式会社Ｔａｋｅ　Ｐｏｗｅｒ　Ｉｎｓｕｒａｎｃｅ,,株式会社,愛知県,日進市,東山２丁目３０７番地,,23,230,4700116,,,,,,,2025-03-26,1,,,,,テイクパワーインシュアランス,0
1486,6180003028197,新規,0,2025-03-26,2025-03-26,Ｂａｔｈｉｎｃ合同会社,,合同会社,愛知県,名古屋市中村区,名駅３丁目４－１０アルティメイト名駅１ｓｔ２階,,23,105,4500002,,,,,,,2025-03-26,1,,,,,ベーシンク,0
1487,6180003028206,新規,0,2025-03-26,2025-03-26,桃乃木合同会社,,合同会社,愛知県,名古屋市守山区,翠松園２丁目５２２,,23,113,4630010,,,,,,,2025-03-26,1,,,,,モモノキ,0
1488,6180301039648,新規,0,2025-03-26,2025-03-26,株式会社Ｒｉｅｌｅ,,株式会社,愛知県,豊橋市,富士見台４丁目２番地８,,23,201,4418135,,,,,,,2025-03-26,1,,,,,リエル,0
1489,6180303006506,新規,0,2025-03-26,2025-03-26,コーナ合同会社,,合同会社,愛知県,安城市,三河安城本町１丁目１５番地１マイコート三河安城３０２,,23,212,4460059,,,,,,,2025-03-26,1,,,,,コーナ,0
1491,6190001032101,新規,0,2025-03-26,2025-03-26,株式会社ＥＸＥＶＩＳＩＯＮ,,株式会社,三重県,四日市市,尾平町２１１４‐１,,24,202,5120921,,,,,,,2025-03-26,1,,,,,エグゼビジョン,0
1492,6190003004973,新規,0,2025-03-26,2025-03-26,合同会社マツダ,,合同会社,三重県,津市,森町１９４５番地１１,,24,201,5141254,,,,,,,2025-03-26,1,,,,,マツダ,0
1494,6200001043559,新規,0,2025-03-26,2025-03-26,株式会社いぶき,,株式会社,岐阜県,瑞浪市,土岐町１００９番地の３２,,21,208,5096101,,,,,,,2025-03-26,1,,,,,イブキ,0
1502,6240001064691,新規,0,2025-03-26,2025-03-26,株式会社ＵＮＩＣＯＭ,,株式会社,広島県,福山市,赤坂町大字赤坂２６７番地１０８,,34,207,7200843,,,,,,,2025-03-26,1,,,,,ユニコム,0
1503,6240001064700,新規,0,2025-03-26,2025-03-26,株式会社気密プロジェクション,,株式会社,広島県,呉市,音戸町渡子１丁目５番５号,,34,202,7371217,,,,,,,2025-03-26,1,,,,,キミツプロジェクション,0
1509,6260001040039,新規,0,2025-03-26,2025-03-26,株式会社バランスＨＤ,,株式会社,岡山県,岡山市北区,問屋町２６番地１０６,,33,101,7000977,,,,,,,2025-03-26,1,,,,,バランスホールディングス,0
1513,6270005005631,新規,0,2025-03-26,2025-03-26,一般社団法人レガーメスポーツクラブ,,その他の設立登記法人,鳥取県,西伯郡伯耆町,坂長７１５番地,,31,390,6894122,,,,,,,2025-03-26,1,,,,,レガーメスポーツクラブ,0
1519,6290001109418,新規,0,2025-03-26,2025-03-26,株式会社ハモンザ,,株式会社,福岡県,糸島市,志摩稲留１８番地１,,40,230,8191313,,,,,,,2025-03-26,1,,,,,ハモンザ,0
1520,6290001109426,新規,0,2025-03-26,2025-03-26,株式会社ポジティブケア,,株式会社,福岡県,福岡市中央区,清川３丁目２８－８,,40,133,8100005,,,,,,,2025-03-26,1,,,,,ポジティブケア,0
1521,6290001109442,新規,0,2025-03-26,2025-03-26,株式会社夢のかたち,,株式会社,福岡県,太宰府市,五条２丁目２番３５号庚申ビル１階１号,,40,221,8180125,,,,,,,2025-03-26,1,,,,,ユメノカタチ,0
1523,6290003016579,新規,0,2025-03-26,2025-03-26,合同会社ＹＭＦ,,合同会社,福岡県,福岡市博多区,博多駅前１丁目２３番２号ＰａｒｋＦｒｏｎｔ博多駅前１丁目５Ｆ－Ｂ,,40,132,8120011,,,,,,,2025-03-26,1,,,,,ワイエムエフ,0
1524,6290003016587,新規,0,2025-03-26,2025-03-26,合同会社ＦＩＢ,,合同会社,福岡県,福岡市中央区,平尾４丁目１番３１－２０９号ライオンズマンションマキシム平尾,,40,133,8100014,,,,,,,2025-03-26,1,,,,,フィボ,0
1525,6290003016595,新規,0,2025-03-26,2025-03-26,合同会社Ｔｅａ　Ｓｈｏｔ,,合同会社,福岡県,福岡市東区,三苫１丁目３番３８号,,40,131,8110201,,,,,,,2025-03-26,1,,,,,ティーショット,0
1530,6310001019515,新規,0,2025-03-26,2025-03-26,ＳＵＮＫＩＮＧ株式会社,,株式会社,長崎県,佐世保市,勝海町２２６,,42,202,8593216,,,,,,,2025-03-26,1,,,,,サンキング,0
1536,6350001019453,新規,0,2025-03-26,2025-03-26,株式会社マリテス,,株式会社,宮崎県,日向市,大字細島６６７番地１２９,,45,206,8830001,,,,,,,2025-03-26,1,,,,,マリテス,0
1538,6350003004882,新規,0,2025-03-26,2025-03-26,Ｓｔａｇｅ　Ｓｉｄｅ　Ｐｒｏｄｕｃｔ合同会社,,合同会社,宮崎県,宮崎市,大字塩路２５３２番地,,45,201,8800122,,,,,,,2025-03-26,1,,,,,ステージサイドプロダクト,0
1550,6380003005993,新規,0,2025-03-26,2025-03-26,合同会社三導,,合同会社,福島県,郡山市,富田町字大十内８５番地の１７０,,07,203,9638041,,,,,,,2025-03-26,1,,,,,ミチビキ,0
1551,6390001017932,新規,0,2025-03-26,2025-03-26,株式会社さがえ農場,,株式会社,山形県,長井市,歌丸７４３番地,,06,209,9930034,,,,,,,2025-03-26,1,,,,,サガエノウジョウ,0
1554,6400001016981,新規,0,2025-03-26,2025-03-26,株式会社八方堂,,株式会社,岩手県,盛岡市,永井２３地割７番地４６,,03,201,0200834,,,,,,,2025-03-26,1,,,,,ハッポウドウ,0
1555,6410001014101,新規,0,2025-03-26,2025-03-26,株式会社佐藤運輸,,株式会社,秋田県,秋田市,四ツ小屋字中野２０４番地１,,05,201,0101417,,,,,,,2025-03-26,1,,,,,サトウウンユ,0
1558,6430001093985,新規,0,2025-03-26,2025-03-26,株式会社ＭＩＹＡＢＩ,,株式会社,北海道,札幌市中央区,北一条西２８丁目７番２－２０２号,,01,101,0640821,,,,,,,2025-03-26,1,,,,,ミヤビ,0
1562,6460003001043,新規,0,2025-03-26,2025-03-26,合同会社ＳＴＲ,,合同会社,北海道,釧路市,美原３丁目２９番９号,,01,206,0850065,,,,,,,2025-03-26,1,,,,,エスティーアール,0
1568,6500001026211,新規,0,2025-03-26,2025-03-26,株式会社日の出ホールディングス,,株式会社,愛媛県,松山市,新立町４番３９号,,38,201,7900865,,,,,,,2025-03-26,1,,,,,ヒノデホールディングス,0
1576,7010001253531,新規,0,2025-03-26,2025-03-26,ＭＩＬＬＥＮＮＩＵＭ　ＬＡＢ株式会社,,株式会社,東京都,千代田区,神田練塀町３００番地グランヴィスタ神田練塀町１８１０号,,13,101,1010022,,,,,,,2025-03-26,1,,,,,ミレニアムラボ,0
1577,7010001253564,新規,0,2025-03-26,2025-03-26,インテグラル・グローバルテック・パートナーズ株式会社,,株式会社,東京都,千代田区,丸の内１丁目９番２号,,13,101,1000005,,,,,,,2025-03-26,1,,,,,インテグラルグローバルテックパートナーズ,0
1590,7010401189086,新規,0,2025-03-26,2025-03-26,株式会社ＳＡＫＵＲＡ　ＪＡＰＡＮ　ＣＯＮＳＵＬＴＩＮＧ,,株式会社,東京都,港区,赤坂９丁目１番７－８５３号,,13,103,1070052,,,,,,,2025-03-26,1,,,,,サクラジャパンコンサルティング,0
1591,7010401189152,新規,0,2025-03-26,2025-03-26,株式会社Ｍａｉｍｕ,,株式会社,東京都,港区,南青山３丁目１番３６号青山丸竹ビル６Ｆ,,13,103,1070062,,,,,,,2025-03-26,1,,,,,マイム,0
1596,7010403034513,新規,0,2025-03-26,2025-03-26,合同会社ＳＵＬＯＮＧ,,合同会社,東京都,港区,白金３丁目７番３,,13,103,1080072,,,,,,,2025-03-26,1,,,,,スロン,0
1597,7010403034554,新規,0,2025-03-26,2025-03-26,グローウィズダンスジャパン合同会社,,合同会社,東京都,港区,南青山２丁目２番１５号,,13,103,1070062,,,,,,,2025-03-26,1,,,,,グローウィズダンスジャパン,0
1598,7010403034711,新規,0,2025-03-26,2025-03-26,合同会社Ｗｈｉｓｋｅｒｙ,,合同会社,東京都,港区,虎ノ門１丁目１番１８号ヒューリック虎ノ門ビル９階Ｌ＆Ｐ司法書士法人内,,13,103,1050001,,,,,,,2025-03-26,1,,,,,ウィスケリー,0
1599,7010403034736,新規,0,2025-03-26,2025-03-26,パシフィコ・エナジー第１２合同会社,,合同会社,東京都,港区,六本木３丁目２番１号六本木グランドタワー,,13,103,1060032,,,,,,,2025-03-26,1,,,,,パシフィコエナジーダイジュウニ,0
1600,7010501053836,新規,0,2025-03-26,2025-03-26,エムズ株式会社,,株式会社,東京都,台東区,寿２丁目１０番１１号仙石ビル６階Ａ号室,,13,106,1110042,,,,,,,2025-03-26,1,,,,,エムズ,0
1601,7010501053844,新規,0,2025-03-26,2025-03-26,ＢＩＫＡＴＳＵ株式会社,,株式会社,東京都,台東区,東上野４丁目２０番１号,,13,106,1100015,,,,,,,2025-03-26,1,,,,,ビカツ,0
1603,7010601066952,新規,0,2025-03-26,2025-03-26,株式会社ネクスコアジャパン,,株式会社,東京都,江東区,青海２丁目７番４号ｔｈｅＳＯＨＯ４１２,,13,108,1350064,,,,,,,2025-03-26,1,,,,,ネクスコアジャパン,0
1618,7011005010919,新規,0,2025-03-26,2025-03-26,一般社団法人エムオフィス,,その他の設立登記法人,東京都,目黒区,東山２丁目９番１４－１０８号,,13,110,1530043,,,,,,,2025-03-26,1,,,,,エムオフィス,0
1621,7011101111117,新規,0,2025-03-26,2025-03-26,株式会社オルファンク,,株式会社,東京都,新宿区,西新宿３丁目３番１３号西新宿水間ビル２Ｆ,,13,104,1600023,,,,,,,2025-03-26,1,,,,,オルファンク,0
1630,7011301030455,新規,0,2025-03-26,2025-03-26,Ａｓｃｅｎｄ　Ｊａｐａｎ株式会社,,株式会社,東京都,杉並区,南荻窪１丁目１１－２,,13,115,1670052,,,,,,,2025-03-26,1,,,,,アセンドジャパン,0
1631,7011303005471,新規,0,2025-03-26,2025-03-26,ｓｔｏｎｅｆｒｏｎｔ合同会社,,合同会社,東京都,杉並区,南荻窪３丁目１４―１３ベルク荻窪２０３,,13,115,1670052,,,,,,,2025-03-26,1,,,,,ストーンフロント,0
1639,7011801045845,新規,0,2025-03-26,2025-03-26,株式会社Ｒｅｘｘ,,株式会社,東京都,足立区,東伊興３丁目１５番９号,,13,121,1210801,,,,,,,2025-03-26,1,,,,,レックス,0
1640,7011805003444,新規,0,2025-03-26,2025-03-26,一般社団法人ケダゴロ,,その他の設立登記法人,東京都,足立区,伊興２丁目１３番５－１０３号,,13,121,1210823,,,,,,,2025-03-26,1,,,,,ケダゴロ,0
1642,7012305002127,新規,0,2025-03-26,2025-03-26,一般社団法人メモリアルパーククラウド御殿山管理事務所,,その他の設立登記法人,東京都,町田市,相原町５２２番地の１,,13,209,1940211,,,,,,,2025-03-26,1,,,,,メモリアルパーククラウドゴテンヤマカンリジムショ,0
1644,7012401042919,新規,0,2025-03-26,2025-03-26,株式会社ＴＯＷホールディングス,,株式会社,東京都,府中市,府中町２丁目９－１プレステージ府中３１０号室,,13,206,1830055,,,,,,,2025-03-26,1,,,,,トウホールディングス,0
1651,7020001161964,新規,0,2025-03-26,2025-03-26,ＴｅａｍＳＡＢＯＴＥＮ株式会社,,株式会社,神奈川県,横浜市中区,桜木町１丁目１０１番地１クロスゲート７階,,14,104,2310062,,,,,,,2025-03-26,1,,,,,チームサボテン,0
1652,7020001161980,新規,0,2025-03-26,2025-03-26,株式会社Ｍｉｌｌｙ,,株式会社,神奈川県,横浜市港北区,日吉３丁目２－１３,,14,109,2230061,,,,,,,2025-03-26,1,,,,,ミリー,0
1653,7020001161989,新規,0,2025-03-26,2025-03-26,株式会社ハマリスク,,株式会社,神奈川県,横浜市磯子区,洋光台６丁目３９番２２号,,14,107,2350045,,,,,,,2025-03-26,1,,,,,ハマリスク,0
1657,7020003028121,新規,0,2025-03-26,2025-03-26,合同会社ＭＫインターナショナル,,合同会社,神奈川県,横浜市神奈川区,神大寺４丁目２０－３５,,14,102,2210801,,,,,,,2025-03-26,1,,,,,エムケーインターナショナル,0
1660,7021003015778,新規,0,2025-03-26,2025-03-26,鎌倉キャピタル合同会社,,合同会社,神奈川県,鎌倉市,腰越３丁目１９番１６号,,14,204,2480033,,,,,,,2025-03-26,1,,,,,カマクラキャピタル,0
1672,7030001165551,新規,0,2025-03-26,2025-03-26,株式会社ティワイディ,,株式会社,埼玉県,越谷市,南越谷４丁目８番５－５０１号,,11,222,3430845,,,,,,,2025-03-26,1,,,,,ティワイディ,0
1673,7030001165584,新規,0,2025-03-26,2025-03-26,株式会社ＫＡＮＡＤＥ．ｌｕｃｒａｓ,,株式会社,埼玉県,川越市,豊田本５丁目１５番地７,,11,201,3501118,,,,,,,2025-03-26,1,,,,,カナデルクラス,0
1676,7030003026396,新規,0,2025-03-26,2025-03-26,合同会社Ｋ　ＣＯＮＳＵＬＴＡＮＴ,,合同会社,埼玉県,さいたま市岩槻区,本丸４丁目１１番１号,,11,110,3390058,,,,,,,2025-03-26,1,,,,,ケーコンサルタント,0
1686,7040003027154,新規,0,2025-03-26,2025-03-26,ＣＨＩＧＯＺＩＥ　ＪＰ　ＥＮＴＥＲＰＲＩＳＥＳ合同会社,,合同会社,千葉県,野田市,岩名２丁目９－１４,,12,208,2780055,,,,,,,2025-03-26,1,,,,,チゴジエジェーピーエンタープライズ,0
1692,7050002001150,新規,0,2025-03-26,2025-03-26,有限会社久野工業所,,有限会社,茨城県,水戸市,堀町２０２３番地の１７３,,08,201,3100903,,,,,,,2025-03-26,1,,,,,キュウノコウギョウショ,0
1700,7070001042763,新規,0,2025-03-26,2025-03-26,株式会社ｋａｈｏｎａｓ,,株式会社,群馬県,太田市,石原町４８８番地１０,,10,205,3730808,,,,,,,2025-03-26,1,,,,,カオナス,0
1703,7070003005834,新規,0,2025-03-26,2025-03-26,合同会社フローリッシュ,,合同会社,群馬県,太田市,高林東町１７０９番地２,,10,205,3730825,,,,,,,2025-03-26,1,,,,,フローリッシュ,0
1707,7100001038428,新規,0,2025-03-26,2025-03-26,株式会社ピースコンポスト,,株式会社,長野県,埴科郡坂城町,大字坂城４２１０番地１０３,,20,521,3890601,,,,,,,2025-03-26,1,,,,,ピースコンポスト,0
1708,7110001039136,新規,0,2025-03-26,2025-03-26,Ｓ・ＢＡＳＥ株式会社,,株式会社,新潟県,長岡市,江陽１丁目１番３０号,,15,202,9402015,,,,,,,2025-03-26,1,,,,,エスベース,0
1724,7120001273923,新規,0,2025-03-26,2025-03-26,株式会社あんしん警備,,株式会社,大阪府,大阪市城東区,成育３丁目１６番７号３０３号,,27,118,5360007,,,,,,,2025-03-26,1,,,,,アンシンケイビ,0
1725,7120001273948,新規,0,2025-03-26,2025-03-26,澤園株式会社,,株式会社,大阪府,大阪市住吉区,苅田２丁目７番１３－１０１号,,27,120,5580011,,,,,,,2025-03-26,1,,,,,サイエン,0
1726,7120001273964,新規,0,2025-03-26,2025-03-26,株式会社ＭＩＮＡＳＥ,,株式会社,大阪府,大阪市中央区,宗右衛門町５－１１日宝エイトビル５Ｆ,,27,128,5420084,,,,,,,2025-03-26,1,,,,,ミナセ,0
1727,7120001273980,新規,0,2025-03-26,2025-03-26,奉和株式会社,,株式会社,大阪府,大阪市東成区,深江北１丁目４番１５号,,27,115,5370001,,,,,,,2025-03-26,1,,,,,ホウワ,0
1728,7120003028929,新規,0,2025-03-26,2025-03-26,合同会社發設,,合同会社,大阪府,大阪市福島区,吉野３丁目２６番１５－７０６号,,27,103,5530006,,,,,,,2025-03-26,1,,,,,ハッセツ,0
1729,7120003028937,新規,0,2025-03-26,2025-03-26,大成貿易合同会社,,合同会社,大阪府,大阪市阿倍野区,西田辺町２丁目６番３号（１Ｂ）,,27,119,5450014,,,,,,,2025-03-26,1,,,,,タイセイボウエキ,0
1731,7120901050579,新規,0,2025-03-26,2025-03-26,株式会社Ｐｙｘｉｓ,,株式会社,大阪府,吹田市,新芦屋下１８番１５号（２０２）,00138434,27,205,5650803,,,,,,,2025-03-26,1,,,,,ピクシス,0
1743,7130001079254,新規,0,2025-03-26,2025-03-26,株式会社清水企画,,株式会社,京都府,京都市伏見区,淀美豆町２７０番地２４,,26,109,6130916,,,,,,,2025-03-26,1,,,,,シミズキカク,0
1744,7130001079270,新規,0,2025-03-26,2025-03-26,京都紫光クラブ株式会社,,株式会社,京都府,京都市下京区,烏丸通七条下る東塩小路町７３５番地１京阪京都ビル８階,,26,106,6008216,,,,,,,2025-03-26,1,,,,,キョウトシコウクラブ,0
1745,7140001137779,新規,0,2025-03-26,2025-03-26,株式会社ＳＨＯＷ　ｆｏｏｄ　ｓｅｒｖｉｃｅ,,株式会社,兵庫県,神戸市北区,長尾町上津２４２５番地１,,28,109,6511512,,,,,,,2025-03-26,1,,,,,ショウフードサービス,0
1746,7140001137837,新規,0,2025-03-26,2025-03-26,Ｗｅｌｌ　Ｓｔｒｅｅｔ株式会社,,株式会社,兵庫県,西宮市,柏堂町１０番３９号,,28,204,6620097,,,,,,,2025-03-26,1,,,,,ウェルストリート,0
1747,7140001137878,新規,0,2025-03-26,2025-03-26,白鴎株式会社,,株式会社,兵庫県,川西市,緑が丘１丁目２５番１９号,,28,217,6660157,,,,,,,2025-03-26,1,,,,,ハクオウ,0
1748,7140001137886,新規,0,2025-03-26,2025-03-26,株式会社ネクストイノベーション,,株式会社,兵庫県,神戸市中央区,磯上通８丁目１番２９号カサベラビルＣ＆Ｍ４０３号室,,28,110,6510086,,,,,,,2025-03-26,1,,,,,ネクストイノベーション,0
1749,7140001137894,新規,0,2025-03-26,2025-03-26,株式会社みやけ商会,,株式会社,兵庫県,尼崎市,東難波町４丁目１７－２１,,28,202,6600892,,,,,,,2025-03-26,1,,,,,ミヤケショウカイ,0
1750,7140001137903,新規,0,2025-03-26,2025-03-26,上村営農株式会社,,株式会社,兵庫県,西脇市,富吉上町１１４番地,,28,213,6770011,,,,,,,2025-03-26,1,,,,,カミムラエイノウ,0
1752,7140003021832,新規,0,2025-03-26,2025-03-26,安福不動産合同会社,,合同会社,兵庫県,明石市,大蔵谷奥１４－３０,,28,203,6730867,,,,,,,2025-03-26,1,,,,,ヤスフクフドウサン,0
1753,7140005027415,新規,0,2025-03-26,2025-03-26,医療法人ホッとクリニック,,その他の設立登記法人,兵庫県,揖保郡太子町,東南３４４番地６,,28,464,6711523,,,,,,,2025-03-26,1,,,,,ホットクリニック,0
1754,7160003003432,新規,0,2025-03-26,2025-03-26,ｆｒｅｒｅ　ｐｌｕｓ合同会社,,合同会社,滋賀県,近江八幡市,鷹飼町１５５３番地イーストビル１０２,,25,204,5230891,,,,,,,2025-03-26,1,,,,,フレールプラス,0
1758,7180001166048,新規,0,2025-03-26,2025-03-26,インゴットベース株式会社,,株式会社,愛知県,常滑市,飛香台８丁目３番地の２,,23,216,4790868,,,,,,,2025-03-26,1,,,,,インゴットベース,0
1759,7180001166056,新規,0,2025-03-26,2025-03-26,株式会社村上電設工業,,株式会社,愛知県,知多郡武豊町,字若宮８２番地２２,,23,447,4702325,,,,,,,2025-03-26,1,,,,,ムラカミデンセツコウギョウ,0
1761,7180003028196,新規,0,2025-03-26,2025-03-26,合同会社グローバルインテリジェンス,,合同会社,愛知県,春日井市,宮町字下夕原３９番地ハイムフロイデＩＩＩ１０２号,00138441,23,206,4860904,,,,,,,2025-03-26,1,,,,,グローバルインテリジェンス,0
1763,7180301039647,新規,0,2025-03-26,2025-03-26,株式会社Ｃｒｏｓｓ　Ｂｕｄｄｙ,,株式会社,愛知県,豊田市,亀首町札掛３０番地２,,23,211,4700375,,,,,,,2025-03-26,1,,,,,クロスバディ,0
1764,7180303006505,新規,0,2025-03-26,2025-03-26,合同会社グレイテスト,,合同会社,愛知県,豊橋市,草間町字東山１２４番地１（Ｂ２）,,23,201,4418141,,,,,,,2025-03-26,1,,,,,グレイテスト,0
1765,7190001032100,新規,0,2025-03-26,2025-03-26,株式会社日本職業訓練センター,,株式会社,三重県,松阪市,飯南町向粥見１６６番地１,,24,204,5151412,,,,,,,2025-03-26,1,,,,,ニホンショクギョウクンレンセンター,0
1767,7200001043558,新規,0,2025-03-26,2025-03-26,株式会社弘文康,,株式会社,岐阜県,瑞穂市,本田２１５２番地１６,,21,216,5010236,,,,,,,2025-03-26,1,,,,,ヒロブンコウ,0
1769,7210001020110,新規,0,2025-03-26,2025-03-26,株式会社ＸＲｉｃｅ,,株式会社,福井県,鯖江市,旭町１丁目８－４,,18,207,9160025,,,,,,,2025-03-26,1,,,,,エックスライス,0
1771,7220003003979,新規,0,2025-03-26,2025-03-26,合同会社みからく,,合同会社,石川県,加賀市,山中温泉菅生谷町ロ２５０番地,,17,206,9220134,,,,,,,2025-03-26,1,,,,,ミカラク,0
1778,7240001064690,新規,0,2025-03-26,2025-03-26,昭和緑興株式会社,,株式会社,広島県,福山市,東村町５８番地１,,34,207,7290251,,,,,,,2025-03-26,1,,,,,ショウワリョクコウ,0
1783,7260001040038,新規,0,2025-03-26,2025-03-26,株式会社ＪＯＢプランニング,,株式会社,岡山県,岡山市南区,浜野３丁目２番４号,,33,104,7000845,,,,,,,2025-03-26,1,,,,,ジョブプランニング,0
1785,7260003005105,新規,0,2025-03-26,2025-03-26,合同会社岡山企画,,合同会社,岡山県,岡山市中区,関２６７－１４,,33,102,7038232,,,,,,,2025-03-26,1,,,,,オカヤマキカク,0
1789,7290001109433,新規,0,2025-03-26,2025-03-26,佳＿商事株式会社,00138445,株式会社,福岡県,久留米市,西町７８３番地３１,,40,203,8300038,,,,,,,2025-03-26,1,,,,,カヨウショウジ,0
1791,7290003016594,新規,0,2025-03-26,2025-03-26,ライフサポート合同会社,,合同会社,福岡県,福岡市南区,弥永１丁目６番４タートル弥永２０６号,,40,134,8111323,,,,,,,2025-03-26,1,,,,,ライフサポート,0
1795,7290801031381,新規,0,2025-03-26,2025-03-26,株式会社達磨,,株式会社,福岡県,北九州市門司区,吉志１丁目３６番２４号吉志ハイツ１０１号室,,40,101,8000114,,,,,,,2025-03-26,1,,,,,ダルマ,0
1797,7330003010907,新規,0,2025-03-26,2025-03-26,合同会社ＪＵＩＣＹ,,合同会社,熊本県,熊本市中央区,新市街３－１８,,43,101,8600803,,,,,,,2025-03-26,1,,,,,ジューシー,0
1800,7370001052385,新規,0,2025-03-26,2025-03-26,株式会社スマイルフィット,,株式会社,宮城県,仙台市若林区,大和町２丁目１番１５号ＫＦＫビル３０２号,,04,103,9840042,,,,,,,2025-03-26,1,,,,,スマイルフィット,0
1804,7400003003416,新規,0,2025-03-26,2025-03-26,合同会社向日葵,,合同会社,岩手県,滝沢市,巣子１９７番地２,,03,216,0200611,,,,,,,2025-03-26,1,,,,,ヒマワリ,0
1810,7420003003091,新規,0,2025-03-26,2025-03-26,合同会社ＴＲＥＥ,,合同会社,青森県,青森市,浜館３丁目１番地２３シルキーハイム２０４号,,02,201,0300947,,,,,,,2025-03-26,1,,,,,ツリー,0
1815,7430001093984,新規,0,2025-03-26,2025-03-26,株式会社ＧＳＭＩＬＥ,,株式会社,北海道,札幌市北区,北十条西３丁目１番１号,,01,102,0010010,,,,,,,2025-03-26,1,,,,,ジースマイル,0
1816,7430001094009,新規,0,2025-03-26,2025-03-26,株式会社みなともち,,株式会社,北海道,小樽市,花園４丁目１０番１３号,,01,203,0470024,,,,,,,2025-03-26,1,,,,,ミナトモチ,0
1817,7430001094017,新規,0,2025-03-26,2025-03-26,株式会社ＬｕｂｅＯＮＥ,,株式会社,北海道,札幌市白石区,東札幌二条４丁目１１番８号ＡＭＳ東札幌２４　２０２号室,,01,104,0030002,,,,,,,2025-03-26,1,,,,,ルーブワン,0
1819,7430003017438,新規,0,2025-03-26,2025-03-26,愛日合同会社,,合同会社,北海道,札幌市北区,北三十四条西３丁目３６番２２号,,01,102,0010034,,,,,,,2025-03-26,1,,,,,アイニチ,0
1820,7430005015191,新規,0,2025-03-26,2025-03-26,医療法人社団北想会,,その他の設立登記法人,北海道,札幌市中央区,宮の森四条３丁目２番１４号,,01,101,0640954,,,,,,,2025-03-26,1,,,,,ホクソウカイ,0
1841,8010001253539,新規,0,2025-03-26,2025-03-26,帝新貿易株式会社,,株式会社,東京都,千代田区,神田佐久間町３丁目２８星野ビル４Ｆ９号室,,13,101,1010025,,,,,,,2025-03-26,1,,,,,テイシンボウエキ,0
1842,8010001253547,新規,0,2025-03-26,2025-03-26,株式会社ＴＯＭＩＬＩＺＵＭ,,株式会社,東京都,千代田区,神田和泉町１番地６－１６ヤマトビル４０５,,13,101,1010024,,,,,,,2025-03-26,1,,,,,トミリズム,0
1848,8010401189036,新規,0,2025-03-26,2025-03-26,株式会社ＲｅＭＯＩＣＬＥ,,株式会社,東京都,港区,芝３丁目１７番１号グリーンハウス７０２,,13,103,1050014,,,,,,,2025-03-26,1,,,,,リモイクル,0
1849,8010401189077,新規,0,2025-03-26,2025-03-26,ＭＩＳＡＫＩ　ＧＲＯＵＰ株式会社,,株式会社,東京都,港区,麻布十番１丁目２番７号ラフィネ麻布十番７０１号室,,13,103,1060045,,,,,,,2025-03-26,1,,,,,ミサキグループ,0
1850,8010401189093,新規,0,2025-03-26,2025-03-26,日峯国際ホールディングス株式会社,,株式会社,東京都,港区,高輪１丁目３番２－１９０１号プレミストタワー白金高輪,,13,103,1080074,,,,,,,2025-03-26,1,,,,,ヒノミネコクサイホールディングス,0
1851,8010401189110,新規,0,2025-03-26,2025-03-26,株式会社ｃｏｃｏ,,株式会社,東京都,港区,南青山５丁目４－４４－２０８ラポール南青山５４,,13,103,1070062,,,,,,,2025-03-26,1,,,,,ココ,0
1852,8010401189135,新規,0,2025-03-26,2025-03-26,株式会社Ｔａｉｌｗｉｎｄｓ,,株式会社,東京都,港区,芝浦３丁目１７番１１号,,13,103,1080023,,,,,,,2025-03-26,1,,,,,テイルウィンズ,0
1853,8010401189151,新規,0,2025-03-26,2025-03-26,株式会社ＬＯＣＡＬＯ　Ｎｏｏｄｌｅ,,株式会社,東京都,港区,六本木３丁目１７番１２－１０３号,,13,103,1060032,,,,,,,2025-03-26,1,,,,,ロカロヌードル,0
1856,8010403034710,新規,0,2025-03-26,2025-03-26,合同会社Ｂｌａｃｋ　Ｇｏｌｄ,,合同会社,東京都,港区,虎ノ門１丁目１番１８号ヒューリック虎ノ門ビル９階Ｌ＆Ｐ司法書士法人内,,13,103,1050001,,,,,,,2025-03-26,1,,,,,ブラックゴールド,0
1860,8010701047414,新規,0,2025-03-26,2025-03-26,株式会社ＥＬＹＳＩＯＮ,,株式会社,東京都,品川区,上大崎２丁目８－２１プラウド白金長者丸１０１,,13,109,1410021,,,,,,,2025-03-26,1,,,,,エリュシオン,0
1865,8010901057064,新規,0,2025-03-26,2025-03-26,株式会社リプラ,,株式会社,東京都,世田谷区,奥沢５丁目２９－１,,13,112,1580083,,,,,,,2025-03-26,1,,,,,リプラ,0
1866,8010901057072,新規,0,2025-03-26,2025-03-26,株式会社まちリアルティ,,株式会社,東京都,世田谷区,野毛３丁目１番３号,,13,112,1580092,,,,,,,2025-03-26,1,,,,,マチリアルティ,0
1867,8010903009798,新規,0,2025-03-26,2025-03-26,合同会社スタジオグース,,合同会社,東京都,世田谷区,太子堂４丁目１８番１５号マガザン三軒茶屋２－３Ｆ－３,,13,112,1540004,,,,,,,2025-03-26,1,,,,,スタジオグース,0
1872,8011001168727,新規,0,2025-03-26,2025-03-26,株式会社ＲｉｖｅｒＳｔａｋｅ,,株式会社,東京都,渋谷区,渋谷３丁目２５番２１号平野ビル１Ｆ,,13,113,1500002,,,,,,,2025-03-26,1,,,,,リバーステーク,0
1882,8011103015686,新規,0,2025-03-26,2025-03-26,合同会社ＣＢ,,合同会社,東京都,新宿区,西新宿３丁目３番１３号西新宿水間ビル２Ｆ,,13,104,1600023,,,,,,,2025-03-26,1,,,,,シービー,0
1886,8011402000629,新規,0,2025-03-26,2025-03-26,有限会社荒井屋板橋店,,有限会社,東京都,板橋区,新河岸２丁目１０番１０－１０２号,,13,119,1750081,,,,,,,2025-03-26,1,,,,,アライヤイタバシテン,0
1891,8011601028504,新規,0,2025-03-26,2025-03-26,ＡＫＩＳＨＡ株式会社,,株式会社,東京都,練馬区,豊玉北３丁目１５－１７Ｘ－ｇａｒｄｅｎ桜台３０６号室,,13,120,1760012,,,,,,,2025-03-26,1,,,,,アキシャ,0
1892,8011603004643,新規,0,2025-03-26,2025-03-26,合同会社エミーズカンパニー,,合同会社,東京都,練馬区,大泉町１丁目４６番１８号,,13,120,1780062,,,,,,,2025-03-26,1,,,,,エミーズカンパニー,0
1893,8011701028197,新規,0,2025-03-26,2025-03-26,株式会社ガブテック,,株式会社,東京都,江戸川区,東葛西４丁目５８番１６号コスモピアＩＩ１０２,00138457,13,123,1340084,,,,,,,2025-03-26,1,,,,,ガブテック,0
1897,8012701018766,新規,0,2025-03-26,2025-03-26,東京ＢＭ株式会社,,株式会社,東京都,小平市,上水南町３丁目７番７－３号,,13,211,1870021,,,,,,,2025-03-26,1,,,,,トウキョウビーエム,0
1905,8020001161963,新規,0,2025-03-26,2025-03-26,株式会社グロースフェルト,,株式会社,神奈川県,川崎市宮前区,鷺沼３丁目１２－５－２１２,,14,136,2160004,,,,,,,2025-03-26,1,,,,,グロースフェルト,0
1906,8020001161971,新規,0,2025-03-26,2025-03-26,株式会社ＣＥＬＬ　ＬＡＢ,,株式会社,神奈川県,横浜市中区,海岸通４丁目２２番地,,14,104,2310002,,,,,,,2025-03-26,1,,,,,セルラボ,0
1907,8020003028087,新規,0,2025-03-26,2025-03-26,合同会社ａｌｌｉｎ,,合同会社,神奈川県,横浜市神奈川区,西神奈川２丁目６番地１プルメリア東白楽２０１号,,14,102,2210822,,,,,,,2025-03-26,1,,,,,オールイン,0
1908,8021003015793,新規,0,2025-03-26,2025-03-26,合同会社ケット・シー,,合同会社,神奈川県,茅ヶ崎市,新栄町６番１４－１０１２号,,14,207,2530044,,,,,,,2025-03-26,1,,,,,ケットシー,0
1911,8030001165567,新規,0,2025-03-26,2025-03-26,株式会社井ケ田建設,,株式会社,埼玉県,深谷市,大谷１４５７番地１,,11,218,3660814,,,,,,,2025-03-26,1,,,,,イケダケンセツ,0
1912,8030001165583,新規,0,2025-03-26,2025-03-26,旭技建工業株式会社,,株式会社,埼玉県,幸手市,北１丁目８番３号,,11,240,3400111,,,,,,,2025-03-26,1,,,,,アサヒギケンコウギョウ,0
1917,8030003026379,新規,0,2025-03-26,2025-03-26,ＦｌｏｗＰａｙ合同会社,,合同会社,埼玉県,狭山市,大字青柳４８番地の９アマン新狭山１０５,,11,215,3501301,,,,,,,2025-03-26,1,,,,,フローペイ,0
1928,8040001137986,新規,0,2025-03-26,2025-03-26,株式会社トライズ,,株式会社,千葉県,千葉市中央区,浜野町１２３４番地１６,,12,101,2600824,,,,,,,2025-03-26,1,,,,,トライズ,0
1929,8040001138027,新規,0,2025-03-26,2025-03-26,Ｄ・プロスパー株式会社,,株式会社,千葉県,香取郡神崎町,武田２０番地１３,,12,342,2890212,,,,,,,2025-03-26,1,,,,,ディープロスパー,0
1932,8040003027153,新規,0,2025-03-26,2025-03-26,Ｏｎｅ　Ｍｏｏｎ合同会社,,合同会社,千葉県,市川市,奉免町２３３－１,,12,203,2720803,,,,,,,2025-03-26,1,,,,,ワンムーン,0
1934,8050001056368,新規,0,2025-03-26,2025-03-26,小川農園株式会社,,株式会社,茨城県,常総市,豊岡町乙１１６０番地５－２０２,,08,211,3030041,,,,,,,2025-03-26,1,,,,,オガワノウエン,0
1935,8060001038019,新規,0,2025-03-26,2025-03-26,フリーダムシーズンチャイルド株式会社,,株式会社,栃木県,矢板市,乙畑１３９３番地１５２,,09,211,3291574,,,,,,,2025-03-26,1,,,,,フリーダムシーズンチャイルド,0
1938,8060003005487,新規,0,2025-03-26,2025-03-26,合同会社ＡＲ　ＴＲＡＤＩＮＧ,,合同会社,栃木県,小山市,若木町２丁目２番２３号メナー若木１０３,,09,208,3230028,,,,,,,2025-03-26,1,,,,,エーアールトレーディング,0
1941,8070003005841,新規,0,2025-03-26,2025-03-26,合同会社ＴＭＳ,,合同会社,群馬県,高崎市,鼻高町１０６８番地１,,10,202,3700868,,,,,,,2025-03-26,1,,,,,ティーエムエス,0
1962,8110005017203,新規,0,2025-03-26,2025-03-26,農事組合法人ファーム天領,,その他の設立登記法人,新潟県,三島郡出雲崎町,大字中山５９５番地甲－１,,15,405,9494345,,,,,,,2025-03-26,1,,,,,ファームテンリョウ,0
1974,8120001273922,新規,0,2025-03-26,2025-03-26,株式会社新海アセットマネージメント,,株式会社,大阪府,大阪市淀川区,西中島２丁目６番１２号ＬＩＦＥＴＩＭＥビル１階,,27,123,5320011,,,,,,,2025-03-26,1,,,,,シンカイアセットマネージメント,0
1975,8120001273939,新規,0,2025-03-26,2025-03-26,ＫＡＮＭＩ株式会社,,株式会社,大阪府,大阪市西成区,玉出東１丁目１１番２３号,,27,122,5570043,,,,,,,2025-03-26,1,,,,,カンミ,0
1989,8130001079261,新規,0,2025-03-26,2025-03-26,株式会社ヤマセエステート,,株式会社,京都府,京都市上京区,新町通寺之内上る道正町４６９番地,,26,102,6020004,,,,,,,2025-03-26,1,,,,,ヤマセエステート,0
1996,8140001137860,新規,0,2025-03-26,2025-03-26,株式会社ＨＩＴＯＴＯＫＩ,,株式会社,兵庫県,神戸市西区,春日台１丁目２番地の４,,28,111,6512276,,,,,,,2025-03-26,1,,,,,ヒトトキ,0
1997,8140005027414,新規,0,2025-03-26,2025-03-26,ふたば労務社会保険労務士法人,,その他の設立登記法人,兵庫県,加古川市,加古川町溝之口２５１番地の１松庵弍番館１階,,28,210,6750064,,,,,,,2025-03-26,1,,,,,フタバロウム,0
2001,8160003003431,新規,0,2025-03-26,2025-03-26,合同会社シャリラ,,合同会社,滋賀県,守山市,勝部５丁目６－２３竹中ビル２階,,25,207,5240041,,,,,,,2025-03-26,1,,,,,シャリラ,0
2006,8180001166030,新規,0,2025-03-26,2025-03-26,株式会社ＪＡＰＡＮ　ＳＴＹＬＥ,,株式会社,愛知県,北名古屋市,六ツ師道毛１７番地１,,23,234,4810001,,,,,,,2025-03-26,1,,,,,ジャパンスタイル,0
2010,8180301039646,新規,0,2025-03-26,2025-03-26,株式会社ＰＬＡＧＩＮＣ,,株式会社,愛知県,豊川市,八幡町下六光寺３３番地の４,,23,207,4420857,,,,,,,2025-03-26,1,,,,,プラグインク,0
2013,8180303006504,新規,0,2025-03-26,2025-03-26,合同会社つむぎサポート,,合同会社,愛知県,田原市,馬伏町西瀬古３０９,,23,231,4413606,,,,,,,2025-03-26,1,,,,,ツムギサポート,0
2016,8200005013738,新規,0,2025-03-26,2025-03-26,一般社団法人ペイフォワード,,その他の設立登記法人,岐阜県,土岐市,土岐津町高山４４３番地の２,,21,212,5095121,,,,,,,2025-03-26,1,,,,,ペイフォワード,0
2018,8230001020801,新規,0,2025-03-26,2025-03-26,株式会社シマダ商事エステート,,株式会社,富山県,射水市,二口２８番地,,16,211,9390234,,,,,,,2025-03-26,1,,,,,シマダショウジエステート,0
2019,8240001064707,新規,0,2025-03-26,2025-03-26,ガバナーコンサルティング株式会社,,株式会社,広島県,庄原市,七塚町５５６２番地,00138458,34,210,7270023,,,,,,,2025-03-26,1,,,,,ガバナーコンサルティング,0
2021,8240003007127,新規,0,2025-03-26,2025-03-26,山手ｃｏｎｔｒａｃｔ合同会社,,合同会社,広島県,福山市,水呑町三新田２丁目４０８番地サトウビル１０２号室,,34,207,7200830,,,,,,,2025-03-26,1,,,,,ヤマテコントラクト,0
2033,8290001109416,新規,0,2025-03-26,2025-03-26,株式会社ビズギアソリューションズ,,株式会社,福岡県,春日市,平田台４丁目８番地６,,40,218,8160812,,,,,,,2025-03-26,1,,,,,ビズギアソリューションズ,0
2034,8290001109449,新規,0,2025-03-26,2025-03-26,株式会社ｌｉｂｅｒ,,株式会社,福岡県,福岡市中央区,今泉２丁目１－４０,,40,133,8100021,,,,,,,2025-03-26,1,,,,,リベル,0
2035,8290003016585,新規,0,2025-03-26,2025-03-26,合同会社ＲＯＯＴＳ　ＣＯＲＥ,,合同会社,福岡県,那珂川市,中原４丁目１１番地５,,40,231,8111213,,,,,,,2025-03-26,1,,,,,ルーツコア,0
2037,8320003004611,新規,0,2025-03-26,2025-03-26,合同会社ＹＫ,,合同会社,大分県,別府市,大字平道１５４５番地の４,,44,202,8740000,,,,,,,2025-03-26,1,,,,,ワイケー,0
2038,8320005010228,新規,0,2025-03-26,2025-03-26,農事組合法人ひとこと,,その他の設立登記法人,大分県,中津市,本耶馬渓町跡田６０２番地１,,44,203,8710311,,,,,,,2025-03-26,1,,,,,ヒトコト,0
2044,8360001034945,新規,0,2025-03-26,2025-03-26,株式会社來工業,,株式会社,沖縄県,中頭郡読谷村,字楚辺２０８６番地５,,47,324,9040304,,,,,,,2025-03-26,1,,,,,クレコウギョウ,0
2050,8370001052384,新規,0,2025-03-26,2025-03-26,株式会社馬場ファームズ,,株式会社,宮城県,角田市,岡字小浦６６番地２,,04,208,9811524,,,,,,,2025-03-26,1,,,,,ババファームズ,0
2052,8390001017930,新規,0,2025-03-26,2025-03-26,株式会社百姓屋,,株式会社,山形県,新庄市,大字仁間３６番地,,06,205,9960054,,,,,,,2025-03-26,1,,,,,ヒャクショウヤ,0
2056,8400003003415,新規,0,2025-03-26,2025-03-26,合同会社こずかた南メディカル,,合同会社,岩手県,盛岡市,津志田町２丁目３番６４号,,03,201,0200837,,,,,,,2025-03-26,1,,,,,コズカタミナミメディカル,0
2062,8430003017445,新規,0,2025-03-26,2025-03-26,合同会社プランウェア,,合同会社,北海道,札幌市豊平区,月寒西三条６丁目１番１０－４０１号,,01,105,0620023,,,,,,,2025-03-26,1,,,,,プランウェア,0
2066,8490001010999,新規,0,2025-03-26,2025-03-26,株式会社スマイルカーゴ,,株式会社,高知県,高知市,弥生町１－２２,,39,201,7810803,,,,,,,2025-03-26,1,,,,,,0
2083,9010001253538,新規,0,2025-03-26,2025-03-26,ＤＤＩ　Ａｇｅｎｃｙ株式会社,,株式会社,東京都,中央区,入船１丁目９番８号ピエノアーク入船,,13,102,1040042,,,,,,,2025-03-26,1,,,,,ディーディーアイエージェンシー,0
2087,9010003046881,新規,0,2025-03-26,2025-03-26,有為合同会社,,合同会社,東京都,文京区,音羽１丁目２３番１２号第一晃和堂ビル４０９号室,,13,105,1120013,,,,,,,2025-03-26,1,,,,,ユウイ,0
2091,9010401189118,新規,0,2025-03-26,2025-03-26,株式会社創縁．ｃｏｍ,,株式会社,東京都,港区,北青山１丁目３番１号アールキューブ青山３階,,13,103,1070061,,,,,,,2025-03-26,1,,,,,ソウエンドットコム,0
2092,9010401189126,新規,0,2025-03-26,2025-03-26,株式会社Ｇ‐Ｆｏｒｃｅ,,株式会社,東京都,港区,港南２丁目１６番４号品川グランドセントラルタワー８階,,13,103,1080075,,,,,,,2025-03-26,1,,,,,ジーフォース,0
2093,9010401189150,新規,0,2025-03-26,2025-03-26,株式会社Ｄｏｌｃｅ　Ｉｎｏ,,株式会社,東京都,港区,六本木３丁目１７番１２－１０３号,,13,103,1060032,,,,,,,2025-03-26,1,,,,,ドルチェイーノ,0
2096,9010403034668,新規,0,2025-03-26,2025-03-26,ＫｈａｏＭａｎｅｅ合同会社,,合同会社,東京都,港区,南青山２丁目２２番４号,,13,103,1070062,,,,,,,2025-03-26,1,,,,,カオマニー,0
2101,9010501053842,新規,0,2025-03-26,2025-03-26,株式会社みち,,株式会社,東京都,台東区,入谷２丁目３８番５号入谷アムフラットＩＩ８０１,00138442,13,106,1100013,,,,,,,2025-03-26,1,,,,,ミチ,0
2105,9010703007638,新規,0,2025-03-26,2025-03-26,合同会社トリプルツリー,,合同会社,東京都,品川区,小山３丁目１５－２－８０７,,13,109,1420062,,,,,,,2025-03-26,1,,,,,トリプルツリー,0
2114,9011001168635,新規,0,2025-03-26,2025-03-26,株式会社Ｄｏｔ　Ｏｎｃｅ,,株式会社,東京都,渋谷区,神南１丁目１２番１６号,,13,113,1500041,,,,,,,2025-03-26,1,,,,,ドットワンス,0
2120,9011301030453,新規,0,2025-03-26,2025-03-26,Ｓｕｎ　Ｃａｐｉｔａｌ　Ａｄｖｉｓｏｒｓ株式会社,,株式会社,東京都,杉並区,和田３丁目４８番１３号,,13,115,1660012,,,,,,,2025-03-26,1,,,,,サンキャピタルアドバイザーズ,0
2121,9011303005461,新規,0,2025-03-26,2025-03-26,クラス合同会社,,合同会社,東京都,杉並区,西荻北２丁目９番６号,,13,115,1670042,,,,,,,2025-03-26,1,,,,,クラス,0
2123,9011501031854,新規,0,2025-03-26,2025-03-26,清揚株式会社,,株式会社,東京都,荒川区,東尾久２丁目２－９－２２８号室,,13,118,1160012,,,,,,,2025-03-26,1,,,,,セイヨウ,0
2133,9012805003317,新規,0,2025-03-26,2025-03-26,一般社団法人ｕｎｍｕｔｅ,,その他の設立登記法人,東京都,立川市,砂川町８丁目４６－２１－２０３,,13,202,1900031,,,,,,,2025-03-26,1,,,,,アンミュート,0
2136,9020001161946,新規,0,2025-03-26,2025-03-26,ＨＹＬ株式会社,,株式会社,神奈川県,横浜市西区,北幸２丁目１０番４８号むつみビル３階,,14,103,2200004,,,,,,,2025-03-26,1,,,,,エイチワイエル,0
2137,9020001161954,新規,0,2025-03-26,2025-03-26,株式会社ＨＥａＴ　Ｋ,,株式会社,神奈川県,横浜市神奈川区,子安通３丁目３５３番地クレストシティタワーズ横浜１０４号,,14,102,2210021,,,,,,,2025-03-26,1,,,,,ヒートケー,0
2139,9020003028103,新規,0,2025-03-26,2025-03-26,合同会社アンフィニ,,合同会社,神奈川県,川崎市中原区,木月１丁目３２番２４号藤原ビル４０２,,14,133,2110025,,,,,,,2025-03-26,1,,,,,アンフィニ,0
2152,9030001165566,新規,0,2025-03-26,2025-03-26,株式会社Ｗａｔｅｒ　Ｆｉｅｌｄ,,株式会社,埼玉県,川越市,大字上戸３１３番地１８,,11,201,3500816,,,,,,,2025-03-26,1,,,,,ウォーターフィールド,0
2153,9030001165574,新規,0,2025-03-26,2025-03-26,株式会社ＶＡＳＡ　ＪＡＰＡＮ,,株式会社,埼玉県,さいたま市南区,別所４丁目１番１０号,,11,108,3360021,,,,,,,2025-03-26,1,,,,,ヴァーサジャパン,0
2155,9030003026403,新規,0,2025-03-26,2025-03-26,合同会社ミコール,,合同会社,埼玉県,東松山市,美原町３丁目１４番２９号,,11,212,3550010,,,,,,,2025-03-26,1,,,,,ミコール,0
2156,9030003026411,新規,0,2025-03-26,2025-03-26,合同会社ＬＣＡパートナーズ,,合同会社,埼玉県,越谷市,大字大泊２９８－５,,11,222,3430044,,,,,,,2025-03-26,1,,,,,エルシーエーパートナーズ,0
2163,9040001137928,新規,0,2025-03-26,2025-03-26,株式会社ゴルフサロンセラ,,株式会社,千葉県,野田市,目吹２４９６番地,,12,208,2780001,,,,,,,2025-03-26,1,,,,,ゴルフサロンセラ,0
2164,9040001137977,新規,0,2025-03-26,2025-03-26,株式会社ライスファームイイダ,,株式会社,千葉県,香取市,磯山５４番地,,12,236,2870803,,,,,,,2025-03-26,1,,,,,,0
2167,9040003027111,新規,0,2025-03-26,2025-03-26,合同会社サンビレッジ金谷キャンプ場,,合同会社,千葉県,富津市,金谷７８４番地１,,12,226,2991861,,,,,,,2025-03-26,1,,,,,サンビレッジカナヤキャンプジョウ,0
2168,9040003027152,新規,0,2025-03-26,2025-03-26,合同会社外構屋,,合同会社,千葉県,柏市,逆井２５７番地１,,12,217,2770042,,,,,,,2025-03-26,1,,,,,ガイコウヤ,0
2171,9050001056383,新規,0,2025-03-26,2025-03-26,縁聚株式会社,,株式会社,茨城県,土浦市,桜町１丁目５番１号,,08,203,3000037,,,,,,,2025-03-26,1,,,,,エング,0
2175,9060001038050,新規,0,2025-03-26,2025-03-26,株式会社ＫＭコーポレーション,,株式会社,栃木県,小山市,駅東通り３丁目３６番地２,,09,208,3230022,,,,,,,2025-03-26,1,,,,,ケイエムコーポレーション,0
2176,9070003005840,新規,0,2025-03-26,2025-03-26,ネクストリンク合同会社,,合同会社,群馬県,邑楽郡板倉町,大字飯野２３６０番地３,,10,521,3740123,,,,,,,2025-03-26,1,,,,,ネクストリンク,0
2177,9080101025401,新規,0,2025-03-26,2025-03-26,株式会社グローバルエステート,,株式会社,静岡県,沼津市,原町中２丁目７番地の１１、１０２号,,22,203,4100311,,,,,,,2025-03-26,1,,,,,グローバルエステート,0
2179,9090003002786,新規,0,2025-03-26,2025-03-26,合同会社ｈｅｌｍ,,合同会社,山梨県,甲府市,朝日５丁目５－１２レジデンス浅川１０７,,19,201,4000025,,,,,,,2025-03-26,1,,,,,ヘルム,0
2181,9100001038434,新規,0,2025-03-26,2025-03-26,株式会社ｄｏｗ,,株式会社,長野県,上田市,上塩尻１４３番地１,,20,203,3860042,,,,,,,2025-03-26,1,,,,,ダウ,0
2185,9120001273855,新規,0,2025-03-26,2025-03-26,株式会社スパークル,,株式会社,大阪府,大阪市港区,築港１丁目１４－３,,27,107,5520021,,,,,,,2025-03-26,1,,,,,スパークル,0
2186,9120001273938,新規,0,2025-03-26,2025-03-26,株式会社クロス,,株式会社,大阪府,大阪市中央区,宗右衛門町４番６号平の家ビル４階,,27,128,5420084,,,,,,,2025-03-26,1,,,,,クロス,0
2187,9120001273979,新規,0,2025-03-26,2025-03-26,瑞塔株式会社,,株式会社,大阪府,大阪市中央区,島之内２丁目２番２０号白扇ビル３０２号室,,27,128,5420082,,,,,,,2025-03-26,1,,,,,スイトウ,0
2188,9120001273995,新規,0,2025-03-26,2025-03-26,ａｓｔｒｅ株式会社,,株式会社,大阪府,門真市,宮野町３番１２号,,27,223,5710062,,,,,,,2025-03-26,1,,,,,アストル,0
2191,9120003028935,新規,0,2025-03-26,2025-03-26,合同会社矢倉興産,,合同会社,大阪府,大阪市北区,堂島２丁目４－４ブリリアタワー堂島４５０１,,27,127,5300003,,,,,,,2025-03-26,1,,,,,ヤグラコウサン,0
2198,9120905006708,新規,0,2025-03-26,2025-03-26,一般社団法人ＭＥＬＩ‐ＭＥＬＯ,,その他の設立登記法人,大阪府,吹田市,春日２丁目６番３－８２２号,,27,205,5650853,,,,,,,2025-03-26,1,,,,,メリメロ,0
2205,9130003010306,新規,0,2025-03-26,2025-03-26,合同会社ＩＮＯ　ＯＦＦＩＣＥ,,合同会社,京都府,京都市東山区,東大路七条下る東瓦町６９０番地,,26,105,6050951,,,,,,,2025-03-26,1,,,,,イノオフィス,0
2211,9140003021822,新規,0,2025-03-26,2025-03-26,合同会社ｔｉｅ　ｂｒｅａｋ,,合同会社,兵庫県,高砂市,高砂町木曽町２番１－１０３号リアライズ,,28,216,6760024,,,,,,,2025-03-26,1,,,,,タイブレーク,0
2212,9140003021839,新規,0,2025-03-26,2025-03-26,ＣＴＨ合同会社,,合同会社,兵庫県,たつの市,揖保町松原２４０,,28,229,6794142,,,,,,,2025-03-26,1,,,,,,0
2214,9150001027985,新規,0,2025-03-26,2025-03-26,株式会社ウチタケ,,株式会社,奈良県,橿原市,曽我町３９２番地の５７,,29,205,6340831,,,,,,,2025-03-26,1,,,,,ウチタケ,0
2226,9180001165799,新規,0,2025-03-26,2025-03-26,株式会社Ｔ‐Ｇｒｏｕｐ,,株式会社,愛知県,名古屋市西区,笹塚町２丁目４４－８，３０１,,23,104,4510077,,,,,,,2025-03-26,1,,,,,ティーグループ,0
2227,9180001166021,新規,0,2025-03-26,2025-03-26,株式会社サハシグレスビ,,株式会社,愛知県,江南市,宮田町南野東９番地,,23,217,4838368,,,,,,,2025-03-26,1,,,,,サハシグレスビ,0
2228,9180001166054,新規,0,2025-03-26,2025-03-26,株式会社グラッド,,株式会社,愛知県,海部郡蟹江町,城４丁目４９０番地,,23,425,4970040,,,,,,,2025-03-26,1,,,,,グラッド,0
2232,9180301039653,新規,0,2025-03-26,2025-03-26,ゴトウ土づくり農業株式会社,,株式会社,愛知県,新城市,庭野字向河原１８番地,,23,221,4411331,,,,,,,2025-03-26,1,,,,,ゴトウツチヅクリノウギョウ,0
2235,9180303006503,新規,0,2025-03-26,2025-03-26,ＲＥＥＮＡ　ＨＯＬＤＩＮＧＳ合同会社,,合同会社,愛知県,豊田市,寿町８丁目４番地１後藤マンション１Ｃ,,23,211,4710834,,,,,,,2025-03-26,1,,,,,リーナホールディングス,0
2240,9210001020109,新規,0,2025-03-26,2025-03-26,株式会社ＡＲＲＡＮＧＥ,,株式会社,福井県,福井市,新田塚２丁目２４番１８号テラスハウスＮ５号室,,18,201,9100067,,,,,,,2025-03-26,1,,,,,アレンジ,0
2244,9230001020800,新規,0,2025-03-26,2025-03-26,株式会社タケハナ設計室,,株式会社,富山県,富山市,中央通り２丁目３番２２号中教院モルティ２階,,16,201,9300044,,,,,,,2025-03-26,1,,,,,タケハナセッケイシツ,0
2245,9240001064689,新規,0,2025-03-26,2025-03-26,西本産業株式会社,,株式会社,広島県,福山市,南松永町３丁目８番７号,,34,207,7290105,,,,,,,2025-03-26,1,,,,,ニシモトサンギョウ,0
2258,9290001109415,新規,0,2025-03-26,2025-03-26,株式会社リバーフェイス,,株式会社,福岡県,福岡市中央区,天神４丁目６－２８天神ファーストビル７階,,40,133,8100001,,,,,,,2025-03-26,1,,,,,リバーフェイス,0
2259,9290001109456,新規,0,2025-03-26,2025-03-26,株式会社ＮＳＥ,,株式会社,福岡県,筑紫野市,紫１丁目１９番８－５０８号,,40,217,8180061,,,,,,,2025-03-26,1,,,,,エヌエスイー,0
2270,9350001019450,新規,0,2025-03-26,2025-03-26,株式会社巡る椎葉,,株式会社,宮崎県,東臼杵郡椎葉村,大字下福良１８２６番地１０８,,45,430,8831601,,,,,,,2025-03-26,1,,,,,メグルシイバ,0
2273,9360003014795,新規,0,2025-03-26,2025-03-26,合同会社ＨＡＮＥＲＵ,,合同会社,沖縄県,糸満市,字糸満１６０９番地の１,,47,210,9010361,,,,,,,2025-03-26,1,,,,,ハネル,0
2283,9430001093982,新規,0,2025-03-26,2025-03-26,株式会社近松商店,,株式会社,北海道,札幌市中央区,南四条西１４丁目１－３２札幌パームビル,,01,101,0640804,,,,,,,2025-03-26,1,,,,,チカマツショウテン,0
2284,9430001093999,新規,0,2025-03-26,2025-03-26,株式会社牛羊亭,,株式会社,北海道,札幌市中央区,南五条西９丁目１０１６－２３,,01,101,0640805,,,,,,,2025-03-26,1,,,,,ギュウヨウテイ,0
2287,9450001014573,新規,0,2025-03-26,2025-03-26,株式会社ＥＯＡ,,株式会社,北海道,旭川市,緑が丘二条４丁目５番地の２１,,01,204,0788302,,,,,,,2025-03-26,1,,,,,イーオーエー,0
2290,9470001020644,新規,0,2025-03-26,2025-03-26,株式会社ＳＨＩＮＹＵ空調,,株式会社,香川県,高松市,一宮町１６３２番地８,,37,201,7618084,,,,,,,2025-03-26,1,,,,,,0
2291,9470005006615,新規,0,2025-03-26,2025-03-26,一般社団法人かがわＤＸモデル研究所,,その他の設立登記法人,香川県,高松市,林町２２１７番地４４ネクスト香川２０５号室,,37,201,7610301,,,,,,,2025-03-26,1,,,,,カガワディーエックスモデルケンキュウジョ,0
2297,9490001010998,新規,0,2025-03-26,2025-03-26,海のまち観光株式会社,,株式会社,高知県,須崎市,南古市町１３番５号,,39,206,7850007,,,,,,,2025-03-26,1,,,,,ウミノマチカンコウ,0
2299,9500005008772,新規,0,2025-03-26,2025-03-26,一般社団法人トラストウィルサポート協会,,その他の設立登記法人,愛媛県,松山市,湊町４丁目１１番１９号,,38,201,7900012,,,,,,,2025-03-26,1,,,,,トラストウィルサポートキョウカイ,0
2301,9700150129700,新規,0,2025-03-26,2025-03-26,ＲＥＧＡＬ　ＡＵＴＯ,,外国会社等,千葉県,東金市,広瀬４２番地７４－２,,12,213,2830041,スリランカ民主社会主義共和国、アクラナ、マタレロード、Ｎｏ．２４６／１,,,,,,2025-03-26,1,,,,,リーガルオート,0
