sequenceNumber,corporateNumber,process,correct,updateDate,changeDate,name,nameImageId,kind,prefectureName,cityName,streetNumber,addressImageId,prefectureCode,cityCode,postCode,addressOutside,addressOutsideImageId,closeDate,closeCause,successorCorporateNumber,changeCause,assignmentDate,latest,enName,enPrefectureName,enCityName,enAddressOutside,furigana,hihyoji
1,1010001098882,登記記録の閉鎖等,0,2025-09-05,2025-09-02,株式会社ヴァンクール,,株式会社,東京都,千代田区,神田神保町３丁目２３番地２,,13,101,1010051,,,2025-09-02,合併による解散等,4011001025865,令和７年７月３１日東京都渋谷区神宮前五丁目５２番２号株式会社フォーバル（4011001025865）に合併し解散,2015-10-05,1,,,,,ヴァンクール,0
12,1010001202221,登記記録の閉鎖等,0,2025-09-05,2025-08-18,株式会社ＢＥＬＬＡ　ＶＯＣＥ,,株式会社,東京都,中央区,銀座５丁目８番３号３Ｆ,,13,102,1040061,,,2025-08-18,清算の結了等,,,2019-07-09,1,,,,,ベラボーチェ,0
13,1010001204151,登記記録の閉鎖等,0,2025-09-05,2025-08-20,株式会社おとあび,,株式会社,東京都,千代田区,外神田６丁目１５番１４号ハローオフィスＡｋｉｂａ３１５,,13,101,1010021,,,2025-08-20,清算の結了等,,,2019-09-27,1,,,,,オトアビ,0
23,1010003046154,登記記録の閉鎖等,0,2025-09-05,2025-08-19,Ｈ１　ＫＯＪＩＭＡＣＨＩ合同会社,,合同会社,東京都,中央区,京橋２丁目１２番６号ＡＯＪ税理士法人内,,13,102,1040031,,,2025-08-19,清算の結了等,,,2025-01-22,1,,,,,エイチワンコウジマチ,0
31,1010403012144,登記記録の閉鎖等,0,2025-09-05,2025-09-01,貞春リーシング合同会社,,合同会社,東京都,渋谷区,上原３丁目２７番２号,,13,113,1510064,,,2025-09-01,清算の結了等,,,2015-10-05,1,,,,,サダハルリーシング,0
77,1013302020928,登記記録の閉鎖等,0,2025-09-05,2025-09-01,有限会社クーネル,,有限会社,東京都,中野区,本町２丁目３８番９－５０４号,,13,114,1640012,,,2025-09-01,清算の結了等,,,2015-10-05,1,,,,,クーネル,0
90,1020002065237,登記記録の閉鎖等,0,2025-09-05,2025-08-22,有限会社フードデザイン健康研究所,,有限会社,神奈川県,横浜市戸塚区,汲沢２丁目２３番１２号,00011222,14,110,2450061,,,2025-08-22,清算の結了等,,,2015-10-05,1,,,,,フードデザインケンコウケンキュウジョ,0
98,1030001008328,登記記録の閉鎖等,0,2025-09-05,2025-08-28,株式会社メデア,,株式会社,埼玉県,さいたま市見沼区,深作３丁目３番２号,,11,104,3370003,,,2025-08-28,合併による解散等,3011101059013,令和７年８月１日東京都中央区東日本橋二丁目１５番４号株式会社ダイキアクシス・サステイナブル・パワー（3011101059013）に合併し解散,2015-10-05,1,,,,,メデア,0
100,1030001055808,登記記録の閉鎖等,0,2025-09-05,2025-08-29,和興資材株式会社,,株式会社,埼玉県,ふじみ野市,霞ケ丘１丁目３番２－１５０１号,,11,245,3560006,,,2025-08-29,清算の結了等,,,2015-10-05,1,,,,,ワコウシザイ,0
101,1030001148297,登記記録の閉鎖等,0,2025-09-05,2025-09-01,株式会社住賢,,株式会社,埼玉県,三郷市,上彦名３３３番地２,,11,237,3410004,,,2025-09-01,清算の結了等,,,2022-05-23,1,,,,,ジュウケン,0
102,1030001154089,登記記録の閉鎖等,0,2025-09-05,2025-08-29,株式会社弥栄工務店,,株式会社,埼玉県,さいたま市見沼区,大字蓮沼１５４１番地２,,11,104,3370015,,,2025-08-29,清算の結了等,,,2023-05-29,1,,,,,ヤサカコウムテン,0
107,1030002069815,登記記録の閉鎖等,0,2025-09-05,2025-09-01,有限会社ピー・アンド・エー販売,,有限会社,埼玉県,南埼玉郡宮代町,大字和戸２１０３番地９２,,11,442,3450836,,,2025-09-01,清算の結了等,,,2015-10-05,1,,,,,ピーアンドエーハンバイ,0
126,1060001018423,登記記録の閉鎖等,0,2025-09-05,2025-09-01,株式会社岡ノ谷組,,株式会社,栃木県,足利市,上渋垂町２２番地１,,09,202,3260335,,,2025-09-01,合併による解散等,5060001018808,令和７年９月１日栃木県足利市東砂原後町１０５４番地１大協建設株式会社（5060001018808）に合併し解散,2015-10-05,1,,,,,オカノヤグミ,0
137,1080402002197,登記記録の閉鎖等,0,2025-09-05,2025-08-29,有限会社亀澤,,有限会社,静岡県,浜松市中央区,城北２丁目１７番１０号,,22,138,4328011,,,2025-08-29,清算の結了等,,,2015-10-05,1,,,,,カメザワ,0
139,1090002007793,登記記録の閉鎖等,0,2025-09-05,2025-09-01,有限会社ベスト技研,,有限会社,山梨県,南アルプス市,桃園１３５２番地,,19,208,4000301,,,2025-09-01,清算の結了等,,,2015-10-05,1,,,,,ベストギケン,0
164,1120002034933,登記記録の閉鎖等,0,2025-09-05,2025-09-01,オフィスネット有限会社,,有限会社,大阪府,大阪市住之江区,東加賀屋１丁目７番９－１２０６号,,27,125,5590012,,,2025-09-01,清算の結了等,,,2015-10-05,1,,,,,オフィスネット,0
174,1130001007641,登記記録の閉鎖等,0,2025-09-05,2025-08-27,株式会社ＫＷＣ,,株式会社,京都府,京都市左京区,北白川久保田町１番地,,26,103,6068266,,,2025-08-27,清算の結了等,,,2015-10-05,1,,,,,ケーダブリューシー,0
190,1180002028525,登記記録の閉鎖等,0,2025-09-05,2025-08-25,有限会社長江制作室,,有限会社,愛知県,瀬戸市,すみれ台１丁目６０番地,,23,204,4890904,,,2025-08-25,清算の結了等,,,2015-10-05,1,,,,,ナガエセイサクシツ,0
195,1180005001644,登記記録の閉鎖等,0,2025-09-05,2025-07-18,稱念寺,00074071,その他の設立登記法人,愛知県,名古屋市南区,元鳴尾町３８０番地,,23,112,4570065,,,2025-07-18,合併による解散等,8180005001646,令和７年７月１８日名古屋市南区星崎一丁目１７２番地正行寺（8180005001646）に合併し解散,2015-10-05,1,,,,,ショウネンジ,0
204,1200005007060,登記記録の閉鎖等,0,2025-09-05,2025-08-29,医療法人社団眞清会,,その他の設立登記法人,岐阜県,美濃加茂市,太田町１７５７番地の２,,21,211,5050041,,,2025-08-29,清算の結了等,,,2015-10-05,1,,,,,シンセイカイ,0
212,1230002010898,登記記録の閉鎖等,0,2025-09-05,2025-09-02,有限会社カワフチ,,有限会社,富山県,高岡市,宝町３番８号,,16,202,9330064,,,2025-09-02,清算の結了等,,,2015-10-05,1,,,,,カワフチ,0
235,1310001010858,登記記録の閉鎖等,0,2025-09-05,2025-09-02,株式会社武末建設,,株式会社,長崎県,対馬市,上対馬町比田勝１６８番地１,,42,209,8171701,,,2025-09-02,清算の結了等,,,2015-10-05,1,,,,,タケスエケンセツ,0
236,1320002002589,登記記録の閉鎖等,0,2025-09-05,2025-08-28,有限会社工設社,,有限会社,大分県,大分市,城東町２番２号,,44,201,8700153,,,2025-08-28,清算の結了等,,,2015-10-05,1,,,,,,0
238,1330002022743,登記記録の閉鎖等,0,2025-09-05,2025-08-25,株式会社ＡＴ清算会社,,株式会社,熊本県,熊本市中央区,水前寺１丁目１４番１６号,,43,101,8620950,,,2025-08-25,清算の結了等,,,2015-10-05,1,,,,,アソノツカサ,0
239,1330002030408,登記記録の閉鎖等,0,2025-09-05,2025-08-22,有限会社半田製材所,,有限会社,熊本県,人吉市,下林町２３７番地,,43,203,8680083,,,2025-08-22,清算の結了等,,,2015-10-05,1,,,,,ハンダセイザイショ,0
262,1430001077472,登記記録の閉鎖等,0,2025-09-05,2025-08-19,株式会社ＤＤＭ北海道,,株式会社,北海道,札幌市白石区,南郷通１４丁目南１０番１－６０３号,,01,104,0030022,,,2025-08-19,清算の結了等,,,2018-10-03,1,,,,,ディーディーエムホッカイドウ,0
265,1430002029530,登記記録の閉鎖等,0,2025-09-05,2025-08-20,有限会社水内建業,,有限会社,北海道,札幌市西区,平和二条１０丁目７番２０号,,01,107,0630022,,,2025-08-20,清算の結了等,,,2015-10-05,1,,,,,ミズウチケンギョウ,0
268,1460002002880,登記記録の閉鎖等,0,2025-09-05,2025-09-03,有限会社丸一丸一商店,,有限会社,北海道,釧路市,新富町１５番２１号,,01,206,0850004,,,2025-09-03,清算の結了等,,,2015-10-05,1,,,,,マルイチマルイチショウテン,0
276,1490001007804,登記記録の閉鎖等,0,2025-09-05,2025-09-03,株式会社富士建設,,株式会社,高知県,高知市,朝倉西町１丁目１５番１４号,,39,201,7808077,,,2025-09-03,清算の結了等,,,2015-10-05,1,,,,,,0
283,2010001023963,登記記録の閉鎖等,0,2025-09-05,2025-08-20,東明物産株式会社,,株式会社,東京都,千代田区,一番町２２番地７,,13,101,1020082,,,2025-08-20,清算の結了等,,,2015-10-05,1,,,,,トウメイブッサン,0
285,2010001108814,登記記録の閉鎖等,0,2025-09-05,2025-08-12,株式会社千代田広告社,,株式会社,東京都,千代田区,飯田橋１丁目５番６号,,13,101,1020072,,,2025-08-12,清算の結了等,,,2015-10-05,1,,,,,チヨダコウコクシャ,0
287,2010001138266,登記記録の閉鎖等,0,2025-09-05,2025-09-03,株式会社ＰＲＩＣＩＮＧ　ＤＡＴＡ,,株式会社,東京都,品川区,東品川２丁目３番１４号,,13,109,1400002,,,2025-09-03,合併による解散等,5011001099727,令和７年８月１日東京都渋谷区東三丁目１１番１０号恵比寿ビル２階株式会社ＳＴＡＹＧＯＬＤ（5011001099727）に合併し解散,2015-10-05,1,,,,,プライシングデータ,0
289,2010001202220,登記記録の閉鎖等,0,2025-09-05,2025-08-18,株式会社ＪＩＣＤ,,株式会社,東京都,中央区,銀座５丁目８番３号３Ｆ,,13,102,1040061,,,2025-08-18,清算の結了等,,,2019-07-09,1,,,,,ジェイアイシーディー,0
301,2010005035740,登記記録の閉鎖等,0,2025-09-05,2025-08-14,ＲＢソーラーハバナホールディングス一般社団法人,,その他の設立登記法人,東京都,千代田区,紀尾井町４番１号ニューオータニガーデンコート１９階フィンポート税理士法人内,,13,101,1020094,,,2025-08-14,清算の結了等,,,2022-11-02,1,,,,,アールビーソーラーハバナホールディングス,0
311,2010402006492,登記記録の閉鎖等,0,2025-09-05,2025-08-20,有限会社清水長四郎商店,,有限会社,東京都,台東区,浅草橋３丁目１７番７号,,13,106,1110053,,,2025-08-20,清算の結了等,,,2015-10-05,1,,,,,シミズチョウシロウショウテン,0
324,2010801000501,登記記録の閉鎖等,0,2025-09-05,2025-08-28,株式会社足立住建,,株式会社,東京都,大田区,上池台５丁目６番１号,,13,111,1450064,,,2025-08-28,清算の結了等,,,2015-10-05,1,,,,,アダチジュウケン,0
332,2011001135336,登記記録の閉鎖等,0,2025-09-05,2025-08-06,株式会社エルバークスクリプト,,株式会社,東京都,渋谷区,渋谷３丁目１３－５,,13,113,1500002,,,2025-08-06,清算の結了等,,,2020-08-20,1,,,,,エルバークスクリプト,0
343,2011201016014,登記記録の閉鎖等,0,2025-09-05,2025-08-21,ファイブスターズゲーム株式会社,,株式会社,東京都,新宿区,戸山３丁目１１－８,,13,104,1620052,,,2025-08-21,清算の結了等,,,2015-10-05,1,,,,,ファイブスターズゲーム,0
362,2012705001229,登記記録の閉鎖等,0,2025-09-05,2025-08-05,社会福祉法人はるび,,その他の設立登記法人,東京都,東村山市,秋津町１丁目３２番地１８,,13,213,1890001,,,2025-08-05,合併による解散等,8050005005759,令和７年７月２２日茨城県古河市駒羽根３２０番地１社会福祉法人愛和会（8050005005759）に合併し解散,2015-10-05,1,,,,,ハルビ,0
378,2021001006189,登記記録の閉鎖等,0,2025-09-05,2025-09-01,株式会社農業情報科学研究所,,株式会社,東京都,北区,志茂２丁目１５番６号,,13,117,1150042,,,2025-09-01,清算の結了等,,,2015-10-05,1,,,,,ノウギョウジョウホウカガクケンキュウジョ,0
391,2050001017557,登記記録の閉鎖等,0,2025-09-05,2025-08-27,株式会社さくら,,株式会社,茨城県,つくば市,栗原８１５番地１,,08,220,3050001,,,2025-08-27,清算の結了等,,,2015-10-05,1,,,,,サクラ,0
396,2070002008727,登記記録の閉鎖等,0,2025-09-05,2025-09-02,有限会社和泉印刷,,有限会社,群馬県,高崎市,和田多中町２４９番地,,10,202,3700844,,,2025-09-02,清算の結了等,,,2015-10-05,1,,,,,イズミインサツ,0
401,2090001010665,登記記録の閉鎖等,0,2025-09-05,2025-09-01,株式会社サカモトクリエイト,,株式会社,山梨県,南都留郡山中湖村,山中２８６番地１７,,19,425,4010501,,,2025-09-01,合併による解散等,5010401151436,令和７年７月３１日東京都中央区東日本橋三丁目２番３号株式会社Ｋｉｒａｌａ（5010401151436）に合併し解散,2015-10-05,1,,,,,サカモトクリエイト,0
402,2090002001093,登記記録の閉鎖等,0,2025-09-05,2025-09-01,有限会社向上企画,,有限会社,山梨県,甲府市,徳行２丁目１７番１９号,,19,201,4000047,,,2025-09-01,清算の結了等,,,2015-10-05,1,,,,,コウジョウキカク,0
403,2090002008469,登記記録の閉鎖等,0,2025-09-05,2025-09-01,有限会社ティーエスケイ精工,,有限会社,山梨県,笛吹市,一宮町本都塚９６番地２,,19,211,4050072,,,2025-09-01,清算の結了等,,,2015-10-05,1,,,,,,0
422,2120002054096,登記記録の閉鎖等,0,2025-09-05,2025-08-27,有限会社アーベイマネジメント,,有限会社,大阪府,大阪市天王寺区,大道４丁目７番２３－１３０１号,,27,109,5430052,,,2025-08-27,清算の結了等,,,2015-10-05,1,,,,,アーベイマネジメント,0
428,2120901032821,登記記録の閉鎖等,0,2025-09-05,2025-08-21,ネクストステージ株式会社,,株式会社,神奈川県,川崎市宮前区,鷺沼４丁目１７－４,,14,136,2160004,,,2025-08-21,清算の結了等,,,2015-10-05,1,,,,,ネクストステージ,0
465,2180003018094,登記記録の閉鎖等,0,2025-09-05,2025-09-01,合同会社Ｎｅｏ,,合同会社,愛知県,名古屋市名東区,本郷２丁目１２７番地アトラスタワー本郷駅前２３０５号,,23,115,4650024,,,2025-09-01,合併による解散等,9010603004982,令和７年９月１日名古屋市名東区本郷二丁目１２７番地アトラスタワー本郷駅前２３０５号合同会社ＭＥプロパティー（9010603004982）に合併し解散,2017-07-10,1,,,,,ネオ,0
471,2190002013236,登記記録の閉鎖等,0,2025-09-05,2025-09-01,有限会社嶋津新聞舗,,有限会社,三重県,名張市,瀬古口６２８の３番地第１泉カイトマンション１階,,24,208,5180445,,,2025-09-01,清算の結了等,,,2015-10-05,1,,,,,シマヅシンブンホ,0
473,2200003006815,登記記録の閉鎖等,0,2025-09-05,2025-08-29,合同会社森山工業,,合同会社,岐阜県,羽島郡笠松町,中野１８３番地,,21,303,5016034,,,2025-08-29,清算の結了等,,,2025-05-09,1,,,,,モリヤマコウギョウ,0
478,2220005004410,登記記録の閉鎖等,0,2025-09-05,2025-08-29,特定非営利活動法人金沢クリエイティブツーリズム推進機構,,その他の設立登記法人,石川県,金沢市,青草町８８番地,,17,201,9200907,,,2025-08-29,清算の結了等,,,2015-10-05,1,,,,,カナザワクリエイティブツウリズムスイシンキコウ,0
491,2290001107929,登記記録の閉鎖等,0,2025-09-05,2025-08-12,株式会社サンオーネスト,,株式会社,福岡県,福岡市博多区,博多駅前１丁目２３番２号ＰａｒｋＦｒｏｎｔ博多駅前１丁目５Ｆ－Ｂ,,40,132,8120011,,,2025-08-12,清算の結了等,,,2024-11-15,1,,,,,,0
505,2290802012014,登記記録の閉鎖等,0,2025-09-05,2025-09-02,有限会社ユニオン,,有限会社,福岡県,北九州市小倉南区,中曽根２丁目４番２１号,,40,107,8000222,,,2025-09-02,清算の結了等,,,2015-10-05,1,,,,,ユニオン,0
508,2310002011136,登記記録の閉鎖等,0,2025-09-05,2025-09-03,有限会社ノグチエンジニアリング,,有限会社,長崎県,佐世保市,天神２丁目２３１番地１,,42,202,8571174,,,2025-09-03,清算の結了等,,,2015-10-05,1,,,,,ノグチエンジニアリング,0
536,2430002003807,登記記録の閉鎖等,0,2025-09-05,2025-09-01,太田建匠株式会社,,株式会社,北海道,札幌市東区,東苗穂四条１丁目８番１４号,,01,103,0070804,,,2025-09-01,清算の結了等,,,2015-10-05,1,,,,,オオタケンショウ,0
551,2500001020556,登記記録の閉鎖等,0,2025-09-05,2025-09-03,株式会社リブロス,,株式会社,愛媛県,松山市,和泉南１丁目１２番７号,,38,201,7900941,,,2025-09-03,清算の結了等,,,2017-04-17,1,,,,,リブロス,0
552,2500001023212,登記記録の閉鎖等,0,2025-09-05,2025-08-01,株式会社オ－・アンド・ケイ・ブラザ－ズ,,株式会社,愛媛県,松山市,道後湯月町２番３６号,,38,201,7900837,,,2025-08-01,合併による解散等,8500001024931,令和７年８月１日愛媛県松山市道後湯月町２番３６号株式会社道後ゆの里（8500001024931）に合併し解散,2021-02-18,1,,,,,オーアンドケイブラザーズ,0
561,3010001049900,登記記録の閉鎖等,0,2025-09-05,2025-08-05,株式会社タカシン,,株式会社,東京都,目黒区,東山３丁目２２番２３号,,13,110,1530043,,,2025-08-05,清算の結了等,,,2015-10-05,1,,,,,タカシン,0
565,3010001138604,登記記録の閉鎖等,0,2025-09-05,2025-09-02,株式会社ＮＡ．ＧＡＲＡ,,株式会社,東京都,千代田区,神田神保町１丁目１１番地,,13,101,1010051,,,2025-09-02,合併による解散等,6010401070841,令和７年８月１日東京都港区六本木七丁目３番１６号株式会社ソルブレイド（6010401070841）に合併し解散,2015-10-05,1,,,,,エヌエーガラ,0
574,3010003042845,登記記録の閉鎖等,0,2025-09-05,2025-08-19,合同会社Ｈａｒｉ,,合同会社,東京都,中央区,八丁堀４丁目２番１０号ＡＯＪ税理士法人内,,13,102,1040032,,,2025-08-19,清算の結了等,,,2024-02-08,1,,,,,ハリ,0
598,3010403027280,登記記録の閉鎖等,0,2025-09-05,2025-08-07,合同会社トレック・ヴィーナス,,合同会社,東京都,港区,赤坂７丁目６番１５号,,13,103,1070052,,,2025-08-07,清算の結了等,,,2022-03-16,1,,,,,トレックヴィーナス,0
601,3010403033683,登記記録の閉鎖等,0,2025-09-05,2025-08-07,合同会社ＭＫ常陸ソーラーパーク,,合同会社,東京都,港区,愛宕１丁目６番８号,,13,103,1050002,,,2025-08-07,清算の結了等,,,2024-10-29,1,,,,,エムケイヒタチソーラーパーク,0
606,3010601008181,登記記録の閉鎖等,0,2025-09-05,2025-09-01,城東工芸株式会社,,株式会社,東京都,江東区,北砂３丁目２６番４号,,13,108,1360073,,,2025-09-01,清算の結了等,,,2015-10-05,1,,,,,ジョウトウコウゲイ,0
617,3011003016764,登記記録の閉鎖等,0,2025-09-05,2025-08-06,ＡｙａＹｏｓｈｉ合同会社,,合同会社,東京都,渋谷区,神宮前６丁目２３番４号桑野ビル２階,,13,113,1500001,,,2025-08-06,清算の結了等,,,2023-05-08,1,,,,,アヤヨシ,0
619,3011101022193,登記記録の閉鎖等,0,2025-09-05,2025-09-03,株式会社アップル東京,,株式会社,東京都,中央区,八重洲１丁目３番７号八重洲ファーストフィナンシャルビル１３Ｆ,,13,102,1030028,,,2025-09-03,合併による解散等,5030001000495,令和７年９月１日埼玉県さいたま市大宮区大成町二丁目２７３番地１株式会社アップル（5030001000495）に合併し解散,2015-10-05,1,,,,,アップルトウキョウ,0
627,3011201004249,登記記録の閉鎖等,0,2025-09-05,2025-09-01,日生住研株式会社,,株式会社,東京都,中野区,東中野１丁目５６番８号,,13,114,1640003,,,2025-09-01,清算の結了等,,,2015-10-05,1,,,,,ニッセイジュウケン,0
634,3011203002589,登記記録の閉鎖等,0,2025-09-05,2025-08-25,ＪＴＭ合同会社,,合同会社,東京都,新宿区,新宿５丁目１０番１０号海老沢ビル２０２,,13,104,1600022,,,2025-08-25,清算の結了等,,,2017-07-14,1,,,,,,0
645,3011501027420,登記記録の閉鎖等,0,2025-09-05,2025-08-22,株式会社アスラボ,,株式会社,東京都,台東区,上野６丁目１番６号御徒町グリーンハイツ１００５号,,13,106,1100005,,,2025-08-22,清算の結了等,,,2021-10-27,1,,,,,アスラボ,0
648,3011602008807,登記記録の閉鎖等,0,2025-09-05,2025-08-25,有限会社プランナーエム,,有限会社,東京都,練馬区,北町７丁目９番２３号,,13,120,1790081,,,2025-08-25,清算の結了等,,,2015-10-05,1,,,,,プランナーエム,0
671,3021001054724,登記記録の閉鎖等,0,2025-09-05,2025-09-01,管工株式会社,,株式会社,東京都,町田市,相原町２８９５番地６,,13,209,1940211,,,2025-09-01,清算の結了等,,,2015-10-05,1,,,,,カンコウ,0
678,3030001021948,登記記録の閉鎖等,0,2025-09-05,2025-09-01,株式会社アビリティ,,株式会社,埼玉県,戸田市,中町２丁目１６－２６－穂高１０１,,11,224,3350012,,,2025-09-01,清算の結了等,,,2015-10-05,1,,,,,アビリティ,0
680,3030001076785,登記記録の閉鎖等,0,2025-09-05,2025-09-01,橋本燃焼器株式会社,,株式会社,埼玉県,川口市,川口２丁目１２番１０号,,11,203,3320015,,,2025-09-01,清算の結了等,,,2015-10-05,1,,,,,ハシモトネンショウキ,0
698,3050002026465,登記記録の閉鎖等,0,2025-09-05,2025-08-29,有限会社三起興業運輸,,有限会社,茨城県,鹿嶋市,大字長栖１８７９番地１２５,,08,222,3140022,,,2025-08-29,清算の結了等,,,2015-10-05,1,,,,,サンキコウギョウウンユ,0
717,3100002008516,登記記録の閉鎖等,0,2025-09-05,2025-09-01,有限会社関木型製作所,,有限会社,長野県,須坂市,大字塩野１１１９番地３の８,,20,207,3820000,,,2025-09-01,清算の結了等,,,2015-10-05,1,,,,,セキキガタセイサクジョ,0
725,3110005015772,登記記録の閉鎖等,0,2025-09-05,2025-08-25,特定非営利活動法人日本脆弱性骨折ネットワーク,,その他の設立登記法人,新潟県,新潟市北区,木崎７６１番地,,15,101,9503304,,,2025-08-25,清算の結了等,,,2015-10-05,1,,,,,ニホンゼイバャクセイコッセツネットワーク,0
740,3120002063261,登記記録の閉鎖等,0,2025-09-05,2025-09-01,ヴァージル株式会社,,株式会社,大阪府,大阪市中央区,内久宝寺町３丁目２番５号１階,,27,128,5400013,,,2025-09-01,合併による解散等,9120001106899,令和７年９月１日大阪市東淀川区柴島二丁目１２番１号法円坂メディカル株式会社（9120001106899）に合併し解散,2015-10-05,1,,,,,ヴァージル,0
752,3130002029591,登記記録の閉鎖等,0,2025-09-05,2025-08-25,有限会社エイジェント京阪奈,,有限会社,京都府,相楽郡和束町,大字南小字大生水５５番地,,26,365,6191213,,,2025-08-25,清算の結了等,,,2015-10-05,1,,,,,エイジェントケイハンナ,0
754,3130005005318,登記記録の閉鎖等,0,2025-09-05,2025-08-22,特定非営利活動法人南区高齢者福祉をすすめる会,,その他の設立登記法人,京都府,京都市南区,吉祥院西ノ庄向田町３３番地の５吉祥院ガーデンハイツＢ棟１５３号「けやきの家」,,26,107,6018309,,,2025-08-22,清算の結了等,,,2015-10-05,1,,,,,ミナミクコウレイシャフクシヲススメルカイ,0
755,3140001084050,登記記録の閉鎖等,0,2025-09-05,2025-09-03,野口＆パートナーズ・コンサルティング株式会社,,株式会社,兵庫県,宝塚市,逆瀬台４丁目７番１１号,,28,214,6650024,,,2025-09-03,合併による解散等,9120001249211,令和７年８月２７日大阪市北区西天満一丁目２番５号大阪ＪＡビル１２階Ｎ＆Ｐコンサルティング株式会社（9120001249211）に合併し解散,2015-10-05,1,,,,,ノグチアンドパートナーズコンサルティング,0
756,3140001099932,登記記録の閉鎖等,0,2025-09-05,2025-09-01,株式会社スターリー,,株式会社,兵庫県,芦屋市,高浜町７番１－８１２号,,28,206,6590033,,,2025-09-01,清算の結了等,,,2015-11-06,1,,,,,スターリー,0
757,3140001100716,登記記録の閉鎖等,0,2025-09-05,2025-09-01,株式会社小林事務所,,株式会社,兵庫県,芦屋市,涼風町１５番１０号,,28,206,6590036,,,2025-09-01,合併による解散等,9140001127605,令和７年９月１日兵庫県芦屋市涼風町１５番１０号株式会社ｘｆｕｎｄ（9140001127605）に合併し解散,2016-01-20,1,,,,,コバヤシジムショ,0
776,3180001092974,登記記録の閉鎖等,0,2025-09-05,2025-08-25,株式会社なみおか,,株式会社,愛知県,知多郡南知多町,大字内海字柴井１番地の８４,,23,445,4703321,,,2025-08-25,清算の結了等,,,2015-10-05,1,,,,,ナミオカ,0
791,3180005005313,登記記録の閉鎖等,0,2025-09-05,2025-09-03,特定非営利活動法人デジタル編集協議会ひなぎく,,その他の設立登記法人,愛知県,名古屋市瑞穂区,彌富通３丁目５４番地,,23,108,4670064,,,2025-09-03,清算の結了等,,,2015-10-05,1,,,,,デジタルヘンシュウキョウギカイヒナギク,0
794,3190001012790,登記記録の閉鎖等,0,2025-09-05,2025-09-01,株式会社幸和設備管理,,株式会社,三重県,桑名市,長島町千倉５３６番地の２,,24,205,5111105,,,2025-09-01,清算の結了等,,,2015-10-05,1,,,,,コウワセツビカンリ,0
808,3240002020424,登記記録の閉鎖等,0,2025-09-05,2025-09-02,有限会社ウィズ・ユー,,有限会社,広島県,広島市安佐北区,あさひが丘１丁目２１番３号,,34,106,7313361,,,2025-09-02,清算の結了等,,,2015-10-05,1,,,,,ウィズユー,0
814,3260001026024,登記記録の閉鎖等,0,2025-09-05,2025-07-01,旭メガソーラー津山野介代発電株式会社,,株式会社,岡山県,岡山市南区,西市４３３番地４,,33,104,7000953,,,2025-07-01,合併による解散等,3260001027179,令和７年７月１日岡山市南区西市４３３番地４旭メガソーラー建部田地子発電株式会社（3260001027179）に合併し解散,2015-10-05,1,,,,,アサヒメガソーラーツヤマノケダハツデン,0
820,3260005011113,登記記録の閉鎖等,0,2025-09-05,2025-09-01,岡山県冷凍空調事業協同組合,,その他の設立登記法人,岡山県,岡山市北区,大供１丁目２番２７号三電ビル１階,,33,101,7000913,,,2025-09-01,清算の結了等,,,2022-07-12,1,,,,,オカヤマケンレイトウクウチョウジギョウ,0
821,3290001007442,登記記録の閉鎖等,0,2025-09-05,2025-08-12,株式会社＿梅園,00092198,株式会社,福岡県,福岡市中央区,谷１丁目５番４７号,,40,133,8100031,,,2025-08-12,清算の結了等,,,2015-10-05,1,,,,,コウバイエン,0
847,3430001070839,登記記録の閉鎖等,0,2025-09-05,2025-09-03,株式会社アークテック,,株式会社,北海道,札幌市豊平区,月寒東三条４丁目５番２号,,01,105,0620053,,,2025-09-03,清算の結了等,,,2016-02-09,1,,,,,アークテック,0
848,3430001071201,登記記録の閉鎖等,0,2025-09-05,2025-09-03,株式会社ハートランド,,株式会社,北海道,札幌市中央区,北四条西７丁目５番－８０３号,,01,101,0600004,,,2025-09-03,清算の結了等,,,2016-04-04,1,,,,,ハートランド,0
849,3430001085143,登記記録の閉鎖等,0,2025-09-05,2025-08-20,株式会社ガルーダ,,株式会社,北海道,札幌市中央区,南五条西３丁目１１番地美松ビル３Ｆ,,01,101,0640805,,,2025-08-20,清算の結了等,,,2021-10-12,1,,,,,ガルーダ,0
880,4010005016714,登記記録の閉鎖等,0,2025-09-05,2025-08-12,公益社団法人私立大学情報教育協会,,その他の設立登記法人,東京都,千代田区,九段北４丁目１番１４号,,13,101,1020073,,,2025-08-12,清算の結了等,,,2015-10-05,1,,,,,シリツダイガクジョウホウキョウイクキョウカイ,0
890,4010501041629,登記記録の閉鎖等,0,2025-09-05,2025-08-15,株式会社ＭＥＤＩＴＡ,,株式会社,東京都,中央区,日本橋堀留町１丁目９番１０号ライフサイエンスビルディング７上野ビル６階,,13,102,1030012,,,2025-08-15,清算の結了等,,,2017-10-05,1,,,,,メディタ,0
907,4011001027250,登記記録の閉鎖等,0,2025-09-05,2025-08-05,株式会社ワードアップ,,株式会社,東京都,渋谷区,恵比寿２丁目２８番１０号,,13,113,1500013,,,2025-08-05,清算の結了等,,,2015-10-05,1,,,,,ワードアップ,0
931,4012301006217,登記記録の閉鎖等,0,2025-09-05,2025-08-25,北日本商事株式会社,,株式会社,東京都,町田市,玉川学園１丁目２２番１９号,,13,209,1940041,,,2025-08-25,清算の結了等,,,2015-10-05,1,,,,,キタニホンショウジ,0
936,4012405000462,登記記録の閉鎖等,0,2025-09-05,2025-08-05,天理教道吉分教会,,その他の設立登記法人,東京都,国分寺市,西元町３丁目１０番４号,,13,214,1850023,,,2025-08-05,合併による解散等,1011005000479,令和７年７月３日東京都渋谷区本町六丁目１番２５号天理教本道分教會（1011005000479）に合併し解散,2015-10-05,1,,,,,,0
941,4013301031072,登記記録の閉鎖等,0,2025-09-05,2025-08-19,株式会社グラフィット,,株式会社,東京都,豊島区,巣鴨１丁目９－１,,13,116,1700002,,,2025-08-19,清算の結了等,,,2015-10-05,1,,,,,グラフィット,0
946,4020001050963,登記記録の閉鎖等,0,2025-09-05,2025-08-21,株式会社ドットインターナショナル,,株式会社,神奈川県,横浜市青葉区,梅が丘２６番地３４,,14,117,2270052,,,2025-08-21,清算の結了等,,,2015-10-05,1,,,,,ドットインターナショナル,0
962,4030002039872,登記記録の閉鎖等,0,2025-09-05,2025-08-21,有限会社トキワ印刷,,有限会社,埼玉県,幸手市,大字幸手１７７番地１,,11,240,3400113,,,2025-08-21,清算の結了等,,,2015-10-05,1,,,,,トキワインサツ,0
978,4050002025656,登記記録の閉鎖等,0,2025-09-05,2025-08-27,有限会社栄製作所,,有限会社,茨城県,古河市,上片田１２８１番地２,,08,204,3060128,,,2025-08-27,清算の結了等,,,2015-10-05,1,,,,,サカエセイサクショ,0
980,4060001027066,登記記録の閉鎖等,0,2025-09-05,2025-08-28,株式会社雅商事,,株式会社,栃木県,那須郡那須町,大字高久甲５５４１番地９,,09,407,3250001,,,2025-08-28,清算の結了等,,,2015-10-05,1,,,,,ミヤビショウジ,0
992,4080403004693,登記記録の閉鎖等,0,2025-09-05,2025-09-01,合同会社ユウセイ,,合同会社,静岡県,浜松市中央区,高林１丁目９－３０山下ビル１階,,22,138,4300907,,,2025-09-01,合併による解散等,3080403003366,令和７年９月１日静岡県浜松市中央区上新屋町２４４番地の２６合同会社Ｙ’Ｓソリューションズ（3080403003366）に合併し解散,2023-01-11,1,,,,,ユウセイ,0
1001,4120001058245,登記記録の閉鎖等,0,2025-09-05,2025-08-22,株式会社プロシード,,株式会社,大阪府,大阪市淀川区,東三国１丁目３２番１８号,,27,123,5320002,,,2025-08-22,清算の結了等,,,2015-10-05,1,,,,,プロシード,0
1023,4120003006284,登記記録の閉鎖等,0,2025-09-05,2025-08-26,合同会社エムワイケー,,合同会社,大阪府,大阪市中央区,淡路町２丁目１番１０－５０１号,,27,128,5410047,,,2025-08-26,清算の結了等,,,2015-10-05,1,,,,,エムワイケー,0
1035,4122002006983,登記記録の閉鎖等,0,2025-09-05,2025-08-26,有限会社フリーダムコーポレーション,,有限会社,大阪府,東大阪市,西堤本通東１丁目１番１号東大阪大発ビル２Ｆ,,27,227,5770045,,,2025-08-26,清算の結了等,,,2015-10-05,1,,,,,フリーダムコーポレーション,0
1062,4180001137662,登記記録の閉鎖等,0,2025-09-05,2025-08-25,株式会社シンフォニックケア医療福祉創造研究所,,株式会社,愛知県,一宮市,栄４丁目２番１号マストスクエア一宮２０１号,,23,203,4910858,,,2025-08-25,清算の結了等,,,2019-08-08,1,,,,,シンフォニックケアイリョウフクシソウゾウケンキュウジョ,0
1068,4180002092543,登記記録の閉鎖等,0,2025-09-05,2025-08-25,有限会社片岡印刷,,有限会社,愛知県,あま市,丹波西切２９番地,,23,237,4901224,,,2025-08-25,清算の結了等,,,2015-10-05,1,,,,,カタオカインサツ,0
1078,4210001009965,登記記録の閉鎖等,0,2025-09-05,2025-08-29,株式会社ランドマーク,,株式会社,福井県,大野市,下丁第２号１番地,,18,205,9120095,,,2025-08-29,清算の結了等,,,2015-10-05,1,,,,,ランドマーク,0
1082,4220001018008,登記記録の閉鎖等,0,2025-09-05,2025-09-02,株式会社健幸館,,株式会社,石川県,河北郡津幡町,字津幡ナ６８番地４０,,17,361,9290323,,,2025-09-02,清算の結了等,,,2015-10-05,1,,,,,ケンコウカン,0
1090,4230002000467,登記記録の閉鎖等,0,2025-09-05,2025-09-03,有限会社エアテック,,有限会社,富山県,富山市,草島字古川１５番地１５,,16,201,9302201,,,2025-09-03,清算の結了等,,,2015-10-05,1,,,,,エアテック,0
1103,4290002017514,登記記録の閉鎖等,0,2025-09-05,2025-08-12,有限会社ヘッド,,有限会社,福岡県,福岡市早良区,曙１丁目１３番１５－７０３号,00106327,40,137,8140004,,,2025-08-12,清算の結了等,,,2015-10-05,1,,,,,ヘッド,0
1104,4290002018438,登記記録の閉鎖等,0,2025-09-05,2025-08-12,ウメ・コーポレーション有限会社,,有限会社,福岡県,福岡市南区,向野１丁目１５番６号リーガ高宮３０５,,40,134,8150035,,,2025-08-12,清算の結了等,,,2015-10-05,1,,,,,ウメコーポレーション,0
1106,4310003002264,登記記録の閉鎖等,0,2025-09-05,2025-09-03,株式会社ＳＫ,,株式会社,長崎県,対馬市,美津島町鷄知甲４９０番地の１,00102542,42,209,8170000,,,2025-09-03,清算の結了等,,,2015-10-05,1,,,,,エスケー,0
1116,4370001038692,登記記録の閉鎖等,0,2025-09-05,2025-08-21,株式会社技装,,株式会社,宮城県,仙台市青葉区,上杉１丁目６番１０号仙台北辰ビル１階ＳＥＥＤ２１内,,04,101,9800011,,,2025-08-21,清算の結了等,,,2015-10-27,1,,,,,ギソウ,0
1118,4370002004867,登記記録の閉鎖等,0,2025-09-05,2025-08-22,有限会社貴田写真事務所,,有限会社,宮城県,仙台市若林区,成田町２４番地,,04,103,9840056,,,2025-08-22,清算の結了等,,,2015-10-05,1,,,,,キダシャシンジムショ,0
1125,4430001072867,登記記録の閉鎖等,0,2025-09-05,2025-08-20,株式会社ＭＯＭＯＴＡ,,株式会社,北海道,札幌市豊平区,西岡一条１０丁目１３番１２号,,01,105,0620031,,,2025-08-20,清算の結了等,,,2016-12-08,1,,,,,モモタ,0
1128,4430002046580,登記記録の閉鎖等,0,2025-09-05,2025-09-01,有限会社マルサン三橋商店,,有限会社,北海道,石狩郡当別町,西町３０番地１２,,01,303,0610234,,,2025-09-01,清算の結了等,,,2015-10-05,1,,,,,マルサンミツハシショウテン,0
1139,4460101005014,登記記録の閉鎖等,0,2025-09-05,2025-09-01,株式会社アクトコーポレーション,,株式会社,北海道,帯広市,大通南１６丁目２番地２,,01,207,0800010,,,2025-09-01,合併による解散等,2460101002046,令和７年９月１日北海道帯広市大通南十六丁目２番地２株式会社アクト（2460101002046）に合併し解散,2015-10-05,1,,,,,アクトコーポレーション,0
1145,4500002004102,登記記録の閉鎖等,0,2025-09-05,2025-09-02,有限会社タイヤサービス愛媛,00007763,有限会社,愛媛県,松山市,山西町９９９番地６,,38,201,7918026,,,2025-09-02,清算の結了等,,,2015-10-05,1,,,,,タイヤサービスエヒメ,0
1155,5010001202201,登記記録の閉鎖等,0,2025-09-05,2025-08-19,株式会社ＰＡエンタープライズ,,株式会社,東京都,中央区,日本橋人形町３丁目２番５号,,13,102,1030013,,,2025-08-19,清算の結了等,,,2019-07-09,1,,,,,ピーエイエンタープライズ,0
1166,5010005030664,登記記録の閉鎖等,0,2025-09-05,2025-08-14,木曽岬特定目的会社,,その他の設立登記法人,東京都,中央区,日本橋１丁目４番１号日本橋一丁目ビルディング,,13,102,1030027,,,2025-08-14,清算の結了等,,,2019-08-28,1,,,,,キソサキ,0
1167,5010005038922,登記記録の閉鎖等,0,2025-09-05,2025-08-15,一般社団法人１３,,その他の設立登記法人,東京都,千代田区,丸の内１丁目４番１号東京共同会計事務所内,,13,101,1000005,,,2025-08-15,清算の結了等,,,2024-10-09,1,,,,,ジュウサン,0
1173,5010403033228,登記記録の閉鎖等,0,2025-09-05,2025-08-07,合同会社立松あゆみデザイン,,合同会社,東京都,港区,赤坂４丁目８番１９号赤坂フロントタウン３階,,13,103,1070052,,,2025-08-07,清算の結了等,,,2024-08-19,1,,,,,タテマツアユミデザイン,0
1199,5011401020309,登記記録の閉鎖等,0,2025-09-05,2025-09-01,株式会社グッドラックテーブルカンパニー,,株式会社,東京都,板橋区,蓮根１丁目１３番９号,,13,119,1740046,,,2025-09-01,清算の結了等,,,2017-05-31,1,,,,,グッドラックテーブルカンパニー,0
1208,5011703002459,登記記録の閉鎖等,0,2025-09-05,2025-08-29,合同会社リトルハンド,,合同会社,東京都,町田市,上小山田町１６３－２,,13,209,1940201,,,2025-08-29,清算の結了等,,,2020-01-21,1,,,,,リトルハンド,0
1210,5012301002636,登記記録の閉鎖等,0,2025-09-05,2025-08-28,株式会社ユニケン教育プランニング,,株式会社,東京都,町田市,鶴川６丁目８番地１５の４０３,,13,209,1950061,,,2025-08-28,清算の結了等,,,2015-10-05,1,,,,,ユニケンキョウイクプランニング,0
1215,5013301016741,登記記録の閉鎖等,0,2025-09-05,2025-08-22,久豊技研株式会社,,株式会社,東京都,豊島区,巣鴨１丁目１４番１２－３０１号,,13,116,1700002,,,2025-08-22,清算の結了等,,,2015-10-05,1,,,,,ヒサトヨギケン,0
1272,5080402002953,登記記録の閉鎖等,0,2025-09-05,2025-09-01,有限会社コトウエステート,,有限会社,静岡県,浜松市中央区,富塚町３００３－７,,22,138,4328002,,,2025-09-01,清算の結了等,,,2015-10-05,1,,,,,コトウエステート,0
1292,5120001244645,登記記録の閉鎖等,0,2025-09-05,2025-08-27,株式会社服部電機,,株式会社,大阪府,大阪市住吉区,庭井２丁目２０番２８号,,27,120,5580012,,,2025-08-27,清算の結了等,,,2022-03-24,1,,,,,ハットリデンキ,0
1328,5140005007088,登記記録の閉鎖等,0,2025-09-05,2025-07-28,天理教仁志分教会,,その他の設立登記法人,兵庫県,宍粟市,波賀町上野９４２番地,,28,227,6714221,,,2025-07-28,合併による解散等,4140005014837,令和７年７月２８日兵庫県神崎郡神河町寺前１３３番地の１天理教宍粟分教会（4140005014837）に合併し解散,2015-10-05,1,,,,,テンリキョウニシブンキョウカイ,0
1334,5180001159417,登記記録の閉鎖等,0,2025-09-05,2025-08-12,株式会社金禾商事,,株式会社,愛知県,名古屋市中川区,明徳町２丁目７番地,,23,110,4540857,,,2025-08-12,清算の結了等,,,2023-12-20,1,,,,,カナノギショウジ,0
1342,5190002016236,登記記録の閉鎖等,0,2025-09-05,2025-09-01,有限会社アイビー工業,,有限会社,三重県,桑名市,大字大貝須４３９番地の５２,,24,205,5110848,,,2025-09-01,清算の結了等,,,2015-10-05,1,,,,,,0
1354,5230002013146,登記記録の閉鎖等,0,2025-09-05,2025-09-03,マルカサフーズ有限会社,,有限会社,富山県,氷見市,地蔵町１３番１８号,,16,205,9350014,,,2025-09-03,清算の結了等,,,2015-10-05,1,,,,,マルカサフーズ,0
1364,5260001025420,登記記録の閉鎖等,0,2025-09-05,2025-07-01,旭メガソーラー伯耆発電株式会社,,株式会社,岡山県,岡山市南区,西市４３３番地４,,33,104,7000953,,,2025-07-01,合併による解散等,3260001027179,令和７年７月１日岡山市南区西市４３３番地４旭メガソーラー建部田地子発電株式会社（3260001027179）に合併し解散,2015-10-05,1,,,,,アサヒメガソーラーホウキハツデン,0
1366,5260002024891,登記記録の閉鎖等,0,2025-09-05,2025-08-29,有限会社岡本建設,,有限会社,岡山県,浅口市,寄島町１６０４４番地,,33,216,7140101,,,2025-08-29,清算の結了等,,,2015-10-05,1,,,,,オカモトケンセツ,0
1373,5290003001697,登記記録の閉鎖等,0,2025-09-05,2025-08-12,合同会社ＩＴコミュニケーション,,合同会社,福岡県,宗像市,ひかりヶ丘４丁目８番地５,,40,220,8113403,,,2025-08-12,清算の結了等,,,2015-10-05,1,,,,,,0
1375,5290801000702,登記記録の閉鎖等,0,2025-09-05,2025-09-03,株式会社北九州ラヂエーター工業,,株式会社,福岡県,北九州市小倉北区,篠崎５丁目２７番４号,,40,106,8030861,,,2025-09-03,清算の結了等,,,2015-10-05,1,,,,,キタキュウシュウラヂエーターコウギョウ,0
1377,5290801024957,登記記録の閉鎖等,0,2025-09-05,2025-09-01,株式会社寿限無企画,,株式会社,福岡県,北九州市小倉北区,上到津３丁目８番１９－１１０３号,,40,106,8030845,,,2025-09-01,清算の結了等,,,2018-09-18,1,,,,,ジュゲムキカク,0
1384,5320005006278,登記記録の閉鎖等,0,2025-09-05,2025-07-23,秋葉社,,その他の設立登記法人,大分県,豊後大野市,三重町秋葉３４６４番地,,44,212,8797141,,,2025-07-23,合併による解散等,6320005006285,令和７年７月２３日大分県豊後大野市三重町秋葉２９８７番地天神社（6320005006285）に合併し解散,2015-10-05,1,,,,,アキバシャ,0
1389,5350002005239,登記記録の閉鎖等,0,2025-09-05,2025-09-01,有限会社ラブ・ストーン,,有限会社,宮崎県,宮崎市,大塚台西１丁目２０番地５,,45,201,8802105,,,2025-09-01,清算の結了等,,,2015-10-05,1,,,,,ラブストーン,0
1390,5350002006220,登記記録の閉鎖等,0,2025-09-05,2025-09-02,有限会社不動産管理ＫＵＲＯＫＩ,,有限会社,宮崎県,宮崎市,源藤町葉山８７２番地４アプリーリアビル,,45,201,8800927,,,2025-09-02,清算の結了等,,,2015-10-05,1,,,,,フドウサンカンリクロキ,0
1400,5370001011005,登記記録の閉鎖等,0,2025-09-05,2025-08-19,株式会社仙台建築事務所,,株式会社,宮城県,仙台市青葉区,北根黒松７番４８号,,04,101,9810901,,,2025-08-19,清算の結了等,,,2015-10-05,1,,,,,センダイケンチクジムショ,0
1408,5430001007054,登記記録の閉鎖等,0,2025-09-05,2025-09-01,株式会社ジェイシーイー,,株式会社,北海道,札幌市中央区,北十二条西２０丁目２番２号,,01,101,0600012,,,2025-09-01,清算の結了等,,,2015-10-05,1,,,,,ジェイシーイー,0
1409,5430001068757,登記記録の閉鎖等,0,2025-09-05,2025-08-22,弘富工業株式会社,,株式会社,北海道,札幌市西区,平和３１９番地１９,,01,107,0630029,,,2025-08-22,清算の結了等,,,2015-10-05,1,,,,,ヒロトミコウギョウ,0
1410,5430001073856,登記記録の閉鎖等,0,2025-09-05,2025-08-19,株式会社アカデミアクォーレ,,株式会社,北海道,苫小牧市,表町１丁目３番４号,,01,213,0530022,,,2025-08-19,清算の結了等,,,2017-04-21,1,,,,,アカデミアクォーレ,0
1411,5430001087600,登記記録の閉鎖等,0,2025-09-05,2025-08-22,株式会社ＭＨ２,,株式会社,北海道,札幌市手稲区,富丘二条４丁目３－３,,01,109,0060012,,,2025-08-22,清算の結了等,,,2022-10-07,1,,,,,エムエイチツー,0
1412,5460102007446,登記記録の閉鎖等,0,2025-09-05,2025-09-01,有限会社誠進電気,,有限会社,北海道,帯広市,西四条南３２丁目９番地６,,01,207,0800014,,,2025-09-01,清算の結了等,,,2015-10-05,1,,,,,セイシンデンキ,0
1415,5500001003517,登記記録の閉鎖等,0,2025-09-05,2025-09-02,富士環境株式会社,00007337,株式会社,愛媛県,松山市,東野３丁目乙１番地１,,38,201,7900903,,,2025-09-02,清算の結了等,,,2015-10-05,1,,,,,フジカンキョウ,0
1416,5500002010454,登記記録の閉鎖等,0,2025-09-05,2025-09-02,有限会社グラフ,,有限会社,愛媛県,松山市,道後北代１１番２６号,,38,201,7900846,,,2025-09-02,清算の結了等,,,2015-10-05,1,,,,,グラフ,0
1433,6010005035431,登記記録の閉鎖等,0,2025-09-05,2025-08-15,秋葉原ソーラーホールディングス一般社団法人,,その他の設立登記法人,東京都,千代田区,紀尾井町４番１号ニューオータニガーデンコート１９階フィンポート税理士法人内,,13,101,1020094,,,2025-08-15,清算の結了等,,,2022-08-15,1,,,,,アキハバラソーラーホールディングス,0
1454,6010701043101,登記記録の閉鎖等,0,2025-09-05,2025-09-01,荏原コンサルティング株式会社,,株式会社,東京都,品川区,旗の台５丁目２４番１５号,,13,109,1420064,,,2025-09-01,清算の結了等,,,2022-08-23,1,,,,,エバラコンサルティング,0
1467,6011001116530,登記記録の閉鎖等,0,2025-09-05,2025-08-05,わたし漢方株式会社,,株式会社,東京都,渋谷区,渋谷２丁目６番１１号花門ビル４Ｆ,,13,113,1500002,,,2025-08-05,清算の結了等,,,2017-05-29,1,,,,,ワタシカンポウ,0
1475,6011003006127,登記記録の閉鎖等,0,2025-09-05,2025-09-01,合同会社向大,,合同会社,東京都,品川区,北品川４丁目８番３３－３２３号,,13,109,1400001,,,2025-09-01,清算の結了等,,,2015-10-05,1,,,,,コウダイ,0
1488,6011602006270,登記記録の閉鎖等,0,2025-09-05,2025-08-26,有限会社高善工業,00056236,有限会社,東京都,練馬区,旭町２丁目１７番７号,,13,120,1790071,,,2025-08-26,清算の結了等,,,2015-10-05,1,,,,,タカゼンコウギョウ,0
1492,6011801026193,登記記録の閉鎖等,0,2025-09-05,2025-08-28,イワテック株式会社,,株式会社,東京都,足立区,中央本町１丁目１８番１４－１２０３号,,13,121,1200011,,,2025-08-28,清算の結了等,,,2015-10-05,1,,,,,イワテック,0
1493,6012301008194,登記記録の閉鎖等,0,2025-09-05,2025-08-21,株式会社サクラコンサルタント,,株式会社,東京都,町田市,藤の台１丁目１番５１－１０４号,,13,209,1940039,,,2025-08-21,清算の結了等,,,2015-10-05,1,,,,,サクラコンサルタント,0
1502,6013202005470,登記記録の閉鎖等,0,2025-09-05,2025-08-26,有限会社文化,,有限会社,東京都,大田区,北千束１丁目４５番１０号,,13,111,1450062,,,2025-08-26,清算の結了等,,,2015-10-05,1,,,,,ブンカ,0
1506,6013301051283,登記記録の閉鎖等,0,2025-09-05,2025-08-21,澳洋株式会社,,株式会社,東京都,豊島区,池袋本町１丁目２５－１４－４Ｃ,,13,116,1700011,,,2025-08-21,清算の結了等,,,2023-08-31,1,,,,,オウヨウ,0
1509,6013303007250,登記記録の閉鎖等,0,2025-09-05,2025-08-22,合同会社ＭＡＬＥ,,合同会社,東京都,豊島区,長崎１丁目１６－６コーポソフエ１０１,,13,116,1710051,,,2025-08-22,清算の結了等,,,2024-08-13,1,,,,,マール,0
1511,6020001053717,登記記録の閉鎖等,0,2025-09-05,2025-08-20,株式会社レ・リード,,株式会社,神奈川県,横浜市神奈川区,三ツ沢西町１７番３４号,,14,102,2210855,,,2025-08-20,清算の結了等,,,2015-10-05,1,,,,,レリード,0
1518,6020003020566,登記記録の閉鎖等,0,2025-09-05,2025-08-22,Ｆｕｎｆａｒｅ合同会社,,合同会社,神奈川県,横浜市神奈川区,大口仲町８番地６ＲＯＯＴＳ・ｙｏｋｏｈａｍａ１０１,,14,102,2210003,,,2025-08-22,清算の結了等,,,2021-09-30,1,,,,,ファンファーレ,0
1532,6040001120630,登記記録の閉鎖等,0,2025-09-05,2025-08-19,株式会社クレイン,,株式会社,神奈川県,川崎市宮前区,西野川３丁目４３番１２号,,14,136,2160044,,,2025-08-19,清算の結了等,,,2021-10-27,1,,,,,クレイン,0
1547,6050003008204,登記記録の閉鎖等,0,2025-09-05,2025-08-26,合同会社結,,合同会社,茨城県,古河市,諸川１１３５－１８,,08,204,3060126,,,2025-08-26,清算の結了等,,,2024-03-19,1,,,,,ユイ,0
1553,6070002013558,登記記録の閉鎖等,0,2025-09-05,2025-09-03,有限会社関本保険事務所,,有限会社,群馬県,高崎市,上里見町１７４２番地４,,10,202,3703345,,,2025-09-03,清算の結了等,,,2015-10-05,1,,,,,セキモトホケンジムショ,0
1555,6080001017360,登記記録の閉鎖等,0,2025-09-05,2025-09-01,株式会社アーバンプラスト,,株式会社,静岡県,藤枝市,志太５丁目５番１号,,22,214,4260071,,,2025-09-01,清算の結了等,,,2015-10-05,1,,,,,アーバンプラスト,0
1565,6080402014782,登記記録の閉鎖等,0,2025-09-05,2025-09-01,有限会社遠州松寿園,,有限会社,静岡県,浜松市浜名区,宮口３９８３番地の１,,22,139,4340004,,,2025-09-01,清算の結了等,,,2015-10-05,1,,,,,エンシュウショウジュエン,0
1566,6080403003495,登記記録の閉鎖等,0,2025-09-05,2025-09-02,合同会社ＡＳＵＨＡコーポレーション,,合同会社,静岡県,浜松市中央区,東若林町１１２１番地の３,,22,138,4328052,,,2025-09-02,合併による解散等,3080401021023,令和７年９月１日浜松市中央区東若林町１１２１番地の３株式会社ＫＹＯＷＡコーポレーション（3080401021023）に合併し解散,2017-08-04,1,,,,,アスハコーポレーション,0
1573,6120001089742,登記記録の閉鎖等,0,2025-09-05,2025-09-01,松尾捺染株式会社,,株式会社,大阪府,大阪市中央区,博労町１丁目２番５号,,27,128,5410059,,,2025-09-01,合併による解散等,4120002038659,令和７年９月１日大阪市中央区博労町一丁目２番５号松尾捺染株式会社（4120002038659）に合併し解散,2015-10-05,1,,,,,マツオナッセン,0
1589,6120002075089,登記記録の閉鎖等,0,2025-09-05,2025-08-27,有限会社松電,,有限会社,大阪府,枚方市,長尾家具町２丁目１２番地の１９,,27,210,5730102,,,2025-08-27,清算の結了等,,,2015-10-05,1,,,,,マツデン,0
1596,6120101066996,登記記録の閉鎖等,0,2025-09-05,2025-08-28,株式会社ＭＵＲＡＴＡ,,株式会社,大阪府,羽曳野市,高鷲７丁目４２番地の２,,27,222,5830882,,,2025-08-28,清算の結了等,,,2023-02-14,1,,,,,ムラタ,0
1599,6120901026200,登記記録の閉鎖等,0,2025-09-05,2025-09-03,ワイテイ商事株式会社,,株式会社,大阪府,豊中市,千里園３丁目４番４０号,,27,203,5600046,,,2025-09-03,合併による解散等,5120001040994,令和７年８月１日大阪市西区九条南四丁目２９番１号アート印刷株式会社（5120001040994）に合併し解散,2015-10-05,1,,,,,ワイテイショウジ,0
1600,6120903004088,登記記録の閉鎖等,0,2025-09-05,2025-08-29,フローレン合同会社,,合同会社,大阪府,吹田市,青山台３丁目５２番９－１号,,27,205,5650875,,,2025-08-29,清算の結了等,,,2022-03-30,1,,,,,フローレン,0
1609,6130003004525,登記記録の閉鎖等,0,2025-09-05,2025-08-27,ダイナモ合同会社,,合同会社,京都府,京都市下京区,木屋町通松原上る２丁目和泉屋町１６０番地ランブラス館２０３号,,26,106,6008014,,,2025-08-27,清算の結了等,,,2016-02-04,1,,,,,ダイナモ,0
1617,6140002005985,登記記録の閉鎖等,0,2025-09-05,2025-09-02,有限会社さくら,,有限会社,兵庫県,神戸市北区,藤原台北町６丁目１２番３号,,28,109,6511301,,,2025-09-02,清算の結了等,,,2015-10-05,1,,,,,サクラ,0
1626,6180001115088,登記記録の閉鎖等,0,2025-09-05,2025-08-20,株式会社ウルオイ・ビジョン,,株式会社,東京都,中央区,銀座１丁目２２番１１号銀座大竹ビジデンス２階,,13,102,1040061,,,2025-08-20,清算の結了等,,,2015-10-05,1,,,,,ウルオイビジョン,0
1679,6290802023362,登記記録の閉鎖等,0,2025-09-05,2025-09-02,光住宅有限会社,,有限会社,福岡県,築上郡築上町,大字東築城１１４番地の１,,40,647,8290101,,,2025-09-02,清算の結了等,,,2015-10-05,1,,,,,ヒカリジュウタク,0
1680,6290805009391,登記記録の閉鎖等,0,2025-09-05,2025-09-02,ＮＰＯ法人ドリームランドセル,,その他の設立登記法人,福岡県,北九州市八幡西区,下上津役３丁目６番２３号,,40,109,8070075,,,2025-09-02,清算の結了等,,,2020-12-23,1,,,,,ドリームランドセル,0
1688,6320002015594,登記記録の閉鎖等,0,2025-09-05,2025-08-29,有限会社栄進空調サービス,,有限会社,大分県,速見郡日出町,大字大神８５０９の２番地,,44,341,8791504,,,2025-08-29,清算の結了等,,,2015-10-05,1,,,,,エイシンクウチョウサービス,0
1693,6340002004967,登記記録の閉鎖等,0,2025-09-05,2025-09-01,有限会社庄司保険事務所,,有限会社,鹿児島県,鹿児島市,清水町２番９号,,46,201,8920802,,,2025-09-01,清算の結了等,,,2015-10-05,1,,,,,ショウジホケンジムショ,0
1696,6350002012192,登記記録の閉鎖等,0,2025-09-05,2025-09-01,有限会社シイバメディカル,,有限会社,宮崎県,延岡市,旭ケ丘５丁目８番地４,,45,203,8890507,,,2025-09-01,清算の結了等,,,2015-10-05,1,,,,,シイバメディカル,0
1704,6390003001637,登記記録の閉鎖等,0,2025-09-05,2025-08-28,みどり合同会社,,合同会社,山形県,山形市,東山形１丁目９番２４号クレストール東山形Ａ１０３号,,06,201,9900022,,,2025-08-28,清算の結了等,,,2019-07-23,1,,,,,ミドリ,0
1709,6420002000917,登記記録の閉鎖等,0,2025-09-05,2025-07-31,有限会社共生商会,,有限会社,青森県,青森市,大字安田字近野１番地３２９,,02,201,0380021,,,2025-07-31,合併による解散等,1130001050294,令和７年７月１日東京都千代田区大手町１－１－２大手門タワーなぎさアセットマネジメント株式会社（1130001050294）に合併し解散,2015-10-05,1,,,,,キョウセイショウカイ,0
1720,6470001006621,登記記録の閉鎖等,0,2025-09-05,2025-09-02,株式会社向山建築,,株式会社,香川県,高松市,牟礼町牟礼２０１５番地３,,37,201,7610121,,,2025-09-02,清算の結了等,,,2015-10-05,1,,,,,ムカイヤマケンチク,0
1723,6490005006401,登記記録の閉鎖等,0,2025-09-05,2025-09-02,特定非営利活動法人アテラーノ旭,,その他の設立登記法人,高知県,高知市,元町４４,,39,201,7800941,,,2025-09-02,清算の結了等,,,2015-10-05,1,,,,,アテラーノアサヒ,0
1726,7010001070448,登記記録の閉鎖等,0,2025-09-05,2025-08-12,株式会社アイ・ティー・エス,,株式会社,東京都,千代田区,外神田４丁目６番１号,,13,101,1010021,,,2025-08-12,清算の結了等,,,2015-10-05,1,,,,,アイティーエス,0
1746,7010005035100,登記記録の閉鎖等,0,2025-09-05,2025-08-07,一般社団法人小郡ロジ,,その他の設立登記法人,東京都,千代田区,霞が関３丁目２番５号,,13,101,1000013,,,2025-08-07,清算の結了等,,,2022-06-07,1,,,,,オゴオリロジ,0
1751,7010401093131,登記記録の閉鎖等,0,2025-09-05,2025-08-20,株式会社ＨＫＧ,,株式会社,神奈川県,川崎市多摩区,生田８丁目１８－７－１,,14,135,2140038,,,2025-08-20,清算の結了等,,,2015-10-05,1,,,,,エイチケージー,0
1753,7010401174798,登記記録の閉鎖等,0,2025-09-05,2025-08-05,株式会社Ｂｅｌｉｅｖｅ,,株式会社,東京都,港区,南青山２丁目２番１５号,,13,103,1070062,,,2025-08-05,清算の結了等,,,2023-06-06,1,,,,,ビリーブ,0
1769,7010902004314,登記記録の閉鎖等,0,2025-09-05,2025-09-03,有限会社唐木田商店,,有限会社,東京都,世田谷区,世田谷２丁目２４番２号,,13,112,1540017,,,2025-09-03,清算の結了等,,,2015-10-05,1,,,,,,0
1785,7011102028244,登記記録の閉鎖等,0,2025-09-05,2025-08-08,有限会社ピー・ディー,,有限会社,東京都,新宿区,西新宿３丁目１番５号,,13,104,1600023,,,2025-08-08,清算の結了等,,,2015-10-05,1,,,,,ピーディー,0
1788,7011402003764,登記記録の閉鎖等,0,2025-09-05,2025-08-29,有限会社サン企画,,有限会社,東京都,板橋区,坂下３丁目５番１７－４０９号,,13,119,1740043,,,2025-08-29,清算の結了等,,,2015-10-05,1,,,,,サンキカク,0
1794,7012301009217,登記記録の閉鎖等,0,2025-09-05,2025-08-06,株式会社米自動車,,株式会社,東京都,港区,南青山５丁目６番１９号ＭＡ５,,13,103,1070062,,,2025-08-06,清算の結了等,,,2015-10-05,1,,,,,ヨネジドウシャ,0
1816,7020002083506,登記記録の閉鎖等,0,2025-09-05,2025-08-22,有限会社太田園,,有限会社,神奈川県,川崎市中原区,新城１丁目１２番１３号,,14,133,2110044,,,2025-08-22,清算の結了等,,,2015-10-05,1,,,,,オオタエン,0
1817,7020005012271,登記記録の閉鎖等,0,2025-09-05,2025-08-21,一般財団法人水善会,,その他の設立登記法人,神奈川県,横浜市西区,高島２丁目６番３２号,,14,103,2200011,,,2025-08-21,清算の結了等,,,2015-10-05,1,,,,,スイゼンカイ,0
1821,7021002067119,登記記録の閉鎖等,0,2025-09-05,2025-08-21,有限会社カツミ工業,,有限会社,神奈川県,横浜市金沢区,釜利谷南４丁目２９番９号,,14,108,2360045,,,2025-08-21,清算の結了等,,,2015-10-05,1,,,,,カツミコウギョウ,0
1822,7030001011755,登記記録の閉鎖等,0,2025-09-05,2025-08-29,伸栄商事株式会社,,株式会社,埼玉県,さいたま市浦和区,本太５丁目２３番３号,,11,107,3300052,,,2025-08-29,清算の結了等,,,2015-10-05,1,,,,,シンエイショウジ,0
1840,7050002011959,登記記録の閉鎖等,0,2025-09-05,2025-08-27,有限会社デザインワークスワイズパパ,,有限会社,茨城県,土浦市,桜ケ丘町５番３２号,,08,203,3000832,,,2025-08-27,清算の結了等,,,2015-10-05,1,,,,,デザインワークスワイズパパ,0
1842,7060002004342,登記記録の閉鎖等,0,2025-09-05,2025-09-02,有限会社さくらライス,,有限会社,栃木県,宇都宮市,桜２丁目２番５号,,09,201,3200043,,,2025-09-02,清算の結了等,,,2015-10-05,1,,,,,サクラライス,0
1848,7070005001204,登記記録の閉鎖等,0,2025-09-05,2025-09-02,特定非営利活動法人群馬情報バンク,,その他の設立登記法人,群馬県,前橋市,鳥取町７８６番地の２,,10,201,3710131,,,2025-09-02,清算の結了等,,,2015-10-05,1,,,,,グンマジョウホウバンク,0
1853,7080401017934,登記記録の閉鎖等,0,2025-09-05,2025-09-01,ＹＫファシリティ株式会社,,株式会社,静岡県,浜松市中央区,神立町１１９番地の４,,22,138,4300801,,,2025-09-01,清算の結了等,,,2015-10-05,1,,,,,ワイケーファシリティ,0
1860,7110001025004,登記記録の閉鎖等,0,2025-09-05,2025-08-27,株式会社中越米穀,,株式会社,新潟県,見附市,細越１丁目５番４０号,,15,211,9540054,,,2025-08-27,清算の結了等,,,2015-10-05,1,,,,,チュウエツベイコク,0
1862,7120001077127,登記記録の閉鎖等,0,2025-09-05,2025-08-26,かわきゅうフアッションシステム株式会社,,株式会社,大阪府,大阪市中央区,上本町西３丁目１番６号,,27,128,5420062,,,2025-08-26,清算の結了等,,,2015-10-05,1,,,,,,0
1864,7120001108625,登記記録の閉鎖等,0,2025-09-05,2025-09-01,株式会社ＨＦＩ,,株式会社,大阪府,大阪市港区,夕凪２丁目１８番４号西森ビル５階,,27,107,5520004,,,2025-09-01,合併による解散等,9120001107716,令和７年９月１日大阪市港区夕凪二丁目１８番４号株式会社Ａ＆Ｓ（9120001107716）に合併し解散,2015-10-05,1,,,,,エイチエフアイ,0
1880,7120101065923,登記記録の閉鎖等,0,2025-09-05,2025-08-28,株式会社ウェルカム・ライフ,,株式会社,大阪府,松原市,柴垣２丁目４８５番地９北川ビル１Ｆ,,27,217,5800017,,,2025-08-28,清算の結了等,,,2022-07-13,1,,,,,ウェルカムドットライフ,0
1882,7122001023390,登記記録の閉鎖等,0,2025-09-05,2025-08-27,株式会社庚伸,,株式会社,大阪府,東大阪市,高井田元町１丁目９番６号,,27,227,5770054,,,2025-08-27,清算の結了等,,,2015-10-05,1,,,,,コウシン,0
1905,7170005005772,登記記録の閉鎖等,0,2025-09-05,2025-09-03,医療法人辻内医院,00045924,その他の設立登記法人,和歌山県,東牟婁郡串本町,串本２２８１番地,,30,428,6493503,,,2025-09-03,清算の結了等,,,2015-10-05,1,,,,,ツジウチイイン,0
1920,7190002008058,登記記録の閉鎖等,0,2025-09-05,2025-09-01,有限会社三重建材,,有限会社,三重県,鈴鹿市,寺家２丁目２２番１７号,,24,207,5100254,,,2025-09-01,清算の結了等,,,2015-10-05,1,,,,,ミエケンザイ,0
1937,7260001026945,登記記録の閉鎖等,0,2025-09-05,2025-07-01,旭メガソーラー山上発電株式会社,,株式会社,岡山県,岡山市南区,西市４３３番地４,,33,104,7000953,,,2025-07-01,合併による解散等,3260001027179,令和７年７月１日岡山市南区西市４３３番地４旭メガソーラー建部田地子発電株式会社（3260001027179）に合併し解散,2015-10-05,1,,,,,アサヒメガソーラーヤマノウエハツデン,0
1959,7360003001201,登記記録の閉鎖等,0,2025-09-05,2025-09-01,合資会社丸清商会,,合資会社,沖縄県,那覇市,安里２丁目９番８号,,47,201,9020067,,,2025-09-01,清算の結了等,,,2015-10-05,1,,,,,,0
1960,7360003013964,登記記録の閉鎖等,0,2025-09-05,2025-08-13,果物から始まる合同会社,,合同会社,沖縄県,那覇市,牧志２丁目１７－２７－４０１,,47,201,9000013,,,2025-08-13,清算の結了等,,,2024-05-10,1,,,,,クダモノカラハジマル,0
1966,7370301002817,登記記録の閉鎖等,0,2025-09-05,2025-08-21,株式会社ＹＳ企画,,株式会社,宮城県,石巻市,新栄１丁目１３番地７,,04,202,9860004,,,2025-08-21,清算の結了等,,,2015-10-05,1,,,,,ワイエスキカク,0
1975,7430002011020,登記記録の閉鎖等,0,2025-09-05,2025-08-22,有限会社関根工業,,有限会社,北海道,札幌市北区,新琴似八条１５丁目１０番１８号,,01,102,0010908,,,2025-08-22,清算の結了等,,,2015-10-05,1,,,,,セキネコウギョウ,0
1984,7490005003967,登記記録の閉鎖等,0,2025-09-05,2025-07-29,地神社,,その他の設立登記法人,高知県,高岡郡津野町,三間川７５９番地,,39,411,7850208,,,2025-07-29,合併による解散等,2490005003996,令和７年７月２９日高知県高岡郡津野町三間川自１０２５番地至１０２７番地大本神社（2490005003996）に合併し解散,2015-10-05,1,,,,,ヂジンジャ,0
1990,8010001069555,登記記録の閉鎖等,0,2025-09-05,2025-08-20,株式会社ＫＴＫ,,株式会社,東京都,中央区,晴海３丁目８番１号,,13,102,1040053,,,2025-08-20,清算の結了等,,,2015-10-05,1,,,,,ケーティーケー,0
2010,8010101006994,登記記録の閉鎖等,0,2025-09-05,2025-09-03,株式会社Ｂｕｄｄｙ’ｓ,,株式会社,東京都,八王子市,台町２丁目１９番８号,,13,201,1930931,,,2025-09-03,清算の結了等,,,2015-10-05,1,,,,,,0
2017,8010403011494,登記記録の閉鎖等,0,2025-09-05,2025-09-01,エムリーシング合同会社,,合同会社,東京都,渋谷区,上原３丁目２７番２号,,13,113,1510064,,,2025-09-01,清算の結了等,,,2015-10-05,1,,,,,エムリーシング,0
2039,8011001147631,登記記録の閉鎖等,0,2025-09-05,2025-08-06,株式会社エルバークノア,,株式会社,東京都,渋谷区,渋谷３丁目１３－５,,13,113,1500002,,,2025-08-06,清算の結了等,,,2022-05-26,1,,,,,エルバークノア,0
2048,8011101065832,登記記録の閉鎖等,0,2025-09-05,2025-08-08,株式会社タイキマニア,,株式会社,東京都,新宿区,西新宿６丁目１６番６号,,13,104,1600023,,,2025-08-08,清算の結了等,,,2015-10-05,1,,,,,タイキマニア,0
2063,8011702003868,登記記録の閉鎖等,0,2025-09-05,2025-09-01,有限会社ケー・ディ・エス,,有限会社,東京都,江戸川区,平井３丁目２４番２５号,,13,123,1320035,,,2025-09-01,清算の結了等,,,2015-10-05,1,,,,,ケーディエス,0
2064,8012301000521,登記記録の閉鎖等,0,2025-09-05,2025-08-25,大久保電機株式会社,,株式会社,東京都,町田市,忠生２丁目１６番地３,,13,209,1940035,,,2025-08-25,清算の結了等,,,2015-10-05,1,,,,,オオクボデンキ,0
2069,8012801017429,登記記録の閉鎖等,0,2025-09-05,2025-08-25,株式会社ヒロカツハウジング,,株式会社,東京都,立川市,一番町２丁目３１番地の１７,,13,202,1900033,,,2025-08-25,清算の結了等,,,2016-08-03,1,,,,,ヒロカツハウジング,0
2094,8030001072367,登記記録の閉鎖等,0,2025-09-05,2025-08-29,エフィ株式会社,,株式会社,埼玉県,比企郡吉見町,東野１丁目２１番地１０,,11,347,3550110,,,2025-08-29,清算の結了等,,,2015-10-05,1,,,,,エフィ,0
2095,8030001145957,登記記録の閉鎖等,0,2025-09-05,2025-08-28,株式会社ＧＵＩＤＥ　ＳＩＧＮ,,株式会社,埼玉県,さいたま市浦和区,常盤３丁目１１番１３－６０４号,,11,107,3300061,,,2025-08-28,清算の結了等,,,2021-12-21,1,,,,,ガイドサイン,0
2099,8030002045529,登記記録の閉鎖等,0,2025-09-05,2025-08-28,有限会社福栄重機,,有限会社,埼玉県,草加市,青柳７丁目６８番３３号,,11,221,3400002,,,2025-08-28,清算の結了等,,,2015-10-05,1,,,,,フクエイジュウキ,0
2100,8030002084601,登記記録の閉鎖等,0,2025-09-05,2025-09-01,有限会社ホームネットワールド,,有限会社,埼玉県,さいたま市南区,大字大谷口５８０７番地４,,11,108,3360042,,,2025-09-01,清算の結了等,,,2015-10-05,1,,,,,ホームネットワールド,0
2101,8030002092208,登記記録の閉鎖等,0,2025-09-05,2025-08-29,有限会社岡田人形店,,有限会社,埼玉県,坂戸市,大字厚川１１番地２,,11,239,3500242,,,2025-08-29,清算の結了等,,,2015-10-05,1,,,,,オカダニンギョウテン,0
2128,8070002017433,登記記録の閉鎖等,0,2025-09-05,2025-09-02,有限会社坂本商店,,有限会社,群馬県,藤岡市,立石新田２８１番地の２,,10,209,3750003,,,2025-09-02,清算の結了等,,,2015-10-05,1,,,,,サカモトショウテン,0
2138,8080401005698,登記記録の閉鎖等,0,2025-09-05,2025-08-29,株式会社ヨシダソウゴウ,,株式会社,静岡県,浜松市中央区,元浜町３３番地の８,,22,138,4300942,,,2025-08-29,清算の結了等,,,2015-10-05,1,,,,,ヨシダソウゴウ,0
2160,8120002040124,登記記録の閉鎖等,0,2025-09-05,2025-09-01,有限会社ソーム,,有限会社,大阪府,大阪市住之江区,東加賀屋１丁目７番９－１２０６号,,27,125,5590012,,,2025-09-01,清算の結了等,,,2015-10-05,1,,,,,ソーム,0
2165,8120901025695,登記記録の閉鎖等,0,2025-09-05,2025-09-01,株式会社松尾製作所,,株式会社,兵庫県,尼崎市,田能５丁目３番１０－６０７号,,28,202,6610951,,,2025-09-01,清算の結了等,,,2015-10-05,1,,,,,マツオセイサクショ,0
2180,8140002041252,登記記録の閉鎖等,0,2025-09-05,2025-08-29,有限会社ジョブ建設,,有限会社,兵庫県,尼崎市,西川２丁目４３番５号,,28,202,6610966,,,2025-08-29,清算の結了等,,,2015-10-05,1,,,,,ジョブケンセツ,0
2190,8170002009239,登記記録の閉鎖等,0,2025-09-05,2025-09-02,有限会社エビスヤ,,有限会社,和歌山県,西牟婁郡白浜町,堅田２５００番地,,30,401,6492201,,,2025-09-02,清算の結了等,,,2015-10-05,1,,,,,エビスヤ,0
2195,8180001150083,登記記録の閉鎖等,0,2025-09-05,2025-09-02,株式会社Ｓｏｒｃｉｅｒｅ,,株式会社,愛知県,名古屋市中区,栄１丁目３番３号名古屋ヒルトンプラザ１７号,,23,106,4600008,,,2025-09-02,清算の結了等,,,2022-02-22,1,,,,,ソルシエール,0
2208,8220005001906,登記記録の閉鎖等,0,2025-09-05,2025-08-01,医療法人社団隆整会,,その他の設立登記法人,石川県,金沢市,野町１丁目３番５５号,,17,201,9218031,,,2025-08-01,合併による解散等,4220005002461,令和７年８月１日石川県白山市月橋町７２２番地１２医療法人社団新村病院（4220005002461）に合併し解散,2015-10-05,1,,,,,リュウセイカイ,0
2214,8240003005163,登記記録の閉鎖等,0,2025-09-05,2025-09-02,合同会社祝市,,合同会社,広島県,福山市,加茂町字粟根３７－２,,34,207,7202416,,,2025-09-02,清算の結了等,,,2021-06-18,1,,,,,シュクイチ,0
2216,8250002016573,登記記録の閉鎖等,0,2025-09-05,2025-09-03,河口建設有限会社,,有限会社,山口県,周南市,大字樋口１１４０番地,00002781,35,215,7450622,,,2025-09-03,清算の結了等,,,2015-10-05,1,,,,,カワグチケンセツ,0
2217,8260001026606,登記記録の閉鎖等,0,2025-09-05,2025-07-01,旭メガソーラー矢掛弥高山発電株式会社,,株式会社,岡山県,岡山市南区,西市４３３番地４,,33,104,7000953,,,2025-07-01,合併による解散等,3260001027179,令和７年７月１日岡山市南区西市４３３番地４旭メガソーラー建部田地子発電株式会社（3260001027179）に合併し解散,2015-10-05,1,,,,,アサヒメガソーラーヤカゲヤタカヤマハツデン,0
2241,8330001019255,登記記録の閉鎖等,0,2025-09-05,2025-08-25,株式会社明輝開発,,株式会社,熊本県,宇土市,古保里町７４９－７,,43,211,8690415,,,2025-08-25,清算の結了等,,,2015-10-05,1,,,,,メイキカイハツ,0
2242,8330002029253,登記記録の閉鎖等,0,2025-09-05,2025-08-25,有限会社山久企画,,有限会社,熊本県,天草市,枦宇戸町１７８６番地,,43,215,8630000,,,2025-08-25,清算の結了等,,,2015-10-05,1,,,,,ヤマキュウキカク,0
2245,8340002010583,登記記録の閉鎖等,0,2025-09-05,2025-09-01,有限会社若松,,有限会社,鹿児島県,鹿児島市,東千石町９番７号,,46,201,8920842,,,2025-09-01,合併による解散等,6340002007490,令和７年８月３１日鹿児島市高麗町２２番６号株式会社ニューバッグワカマツ（6340002007490）に合併し解散,2015-10-05,1,,,,,ワカマツ,0
2246,8340002018008,登記記録の閉鎖等,0,2025-09-05,2025-09-01,羽根田水産有限会社,,有限会社,鹿児島県,いちき串木野市,浦和町１７２番地の５,,46,219,8960036,,,2025-09-01,清算の結了等,,,2015-10-05,1,,,,,ハネダスイサン,0
2249,8350002009971,登記記録の閉鎖等,0,2025-09-05,2025-09-01,有限会社スマイルライフ,,有限会社,宮崎県,児湯郡高鍋町,大字北高鍋４５０３番地１,,45,401,8840002,,,2025-09-01,清算の結了等,,,2015-10-05,1,,,,,スマイルライフ,0
2254,8370002007585,登記記録の閉鎖等,0,2025-09-05,2025-08-21,有限会社サンライフ・メディカル,,有限会社,宮城県,仙台市泉区,南中山１丁目２７番地の１５２,,04,105,9813213,,,2025-08-21,清算の結了等,,,2015-10-05,1,,,,,サンライフメディカル,0
2256,8370302001164,登記記録の閉鎖等,0,2025-09-05,2025-08-20,有限会社境運輸,,有限会社,宮城県,石巻市,相野谷字本屋敷２番地,,04,202,9860101,,,2025-08-20,清算の結了等,,,2015-10-05,1,,,,,,0
2261,8420002019039,登記記録の閉鎖等,0,2025-09-05,2025-08-26,有限会社横田商会,,有限会社,青森県,三沢市,中央町４丁目３番１０号,,02,207,0330001,,,2025-08-26,清算の結了等,,,2015-10-05,1,,,,,ヨコタショウカイ,0
2264,8430001069604,登記記録の閉鎖等,0,2025-09-05,2025-09-01,株式会社サウザンド・アーム,,株式会社,北海道,札幌市北区,篠路町上篠路１１０番地１１９Ｈ　ａｎｄ　Ｍ　ｏｆｆｉｃｅ２階,,01,102,0028052,,,2025-09-01,清算の結了等,,,2015-10-05,1,,,,,サウザンドアーム,0
2267,8430002033006,登記記録の閉鎖等,0,2025-09-05,2025-08-20,有限会社ケーワイ,,有限会社,北海道,札幌市中央区,北四条西２６丁目２番１号,,01,101,0640824,,,2025-08-20,清算の結了等,,,2015-10-05,1,,,,,ケーワイ,0
2268,8430002050579,登記記録の閉鎖等,0,2025-09-05,2025-08-20,有限会社マルダイ電装工業,,有限会社,北海道,岩見沢市,東町一条８丁目１３６３番地２１,,01,210,0680013,,,2025-08-20,清算の結了等,,,2015-10-05,1,,,,,マルダイデンソウコウギョウ,0
2271,8440002008741,登記記録の閉鎖等,0,2025-09-05,2025-08-29,有限会社五島時計店,,有限会社,北海道,山越郡長万部町,字長万部１１５番地,,01,347,0493521,,,2025-08-29,清算の結了等,,,2015-10-05,1,,,,,ゴシマトケイテン,0
2275,8500001014305,登記記録の閉鎖等,0,2025-09-05,2025-09-01,三星ハウジング株式会社,,株式会社,愛媛県,四国中央市,三島宮川４丁目２番１８号,,38,213,7990404,,,2025-09-01,合併による解散等,7500001014207,令和７年９月１日愛媛県四国中央市三島宮川四丁目２番１８号井原工業株式会社（7500001014207）に合併し解散,2015-10-05,1,,,,,サンセイハウジング,0
2276,8500001014809,登記記録の閉鎖等,0,2025-09-05,2025-09-02,株式会社三好石油店,,株式会社,愛媛県,四国中央市,川之江町４０５８番地の７,,38,213,7990101,,,2025-09-02,清算の結了等,,,2015-10-05,1,,,,,ミヨシセキユテン,0
2288,9010002042097,登記記録の閉鎖等,0,2025-09-05,2025-09-01,有限会社建築工房高杉,,有限会社,東京都,調布市,西つつじケ丘１丁目１２番地２０,,13,208,1820006,,,2025-09-01,清算の結了等,,,2015-10-05,1,,,,,ケンチクコウボウタカスギ,0
2291,9010003029507,登記記録の閉鎖等,0,2025-09-05,2025-08-18,ＭＫＴＧジャパン合同会社,,合同会社,東京都,千代田区,平河町２丁目５番３号,,13,101,1020093,,,2025-08-18,清算の結了等,,,2019-03-18,1,,,,,エムケーティージージャパン,0
2298,9010005038308,登記記録の閉鎖等,0,2025-09-05,2025-08-15,一般社団法人ＡＰＬＳ鶴ヶ島,,その他の設立登記法人,東京都,千代田区,丸の内１丁目４番１号東京共同会計事務所内,,13,101,1000005,,,2025-08-15,清算の結了等,,,2024-05-14,1,,,,,アプルスツルガシマ,0
2302,9010401110405,登記記録の閉鎖等,0,2025-09-05,2025-09-01,株式会社Ｏｒｂ,,株式会社,東京都,品川区,上大崎３丁目１番１号,,13,109,1410021,,,2025-09-01,合併による解散等,8011001073076,令和７年９月１日東京都品川区上大崎三丁目１番１号株式会社トラストバンク（8011001073076）に合併し解散,2015-10-05,1,,,,,オーブ,0
2313,9010501003797,登記記録の閉鎖等,0,2025-09-05,2025-08-25,株式会社後藤,,株式会社,東京都,台東区,元浅草３丁目３番１１号,,13,106,1110041,,,2025-08-25,清算の結了等,,,2015-10-05,1,,,,,ゴトウ,0
2355,9011505002595,登記記録の閉鎖等,0,2025-09-05,2025-09-01,税理士法人ＵＢ,,その他の設立登記法人,東京都,北区,田端新町１丁目２２番１４号,,13,117,1140012,,,2025-09-01,清算の結了等,,,2023-12-04,1,,,,,ユービー,0
2362,9012401039228,登記記録の閉鎖等,0,2025-09-05,2025-09-02,Ｔ＆Ｔホールディングス株式会社,,株式会社,神奈川県,川崎市多摩区,長沢４丁目３２番地１４－４号,,14,135,2140035,,,2025-09-02,合併による解散等,4012301000780,令和７年８月２６日東京都町田市玉川学園七丁目１番地６号ＪＵＮ玉川学園前２０１株式会社惠神（4012301000780）に合併し解散,2022-05-26,1,,,,,ティーアンドティーホールディングス,0
2364,9012701015861,登記記録の閉鎖等,0,2025-09-05,2025-08-21,株式会社ハイカレント,,株式会社,東京都,小平市,花小金井南町３丁目３４番３０号,,13,211,1870003,,,2025-08-21,清算の結了等,,,2020-04-22,1,,,,,ハイカレント,0
2369,9013301002713,登記記録の閉鎖等,0,2025-09-05,2025-08-22,株式会社空間設計,,株式会社,東京都,豊島区,高田３丁目１０番１２－２０３号,,13,116,1710033,,,2025-08-22,清算の結了等,,,2015-10-05,1,,,,,,0
2387,9021001006620,登記記録の閉鎖等,0,2025-09-05,2025-07-31,ナガエンタプライズ株式会社,,株式会社,神奈川県,茅ヶ崎市,矢畑１２２２番地,,14,207,2530085,,,2025-07-31,合併による解散等,8021001008064,令和７年７月１日東京都港区浜松町一丁目８番６号永田通商株式会社（8021001008064）に合併し解散,2015-10-05,1,,,,,ナガエンタプライズ,0
2407,9040002017889,登記記録の閉鎖等,0,2025-09-05,2025-08-08,有限会社浅尾計画事務所,,有限会社,千葉県,習志野市,藤崎３丁目３５番２号,,12,216,2750017,,,2025-08-08,清算の結了等,,,2015-10-05,1,,,,,アサオケイカクジムショ,0
2418,9060001029850,登記記録の閉鎖等,0,2025-09-05,2025-09-01,林虎彦物語製作株式会社,,株式会社,栃木県,宇都宮市,野沢町３番地７,,09,201,3200071,,,2025-09-01,合併による解散等,8060002007922,令和７年９月１日栃木県宇都宮市野沢町３番地７双葉企画株式会社（8060002007922）に合併し解散,2017-10-05,1,,,,,ハヤシトラヒコモノガタリセイサク,0
2427,9120001010036,登記記録の閉鎖等,0,2025-09-05,2025-09-01,新晃トレーディング株式会社,,株式会社,大阪府,大阪市東住吉区,山坂１丁目５番１６号,,27,121,5460035,,,2025-09-01,合併による解散等,7120001081954,令和７年９月１日大阪市東住吉区山坂一丁目５番１６号新晃電機株式会社（7120001081954）に合併し解散,2015-10-05,1,,,,,シンコウトレーディング,0
2428,9120001065419,登記記録の閉鎖等,0,2025-09-05,2025-09-02,助六食品株式会社,,株式会社,愛媛県,松山市,太山寺町９７０番地,,38,201,7992662,,,2025-09-02,清算の結了等,,,2015-10-05,1,,,,,スケロクショクヒン,0
2431,9120001130247,登記記録の閉鎖等,0,2025-09-05,2025-09-01,株式会社山王ホールディングス,,株式会社,大阪府,大阪市浪速区,湊町１丁目２番３号マルイト難波ビル,,27,111,5560017,,,2025-09-01,合併による解散等,4120001070679,令和７年９月１日大阪市浪速区湊町一丁目２番３号マルイト難波ビルマルイト株式会社（4120001070679）に合併し解散,2015-10-05,1,,,,,サンノウホールディングス,0
2432,9120001137515,登記記録の閉鎖等,0,2025-09-05,2025-09-01,株式会社楽,,株式会社,大阪府,大阪市旭区,太子橋３丁目１３番７号,,27,117,5350001,,,2025-09-01,清算の結了等,,,2015-10-05,1,,,,,ラク,0
2461,9130002001025,登記記録の閉鎖等,0,2025-09-05,2025-08-26,有限会社田尻謙工務店,00036822,有限会社,京都府,京都市右京区,嵯峨野南浦町２５番地の７,,26,108,6168324,,,2025-08-26,清算の結了等,,,2015-10-05,1,,,,,タジリケンコウムテン,0
2465,9140001051334,登記記録の閉鎖等,0,2025-09-05,2025-09-01,株式会社リンクエフ,,株式会社,兵庫県,神戸市垂水区,神陵台４丁目１番５０－１０４号,,28,108,6550041,,,2025-09-01,清算の結了等,,,2015-10-05,1,,,,,リンクエフ,0
2467,9140001120304,登記記録の閉鎖等,0,2025-09-05,2025-08-29,株式会社岡田コーヒーストア,,株式会社,兵庫県,三木市,志染町中自由が丘２丁目５１番地１０７,,28,215,6730552,,,2025-08-29,清算の結了等,,,2021-02-04,1,Okada Coffee Store Company,Hyogo,"2-51-107, Miki shi shijimichou nakajiyuugaoka",,オカダコーヒーストア,0
2470,9140002014711,登記記録の閉鎖等,0,2025-09-05,2025-09-02,有限会社大喜商会,,有限会社,兵庫県,加古郡播磨町,南大中３丁目１２番２４－１号,,28,382,6750147,,,2025-09-02,清算の結了等,,,2015-10-05,1,,,,,ダイキショウカイ,0
2473,9160001007656,登記記録の閉鎖等,0,2025-09-05,2025-09-01,株式会社ツルヤ,,株式会社,滋賀県,長浜市,八幡東町３０５番地,,25,203,5260031,,,2025-09-01,清算の結了等,,,2015-10-05,1,,,,,ツルヤ,0
2500,9220003003151,登記記録の閉鎖等,0,2025-09-05,2025-09-02,合同会社ｅｏ,,合同会社,石川県,金沢市,黒田１丁目１番地２,,17,201,9218051,,,2025-09-02,清算の結了等,,,2021-11-16,1,,,,,,0
2501,9230002014611,登記記録の閉鎖等,0,2025-09-05,2025-09-02,有限会社てひと,,有限会社,富山県,富山市,水橋狐塚７２番地２５,,16,201,9390534,,,2025-09-02,清算の結了等,,,2015-10-05,1,,,,,テヒト,0
2502,9240002005964,登記記録の閉鎖等,0,2025-09-05,2025-09-02,有限会社五興工業,,有限会社,広島県,広島市中区,西川口町１９番２４号,,34,101,7300846,,,2025-09-02,清算の結了等,,,2015-10-05,1,,,,,ゴコウコウギョウ,0
2506,9260001026605,登記記録の閉鎖等,0,2025-09-05,2025-07-01,旭メガソーラー御津発電株式会社,,株式会社,岡山県,岡山市南区,西市４３３番地４,,33,104,7000953,,,2025-07-01,合併による解散等,3260001027179,令和７年７月１日岡山市南区西市４３３番地４旭メガソーラー建部田地子発電株式会社（3260001027179）に合併し解散,2015-10-05,1,,,,,アサヒメガソーラーミツハツデン,0
2507,9260001027710,登記記録の閉鎖等,0,2025-09-05,2025-07-01,旭メガソーラー宇部際波発電株式会社,,株式会社,岡山県,岡山市南区,西市４３３番地４,,33,104,7000953,,,2025-07-01,合併による解散等,3260001027179,令和７年７月１日岡山市南区西市４３３番地４旭メガソーラー建部田地子発電株式会社（3260001027179）に合併し解散,2015-10-05,1,,,,,アサヒメガソーラーウベキワナミハツデン,0
2508,9260002003727,登記記録の閉鎖等,0,2025-09-05,2025-08-29,有限会社コーヨー企画,,有限会社,岡山県,岡山市北区,寿町１１番２５号,,33,101,7000025,,,2025-08-29,清算の結了等,,,2015-10-05,1,,,,,コーヨーキカク,0
2539,9370001048654,登記記録の閉鎖等,0,2025-09-05,2025-08-22,株式会社ＫＩＳ,,株式会社,宮城県,塩竈市,錦町１２番２号,,04,203,9850024,,,2025-08-22,清算の結了等,,,2022-06-14,1,,,,,ケーアイエス,0
2554,9430001045496,登記記録の閉鎖等,0,2025-09-05,2025-08-20,株式会社みんなの会社,,株式会社,北海道,札幌市西区,二十四軒四条５丁目１０番１８－１４０５号,,01,107,0630804,,,2025-08-20,清算の結了等,,,2015-10-05,1,,,,,ミンナノカイシャ,0
2559,9450001001448,登記記録の閉鎖等,0,2025-09-05,2025-09-01,株式会社三和石材,,株式会社,北海道,旭川市,永山二条１９丁目４番１号,,01,204,0798412,,,2025-09-01,合併による解散等,2450001000935,令和７年９月１日北海道旭川市永山二条十九丁目４番１号株式会社杏栄（2450001000935）に合併し解散,2015-10-05,1,,,,,サンワセキザイ,0
2564,9490003000411,登記記録の閉鎖等,0,2025-09-05,2025-09-03,合資会社木戸竹葉堂薬局,,合資会社,高知県,四万十市,中村京町１丁目２番地,,39,210,7870021,,,2025-09-03,清算の結了等,,,2015-10-05,1,,,,,キドチクヨウドウヤッキョク,0
