sequenceNumber,corporateNumber,process,correct,updateDate,changeDate,name,nameImageId,kind,prefectureName,cityName,streetNumber,addressImageId,prefectureCode,cityCode,postCode,addressOutside,addressOutsideImageId,closeDate,closeCause,successorCorporateNumber,changeCause,assignmentDate,latest,enName,enPrefectureName,enCityName,enAddressOutside,furigana,hihyoji
5,1010001235535,新規,0,2023-05-23,2023-05-23,Ａｋａｙｓｈａ　Ｅｎｅｒｇｙ　Ｊａｐａｎ株式会社,,株式会社,東京都,千代田区,大手町１丁目６番１号大手町ビル１階－３階,,13,101,1000004,,,,,,,2023-05-23,1,,,,,アケイシャエナジージャパン,0
9,1010105002220,新規,0,2023-05-23,2023-05-23,一般社団法人Ｎ．Ｒ,,その他の設立登記法人,東京都,八王子市,散田町４丁目４－７エクセラン西八王子２０６,,13,201,1930832,,,,,,,2023-05-23,1,,,,,エヌアール,0
15,1010401174250,新規,0,2023-05-23,2023-05-23,株式会社ＫＫ　Ｇｅｎｅｒａｔｉｏｎ,,株式会社,東京都,港区,東麻布１丁目２９番１３号クラッシィスイート・ジオ東麻布１００４,,13,103,1060044,,,,,,,2023-05-23,1,,,,,ケイケイジェネレーション,0
16,1010401174498,新規,0,2023-05-23,2023-05-23,株式会社Ｄ２ホールディングス,,株式会社,東京都,港区,東新橋１丁目９番２号,,13,103,1050021,,,,,,,2023-05-23,1,,,,,ディーツーホールディングス,0
21,1010701044293,新規,0,2023-05-23,2023-05-23,株式会社ＳＡＫＵＲＡ‐ｌｉｎｋ,,株式会社,東京都,品川区,大井４丁目１０－１６－２Ｆ,,13,109,1400014,,,,,,,2023-05-23,1,,,,,サクラリンク,0
24,1010901053094,新規,0,2023-05-23,2023-05-23,株式会社Ｒｉｃｃａ,,株式会社,東京都,世田谷区,世田谷３丁目１９－１２－１０１,,13,112,1540017,,,,,,,2023-05-23,1,,,,,リッカ,0
25,1010902022461,新規,0,2023-05-23,2023-05-23,有限会社アキラワールド,,有限会社,東京都,世田谷区,駒沢２丁目２７番７号,,13,112,1540012,,,,,,,2023-05-23,1,,,,,,0
30,1011001154527,新規,0,2023-05-23,2023-05-23,株式会社ＷＩＬＬＢＡＴＯＮＳ,,株式会社,東京都,渋谷区,神宮前６丁目２３－４桑野ビル２階,,13,113,1500001,,,,,,,2023-05-23,1,,,,,ウィルバトンズ,0
31,1011001154543,新規,0,2023-05-23,2023-05-23,株式会社ＢＥＹＯＮＤ,,株式会社,東京都,渋谷区,神南１丁目２０－２第一清水ビル４Ｆ,,13,113,1500041,,,,,,,2023-05-23,1,,,,,ビヨンド,0
32,1011003016865,新規,0,2023-05-23,2023-05-23,合同会社ＳＩＮ,,合同会社,東京都,渋谷区,円山町５番４号フィールＡ渋谷８０７,,13,113,1500044,,,,,,,2023-05-23,1,,,,,サイン,0
33,1011003016873,新規,0,2023-05-23,2023-05-23,Ｔ５合同会社,,合同会社,東京都,渋谷区,神南１丁目９番４号,,13,113,1500041,,,,,,,2023-05-23,1,,,,,ティーファイブ,0
34,1011003016881,新規,0,2023-05-23,2023-05-23,合同会社ＡＣＥ,,合同会社,東京都,渋谷区,恵比寿西２丁目１７番１７号代官山眺めのいい家５０３,,13,113,1500021,,,,,,,2023-05-23,1,,,,,エース,0
36,1011005010081,新規,0,2023-05-23,2023-05-23,一般社団法人日本美指圧協会,,その他の設立登記法人,東京都,渋谷区,代々木２丁目２０番１５号,,13,113,1510053,,,,,,,2023-05-23,1,,,,,ニホンビシアツキョウカイ,0
40,1011103013069,新規,0,2023-05-23,2023-05-23,合同会社トイロコーポレーション,,合同会社,東京都,新宿区,西新宿３丁目３番１３号西新宿水間ビル６階,,13,104,1600023,,,,,,,2023-05-23,1,,,,,トイロコーポレーション,0
41,1011105010659,新規,0,2023-05-23,2023-05-23,特定非営利活動法人ほしのひかり,,その他の設立登記法人,東京都,新宿区,西早稲田１丁目２３番１２号藤和シティホームズ西早稲田６０４,,13,104,1690051,,,,,,,2023-05-23,1,,,,,ホシノヒカリ,0
45,1011301028728,新規,0,2023-05-23,2023-05-23,株式会社ドリームファクトリー,,株式会社,東京都,杉並区,和田１丁目５９番６号ライフピアアモール２０１,,13,115,1660012,,,,,,,2023-05-23,1,,,,,ドリームファクトリー,0
54,1012403005994,新規,0,2023-05-23,2023-05-23,Ｅｎｅｒｇｙ　Ｐａｙ合同会社,,合同会社,東京都,武蔵野市,吉祥寺南町３丁目２９番１号武蔵野ガーデンハウスＡ１,,13,203,1800003,,,,,,,2023-05-23,1,,,,,エナジーペイ,0
56,1012801022369,新規,0,2023-05-23,2023-05-23,株式会社賢,,株式会社,東京都,立川市,富士見町４丁目１３番２５号,,13,202,1900013,,,,,,,2023-05-23,1,,,,,ケン,0
58,1013301050802,新規,0,2023-05-23,2023-05-23,杏林堂株式会社,,株式会社,東京都,豊島区,北大塚２丁目２番１３－７０１号,,13,116,1700004,,,,,,,2023-05-23,1,,,,,キョウリンドウ,0
86,1030003021790,新規,0,2023-05-23,2023-05-23,合同会社ｓｃｈ‐ｓｃｈ,,合同会社,埼玉県,所沢市,松が丘１丁目２１番地の５,,11,208,3591132,,,,,,,2023-05-23,1,,,,,スクスク,0
87,1030003021799,新規,0,2023-05-23,2023-05-23,合同会社ＴＥＭＰＯＳ,,合同会社,埼玉県,蕨市,塚越５丁目５０番１６号ハイツ西川口３０３号,00130577,11,223,3350002,,,,,,,2023-05-23,1,,,,,テンポス,0
92,1040001128463,新規,0,2023-05-23,2023-05-23,株式会社浜紫,,株式会社,千葉県,長生郡白子町,中里４３７０番地１４,,12,424,2994215,,,,,,,2023-05-23,1,,,,,ハマムラサキ,0
97,1050005013272,新規,0,2023-05-23,2023-05-23,一般社団法人サンティエ福祉会,,その他の設立登記法人,茨城県,那珂市,菅谷３９０４番地,,08,226,3110105,,,,,,,2023-05-23,1,,,,,サンティエフクシカイ,0
102,1060001036020,新規,0,2023-05-23,2023-05-23,デイジーランドホーム株式会社,,株式会社,栃木県,宇都宮市,海道町１１０番地オフィス増渕２０３,,09,201,3210971,,,,,,,2023-05-23,1,,,,,デイジーランドホーム,0
111,1100003007031,新規,0,2023-05-23,2023-05-23,Ｈｉｇｈａｒｔ‐Ｇａｌｌｅｒｙ，ＬＬＣ合同会社,,合同会社,長野県,北佐久郡軽井沢町,大字長倉字岩ノ沢３６７７番７,,20,321,3890111,,,,,,,2023-05-23,1,,,,,ハイアートギャラリーエルエルシー,0
113,1110001037558,新規,0,2023-05-23,2023-05-23,株式会社Ｄ＆Ｙ,,株式会社,新潟県,新潟市西区,坂井東３丁目２７番８号,,15,107,9502041,,,,,,,2023-05-23,1,,,,,ディアンドワイ,0
122,1120001255134,新規,0,2023-05-23,2023-05-23,株式会社ＴＥＲＲＡＳ　ＨＯＬＤＩＮＧＳ,,株式会社,大阪府,大阪市中央区,南本町３丁目６番７号,,27,128,5410054,,,,,,,2023-05-23,1,,,,,テラスホールディングス,0
123,1120001255142,新規,0,2023-05-23,2023-05-23,株式会社ＭＲ工業,,株式会社,大阪府,大阪市鶴見区,諸口２丁目１３番２１号,,27,124,5380051,,,,,,,2023-05-23,1,,,,,エムアールコウギョウ,0
124,1120001255159,新規,0,2023-05-23,2023-05-23,株式会社ＪＤＫ,,株式会社,大阪府,大阪市生野区,林寺２丁目５番２９号,,27,116,5440023,,,,,,,2023-05-23,1,,,,,ジェイディーケー,0
125,1120001255167,新規,0,2023-05-23,2023-05-23,株式会社星華,,株式会社,大阪府,大阪市西成区,岸里２丁目１０番１号,,27,122,5570041,,,,,,,2023-05-23,1,,,,,セイカ,0
131,1120101067586,新規,0,2023-05-23,2023-05-23,株式会社中商,,株式会社,大阪府,藤井寺市,津堂１丁目８番４９号,,27,226,5830037,,,,,,,2023-05-23,1,,,,,ナカショウ,0
135,1120903004654,新規,0,2023-05-23,2023-05-23,あいＴＲＡＤＩＮＧ合同会社,,合同会社,大阪府,豊能郡豊能町,希望ケ丘３丁目３２－１７,,27,321,5630214,,,,,,,2023-05-23,1,,,,,アイトレーディング,0
140,1130003008745,新規,0,2023-05-23,2023-05-23,雲祥合同会社,,合同会社,京都府,京都市東山区,大和大路通五条上る東入池殿町１９７,,26,105,6050848,,,,,,,2023-05-23,1,,,,,ウンショウ,0
142,1140001130269,新規,0,2023-05-23,2023-05-23,株式会社ソルステラ,,株式会社,兵庫県,姫路市,飾磨区細江２１３番地４１,,28,201,6728064,,,,,,,2023-05-23,1,,,,,ソルステラ,0
144,1140003019048,新規,0,2023-05-23,2023-05-23,合同会社くまさぶろう,,合同会社,兵庫県,神戸市北区,有野町有野３６４８－１１,,28,109,6511312,,,,,,,2023-05-23,1,,,,,クマサブロウ,0
148,1180001156418,新規,0,2023-05-23,2023-05-23,株式会社ＭＭサポート,,株式会社,愛知県,名古屋市中村区,本陣通３丁目５４番地の１エテルナ本陣２０１号,,23,105,4530041,,,,,,,2023-05-23,1,,,,,エムエムサポート,0
153,1180301037409,新規,0,2023-05-23,2023-05-23,株式会社ｄｒｅａＭｓ,,株式会社,愛知県,豊橋市,前田南町１丁目１番地５,,23,201,4400851,,,,,,,2023-05-23,1,,,,,ドリームス,0
154,1180303005710,新規,0,2023-05-23,2023-05-23,合同会社イマココ,,合同会社,愛知県,豊川市,御津町広石小前２９－１,,23,207,4410321,,,,,,,2023-05-23,1,,,,,イマココ,0
155,1200003005966,新規,0,2023-05-23,2023-05-23,合同会社ＵＮＰＡＳ,,合同会社,岐阜県,土岐市,土岐津町高山２８６番地の１０,,21,212,5095121,,,,,,,2023-05-23,1,,,,,アンパス,0
160,1240001061553,新規,0,2023-05-23,2023-05-23,株式会社曙電装,,株式会社,広島県,福山市,曙町３丁目１番４号,00130585,34,207,7210952,,,,,,,2023-05-23,1,,,,,アケボノデンソウ,0
163,1270005005553,新規,0,2023-05-23,2023-05-23,社会福祉法人カラフル,,その他の設立登記法人,鳥取県,米子市,皆生温泉３丁目１番７号,,31,202,6830001,,,,,,,2023-05-23,1,,,,,カラフル,0
167,1290001101619,新規,0,2023-05-23,2023-05-23,ＭＵＴＵＡＬ株式会社,,株式会社,福岡県,福岡市東区,原田４丁目２番２号３Ｆ,,40,131,8120063,,,,,,,2023-05-23,1,,,,,ミューチュアル,0
168,1290001101627,新規,0,2023-05-23,2023-05-23,株式会社イエローケア,,株式会社,福岡県,福岡市中央区,渡辺通５丁目１６－４エンクレスト天神ＩＩ５０７,00130584,40,133,8100004,,,,,,,2023-05-23,1,,,,,イエローケア,0
171,1290801029539,新規,0,2023-05-23,2023-05-23,株式会社おんがえし,,株式会社,福岡県,遠賀郡遠賀町,田園３丁目１３番１０号,,40,384,8114343,,,,,,,2023-05-23,1,,,,,オンガエシ,0
172,1290801029547,新規,0,2023-05-23,2023-05-23,株式会社しらゆき建設,,株式会社,福岡県,北九州市八幡西区,力丸町１０番２８号,,40,109,8070802,,,,,,,2023-05-23,1,,,,,シラユキケンセツ,0
185,1370001049981,新規,0,2023-05-23,2023-05-23,株式会社希水,,株式会社,宮城県,石巻市,渡波字黄金浜９８番地１１,,04,202,9862135,,,,,,,2023-05-23,1,,,,,キスイ,0
198,1420001018270,新規,0,2023-05-23,2023-05-23,ミライグループ株式会社,,株式会社,青森県,三戸郡南部町,大字上名久井字中町１２番地,,02,445,0390501,,,,,,,2023-05-23,1,,,,,ミライグループ,0
205,1430001089063,新規,0,2023-05-23,2023-05-23,株式会社アグリーダック,,株式会社,北海道,札幌市北区,篠路六条１丁目３番２７号ハイツリマン２Ｆ左,,01,102,0028026,,,,,,,2023-05-23,1,,,,,アグリーダック,0
206,1430001089162,新規,0,2023-05-23,2023-05-23,株式会社Ｈトラベルサービス,,株式会社,北海道,石狩市,花川南二条６丁目２５３番地,,01,235,0613202,,,,,,,2023-05-23,1,,,,,エイチトラベルサービス,0
209,1430003015067,新規,0,2023-05-23,2023-05-23,合同会社Ａｗｅｓｏｍｅ,,合同会社,北海道,札幌市中央区,南四条西２丁目８番地７,,01,101,0640804,,,,,,,2023-05-23,1,,,,,オーサム,0
219,1700150116367,新規,0,2023-05-23,2023-05-23,ｓｈｅｎ　ｚｈｅｎ　ｗｅｉ　ｌｕｏ　ｈｕａ　ｄｉａｎ　ｚｉ　ｙｏｕ　ｘｉａｎ　ｇｏｎｇ　ｓｉ,,外国会社等,,,,,,,,Ｒｏｏｍ　９１３Ａ，ｈｕａｍｅｉ　ｂｕｉｌｄｉｎｇ，ｈｕａｍｅｉ　ｒｏａｄ，ｄａｔｉａｎｙａｎｇ　ｉｎｄｕｓｔｒｉａｌ　ｚｏｎｅ，ｓｏｎｇｇａｎｇ，ｂａｏ　ａｎ　ｓｈｅｎｚｈｅｎ　ｇｕａｎｇｄｏｎｇ　ＣＮ,,,,,,2023-05-23,1,,,,,シェンゼェウェイルオフアデンシユウゲンコウシ,0
220,1700150116375,新規,0,2023-05-23,2023-05-23,ＣＯＯＬＥＲ　ＩＮＴＥＲＮＡＴＩＯＮＡＬ　ＣＯ．，ＬＩＭＩＴＥＤ,,外国会社等,,,,,,,,ＦＬＡＴ　１６０１，ＢＬＯＣＫ　Ｅ，ＣＨＵＮＧ　ＭＩＮＧ　ＣＯＵＲＴ，１　ＰＯ　ＳＨＵＮ　ＲＯＡＤ，ＴＳＥＵＮＧ　ＫＷＡＮ　Ｏ，ＮＥＷ　ＴＥＲＲＩＴＯＲＩＥＳ，ＨＯＮＧ　ＫＯＮＧ,,,,,,2023-05-23,1,,,,,クーラーインターナシヨナルカンパニーリミテツド,0
221,1700150116391,新規,0,2023-05-23,2023-05-23,Ｔｏｎｇｓｈａｎｘｉａｎ　Ｆｅｎｇｙｕｓｈａｎｇｍａｏ　Ｙｏｕｘｉａｎｇｏｎｇｓｉ,,外国会社等,,,,,,,,Ｒｏｏｍ－１０３，Ｎｏ．３０１，Ｂｕｉｌｄｉｎｇ　Ａ，Ｓｈｕｉｍｕ　Ｑｉｎｇｈｕａ，Ｈｕａｙｕａｎ　Ｒｏａｄ，Ｔｏｎｇｓｈａｎ　Ｃｏｕｎｔｙ,,,,,,2023-05-23,1,,,,,トンシャンシアンフェンギュシャンマオユウゲンコウシ,0
222,1700150116400,新規,0,2023-05-23,2023-05-23,ｈｅｎａｎ　ｚｉｍａｏｔｏｎｇ　ｇｏｎｇｙｉｎｇｌｉａｎｋｅｊｉ　ｙｏｕｘｉａｎｚｅｒｅｎｇｏｎｇｓｉ,,外国会社等,,,,,,,,Ｅａｓｔ　ｏｆ　ｔｈｅ　ｔｈｉｒｄ　ｆｌｏｏｒ，Ｎｏ．２４，Ｓｉｙｕａｎ　Ｓａｎｊｉｅ，Ｌｏｎｇｙｕａｎ　Ｓｔｒｅｅｔ，Ｗｕｚｈｉ　Ｃｏｕｎｔｙ，Ｊｉａｏｚｕｏ　Ｃｉｔｙ，Ｈｅｎａｎ　Ｐｒｏｖｉｎｃｅ，Ｃｈｉｎａ,,,,,,2023-05-23,1,,,,,ヘナンジマオトンゴンギンリアンケジユウゲンゼレンコウシ,0
226,2010001235501,新規,0,2023-05-23,2023-05-23,株式会社ＣＬＯＣＯコンサルティング,,株式会社,東京都,千代田区,神田錦町１丁目８番１１号錦町ビルディング１０階,,13,101,1010054,,,,,,,2023-05-23,1,,,,,クロココンサルティング,0
227,2010001235518,新規,0,2023-05-23,2023-05-23,株式会社ＨＣＢジャパン,,株式会社,東京都,中央区,日本橋富沢町１６番９号名門ビル,,13,102,1030006,,,,,,,2023-05-23,1,,,,,エイチシービージャパン,0
228,2010001235534,新規,0,2023-05-23,2023-05-23,ウアタイル株式会社,,株式会社,東京都,中央区,銀座１丁目１２－４Ｎ＆ＥＢＬＤ．７階,,13,102,1040061,,,,,,,2023-05-23,1,,,,,ウアタイル,0
231,2010005036722,新規,0,2023-05-23,2023-05-23,ワークシンク社会保険労務士法人,,その他の設立登記法人,東京都,千代田区,神田美倉町１０番地,,13,101,1010038,,,,,,,2023-05-23,1,,,,,ワークシンク,0
232,2010005036730,新規,0,2023-05-23,2023-05-23,黒岩ロジスティクス５特定目的会社,,その他の設立登記法人,東京都,千代田区,丸の内３丁目１番１号東京共同会計事務所内,,13,101,1000005,,,,,,,2023-05-23,1,,,,,クロイワロジスティクスファイブ,0
240,2010401174456,新規,0,2023-05-23,2023-05-23,株式会社Ｊｅｍｉｅｙｅ,,株式会社,東京都,港区,南青山３丁目１番３６号青山丸竹ビル６Ｆ,,13,103,1070062,,,,,,,2023-05-23,1,,,,,ジェミアイ,0
243,2010403030129,新規,0,2023-05-23,2023-05-23,合同会社ピクルス,,合同会社,東京都,港区,南青山３丁目１番３６号青山丸竹ビル６Ｆ,,13,103,1070062,,,,,,,2023-05-23,1,,,,,ピクルス,0
245,2010405022116,新規,0,2023-05-23,2023-05-23,ＮＧＹホテル特定目的会社,,その他の設立登記法人,東京都,港区,元赤坂１丁目１番７号,,13,103,1070051,,,,,,,2023-05-23,1,,,,,エヌジーワイホテル,0
252,2010703006704,新規,0,2023-05-23,2023-05-23,ＦＳジャパン合同会社,,合同会社,東京都,品川区,東品川２丁目２番２０号,,13,109,1400002,,,,,,,2023-05-23,1,,,,,エフエスジャパン,0
254,2010903008178,新規,0,2023-05-23,2023-05-23,ヴェルダ合同会社,,合同会社,東京都,世田谷区,太子堂４丁目１５番２３号,,13,112,1540004,,,,,,,2023-05-23,1,,,,,ヴェルダ,0
262,2011001154435,新規,0,2023-05-23,2023-05-23,株式会社Ｆｒｉｏｕｓ,,株式会社,東京都,渋谷区,渋谷２丁目１０番１６号スガハラビル３階,,13,113,1500002,,,,,,,2023-05-23,1,,,,,フリオス,0
263,2011001154492,新規,0,2023-05-23,2023-05-23,株式会社ＢｅｓＰｅｓ,,株式会社,東京都,渋谷区,道玄坂１丁目１０番８号渋谷道玄坂東急ビル２Ｆ－Ｃ,,13,113,1500043,,,,,,,2023-05-23,1,,,,,ベスペース,0
264,2011001154609,新規,0,2023-05-23,2023-05-23,株式会社Ｓｍａｒｔ　Ｂｒａｉｎ,,株式会社,東京都,渋谷区,道玄坂２丁目１５番１号ノア道玄坂１１０４,,13,113,1500043,,,,,,,2023-05-23,1,,,,,スマートブレイン,0
269,2011101102954,新規,0,2023-05-23,2023-05-23,大成クリーンエネルギー株式会社,,株式会社,東京都,新宿区,西新宿１丁目２５番１号,,13,104,1600023,,,,,,,2023-05-23,1,,,,,タイセイクリーンエネルギー,0
272,2011301028719,新規,0,2023-05-23,2023-05-23,ナイスファン株式会社,,株式会社,東京都,杉並区,高円寺南１丁目６－１０土佐谷ビル１階,,13,115,1660003,,,,,,,2023-05-23,1,,,,,ナイスファン,0
275,2011501029319,新規,0,2023-05-23,2023-05-23,株式会社本間大吉設計事務所,,株式会社,東京都,北区,田端新町１丁目２８番１－９０３号藤和シティホームズ西日暮里,,13,117,1140012,,,,,,,2023-05-23,1,,,,,ホンマダイキチセッケイジムショ,0
276,2011503005615,新規,0,2023-05-23,2023-05-23,合同会社Ｂｅｅｅｉｎｇ,,合同会社,東京都,北区,昭和町２丁目５番５号ＧｒａｃｅＮｏｒｔｈＴｏｋｙｏ６０２号室,,13,117,1140011,,,,,,,2023-05-23,1,,,,,ビーイング,0
277,2011601026819,新規,0,2023-05-23,2023-05-23,株式会社ユニバーサルイノベーション,,株式会社,東京都,練馬区,早宮１丁目４４番１８号,,13,120,1790085,,,,,,,2023-05-23,1,,,,,ユニバーサルイノベーション,0
284,2012303001829,新規,0,2023-05-23,2023-05-23,合同会社うさぎ,,合同会社,東京都,町田市,鶴間３丁目４－１グランベリーパークセントラルコート３階Ｌ３０２,,13,209,1940004,,,,,,,2023-05-23,1,,,,,ウサギ,0
288,2012805003199,新規,0,2023-05-23,2023-05-23,特定非営利活動法人日本きもの大学,,その他の設立登記法人,東京都,立川市,柴崎町３丁目６番１７号ラング・マンション立川５０４,,13,202,1900023,,,,,,,2023-05-23,1,,,,,ニホンキモノダイガク,0
291,2013303006636,新規,0,2023-05-23,2023-05-23,Ｓｅｎ８合同会社,,合同会社,東京都,豊島区,長崎１丁目１４番６号椎名町マンション６０１号室,,13,116,1710051,,,,,,,2023-05-23,1,,,,,センヤ,0
298,2020001151697,新規,0,2023-05-23,2023-05-23,ジャストアメニティホールディングス株式会社,,株式会社,神奈川県,横浜市中区,住吉町１丁目４番地,,14,104,2310013,,,,,,,2023-05-23,1,,,,,ジャストアメニティホールディングス,0
306,2020005016005,新規,0,2023-05-23,2023-05-23,行政書士法人Ｕｐｓｔａｒｔ,,その他の設立登記法人,神奈川県,横浜市瀬谷区,本郷４丁目２番地３,,14,114,2460015,,,,,,,2023-05-23,1,,,,,アップスタート,0
319,2040001128537,新規,0,2023-05-23,2023-05-23,株式会社ヴンダーカンマー,,株式会社,千葉県,我孫子市,我孫子３丁目１８番７－４１２号セントラルコート我孫子,,12,222,2701166,,,,,,,2023-05-23,1,,,,,ヴンダーカンマー,0
324,2040003022671,新規,0,2023-05-23,2023-05-23,合同会社エングレイブ,,合同会社,千葉県,船橋市,新高根６丁目１７－７－１,,12,204,2740814,,,,,,,2023-05-23,1,,,,,エングレイブ,0
325,2040005022001,新規,0,2023-05-23,2023-05-23,一般社団法人キャリアラボ青い花,,その他の設立登記法人,千葉県,東金市,東金７２３番地タニノイ店舗２０２,,12,213,2830802,,,,,,,2023-05-23,1,,,,,キャリアラボアオイハナ,0
328,2050005013271,新規,0,2023-05-23,2023-05-23,一般社団法人ネコスペ事務局,,その他の設立登記法人,茨城県,つくば市,学園南３丁目５６番地７,,08,220,3050818,,,,,,,2023-05-23,1,,,,,ネコスペジムキョク,0
331,2070001040474,新規,0,2023-05-23,2023-05-23,ＭＭＲ　ＴＲＡＤＩＮＧ株式会社,,株式会社,群馬県,太田市,小舞木町２３９番地１アンビーシーナナ２２１号,,10,205,3730818,,,,,,,2023-05-23,1,,,,,エムエムアールトレーディング,0
342,2100001036428,新規,0,2023-05-23,2023-05-23,エイトク通商株式会社,,株式会社,長野県,東御市,鞍掛９２６番地４,,20,219,3890502,,,,,,,2023-05-23,1,,,,,エイトクツウショウ,0
350,2110001037557,新規,0,2023-05-23,2023-05-23,株式会社タカヤマ,,株式会社,新潟県,長岡市,金沢２丁目９番１４号,,15,202,9400135,,,,,,,2023-05-23,1,,,,,タカヤマ,0
352,2110003005058,新規,0,2023-05-23,2023-05-23,ｓｉ合同会社,,合同会社,新潟県,新潟市中央区,一番堀通町３４０番地２ザ・パーク一番堀２０３号室,,15,103,9518132,,,,,,,2023-05-23,1,,,,,エスアイ,0
362,2120001255075,新規,0,2023-05-23,2023-05-23,株式会社大聖エステート,,株式会社,大阪府,大阪市中央区,伏見町２丁目６番２号２０５号,,27,128,5410044,,,,,,,2023-05-23,1,,,,,ダイセイエステート,0
363,2120001255141,新規,0,2023-05-23,2023-05-23,株式会社アドバンス・インターナショナル,,株式会社,大阪府,大阪市西区,西本町１丁目２番１４号岡島ビル,,27,106,5500005,,,,,,,2023-05-23,1,,,,,アドバンスインターナショナル,0
366,2120005023635,新規,0,2023-05-23,2023-05-23,一般社団法人Ｎｉｈｔ,,その他の設立登記法人,大阪府,大阪市北区,梅田１丁目２番２号大阪駅前第２ビル１２－１２,,27,127,5300001,,,,,,,2023-05-23,1,,,,,ニフト,0
370,2120101067585,新規,0,2023-05-23,2023-05-23,株式会社ｉＬｉｖｅＸ,,株式会社,大阪府,堺市堺区,旭通２番２号,,27,141,5900055,,,,,,,2023-05-23,1,,,,,アイライブエックス,0
374,2120903004653,新規,0,2023-05-23,2023-05-23,ロッカ合同会社,,合同会社,大阪府,高槻市,真上町１丁目３－５シャンティ高槻７１０号室,,27,207,5691121,,,,,,,2023-05-23,1,,,,,ロッカ,0
376,2122001036983,新規,0,2023-05-23,2023-05-23,小倉ホールディングス株式会社,,株式会社,大阪府,八尾市,若林町２丁目１１５番地,,27,212,5810038,,,,,,,2023-05-23,1,,,,,オグラホールディングス,0
390,2140003019121,新規,0,2023-05-23,2023-05-23,ＴＨＴ合同会社,,合同会社,兵庫県,神戸市兵庫区,上沢通１丁目３－２－６０３,,28,105,6520046,,,,,,,2023-05-23,1,,,,,ティーエイチティー,0
400,2180001156417,新規,0,2023-05-23,2023-05-23,株式会社Ｐｒａｃｔｉｃａｌ　Ｅｄｕｃａｔｉｏｎ,,株式会社,愛知県,江南市,古知野町宮裏１６６－３,,23,217,4838279,,,,,,,2023-05-23,1,,,,,プラクティカルエデュケーション,0
401,2180003025256,新規,0,2023-05-23,2023-05-23,ＭＭ　Ｔｒａｄｅｒ合同会社,,合同会社,愛知県,名古屋市名東区,山の手１丁目６１９,,23,115,4650011,,,,,,,2023-05-23,1,,,,,エムエムトレイダー,0
403,2180005020222,新規,0,2023-05-23,2023-05-23,一般社団法人オール・カンナビノイド,,その他の設立登記法人,愛知県,名古屋市千種区,千代田橋２丁目８番２号三旺マンション千代田橋３０４号,,23,101,4640011,,,,,,,2023-05-23,1,,,,,オールカンナビノイド,0
406,2180303005718,新規,0,2023-05-23,2023-05-23,合名会社ＫＥＮ　ｐｌａｎｎｅｒ,,合名会社,愛知県,岡崎市,竜美南４丁目１５番地１５,,23,202,4440874,,,,,,,2023-05-23,1,,,,,ケンプランナー,0
409,2200003005965,新規,0,2023-05-23,2023-05-23,合同会社ベルフラワー,,合同会社,岐阜県,各務原市,新鵜沼台４丁目１６０番地,,21,213,5090122,,,,,,,2023-05-23,1,,,,,,0
412,2230001019849,新規,0,2023-05-23,2023-05-23,株式会社ジェネラリスト,,株式会社,富山県,富山市,南新町５番２４号,,16,201,9300054,,,,,,,2023-05-23,1,,,,,ジェネラリスト,0
422,2260001037971,新規,0,2023-05-23,2023-05-23,株式会社ＰＲＩＤＥ,,株式会社,岡山県,倉敷市,玉島阿賀崎２５１９番地３,,33,202,7138121,,,,,,,2023-05-23,1,,,,,プライド,0
424,2270001008781,新規,0,2023-05-23,2023-05-23,熙瑞産業株式会社,,株式会社,鳥取県,八頭郡八頭町,稲荷２２０番地６コーポＳ１０１号,,31,329,6800424,,,,,,,2023-05-23,1,,,,,キズイサンギョウ,0
428,2290001101626,新規,0,2023-05-23,2023-05-23,株式会社オールフライ,,株式会社,福岡県,福岡市中央区,渡辺通４丁目１－１ＲＪＲプレシア天神サウス１３０２,,40,133,8100004,,,,,,,2023-05-23,1,,,,,オールフライ,0
432,2290801029546,新規,0,2023-05-23,2023-05-23,Ｇｅｎｉｅ株式会社,,株式会社,福岡県,北九州市小倉北区,神岳２丁目１０番２３－６０３号,,40,106,8020045,,,,,,,2023-05-23,1,,,,,ジーニー,0
438,2330001030861,新規,0,2023-05-23,2023-05-23,株式会社母家,,株式会社,熊本県,合志市,御代志１７５０番地１２,,43,216,8611104,,,,,,,2023-05-23,1,,,,,オモヤ,0
440,2340001025596,新規,0,2023-05-23,2023-05-23,渉ビルド株式会社,,株式会社,鹿児島県,大島郡喜界町,大字中里１７３０コーラル団地Ｔ－１７,,46,529,8916203,,,,,,,2023-05-23,1,,,,,ワタリビルド,0
445,2350003004358,新規,0,2023-05-23,2023-05-23,合同会社Ｈｅｒｉｔａｇｅ,,合同会社,宮崎県,日南市,星倉１丁目６－５,,45,204,8892533,,,,,,,2023-05-23,1,,,,,ヘリテージ,0
455,2400001016259,新規,0,2023-05-23,2023-05-23,リヴィエ株式会社,,株式会社,岩手県,北上市,黒岩２０地割３５番地３６,,03,206,0240042,,,,,,,2023-05-23,1,,,,,リヴィエ,0
458,2410001013486,新規,0,2023-05-23,2023-05-23,ｈｉｔｒｅ株式会社,,株式会社,秋田県,北秋田市,下杉字田ノ沢１番地１３,,05,213,0184221,,,,,,,2023-05-23,1,,,,,ハイトル,0
462,2430001089161,新規,0,2023-05-23,2023-05-23,株式会社太田写真商会,,株式会社,北海道,室蘭市,高砂町１丁目２４番１２号,,01,205,0500072,,,,,,,2023-05-23,1,,,,,オオタシャシンショウカイ,0
463,2430003015066,新規,0,2023-05-23,2023-05-23,合同会社松森工業,,合同会社,北海道,札幌市清田区,平岡六条３丁目４番１０号,,01,110,0040876,,,,,,,2023-05-23,1,,,,,マツモリコウギョウ,0
464,2450003002335,新規,0,2023-05-23,2023-05-23,合同会社Ｋｉｎｄ,,合同会社,北海道,紋別市,大山町２丁目１８番１１号,,01,219,0940021,,,,,,,2023-05-23,1,,,,,カインド,0
468,2490005006900,新規,0,2023-05-23,2023-05-23,一般社団法人インディペンデント高知,,その他の設立登記法人,高知県,高知市,曙町１丁目６番５号,,39,201,7808072,,,,,,,2023-05-23,1,,,,,インディペンデントコウチ,0
469,2500001024945,新規,0,2023-05-23,2023-05-23,株式会社西条東部給食ＰＦＩサービス,,株式会社,愛媛県,西条市,ひうち６番地１２,,38,206,7930003,,,,,,,2023-05-23,1,,,,,サイジョウトウブキュウショクピーエフアイサービス,0
471,2700150116374,新規,0,2023-05-23,2023-05-23,ＴＡＩＹＵＡＮ　ＲＵＩＦＥＩＲＵＩＪＩＥ　Ｔｒａｄｅ　Ｃｏ．，ＬＴＤ,,外国会社等,,,,,,,,Ｎｏ．３０，Ｘｉｎｇｓｈｅｎｇ　Ｓｔｒｅｅｔ，Ｑｉｎｇｙｕａｎ　Ｔｏｗｎ，Ｑｉｎｇｙｕａｎ　Ｃｏｕｎｔｙ，Ｔａｉｙｕａｎ　Ｃｉｔｙ，Ｓｈａｎｘｉ　Ｐｒｏｖｉｎｃｅ,,,,,,2023-05-23,1,,,,,タイゲンリヒリケツトレートカンパニーリミテツド,0
472,2700150116390,新規,0,2023-05-23,2023-05-23,Ｓｈｅｎｚｈｅｎｓｈｉ　Ｃｈａｎｇｈｅｘｉｎ　Ｄｉａｎｚｉ　Ｙｏｕｘｉａｎｇｏｎｇｓｉ,,外国会社等,,,,,,,,ｎａｎｗａｎｊｉｅｄａｏ　ｂｕｌａｎｌｕ２１ｈａｏ　Ｌｉａｎｃｈｕａｎｇｋｅｊｉｙｕａｎ　ｅｒｑｉ　１８ｄｏｎｇ　１１０６　Ｌｏｎｇｇａｎｇｑｕ　Ｓｈｅｎｚｈｅｎ　Ｇｕａｎｇｄｏｎｇ,,,,,,2023-05-23,1,,,,,シンセンシチャンヘシンデンシユウゲンコウシ,0
473,2700150116399,新規,0,2023-05-23,2023-05-23,Ｓｈａｎｄｏｎｇ　Ｙｉｄｉｎｇｍｕｙｅ　Ｙｏｕｘｉａｎｇｏｎｇｓｉ,,外国会社等,,,,,,,,Ｙａｎｚｈｕａｎｇ　ｖｉｌｌａｇｅ，Ｐｕｌｉａｎｊｉ　Ｔｏｗｎ，Ｃａｏ　Ｃｏｕｎｔｙ，Ｈｅｚｅ　Ｃｉｔｙ，Ｓｈａｎｄｏｎｇ　Ｐｒｏｖｉｎｃｅ，Ｃｈｉｎａ,,,,,,2023-05-23,1,,,,,シャンドンイディンムエユウゲンコウシ,0
477,3010003040650,新規,0,2023-05-23,2023-05-23,ＢＣＴＲ　Ｊａｐａｎ合同会社,,合同会社,東京都,千代田区,丸の内１丁目１番１号パレスビル５階,,13,101,1000005,,,,,,,2023-05-23,1,,,,,ビーシーティーアールジャパン,0
491,3010401174422,新規,0,2023-05-23,2023-05-23,ヴォーテマン・コンピューター・ジャパン株式会社,,株式会社,東京都,港区,三田３丁目１番１９号第１２ジグマビルディング６階,,13,103,1080073,,,,,,,2023-05-23,1,,,,,ヴォーテマンコンピュータージャパン,0
504,3010801033987,新規,0,2023-05-23,2023-05-23,株式会社ＡＩテクノロジーズ,,株式会社,東京都,大田区,仲池上２丁目１９番１８号,,13,111,1460081,,,,,,,2023-05-23,1,,,,,エーアイテクノロジーズ,0
505,3010803004549,新規,0,2023-05-23,2023-05-23,合同会社Ｒ,,合同会社,東京都,大田区,久が原６丁目２７番２２－３０２号,,13,111,1460085,,,,,,,2023-05-23,1,,,,,アール,0
506,3010803004557,新規,0,2023-05-23,2023-05-23,合同会社プロセデ,,合同会社,東京都,大田区,蒲田４丁目１０番１４号１８０８,,13,111,1440052,,,,,,,2023-05-23,1,,,,,プロセデ,0
519,3011001154459,新規,0,2023-05-23,2023-05-23,株式会社Ｎｅｘｔ　Ｏｐｔｉｏｎ,,株式会社,東京都,目黒区,目黒本町１丁目１０番２４号,,13,110,1520002,,,,,,,2023-05-23,1,,,,,ネクストオプション,0
520,3011001154541,新規,0,2023-05-23,2023-05-23,株式会社Ｍ．Ｍ．Ｋ,,株式会社,東京都,渋谷区,渋谷２丁目６－２カノンパレス２０１,,13,113,1500002,,,,,,,2023-05-23,1,,,,,エムエムケー,0
521,3011001154558,新規,0,2023-05-23,2023-05-23,ＬｉｍＬｏｖｅ　ＪＰ株式会社,,株式会社,東京都,渋谷区,桜丘町２３番１７号シティコート桜丘４０８,,13,113,1500031,,,,,,,2023-05-23,1,,,,,リムラブジェーピー,0
522,3011001154566,新規,0,2023-05-23,2023-05-23,マーケティングパートナーズ株式会社,,株式会社,東京都,渋谷区,道玄坂１丁目１０－８渋谷道玄坂東急ビル２Ｆ－Ｃ,,13,113,1500043,,,,,,,2023-05-23,1,,,,,マーケティングパートナーズ,0
523,3011001154608,新規,0,2023-05-23,2023-05-23,Ｓｋｉｌｌｘ　Ｊａｐａｎ株式会社,,株式会社,東京都,渋谷区,恵比寿４丁目２０番３号恵比寿ガーデンプレイスタワー１８階,,13,113,1500013,,,,,,,2023-05-23,1,,,,,スキレックスジャパン,0
524,3011003016863,新規,0,2023-05-23,2023-05-23,ローラボ合同会社,,合同会社,東京都,渋谷区,道玄坂１丁目１０番８号渋谷道玄坂東急ビル２Ｆ－Ｃ,,13,113,1500043,,,,,,,2023-05-23,1,,,,,ローラボ,0
530,3011103013075,新規,0,2023-05-23,2023-05-23,ピットエージェント合同会社,,合同会社,東京都,新宿区,水道町３－１４,,13,104,1620811,,,,,,,2023-05-23,1,,,,,ピットエージェント,0
531,3011201024651,新規,0,2023-05-23,2023-05-23,バーチャルＡＩ工房株式会社,,株式会社,東京都,中野区,野方１丁目３５－８小久保ビル１０３,,13,114,1650027,,,,,,,2023-05-23,1,,,,,バーチャルエーアイコウボウ,0
535,3011403004006,新規,0,2023-05-23,2023-05-23,合同会社メディア,,合同会社,東京都,板橋区,新河岸３丁目８番８－３０１号,,13,119,1750081,,,,,,,2023-05-23,1,,,,,メディア,0
537,3011501029318,新規,0,2023-05-23,2023-05-23,株式会社祖峰,,株式会社,東京都,北区,赤羽西１丁目７番１号,,13,117,1150055,,,,,,,2023-05-23,1,,,,,ソホウ,0
538,3011503005614,新規,0,2023-05-23,2023-05-23,合同会社ＳＩＡＯＲＢ,,合同会社,東京都,北区,田端６丁目６番１６号ＬａＣｏｕｒ－２０１号,,13,117,1140014,,,,,,,2023-05-23,1,,,,,シアオーブ,0
541,3011801042433,新規,0,2023-05-23,2023-05-23,順為物産株式会社,,株式会社,東京都,葛飾区,四つ木５丁目２３番１４号メゾン・ノワ４Ｃ,,13,122,1240011,,,,,,,2023-05-23,1,,,,,ジュンイブッサン,0
543,3013103001233,新規,0,2023-05-23,2023-05-23,合同会社ａｎｊｙｕ,,合同会社,東京都,あきる野市,秋留１丁目５番地１－１１１号,,13,228,1970828,,,,,,,2023-05-23,1,,,,,アンジュ,0
548,3013301050809,新規,0,2023-05-23,2023-05-23,銀烈株式会社,,株式会社,東京都,豊島区,南大塚１丁目５１－１８－１０３号室,,13,116,1700005,,,,,,,2023-05-23,1,,,,,ギンレツ,0
558,3020001151721,新規,0,2023-05-23,2023-05-23,株式会社ＫＡＷＡＩＩＮＯＩ,,株式会社,神奈川県,横浜市神奈川区,白幡仲町１５番６号ヴィラ山崎１０３号,,14,102,2210071,,,,,,,2023-05-23,1,,,,,カワイイノイ,0
572,3030001153997,新規,0,2023-05-23,2023-05-23,大宮明秀株式会社,,株式会社,埼玉県,さいたま市大宮区,仲町１丁目７１番地,,11,103,3300845,,,,,,,2023-05-23,1,,,,,オオミヤメイシュウ,0
573,3030001154013,新規,0,2023-05-23,2023-05-23,株式会社スターチス,,株式会社,埼玉県,戸田市,喜沢１丁目１４番地の５２,,11,224,3350013,,,,,,,2023-05-23,1,,,,,スターチス,0
574,3030001154021,新規,0,2023-05-23,2023-05-23,株式会社Ｓ‐ＴＥＣ,,株式会社,埼玉県,さいたま市西区,大字内野本郷６９３番地６３,,11,101,3310045,,,,,,,2023-05-23,1,,,,,エステック,0
575,3030001154046,新規,0,2023-05-23,2023-05-23,株式会社ＮｏＥＯＬ,,株式会社,埼玉県,戸田市,南町８番３１－４０２号,,11,224,3350025,,,,,,,2023-05-23,1,,,,,ノーイーオーエル,0
599,3110003005057,新規,0,2023-05-23,2023-05-23,合同会社金島商事,,合同会社,新潟県,佐渡市,新穂大野１２２５番地１,,15,224,9520109,,,,,,,2023-05-23,1,,,,,カネシマショウジ,0
607,3120001255033,新規,0,2023-05-23,2023-05-23,株式会社レーチャル,,株式会社,大阪府,大阪市大正区,三軒家西３丁目４番１６号中山ビル３０４Ａ,,27,108,5510001,,,,,,,2023-05-23,1,,,,,レーチャル,0
608,3120001255116,新規,0,2023-05-23,2023-05-23,始豊株式会社,,株式会社,大阪府,大阪市城東区,野江３丁目２６番１１号,,27,118,5360006,,,,,,,2023-05-23,1,,,,,シホウ,0
609,3120001255132,新規,0,2023-05-23,2023-05-23,松明株式会社,,株式会社,大阪府,大阪市西成区,鶴見橋３丁目８番１８号四国荘２０２号室,,27,122,5570031,,,,,,,2023-05-23,1,,,,,マツアキ,0
612,3120003024097,新規,0,2023-05-23,2023-05-23,ＳＡＯ　ＶＡＮＧ合同会社,,合同会社,大阪府,大阪市西成区,梅南３丁目６番２２号グランソシエ花園ＩＩ４０７号,00130579,27,122,5570033,,,,,,,2023-05-23,1,,,,,サオヴァン,0
613,3120003024122,新規,0,2023-05-23,2023-05-23,Ｓｔａｒｄｕｓｔ　Ｇｅｎｅｒａｌ　Ｔｒａｄｉｎｇ合同会社,,合同会社,大阪府,枚方市,上野２丁目９番中宮第三４５棟５０９号室,,27,210,5731175,,,,,,,2023-05-23,1,,,,,スターダストジェネラルトレーディング,0
614,3120003024130,新規,0,2023-05-23,2023-05-23,合同会社ＡＧＧＲＥＳＳＯＲ,,合同会社,大阪府,大阪市旭区,大宮３丁目２３番１５号,,27,117,5350002,,,,,,,2023-05-23,1,,,,,アグレッサー,0
615,3120005023634,新規,0,2023-05-23,2023-05-23,一般社団法人ＬＡＧＡ,,その他の設立登記法人,大阪府,大阪市北区,南森町２丁目１－７－７０３,,27,127,5300054,,,,,,,2023-05-23,1,,,,,ラガ,0
620,3120101067584,新規,0,2023-05-23,2023-05-23,株式会社菊光ｕｎｉｖｅｒｓｅ,,株式会社,大阪府,大阪狭山市,半田２丁目３８０－１－１２,,27,231,5890011,,,,,,,2023-05-23,1,,,,,キッコウユニバース,0
621,3120103005195,新規,0,2023-05-23,2023-05-23,合同会社Ａｇｉｌｉｅｎｔ,,合同会社,大阪府,堺市南区,稲葉２丁３００５－１,,27,145,5900156,,,,,,,2023-05-23,1,,,,,アジャイレント,0
632,3140001130267,新規,0,2023-05-23,2023-05-23,株式会社ｎｉｃｏ　ｇｏｒｉ,,株式会社,兵庫県,加古川市,尾上町池田７８１番地の１７,,28,210,6750023,,,,,,,2023-05-23,1,,,,,ニコゴリ,0
633,3140001130283,新規,0,2023-05-23,2023-05-23,株式会社Ａｒｃｏ　Ｉｒｉｓ,,株式会社,兵庫県,神戸市長田区,二番町１丁目１０,,28,106,6530012,,,,,,,2023-05-23,1,,,,,アルコイリス,0
638,3160001025060,新規,0,2023-05-23,2023-05-23,株式会社稲枝防除サービス,,株式会社,滋賀県,彦根市,稲里町１１０番地,,25,202,5211111,,,,,,,2023-05-23,1,,,,,イナエボウジョサービス,0
650,3200003005964,新規,0,2023-05-23,2023-05-23,合同会社十与一,,合同会社,岐阜県,大垣市,静里町１０３６番地１０,,21,202,5030983,,,,,,,2023-05-23,1,,,,,トヨイチ,0
665,3290001101609,新規,0,2023-05-23,2023-05-23,ＡＳＵＮＡ株式会社,,株式会社,福岡県,筑後市,大字野町７９番地２,,40,211,8330032,,,,,,,2023-05-23,1,,,,,アスナ,0
666,3290001101625,新規,0,2023-05-23,2023-05-23,株式会社ローズコタ,,株式会社,福岡県,福岡市早良区,西新５丁目１５－４０大産西新マンション１０１,,40,137,8140002,,,,,,,2023-05-23,1,,,,,ローズコタ,0
669,3290005019046,新規,0,2023-05-23,2023-05-23,土地家屋調査士法人赤坂オリエント事務所,,その他の設立登記法人,福岡県,福岡市中央区,赤坂１丁目１５番２７号,,40,133,8100042,,,,,,,2023-05-23,1,,,,,アカサカオリエントジムショ,0
672,3290801029545,新規,0,2023-05-23,2023-05-23,株式会社ＳＨＡＦＴ,,株式会社,福岡県,北九州市小倉北区,中津口１丁目１０番４５号シグナス１２０５号,,40,106,8020018,,,,,,,2023-05-23,1,,,,,,0
675,3310001018429,新規,0,2023-05-23,2023-05-23,株式会社ＬＥＯ,,株式会社,長崎県,西彼杵郡長与町,吉無田郷２０３５番地５,,42,307,8512126,,,,,,,2023-05-23,1,,,,,レオ,0
683,3350001018367,新規,0,2023-05-23,2023-05-23,株式会社ゼンシン,,株式会社,宮崎県,宮崎市,神宮東１丁目１番２９号ビッグバーンズマンションサンコート神宮東５１６号,,45,201,8800056,,,,,,,2023-05-23,1,,,,,ゼンシン,0
689,3370001049996,新規,0,2023-05-23,2023-05-23,株式会社ＳＨａｒＫ,,株式会社,宮城県,柴田郡柴田町,船岡東２丁目１５番７１号,,04,323,9891604,,,,,,,2023-05-23,1,,,,,シャーク,0
693,3380001033710,新規,0,2023-05-23,2023-05-23,株式会社エースポイント,,株式会社,福島県,郡山市,田村町徳定字下河原１７３番地マインドハート２０２号,,07,203,9631165,,,,,,,2023-05-23,1,,,,,エースポイント,0
697,3430001089160,新規,0,2023-05-23,2023-05-23,株式会社拓洋,,株式会社,北海道,虻田郡倶知安町,南六条西１丁目５番地１,,01,400,0440036,,,,,,,2023-05-23,1,,,,,タクヨウ,0
699,3430003015065,新規,0,2023-05-23,2023-05-23,合同会社ＲＩＳＥ,,合同会社,北海道,札幌市白石区,本通３丁目北３番３－８０１号,,01,104,0030027,,,,,,,2023-05-23,1,,,,,ライズ,0
700,3430003015073,新規,0,2023-05-23,2023-05-23,クリーンＳＴＡＹ合同会社,,合同会社,北海道,札幌市北区,新琴似七条２丁目１－３５,,01,102,0010907,,,,,,,2023-05-23,1,,,,,クリーンステイ,0
705,3700150116373,新規,0,2023-05-23,2023-05-23,ＳＨＡＮＸＩ　ＴＯＮＧＺＨＵＯ　Ｔｒａｄｅ　Ｃｏ．，ＬＴＤ,,外国会社等,,,,,,,,Ｒｏｏｍ　２１０３６，Ｎｏ．１６０　Ｍｅｉｊｉｎ　Ｎｏｒｔｈ　Ｓｔｒｅｅｔ，Ｑｉｎｇｙｕａｎ　Ｔｏｗｎ，Ｑｉｎｇｙｕａｎ　Ｃｏｕｎｔｙ，Ｔａｉｙｕａｎ　Ｃｉｔｙ，Ｓｈａｎｘｉ　Ｐｒｏｖｉｎｃｅ，Ｃｈｉｎａ,,,,,,2023-05-23,1,,,,,サンセイドウセツボウエキカンパニーリミテツド,0
706,3700150116381,新規,0,2023-05-23,2023-05-23,Ｖｏｎ　Ｂｕｎｄｉｔ　Ｃｏ．，Ｌｔｄ．,,外国会社等,,,,,,,,Ｎｏ．２０／５，Ｇｏｍａｒａｐａｔ　Ｒｏａｄ，Ｔａｌａｄ　Ｙａｉ　Ｓｕｂ－ｄｉｓｔｒｉｃｔ，Ｍｕｅａｎｇ　Ｐｈｕｋｅｔ　Ｄｉｓｔｒｉｃｔ，Ｐｈｕｋｅｔ　Ｐｒｏｖｉｎｃｅ,,,,,,2023-05-23,1,,,,,ボンバンディットカンパニーリミテッド,0
707,3700150116398,新規,0,2023-05-23,2023-05-23,Ａｎ　ｊｉ　ｙｏｕ　ｎｕｏ　ｋｅ　ｊｉａ　ｊｕ　ｙｏｕ　ｘｉａｎ　ｇｏｎｇ　ｓｉ,,外国会社等,,,,,,,,４ｔｈＦｌｏｏｒ，Ｎｏ．１４２６，Ｅａｓｔ　Ｓｅｃｔｉｏｎ　ｏｆ　ＳｕｎｓｈｉｎｅＡｖｅｎｕｅ，Ｄｉｐｕ　Ｓｔｒｅｅｔ，Ａｎｊｉ，Ｈｕｚｈｏｕ，Ｚｈｅｊｉａｎｇ，Ｃｈｉｎａ,,,,,,2023-05-23,1,,,,,アンジユノケジャジュユウゲンコウシ,0
716,4010001235433,新規,0,2023-05-23,2023-05-23,株式会社栄東,,株式会社,東京都,千代田区,神田和泉町１番地６の１インターナショナルビル７０２号,,13,101,1010024,,,,,,,2023-05-23,1,,,,,エイト,0
717,4010001235524,新規,0,2023-05-23,2023-05-23,株式会社ファン・エイド,,株式会社,東京都,中央区,日本橋茅場町１丁目１３番１３号,,13,102,1030025,,,,,,,2023-05-23,1,,,,,ファンエイド,0
735,4010401174487,新規,0,2023-05-23,2023-05-23,株式会社Ｒ．Ｔ．Ｉ,,株式会社,東京都,港区,南青山３丁目１番３６号青山丸竹ビル６Ｆ,,13,103,1070062,,,,,,,2023-05-23,1,,,,,アールティーアイ,0
736,4010401174537,新規,0,2023-05-23,2023-05-23,株式会社ブールエコ,,株式会社,東京都,港区,南青山３丁目１番３６号青山丸竹ビル６Ｆ,,13,103,1070062,,,,,,,2023-05-23,1,,,,,ブールエコ,0
743,4010601063143,新規,0,2023-05-23,2023-05-23,株式会社ＴＹＭｏｏＶＡ,,株式会社,東京都,江東区,新大橋２丁目６番８レクセルステージ東京１０１,,13,108,1350007,,,,,,,2023-05-23,1,,,,,ティワイムーバ,0
762,4011001154524,新規,0,2023-05-23,2023-05-23,株式会社富ヶ谷土地建物,,株式会社,東京都,渋谷区,富ヶ谷２丁目１３－１１－３０２,,13,113,1510063,,,,,,,2023-05-23,1,,,,,フジガヤトチタテモノ,0
763,4011001154549,新規,0,2023-05-23,2023-05-23,株式会社ピリカグループ,,株式会社,東京都,渋谷区,神宮前４丁目１８－１５－４０５,,13,113,1500001,,,,,,,2023-05-23,1,,,,,ピリカグループ,0
764,4011001154581,新規,0,2023-05-23,2023-05-23,株式会社聚点,,株式会社,東京都,渋谷区,神宮前１丁目１１番１１号,,13,113,1500001,,,,,,,2023-05-23,1,,,,,シュウテン,0
771,4011101102944,新規,0,2023-05-23,2023-05-23,株式会社佳都,,株式会社,東京都,新宿区,新宿２丁目１番７号サンパレス２号室,,13,104,1600022,,,,,,,2023-05-23,1,,,,,ケイト,0
774,4011201024659,新規,0,2023-05-23,2023-05-23,株式会社キャロルマネジメント,,株式会社,東京都,中野区,若宮１丁目８番１２号サザンシード１０５,,13,114,1650033,,,,,,,2023-05-23,1,,,,,キャロルマネジメント,0
776,4011203004089,新規,0,2023-05-23,2023-05-23,合同会社３Ｓ,,合同会社,東京都,中野区,弥生町３丁目３５－１９イクシア中野弥生町２０３号室,,13,114,1640013,,,,,,,2023-05-23,1,,,,,スリーエス,0
777,4011501029317,新規,0,2023-05-23,2023-05-23,Ｍｏｖｉｅ　Ｓｔｙｌｅ株式会社,,株式会社,東京都,北区,豊島４丁目２番９号アスプロス王子３０２号,,13,117,1140003,,,,,,,2023-05-23,1,,,,,ムービースタイル,0
779,4011601000879,新規,0,2023-05-23,2023-05-23,栄喜建設株式会社,,株式会社,東京都,練馬区,羽沢２丁目１番７号,,13,120,1760003,,,,,,,2023-05-23,1,,,,,エイキケンセツ,0
780,4011701026254,新規,0,2023-05-23,2023-05-23,株式会社カイク,,株式会社,東京都,江戸川区,西葛西６丁目２７番１７号Ｓ・Ｅスクウェア７０１,,13,123,1340088,,,,,,,2023-05-23,1,,,,,カイク,0
781,4011801042424,新規,0,2023-05-23,2023-05-23,ＡＫＡＬＡ株式会社,,株式会社,東京都,葛飾区,西亀有２丁目２７番１－２０２号,,13,122,1240002,,,,,,,2023-05-23,1,,,,,アカラ,0
782,4011801042432,新規,0,2023-05-23,2023-05-23,株式会社ダイモン,,株式会社,東京都,足立区,西新井栄町２丁目１０番１９号,,13,121,1230843,,,,,,,2023-05-23,1,,,,,ダイモン,0
785,4012801022366,新規,0,2023-05-23,2023-05-23,株式会社響,,株式会社,東京都,昭島市,武蔵野３丁目３番４－１０２号,,13,207,1960021,,,,,,,2023-05-23,1,,,,,ヒビキ,0
786,4013103001232,新規,0,2023-05-23,2023-05-23,合同会社ＡＮＤＧＡＴＨＥＲ　ＣＯＲＰＯＲＡＴＩＯＮ,,合同会社,東京都,あきる野市,草花２９０３－９,,13,228,1970802,,,,,,,2023-05-23,1,,,,,アンドギャザーコーポレーション,0
790,4020001151621,新規,0,2023-05-23,2023-05-23,株式会社貴浜商事,,株式会社,神奈川県,横浜市磯子区,森１丁目５番２１－３２４号,,14,107,2350023,,,,,,,2023-05-23,1,,,,,タカハマショウジ,0
796,4021003013124,新規,0,2023-05-23,2023-05-23,合同会社ＫＩＫＩＫＩ,,合同会社,神奈川県,鎌倉市,極楽寺２丁目１４番１号,,14,204,2480023,,,,,,,2023-05-23,1,,,,,キキキ,0
800,4030001153996,新規,0,2023-05-23,2023-05-23,株式会社青木設備,,株式会社,埼玉県,東松山市,大字下押垂２７９番地８,,11,212,3550041,,,,,,,2023-05-23,1,,,,,アオキセツビ,0
801,4030001154037,新規,0,2023-05-23,2023-05-23,ＰｒｏｊｅｃｔＫ株式会社,,株式会社,埼玉県,さいたま市岩槻区,大字小溝１１４７番地,,11,110,3390003,,,,,,,2023-05-23,1,,,,,プロジェクトケイ,0
802,4030001154053,新規,0,2023-05-23,2023-05-23,株式会社森不動産,,株式会社,埼玉県,草加市,両新田東町９６番地６,,11,221,3400026,,,,,,,2023-05-23,1,,,,,モリフドウサン,0
807,4030003021755,新規,0,2023-05-23,2023-05-23,星辰商事合同会社,,合同会社,埼玉県,川口市,飯塚１丁目１７番２４号ＯＵＹＯＵ,00130578,11,203,3320023,,,,,,,2023-05-23,1,,,,,セイシンショウジ,0
808,4030003021788,新規,0,2023-05-23,2023-05-23,合同会社Ａｒｃｏｂａｌｅｎｏ,,合同会社,埼玉県,さいたま市桜区,大字五関１３３番地７,,11,106,3380815,,,,,,,2023-05-23,1,,,,,アルコバレーノ,0
810,4030005021266,新規,0,2023-05-23,2023-05-23,埼玉食糧集荷商業協同組合,,その他の設立登記法人,埼玉県,羽生市,大字北荻島８４７番地８,,11,216,3480015,,,,,,,2023-05-23,1,,,,,サイタマショクリョウシュウカショウギョウ,0
817,4040001128493,新規,0,2023-05-23,2023-05-23,株式会社輝,,株式会社,千葉県,流山市,青田７９番地の５２,,12,220,2700112,,,,,,,2023-05-23,1,,,,,カガヤキ,0
818,4040001128527,新規,0,2023-05-23,2023-05-23,株式会社ジーオー・エクスプローラー,,株式会社,千葉県,白井市,冨士２２番地２,,12,232,2701432,,,,,,,2023-05-23,1,,,,,ジーオーエクスプローラー,0
819,4040001128535,新規,0,2023-05-23,2023-05-23,株式会社ヴァンテージポイント,,株式会社,千葉県,千葉市若葉区,愛生町１５７番地３,,12,104,2640031,,,,,,,2023-05-23,1,,,,,ヴァンテージポイント,0
826,4060001036018,新規,0,2023-05-23,2023-05-23,株式会社ＫＧ高等学院,,株式会社,栃木県,小山市,駅東通り１丁目５番９号増田ビル３Ｆ,,09,208,3230022,,,,,,,2023-05-23,1,,,,,ケージーコウトウガクイン,0
838,4100001036434,新規,0,2023-05-23,2023-05-23,前進株式会社,,株式会社,長野県,下伊那郡高森町,山吹８３２４番地２,,20,403,3993101,,,,,,,2023-05-23,1,,,,,ゼンシン,0
843,4100003007029,新規,0,2023-05-23,2023-05-23,合同会社オリーブとたまご,,合同会社,長野県,長野市,松代町松代１７６平林ビル１階北側,,20,201,3811231,,,,,,,2023-05-23,1,,,,,オリーブトタマゴ,0
861,4120001255107,新規,0,2023-05-23,2023-05-23,株式会社大和川地域活性化プロジェクト,,株式会社,大阪府,大阪市住吉区,苅田１０丁目１１番４号,,27,120,5580011,,,,,,,2023-05-23,1,,,,,ヤマトガワチイキカッセイカプロジェクト,0
862,4120001255115,新規,0,2023-05-23,2023-05-23,株式会社インフィニティ,,株式会社,大阪府,大阪市生野区,小路東４丁目３番１９号,,27,116,5440003,,,,,,,2023-05-23,1,,,,,インフィニティ,0
863,4120001255131,新規,0,2023-05-23,2023-05-23,Ｒｏｖｅｒ　Ｇｌｏｂａｌ株式会社,,株式会社,大阪府,大阪市中央区,北久宝寺町１丁目５番６号堺筋本町アーバンライフ４０３号室,,27,128,5410057,,,,,,,2023-05-23,1,,,,,ローバーグローバル,0
864,4120005023625,新規,0,2023-05-23,2023-05-23,特定非営利活動法人Ｌｉｎｋ,,その他の設立登記法人,大阪府,交野市,藤が尾３丁目９番１６号,,27,230,5760022,,,,,,,2023-05-23,1,,,,,リンク,0
867,4120101067583,新規,0,2023-05-23,2023-05-23,ビルドアップ株式会社,,株式会社,大阪府,藤井寺市,野中２丁目２１番地の４,,27,226,5830014,,,,,,,2023-05-23,1,,,,,ビルドアップ,0
870,4130003008750,新規,0,2023-05-23,2023-05-23,合同会社室町経営研究所,,合同会社,京都府,京都市下京区,室町通烏丸下ル鶏鉾町４９３ムーンバットビル７Ｆ,,26,106,6000000,,,,,,,2023-05-23,1,,,,,ムロマチケイエイケンキュウジョ,0
873,4140003019128,新規,0,2023-05-23,2023-05-23,ハッピー企画ＨＵＢ　ＴＯＮ　ＴＯＮ合同会社,,合同会社,兵庫県,豊岡市,中央町１８番１号,,28,209,6680033,,,,,,,2023-05-23,1,,,,,ハッピーキカクハヴトントン,0
879,4180001156415,新規,0,2023-05-23,2023-05-23,株式会社アイテツホールディングス,,株式会社,愛知県,名古屋市名東区,社台１丁目６７番地の３,,23,115,4650092,,,,,,,2023-05-23,1,,,,,アイテツホールディングス,0
881,4180003025246,新規,0,2023-05-23,2023-05-23,ｔｏ　ＧＲＡＣＥ合同会社,,合同会社,愛知県,名古屋市中川区,荒江町３５番１５号,,23,110,4540032,,,,,,,2023-05-23,1,,,,,トゥーグレイス,0
886,4180301037414,新規,0,2023-05-23,2023-05-23,ＡＮ　ＶＩＥＴ株式会社,,株式会社,愛知県,蒲郡市,形原町西中畑４番地９スイートベリー１０３,,23,214,4430104,,,,,,,2023-05-23,1,,,,,アンヴイット,0
890,4180303005716,新規,0,2023-05-23,2023-05-23,きさらぎ合同会社,,合同会社,愛知県,豊田市,日南町３丁目４３番地１ル・グラン日南１０２号,,23,211,4710032,,,,,,,2023-05-23,1,,,,,キサラギ,0
898,4200003005963,新規,0,2023-05-23,2023-05-23,合同会社スリーエム,,合同会社,岐阜県,岐阜市,旦島３丁目２番８号,,21,201,5020926,,,,,,,2023-05-23,1,,,,,スリーエム,0
906,4240001061559,新規,0,2023-05-23,2023-05-23,株式会社日希,,株式会社,広島県,福山市,引野町１１０３－１,,34,207,7210942,,,,,,,2023-05-23,1,,,,,ニッキ,0
912,4280003001732,新規,0,2023-05-23,2023-05-23,出雲いりすの丘合同会社,,合同会社,島根県,出雲市,北荒木１５５,,32,203,6930000,,,,,,,2023-05-23,1,,,,,イズモイリスノオカ,0
916,4290001101608,新規,0,2023-05-23,2023-05-23,株式会社ｗｉｔｈはあと,,株式会社,福岡県,福岡市博多区,対馬小路３番１３－１０２号,,40,132,8120020,,,,,,,2023-05-23,1,,,,,ウィズハアト,0
920,4290003013909,新規,0,2023-05-23,2023-05-23,ＮＯＸ合同会社,,合同会社,福岡県,福岡市博多区,博多駅前１丁目２３番１号ＰａｒｋＦｒｏｎｔ博多駅前１丁目５Ｆ‐Ｂ,,40,132,8120011,,,,,,,2023-05-23,1,,,,,ノックス,0
922,4290801029544,新規,0,2023-05-23,2023-05-23,株式会社Ｔａｎａｋａ　ｉｎｄｕｓｔｒｉｅｓ,,株式会社,福岡県,北九州市八幡西区,沖田５丁目２２番４号,,40,109,8070077,,,,,,,2023-05-23,1,,,,,タナカインダストリーズ,0
923,4300003001969,新規,0,2023-05-23,2023-05-23,合同会社ＯＫＧフードサービス,,合同会社,佐賀県,小城市,小城町２７７番地２,,41,208,8450001,,,,,,,2023-05-23,1,,,,,オーケージーフードサービス,0
925,4340001025594,新規,0,2023-05-23,2023-05-23,株式会社ＴＯＳＨＯ　ＥＮＴＥＲＰＲＩＳＥ,,株式会社,鹿児島県,鹿児島市,吉野町１５２０番地１,,46,201,8920871,,,,,,,2023-05-23,1,,,,,トウショウエンタープライズ,0
932,4360001032052,新規,0,2023-05-23,2023-05-23,株式会社なかやま家,,株式会社,沖縄県,名護市,字中山８３７番地３,,47,209,9050004,,,,,,,2023-05-23,1,,,,,ナカヤマヤ,0
934,4370001049979,新規,0,2023-05-23,2023-05-23,ａｍｕ株式会社,,株式会社,宮城県,気仙沼市,南町２丁目２番２５号,,04,205,9880017,,,,,,,2023-05-23,1,,,,,アム,0
935,4370001049995,新規,0,2023-05-23,2023-05-23,株式会社ビー・アイ・ジー,,株式会社,宮城県,仙台市宮城野区,白鳥２丁目１８番２２号,,04,102,9830006,,,,,,,2023-05-23,1,,,,,ビーアイジー,0
940,4370003006144,新規,0,2023-05-23,2023-05-23,合同会社ｎｏ　ｎａｍｅ,,合同会社,宮城県,刈田郡蔵王町,大字小村崎字門下２９番地,,04,301,9890841,,,,,,,2023-05-23,1,,,,,ノーネーム,0
959,4430001089176,新規,0,2023-05-23,2023-05-23,株式会社ｃｏｎｎｅｃｔ,,株式会社,北海道,札幌市中央区,南六条西１１丁目１２８４番地２７,,01,101,0640806,,,,,,,2023-05-23,1,,,,,コネクト,0
961,4430003015064,新規,0,2023-05-23,2023-05-23,合同会社ティエムティ,,合同会社,北海道,札幌市東区,伏古八条４丁目５番１０号,,01,103,0070868,,,,,,,2023-05-23,1,,,,,ティエムティ,0
962,4430003015072,新規,0,2023-05-23,2023-05-23,合同会社フジコン防災,,合同会社,北海道,札幌市中央区,北五条西１２丁目２－２３ＡＳＩＡ５１２ビル３階,,01,101,0600005,,,,,,,2023-05-23,1,,,,,フジコンボウサイ,0
963,4440001009265,新規,0,2023-05-23,2023-05-23,株式会社フロックス,,株式会社,北海道,函館市,中道１丁目２７番８－２号,,01,202,0410853,,,,,,,2023-05-23,1,,,,,フロックス,0
968,4700150116372,新規,0,2023-05-23,2023-05-23,Ｓｈｅｎｚｈｅｎｓｈｉ　ｔａｉｓｈｉｌａｎｇ　ｋｅｊｉｙｏｕｘｉａｎｇｏｎｇｓｉ,,外国会社等,,,,,,,,Ｊｉａｎｓｈｅ　Ｒｏａｄ，Ｌｏｎｇｈｕａ，Ｒｏｏｍ　２０１，Ｂａｉｆｕｈｕｉ　Ｉｎｄｕｓｔｒｉａｌ　Ｚｏｎｅ，Ｓｈｅｎｚｈｅｎ　Ｇｕａｎｇｄｏｎｇ，Ｃｈｉｎａ,,,,,,2023-05-23,1,,,,,シンセンシタイシロテクノロジーユウゲンコウシ,0
969,4700150116380,新規,0,2023-05-23,2023-05-23,ＷＥＥＥＩ　ＬＬＣ,,外国会社等,,,,,,,,Ｓｈａｍｓ　Ｂｕｓｉｎｅｓｓ　Ｃｅｎｔｅｒ，Ｓｈａｒｊａｈ　Ｍｅｄｉａ　Ｃｉｔｙ　Ｆｒｅｅ　Ｚｏｎｅ，ＡＩ　Ｍｅｓｓａｎｅｄ，Ｓｈａｒｊａｈ，ＵＡＥ．,,,,,,2023-05-23,1,,,,,ウェェェイエルエルシー,0
970,4700150116389,新規,0,2023-05-23,2023-05-23,Ｓｕｚｈｏｕ　Ｘｉｎｇｘｉａｎｇｂａｏ　Ｓｈａｎｇｍａｏ　Ｙｏｕｘｉａｎｇｏｎｇｓｉ,,外国会社等,,,,,,,,Ｎｏ．１８，Ｊｉａｒｕｉ　Ｌａｎｅ，Ｉｎｄｕｓｔｒｉａｌ　Ｐａｒｋ，Ｒｏｏｍ　９１２，Ｂｕｉｌｄｉｎｇ　１，Ｋｉｎｇｓｋｅｙ　Ｗａｎｇｈｕ　Ｂｕｉｌｄｉｎｇ，Ｃｈｉｎａ　Ｊｉａｎｇｓｕ　Ｐｉｌｏｔ　Ｆｒｅｅ　Ｔｒａｄｅ　Ｚｏｎｅ　Ｓｕｚｈｏｕ　Ａｒｅａ，Ｓｕｚｈｏｕ，Ｊｉａｎｇｓｕ,,,,,,2023-05-23,1,,,,,スゾウシンシャンバオシャンマオユウゲンコウシ,0
971,4700150116397,新規,0,2023-05-23,2023-05-23,Ｘｉａｍｅｎ　Ｘｉａｏｙｕｎｄｕｏ　Ｅｒｔｏｎｇｙｏｎｇｐｉｎ　Ｙｏｕｘｉａｎｇｏｎｇｓｉ,,外国会社等,,,,,,,,ｓｉ　ｍｉｎｇ　ｑｕ　ｑｉ　ｘｉｎｇ　ｘｉ　ｌｕ　３　ｈａｏ　ｗａｎ　ｘｉａｎｇ　ｌｉ　ｇｏｕ　ｗｕ　ｚｈｏｎｇ　ｘｉｎ　ｅｒ　ｃｅｎｇ　Ｌ２３８　ｈａｏ　ｓｈａｎｇ　ｐｕ　Ｘｉａ　ｍｅｎ　Ｆｕ　ｊｉａｎ　ＣＮ,,,,,,2023-05-23,1,,,,,シャーメンシャオユンドエルトンヨンピンユウゲンコウシ,0
972,4700150116406,新規,0,2023-05-23,2023-05-23,ｓｈｅｎｚｈｅｎｓｈｉ　ｂａｉｙｕｙｉ　ｅｌｅｃｔｒｏｎｉｃｓ　ｃｏ　ｌｔｄ,,外国会社等,,,,,,,,ｓｈｅｎｚｈｅｎｓｈｉ　ｎａｎｓｈａｎｑｕ　ｚｈａｏｓｈａｎｇｊｉｅｄａｏｃｈｉｗａｎｓｈｅｑｕ　ｓｈａｏｄｉｌｕ　ｓｈａｎｙｕｈａｉｙｕａｎ　２　ｄｏｎｇ　１－５Ａ,,,,,,2023-05-23,1,,,,,シェンジェンシーバイイーイーディエンズーヨウシエンゴンスー,0
984,5010001235325,新規,0,2023-05-23,2023-05-23,株式会社ＭｉＤＡＴＡ,,株式会社,東京都,中央区,明石町７番１４号築地リバーフロント６Ｆ,,13,102,1040044,,,,,,,2023-05-23,1,,,,,マイデータ,0
985,5010001235515,新規,0,2023-05-23,2023-05-23,堂島ラグジュアリーホールディングス株式会社,,株式会社,東京都,千代田区,永田町２丁目１１番１号,,13,101,1000014,,,,,,,2023-05-23,1,,,,,ドウジマラグジュアリーホールディングス,0
986,5010001235531,新規,0,2023-05-23,2023-05-23,株式会社永泰,,株式会社,東京都,中央区,日本橋大伝馬町９番７号,,13,102,1030011,,,,,,,2023-05-23,1,,,,,エイタ,0
991,5010003040608,新規,0,2023-05-23,2023-05-23,合同会社ＥＬＬＥ,,合同会社,東京都,中央区,東日本橋１丁目３番１０号,,13,102,1030004,,,,,,,2023-05-23,1,,,,,エル,0
992,5010003040673,新規,0,2023-05-23,2023-05-23,合同会社Ｐ４Ｐ,,合同会社,東京都,中央区,銀座１丁目２２番１１号銀座大竹ビジデンス２Ｆ,,13,102,1040061,,,,,,,2023-05-23,1,,,,,ピーフォーピー,0
993,5010005036728,新規,0,2023-05-23,2023-05-23,一般社団法人ＳＰＲ１号,,その他の設立登記法人,東京都,千代田区,九段南３丁目７番７号成和綜合会計事務所内,,13,101,1020074,,,,,,,2023-05-23,1,,,,,エスピーアールイチゴウ,0
995,5010401063094,新規,0,2023-05-23,2023-05-23,株式会社オリカキャピタル,,株式会社,東京都,港区,南青山２丁目１２番１２号,,13,103,1070062,,,,,,,2023-05-23,1,,,,,オリカキャピタル,0
1002,5010401174478,新規,0,2023-05-23,2023-05-23,株式会社パラダイムソリューション,,株式会社,東京都,港区,西麻布２丁目２３番７号田村荘２０１,,13,103,1060031,,,,,,,2023-05-23,1,,,,,パラダイムソリューション,0
1003,5010601063134,新規,0,2023-05-23,2023-05-23,株式会社ＹＳＫトレーディング,,株式会社,東京都,墨田区,江東橋２丁目１０番７号ＬＥＥビル４Ｆ,,13,107,1300022,,,,,,,2023-05-23,1,,,,,ワイエスケートレーディング,0
1004,5010601063142,新規,0,2023-05-23,2023-05-23,Ｍｅｄｉａ　Ｗｏｒｋｓ株式会社,,株式会社,東京都,墨田区,両国２丁目１７番１７号両国ダイヤハイツ２０２－Ｎ,,13,107,1300026,,,,,,,2023-05-23,1,,,,,メディアワークス,0
1013,5010803004555,新規,0,2023-05-23,2023-05-23,合同会社オーエーエム,,合同会社,東京都,大田区,大森本町１丁目６番２－１５１５号,,13,111,1430011,,,,,,,2023-05-23,1,,,,,オーエーエム,0
1017,5010903008183,新規,0,2023-05-23,2023-05-23,サミッサコンサルティング合同会社,,合同会社,東京都,世田谷区,等々力６丁目１５番５号,,13,112,1580082,,,,,,,2023-05-23,1,,,,,サミッサコンサルティング,0
1022,5011001154498,新規,0,2023-05-23,2023-05-23,株式会社Ｄｅａｒ　Ｕ　ｐｌｕｓ,,株式会社,東京都,渋谷区,渋谷３丁目１２番１８号,,13,113,1500002,,,,,,,2023-05-23,1,,,,,ディアユープラス,0
1023,5011001154548,新規,0,2023-05-23,2023-05-23,株式会社ＮＯ　ＥＶＩＤＥＮＣＥ,,株式会社,東京都,渋谷区,渋谷２丁目１９ー１５宮益坂ビルディング６０９,,13,113,1500002,,,,,,,2023-05-23,1,,,,,ノーエビデンス,0
1024,5011003016878,新規,0,2023-05-23,2023-05-23,合同会社野菜王国,,合同会社,東京都,渋谷区,東３丁目２１番１４－３０３号,,13,113,1500011,,,,,,,2023-05-23,1,,,,,ヤサイオウコク,0
1029,5011203004088,新規,0,2023-05-23,2023-05-23,堀江合同会社,,合同会社,東京都,中野区,江原町２丁目２１番７－５０４号,,13,114,1650023,,,,,,,2023-05-23,1,,,,,ホリエ,0
1034,5011501029324,新規,0,2023-05-23,2023-05-23,株式会社Ｔｏｍｏｖａｔｉｏｎｓ,,株式会社,東京都,北区,赤羽２丁目２－２赤羽スカイハイツ８１２,,13,117,1150045,,,,,,,2023-05-23,1,,,,,トモベーションズ,0
1038,5011801042415,新規,0,2023-05-23,2023-05-23,Ｔ２カンパニー株式会社,,株式会社,東京都,足立区,西竹の塚１丁目４番６号,,13,121,1210822,,,,,,,2023-05-23,1,,,,,ティーツーカンパニー,0
1040,5012401040552,新規,0,2023-05-23,2023-05-23,株式会社ＤＤ,,株式会社,東京都,三鷹市,下連雀７丁目１３番９－８１３号,,13,204,1810013,,,,,,,2023-05-23,1,,,,,ディーディー,0
1044,5013301050807,新規,0,2023-05-23,2023-05-23,ＯＲＩＯＷＬ株式会社,,株式会社,東京都,豊島区,西池袋４丁目１９－４，３０２,,13,116,1710021,,,,,,,2023-05-23,1,,,,,オリオウル,0
1054,5030001154060,新規,0,2023-05-23,2023-05-23,株式会社ミライズ,,株式会社,埼玉県,さいたま市見沼区,深作１丁目３２番地６号,,11,104,3370003,,,,,,,2023-05-23,1,,,,,ミライズ,0
1058,5040001128534,新規,0,2023-05-23,2023-05-23,株式会社マネージメントインプローブメント,,株式会社,千葉県,袖ケ浦市,上泉１２０５－１３,,12,229,2990205,,,,,,,2023-05-23,1,,,,,マネージメントインプローブメント,0
1075,5100003007028,新規,0,2023-05-23,2023-05-23,合同会社ＣＬＵＢ　ＲＩＳＥ,,合同会社,長野県,安曇野市,豊科高家６６５６番地５１,,20,220,3998204,,,,,,,2023-05-23,1,,,,,クラブライズ,0
1076,5110001037562,新規,0,2023-05-23,2023-05-23,株式会社ｉＫＲ,,株式会社,新潟県,新潟市中央区,東大通１丁目５番７号Ｃ＆Ｌビル３階,,15,103,9500087,,,,,,,2023-05-23,1,,,,,アイケーアール,0
1084,5120001254900,新規,0,2023-05-23,2023-05-23,株式会社ＫｎｏｃＫ,,株式会社,大阪府,大阪市阿倍野区,阿倍野筋２丁目４－２７－１階,,27,119,5450052,,,,,,,2023-05-23,1,,,,,ノック,0
1085,5120001254999,新規,0,2023-05-23,2023-05-23,株式会社Ｇｌｏｂａｌ　Ｓｅｒｖｉｃｅ,,株式会社,大阪府,大阪市浪速区,大国３丁目１１番８号,,27,111,5560014,,,,,,,2023-05-23,1,,,,,グローバルサービス,0
1086,5120001255106,新規,0,2023-05-23,2023-05-23,株式会社ＫＯＵ,,株式会社,大阪府,門真市,脇田町３２番２２号,,27,223,5710011,,,,,,,2023-05-23,1,,,,,コウ,0
1087,5120001255130,新規,0,2023-05-23,2023-05-23,若森商事株式会社,,株式会社,大阪府,大阪市住吉区,長居東４丁目２１番２号３０６,,27,120,5580004,,,,,,,2023-05-23,1,,,,,ワカモリショウジ,0
1091,5120003024079,新規,0,2023-05-23,2023-05-23,Ｓｉｎｃａｒｅ　Ｉｎｔｅｒｎａｔｉｏｎａｌ合同会社,,合同会社,大阪府,大阪市中央区,平野町３丁目１番６－８０４号,,27,128,5410046,,,,,,,2023-05-23,1,,,,,シンケアインターナショナル,0
1096,5120005023632,新規,0,2023-05-23,2023-05-23,一般社団法人ＴＭＳ　ＪＡＰＡＮ,,その他の設立登記法人,大阪府,大阪市西区,新町２丁目１１番１３号,,27,106,5500013,,,,,,,2023-05-23,1,,,,,ティーエムエスジャパン,0
1100,5120901047560,新規,0,2023-05-23,2023-05-23,株式会社戦略マネジメント総合研究所,,株式会社,大阪府,池田市,栄本町３番３－１１０３号,,27,204,5630058,,,,,,,2023-05-23,1,,,,,センリャクマネジメントソウゴウケンキュウジョ,0
1102,5122001036997,新規,0,2023-05-23,2023-05-23,木村工業株式会社,,株式会社,大阪府,大東市,泉町２丁目９番２２号,,27,218,5740024,,,,,,,2023-05-23,1,,,,,キムラコウギョウ,0
1106,5130001074348,新規,0,2023-05-23,2023-05-23,株式会社あじろぎ,,株式会社,京都府,宇治市,明星町２丁目６番地の１６９,,26,204,6110014,,,,,,,2023-05-23,1,,,,,アジロギ,0
1112,5140001130273,新規,0,2023-05-23,2023-05-23,株式会社スマイリー,,株式会社,兵庫県,神戸市灘区,六甲町４丁目１番１１号,,28,102,6570053,,,,,,,2023-05-23,1,,,,,スマイリー,0
1113,5140003019119,新規,0,2023-05-23,2023-05-23,合同会社高松総業,,合同会社,兵庫県,加古川市,加古川町南備後８２番地の４１,,28,210,6750033,,,,,,,2023-05-23,1,,,,,タカマツソウギョウ,0
1114,5140003019127,新規,0,2023-05-23,2023-05-23,合同会社ｔ‐ｃｅ,,合同会社,兵庫県,姫路市,広畑区西蒲田１１８６－５,,28,201,6711107,,,,,,,2023-05-23,1,,,,,ティース,0
1125,5180001156364,新規,0,2023-05-23,2023-05-23,株式会社歩育英舎,,株式会社,愛知県,瀬戸市,品野町６丁目１２５９番地の６,,23,204,4801207,,,,,,,2023-05-23,1,,,,,アユミイクエイシャ,0
1126,5180001156414,新規,0,2023-05-23,2023-05-23,株式会社中日クロス,,株式会社,愛知県,知多市,岡田美里町１７番地,,23,224,4780062,,,,,,,2023-05-23,1,,,,,チュウニチクロス,0
1127,5180001156430,新規,0,2023-05-23,2023-05-23,株式会社ククリ,,株式会社,愛知県,名古屋市中区,錦２丁目１８番５号,,23,106,4600003,,,,,,,2023-05-23,1,,,,,ククリ,0
1131,5180301037413,新規,0,2023-05-23,2023-05-23,富森鉄工株式会社,,株式会社,愛知県,安城市,高棚町井池１９３番地１,,23,212,4460053,,,,,,,2023-05-23,1,,,,,トミモリテッコウ,0
1141,5240005015576,新規,0,2023-05-23,2023-05-23,一般社団法人Ｔｈｅ　Ｒｅｄ　Ｄｏｔ　Ｓｃｈｏｏｌ,,その他の設立登記法人,広島県,三原市,東町３丁目８番地３５号,,34,204,7230011,,,,,,,2023-05-23,1,,,,,ザレッドドットスクール,0
1145,5260001037977,新規,0,2023-05-23,2023-05-23,株式会社エタニティ総研,,株式会社,岡山県,岡山市北区,庭瀬３１５,,33,101,7010153,,,,,,,2023-05-23,1,,,,,エタニティソウケン,0
1147,5260005011235,新規,0,2023-05-23,2023-05-23,特定非営利活動法人赤磐の漆を守る会,,その他の設立登記法人,岡山県,赤磐市,大屋５０番地,,33,213,7012205,,,,,,,2023-05-23,1,,,,,アカイワノウルシヲマモルカイ,0
1148,5280003001731,新規,0,2023-05-23,2023-05-23,合同会社ＫＳｅｈ,,合同会社,島根県,出雲市,下古志町１０３５番地２,,32,203,6930032,,,,,,,2023-05-23,1,,,,,ケイエスイーエイチ,0
1154,5290001101623,新規,0,2023-05-23,2023-05-23,ＴＡＣ株式会社,,株式会社,福岡県,福岡市博多区,博多駅南２丁目１４－４田畑英房ビル２０１号,,40,132,8120016,,,,,,,2023-05-23,1,,,,,ティーエーシー,0
1155,5290003013940,新規,0,2023-05-23,2023-05-23,合同会社４Ｔａｃ,,合同会社,福岡県,福岡市中央区,天神２丁目２番１２号Ｔ＆Ｊビルディング７Ｆ,,40,133,8100001,,,,,,,2023-05-23,1,,,,,フォータック,0
1157,5290801029543,新規,0,2023-05-23,2023-05-23,株式会社水道屋,,株式会社,福岡県,北九州市八幡西区,沖田２丁目１３番１号,,40,109,8070077,,,,,,,2023-05-23,1,,,,,スイドウヤ,0
1160,5310001018427,新規,0,2023-05-23,2023-05-23,あーるｅｖｏ株式会社,,株式会社,長崎県,東彼杵郡波佐見町,折敷瀬郷８３８－５,,42,323,8593701,,,,,,,2023-05-23,1,,,,,アールエヴォ,0
1164,5330001030883,新規,0,2023-05-23,2023-05-23,株式会社ＳＭＡＳＨ,,株式会社,熊本県,熊本市中央区,上林町１番２８－６０７号上通センタービル,,43,101,8600847,,,,,,,2023-05-23,1,,,,,スマッシュ,0
1167,5360003012968,新規,0,2023-05-23,2023-05-23,うるま衛生合同会社,,合同会社,沖縄県,うるま市,字兼箇段１０８９番地１,,47,213,9042241,,,,,,,2023-05-23,1,,,,,ウルマエイセイ,0
1174,5390003002099,新規,0,2023-05-23,2023-05-23,合同会社リ・スプリングコーポレーション,,合同会社,山形県,新庄市,沖の町２番５号,,06,205,9960023,,,,,,,2023-05-23,1,,,,,リスプリングコーポレーション,0
1181,5430001089142,新規,0,2023-05-23,2023-05-23,株式会社ＡＬＩＹＡ,,株式会社,北海道,札幌市西区,山の手二条１２丁目１２番２１号,,01,107,0630002,,,,,,,2023-05-23,1,,,,,アリヤ,0
1182,5430001089183,新規,0,2023-05-23,2023-05-23,株式会社ＳｈｏｒｔＳｔｙｌｅ,,株式会社,北海道,札幌市白石区,菊水七条３丁目５番１号スターパレス２０３号,,01,104,0030807,,,,,,,2023-05-23,1,,,,,ショートスタイル,0
1183,5430003015071,新規,0,2023-05-23,2023-05-23,合同会社ＦＵＮＡＫＵＮ,,合同会社,北海道,札幌市南区,南沢三条３丁目２番１１号,,01,106,0050823,,,,,,,2023-05-23,1,,,,,フナクン,0
1190,5700150116371,新規,0,2023-05-23,2023-05-23,Ｓｈｅｎｚｈｅｎｓｈｉａｎｌｉｋａｉｋｅｊｉｙｏｕｘｉａｎｇｏｎｇｓｉ,,外国会社等,,,,,,,,Ｓｈｅｎｚｈｅｎｓｈｉｌｏｎｇｈｕａｑｕｆｕｃｈｅｎｇｊｉｅｄａｏｘｉｎｄａｎｌｕ，ｌｏｎｇｍｅｎｍｉｎｇｙｕａｎｙｉｑｉｙｉｄｏｎｇ２１０１，Ｓｈｅｎｚｈｅｎ　Ｇｕａｎｇｄｏｎｇ，Ｃｈｉｎａ,,,,,,2023-05-23,1,,,,,シンセンシアンリカイテクノロジーユウゲンコウシ,0
1191,5700150116388,新規,0,2023-05-23,2023-05-23,Ｓｈｅｎｚｈｅｎ　Ｒａｃｃｏｏｎ　Ｔｅｃｈ　Ｌｔｄ,,外国会社等,,,,,,,,Ｒｏｏｍ　３０１－０９，３ｒｄ　Ｆｌｏｏｒ，Ｂｕｉｌｄｉｎｇ　２，Ｘｉｎｔｉａｎｘｉａ　Ｈｕａｓａｉ　Ｉｎｄｕｓｔｒｉａｌ　Ｆａｃｔｏｒｙ，Ｖａｎｋｅ　Ｃｉｔｙ　Ｃｏｍｍｕｎｉｔｙ，Ｂａｎｔｉａｎ　Ｓｔｒｅｅｔ，Ｌｏｎｇｇａｎｇ　Ｄｉｓｔｒｉｃｔ，Ｓｈｅｎｚｈｅｎ,,,,,,2023-05-23,1,,,,,シンセンシラクコクシンソクカギユウゲンコウシ,0
1192,5700150116396,新規,0,2023-05-23,2023-05-23,Ｓｈｅｎｚｈｅｎｓｈｉ　Ｒｕａｎｈａｏｇｅ　Ｍａｏｙｉ　Ｙｏｕｘｉａｎｇｏｎｇｓｉ,,外国会社等,,,,,,,,Ｒｏｏｍ　４０４，Ｘｉｎｆａ　Ｂｕｉｌｄｉｎｇ，Ｎｏ．２，Ｌａｎｅ　Ｅｒｓｈｉｙｉ，Ｘｉｎｓａｎ　Ｖｉｌｌａｇｅ　Ｘｉｑｕ，Ｎａｎｓａｎ　Ｃｏｍｍｕｎｉｔｙ，Ｂｕｊｉ　Ｓｔｒｅｅｔ，Ｓｈｅｎｚｈｅｎ，Ｇｕａｎｇｄｏｎｇ　Ｐｒｏｖｉｎｃｅ，Ｃｈｉｎａ,,,,,,2023-05-23,1,,,,,シンセンシルアンハオジェマオイユウゲンコウシ,0
1193,5700150116405,新規,0,2023-05-23,2023-05-23,Ｓｈｅｎｚｈｅｎ　Ｗａｎｙｕｎｘｉｎ　Ｔｅｃｈｎｏｌｏｇｙ　Ｃｏ．，Ｌｔｄ．,,外国会社等,,,,,,,,５０４，Ｂｕｉｌｄｉｎｇ　２，Ｆｕｇｕｏ　Ｉｎｄｕｓｔｒｉａｌ　Ｚｏｎｅ，２８　Ｋａｉｆｅｎｇ　Ｒｏａｄ，Ｍａｌｉｎｇ　Ｃｏｍｍｕｎｉｔｙ，Ｍｅｉｌｉｎ　Ｓｔｒｅｅｔ，Ｆｕｔｉａｎ　Ｄｉｓｔｒｉｃｔ，Ｓｈｅｎｚｈｅｎ，Ｃｈｉｎａ,,,,,,2023-05-23,1,,,,,シンセンワンユンシンテクノロジーカンパニーリミテッド,0
1200,6010001235514,新規,0,2023-05-23,2023-05-23,山佐産業ＱＦＡ２リース株式会社,,株式会社,東京都,千代田区,丸の内３丁目１番１号東京共同会計事務所内,,13,101,1000005,,,,,,,2023-05-23,1,,,,,ヤマササンギョウキューエフエーツーリース,0
1204,6010005036702,新規,0,2023-05-23,2023-05-23,三菱食品労働組合,,その他の設立登記法人,東京都,文京区,小石川１丁目１番１号,,13,105,1120002,,,,,,,2023-05-23,1,,,,,ミツビシショクヒン,0
1211,6010401174485,新規,0,2023-05-23,2023-05-23,株式会社リード,,株式会社,東京都,港区,東麻布２丁目３５番１号,,13,103,1060044,,,,,,,2023-05-23,1,,,,,リード,0
1215,6010601063059,新規,0,2023-05-23,2023-05-23,新鋭株式会社,,株式会社,東京都,墨田区,菊川３丁目４番５号Ｒ３菊川２０４号室,,13,107,1300024,,,,,,,2023-05-23,1,,,,,シンエイ,0
1216,6010703006675,新規,0,2023-05-23,2023-05-23,スマイル合同会社,,合同会社,東京都,品川区,西大井５丁目９－８,,13,109,1400015,,,,,,,2023-05-23,1,,,,,スマイル,0
1227,6011001154522,新規,0,2023-05-23,2023-05-23,株式会社ミライソリューション,,株式会社,東京都,渋谷区,道玄坂１丁目１０番８号渋谷道玄坂東急ビル２Ｆ－Ｃ,,13,113,1500043,,,,,,,2023-05-23,1,,,,,ミライソリューション,0
1231,6011102022834,新規,0,2023-05-23,2023-05-23,有限会社村山染工場,,有限会社,東京都,新宿区,坂町１番地１ファミールグラン四谷６０１,,13,104,1600000,,,,,,,2023-05-23,1,,,,,,0
1233,6011105010662,新規,0,2023-05-23,2023-05-23,一般社団法人東京国際医療看護リハビリ協会,,その他の設立登記法人,東京都,新宿区,新宿２丁目２－１－１１０４,,13,104,1600022,,,,,,,2023-05-23,1,,,,,トウキョウコクサイイリョウカンゴリハビリキョウカイ,0
1235,6011201024657,新規,0,2023-05-23,2023-05-23,株式会社ＭＳＧ,,株式会社,東京都,中野区,上高田４丁目１９番６－３０５号,,13,114,1640002,,,,,,,2023-05-23,1,,,,,エムエスジー,0
1236,6011203004087,新規,0,2023-05-23,2023-05-23,合同会社ＰＬＡＴＥＡＵ　ＳＴＵＤＩＯ,,合同会社,東京都,中野区,南台１丁目１１番１１号コーポＭＩＫＩ３０１,,13,114,1640014,,,,,,,2023-05-23,1,,,,,プラトースタジオ,0
1244,6011501029323,新規,0,2023-05-23,2023-05-23,丘朴株式会社,,株式会社,東京都,荒川区,南千住３丁目２７－２浅草ビル５０８,,13,118,1160003,,,,,,,2023-05-23,1,,,,,キュウボク,0
1249,6011801042447,新規,0,2023-05-23,2023-05-23,Ｋａｎｇａｒｏｏ商貿株式会社,,株式会社,東京都,足立区,栗原３丁目２６番１号２Ｆ,,13,121,1230842,,,,,,,2023-05-23,1,,,,,カンガルーショウボウ,0
1250,6011803005658,新規,0,2023-05-23,2023-05-23,合同会社小嶋プリント,,合同会社,東京都,足立区,平野１丁目８番５号１０１,,13,121,1210076,,,,,,,2023-05-23,1,,,,,コジマプリント,0
1253,6012301013459,新規,0,2023-05-23,2023-05-23,株式会社ＳＴＡＣＫＡＬＯＴ,,株式会社,東京都,町田市,金森２丁目９番地１２号,,13,209,1940012,,,,,,,2023-05-23,1,,,,,スタックアロット,0
1278,6030001153862,新規,0,2023-05-23,2023-05-23,株式会社粂原工業,,株式会社,埼玉県,南埼玉郡宮代町,字中島４２９番地２,,11,442,3450802,,,,,,,2023-05-23,1,,,,,クメハラコウギョウ,0
1279,6030001153986,新規,0,2023-05-23,2023-05-23,株式会社Ｓｅｃｏｎｄ　Ｒｏｃｋ,,株式会社,埼玉県,所沢市,榎町２１－１４ハウスモア２０２号室,,11,208,3591104,,,,,,,2023-05-23,1,,,,,セカンドロック,0
1280,6030001153994,新規,0,2023-05-23,2023-05-23,株式会社マルケイホーム,,株式会社,埼玉県,狭山市,祇園４０番１０号Ｇｒａｎｄ・Ｆｉｒｓｔ１０６,,11,215,3501307,,,,,,,2023-05-23,1,,,,,マルケイホーム,0
1281,6030001154002,新規,0,2023-05-23,2023-05-23,株式会社トータル美装,,株式会社,埼玉県,朝霞市,三原１丁目１８番３号,,11,227,3510025,,,,,,,2023-05-23,1,,,,,トータルビソウ,0
1294,6040001128525,新規,0,2023-05-23,2023-05-23,日翔貿易株式会社,,株式会社,千葉県,市川市,欠真間１丁目３番６－１号舞浜第２ビル２０３号室,,12,203,2720142,,,,,,,2023-05-23,1,,,,,ニッショウボウエキ,0
1306,6070001040462,新規,0,2023-05-23,2023-05-23,アイタス株式会社,,株式会社,群馬県,太田市,八幡町７番６号,,10,205,3730056,,,,,,,2023-05-23,1,,,,,アイタス,0
1312,6080105006342,新規,0,2023-05-23,2023-05-23,特定非営利活動法人Ｏｎｅ’ｓ　Ｌｉｆｅ,,その他の設立登記法人,静岡県,富士市,中島３０７,,22,210,4160907,,,,,,,2023-05-23,1,,,,,ワンズライフ,0
1316,6100001036424,新規,0,2023-05-23,2023-05-23,株式会社ニッテツ,,株式会社,長野県,塩尻市,大字広丘堅石４３番地８,,20,215,3990705,,,,,,,2023-05-23,1,,,,,ニッテツ,0
1318,6100003007027,新規,0,2023-05-23,2023-05-23,Ｔｈｅ　Ｂｒｕｅｙ’ｓ合同会社,,合同会社,長野県,上水内郡信濃町,大字古海３３２６－１２,,20,583,3891302,,,,,,,2023-05-23,1,,,,,ザブルエーズ,0
1333,6120001255138,新規,0,2023-05-23,2023-05-23,小隠軒株式会社,,株式会社,大阪府,大阪市天王寺区,上本町６丁目９番２号アーバンシティ上本町９０６,,27,109,5430001,,,,,,,2023-05-23,1,,,,,ショウインケン,0
1338,6120101067581,新規,0,2023-05-23,2023-05-23,株式会社モズ電機工業所,,株式会社,大阪府,堺市南区,庭代台２丁２番２０号,,27,145,5900133,,,,,,,2023-05-23,1,,,,,モズデンキコウギョウショ,0
1340,6120905006462,新規,0,2023-05-23,2023-05-23,一般社団法人ＲＥＡＬ　ＢＯＸ,,その他の設立登記法人,大阪府,豊中市,島江町１丁目１番２７－２号,,27,203,5610826,,,,,,,2023-05-23,1,,,,,リアルボックス,0
1341,6122001037012,新規,0,2023-05-23,2023-05-23,株式会社Ｐｅｒｒｉｎ,,株式会社,大阪府,東大阪市,楠根３丁目５番２２号,,27,227,5770006,,,,,,,2023-05-23,1,,,,,ペリン,0
1342,6122003002591,新規,0,2023-05-23,2023-05-23,合同会社ＡＮＨ　ＴＲＡＤＩＮＧ,,合同会社,大阪府,東大阪市,足代北２丁目５番１３号,,27,227,5770058,,,,,,,2023-05-23,1,,,,,アントレーディング,0
1344,6130001074272,新規,0,2023-05-23,2023-05-23,株式会社ＦｌＯＷＥＲ,,株式会社,京都府,京都市左京区,岡崎徳成町１７番地９,,26,103,6068351,,,,,,,2023-05-23,1,,,,,フラワー,0
1345,6130001074355,新規,0,2023-05-23,2023-05-23,永信国際株式会社,,株式会社,京都府,宇治市,宇治半白６５番地の８,,26,204,6110021,,,,,,,2023-05-23,1,,,,,エイシンコクサイ,0
1346,6130001074371,新規,0,2023-05-23,2023-05-23,株式会社大隅自動車,,株式会社,京都府,向日市,上植野町落堀一丁目１番地ヴェレーナ京都西向日７０８号室,,26,208,6170006,,,,,,,2023-05-23,1,,,,,オオスミジドウシャ,0
1355,6140001130264,新規,0,2023-05-23,2023-05-23,ＴＭサービス株式会社,,株式会社,兵庫県,神戸市北区,中里町２丁目１０番地の１,,28,109,6511103,,,,,,,2023-05-23,1,,,,,ティーエムサービス,0
1356,6140003019118,新規,0,2023-05-23,2023-05-23,ｍｏｄｉｆｏ合同会社,,合同会社,兵庫県,高砂市,米田町米田１３９番１１,,28,216,6760805,,,,,,,2023-05-23,1,,,,,モディフォ,0
1357,6140003019126,新規,0,2023-05-23,2023-05-23,ＴＣＡ合同会社,,合同会社,兵庫県,西宮市,大社町１２番４３－５０９号,,28,204,6620867,,,,,,,2023-05-23,1,,,,,ティーシーエー,0
1364,6180001156421,新規,0,2023-05-23,2023-05-23,ＳＫＹ　Ｌａｎｄ株式会社,,株式会社,愛知県,名古屋市中区,錦２丁目５番５号八木兵伝馬町ビル３Ｆ,,23,106,4600003,,,,,,,2023-05-23,1,,,,,スカイランド,0
1366,6180003025260,新規,0,2023-05-23,2023-05-23,イスト合同会社,,合同会社,愛知県,名古屋市千種区,今池１丁目２番５号プラザフェニックス村松苑８０３号,,23,101,4640850,,,,,,,2023-05-23,1,,,,,イスト,0
1369,6180005020227,新規,0,2023-05-23,2023-05-23,一般社団法人フェニックス,,その他の設立登記法人,愛知県,名古屋市南区,要町２丁目２３番地の５,,23,112,4570802,,,,,,,2023-05-23,1,,,,,フェニックス,0
1373,6190001030427,新規,0,2023-05-23,2023-05-23,株式会社マツダコスモ,,株式会社,三重県,津市,森町１９４５番地１１,,24,201,5141254,,,,,,,2023-05-23,1,,,,,マツダコスモ,0
1386,6260001037976,新規,0,2023-05-23,2023-05-23,株式会社ＦＷ,,株式会社,岡山県,岡山市南区,箕島７６０番地２,,33,104,7010206,,,,,,,2023-05-23,1,,,,,エフダブリュー,0
1395,6290005019043,新規,0,2023-05-23,2023-05-23,特定非営利活動法人親の学び舎,,その他の設立登記法人,福岡県,糟屋郡粕屋町,長者原西４丁目１０番６号,,40,349,8112316,,,,,,,2023-05-23,1,,,,,オヤノマナビヤ,0
1397,6290801029542,新規,0,2023-05-23,2023-05-23,株式会社Ｋ‐ｃｏｎｎｅｃｔ,,株式会社,福岡県,北九州市小倉南区,若園３丁目８番６号,,40,107,8020816,,,,,,,2023-05-23,1,,,,,ケイコネクト,0
1408,6360003012983,新規,0,2023-05-23,2023-05-23,合同会社リバペロ,,合同会社,沖縄県,那覇市,牧志１丁目２番３号２Ｆ,,47,201,9000013,,,,,,,2023-05-23,1,,,,,リバペロ,0
1415,6390003002098,新規,0,2023-05-23,2023-05-23,合同会社ＥＩＴＹ．ＫＥＩＴＹ,,合同会社,山形県,酒田市,相生町２丁目２番９号,,06,204,9980032,,,,,,,2023-05-23,1,,,,,エイティケイティ,0
1419,6420005007851,新規,0,2023-05-23,2023-05-23,農事組合法人津軽りんご組合,,その他の設立登記法人,青森県,弘前市,大字高杉字神原２５０番地１１,,02,202,0368302,,,,,,,2023-05-23,1,,,,,,0
1424,6430001089141,新規,0,2023-05-23,2023-05-23,サツエーホールディングス株式会社,,株式会社,北海道,札幌市白石区,南郷通２１丁目南１番１号,,01,104,0030022,,,,,,,2023-05-23,1,,,,,サツエーホールディングス,0
1425,6430001089174,新規,0,2023-05-23,2023-05-23,株式会社ＳＩ,,株式会社,北海道,札幌市北区,北九条西３丁目１０番１号小田ビル３Ｆ,,01,102,0600809,,,,,,,2023-05-23,1,,,,,エスアイ,0
1428,6430005014723,新規,0,2023-05-23,2023-05-23,一般社団法人北海道ドローン教習センター,,その他の設立登記法人,北海道,札幌市北区,北七条西５丁目６番地１ストークマンション札幌６０４号室,,01,102,0600807,,,,,,,2023-05-23,1,,,,,ホッカイドウドローンキョウシュウセンター,0
1429,6440003001524,新規,0,2023-05-23,2023-05-23,合同会社インベントリー,,合同会社,北海道,函館市,北美原２丁目６番１２－１０４号,,01,202,0410807,,,,,,,2023-05-23,1,,,,,インベントリー,0
1435,6700150116370,新規,0,2023-05-23,2023-05-23,ｒｕｉａｎｓｈｉ　ｌｕｙｕｎ　ｄｉａｎｚｉ　ｓｈａｎｇｗｕ　ｙｏｕｘｉａｎ　ｇｏｎｇｓｉ,,外国会社等,,,,,,,,ｓｈｅｎｃｈｅｎｇｊｉｅｄａｏ　ｇｏｎｇｙｅｙｕａｎｑｕｆｕｚｈｏｕｘｉｌｕｒｕｉａｎ　ｚｈｅｊｉａｎｇ,,,,,,2023-05-23,1,,,,,ズイアンシロウンデンシシヨウムユウゲンコウシ,0
1436,6700150116379,新規,0,2023-05-23,2023-05-23,Ｅｌｋｓｏｎ　Ｉｎｃ．,,外国会社等,,,,,,,,７３９　Ｐａｎｏｒａｍａ　Ｈｉｌｌｓ　Ｄｒ　ＮＷ，Ｃａｌｇａｒｙ，ＡＢ　Ｔ３Ｋ４Ｔ４　Ｃａｎａｄａ,,,,,,2023-05-23,1,,,,,エレクセンインコーポレイテツド,0
1437,6700150116387,新規,0,2023-05-23,2023-05-23,Ｓｈｅｎｚｈｅｎｔａｏｚｈｉｋｅｊｉｙｏｕｘｉａｎｇｏｎｇｓｉ,,外国会社等,,,,,,,,Ｂａｏａｎｑｕ　Ｃｈｕａｎｇｙｅｅｒｌｕ　Ｄｏｎｇｌｉａｎｄａｓｈａ　Ａ４０６，Ｓｈｅｎｚｈｅｎ，Ｇｕａｎｇｄｏｎｇ，５１８０００，ＣＮ,,,,,,2023-05-23,1,,,,,シンセントウシカギユウゲンコウシ,0
1438,6700150116395,新規,0,2023-05-23,2023-05-23,ＷＥＮＺＨＯＵ　ＢＡＯＧＥＬＩ　ＳＡＮＩＴＡＲＹ　ＷＡＲＥＳ　ＣＯ．，ＬＴＤ,,外国会社等,,,,,,,,ｙａｎｇｗａｎ　ｖｉｌｌａｇｅ（ｗｅｎｚｈｏｕｓｈｉｋａｎｇｈａｏｄｉａｎｊｉａｏｙｉｑｉｙｏｕｘｉａｎｇｏｎｇｓｉｎｅｉ），ｑｉａｏｘｉａ　ｔｏｗｎ，ｙｏｎｇｊｉａ　ｃｏｕｎｔｙ，ｚｈｅｊｉａｎｇ　Ｐｒｏｖｉｎｃｅ，Ｃｈｉｎａ,,,,,,2023-05-23,1,,,,,ウェンゾウバオゲリサニタリーウェアズカンパニーリミテッド,0
1439,6700150116404,新規,0,2023-05-23,2023-05-23,ｈｅｚｅｈｕｉｄｉｎｇ　ｑｉｙｅｇｕａｎｌｉ　ｙｏｕｘｉａｎｇｏｎｇｓｉ,,外国会社等,,,,,,,,Ｐｕ　Ｌｉａｎ　Ｊｉ　Ｚｈｅｎ　Ｙｕａｎ　Ｍｅｎｇ　Ｘｉｎ　Ｃｕｎ，Ｃａｏ　Ｃｏｕｎｔｙ，Ｈｅｚｅ　Ｃｉｔｙ，Ｓｈａｎｄｏｎｇ　Ｐｒｏｖｉｎｃｅ，Ｃｈｉｎａ,,,,,,2023-05-23,1,,,,,ヘゼフイディンキエガンリユウゲンコウシ,0
1445,7010001235513,新規,0,2023-05-23,2023-05-23,山佐産業ＱＦＡ１リース株式会社,,株式会社,東京都,千代田区,丸の内３丁目１番１号東京共同会計事務所内,,13,101,1000005,,,,,,,2023-05-23,1,,,,,ヤマササンギョウキューエフエーワンリース,0
1447,7010003040572,新規,0,2023-05-23,2023-05-23,Ｌｅｎａ合同会社,,合同会社,東京都,文京区,千石２丁目１１番９－３１９号,,13,105,1120011,,,,,,,2023-05-23,1,,,,,レナ,0
1448,7010003040647,新規,0,2023-05-23,2023-05-23,あいじょう合同会社,,合同会社,東京都,中央区,晴海５丁目１番１７－１３０９号,,13,102,1040053,,,,,,,2023-05-23,1,,,,,アイジョウ,0
1450,7010103002142,新規,0,2023-05-23,2023-05-23,開電話サービス合同会社,,合同会社,東京都,八王子市,大谷町３８０番地１,,13,201,1920034,,,,,,,2023-05-23,1,,,,,カイデンワサービス,0
1459,7010405022128,新規,0,2023-05-23,2023-05-23,一般社団法人ＢｅＡＨＥＲＯ,,その他の設立登記法人,東京都,港区,六本木７丁目１１番１９号ベルハウス３０１,,13,103,1060032,,,,,,,2023-05-23,1,,,,,ビーアヒーロー,0
1460,7010501050379,新規,0,2023-05-23,2023-05-23,中国南玻日本株式会社,,株式会社,東京都,台東区,上野６丁目７番１６号川久保ビル７０２号室,,13,106,1100005,,,,,,,2023-05-23,1,,,,,チュウゴクナンハニホン,0
1474,7011003016876,新規,0,2023-05-23,2023-05-23,Ａｒｉｅｓ合同会社,,合同会社,東京都,渋谷区,神宮前６丁目２３－４桑野ビル２Ｆ,,13,113,1500001,,,,,,,2023-05-23,1,,,,,アリエス,0
1480,7011201024656,新規,0,2023-05-23,2023-05-23,株式会社ｍｏｍｏｐｏｅｍ,,株式会社,東京都,中野区,中央４丁目１－８－４０３富士シャトー,,13,114,1640011,,,,,,,2023-05-23,1,,,,,モモポエム,0
1486,7011501029322,新規,0,2023-05-23,2023-05-23,株式会社中川,,株式会社,東京都,北区,王子２丁目１番９－１３０２号,,13,117,1140002,,,,,,,2023-05-23,1,,,,,ナカガワ,0
1515,7030001153985,新規,0,2023-05-23,2023-05-23,株式会社ｂｏｏｋｍａｒｋ,,株式会社,埼玉県,所沢市,美原町３丁目２９７０番地の７３,,11,208,3590045,,,,,,,2023-05-23,1,,,,,ブックマーク,0
1516,7030001153993,新規,0,2023-05-23,2023-05-23,株式会社Ｋｉｔｅ建設,,株式会社,埼玉県,上尾市,大字平方領々家２８９番地１４,,11,219,3620055,,,,,,,2023-05-23,1,,,,,カイトケンセツ,0
1517,7030001154050,新規,0,2023-05-23,2023-05-23,株式会社ＲＥＸＳＯＬ,,株式会社,埼玉県,朝霞市,溝沼６丁目４番２７－２３号,,11,227,3510023,,,,,,,2023-05-23,1,,,,,レクソル,0
1525,7030003021785,新規,0,2023-05-23,2023-05-23,合同会社ＲｔｏＪ,,合同会社,埼玉県,上尾市,壱丁目南４番地１,,11,219,3620083,,,,,,,2023-05-23,1,,,,,アールトゥジェイ,0
1526,7030005021271,新規,0,2023-05-23,2023-05-23,行政書士法人ＳＫＪ,,その他の設立登記法人,埼玉県,狭山市,富士見２丁目４番５号,,11,215,3501306,,,,,,,2023-05-23,1,,,,,エスケイジェイ,0
1530,7040001128524,新規,0,2023-05-23,2023-05-23,株式会社Ａｙｕｍｉｌｉｇｈｔ,,株式会社,千葉県,八千代市,萱田７４０番地８,,12,221,2760043,,,,,,,2023-05-23,1,,,,,アユミライト,0
1531,7040001128540,新規,0,2023-05-23,2023-05-23,株式会社岡田興業,,株式会社,千葉県,松戸市,高塚新田８５番地,,12,207,2702222,,,,,,,2023-05-23,1,,,,,オカダコウギョウ,0
1534,7040003022675,新規,0,2023-05-23,2023-05-23,合同会社クリアライト,,合同会社,千葉県,鎌ケ谷市,西佐津間１丁目２７番２２号,,12,224,2730134,,,,,,,2023-05-23,1,,,,,クリアライト,0
1540,7080101024025,新規,0,2023-05-23,2023-05-23,株式会社秀,,株式会社,静岡県,富士宮市,浅間町１２番地の１３、２Ｆ,,22,207,4180032,,,,,,,2023-05-23,1,,,,,シュウ,0
1544,7100001036431,新規,0,2023-05-23,2023-05-23,株式会社ＩＫＰメディア,,株式会社,長野県,長野市,南千歳１丁目３番７号,,20,201,3800823,,,,,,,2023-05-23,1,,,,,アイケーピーメディア,0
1553,7110001037560,新規,0,2023-05-23,2023-05-23,株式会社ＬＡＶＩＲＩＳ,,株式会社,新潟県,新潟市西区,小針６丁目２５番２５号,,15,107,9502022,,,,,,,2023-05-23,1,,,,,ラヴィリス,0
1565,7120001254832,新規,0,2023-05-23,2023-05-23,株式会社Ｃｈｅｅｒｆｕｌ,,株式会社,大阪府,枚方市,長尾元町７丁目１５番１３号,,27,210,5730163,,,,,,,2023-05-23,1,,,,,チェアフル,0
1566,7120001255013,新規,0,2023-05-23,2023-05-23,株式会社ＮｅｘｔＢｌｏｏｍ．,,株式会社,大阪府,大阪市中央区,平野町３丁目３番３号１階,,27,128,5410046,,,,,,,2023-05-23,1,,,,,ネクストブルーム,0
1567,7120001255095,新規,0,2023-05-23,2023-05-23,ＡＩ　Ｉｎｎｏｖａｔｉｏｎｓ株式会社,,株式会社,大阪府,大阪市西区,南堀江２丁目７番４号,,27,106,5500015,,,,,,,2023-05-23,1,,,,,エーアイイノベーションズ,0
1568,7120001255104,新規,0,2023-05-23,2023-05-23,株式会社Ｎｅｗ　Ａｇｅｎｄａ,,株式会社,大阪府,大阪市北区,同心２丁目４番２号３Ｆ,,27,127,5300035,,,,,,,2023-05-23,1,,,,,ニューアジェンダ,0
1569,7120001255112,新規,0,2023-05-23,2023-05-23,株式会社Ｆｒｏｎｔ　Ｌｉｎｅ,,株式会社,大阪府,大阪市東住吉区,今林２丁目２８－２６,,27,121,5460001,,,,,,,2023-05-23,1,,,,,フロントライン,0
1570,7120001255145,新規,0,2023-05-23,2023-05-23,株式会社Ｆｉｒｓｔ　Ｌｏｖｅ,,株式会社,大阪府,大阪市大正区,鶴町１丁目８番６号,,27,108,5510023,,,,,,,2023-05-23,1,,,,,ファーストラブ,0
1577,7122003002582,新規,0,2023-05-23,2023-05-23,合同会社ＢＬＵＳＨ,,合同会社,大阪府,東大阪市,小若江３丁目１番１９号ソブリオ４－２０３号室,,27,227,5770818,,,,,,,2023-05-23,1,,,,,ブラッシュ,0
1586,7130005016781,新規,0,2023-05-23,2023-05-23,一般社団法人ｅ‐ｄｏｎｕｔｓ,,その他の設立登記法人,京都府,京都市西京区,大原野上里北ノ町９０７－９,,26,111,6101121,,,,,,,2023-05-23,1,,,,,イードーナツ,0
1592,7140003019109,新規,0,2023-05-23,2023-05-23,合同会社はこび湯,,合同会社,兵庫県,神戸市兵庫区,永沢町３丁目７番１７－１０１号,,28,105,6520816,,,,,,,2023-05-23,1,,,,,ハコビユ,0
1593,7140003019117,新規,0,2023-05-23,2023-05-23,合同会社ＰＯＣｏ　ＣＯＭＭＵＮＩＣＡＴＩＯＮＳ,,合同会社,兵庫県,神戸市中央区,磯上通８丁目１番２９号カサベラビルＣ＆Ｍ４０３号室,,28,110,6510086,,,,,,,2023-05-23,1,,,,,ポココミュニケーションズ,0
1599,7180001156412,新規,0,2023-05-23,2023-05-23,株式会社リミー,,株式会社,愛知県,名古屋市南区,扇田町１２－１サザンヒルズ１０１号室,,23,112,4570037,,,,,,,2023-05-23,1,,,,,リミー,0
1600,7180001156420,新規,0,2023-05-23,2023-05-23,株式会社ｐｕｎｉｏ,,株式会社,愛知県,名古屋市北区,光音寺町字野方１９１９番地の４２,,23,103,4620053,,,,,,,2023-05-23,1,,,,,プニオ,0
1601,7180001156429,新規,0,2023-05-23,2023-05-23,株式会社日天建設,,株式会社,愛知県,あま市,坂牧西之宮６６番地３,,23,237,4901115,,,,,,,2023-05-23,1,,,,,ニッテンケンセツ,0
1623,7260003004313,新規,0,2023-05-23,2023-05-23,合同会社平川内装,,合同会社,岡山県,備前市,東片上３８９－３,,33,211,7050022,,,,,,,2023-05-23,1,,,,,ヒラカワナイソウ,0
1631,7290001101621,新規,0,2023-05-23,2023-05-23,株式会社ＬｉＢｒｏ　Ｌｉｆｅ　Ｗｏｒｋｓ,,株式会社,福岡県,福岡市中央区,赤坂１丁目８－２３ＤＡＩＦＵＫＵＭＩＤＯＲＩ．ｓｏ,,40,133,8100042,,,,,,,2023-05-23,1,,,,,リブロライフワークス,0
1634,7290801029541,新規,0,2023-05-23,2023-05-23,株式会社豊和商会,,株式会社,福岡県,行橋市,泉中央２丁目１４番２３号,,40,213,8240034,,,,,,,2023-05-23,1,,,,,ホウワショウカイ,0
1635,7300001013311,新規,0,2023-05-23,2023-05-23,株式会社永竹舎,,株式会社,佐賀県,佐賀市,与賀町１３５３番地５,,41,201,8400047,,,,,,,2023-05-23,1,,,,,ナガタケシャ,0
1650,7390001017262,新規,0,2023-05-23,2023-05-23,株式会社ＮＤＹエンジニアリング,,株式会社,山形県,鶴岡市,丸岡字町の内３０９番地１,,06,203,9970334,,,,,,,2023-05-23,1,,,,,エヌディワイエンジニアリング,0
1658,7430001089173,新規,0,2023-05-23,2023-05-23,株式会社ＦＥｗｏｒｋｓ,,株式会社,北海道,札幌市北区,北十四条西１丁目１番７－１４０５号,,01,102,0010014,,,,,,,2023-05-23,1,,,,,エフイーワークス,0
1663,7430005014722,新規,0,2023-05-23,2023-05-23,一般社団法人伝統漢方医学研究院,,その他の設立登記法人,北海道,札幌市厚別区,厚別中央四条２丁目１９番１５号テラウッド厚別２０５,,01,108,0040054,,,,,,,2023-05-23,1,,,,,デントウカンポウイガクケンキュウイン,0
1675,7700150116378,新規,0,2023-05-23,2023-05-23,ｌｉｎｘｉａｎｇｓｈｉｓｈｉｚｏｕｓｈｕａｎｇｙａｎｇｄｉａｎｚｉｓｈａｎｇｗｕｙｏｕｘｉａｎｇｏｎｇｓｉ,,外国会社等,,,,,,,,ｌｉｎｘｉａｎｇｓｈｉｓｈｉｚｏｕｓｈｕａｎｇｙａｎｇｄｉａｎｚｉｓｈａｎｇｗｕｙｏｕｘｉａｎｇｏｎｇｓｉ　ｌｉｎｘｉａｎｇｓｈｉ　ｗｕｔａｎｇｌｕ　　７０ｈａｏ　３０１ｓｈｉ　ｙｕｅｙａｎｇｓｈｉ　ｈｕｎａｎｓｈｅｎｇ,,,,,,2023-05-23,1,,,,,リンシヨウシスウソウヨウデンシシヨウムユウゲンコウシ,0
1676,7700150116394,新規,0,2023-05-23,2023-05-23,Ｓｈｅｎｚｈｅｎ　Ｎｕｏｚｈｅ　Ｔｅｃｈｎｏｌｏｇｙ　Ｃｏ．，Ｌｔｄ．,,外国会社等,,,,,,,,Ｎｏ．５０１－５０２，Ｂｕｉｌｄｉｎｇ　２，Ｆｕｇｕｏ　Ｉｎｄｕｓｔｒｙ　Ｚｏｎｅ，Ｋａｉｆｅｎｇ　Ｒｏａｄ　＃２８　Ｆｕｔｉａｎ　Ｄｉｓｔｒｉｃｔ，Ｓｈｅｎｚｈｅｎ　Ｇｕａｎｇｄｏｎｇ　Ｐｒｏｖｉｎｃｅ，Ｃｈｉｎａ,,,,,,2023-05-23,1,,,,,シンセンヌオゼテクノロジーカンパニーリミテッド,0
1677,7700150116403,新規,0,2023-05-23,2023-05-23,ｘｉａｏ　ｙｉ　ｚｈｉ　ｎｅｎｇ　ｋｅ　ｊｉ　ｙａｎｇ　ｚｈｏｕ　ｙｏｕ　ｘｉａｎ　ｇｏｎｇ　ｓｉ,,外国会社等,,,,,,,,ｊｉａｎｇ　ｄｕ　ｑｕ　ｄａ　ｑｉａｏ　ｚｈｅｎ　ｚｈｏｎｇ　ｘｉａｏ　ｑｉ　ｙｅ　ｙｕａｎ　１－Ａ　ｙａｎｇ　ｚｈｏｕ　ｊｉａｎｇ　ｓｕ　ＣＮ,,,,,,2023-05-23,1,,,,,シャオイジネンケジヤンゾウユウゲンコウシ,0
1684,8010001235495,新規,0,2023-05-23,2023-05-23,株式会社ココカラファースト,,株式会社,東京都,千代田区,六番町１番地１５－２０２号,,13,101,1020085,,,,,,,2023-05-23,1,,,,,ココカラファースト,0
1685,8010001235520,新規,0,2023-05-23,2023-05-23,株式会社ユニークポイント,,株式会社,東京都,千代田区,九段北１丁目１－７カーサ九段９０３,,13,101,1020073,,,,,,,2023-05-23,1,,,,,ユニークポイント,0
1689,8010003040662,新規,0,2023-05-23,2023-05-23,合同会社ＴＳＵＭＵＧＵ,,合同会社,東京都,千代田区,六番町６番地６,,13,101,1020085,,,,,,,2023-05-23,1,,,,,ツムグ,0
1693,8010401174491,新規,0,2023-05-23,2023-05-23,アキラ株式会社,,株式会社,東京都,港区,芝３丁目２５番２号黒田芝ビル３Ｆ・３０８号室,,13,103,1050014,,,,,,,2023-05-23,1,,,,,アキラ,0
1700,8010701044188,新規,0,2023-05-23,2023-05-23,株式会社ｆａｎｃｅｒ,,株式会社,東京都,品川区,平塚２丁目４－２６リビオメゾン戸越銀座６０２,,13,109,1420051,,,,,,,2023-05-23,1,,,,,ファンサー,0
1701,8010701044295,新規,0,2023-05-23,2023-05-23,株式会社ポップアンドフライ,,株式会社,東京都,品川区,東大井１丁目１１番７－１１２号,,13,109,1400011,,,,,,,2023-05-23,1,,,,,ポップアンドフライ,0
1702,8010703006698,新規,0,2023-05-23,2023-05-23,合同会社Ｗｅｌｌ‐ｂｅｉｎｇ　ｓｔｕｄｉｏ,,合同会社,東京都,品川区,荏原４丁目８－７,,13,109,1420063,,,,,,,2023-05-23,1,,,,,ウェルビーイングスタジオ,0
1703,8010801033982,新規,0,2023-05-23,2023-05-23,株式会社エイチワイ,,株式会社,東京都,大田区,大森西２丁目１７番３１－７０１号,,13,111,1430015,,,,,,,2023-05-23,1,,,,,エイチワイ,0
1712,8011003016883,新規,0,2023-05-23,2023-05-23,ＰＶシステム合同会社,,合同会社,東京都,渋谷区,宇田川町３６番２号ノア渋谷７０２,,13,113,1500042,,,,,,,2023-05-23,1,,,,,ピーブイシステム,0
1715,8011101102940,新規,0,2023-05-23,2023-05-23,安博木材株式会社,,株式会社,東京都,新宿区,百人町２丁目１番４５号赤煉瓦２３６,,13,104,1690073,,,,,,,2023-05-23,1,,,,,アンハクモクザイ,0
1716,8011101102949,新規,0,2023-05-23,2023-05-23,ジャパントラベラーズ株式会社,,株式会社,東京都,新宿区,上落合１丁目２４番４号,,13,104,1610034,,,,,,,2023-05-23,1,,,,,ジャパントラベラーズ,0
1728,8011801042445,新規,0,2023-05-23,2023-05-23,株式会社ＳａｂａｉＢｅｌｌ,,株式会社,東京都,足立区,加平３丁目１１番１８号セザールパークサイド綾瀬３０６号室,,13,121,1210055,,,,,,,2023-05-23,1,,,,,サバイベル,0
1731,8012401040558,新規,0,2023-05-23,2023-05-23,株式会社ＨＡＭＡＳＩ,,株式会社,東京都,小金井市,東町４丁目３８番２４号３Ｆ,,13,210,1840011,,,,,,,2023-05-23,1,,,,,ハマシ,0
1744,8020001151667,新規,0,2023-05-23,2023-05-23,株式会社Ｗ．ｂｏｏｓｔ,,株式会社,神奈川県,横浜市戸塚区,上矢部町１８７０番地１イルティモーネ１０４号,,14,110,2450053,,,,,,,2023-05-23,1,,,,,ダブルブースト,0
1745,8020001151691,新規,0,2023-05-23,2023-05-23,株式会社鳴釜ストラテジックパートナーズ,,株式会社,神奈川県,横浜市青葉区,美しが丘１丁目８番地１,,14,117,2250002,,,,,,,2023-05-23,1,,,,,ナルカマストラテジックパートナーズ,0
1748,8021001079080,新規,0,2023-05-23,2023-05-23,株式会社Ｅｎｔｒ,,株式会社,神奈川県,相模原市南区,上鶴間本町１丁目３６－５,,14,153,2520318,,,,,,,2023-05-23,1,,,,,エンター,0
1752,8021003013104,新規,0,2023-05-23,2023-05-23,合同会社犬の整体研究所,,合同会社,神奈川県,藤沢市,並木台２丁目５番地の１７,,14,205,2510005,,,,,,,2023-05-23,1,,,,,イヌノセイタイケンキュウショ,0
1758,8030001153992,新規,0,2023-05-23,2023-05-23,笛木鋼業株式会社,,株式会社,埼玉県,加須市,外田ケ谷８６８番地,,11,210,3470126,,,,,,,2023-05-23,1,,,,,フエキコウギョウ,0
1759,8030001154000,新規,0,2023-05-23,2023-05-23,株式会社ＡＳＴＥＲ建設,,株式会社,埼玉県,児玉郡神川町,大字池田２５番地７,,11,383,3670234,,,,,,,2023-05-23,1,,,,,アスターケンセツ,0
1764,8030003021792,新規,0,2023-05-23,2023-05-23,合同会社ＢＮＢ,,合同会社,埼玉県,草加市,両新田西町２１６番地９,,11,221,3400027,,,,,,,2023-05-23,1,,,,,ビーエヌビー,0
1770,8040001128523,新規,0,2023-05-23,2023-05-23,吉華株式会社,,株式会社,千葉県,市川市,田尻４丁目９番１６－４４８号,,12,203,2720014,,,,,,,2023-05-23,1,,,,,ヨシカ,0
1773,8040003022633,新規,0,2023-05-23,2023-05-23,合同会社３Ｗ,,合同会社,千葉県,習志野市,津田沼６丁目１２－７,,12,216,2750016,,,,,,,2023-05-23,1,,,,,スリーダブリュー,0
1777,8060001036014,新規,0,2023-05-23,2023-05-23,太陽と緑の株式会社,,株式会社,栃木県,足利市,名草下町４４６０番地,,09,202,3260003,,,,,,,2023-05-23,1,,,,,タイヨウトミドリノ,0
1779,8080001025634,新規,0,2023-05-23,2023-05-23,株式会社Ｄｆｕｎ,,株式会社,静岡県,静岡市駿河区,手越原２３６番地の１,,22,102,4210131,,,,,,,2023-05-23,1,,,,,ディーファン,0
1782,8080101024024,新規,0,2023-05-23,2023-05-23,株式会社伴走サポート,,株式会社,静岡県,富士市,鵜無ケ淵４８０番地の２１,,22,210,4170805,,,,,,,2023-05-23,1,,,,,バンソウサポート,0
1783,8080401026496,新規,0,2023-05-23,2023-05-23,株式会社ＡＩＤＳＴＥＰ,,株式会社,静岡県,浜松市西区,和光町６７２番地,,22,133,4311101,,,,,,,2023-05-23,1,,,,,エイドステップ,0
1786,8100001036430,新規,0,2023-05-23,2023-05-23,北島農園株式会社,,株式会社,長野県,上高井郡小布施町,大字都住５８番地,,20,541,3810208,,,,,,,2023-05-23,1,,,,,キタジマノウエン,0
1796,8120001255078,新規,0,2023-05-23,2023-05-23,ローカルエナジーシステム株式会社,,株式会社,大阪府,大阪市西区,靱本町１丁目１１番７号,,27,106,5500004,,,,,,,2023-05-23,1,,,,,ローカルエナジーシステム,0
1797,8120001255136,新規,0,2023-05-23,2023-05-23,株式会社Ａｃｔｉｏｎ,,株式会社,大阪府,大阪市中央区,難波４丁目６番１４－８０１号,,27,128,5420076,,,,,,,2023-05-23,1,,,,,アクション,0
1808,8130003008739,新規,0,2023-05-23,2023-05-23,合同会社西陣運輸,,合同会社,京都府,京都市上京区,堀川通今出川下る竪門前町４１４番地西陣産業会館Ｄ－１０３,,26,102,6028216,,,,,,,2023-05-23,1,,,,,ニシジンウンユ,0
1814,8140001130270,新規,0,2023-05-23,2023-05-23,株式会社ＳｕＭｉｒａｉ,,株式会社,兵庫県,神戸市中央区,琴ノ緒町５丁目２９－５０１,,28,110,6510094,,,,,,,2023-05-23,1,,,,,スミライ,0
1815,8140001130279,新規,0,2023-05-23,2023-05-23,株式会社ＹＯＵ・ＰＬＵＳ,,株式会社,兵庫県,神戸市中央区,磯上通８丁目１番２９号カサベラビルＣ＆Ｍ４０３号室,,28,110,6510086,,,,,,,2023-05-23,1,,,,,ユープラス,0
1817,8140005026630,新規,0,2023-05-23,2023-05-23,一般社団法人関西示道塾,,その他の設立登記法人,兵庫県,宝塚市,高司２丁目１６番１５号,,28,214,6650051,,,,,,,2023-05-23,1,,,,,カンサイシドウジュク,0
1818,8170001017622,新規,0,2023-05-23,2023-05-23,株式会社角勝建設,,株式会社,和歌山県,紀の川市,西大井５５５番地１,,30,208,6496417,,,,,,,2023-05-23,1,,,,,カクショウケンセツ,0
1826,8180001156411,新規,0,2023-05-23,2023-05-23,みさ錦株式会社,,株式会社,愛知県,名古屋市中区,錦３丁目９番１４号,,23,106,4600003,,,,,,,2023-05-23,1,,,,,ミサニシキ,0
1830,8180301037410,新規,0,2023-05-23,2023-05-23,株式会社宗,,株式会社,愛知県,刈谷市,南桜町１丁目７３番地,,23,210,4480841,,,,,,,2023-05-23,1,,,,,ソウ,0
1839,8240005015581,新規,0,2023-05-23,2023-05-23,一般社団法人ＹＡＹＯＩ　ＭＥＤＩＣＡＬ,,その他の設立登記法人,広島県,広島市中区,白島北町１０番１１号,,34,101,7300001,,,,,,,2023-05-23,1,,,,,ヤヨイメディカル,0
1848,8290801029540,新規,0,2023-05-23,2023-05-23,株式会社てとて,,株式会社,福岡県,北九州市小倉北区,京町３丁目１－１セントシティ７Ｆ　ＡＴＯＭｉｃａ北九州内,,40,106,8020002,,,,,,,2023-05-23,1,,,,,テトテ,0
1849,8290803004418,新規,0,2023-05-23,2023-05-23,ＬＩＢＥＲＯ合同会社,,合同会社,福岡県,北九州市八幡西区,大字浅川６８９番地の２,,40,109,8070877,,,,,,,2023-05-23,1,,,,,リベロ,0
1856,8370003006149,新規,0,2023-05-23,2023-05-23,合同会社ＷＡＫＡＭＥ,,合同会社,宮城県,仙台市宮城野区,榴岡３丁目８番２８－５０２号,,04,102,9830852,,,,,,,2023-05-23,1,,,,,ワカメ,0
1857,8380001033706,新規,0,2023-05-23,2023-05-23,株式会社むー,,株式会社,福島県,田村郡三春町,桜ケ丘４丁目５番地の４,,07,521,9637711,,,,,,,2023-05-23,1,,,,,ムー,0
1858,8380001033714,新規,0,2023-05-23,2023-05-23,株式会社美寛建築,,株式会社,福島県,郡山市,片平町字新蟻塚１０７番地の４６,,07,203,9630211,,,,,,,2023-05-23,1,,,,,ミヒロケンチク,0
1859,8380003005463,新規,0,2023-05-23,2023-05-23,合同会社大手門マネジメント,,合同会社,福島県,白河市,大手町１１番地１５,,07,205,9610908,,,,,,,2023-05-23,1,,,,,オオテモンマネジメント,0
1863,8420001018272,新規,0,2023-05-23,2023-05-23,株式会社おうか,,株式会社,青森県,八戸市,南郷大字市野沢字黒坂２６番地,,02,203,0310111,,,,,,,2023-05-23,1,,,,,オウカ,0
1871,8430003015060,新規,0,2023-05-23,2023-05-23,合同会社ＣＲＥＡ,,合同会社,北海道,札幌市豊平区,水車町２丁目３番１５－１００３号,,01,105,0620912,,,,,,,2023-05-23,1,,,,,クレア,0
1872,8430003015069,新規,0,2023-05-23,2023-05-23,合同会社エマーブル・マネジメント,,合同会社,北海道,美唄市,西一条南２丁目２番１５－１号,,01,215,0720024,,,,,,,2023-05-23,1,,,,,エマーブルマネジメント,0
1873,8450003002338,新規,0,2023-05-23,2023-05-23,合同会社ｆ　ｗｏｒｋｓ,,合同会社,北海道,旭川市,亀吉三条２丁目１番２－２０１号,,01,204,0700083,,,,,,,2023-05-23,1,,,,,,0
1879,8700150116369,新規,0,2023-05-23,2023-05-23,ｙｉｗｕｓｈｉ　ｑｕａｎｈｏｎｇ　ｄｉａｎｚｉｓｈａｎｇｗｕｙｏｕｘｉａｎｇｏｎｇｓｉ,,外国会社等,,,,,,,,ｚｈｅｊｉａｎｇｓｈｅｎｇ　ｙｉｗｕｓｈｉ　ｊｉａｎｇｄｏｎｇｊｉｅｄａｏ　ｓｈａｎｇｂｏｈｕａｙｕａｎ　Ｒｏｏｍ　１５０１，Ｕｎｉｔ　２，Ｂｕｉｌｄｉｎｇ　Ｃ２,,,,,,2023-05-23,1,,,,,イーウーシセンコウデンシシヨウムユウゲンコウシ,0
1880,8700150116377,新規,0,2023-05-23,2023-05-23,ＳｈｅｎＺｈｅｎＳｈｉＷａｎＷａｎＸｉｎｇＸｉａｎｇＳｈｅＪｉＹｏｕＸｉａｎＧｏｎｇＳｉ,,外国会社等,,,,,,,,１０３－１，Ａ４　Ｄｏｎｇ，ＨｅｋａｎＧｏｎｇＹｅＱｕ　ＮａｎＫｅｎｇＳｈｅＱｕ，ＢａｎＴｉａｎＪｉｅＤａｏ，ＬｏｎｇＧａｎｇＱｕ　Ｓｈｅｎ　Ｚｈｅｎ　Ｓｈｉ　Ｇｕａｎｇ　Ｄｏｎｇ　Ｓｈｅｎ,,,,,,2023-05-23,1,,,,,シンセンシマンマンイメージデザインユウゲンコウシ,0
1881,8700150116393,新規,0,2023-05-23,2023-05-23,Ｊｉａｏｚｕｏ　Ｐｅｎｇｃｈｅｎｇｘｉｎ　Ｍａｔｅｒｉａｌｓ　Ｃｏ．，Ｌｔｄ．,,外国会社等,,,,,,,,Ｆａｃａｄｅ　Ｒｏｏｍ　Ｎｏ．６，１ｓｔ　Ｆｌｏｏｒ，Ｃｈｅｍｉｃａｌ　Ｌｉｇｈｔ　Ｃｏｍｐａｎｙ，Ｓｔａｔｉｏｎ　Ｓｔｒｅｅｔ，Ｊｉａｏｚｕｏ，Ｃｈｉｎａ,,,,,,2023-05-23,1,,,,,ジアズオベンチェンシンマテリアルズカンパニーリミテッド,0
1882,8700150116402,新規,0,2023-05-23,2023-05-23,ｓｈｅｎｚｈｅｎｓｈｉ　ｆｕｃｈｕａｎｇｙｉｊｉａｊｕ　ｙｏｎｇｐｉｎｇｙｏｕｘｉａｎｇｏｎｇｓｉ,,外国会社等,,,,,,,,１０１，Ｂｕｉｌｄｉｎｇ　Ａ，Ｎｏ．５６　Ａｎｈｕａ　Ｒｏａｄ，Ａｎｌｉａｎｇ　Ｃｏｍｍｕｎｉｔｙ，Ｙｕａｎｓｈａｎ　Ｓｔｒｅｅｔ，Ｌｏｎｇｇａｎｇ　Ｄｉｓｔｒｉｃｔ，Ｇｕａｎｇｄｏｎｇ　Ｐｒｏｖｉｎｃｅ，Ｃｈｉｎａ,,,,,,2023-05-23,1,,,,,シンセンシフチュアンジジャジュヨンピンユウゲンコウシ,0
1894,9010001235486,新規,0,2023-05-23,2023-05-23,株式会社Ｄｅｌｔａ,,株式会社,東京都,千代田区,神田三崎町２丁目１６－８,,13,101,1010061,,,,,,,2023-05-23,1,,,,,デルタ,0
1895,9010001235528,新規,0,2023-05-23,2023-05-23,ｅＣＨＡＲＧＥ株式会社,,株式会社,東京都,千代田区,大手町２丁目１番１号大手町野村ビル１６階,,13,101,1000004,,,,,,,2023-05-23,1,,,,,イーチャージ,0
1896,9010001235544,新規,0,2023-05-23,2023-05-23,株式会社ＩＣＭＧ　Ｄｉｇｉｔａｌ,,株式会社,東京都,千代田区,丸の内２丁目１番１号,,13,101,1000005,,,,,,,2023-05-23,1,,,,,アイシーエムジーデジタル,0
1897,9010003040629,新規,0,2023-05-23,2023-05-23,パートナーシップコンサルティング合同会社,,合同会社,東京都,中央区,銀座１丁目２２番１１号銀座大竹ビジデンス２Ｆ,,13,102,1040061,,,,,,,2023-05-23,1,,,,,パートナーシップコンサルティング,0
1898,9010003040645,新規,0,2023-05-23,2023-05-23,合同会社トリニティマッターホルン,,合同会社,東京都,中央区,日本橋１丁目４番１号,,13,102,1030027,,,,,,,2023-05-23,1,,,,,トリニティマッターホルン,0
1900,9010005036732,新規,0,2023-05-23,2023-05-23,一般社団法人ファンドドゥ１４号,,その他の設立登記法人,東京都,千代田区,霞が関３丁目２番５号,,13,101,1000013,,,,,,,2023-05-23,1,,,,,ファンドドゥジュウヨウゴウ,0
1901,9010101015656,新規,0,2023-05-23,2023-05-23,株式会社ＴＲＵＳＴ,,株式会社,東京都,八王子市,横川町８３５番地９,,13,201,1930823,,,,,,,2023-05-23,1,,,,,トラスト,0
1912,9010401174516,新規,0,2023-05-23,2023-05-23,株式会社Ｋ‐ｉｎｇＲｅａｌｔｙ,,株式会社,東京都,港区,白金３丁目７－５トリニティシロカネ３０２,,13,103,1080072,,,,,,,2023-05-23,1,,,,,ケイングリアルティ,0
1913,9010401174532,新規,0,2023-05-23,2023-05-23,株式会社ドルフィン・バリュー・アップ１２号,,株式会社,東京都,港区,芝公園１丁目１番１号住友不動産御成門タワー７階,,13,103,1050011,,,,,,,2023-05-23,1,,,,,ドルフィンバリューアップジュウニゴウ,0
1917,9010403030139,新規,0,2023-05-23,2023-05-23,カラーリリー合同会社,,合同会社,東京都,港区,芝大門１丁目６番６号芝大門ヤマトビル３階,,13,103,1050012,,,,,,,2023-05-23,1,,,,,カラーリリー,0
1927,9010901053013,新規,0,2023-05-23,2023-05-23,株式会社スター,,株式会社,東京都,世田谷区,池尻１丁目１０番８号５０１,,13,112,1540001,,,,,,,2023-05-23,1,,,,,スター,0
1928,9010901053095,新規,0,2023-05-23,2023-05-23,株式会社ＰａｌａｃｅＵ,,株式会社,東京都,世田谷区,駒沢２丁目１９－１０,,13,112,1540012,,,,,,,2023-05-23,1,,,,,パレスユー,0
1938,9011001154461,新規,0,2023-05-23,2023-05-23,株式会社ＴＡＩＺＡＮ,,株式会社,東京都,渋谷区,東２丁目２６－１５ストーク代官山,,13,113,1500011,,,,,,,2023-05-23,1,,,,,タイザン,0
1942,9011101102948,新規,0,2023-05-23,2023-05-23,衡山文信株式会社,,株式会社,東京都,新宿区,西新宿４丁目１６番３号－２０５Ｇ,,13,104,1600023,,,,,,,2023-05-23,1,,,,,コウザンブンシン,0
1943,9011101102956,新規,0,2023-05-23,2023-05-23,ＭＥＦ株式会社,,株式会社,東京都,新宿区,原町３丁目２１番地１プライムアーバン新宿夏目坂タワーレジデンス１２０４,,13,104,1620053,,,,,,,2023-05-23,1,,,,,エムイーエフ,0
1952,9011801042428,新規,0,2023-05-23,2023-05-23,株式会社アールエフ,,株式会社,東京都,葛飾区,亀有４丁目２８番１３号,,13,122,1250061,,,,,,,2023-05-23,1,,,,,アールエフ,0
1955,9012403005995,新規,0,2023-05-23,2023-05-23,鶴舎合同会社,,合同会社,東京都,調布市,若葉町２丁目１０番２１号,,13,208,1820003,,,,,,,2023-05-23,1,,,,,ツルシャ,0
1957,9012801022361,新規,0,2023-05-23,2023-05-23,株式会社こんちぇると,,株式会社,東京都,国分寺市,本町２丁目２番１号シティタワー国分寺ザ・ツインイーストＥ５０５,,13,214,1850012,,,,,,,2023-05-23,1,,,,,コンチェルト,0
1973,9030001154008,新規,0,2023-05-23,2023-05-23,株式会社ＺＯＨＡＮトレーディング,,株式会社,埼玉県,春日部市,南４丁目７番８号,,11,214,3440064,,,,,,,2023-05-23,1,,,,,ゾハーントレーディング,0
1987,9040001128530,新規,0,2023-05-23,2023-05-23,ＭａｒＫ株式会社,,株式会社,千葉県,山武市,松尾町五反田２３９１－５,,12,237,2891523,,,,,,,2023-05-23,1,,,,,マーク,0
1991,9040003022673,新規,0,2023-05-23,2023-05-23,合同会社トータルコントロール,,合同会社,千葉県,習志野市,東習志野８丁目１番１１号,,12,216,2750001,,,,,,,2023-05-23,1,,,,,トータルコントロール,0
1998,9060005010096,新規,0,2023-05-23,2023-05-23,一般社団法人レイズムアカデミー,,その他の設立登記法人,栃木県,宇都宮市,上横田町５０４番地,,09,201,3210106,,,,,,,2023-05-23,1,,,,,レイズムアカデミー,0
2006,9080101024023,新規,0,2023-05-23,2023-05-23,株式会社磯貝,,株式会社,静岡県,富士市,大淵２９７０番地の１,,22,210,4170801,,,,,,,2023-05-23,1,,,,,イソガイ,0
2010,9110001037559,新規,0,2023-05-23,2023-05-23,株式会社ジェイド,,株式会社,新潟県,糸魚川市,大字田屋７３１番地,,15,216,9410026,,,,,,,2023-05-23,1,,,,,ジェイド,0
2029,9120001254987,新規,0,2023-05-23,2023-05-23,得益投資管理株式会社,,株式会社,大阪府,大阪市中央区,島之内１丁目１１－２９,,27,128,5420082,,,,,,,2023-05-23,1,,,,,トクエキトウシカンリ,0
2030,9120001255093,新規,0,2023-05-23,2023-05-23,株式会社Ｈａｃｏ,,株式会社,大阪府,大阪市東淀川区,東中島２丁目８番２１号アーバンフラッツ西中島１３０８号室,,27,114,5330033,,,,,,,2023-05-23,1,,,,,ハコ,0
2031,9120001255135,新規,0,2023-05-23,2023-05-23,株式会社徳冨,,株式会社,大阪府,大阪市中央区,南船場１丁目３－２７ＮＩＬ南船場ビル３Ｄ,,27,128,5420081,,,,,,,2023-05-23,1,,,,,トクトミ,0
2039,9120101067579,新規,0,2023-05-23,2023-05-23,ロジスティクス株式会社,,株式会社,大阪府,堺市堺区,翁橋町１丁１０番１７号ＭＩＹＡＢＩビル６階,,27,141,5900061,,,,,,,2023-05-23,1,,,,,ロジスティクス,0
2046,9130001074369,新規,0,2023-05-23,2023-05-23,エタニティ・フードビジネスコンサルティング株式会社,,株式会社,京都府,京都市下京区,中堂寺坊城町２８－７,,26,106,6008811,,,,,,,2023-05-23,1,,,,,エタニティフードビジネスコンサルティング,0
2060,9170001017621,新規,0,2023-05-23,2023-05-23,株式会社Ｋ２ＧＲＥＥＮ,,株式会社,和歌山県,和歌山市,西汀丁２０番地アトラス和歌山汀公園６０１号,,30,201,6408227,,,,,,,2023-05-23,1,,,,,ケーツーグリーン,0
2064,9180001156410,新規,0,2023-05-23,2023-05-23,株式会社おもてなし,,株式会社,愛知県,名古屋市港区,東茶屋２丁目３５４番地,,23,111,4550851,,,,,,,2023-05-23,1,,,,,オモテナシ,0
2065,9180001156419,新規,0,2023-05-23,2023-05-23,聯超光電日本株式会社,,株式会社,愛知県,名古屋市西区,樋の口町１番１５号ホーワビル３Ｆ１６号,,23,104,4510034,,,,,,,2023-05-23,1,,,,,レンチョウコウデンニホン,0
2068,9200001041337,新規,0,2023-05-23,2023-05-23,株式会社ワイズクリーン,,株式会社,岐阜県,多治見市,笠原町１１３６番地の２０,,21,204,5070901,,,,,,,2023-05-23,1,,,,,ワイズクリーン,0
2069,9200003005967,新規,0,2023-05-23,2023-05-23,合同会社ＲＥＮＤＥＺＶＯＵＳ,,合同会社,岐阜県,岐阜市,安良田町４丁目１７番地ライムライト岐阜１０１,,21,201,5008401,,,,,,,2023-05-23,1,,,,,ランデブー,0
2090,9290001101611,新規,0,2023-05-23,2023-05-23,兆華株式会社,,株式会社,福岡県,福岡市中央区,赤坂３丁目２番３５－４０１号,,40,133,8100042,,,,,,,2023-05-23,1,,,,,チョウカ,0
2094,9290003013945,新規,0,2023-05-23,2023-05-23,合同会社ＥＳＰＥＲＡＮＺＡ,,合同会社,福岡県,福岡市中央区,白金１丁目１７－１７エンクレスト白金３０３,,40,133,8100012,,,,,,,2023-05-23,1,,,,,エスペランサ,0
2099,9310001018431,新規,0,2023-05-23,2023-05-23,株式会社トキワ,,株式会社,長崎県,雲仙市,小浜町南木指３２６番地２,,42,213,8540511,,,,,,,2023-05-23,1,,,,,,0
2100,9310003004578,新規,0,2023-05-23,2023-05-23,合同会社介護・福祉タクシー月,,合同会社,長崎県,長崎市,伊王島町１丁目２０５２番地,,42,201,8511201,,,,,,,2023-05-23,1,,,,,カイゴフクシタクシーツキ,0
2108,9370003006148,新規,0,2023-05-23,2023-05-23,合同会社訪問看護ステーションボブ,,合同会社,宮城県,遠田郡美里町,字化粧坂１３２番地５７,,04,505,9870034,,,,,,,2023-05-23,1,,,,,ホウモンカンゴステーションボブ,0
2113,9420001018271,新規,0,2023-05-23,2023-05-23,テック工藤株式会社,,株式会社,青森県,八戸市,南郷大字中野字浜梨子森１番地２３９,,02,203,0310114,,,,,,,2023-05-23,1,,,,,テッククドウ,0
2114,9430001089122,新規,0,2023-05-23,2023-05-23,ＳＴＡＲＰＲＯＴＥＣＴ株式会社,,株式会社,北海道,苫小牧市,拓勇東町２丁目１１番１号,,01,213,0591303,,,,,,,2023-05-23,1,,,,,スタープロテクト,0
2116,9430003015068,新規,0,2023-05-23,2023-05-23,合同会社エスポワール,,合同会社,北海道,美唄市,西一条南２丁目２番１５－１号,,01,215,0720024,,,,,,,2023-05-23,1,,,,,エスポワール,0
2123,9700150116368,新規,0,2023-05-23,2023-05-23,ｇｕａｎｇｚｈｏｕｃｈｉｋｕｄｉａｎｚｉｓｈａｎｇｗｕｙｏｕｘｉａｎｇｏｎｇｓｉ,,外国会社等,,,,,,,,Ｒｏｏｍ　４０１，Ｎｏ．１９３４，Ｈｕａｇｕａｎ　Ｒｏａｄ，Ｔｉａｎｈｅ　Ｄｉｓｔｒｉｃｔ，Ｇｕａｎｇｚｈｏｕ　Ｃｉｔｙ,,,,,,2023-05-23,1,,,,,コウシユウクコクデンシシヨウムユウゲンコウシ,0
2124,9700150116376,新規,0,2023-05-23,2023-05-23,Ｂｅｉｊｉｎｇ　Ｊｉｆｅｎｇ　Ｔｅｃｈｎｏｌｏｇｙ　Ｃｏ．，Ｌｉｍｉｔｅｄ,,外国会社等,,,,,,,,Ｒｏｏｍ　１０２－Ｂｕｉｌｄｉｎｇ　２１，Ｐｉｎｇｓｈｕｎ　Ｒｏａｄ　Ｙａｎｇｑｉａｏ　Ｒｏａｄ　Ｉｎｔｅｒｓｅｃｔｉｏｎ　Ｗｅｓｔ　Ｐｉｎｇｇｕ　Ｄｉｓｔｒｉｃｔ　Ｂｅｉｊｉｎｇ,,,,,,2023-05-23,1,,,,,ペキンサイフテクノロジーユウゲンコウシ,0
2125,9700150116392,新規,0,2023-05-23,2023-05-23,Ｘｉｎｙｉ（Ｓｈｅｎｚｈｅｎ）Ｊｉｎｃｈｕｋｏｕ　Ｙｏｕｘｉａｎｇｏｎｇｓｉ,,外国会社等,,,,,,,,Ｒｏｏｍ　６Ｃ．Ｗｅｉｊｕｎｇｅ，Ｗｅｉｂａｉ　Ｇａｒｄｅｎ，６００３　Ｂｉｎｈｅ　Ａｖｅｎｕｅ，Ｈａｉｂｉｎ　Ｃｏｍｍｕｎｉｔｙ，Ｆｕｔｉａｎ　Ｓｔｒｅｅｔ，Ｆｕｔｉａｎ　Ｄｉｓｔｒｉｃｔ，Ｓｈｅｎｚｈｅｎ,,,,,,2023-05-23,1,,,,,シンイシンセンジンチュウコウユウゲンコウシ,0
2126,9700150116401,新規,0,2023-05-23,2023-05-23,Ｒｉｚｈａｏ　Ｇｕａｎｌｉｎ　Ｊｉｎｃｈｕｋｏｕ　Ｙｏｕｘｉａｎｇｏｎｇｓｉ,,外国会社等,,,,,,,,ｃｈｅｎｇｄｕｌｕｙｕｄａｌｉａｎｌｕｊｉａｏｈｕｉｃｈｕｎａｎ５００ｍｉｌｕｘｉ　ｊｉｎｇｊｉｋａｉｆａｑｕ　ｒｉｚｈａｏ　ｃｉｔｙ　ｓｈａｎｄｏｎｇ　ｐｒｏｖｉｎｃｅ　Ｃｈｉｎａ,,,,,,2023-05-23,1,,,,,リザオガリンジンチュコウユウゲンコウシ,0
