sequenceNumber,corporateNumber,process,correct,updateDate,changeDate,name,nameImageId,kind,prefectureName,cityName,streetNumber,addressImageId,prefectureCode,cityCode,postCode,addressOutside,addressOutsideImageId,closeDate,closeCause,successorCorporateNumber,changeCause,assignmentDate,latest,enName,enPrefectureName,enCityName,enAddressOutside,furigana,hihyoji
13,1010001238265,新規,0,2023-09-07,2023-09-07,株式会社ＢＬＯＯＭＩＮＧ　Ｊ,,株式会社,東京都,千代田区,紀尾井町３番１０号紀尾井町ガーデンタワー２５０４号（Ｃ／Ｏｓｈｉｍａｄａ－ｏｆｆｉｃｅ）,,13,101,1020094,,,,,,,2023-09-07,1,,,,,ブルーミングジェイ,0
14,1010001238273,新規,0,2023-09-07,2023-09-07,ＤＯＣＴＯＲ　ＨＵＮＧ株式会社,,株式会社,東京都,文京区,小石川５丁目３７番１号,,13,105,1120002,,,,,,,2023-09-07,1,,,,,ドクターホン,0
15,1010001238281,新規,0,2023-09-07,2023-09-07,株式会社ｉＢｅｙｏｎｄ,,株式会社,東京都,千代田区,神田猿楽町１丁目５番１８号千代田ビル３階,,13,101,1010064,,,,,,,2023-09-07,1,,,,,アイビヨンド,0
16,1010003041601,新規,0,2023-09-07,2023-09-07,合同会社ｒｅｎａｉｔｒｅ,,合同会社,東京都,文京区,本郷５丁目１－１１－２０２キーハウス,,13,105,1130033,,,,,,,2023-09-07,1,,,,,ルネット,0
17,1010003041618,新規,0,2023-09-07,2023-09-07,ＭａＵＸ合同会社,,合同会社,東京都,中央区,銀座１丁目１２－４Ｎ＆ＥＢＬＤ．７階,,13,102,1040061,,,,,,,2023-09-07,1,,,,,マウクス,0
19,1010005037234,新規,0,2023-09-07,2023-09-07,一般社団法人ＡＩアライメントネットワーク,,その他の設立登記法人,東京都,千代田区,神田佐久間町１丁目１１番地,,13,101,1010025,,,,,,,2023-09-07,1,,,,,エーアイアライメントネットワーク,0
25,1010403030831,新規,0,2023-09-07,2023-09-07,合同会社ＭＣコーポレーション,,合同会社,東京都,港区,北青山１丁目３番１号アールキューブ青山３階,,13,103,1070061,,,,,,,2023-09-07,1,,,,,エムシーコーポレーション,0
27,1010405022488,新規,0,2023-09-07,2023-09-07,一般社団法人Ｌａｓｔｉｎｇ　Ｐｅａｃｅ　Ｆｏｕｎｄａｔｉｏｎ,,その他の設立登記法人,東京都,港区,南青山５丁目５番２０号アルファエイト南青山２０２号室,,13,103,1070062,,,,,,,2023-09-07,1,,,,,ラスティングピースファウンデーション,0
32,1010601063724,新規,0,2023-09-07,2023-09-07,株式会社送迎,,株式会社,東京都,江東区,東雲２丁目２番１４－９１４号,,13,108,1350062,,,,,,,2023-09-07,1,,,,,ソウゲイ,0
33,1010601063740,新規,0,2023-09-07,2023-09-07,株式会社錦興業,,株式会社,東京都,江東区,亀戸３丁目４５番９号,,13,108,1360071,,,,,,,2023-09-07,1,,,,,ニシキコウギョウ,0
41,1010901053796,新規,0,2023-09-07,2023-09-07,Ａｏｍｉ　Ｔｅｃｈｎｏｌｏｇｉｅｓ株式会社,,株式会社,東京都,世田谷区,瀬田１丁目４番１７,,13,112,1580095,,,,,,,2023-09-07,1,,,,,アオミテクノロジーズ,0
43,1011001156754,新規,0,2023-09-07,2023-09-07,株式会社ＪａｐａｎＢｉｚＣｏｎｓｕｌｔｉｎｇ,,株式会社,東京都,渋谷区,道玄坂１丁目１０番８号渋谷道玄坂東急ビル２Ｆ－Ｃ,,13,113,1500043,,,,,,,2023-09-07,1,,,,,ジャパンビズコンサルティング,0
44,1011001156762,新規,0,2023-09-07,2023-09-07,株式会社ＤＥＳＩＧＮ　ＳＴＵＤＩＯ　ＴＡＧ,,株式会社,東京都,渋谷区,道玄坂１丁目１６－６二葉ビル８ｂ,,13,113,1500043,,,,,,,2023-09-07,1,,,,,デザインスタジオタッグ,0
45,1011001156795,新規,0,2023-09-07,2023-09-07,株式会社ＤＬＹ,,株式会社,東京都,目黒区,平町２丁目１３－５,,13,110,1520032,,,,,,,2023-09-07,1,,,,,ドライ,0
46,1011001156804,新規,0,2023-09-07,2023-09-07,株式会社ａｄｏｍａｄｏ,,株式会社,東京都,渋谷区,渋谷２丁目８番１７号,,13,113,1500002,,,,,,,2023-09-07,1,,,,,アドマド,0
47,1011001156812,新規,0,2023-09-07,2023-09-07,株式会社ｄｏｂｂｙ,,株式会社,東京都,渋谷区,道玄坂１丁目１０番８号渋谷道玄坂東急ビル２Ｆ－Ｃ,,13,113,1500043,,,,,,,2023-09-07,1,,,,,ドビー,0
48,1011001156820,新規,0,2023-09-07,2023-09-07,株式会社Ｈｏｃｈ　ｕｎｔ　Ｇｕｔ,,株式会社,東京都,渋谷区,千駄ヶ谷３丁目１３番５号,,13,113,1510051,,,,,,,2023-09-07,1,,,,,ホーホウントグート,0
49,1011001156853,新規,0,2023-09-07,2023-09-07,株式会社ティヌウス,,株式会社,東京都,渋谷区,道玄坂１丁目１０番８号渋谷道玄坂東急ビル２Ｆ－Ｃ,,13,113,1500043,,,,,,,2023-09-07,1,,,,,ティヌウス,0
50,1011005010206,新規,0,2023-09-07,2023-09-07,一般社団法人ＧＬＯＢＡＬ　ＫＡＷＡＩＩ協会,,その他の設立登記法人,東京都,渋谷区,道玄坂１丁目１０番８号渋谷道玄坂東急ビル２Ｆ－Ｃ,,13,113,1500043,,,,,,,2023-09-07,1,,,,,グローバルカワイイキョウカイ,0
55,1011101104258,新規,0,2023-09-07,2023-09-07,株式会社ｌａｔｔｅ,,株式会社,東京都,新宿区,西早稲田１丁目１４番６－２０２号,,13,104,1690051,,,,,,,2023-09-07,1,,,,,ラテ,0
56,1011101104266,新規,0,2023-09-07,2023-09-07,華通株式会社,,株式会社,東京都,新宿区,榎町３４－３榎町ビル７階－３２室,,13,104,1620806,,,,,,,2023-09-07,1,,,,,カツウ,0
62,1011601027108,新規,0,2023-09-07,2023-09-07,株式会社ネクサスフィールド,,株式会社,東京都,練馬区,石神井町６丁目５番６号,,13,120,1770041,,,,,,,2023-09-07,1,,,,,ネクサスフィールド,0
68,1011801043004,新規,0,2023-09-07,2023-09-07,共成コーポレーション株式会社,,株式会社,東京都,足立区,鹿浜５丁目７番５号,,13,121,1230864,,,,,,,2023-09-07,1,,,,,キョウセイコーポレーション,0
69,1012305002058,新規,0,2023-09-07,2023-09-07,医療法人社団Ｈａｐｐｙ　Ｓｔｙｌｅ,,その他の設立登記法人,東京都,町田市,鶴間１丁目１９番地１南町田クリニックビルＩＩ,00131816,13,209,1940004,,,,,,,2023-09-07,1,,,,,ハッピースタイル,0
73,1012703002790,新規,0,2023-09-07,2023-09-07,合同会社ＭＣＺ企画,,合同会社,東京都,東久留米市,本町１丁目４番２５号浅見ビル１００４,,13,222,2030053,,,,,,,2023-09-07,1,,,,,エムシーゼットキカク,0
78,1013301051305,新規,0,2023-09-07,2023-09-07,株式会社たつほの,,株式会社,東京都,豊島区,千川２丁目３０－９－１０３,,13,116,1710041,,,,,,,2023-09-07,1,,,,,タツホノ,0
79,1013301051313,新規,0,2023-09-07,2023-09-07,瑞和株式会社,,株式会社,東京都,豊島区,池袋２丁目６６番２号小林ビル２Ｆ,,13,116,1710014,,,,,,,2023-09-07,1,,,,,ミズワ,0
80,1013305003509,新規,0,2023-09-07,2023-09-07,医療法人社団嘉翔会,,その他の設立登記法人,東京都,豊島区,東池袋１丁目３番５号池袋伊藤ビル６階,,13,116,1700013,,,,,,,2023-09-07,1,,,,,カショウカイ,0
87,1020001153307,新規,0,2023-09-07,2023-09-07,株式会社ＵＮＩＯＮ,,株式会社,神奈川県,横浜市中区,不老町１丁目２番地シャトレーイン横浜６０５,,14,104,2310032,,,,,,,2023-09-07,1,,,,,ユニオン,0
88,1020001153348,新規,0,2023-09-07,2023-09-07,株式会社Ｗｅｌｌｂｅｓｔ,,株式会社,神奈川県,川崎市中原区,木月２丁目４番５号クリフト１０１,,14,133,2110025,,,,,,,2023-09-07,1,,,,,ウェルベスト,0
90,1020003024522,新規,0,2023-09-07,2023-09-07,エイケイエム合同会社,,合同会社,神奈川県,川崎市中原区,新丸子東３丁目１１１１番地１レジデンス・ザ・武蔵小杉２３１３,,14,133,2110004,,,,,,,2023-09-07,1,,,,,エイケイエム,0
91,1020005016113,新規,0,2023-09-07,2023-09-07,ひまわり行政書士法人,,その他の設立登記法人,神奈川県,横浜市泉区,緑園１丁目１９番地１５,,14,116,2450002,,,,,,,2023-09-07,1,,,,,ヒマワリ,0
93,1021001080086,新規,0,2023-09-07,2023-09-07,株式会社ハートヒーリング,,株式会社,神奈川県,厚木市,中依知８５番地１本厚木スカイハイツ２１７,,14,212,2430805,,,,,,,2023-09-07,1,,,,,ハートヒーリング,0
101,1030001155723,新規,0,2023-09-07,2023-09-07,株式会社ＭＹＹ,,株式会社,埼玉県,さいたま市大宮区,仲町１丁目６６番地２ドミノ杉浦ビルＢ１－Ａ,,11,103,3300845,,,,,,,2023-09-07,1,,,,,エムワイワイ,0
102,1030001155789,新規,0,2023-09-07,2023-09-07,株式会社グローリーカンパニー,,株式会社,埼玉県,さいたま市北区,本郷町５３６番地４,,11,102,3310802,,,,,,,2023-09-07,1,,,,,クローリーカンパニー,0
103,1030001156028,新規,0,2023-09-07,2023-09-07,エールアカウンティング株式会社,,株式会社,埼玉県,熊谷市,籠原南２丁目９番地１０５,,11,202,3600847,,,,,,,2023-09-07,1,,,,,エールアカウンティング,0
114,1040001129908,新規,0,2023-09-07,2023-09-07,株式会社幸咲,,株式会社,千葉県,柏市,高田６３番地１８,,12,217,2770861,,,,,,,2023-09-07,1,,,,,サイサキ,0
115,1040001129924,新規,0,2023-09-07,2023-09-07,ＲＲ株式会社,,株式会社,千葉県,市川市,宮久保３丁目１番１７号,,12,203,2720822,,,,,,,2023-09-07,1,,,,,アールアール,0
116,1040001129998,新規,0,2023-09-07,2023-09-07,ＲＥＩ株式会社,,株式会社,千葉県,千葉市中央区,稲荷町３丁目８番２号グランパレス蘇我２０１号室,,12,101,2600833,,,,,,,2023-09-07,1,,,,,レイ,0
118,1040003023290,新規,0,2023-09-07,2023-09-07,合同会社リブライフ,,合同会社,千葉県,柏市,大津ケ丘１丁目１５番地１－１０７号,,12,217,2770921,,,,,,,2023-09-07,1,,,,,リブライフ,0
124,1050001053396,新規,0,2023-09-07,2023-09-07,株式会社グリーンジュエル,,株式会社,茨城県,牛久市,上柏田４丁目３９番地２８,,08,219,3001232,,,,,,,2023-09-07,1,,,,,グリーンジュエル,0
126,1070001040847,新規,0,2023-09-07,2023-09-07,株式会社佐藤空調設備,,株式会社,群馬県,渋川市,行幸田８１４番地,,10,208,3770006,,,,,,,2023-09-07,1,,,,,サトウクウチョウセツビ,0
133,1100001036742,新規,0,2023-09-07,2023-09-07,株式会社春雪堂,,株式会社,長野県,松本市,野溝木工２丁目９第二協立厚生会館Ｃ棟１１１号室,,20,202,3990005,,,,,,,2023-09-07,1,,,,,シュンセツドウ,0
134,1100001036750,新規,0,2023-09-07,2023-09-07,株式会社ＡＫ,,株式会社,長野県,須坂市,大字小山１７３８番地７,,20,207,3820000,,,,,,,2023-09-07,1,,,,,エイケー,0
135,1100001036759,新規,0,2023-09-07,2023-09-07,アビー株式会社,,株式会社,長野県,茅野市,泉野１２１番地１,,20,214,3910214,,,,,,,2023-09-07,1,,,,,アビー,0
136,1100003007171,新規,0,2023-09-07,2023-09-07,合同会社Ｎ＆Ｃ,,合同会社,長野県,長野市,若穂綿内２３９１番地,,20,201,3810101,,,,,,,2023-09-07,1,,,,,エヌアンドシー,0
149,1120001257774,新規,0,2023-09-07,2023-09-07,維和株式会社,,株式会社,大阪府,大阪市中央区,松屋町９番２０号ローレルステート松屋町４０９Ａ,,27,128,5420067,,,,,,,2023-09-07,1,,,,,イワ,0
150,1120001257881,新規,0,2023-09-07,2023-09-07,株式会社アスクリエ,,株式会社,大阪府,大阪市北区,梅田１丁目２番２号大阪駅前第２ビル１２－１２,,27,127,5300001,,,,,,,2023-09-07,1,,,,,アスクリエ,0
151,1120001258005,新規,0,2023-09-07,2023-09-07,宏達株式会社,,株式会社,大阪府,大阪市住吉区,長居１丁目１５番１７号ムックマンション２０３号室,,27,120,5580003,,,,,,,2023-09-07,1,,,,,コウタツ,0
158,1120103005420,新規,0,2023-09-07,2023-09-07,合同会社外園商店,,合同会社,大阪府,羽曳野市,野１４番地の３,,27,222,5830884,,,,,,,2023-09-07,1,,,,,ソトゾノショウテン,0
159,1120901048026,新規,0,2023-09-07,2023-09-07,株式会社結莉,,株式会社,大阪府,茨木市,駅前１丁目４番６号ソアラビル２Ｂ,,27,211,5670888,,,,,,,2023-09-07,1,,,,,ユウリ,0
167,1130001075135,新規,0,2023-09-07,2023-09-07,株式会社中村建設工業,,株式会社,京都府,綾部市,里町小南１番地の１,,26,203,6230005,,,,,,,2023-09-07,1,,,,,ナカムラケンセツコウギョウ,0
168,1130001075176,新規,0,2023-09-07,2023-09-07,ＥＮＩＣ　Ｉｍｍｕｎｏｌｏｇｙ株式会社,,株式会社,京都府,京都市中京区,西洞院通姉小路上る三坊西洞院町５６９番地１御池パークマンション２０４号,,26,104,6048277,,,,,,,2023-09-07,1,,,,,エニックイミュノロジー,0
181,1180001157878,新規,0,2023-09-07,2023-09-07,株式会社たいよう設備,,株式会社,愛知県,知多郡武豊町,字多賀５丁目４３番地,,23,447,4702361,,,,,,,2023-09-07,1,,,,,タイヨウセツビ,0
182,1180001157903,新規,0,2023-09-07,2023-09-07,株式会社プランナーズ,,株式会社,愛知県,日進市,香久山３丁目１０１番地３,,23,230,4700134,,,,,,,2023-09-07,1,,,,,プランナーズ,0
183,1180001157911,新規,0,2023-09-07,2023-09-07,株式会社ＬＳＳ,,株式会社,愛知県,名古屋市守山区,吉根２丁目６０１番地（ラコンテカーサ２０１号）,,23,113,4630004,,,,,,,2023-09-07,1,,,,,エルエスエス,0
184,1180001157928,新規,0,2023-09-07,2023-09-07,株式会社ＹＯＵ＆ＡＲＣ事務所,,株式会社,愛知県,名古屋市緑区,八つ松１丁目１２６番地,,23,114,4580810,,,,,,,2023-09-07,1,,,,,ユーアンドエーアールシージムショ,0
185,1180001157936,新規,0,2023-09-07,2023-09-07,Ｎホールディングス株式会社,,株式会社,愛知県,稲沢市,島子安賀町８２番地,,23,220,4928201,,,,,,,2023-09-07,1,,,,,エヌホールディングス,0
186,1180001157952,新規,0,2023-09-07,2023-09-07,アリーナトレーディング株式会社,,株式会社,愛知県,名古屋市守山区,本地が丘１１０１番地,,23,113,4630031,,,,,,,2023-09-07,1,,,,,アリーナトレーディング,0
190,1180301037763,新規,0,2023-09-07,2023-09-07,株式会社エムキュー,,株式会社,愛知県,岡崎市,緑丘１丁目３０番地９,,23,202,4440806,,,,,,,2023-09-07,1,,,,,エムキュー,0
191,1180301037788,新規,0,2023-09-07,2023-09-07,ハタス株式会社,,株式会社,愛知県,刈谷市,熊野町４丁目７５番地１,,23,210,4480831,,,,,,,2023-09-07,1,,,,,ハタス,0
193,1180303005818,新規,0,2023-09-07,2023-09-07,久美建設合同会社,,合同会社,愛知県,豊橋市,前芝町字西青８６番地１,,23,201,4410152,,,,,,,2023-09-07,1,,,,,クミケンセツ,0
194,1180303005826,新規,0,2023-09-07,2023-09-07,合同会社三制メンテナンス,,合同会社,愛知県,安城市,東栄町４丁目６番１５号,,23,212,4460007,,,,,,,2023-09-07,1,,,,,サンセイメンテナンス,0
206,1210001019455,新規,0,2023-09-07,2023-09-07,Ｋブラッド株式会社,,株式会社,福井県,福井市,開発３丁目１９０１番地,,18,201,9100842,,,,,,,2023-09-07,1,,,,,ケーブラッド,0
212,1240001062064,新規,0,2023-09-07,2023-09-07,株式会社Ａｒｉ,,株式会社,広島県,広島市中区,西平塚町１０－２０－２０４,,34,101,7300024,,,,,,,2023-09-07,1,,,,,アリ,0
215,1250001020277,新規,0,2023-09-07,2023-09-07,株式会社関門フードイノベーション,,株式会社,山口県,下関市,元町３番２号,,35,201,7500045,,,,,,,2023-09-07,1,,,,,カンモンフードイノベーション,0
218,1260003004418,新規,0,2023-09-07,2023-09-07,合同会社ＡＲカンパニー,,合同会社,岡山県,岡山市北区,横井上１２２４番地２９,,33,101,7011145,,,,,,,2023-09-07,1,,,,,エーアールカンパニー,0
223,1290001102864,新規,0,2023-09-07,2023-09-07,株式会社Ｍ’ｓひろかわ,,株式会社,福岡県,八女郡広川町,大字新代１６２５番地２９,,40,544,8340115,,,,,,,2023-09-07,1,,,,,エムズヒロカワ,0
224,1290001102897,新規,0,2023-09-07,2023-09-07,ＺＥＲＯＮＥ株式会社,,株式会社,福岡県,福岡市南区,鶴田４丁目４６番２７号,,40,134,8111352,,,,,,,2023-09-07,1,,,,,ゼローン,0
225,1290001102939,新規,0,2023-09-07,2023-09-07,株式会社アイディアル・エージェント不動産,,株式会社,福岡県,福岡市中央区,六本松４丁目３番１１－６０５号,,40,133,8100044,,,,,,,2023-09-07,1,,,,,アイディアルエージェントフドウサン,0
226,1290001102947,新規,0,2023-09-07,2023-09-07,株式会社ＰＯＬＩＳＨ　ＳＨＯＰ　ＫＡＲ’Ｓ,,株式会社,福岡県,春日市,弥生５丁目７３番地１,,40,218,8160862,,,,,,,2023-09-07,1,,,,,ポリッシュショップカーズ,0
227,1290001102963,新規,0,2023-09-07,2023-09-07,堤興機株式会社,,株式会社,福岡県,糟屋郡粕屋町,原町２丁目２番１１号,,40,349,8112307,,,,,,,2023-09-07,1,,,,,ツツミコウキ,0
228,1290003014331,新規,0,2023-09-07,2023-09-07,合同会社ＳＡＮＷＡロジスティクス,,合同会社,福岡県,大野城市,乙金台３丁目１７－１３,,40,219,8160903,,,,,,,2023-09-07,1,,,,,サンワロジスティクス,0
230,1300001013449,新規,0,2023-09-07,2023-09-07,株式会社ジオ技研,,株式会社,佐賀県,西松浦郡有田町,上内野丙３３２８番地４,,41,401,8494162,,,,,,,2023-09-07,1,,,,,ジオギケン,0
231,1300003002020,新規,0,2023-09-07,2023-09-07,合同会社街の灯,,合同会社,佐賀県,唐津市,原４０５番地１,,41,202,8470031,,,,,,,2023-09-07,1,,,,,マチノアカリ,0
233,1320001019989,新規,0,2023-09-07,2023-09-07,株式会社Ｓｃｈｅｌｍ,,株式会社,大分県,大分市,にじが丘２丁目２１番地の１１,,44,201,8700874,,,,,,,2023-09-07,1,,,,,シュレム,0
235,1330001031209,新規,0,2023-09-07,2023-09-07,株式会社ジオフーズ,,株式会社,熊本県,上益城郡御船町,大字豊秋２６５６番１,,43,441,8613131,,,,,,,2023-09-07,1,,,,,ジオフーズ,0
236,1330001031233,新規,0,2023-09-07,2023-09-07,アンド株式会社,,株式会社,熊本県,熊本市北区,植木町伊知坊８２２番地,,43,105,8610113,,,,,,,2023-09-07,1,,,,,アンド,0
237,1330001031241,新規,0,2023-09-07,2023-09-07,株式会社ＦＴＢ,,株式会社,熊本県,熊本市中央区,下通１丁目３番６号フタバビル５Ｆ,,43,101,8600807,,,,,,,2023-09-07,1,,,,,エフティビー,0
240,1330003009962,新規,0,2023-09-07,2023-09-07,合同会社ａｎ,,合同会社,熊本県,熊本市中央区,本荘３丁目７－１４グリーンウッドビル１Ｆ,,43,101,8600811,,,,,,,2023-09-07,1,,,,,アン,0
245,1340005009654,新規,0,2023-09-07,2023-09-07,特定非営利活動法人ハピニスホーム大姶良,,その他の設立登記法人,鹿児島県,鹿屋市,大姶良町１９０４番地３,,46,203,8930051,,,,,,,2023-09-07,1,,,,,ハピニスホームオオアイラ,0
246,1350001018542,新規,0,2023-09-07,2023-09-07,株式会社ハマダ会計センター,,株式会社,宮崎県,小林市,南西方６２９７番地,,45,205,8860005,,,,,,,2023-09-07,1,,,,,ハマダカイケイセンター,0
247,1350003004433,新規,0,2023-09-07,2023-09-07,合同会社アールイー,,合同会社,宮崎県,宮崎市,南花ケ島町６３番地４第５渡辺ビル１Ｆ,,45,201,8800055,,,,,,,2023-09-07,1,,,,,アールイー,0
248,1360001032492,新規,0,2023-09-07,2023-09-07,株式会社中山コーヒー・ハーブ園,,株式会社,沖縄県,名護市,字中山３７８番地,,47,209,9050004,,,,,,,2023-09-07,1,,,,,ナカヤマコーヒーハーブエン,0
252,1370001050353,新規,0,2023-09-07,2023-09-07,株式会社菅原組,,株式会社,宮城県,栗原市,志波姫伊豆野沼の上５５番地２,,04,213,9895603,,,,,,,2023-09-07,1,,,,,スガワラグミ,0
253,1370001050378,新規,0,2023-09-07,2023-09-07,株式会社ななコンタクト,,株式会社,宮城県,仙台市宮城野区,鶴ケ谷７丁目３１番地３,,04,102,9830824,,,,,,,2023-09-07,1,,,,,ナナコンタクト,0
262,1430001089914,新規,0,2023-09-07,2023-09-07,株式会社Ｓｏｌａ,,株式会社,北海道,札幌市北区,新川西三条４丁目４番１０号,,01,102,0010933,,,,,,,2023-09-07,1,,,,,ソラ,0
264,1470001019792,新規,0,2023-09-07,2023-09-07,株式会社ＳＦＩＤＡ,,株式会社,香川県,丸亀市,三条町５４５番地２１,,37,202,7630094,,,,,,,2023-09-07,1,,,,,スフィーダ,0
267,1700150119898,新規,0,2023-09-07,2023-09-07,ＱｉｎｇＤａｏＢａｏＺｈｉＭｕＹｕａｎＳｈａｎｇＭａｏＹｏｕＸｉａｎＧｏｎｇＳｉ　　　　,,外国会社等,,,,,,,,１０－２－２０１，Ｎｏ．１５０５　ＪＩＡ，Ｆｕｃｈｕｎｊｉａｎｇ　Ｒｏａｄ，Ｈｕａｎｇｄａｏ　Ｄｉｓｔｒｉｃｔ，Ｑｉｎｇｄａｏ　Ｃｉｔｙ，Ｓｈａｎｄｏｎｇ　Ｐｒｏｖｉｎｃｅ,,,,,,2023-09-07,1,,,,,チンダオバオジームーユエンシャンマオヨウシエンゴンスー,0
268,1700150119907,新規,0,2023-09-07,2023-09-07,ｙｉｗｕｊｉａｎｙａｏｍａｏｙｉｙｏｕｘｉａｎｇｏｎｇｓｉ,,外国会社等,,,,,,,,ｃｈｏｕｃｈｅｎｇｊｉｅｄａｏｘｉｎｇｚｈｏｎｇｘｉａｏｑｕ１５ｚｈｕａｎｇ２ｈａｏ２０４ｓｈｉ　ｙｉｗｕ　ｚｈｅｊｉａｎｇ　　　　,,,,,,2023-09-07,1,,,,,ギウシケンヨウボウエキユウゲンコウシ,0
269,1700150119915,新規,0,2023-09-07,2023-09-07,Ｇｕａｎｇｚｈｏｕ　Ｚｈｉｆｅｉ　Ｌｉｇｈｔｉｎｇ　Ｃｏ．，Ｌｔｄ．,,外国会社等,,,,,,,,ＺｏｎｅＢ３ｒｄＦｌｏｏｒＢｕｉｌｄｉｎｇ３Ｎｏ１８ＫｅｙｕａｎＲｏａｄＧｕａｎｇｚｈｏｕＰｒｉｖａｔｅＳｃｉｅｎｃｅａｎｄＴｅｃｈｎｏｌｏｇｙＰａｒｋＮｏ１６３３　ＢｅｉｔａｉＲｏａｄ　ＢａｉｙｕｎＤｉｓｔｒｉｃｔ　Ｇｕａｎｇｚｈｏｕ,,,,,,2023-09-07,1,,,,,コウシュウジフェイライティングカンパニーリミテッド,0
270,1700150119923,新規,0,2023-09-07,2023-09-07,ＺＨＵＨＡＩ　ＳＥＮＣＨＥＮＺＨＡＯＭＩＮＧＫＥＪＩ　ＹＯＵＸＩＡＮＧＯＮＧＳＩ,,外国会社等,,,,,,,,Ｒｏｏｍ２００２Ｂｕｉｌｄｉｎｇ９Ｎｏ９９ＹｕｎｈａｉＲｏａｄＴａｎｇｊｉａｗａｎＴｏｗｎＧａｏｘｉｎＤｉｓｔｒｉｃｔ　Ｚｈｕｈａｉ　ＧｕａｎｇｄｏｎｇＰｒｏｖｉｎｃｅ,,,,,,2023-09-07,1,,,,,ジュカイセンチェンショウメイカギユウゲンコウシ,0
271,1700150119931,新規,0,2023-09-07,2023-09-07,ｓｈｅｎｚｈｅｎｓｈｉｊｕｎｚｈｉｋｅｊｉ　ｙｏｕｘｉａｎｇｏｎｇｓｉ,,外国会社等,,,,,,,,ｓｈｅｎｚｈｅｎｓｈｉｆｕｔｉａｎｑｕｈｕａｑｉａｎｇｂｅｉｊｉｅｄａｏｈｕａｈａｎｇｓｈｅｑｕｚｈｅｎｈｕａｌｕ１１８ｈａｏｈｕａｌｉｄａｙｕａｎ２ｄｏｎｇ３ｃｅｎｇＢ３１３－２５,,,,,,2023-09-07,1,,,,,シンセンシジュンジカギユウゲンコウシ,0
272,1700150119948,新規,0,2023-09-07,2023-09-07,ｓｈｅｎｚｈｅｎａｉｔｉａｎｃｈｕａｎｇｙｉｋｅｊｉｙｏｕｘｉａｎｇｏｎｇｓｉ,,外国会社等,,,,,,,,Ｓｈｅｎｚｈｅｎｓｈｉｎａｎｓｈａｎｑｕｙｕｅｈａｉｊｉｅｄａｏｋｅｚｈｉｘｉ１ｈａｏｋｅｙｕａｎｘｉ２３ｄｏｎｇｂｅｉ４ＦＡ３１,,,,,,2023-09-07,1,,,,,シンセンアイテンソウイカギユウゲンコウシ,0
273,1700150119956,新規,0,2023-09-07,2023-09-07,ｓｈｅｎｚｈｅｎｊｉａｚｅｇｕａｎｇｄｉａｎｙｏｕｘｉａｎｇｏｎｇｓｉ,,外国会社等,,,,,,,,ｌｏｎｇｇａｎｇｑｕｊｉｈｕａｊｉｅｄａｏｊｉｈｕａｌｕ３５７ｈａｏｄａｃｈｅｎｇｇｏｎｇｙｅｑｕｙａｎｆａｌｏｕ２ｌｏｕ　ｓｈｅｎｚｈｅｎ　ｇｕａｎｇｄｏｎｇ,,,,,,2023-09-07,1,,,,,シンセンカタクコウデンユウゲンコウシ,0
278,2010001238173,新規,0,2023-09-07,2023-09-07,株式会社ＴｅｃｈＦｉｒｓｔ,,株式会社,東京都,中央区,銀座１丁目２２番１１号銀座大竹ビジデンス２階,,13,102,1040061,,,,,,,2023-09-07,1,,,,,テックファースト,0
279,2010001238198,新規,0,2023-09-07,2023-09-07,大手町Ｍ＆Ａアドバイザリー株式会社,,株式会社,東京都,千代田区,大手町１丁目６番１号大手町ビルヂング５階,,13,101,1000004,,,,,,,2023-09-07,1,,,,,オオテマチエムアンドエーアドバイザリー,0
280,2010001238223,新規,0,2023-09-07,2023-09-07,株式会社ベストマーケティング,,株式会社,東京都,千代田区,丸の内２丁目７番２号ＪＰタワー２２階,,13,101,1000005,,,,,,,2023-09-07,1,,,,,ベストマーケティング,0
282,2010003041617,新規,0,2023-09-07,2023-09-07,メニア合同会社,,合同会社,東京都,文京区,小石川２丁目２４－１２－４０３,,13,105,1120002,,,,,,,2023-09-07,1,,,,,メニア,0
283,2010005037209,新規,0,2023-09-07,2023-09-07,医療法人社団はしもと歯科,,その他の設立登記法人,東京都,中央区,日本橋２丁目１０番１１号Ｏｒｄｉｎ日本橋ビル７階,,13,102,1030027,,,,,,,2023-09-07,1,,,,,ハシモトシカ,0
284,2010005037217,新規,0,2023-09-07,2023-09-07,一般社団法人ＧＯ　ＧＲＥＥＮ協会,,その他の設立登記法人,東京都,文京区,湯島３丁目６番１号全国家電会館３Ｆ,,13,105,1130034,,,,,,,2023-09-07,1,,,,,ゴーグリーンキョウカイ,0
288,2010401176956,新規,0,2023-09-07,2023-09-07,株式会社ＺＫ,,株式会社,東京都,港区,新橋３丁目２番６号,,13,103,1050004,,,,,,,2023-09-07,1,,,,,ゼットケー,0
289,2010401177005,新規,0,2023-09-07,2023-09-07,キャレオス不動産株式会社,,株式会社,東京都,港区,浜松町１丁目２２番８号深谷ビル２階,,13,103,1050013,,,,,,,2023-09-07,1,,,,,キャレオスフドウサン,0
294,2010501051010,新規,0,2023-09-07,2023-09-07,株式会社パートナーズ,,株式会社,東京都,台東区,柳橋１丁目９番９－１３０３号,,13,106,1110052,,,,,,,2023-09-07,1,,,,,パートナーズ,0
295,2010603010343,新規,0,2023-09-07,2023-09-07,ＳＵＳＡＮ　ＢＩＪＬ　Ｊａｐａｎ合同会社,,合同会社,東京都,江東区,豊洲６丁目２番３１－１９１７号,,13,108,1350061,,,,,,,2023-09-07,1,,,,,スーザンベルジャパン,0
306,2011001156761,新規,0,2023-09-07,2023-09-07,ルナン株式会社,,株式会社,東京都,渋谷区,神山町１０番４－４０１号ルーエ渋谷神山町,,13,113,1500047,,,,,,,2023-09-07,1,,,,,ルナン,0
307,2011001156778,新規,0,2023-09-07,2023-09-07,株式会社デフォー,,株式会社,東京都,渋谷区,神宮前５丁目４４番１１号,,13,113,1500001,,,,,,,2023-09-07,1,,,,,デフォー,0
308,2011001156836,新規,0,2023-09-07,2023-09-07,株式会社ＦａｎＭａｔｅ,,株式会社,東京都,渋谷区,恵比寿１丁目１９番１９号,,13,113,1500013,,,,,,,2023-09-07,1,,,,,ファンメイト,0
311,2011003017474,新規,0,2023-09-07,2023-09-07,Ｔｈｅ　Ｃａｓｔ合同会社,,合同会社,東京都,渋谷区,神泉町１６番１１－３０８号,,13,113,1500045,,,,,,,2023-09-07,1,,,,,ザキャスト,0
312,2011003017499,新規,0,2023-09-07,2023-09-07,合同会社ゼロ,,合同会社,東京都,渋谷区,代々木５丁目２１番２２－１０３号,,13,113,1510053,,,,,,,2023-09-07,1,,,,,ゼロ,0
313,2011003017516,新規,0,2023-09-07,2023-09-07,ＰＯＲＩＹＡ合同会社,,合同会社,東京都,渋谷区,道玄坂１丁目１０番８号渋谷道玄坂東急ビル２Ｆ－Ｃ,,13,113,1500043,,,,,,,2023-09-07,1,,,,,ポリヤ,0
317,2011101104208,新規,0,2023-09-07,2023-09-07,スミテクノロジー株式会社,,株式会社,東京都,新宿区,西新宿８丁目１１番１０号星野ビル３Ｆ,,13,104,1600023,,,,,,,2023-09-07,1,,,,,スミテクノロジー,0
318,2011101104224,新規,0,2023-09-07,2023-09-07,株式会社女の子クラブ,,株式会社,東京都,新宿区,新宿２丁目１３番１６号ＳＥＮＳＨＯビル４階,,13,104,1600022,,,,,,,2023-09-07,1,,,,,オンナノコクラブ,0
319,2011101104249,新規,0,2023-09-07,2023-09-07,ｆｉｒｓｔｕｐ株式会社,,株式会社,東京都,新宿区,新宿７丁目２６－７ピクセル新宿１Ｆ,,13,104,1600022,,,,,,,2023-09-07,1,,,,,ファーストアップ,0
320,2011101104257,新規,0,2023-09-07,2023-09-07,ＬｉｇｈｔＮｅｔ株式会社,,株式会社,東京都,新宿区,新宿３丁目１２番４号新宿永谷タウンプラザ３０１,,13,104,1600022,,,,,,,2023-09-07,1,,,,,ライトネット,0
322,2011303004899,新規,0,2023-09-07,2023-09-07,合同会社ＢＯＳＳ,,合同会社,東京都,杉並区,和田１丁目６１番７号,,13,115,1660012,,,,,,,2023-09-07,1,,,,,ボス,0
327,2011503005755,新規,0,2023-09-07,2023-09-07,アムノス手芸合同会社,,合同会社,東京都,北区,西ケ原１丁目６０番２号,,13,117,1140024,,,,,,,2023-09-07,1,,,,,アムノスシュゲイ,0
328,2011701026578,新規,0,2023-09-07,2023-09-07,株式会社しあわせなお産,,株式会社,東京都,江戸川区,一之江８丁目１５番３号,,13,123,1320024,,,,,,,2023-09-07,1,,,,,シアワセナオサン,0
333,2011801043011,新規,0,2023-09-07,2023-09-07,株式会社Ｈａｌｅ,,株式会社,東京都,足立区,綾瀬３丁目１５番１号遠藤ビルＡＮＮＥＸ３０１号室,,13,121,1200005,,,,,,,2023-09-07,1,,,,,ハレ,0
334,2011803005819,新規,0,2023-09-07,2023-09-07,安欣貿易合同会社,,合同会社,東京都,葛飾区,柴又７丁目６－１－２Ｆ,,13,122,1250052,,,,,,,2023-09-07,1,,,,,アンキンボウエキ,0
335,2012301013578,新規,0,2023-09-07,2023-09-07,株式会社ＢＲＯＳ,,株式会社,東京都,町田市,鶴間３丁目１１番地６ユーフォリア１０８,,13,209,1940004,,,,,,,2023-09-07,1,,,,,ブロス,0
336,2012301013586,新規,0,2023-09-07,2023-09-07,株式会社Ｇｒｅｅｎ　Ｕｎｉｔｅｄ　Ｔｅｃｈｎｏｌｏｇｉｅｓ,,株式会社,東京都,町田市,南つくし野１丁目３番２１,,13,209,1940002,,,,,,,2023-09-07,1,,,,,グリーンユナイテッドテクノロジーズ,0
338,2012401040976,新規,0,2023-09-07,2023-09-07,株式会社リアルカラー,,株式会社,東京都,調布市,八雲台２丁目１５－１１,,13,208,1820015,,,,,,,2023-09-07,1,,,,,リアルカラー,0
341,2013301051304,新規,0,2023-09-07,2023-09-07,株式会社ＬＡＩＺ,,株式会社,東京都,豊島区,北大塚２丁目３番１６－７０４号,,13,116,1700004,,,,,,,2023-09-07,1,,,,,ライズ,0
344,2013303006784,新規,0,2023-09-07,2023-09-07,合同会社Ｘ,,合同会社,東京都,豊島区,東池袋１丁目１７番１１号パークハイツ池袋１１０５号,,13,116,1700013,,,,,,,2023-09-07,1,,,,,エックス,0
355,2020001153306,新規,0,2023-09-07,2023-09-07,株式会社ｅｃｏコマース,,株式会社,神奈川県,川崎市高津区,久地４丁目２番７号,,14,134,2130032,,,,,,,2023-09-07,1,,,,,エココマース,0
356,2020001153330,新規,0,2023-09-07,2023-09-07,株式会社ＴＡＴＳＵＫＩ,,株式会社,神奈川県,横浜市南区,堀ノ内町２丁目１９３番地３,,14,105,2320042,,,,,,,2023-09-07,1,,,,,タツキ,0
357,2020001153388,新規,0,2023-09-07,2023-09-07,株式会社カチインターナショナルジャパン,,株式会社,神奈川県,横浜市都筑区,中川中央１丁目３８番１０号２０２,,14,118,2240003,,,,,,,2023-09-07,1,,,,,カチインターナショナルジャパン,0
364,2021001080085,新規,0,2023-09-07,2023-09-07,Ｙ＆Ｐａｒｔｎｅｒｓ株式会社,,株式会社,神奈川県,茅ヶ崎市,東海岸北３丁目２番２４－６号,,14,207,2530053,,,,,,,2023-09-07,1,,,,,ワイアンドパートバーズ,0
369,2030001155631,新規,0,2023-09-07,2023-09-07,株式会社ＥＮＥＳ,,株式会社,埼玉県,川口市,本町１丁目１５番６号メゾン雅２０１号,,11,203,3320012,,,,,,,2023-09-07,1,,,,,エネス,0
370,2030001155656,新規,0,2023-09-07,2023-09-07,株式会社萬方良,,株式会社,埼玉県,さいたま市西区,大字指扇２５２１番地１３,,11,101,3310047,,,,,,,2023-09-07,1,,,,,マンポウヨシ,0
371,2030001155672,新規,0,2023-09-07,2023-09-07,株式会社スマイル空間,,株式会社,埼玉県,川口市,本町２丁目５番１５－７０８号,,11,203,3320012,,,,,,,2023-09-07,1,,,,,スマイルクウカン,0
372,2030001155895,新規,0,2023-09-07,2023-09-07,Ｉ・Ｍ・Ａ株式会社,,株式会社,埼玉県,川口市,大字安行原７１２番地の２,,11,203,3340057,,,,,,,2023-09-07,1,,,,,アイエムエー,0
377,2030005021383,新規,0,2023-09-07,2023-09-07,特定非営利活動法人日本セントラルオーケストラ,,その他の設立登記法人,埼玉県,さいたま市浦和区,常盤１０丁目１２番１７号小野塚ビル２Ｆ２Ａ,,11,107,3300061,,,,,,,2023-09-07,1,,,,,ニホンセントラルオーケストラ,0
380,2040001129931,新規,0,2023-09-07,2023-09-07,田辺電気株式会社,,株式会社,千葉県,松戸市,上本郷２８番地の６,,12,207,2710064,,,,,,,2023-09-07,1,,,,,タナベデンキ,0
381,2040001129956,新規,0,2023-09-07,2023-09-07,株式会社ＢＬＡＳＴ,,株式会社,千葉県,松戸市,千駄堀１５６２番地の１,,12,207,2702252,,,,,,,2023-09-07,1,,,,,ブラスト,0
388,2050001053387,新規,0,2023-09-07,2023-09-07,株式会社ＩＴトータルサポート,,株式会社,茨城県,石岡市,柿岡１１２６番地１,,08,205,3150116,,,,,,,2023-09-07,1,,,,,アイティートータルサポート,0
389,2050001053395,新規,0,2023-09-07,2023-09-07,株式会社輝宝,,株式会社,茨城県,古河市,尾崎２８７８番地２,,08,204,3060101,,,,,,,2023-09-07,1,,,,,キホウ,0
390,2050005013321,新規,0,2023-09-07,2023-09-07,一般社団法人ＳＫＰＳＰＯＲＴＳ,,その他の設立登記法人,茨城県,日立市,大久保町２丁目８番１６号,,08,202,3160012,,,,,,,2023-09-07,1,,,,,,0
395,2070003005087,新規,0,2023-09-07,2023-09-07,合同会社おひさま,,合同会社,群馬県,富岡市,下黒岩６００番地１１,,10,210,3702341,,,,,,,2023-09-07,1,,,,,オヒサマ,0
397,2080003003049,新規,0,2023-09-07,2023-09-07,合同会社ＬＹＮＸ,,合同会社,静岡県,静岡市葵区,瀬名川１丁目６－２３－１,,22,101,4200913,,,,,,,2023-09-07,1,,,,,リンクス,0
402,2100001036741,新規,0,2023-09-07,2023-09-07,株式会社ＳＫ,,株式会社,長野県,東筑摩郡朝日村,大字古見２４５４番地１５,,20,451,3901104,,,,,,,2023-09-07,1,,,,,エスケー,0
403,2100003007170,新規,0,2023-09-07,2023-09-07,合同会社ＵＮｏ,,合同会社,長野県,長野市,南千歳１丁目２７番地２沢屋ビル,,20,201,3800823,,,,,,,2023-09-07,1,,,,,ウノ,0
412,2120001257872,新規,0,2023-09-07,2023-09-07,株式会社イシトコホールディングス,,株式会社,大阪府,大阪市中央区,備後町２丁目４番１０号,,27,128,5410051,,,,,,,2023-09-07,1,,,,,イシトコホールディングス,0
413,2120001257922,新規,0,2023-09-07,2023-09-07,誠事達株式会社,,株式会社,大阪府,大阪市西区,江之子島１丁目７番３号,,27,106,5500006,,,,,,,2023-09-07,1,,,,,セイジタツ,0
415,2120003024858,新規,0,2023-09-07,2023-09-07,合同会社Ｙ’ｓ,,合同会社,大阪府,大阪市東成区,東中本３丁目２０番１５号クラシスト東中本２０２,,27,115,5370021,,,,,,,2023-09-07,1,,,,,ワイズ,0
416,2120005023866,新規,0,2023-09-07,2023-09-07,司法書士法人ＡＲＩＡグループ,,その他の設立登記法人,大阪府,大阪市都島区,都島中通１丁目１４番６－３０２号,,27,102,5340022,,,,,,,2023-09-07,1,,,,,アリアグループ,0
427,2140001131472,新規,0,2023-09-07,2023-09-07,株式会社ＶＯＣ　ＪＡＰＡＮ,,株式会社,兵庫県,西宮市,甲陽園目神山町２４番２４号,,28,204,6620011,,,,,,,2023-09-07,1,,,,,ヴイオーシージャパン,0
429,2160001025326,新規,0,2023-09-07,2023-09-07,株式会社令和建設,,株式会社,滋賀県,長浜市,南田附町３４番地１,,25,203,5260844,,,,,,,2023-09-07,1,,,,,レイワケンセツ,0
433,2180001157869,新規,0,2023-09-07,2023-09-07,ＤｏｕＤｏｕＤｏｕｊｉｎ株式会社,,株式会社,愛知県,名古屋市中村区,平池町４丁目６０番地の１２グローバルゲート名古屋１１Ｆ,,23,105,4530872,,,,,,,2023-09-07,1,,,,,ドウドウドウジン,0
434,2180001157885,新規,0,2023-09-07,2023-09-07,アイネットシステム株式会社,,株式会社,愛知県,岩倉市,下本町天神塚３７番地４,00131814,23,228,4820005,,,,,,,2023-09-07,1,,,,,アイネットシステム,0
435,2180001157910,新規,0,2023-09-07,2023-09-07,ミラクル書房株式会社,,株式会社,愛知県,知多市,巽が丘４丁目２９９番地,00131805,23,224,4780012,,,,,,,2023-09-07,1,,,,,ミラクルショボウ,0
438,2180301037762,新規,0,2023-09-07,2023-09-07,なるせ測量株式会社,,株式会社,愛知県,岡崎市,竜美南１丁目９番地７,,23,202,4440874,,,,,,,2023-09-07,1,,,,,ナルセソクリョウ,0
439,2180303005825,新規,0,2023-09-07,2023-09-07,合同会社三制電気,,合同会社,愛知県,安城市,東栄町４丁目６番１５号,,23,212,4460007,,,,,,,2023-09-07,1,,,,,サンセイデンキ,0
447,2220001025591,新規,0,2023-09-07,2023-09-07,株式会社方林,,株式会社,石川県,加賀市,山代温泉５５の１番地３,,17,206,9220242,,,,,,,2023-09-07,1,,,,,ホウリン,0
449,2230003002076,新規,0,2023-09-07,2023-09-07,合同会社ＫＥＭＵＲＩＳＭＡＲＴ,,合同会社,富山県,下新川郡入善町,上野１１８８番地６号,,16,342,9390642,,,,,,,2023-09-07,1,,,,,ケムリスマート,0
457,2250003003345,新規,0,2023-09-07,2023-09-07,合同会社ニワシン,,合同会社,山口県,下松市,藤光町１丁目１０番２２号,,35,207,7440028,,,,,,,2023-09-07,1,,,,,ニワシン,0
461,2260001038292,新規,0,2023-09-07,2023-09-07,株式会社ユーティリティ,,株式会社,岡山県,岡山市北区,今２丁目６番１２号Ｂ－１０２,,33,101,7000975,,,,,,,2023-09-07,1,,,,,ユーティリティ,0
468,2290001102863,新規,0,2023-09-07,2023-09-07,株式会社Ｌｅ’ｓｐａｃｅ,,株式会社,福岡県,古賀市,中央２丁目２番１８号,,40,223,8113103,,,,,,,2023-09-07,1,,,,,レスパス,0
469,2290001102896,新規,0,2023-09-07,2023-09-07,株式会社ｓｈｏ建設,,株式会社,福岡県,春日市,松ヶ丘６丁目５３番地１,,40,218,8160843,,,,,,,2023-09-07,1,,,,,ショウケンセツ,0
470,2290001102946,新規,0,2023-09-07,2023-09-07,株式会社しぶや,,株式会社,福岡県,朝倉郡東峰村,大字小石原鼓４０５７番地２,,40,448,8381602,,,,,,,2023-09-07,1,,,,,シブヤ,0
474,2290003014330,新規,0,2023-09-07,2023-09-07,合同会社てんてん,,合同会社,福岡県,古賀市,小竹９６５番地１１,,40,223,8113135,,,,,,,2023-09-07,1,,,,,テンテン,0
479,2320003004162,新規,0,2023-09-07,2023-09-07,ゆふの水合同会社,,合同会社,大分県,由布市,湯布院町塚原１２４１番地４７,,44,213,8795101,,,,,,,2023-09-07,1,,,,,ユフノミズ,0
480,2330001031208,新規,0,2023-09-07,2023-09-07,株式会社盛人自動車,,株式会社,熊本県,菊池郡菊陽町,大字津久礼２３３３番地５メゾンドリヴィエール１０１号,,43,404,8691101,,,,,,,2023-09-07,1,,,,,モリトジドウシャ,0
481,2330001031240,新規,0,2023-09-07,2023-09-07,エシカルプロダクツ株式会社,,株式会社,熊本県,水俣市,大黒町２丁目３番６－２,,43,205,8670043,,,,,,,2023-09-07,1,,,,,エシカルプロダクツ,0
483,2330003009961,新規,0,2023-09-07,2023-09-07,合同会社菖蒲谷,,合同会社,熊本県,熊本市東区,健軍３丁目３９番１９号,,43,102,8620911,,,,,,,2023-09-07,1,,,,,ショウブダニ,0
489,2340005009653,新規,0,2023-09-07,2023-09-07,医療法人青翔会,,その他の設立登記法人,鹿児島県,霧島市,隼人町内９３２番地１,,46,218,8995116,,,,,,,2023-09-07,1,,,,,セイショウカイ,0
490,2350001018558,新規,0,2023-09-07,2023-09-07,株式会社日南折込センター,,株式会社,宮崎県,日南市,大字益安３２番地４,,45,204,8870032,,,,,,,2023-09-07,1,,,,,ニチナンオリコミセンター,0
491,2350003004432,新規,0,2023-09-07,2023-09-07,合同会社楽々来ららら,,合同会社,宮崎県,東臼杵郡美郷町,南郷神門９８６番地,,45,431,8830306,,,,,,,2023-09-07,1,,,,,ララララララ,0
494,2360001032491,新規,0,2023-09-07,2023-09-07,Ｓｕｃｃｅｓｓ　Ｉｓｌａｎｄ株式会社,,株式会社,沖縄県,那覇市,高良３丁目１６番１６号,,47,201,9010145,,,,,,,2023-09-07,1,,,,,サクセスアイランド,0
495,2360001032500,新規,0,2023-09-07,2023-09-07,株式会社サウスウィンド,,株式会社,沖縄県,南城市,玉城字百名６４８番地１,,47,215,9010603,,,,,,,2023-09-07,1,,,,,サウスウィンド,0
498,2360003013275,新規,0,2023-09-07,2023-09-07,合同会社ＢＩＮＩＢＩＮＩ,,合同会社,沖縄県,うるま市,字大田７８７番地７サンライズハウスＢ,,47,213,9042224,,,,,,,2023-09-07,1,,,,,ビニビニ,0
502,2370001050369,新規,0,2023-09-07,2023-09-07,スタジオシンクロール株式会社,,株式会社,宮城県,大崎市,岩出山字大学町１４８番地１,,04,215,9896446,,,,,,,2023-09-07,1,,,,,スタジオシンクロール,0
503,2370001050377,新規,0,2023-09-07,2023-09-07,ＪＭＳ山本建設株式会社,,株式会社,宮城県,宮城郡七ヶ浜町,代ヶ崎浜字西８３番地,,04,404,9850801,,,,,,,2023-09-07,1,,,,,ジェーエムエスヤマモトケンセツ,0
506,2370005010682,新規,0,2023-09-07,2023-09-07,一般財団法人日本在宅医療福祉研究グループ,,その他の設立登記法人,宮城県,仙台市太白区,富沢西５丁目１２番地の２８ＰＡＳＳＩＯＮＥＩＶ,00131824,04,104,9820037,,,,,,,2023-09-07,1,,,,,ニホンザイタクイリョウフクシケンキュウグループ,0
516,2410003003840,新規,0,2023-09-07,2023-09-07,合同会社夢工房,,合同会社,秋田県,秋田市,太平目長崎字本町６６番地,,05,201,0101102,,,,,,,2023-09-07,1,,,,,ユメコウボウ,0
518,2420001018402,新規,0,2023-09-07,2023-09-07,株式会社ＴＩＭＳ,,株式会社,青森県,弘前市,大字土手町２４番地１０二階,,02,202,0368182,,,,,,,2023-09-07,1,,,,,ティムス,0
520,2430001089946,新規,0,2023-09-07,2023-09-07,株式会社歩,,株式会社,北海道,札幌市西区,福井５丁目７番２０号,,01,107,0630012,,,,,,,2023-09-07,1,,,,,アユム,0
524,2450003002384,新規,0,2023-09-07,2023-09-07,合同会社３ｒｄＰｌａｎｎｉｎｇ,,合同会社,北海道,旭川市,六条通１６丁目７６番地の８,,01,204,0700036,,,,,,,2023-09-07,1,,,,,サードプランニング,0
528,2470003002481,新規,0,2023-09-07,2023-09-07,合同会社ユタカ,,合同会社,香川県,高松市,春日町９４番地２,,37,201,7610101,,,,,,,2023-09-07,1,,,,,ユタカ,0
532,2480003002019,新規,0,2023-09-07,2023-09-07,合同会社望未,,合同会社,徳島県,阿波市,市場町山野上字大西１８１番地１,,36,206,7711624,,,,,,,2023-09-07,1,,,,,ノゾミ,0
533,2700150119897,新規,0,2023-09-07,2023-09-07,ｓｈｅｎ　ｚｈｅｎ　ｓｈｉ　ｙｏｎｇ　ｚｈｉ　ｈｅ　ｋｅ　ｊｉ　ｙｏｕ　ｘｉａｎ　ｇｏｎｇ　ｓｉ,,外国会社等,,,,,,,,ｓｈｅｎ　ｚｈｅｎ　ｓｈｉ　ｌｏｎｇ　ｇａｎｇ　ｑｕ　ｎａｎ　ｗａｎ　ｊｉｅ　ｄａｏ　ｄａｎ　ｚｈｕ　ｔｏｕ　ｓｈｅ　ｑｕ　ｌｉ　ｘｉｎ　ｌｕ　９１ｈａｏ　２Ｂｄｏｎｇ　ｃｈａｎｇ　ｆａｎｇ　４０３,,,,,,2023-09-07,1,,,,,シェンジェンシーヨンジーホーコージーヨウシエンゴンスー,0
534,2700150119906,新規,0,2023-09-07,2023-09-07,Ｇｕａｎｇｚｈｏｕ　Ｌｅｓｈｅｎｇ　ｅ－ｃｏｍｍｅｒｃｅ　Ｃｏ．，Ｌｔｄ,,外国会社等,,,,,,,,Ｏｎｅ　ｏｆ　Ｎｏ．２２，Ｌａｎｅ　７，Ｚｈｉｈｅ　Ｓｔｒｅｅｔ，Ｙｏｎｇｔａｉ，Ｙｏｎｇｐｉｎｇ　Ｓｔｒｅｅｔ，Ｂａｉｙｕｎ　Ｄｉｓｔｒｉｃｔ　Ｒｏｏｍ　Ａ５５２，３ｒｄ　Ｆｌｏｏｒ　Ｇｕａｎｇｚｈｏｕ　　　　,,,,,,2023-09-07,1,,,,,コウシュウラクセイデンシショウムユウゲンコウシ,0
535,2700150119914,新規,0,2023-09-07,2023-09-07,ｑｕａｎｚｈｏｕｘｉｎｗａｎｇｆｅｎｇｍｅｎｇｄｉａｎｚｉｓｈａｎｇｗｕｙｏｕｘｉａｎｇｏｎｇｓｉ,,外国会社等,,,,,,,,Ｗｕｌｉｊｉｅ　Ｔｏｗｎ　９９　Ｔｏｎｇｘｉａｎ　Ｒｏａｄ，Ｒｏｏｍ　２４０１，Ｕｎｉｔ　２，Ｂｕｉｌｄｉｎｇ　３，Ｄｉｎｇｓｈｅｎｇ　Ｓｈａｎｇｃｈｅｎｇ，ｑｕａｎｚｈｏｕ，Ｙｏｎｇｃｈｕｎ　Ｃｏｕｎｔｙ，Ｆｕｊｉａｎ　Ｐｒｏｖｉｎｃｅ，ＣＮ,,,,,,2023-09-07,1,,,,,センシュウキンオウフウムデンシショウムユウゲンコウシ,0
536,2700150119922,新規,0,2023-09-07,2023-09-07,ＧｕａｎｇｚｈｏｕＺｈｏｎｇｃｈｅｎＤａｉｌｙＰｒｏｄｕｃｔｓＴｅｃｈｎｏｌｏｇｙ　Ｃｏ．，Ｌｔｄ,,外国会社等,,,,,,,,Ｎｏ．１３０４　Ｂｕｉｌｄｉｎｇ１　Ｎｏ．２Ｊｉａｐｉｎ２ｎｄＳｔｒｅｅｔＳｈａｔｏｕＳｔｒｅｅｔＰａｎｙｕＤｉｓｔｒｉｃｔ　Ｇｕａｎｇｚｈｏｕ,,,,,,2023-09-07,1,,,,,コウシュウゾンチェンデイリーブロダクツテクノロジーカンパニーリミテッド,0
537,2700150119930,新規,0,2023-09-07,2023-09-07,ｚｈｅｎｇｚｈｏｕ　ｐｏｊｕｅｗａｎｇｌｕｏｋｅｊｉ　ｙｏｕｘｉａｎｇｏｎｇｓｉ,,外国会社等,,,,,,,,Ｎｏ５０２Ｕｎｉｔ２Ｂｕｉｌｄｉｎｇ１ＪｉｎｌｕｏｗａｎＷａｎｆｕＰａｒｋＮｏ３５ＺｏｎｇｃｈｅｎｇＳｔｒｅｅｔＧｕａｎｃｈｅｎｇＨｕｉＤｉｓｔｒｉｃｔ　ＺｈｅｎｇｚｈｏｕＣｉｔｙ　ＨｅｎａｎＰｒｏｖｉｎｃｅ,,,,,,2023-09-07,1,,,,,テイシュウポジェワンロカギユウゲンコウシ,0
538,2700150119939,新規,0,2023-09-07,2023-09-07,ｇｕａｎｇｚｈｏｕｓｈｉ　ｓｈｉｈａｉｆｅｉｓｈｅｎｍａｏｙｉ　ｙｏｕｘｉａｎｇｏｎｇｓｉ,,外国会社等,,,,,,,,ｇｕａｎｇｚｈｏｕｓｈｉｌｉｗａｎｑｕｙａｎｇｘｉａｎｇｌｕ３１ｈａｏ１０５ｆａｎｇ（ｚｉｚｈｕｓｈｅｎｂａｏ）,,,,,,2023-09-07,1,,,,,コウシュウシシハイフェイセンマオイユウゲンコウシ,0
539,2700150119947,新規,0,2023-09-07,2023-09-07,Ｈｕｂｅｉ　Ｍｏｒａｎ　Ｃｌｏｔｈｉｎｇ　Ｃｏ．，Ｌｔｄ．,,外国会社等,,,,,,,,Ａ－３，Ｃｈｕａｎｙｕ　Ｂｕｉｌｄｉｎｇ　Ｍａｔｅｒｉａｌｓ　Ｍａｒｋｅｔ，Ｆａｉｒｙ　Ａｖｅｎｕｅ，Ｈａｎｃｈｕａｎ　Ｃｉｔｙ，Ｘｉａｏｇａｎ　Ｃｉｔｙ，Ｈｕｂｅｉ　Ｐｒｏｖｉｎｃｅ，Ｃｈｉｎａ,,,,,,2023-09-07,1,,,,,フーベイモーランフーシーヨウシエンゴンスー,0
540,2700150119955,新規,0,2023-09-07,2023-09-07,Ｓｈｅｎｚｈｅｎ　Ｔｉｔａｎｉｕｍ　ａｎｄ　Ｌｉｖｉｎｇ　Ｆｕｒｎｉｔｕｒｅ　Ｃｏ．，Ｌｔｄ．,,外国会社等,,,,,,,,Ｌｏｎｇｇａｎｇｑｕ　ｊｉｈｕａｊｉｅｄａｏ　ｓａｎｌｉａｎｓｈｅｑｕ　ｓａｎｌｉａｎｚｈｕｂａｏｃｈｅｎｇ　Ｆｄｏｎｇ５０１　Ｓｈｅｎｚｈｅｎ　ＧＵＡＮＧＤＯＮＧ,,,,,,2023-09-07,1,,,,,シンセンシタイヨセイカツカキョヨウヒンユウゲンコウシ,0
544,3010001238288,新規,0,2023-09-07,2023-09-07,ＫＫインベストメント株式会社,,株式会社,東京都,千代田区,九段南１丁目５番６号りそな九段ビル５階ＫＳフロア,,13,101,1020074,,,,,,,2023-09-07,1,,,,,ケーケーインベストメント,0
547,3010003041599,新規,0,2023-09-07,2023-09-07,ノヴァ・ソーラー４合同会社,,合同会社,東京都,中央区,日本橋茅場町３丁目５番２号大和屋ビル６階,,13,102,1030025,,,,,,,2023-09-07,1,,,,,ノヴァソーラーヨン,0
548,3010003041608,新規,0,2023-09-07,2023-09-07,合同会社魚男子,,合同会社,東京都,中央区,銀座１丁目１２番４号Ｎ＆ＥＢＬＤ．６Ｆ,,13,102,1040061,,,,,,,2023-09-07,1,,,,,サカナダンシ,0
550,3010005037208,新規,0,2023-09-07,2023-09-07,一般社団法人紅屋管財,,その他の設立登記法人,東京都,文京区,大塚３丁目２０番１号,,13,105,1120012,,,,,,,2023-09-07,1,,,,,ベニヤカンザイ,0
551,3010005037216,新規,0,2023-09-07,2023-09-07,一般社団法人カーボンニュートラル・ウェルビーイング・ラボ,,その他の設立登記法人,東京都,千代田区,鍛冶町１丁目８番６号,,13,101,1010044,,,,,,,2023-09-07,1,,,,,カーボンニュートラルウェルビーイングラボ,0
558,3010401176955,新規,0,2023-09-07,2023-09-07,株式会社２７,,株式会社,東京都,港区,新橋３丁目２番６号,,13,103,1050004,,,,,,,2023-09-07,1,,,,,ニーナナ,0
559,3010401176963,新規,0,2023-09-07,2023-09-07,株式会社スマ・テック,,株式会社,東京都,港区,浜松町２丁目２番１５号浜松町ダイヤビル２Ｆ,,13,103,1050013,,,,,,,2023-09-07,1,,,,,スマテック,0
560,3010401176971,新規,0,2023-09-07,2023-09-07,株式会社Ａｃｃｅｌｅｒａｔｉｎｇ　Ｃｈａｎｇｅ　ｂｙ　Ｅｎｔｒｅｐｒｅｎｅｕｒｓ,,株式会社,東京都,港区,赤坂２丁目５番４号赤坂室町ビル１０階,,13,103,1070052,,,,,,,2023-09-07,1,,,,,アクセラレイティングチェンジバイアントレプレナーズ,0
567,3010601063714,新規,0,2023-09-07,2023-09-07,ＪＴ　ＯＮＥ株式会社,,株式会社,東京都,江東区,東陽２丁目４番３９号新東陽ビル４階６号室,,13,108,1350016,,,,,,,2023-09-07,1,,,,,ジェーティーワン,0
568,3010601063730,新規,0,2023-09-07,2023-09-07,株式会社イノベセント,,株式会社,東京都,墨田区,江東橋５丁目４番１４号,,13,107,1300022,,,,,,,2023-09-07,1,,,,,イノベセント,0
569,3010601063755,新規,0,2023-09-07,2023-09-07,株式会社１,,株式会社,東京都,江東区,白河３丁目６番５号グレイスコート清澄白河１階,,13,108,1350021,,,,,,,2023-09-07,1,,,,,ワン,0
575,3010901053729,新規,0,2023-09-07,2023-09-07,株式会社Ｉｎｎｏｖｅａｔｅ,,株式会社,東京都,世田谷区,喜多見４丁目３３番８号,,13,112,1570067,,,,,,,2023-09-07,1,,,,,イノヴィエイト,0
580,3011001156736,新規,0,2023-09-07,2023-09-07,株式会社ＷＷＬ,,株式会社,東京都,目黒区,碑文谷３丁目１番１０－１０９号,,13,110,1520003,,,,,,,2023-09-07,1,,,,,ダブリューダブリューエル,0
581,3011001156752,新規,0,2023-09-07,2023-09-07,Ｃａｒｄｉｎａｌ　Ｄｉｒｅｃｔｉｏｎ株式会社,,株式会社,東京都,渋谷区,代々木４丁目２６番９－１０２号,,13,113,1510053,,,,,,,2023-09-07,1,,,,,カーディナルディレクション,0
582,3011001156785,新規,0,2023-09-07,2023-09-07,株式会社セブンスター,,株式会社,東京都,目黒区,青葉台１丁目２７番１１号,,13,110,1530042,,,,,,,2023-09-07,1,,,,,セブンスター,0
583,3011001156827,新規,0,2023-09-07,2023-09-07,株式会社ライブ２,,株式会社,東京都,渋谷区,恵比寿西１丁目３６番２号,,13,113,1500021,,,,,,,2023-09-07,1,,,,,ライブドゥ,0
584,3011003017473,新規,0,2023-09-07,2023-09-07,合同会社ｍｗ,,合同会社,東京都,目黒区,目黒本町２丁目１７番１７号,,13,110,1520002,,,,,,,2023-09-07,1,,,,,エムダブリュ,0
585,3011003017481,新規,0,2023-09-07,2023-09-07,ＮＥＭ　Ｅｎｔｅｒｔａｉｎｍｅｎｔ合同会社,,合同会社,東京都,渋谷区,渋谷１丁目２０番２６号ＳｈｉｂｕｙａＳＲビル,,13,113,1500002,,,,,,,2023-09-07,1,,,,,エヌイーエムエンターテイメント,0
588,3011101104248,新規,0,2023-09-07,2023-09-07,株式会社ｆｌａｎｄｒｅ,,株式会社,東京都,新宿区,西新宿３丁目３番１３号,,13,104,1600023,,,,,,,2023-09-07,1,,,,,フランドル,0
590,3011201024899,新規,0,2023-09-07,2023-09-07,ＴＨＥ株式会社,,株式会社,東京都,中野区,中央１丁目４６番１５号アトレ中野坂上３０１,,13,114,1640011,,,,,,,2023-09-07,1,,,,,ザ,0
591,3011203004164,新規,0,2023-09-07,2023-09-07,マツエステート合同会社,,合同会社,東京都,中野区,江原町３丁目３１番１０号メゾン宮坂２０２,,13,114,1650023,,,,,,,2023-09-07,1,,,,,マツエステート,0
595,3011701026569,新規,0,2023-09-07,2023-09-07,株式会社田島造園,,株式会社,東京都,江戸川区,一之江７丁目２８番１１号,,13,123,1320024,,,,,,,2023-09-07,1,,,,,タジマゾウエン,0
598,3011801042986,新規,0,2023-09-07,2023-09-07,冨山通信株式会社,,株式会社,東京都,足立区,西保木間４丁目１２番３号９１２,,13,121,1210812,,,,,,,2023-09-07,1,,,,,トミヤマツウシン,0
600,3012303001869,新規,0,2023-09-07,2023-09-07,合同会社ＭＤＣ,,合同会社,東京都,町田市,南大谷１３２７番地３３,,13,209,1940031,,,,,,,2023-09-07,1,,,,,エムディーシー,0
605,3012805003223,新規,0,2023-09-07,2023-09-07,医療法人社団ＲＣ,,その他の設立登記法人,東京都,東大和市,向原６丁目１４１３番地の５,,13,220,2070013,,,,,,,2023-09-07,1,,,,,アールシー,0
607,3013301051303,新規,0,2023-09-07,2023-09-07,株式会社ＫＯＵ,,株式会社,東京都,豊島区,池袋２丁目４３番７号ダイチツムラビル５階,,13,116,1710014,,,,,,,2023-09-07,1,,,,,コウ,0
614,3020001153305,新規,0,2023-09-07,2023-09-07,株式会社輝総業,,株式会社,神奈川県,川崎市川崎区,大師駅前１丁目１番５－８０３号,,14,131,2100802,,,,,,,2023-09-07,1,,,,,ヒカルソウギョウ,0
615,3020001153321,新規,0,2023-09-07,2023-09-07,株式会社ウォーターズ,,株式会社,神奈川県,横浜市旭区,市沢町１０８２番地１,,14,112,2410014,,,,,,,2023-09-07,1,,,,,ウォーターズ,0
616,3020001153346,新規,0,2023-09-07,2023-09-07,株式会社ダイシンエンジ,,株式会社,神奈川県,横浜市都筑区,早渕１丁目２３番１５号,,14,118,2240025,,,,,,,2023-09-07,1,,,,,ダイシンエンジ,0
617,3020001153354,新規,0,2023-09-07,2023-09-07,株式会社ＳＭＲ,,株式会社,神奈川県,川崎市高津区,末長２丁目１１番８号,,14,134,2130013,,,,,,,2023-09-07,1,,,,,エスエムアール,0
618,3020001153379,新規,0,2023-09-07,2023-09-07,株式会社Ｒｅａｎｉｍａｔｅ,,株式会社,神奈川県,横浜市港北区,下田町３丁目１３番２１号,,14,109,2230064,,,,,,,2023-09-07,1,,,,,リアニメイト,0
619,3020001153404,新規,0,2023-09-07,2023-09-07,イエローモンキーブリューイング株式会社,,株式会社,神奈川県,横浜市中区,北仲通５丁目５７番地２ザ・タワー横浜北仲６２５号室,,14,104,2310003,,,,,,,2023-09-07,1,,,,,イエローモンキーブリューイング,0
623,3020005016111,新規,0,2023-09-07,2023-09-07,司法書士法人フォーマル,,その他の設立登記法人,神奈川県,横浜市中区,相生町１丁目１７番地１パークビュー横浜ビル７階,,14,104,2310012,,,,,,,2023-09-07,1,,,,,フォーマル,0
624,3021001080076,新規,0,2023-09-07,2023-09-07,エムケイプランニング株式会社,,株式会社,神奈川県,大和市,つきみ野５丁目８番地つきみ野ビレジＡ－２０２,,14,213,2420002,,,,,,,2023-09-07,1,,,,,エムケイプランニング,0
625,3021001080092,新規,0,2023-09-07,2023-09-07,株式会社ＥＬＥＡＺ,,株式会社,神奈川県,厚木市,妻田南１丁目６番３号,,14,212,2430814,,,,,,,2023-09-07,1,,,,,エレアス,0
628,3021005012892,新規,0,2023-09-07,2023-09-07,一般財団法人山下楠太郎財団,,その他の設立登記法人,神奈川県,横須賀市,神明町１番地４１,,14,201,2390832,,,,,,,2023-09-07,1,,,,,ヤマシタクスタロウザイダン,0
630,3030001155655,新規,0,2023-09-07,2023-09-07,Ｇｌｏｂａｌ　Ｂｉｚ　ＪＡＰＡＮ株式会社,,株式会社,埼玉県,深谷市,普済寺字中原１７１８番,,11,218,3690203,,,,,,,2023-09-07,1,,,,,グローバルビズジャパン,0
631,3030001155944,新規,0,2023-09-07,2023-09-07,株式会社ケイビークロス,,株式会社,埼玉県,八潮市,大字浮塚９２９番地,,11,234,3400835,,,,,,,2023-09-07,1,,,,,ケイビークロス,0
639,3040001129922,新規,0,2023-09-07,2023-09-07,ナカミチエンジニアリング株式会社,,株式会社,千葉県,流山市,大字東深井１７２番地の２,,12,220,2700101,,,,,,,2023-09-07,1,,,,,ナカミチエンジニアリング,0
640,3040001129930,新規,0,2023-09-07,2023-09-07,株式会社エイ・スリー,,株式会社,千葉県,柏市,豊四季６６番地５,,12,217,2770863,,,,,,,2023-09-07,1,,,,,エイスリー,0
641,3040001129939,新規,0,2023-09-07,2023-09-07,株式会社ＧＲＡＴＩＨＯＳ,,株式会社,千葉県,千葉市花見川区,作新台３丁目４番３２号,,12,102,2620045,,,,,,,2023-09-07,1,,,,,グラティホス,0
642,3040001129988,新規,0,2023-09-07,2023-09-07,株式会社ＯＮＥ,,株式会社,千葉県,船橋市,馬込西２丁目１９番２１号,,12,204,2730855,,,,,,,2023-09-07,1,,,,,ワァン,0
648,3050001053394,新規,0,2023-09-07,2023-09-07,株式会社常美メンテナンス,,株式会社,茨城県,常総市,中妻町８２３番地４,,08,211,3002505,,,,,,,2023-09-07,1,,,,,ジョウビメンテナンス,0
649,3050001053403,新規,0,2023-09-07,2023-09-07,株式会社キノリア,,株式会社,茨城県,古河市,旭町２丁目２３番１６号,,08,204,3060012,,,,,,,2023-09-07,1,,,,,キノリア,0
652,3050003007778,新規,0,2023-09-07,2023-09-07,合同会社ＡＬＭＩＧＨＴＹ,,合同会社,茨城県,古河市,女沼７８３－２２,,08,204,3060226,,,,,,,2023-09-07,1,,,,,オールマイティー,0
655,3070001040820,新規,0,2023-09-07,2023-09-07,株式会社青和,,株式会社,群馬県,高崎市,台町１番地７,,10,202,3700805,,,,,,,2023-09-07,1,,,,,セイワ,0
663,3090001018311,新規,0,2023-09-07,2023-09-07,株式会社ＩＮＮＥＲ　ＦＬＡＲＥ,,株式会社,山梨県,甲府市,富竹２丁目４番２７号,,19,201,4000049,,,,,,,2023-09-07,1,,,,,インナーフレア,0
665,3100001036740,新規,0,2023-09-07,2023-09-07,叶屋福和家本舗株式会社,,株式会社,長野県,飯田市,鼎一色４５１番地１，２Ｆ－２,,20,205,3950805,,,,,,,2023-09-07,1,,,,,カノウヤフクワウチホンポ,0
666,3100001036749,新規,0,2023-09-07,2023-09-07,株式会社エスエヌコーポレーション,,株式会社,長野県,上田市,小泉５５６番地７,,20,203,3861106,,,,,,,2023-09-07,1,,,,,エスエヌコーポレーション,0
667,3100001036757,新規,0,2023-09-07,2023-09-07,株式会社ＦＦＦ,,株式会社,長野県,上伊那郡宮田村,７０７９番地１,,20,388,3994301,,,,,,,2023-09-07,1,,,,,エフエフエフ,0
679,3120001257863,新規,0,2023-09-07,2023-09-07,株式会社ワオテック,,株式会社,大阪府,大阪市北区,中崎西１丁目５番１４号,,27,127,5300015,,,,,,,2023-09-07,1,,,,,ワオテック,0
686,3120101068129,新規,0,2023-09-07,2023-09-07,株式会社日本養設,,株式会社,大阪府,和泉市,はつが野１丁目３９番１号,,27,219,5941106,,,,,,,2023-09-07,1,,,,,ニホンヨウセツ,0
687,3120105009756,新規,0,2023-09-07,2023-09-07,一般社団法人みんなの相続窓口,,その他の設立登記法人,大阪府,富田林市,寺池台１丁目９番６０－１１３号,,27,214,5840073,,,,,,,2023-09-07,1,,,,,ミンナノソウゾクマドグチ,0
689,3120901048016,新規,0,2023-09-07,2023-09-07,株式会社イトアネクスト,,株式会社,大阪府,吹田市,吹東町３５－３０－１０１,,27,205,5640014,,,,,,,2023-09-07,1,,,,,イトアネクスト,0
693,3130001075158,新規,0,2023-09-07,2023-09-07,ＴＯＫＹＯ　ＦＵＤＯＵＳＡＮ株式会社,,株式会社,京都府,城陽市,寺田北東西１４番地の１‐１０３号,,26,207,6100121,,,,,,,2023-09-07,1,,,,,トウキョウフドウサン,0
695,3140001131422,新規,0,2023-09-07,2023-09-07,株式会社ＣＥＬ‐ＥＮＡ,,株式会社,兵庫県,芦屋市,船戸町５－２６,,28,206,6590093,,,,,,,2023-09-07,1,,,,,セルエナ,0
696,3140001131471,新規,0,2023-09-07,2023-09-07,株式会社ｉｋｉ,,株式会社,兵庫県,神戸市東灘区,甲南町３丁目７番２７号１階,,28,101,6580084,,,,,,,2023-09-07,1,,,,,イキ,0
707,3180001157843,新規,0,2023-09-07,2023-09-07,株式会社真心,,株式会社,愛知県,名古屋市名東区,松井町２５６番地サンハイツカトウ２０２号,,23,115,4650062,,,,,,,2023-09-07,1,,,,,マゴコロ,0
708,3180001157851,新規,0,2023-09-07,2023-09-07,シバノ機械株式会社,,株式会社,愛知県,名古屋市緑区,四本木１００５番地,,23,114,4580039,,,,,,,2023-09-07,1,,,,,シバノキカイ,0
709,3180005020345,新規,0,2023-09-07,2023-09-07,一般社団法人未来デザインラボ,,その他の設立登記法人,愛知県,日進市,赤池２丁目８０８番地,,23,230,4700125,,,,,,,2023-09-07,1,,,,,ミライデザインラボ,0
710,3180301037778,新規,0,2023-09-07,2023-09-07,株式会社日比産業,,株式会社,愛知県,豊田市,浄水町南平７６番地,,23,211,4700343,,,,,,,2023-09-07,1,,,,,ヒビサンギョウ,0
711,3180301037794,新規,0,2023-09-07,2023-09-07,株式会社ＮＦトレーディング,,株式会社,愛知県,蒲郡市,豊岡町殿門６番地９,,23,214,4430011,,,,,,,2023-09-07,1,,,,,エヌエフトレーディング,0
712,3180303005816,新規,0,2023-09-07,2023-09-07,ｔｅｔｏｔｅ合同会社,,合同会社,愛知県,田原市,田原町北乗鞍４３番地３,,23,231,4413421,,,,,,,2023-09-07,1,,,,,テトテ,0
713,3180303005824,新規,0,2023-09-07,2023-09-07,合同会社三制設備,,合同会社,愛知県,安城市,東栄町４丁目６番１５号,,23,212,4460007,,,,,,,2023-09-07,1,,,,,サンセイセツビ,0
715,3190003004431,新規,0,2023-09-07,2023-09-07,合同会社まほろば,,合同会社,三重県,四日市市,東日野町１８番地３,,24,202,5100942,,,,,,,2023-09-07,1,,,,,マホロバ,0
717,3200001041706,新規,0,2023-09-07,2023-09-07,株式会社メリーズ,,株式会社,岐阜県,大垣市,赤坂新町４丁目５０番地１,,21,202,5032206,,,,,,,2023-09-07,1,,,,,メリーズ,0
724,3230001020005,新規,0,2023-09-07,2023-09-07,株式会社三協ビジネス,,株式会社,富山県,下新川郡朝日町,境７３３番地１,,16,343,9390704,,,,,,,2023-09-07,1,,,,,サンキョウビジネス,0
725,3240003006273,新規,0,2023-09-07,2023-09-07,茂合同会社,00131807,合同会社,広島県,広島市安佐北区,可部南２丁目２－７,,34,106,7310223,,,,,,,2023-09-07,1,,,,,シゲル,0
727,3250003003344,新規,0,2023-09-07,2023-09-07,合同会社Ｍｉｘｔｅｃａ,,合同会社,山口県,山陽小野田市,大字郡３６７９番地３,,35,216,7570002,,,,,,,2023-09-07,1,,,,,ミシュティカ,0
730,3260001038283,新規,0,2023-09-07,2023-09-07,株式会社三輪鉄工所,,株式会社,岡山県,新見市,上市１１４２番地１,,33,210,7180005,,,,,,,2023-09-07,1,,,,,ミワテッコウショ,0
731,3260001038291,新規,0,2023-09-07,2023-09-07,ＭＳＴ　ＲＩＳＥ株式会社,,株式会社,岡山県,倉敷市,西中新田２５９番地９シエルコート北棟２１２号室,,33,202,7100833,,,,,,,2023-09-07,1,,,,,エムエスティーライズ,0
735,3270003001560,新規,0,2023-09-07,2023-09-07,合同会社Ｔｗｉｎｂｏｘ,,合同会社,鳥取県,鳥取市,津ノ井２５０番地１２,,31,201,6891102,,,,,,,2023-09-07,1,,,,,ツインボックス,0
737,3280003001766,新規,0,2023-09-07,2023-09-07,合同会社綺凛,,合同会社,島根県,出雲市,斐川町黒目１２５７番地７,,32,203,6990553,,,,,,,2023-09-07,1,,,,,キリン,0
739,3290001102904,新規,0,2023-09-07,2023-09-07,株式会社翔陽,,株式会社,福岡県,大牟田市,大字歴木３７９番地３,,40,202,8370924,,,,,,,2023-09-07,1,,,,,ショウヨウ,0
740,3290001102961,新規,0,2023-09-07,2023-09-07,福岡トランスポート株式会社,,株式会社,福岡県,飯塚市,平恒９３７番地１,,40,205,8200073,,,,,,,2023-09-07,1,,,,,フクオカトランスポート,0
745,3290801029859,新規,0,2023-09-07,2023-09-07,株式会社九州繁栄工業,,株式会社,福岡県,北九州市小倉北区,篠崎５丁目２９番１７号,,40,106,8030861,,,,,,,2023-09-07,1,,,,,キュウシュウハンエイコウギョウ,0
751,3290803004496,新規,0,2023-09-07,2023-09-07,鳥山食品合同会社,,合同会社,福岡県,北九州市戸畑区,境川１丁目７番６号,,40,105,8040013,,,,,,,2023-09-07,1,,,,,トリヤマショクヒン,0
752,3300001013455,新規,0,2023-09-07,2023-09-07,株式会社高建,00131815,株式会社,佐賀県,唐津市,浦５３７０番地２,,41,202,8470124,,,,,,,2023-09-07,1,,,,,コウケン,0
754,3300003002019,新規,0,2023-09-07,2023-09-07,合同会社青木工房,,合同会社,佐賀県,鳥栖市,儀徳町２５２９番地７エスポワール１０１,,41,203,8410066,,,,,,,2023-09-07,1,,,,,,0
758,3330001031223,新規,0,2023-09-07,2023-09-07,株式会社長雅,,株式会社,熊本県,熊本市中央区,大江１丁目５番２３号,,43,101,8620971,,,,,,,2023-09-07,1,,,,,ナガマサ,0
759,3330005010693,新規,0,2023-09-07,2023-09-07,医療法人花悠会,,その他の設立登記法人,熊本県,菊池郡菊陽町,大字津久礼２３７７番地１,,43,404,8691101,,,,,,,2023-09-07,1,,,,,ハナユウカイ,0
763,3340005009652,新規,0,2023-09-07,2023-09-07,医療法人なのはな,,その他の設立登記法人,鹿児島県,指宿市,東方１０８０１番地１,,46,210,8910404,,,,,,,2023-09-07,1,,,,,ナノハナ,0
767,3350003004431,新規,0,2023-09-07,2023-09-07,合同会社工藤内装,,合同会社,宮崎県,宮崎市,恒久５丁目６番地５,,45,201,8800913,,,,,,,2023-09-07,1,,,,,クドウナイソウ,0
772,3360003013258,新規,0,2023-09-07,2023-09-07,合同会社Ｓ＆Ｎコミュニケーション,,合同会社,沖縄県,浦添市,伊祖２丁目１８－２マンションロイヤルグリーン１０１,,47,208,9012132,,,,,,,2023-09-07,1,,,,,エスアンドエヌコミュニケーション,0
773,3360005006904,新規,0,2023-09-07,2023-09-07,一般社団法人茅原書藝會,,その他の設立登記法人,沖縄県,那覇市,壺川２丁目１番地８,,47,201,9000025,,,,,,,2023-09-07,1,,,,,チハラショゲイカイ,0
774,3370001050384,新規,0,2023-09-07,2023-09-07,イーストジャパンメンテナンス株式会社,,株式会社,宮城県,大崎市,三本木新町１丁目１９番１４号,,04,215,9896306,,,,,,,2023-09-07,1,,,,,イーストジャパンメンテナンス,0
776,3370003006269,新規,0,2023-09-07,2023-09-07,コーネット合同会社,,合同会社,宮城県,登米市,迫町佐沼字八幡堂４６番地,,04,212,9870511,,,,,,,2023-09-07,1,,,,,コーネット,0
777,3370003006277,新規,0,2023-09-07,2023-09-07,合同会社ｅ‐ｐｌａｎｎｉｎｇ,,合同会社,宮城県,仙台市泉区,紫山２丁目４番地の６,,04,105,9813205,,,,,,,2023-09-07,1,,,,,イープランニング,0
791,3430001089904,新規,0,2023-09-07,2023-09-07,株式会社ＮＥＸＴ　ＵＰ,,株式会社,北海道,札幌市東区,北七条東１３丁目２番１４号,,01,103,0650007,,,,,,,2023-09-07,1,,,,,ネクストアップ,0
792,3430001089920,新規,0,2023-09-07,2023-09-07,株式会社Ｎ．ＡＭＢＩＴＩＯＵＳ,,株式会社,北海道,札幌市清田区,里塚緑ケ丘２丁目９番１７号,,01,110,0040805,,,,,,,2023-09-07,1,,,,,エヌアンビシャス,0
793,3430001089937,新規,0,2023-09-07,2023-09-07,株式会社コンフィアンス,,株式会社,北海道,札幌市白石区,川北二条３丁目１６番７号,,01,104,0030852,,,,,,,2023-09-07,1,,,,,コンフィアンス,0
794,3460003000964,新規,0,2023-09-07,2023-09-07,合同会社ゆなな,,合同会社,北海道,釧路市,星が浦北４丁目１番２５号,,01,206,0840911,,,,,,,2023-09-07,1,,,,,ユナナ,0
798,3470001019790,新規,0,2023-09-07,2023-09-07,株式会社ＭＹＣ塗装,,株式会社,香川県,高松市,林町６番地２７,,37,201,7610301,,,,,,,2023-09-07,1,,,,,エムワイシートソウ,0
799,3470003002480,新規,0,2023-09-07,2023-09-07,デンタルスタディクラブｅｄｇｅ合同会社,,合同会社,香川県,高松市,花ノ宮町１丁目８番１８号,,37,201,7618063,,,,,,,2023-09-07,1,,,,,デンタルスタディクラブエッジ,0
804,3500001025182,新規,0,2023-09-07,2023-09-07,株式会社ｅ企画,,株式会社,愛媛県,松山市,三町１丁目４番３３号,,38,201,7900914,,,,,,,2023-09-07,1,,,,,イーキカク,0
805,3700150118808,新規,0,2023-09-07,2023-09-07,ＰＲＯＰＶＵＥ　ＬＬＣ,,外国会社等,,,,,,,,３５００　Ｓｏｕｔｈ　Ｄｕｐｏｎｔ　Ｈｉｇｈｗａｙ，Ｄｏｖｅｒ，ＤＥ　１９９０１９８　ＣＵＴＴＥＲＭＩＬＬ　ＲＤ，ｓｔｅ　４６６ｓ，ＧＲＥＡＴ　ＮＥＣＫ　ＮＹ　１１０２１－３０１９　ＵＳＡ,,,,,,2023-09-07,1,,,,,プロビューエルエルシー,0
806,3700150119896,新規,0,2023-09-07,2023-09-07,Ｓｈｅｎｚｈｅｎ　Ｄｉｎｇｗｅｉ　Ｎｅｗ　Ｅｎｅｒｇｙ　Ｃｏ．，Ｌｔｄ．,,外国会社等,,,,,,,,Ｒｏｏｍ　７０６，Ｂｕｉｌｄｉｎｇ　３，Ｆｕｔｏｎｇ　Ｈａｉｚｈｉ　Ｔｅｃｈｎｏｌｏｇｙ　Ｐａｒｋ，Ｎｏ．１７，Ｂｕｌａｎ　Ｒｏａｄ，Ｘｉａｌｉｌａｎｇ　Ｃｏｍｍｕｎｉｔｙ，Ｎａｎｗａｎ　Ｓｔｒｅｅｔ，Ｌｏｎｇｇａｎｇ　Ｄｉｓｔｒｉｃｔ,,,,,,2023-09-07,1,,,,,シェンジェンシーディンウェイシンノンユエンヨウシエンゴンスー,0
807,3700150119905,新規,0,2023-09-07,2023-09-07,ｇｕａｎｚｈｏｕｓｈｉ　ｂａｉｙｉ　ｍａｏｙｉ　Ｙｏｕｘｉａｎｇｏｎｇｓｉ,,外国会社等,,,,,,,,Ｈａｉｚｈｕｑｕ　ｎａｎｚｈｏｕｌｕ　３６ｈａｏ　ｚｈｉ　２ｌｏｕ　２０２Ａ　ｇｕａｎｇｚｈｏｕ　Ｇｕａｎｇｄｏｎｇ　ＣＮ　　　　,,,,,,2023-09-07,1,,,,,コウシュウシバイイボウエキユウゲンコウシ,0
808,3700150119913,新規,0,2023-09-07,2023-09-07,ｓｈｅｎｚｈｅｎｑｕａｎｙｏｕｋｅｊｉｙｏｕｘｉａｎｇｏｎｇｓｉ,,外国会社等,,,,,,,,ｌｏｎｇｇａｎｇｑｕｈｅｎｇｇａｎｇｊｉｅｄａｏ，ｄａｔａｎｇｊｉｅｗｕｘｉａｎｇ６ｈａｏ２０５ｓｈｉ，ｓｈｅｎｚｈｅｎｓｈｉ，ｇｕａｎｇｄｏｎｇｓｈｅｎｇ，ＣＮ,,,,,,2023-09-07,1,,,,,シンセンケンユウカギユウゲンコウシ,0
809,3700150119921,新規,0,2023-09-07,2023-09-07,Ｓｈｅｎｚｈｅｎ　ＺＣＳＷ　Ｔｅｃｈｎｏｌｏｇｙ　Ｃｏ．，Ｌｔｄ．,,外国会社等,,,,,,,,Ｆｌｏｏｒ１２Ｂｕｉｌｄｉｎｇ３ＪｉｎｃｈｅｎｇＩｎｄｕｓｔｒｉａｌＰａｒｋＴｏｎｇｓｈｅｎｇＣｏｍｍｕｎｉｔｙ　ＤａｌａｎｇＳｔｒｅｅｔ　ＬｏｎｇｈｕａＤｉｓｔｒｉｃｔ　Ｓｈｅｎｚｈｅｎ,,,,,,2023-09-07,1,,,,,シンセンズシーエスダブリューテクノロジーカンパニーリミテッド,0
810,3700150119938,新規,0,2023-09-07,2023-09-07,ｓｈｕａｎｇｆｅｎｇｙｉｂａｊｉｕｄｉａｎｚｉｓｈａｎｇｗｕ　ｙｏｕｘｉａｎｇｏｎｇｓｉ,,外国会社等,,,,,,,,Ｈｕｎａｎｓｈｅｎｇｌｏｕｄｉｓｈｉｓｈｕａｎｇｆｅｎｇｘｉａｎｙｏｎｇｆｅｎｇｊｉｅｄａｏｃｈｅｎｇｄｏｎｇｓｈｅｑｕｄｉｎｇｙｕａｎｃｕｎｄｉｊｉｕｃｕｎｍｉｎｚｕ,,,,,,2023-09-07,1,,,,,シュアンフェンイバジュデンシショウムユウゲンコウシ,0
811,3700150119946,新規,0,2023-09-07,2023-09-07,Ｈｅｎａｎ　Ｙａｎｇｍｉｎｇ　ｃｕｌｔｕｒａｌ　ｃｏｍｍｕｎｉｃａｔｉｏｎ　Ｃｏ．，ＬＴＤ,,外国会社等,,,,,,,,１　ｕｎｉｔ　Ｄｏｎｇｈｕ，Ｅａｓｔ　ｏｆ　ｔｈｅ　Ｅａｓｔ　ｏｆ　ｔｈｅ　Ｒａｄｉｏ，Ｆｉｌｍ　ａｎｄ　Ｔｅｌｅｖｉｓｉｏｎ　Ｂｕｒｅａｕ　ｏｆ　Ｙｉｃｈｅｎｇ　Ｄｉｓｔｒｉｃｔ，Ｚｈｕｍａｄｉａｎ　Ｃｉｔｙ，Ｈｅｎａｎ　Ｐｒｏｖｉｎｃｅ，Ｃｈｉｎａ,,,,,,2023-09-07,1,,,,,ホーナンヤンミンウェンフワーチュワンボーヨウシエンゴンスー,0
812,3700150119954,新規,0,2023-09-07,2023-09-07,Ｓｈｅｎｚｈｅｎ　ｎｅｊｉｆｕ　ｔｅｃｈｎｏｌｏｇｙ　ｃｏ．，ｌｔｄ,,外国会社等,,,,,,,,Ｆｌｏｏｒ　３，Ｗａｎｇｆｅｎｇ　Ｂｕｉｌｄｉｎｇ，ＮＯ．３５　Ａｒｅａ，Ｘｉｎ’ａｎ　Ｓｔｒｅｅｔ，Ｂａｏａｎ　Ｄｉｓｔｒｉｃｔ　Ｓｈｅｎｚｈｅｎ　Ｇｕａｎｇｄｏｎｇ,,,,,,2023-09-07,1,,,,,シンセンシダクキンフクカギユウゲンコウシ,0
819,4010001238188,新規,0,2023-09-07,2023-09-07,イロハデジタル経営株式会社,,株式会社,東京都,中央区,銀座１丁目２２番１１号銀座大竹ビジデンス２Ｆ,,13,102,1040061,,,,,,,2023-09-07,1,,,,,イロハデジタルケイエイ,0
820,4010001238213,新規,0,2023-09-07,2023-09-07,株式会社ストラクショングループ,,株式会社,東京都,中央区,日本橋茅場町２丁目１３番１３号,,13,102,1030025,,,,,,,2023-09-07,1,,,,,ストラクショングループ,0
823,4010003041598,新規,0,2023-09-07,2023-09-07,ノヴァ・ソーラー３合同会社,,合同会社,東京都,中央区,日本橋茅場町３丁目５番２号大和屋ビル６階,,13,102,1030025,,,,,,,2023-09-07,1,,,,,ノヴァソーラーサン,0
824,4010003041615,新規,0,2023-09-07,2023-09-07,合同会社コスモトライブンパートナーズ,,合同会社,東京都,中央区,日本橋茅場町１丁目３番７号千代田ビル５階,,13,102,1030025,,,,,,,2023-09-07,1,,,,,コスモトライブンパートナーズ,0
825,4010005037207,新規,0,2023-09-07,2023-09-07,一般社団法人トレーラーハウス協会,,その他の設立登記法人,東京都,中央区,新川１丁目２８番２５号東京ダイヤビルディング３号館,,13,102,1040033,,,,,,,2023-09-07,1,,,,,トレーラーハウスキョウカイ,0
826,4010005037223,新規,0,2023-09-07,2023-09-07,協同組合ＪＩＲＭＳ,,その他の設立登記法人,東京都,文京区,本駒込２丁目２８番８号,,13,105,1130021,,,,,,,2023-09-07,1,,,,,ジームス,0
836,4010401176946,新規,0,2023-09-07,2023-09-07,株式会社シフトゼロソリューションズ,,株式会社,東京都,港区,三田１丁目６番３－２８０６号,,13,103,1080073,,,,,,,2023-09-07,1,,,,,シフトゼロソリューションズ,0
837,4010401176954,新規,0,2023-09-07,2023-09-07,Ｓ＆Ｓホールディングス株式会社,,株式会社,東京都,港区,新橋１丁目１１番４号,,13,103,1050004,,,,,,,2023-09-07,1,,,,,エスアンドエスホールディングス,0
839,4010403030531,新規,0,2023-09-07,2023-09-07,合同会社ＳＡＭＡＲ,,合同会社,東京都,港区,赤坂６丁目１９－５０－４１０,,13,103,1070052,,,,,,,2023-09-07,1,,,,,サマル,0
845,4010503007149,新規,0,2023-09-07,2023-09-07,ＬＩＯ　ｃｏｆｆｅｅ　ｓｈｏｐ合同会社,,合同会社,東京都,台東区,上野５丁目１６番１６号天美ビル２階１９,,13,106,1100005,,,,,,,2023-09-07,1,,,,,リオコーヒーショップ,0
848,4010601063738,新規,0,2023-09-07,2023-09-07,ＨＥＡＬＴＨＩＱ株式会社,,株式会社,東京都,江東区,東砂１丁目１番１－９３０号,,13,108,1360074,,,,,,,2023-09-07,1,,,,,ヘルスアイキュー,0
850,4010701044794,新規,0,2023-09-07,2023-09-07,株式会社ＳＥＡＣＡＳ,,株式会社,東京都,品川区,東品川３丁目８番８－１５０９号,,13,109,1400002,,,,,,,2023-09-07,1,,,,,シーキャス,0
854,4010801034308,新規,0,2023-09-07,2023-09-07,株式会社フォーチュンフィールド,,株式会社,東京都,大田区,池上８丁目１３番１４号,,13,111,1460082,,,,,,,2023-09-07,1,,,,,フォーチュンフィールド,0
857,4010901053793,新規,0,2023-09-07,2023-09-07,株式会社ピラティスサーチ,,株式会社,東京都,世田谷区,桜新町１丁目１４－２２Ｆコート桜新町４０１号,,13,112,1540015,,,,,,,2023-09-07,1,,,,,ピラティスサーチ,0
858,4010903008432,新規,0,2023-09-07,2023-09-07,Ｔ‐ＬＡＮＤ合同会社,,合同会社,東京都,世田谷区,鎌田１丁目１４番１１号,,13,112,1570077,,,,,,,2023-09-07,1,,,,,ティーランド,0
865,4011001156826,新規,0,2023-09-07,2023-09-07,株式会社Ｅｘｐａｎｄ,,株式会社,東京都,目黒区,自由が丘２丁目６番１２号ＲＪ３,,13,110,1520035,,,,,,,2023-09-07,1,,,,,エクスパンド,0
867,4011005010203,新規,0,2023-09-07,2023-09-07,一般社団法人探究科学検定協会,,その他の設立登記法人,東京都,渋谷区,道玄坂１丁目１０番８号渋谷道玄坂東急ビル２Ｆ－Ｃ,,13,113,1500043,,,,,,,2023-09-07,1,,,,,タンキュウカガクケンテイキョウカイ,0
872,4011101104214,新規,0,2023-09-07,2023-09-07,株式会社ＷＷ,,株式会社,東京都,新宿区,新宿５丁目８番１０号新宿５アドレス２０１,,13,104,1600022,,,,,,,2023-09-07,1,,,,,ワラワラ,0
873,4011101104230,新規,0,2023-09-07,2023-09-07,株式会社エース・ホールディングス,,株式会社,東京都,新宿区,新宿２丁目１２番１３号新宿アントレサロンビル２階,,13,104,1600022,,,,,,,2023-09-07,1,,,,,エースホールディングス,0
874,4011101104247,新規,0,2023-09-07,2023-09-07,詳鎰株式会社,,株式会社,東京都,新宿区,西五軒町７番１２プラティーク神楽坂１０１号,,13,104,1620812,,,,,,,2023-09-07,1,,,,,ショウエキ,0
875,4011101104255,新規,0,2023-09-07,2023-09-07,株式会社Ｔレジデンス,,株式会社,東京都,新宿区,高田馬場３丁目８番３１号,,13,104,1690075,,,,,,,2023-09-07,1,,,,,ティーレジデンス,0
876,4011101104271,新規,0,2023-09-07,2023-09-07,ＳＴＡＲＴ株式会社,,株式会社,東京都,新宿区,新宿５丁目１８番９号ステージ新宿５階,,13,104,1600022,,,,,,,2023-09-07,1,,,,,スタート,0
877,4011105010771,新規,0,2023-09-07,2023-09-07,一般社団法人適正映像事業者連合会,,その他の設立登記法人,東京都,新宿区,新宿１丁目３０番１１号ビル・プランタン３Ｆ,,13,104,1600022,,,,,,,2023-09-07,1,,,,,テキセイエイゾウジギョウシャレンゴウカイ,0
881,4011305002932,新規,0,2023-09-07,2023-09-07,医療法人社団奏,,その他の設立登記法人,東京都,杉並区,上井草３丁目３３番１１号,,13,115,1670023,,,,,,,2023-09-07,1,,,,,カナデ,0
892,4011801042993,新規,0,2023-09-07,2023-09-07,株式会社ＫＪ‐ＴＲＵＳＴ,,株式会社,東京都,足立区,伊興１丁目２４番２０－２０５号,,13,121,1210823,,,,,,,2023-09-07,1,,,,,ケイジェイトラスト,0
893,4012303001868,新規,0,2023-09-07,2023-09-07,合同会社ミノ‐ジック,,合同会社,東京都,町田市,高ヶ坂５丁目１０番３号,,13,209,1940014,,,,,,,2023-09-07,1,,,,,ミノジック,0
900,4013303006782,新規,0,2023-09-07,2023-09-07,ＳＥＡＲＣＨＬＩＧＨＴ合同会社,,合同会社,東京都,豊島区,南大塚３丁目１番１２－８０１号,,13,116,1700005,,,,,,,2023-09-07,1,,,,,サーチライト,0
901,4013303006790,新規,0,2023-09-07,2023-09-07,シオン合同会社,,合同会社,東京都,豊島区,東池袋１丁目３４番５号,,13,116,1700013,,,,,,,2023-09-07,1,,,,,シオン,0
908,4020001153361,新規,0,2023-09-07,2023-09-07,株式会社ＪＨ,,株式会社,神奈川県,横浜市西区,高島１丁目４番１２号,,14,103,2200011,,,,,,,2023-09-07,1,,,,,ジェイエイチ,0
909,4020001153394,新規,0,2023-09-07,2023-09-07,株式会社甲起,,株式会社,神奈川県,横浜市旭区,市沢町３１番地１,,14,112,2410014,,,,,,,2023-09-07,1,,,,,コウキ,0
910,4020003024560,新規,0,2023-09-07,2023-09-07,ＢＩＳＨＮＵ合同会社,,合同会社,神奈川県,横浜市神奈川区,三ツ沢中町７番５号,,14,102,2210851,,,,,,,2023-09-07,1,,,,,ビスヌ,0
912,4021001080075,新規,0,2023-09-07,2023-09-07,株式会社Ｍ　ｐｌａｎ,,株式会社,神奈川県,相模原市中央区,相模原５丁目２番１号,,14,152,2520231,,,,,,,2023-09-07,1,,,,,エムプラン,0
913,4021001080083,新規,0,2023-09-07,2023-09-07,株式会社エイトフォー,,株式会社,神奈川県,大和市,西鶴間２丁目１１番２８号ドルミ鶴間７０８号,,14,213,2420005,,,,,,,2023-09-07,1,,,,,エイトフォー,0
914,4021001080091,新規,0,2023-09-07,2023-09-07,株式会社Ｓｈｉｎｗａ,,株式会社,神奈川県,大和市,深見東３丁目６番２５号,,14,213,2420012,,,,,,,2023-09-07,1,,,,,シンワ,0
926,4030003022497,新規,0,2023-09-07,2023-09-07,合同会社Ｉ’ｌｌ　ｍａｋｅ　ｉｔ,,合同会社,埼玉県,春日部市,南１丁目１番１号ふれあいキューブ５階Ｃ－４,,11,214,3440064,,,,,,,2023-09-07,1,,,,,アイルメイキット,0
935,4040001129962,新規,0,2023-09-07,2023-09-07,株式会社Ａ,,株式会社,千葉県,習志野市,津田沼３丁目１３番４－１０５号,,12,216,2750016,,,,,,,2023-09-07,1,,,,,エー,0
937,4040003023247,新規,0,2023-09-07,2023-09-07,Ａｉｓｉａ合同会社,,合同会社,千葉県,袖ケ浦市,袖ケ浦駅前２丁目５番地１プライムアヴェニュー３０６号,,12,229,2990269,,,,,,,2023-09-07,1,,,,,アイシア,0
938,4040003023263,新規,0,2023-09-07,2023-09-07,合同会社連豊,,合同会社,千葉県,浦安市,北栄１丁目１２－７－４０６ＡｑｕｉｌａＵｒａｙａｓｕＵｎｏ,,12,227,2790002,,,,,,,2023-09-07,1,,,,,レンホウ,0
944,4050001053443,新規,0,2023-09-07,2023-09-07,株式会社ジーエイチシー,,株式会社,茨城県,牛久市,ひたち野西３丁目３８番地１（２－５０３）,,08,219,3001206,,,,,,,2023-09-07,1,,,,,ジーエイチシー,0
947,4070001040828,新規,0,2023-09-07,2023-09-07,エスワイケー株式会社,,株式会社,群馬県,前橋市,駒形町４１２番地,,10,201,3792122,,,,,,,2023-09-07,1,,,,,エスワイケー,0
948,4070001040836,新規,0,2023-09-07,2023-09-07,株式会社トータルリノベーション,,株式会社,群馬県,高崎市,剣崎町１３８番地３,,10,202,3700883,,,,,,,2023-09-07,1,,,,,トータルリノベーション,0
953,4080405007570,新規,0,2023-09-07,2023-09-07,一般社団法人日本書写書道振興協会,,その他の設立登記法人,静岡県,浜松市浜北区,貴布祢２２６４番地,,22,136,4340038,,,,,,,2023-09-07,1,,,,,ニホンショシャショドウシンコウキョウカイ,0
954,4100001036748,新規,0,2023-09-07,2023-09-07,株式会社ヨダモッコウプラス,,株式会社,長野県,佐久市,入澤８５４番地２,,20,217,3840621,,,,,,,2023-09-07,1,,,,,ヨダモッコウプラス,0
955,4100001036756,新規,0,2023-09-07,2023-09-07,株式会社ＴＳ,,株式会社,長野県,千曲市,大字土口２４８番地１,,20,218,3870002,,,,,,,2023-09-07,1,,,,,ティーエス,0
957,4100003007169,新規,0,2023-09-07,2023-09-07,ＮＫライズ合同会社,,合同会社,長野県,松本市,大字内田３２２９番地１５,,20,202,3990023,,,,,,,2023-09-07,1,,,,,エヌケーライズ,0
968,4120001257838,新規,0,2023-09-07,2023-09-07,ＯＧＳコンサルティング株式会社,,株式会社,大阪府,大阪市西区,江戸堀２丁目１番１号,,27,106,5500002,,,,,,,2023-09-07,1,,,,,オージーエスコンサルティング,0
971,4120003024848,新規,0,2023-09-07,2023-09-07,合同会社夢やプロジェクト,,合同会社,大阪府,大阪市東成区,中本３丁目８番２８号,,27,115,5370022,,,,,,,2023-09-07,1,,,,,ユメヤプロジェクト,0
974,4120101068177,新規,0,2023-09-07,2023-09-07,株式会社フォーエバー,,株式会社,大阪府,堺市堺区,東雲西町４丁３番１１－７号,,27,141,5900013,,,,,,,2023-09-07,1,,,,,フォーエバー,0
976,4120103005418,新規,0,2023-09-07,2023-09-07,白いカエル合同会社,,合同会社,大阪府,河内長野市,楠ケ丘２０番３３号,,27,216,5860039,,,,,,,2023-09-07,1,,,,,シロイカエル,0
978,4120903004825,新規,0,2023-09-07,2023-09-07,Ｊ‐Ｐｒｏｄｕｃｅインフィニティ合同会社,,合同会社,大阪府,茨木市,下穂積１丁目４番７－６０９号ローレルコート茨木レジデンス,,27,211,5670041,,,,,,,2023-09-07,1,,,,,ジェープロデュースインフィニティ,0
979,4122001037336,新規,0,2023-09-07,2023-09-07,ＢｒｏｓｐｅｒＺ株式会社,,株式会社,大阪府,大東市,寺川２丁目２番１８号,,27,218,5740014,,,,,,,2023-09-07,1,,,,,ブロスパーズ,0
981,4130001075173,新規,0,2023-09-07,2023-09-07,書画屋山添株式会社,,株式会社,京都府,京都市下京区,朱雀宝蔵町４４番地協栄ビル２階京都朱雀スタジオＴ－４０７,,26,106,6008846,,,,,,,2023-09-07,1,,,,,ショガヤヤマゾエ,0
990,4140001131438,新規,0,2023-09-07,2023-09-07,株式会社プロワーカー,,株式会社,兵庫県,神戸市中央区,大日通５丁目２番２０号,,28,110,6510064,,,,,,,2023-09-07,1,,,,,プロワーカー,0
991,4140001131487,新規,0,2023-09-07,2023-09-07,Ｒ＆Ｍ株式会社,,株式会社,兵庫県,神戸市西区,学園東町５丁目１番地５１０－２０２号,,28,111,6512102,,,,,,,2023-09-07,1,,,,,アールアンドエム,0
992,4140001131578,新規,0,2023-09-07,2023-09-07,株式会社六甲トレーダース,,株式会社,兵庫県,神戸市東灘区,向洋町中７丁目２番地の１、９番館７０４号,,28,101,6580032,,,,,,,2023-09-07,1,,,,,ロッコウトレーダース,0
995,4140003019516,新規,0,2023-09-07,2023-09-07,合同会社ＫＭＳ,,合同会社,兵庫県,神戸市兵庫区,新開地１丁目２番１０号,,28,105,6520811,,,,,,,2023-09-07,1,,,,,ケーエムエス,0
999,4160003002981,新規,0,2023-09-07,2023-09-07,合同会社大津総合医療企画,,合同会社,滋賀県,大津市,鶴の里２４番９号,,25,201,5200826,,,,,,,2023-09-07,1,,,,,オオツソウゴウイリョウキカク,0
1006,4180001157850,新規,0,2023-09-07,2023-09-07,株式会社ＴＡＮＮＥ,,株式会社,愛知県,名古屋市名東区,山の手２丁目１１８番地,,23,115,4650011,,,,,,,2023-09-07,1,,,,,タンネ,0
1007,4180001157883,新規,0,2023-09-07,2023-09-07,株式会社ｇｌａｄｅｒ,,株式会社,愛知県,常滑市,阿野町３丁目４５番地の１,,23,216,4790814,,,,,,,2023-09-07,1,,,,,グラッダー,0
1008,4180001157941,新規,0,2023-09-07,2023-09-07,株式会社Ｎ　ＤＲＩＶＥ,,株式会社,愛知県,一宮市,今伊勢町宮後字郷東４７番地２,,23,203,4910057,,,,,,,2023-09-07,1,,,,,エヌドライブ,0
1011,4180003025700,新規,0,2023-09-07,2023-09-07,ａｎｙ合同会社,,合同会社,愛知県,名古屋市西区,花の木１丁目９番１３号（プレジデント浄心３０１号）,,23,104,4510062,,,,,,,2023-09-07,1,,,,,アニー,0
1012,4180003025725,新規,0,2023-09-07,2023-09-07,合同会社旅キャラバン,,合同会社,愛知県,愛西市,東保町宮越４３６番地１,,23,232,4960912,,,,,,,2023-09-07,1,,,,,タビキャラバン,0
1014,4180301037769,新規,0,2023-09-07,2023-09-07,株式会社ｃｈｅｒｉｒ,,株式会社,愛知県,豊田市,三軒町８丁目１７番地２,,23,211,4710037,,,,,,,2023-09-07,1,,,,,シェリール,0
1018,4200001041696,新規,0,2023-09-07,2023-09-07,株式会社双葉,,株式会社,岐阜県,大垣市,丸の内２丁目２０番地,,21,202,5030888,,,,,,,2023-09-07,1,,,,,フタバ,0
1020,4220003003585,新規,0,2023-09-07,2023-09-07,合同会社ｌａｐｉｓ＆ｒｕｔｉｌｅ,,合同会社,石川県,金沢市,笠舞本町１丁目１０番２号,,17,201,9200947,,,,,,,2023-09-07,1,,,,,ラピスアンドルチル,0
1021,4230001020004,新規,0,2023-09-07,2023-09-07,株式会社Ｍ＆Ａウェルビーイング,,株式会社,富山県,射水市,西高木７９５番地,,16,211,9390303,,,,,,,2023-09-07,1,,,,,エムアンドエーウェルビーイング,0
1024,4240001062103,新規,0,2023-09-07,2023-09-07,株式会社Ｂｅｅ,,株式会社,広島県,福山市,駅家町向永谷６９７－８,,34,207,7210000,,,,,,,2023-09-07,1,,,,,ビー,0
1028,4250001020274,新規,0,2023-09-07,2023-09-07,株式会社西京ホーム,,株式会社,山口県,山口市,阿知須１０７７７番地１,,35,203,7541277,,,,,,,2023-09-07,1,,,,,サイキョウホーム,0
1030,4250003003343,新規,0,2023-09-07,2023-09-07,合同会社石工房悠心,,合同会社,山口県,宇部市,大字東岐波１３４２－１,,35,202,7550241,,,,,,,2023-09-07,1,,,,,イシコウボウユウシン,0
1034,4280001009034,新規,0,2023-09-07,2023-09-07,株式会社栂前Ｐｌｕｓ,,株式会社,島根県,松江市,東津田町７３８番地,,32,201,6900011,,,,,,,2023-09-07,1,,,,,トガマエプラス,0
1036,4290001102853,新規,0,2023-09-07,2023-09-07,ランケン株式会社,,株式会社,福岡県,三井郡大刀洗町,大字山隈１７５７番地５,,40,503,8301226,,,,,,,2023-09-07,1,,,,,ランケン,0
1037,4290001102944,新規,0,2023-09-07,2023-09-07,株式会社むすび研究所,,株式会社,福岡県,福岡市中央区,今川２丁目１番２２号,,40,133,8100054,,,,,,,2023-09-07,1,,,,,ムスビケンキュウジョ,0
1038,4290001102952,新規,0,2023-09-07,2023-09-07,株式会社ＭＩＣＨＩ,,株式会社,福岡県,福岡市西区,大字羽根戸３８番１,,40,135,8190038,,,,,,,2023-09-07,1,,,,,ミチ,0
1039,4290001102960,新規,0,2023-09-07,2023-09-07,株式会社ＥＨＭ＆Ｃｏ．,,株式会社,福岡県,福岡市中央区,天神２丁目２番１２号Ｔ＆Ｊビルディング７Ｆ,,40,133,8100001,,,,,,,2023-09-07,1,,,,,イーエイチエムアンドカンパニー,0
1040,4290005019144,新規,0,2023-09-07,2023-09-07,一般社団法人Ｋアライアンス,,その他の設立登記法人,福岡県,福岡市中央区,天神３丁目１番１号天神フタタビル８階,,40,133,8100001,,,,,,,2023-09-07,1,,,,,ケイアライアンス,0
1044,4320001019978,新規,0,2023-09-07,2023-09-07,株式会社わま,,株式会社,大分県,宇佐市,大字松崎２５４番地,,44,211,8720015,,,,,,,2023-09-07,1,,,,,ワマ,0
1045,4320001019994,新規,0,2023-09-07,2023-09-07,株式会社関海,,株式会社,大分県,大分市,中央町１丁目４番２４号大分セントラルビル２階,,44,201,8700035,,,,,,,2023-09-07,1,,,,,セキミ,0
1050,4350001018556,新規,0,2023-09-07,2023-09-07,株式会社ｅｎ．,,株式会社,宮崎県,延岡市,鶴ケ丘２丁目２００２番地１４,,45,203,8820865,,,,,,,2023-09-07,1,,,,,エン,0
1054,4360003013257,新規,0,2023-09-07,2023-09-07,合同会社Ｈａｐｐｙ,,合同会社,沖縄県,豊見城市,字伊良波７９番地,,47,212,9010232,,,,,,,2023-09-07,1,,,,,ハッピー,0
1055,4360003013273,新規,0,2023-09-07,2023-09-07,合同会社ＷＯＷ,,合同会社,沖縄県,那覇市,泉崎１丁目１５番１６号,,47,201,9000021,,,,,,,2023-09-07,1,,,,,ワオ,0
1068,4420001018400,新規,0,2023-09-07,2023-09-07,株式会社ツクダ産資源,,株式会社,青森県,十和田市,大字相坂字相坂２６４番地２６,,02,206,0340041,,,,,,,2023-09-07,1,,,,,ツクダサンシゲン,0
1069,4430001089894,新規,0,2023-09-07,2023-09-07,株式会社ニセコ花園ホテル,,株式会社,北海道,虻田郡倶知安町,字岩尾別３２８番地５１,,01,400,0440082,,,,,,,2023-09-07,1,,,,,ニセコハナゾノホテル,0
1070,4430001089944,新規,0,2023-09-07,2023-09-07,株式会社アグリライト,,株式会社,北海道,札幌市中央区,南十三条西２１丁目３番１－２０１号,,01,101,0640913,,,,,,,2023-09-07,1,,,,,アグリライト,0
1073,4440003001542,新規,0,2023-09-07,2023-09-07,合同会社Ｊ‐マネジメント,,合同会社,北海道,函館市,上湯川町４３番３号,,01,202,0420914,,,,,,,2023-09-07,1,,,,,,0
1074,4450001014090,新規,0,2023-09-07,2023-09-07,株式会社ＳＡＮＫＡＫＵＹＡＮＥ,,株式会社,北海道,富良野市,桂木町２－２２５,,01,229,0760038,,,,,,,2023-09-07,1,,,,,サンカクヤネ,0
1075,4462501000965,新規,0,2023-09-07,2023-09-07,坂井産業株式会社,,株式会社,北海道,標津郡中標津町,計根別本通西４丁目５番地５,,01,692,0882682,,,,,,,2023-09-07,1,,,,,サカイサンギョウ,0
1088,4700150118518,新規,0,2023-09-07,2023-09-07,ｓｈｅｎｚｈｅｎｓｈｉｈａｉｚｈｉｊｉａｏｋｅｊｉｙｏｕｘｉａｎｇｏｎｇｓｉ,,外国会社等,,,,,,,,ｙｉｄｕｄａｓｈａ８Ｇ　ｎａｎｈｕｊｉｅｄａｏ　ｌｕｏｈｕｓｈｅｑｕ　ｙａｎｈｅｎａｎｌｕ　１０６２ｈａｏ　ｓｈｅｎｚｈｅｎｓｈｉ　ｇｕａｎｇｄｏｎｇｓｈｅｎｇ　５１８０００　ＣＮ,,,,,,2023-09-07,1,,,,,シェンジェンシハイジージャオカージヨウシェンゴンス,0
1089,4700150119895,新規,0,2023-09-07,2023-09-07,コハルスカイインターナショナルインク,,外国会社等,群馬県,前橋市,三河町２丁目１１－７,,10,201,3710015,アメリカ合衆国デラウェア州ニューアーク市バークスデイル・プロフェッショナルセンター１１３番,,,,,,2023-09-07,1,,,,,コハルスカイインターナショナルインク,0
1090,4700150119904,新規,0,2023-09-07,2023-09-07,ｈｅｎａｎｓｈｅｎｇ　ｂａｉｔａｎｇｄｉａｎｚｉ　ｓｈａｎｇｗｕｙｏｕｘｉａｎｇｏｎｇｓｉ,,外国会社等,,,,,,,,Ｈｅｎａｎｓｈｅｎｇ　ｚｈｅｎｇｚｈｏｕｓｈｉ　ｇｕａｎｃｈｅｎｇｈｕｉｚｕｑｕ　ｚｈｏｎｇｚｈｏｕｄａｄａｏｘｉｃｈａｎｇｊｉａｎｇｄｏｎｇｌｕｎａｎ　２ｈａｏｌｏｕ　８ｃｅｎｇ　８１９ｈａｏ　　　　,,,,,,2023-09-07,1,,,,,カナンショウバイトウデンシショウムユウゲンコウシ,0
1091,4700150119912,新規,0,2023-09-07,2023-09-07,ＸＩＡＮＡＩＢＩＳＩＳＨＡＮＧＭＡＯＹＯＵＸＩＡＮＧＯＮＧＳＩ,,外国会社等,,,,,,,,４－１－１３０１，Ｈｕａｚｈｕ　Ｚｈｏｎｇｃｈｅｎｇ，Ｎｏ．４９９　Ｙａｎｑｕ　４ｔｈ　Ｒｏａｄ，Ｑｕｊｉａｎｇ　Ｎｅｗ　Ｄｉｓｔｒｉｃｔ，Ｘｉ’ａｎ，Ｓｈａａｎｘｉ　Ｐｒｏｖｉｎｃｅ　Ｃｈｉｎａ　　　　,,,,,,2023-09-07,1,,,,,セイアンアイビシショウボウユウゲンコウシ,0
1092,4700150119920,新規,0,2023-09-07,2023-09-07,ｃｈｅｎｇｄｕ　ｚｈｅｓｈｅｓｕｉｐｉａｎｋｅｊｉ　ｙｏｕｘｉａｎｇｏｎｇｓｉ,,外国会社等,,,,,,,,ｇｏｎｇｈｅｌｕ８ｈａｏｆｕ３ｈａｏ１ｃｅｎｇ　ｃｈｅｎｇｄｕｓｈｉ　ｗｕｈｏｕｑｕ　ｓｉｃｈｕａｎｓｈｅｎｇ,,,,,,2023-09-07,1,,,,,セイトゼシェスイペンカギユウゲンコウシ,0
1093,4700150119929,新規,0,2023-09-07,2023-09-07,ｙｏｎｇｋａｎｇｓｈｉ　ｍｉｎｈｅｍａｏｙｉ　ｙｏｕｘｉａｎｇｏｎｇｓｉ,,外国会社等,,,,,,,,ｄｏｎｇｃｈｅｎｇｊｉｅｄａｏｚｈｏｎｇｚｈｅｙａｎｇｇｕａｎｇｄｕｓｈｉｈｕａｙｕａｎ４２ｚｈｕａｎｇ２ｄａｎｙｕａｎ１６０２ｓｈｉ　ｊｉｎｈｕａｓｈｉｙｏｎｇｋａｎｇｓｈｉ　ｚｈｅｊｉａｎｇｓｈｅｎｇ,,,,,,2023-09-07,1,,,,,エイコウシミンホアマオイユウゲンコウシ,0
1094,4700150119937,新規,0,2023-09-07,2023-09-07,ｓｈｕａｎｇｆｅｎｇ　ｍａｉｈｏｎｇｄｉａｎｚｉｓｈａｎｇｗｕ　ｙｏｕｘｉａｎｇｏｎｇｓｉ,,外国会社等,,,,,,,,Ｈｕｎａｎｓｈｅｎｇｌｏｕｄｉｓｈｉｓｈｕａｎｇｆｅｎｇｘｉａｎｙｏｎｇｆｅｎｇｊｉｅｄａｏｓｈｕａｎｇｘｉｎｇｊｉｅ１５７ｈａｏｍｅｎｍｉａｎ,,,,,,2023-09-07,1,,,,,スァンフェンマイホンデンシショウムユウゲンコウシ,0
1095,4700150119945,新規,0,2023-09-07,2023-09-07,ｓｈｅｎｚｈｅｎｓｈｉａｏｌａｎｇｕｏｊｉｍａｏｙｉｙｏｕｘｉａｎｇｏｎｇｓｉ,,外国会社等,,,,,,,,５０１ｓｈｉ，７ｄｏｎｇ，ｑｉａｎｌｏｎｇｈｕａｙｕａｎ，ｌｏｎｇｈｕａｘｉｎｑｕ，ｍｉｎｚｈｉｄａｄａｏｓｈｅｎｚｈｅｎ　ｇｕａｎｇｄｏｎｇ,,,,,,2023-09-07,1,,,,,シェンジェンシーアオラングオジーマオイーヨウシエンゴンスー,0
1096,4700150119953,新規,0,2023-09-07,2023-09-07,Ｇｕｉｌｉｎｙｉｑｉｚｈａｏｙｏｕｘｉａｎｇｏｎｇｓｉ,,外国会社等,,,,,,,,Ｎｏ．０２，Ｆｌｏｏｒ　８，Ｕｎｉｔ　１，Ｂｕｉｌｄｉｎｇ　１３，Ｓｈａｎｔｙｔｏｗｎ　Ｒｅｃｏｎｓｔｒｕｃｔ　Ｌｕｓｈａｎ　Ｃｅｍｅｎｔ　Ｐｌａｎｔ，Ｎｏ．６６，Ｌｕｓｈａｎ　Ｒｏａｄ，Ｌｉｎｇｕｉ　Ｄｉｓｔｒｉｃｔ　ＧｕｉＬｉｎ　Ｌｉｎｇｕｉ　ＧｕａｎｇＸｉ,,,,,,2023-09-07,1,,,,,ケイリンイキソウネットワークカギユウゲンコウシ,0
1108,5010001238278,新規,0,2023-09-07,2023-09-07,ＸＭ株式会社,,株式会社,東京都,千代田区,神田三崎町２丁目１０番１１号ｐｅｇビル４Ａ－１,,13,101,1010061,,,,,,,2023-09-07,1,,,,,エックスエム,0
1109,5010001238311,新規,0,2023-09-07,2023-09-07,株式会社ＫＳＦＲ９,,株式会社,東京都,千代田区,内幸町２丁目１番６号,,13,101,1000011,,,,,,,2023-09-07,1,,,,,ケイエスエフアールナイン,0
1110,5010003041606,新規,0,2023-09-07,2023-09-07,合同会社ＰＦポラリス,,合同会社,東京都,千代田区,平河町１丁目６番１５号シルスフィア会計事務所内,,13,101,1020093,,,,,,,2023-09-07,1,,,,,ピーエフポラリス,0
1114,5010005037206,新規,0,2023-09-07,2023-09-07,司法書士法人ラインメッツァ,,その他の設立登記法人,東京都,千代田区,九段南３丁目２番５号ハトヤ九段ビル６階,,13,101,1020074,,,,,,,2023-09-07,1,,,,,ラインメッツァ,0
1115,5010005037214,新規,0,2023-09-07,2023-09-07,税理士法人プレアス,,その他の設立登記法人,東京都,千代田区,麹町６丁目２番地６ＰＭＯ麹町,,13,101,1020083,,,,,,,2023-09-07,1,,,,,プレアス,0
1116,5010005037222,新規,0,2023-09-07,2023-09-07,税理士法人青色会計,,その他の設立登記法人,東京都,千代田区,神田美土代町５番地２第二日成ビル３階,,13,101,1010053,,,,,,,2023-09-07,1,,,,,アオイロカイケイ,0
1117,5010005037230,新規,0,2023-09-07,2023-09-07,医療法人社団Ｇ‐Ｄｅｎｔ,,その他の設立登記法人,東京都,中央区,日本橋蛎殻町２丁目２番４号,,13,102,1030014,,,,,,,2023-09-07,1,,,,,,0
1129,5010401176870,新規,0,2023-09-07,2023-09-07,財陽商事株式会社,,株式会社,東京都,港区,新橋１丁目５－１,,13,103,1050004,,,,,,,2023-09-07,1,,,,,ザイヨウショウジ,0
1130,5010401176912,新規,0,2023-09-07,2023-09-07,Ｏｐｔｉｍａｔｅ株式会社,,株式会社,東京都,港区,西新橋１丁目１４番１０号西新橋スタービル５階,,13,103,1050003,,,,,,,2023-09-07,1,,,,,オプティメイト,0
1131,5010401176961,新規,0,2023-09-07,2023-09-07,株式会社ＱＵＱＵＬＯ,,株式会社,東京都,港区,北青山１丁目３番１号アールキューブ青山３階,,13,103,1070061,,,,,,,2023-09-07,1,,,,,ククロ,0
1132,5010401176986,新規,0,2023-09-07,2023-09-07,株式会社Ｍｏｏｎ,,株式会社,東京都,港区,赤坂３丁目２１番１５号,,13,103,1070052,,,,,,,2023-09-07,1,,,,,ムーン,0
1134,5010505003442,新規,0,2023-09-07,2023-09-07,一般社団法人サイバーディフェンスイノベーション機構,,その他の設立登記法人,東京都,台東区,上野７丁目１１番６号,,13,106,1100005,,,,,,,2023-09-07,1,,,,,サイバーディフェンスイノベーションキコウ,0
1137,5010601063737,新規,0,2023-09-07,2023-09-07,株式会社ｍｓ,,株式会社,東京都,江東区,豊洲６丁目２番２９－２３１１号,,13,108,1350061,,,,,,,2023-09-07,1,,,,,エムエス,0
1144,5010901053792,新規,0,2023-09-07,2023-09-07,株式会社Ｒｅｓｅｔ　ｂｏｘ,,株式会社,東京都,世田谷区,北沢２丁目３８－５,,13,112,1550031,,,,,,,2023-09-07,1,,,,,リセットボックス,0
1145,5010903008415,新規,0,2023-09-07,2023-09-07,ＰＯＳＡＮ合同会社,,合同会社,東京都,世田谷区,赤堤１丁目１７―２１,,13,112,1560044,,,,,,,2023-09-07,1,,,,,ポーサン,0
1146,5010903008431,新規,0,2023-09-07,2023-09-07,合同会社ＣｏＣｏ,,合同会社,東京都,世田谷区,成城７丁目１３番１０号,,13,112,1570066,,,,,,,2023-09-07,1,,,,,ココ,0
1147,5010905004528,新規,0,2023-09-07,2023-09-07,一般社団法人総調和,,その他の設立登記法人,東京都,世田谷区,中町５丁目３９番１３号－１０１,,13,112,1580091,,,,,,,2023-09-07,1,,,,,ソウチョウワ,0
1158,5011001156775,新規,0,2023-09-07,2023-09-07,株式会社ベストリオステ,,株式会社,東京都,渋谷区,神宮前３丁目６－４フォーラムビルｂ１,,13,113,1500001,,,,,,,2023-09-07,1,,,,,ベストリオステ,0
1159,5011001156783,新規,0,2023-09-07,2023-09-07,株式会社ボランジェ,,株式会社,東京都,渋谷区,千駄ヶ谷１丁目９番１１－３１５号,,13,113,1510051,,,,,,,2023-09-07,1,,,,,ボランジェ,0
1160,5011001156791,新規,0,2023-09-07,2023-09-07,株式会社アウェアネス・リボン,,株式会社,東京都,渋谷区,道玄坂２丁目２０番２６号藤和エクシール道玄坂２１２号室,,13,113,1500043,,,,,,,2023-09-07,1,,,,,アウェアネスリボン,0
1161,5011001156817,新規,0,2023-09-07,2023-09-07,株式会社コンスタント,,株式会社,東京都,渋谷区,神宮前５丁目５０番６号,,13,113,1500001,,,,,,,2023-09-07,1,,,,,コンスタント,0
1162,5011001156841,新規,0,2023-09-07,2023-09-07,株式会社ショートクリエイティブ,,株式会社,東京都,渋谷区,富ヶ谷１丁目１０番５号パークサイドコグレ４０２,,13,113,1510063,,,,,,,2023-09-07,1,,,,,ショートクリエイティブ,0
1166,5011003017414,新規,0,2023-09-07,2023-09-07,合同会社ジョイ・セブンティ・ファイブ,,合同会社,東京都,渋谷区,渋谷１丁目７－１Ｓ－６ビル９Ｆ,,13,113,1500002,,,,,,,2023-09-07,1,,,,,ジョイセブンティファイブ,0
1167,5011003017496,新規,0,2023-09-07,2023-09-07,ＤｒｅａｍＢｏｘ合同会社,,合同会社,東京都,渋谷区,本町２丁目２７－１５－１０３,,13,113,1510071,,,,,,,2023-09-07,1,,,,,ドリームボックス,0
1171,5011101104221,新規,0,2023-09-07,2023-09-07,株式会社Ｒｉｓ　Ｆｏｏｄ,,株式会社,東京都,新宿区,西新宿３丁目３番１３号西新宿水間ビル２階,,13,104,1600023,,,,,,,2023-09-07,1,,,,,リスフード,0
1172,5011101104254,新規,0,2023-09-07,2023-09-07,ウェブソリューションサービス株式会社,,株式会社,東京都,新宿区,山吹町３５３番地丸木ビル３階,,13,104,1620801,,,,,,,2023-09-07,1,,,,,ウェブソリューションサービス,0
1173,5011101104270,新規,0,2023-09-07,2023-09-07,株式会社ＡＩＬＬＩＯ,,株式会社,東京都,新宿区,高田馬場３丁目１番５号－３０９号,,13,104,1690075,,,,,,,2023-09-07,1,,,,,エイリオ,0
1174,5011101104304,新規,0,2023-09-07,2023-09-07,ＦＩＲＳＴ　ＮＩＰＰＯＮ　ＩＮＶＥＳＴＭＥＮＴ株式会社,,株式会社,東京都,新宿区,榎町３４－３榎町ビル７階１７室,,13,104,1620806,,,,,,,2023-09-07,1,,,,,ファーストニッポンインベストメント,0
1175,5011103013453,新規,0,2023-09-07,2023-09-07,ＪＡＧＵＡＲＯＡ合同会社,,合同会社,東京都,新宿区,西新宿３丁目３番１３号西新宿水間ビル２Ｆ,,13,104,1600023,,,,,,,2023-09-07,1,,,,,ジャグアロア,0
1178,5011301028988,新規,0,2023-09-07,2023-09-07,株式会社ＴＦホールディングス,,株式会社,東京都,杉並区,高井戸東１丁目３１番６８号,,13,115,1680072,,,,,,,2023-09-07,1,,,,,ティーエフホールディングス,0
1184,5011603004051,新規,0,2023-09-07,2023-09-07,合同会社自立生活支援倶楽部,,合同会社,東京都,練馬区,貫井４丁目１０番９号１０７号室,,13,120,1760021,,,,,,,2023-09-07,1,,,,,ジリツセイカツシエンクラブ,0
1189,5011803005816,新規,0,2023-09-07,2023-09-07,合同会社Ｃｌｅａｒ事務所,,合同会社,東京都,葛飾区,東堀切３丁目３２－２８メルディア東堀切１０１,,13,122,1240004,,,,,,,2023-09-07,1,,,,,クリアジムショ,0
1194,5012403006163,新規,0,2023-09-07,2023-09-07,合同会社八十八,,合同会社,東京都,武蔵野市,吉祥寺本町１丁目５－１吉祥寺ＰＡＲＣＯ８ＦＳｋｉｉＭａ,,13,203,1800004,,,,,,,2023-09-07,1,,,,,ハチジュウハチ,0
1200,5012805003221,新規,0,2023-09-07,2023-09-07,一般社団法人自治体経営協議会,,その他の設立登記法人,東京都,立川市,曙町２丁目２２番２０号,00131823,13,202,1900012,,,,,,,2023-09-07,1,,,,,ジチタイケイエイキョウギカイ,0
1201,5013101009243,新規,0,2023-09-07,2023-09-07,多摩開発ホーム株式会社,,株式会社,東京都,青梅市,河辺町１０丁目６番地４,,13,205,1980036,,,,,,,2023-09-07,1,,,,,タマカイハツホーム,0
1206,5013305003513,新規,0,2023-09-07,2023-09-07,一般社団法人榎本こころの健康協会,,その他の設立登記法人,東京都,豊島区,西池袋１丁目２番５号,,13,116,1710021,,,,,,,2023-09-07,1,,,,,エノモトココロノケンコウキョウカイ,0
1211,5020001153328,新規,0,2023-09-07,2023-09-07,株式会社ガマダスバイ,,株式会社,神奈川県,川崎市高津区,久本１丁目２番２号スキップビル４階Ａ,,14,134,2130011,,,,,,,2023-09-07,1,,,,,ガマダスバイ,0
1212,5020001153393,新規,0,2023-09-07,2023-09-07,株式会社ａｎｄ　Ｅａｔｓ,,株式会社,神奈川県,横浜市中区,桜木町１丁目１０１番地１クロスゲート７階,,14,104,2310062,,,,,,,2023-09-07,1,,,,,アンドイーツ,0
1213,5020001153402,新規,0,2023-09-07,2023-09-07,株式会社１３０,,株式会社,神奈川県,川崎市幸区,下平間４０番地２８,,14,132,2120053,,,,,,,2023-09-07,1,,,,,イチサンマル,0
1214,5020003024519,新規,0,2023-09-07,2023-09-07,合同会社Ｋ,,合同会社,神奈川県,川崎市川崎区,東田町３番地２４コスモビル２階,,14,131,2100005,,,,,,,2023-09-07,1,,,,,ケー,0
1222,5021001080082,新規,0,2023-09-07,2023-09-07,株式会社Ｒｕａｎａ,,株式会社,神奈川県,横須賀市,鷹取１丁目１５番１１号,,14,201,2370067,,,,,,,2023-09-07,1,,,,,ルアナ,0
1223,5021001080090,新規,0,2023-09-07,2023-09-07,株式会社ＲＯＢＩＮ,,株式会社,神奈川県,足柄上郡中井町,半分形３７番地３,,14,361,2590144,,,,,,,2023-09-07,1,,,,,ロビン,0
1232,5030001155629,新規,0,2023-09-07,2023-09-07,株式会社渡辺興業,,株式会社,埼玉県,八潮市,八潮８丁目１２番地４,,11,234,3400815,,,,,,,2023-09-07,1,,,,,,0
1244,5040001129961,新規,0,2023-09-07,2023-09-07,株式会社中翔,,株式会社,千葉県,木更津市,東太田１丁目１２番１２号,,12,206,2920043,,,,,,,2023-09-07,1,,,,,ナカショウ,0
1245,5040001129986,新規,0,2023-09-07,2023-09-07,株式会社Ｒエンポリア,,株式会社,千葉県,船橋市,夏見５丁目１９番１８号,,12,204,2730865,,,,,,,2023-09-07,1,,,,,アールエンポリア,0
1246,5040001129994,新規,0,2023-09-07,2023-09-07,美プロジェクト株式会社,,株式会社,千葉県,市川市,国分３丁目１３番５号,,12,203,2720834,,,,,,,2023-09-07,1,,,,,ビプロジェクト,0
1247,5040001130003,新規,0,2023-09-07,2023-09-07,Ｂｒａｖｅ　Ｔｅｃｈｎｏｌｏｇｙｓ株式会社,,株式会社,千葉県,千葉市中央区,弁天２丁目８番１号メゾンブランシュ３０２号,,12,101,2600045,,,,,,,2023-09-07,1,,,,,ブレイブテクノロジーズ,0
1248,5040001130011,新規,0,2023-09-07,2023-09-07,株式会社寿興業,,株式会社,千葉県,千葉市中央区,仁戸名町４１７番地３３,,12,101,2600801,,,,,,,2023-09-07,1,,,,,コトブキコウギョウ,0
1252,5040003023238,新規,0,2023-09-07,2023-09-07,合同会社ヒロウェルディング,,合同会社,千葉県,市原市,門前２丁目２２８番地１,,12,219,2900016,,,,,,,2023-09-07,1,,,,,ヒロウェルディング,0
1256,5070001040819,新規,0,2023-09-07,2023-09-07,株式会社キミちゃんりんご園,,株式会社,群馬県,渋川市,赤城町津久田４０２９番地,,10,208,3791103,,,,,,,2023-09-07,1,,,,,キミチャンリンゴエン,0
1257,5070001040835,新規,0,2023-09-07,2023-09-07,株式会社中島ファーム,,株式会社,群馬県,伊勢崎市,柴町９５３－２９,,10,204,3720824,,,,,,,2023-09-07,1,,,,,,0
1265,5100001036739,新規,0,2023-09-07,2023-09-07,株式会社富原商会,,株式会社,長野県,伊那市,日影７６３番地７,,20,209,3960009,,,,,,,2023-09-07,1,,,,,トミハラショウカイ,0
1266,5100001036747,新規,0,2023-09-07,2023-09-07,株式会社遠山ＧＯ,,株式会社,長野県,飯田市,南信濃和田１０１２番地,,20,205,3991311,,,,,,,2023-09-07,1,,,,,トオヤマゴー,0
1267,5100001036763,新規,0,2023-09-07,2023-09-07,株式会社ＪＪＳ,,株式会社,長野県,松本市,石芝４丁目２番２２号,,20,202,3990007,,,,,,,2023-09-07,1,,,,,ジェイジェイエス,0
1272,5110003005146,新規,0,2023-09-07,2023-09-07,Ｓｔａｒｓ合同会社,,合同会社,新潟県,新潟市秋葉区,草水町３丁目３番２８号,,15,105,9560833,,,,,,,2023-09-07,1,,,,,スターズ,0
1283,5120001257829,新規,0,2023-09-07,2023-09-07,ＩＷＡＫＩ‐ＴＥＣＨ株式会社,,株式会社,大阪府,寝屋川市,石津南町３番４０号（２０５号）,,27,215,5720024,,,,,,,2023-09-07,1,,,,,イワキテック,0
1284,5120001258018,新規,0,2023-09-07,2023-09-07,株式会社Ｂａｂｙ’ｓ　ｂｒｅａｔｈ,,株式会社,大阪府,大阪市中央区,南本町３丁目３－５本町平井ビル４Ｆ,,27,128,5410054,,,,,,,2023-09-07,1,,,,,ベビーズブレス,0
1287,5120101068168,新規,0,2023-09-07,2023-09-07,株式会社熾火,,株式会社,大阪府,岸和田市,磯上町５丁目２３番３２号,,27,202,5960001,,,,,,,2023-09-07,1,,,,,オキビ,0
1288,5120103005417,新規,0,2023-09-07,2023-09-07,合同会社Ｃ．Ｌ．Ｓｔｕｄｉｏ,,合同会社,大阪府,松原市,天美東９丁目１２番１０－８０３号,,27,217,5800032,,,,,,,2023-09-07,1,,,,,シーエルスタジオ,0
1291,5120901048030,新規,0,2023-09-07,2023-09-07,フェアリノベーション株式会社,,株式会社,大阪府,吹田市,春日１丁目１６番１号,,27,205,5650853,,,,,,,2023-09-07,1,,,,,フェアリノベーション,0
1293,5122001037335,新規,0,2023-09-07,2023-09-07,株式会社コージースタッフ,,株式会社,大阪府,東大阪市,今米１丁目２番４８号,,27,227,5780903,,,,,,,2023-09-07,1,,,,,コージースタッフ,0
1298,5130001075115,新規,0,2023-09-07,2023-09-07,株式会社ｈａｂｉｌｅ,,株式会社,京都府,京都市左京区,岡崎南御所町１８番地１０,,26,103,6068334,,,,,,,2023-09-07,1,,,,,アビル,0
1305,5140001131429,新規,0,2023-09-07,2023-09-07,株式会社ａｎｄｍａｎａ．,,株式会社,兵庫県,三木市,緑が丘町東１丁目２番地の２９,,28,215,6730533,,,,,,,2023-09-07,1,,,,,アンドマナドット,0
1306,5140001131437,新規,0,2023-09-07,2023-09-07,株式会社サロン・ド・ガトー・アシヤ,,株式会社,兵庫県,芦屋市,船戸町５番２６号,,28,206,6590093,,,,,,,2023-09-07,1,,,,,サロンドガトーアシヤ,0
1307,5140001131453,新規,0,2023-09-07,2023-09-07,株式会社Ｇｏｏｄ,,株式会社,兵庫県,神戸市中央区,浜辺通６丁目１番１－１０１１号,,28,110,6510083,,,,,,,2023-09-07,1,,,,,グッド,0
1308,5140001131528,新規,0,2023-09-07,2023-09-07,株式会社坂元設計事務所,,株式会社,兵庫県,川西市,松が丘町６番２号,,28,217,6660037,,,,,,,2023-09-07,1,,,,,サカモトセッケイジムショ,0
1312,5160001025323,新規,0,2023-09-07,2023-09-07,株式会社ｂｅａｔ,,株式会社,滋賀県,大津市,堅田１丁目１７番７号マリ－ナマンション堅田１階,,25,201,5200243,,,,,,,2023-09-07,1,,,,,ビート,0
1315,5160005011220,新規,0,2023-09-07,2023-09-07,一般社団法人スピナレピオス,,その他の設立登記法人,滋賀県,近江八幡市,出町２３３番地２,,25,204,5230892,,,,,,,2023-09-07,1,,,,,スピナレピオス,0
1320,5180001157932,新規,0,2023-09-07,2023-09-07,株式会社ＹＭペットケア,,株式会社,愛知県,常滑市,森西町１丁目１０３番地の１,,23,216,4790845,,,,,,,2023-09-07,1,,,,,ワイエムペットケア,0
1323,5180005020335,新規,0,2023-09-07,2023-09-07,一般社団法人ラフテル,,その他の設立登記法人,愛知県,名古屋市熱田区,明野町２１番４号,,23,109,4560071,,,,,,,2023-09-07,1,,,,,ラフテル,0
1325,5180301037784,新規,0,2023-09-07,2023-09-07,株式会社ＳＬオヤイズ,,株式会社,愛知県,豊橋市,北山町８６番地２,,23,201,4418105,,,,,,,2023-09-07,1,,,,,エスエルオヤイズ,0
1326,5180301037792,新規,0,2023-09-07,2023-09-07,親和開発株式会社,,株式会社,愛知県,碧南市,松本町３６番地２,,23,209,4470878,,,,,,,2023-09-07,1,,,,,シンワカイハツ,0
1333,5200001041662,新規,0,2023-09-07,2023-09-07,株式会社プレジャー,,株式会社,岐阜県,安八郡安八町,南條７４２番地１,,21,383,5030123,,,,,,,2023-09-07,1,,,,,プレジャー,0
1337,5200003006077,新規,0,2023-09-07,2023-09-07,合同会社Ｓ’ｓ　ｐｌａｎｎｉｎｇ,,合同会社,岐阜県,岐阜市,芥見６丁目１８２番地,,21,201,5013134,,,,,,,2023-09-07,1,,,,,エスズプランニング,0
1338,5210003001696,新規,0,2023-09-07,2023-09-07,合同会社アーネスト治兵衛,,合同会社,福井県,小浜市,松ヶ崎１丁目５番５号,,18,204,9170018,,,,,,,2023-09-07,1,,,,,アーネストジヘイ,0
1342,5230005009331,新規,0,2023-09-07,2023-09-07,一般社団法人小原治五右衛門城端藝術文化機構,,その他の設立登記法人,富山県,南砺市,城端４３１６番地１,,16,210,9391861,,,,,,,2023-09-07,1,,,,,オハラジゴウエモンジョウハタゲイジュツブンカキコウ,0
1346,5240001062102,新規,0,2023-09-07,2023-09-07,株式会社ＫＯＩＭＡＲＵ,,株式会社,広島県,広島市安佐北区,大林１丁目４－１２,,34,106,7310201,,,,,,,2023-09-07,1,,,,,コイマル,0
1349,5240005015642,新規,0,2023-09-07,2023-09-07,医療法人ウェルビーイング,,その他の設立登記法人,広島県,東広島市,西条中央６丁目１２番１６号,,34,212,7390025,,,,,,,2023-09-07,1,,,,,ウェルビーイング,0
1355,5290001102852,新規,0,2023-09-07,2023-09-07,株式会社Ｊｏｙ‐ｎｔｓ,,株式会社,福岡県,飯塚市,綱分１１７１番地４,,40,205,8200101,,,,,,,2023-09-07,1,,,,,ジョイント,0
1356,5290001102877,新規,0,2023-09-07,2023-09-07,株式会社ドアステップ,,株式会社,福岡県,福岡市博多区,博多駅南６丁目１６番２８－４０１号,,40,132,8120016,,,,,,,2023-09-07,1,,,,,ドアステップ,0
1357,5290001102927,新規,0,2023-09-07,2023-09-07,ミーシグ株式会社,,株式会社,福岡県,糟屋郡志免町,南里６丁目１－１５,,40,343,8112207,,,,,,,2023-09-07,1,,,,,ミーシグ,0
1358,5290001102968,新規,0,2023-09-07,2023-09-07,株式会社Ｗ,,株式会社,福岡県,福岡市博多区,博多駅前１丁目２３番２号ＰａｒｋＦｒｏｎｔ博多駅前１丁目５Ｆ－Ｂ,,40,132,8120011,,,,,,,2023-09-07,1,,,,,ダブリュー,0
1362,5290805009673,新規,0,2023-09-07,2023-09-07,一般社団法人香春みらい塾,,その他の設立登記法人,福岡県,田川郡香春町,大字高野１０２１番地８,,40,601,8221403,,,,,,,2023-09-07,1,,,,,カワラミライジュク,0
1364,5320001019977,新規,0,2023-09-07,2023-09-07,株式会社Ｂ‐ｓｐａ,,株式会社,大分県,別府市,駅前本町１０番１９号,,44,202,8740934,,,,,,,2023-09-07,1,,,,,ビースパ,0
1370,5350001018547,新規,0,2023-09-07,2023-09-07,株式会社ＲＩＮＧ,,株式会社,宮崎県,延岡市,東本小路４番地３さくらビル３Ｆ－２,,45,203,8820813,,,,,,,2023-09-07,1,,,,,リング,0
1373,5360003013264,新規,0,2023-09-07,2023-09-07,合同会社Ｚレンタカー,,合同会社,沖縄県,宮古島市,平良字西仲宗根１５６９番地２,,47,214,9060006,,,,,,,2023-09-07,1,,,,,ゼットレンタカー,0
1374,5370001050374,新規,0,2023-09-07,2023-09-07,ＵＤトラックス東北株式会社,,株式会社,宮城県,仙台市宮城野区,扇町１丁目８番４１号,,04,102,9830034,,,,,,,2023-09-07,1,,,,,ユーディートラックストウホク,0
1375,5370001050382,新規,0,2023-09-07,2023-09-07,尾形農園株式会社,,株式会社,宮城県,大崎市,鹿島台大迫字石竹１９番地,,04,215,9894106,,,,,,,2023-09-07,1,,,,,オガタノウエン,0
1376,5370003006275,新規,0,2023-09-07,2023-09-07,合同会社佐藤ネットサービス,,合同会社,宮城県,仙台市泉区,桂２丁目２４－１,,04,105,9813134,,,,,,,2023-09-07,1,,,,,サトウネットサービス,0
1381,5380001033956,新規,0,2023-09-07,2023-09-07,株式会社山小舎不動産,,株式会社,福島県,いわき市,田人町旅人字横川４４番地,,07,204,9740152,,,,,,,2023-09-07,1,,,,,ヤマゴヤフドウサン,0
1387,5410001013590,新規,0,2023-09-07,2023-09-07,株式会社星徳自動車,,株式会社,秋田県,大館市,櫃崎字土貝４１番地２,,05,204,0170855,,,,,,,2023-09-07,1,,,,,セイトクジドウシャ,0
1388,5410005006541,新規,0,2023-09-07,2023-09-07,加藤良彦土地家屋調査士法人,,その他の設立登記法人,秋田県,秋田市,山王中園町９番２７号,,05,201,0100953,,,,,,,2023-09-07,1,,,,,カトウヨシヒコ,0
1390,5430001089919,新規,0,2023-09-07,2023-09-07,ＣＯＣ株式会社,,株式会社,北海道,札幌市中央区,北二条西１０丁目２番地７,,01,101,0600002,,,,,,,2023-09-07,1,,,,,シーオーシー,0
1391,5430001089927,新規,0,2023-09-07,2023-09-07,株式会社齊藤設備,,株式会社,北海道,札幌市北区,新琴似六条６丁目３番１９号,,01,102,0010906,,,,,,,2023-09-07,1,,,,,サイトウセツビ,0
1392,5430001089935,新規,0,2023-09-07,2023-09-07,株式会社Ｖａｉｓｓｅｌｌｅ,,株式会社,北海道,札幌市中央区,南一条西１２丁目４－１８２ＡＳビル２階,,01,101,0600061,,,,,,,2023-09-07,1,,,,,ヴェッセル,0
1393,5430001089943,新規,0,2023-09-07,2023-09-07,株式会社サツアツ工業,,株式会社,北海道,札幌市北区,新琴似六条１１丁目２番８－２０２号,,01,102,0010906,,,,,,,2023-09-07,1,,,,,サツアツコウギョウ,0
1394,5430001089951,新規,0,2023-09-07,2023-09-07,株式会社ＳＡＴ,,株式会社,北海道,江別市,工栄町１３－５,,01,217,0670051,,,,,,,2023-09-07,1,,,,,サット,0
1398,5430003015410,新規,0,2023-09-07,2023-09-07,合同会社喜茂別知来別小さな村,,合同会社,北海道,虻田郡喜茂別町,字喜茂別１３番地の５,,01,398,0440201,,,,,,,2023-09-07,1,,,,,キモベツチライベツチイサナムラ,0
1409,5700150119903,新規,0,2023-09-07,2023-09-07,Ｄｏｎｇｇｕａｎｘｕｗｅｉｆｕｓｈｉｙｏｕｘｉａｎｇｏｎｇｓｉ,,外国会社等,,,,,,,,Ｇｕａｎｇｄｏｎｇｓｈｅｎｇｄｏｎｇｇｕａｎｓｈｉｄａｌａｎｇｚｈｅｎｌｉｂｅｉｌｉｎｇｘｉｎｇｓｈｉｌｕｙｉｊｉｅ２ｈａｏ,,,,,,2023-09-07,1,,,,,トウカンキョクイフクショクユウゲンコウシ,0
1410,5700150119911,新規,0,2023-09-07,2023-09-07,Ｇｕｉｚｈｏｕ　Ｊｉｕｗｕ　Ｃｕｌｔｕｒｅ　Ｍｅｄｉａ　Ｃｏ．，Ｌｔｄ,,外国会社等,,,,,,,,Ｈｕａｇｕｏｙｕａｎ　Ｒｏａｄ，Ｘｉａｏｃｈｅｈｅ　Ｓｕｂ－ｄｉｓｔｒｉｃｔ　Ｏｆｆｉｃｅ，Ｒｏｏｍ　１，１７ｔｈ　Ｆｌｏｏｒ，Ｕｎｉｔ　１，Ｂｕｉｌｄｉｎｇ　１（１），Ａｒｅａ　Ｒ－２，Ｈｕａｇｕｏｙｕａｎ　Ｐｒｏｊｅｃｔ，Ｇｕｉｙａｎｇ　Ｃｉｔｙ　Ｇｕｉｚｈｏｕ　Ｐｒｏｖｉｎｃｅ　Ｎａｎｍｉｎｇ　Ｄｉｓｔｒｉｃｔ，Ｃｈｉｎａ,,,,,,2023-09-07,1,,,,,キシュウキュウブブンカデンバイユウゲンコウシ,0
1411,5700150119928,新規,0,2023-09-07,2023-09-07,ｙｏｎｇｋａｎｇｓｈｉｋａｎｇｎｉａｎｄｉａｎｚｉｓｈａｎｇｗｕ　ｙｏｕｘｉａｎｇｏｎｇｓｉ,,外国会社等,,,,,,,,ｘｉｑｉｃｕｎ７１ｈａｏｊｉｎｈｕａｓｈｉｙｏｎｇｋａｎｇｓｈｉｓｈｉｚｈｕｚｈｅｎｚｈｅｊｉａｎｇｓｈｅｎｇ,,,,,,2023-09-07,1,,,,,エイコウシコウネンデンシショウムユウゲンコウシ,0
1412,5700150119936,新規,0,2023-09-07,2023-09-07,ｓｈｅｎｚｈｅｎｓｈｉ　ｙｏｕｙａｎｇｋｅｊｉ　ｙｏｕｘｉａｎｇｏｎｇｓｉ,,外国会社等,,,,,,,,ｓｈｅｎｚｈｅｎｓｈｉ　ｙａｎｔｉａｎｑｕ　ｈａｉｓｈａｎｊｉｅｄａｏｐｅｎｇｗａｎｓｈｅｑｕ　ｈａｉｊｉｎｇｅｒｌｕｋｅｊｉｄａｓｈａ６Ａ－２３２,,,,,,2023-09-07,1,,,,,シンセンシヨヤンカギユウゲンコウシ,0
1413,5700150119944,新規,0,2023-09-07,2023-09-07,ＡＳＴＯＭ　ＩＮＴＥＲＮＡＴＩＯＮＡＬ　ＣＯ．，ＬＩＭＩＴＥＤ,,外国会社等,,,,,,,,ＦＬＡＴ／ＲＭ　Ａ　１２Ｆ　ＺＪ　３００　３００　ＬＯＣＫＨＡＲＴ　ＲＯＡＤ　ＷＡＮ　ＣＨＡＩ　ＨＫ,,,,,,2023-09-07,1,,,,,ヤートングーフェンシャンガンヨウシエンゴンスー,0
1414,5700150119952,新規,0,2023-09-07,2023-09-07,ＳｈｅｎＺｈｅｎ　Ｔｉａｎｈｏｎｇｄａ　Ｔｅｃｈｎｏｌｏｇｙ　ＣＯ．，Ｌｔｄ,,外国会社等,,,,,,,,Ｎｏ．１６８，Ｆｕｈｕａ　３ｒｄ　Ｒｏａｄ，Ｆｕ’ａｎ　Ｃｏｍｍｕｎｉｔｙ，Ｆｕｔｉａｎ　Ｓｔｒｅｅｔ　Ｉｎｔｅｒｎａｔｉｏｎａｌ　Ｃｈａｍｂｅｒ　ｏｆ　Ｃｏｍｍｅｒｃｅ　Ｃｅｎｔｅｒ　１２０９Ｒ６　Ｓｈｅｎｚｈｅｎ　Ｆｕｔｉａｎ　Ｄｉｓｔｒｉｃｔ　Ｇｕａｎｇｄｏｎｇ　Ｐｒｏｖｉｎｃｅ,,,,,,2023-09-07,1,,,,,シンセンシテンコウタツカギユウゲンコウシ,0
1420,6010001238269,新規,0,2023-09-07,2023-09-07,ＳＭＥ株式会社,,株式会社,東京都,中央区,銀座１丁目２２番１１号銀座大竹ビジデンス２Ｆ,,13,102,1040061,,,,,,,2023-09-07,1,,,,,エスエムイー,0
1422,6010003041613,新規,0,2023-09-07,2023-09-07,セーフティーライフ合同会社,,合同会社,東京都,中央区,日本橋２丁目１番３号アーバンネット日本橋二丁目ビル１０階,,13,102,1030027,,,,,,,2023-09-07,1,,,,,セーフティーライフ,0
1425,6010005037205,新規,0,2023-09-07,2023-09-07,税理士法人あすの会計,,その他の設立登記法人,東京都,千代田区,内神田３丁目２０番３号,,13,101,1010047,,,,,,,2023-09-07,1,,,,,アスノカイケイ,0
1426,6010005037238,新規,0,2023-09-07,2023-09-07,一般社団法人ＪＭＭソーラー,,その他の設立登記法人,東京都,千代田区,丸の内３丁目１番１号東京共同会計事務所内,,13,101,1000005,,,,,,,2023-09-07,1,,,,,ジェイエムエムソーラー,0
1431,6010401176878,新規,0,2023-09-07,2023-09-07,ＺＥＮＩＴＨ株式会社,,株式会社,東京都,港区,元麻布３丁目１－６,,13,103,1060046,,,,,,,2023-09-07,1,,,,,ゼニス,0
1432,6010401176969,新規,0,2023-09-07,2023-09-07,マテリアルマスター株式会社,,株式会社,東京都,港区,芝５丁目２６番２４号田町スクエア１Ｆ,,13,103,1080014,,,,,,,2023-09-07,1,,,,,マテリアルマスター,0
1434,6010403030868,新規,0,2023-09-07,2023-09-07,ＴＩＴＡＮＩＵＭ　ＤＥＳＩＧＮ合同会社,,合同会社,東京都,港区,浜松町２丁目２番１５号浜松町ダイヤビル２Ｆ,,13,103,1050013,,,,,,,2023-09-07,1,,,,,チタニウムデザイン,0
1436,6010501051007,新規,0,2023-09-07,2023-09-07,株式会社ＺＥＲＯ１,,株式会社,東京都,台東区,日本堤１丁目２８番９号ＧＥＮＯＶＩＡ南千住ＩＶｓｋｙｇａｒｄｅｎ,00131813,13,106,1110021,,,,,,,2023-09-07,1,,,,,ゼロワン,0
1438,6010601063752,新規,0,2023-09-07,2023-09-07,株式会社アイテック,,株式会社,東京都,江東区,猿江２丁目１６番２３－５２１号,,13,108,1350003,,,,,,,2023-09-07,1,,,,,アイテック,0
1444,6010901053783,新規,0,2023-09-07,2023-09-07,株式会社ＤＯＫＡＳＥＮ,,株式会社,東京都,世田谷区,三宿１丁目８番４号,,13,112,1540005,,,,,,,2023-09-07,1,,,,,ドウカセン,0
1446,6011001156758,新規,0,2023-09-07,2023-09-07,株式会社アンドウ,,株式会社,東京都,渋谷区,神宮前６丁目２３番４号桑野ビル２階,,13,113,1500001,,,,,,,2023-09-07,1,,,,,アンドウ,0
1447,6011001156782,新規,0,2023-09-07,2023-09-07,株式会社ＮｅｓＮｉｓ　ｅｎｔｅｒｔａｉｎｍｅｎｔ,,株式会社,東京都,渋谷区,神宮前６丁目２３番４号桑野ビル２階,,13,113,1500001,,,,,,,2023-09-07,1,,,,,ネスニスエンターテインメント,0
1448,6011001156790,新規,0,2023-09-07,2023-09-07,株式会社１０２,,株式会社,東京都,目黒区,平町２丁目１８番７号フレッグ目黒平町０３３,,13,110,1520032,,,,,,,2023-09-07,1,,,,,イチマルニ,0
1449,6011001156799,新規,0,2023-09-07,2023-09-07,株式会社アジャイルマーケティング,,株式会社,東京都,目黒区,自由が丘３丁目４－２１,,13,110,1520035,,,,,,,2023-09-07,1,,,,,アジャイルマーケティング,0
1450,6011001156816,新規,0,2023-09-07,2023-09-07,明安株式会社,,株式会社,東京都,渋谷区,初台２丁目２７番２号,,13,113,1510061,,,,,,,2023-09-07,1,,,,,メイアン,0
1451,6011001156832,新規,0,2023-09-07,2023-09-07,株式会社ＮｅＢｏｎｇａ,,株式会社,東京都,渋谷区,道玄坂１丁目１０番８号渋谷道玄坂東急ビル２Ｆ－Ｃ,,13,113,1500043,,,,,,,2023-09-07,1,,,,,ネボンガ,0
1452,6011001156857,新規,0,2023-09-07,2023-09-07,株式会社クレタ,,株式会社,東京都,目黒区,駒場１丁目９番３号,,13,110,1530041,,,,,,,2023-09-07,1,,,,,クレタ,0
1454,6011003017421,新規,0,2023-09-07,2023-09-07,ネットウィズ合同会社,,合同会社,東京都,渋谷区,道玄坂１丁目１０番８号渋谷道玄坂東急ビル２Ｆ－Ｃ,,13,113,1500043,,,,,,,2023-09-07,1,,,,,ネットウィズ,0
1455,6011003017487,新規,0,2023-09-07,2023-09-07,合同会社リンク,,合同会社,東京都,渋谷区,道玄坂２丁目１５番１－３１４号,,13,113,1500043,,,,,,,2023-09-07,1,,,,,リンク,0
1456,6011101104220,新規,0,2023-09-07,2023-09-07,電脳バンク株式会社,,株式会社,東京都,新宿区,高田馬場１丁目２８番１０号,,13,104,1690075,,,,,,,2023-09-07,1,,,,,デンノウバンク,0
1457,6011101104245,新規,0,2023-09-07,2023-09-07,株式会社ｔｓａｒ,,株式会社,東京都,新宿区,大京町２６番地１,,13,104,1600015,,,,,,,2023-09-07,1,,,,,ツァーリー,0
1459,6011301028987,新規,0,2023-09-07,2023-09-07,株式会社ココロノ・アーキテクツ,,株式会社,東京都,杉並区,和泉３丁目５０番３号ＧＲＥＥＮＧＡＲＤＥＮ１０５,,13,115,1680063,,,,,,,2023-09-07,1,,,,,ココロノアーキテクツ,0
1460,6011401025422,新規,0,2023-09-07,2023-09-07,株式会社ｍｏｇｔｏｓ,,株式会社,東京都,板橋区,中板橋２番４号,,13,119,1730016,,,,,,,2023-09-07,1,,,,,モグトス,0
1461,6011403004102,新規,0,2023-09-07,2023-09-07,合同会社Ｐｒｉｍｅ　Ｎｕｍｂｅｒ,,合同会社,東京都,板橋区,加賀２丁目１８番２８－１０５号,,13,119,1730003,,,,,,,2023-09-07,1,,,,,プライムナンバー,0
1462,6011501029728,新規,0,2023-09-07,2023-09-07,栄悦精密株式会社,,株式会社,東京都,荒川区,町屋３丁目２４番２号面川ビル３０５号室,,13,118,1160001,,,,,,,2023-09-07,1,,,,,エイエツセイミツ,0
1465,6011603004050,新規,0,2023-09-07,2023-09-07,合同会社エバーグローイング,,合同会社,東京都,練馬区,石神井町６丁目２１番７号,,13,120,1770041,,,,,,,2023-09-07,1,,,,,エバーグローイング,0
1466,6011703003588,新規,0,2023-09-07,2023-09-07,合同会社ＥＩＧＨＴＣＲＡＦＴ,,合同会社,東京都,江戸川区,北小岩８丁目１－８,,13,123,1330051,,,,,,,2023-09-07,1,,,,,エイトクラフト,0
1470,6012401040948,新規,0,2023-09-07,2023-09-07,ＯＨＫＵＢＯホールディングス株式会社,,株式会社,東京都,府中市,南町２丁目３８番地の８,,13,206,1830026,,,,,,,2023-09-07,1,,,,,オオクボホールディングス,0
1471,6012403006162,新規,0,2023-09-07,2023-09-07,合同会社Ｆｕｌｌ　Ｃｏｍｂｏ　Ｄｉｎｉｎｇ,,合同会社,東京都,府中市,八幡町１丁目５－６,,13,206,1830016,,,,,,,2023-09-07,1,,,,,フルコンボダイニング,0
1472,6012701017828,新規,0,2023-09-07,2023-09-07,ＳＴＡＲＲＹ株式会社,,株式会社,東京都,西東京市,ひばりが丘２丁目８番９号ヴィラ・ローザ１１０号,,13,229,2020001,,,,,,,2023-09-07,1,,,,,スターリー,0
1473,6012805003220,新規,0,2023-09-07,2023-09-07,医療法人社団見真会,,その他の設立登記法人,東京都,東大和市,立野３丁目１３４４番地１ザ・マーケットプレイス東大和店２階,,13,220,2070021,,,,,,,2023-09-07,1,,,,,ケンシンカイ,0
1476,6013301051309,新規,0,2023-09-07,2023-09-07,株式会社老人ホーム紹介センター東京,,株式会社,東京都,豊島区,南大塚３丁目２５番６号真栄大塚ビル４階,,13,116,1700005,,,,,,,2023-09-07,1,,,,,ロウジンホームショウカイセンタートウキョウ,0
1477,6013305003512,新規,0,2023-09-07,2023-09-07,一般社団法人自立した人と組織を育成する協会,,その他の設立登記法人,東京都,豊島区,上池袋２丁目２番１５号,,13,116,1700012,,,,,,,2023-09-07,1,,,,,ジリツシタヒトトソシキヲイクセイスルキョウカイ,0
1484,6020001153252,新規,0,2023-09-07,2023-09-07,セレックバイオテクノロジー株式会社,,株式会社,神奈川県,横浜市都筑区,茅ケ崎東４丁目５番３４号,,14,118,2240033,,,,,,,2023-09-07,1,,,,,セレックバイオテクノロジー,0
1485,6020001153310,新規,0,2023-09-07,2023-09-07,ＮＩＴＡＫＡ　ＷＯＲＬＤ　ＳＥＲＶＩＣＥ株式会社,,株式会社,神奈川県,横浜市金沢区,六浦１丁目１７番１９号２０２号室,,14,108,2360031,,,,,,,2023-09-07,1,,,,,ニタカワールドサービス,0
1486,6020001153392,新規,0,2023-09-07,2023-09-07,株式会社海商店,,株式会社,神奈川県,横浜市保土ケ谷区,西谷２丁目１６番１１号,,14,106,2400054,,,,,,,2023-09-07,1,,,,,カイショウテン,0
1487,6020001153401,新規,0,2023-09-07,2023-09-07,株式会社Ｌｉｇｈｔ　Ｗｏｒｋｓ,,株式会社,神奈川県,横浜市南区,弘明寺町字前田１６１番地２７,,14,105,2320067,,,,,,,2023-09-07,1,,,,,ライトワークス,0
1491,6020003024518,新規,0,2023-09-07,2023-09-07,合同会社ＮｕｌＬ．,,合同会社,神奈川県,川崎市麻生区,栗平２丁目３番２－１０２号,,14,137,2150031,,,,,,,2023-09-07,1,,,,,ヌル,0
1492,6020003024559,新規,0,2023-09-07,2023-09-07,ＲｅＨａａｐ合同会社,,合同会社,神奈川県,横浜市南区,三春台６１番地,,14,105,2320002,,,,,,,2023-09-07,1,,,,,リハープ,0
1499,6030001155768,新規,0,2023-09-07,2023-09-07,株式会社ｍｉｒａ,,株式会社,埼玉県,さいたま市浦和区,本太２丁目２７番１号,,11,107,3300052,,,,,,,2023-09-07,1,,,,,ミラ,0
1502,6030003022446,新規,0,2023-09-07,2023-09-07,合同会社ＳＰＡＣＥ　ＳＴＡＲ,,合同会社,埼玉県,川口市,芝新町４－３０,,11,203,3330851,,,,,,,2023-09-07,1,,,,,スペーススター,0
1505,6040001129952,新規,0,2023-09-07,2023-09-07,株式会社Ｔ．Ｓ．Ｔ,,株式会社,千葉県,白井市,冨士２６３番２４,,12,232,2701432,,,,,,,2023-09-07,1,,,,,ティーエスティー,0
1506,6040001129960,新規,0,2023-09-07,2023-09-07,株式会社サニールール,,株式会社,千葉県,千葉市中央区,中央港１丁目２０番１号ケーズハーバー１Ｆ,,12,101,2600024,,,,,,,2023-09-07,1,,,,,サニールール,0
1507,6040001129969,新規,0,2023-09-07,2023-09-07,株式会社ダ・カテリーナ,,株式会社,千葉県,市川市,八幡６丁目９番５号,,12,203,2720021,,,,,,,2023-09-07,1,,,,,ダカテリーナ,0
1508,6040001130002,新規,0,2023-09-07,2023-09-07,株式会社ＵＤ技建,,株式会社,千葉県,市川市,中山１丁目２番６フルール２０１号,,12,203,2720813,,,,,,,2023-09-07,1,,,,,ユーディーギケン,0
1509,6040001130010,新規,0,2023-09-07,2023-09-07,株式会社プロスパー通信工事,,株式会社,千葉県,柏市,酒井根５丁目２５番２０号ゴールドクレスト２０１号,,12,217,2770053,,,,,,,2023-09-07,1,,,,,プロスパーツウシンコウジ,0
1510,6040003023237,新規,0,2023-09-07,2023-09-07,合同会社ＲＫＪ,,合同会社,千葉県,浦安市,今川３丁目９番２６号,,12,227,2790022,,,,,,,2023-09-07,1,,,,,アールケイジェイ,0
1511,6050001053383,新規,0,2023-09-07,2023-09-07,藤井キャピタル株式会社,,株式会社,茨城県,鉾田市,鉾田１０６８－２,,08,234,3111517,,,,,,,2023-09-07,1,,,,,フジイキャピタル,0
1512,6050001053417,新規,0,2023-09-07,2023-09-07,株式会社アクトデザイン,,株式会社,茨城県,つくば市,松代２丁目１０番地２,,08,220,3050035,,,,,,,2023-09-07,1,,,,,アクトデザイン,0
1515,6060001036305,新規,0,2023-09-07,2023-09-07,株式会社高橋工業,00131810,株式会社,栃木県,小山市,大字粟宮１５９７番地９,,09,208,3290201,,,,,,,2023-09-07,1,,,,,タカハシコウギョウ,0
1516,6070001040842,新規,0,2023-09-07,2023-09-07,タケシカスク株式会社,,株式会社,群馬県,桐生市,広沢町２丁目３０２２番地の７,,10,203,3760013,,,,,,,2023-09-07,1,,,,,タケシカスク,0
1518,6080001025850,新規,0,2023-09-07,2023-09-07,株式会社Ｐｈｙｔｅｃｈｓ,,株式会社,静岡県,静岡市葵区,春日３丁目９番２９号,,22,101,4200823,,,,,,,2023-09-07,1,,,,,ファイテクス,0
1519,6080005007564,新規,0,2023-09-07,2023-09-07,税理士法人ヴォヤージュ,,その他の設立登記法人,静岡県,牧之原市,静波１７４７番地４０,,22,226,4210422,,,,,,,2023-09-07,1,,,,,ヴォヤージュ,0
1529,6100001036738,新規,0,2023-09-07,2023-09-07,株式会社アールクラブ,,株式会社,長野県,東御市,和１０９３番地２,,20,219,3890505,,,,,,,2023-09-07,1,,,,,アールクラブ,0
1530,6100001036762,新規,0,2023-09-07,2023-09-07,株式会社ＨＫｔｅｃ,,株式会社,長野県,北安曇郡松川村,７２５番地２,,20,482,3998501,,,,,,,2023-09-07,1,,,,,エイチケーテック,0
1537,6120001257745,新規,0,2023-09-07,2023-09-07,ＫＡＭＩＫＡＷＡ株式会社,,株式会社,大阪府,大阪市大正区,三軒家西３丁目４番１６号中山ビル１０２２,,27,108,5510001,,,,,,,2023-09-07,1,,,,,カミカワ,0
1538,6120001257943,新規,0,2023-09-07,2023-09-07,アーテック衛材株式会社,,株式会社,大阪府,大阪市平野区,長吉川辺３丁目１４番３号,,27,126,5470014,,,,,,,2023-09-07,1,,,,,アーテックエイザイ,0
1539,6120001257968,新規,0,2023-09-07,2023-09-07,株式会社ハコブネ,,株式会社,大阪府,大阪市淀川区,宮原１丁目１９番１０号,,27,123,5320003,,,,,,,2023-09-07,1,,,,,ハコブネ,0
1543,6120005023870,新規,0,2023-09-07,2023-09-07,一般社団法人徳勝会,,その他の設立登記法人,大阪府,大阪市住之江区,北島２丁目６番２５号,,27,125,5590014,,,,,,,2023-09-07,1,,,,,トクショウカイ,0
1552,6120903004823,新規,0,2023-09-07,2023-09-07,合同会社リアシスト,,合同会社,大阪府,豊中市,曽根東町２丁目１番１３号,,27,203,5610802,,,,,,,2023-09-07,1,,,,,リアシスト,0
1554,6122001037334,新規,0,2023-09-07,2023-09-07,株式会社Ｇｏｓｈｉｎｅ,,株式会社,大阪府,東大阪市,足代１丁目１２－２１,,27,227,5770841,,,,,,,2023-09-07,1,,,,,ゴシン,0
1555,6122001037350,新規,0,2023-09-07,2023-09-07,株式会社エヌクリエイト,,株式会社,大阪府,八尾市,東本町１丁目１番１３号,,27,212,5810004,,,,,,,2023-09-07,1,,,,,エヌクリエイト,0
1556,6122003002658,新規,0,2023-09-07,2023-09-07,アゼナシステム合同会社,,合同会社,大阪府,四條畷市,田原台５丁目１２番１７号,,27,229,5750013,,,,,,,2023-09-07,1,,,,,アゼナシステム,0
1563,6140001131428,新規,0,2023-09-07,2023-09-07,株式会社Ｎｏｓｔａｌｇｉｓｔａ,,株式会社,兵庫県,姫路市,安田１丁目５７番地ミストラル姫路駅南Ｂ－１０,,28,201,6700955,,,,,,,2023-09-07,1,,,,,ノスタルジスタ,0
1564,6140001131436,新規,0,2023-09-07,2023-09-07,株式会社プロテクノス,,株式会社,兵庫県,西宮市,高須町２丁目１番３２－８１７号,,28,204,6638141,,,,,,,2023-09-07,1,,,,,プロテクノス,0
1565,6140001131469,新規,0,2023-09-07,2023-09-07,株式会社オフィスたちばな,,株式会社,兵庫県,赤穂市,山手町３番地３,,28,212,6780202,,,,,,,2023-09-07,1,,,,,オフィスタチバナ,0
1566,6140001131477,新規,0,2023-09-07,2023-09-07,株式会社プラスワン,,株式会社,兵庫県,神戸市西区,玉津町今津３６４－１２３,,28,111,6512128,,,,,,,2023-09-07,1,,,,,プラスワン,0
1567,6140001131485,新規,0,2023-09-07,2023-09-07,株式会社Ｃｏｕｌｅｕｒ　ｄｅｓｉｇｎ,,株式会社,兵庫県,尼崎市,武庫之荘６丁目２３番７－２号,,28,202,6610035,,,,,,,2023-09-07,1,,,,,クルールデザイン,0
1568,6140001131502,新規,0,2023-09-07,2023-09-07,歩都自動車株式会社,,株式会社,兵庫県,明石市,大久保町江井島１０４２－１,,28,203,6740064,,,,,,,2023-09-07,1,,,,,ホヅジドウシャ,0
1569,6140001131527,新規,0,2023-09-07,2023-09-07,ＦＡＳＴＩ株式会社,,株式会社,兵庫県,神戸市長田区,五番町３丁目１０番地市営番町住宅３２号棟０階１５号,,28,106,6530003,,,,,,,2023-09-07,1,,,,,ファスティ,0
1572,6140003019480,新規,0,2023-09-07,2023-09-07,ミライノ合同会社,,合同会社,兵庫県,神戸市中央区,磯上通８丁目１番２９号カサベラビルＣ＆Ｍ４０３号室,,28,110,6510086,,,,,,,2023-09-07,1,,,,,ミライノ,0
1573,6140003019497,新規,0,2023-09-07,2023-09-07,よし屋ホームズ合同会社,,合同会社,兵庫県,神戸市東灘区,本山南町４丁目１－１－２０２,,28,101,6580015,,,,,,,2023-09-07,1,,,,,ヨシヤホームズ,0
1574,6140003019514,新規,0,2023-09-07,2023-09-07,合同会社ＦＩＴＮＥＳＳ　ＵＮＩＴＥ,,合同会社,兵庫県,神戸市東灘区,御影石町３丁目１２番１８号ホワイト御影石町１階,,28,101,6580045,,,,,,,2023-09-07,1,,,,,フィットネスユナイト,0
1576,6150005009504,新規,0,2023-09-07,2023-09-07,関西中小企業支援協同組合,,その他の設立登記法人,奈良県,大和高田市,大字市場８０８－７－３Ｆ,,29,202,6350074,,,,,,,2023-09-07,1,,,,,カンサイチュウショウキギョウシエン,0
1584,6180001157915,新規,0,2023-09-07,2023-09-07,株式会社ＴｈｒｅｅＲ,,株式会社,愛知県,名古屋市南区,豊１丁目３－１６,,23,112,4570863,,,,,,,2023-09-07,1,,,,,スリーアール,0
1589,6180301037775,新規,0,2023-09-07,2023-09-07,株式会社ＴＭホールディングス,,株式会社,愛知県,岡崎市,中町６丁目３番地１,,23,202,4440015,,,,,,,2023-09-07,1,,,,,ティーエムホールディングス,0
1590,6180303005821,新規,0,2023-09-07,2023-09-07,合同会社林家,,合同会社,愛知県,刈谷市,高須町１丁目２番地１,,23,210,4480812,,,,,,,2023-09-07,1,,,,,ハヤシヤ,0
1602,6240005015641,新規,0,2023-09-07,2023-09-07,医療法人女医によるファミリークリニック,,その他の設立登記法人,広島県,広島市南区,松原町５番１号４階,,34,103,7320822,,,,,,,2023-09-07,1,,,,,ジョイニヨルファミリークリニック,0
1605,6260003004421,新規,0,2023-09-07,2023-09-07,合同会社縁,,合同会社,岡山県,岡山市北区,中央町２番１４号中央２０ビル４０６号,,33,101,7000836,,,,,,,2023-09-07,1,,,,,エン,0
1606,6270003001558,新規,0,2023-09-07,2023-09-07,合同会社オフィスＴ＆Ｙ,,合同会社,鳥取県,境港市,京町１６６－１４,,31,204,6840023,,,,,,,2023-09-07,1,,,,,オフィスティーアンドワイ,0
1610,6290001102868,新規,0,2023-09-07,2023-09-07,株式会社オフィスイシイ,,株式会社,福岡県,大野城市,栄町３丁目３番４６－９０１号,,40,219,8160924,,,,,,,2023-09-07,1,,,,,オフィスイシイ,0
1611,6290001102884,新規,0,2023-09-07,2023-09-07,株式会社Ｄ‐ＣＲＡＦＴ,,株式会社,福岡県,糟屋郡志免町,南里６丁目１４番１６号,,40,343,8112207,,,,,,,2023-09-07,1,,,,,ディークラフト,0
1612,6290001102934,新規,0,2023-09-07,2023-09-07,株式会社ＯＮＥ,,株式会社,福岡県,飯塚市,有井３５６番地５４,,40,205,8200112,,,,,,,2023-09-07,1,,,,,ワン,0
1613,6290001102950,新規,0,2023-09-07,2023-09-07,株式会社西建設,,株式会社,福岡県,福岡市西区,大字小田１８９５番地,,40,135,8190203,,,,,,,2023-09-07,1,,,,,ニシケンセツ,0
1623,6330001031220,新規,0,2023-09-07,2023-09-07,マルキョウエコファーム株式会社,,株式会社,熊本県,熊本市南区,奥古閑町１７６７番地８,,43,104,8614125,,,,,,,2023-09-07,1,,,,,マルキョウエコファーム,0
1624,6330001031237,新規,0,2023-09-07,2023-09-07,東亜物流株式会社,,株式会社,熊本県,熊本市東区,長嶺東７丁目１０番４５号,,43,102,8618038,,,,,,,2023-09-07,1,,,,,トウアブツリュウ,0
1625,6330003009958,新規,0,2023-09-07,2023-09-07,合同会社オフィスＴＭ,,合同会社,熊本県,八代市,鏡町宝出２４５番地,,43,202,8694221,,,,,,,2023-09-07,1,,,,,オフィスティエム,0
1633,6370001050365,新規,0,2023-09-07,2023-09-07,株式会社ララシュクル,,株式会社,宮城県,東松島市,赤井字有明２４番地１３メロディＩ号館１０２,00131808,04,214,9810501,,,,,,,2023-09-07,1,,,,,ララシュクル,0
1634,6370003006274,新規,0,2023-09-07,2023-09-07,あるけワーク合同会社,,合同会社,宮城県,大崎市,古川稲葉１丁目９番７８号,,04,215,9896135,,,,,,,2023-09-07,1,,,,,アルケワーク,0
1637,6380001033963,新規,0,2023-09-07,2023-09-07,株式会社シン,,株式会社,福島県,郡山市,富田町字大十内２７番地,,07,203,9638041,,,,,,,2023-09-07,1,,,,,シン,0
1648,6430001089918,新規,0,2023-09-07,2023-09-07,株式会社愛優夢,,株式会社,北海道,札幌市西区,宮の沢三条５丁目２４番２２－１０５号,,01,107,0630053,,,,,,,2023-09-07,1,,,,,アユム,0
1649,6430001089934,新規,0,2023-09-07,2023-09-07,株式会社笈口工業,,株式会社,北海道,伊達市,竹原町２５番地４,,01,233,0520011,,,,,,,2023-09-07,1,,,,,オイグチコウギョウ,0
1650,6430001089950,新規,0,2023-09-07,2023-09-07,株式会社小林板金工作所,,株式会社,北海道,札幌市清田区,北野一条１丁目７番２６号,,01,110,0040861,,,,,,,2023-09-07,1,,,,,コバヤシバンキンコウサクショ,0
1652,6440001009313,新規,0,2023-09-07,2023-09-07,株式会社セーフティサービス,,株式会社,北海道,函館市,戸倉町２７番３４号,,01,202,0420953,,,,,,,2023-09-07,1,,,,,セーフティサービス,0
1655,6470001019796,新規,0,2023-09-07,2023-09-07,あなぶきメモリアル株式会社,,株式会社,香川県,高松市,鍛冶屋町７番地１２,,37,201,7600028,,,,,,,2023-09-07,1,,,,,アナブキメモリアル,0
1660,6470003002478,新規,0,2023-09-07,2023-09-07,合同会社えすぽわーる,,合同会社,香川県,三豊市,詫間町詫間５７４番地１１,,37,208,7691101,,,,,,,2023-09-07,1,,,,,エスポワール,0
1670,6700150119902,新規,0,2023-09-07,2023-09-07,Ｒｕｉａｎ　Ｗｅｉｍｅｉ　Ｔｒａｄｉｎｇ　Ｃｏ．，Ｌｔｄ．,,外国会社等,,,,,,,,Ｒｏｏｍ　５０１，Ｕｎｉｔ　３，Ｂｕｉｌｄｉｎｇ　１，Ｊｉｎｓｈａｎ　Ｊｉｎｙｕａｎ，Ｊｉｎｓｈａｎ　Ｖｉｌｌａｇｅ，Ｘｉａｎｊｉａｎｇ　Ｓｔｒｅｅｔ，Ｒｕｉａｎ　Ｃｉｔｙ，Ｗｅｎｚｈｏｕ　Ｃｉｔｙ，Ｚｈｅｊｉａｎｇ　Ｐｒｏｖｉｎｃｅ,,,,,,2023-09-07,1,,,,,ルイアンシーウェイミーマオイーヨウシエンゴンスー,0
1671,6700150119910,新規,0,2023-09-07,2023-09-07,ｌｉｕａｎｓｈｉ　ｚｈｉｘｉａｎｇｄｉａｎｚｉｓｈａｎｇｗｕ　ｙｏｕｘｉａｎｇｏｎｇｓｉ,,外国会社等,,,,,,,,ｙｕａｎｑｕ　ｊｉｎｍａｘｉａｏｑｕ２７＃ｌｏｕ４０２　ｌｉｕａｎ　ａｎｈｕｉ　ＣＮ　　　　,,,,,,2023-09-07,1,,,,,ロクアンシチキョウデンシショウムユウゲンコウシ,0
1672,6700150119919,新規,0,2023-09-07,2023-09-07,ｂｅｉｊｉｎｇ　ｙｏｕｙｏｕｘｉｏｎｇｋｅｊｉ　ｙｏｕｘｉａｎｇｏｎｇｓｉ,,外国会社等,,,,,,,,ＪｉｎｓｏｎｇｌｎｃｕｂａｔｏｒＮｏ１８２４Ｂｕｉｌｄｉｎｇ４０１Ｎｏ２８ＧｕａｎｇＱｕＬｕ　ＣｈａｏｙａｎｇＤｉｓｔｒｉｃｔ　ＢＥＩＪＩＮＧＣＩＴＹ,,,,,,2023-09-07,1,,,,,ペキンヨヨションカギユウゲンコウシ,0
1673,6700150119927,新規,0,2023-09-07,2023-09-07,Ｄｏｎｇｓｉ（Ｃｈｏｎｇｑｉｎｇ）ＥｎｔｅｒｐｒｉｓｅＭａｎａｇｅｍｅｎｔＣｏｎｓｕｌｔｉｎｇ　Ｃｏ．，Ｌｔｄ．,,外国会社等,,,,,,,,Ｎｏ．７－３Ｂｕｉｌｄｉｎｇ２Ｎｏ．１０４６ＳｏｎｇｑｉｎｇＲｏａｄＣｈｕｎｈｕｉＲｏａｄＳｔｒｅｅｔ　ＤａｄｕｋｏｕＤｉｓｔｒｉｃｔ　Ｃｈｏｎｇｑｉｎｇ,,,,,,2023-09-07,1,,,,,ドンスジュウケイエンタープライズマネジメントコンサルティングカンパニーリミテッド,0
1674,6700150119935,新規,0,2023-09-07,2023-09-07,ｙｉｗｕｓｈｉ　ｚｈｕｏｐｉｎｊｉｎｃｈｕｋｏｕ　ｙｏｕｘｉａｎｇｏｎｇｓｉ,,外国会社等,,,,,,,,ｊｉａｎｇｄｏｎｇｊｉｅｄａｏｔａｘｉａｚｈｏｕｘｉｎｊｉｅ１０ｚｈｕａｎｇ２ｄａｎｙｕａｎ　ｙｉｗｕ　ｚｈｅｊｉａｎｇ,,,,,,2023-09-07,1,,,,,イーウーシジュオピンジンツコオユウゲンコウシ,0
1675,6700150119943,新規,0,2023-09-07,2023-09-07,ｓｈｅｎｚｈｅｎｓｈｉ　ｑｉａｎｃｈｅｎｇ　ｍａｏｙｉ　ｙｏｕｘｉａｎ　ｇｏｎｇｓｉ,,外国会社等,,,,,,,,Ｒｏｏｍ　Ａ７０９，６３０７　Ｂａｏ’ａｎ　Ａｖｅｎｕｅ，Ｑｉａｏｔｏｕ　Ｂｌｏｃｋ，ＦｕｈａｉＳｔｒｅｅｔ，Ｂａｏ’ａｎ　Ｄｉｓｔｒｉｃｔ，ＳｈｅｎＺｈｅｎ　Ｃｉｔｙ,,,,,,2023-09-07,1,,,,,シェンジェンシーチエンチョンマオイーヨウシエンゴンスー,0
1676,6700150119951,新規,0,2023-09-07,2023-09-07,Ｘｉａｍｅｎｙｏｕｐａｉｇｕｏｊｉｍａｏｙｉｙｏｕｘｉａｎｇｏｎｇｓｉ,,外国会社等,,,,,,,,Ｒｏｏｍ　３０１－２，３ｒｄ　Ｆｌｏｏｒ，Ｎｏ．１２１，Ｓｉｍｉｎｇ　Ｐａｒｋ，Ｉｎｄｕｓｔｒｉａｌ　Ｃｏｎｃｅｎｔｒａｔｉｏｎ　Ｚｏｎｅ，Ｔｏｎｇ　ＸｉａｍｅｎＴｏｎｇａｎ　Ｆｕｊｉａｎ,,,,,,2023-09-07,1,,,,,シャモンユウハコクサイボウエキユウゲンコウシ,0
1683,7010003041595,新規,0,2023-09-07,2023-09-07,合同会社ＲＳＭ吉祥寺,,合同会社,東京都,千代田区,内神田２丁目２番６号５階あすな会計事務所内,,13,101,1010047,,,,,,,2023-09-07,1,,,,,アールエスエムキチジョウジ,0
1684,7010005037212,新規,0,2023-09-07,2023-09-07,医療法人社団Ｈｅａｌｔｈ　ａｎｄ　Ｈｕｍａｎ　Ｐｅｒｆｏｒｍａｎｃｅ,,その他の設立登記法人,東京都,千代田区,麹町６丁目４番地１６ＥＳＣＡＬＩＥＲ麹町２階,,13,101,1020083,,,,,,,2023-09-07,1,,,,,ヘルスアンドヒューマンパフォーマンス,0
1685,7010005037220,新規,0,2023-09-07,2023-09-07,一般社団法人ＲＳＭＫ,,その他の設立登記法人,東京都,千代田区,内神田２丁目２番６号５階あすな会計事務所内,,13,101,1010047,,,,,,,2023-09-07,1,,,,,アールエスエムケイ,0
1686,7010005037237,新規,0,2023-09-07,2023-09-07,ＭＥ物流開発一般社団法人,,その他の設立登記法人,東京都,中央区,日本橋１丁目４番１号日本橋一丁目ビルディング,,13,102,1030027,,,,,,,2023-09-07,1,,,,,エムイーブツリュウカイハツ,0
1690,7010401176885,新規,0,2023-09-07,2023-09-07,株式会社Ｍａｋｅ　ｉｎ　Ｕ,,株式会社,東京都,港区,南青山４丁目１番１５号ベルテ南青山８０２,,13,103,1070062,,,,,,,2023-09-07,1,,,,,メイクインユー,0
1691,7010401177000,新規,0,2023-09-07,2023-09-07,株式会社ＶＲＡＮＤ,,株式会社,東京都,港区,北青山２丁目７番１３号プラセオ青山ビル３Ｆ,,13,103,1070061,,,,,,,2023-09-07,1,,,,,ブランド,0
1694,7010501050998,新規,0,2023-09-07,2023-09-07,大元商事株式会社,,株式会社,東京都,台東区,千束３丁目２０－１９桜井ビル３０１,,13,106,1110031,,,,,,,2023-09-07,1,,,,,ダイゲンショウジ,0
1698,7010601063710,新規,0,2023-09-07,2023-09-07,株式会社はじめ企画,,株式会社,東京都,墨田区,石原１丁目２４番３－１４０４号,,13,107,1300011,,,,,,,2023-09-07,1,,,,,ハジメキカク,0
1699,7010601063727,新規,0,2023-09-07,2023-09-07,株式会社きづなとわ,,株式会社,東京都,江東区,東雲２丁目２番１４号,,13,108,1350062,,,,,,,2023-09-07,1,,,,,キヅナトワ,0
1700,7010603010339,新規,0,2023-09-07,2023-09-07,五組合同会社,,合同会社,東京都,江東区,三好４丁目７番２７－３０５号,,13,108,1350022,,,,,,,2023-09-07,1,,,,,ゴクミ,0
1703,7010701044825,新規,0,2023-09-07,2023-09-07,ＦＥＫ　Ｅｃｏｌｏｇｙ　Ｊａｐａｎ株式会社,,株式会社,東京都,品川区,大井１丁目２３番１号カクタビル７階,,13,109,1400014,,,,,,,2023-09-07,1,,,,,エフイーケーエコロジージャパン,0
1712,7010901053782,新規,0,2023-09-07,2023-09-07,Ｃｈｉｋａｇｅ　Ｖｏｃａｌ　Ｓｃｈｏｏｌ株式会社,,株式会社,東京都,世田谷区,給田２丁目５番２号１０２,,13,112,1570064,,,,,,,2023-09-07,1,,,,,チカゲボーカルスクール,0
1713,7010901053790,新規,0,2023-09-07,2023-09-07,Ｗａｒｅａ株式会社,,株式会社,東京都,世田谷区,駒沢２丁目７番１－２２２号,,13,112,1540012,,,,,,,2023-09-07,1,,,,,ワレア,0
1714,7010901053799,新規,0,2023-09-07,2023-09-07,ＲＡＤＩＳＨ株式会社,,株式会社,東京都,世田谷区,三軒茶屋１丁目２９番１３－７０６号,,13,112,1540024,,,,,,,2023-09-07,1,,,,,ラディッシュ,0
1720,7011001156757,新規,0,2023-09-07,2023-09-07,ＴＡＭＥＳＵ株式会社,,株式会社,東京都,渋谷区,広尾３丁目１７番２７－７０２号,,13,113,1500012,,,,,,,2023-09-07,1,,,,,タメス,0
1721,7011001156765,新規,0,2023-09-07,2023-09-07,株式会社トラクション,,株式会社,東京都,渋谷区,渋谷２丁目１９－１５宮益坂ビルディング６０９,,13,113,1500002,,,,,,,2023-09-07,1,,,,,トラクション,0
1722,7011001156781,新規,0,2023-09-07,2023-09-07,株式会社Ｄａｙ１,,株式会社,東京都,渋谷区,道玄坂１丁目１０番８号渋谷道玄坂東急ビル２Ｆ－Ｃ,,13,113,1500043,,,,,,,2023-09-07,1,,,,,デイワン,0
1723,7011001156831,新規,0,2023-09-07,2023-09-07,株式会社Ｐｕｒｐｌｅ,,株式会社,東京都,目黒区,中根２丁目１５番１２－５０２号,,13,110,1520031,,,,,,,2023-09-07,1,,,,,パープル,0
1726,7011003017486,新規,0,2023-09-07,2023-09-07,Ｓａｘｓｉａ合同会社,,合同会社,東京都,渋谷区,道玄坂１丁目１０番８号渋谷道玄坂東急ビル２Ｆ－Ｃ,,13,113,1500043,,,,,,,2023-09-07,1,,,,,サクシア,0
1730,7011103013451,新規,0,2023-09-07,2023-09-07,合同会社ゼロ,,合同会社,東京都,新宿区,高田馬場３丁目１番５号サンパティオ高田馬場３０９号室,,13,104,1690075,,,,,,,2023-09-07,1,,,,,ゼロ,0
1732,7011301028986,新規,0,2023-09-07,2023-09-07,株式会社世界研究所,,株式会社,東京都,杉並区,南荻窪４丁目４４番１１号ハイラーク荻窪２０２,,13,115,1670052,,,,,,,2023-09-07,1,,,,,セカイケンキュウジョ,0
1735,7011701026581,新規,0,2023-09-07,2023-09-07,強盛株式会社,,株式会社,東京都,江戸川区,南小岩２丁目１５－２９－１Ｆ,,13,123,1330056,,,,,,,2023-09-07,1,,,,,キョウセイ,0
1741,7012301013581,新規,0,2023-09-07,2023-09-07,消防設備メンテ企画株式会社,,株式会社,東京都,町田市,本町田３０１７番地１９,,13,209,1940032,,,,,,,2023-09-07,1,,,,,ショウボウセツビメンテキカク,0
1742,7012305002060,新規,0,2023-09-07,2023-09-07,医療法人社団山本耳鼻咽喉科,,その他の設立登記法人,東京都,町田市,原町田５丁目５番５号ライオンズシティ町田第２－１階,,13,209,1940013,,,,,,,2023-09-07,1,,,,,ヤマモトジビインコウカ,0
1744,7012403006153,新規,0,2023-09-07,2023-09-07,合同会社ＹＡＲＤ,,合同会社,東京都,三鷹市,井の頭５丁目１６－５Ｐａｒｋ井の頭２０２,,13,204,1810001,,,,,,,2023-09-07,1,,,,,ヤード,0
1746,7012701017827,新規,0,2023-09-07,2023-09-07,株式会社タビビト,,株式会社,東京都,小平市,学園西町２丁目１３－２６レクセルマンション一橋学園３０８,,13,211,1870045,,,,,,,2023-09-07,1,,,,,タビビト,0
1749,7013305003511,新規,0,2023-09-07,2023-09-07,デイジー社会保険労務士法人,,その他の設立登記法人,東京都,豊島区,池袋２丁目１７番８号,,13,116,1710014,,,,,,,2023-09-07,1,,,,,デイジー,0
1754,7020001153350,新規,0,2023-09-07,2023-09-07,株式会社大洋,,株式会社,神奈川県,横浜市保土ケ谷区,狩場町２９２番地６,,14,106,2400025,,,,,,,2023-09-07,1,,,,,タイヨウ,0
1755,7020001153367,新規,0,2023-09-07,2023-09-07,株式会社ロハスプランニング,,株式会社,神奈川県,横浜市港南区,野庭町８１－３０,,14,111,2340056,,,,,,,2023-09-07,1,,,,,ロハスプランニング,0
1756,7020001153375,新規,0,2023-09-07,2023-09-07,株式会社永昌,,株式会社,神奈川県,横浜市神奈川区,西神奈川１丁目７番地９,,14,102,2210822,,,,,,,2023-09-07,1,,,,,エイショウ,0
1757,7020001153383,新規,0,2023-09-07,2023-09-07,株式会社Ｂｌｕｅｋｉｎｇ,,株式会社,神奈川県,横浜市南区,別所中里台１１番１０号,,14,105,2320065,,,,,,,2023-09-07,1,,,,,ブルーキング,0
1758,7020001153391,新規,0,2023-09-07,2023-09-07,株式会社エイトケアツリー,,株式会社,神奈川県,川崎市中原区,小杉町３丁目４４１番地伊達ビル２階,,14,133,2110063,,,,,,,2023-09-07,1,,,,,エイトケアツリー,0
1764,7020003024525,新規,0,2023-09-07,2023-09-07,合同会社三代目丸大,,合同会社,神奈川県,横浜市保土ケ谷区,岩井町６１番地村本荘２,,14,106,2400023,,,,,,,2023-09-07,1,,,,,サンダイメマルダイ,0
1765,7020003024558,新規,0,2023-09-07,2023-09-07,合同会社ＳＵＭＡＵｐｌｕｓ,,合同会社,神奈川県,横浜市青葉区,美しが丘西２丁目４‐１７,,14,117,2250001,,,,,,,2023-09-07,1,,,,,スマウプラス,0
1769,7021001080089,新規,0,2023-09-07,2023-09-07,株式会社ＭＭＤ,,株式会社,神奈川県,相模原市南区,新戸２２９７番地１,,14,153,2520326,,,,,,,2023-09-07,1,,,,,エムエムディ,0
1779,7030001155635,新規,0,2023-09-07,2023-09-07,株式会社由旬,,株式会社,埼玉県,草加市,中根３丁目３４－２１,,11,221,3400005,,,,,,,2023-09-07,1,,,,,ユジュン,0
1787,7040001129910,新規,0,2023-09-07,2023-09-07,山井管工株式会社,,株式会社,千葉県,千葉市稲毛区,山王町２９５番地２９,,12,103,2630002,,,,,,,2023-09-07,1,,,,,ヤマイカンコウ,0
1788,7040001129927,新規,0,2023-09-07,2023-09-07,株式会社蔵,,株式会社,千葉県,市原市,国分寺台中央７丁目１６番地２,,12,219,2900073,,,,,,,2023-09-07,1,,,,,クラ,0
1789,7040001129935,新規,0,2023-09-07,2023-09-07,株式会社縁,,株式会社,千葉県,松戸市,小金原２丁目１４－２８,,12,207,2700021,,,,,,,2023-09-07,1,,,,,エニシ,0
1790,7040001129968,新規,0,2023-09-07,2023-09-07,房総酒旅株式会社,,株式会社,千葉県,南房総市,千倉町北朝夷２９６７番地,,12,234,2950011,,,,,,,2023-09-07,1,,,,,ボウソウサケタビ,0
1791,7040001129992,新規,0,2023-09-07,2023-09-07,株式会社明,,株式会社,千葉県,松戸市,小金２３７番地,,12,207,2700014,,,,,,,2023-09-07,1,,,,,アキ,0
1795,7040003023244,新規,0,2023-09-07,2023-09-07,合同会社ＪＩＹＵ　ＬＡＢ,,合同会社,千葉県,市川市,柏井町４丁目４７７番地６,,12,203,2720802,,,,,,,2023-09-07,1,,,,,ジユウラボ,0
1796,7040005022112,新規,0,2023-09-07,2023-09-07,一般社団法人キッズファースト,,その他の設立登記法人,千葉県,千葉市花見川区,幕張本郷６丁目２５番２０号糸ビル２０１,,12,102,2620033,,,,,,,2023-09-07,1,,,,,キッズファースト,0
1800,7050001053390,新規,0,2023-09-07,2023-09-07,株式会社プレザントリバー,,株式会社,茨城県,古河市,東牛谷４５９番地１ＷＩＴ古河１０１,,08,204,3060232,,,,,,,2023-09-07,1,,,,,プレザントリバー,0
1801,7050001053399,新規,0,2023-09-07,2023-09-07,株式会社ＡＶＩＯ‐０１,,株式会社,茨城県,牛久市,刈谷町３丁目３０番地３,,08,219,3001235,,,,,,,2023-09-07,1,,,,,アビオゼロワン,0
1803,7050003007774,新規,0,2023-09-07,2023-09-07,合同会社エムケイワークス,,合同会社,茨城県,古河市,上片田１０７９番地１,,08,204,3060128,,,,,,,2023-09-07,1,,,,,エムケイワークス,0
1807,7060001036304,新規,0,2023-09-07,2023-09-07,株式会社ウィステリアグループ,,株式会社,栃木県,宇都宮市,宿郷１丁目１２番１２号エイシンビル４階,,09,201,3210945,,,,,,,2023-09-07,1,,,,,ウィステリアグループ,0
1810,7070001040817,新規,0,2023-09-07,2023-09-07,株式会社エーイーエム,,株式会社,群馬県,富岡市,下黒岩７１４番地３１,,10,210,3702341,,,,,,,2023-09-07,1,,,,,エーイーエム,0
1811,7070003005090,新規,0,2023-09-07,2023-09-07,合同会社管材製作,,合同会社,群馬県,高崎市,下小鳥町７３８番地１パレス梅山２０５号,,10,202,3700074,,,,,,,2023-09-07,1,,,,,カンザイセイサク,0
1816,7100001036753,新規,0,2023-09-07,2023-09-07,株式会社ＴＲＵＥ　ＳＫＹ,,株式会社,長野県,塩尻市,大字洗馬２１８３番地,,20,215,3996462,,,,,,,2023-09-07,1,,,,,トゥルースカイ,0
1818,7100003007174,新規,0,2023-09-07,2023-09-07,合同会社谷川商会,,合同会社,長野県,北佐久郡御代田町,大字馬瀬口１５９７番地２７６,,20,323,3890207,,,,,,,2023-09-07,1,,,,,タニガワショウカイ,0
1830,7120001257793,新規,0,2023-09-07,2023-09-07,株式会社ミツワ企画,,株式会社,大阪府,大阪市福島区,福島７丁目４番１７号,,27,103,5530003,,,,,,,2023-09-07,1,,,,,,0
1831,7120001257868,新規,0,2023-09-07,2023-09-07,株式会社豊田商事,,株式会社,大阪府,大阪市都島区,中野町２丁目５－１３プレアール都島ＩＩＩ４０２号室,00131804,27,102,5340027,,,,,,,2023-09-07,1,,,,,トヨタショウジ,0
1832,7120001257876,新規,0,2023-09-07,2023-09-07,ＫｎｏｗｌｅｄｇｅＢａｎｋｉｎｇ株式会社,,株式会社,大阪府,大阪市北区,曾根崎２丁目８－５お初天神ＥＡＳＴＢＬＤＧ３Ｆ,,27,127,5300057,,,,,,,2023-09-07,1,,,,,ナレッジバンキング,0
1833,7120001257926,新規,0,2023-09-07,2023-09-07,株式会社青藍ＩＰ,,株式会社,大阪府,大阪市北区,西天満４丁目３番２５号,,27,127,5300047,,,,,,,2023-09-07,1,,,,,セイランアイピー,0
1839,7120103005415,新規,0,2023-09-07,2023-09-07,合同会社つなぐ,,合同会社,大阪府,富田林市,若松町西１丁目１８４１番地１－３０１号室,,27,214,5840025,,,,,,,2023-09-07,1,,,,,ツナグ,0
1849,7140001131435,新規,0,2023-09-07,2023-09-07,株式会社ＮＲｇａｒａｇｅ,,株式会社,兵庫県,揖保郡太子町,太田１９７３番地５,,28,464,6711511,,,,,,,2023-09-07,1,,,,,エヌアールガレージ,0
1850,7140001131501,新規,0,2023-09-07,2023-09-07,株式会社アールケル,,株式会社,兵庫県,神戸市北区,鈴蘭台南町６丁目１８番７号,,28,109,6511113,,,,,,,2023-09-07,1,,,,,アールケル,0
1857,7180001157864,新規,0,2023-09-07,2023-09-07,Ｙ・Ｉエンジニア株式会社,,株式会社,愛知県,一宮市,末広１丁目１３番６－４０２号,,23,203,4910918,,,,,,,2023-09-07,1,,,,,ワイアイエンジニア,0
1858,7180001157930,新規,0,2023-09-07,2023-09-07,株式会社東海太田川駅西産業街区,,株式会社,愛知県,東海市,富貴ノ台６丁目１２番地の１,,23,222,4760014,,,,,,,2023-09-07,1,,,,,トウカイオオタガワエキニシサンギョウガイク,0
1861,7180005020341,新規,0,2023-09-07,2023-09-07,一般社団法人ひととまち,,その他の設立登記法人,愛知県,尾張旭市,東印場町２丁目３番地８,,23,226,4880830,,,,,,,2023-09-07,1,,,,,ヒトトマチ,0
1862,7180301037766,新規,0,2023-09-07,2023-09-07,株式会社Ｃｈｏｉｃｅ,,株式会社,愛知県,豊橋市,松葉町１丁目３３番地,,23,201,4400897,,,,,,,2023-09-07,1,,,,,チョイス,0
1863,7180301037782,新規,0,2023-09-07,2023-09-07,レイライン株式会社,,株式会社,愛知県,岡崎市,大平町字岡田５１番地,,23,202,4440007,,,,,,,2023-09-07,1,,,,,レイライン,0
1864,7180303005820,新規,0,2023-09-07,2023-09-07,合同会社Ｍａｇｏｇａｍｅ,,合同会社,愛知県,豊田市,美里４丁目３番地７３,,23,211,4710805,,,,,,,2023-09-07,1,,,,,マゴガメ,0
1865,7180305009506,新規,0,2023-09-07,2023-09-07,一般社団法人ホメオスタシス,,その他の設立登記法人,愛知県,豊橋市,八町通２丁目４番地,,23,201,4400806,,,,,,,2023-09-07,1,,,,,ホメオスタシス,0
1874,7210001019458,新規,0,2023-09-07,2023-09-07,株式会社Ｒ・Ｙ・Ｏ,,株式会社,福井県,福井市,照手３丁目４番８号,,18,201,9100024,,,,,,,2023-09-07,1,,,,,アールワイオー,0
1875,7210005010108,新規,0,2023-09-07,2023-09-07,一般財団法人越前おおの観光ビューロー,,その他の設立登記法人,福井県,大野市,元町１０番２３号,,18,205,9120081,,,,,,,2023-09-07,1,,,,,エチゼンオオノカンコウビューロー,0
1878,7220001025595,新規,0,2023-09-07,2023-09-07,株式会社べたなぎ,,株式会社,石川県,小松市,下牧町ニ１７４番地宮越アパート３号室,,17,203,9230026,,,,,,,2023-09-07,1,,,,,ベタナギ,0
1883,7240005015640,新規,0,2023-09-07,2023-09-07,一般社団法人Ｄｏｍｅｓｔｉｃ　Ｖｉｏｌｅｎｃｅ　ａｎｄ　Ｃｈｉｌｄ　Ａｂｕｓｅ　Ｃｅｎｔｅｒ　ＨＩＲＯＳＨＩＭＡ,,その他の設立登記法人,広島県,広島市西区,観音本町１丁目１０番１４－６０１号,,34,104,7330033,,,,,,,2023-09-07,1,,,,,ドメスティクバイオレンスアンドチャイルドアビューズセンターヒロシマ,0
1886,7250003003340,新規,0,2023-09-07,2023-09-07,合同会社グランノーブル,,合同会社,山口県,山口市,青葉台５番３０号,,35,203,7530012,,,,,,,2023-09-07,1,,,,,グランノーブル,0
1890,7250005008858,新規,0,2023-09-07,2023-09-07,社会保険労務士法人人事情報システム,,その他の設立登記法人,山口県,山口市,矢原１４５５番地１プランドール矢原ビル６Ｆ,,35,203,7530861,,,,,,,2023-09-07,1,,,,,ジンジジョウホウシステム,0
1891,7260001038288,新規,0,2023-09-07,2023-09-07,株式会社ＬＵＣＹ,,株式会社,岡山県,岡山市北区,中央町２－１４－３０７,,33,101,7000836,,,,,,,2023-09-07,1,,,,,ルーシー,0
1895,7290001102850,新規,0,2023-09-07,2023-09-07,株式会社エンゼルファーム,,株式会社,福岡県,朝倉市,菱野８９２番地,,40,228,8381305,,,,,,,2023-09-07,1,,,,,エンゼルファーム,0
1896,7290001102958,新規,0,2023-09-07,2023-09-07,株式会社クリアスタイル,,株式会社,福岡県,福岡市中央区,大名２丁目１番４３―３０７号,,40,133,8100041,,,,,,,2023-09-07,1,,,,,クリアスタイル,0
1901,7290801029847,新規,0,2023-09-07,2023-09-07,株式会社蒼和工業,,株式会社,福岡県,北九州市小倉南区,南方３丁目２４番１９－２号,,40,107,8020976,,,,,,,2023-09-07,1,,,,,ソウワコウギョウ,0
1905,7320003004166,新規,0,2023-09-07,2023-09-07,合同会社ゆずかん,,合同会社,大分県,大分市,六坊南町２番８７号,,44,201,8700842,,,,,,,2023-09-07,1,,,,,ユズカン,0
1907,7330001031228,新規,0,2023-09-07,2023-09-07,株式会社美楽,,株式会社,熊本県,熊本市中央区,新市街６番１４号,,43,101,8600803,,,,,,,2023-09-07,1,,,,,ビラク,0
1908,7330001031236,新規,0,2023-09-07,2023-09-07,株式会社ＫＩＴＡＭＵＲＡ,,株式会社,熊本県,八代郡氷川町,今１９４番地３,,43,468,8694601,,,,,,,2023-09-07,1,,,,,キタムラ,0
1910,7330003009965,新規,0,2023-09-07,2023-09-07,合同会社成,,合同会社,熊本県,熊本市南区,近見２丁目２０番１１号近見プラザ,,43,104,8614101,,,,,,,2023-09-07,1,,,,,セイ,0
1914,7340005009649,新規,0,2023-09-07,2023-09-07,一般社団法人ジャパンアスリートクラブ,,その他の設立登記法人,鹿児島県,鹿児島市,宇宿２丁目２４番３６号,,46,201,8900073,,,,,,,2023-09-07,1,,,,,ジャパンアスリートクラブ,0
1916,7350001018553,新規,0,2023-09-07,2023-09-07,株式会社はるくる,,株式会社,宮崎県,延岡市,古城町２丁目２番地１５,,45,203,8820837,,,,,,,2023-09-07,1,,,,,ハルクル,0
1917,7360005006900,新規,0,2023-09-07,2023-09-07,一般社団法人こうのとり会,,その他の設立登記法人,沖縄県,那覇市,安謝１丁目９番地１９号石原マンション１Ｆ,,47,201,9000003,,,,,,,2023-09-07,1,,,,,コウノトリカイ,0
1918,7370001050372,新規,0,2023-09-07,2023-09-07,株式会社ＫＩＭＵＲＡ,,株式会社,宮城県,石巻市,鹿又字横前１５０番地１,,04,202,9861111,,,,,,,2023-09-07,1,,,,,キムラ,0
1919,7370001050380,新規,0,2023-09-07,2023-09-07,株式会社佐藤商店,,株式会社,宮城県,仙台市青葉区,花京院２丁目２番６６－５０１号,,04,101,9800013,,,,,,,2023-09-07,1,,,,,サトウショウテン,0
1922,7370005010678,新規,0,2023-09-07,2023-09-07,弁護士法人作田法律事務所,,その他の設立登記法人,宮城県,仙台市青葉区,中央２丁目２番６号三井住友銀行仙台ビル５階,,04,101,9800021,,,,,,,2023-09-07,1,,,,,サクダホウリツジムショ,0
1924,7380001033954,新規,0,2023-09-07,2023-09-07,株式会社ＴＲＵＴＨ,,株式会社,福島県,郡山市,図景２丁目９番７号,,07,203,9638834,,,,,,,2023-09-07,1,,,,,トゥルース,0
1928,7410001013589,新規,0,2023-09-07,2023-09-07,株式会社惣行ファーム,,株式会社,秋田県,大仙市,太田町太田字惣行家東６４番地,,05,212,0191613,,,,,,,2023-09-07,1,,,,,ソウギョウファウム,0
1935,7430001089875,新規,0,2023-09-07,2023-09-07,株式会社隼工業,,株式会社,北海道,札幌市白石区,北郷一条９丁目５番５－２０１号,,01,104,0030831,,,,,,,2023-09-07,1,,,,,ハヤブサコウギョウ,0
1936,7430001089925,新規,0,2023-09-07,2023-09-07,株式会社コウセイ,,株式会社,北海道,札幌市東区,東雁来八条１丁目３番１２号,,01,103,0070828,,,,,,,2023-09-07,1,,,,,コウセイ,0
1937,7430003015409,新規,0,2023-09-07,2023-09-07,合同会社Ｎ＆ｏｎｅ,,合同会社,北海道,札幌市北区,屯田五条４丁目４番３号,,01,102,0020855,,,,,,,2023-09-07,1,,,,,エヌアンドワン,0
1938,7440001009320,新規,0,2023-09-07,2023-09-07,株式会社ＭＦＧホールディングス,,株式会社,北海道,函館市,湯浜町１番４号,,01,202,0420933,,,,,,,2023-09-07,1,,,,,エムエフジーホールディングス,0
1941,7460103001553,新規,0,2023-09-07,2023-09-07,合同会社カルム,,合同会社,北海道,帯広市,西二十条南３丁目６番２号,,01,207,0802470,,,,,,,2023-09-07,1,,,,,カルム,0
1946,7470001019787,新規,0,2023-09-07,2023-09-07,株式会社Ｔ‐ｓｔｙｌｅ,,株式会社,香川県,高松市,由良町１１４５番地１,,37,201,7610441,,,,,,,2023-09-07,1,,,,,ティースタイル,0
1950,7490003001816,新規,0,2023-09-07,2023-09-07,合同会社大翔産業,,合同会社,高知県,宿毛市,中央１丁目５番１６号,,39,208,7880001,,,,,,,2023-09-07,1,,,,,ダイショウサンギョウ,0
1958,7700150119901,新規,0,2023-09-07,2023-09-07,Ｒｕｉａｎ　Ｙｉｔｕｏ　Ａｕｔｏｍｏｔｉｖｅ　Ｔｅｃｈｎｏｌｏｇｙ　Ｃｏ．，Ｌｔｄ．,,外国会社等,,,,,,,,ＮＯ．１６６　Ｆｅｎｇｄｕ　Ｓｉｘｔｈ　Ｒｏａｄ，Ｔａｎｇｘｉａ　Ｔｏｗｎ，Ｒｕｉａｎ　Ｃｉｔｙ，Ｗｅｎｚｈｏｕ　Ｃｉｔｙ，Ｚｈｅｊｉａｎｇ　Ｐｒｏｖｉｎｃｅ,,,,,,2023-09-07,1,,,,,ルイアンイートゥオチーチョーコージーヨウシエンゴンスー,0
1959,7700150119918,新規,0,2023-09-07,2023-09-07,ｓｈｅｎｚｈｅｎｓｈｉ　ｈａｉｚｈｏｎｇｂａｏｓｈｕｍａｋｅｊｉ　ｙｏｕｘｉａｎｇｏｎｇｓｉ,,外国会社等,,,,,,,,ｌｏｎｇｇａｎｇｑｕｐｉｎｇｈｕｊｉｅｄａｏｈｅｈｕａｓｈｅｑｕｊｉａｙｅｌｕ１０ｈａｏｙｉｌｏｕ　ｓｈｅｎｚｈｅｎｓｈｉ,,,,,,2023-09-07,1,,,,,シンセンシハイゾンバオスマカギユウゲンコウシ,0
1960,7700150119926,新規,0,2023-09-07,2023-09-07,ｑｕｎａｎ　ｋｅｘｕｅｙｉｑｉ（ｚｈｅｊｉａｎｇ）ｙｏｕｘｉａｎｇｏｎｇｓｉ,,外国会社等,,,,,,,,１０５Ｆｌｏｏｒ１Ｂｕｉｌｄｉｎｇ１Ｎｏ１８１ＧａｎｇｆｅｎｇＲｏａｄＫａｎｇｓｈａｎＳｔｒｅｅｔ　Ｈｕｚｈｏｕ　Ｚｈｅｊｉａｎｇ,,,,,,2023-09-07,1,,,,,グンアンカガクギキセッコウユウゲンコウシ,0
1961,7700150119934,新規,0,2023-09-07,2023-09-07,Ｋａｉｐｉｎｇｓｈｉ　Ｋｅｒｕｉｗｅｉｙｕ　ｙｏｕｘｉａｎｇｏｎｇｓｉ,,外国会社等,,,,,,,,Ｏｆｆｉｃｅ４０３４Ｚｏｎｅ１Ｎｏ１ＥａｓｔＬｏｎｇｔａｎｇＲｏａｄ　ＫａｉＰｉｎｇＣｉｔｙ　ＳｈｕｉＫｏｕＴｏｗｎ,,,,,,2023-09-07,1,,,,,カイヘイシカルイウェイユユウゲンコウシ,0
1962,7700150119942,新規,0,2023-09-07,2023-09-07,ＸｉｎＪｉａｎｇＸｉａｎＹｕＱｉｎＹｕａｎＳｈａｎｇＭａｏＹｏｕＸｉａｎＧｏｎｇＳｉ,,外国会社等,,,,,,,,ＳｈａｎＸｉＳｈｅｎｇＹｕｎＣｈｅｎｇＳｈｉＸｉｎＪｉａｎｇＸｉａｎＳａｎＱｕａｎＺｈｅｎＧｕＤｕｉＣｕｎ,,,,,,2023-09-07,1,,,,,シンジャンシエンイーチンユエンシャンマオヨウシエンゴンスー,0
1963,7700150119950,新規,0,2023-09-07,2023-09-07,ｙｉｃｕｓｈｉｙａｎｇｙａｏｍａｏｙｉｙｏｕｘｉａｎｇｏｎｇｓｉ,,外国会社等,,,,,,,,ｆｕｔｉａｎｊｉｅｄａｏｓｅｎｗｕｃｕｎ　５１ｈａｏ１ｌｏｕ　Ｙｉｗｕｓｈｉ　Ｚｈｅｊｉａｎｇ　ＣＮ,,,,,,2023-09-07,1,,,,,ギウシヨウヨウボウエキユウゲンコウシ,0
1975,8010003041603,新規,0,2023-09-07,2023-09-07,ＫＡＴＳＵＫＩ合同会社,,合同会社,東京都,千代田区,丸の内１丁目１１－１パシフィックセンチュリープレイス丸の内１３階,,13,101,1000005,,,,,,,2023-09-07,1,,,,,カツキ,0
1981,8010005037203,新規,0,2023-09-07,2023-09-07,Ａｐｅｘ　Ｇｒｏｕｐ　Ｊａｐａｎ税理士法人,,その他の設立登記法人,東京都,千代田区,大手町２丁目１番１号大手町野村ビル１６階,,13,101,1000004,,,,,,,2023-09-07,1,,,,,エイペックスグループジャパン,0
1982,8010005037211,新規,0,2023-09-07,2023-09-07,一般社団法人インターネットセールス研究会,,その他の設立登記法人,東京都,中央区,日本橋室町１丁目１１番１２号日本橋水野ビル７階,,13,102,1030022,,,,,,,2023-09-07,1,,,,,インターネットセールスケンキュウカイ,0
1983,8010005037228,新規,0,2023-09-07,2023-09-07,一般社団法人知識環境研究会教育会,,その他の設立登記法人,東京都,千代田区,鍛冶町２丁目１１番２２号,,13,101,1010044,,,,,,,2023-09-07,1,,,,,チシキカンキョウケンキュウカイキョウイクカイ,0
1992,8010401176959,新規,0,2023-09-07,2023-09-07,株式会社ＷＥＬＬ,,株式会社,東京都,港区,六本木７丁目１２番２号Ｒ７ビルディング７０３,,13,103,1060032,,,,,,,2023-09-07,1,,,,,ウェル,0
1996,8010501051013,新規,0,2023-09-07,2023-09-07,株式会社ユーサード,,株式会社,東京都,台東区,台東４丁目３１番１号,,13,106,1100016,,,,,,,2023-09-07,1,,,,,ユーサード,0
1997,8010503007145,新規,0,2023-09-07,2023-09-07,３５７ＬＩＮＫ合同会社,,合同会社,東京都,台東区,池之端１丁目４番２２－８０３号ウェリス上野池之端,,13,106,1100008,,,,,,,2023-09-07,1,,,,,サンゴナナリンク,0
1999,8010601063742,新規,0,2023-09-07,2023-09-07,株式会社海ＸＳＩＡ青田,,株式会社,東京都,江東区,豊洲６丁目５番１号,,13,108,1350061,,,,,,,2023-09-07,1,,,,,ウミシアアオタ,0
2005,8010903008429,新規,0,2023-09-07,2023-09-07,合同会社Ｙ‐ＳＴＲＥＡＭ,,合同会社,東京都,世田谷区,野毛２丁目２２番２０号,,13,112,1580092,,,,,,,2023-09-07,1,,,,,ワイストリーム,0
2006,8010905004533,新規,0,2023-09-07,2023-09-07,医療法人社団オーソドント会,,その他の設立登記法人,東京都,世田谷区,経堂２丁目１９番８号３階,,13,112,1560052,,,,,,,2023-09-07,1,,,,,,0
2013,8011001156756,新規,0,2023-09-07,2023-09-07,株式会社マーク,,株式会社,東京都,渋谷区,西原１丁目６番６号朝日代々木上原マンション２０２,,13,113,1510066,,,,,,,2023-09-07,1,,,,,マーク,0
2014,8011001156789,新規,0,2023-09-07,2023-09-07,株式会社ＣＡＭＰＵＳ,,株式会社,東京都,渋谷区,千駄ヶ谷１丁目２２番６号松山ビル２階,,13,113,1510051,,,,,,,2023-09-07,1,,,,,キャンパス,0
2015,8011001156855,新規,0,2023-09-07,2023-09-07,株式会社ＥＭＲＴ,,株式会社,東京都,渋谷区,道玄坂１丁目１０番８号渋谷道玄坂東急ビル２Ｆ－Ｃ,,13,113,1500043,,,,,,,2023-09-07,1,,,,,イーエムアールティー,0
2016,8011001156863,新規,0,2023-09-07,2023-09-07,株式会社Ｂｌｕｅ　Ｓｐｒｉｎｇ　Ｗａｔｅｒ,,株式会社,東京都,渋谷区,神南１丁目１３番８号,,13,113,1500041,,,,,,,2023-09-07,1,,,,,ブルースプリングウォーター,0
2017,8011001156888,新規,0,2023-09-07,2023-09-07,福宝株式会社,,株式会社,東京都,目黒区,祐天寺１丁目１５番６号－３Ｂ,,13,110,1530052,,,,,,,2023-09-07,1,,,,,フクホウ,0
2018,8011001156905,新規,0,2023-09-07,2023-09-07,ＡＬＬ３株式会社,,株式会社,東京都,目黒区,青葉台１丁目２２番３号,,13,110,1530042,,,,,,,2023-09-07,1,,,,,オールスリー,0
2019,8011003017469,新規,0,2023-09-07,2023-09-07,合同会社チェーロ,,合同会社,東京都,目黒区,中町２丁目３７－１８,,13,110,1530065,,,,,,,2023-09-07,1,,,,,チェーロ,0
2020,8011003017502,新規,0,2023-09-07,2023-09-07,合同会社レオパルドアンドオンリー,,合同会社,東京都,渋谷区,神宮前６丁目１９番１５号高野第一ビル１０Ｂ,,13,113,1500001,,,,,,,2023-09-07,1,,,,,レオパルドアンドオンリー,0
2024,8011101104210,新規,0,2023-09-07,2023-09-07,フィールドステール株式会社,,株式会社,東京都,新宿区,西新宿３丁目３番１３号,,13,104,1600023,,,,,,,2023-09-07,1,,,,,フィールドステール,0
2025,8011101104219,新規,0,2023-09-07,2023-09-07,株式会社ブリス,,株式会社,東京都,新宿区,西新宿３丁目３番１３号西新宿水間ビル６階,,13,104,1600023,,,,,,,2023-09-07,1,,,,,ブリス,0
2026,8011101104235,新規,0,2023-09-07,2023-09-07,株式会社Ｖａｃａｎｚａ　Ａｃｃｅｓｓｏｒｙ,,株式会社,東京都,新宿区,西新宿２丁目６番１号,,13,104,1600023,,,,,,,2023-09-07,1,,,,,バカンザアクセサリー,0
2027,8011101104268,新規,0,2023-09-07,2023-09-07,株式会社トラストコンサルティング,,株式会社,東京都,新宿区,若松町９－１４パークハウス新宿若松町６０３,,13,104,1620056,,,,,,,2023-09-07,1,,,,,トラストコンサルティング,0
2033,8011603004049,新規,0,2023-09-07,2023-09-07,合同会社ＩＮＦＩＮＩＴＹ,,合同会社,東京都,練馬区,大泉学園町５丁目１１番３５号ボンヌ・ジュルネＥ０４,,13,120,1780061,,,,,,,2023-09-07,1,,,,,インフィニティ,0
2038,8012301013580,新規,0,2023-09-07,2023-09-07,株式会社ＶＥＲＴＥＣＨ　ＳＯＬＵＴＩＯＮＳ,,株式会社,東京都,町田市,原町田４丁目１１番１４号コロンブスビル３階,,13,209,1940013,,,,,,,2023-09-07,1,,,,,ヴァーテックソリューションズ,0
2044,8012701017826,新規,0,2023-09-07,2023-09-07,センスオブファン株式会社,,株式会社,東京都,東久留米市,八幡町１丁目１番５７号,,13,222,2030042,,,,,,,2023-09-07,1,,,,,センスオブファン,0
2045,8012805003219,新規,0,2023-09-07,2023-09-07,医療法人社団寿蹊会,,その他の設立登記法人,東京都,立川市,若葉町４丁目２５番地１号１階１０１号室,,13,202,1900001,,,,,,,2023-09-07,1,,,,,ジュケイカイ,0
2047,8013305003510,新規,0,2023-09-07,2023-09-07,医療法人社団福盛会,,その他の設立登記法人,東京都,豊島区,南大塚２丁目４１番１０号河野ビルＡ棟２階,,13,116,1700005,,,,,,,2023-09-07,1,,,,,フクモリカイ,0
2057,8020001153325,新規,0,2023-09-07,2023-09-07,匠斗溶研株式会社,,株式会社,神奈川県,川崎市川崎区,小田栄２丁目１番８－１７０９号,,14,131,2100843,,,,,,,2023-09-07,1,,,,,タクトヨウケン,0
2058,8020001153341,新規,0,2023-09-07,2023-09-07,株式会社サイドピークス,,株式会社,神奈川県,横浜市鶴見区,駒岡３丁目１４番２９号,,14,101,2300071,,,,,,,2023-09-07,1,,,,,サイドピークス,0
2059,8020001153382,新規,0,2023-09-07,2023-09-07,株式会社太郎と次郎ＪＡＰＡＮ,,株式会社,神奈川県,横浜市港北区,新横浜１丁目２２番地２クリオ新横浜ザ・イースト８０４,,14,109,2220033,,,,,,,2023-09-07,1,,,,,タロウトジロウジャパン,0
2060,8020001153390,新規,0,2023-09-07,2023-09-07,株式会社アウフヘーベン,,株式会社,神奈川県,横浜市都筑区,茅ケ崎中央１０－１３カーサアマール２０１号,,14,118,2240032,,,,,,,2023-09-07,1,,,,,アウフヘーベン,0
2065,8020003024524,新規,0,2023-09-07,2023-09-07,レアツェブ合同会社,,合同会社,神奈川県,横浜市港南区,日野２丁目３番１４号,,14,111,2340051,,,,,,,2023-09-07,1,,,,,レアツェブ,0
2075,8021001080088,新規,0,2023-09-07,2023-09-07,株式会社ＡＷＡＢＩＹＡホールディングス,,株式会社,神奈川県,小田原市,早川１丁目４番地１０,,14,206,2500021,,,,,,,2023-09-07,1,,,,,アワビヤホールディングス,0
2094,8040001129926,新規,0,2023-09-07,2023-09-07,トヤマ管理株式会社,,株式会社,千葉県,長生郡睦沢町,佐貫１８３１番地,,12,422,2994425,,,,,,,2023-09-07,1,,,,,トヤマカンリ,0
2095,8040001129934,新規,0,2023-09-07,2023-09-07,株式会社トチタテ,,株式会社,千葉県,木更津市,請西３丁目１番１８号,,12,206,2920801,,,,,,,2023-09-07,1,,,,,トチタテ,0
2096,8040001129942,新規,0,2023-09-07,2023-09-07,株式会社ＡＲＩＧＡＴＯ,,株式会社,千葉県,千葉市中央区,松波１丁目４番２－３号,,12,101,2600044,,,,,,,2023-09-07,1,,,,,アリガトウ,0
2097,8040001129950,新規,0,2023-09-07,2023-09-07,株式会社エイトシフト,,株式会社,千葉県,千葉市若葉区,愛生町１２６番地１３,,12,104,2640031,,,,,,,2023-09-07,1,,,,,エイトシフト,0
2098,8040001129983,新規,0,2023-09-07,2023-09-07,株式会社矢嶋興業,,株式会社,千葉県,松戸市,高塚新田５６８番地の３９,,12,207,2702222,,,,,,,2023-09-07,1,,,,,ヤジマコウギョウ,0
2102,8040003023243,新規,0,2023-09-07,2023-09-07,合同会社えがお,,合同会社,千葉県,佐倉市,田町１６番地１８,,12,212,2850012,,,,,,,2023-09-07,1,,,,,エガオ,0
2103,8050001053448,新規,0,2023-09-07,2023-09-07,株式会社知雪,,株式会社,茨城県,那珂市,戸４６９２番３０６号,,08,226,3110122,,,,,,,2023-09-07,1,,,,,トモユキ,0
2106,8070001040824,新規,0,2023-09-07,2023-09-07,株式会社ベストフード,,株式会社,群馬県,高崎市,連雀町２５番地寿ビル１Ｆ,,10,202,3700826,,,,,,,2023-09-07,1,,,,,ベストフード,0
2107,8070001040832,新規,0,2023-09-07,2023-09-07,株式会社グリーン・サーキュラー・ファクトリー,,株式会社,群馬県,高崎市,栄町１番１号,,10,202,3700841,,,,,,,2023-09-07,1,,,,,グリーンサーキュラーファクトリー,0
2108,8070001040840,新規,0,2023-09-07,2023-09-07,株式会社ＨＲ　Ｃｏｎｎｅｃｔ,,株式会社,群馬県,伊勢崎市,鹿島町６２６－２６－１ヴィラカシマＢ１０２号室,,10,204,3720015,,,,,,,2023-09-07,1,,,,,エイチアールコネクト,0
2109,8070001040849,新規,0,2023-09-07,2023-09-07,Ｋ‐ＳＹＯ株式会社,,株式会社,群馬県,前橋市,下小出町３丁目２３番地５,,10,201,3710031,,,,,,,2023-09-07,1,,,,,ケイショー,0
2115,8080403004855,新規,0,2023-09-07,2023-09-07,合同会社ｍａｋｅ,,合同会社,静岡県,御前崎市,池新田２２５１－１,,22,223,4371612,,,,,,,2023-09-07,1,,,,,メイク,0
2116,8100001036760,新規,0,2023-09-07,2023-09-07,株式会社創進建設,,株式会社,長野県,長野市,大字鶴賀上千歳町１１３７番地２３ＢＰＮ,,20,201,3800821,,,,,,,2023-09-07,1,,,,,ソウシンケンセツ,0
2129,8120001257603,新規,0,2023-09-07,2023-09-07,安通株式会社,,株式会社,大阪府,大阪市阿倍野区,松崎町２丁目１５２－１２,,27,119,5450053,,,,,,,2023-09-07,1,,,,,アンツウ,0
2130,8120001257883,新規,0,2023-09-07,2023-09-07,株式会社Ｂｅｌｌａｆｉｎｅ,,株式会社,大阪府,大阪市生野区,林寺５丁目１０番９号,,27,116,5440023,,,,,,,2023-09-07,1,,,,,ベラフィーヌ,0
2131,8120001257909,新規,0,2023-09-07,2023-09-07,株式会社ソール,,株式会社,大阪府,大阪市中央区,北浜３丁目５番２２号オリックス淀屋橋ビル３階３０２号,,27,128,5410041,,,,,,,2023-09-07,1,,,,,ソール,0
2136,8120003024844,新規,0,2023-09-07,2023-09-07,合同会社ＳＹソーシャルサービス,,合同会社,大阪府,大阪市東淀川区,上新庄３丁目１８番２１号,,27,114,5330006,,,,,,,2023-09-07,1,,,,,エスワイソーシャルサービス,0
2137,8120003024852,新規,0,2023-09-07,2023-09-07,合同会社ＣＡＲＡ　Ｐｈａｒｍａ,,合同会社,大阪府,大阪市鶴見区,放出東３丁目２１－４０ローレルコート放出２０５,,27,124,5380044,,,,,,,2023-09-07,1,,,,,キャラファーマ,0
2138,8120005023869,新規,0,2023-09-07,2023-09-07,社会保険労務士法人リラブル,,その他の設立登記法人,大阪府,大阪市中央区,農人橋２丁目１－３１第６松屋ビル６２７号室,,27,128,5400011,,,,,,,2023-09-07,1,,,,,リラブル,0
2140,8120101068173,新規,0,2023-09-07,2023-09-07,株式会社ＭＫ　ＴＲＡＤＩＮＧ,,株式会社,大阪府,富田林市,大字伏見堂７番１,,27,214,5840055,,,,,,,2023-09-07,1,,,,,エムケートレーディング,0
2145,8130001075145,新規,0,2023-09-07,2023-09-07,株式会社アタバ,,株式会社,京都府,京都市左京区,下鴨東岸本町１９番地,,26,103,6060854,,,,,,,2023-09-07,1,,,,,アタバ,0
2155,8140001131450,新規,0,2023-09-07,2023-09-07,株式会社アスライズ,,株式会社,兵庫県,神戸市長田区,川西通５丁目１０３番地の３,,28,106,6530834,,,,,,,2023-09-07,1,,,,,アスライズ,0
2156,8140001131467,新規,0,2023-09-07,2023-09-07,Ｕｎｉｖｅｒｓａｌ　Ｈａｎｄｓ株式会社,,株式会社,兵庫県,神戸市中央区,東川崎町１丁目８番４号神戸市産業振興センター５階,,28,110,6500044,,,,,,,2023-09-07,1,,,,,ユニバーサルハンズ,0
2157,8140001131483,新規,0,2023-09-07,2023-09-07,株式会社山田建装,,株式会社,兵庫県,神戸市西区,岩岡町岩岡６１６番地の２３７,,28,111,6512401,,,,,,,2023-09-07,1,,,,,ヤマダケンソウ,0
2159,8140003019512,新規,0,2023-09-07,2023-09-07,ＳＳＥ合同会社,,合同会社,兵庫県,神戸市垂水区,多聞台２丁目１番１号,,28,108,6550007,,,,,,,2023-09-07,1,,,,,エスエスイー,0
2160,8140005026738,新規,0,2023-09-07,2023-09-07,一般社団法人訪問わんこＫｏｍｕｇｉ,,その他の設立登記法人,兵庫県,宝塚市,高松町９番４号,,28,214,6650043,,,,,,,2023-09-07,1,,,,,,0
2162,8150001026699,新規,0,2023-09-07,2023-09-07,株式会社Ｎａｓｅｖａ,,株式会社,奈良県,橿原市,久米町５７６番地コスモビル３Ｆ,,29,205,6340063,,,,,,,2023-09-07,1,,,,,ナセバ,0
2170,8180001157863,新規,0,2023-09-07,2023-09-07,株式会社リバース,,株式会社,愛知県,名古屋市守山区,大森４丁目３０１番地の１,,23,113,4630021,,,,,,,2023-09-07,1,,,,,リバース,0
2171,8180001157938,新規,0,2023-09-07,2023-09-07,株式会社ＮＧＯ,,株式会社,愛知県,名古屋市中区,栄５丁目２６番３９号ＧＳ栄ビル３Ｆ,,23,106,4600008,,,,,,,2023-09-07,1,,,,,エヌジーオー,0
2176,8180301037781,新規,0,2023-09-07,2023-09-07,抜水＆ラナ株式会社,,株式会社,愛知県,岡崎市,日名西町１０番地４ＦｌｏｗｅｒＢｌｄｇ２Ｆ,,23,202,4440917,,,,,,,2023-09-07,1,,,,,ヌキミズアンドラナ,0
2178,8180305009505,新規,0,2023-09-07,2023-09-07,一般社団法人全日本畳生活普及協会,,その他の設立登記法人,愛知県,豊川市,代田町１丁目１６番地１０,,23,207,4420841,,,,,,,2023-09-07,1,,,,,ゼンニホンタタミセイカツフキュウキョウカイ,0
2185,8200001041692,新規,0,2023-09-07,2023-09-07,株式会社岐々志,,株式会社,岐阜県,可児郡御嵩町,御嵩２４１１番地１,,21,521,5050116,,,,,,,2023-09-07,1,,,,,キギシ,0
2188,8210001019449,新規,0,2023-09-07,2023-09-07,株式会社ＰｌｕｓＡＩ,,株式会社,福井県,福井市,文京６丁目１０番４号,,18,201,9100017,,,,,,,2023-09-07,1,,,,,プラスエーアイ,0
2189,8210001019457,新規,0,2023-09-07,2023-09-07,株式会社ＭＫ,,株式会社,福井県,福井市,みのり４丁目９番３７号,,18,201,9188005,,,,,,,2023-09-07,1,,,,,エムケイ,0
2194,8230003002079,新規,0,2023-09-07,2023-09-07,合同会社Ｓａｌｏｎ　Ｄｉｏｓａｓ,,合同会社,富山県,富山市,布目１４１１番地６,,16,201,9302233,,,,,,,2023-09-07,1,,,,,サロンディオサス,0
2197,8240001062099,新規,0,2023-09-07,2023-09-07,新川ホールディングカンパニー株式会社,,株式会社,広島県,広島市中区,中町８番１２号広島グリーンビル７階,,34,101,7300037,,,,,,,2023-09-07,1,,,,,シンカワホールディングスカンパニー,0
2199,8240005015648,新規,0,2023-09-07,2023-09-07,医療法人安心会,,その他の設立登記法人,広島県,広島市安佐南区,西原７丁目８番３８号,,34,105,7310113,,,,,,,2023-09-07,1,,,,,アンシンカイ,0
2202,8250005008857,新規,0,2023-09-07,2023-09-07,ＹＫ社会保険労務士法人,,その他の設立登記法人,山口県,山口市,矢原６４２番地２６,,35,203,7530861,,,,,,,2023-09-07,1,,,,,ワイケイ,0
2205,8270005005563,新規,0,2023-09-07,2023-09-07,一般社団法人日本ドローン海岸漂着ごみ回収事業推進協会,,その他の設立登記法人,鳥取県,倉吉市,岡２０番地１０,,31,203,6820645,,,,,,,2023-09-07,1,,,,,ニホンドローンカイガンヒョウチャクゴミカイシュウジギョウスイシンキョウカイ,0
2210,8290001102882,新規,0,2023-09-07,2023-09-07,株式会社ナナコロ,,株式会社,福岡県,三井郡大刀洗町,大字上高橋７９３番地５,,40,503,8301222,,,,,,,2023-09-07,1,,,,,ナナコロ,0
2211,8290001102890,新規,0,2023-09-07,2023-09-07,株式会社Ｓｏｄａｌｉｔｅ,,株式会社,福岡県,福岡市博多区,博多駅前１丁目２３番２号ＰａｒｋＦｒｏｎｔ博多駅前１丁目５Ｆ－Ｂ,,40,132,8120011,,,,,,,2023-09-07,1,,,,,ソーダライト,0
2212,8290001102908,新規,0,2023-09-07,2023-09-07,株式会社ジェイウェイブホールディングス準備会社,,株式会社,福岡県,福津市,中央６丁目８番地５ウィンドブレイク２Ｆ,,40,224,8113217,,,,,,,2023-09-07,1,,,,,ジェイウェイブホールディングスジュンビガイシャ,0
2213,8290001102949,新規,0,2023-09-07,2023-09-07,株式会社ＭＩＹＵＫＩＨＯＵＳＥ,,株式会社,福岡県,春日市,若葉台東２丁目１２３番地,,40,218,8160821,,,,,,,2023-09-07,1,,,,,ミユキハウス,0
2214,8290001102957,新規,0,2023-09-07,2023-09-07,株式会社ＭＯＲＡＫＵ,,株式会社,福岡県,福岡市東区,馬出１丁目２番２３号,,40,131,8120054,,,,,,,2023-09-07,1,,,,,モラク,0
2215,8290003014309,新規,0,2023-09-07,2023-09-07,合同会社カラービジネスラボ,,合同会社,福岡県,福岡市南区,大平寺２丁目３番１８号,,40,134,8111354,,,,,,,2023-09-07,1,,,,,カラービジネスラボ,0
2216,8290003014333,新規,0,2023-09-07,2023-09-07,ＲＳ合同会社,,合同会社,福岡県,福岡市博多区,中洲２丁目４番２０号第２１ポールスタービル２階,,40,132,8100801,,,,,,,2023-09-07,1,,,,,アールエス,0
2218,8290801029862,新規,0,2023-09-07,2023-09-07,株式会社岩元通信,,株式会社,福岡県,北九州市小倉北区,平松町８番１３号,,40,106,8030832,,,,,,,2023-09-07,1,,,,,イワモトツウシン,0
2223,8330001031219,新規,0,2023-09-07,2023-09-07,株式会社ＳＡＮＫＩサービス,,株式会社,熊本県,熊本市東区,長嶺南５丁目３番２号,,43,102,8618039,,,,,,,2023-09-07,1,,,,,サンキサービス,0
2224,8330001031227,新規,0,2023-09-07,2023-09-07,株式会社Ｔｒｉａｎｇｏｌｏ,,株式会社,熊本県,熊本市東区,小山５丁目１９番４３号,,43,102,8618045,,,,,,,2023-09-07,1,,,,,トリアンゴロ,0
2225,8330001031235,新規,0,2023-09-07,2023-09-07,橋本重機株式会社,,株式会社,熊本県,熊本市北区,龍田陳内２丁目３０番３９号,,43,105,8618005,,,,,,,2023-09-07,1,,,,,ハシモトジュウキ,0
2232,8370003006272,新規,0,2023-09-07,2023-09-07,合同会社サンエル,,合同会社,宮城県,名取市,高舘熊野堂字今成西３７番地,,04,207,9811241,,,,,,,2023-09-07,1,,,,,サンエル,0
2235,8380001033953,新規,0,2023-09-07,2023-09-07,東日本トータルアシスト株式会社,,株式会社,福島県,郡山市,鶴見坦３丁目１６番１９号,,07,203,9638861,,,,,,,2023-09-07,1,,,,,ヒガシニホントータルアシスト,0
2237,8390001017369,新規,0,2023-09-07,2023-09-07,株式会社たかはし,,株式会社,山形県,米沢市,信夫町４番４５号,,06,202,9920046,,,,,,,2023-09-07,1,,,,,タカハシ,0
2241,8420001018396,新規,0,2023-09-07,2023-09-07,安藤建装株式会社,,株式会社,青森県,青森市,大字浜田字玉川５１番地１３,,02,201,0300843,,,,,,,2023-09-07,1,,,,,アンドウケンソウ,0
2242,8420001018405,新規,0,2023-09-07,2023-09-07,株式会社ＫＨＡＴＡＮＡ　ＴＲＡＤＩＮＧ,,株式会社,青森県,つがる市,木造善積藤田８番地,,02,209,0383271,,,,,,,2023-09-07,1,,,,,カタナトレーディング,0
2243,8420003002794,新規,0,2023-09-07,2023-09-07,合同会社中村工務店,,合同会社,青森県,上北郡おいらせ町,緑ヶ丘４丁目８３番地５２,,02,412,0392187,,,,,,,2023-09-07,1,,,,,ナカムラコウムテン,0
2244,8430001089924,新規,0,2023-09-07,2023-09-07,株式会社野村設備,,株式会社,北海道,札幌市北区,新琴似十一条１１丁目１０番１６号,,01,102,0010911,,,,,,,2023-09-07,1,,,,,ノムラセツビ,0
2258,8700150115040,新規,0,2023-09-07,2023-09-07,ｎｉｎｇ　ｂｏ　ｂａｉ　ｎｉａｎ　ｄｉａｎ　ｑｉ　ｙｏｕ　ｘｉａｎ　ｇｏｎｇ　ｓｉ,,外国会社等,,,,,,,,Ｂｉｎｈａｉ　３ｒｄ　Ｒｏａｄ　ａｎｄ　Ｘｉｎｇｃｉ　６ｔｈ　Ｒｏａｄ　Ｗｅｓｔ，Ｃｉｘｉ　Ｃｉｔｙ　Ｈａｎｇｚｈｏｕ　Ｂａｙ　Ｎｅｗ　Ａｒｅａ　Ｎｉｎｇｂｏ　Ｚｈｅｊｉａｎｇ　３１５３００　ＣＮ,,,,,,2023-09-07,1,,,,,ニンボーバイニェンディエンチーヨウシェンゴンス,0
2259,8700150119900,新規,0,2023-09-07,2023-09-07,Ｂｏｘｓｏｍ　Ｔｅｃｈｎｏｌｏｇｙ　Ｃｏ．，Ｌｉｍｉｔｅｄ,,外国会社等,,,,,,,,ＦＬＡＴ／ＲＭ　Ａ１７，２９／Ｆ，ＬＥＧＥＮＤ　ＴＯＷＥＲ　ＮＯ．７　ＳＨＩＮＧ　ＹＩＰ　ＳＴＲＥＥＴ，ＫＷＵＮ　ＴＯＮＧ，ＫＯＷＬＯＯＮ　ＨＯＮＧ　ＫＯＮＧ　９９９０７７　ＨＫ,,,,,,2023-09-07,1,,,,,ボーゾンコージーヨウシエンゴンスー,0
2260,8700150119909,新規,0,2023-09-07,2023-09-07,ＧＵＡＮＧＺＨＯＵ　ＷＡＮＧＣＨＥＮＧ　ＫＥＪＩ　ＹＯＵＸＩＡＮＧＯＮＧＳＩ,,外国会社等,,,,,,,,ｘｉｎ　ｘｉｎ　７　ｌｕ　２９９　ｈａｏ　ｃｈｏｎｇ　ｈｅ　ｈｕａ　ｙｕａｎ　２　ｚｈｕａｎｇ　１０　ｈａｏ　ｇｕａｎｇ　ｚｈｏｕ　ｓｈｉ　ｚｅｎｇ　ｃｈｅｎｇ　ｑｕ　ｙｏｎｇ　ｎｉｎｇ　ｊｉｅ　ｇｕａｎｇ　ｄｏｎｇ　ｓｈｅｎｇ　　　　,,,,,,2023-09-07,1,,,,,コウシュウモウセイカギユウゲンコウシ,0
2261,8700150119917,新規,0,2023-09-07,2023-09-07,ｓｈｅｎｚｈｅｎｓｈｉ　ｘｉｎｓｉｌｕｓｈａｎｇｍａｏ　ｙｏｕｘｉａｎｇｏｎｇｓｉ,,外国会社等,,,,,,,,Ｓｈｅｎｚｈｅｎｓｈｉ　ｂａｏａｎｑｕ　ｘｉｎａｎｊｉｅｄａｏ４２ｑｕｂａｏａｎｄａｄａｏ　ｈｕａｃｈｕａｎｇｄａｚｈｏｎｇｘｉｎｓｈａｎｇｗｕｄａｓｈａＤｚｕｏ２０２,,,,,,2023-09-07,1,,,,,シンセンシシンシルシァンマオユウゲンコウシ,0
2262,8700150119925,新規,0,2023-09-07,2023-09-07,ｙｕｎｃｈｅｎｇｓｈｉｙａｎｈｕｑｕ　ｆｅｎｇｊｉｅｘｉｎｇｄｉａｎｚｉｓｈａｎｇｗｕ　Ｃｏ．Ｌｔｄ．,,外国会社等,,,,,,,,ＰｕａｎＳｔｒｅｅｔＳａｌｔＬａｋｅＤｉｓｔｒｉｃｔＲｏｏｍ５０２Ｕｎｉｔ２Ｂｕｉｌｄｉｎｇ１２ＨｕａｉｄｏｎｇＧａｒｄｅｎＣｏｍｍｕｎｉｔｙ　Ｙｕｎｃｈｅｎｇ　ＳｈａｎｘｉＰｒｏｖｉｎｃｅ,,,,,,2023-09-07,1,,,,,ウンジョウシエンコクフンジエシンデンシショウムカンパニーリミテッド,0
2263,8700150119933,新規,0,2023-09-07,2023-09-07,Ｇｕｉｌｉｎｓｈｉ　Ｊｉｅｒｕｉｃｈｕａｎｇａｎｊｉｓｈｕｙｏｕｘｉａｎｇｏｎｇｓｉ,,外国会社等,,,,,,,,ＱｉｘｉｎｇｑｕＹｉｆｅｎｇｎａｎｌｕ５ＨａｏＧｕｉｌｉｎｓｈｉＨｕａｔｏｎｇｙｉｙｏｎｇｙｉｑｉｙｏｕｘｉａｎｇｏｎｇｓｉＺｏｎｇｈｅｌｏｕＳｉｃｅｎｇ　Ｇｕｉｌｉｎ,,,,,,2023-09-07,1,,,,,ケイリンシジエルイツアンガンギジュツユウゲンコウシ,0
2264,8700150119941,新規,0,2023-09-07,2023-09-07,ＮＡＮＪＩＮＧ　ＷＥＩＺＨＩＣＨＵＡＮＧ　ＤＩＡＮＺＩＳＨＡＮＧＷＵ　ＹＯＵＸＩＡＮＧＯＮＧＳＩ,,外国会社等,,,,,,,,Ｎａｎｊｉｎｇｓｈｉ　Ｊｉａｎｇｂｅｉｘｉｎｑｕ　Ｄａｃｈａｎｇｊｉｅｄａｏ　Ｘｉｎｇｄａｌｕ　８８Ｈａｏ　３２７Ｓｈｉ　Ｎａｎｊｉｎｇ　Ｊｉａｎｇｓｕ,,,,,,2023-09-07,1,,,,,ナンジンウェイジーチュワンディエンズーシャンウーヨウシエンゴンスー,0
2269,9010003041610,新規,0,2023-09-07,2023-09-07,Ｍｏｋｕｌｅｌｅ合同会社,,合同会社,東京都,千代田区,麹町１丁目８－１４,,13,101,1020083,,,,,,,2023-09-07,1,,,,,モクルル,0
2270,9010005037202,新規,0,2023-09-07,2023-09-07,一般社団法人ビジネス・アクション・クラブ,,その他の設立登記法人,東京都,中央区,銀座１丁目２２番１１号銀座大竹ビジデンス２Ｆ,,13,102,1040061,,,,,,,2023-09-07,1,,,,,ビジネスアクションクラブ,0
2271,9010005037219,新規,0,2023-09-07,2023-09-07,医療法人社団ＭＯＴＩＦ,,その他の設立登記法人,東京都,中央区,銀座１丁目７番６号銀座河合ビル４階,,13,102,1040061,,,,,,,2023-09-07,1,,,,,モティーフ,0
2278,9010401176537,新規,0,2023-09-07,2023-09-07,株式会社クローバー４,,株式会社,東京都,港区,南青山２丁目２番１５号ウィン青山９４２,,13,103,1070062,,,,,,,2023-09-07,1,,,,,クローバーフォー,0
2279,9010401176958,新規,0,2023-09-07,2023-09-07,株式会社モジトイロ,,株式会社,東京都,港区,北青山１丁目３番１号アールキューブ青山３階,,13,103,1070061,,,,,,,2023-09-07,1,,,,,モジトイロ,0
2283,9010503007152,新規,0,2023-09-07,2023-09-07,ＧＧ　Ｐｌａｎｎｉｎｇ合同会社,,合同会社,東京都,台東区,池之端１丁目４番地３３号２５０１号室,,13,106,1100008,,,,,,,2023-09-07,1,,,,,ジージープランニング,0
2286,9010801034311,新規,0,2023-09-07,2023-09-07,株式会社トエックスダイニング,,株式会社,東京都,大田区,西蒲田８丁目１番１０号ＦＫ蒲田ビル２階,,13,111,1440051,,,,,,,2023-09-07,1,,,,,トエックスダイニング,0
2288,9010901053797,新規,0,2023-09-07,2023-09-07,株式会社ｒｉｄｅ　ａｒｏｕｎｄ,,株式会社,東京都,世田谷区,代沢４丁目４０番１０号,,13,112,1550032,,,,,,,2023-09-07,1,,,,,ライドアラウンド,0
2292,9011001156656,新規,0,2023-09-07,2023-09-07,株式会社Ｅｌｌｉｓ　Ａｄｖｉｓｏｒｓ,,株式会社,東京都,目黒区,大橋２丁目２３－１７,,13,110,1530044,,,,,,,2023-09-07,1,,,,,エリスアドバイザーズ,0
2293,9011001156771,新規,0,2023-09-07,2023-09-07,株式会社ＤｏＤｏＮＰＡ,,株式会社,東京都,目黒区,目黒本町４丁目１５番９号,,13,110,1520002,,,,,,,2023-09-07,1,,,,,ドドンパ,0
2294,9011001156788,新規,0,2023-09-07,2023-09-07,ＴＯＫＹＯ　ＲＡＶＥ　ＡＧＥＮＣＹ株式会社,,株式会社,東京都,渋谷区,円山町３番１号小木曽ビル３Ｆ,,13,113,1500044,,,,,,,2023-09-07,1,,,,,トウキョウレイブエージェンシー,0
2295,9011001156805,新規,0,2023-09-07,2023-09-07,株式会社ｐｅｌｖｉｓ　ｍａｋｅ,,株式会社,東京都,渋谷区,桜丘町１５番８号高木産業会館２０５,,13,113,1500031,,,,,,,2023-09-07,1,,,,,ペルヴィスメイク,0
2296,9011005010207,新規,0,2023-09-07,2023-09-07,特定非営利活動法人ＰＵＲＰＬＥ　ＨＥＡＲＴ　ＰＲＯＪＥＣＴＳ,,その他の設立登記法人,東京都,渋谷区,広尾４丁目２番２０号オープンレジデンシア広尾ザ・ハウスＳｏｕｔｈＣｏｕｒｔ３１１,,13,113,1500012,,,,,,,2023-09-07,1,,,,,パープルハートプロジェクツ,0
2299,9011101104226,新規,0,2023-09-07,2023-09-07,株式会社プラスワン,,株式会社,東京都,新宿区,北新宿３丁目４番１３号第２美孝ハイツ２１３,,13,104,1690074,,,,,,,2023-09-07,1,,,,,プラスワン,0
2300,9011101104250,新規,0,2023-09-07,2023-09-07,里楽株式会社,,株式会社,東京都,新宿区,西五軒町７番１２プラティーク神楽坂１０１号,,13,104,1620812,,,,,,,2023-09-07,1,,,,,リラク,0
2301,9011101104275,新規,0,2023-09-07,2023-09-07,ＨＳＡＥ　ＪＡＰＡＮ株式会社,,株式会社,東京都,新宿区,西新宿１丁目２５番１号新宿センタービル４９階,,13,104,1600023,,,,,,,2023-09-07,1,,,,,エイチエスエーイージャパン,0
2303,9011103013441,新規,0,2023-09-07,2023-09-07,合同会社グリーン,,合同会社,東京都,新宿区,矢来町９４番地３,,13,104,1620805,,,,,,,2023-09-07,1,,,,,グリーン,0
2305,9011201024885,新規,0,2023-09-07,2023-09-07,Ｓｔｏｒｋ　Ｓｑｕａｒｅ株式会社,,株式会社,東京都,中野区,中野４丁目１０番２号中野セントラルパークサウス棟２階,,13,114,1640001,,,,,,,2023-09-07,1,,,,,ストークスクエア,0
2310,9011603004048,新規,0,2023-09-07,2023-09-07,合同会社錦,,合同会社,東京都,練馬区,関町北５丁目６番７号関町マンション４０１Ｇ,,13,120,1770051,,,,,,,2023-09-07,1,,,,,ニシキ,0
2313,9012305002059,新規,0,2023-09-07,2023-09-07,税理士法人のぼる,,その他の設立登記法人,東京都,町田市,中町１丁目４番１３号,,13,209,1940021,,,,,,,2023-09-07,1,,,,,ノボル,0
2317,9012701017825,新規,0,2023-09-07,2023-09-07,株式会社ジャパン・インベスター・インターフェース,,株式会社,東京都,東村山市,本町３丁目１４－９０,,13,213,1890014,,,,,,,2023-09-07,1,,,,,ジャパンインベスターインターフェース,0
2332,9013303006786,新規,0,2023-09-07,2023-09-07,Ｃｏｎｖｉｖｉ合同会社,,合同会社,東京都,豊島区,目白４丁目１０番２３号,,13,116,1710031,,,,,,,2023-09-07,1,,,,,コンビビ,0
2338,9020001153340,新規,0,2023-09-07,2023-09-07,株式会社アット・イット,,株式会社,神奈川県,横浜市港北区,綱島上町１番地１グリーンサラウンドシティ参番街８１２,,14,109,2230055,,,,,,,2023-09-07,1,,,,,アットイット,0
2339,9020001153365,新規,0,2023-09-07,2023-09-07,株式会社Ｍａｍｍｙ,,株式会社,神奈川県,横浜市中区,初音町１丁目９番地１０３号室,,14,104,2310053,,,,,,,2023-09-07,1,,,,,マミー,0
2344,9020003024523,新規,0,2023-09-07,2023-09-07,合同会社ＢＦＡ,,合同会社,神奈川県,川崎市中原区,宮内３丁目２３番５号,,14,133,2110051,,,,,,,2023-09-07,1,,,,,ビーエフエー,0
2345,9020003024531,新規,0,2023-09-07,2023-09-07,エンメロウ合同会社,,合同会社,神奈川県,川崎市中原区,新丸子東３丁目１１００番地１２Ｍ３９０１,,14,133,2110004,,,,,,,2023-09-07,1,,,,,エンメロウ,0
2347,9020005016114,新規,0,2023-09-07,2023-09-07,弁護士法人立川・及川・野竹法律事務所,,その他の設立登記法人,神奈川県,横浜市中区,本町１丁目３番地綜通横浜ビル８階,,14,104,2310005,,,,,,,2023-09-07,1,,,,,タチカワオイカワノタケホウリツジムショ,0
2350,9021001080087,新規,0,2023-09-07,2023-09-07,株式会社アフィット,,株式会社,神奈川県,座間市,入谷西２丁目１０番２８号,,14,216,2520029,,,,,,,2023-09-07,1,,,,,アフィット,0
2360,9030003022526,新規,0,2023-09-07,2023-09-07,合同会社ゴールドイン東京,,合同会社,埼玉県,さいたま市北区,奈良町２０番地２０,,11,102,3310822,,,,,,,2023-09-07,1,,,,,ゴールドイントウキョウ,0
2367,9040001129917,新規,0,2023-09-07,2023-09-07,株式会社松丸プラント,,株式会社,千葉県,銚子市,笠上町５５７０番地の５,,12,202,2880004,,,,,,,2023-09-07,1,,,,,マツマルプラント,0
2368,9040001129925,新規,0,2023-09-07,2023-09-07,株式会社樋口溶工,,株式会社,千葉県,佐倉市,染井野６丁目１６番地７－２０２,,12,212,2850831,,,,,,,2023-09-07,1,,,,,ヒグチヨウコウ,0
2369,9040001129933,新規,0,2023-09-07,2023-09-07,株式会社宙楼堂,,株式会社,千葉県,鎌ケ谷市,初富本町２丁目１０番６－１号,,12,224,2730125,,,,,,,2023-09-07,1,,,,,チュウロウドウ,0
2370,9040001129958,新規,0,2023-09-07,2023-09-07,株式会社ＲＳエステート,,株式会社,千葉県,市原市,五井西２丁目１６番地１７,,12,219,2900038,,,,,,,2023-09-07,1,,,,,アールエスエステート,0
2371,9040001129966,新規,0,2023-09-07,2023-09-07,千豊商事株式会社,,株式会社,千葉県,佐倉市,上志津原３１４番地４,,12,212,2850844,,,,,,,2023-09-07,1,,,,,センホウショウジ,0
2372,9040001129982,新規,0,2023-09-07,2023-09-07,株式会社イープロ,,株式会社,千葉県,船橋市,東船橋２丁目６番１６号,,12,204,2730002,,,,,,,2023-09-07,1,,,,,イープロ,0
2373,9040001129990,新規,0,2023-09-07,2023-09-07,株式会社栗野商事,,株式会社,千葉県,柏市,旭町１丁目１０番２号深澤ビル４Ｆ,,12,217,2770852,,,,,,,2023-09-07,1,,,,,クリノショウジ,0
2382,9050001053397,新規,0,2023-09-07,2023-09-07,エムエス・シーケンス株式会社,,株式会社,茨城県,つくばみらい市,筒戸２２３３番地２６,,08,235,3002435,,,,,,,2023-09-07,1,,,,,エムエスシーケンス,0
2383,9050001053439,新規,0,2023-09-07,2023-09-07,株式会社Ｏｎｅ　ｌｅａｆ,,株式会社,茨城県,小美玉市,羽鳥２７３８番地の１３８,,08,236,3190123,,,,,,,2023-09-07,1,,,,,ワンリーフ,0
2385,9050003007772,新規,0,2023-09-07,2023-09-07,アルタイズム合同会社,,合同会社,茨城県,水戸市,平須町１８２８番地１９２平須ビル２０６号室,,08,201,3100853,,,,,,,2023-09-07,1,,,,,アルタイズム,0
2386,9070003005089,新規,0,2023-09-07,2023-09-07,合同会社エシェルサービス,,合同会社,群馬県,高崎市,浜川町９７０番地１８,,10,202,3700081,,,,,,,2023-09-07,1,,,,,エシェルサービス,0
2389,9080001025848,新規,0,2023-09-07,2023-09-07,あおい設備株式会社,,株式会社,静岡県,静岡市葵区,瀬名中央１丁目８番３号－１Ｆ,,22,101,4200916,,,,,,,2023-09-07,1,,,,,アオイセツビ,0
2402,9100003007172,新規,0,2023-09-07,2023-09-07,合同会社あおきファーム,,合同会社,長野県,長野市,豊野町蟹沢１１４６番地１,,20,201,3891103,,,,,,,2023-09-07,1,,,,,アオキファーム,0
2418,9120001257809,新規,0,2023-09-07,2023-09-07,株式会社オラクルベリー,,株式会社,大阪府,門真市,宮前町１３番２号,,27,223,5710074,,,,,,,2023-09-07,1,,,,,オラクルベリー,0
2419,9120001257890,新規,0,2023-09-07,2023-09-07,株式会社ｂａｓｉｃｓ,,株式会社,大阪府,大阪市東淀川区,菅原１丁目３－５,,27,114,5330022,,,,,,,2023-09-07,1,,,,,ベーシックス,0
2420,9120001257908,新規,0,2023-09-07,2023-09-07,株式会社Ｓｉｒｉｕｓ,,株式会社,大阪府,大阪市中央区,北浜３丁目５番２２号オリックス淀屋橋ビル３階３０２号,,27,128,5410041,,,,,,,2023-09-07,1,,,,,シリウス,0
2424,9120005023868,新規,0,2023-09-07,2023-09-07,一般社団法人ＷａａｃｋｉｎｇＬＩＦＥ協会,,その他の設立登記法人,大阪府,大阪市北区,堂山町５－９扇会館屋上,,27,127,5300027,,,,,,,2023-09-07,1,,,,,ワッキングライフ,0
2428,9120101068172,新規,0,2023-09-07,2023-09-07,株式会社Ｒｅｚ工房,,株式会社,大阪府,泉佐野市,大宮町５番３号,,27,213,5980053,,,,,,,2023-09-07,1,,,,,アールイゼットコウボウ,0
2430,9120103005421,新規,0,2023-09-07,2023-09-07,合同会社プラグ,,合同会社,大阪府,岸和田市,尾生町７丁目２番１１号,,27,202,5960816,,,,,,,2023-09-07,1,,,,,プラグ,0
2431,9120105009759,新規,0,2023-09-07,2023-09-07,一般社団法人南河商会,,その他の設立登記法人,大阪府,富田林市,常盤町４番９－８０３号,,27,214,5840032,,,,,,,2023-09-07,1,,,,,ナンカショウカイ,0
2432,9120901048019,新規,0,2023-09-07,2023-09-07,ＹＣＭ株式会社,,株式会社,大阪府,高槻市,唐崎中４丁目１９番２１号,,27,207,5690832,,,,,,,2023-09-07,1,,,,,ワイシーエム,0
2440,9140001131466,新規,0,2023-09-07,2023-09-07,森匠株式会社,,株式会社,兵庫県,伊丹市,御願塚７丁目５番２４－１０２号,,28,207,6640855,,,,,,,2023-09-07,1,,,,,モリショウ,0
2441,9140001131474,新規,0,2023-09-07,2023-09-07,株式会社ノンナハウス建築設計事務所,,株式会社,兵庫県,神戸市須磨区,北落合２丁目１番１号,,28,107,6540151,,,,,,,2023-09-07,1,,,,,ノンナハウスケンチクセッケイジムショ,0
2459,9180001157895,新規,0,2023-09-07,2023-09-07,株式会社テイ・エム・シー,,株式会社,愛知県,小牧市,大字舟津１３３２番地６,,23,219,4850073,,,,,,,2023-09-07,1,,,,,テイエムシー,0
2462,9180003025712,新規,0,2023-09-07,2023-09-07,コキミカジ合同会社,,合同会社,愛知県,北名古屋市,九之坪北浦９７番地２,,23,234,4810041,,,,,,,2023-09-07,1,,,,,コキミカジ,0
2463,9180003025720,新規,0,2023-09-07,2023-09-07,合同会社山口投資研究所,,合同会社,愛知県,名古屋市中区,栄４丁目１２－１栄グリーンマンション４０３,,23,106,4600008,,,,,,,2023-09-07,1,,,,,ヤマグチトウシケンキュウショ,0
2464,9180005020348,新規,0,2023-09-07,2023-09-07,特定非営利活動法人Ｕ　ａｓｔｅｒ,,その他の設立登記法人,愛知県,名古屋市中村区,二ツ橋町１丁目６番１２号戸建２号棟,,23,105,4530813,,,,,,,2023-09-07,1,,,,,ユウアスター,0
2465,9180301037764,新規,0,2023-09-07,2023-09-07,住宅再生サービス株式会社,,株式会社,愛知県,豊橋市,西高師町字小谷９８番地６,,23,201,4418154,,,,,,,2023-09-07,1,,,,,ジュウタクサイセイサービス,0
2466,9180301037772,新規,0,2023-09-07,2023-09-07,Ｈｓ株式会社,,株式会社,愛知県,豊橋市,佐藤３丁目４番地１４,,23,201,4400853,,,,,,,2023-09-07,1,,,,,エイチズ,0
2467,9180301037789,新規,0,2023-09-07,2023-09-07,ハタスエネルギー株式会社,,株式会社,愛知県,刈谷市,熊野町４丁目７５番地１,,23,210,4480831,,,,,,,2023-09-07,1,,,,,ハタスエネルギー,0
2468,9180301037797,新規,0,2023-09-07,2023-09-07,株式会社松田工舎,,株式会社,愛知県,碧南市,笹山町１丁目４９番地５,,23,209,4470053,,,,,,,2023-09-07,1,,,,,,0
2469,9180303005827,新規,0,2023-09-07,2023-09-07,合同会社さかわ建築設計室,,合同会社,愛知県,豊川市,東曙町２４６番地キングスコート東曙１０３号,00131811,23,207,4420011,,,,,,,2023-09-07,1,,,,,サカワケンチクセッケイシツ,0
2476,9210001019456,新規,0,2023-09-07,2023-09-07,株式会社松井商事,,株式会社,福井県,福井市,足羽２丁目１２番１７号,,18,201,9188007,,,,,,,2023-09-07,1,,,,,マツイショウジ,0
2483,9240001062098,新規,0,2023-09-07,2023-09-07,フロンティア株式会社,,株式会社,広島県,福山市,加茂町大字下加茂１８５０番地,,34,207,7202412,,,,,,,2023-09-07,1,,,,,フロンティア,0
2486,9240005015639,新規,0,2023-09-07,2023-09-07,プッシュアップ社会保険労務士法人,,その他の設立登記法人,広島県,世羅郡世羅町,大字青山９３番地,,34,462,7221116,,,,,,,2023-09-07,1,,,,,プッシュアップ,0
2489,9250001020278,新規,0,2023-09-07,2023-09-07,株式会社ＣＡＢＢＩＴＷＯＲＫＳ,,株式会社,山口県,宇部市,大字東岐波２３２１番地１５,,35,202,7550241,,,,,,,2023-09-07,1,,,,,キャビットワークス,0
2499,9290001102881,新規,0,2023-09-07,2023-09-07,株式会社ＥＱｏ‐Ｐｉｔｃｈ,,株式会社,福岡県,福岡市中央区,天神１丁目４番１号１６Ｆ,,40,133,8100001,,,,,,,2023-09-07,1,,,,,エコピッチ,0
2500,9290001102972,新規,0,2023-09-07,2023-09-07,株式会社ｓｕｂ保証,,株式会社,福岡県,大野城市,筒井２丁目４番１１号,,40,219,8160931,,,,,,,2023-09-07,1,,,,,エスユービーホショウ,0
2506,9330001031226,新規,0,2023-09-07,2023-09-07,株式会社グランドアーク,,株式会社,熊本県,菊池市,隈府９０３番地４－１０３号,,43,210,8611331,,,,,,,2023-09-07,1,,,,,グランドアーク,0
2507,9330001031234,新規,0,2023-09-07,2023-09-07,株式会社大谷工務,,株式会社,熊本県,天草市,浄南町３番２１号,,43,215,8630034,,,,,,,2023-09-07,1,,,,,オオタニコウム,0
2513,9350005006172,新規,0,2023-09-07,2023-09-07,税理士法人ウィザス,,その他の設立登記法人,宮崎県,延岡市,日の出町２丁目８番地２１,,45,203,8820035,,,,,,,2023-09-07,1,,,,,ウィザス,0
2514,9360003013252,新規,0,2023-09-07,2023-09-07,合同会社Ｎｏｎｅ,,合同会社,沖縄県,那覇市,鏡原町３２番５号シャルムたから３０１,,47,201,9010151,,,,,,,2023-09-07,1,,,,,エヌワン,0
2518,9370001050354,新規,0,2023-09-07,2023-09-07,株式会社ＫＡＭ,,株式会社,宮城県,仙台市青葉区,本町１丁目５番２８号カーニープレイス仙台駅前通６０３号室,,04,101,9800014,,,,,,,2023-09-07,1,,,,,カム,0
2519,9370001050362,新規,0,2023-09-07,2023-09-07,株式会社はせがわ動物病院,,株式会社,宮城県,仙台市泉区,将監１０丁目７番１号,,04,105,9813132,,,,,,,2023-09-07,1,,,,,ハセガワドウブツビョウイン,0
2520,9370001050370,新規,0,2023-09-07,2023-09-07,古積配管工事株式会社,,株式会社,宮城県,東松島市,浅井字高田７４番地１,,04,214,9810415,,,,,,,2023-09-07,1,,,,,コヅミハイカンコウジ,0
2521,9370001050387,新規,0,2023-09-07,2023-09-07,株式会社ＳｈａｌＬＯＷ　Ｆｉｅｌｄ,,株式会社,宮城県,仙台市若林区,古城３丁目２６番３号ラ・レコルトＩＩ－２０１,00131806,04,103,9840825,,,,,,,2023-09-07,1,,,,,シャローフィールド,0
2523,9370003006271,新規,0,2023-09-07,2023-09-07,ＳＤＳ１０２８合同会社,,合同会社,宮城県,大崎市,古川駅東２丁目５番１１号,,04,215,9896115,,,,,,,2023-09-07,1,,,,,エスディーエスイチゼロニハチ,0
2524,9370005010676,新規,0,2023-09-07,2023-09-07,一般社団法人一識庵,,その他の設立登記法人,宮城県,仙台市青葉区,本町１丁目５番２８号カーニープレイス仙台駅前通６０３号室,,04,101,9800014,,,,,,,2023-09-07,1,,,,,イチシキアン,0
2526,9380001033952,新規,0,2023-09-07,2023-09-07,株式会社エスボヌール,,株式会社,福島県,郡山市,富田東３丁目９１番地,,07,203,9638047,,,,,,,2023-09-07,1,,,,,エスボヌール,0
2532,9410003003842,新規,0,2023-09-07,2023-09-07,合同会社Ｍａｈａｌｏ,,合同会社,秋田県,秋田市,手形山北町７番３号,,05,201,0100842,,,,,,,2023-09-07,1,,,,,マハロ,0
2535,9420005007865,新規,0,2023-09-07,2023-09-07,一般社団法人わのまち,,その他の設立登記法人,青森県,三戸郡五戸町,字下大町１３番地１,,02,442,0391559,,,,,,,2023-09-07,1,,,,,ワノマチ,0
2537,9430001089931,新規,0,2023-09-07,2023-09-07,株式会社アドバンスト・Ｃａｒ,,株式会社,北海道,夕張郡栗山町,字継立１６８番地１８２,,01,429,0680353,,,,,,,2023-09-07,1,,,,,アドバンストカー,0
2539,9430003015398,新規,0,2023-09-07,2023-09-07,合同会社ＳＫ設備プランニング,,合同会社,北海道,札幌市白石区,東札幌一条５丁目６番１７号,,01,104,0030001,,,,,,,2023-09-07,1,,,,,エスケーセツビプランニング,0
2541,9440001009319,新規,0,2023-09-07,2023-09-07,株式会社Ｃｉｎｑ　Ｃｏｍｐａｎｙ,,株式会社,北海道,函館市,若松町２０番１１号,,01,202,0400063,,,,,,,2023-09-07,1,,,,,サンクカンパニー,0
2544,9470001019793,新規,0,2023-09-07,2023-09-07,株式会社山下石材工業,,株式会社,香川県,坂出市,府中町４７６９番地２,,37,203,7620024,,,,,,,2023-09-07,1,,,,,ヤマシタセキザイコウギョウ,0
2545,9470001019802,新規,0,2023-09-07,2023-09-07,株式会社ｏｆｆｉｃｅ９９９９,,株式会社,香川県,高松市,福岡町２丁目６番１４号福岡町ローズガーデンパートＩＩ,00131812,37,201,7600066,,,,,,,2023-09-07,1,,,,,オフィスフォーナイン,0
2553,9700150119899,新規,0,2023-09-07,2023-09-07,Ｍｅｎｇｃｈｅｎｇ　ｃｏｕｎｔｙＹｉｈｅｎ　Ｅｌｅｃｔｒｏｎｉｃ　Ｃｏｍｍｅｒｃｅ　Ｃｏ．，Ｌｔｄ．,,外国会社等,,,,,,,,Ｍｅｎｇｄｉｅ　Ｒｏａｄ，Ｃｈｅｎｇｇｕａｎ　Ｔｏｗｎ　Ｒｏｏｍ　４０３，ｂｕｉｌｄｉｎｇ　３　Ｍｅｎｇｃｈｅｎｇ　Ｃｏｕｎｔｙ，Ｂｏｚｈｏｕ　Ｃｉｔｙ　Ａｎｈｕｉ　Ｐｒｏｖｉｎｃｅ,,,,,,2023-09-07,1,,,,,モンチョンシエンイーホンディエンズーシャンウーヨウシエンゾーレンゴンスー,0
2554,9700150119908,新規,0,2023-09-07,2023-09-07,ｈａｎｂａｓｈｉｙｅｙｏｕｘｉａｎｇｏｎｇｓｉ,,外国会社等,,,,,,,,ｂａｏａｎｑｕｈａｎｇｃｈｅｎｇｊｉｅｄａｏｊｉｕｗｅｉｓｈｅｑｕｊｉｕｗｅｉｃｈａｎｇｔｏｕｌｉｎｇ　ｙｉｎｇｘｉｎｈｕａｋｅｇｏｎｇｙｅｙｕａｎＡｄｏｎｇ１ｃｅｎｇ　ｓｈｅｎｚｈｅｎ　　　　,,,,,,2023-09-07,1,,,,,カンバジツギョウシンセンユウゲンコウシ,0
2555,9700150119916,新規,0,2023-09-07,2023-09-07,Ｙｉｗｕ　Ｘｉｌｉｎ　Ｅ－ｃｏｍｍｅｒｃｅ　Ｃｏ．，Ｌｔｄ,,外国会社等,,,,,,,,Ｒｏｏｍ２０１Ｕｎｉｔ３Ｂｕｉｌｄｉｎｇ３ＣｈｕｎｈａｎＤｉｓｔｒｉｃｔ２ＢｅｉｙｕａｎＳｔｒｅｅｔ　ＹｉｗｕＣｉｔｙ　ＺｈｅｊｉａｎｇＰｒｏｖｉｎｃｅ,,,,,,2023-09-07,1,,,,,イーウーシリンイーコマースカンパニーリミテッド,0
2556,9700150119924,新規,0,2023-09-07,2023-09-07,ｙｕｎｃｈｅｎｇｓｈｉｙａｎｈｕｑｕ　ｈｕｉｃｈｕａｎｄｉａｎｚｉｓｈａｎｇｗｕ　Ｃｏ．Ｌｔｄ．,,外国会社等,,,,,,,,ｓｈａｎｘｉｓｈｅｎｇ　ｙｕｎｃｈｅｎｇｓｈｉ　ｙａｎｈｕｑｕｒｅｎｍｉｎｂｅｉｌｕｘｉｎｇｈｅｃｈｕａｎｇｙｅｙｕａｎ８２３ｓｈｉ,,,,,,2023-09-07,1,,,,,ウンジョウシエンコクホイツァンデンシショウムカンパニーリミテッド,0
2557,9700150119932,新規,0,2023-09-07,2023-09-07,Ｓｈｅｎｚｈｅｎ　Ｐｉｅｒｃｅ　ｉｎｄｕｓｔｒｙ　ｃｏ．ＬＴＤ,,外国会社等,,,,,,,,５１０ＲｏｏｍＢｕｉｌｄｉｎｇＡＮＯ３４５ＺｈｉｗｕｙｕａｎＲｄＮａｎｌｉａｎＣｏｍｍｕｎｉｔｙＬｏｎｇｇａｎｇＳｕｂｄｉｓｔｒｉｃｔＬｏｎｇｇａｎｇＤｉｓｔｒｉｃｔ　ＳｈｅｎｚｈｅｎＣｉｔｙ,,,,,,2023-09-07,1,,,,,シンセンピアースインダストリーカンパニーリミテッド,0
2558,9700150119940,新規,0,2023-09-07,2023-09-07,ｓｈｅｎｚｈｅｎ　ｈｏｎｇｔｕｏｓｈａｎｇｍａｏ　ｙｏｕｘｉａｎｇｏｎｇｓｉ,,外国会社等,,,,,,,,ｌｏｎｇｇａｎｇｑｕｂａｎｔｉａｎｊｉｅｄａｏｂａｎｔｉａｎｓｈｅｑｕ　ｊｉｈｕａｌｕ５５５ｈａｏｗｕｃｅｎｇ　（ｊｉｔｏｎｇｄａｓｈａ５０８ｓｈｉ）　ｓｈｅｎｚｈｅｎｓｈｉ,,,,,,2023-09-07,1,,,,,シンセンホントオシャンマオユウゲンコウシ,0
2559,9700150119949,新規,0,2023-09-07,2023-09-07,ｓｈａｎｇｈａｉｄｉｅｍｉａｏｓｈｅｊｉｙｏｕｘｉａｎｇｏｎｇｓｉ,,外国会社等,,,,,,,,ｚｈｏｎｇｇｕｏ（ｓｈａｎｇｈａｉ）ｚｉｙｏｕｍａｏｙｉｓｈｉｙａｎｑｕｐｕｄｏｎｇｄａｄａｏ２１２３ｈａｏ３ｌｏｕｘｉｎａｎｑｕ,,,,,,2023-09-07,1,,,,,シャンハイチョウミョウセッケイユウゲンコウシ,0
