sequenceNumber,corporateNumber,process,correct,updateDate,changeDate,name,nameImageId,kind,prefectureName,cityName,streetNumber,addressImageId,prefectureCode,cityCode,postCode,addressOutside,addressOutsideImageId,closeDate,closeCause,successorCorporateNumber,changeCause,assignmentDate,latest,enName,enPrefectureName,enCityName,enAddressOutside,furigana,hihyoji
13,1010001228357,新規,0,2022-07-27,2022-07-27,ケーアンドエス株式会社,,株式会社,東京都,千代田区,内神田２丁目５番６号,,13,101,1010047,,,,,,,2022-07-27,1,,,,,ケーアンドエス,0
17,1010003038234,新規,0,2022-07-27,2022-07-27,Ｓｉｇｍａ　Ｆｏｏｄ　Ｊａｐａｎ合同会社,,合同会社,東京都,中央区,日本橋３丁目９番１号日本橋三丁目スクエア１１階,,13,102,1030027,,,,,,,2022-07-27,1,,,,,シグマフードジャパン,0
18,1010003038250,新規,0,2022-07-27,2022-07-27,合同会社ＮｅｕｒｏＡＩ,,合同会社,東京都,文京区,湯島２丁目２番５―２０１号,,13,105,1130034,,,,,,,2022-07-27,1,,,,,ニューロエーアイ,0
19,1010003038267,新規,0,2022-07-27,2022-07-27,合同会社Ｍ１,,合同会社,東京都,中央区,銀座７丁目２番２２号,,13,102,1040061,,,,,,,2022-07-27,1,,,,,,0
20,1010005035353,新規,0,2022-07-27,2022-07-27,一般社団法人ウェスト,,その他の設立登記法人,東京都,千代田区,丸の内３丁目１番１号東京共同会計事務所内,,13,101,1000005,,,,,,,2022-07-27,1,,,,,ウェスト,0
28,1010401168665,新規,0,2022-07-27,2022-07-27,世界最強の株式会社,,株式会社,東京都,港区,港南３丁目７－１０ラクシア品川ポルトチッタ３０１,,13,103,1080075,,,,,,,2022-07-27,1,,,,,セカイサイキョウノ,0
29,1010401168698,新規,0,2022-07-27,2022-07-27,株式会社Ｋ‐Ｃｏｎｓｕｌｔｉｎｇ,,株式会社,東京都,港区,南青山２丁目２番１５号ウィン青山９４２,,13,103,1070062,,,,,,,2022-07-27,1,,,,,ケイコンサルティング,0
30,1010401168764,新規,0,2022-07-27,2022-07-27,株式会社ｓｔｏｒｍ,,株式会社,東京都,港区,赤坂６丁目１９番７－１０９号,,13,103,1070052,,,,,,,2022-07-27,1,,,,,ストーム,0
32,1010403028140,新規,0,2022-07-27,2022-07-27,合同会社ＢＲＥＡＫＴＨＲＯＵＧＨ,,合同会社,東京都,港区,西新橋１丁目１０番１号,,13,103,1050003,,,,,,,2022-07-27,1,,,,,ブレイクスルー,0
35,1010503006665,新規,0,2022-07-27,2022-07-27,華王商事合同会社,,合同会社,東京都,台東区,上野６丁目７番１６号川久保ビル５階７０９号室,,13,106,1100005,,,,,,,2022-07-27,1,,,,,カオウショウジ,0
36,1010505003322,新規,0,2022-07-27,2022-07-27,一般社団法人ステヒロ,,その他の設立登記法人,東京都,台東区,谷中２丁目１５番１３号,,13,106,1100001,,,,,,,2022-07-27,1,,,,,ステヒロ,0
39,1010605004105,新規,0,2022-07-27,2022-07-27,特定非営利活動法人すみだ多文化共生交流会,,その他の設立登記法人,東京都,墨田区,東墨田１丁目５番３号,,13,107,1310042,,,,,,,2022-07-27,1,,,,,スミダタブンカキョウセイコウリュウカイ,0
41,1010701043007,新規,0,2022-07-27,2022-07-27,株式会社シンラン,,株式会社,東京都,品川区,南大井６丁目１７番１５号第二タジマビル３階,,13,109,1400013,,,,,,,2022-07-27,1,,,,,シンラン,0
70,1011103012005,新規,0,2022-07-27,2022-07-27,合同会社高崎ＪＡＰＡＮ,,合同会社,東京都,新宿区,西新宿６丁目１６番１３－３０８号,,13,104,1600023,,,,,,,2022-07-27,1,,,,,タカサキジャパン,0
77,1011301027969,新規,0,2022-07-27,2022-07-27,株式会社こめじるし,,株式会社,東京都,杉並区,永福２丁目４２番４号,,13,115,1680064,,,,,,,2022-07-27,1,,,,,コメジルシ,0
82,1011501028313,新規,0,2022-07-27,2022-07-27,株式会社エスピーアル,,株式会社,東京都,荒川区,西日暮里２丁目４５番地８号ダイヤビル４号室,,13,118,1160013,,,,,,,2022-07-27,1,,,,,エスピーアル,0
85,1011801041065,新規,0,2022-07-27,2022-07-27,株式会社Ｍｏｍｉｎ　Ｇｒｏｕｐ,,株式会社,東京都,葛飾区,東堀切２丁目１６番１２号,,13,122,1240004,,,,,,,2022-07-27,1,,,,,モミングループ,0
86,1012801021742,新規,0,2022-07-27,2022-07-27,株式会社ＩＭＨＤ,,株式会社,東京都,立川市,柴崎町２丁目２番２３号,,13,202,1900023,,,,,,,2022-07-27,1,,,,,アイエムエイチディー,0
87,1012801021750,新規,0,2022-07-27,2022-07-27,株式会社ライトグリーン,,株式会社,東京都,国分寺市,西町１丁目２２－１ムービングオン３０３,,13,214,1850035,,,,,,,2022-07-27,1,,,,,ライトグリーン,0
90,1013301049415,新規,0,2022-07-27,2022-07-27,ＸＯ財託株式会社,,株式会社,東京都,豊島区,高田３丁目７番１７号安斎ビル２Ｆ,,13,116,1710033,,,,,,,2022-07-27,1,,,,,エックスオーザイタク,0
91,1013301049423,新規,0,2022-07-27,2022-07-27,株式会社プライム,,株式会社,東京都,豊島区,高田２丁目７番２－３０１号,,13,116,1710033,,,,,,,2022-07-27,1,,,,,プライム,0
111,1030001149378,新規,0,2022-07-27,2022-07-27,株式会社エムエス,,株式会社,埼玉県,さいたま市南区,神明２丁目１番１６号,,11,108,3360023,,,,,,,2022-07-27,1,,,,,エムエス,0
112,1030001149386,新規,0,2022-07-27,2022-07-27,ＧＲＥＥＮ　ＬＩＶＩＮＧ株式会社,,株式会社,埼玉県,草加市,八幡町１３０７番地１新西川荘３号,,11,221,3400006,,,,,,,2022-07-27,1,,,,,グリーンリビング,0
113,1030001149403,新規,0,2022-07-27,2022-07-27,株式会社ｅｄｄｙ,,株式会社,埼玉県,坂戸市,日の出町２０－５山咲ビル５０１,,11,239,3500225,,,,,,,2022-07-27,1,,,,,エディー,0
114,1030001149411,新規,0,2022-07-27,2022-07-27,木立株式会社,,株式会社,埼玉県,戸田市,本町５丁目１０番２３－２０２号,,11,224,3350023,,,,,,,2022-07-27,1,,,,,コダチ,0
117,1040001124388,新規,0,2022-07-27,2022-07-27,株式会社ＷＥＬＬｓ　ＵＰ,,株式会社,千葉県,柏市,あけぼの２丁目９番２０号メイツ柏Ｃ棟５０３,,12,217,2770841,,,,,,,2022-07-27,1,,,,,ウエルスアップ,0
118,1040001124446,新規,0,2022-07-27,2022-07-27,株式会社ＳＴＲ,,株式会社,千葉県,八千代市,八千代台北１３丁目５番１２号,,12,221,2760031,,,,,,,2022-07-27,1,,,,,エスティーアール,0
125,1040003020503,新規,0,2022-07-27,2022-07-27,日本海ミライズ合同会社,,合同会社,千葉県,千葉市稲毛区,天台１丁目９番１－２０３号,,12,103,2630016,,,,,,,2022-07-27,1,,,,,ニホンカイミライズ,0
134,1050003006724,新規,0,2022-07-27,2022-07-27,合同会社ＬＴ　ＩＮＴＥＲＮＡＴＩＯＮＡＬ,,合同会社,茨城県,結城郡八千代町,大字若１７３７番地１,,08,521,3003544,,,,,,,2022-07-27,1,,,,,エルティーインターナショナル,0
136,1060001035113,新規,0,2022-07-27,2022-07-27,株式会社ＳＶＧ,,株式会社,栃木県,足利市,寺岡町３５１番地,,09,202,3294213,,,,,,,2022-07-27,1,,,,,エスブイジー,0
137,1060001035121,新規,0,2022-07-27,2022-07-27,ＭＡＮＰＵＱ株式会社,,株式会社,栃木県,下都賀郡壬生町,幸町４丁目３番３号,,09,361,3210203,,,,,,,2022-07-27,1,,,,,マンプク,0
173,1120001247619,新規,0,2022-07-27,2022-07-27,晨岸株式会社,,株式会社,大阪府,大阪市東淀川区,東中島１丁目１７番５号,,27,114,5330033,,,,,,,2022-07-27,1,,,,,アサギシ,0
174,1120001247643,新規,0,2022-07-27,2022-07-27,株式会社ＴＷＳ,,株式会社,大阪府,大阪市東住吉区,矢田４丁目１２番９号,,27,121,5460023,,,,,,,2022-07-27,1,,,,,ティーダブリューエス,0
175,1120001247651,新規,0,2022-07-27,2022-07-27,ＥＸ株式会社,,株式会社,大阪府,大阪市西成区,千本北１丁目１－１６,,27,122,5570053,,,,,,,2022-07-27,1,,,,,イーエックス,0
176,1120001247668,新規,0,2022-07-27,2022-07-27,ファイス株式会社,,株式会社,大阪府,大阪市天王寺区,小橋町１２番２－３１４号,,27,109,5430028,,,,,,,2022-07-27,1,,,,,ファイス,0
177,1120001247726,新規,0,2022-07-27,2022-07-27,株式会社バンウル,,株式会社,大阪府,大阪市生野区,鶴橋２丁目３番８号,,27,116,5440031,,,,,,,2022-07-27,1,,,,,バンウル,0
180,1120003022136,新規,0,2022-07-27,2022-07-27,Ｆｅｅｌｉｎｇ合同会社,,合同会社,大阪府,枚方市,星丘２丁目２４－１８－１０１,,27,210,5730013,,,,,,,2022-07-27,1,,,,,フィーリング,0
181,1120003022144,新規,0,2022-07-27,2022-07-27,合同会社ＫＯＭ,,合同会社,大阪府,大阪市中央区,南船場３丁目１０番２８号４階,,27,128,5420081,,,,,,,2022-07-27,1,,,,,コム,0
182,1120003022152,新規,0,2022-07-27,2022-07-27,合同会社Ｔｒｕｓｔ,,合同会社,大阪府,大阪市鶴見区,焼野１丁目南６番６号,,27,124,5380037,,,,,,,2022-07-27,1,,,,,トラスト,0
193,1130001072248,新規,0,2022-07-27,2022-07-27,株式会社アクアリズム,,株式会社,京都府,京都市北区,鞍馬口通新町東入長乗東町２１４番地１５,,26,101,6038153,,,,,,,2022-07-27,1,,,,,アクアリズム,0
194,1130001072256,新規,0,2022-07-27,2022-07-27,株式会社京都ＳＫバス,,株式会社,京都府,京都市伏見区,下鳥羽南円面田町８番地１０２,,26,109,6128499,,,,,,,2022-07-27,1,,,,,キョウトエスケイバス,0
195,1130001072264,新規,0,2022-07-27,2022-07-27,株式会社ｔａｎｊｉ,,株式会社,京都府,京都市左京区,北白川瓜生山町２－１１６京都芸術大学スタートアップ支援室（クロステックデザインコース研究室内）,,26,103,6068271,,,,,,,2022-07-27,1,,,,,タンジ,0
203,1140001126829,新規,0,2022-07-27,2022-07-27,株式会社アルベロ,,株式会社,兵庫県,神戸市長田区,四番町２丁目８－３６,,28,106,6530004,,,,,,,2022-07-27,1,,,,,アルベロ,0
204,1140001126878,新規,0,2022-07-27,2022-07-27,株式会社島田モータース,,株式会社,兵庫県,三田市,鈴鹿５３番地７,,28,219,6691417,,,,,,,2022-07-27,1,,,,,シマダモータース,0
208,1140005026257,新規,0,2022-07-27,2022-07-27,杠行政書士法人,,その他の設立登記法人,兵庫県,西宮市,寿町１番２４号,,28,204,6620047,,,,,,,2022-07-27,1,,,,,ユズリハ,0
214,1160003002638,新規,0,2022-07-27,2022-07-27,ＦｏｕｒＳｔｒｅａｍ合同会社,,合同会社,滋賀県,草津市,山寺町１１２５番地１１,,25,206,5250042,,,,,,,2022-07-27,1,,,,,フォーストリーム,0
225,1180001152318,新規,0,2022-07-27,2022-07-27,株式会社エニナル,,株式会社,愛知県,名古屋市東区,泉１丁目１１番６号ミソカビル２Ｆ,,23,102,4610001,,,,,,,2022-07-27,1,,,,,エニナル,0
227,1180301036468,新規,0,2022-07-27,2022-07-27,株式会社ＴＳＰ,,株式会社,愛知県,豊橋市,向山町字水車１８番地６,,23,201,4400864,,,,,,,2022-07-27,1,,,,,ティーエスピー,0
235,1200001040313,新規,0,2022-07-27,2022-07-27,ｄｉｒｅｃｔ　ｎａｇｏｍｉ株式会社,,株式会社,岐阜県,美濃加茂市,山之上町１０９３番地９４,,21,211,5050003,,,,,,,2022-07-27,1,,,,,デイレクトナゴミ,0
260,1250001019682,新規,0,2022-07-27,2022-07-27,株式会社シーソー,,株式会社,山口県,防府市,大字新田１４０９番地の３,,35,206,7470825,,,,,,,2022-07-27,1,,,,,シーソー,0
273,1290001098401,新規,0,2022-07-27,2022-07-27,ＰＩＬＥ　ＰＬＵＳ株式会社,,株式会社,福岡県,那珂川市,中原５丁目３５番地２,,40,231,8111213,,,,,,,2022-07-27,1,,,,,パイルプラス,0
277,1290003012772,新規,0,2022-07-27,2022-07-27,合同会社メディエイト,,合同会社,福岡県,福岡市東区,多の津５丁目３６番２８号コーポゆかり２０５号,,40,131,8130034,,,,,,,2022-07-27,1,,,,,メディエイト,0
290,1310005008626,新規,0,2022-07-27,2022-07-27,特定非営利活動法人おうち楽幸,,その他の設立登記法人,長崎県,西彼杵郡長与町,嬉里郷４６３番地中村ビル２０１,,42,307,8512128,,,,,,,2022-07-27,1,,,,,オウチガッコウ,0
295,1330001029954,新規,0,2022-07-27,2022-07-27,株式会社南部産業,,株式会社,熊本県,熊本市中央区,水道町３－２４岡部ビル４０２,,43,101,8600844,,,,,,,2022-07-27,1,,,,,ナンブサンギョウ,0
296,1330001029962,新規,0,2022-07-27,2022-07-27,株式会社熊九開発,,株式会社,熊本県,熊本市中央区,上水前寺１丁目９番１５号日新ビル３０１・３０２号,,43,101,8620951,,,,,,,2022-07-27,1,,,,,クマキュウカイハツ,0
297,1330001029970,新規,0,2022-07-27,2022-07-27,アルファルマホールディングス株式会社,,株式会社,熊本県,熊本市南区,御幸笛田６丁目７番１号,,43,104,8614172,,,,,,,2022-07-27,1,,,,,アルファルマホールディングス,0
300,1340001024921,新規,0,2022-07-27,2022-07-27,株式会社ＫＩＤＺＵＫＩ,,株式会社,鹿児島県,日置市,伊集院町徳重５７２番地１,,46,216,8992502,,,,,,,2022-07-27,1,,,,,キヅキ,0
309,1380001033010,新規,0,2022-07-27,2022-07-27,株式会社ユーエフピー,,株式会社,福島県,福島市,本内字慶二２番地,,07,201,9600103,,,,,,,2022-07-27,1,,,,,ユーエフピー,0
325,1430001087141,新規,0,2022-07-27,2022-07-27,株式会社カヤックポラリス,,株式会社,北海道,札幌市中央区,大通西１丁目１４番地２,,01,101,0600042,,,,,,,2022-07-27,1,,,,,カヤックポラリス,0
326,1430001087158,新規,0,2022-07-27,2022-07-27,暮らすｍａｒｔ株式会社,,株式会社,北海道,札幌市東区,北二十四条東１丁目３番２号,,01,103,0650024,,,,,,,2022-07-27,1,,,,,クラスマート,0
331,1430003014127,新規,0,2022-07-27,2022-07-27,合同会社Ｌｕｃｋｙ　Ｒｏｐｅ,,合同会社,北海道,札幌市手稲区,新発寒五条３丁目２－５,,01,109,0060805,,,,,,,2022-07-27,1,,,,,ラッキーロープ,0
346,1700150110989,新規,0,2022-07-27,2022-07-27,檜山管理運営委員会,,その他,広島県,東広島市,高屋町桧山１２３－４,,34,212,7392105,,,,,,,2022-07-27,1,,,,,ヒヤマカンリウンエイイインカイ,0
366,2010003038209,新規,0,2022-07-27,2022-07-27,ＳＵＩＣＣＨＩ合同会社,,合同会社,東京都,中央区,佃２丁目１番２－５０１号,,13,102,1040051,,,,,,,2022-07-27,1,,,,,スイッチ,0
367,2010003038241,新規,0,2022-07-27,2022-07-27,フロンティア・アドバイザーズ・ジャパン合同会社,,合同会社,東京都,中央区,日本橋兜町８番１号,,13,102,1030026,,,,,,,2022-07-27,1,,,,,フロンティアアドバイザーズジャパン,0
369,2010005035311,新規,0,2022-07-27,2022-07-27,一般社団法人Ｎｅｘｔ　Ｂｅａｕｔｙ　Ｌａｂｏ,,その他の設立登記法人,東京都,千代田区,有楽町１丁目５番２号東宝日比谷プロムナードビル地下１階,,13,101,1000006,,,,,,,2022-07-27,1,,,,,ネクストビューティラボ,0
377,2010401168763,新規,0,2022-07-27,2022-07-27,株式会社Ｌｅｓｆｅｒｕｓ,,株式会社,東京都,港区,麻布十番２丁目４番１号,,13,103,1060045,,,,,,,2022-07-27,1,,,,,レスフェルス,0
379,2010403028164,新規,0,2022-07-27,2022-07-27,Ｌｉｆｅｓｔｙｌｅ４合同会社,,合同会社,東京都,港区,六本木１丁目６番１号泉ガーデンタワー,,13,103,1060032,,,,,,,2022-07-27,1,,,,,ライフスタイルフォー,0
387,2010605004087,新規,0,2022-07-27,2022-07-27,一般社団法人江東すみだ大道芸協会,,その他の設立登記法人,東京都,江東区,亀戸３丁目４３－２１角重ビル５０３,,13,108,1360071,,,,,,,2022-07-27,1,,,,,,0
390,2010701042998,新規,0,2022-07-27,2022-07-27,株式会社環境情報,,株式会社,東京都,品川区,東五反田２丁目４番６－１２０１号,,13,109,1410022,,,,,,,2022-07-27,1,,,,,カンキョウジョウホウ,0
395,2010801033146,新規,0,2022-07-27,2022-07-27,株式会社共信サンライト紙器,,株式会社,東京都,大田区,西馬込１丁目３２番１５号,,13,111,1430026,,,,,,,2022-07-27,1,,,,,キョウシンサンライトシキ,0
399,2010901051320,新規,0,2022-07-27,2022-07-27,ワイド・ドリーム株式会社,,株式会社,東京都,世田谷区,八幡山３丁目３１番８号グリーンハイム１０２,,13,112,1560056,,,,,,,2022-07-27,1,,,,,ワイドドリーム,0
400,2010903007543,新規,0,2022-07-27,2022-07-27,ａｐｐｅａｓｅ合同会社,,合同会社,東京都,世田谷区,中町５丁目２７番１９号シェモアＩＩ２０３,00127331,13,112,1580091,,,,,,,2022-07-27,1,,,,,アピーズ,0
406,2011003015115,新規,0,2022-07-27,2022-07-27,合同会社３６５日,,合同会社,東京都,渋谷区,上原１丁目４７番３号１０１,,13,113,1510064,,,,,,,2022-07-27,1,,,,,サンビャクロクジュウゴニチ,0
414,2011101099646,新規,0,2022-07-27,2022-07-27,株式会社アニメランド,,株式会社,東京都,新宿区,新宿３丁目５番６号キュープラザ６Ｆ,,13,104,1600022,,,,,,,2022-07-27,1,,,,,アニメランド,0
415,2011101099654,新規,0,2022-07-27,2022-07-27,ＶＡＵ株式会社,,株式会社,東京都,新宿区,大久保２丁目７－５共栄ビル３１０,,13,104,1690072,,,,,,,2022-07-27,1,,,,,ヴァウ,0
417,2011103012004,新規,0,2022-07-27,2022-07-27,合同会社トップオペレーション,,合同会社,東京都,新宿区,西新宿３丁目３番１３号,,13,104,1600023,,,,,,,2022-07-27,1,,,,,トップオペレーション,0
421,2011201023984,新規,0,2022-07-27,2022-07-27,株式会社ビジョン,,株式会社,東京都,中野区,大和町１丁目６２番７号,,13,114,1650034,,,,,,,2022-07-27,1,,,,,ビジョン,0
425,2011501028312,新規,0,2022-07-27,2022-07-27,株式会社ＡＲＡＭＵ　ＩＮＴＥＲＮＡＴＩＯＮＡＬ,,株式会社,東京都,北区,十条仲原１丁目４番３号－１０１号,,13,117,1140031,,,,,,,2022-07-27,1,,,,,アラムインターナショナル,0
427,2011601026125,新規,0,2022-07-27,2022-07-27,株式会社ＨＵＲ,,株式会社,東京都,練馬区,東大泉１丁目３３番８号飯島ビル３０１,,13,120,1780063,,,,,,,2022-07-27,1,,,,,エイチユーアール,0
429,2011701025489,新規,0,2022-07-27,2022-07-27,株式会社ＵＣＨＩＫＵＲＯ,,株式会社,東京都,江戸川区,東葛西６丁目１番１７号第６カネ長ビル４Ｆ,,13,123,1340084,,,,,,,2022-07-27,1,,,,,ウチクロ,0
431,2011801041056,新規,0,2022-07-27,2022-07-27,東和不動産株式会社,,株式会社,東京都,足立区,東和４丁目２３番８号,,13,121,1200003,,,,,,,2022-07-27,1,,,,,トウワフドウサン,0
432,2011801041064,新規,0,2022-07-27,2022-07-27,Ｎ．Ｒ．Ｎ株式会社,,株式会社,東京都,足立区,千住曙町４０番１－９１４号,,13,121,1200023,,,,,,,2022-07-27,1,,,,,エヌアールエヌ,0
433,2012303001705,新規,0,2022-07-27,2022-07-27,合同会社Ｃｒａｄｌｅ　ｅｍｅｒｉ,,合同会社,東京都,町田市,小山ヶ丘６丁目５番地１,,13,209,1940215,,,,,,,2022-07-27,1,,,,,クレイドルエメリ,0
450,2020001147514,新規,0,2022-07-27,2022-07-27,株式会社勝結,,株式会社,神奈川県,横浜市中区,若葉町３丁目４３番地１セザール伊勢佐木１００４号,,14,104,2310056,,,,,,,2022-07-27,1,,,,,ショウケツ,0
453,2020005015601,新規,0,2022-07-27,2022-07-27,ＮＰＯ法人みらいてーぶる,,その他の設立登記法人,神奈川県,横浜市青葉区,桜台４８番地４３,,14,117,2270061,,,,,,,2022-07-27,1,,,,,ミライテーブル,0
471,2030001149377,新規,0,2022-07-27,2022-07-27,株式会社Ｈｏｍｅ　Ｋｏｋａ,,株式会社,埼玉県,川口市,大字西新井宿１４１番地の１０,,11,203,3330833,,,,,,,2022-07-27,1,,,,,ホームコカ,0
472,2030001149385,新規,0,2022-07-27,2022-07-27,株式会社リゾートダイニング,,株式会社,埼玉県,志木市,本町５丁目２３－１３－４０３,,11,228,3530004,,,,,,,2022-07-27,1,,,,,リゾートダイニング,0
473,2030001149393,新規,0,2022-07-27,2022-07-27,株式会社ＬＹＮＸ,,株式会社,埼玉県,幸手市,大字上高野１２９１番地,,11,240,3400155,,,,,,,2022-07-27,1,,,,,リンクス,0
474,2030001149402,新規,0,2022-07-27,2022-07-27,株式会社ウォルト工房,,株式会社,埼玉県,戸田市,大字新曽２４８８番地の１４,,11,224,3350021,,,,,,,2022-07-27,1,,,,,ウォルトコウボウ,0
475,2030001149410,新規,0,2022-07-27,2022-07-27,株式会社わたらせコミュニティメディア,,株式会社,埼玉県,加須市,陽光台１丁目３００番地２３,,11,210,3491204,,,,,,,2022-07-27,1,,,,,ワタラセコミュニティメディア,0
476,2030001149419,新規,0,2022-07-27,2022-07-27,株式会社ファイブオー,,株式会社,埼玉県,所沢市,南住吉２２番１８号ワコーレ所沢２０７号,,11,208,3591125,,,,,,,2022-07-27,1,,,,,ファイブオー,0
480,2040001124404,新規,0,2022-07-27,2022-07-27,つなぐハウジング株式会社,,株式会社,千葉県,市川市,妙典３丁目１１番２３号,,12,203,2720111,,,,,,,2022-07-27,1,,,,,ツナグハウジング,0
481,2040001124420,新規,0,2022-07-27,2022-07-27,海恵康国際株式会社,,株式会社,千葉県,柏市,中央町４番２８号カーサ・イノウエ３０８号室,,12,217,2770021,,,,,,,2022-07-27,1,,,,,カイケイコウコクサイ,0
482,2040001124445,新規,0,2022-07-27,2022-07-27,株式会社エール,,株式会社,千葉県,柏市,旭町８丁目１番１７号インペリアルフォレスト１０２号,,12,217,2770852,,,,,,,2022-07-27,1,,,,,エール,0
484,2040003020502,新規,0,2022-07-27,2022-07-27,合同会社長谷川不動産,,合同会社,千葉県,八千代市,大和田新田４４６番地２４１、２階,,12,221,2760046,,,,,,,2022-07-27,1,,,,,ハセガワフドウサン,0
486,2050001051457,新規,0,2022-07-27,2022-07-27,ＨＡＤＩ　ＴＲＡＤＩＮＧ株式会社,,株式会社,茨城県,猿島郡境町,大字内門１１１５番地１１,,08,546,3060414,,,,,,,2022-07-27,1,,,,,,0
490,2050003006723,新規,0,2022-07-27,2022-07-27,セブンｕｐエイト合同会社,,合同会社,茨城県,筑西市,徳持３２０番地,,08,227,3080816,,,,,,,2022-07-27,1,,,,,セブンアップエイト,0
493,2060001035112,新規,0,2022-07-27,2022-07-27,株式会社ＦＥＭＥ,,株式会社,栃木県,宇都宮市,北一の沢町６番２０号モアグランドリーＭＹ－Ａ－２０３号室,,09,201,3200048,,,,,,,2022-07-27,1,,,,,エフイーエムイー,0
494,2060001035120,新規,0,2022-07-27,2022-07-27,株式会社グッド・マジックス,,株式会社,栃木県,宇都宮市,御幸ケ原町３６－３３,,09,201,3210982,,,,,,,2022-07-27,1,,,,,グッドマジックス,0
516,2120001247584,新規,0,2022-07-27,2022-07-27,ＫＥＭＬＡＮＤ株式会社,,株式会社,大阪府,大阪市東成区,深江北３丁目４番２１号エクラ深江橋５０８Ａ,,27,115,5370001,,,,,,,2022-07-27,1,,,,,ケムランド,0
517,2120001247667,新規,0,2022-07-27,2022-07-27,ＣＡＥＬＵＳ株式会社,,株式会社,大阪府,大阪市中央区,南久宝寺町１丁目６番１０－１１０４号,,27,128,5410058,,,,,,,2022-07-27,1,,,,,カイルス,0
518,2120001247691,新規,0,2022-07-27,2022-07-27,三立商事株式会社,,株式会社,大阪府,大阪市東淀川区,豊新５丁目６番３－３０１号,,27,114,5330014,,,,,,,2022-07-27,1,,,,,サンリツショウジ,0
519,2120001247700,新規,0,2022-07-27,2022-07-27,株式会社九一,,株式会社,大阪府,大阪市西成区,天下茶屋１丁目６番２４－１０６号,,27,122,5570014,,,,,,,2022-07-27,1,,,,,クイチ,0
524,2120003022127,新規,0,2022-07-27,2022-07-27,Ｈ＆Ｄ合同会社,,合同会社,大阪府,大阪市中央区,上汐２丁目２番１号メゾン上汐５０４,,27,128,5420064,,,,,,,2022-07-27,1,,,,,エイチアンドディー,0
525,2120003022135,新規,0,2022-07-27,2022-07-27,合同会社ルミナス,,合同会社,大阪府,大阪市東淀川区,東中島５丁目１８－２０,,27,114,5330033,,,,,,,2022-07-27,1,,,,,ルミナス,0
526,2120003022143,新規,0,2022-07-27,2022-07-27,合同会社ＹＫ,,合同会社,大阪府,大阪市西区,江之子島１丁目６番５号１０階,,27,106,5500006,,,,,,,2022-07-27,1,,,,,ワイケー,0
527,2120003022151,新規,0,2022-07-27,2022-07-27,合同会社コモダス,,合同会社,大阪府,大阪市北区,梅田１丁目１－３大阪駅前第３ビル２９階１－１－１号室,,27,127,5300001,,,,,,,2022-07-27,1,,,,,コモダス,0
532,2120101065960,新規,0,2022-07-27,2022-07-27,株式会社ＡｒｋＬＥ,,株式会社,大阪府,泉南郡岬町,淡輪３９９０,,27,366,5990301,,,,,,,2022-07-27,1,,,,,アークル,0
542,2130001072255,新規,0,2022-07-27,2022-07-27,株式会社京都インターナショナル会計,,株式会社,京都府,京都市下京区,七条通烏丸西入東境町１９１番地２烏丸七条ビル４階,,26,106,6008217,,,,,,,2022-07-27,1,,,,,キョウトインターナショナルカイケイ,0
543,2130001072263,新規,0,2022-07-27,2022-07-27,株式会社ＳＫメンテナンス,,株式会社,京都府,京田辺市,同志社山手４丁目２－８７,,26,211,6100315,,,,,,,2022-07-27,1,,,,,エスケーメンテナンス,0
545,2130003008075,新規,0,2022-07-27,2022-07-27,合同会社アシュトンラボ,,合同会社,京都府,京都市南区,吉祥院中島町３０番地１３,,26,107,6018313,,,,,,,2022-07-27,1,,,,,アシュトンラボ,0
549,2140001126860,新規,0,2022-07-27,2022-07-27,株式会社ＳＥＮ,,株式会社,兵庫県,三田市,中央町１－５－８０３,,28,219,6691529,,,,,,,2022-07-27,1,,,,,エスイエヌ,0
550,2140001126877,新規,0,2022-07-27,2022-07-27,シマダセイカク株式会社,,株式会社,兵庫県,たつの市,揖保町栄８１番地３,,28,229,6794141,,,,,,,2022-07-27,1,,,,,シマダセイカク,0
552,2140005026256,新規,0,2022-07-27,2022-07-27,一般社団法人兵庫ムクナ豆生産組合,,その他の設立登記法人,兵庫県,姫路市,安田４丁目８０アビックス駅南大路ビル４Ｆ,,28,201,6700955,,,,,,,2022-07-27,1,,,,,ヒョウゴムクナマメセイサンクミアイ,0
554,2150001025723,新規,0,2022-07-27,2022-07-27,株式会社ｏｓｓｙ,,株式会社,奈良県,奈良市,四条大路５丁目４－３０,,29,201,6308014,,,,,,,2022-07-27,1,,,,,オーエスエスワイ,0
561,2160001024402,新規,0,2022-07-27,2022-07-27,株式会社ポキポキ堂フィジカルラボ,,株式会社,滋賀県,大津市,今堅田２丁目１８番１１号,,25,201,5200241,,,,,,,2022-07-27,1,,,,,ポキポキドウフィジカルラボ,0
571,2180301036467,新規,0,2022-07-27,2022-07-27,ＫｘＫ株式会社,,株式会社,愛知県,豊橋市,花田町字西郷４２番地１ＷＥＳＴ２．３０３号,,23,201,4418024,,,,,,,2022-07-27,1,,,,,ケーバイケー,0
575,2190001029646,新規,0,2022-07-27,2022-07-27,株式会社スキルホールディングス,,株式会社,三重県,三重郡菰野町,大字福村８７８番地２,,24,341,5101234,,,,,,,2022-07-27,1,,,,,スキルホールディングス,0
591,2230003001895,新規,0,2022-07-27,2022-07-27,合同会社ＹＢＭ,,合同会社,富山県,富山市,秋吉１５８番地１６,,16,201,9300953,,,,,,,2022-07-27,1,,,,,ワイビーエム,0
595,2240001060133,新規,0,2022-07-27,2022-07-27,株式会社政商,,株式会社,広島県,東広島市,西条町御薗宇６９３０番地ガーデニアＡ２０１号,,34,212,7390024,,,,,,,2022-07-27,1,,,,,セイショウ,0
597,2240003005730,新規,0,2022-07-27,2022-07-27,ヒイラギ合同会社,,合同会社,広島県,広島市佐伯区,五日市６丁目４番５３号,,34,108,7315127,,,,,,,2022-07-27,1,,,,,ヒイラギ,0
598,2250001019681,新規,0,2022-07-27,2022-07-27,株式会社ガレージにっきい,,株式会社,山口県,下関市,菊川町大字楢崎７７０番地２,,35,201,7500322,,,,,,,2022-07-27,1,,,,,ガレージニッキイ,0
604,2270001008600,新規,0,2022-07-27,2022-07-27,株式会社フォージオ,,株式会社,鳥取県,東伯郡湯梨浜町,大字はわい温泉３１番地２,,31,370,6820715,,,,,,,2022-07-27,1,,,,,フォージオ,0
615,2290005018759,新規,0,2022-07-27,2022-07-27,ＮＰＯ法人ベトナムきぼうの会,,その他の設立登記法人,福岡県,飯塚市,菰田西２丁目２８８番地２２ＡＢ２,,40,205,8200017,,,,,,,2022-07-27,1,,,,,ベトナムキボウノカイ,0
618,2340001024920,新規,0,2022-07-27,2022-07-27,株式会社ウエノクリーンサービス,,株式会社,鹿児島県,鹿児島市,下田町６番１２号ハイムＭ,,46,201,8920873,,,,,,,2022-07-27,1,,,,,ウエノクリーンサービス,0
620,2360001030735,新規,0,2022-07-27,2022-07-27,株式会社Ｉｍａｇｉｎａｔｉｏｎ‐Ｆｒｅｅ,,株式会社,沖縄県,豊見城市,字金良４５３番地９,,47,212,9010204,,,,,,,2022-07-27,1,,,,,イマジネーションーフリー,0
638,2430001087124,新規,0,2022-07-27,2022-07-27,鳴株式会社,,株式会社,北海道,苫小牧市,北光町４丁目５番５号－２０６号室,,01,213,0530852,,,,,,,2022-07-27,1,,,,,メイ,0
642,2470005006456,新規,0,2022-07-27,2022-07-27,一般社団法人香川県マンション管理士会,,その他の設立登記法人,香川県,高松市,木太町３８６１番地４,,37,201,7600080,,,,,,,2022-07-27,1,,,,,カガワケンマンションカンリシカイ,0
647,2700150110988,新規,0,2022-07-27,2022-07-27,ＵＫＢ　Ｉｎｔｅｒｎａｔｉｏｎａｌ　Ｔｒａｄｉｎｇ　Ｃｏｍｐａｎｙ　Ｐｖｔ　Ｌｔｄ,,外国会社等,千葉県,八街市,朝日１７２番地３オフィスＢ,,12,230,2891101,スリランカ民主社会主義共和国、コロンボ１１、シーストリート、８５－１５,,,,,,2022-07-27,1,,,,,ユーケイビーインターナシヨナルトレーデイングカンパニーピーヴイテイエルテイデイ,0
666,3010001228256,新規,0,2022-07-27,2022-07-27,カラー株式会社,,株式会社,東京都,千代田区,富士見１丁目３番１１号富士見デュープレックスビズ４階,,13,101,1020071,,,,,,,2022-07-27,1,,,,,カラー,0
667,3010001228330,新規,0,2022-07-27,2022-07-27,キムラホールディングス株式会社,,株式会社,東京都,中央区,日本橋本町４丁目９番２号,,13,102,1030023,,,,,,,2022-07-27,1,,,,,キムラホールディングス,0
668,3010001228355,新規,0,2022-07-27,2022-07-27,ｈｕｍｉｈｕｍｉ株式会社,,株式会社,東京都,千代田区,外神田２丁目１３番５号ＭＩＮＴＲＯＮ秋葉原ビル６Ｆ,,13,101,1010021,,,,,,,2022-07-27,1,,,,,フミフミ,0
669,3010001228363,新規,0,2022-07-27,2022-07-27,株式会社Ｌｕｍｉｋｈａ,,株式会社,東京都,千代田区,内神田１丁目１５番１２号内神田サトウビル３Ｆ,,13,101,1010047,,,,,,,2022-07-27,1,,,,,ルミカ,0
670,3010003038257,新規,0,2022-07-27,2022-07-27,合同会社ケイエスカンパニー,,合同会社,東京都,千代田区,富士見１丁目２番３７－１１０３号,,13,101,1020071,,,,,,,2022-07-27,1,,,,,ケイエスカンパニー,0
679,3010401168705,新規,0,2022-07-27,2022-07-27,Ｐａｒｅａｌ株式会社,,株式会社,東京都,港区,南青山２丁目２番１５号,,13,103,1070062,,,,,,,2022-07-27,1,,,,,パリアル,0
680,3010401168746,新規,0,2022-07-27,2022-07-27,株式会社ＮＳＳＫ‐ＹＹ,,株式会社,東京都,港区,愛宕２丁目５番１号愛宕グリーンヒルズＭＯＲＩタワー,,13,103,1050002,,,,,,,2022-07-27,1,,,,,エヌエスエスケーワイワイ,0
685,3010403028122,新規,0,2022-07-27,2022-07-27,合同会社ニケ・コーポレーション,,合同会社,東京都,港区,赤坂６丁目１０番３３－５１４号,,13,103,1070052,,,,,,,2022-07-27,1,,,,,ニケコーポレーション,0
686,3010403028130,新規,0,2022-07-27,2022-07-27,アトリエ・アンソロポロジー合同会社,,合同会社,東京都,港区,南青山２丁目２番１５号ウィン青山９４２,,13,103,1070062,,,,,,,2022-07-27,1,,,,,アトリエアンソロポロジー,0
687,3010403028147,新規,0,2022-07-27,2022-07-27,合同会社バスターテック,,合同会社,東京都,港区,西麻布２丁目２５番２１－１１０２号,,13,103,1060031,,,,,,,2022-07-27,1,,,,,バスターテック,0
688,3010403028163,新規,0,2022-07-27,2022-07-27,Ｌｉｆｅｓｔｙｌｅ３合同会社,,合同会社,東京都,港区,六本木１丁目６番１号泉ガーデンタワー,,13,103,1060032,,,,,,,2022-07-27,1,,,,,ライフスタイルスリー,0
693,3010503006663,新規,0,2022-07-27,2022-07-27,合同会社モビリティファンド１号,,合同会社,東京都,台東区,柳橋１丁目２３番３号ＶＯＲＴ浅草橋駅前８階,,13,106,1110052,,,,,,,2022-07-27,1,,,,,モビリティファンドイチゴウ,0
696,3010601061544,新規,0,2022-07-27,2022-07-27,株式会社加信商事,,株式会社,東京都,江東区,南砂２丁目３番５－９１５号,,13,108,1360076,,,,,,,2022-07-27,1,,,,,カシンショウジ,0
697,3010601061552,新規,0,2022-07-27,2022-07-27,株式会社ＡＰ,,株式会社,東京都,江東区,塩浜２丁目７番５－６４２号,,13,108,1350043,,,,,,,2022-07-27,1,,,,,エーピー,0
699,3010701042997,新規,0,2022-07-27,2022-07-27,株式会社ショーンズコーポレーション,,株式会社,東京都,品川区,東五反田２丁目１０番１－４１１２号,,13,109,1410022,,,,,,,2022-07-27,1,,,,,ショーンズコーポレーション,0
702,3010803004243,新規,0,2022-07-27,2022-07-27,合同会社マルモ,,合同会社,東京都,大田区,西蒲田８丁目２番１－６１１号西蒲田スカイハイツ６１１,,13,111,1440051,,,,,,,2022-07-27,1,,,,,マルモ,0
704,3010903007542,新規,0,2022-07-27,2022-07-27,合同会社サイコーカンパニー,,合同会社,東京都,世田谷区,駒沢４丁目１５番７号,,13,112,1540012,,,,,,,2022-07-27,1,,,,,サイコーカンパニー,0
708,3011001148774,新規,0,2022-07-27,2022-07-27,株式会社Ｃｅｎｔｉｓ,,株式会社,東京都,渋谷区,東３丁目２２番１４号,,13,113,1500011,,,,,,,2022-07-27,1,,,,,センティス,0
709,3011001148873,新規,0,2022-07-27,2022-07-27,株式会社ヨヨウッド,,株式会社,東京都,渋谷区,代々木４丁目１０番７号,,13,113,1510053,,,,,,,2022-07-27,1,,,,,ヨヨウッド,0
713,3011201023991,新規,0,2022-07-27,2022-07-27,株式会社ＳＵＮＬＯＴＳＯ,,株式会社,東京都,中野区,中央１丁目２１番１３号シャルマン中野坂上５０７号室,,13,114,1640011,,,,,,,2022-07-27,1,,,,,サンロッツォ,0
714,3011203003884,新規,0,2022-07-27,2022-07-27,ＫＭＣ合同会社,,合同会社,東京都,中野区,大和町４丁目１１－３,,13,114,1650034,,,,,,,2022-07-27,1,,,,,ケーエムシー,0
715,3011303004485,新規,0,2022-07-27,2022-07-27,合同会社ＹＭＹ,,合同会社,東京都,杉並区,梅里１丁目２番１８号,,13,115,1660011,,,,,,,2022-07-27,1,,,,,ワイエムワイ,0
718,3011501028311,新規,0,2022-07-27,2022-07-27,株式会社ＮＩＳＨＡＮ,,株式会社,東京都,荒川区,南千住５丁目４２番４号メゾン丸井１０４,,13,118,1160003,,,,,,,2022-07-27,1,,,,,ニサン,0
722,3011701025488,新規,0,2022-07-27,2022-07-27,Ｂｏｏ　Ｈｏｍｅ株式会社,,株式会社,東京都,江戸川区,南葛西２丁目３－３エトワス南葛西Ｖ３０４,00127328,13,123,1340085,,,,,,,2022-07-27,1,,,,,ブーホーム,0
724,3011801041055,新規,0,2022-07-27,2022-07-27,株式会社ＬＵＭＩＮＯＳＩＴＹ　Ｉｎｃ．,,株式会社,東京都,葛飾区,新宿６丁目２番１－２５２５号,,13,122,1250051,,,,,,,2022-07-27,1,,,,,ルミナシティインク,0
725,3011801041063,新規,0,2022-07-27,2022-07-27,株式会社水設,,株式会社,東京都,足立区,椿２丁目２４番１号,,13,121,1230871,,,,,,,2022-07-27,1,,,,,スイセツ,0
727,3012401039456,新規,0,2022-07-27,2022-07-27,太田事務所株式会社,,株式会社,東京都,武蔵野市,中町３丁目２５番１３号,,13,203,1800006,,,,,,,2022-07-27,1,,,,,オオタジムショ,0
728,3012403005497,新規,0,2022-07-27,2022-07-27,サンオクターブ合同会社,,合同会社,東京都,武蔵野市,吉祥寺本町１丁目１３番２号シラカバビル５階,,13,203,1800004,,,,,,,2022-07-27,1,,,,,サンオクターブ,0
734,3013301049413,新規,0,2022-07-27,2022-07-27,株式会社フェニックス,,株式会社,東京都,豊島区,南大塚２丁目１１番１０号,,13,116,1700005,,,,,,,2022-07-27,1,,,,,フェニックス,0
735,3013301049421,新規,0,2022-07-27,2022-07-27,株式会社Ｈ・Ｒ・Ｆ,,株式会社,東京都,豊島区,巣鴨３丁目２４番３号鹿友ディアプラザ巣鴨第２，４０３号,,13,116,1700002,,,,,,,2022-07-27,1,,,,,エイチアールエフ,0
737,3013303006239,新規,0,2022-07-27,2022-07-27,合同会社Ｅｓｔａｓｕ,,合同会社,東京都,豊島区,千川２丁目３７番３号メゾン・ラポール１０２号,,13,116,1710041,,,,,,,2022-07-27,1,,,,,エスタス,0
753,3021001076594,新規,0,2022-07-27,2022-07-27,日本東洋株式会社,,株式会社,神奈川県,鎌倉市,極楽寺２丁目１３番１１－６号,,14,204,2480023,,,,,,,2022-07-27,1,,,,,ニホントウヨウ,0
758,3030001149392,新規,0,2022-07-27,2022-07-27,株式会社高建,,株式会社,埼玉県,入間郡三芳町,大字藤久保６１２０番地,,11,324,3540041,,,,,,,2022-07-27,1,,,,,タカケン,0
759,3030001149401,新規,0,2022-07-27,2022-07-27,株式会社ティー・エフ・シー,,株式会社,埼玉県,所沢市,西所沢２丁目６番４号,,11,208,3591144,,,,,,,2022-07-27,1,,,,,ティーエフシー,0
762,3030003019858,新規,0,2022-07-27,2022-07-27,芸海合同会社,,合同会社,埼玉県,川口市,南町２丁目６番４６号,,11,203,3320026,,,,,,,2022-07-27,1,,,,,ゲイカイ,0
771,3040001124394,新規,0,2022-07-27,2022-07-27,株式会社恵楽,,株式会社,千葉県,船橋市,市場３丁目１０番９号,,12,204,2730001,,,,,,,2022-07-27,1,,,,,エラク,0
772,3040001124403,新規,0,2022-07-27,2022-07-27,株式会社藤田建総,,株式会社,千葉県,木更津市,真里谷２４１０番地４,,12,206,2920201,,,,,,,2022-07-27,1,,,,,フジタケンソウ,0
774,3040003020492,新規,0,2022-07-27,2022-07-27,ＳＴ内装工業合同会社,,合同会社,千葉県,市川市,原木３丁目１４番２３号,,12,203,2720004,,,,,,,2022-07-27,1,,,,,エスティナイソウコウギョウ,0
775,3040003020501,新規,0,2022-07-27,2022-07-27,合同会社かずさ商会,,合同会社,千葉県,木更津市,大和２丁目１６番１３号,,12,206,2920805,,,,,,,2022-07-27,1,,,,,カズサショウカイ,0
779,3050001051456,新規,0,2022-07-27,2022-07-27,株式会社ＴＳエステート,,株式会社,茨城県,潮来市,あやめ２丁目２０番地１０ＴＳ´Ｇ３潮来２０１,,08,223,3112425,,,,,,,2022-07-27,1,,,,,ティエスエステート,0
780,3050003006722,新規,0,2022-07-27,2022-07-27,田村コンサルティング合同会社,,合同会社,茨城県,坂東市,法師戸３７６番地,,08,228,3060623,,,,,,,2022-07-27,1,,,,,タムラコンサルティング,0
782,3060001035111,新規,0,2022-07-27,2022-07-27,株式会社ＦＵＮ,,株式会社,栃木県,佐野市,米山南町５８番地７,,09,204,3270818,,,,,,,2022-07-27,1,,,,,ファン,0
787,3090001017692,新規,0,2022-07-27,2022-07-27,株式会社タスクライズ,,株式会社,山梨県,甲府市,下石田２丁目１４番８号,,19,201,4000046,,,,,,,2022-07-27,1,,,,,タスクライズ,0
789,3100003006634,新規,0,2022-07-27,2022-07-27,合同会社岩咲土木,,合同会社,長野県,中野市,大字田上１０４５番地,,20,211,3830002,,,,,,,2022-07-27,1,,,,,イワサキドボク,0
808,3120001247625,新規,0,2022-07-27,2022-07-27,千里株式会社,,株式会社,大阪府,大阪市東成区,深江北３丁目４番２１号エクラ深江橋１１０Ｄ,,27,115,5370001,,,,,,,2022-07-27,1,,,,,センリ,0
809,3120001247641,新規,0,2022-07-27,2022-07-27,廣川株式会社,,株式会社,大阪府,大阪市中央区,玉造１丁目２３－７,,27,128,5400004,,,,,,,2022-07-27,1,,,,,ヒロカワ,0
810,3120001247658,新規,0,2022-07-27,2022-07-27,ＳＩＡデジタルテクノロジー株式会社,,株式会社,大阪府,大阪市淀川区,西中島５丁目７番１７号ビジネスヴィップ第２新大阪４０６号室,,27,123,5320011,,,,,,,2022-07-27,1,,,,,エスアイエイデジタルテクノロジー,0
812,3120003022150,新規,0,2022-07-27,2022-07-27,合同会社ＫＹ,,合同会社,大阪府,大阪市都島区,都島本通１丁目７番２－６０１号,,27,102,5340021,,,,,,,2022-07-27,1,,,,,ケーワイ,0
824,3120901046300,新規,0,2022-07-27,2022-07-27,株式会社バックコート,,株式会社,大阪府,茨木市,下穂積１丁目４番７－６０３号,,27,211,5670041,,,,,,,2022-07-27,1,,,,,バックコート,0
825,3122001036099,新規,0,2022-07-27,2022-07-27,ＮＳＫＴ株式会社,,株式会社,大阪府,東大阪市,上石切町２丁目１２番１４号,,27,227,5798012,,,,,,,2022-07-27,1,,,,,エヌエスキティ,0
830,3130001072262,新規,0,2022-07-27,2022-07-27,株式会社アルテマプロジェクト,,株式会社,京都府,京都市中京区,西ノ京中御門西町６３－１１,,26,104,6048475,,,,,,,2022-07-27,1,,,,,アルテマプロジェクト,0
834,3140001126851,新規,0,2022-07-27,2022-07-27,ｓａｎｓｙｏ株式会社,,株式会社,兵庫県,姫路市,八代緑ケ丘町１２番２３号,,28,201,6700886,,,,,,,2022-07-27,1,,,,,サンショウ,0
835,3140001126876,新規,0,2022-07-27,2022-07-27,株式会社ととファーム,,株式会社,兵庫県,宍粟市,山崎町須賀沢８７５番地,,28,227,6712533,,,,,,,2022-07-27,1,,,,,トトファーム,0
836,3140003017958,新規,0,2022-07-27,2022-07-27,合同会社システムバンク,,合同会社,兵庫県,宝塚市,中山荘園１番１０号,,28,214,6650868,,,,,,,2022-07-27,1,,,,,システムバンク,0
841,3150001025722,新規,0,2022-07-27,2022-07-27,株式会社ＣＡＮＤＹ　ＪＵＩＣＥ,,株式会社,奈良県,奈良市,三条町３２１番地の４,,29,201,6308244,,,,,,,2022-07-27,1,,,,,キャンディジュース,0
845,3180001152316,新規,0,2022-07-27,2022-07-27,ディッシュ株式会社,,株式会社,愛知県,半田市,乙川畑田町２丁目２４番地,,23,205,4750067,,,,,,,2022-07-27,1,,,,,ディッシュ,0
850,3180003024067,新規,0,2022-07-27,2022-07-27,ＶｉＰＰＥＲＬＡＮＤ合同会社,,合同会社,愛知県,名古屋市西区,栄生２丁目１４－２４,,23,104,4510052,,,,,,,2022-07-27,1,,,,,ヴィッパーランド,0
872,3250001019680,新規,0,2022-07-27,2022-07-27,ワタナベ・マシナリー株式会社,,株式会社,山口県,下関市,長府中土居北町４番１０号,,35,201,7520963,,,,,,,2022-07-27,1,,,,,ワタナベマシナリー,0
876,3270001008599,新規,0,2022-07-27,2022-07-27,株式会社ＡＮＤＯＮＥ,,株式会社,鳥取県,米子市,明治町２２７番地,,31,202,6830053,,,,,,,2022-07-27,1,,,,,アンドワン,0
878,3270003001429,新規,0,2022-07-27,2022-07-27,リーサス合同会社,,合同会社,鳥取県,米子市,祇園町２丁目２６７番地７２,,31,202,6830047,,,,,,,2022-07-27,1,,,,,リーサス,0
893,3330001029960,新規,0,2022-07-27,2022-07-27,株式会社大津未来企画,,株式会社,熊本県,菊池郡大津町,大字森７５２番地２１,,43,403,8691217,,,,,,,2022-07-27,1,,,,,オオヅミライキカク,0
894,3330005010537,新規,0,2022-07-27,2022-07-27,特定非営利活動法人ＭＡＳＡ　ＦＲＥＥ　ＳＣＨＯＯＬ,,その他の設立登記法人,熊本県,玉名市,山田１７９７番地１,,43,206,8650066,,,,,,,2022-07-27,1,,,,,マサフリースクール,0
896,3350001017872,新規,0,2022-07-27,2022-07-27,株式会社固質物産,,株式会社,宮崎県,児湯郡川南町,大字川南３９１３番地６,,45,405,8891301,,,,,,,2022-07-27,1,,,,,コウシツブッサン,0
897,3360001030742,新規,0,2022-07-27,2022-07-27,チュラフォーレ株式会社,,株式会社,沖縄県,那覇市,安謝１丁目２３番１号,,47,201,9000003,,,,,,,2022-07-27,1,,,,,チュラフォーレ,0
899,3370001048833,新規,0,2022-07-27,2022-07-27,株式会社ブロードライフ,,株式会社,宮城県,仙台市青葉区,小松島新堤２３－１,,04,101,9810906,,,,,,,2022-07-27,1,,,,,ブロードライフ,0
910,3410003003690,新規,0,2022-07-27,2022-07-27,合同会社神宮寺嶽ファミリー,,合同会社,秋田県,大仙市,神宮寺字神宮寺１９３番地,,05,212,0191701,,,,,,,2022-07-27,1,,,,,ジングウジダケファミリー,0
912,3430001087115,新規,0,2022-07-27,2022-07-27,株式会社Ｋｕｒｅｎａｉ　ｍｅｄｉｃａｌ　ｓｅｒｖｉｃｅ,,株式会社,北海道,札幌市北区,麻生町４丁目６番８号,,01,102,0010045,,,,,,,2022-07-27,1,,,,,クレナイメディカルサービス,0
913,3430001087123,新規,0,2022-07-27,2022-07-27,株式会社ホームビルダー馬場,,株式会社,北海道,磯谷郡蘭越町,蘭越町５２９番地４,,01,394,0481301,,,,,,,2022-07-27,1,,,,,ホームビルダーババ,0
918,3500001024358,新規,0,2022-07-27,2022-07-27,株式会社岡田商事松山,,株式会社,愛媛県,宇和島市,津島町高田丁６０３番地１,,38,203,7983302,,,,,,,2022-07-27,1,,,,,オカダショウジマツヤマ,0
919,3700150104766,新規,0,2022-07-27,2021-09-16,ＰＡＴＣＨ－ＷＯＲＫＳ,,その他,東京都,練馬区,三原台１丁目３６－２吉野様方,,13,120,1770031,,,,,,,2021-09-16,1,,,,,パツチワークス,0
928,4010001228263,新規,0,2022-07-27,2022-07-27,株式会社Ｆｅｌｉｃａ　ＪＩＴ,,株式会社,東京都,中央区,日本橋浜町３丁目３番１号,,13,102,1030007,,,,,,,2022-07-27,1,,,,,フェリカジット,0
929,4010001228288,新規,0,2022-07-27,2022-07-27,Ｄｉａｍｏｎｄ　Ｍｅｄｉｎｏ　Ｃａｐｉｔａｌ株式会社,,株式会社,東京都,千代田区,丸の内２丁目２番１号,,13,101,1000005,,,,,,,2022-07-27,1,,,,,ダイヤモンドメディノキャピタル,0
930,4010001228387,新規,0,2022-07-27,2022-07-27,株式会社ＳＴＥＬＬＡＲ　ＷＡＶＥＳ　ＣＬＵＢ,,株式会社,東京都,中央区,銀座１丁目２２番１１号銀座大竹ビジデンス２階,,13,102,1040061,,,,,,,2022-07-27,1,,,,,ステラウェイブスクラブ,0
933,4010003038280,新規,0,2022-07-27,2022-07-27,合同会社イーザス,,合同会社,東京都,千代田区,丸の内３丁目１番１号東京共同会計事務所内,,13,101,1000005,,,,,,,2022-07-27,1,,,,,イーザス,0
934,4010103001956,新規,0,2022-07-27,2022-07-27,合同会社マルロゴ,,合同会社,東京都,八王子市,台町３丁目６番１号グランシティワンダーマークス７０４,,13,201,1930931,,,,,,,2022-07-27,1,,,,,マルロゴ,0
940,4010401168745,新規,0,2022-07-27,2022-07-27,株式会社ＮＳＳＫ‐Ｙ,,株式会社,東京都,港区,愛宕２丁目５番１号愛宕グリーンヒルズＭＯＲＩタワー,,13,103,1050002,,,,,,,2022-07-27,1,,,,,エヌエスエスケーワイ,0
941,4010403028121,新規,0,2022-07-27,2022-07-27,合同会社ＲＵＮＴＺ,,合同会社,東京都,港区,南青山２丁目２番１５号ウィン青山１３０２,,13,103,1070062,,,,,,,2022-07-27,1,,,,,ランツ,0
946,4010601061535,新規,0,2022-07-27,2022-07-27,東京正大華日株式会社,,株式会社,東京都,江東区,豊洲６丁目２番３１－１９１７号,,13,108,1350061,,,,,,,2022-07-27,1,,,,,トウキョウセイダイカニチ,0
955,4010901051302,新規,0,2022-07-27,2022-07-27,株式会社恵息会,,株式会社,東京都,世田谷区,成城４丁目２０番３１号,,13,112,1570066,,,,,,,2022-07-27,1,,,,,ケイソクカイ,0
974,4011103011994,新規,0,2022-07-27,2022-07-27,合同会社ホームオフィス,,合同会社,東京都,新宿区,新宿２丁目１１番７号第３３宮庭ビル５階,,13,104,1600022,,,,,,,2022-07-27,1,,,,,ホームオフィス,0
977,4011201023982,新規,0,2022-07-27,2022-07-27,Ｈｅａｒｔｙ株式会社,,株式会社,東京都,中野区,東中野４丁目７－１８岡藤ビル３０５,,13,114,1640003,,,,,,,2022-07-27,1,,,,,ハーティー,0
979,4011301027982,新規,0,2022-07-27,2022-07-27,株式会社ＷＫ,,株式会社,東京都,杉並区,松庵３丁目２３番１２号,,13,115,1670054,,,,,,,2022-07-27,1,,,,,ダブリューケー,0
981,4011401024434,新規,0,2022-07-27,2022-07-27,株式会社煦安,,株式会社,東京都,板橋区,常盤台４丁目３７番１２号１階,,13,119,1740071,,,,,,,2022-07-27,1,,,,,クアン,0
988,4011801041054,新規,0,2022-07-27,2022-07-27,株式会社Ｒ,,株式会社,東京都,足立区,保木間１丁目１９番９号,,13,121,1210064,,,,,,,2022-07-27,1,,,,,アール,0
989,4011801041062,新規,0,2022-07-27,2022-07-27,株式会社新東申,,株式会社,東京都,足立区,竹の塚５丁目３６番１８－２０４号,,13,121,1210813,,,,,,,2022-07-27,1,,,,,シントウシン,0
990,4011803005189,新規,0,2022-07-27,2022-07-27,宏峰商事合同会社,,合同会社,東京都,葛飾区,亀有５丁目５６番１１号キャピタルＫ１０１,,13,122,1250061,,,,,,,2022-07-27,1,,,,,コウホウショウジ,0
991,4012401039455,新規,0,2022-07-27,2022-07-27,株式会社ココセブン,,株式会社,東京都,狛江市,岩戸北１丁目７番１５号,,13,219,2010004,,,,,,,2022-07-27,1,,,,,ココセブン,0
992,4012403005505,新規,0,2022-07-27,2022-07-27,合同会社ＴＮＴ,,合同会社,東京都,調布市,上石原２丁目２９－７ドミトリー西調布２号室,,13,208,1820035,,,,,,,2022-07-27,1,,,,,ティエヌティ,0
993,4012701017160,新規,0,2022-07-27,2022-07-27,株式会社よろこび,,株式会社,東京都,東村山市,富士見町３丁目２６番地４７,,13,213,1890024,,,,,,,2022-07-27,1,,,,,ヨロコビ,0
994,4013301049420,新規,0,2022-07-27,2022-07-27,イコール株式会社,,株式会社,東京都,豊島区,駒込４丁目２番２０号染井ハウス１０３号,,13,116,1700003,,,,,,,2022-07-27,1,,,,,イコール,0
1009,4030001149243,新規,0,2022-07-27,2022-07-27,株式会社スカイブルー,,株式会社,埼玉県,新座市,野火止５丁目２番４３号,,11,230,3520011,,,,,,,2022-07-27,1,,,,,スカイブルー,0
1010,4030001149367,新規,0,2022-07-27,2022-07-27,Ｄｅ　ｗｅｒｅｌｄ　ｖｅｒｂｉｎｄｅｎ株式会社,,株式会社,埼玉県,さいたま市大宮区,北袋一丁目６０１番１号,,11,103,3300800,,,,,,,2022-07-27,1,,,,,ディベードヴァルビデン,0
1011,4030001149400,新規,0,2022-07-27,2022-07-27,株式会社川上工務店,,株式会社,埼玉県,春日部市,銚子口１１９８番地５,,11,214,3440013,,,,,,,2022-07-27,1,,,,,カワカミコウムテン,0
1017,4040001124410,新規,0,2022-07-27,2022-07-27,Ｖｉａｃｉｅｌｏ株式会社,,株式会社,千葉県,船橋市,夏見５丁目５番４号,,12,204,2730865,,,,,,,2022-07-27,1,,,,,ヴィアシエロ,0
1018,4040001124419,新規,0,2022-07-27,2022-07-27,株式会社メイクス,,株式会社,千葉県,佐倉市,王子台３丁目３番１７号清宮ビル２階,,12,212,2850837,,,,,,,2022-07-27,1,,,,,メイクス,0
1019,4040001124427,新規,0,2022-07-27,2022-07-27,ＹＭリサーチアンドコンサルティング株式会社,,株式会社,千葉県,市川市,富浜２丁目１４番２号クラヴィエプランドールＩＩ－１０３号,00127338,12,203,2720115,,,,,,,2022-07-27,1,,,,,ワイエムリサーチアンドコンサルティング,0
1022,4040003020459,新規,0,2022-07-27,2022-07-27,合同会社ＭＡ１,,合同会社,千葉県,市川市,東菅野２丁目１８番１４号,,12,203,2720823,,,,,,,2022-07-27,1,,,,,エムエーワン,0
1023,4040003020500,新規,0,2022-07-27,2022-07-27,合同会社ＬＩＦＩＸ,,合同会社,千葉県,富里市,御料９６３番地３４,,12,233,2860211,,,,,,,2022-07-27,1,,,,,リフィックス,0
1033,4050001051455,新規,0,2022-07-27,2022-07-27,株式会社ＧＬＯＲＹ,,株式会社,茨城県,土浦市,桜町２丁目９番３号,,08,203,3000037,,,,,,,2022-07-27,1,,,,,グローリー,0
1038,4070001039465,新規,0,2022-07-27,2022-07-27,株式会社エムズウェルディング,,株式会社,群馬県,高崎市,木部町４１６,,10,202,3701212,,,,,,,2022-07-27,1,,,,,エムズウェルディング,0
1073,4120001247657,新規,0,2022-07-27,2022-07-27,Ｓａｋｕｒａｆｕｂｕｋｉ株式会社,,株式会社,大阪府,大阪市東淀川区,東中島１丁目２０番１２号ユニゾーン新大阪７２０号室,,27,114,5330033,,,,,,,2022-07-27,1,,,,,サクラフブキ,0
1074,4120001247665,新規,0,2022-07-27,2022-07-27,チアフルピース株式会社,,株式会社,大阪府,寝屋川市,香里南之町１４番２５号,,27,215,5720084,,,,,,,2022-07-27,1,,,,,チアフルピース,0
1075,4120001247681,新規,0,2022-07-27,2022-07-27,株式会社ＢＵＩＬＮＡＶＩ,,株式会社,大阪府,大阪市淀川区,西中島５丁目９番５号,,27,123,5320011,,,,,,,2022-07-27,1,,,,,ビルナビ,0
1085,4120005023088,新規,0,2022-07-27,2022-07-27,医療法人天の川レディースクリニック,,その他の設立登記法人,大阪府,交野市,私部西２丁目３番２５号,,27,230,5760041,,,,,,,2022-07-27,1,,,,,アマノガワレディースクリニック,0
1086,4120005023113,新規,0,2022-07-27,2022-07-27,一般財団法人Ｈｏｐｅ　ｏｆ　Ａｓｉａ,,その他の設立登記法人,大阪府,大阪市中央区,淡路町２丁目６番１１号淡路町パークビルＢ１階,,27,128,5410047,,,,,,,2022-07-27,1,,,,,ホープオブアジア,0
1097,4122005003631,新規,0,2022-07-27,2022-07-27,医療法人將弘会,,その他の設立登記法人,大阪府,東大阪市,岩田町４丁目９番３号,,27,227,5780941,,,,,,,2022-07-27,1,,,,,ショウコウカイ,0
1101,4130001072245,新規,0,2022-07-27,2022-07-27,陽水穂株式会社,,株式会社,京都府,京都市中京区,福屋町７３０番地水琴庵２－Ａ,,26,104,6040882,,,,,,,2022-07-27,1,,,,,ヒミホ,0
1102,4130001072261,新規,0,2022-07-27,2022-07-27,株式会社ｅｃｏｓｙｓｔｅｍ,,株式会社,京都府,京都市中京区,富小路通三条下る朝倉町５２８番地,,26,104,6048074,,,,,,,2022-07-27,1,,,,,エコシステム,0
1104,4130003008081,新規,0,2022-07-27,2022-07-27,ＤＯＧ合同会社,,合同会社,京都府,京都市下京区,植松町７１４－９０３,,26,106,6008028,,,,,,,2022-07-27,1,,,,,ドッグ,0
1111,4140001126875,新規,0,2022-07-27,2022-07-27,株式会社Ａ・Ｅ,,株式会社,兵庫県,加東市,下滝野５６３番地,,28,228,6790212,,,,,,,2022-07-27,1,,,,,アエ,0
1113,4140003017949,新規,0,2022-07-27,2022-07-27,合同会社ＫＭＳ,,合同会社,兵庫県,神戸市北区,唐櫃台２丁目８番７号,,28,109,6511332,,,,,,,2022-07-27,1,,,,,ケーエムエス,0
1114,4140003017957,新規,0,2022-07-27,2022-07-27,合同会社スタートアップ,,合同会社,兵庫県,姫路市,飾磨区栄町６２－１,,28,201,6728053,,,,,,,2022-07-27,1,,,,,スタートアップ,0
1115,4150001025721,新規,0,2022-07-27,2022-07-27,中井農園株式会社,,株式会社,奈良県,天理市,西井戸堂町３７９番地,,29,204,6320075,,,,,,,2022-07-27,1,,,,,ナカイノウエン,0
1118,4160001024400,新規,0,2022-07-27,2022-07-27,株式会社タピエス,,株式会社,滋賀県,草津市,青地町６６３番地１シャーメゾン青地２０５号,,25,206,5250041,,,,,,,2022-07-27,1,,,,,タピエス,0
1125,4190001029652,新規,0,2022-07-27,2022-07-27,大宝工業株式会社,,株式会社,三重県,津市,新町１丁目５番２２号,,24,201,5140042,,,,,,,2022-07-27,1,,,,,ダイホウコウギョウ,0
1141,4260001037078,新規,0,2022-07-27,2022-07-27,ＳＴＡＲ　ＷＩＮＧＳ株式会社,,株式会社,岡山県,岡山市中区,高島新屋敷４８４番地７,,33,102,7038241,,,,,,,2022-07-27,1,,,,,スターウィングス,0
1142,4260003003994,新規,0,2022-07-27,2022-07-27,合同会社Ｏｖｅｒｔｕｒｅ,,合同会社,岡山県,岡山市北区,伊島町２丁目２０番２６号２階,,33,101,7000016,,,,,,,2022-07-27,1,,,,,オーバーチュアー,0
1145,4270003001428,新規,0,2022-07-27,2022-07-27,合同会社Ｋａｌａｎｃｈｏｅ,,合同会社,鳥取県,岩美郡岩美町,大字岩本６８５番地５号,,31,302,6810072,,,,,,,2022-07-27,1,,,,,カランコエ,0
1148,4290001098381,新規,0,2022-07-27,2022-07-27,株式会社アップライフ,,株式会社,福岡県,福岡市中央区,薬院１丁目１６番５号,,40,133,8100022,,,,,,,2022-07-27,1,,,,,アップライフ,0
1149,4290001098398,新規,0,2022-07-27,2022-07-27,株式会社ＡＬＮＡＩＲ,,株式会社,福岡県,福岡市中央区,天神２丁目３番３６号ｉｂｂｆｕｋｕｏｋａビル５０１,,40,133,8100001,,,,,,,2022-07-27,1,,,,,アルネア,0
1152,4290801028752,新規,0,2022-07-27,2022-07-27,株式会社ＤＡＩＭＵ,,株式会社,福岡県,北九州市小倉南区,徳吉東１丁目１５番７号,,40,107,8030277,,,,,,,2022-07-27,1,,,,,ダイム,0
1154,4300001013017,新規,0,2022-07-27,2022-07-27,牛嶋冷凍運輸株式会社,,株式会社,佐賀県,三養基郡みやき町,大字簑原２２６４番地１４,,41,346,8490102,,,,,,,2022-07-27,1,,,,,ウシジマレイトウウンユ,0
1158,4330003009456,新規,0,2022-07-27,2022-07-27,合同会社天草美食倶楽部,,合同会社,熊本県,天草市,城下町六丁目１４番地,,43,215,8630016,,,,,,,2022-07-27,1,,,,,アマクサビショククラブ,0
1161,4340003003870,新規,0,2022-07-27,2022-07-27,エリアレス合同会社,,合同会社,鹿児島県,鹿児島市,新屋敷町１６番４０５号,,46,201,8920838,,,,,,,2022-07-27,1,,,,,エリアレス,0
1162,4350001017871,新規,0,2022-07-27,2022-07-27,金城塗装株式会社,,株式会社,宮崎県,宮崎市,村角町長山２８４１番地１,,45,201,8800837,,,,,,,2022-07-27,1,,,,,キンジョウトソウ,0
1163,4360003012192,新規,0,2022-07-27,2022-07-27,アグリＡｉｒ合同会社,,合同会社,沖縄県,豊見城市,字上田２６１－５,,47,212,9010243,,,,,,,2022-07-27,1,,,,,,0
1183,4410001013245,新規,0,2022-07-27,2022-07-27,Ｆ．Ｔ株式会社,,株式会社,秋田県,能代市,二ツ井町飛根字高清水５６２番地,,05,202,0183122,,,,,,,2022-07-27,1,,,,,エフティ,0
1193,4460101007225,新規,0,2022-07-27,2022-07-27,株式会社ＳＴ,,株式会社,北海道,帯広市,西十六条北１丁目２７番地１６,,01,207,0800046,,,,,,,2022-07-27,1,,,,,エスティー,0
1194,4460103001473,新規,0,2022-07-27,2022-07-27,合同会社ＰＯＰ　ＳＴＥＰ,,合同会社,北海道,帯広市,西二十条南３丁目１３番４号,,01,207,0802470,,,,,,,2022-07-27,1,,,,,ポップステップ,0
1208,5010001228254,新規,0,2022-07-27,2022-07-27,株式会社アヴェニール,,株式会社,東京都,中央区,銀座２丁目７番１０号銀座マロニエテラス６階,,13,102,1040061,,,,,,,2022-07-27,1,,,,,アヴェニール,0
1209,5010001228320,新規,0,2022-07-27,2022-07-27,株式会社イメージシステム,,株式会社,東京都,千代田区,神田神保町３丁目２番地サンライトビル,,13,101,1010051,,,,,,,2022-07-27,1,,,,,イメージシステム,0
1210,5010001228361,新規,0,2022-07-27,2022-07-27,株式会社ＮｅｗＬｏｃａｌ,,株式会社,東京都,中央区,日本橋小舟町１４－７ＳＯＩＬＮｉｈｏｎｂａｓｈｉ４０１,,13,102,1030024,,,,,,,2022-07-27,1,,,,,ニューローカル,0
1212,5010005035341,新規,0,2022-07-27,2022-07-27,一般社団法人アネモネ,,その他の設立登記法人,東京都,千代田区,内神田２丁目２番６号５階あすな会計事務所内,,13,101,1010047,,,,,,,2022-07-27,1,,,,,アネモネ,0
1213,5010101015263,新規,0,2022-07-27,2022-07-27,ＴＯＧＯワールドテック株式会社,,株式会社,東京都,八王子市,片倉町４４５番地２マイシェル片倉４０３号,,13,201,1920914,,,,,,,2022-07-27,1,,,,,トーゴーワールドテック,0
1219,5010401168728,新規,0,2022-07-27,2022-07-27,株式会社Ｆｏｕｒ　Ｓｅａｓ　Ａｓｔｒａｐｔｏ　Ｆ＆Ｂ　Ｊａｐａｎ,,株式会社,東京都,港区,新橋５丁目１６番１号,,13,103,1050004,,,,,,,2022-07-27,1,,,,,フォーシーズアストラプトエフアンドビージャパン,0
1220,5010401168744,新規,0,2022-07-27,2022-07-27,株式会社ＮＳＳＫ‐ＸＸ,,株式会社,東京都,港区,愛宕２丁目５番１号愛宕グリーンヒルズＭＯＲＩタワー,,13,103,1050002,,,,,,,2022-07-27,1,,,,,エヌエスエスケーエックスエックス,0
1223,5010601061542,新規,0,2022-07-27,2022-07-27,Ｍａｑ２４株式会社,,株式会社,東京都,墨田区,東駒形３丁目１６番６号Ｏｗｌｖｉｅｕｎｏ２０１,,13,107,1300005,,,,,,,2022-07-27,1,,,,,マッキューニジュウヨン,0
1225,5010603009639,新規,0,2022-07-27,2022-07-27,社中合同会社,,合同会社,東京都,墨田区,向島２丁目１３－１０アーデル向島アヴァンセア５０３,,13,107,1310033,,,,,,,2022-07-27,1,,,,,シャチュウ,0
1226,5010605004101,新規,0,2022-07-27,2022-07-27,一般社団法人日本カーボンニュートラル協会,,その他の設立登記法人,東京都,墨田区,両国２丁目１４番５号両国渡辺ビル６階,,13,107,1300026,,,,,,,2022-07-27,1,,,,,ニホンカーボンニュートラルキョウカイ,0
1232,5010803004241,新規,0,2022-07-27,2022-07-27,ヴェトランド合同会社,,合同会社,東京都,大田区,南六郷２丁目３７番３－２０１号,,13,111,1440045,,,,,,,2022-07-27,1,,,,,ヴェトランド,0
1245,5011001148822,新規,0,2022-07-27,2022-07-27,株式会社ＢＹ３,,株式会社,東京都,目黒区,大橋２丁目４－１８ゾンネンハイム大橋１階１０８号室,,13,110,1530044,,,,,,,2022-07-27,1,,,,,バイスリー,0
1246,5011001148863,新規,0,2022-07-27,2022-07-27,株式会社水野ホールディングス,,株式会社,東京都,渋谷区,宇田川町４０番１号,,13,113,1500042,,,,,,,2022-07-27,1,,,,,ミズノホールディングス,0
1248,5011003015054,新規,0,2022-07-27,2022-07-27,合同会社ＡＣＥ,,合同会社,東京都,渋谷区,神宮前５丁目２５－８サンキグリーン神宮前２０２号,,13,113,1500001,,,,,,,2022-07-27,1,,,,,エース,0
1256,5011101099643,新規,0,2022-07-27,2022-07-27,株式会社ＫＹＣ　Ｓｏｌｕｔｉｏｎｓ,,株式会社,東京都,新宿区,西新宿１丁目２０－３西新宿高木ビル８Ｆ,00127327,13,104,1600023,,,,,,,2022-07-27,1,,,,,ケーワイシーソリューションズ,0
1260,5011301027981,新規,0,2022-07-27,2022-07-27,株式会社アルテミス,,株式会社,東京都,杉並区,浜田山２丁目１５番１－２０７号,,13,115,1680065,,,,,,,2022-07-27,1,,,,,アルテミス,0
1261,5011303004483,新規,0,2022-07-27,2022-07-27,合同会社フォー・シー・エス,,合同会社,東京都,杉並区,浜田山４丁目１６－２０トリオンフォ１階,,13,115,1680065,,,,,,,2022-07-27,1,,,,,フォーシーエス,0
1264,5011401024433,新規,0,2022-07-27,2022-07-27,株式会社庸正社,,株式会社,東京都,板橋区,成増４丁目１３番３０号,,13,119,1750094,,,,,,,2022-07-27,1,,,,,ヨウゼイシャ,0
1265,5011601026130,新規,0,2022-07-27,2022-07-27,アイアン・ブル株式会社,,株式会社,東京都,練馬区,南田中４丁目４番２０号,,13,120,1770035,,,,,,,2022-07-27,1,,,,,アイアンブル,0
1267,5011701025486,新規,0,2022-07-27,2022-07-27,株式会社絆,,株式会社,東京都,江戸川区,松江２丁目１番１３号３階,,13,123,1320025,,,,,,,2022-07-27,1,,,,,キズナ,0
1274,5011801041037,新規,0,2022-07-27,2022-07-27,株式会社トータルコマーシャル,,株式会社,東京都,足立区,宮城２丁目１０番８号ポワ・ド・サントウール３０６,,13,121,1200047,,,,,,,2022-07-27,1,,,,,トータルコマーシャル,0
1275,5011801041053,新規,0,2022-07-27,2022-07-27,株式会社キルトマッサージ,,株式会社,東京都,足立区,千住１丁目４番１号東京芸術センター１０階,,13,121,1200034,,,,,,,2022-07-27,1,,,,,キルトマッサージ,0
1276,5011801041061,新規,0,2022-07-27,2022-07-27,Ｃａｔｏｎａ株式会社,,株式会社,東京都,足立区,竹の塚５丁目３６番１８－１０２号,,13,121,1210813,,,,,,,2022-07-27,1,,,,,カトナ,0
1279,5012403005504,新規,0,2022-07-27,2022-07-27,ＭＩＮＯＲＩ合同会社,,合同会社,東京都,三鷹市,下連雀３丁目３５番１号－６階,,13,204,1810013,,,,,,,2022-07-27,1,,,,,ミノリ,0
1281,5012701017168,新規,0,2022-07-27,2022-07-27,株式会社ＳＡＩＧＡ,,株式会社,東京都,東村山市,萩山町１丁目７番地３６,,13,213,1890012,,,,,,,2022-07-27,1,,,,,サイガ,0
1293,5013301049428,新規,0,2022-07-27,2022-07-27,株式会社ＨＹＯＲＩ,,株式会社,東京都,豊島区,池袋３丁目７０番１７号,,13,116,1710014,,,,,,,2022-07-27,1,,,,,ヒョウリ,0
1305,5021001076601,新規,0,2022-07-27,2022-07-27,株式会社湘北,,株式会社,神奈川県,藤沢市,葛原２２０７番地の１０,,14,205,2520822,,,,,,,2022-07-27,1,,,,,ショウホク,0
1314,5030001149382,新規,0,2022-07-27,2022-07-27,株式会社メディカルアメニティ,,株式会社,埼玉県,さいたま市桜区,田島５丁目２１番１３号三光西浦和ビル２階,,11,106,3380837,,,,,,,2022-07-27,1,,,,,メディカルアメニティ,0
1315,5030001149399,新規,0,2022-07-27,2022-07-27,ＵＲ　ＫＨＡＮ　ＴＲＡＤＩＮＧ株式会社,,株式会社,埼玉県,草加市,柳島町２８９番地１,,11,221,3400033,,,,,,,2022-07-27,1,,,,,ユーアールカーントレイディング,0
1317,5030003019856,新規,0,2022-07-27,2022-07-27,合同会社太商,,合同会社,埼玉県,越谷市,蒲生４丁目７番２１号,,11,222,3430838,,,,,,,2022-07-27,1,,,,,オオショウ,0
1318,5030005020936,新規,0,2022-07-27,2022-07-27,一般社団法人熊谷まちなか再生エリアプラットフォーム,,その他の設立登記法人,埼玉県,熊谷市,筑波１丁目２９番地３,,11,202,3600037,,,,,,,2022-07-27,1,,,,,クマガヤマチナカサイセイエリアプラットフォーム,0
1324,5040001124418,新規,0,2022-07-27,2022-07-27,株式会社ＭＯＳＨ,,株式会社,千葉県,柏市,柏３丁目６番２１号柏ビル１０３,,12,217,2770005,,,,,,,2022-07-27,1,,,,,モッシュ,0
1325,5040001124426,新規,0,2022-07-27,2022-07-27,株式会社ｙｓオート千葉,,株式会社,千葉県,千葉市中央区,松ケ丘２７－５,,12,101,2600000,,,,,,,2022-07-27,1,,,,,,0
1326,5040001124434,新規,0,2022-07-27,2022-07-27,株式会社真浩,,株式会社,千葉県,松戸市,串崎新田９－３,,12,207,2702216,,,,,,,2022-07-27,1,,,,,マヒロ,0
1330,5040003020499,新規,0,2022-07-27,2022-07-27,Ｌｏｂｂｄｅｓｉｇｎ合同会社,,合同会社,千葉県,柏市,若柴１７８番地４柏の葉キャンパス１４８街区１パークシティ柏の葉キャンパスザ・ゲートタワーウェスト３階,,12,217,2770871,,,,,,,2022-07-27,1,,,,,ロブデザイン,0
1335,5050001051454,新規,0,2022-07-27,2022-07-27,株式会社ロワ,,株式会社,茨城県,牛久市,田宮３丁目２番地１（サンガーデンＡ棟）,,08,219,3001237,,,,,,,2022-07-27,1,,,,,ロワ,0
1340,5060001035118,新規,0,2022-07-27,2022-07-27,株式会社英スタジオ,,株式会社,栃木県,那須塩原市,島方５６１番地１２,,09,213,3293152,,,,,,,2022-07-27,1,,,,,エイスタジオ,0
1352,5100003006624,新規,0,2022-07-27,2022-07-27,Ｏｎｅ合同会社,,合同会社,長野県,上伊那郡中川村,大草４９００番地１８,,20,386,3993801,,,,,,,2022-07-27,1,,,,,ワン,0
1369,5120001247730,新規,0,2022-07-27,2022-07-27,株式会社ＫＥＴ,,株式会社,大阪府,大阪市中央区,備後町３丁目３番３号サンビル備後町７Ｆ,,27,128,5410051,,,,,,,2022-07-27,1,,,,,ケーイーティー,0
1370,5120003022157,新規,0,2022-07-27,2022-07-27,合同会社アドラーブル,,合同会社,大阪府,大阪市北区,神山町１番３３－９０１号,,27,127,5300026,,,,,,,2022-07-27,1,,,,,アドラーブル,0
1371,5120003022173,新規,0,2022-07-27,2022-07-27,Ｈｙｂｒａｉｎ合同会社,,合同会社,大阪府,大阪市北区,梅田１丁目１１－４大阪駅前第４ビル９Ｆ－９２３,,27,127,5300001,,,,,,,2022-07-27,1,,,,,ハイブレイン,0
1372,5120103004798,新規,0,2022-07-27,2022-07-27,合同会社マルフジ,,合同会社,大阪府,堺市堺区,山本町５丁９４番地２,,27,141,5900983,,,,,,,2022-07-27,1,,,,,マルフジ,0
1388,5130001072252,新規,0,2022-07-27,2022-07-27,明惠株式会社,,株式会社,京都府,京都市南区,上鳥羽南唐戸町７番地Ｋビル４００１号室,,26,107,6018107,,,,,,,2022-07-27,1,,,,,メイケイ,0
1389,5130001072260,新規,0,2022-07-27,2022-07-27,株式会社萌和,,株式会社,京都府,城陽市,寺田中大小２０番地ラ・ペルル城陽２０３号,,26,207,6100121,,,,,,,2022-07-27,1,,,,,ホウワ,0
1390,5130001072277,新規,0,2022-07-27,2022-07-27,株式会社ワイセレクション,,株式会社,京都府,京都市南区,吉祥院中河原里西町２６番地イルソーレ京都西大路１Ｂ,,26,107,6018393,,,,,,,2022-07-27,1,,,,,ワイセレクション,0
1395,5130003008097,新規,0,2022-07-27,2022-07-27,Ｖｉｌｌａｍｏｕｎｔ合同会社,,合同会社,京都府,京田辺市,山手西２丁目９番地４,,26,211,6100355,,,,,,,2022-07-27,1,,,,,ヴィラマウント,0
1402,5140001126874,新規,0,2022-07-27,2022-07-27,株式会社ファーストペンギン,,株式会社,兵庫県,西宮市,山口町上山口４丁目１番２０号,,28,204,6511421,,,,,,,2022-07-27,1,,,,,ファーストペンギン,0
1403,5140001126890,新規,0,2022-07-27,2022-07-27,株式会社Ｔｒｙａｍ　Ｉｎｃ．,,株式会社,兵庫県,神戸市垂水区,舞多聞東３丁目８番１６－１,,28,108,6550052,,,,,,,2022-07-27,1,,,,,トライアムインク,0
1408,5180001152297,新規,0,2022-07-27,2022-07-27,株式会社ｅｆｆｉｃｉｅｎｔ,,株式会社,愛知県,名古屋市中区,丸の内１丁目２４－３ＦＰＳビル９０１,,23,106,4600002,,,,,,,2022-07-27,1,,,,,エフィシェント,0
1411,5180003024081,新規,0,2022-07-27,2022-07-27,合同会社クレディ,,合同会社,愛知県,名古屋市東区,泉１丁目１１番６号,,23,102,4610001,,,,,,,2022-07-27,1,,,,,クレディ,0
1416,5180301036472,新規,0,2022-07-27,2022-07-27,株式会社３Ｓ,,株式会社,愛知県,みよし市,三好町平池５３番地１,,23,236,4700224,,,,,,,2022-07-27,1,,,,,スリーエス,0
1427,5220001024962,新規,0,2022-07-27,2022-07-27,株式会社福柱,,株式会社,石川県,白山市,専福寺町８番地１,,17,210,9240802,,,,,,,2022-07-27,1,,,,,フクハシラ,0
1434,5250001019679,新規,0,2022-07-27,2022-07-27,株式会社Ｊｏｉｎｔ,,株式会社,山口県,周南市,大字戸田１５５３番地の３,,35,215,7451131,,,,,,,2022-07-27,1,,,,,ジョイント,0
1435,5260001037085,新規,0,2022-07-27,2022-07-27,株式会社ＴＡＫＡＯ,,株式会社,岡山県,井原市,東江原町３４１０番地の１,,33,207,7150003,,,,,,,2022-07-27,1,,,,,タカオ,0
1438,5270001008597,新規,0,2022-07-27,2022-07-27,株式会社ＦＪＧ,,株式会社,鳥取県,鳥取市,気高町下坂本９３３番地１７,,31,201,6890221,,,,,,,2022-07-27,1,,,,,エフジェイジー,0
1441,5290001098323,新規,0,2022-07-27,2022-07-27,Ｇｒａｃｅ＆Ｏａｋ株式会社,,株式会社,福岡県,福岡市中央区,平尾１丁目８番２２号ロマネスク平尾第３－７０３号室,,40,133,8100014,,,,,,,2022-07-27,1,,,,,グレイスアンドオーク,0
1442,5290001098380,新規,0,2022-07-27,2022-07-27,株式会社Ｅｚｏｎ,,株式会社,福岡県,飯塚市,枝国５１５番地１５,,40,205,8200081,,,,,,,2022-07-27,1,,,,,エゾン,0
1443,5290001098397,新規,0,2022-07-27,2022-07-27,ツジマルホールディングス株式会社,,株式会社,福岡県,糸島市,二条松末１３４４番地２,,40,230,8191100,,,,,,,2022-07-27,1,,,,,ツジマルホールディングス,0
1448,5320001019242,新規,0,2022-07-27,2022-07-27,株式会社オーケーメンテ,,株式会社,大分県,大分市,坂ノ市中央１丁目９番４３号,,44,201,8700307,,,,,,,2022-07-27,1,,,,,オーケーメンテ,0
1452,5330001029959,新規,0,2022-07-27,2022-07-27,株式会社ピース・マネジメント,,株式会社,熊本県,合志市,須屋４２１番地１,,43,216,8611102,,,,,,,2022-07-27,1,,,,,ピースマネジメント,0
1455,5350001017870,新規,0,2022-07-27,2022-07-27,ＴＥＳＳ　Ｒｅａｌ　Ｅｓｔａｔｅ株式会社,,株式会社,宮崎県,えびの市,大字亀沢２８０３番地,,45,209,8894155,,,,,,,2022-07-27,1,,,,,テスリアルエステイト,0
1459,5370001048848,新規,0,2022-07-27,2022-07-27,株式会社Ａｔｓｕｋｏ　Ｉｎｔｅｒｎａｔｉｏｎａｌ日本本社,,株式会社,宮城県,仙台市泉区,歩坂町３３番１７号,,04,105,9813106,,,,,,,2022-07-27,1,,,,,アツコインターナショナルニホンホンシャ,0
1462,5380001033007,新規,0,2022-07-27,2022-07-27,株式会社エルデリー,,株式会社,福島県,郡山市,桑野４丁目８番９号,,07,203,9638025,,,,,,,2022-07-27,1,,,,,エルデリー,0
1477,5430001087096,新規,0,2022-07-27,2022-07-27,株式会社Ｂｌｏｏｍｉｎｇ　Ｆａｒｍ,,株式会社,北海道,沙流郡日高町,字幾千世３２６番地の３,,01,601,0592123,,,,,,,2022-07-27,1,,,,,ブルーミングファーム,0
1483,5440001009124,新規,0,2022-07-27,2022-07-27,株式会社ライフエール企画,,株式会社,北海道,上磯郡木古内町,字本町６２１番地,,01,334,0490422,,,,,,,2022-07-27,1,,,,,ライフエールキカク,0
1485,5460103001472,新規,0,2022-07-27,2022-07-27,合同会社竹渕トクソウ,,合同会社,北海道,帯広市,西二十一条北１丁目３番１２号,,01,207,0802461,,,,,,,2022-07-27,1,,,,,タケブチトクソウ,0
1500,6010001228352,新規,0,2022-07-27,2022-07-27,クイーンズヒルインベストメンツ株式会社,,株式会社,東京都,千代田区,大手町１丁目５番１号,,13,101,1000004,,,,,,,2022-07-27,1,,,,,クイーンズヒルインベストメンツ,0
1501,6010001228360,新規,0,2022-07-27,2022-07-27,株式会社クレオグループ,,株式会社,東京都,中央区,八丁堀３丁目１８番１１号,,13,102,1040032,,,,,,,2022-07-27,1,,,,,クレオグループ,0
1503,6010003038270,新規,0,2022-07-27,2022-07-27,合同会社無頼,,合同会社,東京都,千代田区,九段南１丁目５番６号りそな九段ビル５階ＫＳフロア,,13,101,1020074,,,,,,,2022-07-27,1,,,,,ブライ,0
1507,6010401168727,新規,0,2022-07-27,2022-07-27,娯楽ＴＶメディア・コンテンツ株式会社,,株式会社,東京都,港区,西麻布３丁目３番１号,,13,103,1060031,,,,,,,2022-07-27,1,,,,,ゴラクティービーメディアコンテンツ,0
1508,6010401168735,新規,0,2022-07-27,2022-07-27,ｍ２ｔ株式会社,,株式会社,東京都,港区,西麻布２丁目７番１８号,,13,103,1060031,,,,,,,2022-07-27,1,,,,,エムツゥーティー,0
1509,6010401168743,新規,0,2022-07-27,2022-07-27,株式会社ＮＳＳＫ‐Ｘ,,株式会社,東京都,港区,愛宕２丁目５番１号愛宕グリーンヒルズＭＯＲＩタワー,,13,103,1050002,,,,,,,2022-07-27,1,,,,,エヌエスエスケーエックス,0
1513,6010405021238,新規,0,2022-07-27,2022-07-27,福岡久山特定目的会社,,その他の設立登記法人,東京都,港区,元赤坂１丁目１番８号株式会社赤坂国際会計内,,13,103,1070051,,,,,,,2022-07-27,1,,,,,フクオカヒサヤマ,0
1515,6010501049166,新規,0,2022-07-27,2022-07-27,株式会社アクシリア,,株式会社,東京都,台東区,台東３丁目４４番６－９０１号スカイノブレ御徒町,,13,106,1100016,,,,,,,2022-07-27,1,,,,,アクシリア,0
1519,6010701043002,新規,0,2022-07-27,2022-07-27,ケセラセラ株式会社,,株式会社,東京都,品川区,西五反田３丁目１５－６リードシー目黒不動前ビル５－１７,,13,109,1410031,,,,,,,2022-07-27,1,,,,,ケセラセラ,0
1523,6010803004240,新規,0,2022-07-27,2022-07-27,合同会社Ｍａｃｃｉ,,合同会社,東京都,大田区,大森東３丁目９番１号ＮｏｒｉｎＷＥＳＴ３０２,,13,111,1430012,,,,,,,2022-07-27,1,,,,,マッチ,0
1543,6011101099618,新規,0,2022-07-27,2022-07-27,株式会社地平,,株式会社,東京都,新宿区,喜久井町３４新宿夏目坂コート３０７,,13,104,1620044,,,,,,,2022-07-27,1,,,,,チヘイ,0
1547,6011203003881,新規,0,2022-07-27,2022-07-27,Ｈ．Ａ合同会社,,合同会社,東京都,中野区,弥生町３丁目３０番４号ＴＲＹＭ中野新橋２０３,,13,114,1640013,,,,,,,2022-07-27,1,,,,,エイチエー,0
1550,6011301027980,新規,0,2022-07-27,2022-07-27,株式会社ＹＳＣ,,株式会社,東京都,杉並区,今川２丁目１４番８号清水マンション１－１０５,,13,115,1670035,,,,,,,2022-07-27,1,,,,,ワイエスシー,0
1551,6011303004482,新規,0,2022-07-27,2022-07-27,合同会社シンテック,,合同会社,東京都,杉並区,高井戸西３丁目７番２９号,,13,115,1680071,,,,,,,2022-07-27,1,,,,,シンテック,0
1561,6011801041060,新規,0,2022-07-27,2022-07-27,株式会社コモンリッチ,,株式会社,東京都,葛飾区,新小岩４丁目２８番１４号,,13,122,1240024,,,,,,,2022-07-27,1,,,,,コモンリッチ,0
1567,6012401039461,新規,0,2022-07-27,2022-07-27,科恩金属工業株式会社,,株式会社,東京都,三鷹市,下連雀３丁目４１番１２－３０４号,,13,204,1810013,,,,,,,2022-07-27,1,,,,,カオンキンゾクコウギョウ,0
1568,6012403005503,新規,0,2022-07-27,2022-07-27,ガーデン＆ストリーム合同会社,,合同会社,東京都,三鷹市,下連雀３丁目３５番１号－６階,,13,204,1810013,,,,,,,2022-07-27,1,,,,,ガーデンアンドストリーム,0
1570,6012705002314,新規,0,2022-07-27,2022-07-27,一般社団法人日本ＯＢＯＧ協会,,その他の設立登記法人,東京都,西東京市,住吉町２丁目１２番９号,,13,229,2020005,,,,,,,2022-07-27,1,,,,,ニホンオービーオージーキョウカイ,0
1577,6013301049410,新規,0,2022-07-27,2022-07-27,株式会社ファンズクリエイト,,株式会社,東京都,豊島区,高松３丁目１１番９号ＮＯＢＩＬＩＳ千川２０３号,,13,116,1710042,,,,,,,2022-07-27,1,,,,,ファンズクリエイト,0
1578,6013301049427,新規,0,2022-07-27,2022-07-27,株式会社ライジングラウンド,,株式会社,東京都,豊島区,池袋２丁目４７番６号第２オンダビル８階,,13,116,1710014,,,,,,,2022-07-27,1,,,,,ライジングラウンド,0
1590,6020001147493,新規,0,2022-07-27,2022-07-27,株式会社ハナユキ,,株式会社,神奈川県,横浜市泉区,和泉中央南１丁目３８番５２号,,14,116,2450023,,,,,,,2022-07-27,1,,,,,ハナユキ,0
1594,6020003022166,新規,0,2022-07-27,2022-07-27,合同会社手塚商店,,合同会社,神奈川県,横浜市港北区,新羽町２０６１番地１,,14,109,2230057,,,,,,,2022-07-27,1,,,,,テヅカショウテン,0
1600,6021003011984,新規,0,2022-07-27,2022-07-27,合同会社Ｆａｒ　Ｅａｓｔ　Ｅｎｇｉｎｅｅｒｉｎｇ,,合同会社,神奈川県,横須賀市,粟田２丁目３５―１２,,14,201,2390845,,,,,,,2022-07-27,1,,,,,ファーイーストエンジニアリング,0
1601,6021005012576,新規,0,2022-07-27,2022-07-27,エムオーティー税理士法人,,その他の設立登記法人,神奈川県,大和市,福田２丁目５番地１９藤岡第６ビル２０２号室,,14,213,2420024,,,,,,,2022-07-27,1,,,,,エムオーティー,0
1610,6030001149365,新規,0,2022-07-27,2022-07-27,ＹＫトータリング株式会社,,株式会社,埼玉県,さいたま市南区,文蔵４丁目１８番８－２号,,11,108,3360025,,,,,,,2022-07-27,1,,,,,ワイケートータリング,0
1611,6030001149398,新規,0,2022-07-27,2022-07-27,株式会社ひまわり,,株式会社,埼玉県,加須市,下種足７２９－１,,11,210,3470113,,,,,,,2022-07-27,1,,,,,ヒマワリ,0
1612,6030001149423,新規,0,2022-07-27,2022-07-27,株式会社明商事,,株式会社,埼玉県,川越市,岸町３丁目５－３０サンコート岸町１０３,,11,201,3501131,,,,,,,2022-07-27,1,,,,,メイショウジ,0
1624,6040001124375,新規,0,2022-07-27,2022-07-27,株式会社ＴＡＮＡＫＡ,,株式会社,千葉県,鎌ケ谷市,鎌ケ谷９丁目５番３９－３号,,12,224,2730105,,,,,,,2022-07-27,1,,,,,タナカ,0
1625,6040001124409,新規,0,2022-07-27,2022-07-27,株式会社徳碩,,株式会社,千葉県,千葉市若葉区,野呂町６７２番地１,,12,104,2650053,,,,,,,2022-07-27,1,,,,,トクセキ,0
1626,6040001124425,新規,0,2022-07-27,2022-07-27,株式会社貞輝,,株式会社,千葉県,千葉市中央区,東千葉３丁目１番１９号－２Ｆ,,12,101,2600041,,,,,,,2022-07-27,1,,,,,サダキ,0
1630,6050001051461,新規,0,2022-07-27,2022-07-27,株式会社ペイントハウスハツミ,,株式会社,茨城県,坂東市,生子３５１５番地１４,,08,228,3060504,,,,,,,2022-07-27,1,,,,,ペイントハウスハツミ,0
1658,6120001247374,新規,0,2022-07-27,2022-07-27,株式会社ＦＧペイメント,,株式会社,大阪府,大阪市北区,堂島浜１丁目１番１５号,,27,127,5300004,,,,,,,2022-07-27,1,,,,,エフジーペイメント,0
1659,6120001247622,新規,0,2022-07-27,2022-07-27,株式会社邦侑,,株式会社,大阪府,大阪市平野区,喜連西５丁目４番４号ハンプトンコート４０２号,,27,126,5470026,,,,,,,2022-07-27,1,,,,,ホウユウ,0
1660,6120001247655,新規,0,2022-07-27,2022-07-27,株式会社ＳＧＭ研究所,,株式会社,大阪府,大阪市中央区,南本町１丁目７番１５号明治安田生命堺筋本町ビル,,27,128,5410054,,,,,,,2022-07-27,1,,,,,エスジーエムケンキュウジョ,0
1666,6120005023103,新規,0,2022-07-27,2022-07-27,一般社団法人西日本湖南商会,,その他の設立登記法人,大阪府,大阪市中央区,北久宝寺町３丁目６－１本町南ガーデンシティ７階,,27,128,5410057,,,,,,,2022-07-27,1,,,,,ニシニホンコナンショウカイ,0
1669,6120901026935,新規,0,2022-07-27,2022-07-27,太陽エステート株式会社,,株式会社,大阪府,豊中市,曽根南町１丁目１７番１号,,27,203,5610804,,,,,,,2022-07-27,1,,,,,タイヨウエステート,0
1672,6120901046297,新規,0,2022-07-27,2022-07-27,株式会社シャングリ・ラ,,株式会社,大阪府,豊中市,西緑丘３丁目１１番５－６２１号,,27,203,5600005,,,,,,,2022-07-27,1,,,,,シャングリラ,0
1680,6130003008088,新規,0,2022-07-27,2022-07-27,Ａｚｉａ　Ｐｒｏｐｅｒｔｉｅｓ　Ｋｙｏｔｏ合同会社,,合同会社,京都府,京都市左京区,吉田神楽岡町８番９２,,26,103,6068311,,,,,,,2022-07-27,1,,,,,アジアプロパティーズキョウト,0
1685,6140001126873,新規,0,2022-07-27,2022-07-27,株式会社不動産Ｌａｂｏ．,,株式会社,兵庫県,西宮市,甲子園七番町８番１８－１０１号,,28,204,6638177,,,,,,,2022-07-27,1,,,,,フドウサンラボ,0
1686,6140003017955,新規,0,2022-07-27,2022-07-27,合同会社ＳＲＪ,,合同会社,兵庫県,神戸市東灘区,田中町１丁目１１－１４－２０２号,,28,101,6580081,,,,,,,2022-07-27,1,,,,,エスアールジェイ,0
1687,6140005026260,新規,0,2022-07-27,2022-07-27,一般社団法人アスリートヒーローズ,,その他の設立登記法人,兵庫県,神戸市北区,星和台１丁目１６番地の８０,,28,109,6511121,,,,,,,2022-07-27,1,,,,,アスリートヒーローズ,0
1700,6180001152346,新規,0,2022-07-27,2022-07-27,株式会社キャレージ,,株式会社,愛知県,名古屋市中村区,草薙町３丁目７３番地,,23,105,4530064,,,,,,,2022-07-27,1,,,,,キャレージ,0
1726,6290001098363,新規,0,2022-07-27,2022-07-27,株式会社ＧＫＮ,,株式会社,福岡県,福岡市博多区,祇園町６番２６号ニューガイアオフィス博多,,40,132,8120038,,,,,,,2022-07-27,1,,,,,ジーケーエヌ,0
1728,6290003012776,新規,0,2022-07-27,2022-07-27,合同会社ケアプランセンターなごみ,,合同会社,福岡県,福岡市城南区,片江３丁目２５番３６－１０３号,,40,136,8140142,,,,,,,2022-07-27,1,,,,,ケアプランセンターナゴミ,0
1733,6290803004171,新規,0,2022-07-27,2022-07-27,合同会社ルアナテラス,,合同会社,福岡県,北九州市小倉北区,木町１丁目１０番１－１１０５号,,40,106,8030851,,,,,,,2022-07-27,1,,,,,ルアナテラス,0
1749,6370003005788,新規,0,2022-07-27,2022-07-27,Ｆｏｕｍａｒｔｓ合同会社,,合同会社,宮城県,仙台市青葉区,錦ケ丘１丁目４１番地の２０,,04,101,9893123,,,,,,,2022-07-27,1,,,,,フォウマーツ,0
1752,6380001033006,新規,0,2022-07-27,2022-07-27,株式会社クサカ印刷所,,株式会社,福島県,福島市,東浜町７番３６号,,07,201,9608132,,,,,,,2022-07-27,1,,,,,クサカインサツジョ,0
1759,6400003002963,新規,0,2022-07-27,2022-07-27,合同会社岩松商店,,合同会社,岩手県,北上市,常盤台２丁目１３－３２,,03,206,0240012,,,,,,,2022-07-27,1,,,,,イワマツショウテン,0
1768,6430001087079,新規,0,2022-07-27,2022-07-27,株式会社アルコイーリス,,株式会社,北海道,札幌市中央区,北二条東７丁目８０番地３０,,01,101,0600032,,,,,,,2022-07-27,1,,,,,アルコイーリス,0
1769,6430001087137,新規,0,2022-07-27,2022-07-27,株式会社Ｕ　ｐｒｏｊｅｃｔ,,株式会社,北海道,札幌市清田区,北野七条４丁目１番２０号,,01,110,0040867,,,,,,,2022-07-27,1,,,,,ユープロジェクト,0
1770,6430001087145,新規,0,2022-07-27,2022-07-27,ホワイトストーン・グループ株式会社,,株式会社,北海道,札幌市白石区,菊水七条３丁目１番７－１２０３号,,01,104,0030807,,,,,,,2022-07-27,1,,,,,ホワイトストーングループ,0
1771,6430001087178,新規,0,2022-07-27,2022-07-27,吉光工業株式会社,,株式会社,北海道,登別市,新川町２丁目１４番地４,,01,230,0590015,,,,,,,2022-07-27,1,,,,,キッコウコウギョウ,0
1773,6430005014509,新規,0,2022-07-27,2022-07-27,弁護士法人向井・中島法律事務所,,その他の設立登記法人,北海道,札幌市中央区,大通西１５丁目ラスコム１５ビル６階,,01,101,0600042,,,,,,,2022-07-27,1,,,,,ムカイナカジマホウリツジムショ,0
1793,7010001228285,新規,0,2022-07-27,2022-07-27,株式会社昼ナビ,,株式会社,東京都,文京区,小石川２丁目１番１号,,13,105,1120002,,,,,,,2022-07-27,1,,,,,ヒルナビ,0
1794,7010001228327,新規,0,2022-07-27,2022-07-27,株式会社ＧＯＲＧＥＯＵＳ　ＴＥＣＨ,,株式会社,東京都,中央区,湊２丁目１５番１４－１９０１号,,13,102,1040043,,,,,,,2022-07-27,1,,,,,ゴージャステック,0
1795,7010001228335,新規,0,2022-07-27,2022-07-27,ナパテック株式会社,,株式会社,東京都,千代田区,神田須田町２丁目１３番地１,,13,101,1010041,,,,,,,2022-07-27,1,,,,,ナパテック,0
1797,7010003038253,新規,0,2022-07-27,2022-07-27,アネモネ合同会社,,合同会社,東京都,千代田区,内神田２丁目２番６号５階あすな会計事務所内,,13,101,1010047,,,,,,,2022-07-27,1,,,,,アネモネ,0
1798,7010003038261,新規,0,2022-07-27,2022-07-27,合同会社スプリット,,合同会社,東京都,中央区,新川１丁目３０番７号茅場町スカイハイツ８１０号室,,13,102,1040033,,,,,,,2022-07-27,1,,,,,スプリット,0
1809,7010401168726,新規,0,2022-07-27,2022-07-27,株式会社Ｃｈｅｆ’ｓ　ｖａｌｕｅ,,株式会社,東京都,港区,新橋４丁目１番１号,,13,103,1050004,,,,,,,2022-07-27,1,,,,,シェフズバリュー,0
1810,7010401168759,新規,0,2022-07-27,2022-07-27,株式会社ジェイ・ミュージック,,株式会社,東京都,港区,六本木７丁目１８－１１六本木ＤＭビル８階,,13,103,1060032,,,,,,,2022-07-27,1,,,,,ジェイミュージック,0
1813,7010403027797,新規,0,2022-07-27,2022-07-27,Ｂｌｅｕ　Ｒｉｖｅｒ合同会社,,合同会社,東京都,港区,新橋３丁目２１－１１－２階,,13,103,1050004,,,,,,,2022-07-27,1,,,,,ブルーリバー,0
1822,7010901051316,新規,0,2022-07-27,2022-07-27,株式会社Ｓｉｄｅｋｉｃｋ,,株式会社,東京都,世田谷区,上馬４丁目３３番１３号リムテラス三軒茶屋１０９,,13,112,1540011,,,,,,,2022-07-27,1,,,,,サイドキック,0
1832,7011005009655,新規,0,2022-07-27,2022-07-27,一般社団法人日本建設技師協会,,その他の設立登記法人,東京都,渋谷区,神宮前６丁目２３番４号桑野ビル２階,,13,113,1500001,,,,,,,2022-07-27,1,,,,,ニホンケンセツギシキョウカイ,0
1834,7011101099658,新規,0,2022-07-27,2022-07-27,株式会社エスジーラボ,,株式会社,東京都,新宿区,揚場町１－１揚場ビル５階,,13,104,1620824,,,,,,,2022-07-27,1,,,,,エスジーラボ,0
1836,7011201023988,新規,0,2022-07-27,2022-07-27,株式会社リンクサポート,,株式会社,東京都,中野区,中央５丁目３８－１３メゾンドール臼井Ｂ４０２号,,13,114,1640011,,,,,,,2022-07-27,1,,,,,リンクサポート,0
1838,7011303004481,新規,0,2022-07-27,2022-07-27,合同会社シーフロント,,合同会社,東京都,杉並区,上高井戸１丁目１０番１－１０５号,,13,115,1680074,,,,,,,2022-07-27,1,,,,,シーフロント,0
1843,7011503005239,新規,0,2022-07-27,2022-07-27,合同会社彩香,,合同会社,東京都,北区,滝野川６丁目３５番５号,,13,117,1140023,,,,,,,2022-07-27,1,,,,,アヤカ,0
1847,7011701025484,新規,0,2022-07-27,2022-07-27,株式会社ＤＸ,,株式会社,東京都,江戸川区,西葛西２丁目１番９号,,13,123,1340088,,,,,,,2022-07-27,1,,,,,ディーエックス,0
1850,7011803005194,新規,0,2022-07-27,2022-07-27,合同会社裕,,合同会社,東京都,葛飾区,新小岩２丁目８番１０号クレール・カサベルデ１０１,,13,122,1240024,,,,,,,2022-07-27,1,,,,,ユウ,0
1853,7012403005502,新規,0,2022-07-27,2022-07-27,永翔テクニカ合同会社,,合同会社,東京都,狛江市,西和泉１丁目１－１０２,,13,219,2010011,,,,,,,2022-07-27,1,,,,,エイショウテクニカ,0
1856,7013301049426,新規,0,2022-07-27,2022-07-27,株式会社ダウンザライン,,株式会社,東京都,豊島区,西池袋５丁目１２番１２号,,13,116,1710021,,,,,,,2022-07-27,1,,,,,ダウンザライン,0
1857,7013303006243,新規,0,2022-07-27,2022-07-27,合同会社ネスト,,合同会社,東京都,豊島区,東池袋３丁目１３番１２号グランメール池袋６０７号室,,13,116,1700013,,,,,,,2022-07-27,1,,,,,ネスト,0
1863,7020005015605,新規,0,2022-07-27,2022-07-27,行政書士法人小関綜合事務所,,その他の設立登記法人,神奈川県,横浜市港南区,上大岡西１丁目６番１号ゆめおおおかオフィスタワー２４階,,14,111,2330002,,,,,,,2022-07-27,1,,,,,コセキソウゴウジムショ,0
1867,7021003011975,新規,0,2022-07-27,2022-07-27,合同会社オフィスＹＭ,,合同会社,神奈川県,相模原市緑区,西橋本２丁目２２番２２号,,14,151,2520131,,,,,,,2022-07-27,1,,,,,オフィスワイエム,0
1876,7030003019854,新規,0,2022-07-27,2022-07-27,合同会社ＭＩＮＯＲＵ,,合同会社,埼玉県,川口市,大字道合４６８番地の５,,11,203,3330835,,,,,,,2022-07-27,1,,,,,ミノル,0
1887,7040003020497,新規,0,2022-07-27,2022-07-27,富士山合同会社,,合同会社,千葉県,八街市,文違３０１番地１７３３,,12,230,2891104,,,,,,,2022-07-27,1,,,,,フジヤマ,0
1888,7040003020506,新規,0,2022-07-27,2022-07-27,ＨａｐｐｙＶｉｌｌａｇｅ合同会社,,合同会社,千葉県,千葉市若葉区,若松台３丁目３３－１７,,12,104,2640027,,,,,,,2022-07-27,1,,,,,ハッピービレッジ,0
1892,7050005013119,新規,0,2022-07-27,2022-07-27,農事組合法人愛芽,,その他の設立登記法人,茨城県,下妻市,高道祖４２４５番地８１,,08,210,3040031,,,,,,,2022-07-27,1,,,,,アイガ,0
1896,7070003004563,新規,0,2022-07-27,2022-07-27,ＤＡＩ　ＮＡＭ合同会社,,合同会社,群馬県,伊勢崎市,東本町９６番地１４,,10,204,3720025,,,,,,,2022-07-27,1,,,,,ダイナム,0
1905,7090001017689,新規,0,2022-07-27,2022-07-27,株式会社中村トータルサービス,,株式会社,山梨県,北杜市,高根町箕輪２０２７番地１,,19,209,4080012,,,,,,,2022-07-27,1,,,,,ナカムラトータルサービス,0
1908,7100005012899,新規,0,2022-07-27,2022-07-27,一般社団法人ネオアルプス,,その他の設立登記法人,長野県,大町市,大町２５５７番地,,20,212,3980002,,,,,,,2022-07-27,1,,,,,ネオアルプス,0
1924,7120001247654,新規,0,2022-07-27,2022-07-27,株式会社ｔａｍ,,株式会社,大阪府,大阪市中央区,高麗橋１丁目７番７－２３０２号,,27,128,5410043,,,,,,,2022-07-27,1,,,,,タム,0
1925,7120001247670,新規,0,2022-07-27,2022-07-27,株式会社アミノメディカル,,株式会社,大阪府,枚方市,岡本町７番１号枚方ビオルネ５階,,27,210,5730031,,,,,,,2022-07-27,1,,,,,アミノメディカル,0
1926,7120001247687,新規,0,2022-07-27,2022-07-27,株式会社ＳＣプロモーション,,株式会社,大阪府,大阪市中央区,北新町２－１２北新町センタービル６階,,27,128,5400023,,,,,,,2022-07-27,1,,,,,エスシープロモーション,0
1927,7120001247712,新規,0,2022-07-27,2022-07-27,株式会社ＡＬＩＦＥ,,株式会社,大阪府,大阪市中央区,島之内１丁目３番１１－１００２号,,27,128,5420082,,,,,,,2022-07-27,1,,,,,アライフ,0
1930,7120003022089,新規,0,2022-07-27,2022-07-27,ひゅっと合同会社,,合同会社,大阪府,大阪市北区,梅田２丁目５番１３号桜橋第一ビル３０４号,,27,127,5300001,,,,,,,2022-07-27,1,,,,,ヒュット,0
1931,7120003022097,新規,0,2022-07-27,2022-07-27,Ａｎｈ　Ｓｔｏｒｅ合同会社,,合同会社,大阪府,枚方市,楠葉野田１丁目１９番１１号,,27,210,5731103,,,,,,,2022-07-27,1,,,,,アインストア,0
1932,7120003022114,新規,0,2022-07-27,2022-07-27,ＧＡＴＥ合同会社,,合同会社,大阪府,大阪市中央区,本町４丁目８番１号ＳＤ本町ビル７０２号,,27,128,5410053,,,,,,,2022-07-27,1,,,,,ゲイト,0
1933,7120003022147,新規,0,2022-07-27,2022-07-27,新華合同会社,,合同会社,大阪府,大阪市西淀川区,柏里２丁目７－２６ラピース塚本３０３室,,27,113,5550022,,,,,,,2022-07-27,1,,,,,シンカ,0
1934,7120003022155,新規,0,2022-07-27,2022-07-27,合同会社ライフステージ,,合同会社,大阪府,大阪市北区,梅田１丁目１－３大阪駅前第３ビル２３０７,,27,127,5300001,,,,,,,2022-07-27,1,,,,,ライフステージ,0
1935,7120003022163,新規,0,2022-07-27,2022-07-27,合同会社ｂｅｌｌｃｈａ,,合同会社,大阪府,大阪市東住吉区,西今川１丁目９番１４号－Ｂ,,27,121,5460042,,,,,,,2022-07-27,1,,,,,ベルーチャ,0
1941,7122003002384,新規,0,2022-07-27,2022-07-27,ヒトノヒカリ合同会社,,合同会社,大阪府,柏原市,田辺２丁目２番１８号,,27,221,5820024,,,,,,,2022-07-27,1,,,,,ヒトノヒカリ,0
1946,7130001072259,新規,0,2022-07-27,2022-07-27,株式会社真,,株式会社,京都府,京都市南区,吉祥院西浦町１１８番地１ｃｏｌｅｔｔｅ２０３,,26,107,6018352,,,,,,,2022-07-27,1,,,,,マコト,0
1951,7140001126856,新規,0,2022-07-27,2022-07-27,株式会社倉内,,株式会社,兵庫県,芦屋市,公光町１１番７－５０１号,,28,206,6590065,,,,,,,2022-07-27,1,,,,,クラウチ,0
1952,7140001126872,新規,0,2022-07-27,2022-07-27,株式会社ユーアート,,株式会社,兵庫県,尼崎市,戸ノ内町３丁目１９番７号,,28,202,6610961,,,,,,,2022-07-27,1,,,,,ユーアート,0
1955,7150003002740,新規,0,2022-07-27,2022-07-27,のらのわ耕舎合同会社,,合同会社,奈良県,高市郡明日香村,大字真弓１４８５番地,,29,402,6340137,,,,,,,2022-07-27,1,,,,,ノラノワコウシャ,0
1982,7220001024960,新規,0,2022-07-27,2022-07-27,株式会社ＭＫＴ,,株式会社,石川県,小松市,有明町４７番地,,17,203,9230864,,,,,,,2022-07-27,1,,,,,エムケイティ,0
1989,7240003005726,新規,0,2022-07-27,2022-07-27,合同会社俄,,合同会社,広島県,広島市東区,馬木９丁目１５番９号,,34,102,7320031,,,,,,,2022-07-27,1,,,,,ニワカ,0
1992,7260001037083,新規,0,2022-07-27,2022-07-27,株式会社ＨＩＲＯ’Ｓ　ＬＩＧＨＴ,,株式会社,岡山県,倉敷市,菰池３丁目４番５３－３号,,33,202,7110932,,,,,,,2022-07-27,1,,,,,ヒロズライト,0
2000,7290001098379,新規,0,2022-07-27,2022-07-27,ＭＩＮＩＬＡＢ株式会社,,株式会社,福岡県,糸島市,二丈武３３０番地１６,,40,230,8191616,,,,,,,2022-07-27,1,,,,,ミニラボ,0
2005,7290801028758,新規,0,2022-07-27,2022-07-27,株式会社まひろ,,株式会社,福岡県,北九州市八幡東区,祇園１丁目１－１０,00127330,40,108,8050067,,,,,,,2022-07-27,1,,,,,マヒロ,0
2017,7340001024924,新規,0,2022-07-27,2022-07-27,Ｂリファイン株式会社,,株式会社,鹿児島県,霧島市,隼人町見次５３番地１,,46,218,8995117,,,,,,,2022-07-27,1,,,,,ビーリファイン,0
2018,7350001017869,新規,0,2022-07-27,2022-07-27,株式会社ＲＥＤＣＲＥＥＫ,,株式会社,宮崎県,宮崎市,大字田吉１３６１番地１０,,45,201,8800911,,,,,,,2022-07-27,1,,,,,レッドクリーク,0
2024,7380001033005,新規,0,2022-07-27,2022-07-27,株式会社小坂工業,,株式会社,福島県,双葉郡浪江町,大字高瀬字根木内１３９番地１メゾン根木内Ｃ棟,,07,547,9791525,,,,,,,2022-07-27,1,,,,,コサカコウギョウ,0
2025,7380001033013,新規,0,2022-07-27,2022-07-27,株式会社ファインカンパニー,,株式会社,福島県,西白河郡西郷村,字道南東１１番地,,07,461,9618052,,,,,,,2022-07-27,1,,,,,ファインカンパニー,0
2038,7430001087103,新規,0,2022-07-27,2022-07-27,きたのえがお株式会社,,株式会社,北海道,札幌市中央区,大通西１４丁目１番地１３,,01,101,0600042,,,,,,,2022-07-27,1,,,,,キタノエガオ,0
2039,7430001087111,新規,0,2022-07-27,2022-07-27,株式会社クリエスタ,,株式会社,北海道,札幌市中央区,南一条西１６丁目１番地３２３春野ビル３Ｆ,,01,101,0600061,,,,,,,2022-07-27,1,,,,,クリエスタ,0
2040,7430001087144,新規,0,2022-07-27,2022-07-27,株式会社藤栄工業,,株式会社,北海道,札幌市南区,藤野四条４丁目３番３－１０１号,,01,106,0612284,,,,,,,2022-07-27,1,,,,,トウエイコウギョウ,0
2045,7430005014508,新規,0,2022-07-27,2022-07-27,一般社団法人コンプライアンス推進弁護士ネットワーク,,その他の設立登記法人,北海道,札幌市中央区,南一条西１０丁目４番地南大通ビルアネックス,,01,101,0600061,,,,,,,2022-07-27,1,,,,,コンプライアンススイシンベンゴシネットワーク,0
2047,7450003002231,新規,0,2022-07-27,2022-07-27,エス・テック合同会社,,合同会社,北海道,旭川市,豊岡九条８丁目８番５号,,01,204,0788239,,,,,,,2022-07-27,1,,,,,エステック,0
2050,7500001024362,新規,0,2022-07-27,2022-07-27,株式会社かねやん,,株式会社,愛媛県,松山市,三津２丁目１２番８号,,38,201,7918061,,,,,,,2022-07-27,1,,,,,カネヤン,0
2063,8010001227600,新規,0,2022-07-27,2022-07-27,株式会社ＹＳ　ＬＩＦＥＷＯＲＫ,,株式会社,東京都,中央区,日本橋３丁目２番１４号新槙町ビル別館第一１階,,13,102,1030027,,,,,,,2022-07-27,1,,,,,ワイエスライフワーク,0
2065,8010001228318,新規,0,2022-07-27,2022-07-27,ＪＳＦＰフロンティア株式会社,,株式会社,東京都,千代田区,大手町２丁目２番２号,,13,101,1000004,,,,,,,2022-07-27,1,,,,,ジェイエスエフピーフロンティア,0
2066,8010001228359,新規,0,2022-07-27,2022-07-27,株式会社ツグシ,,株式会社,東京都,中央区,京橋１丁目６番１３号,,13,102,1040031,,,,,,,2022-07-27,1,,,,,ツグシ,0
2077,8010003038228,新規,0,2022-07-27,2022-07-27,東日本エネルギー開発４号合同会社,,合同会社,東京都,千代田区,永田町２丁目１０番１号,,13,101,1000014,,,,,,,2022-07-27,1,,,,,ヒガシニホンエネルギーカイハツヨンゴウ,0
2078,8010003038260,新規,0,2022-07-27,2022-07-27,合同会社Ｎ‐Ｓｔｙｌｅ,,合同会社,東京都,千代田区,九段南１丁目５番６号りそな九段ビル５階ＫＳフロア,,13,101,1020074,,,,,,,2022-07-27,1,,,,,エヌスタイル,0
2080,8010401168725,新規,0,2022-07-27,2022-07-27,株式会社日本産業医事務所,,株式会社,東京都,港区,浜松町２丁目１１番１６号,,13,103,1050013,,,,,,,2022-07-27,1,,,,,ニホンサンギョウイジムショ,0
2081,8010401168766,新規,0,2022-07-27,2022-07-27,株式会社トータルブリッジ,,株式会社,東京都,港区,浜松町２丁目２番１５号浜松町ダイヤビル,,13,103,1050013,,,,,,,2022-07-27,1,,,,,トータルブリッジ,0
2084,8010403028142,新規,0,2022-07-27,2022-07-27,サンディ合同会社,,合同会社,東京都,港区,浜松町２丁目２番１５号浜松町ダイヤビル２Ｆ,,13,103,1050013,,,,,,,2022-07-27,1,,,,,サンディ,0
2085,8010403028150,新規,0,2022-07-27,2022-07-27,合同会社金太郎,,合同会社,東京都,港区,芝大門１丁目３番６号ＫＩＴＡビル５Ｆ,,13,103,1050012,,,,,,,2022-07-27,1,,,,,キンタロウ,0
2087,8010501049164,新規,0,2022-07-27,2022-07-27,株式会社Ｗｅｎｏ,,株式会社,東京都,台東区,池之端１丁目１番２－３０６号ウスダム・コーヅ池ノ端ハイツ,,13,106,1100008,,,,,,,2022-07-27,1,,,,,ウェノ,0
2091,8010601061523,新規,0,2022-07-27,2022-07-27,山櫻株式会社,,株式会社,東京都,江東区,北砂３丁目２８番１－３０５号,,13,108,1360073,,,,,,,2022-07-27,1,,,,,ヤマザクラ,0
2094,8010701043000,新規,0,2022-07-27,2022-07-27,ＨＥＡＤ　ＳＰＡＣＥ株式会社,,株式会社,東京都,品川区,西五反田１丁目２６番２号五反田サンハイツ,,13,109,1410031,,,,,,,2022-07-27,1,,,,,ヘッドスペース,0
2098,8010901051298,新規,0,2022-07-27,2022-07-27,株式会社ＥＭＫ,,株式会社,東京都,世田谷区,祖師谷６丁目３３番１５号,,13,112,1570072,,,,,,,2022-07-27,1,,,,,イーエムケー,0
2099,8010901051315,新規,0,2022-07-27,2022-07-27,株式会社ｓｋｙＦ,,株式会社,東京都,世田谷区,太子堂４丁目３０－１３,,13,112,1540004,,,,,,,2022-07-27,1,,,,,スカイフ,0
2109,8011001148794,新規,0,2022-07-27,2022-07-27,ニューシナジー・キャピタル・マネジメント株式会社,,株式会社,東京都,渋谷区,恵比寿４丁目２０－３恵比寿ガーデンプレイスタワー,,13,113,1500013,,,,,,,2022-07-27,1,,,,,ニューシナジーキャピタルマネジメント,0
2110,8011003015043,新規,0,2022-07-27,2022-07-27,合同会社ピアスマイル,,合同会社,東京都,目黒区,東山１丁目１６番１２号ル・スティル東山２０２,,13,110,1530043,,,,,,,2022-07-27,1,,,,,ピアスマイル,0
2118,8011103012007,新規,0,2022-07-27,2022-07-27,合同会社チララビ,,合同会社,東京都,新宿区,西新宿３丁目３番１３号西新宿水間ビル２Ｆ,,13,104,1600023,,,,,,,2022-07-27,1,,,,,チララビ,0
2119,8011201023987,新規,0,2022-07-27,2022-07-27,株式会社エナジーコンサル,,株式会社,東京都,中野区,本町５丁目３１番４号浦和ビル１階,,13,114,1640012,,,,,,,2022-07-27,1,,,,,エナジーコンサル,0
2123,8011301027979,新規,0,2022-07-27,2022-07-27,株式会社ＢｕｚｚＢｕｌｌｉ,,株式会社,東京都,杉並区,高井戸東３丁目２７番１１号,,13,115,1680072,,,,,,,2022-07-27,1,,,,,バズブリー,0
2124,8011305002838,新規,0,2022-07-27,2022-07-27,特定非営利活動法人東京コットンビレッジ,,その他の設立登記法人,東京都,杉並区,阿佐谷北６丁目２７番３号メゾンマルス１０３,,13,115,1660001,,,,,,,2022-07-27,1,,,,,トウキョウコットンビレッジ,0
2125,8011501028315,新規,0,2022-07-27,2022-07-27,耕読山舎株式会社,,株式会社,東京都,荒川区,東日暮里３丁目２８番５号,,13,118,1160014,,,,,,,2022-07-27,1,,,,,コウドクサンシャ,0
2126,8011801041050,新規,0,2022-07-27,2022-07-27,株式会社キングサプライズ,,株式会社,東京都,足立区,宮城２丁目１０番８号ポワ・ド・サントウール３０６,,13,121,1200047,,,,,,,2022-07-27,1,,,,,キングサプライズ,0
2127,8011803005193,新規,0,2022-07-27,2022-07-27,Ｎａｏｔｏ　Ｎａｋａｄａ合同会社,,合同会社,東京都,足立区,西新井２丁目２１番７号,,13,121,1230841,,,,,,,2022-07-27,1,,,,,ナオトナカダ,0
2139,8013301049417,新規,0,2022-07-27,2022-07-27,株式会社ＭｉｒａＣｏｎ,,株式会社,東京都,豊島区,池袋３丁目１９－３パインセンターハイツ池袋１０２号,,13,116,1710014,,,,,,,2022-07-27,1,,,,,ミラコン,0
2140,8013301049425,新規,0,2022-07-27,2022-07-27,トリディクト株式会社,,株式会社,東京都,豊島区,高田３丁目３番２２－１０１号,,13,116,1710033,,,,,,,2022-07-27,1,,,,,トリディクト,0
2157,8021001076598,新規,0,2022-07-27,2022-07-27,株式会社林商事,,株式会社,神奈川県,藤沢市,本町３丁目１番３～３０１号,,14,205,2510053,,,,,,,2022-07-27,1,,,,,ハヤシショウジ,0
2158,8021001076615,新規,0,2022-07-27,2022-07-27,株式会社ＹＯＦＵＫＡＳＨＩ,,株式会社,神奈川県,小田原市,南町３丁目６－４－１０１,,14,206,2500013,,,,,,,2022-07-27,1,,,,,ヨフカシ,0
2168,8030001149396,新規,0,2022-07-27,2022-07-27,春日部物流株式会社,,株式会社,埼玉県,春日部市,六軒町４００番地３,,11,214,3440012,,,,,,,2022-07-27,1,,,,,カスカベブツリュウ,0
2174,8040001124407,新規,0,2022-07-27,2022-07-27,柏和株式会社,,株式会社,千葉県,千葉市中央区,中央２丁目３番１６号千葉センタースクエアビル５階,,12,101,2600013,,,,,,,2022-07-27,1,,,,,ハクワ,0
2175,8040001124423,新規,0,2022-07-27,2022-07-27,ＡｓｉａＳｔｉｃｋ株式会社,,株式会社,千葉県,市川市,市川２丁目３番８号,,12,203,2720034,,,,,,,2022-07-27,1,,,,,アジアスティック,0
2176,8040001124431,新規,0,2022-07-27,2022-07-27,株式会社ｍｏｅｍｏｅ’ＵＨＡＮＥ,,株式会社,千葉県,鎌ケ谷市,くぬぎ山１丁目１４番９－１１０３号,,12,224,2730128,,,,,,,2022-07-27,1,,,,,モエモエウハネ,0
2179,8040003020505,新規,0,2022-07-27,2022-07-27,合同会社Ｒ　ｇｒｏｕｐ,,合同会社,千葉県,市川市,南行徳１丁目１６番８号アーネスト８８ビル２０２号,,12,203,2720138,,,,,,,2022-07-27,1,,,,,アールグループ,0
2186,8050005013118,新規,0,2022-07-27,2022-07-27,行政書士法人大貫事務所,,その他の設立登記法人,茨城県,稲敷市,中山１１７番地１,,08,229,3001415,,,,,,,2022-07-27,1,,,,,オオヌキジムショ,0
2206,8120001247463,新規,0,2022-07-27,2022-07-27,ＴＡＫＵＭＩ株式会社,,株式会社,大阪府,大阪市東住吉区,矢田３丁目７－２４藤元ハイツ４０１号室,,27,121,5460023,,,,,,,2022-07-27,1,,,,,タクミ,0
2207,8120001247562,新規,0,2022-07-27,2022-07-27,株式会社イチタ,,株式会社,大阪府,大阪市中央区,安土町１丁目７－１３トヤマビル８階,,27,128,5410052,,,,,,,2022-07-27,1,,,,,イチタ,0
2208,8120001247579,新規,0,2022-07-27,2022-07-27,センターケア株式会社,,株式会社,大阪府,守口市,南寺方東通４丁目１４番１５号１１,,27,209,5700043,,,,,,,2022-07-27,1,,,,,センターケア,0
2209,8120001247629,新規,0,2022-07-27,2022-07-27,ＴＡＧＡＭＩ株式会社,,株式会社,大阪府,大阪市北区,堂島２丁目２－２近鉄堂島ビル１５階堂島パートナーズ内,,27,127,5300003,,,,,,,2022-07-27,1,,,,,タガミ,0
2210,8120001247645,新規,0,2022-07-27,2022-07-27,スノーコットン株式会社,,株式会社,大阪府,大阪市大正区,三軒家西１丁目４番２６号雪時雨－大正１０１号室,,27,108,5510001,,,,,,,2022-07-27,1,,,,,スノーコットン,0
2211,8120001247653,新規,0,2022-07-27,2022-07-27,株式会社ＷＥＳＴ　ＦＩＥＬＤ,,株式会社,大阪府,大阪市西区,新町２丁目５番１号プレミストタワー大阪新町ローレルコート１６０７号,,27,106,5500013,,,,,,,2022-07-27,1,,,,,ウエストフィールド,0
2212,8120001247694,新規,0,2022-07-27,2022-07-27,ＧＣＩＡ株式会社,,株式会社,大阪府,大阪市西区,南堀江１丁目３番１２－１３０６号,,27,106,5500015,,,,,,,2022-07-27,1,,,,,ジーシーアイエー,0
2213,8120001247703,新規,0,2022-07-27,2022-07-27,株式会社仁和,,株式会社,大阪府,大阪市東淀川区,相川２丁目２４番３３－３０３号,,27,114,5330007,,,,,,,2022-07-27,1,,,,,ニンナ,0
2216,8120003022121,新規,0,2022-07-27,2022-07-27,ＪＡＰＡＮ　ＴＲＡＤＩＮＧ　ＡＳＩＡ合同会社,,合同会社,大阪府,大阪市住之江区,中加賀屋２丁目１番９号,,27,125,5590017,,,,,,,2022-07-27,1,,,,,ジャパントレーディングエイジア,0
2220,8120005023101,新規,0,2022-07-27,2022-07-27,医療法人真秀会,,その他の設立登記法人,大阪府,大阪市天王寺区,筆ケ崎町５番３９号,,27,109,5430027,,,,,,,2022-07-27,1,,,,,シンシュウカイ,0
2224,8120103004787,新規,0,2022-07-27,2022-07-27,合同会社サウスハムステッド,,合同会社,大阪府,岸和田市,畑町３丁目９番１号,,27,202,5960831,,,,,,,2022-07-27,1,,,,,サウスハムステッド,0
2225,8120103004804,新規,0,2022-07-27,2022-07-27,成功商会合同会社,,合同会社,大阪府,堺市美原区,菅生９０１,,27,147,5870041,,,,,,,2022-07-27,1,,,,,セイコウショウカイ,0
2226,8120903004251,新規,0,2022-07-27,2022-07-27,合同会社ｓｔｕｄｉｏ　ｗａｔａｇｅ,,合同会社,大阪府,吹田市,五月が丘南２２番１７－２号,,27,205,5650832,,,,,,,2022-07-27,1,,,,,スタジオワタゲ,0
2228,8120905006361,新規,0,2022-07-27,2022-07-27,医療法人ＭＫ,,その他の設立登記法人,大阪府,箕面市,桜ケ丘３丁目９番１９号２階,,27,220,5620046,,,,,,,2022-07-27,1,,,,,エムケー,0
2230,8122003002383,新規,0,2022-07-27,2022-07-27,合同会社ｕｎｉ,,合同会社,大阪府,八尾市,久宝寺１丁目４番４９号,,27,212,5810072,,,,,,,2022-07-27,1,,,,,ユニ,0
2244,8140005026259,新規,0,2022-07-27,2022-07-27,一般社団法人ＡＭＳ,,その他の設立登記法人,兵庫県,尼崎市,水堂町２丁目２番２０号,,28,202,6610026,,,,,,,2022-07-27,1,,,,,エーエムエス,0
2273,8210003001537,新規,0,2022-07-27,2022-07-27,合同会社ＡＢサミット,,合同会社,福井県,敦賀市,神楽町２丁目６番５号ＦＵＪＩＯＮＥ・ＷＯＲＫＡＴＩＯＮ・ＰＬＡＣＥ－１Ｆ,,18,202,9140063,,,,,,,2022-07-27,1,,,,,エービーサミット,0
2291,8240005015425,新規,0,2022-07-27,2022-07-27,一般社団法人シニアライフサポート協会広島,,その他の設立登記法人,広島県,広島市安佐南区,山本８丁目１番２－１７号,,34,105,7310137,,,,,,,2022-07-27,1,,,,,シニアライフサポートキョウカイヒロシマ,0
2296,8260005011117,新規,0,2022-07-27,2022-07-27,一般社団法人市民審議会,,その他の設立登記法人,岡山県,倉敷市,西阿知町６６６番地,,33,202,7100807,,,,,,,2022-07-27,1,,,,,シミンシンギカイ,0
2301,8290001098378,新規,0,2022-07-27,2022-07-27,株式会社Ｄｅｎ‐ＮＥＴ,,株式会社,福岡県,福岡市西区,今宿町１９６番地,,40,135,8190164,,,,,,,2022-07-27,1,,,,,デンネット,0
2303,8290003012774,新規,0,2022-07-27,2022-07-27,合同会社エデン,,合同会社,福岡県,福岡市東区,箱崎３丁目７番７号,,40,131,8120053,,,,,,,2022-07-27,1,,,,,エデン,0
2313,8290801028749,新規,0,2022-07-27,2022-07-27,エイトフォース株式会社,,株式会社,福岡県,北九州市小倉南区,横代南町２丁目１１番１１号,,40,107,8020826,,,,,,,2022-07-27,1,,,,,エイトフォース,0
2319,8340001024923,新規,0,2022-07-27,2022-07-27,株式会社姶済会,,株式会社,鹿児島県,姶良市,東餅田１７６０番地ＮＦビル１０１号,,46,225,8995421,,,,,,,2022-07-27,1,,,,,アイセイカイ,0
2325,8370001048845,新規,0,2022-07-27,2022-07-27,株式会社ダイト建設工業,,株式会社,宮城県,仙台市青葉区,子平町１３番１２号,,04,101,9810944,,,,,,,2022-07-27,1,,,,,ダイトケンセツコウギョウ,0
2331,8380001033004,新規,0,2022-07-27,2022-07-27,株式会社ガレージライフ,,株式会社,福島県,郡山市,朝日３丁目１－９高橋ビル３０１号,,07,203,9638024,,,,,,,2022-07-27,1,,,,,ガレージライフ,0
2332,8380001033012,新規,0,2022-07-27,2022-07-27,株式会社ぷくぷく醸造,,株式会社,福島県,南相馬市,小高区本町１丁目８７番地小高パイオニアヴィレッジ,,07,212,9792124,,,,,,,2022-07-27,1,,,,,プクプクジョウゾウ,0
2333,8380003005249,新規,0,2022-07-27,2022-07-27,合同会社マイファミリー,,合同会社,福島県,郡山市,日和田町字千峯坦１０８番地,,07,203,9630534,,,,,,,2022-07-27,1,,,,,マイファミリー,0
2343,8430001087110,新規,0,2022-07-27,2022-07-27,Ｔｒａｃｅ株式会社,,株式会社,北海道,虻田郡倶知安町,字山田１９０番地９,,01,400,0440081,,,,,,,2022-07-27,1,,,,,トレース,0
2344,8430001087192,新規,0,2022-07-27,2022-07-27,カナマルＪｒ．株式会社,,株式会社,北海道,札幌市東区,北十条東６丁目１－２５サンルート２０１,,01,103,0650010,,,,,,,2022-07-27,1,,,,,カナマルジュニア,0
2360,8700150110990,新規,0,2022-07-27,2022-07-27,上海飛象健康科技有限公司,,外国会社等,,,,,,,,中華人民共和国上海市ミン行区虹＿路３９９９号７１２室,00127292,,,,,2022-07-27,1,,,,,シャンハイヒゾウケンコウカギユウゲンコウシ,0
2369,9010001228275,新規,0,2022-07-27,2022-07-27,株式会社Ｓｐａｃｅ　Ｃｏｍｐａｓｓ,,株式会社,東京都,千代田区,大手町１丁目６番１号,,13,101,1000004,,,,,,,2022-07-27,1,,,,,スペースコンパス,0
2370,9010001228358,新規,0,2022-07-27,2022-07-27,株式会社クリエイトシグナル,,株式会社,東京都,中央区,月島３丁目４番１－８０４号,,13,102,1040052,,,,,,,2022-07-27,1,,,,,クリエイトシグナル,0
2371,9010001228366,新規,0,2022-07-27,2022-07-27,株式会社桂,,株式会社,東京都,中央区,日本橋人形町２丁目１５番１１号,,13,102,1030013,,,,,,,2022-07-27,1,,,,,カツラ,0
2375,9010003038210,新規,0,2022-07-27,2022-07-27,合同会社ＵＴＡＨＡ,,合同会社,東京都,千代田区,東神田２丁目１０―１５ー４０８,,13,101,1010031,,,,,,,2022-07-27,1,,,,,ウタハ,0
2376,9010003038227,新規,0,2022-07-27,2022-07-27,Ｓｔｅｌｃｏｒｅ　Ｒｅｔａｉｌ合同会社,,合同会社,東京都,中央区,日本橋室町４丁目３番９号,,13,102,1030022,,,,,,,2022-07-27,1,,,,,ステルコアリテール,0
2377,9010003038268,新規,0,2022-07-27,2022-07-27,合同会社ＦＵＬＹ,,合同会社,東京都,中央区,日本橋３丁目５番１２号ＤＥＣＯＴＯＫＹＯ４階Ａ室,,13,102,1030027,,,,,,,2022-07-27,1,,,,,フリー,0
2378,9010003038276,新規,0,2022-07-27,2022-07-27,合同会社Ｌｅｓｐｅｄｅｚａ,,合同会社,東京都,千代田区,神田佐久間町１丁目１４,,13,101,1010025,,,,,,,2022-07-27,1,,,,,リスピディーザ,0
2379,9010005035354,新規,0,2022-07-27,2022-07-27,一般社団法人ＫＲＦ１００,,その他の設立登記法人,東京都,千代田区,内幸町２丁目１番６号,,13,101,1000011,,,,,,,2022-07-27,1,,,,,ケイアールエフヒャク,0
2387,9010401168724,新規,0,2022-07-27,2022-07-27,株式会社ひまわり賃貸,,株式会社,東京都,港区,東新橋２丁目７番３号,,13,103,1050021,,,,,,,2022-07-27,1,,,,,ヒマワリチンタイ,0
2388,9010401168749,新規,0,2022-07-27,2022-07-27,Ｅｘｅ．Ｆｏｒｕｍ株式会社,,株式会社,東京都,港区,浜松町２丁目２番１５号浜松町ダイヤビル２Ｆ,,13,103,1050013,,,,,,,2022-07-27,1,,,,,エグゼフォーラム,0
2394,9010403028133,新規,0,2022-07-27,2022-07-27,ＪＶ開発合同会社,,合同会社,東京都,港区,南青山１丁目２３番１１号Ｙ’ｓＦＬＡＴＳ１０２号室,,13,103,1070062,,,,,,,2022-07-27,1,,,,,ジェイブイカイハツ,0
2397,9010501049163,新規,0,2022-07-27,2022-07-27,株式会社ＴＯＹ,,株式会社,東京都,台東区,千束３丁目２０番１５号ランドフォレスト浅草千束４０１,,13,106,1110031,,,,,,,2022-07-27,1,,,,,トイ,0
2407,9010801033148,新規,0,2022-07-27,2022-07-27,株式会社ｃａｔｓ,,株式会社,東京都,大田区,西糀谷１丁目２３番１４号,,13,111,1440034,,,,,,,2022-07-27,1,,,,,キャッツ,0
2409,9010901051264,新規,0,2022-07-27,2022-07-27,小林康夫株式会社,,株式会社,東京都,世田谷区,世田谷１丁目４１番２号,,13,112,1540017,,,,,,,2022-07-27,1,,,,,コバヤシヤスオ,0
2410,9010901051297,新規,0,2022-07-27,2022-07-27,株式会社カヨウグラフィカ,,株式会社,東京都,世田谷区,桜１丁目５０番１１号Ｐａｓｔｅｌ桜１０１,,13,112,1560053,,,,,,,2022-07-27,1,,,,,カヨウグラフィカ,0
2419,9011001148694,新規,0,2022-07-27,2022-07-27,株式会社ＣＯＲＥ,,株式会社,東京都,渋谷区,神宮前６丁目２３－４－２Ｆ,,13,113,1500001,,,,,,,2022-07-27,1,,,,,コア,0
2420,9011001148884,新規,0,2022-07-27,2022-07-27,株式会社エピック,,株式会社,東京都,目黒区,大橋１丁目６番３号日米商会ビル６０２号,,13,110,1530044,,,,,,,2022-07-27,1,,,,,エピック,0
2425,9011103012006,新規,0,2022-07-27,2022-07-27,合同会社ファミリア,,合同会社,東京都,新宿区,西早稲田３丁目１番６号エミール西早稲田,,13,104,1690051,,,,,,,2022-07-27,1,,,,,ファミリア,0
2428,9011201023978,新規,0,2022-07-27,2022-07-27,株式会社ＦＯＲＩＭＯ,,株式会社,東京都,中野区,東中野４丁目２７－３７ＬＫ東中野マンション１０７,,13,114,1640003,,,,,,,2022-07-27,1,,,,,フォリモ,0
2429,9011201023994,新規,0,2022-07-27,2022-07-27,株式会社沖テック,,株式会社,東京都,中野区,鷺宮５丁目６番１７号カスタニア１０２,,13,114,1650032,,,,,,,2022-07-27,1,,,,,オキテック,0
2436,9011501028289,新規,0,2022-07-27,2022-07-27,ＳＥＡＦＬＯＷＥＲ　ＭＡＲＩＮＥ　ＪＡＰＡＮ株式会社,,株式会社,東京都,北区,東田端２丁目９番１７号,,13,117,1140013,,,,,,,2022-07-27,1,,,,,シーフラワーマリーンジャパン,0
2437,9011501028314,新規,0,2022-07-27,2022-07-27,ＳＯＮ　Ｋ　Ｈ株式会社,,株式会社,東京都,北区,中十条２丁目１９番１５号,,13,117,1140032,,,,,,,2022-07-27,1,,,,,ソンケイエチ,0
2440,9011801041066,新規,0,2022-07-27,2022-07-27,株式会社リーフ,,株式会社,東京都,葛飾区,東堀切２丁目１６番７号峯沢コーポ２０１号,,13,122,1240004,,,,,,,2022-07-27,1,,,,,リーフ,0
2441,9011803005192,新規,0,2022-07-27,2022-07-27,合同会社ナガタ,,合同会社,東京都,足立区,千住東１丁目３０番２１号アルフェイス北千住１４０５号,,13,121,1200025,,,,,,,2022-07-27,1,,,,,ナガタ,0
2444,9012401039459,新規,0,2022-07-27,2022-07-27,株式会社希望,,株式会社,東京都,狛江市,西野川４丁目３３番７号,,13,219,2010001,,,,,,,2022-07-27,1,,,,,キボウ,0
2458,9020001147268,新規,0,2022-07-27,2022-07-27,三屹国際株式会社,,株式会社,神奈川県,横浜市中区,山田町４番地フロール山田町第１－１０９号,,14,104,2310036,,,,,,,2022-07-27,1,,,,,サンキツコクサイ,0
2459,9020001147490,新規,0,2022-07-27,2022-07-27,株式会社ＸＣＲＥＡＴＥ,,株式会社,神奈川県,横浜市保土ケ谷区,仏向西２２番３－５１５号,,14,106,2400046,,,,,,,2022-07-27,1,,,,,エックスクリエイト,0
2461,9020003022147,新規,0,2022-07-27,2022-07-27,ＹＳＲプロパティ合同会社,,合同会社,神奈川県,横浜市都筑区,中川１丁目２番Ｂ－７０１号,,14,118,2240001,,,,,,,2022-07-27,1,,,,,ワイエスアールプロパティ,0
2465,9021001076597,新規,0,2022-07-27,2022-07-27,株式会社箱明,,株式会社,神奈川県,三浦市,南下浦町菊名３０番地,,14,210,2380102,,,,,,,2022-07-27,1,,,,,ハコアス,0
2467,9021003011965,新規,0,2022-07-27,2022-07-27,合同会社ステップサービス,,合同会社,神奈川県,相模原市緑区,東橋本１丁目１番９号,,14,151,2520144,,,,,,,2022-07-27,1,,,,,ステップサービス,0
2469,9030001149379,新規,0,2022-07-27,2022-07-27,株式会社ハマショウ,,株式会社,埼玉県,秩父郡皆野町,大字金沢１２１８番地２,,11,362,3691601,,,,,,,2022-07-27,1,,,,,ハマショウ,0
2470,9030001149395,新規,0,2022-07-27,2022-07-27,株式会社竜匠外装,,株式会社,埼玉県,飯能市,大字双柳３９１番地２－１０１,,11,209,3570021,,,,,,,2022-07-27,1,,,,,リュウショウガイソウ,0
2471,9030001149404,新規,0,2022-07-27,2022-07-27,株式会社カルネット,,株式会社,埼玉県,八潮市,大字二丁目１２２９,,11,234,3400811,,,,,,,2022-07-27,1,,,,,カルネット,0
2476,9030003019852,新規,0,2022-07-27,2022-07-27,会津ウィンドファーム合同会社,,合同会社,埼玉県,川口市,栄町１丁目７番１４号２Ｆ,,11,203,3320017,,,,,,,2022-07-27,1,,,,,アイヅウィンドファーム,0
2477,9030003019860,新規,0,2022-07-27,2022-07-27,ＭＫＲ合同会社,,合同会社,埼玉県,入間市,春日町２丁目２番５号１２,,11,225,3580006,,,,,,,2022-07-27,1,,,,,エムケーアール,0
2481,9040001124422,新規,0,2022-07-27,2022-07-27,株式会社ＣｈａＲｕＣｉ,,株式会社,千葉県,船橋市,習志野４丁目１５－９,,12,204,2740071,,,,,,,2022-07-27,1,,,,,シャルシー,0
2482,9040001124430,新規,0,2022-07-27,2022-07-27,株式会社Ｈ＆Ｈ,,株式会社,千葉県,木更津市,矢那３３５１番地１０,,12,206,2920812,,,,,,,2022-07-27,1,,,,,エイチアンドエイチ,0
2484,9040003020504,新規,0,2022-07-27,2022-07-27,合同会社Ｍｏａ,,合同会社,千葉県,習志野市,谷津２丁目２２－２２サフラン１０２,,12,216,2750026,,,,,,,2022-07-27,1,,,,,,0
2485,9040005021681,新規,0,2022-07-27,2022-07-27,一般社団法人市原市立姉崎公民館運営委員会,,その他の設立登記法人,千葉県,市原市,姉崎２１５０番地１姉崎公民館内,,12,219,2990111,,,,,,,2022-07-27,1,,,,,イチハラシリツアネサキコウミンカンウンエイイインカイ,0
2488,9050003006725,新規,0,2022-07-27,2022-07-27,ＮＩＨＯＮ　ＬＡＮＫＡ　ＥＮＴＥＲＰＲＩＳＥＳ合同会社,,合同会社,茨城県,龍ケ崎市,愛戸町４３番地１、１階,,08,208,3010838,,,,,,,2022-07-27,1,,,,,ニホンランカエンタープライゼス,0
2496,9080001025096,新規,0,2022-07-27,2022-07-27,株式会社８ユニット,,株式会社,静岡県,静岡市駿河区,下島２７１番地の１１,,22,102,4228037,,,,,,,2022-07-27,1,,,,,ハチユニット,0
2503,9090001017687,新規,0,2022-07-27,2022-07-27,株式会社ワイエスコンサルティング,,株式会社,山梨県,甲府市,中央１丁目７番地１０号,,19,201,4000032,,,,,,,2022-07-27,1,,,,,ワイエスコンサルテイング,0
2504,9090003002142,新規,0,2022-07-27,2022-07-27,ショップまちこぶ合同会社,,合同会社,山梨県,北杜市,小淵沢町１０３９番地６,,19,209,4080044,,,,,,,2022-07-27,1,,,,,ショップマチコブ,0
2510,9100003006637,新規,0,2022-07-27,2022-07-27,ＢｒｉｍｍｉｎｇＷｉｔｈＸ合同会社,,合同会社,長野県,北佐久郡立科町,大字山部２２０２－２,,20,324,3842307,,,,,,,2022-07-27,1,,,,,ブリミングウィズエックス,0
2525,9120001247504,新規,0,2022-07-27,2022-07-27,株式会社Ｓｕｎｌｉｇｈｔ,,株式会社,大阪府,守口市,寺方錦通３丁目１－１２メリッサ錦１０８号,,27,209,5700042,,,,,,,2022-07-27,1,,,,,サンライト,0
2526,9120001247545,新規,0,2022-07-27,2022-07-27,株式会社ｆｒｏｍ‐Ｔ,,株式会社,大阪府,大阪市中央区,玉造１丁目１８番１７号,,27,128,5400004,,,,,,,2022-07-27,1,,,,,フロムティー,0
2527,9120001247578,新規,0,2022-07-27,2022-07-27,株式会社ＺＥＲＯ　ＯＮＥ,,株式会社,大阪府,大阪市北区,堂山町１番５号三共梅田ビル７階,,27,127,5300027,,,,,,,2022-07-27,1,,,,,ゼロワン,0
2528,9120001247603,新規,0,2022-07-27,2022-07-27,韋施曼株式会社,,株式会社,大阪府,大阪市城東区,蒲生３丁目１５番１２号セザンヌ藤３０５Ｂ,,27,118,5360016,,,,,,,2022-07-27,1,,,,,イセマン,0
2529,9120001247652,新規,0,2022-07-27,2022-07-27,ＷＡＸＳ株式会社,,株式会社,大阪府,大阪市東成区,深江北３丁目４番２１号エクラ深江橋１１０Ａ,,27,115,5370001,,,,,,,2022-07-27,1,,,,,,0
2530,9120001247685,新規,0,2022-07-27,2022-07-27,株式会社ワンダリア,,株式会社,大阪府,大阪市中央区,内久宝寺町２丁目２番２２－３４０３号グランドメゾン上町台ザ・タワー,,27,128,5400013,,,,,,,2022-07-27,1,,,,,ワンダリア,0
2538,9120901046294,新規,0,2022-07-27,2022-07-27,株式会社ＡＹＵＭＩ,,株式会社,大阪府,茨木市,春日５丁目１番３２号,,27,211,5670031,,,,,,,2022-07-27,1,,,,,アユミ,0
2543,9130001072257,新規,0,2022-07-27,2022-07-27,株式会社ｗｅａｒ‐ｔ,,株式会社,京都府,京都市西京区,嵐山朝月町８－１１,,26,111,6160022,,,,,,,2022-07-27,1,,,,,ウェアート,0
2544,9130001072273,新規,0,2022-07-27,2022-07-27,ＫｅＤＤｉｉ　ＡＬＰＨＡ株式会社,,株式会社,京都府,相楽郡精華町,光台１丁目７番地けいはんなプラザ,,26,366,6190237,,,,,,,2022-07-27,1,,,,,ケディアルファ,0
2545,9130003008077,新規,0,2022-07-27,2022-07-27,合同会社Ｋｉｎｏｍｅ,,合同会社,京都府,京都市左京区,下鴨泉川町３６番地１７,,26,103,6060807,,,,,,,2022-07-27,1,,,,,キノメ,0
2552,9140001126854,新規,0,2022-07-27,2022-07-27,株式会社いとうカンパニー,,株式会社,兵庫県,尼崎市,潮江１丁目２０番１号,,28,202,6610976,,,,,,,2022-07-27,1,,,,,イトウカンパニー,0
2553,9140001126879,新規,0,2022-07-27,2022-07-27,三栄工業株式会社,,株式会社,兵庫県,赤穂市,中広４９３番地１２,,28,212,6780232,,,,,,,2022-07-27,1,,,,,サンエイコウギョウ,0
2554,9140001126887,新規,0,2022-07-27,2022-07-27,株式会社ファインエステート,,株式会社,兵庫県,明石市,桜町一丁目６番地グリシーヌ桜町１０１号,,28,203,6730885,,,,,,,2022-07-27,1,,,,,ファインエステート,0
2555,9140003017960,新規,0,2022-07-27,2022-07-27,合同会社ＰＨＯＴＯ　ＦＡＣＴＯＲＹ　ＬＡＲ,,合同会社,兵庫県,姫路市,中地６８７番地２,,28,201,6700976,,,,,,,2022-07-27,1,,,,,フォトファクトリーラル,0
2557,9150003002739,新規,0,2022-07-27,2022-07-27,合同会社ｃｏｔｏｎａｒａ,,合同会社,奈良県,生駒郡斑鳩町,龍田西３丁目４番１号,,29,344,6360154,,,,,,,2022-07-27,1,,,,,コトナラ,0
2574,9180301036469,新規,0,2022-07-27,2022-07-27,株式会社ＫＡＩＴＳＵ,,株式会社,愛知県,西尾市,吉良町岡山背撫山４番地２４,,23,213,4440531,,,,,,,2022-07-27,1,,,,,カイツウ,0
2575,9190001029648,新規,0,2022-07-27,2022-07-27,株式会社ジンテック,,株式会社,三重県,桑名市,大央町２９番地,,24,205,5110065,,,,,,,2022-07-27,1,,,,,ジンテック,0
2580,9200003005629,新規,0,2022-07-27,2022-07-27,合同会社ＫＧＰ,,合同会社,岐阜県,海津市,海津町七右衛門新田１７２６番地１,,21,221,5030627,,,,,,,2022-07-27,1,,,,,ケージーピー,0
2594,9220003003333,新規,0,2022-07-27,2022-07-27,合同会社ＲＥＲＩＳＥ,,合同会社,石川県,金沢市,みどり１丁目２６１番地９,,17,201,9200373,,,,,,,2022-07-27,1,,,,,リライズ,0
2601,9240001060127,新規,0,2022-07-27,2022-07-27,株式会社上條興業,,株式会社,広島県,安芸高田市,吉田町吉田字外堀２４００番地１,,34,214,7310501,,,,,,,2022-07-27,1,,,,,カミジョウコウギョウ,0
2625,9340001024922,新規,0,2022-07-27,2022-07-27,株式会社ｉｌｅｘ,,株式会社,鹿児島県,霧島市,霧島大窪７８５－４１９,,46,218,8994203,,,,,,,2022-07-27,1,,,,,アイレクス,0
2632,9370001048844,新規,0,2022-07-27,2022-07-27,株式会社高野,00127332,株式会社,宮城県,仙台市太白区,長町南２丁目１３番８号,,04,104,9820012,,,,,,,2022-07-27,1,,,,,タカノ,0
