sequenceNumber,corporateNumber,process,correct,updateDate,changeDate,name,nameImageId,kind,prefectureName,cityName,streetNumber,addressImageId,prefectureCode,cityCode,postCode,addressOutside,addressOutsideImageId,closeDate,closeCause,successorCorporateNumber,changeCause,assignmentDate,latest,enName,enPrefectureName,enCityName,enAddressOutside,furigana,hihyoji
9,1010001234891,新規,0,2023-05-11,2023-05-11,株式会社Ｓｉｍｐｌｅ　Ｈｏｎｅｓｔｙ,,株式会社,東京都,中央区,銀座１丁目１２－４Ｎ＆ＥＢＬＤ．７階,,13,102,1040061,,,,,,,2023-05-11,1,,,,,シンプルホネスティ,0
10,1010001235188,新規,0,2023-05-11,2023-05-11,株式会社たざき,,株式会社,東京都,中央区,銀座１丁目１２－４Ｎ＆Ｅ．ＢＬＤ．７階,,13,102,1040061,,,,,,,2023-05-11,1,,,,,タザキ,0
20,1010502014149,新規,0,2023-05-11,2023-05-11,有限会社マローズ,,有限会社,東京都,台東区,竜泉３丁目１３番７号,,13,106,1100012,,,,,,,2023-05-11,1,,,,,,0
37,1010901052996,新規,0,2023-05-11,2023-05-11,株式会社タートルビー,,株式会社,東京都,世田谷区,八幡山３丁目３６番８号ＬａＬｕｃｅ八幡山,,13,112,1560056,,,,,,,2023-05-11,1,,,,,タートルビー,0
38,1010901053020,新規,0,2023-05-11,2023-05-11,株式会社アクアレプス,,株式会社,東京都,世田谷区,奥沢５丁目９－１６カームハウス１０１,,13,112,1580083,,,,,,,2023-05-11,1,,,,,アクアレプス,0
43,1011001154213,新規,0,2023-05-11,2023-05-11,株式会社ＰＲＯＲＥＭ,,株式会社,東京都,渋谷区,神宮前１丁目２１－１原宿ヒルズ１階,,13,113,1500001,,,,,,,2023-05-11,1,,,,,プローレム,0
44,1011001154262,新規,0,2023-05-11,2023-05-11,株式会社アシスト,,株式会社,東京都,渋谷区,猿楽町２３番２号,,13,113,1500033,,,,,,,2023-05-11,1,,,,,アシスト,0
45,1011001154270,新規,0,2023-05-11,2023-05-11,株式会社エムスタイル,,株式会社,東京都,渋谷区,恵比寿南２丁目１９番７号ＶＯＲＴ恵比寿Ｄｕａｌ’ｓ２０９号,,13,113,1500022,,,,,,,2023-05-11,1,,,,,エムスタイル,0
46,1011001154279,新規,0,2023-05-11,2023-05-11,株式会社Ｓｐｅａｒｍｉｎｔ　Ｒａｉｎｂｏｗ,,株式会社,東京都,渋谷区,道玄坂１丁目１０番８号,,13,113,1500043,,,,,,,2023-05-11,1,,,,,スペアミントレインボウ,0
47,1011001154337,新規,0,2023-05-11,2023-05-11,株式会社アプライド,,株式会社,東京都,渋谷区,渋谷１丁目４番７－３０１号,,13,113,1500002,,,,,,,2023-05-11,1,,,,,アプライド,0
48,1011001154353,新規,0,2023-05-11,2023-05-11,ＭＥＤ株式会社,,株式会社,東京都,渋谷区,神宮前３丁目２１番１０号,,13,113,1500001,,,,,,,2023-05-11,1,,,,,エムイーディー,0
55,1011101102757,新規,0,2023-05-11,2023-05-11,東京ＬＣＭファクトリー株式会社,,株式会社,東京都,新宿区,西新宿３丁目３番１３号西新宿水間ビル２Ｆ,,13,104,1600023,,,,,,,2023-05-11,1,,,,,トウキョウエルシーエムファクトリー,0
60,1011501029245,新規,0,2023-05-11,2023-05-11,株式会社Ａｓｔｒａｅａ,,株式会社,東京都,北区,西が丘２丁目６番２０号,,13,117,1150056,,,,,,,2023-05-11,1,,,,,アストライア,0
61,1011501029278,新規,0,2023-05-11,2023-05-11,麒麟伝説株式会社,,株式会社,東京都,北区,中里１丁目２１番２号中里ビル１Ｆ,,13,117,1140015,,,,,,,2023-05-11,1,,,,,キリンデンセツ,0
65,1011601026794,新規,0,2023-05-11,2023-05-11,東京国際貿易株式会社,,株式会社,東京都,練馬区,豊玉北６丁目５－３－２０７号室,,13,120,1760012,,,,,,,2023-05-11,1,,,,,トウキョウコクサイボウエキ,0
66,1011601026803,新規,0,2023-05-11,2023-05-11,株式会社Ｈａｗｋ,,株式会社,東京都,練馬区,練馬１丁目４番４号,,13,120,1760001,,,,,,,2023-05-11,1,,,,,ホーク,0
69,1011603003916,新規,0,2023-05-11,2023-05-11,合同会社米企画,,合同会社,東京都,練馬区,早宮３丁目４番１２号,,13,120,1790085,,,,,,,2023-05-11,1,,,,,ヨネキカク,0
72,1011701026224,新規,0,2023-05-11,2023-05-11,株式会社ディクレッセ,,株式会社,東京都,江戸川区,松江２丁目４番８号,,13,123,1320025,,,,,,,2023-05-11,1,,,,,ディクレッセ,0
76,1012401040515,新規,0,2023-05-11,2023-05-11,株式会社ＲＥＮＡＲＤ,,株式会社,東京都,小金井市,本町４丁目３－２１,,13,210,1840004,,,,,,,2023-05-11,1,,,,,レナード,0
78,1012801022328,新規,0,2023-05-11,2023-05-11,株式会社ＳＴＥＬＬＡ　ＬＩＮＫＡＧＥ,,株式会社,東京都,立川市,錦町６丁目２３番１０号,,13,202,1900022,,,,,,,2023-05-11,1,,,,,ステラリンケージ,0
85,1013303006620,新規,0,2023-05-11,2023-05-11,合同会社Ｍｉｘｔｕｒｅ　ｍｉｘ,,合同会社,東京都,豊島区,南池袋２丁目４５番２－１４１５号,,13,116,1710022,,,,,,,2023-05-11,1,,,,,ミクスチャーミックス,0
96,1021001078989,新規,0,2023-05-11,2023-05-11,すまい環境設計株式会社,,株式会社,神奈川県,高座郡寒川町,岡田１丁目６－３,,14,321,2530105,,,,,,,2023-05-11,1,,,,,スマイカンキョウセッケイ,0
99,1021003013060,新規,0,2023-05-11,2023-05-11,ＳＫエンジニアリング合同会社,,合同会社,神奈川県,相模原市緑区,青野原２２５３番地８,,14,151,2520161,,,,,,,2023-05-11,1,,,,,エスケーエンジニアリング,0
106,1030001153677,新規,0,2023-05-11,2023-05-11,つづくｆｏｒｅｓｔ株式会社,,株式会社,埼玉県,三郷市,彦糸１丁目２０２番地２,,11,237,3410001,,,,,,,2023-05-11,1,,,,,ツヅクフォレスト,0
107,1030001153702,新規,0,2023-05-11,2023-05-11,株式会社ＭＴ．ＳＡＫＡＮ,,株式会社,埼玉県,川口市,大字安行藤八４６番地の７４,,11,203,3340051,,,,,,,2023-05-11,1,,,,,エムティーサカン,0
108,1030001153710,新規,0,2023-05-11,2023-05-11,株式会社大越,,株式会社,埼玉県,さいたま市中央区,下落合６丁目１４番７号３０１,,11,105,3380002,,,,,,,2023-05-11,1,,,,,ダイエツ,0
109,1030001153719,新規,0,2023-05-11,2023-05-11,株式会社ＳＹインテリア,,株式会社,埼玉県,蓮田市,大字駒崎１２８４番地６,,11,238,3490134,,,,,,,2023-05-11,1,,,,,エスワイインテリア,0
110,1030001153743,新規,0,2023-05-11,2023-05-11,株式会社Ｒａ．Ｒａ．,,株式会社,埼玉県,久喜市,葛梅４５０番地１２５,,11,232,3400214,,,,,,,2023-05-11,1,,,,,ララ,0
111,1030001153751,新規,0,2023-05-11,2023-05-11,株式会社ＧＥＣＫＯ,,株式会社,埼玉県,新座市,畑中２丁目４番２３号,,11,230,3520012,,,,,,,2023-05-11,1,,,,,ゲッコー,0
121,1040001128307,新規,0,2023-05-11,2023-05-11,株式会社レディ,,株式会社,千葉県,船橋市,湊町２丁目１２番２４号湊町日本橋ビル６Ｆ,,12,204,2730011,,,,,,,2023-05-11,1,,,,,レディ,0
122,1040001128315,新規,0,2023-05-11,2023-05-11,株式会社ＣｕｄｄｌｅＤｅｓｉｇｎ,,株式会社,千葉県,柏市,高柳１３５８番地２３,,12,217,2770941,,,,,,,2023-05-11,1,,,,,カドルデザイン,0
125,1040003022581,新規,0,2023-05-11,2023-05-11,エム合同会社,,合同会社,千葉県,柏市,旭町１丁目１０番３号,,12,217,2770852,,,,,,,2023-05-11,1,,,,,エム,0
127,1050001052836,新規,0,2023-05-11,2023-05-11,株式会社リアルステージ,,株式会社,茨城県,ひたちなか市,元町３番１１号,,08,221,3120044,,,,,,,2023-05-11,1,,,,,リアルステージ,0
129,1050003007482,新規,0,2023-05-11,2023-05-11,合同会社Ｈ＆Ｓ,,合同会社,茨城県,龍ケ崎市,佐貫町４８８番地１８ＴＫビル３０１号室,,08,208,3010033,,,,,,,2023-05-11,1,,,,,エイチアンドエス,0
133,1060001035971,新規,0,2023-05-11,2023-05-11,株式会社さんあい保険センター,,株式会社,栃木県,塩谷郡高根沢町,宝石台３丁目１番７号,,09,386,3291231,,,,,,,2023-05-11,1,,,,,サンアイホケンセンター,0
134,1060001035996,新規,0,2023-05-11,2023-05-11,株式会社ＤＩＣ,,株式会社,栃木県,栃木市,都賀町木３１２４番地,,09,203,3280104,,,,,,,2023-05-11,1,,,,,ディーアイシー,0
140,1080001025616,新規,0,2023-05-11,2023-05-11,株式会社葵クリエイション,,株式会社,静岡県,静岡市葵区,東町３６番地１０号,,22,101,4200836,,,,,,,2023-05-11,1,,,,,アオイクリエイション,0
141,1080105006339,新規,0,2023-05-11,2023-05-11,一般社団法人Ａｒｒｏｗｓ　Ｌｉｎｋ,,その他の設立登記法人,静岡県,三島市,中２４９番地,,22,206,4110833,,,,,,,2023-05-11,1,,,,,アローズリンク,0
143,1080401026478,新規,0,2023-05-11,2023-05-11,株式会社ＪＡＺＺＹ　ＣＯＮＤＩＴＩＯＮＩＮＧ,,株式会社,静岡県,浜松市中区,上島１丁目２７番３８号,,22,131,4338122,,,,,,,2023-05-11,1,,,,,ジャジィコンディショニング,0
146,1080403004787,新規,0,2023-05-11,2023-05-11,合同会社小崎工業,,合同会社,静岡県,浜松市東区,有玉南町１３４８番地の３ホルツタウンＢ１０３,,22,132,4313122,,,,,,,2023-05-11,1,,,,,コザキコウギョウ,0
148,1090001018115,新規,0,2023-05-11,2023-05-11,株式会社アルミッシュ,,株式会社,山梨県,中巨摩郡昭和町,河東中島１６７７番地,,19,384,4093863,,,,,,,2023-05-11,1,,,,,アルミッシュ,0
150,1100005013011,新規,0,2023-05-11,2023-05-11,一般社団法人アンテナさくほ,,その他の設立登記法人,長野県,南佐久郡佐久穂町,大字高野町６２２番地１,,20,309,3840613,,,,,,,2023-05-11,1,,,,,アンテナサクホ,0
158,1120001254788,新規,0,2023-05-11,2023-05-11,遊Ｐｌｕｓ株式会社,,株式会社,大阪府,大阪市北区,豊崎１丁目１１－１８,,27,127,5310072,,,,,,,2023-05-11,1,,,,,ユウプラス,0
159,1120001254821,新規,0,2023-05-11,2023-05-11,ジョイント株式会社,,株式会社,大阪府,大阪市北区,梅田１丁目１１番４号大阪駅前第４ビル９階９２３－１６６７号,,27,127,5300001,,,,,,,2023-05-11,1,,,,,ジョイント,0
163,1120003024033,新規,0,2023-05-11,2023-05-11,合同会社ＹａＭＡ,,合同会社,大阪府,大阪市北区,豊崎３丁目１６番１６－３５１２号,,27,127,5310072,,,,,,,2023-05-11,1,,,,,ヤマ,0
164,1120003024058,新規,0,2023-05-11,2023-05-11,合同会社ミーサ,,合同会社,大阪府,大阪市西成区,潮路２丁目１４番２号,,27,122,5570052,,,,,,,2023-05-11,1,,,,,ミーサ,0
166,1120101067479,新規,0,2023-05-11,2023-05-11,株式会社ｃｓ,,株式会社,大阪府,堺市北区,野遠町２８番地２３,,27,146,5918013,,,,,,,2023-05-11,1,,,,,シーエス,0
170,1120103005214,新規,0,2023-05-11,2023-05-11,オクロン合同会社,,合同会社,大阪府,堺市北区,百舌鳥梅町１丁６５０番地３,,27,146,5918032,,,,,,,2023-05-11,1,,,,,オクロン,0
177,1130001074260,新規,0,2023-05-11,2023-05-11,株式会社優京ｃａｒｅ,,株式会社,京都府,京都市山科区,御陵中内町３８番地レジデンスヤマモトＩ１０６,00130439,26,110,6078414,,,,,,,2023-05-11,1,,,,,ユウキョウケア,0
178,1130001074277,新規,0,2023-05-11,2023-05-11,株式会社流麗空間,,株式会社,京都府,京都市中京区,三条通室町西入衣棚町５３番地１三条室町パークホームズ１１０６,00130440,26,104,6048203,,,,,,,2023-05-11,1,,,,,リュウレイクウカン,0
186,1140001130046,新規,0,2023-05-11,2023-05-11,株式会社ＨＯＰＥ,,株式会社,兵庫県,姫路市,継２２３番地１０,,28,201,6728004,,,,,,,2023-05-11,1,,,,,ホープ,0
187,1140001130120,新規,0,2023-05-11,2023-05-11,Ｇｌｕｅｂｕｌｌ株式会社,,株式会社,兵庫県,芦屋市,松浜町５番１５－７１０号,,28,206,6590053,,,,,,,2023-05-11,1,,,,,グルーブル,0
188,1140001130129,新規,0,2023-05-11,2023-05-11,日新国際株式会社,,株式会社,兵庫県,神戸市中央区,栄町通５丁目２－１６－２０２,,28,110,6500023,,,,,,,2023-05-11,1,,,,,ニッシンコクサイ,0
189,1140001130153,新規,0,2023-05-11,2023-05-11,株式会社ゴールデンシップ,,株式会社,兵庫県,神戸市中央区,加納町４丁目１０－２３－１１０４,,28,110,6500001,,,,,,,2023-05-11,1,,,,,ゴールデンシップ,0
191,1140003019072,新規,0,2023-05-11,2023-05-11,合同会社相進Ｃｏｒｐｏｒａｔｉｏｎ,,合同会社,兵庫県,神戸市長田区,腕塚町４丁目２番１－７０１号,,28,106,6530036,,,,,,,2023-05-11,1,,,,,アイシンコーポレーション,0
193,1140005026587,新規,0,2023-05-11,2023-05-11,一般社団法人日本有機加工食品コンソーシアム,,その他の設立登記法人,兵庫県,神戸市西区,見津が丘３丁目８番５,,28,111,6512228,,,,,,,2023-05-11,1,,,,,ニホンユウキカコウショクヒンコンソーシアム,0
195,1150001026391,新規,0,2023-05-11,2023-05-11,株式会社イデオーク,,株式会社,奈良県,磯城郡田原本町,大字八尾４０７番地の１７,,29,363,6360311,,,,,,,2023-05-11,1,,,,,イデオーク,0
198,1170005007015,新規,0,2023-05-11,2023-05-11,一般社団法人不動産買取協会,,その他の設立登記法人,和歌山県,有田郡有田川町,大字上中島７７５番地１,,30,366,6430855,,,,,,,2023-05-11,1,,,,,フドウサンカイトリキョウカイ,0
208,1180001156186,新規,0,2023-05-11,2023-05-11,株式会社ａｒｂｒｅ,,株式会社,愛知県,海部郡大治町,大字西條字佐渡１番地,,23,424,4901144,,,,,,,2023-05-11,1,,,,,アルブル,0
209,1180001156228,新規,0,2023-05-11,2023-05-11,株式会社ＦＬＡＧＳエイド,,株式会社,愛知県,名古屋市東区,東桜２丁目３番１４号,,23,102,4610005,,,,,,,2023-05-11,1,,,,,フラッグスエイド,0
222,1200001041303,新規,0,2023-05-11,2023-05-11,株式会社Ａ,,株式会社,岐阜県,羽島郡岐南町,徳田西１丁目５７番地の１,,21,302,5016017,,,,,,,2023-05-11,1,,,,,ア,0
228,1230001019833,新規,0,2023-05-11,2023-05-11,株式会社影近組,,株式会社,富山県,富山市,四ツ葉町６番１６号,,16,201,9300841,,,,,,,2023-05-11,1,,,,,カゲチカグミ,0
232,1240001061495,新規,0,2023-05-11,2023-05-11,株式会社樋口工業,,株式会社,広島県,広島市東区,温品３丁目２７番４号,,34,102,7320033,,,,,,,2023-05-11,1,,,,,ヒグチコウギョウ,0
240,1290001101437,新規,0,2023-05-11,2023-05-11,株式会社地域経済活性機構,,株式会社,福岡県,福岡市博多区,中洲５丁目４番１０号,,40,132,8100801,,,,,,,2023-05-11,1,,,,,チイキケイザイカッセイキコウ,0
241,1290001101494,新規,0,2023-05-11,2023-05-11,株式会社ＳＩＮＱＷＩＬＬ,,株式会社,福岡県,福岡市南区,長丘１丁目８番２３号,,40,134,8150075,,,,,,,2023-05-11,1,,,,,シンクウィル,0
261,1360001031981,新規,0,2023-05-11,2023-05-11,株式会社タクスイ,,株式会社,沖縄県,那覇市,字大道１４３番地,,47,201,9020066,,,,,,,2023-05-11,1,,,,,タクスイ,0
262,1360005006848,新規,0,2023-05-11,2023-05-11,一般社団法人与那国町観光協会,,その他の設立登記法人,沖縄県,八重山郡与那国町,字与那国４３７番地１７,,47,382,9071801,,,,,,,2023-05-11,1,,,,,ヨナグニチョウカンコウキョウカイ,0
273,1450001013979,新規,0,2023-05-11,2023-05-11,株式会社コネクション,,株式会社,北海道,旭川市,四条通６丁目４０３番地１ライオンビル河内館５階,,01,204,0700034,,,,,,,2023-05-11,1,,,,,,0
276,1460301005147,新規,0,2023-05-11,2023-05-11,株式会社水穿,,株式会社,北海道,北見市,三楽町１９４番地２０,,01,208,0900019,,,,,,,2023-05-11,1,,,,,スイセン,0
277,1480001012103,新規,0,2023-05-11,2023-05-11,株式会社ＫＷＢ,,株式会社,徳島県,徳島市,八万町大坪４３番地１１,,36,201,7708079,,,,,,,2023-05-11,1,,,,,ケーダブルビー,0
293,2010001235170,新規,0,2023-05-11,2023-05-11,コタエル・ファイナンス株式会社,,株式会社,東京都,千代田区,丸の内２丁目４番１号丸の内ビルディング,,13,101,1000005,,,,,,,2023-05-11,1,,,,,コタエルファイナンス,0
294,2010001235204,新規,0,2023-05-11,2023-05-11,株式会社ラゴス,,株式会社,東京都,千代田区,神田神保町２丁目１４－１１朝日神保町プラザ９０９,,13,101,1010051,,,,,,,2023-05-11,1,,,,,ラゴス,0
295,2010001235245,新規,0,2023-05-11,2023-05-11,株式会社マツリカ,,株式会社,東京都,千代田区,六番町１番７号,,13,101,1020085,,,,,,,2023-05-11,1,,,,,マツリカ,0
299,2010003040544,新規,0,2023-05-11,2023-05-11,合同会社ｙ’ｓ,,合同会社,東京都,中央区,東日本橋２丁目２４番１６－４０１号,,13,102,1030004,,,,,,,2023-05-11,1,,,,,ワイズ,0
300,2010003040560,新規,0,2023-05-11,2023-05-11,ＪＭａｘ　Ｊａｐａｎ合同会社,,合同会社,東京都,千代田区,丸の内２丁目１番１号明治安田生命ビル２１階,,13,101,1000005,,,,,,,2023-05-11,1,,,,,ジェイマックスジャパン,0
302,2010005036648,新規,0,2023-05-11,2023-05-11,川西２・２一般社団法人,,その他の設立登記法人,東京都,中央区,日本橋１丁目４番１号日本橋一丁目ビルディング,,13,102,1030027,,,,,,,2023-05-11,1,,,,,カワニシニニ,0
309,2010401174183,新規,0,2023-05-11,2023-05-11,株式会社ＩＦＣ　Ｌａｂｏ,,株式会社,東京都,港区,白金２丁目３番２３号クロスレジデンス白金高輪５０６,,13,103,1080072,,,,,,,2023-05-11,1,,,,,アイエフシーラボ,0
310,2010401174209,新規,0,2023-05-11,2023-05-11,葡萄人生株式会社,,株式会社,東京都,港区,六本木３丁目８番９号ソシエ六本木２０２,,13,103,1060032,,,,,,,2023-05-11,1,,,,,ブドウジンセイ,0
311,2010403030062,新規,0,2023-05-11,2023-05-11,合同会社ｔｓｅｋａ,,合同会社,東京都,港区,高輪４丁目２３番６号ハイホーム高輪７０８,,13,103,1080074,,,,,,,2023-05-11,1,,,,,ツェカ,0
312,2010403030087,新規,0,2023-05-11,2023-05-11,合同会社目黒リゾート,,合同会社,東京都,港区,西新橋１丁目２番９号メンターキャピタル税理士法人内,,13,103,1050003,,,,,,,2023-05-11,1,,,,,メグロリゾート,0
319,2010603010145,新規,0,2023-05-11,2023-05-11,ＡＣＳ合同会社,,合同会社,東京都,江東区,牡丹２丁目９－１６－１１４,,13,108,1350046,,,,,,,2023-05-11,1,,,,,エイシーエス,0
321,2010701044219,新規,0,2023-05-11,2023-05-11,ＴＣ＆Ｓ株式会社,,株式会社,東京都,品川区,大崎３丁目６番２１号,,13,109,1410032,,,,,,,2023-05-11,1,,,,,ティーシーアンドエス,0
322,2010701044235,新規,0,2023-05-11,2023-05-11,株式会社オフィス真相庵,,株式会社,東京都,品川区,小山３丁目６番１５－１２０７号,,13,109,1420062,,,,,,,2023-05-11,1,,,,,オフィスシンソウアン,0
331,2010901052995,新規,0,2023-05-11,2023-05-11,株式会社八月,,株式会社,東京都,世田谷区,北沢２丁目１４番１９号グラバービル,,13,112,1550031,,,,,,,2023-05-11,1,,,,,ハチガツ,0
332,2010901053028,新規,0,2023-05-11,2023-05-11,株式会社コクーンエイト,,株式会社,東京都,世田谷区,代沢２丁目５番２－４０１号,,13,112,1550032,,,,,,,2023-05-11,1,,,,,コクーンエイト,0
333,2010903008153,新規,0,2023-05-11,2023-05-11,合同会社プロフェッサーズメディカルサポート,,合同会社,東京都,世田谷区,岡本２丁目２９番１８－２０４号,,13,112,1570076,,,,,,,2023-05-11,1,,,,,プロフェッサーズメディカルサポート,0
338,2011001154294,新規,0,2023-05-11,2023-05-11,ムーンショット株式会社,,株式会社,東京都,渋谷区,宇田川町２番－１－１００１号,,13,113,1500042,,,,,,,2023-05-11,1,,,,,ムーンショット,0
339,2011001154352,新規,0,2023-05-11,2023-05-11,ＦＲＡＳＥ株式会社,,株式会社,東京都,渋谷区,本町３丁目２番１０号コンソラーレ０２０４号,,13,113,1510071,,,,,,,2023-05-11,1,,,,,フラーゼ,0
348,2011201024628,新規,0,2023-05-11,2023-05-11,株式会社Ｒｏｂｅｒｔ　Ｆｒｉｔｚ　Ｃｏｎｓｕｌｔｉｎｇ,,株式会社,東京都,中野区,大和町３丁目４１番１８号,,13,114,1650034,,,,,,,2023-05-11,1,,,,,ロバートフリッツコンサルティング,0
351,2011203004074,新規,0,2023-05-11,2023-05-11,合同会社ニュートライズ,,合同会社,東京都,中野区,松が丘１丁目２５番４号,,13,114,1650024,,,,,,,2023-05-11,1,,,,,ニュートライズ,0
354,2011501029277,新規,0,2023-05-11,2023-05-11,株式会社トーシン,,株式会社,東京都,北区,西が丘１丁目２４番１号,,13,117,1150056,,,,,,,2023-05-11,1,,,,,トーシン,0
357,2011601026793,新規,0,2023-05-11,2023-05-11,Ｔｏｎｇｔｉａｎｘｉａｏ　Ｊａｐａｎ株式会社,,株式会社,東京都,練馬区,桜台１丁目７番７号４０３,,13,120,1760002,,,,,,,2023-05-11,1,,,,,トーテンショウジャパン,0
362,2011801042335,新規,0,2023-05-11,2023-05-11,株式会社Ｍ＆Ｓ,,株式会社,東京都,葛飾区,東立石２丁目５番１４号,,13,122,1240013,,,,,,,2023-05-11,1,,,,,エムアンドエス,0
363,2011801042368,新規,0,2023-05-11,2023-05-11,株式会社豊作,,株式会社,東京都,葛飾区,水元５丁目１０番２２号,,13,122,1250032,,,,,,,2023-05-11,1,,,,,ホウサク,0
368,2012401040522,新規,0,2023-05-11,2023-05-11,株式会社Ｓａｋｕｒａムーブメント,,株式会社,東京都,狛江市,西野川２丁目７番８号,,13,219,2010001,,,,,,,2023-05-11,1,,,,,サクラムーブメント,0
369,2012403005977,新規,0,2023-05-11,2023-05-11,ＭＩＹＡＫＯ＆ＣＯ．合同会社,,合同会社,東京都,武蔵野市,中町１丁目２０番９号上内ビル２Ａ,,13,203,1800006,,,,,,,2023-05-11,1,,,,,ミヤコアンドコ,0
373,2013101009163,新規,0,2023-05-11,2023-05-11,株式会社Ｎｅｗ＆ｏｌｄ,,株式会社,東京都,羽村市,小作台５丁目８番地１４,,13,227,2050001,,,,,,,2023-05-11,1,,,,,ニューアンドオールド,0
380,2013301050727,新規,0,2023-05-11,2023-05-11,ＳＳＢ株式会社,,株式会社,東京都,豊島区,池袋本町４丁目３９番５－２１１号,,13,116,1700011,,,,,,,2023-05-11,1,,,,,エスエスビー,0
381,2013301050735,新規,0,2023-05-11,2023-05-11,株式会社日本オークション協会,,株式会社,東京都,豊島区,南大塚３丁目５３番１１号,,13,116,1700005,,,,,,,2023-05-11,1,,,,,ニホンオークションキョウカイ,0
382,2013301050743,新規,0,2023-05-11,2023-05-11,株式会社ＢＢＩＡ　ＪＡＰＡＮ,,株式会社,東京都,豊島区,東池袋５丁目７番３号アゼリア東池袋４０１,,13,116,1700013,,,,,,,2023-05-11,1,,,,,ピアジャパン,0
387,2020001151499,新規,0,2023-05-11,2023-05-11,株式会社Ｙｓｔａｇｅ,,株式会社,神奈川県,横浜市金沢区,金沢町３番地４,,14,108,2360015,,,,,,,2023-05-11,1,,,,,ワイステージ,0
388,2020001151524,新規,0,2023-05-11,2023-05-11,株式会社ＫＮＴ,,株式会社,神奈川県,横浜市中区,北仲通５丁目５７番地２,,14,104,2310003,,,,,,,2023-05-11,1,,,,,ケーエヌティー,0
400,2030001153726,新規,0,2023-05-11,2023-05-11,株式会社Ｇｒａｎｄｉｒ,,株式会社,埼玉県,川越市,大字小ケ谷１７４番地１,,11,201,3501104,,,,,,,2023-05-11,1,,,,,グランディール,0
402,2030003021699,新規,0,2023-05-11,2023-05-11,Ｉｎｓｔｉｎｃｔ合同会社,,合同会社,埼玉県,新座市,新座２丁目１８番１７号,,11,230,3520006,,,,,,,2023-05-11,1,,,,,インスティンクト,0
416,2040003022572,新規,0,2023-05-11,2023-05-11,合同会社エニーモア,,合同会社,千葉県,いすみ市,岬町和泉１８５番地１２－１０１５号,,12,238,2994503,,,,,,,2023-05-11,1,,,,,エニーモア,0
419,2050001052810,新規,0,2023-05-11,2023-05-11,ＳＵＮ株式会社,,株式会社,茨城県,笠間市,湯崎１２４３番地２２,,08,216,3091715,,,,,,,2023-05-11,1,,,,,サン,0
428,2080001025615,新規,0,2023-05-11,2023-05-11,株式会社バンカー,,株式会社,静岡県,藤枝市,志太２丁目１番７号,,22,214,4260071,,,,,,,2023-05-11,1,,,,,バンカー,0
435,2090001018114,新規,0,2023-05-11,2023-05-11,のぞみ不動産株式会社,,株式会社,山梨県,南アルプス市,加賀美１９０７番地１１,,19,208,4000335,,,,,,,2023-05-11,1,,,,,ノゾミフドウサン,0
454,2120001254507,新規,0,2023-05-11,2023-05-11,株式会社ＥＭＣ,,株式会社,大阪府,大阪市中央区,博労町１丁目２番１号オーセンティック東船場９０１号,,27,128,5410059,,,,,,,2023-05-11,1,,,,,イーエムシー,0
455,2120001254779,新規,0,2023-05-11,2023-05-11,株式会社ＭＪ,,株式会社,大阪府,大阪市中央区,粉川町３番７号６０８,,27,128,5400018,,,,,,,2023-05-11,1,,,,,エムジェイ,0
456,2120001254820,新規,0,2023-05-11,2023-05-11,株式会社アシスト,,株式会社,大阪府,大阪市北区,梅田２丁目５番１３号桜橋第１ビル３０４号,,27,127,5300001,,,,,,,2023-05-11,1,,,,,アシスト,0
457,2120001254829,新規,0,2023-05-11,2023-05-11,株式会社Ｓｐｒｏｕｔ,,株式会社,大阪府,大阪市中央区,南本町４丁目３番１６－２９０９号,,27,128,5410054,,,,,,,2023-05-11,1,,,,,スプラウト,0
462,2120003024049,新規,0,2023-05-11,2023-05-11,合同会社Ｖｅｒｓｅ,,合同会社,大阪府,大阪市東成区,大今里４丁目５番２６号東Ｂ,,27,115,5370012,,,,,,,2023-05-11,1,,,,,ヴァース,0
466,2120101067511,新規,0,2023-05-11,2023-05-11,株式会社ＳＨＩＧＵサービス,,株式会社,大阪府,堺市堺区,京町通２番１５号コンパーノ京町１０２,,27,141,5900054,,,,,,,2023-05-11,1,,,,,シグサービス,0
467,2120101067528,新規,0,2023-05-11,2023-05-11,株式会社アクアフォーカス,,株式会社,大阪府,堺市堺区,向陵東町３丁２－８,,27,141,5900025,,,,,,,2023-05-11,1,,,,,アクアフォーカス,0
470,2120103005213,新規,0,2023-05-11,2023-05-11,合同会社ブルームウィル,,合同会社,大阪府,堺市北区,金岡町５２３番地１,,27,146,5918022,,,,,,,2023-05-11,1,,,,,ブルームウィル,0
472,2120901047514,新規,0,2023-05-11,2023-05-11,株式会社ぜんりょう設備企画,,株式会社,大阪府,高槻市,城西町４番３９－１２１０号,,27,207,5690065,,,,,,,2023-05-11,1,,,,,ゼンリョウセツビキカク,0
474,2122001036942,新規,0,2023-05-11,2023-05-11,ＡＵＢＯ　Ｊａｐａｎ株式会社,,株式会社,大阪府,八尾市,太田新町７丁目２４８番地,,27,212,5810039,,,,,,,2023-05-11,1,,,,,オウボジャパン,0
480,2140001130160,新規,0,2023-05-11,2023-05-11,株式会社Ｍａｉｓｏｎ,,株式会社,兵庫県,神戸市中央区,中山手通１丁目１７番６号北野フェニックスビル５Ｆ,,28,110,6500004,,,,,,,2023-05-11,1,,,,,メゾン,0
481,2140003019055,新規,0,2023-05-11,2023-05-11,合同会社ひびき,,合同会社,兵庫県,西宮市,津門大箇町１０番１７号,,28,204,6638243,,,,,,,2023-05-11,1,,,,,ヒビキ,0
485,2180001156227,新規,0,2023-05-11,2023-05-11,株式会社ＦＬＡＧＳレガシー,,株式会社,愛知県,名古屋市東区,東桜２丁目３番１４号,,23,102,4610005,,,,,,,2023-05-11,1,,,,,フラッグスレガシー,0
486,2180001156235,新規,0,2023-05-11,2023-05-11,株式会社アヤズ工業,,株式会社,愛知県,稲沢市,北島町樽丸６１番地１,,23,220,4928411,,,,,,,2023-05-11,1,,,,,アヤズコウギョウ,0
489,2180003025207,新規,0,2023-05-11,2023-05-11,合同会社アリトル,,合同会社,愛知県,小牧市,小牧４丁目２２５番地２澤屋清七ビル３　３０６号,,23,219,4850041,,,,,,,2023-05-11,1,,,,,アリトル,0
490,2180303005701,新規,0,2023-05-11,2023-05-11,合同会社Ｋｏａ,,合同会社,愛知県,高浜市,小池町５丁目３番地１０３,,23,227,4441303,,,,,,,2023-05-11,1,,,,,コア,0
492,2190001030389,新規,0,2023-05-11,2023-05-11,株式会社ＣＯＭＦＹ,,株式会社,三重県,伊賀市,上野三之西町３２０５番地の３,,24,216,5180857,,,,,,,2023-05-11,1,,,,,コンフィ,0
494,2200001041302,新規,0,2023-05-11,2023-05-11,成喜電設株式会社,,株式会社,岐阜県,可児市,長坂８丁目１５８番地,,21,214,5090257,,,,,,,2023-05-11,1,,,,,ナルキデンセツ,0
495,2200001041310,新規,0,2023-05-11,2023-05-11,株式会社ディートランジット,,株式会社,岐阜県,岐阜市,市橋１丁目１５番４号,,21,201,5008381,,,,,,,2023-05-11,1,,,,,ディートランジット,0
496,2220001025393,新規,0,2023-05-11,2023-05-11,株式会社ＨＡＮＡワン,,株式会社,石川県,金沢市,大野町４丁目レ４０番地１７２,,17,201,9200331,,,,,,,2023-05-11,1,,,,,ハナワン,0
502,2260001037947,新規,0,2023-05-11,2023-05-11,株式会社三栄,,株式会社,岡山県,倉敷市,福田町古新田１１４３番地８千田ビル２－４,,33,202,7128046,,,,,,,2023-05-11,1,,,,,サンエイ,0
510,2290001101386,新規,0,2023-05-11,2023-05-11,株式会社広龍,,株式会社,福岡県,福岡市博多区,博多駅中央街５番１１号,,40,132,8120012,,,,,,,2023-05-11,1,,,,,コウリュウ,0
511,2290001101444,新規,0,2023-05-11,2023-05-11,株式会社パイルアップ,,株式会社,福岡県,福岡市博多区,冷泉町１番１１号北原ギオンビル２Ｆ,,40,132,8120039,,,,,,,2023-05-11,1,,,,,パイルアップ,0
512,2290001101493,新規,0,2023-05-11,2023-05-11,株式会社サンマップテック,,株式会社,福岡県,福岡市東区,筥松３丁目２２番１５号,,40,131,8120061,,,,,,,2023-05-11,1,,,,,サンマップテック,0
513,2290003013877,新規,0,2023-05-11,2023-05-11,ＧＭＫ合同会社,,合同会社,福岡県,福岡市城南区,樋井川１丁目１番３０号,,40,136,8140153,,,,,,,2023-05-11,1,,,,,ジーエムケー,0
514,2290005019039,新規,0,2023-05-11,2023-05-11,医療法人清凛会,,その他の設立登記法人,福岡県,福岡市中央区,赤坂１丁目１４番３５号赤坂門ＡＩビル３階,,40,133,8100042,,,,,,,2023-05-11,1,,,,,セイリンカイ,0
520,2310001018413,新規,0,2023-05-11,2023-05-11,株式会社ベース,,株式会社,長崎県,諫早市,福田町３９番２９号,,42,204,8540001,,,,,,,2023-05-11,1,,,,,ベース,0
522,2310003004568,新規,0,2023-05-11,2023-05-11,合同会社オレンジラボ,,合同会社,長崎県,大村市,玖島１丁目７２番地１２,,42,205,8560834,,,,,,,2023-05-11,1,,,,,オレンジラボ,0
535,2350001018351,新規,0,2023-05-11,2023-05-11,株式会社グーニーズ,,株式会社,宮崎県,宮崎市,大字芳士１０２３番地３,,45,201,8800123,,,,,,,2023-05-11,1,,,,,グーニーズ,0
540,2360001031964,新規,0,2023-05-11,2023-05-11,株式会社和芳開発,,株式会社,沖縄県,那覇市,辻１丁目１６番９号サングリーンビル１階,00130443,47,201,9000037,,,,,,,2023-05-11,1,,,,,カズヨシカイハツ,0
541,2360001031972,新規,0,2023-05-11,2023-05-11,株式会社比屋根ボーリング,,株式会社,沖縄県,沖縄市,美原２丁目１番３６号、２Ｆ,,47,211,9042155,,,,,,,2023-05-11,1,,,,,ヒヤネボーリング,0
542,2360001031989,新規,0,2023-05-11,2023-05-11,株式会社ロキプロ,,株式会社,沖縄県,沖縄市,中央４丁目９－１１,,47,211,9040004,,,,,,,2023-05-11,1,,,,,ロキプロ,0
549,2390003002093,新規,0,2023-05-11,2023-05-11,合同会社ｃｒｏｐ,,合同会社,山形県,米沢市,直江石堤３８００番地１,,06,202,9921446,,,,,,,2023-05-11,1,,,,,クロップ,0
556,2420001018261,新規,0,2023-05-11,2023-05-11,株式会社ＩＳＳＥＩ,,株式会社,青森県,青森市,大字新城字平岡１５１－６７６,,02,201,0380042,,,,,,,2023-05-11,1,,,,,イッセイ,0
560,2430001088997,新規,0,2023-05-11,2023-05-11,ノルデックス株式会社,,株式会社,北海道,岩内郡共和町,前田１６９番地１１,,01,401,0482201,,,,,,,2023-05-11,1,,,,,ノルデックス,0
561,2430001089013,新規,0,2023-05-11,2023-05-11,株式会社アモメディ,,株式会社,北海道,札幌市東区,北六条東８丁目１番２－１１０８号,,01,103,0650006,,,,,,,2023-05-11,1,,,,,アモメディ,0
562,2450001013978,新規,0,2023-05-11,2023-05-11,株式会社北海道ソリューションサービス,,株式会社,北海道,旭川市,秋月二条１丁目１番２０号,,01,204,0798402,,,,,,,2023-05-11,1,,,,,ホッカイドウソリューションサービス,0
564,2480005006959,新規,0,2023-05-11,2023-05-11,ＹＯ協同組合,,その他の設立登記法人,徳島県,徳島市,一番町３丁目１６番地の３,,36,201,7700833,,,,,,,2023-05-11,1,,,,,ワイオー,0
572,3010001234650,新規,0,2023-05-11,2023-05-11,莱可国際株式会社,,株式会社,東京都,千代田区,霞が関３丁目２番５号,,13,101,1000013,,,,,,,2023-05-11,1,,,,,ライカコクサイ,0
573,3010001235178,新規,0,2023-05-11,2023-05-11,盧氏株式会社,,株式会社,東京都,千代田区,神田須田町１丁目３番地ＮＡビル地下１階,,13,101,1010041,,,,,,,2023-05-11,1,,,,,ロウシ,0
574,3010001235186,新規,0,2023-05-11,2023-05-11,株式会社創製,,株式会社,東京都,千代田区,丸の内３丁目２番２号丸の内二重橋ビル２階,,13,101,1000005,,,,,,,2023-05-11,1,,,,,ソウセイ,0
575,3010001235244,新規,0,2023-05-11,2023-05-11,株式会社コーネル,,株式会社,東京都,千代田区,六番町１番７号,,13,101,1020085,,,,,,,2023-05-11,1,,,,,コーネル,0
583,3010003040535,新規,0,2023-05-11,2023-05-11,中島公園ホテル合同会社,,合同会社,東京都,千代田区,神田神保町１丁目１１番地さくら綜合事務所内,,13,101,1010051,,,,,,,2023-05-11,1,,,,,ナカジマコウエンホテル,0
584,3010003040551,新規,0,2023-05-11,2023-05-11,アキュラシー合同会社,,合同会社,東京都,中央区,晴海３丁目１０－１Ｄａｉｗａ晴海ビル２Ｆ,,13,102,1040053,,,,,,,2023-05-11,1,,,,,アキュラシー,0
585,3010003040568,新規,0,2023-05-11,2023-05-11,シーカーライツジャパン合同会社,,合同会社,東京都,千代田区,丸の内２丁目３－２郵船ビルディング１階,,13,101,1000005,,,,,,,2023-05-11,1,,,,,シーカーライツジャパン,0
587,3010005036647,新規,0,2023-05-11,2023-05-11,川西１・２一般社団法人,,その他の設立登記法人,東京都,中央区,日本橋１丁目４番１号日本橋一丁目ビルディング,,13,102,1030027,,,,,,,2023-05-11,1,,,,,カワニシイチニ,0
588,3010101015629,新規,0,2023-05-11,2023-05-11,墨谷株式会社,,株式会社,東京都,八王子市,大和田町６丁目４番２３号,,13,201,1920045,,,,,,,2023-05-11,1,,,,,モグ,0
590,3010401174190,新規,0,2023-05-11,2023-05-11,きまる株式会社,,株式会社,東京都,港区,麻布十番３丁目４番６号,,13,103,1060045,,,,,,,2023-05-11,1,,,,,キマル,0
593,3010501050424,新規,0,2023-05-11,2023-05-11,株式会社ＣｊａＬ，ＴＲＡＮＳ,,株式会社,東京都,台東区,蔵前２丁目２番３号柳浅蔵前ビル３Ｆ,,13,106,1110051,,,,,,,2023-05-11,1,,,,,シージェーエーエルトランス,0
594,3010501050432,新規,0,2023-05-11,2023-05-11,スムーズ株式会社,,株式会社,東京都,台東区,松が谷２丁目９番１－２０２号,,13,106,1110036,,,,,,,2023-05-11,1,,,,,スムーズ,0
606,3010901053002,新規,0,2023-05-11,2023-05-11,株式会社アールディーエス東京,,株式会社,東京都,世田谷区,赤堤５丁目１９番１４号乙幡１階,,13,112,1560044,,,,,,,2023-05-11,1,,,,,アールディーエストウキョウ,0
613,3011001154260,新規,0,2023-05-11,2023-05-11,株式会社ｎｏｉ,,株式会社,東京都,渋谷区,元代々木町４‐４‐１Ｆ,,13,113,1510062,,,,,,,2023-05-11,1,,,,,ノイ,0
614,3011001154285,新規,0,2023-05-11,2023-05-11,マイクロキャプチャー株式会社,,株式会社,東京都,渋谷区,道玄坂１丁目１０番８号渋谷道玄坂東急ビル２Ｆ－Ｃ,,13,113,1500043,,,,,,,2023-05-11,1,,,,,マイクロキャプチャー,0
615,3011001154327,新規,0,2023-05-11,2023-05-11,エデン株式会社,,株式会社,東京都,渋谷区,渋谷２丁目１９番１５号宮益坂ビルディング６０９,,13,113,1500002,,,,,,,2023-05-11,1,,,,,エデン,0
616,3011001154351,新規,0,2023-05-11,2023-05-11,株式会社Ｉｎｆｉｎｅｃｔ,,株式会社,東京都,渋谷区,道玄坂１丁目１０番８号渋谷道玄坂東急ビル２Ｆ－Ｃ,,13,113,1500043,,,,,,,2023-05-11,1,,,,,インフィネクト,0
617,3011003016780,新規,0,2023-05-11,2023-05-11,合同会社キシカタ,,合同会社,東京都,渋谷区,道玄坂１丁目１０番８号渋谷道玄坂東急ビル２Ｆ－Ｃ,,13,113,1500043,,,,,,,2023-05-11,1,,,,,キシカタ,0
618,3011003016789,新規,0,2023-05-11,2023-05-11,合同会社ワークファイブ,,合同会社,東京都,渋谷区,代々木２丁目１１番１２号田中ビル２階,,13,113,1510053,,,,,,,2023-05-11,1,,,,,ワークファイブ,0
619,3011005010071,新規,0,2023-05-11,2023-05-11,一般社団法人Ｃｈａｎｎｅｌ４７,,その他の設立登記法人,東京都,渋谷区,神宮前３丁目２１番８号,,13,113,1500001,,,,,,,2023-05-11,1,,,,,チャネルフォーティセブン,0
628,3011103013034,新規,0,2023-05-11,2023-05-11,Ｔ＆Ｔ　ＳａｉＥｎｅ合同会社,,合同会社,東京都,新宿区,西新宿３丁目３番１３号西新宿水間ビル６階,,13,104,1600023,,,,,,,2023-05-11,1,,,,,ティーアンドティーサイエネ,0
638,3011501029276,新規,0,2023-05-11,2023-05-11,アンドエイト株式会社,,株式会社,東京都,荒川区,東尾久２丁目１２番８－２０３号,,13,118,1160012,,,,,,,2023-05-11,1,,,,,アンドエイト,0
640,3011701026222,新規,0,2023-05-11,2023-05-11,株式会社アールケー,,株式会社,東京都,江戸川区,中葛西５丁目１番２号キャッスルビル葛西２階,00130442,13,123,1340083,,,,,,,2023-05-11,1,,,,,アールケー,0
644,3011801042367,新規,0,2023-05-11,2023-05-11,株式会社吟雅,,株式会社,東京都,足立区,大谷田３丁目１２番５号,,13,121,1200001,,,,,,,2023-05-11,1,,,,,ギンガ,0
647,3011803005644,新規,0,2023-05-11,2023-05-11,合同会社ＤｒｅａｍＢｏｘ,,合同会社,東京都,葛飾区,四つ木１丁目２０番２号エムエス四ツ木ビル３０１,,13,122,1240011,,,,,,,2023-05-11,1,,,,,ドリームボックス,0
649,3012305002048,新規,0,2023-05-11,2023-05-11,特定非営利活動法人おとだま,,その他の設立登記法人,東京都,町田市,玉川学園３丁目３３番７号,,13,209,1940041,,,,,,,2023-05-11,1,,,,,オトダマ,0
652,3012403005968,新規,0,2023-05-11,2023-05-11,合同会社ツタデザイン,,合同会社,東京都,多摩市,関戸１丁目１１号３番桜ヶ丘プラザビル５Ｆ,,13,224,2060011,,,,,,,2023-05-11,1,,,,,ツタデザイン,0
661,3013301050742,新規,0,2023-05-11,2023-05-11,安瑶商事株式会社,,株式会社,東京都,豊島区,南大塚１丁目６０－２０天翔大塚駅前ビル７階Ｓ７０７号室,,13,116,1700005,,,,,,,2023-05-11,1,,,,,アンヨウショウジ,0
666,3020001151523,新規,0,2023-05-11,2023-05-11,ＹＹＫイノベーション株式会社,,株式会社,神奈川県,川崎市多摩区,宿河原５丁目１１－６－２,,14,135,2140021,,,,,,,2023-05-11,1,,,,,ワイワイケーイノベーション,0
671,3020003023893,新規,0,2023-05-11,2023-05-11,合同会社Ｃｏｏ,,合同会社,神奈川県,横浜市神奈川区,西神奈川１丁目１４番地４東白楽サニーコート８０３号,,14,102,2210822,,,,,,,2023-05-11,1,,,,,クウ,0
676,3021001078995,新規,0,2023-05-11,2023-05-11,アドクラフト株式会社,,株式会社,神奈川県,相模原市緑区,三ケ木１９６番地１,,14,151,2520159,,,,,,,2023-05-11,1,,,,,アドクラフト,0
681,3030001153675,新規,0,2023-05-11,2023-05-11,株式会社サイショウ建装,,株式会社,埼玉県,川口市,榛松２丁目３０番３３号,,11,203,3340062,,,,,,,2023-05-11,1,,,,,サイショウケンソウ,0
682,3030001153691,新規,0,2023-05-11,2023-05-11,株式会社エマリス,,株式会社,埼玉県,三郷市,彦成１丁目２０－２,,11,237,3410003,,,,,,,2023-05-11,1,,,,,エマリス,0
683,3030001153709,新規,0,2023-05-11,2023-05-11,ココネ株式会社,,株式会社,埼玉県,入間郡三芳町,大字藤久保５７５番地２,,11,324,3540041,,,,,,,2023-05-11,1,,,,,ココネ,0
684,3030001153725,新規,0,2023-05-11,2023-05-11,株式会社匠コネクト,,株式会社,埼玉県,所沢市,宮本町２丁目４番１６,,11,208,3591143,,,,,,,2023-05-11,1,,,,,タクミコネクト,0
685,3030001153733,新規,0,2023-05-11,2023-05-11,株式会社ＥＧＲ,,株式会社,埼玉県,さいたま市岩槻区,大字尾ヶ崎１２７９番地,,11,110,3390027,,,,,,,2023-05-11,1,,,,,イージーアール,0
686,3030001153741,新規,0,2023-05-11,2023-05-11,株式会社グローバルスクエア,,株式会社,埼玉県,熊谷市,宮町２丁目１４４番地熊谷コーポビアネーズ２階２０７号室,,11,202,3600041,,,,,,,2023-05-11,1,,,,,グローバルスクエア,0
687,3030001153790,新規,0,2023-05-11,2023-05-11,株式会社ＦＯＲＥＶＥＲ．ＪＯＹ,,株式会社,埼玉県,久喜市,久喜中央２丁目９番４５号高山ビル３階,,11,232,3460003,,,,,,,2023-05-11,1,,,,,フォーエヴァージョイ,0
691,3030003021698,新規,0,2023-05-11,2023-05-11,ＴＭアシスト合同会社,,合同会社,埼玉県,新座市,野火止３丁目１２番２５号,,11,230,3520011,,,,,,,2023-05-11,1,,,,,ティーエムアシスト,0
692,3030003021748,新規,0,2023-05-11,2023-05-11,合同会社Ｅｍｐｏｗｅｒｍｅｎｔ,,合同会社,埼玉県,さいたま市浦和区,木崎５丁目１４－１３,,11,107,3300042,,,,,,,2023-05-11,1,,,,,エンパワーメント,0
700,3040001128313,新規,0,2023-05-11,2023-05-11,株式会社ＧＯＯＤ　ＳＵＮ,,株式会社,千葉県,市川市,塩焼３丁目４番５－４０４号ルピアコート市川妙典,,12,203,2720114,,,,,,,2023-05-11,1,,,,,グッドサン,0
705,3040003022588,新規,0,2023-05-11,2023-05-11,合同会社ベイサイド,,合同会社,千葉県,船橋市,栄町１丁目１６番２３号,,12,204,2730018,,,,,,,2023-05-11,1,,,,,ベイサイド,0
706,3040005021992,新規,0,2023-05-11,2023-05-11,エム・エフ・ティー協同組合,,その他の設立登記法人,千葉県,千葉市中央区,富士見２丁目１５番地１,,12,101,2600015,,,,,,,2023-05-11,1,,,,,エムエフティー,0
707,3050001052818,新規,0,2023-05-11,2023-05-11,株式会社ｓｎｏｗｃａｔ,,株式会社,茨城県,土浦市,大和町７番２２号,,08,203,3000036,,,,,,,2023-05-11,1,,,,,スノーキャット,0
708,3050001052826,新規,0,2023-05-11,2023-05-11,いばらき外装株式会社,,株式会社,茨城県,水戸市,愛宕町５－１７,,08,201,3100054,,,,,,,2023-05-11,1,,,,,イバラキガイソウ,0
709,3050001052834,新規,0,2023-05-11,2023-05-11,株式会社櫻空,,株式会社,茨城県,取手市,台宿２丁目２２番１３号,,08,217,3020013,,,,,,,2023-05-11,1,,,,,オウクウ,0
710,3050003007480,新規,0,2023-05-11,2023-05-11,合同会社ハナブサ,,合同会社,茨城県,土浦市,木田余３１５４番地,,08,203,3000026,,,,,,,2023-05-11,1,,,,,ハナブサ,0
711,3050003007497,新規,0,2023-05-11,2023-05-11,合同会社訪問介護ステーションコキア,,合同会社,茨城県,牛久市,ひたち野西３丁目３１－８,,08,219,3001206,,,,,,,2023-05-11,1,,,,,ホウモンカイゴステーションコキア,0
716,3070003004939,新規,0,2023-05-11,2023-05-11,合同会社ＤＨＡＷＡＮ,,合同会社,群馬県,邑楽郡大泉町,朝日５丁目２７番９号泉ＳＴコーポ１０１号,,10,524,3700514,,,,,,,2023-05-11,1,,,,,ダワン,0
724,3080401026476,新規,0,2023-05-11,2023-05-11,株式会社伝,,株式会社,静岡県,掛川市,中町３番地の１２,,22,213,4360092,,,,,,,2023-05-11,1,,,,,デン,0
729,3090001018113,新規,0,2023-05-11,2023-05-11,株式会社須田塗装,,株式会社,山梨県,甲府市,国母２丁目６番１１号,,19,201,4000043,,,,,,,2023-05-11,1,,,,,スダトソウ,0
733,3110001037523,新規,0,2023-05-11,2023-05-11,株式会社ｗａｋｕｆｕｌｌ,,株式会社,新潟県,新潟市西区,五十嵐２の町８０５０番地産学連携共同研究等１号棟ＮＯＴＴＨＥＵＮＩＶＥＲＳＩＴＹ,,15,107,9502102,,,,,,,2023-05-11,1,,,,,ワクフル,0
744,3120001254778,新規,0,2023-05-11,2023-05-11,株式会社ＧＤＤ,,株式会社,大阪府,大阪市天王寺区,大道１丁目１１番２２－４０１号,,27,109,5430052,,,,,,,2023-05-11,1,,,,,ジーディーディー,0
745,3120001254786,新規,0,2023-05-11,2023-05-11,明吉株式会社,,株式会社,大阪府,大阪市平野区,流町１丁目１２番１４号,,27,126,5470032,,,,,,,2023-05-11,1,,,,,アキヨシ,0
746,3120001254794,新規,0,2023-05-11,2023-05-11,赤軒株式会社,,株式会社,大阪府,大阪市浪速区,下寺３丁目１－１４－２０３,,27,111,5560001,,,,,,,2023-05-11,1,,,,,アカケン,0
750,3120003024048,新規,0,2023-05-11,2023-05-11,ＪＥＮＮＹ　ＮＧＯ合同会社,,合同会社,大阪府,大阪市淀川区,十三元今里１丁目１０番２０号サンハイツ十三２０１号室,,27,123,5320028,,,,,,,2023-05-11,1,,,,,ジェニーゴー,0
754,3120101067510,新規,0,2023-05-11,2023-05-11,株式会社フルイチ,,株式会社,大阪府,堺市西区,北条町１丁２７番５号,,27,144,5938302,,,,,,,2023-05-11,1,,,,,フルイチ,0
755,3120101067527,新規,0,2023-05-11,2023-05-11,株式会社ＢＯＳＣＯ,,株式会社,大阪府,岸和田市,下野町４丁目３番１５号,,27,202,5960041,,,,,,,2023-05-11,1,,,,,ボスコ,0
761,3130001074201,新規,0,2023-05-11,2023-05-11,株式会社月耀,,株式会社,京都府,京都市右京区,西京極南方町３８川梅ビル３Ｆ,,26,108,6150827,,,,,,,2023-05-11,1,,,,,ゲツヨウ,0
762,3130001074234,新規,0,2023-05-11,2023-05-11,リスク・マネジメント・テクノロジー株式会社,,株式会社,京都府,宇治市,小倉町堀池５１番地,,26,204,6110042,,,,,,,2023-05-11,1,,,,,リスクマネジメントテクノロジー,0
763,3130001074259,新規,0,2023-05-11,2023-05-11,あみけん株式会社,,株式会社,京都府,京丹後市,網野町小浜４０１番地の１,,26,212,6293113,,,,,,,2023-05-11,1,,,,,アミケン,0
773,3140001130077,新規,0,2023-05-11,2023-05-11,株式会社天野綜合設備,,株式会社,兵庫県,姫路市,岡田４３８番地１,,28,201,6700982,,,,,,,2023-05-11,1,,,,,アマノソウゴウセツビ,0
774,3140001130119,新規,0,2023-05-11,2023-05-11,株式会社Ｒｅ．Ｒｉｚｅ,,株式会社,兵庫県,明石市,大久保町大窪２６８４－２衣笠マンション１Ｆ,,28,203,6740051,,,,,,,2023-05-11,1,,,,,リライズ,0
781,3170005007013,新規,0,2023-05-11,2023-05-11,吉田司法書士法人,,その他の設立登記法人,和歌山県,紀の川市,打田５８７番地６,,30,208,6496414,,,,,,,2023-05-11,1,,,,,ヨシダ,0
787,3180001156226,新規,0,2023-05-11,2023-05-11,株式会社ＦＬＡＧＳアウトソーシング,,株式会社,愛知県,名古屋市東区,東桜２丁目３番１４号,,23,102,4610005,,,,,,,2023-05-11,1,,,,,フラッグスアウトソーシング,0
788,3180001156291,新規,0,2023-05-11,2023-05-11,株式会社おひさまのカンパニー,,株式会社,愛知県,名古屋市西区,赤城町１０番地の１,,23,104,4520813,,,,,,,2023-05-11,1,,,,,オヒサマノカンパニー,0
791,3180301037373,新規,0,2023-05-11,2023-05-11,株式会社Ｂｒｉｌｌｉａｎｔ,,株式会社,愛知県,蒲郡市,形原町春日浦１５番地３,,23,214,4430106,,,,,,,2023-05-11,1,,,,,ブリリアント,0
792,3180301037381,新規,0,2023-05-11,2023-05-11,株式会社優雅,,株式会社,愛知県,岡崎市,中町字栄通３９番地,,23,202,4440015,,,,,,,2023-05-11,1,,,,,ユウガ,0
795,3180305009476,新規,0,2023-05-11,2023-05-11,行政書士法人花笑み,,その他の設立登記法人,愛知県,みよし市,三好町小坂１番地２三好グランドハイツ１階１０－Ｇ号室,,23,236,4700224,,,,,,,2023-05-11,1,,,,,ハナエミ,0
797,3200001041301,新規,0,2023-05-11,2023-05-11,株式会社おもだかや,,株式会社,岐阜県,岐阜市,天神町七丁目１０番地,,21,201,5008806,,,,,,,2023-05-11,1,,,,,オモダカヤ,0
805,3230001019831,新規,0,2023-05-11,2023-05-11,カーゴテクノ株式会社,,株式会社,富山県,富山市,本郷中部１３５番地,,16,201,9300108,,,,,,,2023-05-11,1,,,,,カーゴテクノ,0
811,3260001037946,新規,0,2023-05-11,2023-05-11,株式会社ビー・エフ・エフ,,株式会社,岡山県,倉敷市,中島２２２３番地４,,33,202,7100803,,,,,,,2023-05-11,1,,,,,ビーエフエフ,0
816,3290001101484,新規,0,2023-05-11,2023-05-11,株式会社成心,,株式会社,福岡県,糟屋郡粕屋町,大字戸原江ノ村５５５番７,,40,349,8112312,,,,,,,2023-05-11,1,,,,,セイシン,0
819,3290003013884,新規,0,2023-05-11,2023-05-11,Ｋｅｎｆａｍｉｌｙ合同会社,,合同会社,福岡県,福岡市南区,塩原３丁目２１番５号ラフォーレ大橋３０３号,,40,134,8150032,,,,,,,2023-05-11,1,,,,,ケンファミリー,0
820,3290003013892,新規,0,2023-05-11,2023-05-11,標合同会社,,合同会社,福岡県,福岡市南区,清水３丁目２４番３－３１０号,,40,134,8150031,,,,,,,2023-05-11,1,,,,,シルベ,0
821,3290005019038,新規,0,2023-05-11,2023-05-11,一般社団法人トレーナーアシストＪａｐａｎ,,その他の設立登記法人,福岡県,福岡市博多区,博多駅前２丁目１９番１７号トーカン博多第５ビル３１２号室,,40,132,8120011,,,,,,,2023-05-11,1,,,,,トレーナーアシストジャパン,0
828,3330001030852,新規,0,2023-05-11,2023-05-11,ｔｕｎａｇｕ株式会社,,株式会社,熊本県,山鹿市,鹿央町岩原２７６１番地,,43,208,8610561,,,,,,,2023-05-11,1,,,,,ツナグ,0
841,3360001031955,新規,0,2023-05-11,2023-05-11,サイオン株式会社,,株式会社,沖縄県,国頭郡東村,字宮城２５番地３Ｄ棟,,47,303,9051202,,,,,,,2023-05-11,1,,,,,サイオン,0
842,3360005006846,新規,0,2023-05-11,2023-05-11,一般社団法人南恩納杣山入会権者会,,その他の設立登記法人,沖縄県,国頭郡恩納村,字恩納６３２５番地,,47,311,9040411,,,,,,,2023-05-11,1,,,,,ミナミオンナソマヤマイリアイケンジャカイ,0
843,3370001049939,新規,0,2023-05-11,2023-05-11,株式会社大輪,,株式会社,宮城県,黒川郡大和町,吉田字金取北４９番地,,04,421,9813625,,,,,,,2023-05-11,1,,,,,ダイリン,0
847,3420001018260,新規,0,2023-05-11,2023-05-11,株式会社相馬製図事務所,,株式会社,青森県,黒石市,緑町１丁目２６番地,,02,204,0360383,,,,,,,2023-05-11,1,,,,,ソウマセイズジムショ,0
857,3490005006899,新規,0,2023-05-11,2023-05-11,一般社団法人すさき芸術協会,,その他の設立登記法人,高知県,須崎市,鍛治町１番２０号,,39,206,7850010,,,,,,,2023-05-11,1,,,,,,0
866,4010001235053,新規,0,2023-05-11,2023-05-11,東京中央オンラインクリニック株式会社,,株式会社,東京都,中央区,銀座１丁目１２番４号Ｎ＆Ｅ．ＢＬＤ．６Ｆ,,13,102,1040061,,,,,,,2023-05-11,1,,,,,トウキョウチュウオウオンラインクリニック,0
867,4010001235144,新規,0,2023-05-11,2023-05-11,高崎株式会社,,株式会社,東京都,千代田区,神田三崎町３丁目５－９天翔オフィス水道橋８０２号室,,13,101,1010061,,,,,,,2023-05-11,1,,,,,タカサキ,0
868,4010001235160,新規,0,2023-05-11,2023-05-11,ｔ＆ｄａｙホールディングス株式会社,,株式会社,東京都,中央区,銀座１丁目１６番７号銀座大栄ビル５階,,13,102,1040061,,,,,,,2023-05-11,1,,,,,テヤンデイホールディングス,0
869,4010001235210,新規,0,2023-05-11,2023-05-11,株式会社Ｃｒｏｓｓｆａｄｅ,,株式会社,東京都,文京区,小石川４丁目１６番９－８０２号,,13,105,1120002,,,,,,,2023-05-11,1,,,,,クロスフェード,0
870,4010001235243,新規,0,2023-05-11,2023-05-11,株式会社イーリス,,株式会社,東京都,千代田区,六番町１番７号,,13,101,1020085,,,,,,,2023-05-11,1,,,,,イーリス,0
874,4010003040542,新規,0,2023-05-11,2023-05-11,合同会社ｂａｃｋｑｕｏｔｅ,,合同会社,東京都,中央区,銀座１丁目１２―４Ｎ＆Ｅ・ＢＬＤ．７階,,13,102,1040061,,,,,,,2023-05-11,1,,,,,バッククォート,0
875,4010003040567,新規,0,2023-05-11,2023-05-11,合同会社アックスベンチャーズ,,合同会社,東京都,中央区,銀座１丁目１２番４号Ｎ＆ＥＢＬＤ．６Ｆ,,13,102,1040061,,,,,,,2023-05-11,1,,,,,アックスベンチャーズ,0
877,4010101015636,新規,0,2023-05-11,2023-05-11,株式会社ＨＧ,,株式会社,東京都,八王子市,大横町１番１７号２Ｆ,,13,201,1920062,,,,,,,2023-05-11,1,,,,,エイチジー,0
878,4010103002104,新規,0,2023-05-11,2023-05-11,ライスアセット合同会社,,合同会社,東京都,八王子市,八日町５‐１５,,13,201,1920071,,,,,,,2023-05-11,1,,,,,ライスアセット,0
879,4010103002137,新規,0,2023-05-11,2023-05-11,ゼスト商事合同会社,,合同会社,東京都,八王子市,みなみ野４丁目１２番５号,,13,201,1920916,,,,,,,2023-05-11,1,,,,,ゼストショウジ,0
880,4010105002218,新規,0,2023-05-11,2023-05-11,一般社団法人日本市場規模協会,,その他の設立登記法人,東京都,八王子市,富士見町４番８号,,13,201,1920044,,,,,,,2023-05-11,1,,,,,ニホンシジョウキボキョウカイ,0
893,4010603010127,新規,0,2023-05-11,2023-05-11,合同会社志村商会,,合同会社,東京都,江東区,白河４丁目３番１－２０１１号,,13,108,1350021,,,,,,,2023-05-11,1,,,,,シムラショウカイ,0
918,4011001154284,新規,0,2023-05-11,2023-05-11,株式会社友伸,,株式会社,東京都,渋谷区,広尾４丁目１番２６－７０７号,,13,113,1500012,,,,,,,2023-05-11,1,,,,,ユウシン,0
919,4011001154318,新規,0,2023-05-11,2023-05-11,株式会社ｐａｓ　ａ　ｐａｓ,,株式会社,東京都,渋谷区,神山町４０－５小松ビル２０１,,13,113,1500047,,,,,,,2023-05-11,1,,,,,パザパ,0
920,4011001154326,新規,0,2023-05-11,2023-05-11,株式会社フレームキャリア,,株式会社,東京都,渋谷区,渋谷２丁目１９番１５号宮益坂ビルディング６０９,,13,113,1500002,,,,,,,2023-05-11,1,,,,,フレームキャリア,0
922,4011005010062,新規,0,2023-05-11,2023-05-11,一般社団法人産前産後ケアステーションつむぎ,,その他の設立登記法人,東京都,目黒区,上目黒５丁目２８番１号,,13,110,1530051,,,,,,,2023-05-11,1,,,,,サンゼンサンゴケアステーションツムギ,0
926,4011101102795,新規,0,2023-05-11,2023-05-11,株式会社ワバテック,,株式会社,東京都,新宿区,西新宿２丁目２番１号京王プラザホテル４１２７,,13,104,1600023,,,,,,,2023-05-11,1,,,,,ワバテック,0
927,4011103013025,新規,0,2023-05-11,2023-05-11,合同会社０５２,,合同会社,東京都,新宿区,西新宿３丁目３番１３号西新宿水間ビル６階,,13,104,1600023,,,,,,,2023-05-11,1,,,,,オーファイブトゥー,0
933,4011303004749,新規,0,2023-05-11,2023-05-11,合同会社すずか,,合同会社,東京都,杉並区,上高井戸１丁目５番１３号パレス八幡山１０２,,13,115,1680074,,,,,,,2023-05-11,1,,,,,スズカ,0
936,4011401025127,新規,0,2023-05-11,2023-05-11,株式会社ウォルナット,,株式会社,東京都,板橋区,若木２丁目８番３号セドルハイム上板橋ＩＩＢ棟２０２,00130437,13,119,1740065,,,,,,,2023-05-11,1,,,,,ウォルナット,0
938,4011501029275,新規,0,2023-05-11,2023-05-11,株式会社ウカレエンタテイン,,株式会社,東京都,北区,王子１丁目５番３号,,13,117,1140002,,,,,,,2023-05-11,1,,,,,ウカレエンタテイン,0
941,4011601026791,新規,0,2023-05-11,2023-05-11,株式会社ＲＬＭＳＨＯＰ,,株式会社,東京都,練馬区,羽沢２丁目２番１号,,13,120,1760003,,,,,,,2023-05-11,1,,,,,アールエルエムショップ,0
944,4011603003913,新規,0,2023-05-11,2023-05-11,ベビーサバ合同会社,,合同会社,東京都,練馬区,春日町４丁目３６－１１サンライズ春日１０２号室,,13,120,1790074,,,,,,,2023-05-11,1,,,,,ベビーサバ,0
945,4011701026205,新規,0,2023-05-11,2023-05-11,株式会社瀧澤興業,,株式会社,東京都,江戸川区,瑞江４丁目４５番９号ＴＲ瑞江３０２,,13,123,1320011,,,,,,,2023-05-11,1,,,,,タキザワコウギョウ,0
948,4011801042382,新規,0,2023-05-11,2023-05-11,株式会社ｏ’ｌｉｂ．,,株式会社,東京都,足立区,伊興２丁目１９番２１－７０６号サンクレイドル竹ノ塚ＩＩ,00130435,13,121,1210823,,,,,,,2023-05-11,1,,,,,オーリブ,0
949,4011803005643,新規,0,2023-05-11,2023-05-11,合同会社グリーン,,合同会社,東京都,葛飾区,四つ木１丁目２０番２号エムエス四ツ木ビル３０１,,13,122,1240011,,,,,,,2023-05-11,1,,,,,グリーン,0
953,4013301050733,新規,0,2023-05-11,2023-05-11,シンクロ株式会社,,株式会社,東京都,豊島区,南池袋２丁目１０番５号中丸ビル２０１号室,,13,116,1710022,,,,,,,2023-05-11,1,,,,,シンクロ,0
954,4013301050741,新規,0,2023-05-11,2023-05-11,株式会社Ｔｅｅ　Ｐｌａｎ,,株式会社,東京都,豊島区,西巣鴨３丁目２２番８－３０４号,,13,116,1700001,,,,,,,2023-05-11,1,,,,,ティープラン,0
966,4020001151340,新規,0,2023-05-11,2023-05-11,遠藤農園株式会社,,株式会社,神奈川県,横浜市保土ケ谷区,川島町９６２番地,,14,106,2400045,,,,,,,2023-05-11,1,,,,,エンドウノウエン,0
970,4021001078904,新規,0,2023-05-11,2023-05-11,株式会社ＳＡＮＰＯＯ,,株式会社,神奈川県,横須賀市,大滝町１丁目１９番地,,14,201,2380008,,,,,,,2023-05-11,1,,,,,サンポウ,0
971,4021001078929,新規,0,2023-05-11,2023-05-11,ようこそ日越株式会社,,株式会社,神奈川県,座間市,立野台１丁目１９番１２号,,14,216,2520023,,,,,,,2023-05-11,1,,,,,ヨウコソニチエツ,0
972,4021001078961,新規,0,2023-05-11,2023-05-11,株式会社藤友サービス,,株式会社,神奈川県,横須賀市,大矢部５丁目４番３号,,14,201,2380024,,,,,,,2023-05-11,1,,,,,フジトモサービス,0
979,4030001153724,新規,0,2023-05-11,2023-05-11,株式会社えがお,,株式会社,埼玉県,戸田市,南町１番２３－５０３号,,11,224,3350025,,,,,,,2023-05-11,1,,,,,エガオ,0
980,4030001153757,新規,0,2023-05-11,2023-05-11,株式会社ひまわり,,株式会社,埼玉県,さいたま市岩槻区,美園東２丁目９番地２,,11,110,3390028,,,,,,,2023-05-11,1,,,,,ヒマワリ,0
981,4030001153781,新規,0,2023-05-11,2023-05-11,株式会社まいたん,,株式会社,埼玉県,草加市,西町２３６番地,,11,221,3400035,,,,,,,2023-05-11,1,,,,,マイタン,0
989,4030003021697,新規,0,2023-05-11,2023-05-11,ＭＩＹＯＷＡ合同会社,,合同会社,埼玉県,さいたま市南区,文蔵３丁目２番２１号２階２Ａ号室,,11,108,3360025,,,,,,,2023-05-11,1,,,,,ミヨワ,0
990,4030003021706,新規,0,2023-05-11,2023-05-11,合同会社鍬型研究所,,合同会社,埼玉県,さいたま市大宮区,北袋町１丁目１５０番地６,,11,103,3300835,,,,,,,2023-05-11,1,,,,,クワガタケンキュウジョ,0
991,4030003021722,新規,0,2023-05-11,2023-05-11,合同会社ＵＭＥバンク,,合同会社,埼玉県,久喜市,本町５丁目６－３０,,11,232,3460005,,,,,,,2023-05-11,1,,,,,ユーエムイーバンク,0
995,4040001128394,新規,0,2023-05-11,2023-05-11,株式会社船橋環境アセス,,株式会社,千葉県,船橋市,大穴南１丁目３５番４８号,,12,204,2740067,,,,,,,2023-05-11,1,,,,,フナバシカンキョウアセス,0
1003,4050001052825,新規,0,2023-05-11,2023-05-11,株式会社山口工建,,株式会社,茨城県,石岡市,杉並２丁目５番２１号,,08,205,3150027,,,,,,,2023-05-11,1,,,,,ヤマグチコウケン,0
1009,4050003007463,新規,0,2023-05-11,2023-05-11,ＬｅＲｉｉ合同会社,,合同会社,茨城県,水戸市,河和田１丁目１６４５番地の１３ヴィヴァンコート赤塚７０３号,,08,201,3114152,,,,,,,2023-05-11,1,,,,,レリィ,0
1011,4060001035985,新規,0,2023-05-11,2023-05-11,株式会社ワゴコロ,,株式会社,栃木県,宇都宮市,南大通り３丁目６番１１号さわやグリーンハイツ１０１,,09,201,3210963,,,,,,,2023-05-11,1,,,,,ワゴコロ,0
1020,4080001025613,新規,0,2023-05-11,2023-05-11,株式会社スパイライズ,,株式会社,静岡県,静岡市葵区,一番町１８－８,,22,101,4200071,,,,,,,2023-05-11,1,,,,,スパイライズ,0
1023,4090001018112,新規,0,2023-05-11,2023-05-11,株式会社山口自動車,,株式会社,山梨県,南都留郡富士河口湖町,船津３２４５番地２,,19,430,4010301,,,,,,,2023-05-11,1,,,,,ヤマグチジドウシャ,0
1025,4100001036392,新規,0,2023-05-11,2023-05-11,誠和金属株式会社,,株式会社,長野県,駒ヶ根市,飯坂１丁目１５１９３番地,,20,210,3994102,,,,,,,2023-05-11,1,,,,,セイワキンゾク,0
1031,4110005016935,新規,0,2023-05-11,2023-05-11,日本同盟基督教団シオンが丘キリスト教会,,その他の設立登記法人,新潟県,新潟市西区,上新栄町４丁目５－７１,,15,107,9502076,,,,,,,2023-05-11,1,,,,,ニホンドウメイキリストキョウダンシオンガオカキリストキョウカイ,0
1047,4120001254752,新規,0,2023-05-11,2023-05-11,株式会社えみはスマイル,,株式会社,大阪府,大阪市東住吉区,山坂３丁目５番１７号,,27,121,5460035,,,,,,,2023-05-11,1,,,,,エミハスマイル,0
1048,4120001254769,新規,0,2023-05-11,2023-05-11,株式会社Ｌｉｂｅｒａｌ,,株式会社,大阪府,大阪市此花区,西九条１丁目１０番４１号,,27,104,5540012,,,,,,,2023-05-11,1,,,,,リベラル,0
1049,4120001254793,新規,0,2023-05-11,2023-05-11,利川株式会社,,株式会社,大阪府,大阪市浪速区,下寺３丁目１－１４－２１６,,27,111,5560001,,,,,,,2023-05-11,1,,,,,リカワ,0
1061,4120101067534,新規,0,2023-05-11,2023-05-11,株式会社サンミエール,,株式会社,大阪府,泉南市,男里６丁目１５番２－Ａ１５０３号,,27,228,5900526,,,,,,,2023-05-11,1,,,,,サンミエール,0
1062,4120103005211,新規,0,2023-05-11,2023-05-11,新＿合同会社,00130436,合同会社,大阪府,岸和田市,尾生町２丁目２４－９,,27,202,5960816,,,,,,,2023-05-11,1,,,,,シンキン,0
1065,4120901047512,新規,0,2023-05-11,2023-05-11,株式会社コンプランツ,,株式会社,大阪府,豊中市,末広町３丁目１６番１９号コーポ末広３０５号室,,27,203,5600024,,,,,,,2023-05-11,1,,,,,コンプランツ,0
1074,4130001074282,新規,0,2023-05-11,2023-05-11,Ｆｒｉｅｄｅｎ侑希株式会社,,株式会社,京都府,京都市下京区,玉津島町２９４,,26,106,6008427,,,,,,,2023-05-11,1,,,,,フリーデンユウキ,0
1082,4140001130118,新規,0,2023-05-11,2023-05-11,株式会社Ｐｒｉｎｃｅｓｓ　Ａ,,株式会社,兵庫県,三田市,駅前町４－２８クウォッカビル１Ｆ,,28,219,6691528,,,,,,,2023-05-11,1,,,,,プリンセスエー,0
1083,4140001130126,新規,0,2023-05-11,2023-05-11,奕林株式会社,,株式会社,兵庫県,神戸市中央区,元町通２丁目９番１号元町プラザ３１５号,,28,110,6500022,,,,,,,2023-05-11,1,,,,,イーリン,0
1084,4140001130134,新規,0,2023-05-11,2023-05-11,株式会社ＨＡＲＩＭＡ,,株式会社,兵庫県,たつの市,揖西町構２０１－３,,28,229,6794007,,,,,,,2023-05-11,1,,,,,ハリマ,0
1085,4140001130150,新規,0,2023-05-11,2023-05-11,株式会社ＧＲＡＩＮＣＡ,,株式会社,兵庫県,尼崎市,下坂部３丁目１０番２５号,,28,202,6610975,,,,,,,2023-05-11,1,,,,,グラインツァ,0
1089,4150005009480,新規,0,2023-05-11,2023-05-11,医療法人泰平会,,その他の設立登記法人,奈良県,奈良市,中登美ヶ丘３丁目５番ローレルスクエア登美ヶ丘東館Ｔ－１,,29,201,6310003,,,,,,,2023-05-11,1,,,,,タイヘイカイ,0
1091,4180001156225,新規,0,2023-05-11,2023-05-11,株式会社ＦＬＡＧＳリーチ,,株式会社,愛知県,名古屋市東区,東桜２丁目３番１４号,,23,102,4610005,,,,,,,2023-05-11,1,,,,,フラッグスリーチ,0
1098,4180301037372,新規,0,2023-05-11,2023-05-11,株式会社広中経営サポート,,株式会社,愛知県,蒲郡市,三谷町東１丁目１４５番地,,23,214,4430021,,,,,,,2023-05-11,1,,,,,ヒロナカケイエイサポート,0
1099,4180301037380,新規,0,2023-05-11,2023-05-11,株式会社Ｇ　ｐｒｏｄｕｃｔｉｏｎ,,株式会社,愛知県,刈谷市,西境町蒲生池１５１番地５,,23,210,4480006,,,,,,,2023-05-11,1,,,,,ジープロダクション,0
1104,4190001030395,新規,0,2023-05-11,2023-05-11,株式会社将伸,,株式会社,三重県,伊賀市,寺田３８８番地の２,,24,216,5180004,,,,,,,2023-05-11,1,,,,,ショウシン,0
1107,4200001041291,新規,0,2023-05-11,2023-05-11,株式会社ＴＨＥ　ＯＮＥ,,株式会社,岐阜県,岐阜市,北一色６丁目１番３７号,,21,201,5008227,,,,,,,2023-05-11,1,,,,,ザワン,0
1109,4210001019312,新規,0,2023-05-11,2023-05-11,株式会社ＨＡＴＴＯＮ,,株式会社,福井県,福井市,新田塚２丁目２９番１号,,18,201,9100067,,,,,,,2023-05-11,1,,,,,ハットン,0
1112,4230001019830,新規,0,2023-05-11,2023-05-11,株式会社アンドリンク,,株式会社,富山県,富山市,つばめ野１丁目２０８番地,,16,201,9302239,,,,,,,2023-05-11,1,,,,,アンドリンク,0
1116,4240001061443,新規,0,2023-05-11,2023-05-11,株式会社はら農園,,株式会社,広島県,神石郡神石高原町,油木甲６１２番地,,34,545,7201812,,,,,,,2023-05-11,1,,,,,,0
1120,4240003006140,新規,0,2023-05-11,2023-05-11,ＴＳＫ合同会社,,合同会社,広島県,広島市安芸区,矢野西５丁目１４番１８号,,34,107,7360085,,,,,,,2023-05-11,1,,,,,ティーエスケイ,0
1134,4290001101442,新規,0,2023-05-11,2023-05-11,攻明工業株式会社,,株式会社,福岡県,福岡市早良区,野芥４丁目４３番１２号,,40,137,8140171,,,,,,,2023-05-11,1,,,,,コウメイコウギョウ,0
1135,4290001101467,新規,0,2023-05-11,2023-05-11,株式会社西果樹園,,株式会社,福岡県,久留米市,田主丸町石垣８１８番地１,,40,203,8391212,,,,,,,2023-05-11,1,,,,,ニシカジュエン,0
1136,4290001101500,新規,0,2023-05-11,2023-05-11,株式会社ｈｙｐｈｅｎ,,株式会社,福岡県,久留米市,天神町１５２番地４第六富太屋ビル３０３号,,40,203,8300033,,,,,,,2023-05-11,1,,,,,ハイフン,0
1141,4290801029528,新規,0,2023-05-11,2023-05-11,株式会社オールメンテナンス,,株式会社,福岡県,北九州市八幡西区,里中３丁目６番１９号,,40,109,8070846,,,,,,,2023-05-11,1,,,,,オールメンテナンス,0
1143,4310001018411,新規,0,2023-05-11,2023-05-11,サン商事株式会社,,株式会社,長崎県,佐世保市,清水町９番６号,,42,202,8570036,,,,,,,2023-05-11,1,,,,,サンショウジ,0
1148,4320003004078,新規,0,2023-05-11,2023-05-11,合同会社大翔,,合同会社,大分県,中津市,中央町２丁目３番２号,,44,203,8710024,,,,,,,2023-05-11,1,,,,,ヤマト,0
1156,4340003004126,新規,0,2023-05-11,2023-05-11,合同会社ＳＤ,,合同会社,鹿児島県,鹿児島市,東谷山５丁目４１番３号,,46,201,8910113,,,,,,,2023-05-11,1,,,,,エスディ,0
1166,4360005006845,新規,0,2023-05-11,2023-05-11,一般社団法人ＭＩＲＡＩ,,その他の設立登記法人,沖縄県,浦添市,宮城４丁目１９番１２号,,47,208,9012126,,,,,,,2023-05-11,1,,,,,ミライ,0
1170,4370003006128,新規,0,2023-05-11,2023-05-11,合同会社エコ産業,,合同会社,宮城県,亘理郡亘理町,逢隈高屋字倉東６９番２,00130454,04,361,9892324,,,,,,,2023-05-11,1,,,,,エコサンギョウ,0
1176,4380001033668,新規,0,2023-05-11,2023-05-11,株式会社ももの実,,株式会社,福島県,福島市,宮代字小袋坂２番地の１,,07,201,9600116,,,,,,,2023-05-11,1,,,,,モモノミ,0
1179,4380003005459,新規,0,2023-05-11,2023-05-11,合同会社やまぎし,,合同会社,福島県,福島市,野田町字中ノ町３５番地,,07,201,9608055,,,,,,,2023-05-11,1,,,,,ヤマギシ,0
1184,4430001023036,新規,0,2023-05-11,2023-05-11,丸金佐々木建設株式会社,,株式会社,北海道,札幌市白石区,本通１０丁目南３番１号,,01,104,0030026,,,,,,,2023-05-11,1,,,,,,0
1186,4430001089044,新規,0,2023-05-11,2023-05-11,株式会社よろず不動産,,株式会社,北海道,札幌市西区,二十四軒四条５丁目１番８号ＳＡＫＵＲＡ－ＫＯＴＯＮＩ　ＡＢ室,,01,107,0630804,,,,,,,2023-05-11,1,,,,,ヨロズフドウサン,0
1191,4460103001531,新規,0,2023-05-11,2023-05-11,ｍｉｕ　ｓｏｌｕｔｉｏｎ合同会社,,合同会社,北海道,帯広市,西五条南３８丁目２番１５－１０３号,,01,207,0800015,,,,,,,2023-05-11,1,,,,,エムアイユーソリューション,0
1194,4480001012100,新規,0,2023-05-11,2023-05-11,株式会社福田珈琲店,,株式会社,徳島県,徳島市,国府町日開字西６７１番地１,,36,201,7793117,,,,,,,2023-05-11,1,,,,,フクダコーヒーテン,0
1199,4700150115044,新規,0,2023-05-11,2023-05-11,杭州鋭波泰克科技有限公司,,外国会社等,,,,,,,,中国浙江省杭州市臨安区錦城街道新民街８６号,,,,,,2023-05-11,1,,,,,コウシュウエイハタイコクカギユウゲンコウシ,0
1208,5010001235143,新規,0,2023-05-11,2023-05-11,極騰科技株式会社,,株式会社,東京都,文京区,大塚５丁目８番１２－３０１号,,13,105,1120012,,,,,,,2023-05-11,1,,,,,キトウカギ,0
1209,5010001235192,新規,0,2023-05-11,2023-05-11,株式会社Ｚエンジン,,株式会社,東京都,中央区,銀座１丁目２２番１１号銀座大竹ビジデンス２Ｆ,,13,102,1040061,,,,,,,2023-05-11,1,,,,,ゼットエンジン,0
1210,5010001235226,新規,0,2023-05-11,2023-05-11,株式会社ＡＱＵＡ,,株式会社,東京都,中央区,銀座１丁目１２番４号Ｎ＆ＥＢＬＤ．６Ｆ,,13,102,1040061,,,,,,,2023-05-11,1,,,,,アクア,0
1214,5010003040566,新規,0,2023-05-11,2023-05-11,合同会社宮武俊二事務所,,合同会社,東京都,中央区,銀座１丁目２２番１１号銀座大竹ビジデンス２階,,13,102,1040061,,,,,,,2023-05-11,1,,,,,ミヤタケシュンジジムショ,0
1225,5010401174172,新規,0,2023-05-11,2023-05-11,株式会社東京未来研究所,,株式会社,東京都,港区,赤坂１丁目１１番１２－１９０３号,,13,103,1070052,,,,,,,2023-05-11,1,,,,,トウキョウミライラボ,0
1231,5010501050439,新規,0,2023-05-11,2023-05-11,株式会社ＴＡＳＡＩ,,株式会社,東京都,台東区,松が谷１丁目４番７－８０１号ヒル・イーストＳＳ,,13,106,1110036,,,,,,,2023-05-11,1,,,,,タサイ,0
1236,5010603010142,新規,0,2023-05-11,2023-05-11,合同会社アラコルタ,,合同会社,東京都,江東区,南砂５丁目２３番１１－１００５号,,13,108,1360076,,,,,,,2023-05-11,1,,,,,アラコルタ,0
1239,5010801033903,新規,0,2023-05-11,2023-05-11,株式会社ミートキャリー,,株式会社,東京都,大田区,久が原２丁目２４番８号,,13,111,1460085,,,,,,,2023-05-11,1,,,,,ミートキャリー,0
1242,5010901053009,新規,0,2023-05-11,2023-05-11,株式会社トリコナッジ,,株式会社,東京都,世田谷区,砧３丁目２７番１２－３１４号,,13,112,1570073,,,,,,,2023-05-11,1,,,,,トリコナッジ,0
1243,5010901053017,新規,0,2023-05-11,2023-05-11,株式会社Ｓｉｓｐａｒａ　Ｇａｒｄｅｎｓ,,株式会社,東京都,世田谷区,上用賀１丁目２６番２３－４０２号,,13,112,1580098,,,,,,,2023-05-11,1,,,,,シスパラガーデンズ,0
1255,5011001154135,新規,0,2023-05-11,2023-05-11,株式会社エムアップアセットマネジメント,,株式会社,東京都,渋谷区,渋谷３丁目１２番１８号,,13,113,1500002,,,,,,,2023-05-11,1,,,,,エムアップアセットマネジメント,0
1256,5011001154267,新規,0,2023-05-11,2023-05-11,株式会社チカクーエ,,株式会社,東京都,渋谷区,渋谷３丁目１－９,,13,113,1500002,,,,,,,2023-05-11,1,,,,,チカクエ,0
1257,5011001154275,新規,0,2023-05-11,2023-05-11,株式会社ゲンキマート,,株式会社,東京都,渋谷区,道玄坂１丁目１０番８号渋谷道玄坂東急ビル２Ｆ－Ｃ,,13,113,1500043,,,,,,,2023-05-11,1,,,,,ゲンキマート,0
1258,5011001154283,新規,0,2023-05-11,2023-05-11,株式会社ｃｏ‐ｌａｂ　ｃｒｅａｔｉｖｅ,,株式会社,東京都,渋谷区,渋谷１丁目２３番２１号ｃｏ－ｌａｂ渋谷キャスト,,13,113,1500002,,,,,,,2023-05-11,1,,,,,コラボクリエイティブ,0
1259,5011001154291,新規,0,2023-05-11,2023-05-11,Ａ．ｄｅｓｉｇｎ株式会社,,株式会社,東京都,渋谷区,渋谷２丁目２１－１渋谷ヒカリエ３３Ｆ,,13,113,1500002,,,,,,,2023-05-11,1,,,,,エイドットデザイン,0
1260,5011001154309,新規,0,2023-05-11,2023-05-11,株式会社ＹＧＭプロパティーズ,,株式会社,東京都,目黒区,東山１丁目６番７号フォーラム中目黒,,13,110,1530043,,,,,,,2023-05-11,1,,,,,ワイジーエムプロパティーズ,0
1273,5011701026229,新規,0,2023-05-11,2023-05-11,株式会社プロスパー,,株式会社,東京都,江戸川区,新堀１丁目２７番１３－７０１号,,13,123,1320001,,,,,,,2023-05-11,1,,,,,プロスパー,0
1280,5011803005642,新規,0,2023-05-11,2023-05-11,合同会社アイ・ワークス,,合同会社,東京都,足立区,千住関屋町２３番７号,,13,121,1200024,,,,,,,2023-05-11,1,,,,,アイワークス,0
1281,5011805003272,新規,0,2023-05-11,2023-05-11,一般財団法人杉谷昭子ピアノアカデミー,,その他の設立登記法人,東京都,葛飾区,青戸７丁目２３番１１－２０１号,,13,122,1250062,,,,,,,2023-05-11,1,,,,,スギタニショウコピアノアカデミー,0
1282,5012301013427,新規,0,2023-05-11,2023-05-11,株式会社ＳＫ　Ｊｅｅｚ,,株式会社,東京都,町田市,南町田３丁目３２番２４号プリムローズ南町田３０３,,13,209,1940005,,,,,,,2023-05-11,1,,,,,エスケージーズ,0
1291,5013303006625,新規,0,2023-05-11,2023-05-11,Ｂ＆Ａ合同会社,,合同会社,東京都,豊島区,池袋本町２丁目２番２４号,,13,116,1700011,,,,,,,2023-05-11,1,,,,,ビーアンドエー,0
1310,5021001078936,新規,0,2023-05-11,2023-05-11,株式会社ＲＬｅａｄ,,株式会社,神奈川県,横須賀市,追浜東町１丁目２８番地１ダイアパレスウィザス追浜８１４,,14,201,2370063,,,,,,,2023-05-11,1,,,,,リード,0
1311,5021001078985,新規,0,2023-05-11,2023-05-11,株式会社ルテシア,,株式会社,神奈川県,鎌倉市,御成町１１－２ヤノヤビル２Ｆ,,14,204,2480012,,,,,,,2023-05-11,1,,,,,ルテシア,0
1313,5021003013065,新規,0,2023-05-11,2023-05-11,ｅ‐ＱＯＬ合同会社,,合同会社,神奈川県,茅ヶ崎市,南湖６丁目１７番２８－４号,,14,207,2530061,,,,,,,2023-05-11,1,,,,,イークォル,0
1314,5021003013081,新規,0,2023-05-11,2023-05-11,合同会社５１０コーポレーション,,合同会社,神奈川県,鎌倉市,二階堂１５―９,,14,204,2480002,,,,,,,2023-05-11,1,,,,,ゴーイチマルコーポレーション,0
1325,5030001153748,新規,0,2023-05-11,2023-05-11,株式会社ピースジャパン,,株式会社,埼玉県,さいたま市浦和区,仲町２丁目１５番１２号,,11,107,3300062,,,,,,,2023-05-11,1,,,,,ピースジャパン,0
1326,5030001153806,新規,0,2023-05-11,2023-05-11,秀明株式会社,,株式会社,埼玉県,児玉郡美里町,大字猪俣２３６１番地１,,11,381,3670115,,,,,,,2023-05-11,1,,,,,シュウメイ,0
1333,5030003021696,新規,0,2023-05-11,2023-05-11,合同会社佐賀建,,合同会社,埼玉県,越谷市,大成町１丁目２２９５番地３０,,11,222,3430825,,,,,,,2023-05-11,1,,,,,サガケン,0
1336,5030005021257,新規,0,2023-05-11,2023-05-11,一般社団法人未来エイト,,その他の設立登記法人,埼玉県,さいたま市南区,南浦和２丁目３９番２号第一大雄ビル６０２,,11,108,3360017,,,,,,,2023-05-11,1,,,,,ミライエイト,0
1339,5040001128212,新規,0,2023-05-11,2023-05-11,ひまわりグリーンエナジー株式会社,,株式会社,千葉県,千葉市中央区,千葉港１番２号,,12,101,2600026,,,,,,,2023-05-11,1,,,,,ヒマワリグリーンエナジー,0
1340,5040001128336,新規,0,2023-05-11,2023-05-11,株式会社ＣＳ　ＭＡＮＡＧＥＭＥＮＴ,,株式会社,千葉県,千葉市花見川区,幕張本郷１丁目３６番１７号,,12,102,2620033,,,,,,,2023-05-11,1,,,,,シーエスマネジメント,0
1341,5040001128344,新規,0,2023-05-11,2023-05-11,株式会社信義インテリア,,株式会社,千葉県,市川市,柏井町３丁目６１３－１１,,12,203,2720802,,,,,,,2023-05-11,1,,,,,シンギインテリア,0
1344,5040003022586,新規,0,2023-05-11,2023-05-11,合同会社ＨＣＡ,,合同会社,千葉県,成田市,橋賀台２丁目２１番地２（ダイユウレジデンス橋賀台４号館１０３）,,12,211,2860037,,,,,,,2023-05-11,1,,,,,エイチシイエイ,0
1347,5050001052840,新規,0,2023-05-11,2023-05-11,株式会社マルフク陸送,,株式会社,茨城県,坂東市,弓田２６０７番地１,,08,228,3060607,,,,,,,2023-05-11,1,,,,,マルフクリクソウ,0
1349,5050003007487,新規,0,2023-05-11,2023-05-11,ハチドリ合同会社,,合同会社,茨城県,神栖市,平泉東１丁目６４番地３０,,08,232,3140145,,,,,,,2023-05-11,1,,,,,ハチドリ,0
1350,5050003007495,新規,0,2023-05-11,2023-05-11,合同会社助川,,合同会社,茨城県,水戸市,堀町１３０８番地の５,,08,201,3100903,,,,,,,2023-05-11,1,,,,,スケカワ,0
1353,5060001035984,新規,0,2023-05-11,2023-05-11,株式会社ＵＮＩＯＮ　ＷＯＲＫＳ,,株式会社,栃木県,宇都宮市,上欠町４７６番地９,,09,201,3200855,,,,,,,2023-05-11,1,,,,,ユニオンワークス,0
1355,5070001040406,新規,0,2023-05-11,2023-05-11,株式会社みなみ造園,,株式会社,群馬県,みどり市,笠懸町阿左美１７４２番地２,,10,212,3792311,,,,,,,2023-05-11,1,,,,,ミナミゾウエン,0
1359,5080001025612,新規,0,2023-05-11,2023-05-11,ファブエンジ株式会社,,株式会社,静岡県,静岡市葵区,伝馬町１番地の２ホテルシティオ３階,,22,101,4200858,,,,,,,2023-05-11,1,,,,,ファブエンジ,0
1360,5080003002980,新規,0,2023-05-11,2023-05-11,合同会社キュレートサイエンス,,合同会社,静岡県,静岡市葵区,竜南１丁目３－７－３０１号,,22,101,4200804,,,,,,,2023-05-11,1,,,,,キュレートサイエンス,0
1361,5080101023994,新規,0,2023-05-11,2023-05-11,株式会社Ｌ＆Ｉ,,株式会社,静岡県,沼津市,岡宮１３８９番地の２６,,22,203,4100011,,,,,,,2023-05-11,1,,,,,エルアンドアイ,0
1366,5080401026474,新規,0,2023-05-11,2023-05-11,ＦＳプランニング株式会社,,株式会社,静岡県,浜松市中区,高丘西１丁目１０番１７号,,22,131,4338118,,,,,,,2023-05-11,1,,,,,エフエスプランニング,0
1368,5090001018103,新規,0,2023-05-11,2023-05-11,株式会社Ｗｅｌｌ　Ｌａｄｉｎｇ,,株式会社,山梨県,都留市,田原４丁目５番３２号,,19,204,4020054,,,,,,,2023-05-11,1,,,,,ウェルレイディング,0
1369,5090003002311,新規,0,2023-05-11,2023-05-11,合同会社ルーツオブアート,,合同会社,山梨県,北杜市,小淵沢町上笹尾２８７番地,,19,209,4080041,,,,,,,2023-05-11,1,,,,,ルーツオブアート,0
1374,5110005016950,新規,0,2023-05-11,2023-05-11,一般社団法人トロノキ棚田トラスト,,その他の設立登記法人,新潟県,十日町市,蒲生７０８番地１,,15,210,9421534,,,,,,,2023-05-11,1,,,,,トロノキタナダトラスト,0
1382,5120001254776,新規,0,2023-05-11,2023-05-11,金盛株式会社,,株式会社,大阪府,大阪市西成区,橘３丁目３番９号,,27,122,5570051,,,,,,,2023-05-11,1,,,,,カナモリ,0
1383,5120001254784,新規,0,2023-05-11,2023-05-11,シンコー電気工事株式会社,,株式会社,大阪府,大阪市平野区,喜連東４丁目１番９号,,27,126,5470021,,,,,,,2023-05-11,1,,,,,シンコーデンキコウジ,0
1384,5120001254842,新規,0,2023-05-11,2023-05-11,株式会社ＬＧ‐ＰＬＡＣＥ,,株式会社,大阪府,枚方市,春日西町２丁目２３番８－７,,27,210,5730136,,,,,,,2023-05-11,1,,,,,エルジープレイス,0
1392,5120101067509,新規,0,2023-05-11,2023-05-11,伯仲株式会社,,株式会社,大阪府,松原市,一津屋６丁目１１番６号,,27,217,5800003,,,,,,,2023-05-11,1,,,,,ハクチュウ,0
1393,5120101067525,新規,0,2023-05-11,2023-05-11,株式会社わたなべ,,株式会社,大阪府,堺市東区,日置荘原寺町４３７番地３２,,27,143,5998112,,,,,,,2023-05-11,1,,,,,ワタナベ,0
1397,5120105009721,新規,0,2023-05-11,2023-05-11,一般社団法人こども基地,,その他の設立登記法人,大阪府,貝塚市,澤５０７番地７,,27,208,5970062,,,,,,,2023-05-11,1,,,,,コドモキチ,0
1403,5130001074257,新規,0,2023-05-11,2023-05-11,株式会社ＢＡＲＤ,,株式会社,京都府,京都市中京区,下白山町２９２番地１,,26,104,6048085,,,,,,,2023-05-11,1,,,,,バード,0
1404,5130001074273,新規,0,2023-05-11,2023-05-11,株式会社下山半,,株式会社,京都府,長岡京市,下海印寺下内田２５番地１,,26,209,6170845,,,,,,,2023-05-11,1,,,,,シモヤマハン,0
1405,5130001074298,新規,0,2023-05-11,2023-05-11,よーじやフードサービス株式会社,,株式会社,京都府,京都市中京区,河原町通二条下る二丁目一之船入町５３７番地２０ＦＩＳ御池ビル５０４,,26,104,6040000,,,,,,,2023-05-11,1,,,,,ヨージヤフードサービス,0
1407,5130003008709,新規,0,2023-05-11,2023-05-11,合同会社Ｌｉｌｙ,,合同会社,京都府,京都市東山区,三条通北裏白川筋西入石泉院町４０７,,26,105,6050021,,,,,,,2023-05-11,1,,,,,リリー,0
1410,5140001130042,新規,0,2023-05-11,2023-05-11,株式会社建機Ｔ・Ｅ・Ｓ,,株式会社,兵庫県,多可郡多可町,中区鍛冶屋６５９番地１,,28,365,6791111,,,,,,,2023-05-11,1,,,,,ケンキティーイーエス,0
1411,5140001130141,新規,0,2023-05-11,2023-05-11,株式会社ＢａｔｏｎＬｉｎｋ,,株式会社,兵庫県,神戸市中央区,浜辺通４丁目１－２３三宮ベンチャービル３０１号室,,28,110,6510083,,,,,,,2023-05-11,1,,,,,バトンリンク,0
1412,5140001130158,新規,0,2023-05-11,2023-05-11,株式会社ＳＯＨ,,株式会社,兵庫県,神戸市灘区,上野通８丁目９番１４号,,28,102,6570817,,,,,,,2023-05-11,1,,,,,ソウ,0
1413,5140001130174,新規,0,2023-05-11,2023-05-11,株式会社川本一級建築士事務所,,株式会社,兵庫県,神戸市北区,筑紫が丘９丁目１５番地の７,,28,109,6511212,,,,,,,2023-05-11,1,,,,,カワモトイッキュウケンチクシジムショ,0
1420,5170005007011,新規,0,2023-05-11,2023-05-11,一般社団法人愛染神応,,その他の設立登記法人,和歌山県,和歌山市,西浜１１３６番地１０,,30,201,6410036,,,,,,,2023-05-11,1,,,,,アイゾメシンオウ,0
1421,5180001017120,新規,0,2023-05-11,2023-05-11,株式会社創研,,株式会社,愛知県,名古屋市東区,砂田橋２丁目１番Ｓ－３号,,23,102,4610045,,,,,,,2023-05-11,1,,,,,ソウケン,0
1424,5180001156158,新規,0,2023-05-11,2023-05-11,ネクサスホールディングス株式会社,,株式会社,愛知県,常滑市,住吉町１丁目１２３番地,,23,216,4790864,,,,,,,2023-05-11,1,,,,,ネクサスホールディングス,0
1425,5180001156199,新規,0,2023-05-11,2023-05-11,コトづくり研究所株式会社,,株式会社,愛知県,名古屋市名東区,西山本通２丁目２４番地,,23,115,4650085,,,,,,,2023-05-11,1,,,,,コトヅクリケンキュウジョ,0
1426,5180001156240,新規,0,2023-05-11,2023-05-11,株式会社ＫＨＥＲＩ,,株式会社,愛知県,名古屋市中川区,法華２丁目４３番地,,23,110,4540933,,,,,,,2023-05-11,1,,,,,ヘリ,0
1427,5180001156249,新規,0,2023-05-11,2023-05-11,快適生活株式会社,,株式会社,愛知県,尾張旭市,城前町１丁目６番地９,,23,226,4880867,,,,,,,2023-05-11,1,,,,,カイテキセイカツ,0
1433,5200001041282,新規,0,2023-05-11,2023-05-11,Ａｎｒｅａｌ　Ｔｗｉｎ株式会社,,株式会社,岐阜県,岐阜市,上川手２８６番地５,,21,201,5008245,,,,,,,2023-05-11,1,,,,,アンリアルツイン,0
1434,5200001041290,新規,0,2023-05-11,2023-05-11,ＨＩＧＨ‐ＣＲＥＡＴＥ株式会社,,株式会社,岐阜県,大垣市,福田町１０８番地１グランサム３０３,,21,202,5030033,,,,,,,2023-05-11,1,,,,,ハイクリエイト,0
1438,5220001025399,新規,0,2023-05-11,2023-05-11,株式会社ＳＡＩＬＳ,,株式会社,石川県,小松市,園町ロ２８番地１,,17,203,9230801,,,,,,,2023-05-11,1,,,,,セイルズ,0
1444,5250001020083,新規,0,2023-05-11,2023-05-11,周南サービス株式会社,,株式会社,山口県,周南市,大字栗屋３４番地の１,,35,215,7450802,,,,,,,2023-05-11,1,,,,,シュウナンサービス,0
1445,5260001037936,新規,0,2023-05-11,2023-05-11,株式会社フォレストワークもみじ,,株式会社,岡山県,岡山市北区,牟佐８０３番地１ラ・グリシーヌＩＩ１０２,00130458,33,101,7012141,,,,,,,2023-05-11,1,,,,,フォレストワークモミジ,0
1455,5290001101425,新規,0,2023-05-11,2023-05-11,テンポハウス株式会社,,株式会社,福岡県,福岡市東区,香椎照葉６丁目４号４－６０３号,,40,131,8130017,,,,,,,2023-05-11,1,,,,,テンポハウス,0
1456,5290001101499,新規,0,2023-05-11,2023-05-11,株式会社トレスパ,,株式会社,福岡県,福岡市博多区,博多駅前２丁目１９番１７号トーカン博多第５ビル３１２号,,40,132,8120011,,,,,,,2023-05-11,1,,,,,トレスパ,0
1462,5290801029527,新規,0,2023-05-11,2023-05-11,株式会社Ｋ２ＪＡＰＡＮ,,株式会社,福岡県,北九州市小倉北区,下富野５丁目２６番３７－３０２号,,40,106,8020023,,,,,,,2023-05-11,1,,,,,ケイツージャパン,0
1464,5310001018410,新規,0,2023-05-11,2023-05-11,株式会社ＹＤＳ,,株式会社,長崎県,平戸市,生月町舘浦２００番地１３,,42,207,8595705,,,,,,,2023-05-11,1,,,,,ワイディーエス,0
1473,5330003009843,新規,0,2023-05-11,2023-05-11,合同会社ＱＲＥＥＴ,,合同会社,熊本県,八代市,千丁町古閑出２８０７番地３,,43,202,8694704,,,,,,,2023-05-11,1,,,,,クリート,0
1476,5340003004125,新規,0,2023-05-11,2023-05-11,合同会社ＲＡＫＤＡ,,合同会社,鹿児島県,鹿児島市,郡山町１５６３番地プログレスハイム３０５号,,46,201,8911105,,,,,,,2023-05-11,1,,,,,ラクダ,0
1485,5360003012935,新規,0,2023-05-11,2023-05-11,合同会社ＳＫ企画,,合同会社,沖縄県,うるま市,字前原１６３－２,,47,213,9042235,,,,,,,2023-05-11,1,,,,,エスケイキカク,0
1489,5390001017256,新規,0,2023-05-11,2023-05-11,株式会社加藤建設工業,,株式会社,山形県,天童市,大字塚野目３１０番地８,,06,210,9940072,,,,,,,2023-05-11,1,,,,,カトウケンセツコウギョウ,0
1490,5390003002090,新規,0,2023-05-11,2023-05-11,合同会社リブスタイル,,合同会社,山形県,山形市,荒楯町２丁目１１番１７号,,06,201,9902432,,,,,,,2023-05-11,1,,,,,リブスタイル,0
1496,5430001089002,新規,0,2023-05-11,2023-05-11,株式会社オフィスサワザキ,,株式会社,北海道,札幌市白石区,東札幌三条３丁目１番２５号ケイアイＩＶ１階,00130432,01,104,0030003,,,,,,,2023-05-11,1,,,,,オフィスサワザキ,0
1499,5430003014998,新規,0,2023-05-11,2023-05-11,合同会社Ｇｉｆｔｅｄ,,合同会社,北海道,札幌市白石区,中央三条３丁目４－３－２０２,,01,104,0030013,,,,,,,2023-05-11,1,,,,,ギフテッド,0
1505,5470001019608,新規,0,2023-05-11,2023-05-11,Ｍｉｋｅｎｅｋｏ　Ｈｏｍｅｓ株式会社,,株式会社,香川県,高松市,観光通１丁目５番地７,,37,201,7600055,,,,,,,2023-05-11,1,,,,,ミケネコホームズ,0
1507,5480001012099,新規,0,2023-05-11,2023-05-11,株式会社四徳興業,,株式会社,徳島県,阿波市,阿波町大道南２４７番地２,,36,206,7711701,,,,,,,2023-05-11,1,,,,,シトクコウギョウ,0
1510,5500001024926,新規,0,2023-05-11,2023-05-11,株式会社アルカス,,株式会社,愛媛県,四国中央市,川之江町１９６８番地２６,,38,213,7990101,,,,,,,2023-05-11,1,,,,,アルカス,0
1511,5500003003036,新規,0,2023-05-11,2023-05-11,合同会社システムスマイル,,合同会社,愛媛県,松山市,北久米町４２７番地３,,38,201,7900923,,,,,,,2023-05-11,1,,,,,システムスマイル,0
1512,5700150114929,新規,0,2023-05-11,2023-05-11,山西シンシン電子科技有限公司,,外国会社等,,,,,,,,中国山西省太原市小店区営盤街道狄村街錦綉名邸４号楼２単元１６０２号,,,,,,2023-05-11,1,,,,,サンセイシンシンデンシカギユウゲンコウシ,0
1513,5700150115043,新規,0,2023-05-11,2023-05-11,広州市華商経緯貿易有限公司,,外国会社等,,,,,,,,中国広東省広州市白雲区京溪橋東側広州新百佳小商品城Ａ１３０８９号档,,,,,,2023-05-11,1,,,,,コウシュウシカショウケイイボウエキユウゲンコウシ,0
1522,6010001235101,新規,0,2023-05-11,2023-05-11,株式会社ＳＯＬＳＴＡＲ,,株式会社,東京都,中央区,銀座１丁目２２番１１号銀座大竹ビジデンス２階,,13,102,1040061,,,,,,,2023-05-11,1,,,,,ソルスタア,0
1523,6010001235183,新規,0,2023-05-11,2023-05-11,Ｇｒｅａｔ　Ｅａｓｔｅｒｎ　Ｍａｒｉｎｅ　Ｊａｐａｎ株式会社,,株式会社,東京都,中央区,日本橋小舟町８番１３号天翔日本橋ビル６階６０６号室,,13,102,1030024,,,,,,,2023-05-11,1,,,,,グレートイースタンマリンジャパン,0
1525,6010003040540,新規,0,2023-05-11,2023-05-11,合同会社日本心身健康美容協会,,合同会社,東京都,文京区,小石川５丁目２８－３－３０１,,13,105,1120002,,,,,,,2023-05-11,1,,,,,ニホンシンシンケンコウビヨウキョウカイ,0
1526,6010003040565,新規,0,2023-05-11,2023-05-11,合同会社Ｓｕｃｃｅｓｓ　Ｇａｔｅ,,合同会社,東京都,中央区,日本橋本石町４丁目６番１３号,,13,102,1030021,,,,,,,2023-05-11,1,,,,,サクセスゲート,0
1533,6010401174196,新規,0,2023-05-11,2023-05-11,株式会社ルベリエ,,株式会社,東京都,港区,南麻布２丁目１３番１８号,,13,103,1060047,,,,,,,2023-05-11,1,,,,,ルベリエ,0
1534,6010401174238,新規,0,2023-05-11,2023-05-11,Ｇｏｏｄ‐Ａｒｋ　Ｊａｐａｎ株式会社,,株式会社,東京都,港区,芝大門２丁目２番１号ＡＣＮ芝大門ビル６階，７階,,13,103,1050012,,,,,,,2023-05-11,1,,,,,グッドアークジャパン,0
1539,6010405022079,新規,0,2023-05-11,2023-05-11,一般社団法人クライアントアース,,その他の設立登記法人,東京都,港区,赤坂１丁目１１番４４号赤坂インターシティ５階Ｍａｚａｒｓ・Ｊａｐａｎ株式会社内,,13,103,1070052,,,,,,,2023-05-11,1,,,,,クライアントアース,0
1542,6010503006990,新規,0,2023-05-11,2023-05-11,合同会社Ｒｅｍｐｌｉｒ,,合同会社,東京都,台東区,三筋１丁目４番１５－７０５号蔵前アムフラットＩＩ,00130456,13,106,1110055,,,,,,,2023-05-11,1,,,,,ランプリール,0
1548,6010703006691,新規,0,2023-05-11,2023-05-11,合同会社望月,,合同会社,東京都,品川区,東五反田１丁目１１－８三ツ星ビル２Ｆ,,13,109,1410022,,,,,,,2023-05-11,1,,,,,モチヅキ,0
1553,6010803004538,新規,0,2023-05-11,2023-05-11,合同会社ミッキー,,合同会社,東京都,大田区,多摩川２丁目２３番１３号,,13,111,1460095,,,,,,,2023-05-11,1,,,,,ミッキー,0
1560,6010901053008,新規,0,2023-05-11,2023-05-11,ＬＣ株式会社,,株式会社,東京都,世田谷区,鎌田２丁目１０番８号,,13,112,1570077,,,,,,,2023-05-11,1,,,,,エルシー,0
1570,6011001154332,新規,0,2023-05-11,2023-05-11,株式会社ｌｉｎｎｅ,,株式会社,東京都,目黒区,中央町２丁目３番６号ＩＺＡＮビル１０２,,13,110,1520001,,,,,,,2023-05-11,1,,,,,リンネ,0
1572,6011003016687,新規,0,2023-05-11,2023-05-11,合同会社薬学教育支援,,合同会社,東京都,渋谷区,道玄坂１丁目１０番８号渋谷道玄坂東急ビル２Ｆ－Ｃ,,13,113,1500043,,,,,,,2023-05-11,1,,,,,ヤクガクキョウイクシエン,0
1573,6011003016778,新規,0,2023-05-11,2023-05-11,合同会社ナカナカ,,合同会社,東京都,目黒区,碑文谷６丁目１番地１８－３０５号高雅ホームズ学芸大,,13,110,1520003,,,,,,,2023-05-11,1,,,,,ナカナカ,0
1577,6011101102835,新規,0,2023-05-11,2023-05-11,株式会社八福住研,,株式会社,東京都,新宿区,若松町２５番１９号,,13,104,1620056,,,,,,,2023-05-11,1,,,,,ハチフクジュウケン,0
1585,6011603003911,新規,0,2023-05-11,2023-05-11,合同会社ＯＫＡＲＡ,,合同会社,東京都,練馬区,春日町１丁目３番２０号プライマル練馬豊島園６０８,,13,120,1790074,,,,,,,2023-05-11,1,,,,,オカラ,0
1587,6011701026203,新規,0,2023-05-11,2023-05-11,株式会社ぴかいち,,株式会社,東京都,江戸川区,鹿骨５丁目２１番１３号,,13,123,1330073,,,,,,,2023-05-11,1,,,,,ピカイチ,0
1590,6011801042380,新規,0,2023-05-11,2023-05-11,株式会社スラッシュクリエイティブ,,株式会社,東京都,足立区,新田３丁目３５番２０－５１６号,,13,121,1230865,,,,,,,2023-05-11,1,,,,,,0
1592,6012401040519,新規,0,2023-05-11,2023-05-11,株式会社コモンプラス,,株式会社,東京都,調布市,深大寺東町２丁目５番地３７,,13,208,1820012,,,,,,,2023-05-11,1,,,,,コモンプラス,0
1607,6021001078984,新規,0,2023-05-11,2023-05-11,隆枠工務店株式会社,,株式会社,神奈川県,藤沢市,獺郷１５９１－１３,,14,205,2520825,,,,,,,2023-05-11,1,,,,,タカワクコウムテン,0
1608,6021001078992,新規,0,2023-05-11,2023-05-11,株式会社ナイスライフ,,株式会社,神奈川県,藤沢市,鵠沼海岸２丁目１－１１,,14,205,2510037,,,,,,,2023-05-11,1,,,,,ナイスライフ,0
1609,6021003013064,新規,0,2023-05-11,2023-05-11,Ｌｏｋｏ’ｓ　Ｒｅｐａｉｒ合同会社,,合同会社,神奈川県,伊勢原市,石田８５０番地の１センターヒルズ２１弐番館４０３号,,14,214,2591116,,,,,,,2023-05-11,1,,,,,ロコズリペア,0
1613,6030001153680,新規,0,2023-05-11,2023-05-11,株式会社ＶＪホールディング,,株式会社,埼玉県,さいたま市大宮区,桜木町１丁目１７０番地みずほビルＩ７階,,11,103,3300854,,,,,,,2023-05-11,1,,,,,ブイジェイホールディング,0
1614,6030001153747,新規,0,2023-05-11,2023-05-11,歩興業株式会社,,株式会社,埼玉県,八潮市,八潮３丁目３２番地１５セレクト２１八潮センター３号室,,11,234,3400815,,,,,,,2023-05-11,1,,,,,アユミコウギョウ,0
1615,6030001153763,新規,0,2023-05-11,2023-05-11,大宝園株式会社,,株式会社,埼玉県,川口市,大字西立野１番地,,11,203,3330813,,,,,,,2023-05-11,1,,,,,タイホウエン,0
1616,6030001153771,新規,0,2023-05-11,2023-05-11,株式会社豊工業,,株式会社,埼玉県,鴻巣市,常光１８６１番地１,,11,217,3650024,,,,,,,2023-05-11,1,,,,,ユタカコウギョウ,0
1624,6030003021695,新規,0,2023-05-11,2023-05-11,合同会社アースメント,,合同会社,埼玉県,ふじみ野市,苗間３３８－１８,,11,245,3560052,,,,,,,2023-05-11,1,,,,,アースメント,0
1625,6030003021704,新規,0,2023-05-11,2023-05-11,合同会社インプルーブ,,合同会社,埼玉県,さいたま市西区,大字指扇２８５６－１０８,,11,101,3310047,,,,,,,2023-05-11,1,,,,,インプルーブ,0
1633,6040003022585,新規,0,2023-05-11,2023-05-11,ＡＡＭＣＯ　ＧＬＯＢＡＬ合同会社,,合同会社,千葉県,山武郡横芝光町,小堤５６番地３オフィス３,,12,410,2891745,,,,,,,2023-05-11,1,,,,,アアムコグローバル,0
1634,6040003022593,新規,0,2023-05-11,2023-05-11,Ａｓｓｉｓｔ合同会社,,合同会社,千葉県,柏市,新富町１丁目９番４号,,12,217,2770856,,,,,,,2023-05-11,1,,,,,アシスト,0
1638,6050001052831,新規,0,2023-05-11,2023-05-11,株式会社プレハブ,,株式会社,茨城県,小美玉市,上玉里７６２番６,,08,236,3113436,,,,,,,2023-05-11,1,,,,,プレハブ,0
1639,6050003007494,新規,0,2023-05-11,2023-05-11,ＳＨＡＭ　ＩＮＴＥＲＮＡＴＩＯＮＡＬ合同会社,,合同会社,茨城県,つくばみらい市,板橋２８２３番地２９,,08,235,3002307,,,,,,,2023-05-11,1,,,,,シャムインターナショナル,0
1641,6060001035983,新規,0,2023-05-11,2023-05-11,株式会社日本ビルテック,,株式会社,栃木県,宇都宮市,東今泉２丁目３番３０号宇都宮グリーンハイツ２号棟１０２,,09,201,3210941,,,,,,,2023-05-11,1,,,,,ニホンビルテック,0
1642,6060003004540,新規,0,2023-05-11,2023-05-11,合同会社万事商会,,合同会社,栃木県,宇都宮市,泉町７番６号,,09,201,3200034,,,,,,,2023-05-11,1,,,,,バンジショウカイ,0
1645,6070001040396,新規,0,2023-05-11,2023-05-11,ＳＧ　ＴＲＡＤＩＮＧ株式会社,,株式会社,群馬県,前橋市,富士見町小暮２４２５番地１５,,10,201,3710103,,,,,,,2023-05-11,1,,,,,エスジートレーディング,0
1646,6070001040438,新規,0,2023-05-11,2023-05-11,Ｌｅａｆ　ｈｏｍｅ株式会社,,株式会社,群馬県,前橋市,朝倉町４丁目１番地１４,,10,201,3710811,,,,,,,2023-05-11,1,,,,,リーフホーム,0
1648,6080101023993,新規,0,2023-05-11,2023-05-11,東陽セキュリティ株式会社,,株式会社,静岡県,富士市,西柏原新田２６７番地の１６,,22,210,4170834,,,,,,,2023-05-11,1,,,,,トウヨウセキュリティ,0
1649,6080401026481,新規,0,2023-05-11,2023-05-11,ＮＮｉＮＮ株式会社,,株式会社,静岡県,袋井市,岡崎３４３３,,22,216,4371312,,,,,,,2023-05-11,1,,,,,エヌエヌイン,0
1651,6090001018110,新規,0,2023-05-11,2023-05-11,株式会社原ファーム,,株式会社,山梨県,北杜市,高根町村山西割１６８９番地３,,19,209,4080018,,,,,,,2023-05-11,1,,,,,ハラファーム,0
1659,6120001254759,新規,0,2023-05-11,2023-05-11,ＡｖｏｃａｄｏＳ株式会社,,株式会社,大阪府,大阪市中央区,北久宝寺町２丁目６－１０－６０１号,,27,128,5410057,,,,,,,2023-05-11,1,,,,,アボカドエス,0
1660,6120001254809,新規,0,2023-05-11,2023-05-11,株式会社魚清,,株式会社,大阪府,大阪市西淀川区,千舟２丁目３番２８－６０４号,,27,113,5550013,,,,,,,2023-05-11,1,,,,,ウオシン,0
1663,6120003024029,新規,0,2023-05-11,2023-05-11,セイワホーム合同会社,,合同会社,大阪府,大阪市生野区,巽中１丁目１５－１０,00130457,27,116,5440013,,,,,,,2023-05-11,1,,,,,セイワホーム,0
1664,6120003024045,新規,0,2023-05-11,2023-05-11,合同会社ＹＫ,,合同会社,大阪府,大阪市淀川区,東三国６丁目１３‐１２ドムール三国２番館４０３,,27,123,5320002,,,,,,,2023-05-11,1,,,,,ワイケー,0
1665,6120003024061,新規,0,2023-05-11,2023-05-11,Ｏ．Ｐ．Ｉ合同会社,,合同会社,大阪府,大阪市城東区,新喜多東２丁目４－１９,,27,118,5360017,,,,,,,2023-05-11,1,,,,,オーピーアイ,0
1671,6120101067474,新規,0,2023-05-11,2023-05-11,株式会社ＡＬＬｉｎ,,株式会社,大阪府,藤井寺市,船橋町６番２１号,,27,226,5830003,,,,,,,2023-05-11,1,,,,,オールイン,0
1679,6130001074231,新規,0,2023-05-11,2023-05-11,株式会社勇気組,,株式会社,京都府,八幡市,八幡三反長５６番地の１６,,26,210,6148075,,,,,,,2023-05-11,1,,,,,ユウキグミ,0
1680,6130001074256,新規,0,2023-05-11,2023-05-11,株式会社おだやか,,株式会社,京都府,京都市伏見区,深草願成３－２,,26,109,6120000,,,,,,,2023-05-11,1,,,,,オダヤカ,0
1681,6130001074264,新規,0,2023-05-11,2023-05-11,プレミアラウンジ株式会社,,株式会社,京都府,京都市左京区,一乗寺宮ノ東町１７番地詩仙ハイムＩ１０６号,00130452,26,103,6068116,,,,,,,2023-05-11,1,,,,,プレミアラウンジ,0
1682,6130003008716,新規,0,2023-05-11,2023-05-11,合同会社フロッグス,,合同会社,京都府,京都市下京区,七条通油小路東入大黒町２２７番地第２キョートビル４０２,,26,106,6008223,,,,,,,2023-05-11,1,,,,,フロッグス,0
1686,6140001130124,新規,0,2023-05-11,2023-05-11,株式会社ｉ２ｇｒａｂ,,株式会社,兵庫県,神戸市中央区,元町通５丁目２番３号２１３号室,,28,110,6500022,,,,,,,2023-05-11,1,,,,,アイツーグラブ,0
1687,6140001130132,新規,0,2023-05-11,2023-05-11,株式会社満天堂,,株式会社,兵庫県,加古川市,尾上町今福３７９番地の３,,28,210,6750027,,,,,,,2023-05-11,1,,,,,,0
1688,6140001130157,新規,0,2023-05-11,2023-05-11,スマウス株式会社,,株式会社,兵庫県,西宮市,大谷町１１番３３－４１０号,,28,204,6620054,,,,,,,2023-05-11,1,,,,,スマウス,0
1690,6140003019076,新規,0,2023-05-11,2023-05-11,合同会社永喜会,,合同会社,兵庫県,神戸市灘区,将軍通３丁目３番３１号呉ビル,,28,102,6570058,,,,,,,2023-05-11,1,,,,,エイキカイ,0
1691,6140005026616,新規,0,2023-05-11,2023-05-11,特定非営利活動法人防災ＪＡＰＯＮ,,その他の設立登記法人,兵庫県,西宮市,西福町４番１４号,,28,204,6620844,,,,,,,2023-05-11,1,,,,,ボウサイジャポン,0
1692,6150001026395,新規,0,2023-05-11,2023-05-11,株式会社山本自動車,,株式会社,奈良県,葛城市,加守７７７番地,,29,211,6390271,,,,,,,2023-05-11,1,,,,,ヤマモトジドウシャ,0
1697,6180001156140,新規,0,2023-05-11,2023-05-11,株式会社ＢＰコンサルタンツ,,株式会社,愛知県,名古屋市中村区,名駅３丁目２５番９号,,23,105,4500002,,,,,,,2023-05-11,1,,,,,ビーピーコンサルタンツ,0
1702,6190001030385,新規,0,2023-05-11,2023-05-11,株式会社ＳＹＵＫＡ,,株式会社,三重県,桑名市,大字西方２４１１番地,,24,205,5110864,,,,,,,2023-05-11,1,,,,,シュウカ,0
1707,6200001041298,新規,0,2023-05-11,2023-05-11,株式会社ＦＪ,,株式会社,岐阜県,各務原市,那加宮浦町９１番地,,21,213,5040035,,,,,,,2023-05-11,1,,,,,エフジェー,0
1711,6200003005953,新規,0,2023-05-11,2023-05-11,合同会社ＭＯＤＵＣＥ,,合同会社,岐阜県,関市,肥田瀬１１８１番地３,,21,205,5013911,,,,,,,2023-05-11,1,,,,,モデュース,0
1713,6220001025398,新規,0,2023-05-11,2023-05-11,株式会社Ｒ‐ＨＡＮＤ,,株式会社,石川県,金沢市,泉野町３丁目１３‐２５,,17,201,9218034,,,,,,,2023-05-11,1,,,,,アールハンド,0
1716,6230001019837,新規,0,2023-05-11,2023-05-11,株式会社北川斫工業,,株式会社,富山県,富山市,堀川町２０３番地７,,16,201,9398072,,,,,,,2023-05-11,1,,,,,キタガワハツリコウギョウ,0
1718,6240001061466,新規,0,2023-05-11,2023-05-11,株式会社Ｅｎｈａｎｃｅ,,株式会社,広島県,広島市中区,大手町１丁目７番２１号,,34,101,7300051,,,,,,,2023-05-11,1,,,,,エンハンス,0
1719,6240001061499,新規,0,2023-05-11,2023-05-11,株式会社そよ風サッシガラス,,株式会社,広島県,広島市東区,福田７丁目３３番２号,,34,102,7320029,,,,,,,2023-05-11,1,,,,,ソヨカゼサッシガラス,0
1724,6240003006130,新規,0,2023-05-11,2023-05-11,合同会社Ｅｗａｋｏ,,合同会社,広島県,尾道市,瀬戸田町高根１２７５番地９,,34,205,7222412,,,,,,,2023-05-11,1,,,,,エワコ,0
1727,6260001037935,新規,0,2023-05-11,2023-05-11,株式会社タカタウン,,株式会社,岡山県,岡山市北区,平野１２８番地２,,33,101,7010151,,,,,,,2023-05-11,1,,,,,タカタウン,0
1730,6280003001730,新規,0,2023-05-11,2023-05-11,合同会社ストアーかみや,,合同会社,島根県,隠岐郡隠岐の島町,郡６３８番地１５,,32,528,6850311,,,,,,,2023-05-11,1,,,,,ストアーカミヤ,0
1733,6290001101498,新規,0,2023-05-11,2023-05-11,株式会社ＳＨＡＲＥ,,株式会社,福岡県,福岡市博多区,住吉３丁目５番５号,,40,132,8120018,,,,,,,2023-05-11,1,,,,,シェア,0
1734,6290801029518,新規,0,2023-05-11,2023-05-11,株式会社武藤塾,,株式会社,福岡県,北九州市若松区,高須西１丁目１０番２９号,,40,103,8080146,,,,,,,2023-05-11,1,,,,,ムトウジュク,0
1745,6340001025576,新規,0,2023-05-11,2023-05-11,株式会社木場運輸,,株式会社,鹿児島県,姶良市,加治木町木田１００番地県営江口団地５棟３０１号,,46,225,8995241,,,,,,,2023-05-11,1,,,,,コバウンユ,0
1746,6340001025584,新規,0,2023-05-11,2023-05-11,株式会社２５０,,株式会社,鹿児島県,鹿児島市,千日町１２番１９号－４０５,,46,201,8920843,,,,,,,2023-05-11,1,,,,,ニーゴーマル,0
1748,6340003004124,新規,0,2023-05-11,2023-05-11,合同会社Ｌａｍｐ　ｏｆ　Ｌｉｆｅ,,合同会社,鹿児島県,霧島市,国分広瀬２丁目４番８号,,46,218,8994321,,,,,,,2023-05-11,1,,,,,ランプオブライフ,0
1749,6360001031969,新規,0,2023-05-11,2023-05-11,株式会社ＰＲＯＰ,,株式会社,沖縄県,沖縄市,高原２丁目７番７号サザンクロス高原４０２,,47,211,9042171,,,,,,,2023-05-11,1,,,,,プロップ,0
1750,6360001032001,新規,0,2023-05-11,2023-05-11,農地所有適格法人株式会社畑ＳＵＮ農園,,株式会社,沖縄県,沖縄市,胡屋２丁目１２番１７号,,47,211,9040021,,,,,,,2023-05-11,1,,,,,ノウチショユウテキカクホウジンハルサンノウエン,0
1754,6380001033666,新規,0,2023-05-11,2023-05-11,株式会社Ｓ．Ｌａｂ,,株式会社,福島県,郡山市,虎丸町５番１０号,,07,203,9638014,,,,,,,2023-05-11,1,,,,,エスラボ,0
1755,6380001033682,新規,0,2023-05-11,2023-05-11,株式会社彩り,,株式会社,福島県,郡山市,若葉町１５番５号,,07,203,9638011,,,,,,,2023-05-11,1,,,,,イロドリ,0
1767,6430001089018,新規,0,2023-05-11,2023-05-11,株式会社ＮＵＬＬ,,株式会社,北海道,勇払郡安平町,早来栄町９７番地３ブリリアントステージ２０１号室,,01,585,0591505,,,,,,,2023-05-11,1,,,,,ヌル,0
1774,6470001019607,新規,0,2023-05-11,2023-05-11,株式会社スターライン寿康,,株式会社,香川県,丸亀市,垂水町３３９６番地１,,37,202,7630095,,,,,,,2023-05-11,1,,,,,スターラインコウジュ,0
1775,6480003001982,新規,0,2023-05-11,2023-05-11,合同会社フレイクワークス,,合同会社,徳島県,板野郡藍住町,住吉字乾５７番地１０,,36,403,7711267,,,,,,,2023-05-11,1,,,,,フレイクワークス,0
1794,7010001235083,新規,0,2023-05-11,2023-05-11,株式会社Ｃｏｎｎｅｃｔｆｏｒｃｅ,,株式会社,東京都,千代田区,麹町５丁目５番地２ベルヴュー麹町３Ｆ,,13,101,1020083,,,,,,,2023-05-11,1,,,,,コネクトフォース,0
1795,7010001235174,新規,0,2023-05-11,2023-05-11,株式会社アイズ,,株式会社,東京都,中央区,日本橋小網町８番２号,,13,102,1030016,,,,,,,2023-05-11,1,,,,,アイズ,0
1796,7010001235208,新規,0,2023-05-11,2023-05-11,株式会社ＯＮ　ＴＲＵＳＴ,,株式会社,東京都,千代田区,一番町１０番地１２,,13,101,1020082,,,,,,,2023-05-11,1,,,,,オントラスト,0
1799,7010003040531,新規,0,2023-05-11,2023-05-11,ＫＡＹ　ＪＡＰＡＮ合同会社,,合同会社,東京都,千代田区,六番町６番地１パレロワイヤル六番町７０９号,,13,101,1020085,,,,,,,2023-05-11,1,,,,,カイジャパン,0
1801,7010101015641,新規,0,2023-05-11,2023-05-11,株式会社Ｓａｆｉｒｏ,,株式会社,東京都,八王子市,千人町３丁目１２番１８号,,13,201,1930835,,,,,,,2023-05-11,1,,,,,サフィーロ,0
1803,7010103002134,新規,0,2023-05-11,2023-05-11,ＩＢＦ合同会社,,合同会社,東京都,八王子市,長沼町４２５－１,,13,201,1920907,,,,,,,2023-05-11,1,,,,,アイビーエフ,0
1806,7010401174162,新規,0,2023-05-11,2023-05-11,エネア・リニューアブルエナジー・マネジメント株式会社,,株式会社,東京都,港区,麻布十番３丁目２番７号リゾーム麻布十番４階,,13,103,1060045,,,,,,,2023-05-11,1,,,,,エネアリニューアブルエナジーマネジメント,0
1807,7010401174212,新規,0,2023-05-11,2023-05-11,株式会社アンビ,,株式会社,東京都,港区,芝公園１丁目２番９号ＨＡＮＡＩビル６階,,13,103,1050011,,,,,,,2023-05-11,1,,,,,アンビ,0
1818,7010903008149,新規,0,2023-05-11,2023-05-11,ｔａｃｌｏｕｄｓ合同会社,,合同会社,東京都,世田谷区,下馬３丁目３９－１６,,13,112,1540002,,,,,,,2023-05-11,1,,,,,タクロウズ,0
1827,7011001154158,新規,0,2023-05-11,2023-05-11,ハイデンシー株式会社,,株式会社,東京都,渋谷区,道玄坂１丁目１０番８号渋谷道玄坂東急ビル２Ｆ－Ｃ,,13,113,1500043,,,,,,,2023-05-11,1,,,,,ハイデンシー,0
1828,7011001154232,新規,0,2023-05-11,2023-05-11,株式会社縁恩,,株式会社,東京都,渋谷区,渋谷２丁目１９番１５号宮益坂ビルディング６０９,,13,113,1500002,,,,,,,2023-05-11,1,,,,,エノン,0
1829,7011001154273,新規,0,2023-05-11,2023-05-11,株式会社ＲＵＢＩＬＩＡ,,株式会社,東京都,目黒区,上目黒１丁目２６－１－２３１０,,13,110,1530051,,,,,,,2023-05-11,1,,,,,ルビリア,0
1832,7011103013030,新規,0,2023-05-11,2023-05-11,ＴＭＧ１合同会社,,合同会社,東京都,新宿区,四谷４丁目３２番８号ＹＫＢサニービル６階,,13,104,1600004,,,,,,,2023-05-11,1,,,,,ティーエムジーワン,0
1838,7011601026797,新規,0,2023-05-11,2023-05-11,株式会社ゲレンデ,,株式会社,東京都,練馬区,石神井台８丁目１９番１７号石神井台ハイツ１０３,,13,120,1770045,,,,,,,2023-05-11,1,,,,,ゲレンデ,0
1840,7011801042322,新規,0,2023-05-11,2023-05-11,ｅ不動産屋株式会社,,株式会社,東京都,葛飾区,東立石３丁目３２番３号,,13,122,1240013,,,,,,,2023-05-11,1,,,,,イーフドウサンヤ,0
1847,7012301013433,新規,0,2023-05-11,2023-05-11,株式会社エニタイムミュージック,,株式会社,東京都,町田市,森野１丁目１９番５号光ビル,,13,209,1940022,,,,,,,2023-05-11,1,,,,,エニタイムミュージック,0
1848,7012401040518,新規,0,2023-05-11,2023-05-11,ａｉｃｅｌ株式会社,,株式会社,東京都,多摩市,落合１丁目４６－１ココリア多摩センター７階コワーキングＣｏＣｏプレイス,,13,224,2060033,,,,,,,2023-05-11,1,,,,,アイセル,0
1849,7012401040526,新規,0,2023-05-11,2023-05-11,株式会社ＫＯＮＧ,,株式会社,東京都,稲城市,百村２１２６番地の８－２０２,,13,225,2060804,,,,,,,2023-05-11,1,,,,,コング,0
1854,7012701017645,新規,0,2023-05-11,2023-05-11,株式会社ＬＩＢ,,株式会社,東京都,東久留米市,浅間町２丁目２９－４,,13,222,2030012,,,,,,,2023-05-11,1,,,,,リブ,0
1876,7021001078975,新規,0,2023-05-11,2023-05-11,株式会社Ａｉｒ　Ｍｏｎ,,株式会社,神奈川県,平塚市,四之宮４丁目９番２６号,,14,203,2540014,,,,,,,2023-05-11,1,,,,,エアモン,0
1877,7021001078991,新規,0,2023-05-11,2023-05-11,株式会社Ｐｌｕｓ　Ｒｅａｃｈ,,株式会社,神奈川県,伊勢原市,桜台３丁目４番３－２０５号,,14,214,2591132,,,,,,,2023-05-11,1,,,,,プラスリーチ,0
1878,7021003013063,新規,0,2023-05-11,2023-05-11,合同会社Ｔコネクト,,合同会社,神奈川県,伊勢原市,桜台１丁目２５番６号,,14,214,2591132,,,,,,,2023-05-11,1,,,,,ティーコネクト,0
1885,7030001153713,新規,0,2023-05-11,2023-05-11,株式会社高篠塗装,00130433,株式会社,埼玉県,鶴ヶ島市,脚折町６丁目１１番１２号,,11,241,3502211,,,,,,,2023-05-11,1,,,,,タカシノトソウ,0
1886,7030001153762,新規,0,2023-05-11,2023-05-11,株式会社ゼノフィット,,株式会社,埼玉県,戸田市,本町４丁目７番１２－７０１号,,11,224,3350023,,,,,,,2023-05-11,1,,,,,ゼノフィット,0
1890,7030003021703,新規,0,2023-05-11,2023-05-11,合同会社ＣＨＩＣＡＣＵ,,合同会社,埼玉県,さいたま市大宮区,高鼻町１丁目５６番地ｋｓ’氷川の杜２０１号室,,11,103,3300803,,,,,,,2023-05-11,1,,,,,チカク,0
1898,7040003022584,新規,0,2023-05-11,2023-05-11,ＤＥＮＳＯ　ＩＮＴＥＲＮＡＴＩＯＮＡＬ合同会社,,合同会社,千葉県,山武市,埴谷２６４３番地Ｂ棟,,12,237,2891223,,,,,,,2023-05-11,1,,,,,デンソーインターナショナル,0
1902,7050003007477,新規,0,2023-05-11,2023-05-11,合同会社ＮＯＢＵ茨城,,合同会社,茨城県,水戸市,渡里町３２７４番地３１,,08,201,3100902,,,,,,,2023-05-11,1,,,,,ノブイバラキ,0
1903,7050003007493,新規,0,2023-05-11,2023-05-11,ＮＩＨＯＮ　ＣＥＹＬＯＮ　ＰＡＲＡＭＩ　ＩＮＴＥＲＮＡＴＩＯＮＡＬ合同会社,,合同会社,茨城県,つくばみらい市,城中八幡山８０９番地,,08,235,3002314,,,,,,,2023-05-11,1,,,,,ニホンセイロンパラミインタナショナル,0
1906,7060001035974,新規,0,2023-05-11,2023-05-11,株式会社隼,,株式会社,栃木県,小山市,駅東通り１丁目６番２号ソシアルヒルズビル６Ｆ,,09,208,3230022,,,,,,,2023-05-11,1,,,,,ハヤブサ,0
1910,7070001040437,新規,0,2023-05-11,2023-05-11,株式会社Ｓ．Ｔ．Ｆ,,株式会社,群馬県,富岡市,下高尾１１８８番地,,10,210,3702311,,,,,,,2023-05-11,1,,,,,エスティーエフ,0
1913,7080001025610,新規,0,2023-05-11,2023-05-11,株式会社イエローテール,,株式会社,静岡県,静岡市駿河区,登呂６丁目１番３１－１０号,,22,102,4228033,,,,,,,2023-05-11,1,,,,,イエローテール,0
1914,7080101023992,新規,0,2023-05-11,2023-05-11,株式会社ツクリト建築設計事務所,,株式会社,静岡県,駿東郡長泉町,本宿６１９番地,,22,342,4110945,,,,,,,2023-05-11,1,,,,,ツクリトケンチクセッケイジムショ,0
1918,7080401026480,新規,0,2023-05-11,2023-05-11,株式会社マツシタ設備,,株式会社,静岡県,浜松市西区,篠原町２２６３４番地の１,,22,133,4310201,,,,,,,2023-05-11,1,,,,,マツシタセツビ,0
1921,7120001092662,新規,0,2023-05-11,2023-05-11,和交株式会社,,株式会社,大阪府,大阪市中央区,瓦町４丁目５番９号,,27,128,5410048,,,,,,,2023-05-11,1,,,,,ワコウ,0
1932,7120003024028,新規,0,2023-05-11,2023-05-11,合同会社坂東,,合同会社,大阪府,大阪市生野区,巽東２丁目６番２７号,00130441,27,116,5440014,,,,,,,2023-05-11,1,,,,,バンドウ,0
1939,7120901047518,新規,0,2023-05-11,2023-05-11,株式会社ライジングホーム,,株式会社,大阪府,池田市,豊島北１丁目５番２７号シャーメゾン豊島１０１,,27,204,5630036,,,,,,,2023-05-11,1,,,,,ライジングホーム,0
1940,7120903004632,新規,0,2023-05-11,2023-05-11,合同会社望,,合同会社,大阪府,茨木市,三島丘２丁目７番２号,,27,211,5670021,,,,,,,2023-05-11,1,,,,,ノゾミ,0
1941,7122001036946,新規,0,2023-05-11,2023-05-11,株式会社アシタノ,,株式会社,大阪府,八尾市,志紀町１丁目１５番地（１０２）,,27,212,5810031,,,,,,,2023-05-11,1,,,,,アシタノ,0
1943,7130001074296,新規,0,2023-05-11,2023-05-11,株式会社ｃｏｍｅ　ｃｏｍｅ,,株式会社,京都府,京都市右京区,西院久保田町６番地１サンマンションアトレ西院２０２,,26,108,6150053,,,,,,,2023-05-11,1,,,,,カムカム,0
1944,7130005016773,新規,0,2023-05-11,2023-05-11,一般社団法人ＤＯＫＫＯＩＳＥ,,その他の設立登記法人,京都府,福知山市,末広町１丁目１５番地福知堂ビル３Ｆ,,26,201,6200054,,,,,,,2023-05-11,1,,,,,ドッコイセ,0
1946,7140001130107,新規,0,2023-05-11,2023-05-11,株式会社Ｐ‐ａｕｔ,,株式会社,兵庫県,芦屋市,公光町８番２８－２０５号,,28,206,6590065,,,,,,,2023-05-11,1,,,,,ポウト,0
1947,7140001130131,新規,0,2023-05-11,2023-05-11,株式会社来来商事,,株式会社,兵庫県,西宮市,高須町１丁目１番１２－１５１０号,,28,204,6638141,,,,,,,2023-05-11,1,,,,,ライライショウジ,0
1948,7140001130156,新規,0,2023-05-11,2023-05-11,株式会社ＴＲＵＳＴ,,株式会社,兵庫県,南あわじ市,湊１３９番地,,28,224,6560332,,,,,,,2023-05-11,1,,,,,トラスト,0
1952,7140003019018,新規,0,2023-05-11,2023-05-11,合同会社ロータス,,合同会社,兵庫県,神戸市西区,伊川谷町有瀬１５５５番地の６、１０７号,,28,111,6512113,,,,,,,2023-05-11,1,,,,,ロータス,0
1953,7140003019067,新規,0,2023-05-11,2023-05-11,合同会社ＰＬＵＳ　Ｋ,,合同会社,兵庫県,神戸市北区,上津台２丁目３５番６号,,28,109,6511515,,,,,,,2023-05-11,1,,,,,プラスケー,0
1956,7140005026615,新規,0,2023-05-11,2023-05-11,医療法人社団おばた内科・糖尿病クリニック,,その他の設立登記法人,兵庫県,赤穂市,さつき町１２番８,,28,212,6780226,,,,,,,2023-05-11,1,,,,,オバタナイカトウニョウビョウクリニック,0
1957,7150005009478,新規,0,2023-05-11,2023-05-11,医療法人榮有会,,その他の設立登記法人,奈良県,香芝市,瓦口２３２４番地,,29,210,6390225,,,,,,,2023-05-11,1,,,,,エイユウカイ,0
1958,7160001025032,新規,0,2023-05-11,2023-05-11,株式会社ＬＩＡＩＳＯＮ,,株式会社,滋賀県,湖南市,岩根１１１１番地,,25,211,5203252,,,,,,,2023-05-11,1,,,,,リエゾン,0
1959,7170001017598,新規,0,2023-05-11,2023-05-11,ＴＡＯＫＡ株式会社,,株式会社,和歌山県,和歌山市,延時４６番地７,,30,201,6408443,,,,,,,2023-05-11,1,,,,,タオカ,0
1966,7180003025202,新規,0,2023-05-11,2023-05-11,合同会社ＰＲＯ　ＳＴＡＦＦ,,合同会社,愛知県,名古屋市千種区,桜が丘５０　２Ｆ,,23,101,4640025,,,,,,,2023-05-11,1,,,,,プロスタッフ,0
1976,7200001041289,新規,0,2023-05-11,2023-05-11,株式会社ＧＥＴＥ,,株式会社,岐阜県,大垣市,和合新町１丁目１５番中村第３ビル２０２,,21,202,5030801,,,,,,,2023-05-11,1,,,,,ゲート,0
1980,7200003005952,新規,0,2023-05-11,2023-05-11,ハッピーワーク合同会社,,合同会社,岐阜県,可児市,土田５４５１―１２,,21,214,5090206,,,,,,,2023-05-11,1,,,,,ハッピーワーク,0
1985,7230001019836,新規,0,2023-05-11,2023-05-11,株式会社Ａｓｓｅｍｂｌｅ,,株式会社,富山県,中新川郡立山町,前沢１１８８番地,,16,323,9300221,,,,,,,2023-05-11,1,,,,,アセンブル,0
1986,7230003002014,新規,0,2023-05-11,2023-05-11,Ｂ‐Ｖｉｌｌａｇｅ合同会社,,合同会社,富山県,富山市,婦中町持田７５８番地１３,,16,201,9392725,,,,,,,2023-05-11,1,,,,,ビービレッジ,0
1999,7290001050257,新規,0,2023-05-11,2023-05-11,株式会社大博自動車,,株式会社,福岡県,久留米市,山本町耳納１０８６番地,,40,203,8390826,,,,,,,2023-05-11,1,,,,,,0
2000,7290001101448,新規,0,2023-05-11,2023-05-11,株式会社八女正茶,,株式会社,福岡県,八女市,津江１２１５番地,,40,210,8340024,,,,,,,2023-05-11,1,,,,,ヤメセイチャ,0
2001,7290001101480,新規,0,2023-05-11,2023-05-11,忠設備工業株式会社,,株式会社,福岡県,糟屋郡篠栗町,中央２丁目７番２７号,,40,342,8112417,,,,,,,2023-05-11,1,,,,,チュウセツビコウギョウ,0
2002,7290005019034,新規,0,2023-05-11,2023-05-11,一般社団法人社会の子,,その他の設立登記法人,福岡県,宗像市,土穴１丁目６番１号,,40,220,8114183,,,,,,,2023-05-11,1,,,,,シャカイノコ,0
2003,7290801029517,新規,0,2023-05-11,2023-05-11,株式会社ＲＥ,,株式会社,福岡県,北九州市小倉北区,魚町２丁目４番２０号,,40,106,8020006,,,,,,,2023-05-11,1,,,,,アールイー,0
2004,7290801029525,新規,0,2023-05-11,2023-05-11,株式会社ＴＡＫＡ設計,,株式会社,福岡県,北九州市小倉南区,下石田１丁目１８番３－４０２号,,40,107,8020832,,,,,,,2023-05-11,1,,,,,タカセッケイ,0
2011,7320001019752,新規,0,2023-05-11,2023-05-11,株式会社オーハシミート,,株式会社,大分県,別府市,北的ケ浜町１番１号,,44,202,8740928,,,,,,,2023-05-11,1,,,,,オーハシミート,0
2014,7330001030816,新規,0,2023-05-11,2023-05-11,株式会社福産,00130438,株式会社,熊本県,山鹿市,上吉田１２８３番地１,,43,208,8610524,,,,,,,2023-05-11,1,,,,,フクサン,0
2015,7340001025575,新規,0,2023-05-11,2023-05-11,株式会社ｃａｒａｖａｎ,,株式会社,鹿児島県,鹿児島市,武１丁目５番１４号,,46,201,8900045,,,,,,,2023-05-11,1,,,,,キャラバン,0
2016,7340001025583,新規,0,2023-05-11,2023-05-11,株式会社マイワークス,,株式会社,鹿児島県,鹿児島市,東千石町１６番１４号フローレンス絵菜４０２号,,46,201,8920842,,,,,,,2023-05-11,1,,,,,マイワークス,0
2018,7340003004123,新規,0,2023-05-11,2023-05-11,合同会社スピンホップ,,合同会社,鹿児島県,鹿児島市,宇宿３丁目１９番３号ソフィアコート寿５階,,46,201,8900073,,,,,,,2023-05-11,1,,,,,スピンホップ,0
2023,7360001031992,新規,0,2023-05-11,2023-05-11,サーベラスデベロップメント株式会社,,株式会社,沖縄県,糸満市,字糸満２２３５－２,,47,210,9010361,,,,,,,2023-05-11,1,,,,,サーベラスデベロップメント,0
2034,7380001033665,新規,0,2023-05-11,2023-05-11,株式会社Ｅｑｕｉｎｅ　Ｖｅｔ　Ｇｒｏｕｐ,,株式会社,福島県,南相馬市,小高区大町２丁目１８番地,,07,212,9792123,,,,,,,2023-05-11,1,,,,,エクワインベットグループ,0
2039,7400001016246,新規,0,2023-05-11,2023-05-11,株式会社ヨネコーポレーション,,株式会社,岩手県,岩手郡雫石町,黒沢川２２番地１０,,03,301,0200517,,,,,,,2023-05-11,1,,,,,ヨネコーポレーション,0
2046,7430001089025,新規,0,2023-05-11,2023-05-11,株式会社関川興業,,株式会社,北海道,江別市,大麻桜木町２１番地の２３,,01,217,0690846,,,,,,,2023-05-11,1,,,,,セキカワコウギョウ,0
2047,7430001089041,新規,0,2023-05-11,2023-05-11,株式会社ネクストドア,,株式会社,北海道,札幌市南区,澄川四条７丁目１番３号,,01,106,0050004,,,,,,,2023-05-11,1,,,,,ネクストドア,0
2049,7430003015004,新規,0,2023-05-11,2023-05-11,Ｂｌｕｅ　Ｌｅａｆ　Ｃａｐｉｔａｌ合同会社,,合同会社,北海道,札幌市中央区,南二十一条西１３丁目１－１５－３０１ブリリア中央図書館前,,01,101,0640921,,,,,,,2023-05-11,1,,,,,ブルーリーフキャピタル,0
2050,7430003015020,新規,0,2023-05-11,2023-05-11,ミレポリト合同会社,,合同会社,北海道,札幌市中央区,南九条西８丁目１番２６号オリンピア南９条マンション１階,,01,101,0640809,,,,,,,2023-05-11,1,,,,,ミレポリト,0
2059,7480003001981,新規,0,2023-05-11,2023-05-11,藤田工業合同会社,,合同会社,徳島県,徳島市,南島田町２丁目１０９番地,,36,201,7700053,,,,,,,2023-05-11,1,,,,,フジタコウギョウ,0
2060,7490001010471,新規,0,2023-05-11,2023-05-11,和管理システム株式会社,,株式会社,高知県,高知市,北本町４丁目３番２５号,,39,201,7800056,,,,,,,2023-05-11,1,,,,,カノウカンリシステム,0
2061,7490003001774,新規,0,2023-05-11,2023-05-11,合同会社Ｍｙｓｉｇ,,合同会社,高知県,高知市,東城山町１４１番地１３,,39,201,7808036,,,,,,,2023-05-11,1,,,,,ミューシグ,0
2075,8010001235082,新規,0,2023-05-11,2023-05-11,ｍｉｃｏ．ａｎｉｍａｔｉｏｎ株式会社,,株式会社,東京都,千代田区,神田須田町１丁目３２番７号クレス不動産神田ビルＢ１,,13,101,1010041,,,,,,,2023-05-11,1,,,,,ミコアニメーション,0
2077,8010001235132,新規,0,2023-05-11,2023-05-11,株式会社セリアスリンク,,株式会社,東京都,中央区,銀座１丁目１２番４号Ｎ＆ＥＢＬＤ．７階,,13,102,1040061,,,,,,,2023-05-11,1,,,,,セリアスリンク,0
2078,8010001235223,新規,0,2023-05-11,2023-05-11,森岡商貿株式会社,,株式会社,東京都,文京区,本郷４丁目１６番６号文京区本郷四丁目ビル,,13,105,1130033,,,,,,,2023-05-11,1,,,,,モリオカショウボウ,0
2081,8010003040530,新規,0,2023-05-11,2023-05-11,合同会社ＪＲＷＤファンド第５号,,合同会社,東京都,中央区,日本橋１丁目４番１号日本橋一丁目ビルディング,,13,102,1030027,,,,,,,2023-05-11,1,,,,,ジェイアールダブリューディーダイゴゴウ,0
2082,8010003040539,新規,0,2023-05-11,2023-05-11,グレイス合同会社,,合同会社,東京都,中央区,銀座１丁目２２番１１号銀座大竹ビジデンス２Ｆ,,13,102,1040061,,,,,,,2023-05-11,1,,,,,グレイス,0
2083,8010101015632,新規,0,2023-05-11,2023-05-11,株式会社ｏｂｕ,,株式会社,東京都,八王子市,狭間町１８６２番地１,,13,201,1930941,,,,,,,2023-05-11,1,,,,,オブ,0
2084,8010101015640,新規,0,2023-05-11,2023-05-11,株式会社キョウエイ,,株式会社,東京都,八王子市,泉町１９１０－１１９,,13,201,1930814,,,,,,,2023-05-11,1,,,,,キョウエイ,0
2090,8010401174153,新規,0,2023-05-11,2023-05-11,森田国際会計株式会社,,株式会社,東京都,港区,赤坂３丁目１番１６号,,13,103,1070052,,,,,,,2023-05-11,1,,,,,モリタコクサイカイケイ,0
2094,8010403030065,新規,0,2023-05-11,2023-05-11,合同会社ＧＰＨ,,合同会社,東京都,港区,元赤坂１丁目７番１３号元赤坂大野ビル２階,,13,103,1070051,,,,,,,2023-05-11,1,,,,,ジーピーエイチ,0
2097,8010501050428,新規,0,2023-05-11,2023-05-11,株式会社シャフト,,株式会社,東京都,台東区,寿３丁目６番２－８０２号クリオ蔵前壱番館,,13,106,1110042,,,,,,,2023-05-11,1,,,,,シャフト,0
2108,8010901052998,新規,0,2023-05-11,2023-05-11,株式会社メリゼ,,株式会社,東京都,世田谷区,深沢１丁目２３番１号,,13,112,1580081,,,,,,,2023-05-11,1,,,,,メリゼ,0
2113,8011001154280,新規,0,2023-05-11,2023-05-11,株式会社ＨＯＮＯＲ,,株式会社,東京都,目黒区,祐天寺２丁目１７番１号ノアテラス祐天寺１０１,,13,110,1530052,,,,,,,2023-05-11,1,,,,,オナー,0
2114,8011001154297,新規,0,2023-05-11,2023-05-11,株式会社Ｐｒｏｔｉｏ,,株式会社,東京都,渋谷区,神泉町１０番１５号,,13,113,1500045,,,,,,,2023-05-11,1,,,,,プロティオ,0
2117,8011101102791,新規,0,2023-05-11,2023-05-11,株式会社メソッドプラス,,株式会社,東京都,新宿区,新宿１丁目６番８号,,13,104,1600022,,,,,,,2023-05-11,1,,,,,メソッドプラス,0
2118,8011101102800,新規,0,2023-05-11,2023-05-11,ＣＬＵＴＣＨ株式会社,,株式会社,東京都,新宿区,西新宿３丁目３番１３号西新宿水間ビル２階,,13,104,1600023,,,,,,,2023-05-11,1,,,,,クラッチ,0
2120,8011203004077,新規,0,2023-05-11,2023-05-11,ＭＳＬ合同会社,,合同会社,東京都,中野区,東中野４丁目２１番１７号,,13,114,1640003,,,,,,,2023-05-11,1,,,,,エムエスエル,0
2123,8011401025131,新規,0,2023-05-11,2023-05-11,株式会社パース・ラボ,,株式会社,東京都,板橋区,赤塚３丁目２９番２１号,,13,119,1750092,,,,,,,2023-05-11,1,,,,,パースラボ,0
2128,8011601026788,新規,0,2023-05-11,2023-05-11,日本４１７株式会社,,株式会社,東京都,練馬区,北町５丁目５－７かぼちゃの馬車、平和台Ｖ１０３号室,00130434,13,120,1790081,,,,,,,2023-05-11,1,,,,,ニホンフォーワンセブン,0
2134,8012301013432,新規,0,2023-05-11,2023-05-11,株式会社ＮＥＵＴＲＡＬ,,株式会社,東京都,町田市,金井８丁目２１番３４号,,13,209,1950072,,,,,,,2023-05-11,1,,,,,ニュートラル,0
2136,8012801022346,新規,0,2023-05-11,2023-05-11,ｆｏｒＣ’ｓ株式会社,,株式会社,東京都,日野市,南平１丁目１５番地の１０,,13,212,1910041,,,,,,,2023-05-11,1,,,,,フォーシーズ,0
2145,8013301050738,新規,0,2023-05-11,2023-05-11,株式会社Ｌｉｖｅ　ａｌｔｅｒ,,株式会社,東京都,豊島区,東池袋３丁目９番１２号ニットービル９階,,13,116,1700013,,,,,,,2023-05-11,1,,,,,ライブオルタ,0
2157,8020001151519,新規,0,2023-05-11,2023-05-11,株式会社天山,,株式会社,神奈川県,横浜市西区,みなとみらい２丁目２－１ランドマークプラザ５Ｆ,,14,103,2200012,,,,,,,2023-05-11,1,,,,,テンザン,0
2158,8020003023872,新規,0,2023-05-11,2023-05-11,フィデムコンサルティング合同会社,,合同会社,神奈川県,横浜市中区,住吉町１丁目４番地,,14,104,2310013,,,,,,,2023-05-11,1,,,,,フィデムコンサルティング,0
2163,8021001078958,新規,0,2023-05-11,2023-05-11,株式会社ＡＣＴＩＶＥ,,株式会社,神奈川県,厚木市,飯山南３丁目２０番４３号,,14,212,2430218,,,,,,,2023-05-11,1,,,,,アクティブ,0
2164,8021001078990,新規,0,2023-05-11,2023-05-11,株式会社狼久保,,株式会社,神奈川県,大和市,上草柳１丁目６番２号ステラメゾンイースト５０１,,14,213,2420029,,,,,,,2023-05-11,1,,,,,オイノクボ,0
2168,8021003013062,新規,0,2023-05-11,2023-05-11,合同会社Ｃ‐ＷＡＶＥ,,合同会社,神奈川県,鎌倉市,岡本１丁目２０－１６,,14,204,2470072,,,,,,,2023-05-11,1,,,,,シーウェーブ,0
2177,8030001153687,新規,0,2023-05-11,2023-05-11,株式会社マーリマール,,株式会社,埼玉県,所沢市,大字山口１３４９番地の２,,11,208,3591145,,,,,,,2023-05-11,1,,,,,マーリマール,0
2178,8030001153729,新規,0,2023-05-11,2023-05-11,株式会社遠智,,株式会社,埼玉県,さいたま市大宮区,仲町１丁目５７番地桂ビル１階,,11,103,3300845,,,,,,,2023-05-11,1,,,,,エンチ,0
2183,8030003021719,新規,0,2023-05-11,2023-05-11,ＨＳＫ　ＴＲＡＤＩＮＧ合同会社,,合同会社,埼玉県,狭山市,富士見１丁目３０番５号,,11,215,3501306,,,,,,,2023-05-11,1,,,,,エイチエスケイトレーディング,0
2186,8040001128119,新規,0,2023-05-11,2023-05-11,株式会社アイクリエーション,,株式会社,千葉県,鎌ケ谷市,道野辺本町２丁目２６番１－６０２,,12,224,2730137,,,,,,,2023-05-11,1,,,,,アイクリエーション,0
2188,8040003022542,新規,0,2023-05-11,2023-05-11,合同会社アテモリンガ科学と社会開発,,合同会社,千葉県,山武郡横芝光町,尾垂１７１２番地,,12,410,2891725,,,,,,,2023-05-11,1,,,,,アテモリンガカガクトシャカイカイハツ,0
2189,8040003022575,新規,0,2023-05-11,2023-05-11,合同会社Ｓｔｅａｄｙ　Ｃｒｅａｔｉｏｎ　Ｓｕｐｐｏｒｔ,,合同会社,千葉県,柏市,豊四季３０１番地の９１,,12,217,2770863,,,,,,,2023-05-11,1,,,,,ステディクリエーションサポート,0
2194,8050001052739,新規,0,2023-05-11,2023-05-11,Ｇｒｅｅｎ　Ｌｉｆｅ　Ｉｎｔｅｒｎａｔｉｏｎａｌ株式会社,,株式会社,茨城県,つくば市,吾妻１丁目５番７号ダイワロイネットホテル２階,,08,220,3050031,,,,,,,2023-05-11,1,,,,,グリーンライフインターナショナル,0
2197,8050003007501,新規,0,2023-05-11,2023-05-11,合同会社鬼福ＴＥＬＥＣＯＭ,,合同会社,茨城県,東茨城郡茨城町,大字小堤２００番地２,,08,302,3113131,,,,,,,2023-05-11,1,,,,,オニフクテレコム,0
2204,8070001040436,新規,0,2023-05-11,2023-05-11,優希設備工業株式会社,,株式会社,群馬県,前橋市,朝倉町１３３番地１,,10,201,3710811,,,,,,,2023-05-11,1,,,,,ユウキセツビコウギョウ,0
2209,8080101023991,新規,0,2023-05-11,2023-05-11,株式会社ＫＭＴ,,株式会社,静岡県,駿東郡清水町,徳倉４４１番地の３,,22,341,4110917,,,,,,,2023-05-11,1,,,,,ケーエムティー,0
2210,8080105006340,新規,0,2023-05-11,2023-05-11,特定非営利活動法人Ｔｅａｍ　ＵＮＩＴＥ,,その他の設立登記法人,静岡県,沼津市,若葉町１７番２０号,,22,203,4100059,,,,,,,2023-05-11,1,,,,,チームユナイト,0
2212,8090001018109,新規,0,2023-05-11,2023-05-11,株式会社ＥＬＥＴＥＱ,,株式会社,山梨県,笛吹市,石和町河内１９６番地３,,19,211,4060043,,,,,,,2023-05-11,1,,,,,エレテック,0
2228,8120001254666,新規,0,2023-05-11,2023-05-11,株式会社ＵＥＳＡＫＩ,,株式会社,大阪府,大阪市中央区,南久宝寺町４丁目５番１１号ライオンズマンション御堂本町１０５,,27,128,5410058,,,,,,,2023-05-11,1,,,,,ウエサキ,0
2229,8120001254716,新規,0,2023-05-11,2023-05-11,株式会社万熾,,株式会社,大阪府,大阪市中央区,備後町１丁目４番１６号,,27,128,5410051,,,,,,,2023-05-11,1,,,,,マンシ,0
2230,8120001254798,新規,0,2023-05-11,2023-05-11,ドウマイ株式会社,,株式会社,大阪府,門真市,五月田町２－３４,,27,223,5710027,,,,,,,2023-05-11,1,,,,,ドウマイ,0
2231,8120001254807,新規,0,2023-05-11,2023-05-11,株式会社ｍｅｄｉｌａｂｏ,,株式会社,大阪府,大阪市西区,北堀江１丁目５番８号５０１,,27,106,5500014,,,,,,,2023-05-11,1,,,,,メディラボ,0
2240,8120003024019,新規,0,2023-05-11,2023-05-11,合同会社百信,,合同会社,大阪府,大阪市大正区,泉尾３丁目１４番６号,,27,108,5510031,,,,,,,2023-05-11,1,,,,,ヒャクシン,0
2241,8120003024051,新規,0,2023-05-11,2023-05-11,合同会社Ｔｅａｍ６,,合同会社,大阪府,大阪市淀川区,十八条１丁目１３－１４,,27,123,5320001,,,,,,,2023-05-11,1,,,,,チームシックス,0
2242,8120003024068,新規,0,2023-05-11,2023-05-11,ＭｅｄＢｌｅｎｄ合同会社,,合同会社,大阪府,寝屋川市,高柳１丁目４番８号,,27,215,5720051,,,,,,,2023-05-11,1,,,,,メドブレンド,0
2245,8120101067522,新規,0,2023-05-11,2023-05-11,Ｉｒｏｎ　Ｗｏｏｄ建築株式会社,,株式会社,大阪府,岸和田市,沼町２４番１０号,,27,202,5960053,,,,,,,2023-05-11,1,,,,,アイアンウッドケンチク,0
2246,8120101067530,新規,0,2023-05-11,2023-05-11,株式会社あづき,,株式会社,大阪府,堺市中区,八田北町９９３番地,,27,142,5998262,,,,,,,2023-05-11,1,,,,,アヅキ,0
2251,8130001074262,新規,0,2023-05-11,2023-05-11,株式会社Ａｓ‐ｅｅｃ,,株式会社,京都府,相楽郡精華町,大字菱田小字新池５番地１０,,26,366,6190246,,,,,,,2023-05-11,1,,,,,アズイーク,0
2252,8130003008714,新規,0,2023-05-11,2023-05-11,ＴＡＳＫＯＮＥ合同会社,,合同会社,京都府,京都市右京区,嵯峨五島町１－７４,,26,108,6168362,,,,,,,2023-05-11,1,,,,,タスクワン,0
2256,8140001130097,新規,0,2023-05-11,2023-05-11,株式会社誠司,,株式会社,兵庫県,尼崎市,武庫之荘１丁目３０－１２ディカ・カーサ２０６,,28,202,6610035,,,,,,,2023-05-11,1,,,,,セイジ,0
2257,8140001130122,新規,0,2023-05-11,2023-05-11,株式会社有馬ゴルフツアー,,株式会社,兵庫県,神戸市東灘区,向洋町中６丁目９番地神戸ファッションマート４Ｎ－０７－４,,28,101,6580032,,,,,,,2023-05-11,1,,,,,アリマゴルフツアー,0
2264,8140003019066,新規,0,2023-05-11,2023-05-11,信一商事合同会社,,合同会社,兵庫県,神戸市長田区,檜川町１丁目９番３－１０６号,,28,106,6530887,,,,,,,2023-05-11,1,,,,,シンイチショウジ,0
2265,8140003019074,新規,0,2023-05-11,2023-05-11,合同会社Ｖｅｇａ,,合同会社,兵庫県,明石市,和坂１２番１２号,,28,203,6730012,,,,,,,2023-05-11,1,,,,,ヴェガ,0
2275,8180003025201,新規,0,2023-05-11,2023-05-11,合同会社つくじか出版,,合同会社,愛知県,名古屋市名東区,香南２丁目１３０６番地シャトー猪子石２０２,,23,115,4650004,,,,,,,2023-05-11,1,,,,,ツクジカシュッパン,0
2276,8180003025218,新規,0,2023-05-11,2023-05-11,合同会社Ｄｏｌｐｈｉｎ,,合同会社,愛知県,名古屋市千種区,鹿子町５丁目３９番地（第５７プロスパービルＢ－１０３号）,,23,101,4640033,,,,,,,2023-05-11,1,,,,,ドルフィン,0
2277,8180003025226,新規,0,2023-05-11,2023-05-11,合同会社しゅぴーる・ラボ,,合同会社,愛知県,名古屋市天白区,塩釜口１丁目６５６番地１,,23,116,4680073,,,,,,,2023-05-11,1,,,,,シュピールラボ,0
2284,8200001041296,新規,0,2023-05-11,2023-05-11,株式会社ＥＷマネージメント,,株式会社,岐阜県,本巣市,数屋５６０番地７,,21,218,5010414,,,,,,,2023-05-11,1,,,,,イーダブリュウマネージメント,0
2286,8200003005943,新規,0,2023-05-11,2023-05-11,合同会社ｅｉｇｈｔ　ｖａｌｌｅｙ,,合同会社,岐阜県,中津川市,千旦林２６１０番地の３,,21,206,5099131,,,,,,,2023-05-11,1,,,,,エイトバレー,0
2290,8230001019835,新規,0,2023-05-11,2023-05-11,株式会社ゼロエネルギー企画,,株式会社,富山県,黒部市,前沢北１００４番地１,,16,207,9380806,,,,,,,2023-05-11,1,,,,,ゼロエネルギーキカク,0
2300,8270001008776,新規,0,2023-05-11,2023-05-11,株式会社吉村設備,00130455,株式会社,鳥取県,鳥取市,滝山４４０番地８,,31,201,6800072,,,,,,,2023-05-11,1,,,,,ヨシムラセツビ,0
2307,8290001101422,新規,0,2023-05-11,2023-05-11,株式会社かどや,,株式会社,福岡県,福岡市東区,水谷２丁目１２番９－３０１号,,40,131,8130041,,,,,,,2023-05-11,1,,,,,カドヤ,0
2308,8290001101447,新規,0,2023-05-11,2023-05-11,株式会社Ｇｏｏｄ　Ｃｏｎｎｅｃｔｉｏｎ,,株式会社,福岡県,福岡市南区,大橋１丁目１５番６号アルボーレ大橋４Ｆ,,40,134,8150033,,,,,,,2023-05-11,1,,,,,グッドコネクション,0
2309,8290001101463,新規,0,2023-05-11,2023-05-11,エーチティーケー株式会社,,株式会社,福岡県,糟屋郡粕屋町,花ヶ浦３丁目９番２号,,40,349,8112310,,,,,,,2023-05-11,1,,,,,エーチティーケー,0
2310,8290001101471,新規,0,2023-05-11,2023-05-11,ＭＫコーポレーション株式会社,,株式会社,福岡県,飯塚市,高田１７５７番,,40,205,8200079,,,,,,,2023-05-11,1,,,,,エムケーコーポレーション,0
2314,8290003013888,新規,0,2023-05-11,2023-05-11,ＰＯＲＴＦＯＬＩＯ合同会社,,合同会社,福岡県,福岡市博多区,博多駅前１丁目２３番１号ＰａｒｋＦｒｏｎｔ博多駅前１丁目５Ｆ－Ｂ,,40,132,8120011,,,,,,,2023-05-11,1,,,,,ポートフォリオ,0
2316,8290801029524,新規,0,2023-05-11,2023-05-11,ハル株式会社,,株式会社,福岡県,北九州市小倉南区,湯川新町３丁目２２番４８号,,40,107,8000256,,,,,,,2023-05-11,1,,,,,ハル,0
2320,8320001019751,新規,0,2023-05-11,2023-05-11,株式会社コアジャパン,,株式会社,大分県,大分市,長浜町２丁目７番６号,,44,201,8700023,,,,,,,2023-05-11,1,,,,,コアジャパン,0
2322,8330001030848,新規,0,2023-05-11,2023-05-11,株式会社山輝空調,,株式会社,熊本県,熊本市東区,長嶺東２丁目１８番１０号,,43,102,8618038,,,,,,,2023-05-11,1,,,,,サンキクウチョウ,0
2339,8400001016245,新規,0,2023-05-11,2023-05-11,株式会社コウクラフト,,株式会社,岩手県,滝沢市,湯舟沢２２２番地１０２４,,03,216,0200617,,,,,,,2023-05-11,1,,,,,コウクラフト,0
2343,8410005006522,新規,0,2023-05-11,2023-05-11,一般社団法人大仙エンジン,,その他の設立登記法人,秋田県,大仙市,太田町横沢字泥窪５０番地２,,05,212,0191601,,,,,,,2023-05-11,1,,,,,ダイセンエンジン,0
2351,8430001089024,新規,0,2023-05-11,2023-05-11,株式会社吹越工業,,株式会社,北海道,苫小牧市,拓勇西町２丁目１０番１８号,,01,213,0591302,,,,,,,2023-05-11,1,,,,,フキコシコウギョウ,0
2353,8430003014995,新規,0,2023-05-11,2023-05-11,合同会社マーケティング・サポート,,合同会社,北海道,札幌市豊平区,西岡四条３丁目２番１号,,01,105,0620034,,,,,,,2023-05-11,1,,,,,マーケティングサポート,0
2354,8430003015003,新規,0,2023-05-11,2023-05-11,合同会社Ｖｉｌｌａｇｅ,,合同会社,北海道,札幌市中央区,南五条西１２丁目１２９７番地２２グランドサクセス５１２－４０５号,,01,101,0640805,,,,,,,2023-05-11,1,,,,,ヴィレッジ,0
2361,8500003003033,新規,0,2023-05-11,2023-05-11,合同会社積善ファーム,,合同会社,愛媛県,越智郡上島町,岩城５１４３番地７,,38,356,7942410,,,,,,,2023-05-11,1,,,,,,0
2362,8500005008609,新規,0,2023-05-11,2023-05-11,一般社団法人瀬戸内海海域保全協会,,その他の設立登記法人,愛媛県,松山市,小坂５丁目４番１６号第八中村ビル２０３,,38,201,7900963,,,,,,,2023-05-11,1,,,,,セトナイカイカイイキホゼンキョウカイ,0
2363,8700150115263,新規,0,2023-05-11,2023-05-11,仏山市立弦電子商務有限公司,,外国会社等,,,,,,,,中国仏山市南海区桂城街道宝石西路１号Ｃ時代南海互聯網産業園（夏北総合楼）主楼４楼４０１Ａ号,00130407,,,,,2023-05-11,1,,,,,ブツザンシリツケンデンシショウムユウゲンコウシ,0
2372,9010001235148,新規,0,2023-05-11,2023-05-11,株式会社ＳＴＡＧＥ　ＣＲＥＡＴＥ,,株式会社,東京都,中央区,日本橋堀留町１丁目１０番１号カクタビル２Ｆ,,13,102,1030012,,,,,,,2023-05-11,1,,,,,ステージクリエイト,0
2373,9010001235189,新規,0,2023-05-11,2023-05-11,株式会社ＳＰＯＯＮ,,株式会社,東京都,八丈島八丈町,三根４９０６－３,,13,401,1001511,,,,,,,2023-05-11,1,,,,,スプーン,0
2374,9010001235255,新規,0,2023-05-11,2023-05-11,フローフルワークス株式会社,,株式会社,東京都,中央区,日本橋蛎殻町１丁目２番５号宮永ビル４階Ｂ号,,13,102,1030014,,,,,,,2023-05-11,1,,,,,フローフルワークス,0
2380,9010003040521,新規,0,2023-05-11,2023-05-11,Ｏｘｅｎｔｉａ　Ｊａｐａｎ合同会社,,合同会社,東京都,中央区,日本橋本町２丁目３番１１号日本橋ライフサイエンスビルディング５Ｆ,,13,102,1030023,,,,,,,2023-05-11,1,,,,,オクセンティアジャパン,0
2381,9010003040554,新規,0,2023-05-11,2023-05-11,ＴＳ　ＡＩ合同会社,,合同会社,東京都,中央区,新川２丁目１１番１号八丁堀東豊エステート７０９,,13,102,1040033,,,,,,,2023-05-11,1,,,,,ティーエスエーアイ,0
2382,9010003040579,新規,0,2023-05-11,2023-05-11,合同会社Ｈｅｎｌｅｙ＆Ｃｏｍｐａｎｙ,,合同会社,東京都,中央区,勝どき２丁目１５番１－１００２号,,13,102,1040054,,,,,,,2023-05-11,1,,,,,ヘンリーアンドカンパニー,0
2383,9010005036617,新規,0,2023-05-11,2023-05-11,一般社団法人ブルーグリーン,,その他の設立登記法人,東京都,千代田区,麹町１丁目４－４、２階,,13,101,1020083,,,,,,,2023-05-11,1,,,,,ブルーグリーン,0
2384,9010005036641,新規,0,2023-05-11,2023-05-11,ルビー一般社団法人,,その他の設立登記法人,東京都,千代田区,丸の内３丁目１番１号東京共同会計事務所内,,13,101,1000005,,,,,,,2023-05-11,1,,,,,ルビー,0
2385,9010101015631,新規,0,2023-05-11,2023-05-11,株式会社Ｅｎｃｏｕｎｔ,,株式会社,東京都,八王子市,下恩方町１６７３番地モンターニュ１０２,,13,201,1920154,,,,,,,2023-05-11,1,,,,,エンカウント,0
2391,9010501050427,新規,0,2023-05-11,2023-05-11,株式会社姫鞠花,,株式会社,東京都,台東区,千束４丁目４３番１３号,,13,106,1110031,,,,,,,2023-05-11,1,,,,,ヒメマリカ,0
2395,9010503006988,新規,0,2023-05-11,2023-05-11,星タリナ合同会社,,合同会社,東京都,台東区,上野６丁目１番６号御徒町グリーンハイツ１００５号,,13,106,1100005,,,,,,,2023-05-11,1,,,,,ホシタリナ,0
2397,9010601063080,新規,0,2023-05-11,2023-05-11,Ｃｈｉｋｅｔｔｏ株式会社,,株式会社,東京都,墨田区,業平１丁目７－９Ｐｌａｔ２９５,,13,107,1300002,,,,,,,2023-05-11,1,,,,,チケット,0
2400,9010701044212,新規,0,2023-05-11,2023-05-11,株式会社押田興業,,株式会社,東京都,品川区,豊町４丁目１０番１号コーポ下神明１０５,,13,109,1420042,,,,,,,2023-05-11,1,,,,,オシダコウギョウ,0
2401,9010701044220,新規,0,2023-05-11,2023-05-11,株式会社ハブソル,,株式会社,東京都,品川区,東五反田１丁目２１番９号,,13,109,1410022,,,,,,,2023-05-11,1,,,,,ハブソル,0
2408,9010901052980,新規,0,2023-05-11,2023-05-11,株式会社ミヤクリン,,株式会社,東京都,世田谷区,北沢５丁目３７番１２号,,13,112,1550031,,,,,,,2023-05-11,1,,,,,ミヤクリン,0
2415,9011001154239,新規,0,2023-05-11,2023-05-11,Ｂｅｎｊｉ株式会社,,株式会社,東京都,渋谷区,上原３丁目２番３号カーサ上原３Ｆ,,13,113,1510064,,,,,,,2023-05-11,1,,,,,ベンジー,0
2416,9011001154263,新規,0,2023-05-11,2023-05-11,Ｑｕｏ株式会社,,株式会社,東京都,渋谷区,神宮前６丁目２３番４号桑野ビル２階,,13,113,1500001,,,,,,,2023-05-11,1,,,,,クオ,0
2417,9011001154305,新規,0,2023-05-11,2023-05-11,株式会社ＭＯＢ,,株式会社,東京都,渋谷区,渋谷２丁目１９－１５宮益坂ビルディング６０９,,13,113,1500002,,,,,,,2023-05-11,1,,,,,モブ,0
2418,9011001154321,新規,0,2023-05-11,2023-05-11,マイ法務株式会社,,株式会社,東京都,渋谷区,神宮前６丁目２３番４号桑野ビル２階,,13,113,1500001,,,,,,,2023-05-11,1,,,,,マイホーム,0
2419,9011001154354,新規,0,2023-05-11,2023-05-11,マーシー・アンド・カンパニー株式会社,,株式会社,東京都,目黒区,上目黒４丁目４２－１４,,13,110,1530051,,,,,,,2023-05-11,1,,,,,マーシーアンドカンパニー,0
2421,9011003016791,新規,0,2023-05-11,2023-05-11,合同会社ブロサ,,合同会社,東京都,目黒区,上目黒２丁目３５番９号ラ．メゾン．オンブリック２０３,,13,110,1530051,,,,,,,2023-05-11,1,,,,,ブロサ,0
2438,9011501029270,新規,0,2023-05-11,2023-05-11,ＨＯＢＥ株式会社,,株式会社,東京都,北区,滝野川１丁目７６番８号,,13,117,1140023,,,,,,,2023-05-11,1,,,,,ホウビ,0
2444,9011801042361,新規,0,2023-05-11,2023-05-11,株式会社アールイーテクノ,,株式会社,東京都,足立区,西新井４丁目４番２号,,13,121,1230841,,,,,,,2023-05-11,1,,,,,アールイーテクノ,0
2445,9012703002701,新規,0,2023-05-11,2023-05-11,ＰＲＯＭＰＴＳ合同会社,,合同会社,東京都,西東京市,南町６丁目１番５号ソフィア田無２０３号,,13,229,1880012,,,,,,,2023-05-11,1,,,,,プロンプツ,0
2446,9012801022345,新規,0,2023-05-11,2023-05-11,株式会社ＳＫＹインテリア,,株式会社,東京都,日野市,多摩平３丁目３番地の９Ａ１０１,,13,212,1910062,,,,,,,2023-05-11,1,,,,,エスケーワイインテリア,0
2450,9013301050737,新規,0,2023-05-11,2023-05-11,株式会社ＡＩＲＰＯＳＴ,,株式会社,東京都,豊島区,東池袋５丁目７番３号アゼリア東池袋４０１,,13,116,1700013,,,,,,,2023-05-11,1,,,,,エアポスト,0
2451,9013301050745,新規,0,2023-05-11,2023-05-11,フューチャーヘルス株式会社,,株式会社,東京都,豊島区,高田３丁目１５番１４－５Ｆ,,13,116,1710033,,,,,,,2023-05-11,1,,,,,フューチャーヘルス,0
2453,9013303006621,新規,0,2023-05-11,2023-05-11,ＰＣＮＥＴ‐ＭＯＢＩＬＥ合同会社,,合同会社,東京都,豊島区,駒込１丁目３番２号,,13,116,1700003,,,,,,,2023-05-11,1,,,,,ピーシーネットモバイル,0
2465,9021003013061,新規,0,2023-05-11,2023-05-11,合同会社ＭＡＲＫ　ＩＩ,,合同会社,神奈川県,鎌倉市,大町７丁目１５４１－６１,,14,204,2480007,,,,,,,2023-05-11,1,,,,,マークツー,0
2470,9030001153661,新規,0,2023-05-11,2023-05-11,株式会社タイシ,,株式会社,埼玉県,飯能市,南町３番３号,,11,209,3570036,,,,,,,2023-05-11,1,,,,,タイシ,0
2471,9030001153744,新規,0,2023-05-11,2023-05-11,株式会社メディカルハート,,株式会社,埼玉県,春日部市,東中野１０９７番地２,,11,214,3440114,,,,,,,2023-05-11,1,,,,,メディカルハート,0
2472,9030001153752,新規,0,2023-05-11,2023-05-11,東山株式会社,,株式会社,埼玉県,草加市,柿木町２０７８番地１,,11,221,3400001,,,,,,,2023-05-11,1,,,,,トウザン,0
2473,9030001153760,新規,0,2023-05-11,2023-05-11,株式会社げこざる,,株式会社,埼玉県,狭山市,狭山台４丁目４６番地の１,,11,215,3501304,,,,,,,2023-05-11,1,,,,,ゲコザル,0
2474,9030001153769,新規,0,2023-05-11,2023-05-11,株式会社橋本興業,,株式会社,埼玉県,さいたま市見沼区,大字東宮下５０２番地５,,11,104,3370012,,,,,,,2023-05-11,1,,,,,ハシモトコウギョウ,0
2482,9040001128290,新規,0,2023-05-11,2023-05-11,株式会社ペットセレモニー虹のたもと,,株式会社,千葉県,木更津市,木更津２丁目１番１５号,,12,206,2920056,,,,,,,2023-05-11,1,,,,,ペットセレモニーニジノタモト,0
2483,9040001128332,新規,0,2023-05-11,2023-05-11,株式会社Ｒ＆Ｆ,,株式会社,千葉県,市川市,新田４丁目２番５号（ヒロハイツ１Ｆ）,,12,203,2720035,,,,,,,2023-05-11,1,,,,,アールアンドエフ,0
2484,9040003022384,新規,0,2023-05-11,2023-05-11,ＩＫＣ合同会社,,合同会社,千葉県,浦安市,東野２丁目１４番５５号,,12,227,2790042,,,,,,,2023-05-11,1,,,,,アイケーシー,0
2486,9050001052795,新規,0,2023-05-11,2023-05-11,株式会社萩原建設,,株式会社,茨城県,筑西市,海老ヶ島１６７０番地,,08,227,3004517,,,,,,,2023-05-11,1,,,,,ハギワラケンセツ,0
2487,9050001052812,新規,0,2023-05-11,2023-05-11,株式会社立花防災,,株式会社,茨城県,古河市,大手町１０番４０号,,08,204,3060032,,,,,,,2023-05-11,1,,,,,タチバナボウサイ,0
2488,9050001052829,新規,0,2023-05-11,2023-05-11,株式会社染谷工業,,株式会社,茨城県,猿島郡境町,大字塚崎２５７５番地４,,08,546,3060405,,,,,,,2023-05-11,1,,,,,ソメヤコウギョウ,0
2494,9050003007491,新規,0,2023-05-11,2023-05-11,合同会社ＳＫＹＣＵＢＥ,,合同会社,茨城県,神栖市,土合本町４丁目９８０９－６１インフィナノース２－３０５,,08,232,3140343,,,,,,,2023-05-11,1,,,,,スカイキューブ,0
2495,9050005013265,新規,0,2023-05-11,2023-05-11,一般社団法人次世代人材育成センター,,その他の設立登記法人,茨城県,土浦市,蓮河原新町７番１４－３０５号,,08,203,3000821,,,,,,,2023-05-11,1,,,,,ジセダイジンザイイクセイセンター,0
2498,9080005007537,新規,0,2023-05-11,2023-05-11,一般社団法人腰痛セラピスト育成協会,,その他の設立登記法人,静岡県,焼津市,石津２－１，カネツビル１－Ｃ,,22,212,4250041,,,,,,,2023-05-11,1,,,,,ヨウツウセラピストイクセイキョウカイ,0
2499,9080101023990,新規,0,2023-05-11,2023-05-11,株式会社タカハシ,,株式会社,静岡県,沼津市,下香貫馬場５０１番地の１４,,22,203,4100822,,,,,,,2023-05-11,1,,,,,タカハシ,0
2500,9080103002803,新規,0,2023-05-11,2023-05-11,合同会社Ｃｒａｚｙ　Ｃｒａｎｅ,,合同会社,静岡県,沼津市,大岡１８４１‐１３メゾンドエソールＩＩ１０２号,00130459,22,203,4100022,,,,,,,2023-05-11,1,,,,,クレイジークレーン,0
2501,9080401026479,新規,0,2023-05-11,2023-05-11,株式会社Ｃｌｏｐｆ,,株式会社,静岡県,浜松市中区,細島町６番地６カワ清林京ビル３００号室,,22,131,4350045,,,,,,,2023-05-11,1,,,,,クロップ,0
2505,9090001018108,新規,0,2023-05-11,2023-05-11,株式会社ＰＵＬＡ,,株式会社,山梨県,甲府市,金竹町５番５号,,19,201,4000063,,,,,,,2023-05-11,1,,,,,プラ,0
2508,9100005013012,新規,0,2023-05-11,2023-05-11,税理士法人水谷税務会計事務所,,その他の設立登記法人,長野県,塩尻市,大字広丘原新田５７１番地９,,20,215,3990706,,,,,,,2023-05-11,1,,,,,ミズタニゼイムカイケイジムショ,0
2520,9120001254748,新規,0,2023-05-11,2023-05-11,株式会社Ｗアース,,株式会社,大阪府,枚方市,御殿山町６番１６－３０１号,,27,210,5731182,,,,,,,2023-05-11,1,,,,,ダブルアース,0
2521,9120001254772,新規,0,2023-05-11,2023-05-11,Ｅｄｇｅｗｏｒｋコンサルティング株式会社,,株式会社,大阪府,大阪市北区,堂島浜２丁目２番２８号堂島アクシスビル４階,,27,127,5300004,,,,,,,2023-05-11,1,,,,,エッジワークコンサルティング,0
2522,9120001254789,新規,0,2023-05-11,2023-05-11,株式会社大阪ディスパッチ,,株式会社,大阪府,大阪市西淀川区,大和田３丁目７－１１－２０２,,27,113,5550032,,,,,,,2023-05-11,1,,,,,オオサカディスパッチ,0
2527,9120003024034,新規,0,2023-05-11,2023-05-11,合同会社Ｏｆｆｉｃｅ　ＳＯＬＯ,,合同会社,大阪府,大阪市中央区,北浜東１番１２号天満橋フジタビル１０１号,,27,128,5400031,,,,,,,2023-05-11,1,,,,,オフィスソロ,0
2538,9120101067513,新規,0,2023-05-11,2023-05-11,株式会社ワン・オー・ワン,,株式会社,大阪府,松原市,松ケ丘３丁目６番７－１０２号,,27,217,5800042,,,,,,,2023-05-11,1,,,,,ワンオーワン,0
2539,9120101067521,新規,0,2023-05-11,2023-05-11,株式会社ＫＴＳ,,株式会社,大阪府,堺市中区,深阪２丁３番４５号,,27,142,5998253,,,,,,,2023-05-11,1,,,,,ケーティーエス,0
2544,9120903004622,新規,0,2023-05-11,2023-05-11,合同会社ＲＩＳＯ,,合同会社,大阪府,豊中市,新千里北町３丁目１番１０－１２０９号,,27,203,5600081,,,,,,,2023-05-11,1,,,,,リソー,0
2547,9130001074229,新規,0,2023-05-11,2023-05-11,株式会社オートボディアズミ,,株式会社,京都府,京丹後市,久美浜町浦明６３２番地,,26,212,6293438,,,,,,,2023-05-11,1,,,,,オートボディアズミ,0
2550,9130003008713,新規,0,2023-05-11,2023-05-11,合同会社ＧＲＯＷＯＳ,,合同会社,京都府,京都市左京区,北白川蔦町２３－１アネックスえんじゅ２０３,,26,103,6068262,,,,,,,2023-05-11,1,,,,,グロース,0
2552,9130005016771,新規,0,2023-05-11,2023-05-11,一般社団法人ＨＵＭＡＮ　ＩＮＦＩＮＩＴＹ,,その他の設立登記法人,京都府,木津川市,州見台２丁目１０番地１９サニーハイツ１０３号,,26,214,6190216,,,,,,,2023-05-11,1,,,,,ヒューマンインフィニティ,0
2556,9140001130105,新規,0,2023-05-11,2023-05-11,株式会社ノーム,,株式会社,兵庫県,西宮市,門戸東町８番２５号,,28,204,6620824,,,,,,,2023-05-11,1,,,,,ノーム,0
2559,9150001026401,新規,0,2023-05-11,2023-05-11,絆株式会社,,株式会社,奈良県,奈良市,佐保台３丁目９０２番地の７８,,29,201,6308105,,,,,,,2023-05-11,1,,,,,キズナ,0
2560,9150003002961,新規,0,2023-05-11,2023-05-11,合同会社ＦＬＡＧＴＯＷＮ．,,合同会社,奈良県,奈良市,杉ヶ町３２－５,,29,201,6308357,,,,,,,2023-05-11,1,,,,,フラッグタウン,0
2561,9170001017596,新規,0,2023-05-11,2023-05-11,株式会社ＫＯＵＡ,,株式会社,和歌山県,西牟婁郡白浜町,堅田１３６７番地の７,,30,401,6492201,,,,,,,2023-05-11,1,,,,,コウア,0
2565,9180301037376,新規,0,2023-05-11,2023-05-11,株式会社ＡＮＩＫＩ　ＭＯＢＩＬＩＴＹ,,株式会社,愛知県,知立市,中町花山２６番地１,,23,225,4720033,,,,,,,2023-05-11,1,,,,,アニキモビリティー,0
2572,9200001041304,新規,0,2023-05-11,2023-05-11,株式会社Ａｂｏｏ,,株式会社,岐阜県,可児市,広見２４１９番地２,,21,214,5090214,,,,,,,2023-05-11,1,,,,,アブー,0
2574,9210001019308,新規,0,2023-05-11,2023-05-11,株式会社ＹＡＡＭＡ,,株式会社,福井県,福井市,光陽１丁目１１番１５号,,18,201,9100026,,,,,,,2023-05-11,1,,,,,ヤーマ,0
2575,9220001025395,新規,0,2023-05-11,2023-05-11,株式会社ＹＡＷ,,株式会社,石川県,小松市,大領町つ７番地２,,17,203,9230854,,,,,,,2023-05-11,1,,,,,ヨー,0
2581,9260001037924,新規,0,2023-05-11,2023-05-11,株式会社ＪＲＳ,,株式会社,岡山県,岡山市北区,春日町７番１９号,,33,101,7000905,,,,,,,2023-05-11,1,,,,,ジェイアールエス,0
2587,9290001101487,新規,0,2023-05-11,2023-05-11,株式会社游魚庵,,株式会社,福岡県,福岡市博多区,金の隈２丁目１３番１３－６０６号,,40,132,8120863,,,,,,,2023-05-11,1,,,,,ユウギョアン,0
2591,9290003013895,新規,0,2023-05-11,2023-05-11,合同会社ＯＴＳ,,合同会社,福岡県,大川市,大字酒見１７０番地１,,40,212,8310016,,,,,,,2023-05-11,1,,,,,オーティーエス,0
2593,9290005019032,新規,0,2023-05-11,2023-05-11,医療法人倉岡医院,,その他の設立登記法人,福岡県,小郡市,三沢３９４９－７,,40,216,8380106,,,,,,,2023-05-11,1,,,,,クラオカイイン,0
2594,9290801029523,新規,0,2023-05-11,2023-05-11,株式会社美秀,,株式会社,福岡県,北九州市八幡西区,浅川１丁目２６‐１,,40,109,8070872,,,,,,,2023-05-11,1,,,,,ビシュウ,0
2600,9330001030847,新規,0,2023-05-11,2023-05-11,動物農場出版株式会社,,株式会社,熊本県,熊本市北区,植木町小野１０３３番地３２,,43,105,8610125,,,,,,,2023-05-11,1,,,,,ドウブツノウジョウシュッパン,0
2609,9330005010663,新規,0,2023-05-11,2023-05-11,医療法人敬互会,,その他の設立登記法人,熊本県,熊本市南区,出仲間７丁目１－３６,,43,104,8620963,,,,,,,2023-05-11,1,,,,,ケイゴカイ,0
2614,9340001025573,新規,0,2023-05-11,2023-05-11,株式会社ＪＡＣＫ,,株式会社,鹿児島県,南九州市,知覧町東別府９６０６番地,,46,223,8970304,,,,,,,2023-05-11,1,,,,,ジャック,0
2617,9350001018353,新規,0,2023-05-11,2023-05-11,株式会社ＴＡＤＡ,,株式会社,宮崎県,宮崎市,吉村町江田原甲２９６番地３４,,45,201,8800841,,,,,,,2023-05-11,1,,,,,タダ,0
2623,9370005010627,新規,0,2023-05-11,2023-05-11,農事組合法人入間田ファーム,,その他の設立登記法人,宮城県,柴田郡柴田町,大字入間田字関本１５番地,,04,323,9891745,,,,,,,2023-05-11,1,,,,,イリマダファーム,0
2632,9410005006521,新規,0,2023-05-11,2023-05-11,一般社団法人マンガアーカイブ機構,,その他の設立登記法人,秋田県,横手市,増田町増田字新町２８５番地,,05,203,0190701,,,,,,,2023-05-11,1,,,,,マンガアーカイブキコウ,0
2633,9420001018255,新規,0,2023-05-11,2023-05-11,株式会社白銀ハウス,,株式会社,青森県,八戸市,白銀２丁目３番５号,,02,203,0310821,,,,,,,2023-05-11,1,,,,,シロガネハウス,0
2637,9430001089015,新規,0,2023-05-11,2023-05-11,株式会社Ａ‐ＬＩＮＥ,,株式会社,北海道,札幌市東区,北五十一条東２丁目１番３４号ヤマホ５１２ビル,,01,103,0070851,,,,,,,2023-05-11,1,,,,,エーライン,0
2638,9430001089023,新規,0,2023-05-11,2023-05-11,株式会社まちのミライ,,株式会社,北海道,札幌市西区,宮の沢二条３丁目４番１号,,01,107,0630052,,,,,,,2023-05-11,1,,,,,マチノミライ,0
2639,9430003015002,新規,0,2023-05-11,2023-05-11,ＡＱＵＡ　ＩＮＴＥＲＮＡＴＩＯＮＡＬ合同会社,,合同会社,北海道,小樽市,山田町１番１３号セントラルハイツＢ１Ｆ,,01,203,0470025,,,,,,,2023-05-11,1,,,,,アクアインターナショナル,0
2645,9480005006960,新規,0,2023-05-11,2023-05-11,特定非営利活動法人はつらつ語り部,,その他の設立登記法人,徳島県,阿南市,才見町三本松５３番地１,,36,204,7740015,,,,,,,2023-05-11,1,,,,,ハツラツカタリベ,0
2646,9500001024922,新規,0,2023-05-11,2023-05-11,株式会社Ｏｆｆｉｃｅ‐Ｍ,,株式会社,愛媛県,松山市,堀江町甲５７６番地９,,38,201,7992651,,,,,,,2023-05-11,1,,,,,オフィスエム,0
2647,9700150115262,新規,0,2023-05-11,2023-05-11,仏山市車瞳汽車照明有限公司,,外国会社等,,,,,,,,中国仏山市南海区獅山鎮羅村広東新光源産業基地核心区Ｆ区内２棟３層０１号単元工業厂房,00130406,,,,,2023-05-11,1,,,,,ブツザンシシャドウキシャショウメイユウゲンコウシ,0
2648,9700150115774,新規,0,2023-05-11,2023-04-27,サンシティパークサイド広幡管理組合,,その他,愛知県,岡崎市,広幡町６－１１サンシティパークサイド広幡,,23,202,4440066,,,,,,,2023-04-27,1,,,,,サンシテイパークサイドヒロハタカンリクミアイ,0
