sequenceNumber,corporateNumber,process,correct,updateDate,changeDate,name,nameImageId,kind,prefectureName,cityName,streetNumber,addressImageId,prefectureCode,cityCode,postCode,addressOutside,addressOutsideImageId,closeDate,closeCause,successorCorporateNumber,changeCause,assignmentDate,latest,enName,enPrefectureName,enCityName,enAddressOutside,furigana,hihyoji
7,1010001229693,新規,0,2022-09-28,2022-09-28,株式会社ＨＡＭ,,株式会社,東京都,中央区,銀座１丁目１２番４号Ｎ＆ＥＢＬＤ．７階,,13,102,1040061,,,,,,,2022-09-28,1,,,,,ハム,0
9,1010003038738,新規,0,2022-09-28,2022-09-28,エステート晴海合同会社,,合同会社,東京都,中央区,晴海５丁目１番１７－１１１１号,,13,102,1040053,,,,,,,2022-09-28,1,,,,,エステートハルミ,0
15,1010005035601,新規,0,2022-09-28,2022-09-28,医療法人社団高成会,,その他の設立登記法人,東京都,中央区,銀座６丁目１３番９号ＧＩＲＡＣＧＩＮＺＡ３０１,,13,102,1040061,,,,,,,2022-09-28,1,,,,,コウセイカイ,0
36,1010503006731,新規,0,2022-09-28,2022-09-28,合同会社佩龍,,合同会社,東京都,台東区,上野６丁目７番１６号川久保ビル７１９号室,,13,106,1100005,,,,,,,2022-09-28,1,,,,,ハイリュウ,0
61,1011101100141,新規,0,2022-09-28,2022-09-28,株式会社ＡＫＩＮＡ,,株式会社,東京都,新宿区,高田馬場４丁目２８番地１５号,,13,104,1690075,,,,,,,2022-09-28,1,,,,,アキナ,0
62,1011101100298,新規,0,2022-09-28,2022-09-28,株式会社Ｗｏｒｋｓｐａｃｅ,,株式会社,東京都,新宿区,高田馬場３丁目１番５号サンパティオ高田馬場３０９号室,,13,104,1690075,,,,,,,2022-09-28,1,,,,,ワークスペース,0
63,1011101100315,新規,0,2022-09-28,2022-09-28,ＨＡＳＨ　ＣＲＡＦＴ株式会社,,株式会社,東京都,新宿区,百人町２丁目２０番２２－１０７号,,13,104,1690073,,,,,,,2022-09-28,1,,,,,ハッシュクラフト,0
64,1011103012194,新規,0,2022-09-28,2022-09-28,ＺｅＳＴ合同会社,,合同会社,東京都,新宿区,西新宿３丁目３番１３号西新宿水間ビル６階,,13,104,1600023,,,,,,,2022-09-28,1,,,,,ゼスト,0
67,1011201024117,新規,0,2022-09-28,2022-09-28,ＳＯＤコーポレート株式会社,,株式会社,東京都,中野区,本町６丁目２０番１２号,,13,114,1640012,,,,,,,2022-09-28,1,,,,,エスオーディーコーポレート,0
76,1012703002543,新規,0,2022-09-28,2022-09-28,合同会社稲荷やＴｒａｄｉｎｇ,,合同会社,東京都,清瀬市,中里２丁目６５４番地１６,,13,221,2040003,,,,,,,2022-09-28,1,,,,,イナリヤトレーディング,0
82,1013301049720,新規,0,2022-09-28,2022-09-28,道楽株式会社,,株式会社,東京都,豊島区,東池袋１丁目８番６号３Ｆ,,13,116,1700013,,,,,,,2022-09-28,1,,,,,ドウラク,0
84,1020001148315,新規,0,2022-09-28,2022-09-28,株式会社１２,,株式会社,神奈川県,横浜市都筑区,加賀原１丁目２４番８号シンフォニックヒルズ８０６,,14,118,2240055,,,,,,,2022-09-28,1,,,,,ジュウニ,0
85,1020001148323,新規,0,2022-09-28,2022-09-28,株式会社トモコーポレーション,,株式会社,神奈川県,横浜市金沢区,谷津町１４８番地,,14,108,2360016,,,,,,,2022-09-28,1,,,,,トモコーポレーション,0
87,1020003022443,新規,0,2022-09-28,2022-09-28,ｐｏｎｏ合同会社,,合同会社,神奈川県,川崎市中原区,新城２丁目８番３－３号,,14,133,2110044,,,,,,,2022-09-28,1,,,,,ポノ,0
88,1020003022468,新規,0,2022-09-28,2022-09-28,合同会社オフィス中田,,合同会社,神奈川県,川崎市宮前区,宮崎４丁目１番地７９,,14,136,2160033,,,,,,,2022-09-28,1,,,,,オフィスナカタ,0
101,1030001150212,新規,0,2022-09-28,2022-09-28,株式会社ＴｉＬ,,株式会社,埼玉県,蕨市,北町１丁目２番１２号,,11,223,3350001,,,,,,,2022-09-28,1,,,,,ティーアイエル,0
102,1030001150220,新規,0,2022-09-28,2022-09-28,株式会社協和ハンディーサービス,,株式会社,埼玉県,春日部市,大沼４丁目７５番地２３１,,11,214,3440038,,,,,,,2022-09-28,1,,,,,キョウワハンディーサービス,0
103,1030001150229,新規,0,2022-09-28,2022-09-28,ゆにすた株式会社,,株式会社,埼玉県,新座市,新堀２丁目５番３７号,,11,230,3520032,,,,,,,2022-09-28,1,,,,,ユニスタ,0
104,1030001150237,新規,0,2022-09-28,2022-09-28,株式会社ｇｏｏｄ　ｗｉｌｌ,,株式会社,埼玉県,川口市,東川口１丁目１９番２５号メゾン東川口１０５号室,,11,203,3330801,,,,,,,2022-09-28,1,,,,,グッドウィル,0
105,1030001150245,新規,0,2022-09-28,2022-09-28,アローズ美建株式会社,,株式会社,埼玉県,川越市,大字石田本郷５８６番地,,11,201,3500835,,,,,,,2022-09-28,1,,,,,アローズビケン,0
111,1030003020256,新規,0,2022-09-28,2022-09-28,ノマドバース合同会社,,合同会社,埼玉県,所沢市,大字荒幡８５３－２プロムナード２０２,,11,208,3591133,,,,,,,2022-09-28,1,,,,,ノマドバース,0
112,1030003020264,新規,0,2022-09-28,2022-09-28,地域再生パートナーズ合同会社,,合同会社,埼玉県,八潮市,大字南川崎１５４２－１,,11,234,3400814,,,,,,,2022-09-28,1,,,,,チイキサイセイパートナーズ,0
122,1040001125213,新規,0,2022-09-28,2022-09-28,株式会社４Ｕ,,株式会社,千葉県,船橋市,本町７丁目１２番１８－５０２号,,12,204,2730005,,,,,,,2022-09-28,1,,,,,ヨンユー,0
126,1040003020924,新規,0,2022-09-28,2022-09-28,合同会社ＩＫ＆Ｋ,,合同会社,千葉県,佐倉市,ユーカリが丘６丁目７－１１,,12,212,2850858,,,,,,,2022-09-28,1,,,,,アイケーアンドケー,0
132,1050005013149,新規,0,2022-09-28,2022-09-28,一般社団法人淳勇智会,,その他の設立登記法人,茨城県,つくば市,谷田部３２３６番地１,,08,220,3050861,,,,,,,2022-09-28,1,,,,,キユウチカイ,0
135,1060001035294,新規,0,2022-09-28,2022-09-28,株式会社ＢＡＳＡＮＴＡ,,株式会社,栃木県,小山市,駅南町５丁目１４番１３号パークハイツ天宮２０２,,09,208,3230822,,,,,,,2022-09-28,1,,,,,バサンタ,0
137,1060003004248,新規,0,2022-09-28,2022-09-28,合同会社ＡＴＩＴＨＩ,,合同会社,栃木県,小山市,大字喜沢２０１－１ハモネト１－１０４,,09,208,3230014,,,,,,,2022-09-28,1,,,,,アティティ,0
169,1120001249020,新規,0,2022-09-28,2022-09-28,玉林投資株式会社,,株式会社,大阪府,大阪市生野区,新今里４丁目１３番２１号,,27,116,5440001,,,,,,,2022-09-28,1,,,,,ギョクリントウシ,0
170,1120001249045,新規,0,2022-09-28,2022-09-28,ＢＯＳ株式会社,,株式会社,大阪府,大阪市中央区,谷町６丁目３－１２プレアール谷町３０５号室,,27,128,5420012,,,,,,,2022-09-28,1,,,,,ボス,0
171,1120001249086,新規,0,2022-09-28,2022-09-28,株式会社日本医薬品,,株式会社,大阪府,大阪市中央区,南船場３丁目７－２７－４－Ｃ号室,,27,128,5420081,,,,,,,2022-09-28,1,,,,,ニホンイヤクヒン,0
178,1120003022549,新規,0,2022-09-28,2022-09-28,ＲｅＫａｚｅ合同会社,,合同会社,大阪府,大阪市北区,梅田１丁目１－３大阪駅前第３ビル２９階１－１－１号室,,27,127,5300001,,,,,,,2022-09-28,1,,,,,リカゼ,0
183,1120105009626,新規,0,2022-09-28,2022-09-28,一般社団法人伝統文化ＮＦＴ協議会,,その他の設立登記法人,大阪府,堺市東区,白鷺町１丁６番１０－３０５号,,27,143,5998107,,,,,,,2022-09-28,1,,,,,デントウブンカエヌエフティーキョウギカイ,0
186,1120901046525,新規,0,2022-09-28,2022-09-28,株式会社栄光,,株式会社,大阪府,箕面市,森町中２丁目６番１０号,,27,220,5630257,,,,,,,2022-09-28,1,,,,,エイコウ,0
193,1130001072669,新規,0,2022-09-28,2022-09-28,株式会社模様,,株式会社,京都府,京都市左京区,聖護院円頓美町４７－５京都グランドハイツ６０６,,26,103,6068323,,,,,,,2022-09-28,1,,,,,モヨウ,0
194,1130001072685,新規,0,2022-09-28,2022-09-28,海惠株式会社,,株式会社,京都府,京都市右京区,西院西高田町６番地３－２０２,,26,108,6150032,,,,,,,2022-09-28,1,,,,,カイケイ,0
232,1290001098995,新規,0,2022-09-28,2022-09-28,株式会社Ｓｈｉｎｓａｔｏ,,株式会社,福岡県,福岡市博多区,店屋町８番３号,,40,132,8120025,,,,,,,2022-09-28,1,,,,,シンサト,0
235,1290003012995,新規,0,2022-09-28,2022-09-28,合同会社ヤマダ,,合同会社,福岡県,福岡市博多区,住吉２丁目１４番１９－６０１号ＡＶＥＲＩＯ住吉,,40,132,8120018,,,,,,,2022-09-28,1,,,,,ヤマダ,0
236,1340001025052,新規,0,2022-09-28,2022-09-28,株式会社ジンテン,,株式会社,鹿児島県,鹿児島市,加治屋町４番７－３０４号,,46,201,8920846,,,,,,,2022-09-28,1,,,,,ジンテン,0
238,1340003003915,新規,0,2022-09-28,2022-09-28,フォトワークス合同会社,,合同会社,鹿児島県,鹿児島市,上之園町１６－９イルトラッツォ中央駅２階,,46,201,8900052,,,,,,,2022-09-28,1,,,,,フォトワークス,0
246,1400003002976,新規,0,2022-09-28,2022-09-28,北上山地家具製作合同会社,,合同会社,岩手県,遠野市,青笹町中沢８地割５５番地,,03,208,0280502,,,,,,,2022-09-28,1,,,,,キタカミサンチカグセイサク,0
251,1430001087521,新規,0,2022-09-28,2022-09-28,Ｃｒｅａｔｉｖｅ　Ｃｒｅａｔｉｏｎ株式会社,,株式会社,北海道,札幌市中央区,南十条西１丁目１－６５　４階,,01,101,0640810,,,,,,,2022-09-28,1,,,,,クリエイティブクリエイション,0
252,1430001087538,新規,0,2022-09-28,2022-09-28,株式会社丸満佐藤水産,,株式会社,北海道,石狩市,厚田区別狩１３番地９,,01,235,0613605,,,,,,,2022-09-28,1,,,,,マルマンサトウスイサン,0
256,1430005014570,新規,0,2022-09-28,2022-09-28,医療法人社団とよひらファミリー歯科,,その他の設立登記法人,北海道,札幌市南区,川沿十条３丁目５番２３号,,01,106,0050810,,,,,,,2022-09-28,1,,,,,トヨヒラファミリーシカ,0
273,2010001229750,新規,0,2022-09-28,2022-09-28,株式会社ＥＡＳＹ　ＷＨＩＴＥ,,株式会社,東京都,中央区,銀座１丁目１２番４号Ｎ＆ＥＢＬＤ．６Ｆ,,13,102,1040061,,,,,,,2022-09-28,1,,,,,イージーホワイト,0
274,2010003038745,新規,0,2022-09-28,2022-09-28,Ｐｈｅｎｅｘ　Ｉｎｖｅｓｔｍｅｎｔ合同会社,,合同会社,東京都,中央区,銀座１丁目２２番１１号銀座大竹ビジデンス２階,,13,102,1040061,,,,,,,2022-09-28,1,,,,,フェネクスインベストメント,0
288,2010401169910,新規,0,2022-09-28,2022-09-28,株式会社ＣＪＬｉｎｋ,,株式会社,東京都,港区,愛宕２丁目５番１号愛宕グリーンヒルズＭＯＲＩタワー２７階,,13,103,1050002,,,,,,,2022-09-28,1,,,,,シージェイリンク,0
290,2010403028528,新規,0,2022-09-28,2022-09-28,ウイルバー・エリス合同会社,,合同会社,東京都,港区,海岸１丁目９番１号,,13,103,1050022,,,,,,,2022-09-28,1,,,,,ウイルバーエリス,0
297,2010801033286,新規,0,2022-09-28,2022-09-28,株式会社ミュー,,株式会社,東京都,大田区,山王２丁目１７番７号,,13,111,1430023,,,,,,,2022-09-28,1,,,,,ミュー,0
302,2010901051675,新規,0,2022-09-28,2022-09-28,株式会社ＳＴパートナーズ,,株式会社,東京都,世田谷区,代沢２丁目２６番１号,,13,112,1550032,,,,,,,2022-09-28,1,,,,,,0
303,2010901051683,新規,0,2022-09-28,2022-09-28,株式会社ｐｅｎｓｅｅ　ｄｅ　ｇｏｒｉｌｌｅ,,株式会社,東京都,世田谷区,上野毛１丁目２５－１９,,13,112,1580093,,,,,,,2022-09-28,1,,,,,パンセデゴリレ,0
307,2011001149971,新規,0,2022-09-28,2022-09-28,ＡｔｈＲｅａｄ株式会社,,株式会社,東京都,目黒区,大橋１丁目１番８号,,13,110,1530044,,,,,,,2022-09-28,1,,,,,エースリード,0
308,2011003015437,新規,0,2022-09-28,2022-09-28,合同会社ゼッド,,合同会社,東京都,渋谷区,神宮前６丁目２３番４号桑野ビル２階,,13,113,1500001,,,,,,,2022-09-28,1,,,,,ゼッド,0
322,2011601026265,新規,0,2022-09-28,2022-09-28,株式会社サンダン,,株式会社,東京都,練馬区,豊玉北４丁目２８－８,,13,120,1760012,,,,,,,2022-09-28,1,,,,,サンダン,0
323,2011701025638,新規,0,2022-09-28,2022-09-28,株式会社Ｍａｄｉｈａ　ｉｎｔｅｒｎａｔｉｏｎａｌ,,株式会社,東京都,江戸川区,西小岩１丁目２９番４号,,13,123,1330057,,,,,,,2022-09-28,1,,,,,マディハインターナショナル,0
336,2013303006306,新規,0,2022-09-28,2022-09-28,合同会社モリクル,,合同会社,東京都,豊島区,高田３丁目４０番３号,,13,116,1710033,,,,,,,2022-09-28,1,,,,,モリクル,0
343,2020003022459,新規,0,2022-09-28,2022-09-28,ヒケアス合同会社,,合同会社,神奈川県,横浜市金沢区,並木３丁目７番４－４０１号,,14,108,2360005,,,,,,,2022-09-28,1,,,,,ヒケアス,0
349,2021001077016,新規,0,2022-09-28,2022-09-28,株式会社龍堂,,株式会社,神奈川県,相模原市南区,大野台５丁目１６－１１ロワイヤルＭ２－１０３,,14,153,2520331,,,,,,,2022-09-28,1,,,,,リュウドウ,0
350,2021005012621,新規,0,2022-09-28,2022-09-28,一般社団法人クロスチャーチ横須賀,,その他の設立登記法人,神奈川県,横須賀市,小川町２１番８号エリカオリエントマンション３０３号室,,14,201,2380004,,,,,,,2022-09-28,1,,,,,クロスチャーチヨコスカ,0
359,2030001150236,新規,0,2022-09-28,2022-09-28,株式会社ノグチ,,株式会社,埼玉県,新座市,あたご３丁目９番１２号,,11,230,3520021,,,,,,,2022-09-28,1,,,,,ノグチ,0
360,2030001150244,新規,0,2022-09-28,2022-09-28,株式会社マナベ,,株式会社,埼玉県,深谷市,武蔵野３３４７番地,,11,218,3691241,,,,,,,2022-09-28,1,,,,,マナベ,0
377,2060003004247,新規,0,2022-09-28,2022-09-28,ＤＲＥＡＭ　ＬＡＮＫＡ合同会社,,合同会社,栃木県,佐野市,小中町２９８番地１,,09,204,3270001,,,,,,,2022-09-28,1,,,,,ドリームランカ,0
392,2100001035727,新規,0,2022-09-28,2022-09-28,株式会社Ｗ‐ＢＡＳＥ,,株式会社,長野県,長野市,篠ノ井岡田１３５２番地３,,20,201,3812225,,,,,,,2022-09-28,1,,,,,ダブルベース,0
410,2120001249044,新規,0,2022-09-28,2022-09-28,濯羽株式会社,,株式会社,大阪府,大阪市西淀川区,大和田４丁目７－３０朝日プラザ千船６０２号室,,27,113,5550032,,,,,,,2022-09-28,1,,,,,タクウ,0
411,2120001249085,新規,0,2022-09-28,2022-09-28,株式会社ＴｈｒｉｖｅＷｉｎｇ,,株式会社,大阪府,大阪市西淀川区,歌島１丁目１６番２号,,27,113,5550021,,,,,,,2022-09-28,1,,,,,スライヴウイング,0
412,2120001249102,新規,0,2022-09-28,2022-09-28,清＿株式会社,00127948,株式会社,大阪府,大阪市住之江区,西加賀屋４丁目７－２３ベルコモンズ西加賀屋３０１号室,,27,125,5590016,,,,,,,2022-09-28,1,,,,,セイシ,0
416,2120003022548,新規,0,2022-09-28,2022-09-28,合同会社ＩＰＥＬ,,合同会社,大阪府,大阪市淀川区,西中島７丁目１番２９号,,27,123,5320011,,,,,,,2022-09-28,1,,,,,アイペル,0
418,2120101066257,新規,0,2022-09-28,2022-09-28,株式会社タケモト,,株式会社,大阪府,堺市北区,北長尾町３丁５番１３号,,27,146,5918043,,,,,,,2022-09-28,1,,,,,タケモト,0
419,2122001036265,新規,0,2022-09-28,2022-09-28,株式会社Ｆｉｚｚ,,株式会社,大阪府,大東市,大野２丁目４番６号,,27,218,5740042,,,,,,,2022-09-28,1,,,,,フィズ,0
422,2130001072676,新規,0,2022-09-28,2022-09-28,株式会社ＮＯＲＩＫＯエンタープライズ,,株式会社,京都府,京都市中京区,堺町通三条下る道祐町１４８番地Ｔｒｅｃｃｉａ堺町３０１,,26,104,6048118,,,,,,,2022-09-28,1,,,,,ノリコエンタープライズ,0
423,2130001072692,新規,0,2022-09-28,2022-09-28,株式会社吉村建鉄,,株式会社,京都府,木津川市,山城町椿井北代６８番地,,26,214,6190205,,,,,,,2022-09-28,1,,,,,ヨシムラケンテツ,0
428,2140001127454,新規,0,2022-09-28,2022-09-28,株式会社ナオハウジング,,株式会社,兵庫県,丹波篠山市,杉７４番地５,,28,221,6692204,,,,,,,2022-09-28,1,,,,,ナオハウジング,0
429,2140001127462,新規,0,2022-09-28,2022-09-28,ワットエバー株式会社,,株式会社,兵庫県,姫路市,栗山町１４５番地１,,28,201,6700954,,,,,,,2022-09-28,1,,,,,ワットエバー,0
431,2140005026322,新規,0,2022-09-28,2022-09-28,一般社団法人桜ラボ,,その他の設立登記法人,兵庫県,明石市,岬町２８－１２,,28,203,6730895,,,,,,,2022-09-28,1,,,,,サクララボ,0
435,2160003002678,新規,0,2022-09-28,2022-09-28,ひかり合同会社,,合同会社,滋賀県,彦根市,銀座町５番２号,,25,202,5220088,,,,,,,2022-09-28,1,,,,,ヒカリ,0
447,2200001040469,新規,0,2022-09-28,2022-09-28,株式会社愛真,,株式会社,岐阜県,瑞穂市,古橋１４８２番地８,,21,216,5010322,,,,,,,2022-09-28,1,,,,,アイシン,0
448,2200003005684,新規,0,2022-09-28,2022-09-28,Ｅ８合同会社,,合同会社,岐阜県,揖斐郡池田町,六之井１８８０番地の２４,,21,404,5032425,,,,,,,2022-09-28,1,,,,,イーエイト,0
461,2250001019780,新規,0,2022-09-28,2022-09-28,マインド株式会社,,株式会社,山口県,周南市,五月町１０番５４号,,35,215,7450811,,,,,,,2022-09-28,1,,,,,マインド,0
463,2270003001446,新規,0,2022-09-28,2022-09-28,合同会社Ｏ．Ｋ．Ｕ　ＮＥＸＴ,,合同会社,鳥取県,西伯郡伯耆町,岩屋谷３１８番地,,31,390,6894123,,,,,,,2022-09-28,1,,,,,オーケーユーネクスト,0
464,2280003001651,新規,0,2022-09-28,2022-09-28,ドローンヤマダ合同会社,,合同会社,島根県,浜田市,片庭町８６番地１４（１６７）,,32,202,6970041,,,,,,,2022-09-28,1,,,,,,0
469,2320001019344,新規,0,2022-09-28,2022-09-28,ＢＯＰＡ株式会社,,株式会社,大分県,大分市,府内町３丁目４－２０大分恒和ビル４階,,44,201,8700021,,,,,,,2022-09-28,1,,,,,ボパ,0
471,2330001030135,新規,0,2022-09-28,2022-09-28,株式会社ｂｉｂｉ,,株式会社,熊本県,熊本市南区,御幸笛田１丁目１４番３号,,43,104,8614172,,,,,,,2022-09-28,1,,,,,ビビ,0
473,2340001025051,新規,0,2022-09-28,2022-09-28,翔栄工業株式会社,,株式会社,鹿児島県,鹿屋市,田淵町７４－６,,46,203,8930045,,,,,,,2022-09-28,1,,,,,ショウエイコウギョウ,0
475,2360001030999,新規,0,2022-09-28,2022-09-28,株式会社ククルプランニング,,株式会社,沖縄県,宜野湾市,普天間２丁目１１番８－３０２号ククル,,47,205,9012202,,,,,,,2022-09-28,1,,,,,ククルプランニング,0
479,2380001033133,新規,0,2022-09-28,2022-09-28,イトマキ建築株式会社,,株式会社,福島県,福島市,松川町沼袋字浜子２１２番地,,07,201,9601231,,,,,,,2022-09-28,1,,,,,イトマキケンチク,0
481,2380003005279,新規,0,2022-09-28,2022-09-28,合同会社ＭＩＮＨ　ＴＡＭ,,合同会社,福島県,いわき市,平北白土字宮前７１－７,,07,204,9708024,,,,,,,2022-09-28,1,,,,,ミンタム,0
491,2430001087537,新規,0,2022-09-28,2022-09-28,株式会社ＳＥＣＯＮＤ　ＩＮＮＯＶＡＴＩＯＮ,,株式会社,北海道,札幌市中央区,南五条西１３丁目１番２７－２０５号,,01,101,0640805,,,,,,,2022-09-28,1,,,,,セカンドイノベーション,0
501,2470001019271,新規,0,2022-09-28,2022-09-28,岩崎興産株式会社,,株式会社,香川県,丸亀市,川西町南１５０９番地,,37,202,7630092,,,,,,,2022-09-28,1,,,,,イワサキコウサン,0
522,3010003038728,新規,0,2022-09-28,2022-09-28,ＮＥＲＧＡＬ合同会社,,合同会社,東京都,中央区,銀座１丁目１２番４号Ｎ＆ＥＢＬＤ．７階,,13,102,1040061,,,,,,,2022-09-28,1,,,,,ネルガル,0
523,3010003038744,新規,0,2022-09-28,2022-09-28,自然美合同会社,,合同会社,東京都,文京区,本駒込４丁目３３番４号,,13,105,1130021,,,,,,,2022-09-28,1,,,,,シゼンビ,0
529,3010005035599,新規,0,2022-09-28,2022-09-28,一般社団法人日本臨床培養上清研究会,,その他の設立登記法人,東京都,文京区,本郷３丁目４２－１－３Ｆ,,13,105,1130033,,,,,,,2022-09-28,1,,,,,ニホンリンショウバイヨウジョウセイケンキュウカイ,0
538,3010401169827,新規,0,2022-09-28,2022-09-28,東山隼株式会社,,株式会社,東京都,港区,三田１丁目３－４０－４０１号室,,13,103,1080073,,,,,,,2022-09-28,1,,,,,ヒガシヤマジュン,0
539,3010401169901,新規,0,2022-09-28,2022-09-28,株式会社はちあわせプロダクション,,株式会社,東京都,港区,東新橋１丁目６－３汐留タワーＢＩＺｃｏｍｆｏｒｔ汐留２４Ｆ,,13,103,1050021,,,,,,,2022-09-28,1,,,,,ハチアワセプロダクション,0
547,3010801033293,新規,0,2022-09-28,2022-09-28,株式会社光芝電気,,株式会社,東京都,大田区,中央５丁目１９番１６号,,13,111,1430024,,,,,,,2022-09-28,1,,,,,ミツシバデンキ,0
549,3010901051666,新規,0,2022-09-28,2022-09-28,株式会社ＹＵＵＩ,,株式会社,東京都,世田谷区,弦巻２丁目５－１３,,13,112,1540016,,,,,,,2022-09-28,1,,,,,ユーイ,0
551,3010903007658,新規,0,2022-09-28,2022-09-28,合同会社弦,,合同会社,東京都,世田谷区,弦巻１丁目４８番６号,,13,112,1540016,,,,,,,2022-09-28,1,,,,,ゲン,0
558,3011001149979,新規,0,2022-09-28,2022-09-28,株式会社こぼんご,,株式会社,東京都,渋谷区,神宮前４丁目１９番１６－２０３号,,13,113,1500001,,,,,,,2022-09-28,1,,,,,コボンゴ,0
581,3012803002895,新規,0,2022-09-28,2022-09-28,合同会社ＰＵＲＥＮＥ,,合同会社,東京都,国立市,北３丁目１３番の７,,13,215,1860001,,,,,,,2022-09-28,1,,,,,ピューリーン,0
588,3020003022458,新規,0,2022-09-28,2022-09-28,合同会社ストーク,,合同会社,神奈川県,横浜市南区,永楽町２丁目１７番地服部ビル１Ｆ,,14,105,2320031,,,,,,,2022-09-28,1,,,,,ストーク,0
591,3021001077064,新規,0,2022-09-28,2022-09-28,株式会社ＫＤＳホールディングス,,株式会社,神奈川県,厚木市,三田１９５９番地,,14,212,2430211,,,,,,,2022-09-28,1,,,,,ケイディーエスホールディングス,0
594,3021003012176,新規,0,2022-09-28,2022-09-28,合同会社森丘商会,,合同会社,神奈川県,平塚市,千石河岸１０番１８号,,14,203,2540803,,,,,,,2022-09-28,1,,,,,モリオカショウカイ,0
600,3030001150094,新規,0,2022-09-28,2022-09-28,株式会社華成紡,,株式会社,埼玉県,富士見市,鶴馬３丁目２５番１３号,,11,235,3540021,,,,,,,2022-09-28,1,,,,,カセイボウ,0
601,3030001150219,新規,0,2022-09-28,2022-09-28,株式会社ＨＵＳＳＮＡＩＮ　ＴＲＡＤＩＮＧ,,株式会社,埼玉県,羽生市,大字藤井上組６９４番地１リトルアニマルＢ－１,,11,216,3480064,,,,,,,2022-09-28,1,,,,,ハスネイントレーディング,0
602,3030001150251,新規,0,2022-09-28,2022-09-28,株式会社昇花,,株式会社,埼玉県,川口市,大字西立野８２９番地の１,,11,203,3330813,,,,,,,2022-09-28,1,,,,,ショウカ,0
603,3030001150268,新規,0,2022-09-28,2022-09-28,株式会社Ｉ．Ｃ．Ｅ,,株式会社,埼玉県,所沢市,大字坂之下３２１番地の１,,11,208,3590012,,,,,,,2022-09-28,1,,,,,アイシーイー,0
608,3030003020270,新規,0,2022-09-28,2022-09-28,合同会社ＳＫＳサービス,,合同会社,埼玉県,春日部市,備後西１丁目１番４号,,11,214,3440033,,,,,,,2022-09-28,1,,,,,エスケーエスサービス,0
612,3040001125186,新規,0,2022-09-28,2022-09-28,株式会社ケンズクリエイト,,株式会社,千葉県,習志野市,本大久保１丁目９番８号,,12,216,2750012,,,,,,,2022-09-28,1,,,,,ケンズクリエイト,0
615,3040003020914,新規,0,2022-09-28,2022-09-28,合同会社ＭＨ　ＰＲＩＭＥ,,合同会社,千葉県,市川市,柏井町１丁目２２０３番地市川柏井第２県営住宅１棟４０６号,,12,203,2720802,,,,,,,2022-09-28,1,,,,,エムエイチプラス,0
621,3060001035292,新規,0,2022-09-28,2022-09-28,株式会社エイジェック・スマイル,,株式会社,栃木県,小山市,大字延島１０１９番地,,09,208,3230152,,,,,,,2022-09-28,1,,,,,エイジェックスマイル,0
627,3060003004246,新規,0,2022-09-28,2022-09-28,ＣＨＡＮＤＵ　ＥＮＴＥＲＰＲＩＳＥＳ合同会社,,合同会社,栃木県,佐野市,大橋町１０１５番地レインツリーハイツ１０１号室,,09,204,3270003,,,,,,,2022-09-28,1,,,,,チャンドゥエンタープライズ,0
630,3070001039672,新規,0,2022-09-28,2022-09-28,株式会社さくら設備,,株式会社,群馬県,高崎市,下大島町６８番地５,,10,202,3700886,,,,,,,2022-09-28,1,,,,,サクラセツビ,0
631,3080001025201,新規,0,2022-09-28,2022-09-28,ＫＲＴ株式会社,,株式会社,静岡県,静岡市葵区,瀬名川３丁目１７番２０－６号,,22,101,4200913,,,,,,,2022-09-28,1,,,,,ケーアールティー,0
635,3100003006700,新規,0,2022-09-28,2022-09-28,合同会社フォースプランズ,,合同会社,長野県,安曇野市,豊科南穂高４８７０,,20,220,3998201,,,,,,,2022-09-28,1,,,,,フォースプランズ,0
645,3120001249118,新規,0,2022-09-28,2022-09-28,カイシャイン株式会社,,株式会社,大阪府,大阪市西区,北堀江１丁目５－２,,27,106,5500014,,,,,,,2022-09-28,1,,,,,カイシャイン,0
647,3120003022522,新規,0,2022-09-28,2022-09-28,合同会社ジーニー,,合同会社,大阪府,大阪市淀川区,西中島３丁目１１番１４－７０２号,,27,123,5320011,,,,,,,2022-09-28,1,,,,,ジーニー,0
657,3122001036264,新規,0,2022-09-28,2022-09-28,株式会社レクス,,株式会社,大阪府,八尾市,東本町３丁目３番４－６０３号,,27,212,5810004,,,,,,,2022-09-28,1,,,,,レクス,0
660,3130001072659,新規,0,2022-09-28,2022-09-28,株式会社シンスマート,,株式会社,京都府,京都市東山区,五条橋東２丁目１８番地１五建ビル３Ｆ－Ｂ,,26,105,6050846,,,,,,,2022-09-28,1,,,,,シンスマート,0
661,3130001072667,新規,0,2022-09-28,2022-09-28,承世藝術株式会社,,株式会社,京都府,京都市南区,猪熊通八条上る戒光寺町１８３番地４－１０１,,26,107,6018406,,,,,,,2022-09-28,1,,,,,ショウヨゲイジュツ,0
662,3130001072675,新規,0,2022-09-28,2022-09-28,株式会社ＢＵＧ,,株式会社,京都府,京都市山科区,東野森野町２３－１６,,26,110,6078147,,,,,,,2022-09-28,1,,,,,バグ,0
663,3130001072683,新規,0,2022-09-28,2022-09-28,依山堂株式会社,,株式会社,京都府,京都市中京区,西洞院通姉小路下る姉西洞院町５２１ライオンズマンション京都三条第２－１０２,,26,104,6048273,,,,,,,2022-09-28,1,,,,,イサンドウ,0
666,3130003008181,新規,0,2022-09-28,2022-09-28,サイアス合同会社,,合同会社,京都府,京都市左京区,吉田下阿達町４６番地２９,,26,103,6068304,,,,,,,2022-09-28,1,,,,,サイアス,0
676,3140001127437,新規,0,2022-09-28,2022-09-28,Ｇ・Ｃ・Ａ株式会社,,株式会社,兵庫県,姫路市,御立東２丁目３０番１６号,,28,201,6700072,,,,,,,2022-09-28,1,,,,,ジィーシーエー,0
677,3140001127453,新規,0,2022-09-28,2022-09-28,グッドユニサービス株式会社,,株式会社,兵庫県,神崎郡福崎町,福田３３６番地１,,28,443,6792212,,,,,,,2022-09-28,1,,,,,グッドユニサービス,0
678,3140001127461,新規,0,2022-09-28,2022-09-28,株式会社Ｌｉｎａｔｙ,,株式会社,兵庫県,神戸市北区,藤原台中町７丁目１１番１２号,,28,109,6511302,,,,,,,2022-09-28,1,,,,,リナティ,0
679,3140001127478,新規,0,2022-09-28,2022-09-28,Ｄ‐ｓｔｙｌｅ株式会社,,株式会社,兵庫県,尼崎市,武庫元町１丁目９番１２－１号,,28,202,6610043,,,,,,,2022-09-28,1,,,,,ディースタイル,0
687,3170001017288,新規,0,2022-09-28,2022-09-28,クレインタートル株式会社,,株式会社,和歌山県,田辺市,湊３２番２１号,,30,206,6460031,,,,,,,2022-09-28,1,,,,,クレインタートル,0
695,3180003024307,新規,0,2022-09-28,2022-09-28,Ｓｈｉｐ＆Ｇｒｏｕｎｄ合同会社,,合同会社,愛知県,名古屋市千種区,東山通１丁目３０番地９号,,23,101,4640807,,,,,,,2022-09-28,1,,,,,シップアンドグラウンド,0
726,3300005007098,新規,0,2022-09-28,2022-09-28,特定非営利活動法人ココマム,,その他の設立登記法人,佐賀県,鳥栖市,弥生が丘２丁目２１２番地,,41,203,8410005,,,,,,,2022-09-28,1,,,,,ココマム,0
727,3310001018032,新規,0,2022-09-28,2022-09-28,株式会社雲仙ワークス,,株式会社,長崎県,雲仙市,小浜町雲仙３８０番地,,42,213,8540621,,,,,,,2022-09-28,1,,,,,ウンゼンワークス,0
729,3310003004451,新規,0,2022-09-28,2022-09-28,吉田農園まほら合同会社,,合同会社,長崎県,雲仙市,国見町多比良甲４９３,,42,213,8591321,,,,,,,2022-09-28,1,,,,,ヨシダノウエンマホラ,0
732,3360001030998,新規,0,2022-09-28,2022-09-28,株式会社Ｌｉｎｋ５８,,株式会社,沖縄県,宜野湾市,野嵩２丁目６番１３－２０１号,,47,205,9012203,,,,,,,2022-09-28,1,,,,,リンクゴジュウハチ,0
743,3390003002002,新規,0,2022-09-28,2022-09-28,オノキ合同会社,,合同会社,山形県,酒田市,中町３丁目４番１０‐１００１号ウェルシティ中町,,06,204,9980044,,,,,,,2022-09-28,1,,,,,オノキ,0
752,3430001087536,新規,0,2022-09-28,2022-09-28,株式会社Ｊ．Ｆａｃｔｏｒｙ,,株式会社,北海道,札幌市豊平区,美園九条１丁目３番２２号,,01,105,0620009,,,,,,,2022-09-28,1,,,,,ジェイファクトリー,0
757,3430003014307,新規,0,2022-09-28,2022-09-28,合同会社Ｌａｕ　ｌｉ’ｉｌｉ’ｉ,,合同会社,北海道,石狩市,厚田区望来４１４番地１,,01,235,0613523,,,,,,,2022-09-28,1,,,,,ラウリィリィ,0
758,3430005014569,新規,0,2022-09-28,2022-09-28,一般社団法人結び,,その他の設立登記法人,北海道,札幌市西区,発寒六条１２丁目４番４４号シンフォニカ・スクエア１階,,01,107,0630826,,,,,,,2022-09-28,1,,,,,ムスビ,0
776,4010001229765,新規,0,2022-09-28,2022-09-28,墨嵐堂株式会社,,株式会社,東京都,千代田区,神田神保町１丁目１５内山ビル５階,,13,101,1010051,,,,,,,2022-09-28,1,,,,,ボクランドウ,0
783,4010401169850,新規,0,2022-09-28,2022-09-28,株式会社安全保障産業強化機構,,株式会社,東京都,港区,白金台５丁目２２番１２号,,13,103,1080071,,,,,,,2022-09-28,1,,,,,アンゼンホショウサンギョウキョウカキコウ,0
784,4010401169883,新規,0,2022-09-28,2022-09-28,株式会社かけふ,,株式会社,東京都,港区,浜松町２丁目２番１５号浜松町ダイヤビル２Ｆ,,13,103,1050013,,,,,,,2022-09-28,1,,,,,カケフ,0
787,4010403028559,新規,0,2022-09-28,2022-09-28,合同会社プレジール,,合同会社,東京都,港区,芝浦４丁目２０番２－３２０６号,,13,103,1080023,,,,,,,2022-09-28,1,,,,,プレジール,0
788,4010403028567,新規,0,2022-09-28,2022-09-28,合同会社ＦＬＫ　Ｏｃｅａｎ１,,合同会社,東京都,港区,南青山６丁目５－３６キングホームズ青山３３,,13,103,1070062,,,,,,,2022-09-28,1,,,,,エフエルケーオーシャンワン,0
791,4010405021388,新規,0,2022-09-28,2022-09-28,一般社団法人ＧＥＮ　Ｊａｐａｎ,,その他の設立登記法人,東京都,港区,高輪４丁目２４番５５号,,13,103,1080074,,,,,,,2022-09-28,1,,,,,ジェンジャパン,0
793,4010501049416,新規,0,2022-09-28,2022-09-28,サーベイコム株式会社,,株式会社,東京都,台東区,浅草橋１丁目１９－１祥松ビル４Ｆ,,13,106,1110053,,,,,,,2022-09-28,1,,,,,サーベイコム,0
806,4011001149929,新規,0,2022-09-28,2022-09-28,株式会社黒佐コーポレーション,,株式会社,東京都,渋谷区,恵比寿２丁目２６番２号,,13,113,1500013,,,,,,,2022-09-28,1,,,,,クロサコーポレーション,0
815,4011203003917,新規,0,2022-09-28,2022-09-28,ＵＴＡＵ‐ＡＣＥ合同会社,,合同会社,東京都,中野区,本町４丁目４４番１３号西京城西ビル５１,,13,114,1640012,,,,,,,2022-09-28,1,,,,,ウタウアス,0
834,4020003022457,新規,0,2022-09-28,2022-09-28,合同会社くま書店,,合同会社,神奈川県,横浜市中区,山下町８６番地１,,14,104,2310023,,,,,,,2022-09-28,1,,,,,クマショテン,0
839,4021001077063,新規,0,2022-09-28,2022-09-28,株式会社ＴＡＳＵＫＵ,,株式会社,神奈川県,鎌倉市,大船１丁目１１番２３号上木ビル５Ｆ,,14,204,2470056,,,,,,,2022-09-28,1,,,,,タスク,0
847,4030001150176,新規,0,2022-09-28,2022-09-28,株式会社ブルマーレ,,株式会社,埼玉県,さいたま市緑区,太田窪１丁目１４－１６,,11,109,3360936,,,,,,,2022-09-28,1,,,,,ブルマーレ,0
848,4030001150218,新規,0,2022-09-28,2022-09-28,株式会社アザムグローバル,,株式会社,埼玉県,春日部市,西金野井１９０４番地１８コーポラス２１－１０２,,11,214,3440112,,,,,,,2022-09-28,1,,,,,アザムグローバル,0
849,4030001150242,新規,0,2022-09-28,2022-09-28,株式会社ＷＨＡ,,株式会社,埼玉県,さいたま市緑区,大字中尾７１７－５,,11,109,3360932,,,,,,,2022-09-28,1,,,,,ワ,0
853,4030003020146,新規,0,2022-09-28,2022-09-28,ＩＰＧ合同会社,,合同会社,埼玉県,川口市,上青木１丁目６番１９号,,11,203,3330844,,,,,,,2022-09-28,1,,,,,アイピージー,0
874,4080001025200,新規,0,2022-09-28,2022-09-28,株式会社静岡オートヘルパー,,株式会社,静岡県,静岡市駿河区,国吉田２丁目４番５３号,,22,102,4228004,,,,,,,2022-09-28,1,,,,,シズオカオートヘルパー,0
875,4080103002659,新規,0,2022-09-28,2022-09-28,合同会社Ｓａｎｄｙ　Ｆｅｅｔ　Ｐａｒｔｎｅｒｓ,,合同会社,静岡県,下田市,白浜２３５６番地の１０,,22,219,4150012,,,,,,,2022-09-28,1,,,,,サンディフィートパートナーズ,0
878,4100001035725,新規,0,2022-09-28,2022-09-28,ジークラウス株式会社,,株式会社,長野県,佐久市,佐久平駅東１３番地２,,20,217,3850028,,,,,,,2022-09-28,1,,,,,ジークラウス,0
891,4120001249075,新規,0,2022-09-28,2022-09-28,宸持株式会社,,株式会社,大阪府,大阪市旭区,清水１丁目１２番１４号モデラート千林３０１号室,,27,117,5350021,,,,,,,2022-09-28,1,,,,,シンジ,0
892,4120001249091,新規,0,2022-09-28,2022-09-28,日本朔方国際貿易株式会社,,株式会社,大阪府,大阪市東淀川区,豊新５丁目６番３－３０２号,,27,114,5330014,,,,,,,2022-09-28,1,,,,,ニホンサクホウコクサイボウエキ,0
893,4120001249100,新規,0,2022-09-28,2022-09-28,ねいろ株式会社,,株式会社,大阪府,大阪市住之江区,東加賀屋１丁目１番４号稲垣第３ビル４０２,,27,125,5590012,,,,,,,2022-09-28,1,,,,,ネイロ,0
894,4120003022554,新規,0,2022-09-28,2022-09-28,清禾合同会社,,合同会社,大阪府,大阪市此花区,梅香１丁目１９番１２号ボンジュール梅香３０２号室,,27,104,5540013,,,,,,,2022-09-28,1,,,,,セイカ,0
895,4120005023204,新規,0,2022-09-28,2022-09-28,一般社団法人おひとりさまあんしんサポート,,その他の設立登記法人,大阪府,大阪市中央区,高麗橋４丁目４番６号高麗橋ビル８階,,27,128,5410043,,,,,,,2022-09-28,1,,,,,オヒトリサマアンシンサポート,0
901,4122003002420,新規,0,2022-09-28,2022-09-28,Ｙｌｌｍｉｅｒａ合同会社,,合同会社,大阪府,大東市,灰塚５丁目６番８号,,27,218,5740043,,,,,,,2022-09-28,1,,,,,ユールミエラ,0
903,4130001072674,新規,0,2022-09-28,2022-09-28,満瀬設備工業株式会社,,株式会社,京都府,京都市伏見区,醍醐外山街道町７番地４１,,26,109,6011345,,,,,,,2022-09-28,1,,,,,ミツセセツビコウギョウ,0
904,4130001072682,新規,0,2022-09-28,2022-09-28,株式会社ソルナクレイル,,株式会社,京都府,京都市下京区,花屋町通櫛笥西入薬園町１６５番地、島原会館,,26,106,6008823,,,,,,,2022-09-28,1,,,,,ソルナクレイル,0
906,4130005016586,新規,0,2022-09-28,2022-09-28,特定非営利活動法人ＴＰＯ５,,その他の設立登記法人,京都府,京都市下京区,河原町通七条下る材木町４６３－３,,26,106,6008146,,,,,,,2022-09-28,1,,,,,ティピオファイブ,0
908,4140001127436,新規,0,2022-09-28,2022-09-28,株式会社Ｔａｉｌｏｒ,,株式会社,兵庫県,神戸市垂水区,星陵台４丁目３番４５－２２６号,,28,108,6550038,,,,,,,2022-09-28,1,,,,,テーラー,0
927,4180001153131,新規,0,2022-09-28,2022-09-28,ＡＲＵＫＵＫＩ株式会社,,株式会社,愛知県,名古屋市名東区,香流１丁目５１９番地の２,,23,115,4650005,,,,,,,2022-09-28,1,,,,,アルクキ,0
929,4180003024280,新規,0,2022-09-28,2022-09-28,合同会社未踏未達,,合同会社,愛知県,名古屋市港区,秋葉１丁目１８１番地の４３,,23,111,4550857,,,,,,,2022-09-28,1,,,,,ミトウミタツ,0
930,4180003024297,新規,0,2022-09-28,2022-09-28,ＳＱＵＡＲＥｔｏＣＩＲＣＬＥ合同会社,,合同会社,愛知県,名古屋市千種区,小松町７丁目２５番地,,23,101,4640853,,,,,,,2022-09-28,1,,,,,スクエアトゥサークル,0
952,4240005015461,新規,0,2022-09-28,2022-09-28,宗教法人教安寺,,その他の設立登記法人,広島県,広島市西区,田方２丁目２０番１号,,34,104,7330851,,,,,,,2022-09-28,1,,,,,キョウアンジ,0
953,4250001019779,新規,0,2022-09-28,2022-09-28,株式会社ＴＥＫ,,株式会社,山口県,防府市,警固町２丁目２番１７号,,35,206,7470821,,,,,,,2022-09-28,1,,,,,テック,0
955,4260003004043,新規,0,2022-09-28,2022-09-28,ＳＴＩＬＬ合同会社,,合同会社,岡山県,岡山市北区,柳町２丁目１１番２０号ダイトクビル２階,,33,101,7000904,,,,,,,2022-09-28,1,,,,,スティル,0
956,4270001008631,新規,0,2022-09-28,2022-09-28,株式会社たかうな,,株式会社,鳥取県,東伯郡琴浦町,大字下伊勢５２７番地６,,31,371,6892316,,,,,,,2022-09-28,1,,,,,タカウナ,0
960,4290001099000,新規,0,2022-09-28,2022-09-28,モビリティアシスト株式会社,,株式会社,福岡県,福岡市中央区,鳥飼１丁目４番４２号第７共立ビル１Ｆ,,40,133,8100053,,,,,,,2022-09-28,1,,,,,モビリティアシスト,0
969,4310003004450,新規,0,2022-09-28,2022-09-28,合同会社ばらかボルダリング,,合同会社,長崎県,五島市,大荒町１７９９－８,,42,211,8530032,,,,,,,2022-09-28,1,,,,,バラカボルダリング,0
983,4420003002583,新規,0,2022-09-28,2022-09-28,ｉｉｏ合同会社,,合同会社,青森県,弘前市,大字小比内１丁目３番地８,,02,202,0368102,,,,,,,2022-09-28,1,,,,,イイオー,0
990,4430001087543,新規,0,2022-09-28,2022-09-28,株式会社優心,,株式会社,北海道,苫小牧市,ときわ町１丁目９番２号,,01,213,0591261,,,,,,,2022-09-28,1,,,,,ユウシン,0
995,4430003014314,新規,0,2022-09-28,2022-09-28,合同会社サンチケット,,合同会社,北海道,札幌市中央区,南七条西２４丁目２番１６－１０２号,,01,101,0640807,,,,,,,2022-09-28,1,,,,,サンチケット,0
996,4460001005733,新規,0,2022-09-28,2022-09-28,ＫＥＮＳＯ株式会社,,株式会社,北海道,釧路市,文苑１丁目１８番１２号,,01,206,0850063,,,,,,,2022-09-28,1,,,,,ケンソー,0
1023,5010401169899,新規,0,2022-09-28,2022-09-28,株式会社Ｓ．Ｓ　ｃｏｍｐａｎｙ,,株式会社,東京都,港区,六本木４丁目８番３号日栄ビル３階,,13,103,1060032,,,,,,,2022-09-28,1,,,,,エスエスカンパニー,0
1026,5010403028566,新規,0,2022-09-28,2022-09-28,西山風力合同会社,,合同会社,東京都,港区,虎ノ門２丁目１０番４号オークラプレステージタワー,,13,103,1050001,,,,,,,2022-09-28,1,,,,,ニシヤマフウリョク,0
1032,5010501049415,新規,0,2022-09-28,2022-09-28,株式会社花川戸ホテルマネジメント,,株式会社,東京都,台東区,花川戸１丁目１５番５号,,13,106,1110033,,,,,,,2022-09-28,1,,,,,ハナカワドホテルマネジメント,0
1034,5010801033291,新規,0,2022-09-28,2022-09-28,岩本エンタープライズ株式会社,,株式会社,東京都,大田区,中馬込３丁目４番１１号,,13,111,1430027,,,,,,,2022-09-28,1,,,,,イワモトエンタープライズ,0
1046,5011001149969,新規,0,2022-09-28,2022-09-28,株式会社ＤＵＵ,,株式会社,東京都,渋谷区,渋谷２丁目１９－１５宮益坂ビルディング６０９,,13,113,1500002,,,,,,,2022-09-28,1,,,,,ドゥ,0
1047,5011001149985,新規,0,2022-09-28,2022-09-28,株式会社オルトクラウド,,株式会社,東京都,目黒区,中目黒４丁目８－５,,13,110,1530061,,,,,,,2022-09-28,1,,,,,オルト,0
1051,5011003015418,新規,0,2022-09-28,2022-09-28,合同会社ひまわり公園,,合同会社,東京都,目黒区,上目黒１丁目２６番１号,,13,110,1530051,,,,,,,2022-09-28,1,,,,,ヒマワリコウエン,0
1053,5011101100294,新規,0,2022-09-28,2022-09-28,株式会社ＧＩＶＥＲ,,株式会社,東京都,新宿区,高田馬場１丁目３２番地１０号,,13,104,1690075,,,,,,,2022-09-28,1,,,,,ギバー,0
1054,5011101100311,新規,0,2022-09-28,2022-09-28,株式会社Ｋｕｄａｓａｉ,,株式会社,東京都,新宿区,西新宿３丁目３番１３号西新宿水間ビル２Ｆ,,13,104,1600023,,,,,,,2022-09-28,1,,,,,クダサイ,0
1055,5011103012190,新規,0,2022-09-28,2022-09-28,合同会社Ｇｏｏｎｅｒ,,合同会社,東京都,新宿区,西新宿３丁目３番１３号西新宿水間ビル６Ｆ,,13,104,1600023,,,,,,,2022-09-28,1,,,,,グーナー,0
1059,5011203003916,新規,0,2022-09-28,2022-09-28,合同会社ＭＡＮＡ　Ｆｒｏｎｔｉｅｒ　Ｈｏｌｄｉｎｇｓ,,合同会社,東京都,中野区,鷺宮４丁目３１番２号,,13,114,1650032,,,,,,,2022-09-28,1,,,,,マナフロンティアホールディングス,0
1062,5011701025643,新規,0,2022-09-28,2022-09-28,株式会社Ｎｅｗ　ｗｉｎｇｓ,,株式会社,東京都,江戸川区,南小岩１丁目１４番９号,,13,123,1330056,,,,,,,2022-09-28,1,,,,,ニューウィングス,0
1078,5020001148303,新規,0,2022-09-28,2022-09-28,株式会社ＬＩＮＫ,,株式会社,神奈川県,横浜市都筑区,勝田南２丁目４番８号,,14,118,2240036,,,,,,,2022-09-28,1,,,,,リンク,0
1079,5020001148311,新規,0,2022-09-28,2022-09-28,株式会社蒙星影業,,株式会社,神奈川県,川崎市川崎区,小川町１６－１７ＭＦプラザ５０５,,14,131,2100023,,,,,,,2022-09-28,1,,,,,モウセイエイギョウ,0
1083,5020003022456,新規,0,2022-09-28,2022-09-28,合同会社ＥＰＫＯＴ,,合同会社,神奈川県,川崎市多摩区,枡形３丁目３番２号,,14,135,2140032,,,,,,,2022-09-28,1,,,,,エプコット,0
1084,5020003022464,新規,0,2022-09-28,2022-09-28,合同会社Ｏｌｉｖｅ個別学院,,合同会社,神奈川県,横浜市戸塚区,戸塚町３５０７番地４５,,14,110,2440003,,,,,,,2022-09-28,1,,,,,オリーブコベツガクイン,0
1085,5020005015672,新規,0,2022-09-28,2022-09-28,一般社団法人ＳＡＶＥ　ＯＵＲ　ＢＥＡＵＴＩＦＵＬ　ＯＣＥＡＮ,,その他の設立登記法人,神奈川県,横浜市西区,みなとみらい２丁目２番１号横浜ランドマークタワー１０Ｆ,,14,103,2200012,,,,,,,2022-09-28,1,,,,,セーブアワービューティフルオーシャン,0
1093,5030001150217,新規,0,2022-09-28,2022-09-28,株式会社大谷サービス,,株式会社,埼玉県,東松山市,大字大谷３１４１－１,,11,212,3550008,,,,,,,2022-09-28,1,,,,,オオヤサービス,0
1096,5030003020252,新規,0,2022-09-28,2022-09-28,ＡＺＥＥＭ　ＴＲＡＤＩＮＧ合同会社,,合同会社,埼玉県,幸手市,大字下川崎５７０番地１７,,11,240,3400162,,,,,,,2022-09-28,1,,,,,アジイムトレーディング,0
1097,5030003020260,新規,0,2022-09-28,2022-09-28,ファンカレロ合同会社,,合同会社,埼玉県,和光市,白子２丁目１７番７１号,,11,229,3510101,,,,,,,2022-09-28,1,,,,,ファンカレロ,0
1098,5030003020269,新規,0,2022-09-28,2022-09-28,合同会社とらきち,,合同会社,埼玉県,桶川市,西２丁目６番１６号,,11,231,3630017,,,,,,,2022-09-28,1,,,,,トラキチ,0
1099,5030003020285,新規,0,2022-09-28,2022-09-28,合同会社ピーチ・ブラッサム,,合同会社,埼玉県,さいたま市緑区,宮本１丁目１５番地４,,11,109,3360916,,,,,,,2022-09-28,1,,,,,ピーチブラッサム,0
1108,5040003020870,新規,0,2022-09-28,2022-09-28,ＹＬＩ合同会社,,合同会社,千葉県,我孫子市,青山台３丁目９番９号,,12,222,2701175,,,,,,,2022-09-28,1,,,,,ワイエルアイ,0
1111,5040005021743,新規,0,2022-09-28,2022-09-28,特定非営利活動法人コネクト９９,,その他の設立登記法人,千葉県,山武郡九十九里町,小関８４２番地,,12,403,2830102,,,,,,,2022-09-28,1,,,,,コネクトキュウジュウキュウ,0
1115,5060001035290,新規,0,2022-09-28,2022-09-28,株式会社ＳＡＮＫＡ　ＴＲＡＤＥＲＳ　ＩＮＴＥＲＮＡＴＩＯＮＡＬ,,株式会社,栃木県,栃木市,藤岡町甲４７６番地１,,09,203,3231105,,,,,,,2022-09-28,1,,,,,サンカトレーダーズインターナショナル,0
1118,5070001039670,新規,0,2022-09-28,2022-09-28,株式会社大川織物,,株式会社,群馬県,みどり市,大間々町大間々２０６６番地３５,,10,212,3760101,,,,,,,2022-09-28,1,,,,,オオカワオリモノ,0
1120,5080001025199,新規,0,2022-09-28,2022-09-28,ＦｉｒｓｔＧｌａｓｓ株式会社,,株式会社,静岡県,静岡市葵区,内牧１６９８番地の２,,22,101,4212118,,,,,,,2022-09-28,1,,,,,ファーストグラス,0
1140,5120001249090,新規,0,2022-09-28,2022-09-28,株式会社Ｋ‐ｓｔｙｌｅ,,株式会社,大阪府,大阪市北区,万歳町３番３９－３１０号,,27,127,5300028,,,,,,,2022-09-28,1,,,,,ケースタイル,0
1141,5120001249132,新規,0,2022-09-28,2022-09-28,株式会社スリーエスホーム,,株式会社,大阪府,大阪市中央区,東心斎橋１丁目７番３２号坂本ビル３階,,27,128,5420083,,,,,,,2022-09-28,1,,,,,スリーエスホーム,0
1144,5120003022553,新規,0,2022-09-28,2022-09-28,ＳＥＮＡ　ＦＯＲＥＳＴ合同会社,,合同会社,大阪府,大阪市東住吉区,桑津１丁目３１番１８号,,27,121,5460041,,,,,,,2022-09-28,1,,,,,セナフォレスト,0
1147,5120101066270,新規,0,2022-09-28,2022-09-28,株式会社ＴＳグローバル,,株式会社,大阪府,堺市中区,深井清水町３５４９番地,,27,142,5998273,,,,,,,2022-09-28,1,,,,,ティエスグローバル,0
1149,5122001036262,新規,0,2022-09-28,2022-09-28,株式会社アート,,株式会社,大阪府,東大阪市,御厨東２丁目１１－５３,,27,227,5770033,,,,,,,2022-09-28,1,,,,,アート,0
1155,5130003008188,新規,0,2022-09-28,2022-09-28,合同会社メゾン・ド・柿崎,,合同会社,京都府,京都市山科区,北花山山田町８７番地１,,26,110,6078472,,,,,,,2022-09-28,1,,,,,メゾンドカキザキ,0
1175,5180001153147,新規,0,2022-09-28,2022-09-28,株式会社スパークルエース,,株式会社,愛知県,名古屋市緑区,太子１丁目２５１番地,,23,114,4580823,,,,,,,2022-09-28,1,,,,,スパークルエース,0
1189,5230001019532,新規,0,2022-09-28,2022-09-28,株式会社ｂｉｒｎｅｓｔ,,株式会社,富山県,高岡市,新横町１０４６番地３,,16,202,9330035,,,,,,,2022-09-28,1,,,,,バーネスト,0
1210,5340005009510,新規,0,2022-09-28,2022-09-28,医療法人愛悠このはな会,,その他の設立登記法人,鹿児島県,南さつま市,金峰町新山字小中原２０４５番２,,46,220,8993514,,,,,,,2022-09-28,1,,,,,アイユウコノハナカイ,0
1212,5360001030996,新規,0,2022-09-28,2022-09-28,ｓｐｉｒｉｔ　ｔｅｃｈ株式会社,,株式会社,沖縄県,那覇市,松尾２丁目１９番２８号,,47,201,9000014,,,,,,,2022-09-28,1,,,,,スピリットテック,0
1217,5370003005839,新規,0,2022-09-28,2022-09-28,合同会社ルースンモア,,合同会社,宮城県,黒川郡大和町,もみじケ丘２丁目１３番地の１８,,04,421,9813622,,,,,,,2022-09-28,1,,,,,ルースンモア,0
1225,5410001013285,新規,0,2022-09-28,2022-09-28,株式会社Ｋｕｒａ,,株式会社,秋田県,横手市,朝日が丘３丁目７番６号,,05,203,0130055,,,,,,,2022-09-28,1,,,,,クラ,0
1229,5450001013802,新規,0,2022-09-28,2022-09-28,株式会社Ａボードコーポレーション,,株式会社,北海道,上川郡東川町,南町１丁目５番６号,,01,458,0711424,,,,,,,2022-09-28,1,,,,,エーボードコーポレーション,0
1245,6010401169907,新規,0,2022-09-28,2022-09-28,Ｓｋｙｂｏｕｎｄ　Ｊａｐａｎ株式会社,,株式会社,東京都,港区,赤坂１丁目１４番５号アークヒルズエグゼクティブタワー５０１号室,,13,103,1070052,,,,,,,2022-09-28,1,,,,,スカイバウンドジャパン,0
1264,6011005009755,新規,0,2022-09-28,2022-09-28,ＧＪＣＦ１５特定目的会社,,その他の設立登記法人,東京都,渋谷区,広尾１丁目１１番２号嶋本公認会計士事務所気付,,13,113,1500012,,,,,,,2022-09-28,1,,,,,ジージェイシーエフフィフティーン,0
1269,6011101100310,新規,0,2022-09-28,2022-09-28,株式会社Ａ．Ｋ,,株式会社,東京都,新宿区,歌舞伎町１丁目３番１０号,,13,104,1600021,,,,,,,2022-09-28,1,,,,,エーケー,0
1273,6011105010423,新規,0,2022-09-28,2022-09-28,一般社団法人淀屋橋インベストメンツ,,その他の設立登記法人,東京都,新宿区,四谷２丁目９番地１５東京ユナイテッド綜合事務所内,,13,104,1600004,,,,,,,2022-09-28,1,,,,,ヨドヤバシインベストメンツ,0
1279,6011501028498,新規,0,2022-09-28,2022-09-28,Ｌ＆Ｈ株式会社,,株式会社,東京都,北区,赤羽１丁目７番９号赤羽第一葉山ビル４階,,13,117,1150045,,,,,,,2022-09-28,1,,,,,エルアンドエイチ,0
1282,6011703003266,新規,0,2022-09-28,2022-09-28,合同会社ＫＹＯＤＡＩ,,合同会社,東京都,江戸川区,南小岩７丁目２８番１５号ファミール・シャトレ小岩２０２,,13,123,1330056,,,,,,,2022-09-28,1,,,,,キョーダイ,0
1303,6020001148310,新規,0,2022-09-28,2022-09-28,株式会社Ｂｅａｎｓｃｏｍｐａｎｙ一級建築士事務所,,株式会社,神奈川県,横浜市保土ケ谷区,上星川３丁目１１番８号ベルメゾン西谷３０６号室,,14,106,2400042,,,,,,,2022-09-28,1,,,,,ビーンズカンパニーイッキュウケンチクシジムショ,0
1305,6020003022414,新規,0,2022-09-28,2022-09-28,ＨＯＳ合同会社,,合同会社,神奈川県,川崎市多摩区,中野島１丁目３－５,,14,135,2140012,,,,,,,2022-09-28,1,,,,,ホス,0
1306,6020003022455,新規,0,2022-09-28,2022-09-28,合同会社マラマ,,合同会社,神奈川県,横浜市泉区,領家２丁目１０－１０－１そうてつローゼン山手台１Ｆ,,14,116,2450004,,,,,,,2022-09-28,1,,,,,マラマ,0
1317,6030001150232,新規,0,2022-09-28,2022-09-28,株式会社Ｗｅｓｔ　Ｅｉｇｈｔ,,株式会社,埼玉県,さいたま市西区,大字西遊馬１１７９番地１,,11,101,3310061,,,,,,,2022-09-28,1,,,,,ウェストエイト,0
1318,6030001150240,新規,0,2022-09-28,2022-09-28,株式会社南光,,株式会社,埼玉県,川越市,上戸新町２番地３０,,11,201,3500817,,,,,,,2022-09-28,1,,,,,ナンコウ,0
1319,6030001150249,新規,0,2022-09-28,2022-09-28,株式会社大心美装,,株式会社,埼玉県,川口市,原町６番１－１１１号,,11,203,3320025,,,,,,,2022-09-28,1,,,,,ダイシンビソウ,0
1322,6030003020276,新規,0,2022-09-28,2022-09-28,Ｎ．Ｙ．Ｓ合同会社,,合同会社,埼玉県,上尾市,上町１丁目３番１６号,,11,219,3620037,,,,,,,2022-09-28,1,,,,,エヌワイエス,0
1328,6040001125200,新規,0,2022-09-28,2022-09-28,飛鳥アール株式会社,,株式会社,千葉県,千葉市稲毛区,稲毛３丁目７－７新富稲毛第一１０１号室,,12,103,2630034,,,,,,,2022-09-28,1,,,,,アスカアール,0
1336,6050003006884,新規,0,2022-09-28,2022-09-28,ボルセンカンパニー合同会社,,合同会社,茨城県,つくば市,みどりの東２４番地６Ａ,,08,220,3050883,,,,,,,2022-09-28,1,,,,,ボルセンカンパニー,0
1343,6070003004630,新規,0,2022-09-28,2022-09-28,ＡＮＵ　ＥＮＴＥＲＰＲＩＳＥＳ合同会社,,合同会社,群馬県,前橋市,総社町総社２９４５番地４エクメーネハイツＢ－１０１号,,10,201,3710852,,,,,,,2022-09-28,1,,,,,アヌエンタープライセス,0
1351,6100001035723,新規,0,2022-09-28,2022-09-28,ＰＬＡＹＯＮ株式会社,,株式会社,長野県,岡谷市,本町３丁目１１番１５号ポレスター岡谷１１０３号,,20,204,3940028,,,,,,,2022-09-28,1,,,,,プレイオン,0
1353,6100005012917,新規,0,2022-09-28,2022-09-28,一般社団法人ときわ,,その他の設立登記法人,長野県,安曇野市,豊科田沢７０３９番地,,20,220,3998203,,,,,,,2022-09-28,1,,,,,トキワ,0
1365,6120001249057,新規,0,2022-09-28,2022-09-28,雪の島株式会社,,株式会社,大阪府,大阪市西区,京町堀１丁目３－１３辰巳ビル５階,,27,106,5500003,,,,,,,2022-09-28,1,,,,,ユキノシマ,0
1366,6120001249073,新規,0,2022-09-28,2022-09-28,株式会社エイトグルーヴ,,株式会社,大阪府,大阪市浪速区,恵美須東１丁目２３番１０号２Ｆ,,27,111,5560002,,,,,,,2022-09-28,1,,,,,エイトグルーヴ,0
1367,6120001249081,新規,0,2022-09-28,2022-09-28,株式会社赤坂建築構造設計,,株式会社,大阪府,守口市,竜田通１丁目１番１号ウイング守口６０２号室,,27,209,5700025,,,,,,,2022-09-28,1,,,,,アカサカケンチクコウゾウセッケイ,0
1369,6120003022569,新規,0,2022-09-28,2022-09-28,合同会社ＨＡＺＹ,,合同会社,大阪府,大阪市淀川区,新高５丁目１０―３１,,27,123,5320033,,,,,,,2022-09-28,1,,,,,ハジー,0
1376,6122001036261,新規,0,2022-09-28,2022-09-28,Ｅｍｐｉｒｅ＆Ｐａｒｔｎｅｒｓ株式会社,,株式会社,大阪府,東大阪市,永和２丁目８番２５号,,27,227,5770809,,,,,,,2022-09-28,1,,,,,エンパイアアンドパートナーズ,0
1378,6130001072689,新規,0,2022-09-28,2022-09-28,株式会社Ｓｅａ＆Ｍｅ,,株式会社,京都府,京田辺市,花住坂２丁目６番地１７,,26,211,6100352,,,,,,,2022-09-28,1,,,,,シーアンドミー,0
1381,6130003008187,新規,0,2022-09-28,2022-09-28,合同会社ＡＰ,,合同会社,京都府,京都市南区,吉祥院西ノ庄淵ノ西町１４－２森真ビル２０２号室,,26,107,6018302,,,,,,,2022-09-28,1,,,,,エピ,0
1386,6140001127459,新規,0,2022-09-28,2022-09-28,株式会社ビースリーメン＆ゴルフ,,株式会社,兵庫県,神戸市中央区,坂口通７丁目２番１７号,,28,110,6510062,,,,,,,2022-09-28,1,,,,,ビースリーメンアンドゴルフ,0
1387,6140003018160,新規,0,2022-09-28,2022-09-28,合同会社ふさじ,,合同会社,兵庫県,西宮市,甲子園口北町１６番２３号,,28,204,6638112,,,,,,,2022-09-28,1,,,,,フサジ,0
1389,6150003002782,新規,0,2022-09-28,2022-09-28,合同会社ＴＯＴＯＲＩ,,合同会社,奈良県,奈良市,法蓮町１９２１番地の１３３,,29,201,6308113,,,,,,,2022-09-28,1,,,,,トトリ,0
1395,6160005011120,新規,0,2022-09-28,2022-09-28,一般社団法人びわ湖野鳥の楽園プロジェクト,,その他の設立登記法人,滋賀県,長浜市,三ツ矢町３番２８号,,25,203,5260023,,,,,,,2022-09-28,1,,,,,ビワコヤチョウノラクエンプロジェクト,0
1411,6230001019531,新規,0,2022-09-28,2022-09-28,株式会社エムビーエスホリゾンジャパン,,株式会社,富山県,富山市,五福１８０９番地１３,,16,201,9300887,,,,,,,2022-09-28,1,,,,,,0
1430,6290803004213,新規,0,2022-09-28,2022-09-28,Ｔ＆Ｌ合同会社,,合同会社,福岡県,北九州市小倉北区,古船場町６－２４第７アイスビル－１０３,,40,106,8020082,,,,,,,2022-09-28,1,,,,,ティーアンドエル,0
1436,6340001025056,新規,0,2022-09-28,2022-09-28,株式会社ｔｏｍｉｃｏｍｅ,,株式会社,鹿児島県,鹿児島市,東谷山６丁目６番１０号,,46,201,8910113,,,,,,,2022-09-28,1,,,,,トミカム,0
1441,6350001017969,新規,0,2022-09-28,2022-09-28,ＵＮＩＣＯＯＫ　Ｌａｂ．株式会社,,株式会社,宮崎県,東諸県郡綾町,大字北俣５８７－１９テルハテラスＣ－６,,45,383,8801302,,,,,,,2022-09-28,1,,,,,ユニクックラボラトリー,0
1447,6370001049085,新規,0,2022-09-28,2022-09-28,株式会社ダックハント,,株式会社,宮城県,仙台市若林区,上飯田２丁目１５－１４,,04,103,9840838,,,,,,,2022-09-28,1,,,,,ダックハント,0
1459,6410003003705,新規,0,2022-09-28,2022-09-28,合同会社ふぁみりあ,,合同会社,秋田県,南秋田郡井川町,八田大倉字八幡４番地６,,05,366,0181521,,,,,,,2022-09-28,1,,,,,,0
1464,6430003014304,新規,0,2022-09-28,2022-09-28,合同会社寺壱,,合同会社,北海道,札幌市白石区,北郷一条４丁目６番１８号,,01,104,0030831,,,,,,,2022-09-28,1,,,,,テライチ,0
1465,6430005014566,新規,0,2022-09-28,2022-09-28,一般社団法人北海道海洋文化フォーラム,,その他の設立登記法人,北海道,札幌市中央区,北一条西５丁目２番地,,01,101,0600001,,,,,,,2022-09-28,1,,,,,ホッカイドウカイヨウブンカフォーラム,0
1476,6500001024479,新規,0,2022-09-28,2022-09-28,Ｍｉ株式会社,,株式会社,愛媛県,松山市,余戸東１丁目１０番３号フレニール４５Ｌ３号,,38,201,7900044,,,,,,,2022-09-28,1,,,,,エムアイ,0
1491,7010001229754,新規,0,2022-09-28,2022-09-28,株式会社ストリート・インサイツ,,株式会社,東京都,千代田区,神田神保町２丁目２０番地６恒倉ビル,,13,101,1010051,,,,,,,2022-09-28,1,,,,,ストリートインサイツ,0
1493,7010003038740,新規,0,2022-09-28,2022-09-28,合同会社ぐしゃ,,合同会社,東京都,中央区,八丁堀２丁目２９－６、３０２,,13,102,1040032,,,,,,,2022-09-28,1,,,,,グシャ,0
1495,7010005035604,新規,0,2022-09-28,2022-09-28,一般社団法人林業技能向上センター,,その他の設立登記法人,東京都,千代田区,鍛冶町１丁目９番１６号丸石第２ビル６階,,13,101,1010044,,,,,,,2022-09-28,1,,,,,リンギョウギノウコウジョウセンター,0
1530,7011003015440,新規,0,2022-09-28,2022-09-28,アイクワイア・ジャパン合同会社,,合同会社,東京都,渋谷区,道玄坂１丁目１２番１号渋谷マークシティＷ２２階,,13,113,1500043,,,,,,,2022-09-28,1,,,,,アイクワイアジャパン,0
1551,7011803005260,新規,0,2022-09-28,2022-09-28,ＳＡＲＡＤＡ合同会社,,合同会社,東京都,足立区,青井４丁目４４番１―３０５号,,13,121,1210012,,,,,,,2022-09-28,1,,,,,サラダ,0
1561,7013301049707,新規,0,2022-09-28,2022-09-28,株式会社ＴＭＣ,,株式会社,東京都,豊島区,南大塚３丁目３９番１０－２０１号,,13,116,1700005,,,,,,,2022-09-28,1,,,,,ティーエムシー,0
1569,7020001148326,新規,0,2022-09-28,2022-09-28,株式会社Ｅ４,,株式会社,神奈川県,川崎市中原区,下小田中３丁目１１３１番地,,14,133,2110041,,,,,,,2022-09-28,1,,,,,イーヨン,0
1570,7020003022462,新規,0,2022-09-28,2022-09-28,合同会社さとわ,,合同会社,神奈川県,横浜市泉区,白百合３丁目１４番２号,,14,116,2450005,,,,,,,2022-09-28,1,,,,,サトワ,0
1574,7021003012180,新規,0,2022-09-28,2022-09-28,ブルーベイ合同会社,,合同会社,神奈川県,横須賀市,久里浜１丁目５－８ＳＴビル１０１２Ｆ,,14,201,2390831,,,,,,,2022-09-28,1,,,,,ブルーベイ,0
1584,7030001150223,新規,0,2022-09-28,2022-09-28,ＳＨＩＶＡ　ＳＨＡＫＴＩ株式会社,,株式会社,埼玉県,ふじみ野市,大原１丁目５番１号－２０５,,11,245,3560003,,,,,,,2022-09-28,1,,,,,シバサクティ,0
1585,7030001150231,新規,0,2022-09-28,2022-09-28,高田商事株式会社,,株式会社,埼玉県,北葛飾郡杉戸町,大字堤根１６４０番地,,11,464,3450024,,,,,,,2022-09-28,1,,,,,タカダショウジ,0
1590,7040001125117,新規,0,2022-09-28,2022-09-28,龍廷株式会社,,株式会社,千葉県,千葉市中央区,都町８丁目５番６２号龍廷ビル,,12,101,2600001,,,,,,,2022-09-28,1,,,,,リュウテイ,0
1591,7040003020893,新規,0,2022-09-28,2022-09-28,合同会社Ｎｉｋａ,,合同会社,千葉県,野田市,山崎１９８５－２２,,12,208,2780022,,,,,,,2022-09-28,1,,,,,ニカ,0
1601,7060003004234,新規,0,2022-09-28,2022-09-28,合同会社ｒｉｓｋ,,合同会社,栃木県,宇都宮市,本町４－２０イーラ本町ビル４０２,,09,201,3200033,,,,,,,2022-09-28,1,,,,,リスク,0
1607,7090001017788,新規,0,2022-09-28,2022-09-28,Ｐｅｔ　Ａｄｏｒａｂｌｅ株式会社,,株式会社,山梨県,甲府市,中央５丁目６－２１,,19,201,4000032,,,,,,,2022-09-28,1,,,,,,0
1613,7110003004872,新規,0,2022-09-28,2022-09-28,合同会社ビーゼア,,合同会社,新潟県,新潟市西区,五十嵐２の町８０５０番地ＮｏｔｔｈｅＵｎｉｖｅｒｓｉｔｙ内,,15,107,9502102,,,,,,,2022-09-28,1,,,,,ビーゼア,0
1632,7120001249048,新規,0,2022-09-28,2022-09-28,ＳＹＫキャピタルパートナーズ株式会社,,株式会社,大阪府,大阪市中央区,淡路町３丁目３番２ー２９０４,,27,128,5410047,,,,,,,2022-09-28,1,,,,,エスワイケーキャピタルパートナーズ,0
1633,7120001249056,新規,0,2022-09-28,2022-09-28,日正株式会社,,株式会社,大阪府,大阪市中央区,淡路町３丁目５－１３創建御堂筋ビル２階,,27,128,5410047,,,,,,,2022-09-28,1,,,,,ニチマサ,0
1634,7120001249064,新規,0,2022-09-28,2022-09-28,株式会社イフメイク,,株式会社,大阪府,大阪市中央区,平野町３丁目１番７号日宝平野町セントラルビル３Ｆ,,27,128,5410046,,,,,,,2022-09-28,1,,,,,イフメイク,0
1635,7120001249072,新規,0,2022-09-28,2022-09-28,Ｓｅｃｏｎｄ　Ｇｏｏｄ文化設計株式会社,,株式会社,大阪府,大阪市生野区,林寺２丁目３番７号,,27,116,5440023,,,,,,,2022-09-28,1,,,,,セカンドグッドブンカセッケイ,0
1636,7120001249106,新規,0,2022-09-28,2022-09-28,株式会社ＮＭＤＩ‐Ｓｔｕｄｉｏ　ＳＡＫＡＭＯＴＯ,,株式会社,大阪府,大阪市中央区,高麗橋１丁目７番７－９０１号,,27,128,5410043,,,,,,,2022-09-28,1,,,,,エヌエムディーアイスタジオサカモト,0
1647,7120903004310,新規,0,2022-09-28,2022-09-28,合同会社ハックベリー,,合同会社,大阪府,茨木市,永代町６番１６号ニュー阪急フロントビル５０６,,27,211,5670816,,,,,,,2022-09-28,1,,,,,ハックベリー,0
1648,7120905006379,新規,0,2022-09-28,2022-09-28,一般社団法人Ｒｅ‐Ｓｔａｒｔ　Ｐｒｏｊｅｃｔ,,その他の設立登記法人,大阪府,豊中市,待兼山町２１番６－３０２号,,27,203,5600043,,,,,,,2022-09-28,1,,,,,リスタートプロジェクト,0
1649,7122001036260,新規,0,2022-09-28,2022-09-28,株式会社ＳＲＧ,,株式会社,大阪府,東大阪市,東石切町４丁目１３番１８号,,27,227,5798011,,,,,,,2022-09-28,1,,,,,エスアールジー,0
1652,7130001072671,新規,0,2022-09-28,2022-09-28,株式会社ＴＴＬ,,株式会社,京都府,京都市山科区,四ノ宮小金塚８番地６７１の３０１号室,,26,110,6078022,,,,,,,2022-09-28,1,,,,,ティティエル,0
1659,7140001127466,新規,0,2022-09-28,2022-09-28,ＩＮＦＩＮＥＸ株式会社,,株式会社,兵庫県,神戸市西区,白水２丁目９番２８号,,28,111,6512129,,,,,,,2022-09-28,1,,,,,インフィネクス,0
1672,7180001153137,新規,0,2022-09-28,2022-09-28,株式会社ネバー・ストップ・スマイル,,株式会社,愛知県,名古屋市西区,菊井１丁目３１番１号,,23,104,4510044,,,,,,,2022-09-28,1,,,,,ネバーストップスマイル,0
1680,7210005010058,新規,0,2022-09-28,2022-09-28,医療法人フルハシ歯科,,その他の設立登記法人,福井県,坂井市,春江町江留上新町３６番地１,,18,210,9190465,,,,,,,2022-09-28,1,,,,,フルハシシカ,0
1688,7260003004040,新規,0,2022-09-28,2022-09-28,合同会社糸から布へ,,合同会社,岡山県,津山市,山北２番地１０,,33,203,7080004,,,,,,,2022-09-28,1,,,,,イトカラヌノヘ,0
1697,7290001099006,新規,0,2022-09-28,2022-09-28,Ｏｎｅ　Ｉｎｔｅｒｎａｔｉｏｎａｌ株式会社,,株式会社,福岡県,福岡市城南区,西片江１丁目１５番６－３１１号,,40,136,8140141,,,,,,,2022-09-28,1,,,,,ワンインターナショナル,0
1714,7360001031010,新規,0,2022-09-28,2022-09-28,株式会社ＰＬＡＹＬＩＳＴ,,株式会社,沖縄県,国頭郡今帰仁村,字謝名１４８,,47,306,9050414,,,,,,,2022-09-28,1,,,,,プレイリスト,0
1715,7360005006719,新規,0,2022-09-28,2022-09-28,一般社団法人泰雅,,その他の設立登記法人,沖縄県,宮古島市,平良字西仲宗根１８６番地１,,47,214,9060006,,,,,,,2022-09-28,1,,,,,タイガ,0
1727,7430001087532,新規,0,2022-09-28,2022-09-28,猫小屋株式会社,,株式会社,北海道,札幌市中央区,北十条西１８丁目３６番地２２７,,01,101,0600010,,,,,,,2022-09-28,1,,,,,ネコゴヤ,0
1728,7430001087540,新規,0,2022-09-28,2022-09-28,株式会社Ａｓｙａｔｔ．Ｍａｒｋｓ,,株式会社,北海道,虻田郡ニセコ町,字中央通１４２番地５,,01,395,0481512,,,,,,,2022-09-28,1,,,,,アシャットマークス,0
1730,7430003014311,新規,0,2022-09-28,2022-09-28,合同会社サクセスイノベーション,,合同会社,北海道,札幌市厚別区,厚別西二条３丁目７－１６,,01,108,0040062,,,,,,,2022-09-28,1,,,,,サクセスイノベーション,0
1736,7500001024478,新規,0,2022-09-28,2022-09-28,株式会社ウェルソック愛媛,,株式会社,愛媛県,松山市,三番町１丁目２番地５,,38,201,7900003,,,,,,,2022-09-28,1,,,,,ウェルソックエヒメ,0
1739,7700150111932,新規,0,2022-09-28,2022-09-28,上海君用網絡科技有限公司,,外国会社等,東京都,板橋区,板橋２丁目９－９セントラルハイツ板橋５Ｆ１２号室,,13,119,1730004,上海市普陀区長寿路３０号５階５１５室,,,,,,2022-09-28,1,,,,,シヤンハイクンヨウワンレンカギユウゲンコウシ,0
1757,8010101015335,新規,0,2022-09-28,2022-09-28,株式会社国際福祉土地建物,,株式会社,東京都,八王子市,大塚６４５番地１３エルメゾンＢ,,13,201,1920352,,,,,,,2022-09-28,1,,,,,コクサイフクシトチタテモノ,0
1764,8010401169797,新規,0,2022-09-28,2022-09-28,株式会社ヘルスケアＤＸ,,株式会社,東京都,港区,赤坂３丁目１６－１１東海赤坂ビル４階,,13,103,1070052,,,,,,,2022-09-28,1,,,,,ヘルスケアディーエックス,0
1765,8010401169946,新規,0,2022-09-28,2022-09-28,株式会社１ｘ１ｔａｃｔ,,株式会社,東京都,港区,浜松町２丁目２番１５号浜松町ダイヤビル２Ｆ,,13,103,1050013,,,,,,,2022-09-28,1,,,,,ワンバイワンタクト,0
1767,8010403028563,新規,0,2022-09-28,2022-09-28,合同会社ＳＡＴ,,合同会社,東京都,港区,浜松町２丁目２番１５号浜松町ダイヤビル２Ｆ,,13,103,1050013,,,,,,,2022-09-28,1,,,,,サット,0
1775,8010501049412,新規,0,2022-09-28,2022-09-28,ＭＩＮＨ　ＡＮ株式会社,,株式会社,東京都,台東区,根岸３丁目４番１３号塩田コーポ２０１号室,,13,106,1100003,,,,,,,2022-09-28,1,,,,,ミンアン,0
1780,8010901051686,新規,0,2022-09-28,2022-09-28,株式会社Ｂｕｄｏ,,株式会社,東京都,世田谷区,松原６丁目９－１７ジュノ羽根木公園２０１,,13,112,1560043,,,,,,,2022-09-28,1,,,,,ブドウ,0
1781,8010903007661,新規,0,2022-09-28,2022-09-28,Ｎ．Ｓプランニング合同会社,,合同会社,東京都,世田谷区,用賀１丁目１５番２０号グランドガーラ用賀１０８号,,13,112,1580097,,,,,,,2022-09-28,1,,,,,エヌエスプランニング,0
1784,8011001149966,新規,0,2022-09-28,2022-09-28,株式会社ディアホーン,,株式会社,東京都,渋谷区,代々木３丁目１番１１号パシフィックスクエア代々木４Ｆ,,13,113,1510053,,,,,,,2022-09-28,1,,,,,ディアホーン,0
1788,8011101100275,新規,0,2022-09-28,2022-09-28,三和ホールディングス株式会社,,株式会社,東京都,新宿区,西新宿４丁目３２番地４号,,13,104,1600023,,,,,,,2022-09-28,1,,,,,サンワホールディングス,0
1789,8011101100300,新規,0,2022-09-28,2022-09-28,株式会社Ｄｒｉｖｅｚ,,株式会社,東京都,新宿区,四谷三栄町８番４号,,13,104,1600008,,,,,,,2022-09-28,1,,,,,ドライヴズ,0
1790,8011103012205,新規,0,2022-09-28,2022-09-28,合同会社Ｐｅ‐Ｌ,,合同会社,東京都,新宿区,西早稲田３丁目２４－８ＳＵＮ－ＢＯＸビル４Ｆ,,13,104,1690051,,,,,,,2022-09-28,1,,,,,ペール,0
1797,8011301028119,新規,0,2022-09-28,2022-09-28,相徳キャピタル株式会社,,株式会社,東京都,杉並区,荻窪５丁目７番６号かねこ友禅ビル３０２号室,,13,115,1670051,,,,,,,2022-09-28,1,,,,,アイトクキャピタル,0
1798,8011303004530,新規,0,2022-09-28,2022-09-28,合同会社時空書房,,合同会社,東京都,杉並区,梅里２丁目３６番１５号５０１,,13,115,1660011,,,,,,,2022-09-28,1,,,,,ジクウショボウ,0
1799,8011603003703,新規,0,2022-09-28,2022-09-28,合同会社あるぷす書院,,合同会社,東京都,練馬区,石神井台２丁目２８番４号,,13,120,1770045,,,,,,,2022-09-28,1,,,,,アルプスショイン,0
1809,8013103001170,新規,0,2022-09-28,2022-09-28,合同会社イロハ,,合同会社,東京都,青梅市,今寺１丁目７６７番地の１８,,13,205,1980021,,,,,,,2022-09-28,1,,,,,イロハ,0
1816,8020001148300,新規,0,2022-09-28,2022-09-28,株式会社アクトライズ,,株式会社,神奈川県,横浜市泉区,緑園６丁目４０番地１グランデール緑園４０４号,,14,116,2450002,,,,,,,2022-09-28,1,,,,,アクトライズ,0
1817,8020001148309,新規,0,2022-09-28,2022-09-28,株式会社シェノン,,株式会社,神奈川県,横浜市港北区,新横浜２丁目６番１２号,,14,109,2220033,,,,,,,2022-09-28,1,,,,,シェノン,0
1830,8030001150172,新規,0,2022-09-28,2022-09-28,株式会社億中,,株式会社,埼玉県,さいたま市大宮区,宮町１丁目４８番地５Ｆ,,11,103,3300802,,,,,,,2022-09-28,1,,,,,オクチュウ,0
1831,8030001150214,新規,0,2022-09-28,2022-09-28,ＢＥ　ＢＥＡＵＴＹ株式会社,,株式会社,埼玉県,所沢市,大字上安松３５９番地の６,,11,208,3590025,,,,,,,2022-09-28,1,,,,,ビービューティー,0
1832,8030001150230,新規,0,2022-09-28,2022-09-28,ＭＣ株式会社,,株式会社,埼玉県,越谷市,大字砂原１４９１番地,,11,222,3430803,,,,,,,2022-09-28,1,,,,,エムシー,0
1833,8030001150239,新規,0,2022-09-28,2022-09-28,株式会社Ｎｏｂｌｅ　Ｔｒｅｅ,,株式会社,埼玉県,狭山市,広瀬東４丁目３３番１８号,,11,215,3501320,,,,,,,2022-09-28,1,,,,,ノーブルツリー,0
1834,8030001150247,新規,0,2022-09-28,2022-09-28,多多株式会社,,株式会社,埼玉県,さいたま市中央区,本町西１丁目４番１３号２０３号室,,11,105,3380004,,,,,,,2022-09-28,1,,,,,タタ,0
1839,8030003020258,新規,0,2022-09-28,2022-09-28,合同会社ｅｍａパートナーズ,,合同会社,埼玉県,戸田市,新曽南１丁目５－１５サンモール戸田公園２０５,,11,224,3350026,,,,,,,2022-09-28,1,,,,,イーエムエーパートナーズ,0
1840,8030003020266,新規,0,2022-09-28,2022-09-28,合同会社柚杏,,合同会社,埼玉県,越谷市,登戸町１２番２０号,,11,222,3430846,,,,,,,2022-09-28,1,,,,,ユズアン,0
1843,8040001125198,新規,0,2022-09-28,2022-09-28,株式会社ＫＳＫモータース,,株式会社,千葉県,千葉市花見川区,大日町１４０６－１,,12,102,2620004,,,,,,,2022-09-28,1,,,,,ケイエスケイモータース,0
1847,8040003020892,新規,0,2022-09-28,2022-09-28,合同会社ｎｕｌｌ,,合同会社,千葉県,成田市,長沼５３４,,12,211,2860804,,,,,,,2022-09-28,1,,,,,ヌル,0
1855,8050003006874,新規,0,2022-09-28,2022-09-28,合同会社ＩＷＡ,,合同会社,茨城県,稲敷郡阿見町,大字若栗１７０７番地２マロンハイツ１０５号,,08,443,3000333,,,,,,,2022-09-28,1,,,,,イワ,0
1868,8100001035721,新規,0,2022-09-28,2022-09-28,株式会社ヘルス＆ライフ,,株式会社,長野県,長野市,信州新町上条１５３番地,,20,201,3812404,,,,,,,2022-09-28,1,,,,,ヘルスアンドライフ,0
1882,8120001249022,新規,0,2022-09-28,2022-09-28,ＴＩＳ株式会社,,株式会社,大阪府,交野市,梅が枝５５番９号,,27,230,5760042,,,,,,,2022-09-28,1,,,,,ティアイエス,0
1883,8120003022542,新規,0,2022-09-28,2022-09-28,ＳＡＮＵ合同会社,,合同会社,大阪府,大阪市淀川区,西中島１丁目１５番４－６０７号,,27,123,5320011,,,,,,,2022-09-28,1,,,,,サヌ,0
1884,8120003022550,新規,0,2022-09-28,2022-09-28,Ｇｌｏｂａｌ　ＦＦ合同会社,,合同会社,大阪府,大阪市北区,梅田１丁目１－３大阪駅前第３ビル２９階１－１－１号室,,27,127,5300001,,,,,,,2022-09-28,1,,,,,グローバルフフ,0
1885,8120003022567,新規,0,2022-09-28,2022-09-28,イスコ合同会社,,合同会社,大阪府,寝屋川市,萱島東２丁目７－１１,,27,215,5720824,,,,,,,2022-09-28,1,,,,,イスコ,0
1902,8130001072687,新規,0,2022-09-28,2022-09-28,株式会社彩仁,,株式会社,京都府,京都市中京区,西ノ京南上合町１０４番地,,26,104,6048483,,,,,,,2022-09-28,1,,,,,サイジン,0
1904,8130003008185,新規,0,2022-09-28,2022-09-28,合同会社桔梗屋,,合同会社,京都府,京都市上京区,宮垣町９１－１０２,,26,102,6020853,,,,,,,2022-09-28,1,,,,,キキョウヤ,0
1906,8140001127440,新規,0,2022-09-28,2022-09-28,株式会社ＫＡＥＬＡ,,株式会社,兵庫県,神戸市中央区,相生町４丁目５番４号メック駅前ビル３階,,28,110,6500025,,,,,,,2022-09-28,1,,,,,カエラ,0
1907,8140001127465,新規,0,2022-09-28,2022-09-28,株式会社三浦工務店,,株式会社,兵庫県,神戸市西区,南別府３丁目２１－３,,28,111,6512116,,,,,,,2022-09-28,1,,,,,ミウラコウムテン,0
1908,8140001127473,新規,0,2022-09-28,2022-09-28,株式会社ライフ不動産,,株式会社,兵庫県,尼崎市,昭和南通６丁目１３４番地清国中央ビル１０７,,28,202,6600882,,,,,,,2022-09-28,1,,,,,ライフフドウサン,0
1910,8140003018159,新規,0,2022-09-28,2022-09-28,安達合同会社,,合同会社,兵庫県,神戸市中央区,二宮町２丁目６番１８－３０４号,,28,110,6510093,,,,,,,2022-09-28,1,,,,,アダチ,0
1911,8160005011119,新規,0,2022-09-28,2022-09-28,医療法人山田整形外科病院,,その他の設立登記法人,滋賀県,大津市,本堅田５丁目２２番２７号,,25,201,5200242,,,,,,,2022-09-28,1,,,,,ヤマダセイケイゲカビョウイン,0
1915,8180001153136,新規,0,2022-09-28,2022-09-28,株式会社ＳＫホールディングス,,株式会社,愛知県,一宮市,萩原町富田方字山中１１番地,,23,203,4910352,,,,,,,2022-09-28,1,,,,,エスケーホールディングス,0
1921,8200001040471,新規,0,2022-09-28,2022-09-28,小松金属株式会社,,株式会社,岐阜県,中津川市,蛭川５２６３番地４２,,21,206,5098301,,,,,,,2022-09-28,1,,,,,コマツキンゾク,0
1944,8290003012972,新規,0,2022-09-28,2022-09-28,合同会社Ｋｉｋｉ　Ｔｒａｄｉｎｇ,,合同会社,福岡県,那珂川市,大字成竹８７番地１,,40,231,8111235,,,,,,,2022-09-28,1,,,,,キキトレーディング,0
1946,8300003001882,新規,0,2022-09-28,2022-09-28,合同会社スマイルシェア,,合同会社,佐賀県,嬉野市,塩田町大字五町田甲２３３番地１０,,41,209,8491425,,,,,,,2022-09-28,1,,,,,スマイルシェア,0
1951,8330005010565,新規,0,2022-09-28,2022-09-28,医療法人ＫＤ,,その他の設立登記法人,熊本県,八代市,古閑中町１２０６番２,,43,202,8660898,,,,,,,2022-09-28,1,,,,,ケイディー,0
1953,8340003003909,新規,0,2022-09-28,2022-09-28,合同会社ドルジ,,合同会社,鹿児島県,鹿児島市,大明丘２丁目２０番１３号,,46,201,8920872,,,,,,,2022-09-28,1,,,,,ドルジ,0
1954,8370001049083,新規,0,2022-09-28,2022-09-28,株式会社Ｒ．ＲＩＮＧＳ,,株式会社,宮城県,仙台市太白区,中田３丁目１番４６号,,04,104,9811104,,,,,,,2022-09-28,1,,,,,アールリングス,0
1972,8700150111931,新規,0,2022-09-28,2022-09-28,ＭＵＮＡＫＡＴＡ　ＩＢＬＰ　ＨＯＬＤＩＮＧＳ　ＬＬＣ,,外国会社等,,,,,,,,１２０９オレンジストリート、ウィルミントン、デラウェア州、１９８０１，Ｕ．Ｓ．Ａ,,,,,,2022-09-28,1,,,,,ムナカタアイビーエルピーホールデイングスエルエルシー,0
1978,9010003038714,新規,0,2022-09-28,2022-09-28,東山２丁目プロジェクト合同会社,,合同会社,東京都,千代田区,丸の内２丁目３番２号,,13,101,1000005,,,,,,,2022-09-28,1,,,,,ヒガシヤマニチョウメプロジェクト,0
1979,9010003038739,新規,0,2022-09-28,2022-09-28,ＮＥＸＴ　ＩＮＮＯＶＡＴＩＯＮ合同会社,,合同会社,東京都,中央区,新川１丁目３番７号ストークマンション新川１００６,,13,102,1040033,,,,,,,2022-09-28,1,,,,,ネクストイノベーション,0
1986,9010401169912,新規,0,2022-09-28,2022-09-28,株式会社住宅テックラボ,,株式会社,東京都,港区,芝３丁目１５番１４号,,13,103,1050014,,,,,,,2022-09-28,1,,,,,ジュウタクテックラボ,0
1987,9010401169929,新規,0,2022-09-28,2022-09-28,ＩＤＥＡＬＷＯＲＫ　ＪＡＰＡＮ株式会社,,株式会社,東京都,港区,南青山６丁目３番１３－５０３号,,13,103,1070062,,,,,,,2022-09-28,1,,,,,アイデアルワークジャパン,0
2010,9011101100299,新規,0,2022-09-28,2022-09-28,株式会社ＹＳＤ,,株式会社,東京都,新宿区,西新宿６丁目１１番３－２７０８号,,13,104,1600023,,,,,,,2022-09-28,1,,,,,ワイエスディー,0
2011,9011101100308,新規,0,2022-09-28,2022-09-28,佐藤事務所株式会社,,株式会社,東京都,新宿区,西新宿３丁目１６番３号田中ハウス１階,,13,104,1600023,,,,,,,2022-09-28,1,,,,,サトウオフィス,0
2014,9011103012195,新規,0,2022-09-28,2022-09-28,合同会社ｆｏｒｎｉ,,合同会社,東京都,新宿区,大久保３丁目８－１スカイフォレストレジデンス５０５号室,,13,104,1690072,,,,,,,2022-09-28,1,,,,,フォルニ,0
2015,9011105010420,新規,0,2022-09-28,2022-09-28,一般社団法人日本サイドビジネス税務推進機構,,その他の設立登記法人,東京都,新宿区,西新宿３丁目３番１３号西新宿水間ビル６階,,13,104,1600023,,,,,,,2022-09-28,1,,,,,ニホンサイドビジネスゼイムスイシンキコウ,0
2016,9011201024118,新規,0,2022-09-28,2022-09-28,瑞美株式会社,,株式会社,東京都,中野区,中央４丁目６番１号,,13,114,1640011,,,,,,,2022-09-28,1,,,,,ミズミ,0
2019,9011801041314,新規,0,2022-09-28,2022-09-28,健玲株式会社,,株式会社,東京都,足立区,西新井本町１丁目２５番２８号,,13,121,1230845,,,,,,,2022-09-28,1,,,,,ケンレイ,0
2028,9013301049721,新規,0,2022-09-28,2022-09-28,小藍塾株式会社,,株式会社,東京都,豊島区,巣鴨１丁目１７番３号子野ビル３０２室,,13,116,1700002,,,,,,,2022-09-28,1,,,,,リトルブルースクール,0
2032,9020001148299,新規,0,2022-09-28,2022-09-28,株式会社ｆｏｎｔｅ,,株式会社,神奈川県,横浜市磯子区,磯子４丁目６番１４号,,14,107,2350016,,,,,,,2022-09-28,1,,,,,フォンテ,0
2040,9030001150221,新規,0,2022-09-28,2022-09-28,株式会社ＳＳ　ＴＲＡＤＩＮＧ,,株式会社,埼玉県,加須市,外田ケ谷８４番地１,,11,210,3470126,,,,,,,2022-09-28,1,,,,,エスエストレーディング,0
2041,9030001150246,新規,0,2022-09-28,2022-09-28,Ｎｏｏｒ　ｉｎｔｅｒｎａｔｉｏｎａｌ株式会社,,株式会社,埼玉県,春日部市,八丁目１８６２番地１０,,11,214,3440006,,,,,,,2022-09-28,1,,,,,ヌールインターナショナル,0
2042,9030001150254,新規,0,2022-09-28,2022-09-28,株式会社関昌ハウス,,株式会社,埼玉県,幸手市,大字中川崎１８６番地１,,11,240,3400163,,,,,,,2022-09-28,1,,,,,セキショウハウス,0
2044,9030003020265,新規,0,2022-09-28,2022-09-28,合同会社Ｌｏｋａｈｉ,,合同会社,埼玉県,さいたま市南区,沼影１丁目６番１６号１Ｆ,,11,108,3360027,,,,,,,2022-09-28,1,,,,,ロカヒ,0
2060,9060005010014,新規,0,2022-09-28,2022-09-28,一般社団法人全国中小建築工匠連合会,,その他の設立登記法人,栃木県,宇都宮市,江曽島４丁目２２５番地７,,09,201,3210107,,,,,,,2022-09-28,1,,,,,ゼンコクチュウショウケンチクコウショウレンゴウカイ,0
2091,9120001249070,新規,0,2022-09-28,2022-09-28,Ｋ．Ｔ‐コンストラクション株式会社,,株式会社,大阪府,大阪市北区,本庄西１丁目１番７－４４０４号,,27,127,5310073,,,,,,,2022-09-28,1,,,,,ケイティーコンストラクション,0
2093,9120003022541,新規,0,2022-09-28,2022-09-28,ＧＡ合同会社,,合同会社,大阪府,大阪市淀川区,西中島１丁目１５番４－６０７号,,27,123,5320011,,,,,,,2022-09-28,1,,,,,ジーエー,0
2100,9120901046526,新規,0,2022-09-28,2022-09-28,株式会社ブラスビー,,株式会社,大阪府,高槻市,大字原１１８９番地の１,,27,207,5691051,,,,,,,2022-09-28,1,,,,,ブラスビー,0
2101,9120903004309,新規,0,2022-09-28,2022-09-28,まなび亭合同会社,,合同会社,大阪府,豊中市,上新田４丁目８番３７号マンドヒル千里１階,,27,203,5600085,,,,,,,2022-09-28,1,,,,,マナビテイ,0
2109,9130001072711,新規,0,2022-09-28,2022-09-28,Ｌｅｎｓ　Ｔｅｃｈｎｏｌｏｇｙ　Ｊａｐａｎ株式会社,,株式会社,京都府,京都市中京区,百足屋町１５２番地,,26,104,6048214,,,,,,,2022-09-28,1,,,,,レンズテクノロジージャパン,0
2111,9140001127480,新規,0,2022-09-28,2022-09-28,株式会社ｍｅｄｉ　ｃｈｒｏｍｅ,,株式会社,兵庫県,尼崎市,小中島１丁目２４番２５－７２０号,,28,202,6610972,,,,,,,2022-09-28,1,,,,,メディクロム,0
2114,9150001025832,新規,0,2022-09-28,2022-09-28,株式会社ＳＹＮＥＲＧＹ　ＰＯＩＮＴ,,株式会社,奈良県,桜井市,大字吉備５６４番地の３ＳＨＲビル桜井２０２号,,29,206,6330065,,,,,,,2022-09-28,1,,,,,シナジーポイント,0
2124,9180303005455,新規,0,2022-09-28,2022-09-28,合同会社ＣＨＩＳＯＫＵ,,合同会社,愛知県,北設楽郡東栄町,大字足込字大原１６,,23,562,4490202,,,,,,,2022-09-28,1,,,,,チソク,0
2126,9200001040479,新規,0,2022-09-28,2022-09-28,株式会社ＬＩＧＡＲＥ,,株式会社,岐阜県,羽島郡笠松町,田代６８６番地の１,,21,303,5016062,,,,,,,2022-09-28,1,,,,,リガーレ,0
2133,9230003001914,新規,0,2022-09-28,2022-09-28,合同会社店舗管理,,合同会社,富山県,砺波市,中野１１８番地,,16,208,9391322,,,,,,,2022-09-28,1,,,,,テンポカンリ,0
2136,9240001060399,新規,0,2022-09-28,2022-09-28,株式会社Ｇｉｎｏ,,株式会社,広島県,東広島市,西条町田口１０６０９番地３２コーポサンピアＢ１０１,,34,212,7390036,,,,,,,2022-09-28,1,,,,,ジノ,0
2137,9240001060408,新規,0,2022-09-28,2022-09-28,株式会社ＢＵＭＡ,,株式会社,広島県,広島市中区,舟入南５丁目２番３６－１号,,34,101,7300847,,,,,,,2022-09-28,1,,,,,ブーマ,0
2149,9290001098996,新規,0,2022-09-28,2022-09-28,株式会社ＴＫＴ,,株式会社,福岡県,福岡市中央区,渡辺通５丁目１５番４－１号シティパレス南天神パート１－４０２号,,40,133,8100004,,,,,,,2022-09-28,1,,,,,ティーケーティー,0
2151,9290003012988,新規,0,2022-09-28,2022-09-28,合同会社ＭＣ,,合同会社,福岡県,福岡市南区,大橋４丁目３２番３３号６０３,,40,134,8150033,,,,,,,2022-09-28,1,,,,,エムシー,0
2157,9340001025053,新規,0,2022-09-28,2022-09-28,株式会社ＨＹ．ｓ,,株式会社,鹿児島県,鹿児島市,加治屋町９番３３－４０２号,,46,201,8920846,,,,,,,2022-09-28,1,,,,,エイチワイエス,0
2160,9360003012312,新規,0,2022-09-28,2022-09-28,ｌｏｆｔｉ合同会社,,合同会社,沖縄県,那覇市,久茂地２丁目２番２号タイムスビル２Ｆ,,47,201,9000015,,,,,,,2022-09-28,1,,,,,ロフティ,0
2161,9370001049082,新規,0,2022-09-28,2022-09-28,株式会社アール・ジョブマネジメント,,株式会社,宮城県,仙台市青葉区,本町１丁目３番９号,,04,101,9800014,,,,,,,2022-09-28,1,,,,,アールジョブマネジメント,0
2162,9370003005843,新規,0,2022-09-28,2022-09-28,合同会社仙台大雅堂ＬＯＧ,,合同会社,宮城県,仙台市青葉区,立町１６番２２－４０２号,,04,101,9800822,,,,,,,2022-09-28,1,,,,,センダイタイガドウエルオージー,0
2168,9390003002005,新規,0,2022-09-28,2022-09-28,合同会社アイノア,,合同会社,山形県,山形市,旅篭町１丁目１０番２１号,,06,201,9900047,,,,,,,2022-09-28,1,,,,,アイノア,0
2181,9430005014571,新規,0,2022-09-28,2022-09-28,医療法人社団太陽会,,その他の設立登記法人,北海道,苫小牧市,しらかば町１丁目７番７号,,01,213,0530821,,,,,,,2022-09-28,1,,,,,タイヨウカイ,0
2192,9700150111930,新規,0,2022-09-28,2022-09-28,ＯＧＡＳＡＷＡＲＡ　ＩＢＬＰ　ＨＯＬＤＩＮＧＳ　ＬＬＣ,,外国会社等,,,,,,,,１２０９オレンジストリート、ウィルミントン、デラウェア州、１９８０１，Ｕ．Ｓ．Ａ,,,,,,2022-09-28,1,,,,,オガサワラアイビーエルピーホールデイングスエルエルシー,0
