sequenceNumber,corporateNumber,process,correct,updateDate,changeDate,name,nameImageId,kind,prefectureName,cityName,streetNumber,addressImageId,prefectureCode,cityCode,postCode,addressOutside,addressOutsideImageId,closeDate,closeCause,successorCorporateNumber,changeCause,assignmentDate,latest,enName,enPrefectureName,enCityName,enAddressOutside,furigana,hihyoji
1,1010001179154,登記記録の閉鎖等,0,2024-03-01,2024-02-27,Ｐａｄｓｈｏｒｅ　Ｎｅｔｗｏｒｋｓ　Ａｓｉａ株式会社,,株式会社,神奈川県,川崎市川崎区,駅前本町１４番地５,,14,131,2100007,,,2024-02-27,清算の結了等,,,2016-10-25,1,,,,,パドショアネットワークスアジア,0
6,1010002016471,登記記録の閉鎖等,0,2024-03-01,2024-02-26,有限会社アドメデイア,,有限会社,東京都,中央区,日本橋小網町１１番６号,,13,102,1030016,,,2024-02-26,清算の結了等,,,2015-10-05,1,,,,,アドメディア,0
12,1010405015236,登記記録の閉鎖等,0,2024-03-01,2024-02-29,相模原１ロジスティック特定目的会社,,その他の設立登記法人,東京都,中央区,八重洲２丁目２番１号,,13,102,1040028,,,2024-02-29,清算の結了等,,,2016-11-01,1,,,,,サガミハラワンロジスティック,0
14,1010502014727,登記記録の閉鎖等,0,2024-03-01,2024-02-27,有限会社丸武商店,,有限会社,東京都,台東区,松が谷２丁目２６番５号,,13,106,1110036,,,2024-02-27,清算の結了等,,,2015-10-05,1,,,,,マルタケショウテン,0
16,1010601003325,登記記録の閉鎖等,0,2024-03-01,2024-02-22,誠和金属株式会社,,株式会社,東京都,江東区,毛利２丁目２番８号,,13,108,1350001,,,2024-02-22,清算の結了等,,,2015-10-05,1,,,,,セイワキンゾク,0
18,1010801007308,登記記録の閉鎖等,0,2024-03-01,2024-02-26,千代田工具株式会社,,株式会社,東京都,大田区,下丸子２丁目２４番２４号,,13,111,1460092,,,2024-02-26,清算の結了等,,,2015-10-05,1,,,,,チヨダコウグ,0
28,1011001131559,登記記録の閉鎖等,0,2024-03-01,2024-02-21,株式会社ＡＮＫＯＡ,,株式会社,東京都,渋谷区,恵比寿３丁目３７番２１号,,13,113,1500013,,,2024-02-21,清算の結了等,,,2020-01-07,1,,,,,アンコア,0
50,1020001043350,登記記録の閉鎖等,0,2024-03-01,2024-02-28,株式会社セレーノ,,株式会社,神奈川県,横浜市鶴見区,豊岡町２２番２７号,,14,101,2300062,,,2024-02-28,清算の結了等,,,2015-10-05,1,,,,,セレーノ,0
53,1020001137706,登記記録の閉鎖等,0,2024-03-01,2024-02-27,日本ユニサ株式会社,,株式会社,神奈川県,川崎市高津区,久本３丁目１４番１－８０８号ザ・タワー＆パークス田園都市溝口,,14,134,2130011,,,2024-02-27,清算の結了等,,,2020-09-15,1,,,,,ニホンユニサ,0
66,1030001095779,登記記録の閉鎖等,0,2024-03-01,2024-02-27,株式会社おそうじ太郎,,株式会社,埼玉県,春日部市,薄谷３００番地１,,11,214,3440034,,,2024-02-27,清算の結了等,,,2015-10-05,1,,,,,オソウジタロウ,0
90,1080002005641,登記記録の閉鎖等,0,2024-03-01,2024-02-28,有限会社マルヨシ,,有限会社,静岡県,静岡市葵区,唐瀬１丁目９番１号,,22,101,4200937,,,2024-02-28,清算の結了等,,,2015-10-05,1,,,,,マルヨシ,0
95,1110001005779,登記記録の閉鎖等,0,2024-03-01,2024-02-09,株式会社渡辺眼鏡店,,株式会社,新潟県,新潟市中央区,沼垂東６丁目７番１４号,,15,103,9500075,,,2024-02-09,清算の結了等,,,2015-10-05,1,,,,,ワタナベガンキョウテン,0
97,1110001014152,登記記録の閉鎖等,0,2024-03-01,2024-02-28,サクセス総業株式会社,,株式会社,新潟県,三条市,下保内２９２番地３,,15,204,9550021,,,2024-02-28,清算の結了等,,,2015-10-05,1,,,,,サクセスソウギョウ,0
111,1120001209882,登記記録の閉鎖等,0,2024-03-01,2024-02-28,株式会社善助,,株式会社,大阪府,大阪市平野区,加美北９丁目４番３９号シャーメゾンＭＯＭＯ、Ｂ２０１,,27,126,5470001,,,2024-02-28,清算の結了等,,,2017-12-06,1,,,,,,0
117,1120901036410,登記記録の閉鎖等,0,2024-03-01,2024-02-29,株式会社ビ・ユースフル,,株式会社,大阪府,豊中市,浜２丁目２０番２８号１階,,27,203,5610817,,,2024-02-29,清算の結了等,,,2016-01-21,1,,,,,ビユースフル,0
118,1122001019238,登記記録の閉鎖等,0,2024-03-01,2024-02-28,田中不動産株式会社,,株式会社,大阪府,八尾市,南太子堂３丁目３番５号,,27,212,5810056,,,2024-02-28,清算の結了等,,,2015-10-05,1,,,,,タナカフドウサン,0
129,1140002065563,登記記録の閉鎖等,0,2024-03-01,2024-02-27,有限会社ツーブレイン・メディアプロデュース,,有限会社,兵庫県,伊丹市,中野西２丁目６３番グランツ中野西Ｂ２０１,,28,207,6640023,,,2024-02-27,清算の結了等,,,2015-10-05,1,,,,,ツーブレインメディアプロデュース,0
149,1220001014819,登記記録の閉鎖等,0,2024-03-01,2024-02-27,Ｊ－ＮＥＳ株式会社,,株式会社,石川県,金沢市,玉川町１１番３４号,,17,201,9200863,,,2024-02-27,清算の結了等,,,2015-10-05,1,,,,,ジェイネス,0
166,1280005007409,登記記録の閉鎖等,0,2024-03-01,2024-02-29,一般社団法人島根城下町食文化研究会,,その他の設立登記法人,島根県,松江市,竹矢町５１番地１,,32,201,6900023,,,2024-02-29,清算の結了等,,,2021-04-13,1,,,,,シマネジョウカマチショクブンカケンキュウカイ,0
178,1330001018692,登記記録の閉鎖等,0,2024-03-01,2024-02-26,ＴａｋｅＥｎｅｒｇｙＣｏｒｐｏｒａｔｉｏｎ株式会社,,株式会社,熊本県,菊池郡菊陽町,大字原水１１５７－３,,43,404,8691102,,,2024-02-26,清算の結了等,,,2015-10-05,1,,,,,,0
180,1330002006886,登記記録の閉鎖等,0,2024-03-01,2024-02-26,有限会社津地石油,,有限会社,熊本県,熊本市北区,四方寄町１２９２番地,,43,105,8615515,,,2024-02-26,清算の結了等,,,2015-10-05,1,,,,,,0
194,1390005007315,登記記録の閉鎖等,0,2024-03-01,2024-02-28,一般社団法人宮内地区西部連合会,,その他の設立登記法人,山形県,南陽市,宮内３１１５番地１１,,06,213,9920472,,,2024-02-28,清算の結了等,,,2015-10-05,1,,,,,ミヤウチチクセイボレンゴウカイ,0
199,1430001060429,登記記録の閉鎖等,0,2024-03-01,2024-02-26,株式会社札幌清田食品,,株式会社,岩手県,陸前高田市,気仙町字双六７４番地１０,,03,210,0292204,,,2024-02-26,清算の結了等,,,2015-10-05,1,,,,,サッポロキヨタショクヒン,0
200,1430001077968,登記記録の閉鎖等,0,2024-03-01,2024-02-26,株式会社スガイディノス,,株式会社,北海道,札幌市中央区,南三条西５丁目１－１,,01,101,0600063,,,2024-02-26,清算の結了等,,,2018-12-25,1,,,,,スガイディノス,0
223,2010401116053,登記記録の閉鎖等,0,2024-03-01,2024-02-28,株式会社ＮＯＺＹ,,株式会社,東京都,港区,南麻布１丁目３－１２ランドハイム仙台坂６０１号,,13,103,1060047,,,2024-02-28,清算の結了等,,,2015-10-05,1,,,,,,0
232,2010601056495,登記記録の閉鎖等,0,2024-03-01,2024-02-26,株式会社日本プラントサービス,,株式会社,東京都,江東区,高橋１３番１５号,,13,108,1350005,,,2024-02-26,清算の結了等,,,2019-12-10,1,,,,,ニホンプラントサービス,0
260,2011801011257,登記記録の閉鎖等,0,2024-03-01,2024-02-29,株式会社ハヤカワ,,株式会社,東京都,足立区,一ツ家２丁目１４番４号,,13,121,1210075,,,2024-02-29,清算の結了等,,,2015-10-05,1,,,,,ハヤカワ,0
279,2020005007961,登記記録の閉鎖等,0,2024-03-01,2024-02-27,中原工場協同組合,,その他の設立登記法人,神奈川県,川崎市中原区,今井南町１０番４１号三木プーリ株式会社内,,14,133,2110064,,,2024-02-27,清算の結了等,,,2015-10-05,1,,,,,ナカハラコウジョウ,0
283,2021001064807,登記記録の閉鎖等,0,2024-03-01,2024-02-29,トントンコンサルティング株式会社,,株式会社,神奈川県,秦野市,尾尻４１０番地の１７,,14,211,2570011,,,2024-02-29,清算の結了等,,,2018-05-16,1,,,,,トントンコンサルティング,0
295,2030002083914,登記記録の閉鎖等,0,2024-03-01,2024-02-27,有限会社宮本鉄工所,,有限会社,埼玉県,鴻巣市,下忍２８７８番地,,11,217,3690113,,,2024-02-27,清算の結了等,,,2015-10-05,1,,,,,ミヤモトテッコウショ,0
299,2030005011566,登記記録の閉鎖等,0,2024-03-01,2024-02-27,一般財団法人埼玉伝統工芸協会,,その他の設立登記法人,埼玉県,比企郡小川町,大字小川１２２０番地,,11,343,3550321,,,2024-02-27,清算の結了等,,,2015-10-05,1,,,,,サイタマデントウコウゲイキョウカイ,0
306,2040002023514,登記記録の閉鎖等,0,2024-03-01,2024-02-27,有限会社高橋建設,00019913,有限会社,千葉県,船橋市,西船３丁目５番１２号,,12,204,2730031,,,2024-02-27,清算の結了等,,,2015-10-05,1,,,,,タカハシケンセツ,0
307,2040002087501,登記記録の閉鎖等,0,2024-03-01,2024-02-27,山和電機工業有限会社,,有限会社,千葉県,香取郡神崎町,郡１１１９番地５,,12,342,2890202,,,2024-02-27,清算の結了等,,,2015-10-05,1,,,,,ヤマワデンキコウギョウ,0
312,2050001017417,登記記録の閉鎖等,0,2024-03-01,2024-02-27,株式会社高密度エネルギー科学研究所,,株式会社,茨城県,つくば市,松野木１６５番地３,,08,220,3050056,,,2024-02-27,清算の結了等,,,2015-10-05,1,,,,,コウミツドエネルギーカガクケンキュウジョ,0
317,2070002001938,登記記録の閉鎖等,0,2024-03-01,2024-02-28,有限会社桑山解体興業,,有限会社,群馬県,前橋市,南町２丁目５３番地の３,,10,201,3710805,,,2024-02-28,清算の結了等,,,2015-10-05,1,,,,,,0
328,2100002001397,登記記録の閉鎖等,0,2024-03-01,2024-02-21,有限会社鯨屋,,有限会社,長野県,長野市,若里６丁目６番２８－９０５号,,20,201,3800928,,,2024-02-21,清算の結了等,,,2015-10-05,1,,,,,クジラヤ,0
330,2100002023714,登記記録の閉鎖等,0,2024-03-01,2024-02-26,有限会社高山自動車板金,,有限会社,長野県,安曇野市,豊科高家５２１１番地,,20,220,3998204,,,2024-02-26,清算の結了等,,,2015-10-05,1,,,,,タカヤマジドウシャバンキン,0
332,2100005001584,登記記録の閉鎖等,0,2024-03-01,2024-02-22,医療法人月岡内科,,その他の設立登記法人,長野県,長野市,大字上駒沢１３１番地２,,20,201,3810082,,,2024-02-22,清算の結了等,,,2015-10-05,1,,,,,ツキオカナイカ,0
352,2120901002411,登記記録の閉鎖等,0,2024-03-01,2024-02-29,株式会社匠屋,,株式会社,大阪府,茨木市,島４丁目２４番７号,,27,211,5670854,,,2024-02-29,清算の結了等,,,2015-10-05,1,,,,,タクミヤ,0
362,2130005009798,登記記録の閉鎖等,0,2024-03-01,2024-02-27,成就院,,その他の設立登記法人,京都府,与謝郡伊根町,字菅野５８７番地の１,,26,463,6260431,,,2024-02-27,清算の結了等,,,2015-10-05,1,,,,,ジョウジュイン,0
368,2140002048542,登記記録の閉鎖等,0,2024-03-01,2024-02-27,有限会社コスモ建設,,有限会社,兵庫県,姫路市,山田町多田９０２番地１,,28,201,6792111,,,2024-02-27,清算の結了等,,,2015-10-05,1,,,,,コスモケンセツ,0
371,2150001011079,登記記録の閉鎖等,0,2024-03-01,2024-02-29,株式会社ラックス,,株式会社,奈良県,橿原市,醍醐町２６１番地,,29,205,6340072,,,2024-02-29,清算の結了等,,,2015-10-05,1,,,,,ラックス,0
375,2180001074726,登記記録の閉鎖等,0,2024-03-01,2024-02-26,株式会社日本ハウス,,株式会社,愛知県,春日井市,篠木町６丁目１６４３番地の１７,,23,206,4860851,,,2024-02-26,清算の結了等,,,2015-10-05,1,,,,,ニホンハウス,0
379,2180002042847,登記記録の閉鎖等,0,2024-03-01,2024-02-27,有限会社コヤ,,有限会社,愛知県,名古屋市北区,志賀町４丁目１４番地の１ガーデンハイツ磯部第７、３０１号,,23,103,4620037,,,2024-02-27,清算の結了等,,,2015-10-05,1,,,,,コヤ,0
387,2220001014982,登記記録の閉鎖等,0,2024-03-01,2024-02-28,株式会社ナック,,株式会社,石川県,金沢市,しじま台２丁目１３番地２６,,17,201,9218132,,,2024-02-28,清算の結了等,,,2015-10-05,1,,,,,ナック,0
394,2230002010435,登記記録の閉鎖等,0,2024-03-01,2024-02-28,有限会社メリメントケアサービス,,有限会社,富山県,小矢部市,金屋本江１３２番地,,16,209,9320812,,,2024-02-28,清算の結了等,,,2015-10-05,1,,,,,メリメントケアサービス,0
396,2240002000294,登記記録の閉鎖等,0,2024-03-01,2024-02-29,有限会社アーバアバアヘアコーポレーション,,有限会社,広島県,広島市中区,堺町２丁目１番１号,,34,101,7300853,,,2024-02-29,清算の結了等,,,2015-10-05,1,,,,,,0
399,2250002000847,登記記録の閉鎖等,0,2024-03-01,2024-02-28,征辰有限会社,,有限会社,山口県,山口市,道場門前２丁目２番３１号,,35,203,7530047,,,2024-02-28,清算の結了等,,,2015-10-05,1,,,,,セイシン,0
424,2370001046433,登記記録の閉鎖等,0,2024-03-01,2024-02-29,株式会社大成パーツ,,株式会社,宮城県,仙台市若林区,荒井１丁目１番地の７,,04,103,9840032,,,2024-02-29,清算の結了等,,,2020-12-02,1,,,,,,0
426,2380001013143,登記記録の閉鎖等,0,2024-03-01,2024-02-22,株式会社鈴藤,,株式会社,福島県,いわき市,平字三町目３０番地,,07,204,9708026,,,2024-02-22,清算の結了等,,,2015-10-05,1,,,,,スズフジ,0
427,2380001013903,登記記録の閉鎖等,0,2024-03-01,2024-02-28,株式会社丸丹,,株式会社,福島県,いわき市,植田町中央１丁目４番地の６,,07,204,9748261,,,2024-02-28,清算の結了等,,,2015-10-05,1,,,,,マルタン,0
433,2400005007725,登記記録の閉鎖等,0,2024-03-01,2024-02-20,一般社団法人岩泉デザイン会議,,その他の設立登記法人,岩手県,下閉伊郡岩泉町,岩泉字松橋５番地３,,03,483,0270501,,,2024-02-20,清算の結了等,,,2016-11-10,1,,,,,イワイズミデザインカイギ,0
444,2480001010097,登記記録の閉鎖等,0,2024-03-01,2024-02-26,株式会社ＡＳＡＨＩ,,株式会社,徳島県,三好郡東みよし町,加茂１４９７番地１０,,36,489,7794701,,,2024-02-26,清算の結了等,,,2017-08-03,1,,,,,,0
468,3010401163490,登記記録の閉鎖等,0,2024-03-01,2024-02-27,宝利商事株式会社,,株式会社,東京都,港区,西麻布１丁目４番３６号ロジマン西麻布３０１号室,,13,103,1060031,,,2024-02-27,清算の結了等,,,2021-10-28,1,,,,,ホウリショウジ,0
470,3010402027934,登記記録の閉鎖等,0,2024-03-01,2024-02-28,有限会社ギャラリーアートギルド,,有限会社,東京都,港区,東麻布１丁目２３－６,,13,103,1060044,,,2024-02-28,清算の結了等,,,2015-10-05,1,,,,,,0
471,3010403029137,登記記録の閉鎖等,0,2024-03-01,2024-02-29,Ｄ＆Ｄ合同会社,,合同会社,東京都,港区,北青山３丁目６番７青山パラシオタワー１１階,,13,103,1070061,,,2024-02-29,清算の結了等,,,2022-12-15,1,,,,,ディーアンドディー,0
493,3011102029139,登記記録の閉鎖等,0,2024-03-01,2024-02-26,有限会社エムハント,,有限会社,東京都,新宿区,下落合１丁目３番６号ハイシティ高田馬場２１３号,,13,104,1610033,,,2024-02-26,清算の結了等,,,2015-10-05,1,,,,,エムハント,0
520,3021001025147,登記記録の閉鎖等,0,2024-03-01,2024-02-29,株式会社デジタルビデオシステムズ,,株式会社,神奈川県,大和市,中央７丁目９番１号,,14,213,2420021,,,2024-02-29,清算の結了等,,,2015-10-05,1,,,,,デジタルビデオシステムズ,0
523,3021001078789,登記記録の閉鎖等,0,2024-03-01,2024-02-26,株式会社日本五月花不動産,,株式会社,神奈川県,平塚市,袖ケ浜１４番３３号,,14,203,2540813,,,2024-02-26,清算の結了等,,,2023-04-24,1,,,,,ニホンサツキバナフドウサン,0
534,3030001084672,登記記録の閉鎖等,0,2024-03-01,2024-02-26,株式会社熊谷リサイクル,,株式会社,埼玉県,熊谷市,西別府１８２８番地３,,11,202,3600857,,,2024-02-26,清算の結了等,,,2015-10-05,1,,,,,クマガヤリサイクル,0
557,3050001044402,登記記録の閉鎖等,0,2024-03-01,2024-02-28,株式会社こころの杜,,株式会社,東京都,練馬区,早宮２丁目４番２３号ステップハウス葵２０９号室,,13,120,1790085,,,2024-02-28,清算の結了等,,,2018-05-09,1,,,,,ココロノモリ,0
584,3120002037538,登記記録の閉鎖等,0,2024-03-01,2024-02-27,有限会社中田耕志デザイン室,,有限会社,大阪府,大阪市平野区,加美東６丁目１１番３０－４０２号,,27,126,5470002,,,2024-02-27,清算の結了等,,,2015-10-05,1,,,,,ナカダコウジデザインシツ,0
623,3200002009826,登記記録の閉鎖等,0,2024-03-01,2024-02-28,有限会社ムトウ和加工所,,有限会社,岐阜県,瑞穂市,十八条７１３番地の３,,21,216,5010314,,,2024-02-28,清算の結了等,,,2015-10-05,1,,,,,ムトウワカコウショ,0
625,3220001021433,登記記録の閉鎖等,0,2024-03-01,2024-02-28,株式会社ナカシマ,,株式会社,石川県,七尾市,矢田町ヤ部２２番地３７,,17,202,9260014,,,2024-02-28,清算の結了等,,,2017-01-19,1,,,,,ナカシマ,0
655,3340002001926,登記記録の閉鎖等,0,2024-03-01,2024-02-26,有限会社エフズインターナショナル,,有限会社,鹿児島県,鹿児島市,谷山塩屋町２５９番地,,46,201,8910121,,,2024-02-26,清算の結了等,,,2015-10-05,1,,,,,,0
659,3360001012864,登記記録の閉鎖等,0,2024-03-01,2024-02-22,農業生産法人株式会社あいあいファーム,,株式会社,沖縄県,国頭郡今帰仁村,字湧川３６９番地,,47,306,9050412,,,2024-02-22,清算の結了等,,,2015-10-05,1,,,,,アイアイファーム,0
678,3500001008690,登記記録の閉鎖等,0,2024-03-01,2024-02-29,株式会社ＰＲＴ,,株式会社,愛媛県,伊予郡松前町,大字北川原９３２番地６,,38,401,7913131,,,2024-02-29,清算の結了等,,,2015-10-05,1,,,,,ピーアールティー,0
697,4010403027222,登記記録の閉鎖等,0,2024-03-01,2024-02-27,合同会社Ｅビジネス,,合同会社,東京都,港区,南青山２丁目２番１５号,,13,103,1070062,,,2024-02-27,清算の結了等,,,2022-03-11,1,,,,,イービジネス,0
710,4010602011308,登記記録の閉鎖等,0,2024-03-01,2024-02-26,有限会社サワダ企画,,有限会社,東京都,墨田区,千歳３丁目２番１２号,,13,107,1300025,,,2024-02-26,清算の結了等,,,2015-10-05,1,,,,,サワダキカク,0
720,4010901039751,登記記録の閉鎖等,0,2024-03-01,2024-02-27,株式会社ＩＮＤＥＣＫ’Ｓ,,株式会社,東京都,世田谷区,世田谷２丁目２２番２２－４０５号,,13,112,1540017,,,2024-02-27,清算の結了等,,,2017-03-21,1,,,,,インデックス,0
743,4020001035270,登記記録の閉鎖等,0,2024-03-01,2024-02-28,株式会社ズーム,,株式会社,神奈川県,横浜市戸塚区,上倉田町１１１７番地７,,14,110,2440816,,,2024-02-28,清算の結了等,,,2015-10-05,1,,,,,ズーム,0
755,4030001011345,登記記録の閉鎖等,0,2024-03-01,2024-02-27,プラザノースマネジメント株式会社,,株式会社,埼玉県,さいたま市大宮区,大門町２丁目１１８番地,,11,103,3300846,,,2024-02-27,清算の結了等,,,2015-10-05,1,,,,,プラザノースマネジメント,0
759,4030001084639,登記記録の閉鎖等,0,2024-03-01,2024-02-09,熊谷観光バス株式会社,,株式会社,埼玉県,熊谷市,西野４番地１,,11,202,3600216,,,2024-02-09,清算の結了等,,,2015-10-05,1,,,,,クマガヤカンコウバス,0
795,4120001071446,登記記録の閉鎖等,0,2024-03-01,2024-02-26,株式会社やまひこ商事,,株式会社,大阪府,大阪市北区,西天満５丁目１１番２２号,,27,127,5300047,,,2024-02-26,清算の結了等,,,2015-10-05,1,,,,,ヤマヒコショウジ,0
847,4180302006392,登記記録の閉鎖等,0,2024-03-01,2024-02-22,市川米穀有限会社,,有限会社,愛知県,豊橋市,柳生町３９番地の２,,23,201,4418041,,,2024-02-22,清算の結了等,,,2015-10-05,1,,,,,イチカワベイコク,0
852,4230001019228,登記記録の閉鎖等,0,2024-03-01,2024-02-28,株式会社ＭＪプロモート,,株式会社,富山県,富山市,長附４００番地１５,,16,201,9392255,,,2024-02-28,清算の結了等,,,2022-02-08,1,,,,,エムジェープロモート,0
857,4260001027533,登記記録の閉鎖等,0,2024-03-01,2024-02-28,株式会社マスターズ,,株式会社,岡山県,岡山市北区,西古松２丁目３番８号,,33,101,7000927,,,2024-02-28,清算の結了等,,,2015-10-05,1,,,,,,0
866,4290005016439,登記記録の閉鎖等,0,2024-03-01,2024-02-15,一般社団法人湖西篆刻協会,,その他の設立登記法人,福岡県,福岡市中央区,大濠２丁目１１番２９号,,40,133,8100052,,,2024-02-15,清算の結了等,,,2017-06-08,1,,,,,コサイテンコクキョウカイ,0
871,4330005007573,登記記録の閉鎖等,0,2024-03-01,2024-02-22,社会福祉法人神照福祉会,,その他の設立登記法人,熊本県,球磨郡球磨村,大字神瀬甲字木屋角１１３８番地の１,,43,513,8696404,,,2024-02-22,清算の結了等,,,2015-10-05,1,,,,,シンショウフクシカイ,0
877,4380001006467,登記記録の閉鎖等,0,2024-03-01,2024-02-26,福島グリーン開発株式会社,,株式会社,福島県,郡山市,安積町荒井字猫田１１番地５,,07,203,9630111,,,2024-02-26,清算の結了等,,,2023-12-26,1,,,,,フクシマグリーンカイハツ,0
884,4420002001883,登記記録の閉鎖等,0,2024-03-01,2024-02-27,有限会社つがる工芸店,,有限会社,青森県,青森市,桜川７丁目１９番４１号,,02,201,0300945,,,2024-02-27,清算の結了等,,,2015-10-05,1,,,,,ツガルコウゲイテン,0
885,4420005007498,登記記録の閉鎖等,0,2024-03-01,2024-02-27,特定非営利活動法人あおもりダイバーシティ,,その他の設立登記法人,青森県,青森市,勝田２丁目８番２３号サンライズ勝田公園５０２号室,,02,201,0300821,,,2024-02-27,清算の結了等,,,2017-07-03,1,,,,,,0
889,4430002002212,登記記録の閉鎖等,0,2024-03-01,2024-02-26,有限会社岩崎商事,,有限会社,北海道,札幌市南区,真駒内柏丘８丁目６番１号,,01,106,0050022,,,2024-02-26,清算の結了等,,,2015-10-05,1,,,,,イワサキショウジ,0
925,5010601028632,登記記録の閉鎖等,0,2024-03-01,2024-02-26,株式会社江戸屋,,株式会社,東京都,墨田区,東向島３丁目１０番３号,,13,107,1310032,,,2024-02-26,清算の結了等,,,2023-03-09,1,,,,,エドヤ,0
930,5011001093473,登記記録の閉鎖等,0,2024-03-01,2024-02-28,インパクト・リアルティ株式会社,,株式会社,東京都,渋谷区,渋谷２丁目１２番１９号,,13,113,1500002,,,2024-02-28,清算の結了等,,,2015-10-05,1,,,,,インパクトリアルティ,0
934,5011003008958,登記記録の閉鎖等,0,2024-03-01,2024-02-27,プラチナ管理合同会社,,合同会社,東京都,渋谷区,恵比寿１丁目２２番２３－６０３号,,13,113,1500013,,,2024-02-27,清算の結了等,,,2018-07-10,1,,,,,プラチナカンリ,0
969,5020003017539,登記記録の閉鎖等,0,2024-03-01,2024-02-22,合同会社あおい不動産,,合同会社,神奈川県,川崎市麻生区,栗平１丁目６－２ライオンズステーションプラザ栗平３０１,,14,137,2150031,,,2024-02-22,清算の結了等,,,2020-03-13,1,,,,,アオイフドウサン,0
982,5030001154952,登記記録の閉鎖等,0,2024-03-01,2024-02-26,株式会社ｍｅｅｌ,,株式会社,埼玉県,東松山市,大字下唐子２００６番地５,,11,212,3550076,,,2024-02-26,清算の結了等,,,2023-08-10,1,,,,,ミール,0
990,5030003016044,登記記録の閉鎖等,0,2024-03-01,2024-02-29,合同会社ａｋｉｎａｉ,,合同会社,埼玉県,鴻巣市,本町４丁目２番２７号２Ｆ,,11,217,3650038,,,2024-02-29,清算の結了等,,,2020-10-14,1,,,,,アキナイ,0
996,5040002015698,登記記録の閉鎖等,0,2024-03-01,2024-02-26,有限会社しんせつ,,有限会社,千葉県,千葉市花見川区,さつきが丘２丁目４０番地２１,,12,102,2620014,,,2024-02-26,清算の結了等,,,2015-10-05,1,,,,,シンセツ,0
1006,5070002009615,登記記録の閉鎖等,0,2024-03-01,2024-02-27,有限会社クスモト,,有限会社,群馬県,高崎市,上小塙町５７７番地１,,10,202,3700077,,,2024-02-27,清算の結了等,,,2015-10-05,1,,,,,クスモト,0
1009,5080101014176,登記記録の閉鎖等,0,2024-03-01,2024-02-28,伊豆総合企画株式会社,,株式会社,静岡県,伊東市,八幡野１２４０番地の５１,,22,208,4130232,,,2024-02-28,清算の結了等,,,2015-10-05,1,,,,,イズソウゴウキカク,0
1023,5120001117917,登記記録の閉鎖等,0,2024-03-01,2024-02-26,株式会社ＭＣ－ＮＥＴ,,株式会社,和歌山県,田辺市,南新万５番７号,,30,206,6460013,,,2024-02-26,清算の結了等,,,2015-10-05,1,,,,,エムシーネット,0
1046,5130002012133,登記記録の閉鎖等,0,2024-03-01,2024-02-28,有限会社クリーンコーポレーション,,有限会社,京都府,京都市山科区,小山谷田町４４番地の３２,,26,110,6078104,,,2024-02-28,清算の結了等,,,2015-10-05,1,,,,,クリーンコーポレーション,0
1060,5180001004853,登記記録の閉鎖等,0,2024-03-01,2024-02-21,豊国工業株式会社,,株式会社,愛知県,名古屋市守山区,幸心１丁目１１１番地,,23,113,4630079,,,2024-02-21,清算の結了等,,,2017-08-07,1,,,,,トヨクニコウギョウ,0
1062,5180001092766,登記記録の閉鎖等,0,2024-03-01,2024-02-26,株式会社芳金,,株式会社,愛知県,大府市,大府町柊山５３番地の５,,23,223,4740051,,,2024-02-26,清算の結了等,,,2015-10-05,1,,,,,ヨシカネ,0
1066,5180302016977,登記記録の閉鎖等,0,2024-03-01,2024-02-22,有限会社東光工業,,有限会社,愛知県,安城市,今本町４丁目１０番１９号,,23,212,4460008,,,2024-02-22,清算の結了等,,,2015-10-05,1,,,,,トウコウコウギョウ,0
1091,5290001090560,登記記録の閉鎖等,0,2024-03-01,2024-02-26,株式会社ＡＰＰＲＥＣＩ,,株式会社,福岡県,糸島市,二丈武３２３番地１０,,40,230,8191616,,,2024-02-26,清算の結了等,,,2020-10-16,1,,,,,アプリーシ,0
1108,5330002029520,登記記録の閉鎖等,0,2024-03-01,2024-02-26,有限会社豊夢,,有限会社,熊本県,上天草市,龍ヶ岳町大道１５０番地の１,,43,212,8660201,,,2024-02-26,清算の結了等,,,2015-10-05,1,,,,,ホウム,0
1112,5350002011484,登記記録の閉鎖等,0,2024-03-01,2024-02-26,有限会社ひだりうま,,有限会社,宮崎県,日向市,都町４番１１号,,45,206,8830043,,,2024-02-26,清算の結了等,,,2015-10-05,1,,,,,ヒダリウマ,0
1130,5460101005442,登記記録の閉鎖等,0,2024-03-01,2024-02-27,ＣＡＮＯＮＡＪＡＰＡＮ株式会社,,株式会社,北海道,中川郡本別町,北３丁目２番地２４,,01,646,0893334,,,2024-02-27,清算の結了等,,,2015-10-05,1,,,,,カノーナジャパン,0
1139,6010001168227,登記記録の閉鎖等,0,2024-03-01,2024-02-28,株式会社リコオテクノ,,株式会社,東京都,台東区,上野３丁目２番１号,,13,106,1100005,,,2024-02-28,清算の結了等,,,2015-10-05,1,,,,,リコオテクノ,0
1150,6010401166268,登記記録の閉鎖等,0,2024-03-01,2024-02-27,株式会社２Ｕ,,株式会社,東京都,港区,六本木３丁目４番３５号,,13,103,1060032,,,2024-02-27,清算の結了等,,,2022-03-22,1,,,,,トゥーユー,0
1160,6011001067914,登記記録の閉鎖等,0,2024-03-01,2024-02-28,株式会社ハイトークイースタン,,株式会社,東京都,港区,麻布狸穴町５７番地日興パレス麻布狸穴３０１,,13,103,1060042,,,2024-02-28,清算の結了等,,,2015-10-05,1,,,,,,0
1165,6011001140373,登記記録の閉鎖等,0,2024-03-01,2024-02-27,株式会社ＺＥＲＯ,,株式会社,東京都,渋谷区,幡ヶ谷２丁目５０番１８号ガーデンアルバ幡ヶ谷１０２号室,,13,113,1510072,,,2024-02-27,清算の結了等,,,2021-05-20,1,,,,,ゼロ,0
1175,6011201002778,登記記録の閉鎖等,0,2024-03-01,2024-02-27,株式会社清香堂,,株式会社,東京都,中野区,上高田１丁目３６番１１号,,13,114,1640002,,,2024-02-27,清算の結了等,,,2015-10-05,1,,,,,,0
1199,6021002012125,登記記録の閉鎖等,0,2024-03-01,2024-02-28,有限会社松田工務店,,有限会社,神奈川県,茅ヶ崎市,堤２９９０番地８,,14,207,2530006,,,2024-02-28,清算の結了等,,,2015-10-05,1,,,,,マツダコウムテン,0
1204,6030001111465,登記記録の閉鎖等,0,2024-03-01,2024-02-22,株式会社Ｆ・Ｇコーポレーション,,株式会社,埼玉県,坂戸市,大字横沼９９番地１,,11,239,3500203,,,2024-02-22,清算の結了等,,,2015-11-19,1,,,,,エフジーコーポレーション,0
1206,6030001139374,登記記録の閉鎖等,0,2024-03-01,2024-02-22,株式会社キャピタルエステート,,株式会社,埼玉県,川口市,芝東町１９番２号,,11,203,3330867,,,2024-02-22,清算の結了等,,,2020-11-20,1,,,,,キャピタルエステート,0
1207,6030001143161,登記記録の閉鎖等,0,2024-03-01,2024-02-28,株式会社ｕｒｕ,,株式会社,埼玉県,さいたま市見沼区,堀崎町１６６１番地砂サンシャインシティ２番館１０５,,11,104,3370052,,,2024-02-28,清算の結了等,,,2021-07-09,1,,,,,ウル,0
1221,6040002031901,登記記録の閉鎖等,0,2024-03-01,2024-02-27,有限会社藤田塗装建設,,有限会社,千葉県,船橋市,豊富町６４２番地２９,,12,204,2740053,,,2024-02-27,清算の結了等,,,2015-10-05,1,,,,,フジタトソウケンセツ,0
1250,6120002022751,登記記録の閉鎖等,0,2024-03-01,2024-02-28,有限会社蓮井,,有限会社,大阪府,大阪市西区,九条南２丁目２４番１２号,,27,106,5500025,,,2024-02-28,清算の結了等,,,2015-10-05,1,,,,,ハスイ,0
1279,6160005009346,登記記録の閉鎖等,0,2024-03-01,2024-02-29,特定非営利活動法人家棟川流域観光船,,その他の設立登記法人,滋賀県,野洲市,菖蒲２６２－１８２番地,,25,210,5240202,,,2024-02-29,清算の結了等,,,2015-10-05,1,,,,,ヤナムネガワリュウイキカンコウセン,0
1294,6190002013678,登記記録の閉鎖等,0,2024-03-01,2024-02-20,有限会社岡本ホーム,,有限会社,三重県,松阪市,日丘町１３８６番地の２４,,24,204,5150835,,,2024-02-20,清算の結了等,,,2015-10-05,1,,,,,オカモトホーム,0
1295,6200001004214,登記記録の閉鎖等,0,2024-03-01,2024-02-27,八創建設株式会社,,株式会社,岐阜県,岐阜市,熊野町３３番地の２,,21,201,5008372,,,2024-02-27,清算の結了等,,,2015-10-05,1,,,,,ハッソウケンセツ,0
1308,6270002001245,登記記録の閉鎖等,0,2024-03-01,2024-02-29,株式会社ひまわり,,株式会社,鳥取県,鳥取市,西町１丁目２１０番地東邦ビル４階,,31,201,6800022,,,2024-02-29,清算の結了等,,,2015-10-05,1,,,,,ヒマワリ,0
1310,6290001070495,登記記録の閉鎖等,0,2024-03-01,2024-02-26,株式会社グローバルエッジ,,株式会社,福岡県,福岡市中央区,渡辺通１丁目１２番９号渡辺通フジイビル８階,,40,133,8100004,,,2024-02-26,清算の結了等,,,2015-10-05,1,,,,,グローバルエッジ,0
1321,6310001009219,登記記録の閉鎖等,0,2024-03-01,2024-02-27,株式会社まちづくり諫早,,株式会社,長崎県,諫早市,本町３番１１号,,42,204,8540012,,,2024-02-27,清算の結了等,,,2015-10-05,1,,,,,マチヅクリイサハヤ,0
1326,6330002027622,登記記録の閉鎖等,0,2024-03-01,2024-02-27,有限会社元山自動車整備工場,,有限会社,熊本県,葦北郡芦北町,大字小田浦１５７９番地の１５,,43,482,8695303,,,2024-02-27,清算の結了等,,,2015-10-05,1,,,,,モトヤマジドウシャセイビコウジョウ,0
1328,6340001002542,登記記録の閉鎖等,0,2024-03-01,2024-02-29,株式会社大匠設計,,株式会社,鹿児島県,鹿児島市,上本町３番９号,,46,201,8920818,,,2024-02-29,清算の結了等,,,2015-10-05,1,,,,,ダイショウセッケイ,0
1341,6410002004167,登記記録の閉鎖等,0,2024-03-01,2024-02-26,有限会社アイム,,有限会社,秋田県,秋田市,広面字土手下１４番地の１,,05,201,0100041,,,2024-02-26,清算の結了等,,,2015-10-05,1,,,,,アイム,0
1342,6430001002839,登記記録の閉鎖等,0,2024-03-01,2024-02-21,オーヴェール株式会社,,株式会社,北海道,札幌市中央区,南十四条西９丁目３番１－３０１号,,01,101,0640914,,,2024-02-21,清算の結了等,,,2015-10-05,1,,,,,オーヴェール,0
1348,6430002006632,登記記録の閉鎖等,0,2024-03-01,2024-02-26,有限会社クリーン．グループ,,有限会社,北海道,札幌市清田区,真栄二条２丁目３番３１号,,01,110,0040832,,,2024-02-26,清算の結了等,,,2015-10-05,1,,,,,クリーングループ,0
1349,6430002022761,登記記録の閉鎖等,0,2024-03-01,2024-02-20,有限会社三城商亊,,有限会社,北海道,札幌市白石区,本通８丁目南４番５号,,01,104,0030026,,,2024-02-20,清算の結了等,,,2015-10-05,1,,,,,サンジョウショウジ,0
1405,7011101019517,登記記録の閉鎖等,0,2024-03-01,2024-02-28,株式会社ボアール,,株式会社,東京都,新宿区,西新宿７丁目７番２３号トミービル７Ｆ,,13,104,1600023,,,2024-02-28,清算の結了等,,,2015-10-05,1,,,,,ボアール,0
1407,7011101069462,登記記録の閉鎖等,0,2024-03-01,2024-02-28,株式会社フレントレップ,,株式会社,東京都,品川区,北品川５丁目７番１４号,,13,109,1410001,,,2024-02-28,清算の結了等,,,2015-10-05,1,,,,,フレントレップ,0
1420,7011602010065,登記記録の閉鎖等,0,2024-03-01,2024-02-28,有限会社森田中山建築設計亊務所,,有限会社,東京都,練馬区,関町北２丁目２２番１５号,,13,120,1770051,,,2024-02-28,清算の結了等,,,2015-10-05,1,,,,,モリタナカヤマケンチクセッケイジムショ,0
1449,7030003014351,登記記録の閉鎖等,0,2024-03-01,2024-02-27,ダンディスマートロゴテクノロジー合同会社,,合同会社,埼玉県,さいたま市北区,土呂町１丁目５８番６号,,11,102,3310804,,,2024-02-27,清算の結了等,,,2019-11-13,1,,,,,ダンディスマートロゴテクノロジー,0
1452,7040002089179,登記記録の閉鎖等,0,2024-03-01,2024-02-26,有限会社オーバル,,有限会社,千葉県,柏市,大室１７９９番地の１０６,,12,217,2770813,,,2024-02-26,清算の結了等,,,2015-10-05,1,,,,,オーバル,0
1455,7050003006826,登記記録の閉鎖等,0,2024-03-01,2024-02-26,合同会社ＫＳＰＡＣＥ,,合同会社,茨城県,つくば市,梅園２丁目１番１５号スプリングテックつくばビル４０１,,08,220,3050045,,,2024-02-26,清算の結了等,,,2022-09-07,1,,,,,ケイスペース,0
1456,7060001009111,登記記録の閉鎖等,0,2024-03-01,2024-02-27,ＡＫ株式会社,,株式会社,栃木県,日光市,七里６８２番地５,,09,206,3211423,,,2024-02-27,清算の結了等,,,2015-10-05,1,,,,,エーケー,0
1467,7100005011736,登記記録の閉鎖等,0,2024-03-01,2024-02-26,一般社団法人サラリーライト,,その他の設立登記法人,長野県,上田市,材木町１丁目８番９号信栄ビル３Ｆ,,20,203,3860014,,,2024-02-26,清算の結了等,,,2015-11-05,1,,,,,サラリーライト,0
1515,7180001090867,登記記録の閉鎖等,0,2024-03-01,2024-02-26,株式会社Ｌ＆Ｙ,,株式会社,愛知県,尾張旭市,東大道町原田２５５４番地１,,23,226,4880801,,,2024-02-26,清算の結了等,,,2015-10-05,1,,,,,エルアンドワイ,0
1526,7220003002543,登記記録の閉鎖等,0,2024-03-01,2024-02-26,アド・アストラ合同会社,,合同会社,石川県,金沢市,笠舞２丁目１番４号２Ｆ,,17,201,9200965,,,2024-02-26,清算の結了等,,,2019-02-04,1,,,,,アドアストラ,0
1528,7240001026030,登記記録の閉鎖等,0,2024-03-01,2024-02-29,新月工業株式会社,,株式会社,広島県,呉市,昭和町１１番１号,,34,202,7370027,,,2024-02-29,清算の結了等,,,2015-10-05,1,,,,,シンゲツコウギョウ,0
1534,7290001008585,登記記録の閉鎖等,0,2024-03-01,2024-02-26,株式会社ダイナ,,株式会社,福岡県,福岡市博多区,中洲５丁目５番１３号,,40,132,8100801,,,2024-02-26,清算の結了等,,,2015-10-05,1,,,,,ダイナ,0
1535,7290001052542,登記記録の閉鎖等,0,2024-03-01,2024-02-26,株式会社萃香園,,株式会社,福岡県,久留米市,櫛原町８７番地,00092663,40,203,8300013,,,2024-02-26,清算の結了等,,,2015-10-05,1,,,,,スイコウエン,0
1543,7310001011017,登記記録の閉鎖等,0,2024-03-01,2024-02-28,株式会社福江薬局,,株式会社,長崎県,五島市,中央町５番地１６,,42,211,8530002,,,2024-02-28,合併による解散等,9290001042145,令和６年２月１６日福岡県大野城市川久保一丁目２番１号株式会社ドラッグイレブン（9290001042145）に合併し解散,2015-10-05,1,,,,,,0
1546,7330003008637,登記記録の閉鎖等,0,2024-03-01,2024-02-21,合同会社たて山,,合同会社,熊本県,菊池郡菊陽町,光の森２丁目２５番地１,,43,404,8691108,,,2024-02-21,合併による解散等,7330001024818,令和６年１月３１日熊本県菊池郡菊陽町光の森二丁目２５番地１株式会社朝霧の里（7330001024818）に合併し解散,2020-11-16,1,,,,,タテヤマ,0
1548,7340001015980,登記記録の閉鎖等,0,2024-03-01,2024-02-26,株式会社萬宗商事パートナーズ,,株式会社,熊本県,熊本市中央区,花畑町１番１４号,,43,101,8600806,,,2024-02-26,清算の結了等,,,2015-10-05,1,,,,,バンシュウショウジパートナーズ,0
1555,7370002012735,登記記録の閉鎖等,0,2024-03-01,2024-02-29,有限会社ネルソンコーヒー,,有限会社,宮城県,仙台市青葉区,中山５丁目１９番２１号,,04,101,9810952,,,2024-02-29,清算の結了等,,,2015-10-05,1,,,,,ネルソンコーヒー,0
1567,7410003003712,登記記録の閉鎖等,0,2024-03-01,2024-02-22,秋田東京情報システムズ合同会社,,合同会社,秋田県,横手市,朝日が丘４丁目８番１７号,,05,203,0130055,,,2024-02-22,清算の結了等,,,2022-10-27,1,,,,,アキタトウキョウジョウホウシステムズ,0
1622,8011001099427,登記記録の閉鎖等,0,2024-03-01,2024-02-27,株式会社マーケティング・ジャパン,,株式会社,東京都,渋谷区,渋谷２丁目１１番１３号,,13,113,1500002,,,2024-02-27,清算の結了等,,,2015-10-05,1,,,,,マーケティングジャパン,0
1623,8011001133004,登記記録の閉鎖等,0,2024-03-01,2024-02-22,関東アセット株式会社,,株式会社,東京都,渋谷区,本町４丁目４１番１１号,,13,113,1510071,,,2024-02-22,清算の結了等,,,2020-03-23,1,,,,,カントウアセット,0
1638,8011403002954,登記記録の閉鎖等,0,2024-03-01,2024-02-28,シャイニングウィング合同会社,,合同会社,東京都,板橋区,板橋４丁目４番４号セレブ新板橋ビル１階,,13,119,1730004,,,2024-02-28,清算の結了等,,,2020-04-01,1,,,,,シャイニングウィング,0
1648,8012401033256,登記記録の閉鎖等,0,2024-03-01,2024-02-27,株式会社近藤,,株式会社,東京都,港区,芝１丁目１２－１９,,13,103,1050014,,,2024-02-27,清算の結了等,,,2017-10-16,1,,,,,コンドウ,0
1654,8020001117321,登記記録の閉鎖等,0,2024-03-01,2024-02-22,株式会社ナナクサ・ラボ,,株式会社,神奈川県,川崎市麻生区,栗平１丁目６番２－３０１号ライオンズステーションプラザ栗平,,14,137,2150031,,,2024-02-22,清算の結了等,,,2016-08-04,1,,,,,ナナクサラボ,0
1661,8021001063919,登記記録の閉鎖等,0,2024-03-01,2024-02-29,ＪＳＴ株式会社,,株式会社,神奈川県,相模原市中央区,田名１２０７番地１,,14,152,2520244,,,2024-02-29,清算の結了等,,,2018-01-12,1,,,,,ジェーエスティー,0
1665,8030001130793,登記記録の閉鎖等,0,2024-03-01,2024-02-27,株式会社アルテミス,,株式会社,埼玉県,八潮市,大字西袋１０８２番地,,11,234,3400833,,,2024-02-27,清算の結了等,,,2019-05-13,1,,,,,アルテミス,0
1675,8040001022890,登記記録の閉鎖等,0,2024-03-01,2024-02-27,ヨシタケ物流株式会社,,株式会社,千葉県,八千代市,吉橋１０７５番２１,,12,221,2760047,,,2024-02-27,清算の結了等,,,2015-10-05,1,,,,,,0
1685,8070001011107,登記記録の閉鎖等,0,2024-03-01,2024-02-27,株式会社ＥＲＨテクノリサーチ,,株式会社,群馬県,高崎市,石原町２０３０番地５,,10,202,3700864,,,2024-02-27,清算の結了等,,,2015-10-05,1,,,,,イーアールエイチテクノリサーチ,0
1704,8120001128580,登記記録の閉鎖等,0,2024-03-01,2024-02-27,株式会社メビウス,,株式会社,大阪府,大阪市東成区,東小橋１丁目１５番２号,,27,115,5370024,,,2024-02-27,清算の結了等,,,2015-10-05,1,,,,,メビウス,0
1751,8180002072054,登記記録の閉鎖等,0,2024-03-01,2024-02-27,有限会社都路里,,有限会社,愛知県,瀬戸市,五位塚町１１番地の７８,,23,204,4890031,,,2024-02-27,清算の結了等,,,2015-10-05,1,,,,,ツジリ,0
1758,8190002008263,登記記録の閉鎖等,0,2024-03-01,2024-02-27,伊勢アミューズ有限会社,,有限会社,三重県,伊勢市,岡本２丁目５番５７号,,24,203,5160036,,,2024-02-27,清算の結了等,,,2015-10-05,1,,,,,イセアミューズ,0
1760,8220002002304,登記記録の閉鎖等,0,2024-03-01,2024-02-28,有限会社クボタ積算室,,有限会社,石川県,金沢市,直江北１丁目１８１番地,,17,201,9208218,,,2024-02-28,清算の結了等,,,2015-10-05,1,,,,,クボタセキサンシツ,0
1761,8240001045558,登記記録の閉鎖等,0,2024-03-01,2024-02-29,株式会社広島総合テクニカルサービス,,株式会社,広島県,広島市西区,三篠町１丁目３番２０号,,34,104,7330003,,,2024-02-29,清算の結了等,,,2015-10-05,1,,,,,ヒロシマソウゴウテクニカルサービス,0
1766,8240002042356,登記記録の閉鎖等,0,2024-03-01,2024-02-27,有限会社羽原ティ・シー・プランニング,,有限会社,広島県,福山市,南蔵王町５丁目２２番２７号,,34,207,7210973,,,2024-02-27,清算の結了等,,,2015-10-05,1,,,,,ハバラティーシープランニング,0
1777,8320001006015,登記記録の閉鎖等,0,2024-03-01,2024-02-28,サンワーク株式会社,,株式会社,大分県,大分市,大字森８１８番地の１３,,44,201,8700128,,,2024-02-28,清算の結了等,,,2015-10-05,1,,,,,サンワーク,0
1782,8330005002281,登記記録の閉鎖等,0,2024-03-01,2024-02-22,ＮＰＯ法人農業土木くまもと,,その他の設立登記法人,熊本県,熊本市東区,東野４丁目１－２１,,43,102,8612106,,,2024-02-22,清算の結了等,,,2015-10-05,1,,,,,ノウギョウドボククマモト,0
1810,9010001179155,登記記録の閉鎖等,0,2024-03-01,2024-02-27,Ｎｅｅｃｈ　Ｓｅｒｖｉｃｅｓ　Ａｓｉａ株式会社,,株式会社,神奈川県,川崎市川崎区,駅前本町１４番地５,,14,131,2100007,,,2024-02-27,清算の結了等,,,2016-10-26,1,,,,,ニーチサービシスアジア,0
1815,9010002021869,登記記録の閉鎖等,0,2024-03-01,2024-02-26,有限会社玉原屋,,有限会社,東京都,中央区,月島３丁目１９番４号,,13,102,1040052,,,2024-02-26,清算の結了等,,,2015-10-05,1,,,,,タマハラヤ,0
1830,9010405018082,登記記録の閉鎖等,0,2024-03-01,2024-02-29,福岡ロジスティック特定目的会社,,その他の設立登記法人,東京都,中央区,八重洲２丁目２番１号,,13,102,1040028,,,2024-02-29,清算の結了等,,,2019-09-11,1,,,,,フクオカロジスティック,0
1845,9011001131411,登記記録の閉鎖等,0,2024-03-01,2024-02-28,株式会社ビズコラボ,,株式会社,東京都,渋谷区,円山町５番５号Ｎａｖｉ渋谷Ｖ３階,00118510,13,113,1500044,,,2024-02-28,清算の結了等,,,2019-12-18,1,,,,,ビズコラボ,0
1850,9011101080665,登記記録の閉鎖等,0,2024-03-01,2024-02-28,株式会社日東不動産,,株式会社,東京都,新宿区,左門町２番地８Ｊ．ＨＯＵＳＥ１０１,,13,104,1600017,,,2024-02-28,清算の結了等,,,2017-05-31,1,,,,,ニットウフドウサン,0
1860,9012705001610,登記記録の閉鎖等,0,2024-03-01,2024-02-26,特定非営利活動法人ライフサポートＡＣＴＹ,,その他の設立登記法人,東京都,東村山市,恩多町２丁目６番地１３,,13,213,1890011,,,2024-02-26,清算の結了等,,,2015-10-05,1,,,,,ライフサポートアクティ,0
1883,9030002096265,登記記録の閉鎖等,0,2024-03-01,2024-02-27,有限会社藤本商事,,有限会社,埼玉県,東松山市,松葉町３丁目１１番１６号,,11,212,3550017,,,2024-02-27,清算の結了等,,,2015-10-05,1,,,,,フジモトショウジ,0
1899,9080001018570,登記記録の閉鎖等,0,2024-03-01,2024-02-21,福用産業株式会社,,株式会社,静岡県,島田市,福用９８０番地,,22,209,4280002,,,2024-02-21,清算の結了等,,,2015-10-05,1,,,,,,0
1905,9100001012620,登記記録の閉鎖等,0,2024-03-01,2024-02-26,株式会社アイドル,,株式会社,長野県,松本市,大字島内４２８３番地１,,20,202,3900851,,,2024-02-26,清算の結了等,,,2015-10-05,1,,,,,アイドル,0
1914,9120001063001,登記記録の閉鎖等,0,2024-03-01,2024-02-26,協和ロジスティクス株式会社,,株式会社,大阪府,大阪市北区,梅田２丁目５番２５号,,27,127,5300001,,,2024-02-26,清算の結了等,,,2015-10-05,1,,,,,キョウワロジスティクス,0
1916,9120001145501,登記記録の閉鎖等,0,2024-03-01,2024-02-28,株式会社空間工房,,株式会社,大阪府,大阪市西区,北堀江３丁目６番２１－３０７号,,27,106,5500014,,,2024-02-28,清算の結了等,,,2015-10-05,1,,,,,クウカンコウボウ,0
1917,9120001169079,登記記録の閉鎖等,0,2024-03-01,2024-02-26,ユーアール販売株式会社,,株式会社,大阪府,大阪市北区,西天満５丁目１１番２２号,,27,127,5300047,,,2024-02-26,清算の結了等,,,2015-10-05,1,,,,,ユーアールハンバイ,0
1919,9120001201254,登記記録の閉鎖等,0,2024-03-01,2024-02-27,大阪府民電力株式会社,,株式会社,大阪府,大阪市西区,南堀江４丁目３０番２１号,,27,106,5500015,,,2024-02-27,合併による解散等,1120001212746,令和６年２月２７日大阪市中央区内久宝寺町四丁目４番１２号プライムツリー内久宝寺２０２号室株式会社クラウドオフ（1120001212746）に合併し解散,2016-10-18,1,,,,,オオサカフミンデンリョク,0
1943,9140001049733,登記記録の閉鎖等,0,2024-03-01,2024-02-26,株式会社ターフケミカル,,株式会社,兵庫県,尼崎市,西昆陽２丁目３８番２５号,,28,202,6610047,,,2024-02-26,清算の結了等,,,2015-10-05,1,,,,,ターフケミカル,0
1950,9140003013398,登記記録の閉鎖等,0,2024-03-01,2024-02-22,合同会社朱雀,,合同会社,兵庫県,宝塚市,光ガ丘１丁目２番４３号,,28,214,6650015,,,2024-02-22,清算の結了等,,,2018-10-22,1,,,,,スザク,0
1971,9190001022776,登記記録の閉鎖等,0,2024-03-01,2024-02-19,株式会社ＡＢＳ,,株式会社,三重県,四日市市,鵜の森１丁目１５番９号,,24,202,5100074,,,2024-02-19,合併による解散等,5190001014785,令和６年２月１日三重県四日市市鵜の森一丁目１５番９号株式会社広益社（5190001014785）に合併し解散,2015-10-05,1,,,,,エービーエス,0
1984,9240002033742,登記記録の閉鎖等,0,2024-03-01,2024-02-27,光総業有限会社,,有限会社,広島県,呉市,三条２丁目３番２１号,,34,202,7370821,,,2024-02-27,清算の結了等,,,2015-10-05,1,,,,,ヒカリソウギョウ,0
1986,9280002008212,登記記録の閉鎖等,0,2024-03-01,2024-02-28,有限会社鎌田建設,,有限会社,島根県,浜田市,相生町３９１３番地,,32,202,6970034,,,2024-02-28,清算の結了等,,,2015-10-05,1,,,,,カマダケンセツ,0
2018,9420001007019,登記記録の閉鎖等,0,2024-03-01,2024-02-27,株式会社丸一,,株式会社,青森県,八戸市,大字廿三日町１８番地,,02,203,0310041,,,2024-02-27,清算の結了等,,,2015-10-05,1,,,,,マルイチ,0
2029,9500001010204,登記記録の閉鎖等,0,2024-03-01,2024-02-29,日装工学株式会社,,株式会社,愛媛県,新居浜市,南小松原町１１番４号,,38,205,7920863,,,2024-02-29,清算の結了等,,,2015-10-05,1,,,,,ニッソウコウガク,0
