sequenceNumber,corporateNumber,process,correct,updateDate,changeDate,name,nameImageId,kind,prefectureName,cityName,streetNumber,addressImageId,prefectureCode,cityCode,postCode,addressOutside,addressOutsideImageId,closeDate,closeCause,successorCorporateNumber,changeCause,assignmentDate,latest,enName,enPrefectureName,enCityName,enAddressOutside,furigana,hihyoji
10,1010001231559,新規,0,2022-12-16,2022-12-16,株式会社Ｇｏｏｄｍａｎ,,株式会社,東京都,中央区,銀座１丁目２２番１１号銀座大竹ビジデンス２階,,13,102,1040061,,,,,,,2022-12-16,1,,,,,グッドマン,0
11,1010001231666,新規,0,2022-12-16,2022-12-16,株式会社みんなの環境分析センター,,株式会社,東京都,中央区,日本橋久松町１０－５フェスタＮＩＨＯＮＢＡＳＨＩ３０１,,13,102,1030005,,,,,,,2022-12-16,1,,,,,ミンナノカンキョウブンセキセンター,0
13,1010003039323,新規,0,2022-12-16,2022-12-16,ＧＭＧ　Ｉｎｔｅｒｎａｔｉｏｎａｌ合同会社,,合同会社,東京都,中央区,新富１丁目１４番１０号２階,,13,102,1040041,,,,,,,2022-12-16,1,,,,,ジーエムジーインターナショナル,0
14,1010003039331,新規,0,2022-12-16,2022-12-16,ＴＡＴＡＭＩ合同会社,,合同会社,東京都,千代田区,平河町１丁目４番３号平河町伏見ビル９階,,13,101,1020093,,,,,,,2022-12-16,1,,,,,タタミ,0
21,1010401171413,新規,0,2022-12-16,2022-12-16,株式会社ナイスウェーブ,,株式会社,東京都,港区,六本木６丁目１２番２－１３０２号,,13,103,1060032,,,,,,,2022-12-16,1,,,,,ナイスウェーブ,0
24,1010403029147,新規,0,2022-12-16,2022-12-16,合同会社ＧＯＭＥＴ,,合同会社,東京都,港区,白金台３丁目４番８－３０７号,,13,103,1080071,,,,,,,2022-12-16,1,,,,,ゴメット,0
28,1010501049749,新規,0,2022-12-16,2022-12-16,珈琲ハウス株式会社,,株式会社,東京都,台東区,橋場１丁目２４番７号,,13,106,1110023,,,,,,,2022-12-16,1,,,,,コーヒーハウス,0
33,1010601062305,新規,0,2022-12-16,2022-12-16,株式会社ホットパレットホールディングス,,株式会社,東京都,江東区,亀戸２丁目２７番７号,,13,108,1360071,,,,,,,2022-12-16,1,,,,,ホットパレットホールディングス,0
38,1010901052138,新規,0,2022-12-16,2022-12-16,日本大和株式会社,,株式会社,東京都,世田谷区,世田谷１丁目４１番２号,,13,112,1540017,,,,,,,2022-12-16,1,,,,,ニホンダイワ,0
44,1011001151111,新規,0,2022-12-16,2022-12-16,株式会社イリス,,株式会社,東京都,渋谷区,神泉町１０－１５,,13,113,1500045,,,,,,,2022-12-16,1,,,,,イリス,0
45,1011001151458,新規,0,2022-12-16,2022-12-16,ｋｕｓｅｔｔｅ株式会社,,株式会社,東京都,渋谷区,神宮前４丁目６番１１号千代田ビルＢ１Ｆ,,13,113,1500001,,,,,,,2022-12-16,1,,,,,クセッテ,0
46,1011001151524,新規,0,2022-12-16,2022-12-16,株式会社ナチュラルベア,,株式会社,東京都,目黒区,柿の木坂２丁目２１番１６号,,13,110,1520022,,,,,,,2022-12-16,1,,,,,ナチュラルベア,0
47,1011001151532,新規,0,2022-12-16,2022-12-16,Ｇｕｓｔｏ　Ｃｏｌｌｅｃｔｉｖｅ　Ｊａｐａｎ株式会社,,株式会社,東京都,渋谷区,神宮前１丁目５番８号神宮前タワービルディング１２階,,13,113,1500001,,,,,,,2022-12-16,1,,,,,ガストコレクティブジャパン,0
49,1011003015925,新規,0,2022-12-16,2022-12-16,合同会社スプレッド,,合同会社,東京都,渋谷区,神宮前６丁目２３番４号桑野ビル２階,,13,113,1500001,,,,,,,2022-12-16,1,,,,,スプレッド,0
50,1011101101156,新規,0,2022-12-16,2022-12-16,株式会社国家資格対策センター,,株式会社,東京都,新宿区,西新宿１丁目４番１１号宝ビル５階,,13,104,1600023,,,,,,,2022-12-16,1,,,,,コッカシカクタイサクセンター,0
51,1011101101197,新規,0,2022-12-16,2022-12-16,株式会社不動産コム,,株式会社,東京都,新宿区,百人町１丁目８－１１オリエンタルビル２０３号,,13,104,1690073,,,,,,,2022-12-16,1,,,,,フドウサンコム,0
52,1011101101214,新規,0,2022-12-16,2022-12-16,株式会社ＳＴＡＲ,,株式会社,東京都,新宿区,荒木町１３－３８,,13,104,1600007,,,,,,,2022-12-16,1,,,,,スター,0
55,1011201024298,新規,0,2022-12-16,2022-12-16,株式会社Ａｙｎ,,株式会社,東京都,中野区,東中野４丁目２番２１号フレシュールサンク１０１,,13,114,1640003,,,,,,,2022-12-16,1,,,,,アイン,0
57,1011301028307,新規,0,2022-12-16,2022-12-16,株式会社ＩＢＤホールディングス,,株式会社,東京都,杉並区,今川２丁目１１番２３号,,13,115,1670035,,,,,,,2022-12-16,1,,,,,アイビーディーホールディングス,0
59,1011401024767,新規,0,2022-12-16,2022-12-16,株式会社ＧＲＯＷＴＨ,,株式会社,東京都,板橋区,志村１丁目３４番１５号,,13,119,1740056,,,,,,,2022-12-16,1,,,,,グロース,0
60,1011403003851,新規,0,2022-12-16,2022-12-16,合同会社具現堂,,合同会社,東京都,板橋区,仲宿５７－６－３０４,,13,119,1730005,,,,,,,2022-12-16,1,,,,,グゲンドウ,0
65,1011701025878,新規,0,2022-12-16,2022-12-16,株式会社Ｍａｋｅ　Ｃｈａｎｃｅ,,株式会社,東京都,江戸川区,上篠崎３丁目７番２－４０５号,,13,123,1330054,,,,,,,2022-12-16,1,,,,,メイクチャンス,0
73,1011805003235,新規,0,2022-12-16,2022-12-16,司法書士法人ふたば総合事務所,,その他の設立登記法人,東京都,足立区,千住４丁目２６番３号,,13,121,1200034,,,,,,,2022-12-16,1,,,,,フタバソウゴウジムショ,0
80,1012403005739,新規,0,2022-12-16,2022-12-16,合同会社ＳＥＥＤＳ,,合同会社,東京都,府中市,住吉町１丁目５番地の１２,,13,206,1830034,,,,,,,2022-12-16,1,,,,,シーズ,0
82,1012801022030,新規,0,2022-12-16,2022-12-16,株式会社Ａｕｔｈｅｎｔｉｃ　Ｄｅｓｉｇｎ,,株式会社,東京都,日野市,百草２７９番地の１,,13,212,1910033,,,,,,,2022-12-16,1,,,,,オーセンティックデザイン,0
83,1012803002947,新規,0,2022-12-16,2022-12-16,合同会社ａｍｅｎｏｃｈｉｈａｒｅ,,合同会社,東京都,立川市,上砂町５丁目５７番地の２アーバンヒルズ武蔵砂川４０１号,,13,202,1900032,,,,,,,2022-12-16,1,,,,,アメノチハレ,0
84,1013103001193,新規,0,2022-12-16,2022-12-16,ＴＨＯＡＮ　ＴＨＩＥＴ合同会社,,合同会社,東京都,福生市,大字福生１０４６番地１ＫＨスパイラルビル２０２号室,,13,218,1970011,,,,,,,2022-12-16,1,,,,,トアンティエット,0
88,1013303006414,新規,0,2022-12-16,2022-12-16,合同会社セレーネオフィス,,合同会社,東京都,豊島区,駒込２丁目７番２１号,,13,116,1700003,,,,,,,2022-12-16,1,,,,,セレーネオフィス,0
93,1020001149461,新規,0,2022-12-16,2022-12-16,株式会社功建,,株式会社,神奈川県,川崎市川崎区,中瀬３丁目１９番１４－６０１号,,14,131,2100818,,,,,,,2022-12-16,1,,,,,コウケン,0
98,1020005015775,新規,0,2022-12-16,2022-12-16,医療法人横浜みなとみらい,,その他の設立登記法人,神奈川県,横浜市中区,相生町５丁目７８番地清栄ビル馬車道５階,,14,104,2310012,,,,,,,2022-12-16,1,,,,,ヨコハマミナトミライ,0
99,1021001077702,新規,0,2022-12-16,2022-12-16,株式会社ＳＧホールディングス,,株式会社,神奈川県,相模原市中央区,淵野辺３丁目１番２号,,14,152,2520206,,,,,,,2022-12-16,1,,,,,エスジーホールディングス,0
100,1021001077719,新規,0,2022-12-16,2022-12-16,株式会社ＩＮＧ,,株式会社,神奈川県,座間市,相模が丘５丁目４４番５号,,14,216,2520001,,,,,,,2022-12-16,1,,,,,イング,0
101,1021001077743,新規,0,2022-12-16,2022-12-16,株式会社ベターアンドベター,,株式会社,神奈川県,藤沢市,亀井野１丁目２８番２号,,14,205,2520813,,,,,,,2022-12-16,1,,,,,ベターアンドベター,0
107,1021003012475,新規,0,2022-12-16,2022-12-16,合同会社一徹,,合同会社,神奈川県,伊勢原市,下落合６４４番地の１,,14,214,2591121,,,,,,,2022-12-16,1,,,,,イッテツ,0
108,1021003012517,新規,0,2022-12-16,2022-12-16,合同会社Ｌａｎｄｌｏｒｄ,,合同会社,神奈川県,横須賀市,大津町２丁目１９番２３号シーサイドハイツ２０２,,14,201,2390808,,,,,,,2022-12-16,1,,,,,ランドロード,0
115,1030001151474,新規,0,2022-12-16,2022-12-16,株式会社ｎｅｘｔ　ｏｎｅ,,株式会社,埼玉県,行田市,城西５丁目２番２０－２号,,11,206,3610057,,,,,,,2022-12-16,1,,,,,ネクストワン,0
123,1030003020751,新規,0,2022-12-16,2022-12-16,合同会社ＡＸＩＡ,,合同会社,埼玉県,朝霞市,根岸台１丁目６－１,,11,227,3510005,,,,,,,2022-12-16,1,,,,,アクシア,0
130,1040001126211,新規,0,2022-12-16,2022-12-16,株式会社ジーエスエーポート,,株式会社,千葉県,千葉市花見川区,浪花町９１２番地９,,12,102,2620024,,,,,,,2022-12-16,1,,,,,ジーエスエーポート,0
131,1040001126236,新規,0,2022-12-16,2022-12-16,株式会社日の出,,株式会社,千葉県,白井市,河原子３４０番地の１３,,12,232,2701403,,,,,,,2022-12-16,1,,,,,ヒノデ,0
132,1040001126244,新規,0,2022-12-16,2022-12-16,株式会社サンライズタナカ,,株式会社,千葉県,千葉市若葉区,大宮町１３１４番地１３,,12,104,2640016,,,,,,,2022-12-16,1,,,,,サンライズタナカ,0
134,1040003021435,新規,0,2022-12-16,2022-12-16,ＳＣＳカンパニー合同会社,,合同会社,千葉県,香取郡神崎町,郡１３０７－１駅前４０１号,,12,342,2890202,,,,,,,2022-12-16,1,,,,,エスシーエスカンパニー,0
135,1040003021476,新規,0,2022-12-16,2022-12-16,エスエーオー合同会社,,合同会社,千葉県,千葉市中央区,本千葉町１３番１号－４０９号室,,12,101,2600014,,,,,,,2022-12-16,1,,,,,エスエーオー,0
136,1040003021492,新規,0,2022-12-16,2022-12-16,合同会社ピンテグラル,,合同会社,千葉県,流山市,南流山６丁目１３番地の１,,12,220,2700163,,,,,,,2022-12-16,1,,,,,ピンテグラル,0
137,1040003021501,新規,0,2022-12-16,2022-12-16,合同会社笑福,,合同会社,千葉県,船橋市,前原西２丁目２５番７号ＡＳＴＯＲＩＡ１階,,12,204,2740825,,,,,,,2022-12-16,1,,,,,,0
147,1070001039914,新規,0,2022-12-16,2022-12-16,大谷金属株式会社,,株式会社,群馬県,前橋市,西善町６８６－１,,10,201,3792131,,,,,,,2022-12-16,1,,,,,オオタニキンゾク,0
148,1070001039922,新規,0,2022-12-16,2022-12-16,寿衛材株式会社,,株式会社,群馬県,佐波郡玉村町,大字福島１２９１番地７,,10,464,3701105,,,,,,,2022-12-16,1,,,,,コトブキエイザイ,0
149,1070001039930,新規,0,2022-12-16,2022-12-16,株式会社２オン３パット,,株式会社,群馬県,前橋市,下小出町１丁目１番地２０,,10,201,3710031,,,,,,,2022-12-16,1,,,,,ツーオンスリーパット,0
150,1070001039939,新規,0,2022-12-16,2022-12-16,株式会社オオカワ,,株式会社,群馬県,北群馬郡榛東村,大字山子田２０５４番地３,,10,344,3703502,,,,,,,2022-12-16,1,,,,,オオカワ,0
153,1070003004759,新規,0,2022-12-16,2022-12-16,Ｄｈｕｐｉ　Ｃｏｒｐｏｒａｔｉｏｎ合同会社,,合同会社,群馬県,邑楽郡大泉町,坂田２丁目１３番３４号２号室,,10,524,3700532,,,,,,,2022-12-16,1,,,,,ドゥピコーポレーション,0
155,1080101023692,新規,0,2022-12-16,2022-12-16,株式会社ベジレンジャー,,株式会社,静岡県,三島市,徳倉３丁目１４番１２号,,22,206,4110044,,,,,,,2022-12-16,1,,,,,ベジレンジャー,0
158,1080103002711,新規,0,2022-12-16,2022-12-16,合同会社ＳＨＯＷ,,合同会社,静岡県,沼津市,大手町３丁目３番１５号陽輪台沼津７０２号,,22,203,4100801,,,,,,,2022-12-16,1,,,,,ショウ,0
163,1110003004944,新規,0,2022-12-16,2022-12-16,合同会社Ａ‐ｓｔｕｄｉｏ,,合同会社,新潟県,長岡市,東坂之上町１丁目３番地１１大喜知ビル１Ｆ,,15,202,9400066,,,,,,,2022-12-16,1,,,,,エースタジオ,0
170,1120001250894,新規,0,2022-12-16,2022-12-16,株式会社Ａｌｌ　Ｇａｔｅ,,株式会社,大阪府,大阪市北区,大淀南３丁目１３番１１－５０１号,,27,127,5310075,,,,,,,2022-12-16,1,,,,,オールゲート,0
171,1120001251067,新規,0,2022-12-16,2022-12-16,株式会社ＺＩＯＮ,,株式会社,大阪府,守口市,平代町８番３号平代町テナントビル３Ｆ,,27,209,5700078,,,,,,,2022-12-16,1,,,,,ザイオン,0
172,1120001251117,新規,0,2022-12-16,2022-12-16,株式会社バリコーポレーション,,株式会社,大阪府,大阪市鶴見区,浜２丁目２番３７号５０５号,,27,124,5380035,,,,,,,2022-12-16,1,,,,,バリコーポレーション,0
174,1120003023051,新規,0,2022-12-16,2022-12-16,合同会社ＭＯＲＥメディカルアートメイク,,合同会社,大阪府,大阪市北区,長柄中１丁目１番１４－４０１号,,27,127,5310062,,,,,,,2022-12-16,1,,,,,モアメディカルアートメイク,0
177,1120103004975,新規,0,2022-12-16,2022-12-16,ｌｉｎｇｏ　ｌａｂ合同会社,,合同会社,大阪府,堺市堺区,向陵西町２丁８番１２－１０２号,,27,141,5900026,,,,,,,2022-12-16,1,,,,,リンゴーラボ,0
183,1130001073304,新規,0,2022-12-16,2022-12-16,株式会社千勝工業,,株式会社,京都府,久世郡久御山町,藤和田馬場崎野４３番地２,,26,322,6130044,,,,,,,2022-12-16,1,,,,,センショウコウギョウ,0
184,1130003008381,新規,0,2022-12-16,2022-12-16,合同会社グレイスホーム,,合同会社,京都府,京都市伏見区,深草向畑町９９番地２４,,26,109,6120861,,,,,,,2022-12-16,1,,,,,グレイスホーム,0
185,1130005016655,新規,0,2022-12-16,2022-12-16,一般社団法人永楽善五郎,,その他の設立登記法人,京都府,京都市東山区,大和大路通四条下る四丁目小松町５５５番地,,26,105,6050000,,,,,,,2022-12-16,1,,,,,エイラクゼンゴロウ,0
189,1140001128379,新規,0,2022-12-16,2022-12-16,株式会社ＳＫネット,,株式会社,兵庫県,尼崎市,杭瀬南新町２丁目５番１－１０３号,,28,202,6600822,,,,,,,2022-12-16,1,,,,,エスケイネット,0
190,1140001128387,新規,0,2022-12-16,2022-12-16,株式会社ＩＴｓｕＫＩ,,株式会社,兵庫県,神戸市須磨区,高倉台８丁目８番１５号,,28,107,6540081,,,,,,,2022-12-16,1,,,,,イツキ,0
191,1140001128412,新規,0,2022-12-16,2022-12-16,木村興業株式会社,,株式会社,兵庫県,加古川市,野口町北野１２９５番地の１,,28,210,6750011,,,,,,,2022-12-16,1,,,,,キムラコウギョウ,0
192,1140001128420,新規,0,2022-12-16,2022-12-16,株式会社キカイ,,株式会社,兵庫県,西宮市,丸橋町８番１６号,,28,204,6620831,,,,,,,2022-12-16,1,,,,,キカイ,0
193,1140001128429,新規,0,2022-12-16,2022-12-16,Ｎ．Ｂ．Ｆ株式会社,,株式会社,兵庫県,伊丹市,緑ケ丘５丁目１１２番地２２,,28,207,6640012,,,,,,,2022-12-16,1,,,,,エヌビーエフ,0
194,1140001128445,新規,0,2022-12-16,2022-12-16,株式会社ひろはた動物病院,,株式会社,兵庫県,姫路市,広畑区早瀬町１丁目４番地,,28,201,6711151,,,,,,,2022-12-16,1,,,,,ヒロハタドウブツビョウイン,0
195,1140001128453,新規,0,2022-12-16,2022-12-16,株式会社ささゆり,,株式会社,兵庫県,多可郡多可町,加美区的場３９６番地１,,28,365,6791214,,,,,,,2022-12-16,1,,,,,ササユリ,0
203,1180001154181,新規,0,2022-12-16,2022-12-16,株式会社チャムロック,,株式会社,愛知県,名古屋市西区,貴生町４８９番地の１,,23,104,4520816,,,,,,,2022-12-16,1,,,,,チャムロック,0
204,1180001154198,新規,0,2022-12-16,2022-12-16,株式会社ＡＳＳＩＳＴ　ＣＯＡＴ,,株式会社,愛知県,清須市,春日焼田３９番地,,23,233,4520962,,,,,,,2022-12-16,1,,,,,アシストコート,0
205,1180001154231,新規,0,2022-12-16,2022-12-16,株式会社ＩＲＯＤＯＲＩ,,株式会社,愛知県,名古屋市東区,白壁３丁目２５番２２号,,23,102,4610011,,,,,,,2022-12-16,1,,,,,イロドリ,0
211,1180301036906,新規,0,2022-12-16,2022-12-16,ライフアートプラン株式会社,,株式会社,愛知県,刈谷市,南沖野町２丁目６番地２,,23,210,4480809,,,,,,,2022-12-16,1,,,,,ライフアートプラン,0
217,1200003005768,新規,0,2022-12-16,2022-12-16,合同会社豊建,,合同会社,岐阜県,本巣郡北方町,高屋条里３丁目３４番地第２八代ビル４Ａ,,21,421,5010456,,,,,,,2022-12-16,1,,,,,トヨケン,0
223,1230003001946,新規,0,2022-12-16,2022-12-16,合同会社杉原農産,,合同会社,富山県,南砺市,野尻野１２番地１,,16,210,9391513,,,,,,,2022-12-16,1,,,,,スギハラノウサン,0
225,1250001019889,新規,0,2022-12-16,2022-12-16,株式会社ＨＡＲＵＮＯＳＡＫＵＲＡ,,株式会社,山口県,周南市,大神３丁目１２番１２号,,35,215,7460018,,,,,,,2022-12-16,1,,,,,ハルノサクラ,0
230,1270001008691,新規,0,2022-12-16,2022-12-16,株式会社グラスランド,,株式会社,鳥取県,鳥取市,国府町玉鉾３２３番地１,,31,201,6800143,,,,,,,2022-12-16,1,,,,,グラスランド,0
237,1290001099878,新規,0,2022-12-16,2022-12-16,株式会社塗りプロ,,株式会社,福岡県,福岡市東区,和白丘２丁目２番６１号安河内ビル２Ｆ,,40,131,8110213,,,,,,,2022-12-16,1,,,,,ヌリプロ,0
238,1290001099903,新規,0,2022-12-16,2022-12-16,株式会社ＢＥＡＴＮＩＫ,,株式会社,福岡県,福岡市中央区,警固２丁目１６番２６－２０３号アークエムズワン,,40,133,8100023,,,,,,,2022-12-16,1,,,,,ビートニック,0
239,1290001099928,新規,0,2022-12-16,2022-12-16,株式会社ラベル,,株式会社,福岡県,飯塚市,有井３３４番地１,,40,205,8200112,,,,,,,2022-12-16,1,,,,,ラベル,0
240,1290001099936,新規,0,2022-12-16,2022-12-16,株式会社フィールドオン,,株式会社,福岡県,福岡市中央区,大名１丁目１番３２号ＧＬＡＮＺ６Ｆ,,40,133,8100041,,,,,,,2022-12-16,1,,,,,フィールドオン,0
241,1290001099944,新規,0,2022-12-16,2022-12-16,株式会社スリーテン,,株式会社,福岡県,福岡市中央区,唐人町１丁目１２－１８ベルメゾン唐人町９０１,,40,133,8100063,,,,,,,2022-12-16,1,,,,,スリーテン,0
254,1330001030409,新規,0,2022-12-16,2022-12-16,株式会社福永自動車板金,,株式会社,熊本県,上益城郡御船町,大字高木１８７０番地,,43,441,8613203,,,,,,,2022-12-16,1,,,,,フクナガジドウシャバンキン,0
257,1350001018088,新規,0,2022-12-16,2022-12-16,田中総合通商株式会社,,株式会社,宮崎県,宮崎市,中西町１３７番地１１,,45,201,8800853,,,,,,,2022-12-16,1,,,,,タナカソウゴウツウショウ,0
259,1360003012559,新規,0,2022-12-16,2022-12-16,合同会社うみ空ｉｍａｇｅ,,合同会社,沖縄県,那覇市,首里石嶺町２丁目２１６番地２,,47,201,9030804,,,,,,,2022-12-16,1,,,,,ウミソライメージ,0
265,1370005010576,新規,0,2022-12-16,2022-12-16,一般社団法人産前産後ファミリーケア協会,,その他の設立登記法人,宮城県,仙台市青葉区,木町通２丁目３番２８号,,04,101,9800801,,,,,,,2022-12-16,1,,,,,サンゼンサンゴファミリーケアキョウカイ,0
267,1380005012654,新規,0,2022-12-16,2022-12-16,医療法人社団にいつま歯科,,その他の設立登記法人,福島県,いわき市,常磐関船町２丁目３番地１,,07,204,9728318,,,,,,,2022-12-16,1,,,,,ニイツマシカ,0
270,1400005008286,新規,0,2022-12-16,2022-12-16,農事組合法人金成なるせ農芸,,その他の設立登記法人,岩手県,陸前高田市,横田町字狩集６６番地１,,03,210,0292202,,,,,,,2022-12-16,1,,,,,カンナリナルセノウゲイ,0
274,1420003002636,新規,0,2022-12-16,2022-12-16,新林商事合同会社,,合同会社,青森県,五所川原市,大字沖飯詰字男鹿２番地１－２Ｆ,,02,205,0370092,,,,,,,2022-12-16,1,,,,,シンバヤシショウジ,0
278,1430001088040,新規,0,2022-12-16,2022-12-16,株式会社後藤組,,株式会社,北海道,札幌市白石区,南郷通８丁目南４番５号,,01,104,0030022,,,,,,,2022-12-16,1,,,,,ゴトウグミ,0
306,2010001231657,新規,0,2022-12-16,2022-12-16,株式会社ＫＩＴＡＩ,,株式会社,東京都,中央区,日本橋浜町３丁目３５番６号,,13,102,1030007,,,,,,,2022-12-16,1,,,,,キタイ,0
307,2010003039339,新規,0,2022-12-16,2022-12-16,合同会社サポート４５号,,合同会社,東京都,千代田区,丸の内３丁目１番１号東京共同会計事務所内,,13,101,1000005,,,,,,,2022-12-16,1,,,,,サポートヨンジュウゴゴウ,0
314,2010401171346,新規,0,2022-12-16,2022-12-16,株式会社ＲＵＮ　ＲＩＳＥ,,株式会社,東京都,港区,南青山３丁目１番３６号,,13,103,1070062,,,,,,,2022-12-16,1,,,,,ランライズ,0
315,2010401171354,新規,0,2022-12-16,2022-12-16,ＨＡＬＥ株式会社,,株式会社,東京都,港区,西麻布４丁目１３番２３号,,13,103,1060031,,,,,,,2022-12-16,1,,,,,ヘイル,0
316,2010401171370,新規,0,2022-12-16,2022-12-16,株式会社Ｐｒｅｌｅ,,株式会社,東京都,港区,南青山６丁目３番１１号ＰＡＮ南青山Ｂ１０３,,13,103,1070062,,,,,,,2022-12-16,1,,,,,プレール,0
317,2010401171379,新規,0,2022-12-16,2022-12-16,株式会社ＭＡアセット,,株式会社,東京都,港区,赤坂８丁目６番１３－３０２号新坂マンション,,13,103,1070052,,,,,,,2022-12-16,1,,,,,エムエーアセット,0
318,2010401171387,新規,0,2022-12-16,2022-12-16,株式会社ａ　ｆｅｗ,,株式会社,東京都,港区,港南３丁目５番１５－１２０２号,,13,103,1080075,,,,,,,2022-12-16,1,,,,,アフュー,0
319,2010401171412,新規,0,2022-12-16,2022-12-16,イヌノミライエ株式会社,,株式会社,東京都,港区,浜松町２丁目２番１５号浜松町ダイヤビル２階,,13,103,1050013,,,,,,,2022-12-16,1,,,,,イヌノミライエ,0
323,2010403029154,新規,0,2022-12-16,2022-12-16,合同会社ＥＬＥＧＡＮＴＥ,,合同会社,東京都,港区,南青山３丁目１番３６号,,13,103,1070062,,,,,,,2022-12-16,1,,,,,エレガンテ,0
327,2010501049756,新規,0,2022-12-16,2022-12-16,株式会社ＮＳＣ,,株式会社,東京都,台東区,浅草橋５丁目２番３号,,13,106,1110053,,,,,,,2022-12-16,1,,,,,エヌエスシー,0
330,2010603009906,新規,0,2022-12-16,2022-12-16,Ｌ＆Ｊ　Ｃｏｍｍｅｒｃｅ合同会社,,合同会社,東京都,墨田区,石原３丁目１４番２－４０２号ジョイフル錦糸町,,13,107,1300011,,,,,,,2022-12-16,1,,,,,エルアンドジェイコマース,0
335,2010803004384,新規,0,2022-12-16,2022-12-16,モンテステージ合同会社,,合同会社,東京都,大田区,池上８丁目１４－１ペアハウス池上２０２,,13,111,1460082,,,,,,,2022-12-16,1,,,,,モンテステージ,0
336,2010803004392,新規,0,2022-12-16,2022-12-16,合同会社ＪＤＭＡ,,合同会社,東京都,大田区,北千束２丁目２６－９－１０１,,13,111,1450062,,,,,,,2022-12-16,1,,,,,ジェイディマ,0
337,2010901052153,新規,0,2022-12-16,2022-12-16,ラスイル株式会社,,株式会社,東京都,世田谷区,瀬田４丁目４番７号,,13,112,1580095,,,,,,,2022-12-16,1,,,,,ラスイル,0
339,2010903007840,新規,0,2022-12-16,2022-12-16,合同会社ＳＡＴＡＮＤＥＲ,,合同会社,東京都,世田谷区,砧２丁目１６番１－１０６号,,13,112,1570073,,,,,,,2022-12-16,1,,,,,サタンダー,0
340,2010903007849,新規,0,2022-12-16,2022-12-16,ＨＩＫＡＲＩＨＡ合同会社,,合同会社,東京都,世田谷区,岡本３丁目３３番１３号グランドール岡本３０２,,13,112,1570076,,,,,,,2022-12-16,1,,,,,ヒカリハ,0
344,2011001151432,新規,0,2022-12-16,2022-12-16,ＪＯトレーディング株式会社,,株式会社,東京都,渋谷区,広尾３丁目１７番４号,,13,113,1500012,,,,,,,2022-12-16,1,,,,,ジェイオートレーディング,0
345,2011001151465,新規,0,2022-12-16,2022-12-16,すぱじろうジャパン株式会社,,株式会社,東京都,渋谷区,恵比寿１丁目８番７号ＩＴＯビル３階,,13,113,1500013,,,,,,,2022-12-16,1,,,,,スパジロウジャパン,0
346,2011001151498,新規,0,2022-12-16,2022-12-16,株式会社ｆ９ｋ,,株式会社,東京都,渋谷区,神宮前４丁目１９番８号アロープラザ原宿１１３号室,,13,113,1500001,,,,,,,2022-12-16,1,,,,,エフナインケイ,0
347,2011001151523,新規,0,2022-12-16,2022-12-16,株式会社レベルズ,,株式会社,東京都,渋谷区,渋谷３丁目１２－２４アビタンテ渋谷３０１号室,,13,113,1500002,,,,,,,2022-12-16,1,,,,,レベルズ,0
348,2011001151531,新規,0,2022-12-16,2022-12-16,株式会社ＭＴ,,株式会社,東京都,渋谷区,本町２丁目１１番５号,,13,113,1510071,,,,,,,2022-12-16,1,,,,,エムティ,0
350,2011003015908,新規,0,2022-12-16,2022-12-16,合同会社ＹＵＫＡ,,合同会社,東京都,渋谷区,広尾５丁目９－２６,,13,113,1500012,,,,,,,2022-12-16,1,,,,,ユカ,0
351,2011003015924,新規,0,2022-12-16,2022-12-16,合同会社ＰＲＩＭＩＴＩＶＯ,,合同会社,東京都,渋谷区,千駄ヶ谷２丁目３６番１号桜苑マンション２０１,,13,113,1510051,,,,,,,2022-12-16,1,,,,,プリミティーヴォ,0
352,2011003015940,新規,0,2022-12-16,2022-12-16,合同会社ＬＯＷ,,合同会社,東京都,目黒区,青葉台１丁目１４番１５－１１７号目黒第１コーポ,,13,110,1530042,,,,,,,2022-12-16,1,,,,,ロウ,0
356,2011101101130,新規,0,2022-12-16,2022-12-16,勝幸株式会社,,株式会社,東京都,新宿区,下落合１丁目８番１４－７０５号,,13,104,1610033,,,,,,,2022-12-16,1,,,,,カツユキ,0
357,2011101101213,新規,0,2022-12-16,2022-12-16,株式会社ＢＥＳＴ,,株式会社,東京都,新宿区,荒木町１３－３８,,13,104,1600007,,,,,,,2022-12-16,1,,,,,ベスト,0
359,2011201024297,新規,0,2022-12-16,2022-12-16,株式会社ｅｒｔｏ,,株式会社,東京都,中野区,中央１丁目２３番８－１０１号,,13,114,1640011,,,,,,,2022-12-16,1,,,,,アルト,0
361,2011303004602,新規,0,2022-12-16,2022-12-16,Ｓｐｈｉｎｘ合同会社,,合同会社,東京都,杉並区,高円寺北２丁目３－１９ＢＡＳＥ２０３,,13,115,1660002,,,,,,,2022-12-16,1,,,,,スフィンクス,0
362,2011303004610,新規,0,2022-12-16,2022-12-16,合同会社ＵＰＷＡＲＤ,,合同会社,東京都,杉並区,高円寺北３丁目１０番８号,,13,115,1660002,,,,,,,2022-12-16,1,,,,,アップワード,0
365,2011401024774,新規,0,2022-12-16,2022-12-16,株式会社ｖｅｒｔｅｘ,,株式会社,東京都,板橋区,本町３９番１０号メゾン・ド・ジュリア９０３,,13,119,1730001,,,,,,,2022-12-16,1,,,,,バーテックス,0
366,2011403003850,新規,0,2022-12-16,2022-12-16,合同会社Ｌａｕｒｅｌｓ,,合同会社,東京都,板橋区,赤塚２丁目２４番１５号ＧｒａｎｄＶｉｌｌａＣｏｒａ３０５,,13,119,1750092,,,,,,,2022-12-16,1,,,,,ローレルズ,0
367,2011601026439,新規,0,2022-12-16,2022-12-16,株式会社Ｔ・Ａ・Ｏｆｆｉｃｅ,,株式会社,東京都,練馬区,上石神井１丁目１４番４号,,13,120,1770044,,,,,,,2022-12-16,1,,,,,ティーエーオフィス,0
369,2011701025869,新規,0,2022-12-16,2022-12-16,友信株式会社,,株式会社,東京都,江戸川区,南小岩７丁目２６番１６号４Ｆ,,13,123,1330056,,,,,,,2022-12-16,1,,,,,ユウシン,0
376,2012303001762,新規,0,2022-12-16,2022-12-16,ＭＫエンジニアリング合同会社,,合同会社,東京都,町田市,東玉川学園１丁目２８番９号,,13,209,1940042,,,,,,,2022-12-16,1,,,,,エムケーエンジニアリング,0
378,2012401039977,新規,0,2022-12-16,2022-12-16,グランユーホールディングス株式会社,,株式会社,東京都,府中市,押立町１丁目３５番地の７１,,13,206,1830012,,,,,,,2022-12-16,1,,,,,グランユーホールディングス,0
383,2013305003417,新規,0,2022-12-16,2022-12-16,一般社団法人Ｄａｄｄｙ　Ｓｕｐｐｏｒｔ協会,,その他の設立登記法人,東京都,豊島区,南大塚３丁目３６番７号南大塚Ｔ＆Ｔビル６Ｆ,,13,116,1700005,,,,,,,2022-12-16,1,,,,,ダディーサポートキョウカイ,0
391,2020001149460,新規,0,2022-12-16,2022-12-16,株式会社ＰＲＳ,,株式会社,神奈川県,横浜市神奈川区,羽沢南１丁目３２－１４,,14,102,2210866,,,,,,,2022-12-16,1,,,,,ピーアールエス,0
396,2020003022905,新規,0,2022-12-16,2022-12-16,ＧＳプランニング合同会社,,合同会社,神奈川県,横浜市瀬谷区,瀬谷３丁目１０番地８シティプラザ３０３,,14,114,2460031,,,,,,,2022-12-16,1,,,,,ジーエスプランニング,0
397,2020003022913,新規,0,2022-12-16,2022-12-16,合同会社Ｍｉｙａｗｏｒｋｓ,,合同会社,神奈川県,横浜市青葉区,鴨志田町１６４番地３,,14,117,2270033,,,,,,,2022-12-16,1,,,,,ミヤワークス,0
398,2020005015774,新規,0,2022-12-16,2022-12-16,医療法人社団市志会,,その他の設立登記法人,神奈川県,川崎市川崎区,小田２丁目５番１３号,,14,131,2100846,,,,,,,2022-12-16,1,,,,,イチシカイ,0
401,2021001077718,新規,0,2022-12-16,2022-12-16,湘南アジエンス株式会社,,株式会社,神奈川県,平塚市,紅谷町１８－７,,14,203,2540043,,,,,,,2022-12-16,1,,,,,ショウナンアジエンス,0
402,2021001077726,新規,0,2022-12-16,2022-12-16,株式会社アニマルライフデザイン,,株式会社,神奈川県,藤沢市,羽鳥１丁目１番１号,,14,205,2510056,,,,,,,2022-12-16,1,,,,,アニマルライフデザイン,0
403,2021001077734,新規,0,2022-12-16,2022-12-16,株式会社ｒＡｄ,,株式会社,神奈川県,鎌倉市,岡本２丁目２番１－１０６号,,14,204,2470072,,,,,,,2022-12-16,1,,,,,ラッド,0
404,2021003012516,新規,0,2022-12-16,2022-12-16,合同会社立花,,合同会社,神奈川県,座間市,小松原２丁目２５番１０号,,14,216,2520002,,,,,,,2022-12-16,1,,,,,タチバナ,0
405,2021005012695,新規,0,2022-12-16,2022-12-16,一般社団法人ＫｉｄｓＦｉｎｅ,,その他の設立登記法人,神奈川県,相模原市中央区,中央１丁目１番８号プラーズ相模原ＩＩ１０１号,00128823,14,152,2520239,,,,,,,2022-12-16,1,,,,,キッズファイン,0
414,2030001151457,新規,0,2022-12-16,2022-12-16,ＳＳ企画株式会社,,株式会社,埼玉県,さいたま市大宮区,桜木町２丁目３９８番地イレブン桜木１０１,,11,103,3300854,,,,,,,2022-12-16,1,,,,,エスエスキカク,0
415,2030001151481,新規,0,2022-12-16,2022-12-16,株式会社Ｓｔｒｅａｋ,,株式会社,埼玉県,川口市,栄町３丁目１０番３号４階Ｅ号室,,11,203,3320017,,,,,,,2022-12-16,1,,,,,ストリーク,0
418,2030003020767,新規,0,2022-12-16,2022-12-16,ＶＥＲＳＥ　ＡＲＴＩＳＴ合同会社,,合同会社,埼玉県,越谷市,蒲生西町２丁目１７番１０号,,11,222,3430835,,,,,,,2022-12-16,1,,,,,バースアーティスト,0
419,2030005021094,新規,0,2022-12-16,2022-12-16,一般社団法人在日カンボジア支援協会,,その他の設立登記法人,埼玉県,さいたま市大宮区,仲町２丁目７１番地ソシオ大宮６Ｆ－６０８,,11,103,3300845,,,,,,,2022-12-16,1,,,,,カンボジアシエンキョウカイ,0
427,2040001126193,新規,0,2022-12-16,2022-12-16,ホシュー株式会社,,株式会社,千葉県,柏市,若柴１７８番地４柏の葉キャンパス１４８街区２ショップ＆オフィス棟６階,,12,217,2770871,,,,,,,2022-12-16,1,,,,,ホシュー,0
428,2040001126210,新規,0,2022-12-16,2022-12-16,株式会社バイリース,,株式会社,千葉県,千葉市若葉区,西都賀１丁目５番５－１０３号,,12,104,2640026,,,,,,,2022-12-16,1,,,,,バイリース,0
429,2040001126219,新規,0,2022-12-16,2022-12-16,株式会社ロコインターナショナル,,株式会社,千葉県,八千代市,緑が丘１丁目１７番地７,,12,221,2760049,,,,,,,2022-12-16,1,,,,,ロコインターナショナル,0
430,2040001126227,新規,0,2022-12-16,2022-12-16,株式会社ＯＺ,,株式会社,千葉県,市原市,五井西５丁目３番地５,,12,219,2900038,,,,,,,2022-12-16,1,,,,,オズ,0
431,2040001126251,新規,0,2022-12-16,2022-12-16,株式会社シマダホーム,,株式会社,千葉県,野田市,野田６６８番地の６,,12,208,2780037,,,,,,,2022-12-16,1,,,,,シマダホーム,0
432,2040003021442,新規,0,2022-12-16,2022-12-16,山内又吉商店合同会社,,合同会社,千葉県,松戸市,常盤平双葉町２０番２号,,12,207,2702262,,,,,,,2022-12-16,1,,,,,ヤマウチマタキチショウテン,0
433,2040003021500,新規,0,2022-12-16,2022-12-16,ＭＴＢ合同会社,,合同会社,千葉県,木更津市,ほたる野１丁目３１番地７カルダモンリーフ２０１,,12,206,2920038,,,,,,,2022-12-16,1,,,,,エムティビー,0
434,2040003021517,新規,0,2022-12-16,2022-12-16,ＣＡＳＥＹ合同会社,,合同会社,千葉県,千葉市花見川区,武石町１丁目８９－２６,,12,102,2620031,,,,,,,2022-12-16,1,,,,,ケイシー,0
438,2050003007093,新規,0,2022-12-16,2022-12-16,ワイドツリー合同会社,,合同会社,茨城県,那珂市,戸崎１５９７番地１,,08,226,3110121,,,,,,,2022-12-16,1,,,,,ワイドツリー,0
444,2070001039921,新規,0,2022-12-16,2022-12-16,株式会社ＮＣ,,株式会社,群馬県,前橋市,川原町１丁目２７番地３,,10,201,3710046,,,,,,,2022-12-16,1,,,,,エヌシー,0
447,2080001025342,新規,0,2022-12-16,2022-12-16,株式会社田村建工,,株式会社,静岡県,静岡市清水区,蜂ヶ谷２２６番地の４,,22,103,4240003,,,,,,,2022-12-16,1,,,,,タムラケンコウ,0
448,2080101023691,新規,0,2022-12-16,2022-12-16,大岩株式会社,,株式会社,静岡県,田方郡函南町,畑５２７番地の３７７,,22,325,4190104,,,,,,,2022-12-16,1,,,,,ダイイワ,0
457,2100005012953,新規,0,2022-12-16,2022-12-16,楓社会保険労務士法人,,その他の設立登記法人,長野県,佐久市,佐久平駅南２０－２ヴァローレビル２階Ｃ号室,,20,217,3850029,,,,,,,2022-12-16,1,,,,,カエデ,0
466,2120001251000,新規,0,2022-12-16,2022-12-16,Ｓｅａｂｒｉｄｇｅ　ＴＣＲ株式会社,,株式会社,大阪府,大阪市生野区,小路東６丁目８番１７号昭和エクセルビュー東大阪１０３－Ｇ１０,,27,116,5440003,,,,,,,2022-12-16,1,,,,,シーブリッジティーシーアール,0
467,2120001251041,新規,0,2022-12-16,2022-12-16,武田電気工業株式会社,,株式会社,大阪府,大阪市鶴見区,今津中１丁目３番２０号,,27,124,5380042,,,,,,,2022-12-16,1,,,,,タケダデンキコウギョウ,0
468,2120001251058,新規,0,2022-12-16,2022-12-16,株式会社Ｓｕｒ　Ｄｅ　Ｉｎｎｏｖａｔｉｏｎ,,株式会社,大阪府,寝屋川市,香里北之町１１番６号,,27,215,5720080,,,,,,,2022-12-16,1,,,,,シュールドイノベーション,0
469,2120001251082,新規,0,2022-12-16,2022-12-16,株式会社リトぴよ,,株式会社,大阪府,大阪市西区,立売堀５丁目４番２号けやきビル３０１,,27,106,5500012,,,,,,,2022-12-16,1,,,,,リトピヨ,0
470,2120001251099,新規,0,2022-12-16,2022-12-16,株式会社コラソン,,株式会社,大阪府,大阪市西区,南堀江１丁目１６番１６－８０４号,,27,106,5500015,,,,,,,2022-12-16,1,,,,,コラソン,0
471,2120001251149,新規,0,2022-12-16,2022-12-16,株式会社Ｅｍｐｏｗｅｒ　Ｘ,,株式会社,大阪府,大阪市北区,大淀南２丁目２番９－１２１４号,,27,127,5310075,,,,,,,2022-12-16,1,,,,,エンパワーエックス,0
472,2120001251181,新規,0,2022-12-16,2022-12-16,株式会社ＮａｉｌＳｍｉｌｅ,,株式会社,大阪府,大阪市西区,北堀江１丁目９番４号２０３号室,,27,106,5500014,,,,,,,2022-12-16,1,,,,,ネイルスマイル,0
473,2120003023091,新規,0,2022-12-16,2022-12-16,合同会社美宝,,合同会社,大阪府,大阪市福島区,海老江７丁目１８番１７号－１０１号,,27,103,5530001,,,,,,,2022-12-16,1,,,,,ミホ,0
475,2120101066686,新規,0,2022-12-16,2022-12-16,株式会社ラク,,株式会社,大阪府,堺市東区,菩提町５丁９０番地３,,27,143,5998103,,,,,,,2022-12-16,1,,,,,ラク,0
480,2130005016654,新規,0,2022-12-16,2022-12-16,一般社団法人住所地球,,その他の設立登記法人,京都府,京都市西京区,嵐山朝月町６６番地,,26,111,6160022,,,,,,,2022-12-16,1,,,,,ジュウショチキュウ,0
486,2140001128378,新規,0,2022-12-16,2022-12-16,株式会社ＮＡＩＧＡＩ,,株式会社,兵庫県,神戸市東灘区,甲南町２丁目７－１２,,28,101,6580084,,,,,,,2022-12-16,1,,,,,ナイガイ,0
487,2140001128403,新規,0,2022-12-16,2022-12-16,株式会社ＰＲＯＳＰＥＲＩＴＹ,,株式会社,兵庫県,川西市,出家町４番４号,,28,217,6660000,,,,,,,2022-12-16,1,,,,,プロスペリティ,0
488,2140001128428,新規,0,2022-12-16,2022-12-16,株式会社ダイスセンス,,株式会社,兵庫県,加古川市,平岡町新在家３丁目２８１番地アドニス２１、１Ｆ３号,,28,210,6750101,,,,,,,2022-12-16,1,,,,,ダイスセンス,0
489,2140001128444,新規,0,2022-12-16,2022-12-16,株式会社ジーネクスト,,株式会社,兵庫県,姫路市,下手野２丁目１０番１号,,28,201,6700063,,,,,,,2022-12-16,1,,,,,ジーネクスト,0
493,2150003002836,新規,0,2022-12-16,2022-12-16,楊光合同会社,,合同会社,奈良県,生駒市,高山町４１５１番地,,29,209,6300101,,,,,,,2022-12-16,1,,,,,ヨウコウ,0
494,2160001024708,新規,0,2022-12-16,2022-12-16,株式会社パートナーズエステート,,株式会社,滋賀県,大津市,堅田１丁目６番２７号,,25,201,5200243,,,,,,,2022-12-16,1,,,,,パートナーズエステート,0
496,2170001017413,新規,0,2022-12-16,2022-12-16,広川クリエイト株式会社,,株式会社,和歌山県,有田郡広川町,大字広３０６番地,,30,362,6430071,,,,,,,2022-12-16,1,,,,,ヒロカワクリエイト,0
504,2180001154206,新規,0,2022-12-16,2022-12-16,株式会社ＳＵＮＴＡＣパートナーズ,,株式会社,愛知県,名古屋市中村区,名駅南４丁目１２番１７号,,23,105,4500003,,,,,,,2022-12-16,1,,,,,サンタックパートナーズ,0
505,2180001154230,新規,0,2022-12-16,2022-12-16,株式会社横井建設,,株式会社,愛知県,春日井市,東野町５丁目１１番地２０,,23,206,4860817,,,,,,,2022-12-16,1,,,,,ヨコイケンセツ,0
513,2200001040782,新規,0,2022-12-16,2022-12-16,株式会社ワットリゾート,,株式会社,岐阜県,高山市,名田町３丁目８６番地６,,21,203,5060021,,,,,,,2022-12-16,1,,,,,ワットリゾート,0
523,2250001019888,新規,0,2022-12-16,2022-12-16,アーキテクト株式会社,,株式会社,山口県,下松市,大字末武上１２１４番地,,35,207,7440024,,,,,,,2022-12-16,1,,,,,アーキテクト,0
525,2250003003196,新規,0,2022-12-16,2022-12-16,合同会社Ｋ２ホーム,,合同会社,山口県,下関市,南部町２０番１５号ＦＩＬＥｂｌｄ４Ｆ,,35,201,7500006,,,,,,,2022-12-16,1,,,,,ケーツーホーム,0
528,2290001099877,新規,0,2022-12-16,2022-12-16,株式会社市原産業,,株式会社,福岡県,大野城市,南ケ丘６丁目１８番３号,,40,219,8160964,,,,,,,2022-12-16,1,,,,,イチハラサンギョウ,0
529,2290001099902,新規,0,2022-12-16,2022-12-16,日本資産保全株式会社,,株式会社,福岡県,福岡市中央区,警固３丁目１３番３１－２０４号,,40,133,8100023,,,,,,,2022-12-16,1,,,,,ニホンシサンホゼン,0
530,2290001099927,新規,0,2022-12-16,2022-12-16,株式会社Ｍｉｔｓｕｇｉ,,株式会社,福岡県,福岡市博多区,中洲４丁目３番１号,,40,132,8100801,,,,,,,2022-12-16,1,,,,,ミツギ,0
531,2290001099935,新規,0,2022-12-16,2022-12-16,アメイン株式会社,,株式会社,福岡県,福岡市博多区,井相田２丁目４番７号,,40,132,8120881,,,,,,,2022-12-16,1,,,,,アメイン,0
532,2290001099943,新規,0,2022-12-16,2022-12-16,株式会社Ｗ＆Ｋ,,株式会社,福岡県,八女市,本町２－５５９本町コーポＣ,,40,210,8340031,,,,,,,2022-12-16,1,,,,,,0
533,2290001099951,新規,0,2022-12-16,2022-12-16,株式会社イズミリノベーションデザイン,,株式会社,福岡県,福岡市中央区,薬院２丁目１２番１７号,,40,133,8100022,,,,,,,2022-12-16,1,,,,,イズミリノベーションデザイン,0
536,2290803004290,新規,0,2022-12-16,2022-12-16,合同会社福電Ｐｏｗｅｒ,,合同会社,福岡県,北九州市八幡西区,船越２丁目３１番１０号,,40,109,8071111,,,,,,,2022-12-16,1,,,,,フクデンパワー,0
537,2300001013167,新規,0,2022-12-16,2022-12-16,株式会社富陽食品,,株式会社,佐賀県,唐津市,肥前町田野乙５７２番地２,,41,202,8471521,,,,,,,2022-12-16,1,,,,,フヨウショクヒン,0
541,2330001030408,新規,0,2022-12-16,2022-12-16,株式会社ファーム真,,株式会社,熊本県,宇土市,城塚町８４６番地,00128830,43,211,8690462,,,,,,,2022-12-16,1,,,,,ファームシン,0
542,2340001025241,新規,0,2022-12-16,2022-12-16,株式会社ＢＭＣ,,株式会社,鹿児島県,鹿児島市,玉里団地１丁目８０番１１号,,46,201,8900011,,,,,,,2022-12-16,1,,,,,ビーエムシー,0
543,2340005009538,新規,0,2022-12-16,2022-12-16,一般社団法人ＮＥＤＩ,,その他の設立登記法人,鹿児島県,大島郡龍郷町,赤尾木１５７番地５,,46,527,8940411,,,,,,,2022-12-16,1,,,,,ネディ,0
553,2370001049386,新規,0,2022-12-16,2022-12-16,株式会社ＭＡＴＯＩ,,株式会社,宮城県,黒川郡大和町,吉岡字西原８８番地の１,,04,421,9813621,,,,,,,2022-12-16,1,,,,,マトイ,0
560,2400001016093,新規,0,2022-12-16,2022-12-16,株式会社エクサテック,,株式会社,岩手県,盛岡市,中屋敷町９－２,,03,201,0200141,,,,,,,2022-12-16,1,,,,,エクサテック,0
562,2430001088048,新規,0,2022-12-16,2022-12-16,札幌除雪センター株式会社,,株式会社,北海道,札幌市北区,新琴似町１１５７番９,,01,102,0010915,,,,,,,2022-12-16,1,,,,,サッポロジョセツセンター,0
570,2462501000942,新規,0,2022-12-16,2022-12-16,株式会社橋本牧場,,株式会社,北海道,野付郡別海町,美原７５番地の３０,,01,691,0860656,,,,,,,2022-12-16,1,,,,,ハシモトボクジョウ,0
578,2700150113405,新規,0,2022-12-16,2022-12-16,ＳＨＥＮＺＨＥＮＳＨＩＴＡＩＨＥＸＩＮＳＨＩＹＥＹＯＵＸＩＡＮＧＯＮＧＳＩ,,外国会社等,,,,,,,,ＳＨＥＮＺＨＥＮＳＨＩ　ＮＡＮＳＨＡＮＱＵ　ＮＡＮＴＯＵＪＩＥＤＡＯ，ＧＵＡＮＫＯＵＬＵ　２５ＨＡＯ　ＣＵＩＬＩＮＧ　ＤＡＳＨＡ　５０８，ＳＨＥＮＺＨＥＮ，ＧＵＡＮＧＤＯＮＧ，ＣＨＩＮＡ,,,,,,2022-12-16,1,,,,,シンセンシタイゴウシンジツギョウユウシィアンゴンスー,0
595,3010001231648,新規,0,2022-12-16,2022-12-16,ＹＫ株式会社,,株式会社,東京都,千代田区,九段南１丁目５番６号りそな九段ビル５階ＫＳフロア,,13,101,1020074,,,,,,,2022-12-16,1,,,,,ワイケイ,0
596,3010001231664,新規,0,2022-12-16,2022-12-16,共成商事株式会社,,株式会社,東京都,中央区,築地６丁目４－５シティスクエア築地３０３号室,,13,102,1040045,,,,,,,2022-12-16,1,,,,,トモナリショウジ,0
597,3010001231672,新規,0,2022-12-16,2022-12-16,株式会社ステージカル,,株式会社,東京都,中央区,日本橋室町１丁目２－６日本橋大栄ビル７階,,13,102,1030022,,,,,,,2022-12-16,1,,,,,ステージカル,0
603,3010103002039,新規,0,2022-12-16,2022-12-16,合同会社アイズ,,合同会社,東京都,八王子市,上柚木３丁目１６番地４－２１０,,13,201,1920373,,,,,,,2022-12-16,1,,,,,アイズ,0
604,3010103002047,新規,0,2022-12-16,2022-12-16,ＡＫＩＯホームズ合同会社,,合同会社,東京都,八王子市,楢原町５５２番地１３,,13,201,1930803,,,,,,,2022-12-16,1,,,,,アキオホームズ,0
616,3010401171353,新規,0,2022-12-16,2022-12-16,株式会社エンロールメント,,株式会社,東京都,港区,北青山２丁目７番１３号プラセオ青山ビル３Ｆ,,13,103,1070061,,,,,,,2022-12-16,1,,,,,エンロールメント,0
622,3010403029153,新規,0,2022-12-16,2022-12-16,合同会社ひかえめ,,合同会社,東京都,港区,芝２丁目２３－１５,,13,103,1050014,,,,,,,2022-12-16,1,,,,,ヒカエメ,0
626,3010501049747,新規,0,2022-12-16,2022-12-16,株式会社ＳＨＵＮＲＩ,,株式会社,東京都,台東区,浅草２丁目７番７号,,13,106,1110032,,,,,,,2022-12-16,1,,,,,シュンリ,0
631,3010601062311,新規,0,2022-12-16,2022-12-16,株式会社Ｅ＆Ｐ,,株式会社,東京都,墨田区,太平３丁目９番１２号２階,,13,107,1300012,,,,,,,2022-12-16,1,,,,,イーアンドピー,0
639,3010901052144,新規,0,2022-12-16,2022-12-16,株式会社ＳＥＡ,,株式会社,東京都,世田谷区,駒沢２丁目９番６号ロータス駒沢１０４,,13,112,1540012,,,,,,,2022-12-16,1,,,,,シー,0
643,3011001151290,新規,0,2022-12-16,2022-12-16,株式会社ＯＵＲ　ＨＡＮＤＳ,,株式会社,東京都,渋谷区,大山町１７－１７パーセル大山町３０３,,13,113,1510065,,,,,,,2022-12-16,1,,,,,アワーハンズ,0
644,3011001151464,新規,0,2022-12-16,2022-12-16,株式会社ｎｉｎｅｌｉｖｅ．,,株式会社,東京都,渋谷区,広尾１丁目３番１２号ハイネス恵比寿３０１,,13,113,1500012,,,,,,,2022-12-16,1,,,,,ナインライブ,0
645,3011001151472,新規,0,2022-12-16,2022-12-16,株式会社Ｖｅｒｙ　Ｅｌｅｇａｎｔ,,株式会社,東京都,渋谷区,恵比寿南２丁目１９番７号ＶＯＲＴ恵比寿Ｄｕａｌ’ｓ３０２,,13,113,1500022,,,,,,,2022-12-16,1,,,,,ベリーエレガント,0
646,3011001151497,新規,0,2022-12-16,2022-12-16,株式会社ベビーオクトパス,,株式会社,東京都,渋谷区,神宮前６丁目２３番４号桑野ビル２Ｆ,,13,113,1500001,,,,,,,2022-12-16,1,,,,,ベビーオクトパス,0
647,3011001151506,新規,0,2022-12-16,2022-12-16,株式会社ｍｉｌｅｓｔｏｎｅ,,株式会社,東京都,渋谷区,元代々木町８番７号硝筐ビル３０１,,13,113,1510062,,,,,,,2022-12-16,1,,,,,マイルストーン,0
648,3011001151522,新規,0,2022-12-16,2022-12-16,株式会社ｃｒｏｓｓ‐Ｘ,,株式会社,東京都,渋谷区,道玄坂１丁目１０番８号渋谷道玄坂東急ビル２Ｆ－Ｃ,,13,113,1500043,,,,,,,2022-12-16,1,,,,,クロステン,0
649,3011001151555,新規,0,2022-12-16,2022-12-16,株式会社ＷＡＧＡＭＩ　Ｌａｂｓ,,株式会社,東京都,渋谷区,渋谷３丁目１番９号渋谷ＹＡＺＡＷＡビル,,13,113,1500002,,,,,,,2022-12-16,1,,,,,ワガミラボ,0
653,3011101101195,新規,0,2022-12-16,2022-12-16,株式会社エクラス,,株式会社,東京都,新宿区,若松町１番２－５０６号,,13,104,1620056,,,,,,,2022-12-16,1,,,,,エクラス,0
656,3011201024296,新規,0,2022-12-16,2022-12-16,株式会社田中屋,,株式会社,東京都,中野区,中央５丁目３８番１３－Ｂ９０２号,,13,114,1640011,,,,,,,2022-12-16,1,,,,,タナカヤ,0
658,3011601026446,新規,0,2022-12-16,2022-12-16,大進開発株式会社,,株式会社,東京都,練馬区,小竹町１丁目７２番５号,,13,120,1760004,,,,,,,2022-12-16,1,,,,,ダイシンカイハツ,0
664,3011801041674,新規,0,2022-12-16,2022-12-16,株式会社日耀商事,,株式会社,東京都,足立区,六木３丁目１８番１３号－１Ｆ,,13,121,1210052,,,,,,,2022-12-16,1,,,,,ニチヨウショウジ,0
665,3012401039976,新規,0,2022-12-16,2022-12-16,株式会社ルミエール,,株式会社,東京都,三鷹市,中原３丁目４番１６号,,13,204,1810005,,,,,,,2022-12-16,1,,,,,ルミエール,0
666,3012403005737,新規,0,2022-12-16,2022-12-16,ＳＷＥＥＴ　ＴＯＯＴＨ　ＴＯＫＹＯ合同会社,,合同会社,東京都,調布市,佐須町４丁目３２－３５,,13,208,1820016,,,,,,,2022-12-16,1,,,,,スウィートトゥーストウキョウ,0
673,3013301050065,新規,0,2022-12-16,2022-12-16,株式会社ｃｏｍｉｎｇ,,株式会社,東京都,豊島区,高松２丁目５２－９アンジュール高松１０２,,13,116,1710042,,,,,,,2022-12-16,1,,,,,カミング,0
675,3013303006412,新規,0,2022-12-16,2022-12-16,合同会社うた,,合同会社,東京都,豊島区,東池袋２丁目４８番３号,,13,116,1700013,,,,,,,2022-12-16,1,,,,,ウタ,0
680,3020001149377,新規,0,2022-12-16,2022-12-16,株式会社ＹＫＴ,,株式会社,神奈川県,川崎市中原区,今井南町７－１５,,14,133,2110064,,,,,,,2022-12-16,1,,,,,ワイケイティー,0
686,3020003022920,新規,0,2022-12-16,2022-12-16,合同会社Ｌｉｖｅ　Ｌｉｎｋ　Ｌｉｆｅ,,合同会社,神奈川県,川崎市幸区,南加瀬２丁目５－２５,,14,132,2120055,,,,,,,2022-12-16,1,,,,,リブリンクライフ,0
691,3021001077717,新規,0,2022-12-16,2022-12-16,エクト・アシスト株式会社,,株式会社,神奈川県,相模原市緑区,西橋本５丁目４番２１号,,14,151,2520131,,,,,,,2022-12-16,1,,,,,エクトアシスト,0
692,3021001077725,新規,0,2022-12-16,2022-12-16,シンクレスト株式会社,,株式会社,神奈川県,藤沢市,村岡東２丁目２６番地１湘南ヘルスイノベーションパーク,,14,205,2510012,,,,,,,2022-12-16,1,,,,,シンクレスト,0
695,3021003012507,新規,0,2022-12-16,2022-12-16,合同会社ハイブリッジ,,合同会社,神奈川県,横須賀市,ハイランド２丁目２２番１４号,,14,201,2390833,,,,,,,2022-12-16,1,,,,,ハイブリッジ,0
709,3030001151456,新規,0,2022-12-16,2022-12-16,株式会社Ｃｕｔｅ　Ｐａｗｓ,,株式会社,埼玉県,川越市,大字的場８２番地１３,,11,201,3501101,,,,,,,2022-12-16,1,,,,,キュートパウズ,0
710,3030001151514,新規,0,2022-12-16,2022-12-16,株式会社久遠,,株式会社,埼玉県,川越市,小仙波町２丁目１０－１２,,11,201,3500036,,,,,,,2022-12-16,1,,,,,クオン,0
712,3030003020700,新規,0,2022-12-16,2022-12-16,天和合同会社,,合同会社,埼玉県,三郷市,番匠免１丁目２０－１１リバーサイドテラス篠田１０３,,11,237,3410056,,,,,,,2022-12-16,1,,,,,テンワ,0
713,3030003020766,新規,0,2022-12-16,2022-12-16,合同会社ＦＥＲＭ,,合同会社,埼玉県,富士見市,ふじみ野東１丁目６番地３,,11,235,3540036,,,,,,,2022-12-16,1,,,,,ファーム,0
721,3040001126226,新規,0,2022-12-16,2022-12-16,株式会社ＪＢＫ,,株式会社,千葉県,船橋市,栄町１丁目８番１－１１０２号,,12,204,2730018,,,,,,,2022-12-16,1,,,,,ジェービーケー,0
722,3040001126234,新規,0,2022-12-16,2022-12-16,株式会社サードステージ,,株式会社,千葉県,流山市,加１丁目１２－１,,12,220,2700176,,,,,,,2022-12-16,1,,,,,サードステージ,0
723,3040001126242,新規,0,2022-12-16,2022-12-16,株式会社Ｓｏｎｉｃ　Ｃｒａｆｔｙ,,株式会社,千葉県,八街市,八街は９７番地１１７,,12,230,2891107,,,,,,,2022-12-16,1,,,,,ソニッククラフティ,0
724,3040001126250,新規,0,2022-12-16,2022-12-16,株式会社ＺＲ,,株式会社,千葉県,野田市,木野崎１７５８番地の１０９,,12,208,2780002,,,,,,,2022-12-16,1,,,,,ゼットアール,0
725,3040001126259,新規,0,2022-12-16,2022-12-16,株式会社博宇未来,,株式会社,千葉県,柏市,旭町６丁目１番３３－２号,,12,217,2770852,,,,,,,2022-12-16,1,,,,,ハクウミライ,0
726,3040001126275,新規,0,2022-12-16,2022-12-16,株式会社バード,,株式会社,千葉県,船橋市,坪井東１丁目１７番１０号,,12,204,2740060,,,,,,,2022-12-16,1,,,,,バード,0
732,3040003021508,新規,0,2022-12-16,2022-12-16,合同会社ＨＹＢＲＩＤ,,合同会社,千葉県,柏市,大津ケ丘２丁目３１番地２棟５０３号,,12,217,2770921,,,,,,,2022-12-16,1,,,,,ハイブリッド,0
733,3040003021516,新規,0,2022-12-16,2022-12-16,合同会社Ｃｈａｉｎｏｎ,,合同会社,千葉県,船橋市,夏見４丁目４０番１７号ヴェルドミール夏見Ａ棟２０２号,,12,204,2730865,,,,,,,2022-12-16,1,,,,,シェノン,0
736,3050003007092,新規,0,2022-12-16,2022-12-16,合同会社ＷＩＭＡＬ　ＩＮＴＥＲＮＡＴＩＯＮＡＬ　ＬＡＮＫＡ,,合同会社,茨城県,小美玉市,川戸８１９番地,,08,236,3113412,,,,,,,2022-12-16,1,,,,,ウィマルインターナショナルランカ,0
738,3060001035540,新規,0,2022-12-16,2022-12-16,株式会社小峯商事,,株式会社,栃木県,河内郡上三川町,大字上三川４７９４番地５,,09,301,3290611,,,,,,,2022-12-16,1,,,,,コミネショウジ,0
742,3060003004353,新規,0,2022-12-16,2022-12-16,合同会社Ｌ．Ｌ．クローバー,,合同会社,栃木県,大田原市,山の手２丁目２１－１０,,09,210,3240051,,,,,,,2022-12-16,1,,,,,エルエルクローバー,0
745,3070001039929,新規,0,2022-12-16,2022-12-16,株式会社ＴＫＹ,,株式会社,群馬県,桐生市,相生町２丁目２３６番地の６,,10,203,3760011,,,,,,,2022-12-16,1,,,,,ティーケーワイ,0
750,3080401026204,新規,0,2022-12-16,2022-12-16,株式会社Ｈ．Ｙ．Ｎ．,,株式会社,静岡県,袋井市,国本２３４８番地の３,,22,216,4370012,,,,,,,2022-12-16,1,,,,,エイチワイエヌ,0
751,3080405007506,新規,0,2022-12-16,2022-12-16,一般社団法人ピア・ピアノ,,その他の設立登記法人,静岡県,掛川市,富部２７５番地の２,,22,213,4360224,,,,,,,2022-12-16,1,,,,,ピアピアノ,0
758,3110001037176,新規,0,2022-12-16,2022-12-16,株式会社スペースアイホールディングス,,株式会社,新潟県,新潟市中央区,月町１９８８番地,,15,103,9518057,,,,,,,2022-12-16,1,,,,,スペースアイホールディングス,0
768,3120001251032,新規,0,2022-12-16,2022-12-16,株式会社ＲＥＤＵＣＥ　ＰＲＯ,,株式会社,大阪府,大阪市中央区,平野町３丁目１番８号プロスパー平野町２０４,,27,128,5410046,,,,,,,2022-12-16,1,,,,,リデュースプロ,0
769,3120001251065,新規,0,2022-12-16,2022-12-16,株式会社Ｒｅｙｚｍ,,株式会社,大阪府,大阪市中央区,難波１丁目５番８号,,27,128,5420076,,,,,,,2022-12-16,1,,,,,リズム,0
770,3120001251115,新規,0,2022-12-16,2022-12-16,株式会社ＫＣ,,株式会社,大阪府,大阪市中央区,安土町１丁目５番１１号トヤマビル東館２階,,27,128,5410052,,,,,,,2022-12-16,1,,,,,ケーシー,0
772,3120003023099,新規,0,2022-12-16,2022-12-16,Ｔ‐ＩＲＩＳ合同会社,,合同会社,大阪府,大阪市北区,梅田１丁目２番２号大阪駅前第２ビル１２－１２,,27,127,5300001,,,,,,,2022-12-16,1,,,,,ティーアイリス,0
773,3120005023353,新規,0,2022-12-16,2022-12-16,一般社団法人資源循環技術支援機構,,その他の設立登記法人,大阪府,枚方市,南楠葉１丁目７番８号,,27,210,5731105,,,,,,,2022-12-16,1,,,,,シゲンジュンカンギジュツシエンキコウ,0
775,3120101066677,新規,0,2022-12-16,2022-12-16,株式会社ＳＨＡＲＫ,,株式会社,大阪府,堺市西区,太平寺５４９番地,,27,144,5938314,,,,,,,2022-12-16,1,,,,,シャーク,0
776,3120101066685,新規,0,2022-12-16,2022-12-16,株式会社ジー・エイチ・エス,,株式会社,大阪府,和泉市,池田下町１７０９番地６,,27,219,5940032,,,,,,,2022-12-16,1,,,,,ジーエイチエス,0
786,3130005016653,新規,0,2022-12-16,2022-12-16,一般社団法人スキークロス中西凜後援会,,その他の設立登記法人,京都府,京都市西京区,嵐山朝月町６６番地京料理鳥米内,,26,111,6160022,,,,,,,2022-12-16,1,,,,,スキークロスナカニシリンコウエンカイ,0
795,3140001128369,新規,0,2022-12-16,2022-12-16,一二三メンテナンス株式会社,,株式会社,兵庫県,尼崎市,大庄西町１丁目９番１号ヴォートセレスト１５０１号,,28,202,6600077,,,,,,,2022-12-16,1,,,,,ヒフミメンテナンス,0
796,3140001128402,新規,0,2022-12-16,2022-12-16,株式会社三洋総合Ｇａｒｄｅｎ,,株式会社,兵庫県,丹波市,氷上町三方１５番地４,,28,223,6693624,,,,,,,2022-12-16,1,,,,,サンヨウソウゴウガーデン,0
797,3140001128410,新規,0,2022-12-16,2022-12-16,株式会社Ｓ＆Ｃ　ＢＡＳＥ,,株式会社,兵庫県,芦屋市,津知町９番１－２１０号,,28,206,6590075,,,,,,,2022-12-16,1,,,,,エスアンドシーベース,0
798,3140001128435,新規,0,2022-12-16,2022-12-16,株式会社ＯＮＥＳＳ,,株式会社,兵庫県,神戸市中央区,下山手通３丁目１０－９パークピア下山手３０１,,28,110,6500011,,,,,,,2022-12-16,1,,,,,ワンス,0
799,3140001128476,新規,0,2022-12-16,2022-12-16,摩金国際株式会社,,株式会社,兵庫県,神戸市中央区,熊内町５丁目９－４林ビル１Ｆ,,28,110,6510056,,,,,,,2022-12-16,1,,,,,モジンインターナショナル,0
802,3150001026027,新規,0,2022-12-16,2022-12-16,春香金属興業株式会社,,株式会社,奈良県,御所市,大字元町４９３番地の１１８,,29,208,6392301,,,,,,,2022-12-16,1,,,,,シュンコウキンゾクコウギョウ,0
803,3150003002835,新規,0,2022-12-16,2022-12-16,Ｄｏｈ‐ＳｈｉＮ合同会社,,合同会社,奈良県,香芝市,穴虫２８６８番地１４４,,29,210,6390252,,,,,,,2022-12-16,1,,,,,ドウーシン,0
806,3160001024698,新規,0,2022-12-16,2022-12-16,株式会社Ｒｅ．ｔｈｒｅｅ,,株式会社,滋賀県,栗東市,小柿１０丁目１番７－Ｃ号ルミエール,,25,208,5203024,,,,,,,2022-12-16,1,,,,,リスリー,0
808,3160005011148,新規,0,2022-12-16,2022-12-16,一般社団法人Ｆｏｃｕｓ　ｏｎ,,その他の設立登記法人,滋賀県,草津市,野路東１丁目１番１号立命館大学ＢＫＣインキュベータ,,25,206,5250058,,,,,,,2022-12-16,1,,,,,フォーカスオン,0
820,3180001153990,新規,0,2022-12-16,2022-12-16,株式会社ＳＥＣＲＥＴＲＯＯＭ,,株式会社,愛知県,名古屋市緑区,八つ松１丁目１０４番地,,23,114,4580810,,,,,,,2022-12-16,1,,,,,シークレットルーム,0
821,3180001154007,新規,0,2022-12-16,2022-12-16,株式会社スペースＧＲＯＵＰ,,株式会社,愛知県,名古屋市名東区,猪子石原３丁目５０２番地,,23,115,4650008,,,,,,,2022-12-16,1,,,,,スペースグループ,0
822,3180001154205,新規,0,2022-12-16,2022-12-16,株式会社妍実,,株式会社,愛知県,春日井市,白山町５丁目１９番地１２,,23,206,4870034,,,,,,,2022-12-16,1,,,,,ケンジツ,0
823,3180001154213,新規,0,2022-12-16,2022-12-16,株式会社ふた村,,株式会社,愛知県,名古屋市東区,泉１丁目１５番５号,,23,102,4610001,,,,,,,2022-12-16,1,,,,,フタムラ,0
824,3180001154221,新規,0,2022-12-16,2022-12-16,株式会社ＧＭ,,株式会社,愛知県,岩倉市,新柳町１丁目３５番地１,,23,228,4820021,,,,,,,2022-12-16,1,,,,,ジーエム,0
825,3180001154238,新規,0,2022-12-16,2022-12-16,株式会社ソッリーゾ,,株式会社,愛知県,名古屋市東区,白壁２丁目３番３号マストスクエア白壁３０２号,,23,102,4610011,,,,,,,2022-12-16,1,,,,,ソッリーゾ,0
826,3180001154254,新規,0,2022-12-16,2022-12-16,名城管理サービス株式会社,,株式会社,愛知県,名古屋市西区,名駅２丁目２７番８号名古屋プライムセントラルタワー５階,,23,104,4510045,,,,,,,2022-12-16,1,,,,,メイジョウカンリサービス,0
828,3180003024604,新規,0,2022-12-16,2022-12-16,合同会社ＲｉＧｈｔ,,合同会社,愛知県,名古屋市千種区,今池３丁目３６番１４号‐３０１号,,23,101,4640850,,,,,,,2022-12-16,1,,,,,ライト,0
835,3180301036912,新規,0,2022-12-16,2022-12-16,株式会社シーノア,,株式会社,愛知県,新城市,富岡字不動平１７番地１,,23,221,4411335,,,,,,,2022-12-16,1,,,,,シーノア,0
842,3200001040781,新規,0,2022-12-16,2022-12-16,株式会社Ｓｔｅａｄｙ’ｚ,,株式会社,岐阜県,瑞穂市,穂積１０１６番地８,,21,216,5010223,,,,,,,2022-12-16,1,,,,,ステディーズ,0
848,3240001060818,新規,0,2022-12-16,2022-12-16,株式会社チューリップハイテク,,株式会社,広島県,広島市西区,楠木町４丁目１９番８号,,34,104,7330002,,,,,,,2022-12-16,1,,,,,チューリップハイテク,0
849,3250001019887,新規,0,2022-12-16,2022-12-16,株式会社キャンバス,,株式会社,山口県,下関市,豊前田町１丁目１番１５号,,35,201,7500018,,,,,,,2022-12-16,1,,,,,キャンバス,0
853,3290001099868,新規,0,2022-12-16,2022-12-16,拓大基財株式会社,,株式会社,福岡県,福岡市博多区,博多駅南５丁目２２番７－１００５号,,40,132,8120016,,,,,,,2022-12-16,1,,,,,タクダイキザイ,0
854,3290001099901,新規,0,2022-12-16,2022-12-16,株式会社Ａ．ＬＩＦＥ,,株式会社,福岡県,福岡市西区,姪の浜１丁目２番１０号,,40,135,8190002,,,,,,,2022-12-16,1,,,,,アライフ,0
855,3290001099942,新規,0,2022-12-16,2022-12-16,株式会社Ｘエンジニアリング,,株式会社,福岡県,福岡市博多区,博多駅前３丁目４番２５号アクロスキューブ博多駅前,,40,132,8120011,,,,,,,2022-12-16,1,,,,,エックスエンジニアリング,0
860,3320001019467,新規,0,2022-12-16,2022-12-16,ｇｌｏｂａｌ．ｄｅｓｉｇｎ株式会社,,株式会社,大分県,大分市,松原町２丁目４番１７ＣＳＫ花高松１Ｆ,,44,201,8700913,,,,,,,2022-12-16,1,,,,,グローバルデザイン,0
864,3330003009622,新規,0,2022-12-16,2022-12-16,合同会社ハヤシ企画,,合同会社,熊本県,合志市,須屋２０３３－５,,43,216,8611102,,,,,,,2022-12-16,1,,,,,ハヤシキカク,0
867,3360003012565,新規,0,2022-12-16,2022-12-16,合同会社Ｖ＆Ｚパートナーズ,,合同会社,沖縄県,那覇市,松尾２丁目１６番４８号パトリア松尾２０２,,47,201,9000014,,,,,,,2022-12-16,1,,,,,ブイアンドゼットパートナーズ,0
871,3370001049385,新規,0,2022-12-16,2022-12-16,株式会社Ｆｌｏｗｅｒ　ｏｆ　ｌｉｆｅ,,株式会社,宮城県,仙台市宮城野区,原町５丁目１０番５１号,,04,102,9830841,,,,,,,2022-12-16,1,,,,,フラワーオブライフ,0
873,3370005010582,新規,0,2022-12-16,2022-12-16,医療法人ピエタス,,その他の設立登記法人,宮城県,仙台市宮城野区,福室３丁目２番４８号,,04,102,9830005,,,,,,,2022-12-16,1,,,,,ピエタス,0
876,3380001033339,新規,0,2022-12-16,2022-12-16,株式会社コノマチ不動産,,株式会社,福島県,郡山市,安積町長久保３丁目１２番地の３森合ビル１０１,,07,203,9630105,,,,,,,2022-12-16,1,,,,,コノマチフドウサン,0
880,3410001013345,新規,0,2022-12-16,2022-12-16,株式会社こころよ,,株式会社,秋田県,秋田市,飯島松根西町１－１２－１５,,05,201,0110921,,,,,,,2022-12-16,1,,,,,ココロヨ,0
883,3410003003724,新規,0,2022-12-16,2022-12-16,ＳＯＮＯ合同会社,,合同会社,秋田県,にかほ市,象潟町字家の後１６５番地,,05,214,0180112,,,,,,,2022-12-16,1,,,,,ソノ,0
886,3420001018095,新規,0,2022-12-16,2022-12-16,株式会社華白,,株式会社,青森県,十和田市,東三番町２番３７号松橋ビル２Ｆ,,02,206,0340031,,,,,,,2022-12-16,1,,,,,ハナシロ,0
891,3430001088039,新規,0,2022-12-16,2022-12-16,アースカラーズ株式会社,,株式会社,北海道,札幌市豊平区,平岸四条５丁目１番８号,,01,105,0620934,,,,,,,2022-12-16,1,,,,,アースカラーズ,0
892,3430001088047,新規,0,2022-12-16,2022-12-16,株式会社ほしぱん,,株式会社,北海道,札幌市手稲区,星置三条５丁目３番３５号,,01,109,0060853,,,,,,,2022-12-16,1,,,,,ホシパン,0
893,3430001088055,新規,0,2022-12-16,2022-12-16,ＨＡＩＫＡＮ株式会社,,株式会社,北海道,札幌市清田区,里塚二条６丁目５番４３号,,01,110,0040802,,,,,,,2022-12-16,1,,,,,ハイカン,0
896,3430003014554,新規,0,2022-12-16,2022-12-16,合同会社エンジェルウイングケイ,,合同会社,北海道,札幌市南区,藤野三条９丁目４番３号,,01,106,0612283,,,,,,,2022-12-16,1,,,,,エンジェルウイングケイ,0
897,3430003014562,新規,0,2022-12-16,2022-12-16,ＢｎＢ　Ｊａｐａｎ合同会社,,合同会社,北海道,札幌市西区,山の手三条２丁目５－２８,,01,107,0630003,,,,,,,2022-12-16,1,,,,,ビーエヌビージャパン,0
899,3462501000941,新規,0,2022-12-16,2022-12-16,株式会社Ｎ　ｍｉｌｕａｓ,,株式会社,北海道,野付郡別海町,中春別南町２１番地９,,01,691,0860652,,,,,,,2022-12-16,1,,,,,エヌミルアス,0
904,3700150042660,新規,0,2022-12-16,2015-10-09,名古屋市中央卸売市場本場　青果卸売会社協会,,その他,愛知県,名古屋市熱田区,川並町２番２２号,,23,109,4560072,,,,,,,2015-10-09,1,,,,,ナゴヤシチユウオウオロシウリシジヨウホンジヨウセイカオロシウリカイシヤキヨウカイ,0
905,3700150064085,新規,0,2022-12-16,2015-10-09,鹿児島県農業協同組合連合会職員互助会,,その他,鹿児島県,鹿児島市,鴨池新町１５,,46,201,8900064,,,,,,,2015-10-09,1,,,,,カゴシマケンノウギヨウキヨウドウクミアイレンゴウカイシヨクインゴジヨカイ,0
906,3700150113271,新規,0,2022-12-16,2022-12-06,橘機械施設利用組合,,その他,新潟県,十日町市,野口５０,,15,210,9480301,,,,,,,2022-12-06,1,,,,,タチバナキカイシセツリヨウクミアイ,0
907,3700150113404,新規,0,2022-12-16,2022-12-16,Ｓｈｅｎｚｈｅｎ　Ｚｉ’ａｎ　Ｔｅｃｈｎｏｌｏｇｙ　Ｃｏ．，Ｌｔｄ．,,外国会社等,,,,,,,,Ｂ７０１，Ｂｕｉｌｄｉｎｇ　ＡＢ，Ｎｏ．１，Ｓｈｅｎｚｈｅｎ　Ｈｏｎｇｆａ　Ｉｎｄｕｓｔｒｉａｌ　Ｃｏ．，Ｌｔｄ．，Ｑｉａｏｔｏｕ　Ｃｏｍｍｕｎｉｔｙ，Ｆｕｈａｉ　Ｓｔｒｅｅｔ，Ｂａｏａｎ　Ｄｉｓｔｒｉｃｔ，Ｓｈｅｎｚｈｅｎ，Ｃｈｉｎａ,,,,,,2022-12-16,1,,,,,シンセンシシアンケイジユウシィアンゴンスー,0
919,4010001231564,新規,0,2022-12-16,2022-12-16,株式会社Ｖａｎｅｃ,,株式会社,東京都,文京区,水道１丁目２番１０－３０３号,,13,105,1120005,,,,,,,2022-12-16,1,,,,,バネック,0
920,4010001231606,新規,0,2022-12-16,2022-12-16,スカイスマートジャパン株式会社,,株式会社,東京都,千代田区,神田佐久間河岸５５番地朝風染常ビル２Ｆ,,13,101,1010026,,,,,,,2022-12-16,1,,,,,スカイスマートジャパン,0
921,4010001231671,新規,0,2022-12-16,2022-12-16,株式会社Ｌｏｏｐ　Ｅｎｇｌｉｓｈ,,株式会社,東京都,千代田区,内幸町２丁目１番１号飯野ビルディング９階,,13,101,1000011,,,,,,,2022-12-16,1,,,,,ループイングリッシュ,0
922,4010003039254,新規,0,2022-12-16,2022-12-16,Ｃｌｅａｒ　Ａｓｓｅｔ　Ｐａｒｔｎｅｒｓ合同会社,,合同会社,東京都,中央区,銀座１丁目１２番４号Ｎ＆ＥＢＬＤ．６階,,13,102,1040061,,,,,,,2022-12-16,1,,,,,クリアアセットパートナーズ,0
923,4010003039345,新規,0,2022-12-16,2022-12-16,キープラン合同会社,,合同会社,東京都,文京区,小石川５丁目１番１１－１３０１号,,13,105,1120002,,,,,,,2022-12-16,1,,,,,キープラン,0
925,4010005035920,新規,0,2022-12-16,2022-12-16,税理士法人ＦＴｃａｓｅ,,その他の設立登記法人,東京都,千代田区,神田神保町２丁目２番阿久澤ビル３階,,13,101,1010051,,,,,,,2022-12-16,1,,,,,エフティーケース,0
926,4010005035929,新規,0,2022-12-16,2022-12-16,行政書士法人さくら事務所,,その他の設立登記法人,東京都,千代田区,神田西福田町３番地ＲＢＭ神田ビル３階,,13,101,1010037,,,,,,,2022-12-16,1,,,,,サクラジムショ,0
927,4010103002046,新規,0,2022-12-16,2022-12-16,ＤＳ夢工房合同会社,,合同会社,東京都,八王子市,追分町７番１２－５０４号,,13,201,1920056,,,,,,,2022-12-16,1,,,,,ディーエスユメコウボウ,0
932,4010401171336,新規,0,2022-12-16,2022-12-16,株式会社マナーズ,,株式会社,東京都,港区,西麻布１丁目２番１７号－４０４,,13,103,1060031,,,,,,,2022-12-16,1,,,,,マナーズ,0
933,4010401171344,新規,0,2022-12-16,2022-12-16,ユニック株式会社,,株式会社,東京都,港区,芝２丁目９番１３号桑田ビル４階,,13,103,1050014,,,,,,,2022-12-16,1,,,,,ユニック,0
934,4010401171369,新規,0,2022-12-16,2022-12-16,株式会社ＳｅｅＣａ,,株式会社,東京都,港区,赤坂２丁目１７番６３－２０３号,,13,103,1070052,,,,,,,2022-12-16,1,,,,,シーカ,0
935,4010401171377,新規,0,2022-12-16,2022-12-16,株式会社リベルタ,,株式会社,東京都,港区,南青山３丁目１番３６号青山丸竹ビル６階,,13,103,1070062,,,,,,,2022-12-16,1,,,,,リベルタ,0
936,4010401171402,新規,0,2022-12-16,2022-12-16,フロンティアプロスパー株式会社,,株式会社,東京都,港区,西新橋１丁目２番９号日比谷セントラルビル１４Ｆ,,13,103,1050003,,,,,,,2022-12-16,1,,,,,フロンティアプロスパー,0
937,4010401171443,新規,0,2022-12-16,2022-12-16,ヤナセフィオラーノモトーリ株式会社,,株式会社,東京都,港区,芝浦１丁目６番３８号,,13,103,1050023,,,,,,,2022-12-16,1,,,,,ヤナセフィオラーノモトーリ,0
939,4010403029152,新規,0,2022-12-16,2022-12-16,合同会社東京対馬観光,,合同会社,東京都,港区,芝５丁目２６番３号－２階,,13,103,1080014,,,,,,,2022-12-16,1,,,,,トウキョウツシマカンコウ,0
942,4010405021677,新規,0,2022-12-16,2022-12-16,特定目的会社三郷半田組合,,その他の設立登記法人,東京都,港区,虎ノ門３丁目２２番１０－２０１号,,13,103,1050001,,,,,,,2022-12-16,1,,,,,ミサトハンダクミアイ,0
947,4010501049770,新規,0,2022-12-16,2022-12-16,株式会社アネス,,株式会社,東京都,台東区,浅草橋２丁目７－１山口ビル４階,,13,106,1110053,,,,,,,2022-12-16,1,,,,,アネス,0
950,4010601062302,新規,0,2022-12-16,2022-12-16,帝都実業株式会社,,株式会社,東京都,江東区,東雲１丁目５番３５－１４０１号,,13,108,1350062,,,,,,,2022-12-16,1,,,,,テイトジツギョウ,0
952,4010603009904,新規,0,2022-12-16,2022-12-16,合同会社ｍａｍｅ,,合同会社,東京都,江東区,永代２丁目１番５号セゾン永代２０１,,13,108,1350034,,,,,,,2022-12-16,1,,,,,マメ,0
954,4010703006504,新規,0,2022-12-16,2022-12-16,ｓｉｋｉｋｉ合同会社,,合同会社,東京都,品川区,東五反田１丁目１９番７号,,13,109,1410022,,,,,,,2022-12-16,1,,,,,シキキ,0
965,4010903007839,新規,0,2022-12-16,2022-12-16,合同会社Ｂｒｕｇｅｓ,,合同会社,東京都,世田谷区,上用賀４丁目４番７号,,13,112,1580098,,,,,,,2022-12-16,1,,,,,ブルージュ,0
966,4010903007847,新規,0,2022-12-16,2022-12-16,ＫＰ３合同会社,,合同会社,東京都,世田谷区,上祖師谷７丁目２８番１５号,,13,112,1570065,,,,,,,2022-12-16,1,,,,,ケーピースリー,0
974,4011003015914,新規,0,2022-12-16,2022-12-16,Ｌａｎｄｏｍ‐ｔｏｋｙｏ合同会社,,合同会社,東京都,渋谷区,東１丁目１３番４号Ｍ．Ａ．Ｔ常磐松２０５,,13,113,1500011,,,,,,,2022-12-16,1,,,,,ランダムトウキョウ,0
975,4011003015922,新規,0,2022-12-16,2022-12-16,合同会社アドバンス,,合同会社,東京都,渋谷区,代々木１丁目３０番１５号天翔代々木ビル１０５,,13,113,1510053,,,,,,,2022-12-16,1,,,,,アドバンス,0
979,4011101101161,新規,0,2022-12-16,2022-12-16,ＤＥＶ０１株式会社,,株式会社,東京都,新宿区,天神町７番地１１,,13,104,1620808,,,,,,,2022-12-16,1,,,,,デブゼロワン,0
982,4011203003958,新規,0,2022-12-16,2022-12-16,Ｗｅｂ３　Ｔｉｍｅｓ合同会社,,合同会社,東京都,中野区,弥生町４丁目２６番４号,,13,114,1640013,,,,,,,2022-12-16,1,,,,,ウェブスリータイムズ,0
984,4011403003849,新規,0,2022-12-16,2022-12-16,合同会社シープス,,合同会社,東京都,板橋区,南常盤台１丁目１１番６号レフア南常盤台１０１号室,,13,119,1740072,,,,,,,2022-12-16,1,,,,,シープス,0
989,4012801022028,新規,0,2022-12-16,2022-12-16,株式会社Ｃｉｒｒｕｓ,,株式会社,東京都,昭島市,田中町２丁目５番１２号,,13,207,1960014,,,,,,,2022-12-16,1,,,,,シーラス,0
990,4013301050072,新規,0,2022-12-16,2022-12-16,株式会社コネクトプラン,,株式会社,東京都,豊島区,池袋２丁目３６番１号,,13,116,1710014,,,,,,,2022-12-16,1,,,,,コネクトプラン,0
1000,4020001149467,新規,0,2022-12-16,2022-12-16,株式会社ＤＲ,,株式会社,神奈川県,横浜市戸塚区,戸塚町２０２２番地１ライオンズガーデンヒルズ戸塚９０９号,,14,110,2440003,,,,,,,2022-12-16,1,,,,,ディーアール,0
1003,4020003022903,新規,0,2022-12-16,2022-12-16,金金達合同会社,,合同会社,神奈川県,横浜市青葉区,元石川町４３２４番地１ｖｉｌｌａ　ｇｒａｎｄｅ２０５,,14,117,2250004,,,,,,,2022-12-16,1,,,,,キンキンタツ,0
1011,4021001077716,新規,0,2022-12-16,2022-12-16,ジャレット株式会社,,株式会社,神奈川県,横須賀市,二葉１丁目４３番５号,,14,201,2390814,,,,,,,2022-12-16,1,,,,,ジャレット,0
1012,4021001077724,新規,0,2022-12-16,2022-12-16,株式会社オガワ,,株式会社,神奈川県,相模原市緑区,原宿４丁目３－３１,,14,151,2520102,,,,,,,2022-12-16,1,,,,,オガワ,0
1013,4021001077740,新規,0,2022-12-16,2022-12-16,株式会社湘南ステップ,,株式会社,神奈川県,小田原市,東町１丁目１０番２８－１号,,14,206,2500003,,,,,,,2022-12-16,1,,,,,ショウナンステップ,0
1024,4030001151439,新規,0,2022-12-16,2022-12-16,ＳＤホーム株式会社,,株式会社,埼玉県,川口市,江戸袋１丁目１７番４１－６１３号,,11,203,3340075,,,,,,,2022-12-16,1,,,,,エスディーホーム,0
1027,4030003020749,新規,0,2022-12-16,2022-12-16,合同会社セリエンタープライズ,,合同会社,埼玉県,川越市,大字伊佐沼７番地,,11,201,3500855,,,,,,,2022-12-16,1,,,,,セリエンタープライズ,0
1033,4040001126209,新規,0,2022-12-16,2022-12-16,株式会社シンシアＩＴシステム,,株式会社,千葉県,市原市,南国分寺台３丁目３番地２２,,12,219,2900075,,,,,,,2022-12-16,1,,,,,シンシアアイティーシステム,0
1034,4040001126225,新規,0,2022-12-16,2022-12-16,株式会社ＰＯＷＥＲ　ＺＯＮＥ,,株式会社,千葉県,木更津市,畔戸８９番地２,,12,206,2920005,,,,,,,2022-12-16,1,,,,,パワーゾーン,0
1039,4040003021523,新規,0,2022-12-16,2022-12-16,セブン・ブリス合同会社,,合同会社,千葉県,船橋市,坪井東３丁目１２番４３号,,12,204,2740060,,,,,,,2022-12-16,1,,,,,セブンブリス,0
1047,4050003007075,新規,0,2022-12-16,2022-12-16,Ｄａｉｓｙ合同会社,,合同会社,茨城県,つくば市,上横場１１８０番地,,08,220,3050854,,,,,,,2022-12-16,1,,,,,デイジー,0
1050,4060001035531,新規,0,2022-12-16,2022-12-16,株式会社ＺＥＳＴＡＬ,,株式会社,栃木県,那須塩原市,二区町３５１番地１４二区町事務所２Ｆ,,09,213,3292733,,,,,,,2022-12-16,1,,,,,ゼスタル,0
1051,4060003004352,新規,0,2022-12-16,2022-12-16,ＳＡＩＮＡＴＨ　ＴＲＡＤＩＮＧ　ＣＯＭＰＡＮＹ合同会社,,合同会社,栃木県,小山市,駅東通り１丁目４０番３号ベルディマンションＩ－１０６,00128824,09,208,3230022,,,,,,,2022-12-16,1,,,,,サイナストレーディングカンパニー,0
1054,4070001039936,新規,0,2022-12-16,2022-12-16,株式会社ウィンエステート,,株式会社,群馬県,伊勢崎市,国定町２丁目１８５２番地８,,10,204,3792221,,,,,,,2022-12-16,1,,,,,ウィンエステート,0
1062,4080405007505,新規,0,2022-12-16,2022-12-16,特定非営利活動法人サステナ・ジャパン,,その他の設立登記法人,静岡県,磐田市,合代島１２１２番地,,22,211,4380114,,,,,,,2022-12-16,1,,,,,サステナジャパン,0
1063,4090003002213,新規,0,2022-12-16,2022-12-16,合同会社星光,,合同会社,山梨県,北杜市,白州町白須１７４９番地１,,19,209,4080315,,,,,,,2022-12-16,1,,,,,セイコウ,0
1066,4100003006815,新規,0,2022-12-16,2022-12-16,合同会社山本商事,,合同会社,長野県,大町市,常盤３５４５番地１２,,20,212,3980004,,,,,,,2022-12-16,1,,,,,ヤマモトショウジ,0
1074,4120001250999,新規,0,2022-12-16,2022-12-16,楽耶株式会社,,株式会社,大阪府,大阪市生野区,小路東６丁目８番１７号昭和エクセルビュー東大阪１０３－Ｇ０７,,27,116,5440003,,,,,,,2022-12-16,1,,,,,ラクヤ,0
1075,4120001251007,新規,0,2022-12-16,2022-12-16,株式会社ハッピーファーム,,株式会社,大阪府,枚方市,中宮山戸町９番１１号,,27,210,5730011,,,,,,,2022-12-16,1,,,,,ハッピーファーム,0
1076,4120001251072,新規,0,2022-12-16,2022-12-16,東洋産業開発株式会社,,株式会社,大阪府,大阪市北区,曾根崎２丁目１５番１６－１８０８号,,27,127,5300057,,,,,,,2022-12-16,1,,,,,トウヨウサンギョウカイハツ,0
1077,4120001251139,新規,0,2022-12-16,2022-12-16,株式会社バスタブ,,株式会社,大阪府,大阪市北区,曾根崎新地１丁目３番２１号日宝スタービル５Ｆ,,27,127,5300002,,,,,,,2022-12-16,1,,,,,バスタブ,0
1078,4120001251171,新規,0,2022-12-16,2022-12-16,株式会社ＣＲＯＷＮ　ＧＲＯＵＰ,,株式会社,大阪府,大阪市西区,北堀江３丁目６－８西青山ビルＴ０４号,,27,106,5500014,,,,,,,2022-12-16,1,,,,,クラウングループ,0
1079,4120003023081,新規,0,2022-12-16,2022-12-16,合同会社ＯＢＣ,,合同会社,大阪府,大阪市北区,角田町８番１号,,27,127,5300017,,,,,,,2022-12-16,1,,,,,オービーシー,0
1086,4130001073301,新規,0,2022-12-16,2022-12-16,株式会社ＱＵＯＮ,,株式会社,京都府,向日市,森本町天神森６番地の５３,,26,208,6170003,,,,,,,2022-12-16,1,,,,,クオン,0
1090,4130003008379,新規,0,2022-12-16,2022-12-16,ＡＫＥ合同会社,,合同会社,京都府,京都市南区,久世大藪町１６２番地３２,,26,107,6010000,,,,,,,2022-12-16,1,,,,,エーケイイー,0
1091,4130005016652,新規,0,2022-12-16,2022-12-16,一般財団法人タナベハピネス財団,,その他の設立登記法人,京都府,京都市中京区,西ノ京下合町１１番地４階,,26,104,6048436,,,,,,,2022-12-16,1,,,,,タナベハピネスザイダン,0
1094,4140001128376,新規,0,2022-12-16,2022-12-16,株式会社ＨｉｔｏＴｏｋｉ,,株式会社,兵庫県,明石市,西明石北町１丁目３番２０号エルコーポ８８一階,,28,203,6730018,,,,,,,2022-12-16,1,,,,,ヒトトキ,0
1095,4140001128392,新規,0,2022-12-16,2022-12-16,株式会社河田工業,,株式会社,兵庫県,西宮市,苦楽園一番町１番２８－３０６号,,28,204,6620083,,,,,,,2022-12-16,1,,,,,カワタコウギョウ,0
1096,4140001128401,新規,0,2022-12-16,2022-12-16,高谷興産株式会社,00128820,株式会社,兵庫県,尼崎市,南塚口町８丁目１４番２４号,,28,202,6610012,,,,,,,2022-12-16,1,,,,,タカタニコウサン,0
1097,4140001128450,新規,0,2022-12-16,2022-12-16,株式会社ＩＤＡ,,株式会社,兵庫県,神戸市北区,星和台４丁目２１番地の８,,28,109,6511121,,,,,,,2022-12-16,1,,,,,イダ,0
1102,4160001024697,新規,0,2022-12-16,2022-12-16,株式会社ワーキュレーション,,株式会社,滋賀県,長浜市,元浜町２３番８号,,25,203,5260059,,,,,,,2022-12-16,1,,,,,ワーキュレーション,0
1103,4160001024706,新規,0,2022-12-16,2022-12-16,株式会社ロンドベル,,株式会社,滋賀県,近江八幡市,音羽町１２６－１,,25,204,5230856,,,,,,,2022-12-16,1,,,,,ロンドベル,0
1106,4180001154187,新規,0,2022-12-16,2022-12-16,株式会社ミックケアカンパニー,,株式会社,愛知県,一宮市,新生３丁目９番７号,,23,203,4910912,,,,,,,2022-12-16,1,,,,,ミックケアカンパニー,0
1107,4180001154204,新規,0,2022-12-16,2022-12-16,株式会社平安自動車,,株式会社,愛知県,小牧市,大字間々４３番地１,,23,219,4850015,,,,,,,2022-12-16,1,,,,,ヘイアンンジドウシャ,0
1108,4180001154220,新規,0,2022-12-16,2022-12-16,ベースウッド株式会社,,株式会社,愛知県,名古屋市中川区,万町１７０１番地の１,,23,110,4540872,,,,,,,2022-12-16,1,,,,,ベースウッド,0
1109,4180003024611,新規,0,2022-12-16,2022-12-16,べにー合同会社,,合同会社,愛知県,名古屋市東区,筒井３丁目１０番１３号,,23,102,4610003,,,,,,,2022-12-16,1,,,,,ベニー,0
1112,4180301036911,新規,0,2022-12-16,2022-12-16,株式会社ＳＵＮ＆Ｃｏ．,,株式会社,愛知県,安城市,安城町庚申３３番地,,23,212,4460026,,,,,,,2022-12-16,1,,,,,サンアンドコー,0
1124,4240001060817,新規,0,2022-12-16,2022-12-16,ＮＥＷフィールド株式会社,,株式会社,広島県,廿日市市,平良２丁目１２番４－７号,,34,213,7380025,,,,,,,2022-12-16,1,,,,,ニューフィールド,0
1131,4270001008689,新規,0,2022-12-16,2022-12-16,紅根株式会社,,株式会社,鳥取県,米子市,加茂町１丁目７番地,,31,202,6830823,,,,,,,2022-12-16,1,,,,,アカネ,0
1132,4270003001469,新規,0,2022-12-16,2022-12-16,合同会社ｎｕｔ’７１０,,合同会社,鳥取県,倉吉市,山根５５７－１,,31,203,6820023,,,,,,,2022-12-16,1,,,,,ナットナナイチマル,0
1133,4280001008845,新規,0,2022-12-16,2022-12-16,ＤＴアドバンス株式会社,,株式会社,島根県,出雲市,東園町１３２６番地,,32,203,6930045,,,,,,,2022-12-16,1,,,,,ディーティーアドバンス,0
1137,4290001099900,新規,0,2022-12-16,2022-12-16,富士テック株式会社,,株式会社,福岡県,福岡市博多区,春町３丁目２番７－３０３号,,40,132,8120872,,,,,,,2022-12-16,1,,,,,フジテック,0
1138,4290001099909,新規,0,2022-12-16,2022-12-16,ＥＩＧＨＴ．ＢＥＡＴ株式会社,,株式会社,福岡県,福岡市博多区,住吉２丁目１３番１５－９０２号,,40,132,8120018,,,,,,,2022-12-16,1,,,,,エイトビート,0
1139,4290001099933,新規,0,2022-12-16,2022-12-16,株式会社オリーブヘルスケア,,株式会社,福岡県,太宰府市,青山１丁目３７番３１号,,40,221,8180121,,,,,,,2022-12-16,1,,,,,オリーブヘルスケア,0
1140,4290001099941,新規,0,2022-12-16,2022-12-16,株式会社Ｔ＆Ｓ,,株式会社,福岡県,福岡市南区,塩原３丁目１９番１６－２０５号,,40,134,8150032,,,,,,,2022-12-16,1,,,,,ティーアンドエス,0
1147,4300001013165,新規,0,2022-12-16,2022-12-16,株式会社ＢＥＬＰＯＳＴＯ,,株式会社,佐賀県,佐賀市,神野東２丁目８番１５号,,41,201,8400804,,,,,,,2022-12-16,1,,,,,ベルポスト,0
1157,4360001031327,新規,0,2022-12-16,2022-12-16,株式会社ＯＫＦ,,株式会社,沖縄県,宜野湾市,真栄原２丁目２８番２５号,,47,205,9012215,,,,,,,2022-12-16,1,,,,,オーケイエフ,0
1159,4360003012556,新規,0,2022-12-16,2022-12-16,合同会社ＨｉｎａｙＨｉｎａｙ,,合同会社,沖縄県,那覇市,牧志２丁目１７―２７―４０１,,47,201,9000013,,,,,,,2022-12-16,1,,,,,ヒナイヒナイ,0
1162,4370001049376,新規,0,2022-12-16,2022-12-16,株式会社ＦＬＡＴ　ＦＩＥＬＤ,,株式会社,宮城県,仙台市青葉区,愛子中央２丁目３－２３－１０３,,04,101,9893128,,,,,,,2022-12-16,1,,,,,フラットフィールド,0
1163,4370001049384,新規,0,2022-12-16,2022-12-16,野村学校給食サービス株式会社,,株式会社,宮城県,仙台市青葉区,春日町７番３２号,,04,101,9800821,,,,,,,2022-12-16,1,,,,,ノムラガッコウキュウショクサービス,0
1167,4410003003723,新規,0,2022-12-16,2022-12-16,合同会社ｐｌａｔｉｎｕＭ　ＲｏｃＫｅＴ,,合同会社,秋田県,秋田市,山王６丁目１８番５号,,05,201,0100951,,,,,,,2022-12-16,1,,,,,プラチナロケット,0
1169,4430001088046,新規,0,2022-12-16,2022-12-16,株式会社Ｈｏｕｓｉｎｇ　ＮｅＮｅ,,株式会社,北海道,札幌市北区,北三十条西７丁目２番２７号,,01,102,0010030,,,,,,,2022-12-16,1,,,,,ハウジングネネ,0
1170,4430001088054,新規,0,2022-12-16,2022-12-16,株式会社清吉,,株式会社,北海道,札幌市豊平区,平岸八条１２丁目１番４号,,01,105,0620938,,,,,,,2022-12-16,1,,,,,キヨキチ,0
1171,4430001088062,新規,0,2022-12-16,2022-12-16,株式会社ＡＣＲＯＬＩＥＮＥＸ,,株式会社,北海道,札幌市白石区,本通１８丁目北１番１号,,01,104,0030027,,,,,,,2022-12-16,1,,,,,アクロリアネックス,0
1175,4430003014561,新規,0,2022-12-16,2022-12-16,ａｒｔａｒａｋｔ合同会社,,合同会社,北海道,札幌市中央区,南七条西１６丁目３番１６号,,01,101,0640807,,,,,,,2022-12-16,1,,,,,アートアラクト,0
1179,4470001019385,新規,0,2022-12-16,2022-12-16,株式会社一千,,株式会社,香川県,高松市,瀬戸内町３０番５号,,37,201,7600012,,,,,,,2022-12-16,1,,,,,イッセン,0
1181,4490001010359,新規,0,2022-12-16,2022-12-16,日本三友化学株式会社,,株式会社,高知県,土佐市,家俊２３４番地６,,39,205,7811134,,,,,,,2022-12-16,1,,,,,ニホンサンユウカガク,0
1182,4500001024662,新規,0,2022-12-16,2022-12-16,株式会社３２７,,株式会社,愛媛県,新居浜市,坂井町１丁目８番２３－１４０５号アルファステイツ新居浜駅,,38,205,7920812,,,,,,,2022-12-16,1,,,,,サンニーナナ,0
1184,4700150113403,新規,0,2022-12-16,2022-12-16,Ｘｕｃｈａｎｇ　Ｄｅｎｇｆｅｎｇ　Ｓｈａｎｇｍａｏ　Ｙｏｕｘｉａｎ　Ｇｏｎｇｓｉ,,外国会社等,,,,,,,,Ｒｕｉｂｅｉｋａ　Ｘｉｎｇｔｉａｎｘｉａ　２　Ｈａｏｌｏｕ　１　Ｄａｎｙｕａｎ１８Ｃｅｎｇ１８０２Ｓｈｉ，ＤｏｎｇｃｈｅｎｇｑｕＷｅｉｗｅｎｌｕｂｅｉｄｕａｎ，Ｘｕｃｈａｎｇｓｈｉ，Ｈｅｎａｎｓｈｅｎｇ,,,,,,2022-12-16,1,,,,,キョショウトウホウショウボウユウシィアンゴンスー,0
1186,5010001036087,新規,0,2022-12-16,2022-12-16,株式会社アラスカ商会,,株式会社,東京都,中央区,日本橋３丁目５番９号,,13,102,1030027,,,,,,,2022-12-16,1,,,,,アラスカショウカイ,0
1194,5010001231547,新規,0,2022-12-16,2022-12-16,株式会社ＲＯＢＩＮ,,株式会社,東京都,文京区,白山４丁目２７番２２号,,13,105,1120001,,,,,,,2022-12-16,1,,,,,ロビン,0
1195,5010001231596,新規,0,2022-12-16,2022-12-16,株式会社Ｃａｒａｖａｎｓ,,株式会社,東京都,中央区,銀座１丁目１２番４号Ｎ＆ＥＢＬＤ．６階,,13,102,1040061,,,,,,,2022-12-16,1,,,,,キャラバンズ,0
1196,5010001231605,新規,0,2022-12-16,2022-12-16,株式会社ギンザコスメティックスデザイン,,株式会社,東京都,中央区,銀座３丁目８番１６号４Ｆ,,13,102,1040061,,,,,,,2022-12-16,1,,,,,ギンザコスメティックスデザイン,0
1197,5010001231613,新規,0,2022-12-16,2022-12-16,株式会社サンクコンサルティング,,株式会社,東京都,中央区,八丁堀４丁目２番２号,,13,102,1040032,,,,,,,2022-12-16,1,,,,,サンクコンサルティング,0
1198,5010001231646,新規,0,2022-12-16,2022-12-16,株式会社トマック,,株式会社,東京都,千代田区,丸の内１丁目８番２号鉄鋼ビルディング４階,,13,101,1000005,,,,,,,2022-12-16,1,,,,,トマック,0
1199,5010001231654,新規,0,2022-12-16,2022-12-16,株式会社メデルホーム,,株式会社,東京都,中央区,日本橋２丁目１番１７号丹生ビル２階,,13,102,1030027,,,,,,,2022-12-16,1,,,,,メデルホーム,0
1214,5010401171343,新規,0,2022-12-16,2022-12-16,ｓｔｅｅｒ株式会社,,株式会社,東京都,港区,海岸１丁目７番１号東京ポートシティ竹芝オフィスタワー８階,,13,103,1050022,,,,,,,2022-12-16,1,,,,,ステアー,0
1215,5010401171351,新規,0,2022-12-16,2022-12-16,コレッツィオ株式会社,,株式会社,東京都,港区,西麻布２丁目１８番２号,,13,103,1060031,,,,,,,2022-12-16,1,,,,,コレッツィオ,0
1216,5010401171384,新規,0,2022-12-16,2022-12-16,株式会社ｒｏｕｔｅ‐Ｄ,,株式会社,東京都,港区,南青山３丁目１番３６号青山丸竹ビル６Ｆ,,13,103,1070062,,,,,,,2022-12-16,1,,,,,ルートディー,0
1217,5010401171401,新規,0,2022-12-16,2022-12-16,トレステンド株式会社,,株式会社,東京都,港区,虎ノ門５丁目１２番８号クローバー神谷町８階,,13,103,1050001,,,,,,,2022-12-16,1,,,,,トレステンド,0
1218,5010401171426,新規,0,2022-12-16,2022-12-16,株式会社フラットラボ,,株式会社,東京都,港区,海岸３丁目１８番１２号,,13,103,1080022,,,,,,,2022-12-16,1,,,,,フラットラボ,0
1223,5010403029127,新規,0,2022-12-16,2022-12-16,サイタ企画合同会社,,合同会社,東京都,港区,芝５丁目１４番１７号ステージファースト慶応三田３０３号室,,13,103,1080014,,,,,,,2022-12-16,1,,,,,サイタキカク,0
1224,5010403029168,新規,0,2022-12-16,2022-12-16,ＳＢＩ　Ｖｅｎｔｕｒｅｓ　Ｔｈｒｅｅ合同会社,,合同会社,東京都,港区,六本木１丁目６番１号,,13,103,1060032,,,,,,,2022-12-16,1,,,,,エスビーアイベンチャーズスリー,0
1228,5010501049745,新規,0,2022-12-16,2022-12-16,ミネアキ株式会社,,株式会社,東京都,台東区,元浅草２丁目６番４号,,13,106,1110041,,,,,,,2022-12-16,1,,,,,ミネアキ,0
1229,5010501049761,新規,0,2022-12-16,2022-12-16,オールスター株式会社,,株式会社,東京都,台東区,蔵前４丁目１３番４号大蔵シャルム２階２０１号室,,13,106,1110051,,,,,,,2022-12-16,1,,,,,オールスター,0
1233,5010601062318,新規,0,2022-12-16,2022-12-16,株式会社誠商,,株式会社,東京都,江東区,青海２丁目７番４号,,13,108,1350064,,,,,,,2022-12-16,1,,,,,セイショウ,0
1237,5010701043614,新規,0,2022-12-16,2022-12-16,アトリエヤマダ株式会社,,株式会社,東京都,品川区,西五反田２丁目１４番１３号リバーサイドニックハイム五反田２Ｆ,,13,109,1410031,,,,,,,2022-12-16,1,,,,,アトリエヤマダ,0
1242,5010901052142,新規,0,2022-12-16,2022-12-16,株式会社Ｄａｉｓｙ　Ｈｉｌｌ,,株式会社,東京都,世田谷区,世田谷１丁目４番９号,,13,112,1540017,,,,,,,2022-12-16,1,,,,,デイジーヒル,0
1243,5010901052150,新規,0,2022-12-16,2022-12-16,株式会社ＡＵＮソリューション,,株式会社,東京都,世田谷区,上野毛３丁目１番１１号,,13,112,1580093,,,,,,,2022-12-16,1,,,,,アウンソリューション,0
1244,5010903007838,新規,0,2022-12-16,2022-12-16,Ｌｕｃｓｅｒｉａ合同会社,,合同会社,東京都,世田谷区,野毛３丁目６番２号コーポマリーナ上野毛１０２,,13,112,1580092,,,,,,,2022-12-16,1,,,,,ルクセリア,0
1245,5010905004404,新規,0,2022-12-16,2022-12-16,一般社団法人アロマホリスティックビューティー協会,,その他の設立登記法人,東京都,世田谷区,代沢１丁目１１番２０号,,13,112,1550032,,,,,,,2022-12-16,1,,,,,アロマホリスティックビューティーキョウカイ,0
1249,5011001151264,新規,0,2022-12-16,2022-12-16,ハイチャンス・ジャパン株式会社,,株式会社,東京都,渋谷区,富ヶ谷１丁目１４番１４号３階,,13,113,1510063,,,,,,,2022-12-16,1,,,,,ハイチャンスジャパン,0
1250,5011001151421,新規,0,2022-12-16,2022-12-16,株式会社ＲＥＩＳＴ　ＣＬＵＢ,,株式会社,東京都,渋谷区,桜丘町１３番３号,,13,113,1500031,,,,,,,2022-12-16,1,,,,,リストクラブ,0
1251,5011001151454,新規,0,2022-12-16,2022-12-16,Ｘ　Ａｇｅｎｃｙ株式会社,,株式会社,東京都,渋谷区,神宮前２丁目１８番１９号,,13,113,1500001,,,,,,,2022-12-16,1,,,,,エックスエージェンシー,0
1252,5011001151512,新規,0,2022-12-16,2022-12-16,株式会社ケンサンプロ,,株式会社,東京都,渋谷区,渋谷２丁目１９番１５号宮益坂ビルディング６０９,,13,113,1500002,,,,,,,2022-12-16,1,,,,,ケンサンプロ,0
1253,5011001151545,新規,0,2022-12-16,2022-12-16,株式会社Ｋ１２ホールディングス,,株式会社,東京都,渋谷区,神宮前６丁目２７番８号,,13,113,1500001,,,,,,,2022-12-16,1,,,,,ケートゥエルブホールディングス,0
1255,5011003015921,新規,0,2022-12-16,2022-12-16,クリーンエナジー３合同会社,,合同会社,東京都,渋谷区,渋谷２丁目１５番１号渋谷クロスタワー１３階ＰＨＯＴＯＮＣＡＰＩＴＡＬ合同会社内,,13,113,1500002,,,,,,,2022-12-16,1,,,,,クリーンエナジースリー,0
1256,5011003015938,新規,0,2022-12-16,2022-12-16,バイナリシステム合同会社,,合同会社,東京都,渋谷区,神宮前６丁目２３番４号桑野ビル２階,,13,113,1500001,,,,,,,2022-12-16,1,,,,,バイナリシステム,0
1263,5011103012505,新規,0,2022-12-16,2022-12-16,シブルス合同会社,,合同会社,東京都,新宿区,四谷４丁目２９番地パレステュディオ新宿御苑前５０２,,13,104,1600004,,,,,,,2022-12-16,1,,,,,シブルス,0
1267,5011401024771,新規,0,2022-12-16,2022-12-16,ＴＭＬ株式会社,,株式会社,東京都,板橋区,坂下１丁目６番６－３０８号,,13,119,1740043,,,,,,,2022-12-16,1,,,,,ティエムエル,0
1269,5011701025874,新規,0,2022-12-16,2022-12-16,ゼッツコーポレーション株式会社,,株式会社,東京都,江戸川区,西小岩３丁目３５番６号,,13,123,1330057,,,,,,,2022-12-16,1,,,,,ゼッツコーポレーション,0
1273,5011801041689,新規,0,2022-12-16,2022-12-16,株式会社Ｅ＆ＬＩＦＥ,,株式会社,東京都,足立区,千住柳町４番２号,,13,121,1200032,,,,,,,2022-12-16,1,,,,,イーアンドライフ,0
1277,5012701017399,新規,0,2022-12-16,2022-12-16,ＡＫキャピタル株式会社,,株式会社,東京都,西東京市,東町２丁目２番１号,,13,229,2020012,,,,,,,2022-12-16,1,,,,,エーケーキャピタル,0
1279,5012801022027,新規,0,2022-12-16,2022-12-16,株式会社ｓｅａｆａｔ,,株式会社,東京都,立川市,錦町２丁目６番２４号ＳＴビル,,13,202,1900022,,,,,,,2022-12-16,1,,,,,シーファット,0
1280,5012801022035,新規,0,2022-12-16,2022-12-16,株式会社ＯＳＣホームファシリティ,,株式会社,東京都,国分寺市,本町４丁目１２番１号,,13,214,1850012,,,,,,,2022-12-16,1,,,,,オーエスシーホームファシリティ,0
1281,5012803002951,新規,0,2022-12-16,2022-12-16,ＳｏｃｉａｌＩｎｎｏｖａｔｉｏｎＹａｍａｇａｔａ合同会社,,合同会社,東京都,武蔵村山市,大南４丁目２１番３１号エステート大南公園１号棟５０５号室,,13,223,2080013,,,,,,,2022-12-16,1,,,,,ソーシャルイノベーションヤマガタ,0
1298,5020003022910,新規,0,2022-12-16,2022-12-16,ミヤ企画合同会社,,合同会社,神奈川県,横浜市金沢区,富岡西１丁目１５番１３号,,14,108,2360052,,,,,,,2022-12-16,1,,,,,ミヤキカク,0
1299,5020003022927,新規,0,2022-12-16,2022-12-16,ＩＮＳＥＴ　ＪＡＰＡＮ合同会社,,合同会社,神奈川県,横浜市磯子区,丸山１丁目８－２－１１２,,14,107,2350011,,,,,,,2022-12-16,1,,,,,インセットジャパン,0
1301,5021001077715,新規,0,2022-12-16,2022-12-16,株式会社Ｓｕｍｍｅｒ　Ｓｏｌｓｔｉｃｅ,,株式会社,神奈川県,鎌倉市,由比ガ浜２丁目２２番３６号３０１,,14,204,2480014,,,,,,,2022-12-16,1,,,,,サマーソルスティス,0
1303,5021003012505,新規,0,2022-12-16,2022-12-16,合同会社アグリリンク,,合同会社,神奈川県,藤沢市,藤沢１０９２－４レジェンド湘南藤沢３０２号,,14,205,2510052,,,,,,,2022-12-16,1,,,,,アグリリンク,0
1306,5030001151462,新規,0,2022-12-16,2022-12-16,株式会社Ｋａｍｉｋｕｒａ,,株式会社,埼玉県,草加市,氷川町２１０４番地３ＬａＳｙｌｐｈｉｄｅ氷川１０２号,,11,221,3400034,,,,,,,2022-12-16,1,,,,,カミクラ,0
1307,5030001151529,新規,0,2022-12-16,2022-12-16,株式会社フルタイムファームさいたま,,株式会社,埼玉県,さいたま市緑区,大字上野田５９３番地,,11,109,3360977,,,,,,,2022-12-16,1,,,,,フルタイムファームサイタマ,0
1308,5030003020764,新規,0,2022-12-16,2022-12-16,合同会社大基組,,合同会社,埼玉県,羽生市,大字桑崎２２６番地３,,11,216,3480043,,,,,,,2022-12-16,1,,,,,ダイキグミ,0
1314,5040001126224,新規,0,2022-12-16,2022-12-16,株式会社ＴＳ,,株式会社,千葉県,市川市,末広１丁目２番１０－１０１号,,12,203,2720121,,,,,,,2022-12-16,1,,,,,ティーエス,0
1315,5040001126281,新規,0,2022-12-16,2022-12-16,株式会社ミリー,,株式会社,千葉県,千葉市稲毛区,長沼町２５１番地１１３,,12,103,2630005,,,,,,,2022-12-16,1,,,,,ミリー,0
1319,5050001052097,新規,0,2022-12-16,2022-12-16,株式会社アラワ,,株式会社,茨城県,稲敷市,羽賀２４１２番地２,,08,229,3000525,,,,,,,2022-12-16,1,,,,,アラワ,0
1320,5050001052106,新規,0,2022-12-16,2022-12-16,株式会社Ｂｕｚｚｒｅｍｉｘ,,株式会社,茨城県,水戸市,元吉田町２００７,,08,201,3100836,,,,,,,2022-12-16,1,,,,,,0
1321,5060001035539,新規,0,2022-12-16,2022-12-16,株式会社ＣＨモータース,,株式会社,栃木県,矢板市,乙畑１４７８番地１,,09,211,3291574,,,,,,,2022-12-16,1,,,,,シーエイチモータース,0
1324,5060003004351,新規,0,2022-12-16,2022-12-16,スパイルロック合同会社,,合同会社,栃木県,宇都宮市,上横田町７０３番６９号,,09,201,3210106,,,,,,,2022-12-16,1,,,,,スパイルロック,0
1328,5070001039935,新規,0,2022-12-16,2022-12-16,株式会社清水商会,,株式会社,群馬県,沼田市,薄根町３３２９番地２,,10,206,3780031,,,,,,,2022-12-16,1,,,,,シミズショウカイ,0
1336,5080401026202,新規,0,2022-12-16,2022-12-16,株式会社アサエネ,,株式会社,静岡県,袋井市,中新田４６２番地,,22,216,4371111,,,,,,,2022-12-16,1,,,,,アサエネ,0
1357,5120001251030,新規,0,2022-12-16,2022-12-16,株式会社ネクストネットワーク,,株式会社,大阪府,大阪市福島区,海老江８丁目２番３２号,,27,103,5530001,,,,,,,2022-12-16,1,,,,,ネクストネットワーク,0
1358,5120001251055,新規,0,2022-12-16,2022-12-16,株式会社エムティーワイ,,株式会社,大阪府,大阪市阿倍野区,橋本町２番１７号,,27,119,5450031,,,,,,,2022-12-16,1,,,,,エムティーワイ,0
1361,5120003023097,新規,0,2022-12-16,2022-12-16,合同会社ノーマル,,合同会社,大阪府,門真市,下馬伏町３０番８－２号,,27,223,5710009,,,,,,,2022-12-16,1,,,,,ノーマル,0
1362,5120003023114,新規,0,2022-12-16,2022-12-16,合同会社ＯＪＯ,,合同会社,大阪府,大阪市中央区,本町４丁目６番４エスライズ御堂筋本町８０２,,27,128,5410053,,,,,,,2022-12-16,1,,,,,オージェーオー,0
1375,5130001073275,新規,0,2022-12-16,2022-12-16,シダーブック株式会社,,株式会社,京都府,福知山市,字牧小字市場浦８２０番地の１,,26,201,6200913,,,,,,,2022-12-16,1,,,,,シダーブック,0
1376,5130001073291,新規,0,2022-12-16,2022-12-16,潤ビルド株式会社,,株式会社,京都府,京都市南区,東九条中札辻町３３番地４,00128821,26,107,6018026,,,,,,,2022-12-16,1,,,,,ジュンビルド,0
1377,5130005016651,新規,0,2022-12-16,2022-12-16,特定非営利活動法人ミユキ,,その他の設立登記法人,京都府,長岡京市,泉が丘１５番地の５,,26,209,6170846,,,,,,,2022-12-16,1,,,,,ミユキ,0
1382,5140001128367,新規,0,2022-12-16,2022-12-16,株式会社Ｈ・Ｐ・Ｓ,,株式会社,兵庫県,西宮市,西宮浜４丁目８番３号,,28,204,6620934,,,,,,,2022-12-16,1,,,,,エイチピーエス,0
1383,5140001128400,新規,0,2022-12-16,2022-12-16,株式会社平島工務店,,株式会社,兵庫県,尼崎市,南武庫之荘９丁目１１番５６－３号,,28,202,6610033,,,,,,,2022-12-16,1,,,,,ヒラシマコウムテン,0
1384,5140001128417,新規,0,2022-12-16,2022-12-16,Ｌａｆ株式会社,,株式会社,兵庫県,西宮市,甲陽園目神山町３３番３１号,,28,204,6620011,,,,,,,2022-12-16,1,,,,,ラフ,0
1385,5140001128433,新規,0,2022-12-16,2022-12-16,株式会社裕輝,,株式会社,兵庫県,神戸市東灘区,住吉東町１丁目２－１８,,28,101,6580052,,,,,,,2022-12-16,1,,,,,ユウキ,0
1386,5140001128441,新規,0,2022-12-16,2022-12-16,ニコラシカ株式会社,,株式会社,兵庫県,三木市,大村２８３協和荘１１号室,,28,215,6730404,,,,,,,2022-12-16,1,,,,,ニコラシカ,0
1387,5140001128458,新規,0,2022-12-16,2022-12-16,株式会社ＤＡＩＳＵＫＥＩホールディングス,,株式会社,兵庫県,神戸市中央区,元町通５丁目３番４号ＫＭビル,,28,110,6500022,,,,,,,2022-12-16,1,,,,,ダイスキホールディングス,0
1391,5140003018475,新規,0,2022-12-16,2022-12-16,神友アセット合同会社,,合同会社,兵庫県,神戸市中央区,下山手通３丁目７番６号,,28,110,6500011,,,,,,,2022-12-16,1,,,,,シンユウアセット,0
1395,5160001024713,新規,0,2022-12-16,2022-12-16,株式会社フラッシュエイト,,株式会社,滋賀県,草津市,大路１丁目７番１－１３０２号ＴＯＷＥＲ・１１１,,25,206,5250032,,,,,,,2022-12-16,1,,,,,フラッシュエイト,0
1397,5160003002758,新規,0,2022-12-16,2022-12-16,合同会社ポアブル,,合同会社,滋賀県,彦根市,松原町３４２８番地５,,25,202,5220002,,,,,,,2022-12-16,1,,,,,ポアブル,0
1403,5180001154186,新規,0,2022-12-16,2022-12-16,株式会社ＡＲＣＨＳ,,株式会社,愛知県,名古屋市西区,那古野２丁目１４番１号,,23,104,4510042,,,,,,,2022-12-16,1,,,,,アークス,0
1404,5180001154236,新規,0,2022-12-16,2022-12-16,株式会社リンクォール,,株式会社,愛知県,名古屋市中村区,名駅４丁目６番２３号第三堀内ビル９Ｆ,,23,105,4500002,,,,,,,2022-12-16,1,,,,,リンクォール,0
1405,5180001154244,新規,0,2022-12-16,2022-12-16,株式会社からすのぱん商会,,株式会社,愛知県,春日井市,大手町１３２４番地１,,23,206,4860807,,,,,,,2022-12-16,1,,,,,カラスノパンショウカイ,0
1406,5180001154252,新規,0,2022-12-16,2022-12-16,３ＰＥＡＣＥＳ株式会社,,株式会社,愛知県,名古屋市東区,芳野１丁目１４番１９号３階,,23,102,4610027,,,,,,,2022-12-16,1,,,,,スリーピーセス,0
1409,5180003024610,新規,0,2022-12-16,2022-12-16,合同会社マエダアンドパートナーズ,,合同会社,愛知県,名古屋市千種区,光が丘２丁目８番１６号,,23,101,4640006,,,,,,,2022-12-16,1,,,,,マエダアンドパートナーズ,0
1413,5190001030031,新規,0,2022-12-16,2022-12-16,株式会社ＡｌｂＥ,,株式会社,三重県,津市,久居北口町５７８番地４‐Ａ１０２号,,24,201,5141105,,,,,,,2022-12-16,1,,,,,アルベ,0
1414,5200005013427,新規,0,2022-12-16,2022-12-16,医療法人パブリックアンビシャス,,その他の設立登記法人,岐阜県,多治見市,笠原町字権現２２００番地１６２,,21,204,5070901,,,,,,,2022-12-16,1,,,,,パブリックアンビシャス,0
1424,5240003005926,新規,0,2022-12-16,2022-12-16,県南ＳｋｙＥｓｔａｔｅ合同会社,,合同会社,広島県,福山市,神辺町字徳田１１６５番地１２,,34,207,7202126,,,,,,,2022-12-16,1,,,,,ケンナンスカイエステート,0
1426,5250001019885,新規,0,2022-12-16,2022-12-16,株式会社Ｔａｋａｈａｓｈｉ,,株式会社,山口県,防府市,八王子２丁目８番２７号,,35,206,7470037,,,,,,,2022-12-16,1,,,,,タカハシ,0
1427,5250001019893,新規,0,2022-12-16,2022-12-16,株式会社杉村農園,,株式会社,山口県,柳井市,伊陸４６９８番地,,35,212,7420201,,,,,,,2022-12-16,1,,,,,スギムラノウエン,0
1434,5290001099899,新規,0,2022-12-16,2022-12-16,章耀株式会社,,株式会社,福岡県,みやま市,高田町竹飯１６５７番地１,,40,229,8350135,,,,,,,2022-12-16,1,,,,,ショウヨウ,0
1435,5290001099916,新規,0,2022-12-16,2022-12-16,株式会社葉山厨房,,株式会社,福岡県,福岡市東区,土井１丁目１０番１６号,,40,131,8130032,,,,,,,2022-12-16,1,,,,,ハヤマチュウボウ,0
1436,5290001099940,新規,0,2022-12-16,2022-12-16,株式会社ＭＤＹＣ,,株式会社,福岡県,久留米市,白山町１８９－６,,40,203,8300041,,,,,,,2022-12-16,1,,,,,エムディワイシー,0
1438,5290003013313,新規,0,2022-12-16,2022-12-16,合同会社ボタン,,合同会社,福岡県,福岡市南区,桧原３丁目１９番６－４０２号桧原公団６棟,,40,134,8111355,,,,,,,2022-12-16,1,,,,,ボタン,0
1441,5300001013164,新規,0,2022-12-16,2022-12-16,株式会社ＭＩＮＥＤ,,株式会社,佐賀県,三養基郡みやき町,大字簑原１６４４番地３５,,41,346,8490102,,,,,,,2022-12-16,1,,,,,マインド,0
1444,5320001019473,新規,0,2022-12-16,2022-12-16,株式会社ＨＩＲＡｌｉｎｋ,,株式会社,大分県,大分市,大字羽田５８０番地の１,,44,201,8700942,,,,,,,2022-12-16,1,,,,,ヒラリンク,0
1446,5340001025247,新規,0,2022-12-16,2022-12-16,株式会社サンナナベース,,株式会社,鹿児島県,鹿児島市,武１丁目５番１７号－３０８,,46,201,8900045,,,,,,,2022-12-16,1,,,,,サンナナベース,0
1450,5360003012563,新規,0,2022-12-16,2022-12-16,Ｍａｇｎｏｌｉａ　Ａｕｔｏ　Ｓｕｐｐｌｙ合同会社,,合同会社,沖縄県,豊見城市,字翁長８５４番地１－６Ｆ,,47,212,9010223,,,,,,,2022-12-16,1,,,,,マグノリアオートサプライ,0
1463,5430001088053,新規,0,2022-12-16,2022-12-16,株式会社ＢＢＣＪ,,株式会社,北海道,札幌市手稲区,前田八条１０丁目１１番３号,,01,109,0060818,,,,,,,2022-12-16,1,,,,,ビービーシージェイ,0
1466,5430003014560,新規,0,2022-12-16,2022-12-16,合同会社橋場,,合同会社,北海道,砂川市,東五条南１２丁目２番８号,,01,226,0730135,,,,,,,2022-12-16,1,,,,,ハシバ,0
1472,5490001010358,新規,0,2022-12-16,2022-12-16,株式会社大吉水産,,株式会社,高知県,土佐清水市,足摺岬４６８番地,,39,209,7870315,,,,,,,2022-12-16,1,,,,,ダイキチスイサン,0
1473,5490003001719,新規,0,2022-12-16,2022-12-16,合同会社三吉水産,,合同会社,高知県,宿毛市,小筑紫町内外ノ浦７８番地２,,39,208,7880263,,,,,,,2022-12-16,1,,,,,ミツヨシスイサン,0
1475,5700150113402,新規,0,2022-12-16,2022-12-16,Ｘｕｃｈａｎｇ　Ｊｉｅｆｅｎｇ　Ｘｉａｎｇｊｉａｏ　Ｋｅｊｉ　Ｙｏｕｘｉａｎ　Ｇｏｎｇｓｉ,,外国会社等,,,,,,,,Ｎｉａｎｈｏｕｊｉｅｘｉａｎｇｊｉａｏｃｈａｎｇｊｉａｓｈｕｙｕａｎ　Ｓｉｈａｏｌｏｕ　Ｓａｎｄａｎｙｕａｎ　Ｓｉｈａｏ　Ｘｉｈｕ　Ｗｅｉｄｕｑｕ　Ｘｕｃｈａｎｇｓｈｉ　Ｈｅ’ｎａｎｓｈｅｎｇ，ｃｈｉｎａ,,,,,,2022-12-16,1,,,,,キョショウケツフウショウコウケイジユウシィアンゴンスー,0
1487,6010001231554,新規,0,2022-12-16,2022-12-16,株式会社ＰＯＮ２,,株式会社,東京都,中央区,晴海３丁目１３－１ドゥトゥールＥ４７２２,,13,102,1040053,,,,,,,2022-12-16,1,,,,,ポン,0
1488,6010001231612,新規,0,2022-12-16,2022-12-16,クリーヴ・アンド・リバー・カンパニー・ジャパン株式会社,,株式会社,東京都,千代田区,麹町６丁目２番６号ＰＭＯ麹町３階,,13,101,1020083,,,,,,,2022-12-16,1,,,,,クリーヴアンドリバーカンパニージャパン,0
1489,6010001231645,新規,0,2022-12-16,2022-12-16,株式会社Ｔｓｕｎａｇａｒｉ,,株式会社,東京都,千代田区,九段南１丁目５－６りそな九段ビル５ＦＫＳフロア,,13,101,1020074,,,,,,,2022-12-16,1,,,,,ツナガリ,0
1490,6010003039302,新規,0,2022-12-16,2022-12-16,Ｕｎｄｙｅｄ合同会社,,合同会社,東京都,中央区,銀座１丁目２２番１１号銀座大竹ビジデンス２階,,13,102,1040061,,,,,,,2022-12-16,1,,,,,アンダイド,0
1491,6010003039327,新規,0,2022-12-16,2022-12-16,インヴェスト１合同会社,,合同会社,東京都,文京区,千石１丁目８番２号,,13,105,1120011,,,,,,,2022-12-16,1,,,,,インヴェストワン,0
1492,6010003039343,新規,0,2022-12-16,2022-12-16,Ｎａｃｅｌｌｅ　Ｐａｒｔｎｅｒｓ合同会社,,合同会社,東京都,中央区,築地１丁目４－８リビオレゾン東銀座２０２,,13,102,1040045,,,,,,,2022-12-16,1,,,,,ナセルパートナーズ,0
1498,6010101015460,新規,0,2022-12-16,2022-12-16,株式会社ウィズトラストコーポレーション,,株式会社,東京都,八王子市,南浅川町３９５５番地１,,13,201,1930846,,,,,,,2022-12-16,1,,,,,ウィズトラストコーポレーション,0
1502,6010401171400,新規,0,2022-12-16,2022-12-16,ＡＲＩＡ株式会社,,株式会社,東京都,港区,南青山５丁目１７番２号,,13,103,1070062,,,,,,,2022-12-16,1,,,,,アリア,0
1503,6010401171409,新規,0,2022-12-16,2022-12-16,Ｔ＆Ｋパートナーズ株式会社,,株式会社,東京都,港区,高輪３丁目１１番２３号ニットウ高輪台ハイツ１０１,,13,103,1080074,,,,,,,2022-12-16,1,,,,,ティーアンドケーパートナーズ,0
1504,6010401171425,新規,0,2022-12-16,2022-12-16,株式会社ワイズサークル,,株式会社,東京都,港区,赤坂８丁目９番５－５０３号,,13,103,1070052,,,,,,,2022-12-16,1,,,,,ワイズサークル,0
1508,6010403029142,新規,0,2022-12-16,2022-12-16,ＭＡＭ合同会社,,合同会社,東京都,港区,元麻布１丁目３番１ー２５０２号,,13,103,1060046,,,,,,,2022-12-16,1,,,,,エムエーエム,0
1509,6010403029150,新規,0,2022-12-16,2022-12-16,Ｙ・Ｍ・Ｍ合同会社,,合同会社,東京都,港区,三田２丁目３番３４－１８０１号,,13,103,1080073,,,,,,,2022-12-16,1,,,,,ワイエムエム,0
1512,6010501049744,新規,0,2022-12-16,2022-12-16,クレーニング株式会社,,株式会社,東京都,台東区,元浅草２丁目６番４号,,13,106,1110041,,,,,,,2022-12-16,1,,,,,クレーニング,0
1517,6010601062300,新規,0,2022-12-16,2022-12-16,株式会社ＯＫＥＹＡ．,,株式会社,東京都,江東区,北砂４丁目１５番２３号,,13,108,1360073,,,,,,,2022-12-16,1,,,,,オケヤ,0
1518,6010601062317,新規,0,2022-12-16,2022-12-16,ＵＮＩＦＯＲＣＥ株式会社,,株式会社,東京都,江東区,亀戸２丁目４４番５号ＴＯＷＡイマス亀戸ビル６階,,13,108,1360071,,,,,,,2022-12-16,1,,,,,ユニフォース,0
1520,6010901052166,新規,0,2022-12-16,2022-12-16,ｕｎｒｅａｌ　ｂｅａｕｔｙ株式会社,,株式会社,東京都,世田谷区,下馬６丁目８－６エルムブルックハウス１０３,,13,112,1540002,,,,,,,2022-12-16,1,,,,,アンリアルビューティー,0
1522,6010905004403,新規,0,2022-12-16,2022-12-16,一般社団法人未来の競馬税制を考える会,,その他の設立登記法人,東京都,世田谷区,太子堂２丁目１７番５号シークラウド三軒茶屋Ｂ１,,13,112,1540004,,,,,,,2022-12-16,1,,,,,ミライノケイバゼイセイヲカンガエルカイ,0
1525,6011001151494,新規,0,2022-12-16,2022-12-16,ブライ株式会社,,株式会社,東京都,渋谷区,東１丁目２６番２０号,,13,113,1500011,,,,,,,2022-12-16,1,,,,,ブライ,0
1526,6011001151503,新規,0,2022-12-16,2022-12-16,株式会社ＮＥＳＴ,,株式会社,東京都,渋谷区,神宮前６丁目２３番４号桑野ビル２階,,13,113,1500001,,,,,,,2022-12-16,1,,,,,ネスト,0
1527,6011001151511,新規,0,2022-12-16,2022-12-16,株式会社ＫＡＲＴＮ,,株式会社,東京都,渋谷区,鴬谷町１８番７号渋谷フィ・モード７０２,,13,113,1500000,,,,,,,2022-12-16,1,,,,,カートン,0
1528,6011003015904,新規,0,2022-12-16,2022-12-16,ＴＬＣ合同会社,,合同会社,東京都,渋谷区,道玄坂１丁目１０番８号渋谷道玄坂東急ビル２Ｆ－Ｃ,,13,113,1500043,,,,,,,2022-12-16,1,,,,,ティーエルシー,0
1535,6011101101192,新規,0,2022-12-16,2022-12-16,株式会社クレストワンホールディング,,株式会社,東京都,新宿区,舟町１０番地,,13,104,1600006,,,,,,,2022-12-16,1,,,,,クレストワンホールディング,0
1536,6011103012504,新規,0,2022-12-16,2022-12-16,合同会社ＮＹ’Ｓ,,合同会社,東京都,新宿区,西新宿３丁目３番１３号西新宿水間ビル６階,,13,104,1600023,,,,,,,2022-12-16,1,,,,,ニューズ,0
1544,6011201024302,新規,0,2022-12-16,2022-12-16,株式会社アパートメントデザイン,,株式会社,東京都,中野区,野方１丁目２９番１９号,,13,114,1650027,,,,,,,2022-12-16,1,,,,,アパートメントデザイン,0
1545,6011401024779,新規,0,2022-12-16,2022-12-16,株式会社京燕旅航,,株式会社,東京都,板橋区,小茂根１丁目２５番１６号ＵＩＳビル２０２号,,13,119,1730037,,,,,,,2022-12-16,1,,,,,キョウエンリョコウ,0
1549,6011601026435,新規,0,2022-12-16,2022-12-16,ＲｏｃｃａＮ株式会社,,株式会社,東京都,練馬区,小竹町２丁目７１番３－７０１号,,13,120,1760004,,,,,,,2022-12-16,1,,,,,ロッカン,0
1550,6011801041688,新規,0,2022-12-16,2022-12-16,株式会社ＬＴ　ｐｌｕｓ,,株式会社,東京都,足立区,梅田７丁目６番４－４０８号,,13,121,1230851,,,,,,,2022-12-16,1,,,,,エルティープラス,0
1551,6011801041696,新規,0,2022-12-16,2022-12-16,大久保興業株式会社,,株式会社,東京都,足立区,千住大川町６番１－１４０２号,,13,121,1200031,,,,,,,2022-12-16,1,,,,,オオクボコウギョウ,0
1555,6012301013252,新規,0,2022-12-16,2022-12-16,株式会社こめじるし,,株式会社,東京都,町田市,中町１丁目２－５,,13,209,1940021,,,,,,,2022-12-16,1,,,,,コメジルシ,0
1556,6012401039973,新規,0,2022-12-16,2022-12-16,株式会社ＹｕＴｅｃｈ,,株式会社,東京都,武蔵野市,吉祥寺南町２丁目２５番１２号,,13,203,1800003,,,,,,,2022-12-16,1,,,,,ユーテック,0
1563,6020001149457,新規,0,2022-12-16,2022-12-16,株式会社バンクロール,,株式会社,神奈川県,横浜市中区,北仲通５丁目５７番地２ザ・タワー横浜北仲２１２０,,14,104,2310003,,,,,,,2022-12-16,1,,,,,バンクロール,0
1564,6020001149473,新規,0,2022-12-16,2022-12-16,株式会社Ｎｅｗ　Ｎｏｒｍａｌ,,株式会社,神奈川県,川崎市川崎区,東門前３丁目３番８号,,14,131,2100812,,,,,,,2022-12-16,1,,,,,ニューノーマル,0
1571,6021001077524,新規,0,2022-12-16,2022-12-16,株式会社ＢｉｔＤｅｔｅｃｔｉｖｅ,,株式会社,神奈川県,横須賀市,日の出町１丁目７,,14,201,2380006,,,,,,,2022-12-16,1,,,,,,0
1572,6021001077730,新規,0,2022-12-16,2022-12-16,株式会社伊之崎ホールディングス,,株式会社,神奈川県,横須賀市,長沢２丁目８番１４号,,14,201,2390842,,,,,,,2022-12-16,1,,,,,イノサキホールディングス,0
1579,6030001151429,新規,0,2022-12-16,2022-12-16,株式会社ＷＥｉＮＧ,,株式会社,埼玉県,日高市,大字鹿山１３３番地１,,11,242,3501231,,,,,,,2022-12-16,1,,,,,ウェイン,0
1580,6030003020763,新規,0,2022-12-16,2022-12-16,ＣＨＡＴＨＵ　ＨＯＬＤＩＮＧＳ　ＪＡＰＡＮ合同会社,,合同会社,埼玉県,坂戸市,大字厚川５４番地３ＫＩＶオフィス一本松Ａ号室,,11,239,3500242,,,,,,,2022-12-16,1,,,,,チャトゥホールディングスジャパン,0
1585,6040001126215,新規,0,2022-12-16,2022-12-16,株式会社タケマツ建設,,株式会社,千葉県,千葉市美浜区,稲毛海岸５丁目１番７号ウィライブ稲毛海岸１４０３号,,12,106,2610005,,,,,,,2022-12-16,1,,,,,タケマツケンセツ,0
1586,6040001126223,新規,0,2022-12-16,2022-12-16,エス株式会社,,株式会社,千葉県,八千代市,勝田台南１丁目１０番１７号,,12,221,2760025,,,,,,,2022-12-16,1,,,,,エス,0
1590,6040003021505,新規,0,2022-12-16,2022-12-16,合同会社Ｓｕｓｕｎｐｒｏ,,合同会社,千葉県,習志野市,秋津２丁目２番７－１０２号,,12,216,2750025,,,,,,,2022-12-16,1,,,,,スーサンプロ,0
1595,6060003004342,新規,0,2022-12-16,2022-12-16,ＴＡ合同会社,,合同会社,栃木県,宇都宮市,駅前通り３丁目１番１６号,,09,201,3210964,,,,,,,2022-12-16,1,,,,,ティーエイ,0
1596,6070001039934,新規,0,2022-12-16,2022-12-16,あかぎ事務所株式会社,,株式会社,群馬県,前橋市,上泉町４０２番地３,,10,201,3710007,,,,,,,2022-12-16,1,,,,,アカギジムショ,0
1601,6070003004754,新規,0,2022-12-16,2022-12-16,合同会社エターナル,,合同会社,群馬県,北群馬郡吉岡町,大字南下５０６番地１,,10,345,3703604,,,,,,,2022-12-16,1,,,,,エターナル,0
1602,6070005010065,新規,0,2022-12-16,2022-12-16,医療法人イーハトーブ,,その他の設立登記法人,群馬県,高崎市,小八木町７９９番地１,,10,202,3700071,,,,,,,2022-12-16,1,,,,,イーハトーブ,0
1605,6080001025355,新規,0,2022-12-16,2022-12-16,清水意匠株式会社,,株式会社,静岡県,静岡市清水区,下清水町１番４２号,,22,103,4240939,,,,,,,2022-12-16,1,,,,,シミズイショウ,0
1612,6100003006813,新規,0,2022-12-16,2022-12-16,やました合同会社,,合同会社,長野県,長野市,中条住良木６８５９番１号,,20,201,3813205,,,,,,,2022-12-16,1,,,,,ヤマシタ,0
1621,6120001251021,新規,0,2022-12-16,2022-12-16,Ｌａｕｇｈ株式会社,,株式会社,大阪府,大阪市北区,梅田１丁目２番２号大阪駅前第２ビル１２－１２,,27,127,5300001,,,,,,,2022-12-16,1,,,,,ラフ,0
1622,6120001251054,新規,0,2022-12-16,2022-12-16,株式会社ミノリポンプ,,株式会社,大阪府,大阪市東淀川区,南江口２丁目６番８１号,,27,114,5330003,,,,,,,2022-12-16,1,,,,,ミノリポンプ,0
1623,6120001251079,新規,0,2022-12-16,2022-12-16,株式会社ＴＳＵＫＩ,,株式会社,大阪府,大阪市北区,曾根崎２丁目１番１２号国道ビル４階,,27,127,5300057,,,,,,,2022-12-16,1,,,,,ツキ,0
1624,6120001251145,新規,0,2022-12-16,2022-12-16,凛スタイル株式会社,,株式会社,大阪府,大阪市北区,紅梅町１－７久幸ビル２階,,27,127,5300038,,,,,,,2022-12-16,1,,,,,リンスタイル,0
1626,6120003023047,新規,0,2022-12-16,2022-12-16,合同会社クロスソフト,,合同会社,大阪府,大阪市北区,梅田１丁目２番２号大阪駅前第２ビル１２－１２,,27,127,5300001,,,,,,,2022-12-16,1,,,,,クロスソフト,0
1627,6120003023071,新規,0,2022-12-16,2022-12-16,合同会社未来グループ,,合同会社,大阪府,大阪市中央区,谷町９丁目５番１６号ウエムラバロンヴェールビル６Ｆ,,27,128,5420012,,,,,,,2022-12-16,1,,,,,ミライグループ,0
1628,6120003023088,新規,0,2022-12-16,2022-12-16,合同会社日昇実業,,合同会社,大阪府,大阪市淀川区,新北野１丁目１２番１０号６０３号室,,27,123,5320025,,,,,,,2022-12-16,1,,,,,ニッショウジツギョウ,0
1630,6120103004970,新規,0,2022-12-16,2022-12-16,合同会社勝和,,合同会社,大阪府,富田林市,小金台４丁目１１番９号,,27,214,5840083,,,,,,,2022-12-16,1,,,,,ショウワ,0
1642,6140001128382,新規,0,2022-12-16,2022-12-16,九同国際株式会社,,株式会社,兵庫県,神戸市中央区,栄町通６丁目１番１８号ライオンズスクエア神戸元町９０３号室,,28,110,6500023,,,,,,,2022-12-16,1,,,,,キュウドウコクサイ,0
1643,6140001128399,新規,0,2022-12-16,2022-12-16,株式会社エントランス,,株式会社,兵庫県,明石市,大久保町江井島２７０番地の９,,28,203,6740064,,,,,,,2022-12-16,1,,,,,エントランス,0
1644,6140001128449,新規,0,2022-12-16,2022-12-16,ＪＴＳ株式会社,,株式会社,兵庫県,尼崎市,杭瀬本町２丁目３番１３号,,28,202,6600814,,,,,,,2022-12-16,1,,,,,ジェイティーエス,0
1646,6140003018474,新規,0,2022-12-16,2022-12-16,合同会社ミツワ,,合同会社,兵庫県,西宮市,津門住江町１１番１７号,,28,204,6638234,,,,,,,2022-12-16,1,,,,,ミツワ,0
1655,6180001154185,新規,0,2022-12-16,2022-12-16,株式会社ＴＮＫ,,株式会社,愛知県,一宮市,枠杁町３丁目１４番地３０６号,,23,203,4910077,,,,,,,2022-12-16,1,,,,,ティーエヌケー,0
1656,6180001154202,新規,0,2022-12-16,2022-12-16,株式会社エムアンドエー,,株式会社,愛知県,名古屋市港区,昭和町１９番地１９,,23,111,4550026,,,,,,,2022-12-16,1,,,,,エムアンドエー,0
1657,6180001154227,新規,0,2022-12-16,2022-12-16,ヒビヤ株式会社,,株式会社,愛知県,名古屋市中川区,高畑２丁目３３０番地,,23,110,4540911,,,,,,,2022-12-16,1,,,,,ヒビヤ,0
1658,6180001154251,新規,0,2022-12-16,2022-12-16,オテント株式会社,,株式会社,愛知県,名古屋市中区,松原３丁目７番１５号光葉ビル２階,,23,106,4600017,,,,,,,2022-12-16,1,,,,,オテント,0
1660,6180003024601,新規,0,2022-12-16,2022-12-16,合同会社みいつ屋,,合同会社,愛知県,名古屋市北区,萩野通１丁目４３番地の１（グランドメゾン萩野１２０３号）,,23,103,4620026,,,,,,,2022-12-16,1,,,,,ミイツヤ,0
1668,6180303005540,新規,0,2022-12-16,2022-12-16,合同会社Ｏｆｆｉｃｅ　Ｍａｎｄａｒｉｎｇ,,合同会社,愛知県,岡崎市,日名本町１０番地３,,23,202,4440916,,,,,,,2022-12-16,1,,,,,オフィスマンダリン,0
1669,6180305009424,新規,0,2022-12-16,2022-12-16,一般社団法人とよはしフィルムコミッション,,その他の設立登記法人,愛知県,豊橋市,松葉町２丁目１０番地,,23,201,4400897,,,,,,,2022-12-16,1,,,,,トヨハシフィルムコミッション,0
1681,6240001060815,新規,0,2022-12-16,2022-12-16,ＭｉＲＡｉ開発株式会社,,株式会社,広島県,安芸郡海田町,栄町３番８－３０５号,,34,304,7360043,,,,,,,2022-12-16,1,,,,,ミライカイハツ,0
1682,6240003005933,新規,0,2022-12-16,2022-12-16,合同会社響,,合同会社,広島県,福山市,神辺町字徳田６５３番地１,,34,207,7202126,,,,,,,2022-12-16,1,,,,,ヒビキ,0
1685,6250001019884,新規,0,2022-12-16,2022-12-16,株式会社ナカマル,,株式会社,山口県,柳井市,古開作４５２番地９,,35,212,7420032,,,,,,,2022-12-16,1,,,,,ナカマル,0
1686,6250001019892,新規,0,2022-12-16,2022-12-16,株式会社ＨＩＲＯ,,株式会社,山口県,山口市,下市町１３番地２３,,35,203,7530058,,,,,,,2022-12-16,1,,,,,ヒロ,0
1687,6250005008792,新規,0,2022-12-16,2022-12-16,特定非営利活動法人はちともりと,,その他の設立登記法人,山口県,大島郡周防大島町,大字東三蒲４７３番地１,,35,305,7422102,,,,,,,2022-12-16,1,,,,,ハチトモリト,0
1692,6260005011176,新規,0,2022-12-16,2022-12-16,一般社団法人Ｐａｒｋｏｕｒ　ＪＩＧ,,その他の設立登記法人,岡山県,備前市,伊部９０２番地３号,,33,211,7050001,,,,,,,2022-12-16,1,,,,,パルクールジグ,0
1695,6270001008687,新規,0,2022-12-16,2022-12-16,株式会社ＪＵＫＥＮホールディングス,,株式会社,鳥取県,鳥取市,賀露町１１３番地２,,31,201,6800905,,,,,,,2022-12-16,1,,,,,ジューケンホールディングス,0
1703,6290001099907,新規,0,2022-12-16,2022-12-16,セブン開発株式会社,,株式会社,福岡県,久留米市,宮ノ陣町八丁島１７８０番地１,,40,203,8390805,,,,,,,2022-12-16,1,,,,,セブンカイハツ,0
1704,6290001099915,新規,0,2022-12-16,2022-12-16,株式会社ヴェルデラックス,,株式会社,福岡県,八女市,黒木町本分１６２４番地７,,40,210,8341213,,,,,,,2022-12-16,1,,,,,ヴェルデラックス,0
1705,6290001099923,新規,0,2022-12-16,2022-12-16,株式会社ライラックネクスト,,株式会社,福岡県,福岡市中央区,薬院４丁目１７番６号,,40,133,8100022,,,,,,,2022-12-16,1,,,,,ライラックネクスト,0
1707,6290003013320,新規,0,2022-12-16,2022-12-16,合同会社ライフィード,,合同会社,福岡県,大野城市,乙金３丁目２５－３ＡＺＴＯ乙金Ａ棟,,40,219,8160902,,,,,,,2022-12-16,1,,,,,ライフィード,0
1708,6310001018161,新規,0,2022-12-16,2022-12-16,株式会社ＲＳ　ＴＲＡＤＥＲＳ,,株式会社,長崎県,長崎市,永田町６７０番地,,42,201,8512325,,,,,,,2022-12-16,1,,,,,アールエストレイダーズ,0
1713,6330003009636,新規,0,2022-12-16,2022-12-16,合同会社三陽自動車,,合同会社,熊本県,宇城市,松橋町曲野８２７－７,,43,213,8690511,,,,,,,2022-12-16,1,,,,,サンヨウジドウシャ,0
1716,6340003004000,新規,0,2022-12-16,2022-12-16,合同会社ＣＯＭＭＵＮＩＴＹ　ＬＡＢＯ,,合同会社,鹿児島県,薩摩川内市,平佐町２９６８番地７,,46,215,8950012,,,,,,,2022-12-16,1,,,,,コミュニティラボ,0
1719,6380001033336,新規,0,2022-12-16,2022-12-16,株式会社マクサムホールディングス,,株式会社,福島県,福島市,旭町９番１６号,,07,201,9608113,,,,,,,2022-12-16,1,,,,,マクサムホールディングス,0
1726,6430001088052,新規,0,2022-12-16,2022-12-16,株式会社若葉工業,,株式会社,北海道,札幌市北区,北三十一条西６丁目２番２８号アクティ３１６　１０３,,01,102,0010031,,,,,,,2022-12-16,1,,,,,ワカバコウギョウ,0
1727,6430001088060,新規,0,2022-12-16,2022-12-16,株式会社キリンランド,,株式会社,北海道,札幌市中央区,北一条西２２丁目２番７－７０５号,,01,101,0640821,,,,,,,2022-12-16,1,,,,,キリンランド,0
1728,6430003014551,新規,0,2022-12-16,2022-12-16,どきみん合同会社,,合同会社,北海道,札幌市白石区,北郷二条９丁目１番８－１０３号,,01,104,0030832,,,,,,,2022-12-16,1,,,,,ドキミン,0
1731,6460005001561,新規,0,2022-12-16,2022-12-16,ＮＰＯ法人学習支援ルーピス,,その他の設立登記法人,北海道,釧路市,武佐１丁目５番３号,,01,206,0850806,,,,,,,2022-12-16,1,,,,,ガクシュウシエンルーピス,0
1732,6460101007297,新規,0,2022-12-16,2022-12-16,株式会社ｓｉｂｌｉｎｇ,,株式会社,北海道,帯広市,西二十条北２丁目２７番地１,,01,207,0802460,,,,,,,2022-12-16,1,,,,,シブリング,0
1734,6500001024660,新規,0,2022-12-16,2022-12-16,丸今ホールディングス株式会社,,株式会社,愛媛県,今治市,天保山町４丁目３番地１,,38,202,7940032,,,,,,,2022-12-16,1,,,,,マルイマホールディングス,0
1735,6700150113401,新規,0,2022-12-16,2022-12-16,ｓｈｅｎ　ｚｈｅｎ　ｓｈｉ　ｈｕｉ　ｑｉａｏ　ｋｅ　ｊｉ　ｙｏｕ　ｘｉａｎ　ｇｏｎｇ　ｓｉ,,外国会社等,,,,,,,,ｏｎｇ　ｈｕａ　ｘｉｎ　ｑｕ　ｌｏｎｇ　ｈｕａ　ｊｉｅ　ｄａｏ，ｄｏｎｇ　ｈｕａｎ　ｙｉ　ｌｕ　ｙｕ　ｙｏｕ　ｓｏｎｇ　ｌｕ，ｔｉａｎ　ｈｕｉ　ｄａ　ｓｈａ　Ａ　ｚ，ｓｈｅｎ　ｚｈｅｎ，ｇｕａｎｇ　ｄｏｎｇ，ｃｈｉｎａ,,,,,,2022-12-16,1,,,,,シンセンシエキョウケイジユウシィアンゴンスー,0
1747,7010001231553,新規,0,2022-12-16,2022-12-16,株式会社Ｃａｎｏｐｕｓ,,株式会社,東京都,中央区,銀座１丁目１２番４号Ｎ＆ＥＢＬＤ．６Ｆ,,13,102,1040061,,,,,,,2022-12-16,1,,,,,カノープス,0
1748,7010001231603,新規,0,2022-12-16,2022-12-16,株式会社ＳＡＳＡＫＯ薬粧,,株式会社,東京都,文京区,関口１丁目４４番４号新・荒井ビル６階,,13,105,1120014,,,,,,,2022-12-16,1,,,,,ササコーヤクショウ,0
1749,7010001231636,新規,0,2022-12-16,2022-12-16,株式会社ＳｕｐｅｒＣｅｌｌｓ,,株式会社,東京都,中央区,銀座７丁目１７番２号アーク銀座ビルディング６Ｆ,,13,102,1040061,,,,,,,2022-12-16,1,,,,,スーパーセルス,0
1750,7010001231644,新規,0,2022-12-16,2022-12-16,株式会社まんじゅうマーケティング,,株式会社,東京都,中央区,日本橋富沢町４－１０京成日本橋富沢町ビル３階２６号室,,13,102,1030006,,,,,,,2022-12-16,1,,,,,マンジュウマーケティング,0
1751,7010001231677,新規,0,2022-12-16,2022-12-16,ＡＣＡセキュリティ株式会社,,株式会社,東京都,千代田区,永田町１丁目１１番３０号サウスヒル永田町５階,,13,101,1000014,,,,,,,2022-12-16,1,,,,,エーシーエーセキュリティ,0
1754,7010003039342,新規,0,2022-12-16,2022-12-16,サンアートプランニング合同会社,,合同会社,東京都,文京区,本郷６丁目２５番１４号,,13,105,1130033,,,,,,,2022-12-16,1,,,,,サンアートプランニング,0
1759,7010103002043,新規,0,2022-12-16,2022-12-16,アートセピア合同会社,,合同会社,東京都,八王子市,左入町５２０番地１００,,13,201,1920012,,,,,,,2022-12-16,1,,,,,アートセピア,0
1767,7010401171374,新規,0,2022-12-16,2022-12-16,株式会社ＵＫＣｒｅａｔｅ,,株式会社,東京都,港区,新橋１丁目５番２号ＦａｂｕｌｏｕｓＧＩＮＺＡ７Ｆ,,13,103,1050004,,,,,,,2022-12-16,1,,,,,ユーケークリエイト,0
1768,7010401171382,新規,0,2022-12-16,2022-12-16,株式会社Ｉ‐ｄｅａｔｅ＆ｅｎｇ．,,株式会社,東京都,港区,浜松町２丁目２番１５号浜松町ダイヤビル２Ｆ,,13,103,1050013,,,,,,,2022-12-16,1,,,,,アイディエイトアンドエンジニアリング,0
1769,7010401171390,新規,0,2022-12-16,2022-12-16,株式会社康伸,,株式会社,東京都,港区,芝公園１丁目７番８号,,13,103,1050011,,,,,,,2022-12-16,1,,,,,コウシン,0
1770,7010401171399,新規,0,2022-12-16,2022-12-16,株式会社アンズォン,,株式会社,東京都,港区,西麻布１丁目７番２－４１１号,,13,103,1060031,,,,,,,2022-12-16,1,,,,,アンズォン,0
1771,7010401171424,新規,0,2022-12-16,2022-12-16,ギャラガージャパン株式会社,,株式会社,東京都,港区,虎ノ門１丁目３番１号東京虎ノ門グローバルスクエア,,13,103,1050001,,,,,,,2022-12-16,1,,,,,ギャラガージャパン,0
1780,7010601062299,新規,0,2022-12-16,2022-12-16,株式会社スクイーズ鞄工房,,株式会社,東京都,墨田区,亀沢１丁目２０番８号石田ビル１階,,13,107,1300014,,,,,,,2022-12-16,1,,,,,スクイーズカバンコウボウ,0
1781,7010602009332,新規,0,2022-12-16,2022-12-16,有限会社大倉ゴム工業所,,有限会社,東京都,墨田区,東向島３丁目２１番１１号,,13,107,1310032,,,,,,,2022-12-16,1,,,,,,0
1790,7010901052165,新規,0,2022-12-16,2022-12-16,Ｂ‐ＷＩＮＧ株式会社,,株式会社,東京都,世田谷区,南烏山３丁目１９番３号,,13,112,1570062,,,,,,,2022-12-16,1,,,,,ビーウィング,0
1792,7010903007852,新規,0,2022-12-16,2022-12-16,ＦＬＯＷコンサルティング合同会社,,合同会社,東京都,世田谷区,祖師谷６丁目２６－１８,,13,112,1570072,,,,,,,2022-12-16,1,,,,,フローコンサルティング,0
1797,7011001151436,新規,0,2022-12-16,2022-12-16,株式会社ＳＡＫＡＳ,,株式会社,東京都,渋谷区,代々木２丁目３３番１,,13,113,1510053,,,,,,,2022-12-16,1,,,,,サカス,0
1798,7011001151452,新規,0,2022-12-16,2022-12-16,株式会社Ｔｅｍｐｔ,,株式会社,東京都,渋谷区,猿楽町５番２１号,,13,113,1500033,,,,,,,2022-12-16,1,,,,,テンプト,0
1799,7011001151485,新規,0,2022-12-16,2022-12-16,ｐｌａｎ　Ｂ株式会社,,株式会社,東京都,渋谷区,広尾３丁目１番１５号,,13,113,1500012,,,,,,,2022-12-16,1,,,,,プランビー,0
1800,7011001151527,新規,0,2022-12-16,2022-12-16,株式会社ＢＬＡＣＫ　ＣＯＲＰＯＲＡＴＩＯＮ,,株式会社,東京都,渋谷区,猿楽町１２番３５号,,13,113,1500033,,,,,,,2022-12-16,1,,,,,ブラックコーポレーション,0
1801,7011003015944,新規,0,2022-12-16,2022-12-16,合同会社オフィス藤沢,,合同会社,東京都,渋谷区,松濤２丁目１番９号,,13,113,1500046,,,,,,,2022-12-16,1,,,,,オフィスフジサワ,0
1807,7011101101167,新規,0,2022-12-16,2022-12-16,株式会社シエル,,株式会社,東京都,新宿区,上落合２丁目１３番１－１０２号,,13,104,1610034,,,,,,,2022-12-16,1,,,,,シエル,0
1808,7011101101175,新規,0,2022-12-16,2022-12-16,株式会社ｕｌｏｉｅ,,株式会社,東京都,新宿区,西新宿６丁目１２番１号パークウェスト４Ｆ,,13,104,1600023,,,,,,,2022-12-16,1,,,,,ウルオイエ,0
1809,7011101101200,新規,0,2022-12-16,2022-12-16,株式会社グッドカルチャープロダクツ,,株式会社,東京都,新宿区,新宿２丁目１１番７号,,13,104,1600022,,,,,,,2022-12-16,1,,,,,グッドカルチャープロダクツ,0
1810,7011103012503,新規,0,2022-12-16,2022-12-16,合同会社ダイスネット,,合同会社,東京都,新宿区,西新宿３丁目３番１３号西新宿水間ビル６階,,13,104,1600023,,,,,,,2022-12-16,1,,,,,ダイスネット,0
1811,7011105010496,新規,0,2022-12-16,2022-12-16,一般社団法人ＨＵＭＡＮ　ＲＥＳＯＵＲＣＥ,,その他の設立登記法人,東京都,新宿区,中井１丁目８番１０号,,13,104,1610035,,,,,,,2022-12-16,1,,,,,ヒューマンリソース,0
1812,7011201024292,新規,0,2022-12-16,2022-12-16,株式会社とりっぱーず,,株式会社,東京都,中野区,東中野５丁目２７番１０号,,13,114,1640003,,,,,,,2022-12-16,1,,,,,トリッパーズ,0
1813,7011201024301,新規,0,2022-12-16,2022-12-16,株式会社エーグラム,,株式会社,東京都,中野区,中央２丁目８番２２－５０６号,,13,114,1640011,,,,,,,2022-12-16,1,,,,,エーグラム,0
1818,7011701025880,新規,0,2022-12-16,2022-12-16,株式会社ＹＫ,,株式会社,東京都,江戸川区,東葛西４丁目４番１東葛西第一住宅３１７号,,13,123,1340084,,,,,,,2022-12-16,1,,,,,ワイケー,0
1824,7011801041679,新規,0,2022-12-16,2022-12-16,株式会社ＳＫ,,株式会社,東京都,葛飾区,亀有２丁目３３番２－１０４号,,13,122,1250061,,,,,,,2022-12-16,1,,,,,エスケイ,0
1826,7012301013251,新規,0,2022-12-16,2022-12-16,ＰＬＡＮｐｅｒｆｅｃｔ株式会社,,株式会社,東京都,町田市,小山ヶ丘３丁目２２番地２４,,13,209,1940215,,,,,,,2022-12-16,1,,,,,プランパーフェクト,0
1833,7013301050078,新規,0,2022-12-16,2022-12-16,ＢＬＫＳ株式会社,,株式会社,東京都,豊島区,南池袋１丁目２７番１０号油木第一ビル９階,,13,116,1710022,,,,,,,2022-12-16,1,,,,,バルクス,0
1838,7020005015778,新規,0,2022-12-16,2022-12-16,一般社団法人港北区薬剤師会,,その他の設立登記法人,神奈川県,横浜市港北区,綱島西１丁目４－１３パークサイドレジデンス２Ｂ,,14,109,2230053,,,,,,,2022-12-16,1,,,,,コウホククヤクザイシカイ,0
1842,7021001077688,新規,0,2022-12-16,2022-12-16,株式会社金子建設,,株式会社,神奈川県,藤沢市,石川４丁目１１－６ビタシオン湘南１０１号室,,14,205,2520815,,,,,,,2022-12-16,1,,,,,カネコケンセツ,0
1843,7021001077713,新規,0,2022-12-16,2022-12-16,株式会社クレスト,,株式会社,神奈川県,座間市,相模が丘５丁目１１番１２号,,14,216,2520001,,,,,,,2022-12-16,1,,,,,クレスト,0
1845,7021003012511,新規,0,2022-12-16,2022-12-16,ＳＡＫＨＡＮ合同会社,,合同会社,神奈川県,海老名市,下今泉４丁目１番４号２Ｆ,,14,215,2430435,,,,,,,2022-12-16,1,,,,,サカン,0
1852,7030001151469,新規,0,2022-12-16,2022-12-16,ＹＹガレージ株式会社,,株式会社,埼玉県,さいたま市岩槻区,大字谷下１６１番地１,,11,110,3390046,,,,,,,2022-12-16,1,,,,,ワイワイガレージ,0
1853,7030001151510,新規,0,2022-12-16,2022-12-16,Ｈ＆Ｙ株式会社,,株式会社,埼玉県,さいたま市桜区,西堀１０丁目５番３２号西堀ビレッジＩ２０２,,11,106,3380832,,,,,,,2022-12-16,1,,,,,エイチアンドワイ,0
1854,7030001151527,新規,0,2022-12-16,2022-12-16,株式会社ＫＯＫＯＲＯ,,株式会社,埼玉県,鶴ヶ島市,大字町屋１５６番地４,,11,241,3502224,,,,,,,2022-12-16,1,,,,,ココロ,0
1865,7040001126214,新規,0,2022-12-16,2022-12-16,株式会社中村造園,,株式会社,千葉県,東金市,東中１１４９番地,,12,213,2830021,,,,,,,2022-12-16,1,,,,,ナカムラゾウエン,0
1866,7040001126222,新規,0,2022-12-16,2022-12-16,株式会社錦,,株式会社,千葉県,千葉市花見川区,幕張町１丁目４０６７番地,,12,102,2620032,,,,,,,2022-12-16,1,,,,,ニシキ,0
1867,7040001126230,新規,0,2022-12-16,2022-12-16,佐野工務店株式会社,,株式会社,千葉県,船橋市,二子町５０２番地５－４１０号,,12,204,2730034,,,,,,,2022-12-16,1,,,,,サノコウムテン,0
1868,7040001126271,新規,0,2022-12-16,2022-12-16,株式会社天城,,株式会社,千葉県,千葉市花見川区,宮野木台４丁目１７番１１号,,12,102,2620015,,,,,,,2022-12-16,1,,,,,アマキ,0
1869,7040003021487,新規,0,2022-12-16,2022-12-16,合同会社Ｋａｇａｙａｋｉ,,合同会社,千葉県,野田市,中里１２２７番地,,12,208,2700237,,,,,,,2022-12-16,1,,,,,カガヤキ,0
1870,7040003021495,新規,0,2022-12-16,2022-12-16,合同会社ＡＲＡＴＡ,,合同会社,千葉県,八千代市,八千代台西８丁目７番地３,,12,221,2760034,,,,,,,2022-12-16,1,,,,,アラタ,0
1871,7040003021512,新規,0,2022-12-16,2022-12-16,合同会社カメレオン,,合同会社,千葉県,市原市,八幡石塚２丁目１３番地５,,12,219,2900061,,,,,,,2022-12-16,1,,,,,カメレオン,0
1876,7070001009663,新規,0,2022-12-16,2022-12-16,福田建設株式会社,,株式会社,群馬県,高崎市,菅谷町５７４番地１,,10,202,3703522,,,,,,,2022-12-16,1,,,,,フクダケンセツ,0
1880,7070001039909,新規,0,2022-12-16,2022-12-16,株式会社ＲＯＭホールディングス,,株式会社,群馬県,高崎市,末広町１６２番地２,,10,202,3700065,,,,,,,2022-12-16,1,,,,,ロムホールディングス,0
1881,7070001039917,新規,0,2022-12-16,2022-12-16,株式会社鳳来商会,,株式会社,群馬県,高崎市,八島町２４番地２,,10,202,3700849,,,,,,,2022-12-16,1,,,,,ホウライショウカイ,0
1886,7090001017887,新規,0,2022-12-16,2022-12-16,株式会社甲斐の國ひまわり事務所,,株式会社,山梨県,甲斐市,島上条１８９０番地１,,19,210,4000123,,,,,,,2022-12-16,1,,,,,カイノクニヒマワリジムショ,0
1887,7100001035961,新規,0,2022-12-16,2022-12-16,株式会社ミヤサカファーム,,株式会社,長野県,諏訪郡原村,６８９番地,,20,363,3910100,,,,,,,2022-12-16,1,,,,,ミヤサカファーム,0
1892,7120001147193,新規,0,2022-12-16,2022-12-16,株式会社藤工務店,,株式会社,大阪府,交野市,郡津５丁目２番２号,,27,230,5760053,,,,,,,2022-12-16,1,,,,,フジコウムテン,0
1895,7120001250848,新規,0,2022-12-16,2022-12-16,薩娜株式会社,,株式会社,大阪府,大阪市西成区,松１丁目５番４号２０２号室,,27,122,5570034,,,,,,,2022-12-16,1,,,,,サナ,0
1896,7120001251012,新規,0,2022-12-16,2022-12-16,株式会社ｉＬｉｎｋｓ,,株式会社,大阪府,大阪市北区,大淀南２丁目２番９－８１８号,,27,127,5310075,,,,,,,2022-12-16,1,,,,,アイリンクス,0
1897,7120001251020,新規,0,2022-12-16,2022-12-16,株式会社ＧＦ‐ＢＥＹＯＮＤ,,株式会社,大阪府,枚方市,上島東町１６番１号ＴＯＭＩＮＯビル２階,,27,210,5731126,,,,,,,2022-12-16,1,,,,,ジーエフビヨンド,0
1898,7120001251029,新規,0,2022-12-16,2022-12-16,株式会社カスヤ物流サービス,,株式会社,大阪府,枚方市,星丘３丁目２－２５－２０２,,27,210,5730013,,,,,,,2022-12-16,1,,,,,カスヤブツリュウサービス,0
1899,7120001251053,新規,0,2022-12-16,2022-12-16,金幢国際株式会社,,株式会社,大阪府,大阪市住之江区,安立２丁目１０番１４号三坂ビル２０３号室,,27,125,5590003,,,,,,,2022-12-16,1,,,,,コンドウコクサイ,0
1900,7120001251086,新規,0,2022-12-16,2022-12-16,株式会社虹色ファステート,,株式会社,大阪府,大阪市中央区,博労町３丁目５番１号,,27,128,5410059,,,,,,,2022-12-16,1,,,,,ニジイロファステート,0
1901,7120001251111,新規,0,2022-12-16,2022-12-16,株式会社遠東国際,,株式会社,大阪府,大阪市西成区,鶴見橋１丁目６番１９号３０３号室,,27,122,5570031,,,,,,,2022-12-16,1,,,,,エントウコクサイ,0
1902,7120001251136,新規,0,2022-12-16,2022-12-16,株式会社みのり空調,,株式会社,大阪府,大阪市東淀川区,相川２丁目４番１５号,,27,114,5330007,,,,,,,2022-12-16,1,,,,,ミノリクウチョウ,0
1903,7120001251144,新規,0,2022-12-16,2022-12-16,聖乾株式会社,,株式会社,大阪府,大阪市西成区,花園南１丁目７番２１号２０２Ｂ,,27,122,5570015,,,,,,,2022-12-16,1,,,,,セイカン,0
1904,7120001251177,新規,0,2022-12-16,2022-12-16,株式会社大新世界,,株式会社,大阪府,大阪市中央区,本町３丁目４番１１号,,27,128,5410053,,,,,,,2022-12-16,1,,,,,ダイシンセカイ,0
1906,7120003023070,新規,0,2022-12-16,2022-12-16,合同会社佐藤商会,,合同会社,大阪府,大阪市北区,梅田２丁目５番１３号桜橋第一ビル３０４号,,27,127,5300001,,,,,,,2022-12-16,1,,,,,サトウショウカイ,0
1916,7120901046866,新規,0,2022-12-16,2022-12-16,株式会社匠,,株式会社,大阪府,箕面市,箕面１丁目１９番１９－２０１号,,27,220,5620001,,,,,,,2022-12-16,1,,,,,タクミ,0
1917,7122001036491,新規,0,2022-12-16,2022-12-16,株式会社ＫＧ,,株式会社,大阪府,四條畷市,岡山東２丁目６番５号,,27,229,5750003,,,,,,,2022-12-16,1,,,,,ケージー,0
1921,7130001073298,新規,0,2022-12-16,2022-12-16,株式会社大,,株式会社,京都府,八幡市,川口東扇１５番地６,,26,210,6148116,,,,,,,2022-12-16,1,,,,,ダイ,0
1922,7130001073307,新規,0,2022-12-16,2022-12-16,華波株式会社,,株式会社,京都府,船井郡京丹波町,大朴深田３９,,26,407,6220322,,,,,,,2022-12-16,1,,,,,カナミ,0
1936,7140001128373,新規,0,2022-12-16,2022-12-16,株式会社リハ・コンディショニングセンター,,株式会社,兵庫県,芦屋市,船戸町５番２６号,,28,206,6590093,,,,,,,2022-12-16,1,,,,,リハコンディショニングセンター,0
1937,7140001128398,新規,0,2022-12-16,2022-12-16,株式会社マーベリック,,株式会社,兵庫県,西宮市,宝生ケ丘１丁目１５番７号,,28,204,6691112,,,,,,,2022-12-16,1,,,,,マーベリック,0
1938,7140001128415,新規,0,2022-12-16,2022-12-16,株式会社かもあ,,株式会社,兵庫県,神戸市垂水区,福田４丁目５番１０号,,28,108,6550013,,,,,,,2022-12-16,1,,,,,カモア,0
1939,7140001128448,新規,0,2022-12-16,2022-12-16,株式会社サニーパック,,株式会社,兵庫県,姫路市,白浜町甲２１９６番地２,,28,201,6728023,,,,,,,2022-12-16,1,,,,,サニーパック,0
1940,7140001128472,新規,0,2022-12-16,2022-12-16,株式会社ｗｉｔｈリハ,,株式会社,兵庫県,西宮市,堤町１番３１－４１号,,28,204,6638012,,,,,,,2022-12-16,1,,,,,ウィズリハ,0
1947,7160001024703,新規,0,2022-12-16,2022-12-16,ＹＫＴ株式会社,,株式会社,滋賀県,大津市,南郷２丁目３番４７号,,25,201,5200865,,,,,,,2022-12-16,1,,,,,ワイケイティ,0
1950,7170001017409,新規,0,2022-12-16,2022-12-16,紀伊國ベース株式会社,,株式会社,和歌山県,有田郡広川町,大字広３０６番地,,30,362,6430071,,,,,,,2022-12-16,1,,,,,キノクニベース,0
1951,7170003001807,新規,0,2022-12-16,2022-12-16,合同会社エムズ,,合同会社,和歌山県,田辺市,中辺路町栗栖川９６番地の２,,30,206,6461421,,,,,,,2022-12-16,1,,,,,エムズ,0
1956,7180001154201,新規,0,2022-12-16,2022-12-16,ＢＬＵＥＰＲＩＮＴ株式会社,,株式会社,愛知県,瀬戸市,西山町１丁目６０番地２６,,23,204,4890987,,,,,,,2022-12-16,1,,,,,ブループリント,0
1957,7180001154218,新規,0,2022-12-16,2022-12-16,株式会社産電サービス,,株式会社,愛知県,春日井市,柏原町３丁目２１３番地柏原農住団地Ｔ棟２０４号,,23,206,4860913,,,,,,,2022-12-16,1,,,,,サンデンサービス,0
1958,7180001154242,新規,0,2022-12-16,2022-12-16,株式会社コウエイ商事,,株式会社,愛知県,稲沢市,矢合町１３６１番地,,23,220,4928342,,,,,,,2022-12-16,1,,,,,コウエイショウジ,0
1959,7180001154250,新規,0,2022-12-16,2022-12-16,株式会社ＧｒｅｅｎＣｏｍｐａｓｓ,,株式会社,愛知県,名古屋市中区,丸の内２丁目３番３１号,,23,106,4600002,,,,,,,2022-12-16,1,,,,,グリーンコンパス,0
1961,7180003024600,新規,0,2022-12-16,2022-12-16,合同会社波動科学研究所,,合同会社,愛知県,名古屋市昭和区,広路本町６丁目９番地,,23,107,4660841,,,,,,,2022-12-16,1,,,,,ハドウカガクケンキュウジョ,0
1963,7180005020028,新規,0,2022-12-16,2022-12-16,弁護士法人ブロッサム,,その他の設立登記法人,愛知県,名古屋市東区,東桜１丁目１番１号,,23,102,4610005,,,,,,,2022-12-16,1,,,,,ブロッサム,0
1965,7180301036917,新規,0,2022-12-16,2022-12-16,株式会社ＡＭＯＲＥ,,株式会社,愛知県,豊田市,喜多町１丁目９９番地,,23,211,4710027,,,,,,,2022-12-16,1,,,,,アモレ,0
1967,7180305009423,新規,0,2022-12-16,2022-12-16,ジェイ・シー・エー協同組合,,その他の設立登記法人,愛知県,刈谷市,東刈谷町３丁目１２番地７,,23,210,4480807,,,,,,,2022-12-16,1,,,,,ジェイシーエー,0
1973,7200001040778,新規,0,2022-12-16,2022-12-16,株式会社あむごな２,,株式会社,岐阜県,海津市,南濃町山崎１３２１番地１,,21,221,5030415,,,,,,,2022-12-16,1,,,,,アムゴナニ,0
1981,7230001019638,新規,0,2022-12-16,2022-12-16,薬草研究所ＨＥＲＢＳ株式会社,,株式会社,富山県,高岡市,伏木国分２丁目７番７号,,16,202,9330101,,,,,,,2022-12-16,1,,,,,ヤクソウケンキュウショハーブス,0
1989,7250001019883,新規,0,2022-12-16,2022-12-16,株式会社Ｎドットコム,,株式会社,山口県,下関市,長府松小田本町２３番１７号Ｃ１ビル１号室,,35,201,7520933,,,,,,,2022-12-16,1,,,,,エヌドットコム,0
1990,7250001019891,新規,0,2022-12-16,2022-12-16,株式会社花れん,,株式会社,山口県,下関市,綾羅木本町５丁目６番６－２号ユニフォート綾羅木Ａ,,35,201,7510849,,,,,,,2022-12-16,1,,,,,カレン,0
1991,7250003003200,新規,0,2022-12-16,2022-12-16,合同会社奏空商会,,合同会社,山口県,防府市,桑山２丁目１１番２２号もっくのもり内,,35,206,7470808,,,,,,,2022-12-16,1,,,,,カナタショウカイ,0
1994,7260001037505,新規,0,2022-12-16,2022-12-16,株式会社ＴＨＥ　ＴＯＰ,,株式会社,岡山県,倉敷市,中庄２３７９番地３,,33,202,7100016,,,,,,,2022-12-16,1,,,,,ザトップ,0
2002,7290001099872,新規,0,2022-12-16,2022-12-16,株式会社Ｆｌａｔ　Ｆｉｅｌｄ　Ｄｅｓｉｇｎ,,株式会社,福岡県,春日市,岡本１丁目５番－２０５号,,40,218,8160861,,,,,,,2022-12-16,1,,,,,フラットフィールドデザイン,0
2003,7290001099897,新規,0,2022-12-16,2022-12-16,株式会社秀奈拓,,株式会社,福岡県,大牟田市,下白川町１丁目５５番３号,,40,202,8370928,,,,,,,2022-12-16,1,,,,,ヒナタ,0
2004,7290001099906,新規,0,2022-12-16,2022-12-16,株式会社ＲＤＯＴＪＰ,,株式会社,福岡県,福岡市東区,香住ヶ丘２丁目７番２号,,40,131,8130003,,,,,,,2022-12-16,1,,,,,アールドットジェイピー,0
2005,7290001099914,新規,0,2022-12-16,2022-12-16,株式会社清友会,,株式会社,福岡県,朝倉郡筑前町,篠隈２２４番地３,,40,447,8380215,,,,,,,2022-12-16,1,,,,,セイユウカイ,0
2006,7290001099947,新規,0,2022-12-16,2022-12-16,株式会社エステック,,株式会社,福岡県,福岡市中央区,大名２丁目９－１７－１１階Ｂ,,40,133,8100041,,,,,,,2022-12-16,1,,,,,エステック,0
2007,7290003013311,新規,0,2022-12-16,2022-12-16,合同会社ＩＣＴセキュリティサポート,,合同会社,福岡県,福岡市博多区,博多駅前１丁目２３番１号,,40,132,8120011,,,,,,,2022-12-16,1,,,,,アイシーティーセキュリティサポート,0
2009,7300001013162,新規,0,2022-12-16,2022-12-16,株式会社ＧＲＡＣＩＭ,,株式会社,佐賀県,唐津市,鏡４７５９番地１,,41,202,8470022,,,,,,,2022-12-16,1,,,,,グラシム,0
2011,7320003003969,新規,0,2022-12-16,2022-12-16,合同会社ＮＦＣ,,合同会社,大分県,大分市,大字野田６９２番地の４,,44,201,8700868,,,,,,,2022-12-16,1,,,,,エヌエフシー,0
2013,7330001030411,新規,0,2022-12-16,2022-12-16,株式会社本多塗装,,株式会社,熊本県,熊本市東区,御領８丁目１３番４号サンハイツ石原１０３,,43,102,8618035,,,,,,,2022-12-16,1,,,,,ホンダトソウ,0
2015,7330003009635,新規,0,2022-12-16,2022-12-16,ｋａｎｄｋ合同会社,,合同会社,熊本県,合志市,豊岡２０００番地１６１６,,43,216,8611115,,,,,,,2022-12-16,1,,,,,ケーアンドケー,0
2017,7360001031324,新規,0,2022-12-16,2022-12-16,れいわ工業株式会社,,株式会社,沖縄県,豊見城市,字長堂１９２番地コーポ長堂１０９号室,,47,212,9010203,,,,,,,2022-12-16,1,,,,,レイワコウギョウ,0
2038,7430001088043,新規,0,2022-12-16,2022-12-16,株式会社Ｄｅｌｉｇｈｔ,,株式会社,北海道,江別市,あけぼの町３６番地の２,,01,217,0670025,,,,,,,2022-12-16,1,,,,,ディライト,0
2042,7440005002742,新規,0,2022-12-16,2022-12-16,一般社団法人ＫＭＨ,,その他の設立登記法人,北海道,函館市,高松町５７５番地２７０,,01,202,0420952,,,,,,,2022-12-16,1,,,,,ケイエムエイチ,0
2057,8010001231552,新規,0,2022-12-16,2022-12-16,Ａｌｐｈａｂｅｔ株式会社,,株式会社,東京都,中央区,銀座１丁目１２番４号Ｎ＆Ｅ・ＢＬＤ．７階,,13,102,1040061,,,,,,,2022-12-16,1,,,,,アルファベット,0
2058,8010001231610,新規,0,2022-12-16,2022-12-16,株式会社ＲｉｉＣＡ,,株式会社,東京都,中央区,日本橋小伝馬町４番２号,,13,102,1030001,,,,,,,2022-12-16,1,,,,,リッカ,0
2059,8010001231635,新規,0,2022-12-16,2022-12-16,Ａｅｓｔｈｏ株式会社,,株式会社,東京都,中央区,銀座１丁目１２－４Ｎ＆ＥＢＬＤ．７階,,13,102,1040061,,,,,,,2022-12-16,1,,,,,エスト,0
2060,8010001231651,新規,0,2022-12-16,2022-12-16,合晟精機株式会社,,株式会社,東京都,千代田区,神田神保町３丁目１１番１－２０７号,,13,101,1010051,,,,,,,2022-12-16,1,,,,,ゴウセンセイキ,0
2080,8010401171340,新規,0,2022-12-16,2022-12-16,株式会社グリボーチキ,,株式会社,東京都,港区,元麻布２丁目３番３０号,,13,103,1060046,,,,,,,2022-12-16,1,,,,,グリボーチキ,0
2081,8010401171349,新規,0,2022-12-16,2022-12-16,西川マネジメント株式会社,,株式会社,東京都,港区,南青山２丁目１５番２２－５０５号,,13,103,1070062,,,,,,,2022-12-16,1,,,,,ニシカワマネジメント,0
2082,8010401171357,新規,0,2022-12-16,2022-12-16,株式会社ＬＩＥＲＡ,,株式会社,東京都,港区,南青山７丁目１番２１－４０７号,,13,103,1070062,,,,,,,2022-12-16,1,,,,,リエラ,0
2083,8010401171373,新規,0,2022-12-16,2022-12-16,株式会社Ｔ　ＭＥＤＩＣＡＬ,,株式会社,東京都,港区,海岸１丁目４番２２号ＳＮビル１０階,,13,103,1050022,,,,,,,2022-12-16,1,,,,,ティーメディカル,0
2084,8010401171398,新規,0,2022-12-16,2022-12-16,セントラルグランデ株式会社,,株式会社,東京都,港区,南青山２丁目２番１５号,,13,103,1070062,,,,,,,2022-12-16,1,,,,,セントラルグランデ,0
2092,8010403029157,新規,0,2022-12-16,2022-12-16,合同会社空豆,,合同会社,東京都,港区,南青山３丁目１番３６号青山丸竹ビル６Ｆ,,13,103,1070062,,,,,,,2022-12-16,1,,,,,ソラマメ,0
2103,8010601062315,新規,0,2022-12-16,2022-12-16,株式会社ＣｒｅａＶｉｄａ,,株式会社,東京都,江東区,豊洲４丁目９番１３－１５１１号,,13,108,1350061,,,,,,,2022-12-16,1,,,,,クレアビーダ,0
2124,8011001151468,新規,0,2022-12-16,2022-12-16,ＩＬＩＡ株式会社,,株式会社,東京都,渋谷区,道玄坂２丁目１５番１号,,13,113,1500043,,,,,,,2022-12-16,1,,,,,イリア,0
2125,8011001151501,新規,0,2022-12-16,2022-12-16,株式会社ヨハクアーキテクツ,,株式会社,東京都,渋谷区,代々木３丁目１番１１号パシフィックスクエア代々木２Ｆ,,13,113,1510053,,,,,,,2022-12-16,1,,,,,ヨハクアーキテクツ,0
2128,8011003015910,新規,0,2022-12-16,2022-12-16,マッタリストＨＡＲＡ合同会社,,合同会社,東京都,渋谷区,渋谷２丁目１９番１５号宮益坂ビルディング６０９,,13,113,1500002,,,,,,,2022-12-16,1,,,,,マッタリストハラ,0
2129,8011003015935,新規,0,2022-12-16,2022-12-16,合同会社ＩＺＡ,,合同会社,東京都,渋谷区,神宮前６丁目２３番４号桑野ビル２階,,13,113,1500001,,,,,,,2022-12-16,1,,,,,イザ,0
2134,8011101101182,新規,0,2022-12-16,2022-12-16,株式会社Ｐｌｕｍ＆ｂ,,株式会社,東京都,新宿区,新宿４丁目３－１５レイフラット新宿Ｂ棟３Ｆ,,13,104,1600022,,,,,,,2022-12-16,1,,,,,プラムアンドビー,0
2135,8011101101199,新規,0,2022-12-16,2022-12-16,株式会社トゥギャザーアップ,,株式会社,東京都,新宿区,新宿２丁目１１番７号,,13,104,1600022,,,,,,,2022-12-16,1,,,,,トゥギャザーアップ,0
2137,8011103012502,新規,0,2022-12-16,2022-12-16,ｉ‐ＣＯＮＮＥＣＴ合同会社,,合同会社,東京都,新宿区,西新宿３丁目３番１３号西新宿水間ビル２Ｆ,,13,104,1600023,,,,,,,2022-12-16,1,,,,,アイコネクト,0
2148,8011701025871,新規,0,2022-12-16,2022-12-16,株式会社いのり,,株式会社,東京都,江戸川区,船堀６丁目２番１２号,,13,123,1340091,,,,,,,2022-12-16,1,,,,,イノリ,0
2153,8011801041678,新規,0,2022-12-16,2022-12-16,株式会社ＫＰ　Ｐｒｏｍｏｔｉｏｎｓ,,株式会社,東京都,足立区,西綾瀬２丁目２２番１７号,,13,121,1200014,,,,,,,2022-12-16,1,,,,,ケーピープロモーションズ,0
2154,8011801041686,新規,0,2022-12-16,2022-12-16,株式会社経営労務コンサルティング,,株式会社,東京都,葛飾区,高砂５丁目３８番８号,,13,122,1250054,,,,,,,2022-12-16,1,,,,,ケイエイロウムコンサルティング,0
2157,8012403005732,新規,0,2022-12-16,2022-12-16,合同会社レアノホナ,,合同会社,東京都,三鷹市,新川６丁目２４番地３号,,13,204,1810004,,,,,,,2022-12-16,1,,,,,レアノホナ,0
2165,8020001149439,新規,0,2022-12-16,2022-12-16,株式会社グッドルーム,,株式会社,神奈川県,横浜市神奈川区,白幡西町３６番２５号,,14,102,2210074,,,,,,,2022-12-16,1,,,,,グッドルーム,0
2166,8020001149447,新規,0,2022-12-16,2022-12-16,株式会社ＮＣ,,株式会社,神奈川県,横浜市西区,浅間町１丁目４番地３ウィザードビル４０２,,14,103,2200072,,,,,,,2022-12-16,1,,,,,エヌシー,0
2168,8020003022924,新規,0,2022-12-16,2022-12-16,セトグラ合同会社,,合同会社,神奈川県,川崎市中原区,下小田中３丁目１６－２８ウエストヴィラ１０３,,14,133,2110041,,,,,,,2022-12-16,1,,,,,セトグラ,0
2169,8020005015777,新規,0,2022-12-16,2022-12-16,一般社団法人ＳＩＥＮ,,その他の設立登記法人,神奈川県,横浜市中区,常盤町３丁目２１番地アライアンス関内ビル４０２号室,,14,104,2310014,,,,,,,2022-12-16,1,,,,,シエン,0
2173,8021001077712,新規,0,2022-12-16,2022-12-16,株式会社ＣＬＥＡＮ　ＰＬＵＳ　ＯＮＥ,,株式会社,神奈川県,厚木市,金田８３４番地２,,14,212,2430807,,,,,,,2022-12-16,1,,,,,クリンプラスワン,0
2174,8021001077720,新規,0,2022-12-16,2022-12-16,株式会社アドバタイズイルム,,株式会社,神奈川県,相模原市南区,上鶴間本町１丁目３８番２８号,,14,153,2520318,,,,,,,2022-12-16,1,,,,,アドバタイズイルム,0
2175,8021001077729,新規,0,2022-12-16,2022-12-16,やどりき小水力発電株式会社,,株式会社,神奈川県,足柄上郡松田町,寄４０９７番地１,,14,363,2580001,,,,,,,2022-12-16,1,,,,,ヤドリキショウスイリョクハツデン,0
2181,8030001151427,新規,0,2022-12-16,2022-12-16,株式会社ＳＥＩＹＯ,,株式会社,埼玉県,川口市,大字新井宿６１５番地の２４,,11,203,3330826,,,,,,,2022-12-16,1,,,,,,0
2182,8030001151492,新規,0,2022-12-16,2022-12-16,株式会社Ｏｒｉｔｕｒａ,,株式会社,埼玉県,坂戸市,南町２２番１７－２号,,11,239,3500233,,,,,,,2022-12-16,1,,,,,オリトゥーラ,0
2183,8030001151518,新規,0,2022-12-16,2022-12-16,株式会社ケネディコマーシャル,,株式会社,埼玉県,入間市,向陽台１丁目１－１７駅前プラザ１３－１０３,,11,225,3580001,,,,,,,2022-12-16,1,,,,,ケネディコマーシャル,0
2186,8030003020737,新規,0,2022-12-16,2022-12-16,里みらい合同会社,,合同会社,埼玉県,飯能市,大字中藤上郷３０５,,11,209,3570121,,,,,,,2022-12-16,1,,,,,サトミライ,0
2194,8040001126171,新規,0,2022-12-16,2022-12-16,ＳＥＶＥＮＴＥＥＮ株式会社,,株式会社,千葉県,松戸市,栄町７丁目５６２番地の２、１Ｆ,,12,207,2710062,,,,,,,2022-12-16,1,,,,,セブンティーン,0
2195,8040001126270,新規,0,2022-12-16,2022-12-16,スカイリージャパン株式会社,,株式会社,千葉県,浦安市,入船３丁目２２番１０３号,,12,227,2790012,,,,,,,2022-12-16,1,,,,,スカイリージャパン,0
2200,8040003021503,新規,0,2022-12-16,2022-12-16,合同会社トータルサポート,,合同会社,千葉県,習志野市,実籾４丁目３８番２７号,,12,216,2750002,,,,,,,2022-12-16,1,,,,,トータルサポート,0
2203,8050001052103,新規,0,2022-12-16,2022-12-16,株式会社大建土木,,株式会社,茨城県,土浦市,桜ケ丘町１９番１０号,,08,203,3000832,,,,,,,2022-12-16,1,,,,,ダイケンドボク,0
2204,8050003007096,新規,0,2022-12-16,2022-12-16,合同会社核データ研究所,,合同会社,茨城県,水戸市,双葉台１丁目２７－２,,08,201,3114145,,,,,,,2022-12-16,1,,,,,カクデータケンキュウショ,0
2205,8060001035536,新規,0,2022-12-16,2022-12-16,株式会社クワトロ,,株式会社,栃木県,足利市,朝倉町２４５番地５,,09,202,3260823,,,,,,,2022-12-16,1,,,,,クワトロ,0
2210,8070001039916,新規,0,2022-12-16,2022-12-16,株式会社新井空調設備,,株式会社,群馬県,伊勢崎市,山王町５１２番地４,,10,204,3720831,,,,,,,2022-12-16,1,,,,,アライクウチョウセツビ,0
2212,8070003004760,新規,0,2022-12-16,2022-12-16,合同会社リフレイン,,合同会社,群馬県,高崎市,寺尾町２３０５番地９２,,10,202,3700865,,,,,,,2022-12-16,1,,,,,リフレイン,0
2220,8090001017886,新規,0,2022-12-16,2022-12-16,株式会社Ｈ＆Ｒ,,株式会社,山梨県,甲府市,寿町３番３号,,19,201,4000033,,,,,,,2022-12-16,1,,,,,エイチアンドアール,0
2237,8120001251069,新規,0,2022-12-16,2022-12-16,こだち株式会社,,株式会社,大阪府,大阪市天王寺区,上本町６丁目９番７－４０４号,,27,109,5430001,,,,,,,2022-12-16,1,,,,,コダチ,0
2238,8120001251077,新規,0,2022-12-16,2022-12-16,株式会社英縁,,株式会社,大阪府,大阪市鶴見区,安田２丁目２番７１号,,27,124,5380032,,,,,,,2022-12-16,1,,,,,エニシ,0
2239,8120001251093,新規,0,2022-12-16,2022-12-16,株式会社スタディー,,株式会社,大阪府,大阪市西区,南堀江４丁目１１－８－３５０３,,27,106,5500015,,,,,,,2022-12-16,1,,,,,スタディー,0
2240,8120001251119,新規,0,2022-12-16,2022-12-16,株式会社Ｓｗｉｔｃｈ,,株式会社,大阪府,大阪市中央区,谷町１丁目３番１９－５階,,27,128,5400012,,,,,,,2022-12-16,1,,,,,スイッチ,0
2241,8120001251151,新規,0,2022-12-16,2022-12-16,ステファン株式会社,,株式会社,大阪府,大阪市住之江区,西加賀屋２丁目１２－１８住吉ハイツ１０３号室,,27,125,5590016,,,,,,,2022-12-16,1,,,,,ステファン,0
2247,8120101066689,新規,0,2022-12-16,2022-12-16,株式会社Ｌｕｃｋ　Ｆｉｅｌｄ,,株式会社,大阪府,堺市西区,菱木２丁２３９７番地５,,27,144,5938315,,,,,,,2022-12-16,1,,,,,ラックフィールド,0
2248,8120105009652,新規,0,2022-12-16,2022-12-16,医療介護合同労働組合,,その他の設立登記法人,大阪府,岸和田市,神須屋町３１３－２,,27,202,5960833,,,,,,,2022-12-16,1,,,,,イリョウカイゴゴウドウ,0
2259,8130001073280,新規,0,2022-12-16,2022-12-16,株式会社坂田商事,,株式会社,京都府,木津川市,城山台１３丁目１８番地２,,26,214,6190218,,,,,,,2022-12-16,1,,,,,サカタショウジ,0
2260,8130001073289,新規,0,2022-12-16,2022-12-16,株式会社大垣興業,,株式会社,京都府,京丹後市,峰山町菅２４９番地の４,,26,212,6270041,,,,,,,2022-12-16,1,,,,,オオガキコウギョウ,0
2261,8130001073306,新規,0,2022-12-16,2022-12-16,株式会社ＲＣ,,株式会社,京都府,京田辺市,興戸若宮６番地３,,26,211,6100332,,,,,,,2022-12-16,1,,,,,アールシー,0
2262,8130003008383,新規,0,2022-12-16,2022-12-16,利楽合同会社,,合同会社,京都府,京都市伏見区,醍醐勝口町３番地２４,,26,109,6011334,,,,,,,2022-12-16,1,,,,,リラク,0
2266,8140001128380,新規,0,2022-12-16,2022-12-16,株式会社山七,,株式会社,兵庫県,姫路市,北平野１丁目１２番１１号,,28,201,6700893,,,,,,,2022-12-16,1,,,,,ヤマシチ,0
2267,8140001128397,新規,0,2022-12-16,2022-12-16,花福商店株式会社,,株式会社,兵庫県,明石市,朝霧南町４丁目１８番２６号１０２,,28,203,6730870,,,,,,,2022-12-16,1,,,,,ハナフクショウテン,0
2268,8140001128447,新規,0,2022-12-16,2022-12-16,株式会社Ｔｅｃｈ　Ｔｅｒｍｉｎａｌ,,株式会社,兵庫県,明石市,二見町東二見１６８０番地の２,,28,203,6740092,,,,,,,2022-12-16,1,,,,,テックターミナル,0
2269,8140003018464,新規,0,2022-12-16,2022-12-16,田坂土地合資会社,,合資会社,兵庫県,豊岡市,滋茂４８番地,,28,209,6680000,,,,,,,2022-12-16,1,,,,,,0
2271,8150001026030,新規,0,2022-12-16,2022-12-16,株式会社サムアップ,,株式会社,奈良県,橿原市,十市町４５３番地の５明日香ビル４０１号,,29,205,6340008,,,,,,,2022-12-16,1,,,,,サムアップ,0
2273,8160001024702,新規,0,2022-12-16,2022-12-16,株式会社オフィスＭｅｒｃｕｒｙ,,株式会社,滋賀県,蒲生郡竜王町,大字山面３５番地３４０,,25,384,5202564,,,,,,,2022-12-16,1,,,,,オフィスマーキュリー,0
2287,8180001154209,新規,0,2022-12-16,2022-12-16,株式会社ＫＳＧ・ＴＯＰ,,株式会社,愛知県,春日井市,高森台１０丁目２番地４メイツ高森台７０２号,,23,206,4870032,,,,,,,2022-12-16,1,,,,,ケーエスジートップ,0
2288,8180001154233,新規,0,2022-12-16,2022-12-16,株式会社田島電気,,株式会社,愛知県,江南市,後飛保町平野２５番地２１,,23,217,4838346,,,,,,,2022-12-16,1,,,,,タジマデンキ,0
2291,8180003024599,新規,0,2022-12-16,2022-12-16,はなはみ合同会社,,合同会社,愛知県,名古屋市千種区,今池５丁目１８番７号,,23,101,4640850,,,,,,,2022-12-16,1,,,,,ハナハミ,0
2292,8180005020027,新規,0,2022-12-16,2022-12-16,医療法人沙月,,その他の設立登記法人,愛知県,名古屋市中区,栄１丁目４番５号ＣＦｏｒｅｓｔＩＸ２ＦＢ,,23,106,4600008,,,,,,,2022-12-16,1,,,,,サゲツ,0
2297,8180301036916,新規,0,2022-12-16,2022-12-16,日本ハミングバード・サイエンティフィック株式会社,,株式会社,愛知県,豊橋市,神野新田町字トノ割３５番地,,23,201,4418077,,,,,,,2022-12-16,1,,,,,ニホンハミングバードサイエンティフィック,0
2298,8180303005539,新規,0,2022-12-16,2022-12-16,合同会社さくらコンサルティング,,合同会社,愛知県,豊田市,駒新町大坂１００番地１,,23,211,4730926,,,,,,,2022-12-16,1,,,,,サクラコンサルティング,0
2300,8200005013424,新規,0,2022-12-16,2022-12-16,一般社団法人ＤＡＴＡ　ＢＡＳＥＤ　Ｌａｂｏ,,その他の設立登記法人,岐阜県,羽島郡岐南町,伏屋２丁目１７番地１,,21,302,5016006,,,,,,,2022-12-16,1,,,,,データベースドラボ,0
2310,8250003003199,新規,0,2022-12-16,2022-12-16,合同会社ＥＮＲＩＣＨ　ＬＩＦＥ,,合同会社,山口県,防府市,八王子１丁目２８－１５マルウビル１階,,35,206,7470037,,,,,,,2022-12-16,1,,,,,エンリッチライフ,0
2318,8290001099855,新規,0,2022-12-16,2022-12-16,恒生国際株式会社,,株式会社,福岡県,福岡市東区,香椎照葉７丁目１３番３１号,,40,131,8130017,,,,,,,2022-12-16,1,,,,,コウセイコクサイ,0
2319,8290001099896,新規,0,2022-12-16,2022-12-16,株式会社木也産業,,株式会社,福岡県,福岡市東区,多々良２丁目４８番１９‐１号,,40,131,8130033,,,,,,,2022-12-16,1,,,,,キナリサンギョウ,0
2320,8290001099905,新規,0,2022-12-16,2022-12-16,株式会社ｎａｓｓｏ,,株式会社,福岡県,八女市,馬場６３６番地１６,,40,210,8340023,,,,,,,2022-12-16,1,,,,,ナッソ,0
2321,8290001099954,新規,0,2022-12-16,2022-12-16,株式会社ＧＩＮＧ,,株式会社,福岡県,糸島市,高田５丁目２５番３３－９０１号,,40,230,8191102,,,,,,,2022-12-16,1,,,,,ジーアイエヌジー,0
2325,8300003001916,新規,0,2022-12-16,2022-12-16,合同会社原商,,合同会社,佐賀県,武雄市,武雄町大字武雄５６９７番地９,,41,206,8430022,,,,,,,2022-12-16,1,,,,,ハラショウ,0
2330,8330001030410,新規,0,2022-12-16,2022-12-16,株式会社ＳＹ３１,,株式会社,熊本県,熊本市東区,小山町１６４７番地１,,43,102,8618030,,,,,,,2022-12-16,1,,,,,エスワイサンジュウイチ,0
2335,8340003003999,新規,0,2022-12-16,2022-12-16,フリーディム合同会社,,合同会社,鹿児島県,鹿児島市,田上台４丁目３６番地５号,,46,201,8900036,,,,,,,2022-12-16,1,,,,,フリーディム,0
2347,8370001049389,新規,0,2022-12-16,2022-12-16,株式会社７７ＰＥ１,,株式会社,宮城県,仙台市青葉区,中央３丁目３番２０号,,04,101,9800021,,,,,,,2022-12-16,1,,,,,シチジュウシチピーイーワン,0
2359,8430001088059,新規,0,2022-12-16,2022-12-16,株式会社そらいろ,,株式会社,北海道,札幌市南区,真駒内南町４丁目１番２号,,01,106,0050016,,,,,,,2022-12-16,1,,,,,ソライロ,0
2360,8430003014558,新規,0,2022-12-16,2022-12-16,合同会社すまいるいーと,,合同会社,北海道,苫小牧市,新富町２丁目１２番１８号,,01,213,0530805,,,,,,,2022-12-16,1,,,,,スマイルイート,0
2371,9010001231592,新規,0,2022-12-16,2022-12-16,随株式会社,,株式会社,東京都,中央区,日本橋小伝馬町１７番１５号ＬＳＴビル,,13,102,1030001,,,,,,,2022-12-16,1,,,,,ズイ,0
2372,9010001231634,新規,0,2022-12-16,2022-12-16,株式会社チェスター・アセットコンサルティング,,株式会社,東京都,中央区,八重洲１丁目７番２０号,,13,102,1030028,,,,,,,2022-12-16,1,,,,,チェスターアセットコンサルティング,0
2373,9010001231650,新規,0,2022-12-16,2022-12-16,株式会社Ｋ＆Ｇ　Ｃｈｏｕ,,株式会社,東京都,文京区,目白台３丁目２８番６号東京大学目白台インターナショナルビレッジＢ２１７,,13,105,1120015,,,,,,,2022-12-16,1,,,,,ケイアンドジーシュウ,0
2374,9010001231683,新規,0,2022-12-16,2022-12-16,株式会社ＳＵＮＡＵＲＡ,,株式会社,東京都,中央区,日本橋人形町２丁目１７番２－３０３号,,13,102,1030013,,,,,,,2022-12-16,1,,,,,サンアルラ,0
2376,9010003039373,新規,0,2022-12-16,2022-12-16,合同会社ＯＭＳ,,合同会社,東京都,文京区,小日向３丁目１８番９号,,13,105,1120006,,,,,,,2022-12-16,1,,,,,オーエムエス,0
2377,9010005035908,新規,0,2022-12-16,2022-12-16,一般社団法人真正会,,その他の設立登記法人,東京都,中央区,新川２丁目２８番２号メディカルプライム新川４階,,13,102,1040033,,,,,,,2022-12-16,1,,,,,シンセイカイ,0
2381,9010401171348,新規,0,2022-12-16,2022-12-16,株式会社ＭＡＲＲＯＣＳ,,株式会社,東京都,港区,白金６丁目１０番１６－１０１号,,13,103,1080072,,,,,,,2022-12-16,1,,,,,マロークス,0
2382,9010401171364,新規,0,2022-12-16,2022-12-16,株式会社若松,,株式会社,東京都,港区,海岸１丁目１番１－７０９号,,13,103,1050022,,,,,,,2022-12-16,1,,,,,ワカマツ,0
2383,9010401171380,新規,0,2022-12-16,2022-12-16,株式会社Ｍｉｎｄｏｏ　Ｔｅｃｈｎｏｌｏｇｙ,,株式会社,東京都,港区,三田１丁目３－３９勝田ビル６Ｆ,,13,103,1080073,,,,,,,2022-12-16,1,,,,,ミンドーテクノロジー,0
2384,9010401171397,新規,0,2022-12-16,2022-12-16,株式会社ｋｅｙｖｉｓｕａｌ．ｊｐ,,株式会社,東京都,港区,南青山３丁目１番３６号青山丸竹ビル６階,,13,103,1070062,,,,,,,2022-12-16,1,,,,,キービジュアルドットジェーピー,0
2386,9010403029148,新規,0,2022-12-16,2022-12-16,合同会社ヤマト,,合同会社,東京都,港区,浜松町１丁目２０番１０号,,13,103,1050013,,,,,,,2022-12-16,1,,,,,ヤマト,0
2390,9010405021664,新規,0,2022-12-16,2022-12-16,一般社団法人おうちキャンパス,,その他の設立登記法人,東京都,港区,浜松町２丁目２番１５号浜松町ダイヤビル２Ｆ,,13,103,1050013,,,,,,,2022-12-16,1,,,,,オウチキャンパス,0
2394,9010503006815,新規,0,2022-12-16,2022-12-16,Ｌａｇｕｎａ　Ｅｄｇｅ合同会社,,合同会社,東京都,台東区,池之端２丁目１番４４号クレヴィア上野池之端６０２,,13,106,1100008,,,,,,,2022-12-16,1,,,,,ラグーナエッジ,0
2398,9010601062306,新規,0,2022-12-16,2022-12-16,株式会社Ｕｎｉｔｙ,,株式会社,東京都,墨田区,立花５丁目３９番８号,,13,107,1310043,,,,,,,2022-12-16,1,,,,,ユニティ,0
2406,9010901052139,新規,0,2022-12-16,2022-12-16,東京世田谷株式会社,,株式会社,東京都,世田谷区,世田谷１丁目４１番２号,,13,112,1540017,,,,,,,2022-12-16,1,,,,,トウキョウセタガヤ,0
2410,9010903007850,新規,0,2022-12-16,2022-12-16,合同会社Ｗｏｒｄ　Ｐｅｃｋｅｒ,,合同会社,東京都,世田谷区,松原２丁目４６番９号,,13,112,1560043,,,,,,,2022-12-16,1,,,,,ワードペッカー,0
2413,9011001151509,新規,0,2022-12-16,2022-12-16,株式会社メタウェーブ,,株式会社,東京都,渋谷区,恵比寿１丁目１０番６号清園ビル５Ｆ,,13,113,1500013,,,,,,,2022-12-16,1,,,,,メタウェーブ,0
2414,9011001151533,新規,0,2022-12-16,2022-12-16,株式会社ＷＩＴＨ,,株式会社,東京都,目黒区,祐天寺１丁目９番１７号フォレスト祐天寺１０２,,13,110,1530052,,,,,,,2022-12-16,1,,,,,ウィズ,0
2415,9011003015926,新規,0,2022-12-16,2022-12-16,合同会社ドロシー,,合同会社,東京都,渋谷区,恵比寿西１丁目８番２号,,13,113,1500021,,,,,,,2022-12-16,1,,,,,ドロシー,0
2416,9011003015934,新規,0,2022-12-16,2022-12-16,合同会社結,,合同会社,東京都,渋谷区,道玄坂２丁目２５番７号プラザ道玄坂５Ｆ,,13,113,1500043,,,,,,,2022-12-16,1,,,,,ムスブ,0
2419,9011101101165,新規,0,2022-12-16,2022-12-16,株式会社ＮＥＸＵＳ,,株式会社,東京都,新宿区,西新宿６丁目１８番１号,,13,104,1600023,,,,,,,2022-12-16,1,,,,,ネクサス,0
2420,9011101101181,新規,0,2022-12-16,2022-12-16,株式会社エージェント,,株式会社,東京都,新宿区,西新宿６丁目１２番４号コイトビル１０２号室,,13,104,1600023,,,,,,,2022-12-16,1,,,,,エージェント,0
2421,9011101101198,新規,0,2022-12-16,2022-12-16,株式会社ＨＯＷＤＹ,,株式会社,東京都,新宿区,百人町２丁目５番８号３０２,,13,104,1690073,,,,,,,2022-12-16,1,,,,,ハウディ,0
2422,9011101101215,新規,0,2022-12-16,2022-12-16,株式会社ＰＥＡＣＥ,,株式会社,東京都,新宿区,荒木町１３－３８,,13,104,1600007,,,,,,,2022-12-16,1,,,,,ピース,0
2424,9011103012501,新規,0,2022-12-16,2022-12-16,Ｍ＆Ｅリゾート合同会社,,合同会社,東京都,新宿区,新宿１丁目３２番４号,,13,104,1600022,,,,,,,2022-12-16,1,,,,,エムアンドイーリゾート,0
2425,9011201024299,新規,0,2022-12-16,2022-12-16,株式会社紅葉,,株式会社,東京都,中野区,中野１丁目６１番３号,,13,114,1640001,,,,,,,2022-12-16,1,,,,,コウヨウ,0
2428,9011401024768,新規,0,2022-12-16,2022-12-16,株式会社いりやまプラザ,,株式会社,東京都,板橋区,赤塚２丁目１番１４号,,13,119,1750092,,,,,,,2022-12-16,1,,,,,イリヤマプラザ,0
2429,9011401024776,新規,0,2022-12-16,2022-12-16,株式会社栗山工業,,株式会社,東京都,板橋区,東新町１丁目３３番１４－５０４号,,13,119,1740074,,,,,,,2022-12-16,1,,,,,クリヤマコウギョウ,0
2434,9011501028768,新規,0,2022-12-16,2022-12-16,ノーブルマテリアル株式会社,,株式会社,東京都,北区,赤羽北１丁目１５番５号,,13,117,1150052,,,,,,,2022-12-16,1,,,,,ノーブルマテリアル,0
2436,9011601026440,新規,0,2022-12-16,2022-12-16,株式会社ティー・エー・オフィス,,株式会社,東京都,練馬区,上石神井１丁目１４番４号,,13,120,1770044,,,,,,,2022-12-16,1,,,,,ティーエーオフィス,0
2438,9011701025879,新規,0,2022-12-16,2022-12-16,株式会社Ｌｉｖｒｅｒ,,株式会社,東京都,江戸川区,篠崎町４丁目１３－１６,,13,123,1330061,,,,,,,2022-12-16,1,,,,,リブレ,0
2440,9011801041677,新規,0,2022-12-16,2022-12-16,株式会社ＪＯＩＮＴ,,株式会社,東京都,足立区,足立４丁目４１番５－１４０４号,,13,121,1200015,,,,,,,2022-12-16,1,,,,,ジョイント,0
2450,9012803002948,新規,0,2022-12-16,2022-12-16,合同会社メルウッド,,合同会社,東京都,国分寺市,南町１丁目９番２０号,,13,214,1850021,,,,,,,2022-12-16,1,,,,,メルウッド,0
2455,9013303006415,新規,0,2022-12-16,2022-12-16,ＡＳＳＯＲＴ　ＤＥＶＥＬＯＰＭＥＮＴ　ＧＲＯＵＰ合同会社,,合同会社,東京都,豊島区,東池袋３丁目１１－９三島ビル４０２,,13,116,1700013,,,,,,,2022-12-16,1,,,,,アソートデベロップメントグループ,0
2462,9020001149405,新規,0,2022-12-16,2022-12-16,株式会社フィリア・ココ,,株式会社,神奈川県,横浜市金沢区,並木３丁目６番４号,,14,108,2360005,,,,,,,2022-12-16,1,,,,,フィリアココ,0
2463,9020001149413,新規,0,2022-12-16,2022-12-16,株式会社ＳｋｙＬｅｅ,,株式会社,神奈川県,川崎市多摩区,西生田４丁目１７－１ランドハイツＩＩ２０２号室,00128827,14,135,2140037,,,,,,,2022-12-16,1,,,,,スカイリー,0
2466,9021001077703,新規,0,2022-12-16,2022-12-16,株式会社ＳＥＡ　ＳＡＷ,,株式会社,神奈川県,茅ヶ崎市,東海岸北１丁目７番１４号,,14,207,2530053,,,,,,,2022-12-16,1,,,,,シーソー,0
2467,9021001077728,新規,0,2022-12-16,2022-12-16,株式会社トラウト,,株式会社,神奈川県,海老名市,国分南２丁目１７番３２－３０５号,,14,215,2430405,,,,,,,2022-12-16,1,,,,,トラウト,0
2468,9021001077752,新規,0,2022-12-16,2022-12-16,株式会社日光テクノ,,株式会社,神奈川県,横須賀市,衣笠町２６番５号,,14,201,2380025,,,,,,,2022-12-16,1,,,,,ニッコウテクノ,0
2472,9021005012689,新規,0,2022-12-16,2022-12-16,一般社団法人セブンスコード,,その他の設立登記法人,神奈川県,藤沢市,湘南台１丁目１０番地の１０,,14,205,2520804,,,,,,,2022-12-16,1,,,,,セブンスコード,0
2476,9030001151483,新規,0,2022-12-16,2022-12-16,禅語株式会社,,株式会社,埼玉県,本庄市,寿３丁目２－１,,11,211,3670023,,,,,,,2022-12-16,1,,,,,ゼンゴ,0
2477,9030001151500,新規,0,2022-12-16,2022-12-16,株式会社ＫＵＲＩＨＡＲＡ,,株式会社,埼玉県,鶴ヶ島市,大字高倉１２１４番地４,,11,241,3502223,,,,,,,2022-12-16,1,,,,,クリハラ,0
2481,9030003020736,新規,0,2022-12-16,2022-12-16,合同会社ＭＯＲＥ,,合同会社,埼玉県,吉川市,美南３丁目１８－１１－２０１,,11,243,3420038,,,,,,,2022-12-16,1,,,,,モア,0
2482,9030003020769,新規,0,2022-12-16,2022-12-16,ＨＮ　ＳＨＯＰ合同会社,,合同会社,埼玉県,本庄市,駅前１－９－１４,,11,211,3670000,,,,,,,2022-12-16,1,,,,,エイチエヌショップ,0
2488,9040001126212,新規,0,2022-12-16,2022-12-16,株式会社ＡＮＨ,,株式会社,千葉県,松戸市,古ケ崎１４７番地４,,12,207,2710068,,,,,,,2022-12-16,1,,,,,エーエヌエイチ,0
2489,9040001126245,新規,0,2022-12-16,2022-12-16,株式会社ＳＱａｉｒ,,株式会社,千葉県,成田市,所１０２６番地４,,12,211,2870211,,,,,,,2022-12-16,1,,,,,スクエア,0
2490,9040001126261,新規,0,2022-12-16,2022-12-16,株式会社宮澤商店,,株式会社,千葉県,千葉市中央区,宮崎町２３１番地２ライトコート斉藤ＩＩ３０５号,00128822,12,101,2600805,,,,,,,2022-12-16,1,,,,,ミヤザワショウテン,0
2491,9040001126278,新規,0,2022-12-16,2022-12-16,株式会社Ｔｒｙ・ｉｎｓｕｒａｎｃｅ,,株式会社,千葉県,千葉市中央区,今井町１４３３番地２,,12,101,2600815,,,,,,,2022-12-16,1,,,,,トライインシュアランス,0
2493,9040003021510,新規,0,2022-12-16,2022-12-16,合同会社３Ｔフーズ,,合同会社,千葉県,山武郡横芝光町,横芝１３５０番地１０横芝駅前１Ｆ,,12,410,2891732,,,,,,,2022-12-16,1,,,,,サンティフーズ,0
2497,9050001052093,新規,0,2022-12-16,2022-12-16,エスエスピー株式会社,,株式会社,茨城県,つくば市,東光台５丁目５番６号,,08,220,3002635,,,,,,,2022-12-16,1,,,,,エスエスピー,0
2499,9060001035543,新規,0,2022-12-16,2022-12-16,ＴＹＫ株式会社,,株式会社,栃木県,小山市,駅東通り１丁目９番１４号,,09,208,3230022,,,,,,,2022-12-16,1,,,,,ティワイケー,0
2503,9070001039931,新規,0,2022-12-16,2022-12-16,株式会社Ｐｏｕｒ　Ｖｏｕｓ,,株式会社,群馬県,みどり市,笠懸町阿左美１５６６番地１４ペイントバランスＢ号室,,10,212,3792311,,,,,,,2022-12-16,1,,,,,プールブ,0
2511,9090001017885,新規,0,2022-12-16,2022-12-16,ａｎｄ　ｆａｒｍ株式会社,,株式会社,山梨県,南アルプス市,湯沢２２９７番地１,,19,208,4000425,,,,,,,2022-12-16,1,,,,,アンドファーム,0
2524,9120001251010,新規,0,2022-12-16,2022-12-16,Ｘ‐ＴＲＩＢＥ株式会社,,株式会社,大阪府,大阪市浪速区,下寺２丁目６番１０号シエスタＸＩ７０１号,,27,111,5560001,,,,,,,2022-12-16,1,,,,,エックストライブ,0
2525,9120001251027,新規,0,2022-12-16,2022-12-16,株式会社Ａｓ　ｙｏｕ　ｌｉｋｅ,,株式会社,大阪府,大阪市北区,梅田１丁目１－３大阪駅前第３ビル２９階１－１－１号室,,27,127,5300001,,,,,,,2022-12-16,1,,,,,アズユーライク,0
2526,9120001251068,新規,0,2022-12-16,2022-12-16,株式会社ピースホーム,,株式会社,大阪府,門真市,江端町１１番１－１０２２号,,27,223,5710012,,,,,,,2022-12-16,1,,,,,ピースホーム,0
2527,9120001251076,新規,0,2022-12-16,2022-12-16,株式会社オークソリューションズ,,株式会社,大阪府,大阪市西区,北堀江１丁目１番１０号アークビルディング３Ｆ,,27,106,5500014,,,,,,,2022-12-16,1,,,,,オークソリューションズ,0
2528,9120001251084,新規,0,2022-12-16,2022-12-16,ＦＩＳＨＦＡＲＭＥＲ株式会社,,株式会社,大阪府,大阪市港区,築港４丁目１０番３０号２０３,,27,107,5520021,,,,,,,2022-12-16,1,,,,,フィッシュファーマー,0
2529,9120001251092,新規,0,2022-12-16,2022-12-16,株式会社春日井ホールディングス,,株式会社,大阪府,大阪市西区,新町４丁目１３番９号,,27,106,5500013,,,,,,,2022-12-16,1,,,,,カスガイホールディングス,0
2530,9120001251134,新規,0,2022-12-16,2022-12-16,株式会社セカンド・ウィズ,,株式会社,大阪府,大阪市中央区,徳井町２丁目２番９－２０２号,,27,128,5400025,,,,,,,2022-12-16,1,,,,,セカンドウィズ,0
2531,9120001251175,新規,0,2022-12-16,2022-12-16,株式会社Ｗ　ｆａｍｉｌｙ,,株式会社,大阪府,大阪市中央区,南船場４丁目１０番２０号,,27,128,5420081,,,,,,,2022-12-16,1,,,,,ダブルファミリー,0
2539,9120101066671,新規,0,2022-12-16,2022-12-16,株式会社田中打刃物製作所,,株式会社,大阪府,堺市堺区,柳之町西２丁１番１号,,27,141,5900930,,,,,,,2022-12-16,1,,,,,タナカウチハモノセイサクショ,0
2547,9130001073288,新規,0,2022-12-16,2022-12-16,株式会社ＫＡＷＡＢＥ,,株式会社,京都府,相楽郡精華町,大字祝園小字田内垣外１６番地５,,26,366,6190241,,,,,,,2022-12-16,1,,,,,カワベ,0
2548,9130001073296,新規,0,2022-12-16,2022-12-16,ＴＡＣＨＡ　ＳＴＵＤＩＯ株式会社,,株式会社,京都府,京都市東山区,大仏馬町伏見街道東入一丁目北棟梁町３１７番地４,,26,105,6050000,,,,,,,2022-12-16,1,,,,,タチャスタジオ,0
2549,9130001073305,新規,0,2022-12-16,2022-12-16,株式会社ＮＡＡＳＴ,,株式会社,京都府,久世郡久御山町,栄３丁目１番地２０,,26,322,6130032,,,,,,,2022-12-16,1,,,,,ナースト,0
2550,9130001073313,新規,0,2022-12-16,2022-12-16,株式会社エンパシー,,株式会社,京都府,福知山市,昭和新町２番地,,26,201,6200051,,,,,,,2022-12-16,1,,,,,エンパシー,0
2551,9130003008374,新規,0,2022-12-16,2022-12-16,ＳＰＩＲＩＴＵＳ　ＳＡＮＣＴＵＳ＆ＣＯ合同会社,,合同会社,京都府,京都市東山区,今熊野南谷町１６番地３３,,26,105,6050979,,,,,,,2022-12-16,1,,,,,スピリトゥスサンクトゥスアンドコー,0
2556,9140001128330,新規,0,2022-12-16,2022-12-16,株式会社Ｌｉｅｎｅｓｓ,,株式会社,兵庫県,加古川市,別府町新野辺北町１丁目７番地,,28,210,6750121,,,,,,,2022-12-16,1,,,,,リアネス,0
2557,9140001128421,新規,0,2022-12-16,2022-12-16,株式会社Ｋｏｂａｙ,,株式会社,兵庫県,神戸市灘区,城内通２丁目５－２３,,28,102,6570836,,,,,,,2022-12-16,1,,,,,コウバイ,0
2563,9140003018471,新規,0,2022-12-16,2022-12-16,センチュリーロジスティックス合同会社,,合同会社,兵庫県,芦屋市,朝日ケ丘町６番９－４０１号,,28,206,6590012,,,,,,,2022-12-16,1,,,,,センチュリーロジスティックス,0
2564,9150001026005,新規,0,2022-12-16,2022-12-16,株式会社Ａｖｅｎｉｒ,,株式会社,奈良県,生駒市,俵口町７８５－３,,29,209,6300243,,,,,,,2022-12-16,1,,,,,アヴニール,0
2567,9170001017415,新規,0,2022-12-16,2022-12-16,コメダ不動産株式会社,,株式会社,和歌山県,和歌山市,中之島１９２０番地モトコビル２Ｆ,,30,201,6408392,,,,,,,2022-12-16,1,,,,,コメダフドウサン,0
2578,9180001154208,新規,0,2022-12-16,2022-12-16,ＷＯＲＬＤ８株式会社,,株式会社,愛知県,愛西市,山路町荒山７０番地５,,23,232,4960942,,,,,,,2022-12-16,1,,,,,ワールドエイト,0
2582,9180003024615,新規,0,2022-12-16,2022-12-16,合同会社遠山直人,,合同会社,愛知県,名古屋市中区,金山２丁目１０番２号セジュール金山６０１,,23,106,4600022,,,,,,,2022-12-16,1,,,,,トオヤマナオト,0
2583,9180005020026,新規,0,2022-12-16,2022-12-16,医療法人名古屋デンタルオフィス,,その他の設立登記法人,愛知県,名古屋市北区,志賀本通２丁目１４番地グランベール志賀本通り１階,,23,103,4620853,,,,,,,2022-12-16,1,,,,,ナゴヤデンタルオフィス,0
2591,9180301036915,新規,0,2022-12-16,2022-12-16,株式会社ヨシダ建装,,株式会社,愛知県,岡崎市,大平町字五位原２４番地１２,,23,202,4440007,,,,,,,2022-12-16,1,,,,,ヨシダケンソウ,0
2592,9180303005538,新規,0,2022-12-16,2022-12-16,ｅｒａ合同会社,,合同会社,愛知県,豊橋市,春日町２丁目４５番地,,23,201,4400821,,,,,,,2022-12-16,1,,,,,イーラ,0
2594,9190001030028,新規,0,2022-12-16,2022-12-16,豊田設備工業株式会社,,株式会社,三重県,松阪市,嬉野野田町２０８番地１,,24,204,5152317,,,,,,,2022-12-16,1,,,,,トヨダセツビコウギョウ,0
2598,9200003005769,新規,0,2022-12-16,2022-12-16,合同会社山口建材,,合同会社,岐阜県,不破郡垂井町,表佐１９１９番地の１,,21,361,5032122,,,,,,,2022-12-16,1,,,,,ヤマグチケンザイ,0
2603,9240001060820,新規,0,2022-12-16,2022-12-16,株式会社アイシーブルー,,株式会社,広島県,広島市安佐北区,可部南３丁目１０番８－１０１号,,34,106,7310223,,,,,,,2022-12-16,1,,,,,アイシーブルー,0
2606,9250003003198,新規,0,2022-12-16,2022-12-16,合同会社ＮＮＳ,,合同会社,山口県,下関市,綾羅木本町２丁目５番３１号,,35,201,7510849,,,,,,,2022-12-16,1,,,,,エヌエヌエス,0
2609,9280003001678,新規,0,2022-12-16,2022-12-16,トータル技研合同会社,,合同会社,島根県,邑智郡川本町,大字川内３７８番地,,32,441,6960011,,,,,,,2022-12-16,1,,,,,トータルギケン,0
2616,9290001099887,新規,0,2022-12-16,2022-12-16,株式会社ＮＩＫＯ　ＧＲＯＵＰ,,株式会社,福岡県,福岡市中央区,大名１丁目１番２０号３Ｆ,,40,133,8100041,,,,,,,2022-12-16,1,,,,,ニコグループ,0
2617,9290001099904,新規,0,2022-12-16,2022-12-16,株式会社ＤＲＩＰ,,株式会社,福岡県,福岡市中央区,天神２丁目３番７号,,40,133,8100001,,,,,,,2022-12-16,1,,,,,ドリップ,0
2618,9290001099920,新規,0,2022-12-16,2022-12-16,株式会社Ｒｅｙ’ｓ,,株式会社,福岡県,福岡市中央区,平尾５丁目６番１２－３０６号,,40,133,8100014,,,,,,,2022-12-16,1,,,,,レイズ,0
2619,9290001099937,新規,0,2022-12-16,2022-12-16,株式会社Ｋ．Ｉ．Ｎ,,株式会社,福岡県,糟屋郡新宮町,三代西１丁目７番２３号,,40,345,8110125,,,,,,,2022-12-16,1,,,,,ケイアイエヌ,0
2620,9290001099945,新規,0,2022-12-16,2022-12-16,Ｕ・Ｈシール株式会社,,株式会社,福岡県,福岡市城南区,田島１丁目４番８－２１１号,,40,136,8140113,,,,,,,2022-12-16,1,,,,,ユーエッチシール,0
2625,9310001018159,新規,0,2022-12-16,2022-12-16,株式会社ＮａｇａｓａｋｉＳＴ,,株式会社,長崎県,長崎市,相生町２番１９号浜口ビル１階,,42,201,8500922,,,,,,,2022-12-16,1,,,,,ナガサキスト,0
2628,9330003009633,新規,0,2022-12-16,2022-12-16,合同会社ＴＫＧＳ,,合同会社,熊本県,菊池郡大津町,大字大津１４３８番地９,,43,403,8691233,,,,,,,2022-12-16,1,,,,,ティーケージーエス,0
2629,9330005010597,新規,0,2022-12-16,2022-12-16,特定非営利活動法人Ｐｏｕｒ　ｖｏｕｓ,,その他の設立登記法人,熊本県,熊本市南区,良町４丁目１１番８８号,,43,104,8620969,,,,,,,2022-12-16,1,,,,,プールブ,0
2634,9360001031322,新規,0,2022-12-16,2022-12-16,株式会社ＣｒｕＺｏ,,株式会社,沖縄県,那覇市,東町１４－２２国正ビル１０２号,,47,201,9000034,,,,,,,2022-12-16,1,,,,,クルゾ,0
2646,9400001016070,新規,0,2022-12-16,2022-12-16,株式会社マルサホールディングス,,株式会社,岩手県,北上市,成田２６地割８３番地１２,,03,206,0240003,,,,,,,2022-12-16,1,,,,,マルサホールディングス,0
2650,9430001088041,新規,0,2022-12-16,2022-12-16,株式会社ＥＺＯ　ｒｉｓｐｅｃ,,株式会社,北海道,札幌市東区,伏古七条２丁目６番２２号,,01,103,0070867,,,,,,,2022-12-16,1,,,,,エゾリスペック,0
2654,9430003014565,新規,0,2022-12-16,2022-12-16,合同会社モッズワークス,,合同会社,北海道,札幌市豊平区,福住三条４丁目４番１３号,,01,105,0620043,,,,,,,2022-12-16,1,,,,,モッズワークス,0
2655,9460301005115,新規,0,2022-12-16,2022-12-16,株式会社ＮＴ,,株式会社,北海道,網走市,字卯原内６０番地の３,,01,211,0930135,,,,,,,2022-12-16,1,,,,,エヌティー,0
2658,9470001019389,新規,0,2022-12-16,2022-12-16,株式会社ＤｏｔＣｈａｉｎ,,株式会社,香川県,丸亀市,津森町１１１５番地８,,37,202,7630052,,,,,,,2022-12-16,1,,,,,ドットチェイン,0
