sequenceNumber,corporateNumber,process,correct,updateDate,changeDate,name,nameImageId,kind,prefectureName,cityName,streetNumber,addressImageId,prefectureCode,cityCode,postCode,addressOutside,addressOutsideImageId,closeDate,closeCause,successorCorporateNumber,changeCause,assignmentDate,latest,enName,enPrefectureName,enCityName,enAddressOutside,furigana,hihyoji
10,1010001223762,新規,0,2022-01-17,2022-01-17,株式会社Ａｕｔｏｎｏｍｙ,,株式会社,東京都,中央区,新富２丁目１番７号,,13,102,1040041,,,,,,,2022-01-17,1,,,,,オートノミー,0
11,1010001223779,新規,0,2022-01-17,2022-01-17,株式会社ブレインバース,,株式会社,東京都,千代田区,丸の内２丁目７番２号,,13,101,1000005,,,,,,,2022-01-17,1,,,,,ブレインバース,0
12,1010001223795,新規,0,2022-01-17,2022-01-17,株式会社ＥＮＴＥＲ,,株式会社,東京都,千代田区,丸の内１丁目１１番１号,,13,101,1000005,,,,,,,2022-01-17,1,,,,,エンター,0
13,1010001223812,新規,0,2022-01-17,2022-01-17,アンドブライト株式会社,,株式会社,東京都,中央区,銀座７丁目１３番６号サガミビル２階,,13,102,1040061,,,,,,,2022-01-17,1,,,,,アンドブライト,0
14,1010001223837,新規,0,2022-01-17,2022-01-17,株式会社ウインドエア,,株式会社,東京都,中央区,銀座１丁目３番３号ＧＩビル７階,,13,102,1040061,,,,,,,2022-01-17,1,,,,,ウインドエア,0
17,1010003036766,新規,0,2022-01-17,2022-01-17,珈琲技研合同会社,,合同会社,東京都,文京区,水道１丁目４番２号,,13,105,1120005,,,,,,,2022-01-17,1,,,,,コーヒーギケン,0
23,1010401164920,新規,0,2022-01-17,2022-01-17,イトーキネクスト三栄株式会社,,株式会社,東京都,港区,新橋１丁目１１番４号,,13,103,1050004,,,,,,,2022-01-17,1,,,,,イトーキネクストサンエイ,0
24,1010401164945,新規,0,2022-01-17,2022-01-17,株式会社天使の酵素,,株式会社,東京都,港区,港南４丁目６番５－３５０４号,,13,103,1080075,,,,,,,2022-01-17,1,,,,,テンシノコウソ,0
25,1010401164978,新規,0,2022-01-17,2022-01-17,株式会社Ｄｓｃｒｉｂｅ．ｍｅ,,株式会社,東京都,港区,南青山２丁目２番１５号,,13,103,1070062,,,,,,,2022-01-17,1,,,,,ディスクライブミー,0
26,1010403026879,新規,0,2022-01-17,2022-01-17,ＴＲＥＳ合同会社,,合同会社,東京都,港区,北青山２丁目１２番８号ＢＩＺ・ＳＭＡＲＴ青山,,13,103,1070061,,,,,,,2022-01-17,1,,,,,トレス,0
28,1010405020566,新規,0,2022-01-17,2022-01-17,一般社団法人いきいきライフ協会東京,,その他の設立登記法人,東京都,港区,南青山６丁目８番６号テロワール南青山８Ｆ,,13,103,1070062,,,,,,,2022-01-17,1,,,,,イキイキライフキョウカイトウキョウ,0
29,1010501048313,新規,0,2022-01-17,2022-01-17,株式会社Ｃｈｉｌｌａｃｋ,,株式会社,東京都,台東区,蔵前４丁目３３番１号,,13,106,1110051,,,,,,,2022-01-17,1,,,,,チラック,0
31,1010505003289,新規,0,2022-01-17,2022-01-17,一般社団法人リスタート,,その他の設立登記法人,東京都,台東区,上野２丁目１２番１８号池之端ヒロハイツ２階,,13,106,1100005,,,,,,,2022-01-17,1,,,,,リスタート,0
48,1011001144908,新規,0,2022-01-17,2022-01-17,ＭＫＩネットワーク株式会社,,株式会社,東京都,渋谷区,神宮前６丁目２３番４号,,13,113,1500001,,,,,,,2022-01-17,1,,,,,エムケーアイネットワーク,0
49,1011001144949,新規,0,2022-01-17,2022-01-17,株式会社Ｃｏｎｔｅｎｔｓ　Ｌａｂ．Ｂｌｕｅ　ＴＯＫＹＯ,,株式会社,東京都,渋谷区,渋谷２丁目２４－１２渋谷スクランブルスクエア３８Ｆ－１２７,,13,113,1500002,,,,,,,2022-01-17,1,,,,,コンテンツラボブルートウキョウ,0
50,1011001145105,新規,0,2022-01-17,2022-01-17,株式会社ロテ,,株式会社,東京都,渋谷区,上原１丁目１８番４号,,13,113,1510064,,,,,,,2022-01-17,1,,,,,ロテ,0
52,1011003013994,新規,0,2022-01-17,2022-01-17,合同会社レリーズ,,合同会社,東京都,目黒区,南３丁目１２番１８号ＪＬＢグランエクリュ大岡山３０１,,13,110,1520013,,,,,,,2022-01-17,1,,,,,レリーズ,0
61,1011301027481,新規,0,2022-01-17,2022-01-17,株式会社スペシャルチーム,,株式会社,東京都,杉並区,高円寺南４丁目７番３サンシャイン高円寺８０３号,,13,115,1660003,,,,,,,2022-01-17,1,,,,,スペシャルチーム,0
62,1011303004264,新規,0,2022-01-17,2022-01-17,ミカーサ合同会社,,合同会社,東京都,杉並区,上井草１丁目９番１７－２０１号,,13,115,1670023,,,,,,,2022-01-17,1,,,,,ミカーサ,0
63,1011303004280,新規,0,2022-01-17,2022-01-17,合同会社ｔｓｃｙ,,合同会社,東京都,杉並区,阿佐谷北４丁目７番１０号,,13,115,1660001,,,,,,,2022-01-17,1,,,,,ティーエスシーワイ,0
67,1011601025664,新規,0,2022-01-17,2022-01-17,株式会社ケムビジョン,,株式会社,東京都,練馬区,西大泉５丁目１０番１６号,,13,120,1780065,,,,,,,2022-01-17,1,,,,,ケムビジョン,0
70,1011701024970,新規,0,2022-01-17,2022-01-17,ディーエックスマスター株式会社,,株式会社,東京都,江戸川区,西葛西６丁目２４番５号第２コースタルビル６０２室,,13,123,1340088,,,,,,,2022-01-17,1,,,,,ディーエックスマスター,0
71,1011705001710,新規,0,2022-01-17,2022-01-17,特定非営利活動法人ＳＣＳ　ＬＡＢＯ,,その他の設立登記法人,東京都,江戸川区,南葛西７丁目５番３号,,13,123,1340085,,,,,,,2022-01-17,1,,,,,エスシーエスラボ,0
73,1011801040158,新規,0,2022-01-17,2022-01-17,テッドコエヌワイ株式会社,,株式会社,東京都,葛飾区,新小岩４丁目２７番２号松栄コース２０１,,13,122,1240024,,,,,,,2022-01-17,1,,,,,テッドコエヌワイ,0
75,1011803004929,新規,0,2022-01-17,2022-01-17,リファニテック合同会社,,合同会社,東京都,足立区,青井６丁目５番１１号,,13,121,1210012,,,,,,,2022-01-17,1,,,,,リファニテック,0
78,1012401038749,新規,0,2022-01-17,2022-01-17,ｉｎｏｕｔ株式会社,,株式会社,東京都,小金井市,前原町３丁目１９番１９号,,13,210,1840013,,,,,,,2022-01-17,1,,,,,インアウト,0
82,1013101008827,新規,0,2022-01-17,2022-01-17,株式会社楽工隊,,株式会社,東京都,あきる野市,乙津２５９３番地２,,13,228,1900174,,,,,,,2022-01-17,1,,,,,ラッコタイ,0
86,1013301048549,新規,0,2022-01-17,2022-01-17,Ｚ株式会社,,株式会社,東京都,豊島区,池袋２丁目３３番１０号,,13,116,1710014,,,,,,,2022-01-17,1,,,,,ゼット,0
92,1020001144735,新規,0,2022-01-17,2022-01-17,ＲＫアグリーメント株式会社,,株式会社,神奈川県,横浜市港北区,日吉本町２丁目１番２号,,14,109,2230062,,,,,,,2022-01-17,1,,,,,アールケーアグリーメント,0
93,1020001144743,新規,0,2022-01-17,2022-01-17,株式会社ＡＣラボ,,株式会社,神奈川県,横浜市都筑区,牛久保西４丁目１９番１４号,,14,118,2240015,,,,,,,2022-01-17,1,,,,,エーシーラボ,0
94,1020001144751,新規,0,2022-01-17,2022-01-17,ＤＯＮ’Ｔ　ＳＷＥＡＴ　ＴＨＥ　ＴＥＣＨＮＩＱＵＥ株式会社,,株式会社,神奈川県,横浜市中区,山下町５８番地１８０２号室,,14,104,2310023,,,,,,,2022-01-17,1,,,,,ドントスウェットザテクニック,0
95,1020001144776,新規,0,2022-01-17,2022-01-17,株式会社ＫＡＷＡＢＡＴＡ,,株式会社,神奈川県,横浜市磯子区,中浜町１９番１０号,,14,107,2350014,,,,,,,2022-01-17,1,,,,,カワバタ,0
96,1020001144801,新規,0,2022-01-17,2022-01-17,Ｒｅｆｌｅｘｉｏｎ株式会社,,株式会社,神奈川県,横浜市西区,みなとみらい４丁目１０番１－Ｅ２３０３号,,14,103,2200012,,,,,,,2022-01-17,1,,,,,リフレクション,0
98,1020003021057,新規,0,2022-01-17,2022-01-17,合同会社篤志,,合同会社,神奈川県,川崎市宮前区,有馬７丁目１番１－４０６号第２鷺沼レジデンス,,14,136,2160003,,,,,,,2022-01-17,1,,,,,,0
99,1020003021123,新規,0,2022-01-17,2022-01-17,ＡＲＵＨＩ合同会社,,合同会社,神奈川県,横浜市保土ケ谷区,岩間町１丁目６番地２９中林ビル２Ｆ,,14,106,2400004,,,,,,,2022-01-17,1,,,,,アルヒ,0
100,1020003021148,新規,0,2022-01-17,2022-01-17,Ｇｒａｔｉａ２１合同会社,,合同会社,神奈川県,横浜市西区,みなとみらい４丁目４番地２号横浜ブルーアベニュー１２Ｆ,,14,103,2200012,,,,,,,2022-01-17,1,,,,,グラティアトゥエンティーワン,0
106,1021001074963,新規,0,2022-01-17,2022-01-17,株式会社湘建,,株式会社,神奈川県,藤沢市,大庭５０５６番地の６,,14,205,2510861,,,,,,,2022-01-17,1,,,,,ショウケン,0
108,1021003011279,新規,0,2022-01-17,2022-01-17,合同会社Ｒｅａｌｉｚｅ,,合同会社,神奈川県,厚木市,寿町１丁目５番６号プレシャスビルＮｏ．１二階東,,14,212,2430003,,,,,,,2022-01-17,1,,,,,リアライズ,0
109,1021003011312,新規,0,2022-01-17,2022-01-17,Ｗａｖｅｐａｃｋｅｔｓ合同会社,,合同会社,神奈川県,中郡二宮町,百合が丘２丁目２２番１０号,,14,342,2590133,,,,,,,2022-01-17,1,,,,,ウエーブパケッツ,0
114,1030001146276,新規,0,2022-01-17,2022-01-17,株式会社スマイルカンパニー,,株式会社,埼玉県,坂戸市,大字善能寺４３番地８,,11,239,3500256,,,,,,,2022-01-17,1,,,,,スマイルカンパニー,0
115,1030001146284,新規,0,2022-01-17,2022-01-17,株式会社Ｗｏｒｔｈ,,株式会社,埼玉県,草加市,八幡町３３８番地２－２０４号,,11,221,3400006,,,,,,,2022-01-17,1,,,,,ワース,0
116,1030001146318,新規,0,2022-01-17,2022-01-17,ＶＡＬＵＥ　ＢＡＮＫ株式会社,,株式会社,埼玉県,草加市,栄町３丁目４番８号ヨシカワビル３０３号室,,11,221,3400011,,,,,,,2022-01-17,1,,,,,バリューバンク,0
117,1030001146367,新規,0,2022-01-17,2022-01-17,ライラックス株式会社,,株式会社,埼玉県,春日部市,増富５１５番地１３,,11,214,3440041,,,,,,,2022-01-17,1,,,,,ライラックス,0
118,1030001146391,新規,0,2022-01-17,2022-01-17,イーリビング株式会社,,株式会社,埼玉県,本庄市,朝日町３丁目１３番１２号,,11,211,3670026,,,,,,,2022-01-17,1,,,,,イーリビング,0
123,1030003018663,新規,0,2022-01-17,2022-01-17,合同会社クロサキクロニクル,,合同会社,埼玉県,川越市,久保町１５－６,,11,201,3500055,,,,,,,2022-01-17,1,,,,,クロサキクロニクル,0
129,1040001121749,新規,0,2022-01-17,2022-01-17,株式会社マイアール,,株式会社,千葉県,柏市,豊四季２６５番地１,,12,217,2770863,,,,,,,2022-01-17,1,,,,,マイアール,0
130,1040001121757,新規,0,2022-01-17,2022-01-17,株式会社リベルタ,,株式会社,千葉県,八千代市,村上１１１３番１号２街区３６棟２０１号,,12,221,2760028,,,,,,,2022-01-17,1,,,,,リベルタ,0
131,1040001121765,新規,0,2022-01-17,2022-01-17,株式会社リッシンプラント,,株式会社,千葉県,木更津市,請西４丁目１番１６－ＩＩ－３０５号,00125405,12,206,2920801,,,,,,,2022-01-17,1,,,,,リッシンプラント,0
132,1040001121798,新規,0,2022-01-17,2022-01-17,エビデンス株式会社,,株式会社,千葉県,流山市,南流山３丁目６番地７,,12,220,2700163,,,,,,,2022-01-17,1,,,,,エビデンス,0
133,1040001121807,新規,0,2022-01-17,2022-01-17,株式会社幸来,,株式会社,千葉県,浦安市,北栄１丁目１番４号,,12,227,2790002,,,,,,,2022-01-17,1,,,,,コウライ,0
134,1040001121815,新規,0,2022-01-17,2022-01-17,株式会社エヌシーシー,,株式会社,千葉県,印西市,平賀１５５６－３,,12,231,2701605,,,,,,,2022-01-17,1,,,,,エヌシーシー,0
136,1040003019297,新規,0,2022-01-17,2022-01-17,合同会社Ｏ．Ｋ．ｍｏｔｏｒｓ，Ｊａｐａｎ,,合同会社,千葉県,市原市,西野１７１－１,,12,219,2900261,,,,,,,2022-01-17,1,,,,,,0
137,1040003019306,新規,0,2022-01-17,2022-01-17,合同会社八千代ファーム,,合同会社,千葉県,八千代市,保品７７３番地,,12,221,2760013,,,,,,,2022-01-17,1,,,,,ヤチヨファーム,0
138,1040005021482,新規,0,2022-01-17,2022-01-17,社会保険労務士法人サイドバイサイド,,その他の設立登記法人,千葉県,柏市,若柴１７８番地４柏の葉キャンパス１４８街区２ショップ＆オフィス棟６階ＫＯＩＬ,,12,217,2770871,,,,,,,2022-01-17,1,,,,,サイドバイサイド,0
141,1050001050451,新規,0,2022-01-17,2022-01-17,千修商事株式会社,,株式会社,茨城県,結城市,若宮１０番地５,,08,207,3070017,,,,,,,2022-01-17,1,,,,,センシュウショウジ,0
145,1060001034478,新規,0,2022-01-17,2022-01-17,ＣＨＣ株式会社,,株式会社,栃木県,宇都宮市,東宿郷３丁目２番５号コーポルベーレ１００４,,09,201,3210953,,,,,,,2022-01-17,1,,,,,シーエイチシー,0
146,1060005009939,新規,0,2022-01-17,2022-01-17,一般社団法人とちぎウェルネスツーリズム協会,,その他の設立登記法人,栃木県,宇都宮市,西川田本町４丁目１９番４号,,09,201,3210158,,,,,,,2022-01-17,1,,,,,トチギウェルネスツーリズムキョウカイ,0
153,1070001038841,新規,0,2022-01-17,2022-01-17,株式会社片原饅頭,,株式会社,群馬県,前橋市,岩神町２丁目１２番１号,,10,201,3710035,,,,,,,2022-01-17,1,,,,,カタハラマンジュウ,0
158,1070005009938,新規,0,2022-01-17,2022-01-17,特定非営利活動法人永梅,,その他の設立登記法人,群馬県,高崎市,箕郷町富岡１３６８番地３,,10,202,3703115,,,,,,,2022-01-17,1,,,,,エイメイ,0
161,1080101023049,新規,0,2022-01-17,2022-01-17,リナジー株式会社,,株式会社,静岡県,沼津市,大岡１９７２番地の６,,22,203,4100022,,,,,,,2022-01-17,1,,,,,リナジー,0
165,1090003002026,新規,0,2022-01-17,2022-01-17,合同会社ｈａｎａｓａｋｕ,,合同会社,山梨県,南アルプス市,藤田３６６番地２,,19,208,4000334,,,,,,,2022-01-17,1,,,,,ハナサク,0
168,1100005012814,新規,0,2022-01-17,2022-01-17,ＷＨＣ事業協同組合,,その他の設立登記法人,長野県,松本市,沢村３丁目４番４７号,,20,202,3900877,,,,,,,2022-01-17,1,,,,,ダブリューエイチシー,0
174,1120001243155,新規,0,2022-01-17,2022-01-17,関西ルート警備株式会社,,株式会社,大阪府,大阪市淀川区,十三東３丁目１番１１号,,27,123,5320023,,,,,,,2022-01-17,1,,,,,カンサイルートケイビ,0
175,1120001243171,新規,0,2022-01-17,2022-01-17,アウルハウジング株式会社,,株式会社,大阪府,大阪市中央区,本町４丁目４番１７号,,27,128,5410053,,,,,,,2022-01-17,1,,,,,アウルハウジング,0
176,1120001243221,新規,0,2022-01-17,2022-01-17,株式会社エムサポート,,株式会社,大阪府,大阪市北区,西天満５丁目１４－３エスリード西天満７０１,,27,127,5300047,,,,,,,2022-01-17,1,,,,,エムサポート,0
177,1120001243238,新規,0,2022-01-17,2022-01-17,株式会社千成商会,,株式会社,大阪府,大阪市福島区,海老江８丁目２番２９号,,27,103,5530001,,,,,,,2022-01-17,1,,,,,センナリショウカイ,0
178,1120001243246,新規,0,2022-01-17,2022-01-17,株式会社ＢＯＧＧＩ,,株式会社,大阪府,大阪市此花区,高見１丁目３,,27,104,5540001,,,,,,,2022-01-17,1,,,,,ボッジ,0
180,1120003020949,新規,0,2022-01-17,2022-01-17,合同会社オフィスＴＷＯ－ＥＩＣＨＩ,,合同会社,大阪府,大阪市東淀川区,東淡路１丁目５番４－１１１６号,,27,114,5330023,,,,,,,2022-01-17,1,,,,,オフィスツーエイチ,0
181,1120003020965,新規,0,2022-01-17,2022-01-17,合同会社Ｙ’ｓ,,合同会社,大阪府,大阪市北区,西天満４丁目１０番３号,,27,127,5300047,,,,,,,2022-01-17,1,,,,,ワイズ,0
183,1120005022695,新規,0,2022-01-17,2022-01-17,特定非営利活動法人進路指導,,その他の設立登記法人,大阪府,大阪市北区,中崎西２丁目２番１号東梅田八千代ビル７階,,27,127,5300015,,,,,,,2022-01-17,1,,,,,シンロシドウ,0
186,1120101064955,新規,0,2022-01-17,2022-01-17,Ｓ株式会社,,株式会社,大阪府,堺市中区,深井水池町３１４２番地１,,27,142,5998237,,,,,,,2022-01-17,1,,,,,エス,0
187,1120105009502,新規,0,2022-01-17,2022-01-17,一般社団法人あおぞら,,その他の設立登記法人,大阪府,堺市西区,鳳東町１丁１９番地３４鳳レモンビル２０１号室,,27,144,5938324,,,,,,,2022-01-17,1,,,,,アオゾラ,0
190,1120903003986,新規,0,2022-01-17,2022-01-17,合同会社神島,,合同会社,大阪府,池田市,五月丘１丁目１０－３９,,27,204,5630029,,,,,,,2022-01-17,1,,,,,カミシマ,0
192,1130001070929,新規,0,2022-01-17,2022-01-17,株式会社パルリンクス,,株式会社,京都府,福知山市,字土師８１番地,,26,201,6200857,,,,,,,2022-01-17,1,,,,,パルリンクス,0
193,1130001070937,新規,0,2022-01-17,2022-01-17,株式会社ＭＭＣプラス,,株式会社,京都府,城陽市,枇杷庄島ノ宮８０番地の２９,,26,207,6100117,,,,,,,2022-01-17,1,,,,,エムエムシープラス,0
194,1130001070953,新規,0,2022-01-17,2022-01-17,丸信商事株式会社,,株式会社,京都府,京都市右京区,西院月双町１０５番地－３０１,,26,108,6150054,,,,,,,2022-01-17,1,,,,,マルシンショウジ,0
198,1140001124477,新規,0,2022-01-17,2022-01-17,株式会社萬年,,株式会社,兵庫県,西宮市,名塩新町１１番地９番館１４７号,,28,204,6691134,,,,,,,2022-01-17,1,,,,,マンネン,0
199,1140001124527,新規,0,2022-01-17,2022-01-17,株式会社リフォーム・エイト,,株式会社,兵庫県,姫路市,三左衛門堀東の町３４番地,,28,201,6700949,,,,,,,2022-01-17,1,,,,,リフォームエイト,0
200,1140001124535,新規,0,2022-01-17,2022-01-17,株式会社美究,,株式会社,兵庫県,神戸市灘区,永手町１丁目４番１５号モダンハイム３０１,,28,102,6570027,,,,,,,2022-01-17,1,,,,,ビキュウ,0
201,1140001124551,新規,0,2022-01-17,2022-01-17,株式会社東陽リアライズ,,株式会社,兵庫県,神戸市西区,伊川谷町有瀬１３２９－６,,28,111,6512113,,,,,,,2022-01-17,1,,,,,トウヨウリアライズ,0
202,1140001124568,新規,0,2022-01-17,2022-01-17,ＳｅｃｒｅｔＳｐｒｉｎｇ株式会社,,株式会社,兵庫県,加西市,北条町北条９３番地の１グランディオス加西５０４,,28,220,6752312,,,,,,,2022-01-17,1,,,,,シークレットスプリング,0
203,1140001124592,新規,0,2022-01-17,2022-01-17,株式会社Ｆｉｖｅ　ｂｌｅｓｓｉｎｇ,,株式会社,兵庫県,神戸市中央区,南本町通５丁目１番９－２０８号,,28,110,6510074,,,,,,,2022-01-17,1,,,,,ファイブブレッシング,0
204,1140003017233,新規,0,2022-01-17,2022-01-17,ＴＫ　Ｅｎｅｒｇｙ合同会社,,合同会社,兵庫県,尼崎市,金楽寺町２丁目３２番地１９号,,28,202,6600806,,,,,,,2022-01-17,1,,,,,ティーケーエナジー,0
212,1150001025245,新規,0,2022-01-17,2022-01-17,株式会社薬肆市口堂,,株式会社,奈良県,五條市,本町２丁目６番２号,,29,207,6370041,,,,,,,2022-01-17,1,,,,,ヤクシイチグチドウ,0
213,1150003002597,新規,0,2022-01-17,2022-01-17,合同会社クロスリンク,,合同会社,奈良県,奈良市,右京４丁目１２－２６,,29,201,6310805,,,,,,,2022-01-17,1,,,,,クロスリンク,0
223,1160003002472,新規,0,2022-01-17,2022-01-17,合同会社杜の息吹,,合同会社,滋賀県,米原市,三吉９２５番地１,,25,214,5210023,,,,,,,2022-01-17,1,,,,,モリノイブキ,0
224,1170001016944,新規,0,2022-01-17,2022-01-17,株式会社住友建材,,株式会社,和歌山県,橋本市,学文路１６３番地の１,,30,203,6480043,,,,,,,2022-01-17,1,,,,,スミトモケンザイ,0
227,1180001149520,新規,0,2022-01-17,2022-01-17,株式会社ＣＲＯＵＴ,,株式会社,愛知県,名古屋市中区,大須３丁目１３番３９号,,23,106,4600011,,,,,,,2022-01-17,1,,,,,クロウト,0
228,1180001149545,新規,0,2022-01-17,2022-01-17,コーチワーク株式会社,,株式会社,愛知県,名古屋市北区,中味鋺３丁目１１０９番地の４,,23,103,4620015,,,,,,,2022-01-17,1,,,,,コーチワーク,0
229,1180001149553,新規,0,2022-01-17,2022-01-17,株式会社ワインドアップジャパン,,株式会社,愛知県,名古屋市昭和区,吹上町１丁目３１番地の１,,23,107,4660002,,,,,,,2022-01-17,1,,,,,ワインドアップジャパン,0
230,1180001149586,新規,0,2022-01-17,2022-01-17,株式会社ＰｃＶｕｅ　Ｊａｐａｎエンジニアリング,,株式会社,愛知県,名古屋市東区,東桜２丁目３番７号,,23,102,4610005,,,,,,,2022-01-17,1,,,,,ピーシービュージャパンエンジニアリング,0
231,1180001149594,新規,0,2022-01-17,2022-01-17,株式会社ＡＪ,,株式会社,愛知県,名古屋市瑞穂区,土市町２丁目３６番５,,23,108,4670843,,,,,,,2022-01-17,1,,,,,エイジェイ,0
236,1180003023343,新規,0,2022-01-17,2022-01-17,合同会社おてつだい,,合同会社,愛知県,知多市,寺本台２丁目１３番地の１０,,23,224,4780003,,,,,,,2022-01-17,1,,,,,オテツダイ,0
237,1180003023392,新規,0,2022-01-17,2022-01-17,合同会社サルム,,合同会社,愛知県,名古屋市瑞穂区,洲山町２丁目３３番地,,23,108,4670066,,,,,,,2022-01-17,1,,,,,サルム,0
239,1180005019604,新規,0,2022-01-17,2022-01-17,司法書士法人Ｏｎｅ　Ｓｕｃｃｅｓｓｉｏｎ,,その他の設立登記法人,愛知県,名古屋市中区,栄１丁目１２番６号,,23,106,4600008,,,,,,,2022-01-17,1,,,,,ワンサクセション,0
243,1180301035817,新規,0,2022-01-17,2022-01-17,株式会社おきつね本舗,,株式会社,愛知県,豊川市,門前町１番地,,23,207,4420037,,,,,,,2022-01-17,1,,,,,オキツネホンポ,0
244,1190003003872,新規,0,2022-01-17,2022-01-17,ｅｎｓｏｗａ合同会社,,合同会社,三重県,津市,阿漕町津興２４５０番白川,,24,201,5140811,,,,,,,2022-01-17,1,,,,,エンソワ,0
249,1220001024652,新規,0,2022-01-17,2022-01-17,美玲株式会社,,株式会社,石川県,金沢市,中村町１７番１１号（ハイツブラウン・１０１号）,,17,201,9218022,,,,,,,2022-01-17,1,,,,,ミレイ,0
250,1230003001789,新規,0,2022-01-17,2022-01-17,合同会社エイト・ビイト,,合同会社,富山県,富山市,加納２６４番地２,,16,201,9392245,,,,,,,2022-01-17,1,,,,,エイトビイト,0
256,1260001036446,新規,0,2022-01-17,2022-01-17,株式会社リヴァーライズ,,株式会社,岡山県,岡山市東区,中川町１０７８番地３１２,,33,103,7048176,,,,,,,2022-01-17,1,,,,,リヴァーライズ,0
262,1290001096009,新規,0,2022-01-17,2022-01-17,株式会社Ｙ’ｓ　ｃｏｍｐａｎｙ,,株式会社,福岡県,糸島市,神在西３丁目９番４３号（１０３）,,40,230,8191148,,,,,,,2022-01-17,1,,,,,ワイズカンパニー,0
263,1290001096017,新規,0,2022-01-17,2022-01-17,株式会社らいふ支援サポートすまいる,,株式会社,福岡県,飯塚市,西町８番３１号,,40,205,8200043,,,,,,,2022-01-17,1,,,,,ライフシエンサポートスマイル,0
264,1290001096099,新規,0,2022-01-17,2022-01-17,株式会社白蓉,,株式会社,福岡県,福岡市博多区,板付７丁目６番４７号,,40,132,8120888,,,,,,,2022-01-17,1,,,,,ハクヨウ,0
266,1290003012005,新規,0,2022-01-17,2022-01-17,スリーアローズ合同会社,,合同会社,福岡県,福岡市博多区,博多駅前２丁目１９番１７号トーカン博多第５ビル３１２号室,,40,132,8120011,,,,,,,2022-01-17,1,,,,,スリーアローズ,0
267,1290003012021,新規,0,2022-01-17,2022-01-17,合同会社ＡＮＩＬ,,合同会社,福岡県,福岡市南区,高宮４丁目１１番３７号Ｂ－４,,40,134,8150083,,,,,,,2022-01-17,1,,,,,アニル,0
268,1290003012038,新規,0,2022-01-17,2022-01-17,合同会社ＮＨＴ,,合同会社,福岡県,福岡市南区,塩原３丁目２１番５号ラフォーレ大橋１０５号,,40,134,8150032,,,,,,,2022-01-17,1,,,,,エヌエイチティ,0
269,1290005018504,新規,0,2022-01-17,2022-01-17,一般社団法人九州先進医療福祉普及会,,その他の設立登記法人,福岡県,福岡市博多区,博多駅前２丁目１２番１５号インターシティ８階,,40,132,8120011,,,,,,,2022-01-17,1,,,,,キュウシュウセンシンイリョウフクシフキュウカイ,0
272,1300003001781,新規,0,2022-01-17,2022-01-17,ブライトネス合同会社,,合同会社,佐賀県,佐賀市,長瀬町７番３２号日新ビル６０５号,,41,201,8400853,,,,,,,2022-01-17,1,,,,,ブライトネス,0
275,1320001018842,新規,0,2022-01-17,2022-01-17,株式会社オン,,株式会社,大分県,大分市,金池南１丁目２番３７－１４０６号アルファステイツ大分駅前,,44,201,8700839,,,,,,,2022-01-17,1,,,,,オン,0
301,1360001029885,新規,0,2022-01-17,2022-01-17,株式会社親川不動産,,株式会社,沖縄県,沖縄市,仲宗根町３８番１２号ミオビエント仲宗根７０２,,47,211,9040014,,,,,,,2022-01-17,1,,,,,,0
308,1380001032490,新規,0,2022-01-17,2022-01-17,株式会社Ｂａｃｋ　Ｏｆｆｉｃｅ　Ｓｏｌｕｔｉｏｎ,,株式会社,福島県,郡山市,緑町１６番１号,,07,203,9638023,,,,,,,2022-01-17,1,,,,,バックオフィスソリューション,0
311,1410001013082,新規,0,2022-01-17,2022-01-17,株式会社ＢＳエンジニア,,株式会社,秋田県,大館市,池内字萱野２９番地１,,05,204,0170836,,,,,,,2022-01-17,1,,,,,ビーエスエンジニア,0
312,1420001017702,新規,0,2022-01-17,2022-01-17,株式会社ミライズ不動産,,株式会社,青森県,八戸市,根城８丁目１４番９号,,02,203,0391166,,,,,,,2022-01-17,1,,,,,ミライズフドウサン,0
318,1430001085789,新規,0,2022-01-17,2022-01-17,アソンブロッソ北海道株式会社,,株式会社,北海道,美唄市,西三条南５丁目８番１号,,01,215,0720026,,,,,,,2022-01-17,1,,,,,アソンブロッソホッカイドウ,0
319,1460003000875,新規,0,2022-01-17,2022-01-17,合同会社ストロベリー,,合同会社,北海道,釧路市,末広町５丁目１３番地オリエンタルプラザ４Ｆ,,01,206,0850014,,,,,,,2022-01-17,1,,,,,ストロベリー,0
329,1700150003433,新規,0,2022-01-17,2015-10-09,在日本韓国ＹＭＣＡアジア青少年センター,,その他,東京都,千代田区,神田猿楽町２丁目５－５,,13,101,1010064,,,,,,,2015-10-09,1,,,,,ザイニホンカンコクワイエムシーエーアジアセイシヨウネンセンター,0
330,1700150106681,新規,0,2022-01-17,2022-01-17,ＦａｒｅＨａｒｂｏｒ　Ｂ．Ｖ．,,外国会社等,,,,,,,,Ｈｅｒｅｎｇｒａｃｈｔ　５９７，１０１７　ＣＥ　Ａｍｓｔｅｒｄａｍ　Ｎｅｔｈｅｒｌａｎｄｓ,,,,,,2022-01-17,1,,,,,フエアハーバービーブイ,0
336,2010001223836,新規,0,2022-01-17,2022-01-17,株式会社ｓａｕｎｉｚｍ,,株式会社,東京都,千代田区,神田佐久間河岸９１番地キューアス秋葉原ビル７階７０１号室,,13,101,1010026,,,,,,,2022-01-17,1,,,,,サウニズム,0
337,2010001223869,新規,0,2022-01-17,2022-01-17,株式会社フェリクス,,株式会社,東京都,中央区,勝どき６丁目３番２－４９１０号,,13,102,1040054,,,,,,,2022-01-17,1,,,,,フェリクス,0
341,2010003036732,新規,0,2022-01-17,2022-01-17,ｙｏｕｔｈ　ｉｎｔｅｒｎａｔｉｏｎａｌ合同会社,,合同会社,東京都,中央区,日本橋中州６－４,,13,102,1030000,,,,,,,2022-01-17,1,,,,,ユースインターナショナル,0
342,2010003036749,新規,0,2022-01-17,2022-01-17,合同会社ＨＩＤＡＫＡ,,合同会社,東京都,文京区,根津２丁目１４番１４号,,13,105,1130031,,,,,,,2022-01-17,1,,,,,ヒダカ,0
344,2010005034420,新規,0,2022-01-17,2022-01-17,一般社団法人レ・ザミ・ドゥ・キュルノンスキー・インターナショナル,,その他の設立登記法人,東京都,千代田区,九段南１丁目５番６号りそな九段ビル５階ＫＳフロア,,13,101,1020074,,,,,,,2022-01-17,1,,,,,レザミドゥキュルノンスキーインターナショナル,0
345,2010005034461,新規,0,2022-01-17,2022-01-17,サステナブル・インベストメンツ投資法人,,その他の設立登記法人,東京都,千代田区,永田町２丁目１２番４号,,13,101,1000014,,,,,,,2022-01-17,1,,,,,サステナブルインベストメンツ,0
348,2010401164936,新規,0,2022-01-17,2022-01-17,株式会社ＧＢＡ　Ｇｌｏｂａｌ　ＢＰＯ　Ａｌｌｉａｎｃｅ,,株式会社,東京都,港区,西麻布１丁目８番１２号,,13,103,1060031,,,,,,,2022-01-17,1,,,,,ジービーエーグローバルビーピーオーアライアンス,0
349,2010401164952,新規,0,2022-01-17,2022-01-17,株式会社ＭＵＳＣＬＥ・ＢＯＤＹ・ＭＡＫＥ,,株式会社,東京都,港区,芝２丁目３番１１－８０２号,,13,103,1050014,,,,,,,2022-01-17,1,,,,,マッスルボディメイク,0
350,2010401164960,新規,0,2022-01-17,2022-01-17,Ａｃｅｎｕｍｂｅｒ株式会社,,株式会社,東京都,港区,芝浦４丁目１８番３０号レジディア芝浦９０９,,13,103,1080023,,,,,,,2022-01-17,1,,,,,エースナンバー,0
351,2010403026886,新規,0,2022-01-17,2022-01-17,合同会社ＴＥＡＭ　Ｔ,,合同会社,東京都,港区,芝公園２丁目６番１１－６０５号,,13,103,1050011,,,,,,,2022-01-17,1,,,,,チームティー,0
352,2010403026911,新規,0,2022-01-17,2022-01-17,合同会社Ｓ２Ｗ１１,,合同会社,東京都,港区,元赤坂１丁目１番８号赤坂コミュニティビル４階,,13,103,1070051,,,,,,,2022-01-17,1,,,,,エスニダブリュージュウイチ,0
353,2010405020581,新規,0,2022-01-17,2022-01-17,ＥＳＲ本星崎１一般社団法人,,その他の設立登記法人,東京都,港区,浜松町１丁目２０番１０号ライオネス浜松町５０６号室,,13,103,1050013,,,,,,,2022-01-17,1,,,,,イーエスアールモトホシザキイチ,0
354,2010501048304,新規,0,2022-01-17,2022-01-17,株式会社ＦＰＬＵＳ,,株式会社,東京都,台東区,松が谷３丁目１０番２号,,13,106,1110036,,,,,,,2022-01-17,1,,,,,エフプラス,0
359,2010603009352,新規,0,2022-01-17,2022-01-17,ＴＥＸ　ＴＥＡＭ合同会社,,合同会社,東京都,江東区,深川２丁目７－１７ルミエール門前仲町５０６,,13,108,1350033,,,,,,,2022-01-17,1,,,,,テックスチーム,0
362,2010801032627,新規,0,2022-01-17,2022-01-17,サイファ・コア株式会社,,株式会社,東京都,大田区,上池台１丁目３９番１１号,,13,111,1450064,,,,,,,2022-01-17,1,,,,,サイファコア,0
363,2010901050157,新規,0,2022-01-17,2022-01-17,株式会社マルノワ水産,,株式会社,東京都,世田谷区,三軒茶屋２丁目８番１０号ルナパーク三軒茶屋１階１０２－Ａ号室,,13,112,1540024,,,,,,,2022-01-17,1,,,,,マルノワスイサン,0
364,2010901050165,新規,0,2022-01-17,2022-01-17,株式会社ｔｒｉｆｏｌｉｕｍ　ｐｌｕｓ,,株式会社,東京都,世田谷区,玉川３丁目２０番２号マノア玉川第３ビル５０１,,13,112,1580094,,,,,,,2022-01-17,1,,,,,トリフォリウムプラス,0
370,2011001144956,新規,0,2022-01-17,2022-01-17,株式会社スタジアムアイコン,,株式会社,東京都,渋谷区,神宮前４丁目２６－２８,,13,113,1500001,,,,,,,2022-01-17,1,,,,,スタジアムアイコン,0
375,2011003013993,新規,0,2022-01-17,2022-01-17,Ａｎｔｅｃｅｄｅ合同会社,,合同会社,東京都,渋谷区,元代々木町４６番４－２０７号,,13,113,1510062,,,,,,,2022-01-17,1,,,,,アンテチェーデ,0
378,2011005009379,新規,0,2022-01-17,2022-01-17,特定非営利活動法人奥渋クラシック,,その他の設立登記法人,東京都,渋谷区,富ヶ谷１丁目３７番５号,,13,113,1510063,,,,,,,2022-01-17,1,,,,,オクシブクラシック,0
382,2011201023539,新規,0,2022-01-17,2022-01-17,株式会社ＩＮＦＩＮ,,株式会社,東京都,中野区,中野５丁目５８番９号ソシアルビル１０３,,13,114,1640001,,,,,,,2022-01-17,1,,,,,インフィン,0
383,2011201023547,新規,0,2022-01-17,2022-01-17,株式会社Ｍｓ,,株式会社,東京都,中野区,中野２丁目２６番１号,,13,114,1640001,,,,,,,2022-01-17,1,,,,,ミズ,0
384,2011301027480,新規,0,2022-01-17,2022-01-17,株式会社グラベルテクニカルサービス,,株式会社,東京都,杉並区,上高井戸２丁目８番２９号,,13,115,1680074,,,,,,,2022-01-17,1,,,,,グラベルテクニカルサービス,0
389,2011501027669,新規,0,2022-01-17,2022-01-17,ＭＥＴＡコンサルティング株式会社,,株式会社,東京都,北区,浮間３丁目６番１３－１７０５号,,13,117,1150051,,,,,,,2022-01-17,1,,,,,メタコンサルティング,0
397,2012301012836,新規,0,2022-01-17,2022-01-17,株式会社縁美創,,株式会社,東京都,町田市,下小山田町３２６７番３７,,13,209,1940202,,,,,,,2022-01-17,1,,,,,エンビソウ,0
401,2012401038756,新規,0,2022-01-17,2022-01-17,王子国際商事株式会社,,株式会社,東京都,小金井市,貫井北町３丁目３９番２３号,,13,210,1840015,,,,,,,2022-01-17,1,,,,,オウジコクサイショウジ,0
403,2012403005192,新規,0,2022-01-17,2022-01-17,Ｋ＆Ｈ　ＬＪＴ合同会社,,合同会社,東京都,小金井市,中町３丁目１９番１２－７２２号,,13,210,1840012,,,,,,,2022-01-17,1,,,,,ケイアンドエイチエルジェイティ,0
404,2012701016874,新規,0,2022-01-17,2022-01-17,ネットワーク・サポート・サービス株式会社,,株式会社,東京都,小平市,鈴木町１丁目３６１番地の５,,13,211,1870011,,,,,,,2022-01-17,1,,,,,ネットワークサポートサービス,0
406,2012801021337,新規,0,2022-01-17,2022-01-17,株式会社ＬｅｇａｌＴｏｒｃｈ,,株式会社,東京都,立川市,曙町２丁目８－３新鈴春ビル５Ｆ,,13,202,1900012,,,,,,,2022-01-17,1,,,,,リーガルトーチ,0
407,2012801021345,新規,0,2022-01-17,2022-01-17,株式会社桂設,,株式会社,東京都,日野市,大字日野７２７番地の１,,13,212,1910012,,,,,,,2022-01-17,1,,,,,ケイセツ,0
410,2013101008826,新規,0,2022-01-17,2022-01-17,ほその不動産株式会社,,株式会社,東京都,福生市,大字熊川２９３番地,,13,218,1970003,,,,,,,2022-01-17,1,,,,,ホソノフドウサン,0
412,2013103001102,新規,0,2022-01-17,2022-01-17,合同会社みちびき,,合同会社,東京都,あきる野市,小中野３７２番地,,13,228,1900165,,,,,,,2022-01-17,1,,,,,ミチビキ,0
416,2013301048548,新規,0,2022-01-17,2022-01-17,株式会社市川奨建築設計事務所,,株式会社,東京都,豊島区,東池袋２丁目２２番７東池袋デュープレックスリズ９０２,,13,116,1700013,,,,,,,2022-01-17,1,,,,,イチカワススムケンチクセッケイジムショ,0
418,2013303005992,新規,0,2022-01-17,2022-01-17,Ｋ＆Ｋ合同会社,,合同会社,東京都,豊島区,巣鴨１丁目２番５－２０３号,,13,116,1700002,,,,,,,2022-01-17,1,,,,,ケーアンドケー,0
424,2020001144734,新規,0,2022-01-17,2022-01-17,株式会社グッドタイム,,株式会社,神奈川県,川崎市麻生区,高石２丁目１番１１号,,14,137,2150003,,,,,,,2022-01-17,1,,,,,グッドタイム,0
425,2020001144775,新規,0,2022-01-17,2022-01-17,ＦｕｎＳｍｉｌｅ株式会社,,株式会社,神奈川県,横浜市戸塚区,深谷町１６０２番地５,,14,110,2450067,,,,,,,2022-01-17,1,,,,,ファンスマイル,0
426,2020001144783,新規,0,2022-01-17,2022-01-17,仲村新聞事業株式会社,,株式会社,神奈川県,横浜市瀬谷区,中央３４－７,,14,114,2460014,,,,,,,2022-01-17,1,,,,,ナカムラシンブンジギョウ,0
427,2020001144791,新規,0,2022-01-17,2022-01-17,Ｍｅｔａｔｕｒｅ株式会社,,株式会社,神奈川県,横浜市戸塚区,前田町５１５番地４２,,14,110,2440804,,,,,,,2022-01-17,1,,,,,メタチュア,0
428,2020001144800,新規,0,2022-01-17,2022-01-17,株式会社かぜとつばさ,,株式会社,神奈川県,横浜市青葉区,奈良町２９１３番地奈良北団地１３棟４０７号,,14,117,2270036,,,,,,,2022-01-17,1,,,,,カゼトツバサ,0
429,2020001144809,新規,0,2022-01-17,2022-01-17,株式会社晃興業,,株式会社,神奈川県,横浜市栄区,公田町５１９番地２マンションせせらぎ２０６号,,14,115,2470014,,,,,,,2022-01-17,1,,,,,ヒカルコウギョウ,0
431,2020003021130,新規,0,2022-01-17,2022-01-17,ＫＩＳＥＫＩ合同会社,,合同会社,神奈川県,横浜市西区,北幸１丁目１１番１号水信ビル７階,,14,103,2200004,,,,,,,2022-01-17,1,,,,,キセキ,0
432,2020003021139,新規,0,2022-01-17,2022-01-17,合同会社ｂｉｉ,,合同会社,神奈川県,川崎市中原区,小杉町３丁目１５０１番地２－１６０１,,14,133,2110063,,,,,,,2022-01-17,1,,,,,ビー,0
446,2030001146291,新規,0,2022-01-17,2022-01-17,株式会社一,,株式会社,埼玉県,加須市,騎西７９２番地３,,11,210,3470105,,,,,,,2022-01-17,1,,,,,ハジメ,0
447,2030001146374,新規,0,2022-01-17,2022-01-17,株式会社幸グループ,,株式会社,埼玉県,川口市,栄町３丁目３番１５号大森ビル３階,,11,203,3320017,,,,,,,2022-01-17,1,,,,,サイワイグループ,0
448,2030001146382,新規,0,2022-01-17,2022-01-17,株式会社Ａｐｒｉｔａ,,株式会社,埼玉県,さいたま市南区,鹿手袋１丁目２番３０－１０１号,,11,108,3360031,,,,,,,2022-01-17,1,,,,,アプリータ,0
455,2040001121764,新規,0,2022-01-17,2022-01-17,株式会社ｃｉｒｃｌｅ,,株式会社,千葉県,千葉市花見川区,浪花町９０９番地１,,12,102,2620024,,,,,,,2022-01-17,1,,,,,サークル,0
456,2040001121772,新規,0,2022-01-17,2022-01-17,株式会社ＡＲＩＡ,,株式会社,千葉県,山武市,木原１１２０番地１１,,12,237,2891212,,,,,,,2022-01-17,1,,,,,アリア,0
457,2040001121814,新規,0,2022-01-17,2022-01-17,株式会社カーメイクネクスト,,株式会社,千葉県,印西市,和泉９７２番地２,,12,231,2701351,,,,,,,2022-01-17,1,,,,,カーメイクネクスト,0
461,2040003019313,新規,0,2022-01-17,2022-01-17,合同会社トンチンカンパニー,,合同会社,千葉県,千葉市稲毛区,宮野木町２１１０番地１０,,12,103,2630054,,,,,,,2022-01-17,1,,,,,トンチンカンパニー,0
467,2050001050475,新規,0,2022-01-17,2022-01-17,株式会社Ｇｌｉｔｔｅｒｉｎｇ　Ｓｔａｒ,,株式会社,茨城県,筑西市,丙１９２番地４,,08,227,3080031,,,,,,,2022-01-17,1,,,,,グリッターリングスター,0
468,2050001050483,新規,0,2022-01-17,2022-01-17,直喜工業株式会社,,株式会社,茨城県,北茨城市,磯原町豊田１７９番地２,,08,215,3191543,,,,,,,2022-01-17,1,,,,,ナオキコウギョウ,0
470,2060001034477,新規,0,2022-01-17,2022-01-17,株式会社共生,,株式会社,栃木県,宇都宮市,松風台１２００番地２０８,,09,201,3210413,,,,,,,2022-01-17,1,,,,,キョウセイ,0
471,2060003003926,新規,0,2022-01-17,2022-01-17,合同会社アイカ,,合同会社,栃木県,真岡市,阿部品５２０番地３,,09,209,3214517,,,,,,,2022-01-17,1,,,,,アイカ,0
475,2070001038849,新規,0,2022-01-17,2022-01-17,ＧＫＢ株式会社,,株式会社,群馬県,高崎市,倉賀野町３２５０番地１２,,10,202,3701201,,,,,,,2022-01-17,1,,,,,ジーケービー,0
477,2070005009937,新規,0,2022-01-17,2022-01-17,税理士法人アイマール,,その他の設立登記法人,群馬県,高崎市,足門町７２４番地９,,10,202,3703531,,,,,,,2022-01-17,1,,,,,アイマール,0
479,2080101023048,新規,0,2022-01-17,2022-01-17,加島建設株式会社,,株式会社,静岡県,富士市,加島町８番３４号,,22,210,4160912,,,,,,,2022-01-17,1,,,,,カシマケンセツ,0
481,2080401025578,新規,0,2022-01-17,2022-01-17,ＹＳダイニング株式会社,,株式会社,静岡県,掛川市,上内田３９６番地,,22,213,4360012,,,,,,,2022-01-17,1,,,,,ワイエスダイニング,0
483,2090003002025,新規,0,2022-01-17,2022-01-17,Ｙｏｕ　Ｆｉｒｓｔ合同会社,,合同会社,山梨県,南都留郡富士河口湖町,河口２８２４番地２,,19,430,4010304,,,,,,,2022-01-17,1,,,,,ユーファースト,0
489,2100001034984,新規,0,2022-01-17,2022-01-17,株式会社ＥＡリサーチ,,株式会社,長野県,長野市,上松２丁目２４番地１１号,,20,201,3800802,,,,,,,2022-01-17,1,,,,,イーエーリサーチ,0
494,2100003006370,新規,0,2022-01-17,2022-01-17,合同会社こころ,,合同会社,長野県,上伊那郡箕輪町,大字中箕輪８３６６番地２,,20,383,3994601,,,,,,,2022-01-17,1,,,,,ココロ,0
495,2100005012813,新規,0,2022-01-17,2022-01-17,一般社団法人多力本頑,,その他の設立登記法人,長野県,北安曇郡白馬村,大字北城１４８０番地,,20,485,3999301,,,,,,,2022-01-17,1,,,,,タリキホンガン,0
498,2110001036369,新規,0,2022-01-17,2022-01-17,ジェスターホールディングス株式会社,,株式会社,新潟県,新潟市東区,藤見町１丁目２２番２３号,,15,102,9500025,,,,,,,2022-01-17,1,,,,,ジェスターホールディングス,0
504,2120001243022,新規,0,2022-01-17,2022-01-17,株式会社サロス,,株式会社,大阪府,大阪市北区,野崎町１番３０－２０１２号,,27,127,5300055,,,,,,,2022-01-17,1,,,,,サロス,0
505,2120001243121,新規,0,2022-01-17,2022-01-17,ＮａｎｏＺｏｎｅ　Ｊａｐａｎ　Ｍａｒｋｅｔｉｎｇ株式会社,,株式会社,大阪府,大阪市西区,北堀江１丁目６番２４号,,27,106,5500014,,,,,,,2022-01-17,1,,,,,ナノゾーンジャパンマーケティング,0
506,2120001243187,新規,0,2022-01-17,2022-01-17,株式会社エコパートナーズ,,株式会社,大阪府,大阪市西区,京町堀１丁目１７番２３号,,27,106,5500003,,,,,,,2022-01-17,1,,,,,エコパートナーズ,0
507,2120001243204,新規,0,2022-01-17,2022-01-17,マース株式会社,,株式会社,大阪府,大阪市中央区,南船場１丁目３番１４号ストークビル南船場７０３号,,27,128,5420081,,,,,,,2022-01-17,1,,,,,マース,0
508,2120001243220,新規,0,2022-01-17,2022-01-17,株式会社ａ　ｂｏｎｄ’ｓ　ｃａｆｅ　ｐｒｏｊｅｃｔ,,株式会社,大阪府,大阪市中央区,内淡路町２丁目４番１７－６０４号,,27,128,5400038,,,,,,,2022-01-17,1,,,,,アボンズカフェプロジェクト,0
509,2120001243229,新規,0,2022-01-17,2022-01-17,株式会社ミラクル,,株式会社,大阪府,大阪市都島区,東野田町３丁目１３番１３号日健京橋ビル４０２,,27,102,5340024,,,,,,,2022-01-17,1,,,,,ミラクル,0
510,2120001243237,新規,0,2022-01-17,2022-01-17,株式会社ニノ,,株式会社,大阪府,大阪市中央区,南本町２丁目１番１号本町サザンビル６０２,,27,128,5410054,,,,,,,2022-01-17,1,,,,,ニノ,0
511,2120003020923,新規,0,2022-01-17,2022-01-17,合同会社ｔｈｘ,,合同会社,大阪府,大阪市福島区,福島６丁目２２－１５福島プライム３０２,,27,103,5530003,,,,,,,2022-01-17,1,,,,,サンクス,0
512,2120003020948,新規,0,2022-01-17,2022-01-17,合同会社ＯｆｆｉｃｅＫ．,,合同会社,大阪府,大阪市此花区,西九条６丁目１番１２５－１２０７号,,27,104,5540012,,,,,,,2022-01-17,1,,,,,オフィスケードット,0
513,2120003020956,新規,0,2022-01-17,2022-01-17,合同会社Ｃａｎｏｐｕｓ,,合同会社,大阪府,大阪市淀川区,野中南２丁目１０番５４号１０２,,27,123,5320022,,,,,,,2022-01-17,1,,,,,カノープス,0
514,2120003020964,新規,0,2022-01-17,2022-01-17,合同会社無垢,,合同会社,大阪府,大阪市西区,北堀江３丁目１２番３１号,,27,106,5500014,,,,,,,2022-01-17,1,,,,,ムク,0
516,2120101064962,新規,0,2022-01-17,2022-01-17,株式会社ＣＡＬＥＣ,,株式会社,大阪府,高石市,高師浜４丁目１５番７号,,27,225,5920004,,,,,,,2022-01-17,1,,,,,カレック,0
519,2120103004520,新規,0,2022-01-17,2022-01-17,合同会社はたけ,,合同会社,大阪府,堺市北区,中長尾町４丁４－２０,,27,146,5918044,,,,,,,2022-01-17,1,,,,,ハタケ,0
520,2120103004529,新規,0,2022-01-17,2022-01-17,合同会社ＭＲＣ,,合同会社,大阪府,松原市,天美南３丁目２番１７号,,27,217,5800033,,,,,,,2022-01-17,1,,,,,エムアールシー,0
521,2120901045468,新規,0,2022-01-17,2022-01-17,株式会社令和インターナショナル,,株式会社,大阪府,吹田市,江坂町１丁目２３番１９－７０３号,,27,205,5640063,,,,,,,2022-01-17,1,,,,,レイワインターナショナル,0
522,2120903003985,新規,0,2022-01-17,2022-01-17,合同会社北大阪ＫＢＳＣ,,合同会社,大阪府,茨木市,玉櫛２丁目２１番２１号,,27,211,5670895,,,,,,,2022-01-17,1,,,,,キタオオサカケイビーエスシー,0
534,2130003007696,新規,0,2022-01-17,2022-01-17,エリアス合同会社,,合同会社,京都府,京都市左京区,高野東開町１番地２３東大路高野第３住宅２２棟２０２号,,26,103,6068107,,,,,,,2022-01-17,1,,,,,エリアス,0
542,2140001124534,新規,0,2022-01-17,2022-01-17,株式会社ＧＲＡＴＥＳ,,株式会社,兵庫県,西宮市,樋之池町７番１－５０６号,,28,204,6620084,,,,,,,2022-01-17,1,,,,,グラーテス,0
543,2140001124559,新規,0,2022-01-17,2022-01-17,らい株式会社,,株式会社,兵庫県,宝塚市,湯本町１０番４５－６０３号,,28,214,6650003,,,,,,,2022-01-17,1,,,,,ライ,0
544,2140001124575,新規,0,2022-01-17,2022-01-17,株式会社上匠,,株式会社,兵庫県,西宮市,津門西口町５番３２－５０２号,,28,204,6638231,,,,,,,2022-01-17,1,,,,,ウエショウ,0
545,2140001124591,新規,0,2022-01-17,2022-01-17,１１０８株式会社,,株式会社,兵庫県,神戸市中央区,南本町通５丁目１番９－２０８号,,28,110,6510074,,,,,,,2022-01-17,1,,,,,センヒャクハチ,0
546,2140003017224,新規,0,2022-01-17,2022-01-17,モンドベースジャパン合同会社,,合同会社,兵庫県,西宮市,野間町３番２３－１０５号,,28,204,6638015,,,,,,,2022-01-17,1,,,,,モンドベースジャパン,0
553,2150001025244,新規,0,2022-01-17,2022-01-17,株式会社山本造園土木,,株式会社,奈良県,天理市,嘉幡町３１０番地１０,,29,204,6320084,,,,,,,2022-01-17,1,,,,,ヤマモトゾウエンドボク,0
554,2150001025252,新規,0,2022-01-17,2022-01-17,株式会社Ｊ－ＣＵＢＥ,,株式会社,奈良県,奈良市,西ノ京町１１９番３,,29,201,6308042,,,,,,,2022-01-17,1,,,,,ジェイキューブ,0
567,2170001016943,新規,0,2022-01-17,2022-01-17,株式会社ＧＲＡＣＥエターナルビューティー,,株式会社,和歌山県,和歌山市,三木町南ノ丁３１番地,,30,201,6408105,,,,,,,2022-01-17,1,,,,,グレイスエターナルビューティー,0
576,2180001149503,新規,0,2022-01-17,2022-01-17,株式会社エンフォスター,,株式会社,愛知県,海部郡蟹江町,南２丁目１７番地,,23,425,4970041,,,,,,,2022-01-17,1,,,,,エンフォスター,0
577,2180001149528,新規,0,2022-01-17,2022-01-17,株式会社ＡＴＥＬＩＥＲ　ＲＩＣＣＯ,,株式会社,愛知県,名古屋市西区,枇杷島２丁目１６番２２号,,23,104,4510053,,,,,,,2022-01-17,1,,,,,アトリエリッコ,0
578,2180001149544,新規,0,2022-01-17,2022-01-17,株式会社ツールエージェント,,株式会社,愛知県,豊明市,新栄町３丁目２２番地,,23,229,4701154,,,,,,,2022-01-17,1,,,,,ツールエージェント,0
579,2180001149569,新規,0,2022-01-17,2022-01-17,株式会社ホーリープランニング,,株式会社,愛知県,名古屋市名東区,小池町４３６コーポ小池１ＦＡ号,,23,115,4650047,,,,,,,2022-01-17,1,,,,,ホーリープランニング,0
580,2180001149585,新規,0,2022-01-17,2022-01-17,株式会社Ｓｕｎ　ｋｙｏ,,株式会社,愛知県,春日井市,大泉寺町４２９番地１,,23,206,4860812,,,,,,,2022-01-17,1,,,,,サンキョウ,0
582,2180003023367,新規,0,2022-01-17,2022-01-17,合同会社Ｒａｂｂｉｄｓ,,合同会社,愛知県,名古屋市中区,三の丸１丁目１１－６,,23,106,4600001,,,,,,,2022-01-17,1,,,,,ラビッツ,0
583,2180003023383,新規,0,2022-01-17,2022-01-17,自然派建設名古屋合同会社,,合同会社,愛知県,名古屋市瑞穂区,新開町１６番１５号,,23,108,4670856,,,,,,,2022-01-17,1,,,,,シゼンハケンセツナゴヤ,0
593,2230001019188,新規,0,2022-01-17,2022-01-17,株式会社Ｍ．Ｋ．Ｅ,,株式会社,富山県,下新川郡朝日町,泊４５５番地４,,16,343,9390741,,,,,,,2022-01-17,1,,,,,エムケーイー,0
594,2230001019196,新規,0,2022-01-17,2022-01-17,セイカ株式会社,,株式会社,富山県,高岡市,横田町１丁目２番４号,,16,202,9330842,,,,,,,2022-01-17,1,,,,,セイカ,0
596,2240003005458,新規,0,2022-01-17,2022-01-17,合同会社ゴールドシップ,,合同会社,広島県,広島市中区,宝町９番３７－５０２号,,34,101,7300044,,,,,,,2022-01-17,1,,,,,ゴールドシップ,0
600,2260001036445,新規,0,2022-01-17,2022-01-17,株式会社ＭａｒｕＭａｒｕＪＡＰＡＮ,,株式会社,岡山県,岡山市北区,大内田６７５番地,,33,101,7010165,,,,,,,2022-01-17,1,,,,,マルマルジャパン,0
609,2290001096016,新規,0,2022-01-17,2022-01-17,株式会社ＳＡＶＯＩＲ,,株式会社,福岡県,福岡市中央区,赤坂３丁目６番３２‐５０８号,,40,133,8100042,,,,,,,2022-01-17,1,,,,,サヴォアール,0
610,2290001096049,新規,0,2022-01-17,2022-01-17,株式会社Ｏｌｉｖｉａ,,株式会社,福岡県,久留米市,日吉町２６番地３６－４階,,40,203,8300017,,,,,,,2022-01-17,1,,,,,オリビア,0
632,2340003003690,新規,0,2022-01-17,2022-01-17,合同会社アイのユーミーカン,,合同会社,鹿児島県,鹿児島市,原良６丁目２番１２号,,46,201,8900026,,,,,,,2022-01-17,1,,,,,アイノユーミーカン,0
635,2360003011725,新規,0,2022-01-17,2022-01-17,ＮＯＫネット合同会社,,合同会社,沖縄県,沖縄市,松本３丁目１７番１９号,,47,211,9042151,,,,,,,2022-01-17,1,,,,,エヌオーケイネット,0
638,2370001048082,新規,0,2022-01-17,2022-01-17,株式会社布田ファーム,,株式会社,宮城県,岩沼市,小川字鐘撞堂２４番地,,04,211,9892471,,,,,,,2022-01-17,1,,,,,フダファーム,0
640,2380001032481,新規,0,2022-01-17,2022-01-17,株式会社カネマル林業,,株式会社,福島県,東白川郡塙町,大字伊香字神ノ橋４４番地１,,07,483,9635342,,,,,,,2022-01-17,1,,,,,カネマルリンギョウ,0
645,2380003005089,新規,0,2022-01-17,2022-01-17,合同会社ＭＫｃｏｒｐｏｒａｔｉｏｎ,,合同会社,福島県,相馬市,中村字上町５４－４,,07,209,9760042,,,,,,,2022-01-17,1,,,,,エムケーコーポレーション,0
648,2400005008203,新規,0,2022-01-17,2022-01-17,農事組合法人おらほ,,その他の設立登記法人,岩手県,奥州市,胆沢小山字焼山３８番地３,,03,215,0230402,,,,,,,2022-01-17,1,,,,,,0
664,2430001085722,新規,0,2022-01-17,2022-01-17,株式会社ｋｅａｒａａｎ,,株式会社,北海道,札幌市北区,北三十四条西４丁目２番１５号,,01,102,0010034,,,,,,,2022-01-17,1,,,,,ケアラン,0
665,2430003013532,新規,0,2022-01-17,2022-01-17,合同会社ｉｄｅａｂｏｏｋｓ,,合同会社,北海道,札幌市東区,伏古一条２丁目５－１１プラザイン伏古２０２号室,,01,103,0070861,,,,,,,2022-01-17,1,,,,,イデアブックス,0
667,2470001018892,新規,0,2022-01-17,2022-01-17,株式会社ＴｓｕＮａＧｕ,,株式会社,香川県,高松市,木太町３６７４番地４,,37,201,7600080,,,,,,,2022-01-17,1,,,,,ツナグ,0
685,2700150106680,新規,0,2022-01-17,2022-01-17,ＲＯＣＫＲＩＳＥ　ＳＤＮ　ＢＨＤ,,外国会社等,,,,,,,,１２ｔｈ　ｆｌｏｏｒ，Ｍｅｎａｒａ　Ｓｙｍｐｈｏｎｙ，Ｎｏ．５，Ｊａｌａｎ　Ｐｒｏｆ．Ｋｈｏｏ　Ｋａｙ　Ｋｉｍ，Ｓｅｋｓｙｅｎ　１３，４６２００,,,,,,2022-01-17,1,,,,,ロツクライズスンデイリアンブルハド,0
695,3010003036764,新規,0,2022-01-17,2022-01-17,合同会社ユニコーン,,合同会社,東京都,中央区,銀座７丁目１３番６号サガミビル２階,,13,102,1040061,,,,,,,2022-01-17,1,,,,,ユニコーン,0
696,3010003036772,新規,0,2022-01-17,2022-01-17,合同会社ｍａｋｅＦ,,合同会社,東京都,千代田区,神田錦町３丁目７番地２,,13,101,1010054,,,,,,,2022-01-17,1,,,,,メイクエフ,0
697,3010003036780,新規,0,2022-01-17,2022-01-17,合同会社ＭＡＭ,,合同会社,東京都,中央区,晴海１丁目７番２－１３１２号,,13,102,1040053,,,,,,,2022-01-17,1,,,,,エムエーエム,0
701,3010005034452,新規,0,2022-01-17,2022-01-17,一般社団法人ＨＰＲ,,その他の設立登記法人,東京都,千代田区,九段南３丁目７番７号成和綜合会計事務所内,,13,101,1020074,,,,,,,2022-01-17,1,,,,,エイチピーアール,0
702,3010005034460,新規,0,2022-01-17,2022-01-17,一般社団法人日本歯列矯正協会,,その他の設立登記法人,東京都,中央区,銀座１丁目５番１４号２階,,13,102,1040061,,,,,,,2022-01-17,1,,,,,ニホンシレツキョウセイキョウカイ,0
703,3010005034477,新規,0,2022-01-17,2022-01-17,一般社団法人オルジュ,,その他の設立登記法人,東京都,千代田区,丸の内３丁目１番１号東京共同会計事務所内,,13,101,1000005,,,,,,,2022-01-17,1,,,,,オルジュ,0
718,3010401164893,新規,0,2022-01-17,2022-01-17,株式会社ＱＵＵ,,株式会社,東京都,港区,南青山３丁目１５－９ＭＩＮＯＷＡ表参道３階,,13,103,1070062,,,,,,,2022-01-17,1,,,,,キュウ,0
719,3010401164968,新規,0,2022-01-17,2022-01-17,株式会社ＬｉｍＬｅａｄ,,株式会社,東京都,港区,芝１丁目２番１－１５１２号クレストプライムタワー,,13,103,1050014,,,,,,,2022-01-17,1,,,,,リムリード,0
721,3010403026885,新規,0,2022-01-17,2022-01-17,合同会社アンシエントロワ,,合同会社,東京都,港区,南青山２丁目２番１５号ＷｉｎＡｏｙａｍａビルＵＣＦ６３５,,13,103,1070062,,,,,,,2022-01-17,1,,,,,アンシエントロワ,0
723,3010405020597,新規,0,2022-01-17,2022-01-17,ＪＭアンタレス一般社団法人,,その他の設立登記法人,東京都,港区,虎ノ門４丁目３番１号城山トラストタワー２７階ＳａｎｎｅＧｒｏｕｐＪａｐａｎ株式会社内,,13,103,1050001,,,,,,,2022-01-17,1,,,,,ジェイエムアンタレス,0
728,3010803004020,新規,0,2022-01-17,2022-01-17,合同会社奇分,,合同会社,東京都,大田区,東六郷３丁目８番４－１２０９号,,13,111,1440046,,,,,,,2022-01-17,1,,,,,キブン,0
731,3011001144955,新規,0,2022-01-17,2022-01-17,株式会社Ｒａｎｕｎ　Ｍｉｉｒｏ,,株式会社,東京都,渋谷区,渋谷２丁目１９番１５号宮益坂ビルディング６０９,,13,113,1500002,,,,,,,2022-01-17,1,,,,,ラナンミイロ,0
732,3011001145045,新規,0,2022-01-17,2022-01-17,株式会社セライル,,株式会社,東京都,渋谷区,神宮前１丁目８番６号玉上ビル３階,,13,113,1500001,,,,,,,2022-01-17,1,,,,,セライル,0
733,3011001145078,新規,0,2022-01-17,2022-01-17,株式会社Ｏｒｂ　Ｐｒｏｍｏｔｉｏｎ,,株式会社,東京都,渋谷区,神宮前３丁目３１番１８－７０１号外苑コーポ,,13,113,1500001,,,,,,,2022-01-17,1,,,,,オーブプロモーション,0
734,3011001145094,新規,0,2022-01-17,2022-01-17,株式会社Ｔ－Ｄｅｓｉｇｎ,,株式会社,東京都,目黒区,八雲５丁目１３番２３号,,13,110,1520023,,,,,,,2022-01-17,1,,,,,ティーデザイン,0
735,3011001145103,新規,0,2022-01-17,2022-01-17,ＨＫネットワーク株式会社,,株式会社,東京都,目黒区,目黒本町１丁目９番１１号,,13,110,1520002,,,,,,,2022-01-17,1,,,,,エイチケイネットワーク,0
741,3011301027488,新規,0,2022-01-17,2022-01-17,株式会社Ｍａｉｓｏｎ　ＥＳ,,株式会社,東京都,杉並区,堀ノ内１丁目１４番２６号,,13,115,1660013,,,,,,,2022-01-17,1,,,,,メゾンエス,0
742,3011303004279,新規,0,2022-01-17,2022-01-17,合同会社ペルフェッタジャパン,,合同会社,東京都,杉並区,善福寺１丁目３０番７号,,13,115,1670041,,,,,,,2022-01-17,1,,,,,ペルフェッタジャパン,0
743,3011405002180,新規,0,2022-01-17,2022-01-17,一般社団法人いちげんの亀,,その他の設立登記法人,東京都,板橋区,板橋１丁目２９番７号２階,,13,119,1730004,,,,,,,2022-01-17,1,,,,,イチゲンノカメ,0
744,3011501027643,新規,0,2022-01-17,2022-01-17,株式会社ＣＬＡＮＮＡＤ,,株式会社,東京都,荒川区,西尾久１丁目１３番３号,,13,118,1160011,,,,,,,2022-01-17,1,,,,,クラナド,0
746,3011801040206,新規,0,2022-01-17,2022-01-17,株式会社Ｈｕｍａｎ　Ｌｏｇｉｃ,,株式会社,東京都,足立区,東綾瀬１丁目２６番１９号,,13,121,1200004,,,,,,,2022-01-17,1,,,,,ヒューマンロジック,0
748,3012401038755,新規,0,2022-01-17,2022-01-17,株式会社ｋｏｔｏｔｏｕ,,株式会社,東京都,狛江市,元和泉２丁目３番１５号ｖｅｒｄｉｎｏ１０１号室,,13,219,2010013,,,,,,,2022-01-17,1,,,,,コトトウ,0
750,3012405004687,新規,0,2022-01-17,2022-01-17,一般社団法人親子関係と脳力研究所,,その他の設立登記法人,東京都,多摩市,和田１４３１番地の２２,,13,224,2060001,,,,,,,2022-01-17,1,,,,,オヤコカンケイトノウリョクケンキュウジョ,0
757,3020001144725,新規,0,2022-01-17,2022-01-17,株式会社ＩＴ　ｓｕｐｐｏｒｔ　ｉｎ　Ｔｏｋｙｏ,,株式会社,神奈川県,川崎市高津区,下作延２丁目３１番１０号,,14,134,2130033,,,,,,,2022-01-17,1,,,,,アイティーサポートイントーキョー,0
758,3020001144782,新規,0,2022-01-17,2022-01-17,株式会社ワイルドフラワーズ,,株式会社,神奈川県,横浜市中区,桜木町１丁目１０１番地１クロスゲート７階,,14,104,2310062,,,,,,,2022-01-17,1,,,,,ワイルドフラワーズ,0
759,3020001144799,新規,0,2022-01-17,2022-01-17,株式会社晴皇建設,,株式会社,神奈川県,横浜市旭区,柏町６９番地５ライオンズヒルズ南万騎が原２０７,,14,112,2410835,,,,,,,2022-01-17,1,,,,,,0
761,3020003021113,新規,0,2022-01-17,2022-01-17,ＧＲＡＮＩＺＯ合同会社,,合同会社,神奈川県,横浜市中区,桜木町１丁目１０１番地１クロスゲート７階,,14,104,2310062,,,,,,,2022-01-17,1,,,,,グラニッツォ,0
762,3020003021121,新規,0,2022-01-17,2022-01-17,合同会社ワイズ,,合同会社,神奈川県,横浜市中区,豆口台１８０番地の６,,14,104,2310838,,,,,,,2022-01-17,1,,,,,ワイズ,0
763,3020003021138,新規,0,2022-01-17,2022-01-17,アレクサ合同会社,,合同会社,神奈川県,横浜市中区,長者町９丁目１４９番地の４,,14,104,2310033,,,,,,,2022-01-17,1,,,,,アレクサ,0
764,3020003021146,新規,0,2022-01-17,2022-01-17,ＡＮＺＵ合同会社,,合同会社,神奈川県,横浜市港南区,大久保１丁目１３番９号,,14,111,2330007,,,,,,,2022-01-17,1,,,,,アンズ,0
769,3021001074978,新規,0,2022-01-17,2022-01-17,株式会社Ｊ．Ｉ．Ｃ,,株式会社,神奈川県,横須賀市,久里浜１丁目５番１１ケーユービル２Ｆ,,14,201,2390831,,,,,,,2022-01-17,1,,,,,ジェイアイシー,0
775,3021003011310,新規,0,2022-01-17,2022-01-17,合同会社イキピッタリ,,合同会社,神奈川県,横須賀市,津久井２丁目４番６号,,14,201,2390843,,,,,,,2022-01-17,1,,,,,イキピッタリ,0
780,3030001146332,新規,0,2022-01-17,2022-01-17,株式会社Ｆｉｒｓｔ　ｏｎｅ,,株式会社,埼玉県,さいたま市浦和区,元町３丁目２３番５－１号,,11,107,3300073,,,,,,,2022-01-17,1,,,,,ファーストワン,0
781,3030001146357,新規,0,2022-01-17,2022-01-17,株式会社Ｔ－Ｋ　ＦＩＲＳＴ,,株式会社,埼玉県,日高市,大字鹿山７番地１１,,11,242,3501231,,,,,,,2022-01-17,1,,,,,ティーケーファースト,0
782,3030001146373,新規,0,2022-01-17,2022-01-17,早乙女・高山不動産株式会社,,株式会社,埼玉県,川口市,栄町３丁目１０番３号,,11,203,3320017,,,,,,,2022-01-17,1,,,,,サオトメタカヤマフドウサン,0
786,3040001121672,新規,0,2022-01-17,2022-01-17,株式会社Ｄ．Ｄ．Ｄ,,株式会社,千葉県,船橋市,二宮１丁目２３番２号,,12,204,2740823,,,,,,,2022-01-17,1,,,,,ディーディーディー,0
787,3040001121739,新規,0,2022-01-17,2022-01-17,株式会社プラスワン,,株式会社,千葉県,茂原市,木崎１８０番地３,,12,210,2970016,,,,,,,2022-01-17,1,,,,,プラスワン,0
788,3040001121813,新規,0,2022-01-17,2022-01-17,株式会社ＷＡＫＵＹＡ,,株式会社,千葉県,野田市,今上１１３０番地の５,,12,208,2780025,,,,,,,2022-01-17,1,,,,,ワクヤ,0
791,3040003019320,新規,0,2022-01-17,2022-01-17,合同会社アッローラ,,合同会社,千葉県,千葉市若葉区,千城台南４丁目１０番７号,,12,104,2640003,,,,,,,2022-01-17,1,,,,,アッローラ,0
793,3040005021497,新規,0,2022-01-17,2022-01-17,農事組合法人みずほ,,その他の設立登記法人,千葉県,香取市,堀之内２０８２番地,,12,236,2870066,,,,,,,2022-01-17,1,,,,,ミズホ,0
796,3050001050425,新規,0,2022-01-17,2022-01-17,株式会社田昇,,株式会社,茨城県,常総市,内守谷町５２５２番地１,,08,211,3030043,,,,,,,2022-01-17,1,,,,,デンショウ,0
797,3050001050466,新規,0,2022-01-17,2022-01-17,株式会社ＳＢ防災,,株式会社,茨城県,石岡市,若宮２丁目３番２１号,,08,205,3150017,,,,,,,2022-01-17,1,,,,,エスビーボウサイ,0
801,3070001038831,新規,0,2022-01-17,2022-01-17,コウワメタル株式会社,,株式会社,群馬県,高崎市,神戸町３９５番地,,10,202,3703336,,,,,,,2022-01-17,1,,,,,コウワメタル,0
802,3070001038848,新規,0,2022-01-17,2022-01-17,株式会社ｉＴＭＩ,,株式会社,群馬県,高崎市,江木町１１９３番地３,,10,202,3700046,,,,,,,2022-01-17,1,,,,,アイティーエムアイ,0
808,3080101023030,新規,0,2022-01-17,2022-01-17,株式会社ＦＩＮＥ　ＦＲＯＭ,,株式会社,静岡県,伊東市,富戸１０９１－７,,22,208,4130231,,,,,,,2022-01-17,1,,,,,ファインフローム,0
811,3080401025577,新規,0,2022-01-17,2022-01-17,株式会社３２ＣＬＡＳＳＩＣ,,株式会社,静岡県,浜松市南区,渡瀬町３２１番地,,22,134,4350036,,,,,,,2022-01-17,1,,,,,シャミクラッシク,0
812,3080405007423,新規,0,2022-01-17,2022-01-17,一般社団法人中部ソーラーシェアリングやろまい会,,その他の設立登記法人,静岡県,磐田市,富丘２２６番地７,,22,211,4380803,,,,,,,2022-01-17,1,,,,,チュウブソーラーシェアリングヤロマイカイ,0
817,3100005012804,新規,0,2022-01-17,2022-01-17,一般社団法人アグリガーデン,,その他の設立登記法人,長野県,駒ヶ根市,赤穂２８３２番地２６,,20,210,3994117,,,,,,,2022-01-17,1,,,,,アグリガーデン,0
824,3120001243129,新規,0,2022-01-17,2022-01-17,株式会社ジャパンプレミアムセレクト,,株式会社,大阪府,大阪市西成区,聖天下２丁目６番２９号,,27,122,5570012,,,,,,,2022-01-17,1,,,,,ジャパンプレミアムセレクト,0
825,3120001243137,新規,0,2022-01-17,2022-01-17,株式会社ケープロフェッショナル,,株式会社,大阪府,大阪市中央区,南船場４丁目１４番１号,,27,128,5420081,,,,,,,2022-01-17,1,,,,,ケープロフェッショナル,0
826,3120001243145,新規,0,2022-01-17,2022-01-17,株式会社オオタニ,,株式会社,大阪府,大阪市港区,波除２丁目５番１９号ひかり第二ハイツ６０６号,,27,107,5520001,,,,,,,2022-01-17,1,,,,,オオタニ,0
827,3120001243161,新規,0,2022-01-17,2022-01-17,株式会社拓研工業,,株式会社,大阪府,寝屋川市,春日町２７番２号,,27,215,5720063,,,,,,,2022-01-17,1,,,,,タッケンコウギョウ,0
828,3120001243178,新規,0,2022-01-17,2022-01-17,株式会社Ｒｕｂａｔｏ,,株式会社,大阪府,大阪市平野区,瓜破東６丁目２番３号,,27,126,5470022,,,,,,,2022-01-17,1,,,,,ルバート,0
829,3120001243194,新規,0,2022-01-17,2022-01-17,ＩＮＦＩＮＩＴＹ株式会社,,株式会社,大阪府,枚方市,東中振１丁目１７－１－１０８,,27,210,5730093,,,,,,,2022-01-17,1,,,,,インフィニティ,0
830,3120001243211,新規,0,2022-01-17,2022-01-17,株式会社ハナセンホーム,,株式会社,大阪府,寝屋川市,緑町１９番１号,,27,215,5720022,,,,,,,2022-01-17,1,,,,,ハナセンホーム,0
831,3120001243228,新規,0,2022-01-17,2022-01-17,株式会社プロフィット,,株式会社,大阪府,大阪市天王寺区,四天王寺１丁目１２番２８号ラシーヌ夕陽丘２Ｆ,,27,109,5430051,,,,,,,2022-01-17,1,,,,,プロフィット,0
832,3120003020947,新規,0,2022-01-17,2022-01-17,合同会社ｃｏｍｏｄｏ,,合同会社,大阪府,大阪市北区,太融寺町３－３０－２０４,,27,127,5300051,,,,,,,2022-01-17,1,,,,,コモド,0
833,3120003020955,新規,0,2022-01-17,2022-01-17,合同会社ＭＭコーポレーション,,合同会社,大阪府,大阪市東淀川区,北江口４丁目１－２０－４０１,,27,114,5330002,,,,,,,2022-01-17,1,,,,,エムエムコーポレーション,0
834,3120005022693,新規,0,2022-01-17,2022-01-17,一般社団法人自閉症ｅサービス全国ネット,,その他の設立登記法人,大阪府,大阪市中央区,上本町西３丁目３番２８号,,27,128,5420062,,,,,,,2022-01-17,1,,,,,ジヘイショウイーサービスゼンコクネット,0
835,3120101064937,新規,0,2022-01-17,2022-01-17,株式会社ウイング,,株式会社,大阪府,和泉市,室堂町１１０３番地の１６８,,27,219,5941101,,,,,,,2022-01-17,1,,,,,ウイング,0
838,3122001035506,新規,0,2022-01-17,2022-01-17,株式会社３Ｒｅ,,株式会社,大阪府,東大阪市,西堤１丁目９番１７号,,27,227,5770042,,,,,,,2022-01-17,1,,,,,スリー,0
841,3130001070935,新規,0,2022-01-17,2022-01-17,株式会社タケウチコンサルティング,,株式会社,京都府,亀岡市,内丸町２６番地２３エミネンス内丸４０１号,,26,206,6210864,,,,,,,2022-01-17,1,,,,,タケウチコンサルティング,0
843,3130003007687,新規,0,2022-01-17,2022-01-17,合同会社Ｇａｔｔｉ,,合同会社,京都府,向日市,上植野町南開５８番地の１０,,26,208,6170006,,,,,,,2022-01-17,1,,,,,ガッティ,0
850,3140001124517,新規,0,2022-01-17,2022-01-17,メジャーホーム株式会社,,株式会社,兵庫県,姫路市,広畑区蒲田５丁目１６５番地２,,28,201,6711102,,,,,,,2022-01-17,1,,,,,メジャーホーム,0
851,3140001124525,新規,0,2022-01-17,2022-01-17,３美生活株式会社,,株式会社,兵庫県,西宮市,国見台６丁目２番２号,,28,204,6691135,,,,,,,2022-01-17,1,,,,,サンビセイカツ,0
852,3140001124558,新規,0,2022-01-17,2022-01-17,ＳＴＡＲＴ．５株式会社,,株式会社,兵庫県,尼崎市,富松町１丁目２番１４号,,28,202,6610003,,,,,,,2022-01-17,1,,,,,スタートファイブ,0
853,3140001124566,新規,0,2022-01-17,2022-01-17,株式会社ｎｅｘｔ　Ｓｏｐｈｉａ,,株式会社,兵庫県,尼崎市,西立花町１丁目１１番３６号,,28,202,6600054,,,,,,,2022-01-17,1,,,,,ネクストソフィア,0
855,3140003017223,新規,0,2022-01-17,2022-01-17,合同会社幾千,,合同会社,兵庫県,明石市,松江４４１番地の２,,28,203,6730036,,,,,,,2022-01-17,1,,,,,イクセン,0
870,3160003002470,新規,0,2022-01-17,2022-01-17,合同会社ａｎｒａｃｏ,,合同会社,滋賀県,米原市,朝妻筑摩１５８３番地,,25,214,5210001,,,,,,,2022-01-17,1,,,,,アンラコ,0
884,3180001149502,新規,0,2022-01-17,2022-01-17,株式会社薬師神商会,,株式会社,愛知県,春日井市,勝川町西４丁目３２番地,,23,206,4860946,,,,,,,2022-01-17,1,,,,,ヤクシジンショウカイ,0
885,3180001149510,新規,0,2022-01-17,2022-01-17,株式会社ＳＰＩＣＹ　ＡＴＨＬＥＴＥ,,株式会社,愛知県,名古屋市中区,錦２丁目１２番３２号さくらＨｉｌｌｓＮＩＳＨＩＫＩ３０８号,,23,106,4600003,,,,,,,2022-01-17,1,,,,,スパイシーアスリート,0
886,3180001149519,新規,0,2022-01-17,2022-01-17,株式会社Ｓ－Ｌｉｆｅ,,株式会社,愛知県,知多郡東浦町,大字藤江字ふじが丘１０番地の９,,23,442,4702105,,,,,,,2022-01-17,1,,,,,エスライフ,0
887,3180001149527,新規,0,2022-01-17,2022-01-17,株式会社ＹＳＣ,,株式会社,愛知県,名古屋市千種区,東山通３丁目３番地静谷ビル２０２,,23,101,4640807,,,,,,,2022-01-17,1,,,,,ワイエスシー,0
888,3180001149543,新規,0,2022-01-17,2022-01-17,ＳｕｎＩ株式会社,,株式会社,愛知県,一宮市,伝法寺８丁目１６番地１７,,23,203,4910828,,,,,,,2022-01-17,1,,,,,サンアイ,0
889,3180001149551,新規,0,2022-01-17,2022-01-17,株式会社Ｂｅ　ｔｈｅ　Ｏｎｅ,,株式会社,愛知県,知多市,岡田字小石山７０番地の５,,23,224,4780021,,,,,,,2022-01-17,1,,,,,ビーザワン,0
890,3180001149568,新規,0,2022-01-17,2022-01-17,株式会社ｙｓｒ　ｒｅｆｏｒｍ,,株式会社,愛知県,名古屋市名東区,猪子石原３丁目１３０７番地,,23,115,4650008,,,,,,,2022-01-17,1,,,,,ワイエスアールリフォーム,0
891,3180001149584,新規,0,2022-01-17,2022-01-17,株式会社ＩＳＯ,,株式会社,愛知県,名古屋市北区,下飯田町２丁目１５番地,,23,103,4620865,,,,,,,2022-01-17,1,,,,,アイエスオー,0
892,3180001149592,新規,0,2022-01-17,2022-01-17,ＳＧ株式会社,,株式会社,愛知県,名古屋市名東区,植園町１丁目９番地の３（Ｌ．Ｍ．虹ケ丘ガーデン参番館３０１号）,,23,115,4650077,,,,,,,2022-01-17,1,,,,,エスジー,0
899,3180003023366,新規,0,2022-01-17,2022-01-17,合同会社旭宮,,合同会社,愛知県,知多郡東浦町,大字緒川字東仙台３４番地の８,,23,442,4702102,,,,,,,2022-01-17,1,,,,,アサミヤ,0
900,3180003023374,新規,0,2022-01-17,2022-01-17,合同会社アイシャイン,,合同会社,愛知県,津島市,南門前町２丁目７２番地１,,23,208,4960857,,,,,,,2022-01-17,1,,,,,アイシャイン,0
901,3180005019560,新規,0,2022-01-17,2022-01-17,一般社団法人日本福祉人財開発協会,,その他の設立登記法人,愛知県,名古屋市中区,錦１丁目１０－１２服部ビル１０Ｆ,,23,106,4600003,,,,,,,2022-01-17,1,,,,,ニホンフクシジンザイカイハツキョウカイ,0
905,3180301035848,新規,0,2022-01-17,2022-01-17,三河ボート株式会社,,株式会社,愛知県,西尾市,一色町細川大岡一ノ割１６番地,,23,213,4440425,,,,,,,2022-01-17,1,,,,,ミカワボート,0
912,3200001039667,新規,0,2022-01-17,2022-01-17,株式会社ライフサポート,,株式会社,岐阜県,岐阜市,加納矢場町１丁目１３番１号,,21,201,5008273,,,,,,,2022-01-17,1,,,,,ライフサポート,0
913,3210001018769,新規,0,2022-01-17,2022-01-17,ナガシマ工業株式会社,,株式会社,福井県,鯖江市,水落町１丁目５番３３－１号,,18,207,9160022,,,,,,,2022-01-17,1,,,,,ナガシマコウギョウ,0
918,3230005009192,新規,0,2022-01-17,2022-01-17,農事組合法人ファーム下友坂,,その他の設立登記法人,富山県,富山市,婦中町友坂３００番地１,,16,201,9392759,,,,,,,2022-01-17,1,,,,,ファームシモトモサカ,0
925,3240003005440,新規,0,2022-01-17,2022-01-17,グラン備南合同会社,,合同会社,広島県,福山市,水呑町１５２７番地,,34,207,7200832,,,,,,,2022-01-17,1,,,,,グランビナン,0
926,3240003005457,新規,0,2022-01-17,2022-01-17,マクロワール合同会社,,合同会社,広島県,広島市安佐北区,可部東４丁目１９番３１号,,34,106,7310222,,,,,,,2022-01-17,1,,,,,マクロワール,0
938,3280001008607,新規,0,2022-01-17,2022-01-17,株式会社農笑ファーム,,株式会社,島根県,出雲市,斐川町神庭１１６番地,,32,203,6990503,,,,,,,2022-01-17,1,,,,,ノウショウファーム,0
940,3290001096048,新規,0,2022-01-17,2022-01-17,株式会社Ｌｉｎｋ,,株式会社,福岡県,福岡市西区,徳永北９番２６号,,40,135,8190378,,,,,,,2022-01-17,1,,,,,リンク,0
944,3320001018840,新規,0,2022-01-17,2022-01-17,株式会社長浜自動車,,株式会社,大分県,大分市,長浜町２丁目５番９号,,44,201,8700023,,,,,,,2022-01-17,1,,,,,ナガハマジドウシャ,0
950,3330001029366,新規,0,2022-01-17,2022-01-17,株式会社わき塗装,,株式会社,熊本県,熊本市南区,八分字町２３番地９,,43,104,8615253,,,,,,,2022-01-17,1,,,,,ワキトソウ,0
965,3340005009396,新規,0,2022-01-17,2022-01-17,一般社団法人さつまスケートボード協会,,その他の設立登記法人,鹿児島県,鹿児島市,山下町１２番１２－１１１号,,46,201,8920816,,,,,,,2022-01-17,1,,,,,サツマスケートボードキョウカイ,0
969,3360001029891,新規,0,2022-01-17,2022-01-17,株式会社テラスホーム,,株式会社,沖縄県,沖縄市,与儀３丁目３番２号,,47,211,9042174,,,,,,,2022-01-17,1,,,,,テラスホーム,0
970,3360003011716,新規,0,2022-01-17,2022-01-17,ＫＡＫＫＹ　ＧＲＡＦＦＩＴＩ合同会社,,合同会社,沖縄県,浦添市,仲間２丁目４５―１２,,47,208,9012103,,,,,,,2022-01-17,1,,,,,カッキーグラフィティ,0
971,3370003005551,新規,0,2022-01-17,2022-01-17,合同会社リアチーブ,,合同会社,宮城県,石巻市,渡波字栄田１２８番地１,,04,202,9862135,,,,,,,2022-01-17,1,,,,,,0
979,3380001032489,新規,0,2022-01-17,2022-01-17,株式会社佐野電工,,株式会社,福島県,喜多方市,塩川町御殿場六丁目１５番地,,07,208,9693527,,,,,,,2022-01-17,1,,,,,サノデンコウ,0
980,3380003005088,新規,0,2022-01-17,2022-01-17,合同会社光芒,,合同会社,福島県,福島市,飯坂町平野字道添３９番地の６,,07,201,9600231,,,,,,,2022-01-17,1,,,,,コウボウ,0
981,3390001016763,新規,0,2022-01-17,2022-01-17,株式会社ソアー,,株式会社,山形県,米沢市,八幡原４丁目３１４６番地７,,06,202,9921128,,,,,,,2022-01-17,1,,,,,ソアー,0
988,3410001013072,新規,0,2022-01-17,2022-01-17,株式会社ＧＯＬＤ　ＰＩＴ,,株式会社,秋田県,大館市,比内町扇田字下扇田１２番地,,05,204,0185701,,,,,,,2022-01-17,1,,,,,ゴールドピット,0
993,3420001017700,新規,0,2022-01-17,2022-01-17,株式会社ボディスイッチ,,株式会社,青森県,弘前市,大字土手町１４２番地１,,02,202,0368182,,,,,,,2022-01-17,1,,,,,ボディスイッチ,0
998,3420003002428,新規,0,2022-01-17,2022-01-17,合同会社竜三工業,,合同会社,青森県,弘前市,大字小沢字前沢１０３番地,,02,202,0368243,,,,,,,2022-01-17,1,,,,,タツミコウギョウ,0
1002,3430001085787,新規,0,2022-01-17,2022-01-17,ＣＲＯＳＳ　ＯＶＥＲ株式会社,,株式会社,北海道,札幌市白石区,北郷九条８丁目８番３５号,,01,104,0030839,,,,,,,2022-01-17,1,,,,,クロスオーバー,0
1003,3430001085804,新規,0,2022-01-17,2022-01-17,株式会社ＤＸホールディングス,,株式会社,北海道,札幌市中央区,北一条西７丁目３番地２北一条大和田ビル２階,,01,101,0600001,,,,,,,2022-01-17,1,,,,,ディエックスホールディングス,0
1004,3430001085812,新規,0,2022-01-17,2022-01-17,株式会社空知リテール,,株式会社,北海道,美唄市,東三条南６丁目９番２３号,,01,215,0720014,,,,,,,2022-01-17,1,,,,,ソラチリテール,0
1010,3450001013589,新規,0,2022-01-17,2022-01-17,三橋農場株式会社,,株式会社,北海道,士別市,多寄町四十線東２５番地,,01,220,0980475,,,,,,,2022-01-17,1,,,,,ミツハシノウジョウ,0
1015,3470005006406,新規,0,2022-01-17,2022-01-17,一般社団法人設備工事業の魅力発信協会,,その他の設立登記法人,香川県,高松市,藤塚町１丁目２番１号三和高松ビル６階,,37,201,7600071,,,,,,,2022-01-17,1,,,,,セツビコウジギョウノミリョクハッシンキョウカイ,0
1021,3500001023946,新規,0,2022-01-17,2022-01-17,株式会社Ｙｕｋｉｙａｎａｇｉ,,株式会社,愛媛県,松山市,姫原１丁目１番２０－４号,,38,201,7918012,,,,,,,2022-01-17,1,,,,,ユキヤナギ,0
1022,3500003002758,新規,0,2022-01-17,2022-01-17,合同会社くくのて,,合同会社,愛媛県,新居浜市,多喜浜４丁目３－５３,,38,205,7920893,,,,,,,2022-01-17,1,,,,,ククノテ,0
1023,3700150106408,新規,0,2022-01-17,2021-12-27,熱帯林行動ネットワーク,,その他,東京都,渋谷区,千駄ヶ谷１丁目１３－１１ＴＨＥＦＯＲＵＭ千駄ヶ谷４階,,13,113,1510051,,,,,,,2021-12-27,1,,,,,ネツタイリンコウドウネツトワーク,0
1035,4010001223826,新規,0,2022-01-17,2022-01-17,株式会社華蓮,,株式会社,東京都,中央区,晴海３丁目１３番１－４８０２号,,13,102,1040053,,,,,,,2022-01-17,1,,,,,カレン,0
1036,4010001223850,新規,0,2022-01-17,2022-01-17,株式会社メタランド,,株式会社,東京都,中央区,新富２丁目２番１４号,,13,102,1040041,,,,,,,2022-01-17,1,,,,,メタランド,0
1037,4010003036747,新規,0,2022-01-17,2022-01-17,合同会社ぽじあす,,合同会社,東京都,中央区,日本橋人形町２丁目１番９号,,13,102,1030013,,,,,,,2022-01-17,1,,,,,ポジアス,0
1039,4010005034468,新規,0,2022-01-17,2022-01-17,一般社団法人スポーツテック・イノベーターズ・コンソーシアム,,その他の設立登記法人,東京都,中央区,日本橋室町２丁目１番１号,,13,102,1030022,,,,,,,2022-01-17,1,,,,,スポーツテックイノベーターズコンソーシアム,0
1046,4010401164892,新規,0,2022-01-17,2022-01-17,株式会社ゆらこーぽれーしょん,,株式会社,東京都,港区,三田３丁目３番８号ＴＡＭＡＷＯＯＤＹＧＡＴＥ５Ｆ,,13,103,1080073,,,,,,,2022-01-17,1,,,,,ユラコーポレーション,0
1047,4010401164901,新規,0,2022-01-17,2022-01-17,朝日デジタルテクノ株式会社,,株式会社,東京都,港区,港南４丁目６番４号,,13,103,1080075,,,,,,,2022-01-17,1,,,,,アサヒデジタルテクノ,0
1048,4010401164950,新規,0,2022-01-17,2022-01-17,華風パートナーズ株式会社,,株式会社,東京都,港区,六本木３丁目７番１－１６１３号,,13,103,1060032,,,,,,,2022-01-17,1,,,,,カフウパートナーズ,0
1049,4010401164967,新規,0,2022-01-17,2022-01-17,Ｈｏｐｅｊｅｔｓ　Ｃｏｎｓｕｌｔｉｎｇ　Ｊａｐａｎ株式会社,,株式会社,東京都,港区,三田１丁目３番４０号９階,,13,103,1080073,,,,,,,2022-01-17,1,,,,,ホープジェッツコンサルティングジャパン,0
1052,4010403026884,新規,0,2022-01-17,2022-01-17,合同会社ライフ＆ネクスト,,合同会社,東京都,港区,虎ノ門３丁目１４番地９－４０１号,,13,103,1050001,,,,,,,2022-01-17,1,,,,,ライフアンドネクスト,0
1054,4010405020596,新規,0,2022-01-17,2022-01-17,ＪＭスピカ一般社団法人,,その他の設立登記法人,東京都,港区,虎ノ門４丁目３番１号城山トラストタワー２７階ＳａｎｎｅＧｒｏｕｐＪａｐａｎ株式会社内,,13,103,1050001,,,,,,,2022-01-17,1,,,,,ジェイエムスピカ,0
1055,4010501048327,新規,0,2022-01-17,2022-01-17,株式会社ＨＩＣＫＹ,,株式会社,東京都,台東区,上野６丁目８番１９号,,13,106,1100005,,,,,,,2022-01-17,1,,,,,ヒッキー,0
1064,4010901050155,新規,0,2022-01-17,2022-01-17,株式会社ＴＨＥ　ＳＵＮ,,株式会社,東京都,世田谷区,玉川２丁目２４番２４号セゾン玉川３Ｆ,,13,112,1580094,,,,,,,2022-01-17,1,,,,,ザサン,0
1065,4010903007079,新規,0,2022-01-17,2022-01-17,ＡＶＥＣ合同会社,,合同会社,東京都,世田谷区,若林５丁目１９番８号,,13,112,1540023,,,,,,,2022-01-17,1,,,,,アベック,0
1072,4011001145077,新規,0,2022-01-17,2022-01-17,株式会社ＭＪネクスト,,株式会社,東京都,渋谷区,渋谷１丁目３番１８号Ｃ３００,,13,113,1500002,,,,,,,2022-01-17,1,,,,,エムジェイネクスト,0
1081,4011201023545,新規,0,2022-01-17,2022-01-17,株式会社ラクーンドッグ,,株式会社,東京都,中野区,本町１丁目１３番１８号,,13,114,1640012,,,,,,,2022-01-17,1,,,,,ラクーンドッグ,0
1082,4011301027487,新規,0,2022-01-17,2022-01-17,株式会社夢見創,,株式会社,東京都,杉並区,和泉１丁目１－１２もり田マンション１－Ｂ,,13,115,1680063,,,,,,,2022-01-17,1,,,,,ユメミソウ,0
1089,4011503005035,新規,0,2022-01-17,2022-01-17,合同会社ＴＡエンジニアリング,,合同会社,東京都,北区,赤羽北３丁目２６番５－４１６号,,13,117,1150052,,,,,,,2022-01-17,1,,,,,ティーエーエンジニアリング,0
1091,4011603003500,新規,0,2022-01-17,2022-01-17,ネットアクシス合同会社,,合同会社,東京都,練馬区,練馬４丁目２４番１９号１０２号室,,13,120,1760001,,,,,,,2022-01-17,1,,,,,ネットアクシス,0
1092,4011701024976,新規,0,2022-01-17,2022-01-17,株式会社ＥＮ,,株式会社,東京都,江戸川区,北小岩２丁目１０番１号東洋ビル６階,,13,123,1330051,,,,,,,2022-01-17,1,,,,,エン,0
1096,4012701016889,新規,0,2022-01-17,2022-01-17,株式会社Ｒｕｆ,,株式会社,東京都,西東京市,ひばりが丘北４丁目８－２７,,13,229,2020002,,,,,,,2022-01-17,1,,,,,ルフ,0
1099,4013301048554,新規,0,2022-01-17,2022-01-17,株式会社レストラボ,,株式会社,東京都,豊島区,東池袋１丁目３１番１３号,,13,116,1700013,,,,,,,2022-01-17,1,,,,,レストラボ,0
1100,4013303005990,新規,0,2022-01-17,2022-01-17,合同会社ＴＮＫ,,合同会社,東京都,豊島区,西池袋２丁目３９－８ローズベイ池袋ビル８０１,,13,116,1710021,,,,,,,2022-01-17,1,,,,,ティーエヌケー,0
1104,4020001144716,新規,0,2022-01-17,2022-01-17,Ｆｕｎｎｙｕｐ株式会社,,株式会社,神奈川県,横浜市中区,西竹之丸１１３番地１プラウド横濱山手１０７号室,,14,104,2310852,,,,,,,2022-01-17,1,,,,,ファニーアップ,0
1105,4020001144724,新規,0,2022-01-17,2022-01-17,株式会社日向総業,,株式会社,神奈川県,横浜市都筑区,荏田南１丁目６番２号,,14,118,2240007,,,,,,,2022-01-17,1,,,,,ヒナタソウギョウ,0
1106,4020001144773,新規,0,2022-01-17,2022-01-17,株式会社月詠,,株式会社,神奈川県,横浜市青葉区,美しが丘４丁目３２番地１６カーサ多摩ビバリーヒルズ１０１,,14,117,2250002,,,,,,,2022-01-17,1,,,,,ツクヨミ,0
1107,4020001144798,新規,0,2022-01-17,2022-01-17,株式会社ＹＯＫＯＨＡＭＡ　ＣＲＡＦＴ,,株式会社,神奈川県,横浜市神奈川区,栄町３番地１５クレストフォルム横浜ポートサイド２０３号,,14,102,2210052,,,,,,,2022-01-17,1,,,,,ヨコハマクラフト,0
1108,4020001144807,新規,0,2022-01-17,2022-01-17,アプリソーシング株式会社,,株式会社,神奈川県,横浜市鶴見区,尻手１丁目１番１６－Ｇ９３０号,,14,101,2300003,,,,,,,2022-01-17,1,,,,,アプリソーシング,0
1109,4020001144815,新規,0,2022-01-17,2022-01-17,株式会社ＢＡＳＥ,,株式会社,神奈川県,横浜市磯子区,丸山１丁目６番６号,,14,107,2350011,,,,,,,2022-01-17,1,,,,,ベース,0
1110,4020003021145,新規,0,2022-01-17,2022-01-17,合同会社ＬＩＬＡＷＡＹ,,合同会社,神奈川県,横浜市旭区,中沢３丁目４１番１０号,,14,112,2410814,,,,,,,2022-01-17,1,,,,,リラウェイ,0
1112,4021001074969,新規,0,2022-01-17,2022-01-17,リジェネレイション９株式会社,,株式会社,神奈川県,藤沢市,長後９２４－１３,,14,205,2520801,,,,,,,2022-01-17,1,,,,,リジェネレイションナイン,0
1113,4021001074977,新規,0,2022-01-17,2022-01-17,株式会社ワイズマン,,株式会社,神奈川県,茅ヶ崎市,本村５丁目７番５号,,14,207,2530042,,,,,,,2022-01-17,1,,,,,ワイズマン,0
1117,4021003011284,新規,0,2022-01-17,2022-01-17,合同会社金魚鉢,,合同会社,神奈川県,厚木市,関口３５番地２５,,14,212,2430804,,,,,,,2022-01-17,1,,,,,キンギョバチ,0
1121,4030001146356,新規,0,2022-01-17,2022-01-17,株式会社広域,,株式会社,埼玉県,比企郡吉見町,大字南吉見１７０９番地１０,,11,347,3550154,,,,,,,2022-01-17,1,,,,,コウイキ,0
1122,4030001146380,新規,0,2022-01-17,2022-01-17,株式会社ＦＥＮＮＥＬ,,株式会社,埼玉県,さいたま市岩槻区,大字釣上３８５番地１,,11,110,3390024,,,,,,,2022-01-17,1,,,,,フェンネル,0
1125,4030003018669,新規,0,2022-01-17,2022-01-17,合同会社ネクスト,,合同会社,埼玉県,さいたま市大宮区,土手町２丁目１－１,,11,103,3300801,,,,,,,2022-01-17,1,,,,,ネクスト,0
1131,4040001121688,新規,0,2022-01-17,2022-01-17,株式会社陽和アドバンス,,株式会社,千葉県,市原市,惣社３丁目６番地１７スマイルハウスＣ棟,,12,219,2900023,,,,,,,2022-01-17,1,,,,,ヨウワアドバンス,0
1132,4040001121812,新規,0,2022-01-17,2022-01-17,株式会社ＲＵＤＤＥＲＳ,,株式会社,千葉県,千葉市美浜区,打瀬１丁目１１番地１,,12,106,2610013,,,,,,,2022-01-17,1,,,,,ラダーズ,0
1138,4040003019311,新規,0,2022-01-17,2022-01-17,合同会社Ｃａｎｄｙ　ｓｏｌｅｉｌ,,合同会社,千葉県,習志野市,津田沼７丁目１３番１５－４０６号,,12,216,2750016,,,,,,,2022-01-17,1,,,,,キャンディソレイユ,0
1139,4040005021488,新規,0,2022-01-17,2022-01-17,一般社団法人いきいきライフ協会千葉中央,,その他の設立登記法人,千葉県,千葉市中央区,新宿２丁目８番１号,,12,101,2600021,,,,,,,2022-01-17,1,,,,,,0
1142,4050001050465,新規,0,2022-01-17,2022-01-17,株式会社Ｌｉｅｎ,,株式会社,茨城県,水戸市,袴塚１丁目４番１０号鈴木ビル１Ｆ,,08,201,3100055,,,,,,,2022-01-17,1,,,,,リアン,0
1145,4060001034475,新規,0,2022-01-17,2022-01-17,京塗美建株式会社,,株式会社,栃木県,足利市,中川町３６０６番地１,,09,202,3260825,,,,,,,2022-01-17,1,,,,,キョウトビケン,0
1146,4060001034483,新規,0,2022-01-17,2022-01-17,株式会社オクトパス,,株式会社,栃木県,宇都宮市,鶴田町２８７９番地１,,09,201,3200851,,,,,,,2022-01-17,1,,,,,オクトパス,0
1150,4070001038839,新規,0,2022-01-17,2022-01-17,株式会社ノッティングヒル,,株式会社,群馬県,桐生市,本町２丁目８－２６,,10,203,3760031,,,,,,,2022-01-17,1,,,,,ノッティングヒル,0
1151,4070001038847,新規,0,2022-01-17,2022-01-17,株式会社ＴＥＣＨＮＩＣＡＬ　ＧＴ,,株式会社,群馬県,伊勢崎市,田中島町１４８２番地３ツイングランデＡ１０２,,10,204,3720802,,,,,,,2022-01-17,1,,,,,テクニカルジーティー,0
1152,4070003004351,新規,0,2022-01-17,2022-01-17,ディージェンス合同会社,,合同会社,群馬県,伊勢崎市,日乃出町４９２番地５パールテールエム１０１,,10,204,3720022,,,,,,,2022-01-17,1,,,,,ディージェンス,0
1155,4080001024689,新規,0,2022-01-17,2022-01-17,株式会社東海ソリューションズ,,株式会社,静岡県,静岡市清水区,草薙１３２番地の１４,,22,103,4240886,,,,,,,2022-01-17,1,,,,,トウカイソリューションズ,0
1156,4080003002718,新規,0,2022-01-17,2022-01-17,合同会社Ｓａｇｅｓｓｅ　Ｂｉｊｏｕｘ,,合同会社,静岡県,静岡市葵区,瀬名中央４丁目１番１８号,,22,101,4200916,,,,,,,2022-01-17,1,,,,,サジェスビジュー,0
1158,4080401025576,新規,0,2022-01-17,2022-01-17,Ｐ－ｔｅｃｈ株式会社,,株式会社,静岡県,袋井市,上山梨２３１番地,,22,216,4370125,,,,,,,2022-01-17,1,,,,,ピーテック,0
1160,4080405007422,新規,0,2022-01-17,2022-01-17,静岡キャリア形成支援協同組合,,その他の設立登記法人,静岡県,浜松市東区,篠ケ瀬町１２５６番地の３,,22,132,4350042,,,,,,,2022-01-17,1,,,,,シズオカキャリアケイセイシエン,0
1169,4120001243053,新規,0,2022-01-17,2022-01-17,株式会社ロレインブロウ,,株式会社,大阪府,大阪市東成区,東小橋１丁目９番１５号ＭＳビル５０１,,27,115,5370024,,,,,,,2022-01-17,1,,,,,ロレインブロウ,0
1170,4120001243061,新規,0,2022-01-17,2022-01-17,株式会社みらい技建,,株式会社,大阪府,大阪市淀川区,西三国３丁目１９番１２号,,27,123,5320006,,,,,,,2022-01-17,1,,,,,ミライギケン,0
1171,4120001243078,新規,0,2022-01-17,2022-01-17,株式会社Ｂｉ－ｅｎ．,,株式会社,大阪府,大阪市北区,梅田２丁目２－２ヒルトンプラザウエストオフィスタワー１９階,,27,127,5300001,,,,,,,2022-01-17,1,,,,,ビエン,0
1172,4120001243136,新規,0,2022-01-17,2022-01-17,株式会社パピヨン,,株式会社,大阪府,大阪市北区,豊崎３丁目１５番５号ＴＫビル,,27,127,5310072,,,,,,,2022-01-17,1,,,,,パピヨン,0
1173,4120001243177,新規,0,2022-01-17,2022-01-17,ぱぴふる株式会社,,株式会社,大阪府,大阪市西区,南堀江２丁目１番３－７０９号,,27,106,5500015,,,,,,,2022-01-17,1,,,,,パピフル,0
1174,4120001243185,新規,0,2022-01-17,2022-01-17,チエノワーク株式会社,,株式会社,大阪府,大阪市中央区,南船場４丁目７番２１－７０１号,,27,128,5420081,,,,,,,2022-01-17,1,,,,,チエノワーク,0
1175,4120001243193,新規,0,2022-01-17,2022-01-17,株式会社志,,株式会社,大阪府,大阪市浪速区,元町３丁目１０番２０号,,27,111,5560016,,,,,,,2022-01-17,1,,,,,シン,0
1176,4120001243219,新規,0,2022-01-17,2022-01-17,Ｂｌｕｅ　Ｌａｎｇｕａｇｅ　Ｓｏｌｕｔｉｏｎｓ株式会社,,株式会社,大阪府,大阪市中央区,谷町５丁目６－１２新野村ビル３Ｆ,,27,128,5400012,,,,,,,2022-01-17,1,,,,,ブルーランゲージソリューションズ,0
1177,4120001243227,新規,0,2022-01-17,2022-01-17,梢不動産株式会社,,株式会社,大阪府,大阪市中央区,南船場４丁目１０番５号南船場ＳＯＨＯビル７０２,,27,128,5420081,,,,,,,2022-01-17,1,,,,,コズエフドウサン,0
1179,4120003020946,新規,0,2022-01-17,2022-01-17,合同会社わみぃ,,合同会社,大阪府,大阪市都島区,内代町３丁目１番２３号,,27,102,5340013,,,,,,,2022-01-17,1,,,,,ワミィ,0
1183,4120101064936,新規,0,2022-01-17,2022-01-17,株式会社ＦＵＪＩＥＤＡ,,株式会社,大阪府,富田林市,藤沢台５丁目６番９号,,27,214,5840071,,,,,,,2022-01-17,1,,,,,フジエダ,0
1184,4120101064960,新規,0,2022-01-17,2022-01-17,株式会社クリークフォレスト,,株式会社,大阪府,大阪狭山市,茱萸木５丁目５０７番地の１,,27,231,5890013,,,,,,,2022-01-17,1,,,,,クリークフォレスト,0
1186,4120901045466,新規,0,2022-01-17,2022-01-17,デルタテクノ株式会社,,株式会社,大阪府,箕面市,桜２丁目７番２３－２０７号,,27,220,5620041,,,,,,,2022-01-17,1,,,,,デルタテクノ,0
1189,4120903003983,新規,0,2022-01-17,2022-01-17,原田北摂会計合同会社,,合同会社,大阪府,高槻市,北昭和台町５番８号,,27,207,5690816,,,,,,,2022-01-17,1,,,,,ハラダホクセツカイケイ,0
1203,4130001070926,新規,0,2022-01-17,2022-01-17,株式会社ＯＢＡＴＡ,,株式会社,京都府,京都市左京区,松ケ崎三反長町５番地４,,26,103,6060916,,,,,,,2022-01-17,1,,,,,オバタ,0
1204,4130001070934,新規,0,2022-01-17,2022-01-17,株式会社訓電,,株式会社,京都府,京都市南区,久世大藪町４０７番地２メゾンドール１０３,,26,107,6010000,,,,,,,2022-01-17,1,,,,,クニデン,0
1205,4130001070942,新規,0,2022-01-17,2022-01-17,ＡＬＬ株式会社,,株式会社,京都府,京都市西京区,樫原大亀谷１９番地６,,26,111,6158155,,,,,,,2022-01-17,1,,,,,オール,0
1206,4130003007694,新規,0,2022-01-17,2022-01-17,合同会社Ｈｉｇｈ　Ｂｒｉｄｇｅ,,合同会社,京都府,京都市中京区,河原町通三条下る大黒町７１番地８階,,26,104,6048031,,,,,,,2022-01-17,1,,,,,ハイブリッジ,0
1207,4130005016363,新規,0,2022-01-17,2022-01-17,一般社団法人オン．プロジェクト,,その他の設立登記法人,京都府,京都市右京区,嵯峨天龍寺広道町５番地２,,26,108,6168372,,,,,,,2022-01-17,1,,,,,オンプロジェクト,0
1212,4140001124524,新規,0,2022-01-17,2022-01-17,株式会社ウーマンズヴォイス,,株式会社,兵庫県,芦屋市,東山町２４番３５号,,28,206,6590091,,,,,,,2022-01-17,1,,,,,ウーマンズヴォイス,0
1213,4140001124532,新規,0,2022-01-17,2022-01-17,株式会社ｓａｌｏｎ　ｄｅ　ｐｌａｉｓａｎｔ,,株式会社,兵庫県,姫路市,勝原区朝日谷１７３番地５,,28,201,6711204,,,,,,,2022-01-17,1,,,,,サロンドプレゾン,0
1214,4140001124557,新規,0,2022-01-17,2022-01-17,株式会社一乃樹園,,株式会社,兵庫県,三木市,吉川町冨岡８４４番地の２,,28,215,6731102,,,,,,,2022-01-17,1,,,,,イチノジュエン,0
1215,4140001124565,新規,0,2022-01-17,2022-01-17,株式会社Ｍｏｔｉｖａｔｅ,,株式会社,兵庫県,神戸市北区,南五葉３丁目７番６号,,28,109,6511132,,,,,,,2022-01-17,1,,,,,モチベート,0
1216,4140001124581,新規,0,2022-01-17,2022-01-17,株式会社アップロードホールディングス,,株式会社,兵庫県,神戸市須磨区,清水台１番地の９アルテピアＩＩＩ番街２－２１５号,00125414,28,107,6540123,,,,,,,2022-01-17,1,,,,,アップロードホールディングス,0
1219,4140003017214,新規,0,2022-01-17,2022-01-17,合同会社Ｔ＆Ｆ,,合同会社,兵庫県,伊丹市,南本町６丁目４番７－４０９号,,28,207,6640852,,,,,,,2022-01-17,1,,,,,ティーアンドエフ,0
1220,4140003017222,新規,0,2022-01-17,2022-01-17,合同会社Ｋａｒｉｋｏ　Ｓｔｙｌｅ,,合同会社,兵庫県,南あわじ市,津井１４１０,,28,224,6560341,,,,,,,2022-01-17,1,,,,,カリコスタイル,0
1221,4140003017239,新規,0,2022-01-17,2022-01-17,合同会社Ｍａｈａｌｏ・Ｃｈｉ,,合同会社,兵庫県,尼崎市,東七松町１丁目１０番１号,,28,202,6600051,,,,,,,2022-01-17,1,,,,,マハロチ,0
1225,4150001025242,新規,0,2022-01-17,2022-01-17,株式会社Ｓｔａｒｒｉｎｇ,,株式会社,奈良県,北葛城郡河合町,大字大輪田６０８番地２,,29,427,6360093,,,,,,,2022-01-17,1,,,,,スターリング,0
1228,4160001023947,新規,0,2022-01-17,2022-01-17,株式会社Ｎｅｓｔ,,株式会社,滋賀県,草津市,西大路町１０番１０－Ｂ２００４号,,25,206,5250037,,,,,,,2022-01-17,1,,,,,ネスト,0
1240,4180001149501,新規,0,2022-01-17,2022-01-17,株式会社８８８,,株式会社,愛知県,名古屋市熱田区,六番３丁目１２－２４,,23,109,4560058,,,,,,,2022-01-17,1,,,,,トリプルエイト,0
1241,4180001149518,新規,0,2022-01-17,2022-01-17,株式会社フォレストリバー,,株式会社,愛知県,名古屋市千種区,内山２丁目１２番２０号,,23,101,4640075,,,,,,,2022-01-17,1,,,,,フォレストリバー,0
1242,4180001149526,新規,0,2022-01-17,2022-01-17,株式会社ぼく,,株式会社,愛知県,名古屋市千種区,内山１丁目２３番１８号,,23,101,4640075,,,,,,,2022-01-17,1,,,,,ボク,0
1243,4180001149575,新規,0,2022-01-17,2022-01-17,株式会社ＫＢＣ　Ｃｏｒｐｏｒａｔｉｏｎ,,株式会社,愛知県,日進市,赤池２丁目１０３－１,,23,230,4700125,,,,,,,2022-01-17,1,,,,,ケービーシーコーポレーション,0
1244,4180001149609,新規,0,2022-01-17,2022-01-17,ジェイエストライ株式会社,,株式会社,愛知県,名古屋市中村区,名駅３丁目３番２号,,23,105,4500002,,,,,,,2022-01-17,1,,,,,ジェイエストライ,0
1246,4180003023365,新規,0,2022-01-17,2022-01-17,ＫＡＶＡＬＩＮ合同会社,,合同会社,愛知県,名古屋市中村区,名駅４丁目１６番２４号名駅前東海ビル２Ｆ２０７Ｂ号室,,23,105,4500002,,,,,,,2022-01-17,1,,,,,ゲバリン,0
1247,4180003023373,新規,0,2022-01-17,2022-01-17,ＬＵＡＮＡ合同会社,,合同会社,愛知県,瀬戸市,川西町１丁目１１０番地,,23,204,4890926,,,,,,,2022-01-17,1,,,,,ルアナ,0
1249,4180303005229,新規,0,2022-01-17,2022-01-17,合同会社ピーストーン,,合同会社,愛知県,岡崎市,昭和町字神郷３６番地,,23,202,4440938,,,,,,,2022-01-17,1,,,,,ピーストーン,0
1252,4200001039658,新規,0,2022-01-17,2022-01-17,成明株式会社,,株式会社,岐阜県,岐阜市,西中島５丁目９番６－６１２号,,21,201,5020916,,,,,,,2022-01-17,1,,,,,ナリアキ,0
1254,4200003005427,新規,0,2022-01-17,2022-01-17,モアラウド合同会社,,合同会社,岐阜県,岐阜市,則武２６２－５,,21,201,5020931,,,,,,,2022-01-17,1,,,,,モアラウド,0
1256,4210001018768,新規,0,2022-01-17,2022-01-17,アカリ美株式会社,,株式会社,福井県,福井市,光陽２丁目２５番４５号,,18,201,9100026,,,,,,,2022-01-17,1,,,,,アカリビ,0
1261,4240001059198,新規,0,2022-01-17,2022-01-17,愛和ライフコンサルティング株式会社,,株式会社,広島県,広島市東区,矢賀１丁目９－１０－５０３号,,34,102,7320042,,,,,,,2022-01-17,1,,,,,アイワライフコンサルティング,0
1273,4260001036419,新規,0,2022-01-17,2022-01-17,株式会社Ｃｏｎｎｅｃｔ,,株式会社,岡山県,岡山市北区,駅元町７－９,,33,101,7000024,,,,,,,2022-01-17,1,,,,,コネクト,0
1274,4260001036443,新規,0,2022-01-17,2022-01-17,株式会社Ｗａｉｓｔｌｉｎｅ　Ｇｒｏｕｐ,,株式会社,岡山県,岡山市北区,弓之町１７番３５号,,33,101,7000817,,,,,,,2022-01-17,1,,,,,ウエストライングループ,0
1277,4260003003763,新規,0,2022-01-17,2022-01-17,合同会社ｏｌｉ,,合同会社,岡山県,津山市,山北７９６番地１コーポ山北２Ｆ２０５号室,,33,203,7080004,,,,,,,2022-01-17,1,,,,,オリ,0
1281,4280001008589,新規,0,2022-01-17,2022-01-17,株式会社インフルエンス・プロトコル,,株式会社,島根県,出雲市,野尻町７３１,,32,203,6930103,,,,,,,2022-01-17,1,,,,,インフルエンスプロトコル,0
1290,4290001096047,新規,0,2022-01-17,2022-01-17,株式会社Ｃｈａｍｏ,,株式会社,福岡県,福岡市南区,曰佐２丁目２６番１０号,,40,134,8111313,,,,,,,2022-01-17,1,,,,,チャモ,0
1291,4290001096071,新規,0,2022-01-17,2022-01-17,Ｌｏｏｐ株式会社,,株式会社,福岡県,福岡市東区,松田３丁目４番２８号,,40,131,8120064,,,,,,,2022-01-17,1,,,,,ループ,0
1296,4290005018526,新規,0,2022-01-17,2022-01-17,一般社団法人Ｍａｉｓｏｎ　Ｔｒｉｎｉｔｙ,,その他の設立登記法人,福岡県,飯塚市,片島３丁目１６番４０号,,40,205,8200068,,,,,,,2022-01-17,1,,,,,メゾントリニティ,0
1305,4310001017677,新規,0,2022-01-17,2022-01-17,株式会社大福,,株式会社,長崎県,諫早市,宇都町２３６番地７９,,42,204,8540061,,,,,,,2022-01-17,1,,,,,ダイフク,0
1329,4360001029890,新規,0,2022-01-17,2022-01-17,ＳＦＩＤＡ株式会社,,株式会社,沖縄県,浦添市,大平２丁目１９番７号,,47,208,9012113,,,,,,,2022-01-17,1,,,,,スフィーダ,0
1330,4360001029899,新規,0,2022-01-17,2022-01-17,株式会社ミナミ,,株式会社,沖縄県,島尻郡南風原町,字宮平６６３番地４栄廣マンション３０１,,47,350,9011104,,,,,,,2022-01-17,1,,,,,ミナミ,0
1334,4370001048072,新規,0,2022-01-17,2022-01-17,株式会社エフ・ジー・エヌ,,株式会社,宮城県,仙台市青葉区,本町１丁目５番２８号,,04,101,9800014,,,,,,,2022-01-17,1,,,,,,0
1369,4430001085778,新規,0,2022-01-17,2022-01-17,株式会社Ｈｉｖｉｋｉ,,株式会社,北海道,苫小牧市,もえぎ町１丁目１番４号,,01,213,0591274,,,,,,,2022-01-17,1,,,,,ヒビキ,0
1370,4430001085811,新規,0,2022-01-17,2022-01-17,株式会社環状リテール,,株式会社,北海道,札幌市北区,篠路七条４丁目２番２２号,,01,102,0028027,,,,,,,2022-01-17,1,,,,,カンジョウリテール,0
1373,4430003013530,新規,0,2022-01-17,2022-01-17,合同会社ＳｔｒａｔｅｇｙＬａｂ,,合同会社,北海道,札幌市豊平区,月寒東五条１５丁目５－１ＢＡＮＦＦ２１０,,01,105,0620055,,,,,,,2022-01-17,1,,,,,ストラテジーラボ,0
1374,4430003013539,新規,0,2022-01-17,2022-01-17,合同会社ＺｅｎＰｒｏｄｕｃｔｉｏｎ,,合同会社,北海道,札幌市北区,新川二条１２丁目３番１０号,,01,102,0010922,,,,,,,2022-01-17,1,,,,,ゼンプロダクション,0
1380,4470001018908,新規,0,2022-01-17,2022-01-17,フルカワホールディングス株式会社,,株式会社,香川県,坂出市,府中町７０９番地１,,37,203,7620024,,,,,,,2022-01-17,1,,,,,フルカワホールディングス,0
1404,4700150106687,新規,0,2022-01-17,2022-01-17,ＣＥＹＬＯＮ　ＷＥＥＬＳ　ＩＮＴＥＲＮＡＴＩＯＮＡＬ　ＰＶＴ　ＬＴＤ,,外国会社等,千葉県,市原市,江子田３０７番地１４４－Ｂ,,12,219,2900508,スリランカ民主社会主義共和国、アクラナ、クルゴダ、８７－Ａ,,,,,,2022-01-17,1,,,,,セイロンウイールスインターナシヨナルプライベートリミテツド,0
1411,5010001223767,新規,0,2022-01-17,2022-01-17,川崎集団株式会社,,株式会社,東京都,中央区,東日本橋２丁目２８番５号５０８,,13,102,1030004,,,,,,,2022-01-17,1,,,,,カワサキシュウダン,0
1412,5010001223783,新規,0,2022-01-17,2022-01-17,株式会社Ｋ　ＢＥＡＵＴＹ,,株式会社,東京都,中央区,銀座７丁目１０番１０号,,13,102,1040061,,,,,,,2022-01-17,1,,,,,ケイビューティー,0
1413,5010001223825,新規,0,2022-01-17,2022-01-17,株式会社ＭＢＣ,,株式会社,東京都,中央区,八重洲１丁目８番１７号新槇町ビル６階,,13,102,1030028,,,,,,,2022-01-17,1,,,,,エムビーシー,0
1414,5010001223841,新規,0,2022-01-17,2022-01-17,株式会社ＨＩＫＡＲＩＥ,,株式会社,東京都,中央区,銀座１丁目１２番４号Ｎ＆Ｅ・ＢＬＤ．７階,,13,102,1040061,,,,,,,2022-01-17,1,,,,,ヒカリエ,0
1415,5010001223866,新規,0,2022-01-17,2022-01-17,株式会社Ｖ＆Ｍ,,株式会社,東京都,文京区,本郷１丁目２１番７号,,13,105,1130033,,,,,,,2022-01-17,1,,,,,ブイアンドエム,0
1418,5010003036721,新規,0,2022-01-17,2022-01-17,ＬＦプロパティＩＩ合同会社,,合同会社,東京都,千代田区,丸の内３丁目１番１号東京共同会計事務所内,,13,101,1000005,,,,,,,2022-01-17,1,,,,,エルエフプロパティツー,0
1421,5010005034467,新規,0,2022-01-17,2022-01-17,一般社団法人銀河第２号,,その他の設立登記法人,東京都,中央区,日本橋１丁目４番１号日本橋一丁目ビルディング,,13,102,1030027,,,,,,,2022-01-17,1,,,,,ギンガダイニゴウ,0
1422,5010101015024,新規,0,2022-01-17,2022-01-17,株式会社ＰＯＮＳ,,株式会社,東京都,八王子市,東浅川町５４９－６プレミスト高尾サクラシティ７２８,,13,201,1930834,,,,,,,2022-01-17,1,,,,,ポンズ,0
1426,5010401164850,新規,0,2022-01-17,2022-01-17,株式会社センチ,,株式会社,東京都,港区,虎ノ門３丁目２２番７号,,13,103,1050001,,,,,,,2022-01-17,1,,,,,センチ,0
1427,5010401164900,新規,0,2022-01-17,2022-01-17,株式会社Ｕ．Ｂｒａｎｄｉｎｇ,,株式会社,東京都,港区,浜松町２丁目２番１５号浜松町ダイヤビル２Ｆ,,13,103,1050013,,,,,,,2022-01-17,1,,,,,ユーブランディング,0
1428,5010401164941,新規,0,2022-01-17,2022-01-17,株式会社フューチャークリエイティブエージェンシー,,株式会社,東京都,港区,赤坂６丁目５番３８号,,13,103,1070052,,,,,,,2022-01-17,1,,,,,フューチャークリエイティブエージェンシー,0
1429,5010401164966,新規,0,2022-01-17,2022-01-17,株式会社Ｃｌｉｅｎｔｅｌｉｎｇ　Ａｄｖｉｓｏｒｙ,,株式会社,東京都,港区,北青山２丁目７番２０号猪瀬ビル２Ｆ,,13,103,1070061,,,,,,,2022-01-17,1,,,,,クライアンテリングアドバイザリー,0
1431,5010403026883,新規,0,2022-01-17,2022-01-17,プラットホームアイ合同会社,,合同会社,東京都,港区,六本木２丁目２－２イトーピア六本木４０４,,13,103,1060032,,,,,,,2022-01-17,1,,,,,プラットホームアイ,0
1432,5010405020595,新規,0,2022-01-17,2022-01-17,Ｋｏｉ　Ｒｅａｌ　Ｅｓｔａｔｅ特定目的会社,,その他の設立登記法人,東京都,港区,虎ノ門３丁目２２番１０－２０１号,,13,103,1050001,,,,,,,2022-01-17,1,,,,,コイリアルエステート,0
1444,5010901050138,新規,0,2022-01-17,2022-01-17,株式会社エコル,,株式会社,東京都,世田谷区,東玉川２丁目１４番４号,,13,112,1580084,,,,,,,2022-01-17,1,,,,,エコル,0
1445,5010901050170,新規,0,2022-01-17,2022-01-17,株式会社常勝,,株式会社,東京都,世田谷区,代沢５丁目３０番４号,,13,112,1550032,,,,,,,2022-01-17,1,,,,,ジョウショウ,0
1448,5011001144879,新規,0,2022-01-17,2022-01-17,株式会社Ｍ．ｈｏｐｅ,,株式会社,東京都,渋谷区,本町１丁目２２番５－３０１号,,13,113,1510071,,,,,,,2022-01-17,1,,,,,エムホープ,0
1449,5011001145076,新規,0,2022-01-17,2022-01-17,株式会社Ｌｅ　Ｃｈｅｒｉｓｓ．,,株式会社,東京都,渋谷区,桜丘町１７番１０号ＭＣＤビル３階,,13,113,1500031,,,,,,,2022-01-17,1,,,,,ルシェリス,0
1450,5011001145101,新規,0,2022-01-17,2022-01-17,成田フードコンサルティング株式会社,,株式会社,東京都,目黒区,大橋２丁目２２番１８号,,13,110,1530044,,,,,,,2022-01-17,1,,,,,ナリタフードコンサルティング,0
1451,5011003013958,新規,0,2022-01-17,2022-01-17,Ａｌｉｖｅ　Ｊａｐａｎ合同会社,,合同会社,東京都,渋谷区,渋谷２丁目１９番１５号宮益坂ビルディング６０９,,13,113,1500002,,,,,,,2022-01-17,1,,,,,アライブジャパン,0
1454,5011101097481,新規,0,2022-01-17,2022-01-17,株式会社ｓａｎ,,株式会社,東京都,新宿区,西新宿３丁目３番１３号西新宿水間ビル６階,,13,104,1600023,,,,,,,2022-01-17,1,,,,,サン,0
1462,5011303004277,新規,0,2022-01-17,2022-01-17,合同会社西村公認会計士事務所,,合同会社,東京都,杉並区,上井草３丁目２４番３０号,,13,115,1670023,,,,,,,2022-01-17,1,,,,,ニシムラコウニンカイケイシジムショ,0
1467,5011701024975,新規,0,2022-01-17,2022-01-17,株式会社マナトラックキャンパス,,株式会社,東京都,江戸川区,南小岩２丁目１１番１５号,,13,123,1330056,,,,,,,2022-01-17,1,,,,,マナトラックキャンパス,0
1468,5011801040195,新規,0,2022-01-17,2022-01-17,雄碧興業株式会社,,株式会社,東京都,足立区,舎人３丁目４番１３号,,13,121,1210831,,,,,,,2022-01-17,1,,,,,ユウアイコウギョウ,0
1475,5012701016888,新規,0,2022-01-17,2022-01-17,株式会社エステック,,株式会社,東京都,西東京市,新町４丁目１番３－３０３号,,13,229,2020023,,,,,,,2022-01-17,1,,,,,,0
1477,5012801021334,新規,0,2022-01-17,2022-01-17,株式会社いぶき,,株式会社,東京都,日野市,多摩平２丁目３－１３三升ビルＢ１Ｆ,,13,212,1910062,,,,,,,2022-01-17,1,,,,,イブキ,0
1478,5012803002679,新規,0,2022-01-17,2022-01-17,合同会社阿久津総業,,合同会社,東京都,立川市,幸町２丁目３３番地の１３桜参番館１０１号,,13,202,1900002,,,,,,,2022-01-17,1,,,,,アクツソウギョウ,0
1485,5013303005973,新規,0,2022-01-17,2022-01-17,ディ・ユーズマニュファクチャー合同会社,,合同会社,東京都,豊島区,高田２丁目１１番１９号リエス目白宿坂３０３号,,13,116,1710033,,,,,,,2022-01-17,1,,,,,ディユーズマニュファクチャー,0
1487,5020001144764,新規,0,2022-01-17,2022-01-17,株式会社インパクト,,株式会社,神奈川県,横浜市港南区,上大岡西２丁目９－１４プラザ京神ビル,,14,111,2330002,,,,,,,2022-01-17,1,,,,,インパクト,0
1488,5020001144780,新規,0,2022-01-17,2022-01-17,Ｔｈｒｅｅ－１株式会社,,株式会社,神奈川県,川崎市川崎区,浜町１丁目２２番３－３０４サクセス,,14,131,2100851,,,,,,,2022-01-17,1,,,,,スリーワン,0
1489,5020001144789,新規,0,2022-01-17,2022-01-17,株式会社ＡＢＸ,,株式会社,神奈川県,横浜市保土ケ谷区,仏向町９２番地,,14,106,2400044,,,,,,,2022-01-17,1,,,,,エイビイエックス,0
1490,5020001144806,新規,0,2022-01-17,2022-01-17,株式会社吉田園,,株式会社,神奈川県,横浜市港北区,新羽町４０６３番地,,14,109,2230057,,,,,,,2022-01-17,1,,,,,ヨシダエン,0
1491,5020001144814,新規,0,2022-01-17,2022-01-17,株式会社ｏｖｅｒ　ｏａｒ,,株式会社,神奈川県,横浜市戸塚区,戸塚町３５７６番地,,14,110,2440003,,,,,,,2022-01-17,1,,,,,,0
1492,5020003021144,新規,0,2022-01-17,2022-01-17,合同会社ノルージュ,,合同会社,神奈川県,横浜市青葉区,鉄町１３１４番地８,,14,117,2250025,,,,,,,2022-01-17,1,,,,,ノルージュ,0
1493,5020003021152,新規,0,2022-01-17,2022-01-17,オーエヌプランニング合同会社,,合同会社,神奈川県,横浜市泉区,和泉町６２２５番地１１,,14,116,2450016,,,,,,,2022-01-17,1,,,,,オーエヌプランニング,0
1496,5021003011300,新規,0,2022-01-17,2022-01-17,ＣｈａｒＬｅｔ合同会社,,合同会社,神奈川県,藤沢市,鵠沼藤が谷３丁目４番３号,,14,205,2510031,,,,,,,2022-01-17,1,,,,,シャーレ,0
1497,5021003011309,新規,0,2022-01-17,2022-01-17,合同会社湘南ＡＳ,,合同会社,神奈川県,平塚市,根坂間２４４番地の４,,14,203,2540904,,,,,,,2022-01-17,1,,,,,ショウナンエーエス,0
1517,5040001121737,新規,0,2022-01-17,2022-01-17,株式会社Ｉ・ＰＷＯＲＫＳ,,株式会社,千葉県,八街市,八街ほ２０８番地２４８,,12,230,2891115,,,,,,,2022-01-17,1,,,,,アイピーワークス,0
1525,5050001050472,新規,0,2022-01-17,2022-01-17,株式会社ｔｒｅｅ,,株式会社,茨城県,神栖市,知手中央３丁目９番１６号,,08,232,3140112,,,,,,,2022-01-17,1,,,,,ツリー,0
1526,5050001050480,新規,0,2022-01-17,2022-01-17,株式会社ＭＵＢＩＮ　ＴＲＡＤＥＲＳ　ＰＶＴ　ＬＴＤ,,株式会社,茨城県,結城市,大字結城１１９７１番地,,08,207,3070001,,,,,,,2022-01-17,1,,,,,ムビントレーダーズピーブイティーエルティーディー,0
1527,5050003006308,新規,0,2022-01-17,2022-01-17,合同会社Ａ－Ｌｏ,,合同会社,茨城県,鹿嶋市,大字志崎２３番地７,,08,222,3112207,,,,,,,2022-01-17,1,,,,,アロ,0
1528,5060001034482,新規,0,2022-01-17,2022-01-17,株式会社メディカル・プラスアルファ,,株式会社,栃木県,宇都宮市,中今泉３丁目１３番２２号,,09,201,3210968,,,,,,,2022-01-17,1,,,,,メディカルプラスアルファ,0
1532,5080001024688,新規,0,2022-01-17,2022-01-17,株式会社大漁,,株式会社,静岡県,焼津市,栄町２丁目８番１９号,,22,212,4250027,,,,,,,2022-01-17,1,,,,,タイリョウ,0
1541,5090001017369,新規,0,2022-01-17,2022-01-17,ＪＭ商事株式会社,,株式会社,山梨県,甲府市,丸の内１丁目２番８号アサヒ電機ビル３階,,19,201,4000031,,,,,,,2022-01-17,1,,,,,ジェイエムショウジ,0
1548,5120001243077,新規,0,2022-01-17,2022-01-17,Ｈａｐｉ　Ｌａｂｏ株式会社,,株式会社,大阪府,大阪市北区,天神橋４丁目３番１７－１８０１号,,27,127,5300041,,,,,,,2022-01-17,1,,,,,ハピラボ,0
1549,5120001243085,新規,0,2022-01-17,2022-01-17,株式会社ＪＡＷＺＯＯ,,株式会社,大阪府,大阪市住之江区,西住之江２丁目５番２０号,,27,125,5590005,,,,,,,2022-01-17,1,,,,,ジョーズー,0
1550,5120001243135,新規,0,2022-01-17,2022-01-17,株式会社森川建築設計事務所,,株式会社,大阪府,大阪市北区,大淀北１丁目６番２１－１６１５号,,27,127,5310077,,,,,,,2022-01-17,1,,,,,モリカワケンチクセッケイジムショ,0
1551,5120001243168,新規,0,2022-01-17,2022-01-17,株式会社リビルド,,株式会社,大阪府,大阪市東淀川区,豊里７丁目４番８号マンションかわにし１１１号室,,27,114,5330013,,,,,,,2022-01-17,1,,,,,リビルド,0
1552,5120001243184,新規,0,2022-01-17,2022-01-17,グラフィックテラー株式会社,,株式会社,大阪府,大阪市中央区,北浜１丁目１番２８号,,27,128,5410041,,,,,,,2022-01-17,1,,,,,グラフィックテラー,0
1553,5120001243192,新規,0,2022-01-17,2022-01-17,株式会社アセットステージ,,株式会社,大阪府,大阪市旭区,森小路１丁目５番６－４１２号,,27,117,5350013,,,,,,,2022-01-17,1,,,,,アセットステージ,0
1554,5120001243218,新規,0,2022-01-17,2022-01-17,ＯｈＫｏｍｅｙａさん株式会社,,株式会社,大阪府,大阪市淀川区,塚本４丁目１６－４１,,27,123,5320026,,,,,,,2022-01-17,1,,,,,オコメヤサン,0
1556,5120003020945,新規,0,2022-01-17,2022-01-17,ＴＲＡＮ　ＧＩＡ合同会社,,合同会社,大阪府,大阪市生野区,生野東２丁目９番１８号,,27,116,5440025,,,,,,,2022-01-17,1,,,,,チャンジャ,0
1557,5120003020953,新規,0,2022-01-17,2022-01-17,合同会社Ｄｉｃｅ　Ｃｒｅａｔｉｏｎ,,合同会社,大阪府,大阪市浪速区,大国２丁目１６－２１グランデール３０６号室,,27,111,5560014,,,,,,,2022-01-17,1,,,,,ダイスクリエイション,0
1560,5120103004526,新規,0,2022-01-17,2022-01-17,合同会社アネモネ,,合同会社,大阪府,岸和田市,春木泉町５番１５号,,27,202,5960035,,,,,,,2022-01-17,1,,,,,アネモネ,0
1561,5120903003982,新規,0,2022-01-17,2022-01-17,合同会社ぶるべあ,,合同会社,大阪府,豊中市,熊野町３丁目１６番１０－２０４号,,27,203,5600014,,,,,,,2022-01-17,1,,,,,ブルベア,0
1566,5130001070818,新規,0,2022-01-17,2022-01-17,錦標株式会社,,株式会社,京都府,京都市伏見区,深草下川原町５０番地４－２０１,,26,109,6128401,,,,,,,2022-01-17,1,,,,,キンヒョウ,0
1567,5130001070900,新規,0,2022-01-17,2022-01-17,株式会社翔豊工業,,株式会社,京都府,舞鶴市,字森８７２番地１０レジデンス大森２０２号室,,26,202,6250062,,,,,,,2022-01-17,1,,,,,ショウホウコウギョウ,0
1568,5130001070917,新規,0,2022-01-17,2022-01-17,株式会社ｃａｒｏ　ｋｙｏｔｏ,,株式会社,京都府,京都市中京区,油小路通三条上る宗林町９８番地英守ビル２０９,,26,104,6048262,,,,,,,2022-01-17,1,,,,,カロキョウト,0
1570,5130003007685,新規,0,2022-01-17,2022-01-17,合同会社傍楽,,合同会社,京都府,久世郡久御山町,栄４丁目１－６,,26,322,6130032,,,,,,,2022-01-17,1,,,,,ハタラク,0
1571,5130003007693,新規,0,2022-01-17,2022-01-17,ＮＩＧＡＷＡ合同会社,,合同会社,京都府,亀岡市,＿田野町佐伯岩谷ノ内向山６７番地,00125408,26,206,6210033,,,,,,,2022-01-17,1,,,,,ニガワ,0
1573,5130005016362,新規,0,2022-01-17,2022-01-17,一般社団法人いずみの里,,その他の設立登記法人,京都府,京都市左京区,高野蓼原町４３番地１,,26,103,6068101,,,,,,,2022-01-17,1,,,,,イズミノサト,0
1579,5140001124523,新規,0,2022-01-17,2022-01-17,ＵＴｐａｉｎｔ株式会社,,株式会社,兵庫県,姫路市,四郷町山脇３２３番地２,,28,201,6710248,,,,,,,2022-01-17,1,,,,,ユーティーペイント,0
1580,5140001124564,新規,0,2022-01-17,2022-01-17,株式会社Ｔ．ＦＯＯＤ,,株式会社,兵庫県,豊岡市,上佐野１７９１番地,,28,209,6680061,,,,,,,2022-01-17,1,,,,,ティフード,0
1581,5140001124580,新規,0,2022-01-17,2022-01-17,バリバリ通商株式会社,,株式会社,兵庫県,姫路市,飾磨区今在家北２丁目５２番地,,28,201,6728090,,,,,,,2022-01-17,1,,,,,バリバリツウショウ,0
1583,5140003017221,新規,0,2022-01-17,2022-01-17,合同会社Ｐｅｔｉｔ　Ｌｕｘｅ,,合同会社,兵庫県,神戸市灘区,将軍通４丁目３番２１号,,28,102,6570058,,,,,,,2022-01-17,1,,,,,プチリュクス,0
1584,5140003017238,新規,0,2022-01-17,2022-01-17,Ｎａｎａ　ｎｏ　ｍｏｅ合同会社,,合同会社,兵庫県,尼崎市,東七松町１丁目１０番１号,,28,202,6600051,,,,,,,2022-01-17,1,,,,,ナナナーモエ,0
1602,5170001016940,新規,0,2022-01-17,2022-01-17,株式会社ＰＷ,,株式会社,和歌山県,新宮市,蓬莱１丁目１番２７号,,30,207,6470023,,,,,,,2022-01-17,1,,,,,パワーウェーブ,0
1614,5180001149351,新規,0,2022-01-17,2022-01-17,株式会社ＯＭＩコーポレーション,,株式会社,愛知県,名古屋市昭和区,滝子通１丁目２番地の２シティコーポ滝子通８０９号,,23,107,4660055,,,,,,,2022-01-17,1,,,,,オミコーポレーション,0
1615,5180001149459,新規,0,2022-01-17,2022-01-17,株式会社日本エネクス,,株式会社,愛知県,名古屋市中区,丸の内１丁目９番８号丸の内ＴＫビル,,23,106,4600002,,,,,,,2022-01-17,1,,,,,ニホンエネクス,0
1616,5180001149509,新規,0,2022-01-17,2022-01-17,株式会社Ｒｅｓｆｅｂｅｒ,,株式会社,愛知県,名古屋市西区,児玉２丁目２２番１９号,,23,104,4510066,,,,,,,2022-01-17,1,,,,,レースフェーベル,0
1617,5180001149525,新規,0,2022-01-17,2022-01-17,株式会社こだま造園,,株式会社,愛知県,名古屋市熱田区,中出町２丁目４３番地の４,,23,109,4560067,,,,,,,2022-01-17,1,,,,,コダマゾウエン,0
1618,5180001149558,新規,0,2022-01-17,2022-01-17,株式会社Ｒ’ｓＴＲＡＦＦＩＣ,,株式会社,愛知県,名古屋市東区,筒井１丁目１２番１７号丸正ビル２Ｆ,,23,102,4610003,,,,,,,2022-01-17,1,,,,,アールズトラフィック,0
1619,5180001149566,新規,0,2022-01-17,2022-01-17,株式会社Ｍａｒｋｅｒ,,株式会社,愛知県,名古屋市熱田区,切戸町３丁目４８番地１,,23,109,4560076,,,,,,,2022-01-17,1,,,,,マーカー,0
1620,5180001149574,新規,0,2022-01-17,2022-01-17,ほしぞらゴーチャ株式会社,,株式会社,愛知県,名古屋市緑区,鳴海町字有松裏２００番地,,23,114,4580824,,,,,,,2022-01-17,1,,,,,ホシゾラゴーチャ,0
1621,5180001149608,新規,0,2022-01-17,2022-01-17,株式会社トウガイ建設,,株式会社,愛知県,小牧市,城山１丁目６番地１,,23,219,4850812,,,,,,,2022-01-17,1,,,,,トウガイケンセツ,0
1626,5180003023372,新規,0,2022-01-17,2022-01-17,ＴＯＮＴＯＨ　ＳＴＹＬＥＳ合同会社,,合同会社,愛知県,名古屋市中区,新栄１丁目２４番１４号ＧＳＴＹＬＥ栄東４Ａ号,,23,106,4600007,,,,,,,2022-01-17,1,,,,,トントースタイルズ,0
1627,5180003023380,新規,0,2022-01-17,2022-01-17,合同会社Ｙ＆Ｓ　ＣＯＭＰＡＮＹ,,合同会社,愛知県,一宮市,新生１丁目４－４,,23,203,4910912,,,,,,,2022-01-17,1,,,,,ワイアンドエスカンパニー,0
1629,5180301035846,新規,0,2022-01-17,2022-01-17,株式会社ＳＥＪ錦,,株式会社,愛知県,西尾市,徳次町上十五夜３６番地１,,23,213,4450072,,,,,,,2022-01-17,1,,,,,エスイージェイニシキ,0
1639,5200003005426,新規,0,2022-01-17,2022-01-17,合同会社おちゃん,,合同会社,岐阜県,岐阜市,美園町４丁目１９番地（ＡＣＥＲＡ・４Ａ）,,21,201,5008104,,,,,,,2022-01-17,1,,,,,オチャン,0
1642,5220001024649,新規,0,2022-01-17,2022-01-17,株式会社さつきエステート,,株式会社,石川県,白山市,馬場２丁目３１番地１,,17,210,9240864,,,,,,,2022-01-17,1,,,,,サツキエステート,0
1646,5230001019193,新規,0,2022-01-17,2022-01-17,ｄｏｔＣ株式会社,,株式会社,富山県,富山市,中央通り２丁目３番２２号,,16,201,9300044,,,,,,,2022-01-17,1,,,,,ドットシー,0
1647,5230005009190,新規,0,2022-01-17,2022-01-17,一般社団法人にいかわ学びの森みらい会議,,その他の設立登記法人,富山県,魚津市,浜経田３２５２番地３,,16,204,9370001,,,,,,,2022-01-17,1,,,,,ニイカワマナビノモリミライカイギ,0
1650,5250001019357,新規,0,2022-01-17,2022-01-17,エスコネクト株式会社,,株式会社,山口県,周南市,大字徳山６８０３番地の３１,,35,215,7450851,,,,,,,2022-01-17,1,,,,,エスコネクト,0
1652,5260001036434,新規,0,2022-01-17,2022-01-17,ＴＫｓｔｙｌｅ株式会社,,株式会社,岡山県,岡山市北区,中撫川６３１番地３,,33,101,7010163,,,,,,,2022-01-17,1,,,,,ティーケースタイル,0
1653,5260001036442,新規,0,2022-01-17,2022-01-17,新岡ホールディングス株式会社,,株式会社,岡山県,岡山市南区,築港栄町１０番７号,,33,104,7028053,,,,,,,2022-01-17,1,,,,,シンオカホールディングス,0
1656,5290003012026,新規,0,2022-01-17,2022-01-17,合同会社ＰＡＰＡＤＯＷ,,合同会社,福岡県,糸島市,篠原西１丁目１４番２７号,,40,230,8191129,,,,,,,2022-01-17,1,,,,,パパドゥー,0
1657,5290003012042,新規,0,2022-01-17,2022-01-17,合同会社ＭＩＮＡＴＯ,,合同会社,福岡県,筑後市,大字山ノ井７６３番地,,40,211,8330031,,,,,,,2022-01-17,1,,,,,ミナト,0
1693,5360001029881,新規,0,2022-01-17,2022-01-17,ＣｈｉＫｏＢｏｎ株式会社,,株式会社,沖縄県,那覇市,首里儀保町１丁目２４番Ｔビル１０１,,47,201,9030821,,,,,,,2022-01-17,1,,,,,,0
1694,5360001029898,新規,0,2022-01-17,2022-01-17,株式会社ココア,,株式会社,沖縄県,沖縄市,照屋１丁目６番１１号,,47,211,9040011,,,,,,,2022-01-17,1,,,,,ココア,0
1700,5370001048088,新規,0,2022-01-17,2022-01-17,株式会社ＡＩ　ｇａｒｄｅｎ,,株式会社,宮城県,仙台市青葉区,北目町２番３９号東北中心ビル２階,,04,101,9800023,,,,,,,2022-01-17,1,,,,,アイガーデン,0
1709,5380001032487,新規,0,2022-01-17,2022-01-17,株式会社創屋ミクニ,,株式会社,福島県,郡山市,八山田西３丁目２３２番地,,07,203,9638053,,,,,,,2022-01-17,1,,,,,ツクリヤミクニ,0
1717,5390001016761,新規,0,2022-01-17,2022-01-17,やまがた協創パートナーズ株式会社,,株式会社,山形県,山形市,七日町３丁目１番２号,,06,201,9900042,,,,,,,2022-01-17,1,,,,,ヤマガタキョウソウパートナーズ,0
1731,5430001085785,新規,0,2022-01-17,2022-01-17,株式会社小笠原設備,,株式会社,北海道,札幌市南区,石山二条９丁目１３番１１－１０３号,,01,106,0050842,,,,,,,2022-01-17,1,,,,,オガサワラセツビ,0
1732,5430001085810,新規,0,2022-01-17,2022-01-17,株式会社清田ストア,,株式会社,北海道,札幌市清田区,平岡三条３丁目１番１号,,01,110,0040873,,,,,,,2022-01-17,1,,,,,キヨタストア,0
1734,5430003013521,新規,0,2022-01-17,2022-01-17,合同会社西谷板金,,合同会社,北海道,苫小牧市,のぞみ町３丁目１番２５号,,01,213,0591272,,,,,,,2022-01-17,1,,,,,ニシヤバンキン,0
1737,5470003002108,新規,0,2022-01-17,2022-01-17,合同会社アルチェントロ,,合同会社,香川県,綾歌郡綾川町,萱原５６７番地,,37,387,7612304,,,,,,,2022-01-17,1,,,,,アルチェントロ,0
1740,5480001011621,新規,0,2022-01-17,2022-01-17,株式会社ＨＡＧＵ,,株式会社,徳島県,鳴門市,大津町木津野字藪の内３７番地２,,36,202,7720031,,,,,,,2022-01-17,1,,,,,ハグ,0
1748,5480005006873,新規,0,2022-01-17,2022-01-17,一般社団法人そらいろ,,その他の設立登記法人,徳島県,鳴門市,撫養町大桑島字大谷１１番地９,,36,202,7720011,,,,,,,2022-01-17,1,,,,,ソライロ,0
1755,6010001223774,新規,0,2022-01-17,2022-01-17,株式会社ピンククリムゾン,,株式会社,東京都,文京区,湯島２丁目２３番８号,,13,105,1130034,,,,,,,2022-01-17,1,,,,,ピンククリムゾン,0
1756,6010001223840,新規,0,2022-01-17,2022-01-17,東雲株式会社,,株式会社,東京都,千代田区,岩本町１丁目７番６号３階,,13,101,1010032,,,,,,,2022-01-17,1,,,,,シノノメ,0
1757,6010001223873,新規,0,2022-01-17,2022-01-17,株式会社Ｌｅｄｉａｎ　Ｃоｓｍｅｔｉｃｓ,,株式会社,東京都,中央区,京橋２丁目２番１号京橋エドグラン１６Ｆ,,13,102,1040031,,,,,,,2022-01-17,1,,,,,レディアンコスメティックス,0
1760,6010003036720,新規,0,2022-01-17,2022-01-17,ＬＦプロパティＩ合同会社,,合同会社,東京都,千代田区,丸の内３丁目１番１号東京共同会計事務所内,,13,101,1000005,,,,,,,2022-01-17,1,,,,,エルエフプロパティワン,0
1761,6010003036737,新規,0,2022-01-17,2022-01-17,合同会社Ｊ－ＰＬＡＮ,,合同会社,東京都,中央区,入船３丁目６番１３号,,13,102,1040042,,,,,,,2022-01-17,1,,,,,ジェイプラン,0
1762,6010003036753,新規,0,2022-01-17,2022-01-17,Ｓｍｉｌｅ　ｕｐコンサルティング合同会社,,合同会社,東京都,千代田区,有楽町１丁目２番２号東宝日比谷ビル９階,,13,101,1000006,,,,,,,2022-01-17,1,,,,,,0
1766,6010103001847,新規,0,2022-01-17,2022-01-17,ＣＡＲＲＹ　ＳＴＹＬＥ合同会社,,合同会社,東京都,八王子市,大和田町３丁目７番１６号２Ｆ,,13,201,1920045,,,,,,,2022-01-17,1,,,,,キャリースタイル,0
1773,6010401164882,新規,0,2022-01-17,2022-01-17,株式会社ミラセット,,株式会社,東京都,港区,赤坂９丁目６－１４坂倉第一ビル,,13,103,1070052,,,,,,,2022-01-17,1,,,,,ミラセット,0
1774,6010401164890,新規,0,2022-01-17,2022-01-17,株式会社ＳＵＩＨＡＫＵ,,株式会社,東京都,港区,赤坂４丁目８番１９号赤坂フロントタウン３階,,13,103,1070052,,,,,,,2022-01-17,1,,,,,スイハク,0
1775,6010401164916,新規,0,2022-01-17,2022-01-17,ＤＥＬＩＧＨＴ　ＢＵＳＩＮＥＳＳ　ＤＥＳＩＧＮ株式会社,,株式会社,東京都,港区,港南２丁目１５－１品川インターシティＡ棟２８階,,13,103,1080075,,,,,,,2022-01-17,1,,,,,ディライトビジネスデザイン,0
1776,6010401164932,新規,0,2022-01-17,2022-01-17,ＭＹＮＩＮＧ　ＴＯＫＹＯ株式会社,,株式会社,東京都,港区,虎ノ門４丁目３番１号城山トラストタワー２７階,,13,103,1050001,,,,,,,2022-01-17,1,,,,,マイニングトウキョウ,0
1777,6010401164949,新規,0,2022-01-17,2022-01-17,株式会社Ｌｔｌｙｌ,,株式会社,東京都,港区,赤坂４丁目５番２１－１０６号,,13,103,1070052,,,,,,,2022-01-17,1,,,,,リトリル,0
1778,6010401164957,新規,0,2022-01-17,2022-01-17,株式会社ｓｅｅｎ,,株式会社,東京都,港区,北青山３丁目１０番２５号,,13,103,1070061,,,,,,,2022-01-17,1,,,,,シーン,0
1779,6010401164965,新規,0,2022-01-17,2022-01-17,アンドリフティ株式会社,,株式会社,東京都,港区,北青山２丁目１２番８号ＢＩＺＳＭＡＲＴ青山,,13,103,1070061,,,,,,,2022-01-17,1,,,,,アンドリフティ,0
1780,6010401165006,新規,0,2022-01-17,2022-01-17,Ｍｉｒａｒｔ株式会社,,株式会社,東京都,港区,赤坂４丁目８番１９号赤坂フロントタウン３階,,13,103,1070052,,,,,,,2022-01-17,1,,,,,ミラート,0
1782,6010403026874,新規,0,2022-01-17,2022-01-17,ＫＹＭＡ合同会社,,合同会社,東京都,港区,南麻布３丁目２０－１Ｄａｉｗａ麻布テラス５Ｆ,,13,103,1060047,,,,,,,2022-01-17,1,,,,,キーマ,0
1789,6010601060527,新規,0,2022-01-17,2022-01-17,株式会社ＢＬＩＳＳ,,株式会社,東京都,江東区,木場５丁目３番２号沖山ビル１階,,13,108,1350042,,,,,,,2022-01-17,1,,,,,ブリス,0
1790,6010601060543,新規,0,2022-01-17,2022-01-17,自然食品流通機構株式会社,,株式会社,東京都,江東区,東雲１丁目９番１８－１００１号,,13,108,1350062,,,,,,,2022-01-17,1,,,,,シゼンショクヒンリュウツウキコウ,0
1792,6010603009340,新規,0,2022-01-17,2022-01-17,合同会社ひまわり,,合同会社,東京都,江東区,南砂７丁目５－２１－７０７,,13,108,1360076,,,,,,,2022-01-17,1,,,,,ヒマワリ,0
1794,6010701042004,新規,0,2022-01-17,2022-01-17,株式会社ＲＥＩＲＥＩ,,株式会社,東京都,品川区,西五反田６丁目２番７号ウエストサイド五反田ビル３階,,13,109,1410031,,,,,,,2022-01-17,1,,,,,レイレイ,0
1797,6010803004026,新規,0,2022-01-17,2022-01-17,合同会社ライフフリー,,合同会社,東京都,大田区,蒲田４丁目１０番１４－１００９号,,13,111,1440052,,,,,,,2022-01-17,1,,,,,ライフフリー,0
1800,6010901050129,新規,0,2022-01-17,2022-01-17,株式会社ＧＯＣＣＯＤＯ,,株式会社,東京都,世田谷区,豪徳寺１丁目２１番５号ヴィラ・ゴートクＢ－Ｃ,,13,112,1540021,,,,,,,2022-01-17,1,,,,,ゴッコドウ,0
1801,6010903007069,新規,0,2022-01-17,2022-01-17,合同会社４ｔｈエレメント,,合同会社,東京都,世田谷区,太子堂３丁目３０番２－３０２号,,13,112,1540004,,,,,,,2022-01-17,1,,,,,フォースエレメント,0
1802,6011001145026,新規,0,2022-01-17,2022-01-17,株式会社Ｎｅｕｓｃｈ,,株式会社,東京都,渋谷区,恵比寿１丁目５番９号,,13,113,1500013,,,,,,,2022-01-17,1,,,,,ノイシュ,0
1808,6011201023551,新規,0,2022-01-17,2022-01-17,株式会社トレフルクリエーション,,株式会社,東京都,中野区,弥生町３丁目１４番４－１０１号,,13,114,1640013,,,,,,,2022-01-17,1,,,,,トレフルクリエーション,0
1809,6011203003725,新規,0,2022-01-17,2022-01-17,合同会社チーム,,合同会社,東京都,中野区,上高田３丁目３８番５号,,13,114,1640002,,,,,,,2022-01-17,1,,,,,チーム,0
1812,6011301027485,新規,0,2022-01-17,2022-01-17,Ｔｈｅ．株式会社,,株式会社,東京都,杉並区,方南１丁目８番５号メゾンたちばな２０２,,13,115,1680062,,,,,,,2022-01-17,1,,,,,ザドット,0
1813,6011501027665,新規,0,2022-01-17,2022-01-17,株式会社ｕｒｕｋａ,,株式会社,東京都,北区,赤羽２丁目７番１号ＤＥＡＲ赤羽４階,,13,117,1150045,,,,,,,2022-01-17,1,,,,,ウルカ,0
1816,6011703003043,新規,0,2022-01-17,2022-01-17,合同会社エバーグリーン経営研究所,,合同会社,東京都,江戸川区,南小岩８丁目２０－１８第２川野ビル３０１,,13,123,1330056,,,,,,,2022-01-17,1,,,,,エバーグリーンケイエイケンキュウジョ,0
1818,6011801040203,新規,0,2022-01-17,2022-01-17,グランエステート東京株式会社,,株式会社,東京都,足立区,梅田７丁目１８－２,,13,121,1230851,,,,,,,2022-01-17,1,,,,,グランエステートトウキョウ,0
1821,6012401038744,新規,0,2022-01-17,2022-01-17,株式会社ＴＵＢＡＫＩ,,株式会社,東京都,武蔵野市,関前２丁目３１番６号,,13,203,1800014,,,,,,,2022-01-17,1,,,,,ツバキ,0
1823,6012801021333,新規,0,2022-01-17,2022-01-17,株式会社ナシウル,,株式会社,東京都,国立市,東１丁目４番地の２０,,13,215,1860002,,,,,,,2022-01-17,1,,,,,ナシウル,0
1832,6013305003297,新規,0,2022-01-17,2022-01-17,特定非営利活動法人だーちゃらぼ,,その他の設立登記法人,東京都,豊島区,駒込４丁目１０番１７号モノリス駒込２階２０１号室,,13,116,1700003,,,,,,,2022-01-17,1,,,,,ダーチャラボ,0
1836,6020001144689,新規,0,2022-01-17,2022-01-17,株式会社カリスマ,,株式会社,神奈川県,川崎市川崎区,砂子２丁目９番１２号あさひビル地下１階,,14,131,2100006,,,,,,,2022-01-17,1,,,,,カリスマ,0
1837,6020001144706,新規,0,2022-01-17,2022-01-17,株式会社感謝,,株式会社,神奈川県,川崎市多摩区,中野島４丁目２０番１７－１０６号,,14,135,2140012,,,,,,,2022-01-17,1,,,,,カンシャ,0
1838,6020001144739,新規,0,2022-01-17,2022-01-17,株式会社ハレルヤコーポレーション,,株式会社,神奈川県,横浜市中区,山手町８４番地３,,14,104,2310862,,,,,,,2022-01-17,1,,,,,ハレルヤコーポレーション,0
1839,6020001144763,新規,0,2022-01-17,2022-01-17,株式会社Ｅｘｐａｎｄ,,株式会社,神奈川県,横浜市神奈川区,沢渡２番地３,,14,102,2210844,,,,,,,2022-01-17,1,,,,,エクスパンド,0
1840,6020003021102,新規,0,2022-01-17,2022-01-17,合同会社ＳＯＵＥＩ,,合同会社,神奈川県,横浜市緑区,東本郷５丁目２２―８,,14,113,2260002,,,,,,,2022-01-17,1,,,,,ソウエイ,0
1866,6040001121810,新規,0,2022-01-17,2022-01-17,株式会社ＰＯＴＲＩＶＥＲ,,株式会社,千葉県,千葉市中央区,道場北１丁目３番５号,,12,101,2600006,,,,,,,2022-01-17,1,,,,,ポットリバー,0
1871,6040003019292,新規,0,2022-01-17,2022-01-17,エフケースポーツ合同会社,,合同会社,千葉県,松戸市,稔台７丁目１９番地の１６,,12,207,2702231,,,,,,,2022-01-17,1,,,,,エフケイスポーツ,0
1877,6050001050463,新規,0,2022-01-17,2022-01-17,株式会社Ｙ’ｓＦａｃｔｏｒｙ,,株式会社,茨城県,稲敷郡河内町,金江津６８３７番地,,08,447,3001403,,,,,,,2022-01-17,1,,,,,ワイズファクトリー,0
1878,6050003006315,新規,0,2022-01-17,2022-01-17,合同会社ＲＩＳＥ,,合同会社,茨城県,取手市,米ノ井３７４番地２７,,08,217,3020033,,,,,,,2022-01-17,1,,,,,ライズ,0
1880,6060001034481,新規,0,2022-01-17,2022-01-17,株式会社和,,株式会社,栃木県,那須塩原市,洞島１９６番地４９,,09,213,3250106,,,,,,,2022-01-17,1,,,,,ナゴミ,0
1886,6080001024687,新規,0,2022-01-17,2022-01-17,株式会社ＴＨＡＮＫＦＵＬ　ＤＡＹｓ,,株式会社,静岡県,静岡市駿河区,中島１０００番地の１,,22,102,4228046,,,,,,,2022-01-17,1,,,,,サンクフルデイス,0
1891,6080401025574,新規,0,2022-01-17,2022-01-17,株式会社ファニクス,,株式会社,静岡県,浜松市中区,泉３丁目５番６号,,22,131,4338124,,,,,,,2022-01-17,1,,,,,ファニクス,0
1894,6100003006367,新規,0,2022-01-17,2022-01-17,ファイネスト合同会社,,合同会社,長野県,千曲市,上山田温泉３丁目６番地１１,,20,218,3890821,,,,,,,2022-01-17,1,,,,,ファイネスト,0
1903,6120001243068,新規,0,2022-01-17,2022-01-17,ＭＮＵ株式会社,,株式会社,大阪府,大阪市北区,豊崎３丁目１８番３－１９０３号,,27,127,5310072,,,,,,,2022-01-17,1,,,,,エムエヌユー,0
1904,6120001243134,新規,0,2022-01-17,2022-01-17,株式会社Ｋ－ＴＲＵＳＴ,,株式会社,大阪府,大阪市東成区,中道２丁目１４番２０号,,27,115,5370025,,,,,,,2022-01-17,1,,,,,ケートラスト,0
1905,6120001243142,新規,0,2022-01-17,2022-01-17,株式会社Ｆｉｎｅ,,株式会社,大阪府,大阪市中央区,南久宝寺町１丁目１番３号４階,,27,128,5410058,,,,,,,2022-01-17,1,,,,,ファイン,0
1906,6120001243175,新規,0,2022-01-17,2022-01-17,株式会社Ｓｅａｒｃｈ　Ｃｏｎｎｅｃｔ,,株式会社,大阪府,大阪市北区,鶴野町４番１１号朝日プラザ梅田ビル２Ｆ,,27,127,5300014,,,,,,,2022-01-17,1,,,,,サーチコネクト,0
1907,6120001243191,新規,0,2022-01-17,2022-01-17,大阪タクシー株式会社,,株式会社,大阪府,大阪市東住吉区,矢田７丁目６番１８号,,27,121,5460023,,,,,,,2022-01-17,1,,,,,オオサカタクシー,0
1908,6120001243200,新規,0,2022-01-17,2022-01-17,株式会社善都,,株式会社,大阪府,大阪市中央区,瓦屋町３丁目２番２４－２０１号,,27,128,5420066,,,,,,,2022-01-17,1,,,,,ゼント,0
1909,6120001243217,新規,0,2022-01-17,2022-01-17,株式会社ティーエス,,株式会社,大阪府,大阪市住吉区,杉本２丁目３１番１３－１０ｃ号室,,27,120,5580022,,,,,,,2022-01-17,1,,,,,ティーエス,0
1915,6120003020960,新規,0,2022-01-17,2022-01-17,ｂｌｕｅｐｅａｒ合同会社,,合同会社,大阪府,大阪市西区,新町１丁目７－９ＴＡＭＴＡＭ四ツ橋ビル２階,,27,106,5500013,,,,,,,2022-01-17,1,,,,,ブルーペア,0
1916,6120101064934,新規,0,2022-01-17,2022-01-17,株式会社Ｒｉｓｅ　Ｗｉｎ,,株式会社,大阪府,堺市西区,神野町２丁１５番３３号真田マンション３０２号,,27,144,5938308,,,,,,,2022-01-17,1,,,,,ライズウィン,0
1919,6120103004525,新規,0,2022-01-17,2022-01-17,ＤＧ　ＧＲＯＵＰ合同会社,,合同会社,大阪府,堺市堺区,中之町西３丁２番３５－３０７号,,27,141,5900957,,,,,,,2022-01-17,1,,,,,ディージーグループ,0
1921,6120901045472,新規,0,2022-01-17,2022-01-17,株式会社難波ホーム,,株式会社,大阪府,摂津市,南別府町１５番４６号,,27,224,5660045,,,,,,,2022-01-17,1,,,,,ナンバホーム,0
1928,6122001035503,新規,0,2022-01-17,2022-01-17,ハウスグリーン株式会社,,株式会社,大阪府,東大阪市,西堤本通東１丁目１－１大発ビル２２５号室,,27,227,5770045,,,,,,,2022-01-17,1,,,,,ハウスグリーン,0
1929,6122001035511,新規,0,2022-01-17,2022-01-17,株式会社アスコ,,株式会社,大阪府,東大阪市,吉原２丁目４番４１号,,27,227,5780904,,,,,,,2022-01-17,1,,,,,アスコ,0
1937,6130001070916,新規,0,2022-01-17,2022-01-17,株式会社オルス京丹波,,株式会社,京都府,船井郡京丹波町,富田タカヤ１９番地,,26,407,6220203,,,,,,,2022-01-17,1,,,,,オルスキョウタンバ,0
1938,6130001070924,新規,0,2022-01-17,2022-01-17,エルデザイン株式会社,,株式会社,京都府,京都市西京区,御陵峰ケ堂町２丁目２番地１３,,26,111,6101103,,,,,,,2022-01-17,1,,,,,エルデザイン,0
1939,6130001070932,新規,0,2022-01-17,2022-01-17,株式会社イーアル産業,,株式会社,京都府,京都市伏見区,深草西浦町１丁目１８番地名神第一ビル６階Ｂ,,26,109,6120029,,,,,,,2022-01-17,1,,,,,イーアルサンギョウ,0
1941,6130003007676,新規,0,2022-01-17,2022-01-17,Ｍ＆Ｓ　ＴＲＡＤＩＮＧ合同会社,,合同会社,京都府,京都市南区,上鳥羽高畠町２５番地パデシオン十条５１７号,,26,107,6018101,,,,,,,2022-01-17,1,,,,,エムアンドエストレーディング,0
1948,6140001124539,新規,0,2022-01-17,2022-01-17,ＦＵＴＡＢＡ　ＩＮＤＵＳＴＲＩＥＳ株式会社,,株式会社,兵庫県,神戸市灘区,中原通５丁目１番４号,,28,102,6570825,,,,,,,2022-01-17,1,,,,,フタバインダストリーズ,0
1949,6140001124555,新規,0,2022-01-17,2022-01-17,Ａｘｉｓ．ｏｖ－Ｆｉｌｍｓ株式会社,,株式会社,兵庫県,神戸市北区,西大池２丁目１５－１１,,28,109,6511201,,,,,,,2022-01-17,1,,,,,アクシズオーヴィーフィルムズ,0
1950,6140001124563,新規,0,2022-01-17,2022-01-17,Ａｔｕｍ株式会社,,株式会社,兵庫県,神戸市中央区,三宮町１丁目８番１号,,28,110,6500021,,,,,,,2022-01-17,1,,,,,アトム,0
1951,6140003017212,新規,0,2022-01-17,2022-01-17,合同会社ＹＳＭＲ,,合同会社,兵庫県,尼崎市,田能１丁目１６番１－３０６号,,28,202,6610951,,,,,,,2022-01-17,1,,,,,ワイエスエムアール,0
1952,6140003017220,新規,0,2022-01-17,2022-01-17,Ｒｏｓｅｌｉａ合同会社,,合同会社,兵庫県,川西市,西多田２丁目９番２５号,,28,217,6660138,,,,,,,2022-01-17,1,,,,,ロゼリア,0
1953,6140003017237,新規,0,2022-01-17,2022-01-17,合同会社ＳＵＮ　ＲＯＡＤ,,合同会社,兵庫県,西宮市,甲子園洲鳥町４番６－１００２号,,28,204,6638151,,,,,,,2022-01-17,1,,,,,サンロード,0
1954,6140005025989,新規,0,2022-01-17,2022-01-17,一般社団法人三木クラウドチームＳＴＡＣＫ,,その他の設立登記法人,兵庫県,三木市,志染町青山４丁目３番地の５,,28,215,6730521,,,,,,,2022-01-17,1,,,,,ミキクラウドチームスタック,0
1966,6170003001675,新規,0,2022-01-17,2022-01-17,合同会社Ｈａｐｐｙ‐ｓｍｉｌｅ,,合同会社,和歌山県,和歌山市,松江北５丁目１８番１９号Ａ棟１０１号室,,30,201,6408425,,,,,,,2022-01-17,1,,,,,ハッピースマイル,0
1972,6180001149482,新規,0,2022-01-17,2022-01-17,株式会社ＫＧピープルケア,,株式会社,愛知県,名古屋市天白区,島田１丁目７０６番地ハイエストマンション島田１０１号,,23,116,4680056,,,,,,,2022-01-17,1,,,,,ケージーピープルケア,0
1973,6180001149532,新規,0,2022-01-17,2022-01-17,株式会社誉,,株式会社,愛知県,名古屋市港区,須成町２丁目４１番地,,23,111,4550072,,,,,,,2022-01-17,1,,,,,ホマレ,0
1974,6180001149565,新規,0,2022-01-17,2022-01-17,株式会社ノイレフォルム,,株式会社,愛知県,名古屋市名東区,高針４丁目１０１５番地,,23,115,4650061,,,,,,,2022-01-17,1,,,,,ノイレフォルム,0
1975,6180001149573,新規,0,2022-01-17,2022-01-17,株式会社日本人財開発,,株式会社,愛知県,名古屋市南区,桜台１丁目２３番１２号,,23,112,4570005,,,,,,,2022-01-17,1,,,,,ニホンジンザイカイハツ,0
1976,6180001149607,新規,0,2022-01-17,2022-01-17,株式会社ＡＩＢＡ,,株式会社,愛知県,海部郡大治町,大字西條字狐海道１３１番地,,23,424,4901144,,,,,,,2022-01-17,1,,,,,アイバ,0
1983,6180003023371,新規,0,2022-01-17,2022-01-17,合同会社ＭｉＯテクノ,,合同会社,愛知県,尾張旭市,緑町緑ケ丘１２３番地６３,,23,226,4880822,,,,,,,2022-01-17,1,,,,,ミオテクノ,0
1984,6180005019599,新規,0,2022-01-17,2022-01-17,社会保険労務士法人ゆたかパートナーズオフィス,,その他の設立登記法人,愛知県,名古屋市東区,東外堀町６０番地ＡＧビル５Ｆ,,23,102,4610017,,,,,,,2022-01-17,1,,,,,ユタカパートナーズオフィス,0
1987,6180301035845,新規,0,2022-01-17,2022-01-17,東海モータース株式会社,,株式会社,愛知県,安城市,安城町照路３５番地,,23,212,4460026,,,,,,,2022-01-17,1,,,,,トウカイモータース,0
1995,6200001039672,新規,0,2022-01-17,2022-01-17,株式会社ＡＩＭ,,株式会社,岐阜県,岐阜市,河渡５６４番地３,,21,201,5010105,,,,,,,2022-01-17,1,,,,,エイム,0
1996,6200003005425,新規,0,2022-01-17,2022-01-17,合同会社ベルツリー,,合同会社,岐阜県,関市,東田原５２,,21,205,5013921,,,,,,,2022-01-17,1,,,,,ベルツリー,0
2007,6240003005462,新規,0,2022-01-17,2022-01-17,合同会社Ｌｉｎｋ,,合同会社,広島県,竹原市,忠海中町１丁目２番５４号,,34,203,7292316,,,,,,,2022-01-17,1,,,,,リンク,0
2013,6260001036441,新規,0,2022-01-17,2022-01-17,株式会社ビリーブ・フィールド,,株式会社,岡山県,倉敷市,福島５１０番地１－１０１,,33,202,7100048,,,,,,,2022-01-17,1,,,,,ビリーブフィールド,0
2014,6260003003778,新規,0,2022-01-17,2022-01-17,合同会社ＦＴ＆ｃｏ．,,合同会社,岡山県,岡山市北区,田中１８５番地１１３,,33,101,7000951,,,,,,,2022-01-17,1,,,,,エフティーアンドコー,0
2026,6300001012768,新規,0,2022-01-17,2022-01-17,株式会社九州化学消毒,,株式会社,佐賀県,神埼郡吉野ヶ里町,吉田１４５５番地３,,41,327,8420031,,,,,,,2022-01-17,1,,,,,キュウシュウカガクショウドク,0
2027,6300003001777,新規,0,2022-01-17,2022-01-17,合同会社ひよし,,合同会社,佐賀県,鳥栖市,宿町１２３０番地,,41,203,8410052,,,,,,,2022-01-17,1,,,,,ヒヨシ,0
2028,6310003004259,新規,0,2022-01-17,2022-01-17,合同会社ＣＯＭＥ,,合同会社,長崎県,佐世保市,早岐２丁目８番１７号,,42,202,8593215,,,,,,,2022-01-17,1,,,,,カム,0
2030,6320001018846,新規,0,2022-01-17,2022-01-17,株式会社のぞみ産業,,株式会社,大分県,大分市,今津留１丁目６番４号,,44,201,8700938,,,,,,,2022-01-17,1,,,,,,0
2050,6360001029897,新規,0,2022-01-17,2022-01-17,株式会社ＡＷＡ　Ｂｉｚ,,株式会社,沖縄県,沖縄市,中央１丁目７－８,,47,211,9040004,,,,,,,2022-01-17,1,,,,,,0
2053,6360003011721,新規,0,2022-01-17,2022-01-17,くまのすけくまごろう合同会社,,合同会社,沖縄県,那覇市,具志２丁目９番１８号オアシスグランヒュースＩＩ２０１,00125406,47,201,9010146,,,,,,,2022-01-17,1,,,,,,0
2056,6370001048087,新規,0,2022-01-17,2022-01-17,株式会社レジメント,,株式会社,宮城県,仙台市青葉区,宮町１丁目４番１１号,,04,101,9800004,,,,,,,2022-01-17,1,,,,,レジメント,0
2058,6380001032478,新規,0,2022-01-17,2022-01-17,株式会社一順弥栄建設,,株式会社,福島県,須賀川市,北山寺町２４３番地天生ゴールデンマンション１０１号室,,07,207,9620061,,,,,,,2022-01-17,1,,,,,イチジュンイヤサカケンセツ,0
2059,6380001032486,新規,0,2022-01-17,2022-01-17,株式会社キングスロード,,株式会社,福島県,南相馬市,鹿島区塩崎字西ノ入１２番地,,07,212,9792332,,,,,,,2022-01-17,1,,,,,キングスロード,0
2079,6430001085784,新規,0,2022-01-17,2022-01-17,株式会社アンドディライト,,株式会社,北海道,札幌市中央区,南四条西１３丁目２－２５札幌グレースビル２Ｆ,,01,101,0640804,,,,,,,2022-01-17,1,,,,,アンドディライト,0
2080,6430001085801,新規,0,2022-01-17,2022-01-17,株式会社イガジー,,株式会社,北海道,札幌市中央区,南二十四条西７丁目１番１２号,,01,101,0640924,,,,,,,2022-01-17,1,,,,,イガジー,0
2081,6430003013529,新規,0,2022-01-17,2022-01-17,ＥＸｐａｎｓｉｏｎ合同会社,,合同会社,北海道,札幌市東区,東苗穂三条１丁目２番３０号,,01,103,0070803,,,,,,,2022-01-17,1,,,,,エクスパンション,0
2082,6430003013537,新規,0,2022-01-17,2022-01-17,合同会社ＳＰＡＲＫ,,合同会社,北海道,札幌市北区,北二十七条西１５丁目２番２５号,,01,102,0010027,,,,,,,2022-01-17,1,,,,,スパーク,0
2083,6430005014368,新規,0,2022-01-17,2022-01-17,一般社団法人ＤＩＹプランナー協会,,その他の設立登記法人,北海道,江別市,元江別８２０番地の４５,,01,217,0670032,,,,,,,2022-01-17,1,,,,,ディアイワイプランナーキョウカイ,0
2085,6450001008850,新規,0,2022-01-17,2022-01-17,伊藤商行株式会社,,株式会社,北海道,留萌市,潮静１丁目１番地の３,,01,212,0770013,,,,,,,2022-01-17,1,,,,,イトウショウコウ,0
2106,6700150106446,新規,0,2022-01-17,2021-12-27,レクセルマンション笹塚管理組合,,その他,東京都,中野区,南台５丁目１５番２０,,13,114,1640014,,,,,,,2021-12-27,1,,,,,レクセルマンシヨンササヅカカンリクミアイ,0
2110,7010001223757,新規,0,2022-01-17,2022-01-17,ジェイマッチ株式会社,,株式会社,東京都,千代田区,岩本町３丁目８番地８中和秋葉原ビルビズコンフォート秋葉原岩本町,,13,101,1010032,,,,,,,2022-01-17,1,,,,,ジェイマッチ,0
2111,7010001223773,新規,0,2022-01-17,2022-01-17,株式会社ツーネーション,,株式会社,東京都,中央区,京橋３丁目１２番６号ニュー京橋ビル５階,,13,102,1040031,,,,,,,2022-01-17,1,,,,,ツーネーション,0
2112,7010001223781,新規,0,2022-01-17,2022-01-17,マルチリンクコンサルティング株式会社,,株式会社,東京都,中央区,銀座７丁目１３番６号サガミビル２階,,13,102,1040061,,,,,,,2022-01-17,1,,,,,マルチリンクコンサルティング,0
2113,7010001223807,新規,0,2022-01-17,2022-01-17,株式会社Ｂｏｒｄｅ,,株式会社,東京都,中央区,銀座７丁目５番４号毛利ビル５階,,13,102,1040061,,,,,,,2022-01-17,1,,,,,ボルデ,0
2114,7010001223864,新規,0,2022-01-17,2022-01-17,株式会社ＹＥＮＪＩＮ,,株式会社,東京都,千代田区,岩本町３丁目９番１７号スリーセブンビル８階,,13,101,1010032,,,,,,,2022-01-17,1,,,,,エンジン,0
2116,7010003036744,新規,0,2022-01-17,2022-01-17,合同会社スリーエス,,合同会社,東京都,千代田区,九段北１丁目３番１号ＶＯＲＴ九段下５Ｆ,,13,101,1020073,,,,,,,2022-01-17,1,,,,,スリーエス,0
2117,7010003036752,新規,0,2022-01-17,2022-01-17,ＭＫトレード合同会社,,合同会社,東京都,中央区,銀座１丁目２２番１１号２Ｆ,,13,102,1040061,,,,,,,2022-01-17,1,,,,,エムケートレード,0
2118,7010005034440,新規,0,2022-01-17,2022-01-17,特定非営利活動法人日中友好東京文化センター,,その他の設立登記法人,東京都,千代田区,西神田２丁目４番１号東方学会ビル４階,,13,101,1010065,,,,,,,2022-01-17,1,,,,,ニッチュウユウコウトウキョウブンカセンター,0
2119,7010005034457,新規,0,2022-01-17,2022-01-17,一般社団法人日本転倒予防学会,,その他の設立登記法人,東京都,中央区,築地２丁目１２番１０号築地ＭＦビル２６号館５０１,,13,102,1040045,,,,,,,2022-01-17,1,,,,,ニホンテントウヨボウガッカイ,0
2141,7010401165021,新規,0,2022-01-17,2022-01-17,Ｋｏｉ　Ｈｏｔｅｌ株式会社,,株式会社,東京都,港区,虎ノ門３丁目２２番１０－２０１号,,13,103,1050001,,,,,,,2022-01-17,1,,,,,コイホテル,0
2145,7010403026873,新規,0,2022-01-17,2022-01-17,ＬＴ１５合同会社,,合同会社,東京都,港区,南青山２丁目２番１５号,,13,103,1070062,,,,,,,2022-01-17,1,,,,,,0
2146,7010403026881,新規,0,2022-01-17,2022-01-17,合同会社ＭＴデータマネージメント,,合同会社,東京都,港区,南青山４丁目５番２０号,,13,103,1070062,,,,,,,2022-01-17,1,,,,,エムティーデータマネージメント,0
2152,7010601060534,新規,0,2022-01-17,2022-01-17,株式会社ＯＳＰ,,株式会社,東京都,墨田区,墨田３丁目１－１８,,13,107,1310031,,,,,,,2022-01-17,1,,,,,オーエスピー,0
2161,7010903007084,新規,0,2022-01-17,2022-01-17,合同会社クラフトパートナーズ,,合同会社,東京都,世田谷区,上用賀１丁目８番９号興和ビル４階,,13,112,1580098,,,,,,,2022-01-17,1,,,,,クラフトパートナーズ,0
2166,7011001145033,新規,0,2022-01-17,2022-01-17,株式会社Ｄｕａｌ　Ｌｉｆｅ　Ｄｅｓｉｇｎ,,株式会社,東京都,渋谷区,鉢山町７番２７,,13,113,1500035,,,,,,,2022-01-17,1,,,,,デュアルライフデザイン,0
2170,7011003013989,新規,0,2022-01-17,2022-01-17,ＦＡＲＢＬＥ合同会社,,合同会社,東京都,渋谷区,代々木１丁目２５番５号ＢＩＺＳＭＡＲＴ代々木３２４号室,,13,113,1510053,,,,,,,2022-01-17,1,,,,,ファーブル,0
2171,7011005009382,新規,0,2022-01-17,2022-01-17,一般社団法人ハーティン,,その他の設立登記法人,東京都,渋谷区,恵比寿１丁目１５番９号,,13,113,1500013,,,,,,,2022-01-17,1,,,,,ハーティン,0
2180,7011103011364,新規,0,2022-01-17,2022-01-17,合同会社ａｏｙｕｍｅ,,合同会社,東京都,新宿区,西新宿３丁目３番１３号西新宿水間ビル６階,,13,104,1600023,,,,,,,2022-01-17,1,,,,,アオユメ,0
2181,7011201023542,新規,0,2022-01-17,2022-01-17,株式会社マミリス,,株式会社,東京都,中野区,東中野３丁目１５番２３号,,13,114,1640003,,,,,,,2022-01-17,1,,,,,マミリス,0
2182,7011301027484,新規,0,2022-01-17,2022-01-17,株式会社ＹｕｍＧｒｅｅｎｓ,,株式会社,東京都,杉並区,阿佐谷北２丁目９番２０号,,13,115,1660001,,,,,,,2022-01-17,1,,,,,ヤムグリーンズ,0
2186,7011701024973,新規,0,2022-01-17,2022-01-17,株式会社ＫＡＲＥＭＯ,,株式会社,東京都,江戸川区,中葛西６丁目２番１４－３０２号,,13,123,1340083,,,,,,,2022-01-17,1,,,,,カレモ,0
2189,7011801040160,新規,0,2022-01-17,2022-01-17,株式会社トリオポ,,株式会社,東京都,足立区,梅島３丁目３６番２１号ドミールアイ２０１,,13,121,1210816,,,,,,,2022-01-17,1,,,,,トリオポ,0
2190,7011801040210,新規,0,2022-01-17,2022-01-17,株式会社とよでん,,株式会社,東京都,足立区,花畑４丁目３０－１,,13,121,1210061,,,,,,,2022-01-17,1,,,,,トヨデン,0
2193,7012701016886,新規,0,2022-01-17,2022-01-17,株式会社縁結,,株式会社,東京都,小平市,小川東町１丁目２８－６,,13,211,1870031,,,,,,,2022-01-17,1,,,,,エンムスビ,0
2197,7013301048543,新規,0,2022-01-17,2022-01-17,株式会社Ｐｏｌａｒｉｓ　Ｄｉｐｐｅｒ　Ｃｏｒｐｏｒａｔｉｏｎ,,株式会社,東京都,豊島区,長崎３丁目１番２３号,,13,116,1710051,,,,,,,2022-01-17,1,,,,,ポラリスディッパーコーポレーション,0
2202,7020001144688,新規,0,2022-01-17,2022-01-17,株式会社スペース,,株式会社,神奈川県,横浜市西区,岡野１丁目９番７号リーベスト岡野町ビル２階Ｂ区画,,14,103,2200073,,,,,,,2022-01-17,1,,,,,スペース,0
2203,7020001144705,新規,0,2022-01-17,2022-01-17,株式会社美わんこラボ,,株式会社,神奈川県,横浜市中区,伊勢佐木町５丁目１２５番地伊勢佐木クイントパラディオ６０８号室,,14,104,2310045,,,,,,,2022-01-17,1,,,,,ビワンコラボ,0
2204,7020001144713,新規,0,2022-01-17,2022-01-17,株式会社エレクラクト,,株式会社,神奈川県,川崎市宮前区,西野川３丁目３５番３９号,,14,136,2160044,,,,,,,2022-01-17,1,,,,,エレクラクト,0
2205,7020001144738,新規,0,2022-01-17,2022-01-17,株式会社中野園,,株式会社,神奈川県,横浜市青葉区,新石川４丁目２４番地３１,,14,117,2250003,,,,,,,2022-01-17,1,,,,,ナカノエン,0
2206,7020001144746,新規,0,2022-01-17,2022-01-17,株式会社オフライン,,株式会社,神奈川県,横浜市中区,山田町３番地１,,14,104,2310036,,,,,,,2022-01-17,1,,,,,オフライン,0
2207,7020001144754,新規,0,2022-01-17,2022-01-17,株式会社Ｍ．Ｆ．Ｃｏｎｓｕｌｔｉｎｇ,,株式会社,神奈川県,横浜市鶴見区,上の宮２丁目１０番２－２１９号,,14,101,2300075,,,,,,,2022-01-17,1,,,,,エムエフコンサルティング,0
2208,7020001144804,新規,0,2022-01-17,2022-01-17,株式会社シゼビー,,株式会社,神奈川県,川崎市川崎区,駅前本町１１番地２川崎フロンティアビル４階,,14,131,2100007,,,,,,,2022-01-17,1,,,,,シゼビー,0
2209,7020001144812,新規,0,2022-01-17,2022-01-17,株式会社大心建装,,株式会社,神奈川県,横浜市都筑区,川向町１３０４番地１９,,14,118,2240044,,,,,,,2022-01-17,1,,,,,ダイシンケンソウ,0
2211,7020003021142,新規,0,2022-01-17,2022-01-17,合同会社ベルク,,合同会社,神奈川県,川崎市宮前区,土橋３丁目２７番地１２,,14,136,2160005,,,,,,,2022-01-17,1,,,,,ベルク,0
2212,7020005015349,新規,0,2022-01-17,2022-01-17,一般社団法人日本不妊検査普及協会,,その他の設立登記法人,神奈川県,横浜市中区,北仲通５丁目５７番地２－２８２３号室,,14,104,2310003,,,,,,,2022-01-17,1,,,,,ニホンフニンケンサフキュウキョウカイ,0
2216,7021003011281,新規,0,2022-01-17,2022-01-17,合同会社Ｐａｔｒｏｎｕｍ,,合同会社,神奈川県,鎌倉市,長谷２丁目６－１８グランメール由比ヶ浜３０２,,14,204,2480016,,,,,,,2022-01-17,1,,,,,パトローナム,0
2217,7021003011298,新規,0,2022-01-17,2022-01-17,ＡＭＥＥＮＡ　ＥＮＴＥＲＰＲＩＳＥ合同会社,,合同会社,神奈川県,相模原市中央区,水郷田名３丁目１５番３号,,14,152,2520246,,,,,,,2022-01-17,1,,,,,アメーナエンタープライズ,0
2228,7030001146378,新規,0,2022-01-17,2022-01-17,株式会社うめだ屋,,株式会社,埼玉県,秩父郡長瀞町,大字長瀞２６８,,11,363,3691305,,,,,,,2022-01-17,1,,,,,ウメダヤ,0
2233,7030003018658,新規,0,2022-01-17,2022-01-17,合同会社大樹パートナーズ,,合同会社,埼玉県,越谷市,東越谷２丁目１９番地４ダイヤ東越谷コーポ２０５,,11,222,3430023,,,,,,,2022-01-17,1,,,,,タイジュパートナーズ,0
2234,7030003018666,新規,0,2022-01-17,2022-01-17,合同会社イチゲト,,合同会社,埼玉県,八潮市,緑町３丁目７番地１３,,11,234,3400808,,,,,,,2022-01-17,1,,,,,イチゲト,0
2248,7040001121553,新規,0,2022-01-17,2022-01-17,株式会社ＹＯＭＩＲＵ商会,,株式会社,千葉県,木更津市,本郷１丁目９番１６号平野ハイツ２０５,,12,206,2920015,,,,,,,2022-01-17,1,,,,,ヨミルショウカイ,0
2249,7040001121751,新規,0,2022-01-17,2022-01-17,株式会社ＨＡＮＥＺＵＫＩ,,株式会社,千葉県,市原市,五井西７丁目５番地１３,,12,219,2900038,,,,,,,2022-01-17,1,,,,,ハネズキ,0
2256,7040005021493,新規,0,2022-01-17,2022-01-17,Ａｌｌ一般社団法人,,その他の設立登記法人,千葉県,千葉市緑区,誉田町２丁目２０番地９０８ジーナル２棟１０３号,,12,105,2660005,,,,,,,2022-01-17,1,,,,,オール,0
2260,7050001050454,新規,0,2022-01-17,2022-01-17,株式会社ＯＫＡ　ＷＯＲＫＳ,,株式会社,茨城県,日立市,諏訪町６丁目２２番９号,,08,202,3160001,,,,,,,2022-01-17,1,,,,,オカワークス,0
2261,7050001050470,新規,0,2022-01-17,2022-01-17,株式会社ＮＡＲＩＡ,,株式会社,茨城県,下妻市,五箇１３１番地１２８,,08,210,3040823,,,,,,,2022-01-17,1,,,,,ナリア,0
2262,7050003006314,新規,0,2022-01-17,2022-01-17,合同会社ａｂｅｌｌｙ,,合同会社,茨城県,取手市,米ノ井５０６番地,,08,217,3020033,,,,,,,2022-01-17,1,,,,,アベリー,0
2263,7050005012995,新規,0,2022-01-17,2022-01-17,行政書士法人押見評価鑑定事務所,,その他の設立登記法人,茨城県,守谷市,みずき野６丁目３３番地４,,08,224,3020121,,,,,,,2022-01-17,1,,,,,オシミヒョウカカンテイジムショ,0
2268,7060001034480,新規,0,2022-01-17,2022-01-17,株式会社ファンホールディングス,,株式会社,栃木県,宇都宮市,ゆいの杜２丁目２０番１６号,,09,201,3213226,,,,,,,2022-01-17,1,,,,,ファンホールディングス,0
2274,7070003004357,新規,0,2022-01-17,2022-01-17,ＮｅｘｔＦｒｏｎｔＬｉｎｅ合同会社,,合同会社,群馬県,太田市,飯田町７８３イエロートータスビル３０１,,10,205,3730851,,,,,,,2022-01-17,1,,,,,ネクストフロントライン,0
2283,7100005012809,新規,0,2022-01-17,2022-01-17,学校法人インターナショナルスクールオブ長野,,その他の設立登記法人,長野県,松本市,五常６３８７番地１,,20,202,3997401,,,,,,,2022-01-17,1,,,,,インターナショナルスクールオブナガノ,0
2291,7120001243133,新規,0,2022-01-17,2022-01-17,ぷらすえん株式会社,,株式会社,大阪府,大阪市中央区,島之内１丁目８番８号６階,,27,128,5420082,,,,,,,2022-01-17,1,,,,,プラスエン,0
2292,7120001243141,新規,0,2022-01-17,2022-01-17,メディグル株式会社,,株式会社,大阪府,大阪市西区,江戸堀１丁目２２－１７西船場辰巳ビル６Ｆ,,27,106,5500002,,,,,,,2022-01-17,1,,,,,メディグル,0
2293,7120001243174,新規,0,2022-01-17,2022-01-17,株式会社日工電気,,株式会社,大阪府,大阪市中央区,農人橋２丁目１番２０号,,27,128,5400011,,,,,,,2022-01-17,1,,,,,ニッコウデンキ,0
2294,7120001243182,新規,0,2022-01-17,2022-01-17,株式会社エムズホールディングス,,株式会社,大阪府,枚方市,南中振２丁目８９番３号,,27,210,5730094,,,,,,,2022-01-17,1,,,,,エムズホールディングス,0
2295,7120001243216,新規,0,2022-01-17,2022-01-17,株式会社ジュジュ,,株式会社,大阪府,枚方市,招提大谷３丁目４７番１０号,,27,210,5731153,,,,,,,2022-01-17,1,,,,,ジュジュ,0
2296,7120001243232,新規,0,2022-01-17,2022-01-17,株式会社ポジピース,,株式会社,大阪府,大阪市城東区,鴫野西５丁目１番１－７１４号,,27,118,5360014,,,,,,,2022-01-17,1,,,,,ポジピース,0
2298,7120003020935,新規,0,2022-01-17,2022-01-17,合同会社ＲＩＨＩＡ,,合同会社,大阪府,大阪市生野区,巽北３丁目１２番３２号,00125410,27,116,5440004,,,,,,,2022-01-17,1,,,,,リヒア,0
2299,7120003020951,新規,0,2022-01-17,2022-01-17,合同会社ぽの,,合同会社,大阪府,交野市,幾野２丁目３５－１,,27,230,5760054,,,,,,,2022-01-17,1,,,,,ポノ,0
2300,7120003020968,新規,0,2022-01-17,2022-01-17,合同会社寿,,合同会社,大阪府,寝屋川市,木屋元町９番２４－４０２号,,27,215,5720088,,,,,,,2022-01-17,1,,,,,コトブキ,0
2301,7120005022707,新規,0,2022-01-17,2022-01-17,税理士法人Ｂｅｓｏ,,その他の設立登記法人,大阪府,大阪市北区,曾根崎新地１丁目１３番２２号御堂筋フロンティア１階ＷｅＷｏｒｋ,,27,127,5300002,,,,,,,2022-01-17,1,,,,,ベソ,0
2302,7120005022715,新規,0,2022-01-17,2022-01-17,なんば社会保険労務士法人,,その他の設立登記法人,大阪府,大阪市中央区,天満橋京町１番１号大阪キャッスルホテル４１４号,,27,128,5400032,,,,,,,2022-01-17,1,,,,,ナンバ,0
2304,7120101064925,新規,0,2022-01-17,2022-01-17,龍工業株式会社,,株式会社,大阪府,堺市西区,草部８０３－４,,27,144,5938312,,,,,,,2022-01-17,1,,,,,リュウコウギョウ,0
2306,7122003002252,新規,0,2022-01-17,2022-01-17,Ｃｈａｒｉｐ合同会社,,合同会社,大阪府,東大阪市,稲田上町１丁目５番４－８０２号,,27,227,5770002,,,,,,,2022-01-17,1,,,,,チャリップ,0
2311,7130001070907,新規,0,2022-01-17,2022-01-17,屋島興産株式会社,,株式会社,京都府,宇治市,槇島町十一１２６番地の３９,,26,204,6110041,,,,,,,2022-01-17,1,,,,,ヤシマコウサン,0
2312,7130001070915,新規,0,2022-01-17,2022-01-17,株式会社三喜クリエーション,,株式会社,京都府,京都市上京区,表町３１番地の１グランコスモ御所１０１,,26,102,6020825,,,,,,,2022-01-17,1,,,,,ミキクリエーション,0
2313,7130001070931,新規,0,2022-01-17,2022-01-17,株式会社英雄,,株式会社,京都府,城陽市,寺田東ノ口５５番地の３３,,26,207,6100121,,,,,,,2022-01-17,1,,,,,ヒーロー,0
2316,7130003007691,新規,0,2022-01-17,2022-01-17,吉祥合同会社,,合同会社,京都府,京都市下京区,風早町５６９番地２０,,26,106,6008475,,,,,,,2022-01-17,1,,,,,キッショウ,0
2318,7140001124579,新規,0,2022-01-17,2022-01-17,株式会社雅屋,,株式会社,兵庫県,尼崎市,栗山町２丁目１７番１号３０２,,28,202,6610013,,,,,,,2022-01-17,1,,,,,ミヤビヤ,0
2321,7140003017228,新規,0,2022-01-17,2022-01-17,楽笑合同会社,,合同会社,兵庫県,加西市,北条町古坂７丁目１００番地ヒューマンプレイス２０６号,,28,220,6752303,,,,,,,2022-01-17,1,,,,,ラクワ,0
2322,7140003017236,新規,0,2022-01-17,2022-01-17,鈴木建築事務所合同会社,,合同会社,兵庫県,姫路市,砥堀１１３５番地３,,28,201,6700802,,,,,,,2022-01-17,1,,,,,スズキケンチクジムショ,0
2323,7140003017244,新規,0,2022-01-17,2022-01-17,合同会社Ｎイノベーション,,合同会社,兵庫県,姫路市,白国４丁目１５番６号,,28,201,6700808,,,,,,,2022-01-17,1,,,,,エヌイノベーション,0
2325,7140005025988,新規,0,2022-01-17,2022-01-17,特定非営利活動法人カレッジＸカレッジ,,その他の設立登記法人,兵庫県,宝塚市,中州１丁目７番２２号,,28,214,6650021,,,,,,,2022-01-17,1,,,,,カレッジカレッジ,0
2349,7170001016939,新規,0,2022-01-17,2022-01-17,片山住宅株式会社,00125365,株式会社,和歌山県,和歌山市,吉田２２６番地,,30,201,6408343,,,,,,,2022-01-17,1,,,,,カタヤマジュウタク,0
2358,7180001149465,新規,0,2022-01-17,2022-01-17,株式会社ＴＲＹ．ａｎｄ,,株式会社,愛知県,愛西市,北一色町四町１３２番地,,23,232,4960905,,,,,,,2022-01-17,1,,,,,トライアンド,0
2359,7180001149515,新規,0,2022-01-17,2022-01-17,株式会社Ｃｏｌｏｕｒ＆Ｗｏｒｄ,,株式会社,愛知県,稲沢市,治郎丸細道町３３番地１,,23,220,4928133,,,,,,,2022-01-17,1,,,,,カラーアンドワード,0
2360,7180001149531,新規,0,2022-01-17,2022-01-17,株式会社ＩＣＨＩＷＡ,,株式会社,愛知県,常滑市,字堕星２８番地の１,,23,216,4790022,,,,,,,2022-01-17,1,,,,,イチワ,0
2361,7180001149548,新規,0,2022-01-17,2022-01-17,リノベース株式会社,,株式会社,愛知県,一宮市,浅井町小日比野字大ケ島８７４番地３７,,23,203,4910104,,,,,,,2022-01-17,1,,,,,リノベース,0
2362,7180001149556,新規,0,2022-01-17,2022-01-17,株式会社Ｓ・ｇｒｅｅｎ,,株式会社,愛知県,海部郡大治町,大字砂子字堂地８１０番地の１,,23,424,4901143,,,,,,,2022-01-17,1,,,,,エスグリーン,0
2363,7180001149572,新規,0,2022-01-17,2022-01-17,株式会社ＯＣＳ,,株式会社,愛知県,名古屋市中区,大須１丁目２２番２６号,,23,106,4600011,,,,,,,2022-01-17,1,,,,,オークス,0
2365,7180003023379,新規,0,2022-01-17,2022-01-17,合同会社岡松教育進学研究所,,合同会社,愛知県,名古屋市瑞穂区,春山町１４番地の１八事春山ヒルズ３０７号,,23,108,4670024,,,,,,,2022-01-17,1,,,,,オカマツキョウイクシンガクケンキュウジョ,0
2366,7180003023387,新規,0,2022-01-17,2022-01-17,ＭＩＳＳＩＬＥ　ＦＡＣＴＯＲＹ　ＪＡＰＡＮ合同会社,,合同会社,愛知県,名古屋市千種区,法王町２丁目１２番地,,23,101,4640057,,,,,,,2022-01-17,1,,,,,ミサイルファクトリージャパン,0
2370,7180303005226,新規,0,2022-01-17,2022-01-17,合同会社こむぎ,,合同会社,愛知県,豊田市,東山町２丁目１０７２番地４０セジュール東山２０２,,23,211,4710014,,,,,,,2022-01-17,1,,,,,コムギ,0
2375,7200001039663,新規,0,2022-01-17,2022-01-17,株式会社Ｍｙａｌｌ,,株式会社,岐阜県,岐阜市,加納神明町４丁目９番地クレール神明１Ａ号室,,21,201,5008462,,,,,,,2022-01-17,1,,,,,マイオール,0
2378,7210001018773,新規,0,2022-01-17,2022-01-17,ＹＳＲ株式会社,,株式会社,福井県,福井市,清水畑町第１２号２１番地,,18,201,9103646,,,,,,,2022-01-17,1,,,,,ワイエスアール,0
2380,7210003001447,新規,0,2022-01-17,2022-01-17,合同会社Ｃｒｏｓｓ　Ｐａｒｔｎｅｒｓ　Ｊａｐａｎ,,合同会社,福井県,福井市,西木田５丁目１１番３号グリーンパーク西木田３０５号室,,18,201,9188004,,,,,,,2022-01-17,1,,,,,クロスパートナーズジャパン,0
2385,7230001019191,新規,0,2022-01-17,2022-01-17,株式会社ＭＢＫ　ｍｅｔａｌ　ｗｏｒｋｓ,,株式会社,富山県,富山市,新庄町５１番地５,,16,201,9300992,,,,,,,2022-01-17,1,,,,,エムビーケーメタルワークス,0
2388,7240001059212,新規,0,2022-01-17,2022-01-17,株式会社フリーダムシェイプ,,株式会社,広島県,呉市,吉浦新町１丁目６番９号,,34,202,7370845,,,,,,,2022-01-17,1,,,,,フリーダムシェイプ,0
2390,7240003005461,新規,0,2022-01-17,2022-01-17,合同会社ＭＩＫＳｉｓｍ．ｃｏｂ,,合同会社,広島県,広島市西区,三滝町７－５シャトー金口１０３号室,,34,104,7330005,,,,,,,2022-01-17,1,,,,,ミクシズムドットコブ,0
2392,7250001019347,新規,0,2022-01-17,2022-01-17,株式会社ＵＮＩＴ,,株式会社,山口県,下関市,岬之町９番６号杏林ビル１０３,,35,201,7500014,,,,,,,2022-01-17,1,,,,,ユニット,0
2393,7250001019355,新規,0,2022-01-17,2022-01-17,株式会社エムケイ,,株式会社,山口県,宇部市,昭和町３丁目１４番５２号,,35,202,7550011,,,,,,,2022-01-17,1,,,,,エムケイ,0
2394,7250001019363,新規,0,2022-01-17,2022-01-17,維新プラント工業株式会社,,株式会社,山口県,周南市,大字栗屋３８０番地の１,,35,215,7450802,,,,,,,2022-01-17,1,,,,,イシンプラントコウギョウ,0
2400,7260003003777,新規,0,2022-01-17,2022-01-17,ベクシア合同会社,,合同会社,岡山県,岡山市中区,湯迫１５番地７,,33,102,7038202,,,,,,,2022-01-17,1,,,,,ベクシア,0
2406,7290801003827,新規,0,2022-01-17,2022-01-17,株式会社祐神建設,,株式会社,福岡県,北九州市小倉北区,馬借３丁目３番３７号,,40,106,8020077,,,,,,,2022-01-17,1,,,,,,0
2407,7290805009515,新規,0,2022-01-17,2022-01-17,ＮＰＯ法人こども学びサポートきずな,,その他の設立登記法人,福岡県,田川郡糸田町,宮床１８９８番地３,,40,604,8221307,,,,,,,2022-01-17,1,,,,,コドモマナビサポートキズナ,0
2408,7300001012775,新規,0,2022-01-17,2022-01-17,株式会社湯どころ,,株式会社,佐賀県,佐賀市,神園６丁目４番３５号,,41,201,8400806,,,,,,,2022-01-17,1,,,,,ユドコロ,0
2409,7300003001776,新規,0,2022-01-17,2022-01-17,合同会社木塚オフィス,,合同会社,佐賀県,佐賀市,久保泉町大字下和泉２３６６,,41,201,8490903,,,,,,,2022-01-17,1,,,,,キツカオフィス,0
2415,7320003003705,新規,0,2022-01-17,2022-01-17,合同会社ぐらすらんど,,合同会社,大分県,別府市,大字浜脇６２番地の４,,44,202,8740947,,,,,,,2022-01-17,1,,,,,グラスランド,0
2416,7320005009956,新規,0,2022-01-17,2022-01-17,一般社団法人Ｍｆｉｓｅａ,,その他の設立登記法人,大分県,別府市,大字北石垣１１８７番地の４ロフティ春木Ａ館２０６号,,44,202,8740000,,,,,,,2022-01-17,1,,,,,エムフィッシャー,0
2439,7370005010430,新規,0,2022-01-17,2022-01-17,一般社団法人クローバー仙台,,その他の設立登記法人,宮城県,仙台市若林区,三本塚字北中谷地２５２番地の２,,04,103,9840841,,,,,,,2022-01-17,1,,,,,クローバーセンダイ,0
2445,7380003005084,新規,0,2022-01-17,2022-01-17,ＨＩＩＲＡＧＩ　ＩＮＶＥＳＴＭＥＮＴ合同会社,,合同会社,福島県,耶麻郡猪苗代町,大字磐里字八千代５番地３,,07,408,9693141,,,,,,,2022-01-17,1,,,,,ヒイラギインベストメント,0
2446,7390003001909,新規,0,2022-01-17,2022-01-17,合同会社Ｒｏｏｔ　Ｆｏｒ　Ｙａｍａｇａｔａ,,合同会社,山形県,米沢市,大字簗沢５１４９,,06,202,9920077,,,,,,,2022-01-17,1,,,,,ルートフォーヤマガタ,0
2448,7400001015743,新規,0,2022-01-17,2022-01-17,株式会社ワンダーズアドベンチャー,,株式会社,岩手県,奥州市,水沢太日通り３丁目６番１０号,,03,215,0230827,,,,,,,2022-01-17,1,,,,,ワンダーズアドベンチャー,0
2451,7420001017705,新規,0,2022-01-17,2022-01-17,株式会社ちからカンパニー,,株式会社,青森県,八戸市,八太郎３丁目１番１２号,,02,203,0391168,,,,,,,2022-01-17,1,,,,,チカラカンパニー,0
2463,7430001085791,新規,0,2022-01-17,2022-01-17,株式会社ＩＤＷＣ,,株式会社,北海道,札幌市東区,北二十一条東１３丁目３番３－１０３号,,01,103,0650021,,,,,,,2022-01-17,1,,,,,アイディーダブリューシー,0
2464,7430001085809,新規,0,2022-01-17,2022-01-17,株式会社らしく,,株式会社,北海道,札幌市東区,北八条東３丁目２番２０号,,01,103,0600908,,,,,,,2022-01-17,1,,,,,ラシク,0
2465,7430001085833,新規,0,2022-01-17,2022-01-17,株式会社Ｃｅｌｕｍ　Ｐａｒｔｎｅｒｓ,,株式会社,北海道,札幌市中央区,大通西９丁目３番地３３,,01,101,0600042,,,,,,,2022-01-17,1,,,,,セルムパートナーズ,0
2468,7430003013536,新規,0,2022-01-17,2022-01-17,合同会社ラジカルブリッジ,,合同会社,北海道,札幌市手稲区,新発寒五条８丁目１番１４号,,01,109,0060805,,,,,,,2022-01-17,1,,,,,ラジカルブリッジ,0
2469,7430003013544,新規,0,2022-01-17,2022-01-17,合同会社ひざし,,合同会社,北海道,石狩市,花川南五条５丁目６７フラワーリバーＩＩ－３０２号,00125412,01,235,0613205,,,,,,,2022-01-17,1,,,,,ヒザシ,0
2473,7460101007123,新規,0,2022-01-17,2022-01-17,株式会社トラストアース,,株式会社,北海道,帯広市,西八条北１丁目２０番地２,,01,207,0800038,,,,,,,2022-01-17,1,,,,,トラストアース,0
2485,7490001010091,新規,0,2022-01-17,2022-01-17,株式会社カーオールマイティープロダクト,,株式会社,高知県,吾川郡いの町,池ノ内２４７番地３,,39,386,7812121,,,,,,,2022-01-17,1,,,,,カーオールマイティープロダクト,0
2490,7700150106676,新規,0,2022-01-17,2022-01-17,ＡｓａｈｉＤｅｎｓｏＲ＆Ｄ　ＩｎｄｉａＰｒｉｖａｔｅＬｔｄ．,,外国会社等,,,,,,,,Ｎｏ．７２／１４，ＣＨＡＴＥＡＵ　ＤＥ　ＭＡＲＱＵＥ，２ｎｄ　ＦＬＯＯＲ，Ｎｏ．２０４，Ｎｏ．７２　Ｓｔ．ＭＡＲＫＳ　ＲＯＡＤ，，ＢＥＮＧＡＬＵＲＵ，Ｂａｎｇａｌｏｒｅ，Ｋａｒｎａｔａｋａ，Ｉｎｄｉａ，５６０００１,,,,,,2022-01-17,1,,,,,アサヒデンソーアールアンドデイインデイアプライベートリミテツド,0
2498,8010001223780,新規,0,2022-01-17,2022-01-17,楽冨里株式会社,,株式会社,東京都,千代田区,九段南１丁目５番６号りそな九段ビル５階ＫＳフロア,,13,101,1020074,,,,,,,2022-01-17,1,,,,,ラフリ,0
2499,8010001223855,新規,0,2022-01-17,2022-01-17,プリンシプ株式会社,,株式会社,東京都,中央区,銀座８丁目８番１５号－６１３,,13,102,1040061,,,,,,,2022-01-17,1,,,,,プリンシプ,0
2504,8010003036719,新規,0,2022-01-17,2022-01-17,合同会社ＬＭ１,,合同会社,東京都,千代田区,丸の内３丁目１番１号東京共同会計事務所内,,13,101,1000005,,,,,,,2022-01-17,1,,,,,エルエムワン,0
2516,8010401164889,新規,0,2022-01-17,2022-01-17,ファイブスタープランニング株式会社,,株式会社,東京都,港区,南青山３丁目８－４０青山センタービル２Ｆ,,13,103,1070062,,,,,,,2022-01-17,1,,,,,ファイブスタープランニング,0
2517,8010401164897,新規,0,2022-01-17,2022-01-17,株式会社Ｍｒ．Ｗａｎｄｅｒｌｕｓｔ,,株式会社,東京都,港区,南青山５丁目１１番２４号グレイセス２Ｆ,,13,103,1070062,,,,,,,2022-01-17,1,,,,,ミスターワンダーラスト,0
2520,8010501048331,新規,0,2022-01-17,2022-01-17,株式会社Ｍｉｍｙ,,株式会社,東京都,台東区,上野６丁目８番１９号,,13,106,1100005,,,,,,,2022-01-17,1,,,,,ミミィ,0
2521,8010601060533,新規,0,2022-01-17,2022-01-17,株式会社ＡＳＫ　ｔｅｃｈｎｏ,,株式会社,東京都,墨田区,緑３丁目４番１５－６０１号,,13,107,1300021,,,,,,,2022-01-17,1,,,,,エーエスケーテクノ,0
2524,8010603009355,新規,0,2022-01-17,2022-01-17,カノン合同会社,,合同会社,東京都,江東区,扇橋２丁目７番４号,,13,108,1350011,,,,,,,2022-01-17,1,,,,,カノン,0
2527,8010701042002,新規,0,2022-01-17,2022-01-17,Ｔｏｒａｄｅｘ　Ｊａｐａｎ株式会社,,株式会社,東京都,品川区,東五反田１丁目５番１－４１３号海老原国際税務事務所内,,13,109,1410022,,,,,,,2022-01-17,1,,,,,トラデックス,0
2528,8010701042084,新規,0,2022-01-17,2022-01-17,ＥＧＣ株式会社,,株式会社,東京都,品川区,南大井６丁目２６番１号,,13,109,1400013,,,,,,,2022-01-17,1,,,,,イージーシー,0
2529,8010801032646,新規,0,2022-01-17,2022-01-17,株式会社ＰＲＡＥＤＩＵＭＳ,,株式会社,東京都,大田区,東矢口３丁目２８番１１号,,13,111,1460094,,,,,,,2022-01-17,1,,,,,プラエディウムス,0
2534,8010903007075,新規,0,2022-01-17,2022-01-17,Ａｉｒ　Ｈｕｇ合同会社,,合同会社,東京都,世田谷区,奥沢２丁目４３－２１,,13,112,1580083,,,,,,,2022-01-17,1,,,,,エアハグ,0
2537,8011001145081,新規,0,2022-01-17,2022-01-17,Ｗｅｎｉｓｃｈ＆Ｃｏｍｐａｎｙ株式会社,,株式会社,東京都,渋谷区,恵比寿３丁目２３番４－２０１号,,13,113,1500013,,,,,,,2022-01-17,1,,,,,ヴェニッシュアンドカンパニー,0
2538,8011003013939,新規,0,2022-01-17,2022-01-17,合同会社アルカディア,,合同会社,東京都,渋谷区,広尾５丁目９番２７号,,13,113,1500012,,,,,,,2022-01-17,1,,,,,アルカディア,0
2539,8011003013971,新規,0,2022-01-17,2022-01-17,合同会社Ｔｈｕｎｄｅｒｂｏｌｔ,,合同会社,東京都,渋谷区,神宮前６丁目２３番４号桑野ビル２階,,13,113,1500001,,,,,,,2022-01-17,1,,,,,サンダーボルト,0
2540,8011003014004,新規,0,2022-01-17,2022-01-17,Ｏｙｓｔｅｒ　ＨＲ　Ｊａｐａｎ合同会社,,合同会社,東京都,渋谷区,東１丁目２８番６号ライオンズマンション渋谷シティ１１０２号望月会計事務所内,,13,113,1500011,,,,,,,2022-01-17,1,,,,,オイスターエイチアールジャパン,0
2541,8011005009398,新規,0,2022-01-17,2022-01-17,ピースアップ司法書士法人,,その他の設立登記法人,東京都,渋谷区,千駄ヶ谷５丁目２９番１１号６０２号室,,13,113,1510051,,,,,,,2022-01-17,1,,,,,ピースアップ,0
2545,8011201023541,新規,0,2022-01-17,2022-01-17,株式会社ナンバーフォー,,株式会社,東京都,中野区,東中野１丁目３６番３号,,13,114,1640003,,,,,,,2022-01-17,1,,,,,ナンバーフォー,0
2548,8011301027483,新規,0,2022-01-17,2022-01-17,株式会社Ｓ．Ｔ．Ｄ．Ｙ,,株式会社,東京都,杉並区,成田東４丁目１１番１６号テレパレス阿佐ヶ谷の杜２－３０２,,13,115,1660015,,,,,,,2022-01-17,1,,,,,スタディー,0
2551,8011603003496,新規,0,2022-01-17,2022-01-17,合同会社アンリミテッド,,合同会社,東京都,練馬区,旭丘１丁目６５番２０－６０４号,,13,120,1760005,,,,,,,2022-01-17,1,,,,,アンリミテッド,0
2552,8011701024980,新規,0,2022-01-17,2022-01-17,株式会社ｇｅｏｓｍｉｎ,,株式会社,東京都,江戸川区,中葛西４丁目７番１－４０１号,,13,123,1340083,,,,,,,2022-01-17,1,,,,,ジオスミン,0
2554,8012401038759,新規,0,2022-01-17,2022-01-17,ＴｅＲｕｎｏ株式会社,,株式会社,東京都,三鷹市,新川６丁目２４番４号,,13,204,1810004,,,,,,,2022-01-17,1,,,,,テルノ,0
2557,8012703002388,新規,0,2022-01-17,2022-01-17,合同会社一陽ファーム,,合同会社,東京都,清瀬市,中里４丁目８５０番地５,,13,221,2040003,,,,,,,2022-01-17,1,,,,,イチヨウファーム,0
2559,8012801021331,新規,0,2022-01-17,2022-01-17,株式会社ハッピーホーム,,株式会社,東京都,日野市,南平７丁目１８番５４号多田ビル１Ｆ,,13,212,1910041,,,,,,,2022-01-17,1,,,,,ハッピーホーム,0
2565,8013301048542,新規,0,2022-01-17,2022-01-17,コンパス株式会社,,株式会社,東京都,豊島区,高田３丁目２１番１１－６０１号,,13,116,1710033,,,,,,,2022-01-17,1,,,,,コンパス,0
2566,8013301048550,新規,0,2022-01-17,2022-01-17,栄賀株式会社,,株式会社,東京都,豊島区,東池袋１丁目１７番１１号パークハイツ池袋１１０５号,,13,116,1700013,,,,,,,2022-01-17,1,,,,,エイカ,0
2574,8020001144737,新規,0,2022-01-17,2022-01-17,株式会社ＫＭＫシロタ,,株式会社,神奈川県,横浜市戸塚区,戸塚町３４５７番地,,14,110,2440003,,,,,,,2022-01-17,1,,,,,ケーエムケーシロタ,0
2575,8020001144753,新規,0,2022-01-17,2022-01-17,ＳｋｅｎＨｏｍｅ株式会社,,株式会社,神奈川県,横浜市南区,弘明寺町１６７番地２クリオ弘明寺壱番館２０４号室,,14,105,2320067,,,,,,,2022-01-17,1,,,,,エスケンホーム,0
2576,8020001144778,新規,0,2022-01-17,2022-01-17,ＢｅＢｉｚ株式会社,,株式会社,神奈川県,横浜市中区,桜木町１丁目１０１番地１クロスゲート７階,,14,104,2310062,,,,,,,2022-01-17,1,,,,,ビービズ,0
2577,8020001144803,新規,0,2022-01-17,2022-01-17,株式会社都市環境建築意匠設計事務所,,株式会社,神奈川県,川崎市宮前区,犬蔵２丁目１０番６－７０３号,,14,136,2160011,,,,,,,2022-01-17,1,,,,,トシカンキョウケンチクイショウセッケイジムショ,0
2580,8020005015356,新規,0,2022-01-17,2022-01-17,一般社団法人ＪＱＩ補完医療協会,,その他の設立登記法人,神奈川県,横浜市鶴見区,東寺尾５丁目２番１０－４０４号,,14,101,2300077,,,,,,,2022-01-17,1,,,,,ジェイキューアイホカンイリョウキョウカイ,0
2588,8021003011289,新規,0,2022-01-17,2022-01-17,合同会社ヨコスカ・サンキュー,,合同会社,神奈川県,横須賀市,若松町１丁目２番地ヒトモトビル４階,,14,201,2380007,,,,,,,2022-01-17,1,,,,,ヨコスカサンキュー,0
2592,8030001146261,新規,0,2022-01-17,2022-01-17,株式会社ＭＯＮＤコーポレーション,,株式会社,埼玉県,川口市,大字伊刈１７８番地４,,11,203,3330865,,,,,,,2022-01-17,1,,,,,モンドコーポレーション,0
2593,8030001146336,新規,0,2022-01-17,2022-01-17,前誠貿易株式会社,,株式会社,埼玉県,川口市,西川口１丁目３０－２０Ｔ・Ｂ・Ｓ企画ビル２１２,,11,203,3320021,,,,,,,2022-01-17,1,,,,,ゼンセイボウエキ,0
2594,8030001146385,新規,0,2022-01-17,2022-01-17,株式会社輝宝,,株式会社,埼玉県,川口市,大字赤井１３３４番地の１,,11,203,3340073,,,,,,,2022-01-17,1,,,,,キホウ,0
2602,8040001121718,新規,0,2022-01-17,2022-01-17,株式会社昭和塗装サービス,,株式会社,千葉県,千葉市花見川区,宮野木台２丁目６番２０号,,12,102,2620015,,,,,,,2022-01-17,1,,,,,ショウワトソウサービス,0
2603,8040001121809,新規,0,2022-01-17,2022-01-17,ＢｌｕｅＳｋｙ株式会社,,株式会社,千葉県,印西市,原１丁目２,,12,231,2701335,,,,,,,2022-01-17,1,,,,,ブルースカイ,0
2606,8050001050420,新規,0,2022-01-17,2022-01-17,株式会社ＢＡＮＤＯルーフ,,株式会社,茨城県,坂東市,逆井３２０９番地１,,08,228,3060501,,,,,,,2022-01-17,1,,,,,バンドウルーフ,0
2607,8050001050478,新規,0,2022-01-17,2022-01-17,株式会社ＭＥ工業,,株式会社,茨城県,神栖市,知手２６１６番地５,,08,232,3140115,,,,,,,2022-01-17,1,,,,,エムイーコウギョウ,0
2609,8050003006305,新規,0,2022-01-17,2022-01-17,合同会社アトラス,,合同会社,茨城県,笠間市,大古山６１１番地７１,,08,216,3091724,,,,,,,2022-01-17,1,,,,,アトラス,0
2611,8060003003920,新規,0,2022-01-17,2022-01-17,カメラハウス合同会社,,合同会社,栃木県,足利市,名草下町４３８２,,09,202,3260003,,,,,,,2022-01-17,1,,,,,カメラハウス,0
2616,8070003004356,新規,0,2022-01-17,2022-01-17,合同会社ＮｏｗＣ,,合同会社,群馬県,前橋市,富士見町時沢４９１番地２,,10,201,3710104,,,,,,,2022-01-17,1,,,,,ナウシー,0
2626,8120001243082,新規,0,2022-01-17,2022-01-17,株式会社Ｂｅｓｔａｂｉ,,株式会社,大阪府,大阪市北区,梅田２丁目５番１３号桜橋第一ビル３０４号,,27,127,5300001,,,,,,,2022-01-17,1,,,,,ベスタビ,0
2627,8120001243140,新規,0,2022-01-17,2022-01-17,株式会社ＹＳＤ,,株式会社,大阪府,枚方市,松丘町２０－１８,,27,210,5730012,,,,,,,2022-01-17,1,,,,,ワイエスディー,0
2628,8120001243157,新規,0,2022-01-17,2022-01-17,株式会社Ｐｏｌａｒｉｓ,,株式会社,大阪府,大阪市都島区,毛馬町１丁目４番７号,,27,102,5340001,,,,,,,2022-01-17,1,,,,,ポラリス,0
2629,8120001243215,新規,0,2022-01-17,2022-01-17,株式会社エス・エイチ・アール,,株式会社,大阪府,大阪市西区,北堀江４丁目４番１１－３０７号,,27,106,5500014,,,,,,,2022-01-17,1,,,,,エスエイチアール,0
2630,8120001243231,新規,0,2022-01-17,2022-01-17,株式会社ＴＫＭ,,株式会社,大阪府,大阪市阿倍野区,阿倍野筋１丁目７－２０２６０４,,27,119,5450052,,,,,,,2022-01-17,1,,,,,ティーケーエム,0
2637,8120003020876,新規,0,2022-01-17,2022-01-17,合同会社ハイキック,,合同会社,大阪府,大阪市福島区,福島８丁目１７－１６－５０４,,27,103,5530003,,,,,,,2022-01-17,1,,,,,ハイキック,0
2638,8120003020967,新規,0,2022-01-17,2022-01-17,合同会社ＡＸＥＬ,,合同会社,大阪府,大阪市西淀川区,大和田４丁目８－９,,27,113,5550032,,,,,,,2022-01-17,1,,,,,アクセル,0
2640,8120101064932,新規,0,2022-01-17,2022-01-17,株式会社ＳＥＡ　ＶＩＥＷ,,株式会社,大阪府,貝塚市,三ツ松７０６番地１３,,27,208,5970105,,,,,,,2022-01-17,1,,,,,シービュー,0
2641,8120101064940,新規,0,2022-01-17,2022-01-17,クレアラボ株式会社,,株式会社,大阪府,堺市中区,深井北町７２９番地５,,27,142,5998271,,,,,,,2022-01-17,1,,,,,クレアラボ,0
2645,8120103004523,新規,0,2022-01-17,2022-01-17,合同会社ＣＯＬＴＳ,,合同会社,大阪府,堺市南区,晴美台１丁１６番２号,,27,145,5900113,,,,,,,2022-01-17,1,,,,,コルツ,0
2647,8120901045462,新規,0,2022-01-17,2022-01-17,株式会社Ｅｍｉｒｉｚｅ,,株式会社,大阪府,箕面市,小野原東５丁目６－３５－２０４,,27,220,5620031,,,,,,,2022-01-17,1,,,,,,0
2648,8120903003988,新規,0,2022-01-17,2022-01-17,合同会社Ｒｅ,,合同会社,大阪府,茨木市,小柳町１４番１０号,,27,211,5670852,,,,,,,2022-01-17,1,,,,,アールイー,0
2656,8130001070906,新規,0,2022-01-17,2022-01-17,株式会社ＢＥＬＬＳＰＲＩＮＧ,,株式会社,京都府,京都市東山区,大和大路通五条上る東入池殿町２２０番地,,26,105,6050848,,,,,,,2022-01-17,1,,,,,ベルスプリング,0
2657,8130001070914,新規,0,2022-01-17,2022-01-17,株式会社オドゥース,,株式会社,京都府,京都市下京区,中堂寺粟田町９１番地ＫＲＰ９号館５０３室,,26,106,6008815,,,,,,,2022-01-17,1,,,,,オドゥース,0
2658,8130001070922,新規,0,2022-01-17,2022-01-17,株式会社Ｓｈｏｗｙｏｕ,,株式会社,京都府,京都市上京区,西堀川通元誓願寺堅門前町４１４西陣産業会館地下,,26,102,6020000,,,,,,,2022-01-17,1,,,,,ショウユウ,0
2659,8130001070939,新規,0,2022-01-17,2022-01-17,ＪＤＰ株式会社,,株式会社,京都府,京都市下京区,中堂寺北町７番地２アサンテサーナ４０１,,26,106,6008812,,,,,,,2022-01-17,1,,,,,ジェイディーピー,0
2664,8140001124561,新規,0,2022-01-17,2022-01-17,株式会社Ｂ＆Ｂパートナーズ,,株式会社,兵庫県,神戸市灘区,船寺通４丁目１番８－１０１号,,28,102,6570842,,,,,,,2022-01-17,1,,,,,ビーアンドビーパートナーズ,0
2665,8140001124586,新規,0,2022-01-17,2022-01-17,株式会社ユウシテック,,株式会社,兵庫県,加古郡播磨町,東野添２丁目１７番１６号クオリティハイム２０５,,28,382,6750159,,,,,,,2022-01-17,1,,,,,ユウシテック,0
2667,8140003017210,新規,0,2022-01-17,2022-01-17,Ａｍｕ　ｇｒｏｕｐ合同会社,,合同会社,兵庫県,神戸市中央区,中山手通７丁目１１番３０号誠和マンション２０５,,28,110,6500004,,,,,,,2022-01-17,1,,,,,アムグループ,0
2668,8140003017219,新規,0,2022-01-17,2022-01-17,合同会社Ｎａｔｕｒａｌコーポレーション,,合同会社,兵庫県,川西市,西多田２丁目９番２５号,,28,217,6660138,,,,,,,2022-01-17,1,,,,,ナチュラルコーポレーション,0
2669,8140003017227,新規,0,2022-01-17,2022-01-17,合同会社ＫＯＴＯ,,合同会社,兵庫県,神戸市中央区,雲井通２丁目１番６－８０８号,,28,110,6510096,,,,,,,2022-01-17,1,,,,,コト,0
2670,8140003017235,新規,0,2022-01-17,2022-01-17,Ｂ－Ｃｏｍｆｏｒｔ合同会社,,合同会社,兵庫県,丹波篠山市,西野々１５４,,28,221,6692504,,,,,,,2022-01-17,1,,,,,ビーコンフォート,0
2674,8150001025247,新規,0,2022-01-17,2022-01-17,株式会社吉建,00125409,株式会社,奈良県,桜井市,大字粟殿３９８番地の３,,29,206,6330062,,,,,,,2022-01-17,1,,,,,ヨシケン,0
2678,8150003002599,新規,0,2022-01-17,2022-01-17,合同会社まほろば経営相談所,,合同会社,奈良県,奈良市,南城戸町２８－１３,,29,201,6308341,,,,,,,2022-01-17,1,,,,,マホロバケイエイソウダンショ,0
2691,8180001149506,新規,0,2022-01-17,2022-01-17,株式会社ヨシキ,,株式会社,愛知県,愛西市,東條町八江口４７番地,,23,232,4960914,,,,,,,2022-01-17,1,,,,,ヨシキ,0
2692,8180001149514,新規,0,2022-01-17,2022-01-17,株式会社ライズブリッジ,,株式会社,愛知県,名古屋市名東区,上社１丁目４１０番地,,23,115,4650025,,,,,,,2022-01-17,1,,,,,ライズブリッジ,0
2693,8180001149522,新規,0,2022-01-17,2022-01-17,株式会社Ｆｌａｍｉｎｇｏ,,株式会社,愛知県,名古屋市中区,正木４丁目５番１号,,23,106,4600024,,,,,,,2022-01-17,1,,,,,フラミンゴ,0
2694,8180001149563,新規,0,2022-01-17,2022-01-17,株式会社金麦,,株式会社,愛知県,名古屋市東区,山口町１１番１０号,,23,102,4610024,,,,,,,2022-01-17,1,,,,,キンムギ,0
2695,8180001149571,新規,0,2022-01-17,2022-01-17,株式会社オフィス・シネマレスト,,株式会社,愛知県,名古屋市千種区,千種１丁目１４番２５号,,23,101,4640858,,,,,,,2022-01-17,1,,,,,オフィスシネマレスト,0
2698,8180301035843,新規,0,2022-01-17,2022-01-17,株式会社ＳＹＴ,,株式会社,愛知県,西尾市,平坂町梅旭３１番地８,,23,213,4440305,,,,,,,2022-01-17,1,,,,,エスワイティー,0
2699,8180301035851,新規,0,2022-01-17,2022-01-17,株式会社ＴＭエクスプレス,,株式会社,愛知県,岡崎市,若松町字向山２５番地３,,23,202,4440826,,,,,,,2022-01-17,1,,,,,ティーエムエクスプレス,0
2701,8180303005225,新規,0,2022-01-17,2022-01-17,マイプロテックジャパン合同会社,,合同会社,愛知県,豊田市,小坂本町１丁目５‐５,,23,211,4710034,,,,,,,2022-01-17,1,,,,,マイプロテックジャパン,0
2704,8190001029038,新規,0,2022-01-17,2022-01-17,株式会社５Ｋａｋｕ‐ｋｅｉ,,株式会社,三重県,鈴鹿市,稲生塩屋３丁目１０番２５号,,24,207,5100207,,,,,,,2022-01-17,1,,,,,ゴカクケイ,0
2709,8210005010008,新規,0,2022-01-17,2022-01-17,一般社団法人福井県安全施設業協会,,その他の設立登記法人,福井県,福井市,清水杉谷町第２６号３番地,,18,201,9103607,,,,,,,2022-01-17,1,,,,,フクイケンアンゼンシセツギョウキョウカイ,0
2713,8230001019190,新規,0,2022-01-17,2022-01-17,株式会社荒木工業,,株式会社,富山県,富山市,秋吉１９９番地１ビエントプラーサ４０２号,,16,201,9300953,,,,,,,2022-01-17,1,,,,,アラキコウギョウ,0
2714,8240001059211,新規,0,2022-01-17,2022-01-17,株式会社シュエット,,株式会社,広島県,福山市,引野町２丁目１番９号,,34,207,7210942,,,,,,,2022-01-17,1,,,,,シュエット,0
2719,8240003005460,新規,0,2022-01-17,2022-01-17,合同会社千石,,合同会社,広島県,広島市南区,段原日出２丁目７番１－７０１号,,34,103,7320818,,,,,,,2022-01-17,1,,,,,チセキ,0
2725,8260001036448,新規,0,2022-01-17,2022-01-17,株式会社高島工業所,,株式会社,岡山県,岡山市南区,東畦６９５番地４７,,33,104,7010211,,,,,,,2022-01-17,1,,,,,タカシマコウギョウショ,0
2730,8290001096043,新規,0,2022-01-17,2022-01-17,株式会社１１９２,,株式会社,福岡県,福岡市博多区,博多駅前２丁目１９番１７号トーカン博多第５ビル３１２号室,,40,132,8120011,,,,,,,2022-01-17,1,,,,,イチイチキュウニ,0
2732,8290005018530,新規,0,2022-01-17,2022-01-17,医療法人Ｍｏｎｅｔ,,その他の設立登記法人,福岡県,宗像市,くりえいと２丁目２番２,,40,220,8114184,,,,,,,2022-01-17,1,,,,,モネ,0
2737,8300001012774,新規,0,2022-01-17,2022-01-17,株式会社光リサーチ,,株式会社,佐賀県,杵島郡白石町,大字深浦５６４９番地,,41,425,8491207,,,,,,,2022-01-17,1,,,,,ヒカリリサーチ,0
2757,8360001029870,新規,0,2022-01-17,2022-01-17,株式会社徳里不動産,00125407,株式会社,沖縄県,那覇市,字国場３６９番地１、２０１号室,,47,201,9020075,,,,,,,2022-01-17,1,,,,,トクザトフドウサン,0
2759,8360003011711,新規,0,2022-01-17,2022-01-17,合同会社Ｍ・Ｉ,,合同会社,沖縄県,那覇市,おもろまち４丁目１５番１－１１０４,,47,201,9000006,,,,,,,2022-01-17,1,,,,,エムアイ,0
2764,8370001048085,新規,0,2022-01-17,2022-01-17,株式会社善曹舎,,株式会社,宮城県,多賀城市,城南２丁目２番７号,,04,209,9850865,,,,,,,2022-01-17,1,,,,,,0
2773,8380003005083,新規,0,2022-01-17,2022-01-17,合同会社サンクチュアリ,,合同会社,福島県,いわき市,常磐関船町南館２番地の９,,07,204,9728318,,,,,,,2022-01-17,1,,,,,サンクチュアリ,0
2777,8390005008934,新規,0,2022-01-17,2022-01-17,鶴岡市給食調理事業協同組合,,その他の設立登記法人,山形県,鶴岡市,布目字宮田１６３番地１,,06,203,9970851,,,,,,,2022-01-17,1,,,,,ツルオカシキュウショクチョウリジギョウ,0
2785,8420001017704,新規,0,2022-01-17,2022-01-17,株式会社いーとＢＯＸ,,株式会社,青森県,三戸郡三戸町,大字八日町４３番地Ａ－２,,02,441,0390135,,,,,,,2022-01-17,1,,,,,イートボックス,0
2793,8430001085808,新規,0,2022-01-17,2022-01-17,株式会社イー・ステイタス,,株式会社,北海道,札幌市中央区,北二条西２丁目３２番地第３７桂和ビル５、６階,,01,101,0600002,,,,,,,2022-01-17,1,,,,,イーステイタス,0
2797,8430003013535,新規,0,2022-01-17,2022-01-17,合同会社スカイホース,,合同会社,北海道,札幌市豊平区,美園二条６丁目６番地１８号４０２号室,,01,105,0620002,,,,,,,2022-01-17,1,,,,,スカイホース,0
2807,8480001011627,新規,0,2022-01-17,2022-01-17,株式会社松平養蜂場,,株式会社,徳島県,勝浦郡勝浦町,大字久国字松ノ本４０番地,,36,301,7714305,,,,,,,2022-01-17,1,,,,,マツヒラヨウホウジョウ,0
2816,8490001010090,新規,0,2022-01-17,2022-01-17,株式会社太陽と象と皿,,株式会社,高知県,高知市,横浜１９４番地１,,39,201,7810240,,,,,,,2022-01-17,1,,,,,タイヨウトゾウトサラ,0
2818,8500001023941,新規,0,2022-01-17,2022-01-17,武田ソーイング株式会社,,株式会社,愛媛県,宇和島市,津島町下畑地甲６７４番地１,,38,203,7983321,,,,,,,2022-01-17,1,,,,,タケダソーイング,0
2821,8700150106683,新規,0,2022-01-17,2022-01-17,ＡＸＳ　Ｇｒｏｕｐ　ＬＬＣ,,外国会社等,東京都,港区,南青山３丁目１番３０号エイベックスビル,,13,103,1070062,アメリカ合衆国　カリフォルニア州、ロサンゼルス、スイート１００、ウエスト１１番ストリート４２５,,,,,,2022-01-17,1,,,,,アクセスグループエルエルシー,0
2834,9010001223813,新規,0,2022-01-17,2022-01-17,Ｓｕｓｔａｉｎａ＆Ｄｅｃｏｒ　Ｊａｐａｎ株式会社,,株式会社,東京都,中央区,銀座１丁目１２－４Ｎ＆ＥＢＬＤ．７階,,13,102,1040061,,,,,,,2022-01-17,1,,,,,,0
2835,9010001223846,新規,0,2022-01-17,2022-01-17,株式会社エヌ・シー・ティ,,株式会社,東京都,中央区,新川１丁目３番２１号ＢＩＺＳＭＡＲＴ茅場町,,13,102,1040033,,,,,,,2022-01-17,1,,,,,エヌシーティ,0
2845,9010401164896,新規,0,2022-01-17,2022-01-17,株式会社ｍｏｎｏｃｏｔｏｑｕｅ,,株式会社,東京都,港区,南青山６丁目１番１３号,,13,103,1070062,,,,,,,2022-01-17,1,,,,,モノコトキ,0
2846,9010401164938,新規,0,2022-01-17,2022-01-17,株式会社ユニシス工業,,株式会社,東京都,港区,港南２丁目４－１４ＫＩＤＳ０００３ビル－４３１号室,,13,103,1080075,,,,,,,2022-01-17,1,,,,,ユニシスコウギョウ,0
2850,9010501048314,新規,0,2022-01-17,2022-01-17,株式会社ＤＥＬＩＧＨＴ　ＪＡＰＡＮ,,株式会社,東京都,台東区,上野３丁目１４－２－３１３室,,13,106,1100005,,,,,,,2022-01-17,1,,,,,ディライトジャパン,0
2851,9010503006476,新規,0,2022-01-17,2022-01-17,リトルノ合同会社,,合同会社,東京都,台東区,寿２丁目３番３－１２０３号,,13,106,1110042,,,,,,,2022-01-17,1,,,,,リトルノ,0
2853,9010601060490,新規,0,2022-01-17,2022-01-17,株式会社ドラ,,株式会社,東京都,江東区,豊洲２丁目５番２号,,13,108,1350061,,,,,,,2022-01-17,1,,,,,ドラ,0
2854,9010603009354,新規,0,2022-01-17,2022-01-17,合同会社ｍｏｎａｎｇｅ,,合同会社,東京都,墨田区,本所１丁目２０番８号,,13,107,1300004,,,,,,,2022-01-17,1,,,,,モナンジュ,0
2862,9010903007082,新規,0,2022-01-17,2022-01-17,合同会社スウィッチ,,合同会社,東京都,世田谷区,下馬４丁目２１番８－２０７号,,13,112,1540002,,,,,,,2022-01-17,1,,,,,スウィッチ,0
2866,9011001144974,新規,0,2022-01-17,2022-01-17,株式会社Ｐｉｅｂ,,株式会社,東京都,渋谷区,松濤１丁目２８－２,,13,113,1500046,,,,,,,2022-01-17,1,,,,,ピーブ,0
2867,9011001145015,新規,0,2022-01-17,2022-01-17,株式会社ＴＡＫＥＯＶＥＲ,,株式会社,東京都,渋谷区,神宮前６丁目２９番４号原宿ｋｏｍｉｙａビル６階,,13,113,1500001,,,,,,,2022-01-17,1,,,,,テイクオーバー,0
2868,9011001145089,新規,0,2022-01-17,2022-01-17,Ｍａｒｉｅ株式会社,,株式会社,東京都,渋谷区,千駄ヶ谷３丁目２９番３号川本マンション２Ｄ,,13,113,1510051,,,,,,,2022-01-17,1,,,,,メアリー,0
2869,9011001145106,新規,0,2022-01-17,2022-01-17,株式会社Ｔｈｉｎｋ　Ｆｏｒ　Ｄｅｓｉｇｎ,,株式会社,東京都,渋谷区,千駄ヶ谷４丁目１０番５号３Ｆ,,13,113,1510051,,,,,,,2022-01-17,1,,,,,シンクフォーデザイン,0
2870,9011001145114,新規,0,2022-01-17,2022-01-17,株式会社Ｍｙ２ｃｅｎｔｓ,,株式会社,東京都,渋谷区,猿楽町１１番１９号アルファーストＩＩ２０１,00125418,13,113,1500033,,,,,,,2022-01-17,1,,,,,マイツーセンツ,0
2874,9011201023540,新規,0,2022-01-17,2022-01-17,株式会社ＧＩＶＥＲＳ,,株式会社,東京都,中野区,中野５丁目４３番１０号,,13,114,1640001,,,,,,,2022-01-17,1,,,,,ギバーズ,0
2875,9011201023557,新規,0,2022-01-17,2022-01-17,スタートアップ・アドバイザーズ株式会社,,株式会社,東京都,中野区,中野１丁目５６番１３－２１１号,,13,114,1640001,,,,,,,2022-01-17,1,,,,,スタートアップアドバイザーズ,0
2877,9011301027482,新規,0,2022-01-17,2022-01-17,株式会社ミドルレンジ,,株式会社,東京都,杉並区,方南２丁目１番１９－４０１号,,13,115,1680062,,,,,,,2022-01-17,1,,,,,ミドルレンジ,0
2878,9011501027662,新規,0,2022-01-17,2022-01-17,株式会社ＬＥＡＦ,,株式会社,東京都,荒川区,東尾久３丁目２６番１号,,13,118,1160012,,,,,,,2022-01-17,1,,,,,リーフ,0
2880,9011701024971,新規,0,2022-01-17,2022-01-17,株式会社丸泰基礎,,株式会社,東京都,江戸川区,北葛西２丁目１４番１３号,,13,123,1340081,,,,,,,2022-01-17,1,,,,,マルタイキソ,0
2882,9011801040191,新規,0,2022-01-17,2022-01-17,ＵＣ　ＥＸＰＲＥＳＳ株式会社,,株式会社,東京都,足立区,西保木間２丁目１３－１７,,13,121,1210812,,,,,,,2022-01-17,1,,,,,ユーシーエクスプレス,0
2883,9012301012838,新規,0,2022-01-17,2022-01-17,株式会社ルート１,,株式会社,東京都,町田市,高ヶ坂４丁目３１番６号,,13,209,1940014,,,,,,,2022-01-17,1,,,,,ルートワン,0
2884,9012401038758,新規,0,2022-01-17,2022-01-17,株式会社１１１,,株式会社,東京都,府中市,片町２丁目２０－１１増田ビル１Ｆ,,13,206,1830021,,,,,,,2022-01-17,1,,,,,イチイチイチ,0
2885,9012801021339,新規,0,2022-01-17,2022-01-17,Ｌａｎｇｕａｇｅ　Ｌｅａｐ株式会社,,株式会社,東京都,国立市,東４丁目１３番地の１８,,13,215,1860002,,,,,,,2022-01-17,1,,,,,ランゲージリープ,0
2888,9013301048558,新規,0,2022-01-17,2022-01-17,アルカナ株式会社,,株式会社,東京都,豊島区,高田３丁目３０番１７号,,13,116,1710033,,,,,,,2022-01-17,1,,,,,アルカナ,0
2895,9020001144612,新規,0,2022-01-17,2022-01-17,株式会社デルセージャパン,,株式会社,神奈川県,横浜市西区,みなとみらい３丁目７番１号ＯＣＥＡＮＧＡＴＥＭＩＮＡＴＯＭＩＲＡＩ８階,,14,103,2200012,,,,,,,2022-01-17,1,,,,,デルセージャパン,0
2896,9020001144728,新規,0,2022-01-17,2022-01-17,株式会社アトリエＮＹ,,株式会社,神奈川県,横浜市旭区,さちが丘８０番地１サンクタス横浜二俣川４０７号,,14,112,2410822,,,,,,,2022-01-17,1,,,,,アトリエエヌワイ,0
2897,9020001144736,新規,0,2022-01-17,2022-01-17,ＳｋｙＤｅｅｒ株式会社,,株式会社,神奈川県,横浜市西区,みなとみらい３丁目７番１号オーシャンゲートみなとみらい８Ｆ,,14,103,2200012,,,,,,,2022-01-17,1,,,,,スカイディア,0
2898,9020001144785,新規,0,2022-01-17,2022-01-17,東京総合建設株式会社,,株式会社,神奈川県,横浜市瀬谷区,三ツ境４６番地６,,14,114,2460022,,,,,,,2022-01-17,1,,,,,トウキョウソウゴウケンセツ,0
2899,9020001144802,新規,0,2022-01-17,2022-01-17,株式会社マッシュアップ,,株式会社,神奈川県,横浜市戸塚区,吉田町７７８番地１０ルネ横浜戸塚４３１号,,14,110,2440817,,,,,,,2022-01-17,1,,,,,マッシュアップ,0
2902,9021001074931,新規,0,2022-01-17,2022-01-17,ウインドサイ株式会社,,株式会社,神奈川県,鎌倉市,稲村ガ崎２丁目３番１１号,,14,204,2480024,,,,,,,2022-01-17,1,,,,,ウインドサイ,0
2906,9021003011230,新規,0,2022-01-17,2022-01-17,合同会社リユースポート,,合同会社,神奈川県,秦野市,本町３丁目８－２３ＲｅｄＰａｄｄｙ２０２,,14,211,2570035,,,,,,,2022-01-17,1,,,,,リユースポート,0
2907,9021003011288,新規,0,2022-01-17,2022-01-17,合同会社ＫＡＭＩＹＵＩホールディングス,,合同会社,神奈川県,平塚市,千石河岸３０番１－３０２号コープ野村平塚海浜,,14,203,2540803,,,,,,,2022-01-17,1,,,,,カミユイホールディングス,0
2914,9030001146269,新規,0,2022-01-17,2022-01-17,株式会社ＡＢＣオーガニック,,株式会社,埼玉県,比企郡小川町,大字高見８３３番地,,11,343,3550306,,,,,,,2022-01-17,1,,,,,エービーシーオーガニック,0
2915,9030001146310,新規,0,2022-01-17,2022-01-17,ＣＯＣＯ通信株式会社,,株式会社,埼玉県,坂戸市,大字塚越８６番地２３,,11,239,3500209,,,,,,,2022-01-17,1,,,,,ココツウシン,0
2916,9030001146368,新規,0,2022-01-17,2022-01-17,ＡＩＬＡＢ株式会社,,株式会社,埼玉県,さいたま市大宮区,堀の内町１丁目６０６番地Ｅ－１１１,,11,103,3300804,,,,,,,2022-01-17,1,,,,,エイアイラボ,0
2922,9040001121717,新規,0,2022-01-17,2022-01-17,武美工業株式会社,,株式会社,千葉県,茂原市,黒戸３８１番地１,,12,210,2970071,,,,,,,2022-01-17,1,,,,,タケミコウギョウ,0
2923,9040001121741,新規,0,2022-01-17,2022-01-17,株式会社木村保全社,,株式会社,千葉県,流山市,大字木８６９番地の５,,12,220,2700162,,,,,,,2022-01-17,1,,,,,キムラホゼンシャ,0
2924,9040001121816,新規,0,2022-01-17,2022-01-17,ＴＯＫＯ株式会社,,株式会社,千葉県,大網白里市,みずほ台１丁目１６番地４２,,12,239,2993234,,,,,,,2022-01-17,1,,,,,トーコー,0
2929,9040003019307,新規,0,2022-01-17,2022-01-17,合同会社ＮＥＯ,,合同会社,千葉県,鎌ケ谷市,初富本町２丁目８番８号,,12,224,2730125,,,,,,,2022-01-17,1,,,,,ネオ,0
2930,9040003019315,新規,0,2022-01-17,2022-01-17,Ｏｍｉｇａｗａ　Ｔｒａｄｉｎｇ合同会社,,合同会社,千葉県,八街市,八街ほ２５６－２,,12,230,2891115,,,,,,,2022-01-17,1,,,,,オミガワトレーディング,0
2932,9040005021491,新規,0,2022-01-17,2022-01-17,一般社団法人ｏｎｎｅＬＬｉｎｅｎ,,その他の設立登記法人,千葉県,松戸市,稔台８丁目１２番地３号,,12,207,2702231,,,,,,,2022-01-17,1,,,,,オンネリネン,0
2933,9050001050477,新規,0,2022-01-17,2022-01-17,株式会社ＬＩＮＯ,,株式会社,茨城県,土浦市,真鍋新町１３－１１ぬくもり館２階,,08,203,3000053,,,,,,,2022-01-17,1,,,,,,0
2934,9050003006304,新規,0,2022-01-17,2022-01-17,合同会社ＦＵＮ　ＷＯＲＫ,,合同会社,茨城県,鹿嶋市,大字平井８９３番地１６９,,08,222,3140012,,,,,,,2022-01-17,1,,,,,ファンワーク,0
2937,9070001038834,新規,0,2022-01-17,2022-01-17,株式会社吉田塗建,,株式会社,群馬県,安中市,原市２丁目３番４３号,,10,211,3790133,,,,,,,2022-01-17,1,,,,,ヨシダトケン,0
2938,9070001038842,新規,0,2022-01-17,2022-01-17,株式会社本田ファーム,,株式会社,群馬県,伊勢崎市,田部井町２丁目６３３番地１,,10,204,3792222,,,,,,,2022-01-17,1,,,,,ホンダファーム,0
2939,9070001038850,新規,0,2022-01-17,2022-01-17,株式会社フリーステージ,,株式会社,群馬県,伊勢崎市,境伊与久６２番地７,,10,204,3700105,,,,,,,2022-01-17,1,,,,,フリーステージ,0
2945,9100001034986,新規,0,2022-01-17,2022-01-17,株式会社ｍｕｒａｙａｍａ,,株式会社,長野県,長野市,稲田３丁目３２番１号,,20,201,3810042,,,,,,,2022-01-17,1,,,,,ムラヤマ,0
2951,9110003004680,新規,0,2022-01-17,2022-01-17,合同会社ＫＡＯＲＩ．ｅｓｓｅｎｃｅ．Ｊａｐａｎ,,合同会社,新潟県,燕市,井土巻５丁目７番地,,15,213,9591232,,,,,,,2022-01-17,1,,,,,カオリエッセンスジャパン,0
2953,9120001243115,新規,0,2022-01-17,2022-01-17,ノヅック株式会社,,株式会社,大阪府,大阪市淀川区,野中北１丁目１番７４号,,27,123,5320034,,,,,,,2022-01-17,1,,,,,ノヅック,0
2954,9120001243123,新規,0,2022-01-17,2022-01-17,株式会社ハートインテリア,,株式会社,大阪府,大阪市住吉区,我孫子東３丁目９番３２号,,27,120,5580013,,,,,,,2022-01-17,1,,,,,ハートインテリア,0
2955,9120001243156,新規,0,2022-01-17,2022-01-17,株式会社スタート,,株式会社,大阪府,大阪市淀川区,西中島３丁目１１番２６号Ａｕｒｏｒａビル新大阪４１１号室,,27,123,5320011,,,,,,,2022-01-17,1,,,,,スタート,0
2956,9120001243172,新規,0,2022-01-17,2022-01-17,株式会社ＣＡＬＡＭＡＮＳＩ,,株式会社,大阪府,枚方市,堤町５番２５号,,27,210,5730057,,,,,,,2022-01-17,1,,,,,カラマンシ,0
2957,9120001243189,新規,0,2022-01-17,2022-01-17,ＮＥＸＴ株式会社,,株式会社,大阪府,大阪市城東区,永田４丁目１５番２４－１０５号,,27,118,5360022,,,,,,,2022-01-17,1,,,,,ネクスト,0
2958,9120001243206,新規,0,2022-01-17,2022-01-17,フラットユウ株式会社,,株式会社,大阪府,寝屋川市,池田３丁目７番１０号,,27,215,5720039,,,,,,,2022-01-17,1,,,,,フラットユウ,0
2959,9120001243214,新規,0,2022-01-17,2022-01-17,ＴＯＭＯ　ＡＲＴ　ＷＯＲＫ　ＳＴＵＤＩＯ株式会社,,株式会社,大阪府,大阪市西区,江戸堀１丁目１９番２３－３０３号,,27,106,5500002,,,,,,,2022-01-17,1,,,,,トモアートワークスタジオ,0
2960,9120001243222,新規,0,2022-01-17,2022-01-17,株式会社ＲＯＭＡＮ,,株式会社,大阪府,大阪市中央区,南船場１丁目８番１９号ＳＫＴｏｗｅｒ心斎橋ｅａｓｔ６０４,,27,128,5420081,,,,,,,2022-01-17,1,,,,,ロマン,0
2961,9120001243239,新規,0,2022-01-17,2022-01-17,カノンデザイン株式会社,,株式会社,大阪府,大阪市天王寺区,上本町７丁目４番２５号－２階,,27,109,5430001,,,,,,,2022-01-17,1,,,,,カノンデザイン,0
2963,9120003020941,新規,0,2022-01-17,2022-01-17,合同会社エルズ,,合同会社,大阪府,大阪市中央区,北久宝寺町３丁目６－１本町南ガーデンシティ７階,,27,128,5410057,,,,,,,2022-01-17,1,,,,,エルズ,0
2964,9120003020958,新規,0,2022-01-17,2022-01-17,合同会社スクラリティズ,,合同会社,大阪府,大阪市阿倍野区,松崎町４丁目５－３１アベクマビル５Ｆ,,27,119,5450053,,,,,,,2022-01-17,1,,,,,スクラリティズ,0
2966,9120101064948,新規,0,2022-01-17,2022-01-17,ＡＧＯＧ株式会社,,株式会社,大阪府,岸和田市,五軒屋町２番１号,,27,202,5960055,,,,,,,2022-01-17,1,,,,,アゴッグ,0
2967,9120101064956,新規,0,2022-01-17,2022-01-17,株式会社大坂パーテイション,,株式会社,大阪府,富田林市,美山台７番３－２１４号,,27,214,5840039,,,,,,,2022-01-17,1,,,,,オオサカパーテイション,0
2968,9120103004514,新規,0,2022-01-17,2022-01-17,合同会社設備技術研究所,,合同会社,大阪府,高石市,東羽衣３丁目４番５－２０３号,,27,225,5920003,,,,,,,2022-01-17,1,,,,,セツビギジュツケンキュウショ,0
2969,9120103004522,新規,0,2022-01-17,2022-01-17,合同会社ＢＬＵＥ　ＴＲＥＥ　ＢＡＫＥＲＹ,,合同会社,大阪府,大阪狭山市,半田６丁目１１２９番地の１,,27,231,5890011,,,,,,,2022-01-17,1,,,,,ブルーツリーベーカリー,0
2970,9120901045445,新規,0,2022-01-17,2022-01-17,ＳＲ株式会社,,株式会社,大阪府,吹田市,山手町１丁目５番１－５１２号,,27,205,5640073,,,,,,,2022-01-17,1,,,,,エスアール,0
2971,9120901045461,新規,0,2022-01-17,2022-01-17,株式会社久志,,株式会社,大阪府,池田市,井口堂３丁目１０番３４号,,27,204,5630023,,,,,,,2022-01-17,1,,,,,ヒサシ,0
2972,9120903003987,新規,0,2022-01-17,2022-01-17,Ｋ４ＴＳ合同会社,,合同会社,大阪府,茨木市,真砂１丁目１２番５号木村ビル２階,,27,211,5670851,,,,,,,2022-01-17,1,,,,,ケーフォーティーエス,0
2977,9130001070913,新規,0,2022-01-17,2022-01-17,株式会社福祉のヨアケ,,株式会社,京都府,亀岡市,古世町西内坪１４番地８,,26,206,6210815,,,,,,,2022-01-17,1,,,,,フクシノヨアケ,0
2978,9130001070938,新規,0,2022-01-17,2022-01-17,株式会社ＳＫＹＬＥＥ　ＨＯＳＰＩＴＡＬＩＴＹ,,株式会社,京都府,京都市中京区,先斗町通四条上る鍋屋町２３２番地,,26,104,6048015,,,,,,,2022-01-17,1,,,,,スカイリーホスピタリティ,0
2981,9140001124503,新規,0,2022-01-17,2022-01-17,ジーエーティー株式会社,,株式会社,兵庫県,姫路市,白浜町甲４０２番地３２９,,28,201,6728023,,,,,,,2022-01-17,1,,,,,ジーエーティー,0
2982,9140001124511,新規,0,2022-01-17,2022-01-17,株式会社ワールドビジネス・イノベーション,,株式会社,兵庫県,西宮市,高木東町３８番１７号,,28,204,6638033,,,,,,,2022-01-17,1,,,,,ワールドビジネスイノベーション,0
2983,9140001124528,新規,0,2022-01-17,2022-01-17,株式会社３ｒｄ　Ｄｏｏｒｓ,,株式会社,兵庫県,神戸市中央区,北長狭通３丁目４－１０,,28,110,6500012,,,,,,,2022-01-17,1,,,,,サードドアーズ,0
2984,9140001124544,新規,0,2022-01-17,2022-01-17,株式会社タカラ,,株式会社,兵庫県,西宮市,山口町名来２丁目２番４号,,28,204,6511411,,,,,,,2022-01-17,1,,,,,タカラ,0
2985,9140001124593,新規,0,2022-01-17,2022-01-17,株式会社八福,,株式会社,兵庫県,神戸市中央区,南本町通５丁目１番９－２０８号,,28,110,6510074,,,,,,,2022-01-17,1,,,,,ハチフク,0
2987,9140003017218,新規,0,2022-01-17,2022-01-17,合同会社学窓社,,合同会社,兵庫県,丹波篠山市,乾新町１０７番地５,,28,221,6692335,,,,,,,2022-01-17,1,,,,,ガクソウシャ,0
2988,9140003017226,新規,0,2022-01-17,2022-01-17,合同会社Ｈ＆Ｂ,,合同会社,兵庫県,加古川市,別府町新野辺５７４番地の１１０,,28,210,6750131,,,,,,,2022-01-17,1,,,,,エイチアンドビー,0
2989,9140003017234,新規,0,2022-01-17,2022-01-17,合同会社シンサリティ,,合同会社,兵庫県,神崎郡市川町,東川辺１６３番地,,28,442,6792316,,,,,,,2022-01-17,1,,,,,シンサリティ,0
3016,9180001149513,新規,0,2022-01-17,2022-01-17,株式会社ｌｉｎｋ,,株式会社,愛知県,名古屋市港区,西茶屋４丁目１６０番地,,23,111,4550858,,,,,,,2022-01-17,1,,,,,リンク,0
3017,9180001149521,新規,0,2022-01-17,2022-01-17,株式会社Ｓｅｖｅｎ　Ｄｉａｌｓ,,株式会社,愛知県,名古屋市中川区,高畑２丁目５２番地,,23,110,4540911,,,,,,,2022-01-17,1,,,,,セブンダイヤルズ,0
3024,9180003023360,新規,0,2022-01-17,2022-01-17,盛和合同会社,,合同会社,愛知県,津島市,今市場町１丁目４番地１,,23,208,4960803,,,,,,,2022-01-17,1,,,,,セイワ,0
3025,9180003023377,新規,0,2022-01-17,2022-01-17,ウェルティ合同会社,,合同会社,愛知県,名古屋市北区,柳原２丁目１１番１８号,,23,103,4620845,,,,,,,2022-01-17,1,,,,,ウェルティ,0
3026,9180003023393,新規,0,2022-01-17,2022-01-17,合同会社ＹＭＹ,,合同会社,愛知県,名古屋市緑区,作の山町１８３番地の１（作の山マンション５０４号）,,23,114,4580038,,,,,,,2022-01-17,1,,,,,ワイエムワイ,0
3027,9180301035842,新規,0,2022-01-17,2022-01-17,株式会社ＡＩＮ,,株式会社,愛知県,額田郡幸田町,大字芦谷字毛倉２２番地１南風１０１,,23,501,4440116,,,,,,,2022-01-17,1,,,,,エイン,0
3034,9200001039661,新規,0,2022-01-17,2022-01-17,株式会社ｍａｒｕ将,,株式会社,岐阜県,羽島市,福寿町浅平４丁目１８番地アバンテージ岐阜羽島２－Ｃ,,21,209,5016255,,,,,,,2022-01-17,1,,,,,マルマサ,0
3045,9250001019361,新規,0,2022-01-17,2022-01-17,株式会社一律建設,,株式会社,山口県,山口市,大内矢田南６丁目５番４３号,,35,203,7530222,,,,,,,2022-01-17,1,,,,,イチリツケンセツ,0
3052,9250005008716,新規,0,2022-01-17,2022-01-17,一般社団法人Ｌｏｕｉｅ　Ｌｏｕｉｅ,,その他の設立登記法人,山口県,下関市,阿弥陀寺町７番２５－２０２号グランドパレスアクアリゾート下関,,35,201,7500003,,,,,,,2022-01-17,1,,,,,ルイルイ,0
3062,9290001096050,新規,0,2022-01-17,2022-01-17,藤木総合企画株式会社,,株式会社,福岡県,福岡市中央区,清川２丁目６－６,,40,133,8100005,,,,,,,2022-01-17,1,,,,,フジキソウゴウキカク,0
3063,9290001096100,新規,0,2022-01-17,2022-01-17,株式会社ＲＥＮ企画,,株式会社,福岡県,福岡市城南区,南片江４丁目２１番３－Ａ１０１号,,40,136,8140143,,,,,,,2022-01-17,1,,,,,レンキカク,0
3065,9290003012014,新規,0,2022-01-17,2022-01-17,合同会社ＴＨＲＥＥ　ＳＴＡＲ,,合同会社,福岡県,福岡市中央区,西中洲３‐２０,,40,133,8100002,,,,,,,2022-01-17,1,,,,,スリースター,0
3066,9290801028178,新規,0,2022-01-17,2022-01-17,Ｉｎｆｉｎｉｔｙ株式会社,,株式会社,福岡県,田川郡添田町,大字庄９６６番地の１,,40,602,8240601,,,,,,,2022-01-17,1,,,,,インフィニティ,0
3073,9320003003703,新規,0,2022-01-17,2022-01-17,合同会社ｅｎｔｏ,,合同会社,大分県,佐伯市,大字海崎２５３３番地１１,,44,205,8761105,,,,,,,2022-01-17,1,,,,,エント,0
3090,9340001024435,新規,0,2022-01-17,2022-01-17,南国ホテルズ株式会社,,株式会社,鹿児島県,鹿児島市,中央町１８番地１,,46,201,8900053,,,,,,,2022-01-17,1,,,,,ナンゴクホテルズ,0
3093,9340003003676,新規,0,2022-01-17,2022-01-17,合同会社隼人テクノ,,合同会社,鹿児島県,霧島市,隼人町姫城２２５１－２,,46,218,8995111,,,,,,,2022-01-17,1,,,,,ハヤトテクノ,0
3096,9360001029886,新規,0,2022-01-17,2022-01-17,株式会社クオリティライフ,,株式会社,沖縄県,那覇市,安謝２丁目２－１２ボストンハウス５０２号室,,47,201,9000003,,,,,,,2022-01-17,1,,,,,クオリティライフ,0
3098,9360003011719,新規,0,2022-01-17,2022-01-17,合同会社ＭＬ,,合同会社,沖縄県,宮古島市,平良字西里４６５－１,,47,214,9060012,,,,,,,2022-01-17,1,,,,,,0
3099,9360003011735,新規,0,2022-01-17,2022-01-17,合同会社相楽,,合同会社,沖縄県,沖縄市,泡瀬３丁目４４番２６号,,47,211,9042172,,,,,,,2022-01-17,1,,,,,,0
3103,9370001048076,新規,0,2022-01-17,2022-01-17,株式会社まちワクファーム,,株式会社,宮城県,仙台市宮城野区,幸町２丁目２３番１号,,04,102,9830836,,,,,,,2022-01-17,1,,,,,マチワクファーム,0
3105,9370005010429,新規,0,2022-01-17,2022-01-17,一般社団法人東北情報機器再生推進機構,,その他の設立登記法人,宮城県,仙台市青葉区,二日町１７番２７号,,04,101,9800802,,,,,,,2022-01-17,1,,,,,トウホクジョウホウキキサイセイスイシンキコウ,0
3111,9380001032483,新規,0,2022-01-17,2022-01-17,株式会社すずき商会,,株式会社,福島県,東白川郡塙町,大字伊香字古宿１７１番地,,07,483,9635342,,,,,,,2022-01-17,1,,,,,スズキショウカイ,0
3113,9380002008350,新規,0,2022-01-17,2022-01-17,有限会社太田技建,,有限会社,福島県,郡山市,安積町荒井字柴宮山２７番地の５６,,07,203,9630111,,,,,,,2022-01-17,1,,,,,オオタギケン,0
3118,9380003005090,新規,0,2022-01-17,2022-01-17,ＡＣＥ合同会社,,合同会社,福島県,郡山市,昭和２丁目７番１１号,,07,203,9638822,,,,,,,2022-01-17,1,,,,,エース,0
3120,9410001013083,新規,0,2022-01-17,2022-01-17,株式会社Ｌｏｃａｌ　Ｓｐｏｒｔｓ　Ｆｉｅｌｄ,,株式会社,秋田県,秋田市,八橋本町４丁目７番２号,,05,201,0100973,,,,,,,2022-01-17,1,,,,,ローカルスポーツフィールド,0
3124,9420001017694,新規,0,2022-01-17,2022-01-17,株式会社スマートブレイン,,株式会社,青森県,五所川原市,松島町１丁目５０３番地１６,,02,205,0370006,,,,,,,2022-01-17,1,,,,,スマートブレイン,0
3130,9430001085798,新規,0,2022-01-17,2022-01-17,株式会社アイリアルティ,,株式会社,北海道,恵庭市,恵み野南３丁目４番１８,,01,231,0611372,,,,,,,2022-01-17,1,,,,,アイリアルティ,0
3132,9430003013526,新規,0,2022-01-17,2022-01-17,合同会社のっぽろ社会福祉士事務所,,合同会社,北海道,江別市,東野幌本町２５番地２,,01,217,0690824,,,,,,,2022-01-17,1,,,,,ノッポロシャカイフクシシジムショ,0
3133,9430003013534,新規,0,2022-01-17,2022-01-17,合同会社Ｎフィールド,,合同会社,北海道,夕張郡由仁町,東栄４６,,01,427,0691203,,,,,,,2022-01-17,1,,,,,エヌフィールド,0
3135,9450001013591,新規,0,2022-01-17,2022-01-17,ｅ－トレ株式会社,,株式会社,北海道,旭川市,豊岡十四条７丁目５番５号,,01,204,0788244,,,,,,,2022-01-17,1,,,,,イートレ,0
3144,9480001011626,新規,0,2022-01-17,2022-01-17,株学株式会社,,株式会社,徳島県,徳島市,籠屋町２丁目８番地,,36,201,7700914,,,,,,,2022-01-17,1,,,,,カブガク,0
3153,9700150106658,新規,0,2022-01-17,2022-01-17,Ｋ．Ｐ．ＥＮＴＥＲＰＲＩＳＥＳ,,外国会社等,千葉県,我孫子市,布佐２６４０－７,,12,222,2701101,スリランカ民主社会主義共和国、キャンディー、カツゴダッラロード、１１６／Ａ,,,,,,2022-01-17,1,,,,,ケイピーエンタープライセス,0
3154,9700150106682,新規,0,2022-01-17,2022-01-17,Ｌｅｏｎａｒｄｏ　ＵＫ　Ｌｔｄ．,,外国会社等,東京都,千代田区,霞が関３丁目２番１号霞が関コモンゲート西館２４階,,13,101,1000013,英国ロンドン、セント・ジェームズ、エーグル・プレイス１,,,,,,2022-01-17,1,,,,,レオナルドユーケーエルテイデイー,0
