sequenceNumber,corporateNumber,process,correct,updateDate,changeDate,name,nameImageId,kind,prefectureName,cityName,streetNumber,addressImageId,prefectureCode,cityCode,postCode,addressOutside,addressOutsideImageId,closeDate,closeCause,successorCorporateNumber,changeCause,assignmentDate,latest,enName,enPrefectureName,enCityName,enAddressOutside,furigana,hihyoji
13,1010005034545,登記記録の閉鎖等,0,2025-10-23,2025-10-20,ＡＬＪ　Ｏｆｆｉｃｅ　Ｋｏｄｅｎｍａ一般社団法人,,その他の設立登記法人,東京都,千代田区,神田神保町１丁目１１番地さくら綜合事務所内,,13,101,1010051,,,2025-10-20,清算の結了等,,,2022-02-01,1,,,,,エーエルジェーオフィスコデンマ,0
48,1011301004753,登記記録の閉鎖等,0,2025-10-23,2025-10-15,戸谷建設株式会社,,株式会社,東京都,杉並区,和泉１丁目４５番１２号,,13,115,1680063,,,2025-10-15,清算の結了等,,,2015-10-05,1,,,,,トタニケンセツ,0
50,1011302001015,登記記録の閉鎖等,0,2025-10-23,2025-10-16,有限会社一ノ渡工業,,有限会社,東京都,杉並区,松ノ木３丁目２０番３号,,13,115,1660014,,,2025-10-16,清算の結了等,,,2015-10-05,1,,,,,イチノワタリコウギョウ,0
55,1011801025844,登記記録の閉鎖等,0,2025-10-23,2025-10-20,株式会社葛飾近藤創建,,株式会社,東京都,葛飾区,堀切５丁目１６番４号,,13,122,1240006,,,2025-10-20,清算の結了等,,,2015-10-05,1,,,,,カツシカコンドウソウケン,0
71,1013303003832,登記記録の閉鎖等,0,2025-10-23,2025-10-08,やわらぎ倶楽部合同会社,,合同会社,東京都,豊島区,南池袋１丁目９番１８－１４２号室,,13,116,1710022,,,2025-10-08,清算の結了等,,,2017-08-30,1,,,,,ヤワラギクラブ,0
78,1020003004342,登記記録の閉鎖等,0,2025-10-23,2025-10-06,合資会社アン・ローゼ,,合資会社,神奈川県,横浜市港北区,新横浜２丁目１７番地９ダイアパレス新横浜駅前公園１１０５,,14,109,2220033,,,2025-10-06,清算の結了等,,,2015-10-05,1,,,,,アンローゼ,0
94,1030003004250,登記記録の閉鎖等,0,2025-10-23,2025-10-14,合同会社梅花東浦和みどりコンタクト,,合同会社,埼玉県,川口市,柳崎４丁目２８番３１号,,11,203,3330861,,,2025-10-14,清算の結了等,,,2015-10-05,1,,,,,バイカヒガシウラワミドリコンタクト,0
102,1050003007318,登記記録の閉鎖等,0,2025-10-23,2025-10-14,株式会社ｍｉｌｌｅｎｎｉｕｍ,,株式会社,茨城県,取手市,西２丁目１０番１１号,,08,217,3020025,,,2025-10-14,清算の結了等,,,2023-03-15,1,,,,,ミレニアム,0
107,1070002030962,登記記録の閉鎖等,0,2025-10-23,2025-10-20,マーシーズドラッグナガタ有限会社,,有限会社,群馬県,太田市,新田市野井町５９２番地１３,,10,205,3700314,,,2025-10-20,清算の結了等,,,2015-10-05,1,,,,,マーシーズドラッグナガタ,0
120,1120001110421,登記記録の閉鎖等,0,2025-10-23,2025-10-21,株式会社さくら住建,,株式会社,大阪府,大阪市浪速区,元町１丁目５番７号ナンバプラザビル１００９号,,27,111,5560016,,,2025-10-21,合併による解散等,5013301024950,令和７年１０月１日東京都豊島区南池袋二丁目２３番２号池袋パークサイドビル２Ｆ株式会社日本ハーベスト（5013301024950）に合併し解散,2015-10-05,1,,,,,サクラジュウケン,0
122,1120001155615,登記記録の閉鎖等,0,2025-10-23,2025-10-17,サンキャリー株式会社,,株式会社,大阪府,守口市,佐太中町６丁目１８番１号,,27,209,5700002,,,2025-10-17,清算の結了等,,,2015-10-05,1,,,,,サンキャリー,0
152,1180001094840,登記記録の閉鎖等,0,2025-10-23,2025-10-01,株式会社リッチ,,株式会社,愛知県,東海市,加木屋町樋６１番地の３,,23,222,4770032,,,2025-10-01,合併による解散等,8180001094512,令和７年１０月１日愛知県東海市加木屋町樋６１番地の３株式会社チタジュウ（8180001094512）に合併し解散,2015-10-05,1,,,,,リッチ,0
163,1180301009663,登記記録の閉鎖等,0,2025-10-23,2025-10-14,株式会社テイク・アド,,株式会社,愛知県,豊橋市,新栄町字新田中７８番地の８,,23,201,4418016,,,2025-10-14,清算の結了等,,,2015-10-05,1,,,,,テイクアド,0
165,1180301027995,登記記録の閉鎖等,0,2025-10-23,2025-10-10,中野設備株式会社,,株式会社,愛知県,豊田市,石野町大釜３６７番地１,,23,211,4700329,,,2025-10-10,清算の結了等,,,2015-10-05,1,,,,,ナカノセツビ,0
186,1260003004483,登記記録の閉鎖等,0,2025-10-23,2025-10-15,多島貿易合同会社,,合同会社,岡山県,岡山市北区,島田本町２丁目２番９号Ｖｉｅｌｉｂｒｅ３０３号室,,33,101,7000033,,,2025-10-15,清算の結了等,,,2023-10-27,1,,,,,タジマボウエキ,0
188,1270002007338,登記記録の閉鎖等,0,2025-10-23,2025-10-21,有限会社ラーメン日の丸,,有限会社,鳥取県,米子市,旗ヶ崎２丁目１３番２９号,,31,202,6830845,,,2025-10-21,清算の結了等,,,2015-10-05,1,,,,,ラーメンヒノマル,0
189,1280001005011,登記記録の閉鎖等,0,2025-10-23,2025-10-20,株式会社みやこ編物,,株式会社,島根県,益田市,あけぼの本町２番地６,,32,204,6980026,,,2025-10-20,清算の結了等,,,2015-10-05,1,,,,,ミヤコアミモノ,0
203,1290005001922,登記記録の閉鎖等,0,2025-10-23,2025-09-26,医療法人由布整形外科医院,,その他の設立登記法人,福岡県,福岡市西区,今宿２丁目１２番１号,,40,135,8190167,,,2025-09-26,清算の結了等,,,2015-10-05,1,,,,,ユフセイケイゲカイイン,0
213,1330002031117,登記記録の閉鎖等,0,2025-10-23,2025-10-10,有限会社弥永物産,,有限会社,熊本県,球磨郡多良木町,大字多良木１３８５番地の２,,43,505,8680501,,,2025-10-10,清算の結了等,,,2015-10-05,1,,,,,,0
215,1340001006746,登記記録の閉鎖等,0,2025-10-23,2025-10-15,株式会社いすず医科器械,,株式会社,鹿児島県,鹿児島市,小川町６番４号,,46,201,8920817,,,2025-10-15,清算の結了等,,,2015-10-05,1,,,,,イスズイカキカイ,0
222,1350003001983,登記記録の閉鎖等,0,2025-10-23,2025-10-15,合同会社ティープラス,,合同会社,宮崎県,宮崎市,清武町今泉甲３７４０番地２,,45,201,8891602,,,2025-10-15,清算の結了等,,,2015-10-05,1,,,,,ティープラス,0
230,1370003006733,登記記録の閉鎖等,0,2025-10-23,2025-09-05,合同会社アルカディア,,合同会社,宮城県,仙台市泉区,泉ケ丘１丁目１８番２５号,,04,105,9813201,,,2025-09-05,清算の結了等,,,2024-08-20,1,,,,,アルカディア,0
231,1370102000587,登記記録の閉鎖等,0,2025-10-23,2025-10-07,有限会社水戸工務店,,有限会社,宮城県,柴田郡柴田町,船岡新栄２丁目１７番地の３,,04,323,9891607,,,2025-10-07,清算の結了等,,,2015-10-05,1,,,,,ミトコウムテン,0
239,1420002012066,登記記録の閉鎖等,0,2025-10-23,2025-10-08,有限会社李朝,,有限会社,青森県,五所川原市,中央６丁目７７番地,,02,205,0370036,,,2025-10-08,清算の結了等,,,2015-10-05,1,,,,,リチョウ,0
269,2010005032531,登記記録の閉鎖等,0,2025-10-23,2025-10-21,一般社団法人ＣＣＦ１号,,その他の設立登記法人,東京都,中央区,八丁堀４丁目２番１０号ＡＯＪ税理士法人内,,13,102,1040032,,,2025-10-21,清算の結了等,,,2020-11-11,1,,,,,シーシーエフイチゴウ,0
275,2010401151199,登記記録の閉鎖等,0,2025-10-23,2025-10-02,ホンダモビリティソリューションズ株式会社,,株式会社,東京都,港区,南青山２丁目１番１号,,13,103,1070062,,,2025-10-02,清算の結了等,,,2020-02-20,1,,,,,ホンダモビリティソリューションズ,0
277,2010401177070,登記記録の閉鎖等,0,2025-10-23,2025-09-09,株式会社Ｍｉｉ,,株式会社,東京都,港区,白金台５丁目１８－４,,13,103,1080071,,,2025-09-09,清算の結了等,,,2023-09-21,1,,,,,ミー,0
300,2010901028681,登記記録の閉鎖等,0,2025-10-23,2025-09-19,株式会社ジェットガジェット,,株式会社,東京都,港区,南青山２丁目２番１５号ウィン青山９４２,,13,103,1070062,,,2025-09-19,清算の結了等,,,2015-10-05,1,,,,,ジェットガジェット,0
319,2011105003851,登記記録の閉鎖等,0,2025-10-23,2025-10-20,税理士法人田中会計,,その他の設立登記法人,東京都,中央区,日本橋浜町２丁目４２番９号アイデン浜町６階,,13,102,1030007,,,2025-10-20,清算の結了等,,,2015-10-05,1,,,,,タナカカイケイ,0
320,2011201000166,登記記録の閉鎖等,0,2025-10-23,2025-10-10,株式会社アソー,,株式会社,東京都,中野区,松が丘１丁目２８番１１号,,13,114,1650024,,,2025-10-10,清算の結了等,,,2015-10-05,1,,,,,アソー,0
325,2011501028460,登記記録の閉鎖等,0,2025-10-23,2025-10-20,日本宮之＿株式会社,00127779,株式会社,東京都,荒川区,南千住３丁目２７－２浅草ビル５０８号室,,13,118,1160003,,,2025-10-20,清算の結了等,,,2022-09-08,1,,,,,ニホンミヤノレイ,0
347,2020001080979,登記記録の閉鎖等,0,2025-10-23,2025-10-06,株式会社ＳＭＡＲＴＤＥＳＩＲＥ,,株式会社,神奈川県,川崎市中原区,田尻町４２,,14,133,2110014,,,2025-10-06,清算の結了等,,,2015-10-05,1,,,,,スマートデザイヤー,0
351,2020002088121,登記記録の閉鎖等,0,2025-10-23,2025-10-06,有限会社エイム急送,,有限会社,神奈川県,川崎市高津区,坂戸１丁目６番３５号,,14,134,2130012,,,2025-10-06,清算の結了等,,,2015-10-05,1,,,,,エイムキュウソウ,0
357,2030001062605,登記記録の閉鎖等,0,2025-10-23,2025-10-14,株式会社奥田工業,,株式会社,埼玉県,鴻巣市,宮地５丁目１４番１２号,,11,217,3650075,,,2025-10-14,清算の結了等,,,2015-10-05,1,,,,,オクダコウギョウ,0
358,2030001080210,登記記録の閉鎖等,0,2025-10-23,2025-10-14,明和ベンディクス株式会社,,株式会社,埼玉県,川口市,上青木１丁目２１番６号,,11,203,3330844,,,2025-10-14,清算の結了等,,,2015-10-05,1,,,,,メイワベンディクス,0
365,2040001086710,登記記録の閉鎖等,0,2025-10-23,2025-10-14,株式会社オライオン,,株式会社,千葉県,柏市,藤ケ谷１８３７－３,,12,217,2770931,,,2025-10-14,清算の結了等,,,2015-10-05,1,,,,,オライオン,0
376,2050002021839,登記記録の閉鎖等,0,2025-10-23,2025-10-10,有限会社トムス,,有限会社,茨城県,つくば市,真瀬１１５２番地,,08,220,3002656,,,2025-10-10,清算の結了等,,,2015-10-05,1,,,,,トムス,0
382,2070001022464,登記記録の閉鎖等,0,2025-10-23,2025-10-20,末広陸運株式会社,,株式会社,群馬県,太田市,末広町５４９番地の２８,,10,205,3730862,,,2025-10-20,清算の結了等,,,2015-10-05,1,,,,,スエヒロリクウン,0
389,2080101019830,登記記録の閉鎖等,0,2025-10-23,2025-10-20,株式会社ビートラスト,,株式会社,静岡県,駿東郡長泉町,下土狩１３７番地の３,,22,342,4110943,,,2025-10-20,清算の結了等,,,2017-05-24,1,,,,,,0
391,2110002031204,登記記録の閉鎖等,0,2025-10-23,2025-10-16,有限会社田村サイジング,,有限会社,新潟県,長岡市,栃尾新町６番４３号,,15,202,9400216,,,2025-10-16,清算の結了等,,,2015-10-05,1,,,,,タムラサイジング,0
398,2120001159747,登記記録の閉鎖等,0,2025-10-23,2025-10-17,株式会社ふくろう,,株式会社,大阪府,守口市,大久保町２丁目２９番１５－１２１３号,,27,209,5700012,,,2025-10-17,清算の結了等,,,2015-10-05,1,,,,,フクロウ,0
417,2120005021309,登記記録の閉鎖等,0,2025-10-23,2025-10-17,ＮＰＯ法人十勝・桜の山プロジェクト,,その他の設立登記法人,大阪府,大阪市北区,梅田１丁目１番３－９３４号,,27,127,5300001,,,2025-10-17,清算の結了等,,,2020-01-08,1,,,,,トカチサクラノヤマプロジェクト,0
424,2120901016246,登記記録の閉鎖等,0,2025-10-23,2025-10-09,株式会社新星工業,,株式会社,大阪府,吹田市,南吹田５丁目２８－２３,,27,205,5640043,,,2025-10-09,清算の結了等,,,2015-10-05,1,,,,,,0
428,2120901048108,登記記録の閉鎖等,0,2025-10-23,2025-10-20,株式会社メルクファーマシー,,株式会社,大阪府,守口市,金下町２丁目３番７号,,27,209,5700079,,,2025-10-20,合併による解散等,6030001066965,令和７年９月１日大阪府茨木市西駅前町１３番２５号株式会社ウィーズ（6030001066965）に合併し解散,2023-09-29,1,,,,,メルクファーマシー,0
451,2180001143695,登記記録の閉鎖等,0,2025-10-23,2025-10-02,株式会社Ｙｅｌｌｏｗ　Ｆｉｎ,,株式会社,愛知県,一宮市,多加木５丁目２２番１号,,23,203,4910837,,,2025-10-02,合併による解散等,4180001077859,令和７年１０月１日愛知県一宮市多加木五丁目２２番１号株式会社ウイッシュ（4180001077859）に合併し解散,2020-11-19,1,,,,,イエローフィン,0
462,2190001010110,登記記録の閉鎖等,0,2025-10-23,2025-10-20,株式会社一歩堂,,株式会社,三重県,松阪市,高町５４１番地１６,,24,204,5150011,,,2025-10-20,清算の結了等,,,2015-10-05,1,,,,,イッポドウ,0
464,2190002018053,登記記録の閉鎖等,0,2025-10-23,2025-10-20,有限会社諸岡酒店,,有限会社,三重県,いなべ市,大安町南金井８８８番地の７,,24,214,5110283,,,2025-10-20,清算の結了等,,,2015-10-05,1,,,,,,0
476,2280002011362,登記記録の閉鎖等,0,2025-10-23,2025-10-22,島根道路安全有限会社,,有限会社,島根県,雲南市,大東町下阿用４６４番地１,,32,209,6991223,,,2025-10-22,清算の結了等,,,2015-10-05,1,,,,,シマネドウロアンゼン,0
494,2350003001082,登記記録の閉鎖等,0,2025-10-23,2025-10-16,合資会社魚廣商店,,合資会社,宮崎県,延岡市,幸町１丁目１３番地,,45,203,8820053,,,2025-10-16,清算の結了等,,,2015-10-05,1,,,,,ウオヒロショウテン,0
498,2370001051615,登記記録の閉鎖等,0,2025-10-23,2025-10-06,株式会社Ｈｙｌｅ,,株式会社,宮城県,大崎市,古川北町２丁目５番２３号－１０３,,04,215,9896171,,,2025-10-06,清算の結了等,,,2024-08-06,1,,,,,ヒューレイ,0
504,2430001043382,登記記録の閉鎖等,0,2025-10-23,2025-10-02,株式会社浅利商店,,株式会社,北海道,千歳市,朝日町１丁目１９番地,,01,224,0660043,,,2025-10-02,清算の結了等,,,2015-10-05,1,,,,,アサリショウテン,0
512,2460101005627,登記記録の閉鎖等,0,2025-10-23,2025-10-20,株式会社丸真,,株式会社,北海道,帯広市,東二条南１６丁目１１番地１,,01,207,0800802,,,2025-10-20,清算の結了等,,,2015-10-05,1,,,,,マルシン,0
517,2490002001078,登記記録の閉鎖等,0,2025-10-23,2025-10-22,株式会社エニシング,,株式会社,高知県,高知市,十津５丁目９番１号ＡＤＤＲＥＳＳ１号棟,,39,201,7810114,,,2025-10-22,清算の結了等,,,2015-10-05,1,,,,,エニシング,0
518,2490002003041,登記記録の閉鎖等,0,2025-10-23,2025-10-21,有限会社大通,,有限会社,高知県,高知市,入明町７番９号,,39,201,7800041,,,2025-10-21,清算の結了等,,,2015-10-05,1,,,,,ダイツウ,0
533,3010005008373,登記記録の閉鎖等,0,2025-10-23,2025-10-21,一般社団法人ディエイチ開発ホールディングス,,その他の設立登記法人,東京都,千代田区,丸の内１丁目４番１号東京共同会計事務所内,,13,101,1000005,,,2025-10-21,清算の結了等,,,2015-10-05,1,,,,,ディエイチカイハツホールディングス,0
557,3010601053665,登記記録の閉鎖等,0,2025-10-23,2025-10-10,Ｓａｉｔｅｃ　Ｏｆｆｓｈｏｒｅ　Ｊａｐａｎ株式会社,,株式会社,東京都,墨田区,緑１丁目２２番８号,,13,107,1300021,,,2025-10-10,清算の結了等,,,2018-07-23,1,,,,,サイテックオフショアジャパン,0
570,3011003008753,登記記録の閉鎖等,0,2025-10-23,2025-09-22,シータケ合同会社,,合同会社,東京都,目黒区,上目黒３丁目２１番２８－１１４号,,13,110,1530051,,,2025-09-22,清算の結了等,,,2018-05-09,1,,,,,シータケ,0
574,3011101052777,登記記録の閉鎖等,0,2025-10-23,2025-10-16,海外事務器株式会社,,株式会社,東京都,小平市,喜平町３丁目３番１７－３０６号,,13,211,1870044,,,2025-10-16,清算の結了等,,,2015-10-05,1,,,,,カイガイジムキ,0
585,3011501001111,登記記録の閉鎖等,0,2025-10-23,2025-10-22,株式会社菊池製作所,,株式会社,東京都,北区,東十条５丁目６番６号,,13,117,1140001,,,2025-10-22,清算の結了等,,,2015-10-05,1,,,,,キクチセイサクショ,0
606,3020001005893,登記記録の閉鎖等,0,2025-10-23,2025-10-02,株式会社岩城電機,,株式会社,神奈川県,茅ヶ崎市,今宿２６９番地３,,14,207,2530072,,,2025-10-02,清算の結了等,,,2015-10-05,1,,,,,イワキデンキ,0
607,3020001026502,登記記録の閉鎖等,0,2025-10-23,2025-10-07,株式会社光和管財,,株式会社,神奈川県,横浜市中区,住吉町２丁目２５番地,,14,104,2310013,,,2025-10-07,清算の結了等,,,2015-10-05,1,,,,,コウワカンザイ,0
609,3020001128224,登記記録の閉鎖等,0,2025-10-23,2025-10-02,ヴィテスコ・テクノロジーズ・ジャパン株式会社,,株式会社,神奈川県,横浜市保土ケ谷区,神戸町１３４番地,,14,106,2400005,,,2025-10-02,合併による解散等,6020001001816,令和７年１０月１日横浜市保土ケ谷区神戸町１３４番地シェフラージャパン株式会社（6020001001816）に合併し解散,2018-10-04,1,,,,,ヴィテスコテクノロジーズジャパン,0
612,3020002048306,登記記録の閉鎖等,0,2025-10-23,2025-10-09,有限会社Ａｄｅ’ｌｉｅ,,有限会社,神奈川県,横浜市戸塚区,東俣野町５６番地２,,14,110,2450065,,,2025-10-09,清算の結了等,,,2015-10-05,1,,,,,アデリー,0
634,3050001005676,登記記録の閉鎖等,0,2025-10-23,2025-10-14,株式会社フィールドワークス,,株式会社,茨城県,水戸市,中央２丁目６番１０号（斉藤ビル２Ｆ）,,08,201,3100805,,,2025-10-14,清算の結了等,,,2015-10-05,1,,,,,フィールドワークス,0
637,3050005013394,登記記録の閉鎖等,0,2025-10-23,2025-10-10,一般社団法人ＢＣ‐ｂｏｄｙ,,その他の設立登記法人,茨城県,つくば市,二の宮４丁目８番１号,,08,220,3050051,,,2025-10-10,清算の結了等,,,2024-03-08,1,,,,,ビイシイボデイ,0
640,3060003001854,登記記録の閉鎖等,0,2025-10-23,2025-10-21,ＬＡＫＭＩＮＩ．ＩＮＴＥＲＮＡＴＩＯＮＡＬ合同会社,,合同会社,栃木県,足利市,鹿島町４４２番地ミヤマ荘１０１号棟,,09,202,3260844,,,2025-10-21,清算の結了等,,,2015-10-05,1,,,,,ラクミニインターナショナル,0
642,3070001010864,登記記録の閉鎖等,0,2025-10-23,2025-10-20,ケーエム建工株式会社,,株式会社,群馬県,高崎市,箕郷町下芝４６８番地１２,,10,202,3703103,,,2025-10-20,清算の結了等,,,2015-10-05,1,,,,,ケーエムケンコウ,0
652,3110002030683,登記記録の閉鎖等,0,2025-10-23,2025-10-17,有限会社コバヤシ工業,,有限会社,新潟県,長岡市,中之島１番地８,,15,202,9540124,,,2025-10-17,清算の結了等,,,2015-10-05,1,,,,,,0
662,3120001270759,登記記録の閉鎖等,0,2025-10-23,2025-10-17,希研株式会社,,株式会社,大阪府,大阪市此花区,春日出中１丁目９番１３－１０４Ｂ,,27,104,5540022,,,2025-10-17,清算の結了等,,,2024-12-04,1,,,,,キケン,0
695,3150002007562,登記記録の閉鎖等,0,2025-10-23,2025-10-16,有限会社誠悦庵三和,,有限会社,奈良県,桜井市,大字西之宮１１０番地,,29,206,6330066,,,2025-10-16,清算の結了等,,,2015-10-05,1,,,,,セイエツアンサンワ,0
707,3180002066341,登記記録の閉鎖等,0,2025-10-23,2025-10-10,鈴木製菓有限会社,,有限会社,愛知県,名古屋市西区,枇杷島５丁目２１番７号,,23,104,4510053,,,2025-10-10,清算の結了等,,,2015-10-05,1,,,,,スズキセイカ,0
713,3180302024825,登記記録の閉鎖等,0,2025-10-23,2025-10-06,有限会社新興設備工業,,有限会社,愛知県,豊田市,千石町５丁目１８番地,,23,211,4710016,,,2025-10-06,合併による解散等,9180301036997,令和７年９月２５日愛知県豊田市千石町五丁目１８番地ミカロ株式会社（9180301036997）に合併し解散,2015-10-05,1,,,,,シンコウセツビコウギョウ,0
734,3280002006163,登記記録の閉鎖等,0,2025-10-23,2025-10-20,有限会社ユウアイ工芸,,有限会社,島根県,出雲市,稗原町３３２７番地,,32,203,6930104,,,2025-10-20,清算の結了等,,,2015-10-05,1,,,,,ユウアイコウゲイ,0
743,3290803003812,登記記録の閉鎖等,0,2025-10-23,2025-10-14,Ｋ１１０合同会社,,合同会社,福岡県,北九州市小倉南区,田原新町１丁目１３番２号,,40,107,8000226,,,2025-10-14,清算の結了等,,,2021-05-06,1,,,,,ケイイチイチマル,0
747,3330002016132,登記記録の閉鎖等,0,2025-10-23,2025-10-10,有限会社源川縫製,,有限会社,熊本県,菊池郡大津町,大字引水１４２番地,,43,403,8691234,,,2025-10-10,清算の結了等,,,2015-10-05,1,,,,,ゲンカワホウセイ,0
764,3410001007033,登記記録の閉鎖等,0,2025-10-23,2025-10-21,株式会社岩木メディカル。サービス,,株式会社,秋田県,能代市,能代町字中川原２６番地９０５,,05,202,0160814,,,2025-10-21,清算の結了等,,,2015-10-05,1,,,,,イワキメディカルサービス,0
783,4010002053603,登記記録の閉鎖等,0,2025-10-23,2025-09-22,有限会社イーネットワーク,,有限会社,東京都,新宿区,西新宿３丁目１番５号,,13,104,1600023,,,2025-09-22,清算の結了等,,,2015-10-05,1,,,,,イーネットワーク,0
790,4010401150884,登記記録の閉鎖等,0,2025-10-23,2025-10-03,東芝データ株式会社,,株式会社,神奈川県,川崎市幸区,堀川町７２番地３４,,14,132,2120013,,,2025-10-03,合併による解散等,7010401052137,令和７年１０月１日川崎市幸区堀川町７２番地３４東芝デジタルソリューションズ株式会社（7010401052137）に合併し解散,2020-02-10,1,,,,,トウシバデータ,0
797,4010401163250,登記記録の閉鎖等,0,2025-10-23,2025-10-17,株式会社ｓｕｂｅｒｏ,,株式会社,岐阜県,岐阜市,大洞紅葉が丘２丁目５番地,,21,201,5013122,,,2025-10-17,清算の結了等,,,2021-10-14,1,,,,,スベロー,0
819,4010601029747,登記記録の閉鎖等,0,2025-10-23,2025-10-16,株式会社ケーティ商事,,株式会社,千葉県,木更津市,長須賀中央２９８番地の１,,12,206,2920054,,,2025-10-16,合併による解散等,3010601033667,令和７年１０月１日東京都墨田区菊川三丁目１４番１８号株式会社登利富（3010601033667）に合併し解散,2015-10-05,1,,,,,ケーティショウジ,0
820,4010601059760,登記記録の閉鎖等,0,2025-10-23,2025-10-03,株式会社じわら,,株式会社,東京都,中央区,銀座１丁目１２－４Ｎ＆ＥＢＬＤ．７階,,13,102,1040061,,,2025-10-03,清算の結了等,,,2021-08-05,1,,,,,ジワラ,0
828,4011001018381,登記記録の閉鎖等,0,2025-10-23,2025-10-14,株式会社パヴァロッテイ,,株式会社,東京都,板橋区,相生町５番５号,,13,119,1740044,,,2025-10-14,清算の結了等,,,2015-10-05,1,,,,,パヴァロッテイ,0
851,4011601006769,登記記録の閉鎖等,0,2025-10-23,2025-10-14,宮脇化成工業株式会社,,株式会社,東京都,練馬区,谷原４丁目１７番５号,,13,120,1770032,,,2025-10-14,清算の結了等,,,2015-10-05,1,,,,,ミヤワキカセイコウギョウ,0
856,4011602008302,登記記録の閉鎖等,0,2025-10-23,2025-10-15,有限会社南星興業,,有限会社,東京都,練馬区,平和台４丁目１８番１３－５０４号,,13,120,1790083,,,2025-10-15,清算の結了等,,,2015-10-05,1,,,,,ナンセイコウギョウ,0
881,4021002001682,登記記録の閉鎖等,0,2025-10-23,2025-10-03,有限会社ケイ建築事務所,,有限会社,神奈川県,藤沢市,高倉４５０番地の８,,14,205,2520802,,,2025-10-03,清算の結了等,,,2015-10-05,1,,,,,ケイケンチクジムショ,0
884,4030001018415,登記記録の閉鎖等,0,2025-10-23,2025-10-14,篠原産業株式会社,,株式会社,埼玉県,蓮田市,末広１丁目１番１７号,,11,238,3490124,,,2025-10-14,清算の結了等,,,2015-10-05,1,,,,,シノハラサンギョウ,0
886,4030001033133,登記記録の閉鎖等,0,2025-10-23,2025-10-10,株式会社東武住建設,,株式会社,埼玉県,加須市,大門町６番２０号,,11,210,3470068,,,2025-10-10,清算の結了等,,,2015-10-05,1,,,,,トウブジュウケンセツ,0
890,4030001130161,登記記録の閉鎖等,0,2025-10-23,2025-10-15,株式会社Ｌａｙｌｉａｈ,,株式会社,東京都,杉並区,今川１丁目１２番２１号,,13,115,1670035,,,2025-10-15,清算の結了等,,,2019-04-02,1,,,,,レイリア,0
899,4040001111598,登記記録の閉鎖等,0,2025-10-23,2025-10-20,株式会社アークフォワード,,株式会社,東京都,足立区,東和１丁目２番１２号,,13,121,1200003,,,2025-10-20,清算の結了等,,,2019-12-02,1,,,,,アークフォワード,0
905,4040002045176,登記記録の閉鎖等,0,2025-10-23,2025-09-30,有限会社川上巖商店,,有限会社,千葉県,松戸市,和名ケ谷１３３０番地の３,,12,207,2702232,,,2025-09-30,清算の結了等,,,2015-10-05,1,,,,,カワカミイワオショウテン,0
915,4080003002627,登記記録の閉鎖等,0,2025-10-23,2025-10-16,ジムコン合同会社,,合同会社,静岡県,静岡市清水区,八坂北１丁目１９番１５号,,22,103,4240023,,,2025-10-16,清算の結了等,,,2021-08-13,1,,,,,ジムコン,0
917,4080402021863,登記記録の閉鎖等,0,2025-10-23,2025-10-15,有限会社ヤマケン,,有限会社,静岡県,袋井市,上山梨１０４５番地の１,,22,216,4370125,,,2025-10-15,清算の結了等,,,2015-10-05,1,,,,,ヤマケン,0
925,4120001194619,登記記録の閉鎖等,0,2025-10-23,2025-10-20,株式会社ゆうきメディカル,,株式会社,大阪府,大阪市淀川区,加島３丁目中８番１６号,,27,123,5320031,,,2025-10-20,合併による解散等,6030001066965,令和７年９月１日大阪府茨木市西駅前町１３番２５号株式会社ウィーズ（6030001066965）に合併し解散,2015-11-24,1,,,,,ユウキメディカル,0
940,4120105003626,登記記録の閉鎖等,0,2025-10-23,2025-10-20,医療法人恭友,,その他の設立登記法人,大阪府,大阪市都島区,中野町５丁目１３番３－１８０８号,,27,102,5340027,,,2025-10-20,清算の結了等,,,2015-10-05,1,,,,,ヤストモ,0
942,4122001028814,登記記録の閉鎖等,0,2025-10-23,2025-10-06,株式会社山崎工務店,00103119,株式会社,大阪府,八尾市,大字都塚３９番地の１１,00103120,27,212,5810023,,,2025-10-06,清算の結了等,,,2015-10-05,1,,,,,ヤマザキコウムテン,0
948,4130003010459,登記記録の閉鎖等,0,2025-10-23,2025-10-21,合同会社ユニティ,,合同会社,京都府,京都市伏見区,納所北城堀１０番地１３,,26,109,6128279,,,2025-10-21,清算の結了等,,,2025-05-14,1,,,,,ユニティ,0
962,4180001094516,登記記録の閉鎖等,0,2025-10-23,2025-10-01,チタジュウサッシ株式会社,,株式会社,愛知県,東海市,加木屋町樋６１番地の３,,23,222,4770032,,,2025-10-01,合併による解散等,8180001094512,令和７年１０月１日愛知県東海市加木屋町樋６１番地の３株式会社チタジュウ（8180001094512）に合併し解散,2015-10-05,1,,,,,チタジュウサッシ,0
980,4190001001727,登記記録の閉鎖等,0,2025-10-23,2025-10-20,株式会社ホリケン,,株式会社,三重県,津市,大里窪田町８７７番地１,,24,201,5140125,,,2025-10-20,清算の結了等,,,2015-10-05,1,,,,,ホリケン,0
993,4240002044281,登記記録の閉鎖等,0,2025-10-23,2025-10-15,有限会社笹川店,,有限会社,広島県,福山市,瀬戸町大字山北４８４番地の１,,34,207,7200838,,,2025-10-15,清算の結了等,,,2015-10-05,1,,,,,ササガワミセ,0
996,4250001018319,登記記録の閉鎖等,0,2025-10-23,2025-10-20,ヴェリテ株式会社,,株式会社,山口県,周南市,今宿町２丁目２７番地,,35,215,7450074,,,2025-10-20,清算の結了等,,,2020-06-10,1,,,,,ヴェリテ,0
998,4290001003093,登記記録の閉鎖等,0,2025-10-23,2025-09-26,株式会社ゴダイ,,株式会社,福岡県,福岡市東区,松崎２丁目５番１０号,,40,131,8130035,,,2025-09-26,清算の結了等,,,2015-10-05,1,,,,,ゴダイ,0
1006,4290005018600,登記記録の閉鎖等,0,2025-10-23,2025-08-14,ＮＰＯ法人のろし,,その他の設立登記法人,福岡県,福岡市西区,愛宕浜２丁目３番１０－１９０６号マリナタウンリベーラガーデンイーストタワー,,40,135,8190013,,,2025-08-14,清算の結了等,,,2022-03-24,1,,,,,ノロシ,0
1026,4370202003529,登記記録の閉鎖等,0,2025-10-23,2025-10-03,有限会社本田建設,,有限会社,宮城県,大崎市,鹿島台深谷字藤房前２２７番地１,,04,215,9894105,,,2025-10-03,清算の結了等,,,2015-10-05,1,,,,,ホンダケンセツ,0
1027,4370302000640,登記記録の閉鎖等,0,2025-10-23,2025-10-07,有限会社かねとよ,,有限会社,宮城県,石巻市,鹿妻南５丁目３番１９号,,04,202,9860042,,,2025-10-07,清算の結了等,,,2015-10-05,1,,,,,カネトヨ,0
1028,4370302002736,登記記録の閉鎖等,0,2025-10-23,2025-10-07,有限会社ヤマモトコーポレーション,,有限会社,宮城県,石巻市,新橋２番２２－１１号,,04,202,9860878,,,2025-10-07,清算の結了等,,,2015-10-05,1,,,,,ヤマモトコーポレーション,0
1037,4420001019101,登記記録の閉鎖等,0,2025-10-23,2025-10-06,株式会社エイポットレッカー,,株式会社,青森県,上北郡七戸町,字森ノ上６番地４,,02,402,0392827,,,2025-10-06,清算の結了等,,,2025-04-22,1,,,,,エイポットレッカー,0
1044,4430001086842,登記記録の閉鎖等,0,2025-10-23,2025-10-14,株式会社Ｆａｉｔｈ　Ｉｎｖｅｓｔ,,株式会社,茨城県,取手市,西２丁目１０番１１号,,08,217,3020025,,,2025-10-14,清算の結了等,,,2022-06-16,1,,,,,フェイスインベスト,0
1054,4470001005971,登記記録の閉鎖等,0,2025-10-23,2025-10-20,株式会社むらかわ,,株式会社,香川県,高松市,牟礼町牟礼２３２７番地２,,37,201,7610121,,,2025-10-20,清算の結了等,,,2015-10-05,1,,,,,,0
1055,4470001015806,登記記録の閉鎖等,0,2025-10-23,2025-10-14,株式会社Ｈａｐｐｙ＆ＡＩ　Ｔｒａｄｉｎｇ,,株式会社,岡山県,岡山市北区,幸町７番８号ロイヤルガーデンタワー岡山幸町１８０９号室,,33,101,7000903,,,2025-10-14,合併による解散等,5010001231373,令和７年１０月１日東京都文京区湯島二丁目１６番１０号株式会社メディカルサポート（5010001231373）に合併し解散,2016-07-12,1,,,,,ハッピーアンドアイ,0
1063,5010001074731,登記記録の閉鎖等,0,2025-10-23,2025-10-07,セントラルマネージメント株式会社,,株式会社,東京都,中央区,入船１丁目６番１号,,13,102,1040042,,,2025-10-07,清算の結了等,,,2015-10-05,1,,,,,セントラルマネージメント,0
1075,5010001158674,登記記録の閉鎖等,0,2025-10-23,2025-10-16,株式会社アロマビット,,株式会社,東京都,中央区,銀座７丁目１３番６号サガミビル２階,,13,102,1040061,,,2025-10-16,合併による解散等,5010001258268,令和７年１０月１６日東京都中央区銀座七丁目１３番６号株式会社アロマビットＨｏｌｄｉｎｇｓ（5010001258268）に合併し解散,2015-10-05,1,"Aroma Bit, Inc.",Tokyo,"7-13-6, Ginza, Chuo ku",,アロマビット,0
1083,5010002036615,登記記録の閉鎖等,0,2025-10-23,2025-10-21,箕面エス・シー有限会社,,有限会社,東京都,千代田区,神田神保町１丁目１１番地さくら綜合事務所内,,13,101,1010051,,,2025-10-21,合併による解散等,7011001016580,令和７年１０月１日東京都渋谷区道玄坂一丁目２１番１号東急不動産株式会社（7011001016580）に合併し解散,2015-10-05,1,,,,,,0
1103,5010601050000,登記記録の閉鎖等,0,2025-10-23,2025-10-14,エルエスオー株式会社,,株式会社,東京都,墨田区,立花５丁目１４番２号,,13,107,1310043,,,2025-10-14,清算の結了等,,,2016-07-14,1,,,,,エルエスオー,0
1104,5010601058308,登記記録の閉鎖等,0,2025-10-23,2025-09-19,株式会社ＹＯＵＷＯＲＫ,,株式会社,東京都,港区,浜松町２丁目２番１５号浜松町ダイヤビル２Ｆ,,13,103,1050013,,,2025-09-19,清算の結了等,,,2020-11-16,1,,,,,ユーワーク,0
1110,5011001098209,登記記録の閉鎖等,0,2025-10-23,2025-10-20,株式会社ＴＵＫＵＲＵ,,株式会社,東京都,目黒区,東山１丁目５番４号,,13,110,1530043,,,2025-10-20,合併による解散等,6320201000224,令和７年１０月１日大分県津久見市大字上青江４４７８番地の８株式会社ｃｏｔｔａ（6320201000224）に合併し解散,2015-10-05,1,,,,,ツクル,0
1129,5011602012229,登記記録の閉鎖等,0,2025-10-23,2025-10-16,有限会社電技,,有限会社,東京都,練馬区,東大泉７丁目５０番１８号,,13,120,1780063,,,2025-10-16,清算の結了等,,,2015-10-05,1,,,,,デンギ,0
1139,5020001114825,登記記録の閉鎖等,0,2025-10-23,2025-10-06,株式会社オカザキ,,株式会社,神奈川県,横浜市保土ケ谷区,峰沢町１７番地,,14,106,2400061,,,2025-10-06,清算の結了等,,,2016-02-12,1,,,,,オカザキ,0
1145,5020002097276,登記記録の閉鎖等,0,2025-10-23,2025-10-08,有限会社十八屋精肉店,,有限会社,神奈川県,川崎市川崎区,田町２丁目２番２号,,14,131,2100822,,,2025-10-08,清算の結了等,,,2015-10-05,1,,,,,ジュウハチヤセイニクテン,0
1160,5030001124971,登記記録の閉鎖等,0,2025-10-23,2025-10-21,株式会社地域リハビリテーション研究所,,株式会社,東京都,世田谷区,千歳台６丁目１６番３－２０１号,,13,112,1570071,,,2025-10-21,清算の結了等,,,2018-04-09,1,,,,,チイキリハビリテーションケンキュウジョ,0
1174,5050001002399,登記記録の閉鎖等,0,2025-10-23,2025-10-10,株式会社ワイエスピー,,株式会社,茨城県,水戸市,備前町７番３１－６０２号サンアリーナ水戸備前町,,08,201,3100024,,,2025-10-10,清算の結了等,,,2015-10-05,1,,,,,ワイエスピー,0
1177,5060001000740,登記記録の閉鎖等,0,2025-10-23,2025-10-20,上野不動産株式会社,,株式会社,東京都,武蔵野市,吉祥寺東町２丁目４０番１０号,,13,203,1800002,,,2025-10-20,合併による解散等,4010001111584,令和７年１０月１日東京都千代田区飯田橋二丁目９番４号サンパークマンション千代田１００４号ジェイ．クレスリアルエステート株式会社（4010001111584）に合併し解散,2015-10-05,1,,,,,ウエノフドウサン,0
1189,5080402018776,登記記録の閉鎖等,0,2025-10-23,2025-10-15,有限会社水野メッキ工場,,有限会社,静岡県,菊川市,本所９５０番地の３０,,22,224,4390018,,,2025-10-15,清算の結了等,,,2015-10-05,1,,,,,ミズノメッキコウジョウ,0
1190,5110001020469,登記記録の閉鎖等,0,2025-10-23,2025-10-21,新潟丸善運輸株式会社,,株式会社,新潟県,上越市,大字下荒浜３６５番地１,,15,222,9420022,,,2025-10-21,合併による解散等,8070001022979,令和７年１０月１日群馬県沼田市横塚町１１０１番地月夜野運送株式会社（8070001022979）に合併し解散,2015-10-05,1,,,,,ニイガタマルゼンウンユ,0
1204,5120005012651,登記記録の閉鎖等,0,2025-10-23,2025-10-21,医療法人嶋元医院,,その他の設立登記法人,大阪府,寝屋川市,楠根南町２８番１０号,,27,215,5720811,,,2025-10-21,清算の結了等,,,2015-10-05,1,,,,,シマモトイイン,0
1218,5130002000658,登記記録の閉鎖等,0,2025-10-23,2025-09-22,有限会社永恵,,有限会社,福島県,郡山市,湖南町浜路字加賀浜９９７番地４８パサージュ猪苗代レイクサイド１５１３号室,,07,203,9631414,,,2025-09-22,清算の結了等,,,2015-10-05,1,,,,,ナガエ,0
1233,5180001142018,登記記録の閉鎖等,0,2025-10-23,2025-10-14,株式会社ＧＥＬ,,株式会社,愛知県,名古屋市北区,大杉町６丁目１０７番の２,,23,103,4620836,,,2025-10-14,清算の結了等,,,2020-07-14,1,,,,,ジーイーエル,0
1251,5240002028507,登記記録の閉鎖等,0,2025-10-23,2025-10-20,宗正興産有限会社,,有限会社,広島県,東広島市,高屋町大字小谷１４０６番地の６０３,,34,212,7390000,,,2025-10-20,清算の結了等,,,2015-10-05,1,,,,,ムネマサコウサン,0
1253,5250001010530,登記記録の閉鎖等,0,2025-10-23,2025-10-20,株式会社ＡＺ,,株式会社,山口県,光市,大字塩田３４３０番地,,35,210,7430101,,,2025-10-20,清算の結了等,,,2015-10-05,1,,,,,エーゼット,0
1259,5280002007829,登記記録の閉鎖等,0,2025-10-23,2025-10-20,有限会社山地商店,,有限会社,島根県,大田市,五十猛町１７３８番地１,,32,205,6940035,,,2025-10-20,清算の結了等,,,2015-10-05,1,,,,,ヤマチショウテン,0
1280,5370402001422,登記記録の閉鎖等,0,2025-10-23,2025-10-07,アイビー有限会社,,有限会社,宮城県,登米市,中田町石森字町１０１番地,,04,212,9870601,,,2025-10-07,清算の結了等,,,2015-10-05,1,,,,,アイビー,0
1287,5420001008111,登記記録の閉鎖等,0,2025-10-23,2025-10-01,株式会社ホンダセンターナリコー,,株式会社,青森県,五所川原市,中央６丁目４８番地,,02,205,0370036,,,2025-10-01,合併による解散等,5420001006577,令和７年１０月１日青森県八戸市城下四丁目２２番２５号株式会社ホンダカーズみちのく（5420001006577）に合併し解散,2015-10-05,1,,,,,ホンダセンターナリコー,0
1288,5420005006128,登記記録の閉鎖等,0,2025-10-23,2025-10-09,職業訓練法人七戸職業能力開発協会,,その他の設立登記法人,青森県,上北郡七戸町,字蛇坂５７番地３,,02,402,0392571,,,2025-10-09,清算の結了等,,,2015-10-05,1,,,,,シチノヘ,0
1307,5500001011131,登記記録の閉鎖等,0,2025-10-23,2025-10-20,井上商事株式会社,,株式会社,愛媛県,今治市,喜田村６丁目１番２２号,,38,202,7991502,,,2025-10-20,清算の結了等,,,2015-10-05,1,,,,,イノウエショウジ,0
1309,5500002012517,登記記録の閉鎖等,0,2025-10-23,2025-10-21,有限会社中井塗装店,,有限会社,愛媛県,西予市,野村町野村１２号５３５番地,,38,214,7971212,,,2025-10-21,清算の結了等,,,2015-10-05,1,,,,,ナカイトソウテン,0
1311,6010001036937,登記記録の閉鎖等,0,2025-10-23,2025-10-21,株式会社グローセル,,株式会社,東京都,千代田区,神田司町２丁目１番地,,13,101,1010048,,,2025-10-21,合併による解散等,2020001032286,令和７年１０月１日横浜市港北区新横浜一丁目６番地３株式会社マクニカ（2020001032286）に合併し解散,2015-10-05,1,,,,,グローセル,0
1312,6010001042877,登記記録の閉鎖等,0,2025-10-23,2025-10-20,株式会社ケータック・プランナーズ,,株式会社,東京都,中央区,日本橋本町３丁目４番１０号,,13,102,1030023,,,2025-10-20,合併による解散等,1180001035811,令和７年１０月１日名古屋市中区錦三丁目６番２９号興和株式会社（1180001035811）に合併し解散,2015-10-05,1,,,,,ケータックプランナーズ,0
1323,6010005018725,登記記録の閉鎖等,0,2025-10-23,2025-10-21,一般社団法人林業薬剤協会,,その他の設立登記法人,東京都,千代田区,岩本町１丁目６番５号神田北爪ビル,,13,101,1010032,,,2025-10-21,清算の結了等,,,2015-10-05,1,,,,,リンギョウヤクザイキョウカイ,0
1325,6010401018262,登記記録の閉鎖等,0,2025-10-23,2025-10-21,株式会社帝国データバンククリエィティブ,,株式会社,東京都,港区,南青山２丁目５番２０号,,13,103,1070062,,,2025-10-21,合併による解散等,2010001086143,令和７年１０月１日東京都中央区新富一丁目１２番２号株式会社帝国データバンクビジネスサービス（2010001086143）に合併し解散,2015-10-05,1,,,,,テイコクデータバンククリエィティブ,0
1330,6010401147193,登記記録の閉鎖等,0,2025-10-23,2025-10-17,ｄｏｔＢｒａｖｏ株式会社,,株式会社,静岡県,富士市,本市場６０－１,,22,210,4160906,,,2025-10-17,清算の結了等,,,2019-08-05,1,"dotBravoJapan, Inc.",Tokyo,"611 Takanawa-Koyohaitsu, 2-19-17, Takanawa, Minato-ku",,ドットブラボー,0
1353,6010801010620,登記記録の閉鎖等,0,2025-10-23,2025-10-09,株式会社プロスタッフ,,株式会社,神奈川県,横浜市金沢区,谷津町４０番地１００,,14,108,2360016,,,2025-10-09,清算の結了等,,,2015-10-05,1,,,,,プロスタッフ,0
1355,6010802020296,登記記録の閉鎖等,0,2025-10-23,2025-10-14,有限会社ＣＲＩＥ,,有限会社,東京都,大田区,中央８丁目１４番１２号,,13,111,1430024,,,2025-10-14,清算の結了等,,,2015-10-05,1,,,,,,0
1374,6011401018104,登記記録の閉鎖等,0,2025-10-23,2025-10-16,サトーエネルギー株式会社,,株式会社,東京都,板橋区,赤塚４丁目２１番２８号,,13,119,1750092,,,2025-10-16,清算の結了等,,,2015-10-05,1,,,,,サトーエネルギー,0
1380,6011601003194,登記記録の閉鎖等,0,2025-10-23,2025-10-16,株式会社翔建築工房,,株式会社,東京都,練馬区,小竹町１丁目７７番１１号,,13,120,1760004,,,2025-10-16,清算の結了等,,,2015-10-05,1,,,,,ショウケンチクコウボウ,0
1385,6011802025863,登記記録の閉鎖等,0,2025-10-23,2025-10-17,有限会社ノーベル,,有限会社,東京都,足立区,辰沼１丁目５番１３号,,13,121,1210054,,,2025-10-17,清算の結了等,,,2015-10-05,1,,,,,ノーベル,0
1390,6012401035527,登記記録の閉鎖等,0,2025-10-23,2025-10-16,株式会社青木,,株式会社,東京都,調布市,仙川町１丁目１２番地２４,,13,208,1820002,,,2025-10-16,清算の結了等,,,2019-07-10,1,,,,,アオキ,0
1397,6020001121283,登記記録の閉鎖等,0,2025-10-23,2025-10-06,株式会社フウカイ,,株式会社,神奈川県,川崎市川崎区,境町１０番８－４０１号クレストＫ２,,14,131,2100838,,,2025-10-06,清算の結了等,,,2017-05-12,1,,,,,フウカイ,0
1414,6030001119863,登記記録の閉鎖等,0,2025-10-23,2025-10-14,株式会社カウベル,,株式会社,埼玉県,川口市,大字安行原１０５８番地,,11,203,3340057,,,2025-10-14,清算の結了等,,,2017-04-21,1,,,,,カウベル,0
1420,6030002052031,登記記録の閉鎖等,0,2025-10-23,2025-10-14,有限会社吉樹工業,,有限会社,埼玉県,三郷市,早稲田８丁目１番地１号棟３０６号,,11,237,3410018,,,2025-10-14,清算の結了等,,,2015-10-05,1,,,,,ヨシキコウギョウ,0
1422,6030002119219,登記記録の閉鎖等,0,2025-10-23,2025-10-14,有限会社稲垣工務店,,有限会社,埼玉県,飯能市,大字下赤工２２８番地２５,,11,209,3570126,,,2025-10-14,清算の結了等,,,2015-10-05,1,,,,,イナガキコウムテン,0
1429,6040001118699,登記記録の閉鎖等,0,2025-10-23,2025-09-22,株式会社幸美物産,,株式会社,千葉県,千葉市稲毛区,園生町７０５番地３ビビットタウンウィズ稲毛３１３,,12,103,2630051,,,2025-09-22,清算の結了等,,,2021-06-03,1,,,,,ユキミブッサン,0
1439,6050001023980,登記記録の閉鎖等,0,2025-10-23,2025-10-14,栄和工業株式会社,,株式会社,茨城県,高萩市,高浜町３丁目８７番地,,08,214,3180013,,,2025-10-14,清算の結了等,,,2015-10-05,1,,,,,エイワコウギョウ,0
1442,6060001005078,登記記録の閉鎖等,0,2025-10-23,2025-10-20,東邦食品株式会社,,株式会社,東京都,武蔵野市,吉祥寺東町２丁目４０番１０号,,13,203,1800002,,,2025-10-20,合併による解散等,4010001111584,令和７年１０月１日東京都千代田区飯田橋二丁目９番４号サンパークマンション千代田１００４号ジェイ．クレスリアルエステート株式会社（4010001111584）に合併し解散,2015-10-05,1,,,,,トウホウショクヒン,0
1444,6060002027815,登記記録の閉鎖等,0,2025-10-23,2025-10-21,有限会社イソオート工場,,有限会社,栃木県,小山市,大字出井１７１７番地１,,09,208,3230808,,,2025-10-21,清算の結了等,,,2015-10-05,1,,,,,イソオートコウジョウ,0
1445,6060002038267,登記記録の閉鎖等,0,2025-10-23,2025-10-20,有限会社マテリアル・ワールド,,有限会社,栃木県,足利市,毛野新町１丁目６３番地２,,09,202,3260016,,,2025-10-20,清算の結了等,,,2015-10-05,1,,,,,マテリアルワールド,0
1467,6120005004904,登記記録の閉鎖等,0,2025-10-23,2025-10-20,医療法人延歯会,,その他の設立登記法人,大阪府,大阪市北区,堂島１丁目１番５号,,27,127,5300003,,,2025-10-20,清算の結了等,,,2015-10-05,1,,,,,エンシカイ,0
1470,6120902018469,登記記録の閉鎖等,0,2025-10-23,2025-10-20,有限会社三協テクノ,,有限会社,大阪府,豊中市,穂積２丁目１２番１０号,,27,203,5610856,,,2025-10-20,清算の結了等,,,2015-10-05,1,,,,,,0
1479,6140001039720,登記記録の閉鎖等,0,2025-10-23,2025-10-16,株式会社大竹,,株式会社,兵庫県,相生市,那波大浜町１５番地８号,,28,208,6780051,,,2025-10-16,清算の結了等,,,2015-10-05,1,,,,,オオタケ,0
1484,6140001125454,登記記録の閉鎖等,0,2025-10-23,2025-10-15,株式会社ＳＴＯ,,株式会社,兵庫県,姫路市,継１９３番地,,28,201,6728004,,,2025-10-15,合併による解散等,4140001058747,令和７年９月１日兵庫県姫路市白浜町丙１５２番地の１河野トラック株式会社（4140001058747）に合併し解散,2022-04-12,1,,,,,エスティーオー,0
1496,6170002003904,登記記録の閉鎖等,0,2025-10-23,2025-10-21,有限会社山下デンキ,,有限会社,和歌山県,和歌山市,中之島６９７番地,,30,201,6408392,,,2025-10-21,清算の結了等,,,2015-10-05,1,,,,,ヤマシタデンキ,0
1498,6180001068154,登記記録の閉鎖等,0,2025-10-23,2025-10-08,株式会社ライフサポート,,株式会社,愛知県,長久手市,岩作長池２２番地７,,23,238,4801103,,,2025-10-08,清算の結了等,,,2015-10-05,1,,,,,ライフサポート,0
1499,6180001073245,登記記録の閉鎖等,0,2025-10-23,2025-10-06,株式会社ＣＤプランニング,,株式会社,愛知県,名古屋市中区,正木３丁目５番１４号,,23,106,4600024,,,2025-10-06,合併による解散等,9180001036612,令和７年１０月１日名古屋市中区正木三丁目５番１４号ＳＭＣＣグリーンパートナーズ株式会社（9180001036612）に合併し解散,2015-10-05,1,,,,,シーディープランニング,0
1500,6180001078995,登記記録の閉鎖等,0,2025-10-23,2025-10-09,高島興業株式会社,,株式会社,愛知県,瀬戸市,西追分町８１番地,,23,204,4890065,,,2025-10-09,清算の結了等,,,2015-10-05,1,,,,,タカシマコウギョウ,0
1501,6180001094522,登記記録の閉鎖等,0,2025-10-23,2025-10-01,チタジュウライフ株式会社,,株式会社,愛知県,東海市,加木屋町樋６１番地の３,,23,222,4770032,,,2025-10-01,合併による解散等,8180001094512,令和７年１０月１日愛知県東海市加木屋町樋６１番地の３株式会社チタジュウ（8180001094512）に合併し解散,2015-10-05,1,,,,,チタジュウライフ,0
1505,6180001119023,登記記録の閉鎖等,0,2025-10-23,2025-10-22,株式会社ＴＡＭＯＮＴＥＮ．,,株式会社,愛知県,名古屋市名東区,引山２丁目１００６番地,,23,115,4650002,,,2025-10-22,清算の結了等,,,2015-10-05,1,,,,,タモンテン,0
1515,6180002030410,登記記録の閉鎖等,0,2025-10-23,2025-10-08,有限会社上明月,,有限会社,愛知県,名古屋市中区,丸の内３丁目２２番５号,,23,106,4600002,,,2025-10-08,清算の結了等,,,2015-10-05,1,,,,,カミメイゲツ,0
1518,6180302010962,登記記録の閉鎖等,0,2025-10-23,2025-10-14,有限会社大葉園芸山内,,有限会社,愛知県,田原市,江比間町郷中５９番地,,23,231,4413605,,,2025-10-14,清算の結了等,,,2015-10-05,1,,,,,オオバエンゲイヤマウチ,0
1522,6190002006822,登記記録の閉鎖等,0,2025-10-23,2025-10-20,有限会社那古野経営会計センター,,有限会社,三重県,鈴鹿市,庄野共進２丁目２番１号,,24,207,5130833,,,2025-10-20,清算の結了等,,,2015-10-05,1,,,,,ナゴノケイエイカイケイセンター,0
1527,6200003006423,登記記録の閉鎖等,0,2025-10-23,2025-10-17,合同会社Ｅｐｉｃ,,合同会社,岐阜県,各務原市,鵜沼東町２丁目１６１番地エムズエリア１０１号室,,21,213,5090126,,,2025-10-17,清算の結了等,,,2024-07-05,1,,,,,エピック,0
1540,6250002015759,登記記録の閉鎖等,0,2025-10-23,2025-10-20,有限会社スミダ,,有限会社,山口県,下松市,古川町１丁目３番１号,,35,207,7440005,,,2025-10-20,清算の結了等,,,2015-10-05,1,,,,,スミダ,0
1565,6340001001222,登記記録の閉鎖等,0,2025-10-23,2025-10-10,カワイ食品株式会社,,株式会社,鹿児島県,鹿児島市,田上７丁目４番３１号,,46,201,8900034,,,2025-10-10,清算の結了等,,,2015-10-05,1,,,,,,0
1583,6430002054581,登記記録の閉鎖等,0,2025-10-23,2025-10-15,有限会社末永時計店,,有限会社,北海道,小樽市,花園１丁目１０番３号,,01,203,0470024,,,2025-10-15,清算の結了等,,,2015-10-05,1,,,,,スエナガトケイテン,0
1584,6470002000086,登記記録の閉鎖等,0,2025-10-23,2025-10-20,有限会社上北石材店,,有限会社,香川県,高松市,庵治町１２４７番地１,,37,201,7610130,,,2025-10-20,清算の結了等,,,2015-10-05,1,,,,,,0
1586,6470002006711,登記記録の閉鎖等,0,2025-10-23,2025-10-21,有限会社みなと館,,有限会社,香川県,高松市,中野町２８番１８号,,37,201,7600008,,,2025-10-21,清算の結了等,,,2015-10-05,1,,,,,ミナトカン,0
1588,6490002005133,登記記録の閉鎖等,0,2025-10-23,2025-10-20,ムラノ産業有限会社,,有限会社,高知県,高知市,大津甲６０７番地,,39,201,7815102,,,2025-10-20,清算の結了等,,,2015-10-05,1,,,,,ムラノサンギョウ,0
1589,6500001013705,登記記録の閉鎖等,0,2025-10-23,2025-10-22,株式会社いけちゃん農園,,株式会社,愛媛県,新居浜市,庄内町３丁目１１番２４号,,38,205,7920811,,,2025-10-22,清算の結了等,,,2015-10-05,1,,,,,イケチャンノウエン,0
1598,7010003027090,登記記録の閉鎖等,0,2025-10-23,2025-10-03,合同会社Ｆ－ＬＡＢＯ,,合同会社,東京都,中央区,日本橋兜町１７番１号日本橋ロイヤルプラザ７０６,,13,102,1030026,,,2025-10-03,清算の結了等,,,2018-03-07,1,,,,,エフラボ,0
1615,7010405003053,登記記録の閉鎖等,0,2025-10-23,2025-09-19,特定非営利活動法人日本論文教育センターＧｌｏｂｅ,,その他の設立登記法人,東京都,港区,高輪２丁目１６－５２パラシオン高輪１０８,,13,103,1080074,,,2025-09-19,清算の結了等,,,2015-10-05,1,,,,,ニホンロンブンキョウイクセンターグローブ,0
1618,7010501053043,登記記録の閉鎖等,0,2025-10-23,2025-10-10,株式会社晴プロジェクト,,株式会社,東京都,台東区,竜泉１丁目９番１０号,,13,106,1100012,,,2025-10-10,清算の結了等,,,2024-10-22,1,,,,,ハルプロジェクト,0
1621,7010701046763,登記記録の閉鎖等,0,2025-10-23,2025-10-20,福島ウェルネス株式会社,,株式会社,東京都,品川区,大崎２丁目９番３号大崎ウエストシティビル１階,,13,109,1410032,,,2025-10-20,合併による解散等,4380001022860,令和７年９月３０日福島県郡山市堂前町１番２号福島スポーツエンタテインメント株式会社（4380001022860）に合併し解散,2024-11-05,1,,,,,フクシマウェルネス,0
1634,7011101078257,登記記録の閉鎖等,0,2025-10-23,2025-10-20,株式会社ハイファイブ,,株式会社,東京都,新宿区,山吹町２６１トリオタワーサウス１Ｆ,,13,104,1620801,,,2025-10-20,清算の結了等,,,2016-09-21,1,,,,,ハイファイブ,0
1639,7011105004218,登記記録の閉鎖等,0,2025-10-23,2025-10-17,一般社団法人国際フェローシップ・アーツ,,その他の設立登記法人,東京都,中央区,日本橋本町４丁目１２番１１号日本橋中央ビル５０２号室,,13,102,1030023,,,2025-10-17,清算の結了等,,,2015-10-05,1,,,,,コクサイフェローシップアーツ,0
1643,7011603002301,登記記録の閉鎖等,0,2025-10-23,2025-10-14,合同会社カマナリソーシズ,,合同会社,東京都,練馬区,西大泉５丁目３４番３０号,,13,120,1780065,,,2025-10-14,清算の結了等,,,2018-03-29,1,,,,,カマナリソーシズ,0
1652,7012401013812,登記記録の閉鎖等,0,2025-10-23,2025-10-20,株式会社ビオジャパン,,株式会社,東京都,三鷹市,井の頭１丁目２０番３３号,,13,204,1810001,,,2025-10-20,清算の結了等,,,2015-10-05,1,,,,,ビオジャパン,0
1672,7030001112264,登記記録の閉鎖等,0,2025-10-23,2025-10-14,インフィニティメソッドジャパン株式会社,,株式会社,埼玉県,さいたま市南区,白幡４丁目１６番１１号,,11,108,3360022,,,2025-10-14,清算の結了等,,,2016-01-07,1,,,,,インフィニティメソッドジャパン,0
1690,7050002043234,登記記録の閉鎖等,0,2025-10-23,2025-10-14,吉野交通有限会社,00023262,有限会社,茨城県,筑西市,二木成８３３－１,,08,227,3080841,,,2025-10-14,清算の結了等,,,2015-10-05,1,,,,,ヨシノコウツウ,0
1703,7110002031083,登記記録の閉鎖等,0,2025-10-23,2025-10-16,有限会社クリーン栃尾,,有限会社,新潟県,長岡市,新栄町３丁目７番４号,,15,202,9400204,,,2025-10-16,清算の結了等,,,2015-10-05,1,,,,,クリーントチオ,0
1706,7120001051172,登記記録の閉鎖等,0,2025-10-23,2025-10-16,イー・ヱス・シー株式会社,,株式会社,大阪府,高槻市,南平台５丁目２２番１３号,,27,207,5691042,,,2025-10-16,清算の結了等,,,2015-10-05,1,,,,,,0
1708,7120001237556,登記記録の閉鎖等,0,2025-10-23,2025-10-08,株式会社Ａ．Ｉ．Ｆ．,,株式会社,大阪府,大阪市中央区,北久宝寺町４丁目４番７号,,27,128,5410057,,,2025-10-08,清算の結了等,,,2021-05-19,1,A.I.F. COMPANY,Osaka,"4-4-7 Kitakyuhojimachi, Chuo ku Osaka shi",,エイアイエフ,0
1719,7120005008350,登記記録の閉鎖等,0,2025-10-23,2025-10-20,特定非営利活動法人インターナショナル・メンタル・キャタリスト・アソシエーション,,その他の設立登記法人,大阪府,大阪市生野区,小路東６丁目４番１８号,,27,116,5440003,,,2025-10-20,清算の結了等,,,2015-10-05,1,,,,,インターナショナルメンタルキャタリストアソシエーション,0
1745,7160001017145,登記記録の閉鎖等,0,2025-10-23,2025-10-01,アイエスライン株式会社,,株式会社,大阪府,高槻市,梶原中村町７番１号,,27,207,5690092,,,2025-10-01,合併による解散等,5120901010320,令和７年１０月１日大阪府高槻市梶原中村町５番１号株式会社アイシン（5120901010320）に合併し解散,2015-10-05,1,,,,,アイエスライン,0
1749,7180001012771,登記記録の閉鎖等,0,2025-10-23,2025-10-10,株式会社ツカサ自動車,,株式会社,愛知県,名古屋市北区,六が池町６００番地,,23,103,4620002,,,2025-10-10,清算の結了等,,,2015-10-05,1,,,,,ツカサジドウシャ,0
1759,7180002007168,登記記録の閉鎖等,0,2025-10-23,2025-10-09,有限会社御子工作所,,有限会社,愛知県,名古屋市港区,当知町７丁目１３番地,,23,111,4550805,,,2025-10-09,清算の結了等,,,2015-10-05,1,,,,,オココウサクショ,0
1762,7180003013652,登記記録の閉鎖等,0,2025-10-23,2025-10-08,合資会社仲男商店,,合資会社,愛知県,弥富市,鯏浦町中六１８７番地,,23,235,4980028,,,2025-10-08,清算の結了等,,,2015-10-05,1,,,,,ナカオショウテン,0
1783,7290001033344,登記記録の閉鎖等,0,2025-10-23,2025-09-24,株式会社アダージョコーポレーション,,株式会社,福岡県,糸島市,泊６４７番地２,,40,230,8191111,,,2025-09-24,清算の結了等,,,2015-10-05,1,,,,,アダージョコーポレーション,0
1793,7330001024388,登記記録の閉鎖等,0,2025-10-23,2025-10-14,株式会社京,,株式会社,熊本県,八代市,田中西町１３号１２番地１,,43,202,8660876,,,2025-10-14,清算の結了等,,,2017-08-15,1,,,,,ケイ,0
1803,7370001049737,登記記録の閉鎖等,0,2025-10-23,2025-10-07,Ｌｉｖｉｎｇ　Ｐａｒｔｎｅｒｓ株式会社,,株式会社,宮城県,仙台市太白区,八木山本町１丁目２４番地の２３シャーメゾン八木山１０３,,04,104,9820801,,,2025-10-07,清算の結了等,,,2023-03-22,1,,,,,リビングパートナーズ,0
1804,7370002005838,登記記録の閉鎖等,0,2025-10-23,2025-10-08,有限会社光ナショナルワークス,,有限会社,宮城県,仙台市宮城野区,岩切字羽黒前２４番地の１,,04,102,9830821,,,2025-10-08,清算の結了等,,,2015-10-05,1,,,,,ヒカリナショナルワークス,0
1811,7410001007533,登記記録の閉鎖等,0,2025-10-23,2025-10-21,株式会社誠邦,,株式会社,秋田県,能代市,能代町字中川原２６番地９０５,,05,202,0160814,,,2025-10-21,清算の結了等,,,2015-10-05,1,,,,,セイホウ,0
1842,8010001094818,登記記録の閉鎖等,0,2025-10-23,2025-10-07,株式会社コーディアルジャパン,,株式会社,東京都,中央区,新富１丁目１５番１４号,,13,102,1040041,,,2025-10-07,清算の結了等,,,2015-10-05,1,,,,,コーディアルジャパン,0
1888,8011201002702,登記記録の閉鎖等,0,2025-10-23,2025-10-20,株式会社ベルアート,,株式会社,東京都,杉並区,方南２丁目１８番４号,,13,115,1680062,,,2025-10-20,清算の結了等,,,2015-10-05,1,,,,,,0
1890,8011303005099,登記記録の閉鎖等,0,2025-10-23,2025-10-17,合同会社Ｇｅｎｕｉｎｅ　ｍｉｎｄ,,合同会社,東京都,杉並区,高井戸東３丁目２８番３５号ヴォーガコルテ高井戸４０２,,13,115,1680072,,,2025-10-17,清算の結了等,,,2024-03-22,1,,,,,ジェヌインマインド,0
1901,8012401003218,登記記録の閉鎖等,0,2025-10-23,2025-10-10,富設備工業株式会社,,株式会社,東京都,小金井市,緑町５丁目１７番２１号,,13,210,1840003,,,2025-10-10,清算の結了等,,,2015-10-05,1,,,,,トミセツビコウギョウ,0
1903,8012401038057,登記記録の閉鎖等,0,2025-10-23,2025-10-14,株式会社えんぢ,,株式会社,東京都,武蔵野市,関前２丁目１０番２１号,,13,203,1800014,,,2025-10-14,清算の結了等,,,2021-07-06,1,,,,,エンヂ,0
1957,8070001017723,登記記録の閉鎖等,0,2025-10-23,2025-10-17,ジャパントレイディング株式会社,,株式会社,群馬県,高崎市,上佐野町４９７番地１１サンクタス高崎ドリームコート７１７号,,10,202,3700857,,,2025-10-17,清算の結了等,,,2015-10-05,1,,,,,ジャパントレイディング,0
1959,8070002017524,登記記録の閉鎖等,0,2025-10-23,2025-10-17,有限会社関口製作所,,有限会社,群馬県,藤岡市,上戸塚３３９番地,,10,209,3750013,,,2025-10-17,清算の結了等,,,2015-10-05,1,,,,,セキグチセイサクショ,0
1967,8110001018700,登記記録の閉鎖等,0,2025-10-23,2025-10-16,新潟ペイント工業株式会社,,株式会社,新潟県,新潟市中央区,親松２６番地,,15,103,9500952,,,2025-10-16,清算の結了等,,,2015-10-05,1,,,,,ニイガタペイントコウギョウ,0
1969,8110003001118,登記記録の閉鎖等,0,2025-10-23,2025-10-15,合同会社高徳,,合同会社,新潟県,柏崎市,西本町３丁目１０番１３号,,15,205,9450066,,,2025-10-15,清算の結了等,,,2015-10-05,1,,,,,タカトク,0
1970,8110005007550,登記記録の閉鎖等,0,2025-10-23,2025-10-17,醫王院,,その他の設立登記法人,新潟県,村上市,小岩内３３６番地,,15,212,9593434,,,2025-10-17,清算の結了等,,,2015-10-05,1,,,,,イオウイン,0
1979,8120001253503,登記記録の閉鎖等,0,2025-10-23,2025-10-16,株式会社Ｍｓ．Ｄｕ,,株式会社,大阪府,大阪市城東区,蒲生３丁目１５番１２号セザンヌ藤３０３Ａ,,27,118,5360016,,,2025-10-16,清算の結了等,,,2023-04-03,1,,,,,エムエスドットドゥー,0
1994,8120901031909,登記記録の閉鎖等,0,2025-10-23,2025-10-08,株式会社菅野,,株式会社,大阪府,豊中市,千成町２丁目７番１４号,,27,203,5610829,,,2025-10-08,清算の結了等,,,2015-10-05,1,,,,,スガノ,0
1995,8120901045702,登記記録の閉鎖等,0,2025-10-23,2025-10-16,株式会社ＦＳＣ,,株式会社,大阪府,茨木市,双葉町９番２１号コスモビル４階,,27,211,5670829,,,2025-10-16,清算の結了等,,,2022-03-07,1,,,,,エフエスシー,0
2002,8122001039436,登記記録の閉鎖等,0,2025-10-23,2025-10-01,株式会社ＡＣ,,株式会社,大阪府,大東市,中垣内５丁目６番１０号,,27,218,5740013,,,2025-10-01,合併による解散等,1122001026374,令和７年１０月１日大阪府大東市中垣内五丁目６番１０号株式会社エースケータリング（1122001026374）に合併し解散,2025-07-31,1,,,,,エーシー,0
2013,8140002009836,登記記録の閉鎖等,0,2025-10-23,2025-10-15,機械工事ミナミ有限会社,,有限会社,兵庫県,神戸市北区,八多町柳谷１２２４番地,,28,109,6511342,,,2025-10-15,清算の結了等,,,2015-10-05,1,,,,,キカイコウジミナミ,0
2017,8180001027851,登記記録の閉鎖等,0,2025-10-23,2025-10-08,エイコ株式会社,,株式会社,愛知県,名古屋市緑区,鳴海町字宿地２５番地,,23,114,4580801,,,2025-10-08,清算の結了等,,,2015-10-05,1,,,,,エイコ,0
2025,8180002070900,登記記録の閉鎖等,0,2025-10-23,2025-10-08,有限会社今村工業,,有限会社,愛知県,春日井市,中央通２丁目１０５番地１,,23,206,4860825,,,2025-10-08,清算の結了等,,,2015-10-05,1,,,,,イマムラコウギョウ,0
2026,8180002074926,登記記録の閉鎖等,0,2025-10-23,2025-10-09,佐伯電気工事有限会社,,有限会社,愛知県,丹羽郡扶桑町,大字高雄字東寺子１７１番地,,23,362,4800102,,,2025-10-09,清算の結了等,,,2015-10-05,1,,,,,サエキデンキコウジ,0
2031,8180302010639,登記記録の閉鎖等,0,2025-10-23,2025-10-14,有限会社渥美水建,,有限会社,愛知県,田原市,野田町仲瀬古４７番地,,23,231,4413432,,,2025-10-14,清算の結了等,,,2015-10-05,1,,,,,アツミスイケン,0
2045,8250002010683,登記記録の閉鎖等,0,2025-10-23,2025-10-20,有限会社ＹＨＲ,,有限会社,山口県,下関市,椋野町３丁目８－２４Ｃ－１Ｆ,,35,201,7510816,,,2025-10-20,清算の結了等,,,2015-10-05,1,,,,,ワイエイチアール,0
2049,8280001006085,登記記録の閉鎖等,0,2025-10-23,2025-10-20,株式会社フィリア,,株式会社,島根県,出雲市,灘分町５３２番地１,,32,203,6910003,,,2025-10-20,清算の結了等,,,2015-10-05,1,,,,,フィリア,0
2059,8290002049074,登記記録の閉鎖等,0,2025-10-23,2025-09-26,有限会社三星ボデー用品商会,,有限会社,福岡県,久留米市,天神町３５番地３,,40,203,8300033,,,2025-09-26,清算の結了等,,,2015-10-05,1,,,,,ミツボシボデーヨウヒンショウカイ,0
2088,8430001037585,登記記録の閉鎖等,0,2025-10-23,2025-10-01,株式会社爽健ラボラトリー,,株式会社,北海道,札幌市手稲区,星置一条３丁目２番２号,,01,109,0060851,,,2025-10-01,合併による解散等,4430001007393,令和７年１０月１日札幌市北区北九条西四丁目７番４号株式会社シスコム（4430001007393）に合併し解散,2015-10-05,1,,,,,ソウケンラボラトリー,0
2097,8480001008128,登記記録の閉鎖等,0,2025-10-23,2025-10-22,株式会社ハユマ企画,,株式会社,徳島県,阿波市,市場町山野上字大西１８１番地１,,36,206,7711624,,,2025-10-22,清算の結了等,,,2015-10-05,1,,,,,ハユマキカク,0
2108,9010001113907,登記記録の閉鎖等,0,2025-10-23,2025-10-02,株式会社コミュニケーション・ウェブシステムズ,,株式会社,東京都,文京区,本郷１丁目３０番１３号パークヒルズ本郷４０１号室,,13,105,1130033,,,2025-10-02,清算の結了等,,,2015-10-05,1,,,,,コミュニケーションウェブシステムズ,0
2117,9010003047855,登記記録の閉鎖等,0,2025-10-23,2025-10-20,ＦＥソーラーＫ号合同会社,,合同会社,東京都,千代田区,紀尾井町４番１号ニューオータニガーデンコート１９階フィンポート税理士法人内,,13,101,1020094,,,2025-10-20,合併による解散等,9410001009833,令和７年１０月１５日秋田市新屋扇町７番４１号ＥＮＥＲＧＹ・ＩＮＮＯＶＡＴＩＯＮ株式会社（9410001009833）に合併し解散,2025-06-30,1,,,,,エフイーソーラーケイゴウ,0
2147,9010802019022,登記記録の閉鎖等,0,2025-10-23,2025-10-15,有限会社イエミツ,,有限会社,東京都,大田区,大森北３丁目１３番１１号宮坂ビル１階,,13,111,1430016,,,2025-10-15,清算の結了等,,,2015-10-05,1,,,,,イエミツ,0
2150,9011001147473,登記記録の閉鎖等,0,2025-10-23,2025-09-22,ＣＬＳＰアルツ株式会社,,株式会社,東京都,目黒区,碑文谷２丁目１３－１３グランシャトレ碑文谷４０２,,13,110,1520003,,,2025-09-22,清算の結了等,,,2022-05-23,1,,,,,シーエルエスピーアルツ,0
2153,9011101062647,登記記録の閉鎖等,0,2025-10-23,2025-10-20,株式会社エヌ・ジェイ・ピー,,株式会社,東京都,新宿区,中落合１丁目１１番８号グリーンハイム３０１号,,13,104,1610032,,,2025-10-20,清算の結了等,,,2015-10-05,1,,,,,エヌジェイピー,0
2154,9011101077819,登記記録の閉鎖等,0,2025-10-23,2025-09-18,ＷＩＮ株式会社,,株式会社,東京都,中央区,東日本橋２丁目１６－４,,13,102,1030004,,,2025-09-18,清算の結了等,,,2016-08-01,1,,,,,ウィン,0
2155,9011101084732,登記記録の閉鎖等,0,2025-10-23,2025-10-08,株式会社ＸＧジャパン,,株式会社,東京都,豊島区,北大塚２丁目１７番４号大塚キャリアビル５階,,13,116,1700004,,,2025-10-08,清算の結了等,,,2018-07-12,1,,,,,エックスジージャパン,0
2161,9011301019496,登記記録の閉鎖等,0,2025-10-23,2025-10-20,株式会社スタディカンパニー,,株式会社,東京都,新宿区,改代町３６番地３,,13,104,1620802,,,2025-10-20,清算の結了等,,,2015-10-05,1,,,,,スタディカンパニー,0
2166,9011501014388,登記記録の閉鎖等,0,2025-10-23,2025-10-15,松田トラストアンドインベストメント株式会社,,株式会社,東京都,大田区,大森本町１丁目８番２１号３階,,13,111,1430011,,,2025-10-15,清算の結了等,,,2015-10-05,1,,,,,マツダトラストアンドインベストメント,0
2172,9011701015979,登記記録の閉鎖等,0,2025-10-23,2025-10-14,プロリンク・ジャパン株式会社,,株式会社,東京都,江戸川区,大杉３丁目２４番５号,,13,123,1320022,,,2025-10-14,清算の結了等,,,2015-10-05,1,,,,,プロリンクジャパン,0
2177,9012401043205,登記記録の閉鎖等,0,2025-10-23,2025-10-10,株式会社ケンセキ,,株式会社,東京都,三鷹市,下連雀８丁目２－１３ＹＭ三鷹２０１,,13,204,1810013,,,2025-10-10,清算の結了等,,,2025-06-04,1,,,,,ケンセキ,0
2183,9020001137252,登記記録の閉鎖等,0,2025-10-23,2025-10-09,株式会社スリーウェイ,,株式会社,神奈川県,横浜市都筑区,荏田東４丁目３０番１１号,,14,118,2240006,,,2025-10-09,清算の結了等,,,2020-08-12,1,,,,,スリーウェイ,0
2188,9021001035982,登記記録の閉鎖等,0,2025-10-23,2025-10-01,ＪＥＣインターナショナル株式会社,,株式会社,神奈川県,大和市,下和田９００番地１２,,14,213,2420015,,,2025-10-01,合併による解散等,6021001028519,令和７年１０月１日神奈川県大和市下和田９００番地１２日本エートス株式会社（6021001028519）に合併し解散,2015-10-05,1,,,,,ジェックインターナショナル,0
2190,9021002008269,登記記録の閉鎖等,0,2025-10-23,2025-10-03,有限会社ハーヴィストカンパニー,,有限会社,神奈川県,藤沢市,辻堂東海岸３丁目９番７号,,14,205,2510045,,,2025-10-03,清算の結了等,,,2015-10-05,1,,,,,ハーヴィストカンパニー,0
2200,9030002057548,登記記録の閉鎖等,0,2025-10-23,2025-10-15,有限会社吉澤マネジメント事務所,,有限会社,埼玉県,上尾市,弁財１丁目９番１４号,,11,219,3620076,,,2025-10-15,清算の結了等,,,2015-10-05,1,,,,,ヨシザワマネジメントジムショ,0
2204,9030003002445,登記記録の閉鎖等,0,2025-10-23,2025-10-15,合資会社ＢＥＬＬＥムラカミ,,合資会社,埼玉県,新座市,野寺２丁目６番１５号,,11,230,3520034,,,2025-10-15,清算の結了等,,,2015-10-05,1,,,,,ベルムラカミ,0
2224,9060002018605,登記記録の閉鎖等,0,2025-10-23,2025-10-21,有限会社酒清商店,,有限会社,栃木県,芳賀郡芳賀町,大字祖母井３８３番地,,09,345,3213304,,,2025-10-21,清算の結了等,,,2015-10-05,1,,,,,サカセイショウテン,0
2225,9070001035542,登記記録の閉鎖等,0,2025-10-23,2025-10-08,ＢＫＫＩホールディングス株式会社,,株式会社,群馬県,太田市,六千石町５番地１,,10,205,3792305,,,2025-10-08,合併による解散等,7070001028556,令和７年１０月１日群馬県太田市六千石町５番地１ＢＪホールディング株式会社（7070001028556）に合併し解散,2019-03-13,1,,,,,ビーケーケーアイホールディングス,0
2227,9070002028074,登記記録の閉鎖等,0,2025-10-23,2025-10-20,有限会社石村鉄工,,有限会社,群馬県,太田市,東新町８７０番地１,,10,205,3730015,,,2025-10-20,清算の結了等,,,2015-10-05,1,,,,,イシムラテッコウ,0
2229,9080401021785,登記記録の閉鎖等,0,2025-10-23,2025-10-15,株式会社さくらクラフト,,株式会社,静岡県,浜松市浜名区,染地台３丁目３２番３６号グランディールＤ２０２号室,,22,139,4340046,,,2025-10-15,清算の結了等,,,2016-10-17,1,,,,,サクラクラフト,0
2235,9110003005596,登記記録の閉鎖等,0,2025-10-23,2025-09-24,ＬＥＯＮ合同会社,,合同会社,新潟県,新潟市秋葉区,小須戸３４９１番地,,15,105,9560101,,,2025-09-24,清算の結了等,,,2024-12-05,1,,,,,レオン,0
2256,9122001038494,登記記録の閉鎖等,0,2025-10-23,2025-10-17,株式会社ＣＦＳＣ,,株式会社,大阪府,柏原市,河原町３番３４号,,27,221,5820004,,,2025-10-17,合併による解散等,6190001009009,令和７年１０月１日三重県伊賀市大野木２１１２番地の２８株式会社愛安住（6190001009009）に合併し解散,2024-10-11,1,,,,,シーエフエスシー,0
2261,9140001119610,登記記録の閉鎖等,0,2025-10-23,2025-10-16,株式会社ｏｆｆｉｃｅｋｅｉ,,株式会社,兵庫県,豊岡市,出石町内町１０７番地の１,,28,209,6680214,,,2025-10-16,清算の結了等,,,2020-12-04,1,,,,,オフィスケイ,0
2270,9180001032297,登記記録の閉鎖等,0,2025-10-23,2025-10-07,株式会社花秀本店,,株式会社,愛知県,名古屋市中村区,名楽町１丁目３６番地,,23,105,4530024,,,2025-10-07,清算の結了等,,,2015-10-05,1,,,,,ハナヒデホンテン,0
2280,9180002072656,登記記録の閉鎖等,0,2025-10-23,2025-10-07,有限会社喜月社,,有限会社,愛知県,尾張旭市,東栄町２丁目８番地の７,,23,226,4880011,,,2025-10-07,清算の結了等,,,2015-10-05,1,,,,,キゲツシャ,0
2294,9240005005656,登記記録の閉鎖等,0,2025-10-23,2025-10-07,特定非営利活動法人子育て応援隊かんがるー,,その他の設立登記法人,広島県,安芸高田市,吉田町吉田１９７０番地,,34,214,7310501,,,2025-10-07,清算の結了等,,,2015-10-05,1,,,,,コソダテオウエンタイカンガルー,0
2296,9260001001863,登記記録の閉鎖等,0,2025-10-23,2025-10-14,カバヤメンテナンスサービス株式会社,,株式会社,岡山県,岡山市北区,御津野々口１１００番地,,33,101,7092117,,,2025-10-14,合併による解散等,1260001001862,令和７年１０月１日東京都千代田区紀尾井町３番１２号バーチューアンドエクセレンスインベストメント株式会社（1260001001862）に合併し解散,2015-10-05,1,,,,,カバヤメンテナンスサービス,0
2297,9260001034657,登記記録の閉鎖等,0,2025-10-23,2025-10-14,ライトベリー株式会社,,株式会社,岡山県,津山市,河辺１１５５番地５,,33,203,7080842,,,2025-10-14,清算の結了等,,,2020-08-24,1,,,,,ライトベリー,0
2302,9290001017048,登記記録の閉鎖等,0,2025-10-23,2025-09-26,株式会社モーターブロック,,株式会社,福岡県,糟屋郡志免町,桜丘３丁目１番５号,,40,343,8112201,,,2025-09-26,清算の結了等,,,2015-10-05,1,,,,,モーターブロック,0
2307,9290001094054,登記記録の閉鎖等,0,2025-10-23,2025-09-22,センタールート株式会社,,株式会社,福岡県,福岡市中央区,渡辺通３丁目１１番１０号Ｗ３ビル１０２,,40,133,8100004,,,2025-09-22,清算の結了等,,,2021-07-30,1,,,,,センタールート,0
2320,9340001006103,登記記録の閉鎖等,0,2025-10-23,2025-10-10,株式会社スリーエスビジネスパートナーズ,,株式会社,鹿児島県,鹿児島市,松原町１２番１２－１２０１号,,46,201,8920833,,,2025-10-10,清算の結了等,,,2015-10-05,1,,,,,スリーエスビジネスパートナーズ,0
2330,9370005010610,登記記録の閉鎖等,0,2025-10-23,2025-09-24,特定非営利活動法人ちびぞうくらぶ,,その他の設立登記法人,宮城県,岩沼市,里の杜３丁目２０番３８号,,04,211,9892427,,,2025-09-24,清算の結了等,,,2023-03-31,1,,,,,チビゾウクラブ,0
2333,9370605000102,登記記録の閉鎖等,0,2025-10-23,2025-10-03,塩釜塩干魚食品協同組合,,その他の設立登記法人,宮城県,塩竈市,新浜町１丁目２０番５５号,,04,203,9850001,,,2025-10-03,清算の結了等,,,2015-10-05,1,,,,,シオガマエンカンギョショクヒン,0
2337,9420002019319,登記記録の閉鎖等,0,2025-10-23,2025-10-07,有限会社スーバニア．ハウス,,有限会社,青森県,下北郡佐井村,大字佐井字大佐井１１２番地,,02,426,0394711,,,2025-10-07,清算の結了等,,,2015-10-05,1,,,,,スーバニアハウス,0
