sequenceNumber,corporateNumber,process,correct,updateDate,changeDate,name,nameImageId,kind,prefectureName,cityName,streetNumber,addressImageId,prefectureCode,cityCode,postCode,addressOutside,addressOutsideImageId,closeDate,closeCause,successorCorporateNumber,changeCause,assignmentDate,latest,enName,enPrefectureName,enCityName,enAddressOutside,furigana,hihyoji
4,1010001114284,登記記録の閉鎖等,0,2026-02-19,2026-02-05,株式会社プラス・ワイ,,株式会社,東京都,文京区,本郷２丁目１３番１３号本郷七番館８０２号,,13,105,1130033,,,2026-02-05,清算の結了等,,,2015-10-05,1,,,,,プラスワイ,0
8,1010001234074,登記記録の閉鎖等,0,2026-02-19,2026-02-12,株式会社松川工業,,株式会社,神奈川県,横浜市西区,南浅間町３３番地７－６０１号,,14,103,2200074,,,2026-02-12,清算の結了等,,,2023-03-31,1,,,,,マツカワコウギョウ,0
9,1010001238208,登記記録の閉鎖等,0,2026-02-19,2026-02-02,ＫＣＭ株式会社,,株式会社,東京都,千代田区,霞が関３丁目２番１号,,13,101,1000013,,,2026-02-02,清算の結了等,,,2023-09-06,1,,,,,ケーシーエム,0
14,1010003026412,登記記録の閉鎖等,0,2026-02-19,2026-01-28,合同会社Ｆｏｒｔｕｎａ,,合同会社,東京都,港区,六本木５丁目１６－５インペリアル六本木１号館１００８,,13,103,1060032,,,2026-01-28,清算の結了等,,,2017-11-13,1,,,,,フォルトゥーナ,0
15,1010003037343,登記記録の閉鎖等,0,2026-02-19,2026-02-02,合同会社ＡＬＥＲＯ６６,,合同会社,東京都,千代田区,神田錦町１丁目２１番１号,,13,101,1010054,,,2026-02-02,清算の結了等,,,2022-03-28,1,,,,,アレーロシックスティーシックス,0
47,1010403033099,登記記録の閉鎖等,0,2026-02-19,2026-01-28,合同会社トレック・プルート,,合同会社,東京都,港区,赤坂７丁目６番１５号,,13,103,1070052,,,2026-01-28,清算の結了等,,,2024-07-24,1,,,,,トレックプルート,0
53,1010603008751,登記記録の閉鎖等,0,2026-02-19,2026-02-17,合同会社エムズアセット,,合同会社,東京都,墨田区,立花６丁目２１番２号,,13,107,1310043,,,2026-02-17,清算の結了等,,,2021-02-03,1,,,,,エムズアセット,0
107,1030003000836,登記記録の閉鎖等,0,2026-02-19,2026-02-12,合同会社のら,,合同会社,埼玉県,さいたま市南区,鹿手袋７丁目３番２号,,11,108,3360031,,,2026-02-12,清算の結了等,,,2015-10-05,1,,,,,ノラ,0
114,1040001100967,登記記録の閉鎖等,0,2026-02-19,2026-01-27,株式会社コルディアル,,株式会社,千葉県,印旛郡酒々井町,尾上７７番地３,,12,322,2850911,,,2026-01-27,清算の結了等,,,2017-07-13,1,,,,,コルディアル,0
118,1040002006040,登記記録の閉鎖等,0,2026-02-19,2026-01-26,有限会社寿々喜屋,00019697,有限会社,千葉県,千葉市中央区,仁戸名町５３２番地の１,,12,101,2600801,,,2026-01-26,清算の結了等,,,2015-10-05,1,,,,,スズキヤ,0
128,1070005003379,登記記録の閉鎖等,0,2026-02-19,2026-02-16,特定非営利活動法人Ｄｅｓｉｇｎ　Ｎｅｔ－ｗｏｒｋｓ　Ａｓｓｏｃｉａｔｉｏｎ,,その他の設立登記法人,群馬県,安中市,板鼻２丁目４番３４号,,10,211,3790111,,,2026-02-16,清算の結了等,,,2015-10-05,1,,,,,デザインネットワークスアソシエイション,0
138,1110003002139,登記記録の閉鎖等,0,2026-02-19,2026-02-13,合資会社山岸織物,,合資会社,新潟県,小千谷市,土川１丁目１６番１９号,,15,208,9470031,,,2026-02-13,清算の結了等,,,2015-10-05,1,,,,,ヤマギシオリモノ,0
142,1120001007915,登記記録の閉鎖等,0,2026-02-19,2026-02-17,大興金属工業株式会社,,株式会社,大阪府,大阪市都島区,大東町３丁目７番４５号,,27,102,5340002,,,2026-02-17,清算の結了等,,,2015-10-05,1,,,,,ダイコウキンゾクコウギョウ,0
143,1120001023912,登記記録の閉鎖等,0,2026-02-19,2026-02-17,ＳＤ企画株式会社,,株式会社,大阪府,大阪市東住吉区,杭全１丁目１５番１８号,,27,121,5460002,,,2026-02-17,清算の結了等,,,2015-10-05,1,,,,,エスディーキカク,0
166,1120901027104,登記記録の閉鎖等,0,2026-02-19,2026-02-16,株式会社平城園,,株式会社,大阪府,豊中市,曽根東町５丁目５番３号,,27,203,5610802,,,2026-02-16,清算の結了等,,,2015-10-05,1,,,,,ヘイジョウエン,0
173,1140001090637,登記記録の閉鎖等,0,2026-02-19,2026-02-16,株式会社ｔｏｏ,,株式会社,兵庫県,尼崎市,西立花町４丁目１２－５,,28,202,6600054,,,2026-02-16,清算の結了等,,,2015-10-05,1,,,,,トゥー,0
178,1140002012417,登記記録の閉鎖等,0,2026-02-19,2026-02-16,株式会社ゆうわプランニング,,株式会社,兵庫県,神戸市兵庫区,東山町４丁目１３番地,,28,105,6520042,,,2026-02-16,清算の結了等,,,2015-10-05,1,,,,,ユウワプランニング,0
186,1180001003099,登記記録の閉鎖等,0,2026-02-19,2026-02-12,八雲設備工業株式会社,,株式会社,愛知県,名古屋市名東区,香流２丁目１１１２番地,,23,115,4650005,,,2026-02-12,清算の結了等,,,2015-10-05,1,,,,,ヤグモセツビコウギョウ,0
202,1190002001299,登記記録の閉鎖等,0,2026-02-19,2026-02-17,有限会社平井酒店,,有限会社,三重県,津市,八町３丁目１０番２２号,,24,201,5140041,,,2026-02-17,清算の結了等,,,2015-10-05,1,,,,,ヒライサケテン,0
209,1230001001790,登記記録の閉鎖等,0,2026-02-19,2026-02-16,株式会社テムコ,,株式会社,富山県,富山市,西宮１番８,,16,201,9318345,,,2026-02-16,清算の結了等,,,2015-10-05,1,,,,,テムコ,0
233,1310001000710,登記記録の閉鎖等,0,2026-02-19,2026-02-18,三和化工薬品株式会社,,株式会社,長崎県,長崎市,栄町４番１３号,,42,201,8500875,,,2026-02-18,清算の結了等,,,2015-10-05,1,,,,,サンワカコウヤクヒン,0
239,1340002022767,登記記録の閉鎖等,0,2026-02-19,2026-02-12,有限会社八郷金物店,,有限会社,鹿児島県,阿久根市,脇本７８７４番地１,,46,206,8991131,,,2026-02-12,清算の結了等,,,2015-10-05,1,,,,,ハチゴウカナモノテン,0
249,1500001015350,登記記録の閉鎖等,0,2026-02-19,2026-02-18,尾崎食品株式会社,,株式会社,愛媛県,宇和島市,高串１番耕地７１０番地,,38,203,7980020,,,2026-02-18,清算の結了等,,,2015-10-05,1,,,,,,0
303,2010601015030,登記記録の閉鎖等,0,2026-02-19,2026-02-12,株式会社ビッグランド,,株式会社,東京都,墨田区,両国２丁目３番１６号,,13,107,1300026,,,2026-02-12,清算の結了等,,,2015-10-05,1,,,,,ビッグランド,0
308,2010801029251,登記記録の閉鎖等,0,2026-02-19,2026-02-17,株式会社ＪＣＣ,,株式会社,茨城県,下妻市,黒駒１０４１番地６,,08,210,3040007,,,2026-02-17,清算の結了等,,,2018-10-16,1,,,,,ジェイシーシー,0
310,2010901041313,登記記録の閉鎖等,0,2026-02-19,2026-02-03,株式会社丸壱動画,,株式会社,東京都,中央区,日本橋本町４丁目１１番５号,,13,102,1030023,,,2026-02-03,合併による解散等,2010001095854,令和８年１月１日東京都中央区日本橋本町四丁目１１番５号株式会社ゼロワン（2010001095854）に合併し解散,2017-12-21,1,,,,,マルイチドウガ,0
331,2013301018419,登記記録の閉鎖等,0,2026-02-19,2026-02-03,株式会社サンルート,,株式会社,神奈川県,横浜市西区,北幸２丁目９番１４号,,14,103,2200004,,,2026-02-03,合併による解散等,6020001122389,令和８年２月１日横浜市西区北幸二丁目９番１４号株式会社相鉄ホテルマネジメント（6020001122389）に合併し解散,2015-10-05,1,,,,,サンルート,0
355,2040005005872,登記記録の閉鎖等,0,2026-02-19,2026-02-12,一般社団法人地盤総合管理センター,,その他の設立登記法人,埼玉県,戸田市,笹目５丁目１１番１７号ディオプラザ３３（４０１号室）,,11,224,3350034,,,2026-02-12,清算の結了等,,,2015-10-05,1,,,,,ジバンソウゴウカンリセンター,0
361,2080001013504,登記記録の閉鎖等,0,2026-02-19,2026-02-16,株式会社友田組,,株式会社,静岡県,榛原郡川根本町,久野脇６５５番地の６６,,22,429,4280315,,,2026-02-16,清算の結了等,,,2015-10-05,1,,,,,トモダグミ,0
367,2110001007196,登記記録の閉鎖等,0,2026-02-19,2026-02-12,大幸食品株式会社,,株式会社,新潟県,新潟市秋葉区,結２２２番地,,15,105,9560803,,,2026-02-12,清算の結了等,,,2015-10-05,1,,,,,タイコウショクヒン,0
371,2110002010868,登記記録の閉鎖等,0,2026-02-19,2026-02-17,有限会社宮尾電気,,有限会社,新潟県,新潟市北区,須戸４丁目６番２５号,,15,101,9503373,,,2026-02-17,清算の結了等,,,2015-10-05,1,,,,,ミヤオデンキ,0
373,2120001125492,登記記録の閉鎖等,0,2026-02-19,2026-02-16,株式会社免震基礎鉄筋,,株式会社,大阪府,大阪市東住吉区,中野４丁目６番６号,,27,121,5460012,,,2026-02-16,清算の結了等,,,2015-10-05,1,,,,,メンシンキソテッキン,0
388,2120002078450,登記記録の閉鎖等,0,2026-02-19,2026-02-17,有限会社小信商会,,有限会社,大阪府,守口市,南寺方北通２丁目２３番３号,,27,209,5700046,,,2026-02-17,清算の結了等,,,2015-10-05,1,,,,,,0
390,2120003020386,登記記録の閉鎖等,0,2026-02-19,2026-02-16,合同会社ＲＡＭＴＩＴＯ,,合同会社,大阪府,大阪市此花区,朝日２丁目１８番８号３Ｆ－６１６,,27,104,5540011,,,2026-02-16,清算の結了等,,,2021-10-12,1,,,,,ラムティト,0
407,2140002062691,登記記録の閉鎖等,0,2026-02-19,2026-02-16,有限会社魚商人うを弘,,有限会社,兵庫県,小野市,東本町３８２番地の３,,28,218,6751373,,,2026-02-16,清算の結了等,,,2015-10-05,1,,,,,,0
409,2140003008520,登記記録の閉鎖等,0,2026-02-19,2026-02-13,合名会社淡路島,,合名会社,兵庫県,淡路市,室津１９０１番地,,28,226,6561606,,,2026-02-13,清算の結了等,,,2015-10-05,1,,,,,アワジシマ,0
424,2180302027960,登記記録の閉鎖等,0,2026-02-19,2026-02-05,有限会社ヒロハタ精工,,有限会社,愛知県,新城市,作手白鳥字広畑４番地の３,,23,221,4411413,,,2026-02-05,清算の結了等,,,2015-10-05,1,,,,,ヒロハタセイコウ,0
434,2230001020022,登記記録の閉鎖等,0,2026-02-19,2026-02-16,株式会社夕立,,株式会社,富山県,氷見市,柳田８８６番地１サニーレジデンスＩ．１０３号,00132005,16,205,9350031,,,2026-02-16,清算の結了等,,,2023-09-22,1,,,,,ユウダチ,0
437,2240002037007,登記記録の閉鎖等,0,2026-02-19,2026-02-16,有限会社ヤスイ,,有限会社,広島県,廿日市市,大野４２７６番地１,,34,213,7390488,,,2026-02-16,清算の結了等,,,2015-10-05,1,,,,,,0
444,2280002006049,登記記録の閉鎖等,0,2026-02-19,2026-02-16,宮本技建有限会社,,有限会社,島根県,出雲市,上塩冶町２７７１番地,,32,203,6930022,,,2026-02-16,清算の結了等,,,2015-10-05,1,,,,,ミヤモトギケン,0
472,2370002008275,登記記録の閉鎖等,0,2026-02-19,2026-02-13,有限会社中島屋,,有限会社,宮城県,仙台市宮城野区,東仙台５丁目２２番１２号,,04,102,9830833,,,2026-02-13,清算の結了等,,,2015-10-05,1,,,,,ナカジマヤ,0
478,2420002017403,登記記録の閉鎖等,0,2026-02-19,2026-01-29,有限会社アゼリア,,有限会社,青森県,三沢市,深谷１丁目１９７番地,,02,207,0330152,,,2026-01-29,清算の結了等,,,2015-10-05,1,,,,,アゼリア,0
573,3013301022758,登記記録の閉鎖等,0,2026-02-19,2026-02-13,株式会社シーベルエスイー,,株式会社,東京都,豊島区,池袋本町４丁目４５番４号,,13,116,1700011,,,2026-02-13,清算の結了等,,,2015-10-05,1,,,,,シーベルエスイー,0
600,3030002076990,登記記録の閉鎖等,0,2026-02-19,2026-02-10,有限会社草野工業,,有限会社,埼玉県,ふじみ野市,福岡９０１番地の１７,,11,245,3560011,,,2026-02-10,清算の結了等,,,2015-10-05,1,,,,,クサノコウギョウ,0
601,3030003011113,登記記録の閉鎖等,0,2026-02-19,2026-02-09,製造工房ハイウェルディング合同会社,,合同会社,埼玉県,入間市,宮寺２１９５番地１,,11,225,3580014,,,2026-02-09,清算の結了等,,,2017-12-06,1,,,,,セイゾウコウボウハイウェルディング,0
602,3030003017060,登記記録の閉鎖等,0,2026-02-19,2026-02-02,合同会社小菅ボーリング,,合同会社,埼玉県,三郷市,三郷２丁目１０番地２５,,11,237,3410024,,,2026-02-02,清算の結了等,,,2021-04-12,1,,,,,コスゲボーリング,0
607,3040001137033,登記記録の閉鎖等,0,2026-02-19,2026-02-10,衆合株式会社,,株式会社,埼玉県,所沢市,大字本郷３４８番地の１,,11,208,3590022,,,2026-02-10,清算の結了等,,,2025-01-17,1,,,,,シュウゴウ,0
615,3050001007664,登記記録の閉鎖等,0,2026-02-19,2026-02-12,株式会社高徳建設,00021948,株式会社,茨城県,ひたちなか市,後野１丁目９番地３,,08,221,3120014,,,2026-02-12,清算の結了等,,,2015-10-05,1,,,,,タカトクセンセツ,0
629,3080002015457,登記記録の閉鎖等,0,2026-02-19,2026-02-16,有限会社セイワ,,有限会社,静岡県,島田市,金谷猪土居２６９１番地の３,,22,209,4280039,,,2026-02-16,清算の結了等,,,2015-10-05,1,,,,,セイワ,0
633,3080103000944,登記記録の閉鎖等,0,2026-02-19,2026-02-16,大川なおたかコンサルティング＆情報サービス合名会社,,合名会社,静岡県,伊東市,南町１丁目２番３２号,,22,208,4140035,,,2026-02-16,清算の結了等,,,2015-10-05,1,,,,,オオカワナオタカコンサルティングアンドジョウホウサービス,0
635,3100003000554,登記記録の閉鎖等,0,2026-02-19,2026-02-16,合同会社アファーク,,合同会社,長野県,千曲市,大字若宮１３０５番地８９号,,20,218,3890813,,,2026-02-16,清算の結了等,,,2015-10-05,1,,,,,アファーク,0
637,3110002008127,登記記録の閉鎖等,0,2026-02-19,2026-02-13,有限会社たなべ精肉店,,有限会社,新潟県,新潟市江南区,諏訪３丁目４番１０号,,15,104,9500127,,,2026-02-13,清算の結了等,,,2015-10-05,1,,,,,タナベセイニクテン,0
640,3120001025279,登記記録の閉鎖等,0,2026-02-19,2026-02-17,株式会社ボストン,,株式会社,大阪府,大阪市天王寺区,逢阪１丁目３番５号,00027905,27,109,5430062,,,2026-02-17,清算の結了等,,,2015-10-05,1,,,,,ボストン,0
641,3120001055961,登記記録の閉鎖等,0,2026-02-19,2026-02-17,株式会社昭和製作所,,株式会社,大阪府,大阪市淀川区,三国本町１丁目１４番２６号,,27,123,5320005,,,2026-02-17,清算の結了等,,,2015-10-05,1,,,,,ショウワセイサクショ,0
642,3120001083590,登記記録の閉鎖等,0,2026-02-19,2026-02-16,株式会社大布,,株式会社,大阪府,大阪市中央区,久太郎町３丁目３番１１号,,27,128,5410056,,,2026-02-16,清算の結了等,,,2015-10-05,1,,,,,ダイフ,0
657,3120002052512,登記記録の閉鎖等,0,2026-02-19,2026-02-13,有限会社フォーユーサービス,,有限会社,大阪府,大阪市中央区,大手通２丁目４番１号,,27,128,5400021,,,2026-02-13,清算の結了等,,,2015-10-05,1,,,,,フォーユーサービス,0
658,3120003009247,登記記録の閉鎖等,0,2026-02-19,2026-02-16,株式会社バンクシー,,株式会社,大阪府,大阪市中央区,南船場４丁目１２番２２号,,27,128,5420081,,,2026-02-16,清算の結了等,,,2015-10-05,1,,,,,,0
670,3140001003605,登記記録の閉鎖等,0,2026-02-19,2026-02-12,大康商事株式会社,,株式会社,大阪府,大阪市中央区,瓦町２丁目１番１５号,,27,128,5410048,,,2026-02-12,合併による解散等,6120001239339,令和８年２月１１日大阪市中央区瓦町二丁目１番１５号株式会社ｓｅｖｅｎ　ｔо　ｓｕｎ（6120001239339）に合併し解散,2015-10-05,1,,,,,ダイコウショウジ,0
674,3140001067204,登記記録の閉鎖等,0,2026-02-19,2026-02-16,株式会社キャリアフロー,,株式会社,兵庫県,三田市,藍本１００１番地１,,28,219,6691358,,,2026-02-16,清算の結了等,,,2015-10-05,1,,,,,キャリアフロー,0
675,3140001096921,登記記録の閉鎖等,0,2026-02-19,2026-02-16,ベルツリー株式会社,,株式会社,兵庫県,神戸市東灘区,森南町１丁目１８番１１号,,28,101,6580011,,,2026-02-16,清算の結了等,,,2015-10-05,1,,,,,ベルツリー,0
677,3140002045035,登記記録の閉鎖等,0,2026-02-19,2026-02-16,有限会社櫻木工務店,,有限会社,兵庫県,尼崎市,若王寺３丁目２６番５号,,28,202,6610974,,,2026-02-16,清算の結了等,,,2015-10-05,1,,,,,サクラギコウムテン,0
685,3180001148347,登記記録の閉鎖等,0,2026-02-19,2026-02-12,株式会社Ｂｌｕｅ　Ｏｃｅａｎ,,株式会社,愛知県,知多市,新舞子字南西田２９番地１,,23,224,4780036,,,2026-02-12,清算の結了等,,,2021-10-19,1,,,,,ブルーオーシャン,0
695,3180302012037,登記記録の閉鎖等,0,2026-02-19,2026-02-16,有限会社三弘プランニング,,有限会社,愛知県,豊橋市,堂坂町４９番地向坂グリーンハウス２０５号,,23,201,4418038,,,2026-02-16,清算の結了等,,,2015-10-05,1,,,,,サンコウプランニング,0
716,3270001003930,登記記録の閉鎖等,0,2026-02-19,2026-02-17,株式会社前田興業,,株式会社,鳥取県,米子市,淀江町今津２７９番地,,31,202,6893401,,,2026-02-17,清算の結了等,,,2015-10-05,1,,,,,マエタコウギョウ,0
720,3290001092906,登記記録の閉鎖等,0,2026-02-19,2026-02-16,ジャパンフーズ株式会社,,株式会社,福岡県,福岡市東区,東浜２丁目８番６７号,,40,131,8120055,,,2026-02-16,合併による解散等,2290001022129,令和８年２月１６日福岡市博多区博多駅南四丁目２番１０号株式会社ＡＢＣビジョン（2290001022129）に合併し解散,2021-04-22,1,,,,,ジャパンフーズ,0
727,3310002004618,登記記録の閉鎖等,0,2026-02-19,2026-02-18,有限会社百武ビル,,有限会社,長崎県,長崎市,栄町４番１３号,,42,201,8500875,,,2026-02-18,清算の結了等,,,2015-10-05,1,,,,,ヒャクタケビル,0
736,3400002004443,登記記録の閉鎖等,0,2026-02-19,2026-02-12,有限会社アルファ企画,,有限会社,岩手県,滝沢市,巣子７２番地５３,,03,216,0200611,,,2026-02-12,清算の結了等,,,2015-10-05,1,,,,,アルファキカク,0
742,3450002009958,登記記録の閉鎖等,0,2026-02-19,2026-02-17,有限会社村上自動車工業,,有限会社,北海道,名寄市,字徳田５１番地４１,,01,221,0960071,,,2026-02-17,清算の結了等,,,2015-10-05,1,,,,,ムラカミジドウシャコウギョウ,0
752,4010001128538,登記記録の閉鎖等,0,2026-02-19,2026-02-02,株式会社リーチアセットマネージメント,,株式会社,東京都,千代田区,神田淡路町１丁目１３番地,,13,101,1010063,,,2026-02-02,合併による解散等,3010001032071,令和８年２月１日東京都千代田区神田淡路町一丁目１３番地株式会社リーチコンサルティング（3010001032071）に合併し解散,2015-10-05,1,,,,,リーチアセットマネージメント,0
761,4010002009084,登記記録の閉鎖等,0,2026-02-19,2026-01-28,有限会社北清米店,,有限会社,東京都,千代田区,神田富山町２６番地,,13,101,1010043,,,2026-01-28,清算の結了等,,,2015-10-05,1,,,,,キタセコメテン,0
790,4010403024376,登記記録の閉鎖等,0,2026-02-19,2026-01-30,ジー・ジェイ・レジデンス・ツー合同会社,,合同会社,東京都,港区,六本木１丁目９番１０号アークヒルズ仙石山森タワー４０階,,13,103,1060032,,,2026-01-30,清算の結了等,,,2020-12-18,1,,,,,ジージェイレジデンスツー,0
807,4010603000383,登記記録の閉鎖等,0,2026-02-19,2026-02-10,株式会社竹内技研製作所,,株式会社,東京都,江東区,東砂８丁目７番１１号,,13,108,1360074,,,2026-02-10,清算の結了等,,,2015-10-05,1,,,,,タケウチギケンセイサクジョ,0
813,4011001055375,登記記録の閉鎖等,0,2026-02-19,2026-01-27,株式会社エスパシオ研究所,,株式会社,東京都,渋谷区,桜丘町２１番１２号,,13,113,1500031,,,2026-01-27,清算の結了等,,,2015-10-05,1,,,,,エスパシオケンキュウジョ,0
834,4011602023879,登記記録の閉鎖等,0,2026-02-19,2026-02-16,有限会社早坂工機相談所,,有限会社,東京都,練馬区,富士見台４丁目３４番３０号,,13,120,1770034,,,2026-02-16,清算の結了等,,,2015-10-05,1,,,,,ハヤサカコウキソウダンジョ,0
839,4012301013139,登記記録の閉鎖等,0,2026-02-19,2026-02-13,株式会社ＦＬＯＲＴＵＳ,,株式会社,神奈川県,横浜市都筑区,中川５丁目４０番４７号,,14,118,2240001,,,2026-02-13,清算の結了等,,,2022-09-29,1,,,,,フロータス,0
840,4012302002792,登記記録の閉鎖等,0,2026-02-19,2026-02-18,有限会社たまや文具店,,有限会社,東京都,町田市,南町田４丁目２４番７号,,13,209,1940005,,,2026-02-18,清算の結了等,,,2015-10-05,1,,,,,タマヤブングテン,0
845,4020001013557,登記記録の閉鎖等,0,2026-02-19,2026-02-16,株式会社ノエビア神奈川中央,,株式会社,神奈川県,横浜市南区,南吉田町２丁目１７番地２６,,14,105,2320012,,,2026-02-16,清算の結了等,,,2015-10-05,1,,,,,ノエビアカナガワチュウオウ,0
847,4020001127043,登記記録の閉鎖等,0,2026-02-19,2026-02-17,株式会社アースプロスパー,,株式会社,神奈川県,横浜市中区,本牧満坂９８番地２０,,14,104,2310833,,,2026-02-17,清算の結了等,,,2018-07-06,1,,,,,アースプロスパー,0
848,4020001148023,登記記録の閉鎖等,0,2026-02-19,2026-02-02,さくらヘルス＆ビューティー・サイエンス株式会社,,株式会社,神奈川県,横浜市西区,北幸２丁目１０番２７号,,14,103,2200004,,,2026-02-02,合併による解散等,6020001053015,令和８年２月１日横浜市西区北幸二丁目１０番２７号さくらメディカル株式会社（6020001053015）に合併し解散,2022-09-02,1,,,,,サクラヘルスアンドビューティーサイエンス,0
869,4030002034403,登記記録の閉鎖等,0,2026-02-19,2026-02-13,有限会社丸平ホーム,,有限会社,埼玉県,狭山市,大字水野４４２番地の６,,11,215,3501317,,,2026-02-13,清算の結了等,,,2015-10-05,1,,,,,マルヒラホーム,0
882,4040002039979,登記記録の閉鎖等,0,2026-02-19,2026-01-28,有限会社一歩屋,,有限会社,千葉県,市川市,大野町４丁目３０８３番地１１,,12,203,2720805,,,2026-01-28,清算の結了等,,,2015-10-05,1,,,,,イッポヤ,0
890,4050001056636,登記記録の閉鎖等,0,2026-02-19,2026-02-13,株式会社エコナ,,株式会社,茨城県,水戸市,けやき台３丁目２８番地の５－３０５,,08,201,3100842,,,2026-02-13,清算の結了等,,,2025-05-09,1,,,,,エコナ,0
893,4060003005499,登記記録の閉鎖等,0,2026-02-19,2026-02-17,合同会社Ｍ’ｓ　ｉｎｓｕｌａｔｉｏｎ　ｃｏｍｐａｎｙ,,合同会社,栃木県,栃木市,箱森町２４番６３－２号,,09,203,3280075,,,2026-02-17,清算の結了等,,,2025-04-04,1,,,,,エムズインシュレーションカンパニー,0
904,4090001017205,登記記録の閉鎖等,0,2026-02-19,2026-02-13,株式会社ＭＳ,,株式会社,山梨県,南アルプス市,六科１５８８番地,,19,208,4000206,,,2026-02-13,清算の結了等,,,2021-09-29,1,,,,,エムエス,0
907,4110002009479,登記記録の閉鎖等,0,2026-02-19,2026-02-16,有限会社大阪屋商店,,有限会社,新潟県,新潟市秋葉区,新津本町２丁目５番２６号,,15,105,9560864,,,2026-02-16,清算の結了等,,,2015-10-05,1,,,,,オオサカヤショウテン,0
908,4110002027803,登記記録の閉鎖等,0,2026-02-19,2026-02-10,有限会社ジェーン,,有限会社,新潟県,長岡市,古正寺２丁目２１３番地,,15,202,9402106,,,2026-02-10,清算の結了等,,,2015-10-05,1,,,,,ジェーン,0
914,4120001267936,登記記録の閉鎖等,0,2026-02-19,2026-02-16,夢＿可株式会社,00136082,株式会社,大阪府,大阪市西淀川区,姫島２丁目４番１０号パークアベニュー２階Ａ室,,27,113,5550033,,,2026-02-16,清算の結了等,,,2024-08-27,1,,,,,ムニカ,0
917,4120002038106,登記記録の閉鎖等,0,2026-02-19,2026-02-12,有限会社姫路屋,,有限会社,大阪府,大阪市淀川区,東三国６丁目１番３９号,,27,123,5320002,,,2026-02-12,清算の結了等,,,2015-10-05,1,,,,,ヒメジヤ,0
940,4140002009600,登記記録の閉鎖等,0,2026-02-19,2026-02-16,有限会社アベニュー,,有限会社,兵庫県,神戸市北区,緑町７丁目９番６号,,28,109,6511221,,,2026-02-16,清算の結了等,,,2015-10-05,1,,,,,アベニュー,0
946,4180001114488,登記記録の閉鎖等,0,2026-02-19,2026-02-12,エムワイ空調株式会社,,株式会社,愛知県,名古屋市守山区,西新４番１０号,,23,113,4630055,,,2026-02-12,清算の結了等,,,2015-10-05,1,,,,,エムワイクウチョウ,0
959,4200001001733,登記記録の閉鎖等,0,2026-02-19,2026-02-16,協和理化学工業株式会社,,株式会社,岐阜県,岐阜市,岩崎６４６番地の１,,21,201,5020005,,,2026-02-16,清算の結了等,,,2015-10-05,1,,,,,,0
973,4260002013581,登記記録の閉鎖等,0,2026-02-19,2026-02-18,有限会社長町打設,,有限会社,岡山県,岡山市東区,神崎町２０６１番地の２,,33,103,7048138,,,2026-02-18,清算の結了等,,,2015-10-05,1,,,,,ナガマチダセツ,0
974,4260005003308,登記記録の閉鎖等,0,2026-02-19,2026-02-12,岡山県タンカル生産販売協同組合,,その他の設立登記法人,岡山県,倉敷市,東富井９７６番地の１,,33,202,7100847,,,2026-02-12,清算の結了等,,,2015-10-05,1,,,,,オカヤマケンタンカルセイサンハンバイ,0
976,4290001044749,登記記録の閉鎖等,0,2026-02-19,2026-02-13,株式会社サプライヤードットコム,,株式会社,福岡県,福岡市城南区,梅林３丁目３２番７号,,40,136,8140144,,,2026-02-13,清算の結了等,,,2015-10-05,1,,,,,サプライヤードットコム,0
986,4300005006735,登記記録の閉鎖等,0,2026-02-19,2026-02-17,医療法人坂本内科医院,,その他の設立登記法人,佐賀県,杵島郡大町町,大字大町５２６４番地５,,41,423,8492101,,,2026-02-17,清算の結了等,,,2018-05-07,1,,,,,サカモトナイカイイン,0
990,4330001000929,登記記録の閉鎖等,0,2026-02-19,2026-02-12,キノ工業株式会社,,株式会社,熊本県,熊本市東区,花立２丁目７番８号,,43,102,8612118,,,2026-02-12,清算の結了等,,,2015-10-05,1,,,,,キノコウギョウ,0
994,4340001023441,登記記録の閉鎖等,0,2026-02-19,2026-02-10,株式会社Ｆｏｏｄ　Ｉｎｎｏｖａｔｉｏｎ,,株式会社,鹿児島県,鹿児島市,城山２丁目７番３号２階,,46,201,8920813,,,2026-02-10,清算の結了等,,,2021-01-22,1,,,,,フードイノベーション,0
1026,5010001190925,登記記録の閉鎖等,0,2026-02-19,2026-01-29,株式会社ライトブルー,,株式会社,東京都,千代田区,霞が関３丁目２番５号,,13,101,1000013,,,2026-01-29,清算の結了等,,,2018-04-10,1,,,,,ライトブルー,0
1037,5010101003417,登記記録の閉鎖等,0,2026-02-19,2026-02-18,株式会社フェニックス,,株式会社,東京都,八王子市,四谷町６１２番地３,,13,201,1930813,,,2026-02-18,清算の結了等,,,2015-10-05,1,,,,,フェニックス,0
1070,5010601039126,登記記録の閉鎖等,0,2026-02-19,2026-02-12,株式会社ジーアイピー,,株式会社,福岡県,福岡市東区,舞松原５丁目２４番１２号,,40,131,8130042,,,2026-02-12,清算の結了等,,,2015-10-05,1,,,,,ジーアイピー,0
1073,5010602014301,登記記録の閉鎖等,0,2026-02-19,2026-02-09,有限会社ブティック・レアール,,有限会社,東京都,墨田区,東向島６丁目６２番２号,,13,107,1310032,,,2026-02-09,清算の結了等,,,2015-10-05,1,,,,,ブティックレアール,0
1084,5011001066272,登記記録の閉鎖等,0,2026-02-19,2026-02-16,株式会社アイヴィジョン,,株式会社,東京都,渋谷区,恵比寿３丁目３番３号,,13,113,1500013,,,2026-02-16,合併による解散等,2011001069625,令和８年１月１日東京都千代田区麹町三丁目２番地ｒａｋｕｍｏ株式会社（2011001069625）に合併し解散,2015-10-05,1,,,,,アイヴィジョン,0
1098,5011103016010,登記記録の閉鎖等,0,2026-02-19,2026-01-26,Ｖｉｍｅｔｒｉｃ合同会社,,合同会社,東京都,新宿区,大久保１丁目２番１－２０５号,,13,104,1690072,,,2026-01-26,清算の結了等,,,2025-06-17,1,,,,,ビメトリック,0
1099,5011202006572,登記記録の閉鎖等,0,2026-02-19,2026-02-10,有限会社リベロ,,有限会社,東京都,中野区,沼袋２丁目４０番１２－６０１号,,13,114,1650025,,,2026-02-10,清算の結了等,,,2015-10-05,1,,,,,リベロ,0
1113,5012401041352,登記記録の閉鎖等,0,2026-02-19,2026-02-13,株式会社きらくに,,株式会社,兵庫県,宍粟市,山崎町高下８３番地１,,28,227,6712565,,,2026-02-13,清算の結了等,,,2023-12-21,1,,,,,キラクニ,0
1119,5020001103695,登記記録の閉鎖等,0,2026-02-19,2026-02-16,株式会社明光ヨシオカ,,株式会社,三重県,四日市市,松本３丁目１０番２８号,,24,202,5100836,,,2026-02-16,清算の結了等,,,2015-10-05,1,,,,,メイコウヨシオカ,0
1126,5020002076445,登記記録の閉鎖等,0,2026-02-19,2026-02-18,有限会社ジュリエール,,有限会社,神奈川県,横浜市青葉区,あざみ野１丁目１０番２号,,14,117,2250011,,,2026-02-18,清算の結了等,,,2015-10-05,1,,,,,ジュリエール,0
1127,5021002011012,登記記録の閉鎖等,0,2026-02-19,2026-02-06,有限会社月兎,00013057,有限会社,神奈川県,茅ヶ崎市,柳島海岸３番２号,,14,207,2530063,,,2026-02-06,清算の結了等,,,2015-10-05,1,,,,,,0
1128,5021002055001,登記記録の閉鎖等,0,2026-02-19,2026-01-29,有限会社堀内商店,,有限会社,神奈川県,南足柄市,駒形新宿４１番地５,,14,217,2500125,,,2026-01-29,清算の結了等,,,2015-10-05,1,,,,,ホリウチショウテン,0
1162,5070002014607,登記記録の閉鎖等,0,2026-02-19,2026-02-16,有限会社岩崎重機,,有限会社,群馬県,安中市,原市２９４番地の１,,10,211,3790133,,,2026-02-16,清算の結了等,,,2015-10-05,1,,,,,イワサキジュウキ,0
1171,5100002036011,登記記録の閉鎖等,0,2026-02-19,2026-02-16,有限会社ジャパンランカトレーディング,,有限会社,長野県,飯田市,下殿岡５番地１７,,20,205,3950154,,,2026-02-16,清算の結了等,,,2015-10-05,1,,,,,ジャパンランカトレーディング,0
1172,5100005002068,登記記録の閉鎖等,0,2026-02-19,2026-02-12,特定非営利活動法人ネットプラザ長野,,その他の設立登記法人,長野県,長野市,吉田３丁目２２番４１号,,20,201,3810043,,,2026-02-12,清算の結了等,,,2015-10-05,1,,,,,ネットプラザナガノ,0
1174,5110002025888,登記記録の閉鎖等,0,2026-02-19,2026-02-16,有限会社丸沢屋商店,,有限会社,新潟県,中魚沼郡津南町,大字下船渡丁２１５１番地３,,15,482,9498201,,,2026-02-16,清算の結了等,,,2015-10-05,1,,,,,マルサワヤショウテン,0
1175,5110002028949,登記記録の閉鎖等,0,2026-02-19,2026-02-16,有限会社福助食堂,,有限会社,新潟県,長岡市,西神田町２丁目９番地７,,15,202,9400051,,,2026-02-16,清算の結了等,,,2015-10-05,1,,,,,フクスケショクドウ,0
1195,5130001019906,登記記録の閉鎖等,0,2026-02-19,2026-02-16,岩田染工株式会社,,株式会社,京都府,京都市中京区,壬生坊城町５６番地,,26,104,6048804,,,2026-02-16,清算の結了等,,,2015-10-05,1,,,,,イワタセンコウ,0
1204,5150001002686,登記記録の閉鎖等,0,2026-02-19,2026-02-18,株式会社ジン,,株式会社,奈良県,奈良市,恋の窪１丁目１９番３－３号,,29,201,6308136,,,2026-02-18,清算の結了等,,,2015-10-05,1,,,,,ジン,0
1219,5180002062702,登記記録の閉鎖等,0,2026-02-19,2026-02-10,有馬建設有限会社,,有限会社,愛知県,名古屋市南区,鳥栖１丁目１番６号,,23,112,4570006,,,2026-02-10,清算の結了等,,,2015-10-05,1,,,,,アリマケンセツ,0
1230,5190002013126,登記記録の閉鎖等,0,2026-02-19,2026-02-16,有限会社フジヤ,,有限会社,三重県,名張市,桔梗が丘６番町一街区２番地,,24,208,5180626,,,2026-02-16,清算の結了等,,,2015-10-05,1,,,,,フジヤ,0
1238,5220002009319,登記記録の閉鎖等,0,2026-02-19,2026-02-18,有限会社西川商店,,有限会社,石川県,白山市,橋爪町７５１番地３４,,17,210,9240812,,,2026-02-18,清算の結了等,,,2015-10-05,1,,,,,,0
1239,5220002015960,登記記録の閉鎖等,0,2026-02-19,2026-02-18,有限会社おみメガネ,,有限会社,石川県,金沢市,東山３丁目１１番１１号,,17,201,9200831,,,2026-02-18,清算の結了等,,,2015-10-05,1,,,,,オミメガネ,0
1257,5280002000734,登記記録の閉鎖等,0,2026-02-19,2026-02-18,有限会社ケーアイ技研,,有限会社,島根県,松江市,東忌部町１５番地２,,32,201,6900036,,,2026-02-18,清算の結了等,,,2015-10-05,1,,,,,ケーアイギケン,0
1264,5290001076510,登記記録の閉鎖等,0,2026-02-19,2026-02-12,株式会社Ｇｒｅｅｎ　Ｃｕｌｔｕｒｅ　Ｌｉｎｋ,,株式会社,福岡県,春日市,光町２丁目１９４番地,,40,218,8160806,,,2026-02-12,清算の結了等,,,2017-01-27,1,,,,,グリーンカルチャーリンク,0
1278,5340001015479,登記記録の閉鎖等,0,2026-02-19,2026-02-12,株式会社日向薬局,,株式会社,宮崎県,都城市,花繰町６街区１９号,,45,202,8850037,,,2026-02-12,清算の結了等,,,2015-10-05,1,,,,,ヒュウガヤッキョク,0
1292,5420002006155,登記記録の閉鎖等,0,2026-02-19,2026-02-13,有限会社石橋ガラス工房,,有限会社,青森県,八戸市,大字是川字金ケ坂１８番地の９,,02,203,0310023,,,2026-02-13,清算の結了等,,,2015-10-05,1,,,,,イシバシガラスコウボウ,0
1319,6010003039483,登記記録の閉鎖等,0,2026-02-19,2026-02-02,合同会社Ｍｉｌｌｅ‐ｆｅｕｉｌｌｅ,,合同会社,東京都,中央区,銀座７丁目１５番８号タウンハイツ銀座４０６,,13,102,1040061,,,2026-02-02,清算の結了等,,,2023-01-11,1,,,,,ミルフィーユ,0
1353,6010501052806,登記記録の閉鎖等,0,2026-02-19,2026-02-06,Ｇ・ＧＥＭＳ株式会社,,株式会社,東京都,台東区,台東２丁目２３－１２プラチナフォルム上野秋葉原ＩＩＩ２０３号室,00136830,13,106,1100016,,,2026-02-06,清算の結了等,,,2024-08-21,1,,,,,,0
1360,6010801024579,登記記録の閉鎖等,0,2026-02-19,2026-02-09,株式会社ピロースタンド,,株式会社,東京都,大田区,西蒲田７丁目５０番１１号,,13,111,1440051,,,2026-02-09,清算の結了等,,,2015-10-05,1,,,,,ピロースタンド,0
1362,6010802017152,登記記録の閉鎖等,0,2026-02-19,2026-02-17,有限会社玄和堂研究所,,有限会社,東京都,世田谷区,中町４丁目２番７－７,,13,112,1580091,,,2026-02-17,清算の結了等,,,2015-10-05,1,,,,,ゲンワドウケンキュウジョ,0
1389,6011702017325,登記記録の閉鎖等,0,2026-02-19,2026-02-10,有限会社ＳＡＷＡＳＡＴＯ－ＬＧＳ,,有限会社,東京都,江戸川区,東葛西４丁目３３番１０号,,13,123,1340084,,,2026-02-10,清算の結了等,,,2015-10-05,1,,,,,サワサトエルジーエス,0
1402,6020003007068,登記記録の閉鎖等,0,2026-02-19,2026-02-13,合同会社健康ファクトリー,,合同会社,神奈川県,横浜市鶴見区,市場上町１０番,,14,101,2300021,,,2026-02-13,清算の結了等,,,2015-10-05,1,,,,,ケンコウファクトリー,0
1431,6070005008167,登記記録の閉鎖等,0,2026-02-19,2026-02-17,特定非営利活動法人ピースサポート協会,,その他の設立登記法人,群馬県,前橋市,新堀町１９０番地１,,10,201,3792143,,,2026-02-17,清算の結了等,,,2015-10-05,1,,,,,ピースサポートキョウカイ,0
1440,6100001016673,登記記録の閉鎖等,0,2026-02-19,2026-02-17,株式会社サラダロード,,株式会社,長野県,松本市,梓川梓１２４６番地２,,20,202,3901702,,,2026-02-17,清算の結了等,,,2015-10-05,1,,,,,サラダロード,0
1441,6100002024304,登記記録の閉鎖等,0,2026-02-19,2026-02-17,有限会社春喜屋精肉店,,有限会社,長野県,安曇野市,明科中川手３７６３番地,,20,220,3997102,,,2026-02-17,清算の結了等,,,2015-10-05,1,,,,,ハルキヤセイニクテン,0
1445,6110005006488,登記記録の閉鎖等,0,2026-02-19,2026-02-10,明隨寺,,その他の設立登記法人,新潟県,燕市,吉田中町１１番１３号,,15,213,9590244,,,2026-02-10,清算の結了等,,,2015-10-05,1,,,,,ミョウズイジ,0
1467,6120902009575,登記記録の閉鎖等,0,2026-02-19,2026-02-16,有限会社今城振興,,有限会社,大阪府,高槻市,塚脇１丁目２０番２号,,27,207,5691036,,,2026-02-16,清算の結了等,,,2015-10-05,1,,,,,イマシロシンコウ,0
1493,6180003019832,登記記録の閉鎖等,0,2026-02-19,2026-02-10,合同会社夢幻,,合同会社,愛知県,愛知郡東郷町,大字諸輪字曙１１７番地,,23,302,4700151,,,2026-02-10,清算の結了等,,,2019-04-01,1,,,,,ムゲン,0
1500,6200003007025,登記記録の閉鎖等,0,2026-02-19,2026-02-16,＿＿合同会社,00140601,合同会社,岐阜県,揖斐郡池田町,本郷１３９２番地の１,,21,404,5032417,,,2026-02-16,清算の結了等,,,2025-09-10,1,,,,,シンシン,0
1508,6220003000770,登記記録の閉鎖等,0,2026-02-19,2026-02-17,合同会社松任駅南ビル,,合同会社,石川県,白山市,西新町１１１４番地,,17,210,9240871,,,2026-02-17,清算の結了等,,,2015-10-05,1,,,,,マットウエキミナミビル,0
1540,6330001033588,登記記録の閉鎖等,0,2026-02-19,2026-02-13,株式会社金山本店,,株式会社,熊本県,熊本市南区,城南町島田１９番地,,43,104,8614236,,,2026-02-13,清算の結了等,,,2025-09-22,1,,,,,カナヤマホンテン,0
1550,6420001001156,登記記録の閉鎖等,0,2026-02-19,2026-02-13,株式会社みちのくジェネリック,,株式会社,青森県,青森市,大字安田字近野１番地２４８,,02,201,0380021,,,2026-02-13,合併による解散等,7430001027983,令和８年２月１日札幌市中央区北十条西二十四丁目２番１５号株式会社ナカジマ薬局（7430001027983）に合併し解散,2015-10-05,1,,,,,ミチノクジェネリック,0
1553,6430001069424,登記記録の閉鎖等,0,2026-02-19,2026-02-18,丸芳工業株式会社,,株式会社,北海道,滝川市,東町５丁目８番２５号,,01,225,0730024,,,2026-02-18,清算の結了等,,,2015-10-05,1,,,,,,0
1557,6500002023942,登記記録の閉鎖等,0,2026-02-19,2026-02-17,有限会社伊予興産,,有限会社,愛媛県,南宇和郡愛南町,城辺甲１９５０番地,,38,506,7984131,,,2026-02-17,清算の結了等,,,2015-10-05,1,,,,,イヨコウサン,0
1563,7010001080711,登記記録の閉鎖等,0,2026-02-19,2026-02-10,株式会社エフ・アイ・テック,,株式会社,埼玉県,さいたま市緑区,東浦和５丁目９番１号,,11,109,3360926,,,2026-02-10,清算の結了等,,,2015-10-05,1,,,,,エフアイテック,0
1567,7010001167285,登記記録の閉鎖等,0,2026-02-19,2026-02-04,山佐産業ＭＵ５リース株式会社,,株式会社,東京都,千代田区,丸の内１丁目４番１号東京共同会計事務所内,,13,101,1000005,,,2026-02-04,清算の結了等,,,2015-10-05,1,,,,,ヤマササンギョウエムユーゴリース,0
1569,7010001202447,登記記録の閉鎖等,0,2026-02-19,2026-02-02,丸紅テクノロジーズ１株式会社,,株式会社,東京都,千代田区,大手町１丁目４番２号,,13,101,1000004,,,2026-02-02,清算の結了等,,,2019-07-16,1,,,,,マルベニテクノロジーズワン,0
1570,7010001229721,登記記録の閉鎖等,0,2026-02-19,2026-02-02,ｒａｉｓｅ株式会社,,株式会社,東京都,文京区,本駒込１丁目１７番１９号,,13,105,1130021,,,2026-02-02,清算の結了等,,,2022-10-04,1,,,,,レイズ,0
1611,7010501053308,登記記録の閉鎖等,0,2026-02-19,2026-02-10,ＵＥＫＯ株式会社,,株式会社,東京都,台東区,台東２丁目２０－３パークアクシス御徒町１２０１,,13,106,1100016,,,2026-02-10,清算の結了等,,,2024-12-05,1,,,,,ウエコー,0
1619,7010602000266,登記記録の閉鎖等,0,2026-02-19,2026-02-13,有限会社伊藤栄商店,,有限会社,東京都,江東区,亀戸６丁目６０番６号,,13,108,1360071,,,2026-02-13,清算の結了等,,,2015-10-05,1,,,,,イトウサカエショウテン,0
1631,7011002032180,登記記録の閉鎖等,0,2026-02-19,2026-02-10,株式会社デザインファクトリークラン,,株式会社,東京都,杉並区,上荻１丁目２番１号,,13,115,1670043,,,2026-02-10,清算の結了等,,,2015-10-05,1,,,,,デザインファクトリークラン,0
1632,7011003010367,登記記録の閉鎖等,0,2026-02-19,2026-02-05,ベータ・ジャパン株式会社,,株式会社,東京都,渋谷区,神南１丁目１１番４号ＦＰＧリンクス神南５階,,13,113,1500041,,,2026-02-05,清算の結了等,,,2019-09-27,1,B8TA JAPAN K.K.,,,,ベータジャパン,0
1669,7030001075503,登記記録の閉鎖等,0,2026-02-19,2026-02-10,株式会社シャルク建築設計事務所,,株式会社,埼玉県,川口市,本町１丁目１６番４号－２０３,,11,203,3320012,,,2026-02-10,清算の結了等,,,2015-10-05,1,,,,,シャルクケンチクセッケイジムショ,0
1677,7030002021951,登記記録の閉鎖等,0,2026-02-19,2026-02-10,有限会社ユイ・コーポレーション,,有限会社,埼玉県,さいたま市岩槻区,上里１丁目４番地７８,,11,110,3390006,,,2026-02-10,清算の結了等,,,2015-10-05,1,,,,,ユイコーポレーション,0
1679,7030002119366,登記記録の閉鎖等,0,2026-02-19,2026-02-10,有限会社共栄観光,,有限会社,埼玉県,飯能市,大字中藤下郷１１番地の８,,11,209,3570123,,,2026-02-10,清算の結了等,,,2015-10-05,1,,,,,キョウエイカンコウ,0
1689,7040002057945,登記記録の閉鎖等,0,2026-02-19,2026-01-27,ムスビ有限会社,,有限会社,千葉県,白井市,桜台３丁目５番１０号,,12,232,2701412,,,2026-01-27,清算の結了等,,,2015-10-05,1,,,,,ムスビ,0
1693,7050001025662,登記記録の閉鎖等,0,2026-02-19,2026-02-16,株式会社シバエース,,株式会社,茨城県,稲敷市,本新４０８番地,,08,229,3000731,,,2026-02-16,清算の結了等,,,2015-10-05,1,,,,,シバエース,0
1705,7080101018539,登記記録の閉鎖等,0,2026-02-19,2026-02-16,建機トレード株式会社,,株式会社,静岡県,沼津市,鳥谷７７番地の５,,22,203,4100305,,,2026-02-16,清算の結了等,,,2015-10-05,1,,,,,ケンキトレード,0
1711,7100002007357,登記記録の閉鎖等,0,2026-02-19,2026-02-18,有限会社長野エアテック,,有限会社,長野県,長野市,大字稲葉上千田２番地１号,,20,201,3800915,,,2026-02-18,清算の結了等,,,2015-10-05,1,,,,,ナガノエアテック,0
1717,7110001036851,登記記録の閉鎖等,0,2026-02-19,2026-02-16,株式会社あまむすび,,株式会社,新潟県,新潟市中央区,紫竹山６丁目３番５号,,15,103,9500914,,,2026-02-16,清算の結了等,,,2022-08-02,1,,,,,アマムスビ,0
1718,7110001039706,登記記録の閉鎖等,0,2026-02-19,2026-02-13,株式会社ワイズ,,株式会社,新潟県,新潟市東区,紫竹６丁目１８番２号サーパス紫竹４０７号,,15,102,9500864,,,2026-02-13,清算の結了等,,,2025-11-07,1,,,,,ワイズ,0
1720,7110003004377,登記記録の閉鎖等,0,2026-02-19,2026-02-17,花風合同会社,,合同会社,新潟県,新潟市西区,坂井東４丁目２８番３９号,,15,107,9502041,,,2026-02-17,清算の結了等,,,2021-01-26,1,,,,,ハナカゼ,0
1727,7120001170022,登記記録の閉鎖等,0,2026-02-19,2026-02-17,バン株式会社,,株式会社,大阪府,大阪市東成区,大今里３丁目２１番８号,,27,115,5370012,,,2026-02-17,清算の結了等,,,2015-10-05,1,,,,,バン,0
1742,7122001034801,登記記録の閉鎖等,0,2026-02-19,2026-02-06,株式会社ＫＥＥＰＴＯ,,株式会社,大阪府,八尾市,竹渕東３丁目１０５番地の２,,27,212,5810053,,,2026-02-06,清算の結了等,,,2021-05-17,1,,,,,ケプト,0
1749,7140001006711,登記記録の閉鎖等,0,2026-02-19,2026-02-13,株式会社岡本陽建築研究所,,株式会社,兵庫県,神戸市東灘区,森北町５丁目７番１４号Ａ－２,,28,101,6580001,,,2026-02-13,清算の結了等,,,2015-10-05,1,,,,,オカモトヨウケンチクケンキュウジョ,0
1761,7150001017261,登記記録の閉鎖等,0,2026-02-19,2026-02-18,株式会社神奈備,,株式会社,奈良県,桜井市,大字粟殿５５２番地,,29,206,6330062,,,2026-02-18,清算の結了等,,,2015-10-05,1,,,,,カンナビ,0
1766,7170005006762,登記記録の閉鎖等,0,2026-02-19,2026-02-18,一般社団法人地域エリア総合活動センター,,その他の設立登記法人,和歌山県,伊都郡かつらぎ町,大字笠田東８５４番地,,30,341,6497161,,,2026-02-18,清算の結了等,,,2019-07-26,1,,,,,チイキエリアソウゴウカツドウセンター,0
1767,7180001045524,登記記録の閉鎖等,0,2026-02-19,2026-02-06,株式会社濱島商店,,株式会社,愛知県,清須市,中河原２番地,,23,233,4520915,,,2026-02-06,清算の結了等,,,2015-10-05,1,,,,,ハマジマショウテン,0
1769,7180001096245,登記記録の閉鎖等,0,2026-02-19,2026-02-10,＿＿株式会社,00072501,株式会社,愛知県,知多市,新知字浜脇１番地の１,,23,224,4780017,,,2026-02-10,清算の結了等,,,2015-10-05,1,,,,,シンシン,0
1774,7180002058896,登記記録の閉鎖等,0,2026-02-19,2026-02-16,三立メンテナンス株式会社,,株式会社,愛知県,名古屋市天白区,元八事１丁目１５７番地,,23,116,4680066,,,2026-02-16,清算の結了等,,,2015-10-05,1,,,,,サンリツメンテナンス,0
1782,7200001002522,登記記録の閉鎖等,0,2026-02-19,2026-02-17,株式会社シブヤ,,株式会社,岐阜県,岐阜市,茜部中島１丁目６１番地の２,,21,201,5008269,,,2026-02-17,清算の結了等,,,2015-10-05,1,,,,,シブヤ,0
1785,7200005009852,登記記録の閉鎖等,0,2026-02-19,2026-02-09,妙蓮教会,00077553,その他の設立登記法人,岐阜県,高山市,岡本町２丁目５０番地,,21,203,5060054,,,2026-02-09,清算の結了等,,,2015-10-05,1,,,,,ミョウレンキョウカイ,0
1837,7470005006063,登記記録の閉鎖等,0,2026-02-19,2026-02-12,特定非営利活動法人まちづくり推進隊みの,,その他の設立登記法人,香川県,三豊市,三野町下高瀬１９７８番地１,,37,208,7670032,,,2026-02-12,清算の結了等,,,2018-01-17,1,,,,,マチヅクリスイシンタイミノ,0
1838,7500001004612,登記記録の閉鎖等,0,2026-02-19,2026-02-18,株式会社エスコート,,株式会社,愛媛県,新居浜市,観音原町乙９３番地４７,,38,205,7920851,,,2026-02-18,清算の結了等,,,2015-10-05,1,,,,,,0
1856,8010401171588,登記記録の閉鎖等,0,2026-02-19,2026-01-27,ＰＩＰ　ＪＡＰＡＮ株式会社,,株式会社,東京都,港区,芝大門２丁目４－４富士ビル５階,,13,103,1050012,,,2026-01-27,清算の結了等,,,2023-01-04,1,,,,,ピーアイピージャパン,0
1876,8010403031294,登記記録の閉鎖等,0,2026-02-19,2026-01-27,合同会社ＭＷＡＮＧＡ,,合同会社,東京都,港区,六本木７丁目３番１３号,,13,103,1060032,,,2026-01-27,清算の結了等,,,2023-11-29,1,,,,,ムワンガ,0
1880,8010405019346,登記記録の閉鎖等,0,2026-02-19,2026-01-30,ジー・ジェイ・レジデンス・ツー特定目的会社,,その他の設立登記法人,東京都,港区,六本木１丁目９番１０号アークヒルズ仙石山森タワー４０階,,13,103,1060032,,,2026-01-30,清算の結了等,,,2020-12-15,1,,,,,ジージェイレジデンスツー,0
1881,8010501037284,登記記録の閉鎖等,0,2026-02-19,2026-02-17,株式会社コネクション,,株式会社,東京都,足立区,鹿浜１丁目５番３号,,13,121,1230864,,,2026-02-17,合併による解散等,6011801001601,令和８年２月１日東京都千代田区丸の内三丁目４番１号株式会社ジーエムエス（6011801001601）に合併し解散,2015-10-05,1,,,,,,0
1882,8010502010959,登記記録の閉鎖等,0,2026-02-19,2026-02-09,有限会社水本酒店,,有限会社,東京都,台東区,竜泉２丁目１７番１３号,,13,106,1100012,,,2026-02-09,清算の結了等,,,2015-10-05,1,,,,,ミズモトサケテン,0
1884,8010601044313,登記記録の閉鎖等,0,2026-02-19,2026-01-30,株式会社天狐,,株式会社,東京都,江東区,深川１丁目３番１２号出町ビル,,13,108,1350033,,,2026-01-30,合併による解散等,7010601040073,令和８年１月３０日東京都江東区扇橋二丁目１０番９－５０５号株式会社モノクローマ（7010601040073）に合併し解散,2015-10-05,1,,,,,テンコ,0
1902,8011002012264,登記記録の閉鎖等,0,2026-02-19,2026-01-28,有限会社山本商会,,有限会社,東京都,渋谷区,富ヶ谷２丁目２９番１０－２１２号,,13,113,1510063,,,2026-01-28,清算の結了等,,,2015-10-05,1,,,,,ヤマモトショウカイ,0
1905,8011005006718,登記記録の閉鎖等,0,2026-02-19,2026-02-10,特定非営利活動法人日本シブカワ研究所,,その他の設立登記法人,東京都,江東区,豊洲３丁目４番２－１９１４号,,13,108,1350061,,,2026-02-10,清算の結了等,,,2016-04-11,1,,,,,ニホンシブカワケンキュウジョ,0
1917,8011301024019,登記記録の閉鎖等,0,2026-02-19,2026-02-10,株式会社ＫＤ　ｆｕｒｎｉｔｕｒｅ,,株式会社,東京都,杉並区,上荻１丁目２番１号,,13,115,1670043,,,2026-02-10,清算の結了等,,,2018-04-11,1,,,,,ケイディファニチャー,0
1927,8011802020391,登記記録の閉鎖等,0,2026-02-19,2026-02-17,有限会社若林電設,,有限会社,東京都,足立区,江北６丁目６番１２号,,13,121,1230872,,,2026-02-17,清算の結了等,,,2015-10-05,1,,,,,ワカバヤシデンセツ,0
1930,8012403004635,登記記録の閉鎖等,0,2026-02-19,2026-02-13,合同会社Ｉｖｙｆｌｏｗ,,合同会社,東京都,三鷹市,牟礼７丁目６番３８号,,13,204,1810002,,,2026-02-13,清算の結了等,,,2020-12-24,1,,,,,アイビーフロウ,0
1947,8030001029284,登記記録の閉鎖等,0,2026-02-19,2026-02-12,株式会社Ｋ,,株式会社,埼玉県,所沢市,大字南永井１１４３番地,,11,208,3590011,,,2026-02-12,清算の結了等,,,2015-10-05,1,,,,,ケー,0
1952,8030002114564,登記記録の閉鎖等,0,2026-02-19,2026-02-09,有限会社清建,,有限会社,埼玉県,熊谷市,葛和田１８３３番地,,11,202,3600222,,,2026-02-09,清算の結了等,,,2015-10-05,1,,,,,キヨケン,0
1970,8070002030287,登記記録の閉鎖等,0,2026-02-19,2026-02-16,有限会社長倉製作所,,有限会社,群馬県,邑楽郡邑楽町,大字中野２０１１番地の４,,10,525,3700603,,,2026-02-16,清算の結了等,,,2015-10-05,1,,,,,ナガクラセイサクジョ,0
1979,8080402019202,登記記録の閉鎖等,0,2026-02-19,2026-02-13,松下プロジェクトハウス有限会社,,有限会社,静岡県,御前崎市,合戸２１９５番地,,22,223,4371613,,,2026-02-13,清算の結了等,,,2015-10-05,1,,,,,マツシタプロジェクトハウス,0
1992,8110005002007,登記記録の閉鎖等,0,2026-02-19,2026-02-12,医療法人社団大坂医院,,その他の設立登記法人,新潟県,新潟市秋葉区,新町１丁目６番１２号,,15,105,9560862,,,2026-02-12,清算の結了等,,,2015-10-05,1,,,,,オオサカイイン,0
2019,8140001101759,登記記録の閉鎖等,0,2026-02-19,2026-02-17,Ｓ＆Ｙ　Ｇｌｏｂａｌ　Ｊａｐａｎ株式会社,,株式会社,兵庫県,神戸市中央区,栄町通１丁目１番２４－３０１号,,28,110,6500023,,,2026-02-17,清算の結了等,,,2016-04-21,1,,,,,エスアンドワイグローバルジャパン,0
2048,8190003005094,登記記録の閉鎖等,0,2026-02-19,2026-02-16,ＳｕｎＶｅｌｏｕｒａ合同会社,,合同会社,三重県,鈴鹿市,稲生西２丁目１１番１１号,,24,207,5100204,,,2026-02-16,清算の結了等,,,2025-07-04,1,,,,,サンヴェローラ,0
2049,8190005010324,登記記録の閉鎖等,0,2026-02-19,2026-02-17,一般社団法人小規模ケア研究会,,その他の設立登記法人,三重県,津市,殿村１５５３番地,,24,201,5140073,,,2026-02-17,清算の結了等,,,2015-10-05,1,,,,,ショウキボケアケンキュウカイ,0
2051,8200001021769,登記記録の閉鎖等,0,2026-02-19,2026-02-16,株式会社ゴトウブロイラー,,株式会社,岐阜県,瑞浪市,稲津町小里１８４２番地,,21,208,5096103,,,2026-02-16,清算の結了等,,,2015-10-05,1,,,,,,0
2053,8200002009598,登記記録の閉鎖等,0,2026-02-19,2026-02-13,有限会社タマキ園芸,,有限会社,岐阜県,本巣市,軽海９７５番地の２,,21,218,5010465,,,2026-02-13,清算の結了等,,,2015-10-05,1,,,,,タマキ,0
2061,8240001063089,登記記録の閉鎖等,0,2026-02-19,2026-02-16,昭和産業株式会社,,株式会社,広島県,福山市,東川口町３丁目９番２０号,,34,207,7200821,,,2026-02-16,清算の結了等,,,2024-04-16,1,,,,,ショウワサンギョウ,0
2093,8430001036026,登記記録の閉鎖等,0,2026-02-19,2026-02-16,株式会社ダイセン,,株式会社,北海道,札幌市北区,新琴似一条３丁目３番１３号,,01,102,0010901,,,2026-02-16,清算の結了等,,,2015-10-05,1,,,,,ダイセン,0
2103,9010001066452,登記記録の閉鎖等,0,2026-02-19,2026-02-09,株式会社アスモ,,株式会社,東京都,中央区,日本橋３丁目２番１４号,,13,102,1030027,,,2026-02-09,清算の結了等,,,2015-10-05,1,,,,,アスモ,0
2118,9010401167239,登記記録の閉鎖等,0,2026-02-19,2026-01-20,株式会社高輪屋,00126564,株式会社,東京都,港区,高輪４丁目１８番２０号コトー高輪２０４,,13,103,1080074,,,2026-01-20,清算の結了等,,,2022-05-16,1,,,,,タカナワヤ,0
2144,9010403027052,登記記録の閉鎖等,0,2026-02-19,2026-01-28,サイガワソーラー合同会社,,合同会社,東京都,港区,虎ノ門３丁目２２番１０－２０１号,,13,103,1050001,,,2026-01-28,清算の結了等,,,2022-02-08,1,,,,,サイガワソーラー,0
2162,9011001004633,登記記録の閉鎖等,0,2026-02-19,2026-01-27,株式会社オー・エム・エー,,株式会社,東京都,渋谷区,渋谷２丁目８番７号,,13,113,1500002,,,2026-01-27,清算の結了等,,,2015-10-05,1,,,,,オーエムエー,0
2170,9011101004310,登記記録の閉鎖等,0,2026-02-19,2026-02-13,株式会社オフィスゲン,,株式会社,神奈川県,茅ヶ崎市,東海岸南６丁目４番３７－Ｂ－２０１号パシフィックガーデン茅ヶ崎,,14,207,2530054,,,2026-02-13,清算の結了等,,,2015-10-05,1,,,,,オフィスゲン,0
2175,9011201025850,登記記録の閉鎖等,0,2026-02-19,2026-01-26,株式会社嘉佑,,株式会社,東京都,新宿区,高田馬場３丁目１２番２７－２０５号,,13,104,1690075,,,2026-01-26,清算の結了等,,,2024-10-10,1,,,,,カユウ,0
2177,9011403002342,登記記録の閉鎖等,0,2026-02-19,2026-02-05,Ｓｐｒｉｎｇ合同会社,,合同会社,神奈川県,横浜市鶴見区,鶴見中央３丁目６－２－２,,14,101,2300051,,,2026-02-05,清算の結了等,,,2018-03-14,1,,,,,スプリング,0
2180,9011701016366,登記記録の閉鎖等,0,2026-02-19,2026-02-12,株式会社カクヨシ食品,,株式会社,埼玉県,春日部市,中央３丁目５番１４号サンウエスティン春日部１０３号,,11,214,3440067,,,2026-02-12,清算の結了等,,,2015-10-05,1,,,,,カクヨシショクヒン,0
2191,9012805001304,登記記録の閉鎖等,0,2026-02-19,2026-02-12,特定非営利活動法人オアシスらんど,,その他の設立登記法人,東京都,立川市,錦町１丁目１０番２６号シンエイビル７階,,13,202,1900022,,,2026-02-12,清算の結了等,,,2015-10-05,1,,,,,オアシスランド,0
2192,9013202007976,登記記録の閉鎖等,0,2026-02-19,2026-01-28,有限会社バイオーガニック研究所,,有限会社,東京都,目黒区,碑文谷６丁目１４番９号,,13,110,1520003,,,2026-01-28,清算の結了等,,,2015-10-05,1,,,,,バイオーガニックケンキュウショ,0
2197,9013305003534,登記記録の閉鎖等,0,2026-02-19,2026-02-13,一般社団法人日本ティースジュエリー協会,,その他の設立登記法人,東京都,豊島区,目白３丁目１３番５号,,13,116,1710031,,,2026-02-13,清算の結了等,,,2023-10-23,1,,,,,ニホンティースジュエリーキョウカイ,0
2198,9020001047055,登記記録の閉鎖等,0,2026-02-19,2026-02-03,相鉄イン株式会社,,株式会社,神奈川県,横浜市西区,北幸２丁目９番１４号,,14,103,2200004,,,2026-02-03,合併による解散等,6020001122389,令和８年２月１日横浜市西区北幸二丁目９番１４号株式会社相鉄ホテルマネジメント（6020001122389）に合併し解散,2015-10-05,1,,,,,ソウテツイン,0
2203,9020002059339,登記記録の閉鎖等,0,2026-02-19,2026-02-18,有限会社アークス,,有限会社,岡山県,岡山市北区,平野６２２番地８（２Ｉ号室）,,33,101,7010151,,,2026-02-18,清算の結了等,,,2015-10-05,1,,,,,アークス,0
2223,9030005017598,登記記録の閉鎖等,0,2026-02-19,2026-02-10,一般社団法人草加市建設業振興会,,その他の設立登記法人,埼玉県,草加市,長栄１丁目６２８番地１,,11,221,3400051,,,2026-02-10,清算の結了等,,,2015-10-05,1,,,,,ソウカシケンセツギョウシンコウカイ,0
2226,9040002033903,登記記録の閉鎖等,0,2026-02-19,2026-01-29,有限会社小出ニット,,有限会社,千葉県,市川市,堀之内２丁目２５番２２号,,12,203,2720837,,,2026-01-29,清算の結了等,,,2015-10-05,1,,,,,コイデニット,0
2231,9060002028216,登記記録の閉鎖等,0,2026-02-19,2026-02-17,有限会社北関東新聞社,,有限会社,栃木県,小山市,西城南４丁目３２番地２８,,09,208,3230820,,,2026-02-17,清算の結了等,,,2026-02-04,1,,,,,キタカントウシンブンシャ,0
2251,9120001021743,登記記録の閉鎖等,0,2026-02-19,2026-02-12,株式会社丸信商店,,株式会社,大阪府,大阪市平野区,加美北１丁目４番１５号,,27,126,5470001,,,2026-02-12,清算の結了等,,,2015-10-05,1,,,,,マルシンショウテン,0
2253,9120001087487,登記記録の閉鎖等,0,2026-02-19,2026-02-16,株式会社バリーポンド,,株式会社,大阪府,大阪市中央区,高津２丁目７番３号,,27,128,5420072,,,2026-02-16,清算の結了等,,,2015-10-05,1,,,,,,0
2256,9120001122153,登記記録の閉鎖等,0,2026-02-19,2026-02-16,株式会社ダイニングパートナーズ,,株式会社,大阪府,大阪市北区,西天満４丁目６番１４号ＩＦＰスタジオ梅田２Ｆ,,27,127,5300047,,,2026-02-16,清算の結了等,,,2015-10-05,1,,,,,ダイニングパートナーズ,0
2258,9120001209082,登記記録の閉鎖等,0,2026-02-19,2026-01-28,株式会社デジタルフロンティア,,株式会社,東京都,渋谷区,桜丘町２３番１７号シティコート桜丘４０８,,13,113,1500031,,,2026-01-28,清算の結了等,,,2017-10-25,1,,,,,デジタルフロンティア,0
2260,9120001258385,登記記録の閉鎖等,0,2026-02-19,2026-02-16,株式会社Ｒｅｆｉｎｅ,,株式会社,大阪府,枚方市,牧野阪２丁目１９番１６号,,27,210,5731146,,,2026-02-16,清算の結了等,,,2023-09-28,1,,,,,リファイン,0
2264,9120001273203,登記記録の閉鎖等,0,2026-02-19,2026-02-13,ショウレイ株式会社,,株式会社,大阪府,大阪市中央区,北久宝寺町１丁目５番６号３１５号室,,27,128,5410057,,,2026-02-13,清算の結了等,,,2025-02-26,1,,,,,ショウレイ,0
2273,9120002074798,登記記録の閉鎖等,0,2026-02-19,2026-02-16,ピボット有限会社,,有限会社,大阪府,枚方市,西船橋２丁目７番５－１０３号,,27,210,5731122,,,2026-02-16,清算の結了等,,,2015-10-05,1,,,,,ピボット,0
2274,9120003017070,登記記録の閉鎖等,0,2026-02-19,2026-02-16,合同会社デクリックサポート,,合同会社,大阪府,大阪市中央区,内本町２丁目４番１６号,,27,128,5400026,,,2026-02-16,清算の結了等,,,2020-03-02,1,,,,,デクリックサポート,0
2289,9140001049956,登記記録の閉鎖等,0,2026-02-19,2026-02-16,株式会社丹波屋,,株式会社,兵庫県,尼崎市,玄番北之町４３番地,,28,202,6600872,,,2026-02-16,清算の結了等,,,2015-10-05,1,,,,,タンバヤ,0
2295,9180001022587,登記記録の閉鎖等,0,2026-02-19,2026-02-06,株式会社ニューエストエンジニアリング,,株式会社,愛知県,名古屋市熱田区,沢上２丁目５番２６号,,23,109,4560012,,,2026-02-06,清算の結了等,,,2015-10-05,1,,,,,ニューエストエンジニアリング,0
2300,9180001126248,登記記録の閉鎖等,0,2026-02-19,2026-02-12,株式会社ＤＥＮ’Ｓ,,株式会社,愛知県,名古屋市天白区,野並３丁目３１１番地,,23,116,4680045,,,2026-02-12,清算の結了等,,,2017-01-18,1,,,,,デンズ,0
2305,9180002004171,登記記録の閉鎖等,0,2026-02-19,2026-02-16,有限会社後藤電気工事,,有限会社,愛知県,名古屋市守山区,太田井４番２７号,,23,113,4630044,,,2026-02-16,清算の結了等,,,2015-10-05,1,,,,,ゴトウデンキコウジ,0
2337,9290002000853,登記記録の閉鎖等,0,2026-02-19,2026-02-13,有限会社波多江白蟻工事所,,有限会社,福岡県,福岡市西区,福重４丁目１１番８号,,40,135,8190022,,,2026-02-13,清算の結了等,,,2015-10-05,1,,,,,ハタエシロアリコウジショ,0
2353,9380003001255,登記記録の閉鎖等,0,2026-02-19,2026-02-12,合資会社メガネの松本,,合資会社,福島県,いわき市,平字大館９番地の６,,07,204,9708026,,,2026-02-12,清算の結了等,,,2015-10-05,1,,,,,メガネノマツモト,0
