sequenceNumber,corporateNumber,process,correct,updateDate,changeDate,name,nameImageId,kind,prefectureName,cityName,streetNumber,addressImageId,prefectureCode,cityCode,postCode,addressOutside,addressOutsideImageId,closeDate,closeCause,successorCorporateNumber,changeCause,assignmentDate,latest,enName,enPrefectureName,enCityName,enAddressOutside,furigana,hihyoji
2,1010001023139,登記記録の閉鎖等,0,2025-07-25,2025-06-30,株式会社ツールボックス,,株式会社,東京都,千代田区,神田小川町１丁目１０番２号,,13,101,1010052,,,2025-06-30,清算の結了等,,,2015-10-05,1,,,,,ツールボックス,0
7,1010001203079,登記記録の閉鎖等,0,2025-07-25,2025-06-24,株式会社レイワン,,株式会社,東京都,中央区,日本橋蛎殻町１丁目２－７,,13,102,1030014,,,2025-06-24,清算の結了等,,,2019-08-07,1,,,,,レイワン,0
23,1010601001898,登記記録の閉鎖等,0,2025-07-25,2025-07-09,斎喜工業株式会社,,株式会社,東京都,江東区,亀戸９丁目３番１０号,,13,108,1360071,,,2025-07-09,清算の結了等,,,2015-10-05,1,,,,,サイキコウギョウ,0
25,1010601038370,登記記録の閉鎖等,0,2025-07-25,2025-07-09,株式会社リーベックス,,株式会社,東京都,江東区,住吉２丁目２６番７号,,13,108,1350002,,,2025-07-09,清算の結了等,,,2015-10-05,1,,,,,リーベックス,0
61,1013102001310,登記記録の閉鎖等,0,2025-07-25,2025-07-01,有限会社ちんか,,有限会社,東京都,羽村市,小作台１丁目２番地の１６,,13,227,2050001,,,2025-07-01,清算の結了等,,,2015-10-05,1,,,,,チンカ,0
91,1030002104902,登記記録の閉鎖等,0,2025-07-25,2025-07-18,有限会社珍栄食品,,有限会社,埼玉県,川口市,栄町３丁目５番１６号,,11,203,3320017,,,2025-07-18,清算の結了等,,,2015-10-05,1,,,,,チンエイショクヒン,0
100,1040001125122,登記記録の閉鎖等,0,2025-07-25,2025-07-03,ＥＤＧＥコレクション株式会社,,株式会社,千葉県,千葉市稲毛区,小深町１０８番地１,,12,103,2630003,,,2025-07-03,清算の結了等,,,2022-09-21,1,,,,,エッジコレクション,0
108,1060002034766,登記記録の閉鎖等,0,2025-07-25,2025-07-10,有限会社光空調システム,,有限会社,栃木県,下都賀郡壬生町,大字壬生丁２１２番地４,,09,361,3210216,,,2025-07-10,清算の結了等,,,2015-10-05,1,,,,,ヒカリクウチョウシステム,0
113,1080101021143,登記記録の閉鎖等,0,2025-07-25,2025-07-22,株式会社アソビゴコロ,,株式会社,静岡県,伊豆の国市,南條７５７番地の１,,22,225,4102114,,,2025-07-22,清算の結了等,,,2019-05-20,1,,,,,アソビゴコロ,0
120,1100003002024,登記記録の閉鎖等,0,2025-07-25,2025-07-16,合名會社丸山製綿所,,合名会社,長野県,安曇野市,明科中川手３９２９番地１,,20,220,3997102,,,2025-07-16,清算の結了等,,,2015-10-05,1,,,,,マルヤマセイメンジョ,0
136,1120003015379,登記記録の閉鎖等,0,2025-07-25,2025-07-15,合同会社ＮＹＴインベストメント,,合同会社,兵庫県,芦屋市,春日町９番１－３１５号,,28,206,6590021,,,2025-07-15,清算の結了等,,,2019-02-28,1,,,,,エヌワイティーインベストメント,0
181,1180002020341,登記記録の閉鎖等,0,2025-07-25,2025-07-07,有限会社沢上サンドブラスト工業所,,有限会社,愛知県,名古屋市中川区,好本町１丁目５０番地,,23,110,4540825,,,2025-07-07,清算の結了等,,,2015-10-05,1,,,,,サワカミサンドブラストコウギョウショ,0
183,1180002058290,登記記録の閉鎖等,0,2025-07-25,2025-07-03,有限会社トーカイ,,有限会社,愛知県,名古屋市中川区,吉津４丁目９０７番地,,23,110,4540981,,,2025-07-03,清算の結了等,,,2015-10-05,1,,,,,トウカイ,0
189,1200001008137,登記記録の閉鎖等,0,2025-07-25,2025-07-14,服部工業株式会社,,株式会社,岐阜県,岐阜市,柳津町栄町１５１番地,,21,201,5016101,,,2025-07-14,清算の結了等,,,2015-10-05,1,,,,,ハットリコウギョウ,0
203,1220001012005,登記記録の閉鎖等,0,2025-07-25,2025-07-17,株式会社コマツクリーン,,株式会社,石川県,小松市,四丁町ヘ４３番地１２,,17,203,9230971,,,2025-07-17,清算の結了等,,,2015-10-05,1,,,,,コマツクリーン,0
206,1230001005783,登記記録の閉鎖等,0,2025-07-25,2025-07-23,富山電設株式会社,,株式会社,富山県,富山市,上赤江町１丁目１６番４６号,,16,201,9300816,,,2025-07-23,清算の結了等,,,2015-10-05,1,,,,,トヤマデンセツ,0
210,1230002014073,登記記録の閉鎖等,0,2025-07-25,2025-07-22,有限会社田中薬品商会,,有限会社,富山県,射水市,安吉２４９番地,,16,211,9390242,,,2025-07-22,清算の結了等,,,2015-10-05,1,,,,,タナカヤクヒンショウカイ,0
215,1250002011333,登記記録の閉鎖等,0,2025-07-25,2025-07-16,有限会社ヤマザキ,,有限会社,山口県,下関市,稗田南町１０番２８号,,35,201,7510854,,,2025-07-16,清算の結了等,,,2015-10-05,1,,,,,ヤマザキ,0
217,1260001017958,登記記録の閉鎖等,0,2025-07-25,2025-07-03,瀬戸内貨物株式会社,,株式会社,岡山県,浅口市,鴨方町本庄６３９番地の４,,33,216,7190232,,,2025-07-03,清算の結了等,,,2015-10-05,1,,,,,セトウチカモツ,0
228,1310002005840,登記記録の閉鎖等,0,2025-07-25,2025-07-16,有限会社山岳エンジニアリング,,有限会社,長崎県,長崎市,金堀町１４番２３号,,42,201,8528026,,,2025-07-16,清算の結了等,,,2015-10-05,1,,,,,ヤマタケエンジニアリング,0
234,1330001020509,登記記録の閉鎖等,0,2025-07-25,2025-07-07,株式会社新星不動産,,株式会社,熊本県,熊本市中央区,神水１丁目２６番５号,,43,101,8620954,,,2025-07-07,清算の結了等,,,2015-10-05,1,,,,,シンセイフドウサン,0
247,1380001000927,登記記録の閉鎖等,0,2025-07-25,2025-07-17,株式会社ＴＩＣ,,株式会社,福島県,福島市,渡利字天神２７番地の１７ロケットビル２Ｂ,,07,201,9608141,,,2025-07-17,清算の結了等,,,2015-10-05,1,,,,,ティアイシー,0
253,1410002000179,登記記録の閉鎖等,0,2025-07-25,2025-07-22,アサヒ物産有限会社,,有限会社,秋田県,秋田市,南通築地４番１０号アークシティ築地第２、７０１号,,05,201,0100013,,,2025-07-22,清算の結了等,,,2015-10-05,1,,,,,アサヒブッサン,0
256,1470002011014,登記記録の閉鎖等,0,2025-07-25,2025-07-17,有限会社河野,,有限会社,香川県,木田郡三木町,大字氷上１５０７番地５,,37,341,7610612,,,2025-07-17,清算の結了等,,,2015-10-05,1,,,,,コウノ,0
258,1490002007596,登記記録の閉鎖等,0,2025-07-25,2025-07-22,有限会社富企画,,有限会社,高知県,高知市,堺町１３番１１号アクティパラダイスビルＢＦ,,39,201,7800834,,,2025-07-22,清算の結了等,,,2015-10-05,1,,,,,トミキカク,0
279,2010003017278,登記記録の閉鎖等,0,2025-07-25,2025-06-30,合同会社ｌｅｖｅｌ,,合同会社,東京都,文京区,白山２丁目３７番９号,,13,105,1120001,,,2025-06-30,清算の結了等,,,2015-10-05,1,,,,,レヴェル,0
301,2010601006797,登記記録の閉鎖等,0,2025-07-25,2025-07-09,株式会社モトイ,,株式会社,東京都,江東区,北砂５丁目１５番１４号,,13,108,1360073,,,2025-07-09,清算の結了等,,,2015-10-05,1,,,,,モトイ,0
309,2010602026225,登記記録の閉鎖等,0,2025-07-25,2025-07-09,有限会社寺山ガーデン,,有限会社,東京都,江東区,亀戸１丁目２９番１１号,,13,108,1360071,,,2025-07-09,清算の結了等,,,2015-10-05,1,,,,,テラヤマガーデン,0
324,2011105006796,登記記録の閉鎖等,0,2025-07-25,2025-06-30,一般社団法人宇都宮西川田,,その他の設立登記法人,東京都,新宿区,四谷４丁目３２番８号ＹＫＢサニービル６階,,13,104,1600004,,,2025-06-30,清算の結了等,,,2015-10-05,1,,,,,ウツノミヤニシカワタ,0
333,2011801040256,登記記録の閉鎖等,0,2025-07-25,2025-07-18,煦庭商事株式会社,,株式会社,埼玉県,川口市,芝中田１丁目３５番地１０,,11,203,3330847,,,2025-07-18,清算の結了等,,,2022-02-04,1,,,,,クテイショウジ,0
337,2012401036644,登記記録の閉鎖等,0,2025-07-25,2025-07-10,株式会社レックスダービージャパン,,株式会社,東京都,府中市,浅間町４丁目２－３０－３０８,,13,206,1830001,,,2025-07-10,清算の結了等,,,2020-06-17,1,,,,,レックスダービージャパン,0
342,2012802011139,登記記録の閉鎖等,0,2025-07-25,2025-07-01,有限会社ファンデックス,,有限会社,東京都,東村山市,恩多町５丁目３３番３,,13,213,1890011,,,2025-07-01,合併による解散等,5012801006905,令和７年７月１日東京都東村山市恩多町五丁目３３番３株式会社エフデイ（5012801006905）に合併し解散,2015-10-05,1,,,,,ファンデックス,0
353,2020002017170,登記記録の閉鎖等,0,2025-07-25,2025-07-03,有限会社成田理髪店,,有限会社,神奈川県,横浜市西区,平沼１丁目５番１８号,,14,103,2200023,,,2025-07-03,清算の結了等,,,2025-05-15,1,,,,,,0
358,2021001019950,登記記録の閉鎖等,0,2025-07-25,2025-07-16,杉本電気株式会社厚木,,株式会社,神奈川県,厚木市,松枝２丁目５番１０号,,14,212,2430005,,,2025-07-16,清算の結了等,,,2015-10-05,1,,,,,スギモトデンキアツギ,0
359,2021001078864,登記記録の閉鎖等,0,2025-07-25,2025-07-22,株式会社ＨＵＭＡＮＥ　ＮＵＲＳＥ,,株式会社,神奈川県,横須賀市,ハイランド４丁目５番４号,,14,201,2390833,,,2025-07-22,清算の結了等,,,2023-05-02,1,,,,,ヒュメインナース,0
364,2030001071127,登記記録の閉鎖等,0,2025-07-25,2025-07-18,マレリマシーンワークス株式会社,,株式会社,埼玉県,比企郡吉見町,大字久米田６２８番地,,11,347,3550153,,,2025-07-18,清算の結了等,,,2015-10-05,1,,,,,マレリマシーンワークス,0
392,2060005001647,登記記録の閉鎖等,0,2025-07-25,2025-07-10,協同組合氏家高圧ガス保安センター,,その他の設立登記法人,栃木県,さくら市,氏家２３７１番地,,09,214,3291311,,,2025-07-10,清算の結了等,,,2015-10-05,1,,,,,ウジイエコウアツガスホアンセンター,0
404,2080102016488,登記記録の閉鎖等,0,2025-07-25,2025-07-18,有限会社遠藤設備,,有限会社,静岡県,富士宮市,万野原新田３１０８番地の１３,,22,207,4180001,,,2025-07-18,清算の結了等,,,2015-10-05,1,,,,,エンドウセツビ,0
414,2100002032450,登記記録の閉鎖等,0,2025-07-25,2025-07-18,有限会社池上電器,,有限会社,長野県,伊那市,荒井２９番地,,20,209,3960025,,,2025-07-18,清算の結了等,,,2015-10-05,1,,,,,イケガミデンキ,0
436,2120005019204,登記記録の閉鎖等,0,2025-07-25,2025-07-23,医療法人美龍会,,その他の設立登記法人,大阪府,大阪市中央区,安堂寺町２丁目６番３号アイズワンＩＩＩ２階,00108994,27,128,5420061,,,2025-07-23,清算の結了等,,,2017-01-19,1,,,,,ビリュウカイ,0
440,2120102023281,登記記録の閉鎖等,0,2025-07-25,2025-07-10,有限会社誓眞設計,,有限会社,大阪府,岸和田市,土生滝町４４９番地,,27,202,5960844,,,2025-07-10,清算の結了等,,,2015-10-05,1,,,,,セイシンセッケイ,0
452,2140001022655,登記記録の閉鎖等,0,2025-07-25,2025-07-10,株式会社マールズ,,株式会社,兵庫県,神戸市北区,藤原台南町４丁目１５番５号,,28,109,6511303,,,2025-07-10,清算の結了等,,,2015-10-05,1,,,,,マールズ,0
454,2140001067428,登記記録の閉鎖等,0,2025-07-25,2025-07-14,株式会社ＡＭＯＮ,,株式会社,兵庫県,神戸市中央区,山本通２丁目１４番２１号パールマンション４０１,,28,110,6500003,,,2025-07-14,清算の結了等,,,2015-10-05,1,,,,,アモン,0
475,2180001115042,登記記録の閉鎖等,0,2025-07-25,2025-07-18,株式会社あいち調剤,,株式会社,愛知県,名古屋市南区,道徳通３丁目４３番地,,23,112,4570846,,,2025-07-18,合併による解散等,5190001005165,令和７年７月１日三重県鈴鹿市南江島町１４番１号株式会社ダイワコーポレーション（5190001005165）に合併し解散,2015-10-05,1,,,,,アイチチョウザイ,0
488,2190002017336,登記記録の閉鎖等,0,2025-07-25,2025-07-14,有限会社ヨシムラ,,有限会社,三重県,桑名市,本町１２番地,,24,205,5110023,,,2025-07-14,清算の結了等,,,2015-10-05,1,,,,,ヨシムラ,0
489,2190002022336,登記記録の閉鎖等,0,2025-07-25,2025-07-10,村田製陶有限会社,,有限会社,三重県,四日市市,万古町１２番６号,,24,202,5100804,,,2025-07-10,清算の結了等,,,2015-10-05,1,,,,,ムラタセイトウ,0
491,2200001014415,登記記録の閉鎖等,0,2025-07-25,2025-07-18,株式会社山中工務店,,株式会社,岐阜県,大垣市,南高橋町３丁目１０２番地,,21,202,5030873,,,2025-07-18,清算の結了等,,,2015-10-05,1,,,,,,0
492,2200001015660,登記記録の閉鎖等,0,2025-07-25,2025-07-15,縄山建設株式会社,,株式会社,岐阜県,養老郡養老町,飯ノ木１０１０番地１,,21,341,5031325,,,2025-07-15,清算の結了等,,,2015-10-05,1,,,,,ジョウザンケンセツ,0
493,2200002022598,登記記録の閉鎖等,0,2025-07-25,2025-07-18,有限会社ドネ,,有限会社,岐阜県,多治見市,市之倉町７丁目１９２番地の１０９,,21,204,5070814,,,2025-07-18,清算の結了等,,,2015-10-05,1,,,,,ドネ,0
507,2250002007314,登記記録の閉鎖等,0,2025-07-25,2025-07-14,有限会社藤田保険ビジネス,,有限会社,山口県,宇部市,大字上宇部１５０番地の６４,,35,202,7550091,,,2025-07-14,清算の結了等,,,2015-10-05,1,,,,,フジタホケンビジネス,0
508,2250003001191,登記記録の閉鎖等,0,2025-07-25,2025-07-16,合同会社ＹＣＳ,,合同会社,山口県,宇部市,大字際波３５９番地９０,,35,202,7590207,,,2025-07-16,清算の結了等,,,2015-10-05,1,,,,,ワイシーエス,0
511,2260002024820,登記記録の閉鎖等,0,2025-07-25,2025-07-16,有限会社成栄海運,,有限会社,岡山県,笠岡市,高島４６３９番地の２,,33,205,7140035,,,2025-07-16,清算の結了等,,,2015-10-05,1,,,,,セイエイカイウン,0
514,2290001020925,登記記録の閉鎖等,0,2025-07-25,2025-07-02,株式会社サンクフル,,株式会社,福岡県,福岡市早良区,田隈３丁目５１番７号,,40,137,8140174,,,2025-07-02,清算の結了等,,,2015-10-05,1,,,,,サンクフル,0
526,2290801011561,登記記録の閉鎖等,0,2025-07-25,2025-07-15,山一建設株式会社,,株式会社,福岡県,中間市,土手ノ内１丁目２４番３号,,40,215,8090033,,,2025-07-15,清算の結了等,,,2015-10-05,1,,,,,ヤマイチケンセツ,0
529,2310002005798,登記記録の閉鎖等,0,2025-07-25,2025-07-22,有限会社やまさ,,有限会社,長崎県,長崎市,古町１５番地,,42,201,8500026,,,2025-07-22,清算の結了等,,,2015-10-05,1,,,,,ヤマサ,0
533,2320001017083,登記記録の閉鎖等,0,2025-07-25,2025-07-22,株式会社熱建クリエイト,,株式会社,東京都,中野区,東中野５丁目１１番８号Ｂ,,13,114,1640003,,,2025-07-22,清算の結了等,,,2019-05-27,1,,,,,ネッケンクリエイト,0
539,2350002009639,登記記録の閉鎖等,0,2025-07-25,2025-07-14,有限会社立川建設,,有限会社,宮崎県,児湯郡川南町,大字川南１３５１１番地９,,45,405,8891301,,,2025-07-14,清算の結了等,,,2015-10-05,1,,,,,タテカワケンセツ,0
554,2430001055907,登記記録の閉鎖等,0,2025-07-25,2025-07-16,株式会社日高高原荘,,株式会社,北海道,沙流郡日高町,本町東１丁目１０９番地の８,,01,601,0552301,,,2025-07-16,清算の結了等,,,2015-10-05,1,,,,,ヒダカコウゲンソウ,0
560,2430005008150,登記記録の閉鎖等,0,2025-07-25,2025-07-07,宗教法人應現寺,,その他の設立登記法人,北海道,積丹郡積丹町,大字入舸町１２３番地,,01,405,0460327,,,2025-07-07,清算の結了等,,,2015-10-05,1,,,,,オウゲンジ,0
561,2462502000108,登記記録の閉鎖等,0,2025-07-25,2025-07-23,オートエイジェンシーナカハタ有限会社,,有限会社,北海道,標津郡中標津町,東十五条南８丁目６番地,,01,692,0861015,,,2025-07-23,清算の結了等,,,2015-10-05,1,,,,,オートエイジェンシーナカハタ,0
562,2470001009396,登記記録の閉鎖等,0,2025-07-25,2025-07-18,株式会社ビデオコム,,株式会社,香川県,坂出市,江尻町１９１番地２７１,,37,203,7620011,,,2025-07-18,清算の結了等,,,2015-10-05,1,,,,,ビデオコム,0
563,2470002010460,登記記録の閉鎖等,0,2025-07-25,2025-07-11,有限会社バイオクリーン,,有限会社,香川県,高松市,木太町２２０６番地１,,37,201,7600080,,,2025-07-11,清算の結了等,,,2015-10-05,1,,,,,バイオクリーン,0
566,3010001029274,登記記録の閉鎖等,0,2025-07-25,2025-06-30,株式会社放送出版エージェンシー,,株式会社,東京都,千代田区,神田神保町２丁目７番地３,,13,101,1010051,,,2025-06-30,清算の結了等,,,2015-10-05,1,,,,,ホウソウシュッパンエージェンシー,0
569,3010001193491,登記記録の閉鎖等,0,2025-07-25,2025-06-30,知積株式会社,,株式会社,東京都,港区,虎ノ門３丁目１９番１０－１１０５号,,13,103,1050001,,,2025-06-30,清算の結了等,,,2018-07-24,1,,,,,チセキ,0
592,3010403021548,登記記録の閉鎖等,0,2025-07-25,2025-06-30,合同会社Ｍｏｒｉ　Ｌａｂｏ,,合同会社,東京都,港区,赤坂６丁目１９－５０レジディア六本木檜町公園２１７号室,,13,103,1070052,,,2025-06-30,清算の結了等,,,2019-10-03,1,,,,,モリラボ,0
606,3010901045016,登記記録の閉鎖等,0,2025-07-25,2025-06-30,株式会社ネクストライフ,,株式会社,東京都,中央区,銀座１丁目２２－１１銀座大竹ビジデンス２Ｆ,,13,102,1040061,,,2025-06-30,清算の結了等,,,2019-10-09,1,,,,,ネクストライフ,0
608,3011001001727,登記記録の閉鎖等,0,2025-07-25,2025-06-26,株式会社あるて出版,,株式会社,東京都,渋谷区,元代々木町１４番地３,,13,113,1510062,,,2025-06-26,清算の結了等,,,2015-10-05,1,,,,,アルテシュッパン,0
609,3011001016469,登記記録の閉鎖等,0,2025-07-25,2025-07-22,東京福祉開発株式会社,,株式会社,東京都,渋谷区,円山町２４番６号神泉共栄ビル,,13,113,1500044,,,2025-07-22,清算の結了等,,,2015-10-05,1,,,,,トウキョウフクシカイハツ,0
632,3012802007664,登記記録の閉鎖等,0,2025-07-25,2025-07-08,有限会社スイフト,,有限会社,東京都,立川市,栄町５丁目１３番地の１４,,13,202,1900003,,,2025-07-08,清算の結了等,,,2015-10-05,1,,,,,,0
649,3021002019115,登記記録の閉鎖等,0,2025-07-25,2025-07-01,有限会社カタギリ,,有限会社,神奈川県,相模原市中央区,矢部３丁目１８番４号,,14,152,2520232,,,2025-07-01,合併による解散等,4021002028189,令和７年７月１日神奈川県相模原市中央区矢部三丁目１８番４号２０１号株式会社Ｈｏｐ．ｊ（4021002028189）に合併し解散,2015-10-05,1,,,,,カタギリ,0
653,3021002054145,登記記録の閉鎖等,0,2025-07-25,2025-07-14,有限会社あいあい,,有限会社,神奈川県,小田原市,中町２丁目９番３０号,,14,206,2500005,,,2025-07-14,清算の結了等,,,2015-10-05,1,,,,,アイアイ,0
670,3030002021393,登記記録の閉鎖等,0,2025-07-25,2025-07-17,有限会社田沢化学,,有限会社,埼玉県,さいたま市岩槻区,大字末田１６３５番地１,,11,110,3390021,,,2025-07-17,清算の結了等,,,2015-10-05,1,,,,,,0
671,3030002059070,登記記録の閉鎖等,0,2025-07-25,2025-07-16,有限会社中山組,,有限会社,埼玉県,朝霞市,大字上内間木４９９番地１５,,11,227,3510001,,,2025-07-16,清算の結了等,,,2015-10-05,1,,,,,ナカヤマグミ,0
672,3030002067866,登記記録の閉鎖等,0,2025-07-25,2025-07-17,有限会社ウォーター・ワークス,,有限会社,埼玉県,加須市,多門寺１８３番地２,,11,210,3470012,,,2025-07-17,清算の結了等,,,2015-10-05,1,,,,,ウォーターワークス,0
673,3030002111392,登記記録の閉鎖等,0,2025-07-25,2025-07-17,有限会社ミカタ設計,,有限会社,埼玉県,川口市,飯原町１番２１号,,11,203,3320024,,,2025-07-17,清算の結了等,,,2015-10-05,1,,,,,ミカタセッケイ,0
674,3030002118933,登記記録の閉鎖等,0,2025-07-25,2025-07-17,有限会社ハーベスト,,有限会社,埼玉県,熊谷市,新堀新田５４２番地１４,,11,202,3600842,,,2025-07-17,清算の結了等,,,2015-10-05,1,,,,,ハーベスト,0
679,3030005014403,登記記録の閉鎖等,0,2025-07-25,2025-07-17,医療法人社団　グリーンハート,,その他の設立登記法人,埼玉県,行田市,大字埼玉４７１９番地,,11,206,3610025,,,2025-07-17,清算の結了等,,,2015-10-05,1,,,,,グリーンハート,0
685,3040002034725,登記記録の閉鎖等,0,2025-07-25,2025-07-04,有限会社鈴木モータース,,有限会社,千葉県,市川市,国府台４丁目５番３３号,,12,203,2720827,,,2025-07-04,清算の結了等,,,2015-10-05,1,,,,,スズキモータース,0
689,3040002093390,登記記録の閉鎖等,0,2025-07-25,2025-07-03,有限会社ワン・ステップ,,有限会社,千葉県,柏市,藤ケ谷９７８番地の３,,12,217,2770931,,,2025-07-03,清算の結了等,,,2015-10-05,1,,,,,ワンステップ,0
698,3060002020087,登記記録の閉鎖等,0,2025-07-25,2025-07-10,有限会社コダチ,,有限会社,栃木県,鹿沼市,玉田町６３番地２,,09,205,3220072,,,2025-07-10,清算の結了等,,,2015-10-05,1,,,,,コダチ,0
703,3070002031199,登記記録の閉鎖等,0,2025-07-25,2025-07-14,有限会社ムラオカ,,有限会社,群馬県,太田市,新田木崎町３６９番地２１,,10,205,3700321,,,2025-07-14,清算の結了等,,,2015-10-05,1,,,,,ムラオカ,0
704,3070003000905,登記記録の閉鎖等,0,2025-07-25,2025-07-04,合資会社福島薬局,,合資会社,群馬県,伊勢崎市,本町１５番地６,,10,204,3720047,,,2025-07-04,清算の結了等,,,2015-10-05,1,,,,,フクシマヤッキョク,0
705,3070005009011,登記記録の閉鎖等,0,2025-07-25,2025-07-03,ＮＰＯ法人まちづくり創造,,その他の設立登記法人,群馬県,富岡市,内匠４７５番地３,,10,210,3702331,,,2025-07-03,清算の結了等,,,2015-10-05,1,,,,,マチヅクリソウゾウ,0
707,3080002012669,登記記録の閉鎖等,0,2025-07-25,2025-07-11,有限会社システムＩ．Ｏ,,有限会社,静岡県,静岡市清水区,幸町８番４号,,22,103,4240923,,,2025-07-11,清算の結了等,,,2015-10-05,1,,,,,システムアイオー,0
711,3080401017351,登記記録の閉鎖等,0,2025-07-25,2025-07-16,株式会社ワールドプロジェクト,,株式会社,静岡県,袋井市,小山４０４番地の４,,22,216,4370056,,,2025-07-16,清算の結了等,,,2015-10-05,1,,,,,ワールドプロジェクト,0
735,3120002042711,登記記録の閉鎖等,0,2025-07-25,2025-07-15,有限会社堺東マンション,,有限会社,大阪府,大阪市阿倍野区,帝塚山１丁目２２番３１号,,27,119,5450037,,,2025-07-15,清算の結了等,,,2015-10-05,1,,,,,サカイヒガシマンション,0
736,3120003020146,登記記録の閉鎖等,0,2025-07-25,2025-07-08,ＳＡＢＩＮＡ　ＧＲＯＵＰ合同会社,,合同会社,大阪府,大阪市都島区,中野町２丁目１１番８号ハイライフ中野３０１号,,27,102,5340027,,,2025-07-08,清算の結了等,,,2021-09-08,1,,,,,サビナグループ,0
772,3170003000721,登記記録の閉鎖等,0,2025-07-25,2025-07-17,ジュピター合同会社,,合同会社,和歌山県,和歌山市,冬野１３３２番地の３,,30,201,6400332,,,2025-07-17,清算の結了等,,,2015-10-05,1,,,,,ジュピター,0
788,3180003025511,登記記録の閉鎖等,0,2025-07-25,2025-07-04,合同会社ＴＷＳ,,合同会社,愛知県,名古屋市中村区,名駅４丁目２４番５号第２森ビル４０１,,23,105,4500002,,,2025-07-04,清算の結了等,,,2023-07-24,1,,,,,ティダブルエス,0
828,3350001002239,登記記録の閉鎖等,0,2025-07-25,2025-07-11,七勝産業株式会社,,株式会社,宮崎県,宮崎市,高岡町五町１４９番地,,45,201,8802322,,,2025-07-11,清算の結了等,,,2015-10-05,1,,,,,ナナカツサンギョウ,0
842,3410005005999,登記記録の閉鎖等,0,2025-07-25,2025-07-18,一般社団法人浅舞婦人漬物研究会,,その他の設立登記法人,秋田県,横手市,平鹿町浅舞字福田２１２番地１,,05,203,0130105,,,2025-07-18,清算の結了等,,,2016-06-24,1,,,,,アサマイフジンツケモノケンキュウカイ,0
851,3470001018504,登記記録の閉鎖等,0,2025-07-25,2025-07-17,株式会社ｍｏｖｉＥふぁくとりぃ,,株式会社,香川県,東かがわ市,三本松１８９６番地２,,37,207,7692601,,,2025-07-17,清算の結了等,,,2021-04-27,1,,,,,ムービーファクトリィ,0
852,3490001004915,登記記録の閉鎖等,0,2025-07-25,2025-07-23,四万十川観光開発株式会社,,株式会社,高知県,四万十市,渡川１丁目１０番２５号,,39,210,7870050,,,2025-07-23,清算の結了等,,,2015-10-05,1,,,,,シマントガワカンコウカイハツ,0
866,4010401158639,登記記録の閉鎖等,0,2025-07-25,2025-07-04,ワーク＆スタディ株式会社,,株式会社,宮城県,石巻市,鹿又字嘉右衛門３４５番地,,04,202,9861111,,,2025-07-04,清算の結了等,,,2021-03-10,1,,,,,ワークアンドスタディ,0
868,4010401187646,登記記録の閉鎖等,0,2025-07-25,2025-07-01,株式会社ＡＰ８２ホールディングス,,株式会社,東京都,港区,虎ノ門４丁目１番２８号虎ノ門タワーズオフィス１７階,,13,103,1050001,,,2025-07-01,清算の結了等,,,2025-01-20,1,,,,,エーピーハチジュウニホールディングス,0
886,4010801017758,登記記録の閉鎖等,0,2025-07-25,2025-07-11,株式会社サクスイード,,株式会社,東京都,大田区,仲池上１丁目１６番９号,,13,111,1460081,,,2025-07-11,清算の結了等,,,2015-10-05,1,,,,,サクスイード,0
898,4011003005510,登記記録の閉鎖等,0,2025-07-25,2025-06-25,パク合同会社,,合同会社,東京都,渋谷区,代々木４丁目６２番７パークハウス代々木参宮橋２０３号,,13,113,1510053,,,2025-06-25,清算の結了等,,,2015-10-05,1,,,,,パク,0
909,4011702016790,登記記録の閉鎖等,0,2025-07-25,2025-07-22,有限会社東生プラスチック,,有限会社,静岡県,富士市,松岡２７番地の１,,22,210,4160909,,,2025-07-22,清算の結了等,,,2015-10-05,1,,,,,トウセイプラスチック,0
913,4012401007569,登記記録の閉鎖等,0,2025-07-25,2025-07-16,共立技研株式会社,,株式会社,東京都,調布市,菊野台３丁目１１番地３７,,13,208,1820007,,,2025-07-16,清算の結了等,,,2015-10-05,1,,,,,キョウリツギケン,0
914,4012403002444,登記記録の閉鎖等,0,2025-07-25,2025-07-10,合同会社にしの,,合同会社,東京都,三鷹市,井の頭２丁目７番２３号,,13,204,1810001,,,2025-07-10,清算の結了等,,,2015-10-05,1,,,,,ニシノ,0
919,4013201003915,登記記録の閉鎖等,0,2025-07-25,2025-06-26,株式会社おしゃれさろんミナミ,,株式会社,東京都,目黒区,自由が丘１丁目９番５号,,13,110,1520035,,,2025-06-26,清算の結了等,,,2015-10-05,1,,,,,オシャレサロンミナミ,0
927,4020001063107,登記記録の閉鎖等,0,2025-07-25,2025-07-01,ＤＰテクノロジー・ジャパン株式会社,,株式会社,東京都,千代田区,神田錦町２丁目２番地１・ＫＡＮＤＡ・ＳＱＵＡＲＥ１６Ｆ,,13,101,1010054,,,2025-07-01,合併による解散等,1010001118434,令和７年７月１日東京都千代田区神田錦町二丁目２番地１ＫＡＮＤＡＳＱＵＡＲＥ１６階Ｈｅｘａｇｏｎ　Ｍａｎｕｆａｃｔｕｒｉｎｇ　Ｉｎｔｅｌｌｉｇｅｎｃｅ株式会社（1010001118434）に合併し解散,2015-10-05,1,,,,,ディーピーテクノロジージャパン,0
966,4040005020812,登記記録の閉鎖等,0,2025-07-25,2025-07-02,一般社団法人Ｓｏｍｅｉｎｏ　Ｉｎｎｏｖａｔｉｏｎ　Ｆａｒｍ,,その他の設立登記法人,千葉県,佐倉市,王子台２丁目２７番地６山口ビル２階,,12,212,2850837,,,2025-07-02,清算の結了等,,,2020-05-19,1,,,,,ソメイノイノベーションファーム,0
967,4050001005452,登記記録の閉鎖等,0,2025-07-25,2025-07-07,株式会社中村オフィス,,株式会社,茨城県,水戸市,大工町３丁目７番１号,,08,201,3100031,,,2025-07-07,清算の結了等,,,2015-10-05,1,,,,,ナカムラオフィス,0
969,4050001035862,登記記録の閉鎖等,0,2025-07-25,2025-07-04,株式会社亀宗,,株式会社,茨城県,ひたちなか市,勝田中央７番３号,,08,221,3120045,,,2025-07-04,清算の結了等,,,2015-10-05,1,,,,,カメソウ,0
972,4050002007646,登記記録の閉鎖等,0,2025-07-25,2025-07-09,有限会社水戸アニメーション制作所,,有限会社,茨城県,水戸市,南町３丁目１番２７号,,08,201,3100021,,,2025-07-09,清算の結了等,,,2015-10-05,1,,,,,ミトアニメーションセイサクジョ,0
982,4080102016767,登記記録の閉鎖等,0,2025-07-25,2025-07-18,有限会社三和産業,,有限会社,静岡県,富士宮市,山宮９７４番地の７,,22,207,4180111,,,2025-07-18,清算の結了等,,,2015-10-05,1,,,,,サンワサンギョウ,0
983,4080103002659,登記記録の閉鎖等,0,2025-07-25,2025-07-10,合同会社Ｓａｎｄｙ　Ｆｅｅｔ　Ｐａｒｔｎｅｒｓ,,合同会社,静岡県,下田市,白浜２３５６番地の１０,,22,219,4150012,,,2025-07-10,清算の結了等,,,2022-09-28,1,,,,,サンディフィートパートナーズ,0
989,4080402001774,登記記録の閉鎖等,0,2025-07-25,2025-07-16,有限会社岡田畳店,,有限会社,静岡県,浜松市中央区,馬郡町２２４２番地,,22,138,4310203,,,2025-07-16,清算の結了等,,,2015-10-05,1,,,,,オカダタタミテン,0
998,4100005011730,登記記録の閉鎖等,0,2025-07-25,2025-07-16,特定非営利活動法人飯田ブルーベリー振興会,,その他の設立登記法人,長野県,飯田市,川路１８４３番地１,,20,205,3992431,,,2025-07-16,清算の結了等,,,2015-10-30,1,,,,,イイダブルーベリーシンコウカイ,0
1001,4110005013107,登記記録の閉鎖等,0,2025-07-25,2025-07-17,医療法人社団河内医院,,その他の設立登記法人,新潟県,南魚沼市,六日町１１９番地,,15,226,9496680,,,2025-07-17,清算の結了等,,,2015-10-05,1,,,,,カワチイイン,0
1021,4120102022942,登記記録の閉鎖等,0,2025-07-25,2025-07-15,有限会社ｒｉｎｇｓｂｅｌｌ．ｎｅｔ,,有限会社,大阪府,貝塚市,窪田１２６番地の４（シャルマンフジ二色の浜５１８号）,,27,208,5970052,,,2025-07-15,清算の結了等,,,2015-10-05,1,,,,,リングズベルドットネット,0
1058,4180301028925,登記記録の閉鎖等,0,2025-07-25,2025-07-22,株式会社ＮＥＸＴ,,株式会社,静岡県,浜松市中央区,砂山町３２４－８第一伊藤ビル６Ｆ,,22,138,4300926,,,2025-07-22,合併による解散等,7120001176457,令和７年７月１日大阪市北区中之島三丁目３番３号中之島三井ビルディング２１Ｆ株式会社リンクスホールディングス（7120001176457）に合併し解散,2016-02-25,1,,,,,ネクスト,0
1060,4180303006053,登記記録の閉鎖等,0,2025-07-25,2025-07-11,合同会社ＩＱＯＬ,,合同会社,愛知県,知立市,新池３丁目５４番地,,23,225,4720005,,,2025-07-11,清算の結了等,,,2024-03-27,1,,,,,イコル,0
1062,4190001028695,登記記録の閉鎖等,0,2025-07-25,2025-07-09,株式会社マーキュリー,,株式会社,三重県,伊勢市,御薗町高向２６２５番地,,24,203,5160805,,,2025-07-09,清算の結了等,,,2021-09-22,1,,,,,マーキュリー,0
1066,4210001018438,登記記録の閉鎖等,0,2025-07-25,2025-07-17,株式会社ｓａｌｏｎ　ｎｏ　ｍｉｋａｔａ,,株式会社,福井県,坂井市,春江町江留上錦１７０番地３,,18,210,9190464,,,2025-07-17,清算の結了等,,,2021-05-07,1,,,,,サロンノミカタ,0
1077,4240005015684,登記記録の閉鎖等,0,2025-07-25,2025-07-14,一般社団法人ＶＯＤエンタメ協会,,その他の設立登記法人,広島県,広島市西区,庚午北４丁目６番２４－５０６号,,34,104,7330821,,,2025-07-14,清算の結了等,,,2023-11-22,1,,,,,ブイオーディーエンタメキョウカイ,0
1087,4290001106235,登記記録の閉鎖等,0,2025-07-25,2025-07-08,株式会社ＳＩＯ,,株式会社,福岡県,福岡市博多区,中洲１丁目３番１５号オンリーワンビル２Ｆ,,40,132,8100801,,,2025-07-08,清算の結了等,,,2024-06-21,1,,,,,,0
1103,4350002013003,登記記録の閉鎖等,0,2025-07-25,2025-07-14,有限会社中茂水産,,有限会社,宮崎県,延岡市,北浦町市振４６番地の２,,45,203,8890302,,,2025-07-14,清算の結了等,,,2015-10-05,1,,,,,ナカモスイサン,0
1116,4380005000391,登記記録の閉鎖等,0,2025-07-25,2025-06-30,協同組合福島睦会,,その他の設立登記法人,福島県,福島市,大町４番１５号,,07,201,9608041,,,2025-06-30,清算の結了等,,,2025-05-23,1,,,,,,0
1121,4430003011427,登記記録の閉鎖等,0,2025-07-25,2025-07-07,札幌Ｖサージャリー合同会社,00119343,合同会社,北海道,札幌市西区,宮の沢三条４丁目１１番５号,,01,107,0630053,,,2025-07-07,清算の結了等,,,2020-03-30,1,,,,,サッポロブイサージャリー,0
1125,5010001020181,登記記録の閉鎖等,0,2025-07-25,2025-07-08,株式会社フェローテックマテリアルテクノロジーズ,,株式会社,東京都,中央区,日本橋２丁目３番４号,,13,102,1030027,,,2025-07-08,合併による解散等,1010001075980,令和７年７月１日東京都中央区日本橋二丁目３番４号株式会社フェローテック（1010001075980）に合併し解散,2015-10-05,1,,,,,フェローテックマテリアルテクノロジーズ,0
1140,5010401163555,登記記録の閉鎖等,0,2025-07-25,2025-07-10,ＳＢＩネオコーポレートサービシーズ株式会社,,株式会社,東京都,港区,六本木１丁目６番１号,,13,103,1060032,,,2025-07-10,合併による解散等,7010401143299,令和７年６月２７日東京都港区六本木一丁目６番１号ＳＢＩインシュアランスラボ株式会社（7010401143299）に合併し解散,2021-11-09,1,,,,,エスビーアイネオコーポレートサービシーズ,0
1182,5011801012376,登記記録の閉鎖等,0,2025-07-25,2025-07-23,緑川住宅設備機器株式会社,,株式会社,東京都,足立区,古千谷本町２丁目１０番６号,,13,121,1210832,,,2025-07-23,清算の結了等,,,2015-10-05,1,,,,,ミドリカワジュウタクセツビキキ,0
1201,5021001046785,登記記録の閉鎖等,0,2025-07-25,2025-07-18,株式会社タイセードー,,株式会社,神奈川県,伊勢原市,伊勢原４丁目６５４番地の４,,14,214,2591131,,,2025-07-18,清算の結了等,,,2015-10-05,1,,,,,,0
1212,5030001116440,登記記録の閉鎖等,0,2025-07-25,2025-07-18,遠大株式会社,,株式会社,埼玉県,富士見市,西みずほ台２丁目１－１セントラルビル３Ｂ号室,,11,235,3540018,,,2025-07-18,清算の結了等,,,2016-09-26,1,,,,,エンダイ,0
1218,5030002115219,登記記録の閉鎖等,0,2025-07-25,2025-07-18,有限会社シンセイ工業,,有限会社,埼玉県,熊谷市,妻沼２００７番地３,,11,202,3600201,,,2025-07-18,清算の結了等,,,2015-10-05,1,,,,,シンセイコウギョウ,0
1236,5080002012403,登記記録の閉鎖等,0,2025-07-25,2025-07-14,有限会社パル,,有限会社,静岡県,静岡市葵区,南１５４１番地の２７,,22,101,4200956,,,2025-07-14,清算の結了等,,,2015-10-05,1,,,,,,0
1238,5080401005610,登記記録の閉鎖等,0,2025-07-25,2025-07-17,株式会社ヤマヒロコーポレーション,,株式会社,静岡県,浜松市中央区,新貝町２２２番地,,22,138,4350023,,,2025-07-17,清算の結了等,,,2015-10-05,1,,,,,ヤマヒロコーポレーション,0
1243,5100001028918,登記記録の閉鎖等,0,2025-07-25,2025-07-16,株式会社クリエートコーポレーション,,株式会社,長野県,長野市,大字三輪１２１５番地１６,,20,201,3800803,,,2025-07-16,清算の結了等,,,2015-12-09,1,,,,,クリエートコーポレーション,0
1244,5100003000882,登記記録の閉鎖等,0,2025-07-25,2025-07-22,合資会社柳田四郎商店,00069792,合資会社,長野県,南佐久郡佐久穂町,大字高野町２９３６番地,,20,309,3840613,,,2025-07-22,清算の結了等,,,2015-10-05,1,,,,,ヤナギダシロウショウテン,0
1251,5120001091807,登記記録の閉鎖等,0,2025-07-25,2025-07-15,株式会社寄木商會,,株式会社,大阪府,大阪市浪速区,敷津西１丁目８番２５号,,27,111,5560015,,,2025-07-15,清算の結了等,,,2015-10-05,1,,,,,ヨリギショウカイ,0
1290,5140002008527,登記記録の閉鎖等,0,2025-07-25,2025-07-15,有限会社近藤商店,,有限会社,兵庫県,神戸市長田区,野田町７丁目２番４号,,28,106,6530051,,,2025-07-15,清算の結了等,,,2015-10-05,1,,,,,コンドウショウテン,0
1292,5160002001240,登記記録の閉鎖等,0,2025-07-25,2025-07-08,有限会社デンタルスタジオ・ウィズ,,有限会社,滋賀県,大津市,今堅田２丁目２４番５号,,25,201,5200241,,,2025-07-08,清算の結了等,,,2015-10-05,1,,,,,デンタルスタジオウィズ,0
1301,5180002004200,登記記録の閉鎖等,0,2025-07-25,2025-07-04,有限会社サンエイ,,有限会社,愛知県,名古屋市千種区,春岡１丁目７番１２号,,23,101,4640848,,,2025-07-04,清算の結了等,,,2015-10-05,1,,,,,サンエイ,0
1335,5250001018367,登記記録の閉鎖等,0,2025-07-25,2025-07-17,株式会社スリーアロー,,株式会社,山口県,美祢市,大嶺町東分１２１５番地１,,35,213,7592212,,,2025-07-17,清算の結了等,,,2020-07-20,1,,,,,スリーアロー,0
1340,5290001059795,登記記録の閉鎖等,0,2025-07-25,2025-07-07,株式会社日本理化学開発,,株式会社,福岡県,福岡市南区,大楠１丁目３５番１８号,,40,134,8150082,,,2025-07-07,清算の結了等,,,2015-10-05,1,,,,,ニホンリカガクカイハツ,0
1357,5330002024926,登記記録の閉鎖等,0,2025-07-25,2025-07-07,有限会社隆栄運送,,有限会社,熊本県,宇土市,新開町１４６５番地,,43,211,8690403,,,2025-07-07,清算の結了等,,,2015-10-05,1,,,,,リュウエイウンソウ,0
1370,5410001012147,登記記録の閉鎖等,0,2025-07-25,2025-07-22,株式会社Ｇ．Ｔ．ＬＡＢＯ．,,株式会社,秋田県,秋田市,雄和新波字新町６９番地,,05,201,0101341,,,2025-07-22,清算の結了等,,,2019-04-05,1,,,,,ジーティーラボ,0
1373,5470001018337,登記記録の閉鎖等,0,2025-07-25,2025-07-17,株式会社Ｙｕｐ,,株式会社,香川県,東かがわ市,三本松１８９６番地２,,37,207,7692601,,,2025-07-17,清算の結了等,,,2021-01-04,1,,,,,ヤップ,0
1381,5500002006717,登記記録の閉鎖等,0,2025-07-25,2025-07-14,有限会社宮田,,有限会社,愛媛県,伊予郡松前町,大字上高柳１３９番地１,,38,401,7913142,,,2025-07-14,清算の結了等,,,2015-10-05,1,,,,,ミヤタ,0
1383,6010001001916,登記記録の閉鎖等,0,2025-07-25,2025-06-30,株式会社鎌田建築設計,,株式会社,東京都,文京区,後楽２丁目３番１０号,,13,105,1120004,,,2025-06-30,清算の結了等,,,2015-10-05,1,,,,,カマダケンチクセッケイ,0
1405,6011001111911,登記記録の閉鎖等,0,2025-07-25,2025-06-25,株式会社ｗｉｎｄｏｗ,,株式会社,東京都,渋谷区,神宮前１丁目４番２０号,,13,113,1500001,,,2025-06-25,清算の結了等,,,2016-07-15,1,,,,,ウインドウ,0
1407,6011001143509,登記記録の閉鎖等,0,2025-07-25,2025-06-25,ＧａｕＧ株式会社,,株式会社,東京都,渋谷区,渋谷２丁目１９－１５宮益坂ビルディング６０９,,13,113,1500002,,,2025-06-25,清算の結了等,,,2021-10-19,1,,,,,ゴーグ,0
1423,6011402004020,登記記録の閉鎖等,0,2025-07-25,2025-07-22,有限会社サニーホーム,,有限会社,東京都,板橋区,大山西町３１番６号,,13,119,1730033,,,2025-07-22,清算の結了等,,,2015-10-05,1,,,,,サニーホーム,0
1442,6020002105046,登記記録の閉鎖等,0,2025-07-25,2025-07-08,サザンクロス有限会社,,有限会社,神奈川県,川崎市宮前区,潮見台１４－１２－１,,14,136,2160013,,,2025-07-08,清算の結了等,,,2015-10-05,1,,,,,サザンクロス,0
1445,6021001036959,登記記録の閉鎖等,0,2025-07-25,2025-07-16,東海製茶株式会社,,株式会社,神奈川県,藤沢市,辻堂１丁目１番１８号,,14,205,2510047,,,2025-07-16,清算の結了等,,,2015-10-05,1,,,,,トウカイセイチャ,0
1448,6021002009121,登記記録の閉鎖等,0,2025-07-25,2025-07-14,有限会社マギー,,有限会社,神奈川県,藤沢市,遠藤２００９番地１５,,14,205,2520816,,,2025-07-14,清算の結了等,,,2015-10-05,1,,,,,マギー,0
1455,6030001102563,登記記録の閉鎖等,0,2025-07-25,2025-07-17,株式会社かつらぎ工芸,,株式会社,埼玉県,新座市,本多１丁目１０番２５号,,11,230,3520022,,,2025-07-17,清算の結了等,,,2015-10-05,1,,,,,カツラギコウゲイ,0
1476,6070002002544,登記記録の閉鎖等,0,2025-07-25,2025-07-11,有限会社シンデンコー,,有限会社,群馬県,前橋市,石倉町５丁目１８番地の９,,10,201,3710841,,,2025-07-11,清算の結了等,,,2015-10-05,1,,,,,シンデンコー,0
1481,6080003003094,登記記録の閉鎖等,0,2025-07-25,2025-07-14,Ｄｅａｆ　Ｔｅｃｈ合同会社,,合同会社,静岡県,静岡市葵区,駒形通５丁目４－１田中ビル１０１,,22,101,4200042,,,2025-07-14,清算の結了等,,,2023-11-14,1,,,,,デフテック,0
1513,6120901034558,登記記録の閉鎖等,0,2025-07-25,2025-07-11,株式会社北部松村商店,,株式会社,大阪府,茨木市,宮島１丁目１番１号大阪府中央卸売市場内,,27,211,5670853,,,2025-07-11,清算の結了等,,,2015-10-05,1,,,,,ホクブマツムラショウテン,0
1536,6180001091131,登記記録の閉鎖等,0,2025-07-25,2025-07-04,株式会社ＮＡＭ,,株式会社,愛知県,名古屋市中村区,名駅５丁目３３番２１号,,23,105,4500002,,,2025-07-04,清算の結了等,,,2015-10-05,1,,,,,ナム,0
1553,6230001008047,登記記録の閉鎖等,0,2025-07-25,2025-07-22,株式会社内山商店,,株式会社,富山県,黒部市,荒町５番地１,,16,207,9380044,,,2025-07-22,清算の結了等,,,2015-10-05,1,,,,,ウチヤマショウテン,0
1554,6240001008120,登記記録の閉鎖等,0,2025-07-25,2025-07-14,日本サンライズ株式会社,,株式会社,広島県,広島市西区,南観音６丁目６番２７号,,34,104,7330035,,,2025-07-14,合併による解散等,9240001012037,令和７年７月１日広島市西区井口五丁目２５番１９号株式会社山根電業（9240001012037）に合併し解散,2015-10-05,1,,,,,ニホンサンライズ,0
1562,6250002016823,登記記録の閉鎖等,0,2025-07-25,2025-07-17,有限会社明栄建設,,有限会社,山口県,周南市,室尾１丁目１３番１２号,,35,215,7460053,,,2025-07-17,清算の結了等,,,2015-10-05,1,,,,,,0
1583,6290801017968,登記記録の閉鎖等,0,2025-07-25,2025-07-24,合同会社ウチヤマフューチャー,,合同会社,福岡県,北九州市小倉北区,熊本２丁目９番６－８０１号,,40,106,8020044,,,2025-07-24,清算の結了等,,,2015-10-05,1,,,,,ウチヤマフューチャー,0
1585,6310001001258,登記記録の閉鎖等,0,2025-07-25,2025-07-18,長崎植木株式会社,,株式会社,長崎県,長崎市,興善町７番１１号,,42,201,8500032,,,2025-07-18,清算の結了等,,,2015-10-05,1,,,,,ナガサキウエキ,0
1587,6330001005364,登記記録の閉鎖等,0,2025-07-25,2025-07-07,株式会社星城電気,,株式会社,熊本県,熊本市西区,上高橋１丁目６番２８号,,43,103,8600061,,,2025-07-07,清算の結了等,,,2015-10-05,1,,,,,セイジョウデンキ,0
1597,6370502001338,登記記録の閉鎖等,0,2025-07-25,2025-07-11,有限会社林泉商事,,有限会社,静岡県,下田市,白浜２６８３番地の４６,,22,219,4150012,,,2025-07-11,清算の結了等,,,2015-10-05,1,,,,,リンセンショウジ,0
1607,6470001000665,登記記録の閉鎖等,0,2025-07-25,2025-07-11,株式会社栄幸産業,,株式会社,香川県,高松市,木太町２２０６番地１,,37,201,7600080,,,2025-07-11,清算の結了等,,,2015-10-05,1,,,,,エイコウサンギョウ,0
1615,6490001007717,登記記録の閉鎖等,0,2025-07-25,2025-07-15,株式会社山吉屋,,株式会社,高知県,土佐郡土佐町,田井１５９４番地,,39,363,7813521,,,2025-07-15,清算の結了等,,,2015-10-05,1,,,,,,0
1622,7010001057197,登記記録の閉鎖等,0,2025-07-25,2025-07-22,株式会社丸亀,,株式会社,東京都,中央区,日本橋久松町１０番１０号,,13,102,1030005,,,2025-07-22,合併による解散等,2040001035403,令和７年６月３０日千葉県松戸市南花島三丁目４４番地の７株式会社国栄（2040001035403）に合併し解散,2015-10-05,1,,,,,マルカメ,0
1624,7010001144458,登記記録の閉鎖等,0,2025-07-25,2025-07-23,株式会社ヤングマネー,,株式会社,東京都,港区,南青山５丁目５番２０号アルファエイト南青山２０２号室,,13,103,1070062,,,2025-07-23,合併による解散等,1013201007885,令和７年７月１日横浜市青葉区荏田町２９７番地３－７０７号株式会社トゥーフェイス（1013201007885）に合併し解散,2015-10-05,1,,,,,ヤングマネー,0
1646,7010601011867,登記記録の閉鎖等,0,2025-07-25,2025-07-09,光洋機材株式会社,,株式会社,東京都,墨田区,緑２丁目２１番９号,,13,107,1300021,,,2025-07-09,清算の結了等,,,2015-10-05,1,,,,,コウヨウキザイ,0
1657,7011001007695,登記記録の閉鎖等,0,2025-07-25,2025-07-16,株式会社幸新,,株式会社,東京都,世田谷区,玉川台２丁目３６番３号ＧＭホーム１０２,,13,112,1580096,,,2025-07-16,清算の結了等,,,2015-10-05,1,,,,,コウシン,0
1668,7011101095806,登記記録の閉鎖等,0,2025-07-25,2025-06-27,株式会社ＵＮＤＥＲ　ＭＯＢ,,株式会社,東京都,新宿区,西新宿８丁目２－３４－４０１,,13,104,1600023,,,2025-06-27,清算の結了等,,,2021-07-21,1,,,,,アンダーモブ,0
1672,7011103013682,登記記録の閉鎖等,0,2025-07-25,2025-06-27,上尾ロジスティクス合同会社,,合同会社,東京都,新宿区,四谷２丁目９番地１５東京ユナイテッド綜合事務所内,,13,104,1600004,,,2025-06-27,清算の結了等,,,2023-11-06,1,,,,,アゲオロジスティクス,0
1715,7030001026943,登記記録の閉鎖等,0,2025-07-25,2025-07-17,狭山電業株式会社,,株式会社,埼玉県,入間市,宮前町７番３号,,11,225,3580005,,,2025-07-17,清算の結了等,,,2015-10-05,1,,,,,サヤマデンギョウ,0
1734,7040005009943,登記記録の閉鎖等,0,2025-07-25,2025-07-02,医療法人社団育慈会,,その他の設立登記法人,千葉県,東金市,広瀬１７３番地,,12,213,2830041,,,2025-07-02,清算の結了等,,,2015-10-05,1,,,,,イクジカイ,0
1735,7060002022179,登記記録の閉鎖等,0,2025-07-25,2025-07-10,有限会社小藤田新聞店,,有限会社,栃木県,那須塩原市,下厚崎２６５番地６,,09,213,3250025,,,2025-07-10,清算の結了等,,,2015-10-05,1,,,,,コフジタシンブンテン,0
1736,7070001039941,登記記録の閉鎖等,0,2025-07-25,2025-07-18,株式会社ウインダム,,株式会社,長野県,中野市,大字七瀬１８０番地３サンライズ七瀬１０１,,20,211,3830051,,,2025-07-18,清算の結了等,,,2022-12-21,1,,,,,ウインダム,0
1755,7100002005526,登記記録の閉鎖等,0,2025-07-25,2025-07-17,有限会社湯島製作所,,有限会社,長野県,長野市,小島田町８５３番地８,,20,201,3812212,,,2025-07-17,清算の結了等,,,2015-10-05,1,,,,,ユシマセイサクショ,0
1763,7120001027981,登記記録の閉鎖等,0,2025-07-25,2025-07-22,株式会社野田商会,,株式会社,大阪府,大阪市大正区,泉尾６丁目４番６号,,27,108,5510031,,,2025-07-22,合併による解散等,2180001092629,令和７年７月１日愛知県大府市横根町箕手４１番地の１６３株式会社東海塗装工業所（2180001092629）に合併し解散,2015-10-05,1,,,,,,0
1783,7120002019458,登記記録の閉鎖等,0,2025-07-25,2025-07-14,有限会社アサヒホーム,,有限会社,大阪府,大阪市生野区,新今里５丁目６番１号,,27,116,5440001,,,2025-07-14,清算の結了等,,,2015-10-05,1,,,,,アサヒホーム,0
1797,7120102006777,登記記録の閉鎖等,0,2025-07-25,2025-07-08,有限会社肥前,,有限会社,大阪府,堺市東区,北野田９２６番地の３,,27,143,5998123,,,2025-07-08,清算の結了等,,,2015-10-05,1,,,,,ヒゼン,0
1799,7120901008998,登記記録の閉鎖等,0,2025-07-25,2025-07-09,イーグル商事株式会社,,株式会社,大阪府,摂津市,新在家２丁目２６番３０号,,27,224,5660055,,,2025-07-09,清算の結了等,,,2015-10-05,1,,,,,イーグルショウジ,0
1811,7140001072679,登記記録の閉鎖等,0,2025-07-25,2025-07-14,株式会社フィッチインターナショナル,,株式会社,兵庫県,西宮市,甲子園九番町１番９号,,28,204,6638179,,,2025-07-14,清算の結了等,,,2015-10-05,1,,,,,フィッチインターナショナル,0
1832,7210001001787,登記記録の閉鎖等,0,2025-07-25,2025-07-16,誠和インテリア株式会社,,株式会社,福井県,福井市,高木中央１丁目３５０１番地４,,18,201,9100804,,,2025-07-16,清算の結了等,,,2015-10-05,1,,,,,セイワインテリア,0
1835,7210001018724,登記記録の閉鎖等,0,2025-07-25,2025-07-15,株式会社スタディルーム,,株式会社,福井県,福井市,八ツ島町３１－５０８西側学習塾,,18,201,9100065,,,2025-07-15,清算の結了等,,,2021-12-09,1,,,,,スタディルーム,0
1847,7230002005496,登記記録の閉鎖等,0,2025-07-25,2025-07-23,有限会社北陸トレーディング,,有限会社,富山県,富山市,田畑１６５８番地４１,,16,201,9318403,,,2025-07-23,清算の結了等,,,2015-10-05,1,,,,,ホクリクトレーディング,0
1851,7240002048354,登記記録の閉鎖等,0,2025-07-25,2025-07-17,有限会社中国新聞府中北販売所,,有限会社,広島県,安芸郡府中町,本町１丁目４番１号,,34,302,7350006,,,2025-07-17,清算の結了等,,,2015-10-05,1,,,,,チュウゴクシンブンフチュウキタハンバイショ,0
1855,7260001006212,登記記録の閉鎖等,0,2025-07-25,2025-07-03,松平産業株式会社,,株式会社,岡山県,岡山市北区,今４丁目１５番２１号,,33,101,7000975,,,2025-07-03,清算の結了等,,,2015-10-05,1,,,,,マツダイラサンギョウ,0
1857,7260002011079,登記記録の閉鎖等,0,2025-07-25,2025-07-02,有限会社吉弘建工,,有限会社,岡山県,赤磐市,弥上３０番地３,,33,213,7090734,,,2025-07-02,清算の結了等,,,2015-10-05,1,,,,,ヨシヒロケンコウ,0
1859,7270002009502,登記記録の閉鎖等,0,2025-07-25,2025-07-23,有限会社大丈,,有限会社,鳥取県,東伯郡琴浦町,大字三本杉１１４９番地,,31,371,6892334,,,2025-07-23,清算の結了等,,,2015-10-05,1,,,,,ダイジョウ,0
1867,7290005016246,登記記録の閉鎖等,0,2025-07-25,2025-07-03,一般社団法人福岡県健康生きがいづくり協議会,,その他の設立登記法人,福岡県,大野城市,錦町２丁目１番２３号,,40,219,8160935,,,2025-07-03,清算の結了等,,,2017-01-12,1,,,,,フクオカケンケンコウイキガイヅクリキョウギカイ,0
1877,7350001013380,登記記録の閉鎖等,0,2025-07-25,2025-07-14,エリアリッチコンサルタント株式会社,,株式会社,宮崎県,宮崎市,瀬頭２丁目３番１９号,,45,201,8800867,,,2025-07-14,清算の結了等,,,2015-10-05,1,,,,,エリアリッチコンサルタント,0
1886,7390001007577,登記記録の閉鎖等,0,2025-07-25,2025-07-10,株式会社佐藤機械研究所,,株式会社,山形県,鶴岡市,錦町１１番３４号,,06,203,9970031,,,2025-07-10,清算の結了等,,,2015-10-05,1,,,,,サトウキカイケンキュウショ,0
1899,7430002064811,登記記録の閉鎖等,0,2025-07-25,2025-07-04,有限会社堀江商事,,有限会社,北海道,室蘭市,沢町２４番２０号,,01,205,0510027,,,2025-07-04,清算の結了等,,,2015-10-05,1,,,,,ホリエショウジ,0
1900,7430003010715,登記記録の閉鎖等,0,2025-07-25,2025-07-18,ディーアイ．ネット札幌共配合同会社,,合同会社,北海道,札幌市東区,東苗穂十三条３丁目２６番５号,,01,103,0070813,,,2025-07-18,清算の結了等,,,2019-08-09,1,,,,,ディーアイネットサッポロキョウハイ,0
1907,7490002007178,登記記録の閉鎖等,0,2025-07-25,2025-07-23,有限会社ヴァル,,有限会社,高知県,高知市,はりまや町３丁目２１番２１号,,39,201,7800822,,,2025-07-23,清算の結了等,,,2015-10-05,1,,,,,ヴァル,0
1909,8010001074489,登記記録の閉鎖等,0,2025-07-25,2025-06-30,株式会社クローバーリーフ,,株式会社,東京都,千代田区,東神田１丁目３番９号,,13,101,1010031,,,2025-06-30,清算の結了等,,,2015-10-05,1,,,,,クローバーリーフ,0
1931,8010403011511,登記記録の閉鎖等,0,2025-07-25,2025-07-01,ＷＣＴ合同会社,,合同会社,東京都,港区,港南４丁目６番５号,,13,103,1080075,,,2025-07-01,清算の結了等,,,2015-10-05,1,,,,,ダブリューシーティー,0
1950,8011001152730,登記記録の閉鎖等,0,2025-07-25,2025-06-23,株式会社ＩＴ‐ｅｎｔｒａｎｃｅ,,株式会社,東京都,渋谷区,円山町５－５Ｎａｖｉ渋谷Ｖ３階,,13,113,1500044,,,2025-06-23,清算の結了等,,,2023-02-24,1,,,,,アイティーエントランス,0
1957,8011003013311,登記記録の閉鎖等,0,2025-07-25,2025-07-04,Ｓｔａｒ５０合同会社,,合同会社,福岡県,福岡市中央区,大名２丁目６－５０福岡大名ガーデンシティ８階,,40,133,8100041,,,2025-07-04,清算の結了等,,,2021-09-08,1,,,,,スターフィフティ,0
1964,8011401005224,登記記録の閉鎖等,0,2025-07-25,2025-07-18,株式会社長谷川製作所,,株式会社,東京都,板橋区,富士見町９番１６号,,13,119,1740062,,,2025-07-18,清算の結了等,,,2015-10-05,1,,,,,ハセガワセイサクショ,0
1966,8011601001279,登記記録の閉鎖等,0,2025-07-25,2025-07-10,株式会社小栗塗装工業,,株式会社,東京都,練馬区,練馬２丁目３２番１２号,,13,120,1760001,,,2025-07-10,清算の結了等,,,2015-10-05,1,,,,,オグリトソウコウギョウ,0
1989,8021001061369,登記記録の閉鎖等,0,2025-07-25,2025-07-16,株式会社ファーマーズビレッジ,,株式会社,神奈川県,藤沢市,藤沢２２３番地の２,,14,205,2510052,,,2025-07-16,清算の結了等,,,2017-02-10,1,,,,,ファーマーズビレッジ,0
2013,8050001038052,登記記録の閉鎖等,0,2025-07-25,2025-07-10,株式会社ＴＬＣＯ,,株式会社,茨城県,取手市,白山４丁目４番１号,,08,217,3020023,,,2025-07-10,清算の結了等,,,2015-10-05,1,,,,,ティーエルシーオー,0
2017,8070002026970,登記記録の閉鎖等,0,2025-07-25,2025-07-14,有限会社八高燃料店,,有限会社,群馬県,渋川市,渋川８５３番地,,10,208,3770008,,,2025-07-14,清算の結了等,,,2015-10-05,1,,,,,ヤコウネンリョウテン,0
2022,8080405000480,登記記録の閉鎖等,0,2025-07-25,2025-07-16,西遠建築事業協同組合,,その他の設立登記法人,静岡県,浜松市中央区,馬郡町１８８２番地の１,,22,138,4310203,,,2025-07-16,清算の結了等,,,2015-10-05,1,,,,,セイエンケンチク,0
2026,8090005004575,登記記録の閉鎖等,0,2025-07-25,2025-07-10,医療法人忠友会,,その他の設立登記法人,山梨県,韮崎市,神山町北宮地字河原谷下３番地,,19,207,4070042,,,2025-07-10,清算の結了等,,,2015-10-05,1,,,,,チュウユウカイ,0
2034,8110001028006,登記記録の閉鎖等,0,2025-07-25,2025-07-07,株式会社ゼロスタイル,,株式会社,新潟県,新潟市西区,小新西３丁目６番３号,,15,107,9502024,,,2025-07-07,清算の結了等,,,2015-10-05,1,,,,,,0
2076,8140001078972,登記記録の閉鎖等,0,2025-07-25,2025-07-15,ミタカハウジング株式会社,,株式会社,兵庫県,伊丹市,池尻１丁目２０７番地,,28,207,6640027,,,2025-07-15,清算の結了等,,,2015-10-05,1,,,,,ミタカハウジング,0
2080,8140002012311,登記記録の閉鎖等,0,2025-07-25,2025-07-09,有限会社三優貴設備,,有限会社,兵庫県,神戸市兵庫区,夢野町２丁目１３０番地,,28,105,6520063,,,2025-07-09,清算の結了等,,,2015-10-05,1,,,,,ミユキセツビ,0
2082,8150001022351,登記記録の閉鎖等,0,2025-07-25,2025-07-24,ＨＹＪ・ネット株式会社,,株式会社,奈良県,大和郡山市,矢田町２８０１番地１,,29,203,6391058,,,2025-07-24,清算の結了等,,,2018-06-29,1,,,,,エイチワイジェイネット,0
2094,8180003026637,登記記録の閉鎖等,0,2025-07-25,2025-07-03,合同会社ＳＩＥＧ,,合同会社,愛知県,知多郡東浦町,大字緒川字西本坪８番地の１４,,23,442,4702102,,,2025-07-03,清算の結了等,,,2024-04-11,1,,,,,ジーグ,0
2097,8190001006334,登記記録の閉鎖等,0,2025-07-25,2025-07-10,スイコーサービス株式会社,,株式会社,三重県,津市,桜田町５番１０号,,24,201,5140047,,,2025-07-10,清算の結了等,,,2015-10-05,1,,,,,スイコーサービス,0
2116,8240001005157,登記記録の閉鎖等,0,2025-07-25,2025-07-16,株式会社スギイ,,株式会社,広島県,広島市南区,大須賀町１４番１６号,,34,103,7320821,,,2025-07-16,清算の結了等,,,2015-10-05,1,,,,,スギイ,0
2118,8240002005420,登記記録の閉鎖等,0,2025-07-25,2025-07-17,有限会社芸州美人,,有限会社,広島県,広島市中区,弥生町３番２２号エコービル１０２号,,34,101,7300023,,,2025-07-17,清算の結了等,,,2015-10-05,1,,,,,ゲイシュウビジン,0
2127,8270005005547,登記記録の閉鎖等,0,2025-07-25,2025-07-22,一般社団法人スペースソラ,,その他の設立登記法人,鳥取県,鳥取市,田島６７２－１ＰＡＲＫ田島,,31,201,6800804,,,2025-07-22,清算の結了等,,,2023-03-31,1,,,,,スペースソラ,0
2148,8420002013660,登記記録の閉鎖等,0,2025-07-25,2025-07-04,有限会社玉山メディカルサービス,,有限会社,青森県,弘前市,大字駒越町２２番地１,,02,202,0368366,,,2025-07-04,清算の結了等,,,2015-10-05,1,,,,,タマヤマメディカルサービス,0
2152,8430002012232,登記記録の閉鎖等,0,2025-07-25,2025-07-22,有限会社高橋地所,,有限会社,北海道,札幌市東区,北三十条東１丁目１番２８号ＬＥＥ北３０条ビル２階,,01,103,0650030,,,2025-07-22,合併による解散等,9450001004871,令和７年７月２０日札幌市東区北三十条東一丁目１番２８号ＬＥＥ北３０条ビル２階株式会社高橋木工場（9450001004871）に合併し解散,2015-10-05,1,,,,,タカハシジショ,0
2163,9010001175121,登記記録の閉鎖等,0,2025-07-25,2025-06-30,株式会社ベイシススペースデザイン,,株式会社,東京都,中央区,明石町８番１号聖路加タワー３８階,,13,102,1040044,,,2025-06-30,清算の結了等,,,2016-04-26,1,,,,,ベイシススペースデザイン,0
2180,9010401156324,登記記録の閉鎖等,0,2025-07-25,2025-07-01,ＷｏｗＡｇｅｎｃｙ株式会社,,株式会社,東京都,港区,南青山４丁目２６番１９－２０５号,,13,103,1070062,,,2025-07-01,清算の結了等,,,2020-11-09,1,,,,,ワオエージェンシー,0
2188,9010602011336,登記記録の閉鎖等,0,2025-07-25,2025-07-10,有限会社進成印刷,,有限会社,東京都,墨田区,菊川２丁目４番３号,,13,107,1300024,,,2025-07-10,清算の結了等,,,2015-10-05,1,,,,,,0
2194,9010901033650,登記記録の閉鎖等,0,2025-07-25,2025-07-24,株式会社佐野オフィス,,株式会社,東京都,世田谷区,松原５丁目２７番６号東松原レジデンス４０１,,13,112,1560043,,,2025-07-24,清算の結了等,,,2015-10-05,1,,,,,,0
2211,9011301026848,登記記録の閉鎖等,0,2025-07-25,2025-07-14,オープンライフ株式会社,,株式会社,東京都,杉並区,堀ノ内３丁目４９番９号,,13,115,1660013,,,2025-07-14,清算の結了等,,,2021-05-19,1,,,,,オープンライフ,0
2217,9011502009362,登記記録の閉鎖等,0,2025-07-25,2025-07-17,千寿興産有限会社,,有限会社,東京都,荒川区,南千住３丁目２１番３号,,13,118,1160003,,,2025-07-17,清算の結了等,,,2015-10-05,1,,,,,センジュコウサン,0
2219,9012402007349,登記記録の閉鎖等,0,2025-07-25,2025-07-08,有限会社要商会,,有限会社,東京都,府中市,宮町１丁目２１番地の２,,13,206,1830023,,,2025-07-08,清算の結了等,,,2015-10-05,1,,,,,カナメショウカイ,0
2228,9020002024193,登記記録の閉鎖等,0,2025-07-25,2025-07-09,高橋電設工事有限会社,,有限会社,神奈川県,横浜市南区,永田北２丁目４２番１７号,,14,105,2320071,,,2025-07-09,清算の結了等,,,2015-10-05,1,,,,,タカハシデンセツコウジ,0
2247,9030002085251,登記記録の閉鎖等,0,2025-07-25,2025-07-17,有限会社エフトエス,,有限会社,埼玉県,越谷市,大沢４丁目１５番１号,,11,222,3430025,,,2025-07-17,清算の結了等,,,2015-10-05,1,,,,,エフトエス,0
2254,9040002000762,登記記録の閉鎖等,0,2025-07-25,2025-07-03,株式会社アイ・エス・ディ・エックス,,株式会社,千葉県,千葉市美浜区,高洲３丁目６番１棟１３０１号,,12,106,2610004,,,2025-07-03,清算の結了等,,,2015-10-05,1,,,,,アイエスディエックス,0
2260,9060002016831,登記記録の閉鎖等,0,2025-07-25,2025-07-10,有限会社ウイル,,有限会社,栃木県,鹿沼市,貝島町８３２番地２８,,09,205,3220027,,,2025-07-10,清算の結了等,,,2015-10-05,1,,,,,ウィル,0
2266,9080102017397,登記記録の閉鎖等,0,2025-07-25,2025-07-18,有限会社ヤマヨシサクライ製茶,,有限会社,静岡県,富士宮市,ひばりが丘１０２８番地,,22,207,4180003,,,2025-07-18,清算の結了等,,,2015-10-05,1,,,,,ヤマヨシサクライセイチャ,0
2267,9100001018956,登記記録の閉鎖等,0,2025-07-25,2025-07-16,株式会社エス・ティ・レーザー,,株式会社,長野県,茅野市,湖東７０１３番地,,20,214,3910211,,,2025-07-16,清算の結了等,,,2015-10-05,1,,,,,エスティレーザー,0
2271,9100005001388,登記記録の閉鎖等,0,2025-07-25,2025-07-16,長野ダイハツ自動車協同組合,,その他の設立登記法人,長野県,長野市,大字稲葉中千田２１４２番地,,20,201,3800916,,,2025-07-16,清算の結了等,,,2015-10-05,1,,,,,ナガノダイハツジドウシャ,0
2273,9110002010795,登記記録の閉鎖等,0,2025-07-25,2025-07-02,有限会社新井田グラビア,,有限会社,新潟県,新潟市北区,葛塚４８３９番地１,,15,101,9503321,,,2025-07-02,清算の結了等,,,2015-10-05,1,,,,,ニイダグラビア,0
2279,9120001265340,登記記録の閉鎖等,0,2025-07-25,2025-07-15,インフィニアース商号変更株式会社,,株式会社,大阪府,大阪市北区,大淀中１丁目１番３０号,,27,127,5310076,,,2025-07-15,清算の結了等,,,2024-05-30,1,,,,,インフィニアースショウゴウヘンコウ,0
2312,9140001018820,登記記録の閉鎖等,0,2025-07-25,2025-07-15,株式会社松下電気工業所,,株式会社,兵庫県,神戸市垂水区,本多聞１丁目１０番１７号,,28,108,6550006,,,2025-07-15,清算の結了等,,,2015-10-05,1,,,,,マツシタデンキコウギョウショ,0
2313,9140005024518,登記記録の閉鎖等,0,2025-07-25,2025-07-14,特定非営利活動法人アトム未来の会,,その他の設立登記法人,兵庫県,芦屋市,宮川町八丁目１番パセオデル芦屋２０５号室,00116085,28,206,6590063,,,2025-07-14,清算の結了等,,,2019-03-22,1,,,,,アトムミライノカイ,0
2332,9180302004532,登記記録の閉鎖等,0,2025-07-25,2025-07-11,有限会社セントラル,,有限会社,愛知県,岡崎市,宇頭町字向山４０番地７,,23,202,4440905,,,2025-07-11,清算の結了等,,,2015-10-05,1,,,,,セントラル,0
2334,9190002011605,登記記録の閉鎖等,0,2025-07-25,2025-07-11,有限会社浜一,,有限会社,三重県,志摩市,浜島町浜島１７８１番地２,,24,215,5170404,,,2025-07-11,清算の結了等,,,2015-10-05,1,,,,,ハマイチ,0
2345,9220002013548,登記記録の閉鎖等,0,2025-07-25,2025-07-18,有限会社山陽テクニカルサービス,,有限会社,石川県,能美市,道林町丑７番地,,17,211,9290125,,,2025-07-18,清算の結了等,,,2015-10-05,1,,,,,サンヨウテクニカルサービス,0
2346,9230001014240,登記記録の閉鎖等,0,2025-07-25,2025-07-11,株式会社ファーストタンク,,株式会社,富山県,滑川市,赤浜７３番地,,16,206,9360843,,,2025-07-11,清算の結了等,,,2015-10-05,1,,,,,ファーストタンク,0
2349,9230002005445,登記記録の閉鎖等,0,2025-07-25,2025-07-22,有限会社大成建機サービス,,有限会社,富山県,富山市,掛尾町５２２番地２,,16,201,9398212,,,2025-07-22,清算の結了等,,,2015-10-05,1,,,,,,0
2366,9330001023867,登記記録の閉鎖等,0,2025-07-25,2025-07-18,株式会社ＩＬＷ,,株式会社,大分県,大分市,大字三芳１１６０番地の３,,44,201,8700030,,,2025-07-18,合併による解散等,5330001031758,令和７年７月１日熊本市中央区世安一丁目４番１号株式会社Ｅｎｇｉｎｅ（5330001031758）に合併し解散,2017-03-22,1,,,,,アイエルダブリュー,0
2372,9350003001679,登記記録の閉鎖等,0,2025-07-25,2025-07-10,合名会社中村商店,,合名会社,宮崎県,日南市,北郷町郷之原乙２５２０番地,,45,204,8892402,,,2025-07-10,清算の結了等,,,2015-10-05,1,,,,,ナカムラショウテン,0
2387,9430001077688,登記記録の閉鎖等,0,2025-07-25,2025-07-22,株式会社新生,,株式会社,北海道,室蘭市,八丁平１丁目２７番８号,,01,205,0500061,,,2025-07-22,清算の結了等,,,2018-11-06,1,,,,,シンセイ,0
2394,9470001013978,登記記録の閉鎖等,0,2025-07-25,2025-07-15,株式会社ステップ・アップ,,株式会社,香川県,仲多度郡多度津町,大字庄９３２番地３,,37,404,7640031,,,2025-07-15,清算の結了等,,,2015-10-05,1,,,,,ステップアップ,0
