sequenceNumber,corporateNumber,process,correct,updateDate,changeDate,name,nameImageId,kind,prefectureName,cityName,streetNumber,addressImageId,prefectureCode,cityCode,postCode,addressOutside,addressOutsideImageId,closeDate,closeCause,successorCorporateNumber,changeCause,assignmentDate,latest,enName,enPrefectureName,enCityName,enAddressOutside,furigana,hihyoji
1,1010001000377,登記記録の閉鎖等,0,2022-01-27,2022-01-27,旭工器株式会社,,株式会社,東京都,文京区,大塚４丁目１２番７号,,13,105,1120012,,,2022-01-27,登記官による閉鎖,,,2015-10-05,1,,,,,,0
2,1010001000617,登記記録の閉鎖等,0,2022-01-27,2022-01-27,株式会社伊勢定商店,,株式会社,東京都,文京区,白山１丁目３２番６号,,13,105,1130001,,,2022-01-27,登記官による閉鎖,,,2015-10-05,1,,,,,,0
4,1010001007026,登記記録の閉鎖等,0,2022-01-27,2022-01-27,株式会社ペア企画,,株式会社,東京都,文京区,本郷３丁目３２番６号,,13,105,1130033,,,2022-01-27,登記官による閉鎖,,,2015-10-05,1,,,,,,0
5,1010001017487,登記記録の閉鎖等,0,2022-01-27,2022-01-27,株式会社財界にっぽん,,株式会社,東京都,千代田区,神田淡路町１丁目２番地,,13,101,1010063,,,2022-01-27,登記官による閉鎖,,,2015-10-05,1,,,,,,0
6,1010001060891,登記記録の閉鎖等,0,2022-01-27,2022-01-27,和光産業株式会社,,株式会社,東京都,中央区,日本橋人形町３丁目７番１４号,,13,102,1030013,,,2022-01-27,登記官による閉鎖,,,2015-10-05,1,,,,,,0
7,1010001063498,登記記録の閉鎖等,0,2022-01-27,2022-01-27,アイ・ティー・エスジャパン株式会社,,株式会社,東京都,中央区,日本橋茅場町２丁目７番１０号,,13,102,1030025,,,2022-01-27,登記官による閉鎖,,,2015-10-05,1,,,,,,0
10,1010001098404,登記記録の閉鎖等,0,2022-01-27,2022-01-27,株式会社アド・ウィング,,株式会社,東京都,千代田区,神田小川町３丁目２８番地,,13,101,1010052,,,2022-01-27,登記官による閉鎖,,,2015-10-05,1,,,,,,0
11,1010001107255,登記記録の閉鎖等,0,2022-01-27,2022-01-27,株式会社グロースプランニング,,株式会社,東京都,文京区,本郷１丁目２０番４号,,13,105,1130033,,,2022-01-27,登記官による閉鎖,,,2015-10-05,1,,,,,,0
12,1010001111959,登記記録の閉鎖等,0,2022-01-27,2022-01-27,株式会社クオリティーオブライフ,,株式会社,東京都,千代田区,神田錦町３丁目１７番地,,13,101,1010054,,,2022-01-27,登記官による閉鎖,,,2015-10-05,1,,,,,,0
13,1010001119267,登記記録の閉鎖等,0,2022-01-27,2022-01-27,株式会社Ｆ２プランニング,,株式会社,東京都,中央区,銀座１丁目２０番１７号宮脇ビル２Ｆ,,13,102,1040061,,,2022-01-27,登記官による閉鎖,,,2015-10-05,1,,,,,,0
14,1010001122254,登記記録の閉鎖等,0,2022-01-27,2022-01-27,アライアンス・コンサルティング・パートナーズ株式会社,,株式会社,東京都,千代田区,岩本町３丁目４－９－１３０４,,13,101,1010032,,,2022-01-27,登記官による閉鎖,,,2015-10-05,1,,,,,,0
15,1010001123062,登記記録の閉鎖等,0,2022-01-27,2022-01-27,株式会社ＳＡＫＡＳＥ,,株式会社,東京都,文京区,大塚５丁目９番２号,,13,105,1120012,,,2022-01-27,登記官による閉鎖,,,2015-10-05,1,,,,,,0
16,1010001125950,登記記録の閉鎖等,0,2022-01-27,2022-01-27,株式会社ＲＭＥ,,株式会社,東京都,中央区,銀座４丁目１４番４号,,13,102,1040061,,,2022-01-27,登記官による閉鎖,,,2015-10-05,1,,,,,,0
17,1010001136312,登記記録の閉鎖等,0,2022-01-27,2022-01-27,株式会社ＴＭＩ,,株式会社,東京都,中央区,日本橋１丁目２番１０号,,13,102,1030027,,,2022-01-27,登記官による閉鎖,,,2015-10-05,1,,,,,,0
20,1010001166458,登記記録の閉鎖等,0,2022-01-27,2022-01-21,株式会社ＡＮＣＳ,,株式会社,東京都,杉並区,高円寺北２丁目３番４号,,13,115,1660002,,,2022-01-21,清算の結了等,,,2015-10-05,1,,,,,アンクス,0
24,1010002005573,登記記録の閉鎖等,0,2022-01-27,2022-01-27,有限会社堀木貼込所,,有限会社,東京都,文京区,本郷４丁目１８番３号,,13,105,1130033,,,2022-01-27,登記官による閉鎖,,,2015-10-05,1,,,,,,0
25,1010002015291,登記記録の閉鎖等,0,2022-01-27,2022-01-27,有限会社山田商会,,有限会社,東京都,千代田区,神田東松下町４８番地,,13,101,1010042,,,2022-01-27,登記官による閉鎖,,,2016-06-17,1,,,,,,0
26,1010002025407,登記記録の閉鎖等,0,2022-01-27,2022-01-27,有限会社美興,,有限会社,東京都,中央区,銀座８丁目５番１５号スバツクスギンザビル６階,,13,102,1040061,,,2022-01-27,登記官による閉鎖,,,2015-10-05,1,,,,,,0
27,1010002029837,登記記録の閉鎖等,0,2022-01-27,2022-01-27,有限会社渓琳,,有限会社,東京都,文京区,千駄木２丁目３４番８－６０１号,,13,105,1130022,,,2022-01-27,登記官による閉鎖,,,2015-10-05,1,,,,,,0
28,1010002034606,登記記録の閉鎖等,0,2022-01-27,2022-01-27,有限会社ウィミンズ・ウェルネス,,有限会社,東京都,中央区,佃１丁目１１番７号,,13,102,1040051,,,2022-01-27,登記官による閉鎖,,,2015-10-05,1,,,,,,0
31,1010005005117,登記記録の閉鎖等,0,2022-01-27,2022-01-27,特定非営利活動法人資源再生機構,,その他の設立登記法人,東京都,中央区,銀座４丁目１２番１５号,,13,102,1040061,,,2022-01-27,登記官による閉鎖,,,2015-10-05,1,,,,,,0
32,1010005005793,登記記録の閉鎖等,0,2022-01-27,2022-01-27,医療法人社団笹森記念会,,その他の設立登記法人,東京都,中央区,京橋３丁目９番７号京橋ポイントビルデイング地下１階,,13,102,1040031,,,2022-01-27,登記官による閉鎖,,,2015-10-05,1,,,,,,0
33,1010005010505,登記記録の閉鎖等,0,2022-01-27,2022-01-27,エコネット事業協同組合,,その他の設立登記法人,東京都,中央区,日本橋小舟町１２番１２号,,13,102,1030024,,,2022-01-27,登記官による閉鎖,,,2015-10-05,1,,,,,,0
36,1010005015181,登記記録の閉鎖等,0,2022-01-27,2022-01-27,やよい監査法人,,その他の設立登記法人,東京都,千代田区,平河町２丁目８番１０号,,13,101,1020093,,,2022-01-27,登記官による閉鎖,,,2015-10-05,1,,,,,,0
37,1010005024488,登記記録の閉鎖等,0,2022-01-27,2022-01-11,税理士法人水波パートナーズ,,その他の設立登記法人,東京都,千代田区,飯田橋２丁目６番３号,,13,101,1020072,,,2022-01-11,合併による解散等,1290005015402,令和３年１２月２８日東京都豊島区南池袋二丁目２８番１４号税理士法人アイユーコンサルティング（1290005015402）に合併し解散,2015-10-16,1,,,,,ミズナミパートナーズ,0
49,1010403018851,登記記録の閉鎖等,0,2022-01-27,2022-01-19,合同会社みずきＢ号インベストメント,,合同会社,東京都,港区,北青山１丁目２番３号,,13,103,1070061,,,2022-01-19,清算の結了等,,,2018-06-22,1,,,,,ミズキビーゴウインベストメント,0
53,1010501003391,登記記録の閉鎖等,0,2022-01-27,2022-01-27,株式会社ウッドランド,,株式会社,東京都,台東区,下谷３丁目１６番１３号,,13,106,1100004,,,2022-01-27,登記官による閉鎖,,,2015-10-05,1,,,,,,0
54,1010501025089,登記記録の閉鎖等,0,2022-01-27,2022-01-27,株式会社仁助,,株式会社,東京都,台東区,浅草橋３丁目１９番１号,,13,106,1110053,,,2022-01-27,登記官による閉鎖,,,2015-10-05,1,,,,,,0
57,1010502005627,登記記録の閉鎖等,0,2022-01-27,2022-01-27,有限会社渋谷商店,,有限会社,東京都,台東区,松が谷４丁目１１番２号,,13,106,1110036,,,2022-01-27,登記官による閉鎖,,,2015-10-05,1,,,,,,0
58,1010502019511,登記記録の閉鎖等,0,2022-01-27,2022-01-27,有限会社クラン,,有限会社,東京都,台東区,根岸３丁目４番１３－３０５号,,13,106,1100003,,,2022-01-27,登記官による閉鎖,,,2015-10-05,1,,,,,,0
59,1010502022382,登記記録の閉鎖等,0,2022-01-27,2022-01-27,有限会社サウス・プランニング,,有限会社,東京都,台東区,台東２丁目３番１２号,,13,106,1100016,,,2022-01-27,登記官による閉鎖,,,2015-10-05,1,,,,,,0
60,1010601014033,登記記録の閉鎖等,0,2022-01-27,2022-01-27,株式会社ニック,,株式会社,東京都,墨田区,立花５丁目１５番１号,,13,107,1310043,,,2022-01-27,登記官による閉鎖,,,2015-10-05,1,,,,,,0
61,1010601034411,登記記録の閉鎖等,0,2022-01-27,2022-01-27,株式会社アクアレザー,,株式会社,東京都,墨田区,業平５丁目７番１号,,13,107,1300002,,,2022-01-27,登記官による閉鎖,,,2015-10-05,1,,,,,,0
62,1010601034881,登記記録の閉鎖等,0,2022-01-27,2022-01-27,株式会社コンシェルジュ,,株式会社,東京都,墨田区,太平４丁目６番１７－２０２号,,13,107,1300012,,,2022-01-27,登記官による閉鎖,,,2015-10-05,1,,,,,,0
63,1010601035483,登記記録の閉鎖等,0,2022-01-27,2022-01-27,レイトレィディング株式会社,,株式会社,東京都,江東区,豊洲２丁目５番２－３１０４号,,13,108,1350061,,,2022-01-27,登記官による閉鎖,,,2015-10-05,1,,,,,,0
64,1010601039757,登記記録の閉鎖等,0,2022-01-27,2022-01-27,株式会社堀井,,株式会社,東京都,墨田区,向島５丁目１４番３号,,13,107,1310033,,,2022-01-27,登記官による閉鎖,,,2015-10-05,1,,,,,,0
65,1010601040731,登記記録の閉鎖等,0,2022-01-27,2022-01-27,ベルファ株式会社,,株式会社,東京都,墨田区,東駒形４丁目９番４号,,13,107,1300005,,,2022-01-27,登記官による閉鎖,,,2015-10-05,1,,,,,,0
66,1010602001617,登記記録の閉鎖等,0,2022-01-27,2022-01-27,有限会社勝田畳店,,有限会社,東京都,江東区,亀戸１丁目３５番９号,,13,108,1360071,,,2022-01-27,登記官による閉鎖,,,2015-10-05,1,,,,,,0
67,1010602008587,登記記録の閉鎖等,0,2022-01-27,2022-01-27,有限会社おかめ寿司,,有限会社,東京都,墨田区,太平３丁目１０番３号,,13,107,1300012,,,2022-01-27,登記官による閉鎖,,,2015-10-05,1,,,,,,0
68,1010602013067,登記記録の閉鎖等,0,2022-01-27,2022-01-27,有限会社泰成ゴム工業所,,有限会社,東京都,墨田区,立花４丁目３７番４号,,13,107,1310043,,,2022-01-27,登記官による閉鎖,,,2015-10-05,1,,,,,,0
69,1010602013785,登記記録の閉鎖等,0,2022-01-27,2022-01-27,有限会社ヌマノネジ,,有限会社,東京都,墨田区,立花１丁目１番２号,,13,107,1310043,,,2022-01-27,登記官による閉鎖,,,2015-10-05,1,,,,,,0
70,1010602014916,登記記録の閉鎖等,0,2022-01-27,2022-01-27,豊和堂紙工有限会社,,有限会社,東京都,墨田区,京島３丁目４８番４号,,13,107,1310046,,,2022-01-27,登記官による閉鎖,,,2015-10-05,1,,,,,,0
71,1010602015889,登記記録の閉鎖等,0,2022-01-27,2022-01-27,有限会社飛田製革所,,有限会社,東京都,墨田区,東墨田２丁目２５番１７号,,13,107,1310042,,,2022-01-27,登記官による閉鎖,,,2015-10-05,1,,,,,,0
72,1010602031473,登記記録の閉鎖等,0,2022-01-27,2022-01-27,有限会社ルネッサンス,,有限会社,東京都,江東区,亀戸５丁目３番９号サトミビル２Ｆ,,13,108,1360071,,,2022-01-27,登記官による閉鎖,,,2015-10-05,1,,,,,,0
73,1010602032538,登記記録の閉鎖等,0,2022-01-27,2022-01-27,有限会社安とも,,有限会社,東京都,江東区,豊洲３丁目１番１号,,13,108,1350061,,,2022-01-27,登記官による閉鎖,,,2015-10-05,1,,,,,,0
74,1010605000748,登記記録の閉鎖等,0,2022-01-27,2022-01-27,日鋼鉄屑集荷処理協同組合,00051822,その他の設立登記法人,東京都,墨田区,千歳１丁目９番７号,,13,107,1300025,,,2022-01-27,登記官による閉鎖,,,2015-10-05,1,,,,,,0
75,1010605001201,登記記録の閉鎖等,0,2022-01-27,2022-01-27,特定非営利活動法人日本インフォメーションセンター,,その他の設立登記法人,東京都,江東区,福住１丁目１７番１１号,,13,108,1350032,,,2022-01-27,登記官による閉鎖,,,2015-10-05,1,,,,,,0
76,1010605001589,登記記録の閉鎖等,0,2022-01-27,2022-01-27,特定非営利活動法人チャレンジネット,,その他の設立登記法人,東京都,江東区,千田２２番２号阪田ビル４Ｆ（株式会社Ｄ．Ｆ．Ｃ．方）,,13,108,1350013,,,2022-01-27,登記官による閉鎖,,,2015-10-05,1,,,,,,0
99,1011103007599,登記記録の閉鎖等,0,2022-01-27,2022-01-14,Ａｒｃｅ合同会社,,合同会社,東京都,千代田区,神田淡路町１丁目１７－１０淡路町松井ビル２Ｆ,,13,101,1010063,,,2022-01-14,合併による解散等,4010001215360,令和４年１月１日東京都千代田区東神田１－２－２プライムオフィス東神田３０８株式会社アルセ（4010001215360）に合併し解散,2018-01-23,1,,,,,アルセ,0
115,1012701002058,登記記録の閉鎖等,0,2022-01-27,2022-01-24,株式会社イワサ,,株式会社,東京都,西東京市,芝久保町４丁目１５番３号,,13,229,1880014,,,2022-01-24,清算の結了等,,,2015-10-05,1,,,,,イワサ,0
119,1013301008024,登記記録の閉鎖等,0,2022-01-27,2022-01-27,株式会社東京セキュリティー,,株式会社,東京都,豊島区,南大塚３丁目３９番７号,,13,116,1700005,,,2022-01-27,登記官による閉鎖,,,2015-10-05,1,,,,,,0
120,1013301014419,登記記録の閉鎖等,0,2022-01-27,2022-01-27,株式会社アイ・エム・イー,,株式会社,東京都,豊島区,池袋本町１丁目４５番１３号,,13,116,1700011,,,2022-01-27,登記官による閉鎖,,,2015-10-05,1,,,,,,0
121,1013301026439,登記記録の閉鎖等,0,2022-01-27,2022-01-27,ＹＫインベストメント株式会社,,株式会社,東京都,豊島区,東池袋１丁目４６番１３号,,13,116,1700013,,,2022-01-27,登記官による閉鎖,,,2015-10-05,1,,,,,,0
122,1013302001853,登記記録の閉鎖等,0,2022-01-27,2022-01-27,有限会社エムエムシー,,有限会社,東京都,豊島区,南池袋２丁目１４番１号マンション池袋５０５号,,13,116,1710022,,,2022-01-27,登記官による閉鎖,,,2015-10-05,1,,,,,,0
123,1013302016133,登記記録の閉鎖等,0,2022-01-27,2022-01-27,有限会社ジュン企画,,有限会社,東京都,豊島区,巣鴨３丁目９番１１号,,13,116,1700002,,,2022-01-27,登記官による閉鎖,,,2015-10-05,1,,,,,,0
124,1013302018815,登記記録の閉鎖等,0,2022-01-27,2022-01-27,有限会社ＹＳ　Ｔｈｒｉｖｅ　Ｃｏ．,,有限会社,東京都,豊島区,千早２丁目２９番２号,,13,116,1710044,,,2022-01-27,登記官による閉鎖,,,2015-10-05,1,,,,,,0
125,1013302021471,登記記録の閉鎖等,0,2022-01-27,2022-01-27,有限会社４４０企画室,,有限会社,東京都,豊島区,池袋１丁目１６番２０号,,13,116,1700014,,,2022-01-27,登記官による閉鎖,,,2015-10-05,1,,,,,,0
126,1013302021620,登記記録の閉鎖等,0,2022-01-27,2022-01-27,有限会社日本ブロードネットワークス,,有限会社,東京都,豊島区,池袋１丁目１６番２０号ＫＳビル３０１,,13,116,1700014,,,2022-01-27,登記官による閉鎖,,,2015-10-05,1,,,,,,0
128,1013305000596,登記記録の閉鎖等,0,2022-01-27,2022-01-27,池袋坂下通り商店街振興組合,,その他の設立登記法人,東京都,豊島区,池袋３丁目３４番１４号,,13,116,1710014,,,2022-01-27,登記官による閉鎖,,,2015-10-05,1,,,,,,0
129,1013305000828,登記記録の閉鎖等,0,2022-01-27,2022-01-27,特定非営利活動法人建設構造設計支援協会,,その他の設立登記法人,東京都,豊島区,駒込１丁目３５－３駒込タウンプリーズ２０６号,,13,116,1700003,,,2022-01-27,登記官による閉鎖,,,2015-10-05,1,,,,,,0
140,1021001016957,登記記録の閉鎖等,0,2022-01-27,2022-01-25,壽商事株式会社,,株式会社,神奈川県,相模原市緑区,町屋３丁目１５番３５号,,14,151,2520101,,,2022-01-25,清算の結了等,,,2015-10-05,1,,,,,コトブキショウジ,0
141,1021001052003,登記記録の閉鎖等,0,2022-01-27,2022-01-21,株式会社ＰｏｗｅｒＭＴＥＣＨ,,株式会社,神奈川県,秦野市,本町３丁目２番１７号,,14,211,2570035,,,2022-01-21,清算の結了等,,,2015-10-05,1,,,,,パワーエムテック,0
144,1030001067010,登記記録の閉鎖等,0,2022-01-27,2022-01-19,日本導電塗料株式会社,,株式会社,東京都,港区,港南３丁目９番３３－１７０８号,,13,103,1080075,,,2022-01-19,清算の結了等,,,2015-10-05,1,,,,,ニホンドウデントリョウ,0
168,1050002010834,登記記録の閉鎖等,0,2022-01-27,2022-01-06,有限会社金澤美術,,有限会社,茨城県,笠間市,笠間２３７２番地５,,08,216,3091611,,,2022-01-06,合併による解散等,3050001034411,令和４年１月１日茨城県笠間市笠間２３７２番地５株式会社プロジェクト茨城（3050001034411）に合併し解散,2015-10-05,1,,,,,カナザワビジュツ,0
175,1100001000780,登記記録の閉鎖等,0,2022-01-27,2022-01-27,共伸総業株式会社,,株式会社,長野県,長野市,差出南２丁目８番８号,,20,201,3800948,,,2022-01-27,登記官による閉鎖,,,2015-10-05,1,,,,,,0
176,1100001002513,登記記録の閉鎖等,0,2022-01-27,2022-01-27,株式会社長野美容,,株式会社,長野県,長野市,三輪１丁目２５番１７号,,20,201,3800803,,,2022-01-27,登記官による閉鎖,,,2015-10-05,1,,,,,,0
177,1100001009070,登記記録の閉鎖等,0,2022-01-27,2022-01-27,ヴィ・ライフ株式会社,,株式会社,長野県,北佐久郡軽井沢町,大字発地３４２番地２,,20,321,3890113,,,2022-01-27,登記官による閉鎖,,,2015-10-05,1,,,,,,0
178,1100001009351,登記記録の閉鎖等,0,2022-01-27,2022-01-27,株式会社バイセンズ,,株式会社,長野県,北佐久郡軽井沢町,大字長倉３８６６番地２,,20,321,3890111,,,2022-01-27,登記官による閉鎖,,,2015-10-05,1,,,,,,0
179,1100001023360,登記記録の閉鎖等,0,2022-01-27,2022-01-27,株式会社アコット,,株式会社,長野県,飯田市,羽場仲畑１０３４番地６,,20,205,3950064,,,2022-01-27,登記官による閉鎖,,,2015-10-05,1,,,,,,0
180,1100002002520,登記記録の閉鎖等,0,2022-01-27,2022-01-27,有限会社新和住建,,有限会社,長野県,長野市,川中島町今井１５５０番地１,,20,201,3812226,,,2022-01-27,登記官による閉鎖,,,2015-10-05,1,,,,,,0
181,1100002004401,登記記録の閉鎖等,0,2022-01-27,2022-01-27,有限会社双葉計装,,有限会社,長野県,長野市,広田１６３番地の１,,20,201,3812213,,,2022-01-27,登記官による閉鎖,,,2015-10-05,1,,,,,,0
182,1100002007412,登記記録の閉鎖等,0,2022-01-27,2022-01-27,有限会社倉沢創建,,有限会社,長野県,長野市,吉田５丁目１２番１５号,,20,201,3810043,,,2022-01-27,登記官による閉鎖,,,2015-10-05,1,,,,,,0
183,1100002008146,登記記録の閉鎖等,0,2022-01-27,2022-01-24,有限会社リニュー信濃,,有限会社,長野県,長野市,神明１９番地,,20,201,3888020,,,2022-01-24,清算の結了等,,,2015-10-05,1,,,,,リニューシナノ,0
184,1100002008781,登記記録の閉鎖等,0,2022-01-27,2022-01-27,有限会社ヤマトミ工業,,有限会社,長野県,須坂市,大字須坂１１２２番地の１,,20,207,3820000,,,2022-01-27,登記官による閉鎖,,,2015-10-05,1,,,,,,0
185,1100002009771,登記記録の閉鎖等,0,2022-01-27,2022-01-27,有限会社中国料理再来,,有限会社,長野県,千曲市,大字磯部９９２番地,,20,218,3890806,,,2022-01-27,登記官による閉鎖,,,2015-10-05,1,,,,,,0
186,1100002010408,登記記録の閉鎖等,0,2022-01-27,2022-01-27,有限会社和富総商,,有限会社,長野県,佐久市,中込３１５０番地１,,20,217,3850051,,,2022-01-27,登記官による閉鎖,,,2015-10-05,1,,,,,,0
187,1100002017543,登記記録の閉鎖等,0,2022-01-27,2022-01-27,有限会社湯元,,有限会社,長野県,下高井郡野沢温泉村,大字豊郷８７１３番地ロ,,20,563,3892502,,,2022-01-27,登記官による閉鎖,,,2015-10-05,1,,,,,,0
188,1100002030703,登記記録の閉鎖等,0,2022-01-27,2022-01-27,有限会社和光精工,,有限会社,長野県,茅野市,米沢１２５番地１,,20,214,3910216,,,2022-01-27,登記官による閉鎖,,,2016-06-27,1,,,,,,0
189,1100005003870,登記記録の閉鎖等,0,2022-01-27,2022-01-27,特定非営利活動法人ジャパンペットアカデミー,,その他の設立登記法人,長野県,南佐久郡南牧村,大字海ノ口２２５１番地１,,20,305,3841302,,,2022-01-27,登記官による閉鎖,,,2015-10-05,1,,,,,,0
196,1120001054189,登記記録の閉鎖等,0,2022-01-27,2022-01-24,エービィーエス株式会社,,株式会社,大阪府,大阪市平野区,喜連６丁目６番３号,,27,126,5470027,,,2022-01-24,清算の結了等,,,2015-10-05,1,,,,,エービィーエス,0
197,1120001057407,登記記録の閉鎖等,0,2022-01-27,2022-01-24,株式会社南星電設,,株式会社,大阪府,大阪市淀川区,田川２丁目３番１５－６０６,,27,123,5320027,,,2022-01-24,清算の結了等,,,2015-10-05,1,,,,,ナンセイデンセツ,0
203,1120001103730,登記記録の閉鎖等,0,2022-01-27,2022-01-21,アイネット株式会社,,株式会社,千葉県,千葉市花見川区,幕張町１丁目５０２７,,12,102,2620032,,,2022-01-21,清算の結了等,,,2015-10-05,1,,,,,アイネット,0
208,1120001205023,登記記録の閉鎖等,0,2022-01-27,2022-01-25,株式会社堀江不動産,,株式会社,大阪府,大阪市中央区,本町橋６番１９号,,27,128,5400029,,,2022-01-25,清算の結了等,,,2017-04-18,1,,,,,,0
218,1120002055574,登記記録の閉鎖等,0,2022-01-27,2022-01-24,有限会社ＹＭエージェンシー,,有限会社,大阪府,大阪市城東区,新喜多１丁目２番７号３２０２号,,27,118,5360015,,,2022-01-24,清算の結了等,,,2015-10-05,1,,,,,ワイエムエージェンシー,0
231,1140001051556,登記記録の閉鎖等,0,2022-01-27,2022-01-24,株式会社武庫川木村家,,株式会社,兵庫県,尼崎市,武庫川町３丁目７４番地の２,,28,202,6600084,,,2022-01-24,清算の結了等,,,2015-10-05,1,,,,,ムコガワキムラヤ,0
244,1160001008083,登記記録の閉鎖等,0,2022-01-27,2022-01-24,株式会社エフォート,,株式会社,滋賀県,彦根市,原町１９４番地,,25,202,5220023,,,2022-01-24,合併による解散等,5160001000895,令和４年１月２１日滋賀県大津市浜大津二丁目５番９号株式会社昭建（5160001000895）に合併し解散,2015-10-05,1,,,,,エフォート,0
256,1190002013591,登記記録の閉鎖等,0,2022-01-27,2022-01-25,有限会社イチノ,,有限会社,三重県,松阪市,中央町３２８番地１５,,24,204,5150019,,,2022-01-25,清算の結了等,,,2015-10-05,1,,,,,イチノ,0
257,1200001024828,登記記録の閉鎖等,0,2022-01-27,2022-01-25,株式会社こばやし,,株式会社,岐阜県,高山市,石浦町７丁目５９２番地,,21,203,5060825,,,2022-01-25,清算の結了等,,,2015-10-05,1,,,,,コバヤシ,0
262,1230005006349,登記記録の閉鎖等,0,2022-01-27,2022-01-25,光専寺,,その他の設立登記法人,富山県,高岡市,東海老坂８９０番地,,16,202,9330987,,,2022-01-25,清算の結了等,,,2015-10-05,1,,,,,コウセンジ,0
268,1260001006408,登記記録の閉鎖等,0,2022-01-27,2022-01-26,株式会社水島,,株式会社,岡山県,岡山市北区,平野６０１番地の５,,33,101,7010151,,,2022-01-26,清算の結了等,,,2015-10-05,1,,,,,ミズシマ,0
285,1310001001691,登記記録の閉鎖等,0,2022-01-27,2022-01-26,仁保産業株式会社,,株式会社,長崎県,長崎市,本河内３丁目１１番４７号,,42,201,8500012,,,2022-01-26,登記官による閉鎖,,,2015-10-05,1,,,,,,0
286,1310001005981,登記記録の閉鎖等,0,2022-01-27,2022-01-26,株式会社ホテルサンルート佐世保,,株式会社,長崎県,佐世保市,本島町１番１５号,,42,202,8570871,,,2022-01-26,登記官による閉鎖,,,2015-10-05,1,,,,,,0
287,1310002005122,登記記録の閉鎖等,0,2022-01-27,2022-01-26,有限会社増田商店,,有限会社,長崎県,長崎市,三芳町６番２号,,42,201,8528031,,,2022-01-26,登記官による閉鎖,,,2015-10-05,1,,,,,,0
288,1310002006277,登記記録の閉鎖等,0,2022-01-27,2022-01-26,有限会社八徳宅業,00095944,有限会社,長崎県,長崎市,日の出町３番６号,,42,201,8500914,,,2022-01-26,登記官による閉鎖,,,2015-10-05,1,,,,,,0
289,1310002007564,登記記録の閉鎖等,0,2022-01-27,2022-01-26,有限会社Ａ．Ｓ．Ｓ．コスギ,,有限会社,長崎県,長崎市,南町１１番１７号,,42,201,8500942,,,2022-01-26,登記官による閉鎖,,,2015-10-05,1,,,,,,0
290,1310002007754,登記記録の閉鎖等,0,2022-01-27,2022-01-26,田中工業有限会社,,有限会社,長崎県,西彼杵郡時津町,浜田郷１２７番地６,,42,308,8512102,,,2022-01-26,登記官による閉鎖,,,2015-10-05,1,,,,,,0
291,1310002012688,登記記録の閉鎖等,0,2022-01-27,2022-01-26,有限会社ネッツ朝日・西九販売,,有限会社,長崎県,佐世保市,稲荷町１９番地４,,42,202,8570851,,,2022-01-26,登記官による閉鎖,,,2015-10-05,1,,,,,,0
292,1310002016433,登記記録の閉鎖等,0,2022-01-27,2022-01-26,有限会社貝田工業,,有限会社,長崎県,諫早市,宗方町１５９９番地,,42,204,8540035,,,2022-01-26,登記官による閉鎖,,,2015-10-05,1,,,,,,0
323,2010001005722,登記記録の閉鎖等,0,2022-01-27,2022-01-27,株式会社中林商店,,株式会社,東京都,文京区,本郷２丁目４０番１３号,,13,105,1130033,,,2022-01-27,登記官による閉鎖,,,2015-10-05,1,,,,,,0
324,2010001029283,登記記録の閉鎖等,0,2022-01-27,2022-01-27,法令ビジネス株式会社,,株式会社,東京都,千代田区,神田佐久間河岸４６番３,,13,101,1010026,,,2022-01-27,登記官による閉鎖,,,2015-10-05,1,,,,,,0
325,2010001032262,登記記録の閉鎖等,0,2022-01-27,2022-01-27,株式会社聖亜,,株式会社,東京都,文京区,小日向３丁目１８番８号,,13,105,1120006,,,2022-01-27,登記官による閉鎖,,,2015-10-05,1,,,,,,0
326,2010001036412,登記記録の閉鎖等,0,2022-01-27,2022-01-27,青坂産業株式会社,,株式会社,東京都,中央区,銀座８丁目６番１８号,,13,102,1040061,,,2022-01-27,登記官による閉鎖,,,2016-10-11,1,,,,,,0
327,2010001037245,登記記録の閉鎖等,0,2022-01-27,2022-01-27,東京中央会計株式会社,,株式会社,東京都,中央区,入船３丁目８番１０号,,13,102,1040042,,,2022-01-27,登記官による閉鎖,,,2015-10-05,1,,,,,,0
328,2010001073570,登記記録の閉鎖等,0,2022-01-27,2022-01-27,山陽印刷株式会社,,株式会社,東京都,千代田区,神田神保町３丁目２３番１５号,,13,101,1010051,,,2022-01-27,登記官による閉鎖,,,2015-10-05,1,,,,,,0
329,2010001084733,登記記録の閉鎖等,0,2022-01-27,2022-01-27,株式会社アルバ,,株式会社,東京都,千代田区,内神田１丁目４番８号,,13,101,1010047,,,2022-01-27,登記官による閉鎖,,,2015-10-05,1,,,,,,0
330,2010001090608,登記記録の閉鎖等,0,2022-01-27,2022-01-27,株式会社ピースラボ,,株式会社,東京都,千代田区,岩本町２丁目１５番１０号,,13,101,1010032,,,2022-01-27,登記官による閉鎖,,,2015-10-05,1,,,,,,0
331,2010001093073,登記記録の閉鎖等,0,2022-01-27,2022-01-27,株式会社ジー・エル・エル,,株式会社,東京都,中央区,日本橋小舟町６番４号,,13,102,1030024,,,2022-01-27,登記官による閉鎖,,,2015-10-05,1,,,,,,0
332,2010001100837,登記記録の閉鎖等,0,2022-01-27,2022-01-27,株式会社ＺＥＮ建築設計,,株式会社,東京都,千代田区,富士見１丁目５番１－５０６号,,13,101,1020071,,,2022-01-27,登記官による閉鎖,,,2015-10-05,1,,,,,,0
333,2010001103963,登記記録の閉鎖等,0,2022-01-27,2022-01-27,株式会社ＪＳＳ,,株式会社,東京都,中央区,日本橋本町３丁目３－６,,13,102,1030023,,,2022-01-27,登記官による閉鎖,,,2015-10-05,1,,,,,,0
334,2010001106867,登記記録の閉鎖等,0,2022-01-27,2022-01-27,株式会社グローバルワン,,株式会社,東京都,中央区,新川２丁目６番２号石橋ビル３階,,13,102,1040033,,,2022-01-27,登記官による閉鎖,,,2015-10-05,1,,,,,,0
335,2010001113021,登記記録の閉鎖等,0,2022-01-27,2022-01-27,株式会社平岩企画,,株式会社,東京都,中央区,日本橋浜町３丁目２３番３号ギンビスビル７階,,13,102,1030007,,,2022-01-27,登記官による閉鎖,,,2015-10-05,1,,,,,,0
336,2010001115356,登記記録の閉鎖等,0,2022-01-27,2022-01-27,ネオブリッジ株式会社,,株式会社,東京都,千代田区,外神田２丁目１番４号,,13,101,1010021,,,2022-01-27,登記官による閉鎖,,,2015-10-05,1,,,,,,0
337,2010001122807,登記記録の閉鎖等,0,2022-01-27,2022-01-27,エイトワン株式会社,,株式会社,東京都,中央区,銀座１丁目２８番１２号,,13,102,1040061,,,2022-01-27,登記官による閉鎖,,,2015-10-05,1,,,,,,0
338,2010001132129,登記記録の閉鎖等,0,2022-01-27,2022-01-27,グラインワンズ株式会社,,株式会社,東京都,中央区,日本橋室町１丁目９番９号コダマビル２Ｆ,,13,102,1030022,,,2022-01-27,登記官による閉鎖,,,2015-10-05,1,,,,,,0
339,2010001133110,登記記録の閉鎖等,0,2022-01-27,2022-01-24,山佐ＢＡＷ８リース株式会社,,株式会社,東京都,千代田区,丸の内３丁目１番１号東京共同会計事務所内,,13,101,1000005,,,2022-01-24,清算の結了等,,,2015-10-05,1,,,,,ヤマサビーエーダブリューハチリース,0
340,2010001133275,登記記録の閉鎖等,0,2022-01-27,2022-01-27,株式会社シー・ダブル・エージェンシー,,株式会社,東京都,中央区,銀座１丁目１５番７号ＭＡＣ銀座ビル３階,,13,102,1040061,,,2022-01-27,登記官による閉鎖,,,2015-10-05,1,,,,,,0
341,2010001136823,登記記録の閉鎖等,0,2022-01-27,2022-01-27,株式会社ＬＩＯＮ　ＢＡＮＫ,,株式会社,東京都,千代田区,麹町６丁目２番６号,,13,101,1020083,,,2022-01-27,登記官による閉鎖,,,2015-10-05,1,,,,,,0
342,2010001140098,登記記録の閉鎖等,0,2022-01-27,2022-01-27,新オプトウエア株式会社,,株式会社,東京都,千代田区,丸の内３丁目４番１号,,13,101,1000005,,,2022-01-27,登記官による閉鎖,,,2015-10-05,1,,,,,,0
343,2010001180986,登記記録の閉鎖等,0,2022-01-27,2022-01-27,毎日信販株式会社,,株式会社,東京都,千代田区,神田駿河台２丁目１番１９号,,13,101,1010062,,,2022-01-27,登記官による閉鎖,,,2017-01-25,1,,,,,,0
344,2010001185481,登記記録の閉鎖等,0,2022-01-27,2022-01-24,株式会社Ｋｒｙｘｔｏｍ　Ｃｏｒｐｏｒａｔｉｏｎ,,株式会社,東京都,中央区,日本橋本町３丁目３番６号,,13,102,1030023,,,2022-01-24,清算の結了等,,,2017-08-08,1,,,,,クリストムコーポレーション,0
345,2010001190317,登記記録の閉鎖等,0,2022-01-27,2022-01-17,トレーディア株式会社,,株式会社,東京都,千代田区,紀尾井町１番３号,,13,101,1020094,,,2022-01-17,合併による解散等,1011001041056,令和４年１月１日東京都千代田区紀尾井町１番３号外貨ｅｘ　ｂｙＧＭＯ株式会社（1011001041056）に合併し解散,2018-03-20,1,,,,,トレーディア,0
346,2010001205677,登記記録の閉鎖等,0,2022-01-27,2022-01-24,株式会社フューチャーモビリティジャパン,,株式会社,東京都,千代田区,大手町１丁目４番２号,,13,101,1000004,,,2022-01-24,清算の結了等,,,2019-11-27,1,,,,,フューチャーモビリティジャパン,0
348,2010002007164,登記記録の閉鎖等,0,2022-01-27,2022-01-27,有限会社アールアンドケイ,,有限会社,東京都,千代田区,神田司町２丁目１９番４号,,13,101,1010048,,,2022-01-27,登記官による閉鎖,,,2015-10-05,1,,,,,,0
349,2010002032096,登記記録の閉鎖等,0,2022-01-27,2022-01-27,有限会社ゴルフ・ワン,,有限会社,東京都,中央区,八重洲１丁目５番８号,,13,102,1030028,,,2022-01-27,登記官による閉鎖,,,2015-10-05,1,,,,,,0
350,2010002049966,登記記録の閉鎖等,0,2022-01-27,2022-01-27,有限会社ミドルヴァレー,,有限会社,東京都,千代田区,三番町９番地１－６０１号,,13,101,1020075,,,2022-01-27,登記官による閉鎖,,,2015-10-05,1,,,,,,0
351,2010002053365,登記記録の閉鎖等,0,2022-01-27,2022-01-27,有限会社創雄社,,有限会社,東京都,千代田区,神田猿楽町１丁目３番６号小宅ビル２Ｆ,,13,101,1010064,,,2022-01-27,登記官による閉鎖,,,2015-10-05,1,,,,,,0
352,2010003007717,登記記録の閉鎖等,0,2022-01-27,2022-01-27,合資会社中村組,,合資会社,東京都,中央区,日本橋兜町三丁目５番地,,13,102,1030026,,,2022-01-27,登記官による閉鎖,,,2015-10-05,1,,,,,,0
355,2010005005537,登記記録の閉鎖等,0,2022-01-27,2022-01-27,特定非営利活動法人子供を地雷から守る会,,その他の設立登記法人,東京都,千代田区,永田町２丁目１０番２号,,13,101,1000014,,,2022-01-27,登記官による閉鎖,,,2015-10-05,1,,,,,,0
356,2010005005553,登記記録の閉鎖等,0,2022-01-27,2022-01-27,特定非営利活動法人環境共生国際コーディネートセンター,,その他の設立登記法人,東京都,千代田区,五番町５番６号ビラカーサ２０３,,13,101,1020076,,,2022-01-27,登記官による閉鎖,,,2015-10-05,1,,,,,,0
357,2010005007145,登記記録の閉鎖等,0,2022-01-27,2022-01-27,特定非営利活動法人日本スキンヘルパー協会,,その他の設立登記法人,東京都,千代田区,神田東松下町１２番地,,13,101,1010042,,,2022-01-27,登記官による閉鎖,,,2015-10-05,1,,,,,,0
358,2010005008647,登記記録の閉鎖等,0,2022-01-27,2022-01-27,特定非営利活動法人日本エンターテイメント協会,,その他の設立登記法人,東京都,中央区,築地４丁目３番１１号ＡＱＵＡビル３０２号室,,13,102,1040045,,,2022-01-27,登記官による閉鎖,,,2015-10-05,1,,,,,,0
359,2010005008671,登記記録の閉鎖等,0,2022-01-27,2022-01-27,特定非営利活動法人睡眠プロデュース協会,,その他の設立登記法人,東京都,千代田区,二番町５番地２麹町駅プラザ３０１,00050064,13,101,1020084,,,2022-01-27,登記官による閉鎖,,,2015-10-05,1,,,,,,0
361,2010401098820,登記記録の閉鎖等,0,2022-01-27,2022-01-27,株式会社山河,,株式会社,東京都,千代田区,霞が関１丁目４番１号日土地ビル１０階,,13,101,1000013,,,2022-01-27,登記官による閉鎖,,,2015-10-05,1,,,,,,0
362,2010401126052,登記記録の閉鎖等,0,2022-01-27,2022-01-19,株式会社艟理射夢,,株式会社,東京都,港区,六本木３丁目１６番５号,,13,103,1060032,,,2022-01-19,清算の結了等,,,2016-07-27,1,,,,,,0
370,2010501003738,登記記録の閉鎖等,0,2022-01-27,2022-01-27,株式会社五恒インテリア,,株式会社,東京都,台東区,柳橋１丁目１１番７号,,13,106,1110052,,,2022-01-27,登記官による閉鎖,,,2015-10-05,1,,,,,,0
371,2010501030864,登記記録の閉鎖等,0,2022-01-27,2022-01-27,株式会社クリエイティブ・クラウド,,株式会社,東京都,台東区,台東３丁目１６番５号,,13,106,1100016,,,2022-01-27,登記官による閉鎖,,,2015-10-05,1,,,,,,0
372,2010502008463,登記記録の閉鎖等,0,2022-01-27,2022-01-27,有限会社那須工芸,,有限会社,東京都,台東区,松が谷４丁目１３番３号,,13,106,1110036,,,2022-01-27,登記官による閉鎖,,,2015-10-05,1,,,,,,0
373,2010502009908,登記記録の閉鎖等,0,2022-01-27,2022-01-27,有限会社ブルージヤケツト,,有限会社,東京都,台東区,浅草１丁目１番１６号,,13,106,1110032,,,2022-01-27,登記官による閉鎖,,,2015-10-05,1,,,,,,0
374,2010502012003,登記記録の閉鎖等,0,2022-01-27,2022-01-27,有限会社ユーアイ情報通信社,00051336,有限会社,東京都,台東区,駒形２丁目３番５号,,13,106,1110043,,,2022-01-27,登記官による閉鎖,,,2015-10-05,1,,,,,,0
375,2010502014528,登記記録の閉鎖等,0,2022-01-27,2022-01-27,甲田製帽有限会社,,有限会社,東京都,台東区,浅草橋３丁目１１番５号,,13,106,1110053,,,2022-01-27,登記官による閉鎖,,,2015-10-05,1,,,,,,0
376,2010502015971,登記記録の閉鎖等,0,2022-01-27,2022-01-27,有限会社ウズベル,,有限会社,東京都,台東区,今戸１丁目３番１３号,,13,106,1110024,,,2022-01-27,登記官による閉鎖,,,2015-10-05,1,,,,,,0
377,2010502019304,登記記録の閉鎖等,0,2022-01-27,2022-01-27,有限会社工房文字細工,,有限会社,東京都,台東区,浅草１丁目８番４号,,13,106,1110032,,,2022-01-27,登記官による閉鎖,,,2015-10-05,1,,,,,,0
379,2010505001481,登記記録の閉鎖等,0,2022-01-27,2022-01-27,特定非営利活動法人Ｋ・Ｊ交流協会,,その他の設立登記法人,東京都,台東区,東上野１丁目１３番１０号,,13,106,1100015,,,2022-01-27,登記官による閉鎖,,,2015-10-05,1,,,,,,0
380,2010601000486,登記記録の閉鎖等,0,2022-01-27,2022-01-27,株式会社一ノ倉印刷,,株式会社,東京都,江東区,平野１丁目１番１１号,,13,108,1350023,,,2022-01-27,登記官による閉鎖,,,2015-10-05,1,,,,,,0
381,2010601009750,登記記録の閉鎖等,0,2022-01-27,2022-01-27,株式会社イケダ,,株式会社,東京都,墨田区,両国４丁目３０番１９号,,13,107,1300026,,,2022-01-27,登記官による閉鎖,,,2015-10-05,1,,,,,,0
382,2010601022092,登記記録の閉鎖等,0,2022-01-27,2022-01-27,株式会社プラザスミダ,,株式会社,東京都,墨田区,石原２丁目１８番８号,,13,107,1300011,,,2022-01-27,登記官による閉鎖,,,2015-10-05,1,,,,,,0
383,2010601024832,登記記録の閉鎖等,0,2022-01-27,2022-01-27,エターナル株式会社,,株式会社,東京都,墨田区,立花５丁目４番８号,,13,107,1310043,,,2022-01-27,登記官による閉鎖,,,2015-10-05,1,,,,,,0
384,2010601032975,登記記録の閉鎖等,0,2022-01-27,2022-01-27,株式会社馬見屋,,株式会社,東京都,墨田区,東駒形４丁目７番２－５１５号,,13,107,1300005,,,2022-01-27,登記官による閉鎖,,,2015-10-05,1,,,,,,0
385,2010601033263,登記記録の閉鎖等,0,2022-01-27,2022-01-20,株式会社若井,,株式会社,東京都,墨田区,江東橋２丁目９番５－２８０６号,,13,107,1300022,,,2022-01-20,清算の結了等,,,2015-10-05,1,,,,,ワカイ,0
386,2010601041191,登記記録の閉鎖等,0,2022-01-27,2022-01-27,株式会社駒場総合研究所,,株式会社,東京都,江東区,亀戸２丁目３４番８号,,13,108,1360071,,,2022-01-27,登記官による閉鎖,,,2015-10-05,1,,,,,,0
389,2010602006887,登記記録の閉鎖等,0,2022-01-27,2022-01-27,有限会社藤巻鉄筋工業,,有限会社,東京都,江東区,大島２丁目２３番１５号,,13,108,1360072,,,2022-01-27,登記官による閉鎖,,,2015-10-05,1,,,,,,0
390,2010602013181,登記記録の閉鎖等,0,2022-01-27,2022-01-27,有限会社長瀬工務店,,有限会社,東京都,墨田区,押上３丁目３６番１号,,13,107,1310045,,,2022-01-27,登記官による閉鎖,,,2015-10-05,1,,,,,,0
391,2010602014519,登記記録の閉鎖等,0,2022-01-27,2022-01-27,有限会社不二ポンプ工業所,,有限会社,東京都,墨田区,緑４丁目２９番７号,,13,107,1300021,,,2022-01-27,登記官による閉鎖,,,2015-10-05,1,,,,,,0
392,2010602016432,登記記録の閉鎖等,0,2022-01-27,2022-01-27,有限会社森材木店,,有限会社,東京都,墨田区,八広５丁目２３番１２号,,13,107,1310041,,,2022-01-27,登記官による閉鎖,,,2015-10-05,1,,,,,,0
393,2010602018998,登記記録の閉鎖等,0,2022-01-27,2022-01-27,有限会社丸屋金物,,有限会社,東京都,江東区,高橋９番３号,,13,108,1350005,,,2022-01-27,登記官による閉鎖,,,2015-10-05,1,,,,,,0
394,2010602025771,登記記録の閉鎖等,0,2022-01-27,2022-01-27,有限会社伏見工業,,有限会社,東京都,江東区,東陽４丁目４番１３号,,13,108,1350016,,,2022-01-27,登記官による閉鎖,,,2015-10-05,1,,,,,,0
395,2010603004444,登記記録の閉鎖等,0,2022-01-27,2022-01-27,クレッセント合同会社,,合同会社,東京都,墨田区,江東橋２丁目１０番７号,,13,107,1300022,,,2022-01-27,登記官による閉鎖,,,2015-10-05,1,,,,,,0
396,2010605001068,登記記録の閉鎖等,0,2022-01-27,2022-01-27,石川島生協労働組合,,その他の設立登記法人,東京都,江東区,豊洲３丁目２番２１号,,13,108,1350061,,,2022-01-27,登記官による閉鎖,,,2015-10-05,1,,,,,,0
399,2010801014393,登記記録の閉鎖等,0,2022-01-27,2022-01-20,ステラソリューション株式会社,,株式会社,東京都,大田区,東糀谷１丁目１番１０号,,13,111,1440033,,,2022-01-20,合併による解散等,9010801014593,令和４年１月２０日東京都大田区東糀谷一丁目１番１０号スリーフォールド株式会社（9010801014593）に合併し解散,2015-10-05,1,,,,,ステラソリューション,0
411,2011001128249,登記記録の閉鎖等,0,2022-01-27,2021-12-22,株式会社Ｏ－ＴＲＡＤＩＮＧ,,株式会社,東京都,渋谷区,千駄ヶ谷３丁目１５番１４号フォーラム千駄ヶ谷１０１,,13,113,1510051,,,2021-12-22,合併による解散等,4011001093672,令和３年１２月１日東京都目黒区青葉台一丁目７番１４－４０３号株式会社Ｋ　Ａｓｓｅｔ　Ｍａｎａｇｅｍｅｎｔ（4011001093672）に合併し解散,2019-05-30,1,,,,,オートレイディング,0
428,2011305000665,登記記録の閉鎖等,0,2022-01-27,2022-01-25,特定非営利活動法人子ども文化ＮＰＯ　Ｍ・Ａ・Ｔ,,その他の設立登記法人,東京都,杉並区,善福寺４丁目１４番１５号,,13,115,1670041,,,2022-01-25,清算の結了等,,,2015-10-05,1,,,,,コドモブンカエヌピーオーエムエイティ,0
437,2011702000029,登記記録の閉鎖等,0,2022-01-27,2022-01-21,有限会社朝日車輌工業,,有限会社,東京都,江戸川区,西瑞江２丁目３６番地４３,,13,123,1320015,,,2022-01-21,登記官による閉鎖,,,2015-10-05,1,,,,,,0
442,2012401024715,登記記録の閉鎖等,0,2022-01-27,2022-01-19,株式会社ＡｓＧａｒｄｅｎ,,株式会社,東京都,調布市,小島町３丁目７４番地１９,,13,208,1820026,,,2022-01-19,合併による解散等,1012401024716,令和４年１月４日東京都調布市布田四丁目１９番地１ライオンズプラザ調布３０５株式会社知財プランニング（1012401024716）に合併し解散,2015-10-05,1,,,,,,0
446,2013301015325,登記記録の閉鎖等,0,2022-01-27,2022-01-27,株式会社アイエーイー,,株式会社,東京都,豊島区,巣鴨４丁目３８番２号,,13,116,1700002,,,2022-01-27,登記官による閉鎖,,,2015-10-05,1,,,,,,0
447,2013301028244,登記記録の閉鎖等,0,2022-01-27,2022-01-27,株式会社ＳＫ再生医療研究所,,株式会社,東京都,豊島区,池袋２丁目３８番１２号,,13,116,1710014,,,2022-01-27,登記官による閉鎖,,,2015-10-05,1,,,,,,0
448,2013301030150,登記記録の閉鎖等,0,2022-01-27,2022-01-27,株式会社ＳＰＣ,,株式会社,東京都,豊島区,池袋２丁目５３番３号,,13,116,1710014,,,2022-01-27,登記官による閉鎖,,,2015-10-05,1,,,,,,0
450,2013302010639,登記記録の閉鎖等,0,2022-01-27,2022-01-27,有限会社吉田工務店,,有限会社,東京都,豊島区,池袋本町１丁目１５番１５号,,13,116,1700011,,,2022-01-27,登記官による閉鎖,,,2015-10-05,1,,,,,,0
451,2013302018178,登記記録の閉鎖等,0,2022-01-27,2022-01-27,有限会社チャップリンハウス,,有限会社,東京都,豊島区,東池袋３丁目２０番１６－１４０４号,,13,116,1700013,,,2022-01-27,登記官による閉鎖,,,2015-10-05,1,,,,,,0
452,2013303000977,登記記録の閉鎖等,0,2022-01-27,2022-01-27,合資会社伊藤住宅,,合資会社,東京都,豊島区,西池袋４丁目３０番１２号,,13,116,1710021,,,2022-01-27,登記官による閉鎖,,,2015-10-05,1,,,,,,0
480,2030002021816,登記記録の閉鎖等,0,2022-01-27,2022-01-24,有限会社実和工芸,,有限会社,埼玉県,さいたま市岩槻区,大字黒谷４０６番地,,11,110,3390033,,,2022-01-24,清算の結了等,,,2015-10-05,1,,,,,ミワコウゲイ,0
493,2050001031780,登記記録の閉鎖等,0,2022-01-27,2022-01-25,株式会社古橋工芸社,,株式会社,茨城県,桜川市,真壁町上小幡５９４番地の１,,08,231,3004401,,,2022-01-25,清算の結了等,,,2015-10-05,1,,,,,フルハシコウゲイシャ,0
507,2080401018458,登記記録の閉鎖等,0,2022-01-27,2022-01-26,株式会社ディープロジェクト,,株式会社,愛知県,岡崎市,欠町字栗宿１番地１ラピュタ１階,,23,202,4440011,,,2022-01-26,清算の結了等,,,2015-10-05,1,,,,,ディープロジェクト,0
510,2100001005317,登記記録の閉鎖等,0,2022-01-27,2022-01-27,株式会社みやじま,,株式会社,長野県,長野市,大字栗田４０３番地５,,20,201,3800921,,,2022-01-27,登記官による閉鎖,,,2015-10-05,1,,,,,,0
511,2100001008815,登記記録の閉鎖等,0,2022-01-27,2022-01-27,三和建設株式会社,,株式会社,長野県,北佐久郡軽井沢町,軽井沢東５番地４,,20,321,3890104,,,2022-01-27,登記官による閉鎖,,,2015-10-05,1,,,,,,0
512,2100001011190,登記記録の閉鎖等,0,2022-01-27,2022-01-27,株式会社ファクトリーナガイ,,株式会社,長野県,上田市,下室賀１１７８番地３,,20,203,3861542,,,2022-01-27,登記官による閉鎖,,,2015-10-05,1,,,,,,0
513,2100001021289,登記記録の閉鎖等,0,2022-01-27,2022-01-27,高根産業株式会社,,株式会社,長野県,駒ヶ根市,北町８番４号,,20,210,3994111,,,2022-01-27,登記官による閉鎖,,,2015-10-05,1,,,,,,0
514,2100001023574,登記記録の閉鎖等,0,2022-01-27,2022-01-27,株式会社モリタフーズ,,株式会社,長野県,下伊那郡高森町,下市田１５５番地３,,20,403,3993103,,,2022-01-27,登記官による閉鎖,,,2015-10-05,1,,,,,,0
515,2100002008459,登記記録の閉鎖等,0,2022-01-27,2022-01-27,有限会社システック須坂,,有限会社,長野県,須坂市,大字日滝１３５６番地７,,20,207,3820000,,,2022-01-27,登記官による閉鎖,,,2015-10-05,1,,,,,,0
516,2100002018870,登記記録の閉鎖等,0,2022-01-27,2022-01-24,有限会社オフィスセナ,,有限会社,長野県,下高井郡山ノ内町,大字佐野２５４３番地１,,20,561,3810402,,,2022-01-24,清算の結了等,,,2015-10-05,1,,,,,オフィスセナ,0
517,2100002027260,登記記録の閉鎖等,0,2022-01-27,2022-01-27,有限会社和泉地質調査事務所,,有限会社,長野県,木曽郡木祖村,大字小木曽２９７７番地６,,20,425,3996203,,,2022-01-27,登記官による閉鎖,,,2015-10-05,1,,,,,,0
518,2100002028548,登記記録の閉鎖等,0,2022-01-27,2022-01-27,有限会社知見寺鉄平石,,有限会社,長野県,諏訪市,大字上諏訪１３３３０番地の２５,,20,206,3920003,,,2022-01-27,登記官による閉鎖,,,2015-10-05,1,,,,,,0
519,2100002031196,登記記録の閉鎖等,0,2022-01-27,2022-01-27,有限会社コマツ製作所,,有限会社,長野県,岡谷市,東銀座１丁目１２番４号,,20,204,3940023,,,2022-01-27,登記官による閉鎖,,,2015-10-05,1,,,,,,0
520,2100002037549,登記記録の閉鎖等,0,2022-01-27,2022-01-27,有限会社やすらぎ観光,,有限会社,長野県,下伊那郡阿智村,智里４３１番地,,20,407,3950304,,,2022-01-27,登記官による閉鎖,,,2015-10-05,1,,,,,,0
521,2100005006815,登記記録の閉鎖等,0,2022-01-27,2022-01-27,特定非営利活動法人日本有機協会,,その他の設立登記法人,長野県,塩尻市,大字塩尻町５３番地１,,20,215,3990712,,,2022-01-27,登記官による閉鎖,,,2015-10-05,1,,,,,,0
563,2150002006268,登記記録の閉鎖等,0,2022-01-27,2022-01-24,有限会社ゴトー油化販売,,有限会社,奈良県,生駒郡斑鳩町,服部１丁目１０番４１号,,29,344,6360131,,,2022-01-24,清算の結了等,,,2015-10-05,1,,,,,ゴトーユカハンバイ,0
567,2170005000605,登記記録の閉鎖等,0,2022-01-27,2021-12-28,天理教紀和華分教会,,その他の設立登記法人,和歌山県,和歌山市,太田２９７番地の１３,,30,201,6408323,,,2021-12-28,合併による解散等,4170005004406,令和３年１２月２８日和歌山県御坊市湯川町小松原２３３番地天理教湯川分教会（4170005004406）に合併し解散,2015-10-05,1,,,,,テンリキョウキワハナブンキョウカイ,0
577,2230001005824,登記記録の閉鎖等,0,2022-01-27,2022-01-20,株式会社マナ企画,,株式会社,富山県,富山市,中冨居新町３番１２号,,16,201,9300830,,,2022-01-20,合併による解散等,5230001000376,令和４年１月２０日富山市中冨居新町３番１２号株式会社エクト（5230001000376）に合併し解散,2015-10-05,1,,,,,マナキカク,0
578,2240001018544,登記記録の閉鎖等,0,2022-01-27,2022-01-21,株式会社アイティゼット,,株式会社,東京都,新宿区,四谷坂町２２番,,13,104,1600002,,,2022-01-21,清算の結了等,,,2015-10-05,1,,,,,アイティゼット,0
592,2290001053470,登記記録の閉鎖等,0,2022-01-27,2022-01-24,株式会社和騎,,株式会社,福岡県,大川市,大字鐘ケ江１２番地の１,,40,212,8310008,,,2022-01-24,清算の結了等,,,2015-12-21,1,,,,,ワキ,0
604,2290005003851,登記記録の閉鎖等,0,2022-01-27,2022-01-25,リニューアル福岡協同組合,,その他の設立登記法人,福岡県,福岡市博多区,竹丘町２丁目５番１０号,,40,132,8120878,,,2022-01-25,清算の結了等,,,2015-10-05,1,,,,,リニューアルフクオカ,0
610,2310001002383,登記記録の閉鎖等,0,2022-01-27,2022-01-26,渡辺乳業株式会社,,株式会社,長崎県,長崎市,福田本町６７番地１,,42,201,8500068,,,2022-01-26,登記官による閉鎖,,,2016-09-29,1,,,,,,0
611,2310001003943,登記記録の閉鎖等,0,2022-01-27,2022-01-26,株式会社キュウコウ,,株式会社,長崎県,長崎市,金堀町４１番２１号,,42,201,8528026,,,2022-01-26,登記官による閉鎖,,,2015-10-05,1,,,,,,0
612,2310001007878,登記記録の閉鎖等,0,2022-01-27,2022-01-26,株式会社諫早土地建物,,株式会社,長崎県,諫早市,福田町６番１号,,42,204,8540001,,,2022-01-26,登記官による閉鎖,,,2015-10-05,1,,,,,,0
616,2310002020013,登記記録の閉鎖等,0,2022-01-27,2022-01-26,有限会社オーシャンパールライン,,有限会社,長崎県,対馬市,厳原町東里３４１番地４２,,42,209,8170016,,,2022-01-26,登記官による閉鎖,,,2015-10-05,1,,,,,,0
620,2340001006373,登記記録の閉鎖等,0,2022-01-27,2022-01-26,株式会社福元技研,,株式会社,鹿児島県,鹿児島市,郡山町２５７１番地１,,46,201,8911105,,,2022-01-26,清算の結了等,,,2015-10-05,1,,,,,,0
626,2370005010121,登記記録の閉鎖等,0,2022-01-27,2022-01-24,みちのく人材協同組合,,その他の設立登記法人,宮城県,仙台市泉区,黒松２丁目１番１５号,,04,105,9818006,,,2022-01-24,清算の結了等,,,2020-06-15,1,,,,,ミチノクジンザイ,0
649,3010001000210,登記記録の閉鎖等,0,2022-01-27,2022-01-27,株式会社アールアンドエル,,株式会社,東京都,文京区,小石川３丁目２６番１８号,,13,105,1120002,,,2022-01-27,登記官による閉鎖,,,2015-10-05,1,,,,,,0
651,3010001006414,登記記録の閉鎖等,0,2022-01-27,2022-01-27,株式会社ハタ・エンタープライズ,,株式会社,東京都,文京区,春日２丁目１０番６号,,13,105,1120003,,,2022-01-27,登記官による閉鎖,,,2015-10-05,1,,,,,,0
652,3010001016999,登記記録の閉鎖等,0,2022-01-27,2022-01-27,三和地所株式会社,,株式会社,東京都,千代田区,内神田３丁目２番４号,,13,101,1010047,,,2022-01-27,登記官による閉鎖,,,2015-10-05,1,,,,,,0
653,3010001017312,登記記録の閉鎖等,0,2022-01-27,2022-01-27,佐川商事株式会社,,株式会社,東京都,千代田区,岩本町１丁目１１番５号,,13,101,1010032,,,2022-01-27,登記官による閉鎖,,,2015-10-05,1,,,,,,0
654,3010001036064,登記記録の閉鎖等,0,2022-01-27,2022-01-27,株式会社アームス,,株式会社,東京都,中央区,日本橋室町１丁目８番２号,,13,102,1030022,,,2022-01-27,登記官による閉鎖,,,2015-10-05,1,,,,,,0
655,3010001037038,登記記録の閉鎖等,0,2022-01-27,2022-01-27,株式会社イマブン,,株式会社,東京都,中央区,日本橋馬喰町１丁目１２番１０号,,13,102,1030002,,,2022-01-27,登記官による閉鎖,,,2015-10-05,1,,,,,,0
656,3010001038226,登記記録の閉鎖等,0,2022-01-27,2022-01-27,株式会社エスプ,,株式会社,東京都,中央区,八丁堀２丁目１３番８号,,13,102,1040032,,,2022-01-27,登記官による閉鎖,,,2015-10-05,1,,,,,,0
657,3010001044273,登記記録の閉鎖等,0,2022-01-27,2022-01-27,株式会社三朋,,株式会社,東京都,中央区,銀座７丁目１０番５－１２０１号,,13,102,1040061,,,2022-01-27,登記官による閉鎖,,,2015-10-05,1,,,,,,0
658,3010001047152,登記記録の閉鎖等,0,2022-01-27,2022-01-27,株式会社ジヤパンアドクリエート,,株式会社,東京都,中央区,銀座２丁目１０番６号,,13,102,1040061,,,2022-01-27,登記官による閉鎖,,,2015-10-05,1,,,,,,0
660,3010001067761,登記記録の閉鎖等,0,2022-01-27,2022-01-27,株式会社アスカ,,株式会社,東京都,文京区,湯島４丁目６番１１－８０４号,,13,105,1130034,,,2022-01-27,登記官による閉鎖,,,2015-10-05,1,,,,,,0
661,3010001069246,登記記録の閉鎖等,0,2022-01-27,2022-01-27,株式会社日本ウッド,,株式会社,東京都,中央区,日本橋馬喰町１丁目５番１６号,,13,102,1030002,,,2022-01-27,登記官による閉鎖,,,2015-10-05,1,,,,,,0
663,3010001081465,登記記録の閉鎖等,0,2022-01-27,2022-01-27,ドライバーズ・コンシェルジェジャパン株式会社,,株式会社,東京都,中央区,日本橋茅場町２丁目７番１０号,,13,102,1030025,,,2022-01-27,登記官による閉鎖,,,2015-10-05,1,,,,,,0
664,3010001083420,登記記録の閉鎖等,0,2022-01-27,2022-01-27,株式会社コスモクリード,,株式会社,東京都,中央区,日本橋蛎殻町１丁目１７番２号,,13,102,1030014,,,2022-01-27,登記官による閉鎖,,,2015-10-05,1,,,,,,0
666,3010001087561,登記記録の閉鎖等,0,2022-01-27,2022-01-27,丸石メディケア株式会社,,株式会社,東京都,千代田区,鍛冶町１丁目１０番４号,,13,101,1010044,,,2022-01-27,登記官による閉鎖,,,2015-10-05,1,,,,,,0
667,3010001088997,登記記録の閉鎖等,0,2022-01-27,2022-01-27,株式会社Ｃｏｔｔａｇｅ＆ＧａｒｄｅｎＰｌａｎｎｉｎｇ,,株式会社,東京都,中央区,京橋１丁目１０番３号服部ビル８階,,13,102,1040031,,,2022-01-27,登記官による閉鎖,,,2015-10-05,1,,,,,,0
668,3010001093923,登記記録の閉鎖等,0,2022-01-27,2022-01-27,株式会社アミティ２１,,株式会社,東京都,中央区,築地２丁目１番２号,,13,102,1040045,,,2022-01-27,登記官による閉鎖,,,2015-10-05,1,,,,,,0
669,3010001118119,登記記録の閉鎖等,0,2022-01-27,2022-01-27,ジョイント株式会社,,株式会社,東京都,中央区,銀座８丁目７番２１号,,13,102,1040061,,,2022-01-27,登記官による閉鎖,,,2015-10-05,1,,,,,,0
670,3010001122640,登記記録の閉鎖等,0,2022-01-27,2022-01-27,株式会社サンズファクトリー,,株式会社,東京都,文京区,関口１丁目４３番６号,,13,105,1120014,,,2022-01-27,登記官による閉鎖,,,2015-10-05,1,,,,,,0
671,3010001129066,登記記録の閉鎖等,0,2022-01-27,2022-01-27,株式会社東日本ＦＭＣ本部,,株式会社,東京都,中央区,八丁堀２丁目２９番１４号カイセイ八丁堀ビル２Ｆ,,13,102,1040032,,,2022-01-27,登記官による閉鎖,,,2015-10-05,1,,,,,,0
672,3010001133654,登記記録の閉鎖等,0,2022-01-27,2022-01-27,株式会社デジタルレーベル,,株式会社,東京都,千代田区,外神田３丁目６番２号,,13,101,1010021,,,2022-01-27,登記官による閉鎖,,,2015-10-05,1,,,,,,0
673,3010001138133,登記記録の閉鎖等,0,2022-01-27,2022-01-27,株式会社ナショナルトレード,,株式会社,東京都,中央区,日本橋兜町５番１号ＭＥＴＬＩＦＥ兜町ビル３階,,13,102,1030026,,,2022-01-27,登記官による閉鎖,,,2015-10-05,1,,,,,,0
674,3010001144718,登記記録の閉鎖等,0,2022-01-27,2022-01-27,曲木製本株式会社,,株式会社,東京都,文京区,大塚５丁目１８番２１号,00060777,13,105,1120012,,,2022-01-27,登記官による閉鎖,,,2015-10-05,1,,,,,,0
680,3010002003212,登記記録の閉鎖等,0,2022-01-27,2022-01-27,有限会社スクアール,,有限会社,東京都,文京区,千石４丁目４５番１８号,,13,105,1120011,,,2022-01-27,登記官による閉鎖,,,2015-10-05,1,,,,,,0
681,3010002005828,登記記録の閉鎖等,0,2022-01-27,2022-01-27,有限会社ミングルパーティー,,有限会社,東京都,文京区,目白台１丁目１４番１３号,,13,105,1120015,,,2022-01-27,登記官による閉鎖,,,2015-10-05,1,,,,,,0
682,3010002014416,登記記録の閉鎖等,0,2022-01-27,2022-01-27,有限会社堀田,,有限会社,東京都,千代田区,九段南４丁目７番１７号,,13,101,1020074,,,2022-01-27,登記官による閉鎖,,,2015-10-05,1,,,,,,0
683,3010002018672,登記記録の閉鎖等,0,2022-01-27,2022-01-27,有限会社カナイアートビジネス,,有限会社,東京都,中央区,新川２丁目２番１号,,13,102,1040033,,,2022-01-27,登記官による閉鎖,,,2015-10-05,1,,,,,,0
684,3010002020736,登記記録の閉鎖等,0,2022-01-27,2022-01-27,有限会社新建設備設計連合,,有限会社,東京都,中央区,新川２丁目１０番６号,,13,102,1040033,,,2022-01-27,登記官による閉鎖,,,2015-10-05,1,,,,,,0
685,3010002031345,登記記録の閉鎖等,0,2022-01-27,2022-01-27,有限会社トリニータ,,有限会社,東京都,文京区,本郷５丁目２１番１１号,,13,105,1130033,,,2022-01-27,登記官による閉鎖,,,2015-10-05,1,,,,,,0
686,3010002045691,登記記録の閉鎖等,0,2022-01-27,2022-01-27,有限会社喜かね,,有限会社,東京都,中央区,銀座７丁目５番１６号,,13,102,1040061,,,2022-01-27,登記官による閉鎖,,,2015-10-05,1,,,,,,0
687,3010003015066,登記記録の閉鎖等,0,2022-01-27,2022-01-27,カヴァリエ・インベストメント・パートナーズ合同会社,,合同会社,東京都,中央区,日本橋茅場町２丁目７番３号,,13,102,1030025,,,2022-01-27,登記官による閉鎖,,,2015-10-05,1,,,,,,0
690,3010005008786,登記記録の閉鎖等,0,2022-01-27,2022-01-27,特定非営利活動法人国際健康栄養医学機構,,その他の設立登記法人,東京都,中央区,京橋２丁目９番１２号日本工築１号館４階Ｃ室,,13,102,1040031,,,2022-01-27,登記官による閉鎖,,,2015-10-05,1,,,,,,0
691,3010005011154,登記記録の閉鎖等,0,2022-01-27,2022-01-27,興和創薬労働組合,,その他の設立登記法人,東京都,中央区,日本橋本町３丁目４番９号シティ本町ビル,,13,102,1030023,,,2022-01-27,登記官による閉鎖,,,2015-10-05,1,,,,,,0
704,3010501000635,登記記録の閉鎖等,0,2022-01-27,2022-01-27,朝日メンテナンス株式会社,,株式会社,東京都,台東区,上野３丁目９番１号,,13,106,1100005,,,2022-01-27,登記官による閉鎖,,,2015-10-05,1,,,,,,0
705,3010501014957,登記記録の閉鎖等,0,2022-01-27,2022-01-27,株式会社ログワールド,,株式会社,東京都,台東区,北上野２丁目６番１３号,,13,106,1100014,,,2022-01-27,登記官による閉鎖,,,2015-10-05,1,,,,,,0
706,3010501027380,登記記録の閉鎖等,0,2022-01-27,2022-01-27,ｖｉｖｉｄ　ｓｉｇｈｔ株式会社,,株式会社,東京都,台東区,入谷２丁目３－２コンフォート入谷７０１,,13,106,1100013,,,2022-01-27,登記官による閉鎖,,,2015-10-05,1,,,,,,0
707,3010501030442,登記記録の閉鎖等,0,2022-01-27,2022-01-27,株式会社クリーンギア空調設備,,株式会社,東京都,台東区,台東１丁目９番４号,,13,106,1100016,,,2022-01-27,登記官による閉鎖,,,2015-10-05,1,,,,,,0
708,3010501032414,登記記録の閉鎖等,0,2022-01-27,2022-01-27,株式会社アストロン・ジャパン,,株式会社,東京都,台東区,東上野３丁目３７番６号三翠ビル,,13,106,1100015,,,2022-01-27,登記官による閉鎖,,,2015-10-05,1,,,,,,0
710,3010502001491,登記記録の閉鎖等,0,2022-01-27,2022-01-27,馬道佐々木加工有限会社,,有限会社,東京都,台東区,浅草５丁目４３番８号,,13,106,1110032,,,2022-01-27,登記官による閉鎖,,,2015-10-05,1,,,,,,0
711,3010502009700,登記記録の閉鎖等,0,2022-01-27,2022-01-27,有限会社富士クリーニング,,有限会社,東京都,台東区,今戸２丁目３３番１２号,,13,106,1110024,,,2022-01-27,登記官による閉鎖,,,2015-10-05,1,,,,,,0
712,3010502017629,登記記録の閉鎖等,0,2022-01-27,2022-01-27,ムツミ商事有限会社,,有限会社,東京都,台東区,元浅草４丁目５番１９号,,13,106,1110041,,,2022-01-27,登記官による閉鎖,,,2015-10-05,1,,,,,,0
713,3010502020467,登記記録の閉鎖等,0,2022-01-27,2022-01-27,加工部品精工有限会社,,有限会社,東京都,台東区,台東４丁目２４番１２号グリーンビラ木村９０４号,,13,106,1100016,,,2022-01-27,登記官による閉鎖,,,2015-10-05,1,,,,,,0
715,3010601015194,登記記録の閉鎖等,0,2022-01-27,2022-01-27,株式会社フジパッキング製作所,,株式会社,東京都,墨田区,緑３丁目１９番５号ヴエルドミール緑町１０３号,,13,107,1300021,,,2022-01-27,登記官による閉鎖,,,2015-10-05,1,,,,,,0
716,3010601028279,登記記録の閉鎖等,0,2022-01-27,2022-01-27,株式会社エムオーシー,,株式会社,東京都,江東区,大島２丁目２０番１８号,,13,108,1360072,,,2022-01-27,登記官による閉鎖,,,2015-10-05,1,,,,,,0
717,3010601039549,登記記録の閉鎖等,0,2022-01-27,2022-01-27,株式会社Ｗｉｎｎｅｒｓ,,株式会社,東京都,墨田区,亀沢４丁目１７番３号,,13,107,1300014,,,2022-01-27,登記官による閉鎖,,,2015-10-05,1,,,,,,0
718,3010601039929,登記記録の閉鎖等,0,2022-01-27,2022-01-27,Ｊ－Ｇｌｏｂａｌ株式会社,,株式会社,東京都,江東区,有明３丁目７番２６号,,13,108,1350063,,,2022-01-27,登記官による閉鎖,,,2015-10-05,1,,,,,,0
719,3010601039978,登記記録の閉鎖等,0,2022-01-27,2022-01-27,株式会社アクア販売,,株式会社,東京都,江東区,有明３丁目７番２６号有明フロンティアビルＢ棟９階,,13,108,1350063,,,2022-01-27,登記官による閉鎖,,,2015-10-05,1,,,,,,0
720,3010602001821,登記記録の閉鎖等,0,2022-01-27,2022-01-27,有限会社カルチャー・ビジネス・カンパニー,,有限会社,東京都,江東区,門前仲町１丁目４番３号,,13,108,1350048,,,2022-01-27,登記官による閉鎖,,,2015-10-05,1,,,,,,0
721,3010602008338,登記記録の閉鎖等,0,2022-01-27,2022-01-27,有限会社右島湯のし店,,有限会社,東京都,江東区,常盤１丁目１９番８号,,13,108,1350006,,,2022-01-27,登記官による閉鎖,,,2015-10-05,1,,,,,,0
722,3010602011671,登記記録の閉鎖等,0,2022-01-27,2022-01-27,墨田紙工機械有限会社,,有限会社,東京都,墨田区,墨田４丁目４５番３号,,13,107,1310031,,,2022-01-27,登記官による閉鎖,,,2015-10-05,1,,,,,,0
723,3010602020961,登記記録の閉鎖等,0,2022-01-27,2022-01-27,有限会社松やクリーニング工場,,有限会社,東京都,墨田区,東駒形１丁目１８番７号,,13,107,1300005,,,2022-01-27,登記官による閉鎖,,,2015-10-05,1,,,,,,0
724,3010602033889,登記記録の閉鎖等,0,2022-01-27,2022-01-27,有限会社ハイアンドロー,,有限会社,東京都,墨田区,向島５丁目３１番５号,,13,107,1310033,,,2022-01-27,登記官による閉鎖,,,2015-10-05,1,,,,,,0
725,3010603003908,登記記録の閉鎖等,0,2022-01-27,2022-01-27,合名会社ティンク・コーポレーション,,合名会社,東京都,墨田区,八広５丁目３番３号,,13,107,1310041,,,2022-01-27,登記官による閉鎖,,,2015-10-05,1,,,,,,0
727,3010605002040,登記記録の閉鎖等,0,2022-01-27,2022-01-27,医療法人社団矯仁会,,その他の設立登記法人,東京都,墨田区,両国４丁目３７番２号,,13,107,1300026,,,2022-01-27,登記官による閉鎖,,,2015-10-05,1,,,,,,0
737,3011101059145,登記記録の閉鎖等,0,2022-01-27,2022-01-27,株式会社ルネッサンス,,株式会社,東京都,千代田区,九段南４丁目６番１０号,,13,101,1020074,,,2022-01-27,登記官による閉鎖,,,2015-10-05,1,,,,,,0
753,3013301015803,登記記録の閉鎖等,0,2022-01-27,2022-01-27,株式会社ノーザン・クロス,,株式会社,東京都,豊島区,池袋２丁目６５番１号フェリスプラザオンダ５０５,,13,116,1710014,,,2022-01-27,登記官による閉鎖,,,2015-10-05,1,,,,,,0
754,3013301026156,登記記録の閉鎖等,0,2022-01-27,2022-01-27,株式会社ヒルズネット,,株式会社,東京都,豊島区,池袋２丁目４４番２号ＴＩＳビル８Ｆ,,13,116,1710014,,,2022-01-27,登記官による閉鎖,,,2015-10-05,1,,,,,,0
755,3013301026288,登記記録の閉鎖等,0,2022-01-27,2022-01-27,株式会社ｏｆｆｉｃｅ　ＨａｔｃＨ,,株式会社,東京都,豊島区,千早１丁目３０番２号,,13,116,1710044,,,2022-01-27,登記官による閉鎖,,,2015-10-05,1,,,,,,0
756,3013301028103,登記記録の閉鎖等,0,2022-01-27,2022-01-27,株式会社Ｆｕｔｕｒｅ　Ｄｅｓｉｇｎ　Ｉｎｔｅｒｎａｔｉｏｎａｌ,,株式会社,東京都,豊島区,東池袋１丁目３６－７アルテール東池袋７０４,,13,116,1700013,,,2022-01-27,登記官による閉鎖,,,2015-10-05,1,,,,,,0
757,3013301030620,登記記録の閉鎖等,0,2022-01-27,2022-01-27,株式会社ＣＲＩＣＫＥＴ,,株式会社,東京都,豊島区,東池袋１丁目３３番４－５１４号,,13,116,1700013,,,2022-01-27,登記官による閉鎖,,,2015-10-05,1,,,,,,0
760,3013302019019,登記記録の閉鎖等,0,2022-01-27,2022-01-27,有限会社ＳＴＡＲ　ＣＯＭＭＵＮＩＣＡＴＩＯＮＳ,,有限会社,東京都,豊島区,東池袋１丁目３１番６号,,13,116,1700013,,,2022-01-27,登記官による閉鎖,,,2015-10-05,1,,,,,,0
761,3013303001710,登記記録の閉鎖等,0,2022-01-27,2022-01-27,合同会社加藤商事,,合同会社,東京都,豊島区,東池袋４丁目３３－３松風荘２階２０号室,,13,116,1700013,,,2022-01-27,登記官による閉鎖,,,2015-10-05,1,,,,,,0
762,3013303001776,登記記録の閉鎖等,0,2022-01-27,2022-01-27,桜庭企画合同会社,,合同会社,東京都,豊島区,西巣鴨４丁目６番２号静谷マンション６０３号,,13,116,1700001,,,2022-01-27,登記官による閉鎖,,,2015-10-05,1,,,,,,0
763,3013305001279,登記記録の閉鎖等,0,2022-01-27,2022-01-27,東都印刷マーケティング協同組合,,その他の設立登記法人,東京都,豊島区,東池袋５丁目８番１４号,,13,116,1700013,,,2022-01-27,登記官による閉鎖,,,2015-10-05,1,,,,,,0
796,3080401011008,登記記録の閉鎖等,0,2022-01-27,2022-01-25,株式会社ウインクル,,株式会社,静岡県,浜松市中区,佐鳴台６丁目１０番３号,,22,131,4328021,,,2022-01-25,清算の結了等,,,2015-10-05,1,,,,,ウインクル,0
802,3100001000663,登記記録の閉鎖等,0,2022-01-27,2022-01-27,株式会社金沢産業,,株式会社,長野県,長野市,大字大町５８５番地１,,20,201,3810004,,,2022-01-27,登記官による閉鎖,,,2015-10-05,1,,,,,,0
803,3100001001620,登記記録の閉鎖等,0,2022-01-27,2022-01-27,株式会社誠研,,株式会社,長野県,長野市,大字稲葉字日詰沖１８５１番地７,,20,201,3800911,,,2022-01-27,登記官による閉鎖,,,2015-10-05,1,,,,,,0
804,3100001005398,登記記録の閉鎖等,0,2022-01-27,2022-01-27,株式会社アイネックス,,株式会社,長野県,長野市,大字上駒沢２９０番地５,,20,201,3810082,,,2022-01-27,登記官による閉鎖,,,2015-10-05,1,,,,,,0
805,3100001007304,登記記録の閉鎖等,0,2022-01-27,2022-01-27,株式会社進和不動産,,株式会社,長野県,佐久市,岩村田２５６６番地５２,,20,217,3850022,,,2022-01-27,登記官による閉鎖,,,2015-10-05,1,,,,,,0
806,3100001019596,登記記録の閉鎖等,0,2022-01-27,2022-01-27,株式会社関野組,,株式会社,長野県,岡谷市,郷田１丁目４番２５号,,20,204,3940021,,,2022-01-27,登記官による閉鎖,,,2015-10-05,1,,,,,,0
807,3100001019811,登記記録の閉鎖等,0,2022-01-27,2022-01-24,株式会社ユタカ工機,,株式会社,長野県,岡谷市,長地御所１丁目４番１７号,,20,204,3940082,,,2022-01-24,清算の結了等,,,2015-10-05,1,,,,,ユタカコウキ,0
808,3100001020414,登記記録の閉鎖等,0,2022-01-27,2022-01-27,地域広告ネット株式会社,,株式会社,長野県,茅野市,米沢６９６６番地,,20,214,3910216,,,2022-01-27,登記官による閉鎖,,,2015-10-05,1,,,,,,0
811,3100002000613,登記記録の閉鎖等,0,2022-01-27,2022-01-27,有限会社ウッディ小西,,有限会社,長野県,長野市,稲里町下氷鉋９４７番地,,20,201,3812211,,,2022-01-27,登記官による閉鎖,,,2015-10-05,1,,,,,,0
812,3100002003070,登記記録の閉鎖等,0,2022-01-27,2022-01-27,有限会社玉川薬品,,有限会社,長野県,長野市,東後町１３番地の１,,20,201,3810000,,,2022-01-27,登記官による閉鎖,,,2015-10-05,1,,,,,,0
814,3100002013268,登記記録の閉鎖等,0,2022-01-27,2022-01-27,有限会社長谷川測量事務所,,有限会社,長野県,北佐久郡軽井沢町,中軽井沢２４番地,,20,321,3890112,,,2022-01-27,登記官による閉鎖,,,2015-10-05,1,,,,,,0
815,3100002014398,登記記録の閉鎖等,0,2022-01-27,2022-01-27,有限会社デーライト,,有限会社,長野県,上田市,芳田１６１１番地２,,20,203,3860151,,,2022-01-27,登記官による閉鎖,,,2015-10-05,1,,,,,,0
816,3100002017839,登記記録の閉鎖等,0,2022-01-27,2022-01-27,金タ小林建設有限会社,,有限会社,長野県,中野市,大字三ツ和１０６５番地の２,,20,211,3830043,,,2022-01-27,登記官による閉鎖,,,2015-10-05,1,,,,,,0
817,3100002021122,登記記録の閉鎖等,0,2022-01-27,2022-01-27,有限会社パーフェクト,,有限会社,長野県,松本市,大字笹賀３４６６番地１０,,20,202,3990033,,,2022-01-27,登記官による閉鎖,,,2015-10-05,1,,,,,,0
818,3100002026922,登記記録の閉鎖等,0,2022-01-27,2022-01-27,有限会社メガネのパイロツト,,有限会社,長野県,大町市,大町４２４５番地,,20,212,3980002,,,2022-01-27,登記官による閉鎖,,,2015-10-05,1,,,,,,0
819,3100002029223,登記記録の閉鎖等,0,2022-01-27,2022-01-27,信州燃料有限会社,,有限会社,長野県,諏訪市,大字上諏訪１９１６番地,,20,206,3920003,,,2022-01-27,登記官による閉鎖,,,2015-10-05,1,,,,,,0
820,3100002038232,登記記録の閉鎖等,0,2022-01-27,2022-01-27,有限会社スダオール,,有限会社,長野県,下伊那郡高森町,下市田６６０番地３,,20,403,3993103,,,2022-01-27,登記官による閉鎖,,,2015-10-05,1,,,,,,0
821,3100002039131,登記記録の閉鎖等,0,2022-01-27,2022-01-27,有限会社佐久秀,,有限会社,長野県,佐久市,大字志賀字宮東６２１８番地,,20,217,3850000,,,2022-01-27,登記官による閉鎖,,,2016-04-06,1,,,,,,0
822,3100003000694,登記記録の閉鎖等,0,2022-01-27,2022-01-27,合資会社丸大,,合資会社,長野県,佐久市,岩村田３２５４番地１２,,20,217,3850022,,,2022-01-27,登記官による閉鎖,,,2015-10-05,1,,,,,,0
823,3100005005849,登記記録の閉鎖等,0,2022-01-27,2022-01-27,農事組合法人松本平酪農団地組合,,その他の設立登記法人,長野県,松本市,大字和田１７７１番地,,20,202,3901242,,,2022-01-27,登記官による閉鎖,,,2015-10-05,1,,,,,,0
824,3100005006715,登記記録の閉鎖等,0,2022-01-27,2022-01-27,農事組合法人本城農場,,その他の設立登記法人,長野県,東筑摩郡筑北村,西条１４７５番地,,20,452,3997501,,,2022-01-27,登記官による閉鎖,,,2015-10-05,1,,,,,,0
825,3100005011863,登記記録の閉鎖等,0,2022-01-27,2022-01-27,東塩田村農業會,00106877,その他の設立登記法人,長野県,上田市,古安曽１８６０番地１,,20,203,3861213,,,2022-01-27,登記官による閉鎖,,,2016-06-02,1,,,,,,0
826,3110002022994,登記記録の閉鎖等,0,2022-01-27,2022-01-24,有限会社タカダキャッスルホテル,,有限会社,新潟県,上越市,仲町４丁目５番７号,,15,222,9430831,,,2022-01-24,清算の結了等,,,2015-10-05,1,,,,,,0
840,3120001233220,登記記録の閉鎖等,0,2022-01-27,2022-01-21,モンドエフ株式会社,,株式会社,大阪府,大阪市西区,西本町２丁目１－１・３階,,27,106,5500005,,,2022-01-21,清算の結了等,,,2020-11-17,1,,,,,モンドエフ,0
844,3120005014518,登記記録の閉鎖等,0,2022-01-27,2022-01-24,一般社団法人金型協会,,その他の設立登記法人,大阪府,大阪市中央区,本町橋２番５号マイドームおおさか内,,27,128,5400029,,,2022-01-24,清算の結了等,,,2015-10-05,1,,,,,カナガタキョウカイ,0
858,3130002003729,登記記録の閉鎖等,0,2022-01-27,2022-01-21,有限会社駒野,,有限会社,京都府,亀岡市,篠町見晴５丁目１番２号,,26,206,6210824,,,2022-01-21,清算の結了等,,,2015-10-05,1,,,,,コマノ,0
864,3140001086170,登記記録の閉鎖等,0,2022-01-27,2022-01-24,株式会社シノユニーク,,株式会社,兵庫県,洲本市,塩屋２丁目１番２４号－Ｄ,,28,205,6560021,,,2022-01-24,清算の結了等,,,2015-10-05,1,,,,,シノユニーク,0
877,3160001005590,登記記録の閉鎖等,0,2022-01-27,2022-01-25,株式会社丸五商店,,株式会社,滋賀県,甲賀市,信楽町長野１９７番地の１,,25,209,5291851,,,2022-01-25,清算の結了等,,,2015-10-05,1,,,,,マルゴショウテン,0
895,3200001027622,登記記録の閉鎖等,0,2022-01-27,2022-01-25,株式会社高山提灯,,株式会社,岐阜県,高山市,本町４丁目３３番地,,21,203,5060011,,,2022-01-25,清算の結了等,,,2015-10-05,1,,,,,タカヤマチョウチン,0
897,3200003002334,登記記録の閉鎖等,0,2022-01-27,2022-01-25,合資会社山モ製陶所,,合資会社,岐阜県,土岐市,駄知町１９９番地,,21,212,5095401,,,2022-01-25,清算の結了等,,,2015-10-05,1,,,,,ヤマモセイトウショ,0
902,3240001030226,登記記録の閉鎖等,0,2022-01-27,2022-01-26,株式会社垣木商店,,株式会社,広島県,福山市,水呑町１４５６番地,,34,207,7200832,,,2022-01-26,清算の結了等,,,2015-10-05,1,,,,,カキギショウテン,0
924,3290801002493,登記記録の閉鎖等,0,2022-01-27,2022-01-21,株式会社戸川鑑定士事務所,,株式会社,福岡県,北九州市若松区,修多羅２丁目１０番３５号,,40,103,8080053,,,2022-01-21,清算の結了等,,,2015-10-05,1,,,,,トガワカンテイシジムショ,0
927,3310002001904,登記記録の閉鎖等,0,2022-01-27,2022-01-26,有限会社サーヴエイプラン,,有限会社,長崎県,長崎市,蚊焼町２２０番地１,,42,201,8510401,,,2022-01-26,登記官による閉鎖,,,2015-10-05,1,,,,,,0
928,3310002011804,登記記録の閉鎖等,0,2022-01-27,2022-01-26,有限会社宮益商事,,有限会社,長崎県,佐世保市,松川町１番１３号,,42,202,8570804,,,2022-01-26,登記官による閉鎖,,,2015-10-05,1,,,,,,0
929,3310002013230,登記記録の閉鎖等,0,2022-01-27,2022-01-26,世晃商会有限会社,,有限会社,長崎県,佐世保市,吉井町直谷１０５２番地６,,42,202,8596305,,,2022-01-26,登記官による閉鎖,,,2015-10-05,1,,,,,,0
930,3310003001688,登記記録の閉鎖等,0,2022-01-27,2022-01-26,合資会社うぐいすや旅館,,合資会社,長崎県,雲仙市,小浜町北本町９０５番地３５,,42,213,8540514,,,2022-01-26,登記官による閉鎖,,,2015-10-05,1,,,,,,0
932,3310005003856,登記記録の閉鎖等,0,2022-01-27,2022-01-26,特定非営利活動法人じまんの島・五島ネットワーク,,その他の設立登記法人,長崎県,南松浦郡新上五島町,奈良尾郷８５９番地６,,42,411,8533101,,,2022-01-26,登記官による閉鎖,,,2015-10-05,1,,,,,,0
945,3370302003413,登記記録の閉鎖等,0,2022-01-27,2022-01-25,有限会社阿部総合,,有限会社,宮城県,石巻市,向陽町３丁目１６番１３号,,04,202,9860863,,,2022-01-25,清算の結了等,,,2015-10-05,1,,,,,アベソウゴウ,0
947,3380002028420,登記記録の閉鎖等,0,2022-01-27,2022-01-25,有限会社しばた,,有限会社,福島県,相馬市,中村字新町１４２番地,,07,209,9760042,,,2022-01-25,清算の結了等,,,2015-10-05,1,,,,,シバタ,0
951,3410003001802,登記記録の閉鎖等,0,2022-01-27,2022-01-24,三浦薬品合名会社,,合名会社,秋田県,山本郡三種町,鵜川字西鵜川７０番地,,05,348,0182401,,,2022-01-24,清算の結了等,,,2015-10-05,1,,,,,,0
967,4010001007337,登記記録の閉鎖等,0,2022-01-27,2022-01-27,松本印刷株式会社,,株式会社,東京都,文京区,関口１丁目４４番７号,,13,105,1120014,,,2022-01-27,登記官による閉鎖,,,2015-10-05,1,,,,,,0
968,4010001032500,登記記録の閉鎖等,0,2022-01-27,2022-01-27,ロニー・エンタープライズ株式会社,,株式会社,東京都,千代田区,麹町３丁目３番地,00060531,13,101,1020083,,,2022-01-27,登記官による閉鎖,,,2015-10-05,1,,,,,,0
970,4010001045262,登記記録の閉鎖等,0,2022-01-27,2022-01-27,サンメイ．シツピングサービス株式会社,,株式会社,東京都,千代田区,内神田２丁目９番９号,,13,101,1010047,,,2022-01-27,登記官による閉鎖,,,2015-10-05,1,,,,,,0
971,4010001053868,登記記録の閉鎖等,0,2022-01-27,2022-01-27,株式会社ニュートン,,株式会社,東京都,中央区,日本橋浜町２丁目１８番４号,,13,102,1030007,,,2022-01-27,登記官による閉鎖,,,2015-10-05,1,,,,,,0
972,4010001059361,登記記録の閉鎖等,0,2022-01-27,2022-01-27,八代印刷工業株式会社,,株式会社,東京都,中央区,湊２丁目７番４号,,13,102,1040043,,,2022-01-27,登記官による閉鎖,,,2015-10-05,1,,,,,,0
973,4010001060303,登記記録の閉鎖等,0,2022-01-27,2022-01-27,株式会社駱駝,,株式会社,東京都,中央区,新富１丁目１０番５号,,13,102,1040041,,,2022-01-27,登記官による閉鎖,,,2015-10-05,1,,,,,,0
974,4010001067975,登記記録の閉鎖等,0,2022-01-27,2022-01-27,株式会社ジャパンフードシステムズ,,株式会社,東京都,文京区,湯島３丁目４３番１２号,,13,105,1130034,,,2022-01-27,登記官による閉鎖,,,2015-10-05,1,,,,,,0
976,4010001083254,登記記録の閉鎖等,0,2022-01-27,2022-01-27,武田水産株式会社,,株式会社,東京都,中央区,日本橋２丁目１５番８号,,13,102,1030027,,,2022-01-27,登記官による閉鎖,,,2015-10-05,1,,,,,,0
977,4010001084186,登記記録の閉鎖等,0,2022-01-27,2022-01-27,株式会社日彫,,株式会社,東京都,千代田区,麹町１丁目６番地,00060644,13,101,1020083,,,2022-01-27,登記官による閉鎖,,,2015-10-05,1,,,,,,0
978,4010001085523,登記記録の閉鎖等,0,2022-01-27,2022-01-27,株式会社ｉｓｏ　ｃｏｒｐｏｒａｔｉｏｎ,,株式会社,東京都,文京区,湯島３丁目２０－１２ツナシマ第二ビル５Ｆ,,13,105,1130034,,,2022-01-27,登記官による閉鎖,,,2015-10-05,1,,,,,,0
979,4010001098987,登記記録の閉鎖等,0,2022-01-27,2022-01-27,株式会社キャリア・ビルド・コミュニテイ,,株式会社,東京都,千代田区,一番町１０番地,,13,101,1020082,,,2022-01-27,登記官による閉鎖,,,2015-10-05,1,,,,,,0
980,4010001102113,登記記録の閉鎖等,0,2022-01-27,2022-01-27,株式会社ジャパン・ホスピタリティ・インスティテュート,,株式会社,東京都,中央区,京橋３丁目４番４号大根河岸ビル３階,,13,102,1040031,,,2022-01-27,登記官による閉鎖,,,2015-10-05,1,,,,,,0
981,4010001106015,登記記録の閉鎖等,0,2022-01-27,2022-01-27,飛田薬品株式会社,,株式会社,東京都,千代田区,神田北乗物町１６番地,,13,101,1010036,,,2022-01-27,登記官による閉鎖,,,2015-10-05,1,,,,,,0
982,4010001106584,登記記録の閉鎖等,0,2022-01-27,2022-01-27,株式会社ライフコミュニティセンター,,株式会社,東京都,千代田区,神田三崎町２丁目１１番１３号,,13,101,1010061,,,2022-01-27,登記官による閉鎖,,,2015-10-05,1,,,,,,0
983,4010001114158,登記記録の閉鎖等,0,2022-01-27,2022-01-26,株式会社天照,,株式会社,東京都,足立区,千住河原町２９番８－４０５号コーポアルト,,13,121,1200037,,,2022-01-26,清算の結了等,,,2015-10-05,1,,,,,テンショウ,0
984,4010001116939,登記記録の閉鎖等,0,2022-01-27,2022-01-27,株式会社イーガスジャパン,,株式会社,東京都,中央区,日本橋小伝馬町１０番８号,,13,102,1030001,,,2022-01-27,登記官による閉鎖,,,2015-10-05,1,,,,,,0
985,4010001119512,登記記録の閉鎖等,0,2022-01-27,2022-01-27,株式会社ロペ,,株式会社,東京都,中央区,日本橋横山町三丁目４番地,,13,102,1030003,,,2022-01-27,登記官による閉鎖,,,2015-10-05,1,,,,,,0
987,4010001126533,登記記録の閉鎖等,0,2022-01-27,2022-01-27,株式会社マウント,,株式会社,東京都,中央区,日本橋茅場町２丁目１７番９号,,13,102,1030025,,,2022-01-27,登記官による閉鎖,,,2015-10-05,1,,,,,,0
988,4010001128018,登記記録の閉鎖等,0,2022-01-27,2022-01-27,株式会社リリ・レイ,,株式会社,東京都,中央区,銀座８丁目５番１０号,,13,102,1040061,,,2022-01-27,登記官による閉鎖,,,2015-10-05,1,,,,,,0
989,4010001130931,登記記録の閉鎖等,0,2022-01-27,2022-01-27,株式会社アヴェリー,,株式会社,東京都,千代田区,神田錦町１丁目１４番地１１,,13,101,1010054,,,2022-01-27,登記官による閉鎖,,,2015-10-05,1,,,,,,0
991,4010001133109,登記記録の閉鎖等,0,2022-01-27,2022-01-24,山佐ＢＡＷ７リース株式会社,,株式会社,東京都,千代田区,丸の内３丁目１番１号東京共同会計事務所内,,13,101,1000005,,,2022-01-24,清算の結了等,,,2015-10-05,1,,,,,ヤマサビーエーダブリューナナリース,0
1000,4010002003252,登記記録の閉鎖等,0,2022-01-27,2022-01-27,有限会社鈴木商店,,有限会社,東京都,文京区,大塚６丁目３番３号,,13,105,1120012,,,2022-01-27,登記官による閉鎖,,,2015-10-05,1,,,,,,0
1001,4010002007071,登記記録の閉鎖等,0,2022-01-27,2022-01-27,有限会社アベレージ,,有限会社,東京都,千代田区,飯田橋３丁目４－４第５田中ビル１０１号,,13,101,1020072,,,2022-01-27,登記官による閉鎖,,,2015-10-05,1,,,,,,0
1002,4010002012113,登記記録の閉鎖等,0,2022-01-27,2022-01-27,有限会社タジリ,,有限会社,東京都,千代田区,岩本町３丁目１番８号,,13,101,1010032,,,2022-01-27,登記官による閉鎖,,,2015-10-05,1,,,,,,0
1003,4010002018044,登記記録の閉鎖等,0,2022-01-27,2022-01-27,永興商事有限会社,,有限会社,東京都,中央区,八重洲１丁目６番１８号,,13,102,1030028,,,2022-01-27,登記官による閉鎖,,,2015-10-05,1,,,,,,0
1004,4010002051549,登記記録の閉鎖等,0,2022-01-27,2022-01-27,有限会社ＡＮＣ,,有限会社,東京都,中央区,日本橋２丁目６番５号,,13,102,1030027,,,2022-01-27,登記官による閉鎖,,,2015-10-05,1,,,,,,0
1005,4010002051929,登記記録の閉鎖等,0,2022-01-27,2022-01-27,有限会社プロスピリティー,,有限会社,東京都,中央区,銀座３丁目１４番８号,,13,102,1040061,,,2022-01-27,登記官による閉鎖,,,2015-10-05,1,,,,,,0
1006,4010002052316,登記記録の閉鎖等,0,2022-01-27,2022-01-27,３１０特目有限会社,,有限会社,東京都,千代田区,鍛冶町１丁目７番１号手島ビル２階,,13,101,1010044,,,2022-01-27,登記官による閉鎖,,,2015-10-05,1,,,,,,0
1010,4010005004149,登記記録の閉鎖等,0,2022-01-27,2022-01-27,財団法人日本青少年文学振興会,,その他の設立登記法人,東京都,千代田区,飯田橋２丁目４番５号,,13,101,1020072,,,2022-01-27,登記官による閉鎖,,,2015-10-05,1,,,,,,0
1011,4010005005576,登記記録の閉鎖等,0,2022-01-27,2022-01-27,特定非営利活動法人シニア健康スポーツ振興会,,その他の設立登記法人,東京都,千代田区,内神田２丁目１４番１３号,,13,101,1010047,,,2022-01-27,登記官による閉鎖,,,2015-10-05,1,,,,,,0
1012,4010005007333,登記記録の閉鎖等,0,2022-01-27,2022-01-27,特定非営利活動法人国民生活再生機構,,その他の設立登記法人,東京都,千代田区,神田錦町１丁目１３番地,,13,101,1010054,,,2022-01-27,登記官による閉鎖,,,2015-10-05,1,,,,,,0
1013,4010005007358,登記記録の閉鎖等,0,2022-01-27,2022-01-27,特定非営利活動法人グローバルコネクション,,その他の設立登記法人,東京都,千代田区,霞が関３丁目６番１４号三久ビル５Ｆ,,13,101,1000013,,,2022-01-27,登記官による閉鎖,,,2015-10-05,1,,,,,,0
1014,4010005008703,登記記録の閉鎖等,0,2022-01-27,2022-01-27,特定非営利活動法人日本住宅機構,,その他の設立登記法人,東京都,中央区,八重洲２丁目８番１１号,,13,102,1040028,,,2022-01-27,登記官による閉鎖,,,2015-10-05,1,,,,,,0
1015,4010005014651,登記記録の閉鎖等,0,2022-01-27,2022-01-27,特定非営利活動法人音楽キャリア・サポート・ネット,,その他の設立登記法人,東京都,千代田区,西神田２丁目４番１号（財）東方学会４１号室,,13,101,1010065,,,2022-01-27,登記官による閉鎖,,,2015-10-05,1,,,,,,0
1020,4010401098819,登記記録の閉鎖等,0,2022-01-27,2022-01-27,株式会社サマーグラス,,株式会社,東京都,千代田区,霞が関１丁目４番１号日土地ビル１０階,,13,101,1000013,,,2022-01-27,登記官による閉鎖,,,2015-10-05,1,,,,,,0
1029,4010501007027,登記記録の閉鎖等,0,2022-01-27,2022-01-27,太陽プロセス株式会社,,株式会社,東京都,台東区,蔵前３丁目１２番３号,,13,106,1110051,,,2022-01-27,登記官による閉鎖,,,2015-10-05,1,,,,,,0
1030,4010501011441,登記記録の閉鎖等,0,2022-01-27,2022-01-27,株式会社美術倶楽部,,株式会社,東京都,台東区,東上野２丁目１８番７号,,13,106,1100015,,,2022-01-27,登記官による閉鎖,,,2015-10-05,1,,,,,,0
1031,4010501019906,登記記録の閉鎖等,0,2022-01-27,2022-01-27,株式会社丸西商会,,株式会社,東京都,台東区,台東４丁目２８番２号,,13,106,1100016,,,2022-01-27,登記官による閉鎖,,,2015-10-05,1,,,,,,0
1032,4010501027231,登記記録の閉鎖等,0,2022-01-27,2022-01-27,株式会社バズビー,,株式会社,東京都,台東区,東上野１丁目２１番５－４０１号,,13,106,1100015,,,2022-01-27,登記官による閉鎖,,,2015-10-05,1,,,,,,0
1033,4010501027339,登記記録の閉鎖等,0,2022-01-27,2022-01-27,株式会社グレクシー・ネットワークス,,株式会社,東京都,台東区,上野５丁目２３番１１号,,13,106,1100005,,,2022-01-27,登記官による閉鎖,,,2015-10-05,1,,,,,,0
1038,4010502003561,登記記録の閉鎖等,0,2022-01-27,2022-01-27,有限会社ケーアイ商会,,有限会社,東京都,台東区,寿３丁目１３番６号,,13,106,1110042,,,2022-01-27,登記官による閉鎖,,,2015-10-05,1,,,,,,0
1039,4010505000572,登記記録の閉鎖等,0,2022-01-27,2022-01-27,医療法人財団淡路医院,,その他の設立登記法人,東京都,台東区,入谷１丁目５番４号,,13,106,1100013,,,2022-01-27,登記官による閉鎖,,,2015-10-05,1,,,,,,0
1040,4010505001348,登記記録の閉鎖等,0,2022-01-27,2022-01-27,医療法人社団圭栄会,,その他の設立登記法人,東京都,台東区,上野４丁目８番６号プラザＵビル２階Ｂ室,,13,106,1100005,,,2022-01-27,登記官による閉鎖,,,2015-10-05,1,,,,,,0
1041,4010601008949,登記記録の閉鎖等,0,2022-01-27,2022-01-27,株式会社大倉屋,,株式会社,東京都,墨田区,押上１丁目１１番２号,,13,107,1310045,,,2022-01-27,登記官による閉鎖,,,2015-10-05,1,,,,,,0
1042,4010601033220,登記記録の閉鎖等,0,2022-01-27,2022-01-27,株式会社スピリター,,株式会社,東京都,墨田区,亀沢１丁目８番６号堀江ビル２Ｆ,,13,107,1300014,,,2022-01-27,登記官による閉鎖,,,2015-10-05,1,,,,,,0
1044,4010602000905,登記記録の閉鎖等,0,2022-01-27,2022-01-27,有限会社亀田メリヤス,,有限会社,東京都,江東区,亀戸４丁目１７番１５号,,13,108,1360071,,,2022-01-27,登記官による閉鎖,,,2015-10-05,1,,,,,,0
1045,4010602011134,登記記録の閉鎖等,0,2022-01-27,2022-01-27,有限会社正喜紙工,,有限会社,東京都,墨田区,立花４丁目１２番１３号,,13,107,1310043,,,2022-01-27,登記官による閉鎖,,,2015-10-05,1,,,,,,0
1046,4010602021538,登記記録の閉鎖等,0,2022-01-27,2022-01-27,有限会社ナビー電子,,有限会社,東京都,江東区,南砂４丁目１２番１０－１２１４号,,13,108,1360076,,,2022-01-27,登記官による閉鎖,,,2015-10-05,1,,,,,,0
1047,4010605001586,登記記録の閉鎖等,0,2022-01-27,2022-01-27,医療法人社団歯英会,,その他の設立登記法人,東京都,墨田区,立花２丁目２６番１号澤田ビル２階Ａ号室,,13,107,1310043,,,2022-01-27,登記官による閉鎖,,,2015-10-05,1,,,,,,0
1051,4010901023573,登記記録の閉鎖等,0,2022-01-27,2022-01-20,建設総合コンサルタント株式会社,,株式会社,東京都,世田谷区,成城９丁目１５番８号,,13,112,1570066,,,2022-01-20,清算の結了等,,,2015-10-05,1,,,,,ケンセツソウゴウコンサルタント,0
1072,4011102002796,登記記録の閉鎖等,0,2022-01-27,2022-01-25,有限会社オフィス・トラコ,,有限会社,東京都,新宿区,坂町２７番地１００２号,,13,104,1600000,,,2022-01-25,登記官による閉鎖,,,2015-10-05,1,,,,,,0
1083,4013105000380,登記記録の閉鎖等,0,2022-01-27,2022-01-21,特定非営利活動法人ヴィヴィッドホーム,,その他の設立登記法人,東京都,羽村市,羽東１丁目１５番地２号山田ビル３０２号,,13,227,2050014,,,2022-01-21,清算の結了等,,,2015-10-05,1,,,,,ヴィヴィッドホーム,0
1084,4013301001612,登記記録の閉鎖等,0,2022-01-27,2022-01-27,株式会社エスポ,,株式会社,東京都,豊島区,東池袋１丁目１５番３号,,13,116,1700013,,,2022-01-27,登記官による閉鎖,,,2017-01-04,1,,,,,,0
1085,4013301023508,登記記録の閉鎖等,0,2022-01-27,2022-01-27,株式会社モシーカ,,株式会社,東京都,豊島区,千早２丁目１２番１１号スカイコート池袋２０１,,13,116,1710044,,,2022-01-27,登記官による閉鎖,,,2015-10-05,1,,,,,,0
1089,4013302001322,登記記録の閉鎖等,0,2022-01-27,2022-01-27,有限会社エルクリエーション,,有限会社,東京都,豊島区,西池袋１丁目２５番１号,,13,116,1710021,,,2022-01-27,登記官による閉鎖,,,2015-10-05,1,,,,,,0
1090,4013302019356,登記記録の閉鎖等,0,2022-01-27,2022-01-27,有限会社テレワードエンジニアリング,,有限会社,東京都,豊島区,南池袋１丁目１３番２３号,,13,116,1710022,,,2022-01-27,登記官による閉鎖,,,2015-10-05,1,,,,,,0
1099,4020005009799,登記記録の閉鎖等,0,2022-01-27,2022-01-14,一般社団法人アットテクノロジー技術者協会,,その他の設立登記法人,神奈川県,横浜市鶴見区,菅沢町５番１７号,,14,101,2300027,,,2022-01-14,清算の結了等,,,2015-10-05,1,,,,,アットテクノロジーギジュツシャキョウカイ,0
1139,4080102001554,登記記録の閉鎖等,0,2022-01-27,2022-01-26,有限会社三和消毒,,有限会社,静岡県,沼津市,岡宮１３５４番地の２６,,22,203,4100011,,,2022-01-26,清算の結了等,,,2015-10-05,1,,,,,サンワショウドク,0
1144,4100001003814,登記記録の閉鎖等,0,2022-01-27,2022-01-27,株式会社六文銭,,株式会社,長野県,長野市,松代町松代１３２３番地,,20,201,3811231,,,2022-01-27,登記官による閉鎖,,,2015-10-05,1,,,,,,0
1145,4100001005001,登記記録の閉鎖等,0,2022-01-27,2022-01-27,株式会社塚田製麺,,株式会社,長野県,長野市,若里６丁目５番２８号,,20,201,3800928,,,2022-01-27,登記官による閉鎖,,,2015-10-05,1,,,,,,0
1146,4100001009241,登記記録の閉鎖等,0,2022-01-27,2022-01-27,株式会社真容花,,株式会社,長野県,小諸市,大字菱平１７１番地５,,20,208,3840041,,,2022-01-27,登記官による閉鎖,,,2015-10-05,1,,,,,,0
1147,4100001018606,登記記録の閉鎖等,0,2022-01-27,2022-01-27,株式会社ピープル,,株式会社,長野県,諏訪市,大字湖南３１２２番地１,,20,206,3920131,,,2022-01-27,登記官による閉鎖,,,2015-10-05,1,,,,,,0
1148,4100001022483,登記記録の閉鎖等,0,2022-01-27,2022-01-27,株式会社信拓産業,,株式会社,長野県,飯田市,中央通り２丁目１１番地,,20,205,3950041,,,2022-01-27,登記官による閉鎖,,,2015-10-05,1,,,,,,0
1149,4100001029082,登記記録の閉鎖等,0,2022-01-27,2022-01-27,カクチョウ車両株式会社,,株式会社,長野県,佐久市,大字塚原９７０番地１,,20,217,3850000,,,2022-01-27,登記官による閉鎖,,,2016-02-22,1,,,,,,0
1150,4100001029776,登記記録の閉鎖等,0,2022-01-27,2022-01-27,株式会社軽井沢ホームズ,,株式会社,長野県,北佐久郡軽井沢町,大字軽井沢１２５６番地２４,,20,321,3890102,,,2022-01-27,登記官による閉鎖,,,2016-11-16,1,,,,,,0
1151,4100002007780,登記記録の閉鎖等,0,2022-01-27,2022-01-27,東海ローム有限会社,,有限会社,長野県,長野市,篠ノ井杵淵８７７番地２,,20,201,3888019,,,2022-01-27,登記官による閉鎖,,,2015-10-05,1,,,,,,0
1152,4100002009661,登記記録の閉鎖等,0,2022-01-27,2022-01-27,有限会社大日野製作所,,有限会社,長野県,千曲市,大字若宮２０２０番地,,20,218,3890813,,,2022-01-27,登記官による閉鎖,,,2015-10-05,1,,,,,,0
1153,4100002011130,登記記録の閉鎖等,0,2022-01-27,2022-01-27,有限会社ハイエストローラン,,有限会社,長野県,佐久市,中込３１５０番地１,,20,217,3850051,,,2022-01-27,登記官による閉鎖,,,2015-10-05,1,,,,,,0
1154,4100002014661,登記記録の閉鎖等,0,2022-01-27,2022-01-27,有限会社布施製材所,,有限会社,長野県,上田市,中央２丁目２０番１１号,,20,203,3860012,,,2022-01-27,登記官による閉鎖,,,2015-10-05,1,,,,,,0
1155,4100002015635,登記記録の閉鎖等,0,2022-01-27,2022-01-27,有限会社ストーンライフ信州,,有限会社,長野県,上田市,神畑９９８番地１,,20,203,3861103,,,2022-01-27,登記官による閉鎖,,,2015-10-05,1,,,,,,0
1156,4100002016880,登記記録の閉鎖等,0,2022-01-27,2022-01-27,有限会社南条製材所,,有限会社,長野県,埴科郡坂城町,大字中之条１３３３番地１,,20,521,3890602,,,2022-01-27,登記官による閉鎖,,,2015-10-05,1,,,,,,0
1157,4100002024462,登記記録の閉鎖等,0,2022-01-27,2022-01-27,有限会社スプリングクリーン,,有限会社,長野県,松本市,寿中１丁目２９番３８号,,20,202,3990026,,,2022-01-27,登記官による閉鎖,,,2015-10-05,1,,,,,,0
1158,4100002028240,登記記録の閉鎖等,0,2022-01-27,2022-01-27,有限会社笹川精機,,有限会社,長野県,諏訪郡下諏訪町,７１番地１,,20,361,3930000,,,2022-01-27,登記官による閉鎖,,,2015-10-05,1,,,,,,0
1159,4100002029123,登記記録の閉鎖等,0,2022-01-27,2022-01-27,有限会社ヤマセ諏訪店,,有限会社,長野県,諏訪市,諏訪１丁目４番１０号,,20,206,3920004,,,2022-01-27,登記官による閉鎖,,,2015-10-05,1,,,,,,0
1160,4100002029156,登記記録の閉鎖等,0,2022-01-27,2022-01-27,有限会社ラポート,,有限会社,長野県,諏訪市,杉菜池１７６２番地,,20,206,3920009,,,2022-01-27,登記官による閉鎖,,,2015-10-05,1,,,,,,0
1161,4100002033810,登記記録の閉鎖等,0,2022-01-27,2022-01-27,有限会社イー・アール技研長野,,有限会社,長野県,駒ヶ根市,赤穂４７２９番地１,,20,210,3994117,,,2022-01-27,登記官による閉鎖,,,2015-10-05,1,,,,,,0
1162,4100002036565,登記記録の閉鎖等,0,2022-01-27,2022-01-27,有限会社末廣庵,,有限会社,長野県,下伊那郡阿智村,智里３３６６番地８,,20,407,3950304,,,2022-01-27,登記官による閉鎖,,,2015-10-05,1,,,,,,0
1163,4100003002335,登記記録の閉鎖等,0,2022-01-27,2022-01-27,合資会社小谷温泉大湯元,,合資会社,長野県,北安曇郡小谷村,大字中土１８８３６番地,,20,486,3999511,,,2022-01-27,登記官による閉鎖,,,2015-10-05,1,,,,,,0
1164,4100003003036,登記記録の閉鎖等,0,2022-01-27,2022-01-27,合同会社ＭＡＳインターナショナル,,合同会社,長野県,駒ヶ根市,経塚１０番１号,,20,210,3994104,,,2022-01-27,登記官による閉鎖,,,2015-10-05,1,,,,,,0
1166,4100003003655,登記記録の閉鎖等,0,2022-01-27,2022-01-27,寳屋合資会社,,合資会社,長野県,伊那市,西町４８９２番地,,20,209,3960026,,,2022-01-27,登記官による閉鎖,,,2015-10-05,1,,,,,,0
1167,4100005011870,登記記録の閉鎖等,0,2022-01-27,2022-01-27,遠山村開拓農業協同組合,,その他の設立登記法人,長野県,飯田市,南信濃和田２４０１番地,,20,205,3991311,,,2022-01-27,登記官による閉鎖,,,2016-06-02,1,,,,,,0
1176,4120001166510,登記記録の閉鎖等,0,2022-01-27,2022-01-24,株式会社矢野テクニカルトランスレーション,,株式会社,大阪府,大阪市城東区,新喜多１丁目２番７号３２０２号,,27,118,5360015,,,2022-01-24,清算の結了等,,,2015-10-05,1,,,,,ヤノテクニカルトランスレーション,0
1183,4120002062213,登記記録の閉鎖等,0,2022-01-27,2022-01-24,有限会社アスカ,,有限会社,大阪府,大阪市城東区,関目２丁目１１番１９号,,27,118,5360008,,,2022-01-24,清算の結了等,,,2015-10-05,1,,,,,アスカ,0
1194,4140001069422,登記記録の閉鎖等,0,2022-01-27,2022-01-25,立山建設株式会社,,株式会社,兵庫県,西宮市,段上町６丁目１０番２４号,,28,204,6638006,,,2022-01-25,清算の結了等,,,2015-10-05,1,,,,,,0
1204,4180001123729,登記記録の閉鎖等,0,2022-01-27,2022-01-21,ヨンコー株式会社,,株式会社,愛知県,瀬戸市,原山台１丁目７１番地,,23,204,4890888,,,2022-01-21,清算の結了等,,,2016-06-14,1,,,,,ヨンコー,0
1215,4190002016930,登記記録の閉鎖等,0,2022-01-27,2022-01-26,有限会社中山武鋳造所,,有限会社,三重県,桑名市,大字和泉６７１番地,,24,205,5110838,,,2022-01-26,清算の結了等,,,2015-10-05,1,,,,,,0
1219,4200002021053,登記記録の閉鎖等,0,2022-01-27,2022-01-25,有限会社奥村製陶所,,有限会社,岐阜県,土岐市,肥田町肥田２１０８番地の３,,21,212,5095115,,,2022-01-25,清算の結了等,,,2015-10-05,1,,,,,オクムラセイトウショ,0
1235,4250002010324,登記記録の閉鎖等,0,2022-01-27,2022-01-25,有限会社西村建築設計事務所,,有限会社,山口県,下関市,川中豊町３丁目２番２４号,,35,201,7510853,,,2022-01-25,清算の結了等,,,2015-10-05,1,,,,,ニシムラケンチクセッケイジムショ,0
1240,4260002015438,登記記録の閉鎖等,0,2022-01-27,2022-01-26,有限会社Ｍ．Ｓ．Ｋ．,,有限会社,岡山県,岡山市北区,今保３２９番地５,,33,101,7010145,,,2022-01-26,清算の結了等,,,2015-10-05,1,,,,,,0
1256,4310002005417,登記記録の閉鎖等,0,2022-01-27,2022-01-26,有限会社三浦不動産,,有限会社,長崎県,長崎市,花園町２９番１５号,,42,201,8528024,,,2022-01-26,登記官による閉鎖,,,2015-10-05,1,,,,,,0
1257,4310002007504,登記記録の閉鎖等,0,2022-01-27,2022-01-26,有限会社なずなリハケア連絡会,,有限会社,長崎県,長崎市,昭和３丁目３２１番地５,,42,201,8528145,,,2022-01-26,登記官による閉鎖,,,2015-10-05,1,,,,,,0
1258,4310002007529,登記記録の閉鎖等,0,2022-01-27,2022-01-26,有限会社アカサ・メンテナンス,,有限会社,長崎県,長崎市,田中町１０５番地１－４１０号,,42,201,8510134,,,2022-01-26,登記官による閉鎖,,,2015-10-05,1,,,,,,0
1259,4310002014599,登記記録の閉鎖等,0,2022-01-27,2022-01-26,有限会社松居でんき,,有限会社,長崎県,佐世保市,江迎町長坂１６８番地の１,,42,202,8596101,,,2022-01-26,登記官による閉鎖,,,2015-10-05,1,,,,,,0
1260,4310002017032,登記記録の閉鎖等,0,2022-01-27,2022-01-26,有限会社ウハチ商事,,有限会社,長崎県,大村市,須田ノ木町７８８番地,,42,205,8560047,,,2022-01-26,登記官による閉鎖,,,2015-10-05,1,,,,,,0
1261,4310002018848,登記記録の閉鎖等,0,2022-01-27,2022-01-26,大洋汽船有限会社,,有限会社,長崎県,壱岐市,石田町印通寺４６９番地の３８,,42,210,8115100,,,2022-01-26,登記官による閉鎖,,,2015-10-05,1,,,,,,0
1262,4310003000499,登記記録の閉鎖等,0,2022-01-27,2022-01-26,合同会社エス・エイチコーポレーション,,合同会社,長崎県,長崎市,川平町３８３番地５,,42,201,8528143,,,2022-01-26,登記官による閉鎖,,,2015-10-05,1,,,,,,0
1263,4310003002181,登記記録の閉鎖等,0,2022-01-27,2022-01-26,合資会社倉元建設,,合資会社,長崎県,壱岐市,勝本町本宮仲触１９９番地,,42,210,8115546,,,2022-01-26,登記官による閉鎖,,,2015-10-05,1,,,,,,0
1266,4330003005281,登記記録の閉鎖等,0,2022-01-27,2022-01-25,合同会社九州活版印刷所,,合同会社,熊本県,天草市,亀場町亀川２０１０番地１０,,43,215,8630043,,,2022-01-25,清算の結了等,,,2015-10-05,1,,,,,キュウシュウカッパンインサツショ,0
1270,4360001022680,登記記録の閉鎖等,0,2022-01-27,2022-01-21,テクニカルロジスティクス株式会社,,株式会社,沖縄県,糸満市,西崎２丁目３番地の２１コーポサンフラワー２０１号室,,47,210,9010305,,,2022-01-21,清算の結了等,,,2017-07-20,1,,,,,テクニカルロジスティクス,0
1286,4430005013974,登記記録の閉鎖等,0,2022-01-27,2022-01-05,司法書士法人望月事務所,,その他の設立登記法人,北海道,余市郡余市町,大川町６丁目１３番地２,,01,408,0460004,,,2022-01-05,合併による解散等,8290005016369,令和３年１２月２７日福岡県大牟田市浜町７番地１大幸ビル１Ｆありあけ司法書士法人（8290005016369）に合併し解散,2020-08-24,1,,,,,モチヅキジムショ,0
1302,5010001014290,登記記録の閉鎖等,0,2022-01-27,2022-01-27,株式会社京成社,,株式会社,東京都,千代田区,神田小川町３丁目８番地,,13,101,1010052,,,2022-01-27,登記官による閉鎖,,,2015-10-05,1,,,,,,0
1303,5010001020909,登記記録の閉鎖等,0,2022-01-27,2022-01-27,株式会社ゼニアール印刷,,株式会社,東京都,千代田区,神田須田町１丁目４番地,,13,101,1010041,,,2022-01-27,登記官による閉鎖,,,2015-10-05,1,,,,,,0
1304,5010001031360,登記記録の閉鎖等,0,2022-01-27,2022-01-27,株式会社ユナイテッド・システムズ,,株式会社,東京都,千代田区,三番町７番地１３,,13,101,1020075,,,2022-01-27,登記官による閉鎖,,,2015-10-05,1,,,,,,0
1305,5010001031988,登記記録の閉鎖等,0,2022-01-27,2022-01-27,両國衣料株式会社,,株式会社,東京都,千代田区,東神田１丁目１番３号,,13,101,1010031,,,2022-01-27,登記官による閉鎖,,,2015-10-05,1,,,,,,0
1306,5010001034512,登記記録の閉鎖等,0,2022-01-27,2022-01-27,栄和土地開発株式会社,,株式会社,東京都,千代田区,外神田６丁目１６番８号,,13,101,1010021,,,2022-01-27,登記官による閉鎖,,,2015-10-05,1,,,,,,0
1307,5010001044222,登記記録の閉鎖等,0,2022-01-27,2022-01-27,株式会社三盛社,,株式会社,東京都,中央区,銀座７丁目１５番８号,,13,102,1040061,,,2022-01-27,登記官による閉鎖,,,2015-10-05,1,,,,,,0
1308,5010001044387,登記記録の閉鎖等,0,2022-01-27,2022-01-27,三興電通株式会社,,株式会社,東京都,中央区,築地４丁目４番１５－５０５号,,13,102,1040045,,,2022-01-27,登記官による閉鎖,,,2015-10-05,1,,,,,,0
1309,5010001045105,登記記録の閉鎖等,0,2022-01-27,2022-01-27,株式会社サングループ,,株式会社,東京都,中央区,銀座８丁目６番２５号河北ビル,,13,102,1040061,,,2022-01-27,登記官による閉鎖,,,2015-10-05,1,,,,,,0
1310,5010001049353,登記記録の閉鎖等,0,2022-01-27,2022-01-27,田村産商株式会社,,株式会社,東京都,中央区,八丁堀１丁目７番２号,,13,102,1040032,,,2022-01-27,登記官による閉鎖,,,2015-10-05,1,,,,,,0
1311,5010001056036,登記記録の閉鎖等,0,2022-01-27,2022-01-27,ブンザン株式会社,,株式会社,東京都,中央区,日本橋蛎殻町１丁目６番２号,,13,102,1030014,,,2022-01-27,登記官による閉鎖,,,2015-10-05,1,,,,,,0
1312,5010001065193,登記記録の閉鎖等,0,2022-01-27,2022-01-27,株式会社イズム,,株式会社,東京都,千代田区,内神田１丁目１７番８号,,13,101,1010047,,,2022-01-27,登記官による閉鎖,,,2015-10-05,1,,,,,,0
1313,5010001078897,登記記録の閉鎖等,0,2022-01-27,2022-01-27,株式会社安心生活社,,株式会社,東京都,中央区,日本橋堀留町１丁目３番１６号,,13,102,1030012,,,2022-01-27,登記官による閉鎖,,,2015-10-05,1,,,,,,0
1314,5010001080738,登記記録の閉鎖等,0,2022-01-27,2022-01-27,株式会社ヴェルダン,,株式会社,東京都,中央区,銀座１丁目６番１号,,13,102,1040061,,,2022-01-27,登記官による閉鎖,,,2015-10-05,1,,,,,,0
1315,5010001095455,登記記録の閉鎖等,0,2022-01-27,2022-01-27,スリートラスト株式会社,,株式会社,東京都,千代田区,外神田２丁目１３番５号,,13,101,1010021,,,2022-01-27,登記官による閉鎖,,,2015-10-05,1,,,,,,0
1316,5010001096759,登記記録の閉鎖等,0,2022-01-27,2022-01-27,株式会社カーライフコミュニケーションズ,,株式会社,東京都,千代田区,九段南２丁目２番５号,,13,101,1020074,,,2022-01-27,登記官による閉鎖,,,2015-10-05,1,,,,,,0
1317,5010001104323,登記記録の閉鎖等,0,2022-01-27,2022-01-27,株式会社リアル・アウトソーシング,,株式会社,東京都,中央区,銀座３丁目１１番５号第２中山ビル３階,,13,102,1040061,,,2022-01-27,登記官による閉鎖,,,2015-10-05,1,,,,,,0
1318,5010001105412,登記記録の閉鎖等,0,2022-01-27,2022-01-27,株式会社大創,,株式会社,東京都,千代田区,神田佐久間町３丁目２７番地１大洋ビル５０２,,13,101,1010025,,,2022-01-27,登記官による閉鎖,,,2015-10-05,1,,,,,,0
1319,5010001105552,登記記録の閉鎖等,0,2022-01-27,2022-01-27,株式会社ＭＣＳコンサルティング,,株式会社,東京都,文京区,白山１丁目３７番９－５０１号,,13,105,1130001,,,2022-01-27,登記官による閉鎖,,,2015-10-05,1,,,,,,0
1320,5010001111708,登記記録の閉鎖等,0,2022-01-27,2022-01-27,株式会社ジェイエルシー,,株式会社,東京都,千代田区,外神田６丁目１５番１１号日東ビル,,13,101,1010021,,,2022-01-27,登記官による閉鎖,,,2015-10-05,1,,,,,,0
1321,5010001116054,登記記録の閉鎖等,0,2022-01-27,2022-01-27,株式会社玲瓏山房,,株式会社,東京都,文京区,本郷４丁目６番１３号ハイツイイジマ１０１,,13,105,1130033,,,2022-01-27,登記官による閉鎖,,,2015-10-05,1,,,,,,0
1322,5010001116789,登記記録の閉鎖等,0,2022-01-27,2022-01-27,ＴＡＫＥＫＯ株式会社,,株式会社,東京都,文京区,湯島３丁目３８番１１号,,13,105,1130034,,,2022-01-27,登記官による閉鎖,,,2015-10-05,1,,,,,,0
1323,5010001117192,登記記録の閉鎖等,0,2022-01-27,2022-01-27,株式会社クローバー,,株式会社,東京都,文京区,湯島３丁目３８番１１号エスパス広小路２階Ｂ号,,13,105,1130034,,,2022-01-27,登記官による閉鎖,,,2015-10-05,1,,,,,,0
1324,5010001122795,登記記録の閉鎖等,0,2022-01-27,2022-01-27,株式会社ユウデザイン,,株式会社,東京都,千代田区,飯田橋３丁目９番６号,,13,101,1020072,,,2022-01-27,登記官による閉鎖,,,2015-10-05,1,,,,,,0
1325,5010001126144,登記記録の閉鎖等,0,2022-01-27,2022-01-27,株式会社Ｔ・Ｓコーポレーション,,株式会社,東京都,中央区,日本橋蛎殻町２丁目８番５号興洋ビル,,13,102,1030014,,,2022-01-27,登記官による閉鎖,,,2015-10-05,1,,,,,,0
1326,5010001126532,登記記録の閉鎖等,0,2022-01-27,2022-01-27,医療ＵＰＳ株式会社,,株式会社,東京都,中央区,日本橋茅場町２丁目１７番９号,,13,102,1030025,,,2022-01-27,登記官による閉鎖,,,2015-10-05,1,,,,,,0
1327,5010001128306,登記記録の閉鎖等,0,2022-01-27,2022-01-27,株式会社アイディーエル,,株式会社,東京都,中央区,日本橋人形町３丁目５番９号,,13,102,1030013,,,2022-01-27,登記官による閉鎖,,,2015-10-05,1,,,,,,0
1328,5010001129089,登記記録の閉鎖等,0,2022-01-27,2022-01-27,株式会社フラーレン,,株式会社,東京都,中央区,日本橋中洲６番１０号ハイツ日本橋中洲１０２号,,13,102,1030008,,,2022-01-27,登記官による閉鎖,,,2015-10-05,1,,,,,,0
1329,5010001130575,登記記録の閉鎖等,0,2022-01-27,2022-01-27,株式会社共慶商事,,株式会社,東京都,千代田区,神田佐久間町３丁目３８大陽ビル４階,,13,101,1010025,,,2022-01-27,登記官による閉鎖,,,2015-10-05,1,,,,,,0
1330,5010001139229,登記記録の閉鎖等,0,2022-01-27,2022-01-27,株式会社モスコアールアンドディー,,株式会社,東京都,千代田区,神田和泉町１番地９号３ニユー明治ビル５階,,13,101,1010024,,,2022-01-27,登記官による閉鎖,,,2015-10-05,1,,,,,,0
1335,5010002005000,登記記録の閉鎖等,0,2022-01-27,2022-01-27,有限会社日之出クリーニング,,有限会社,東京都,文京区,西片２丁目１８番１８号,,13,105,1130024,,,2022-01-27,登記官による閉鎖,,,2015-10-05,1,,,,,,0
1336,5010002015156,登記記録の閉鎖等,0,2022-01-27,2022-01-27,有限会社森田屋,,有限会社,東京都,千代田区,神田猿楽町２丁目６番５号,,13,101,1010064,,,2022-01-27,登記官による閉鎖,,,2015-10-05,1,,,,,,0
1337,5010002019322,登記記録の閉鎖等,0,2022-01-27,2022-01-27,有限会社クレッシェンド,,有限会社,東京都,中央区,銀座６丁目７番１３号,,13,102,1040061,,,2022-01-27,登記官による閉鎖,,,2015-10-05,1,,,,,,0
1338,5010002026640,登記記録の閉鎖等,0,2022-01-27,2022-01-27,有限会社ロータス,,有限会社,東京都,中央区,日本橋馬喰町２丁目５番７号,,13,102,1030002,,,2022-01-27,登記官による閉鎖,,,2015-10-05,1,,,,,,0
1339,5010002048247,登記記録の閉鎖等,0,2022-01-27,2022-01-27,有限会社羽戸,,有限会社,東京都,千代田区,内神田３丁目２２番９号,,13,101,1010047,,,2022-01-27,登記官による閉鎖,,,2015-10-05,1,,,,,,0
1340,5010002054773,登記記録の閉鎖等,0,2022-01-27,2022-01-27,有限会社英光,,有限会社,東京都,文京区,小石川１丁目４番１０号,,13,105,1120002,,,2022-01-27,登記官による閉鎖,,,2015-10-05,1,,,,,,0
1341,5010003011732,登記記録の閉鎖等,0,2022-01-27,2022-01-27,合資会社カイ・エディット,,合資会社,東京都,文京区,小日向４丁目５番１４－３０４号,,13,105,1120006,,,2022-01-27,登記官による閉鎖,,,2015-10-05,1,,,,,,0
1342,5010003014289,登記記録の閉鎖等,0,2022-01-27,2022-01-27,合同会社サン・ニコラ,,合同会社,東京都,中央区,銀座８丁目８番７号,,13,102,1040061,,,2022-01-27,登記官による閉鎖,,,2015-10-05,1,,,,,,0
1343,5010003015254,登記記録の閉鎖等,0,2022-01-27,2022-01-27,合同会社ＰＫＰＤサイエンス,,合同会社,東京都,中央区,八丁堀３丁目１７番１号,,13,102,1040032,,,2022-01-27,登記官による閉鎖,,,2015-10-05,1,,,,,,0
1345,5010005006821,登記記録の閉鎖等,0,2022-01-27,2022-01-27,特定非営利活動法人医療情報フォーラム,,その他の設立登記法人,東京都,文京区,後楽２丁目３番２５号,,13,105,1120004,,,2022-01-27,登記官による閉鎖,,,2015-10-05,1,,,,,,0
1346,5010005007357,登記記録の閉鎖等,0,2022-01-27,2022-01-27,特定非営利活動法人日本掌按司協会,,その他の設立登記法人,東京都,千代田区,神田錦町３丁目２３錦町ＭＫビル２Ｆ,,13,101,1010054,,,2022-01-27,登記官による閉鎖,,,2015-10-05,1,,,,,,0
1347,5010005007794,登記記録の閉鎖等,0,2022-01-27,2022-01-27,特定非営利活動法人日本ヘルスケアネットワーク,,その他の設立登記法人,東京都,文京区,本郷２丁目２６番１１号浜田ビル２階,,13,105,1130033,,,2022-01-27,登記官による閉鎖,,,2015-10-05,1,,,,,,0
1348,5010005009551,登記記録の閉鎖等,0,2022-01-27,2022-01-27,特定非営利活動法人日本・クロアチア友好協会,,その他の設立登記法人,東京都,千代田区,九段北１丁目１０番９号,,13,101,1020073,,,2022-01-27,登記官による閉鎖,,,2015-10-05,1,,,,,,0
1349,5010005013066,登記記録の閉鎖等,0,2022-01-27,2022-01-27,特定非営利活動法人リバーフロント文化フォーラム,,その他の設立登記法人,東京都,中央区,銀座２丁目１０番１８号東京都中小企業会館３Ｆ,,13,102,1040061,,,2022-01-27,登記官による閉鎖,,,2015-10-05,1,,,,,,0
1354,5010401087085,登記記録の閉鎖等,0,2022-01-27,2022-01-18,セカンド・オピニオン株式会社,,株式会社,東京都,港区,赤坂２丁目１７番１２号チュリス赤坂６０６,,13,103,1070052,,,2022-01-18,清算の結了等,,,2015-10-05,1,,,,,セカンドオピニオン,0
1364,5010501005715,登記記録の閉鎖等,0,2022-01-27,2022-01-27,株式会社シマザキ,,株式会社,東京都,台東区,台東３丁目４番１号,,13,106,1100016,,,2022-01-27,登記官による閉鎖,,,2015-10-05,1,,,,,,0
1365,5010501009170,登記記録の閉鎖等,0,2022-01-27,2022-01-27,東京リース株式会社,,株式会社,東京都,台東区,上野１丁目１番１２号,,13,106,1100005,,,2022-01-27,登記官による閉鎖,,,2016-03-01,1,,,,,,0
1366,5010501032008,登記記録の閉鎖等,0,2022-01-27,2022-01-27,株式会社ラインスクエア,,株式会社,東京都,台東区,東上野１丁目１３番３号野崎ビル３階,,13,106,1100015,,,2022-01-27,登記官による閉鎖,,,2015-10-05,1,,,,,,0
1368,5010502001036,登記記録の閉鎖等,0,2022-01-27,2022-01-27,有限会社イズ,,有限会社,東京都,台東区,浅草６丁目５番３号,,13,106,1110032,,,2022-01-27,登記官による閉鎖,,,2015-10-05,1,,,,,,0
1369,5010502005012,登記記録の閉鎖等,0,2022-01-27,2022-01-27,有限会社三枝商事,,有限会社,東京都,台東区,東上野１丁目１３番６号,,13,106,1100015,,,2022-01-27,登記官による閉鎖,,,2015-10-05,1,,,,,,0
1370,5010502014665,登記記録の閉鎖等,0,2022-01-27,2022-01-27,有限会社くまどこ,,有限会社,東京都,台東区,蔵前３丁目６番１号,,13,106,1110051,,,2022-01-27,登記官による閉鎖,,,2015-10-05,1,,,,,,0
1371,5010502015069,登記記録の閉鎖等,0,2022-01-27,2022-01-27,有限会社光翔,,有限会社,東京都,台東区,上野３丁目１０番２号,,13,106,1100005,,,2022-01-27,登記官による閉鎖,,,2015-10-05,1,,,,,,0
1372,5010502015473,登記記録の閉鎖等,0,2022-01-27,2022-01-27,有限会社イトキ保険事務所,,有限会社,東京都,台東区,上野３丁目１７番１２号,,13,106,1100005,,,2022-01-27,登記官による閉鎖,,,2015-10-05,1,,,,,,0
1375,5010601009285,登記記録の閉鎖等,0,2022-01-27,2022-01-27,植田産業株式会社,,株式会社,東京都,墨田区,八広３丁目３８番３号,,13,107,1310041,,,2022-01-27,登記官による閉鎖,,,2015-10-05,1,,,,,,0
1376,5010601013361,登記記録の閉鎖等,0,2022-01-27,2022-01-20,タカラ産業株式会社,,株式会社,東京都,墨田区,東向島２丁目２４番１４号,,13,107,1310032,,,2022-01-20,合併による解散等,3010601010534,令和４年１月１４日東京都墨田区東向島二丁目３３番２号小菅株式会社（3010601010534）に合併し解散,2015-10-05,1,,,,,タカラサンギョウ,0
1377,5010601017932,登記記録の閉鎖等,0,2022-01-27,2022-01-27,株式会社フオーテイ,,株式会社,東京都,江東区,新木場１丁目８番１０号,,13,108,1360082,,,2022-01-27,登記官による閉鎖,,,2015-10-05,1,,,,,,0
1378,5010601024631,登記記録の閉鎖等,0,2022-01-27,2022-01-27,株式会社シンコー・ダイム,,株式会社,東京都,江東区,東陽５丁目２５番１０号,,13,108,1350016,,,2022-01-27,登記官による閉鎖,,,2015-10-05,1,,,,,,0
1380,5010601037261,登記記録の閉鎖等,0,2022-01-27,2022-01-27,株式会社ムラヤマロジスティクス,,株式会社,東京都,江東区,東陽２丁目４番３４号,,13,108,1350016,,,2022-01-27,登記官による閉鎖,,,2015-10-05,1,,,,,,0
1381,5010601037567,登記記録の閉鎖等,0,2022-01-27,2022-01-27,株式会社ハッピーサポート,,株式会社,東京都,墨田区,立花５丁目２７番６号,,13,107,1310043,,,2022-01-27,登記官による閉鎖,,,2015-10-05,1,,,,,,0
1382,5010602002215,登記記録の閉鎖等,0,2022-01-27,2022-01-27,有限会社小橋工芸企画,,有限会社,東京都,江東区,猿江２丁目１６番２３－１２５号,,13,108,1350003,,,2022-01-27,登記官による閉鎖,,,2015-10-05,1,,,,,,0
1383,5010602005283,登記記録の閉鎖等,0,2022-01-27,2022-01-27,有限会社マニール,,有限会社,東京都,江東区,亀戸２丁目６番２－９２０号,,13,108,1360071,,,2022-01-27,登記官による閉鎖,,,2015-10-05,1,,,,,,0
1384,5010602015984,登記記録の閉鎖等,0,2022-01-27,2022-01-27,有限会社原正三商店,,有限会社,東京都,墨田区,立川４丁目１１番７号,,13,107,1300023,,,2022-01-27,登記官による閉鎖,,,2015-10-05,1,,,,,,0
1385,5010602018954,登記記録の閉鎖等,0,2022-01-27,2022-01-27,有限会社しなの,,有限会社,東京都,墨田区,千歳１丁目５番２２－５０４号,,13,107,1300025,,,2022-01-27,登記官による閉鎖,,,2015-10-05,1,,,,,,0
1386,5010602026370,登記記録の閉鎖等,0,2022-01-27,2022-01-27,有限会社エムズファクトリー,,有限会社,東京都,江東区,白河４丁目９番２５－２７０６号,,13,108,1350021,,,2022-01-27,登記官による閉鎖,,,2015-10-05,1,,,,,,0
1387,5010602031973,登記記録の閉鎖等,0,2022-01-27,2022-01-27,有限会社小柳印刷,,有限会社,東京都,墨田区,緑３丁目１１番１１号,,13,107,1300021,,,2022-01-27,登記官による閉鎖,,,2015-10-05,1,,,,,,0
1389,5010605000843,登記記録の閉鎖等,0,2022-01-27,2022-01-27,新東京都市建設業協同組合,,その他の設立登記法人,東京都,江東区,亀戸１丁目４３番３号,,13,108,1360071,,,2022-01-27,登記官による閉鎖,,,2015-10-05,1,,,,,,0
1390,5010605002039,登記記録の閉鎖等,0,2022-01-27,2022-01-27,特定非営利活動法人リーガルサポート,,その他の設立登記法人,東京都,墨田区,東向島１丁目３２番１１－１３０１号ＴＨＥパームス向島,,13,107,1310032,,,2022-01-27,登記官による閉鎖,,,2015-10-05,1,,,,,,0
1398,5010902006964,登記記録の閉鎖等,0,2022-01-27,2022-01-25,有限会社昭和興業,,有限会社,東京都,世田谷区,玉川２丁目２５番１０号,,13,112,1580094,,,2022-01-25,清算の結了等,,,2015-10-05,1,,,,,ショウワコウギョウ,0
1401,5011101088381,登記記録の閉鎖等,0,2022-01-27,2022-01-24,株式会社Ｓｅｌｆｉｎｉｔｙ,,株式会社,東京都,新宿区,中落合１丁目３番１号日神パレス下落合２０８号室,,13,104,1610032,,,2022-01-24,清算の結了等,,,2019-07-25,1,,,,,セルフィニティー,0
1423,5013301017756,登記記録の閉鎖等,0,2022-01-27,2022-01-27,株式会社キス,,株式会社,東京都,豊島区,西池袋２丁目３０番２０号,,13,116,1710021,,,2022-01-27,登記官による閉鎖,,,2015-10-05,1,,,,,,0
1424,5013301019587,登記記録の閉鎖等,0,2022-01-27,2022-01-27,株式会社つくし商事,,株式会社,東京都,豊島区,池袋４丁目１番８号,,13,116,1710014,,,2022-01-27,登記官による閉鎖,,,2015-10-05,1,,,,,,0
1425,5013301022120,登記記録の閉鎖等,0,2022-01-27,2022-01-27,株式会社プレザンテ,,株式会社,東京都,豊島区,池袋２丁目３９番１０号,,13,116,1710014,,,2022-01-27,登記官による閉鎖,,,2015-10-05,1,,,,,,0
1426,5013301029818,登記記録の閉鎖等,0,2022-01-27,2022-01-27,株式会社ｄａｉｃｅ,,株式会社,東京都,豊島区,東池袋１丁目２６番４号サンフラワービル５０７号室,,13,116,1700013,,,2022-01-27,登記官による閉鎖,,,2015-10-05,1,,,,,,0
1427,5013302002187,登記記録の閉鎖等,0,2022-01-27,2022-01-27,有限会社鎌田商会,,有限会社,東京都,豊島区,巣鴨４丁目１１番６号,,13,116,1700002,,,2022-01-27,登記官による閉鎖,,,2015-10-05,1,,,,,,0
1428,5013302006667,登記記録の閉鎖等,0,2022-01-27,2022-01-27,有限会社遠井塗装店,,有限会社,東京都,豊島区,巣鴨５丁目３８番１０号,,13,116,1700002,,,2022-01-27,登記官による閉鎖,,,2015-10-05,1,,,,,,0
1429,5013302016583,登記記録の閉鎖等,0,2022-01-27,2022-01-27,有限会社ローヤルフラワースクール,,有限会社,東京都,豊島区,南池袋２丁目１８番９－４０３号,,13,116,1710022,,,2022-01-27,登記官による閉鎖,,,2015-10-05,1,,,,,,0
1431,5013305000527,登記記録の閉鎖等,0,2022-01-27,2022-01-27,豊島メリヤス工業協同組合,,その他の設立登記法人,東京都,豊島区,高田３丁目２６番１４号,,13,116,1710033,,,2022-01-27,登記官による閉鎖,,,2015-10-05,1,,,,,,0
1432,5013305000700,登記記録の閉鎖等,0,2022-01-27,2022-01-27,特定非営利活動法人ピー・エフ・アイ・ゼロ・エミッション推進協議会,,その他の設立登記法人,東京都,豊島区,巣鴨１丁目１０番５号第２川端ビル３Ｆ,,13,116,1700002,,,2022-01-27,登記官による閉鎖,,,2015-10-05,1,,,,,,0
1433,5013305000931,登記記録の閉鎖等,0,2022-01-27,2022-01-27,特定非営利活動法人生活支援機構,,その他の設立登記法人,東京都,豊島区,東池袋１丁目１３番１号,,13,116,1700013,,,2022-01-27,登記官による閉鎖,,,2015-10-05,1,,,,,,0
1435,5020001076280,登記記録の閉鎖等,0,2022-01-27,2022-01-25,株式会社誠和通信,,株式会社,神奈川県,川崎市中原区,木月４丁目２６番２０号,,14,133,2110025,,,2022-01-25,清算の結了等,,,2015-10-05,1,,,,,セイワツウシン,0
1436,5020001099042,登記記録の閉鎖等,0,2022-01-27,2022-01-26,株式会社地産地消推進機構,,株式会社,東京都,世田谷区,東玉川１丁目７番１２号,,13,112,1580084,,,2022-01-26,清算の結了等,,,2015-10-05,1,,,,,チサンチショウスイシンキコウ,0
1438,5020001125789,登記記録の閉鎖等,0,2022-01-27,2022-01-20,ファルコンシステムコンサルティング株式会社,,株式会社,東京都,中央区,新川１丁目１６番３号,,13,102,1040033,,,2022-01-20,合併による解散等,9120001055741,令和４年１月１日大阪市淀川区西中島五丁目５番１５号ジェイズ・コミュニケーション株式会社（9120001055741）に合併し解散,2018-04-10,1,,,,,ファルコンシステムコンサルティング,0
1439,5020001132645,登記記録の閉鎖等,0,2022-01-27,2022-01-20,株式会社ＪＰ－ＮＥＴ,,株式会社,東京都,中野区,中野５丁目５番３号,,13,114,1640001,,,2022-01-20,清算の結了等,,,2019-09-04,1,,,,,ジェーピーネット,0
1449,5021001017852,登記記録の閉鎖等,0,2022-01-27,2022-01-25,株式会社ラス,,株式会社,神奈川県,相模原市南区,東大沼２丁目１８番１４号,,14,153,2520333,,,2022-01-25,清算の結了等,,,2015-10-05,1,,,,,ラス,0
1468,5040002043088,登記記録の閉鎖等,0,2022-01-27,2022-01-21,有限会社エンターウエイブ,,有限会社,千葉県,市川市,曽谷３丁目１３番２７号,,12,203,2720832,,,2022-01-21,清算の結了等,,,2015-10-05,1,,,,,エンターウエイブ,0
1481,5090003001057,登記記録の閉鎖等,0,2022-01-27,2022-01-25,合同会社音響水,,合同会社,山梨県,南アルプス市,六科１１７８番地３,,19,208,4000206,,,2022-01-25,清算の結了等,,,2015-10-05,1,,,,,オンキョウスイ,0
1482,5100001000224,登記記録の閉鎖等,0,2022-01-27,2022-01-27,いすゞモーター長野株式会社,,株式会社,長野県,長野市,稲里町中氷鉋３８５番地,,20,201,3812215,,,2022-01-27,登記官による閉鎖,,,2015-10-05,1,,,,,,0
1483,5100001004729,登記記録の閉鎖等,0,2022-01-27,2022-01-27,株式会社大鈴木,,株式会社,長野県,長野市,西後町１５８３番地,,20,201,3810000,,,2022-01-27,登記官による閉鎖,,,2016-07-22,1,,,,,,0
1484,5100001007731,登記記録の閉鎖等,0,2022-01-27,2022-01-27,株式会社マック,,株式会社,長野県,佐久市,取出町５４６番地１５,,20,217,3850043,,,2022-01-27,登記官による閉鎖,,,2015-10-05,1,,,,,,0
1485,5100001008580,登記記録の閉鎖等,0,2022-01-27,2022-01-27,株式会社智光薬湯,,株式会社,長野県,小諸市,甲２９３番地,,20,208,3840801,,,2022-01-27,登記官による閉鎖,,,2015-10-05,1,,,,,,0
1486,5100001008977,登記記録の閉鎖等,0,2022-01-27,2022-01-27,水沢木材株式会社,,株式会社,長野県,北佐久郡軽井沢町,大字長倉４９６７番地,,20,321,3890111,,,2022-01-27,登記官による閉鎖,,,2015-10-05,1,,,,,,0
1487,5100001020288,登記記録の閉鎖等,0,2022-01-27,2022-01-27,株式会社ＯＲＩ,,株式会社,長野県,茅野市,玉川３１５４番地８,,20,214,3910011,,,2022-01-27,登記官による閉鎖,,,2015-10-05,1,,,,,,0
1488,5100001020296,登記記録の閉鎖等,0,2022-01-27,2022-01-27,株式会社ほていや,,株式会社,長野県,諏訪市,湖岸通り１丁目１５番５号,,20,206,3920027,,,2022-01-27,登記官による閉鎖,,,2015-10-05,1,,,,,,0
1489,5100002000850,登記記録の閉鎖等,0,2022-01-27,2022-01-27,有限会社エムワイケー,,有限会社,長野県,長野市,稲田３丁目４７番８号,,20,201,3810042,,,2022-01-27,登記官による閉鎖,,,2015-10-05,1,,,,,,0
1490,5100002013225,登記記録の閉鎖等,0,2022-01-27,2022-01-27,有限会社テック,,有限会社,長野県,北佐久郡軽井沢町,大字長倉２７３３番地１,,20,321,3890111,,,2022-01-27,登記官による閉鎖,,,2015-10-05,1,,,,,,0
1491,5100002013324,登記記録の閉鎖等,0,2022-01-27,2022-01-27,有限会社ペンション・モンターニュ,,有限会社,長野県,北佐久郡軽井沢町,大字軽井沢字塩沢道上１１４８番地３６,,20,321,3890102,,,2022-01-27,登記官による閉鎖,,,2015-10-05,1,,,,,,0
1492,5100002024668,登記記録の閉鎖等,0,2022-01-27,2022-01-27,有限会社ＡＴ＆Ｔ,,有限会社,長野県,塩尻市,大字広丘野村２５２５番地,,20,215,3990702,,,2022-01-27,登記官による閉鎖,,,2015-10-05,1,,,,,,0
1493,5100002028058,登記記録の閉鎖等,0,2022-01-27,2022-01-27,有限会社桐の湯旅館,,有限会社,長野県,諏訪市,小和田南１７番２７号,,20,206,3920023,,,2022-01-27,登記官による閉鎖,,,2015-10-05,1,,,,,,0
1494,5100002028875,登記記録の閉鎖等,0,2022-01-27,2022-01-27,有限会社福田音響,,有限会社,長野県,諏訪市,大字豊田３７６番地１,,20,206,3920016,,,2022-01-27,登記官による閉鎖,,,2015-10-05,1,,,,,,0
1495,5100002030419,登記記録の閉鎖等,0,2022-01-27,2022-01-27,有限会社古橋鉄工,,有限会社,長野県,茅野市,玉川２２７６番地２,,20,214,3910011,,,2022-01-27,登記官による閉鎖,,,2015-10-05,1,,,,,,0
1496,5100002035013,登記記録の閉鎖等,0,2022-01-27,2022-01-27,有限会社箕輪化学塗装,,有限会社,長野県,上伊那郡箕輪町,大字中箕輪３７３０番地６２９,,20,383,3994601,,,2022-01-27,登記官による閉鎖,,,2015-10-05,1,,,,,,0
1498,5100005003669,登記記録の閉鎖等,0,2022-01-27,2022-01-27,農事組合法人小原食品加工組合,,その他の設立登記法人,長野県,小諸市,甲１６５３の２番地,,20,208,3840801,,,2022-01-27,登記官による閉鎖,,,2015-10-05,1,,,,,,0
1518,5120105006776,登記記録の閉鎖等,0,2022-01-27,2022-01-25,和泉造園緑化協同組合,,その他の設立登記法人,大阪府,和泉市,府中町４丁目２１番－２１３コーポ黒川,,27,219,5940071,,,2022-01-25,清算の結了等,,,2015-10-05,1,,,,,イズミゾウエンリョクカ,0
1523,5130005000721,登記記録の閉鎖等,0,2022-01-27,2022-01-05,天理教乾隆分教会,,その他の設立登記法人,京都府,京都市伏見区,久我東町１番地１８１,,26,109,6128494,,,2022-01-05,合併による解散等,4130005000813,令和４年１月５日京都市左京区浄土寺下馬場町８９番地天理教治京分教会（4130005000813）に合併し解散,2015-10-05,1,,,,,テンリキョウケンリュウブンキョウカイ,0
1543,5180001106501,登記記録の閉鎖等,0,2022-01-27,2022-01-24,株式会社Ｔ．Ｍ．Ｍ,,株式会社,愛知県,名古屋市東区,泉１丁目４番３１号,,23,102,4610001,,,2022-01-24,清算の結了等,,,2015-10-05,1,,,,,ティーエムエム,0
1546,5180001127778,登記記録の閉鎖等,0,2022-01-27,2022-01-20,ライフリリーフ株式会社,,株式会社,愛知県,丹羽郡扶桑町,大字齋藤字本郷屋敷１９３番地,,23,362,4800100,,,2022-01-20,清算の結了等,,,2017-05-17,1,,,,,ライフリリーフ,0
1548,5180002045921,登記記録の閉鎖等,0,2022-01-27,2022-01-25,有限会社トラストリンク,,有限会社,愛知県,名古屋市中区,錦１丁目５番１１号,,23,106,4600003,,,2022-01-25,清算の結了等,,,2015-10-05,1,,,,,トラストリンク,0
1563,5240001015076,登記記録の閉鎖等,0,2022-01-27,2022-01-26,株式会社シーオーテック,,株式会社,広島県,廿日市市,阿品台４丁目９番２２号,,34,213,7380053,,,2022-01-26,清算の結了等,,,2015-10-05,1,,,,,シーオーテック,0
1568,5260002007970,登記記録の閉鎖等,0,2022-01-27,2022-01-27,浜喜工業有限会社,,有限会社,岡山県,岡山市南区,豊成２丁目８番２２号,,33,104,7000942,,,2022-01-27,清算の結了等,,,2015-10-05,1,,,,,ハマヨシコウギョウ,0
1585,5310001004963,登記記録の閉鎖等,0,2022-01-27,2022-01-26,小倉・釜山国際フェリー株式会社,,株式会社,長崎県,長崎市,南山手町１２番４０号,,42,201,8500931,,,2022-01-26,登記官による閉鎖,,,2015-10-05,1,,,,,,0
1586,5310001005235,登記記録の閉鎖等,0,2022-01-27,2022-01-26,株式会社カシラ,,株式会社,長崎県,佐世保市,須田尾町３９９番地５,,42,202,8570831,,,2022-01-26,登記官による閉鎖,,,2015-10-05,1,,,,,,0
1587,5310002006372,登記記録の閉鎖等,0,2022-01-27,2022-01-26,有限会社メガネプラザ長崎,,有限会社,長崎県,長崎市,上戸町４丁目１番５号,,42,201,8500953,,,2022-01-26,登記官による閉鎖,,,2015-10-05,1,,,,,,0
1588,5310003001620,登記記録の閉鎖等,0,2022-01-27,2022-01-26,合資会社土取鉄工所,,合資会社,長崎県,諫早市,長田町２５６２番地,,42,204,8590301,,,2022-01-26,登記官による閉鎖,,,2015-10-05,1,,,,,,0
1589,5310003001686,登記記録の閉鎖等,0,2022-01-27,2022-01-26,合資会社岩田屋,,合資会社,長崎県,雲仙市,小浜町北本町９０９番地,,42,213,8540514,,,2022-01-26,登記官による閉鎖,,,2015-10-05,1,,,,,,0
1591,5310005001651,登記記録の閉鎖等,0,2022-01-27,2022-01-26,特定非営利活動法人日本生活機能向上促進会,,その他の設立登記法人,長崎県,長崎市,賑町３番２３号３Ｆ,,42,201,8500876,,,2022-01-26,登記官による閉鎖,,,2015-10-05,1,,,,,,0
1596,5340002015528,登記記録の閉鎖等,0,2022-01-27,2022-01-25,有限会社鯵坂住建,,有限会社,鹿児島県,姶良市,蒲生町西浦７０１番地,,46,225,8995306,,,2022-01-25,清算の結了等,,,2015-10-05,1,,,,,アジサカジュウケン,0
1627,6010001015627,登記記録の閉鎖等,0,2022-01-27,2022-01-24,株式会社ケーズインターナショナル,,株式会社,東京都,千代田区,内神田１丁目５番８号,,13,101,1010047,,,2022-01-24,清算の結了等,,,2015-10-05,1,,,,,ケーズインターナショナル,0
1628,6010001022193,登記記録の閉鎖等,0,2022-01-27,2022-01-27,株式会社タカヤマエージェンシー,,株式会社,東京都,千代田区,神田須田町１丁目１５番地２,,13,101,1010041,,,2022-01-27,登記官による閉鎖,,,2015-10-05,1,,,,,,0
1629,6010001036771,登記記録の閉鎖等,0,2022-01-27,2022-01-27,岩山商事株式会社,,株式会社,東京都,中央区,日本橋蛎殻町１丁目６番９号,,13,102,1030014,,,2022-01-27,登記官による閉鎖,,,2015-10-05,1,,,,,,0
1630,6010001038578,登記記録の閉鎖等,0,2022-01-27,2022-01-27,株式会社エムエーシィー,,株式会社,東京都,中央区,銀座５丁目１５番１９号,,13,102,1040061,,,2022-01-27,登記官による閉鎖,,,2015-10-05,1,,,,,,0
1631,6010001051060,登記記録の閉鎖等,0,2022-01-27,2022-01-27,株式会社ティーディシスコムズ,,株式会社,東京都,中央区,日本橋茅場町２丁目２番１１号茅場町三協ビル,,13,102,1030025,,,2022-01-27,登記官による閉鎖,,,2015-10-05,1,,,,,,0
1632,6010001054583,登記記録の閉鎖等,0,2022-01-27,2022-01-27,株式会社パブリツク,,株式会社,東京都,中央区,京橋２丁目５番４号,,13,102,1040031,,,2022-01-27,登記官による閉鎖,,,2015-10-05,1,,,,,,0
1633,6010001060004,登記記録の閉鎖等,0,2022-01-27,2022-01-27,株式会社米沢製本所,,株式会社,東京都,中央区,月島１丁目１３番１３号,,13,102,1040052,,,2022-01-27,登記官による閉鎖,,,2015-10-05,1,,,,,,0
1634,6010001061869,登記記録の閉鎖等,0,2022-01-27,2022-01-27,日本オフィス商事株式会社,,株式会社,東京都,千代田区,大手町２丁目２番１号新大手町ビル,,13,101,1000004,,,2022-01-27,登記官による閉鎖,,,2015-10-05,1,,,,,,0
1635,6010001062116,登記記録の閉鎖等,0,2022-01-27,2022-01-27,日本紙器工芸株式会社,,株式会社,東京都,中央区,湊３丁目１番５号,,13,102,1040043,,,2022-01-27,登記官による閉鎖,,,2015-10-05,1,,,,,,0
1636,6010001077312,登記記録の閉鎖等,0,2022-01-27,2022-01-27,株式会社アイトリオ,,株式会社,東京都,千代田区,麹町１丁目６番地６,00060632,13,101,1020083,,,2022-01-27,登記官による閉鎖,,,2015-10-05,1,,,,,,0
1637,6010001084044,登記記録の閉鎖等,0,2022-01-27,2022-01-27,株式会社サードアベニュー・スペースクリエーション,,株式会社,東京都,中央区,銀座７丁目３番６号,,13,102,1040061,,,2022-01-27,登記官による閉鎖,,,2015-10-05,1,,,,,,0
1644,6010001108777,登記記録の閉鎖等,0,2022-01-27,2022-01-27,株式会社中央広告社,,株式会社,東京都,中央区,築地２丁目９番２号銀座大信ビル２Ｆ,,13,102,1040045,,,2022-01-27,登記官による閉鎖,,,2015-10-05,1,,,,,,0
1645,6010001111541,登記記録の閉鎖等,0,2022-01-27,2022-01-27,アイボリー・コンサルティング株式会社,,株式会社,東京都,中央区,日本橋兜町１番７号,,13,102,1030026,,,2022-01-27,登記官による閉鎖,,,2015-10-05,1,,,,,,0
1646,6010001113505,登記記録の閉鎖等,0,2022-01-27,2022-01-27,株式会社スリーディー,,株式会社,東京都,中央区,日本橋茅場町２丁目１７番９号,,13,102,1030025,,,2022-01-27,登記官による閉鎖,,,2015-10-05,1,,,,,,0
1647,6010001115039,登記記録の閉鎖等,0,2022-01-27,2022-01-27,外神田商会株式会社,,株式会社,東京都,千代田区,東神田１丁目１１番７号,,13,101,1010031,,,2022-01-27,登記官による閉鎖,,,2015-10-05,1,,,,,,0
1649,6010001116061,登記記録の閉鎖等,0,2022-01-27,2022-01-27,株式会社アンセム,,株式会社,東京都,千代田区,神田神保町２丁目７番地,,13,101,1010051,,,2022-01-27,登記官による閉鎖,,,2015-10-05,1,,,,,,0
1650,6010001118462,登記記録の閉鎖等,0,2022-01-27,2022-01-27,サラディー株式会社,,株式会社,東京都,中央区,日本橋３丁目３番１５号,,13,102,1030027,,,2022-01-27,登記官による閉鎖,,,2015-10-05,1,,,,,,0
1651,6010001118644,登記記録の閉鎖等,0,2022-01-27,2022-01-27,株式会社ドット・ワン,,株式会社,東京都,中央区,銀座１丁目１５番７号,,13,102,1040061,,,2022-01-27,登記官による閉鎖,,,2015-10-05,1,,,,,,0
1652,6010001127125,登記記録の閉鎖等,0,2022-01-27,2022-01-27,株式会社ブレインインベストメント,,株式会社,東京都,中央区,日本橋蛎殻町１丁目１１番３号,,13,102,1030014,,,2022-01-27,登記官による閉鎖,,,2015-10-05,1,,,,,,0
1653,6010001127422,登記記録の閉鎖等,0,2022-01-27,2022-01-27,株式会社Ｅｃｈｏｔａ２４,,株式会社,東京都,千代田区,二番町１１番地１０,,13,101,1020084,,,2022-01-27,登記官による閉鎖,,,2015-10-05,1,,,,,,0
1654,6010001131845,登記記録の閉鎖等,0,2022-01-27,2022-01-27,コンポサーブ株式会社,,株式会社,東京都,中央区,銀座２丁目１２番１２号,,13,102,1040061,,,2022-01-27,登記官による閉鎖,,,2015-10-05,1,,,,,,0
1655,6010001134286,登記記録の閉鎖等,0,2022-01-27,2022-01-27,三幸食材株式会社,,株式会社,東京都,中央区,八丁堀２丁目１番５号,,13,102,1040032,,,2022-01-27,登記官による閉鎖,,,2015-10-05,1,,,,,,0
1656,6010001137371,登記記録の閉鎖等,0,2022-01-27,2022-01-27,株式会社Ｓ＆Ｖ,,株式会社,東京都,中央区,銀座１丁目１５番７号ＭＡＣ銀座ビル３階,,13,102,1040061,,,2022-01-27,登記官による閉鎖,,,2015-10-05,1,,,,,,0
1657,6010001139228,登記記録の閉鎖等,0,2022-01-27,2022-01-27,株式会社シンプルウイン,,株式会社,東京都,千代田区,神田和泉町１番地９号３ニユー明治ビル５階,,13,101,1010024,,,2022-01-27,登記官による閉鎖,,,2015-10-05,1,,,,,,0
1667,6010002001493,登記記録の閉鎖等,0,2022-01-27,2022-01-27,有限会社カズミ,,有限会社,東京都,文京区,本郷２丁目３２番１号,,13,105,1130033,,,2022-01-27,登記官による閉鎖,,,2015-10-05,1,,,,,,0
1668,6010002003614,登記記録の閉鎖等,0,2022-01-27,2022-01-27,泰明印刷有限会社,,有限会社,東京都,文京区,白山３丁目６番２０号,,13,105,1120001,,,2022-01-27,登記官による閉鎖,,,2015-10-05,1,,,,,,0
1669,6010002009917,登記記録の閉鎖等,0,2022-01-27,2022-01-27,有限会社琴善,,有限会社,東京都,千代田区,外神田２丁目１０番６号,,13,101,1010021,,,2022-01-27,登記官による閉鎖,,,2015-10-05,1,,,,,,0
1670,6010002011724,登記記録の閉鎖等,0,2022-01-27,2022-01-27,有限会社聖企画,,有限会社,東京都,千代田区,外神田２丁目１４番１０号,,13,101,1010021,,,2022-01-27,登記官による閉鎖,,,2015-10-05,1,,,,,,0
1671,6010002019008,登記記録の閉鎖等,0,2022-01-27,2022-01-27,有限会社銀座ミラノシユーズ,,有限会社,東京都,中央区,銀座４丁目３番５号,,13,102,1040061,,,2022-01-27,登記官による閉鎖,,,2015-10-05,1,,,,,,0
1672,6010002025179,登記記録の閉鎖等,0,2022-01-27,2022-01-27,有限会社丸那,,有限会社,東京都,中央区,日本橋茅場町２丁目１７番６号,,13,102,1030025,,,2022-01-27,登記官による閉鎖,,,2015-10-05,1,,,,,,0
1673,6010002031524,登記記録の閉鎖等,0,2022-01-27,2022-01-27,有限会社典子企画,,有限会社,東京都,中央区,銀座８丁目６番１８号,,13,102,1040061,,,2022-01-27,登記官による閉鎖,,,2015-10-05,1,,,,,,0
1674,6010002032605,登記記録の閉鎖等,0,2022-01-27,2022-01-27,有限会社海洋航運,,有限会社,東京都,中央区,日本橋蛎殻町１丁目１９番９号,,13,102,1030014,,,2022-01-27,登記官による閉鎖,,,2015-10-05,1,,,,,,0
1676,6010002040657,登記記録の閉鎖等,0,2022-01-27,2022-01-27,有限会社ＦＩＴ,,有限会社,東京都,文京区,関口１丁目９番１１号,,13,105,1120014,,,2022-01-27,登記官による閉鎖,,,2015-10-05,1,,,,,,0
1677,6010003003027,登記記録の閉鎖等,0,2022-01-27,2022-01-27,合資会社エスワイル,,合資会社,東京都,文京区,春日１丁目１２番６号,,13,105,1120003,,,2022-01-27,登記官による閉鎖,,,2015-10-05,1,,,,,,0
1678,6010003014577,登記記録の閉鎖等,0,2022-01-27,2022-01-27,合同会社ケイ・サポート,,合同会社,東京都,千代田区,神田須田町１丁目８番地の４,,13,101,1010041,,,2022-01-27,登記官による閉鎖,,,2015-10-05,1,,,,,,0
1679,6010003015055,登記記録の閉鎖等,0,2022-01-27,2022-01-27,合同会社ｅｓ,,合同会社,東京都,中央区,日本橋中洲８番３号,,13,102,1030008,,,2022-01-27,登記官による閉鎖,,,2015-10-05,1,,,,,,0
1681,6010005010632,登記記録の閉鎖等,0,2022-01-27,2022-01-27,特定非営利活動法人ＮＩＸＩＴＡＪＡＰＡＮ,,その他の設立登記法人,東京都,中央区,新川１丁目２１番１－１７０５号,,13,102,1040033,,,2022-01-27,登記官による閉鎖,,,2015-10-05,1,,,,,,0
1686,6010401131404,登記記録の閉鎖等,0,2022-01-27,2022-01-18,株式会社ＣＨＡＴ　ＮＯＶＥＬ,,株式会社,東京都,港区,六本木４丁目２番４５号高會堂ビル２階,,13,103,1060032,,,2022-01-18,清算の結了等,,,2017-05-16,1,,,,,チャットノベル,0
1694,6010402013626,登記記録の閉鎖等,0,2022-01-27,2022-01-18,有限会社ワイジェイエム,,有限会社,東京都,港区,六本木３丁目１１番６号２１泰明ビル４Ｆ,,13,103,1060032,,,2022-01-18,合併による解散等,7010401094575,令和３年１２月１６日東京都港区白金台四丁目２番１０号株式会社Ｍｉｎａｙｏ（7010401094575）に合併し解散,2015-10-05,1,,,,,ワイジェイエム,0
1700,6010501027254,登記記録の閉鎖等,0,2022-01-27,2022-01-27,株式会社ライト,,株式会社,東京都,台東区,下谷２丁目１９番９号,,13,106,1100004,,,2022-01-27,登記官による閉鎖,,,2015-10-05,1,,,,,,0
1701,6010501030976,登記記録の閉鎖等,0,2022-01-27,2022-01-27,ＴＣＯＭ株式会社,,株式会社,東京都,台東区,台東４丁目３１番１号ＡＬビル３１４,,13,106,1100016,,,2022-01-27,登記官による閉鎖,,,2015-10-05,1,,,,,,0
1703,6010502000037,登記記録の閉鎖等,0,2022-01-27,2022-01-27,有限会社浅見截断所,,有限会社,東京都,台東区,北上野１丁目７番３号,,13,106,1100014,,,2022-01-27,登記官による閉鎖,,,2015-10-05,1,,,,,,0
1704,6010502014656,登記記録の閉鎖等,0,2022-01-27,2022-01-27,有限会社関商店,,有限会社,東京都,台東区,浅草５丁目７０番１１号,,13,106,1110032,,,2022-01-27,登記官による閉鎖,,,2015-10-05,1,,,,,,0
1706,6010505001503,登記記録の閉鎖等,0,2022-01-27,2022-01-27,特定非営利活動法人マザーズシップ,,その他の設立登記法人,東京都,台東区,浅草３丁目４番４号,,13,106,1110032,,,2022-01-27,登記官による閉鎖,,,2015-10-05,1,,,,,,0
1707,6010601009441,登記記録の閉鎖等,0,2022-01-27,2022-01-27,株式会社エムケイ,,株式会社,東京都,墨田区,亀沢１丁目２０番２号,,13,107,1300014,,,2022-01-27,登記官による閉鎖,,,2015-10-05,1,,,,,,0
1708,6010601016157,登記記録の閉鎖等,0,2022-01-27,2022-01-27,安川運動服装株式会社,,株式会社,東京都,墨田区,両国４丁目１５番５号,,13,107,1300026,,,2022-01-27,登記官による閉鎖,,,2015-10-05,1,,,,,,0
1709,6010601033193,登記記録の閉鎖等,0,2022-01-27,2022-01-27,株式会社アイホーム,,株式会社,東京都,墨田区,東向島１丁目３番１号,,13,107,1310032,,,2022-01-27,登記官による閉鎖,,,2015-10-05,1,,,,,,0
1710,6010601038498,登記記録の閉鎖等,0,2022-01-27,2022-01-27,株式会社Ｋ・Ｊ・Ｂ,,株式会社,東京都,江東区,亀戸９丁目７番１０号,,13,108,1360071,,,2022-01-27,登記官による閉鎖,,,2015-10-05,1,,,,,,0
1711,6010601039380,登記記録の閉鎖等,0,2022-01-27,2022-01-27,株式会社広告戦略研究所,,株式会社,東京都,江東区,南砂４丁目１８番１０号,,13,108,1360076,,,2022-01-27,登記官による閉鎖,,,2015-10-05,1,,,,,,0
1714,6010602003699,登記記録の閉鎖等,0,2022-01-27,2022-01-27,有限会社東京柿の葉すし本舗たなか,,有限会社,東京都,江東区,東陽５丁目５番５号,,13,108,1350016,,,2022-01-27,登記官による閉鎖,,,2015-10-05,1,,,,,,0
1715,6010602021098,登記記録の閉鎖等,0,2022-01-27,2022-01-27,有限会社スタンダード測量,,有限会社,東京都,墨田区,京島１丁目１番２－４１０３号,,13,107,1310046,,,2022-01-27,登記官による閉鎖,,,2015-10-05,1,,,,,,0
1716,6010602023763,登記記録の閉鎖等,0,2022-01-27,2022-01-27,有限会社金子工業所,,有限会社,東京都,江東区,南砂５丁目１３番２０号,,13,108,1360076,,,2022-01-27,登記官による閉鎖,,,2015-10-05,1,,,,,,0
1717,6010602031428,登記記録の閉鎖等,0,2022-01-27,2022-01-27,有限会社サザン・イースト,,有限会社,東京都,墨田区,石原２丁目１１番５－６０５号,,13,107,1300011,,,2022-01-27,登記官による閉鎖,,,2015-10-05,1,,,,,,0
1722,6010901011733,登記記録の閉鎖等,0,2022-01-27,2022-01-26,株式会社ミネ総合企画,,株式会社,東京都,世田谷区,等々力２丁目３９番２１号,,13,112,1580082,,,2022-01-26,清算の結了等,,,2015-10-05,1,,,,,ミネソウゴウキカク,0
1743,6011102001557,登記記録の閉鎖等,0,2022-01-27,2022-01-21,有限会社うなぎ浜松家野中,,有限会社,東京都,新宿区,百人町１丁目２０番３－１０５号,,13,104,1690073,,,2022-01-21,清算の結了等,,,2015-10-05,1,,,,,ウナギハママツヤノナカ,0
1766,6012702012530,登記記録の閉鎖等,0,2022-01-27,2022-01-24,有限会社共栄管理,,有限会社,東京都,小平市,学園西町１丁目１５番１１号コーポ花水木１０７,,13,211,1870045,,,2022-01-24,清算の結了等,,,2015-10-05,1,,,,,キョウエイカンリ,0
1774,6013301012698,登記記録の閉鎖等,0,2022-01-27,2022-01-27,株式会社松し＿,00059905,株式会社,東京都,豊島区,南大塚１丁目６０番１４号,,13,116,1700005,,,2022-01-27,登記官による閉鎖,,,2015-10-05,1,,,,,,0
1775,6013301017474,登記記録の閉鎖等,0,2022-01-27,2022-01-27,株式会社タートル,,株式会社,東京都,豊島区,南池袋３丁目１３番９号,,13,116,1710022,,,2022-01-27,登記官による閉鎖,,,2015-10-05,1,,,,,,0
1776,6013301019462,登記記録の閉鎖等,0,2022-01-27,2022-01-27,株式会社ロイキングジャパン,,株式会社,東京都,豊島区,長崎４丁目４３番７号,,13,116,1710051,,,2022-01-27,登記官による閉鎖,,,2015-10-05,1,,,,,,0
1777,6013301024735,登記記録の閉鎖等,0,2022-01-27,2022-01-27,株式会社ワイズアップホールディングス,,株式会社,東京都,豊島区,東池袋２丁目３９番２号,,13,116,1700013,,,2022-01-27,登記官による閉鎖,,,2015-10-05,1,,,,,,0
1778,6013301028620,登記記録の閉鎖等,0,2022-01-27,2022-01-27,株式会社エー・ビー・シー・マーケテイング,,株式会社,東京都,豊島区,北大塚２丁目２４番５－７０９号,,13,116,1700004,,,2022-01-27,登記官による閉鎖,,,2015-10-05,1,,,,,,0
1779,6013301030196,登記記録の閉鎖等,0,2022-01-27,2022-01-27,モダンプラスチックス工業株式会社,,株式会社,東京都,豊島区,巣鴨１丁目４３番１号,,13,116,1700002,,,2022-01-27,登記官による閉鎖,,,2015-10-05,1,,,,,,0
1792,6030001072352,登記記録の閉鎖等,0,2022-01-27,2022-01-24,株式会社デイリーフーズサポート,,株式会社,埼玉県,東松山市,大字松山１５５２番地１２,,11,212,3550005,,,2022-01-24,清算の結了等,,,2015-10-05,1,,,,,デイリーフーズサポート,0
1807,6080002004333,登記記録の閉鎖等,0,2022-01-27,2022-01-25,有限会社ナカジマ,,有限会社,静岡県,静岡市葵区,上石町７番地の１３フタバビル１Ａ,,22,101,4200039,,,2022-01-25,清算の結了等,,,2015-10-05,1,,,,,ナカジマ,0
1808,6080101017310,登記記録の閉鎖等,0,2022-01-27,2022-01-13,株式会社アイエスエフネットライフ静岡,,株式会社,静岡県,沼津市,西条町１６１カーニープレイス沼津ビル,,22,203,4100804,,,2022-01-13,合併による解散等,6010401052047,令和３年１２月２９日東京都港区赤坂七丁目１番１６号株式会社アイエスエフネット（6010401052047）に合併し解散,2015-10-05,1,,,,,アイエスエフネットライフシズオカ,0
1810,6080401005799,登記記録の閉鎖等,0,2022-01-27,2022-01-25,株式会社ラビアンローゼ,,株式会社,静岡県,浜松市中区,佐鳴台２丁目３０番１５号,,22,131,4328021,,,2022-01-25,清算の結了等,,,2015-10-05,1,,,,,ラビアンローゼ,0
1811,6100001022291,登記記録の閉鎖等,0,2022-01-27,2022-01-27,株式会社小沢工務店,,株式会社,長野県,飯田市,伝馬町２丁目３４番地２,,20,205,3950016,,,2022-01-27,登記官による閉鎖,,,2015-10-05,1,,,,,,0
1814,6100002000461,登記記録の閉鎖等,0,2022-01-27,2022-01-27,有限会社一進,,有限会社,長野県,長野市,青木島町大塚１０６９番地３,,20,201,3812205,,,2022-01-27,登記官による閉鎖,,,2015-10-05,1,,,,,,0
1815,6100002011021,登記記録の閉鎖等,0,2022-01-27,2022-01-27,有限会社大真住機,,有限会社,長野県,佐久市,小田井１８７番地１,,20,217,3850009,,,2022-01-27,登記官による閉鎖,,,2015-10-05,1,,,,,,0
1816,6100002012250,登記記録の閉鎖等,0,2022-01-27,2022-01-27,有限会社アドバンスオート,,有限会社,長野県,小諸市,大字平原６６１番地２,,20,208,3840092,,,2022-01-27,登記官による閉鎖,,,2015-10-05,1,,,,,,0
1817,6100002014098,登記記録の閉鎖等,0,2022-01-27,2022-01-27,有限会社佐藤板金,,有限会社,長野県,上田市,住吉３２７番地９,,20,203,3860002,,,2022-01-27,登記官による閉鎖,,,2015-10-05,1,,,,,,0
1818,6100002019485,登記記録の閉鎖等,0,2022-01-27,2022-01-27,有限会社オートモービルサービス,,有限会社,長野県,松本市,大字島立４５４２番地３,,20,202,3900852,,,2022-01-27,登記官による閉鎖,,,2015-10-05,1,,,,,,0
1819,6100002022646,登記記録の閉鎖等,0,2022-01-27,2022-01-27,有限会社ハーモホームミヤサカ,,有限会社,長野県,松本市,大字島立２２３６番地８,,20,202,3900852,,,2022-01-27,登記官による閉鎖,,,2015-10-05,1,,,,,,0
1820,6100002029708,登記記録の閉鎖等,0,2022-01-27,2022-01-27,有限会社一久洋品店,,有限会社,長野県,茅野市,ちの３５０２番地１,,20,214,3910001,,,2022-01-27,登記官による閉鎖,,,2015-10-05,1,,,,,,0
1821,6100002031787,登記記録の閉鎖等,0,2022-01-27,2022-01-27,有限会社丸中薬品,,有限会社,長野県,岡谷市,長地鎮１丁目１番３３号,,20,204,3940087,,,2022-01-27,登記官による閉鎖,,,2015-10-05,1,,,,,,0
1822,6100002032050,登記記録の閉鎖等,0,2022-01-27,2022-01-27,有限会社横川精工,,有限会社,長野県,岡谷市,長地出早２丁目８番４号,,20,204,3940089,,,2022-01-27,登記官による閉鎖,,,2015-10-05,1,,,,,,0
1823,6100003004503,登記記録の閉鎖等,0,2022-01-27,2022-01-27,合名会社倉橋殖産會,,合名会社,長野県,松本市,大字今井３０１番地,,20,202,3901131,,,2022-01-27,登記官による閉鎖,,,2016-09-13,1,,,,,,0
1824,6100005002199,登記記録の閉鎖等,0,2022-01-27,2022-01-27,特定非営利活動法人鹿島自然科学総合研究所,,その他の設立登記法人,長野県,長野市,篠ノ井布施高田８７９番地２号,,20,201,3888007,,,2022-01-27,登記官による閉鎖,,,2015-10-05,1,,,,,,0
1825,6100005009211,登記記録の閉鎖等,0,2022-01-27,2022-01-27,伊南建設協業組合,,その他の設立登記法人,長野県,駒ヶ根市,赤穂１１３９９番地,,20,210,3994117,,,2022-01-27,登記官による閉鎖,,,2015-10-05,1,,,,,,0
1830,6120001133517,登記記録の閉鎖等,0,2022-01-27,2022-01-24,株式会社アイティゼット,,株式会社,大阪府,大阪市東淀川区,東中島１丁目１７－５ステュディオ新大阪３１２号,,27,114,5330033,,,2022-01-24,清算の結了等,,,2015-10-05,1,,,,,アイティゼット,0
1847,6122002001033,登記記録の閉鎖等,0,2022-01-27,2022-01-26,有限会社大川タイル,,有限会社,大阪府,東大阪市,宝持４丁目９番７号,,27,227,5770805,,,2022-01-26,清算の結了等,,,2015-10-05,1,,,,,オオカワタイル,0
1853,6130003006991,登記記録の閉鎖等,0,2022-01-27,2022-01-21,七志会合同会社,,合同会社,京都府,京都市伏見区,深草直違橋１１丁目１１７番地,,26,109,6120889,,,2022-01-21,清算の結了等,,,2021-01-22,1,,,,,シチシカイ,0
1856,6140001066649,登記記録の閉鎖等,0,2022-01-27,2022-01-24,菱三電器株式会社,,株式会社,兵庫県,三田市,三田町５３番１２号,,28,219,6691533,,,2022-01-24,清算の結了等,,,2015-10-05,1,,,,,,0
1860,6140001113822,登記記録の閉鎖等,0,2022-01-27,2022-01-24,アグレアーブル株式会社,,株式会社,兵庫県,西宮市,松生町５番８号,,28,204,6620076,,,2022-01-24,清算の結了等,,,2019-06-04,1,,,,,アグレアーブル,0
1885,6180302017041,登記記録の閉鎖等,0,2022-01-27,2022-01-26,有限会社西尾製作所,,有限会社,愛知県,安城市,里町一斗山１８番地６,,23,212,4460001,,,2022-01-26,清算の結了等,,,2015-10-05,1,,,,,ニシオセイサクジョ,0
1887,6190001008019,登記記録の閉鎖等,0,2022-01-27,2022-01-25,進栄建設株式会社,,株式会社,三重県,志摩市,大王町畔名２８５番地１,,24,215,5170601,,,2022-01-25,清算の結了等,,,2015-10-05,1,,,,,シンエイケンセツ,0
1895,6220002002859,登記記録の閉鎖等,0,2022-01-27,2022-01-25,有限会社サンショー,,有限会社,石川県,金沢市,御供田町ロ５８番地１,,17,201,9208221,,,2022-01-25,清算の結了等,,,2015-10-05,1,,,,,サンショー,0
1919,6310002006495,登記記録の閉鎖等,0,2022-01-27,2022-01-26,有限会社一会,,有限会社,長崎県,長崎市,京泊２丁目５番４号,,42,201,8512211,,,2022-01-26,登記官による閉鎖,,,2015-10-05,1,,,,,,0
1920,6310002008566,登記記録の閉鎖等,0,2022-01-27,2022-01-26,有限会社ＦＡＣＴ,,有限会社,長崎県,長崎市,田中町１０５番地１,,42,201,8510134,,,2022-01-26,登記官による閉鎖,,,2015-10-05,1,,,,,,0
1921,6310002011776,登記記録の閉鎖等,0,2022-01-27,2022-01-26,有限会社ミネマツ時計店,,有限会社,長崎県,佐世保市,大宮町２番２４号,,42,202,8570841,,,2022-01-26,登記官による閉鎖,,,2015-10-05,1,,,,,,0
1937,6370502000678,登記記録の閉鎖等,0,2022-01-27,2022-01-21,東北工業有限会社,,有限会社,宮城県,気仙沼市,魚町２丁目５番８号,,04,205,9880013,,,2022-01-21,合併による解散等,7370501000372,令和４年１月２０日宮城県気仙沼市魚町二丁目５番８号畠和水産株式会社（7370501000372）に合併し解散,2015-10-05,1,,,,,トウホクコウジョウ,0
1940,6380002035232,登記記録の閉鎖等,0,2022-01-27,2022-01-26,有限会社ひとみ,,有限会社,福島県,喜多方市,字清水台２丁目９８番地,,07,208,9660092,,,2022-01-26,清算の結了等,,,2015-10-05,1,,,,,,0
1969,7010001001171,登記記録の閉鎖等,0,2022-01-27,2022-01-20,株式会社エジマ,,株式会社,東京都,文京区,本郷６丁目８番３号,,13,105,1130033,,,2022-01-20,清算の結了等,,,2015-10-05,1,,,,,エジマ,0
1971,7010001027778,登記記録の閉鎖等,0,2022-01-27,2022-01-27,株式会社扶桑企画,,株式会社,東京都,千代田区,神田小川町３丁目１１番地２,,13,101,1010052,,,2022-01-27,登記官による閉鎖,,,2015-10-05,1,,,,,,0
1972,7010001043973,登記記録の閉鎖等,0,2022-01-27,2022-01-27,株式会社香鯉園,,株式会社,東京都,中央区,銀座２丁目７番６号,,13,102,1040061,,,2022-01-27,登記官による閉鎖,,,2017-02-06,1,,,,,,0
1973,7010001046860,登記記録の閉鎖等,0,2022-01-27,2022-01-27,株式会社シビルコンサルタント,,株式会社,東京都,中央区,東日本橋１丁目２番１２号,,13,102,1030004,,,2022-01-27,登記官による閉鎖,,,2015-10-05,1,,,,,,0
1974,7010001061967,登記記録の閉鎖等,0,2022-01-27,2022-01-27,株式会社日本金属造型センター,,株式会社,東京都,中央区,銀座７丁目８番１７号６０３,,13,102,1040061,,,2022-01-27,登記官による閉鎖,,,2016-10-25,1,,,,,,0
1975,7010001061975,登記記録の閉鎖等,0,2022-01-27,2022-01-27,株式会社日本行政資格者養成学院,,株式会社,東京都,中央区,日本橋室町１丁目８番２号,,13,102,1030022,,,2022-01-27,登記官による閉鎖,,,2015-10-05,1,,,,,,0
1976,7010001068483,登記記録の閉鎖等,0,2022-01-27,2022-01-27,株式会社ニューアグリ,,株式会社,東京都,中央区,日本橋箱崎町２７番５－１００２号,,13,102,1030015,,,2022-01-27,登記官による閉鎖,,,2015-10-05,1,,,,,,0
1977,7010001079992,登記記録の閉鎖等,0,2022-01-27,2022-01-27,ＥＴＣマルチサービス株式会社,,株式会社,東京都,中央区,日本橋茅場町２丁目７番１０号,,13,102,1030025,,,2022-01-27,登記官による閉鎖,,,2015-10-05,1,,,,,,0
1978,7010001112431,登記記録の閉鎖等,0,2022-01-27,2022-01-27,ジャパンマネジメントグループ株式会社,,株式会社,東京都,中央区,勝どき６丁目３－１－５１１８,,13,102,1040054,,,2022-01-27,登記官による閉鎖,,,2015-10-05,1,,,,,,0
1979,7010001121291,登記記録の閉鎖等,0,2022-01-27,2022-01-27,株式会社ニューウェーヴ,,株式会社,東京都,千代田区,神田須田町２丁目１９番７号,,13,101,1010041,,,2022-01-27,登記官による閉鎖,,,2015-10-05,1,,,,,,0
1981,7010001123577,登記記録の閉鎖等,0,2022-01-27,2022-01-27,株式会社エスアンドシー,,株式会社,東京都,文京区,本郷３丁目３２番３号,,13,105,1130033,,,2022-01-27,登記官による閉鎖,,,2015-10-05,1,,,,,,0
1983,7010001130854,登記記録の閉鎖等,0,2022-01-27,2022-01-27,株式会社ヴィーナストレーディングコム,,株式会社,東京都,中央区,日本橋茅場町１丁目４番２号,,13,102,1030025,,,2022-01-27,登記官による閉鎖,,,2015-10-05,1,,,,,,0
1984,7010001135036,登記記録の閉鎖等,0,2022-01-27,2022-01-27,株式会社東信物産,,株式会社,東京都,千代田区,神田紺屋町４６番地,,13,101,1010035,,,2022-01-27,登記官による閉鎖,,,2015-10-05,1,,,,,,0
1985,7010001140399,登記記録の閉鎖等,0,2022-01-27,2022-01-27,株式会社トレミッラ,,株式会社,東京都,千代田区,平河町１丁目９番８号,,13,101,1020093,,,2022-01-27,登記官による閉鎖,,,2015-10-05,1,,,,,,0
1993,7010002038460,登記記録の閉鎖等,0,2022-01-27,2022-01-27,有限会社遊膳,,有限会社,東京都,中央区,銀座７丁目８番１６号,,13,102,1040061,,,2022-01-27,登記官による閉鎖,,,2015-10-05,1,,,,,,0
1996,7010003002564,登記記録の閉鎖等,0,2022-01-27,2022-01-27,合資会社三重酒店,,合資会社,東京都,文京区,白山４丁目３７番１号,,13,105,1120001,,,2022-01-27,登記官による閉鎖,,,2015-10-05,1,,,,,,0
2004,7010005002439,登記記録の閉鎖等,0,2022-01-27,2022-01-27,関東セメント卸商業組合,,その他の設立登記法人,東京都,中央区,銀座５丁目１４番６号,,13,102,1040061,,,2022-01-27,登記官による閉鎖,,,2015-10-05,1,,,,,,0
2005,7010005003016,登記記録の閉鎖等,0,2022-01-27,2022-01-27,社団法人産業関係研究所,,その他の設立登記法人,東京都,千代田区,平河町２丁目１６番１５号,,13,101,1020093,,,2022-01-27,登記官による閉鎖,,,2015-10-05,1,,,,,,0
2006,7010005005227,登記記録の閉鎖等,0,2022-01-27,2022-01-27,特定非営利活動法人日本バーンゴルフ協会,,その他の設立登記法人,東京都,中央区,銀座２丁目６番１５号,,13,102,1040061,,,2022-01-27,登記官による閉鎖,,,2015-10-05,1,,,,,,0
2007,7010005006943,登記記録の閉鎖等,0,2022-01-27,2022-01-27,特定非営利活動法人国際交流協会真心,,その他の設立登記法人,東京都,千代田区,内神田２丁目８番８号,,13,101,1010047,,,2022-01-27,登記官による閉鎖,,,2015-10-05,1,,,,,,0
2008,7010005007462,登記記録の閉鎖等,0,2022-01-27,2022-01-27,特定非営利活動法人アスパイアクラブ,,その他の設立登記法人,東京都,中央区,日本橋茅場町２丁目１７番３号ブルーハイツ茅場町５０２,,13,102,1030025,,,2022-01-27,登記官による閉鎖,,,2015-10-05,1,,,,,,0
2009,7010005007768,登記記録の閉鎖等,0,2022-01-27,2022-01-27,特定非営利活動法人ＩＬＢ,,その他の設立登記法人,東京都,中央区,勝どき１丁目１－１プラザ勝どきＣ－５３８,,13,102,1040054,,,2022-01-27,登記官による閉鎖,,,2015-10-05,1,,,,,,0
2010,7010005008279,登記記録の閉鎖等,0,2022-01-27,2022-01-27,ロビンソン労働組合,,その他の設立登記法人,東京都,千代田区,二番町８番地８,,13,101,1020084,,,2022-01-27,登記官による閉鎖,,,2015-10-05,1,,,,,,0
2011,7010005009368,登記記録の閉鎖等,0,2022-01-27,2022-01-27,特定非営利活動法人ハッピィアイスクリーム,,その他の設立登記法人,東京都,千代田区,九段南２丁目４番１１号オギムラビル２階,,13,101,1020074,,,2022-01-27,登記官による閉鎖,,,2015-10-05,1,,,,,,0
2027,7010501017865,登記記録の閉鎖等,0,2022-01-27,2022-01-27,株式会社トラッドアンドヴォーグ,,株式会社,東京都,台東区,寿３丁目１７番２号,,13,106,1110042,,,2022-01-27,登記官による閉鎖,,,2015-10-05,1,,,,,,0
2028,7010501022089,登記記録の閉鎖等,0,2022-01-27,2022-01-27,アイ・オー・ティ株式会社,,株式会社,東京都,台東区,西浅草１丁目５番１４号,,13,106,1110035,,,2022-01-27,登記官による閉鎖,,,2015-10-05,1,,,,,,0
2029,7010501024044,登記記録の閉鎖等,0,2022-01-27,2022-01-27,株式会社フラップ東京,,株式会社,東京都,台東区,東上野３丁目２８番７号,,13,106,1100015,,,2022-01-27,登記官による閉鎖,,,2015-10-05,1,,,,,,0
2030,7010501027732,登記記録の閉鎖等,0,2022-01-27,2022-01-27,株式会社ウィル,,株式会社,東京都,台東区,根岸２丁目９番２号,,13,106,1100003,,,2022-01-27,登記官による閉鎖,,,2015-10-05,1,,,,,,0
2031,7010501028417,登記記録の閉鎖等,0,2022-01-27,2022-01-27,株式会社ＴＢＪ,,株式会社,東京都,台東区,上野１丁目１５番１０号大秀ビル５０５,,13,106,1100005,,,2022-01-27,登記官による閉鎖,,,2015-10-05,1,,,,,,0
2032,7010501029233,登記記録の閉鎖等,0,2022-01-27,2022-01-27,株式会社鈴久,,株式会社,東京都,台東区,蔵前４丁目６番３号,,13,106,1110051,,,2022-01-27,登記官による閉鎖,,,2015-10-05,1,,,,,,0
2033,7010501031032,登記記録の閉鎖等,0,2022-01-27,2022-01-27,株式会社中央管理,,株式会社,東京都,台東区,台東４丁目５番５－４０１号台東マンション,,13,106,1100016,,,2022-01-27,登記官による閉鎖,,,2015-10-05,1,,,,,,0
2036,7010503003541,登記記録の閉鎖等,0,2022-01-27,2022-01-27,合同会社キャナル,,合同会社,東京都,台東区,台東１丁目９番４号松浦ビル５階,,13,106,1100016,,,2022-01-27,登記官による閉鎖,,,2015-10-05,1,,,,,,0
2037,7010601012378,登記記録の閉鎖等,0,2022-01-27,2022-01-27,大東冷熱工業株式会社,,株式会社,東京都,墨田区,立花１丁目２３番２－４１１号,,13,107,1310043,,,2022-01-27,登記官による閉鎖,,,2015-10-05,1,,,,,,0
2038,7010601029075,登記記録の閉鎖等,0,2022-01-27,2022-01-27,株式会社ナカ・コーポレーション,,株式会社,東京都,江東区,潮見１丁目１６番６号,,13,108,1350052,,,2022-01-27,登記官による閉鎖,,,2015-10-05,1,,,,,,0
2039,7010601034777,登記記録の閉鎖等,0,2022-01-27,2022-01-27,株式会社テトラ,,株式会社,東京都,江東区,木場２丁目１５番１２号,,13,108,1350042,,,2022-01-27,登記官による閉鎖,,,2015-10-05,1,,,,,,0
2042,7010601036237,登記記録の閉鎖等,0,2022-01-27,2022-01-27,株式会社ＡＦＴＥＲ　ＭＡＴＨ　ＩＮＣ,,株式会社,東京都,江東区,森下２丁目１７番７号,,13,108,1350004,,,2022-01-27,登記官による閉鎖,,,2015-10-05,1,,,,,,0
2043,7010601041055,登記記録の閉鎖等,0,2022-01-27,2022-01-27,株式会社サンライズ社,,株式会社,東京都,江東区,東陽１丁目５番４号,,13,108,1350016,,,2022-01-27,登記官による閉鎖,,,2015-10-05,1,,,,,,0
2046,7010602006412,登記記録の閉鎖等,0,2022-01-27,2022-01-27,有限会社山岡プロセス,,有限会社,東京都,江東区,南砂２丁目３番１－１４４５号,,13,108,1360076,,,2022-01-27,登記官による閉鎖,,,2015-10-05,1,,,,,,0
2047,7010602008020,登記記録の閉鎖等,0,2022-01-27,2022-01-27,黒須運輸有限会社,,有限会社,東京都,江東区,大島２丁目１９番９号,,13,108,1360072,,,2022-01-27,登記官による閉鎖,,,2015-10-05,1,,,,,,0
2048,7010602009605,登記記録の閉鎖等,0,2022-01-27,2022-01-27,有限会社江戸かもじ本舗,,有限会社,東京都,墨田区,墨田１丁目１番１０号,,13,107,1310031,,,2022-01-27,登記官による閉鎖,,,2015-10-05,1,,,,,,0
2049,7010602012245,登記記録の閉鎖等,0,2022-01-27,2022-01-27,有限会社俵山,,有限会社,東京都,墨田区,錦糸４丁目６番９号,,13,107,1300013,,,2022-01-27,登記官による閉鎖,,,2015-10-05,1,,,,,,0
2050,7010602015561,登記記録の閉鎖等,0,2022-01-27,2022-01-27,有限会社ピー・エス・ピー,,有限会社,東京都,墨田区,吾妻橋２丁目３番１５号,,13,107,1300001,,,2022-01-27,登記官による閉鎖,,,2015-10-05,1,,,,,,0
2051,7010602026468,登記記録の閉鎖等,0,2022-01-27,2022-01-27,有限会社カンダ,,有限会社,東京都,江東区,塩浜２丁目１３番１４号,,13,108,1350043,,,2022-01-27,登記官による閉鎖,,,2015-10-05,1,,,,,,0
2052,7010602028489,登記記録の閉鎖等,0,2022-01-27,2022-01-27,有限会社メディアミント,,有限会社,東京都,墨田区,千歳２丁目１４番４号,,13,107,1300025,,,2022-01-27,登記官による閉鎖,,,2015-10-05,1,,,,,,0
2070,7011101049712,登記記録の閉鎖等,0,2022-01-27,2022-01-21,株式会社イーエックス,,株式会社,東京都,新宿区,市谷薬王寺町８３番,,13,104,1620063,,,2022-01-21,清算の結了等,,,2015-10-05,1,,,,,イーエックス,0
2076,7011105004853,登記記録の閉鎖等,0,2022-01-27,2022-01-24,公益財団法人中山がん研究所,,その他の設立登記法人,東京都,新宿区,新宿５丁目１４番９号,,13,104,1600022,,,2022-01-24,清算の結了等,,,2015-10-05,1,,,,,ナカヤマガンケンキュウジョ,0
2087,7013301015618,登記記録の閉鎖等,0,2022-01-27,2022-01-27,株式会社匠,,株式会社,東京都,豊島区,南池袋３丁目１３番９号,,13,116,1710022,,,2022-01-27,登記官による閉鎖,,,2015-10-05,1,,,,,,0
2088,7013301018777,登記記録の閉鎖等,0,2022-01-27,2022-01-27,株式会社リサーチプランニング,,株式会社,東京都,豊島区,北大塚１丁目２０番１６号,,13,116,1700004,,,2022-01-27,登記官による閉鎖,,,2015-10-05,1,,,,,,0
2091,7013302009189,登記記録の閉鎖等,0,2022-01-27,2022-01-27,有限会社まこと商事,,有限会社,東京都,豊島区,東池袋３丁目２番４－５０７号,,13,116,1700013,,,2022-01-27,登記官による閉鎖,,,2015-10-05,1,,,,,,0
2117,7021002029416,登記記録の閉鎖等,0,2022-01-27,2022-01-24,有限会社レイク観光,,有限会社,神奈川県,相模原市緑区,寸沢嵐３５６１番地６,,14,151,2520176,,,2022-01-24,清算の結了等,,,2015-10-05,1,,,,,レイクカンコウ,0
2137,7060001020679,登記記録の閉鎖等,0,2022-01-27,2022-01-24,株式会社モアレディ,,株式会社,栃木県,佐野市,越名町１５１番地,,09,204,3270822,,,2022-01-24,清算の結了等,,,2015-10-05,1,,,,,,0
2142,7080102000974,登記記録の閉鎖等,0,2022-01-27,2022-01-26,有限会社川誠,,有限会社,静岡県,沼津市,大手町５丁目４番３号,,22,203,4100801,,,2022-01-26,清算の結了等,,,2015-10-05,1,,,,,カワセイ,0
2144,7100001021094,登記記録の閉鎖等,0,2022-01-27,2022-01-27,アルプス食品株式会社,,株式会社,長野県,上伊那郡飯島町,田切１１４５番地１３,,20,384,3993701,,,2022-01-27,登記官による閉鎖,,,2015-10-05,1,,,,,,0
2145,7100001021375,登記記録の閉鎖等,0,2022-01-27,2022-01-27,株式会社藤よし,,株式会社,長野県,上伊那郡飯島町,七久保４５４番地１,,20,384,3993705,,,2022-01-27,登記官による閉鎖,,,2015-10-05,1,,,,,,0
2146,7100001023702,登記記録の閉鎖等,0,2022-01-27,2022-01-27,株式会社ＡＲＩＡ,,株式会社,長野県,駒ヶ根市,赤穂１２３７６番地３,,20,210,3994117,,,2022-01-27,登記官による閉鎖,,,2015-10-05,1,,,,,,0
2147,7100002003117,登記記録の閉鎖等,0,2022-01-27,2022-01-27,有限会社千野電気商会,,有限会社,長野県,長野市,松代町松代１２８９番地２５,,20,201,3811231,,,2022-01-27,登記官による閉鎖,,,2015-10-05,1,,,,,,0
2148,7100002008248,登記記録の閉鎖等,0,2022-01-27,2022-01-27,有限会社市川家具製作所,,有限会社,長野県,須坂市,大字坂田７０番地,,20,207,3820000,,,2022-01-27,登記官による閉鎖,,,2015-10-05,1,,,,,,0
2149,7100002012720,登記記録の閉鎖等,0,2022-01-27,2022-01-27,有限会社松岡商店,,有限会社,長野県,小諸市,御幸町１丁目６番１３号,,20,208,3840005,,,2022-01-27,登記官による閉鎖,,,2015-10-05,1,,,,,,0
2151,7100002029401,登記記録の閉鎖等,0,2022-01-27,2022-01-27,有限会社羽田新聞店,,有限会社,長野県,茅野市,塚原２丁目１３番３１号,,20,214,3910002,,,2022-01-27,登記官による閉鎖,,,2015-10-05,1,,,,,,0
2152,7100002030375,登記記録の閉鎖等,0,2022-01-27,2022-01-27,有限会社興信電機,,有限会社,長野県,茅野市,豊平５４３２番地１,,20,214,3910213,,,2022-01-27,登記官による閉鎖,,,2016-03-30,1,,,,,,0
2153,7100002031670,登記記録の閉鎖等,0,2022-01-27,2022-01-27,有限会社ハクシン土建,,有限会社,長野県,岡谷市,加茂町３丁目１０番１８号,,20,204,3940003,,,2022-01-27,登記官による閉鎖,,,2015-10-05,1,,,,,,0
2154,7100002032000,登記記録の閉鎖等,0,2022-01-27,2022-01-27,有限会社ヤマザキエンジニアリング,,有限会社,長野県,岡谷市,川岸西１丁目１１番１号,,20,204,3940046,,,2022-01-27,登記官による閉鎖,,,2015-10-05,1,,,,,,0
2155,7100005004418,登記記録の閉鎖等,0,2022-01-27,2022-01-27,特定非営利活動法人エックスワイサタデースクールネットワーク,,その他の設立登記法人,長野県,上田市,中央４丁目６番１３号,,20,203,3860012,,,2022-01-27,登記官による閉鎖,,,2015-10-05,1,,,,,,0
2156,7100005005457,登記記録の閉鎖等,0,2022-01-27,2022-01-27,特定非営利活動法人心良の故郷を愛する会,,その他の設立登記法人,長野県,中野市,大字永江７４５４番地１号,,20,211,3892104,,,2022-01-27,登記官による閉鎖,,,2015-10-05,1,,,,,,0
2204,7180305002262,登記記録の閉鎖等,0,2022-01-27,2022-01-25,東三河自動車解体協同組合,,その他の設立登記法人,愛知県,豊橋市,瓜郷町一新替１０番地,,23,201,4400092,,,2022-01-25,清算の結了等,,,2015-10-05,1,,,,,ヒガシミカワジドウシャカイタイ,0
2212,7230002006379,登記記録の閉鎖等,0,2022-01-27,2022-01-25,有限会社ウエノ内装,,有限会社,富山県,富山市,下大久保１３２７番地７,,16,201,9392251,,,2022-01-25,清算の結了等,,,2015-10-05,1,,,,,ウエノナイソウ,0
2215,7240002026434,登記記録の閉鎖等,0,2022-01-27,2022-01-25,有限会社かめりや,,有限会社,広島県,広島市安芸区,矢野西１丁目７番５－１００９号,,34,107,7360085,,,2022-01-25,清算の結了等,,,2015-10-05,1,,,,,カメリヤ,0
2216,7240002035063,登記記録の閉鎖等,0,2022-01-27,2022-01-26,有限会社ムラヤマ電設,,有限会社,広島県,呉市,川尻町小仁方２丁目２番１５号,,34,202,7372604,,,2022-01-26,清算の結了等,,,2015-10-05,1,,,,,ムラヤマデンセツ,0
2222,7260002033676,登記記録の閉鎖等,0,2022-01-27,2022-01-25,有限会社伸機,,有限会社,岡山県,真庭市,目木１４０４番地の１,,33,214,7193224,,,2022-01-25,清算の結了等,,,2015-10-05,1,,,,,シンキ,0
2242,7310001004219,登記記録の閉鎖等,0,2022-01-27,2022-01-26,株式会社美和建設,,株式会社,長崎県,長崎市,桶屋町３１番３号,,42,201,8500027,,,2022-01-26,登記官による閉鎖,,,2015-10-05,1,,,,,,0
2244,7310002007146,登記記録の閉鎖等,0,2022-01-27,2022-01-26,有限会社デジタル長崎,,有限会社,長崎県,長崎市,ダイヤランド３丁目７番１１号,,42,201,8500963,,,2022-01-26,登記官による閉鎖,,,2015-10-05,1,,,,,,0
2245,7310002009935,登記記録の閉鎖等,0,2022-01-27,2022-01-26,有限会社三機工業,,有限会社,長崎県,佐世保市,赤崎町３０８番地,,42,202,8570064,,,2022-01-26,登記官による閉鎖,,,2015-10-05,1,,,,,,0
2246,7310002011271,登記記録の閉鎖等,0,2022-01-27,2022-01-26,有限会社ビービークリーン,,有限会社,長崎県,佐世保市,踊石町７３４番地２５,,42,202,8580902,,,2022-01-26,登記官による閉鎖,,,2015-10-05,1,,,,,,0
2247,7310002013367,登記記録の閉鎖等,0,2022-01-27,2022-01-26,有限会社プロジェクトジャパン,,有限会社,長崎県,西海市,西海町木場郷４７５番地３,,42,212,8513504,,,2022-01-26,登記官による閉鎖,,,2015-10-05,1,,,,,,0
2249,7310005006244,登記記録の閉鎖等,0,2022-01-27,2022-01-26,特定非営利活動法人日本ヒーリング科学研究所,,その他の設立登記法人,長崎県,平戸市,津吉町１０５１番地,,42,207,8595512,,,2022-01-26,登記官による閉鎖,,,2015-10-05,1,,,,,,0
2268,7430001043254,登記記録の閉鎖等,0,2022-01-27,2022-01-26,株式会社匠建,,株式会社,北海道,札幌市中央区,北十三条西１８丁目１番地１０クリーンリバーフィネス桑園西７Ｆ,,01,101,0600013,,,2022-01-26,清算の結了等,,,2015-10-05,1,,,,,タッケン,0
2283,8010001004339,登記記録の閉鎖等,0,2022-01-27,2022-01-27,株式会社ソフトウエアコンサルタント,,株式会社,東京都,文京区,春日２丁目２２番５号２０３,,13,105,1120003,,,2022-01-27,登記官による閉鎖,,,2015-10-05,1,,,,,,0
2284,8010001007283,登記記録の閉鎖等,0,2022-01-27,2022-01-27,株式会社政一,,株式会社,東京都,文京区,本郷６丁目１６番１１号,,13,105,1130033,,,2022-01-27,登記官による閉鎖,,,2015-10-05,1,,,,,,0
2285,8010001007754,登記記録の閉鎖等,0,2022-01-27,2022-01-27,ムツミ工業株式会社,,株式会社,東京都,文京区,本郷３丁目２６番１３号,,13,105,1130033,,,2022-01-27,登記官による閉鎖,,,2015-10-05,1,,,,,,0
2286,8010001023090,登記記録の閉鎖等,0,2022-01-27,2022-01-27,株式会社津光商会,,株式会社,東京都,千代田区,大手町２丁目６番２号,,13,101,1000004,,,2022-01-27,登記官による閉鎖,,,2015-10-05,1,,,,,,0
2287,8010001032620,登記記録の閉鎖等,0,2022-01-27,2022-01-27,ワールド・ウエイ株式会社,,株式会社,東京都,千代田区,飯田橋１丁目７番１０号山京ビル,,13,101,1020072,,,2022-01-27,登記官による閉鎖,,,2015-10-05,1,,,,,,0
2288,8010001043436,登記記録の閉鎖等,0,2022-01-27,2022-01-27,株式会社五福商店,,株式会社,東京都,中央区,日本橋人形町２丁目３４番１２号,,13,102,1030013,,,2022-01-27,登記官による閉鎖,,,2015-10-05,1,,,,,,0
2290,8010001081700,登記記録の閉鎖等,0,2022-01-27,2022-01-27,株式会社アペル,,株式会社,東京都,中央区,日本橋本町３丁目３番６号,,13,102,1030023,,,2022-01-27,登記官による閉鎖,,,2015-10-05,1,,,,,,0
2291,8010001101482,登記記録の閉鎖等,0,2022-01-27,2022-01-27,株式会社リップルインベストメント,,株式会社,東京都,千代田区,神田三崎町２丁目９番８号,,13,101,1010061,,,2022-01-27,登記官による閉鎖,,,2015-10-05,1,,,,,,0
2292,8010001105979,登記記録の閉鎖等,0,2022-01-27,2022-01-27,株式会社ワイ・ジービー秋葉原,,株式会社,東京都,千代田区,神田佐久間町３丁目３３番古田土ビル２階,,13,101,1010025,,,2022-01-27,登記官による閉鎖,,,2015-10-05,1,,,,,,0
2294,8010001126331,登記記録の閉鎖等,0,2022-01-27,2022-01-27,株式会社朝日経済情報,,株式会社,東京都,中央区,日本橋人形町３丁目３番１３号ＣＩＣビル５階,,13,102,1030013,,,2022-01-27,登記官による閉鎖,,,2015-10-05,1,,,,,,0
2295,8010001126744,登記記録の閉鎖等,0,2022-01-27,2022-01-27,株式会社マリアライク,,株式会社,東京都,中央区,築地４丁目１番１２号,,13,102,1040045,,,2022-01-27,登記官による閉鎖,,,2015-10-05,1,,,,,,0
2296,8010001127973,登記記録の閉鎖等,0,2022-01-27,2022-01-27,株式会社プラナ,,株式会社,東京都,中央区,銀座３丁目８番４号,,13,102,1040061,,,2022-01-27,登記官による閉鎖,,,2015-10-05,1,,,,,,0
2297,8010001128501,登記記録の閉鎖等,0,2022-01-27,2022-01-27,Ｅｃｏインターナショナルトレード株式会社,,株式会社,東京都,中央区,日本橋蛎殻町２丁目８番７号,,13,102,1030014,,,2022-01-27,登記官による閉鎖,,,2015-10-05,1,,,,,,0
2298,8010001134094,登記記録の閉鎖等,0,2022-01-27,2022-01-27,株式会社キートス,,株式会社,東京都,千代田区,神田練塀町７６番地,,13,101,1010022,,,2022-01-27,登記官による閉鎖,,,2015-10-05,1,,,,,,0
2299,8010001174966,登記記録の閉鎖等,0,2022-01-27,2022-01-27,株式会社明石製作所,,株式会社,東京都,千代田区,丸の内３丁目２番３号,,13,101,1000005,,,2022-01-27,登記官による閉鎖,,,2016-04-18,1,,,,,,0
2306,8010002002639,登記記録の閉鎖等,0,2022-01-27,2022-01-27,さくら工芸有限会社,,有限会社,東京都,文京区,湯島２丁目２４番３号,,13,105,1130034,,,2022-01-27,登記官による閉鎖,,,2015-10-05,1,,,,,,0
2307,8010002006796,登記記録の閉鎖等,0,2022-01-27,2022-01-27,有限会社朝島貿易,,有限会社,東京都,千代田区,神田佐久間町３丁目９番地第三田中ビル,,13,101,1010025,,,2022-01-27,登記官による閉鎖,,,2015-10-05,1,,,,,,0
2310,8010002021515,登記記録の閉鎖等,0,2022-01-27,2022-01-27,有限会社セ・ラ・ヴイ,,有限会社,東京都,中央区,日本橋本町１丁目８番８号,,13,102,1030023,,,2022-01-27,登記官による閉鎖,,,2015-10-05,1,,,,,,0
2311,8010002029574,登記記録の閉鎖等,0,2022-01-27,2022-01-27,シーエフアイ・ミヤギ有限会社,,有限会社,東京都,文京区,大塚４丁目５１番３－７０２号,,13,105,1120012,,,2022-01-27,登記官による閉鎖,,,2015-10-05,1,,,,,,0
2312,8010002032818,登記記録の閉鎖等,0,2022-01-27,2022-01-27,有限会社日本そばのもと,,有限会社,東京都,中央区,日本橋小舟町１２番９号,,13,102,1030024,,,2022-01-27,登記官による閉鎖,,,2015-10-05,1,,,,,,0
2314,8010002035531,登記記録の閉鎖等,0,2022-01-27,2022-01-27,有限会社日経幸報社,,有限会社,東京都,千代田区,外神田６丁目７番６号,,13,101,1010021,,,2022-01-27,登記官による閉鎖,,,2015-10-05,1,,,,,,0
2315,8010002047386,登記記録の閉鎖等,0,2022-01-27,2022-01-27,有限会社ＢＯＬＡ,,有限会社,東京都,中央区,銀座５丁目６番１２号,,13,102,1040061,,,2022-01-27,登記官による閉鎖,,,2015-10-05,1,,,,,,0
2316,8010002052733,登記記録の閉鎖等,0,2022-01-27,2022-01-27,有限会社南陽電気,,有限会社,東京都,神津島村,８３３番地,,13,364,1000601,,,2022-01-27,登記官による閉鎖,,,2015-10-05,1,,,,,,0
2317,8010005004665,登記記録の閉鎖等,0,2022-01-27,2022-01-27,千代田建物管理協同組合,,その他の設立登記法人,東京都,千代田区,神田三崎町２丁目１５番５号,,13,101,1010061,,,2022-01-27,登記官による閉鎖,,,2015-10-05,1,,,,,,0
2318,8010005006315,登記記録の閉鎖等,0,2022-01-27,2022-01-27,特定非営利活動法人南部総研,,その他の設立登記法人,東京都,中央区,銀座６丁目６－５,,13,102,1040061,,,2022-01-27,登記官による閉鎖,,,2015-10-05,1,,,,,,0
2320,8010005012073,登記記録の閉鎖等,0,2022-01-27,2022-01-27,医療法人社団神岡会,,その他の設立登記法人,東京都,千代田区,神田神保町１丁目１０３番東京パークタワー１階１０５－２区画,,13,101,1010051,,,2022-01-27,登記官による閉鎖,,,2015-10-05,1,,,,,,0
2321,8010005014004,登記記録の閉鎖等,0,2022-01-27,2022-01-27,一般社団法人社団財団設立支援協会,,その他の設立登記法人,東京都,千代田区,西神田２丁目５番９号,,13,101,1010065,,,2022-01-27,登記官による閉鎖,,,2015-10-05,1,,,,,,0
2328,8010401070484,登記記録の閉鎖等,0,2022-01-27,2022-01-21,株式会社サイバー・コミュニケーションズ,,株式会社,東京都,中央区,築地１丁目１３番１号,,13,102,1040045,,,2022-01-21,合併による解散等,6011001033049,令和４年１月１日東京都渋谷区道玄坂一丁目２１番１号渋谷ソラスタ１５階株式会社ＣＡＲＴＡ　ＨＯＬＤＩＮＧＳ（6011001033049）に合併し解散,2015-10-05,1,,,,,サイバーコミュニケーションズ,0
2337,8010501001430,登記記録の閉鎖等,0,2022-01-27,2022-01-27,株式会社エヌ・シー・ビー,,株式会社,東京都,台東区,寿３丁目１３番１０号,,13,106,1110042,,,2022-01-27,登記官による閉鎖,,,2015-10-05,1,,,,,,0
2340,8010501024101,登記記録の閉鎖等,0,2022-01-27,2022-01-27,株式会社ＫＲＩＳ　ＪＡＰＡＮ,,株式会社,東京都,台東区,東上野１丁目１４番１０号,,13,106,1100015,,,2022-01-27,登記官による閉鎖,,,2015-10-05,1,,,,,,0
2341,8010501028837,登記記録の閉鎖等,0,2022-01-27,2022-01-27,株式会社ファンカンパニー,,株式会社,東京都,台東区,根岸２丁目１６番１１号深澤ビル２０２号室,,13,106,1100003,,,2022-01-27,登記官による閉鎖,,,2015-10-05,1,,,,,,0
2342,8010502017351,登記記録の閉鎖等,0,2022-01-27,2022-01-27,有限会社ティ・オー・シィ,,有限会社,東京都,台東区,蔵前３丁目１３番１２－１１０２号,,13,106,1110051,,,2022-01-27,登記官による閉鎖,,,2015-10-05,1,,,,,,0
2344,8010505001146,登記記録の閉鎖等,0,2022-01-27,2022-01-27,特定非営利活動法人ピーエムシー社会科学学習協会,,その他の設立登記法人,東京都,台東区,台東４丁目２９番１３号,,13,106,1100016,,,2022-01-27,登記官による閉鎖,,,2015-10-05,1,,,,,,0
2345,8010505001591,登記記録の閉鎖等,0,2022-01-27,2022-01-27,特定非営利活動法人交通事故被害者救済の会,,その他の設立登記法人,東京都,台東区,台東３丁目１３番９号第二星野ビル７階,,13,106,1100016,,,2022-01-27,登記官による閉鎖,,,2015-10-05,1,,,,,,0
2346,8010601034058,登記記録の閉鎖等,0,2022-01-27,2022-01-27,株式会社ヨコタ,,株式会社,東京都,江東区,平野３丁目９番８号,,13,108,1350023,,,2022-01-27,登記官による閉鎖,,,2015-10-05,1,,,,,,0
2348,8010601039206,登記記録の閉鎖等,0,2022-01-27,2022-01-27,東京アセット株式会社,,株式会社,東京都,江東区,亀戸９丁目７番１０号,,13,108,1360071,,,2022-01-27,登記官による閉鎖,,,2015-10-05,1,,,,,,0
2349,8010602000050,登記記録の閉鎖等,0,2022-01-27,2022-01-27,有限会社井桁板金工業所,,有限会社,東京都,江東区,北砂４丁目３０番２０号,,13,108,1360073,,,2022-01-27,登記官による閉鎖,,,2015-10-05,1,,,,,,0
2350,8010602009793,登記記録の閉鎖等,0,2022-01-27,2022-01-27,有限会社神林紙工,,有限会社,東京都,墨田区,向島３丁目１０番３号,,13,107,1310033,,,2022-01-27,登記官による閉鎖,,,2015-10-05,1,,,,,,0
2351,8010602016245,登記記録の閉鎖等,0,2022-01-27,2022-01-27,有限会社わかまつ,,有限会社,東京都,墨田区,墨田４丁目１３番８号,,13,107,1310031,,,2022-01-27,登記官による閉鎖,,,2015-10-05,1,,,,,,0
2352,8010602022342,登記記録の閉鎖等,0,2022-01-27,2022-01-27,有限会社アクティス,,有限会社,東京都,墨田区,堤通１丁目１１番２３号,,13,107,1310034,,,2022-01-27,登記官による閉鎖,,,2015-10-05,1,,,,,,0
2353,8010602026401,登記記録の閉鎖等,0,2022-01-27,2022-01-27,有限会社片岡コーポレーション,,有限会社,東京都,墨田区,向島５丁目２０番９号,,13,107,1310033,,,2022-01-27,登記官による閉鎖,,,2015-10-05,1,,,,,,0
2354,8010602031145,登記記録の閉鎖等,0,2022-01-27,2022-01-27,アグリアブル有限会社,,有限会社,東京都,江東区,海辺５番６号,,13,108,1350012,,,2022-01-27,登記官による閉鎖,,,2015-10-05,1,,,,,,0
2355,8010602033488,登記記録の閉鎖等,0,2022-01-27,2022-01-27,ムーンショット有限会社,,有限会社,東京都,江東区,牡丹３丁目１６番９号,,13,108,1350046,,,2022-01-27,登記官による閉鎖,,,2015-10-05,1,,,,,,0
2356,8010603004190,登記記録の閉鎖等,0,2022-01-27,2022-01-27,ビジネスサポート合資会社,,合資会社,東京都,江東区,亀戸２丁目３６番１２号松本ビル４０２,,13,108,1360071,,,2022-01-27,登記官による閉鎖,,,2015-10-05,1,,,,,,0
2357,8010603004372,登記記録の閉鎖等,0,2022-01-27,2022-01-27,ジェイコンサルティング合同会社,,合同会社,東京都,江東区,有明３丁目７番２６号有明フロンティアビルＢ棟９階,,13,108,1350063,,,2022-01-27,登記官による閉鎖,,,2015-10-05,1,,,,,,0
2358,8010605001228,登記記録の閉鎖等,0,2022-01-27,2022-01-27,医療法人社団かづき会,,その他の設立登記法人,東京都,墨田区,錦糸２丁目３番９号高貝ビル２階,00051827,13,107,1300013,,,2022-01-27,登記官による閉鎖,,,2015-10-05,1,,,,,,0
2359,8010605001995,登記記録の閉鎖等,0,2022-01-27,2022-01-27,特定非営利活動法人日本環境・防災社会システム推進機構,,その他の設立登記法人,東京都,墨田区,押上３丁目３０番１０山崎ビル３階,,13,107,1310045,,,2022-01-27,登記官による閉鎖,,,2015-10-05,1,,,,,,0
2372,8011001053136,登記記録の閉鎖等,0,2022-01-27,2021-12-22,株式会社ＰＡＣＩＦＩＣ　６１,,株式会社,東京都,渋谷区,神宮前３丁目２５番１５号,,13,113,1500001,,,2021-12-22,合併による解散等,4011001093672,令和３年１２月１日東京都目黒区青葉台一丁目７番１４－４０３号株式会社Ｋ　Ａｓｓｅｔ　Ｍａｎａｇｅｍｅｎｔ（4011001093672）に合併し解散,2015-10-05,1,,,,,パシフィック,0
2403,8011701011070,登記記録の閉鎖等,0,2022-01-27,2022-01-21,株式会社ライフマップ,,株式会社,東京都,江戸川区,本一色１丁目２３番１号ＳＫビル２階,,13,123,1330044,,,2022-01-21,清算の結了等,,,2015-10-05,1,,,,,ライフマップ,0
2407,8011802003388,登記記録の閉鎖等,0,2022-01-27,2022-01-25,有限会社サン・タカラ,,有限会社,東京都,葛飾区,宝町１丁目３番８号,,13,122,1240005,,,2022-01-25,清算の結了等,,,2015-10-05,1,,,,,,0
2417,8013301011649,登記記録の閉鎖等,0,2022-01-27,2022-01-27,増崎電機株式会社,,株式会社,東京都,豊島区,南池袋２丁目４６番５号,,13,116,1710022,,,2022-01-27,登記官による閉鎖,,,2015-10-05,1,,,,,,0
2418,8013301017101,登記記録の閉鎖等,0,2022-01-27,2022-01-27,株式会社日昌技研,,株式会社,東京都,豊島区,南長崎１丁目１８番１６号,,13,116,1710052,,,2022-01-27,登記官による閉鎖,,,2015-10-05,1,,,,,,0
2419,8013301029501,登記記録の閉鎖等,0,2022-01-27,2022-01-27,株式会社アイアンホース,,株式会社,東京都,豊島区,東池袋１丁目７番１２号湖月ビル４Ｆ,,13,116,1700013,,,2022-01-27,登記官による閉鎖,,,2015-10-05,1,,,,,,0
2420,8013301031465,登記記録の閉鎖等,0,2022-01-27,2022-01-27,株式会社アドビス,,株式会社,東京都,豊島区,目白４丁目１４番１号,,13,116,1710031,,,2022-01-27,登記官による閉鎖,,,2015-10-05,1,,,,,,0
2421,8013302015418,登記記録の閉鎖等,0,2022-01-27,2022-01-27,有限会社ナイス・スポーツスタッフ,,有限会社,東京都,豊島区,東池袋４丁目２７番１０号,,13,116,1700013,,,2022-01-27,登記官による閉鎖,,,2015-10-05,1,,,,,,0
2422,8013302019526,登記記録の閉鎖等,0,2022-01-27,2022-01-27,有限会社黒生,,有限会社,東京都,豊島区,東池袋１丁目３８番５号,,13,116,1700013,,,2022-01-27,登記官による閉鎖,,,2015-10-05,1,,,,,,0
2424,8013305001282,登記記録の閉鎖等,0,2022-01-27,2022-01-27,特定非営利活動法人日本ウェルネス・トレーナー学院,,その他の設立登記法人,東京都,豊島区,東池袋３丁目７番１号,,13,116,1700013,,,2022-01-27,登記官による閉鎖,,,2015-10-05,1,,,,,,0
2442,8021001034894,登記記録の閉鎖等,0,2022-01-27,2022-01-25,オリエント・エッセンス株式会社,,株式会社,神奈川県,小田原市,扇町１丁目３４番４－２０７号,,14,206,2500001,,,2022-01-25,清算の結了等,,,2015-10-05,1,,,,,オリエントエッセンス,0
2449,8021002031668,登記記録の閉鎖等,0,2022-01-27,2022-01-24,有限会社小林電気,,有限会社,神奈川県,厚木市,宮の里１丁目４番５号,,14,212,2430216,,,2022-01-24,清算の結了等,,,2015-10-05,1,,,,,コバヤシデンキ,0
2463,8040002071672,登記記録の閉鎖等,0,2022-01-27,2022-01-24,有限会社友栄丸,,有限会社,千葉県,富津市,富津２１３５番地,,12,226,2930021,,,2022-01-24,清算の結了等,,,2015-10-05,1,,,,,トモエイマル,0
2470,8080102012804,登記記録の閉鎖等,0,2022-01-27,2022-01-26,有限会社ヒューマンケイ企画,,有限会社,静岡県,駿東郡長泉町,上土狩４３５番地,,22,342,4110941,,,2022-01-26,清算の結了等,,,2015-10-05,1,,,,,ヒューマンケイキカク,0
2472,8080401024558,登記記録の閉鎖等,0,2022-01-27,2022-01-25,株式会社ＳＴ　ＲＯＶＥＲ,,株式会社,静岡県,浜松市西区,湖東町１１６９番地の２６,,22,133,4311103,,,2022-01-25,清算の結了等,,,2020-09-18,1,,,,,エスティローバー,0
2476,8100001003827,登記記録の閉鎖等,0,2022-01-27,2022-01-27,株式会社北村組,,株式会社,長野県,長野市,信州新町竹房４２４番地の３,,20,201,3812411,,,2022-01-27,登記官による閉鎖,,,2015-10-05,1,,,,,,0
2477,8100001005906,登記記録の閉鎖等,0,2022-01-27,2022-01-27,株式会社メディアＴＲＵＥ,,株式会社,長野県,須坂市,大字須坂１４０３番地２,,20,207,3820000,,,2022-01-27,登記官による閉鎖,,,2015-10-05,1,,,,,,0
2478,8100001007308,登記記録の閉鎖等,0,2022-01-27,2022-01-27,株式会社高仲コーポレーション,,株式会社,長野県,佐久市,猿久保２６５番地１,,20,217,3850011,,,2022-01-27,登記官による閉鎖,,,2015-10-05,1,,,,,,0
2479,8100001012869,登記記録の閉鎖等,0,2022-01-27,2022-01-27,大谷ミシン商事株式会社,,株式会社,長野県,松本市,寿台７丁目１番５号,,20,202,3990025,,,2022-01-27,登記官による閉鎖,,,2015-10-05,1,,,,,,0
2480,8100001021300,登記記録の閉鎖等,0,2022-01-27,2022-01-27,株式会社中央テック,,株式会社,長野県,駒ヶ根市,中沢２５２８番地,,20,210,3994231,,,2022-01-27,登記官による閉鎖,,,2015-10-05,1,,,,,,0
2481,8100001029871,登記記録の閉鎖等,0,2022-01-27,2022-01-27,トーホー物産株式会社,,株式会社,長野県,上田市,大字上田１５３６番地２,,20,203,3860000,,,2022-01-27,登記官による閉鎖,,,2017-01-04,1,,,,,,0
2482,8100002000402,登記記録の閉鎖等,0,2022-01-27,2022-01-27,有限会社石田商店,,有限会社,長野県,長野市,早苗町３番地,,20,201,3800812,,,2022-01-27,登記官による閉鎖,,,2015-10-05,1,,,,,,0
2483,8100002000410,登記記録の閉鎖等,0,2022-01-27,2022-01-27,有限会社泉田工業,,有限会社,長野県,長野市,大字北長池３５０番地Ｄ－１１０３,,20,201,3810025,,,2022-01-27,登記官による閉鎖,,,2015-10-05,1,,,,,,0
2484,8100002004766,登記記録の閉鎖等,0,2022-01-27,2022-01-27,有限会社松野屋商店,,有限会社,長野県,長野市,大字高田２７６番地９,,20,201,3810034,,,2022-01-27,登記官による閉鎖,,,2015-10-05,1,,,,,,0
2485,8100002006242,登記記録の閉鎖等,0,2022-01-27,2022-01-27,有限会社佐藤創建,,有限会社,長野県,長野市,豊野町豊野４７８番地４５,,20,201,3891105,,,2022-01-27,登記官による閉鎖,,,2015-10-05,1,,,,,,0
2486,8100002009658,登記記録の閉鎖等,0,2022-01-27,2022-01-27,有限会社大谷工業,,有限会社,長野県,千曲市,大字若宮１３０５番地１７４,,20,218,3890813,,,2022-01-27,登記官による閉鎖,,,2015-10-05,1,,,,,,0
2487,8100002010541,登記記録の閉鎖等,0,2022-01-27,2022-01-27,有限会社エル・アイエンタープライズ,,有限会社,長野県,佐久市,岩村田２５６６番地５２,,20,217,3850022,,,2022-01-27,登記官による閉鎖,,,2015-10-05,1,,,,,,0
2488,8100002012067,登記記録の閉鎖等,0,2022-01-27,2022-01-27,有限会社長野東邦電機製作所,,有限会社,長野県,南佐久郡佐久穂町,大字高野町５１８番地,,20,309,3840613,,,2022-01-27,登記官による閉鎖,,,2015-10-05,1,,,,,,0
2489,8100002020838,登記記録の閉鎖等,0,2022-01-27,2022-01-27,有限会社天伸卵満,,有限会社,長野県,松本市,野溝西２丁目１２番４１号,,20,202,3990006,,,2022-01-27,登記官による閉鎖,,,2015-10-05,1,,,,,,0
2490,8100002025259,登記記録の閉鎖等,0,2022-01-27,2022-01-27,有限会社ホーム,,有限会社,長野県,塩尻市,大門三番町４番６号,,20,215,3990733,,,2022-01-27,登記官による閉鎖,,,2015-10-05,1,,,,,,0
2491,8100002028848,登記記録の閉鎖等,0,2022-01-27,2022-01-27,有限会社富士技研工業,,有限会社,長野県,諏訪郡下諏訪町,萩倉２６５９番地２,,20,361,3930003,,,2022-01-27,登記官による閉鎖,,,2015-10-05,1,,,,,,0
2492,8100002030300,登記記録の閉鎖等,0,2022-01-27,2022-01-27,有限会社野澤興業,,有限会社,長野県,茅野市,米沢７８０９番地,,20,214,3910216,,,2022-01-27,登記官による閉鎖,,,2015-12-21,1,,,,,,0
2493,8100002034499,登記記録の閉鎖等,0,2022-01-27,2022-01-27,有限会社ミサワ,,有限会社,長野県,駒ヶ根市,赤穂１０６７６番地,,20,210,3994117,,,2022-01-27,登記官による閉鎖,,,2015-10-05,1,,,,,,0
2494,8100003000698,登記記録の閉鎖等,0,2022-01-27,2022-01-27,合資会社松井商店,,合資会社,長野県,佐久市,望月１６７番地,,20,217,3842202,,,2022-01-27,登記官による閉鎖,,,2015-10-05,1,,,,,,0
2495,8100005005852,登記記録の閉鎖等,0,2022-01-27,2022-01-27,農事組合法人野尻肉牛団地組合,,その他の設立登記法人,長野県,松本市,大字今井４９８８番地,,20,202,3901131,,,2022-01-27,登記官による閉鎖,,,2015-10-05,1,,,,,,0
2525,8130001058728,登記記録の閉鎖等,0,2022-01-27,2022-01-24,株式会社ハッピープランニング,,株式会社,京都府,京都市伏見区,竹田東小屋ノ内町１１１番地,,26,109,6128448,,,2022-01-24,清算の結了等,,,2016-11-28,1,,,,,ハッピープランニング,0
2538,8170005002793,登記記録の閉鎖等,0,2022-01-27,2022-01-07,天理教辰ヶ浜分教会,,その他の設立登記法人,和歌山県,有田市,宮崎町２２４５番地,,30,204,6490316,,,2022-01-07,合併による解散等,5170005000668,令和４年１月７日和歌山市三番丁７１番地天理教箕島分教会（5170005000668）に合併し解散,2015-10-05,1,,,,,テンリキョウタツガハマブンキョウカイ,0
2554,8210002007279,登記記録の閉鎖等,0,2022-01-27,2022-01-25,有限会社上出建設,,有限会社,福井県,あわら市,北疋田第１７号３７番地１,,18,208,9190744,,,2022-01-25,清算の結了等,,,2015-10-05,1,,,,,カミデケンセツ,0
2574,8300001000969,登記記録の閉鎖等,0,2022-01-27,2022-01-25,株式会社武藤美術材料,,株式会社,佐賀県,佐賀市,中の小路４番２９号,,41,201,8400833,,,2022-01-25,清算の結了等,,,2015-10-05,1,,,,,ムトウビジュツザイリョウ,0
2575,8310001000027,登記記録の閉鎖等,0,2022-01-27,2022-01-26,株式会社アイティーエス,,株式会社,長崎県,長崎市,岩見町３１番１０－５０６号,,42,201,8528017,,,2022-01-26,登記官による閉鎖,,,2015-10-05,1,,,,,,0
2576,8310001000159,登記記録の閉鎖等,0,2022-01-27,2022-01-26,株式会社壱番舎,,株式会社,長崎県,長崎市,花丘町１２番２４号,,42,201,8528153,,,2022-01-26,登記官による閉鎖,,,2015-10-05,1,,,,,,0
2577,8310001007030,登記記録の閉鎖等,0,2022-01-27,2022-01-26,匠建設株式会社,,株式会社,長崎県,佐世保市,黒髪町５７９９番地１,,42,202,8571152,,,2022-01-26,登記官による閉鎖,,,2015-10-05,1,,,,,,0
2578,8310001007732,登記記録の閉鎖等,0,2022-01-27,2022-01-26,株式会社大地,,株式会社,長崎県,佐世保市,栄町３番１２号３Ｆ,,42,202,8570054,,,2022-01-26,登記官による閉鎖,,,2015-10-05,1,,,,,,0
2579,8310002002071,登記記録の閉鎖等,0,2022-01-27,2022-01-26,有限会社囁き坂,,有限会社,長崎県,長崎市,桜町３番７号,,42,201,8500031,,,2022-01-26,登記官による閉鎖,,,2015-10-05,1,,,,,,0
2580,8310002005405,登記記録の閉鎖等,0,2022-01-27,2022-01-26,有限会社丸和石油,,有限会社,長崎県,長崎市,昭和３丁目３８２番地６,,42,201,8528145,,,2022-01-26,登記官による閉鎖,,,2015-10-05,1,,,,,,0
2581,8310002007921,登記記録の閉鎖等,0,2022-01-27,2022-01-26,有限会社新平和,,有限会社,長崎県,長崎市,西海町４７２４番地１,,42,201,8513101,,,2022-01-26,登記官による閉鎖,,,2015-10-05,1,,,,,,0
2582,8310002008878,登記記録の閉鎖等,0,2022-01-27,2022-01-26,有限会社セス・インターナショナル長崎,,有限会社,長崎県,長崎市,浜町９番８号カロムビル３Ｆ,,42,201,8500853,,,2022-01-26,登記官による閉鎖,,,2015-10-05,1,,,,,,0
2583,8310002020164,登記記録の閉鎖等,0,2022-01-27,2022-01-26,有限会社佐志賀眞珠,,有限会社,長崎県,対馬市,豊玉町佐志賀７５番地,,42,209,8171234,,,2022-01-26,登記官による閉鎖,,,2015-10-05,1,,,,,,0
2584,8320001009959,登記記録の閉鎖等,0,2022-01-27,2022-01-25,株式会社イーエイチ設計,,株式会社,大分県,日田市,大字南豆田４７５番地の１,,44,204,8770000,,,2022-01-25,清算の結了等,,,2015-10-05,1,,,,,イーエイチセッケイ,0
2603,8410003002052,登記記録の閉鎖等,0,2022-01-27,2022-01-20,合資会社佐々木工業,,合資会社,秋田県,大仙市,太田町国見字伊勢堂１７１番地の１,,05,212,0191605,,,2022-01-20,清算の結了等,,,2015-10-05,1,,,,,ササキコウギョウ,0
2613,8440002002819,登記記録の閉鎖等,0,2022-01-27,2022-01-25,有限会社坪田デンタルラボラトリー,,有限会社,北海道,函館市,東山２丁目６２番９号,,01,202,0410835,,,2022-01-25,清算の結了等,,,2015-10-05,1,,,,,ツボタデンタルラボラトリー,0
2621,9010001007877,登記記録の閉鎖等,0,2022-01-27,2022-01-27,株式会社文字プロ,,株式会社,東京都,文京区,向丘２丁目３６番９号,,13,105,1130023,,,2022-01-27,登記官による閉鎖,,,2015-10-05,1,,,,,,0
2622,9010001021234,登記記録の閉鎖等,0,2022-01-27,2022-01-27,株式会社造形センター,,株式会社,東京都,千代田区,飯田橋３丁目７番１４号,,13,101,1020072,,,2022-01-27,登記官による閉鎖,,,2016-07-01,1,,,,,,0
2623,9010001030895,登記記録の閉鎖等,0,2022-01-27,2022-01-27,株式会社モザワ,,株式会社,東京都,千代田区,神田神保町２丁目２番地,,13,101,1010051,,,2022-01-27,登記官による閉鎖,,,2015-10-05,1,,,,,,0
2624,9010001047709,登記記録の閉鎖等,0,2022-01-27,2022-01-27,ストーンコンテナージャパン株式会社,,株式会社,東京都,中央区,新川２丁目２４番２号,,13,102,1040033,,,2022-01-27,登記官による閉鎖,,,2015-10-05,1,,,,,,0
2625,9010001070405,登記記録の閉鎖等,0,2022-01-27,2022-01-27,株式会社総合保険企画,,株式会社,東京都,中央区,銀座３丁目１４番１８号,,13,102,1040061,,,2022-01-27,登記官による閉鎖,,,2015-10-05,1,,,,,,0
2626,9010001071766,登記記録の閉鎖等,0,2022-01-27,2022-01-27,アイ・ティ債権回収株式会社,,株式会社,東京都,中央区,日本橋兜町１９番８号,,13,102,1030026,,,2022-01-27,登記官による閉鎖,,,2015-10-05,1,,,,,,0
2627,9010001102182,登記記録の閉鎖等,0,2022-01-27,2022-01-27,株式会社ＪＯＹＮＴ,,株式会社,東京都,千代田区,東神田２丁目９番２号,,13,101,1010031,,,2022-01-27,登記官による閉鎖,,,2015-10-05,1,,,,,,0
2628,9010001109731,登記記録の閉鎖等,0,2022-01-27,2022-01-27,日本電機システム株式会社,,株式会社,東京都,中央区,日本橋２丁目６番５号,,13,102,1030027,,,2022-01-27,登記官による閉鎖,,,2015-10-05,1,,,,,,0
2629,9010001116694,登記記録の閉鎖等,0,2022-01-27,2022-01-27,株式会社ワンオフ,,株式会社,東京都,千代田区,神田須田町１丁目８番地３,,13,101,1010041,,,2022-01-27,登記官による閉鎖,,,2015-10-05,1,,,,,,0
2630,9010001128203,登記記録の閉鎖等,0,2022-01-27,2022-01-27,株式会社デジタルコミック,,株式会社,東京都,中央区,勝どき２丁目６番５号,,13,102,1040054,,,2022-01-27,登記官による閉鎖,,,2015-10-05,1,,,,,,0
2631,9010001133673,登記記録の閉鎖等,0,2022-01-27,2022-01-27,株式会社三和商事,,株式会社,東京都,中央区,日本橋小伝馬町７番１２号,,13,102,1030001,,,2022-01-27,登記官による閉鎖,,,2015-10-05,1,,,,,,0
2634,9010002004205,登記記録の閉鎖等,0,2022-01-27,2022-01-27,有限会社東條,,有限会社,東京都,文京区,千駄木５丁目２８番１１号,,13,105,1130022,,,2022-01-27,登記官による閉鎖,,,2015-10-05,1,,,,,,0
2635,9010002004683,登記記録の閉鎖等,0,2022-01-27,2022-01-27,有限会社バーニング・スタッフ,,有限会社,東京都,文京区,後楽２丁目１７番２号,,13,105,1120004,,,2022-01-27,登記官による閉鎖,,,2015-10-05,1,,,,,,0
2636,9010002021035,登記記録の閉鎖等,0,2022-01-27,2022-01-27,有限会社シェルネ,,有限会社,東京都,中央区,銀座７丁目１６番２１号雲ビル２Ｆ,,13,102,1040061,,,2022-01-27,登記官による閉鎖,,,2015-10-05,1,,,,,,0
2637,9010002023196,登記記録の閉鎖等,0,2022-01-27,2022-01-27,有限会社轟,,有限会社,東京都,中央区,日本橋本町４丁目９番３号,,13,102,1030023,,,2022-01-27,登記官による閉鎖,,,2015-10-05,1,,,,,,0
2638,9010002028476,登記記録の閉鎖等,0,2022-01-27,2022-01-27,有限会社荒魂書店,,有限会社,東京都,千代田区,神田神保町１丁目１１番２号,,13,101,1010051,,,2022-01-27,登記官による閉鎖,,,2015-10-05,1,,,,,,0
2641,9010002051569,登記記録の閉鎖等,0,2022-01-27,2022-01-27,有限会社ウイング,,有限会社,東京都,千代田区,神田須田町１丁目７番８号秋葉原成信ビル６階,,13,101,1010041,,,2022-01-27,登記官による閉鎖,,,2015-10-05,1,,,,,,0
2642,9010003013295,登記記録の閉鎖等,0,2022-01-27,2022-01-27,合同会社アイシーエスサービス,,合同会社,東京都,中央区,銀座１丁目１５番７号,,13,102,1040061,,,2022-01-27,登記官による閉鎖,,,2015-10-05,1,,,,,,0
2643,9010003016174,登記記録の閉鎖等,0,2022-01-27,2022-01-27,合同会社ＡＸＩＳ,,合同会社,東京都,中央区,銀座２丁目１３番２０号,,13,102,1040061,,,2022-01-27,登記官による閉鎖,,,2015-10-05,1,,,,,,0
2644,9010003016686,登記記録の閉鎖等,0,2022-01-27,2022-01-27,合名会社Ｄｒ．ＫＯ事務所,,合名会社,東京都,中央区,佃２丁目２番１１号３３０７号室,,13,102,1040051,,,2022-01-27,登記官による閉鎖,,,2015-10-05,1,,,,,,0
2646,9010005003690,登記記録の閉鎖等,0,2022-01-27,2022-01-27,社団法人日本学生図書協会,,その他の設立登記法人,東京都,千代田区,飯田橋２丁目８番の１工業教育会館内,,13,101,1020072,,,2022-01-27,登記官による閉鎖,,,2015-10-05,1,,,,,,0
2647,9010005004375,登記記録の閉鎖等,0,2022-01-27,2022-01-27,社団法人日本花いっぱい協会,,その他の設立登記法人,東京都,千代田区,一ツ橋１丁目１番１号毎日新聞社内,,13,101,1000003,,,2022-01-27,登記官による閉鎖,,,2015-10-05,1,,,,,,0
2648,9010005007733,登記記録の閉鎖等,0,2022-01-27,2022-01-27,特定非営利活動法人株主優待公正取引推進協会,,その他の設立登記法人,東京都,千代田区,鍛冶町２丁目２番５号高梨ビル２階,,13,101,1010044,,,2022-01-27,登記官による閉鎖,,,2015-10-05,1,,,,,,0
2650,9010005009779,登記記録の閉鎖等,0,2022-01-27,2022-01-27,特定非営利活動法人銀色応援団,,その他の設立登記法人,東京都,中央区,銀座１丁目１５番７号マック銀座ビル３０３,,13,102,1040061,,,2022-01-27,登記官による閉鎖,,,2015-10-05,1,,,,,,0
2651,9010005012907,登記記録の閉鎖等,0,2022-01-27,2022-01-27,センチュリー税理士法人,,その他の設立登記法人,東京都,中央区,日本橋人形町３丁目１２番３号,,13,102,1030013,,,2022-01-27,登記官による閉鎖,,,2015-10-05,1,,,,,,0
2652,9010005015612,登記記録の閉鎖等,0,2022-01-27,2022-01-27,一般社団法人丹東プロジェクト,,その他の設立登記法人,東京都,千代田区,平河町１丁目３番７号,,13,101,1020093,,,2022-01-27,登記官による閉鎖,,,2015-10-05,1,,,,,,0
2666,9010501011180,登記記録の閉鎖等,0,2022-01-27,2022-01-27,株式会社平野建設,,株式会社,東京都,台東区,千束４丁目５１番２号,,13,106,1110031,,,2022-01-27,登記官による閉鎖,,,2015-10-05,1,,,,,,0
2667,9010501014596,登記記録の閉鎖等,0,2022-01-27,2022-01-27,株式会社ミツバユニホーム,,株式会社,東京都,台東区,西浅草３丁目９番４号,,13,106,1110035,,,2022-01-27,登記官による閉鎖,,,2015-10-05,1,,,,,,0
2668,9010501020990,登記記録の閉鎖等,0,2022-01-27,2022-01-27,株式会社サントピコ,,株式会社,東京都,台東区,浅草橋５丁目４番４号,,13,106,1110053,,,2022-01-27,登記官による閉鎖,,,2015-10-05,1,,,,,,0
2669,9010501025370,登記記録の閉鎖等,0,2022-01-27,2022-01-27,株式会社Ｍａｓｓｒｉｃｈ産業,,株式会社,東京都,台東区,三ノ輪２丁目２番４号,,13,106,1100011,,,2022-01-27,登記官による閉鎖,,,2015-10-05,1,,,,,,0
2670,9010501028729,登記記録の閉鎖等,0,2022-01-27,2022-01-27,株式会社ＪＣＫ商事,,株式会社,東京都,台東区,根岸１丁目５番１４号,,13,106,1100003,,,2022-01-27,登記官による閉鎖,,,2015-10-05,1,,,,,,0
2674,9010502004035,登記記録の閉鎖等,0,2022-01-27,2022-01-27,有限会社コルソフアツシヨンリフオーム,,有限会社,東京都,台東区,上野４丁目５番４号,,13,106,1100005,,,2022-01-27,登記官による閉鎖,,,2015-10-05,1,,,,,,0
2675,9010502004340,登記記録の閉鎖等,0,2022-01-27,2022-01-27,有限会社三恵ドゥウエル,,有限会社,東京都,台東区,浅草２丁目３５番１１号,,13,106,1110032,,,2022-01-27,登記官による閉鎖,,,2015-10-05,1,,,,,,0
2676,9010502006576,登記記録の閉鎖等,0,2022-01-27,2022-01-27,有限会社高橋印刷,,有限会社,東京都,台東区,橋場１丁目３０番４号,,13,106,1110023,,,2022-01-27,登記官による閉鎖,,,2015-10-05,1,,,,,,0
2677,9010502016229,登記記録の閉鎖等,0,2022-01-27,2022-01-27,有限会社居酒屋みさわ,,有限会社,東京都,台東区,小島１丁目１１番１２号,,13,106,1110056,,,2022-01-27,登記官による閉鎖,,,2015-10-05,1,,,,,,0
2678,9010601007021,登記記録の閉鎖等,0,2022-01-27,2022-01-27,リス食品工業株式會社,,株式会社,東京都,江東区,北砂１丁目７番１７号,,13,108,1360073,,,2022-01-27,登記官による閉鎖,,,2015-10-05,1,,,,,,0
2679,9010601014091,登記記録の閉鎖等,0,2022-01-27,2022-01-27,根津オート電気株式会社,,株式会社,東京都,墨田区,向島１丁目７番１０号,,13,107,1310033,,,2022-01-27,登記官による閉鎖,,,2015-10-05,1,,,,,,0
2680,9010601029676,登記記録の閉鎖等,0,2022-01-27,2022-01-27,株式会社グローバルカンパニー,,株式会社,東京都,江東区,白河２丁目６番１１号,,13,108,1350021,,,2022-01-27,登記官による閉鎖,,,2015-10-05,1,,,,,,0
2681,9010601035063,登記記録の閉鎖等,0,2022-01-27,2022-01-27,株式会社エドバンス,,株式会社,東京都,墨田区,石原４丁目１２番１０号,,13,107,1300011,,,2022-01-27,登記官による閉鎖,,,2015-10-05,1,,,,,,0
2682,9010601038883,登記記録の閉鎖等,0,2022-01-27,2022-01-27,株式会社ＮＨＬ,,株式会社,東京都,墨田区,江東橋４丁目２８番３号ビーフィールドビル４階,,13,107,1300022,,,2022-01-27,登記官による閉鎖,,,2015-10-05,1,,,,,,0
2683,9010602000322,登記記録の閉鎖等,0,2022-01-27,2022-01-20,有限会社いづみや衣料,,有限会社,東京都,江東区,亀戸６丁目２６番１号,,13,108,1360071,,,2022-01-20,清算の結了等,,,2015-10-05,1,,,,,イズミヤイリョウ,0
2684,9010602010180,登記記録の閉鎖等,0,2022-01-27,2022-01-27,有限会社角屋,,有限会社,東京都,墨田区,押上２丁目１番１６号,,13,107,1310045,,,2022-01-27,登記官による閉鎖,,,2015-10-05,1,,,,,,0
2685,9010602020948,登記記録の閉鎖等,0,2022-01-27,2022-01-27,有限会社リカーショップ明治屋,,有限会社,東京都,江東区,亀戸２丁目６番１号１０２,,13,108,1360071,,,2022-01-27,登記官による閉鎖,,,2015-10-05,1,,,,,,0
2686,9010602029997,登記記録の閉鎖等,0,2022-01-27,2022-01-27,有限会社アゴスト,,有限会社,東京都,墨田区,墨田２丁目１番１１号,,13,107,1310031,,,2022-01-27,登記官による閉鎖,,,2015-10-05,1,,,,,,0
2687,9010602030261,登記記録の閉鎖等,0,2022-01-27,2022-01-27,有限会社クラタ電気設備,,有限会社,東京都,江東区,南砂１丁目５番３０号ウィンザーハイム南砂２０７,,13,108,1360076,,,2022-01-27,登記官による閉鎖,,,2015-10-05,1,,,,,,0
2688,9010602031111,登記記録の閉鎖等,0,2022-01-27,2022-01-27,有限会社飛騨工業,,有限会社,東京都,墨田区,墨田３丁目２７番８号,,13,107,1310031,,,2022-01-27,登記官による閉鎖,,,2015-10-05,1,,,,,,0
2689,9010602032241,登記記録の閉鎖等,0,2022-01-27,2022-01-27,有限会社エクセル,,有限会社,東京都,江東区,亀戸７丁目２番１６号,,13,108,1360071,,,2022-01-27,登記官による閉鎖,,,2015-10-05,1,,,,,,0
2690,9010602033058,登記記録の閉鎖等,0,2022-01-27,2022-01-27,有限会社ＡＬＬＵＲＥ,,有限会社,東京都,江東区,新砂３丁目４番４３号,,13,108,1360075,,,2022-01-27,登記官による閉鎖,,,2015-10-05,1,,,,,,0
2697,9010901009502,登記記録の閉鎖等,0,2022-01-27,2022-01-26,株式会社ノスコ,,株式会社,東京都,世田谷区,砧１丁目２６番４号,,13,112,1570073,,,2022-01-26,清算の結了等,,,2015-10-05,1,,,,,,0
2718,9011201015414,登記記録の閉鎖等,0,2022-01-27,2022-01-24,Ｂ－ＬＩＦＥ株式会社,,株式会社,東京都,品川区,西五反田１丁目１１－１アイオス五反田駅前５０６,,13,109,1410031,,,2022-01-24,清算の結了等,,,2015-10-05,1,,,,,ビーライフ,0
2734,9013301008396,登記記録の閉鎖等,0,2022-01-27,2022-01-27,株式会社東企,,株式会社,東京都,豊島区,千早２丁目２８番１３号,,13,116,1710044,,,2022-01-27,登記官による閉鎖,,,2015-10-05,1,,,,,,0
2735,9013301016011,登記記録の閉鎖等,0,2022-01-27,2022-01-27,株式会社ＡＺ,,株式会社,東京都,豊島区,巣鴨１丁目２０番１０号,,13,116,1700002,,,2022-01-27,登記官による閉鎖,,,2015-10-05,1,,,,,,0
2737,9013301025805,登記記録の閉鎖等,0,2022-01-27,2022-01-27,株式会社フレッシュフーズ伊勢伊,,株式会社,東京都,豊島区,北大塚３丁目３２番６号,,13,116,1700004,,,2022-01-27,登記官による閉鎖,,,2015-10-05,1,,,,,,0
2738,9013301025953,登記記録の閉鎖等,0,2022-01-27,2022-01-27,株式会社ソラさんララさん,,株式会社,東京都,豊島区,北大塚２丁目９番１２号光ビル３０１号,,13,116,1700004,,,2022-01-27,登記官による閉鎖,,,2015-10-05,1,,,,,,0
2739,9013302010450,登記記録の閉鎖等,0,2022-01-27,2022-01-27,有限会社優起,,有限会社,東京都,豊島区,南池袋２丁目４７番１３号,,13,116,1710022,,,2022-01-27,登記官による閉鎖,,,2015-10-05,1,,,,,,0
2740,9013302018873,登記記録の閉鎖等,0,2022-01-27,2022-01-27,有限会社ＯＮＥ　ＢＬＯＯＤ,,有限会社,東京都,豊島区,池袋２丁目７２－９武谷ビル７階,,13,116,1710014,,,2022-01-27,登記官による閉鎖,,,2015-10-05,1,,,,,,0
2741,9013303001630,登記記録の閉鎖等,0,2022-01-27,2022-01-27,合同会社ルリアンソリデ,,合同会社,東京都,豊島区,東池袋２丁目４５番２号,,13,116,1700013,,,2022-01-27,登記官による閉鎖,,,2015-10-05,1,,,,,,0
2742,9013305001232,登記記録の閉鎖等,0,2022-01-27,2022-01-27,特定非営利活動法人ＩＪＵ田舎暮らし支援センター,,その他の設立登記法人,東京都,豊島区,東池袋１丁目３１番１０号,,13,116,1700013,,,2022-01-27,登記官による閉鎖,,,2015-10-05,1,,,,,,0
2743,9020001115836,登記記録の閉鎖等,0,2022-01-27,2022-01-25,株式会社総建ビルド,,株式会社,神奈川県,横浜市戸塚区,品濃町１４４９番地１,,14,110,2440801,,,2022-01-25,清算の結了等,,,2016-04-19,1,,,,,ソウケンビルド,0
2749,9020003015092,登記記録の閉鎖等,0,2022-01-27,2022-01-21,合同会社オフィスＫ,,合同会社,愛知県,春日井市,石尾台１丁目２番地１タウン石尾台１１９号棟３号室,,23,206,4870006,,,2022-01-21,清算の結了等,,,2018-10-23,1,,,,,オフィスケー,0
2765,9030002088873,登記記録の閉鎖等,0,2022-01-27,2022-01-24,有限会社サム・プランニング,,有限会社,埼玉県,越谷市,七左町６丁目２３番地１０,,11,222,3430851,,,2022-01-24,清算の結了等,,,2015-10-05,1,,,,,サムプランニング,0
2787,9100001007141,登記記録の閉鎖等,0,2022-01-27,2022-01-27,株式会社小須田建設,,株式会社,長野県,佐久市,平賀１５７０番地４,,20,217,3850034,,,2022-01-27,登記官による閉鎖,,,2015-10-05,1,,,,,,0
2788,9100001016357,登記記録の閉鎖等,0,2022-01-27,2022-01-27,株式会社望月,,株式会社,長野県,塩尻市,大門並木町６番１号第１イワサビル３０１,,20,215,3990746,,,2022-01-27,登記官による閉鎖,,,2015-10-05,1,,,,,,0
2789,9100001016415,登記記録の閉鎖等,0,2022-01-27,2022-01-27,株式会社水晶グループ,,株式会社,長野県,松本市,中央１丁目２６番１号,,20,202,3900811,,,2022-01-27,登記官による閉鎖,,,2015-10-05,1,,,,,,0
2790,9100001018139,登記記録の閉鎖等,0,2022-01-27,2022-01-27,エヌエス興業株式会社,,株式会社,長野県,長野市,岡田町１５８番地,,20,201,3810000,,,2022-01-27,登記官による閉鎖,,,2015-10-05,1,,,,,,0
2791,9100001022132,登記記録の閉鎖等,0,2022-01-27,2022-01-27,株式会社２５７,,株式会社,長野県,上伊那郡箕輪町,大字中箕輪８４４８番地４,,20,383,3994601,,,2022-01-27,登記官による閉鎖,,,2015-10-05,1,,,,,,0
2793,9100002003263,登記記録の閉鎖等,0,2022-01-27,2022-01-27,有限会社電気堂,,有限会社,長野県,長野市,大字北尾張部７８８番地１,,20,201,3810014,,,2022-01-27,登記官による閉鎖,,,2015-10-05,1,,,,,,0
2794,9100002016447,登記記録の閉鎖等,0,2022-01-27,2022-01-27,有限会社横山建築設計事務所,,有限会社,長野県,上田市,塩川６９７番地４,,20,203,3860401,,,2022-01-27,登記官による閉鎖,,,2015-10-05,1,,,,,,0
2795,9100002019094,登記記録の閉鎖等,0,2022-01-27,2022-01-27,有限会社東ブロツクタイル工業,,有限会社,長野県,松本市,沢村３丁目４番３号,,20,202,3900877,,,2022-01-27,登記官による閉鎖,,,2015-10-05,1,,,,,,0
2796,9100002022115,登記記録の閉鎖等,0,2022-01-27,2022-01-27,有限会社ライズエンジニアリング,,有限会社,長野県,松本市,大字笹賀３８１１番地３,,20,202,3990033,,,2022-01-27,登記官による閉鎖,,,2015-10-05,1,,,,,,0
2797,9100002025241,登記記録の閉鎖等,0,2022-01-27,2022-01-27,有限会社フィリピンフレンドマートアンドレストラン,,有限会社,長野県,塩尻市,大門一番町１４番１５号,,20,215,3990736,,,2022-01-27,登記官による閉鎖,,,2015-10-05,1,,,,,,0
2798,9100002025522,登記記録の閉鎖等,0,2022-01-27,2022-01-27,有限会社Ｙ＆Ｕ,,有限会社,長野県,松本市,大字笹賀３９７９番地７,,20,202,3990033,,,2022-01-27,登記官による閉鎖,,,2015-10-05,1,,,,,,0
2799,9100002025704,登記記録の閉鎖等,0,2022-01-27,2022-01-27,有限会社巣山建設,,有限会社,長野県,塩尻市,大字木曽平沢１５５３番地,,20,215,3996302,,,2022-01-27,登記官による閉鎖,,,2015-10-05,1,,,,,,0
2800,9100002034440,登記記録の閉鎖等,0,2022-01-27,2022-01-27,有限会社丸八睦工業所,,有限会社,長野県,駒ヶ根市,赤須町１１番５号,,20,210,3994113,,,2022-01-27,登記官による閉鎖,,,2015-10-05,1,,,,,,0
2801,9100003002727,登記記録の閉鎖等,0,2022-01-27,2022-01-27,合資会社金中中村商店,,合資会社,長野県,伊那市,高遠町西高遠１７９８番地,,20,209,3960211,,,2022-01-27,登記官による閉鎖,,,2015-10-05,1,,,,,,0
2802,9100003002867,登記記録の閉鎖等,0,2022-01-27,2022-01-27,合資会社気賀沢理容館,,合資会社,長野県,駒ヶ根市,中央８番９号,,20,210,3994112,,,2022-01-27,登記官による閉鎖,,,2015-10-05,1,,,,,,0
2803,9100005006932,登記記録の閉鎖等,0,2022-01-27,2022-01-27,特定非営利活動法人２１世紀環境コミュニティー,,その他の設立登記法人,長野県,松本市,芳野１０番６号棟－５０２号県営住宅,,20,202,3990002,,,2022-01-27,登記官による閉鎖,,,2015-10-05,1,,,,,,0
2818,9120001187907,登記記録の閉鎖等,0,2022-01-27,2022-01-25,ＫＮＡ株式会社,,株式会社,神奈川県,横浜市戸塚区,品濃町５５８番地,,14,110,2440801,,,2022-01-25,清算の結了等,,,2015-10-05,1,,,,,ケーエヌエー,0
2856,9140005006375,登記記録の閉鎖等,0,2022-01-27,2022-01-26,特定非営利活動法人ほのぼの,,その他の設立登記法人,兵庫県,明石市,本町１丁目６番３号,,28,203,6730892,,,2022-01-26,清算の結了等,,,2015-10-05,1,,,,,ホノボノ,0
2883,9200002025999,登記記録の閉鎖等,0,2022-01-27,2022-01-20,有限会社御輿商事,,有限会社,岐阜県,高山市,総和町１丁目２４番地,,21,203,5060007,,,2022-01-20,清算の結了等,,,2015-10-05,1,,,,,ミコシショウジ,0
2884,9220005005781,登記記録の閉鎖等,0,2022-01-27,2022-01-24,一般財団法人輪島市労働会館,,その他の設立登記法人,石川県,輪島市,河井町２３部１番地１５０,,17,204,9280001,,,2022-01-24,清算の結了等,,,2015-10-05,1,,,,,ワジマシロウドウカイカン,0
2886,9240001018050,登記記録の閉鎖等,0,2022-01-27,2022-01-26,株式会社リーベル・クリエイト・コーポレーション,,株式会社,広島県,東広島市,三永３丁目１９番６号,,34,212,7390026,,,2022-01-26,清算の結了等,,,2015-10-05,1,,,,,リーベルクリエイトコーポレーション,0
2896,9240002037339,登記記録の閉鎖等,0,2022-01-27,2022-01-19,有限会社イナダケイコオフィス,,有限会社,広島県,廿日市市,阿品３丁目１番２－１２０１号,,34,213,7380054,,,2022-01-19,清算の結了等,,,2015-10-05,1,,,,,イナダケイコオフィス,0
2903,9260002031959,登記記録の閉鎖等,0,2022-01-27,2022-01-26,日生鮮魚有限会社,,有限会社,岡山県,備前市,日生町日生２４６番地の８１,,33,211,7013204,,,2022-01-26,清算の結了等,,,2015-10-05,1,,,,,,0
2915,9290002000622,登記記録の閉鎖等,0,2022-01-27,2022-01-24,有限会社大乘工機,,有限会社,福岡県,福岡市西区,石丸２丁目２９番２１号,,40,135,8190025,,,2022-01-24,清算の結了等,,,2015-10-05,1,,,,,ダイジョウコウキ,0
2925,9310001001040,登記記録の閉鎖等,0,2022-01-27,2022-01-26,株式会社卓建,,株式会社,長崎県,長崎市,上銭座町４番１２号,,42,201,8500048,,,2022-01-26,登記官による閉鎖,,,2015-10-05,1,,,,,,0
2928,9310003001526,登記記録の閉鎖等,0,2022-01-27,2022-01-26,サンタバイオアグリ合同会社,,合同会社,長崎県,佐世保市,下京町１番１号,,42,202,8570875,,,2022-01-26,登記官による閉鎖,,,2015-10-05,1,,,,,,0
2929,9310005002150,登記記録の閉鎖等,0,2022-01-27,2022-01-26,特定非営利活動法人保育サービスかぶとむし,,その他の設立登記法人,長崎県,長崎市,田上１丁目１２番５－４１９号,,42,201,8510251,,,2022-01-26,登記官による閉鎖,,,2015-10-05,1,,,,,,0
2930,9310005004832,登記記録の閉鎖等,0,2022-01-27,2022-01-26,特定非営利活動法人住民諫心の会,,その他の設立登記法人,長崎県,諫早市,船越町１０４７番地１,,42,204,8540041,,,2022-01-26,登記官による閉鎖,,,2015-10-05,1,,,,,,0
2937,9350002003775,登記記録の閉鎖等,0,2022-01-27,2022-01-25,有限会社久高商事,,有限会社,宮崎県,宮崎市,吉村町平塚甲１８９３番地１１,,45,201,8800841,,,2022-01-25,登記官による閉鎖,,,2015-10-05,1,,,,,,0
2959,9480001002237,登記記録の閉鎖等,0,2022-01-27,2022-01-26,株式会社槇野一級建築設計事務所,,株式会社,徳島県,徳島市,川内町榎瀬８２１番地,,36,201,7710144,,,2022-01-26,清算の結了等,,,2015-10-05,1,,,,,マキノイッキュウケンチクセッケイジムショ,0
2964,9500005006966,登記記録の閉鎖等,0,2022-01-27,2022-01-19,企業組合さだみさき自然堂,,その他の設立登記法人,愛媛県,西宇和郡伊方町,二名津６２番地,,38,442,7960813,,,2022-01-19,清算の結了等,,,2015-10-05,1,,,,,サダミサキシゼンドウ,0
