sequenceNumber,corporateNumber,process,correct,updateDate,changeDate,name,nameImageId,kind,prefectureName,cityName,streetNumber,addressImageId,prefectureCode,cityCode,postCode,addressOutside,addressOutsideImageId,closeDate,closeCause,successorCorporateNumber,changeCause,assignmentDate,latest,enName,enPrefectureName,enCityName,enAddressOutside,furigana,hihyoji
11,1010003039380,登記記録の閉鎖等,0,2023-11-27,2023-11-20,ｉｋｏｈａ合同会社,,合同会社,東京都,文京区,本駒込５丁目４５番１１号,,13,105,1130021,,,2023-11-20,清算の結了等,,,2022-12-19,1,,,,,イコハ,0
25,1010501009059,登記記録の閉鎖等,0,2023-11-27,2023-11-14,株式会社東和エンジニアリング,,株式会社,埼玉県,さいたま市緑区,原山３丁目７番２１号,,11,109,3360931,,,2023-11-14,清算の結了等,,,2015-10-05,1,,,,,トウワエンジニアリング,0
48,1011005000693,登記記録の閉鎖等,0,2023-11-27,2023-11-20,個人タクシー四〇協同組合,,その他の設立登記法人,東京都,渋谷区,東３丁目１５番８号小沢ビル,,13,113,1500011,,,2023-11-20,清算の結了等,,,2015-10-05,1,,,,,コジンタクシーヨンマル,0
66,1011301008853,登記記録の閉鎖等,0,2023-11-27,2023-11-15,株式会社大谷研究室,,株式会社,東京都,杉並区,阿佐谷南３丁目３１番１３号,,13,115,1660004,,,2023-11-15,清算の結了等,,,2015-10-05,1,,,,,,0
77,1012801021206,登記記録の閉鎖等,0,2023-11-27,2023-11-22,株式会社ユニエス・シティ,,株式会社,東京都,国立市,富士見台４丁目９番地の３佐藤ビル２０１,,13,215,1860003,,,2023-11-22,清算の結了等,,,2021-11-09,1,,,,,ユニエスシティ,0
78,1012802005678,登記記録の閉鎖等,0,2023-11-27,2023-11-21,有限会社サニーテック,,有限会社,東京都,東大和市,奈良橋１丁目６２７番地の８,,13,220,2070031,,,2023-11-21,清算の結了等,,,2015-10-05,1,,,,,サニーテック,0
105,1030002036815,登記記録の閉鎖等,0,2023-11-27,2023-11-16,有限会社キリヤマ,,有限会社,埼玉県,入間市,大字仏子１４８９番地２６,,11,225,3580053,,,2023-11-16,清算の結了等,,,2015-10-05,1,,,,,キリヤマ,0
112,1030005020881,登記記録の閉鎖等,0,2023-11-27,2023-11-24,一般社団法人エスポアール,,その他の設立登記法人,富山県,富山市,堀川町３７４番地２,,16,201,9398072,,,2023-11-24,清算の結了等,,,2022-06-06,1,,,,,エスポアール,0
126,1060002011047,登記記録の閉鎖等,0,2023-11-27,2023-11-22,有限会社エヌエス企画,,有限会社,栃木県,河内郡上三川町,大字坂上６３７番地の１,,09,301,3290613,,,2023-11-22,清算の結了等,,,2015-10-05,1,,,,,エヌエスキカク,0
132,1090001007398,登記記録の閉鎖等,0,2023-11-27,2023-11-20,株式会社エフアソート,,株式会社,山梨県,甲府市,大里町５３番地３５,,19,201,4000053,,,2023-11-20,合併による解散等,7090001001478,令和５年１１月２０日山梨県甲府市大里町５３番地３５株式会社トウエンテイワンプロダクツ（7090001001478）に合併し解散,2015-10-05,1,,,,,エフアソート,0
133,1100001001655,登記記録の閉鎖等,0,2023-11-27,2023-11-16,株式会社関野鉄筋工業,,株式会社,長野県,長野市,大字大豆島中之島３２７１番地,,20,201,3810022,,,2023-11-16,清算の結了等,,,2015-10-05,1,,,,,セキノテッキンコウギョウ,0
148,1120001204710,登記記録の閉鎖等,0,2023-11-27,2023-11-21,株式会社タイガータイガーブリッジ,,株式会社,大阪府,大阪市西区,靱本町１丁目１４番１８号,,27,106,5500004,,,2023-11-21,清算の結了等,,,2017-04-07,1,,,,,タイガータイガーブリッジ,0
178,1150001022300,登記記録の閉鎖等,0,2023-11-27,2023-11-22,ワコン・ウエダ株式会社,,株式会社,奈良県,生駒市,北田原町１１８６番地の１３,,29,209,6300142,,,2023-11-22,合併による解散等,5170001003740,令和５年１１月２０日和歌山市広瀬中ノ丁二丁目４１番地ワコン株式会社（5170001003740）に合併し解散,2018-05-30,1,,,,,ワコンウエダ,0
179,1150001022606,登記記録の閉鎖等,0,2023-11-27,2023-11-24,食の歓び株式会社,,株式会社,奈良県,磯城郡田原本町,大字味間３１７－３,,29,363,6360245,,,2023-11-24,清算の結了等,,,2018-11-06,1,,,,,ショクノヨロコビ,0
187,1180002063340,登記記録の閉鎖等,0,2023-11-27,2023-11-21,有限会社光版社,,有限会社,愛知県,長久手市,熊田１１１２番地,,23,238,4801144,,,2023-11-21,清算の結了等,,,2015-10-05,1,,,,,コウハンシャ,0
192,1180302023804,登記記録の閉鎖等,0,2023-11-27,2023-11-20,有限会社やまのや,,有限会社,愛知県,豊田市,田中町２丁目５３番地３,,23,211,4710845,,,2023-11-20,清算の結了等,,,2015-10-05,1,,,,,ヤマノヤ,0
193,1180303003714,登記記録の閉鎖等,0,2023-11-27,2023-11-16,合同会社ワールドスカイ,,合同会社,愛知県,豊田市,渡刈町３丁目２７０番地,,23,211,4701202,,,2023-11-16,清算の結了等,,,2016-10-20,1,,,,,ワールドスカイ,0
197,1200001010836,登記記録の閉鎖等,0,2023-11-27,2023-11-24,岡田整理株式会社,,株式会社,岐阜県,羽島郡笠松町,友楽町１９番地,,21,303,5016096,,,2023-11-24,清算の結了等,,,2015-10-05,1,,,,,オカダセイリ,0
212,1290001026774,登記記録の閉鎖等,0,2023-11-27,2023-11-15,株式会社ケイズデザイン,,株式会社,福岡県,福岡市中央区,薬院１丁目１０番１４号,,40,133,8100022,,,2023-11-15,清算の結了等,,,2015-10-05,1,,,,,ケイズデザイン,0
221,1300002004942,登記記録の閉鎖等,0,2023-11-27,2023-11-21,有限会社ワンピース・インターナショナル,,有限会社,佐賀県,佐賀市,天神２丁目１番１６号,,41,201,8400815,,,2023-11-21,清算の結了等,,,2015-10-05,1,,,,,ワンピースインターナショナル,0
223,1330002019376,登記記録の閉鎖等,0,2023-11-27,2023-11-20,株式会社食品特機,,株式会社,熊本県,熊本市北区,植木町亀甲１３６番地２,,43,105,8610127,,,2023-11-20,清算の結了等,,,2015-10-05,1,,,,,ショクヒントッキ,0
224,1340002009814,登記記録の閉鎖等,0,2023-11-27,2023-11-14,有限会社森永フーズ,,有限会社,鹿児島県,鹿児島市,長田町４番２号,,46,201,8920854,,,2023-11-14,清算の結了等,,,2015-10-05,1,,,,,モリナガフーズ,0
237,1370003002451,登記記録の閉鎖等,0,2023-11-27,2023-11-24,合同会社インディビジュアル,,合同会社,宮城県,仙台市青葉区,国見５丁目９番８－５１２号,,04,101,9810943,,,2023-11-24,清算の結了等,,,2015-10-05,1,,,,,インディビジュアル,0
247,1470002015072,登記記録の閉鎖等,0,2023-11-27,2023-11-22,有限会社多田羅水道工務店,,有限会社,香川県,坂出市,本町２丁目１１番８号,,37,203,7620044,,,2023-11-22,清算の結了等,,,2015-10-05,1,,,,,,0
282,2010802007074,登記記録の閉鎖等,0,2023-11-27,2023-11-20,有限会社シマザキ,,有限会社,東京都,大田区,蒲田５丁目２０番７号,,13,111,1440052,,,2023-11-20,清算の結了等,,,2015-10-05,1,,,,,シマザキ,0
288,2011001093716,登記記録の閉鎖等,0,2023-11-27,2023-11-16,株式会社アンテノーブル,,株式会社,東京都,渋谷区,東３丁目１５番８号,,13,113,1500011,,,2023-11-16,清算の結了等,,,2015-10-05,1,,,,,アンテノーブル,0
327,2020003018218,登記記録の閉鎖等,0,2023-11-27,2023-11-21,ＣＲＯＳＳＴ合同会社,,合同会社,神奈川県,横浜市鶴見区,汐入町３丁目４８番地６,,14,101,2300043,,,2023-11-21,清算の結了等,,,2020-07-17,1,,,,,クロスト,0
338,2030001138487,登記記録の閉鎖等,0,2023-11-27,2023-11-20,株式会社ＳＵＮＮＹ　ＳＩＤＥ,,株式会社,埼玉県,さいたま市緑区,美園５丁目３５－１５,,11,109,3360967,,,2023-11-20,清算の結了等,,,2020-10-01,1,,,,,サニーサイド,0
342,2030002041095,登記記録の閉鎖等,0,2023-11-27,2023-11-14,有限会社小林時計店,,有限会社,埼玉県,加須市,本町１２番４５号,,11,210,3470066,,,2023-11-14,清算の結了等,,,2015-10-05,1,,,,,コバヤシトケイテン,0
366,2080002000765,登記記録の閉鎖等,0,2023-11-27,2023-11-24,有限会社海野工務店,,有限会社,静岡県,静岡市葵区,平和３丁目１９番１０号,,22,101,4200876,,,2023-11-24,清算の結了等,,,2015-10-05,1,,,,,ウンノコウムテン,0
369,2090001006481,登記記録の閉鎖等,0,2023-11-27,2023-11-24,株式会社ＴＨＩＮＧ,,株式会社,山梨県,笛吹市,石和町市部１０９９番地１,,19,211,4060031,,,2023-11-24,清算の結了等,,,2015-10-05,1,,,,,シング,0
405,2160001010261,登記記録の閉鎖等,0,2023-11-27,2023-11-21,株式会社村山工務店,,株式会社,滋賀県,東近江市,札の辻１丁目６番３号,00044325,25,213,5270024,,,2023-11-21,清算の結了等,,,2015-10-05,1,,,,,ムラヤマコウムテン,0
418,2200002014810,登記記録の閉鎖等,0,2023-11-27,2023-11-27,有限会社正一位,,有限会社,岐阜県,海津市,平田町西島９０７番地,,21,221,5030314,,,2023-11-27,清算の結了等,,,2015-10-05,1,,,,,ショウイチイ,0
421,2250002012297,登記記録の閉鎖等,0,2023-11-27,2023-11-22,有限会社花瀬組,,有限会社,山口県,下関市,豊田町大字浮石２４１３番地,,35,201,7500415,,,2023-11-22,清算の結了等,,,2015-10-05,1,,,,,ハナセグミ,0
424,2260002001423,登記記録の閉鎖等,0,2023-11-27,2023-11-24,有限会社エンタープライズリビング,,有限会社,岡山県,岡山市北区,一宮１１４５番地２,,33,101,7011211,,,2023-11-24,清算の結了等,,,2015-10-05,1,,,,,エンタープライズリビング,0
439,2310001014718,登記記録の閉鎖等,0,2023-11-27,2023-11-21,株式会社ダブルテック,,株式会社,長崎県,佐世保市,船越町１８６３番地２,,42,202,8571231,,,2023-11-21,清算の結了等,,,2017-02-07,1,,,,,ダブルテック,0
440,2310002016119,登記記録の閉鎖等,0,2023-11-27,2023-11-24,有限会社丸一農園,,有限会社,長崎県,諫早市,多良見町佐瀬６４７番地,,42,204,8590418,,,2023-11-24,清算の結了等,,,2015-10-05,1,,,,,マルイチノウエン,0
441,2310002020979,登記記録の閉鎖等,0,2023-11-27,2023-11-21,有限会社タケムラ,,有限会社,長崎県,東彼杵郡川棚町,百津郷４７８番地１８,,42,322,8593605,,,2023-11-21,清算の結了等,,,2022-05-16,1,,,,,タケムラ,0
465,3010001058934,登記記録の閉鎖等,0,2023-11-27,2023-11-20,株式会社メビウス,,株式会社,東京都,中央区,築地２丁目８番１号,,13,102,1040045,,,2023-11-20,清算の結了等,,,2015-10-05,1,,,,,メビウス,0
472,3010001180622,登記記録の閉鎖等,0,2023-11-27,2023-11-17,ＪＰＡ第５９号株式会社,,株式会社,東京都,千代田区,霞が関３丁目２番１号,,13,101,1000013,,,2023-11-17,清算の結了等,,,2017-01-11,1,,,,,ジェイピーエーダイゴジュウキュウゴウ,0
473,3010001191470,登記記録の閉鎖等,0,2023-11-27,2023-11-17,Ａｎｇｅｌ　Ｂｒｉｄｇｅ　Ｄｅａｌ－ｂｙ－Ｄｅａｌ　Ｆｕｎｄ９号株式会社,,株式会社,東京都,千代田区,永田町２丁目１７番４号笠松千代田ビル１０１号室,,13,101,1000014,,,2023-11-17,清算の結了等,,,2018-05-08,1,,,,,エンジェルブリッジディールバイディールファンドキュウゴウ,0
480,3010001210890,登記記録の閉鎖等,0,2023-11-27,2023-11-16,株式会社ＨＡＩ　ＲＯＢＯＴＩＣＳ,,株式会社,東京都,葛飾区,新小岩２丁目１番１８号,,13,122,1240024,,,2023-11-16,清算の結了等,,,2020-07-14,1,,,,,ハイロボッティクス,0
485,3010002006743,登記記録の閉鎖等,0,2023-11-27,2023-11-20,有限会社赤羽企画,,有限会社,東京都,千代田区,内神田３丁目６番１０号,,13,101,1010047,,,2023-11-20,清算の結了等,,,2015-10-05,1,,,,,アカバネキカク,0
499,3010403009452,登記記録の閉鎖等,0,2023-11-27,2023-11-17,合同会社ＣＬＦ第１７号,,合同会社,東京都,千代田区,霞が関３丁目２番１号,,13,101,1000013,,,2023-11-17,清算の結了等,,,2015-10-05,1,,,,,シーエルエフダイジュウナナゴウ,0
512,3010802001365,登記記録の閉鎖等,0,2023-11-27,2023-11-20,有限会社市川製作所,,有限会社,東京都,大田区,萩中１丁目５番６号,,13,111,1440047,,,2023-11-20,清算の結了等,,,2015-10-05,1,,,,,イチカワセイサクショ,0
514,3010901006661,登記記録の閉鎖等,0,2023-11-27,2023-11-21,ソマヤマ商事株式会社,,株式会社,東京都,世田谷区,北烏山６丁目７番７号,,13,112,1570061,,,2023-11-21,清算の結了等,,,2015-10-05,1,,,,,ソマヤマショウジ,0
516,3010903007369,登記記録の閉鎖等,0,2023-11-27,2023-11-22,ＫＡＩＫＥＮ合同会社,,合同会社,東京都,世田谷区,玉川３丁目２０番２号マノア玉川第３ビル５０１号室,,13,112,1580094,,,2023-11-22,清算の結了等,,,2022-05-11,1,,,,,カイケン,0
547,3011503004995,登記記録の閉鎖等,0,2023-11-27,2023-11-22,合同会社サーチシステム,,合同会社,東京都,荒川区,東尾久５丁目２７番２－２０５号,,13,118,1160012,,,2023-11-22,清算の結了等,,,2021-12-02,1,,,,,サーチシステム,0
556,3020001070483,登記記録の閉鎖等,0,2023-11-27,2023-11-20,株式会社アマゾン・サイエンス,,株式会社,神奈川県,川崎市幸区,古市場２丁目７４番地１,,14,132,2120052,,,2023-11-20,清算の結了等,,,2015-10-05,1,,,,,アマゾンサイエンス,0
574,3030002054633,登記記録の閉鎖等,0,2023-11-27,2023-11-20,有限会社野本釣具店,,有限会社,埼玉県,上尾市,宮本町１５番４号,,11,219,3620036,,,2023-11-20,清算の結了等,,,2015-10-05,1,,,,,ノモトツリグテン,0
575,3030002073138,登記記録の閉鎖等,0,2023-11-27,2023-11-16,有限会社ケー・イー・シー,,有限会社,埼玉県,川越市,脇田新町１９番地４７,,11,201,3501121,,,2023-11-16,清算の結了等,,,2015-10-05,1,,,,,ケーイーシー,0
603,3100002015776,登記記録の閉鎖等,0,2023-11-27,2023-11-16,有限会社ぎんれい荘,,有限会社,長野県,東御市,新張７５７番地,,20,219,3890501,,,2023-11-16,清算の結了等,,,2015-10-05,1,,,,,ギンレイソウ,0
606,3110001024595,登記記録の閉鎖等,0,2023-11-27,2023-11-21,長岡モーターサービス株式会社,,株式会社,新潟県,長岡市,上除町甲２８２０番地１,,15,202,9402033,,,2023-11-21,合併による解散等,2170001005608,令和５年９月３０日和歌山県海南市且来１３８２番地の１株式会社エース産業（2170001005608）に合併し解散,2015-10-05,1,,,,,ナガオカモーターサービス,0
609,3110005005484,登記記録の閉鎖等,0,2023-11-27,2023-11-24,三條信用組合,,その他の設立登記法人,新潟県,三条市,興野３丁目１１番１２号,,15,204,9550046,,,2023-11-24,合併による解散等,6110005000961,令和５年１１月２０日新潟県新潟市江南区旭二丁目１番２号はばたき信用組合（6110005000961）に合併し解散,2015-10-05,1,,,,,サンジョウ,0
620,3120001190858,登記記録の閉鎖等,0,2023-11-27,2023-11-17,株式会社トータルクロス,,株式会社,京都府,京都市伏見区,久我東町３番地６,,26,109,6128494,,,2023-11-17,清算の結了等,,,2015-10-05,1,,,,,トータルクロス,0
653,3140005016363,登記記録の閉鎖等,0,2023-11-27,2023-11-22,特定非営利活動法人日本スポーツ文化普及協会,,その他の設立登記法人,兵庫県,西宮市,仁川五ケ山町４番２３号,,28,204,6620814,,,2023-11-22,清算の結了等,,,2015-10-05,1,,,,,ニホンスポーツブンカフキュウキョウカイ,0
676,3200001030345,登記記録の閉鎖等,0,2023-11-27,2023-11-21,株式会社ライト,,株式会社,岐阜県,高山市,石浦町９丁目４０８番地,,21,203,5060825,,,2023-11-21,清算の結了等,,,2015-10-05,1,,,,,ライト,0
684,3250001017494,登記記録の閉鎖等,0,2023-11-27,2023-11-24,横山サービス株式会社,,株式会社,山口県,防府市,大字植松１３３７番２,,35,206,7470836,,,2023-11-24,清算の結了等,,,2019-01-09,1,,,,,ヨコヤマサービス,0
725,3420003002345,登記記録の閉鎖等,0,2023-11-27,2023-11-21,合同会社奥津軽タクシー,,合同会社,青森県,東津軽郡今別町,大字山崎字山崎７１番地１７,,02,303,0301511,,,2023-11-21,清算の結了等,,,2021-07-09,1,,,,,オクツガルタクシー,0
733,3460401001184,登記記録の閉鎖等,0,2023-11-27,2023-11-20,株式会社ＭｉｒａｉＳｙｓｔｅｍｓ,,株式会社,茨城県,小美玉市,中野谷４３４番地２,,08,236,3190111,,,2023-11-20,清算の結了等,,,2018-09-18,1,,,,,ミライシステムズ,0
751,4010001201410,登記記録の閉鎖等,0,2023-11-27,2023-11-20,株式会社グリーントラディション,,株式会社,東京都,中央区,京橋１丁目１７番１号昭美京橋第二ビル７Ｆ,,13,102,1040031,,,2023-11-20,清算の結了等,,,2019-06-05,1,,,,,グリーントラディション,0
781,4011101039360,登記記録の閉鎖等,0,2023-11-27,2023-11-22,株式会社ニチナン,,株式会社,東京都,新宿区,新宿１丁目３１番１６号,,13,104,1600022,,,2023-11-22,清算の結了等,,,2015-10-05,1,,,,,ニチナン,0
802,4012403004201,登記記録の閉鎖等,0,2023-11-27,2023-11-21,合同会社３ＳＫＹ,,合同会社,東京都,小金井市,中町３丁目９番５－６０１号,,13,210,1840012,,,2023-11-21,清算の結了等,,,2020-02-03,1,,,,,スリースカイ,0
825,4020002089423,登記記録の閉鎖等,0,2023-11-27,2023-11-20,有限会社創型精密,,有限会社,神奈川県,川崎市高津区,下野毛３丁目１４番５号,,14,134,2130006,,,2023-11-20,清算の結了等,,,2015-10-05,1,,,,,,0
836,4030002043057,登記記録の閉鎖等,0,2023-11-27,2023-11-15,有限会社アクセサリーアミノ,,有限会社,埼玉県,草加市,稲荷６丁目５番１０号,,11,221,3400003,,,2023-11-15,清算の結了等,,,2015-10-05,1,,,,,アクセサリーアミノ,0
844,4040001108487,登記記録の閉鎖等,0,2023-11-27,2023-11-17,株式会社響防災設備,,株式会社,千葉県,流山市,南流山１丁目１４番地の１４コーポヒロタ２０１,,12,220,2700163,,,2023-11-17,清算の結了等,,,2019-03-27,1,,,,,ヒビキボウサイセツビ,0
850,4050001019634,登記記録の閉鎖等,0,2023-11-27,2023-11-17,株式会社増田工務店,,株式会社,東京都,杉並区,堀ノ内１丁目１４番２６号ＰｉｓｏｓＢｌａｎｃｏｓ２０２,,13,115,1660013,,,2023-11-17,清算の結了等,,,2015-10-05,1,,,,,マスダコウムテン,0
861,4100001021733,登記記録の閉鎖等,0,2023-11-27,2023-11-16,株式会社森建設,,株式会社,長野県,上伊那郡飯島町,七久保３０１７番地１６３８,,20,384,3993705,,,2023-11-16,清算の結了等,,,2015-10-05,1,,,,,モリケンセツ,0
869,4110002000834,登記記録の閉鎖等,0,2023-11-27,2023-11-22,有限会社伊藤商会,,有限会社,新潟県,新潟市中央区,神道寺３丁目８番１１号コーポにたみ１０２号,,15,103,9500983,,,2023-11-22,清算の結了等,,,2015-10-05,1,,,,,イトウショウカイ,0
870,4110005000963,登記記録の閉鎖等,0,2023-11-27,2023-11-24,新潟鉄道信用組合,,その他の設立登記法人,新潟県,新潟市中央区,弁天３丁目１番３号,,15,103,9500901,,,2023-11-24,合併による解散等,6110005000961,令和５年１１月２０日新潟県新潟市江南区旭二丁目１番２号はばたき信用組合（6110005000961）に合併し解散,2015-10-05,1,,,,,ニイガタテツドウ,0
882,4130001027868,登記記録の閉鎖等,0,2023-11-27,2023-10-30,株式会社サティス,,株式会社,京都府,京都市南区,唐橋経田町１２番地５,,26,107,6018454,,,2023-10-30,清算の結了等,,,2015-10-05,1,,,,,サティス,0
887,4130002027108,登記記録の閉鎖等,0,2023-11-27,2023-11-20,有限会社大森水産,,有限会社,京都府,久世郡久御山町,田井新荒見２４３番地の１,,26,322,6130036,,,2023-11-20,清算の結了等,,,2015-10-05,1,,,,,オオモリスイサン,0
901,4160001022115,登記記録の閉鎖等,0,2023-11-27,2023-11-20,株式会社蒼興産,,株式会社,滋賀県,近江八幡市,鷹飼町１５７９番地,,25,204,5230891,,,2023-11-20,合併による解散等,7160001010744,令和５年１１月２０日滋賀県近江八幡市上田町１３４８番地株式会社ケイズコーポレーション（7160001010744）に合併し解散,2019-12-04,1,,,,,アオイコウサン,0
902,4180001041336,登記記録の閉鎖等,0,2023-11-27,2023-11-22,名東ダイハツ株式会社,,株式会社,愛知県,名古屋市名東区,猪高台２丁目１１６番地,,23,115,4650028,,,2023-11-22,清算の結了等,,,2015-10-05,1,,,,,メイトウダイハツ,0
905,4180001073123,登記記録の閉鎖等,0,2023-11-27,2023-11-22,山工株式会社,,株式会社,愛知県,名古屋市西区,那古野２丁目２３番６号,,23,104,4510042,,,2023-11-22,清算の結了等,,,2015-10-05,1,,,,,ヤマコウ,0
924,4240001021868,登記記録の閉鎖等,0,2023-11-27,2023-11-07,株式会社ＫＦ・Ｐメンテナンス,,株式会社,広島県,広島市佐伯区,観音台３丁目３番２０号,,34,108,7315157,,,2023-11-07,清算の結了等,,,2015-10-05,1,,,,,ケーエフピーメンテナンス,0
930,4260001017864,登記記録の閉鎖等,0,2023-11-27,2023-11-20,富士製菓株式会社,,株式会社,岡山県,笠岡市,笠岡２７７５番地,,33,205,7140081,,,2023-11-20,清算の結了等,,,2015-10-05,1,,,,,フジセイカ,0
934,4280003001583,登記記録の閉鎖等,0,2023-11-27,2023-11-22,合同会社白峯,,合同会社,島根県,松江市,八雲台２丁目１４番４号,,32,201,6900014,,,2023-11-22,清算の結了等,,,2022-02-22,1,,,,,ハクホウ,0
946,4330001025827,登記記録の閉鎖等,0,2023-11-27,2023-11-17,株式会社Ｌｅａｆ,,株式会社,熊本県,熊本市中央区,新市街４番８号,,43,101,8600803,,,2023-11-17,清算の結了等,,,2018-11-06,1,,,,,リーフ,0
963,4370002015195,登記記録の閉鎖等,0,2023-11-27,2023-11-22,有限会社ワタベ,,有限会社,宮城県,仙台市青葉区,中央４丁目７番２５号ライオンズマンション中央１階,,04,101,9800021,,,2023-11-22,清算の結了等,,,2015-10-05,1,,,,,ワタベ,0
973,4430002049030,登記記録の閉鎖等,0,2023-11-27,2023-11-17,有限会社ヒガシダカンリ,,有限会社,北海道,札幌市中央区,北十条西１５丁目１番４－１４０５号,,01,101,0600010,,,2023-11-17,清算の結了等,,,2015-10-05,1,,,,,ヒガシダカンリ,0
981,4470001014857,登記記録の閉鎖等,0,2023-11-27,2023-11-24,株式会社エムファーム,,株式会社,香川県,三豊市,詫間町箱５５１番地１,,37,208,7691106,,,2023-11-24,清算の結了等,,,2015-10-05,1,,,,,エムファーム,0
983,4470001019633,登記記録の閉鎖等,0,2023-11-27,2023-11-22,株式会社三協,,株式会社,香川県,高松市,御厩町８５０番地１,00130593,37,201,7618042,,,2023-11-22,清算の結了等,,,2023-05-30,1,,,,,サンキョウ,0
1004,5010101007665,登記記録の閉鎖等,0,2023-11-27,2023-11-24,株式会社モリヤ環境土木エンジニアリング,,株式会社,東京都,八王子市,西寺方町７２８－１ビックストーンヴィラ２０１号,,13,201,1920153,,,2023-11-24,清算の結了等,,,2015-10-05,1,,,,,モリヤカンキョウドボクエンジニアリング,0
1006,5010401127436,登記記録の閉鎖等,0,2023-11-27,2023-11-21,巨人日本株式会社,,株式会社,東京都,港区,赤坂２丁目２３番１号アークヒルズ・フロントタワーＲｏＰ８０６号室,,13,103,1070052,,,2023-11-21,清算の結了等,,,2016-10-12,1,,,,,キョジンニホン,0
1015,5010403009450,登記記録の閉鎖等,0,2023-11-27,2023-11-17,合同会社ＣＬＦ第１４号,,合同会社,東京都,千代田区,霞が関３丁目２番１号,,13,101,1000013,,,2023-11-17,清算の結了等,,,2015-10-05,1,,,,,シーエルエフダイジュウヨンゴウ,0
1056,5011502004061,登記記録の閉鎖等,0,2023-11-27,2023-11-20,有限会社東京セールズ,,有限会社,東京都,北区,志茂２丁目１８番９号,,13,117,1150042,,,2023-11-20,清算の結了等,,,2015-10-05,1,,,,,トウキョウセールズ,0
1069,5020001125830,登記記録の閉鎖等,0,2023-11-27,2023-11-20,株式会社ＦＵＪＩＫＥＮ,,株式会社,神奈川県,横浜市保土ケ谷区,和田１丁目１８番３２号和田町ビル２Ｂ号室,,14,106,2400065,,,2023-11-20,清算の結了等,,,2018-04-10,1,,,,,フジケン,0
1084,5030001119187,登記記録の閉鎖等,0,2023-11-27,2023-11-20,暁プロダクション株式会社,,株式会社,埼玉県,本庄市,駅南１丁目９番８号,,11,211,3670041,,,2023-11-20,清算の結了等,,,2017-03-14,1,,,,,アカツキプロダクション,0
1095,5030003016317,登記記録の閉鎖等,0,2023-11-27,2023-11-20,ソレスト合同会社,,合同会社,埼玉県,さいたま市桜区,大字上大久保７２５－２階,,11,106,3380824,,,2023-11-20,清算の結了等,,,2020-12-08,1,,,,,ソレスト,0
1098,5040001025649,登記記録の閉鎖等,0,2023-11-27,2023-11-13,株式会社インフォメディア,,株式会社,千葉県,市川市,市川南２丁目３番１１号,,12,203,2720033,,,2023-11-13,清算の結了等,,,2015-10-05,1,,,,,インフォメディア,0
1106,5040002037866,登記記録の閉鎖等,0,2023-11-27,2023-11-17,有限会社コスマ,,有限会社,千葉県,鎌ケ谷市,鎌ケ谷６丁目１番８号,,12,224,2730105,,,2023-11-17,清算の結了等,,,2015-10-05,1,,,,,コスマ,0
1120,5080001001877,登記記録の閉鎖等,0,2023-11-27,2023-11-24,株式会社シーアイセンター,,株式会社,静岡県,静岡市葵区,金座町４７番地の１,,22,101,4200025,,,2023-11-24,清算の結了等,,,2015-10-05,1,,,,,シーアイセンター,0
1121,5080101016305,登記記録の閉鎖等,0,2023-11-27,2023-11-20,株式会社世元,,株式会社,埼玉県,新座市,菅沢１丁目８番５６－２０２号室,,11,230,3520017,,,2023-11-20,清算の結了等,,,2015-10-05,1,,,,,セモト,0
1132,5090002002386,登記記録の閉鎖等,0,2023-11-27,2023-11-24,有限会社根岸工業,,有限会社,山梨県,甲府市,伊勢２丁目１４番１５号,,19,201,4000856,,,2023-11-24,清算の結了等,,,2015-10-05,1,,,,,ネギシコウギョウ,0
1138,5100002028561,登記記録の閉鎖等,0,2023-11-27,2023-11-16,有限会社傳田技研,,有限会社,長野県,諏訪郡下諏訪町,８４２番地９,,20,361,3930000,,,2023-11-16,清算の結了等,,,2023-11-08,1,,,,,デンダギケン,0
1141,5120001117215,登記記録の閉鎖等,0,2023-11-27,2023-11-22,株式会社イー・メディア,,株式会社,兵庫県,川西市,美山台２丁目１番地の１１６,,28,217,6660151,,,2023-11-22,清算の結了等,,,2015-10-05,1,,,,,イーメディア,0
1149,5120002000238,登記記録の閉鎖等,0,2023-11-27,2023-11-20,有限会社キンダイマシン,,有限会社,大阪府,大阪市旭区,高殿１丁目１番１２号,,27,117,5350031,,,2023-11-20,清算の結了等,,,2015-10-05,1,,,,,キンダイマシン,0
1168,5140002040959,登記記録の閉鎖等,0,2023-11-27,2023-11-13,有限会社坂本鉄工所,,有限会社,兵庫県,尼崎市,昭和通１丁目１番３１号,,28,202,6600881,,,2023-11-13,清算の結了等,,,2015-10-05,1,,,,,サカモトテッコウショ,0
1212,5320001005977,登記記録の閉鎖等,0,2023-11-27,2023-11-22,株式会社永輪,,株式会社,大分県,大分市,豊饒３丁目１０番６５号,,44,201,8700855,,,2023-11-22,清算の結了等,,,2015-10-05,1,,,,,トハ,0
1223,5370005009887,登記記録の閉鎖等,0,2023-11-27,2023-11-22,一般社団法人岩沼中央,,その他の設立登記法人,宮城県,岩沼市,中央４丁目９番７号,,04,211,9892432,,,2023-11-22,清算の結了等,,,2019-02-22,1,,,,,イワヌマチュウオウ,0
1230,5420001016312,登記記録の閉鎖等,0,2023-11-27,2023-11-20,Ｍａｒｉｎｅ　Ｃｏｌｌａｂｏ株式会社,,株式会社,青森県,青森市,佃２丁目１９番７号,,02,201,0300962,,,2023-11-20,清算の結了等,,,2018-08-27,1,,,,,マリンコラボ,0
1265,6010101010619,登記記録の閉鎖等,0,2023-11-27,2023-11-24,株式会社ＫＳＣ,,株式会社,東京都,八王子市,絹ケ丘１丁目５１番６号,,13,201,1920912,,,2023-11-24,清算の結了等,,,2015-10-05,1,,,,,,0
1279,6010803002847,登記記録の閉鎖等,0,2023-11-27,2023-11-20,合同会社ケーツーシー,,合同会社,東京都,大田区,矢口３丁目３２番１－７０２号,,13,111,1460093,,,2023-11-20,清算の結了等,,,2018-11-02,1,"K2C, Inc.",Tokyo,"RoomNo.702 , 3-32-1 , Yaguchi, Ota ku",,ケーツーシー,0
1291,6011101060744,登記記録の閉鎖等,0,2023-11-27,2023-11-21,株式会社ゼロックス,,株式会社,東京都,新宿区,西新宿７丁目５番２０号新宿旭ビルＡ館４０１,,13,104,1600023,,,2023-11-21,清算の結了等,,,2015-10-05,1,,,,,ゼロックス,0
1300,6011501011454,登記記録の閉鎖等,0,2023-11-27,2023-11-22,株式会社きょくせいあーと,,株式会社,東京都,北区,岸町１丁目１２番２２号,,13,117,1140021,,,2023-11-22,清算の結了等,,,2015-10-05,1,,,,,キョクセイアート,0
1309,6012801016498,登記記録の閉鎖等,0,2023-11-27,2023-11-22,立川住宅販売株式会社,,株式会社,東京都,立川市,砂川町２丁目２６番地の１０,,13,202,1900031,,,2023-11-22,清算の結了等,,,2015-10-05,1,,,,,,0
1313,6020001016129,登記記録の閉鎖等,0,2023-11-27,2023-11-20,株式会社ミヤタ創企画,,株式会社,神奈川県,横浜市中区,尾上町４丁目４７番地,,14,104,2310015,,,2023-11-20,清算の結了等,,,2015-10-05,1,,,,,ミヤタソウキカク,0
1338,6030001119145,登記記録の閉鎖等,0,2023-11-27,2023-11-21,株式会社Ｍ．ネット,,株式会社,新潟県,長岡市,青葉台１丁目甲１２０番地８,,15,202,9402145,,,2023-11-21,清算の結了等,,,2017-03-14,1,,,,,エムネット,0
1346,6030002021845,登記記録の閉鎖等,0,2023-11-27,2023-11-20,有限会社村井歯建,,有限会社,埼玉県,さいたま市岩槻区,加倉１丁目３１番６９号,,11,110,3390056,,,2023-11-20,清算の結了等,,,2015-10-05,1,,,,,,0
1357,6040002010525,登記記録の閉鎖等,0,2023-11-27,2023-11-16,有限会社北葉飯店,,有限会社,千葉県,千葉市稲毛区,穴川２丁目１２番６号,,12,103,2630024,,,2023-11-16,清算の結了等,,,2015-10-05,1,,,,,ホクヨウハンテン,0
1370,6080001007584,登記記録の閉鎖等,0,2023-11-27,2023-11-22,飯田紙布株式会社,,株式会社,静岡県,静岡市清水区,桜橋町９番３１号,,22,103,4240837,,,2023-11-22,合併による解散等,4080003001034,令和５年１１月２２日静岡市清水区桜橋町９番３１号株式会社飯田紙布工場（4080003001034）に合併し解散,2015-10-05,1,,,,,イイダシフ,0
1383,6120001189030,登記記録の閉鎖等,0,2023-11-27,2023-11-13,株式会社未来,,株式会社,大阪府,大阪市西成区,千本北２丁目１番３号,,27,122,5570053,,,2023-11-13,清算の結了等,,,2015-10-05,1,,,,,ミライ,0
1400,6130002020515,登記記録の閉鎖等,0,2023-11-27,2023-11-20,有限会社竹内美術店,,有限会社,京都府,京都市左京区,下鴨高木町４６番地１じょい下鴨４－Ａ,,26,103,6060864,,,2023-11-20,清算の結了等,,,2015-10-05,1,,,,,,0
1401,6130003005580,登記記録の閉鎖等,0,2023-11-27,2023-11-20,合同会社姚葉,,合同会社,京都府,京都市南区,久世上久世町５３０の４１,,26,107,6018212,,,2023-11-20,清算の結了等,,,2018-07-13,1,,,,,ヨウハ,0
1403,6140001060528,登記記録の閉鎖等,0,2023-11-27,2023-11-22,株式会社日新ガス,,株式会社,兵庫県,姫路市,八家１３０３番地,,28,201,6728015,,,2023-11-22,清算の結了等,,,2015-10-05,1,,,,,ニッシンガス,0
1452,6340001007624,登記記録の閉鎖等,0,2023-11-27,2023-11-22,レイホウ株式会社,,株式会社,鹿児島県,霧島市,牧園町持松２１１７番地２０,,46,218,8996505,,,2023-11-22,清算の結了等,,,2015-10-05,1,,,,,レイホウ,0
1460,6370102002414,登記記録の閉鎖等,0,2023-11-27,2023-11-21,有限会社白石デザインセンター,,有限会社,宮城県,白石市,郡山字花見平６番地の１０,,04,206,9890203,,,2023-11-21,清算の結了等,,,2023-10-02,1,,,,,シロイシデザインセンター,0
1465,6390002013096,登記記録の閉鎖等,0,2023-11-27,2023-11-21,有限会社太郎企画,,有限会社,山形県,米沢市,春日２丁目３番１８号,,06,202,9920044,,,2023-11-21,清算の結了等,,,2015-10-05,1,,,,,タロウキカク,0
1470,6430001057957,登記記録の閉鎖等,0,2023-11-27,2023-11-16,シャトルジャパン株式会社,,株式会社,北海道,室蘭市,港北町４丁目３番１０号,,01,205,0500063,,,2023-11-16,清算の結了等,,,2015-10-05,1,,,,,シャトルジャパン,0
1489,6500005003033,登記記録の閉鎖等,0,2023-11-27,2023-11-24,西予市土地開発公社,,その他の設立登記法人,愛媛県,西予市,宇和町卯之町３丁目４３４番地,,38,214,7970015,,,2023-11-24,清算の結了等,,,2015-10-05,1,,,,,セイヨシ,0
1587,7020002037387,登記記録の閉鎖等,0,2023-11-27,2023-11-21,有限会社近江屋呉服店,,有限会社,神奈川県,横浜市鶴見区,矢向４丁目５番３１号,,14,101,2300001,,,2023-11-21,清算の結了等,,,2015-10-05,1,,,,,オウミヤゴフクテン,0
1592,7030001000931,登記記録の閉鎖等,0,2023-11-27,2023-11-16,ウイリーホーゲルオスト株式会社,,株式会社,埼玉県,さいたま市緑区,東浦和７丁目３番地１１,,11,109,3360926,,,2023-11-16,清算の結了等,,,2015-10-05,1,,,,,ウイリーホーゲルオスト,0
1593,7030001004817,登記記録の閉鎖等,0,2023-11-27,2023-11-20,株式会社ソシアム,,株式会社,埼玉県,さいたま市大宮区,堀の内町２丁目１２７番地１,,11,103,3300804,,,2023-11-20,清算の結了等,,,2015-10-05,1,,,,,ソシアム,0
1604,7030002092290,登記記録の閉鎖等,0,2023-11-27,2023-11-20,有限会社錦江資材,,有限会社,埼玉県,坂戸市,大字横沼８８番地１,,11,239,3500203,,,2023-11-20,清算の結了等,,,2015-10-05,1,,,,,キンコウシザイ,0
1609,7040001040092,登記記録の閉鎖等,0,2023-11-27,2023-11-16,株式会社山田鳶工業,,株式会社,千葉県,松戸市,稔台７丁目４７番地の２コーポ山田１０２号,,12,207,2702231,,,2023-11-16,清算の結了等,,,2015-10-05,1,,,,,ヤマダトビコウギョウ,0
1630,7110001022042,登記記録の閉鎖等,0,2023-11-27,2023-11-24,株式会社アセンド,,株式会社,新潟県,長岡市,表町４丁目４番地４,,15,202,9400071,,,2023-11-24,清算の結了等,,,2015-10-05,1,,,,,アセンド,0
1645,7120002070709,登記記録の閉鎖等,0,2023-11-27,2023-11-22,有限会社岡崎技建,00031346,有限会社,大阪府,大阪市都島区,中野町５丁目１４番１－１４０７,,27,102,5340027,,,2023-11-22,清算の結了等,,,2015-10-05,1,,,,,オカザキギケン,0
1656,7130001014748,登記記録の閉鎖等,0,2023-11-27,2023-11-20,株式会社ＴＨＩＮＫ,,株式会社,京都府,京都市伏見区,下鳥羽上三栖町１８６番地,,26,109,6128248,,,2023-11-20,清算の結了等,,,2015-10-05,1,,,,,シンク,0
1687,7210002010614,登記記録の閉鎖等,0,2023-11-27,2023-11-15,有限会社フルーツ江南,,有限会社,福井県,敦賀市,本町２丁目８番１４号,,18,202,9140051,,,2023-11-15,清算の結了等,,,2015-10-05,1,,,,,フルーツエナミ,0
1703,7290802014889,登記記録の閉鎖等,0,2023-11-27,2023-11-17,有限会社ナツキ電器,,有限会社,福岡県,北九州市八幡西区,沖田２丁目１番３号,,40,109,8070077,,,2023-11-17,清算の結了等,,,2015-10-05,1,,,,,ナツキデンキ,0
1712,7330002025113,登記記録の閉鎖等,0,2023-11-27,2023-11-21,有限会社今田商店,,有限会社,熊本県,熊本市中央区,新屋敷３丁目３番７号,,43,101,8620975,,,2023-11-21,清算の結了等,,,2015-10-05,1,,,,,イマダショウテン,0
1736,7470001009862,登記記録の閉鎖等,0,2023-11-27,2023-11-22,株式会社香川県営農支援センター,,株式会社,香川県,観音寺市,新田町２８７番地,,37,205,7680033,,,2023-11-22,清算の結了等,,,2015-10-05,1,,,,,カガワケンエイノウシエンセンター,0
1742,7500003001954,登記記録の閉鎖等,0,2023-11-27,2023-11-20,合同会社わき屋,,合同会社,愛媛県,今治市,大西町脇甲２２１番地,,38,202,7992206,,,2023-11-20,清算の結了等,,,2017-07-13,1,,,,,ワキヤ,0
1765,8010005028094,登記記録の閉鎖等,0,2023-11-27,2023-11-24,一般社団法人ＨＭＴソーラー,,その他の設立登記法人,大阪府,大阪市中央区,高麗橋４丁目３番７号淀屋橋総合会計内,,27,128,5410043,,,2023-11-24,清算の結了等,,,2018-02-09,1,,,,,エイチエムティーソーラー,0
1766,8010102004097,登記記録の閉鎖等,0,2023-11-27,2023-11-22,有限会社大洋編物,,有限会社,東京都,八王子市,丹木町３丁目１１９番地,,13,201,1920003,,,2023-11-22,清算の結了等,,,2015-10-05,1,,,,,タイヨウアミモノ,0
1775,8010403009456,登記記録の閉鎖等,0,2023-11-27,2023-11-17,合同会社ＣＬＦ第１０号,,合同会社,東京都,千代田区,霞が関３丁目２番１号,,13,101,1000013,,,2023-11-17,清算の結了等,,,2015-10-05,1,,,,,シーエルエフダイジュウゴウ,0
1780,8010802010452,登記記録の閉鎖等,0,2023-11-27,2023-11-20,有限会社渡谷建装,,有限会社,東京都,大田区,西糀谷２丁目１５番１４号,,13,111,1440034,,,2023-11-20,清算の結了等,,,2015-10-05,1,,,,,ワタヤケンソウ,0
1784,8010903005772,登記記録の閉鎖等,0,2023-11-27,2023-11-22,シェアーズ合同会社,,合同会社,東京都,目黒区,中根２丁目２０番１７号,,13,110,1520031,,,2023-11-22,清算の結了等,,,2020-06-23,1,,,,,シェアーズ,0
1785,8011001050769,登記記録の閉鎖等,0,2023-11-27,2023-11-21,株式会社フォーマコンサルティング,,株式会社,東京都,渋谷区,渋谷４丁目２番２２－３０１号,,13,113,1500002,,,2023-11-21,清算の結了等,,,2015-10-05,1,,,,,フォーマコンサルティング,0
1803,8011102024432,登記記録の閉鎖等,0,2023-11-27,2023-11-21,有限会社Ｏ．Ｅ．Ｔ．,,有限会社,東京都,新宿区,高田馬場１丁目３３番１５号,,13,104,1690075,,,2023-11-21,清算の結了等,,,2015-10-05,1,,,,,オーイーティ,0
1821,8012401013712,登記記録の閉鎖等,0,2023-11-27,2023-11-22,株式会社都市鉄道技術,,株式会社,東京都,新宿区,新宿１丁目３１番１号ダイアパレス新宿一丁目３０６号,,13,104,1600022,,,2023-11-22,清算の結了等,,,2015-10-05,1,,,,,トシテツドウギジュツ,0
1827,8013301027348,登記記録の閉鎖等,0,2023-11-27,2023-11-17,株式会社キイチ,,株式会社,東京都,荒川区,荒川５丁目２６番１３号,,13,118,1160002,,,2023-11-17,清算の結了等,,,2015-10-05,1,,,,,キイチ,0
1836,8020002046040,登記記録の閉鎖等,0,2023-11-27,2023-11-21,有限会社ラスター工芸,,有限会社,神奈川県,横浜市港南区,芹が谷４丁目２８番４６号,,14,111,2330006,,,2023-11-21,清算の結了等,,,2015-10-05,1,,,,,ラスターコウゲイ,0
1852,8021002050957,登記記録の閉鎖等,0,2023-11-27,2023-11-14,有限会社サキ,,有限会社,東京都,杉並区,高井戸東４丁目２６番９号,,13,115,1680072,,,2023-11-14,清算の結了等,,,2015-10-05,1,,,,,,0
1854,8030001079619,登記記録の閉鎖等,0,2023-11-27,2023-11-21,アクアクロス株式会社,,株式会社,埼玉県,川口市,戸塚東１丁目２５番２８－５０６号,,11,203,3330802,,,2023-11-21,清算の結了等,,,2015-10-05,1,,,,,アクアクロス,0
1855,8030001081095,登記記録の閉鎖等,0,2023-11-27,2023-11-20,株式会社アセット,,株式会社,埼玉県,川口市,三ツ和２丁目１８番８号,,11,203,3340011,,,2023-11-20,清算の結了等,,,2015-10-05,1,,,,,アセット,0
1860,8030001124886,登記記録の閉鎖等,0,2023-11-27,2023-11-20,株式会社ＳＦＣ,,株式会社,埼玉県,行田市,持田２丁目１８番１５号,,11,206,3610056,,,2023-11-20,清算の結了等,,,2018-03-27,1,,,,,エスエフシー,0
1872,8040002049124,登記記録の閉鎖等,0,2023-11-27,2023-11-17,有限会社メガネハウスアイアイ,,有限会社,千葉県,松戸市,金ケ作４０８番地１４２,,12,207,2702251,,,2023-11-17,清算の結了等,,,2015-10-05,1,,,,,メガネハウスアイアイ,0
1877,8060001003344,登記記録の閉鎖等,0,2023-11-27,2023-11-22,株式会社仲田,,株式会社,栃木県,宇都宮市,川田町１０４９番地１,,09,201,3210111,,,2023-11-22,清算の結了等,,,2015-10-05,1,,,,,ナカダ,0
1891,8070001029990,登記記録の閉鎖等,0,2023-11-27,2023-11-17,株式会社トータルライフネット埼玉,,株式会社,群馬県,高崎市,高関町４６０番地１,,10,202,3700043,,,2023-11-17,合併による解散等,6010901035567,令和５年１１月１日東京都世田谷区砧二丁目４番３号株式会社ひまわりコーポレーション（6010901035567）に合併し解散,2015-10-05,1,,,,,,0
1897,8080001020874,登記記録の閉鎖等,0,2023-11-27,2023-11-10,株式会社明尚,,株式会社,静岡県,焼津市,中島１０７７番地,,22,212,4210214,,,2023-11-10,合併による解散等,9080001015857,令和５年１１月１日静岡県焼津市中島７６１番地株式会社青幸（9080001015857）に合併し解散,2016-04-13,1,,,,,メイショウ,0
1899,8080002016558,登記記録の閉鎖等,0,2023-11-27,2023-11-22,有限会社シーエスピー,,有限会社,静岡県,焼津市,上泉７６１番地の１,,22,212,4210217,,,2023-11-22,清算の結了等,,,2015-10-05,1,,,,,シーエスピー,0
1901,8090002003588,登記記録の閉鎖等,0,2023-11-27,2023-11-24,有限会社大蔵,,有限会社,山梨県,甲斐市,竜王新町２１０８番地,,19,210,4000111,,,2023-11-24,清算の結了等,,,2015-10-05,1,,,,,,0
1907,8100003001168,登記記録の閉鎖等,0,2023-11-27,2023-11-16,合名会社平野屋,,合名会社,長野県,上田市,中央４丁目１８番２１号,,20,203,3860012,,,2023-11-16,清算の結了等,,,2015-10-05,1,,,,,ヒラノヤ,0
1923,8120005018373,登記記録の閉鎖等,0,2023-11-27,2023-11-21,一般社団法人資産形成士協会,,その他の設立登記法人,大阪府,大阪市中央区,平野町４丁目６番４号,,27,128,5410046,,,2023-11-21,清算の結了等,,,2015-12-16,1,,,,,シサンケイセイシキョウカイ,0
1946,8140005021409,登記記録の閉鎖等,0,2023-11-27,2023-11-27,特定非営利活動法人日本タグフットボール協会,,その他の設立登記法人,兵庫県,神戸市中央区,江戸町８５－１ベイ・ウィング神戸ビル９階,,28,110,6500033,,,2023-11-27,清算の結了等,,,2015-10-05,1,,,,,ニホンタグフットボールキョウカイ,0
1949,8170003000709,登記記録の閉鎖等,0,2023-11-27,2023-11-13,串本海洋開発合同会社,,合同会社,東京都,千代田区,九段北１丁目４番１号,,13,101,1020073,,,2023-11-13,清算の結了等,,,2015-10-05,1,,,,,クシモトカイヨウカイハツ,0
1954,8180002069414,登記記録の閉鎖等,0,2023-11-27,2023-11-24,有限会社大仙ディーエスセンター,,有限会社,愛知県,小牧市,篠岡３丁目１６番地の３,,23,219,4850815,,,2023-11-24,清算の結了等,,,2015-10-05,1,,,,,ダイセンディーエスセンター,0
1955,8180003022322,登記記録の閉鎖等,0,2023-11-27,2023-11-21,合同会社ＯＬＬＯ　ＥＳＳＥ,,合同会社,愛知県,名古屋市昭和区,南山町８番地の６,,23,107,4660835,,,2023-11-21,清算の結了等,,,2021-04-07,1,,,,,オロエッセ,0
1989,8360005002700,登記記録の閉鎖等,0,2023-11-27,2023-11-17,特定非営利活動法人沖縄児童文化福祉協会,,その他の設立登記法人,沖縄県,浦添市,字前田８６２番地１４８,,47,208,9012102,,,2023-11-17,清算の結了等,,,2015-10-05,1,,,,,,0
2000,8430002022768,登記記録の閉鎖等,0,2023-11-27,2023-11-20,有限会社三条マート岩泉,,有限会社,北海道,札幌市豊平区,月寒東三条１８丁目１番７５号,,01,105,0620053,,,2023-11-20,清算の結了等,,,2015-10-05,1,,,,,サンジョウマートイワイズミ,0
2004,8440002010004,登記記録の閉鎖等,0,2023-11-27,2023-11-24,有限会社ヘイセイ,,有限会社,北海道,奥尻郡奥尻町,字奥尻８０１番地５,,01,367,0431401,,,2023-11-24,清算の結了等,,,2015-10-05,1,,,,,ヘイセイ,0
2005,8460001005135,登記記録の閉鎖等,0,2023-11-27,2023-11-17,株式会社カルチュラルアセスメント,,株式会社,愛知県,岡崎市,井田町字３丁目９１番地２,,23,202,4440076,,,2023-11-17,清算の結了等,,,2017-04-05,1,,,,,カルチュラルアセスメント,0
2013,8500002005146,登記記録の閉鎖等,0,2023-11-27,2023-11-22,有限会社日専商事,,有限会社,愛媛県,伊予郡松前町,大字西古泉１０５番地２,,38,401,7913134,,,2023-11-22,清算の結了等,,,2015-10-05,1,,,,,ニッセンショウジ,0
2021,9010001011053,登記記録の閉鎖等,0,2023-11-27,2023-11-17,株式会社インクリース,,株式会社,東京都,千代田区,飯田橋１丁目８番９号ニューシティハイツ飯田橋７０５号室,,13,101,1020072,,,2023-11-17,清算の結了等,,,2015-10-05,1,,,,,インクリース,0
2022,9010001053566,登記記録の閉鎖等,0,2023-11-27,2023-11-20,日東貿易運輸株式会社,,株式会社,東京都,中央区,京橋１丁目１４番１０号,,13,102,1040031,,,2023-11-20,清算の結了等,,,2015-10-05,1,,,,,ニットウボウエキウンユ,0
2038,9010403008283,登記記録の閉鎖等,0,2023-11-27,2023-11-17,合同会社ＣＬＦ第１３号,,合同会社,東京都,千代田区,霞が関３丁目２番１号,,13,101,1000013,,,2023-11-17,清算の結了等,,,2015-10-05,1,,,,,シーエルエフダイジュウサンゴウ,0
2070,9011301026377,登記記録の閉鎖等,0,2023-11-27,2023-11-13,株式会社ＬＡＵＧＨ　ＴＡＬＥ,,株式会社,東京都,杉並区,宮前４丁目２８番６号プライムコート１０５,,13,115,1680081,,,2023-11-13,清算の結了等,,,2020-11-12,1,,,,,ラフテル,0
2106,9021001052755,登記記録の閉鎖等,0,2023-11-27,2023-11-21,株式会社ライトフォックス,,株式会社,神奈川県,藤沢市,下土棚２０１２番地の８,,14,205,2520807,,,2023-11-21,清算の結了等,,,2015-10-05,1,,,,,ライトフォックス,0
2125,9030002053448,登記記録の閉鎖等,0,2023-11-27,2023-11-13,有限会社オズ,,有限会社,埼玉県,さいたま市岩槻区,本町３丁目３番２,,11,110,3390057,,,2023-11-13,清算の結了等,,,2015-10-05,1,,,,,オズ,0
2126,9030002109373,登記記録の閉鎖等,0,2023-11-27,2023-11-20,有限会社ヤマショウ建装,,有限会社,埼玉県,川口市,榛松３丁目３４番８号,,11,203,3340062,,,2023-11-20,清算の結了等,,,2015-10-05,1,,,,,ヤマショウケンソウ,0
2129,9040001041584,登記記録の閉鎖等,0,2023-11-27,2023-11-17,株式会社田中建興,,株式会社,千葉県,松戸市,栗ケ沢７８５番地の１,,12,207,2700022,,,2023-11-17,清算の結了等,,,2015-10-05,1,,,,,タナカケンコウ,0
2151,9080102003091,登記記録の閉鎖等,0,2023-11-27,2023-11-22,有限会社文化堂フオトセンター,,有限会社,静岡県,駿東郡清水町,伏見５５２番地の２２,,22,341,4110907,,,2023-11-22,清算の結了等,,,2015-10-05,1,,,,,ブンカドウフオトセンター,0
2156,9100002027618,登記記録の閉鎖等,0,2023-11-27,2023-11-16,有限会社キソケンクマザサ,,有限会社,長野県,木曽郡南木曽町,吾妻２２２９番地３,,20,423,3995302,,,2023-11-16,清算の結了等,,,2015-10-05,1,,,,,キソケンクマザサ,0
2161,9120001091299,登記記録の閉鎖等,0,2023-11-27,2023-11-24,株式会社山口園,,株式会社,大阪府,大阪市中央区,日本橋２丁目１１番７号,,27,128,5420073,,,2023-11-24,清算の結了等,,,2015-10-05,1,,,,,ヤマグチエン,0
2166,9120002074666,登記記録の閉鎖等,0,2023-11-27,2023-11-22,トラストシステム有限会社,,有限会社,大阪府,枚方市,香里ケ丘６丁目５番地の１２,,27,210,5730084,,,2023-11-22,清算の結了等,,,2015-10-05,1,,,,,トラストシステム,0
2200,9180001089890,登記記録の閉鎖等,0,2023-11-27,2023-11-21,株式会社利建設,,株式会社,愛知県,名古屋市守山区,川北町２０１番地,,23,113,4630098,,,2023-11-21,清算の結了等,,,2015-10-05,1,,,,,トシケンセツ,0
2202,9180001110037,登記記録の閉鎖等,0,2023-11-27,2023-11-20,株式会社ｗｉｔｈ,,株式会社,愛知県,一宮市,北方町北方字宝江新田砂越３０番地２,,23,203,4938001,,,2023-11-20,清算の結了等,,,2015-10-05,1,,,,,ウイズ,0
2211,9180301009672,登記記録の閉鎖等,0,2023-11-27,2023-11-17,株式会社荒木保険サービス,,株式会社,愛知県,田原市,西山町穂波１０７番地,,23,231,4413619,,,2023-11-17,清算の結了等,,,2015-10-05,1,,,,,アラキホケンサービス,0
2215,9200002011371,登記記録の閉鎖等,0,2023-11-27,2023-11-24,横山設備有限会社,,有限会社,岐阜県,羽島市,小熊町島１７３番地の１,,21,209,5016264,,,2023-11-24,清算の結了等,,,2015-10-05,1,,,,,ヨコヤマセツビ,0
2231,9310002005899,登記記録の閉鎖等,0,2023-11-27,2023-11-24,有限会社祐栄,,有限会社,長崎県,長崎市,船石町４６４番地,,42,201,8510104,,,2023-11-24,清算の結了等,,,2015-10-05,1,,,,,ユウエイ,0
2232,9330001018289,登記記録の閉鎖等,0,2023-11-27,2023-11-17,株式会社ナチュラルファーマシー,,株式会社,熊本県,熊本市中央区,南坪井町４－３０－７０２,,43,101,8600848,,,2023-11-17,清算の結了等,,,2015-10-05,1,,,,,ナチュラルファーマシー,0
2249,9440002005069,登記記録の閉鎖等,0,2023-11-27,2023-11-21,有限会社やまなか,,有限会社,北海道,函館市,人見町３番２号,,01,202,0400005,,,2023-11-21,清算の結了等,,,2015-10-05,1,,,,,ヤマナカ,0
2252,9500002000518,登記記録の閉鎖等,0,2023-11-27,2023-11-24,有限会社青野漆器店,,有限会社,愛媛県,松山市,湊町３丁目５番地１７,,38,201,7900012,,,2023-11-24,清算の結了等,,,2015-10-05,1,,,,,アオノシッキテン,0
