sequenceNumber,corporateNumber,process,correct,updateDate,changeDate,name,nameImageId,kind,prefectureName,cityName,streetNumber,addressImageId,prefectureCode,cityCode,postCode,addressOutside,addressOutsideImageId,closeDate,closeCause,successorCorporateNumber,changeCause,assignmentDate,latest,enName,enPrefectureName,enCityName,enAddressOutside,furigana,hihyoji
6,1010003043639,新規,0,2024-05-07,2024-05-07,ＫＴ＆Ｐａｒｔｎｅｒｓ合同会社,,合同会社,東京都,中央区,銀座１丁目１２－４Ｎ＆Ｅ－ＢＬＤ．７階,,13,102,1040061,,,,,,,2024-05-07,1,,,,,ケイティアンドパートナーズ,0
7,1010003043647,新規,0,2024-05-07,2024-05-07,合同会社ビー餃子門前仲町,,合同会社,東京都,中央区,日本橋兜町１７－１－７０７,,13,102,1030026,,,,,,,2024-05-07,1,,,,,ビーギョウザモンゼンナカチョウ,0
9,1010101016125,新規,0,2024-05-07,2024-05-07,株式会社ＳＴＯＩＣ,,株式会社,東京都,八王子市,別所１丁目１７番地４－１０１,,13,201,1920363,,,,,,,2024-05-07,1,,,,,ストイック,0
15,1010401182113,新規,0,2024-05-07,2024-05-07,芝技術研究所株式会社,,株式会社,東京都,港区,南青山３丁目１番６号青山丸竹ビル６Ｆ,,13,103,1070062,,,,,,,2024-05-07,1,,,,,シバギジュツケンキュウショ,0
16,1010401182162,新規,0,2024-05-07,2024-05-07,株式会社スパーク,,株式会社,東京都,港区,六本木３丁目７番１－２００２号,,13,103,1060032,,,,,,,2024-05-07,1,,,,,スパーク,0
17,1010401182179,新規,0,2024-05-07,2024-05-07,銀谷株式会社,,株式会社,東京都,港区,赤坂３丁目１５－１ＳＩＯＮビル５Ｆ,,13,103,1070052,,,,,,,2024-05-07,1,,,,,ギンタニ,0
18,1010401182204,新規,0,2024-05-07,2024-05-07,株式会社ＳＯＫＫＯ,,株式会社,東京都,港区,南青山２丁目２７番２８号グラン青山５０１,,13,103,1070062,,,,,,,2024-05-07,1,,,,,ソッコー,0
23,1010601065126,新規,0,2024-05-07,2024-05-07,株式会社ワイズアップ,,株式会社,東京都,江東区,豊洲５丁目６番２９－２２２５号,,13,108,1350061,,,,,,,2024-05-07,1,,,,,ワイズアップ,0
26,1010701045903,新規,0,2024-05-07,2024-05-07,株式会社Ｔｉｇｅｒ　Ｇｌｏｂａｌ,,株式会社,東京都,品川区,大崎２丁目９番１号,,13,109,1410032,,,,,,,2024-05-07,1,,,,,タイガーグローバル,0
27,1010701045928,新規,0,2024-05-07,2024-05-07,株式会社Ｎｅｘｔ　ｔｈｅ　ｏｎｅ,,株式会社,東京都,品川区,西五反田５丁目４番６号,,13,109,1410031,,,,,,,2024-05-07,1,,,,,ネクストザワン,0
34,1010803004947,新規,0,2024-05-07,2024-05-07,ＳＯＵＭＡ合同会社,,合同会社,東京都,大田区,南雪谷１丁目６番５号ジョイントファミーユＣ棟３０６,,13,111,1450066,,,,,,,2024-05-07,1,,,,,ソウマ,0
37,1010903009037,新規,0,2024-05-07,2024-05-07,合同会社Ａ．Ｂ．Ｍ,,合同会社,東京都,世田谷区,代沢５丁目３４－１４片桐ハイツ１０５号,,13,112,1550032,,,,,,,2024-05-07,1,,,,,エードットビードットエム,0
47,1011003019034,新規,0,2024-05-07,2024-05-07,合同会社ｔａｇ,,合同会社,東京都,渋谷区,渋谷２丁目１９－１５宮益坂ビルディング６０９,,13,113,1500002,,,,,,,2024-05-07,1,,,,,タグ,0
52,1011101107211,新規,0,2024-05-07,2024-05-07,株式会社ＬＵＣＫＹ,,株式会社,東京都,新宿区,水道町４番２９号,,13,104,1620811,,,,,,,2024-05-07,1,,,,,ラッキー,0
53,1011101107228,新規,0,2024-05-07,2024-05-07,株式会社コムネクスト,,株式会社,東京都,新宿区,西新宿３丁目３番１３号西新宿水間ビル２Ｆ,,13,104,1600023,,,,,,,2024-05-07,1,,,,,コムネクスト,0
56,1011103014372,新規,0,2024-05-07,2024-05-07,合同会社エムズエステートマネジメント,,合同会社,東京都,新宿区,西新宿３丁目３番１３号西新宿水間ビル６階,,13,104,1600023,,,,,,,2024-05-07,1,,,,,エムズエステートマネジメント,0
57,1011501030624,新規,0,2024-05-07,2024-05-07,株式会社まるがお,,株式会社,東京都,北区,赤羽１丁目７番９号赤羽第一葉山ビル４階,,13,117,1150045,,,,,,,2024-05-07,1,,,,,マルガオ,0
67,1011801044183,新規,0,2024-05-07,2024-05-07,株式会社フジメディウェル,,株式会社,東京都,足立区,舎人１丁目１８番２７号,,13,121,1210831,,,,,,,2024-05-07,1,,,,,フジメディウェル,0
68,1011803006215,新規,0,2024-05-07,2024-05-07,アトム不動産合同会社,,合同会社,東京都,足立区,一ツ家２丁目１０番１号,,13,121,1210075,,,,,,,2024-05-07,1,,,,,アトムフドウサン,0
69,1012401041835,新規,0,2024-05-07,2024-05-07,株式会社総建,,株式会社,東京都,調布市,上石原１丁目３９－４大槻ビル３０２,,13,208,1820035,,,,,,,2024-05-07,1,,,,,ソウケン,0
70,1012701018236,新規,0,2024-05-07,2024-05-07,株式会社Ａ‐ｐｒｏｖｅ,,株式会社,東京都,東村山市,野口町４丁目２番地５１,,13,213,1890022,,,,,,,2024-05-07,1,,,,,エープルーブ,0
71,1012701018244,新規,0,2024-05-07,2024-05-07,株式会社平本工務店,,株式会社,東京都,小平市,花小金井南町１丁目３番１１－Ｃ２４２号,,13,211,1870003,,,,,,,2024-05-07,1,,,,,ヒラモトコウムテン,0
80,1020001157010,新規,0,2024-05-07,2024-05-07,ニュー株式会社,,株式会社,神奈川県,川崎市川崎区,渡田山王町２８番１３号,,14,131,2100845,,,,,,,2024-05-07,1,,,,,ニュー,0
81,1020001157051,新規,0,2024-05-07,2024-05-07,株式会社カインドユニフォーム,,株式会社,神奈川県,横浜市西区,北幸２丁目１０番４８号,,14,103,2200004,,,,,,,2024-05-07,1,,,,,カインドユニフォーム,0
82,1020001157084,新規,0,2024-05-07,2024-05-07,猪又工業株式会社,,株式会社,神奈川県,横浜市鶴見区,岸谷３丁目２０番１５号,,14,101,2300078,,,,,,,2024-05-07,1,,,,,イノマタコウギョウ,0
94,1030001160137,新規,0,2024-05-07,2024-05-07,株式会社日本アチーヴ,,株式会社,埼玉県,入間市,大字下藤沢３３２番地１３２遠藤コーポ２Ｆ,,11,225,3580011,,,,,,,2024-05-07,1,,,,,ニホンアチーヴ,0
95,1030001160145,新規,0,2024-05-07,2024-05-07,株式会社Ｒｅｍｙｕ,,株式会社,埼玉県,さいたま市大宮区,寿能町１丁目１６番地７,,11,103,3300805,,,,,,,2024-05-07,1,,,,,レミュー,0
99,1030003024208,新規,0,2024-05-07,2024-05-07,合同会社Ａｓｃｅｎｔ,,合同会社,埼玉県,南埼玉郡宮代町,字山崎３３６－５,,11,442,3450824,,,,,,,2024-05-07,1,,,,,アセント,0
114,1040001133190,新規,0,2024-05-07,2024-05-07,株式会社ＩＴＯ電設,,株式会社,千葉県,船橋市,夏見６丁目５番２４号,,12,204,2730865,,,,,,,2024-05-07,1,,,,,アイティーオーデンセツ,0
115,1040001133315,新規,0,2024-05-07,2024-05-07,株式会社マルティグループ,,株式会社,千葉県,松戸市,胡録台３６３番地の７サニー松戸７１４号,,12,207,2710075,,,,,,,2024-05-07,1,,,,,マルティグループ,0
120,1060001037027,新規,0,2024-05-07,2024-05-07,株式会社マルハシ,,株式会社,栃木県,宇都宮市,松原１丁目４番８号ドミール松原７０２,,09,201,3200041,,,,,,,2024-05-07,1,,,,,マルハシ,0
121,1060001037076,新規,0,2024-05-07,2024-05-07,ワイ・スター株式会社,,株式会社,栃木県,宇都宮市,インターパーク３丁目１１番地２ライズ・プラミネントＣ２０１,,09,201,3210118,,,,,,,2024-05-07,1,,,,,ワイスター,0
130,1080401027162,新規,0,2024-05-07,2024-05-07,Ｏａｋ　Ｖｏｉｃｅ株式会社,,株式会社,静岡県,浜松市中央区,鍛冶町１００番地の１１ザザシティ浜松中央館Ｂ１Ｆ,,22,138,4300933,,,,,,,2024-05-07,1,,,,,オークボイス,0
131,1090001018684,新規,0,2024-05-07,2024-05-07,ａ２４．株式会社,,株式会社,山梨県,甲府市,羽黒町１２４１番地２２,,19,201,4000071,,,,,,,2024-05-07,1,,,,,アトゥエンティーフォー,0
132,1090003002554,新規,0,2024-05-07,2024-05-07,ＧＬＤ合同会社,,合同会社,山梨県,甲斐市,竜王１３９９番地２,,19,210,4000118,,,,,,,2024-05-07,1,,,,,ジーエルディ,0
134,1100003007543,新規,0,2024-05-07,2024-05-07,合同会社Ｎ．,,合同会社,長野県,佐久市,高柳６６－８,,20,217,3850042,,,,,,,2024-05-07,1,,,,,エヌドット,0
137,1110001038390,新規,0,2024-05-07,2024-05-07,株式会社盛世産業,,株式会社,新潟県,上越市,大字寺５７４番地１２－２Ｆ,,15,222,9430166,,,,,,,2024-05-07,1,,,,,モリヨサンギョウ,0
140,1110003005380,新規,0,2024-05-07,2024-05-07,合同会社ライフサポート,,合同会社,新潟県,燕市,灰方３７４番地４,,15,213,9591201,,,,,,,2024-05-07,1,,,,,ライフサポート,0
153,1120001264572,新規,0,2024-05-07,2024-05-07,株式会社ＨＩＭＥ,,株式会社,大阪府,大阪市天王寺区,松ケ鼻町１０番７号２０３号室,,27,109,5430034,,,,,,,2024-05-07,1,,,,,ヒメ,0
154,1120001264580,新規,0,2024-05-07,2024-05-07,幸進Ｇｒｏｕｐ株式会社,,株式会社,大阪府,大阪市平野区,平野東１丁目７番１号,,27,126,5470043,,,,,,,2024-05-07,1,,,,,コウシングループ,0
155,1120001264630,新規,0,2024-05-07,2024-05-07,株式会社ＫＡＰＩＫＵＮ,,株式会社,大阪府,大阪市東淀川区,小松４丁目１６番４５号グランドハイツ小松３０１号室,,27,114,5330004,,,,,,,2024-05-07,1,,,,,カピクン,0
157,1120003026509,新規,0,2024-05-07,2024-05-07,合同会社リコッテ,,合同会社,大阪府,大阪市城東区,鴫野西１丁目１３番４号,,27,118,5360014,,,,,,,2024-05-07,1,,,,,リコッテ,0
158,1120101069517,新規,0,2024-05-07,2024-05-07,株式会社ハナマル商会,,株式会社,大阪府,泉佐野市,中庄９２４－１,,27,213,5980002,,,,,,,2024-05-07,1,,,,,ハナマルショウカイ,0
159,1120101069541,新規,0,2024-05-07,2024-05-07,ひかりグループ株式会社,,株式会社,大阪府,堺市北区,百舌鳥梅北町３丁１２５番地５５,,27,146,5918031,,,,,,,2024-05-07,1,,,,,ヒカリグループ,0
162,1120103005809,新規,0,2024-05-07,2024-05-07,合同会社ＮＫコネクト,,合同会社,大阪府,富田林市,錦織中２丁目４番１２号,,27,214,5840068,,,,,,,2024-05-07,1,,,,,エヌケーコネクト,0
166,1130003009529,新規,0,2024-05-07,2024-05-07,合同会社Ａｃｅ,,合同会社,京都府,京都市右京区,西京極浜ノ本町４６番地６,,26,108,6150873,,,,,,,2024-05-07,1,,,,,エース,0
180,1160001025888,新規,0,2024-05-07,2024-05-07,株式会社ＬＩＢＲＥ,,株式会社,滋賀県,彦根市,松原町１７５７－２０,,25,202,5220002,,,,,,,2024-05-07,1,,,,,リブレ,0
181,1160001025896,新規,0,2024-05-07,2024-05-07,株式会社ＲＩＶＥＲＴＨ,,株式会社,滋賀県,大津市,際川３丁目２５番３３号,,25,201,5200002,,,,,,,2024-05-07,1,,,,,リバース,0
182,1170001018123,新規,0,2024-05-07,2024-05-07,ＲＳＴ株式会社,,株式会社,和歌山県,紀の川市,中井阪６９番地７－１０２,,30,208,6496425,,,,,,,2024-05-07,1,,,,,アールエスティ,0
190,1180001161228,新規,0,2024-05-07,2024-05-07,株式会社カワショー,,株式会社,愛知県,東海市,荒尾町奥油田８番地の７,,23,222,4760003,,,,,,,2024-05-07,1,,,,,カワショー,0
191,1180001161244,新規,0,2024-05-07,2024-05-07,株式会社Ｋ．Ｒ,,株式会社,愛知県,名古屋市熱田区,外土居町９番３７号,,23,109,4560013,,,,,,,2024-05-07,1,,,,,ケーアール,0
192,1180001161335,新規,0,2024-05-07,2024-05-07,株式会社Ｚ‐ＲＵＮ空調,,株式会社,愛知県,名古屋市北区,丸新町４３４番地,,23,103,4620063,,,,,,,2024-05-07,1,,,,,ゼットランクウチョウ,0
199,1180003026718,新規,0,2024-05-07,2024-05-07,ＹＵＭＩ　ＤＲＥＡＭ合同会社,,合同会社,愛知県,半田市,妙見町８０番地,,23,205,4750883,,,,,,,2024-05-07,1,,,,,ユミドリーム,0
200,1180003026767,新規,0,2024-05-07,2024-05-07,Ｋｕｒｏｋｏｍｉ合同会社,,合同会社,愛知県,江南市,古知野町北屋敷６２,,23,217,4838272,,,,,,,2024-05-07,1,,,,,クロコミ,0
211,1190001031314,新規,0,2024-05-07,2024-05-07,株式会社ＣＡＲ’ｓ　ＣＲＡＦＴ,,株式会社,三重県,松阪市,上川町２７３９番地４０,,24,204,5150041,,,,,,,2024-05-07,1,,,,,カーズクラフト,0
212,1190001031322,新規,0,2024-05-07,2024-05-07,株式会社米澤通信,,株式会社,三重県,三重郡川越町,大字南福崎６９１番地７,,24,344,5108124,,,,,,,2024-05-07,1,,,,,ヨネザワツウシン,0
217,1200001042482,新規,0,2024-05-07,2024-05-07,株式会社ＧＯＡＴ,,株式会社,岐阜県,羽島郡笠松町,田代字神明４０２番地１,,21,303,5016062,,,,,,,2024-05-07,1,,,,,ゴート,0
220,1200003006329,新規,0,2024-05-07,2024-05-07,合同会社瀬古組,,合同会社,岐阜県,羽島市,舟橋町５丁目４０番地,,21,209,5016302,,,,,,,2024-05-07,1,,,,,セコグミ,0
222,1220001025989,新規,0,2024-05-07,2024-05-07,ＮＩＤ株式会社,,株式会社,石川県,金沢市,西泉１丁目８番地,,17,201,9218043,,,,,,,2024-05-07,1,,,,,エヌアイディー,0
229,1240001063161,新規,0,2024-05-07,2024-05-07,株式会社パーソンエージェント,,株式会社,広島県,廿日市市,佐方４丁目９番３号,,34,213,7380001,,,,,,,2024-05-07,1,,,,,パーソンエージェント,0
232,1240003006647,新規,0,2024-05-07,2024-05-07,ｍａａｓ合同会社,,合同会社,広島県,広島市安佐南区,長束３丁目２２番２号,,34,105,7310135,,,,,,,2024-05-07,1,,,,,マース,0
235,1250003003494,新規,0,2024-05-07,2024-05-07,合同会社ＢＡＵＭ,,合同会社,山口県,光市,大字立野１３９９番１１,,35,210,7430062,,,,,,,2024-05-07,1,,,,,バウム,0
240,1260001039036,新規,0,2024-05-07,2024-05-07,株式会社ＩＫＥＤＡ,,株式会社,岡山県,岡山市南区,福島３丁目１０番８号１０３,,33,104,7028044,,,,,,,2024-05-07,1,,,,,イケダ,0
244,1260003004673,新規,0,2024-05-07,2024-05-07,アングルワン合同会社,,合同会社,岡山県,岡山市北区,伊島町１丁目８－６カーサ・サンエスミ１０１,,33,101,7000016,,,,,,,2024-05-07,1,,,,,アングルワン,0
250,1290001105520,新規,0,2024-05-07,2024-05-07,三四五株式会社,,株式会社,福岡県,福岡市西区,愛宕浜２丁目３番５－７０６号リベーラガーデンＥ棟,,40,135,8190013,,,,,,,2024-05-07,1,,,,,サシゴ,0
251,1290001105553,新規,0,2024-05-07,2024-05-07,２Ｄ株式会社,,株式会社,福岡県,嘉麻市,西郷８４５番地１,,40,227,8200505,,,,,,,2024-05-07,1,,,,,ニディー,0
258,1290801030538,新規,0,2024-05-07,2024-05-07,株式会社にたはら,,株式会社,福岡県,北九州市門司区,黄金町２番１７号,,40,101,8000027,,,,,,,2024-05-07,1,,,,,ニタハラ,0
265,1330001032025,新規,0,2024-05-07,2024-05-07,株式会社ｋｕ‐ｌｉａ,,株式会社,熊本県,八代市,田中町１９番地１１,,43,202,8660872,,,,,,,2024-05-07,1,,,,,クーリア,0
266,1330001032033,新規,0,2024-05-07,2024-05-07,株式会社副島建設,,株式会社,熊本県,上益城郡甲佐町,大字田口１１６０番地,,43,444,8614616,,,,,,,2024-05-07,1,,,,,ソエジマケンセツ,0
271,1340001026447,新規,0,2024-05-07,2024-05-07,ＴＫ　Ｍｏｖｅ株式会社,,株式会社,鹿児島県,薩摩川内市,永利町２５５０番地２,,46,215,8950005,,,,,,,2024-05-07,1,,,,,ティーケームーブ,0
272,1340001026488,新規,0,2024-05-07,2024-05-07,株式会社下田電工,,株式会社,鹿児島県,指宿市,湊４丁目３番２７号,,46,210,8910405,,,,,,,2024-05-07,1,,,,,シモダデンコウ,0
276,1340005009729,新規,0,2024-05-07,2024-05-07,一般社団法人元気Ｌａｂｏ心愛,,その他の設立登記法人,鹿児島県,鹿児島市,東谷山２丁目１３番１１号,,46,201,8910113,,,,,,,2024-05-07,1,,,,,ゲンキラボコア,0
277,1360001033598,新規,0,2024-05-07,2024-05-07,あぐーおじいの店株式会社,,株式会社,沖縄県,那覇市,東町２０番１２号,,47,201,9000034,,,,,,,2024-05-07,1,,,,,アグーオジイノミセ,0
278,1360001033615,新規,0,2024-05-07,2024-05-07,株式会社ＳＫＷ,,株式会社,沖縄県,那覇市,銘苅１丁目９番３号,,47,201,9000004,,,,,,,2024-05-07,1,,,,,エスケイダブリュ,0
281,1360003013945,新規,0,2024-05-07,2024-05-07,合同会社屋嘉比工業,,合同会社,沖縄県,沖縄市,高原２丁目５番１３号,,47,211,9042171,,,,,,,2024-05-07,1,,,,,ヤカビコウギョウ,0
282,1360003013961,新規,0,2024-05-07,2024-05-07,アセットトレード合同会社,,合同会社,沖縄県,宮古島市,平良字狩俣４１１３番地３ハーティス狩俣２０１号室,,47,214,9060002,,,,,,,2024-05-07,1,,,,,アセットトレード,0
285,1370003006592,新規,0,2024-05-07,2024-05-07,合同会社ソーシャルプロジェクト,,合同会社,宮城県,塩竈市,尾島町１９番４号丸山ビル２階,,04,203,9850021,,,,,,,2024-05-07,1,,,,,ソーシャルプロジェクト,0
286,1370005010782,新規,0,2024-05-07,2024-05-07,一般社団法人ＷａｎｄｅＲｅｒ,,その他の設立登記法人,宮城県,仙台市宮城野区,新田１丁目４番５１号東仙荘６号室,,04,102,9830038,,,,,,,2024-05-07,1,,,,,ワンダラー,0
304,1460101007541,新規,0,2024-05-07,2024-05-07,株式会社ｉ‐Ｇｒｅｅｎｓ,,株式会社,北海道,河東郡音更町,共栄台東１２丁目３番地９,,01,631,0800315,,,,,,,2024-05-07,1,,,,,アイグリーンズ,0
305,1460105002290,新規,0,2024-05-07,2024-05-07,一般社団法人ねづく,,その他の設立登記法人,北海道,河東郡上士幌町,字上士幌東３線２３５番地２１７,,01,633,0801408,,,,,,,2024-05-07,1,,,,,ネヅク,0
311,1490001010758,新規,0,2024-05-07,2024-05-07,株式会社テナンズ,,株式会社,高知県,安芸市,川北甲１６１２番地,,39,203,7840043,,,,,,,2024-05-07,1,,,,,テナンズ,0
315,1500003003238,新規,0,2024-05-07,2024-05-07,合同会社浮波月,,合同会社,愛媛県,八幡浜市,字川通１４６９番地１１,,38,204,7960088,,,,,,,2024-05-07,1,,,,,フナツキ,0
316,1700150124056,新規,0,2024-05-07,2024-05-07,Ｉ－ＣＨＥＭＩＣＡＬ　ＩＮＴＥＲＮＡＴＩＯＮＡＬ　ＬＩＭＩＴＥＤ,,外国会社等,,,,,,,,ＲＭ　Ａ　６Ｆ　ＰＡＬＡＴＩＡＬ　ＣＲＥＳＴ　３　ＳＥＹＭＯＵＲ　ＲＯＡＤ　ＭＩＤ　ＬＥＶＥＬ,,,,,,2024-05-07,1,,,,,アイケミカルインターナシヨナルリミテツド,0
317,1700150125178,新規,0,2024-05-07,2024-05-07,Ｇｒａｖｉｔｙ　Ｍｅｄｉａ（ＵＫ．）Ｌｔｄ,,外国会社等,,,,,,,,３２－３４　Ｇｒｅｅｎｈｉｌｌ　Ｃｒｅｓｃｅｎｔ，Ｗａｔｆｏｒｄ，Ｈｅｒｔｆｏｒｄｓｈｉｒｅ，ＷＤ１８　８ＪＵ，ＵＮＩＴＥＤ　ＫＩＮＧＤＯＭ,,,,,,2024-05-07,1,,,,,グラヴイテイメデイアユーケーリミテツド,0
323,2010001243990,新規,0,2024-05-07,2024-05-07,株式会社ＫｅｎＲｉ,,株式会社,東京都,中央区,銀座１丁目２２番１１号銀座大竹ビジデンス２Ｆ,,13,102,1040061,,,,,,,2024-05-07,1,,,,,ケンリ,0
324,2010001244312,新規,0,2024-05-07,2024-05-07,ふぶ株式会社,,株式会社,東京都,千代田区,神田錦町３丁目７番２号東京堂錦町ビルディング９０４号,,13,101,1010054,,,,,,,2024-05-07,1,,,,,フブ,0
325,2010001244543,新規,0,2024-05-07,2024-05-07,株式会社クレイ,,株式会社,東京都,千代田区,麹町４丁目３番地５Ｋｉｏｉｃｈｏ４３５－７Ｆ,,13,101,1020083,,,,,,,2024-05-07,1,,,,,クレイ,0
326,2010001244551,新規,0,2024-05-07,2024-05-07,Ｈｏｄｅｓ　Ｗｅｉｌｌ　Ｊａｐａｎ株式会社,,株式会社,東京都,千代田区,霞が関３丁目２番６号東京倶楽部ビルディング１１階,,13,101,1000013,,,,,,,2024-05-07,1,,,,,ホッジズワイルジャパン,0
327,2010001244592,新規,0,2024-05-07,2024-05-07,株式会社９０９,,株式会社,東京都,中央区,銀座６丁目１０番１号ＧＩＮＺＡＳＩＸ１３Ｆ,,13,102,1040061,,,,,,,2024-05-07,1,,,,,キューマルキュー,0
332,2010003043638,新規,0,2024-05-07,2024-05-07,合同会社コーナーフィールド,,合同会社,東京都,中央区,日本橋浜町２丁目４２番８－９０４号,,13,102,1030007,,,,,,,2024-05-07,1,,,,,コーナーフィールド,0
333,2010005038256,新規,0,2024-05-07,2024-05-07,弁護士法人シン・イストワール,,その他の設立登記法人,東京都,千代田区,平河町２丁目４番１３号,,13,101,1020093,,,,,,,2024-05-07,1,,,,,シンイストワール,0
334,2010101016124,新規,0,2024-05-07,2024-05-07,沢田空設株式会社,,株式会社,東京都,八王子市,下柚木１４番地３,,13,201,1920372,,,,,,,2024-05-07,1,,,,,サワダクウセツ,0
340,2010403032554,新規,0,2024-05-07,2024-05-07,Ｂｏｍｂｉｅ　Ｐｒｏｄｕｃｔｉｏｎｓ合同会社,,合同会社,東京都,港区,元麻布３丁目１番６号ブリンク六本木１３号室,,13,103,1060046,,,,,,,2024-05-07,1,,,,,ボムビィプロダクションズ,0
342,2010405023221,新規,0,2024-05-07,2024-05-07,一般社団法人シャクヤク,,その他の設立登記法人,東京都,港区,西新橋１丁目１番１号ＥＰコンサルティングサービス内,,13,103,1050003,,,,,,,2024-05-07,1,,,,,シャクヤク,0
347,2010601065125,新規,0,2024-05-07,2024-05-07,株式会社シス,,株式会社,東京都,墨田区,業平２丁目２番１０号,,13,107,1300002,,,,,,,2024-05-07,1,,,,,シス,0
348,2010601065141,新規,0,2024-05-07,2024-05-07,株式会社Ｃｏｌｏｒｉｓ,,株式会社,東京都,江東区,東陽５丁目３１番１２－５０４号,,13,108,1350016,,,,,,,2024-05-07,1,,,,,クロリ,0
356,2010901055172,新規,0,2024-05-07,2024-05-07,Ｓ．Ｔ．Ｒｅａｌ　Ｅｓｔａｔｅ株式会社,,株式会社,東京都,世田谷区,太子堂５丁目２１番４号,,13,112,1540004,,,,,,,2024-05-07,1,,,,,エスティーリアルエステート,0
357,2010901055214,新規,0,2024-05-07,2024-05-07,株式会社ｄａｎ,,株式会社,東京都,世田谷区,太子堂１丁目１２番３８－８０２号,,13,112,1540004,,,,,,,2024-05-07,1,,,,,ダン,0
361,2011003019000,新規,0,2024-05-07,2024-05-07,カミーズ合同会社,,合同会社,東京都,渋谷区,恵比寿西２丁目８番４号ＥＸ恵比寿西ビル５階,,13,113,1500021,,,,,,,2024-05-07,1,,,,,カミーズ,0
363,2011101107219,新規,0,2024-05-07,2024-05-07,株式会社ＳＥＲＥＡゲイ能事務所,,株式会社,東京都,新宿区,西新宿３丁目３番１３号西新宿水間ビル２Ｆ,,13,104,1600023,,,,,,,2024-05-07,1,,,,,セレアゲイノウジムショ,0
364,2011103014388,新規,0,2024-05-07,2024-05-07,クエスト合同会社,,合同会社,東京都,新宿区,西新宿３丁目３番１３号西新宿水間ビル６階,,13,104,1600023,,,,,,,2024-05-07,1,,,,,クエスト,0
367,2011201025444,新規,0,2024-05-07,2024-05-07,株式会社スパイス,,株式会社,東京都,中野区,本町４丁目２９番８号,,13,114,1640012,,,,,,,2024-05-07,1,,,,,スパイス,0
371,2011401026044,新規,0,2024-05-07,2024-05-07,星輪株式会社,,株式会社,東京都,板橋区,板橋２丁目６３－４グローリア初穂板橋５０１ＥａｓｙＯｆｆｉｃｅ,,13,119,1730004,,,,,,,2024-05-07,1,,,,,セイリン,0
374,2011801044174,新規,0,2024-05-07,2024-05-07,株式会社ＫＴ‐ＣＲＡＦＴ,,株式会社,東京都,足立区,舎人４丁目８番１５号パイシーズＡ２０１,,13,121,1210831,,,,,,,2024-05-07,1,,,,,ケイティークラフト,0
378,2012801023143,新規,0,2024-05-07,2024-05-07,株式会社とーてむ,,株式会社,東京都,国分寺市,本町２丁目１０番５号プラザ国分寺２階,,13,214,1850012,,,,,,,2024-05-07,1,,,,,トーテム,0
391,2020001157050,新規,0,2024-05-07,2024-05-07,株式会社リンクス,,株式会社,神奈川県,横浜市港北区,新横浜３丁目１番地２ＬＡ．ＰＲＹＬＥ新横浜１０１８号室,,14,109,2220033,,,,,,,2024-05-07,1,,,,,リンクス,0
399,2020003026039,新規,0,2024-05-07,2024-05-07,合同会社モノプロ,,合同会社,神奈川県,川崎市川崎区,小田栄２丁目１番５－１３０３号アイランドブリーズ,,14,131,2100843,,,,,,,2024-05-07,1,,,,,モノプロ,0
402,2021001082164,新規,0,2024-05-07,2024-05-07,株式会社シー・コンテナ,,株式会社,神奈川県,鎌倉市,七里ガ浜２丁目１７番９号東洋ハイム４０１,,14,204,2480026,,,,,,,2024-05-07,1,,,,,シーコンテナ,0
405,2030001160152,新規,0,2024-05-07,2024-05-07,株式会社ＣＫＡ,,株式会社,埼玉県,草加市,新栄１丁目４７番地９,,11,221,3400056,,,,,,,2024-05-07,1,,,,,シーケーエー,0
411,2030003024215,新規,0,2024-05-07,2024-05-07,Ｋｉｎａｃｏ合同会社,,合同会社,埼玉県,さいたま市西区,西大宮３丁目５３番地３６,,11,101,3310078,,,,,,,2024-05-07,1,,,,,キナコ,0
412,2030003024231,新規,0,2024-05-07,2024-05-07,合同会社ＴＫＲ,,合同会社,埼玉県,蕨市,中央３丁目１４番１３号サクラコート２０１号室,,11,223,3350004,,,,,,,2024-05-07,1,,,,,ティーケイアール,0
424,2060001037050,新規,0,2024-05-07,2024-05-07,株式会社トラスト,,株式会社,栃木県,那須塩原市,一区町２８１番地４１５,,09,213,3292732,,,,,,,2024-05-07,1,,,,,トラスト,0
425,2060003005063,新規,0,2024-05-07,2024-05-07,合同会社いちゃりば栃木・沖縄,,合同会社,栃木県,塩谷郡高根沢町,大字石末２０３１番地,,09,386,3291225,,,,,,,2024-05-07,1,,,,,イチャリバトチギオキナワ,0
429,2070001041596,新規,0,2024-05-07,2024-05-07,株式会社ユニオン,,株式会社,群馬県,桐生市,広沢町５丁目１４０６番地の１５,,10,203,3760013,,,,,,,2024-05-07,1,,,,,ユニオン,0
430,2070001041695,新規,0,2024-05-07,2024-05-07,オートホーム株式会社,,株式会社,群馬県,伊勢崎市,波志江町１９２４番地５,,10,204,3720001,,,,,,,2024-05-07,1,,,,,オートホーム,0
433,2080001009601,新規,0,2024-05-07,2024-05-07,株式会社カンキョウ科研,,株式会社,静岡県,静岡市駿河区,泉町４番２６号,,22,102,4228066,,,,,,,2024-05-07,1,,,,,,0
438,2080401027161,新規,0,2024-05-07,2024-05-07,株式会社Ｃｕｅ,,株式会社,静岡県,掛川市,上張９４３番地,,22,213,4360022,,,,,,,2024-05-07,1,,,,,キュー,0
456,2120001264621,新規,0,2024-05-07,2024-05-07,株式会社なかよし,,株式会社,大阪府,大阪市東住吉区,駒川２丁目４番３号,,27,121,5460043,,,,,,,2024-05-07,1,,,,,ナカヨシ,0
458,2120003026508,新規,0,2024-05-07,2024-05-07,合同会社愛正,,合同会社,大阪府,大阪市北区,梅田１丁目２番２号大阪駅前第２ビル１２－１２,,27,127,5300001,,,,,,,2024-05-07,1,,,,,アイセイ,0
459,2120003026516,新規,0,2024-05-07,2024-05-07,合同会社ＣＨＩＥ‐ＳＴＹＬＩＮＧ,,合同会社,大阪府,大阪市住吉区,清水丘３丁目１４番１７－８１１号,,27,120,5580033,,,,,,,2024-05-07,1,,,,,チエスタイリング,0
460,2120003026524,新規,0,2024-05-07,2024-05-07,合同会社イヤサカ,,合同会社,大阪府,大阪市西区,新町１丁目３番２０号,,27,106,5500013,,,,,,,2024-05-07,1,,,,,イヤサカ,0
461,2120101069549,新規,0,2024-05-07,2024-05-07,株式会社ｎｅｘｔ．Ｋ,,株式会社,大阪府,和泉市,桑原町２７９番地の２第１泉洋ビル３０６,,27,219,5940066,,,,,,,2024-05-07,1,,,,,ネクストケイ,0
465,2120901049114,新規,0,2024-05-07,2024-05-07,株式会社グリーン,,株式会社,大阪府,高槻市,富田丘町４４番１号,,27,207,5691145,,,,,,,2024-05-07,1,,,,,グリーン,0
466,2120901049130,新規,0,2024-05-07,2024-05-07,株式会社石井設備,,株式会社,大阪府,吹田市,川岸町２番６－３号,,27,205,5640037,,,,,,,2024-05-07,1,,,,,イシイセツビ,0
467,2120903005156,新規,0,2024-05-07,2024-05-07,ＥＮＮＥ　ｌｉｆｅｍａｎａｇｅｍｅｎｔ合同会社,,合同会社,大阪府,茨木市,中穂積３丁目１６番１７－２１６号,,27,211,5670034,,,,,,,2024-05-07,1,,,,,エンネライフマネージメンント,0
472,2122001038039,新規,0,2024-05-07,2024-05-07,みのる経営株式会社,,株式会社,大阪府,東大阪市,岩田町５丁目１７－１９,,27,227,5780941,,,,,,,2024-05-07,1,,,,,ミノルケイエイ,0
473,2122001038071,新規,0,2024-05-07,2024-05-07,星斗建設株式会社,,株式会社,大阪府,東大阪市,新庄２丁目８番１９号,,27,227,5780963,,,,,,,2024-05-07,1,,,,,セイトケンセツ,0
474,2122003002876,新規,0,2024-05-07,2024-05-07,合同会社ＧＯ,,合同会社,大阪府,八尾市,桜ヶ丘１丁目１０９番地,,27,212,5810869,,,,,,,2024-05-07,1,,,,,ゴー,0
476,2130001076974,新規,0,2024-05-07,2024-05-07,ＴＯＫＵ株式会社,,株式会社,京都府,京都市上京区,五辻通六軒町西入溝前町１０８番地４,00134625,26,102,6028319,,,,,,,2024-05-07,1,,,,,トク,0
477,2130001076982,新規,0,2024-05-07,2024-05-07,株式会社北陸ＧＨ,,株式会社,京都府,京都市南区,吉祥院西ノ庄西中町１番地,,26,107,6018303,,,,,,,2024-05-07,1,,,,,ホクリクジーエイチ,0
478,2130003009536,新規,0,2024-05-07,2024-05-07,合同会社ラヴィット,,合同会社,京都府,京都市右京区,太秦堀ケ内町３３番地２８,,26,108,6168152,,,,,,,2024-05-07,1,,,,,ラヴィット,0
483,2140001134277,新規,0,2024-05-07,2024-05-07,兵庫ウイングス株式会社,,株式会社,兵庫県,神戸市西区,神出町北宮垣内４８４番地の２,,28,111,6512332,,,,,,,2024-05-07,1,,,,,,0
484,2140001134285,新規,0,2024-05-07,2024-05-07,株式会社Ｏｕｒｏｂｏｒｏｓ,,株式会社,兵庫県,神戸市北区,有野町唐櫃２０８７－１８,,28,109,6511331,,,,,,,2024-05-07,1,,,,,ウロボロス,0
487,2140003020500,新規,0,2024-05-07,2024-05-07,ＺＡＭＡＮ　Ｃｏｒｐｏｒａｔｉｏｎ合同会社,,合同会社,兵庫県,神戸市長田区,雲雀ヶ丘３丁目６－３ヴィラナリー雲雀ケ丘３号棟２０７号室,,28,106,6530879,,,,,,,2024-05-07,1,,,,,ザマンコーポレーション,0
488,2140003020517,新規,0,2024-05-07,2024-05-07,Ｆｕｎｄａｍｅｎｔａｌ　Ｓｔｕｄｉｏ合同会社,,合同会社,兵庫県,神戸市東灘区,御影中町１丁目９番１号４階,,28,101,6580054,,,,,,,2024-05-07,1,,,,,ファンダメンタルスタジオ,0
489,2140005027072,新規,0,2024-05-07,2024-05-07,特定非営利活動法人ＯＤＡ未来クラブ,,その他の設立登記法人,兵庫県,尼崎市,塚口本町２丁目４番１７号,,28,202,6610001,,,,,,,2024-05-07,1,,,,,オーディーエイミライクラブ,0
493,2160001025895,新規,0,2024-05-07,2024-05-07,株式会社ＳＫ塗装,,株式会社,滋賀県,東近江市,小倉町１６９３,,25,213,5270165,,,,,,,2024-05-07,1,,,,,エスケートソウ,0
494,2160003003180,新規,0,2024-05-07,2024-05-07,合同会社ＡＬＥＳ,,合同会社,滋賀県,大津市,比叡辻１丁目２９－４１－２０６号,00134626,25,201,5200104,,,,,,,2024-05-07,1,,,,,アレス,0
502,2180001161268,新規,0,2024-05-07,2024-05-07,株式会社Ｆ,,株式会社,愛知県,知多市,西巽が丘１丁目１０－５,,23,224,4780014,,,,,,,2024-05-07,1,,,,,エフ,0
503,2180001161284,新規,0,2024-05-07,2024-05-07,株式会社さんぽう,,株式会社,愛知県,小牧市,小牧４丁目６２８番地,,23,219,4850041,,,,,,,2024-05-07,1,,,,,サンポウ,0
506,2180003026758,新規,0,2024-05-07,2024-05-07,合同会社オレンジ,,合同会社,愛知県,一宮市,向山町２丁目２２番地１,,23,203,4910869,,,,,,,2024-05-07,1,,,,,オレンジ,0
510,2180301038604,新規,0,2024-05-07,2024-05-07,株式会社ＷＩＲＩＰ,,株式会社,愛知県,岡崎市,庄司田２丁目１３－１８アンジェリーク１０１,,23,202,4440821,,,,,,,2024-05-07,1,,,,,ウィリップ,0
511,2180303006113,新規,0,2024-05-07,2024-05-07,合同会社遠藤創建,,合同会社,愛知県,豊田市,喜多町３丁目１０４番地,,23,211,4710027,,,,,,,2024-05-07,1,,,,,エンドウソウケン,0
512,2190001031313,新規,0,2024-05-07,2024-05-07,株式会社ＢＡＬＨ,,株式会社,三重県,津市,久居明神町２５１４番地１明神ハイツ１０３,,24,201,5141101,,,,,,,2024-05-07,1,,,,,バル,0
515,2200001042457,新規,0,2024-05-07,2024-05-07,株式会社Ｋワーク,,株式会社,岐阜県,羽島市,竹鼻町狐穴５５０番地５,,21,209,5016232,,,,,,,2024-05-07,1,,,,,ケーワーク,0
519,2220001025988,新規,0,2024-05-07,2024-05-07,株式会社高野企画コーポレーション,00134628,株式会社,石川県,金沢市,米泉町９丁目１７番地２,,17,201,9218044,,,,,,,2024-05-07,1,,,,,タカノキカクコーポレーション,0
524,2240003006654,新規,0,2024-05-07,2024-05-07,合同会社ＦｕｓｉｏｎＴｒａｄｅＣｏ．,,合同会社,広島県,廿日市市,四季が丘５丁目８番地３,,34,213,7380036,,,,,,,2024-05-07,1,,,,,フュージョントレードカンパニー,0
529,2260001039019,新規,0,2024-05-07,2024-05-07,９６株式会社,,株式会社,岡山県,倉敷市,中島１４６３番地１,,33,202,7100803,,,,,,,2024-05-07,1,,,,,クロ,0
530,2260003004672,新規,0,2024-05-07,2024-05-07,合同会社山舩,,合同会社,岡山県,岡山市中区,湊３４２番地１８,,33,102,7038266,,,,,,,2024-05-07,1,,,,,ヤマフネ,0
531,2270001008971,新規,0,2024-05-07,2024-05-07,株式会社イズミ,,株式会社,鳥取県,米子市,泉９番地１,,31,202,6893512,,,,,,,2024-05-07,1,,,,,イズミ,0
533,2280001009176,新規,0,2024-05-07,2024-05-07,株式会社ＢｕｚｚｅｒＢｅａｔ,,株式会社,島根県,雲南市,大東町新庄６７２番地４,,32,209,6991251,,,,,,,2024-05-07,1,,,,,ブザービート,0
535,2290001105569,新規,0,2024-05-07,2024-05-07,株式会社＿豪産業,00134622,株式会社,福岡県,福岡市東区,多々良１丁目２９番１３－１号,,40,131,8130033,,,,,,,2024-05-07,1,,,,,キゴウサンギョウ,0
536,2290001105577,新規,0,2024-05-07,2024-05-07,株式会社Ｗｉｌｌ　ｂｅ　ｆｕｎ,,株式会社,福岡県,福岡市中央区,舞鶴３丁目３番１３－５０２号,,40,133,8100073,,,,,,,2024-05-07,1,,,,,ウイルビーファン,0
537,2290001105684,新規,0,2024-05-07,2024-05-07,グローバル株式会社,,株式会社,福岡県,朝倉市,三奈木２７７９番地４,,40,228,8380023,,,,,,,2024-05-07,1,,,,,グローバル,0
541,2290801030537,新規,0,2024-05-07,2024-05-07,株式会社さくら電工,,株式会社,福岡県,北九州市小倉南区,八幡町２９番１０－１０１号,,40,107,8020805,,,,,,,2024-05-07,1,,,,,サクラデンコウ,0
542,2290801030545,新規,0,2024-05-07,2024-05-07,株式会社Ｒｏｙａｌ　Ｌａｂｏ,,株式会社,福岡県,田川郡赤村,大字内田１０３５番地１,,40,609,8240432,,,,,,,2024-05-07,1,,,,,ロイヤルラボ,0
543,2290803004712,新規,0,2024-05-07,2024-05-07,ｉｓｈｔｏｒｉ合同会社,,合同会社,福岡県,北九州市小倉北区,熊谷１丁目７番５号,,40,106,8030864,,,,,,,2024-05-07,1,,,,,イシュトリ,0
546,2300001013720,新規,0,2024-05-07,2024-05-07,株式会社ヒダカ建設,,株式会社,佐賀県,武雄市,北方町大字大崎１４６３番地１０,,41,206,8492204,,,,,,,2024-05-07,1,,,,,ヒダカケンセツ,0
547,2310001018999,新規,0,2024-05-07,2024-05-07,メタル株式会社,,株式会社,長崎県,対馬市,美津島町鷄知乙８７３番地２,00134636,42,209,8170000,,,,,,,2024-05-07,1,,,,,メタル,0
548,2310005008765,新規,0,2024-05-07,2024-05-07,一般社団法人長崎ライフオブアニマル,,その他の設立登記法人,長崎県,諫早市,飯盛町平古場１９０９番地１,,42,204,8541111,,,,,,,2024-05-07,1,,,,,ナガサキライフオブアニマル,0
559,2340003004466,新規,0,2024-05-07,2024-05-07,合同会社正貴産業,,合同会社,鹿児島県,鹿児島市,吉野町９６８５番地１１南州フォートＢ．Ｃ,,46,201,8920871,,,,,,,2024-05-07,1,,,,,ショウキサンギョウ,0
561,2360001033597,新規,0,2024-05-07,2024-05-07,株式会社飛信開発,,株式会社,沖縄県,うるま市,字兼箇段１５０９番地１１,,47,213,9042241,,,,,,,2024-05-07,1,,,,,トビシンカイハツ,0
565,2370001051251,新規,0,2024-05-07,2024-05-07,株式会社ＭＡ８ＮＦＴ企画,,株式会社,宮城県,仙台市青葉区,大町２丁目９番８－９０６号,,04,101,9800804,,,,,,,2024-05-07,1,,,,,エムエーエイトエヌエフティーキカク,0
568,2380001034528,新規,0,2024-05-07,2024-05-07,株式会社ｋｏｎｏｈａｎａ,,株式会社,福島県,双葉郡大熊町,大字下野上字清水２３０番地,,07,545,9791308,,,,,,,2024-05-07,1,,,,,コノハナ,0
575,2420001018708,新規,0,2024-05-07,2024-05-07,株式会社ＲｅＳＰＡ,,株式会社,青森県,十和田市,西二十一番町１８－１７,,02,206,0340095,,,,,,,2024-05-07,1,,,,,リスパ,0
584,2430001091737,新規,0,2024-05-07,2024-05-07,株式会社ルーズアップ,,株式会社,北海道,札幌市南区,澄川一条２丁目５番１号,,01,106,0050001,,,,,,,2024-05-07,1,,,,,ルーズアップ,0
587,2430003016287,新規,0,2024-05-07,2024-05-07,合同会社ＡＴＳ,,合同会社,北海道,札幌市中央区,南五条西３丁目８Ｎグランデビル５階,,01,101,0640805,,,,,,,2024-05-07,1,,,,,エーティエス,0
588,2440001009432,新規,0,2024-05-07,2024-05-07,株式会社ケーシーズ,,株式会社,北海道,函館市,富岡町２丁目１５番９号,,01,202,0410811,,,,,,,2024-05-07,1,,,,,ケーシーズ,0
596,2490001010757,新規,0,2024-05-07,2024-05-07,株式会社やまき建設,,株式会社,高知県,高岡郡中土佐町,久礼７０１６番地４,,39,401,7891301,,,,,,,2024-05-07,1,,,,,ヤマキケンセツ,0
597,2500001025596,新規,0,2024-05-07,2024-05-07,株式会社辰海,,株式会社,愛媛県,宇和島市,白浜２２０番地４,,38,203,7980090,,,,,,,2024-05-07,1,,,,,タツミ,0
598,2500001025605,新規,0,2024-05-07,2024-05-07,株式会社ファーストクラス,,株式会社,愛媛県,松山市,西長戸町３３５番地１４,,38,201,7918017,,,,,,,2024-05-07,1,,,,,ファーストクラス,0
599,2500001025613,新規,0,2024-05-07,2024-05-07,株式会社ビジョナリーデザイン,,株式会社,愛媛県,松山市,千舟町５丁目３－１７・４階,,38,201,7900011,,,,,,,2024-05-07,1,,,,,ビジョナリーデザイン,0
606,3010001244550,新規,0,2024-05-07,2024-05-07,株式会社ｊｉｎｓｔｅｍ,,株式会社,東京都,文京区,本郷５丁目２９番１２号赤門ロイヤルハイツ８０７,,13,105,1130033,,,,,,,2024-05-07,1,,,,,ジンステム,0
607,3010001244559,新規,0,2024-05-07,2024-05-07,株式会社Ｈｉｔａｍｕｋｉ,,株式会社,東京都,中央区,勝どき４丁目６番２号パークタワー勝どきミッド,,13,102,1040054,,,,,,,2024-05-07,1,,,,,ヒタムキ,0
610,3010003043637,新規,0,2024-05-07,2024-05-07,キャピタル合同会社,,合同会社,東京都,中央区,銀座１丁目１２番４号Ｎ＆ＥＢＬＤ．６Ｆ,,13,102,1040061,,,,,,,2024-05-07,1,,,,,キャピタル,0
618,3010401182103,新規,0,2024-05-07,2024-05-07,株式会社ＳＯＰＡ,,株式会社,東京都,港区,白金６丁目３番１５－７０４号,,13,103,1080072,,,,,,,2024-05-07,1,,,,,ソパ,0
619,3010401182144,新規,0,2024-05-07,2024-05-07,株式会社ホリスティックリメディアルアカデミー,,株式会社,東京都,港区,芝浦４丁目５番９号ザハーバー芝浦３０１,,13,103,1080023,,,,,,,2024-05-07,1,,,,,ホリスティックリメディアルアカデミー,0
620,3010401182152,新規,0,2024-05-07,2024-05-07,株式会社ＨｕｓｈＴａｇ,,株式会社,東京都,港区,高輪２丁目１５－３１,,13,103,1080074,,,,,,,2024-05-07,1,,,,,ハッシュタグ,0
621,3010401182160,新規,0,2024-05-07,2024-05-07,ＯＭＳ株式会社,,株式会社,東京都,港区,虎ノ門１丁目２３－１,,13,103,1050001,,,,,,,2024-05-07,1,,,,,オーエムエス,0
622,3010401182210,新規,0,2024-05-07,2024-05-07,株式会社オペラオー,,株式会社,東京都,港区,芝４丁目７番６号芝ビルディング７０４,,13,103,1080014,,,,,,,2024-05-07,1,,,,,オペラオー,0
625,3010403032462,新規,0,2024-05-07,2024-05-07,謙源コンサルティング合同会社,,合同会社,東京都,港区,三田４丁目１５－１－８０６,,13,103,1080073,,,,,,,2024-05-07,1,,,,,ケンゲンコンサルティング,0
628,3010501021251,新規,0,2024-05-07,2024-05-07,イハラハウジング株式会社,,株式会社,東京都,台東区,上野３丁目１６番３号,,13,106,1100005,,,,,,,2024-05-07,1,,,,,イハラハウジング,0
629,3010501052214,新規,0,2024-05-07,2024-05-07,株式会社ＳＣＩ,,株式会社,東京都,台東区,台東３丁目２９番１０号,,13,106,1100016,,,,,,,2024-05-07,1,,,,,エスシーアイ,0
634,3010601065132,新規,0,2024-05-07,2024-05-07,株式会社リンゴヤ,,株式会社,東京都,墨田区,京島３丁目２８番１０号,,13,107,1310046,,,,,,,2024-05-07,1,,,,,リンゴヤ,0
650,3011001161612,新規,0,2024-05-07,2024-05-07,株式会社ｃｏｌｌｅｔ,,株式会社,東京都,渋谷区,代官山町１７番１号代官山アドレスザ・タワー１７１２号室,,13,113,1500034,,,,,,,2024-05-07,1,,,,,コレット,0
651,3011003019081,新規,0,2024-05-07,2024-05-07,合同会社ＣＮ太陽光４号,,合同会社,東京都,渋谷区,千駄ヶ谷３丁目１１番８号,,13,113,1510051,,,,,,,2024-05-07,1,,,,,シーエヌタイヨウコウヨンゴウ,0
658,3011101107218,新規,0,2024-05-07,2024-05-07,ＬＱＲ株式会社,,株式会社,東京都,新宿区,西新宿５丁目８－５－１００３号,,13,104,1600023,,,,,,,2024-05-07,1,,,,,エルキューアール,0
659,3011201025443,新規,0,2024-05-07,2024-05-07,株式会社甘池技建,,株式会社,東京都,中野区,南台４丁目２番８号,,13,114,1640014,,,,,,,2024-05-07,1,,,,,アマイケギケン,0
660,3011301029633,新規,0,2024-05-07,2024-05-07,株式会社ＭＥＷ　Ｓｔｏｒｙ　Ｔｅｌｌｅｒｓ,,株式会社,東京都,杉並区,高円寺南５丁目１４番２号ハイツシーダー３０４,,13,115,1660003,,,,,,,2024-05-07,1,,,,,ミューストーリーテラーズ,0
665,3011401026068,新規,0,2024-05-07,2024-05-07,ゼロエッジ・ジャパン株式会社,,株式会社,東京都,板橋区,坂下３丁目２７番８号,,13,119,1740043,,,,,,,2024-05-07,1,,,,,ゼロエッジジャパン,0
666,3011501030630,新規,0,2024-05-07,2024-05-07,深思株式会社,,株式会社,東京都,荒川区,東日暮里２丁目１１番１１号,,13,118,1160014,,,,,,,2024-05-07,1,,,,,シンシ,0
669,3011605002583,新規,0,2024-05-07,2024-05-07,一般社団法人コメディカル育成協会,,その他の設立登記法人,東京都,練馬区,桜台４丁目２１番７号山中ビル１Ｆ,,13,120,1760002,,,,,,,2024-05-07,1,,,,,コメディカルイクセイキョウカイ,0
671,3011801044173,新規,0,2024-05-07,2024-05-07,ＨＩＧＨＦＩＶＥ株式会社,,株式会社,東京都,足立区,小台１丁目６番５号３０６号室,,13,121,1200046,,,,,,,2024-05-07,1,,,,,ハイファイブ,0
672,3011803006221,新規,0,2024-05-07,2024-05-07,合同会社チカラノタネ,,合同会社,東京都,足立区,宮城２丁目１１番１８号,,13,121,1200047,,,,,,,2024-05-07,1,,,,,チカラノタネ,0
673,3011805003365,新規,0,2024-05-07,2024-05-07,一般社団法人在日ベトナム人建設協会,,その他の設立登記法人,東京都,足立区,南花畑２丁目２１番１０号,,13,121,1210062,,,,,,,2024-05-07,1,,,,,ザイニチベトナムジンケンセツキョウカイ,0
678,3012401041833,新規,0,2024-05-07,2024-05-07,宏瑞商事株式会社,,株式会社,東京都,武蔵野市,吉祥寺本町１丁目１３番２号シラカバビル５Ｆ,,13,203,1800004,,,,,,,2024-05-07,1,,,,,ヒロミズショウジ,0
681,3013101009402,新規,0,2024-05-07,2024-05-07,株式会社エヌテック,,株式会社,東京都,西多摩郡瑞穂町,大字殿ケ谷１０４６番地２６,,13,303,1901212,,,,,,,2024-05-07,1,,,,,エヌテック,0
690,3020001156984,新規,0,2024-05-07,2024-05-07,株式会社ＫＫＳ,,株式会社,神奈川県,横浜市西区,浅間台１２９番地１フレンドポート横浜第８－３０２号室,,14,103,2200071,,,,,,,2024-05-07,1,,,,,ケーケーエス,0
691,3020001157025,新規,0,2024-05-07,2024-05-07,いまてる株式会社,,株式会社,神奈川県,横浜市西区,北幸１丁目１１番１号水信ビル７階,,14,103,2200004,,,,,,,2024-05-07,1,,,,,イマテル,0
692,3020001157033,新規,0,2024-05-07,2024-05-07,株式会社イデアル,,株式会社,神奈川県,横浜市鶴見区,鶴見中央１丁目１９番５号３Ｆ,,14,101,2300051,,,,,,,2024-05-07,1,,,,,イデアル,0
693,3020001157090,新規,0,2024-05-07,2024-05-07,株式会社ひなセンス,,株式会社,神奈川県,横浜市西区,浅間町１丁目４番３号ウィザードビル４０２,,14,103,2200072,,,,,,,2024-05-07,1,,,,,ヒナセンス,0
701,3021005013098,新規,0,2024-05-07,2024-05-07,一般社団法人藤沢市ラグビーフットボール協会,,その他の設立登記法人,神奈川県,藤沢市,鵠沼新明５－６－１０神奈川県立湘南高等学校内早田直彦気付,,14,205,2510022,,,,,,,2024-05-07,1,,,,,フジサワシラグビーフットボールキョウカイ,0
704,3030001160119,新規,0,2024-05-07,2024-05-07,ＳＥＡＲＣＨ株式会社,,株式会社,埼玉県,所沢市,西所沢１丁目２５番３－３１２号ライオンズプラザ西所沢,,11,208,3591144,,,,,,,2024-05-07,1,,,,,サーチ,0
705,3030001160151,新規,0,2024-05-07,2024-05-07,ＦＶパートナーズ株式会社,,株式会社,埼玉県,三郷市,茂田井７３１番地,,11,237,3410025,,,,,,,2024-05-07,1,,,,,,0
706,3030001160218,新規,0,2024-05-07,2024-05-07,株式会社純修,,株式会社,埼玉県,志木市,上宗岡１丁目１８－３９－２０５,,11,228,3530001,,,,,,,2024-05-07,1,,,,,ジュンシュウ,0
707,3030001160226,新規,0,2024-05-07,2024-05-07,株式会社Ｍ３,,株式会社,埼玉県,川越市,新富町１丁目６番地１１－３０２,,11,201,3500043,,,,,,,2024-05-07,1,,,,,エムスリー,0
708,3030001160234,新規,0,2024-05-07,2024-05-07,株式会社祐翔,,株式会社,埼玉県,川口市,西川口１丁目２７番７－１０２号,,11,203,3320021,,,,,,,2024-05-07,1,,,,,ユウショウ,0
714,3030003024073,新規,0,2024-05-07,2024-05-07,合同会社ＳＰＡＣＥＷＯＲＫＳ,,合同会社,埼玉県,さいたま市南区,大字大谷口９２０－１５,,11,108,3360042,,,,,,,2024-05-07,1,,,,,スペースワークス,0
715,3030003024230,新規,0,2024-05-07,2024-05-07,合同会社真円,,合同会社,埼玉県,川越市,大字木野目５１０番地９,,11,201,3500016,,,,,,,2024-05-07,1,,,,,シンエン,0
719,3040001133313,新規,0,2024-05-07,2024-05-07,株式会社ＪＢＹ　ＵＮＩＴＹ,,株式会社,千葉県,野田市,山崎１５８１－２,,12,208,2780022,,,,,,,2024-05-07,1,,,,,ジェービーワイユニティー,0
720,3040001133420,新規,0,2024-05-07,2024-05-07,株式会社ｌｕｃｃａ,,株式会社,千葉県,市川市,行徳駅前１丁目１７号３番プライムタワー行徳ベイ１Ｆ,,12,203,2720133,,,,,,,2024-05-07,1,,,,,ルッカ,0
726,3060003005062,新規,0,2024-05-07,2024-05-07,Ｔ．Ｈ．Ｓ　ＳＡＦＡ　ＴＲＡＤＩＮＧ合同会社,,合同会社,栃木県,足利市,山下町９１５－３,,09,202,3260846,,,,,,,2024-05-07,1,,,,,ティーエイチエスサファトレーディング,0
730,3080401027169,新規,0,2024-05-07,2024-05-07,株式会社三井構造設計事務所,,株式会社,静岡県,浜松市中央区,和合町２２０番地の１００６,,22,138,4338125,,,,,,,2024-05-07,1,,,,,ミツイコウゾウセッケイジムショ,0
743,3110001038380,新規,0,2024-05-07,2024-05-07,株式会社いさお電気,,株式会社,新潟県,南魚沼市,穴地２６０番地,,15,226,9497245,,,,,,,2024-05-07,1,,,,,イサオデンキ,0
754,3120001264579,新規,0,2024-05-07,2024-05-07,株式会社ｃｏｃｏｍｅｄｉａ,,株式会社,大阪府,大阪市北区,梅田１丁目２番２号大阪駅前第２ビル１２－１２,,27,127,5300001,,,,,,,2024-05-07,1,,,,,ココメディア,0
755,3120001264604,新規,0,2024-05-07,2024-05-07,株式会社ＵＮＩＴＥ,,株式会社,大阪府,大阪市東淀川区,大桐５丁目１４番１０－１０４号,,27,114,5330011,,,,,,,2024-05-07,1,,,,,ユナイト,0
756,3120001264612,新規,0,2024-05-07,2024-05-07,株式会社Ａｌｍａｋｅ,,株式会社,大阪府,大阪市西区,江戸堀１丁目８番１７号,,27,106,5500002,,,,,,,2024-05-07,1,,,,,オールメイク,0
757,3120001264620,新規,0,2024-05-07,2024-05-07,株式会社槿原,,株式会社,大阪府,大阪市中央区,日本橋１丁目１８番１号日本一会舘４階,,27,128,5420073,,,,,,,2024-05-07,1,,,,,キンゲン,0
758,3120001264637,新規,0,2024-05-07,2024-05-07,田井電工株式会社,,株式会社,大阪府,大阪市生野区,勝山南４丁目３番２３号,,27,116,5440021,,,,,,,2024-05-07,1,,,,,タイデンコウ,0
761,3120003026507,新規,0,2024-05-07,2024-05-07,合同会社Ｔｉｇｒｅ,,合同会社,大阪府,大阪市淀川区,西中島３丁目１４番１１号２階,,27,123,5320011,,,,,,,2024-05-07,1,,,,,ティグレ,0
762,3120003026515,新規,0,2024-05-07,2024-05-07,Ｎａｒｉ　Ｖａｓｔｒａ合同会社,,合同会社,大阪府,大阪市浪速区,恵美須西３丁目１０番６－１０３号,,27,111,5560003,,,,,,,2024-05-07,1,,,,,ナリバストラ,0
763,3120003026531,新規,0,2024-05-07,2024-05-07,合同会社文元,,合同会社,大阪府,大阪市中央区,西心斎橋２丁目１２番１４号,,27,128,5420086,,,,,,,2024-05-07,1,,,,,フミモト,0
764,3120005024302,新規,0,2024-05-07,2024-05-07,一般社団法人日本インバウンドハイヤー協会,,その他の設立登記法人,大阪府,大阪市福島区,海老江５丁目３番２０号ＮＯＤＡＥＢＩＥＢＬＤ５階５０ＢＣ号室,,27,103,5530001,,,,,,,2024-05-07,1,,,,,ニホンインバウンドハイヤーキョウカイ,0
768,3120101069515,新規,0,2024-05-07,2024-05-07,株式会社ウェブネット,,株式会社,大阪府,河内長野市,小山田町４５１番地の２１４,,27,216,5860094,,,,,,,2024-05-07,1,,,,,ウェブネット,0
769,3120101069531,新規,0,2024-05-07,2024-05-07,ＹＤエステート株式会社,,株式会社,大阪府,堺市美原区,小寺７５９番地,,27,147,5870065,,,,,,,2024-05-07,1,,,,,ワイディエステート,0
775,3120903005155,新規,0,2024-05-07,2024-05-07,ＫＴＧ合同会社,,合同会社,大阪府,吹田市,南吹田５丁目２２番３－２０２号,,27,205,5640043,,,,,,,2024-05-07,1,,,,,ケーティージー,0
776,3120903005163,新規,0,2024-05-07,2024-05-07,合同会社ＲＯＳＥＴＴＡ,,合同会社,大阪府,吹田市,江坂町２丁目１－３５－１４０１,,27,205,5640063,,,,,,,2024-05-07,1,,,,,ロゼッタ,0
777,3122001038062,新規,0,2024-05-07,2024-05-07,株式会社ｗｏｎｄｅｒ,,株式会社,大阪府,東大阪市,日下町７丁目５番９号,,27,227,5798003,,,,,,,2024-05-07,1,,,,,ワンダー,0
778,3122003002875,新規,0,2024-05-07,2024-05-07,合同会社野村機工,,合同会社,大阪府,東大阪市,西堤学園町１丁目２番３３号,,27,227,5770044,,,,,,,2024-05-07,1,,,,,ノムラキコウ,0
781,3130001076957,新規,0,2024-05-07,2024-05-07,株式会社ＬＡＢＯＯ,,株式会社,京都府,京丹後市,峰山町長岡１７２５番地の１紬ビル３０１号,,26,212,6270042,,,,,,,2024-05-07,1,,,,,ラブー,0
782,3130001076981,新規,0,2024-05-07,2024-05-07,株式会社Ｓｔｒｏｎｇ　Ｍａｎａｇｅ,,株式会社,京都府,京都市下京区,松原通烏丸西入玉津島町３０６番地,,26,106,6008427,,,,,,,2024-05-07,1,,,,,ストロングマネージ,0
783,3130001076998,新規,0,2024-05-07,2024-05-07,株式会社ＫＡＺＵ,,株式会社,京都府,京都市中京区,小川通夷川上る下丸屋町４６４番地,,26,104,6040084,,,,,,,2024-05-07,1,,,,,カズ,0
785,3130003009527,新規,0,2024-05-07,2024-05-07,合同会社ＮＥＸＴ,,合同会社,京都府,宇治市,木幡北山畑１５番地の５０,,26,204,6110002,,,,,,,2024-05-07,1,,,,,ネクスト,0
793,3140001134326,新規,0,2024-05-07,2024-05-07,株式会社ＺＥＲＯ　ＷＯＲＫＳ,,株式会社,兵庫県,神戸市長田区,東尻池町４丁目１１番８号,,28,106,6530022,,,,,,,2024-05-07,1,,,,,ゼロワークス,0
798,3150001027264,新規,0,2024-05-07,2024-05-07,株式会社Ｒｏｋｉｐｉｎ,,株式会社,奈良県,御所市,大字本馬１０３番地の１,,29,208,6392242,,,,,,,2024-05-07,1,,,,,ロキピン,0
804,3160001025903,新規,0,2024-05-07,2024-05-07,株式会社ＬＡＵＧＨＴＡＬＥ,,株式会社,滋賀県,甲賀市,水口町下山８０２番地６４,,25,209,5280063,,,,,,,2024-05-07,1,,,,,ラフテル,0
805,3170001018113,新規,0,2024-05-07,2024-05-07,株式会社Ｆｉｏｒｉ,,株式会社,和歌山県,和歌山市,栄谷９５９番地１６９,,30,201,6408441,,,,,,,2024-05-07,1,,,,,フィオリ,0
809,3180001161168,新規,0,2024-05-07,2024-05-07,株式会社火楽ジャパン,,株式会社,愛知県,名古屋市熱田区,波寄町２３番１５号,,23,109,4560003,,,,,,,2024-05-07,1,,,,,ヒラクジャパン,0
810,3180001161275,新規,0,2024-05-07,2024-05-07,株式会社ＰＵＧＺ,,株式会社,愛知県,春日井市,大留町６丁目４番地７,,23,206,4870024,,,,,,,2024-05-07,1,,,,,パグズ,0
811,3180001161374,新規,0,2024-05-07,2024-05-07,ＸＥＮＴＥＩ株式会社,,株式会社,愛知県,名古屋市昭和区,山脇町１丁目３１―２３,,23,107,4660063,,,,,,,2024-05-07,1,,,,,ゼンテイ,0
817,3180301038628,新規,0,2024-05-07,2024-05-07,株式会社マエダテント製作所,,株式会社,愛知県,豊橋市,植田町字大膳２０番地の１,,23,201,4418134,,,,,,,2024-05-07,1,,,,,マエダテントセイサクジョ,0
819,3190001031312,新規,0,2024-05-07,2024-05-07,株式会社Ｅｉｇｈｔ,,株式会社,三重県,津市,南丸之内１７番１７号,,24,201,5140034,,,,,,,2024-05-07,1,,,,,エイト,0
820,3190001031320,新規,0,2024-05-07,2024-05-07,株式会社ＫＳＫ工業,,株式会社,三重県,いなべ市,大安町平塚８９２番地１,00134633,24,214,5110273,,,,,,,2024-05-07,1,,,,,ケーエスケーコウギョウ,0
824,3200001042464,新規,0,2024-05-07,2024-05-07,株式会社くるすた,,株式会社,岐阜県,瑞穂市,本田１５６０番地１,,21,216,5010236,,,,,,,2024-05-07,1,,,,,クルスタ,0
832,3220005008848,新規,0,2024-05-07,2024-05-07,医療法人社団草山歯科医院,,その他の設立登記法人,石川県,鳳珠郡能登町,字小木１５字２３番地４,,17,463,9270553,,,,,,,2024-05-07,1,,,,,クサヤマシカイイン,0
835,3240001063151,新規,0,2024-05-07,2024-05-07,株式会社Ｔｈｅ　Ｗｏｒｌｄ　Ｂｒｉｇｈｔｅｎｅｒｓ,,株式会社,広島県,江田島市,江田島町小用２丁目１０番２６号,,34,215,7372121,,,,,,,2024-05-07,1,,,,,ザワールドブライテナーズ,0
836,3240001063168,新規,0,2024-05-07,2024-05-07,株式会社Ｏｏｎｅ,,株式会社,広島県,東広島市,高屋町大畠７９番地１,,34,212,7392104,,,,,,,2024-05-07,1,,,,,オーワン,0
837,3240001063176,新規,0,2024-05-07,2024-05-07,株式会社Ｃａｓｈ　Ｅｓｔａｔｅ,,株式会社,広島県,広島市西区,天満町１８番１号,,34,104,7330022,,,,,,,2024-05-07,1,,,,,キャッシュエステート,0
839,3240003006645,新規,0,2024-05-07,2024-05-07,合同会社Ｒｉｓｉｎｇ　Ｓｕｎ,,合同会社,広島県,江田島市,江田島町小用２丁目１０番２６号,,34,215,7372121,,,,,,,2024-05-07,1,,,,,ライジングサン,0
842,3250003003492,新規,0,2024-05-07,2024-05-07,合同会社ＫＯＨ,,合同会社,山口県,熊毛郡平生町,大字大野南１００番地１５,,35,344,7421106,,,,,,,2024-05-07,1,,,,,コー,0
844,3260001039026,新規,0,2024-05-07,2024-05-07,株式会社Ｉ建企画,,株式会社,岡山県,倉敷市,真備町市場４６４１番地１,,33,202,7101305,,,,,,,2024-05-07,1,,,,,アイケンキカク,0
845,3260001039034,新規,0,2024-05-07,2024-05-07,Ｅｎｊｉｎ株式会社,,株式会社,岡山県,倉敷市,新田２３８６－２６,,33,202,7100038,,,,,,,2024-05-07,1,,,,,エンジン,0
847,3260005011352,新規,0,2024-05-07,2024-05-07,ＮＰＯ法人科学わくわくクラブ,,その他の設立登記法人,岡山県,倉敷市,笹沖１３３２－３－８０２,,33,202,7100834,,,,,,,2024-05-07,1,,,,,カガクワクワククラブ,0
861,3290001105568,新規,0,2024-05-07,2024-05-07,株式会社ＥＬＥＳＴＡ,,株式会社,福岡県,大野城市,つつじケ丘３丁目１８番１号,,40,219,8160962,,,,,,,2024-05-07,1,,,,,エレスタ,0
871,3290801030536,新規,0,2024-05-07,2024-05-07,株式会社エスリード,,株式会社,福岡県,北九州市小倉北区,魚町１丁目４番１７号１Ｆ,,40,106,8020006,,,,,,,2024-05-07,1,,,,,エスリード,0
872,3290801030544,新規,0,2024-05-07,2024-05-07,株式会社ＬｉｎＸ,,株式会社,福岡県,北九州市若松区,花野路１丁目９番３号,,40,103,8080136,,,,,,,2024-05-07,1,,,,,リンクス,0
873,3290801030552,新規,0,2024-05-07,2024-05-07,株式会社ＫＡＯＲＩ,,株式会社,福岡県,北九州市八幡西区,折尾４丁目２９‐３５‐６０５,,40,109,8070825,,,,,,,2024-05-07,1,,,,,カオリ,0
876,3330001032031,新規,0,2024-05-07,2024-05-07,優光社株式会社,,株式会社,熊本県,熊本市西区,花園７丁目１７５２番地７０メゾンドテテＣ棟,,43,103,8600072,,,,,,,2024-05-07,1,,,,,ユウコウシャ,0
877,3330001032048,新規,0,2024-05-07,2024-05-07,株式会社ＴＨＲＥＥＣＡＲＳ,,株式会社,熊本県,宇土市,宮庄町１６８番地１,,43,211,8690457,,,,,,,2024-05-07,1,,,,,スリーカーズ,0
881,3330005010792,新規,0,2024-05-07,2024-05-07,一般社団法人熊本県中小企業家同友会,,その他の設立登記法人,熊本県,熊本市中央区,大江２丁目１番７１号,,43,101,8620971,,,,,,,2024-05-07,1,,,,,クマモトケンチュウショウキギョウカドウユウカイ,0
883,3340001026478,新規,0,2024-05-07,2024-05-07,株式会社Ｈｉ‐Ｌｉ,,株式会社,鹿児島県,鹿児島市,坂之上６丁目４番２４号,,46,201,8910150,,,,,,,2024-05-07,1,,,,,ヒーリ,0
886,3340003004465,新規,0,2024-05-07,2024-05-07,合同会社キハラ自動車,,合同会社,鹿児島県,薩摩川内市,樋脇町塔之原７０９７番地１,,46,215,8951202,,,,,,,2024-05-07,1,,,,,キハラジドウシャ,0
887,3350001018945,新規,0,2024-05-07,2024-05-07,株式会社野崎建築,,株式会社,宮崎県,宮崎市,大字島之内１０５２５番地１２,,45,201,8800121,,,,,,,2024-05-07,1,,,,,ノザキケンチク,0
892,3360003013943,新規,0,2024-05-07,2024-05-07,合同会社海清,,合同会社,沖縄県,名護市,東江１丁目１９番１０号メゾンばいたるぽいんと２・２１１号,,47,209,9050021,,,,,,,2024-05-07,1,,,,,カイセイ,0
902,3400001016646,新規,0,2024-05-07,2024-05-07,株式会社円倭,,株式会社,岩手県,北上市,青柳町１丁目６－２１ＭＡＣＭＩビル１Ｆ,,03,206,0240031,,,,,,,2024-05-07,1,,,,,エンワ,0
907,3430001091744,新規,0,2024-05-07,2024-05-07,株式会社ガーデン工業,,株式会社,北海道,江別市,文京台南町２１番地の１１,,01,217,0690835,,,,,,,2024-05-07,1,,,,,ガーデンコウギョウ,0
913,3480001012464,新規,0,2024-05-07,2024-05-07,株式会社ＳｈａＨａｋ,,株式会社,徳島県,阿波市,土成町土成字遊ヶ原６０番地５,,36,206,7711506,,,,,,,2024-05-07,1,,,,,シャハク,0
916,3480003002125,新規,0,2024-05-07,2024-05-07,合同会社ふく利,,合同会社,徳島県,板野郡北島町,江尻字川中須１８番地４,,36,402,7710205,,,,,,,2024-05-07,1,,,,,フクリ,0
918,3490005006940,新規,0,2024-05-07,2024-05-07,一般社団法人田舎通信局,,その他の設立登記法人,高知県,室戸市,浮津２４４８,,39,202,7817103,,,,,,,2024-05-07,1,,,,,イナカツウシンキョク,0
919,3500001025612,新規,0,2024-05-07,2024-05-07,株式会社Ｏｒｉｅｎｔカフェトレイン,,株式会社,愛媛県,松山市,堀江町２１７６番地１,,38,201,7992651,,,,,,,2024-05-07,1,,,,,オリエントカフェトレイン,0
923,4010001244558,新規,0,2024-05-07,2024-05-07,株式会社Ｒｅｎｏ　Ａｃｅｒ　Ｎｏ．１,,株式会社,東京都,千代田区,飯田橋４丁目５番１１号パール飯田橋ビル７Ｆ,,13,101,1020072,,,,,,,2024-05-07,1,,,,,リノアーサーナンバーワン,0
924,4010001244566,新規,0,2024-05-07,2024-05-07,株式会社クラッチ,,株式会社,東京都,千代田区,神田和泉町１番地３－７－６階,,13,101,1010024,,,,,,,2024-05-07,1,,,,,クラッチ,0
925,4010001244574,新規,0,2024-05-07,2024-05-07,株式会社マシュモンズ,,株式会社,東京都,千代田区,神田佐久間町３丁目２４番３号,,13,101,1010025,,,,,,,2024-05-07,1,,,,,マシュモンズ,0
926,4010001244624,新規,0,2024-05-07,2024-05-07,株式会社Ｍ＆Ａベストパートナーズ準備会社,,株式会社,東京都,千代田区,丸の内２丁目７番２号ＪＰタワー２２階,,13,101,1000005,,,,,,,2024-05-07,1,,,,,エムアンドエーベストパートナーズジュンビガイシャ,0
942,4010601065131,新規,0,2024-05-07,2024-05-07,トライアス株式会社,,株式会社,東京都,江東区,千石１丁目９番３１－６０９号,,13,108,1350015,,,,,,,2024-05-07,1,,,,,トライアス,0
946,4010901055204,新規,0,2024-05-07,2024-05-07,株式会社ｙａｍａ．,,株式会社,東京都,世田谷区,下馬６丁目１４番１７－４０１号,,13,112,1540002,,,,,,,2024-05-07,1,,,,,ヤマ,0
947,4010903009026,新規,0,2024-05-07,2024-05-07,合同会社ストラート,,合同会社,東京都,世田谷区,上祖師谷２丁目２２番２６号,,13,112,1570065,,,,,,,2024-05-07,1,,,,,ストラート,0
957,4011101107200,新規,0,2024-05-07,2024-05-07,ヨコハマ電子通商株式会社,,株式会社,東京都,新宿区,北新宿１丁目２７－１２グランドステータス北新宿３階,,13,104,1690074,,,,,,,2024-05-07,1,,,,,ヨコハマデンシツウショウ,0
958,4011101107217,新規,0,2024-05-07,2024-05-07,株式会社ハイ・ドロー,,株式会社,東京都,新宿区,西新宿８丁目１１番１０号星野ビル３階,,13,104,1600023,,,,,,,2024-05-07,1,,,,,ハイドロー,0
960,4011201025442,新規,0,2024-05-07,2024-05-07,株式会社三日月,,株式会社,東京都,中野区,若宮２丁目５番３号,,13,114,1650033,,,,,,,2024-05-07,1,,,,,ミカヅキ,0
970,4011703003813,新規,0,2024-05-07,2024-05-07,合同会社妖怪屋,,合同会社,東京都,江戸川区,西葛西６丁目２７－６メゾンベルデュールＩＩＩ－５０１,00134632,13,123,1340088,,,,,,,2024-05-07,1,,,,,ヨウカイヤ,0
975,4012701018241,新規,0,2024-05-07,2024-05-07,株式会社軽貨物ＬＩＦＥ,,株式会社,東京都,西東京市,北原町１丁目２２－１,,13,229,1880003,,,,,,,2024-05-07,1,,,,,ケイカモツライフ,0
976,4012703002978,新規,0,2024-05-07,2024-05-07,合同会社Ｉ＆Ｉ　Ｌａｂｏｒａｔｏｒｙ,,合同会社,東京都,東村山市,秋津町５丁目４－１８２,,13,213,1890001,,,,,,,2024-05-07,1,,,,,アヤナイラボラトリー,0
987,4020001157016,新規,0,2024-05-07,2024-05-07,天元株式会社,,株式会社,神奈川県,横浜市青葉区,しらとり台３番地１４,,14,117,2270054,,,,,,,2024-05-07,1,,,,,,0
988,4020001157040,新規,0,2024-05-07,2024-05-07,株式会社ｐｈｏｔｏ　Ａ．,,株式会社,神奈川県,川崎市多摩区,中野島６丁目２５番５号中野島ダイヤビル１０３号室,,14,135,2140012,,,,,,,2024-05-07,1,,,,,フォトエー,0
989,4020001157049,新規,0,2024-05-07,2024-05-07,川武工業株式会社,,株式会社,神奈川県,横浜市西区,宮ケ谷２５番地２三ツ沢ハイタウン３－６０８,,14,103,2200006,,,,,,,2024-05-07,1,,,,,カワタケコウギョウ,0
990,4020001157057,新規,0,2024-05-07,2024-05-07,株式会社セブンエイチ,,株式会社,神奈川県,横浜市西区,北幸２丁目１０番４８号むつみビル３階,,14,103,2200004,,,,,,,2024-05-07,1,,,,,セブンエイチ,0
993,4020003026029,新規,0,2024-05-07,2024-05-07,合同会社ｐｕｐ,,合同会社,神奈川県,川崎市宮前区,東有馬２丁目７－３,,14,136,2160002,,,,,,,2024-05-07,1,,,,,ピーユーピー,0
995,4021001082138,新規,0,2024-05-07,2024-05-07,株式会社湘南ＣＳ不動産,,株式会社,神奈川県,座間市,四ツ谷８７５番地の１３,,14,216,2520025,,,,,,,2024-05-07,1,,,,,ショウナンシーエスフドウサン,0
998,4021003014460,新規,0,2024-05-07,2024-05-07,Ｒｉａｄ合同会社,,合同会社,神奈川県,鎌倉市,大町６丁目６番１号,,14,204,2480007,,,,,,,2024-05-07,1,,,,,リアド,0
1004,4030001160101,新規,0,2024-05-07,2024-05-07,株式会社ｒｉｚｚ　ｃｒｅａｔｅ,,株式会社,埼玉県,蓮田市,蓮田２丁目２１４番地２,00134621,11,238,3490115,,,,,,,2024-05-07,1,,,,,リズクリエイト,0
1006,4030003024221,新規,0,2024-05-07,2024-05-07,ＪａｎｅＳｔｏｒｙ合同会社,,合同会社,埼玉県,川口市,上青木１丁目１番１９－フィオーレ西川口１０２号室,,11,203,3330844,,,,,,,2024-05-07,1,,,,,,0
1015,4040003024906,新規,0,2024-05-07,2024-05-07,合同会社ａｖｅｎｉｒ,,合同会社,千葉県,八街市,八街ほ６００番地２１,,12,230,2891115,,,,,,,2024-05-07,1,,,,,アヴニール,0
1021,4060003005061,新規,0,2024-05-07,2024-05-07,ＪＯＹＡ　ＴＲＡＤＩＮＧ合同会社,,合同会社,栃木県,栃木市,岩舟町新里１３０４番地９号室,,09,203,3294316,,,,,,,2024-05-07,1,,,,,ジョヤトレーディング,0
1028,4070002037781,新規,0,2024-05-07,2024-05-07,有限会社ソフトック・エンタープライズ,,有限会社,群馬県,高崎市,並榎町２０３番地,,10,202,3700802,,,,,,,2024-05-07,1,,,,,ソフトックエンタープライズ,0
1029,4080101024713,新規,0,2024-05-07,2024-05-07,株式会社カシブラザーズトレーダー,,株式会社,静岡県,富士市,大渕４０８４番地の１７,,22,210,4170000,,,,,,,2024-05-07,1,,,,,カシブラザーズトレーダー,0
1036,4100001037449,新規,0,2024-05-07,2024-05-07,株式会社オーケイ機工,,株式会社,長野県,長野市,大字三才２００番地１,,20,201,3810081,,,,,,,2024-05-07,1,,,,,オーケイキコウ,0
1038,4100003007516,新規,0,2024-05-07,2024-05-07,ジャム３８２合同会社,,合同会社,長野県,諏訪郡原村,１７２１７番地３８２,,20,363,3910100,,,,,,,2024-05-07,1,,,,,ジャムサンハチニ,0
1040,4110001038388,新規,0,2024-05-07,2024-05-07,株式会社除雪ＭＡＸ’ｓ,,株式会社,新潟県,柏崎市,大字上田尻１８４０番地６－２０２号室,,15,205,9451351,,,,,,,2024-05-07,1,,,,,ジョセツマックス,0
1047,4120001264553,新規,0,2024-05-07,2024-05-07,株式会社ＧｒｏｗＳｙｎｃ,,株式会社,大阪府,大阪市中央区,南本町２丁目３番１２号ＥＤＧＥ本町３階,,27,128,5410054,,,,,,,2024-05-07,1,,,,,グローシンク,0
1048,4120001264578,新規,0,2024-05-07,2024-05-07,Ｙｏｕｎｋ株式会社,,株式会社,大阪府,大阪市中央区,本町３丁目３－９－９Ｆ,,27,128,5410053,,,,,,,2024-05-07,1,,,,,ヨンク,0
1049,4120001264586,新規,0,2024-05-07,2024-05-07,ファースト管理株式会社,,株式会社,大阪府,大阪市生野区,中川西２丁目５番２２号,,27,116,5440032,,,,,,,2024-05-07,1,,,,,ファーストカンリ,0
1050,4120001264594,新規,0,2024-05-07,2024-05-07,ＳＵＮＺＥＡＬテクノロジー株式会社,,株式会社,大阪府,大阪市西成区,橘１丁目１１－２８オフィスポート橘４１０号室,,27,122,5570051,,,,,,,2024-05-07,1,,,,,サンジールテクノロジー,0
1052,4120003026514,新規,0,2024-05-07,2024-05-07,合同会社コネクター,,合同会社,大阪府,大阪市西成区,橘３丁目１２－５,,27,122,5570051,,,,,,,2024-05-07,1,,,,,コネクター,0
1053,4120003026522,新規,0,2024-05-07,2024-05-07,ＩＮＷＨＩＴＥ合同会社,,合同会社,大阪府,大阪市西成区,岸里東２丁目９番９,,27,122,5570042,,,,,,,2024-05-07,1,,,,,インホワイト,0
1055,4120101069506,新規,0,2024-05-07,2024-05-07,株式会社ＣＨＩＴＯＳＥ,,株式会社,大阪府,高石市,千代田５丁目２０番１６号３階Ａ,,27,225,5920005,,,,,,,2024-05-07,1,,,,,チトセ,0
1056,4120101069514,新規,0,2024-05-07,2024-05-07,株式会社大亮技建,,株式会社,大阪府,羽曳野市,飛鳥５０番地の１,,27,222,5830842,,,,,,,2024-05-07,1,,,,,ダイリョウギケン,0
1057,4120103005806,新規,0,2024-05-07,2024-05-07,合同会社心愛,,合同会社,大阪府,堺市堺区,大町東２丁１番７号,,27,141,5900954,,,,,,,2024-05-07,1,,,,,ココア,0
1062,4122001038061,新規,0,2024-05-07,2024-05-07,奥村電機工業株式会社,,株式会社,大阪府,東大阪市,鷹殿町１４番４号,,27,227,5798036,,,,,,,2024-05-07,1,,,,,オクムラデンキコウギョウ,0
1065,4130001076972,新規,0,2024-05-07,2024-05-07,株式会社ハッピーワークデザインラボ,,株式会社,京都府,京都市左京区,高野玉岡町１番地１１２,,26,103,6068106,,,,,,,2024-05-07,1,,,,,ハッピーワークデザインラボ,0
1068,4130003009534,新規,0,2024-05-07,2024-05-07,山咲う合同会社,,合同会社,京都府,京都市上京区,一条通新町西入元真如堂町３７６番地２０１,,26,102,6020926,,,,,,,2024-05-07,1,,,,,ヤマワラウ,0
1069,4130003009542,新規,0,2024-05-07,2024-05-07,合同会社アクアマリン,,合同会社,京都府,京都市下京区,七条通油小路東入大黒町２２７番地第２キョートビル４０２,,26,106,6008223,,,,,,,2024-05-07,1,,,,,アクアマリン,0
1077,4140001134275,新規,0,2024-05-07,2024-05-07,株式会社夕霧,,株式会社,兵庫県,神戸市中央区,中山手通３丁目１０番８－４０１号,,28,110,6500004,,,,,,,2024-05-07,1,,,,,ユウギリ,0
1078,4140001134325,新規,0,2024-05-07,2024-05-07,中電光株式会社,,株式会社,兵庫県,尼崎市,武庫豊町３丁目１２番６－５１３号,,28,202,6610045,,,,,,,2024-05-07,1,,,,,チュウデンコウ,0
1081,4140005027070,新規,0,2024-05-07,2024-05-07,医療法人ほりはた歯科・矯正歯科クリニック,,その他の設立登記法人,兵庫県,神戸市西区,桜が丘中町４丁目１－１,,28,111,6512226,,,,,,,2024-05-07,1,,,,,ホリハタシカキョウセイシカクリニック,0
1083,4160001025893,新規,0,2024-05-07,2024-05-07,優和株式会社,,株式会社,滋賀県,甲賀市,甲賀町神１５９５番地１,,25,209,5203411,,,,,,,2024-05-07,1,,,,,ユウワ,0
1084,4160001025902,新規,0,2024-05-07,2024-05-07,湖国不動産株式会社,,株式会社,滋賀県,草津市,上笠４丁目４番１９号,,25,206,5250028,,,,,,,2024-05-07,1,,,,,ココクフドウサン,0
1085,4160003003179,新規,0,2024-05-07,2024-05-07,マウントロイヤル合同会社,,合同会社,滋賀県,大津市,今堅田１丁目５－６フロンティア２０６,,25,201,5200241,,,,,,,2024-05-07,1,,,,,,0
1086,4160005011304,新規,0,2024-05-07,2024-05-07,一般社団法人ひつじの居場所・羊羊,,その他の設立登記法人,滋賀県,蒲生郡日野町,松尾３丁目５５,,25,383,5291601,,,,,,,2024-05-07,1,,,,,ヒツジノイバショメメ,0
1087,4170001018120,新規,0,2024-05-07,2024-05-07,株式会社Ｒ,,株式会社,和歌山県,和歌山市,十一番丁１３番地１００２号,,30,201,6408159,,,,,,,2024-05-07,1,,,,,アール,0
1093,4180001161134,新規,0,2024-05-07,2024-05-07,ＦＩＮＥＬＩＮＫ株式会社,,株式会社,愛知県,名古屋市中区,栄２丁目２番１号５Ｆ０３号室,,23,106,4600008,,,,,,,2024-05-07,1,,,,,ファインリンク,0
1094,4180001161175,新規,0,2024-05-07,2024-05-07,株式会社２８．Ｓｔｙｌｅ,,株式会社,愛知県,一宮市,萩原町富田方字西の川３６番地１,,23,203,4910352,,,,,,,2024-05-07,1,,,,,ニワスタイル,0
1095,4180001161209,新規,0,2024-05-07,2024-05-07,仁創株式会社,,株式会社,愛知県,名古屋市港区,宝神１丁目５９,,23,111,4550832,,,,,,,2024-05-07,1,,,,,ニンソウ,0
1096,4180001161274,新規,0,2024-05-07,2024-05-07,ＨＴＣ　ＭＩＲＡＩ株式会社,,株式会社,愛知県,尾張旭市,旭前町５丁目８番地３,,23,226,4880855,,,,,,,2024-05-07,1,,,,,エイチティーシーミライ,0
1100,4180301038602,新規,0,2024-05-07,2024-05-07,株式会社華綸,,株式会社,愛知県,豊川市,弥生町２丁目２８番地シンセリティＢ・Ａ号室,,23,207,4420831,,,,,,,2024-05-07,1,,,,,カリン,0
1101,4180301038610,新規,0,2024-05-07,2024-05-07,株式会社結樹,,株式会社,愛知県,岡崎市,羽根町字大池１１６番地９,,23,202,4440816,,,,,,,2024-05-07,1,,,,,ケイジュ,0
1105,4200001042455,新規,0,2024-05-07,2024-05-07,株式会社ｂｙＢ,,株式会社,岐阜県,高山市,下二之町４８番地,,21,203,5060842,,,,,,,2024-05-07,1,,,,,バイビー,0
1106,4200001042463,新規,0,2024-05-07,2024-05-07,株式会社戸田組,,株式会社,岐阜県,大垣市,築捨町１丁目４９番地６,,21,202,5030854,,,,,,,2024-05-07,1,,,,,トダグミ,0
1111,4240001063191,新規,0,2024-05-07,2024-05-07,ＣＡＥＲＵ株式会社,,株式会社,広島県,安芸郡府中町,桃山１丁目１６番５号,,34,302,7350026,,,,,,,2024-05-07,1,,,,,カエル,0
1117,4250001020638,新規,0,2024-05-07,2024-05-07,株式会社海月＆零,,株式会社,山口県,下関市,豊前田町２丁目５番２２号,,35,201,7500018,,,,,,,2024-05-07,1,,,,,クラゲアンドゼロ,0
1121,4260001039017,新規,0,2024-05-07,2024-05-07,株式会社文箭,,株式会社,岡山県,岡山市北区,富田町１丁目１０番１１号ピュアフィネス１０１,,33,101,7000816,,,,,,,2024-05-07,1,,,,,ブンヤ,0
1122,4260001039025,新規,0,2024-05-07,2024-05-07,株式会社ＴＫ,,株式会社,岡山県,総社市,中原９７２番地１０,,33,208,7191133,,,,,,,2024-05-07,1,,,,,ティケィ,0
1123,4260003004670,新規,0,2024-05-07,2024-05-07,合同会社平田,,合同会社,岡山県,備前市,吉永町福満７８７番地３,,33,211,7090222,,,,,,,2024-05-07,1,,,,,ヒラタ,0
1127,4290001105550,新規,0,2024-05-07,2024-05-07,株式会社ピアハウジング,,株式会社,福岡県,福岡市南区,高宮５丁目１－１－１１２,,40,134,8150083,,,,,,,2024-05-07,1,,,,,,0
1128,4290001105575,新規,0,2024-05-07,2024-05-07,株式会社デジタル・エスイー,,株式会社,福岡県,糸島市,前原中央３丁目１１番３２号,,40,230,8191116,,,,,,,2024-05-07,1,,,,,デジタルエスイー,0
1135,4290801030535,新規,0,2024-05-07,2024-05-07,アプローチスタイル株式会社,,株式会社,福岡県,北九州市小倉北区,黄金２丁目３番１８号,,40,106,8020071,,,,,,,2024-05-07,1,,,,,アプローチスタイル,0
1136,4290801030543,新規,0,2024-05-07,2024-05-07,株式会社ＳＩＭＡ,,株式会社,福岡県,北九州市小倉南区,下曽根１丁目９番２５号,,40,107,8000217,,,,,,,2024-05-07,1,,,,,シマ,0
1137,4290803004719,新規,0,2024-05-07,2024-05-07,未来タスカル合同会社,,合同会社,福岡県,北九州市若松区,宮丸１丁目２３番２２号,,40,103,8080064,,,,,,,2024-05-07,1,,,,,ミライタスカル,0
1138,4310001018997,新規,0,2024-05-07,2024-05-07,株式会社コマツ,,株式会社,長崎県,諫早市,小長井町遠竹２２６０番地２,,42,204,8590167,,,,,,,2024-05-07,1,,,,,コマツ,0
1143,4330001032030,新規,0,2024-05-07,2024-05-07,ＣＪ九州株式会社,,株式会社,熊本県,合志市,幾久富１８４０番地１２７,,43,216,8611112,,,,,,,2024-05-07,1,,,,,シージェイキュウシュウ,0
1144,4330003010348,新規,0,2024-05-07,2024-05-07,益城ソーラー合同会社,,合同会社,熊本県,上益城郡益城町,大字田原１１５５番地１２,,43,443,8612202,,,,,,,2024-05-07,1,,,,,マシキソーラー,0
1145,4340001026477,新規,0,2024-05-07,2024-05-07,株式会社ヒース,,株式会社,鹿児島県,鹿屋市,笠之原町３３番２号,,46,203,8930023,,,,,,,2024-05-07,1,,,,,ヒース,0
1146,4340001026485,新規,0,2024-05-07,2024-05-07,株式会社フェニックス,,株式会社,鹿児島県,鹿児島市,中山町１３７５番地３,,46,201,8910105,,,,,,,2024-05-07,1,,,,,フェニックス,0
1152,4360001033620,新規,0,2024-05-07,2024-05-07,株式会社長嶺鮮魚,,株式会社,沖縄県,那覇市,松尾２丁目９番２３号長嶺アパート３０１,,47,201,9000014,,,,,,,2024-05-07,1,,,,,ナガミネセンギョ,0
1153,4360003013950,新規,0,2024-05-07,2024-05-07,海旅合同会社,,合同会社,沖縄県,中頭郡読谷村,字高志保４２９番地１,,47,324,9040323,,,,,,,2024-05-07,1,,,,,ウミタビ,0
1159,4380003005756,新規,0,2024-05-07,2024-05-07,合同会社オカザキ商会,,合同会社,福島県,いわき市,自由ケ丘４３番地の３２,,07,204,9708033,,,,,,,2024-05-07,1,,,,,,0
1172,4430003016293,新規,0,2024-05-07,2024-05-07,合同会社ライトニング,,合同会社,北海道,札幌市手稲区,前田二条４丁目２‐２１,,01,109,0060812,,,,,,,2024-05-07,1,,,,,ライトニング,0
1174,4430005014980,新規,0,2024-05-07,2024-05-07,一般社団法人札幌・電車通り相続サポートセンター,,その他の設立登記法人,北海道,札幌市中央区,南九条西１７丁目２番２４号,,01,101,0640809,,,,,,,2024-05-07,1,,,,,サッポロデンシャドオリソウゾクサポートセンター,0
1178,4460301005219,新規,0,2024-05-07,2024-05-07,株式会社オフィスアミノ,,株式会社,北海道,北見市,中ノ島町３丁目１３番１７号,,01,208,0900813,,,,,,,2024-05-07,1,,,,,オフィスアミノ,0
1181,4480001012463,新規,0,2024-05-07,2024-05-07,株式会社新星建築,,株式会社,徳島県,板野郡松茂町,中喜来字稲本１１５番地７,,36,401,7710212,,,,,,,2024-05-07,1,,,,,シンセイケンチク,0
1182,4490001010763,新規,0,2024-05-07,2024-05-07,株式会社ＩＬＳＡＮ,,株式会社,高知県,高知市,廿代町４番３号,,39,201,7800843,,,,,,,2024-05-07,1,,,,,イルサン,0
1185,4500001025603,新規,0,2024-05-07,2024-05-07,株式会社ＯＴＴＯ,,株式会社,愛媛県,伊予郡松前町,大字西高柳２４０番地７,,38,401,7913132,,,,,,,2024-05-07,1,,,,,オット,0
1200,5010001244524,新規,0,2024-05-07,2024-05-07,株式会社ストンウェル,,株式会社,東京都,千代田区,有楽町１丁目５番２号,,13,101,1000006,,,,,,,2024-05-07,1,,,,,ストンウェル,0
1201,5010001244540,新規,0,2024-05-07,2024-05-07,株式会社オリナスパートナー,,株式会社,東京都,中央区,銀座１丁目１２番４号Ｎ＆ＥＢＬＤ．６Ｆ,,13,102,1040061,,,,,,,2024-05-07,1,,,,,オリナスパートナー,0
1202,5010001244573,新規,0,2024-05-07,2024-05-07,株式会社ＹＭＴＴ,,株式会社,東京都,文京区,千駄木４丁目５番１号,,13,105,1130022,,,,,,,2024-05-07,1,,,,,ワイエムティーティー,0
1203,5010001244607,新規,0,2024-05-07,2024-05-07,株式会社Ｌ＆Ｍ,,株式会社,東京都,中央区,銀座７丁目１３番６号サガミビル２階,,13,102,1040061,,,,,,,2024-05-07,1,,,,,エルアンドエム,0
1205,5010005038261,新規,0,2024-05-07,2024-05-07,一般社団法人日本健康医療推進協会,,その他の設立登記法人,東京都,文京区,大塚３丁目９番５号,,13,105,1120012,,,,,,,2024-05-07,1,,,,,ニホンケンコウイリョウスイシンキョウカイ,0
1211,5010401182167,新規,0,2024-05-07,2024-05-07,株式会社モノリス,,株式会社,東京都,港区,浜松町２丁目２番１５号浜松町ダイヤビル２Ｆ,,13,103,1050013,,,,,,,2024-05-07,1,,,,,モノリス,0
1212,5010401182225,新規,0,2024-05-07,2024-05-07,株式会社リシェア,,株式会社,東京都,港区,新橋２丁目１６番１号ニュー新橋ビル９０３号,,13,103,1050004,,,,,,,2024-05-07,1,,,,,リシェア,0
1215,5010403032527,新規,0,2024-05-07,2024-05-07,合同会社ＭＡＹＵＲ,,合同会社,東京都,港区,芝３丁目１２番４号２００２,,13,103,1050014,,,,,,,2024-05-07,1,,,,,マユール,0
1216,5010405023235,新規,0,2024-05-07,2024-05-07,特定目的会社コンバース,,その他の設立登記法人,東京都,港区,元赤坂１丁目１番７－８０７号,,13,103,1070051,,,,,,,2024-05-07,1,,,,,コンバース,0
1226,5010701045940,新規,0,2024-05-07,2024-05-07,株式会社オーファースト,,株式会社,東京都,品川区,東五反田２丁目３番５号五反田中央ビル７階,,13,109,1410022,,,,,,,2024-05-07,1,,,,,オーファースト,0
1231,5010901055211,新規,0,2024-05-07,2024-05-07,百福株式会社,,株式会社,東京都,世田谷区,代沢２丁目５番４号,,13,112,1550032,,,,,,,2024-05-07,1,,,,,モモフク,0
1233,5010903009025,新規,0,2024-05-07,2024-05-07,合同会社ソニックボーイ,,合同会社,東京都,世田谷区,上祖師谷２丁目２２番２６号,,13,112,1570065,,,,,,,2024-05-07,1,,,,,ソニックボーイ,0
1248,5011801044171,新規,0,2024-05-07,2024-05-07,東京嘉禾株式会社,,株式会社,東京都,足立区,神明南１丁目８番１０号,,13,121,1210057,,,,,,,2024-05-07,1,,,,,トウキョウカワ,0
1250,5012401041831,新規,0,2024-05-07,2024-05-07,株式会社Ｕｎｉｔ,,株式会社,東京都,三鷹市,新川１丁目３番４号グランシャリオヒルズＡ２０３,,13,204,1810004,,,,,,,2024-05-07,1,,,,,ユニット,0
1252,5012701018240,新規,0,2024-05-07,2024-05-07,ＯＬＧ株式会社,,株式会社,東京都,清瀬市,元町１丁目１３番２１号エメラルドハイツ１０１－１０１号室－Ｌ,,13,221,2040021,,,,,,,2024-05-07,1,,,,,オーエルジー,0
1253,5012703002977,新規,0,2024-05-07,2024-05-07,合同会社ソーシャルキューブ,,合同会社,東京都,東村山市,栄町２丁目１１番地１エスポワール３０２,,13,213,1890013,,,,,,,2024-05-07,1,,,,,ソーシャルキューブ,0
1262,5020001156999,新規,0,2024-05-07,2024-05-07,テクノサポートジャパン株式会社,,株式会社,神奈川県,横浜市都筑区,中川３丁目２９番１８－２０４号,,14,118,2240001,,,,,,,2024-05-07,1,,,,,テクノサポートジャパン,0
1263,5020003026036,新規,0,2024-05-07,2024-05-07,合同会社システムソリューション,,合同会社,神奈川県,横浜市中区,日ノ出町１丁目２００番地ザ・スカイクルーズタワー１６０２,,14,104,2310066,,,,,,,2024-05-07,1,,,,,システムソリューション,0
1274,5030001160133,新規,0,2024-05-07,2024-05-07,株式会社豊建,,株式会社,埼玉県,蓮田市,大字江ケ崎１４２４番地４４,,11,238,3490102,,,,,,,2024-05-07,1,,,,,トヨケン,0
1275,5030001160141,新規,0,2024-05-07,2024-05-07,株式会社ＳｔａｒｓＦｏｕｒ,,株式会社,埼玉県,越谷市,レイクタウン９丁目２９番地７,,11,222,3430828,,,,,,,2024-05-07,1,,,,,スターズフォー,0
1283,5040003024913,新規,0,2024-05-07,2024-05-07,ジャプランホールディングス合同会社,,合同会社,千葉県,印西市,高西新田１０２番１,,12,231,2701365,,,,,,,2024-05-07,1,,,,,ジャプランホールディングス,0
1289,5060005010199,新規,0,2024-05-07,2024-05-07,特定非営利活動法人小山市中学生野球協会,,その他の設立登記法人,栃木県,小山市,扶桑２丁目２７番１２号,,09,208,3230016,,,,,,,2024-05-07,1,,,,,オヤマシチュウガクセイヤキュウキョウカイ,0
1298,5080401027159,新規,0,2024-05-07,2024-05-07,株式会社ＡＬＴＩＬＡＮ,,株式会社,静岡県,浜松市中央区,板屋町１１１番地の２浜松アクトタワー２６Ｆ,,22,138,4300928,,,,,,,2024-05-07,1,,,,,アルティラン,0
1299,5080401027167,新規,0,2024-05-07,2024-05-07,デザインルーム株式会社,,株式会社,静岡県,浜松市中央区,元城町１０９番地１２ＡＳＫビル２Ｆ,,22,138,4300946,,,,,,,2024-05-07,1,,,,,デザインルーム,0
1300,5100001037407,新規,0,2024-05-07,2024-05-07,株式会社ＷａｋｅｍａｎＬａｎｄ,,株式会社,長野県,北佐久郡軽井沢町,大字追分１１９－１０,,20,321,3890115,,,,,,,2024-05-07,1,,,,,ウェイクマンランド,0
1301,5110001038379,新規,0,2024-05-07,2024-05-07,株式会社シモトリ電気,,株式会社,新潟県,妙高市,大字関山４８６４番地,,15,217,9492235,,,,,,,2024-05-07,1,,,,,シモトリデンキ,0
1302,5110001038387,新規,0,2024-05-07,2024-05-07,株式会社パールライフ,,株式会社,新潟県,三条市,五明１９０番地,,15,204,9550821,,,,,,,2024-05-07,1,,,,,パールライフ,0
1304,5110003005385,新規,0,2024-05-07,2024-05-07,合同会社ＧＬＯＷ,,合同会社,新潟県,長岡市,東坂之上町２丁目６番１３号３階,,15,202,9400066,,,,,,,2024-05-07,1,,,,,グロー,0
1318,5120001264429,新規,0,2024-05-07,2024-05-07,株式会社アールティープランニング,,株式会社,大阪府,寝屋川市,高宮新町２７番５号,,27,215,5720847,,,,,,,2024-05-07,1,,,,,アールティープランニング,0
1319,5120001264569,新規,0,2024-05-07,2024-05-07,ＹＹ株式会社,,株式会社,大阪府,大阪市天王寺区,上汐５丁目６番１６－８０１号,,27,109,5430002,,,,,,,2024-05-07,1,,,,,ワイワイ,0
1320,5120001264602,新規,0,2024-05-07,2024-05-07,株式会社ＫＯ美創,,株式会社,大阪府,大阪市生野区,林寺２丁目１１番１４号,,27,116,5440023,,,,,,,2024-05-07,1,,,,,ケーオービソウ,0
1338,5130001076955,新規,0,2024-05-07,2024-05-07,株式会社ＷＨＩＴＥ,,株式会社,京都府,京都市南区,西九条藤ノ木町２７－１マナーズハウス京都八条口１０３号室,,26,107,6018421,,,,,,,2024-05-07,1,,,,,ホワイト,0
1339,5130001076963,新規,0,2024-05-07,2024-05-07,株式会社Ｔｒｅｅ　Ｈｏｕｓｅ,,株式会社,京都府,京都市伏見区,深草馬谷町１０番地１９,,26,109,6120816,,,,,,,2024-05-07,1,,,,,ツリーハウス,0
1340,5130001076971,新規,0,2024-05-07,2024-05-07,株式会社ウイング,,株式会社,京都府,南丹市,園部町内林町４号３７番地,,26,213,6220012,,,,,,,2024-05-07,1,,,,,ウイング,0
1341,5130001076988,新規,0,2024-05-07,2024-05-07,盤石産業株式会社,,株式会社,京都府,京都市上京区,滝ケ鼻町４２９番地２３オリオンプラザ５０１号,,26,102,6028336,,,,,,,2024-05-07,1,,,,,バンセキ,0
1342,5130003009525,新規,0,2024-05-07,2024-05-07,合同会社ＮＯＡ,,合同会社,京都府,京都市下京区,天満町２６６番地－５０１号,,26,106,6008024,,,,,,,2024-05-07,1,,,,,ノア,0
1343,5130005017088,新規,0,2024-05-07,2024-05-07,特定非営利活動法人ほっこりスペースあい,,その他の設立登記法人,京都府,宇治市,木幡赤塚４７番地１２,,26,204,6110002,,,,,,,2024-05-07,1,,,,,ホッコリスペースアイ,0
1346,5140001134274,新規,0,2024-05-07,2024-05-07,ミヤビ株式会社,,株式会社,兵庫県,宝塚市,長尾町８番１３－７０９号,,28,214,6650873,,,,,,,2024-05-07,1,,,,,ミヤビ,0
1347,5140001134316,新規,0,2024-05-07,2024-05-07,株式会社きたの森動物病院,,株式会社,兵庫県,神戸市北区,若葉台４丁目１－１４ゲルメンハイツ１０１,,28,109,6511143,,,,,,,2024-05-07,1,,,,,キタノモリドウブツビョウイン,0
1348,5140001134324,新規,0,2024-05-07,2024-05-07,株式会社Ｙ　Ｉ　ＣＯＲＲＥＣＴ,,株式会社,兵庫県,加古川市,平岡町新在家１４５７番地の１０,,28,210,6750101,,,,,,,2024-05-07,1,,,,,ワイアイコレクト,0
1353,5150001027262,新規,0,2024-05-07,2024-05-07,株式会社ＡＴＯＭＳ．ＴＣ,,株式会社,奈良県,桜井市,大字大福１５４番地の１,,29,206,6330067,,,,,,,2024-05-07,1,,,,,アトムズティーシー,0
1354,5160001025892,新規,0,2024-05-07,2024-05-07,株式会社ＥＩＧＨＴ,,株式会社,滋賀県,長浜市,四ツ塚町１９５番地,,25,203,5260041,,,,,,,2024-05-07,1,,,,,エイト,0
1355,5160002015075,新規,0,2024-05-07,2024-05-07,旭酒造有限会社,,有限会社,滋賀県,守山市,川田町９４４番地,,25,207,5240001,,,,,,,2024-05-07,1,,,,,アサヒシュゾウ,0
1366,5180001161257,新規,0,2024-05-07,2024-05-07,株式会社Ａｐｒｉｌ,,株式会社,愛知県,名古屋市中区,大須３丁目２２番２２号,,23,106,4600011,,,,,,,2024-05-07,1,,,,,エイプリル,0
1374,5180003026714,新規,0,2024-05-07,2024-05-07,合同会社みもざ,,合同会社,愛知県,名古屋市熱田区,新尾頭１丁目８－１４ヴィラ・グリーンボール５０３,,23,109,4560018,,,,,,,2024-05-07,1,,,,,ミモザ,0
1375,5180003026755,新規,0,2024-05-07,2024-05-07,合同会社ＢＡＹＡＫＡ,,合同会社,愛知県,半田市,宮本町６丁目２１４番地の７,,23,205,4750925,,,,,,,2024-05-07,1,,,,,バヤカ,0
1377,5180301038626,新規,0,2024-05-07,2024-05-07,株式会社ＢＤ,,株式会社,愛知県,知立市,牛田町コネハサマ８６－３ラ・カシェットＡ号,,23,225,4720007,,,,,,,2024-05-07,1,,,,,ビーディー,0
1396,5250001020637,新規,0,2024-05-07,2024-05-07,株式会社ミズタ,,株式会社,山口県,防府市,伊佐江町２１番７号,,35,206,7470847,,,,,,,2024-05-07,1,,,,,ミズタ,0
1397,5250003003499,新規,0,2024-05-07,2024-05-07,合同会社ＳＫＷ５５,,合同会社,山口県,宇部市,大字川上３３番地１５,,35,202,7550084,,,,,,,2024-05-07,1,,,,,エスケーダブリュゴーゴー,0
1398,5260001039024,新規,0,2024-05-07,2024-05-07,株式会社辻メタル,,株式会社,岡山県,岡山市中区,江並４０６番地１,,33,102,7028004,,,,,,,2024-05-07,1,,,,,ツジメタル,0
1399,5260001039032,新規,0,2024-05-07,2024-05-07,株式会社Ａｆｆｏｒｄ,,株式会社,岡山県,岡山市中区,中島１８４番地１５,,33,102,7038252,,,,,,,2024-05-07,1,,,,,アフォード,0
1409,5290001105566,新規,0,2024-05-07,2024-05-07,株式会社大福,,株式会社,福岡県,福岡市西区,愛宕２丁目１１番地３４号愛宕山ハイリビング８１２号室,,40,135,8190015,,,,,,,2024-05-07,1,,,,,ダイフク,0
1410,5290001105698,新規,0,2024-05-07,2024-05-07,株式会社アルファーＰＰＰマネジメント,,株式会社,福岡県,福岡市博多区,寿町２丁目４番１２号,,40,132,8120884,,,,,,,2024-05-07,1,,,,,アルファーピーピーピーマネジメント,0
1411,5290003015219,新規,0,2024-05-07,2024-05-07,合同会社ワース・クリエーション,,合同会社,福岡県,大野城市,つつじケ丘３丁目１１番１６号,,40,219,8160962,,,,,,,2024-05-07,1,,,,,ワースクリエーション,0
1412,5290801030542,新規,0,2024-05-07,2024-05-07,株式会社ケイコネクト,,株式会社,福岡県,北九州市小倉北区,上到津４丁目３番９－９０１号,,40,106,8030845,,,,,,,2024-05-07,1,,,,,ケイコネクト,0
1416,5290803004718,新規,0,2024-05-07,2024-05-07,合同会社イトウ,,合同会社,福岡県,北九州市小倉北区,大手町３番２５－３０５号,,40,106,8030814,,,,,,,2024-05-07,1,,,,,イトウ,0
1419,5320001020464,新規,0,2024-05-07,2024-05-07,株式会社ＪＩＮ‐ＵＰ．,,株式会社,大分県,大分市,中島東１丁目３番５号シャガール中島１Ｆ,,44,201,8700043,,,,,,,2024-05-07,1,,,,,ジンアップ,0
1421,5330001032021,新規,0,2024-05-07,2024-05-07,株式会社ヤマダエネルギー,,株式会社,熊本県,熊本市中央区,南千反畑町１２番７－１２０１号,,43,101,8600842,,,,,,,2024-05-07,1,,,,,ヤマダエネルギー,0
1425,5340001026468,新規,0,2024-05-07,2024-05-07,Ｕｍｉｃｕｒｕ株式会社,,株式会社,鹿児島県,奄美市,笠利町大字平１１番地,,46,222,8940505,,,,,,,2024-05-07,1,,,,,ウミクル,0
1426,5340001026484,新規,0,2024-05-07,2024-05-07,株式会社福栄,,株式会社,鹿児島県,姶良市,加治木町木田９０８番地１第二セレクト加治木１０３号,,46,225,8995241,,,,,,,2024-05-07,1,,,,,フクエイ,0
1432,5370001051273,新規,0,2024-05-07,2024-05-07,株式会社ＲＡＹ’ｓ,,株式会社,宮城県,仙台市青葉区,本町１丁目５―２８カーニープレイス仙台駅前通６０３号室,,04,101,9800014,,,,,,,2024-05-07,1,,,,,レイズ,0
1433,5370003006597,新規,0,2024-05-07,2024-05-07,フリーミラー合同会社,,合同会社,宮城県,栗原市,築館字太田西原５６―１,,04,213,9872225,,,,,,,2024-05-07,1,,,,,フリーミラー,0
1434,5380003005755,新規,0,2024-05-07,2024-05-07,ホシシステム販売合同会社,,合同会社,福島県,郡山市,安積町笹川字南向３７番地６,,07,203,9630102,,,,,,,2024-05-07,1,,,,,ホシシステムハンバイ,0
1447,5460001005897,新規,0,2024-05-07,2024-05-07,株式会社二色コーキング,,株式会社,北海道,釧路市,鳥取大通３丁目４番８号,,01,206,0840906,,,,,,,2024-05-07,1,,,,,ニシキコーキング,0
1448,5460003000995,新規,0,2024-05-07,2024-05-07,合同会社Ｓｕｐｐｏｒｔ　Ｆａｒｍｅｒｓ,,合同会社,北海道,厚岸郡厚岸町,太田５の通り４１番地の１,,01,662,0881145,,,,,,,2024-05-07,1,,,,,サポートファーマーズ,0
1449,5460301005218,新規,0,2024-05-07,2024-05-07,株式会社ｐｉｎｅｗｅｌｌ,,株式会社,北海道,斜里郡小清水町,字萱野１０６番地,,01,547,0993601,,,,,,,2024-05-07,1,,,,,パインウェル,0
1451,5470001020177,新規,0,2024-05-07,2024-05-07,株式会社西山組,,株式会社,香川県,善通寺市,櫛梨町１３６７番地５,,37,204,7650051,,,,,,,2024-05-07,1,,,,,ニシヤマグミ,0
1454,5470003002644,新規,0,2024-05-07,2024-05-07,合同会社Ａｍｉｇｏ工業,,合同会社,香川県,坂出市,京町３丁目７番２５－７０５号ルミナスＭＩＺＵＨＯ京町,,37,203,7620001,,,,,,,2024-05-07,1,,,,,アミーゴコウギョウ,0
1455,5480001012462,新規,0,2024-05-07,2024-05-07,株式会社西川タイル,,株式会社,徳島県,鳴門市,撫養町木津５３０番地８,,36,202,7720004,,,,,,,2024-05-07,1,,,,,ニシカワタイル,0
1459,5500001025602,新規,0,2024-05-07,2024-05-07,株式会社久徳水産,00134634,株式会社,愛媛県,南宇和郡愛南町,鯆越２１２番地,,38,506,7984351,,,,,,,2024-05-07,1,,,,,キュウトクスイサン,0
1462,5700150125174,新規,0,2024-05-07,2024-05-02,若園地区コミュニティ会議,,その他,愛知県,豊田市,花園町脇ノ田８－５（若園交流館内）,,23,211,4730924,,,,,,,2024-05-02,1,,,,,ワカゾノチクコミユニテイカイギ,0
1467,6010001244523,新規,0,2024-05-07,2024-05-07,株式会社メックポスト,,株式会社,東京都,中央区,銀座３丁目４－１大倉別館５Ｆ,,13,102,1040061,,,,,,,2024-05-07,1,,,,,メックポスト,0
1470,6010003043650,新規,0,2024-05-07,2024-05-07,ビージャパン合同会社,,合同会社,東京都,中央区,築地３丁目１７－１０,,13,102,1040045,,,,,,,2024-05-07,1,,,,,ビージャパン,0
1471,6010005038269,新規,0,2024-05-07,2024-05-07,税理士法人ジェミナイ税理士事務所,,その他の設立登記法人,東京都,中央区,日本橋小網町８番２号ＢＩＺＭＡＲＫＳ日本橋茅場町６０１,,13,102,1030016,,,,,,,2024-05-07,1,,,,,ジェミナイゼイリシジムショ,0
1472,6010101016129,新規,0,2024-05-07,2024-05-07,株式会社ＰＲＯＧＲＥＳＳ,,株式会社,東京都,八王子市,松が谷５２番地３－１０４,,13,201,1920354,,,,,,,2024-05-07,1,,,,,プログレス,0
1480,6010401182091,新規,0,2024-05-07,2024-05-07,Ｇｒｅｅｎｈｏｕｓｅ　Ｈｏｌｄｉｎｇｓ株式会社,,株式会社,東京都,港区,赤坂５丁目３番３－１００４号,,13,103,1070052,,,,,,,2024-05-07,1,,,,,グリーンハウスホールディングス,0
1481,6010401182232,新規,0,2024-05-07,2024-05-07,マルベリーユース株式会社,,株式会社,東京都,港区,愛宕１丁目３番２号,,13,103,1050002,,,,,,,2024-05-07,1,,,,,マルベリーユース,0
1482,6010401182273,新規,0,2024-05-07,2024-05-07,サウスウインズ株式会社,,株式会社,東京都,港区,南青山３丁目１番３６号青山丸竹ビル６Ｆ,,13,103,1070062,,,,,,,2024-05-07,1,,,,,サウスウインズ,0
1485,6010501052203,新規,0,2024-05-07,2024-05-07,株式会社ＪＡ　ＡＳＳＥＴＳ,,株式会社,東京都,台東区,台東２丁目３０番１１号ＧＲＥＷ秋葉原ＢＬＤ７Ｆ,,13,106,1100016,,,,,,,2024-05-07,1,,,,,ジェーエーアセット,0
1488,6010603010810,新規,0,2024-05-07,2024-05-07,合同会社ＲＥＩ,,合同会社,東京都,墨田区,江東橋２丁目６番９号ＨＢ錦糸町ビル５階,,13,107,1300022,,,,,,,2024-05-07,1,,,,,レイ,0
1494,6010901055202,新規,0,2024-05-07,2024-05-07,株式会社ワンチャンネル,,株式会社,東京都,世田谷区,給田４丁目２８番４－１０３号,,13,112,1570064,,,,,,,2024-05-07,1,,,,,ワンチャンネル,0
1495,6010901055210,新規,0,2024-05-07,2024-05-07,株式会社ＭＹＳＴＡＮＣＥ,,株式会社,東京都,世田谷区,上祖師谷１丁目３４番１３号プティ１０３,,13,112,1570065,,,,,,,2024-05-07,1,,,,,マイスタンス,0
1498,6010903009024,新規,0,2024-05-07,2024-05-07,ＯＫＭＴ合同会社,,合同会社,東京都,世田谷区,玉川台２丁目３５番８号,,13,112,1580096,,,,,,,2024-05-07,1,,,,,オーケーエムティ,0
1517,6011303005150,新規,0,2024-05-07,2024-05-07,テイパー合同会社,,合同会社,東京都,杉並区,久我山４丁目２－２９,,13,115,1680082,,,,,,,2024-05-07,1,,,,,テイパー,0
1527,6011801044170,新規,0,2024-05-07,2024-05-07,ＯＡＣ株式会社,,株式会社,東京都,足立区,梅島３丁目３３－６エンブレム西新井２Ｆ,,13,121,1210816,,,,,,,2024-05-07,1,,,,,オーエーシー,0
1531,6012401041822,新規,0,2024-05-07,2024-05-07,自然株式会社,,株式会社,東京都,三鷹市,上連雀１丁目２１－１０,,13,204,1810012,,,,,,,2024-05-07,1,,,,,シゼン,0
1537,6012801023148,新規,0,2024-05-07,2024-05-07,株式会社ＳＥＡ　ＢＬＵＥＭ,,株式会社,東京都,国分寺市,西元町２丁目１０－６－１０１,,13,214,1850023,,,,,,,2024-05-07,1,,,,,シーブルーム,0
1543,6020001156998,新規,0,2024-05-07,2024-05-07,株式会社オートアズーロ,,株式会社,神奈川県,横浜市都筑区,南山田町４２３９番地３,,14,118,2240026,,,,,,,2024-05-07,1,,,,,オートアズーロ,0
1544,6020001157039,新規,0,2024-05-07,2024-05-07,株式会社Ｍ’ｓ　ＣＯＭＰＡＮＹ,,株式会社,神奈川県,横浜市金沢区,釜利谷東４丁目３７番９号,,14,108,2360042,,,,,,,2024-05-07,1,,,,,エムズカンパニー,0
1545,6020001157055,新規,0,2024-05-07,2024-05-07,株式会社ＧｙｒｏＣｒａｆｔ,,株式会社,神奈川県,横浜市都筑区,中川中央１丁目２１番１６－５０５号,,14,118,2240003,,,,,,,2024-05-07,1,,,,,ジャイロクラフト,0
1546,6020001157063,新規,0,2024-05-07,2024-05-07,株式会社いろどり,,株式会社,神奈川県,横浜市中区,長者町６丁目８８番地１グラン・アルベーラ横濱・関内４１３,,14,104,2310033,,,,,,,2024-05-07,1,,,,,イロドリ,0
1547,6020001157071,新規,0,2024-05-07,2024-05-07,株式会社ＰＨＬ,,株式会社,神奈川県,横浜市神奈川区,栄町２２番地１０クレヴィスタ横浜９０８,,14,102,2210052,,,,,,,2024-05-07,1,,,,,ピーエイチエル,0
1554,6021001082160,新規,0,2024-05-07,2024-05-07,株式会社ＡＭＥ,,株式会社,神奈川県,伊勢原市,大山６６４,,14,214,2591107,,,,,,,2024-05-07,1,,,,,アメ,0
1557,6021003014467,新規,0,2024-05-07,2024-05-07,合同会社ＤＯＮＺＡ　ＴＲＡＤＩＮＧ,,合同会社,神奈川県,厚木市,妻田北３丁目１番３２－２０１号,,14,212,2430812,,,,,,,2024-05-07,1,,,,,ドンザトレーディング,0
1564,6030001160140,新規,0,2024-05-07,2024-05-07,株式会社エムディテック,,株式会社,埼玉県,川口市,芝中田１丁目１６番１０－１０３号,,11,203,3330847,,,,,,,2024-05-07,1,,,,,エムディテック,0
1565,6030001160149,新規,0,2024-05-07,2024-05-07,ＲＫ株式会社,,株式会社,埼玉県,草加市,柿木町１９５４,,11,221,3400001,,,,,,,2024-05-07,1,,,,,アールケイ,0
1566,6030001160173,新規,0,2024-05-07,2024-05-07,株式会社森田,,株式会社,埼玉県,さいたま市大宮区,東町２丁目２５９番地４０１,,11,103,3300841,,,,,,,2024-05-07,1,,,,,モリタ,0
1574,6040001133426,新規,0,2024-05-07,2024-05-07,株式会社黎明,,株式会社,千葉県,野田市,五木１６４番地の２,,12,208,2780054,,,,,,,2024-05-07,1,,,,,レイメイ,0
1583,6040003024870,新規,0,2024-05-07,2024-05-07,合同会社ＳＴＥＰ,,合同会社,千葉県,市原市,能満１１番地,,12,219,2900011,,,,,,,2024-05-07,1,,,,,ステップ,0
1589,6060001037055,新規,0,2024-05-07,2024-05-07,ベルスフラワー株式会社,,株式会社,栃木県,宇都宮市,瑞穂２丁目１５番地１,,09,201,3210921,,,,,,,2024-05-07,1,,,,,ベルスフラワー,0
1596,6080403005005,新規,0,2024-05-07,2024-05-07,Ｒａｙ　Ｂａｌｌｅｔ　Ｓｃｈｏｏｌ合同会社,,合同会社,静岡県,掛川市,三俣５１９番地,,22,213,4371416,,,,,,,2024-05-07,1,,,,,レイバレエスクール,0
1602,6110001038378,新規,0,2024-05-07,2024-05-07,株式会社Ｒｅハウス,,株式会社,新潟県,南魚沼郡湯沢町,湯沢３丁目３番地１２,,15,461,9496101,,,,,,,2024-05-07,1,,,,,リハウス,0
1620,6120001264147,新規,0,2024-05-07,2024-05-07,関西エリア優良企業ベスト１００株式会社,,株式会社,大阪府,大阪市中央区,平野町４丁目６番９号,,27,128,5410046,,,,,,,2024-05-07,1,,,,,カンサイエリアユウリョウキギョウベストヒャク,0
1621,6120001264568,新規,0,2024-05-07,2024-05-07,塩谷建設株式会社,,株式会社,大阪府,枚方市,野村元町５番４５号,,27,210,5730132,,,,,,,2024-05-07,1,,,,,シオタニケンセツ,0
1624,6120003026454,新規,0,2024-05-07,2024-05-07,合同会社参謀,,合同会社,大阪府,大阪市中央区,内本町１丁目１－５－４Ｆ,,27,128,5400026,,,,,,,2024-05-07,1,,,,,サンボウ,0
1625,6120003026512,新規,0,2024-05-07,2024-05-07,合同会社ＫＬＥＩＮ　ＢＡＵＭＳ,,合同会社,大阪府,大阪市港区,夕凪１丁目１１番１５号,,27,107,5520004,,,,,,,2024-05-07,1,,,,,クラインバウムス,0
1626,6120101069512,新規,0,2024-05-07,2024-05-07,株式会社ＢＲＯ,,株式会社,大阪府,堺市堺区,中瓦町２丁３番１８号タカサゴ屋ビル５階,,27,141,5900077,,,,,,,2024-05-07,1,,,,,ブロー,0
1627,6120101069520,新規,0,2024-05-07,2024-05-07,株式会社スタジオ・サッソー,,株式会社,大阪府,堺市西区,浜寺昭和町２丁２９９番地１,,27,144,5928345,,,,,,,2024-05-07,1,,,,,スタジオサッソー,0
1628,6120101069537,新規,0,2024-05-07,2024-05-07,株式会社ＳＴＡＮＣＥ,,株式会社,大阪府,堺市西区,草部１０８５番地１,,27,144,5938312,,,,,,,2024-05-07,1,,,,,スタンス,0
1634,6122001038051,新規,0,2024-05-07,2024-05-07,株式会社Ｌｉｂｅｒｔｅ,,株式会社,大阪府,大東市,明美の里町１６番２０号ネオコーポイケダヤ５号館２０３号室,,27,218,5740003,,,,,,,2024-05-07,1,,,,,リベルテ,0
1635,6122001038068,新規,0,2024-05-07,2024-05-07,株式会社わかば,,株式会社,大阪府,東大阪市,衣摺６丁目５番１３号,,27,227,5770827,,,,,,,2024-05-07,1,,,,,ワカバ,0
1640,6130001076962,新規,0,2024-05-07,2024-05-07,株式会社１０年後,,株式会社,京都府,京都市下京区,朱雀正会町１－１－５０８,,26,106,6008841,,,,,,,2024-05-07,1,,,,,ジュウネンゴ,0
1641,6130001077003,新規,0,2024-05-07,2024-05-07,株式会社ｍｕｍｕｍｕ,,株式会社,京都府,京都市下京区,大黒町２２７番地第２キョートビル４０２,,26,106,6008043,,,,,,,2024-05-07,1,,,,,ムムム,0
1642,6130001077011,新規,0,2024-05-07,2024-05-07,グローバルハイヤー株式会社,,株式会社,京都府,京都市南区,吉祥院砂ノ町１番地,,26,107,6018335,,,,,,,2024-05-07,1,,,,,グローバルハイヤー,0
1643,6130003009524,新規,0,2024-05-07,2024-05-07,合同会社ＥＭＡ,,合同会社,京都府,京都市下京区,繁昌町３００番地１－６０２号,,26,106,6008433,,,,,,,2024-05-07,1,,,,,エマ,0
1644,6130003009532,新規,0,2024-05-07,2024-05-07,ライトエナジー合同会社,,合同会社,京都府,相楽郡精華町,光台７丁目２６番地８,,26,366,6190237,,,,,,,2024-05-07,1,,,,,ライトエナジー,0
1656,6140001134307,新規,0,2024-05-07,2024-05-07,株式会社豊島美装,,株式会社,兵庫県,神戸市中央区,脇浜町２丁目１３番４号,,28,110,6510072,,,,,,,2024-05-07,1,,,,,トヨシマビソウ,0
1657,6140001134315,新規,0,2024-05-07,2024-05-07,株式会社クロッシュ,,株式会社,兵庫県,尼崎市,若王寺２丁目４番１０号２階,,28,202,6610974,,,,,,,2024-05-07,1,,,,,クロッシュ,0
1660,6140003020496,新規,0,2024-05-07,2024-05-07,Ｍｉａｎ　Ｔｒａｄｉｎｇ合同会社,,合同会社,兵庫県,神戸市長田区,雲雀ヶ丘３丁目６－２ヴィラナリー雲雀ケ丘２号棟１０４号室,,28,106,6530879,,,,,,,2024-05-07,1,,,,,ミアントレーディング,0
1661,6140003020513,新規,0,2024-05-07,2024-05-07,マーガレット合同会社,,合同会社,兵庫県,宝塚市,宝梅３丁目１番１９号,,28,214,6650013,,,,,,,2024-05-07,1,,,,,マーガレット,0
1662,6140003020521,新規,0,2024-05-07,2024-05-07,合同会社ＳＣＡＬＡ,,合同会社,兵庫県,神戸市須磨区,高倉台４丁目２－３号棟１３０４号,,28,107,6540081,,,,,,,2024-05-07,1,,,,,スカラ,0
1663,6140003020538,新規,0,2024-05-07,2024-05-07,合同会社志雲,,合同会社,兵庫県,神戸市北区,菖蒲が丘１丁目６番地の３,,28,109,6511306,,,,,,,2024-05-07,1,,,,,シウン,0
1665,6150001027261,新規,0,2024-05-07,2024-05-07,ＫＩＴＡＭＵ株式会社,,株式会社,奈良県,香芝市,今泉４６４番地１０,,29,210,6390264,,,,,,,2024-05-07,1,,,,,キタム,0
1666,6150003003244,新規,0,2024-05-07,2024-05-07,合同会社ＳＴＹＬＥ　ＮＩＣＯ,,合同会社,奈良県,生駒市,壱分町２７７番地５,,29,209,6300222,,,,,,,2024-05-07,1,,,,,スタイルニコ,0
1667,6150005009586,新規,0,2024-05-07,2024-05-07,大和たばこ商業協同組合,,その他の設立登記法人,奈良県,大和高田市,旭南町１番４０号,,29,202,6350035,,,,,,,2024-05-07,1,,,,,ヤマトタバコショウギョウ,0
1668,6160001025900,新規,0,2024-05-07,2024-05-07,株式会社冨田工務店,,株式会社,滋賀県,高島市,新旭町饗庭３９５６番地１,00134623,25,212,5201531,,,,,,,2024-05-07,1,,,,,トミタコウムテン,0
1670,6160003003185,新規,0,2024-05-07,2024-05-07,合同会社ｅｎｊｏｙ　ｌｏｏｐ,,合同会社,滋賀県,彦根市,河原２丁目４番１９号２Ｆ,,25,202,5220083,,,,,,,2024-05-07,1,,,,,エンジョイループ,0
1671,6170001018119,新規,0,2024-05-07,2024-05-07,株式会社Ｍ,,株式会社,和歌山県,和歌山市,十一番丁１３番地１００２号,,30,201,6408159,,,,,,,2024-05-07,1,,,,,エム,0
1677,6180001161198,新規,0,2024-05-07,2024-05-07,株式会社アックス,,株式会社,愛知県,名古屋市中区,栄１丁目６番１５号（グランドメゾン御園座タワー３６０４号）,,23,106,4600008,,,,,,,2024-05-07,1,,,,,アックス,0
1679,6180003026762,新規,0,2024-05-07,2024-05-07,合同会社ＧｏｍＡ,,合同会社,愛知県,弥富市,佐古木３丁目２９５―２ワイストア佐古木店内ミントライト,,23,235,4980006,,,,,,,2024-05-07,1,,,,,ゴマ,0
1684,6190001031318,新規,0,2024-05-07,2024-05-07,株式会社Ｎｉｃｏｔｔ,,株式会社,三重県,津市,東丸之内２０番３号,,24,201,5140028,,,,,,,2024-05-07,1,,,,,ニコット,0
1685,6190001031334,新規,0,2024-05-07,2024-05-07,株式会社アクアホールディングス,,株式会社,三重県,松阪市,伊勢寺町４８１番地６,,24,204,5150845,,,,,,,2024-05-07,1,,,,,アクアホールディングス,0
1690,6200001042461,新規,0,2024-05-07,2024-05-07,株式会社翔建装,,株式会社,岐阜県,各務原市,那加琴が丘町１丁目１４４番地,,21,213,5040006,,,,,,,2024-05-07,1,,,,,ショウケンソウ,0
1703,6250001020636,新規,0,2024-05-07,2024-05-07,株式会社セレクトエンタープライズ,,株式会社,山口県,宇部市,今村北５丁目１２番８号,,35,202,7550155,,,,,,,2024-05-07,1,,,,,セレクトエンタープライズ,0
1705,6250003003498,新規,0,2024-05-07,2024-05-07,合同会社ＦＵＬＦＩＬＬＥＤ,,合同会社,山口県,下松市,望町３丁目７番１号,,35,207,7440072,,,,,,,2024-05-07,1,,,,,フルフィルド,0
1713,6290001105549,新規,0,2024-05-07,2024-05-07,ＭＫコンサルティング株式会社,,株式会社,福岡県,福岡市南区,大楠２丁目１１－２,,40,134,8150082,,,,,,,2024-05-07,1,,,,,,0
1714,6290001105565,新規,0,2024-05-07,2024-05-07,株式会社エイチアイエム,,株式会社,福岡県,古賀市,天神１丁目１５番３号,,40,223,8113101,,,,,,,2024-05-07,1,,,,,エイチアイエム,0
1715,6290001105730,新規,0,2024-05-07,2024-05-07,三村興産株式会社,,株式会社,福岡県,福岡市西区,姪浜駅南４丁目７番１４－２号,,40,135,8190006,,,,,,,2024-05-07,1,,,,,ミムラコウサン,0
1720,6290803004709,新規,0,2024-05-07,2024-05-07,合同会社ラフィータフィー,,合同会社,福岡県,北九州市八幡西区,光貞台１丁目１番１号,,40,109,8070805,,,,,,,2024-05-07,1,,,,,ラフィータフィー,0
1721,6290803004717,新規,0,2024-05-07,2024-05-07,ＭＫＰ合同会社,,合同会社,福岡県,北九州市八幡西区,皇后崎町６番３号,,40,109,8060041,,,,,,,2024-05-07,1,,,,,エムケイピー,0
1724,6330001032045,新規,0,2024-05-07,2024-05-07,株式会社深建,,株式会社,熊本県,八代市,高島町４１３８番地８,,43,202,8660014,,,,,,,2024-05-07,1,,,,,,0
1726,6340001026475,新規,0,2024-05-07,2024-05-07,株式会社ＮＧＩ,,株式会社,鹿児島県,姶良市,蒲生町下久徳９３４番地１,,46,225,8995304,,,,,,,2024-05-07,1,,,,,エヌジーアイ,0
1727,6340001026483,新規,0,2024-05-07,2024-05-07,ワイズ株式会社,,株式会社,鹿児島県,鹿児島市,宇宿２丁目２３番１５号,,46,201,8900073,,,,,,,2024-05-07,1,,,,,ワイズ,0
1728,6340001026491,新規,0,2024-05-07,2024-05-07,株式会社Ａｇｒｅｅｄ,,株式会社,鹿児島県,鹿児島市,唐湊１丁目１６－６,,46,201,8900081,,,,,,,2024-05-07,1,,,,,アグリード,0
1729,6340003004462,新規,0,2024-05-07,2024-05-07,合同会社ＴＤＳ,,合同会社,鹿児島県,鹿児島市,郡元町２５番１０－１００５号,,46,201,8900084,,,,,,,2024-05-07,1,,,,,ティーディーエス,0
1730,6340003004470,新規,0,2024-05-07,2024-05-07,合同会社ＯＴＡＳ,,合同会社,鹿児島県,霧島市,牧園町持松２３５５－３,,46,218,8996505,,,,,,,2024-05-07,1,,,,,オータス,0
1731,6350001018942,新規,0,2024-05-07,2024-05-07,株式会社Ｂｅｈｅａｌ,,株式会社,宮崎県,宮崎市,佐土原町下田島２０２９０番地８３,,45,201,8800211,,,,,,,2024-05-07,1,,,,,ビーヘル,0
1735,6360001033610,新規,0,2024-05-07,2024-05-07,株式会社アパラギ不動産,,株式会社,沖縄県,中頭郡嘉手納町,字嘉手納３１２番地２６,,47,325,9040203,,,,,,,2024-05-07,1,,,,,アパラギフドウサン,0
1740,6370001051256,新規,0,2024-05-07,2024-05-07,株式会社仙産,,株式会社,宮城県,仙台市青葉区,本町１丁目１２番１２号ＧＭビルディング９階,,04,101,9800014,,,,,,,2024-05-07,1,,,,,センサン,0
1771,6470001020176,新規,0,2024-05-07,2024-05-07,パワーバンク株式会社,,株式会社,香川県,観音寺市,昭和町１丁目６番６１号,,37,205,7680066,,,,,,,2024-05-07,1,,,,,パワーバンク,0
1774,6500001025601,新規,0,2024-05-07,2024-05-07,株式会社ＧＲＥＥＮ,,株式会社,愛媛県,西条市,船屋甲３０５番地３,,38,206,7930004,,,,,,,2024-05-07,1,,,,,グリーン,0
1779,7010101016128,新規,0,2024-05-07,2024-05-07,株式会社提谷電気,,株式会社,東京都,八王子市,楢原町１３７４番地９,,13,201,1930803,,,,,,,2024-05-07,1,,,,,サゲヤデンキ,0
1786,7010401182124,新規,0,2024-05-07,2024-05-07,株式会社テクノサポート,,株式会社,東京都,港区,新橋３丁目１５番４号ＴＫＫ第２新橋ビル４階,,13,103,1050004,,,,,,,2024-05-07,1,,,,,テクノサポート,0
1787,7010401182165,新規,0,2024-05-07,2024-05-07,株式会社ＷＥ　ＧＯＴ　ＩＴ,,株式会社,東京都,港区,南青山２丁目２番１５号ＷｉｎＡｏｙａｍａビルＵＣＦ６３５,,13,103,1070062,,,,,,,2024-05-07,1,,,,,ウィーガレ,0
1788,7010401182280,新規,0,2024-05-07,2024-05-07,株式会社ザイマックスコモンズプロ,,株式会社,東京都,港区,赤坂１丁目１番１号,,13,103,1070052,,,,,,,2024-05-07,1,,,,,ザイマックスコモンズプロ,0
1789,7010403032517,新規,0,2024-05-07,2024-05-07,Ｅｓｃｕｄｏ　Ｍｏｎｔｅ合同会社,,合同会社,東京都,港区,北青山１丁目３番１号アールキューブ青山３階,,13,103,1070061,,,,,,,2024-05-07,1,,,,,エスクードモンテ,0
1790,7010403032533,新規,0,2024-05-07,2024-05-07,合同会社Ｓｔａｎｄ　ＵＰ　Ｐｌｕｓ,,合同会社,東京都,港区,南青山２丁目２番１５号,,13,103,1070062,,,,,,,2024-05-07,1,,,,,スタンドアッププラス,0
1791,7010403032590,新規,0,2024-05-07,2024-05-07,合同会社設備設計室杉本,,合同会社,東京都,港区,南青山２丁目２番１５号ウィン青山９４２,,13,103,1070062,,,,,,,2024-05-07,1,,,,,セツビセッケイシツスギモト,0
1797,7010601065112,新規,0,2024-05-07,2024-05-07,株式会社ＲＥＡＦ,,株式会社,東京都,江東区,木場３丁目１６番８号レッタスビル８階,,13,108,1350042,,,,,,,2024-05-07,1,,,,,リーフ,0
1811,7010901055201,新規,0,2024-05-07,2024-05-07,株式会社ラッキーエンド,,株式会社,東京都,世田谷区,三軒茶屋２丁目２番１３号ステラメゾン三軒茶屋,,13,112,1540024,,,,,,,2024-05-07,1,,,,,ラッキーエンド,0
1821,7011103014383,新規,0,2024-05-07,2024-05-07,合同会社スターシップ,,合同会社,東京都,新宿区,新宿２丁目１２－１３新宿アントレサロンビル２Ｆ,,13,104,1600022,,,,,,,2024-05-07,1,,,,,スターシップ,0
1826,7011401026031,新規,0,2024-05-07,2024-05-07,森木ＴＥＣＨ株式会社,,株式会社,東京都,板橋区,大和町６番１２－４０１号,,13,119,1730012,,,,,,,2024-05-07,1,,,,,モリキテック,0
1828,7011403004373,新規,0,2024-05-07,2024-05-07,合同会社Ｇｏｒｄｏｎ,,合同会社,東京都,板橋区,赤塚新町２丁目１５－２２,,13,119,1750093,,,,,,,2024-05-07,1,,,,,ゴードン,0
1833,7012701018247,新規,0,2024-05-07,2024-05-07,株式会社佐伯工務店,,株式会社,東京都,清瀬市,中里３丁目９２２番地２６,,13,221,2040003,,,,,,,2024-05-07,1,,,,,サエキコウムテン,0
1834,7012803003386,新規,0,2024-05-07,2024-05-07,リモートスタッフサービス合同会社,,合同会社,東京都,立川市,錦町３丁目９番５号,,13,202,1900022,,,,,,,2024-05-07,1,,,,,リモートスタッフサービス,0
1840,7020001156881,新規,0,2024-05-07,2024-05-07,株式会社ＹＡＴＴ,,株式会社,神奈川県,川崎市中原区,上丸子八幡町５６２－１,,14,133,2110001,,,,,,,2024-05-07,1,,,,,ヤティ,0
1841,7020001156989,新規,0,2024-05-07,2024-05-07,株式会社あんしんカンパニー,,株式会社,神奈川県,横浜市港北区,日吉本町４丁目２７番２１号,,14,109,2230062,,,,,,,2024-05-07,1,,,,,アンシンカンパニー,0
1842,7020001157013,新規,0,2024-05-07,2024-05-07,株式会社桜創建,,株式会社,神奈川県,横浜市鶴見区,鶴見中央４丁目２８番１９号,,14,101,2300051,,,,,,,2024-05-07,1,,,,,サクラソウケン,0
1843,7020001157038,新規,0,2024-05-07,2024-05-07,株式会社ＫＥＫＥ,,株式会社,神奈川県,横浜市青葉区,しらとり台１番地４プレミールＳ３０５,,14,117,2270054,,,,,,,2024-05-07,1,,,,,ケケ,0
1844,7020001157054,新規,0,2024-05-07,2024-05-07,株式会社世界で一番やさしいひと,,株式会社,神奈川県,横浜市港北区,小机町１７５番地５ナイスアーバンスクエア横濱小机３０３,,14,109,2220036,,,,,,,2024-05-07,1,,,,,セカイデイチバンヤサシイヒト,0
1845,7020001157087,新規,0,2024-05-07,2024-05-07,株式会社テイク電機,,株式会社,神奈川県,川崎市高津区,上作延５丁目１０番２４号,,14,134,2130034,,,,,,,2024-05-07,1,,,,,テイクデンキ,0
1853,7021003014458,新規,0,2024-05-07,2024-05-07,合同会社葵,,合同会社,神奈川県,厚木市,恩名１丁目１７番４５号メゾン本厚木１０７,,14,212,2430032,,,,,,,2024-05-07,1,,,,,アオイ,0
1854,7021003014474,新規,0,2024-05-07,2024-05-07,合同会社Ｆａｔ　Ｓｍｉｌｅ　ＧＡＭＥＳ,,合同会社,神奈川県,大和市,下和田５―５,,14,213,2420015,,,,,,,2024-05-07,1,,,,,ファットスマイルゲームス,0
1855,7030001160180,新規,0,2024-05-07,2024-05-07,株式会社尾崎設備,00134624,株式会社,埼玉県,志木市,中宗岡２丁目９番４５号,,11,228,3530002,,,,,,,2024-05-07,1,,,,,オザキセツビ,0
1860,7040001133425,新規,0,2024-05-07,2024-05-07,株式会社ＡＣＴ,,株式会社,千葉県,野田市,清水７９３番地の４グリーンリーフＢ１０１,,12,208,2780043,,,,,,,2024-05-07,1,,,,,アクト,0
1864,7040003024894,新規,0,2024-05-07,2024-05-07,ＮＧＯＣ　ＰＨＡＴ合同会社,,合同会社,千葉県,八千代市,勝田台１丁目３５番地４ラレーブ勝田台４０１,,12,221,2760023,,,,,,,2024-05-07,1,,,,,ゴックファット,0
1865,7040003024911,新規,0,2024-05-07,2024-05-07,合同会社ＰＩＬＡＴＥＳ　ＳＴＵＤＩＯ　ｌｉｂ,,合同会社,千葉県,館山市,船形６５１－９,,12,205,2940056,,,,,,,2024-05-07,1,,,,,ピラティススタジオリブ,0
1868,7060001037046,新規,0,2024-05-07,2024-05-07,ｍｅｅｔｓ株式会社,,株式会社,栃木県,宇都宮市,上横田町８２２番地１１,,09,201,3210106,,,,,,,2024-05-07,1,,,,,ミーツ,0
1870,7060003005067,新規,0,2024-05-07,2024-05-07,合同会社Ｇｒａｔｅｆｕｌ　Ｄａｙｚ,,合同会社,栃木県,宇都宮市,江曽島４丁目１１０９番地３,,09,201,3210107,,,,,,,2024-05-07,1,,,,,グレイトフルデイズ,0
1877,7080401027165,新規,0,2024-05-07,2024-05-07,株式会社カモト設備,,株式会社,静岡県,浜松市中央区,高丘北２丁目３５番６号,,22,138,4338119,,,,,,,2024-05-07,1,,,,,カモトセツビ,0
1878,7080401027173,新規,0,2024-05-07,2024-05-07,株式会社Ｉｌｌｕｍｉｎａｔｅ,,株式会社,静岡県,浜松市中央区,天王町３６番地,,22,138,4350052,,,,,,,2024-05-07,1,,,,,イルミネイト,0
1881,7080403005004,新規,0,2024-05-07,2024-05-07,恒遠合同会社,,合同会社,静岡県,磐田市,見付３９６７番地５－５３３号室,,22,211,4380086,,,,,,,2024-05-07,1,,,,,コウエン,0
1882,7090001018687,新規,0,2024-05-07,2024-05-07,株式会社ｉｄｅａｌ,,株式会社,山梨県,南都留郡富士河口湖町,船津４５５番地６,,19,430,4010301,,,,,,,2024-05-07,1,,,,,アイディール,0
1889,7110001038393,新規,0,2024-05-07,2024-05-07,ＳＲ不動産株式会社,,株式会社,新潟県,新潟市秋葉区,市之瀬１８番地,,15,105,9560002,,,,,,,2024-05-07,1,,,,,エスアールフドウサン,0
1894,7120001027593,新規,0,2024-05-07,2024-05-07,信栄建設工業株式会社,,株式会社,大阪府,大阪市大正区,南恩加島５丁目５番１６号,,27,108,5510021,,,,,,,2024-05-07,1,,,,,シンエイケンセツコウギョウ,0
1905,7120001264229,新規,0,2024-05-07,2024-05-07,ビューティバスト株式会社,,株式会社,大阪府,大阪市港区,弁天１丁目２番１－２８０９号,,27,107,5520007,,,,,,,2024-05-07,1,,,,,ビューティバスト,0
1906,7120001264534,新規,0,2024-05-07,2024-05-07,株式会社Ｗｏｎｄｅｒ　Ａｇｅｎｃｙ,,株式会社,大阪府,寝屋川市,池田３丁目１番４７号,,27,215,5720039,,,,,,,2024-05-07,1,,,,,ワンダーエージェンシー,0
1907,7120001264583,新規,0,2024-05-07,2024-05-07,納福株式会社,,株式会社,大阪府,大阪市生野区,新今里５丁目１－３デイルーチェ上町ＥＡＳＴ２０１号室,,27,116,5440001,,,,,,,2024-05-07,1,,,,,ノウフク,0
1914,7120003026511,新規,0,2024-05-07,2024-05-07,合同会社トウエン,,合同会社,大阪府,大阪市大正区,平尾２丁目１０番１９号,,27,108,5510012,,,,,,,2024-05-07,1,,,,,トウエン,0
1917,7120005024307,新規,0,2024-05-07,2024-05-07,一般社団法人日本セカンドライフしあわせ社団,,その他の設立登記法人,大阪府,大阪市北区,中崎西２丁目４番１２号梅田センタービル２５階,,27,127,5300015,,,,,,,2024-05-07,1,,,,,ニホンセカンドライフシアワセシャダン,0
1920,7120901049126,新規,0,2024-05-07,2024-05-07,株式会社清水商会,,株式会社,大阪府,摂津市,鳥飼本町４丁目９番３１号,,27,224,5660052,,,,,,,2024-05-07,1,,,,,シミズショウカイ,0
1921,7120901049142,新規,0,2024-05-07,2024-05-07,夢Ｃｈｉｃｋｅｎ株式会社,,株式会社,大阪府,摂津市,一津屋２丁目２２番１８号,,27,224,5660043,,,,,,,2024-05-07,1,,,,,ユメチキン,0
1926,7130001077002,新規,0,2024-05-07,2024-05-07,株式会社多田機工,,株式会社,京都府,長岡京市,神足神田４番地１２,,26,209,6170833,,,,,,,2024-05-07,1,,,,,タダキコウ,0
1928,7130003009523,新規,0,2024-05-07,2024-05-07,合同会社Ｍｅｅ,,合同会社,京都府,京都市東山区,三条通白川橋東入四丁目中之町２０３番地－３０１号,,26,105,6050000,,,,,,,2024-05-07,1,,,,,ミー,0
1930,7130005017086,新規,0,2024-05-07,2024-05-07,特定非営利活動法人さとやまワクワク研究所,,その他の設立登記法人,京都府,京都市伏見区,日野不動講町３８番地の６０,,26,109,6011422,,,,,,,2024-05-07,1,,,,,サトヤマワクワクケンキュウショ,0
1933,7140001134322,新規,0,2024-05-07,2024-05-07,株式会社ステージアップ,,株式会社,兵庫県,川西市,けやき坂３丁目４５番地の８,,28,217,6660145,,,,,,,2024-05-07,1,,,,,ステージアップ,0
1936,7150001027260,新規,0,2024-05-07,2024-05-07,レッドラボ株式会社,,株式会社,奈良県,橿原市,中曽司町３３２番地１,,29,205,6340845,,,,,,,2024-05-07,1,,,,,レッドラボ,0
1937,7150003003243,新規,0,2024-05-07,2024-05-07,合同会社ピーナッツ,,合同会社,奈良県,生駒市,喜里が丘３丁目６番１８－１０８号,,29,209,6300248,,,,,,,2024-05-07,1,,,,,ピーナッツ,0
1941,7170001018118,新規,0,2024-05-07,2024-05-07,株式会社たいぞう,,株式会社,和歌山県,和歌山市,西庄１０７３番地２２シーサイドビュー西ノ庄１０８号,,30,201,6400112,,,,,,,2024-05-07,1,,,,,タイゾウ,0
1950,7200001042460,新規,0,2024-05-07,2024-05-07,株式会社克建,,株式会社,岐阜県,瑞穂市,野田新田４１４５番地２,,21,216,5010232,,,,,,,2024-05-07,1,,,,,カツケン,0
1951,7200001042485,新規,0,2024-05-07,2024-05-07,ブリューエン株式会社,,株式会社,岐阜県,大垣市,東町２丁目１０７番地６,,21,202,5030802,,,,,,,2024-05-07,1,,,,,ブリューエン,0
1961,7240001063180,新規,0,2024-05-07,2024-05-07,株式会社ケアセラ,,株式会社,広島県,福山市,伊勢丘３丁目１０番１０９号,,34,207,7210915,,,,,,,2024-05-07,1,,,,,ケアセラ,0
1962,7240001063189,新規,0,2024-05-07,2024-05-07,株式会社マルキ,,株式会社,広島県,広島市安佐南区,高取南３丁目８番２７号,,34,105,7310142,,,,,,,2024-05-07,1,,,,,マルキ,0
1966,7250001020635,新規,0,2024-05-07,2024-05-07,株式会社ＴＭＧＣ,,株式会社,山口県,宇部市,大字妻崎開作５９２番地,,35,202,7590204,,,,,,,2024-05-07,1,,,,,ティーエムジーシー,0
1971,7260001039030,新規,0,2024-05-07,2024-05-07,株式会社エーアール,,株式会社,岡山県,岡山市北区,津倉町１丁目２－１１,,33,101,7000014,,,,,,,2024-05-07,1,,,,,エーアール,0
1974,7270001008967,新規,0,2024-05-07,2024-05-07,株式会社めぐ,,株式会社,鳥取県,米子市,西町９０　２階,,31,202,6830826,,,,,,,2024-05-07,1,,,,,メグ,0
1986,7290003015225,新規,0,2024-05-07,2024-05-07,ＴＲＩ　ＴＵＥ合同会社,,合同会社,福岡県,福岡市南区,塩原３丁目１６－５－２０１号,,40,134,8150032,,,,,,,2024-05-07,1,,,,,チトゥエ,0
1989,7290801030549,新規,0,2024-05-07,2024-05-07,株式会社モノペンテ,,株式会社,福岡県,直方市,大字畑３２４番地１,,40,204,8220004,,,,,,,2024-05-07,1,,,,,モノペンテ,0
1992,7290803004716,新規,0,2024-05-07,2024-05-07,ＦＡプラネット合同会社,,合同会社,福岡県,遠賀郡水巻町,伊左座５丁目６番１５号,,40,382,8070056,,,,,,,2024-05-07,1,,,,,エフエープラネット,0
1993,7300001013724,新規,0,2024-05-07,2024-05-07,荒谷畜産株式会社,,株式会社,佐賀県,多久市,南多久町大字花祭２４９６番地３,,41,204,8460025,,,,,,,2024-05-07,1,,,,,アラタニチクサン,0
1995,7310001019002,新規,0,2024-05-07,2024-05-07,株式会社マツレイ,,株式会社,長崎県,長崎市,香焼町１４８１番地２０,,42,201,8510310,,,,,,,2024-05-07,1,,,,,マツレイ,0
2000,7340001026474,新規,0,2024-05-07,2024-05-07,株式会社メルシーアムール,,株式会社,鹿児島県,鹿児島市,広木２丁目３番３４号,,46,201,8900037,,,,,,,2024-05-07,1,,,,,メルシーアムール,0
2003,7360001033584,新規,0,2024-05-07,2024-05-07,株式会社ＭＩＹＡＭＡ,,株式会社,沖縄県,那覇市,久米１丁目３番１１号１Ｆ,,47,201,9000033,,,,,,,2024-05-07,1,,,,,ミヤマ,0
2004,7360001033601,新規,0,2024-05-07,2024-05-07,株式会社ＣＯＲＥＡ,,株式会社,沖縄県,宜野湾市,嘉数４丁目１７番２４号,,47,205,9012226,,,,,,,2024-05-07,1,,,,,コレア,0
2005,7360003013948,新規,0,2024-05-07,2024-05-07,合同会社サンライフステップ,,合同会社,沖縄県,糸満市,字阿波根７５５番地の６,,47,210,9010301,,,,,,,2024-05-07,1,,,,,サンライフステップ,0
2026,7430001091749,新規,0,2024-05-07,2024-05-07,株式会社友希,,株式会社,北海道,恵庭市,恵み野北１丁目５‐１４,,01,231,0611374,,,,,,,2024-05-07,1,,,,,,0
2029,7430003016290,新規,0,2024-05-07,2024-05-07,合同会社ノースＤＸラボ,,合同会社,北海道,札幌市白石区,菊水九条１丁目４‐２１,,01,104,0030809,,,,,,,2024-05-07,1,,,,,ノースディーエックスラボ,0
2032,7470001020175,新規,0,2024-05-07,2024-05-07,株式会社オールコンサルティング,,株式会社,香川県,高松市,西町３０番２号,,37,201,7600003,,,,,,,2024-05-07,1,,,,,オールコンサルティング,0
2035,7500001025600,新規,0,2024-05-07,2024-05-07,株式会社ホースイ設備,,株式会社,愛媛県,八幡浜市,保内町宮内８番耕地４３番地３,,38,204,7960202,,,,,,,2024-05-07,1,,,,,ホースイセツビ,0
2043,8010003043649,新規,0,2024-05-07,2024-05-07,合同会社シーケーシステム,,合同会社,東京都,千代田区,外神田６丁目１５－１１日東ビル６０６,,13,101,1010021,,,,,,,2024-05-07,1,,,,,シーケーシステム,0
2047,8010401182123,新規,0,2024-05-07,2024-05-07,株式会社ＨＡＲＵＭＩ　ＴＲＵＳＴ,,株式会社,東京都,港区,東新橋２丁目１１番７号,,13,103,1050021,,,,,,,2024-05-07,1,,,,,ハルミトラスト,0
2048,8010401182206,新規,0,2024-05-07,2024-05-07,Ｋ＆Ｃジェネラル・パートナーズ２号株式会社,,株式会社,東京都,港区,虎ノ門５丁目１１番１号オランダヒルズ森タワーＲｏＰ,,13,103,1050001,,,,,,,2024-05-07,1,,,,,ケーアンドシージェネラルパートナーズニゴウ,0
2059,8010801035021,新規,0,2024-05-07,2024-05-07,株式会社リテールナレッジプロダクション,,株式会社,東京都,大田区,東海３丁目７番３号東海ビル,,13,111,1430001,,,,,,,2024-05-07,1,,,,,リテールナレッジプロダクション,0
2062,8010901055209,新規,0,2024-05-07,2024-05-07,ＳＲＭＫ　Ａｓｓｅｔ　Ｍａｎａｇｅｍｅｎｔ株式会社,,株式会社,東京都,世田谷区,用賀２丁目２５番２－４０７号,,13,112,1580097,,,,,,,2024-05-07,1,,,,,エスアールエムケイアセットマネジメント,0
2070,8011001161525,新規,0,2024-05-07,2024-05-07,凌昆株式会社,,株式会社,東京都,渋谷区,恵比寿西１丁目３６番２号７０１号,,13,113,1500021,,,,,,,2024-05-07,1,,,,,リョウコン,0
2080,8011105011023,新規,0,2024-05-07,2024-05-07,司法書士法人清水・古屋事務所,,その他の設立登記法人,東京都,新宿区,四谷三栄町３番１１号,,13,104,1600008,,,,,,,2024-05-07,1,,,,,シミズフルヤジムショ,0
2081,8011205002599,新規,0,2024-05-07,2024-05-07,一般社団法人日本営農支援機構,,その他の設立登記法人,東京都,中野区,中央４丁目４番２号ヘリオス６新中野４Ｆ,,13,114,1640011,,,,,,,2024-05-07,1,,,,,ニホンエイノウシエンキコウ,0
2082,8011301029645,新規,0,2024-05-07,2024-05-07,プラティナ株式会社,,株式会社,東京都,杉並区,阿佐谷南３丁目２４―１２,,13,115,1660004,,,,,,,2024-05-07,1,,,,,プラティナ,0
2086,8011501030626,新規,0,2024-05-07,2024-05-07,株式会社Ｓ＆Ｌ,,株式会社,東京都,北区,王子５丁目２番１－６０５号,,13,117,1140002,,,,,,,2024-05-07,1,,,,,エスアンドエル,0
2090,8011701027249,新規,0,2024-05-07,2024-05-07,株式会社未来建設,,株式会社,東京都,江戸川区,一之江４丁目３番１３号一之江プリンスビル１０５,,13,123,1320024,,,,,,,2024-05-07,1,,,,,ミライケンセツ,0
2093,8012401041837,新規,0,2024-05-07,2024-05-07,株式会社ＮｅＳｈｅｅｐ,,株式会社,東京都,小金井市,東町３丁目１７番５６号,,13,210,1840011,,,,,,,2024-05-07,1,,,,,ネシープ,0
2094,8012403006549,新規,0,2024-05-07,2024-05-07,合同会社グリーンドーナツ,,合同会社,東京都,三鷹市,中原２丁目８番１８号,,13,204,1810005,,,,,,,2024-05-07,1,,,,,グリーンドーナツ,0
2097,8012701018246,新規,0,2024-05-07,2024-05-07,株式会社ＬＵＬＵ防災設備,,株式会社,東京都,東久留米市,新川町２丁目７番１１号,,13,222,2030013,,,,,,,2024-05-07,1,,,,,ルルボウサイセツビ,0
2098,8012801023154,新規,0,2024-05-07,2024-05-07,株式会社アクス,,株式会社,東京都,立川市,柴崎町３丁目７番２５号ｂｅＲｏｏｍ立川８０４号室,,13,202,1900023,,,,,,,2024-05-07,1,,,,,アクス,0
2100,8013301052239,新規,0,2024-05-07,2024-05-07,株式会社Ｌｉｆｏｌｉｃ,,株式会社,東京都,豊島区,高田３丁目５－１７グローリア初穂高田馬場５２１号室,,13,116,1710033,,,,,,,2024-05-07,1,,,,,ライフォリック,0
2104,8020001156922,新規,0,2024-05-07,2024-05-07,ＩＨＮ株式会社,,株式会社,神奈川県,横浜市中区,吉浜町１番地２,,14,104,2310024,,,,,,,2024-05-07,1,,,,,アイエイチエヌ,0
2105,8020001156988,新規,0,2024-05-07,2024-05-07,ＣＪＣ‐Ｗ株式会社,,株式会社,神奈川県,川崎市幸区,下平間１４３番地グレース新川崎３０３,,14,132,2120053,,,,,,,2024-05-07,1,,,,,シージェイシーダブル,0
2106,8020001156996,新規,0,2024-05-07,2024-05-07,株式会社日東商事,,株式会社,神奈川県,横浜市神奈川区,三ツ沢上町１７番４２号,,14,102,2210856,,,,,,,2024-05-07,1,,,,,ニットウショウジ,0
2107,8020001157037,新規,0,2024-05-07,2024-05-07,株式会社ｅｃｌａｍ,,株式会社,神奈川県,横浜市金沢区,大道２丁目５番１６号,,14,108,2360035,,,,,,,2024-05-07,1,,,,,エクラム,0
2108,8020001157094,新規,0,2024-05-07,2024-05-07,紅葉国際商事株式会社,,株式会社,神奈川県,川崎市中原区,木月１丁目２７番６号ｔｙｍｈｏｕｓｅ１０３,,14,133,2110025,,,,,,,2024-05-07,1,,,,,モミジコクサイショウジ,0
2109,8020003026058,新規,0,2024-05-07,2024-05-07,合同会社ポムル,,合同会社,神奈川県,川崎市麻生区,王禅寺東５丁目３番１４号,,14,137,2150018,,,,,,,2024-05-07,1,,,,,ポムル,0
2116,8030001160139,新規,0,2024-05-07,2024-05-07,株式会社ｐｉｘｘｙ,,株式会社,埼玉県,上尾市,緑丘５丁目８番１９号,,11,219,3620015,,,,,,,2024-05-07,1,,,,,ピクシー,0
2117,8030001160155,新規,0,2024-05-07,2024-05-07,株式会社Ａｑｕａ,,株式会社,埼玉県,川越市,脇田町２２番地３,,11,201,3501122,,,,,,,2024-05-07,1,,,,,アクア,0
2119,8030003024218,新規,0,2024-05-07,2024-05-07,星原商事合同会社,,合同会社,埼玉県,川越市,大字小ケ谷１４１番地７,,11,201,3501104,,,,,,,2024-05-07,1,,,,,ホシハラショウジ,0
2122,8040003024902,新規,0,2024-05-07,2024-05-07,サンライズベイ合同会社,,合同会社,千葉県,浦安市,日の出３丁目３―Ｅ４０３,,12,227,2790013,,,,,,,2024-05-07,1,,,,,サンライズベイ,0
2132,8080101024726,新規,0,2024-05-07,2024-05-07,株式会社ＣＡ,,株式会社,静岡県,伊豆の国市,四日町２７５番地の２４,,22,225,4102123,,,,,,,2024-05-07,1,,,,,シーエー,0
2134,8080403005003,新規,0,2024-05-07,2024-05-07,合同会社ＴＲＧ,,合同会社,静岡県,浜松市中央区,大瀬町１５３０－３,,22,138,4313113,,,,,,,2024-05-07,1,,,,,ティーアールジー,0
2140,8110001038384,新規,0,2024-05-07,2024-05-07,ＡＱＵＡメンテ株式会社,,株式会社,新潟県,長岡市,曙２丁目４番地９,,15,202,9400832,,,,,,,2024-05-07,1,,,,,アクアメンテ,0
2157,8120001264533,新規,0,2024-05-07,2024-05-07,株式会社東将大,,株式会社,大阪府,大阪市北区,中津１丁目１８番１８号若杉ビル８０１,,27,127,5310071,,,,,,,2024-05-07,1,,,,,アズマショウタ,0
2158,8120001264566,新規,0,2024-05-07,2024-05-07,株式会社盈乾商事,,株式会社,大阪府,大阪市城東区,関目５丁目１９番９号関目花博公館４１４Ｂ,,27,118,5360008,,,,,,,2024-05-07,1,,,,,エイケンショウジ,0
2159,8120001264574,新規,0,2024-05-07,2024-05-07,Ｑｕｎｓｉ株式会社,,株式会社,大阪府,大阪市都島区,都島本通５丁目５番１号,,27,102,5340021,,,,,,,2024-05-07,1,,,,,クウェシ,0
2160,8120001264582,新規,0,2024-05-07,2024-05-07,株式会社ファインコーポレーション,,株式会社,大阪府,枚方市,牧野阪２丁目７－３３ＣＡＳＡＭＡＫＩＮＯ２０６号室,,27,210,5731146,,,,,,,2024-05-07,1,,,,,ファインコーポレーション,0
2161,8120001264590,新規,0,2024-05-07,2024-05-07,衆雲株式会社,,株式会社,大阪府,大阪市北区,菅栄町１－３－５０１,,27,127,5300031,,,,,,,2024-05-07,1,,,,,シュウウン,0
2166,8120003026510,新規,0,2024-05-07,2024-05-07,ＴＤ　Ｍａｒｔ合同会社,,合同会社,大阪府,大阪市生野区,新今里４丁目３番２１号２Ｆ,,27,116,5440001,,,,,,,2024-05-07,1,,,,,ティーディーマート,0
2168,8120005024306,新規,0,2024-05-07,2024-05-07,ドウシン税理士法人,,その他の設立登記法人,大阪府,大阪市中央区,南新町１丁目２番４号椿本ビル,,27,128,5400024,,,,,,,2024-05-07,1,,,,,ドウシン,0
2169,8120101069519,新規,0,2024-05-07,2024-05-07,泉南オートグラス株式会社,,株式会社,大阪府,貝塚市,王子８６５番地４,,27,208,5970051,,,,,,,2024-05-07,1,,,,,センナンオートグラス,0
2170,8120101069543,新規,0,2024-05-07,2024-05-07,株式会社希,,株式会社,大阪府,富田林市,中野町３丁目８１２番地９、２階,,27,214,5840021,,,,,,,2024-05-07,1,,,,,ノゾミ,0
2179,8130001076960,新規,0,2024-05-07,2024-05-07,株式会社Ｃ＆Ｇ,,株式会社,京都府,京都市東山区,本町１０丁目１５９番地３,,26,105,6050981,,,,,,,2024-05-07,1,,,,,シーアンドジー,0
2180,8130001077001,新規,0,2024-05-07,2024-05-07,株式会社Ｅ‐ＭＯ,,株式会社,京都府,京都市下京区,西七条東八反田町３３番地パデシオン京都七条５０３号,,26,106,6008891,,,,,,,2024-05-07,1,,,,,イーモ,0
2181,8130001077018,新規,0,2024-05-07,2024-05-07,株式会社まろ商店,,株式会社,京都府,宇治市,小倉町南堀池９８番地１４号,,26,204,6110042,,,,,,,2024-05-07,1,,,,,マロショウテン,0
2183,8130003009530,新規,0,2024-05-07,2024-05-07,合同会社ＮＡＳＨ,,合同会社,京都府,京都市下京区,四条通小橋西入真町９６トップハットビル地下全号室,,26,106,6008001,,,,,,,2024-05-07,1,,,,,ナッシュ,0
2187,8140001134321,新規,0,2024-05-07,2024-05-07,株式会社トレディマンシュ,,株式会社,兵庫県,神戸市須磨区,大田町２丁目２番１号,,28,107,6540024,,,,,,,2024-05-07,1,,,,,トレディマンシュ,0
2192,8140003020528,新規,0,2024-05-07,2024-05-07,合同会社ＮＲＣ,,合同会社,兵庫県,神戸市兵庫区,南仲町２番２２－１０２号,,28,105,6520841,,,,,,,2024-05-07,1,,,,,エヌアールシー,0
2193,8140003020536,新規,0,2024-05-07,2024-05-07,合同会社２２,,合同会社,兵庫県,神戸市兵庫区,駅南通５丁目２番８号,,28,105,6520897,,,,,,,2024-05-07,1,,,,,ニニ,0
2196,8160001025898,新規,0,2024-05-07,2024-05-07,株式会社ｔｏｏｌｓ,,株式会社,滋賀県,大津市,大将軍１丁目１４番１１号ＨＡＲＩＭＡビル３０５号,,25,201,5202145,,,,,,,2024-05-07,1,,,,,ツールズ,0
2198,8170001018117,新規,0,2024-05-07,2024-05-07,株式会社ＭａｒＫ　Ｔｏｋｙｏ,,株式会社,和歌山県,和歌山市,南出島６０番地４７,,30,201,6408318,,,,,,,2024-05-07,1,,,,,マークトーキョー,0
2199,8170003002036,新規,0,2024-05-07,2024-05-07,合同会社浦川電機設備,,合同会社,和歌山県,和歌山市,黒田３１１番地,,30,201,6408341,,,,,,,2024-05-07,1,,,,,ウラカワデンキセツビ,0
2205,8180001161312,新規,0,2024-05-07,2024-05-07,株式会社ＫＭ,,株式会社,愛知県,名古屋市天白区,平針２丁目１９０６番地,,23,116,4680011,,,,,,,2024-05-07,1,,,,,ケーエム,0
2206,8180001161361,新規,0,2024-05-07,2024-05-07,株式会社ＡＬＢＡＲＩＳＥ,,株式会社,愛知県,名古屋市中区,錦３丁目１９番２６号ＡＴＳ錦ビル１Ｆ,,23,106,4600003,,,,,,,2024-05-07,1,,,,,アルバライズ,0
2213,8180301038607,新規,0,2024-05-07,2024-05-07,株式会社Ｔ‐ｗｉｔｈ,,株式会社,愛知県,刈谷市,広小路４丁目２１９番地,,23,210,4480844,,,,,,,2024-05-07,1,,,,,ティーウィズ,0
2216,8190001031316,新規,0,2024-05-07,2024-05-07,株式会社エレガントレーベン,,株式会社,三重県,四日市市,赤堀２丁目９番５号,,24,202,5100826,,,,,,,2024-05-07,1,,,,,エレガントレーベン,0
2217,8190001031324,新規,0,2024-05-07,2024-05-07,株式会社アリＰＲＯテクト,,株式会社,三重県,津市,藤方１６３６番地,,24,201,5140815,,,,,,,2024-05-07,1,,,,,アリプロテクト,0
2220,8200001042476,新規,0,2024-05-07,2024-05-07,株式会社光栄建設,,株式会社,岐阜県,瑞穂市,十九条４３０番地７,,21,216,5010235,,,,,,,2024-05-07,1,,,,,コウエイケンセツ,0
2223,8210001019746,新規,0,2024-05-07,2024-05-07,株式会社楽心,,株式会社,福井県,福井市,灯明寺２丁目１７０１番地１,,18,201,9100063,,,,,,,2024-05-07,1,,,,,ガクシン,0
2225,8210003001784,新規,0,2024-05-07,2024-05-07,奥越前パークコンソーシアム合同会社,,合同会社,福井県,福井市,手寄１丁目１６番１４号,,18,201,9100858,,,,,,,2024-05-07,1,,,,,オクエチゼンパークコンソーシアム,0
2234,8240001063188,新規,0,2024-05-07,2024-05-07,株式会社グラン,,株式会社,広島県,広島市中区,鶴見町１４番１０号,,34,101,7300045,,,,,,,2024-05-07,1,,,,,グラン,0
2237,8240003006649,新規,0,2024-05-07,2024-05-07,合同会社森興業,,合同会社,広島県,福山市,大門町３丁目４８番２０号サンフィオーレ１０１,,34,207,7210926,,,,,,,2024-05-07,1,,,,,モリコウギョウ,0
2240,8250001020634,新規,0,2024-05-07,2024-05-07,株式会社ＹＧＭ,,株式会社,山口県,防府市,大字新田７８８番地の７,,35,206,7470825,,,,,,,2024-05-07,1,,,,,ワイジーエム,0
2245,8260001039013,新規,0,2024-05-07,2024-05-07,株式会社Ｐｌｕｓ８,,株式会社,岡山県,岡山市北区,芳賀２９３４番地１,,33,101,7011221,,,,,,,2024-05-07,1,,,,,プラスエイト,0
2258,8290801030548,新規,0,2024-05-07,2024-05-07,株式会社ＡＳＫｉＤ,,株式会社,福岡県,北九州市小倉北区,鍛冶町１丁目８番１５号,,40,106,8020004,,,,,,,2024-05-07,1,,,,,アスキッド,0
2259,8290803004715,新規,0,2024-05-07,2024-05-07,合同会社光,,合同会社,福岡県,直方市,大字植木１１８０－１ミュルアコート１０３,,40,204,8220031,,,,,,,2024-05-07,1,,,,,ヒカリ,0
2262,8310001018993,新規,0,2024-05-07,2024-05-07,双晟商事株式会社,,株式会社,長崎県,大村市,平町２０７３番地２,,42,205,8560042,,,,,,,2024-05-07,1,,,,,ソウセイショウジ,0
2267,8330001032027,新規,0,2024-05-07,2024-05-07,株式会社三誠,,株式会社,熊本県,熊本市東区,桜木５丁目１１番１号,,43,102,8612101,,,,,,,2024-05-07,1,,,,,サンセイ,0
2268,8330001032043,新規,0,2024-05-07,2024-05-07,株式会社三光技研,,株式会社,熊本県,熊本市中央区,神水本町２１番５３－８０１号,,43,101,8620955,,,,,,,2024-05-07,1,,,,,サンコウギケン,0
2271,8340001026473,新規,0,2024-05-07,2024-05-07,株式会社内装つどめ,,株式会社,鹿児島県,鹿児島市,吉野２丁目４６番１８号,,46,201,8920877,,,,,,,2024-05-07,1,,,,,ナイソウツドメ,0
2276,8340003004469,新規,0,2024-05-07,2024-05-07,合同会社駅前治療院そよ風,,合同会社,鹿児島県,薩摩川内市,平佐町２１６１番地,,46,215,8950012,,,,,,,2024-05-07,1,,,,,エキマエチリョウインソヨカゼ,0
2278,8360001033591,新規,0,2024-05-07,2024-05-07,株式会社アカラ,,株式会社,沖縄県,宮古島市,平良字東仲宗根９１８番地８,,47,214,9060007,,,,,,,2024-05-07,1,,,,,アカラ,0
2279,8360001033600,新規,0,2024-05-07,2024-05-07,株式会社上原損保企画,,株式会社,沖縄県,那覇市,小禄５丁目１０番地９－４階,,47,201,9010152,,,,,,,2024-05-07,1,,,,,ウエハラソンポキカク,0
2280,8360001033625,新規,0,2024-05-07,2024-05-07,豊崎マーケットイン株式会社,,株式会社,沖縄県,豊見城市,字豊崎１番地１０６９,,47,212,9010225,,,,,,,2024-05-07,1,,,,,トヨサキマーケットイン,0
2282,8360003013947,新規,0,2024-05-07,2024-05-07,合同会社ｋｏｋｏ,,合同会社,沖縄県,島尻郡南風原町,字兼城２１１番地５,,47,350,9011111,,,,,,,2024-05-07,1,,,,,ココ,0
2283,8360003013955,新規,0,2024-05-07,2024-05-07,合同会社前泊,,合同会社,沖縄県,島尻郡八重瀬町,字伊覇２９５番地３－２階,,47,362,9010405,,,,,,,2024-05-07,1,,,,,マエドマリ,0
2300,8430001091715,新規,0,2024-05-07,2024-05-07,スタンドアップワークス株式会社,,株式会社,北海道,札幌市中央区,北三条東５丁目５岩佐ビル３階,,01,101,0600033,,,,,,,2024-05-07,1,,,,,スタンドアップワークス,0
2303,8440003001588,新規,0,2024-05-07,2024-05-07,合同会社ラビワン,,合同会社,北海道,函館市,本通３丁目１３番９号,,01,202,0410851,,,,,,,2024-05-07,1,,,,,ラビワン,0
2304,8460101007543,新規,0,2024-05-07,2024-05-07,株式会社てらしま工業,,株式会社,北海道,帯広市,西十七条北２丁目２１番４号,,01,207,0800047,,,,,,,2024-05-07,1,,,,,テラシマコウギョウ,0
2305,8460103001619,新規,0,2024-05-07,2024-05-07,合同会社ＡＴＡＲＵ,,合同会社,北海道,帯広市,西十八条南１丁目１４番地８８,,01,207,0800028,,,,,,,2024-05-07,1,,,,,アタル,0
2309,8500001025599,新規,0,2024-05-07,2024-05-07,株式会社ＭＺ８４,,株式会社,愛媛県,西予市,宇和町下松葉２２番地,,38,214,7970018,,,,,,,2024-05-07,1,,,,,エムゼットハチジュウヨン,0
2320,9010001244578,新規,0,2024-05-07,2024-05-07,Ｉｒｉｓホールディングス株式会社,,株式会社,東京都,千代田区,丸の内１丁目９番２号,,13,101,1000005,,,,,,,2024-05-07,1,,,,,アイリスホールディングス,0
2321,9010001244594,新規,0,2024-05-07,2024-05-07,株式会社ＳＵＮＮＹ,,株式会社,東京都,中央区,日本橋蛎殻町２丁目１１番３号,,13,102,1030014,,,,,,,2024-05-07,1,,,,,サニー,0
2325,9010003043623,新規,0,2024-05-07,2024-05-07,合同会社イタカ,,合同会社,東京都,中央区,銀座１丁目１２－４Ｎ＆ＥＢＬＤ．７階,,13,102,1040061,,,,,,,2024-05-07,1,,,,,イタカ,0
2326,9010003043664,新規,0,2024-05-07,2024-05-07,合同会社九十九,,合同会社,東京都,千代田区,神田和泉町１番地６―１６ヤマトビル４０５,,13,101,1010024,,,,,,,2024-05-07,1,,,,,ツクモ,0
2331,9010401182122,新規,0,2024-05-07,2024-05-07,日本グリーンテック株式会社,,株式会社,東京都,港区,赤坂３丁目１９番１号,,13,103,1070052,,,,,,,2024-05-07,1,,,,,ニホングリーンテック,0
2332,9010401182130,新規,0,2024-05-07,2024-05-07,Ｓｏｕｌ　Ｖｅｎｔｕｒｅｓ　Ｊａｐａｎ株式会社,,株式会社,東京都,港区,六本木７丁目７番１３－２１０２号,,13,103,1060032,,,,,,,2024-05-07,1,,,,,ソウルベンチャージャパン,0
2333,9010401182246,新規,0,2024-05-07,2024-05-07,株式会社ハンティングワールドジャパン,,株式会社,東京都,港区,赤坂８丁目５番２６号,,13,103,1070052,,,,,,,2024-05-07,1,,,,,ハンティングワールドジャパン,0
2335,9010403032556,新規,0,2024-05-07,2024-05-07,合同会社ＬＡ　Ｖｅｎｔｕｒｅ　Ｃａｐｉｔａｌ　ＩＩ,,合同会社,東京都,港区,北青山２丁目１２番１３号,,13,103,1070061,,,,,,,2024-05-07,1,,,,,エルエーベンチャーキャピタルツー,0
2336,9010405023223,新規,0,2024-05-07,2024-05-07,ＰＪＭＦ　Ａｎｔａｒｅｓ特定目的会社,,その他の設立登記法人,東京都,港区,元赤坂１丁目１番７－８０７号,,13,103,1070051,,,,,,,2024-05-07,1,,,,,ピージェイエムエフアンタレス,0
2338,9010601065135,新規,0,2024-05-07,2024-05-07,ヤマトハウス株式会社,,株式会社,東京都,江東区,毛利２丁目１０番１４号新亜ビル２０２,,13,108,1350001,,,,,,,2024-05-07,1,,,,,ヤマトハウス,0
2344,9010701045937,新規,0,2024-05-07,2024-05-07,フェムセルジャパン株式会社,,株式会社,東京都,品川区,東五反田１丁目１０番７－１１０１号,,13,109,1410022,,,,,,,2024-05-07,1,,,,,フェムセルジャパン,0
2347,9010901055208,新規,0,2024-05-07,2024-05-07,ＭＣＭ株式会社,,株式会社,東京都,世田谷区,北沢１丁目３６番６号,,13,112,1550031,,,,,,,2024-05-07,1,,,,,エムシーエム,0
2348,9010903009021,新規,0,2024-05-07,2024-05-07,合同会社茉奈実,,合同会社,東京都,世田谷区,代沢２丁目６番３号,,13,112,1550032,,,,,,,2024-05-07,1,,,,,マナミ,0
2359,9011005010512,新規,0,2024-05-07,2024-05-07,一般社団法人ＣＮ太陽光４号,,その他の設立登記法人,東京都,渋谷区,千駄ヶ谷３丁目１１番８号,,13,113,1510051,,,,,,,2024-05-07,1,,,,,シーエヌタイヨウコウヨンゴウ,0
2364,9011105011022,新規,0,2024-05-07,2024-05-07,ＦＥＳ行政書士法人,,その他の設立登記法人,東京都,新宿区,西新宿８丁目１番２号ＰＭＯ西新宿１３Ｆ,,13,104,1600023,,,,,,,2024-05-07,1,,,,,エフイーエス,0
2365,9011201025446,新規,0,2024-05-07,2024-05-07,株式会社ワイグルーブ,,株式会社,東京都,中野区,本町５丁目３３番１５号,,13,114,1640012,,,,,,,2024-05-07,1,,,,,ワイグルーブ,0
2366,9011403004371,新規,0,2024-05-07,2024-05-07,ＰＨＵＯＮＧ　ＮＡＭ合同会社,,合同会社,東京都,板橋区,大山東町２３番６号板橋区大山東町ビル３階,,13,119,1730014,,,,,,,2024-05-07,1,,,,,フォンナム,0
2372,9011503006053,新規,0,2024-05-07,2024-05-07,東京恒安合同会社,,合同会社,東京都,荒川区,東日暮里６丁目５７番９号エクセレントビルＩＩ３階,00134627,13,118,1160014,,,,,,,2024-05-07,1,,,,,トウキョウコウアン,0
2374,9011701027207,新規,0,2024-05-07,2024-05-07,株式会社Ｓｅｔ　Ｕｐ,,株式会社,東京都,江戸川区,西葛西４丁目３－３－プラウド西葛西２１５,,13,123,1340088,,,,,,,2024-05-07,1,,,,,セットアップ,0
2377,9011803006216,新規,0,2024-05-07,2024-05-07,合同会社ＬＯＡ,,合同会社,東京都,足立区,中川３丁目２６－２,,13,121,1200002,,,,,,,2024-05-07,1,,,,,ロア,0
2379,9012403006548,新規,0,2024-05-07,2024-05-07,合同会社モトシップ,,合同会社,東京都,多摩市,和田４２５番地２－６１０号プラザマキシム,,13,224,2060001,,,,,,,2024-05-07,1,,,,,モトシップ,0
2380,9012701018237,新規,0,2024-05-07,2024-05-07,株式会社Ｈｉｇｈｌｉｎｅ　ｌｉｑｕｉｄ,,株式会社,東京都,西東京市,中町４丁目３番３号,,13,229,2020013,,,,,,,2024-05-07,1,,,,,ハイラインリキッド,0
2383,9012805003267,新規,0,2024-05-07,2024-05-07,特定非営利活動法人青年をサポートする会,,その他の設立登記法人,東京都,昭島市,福島町１丁目８番３号コンフォール滝上３０３号,,13,207,1960031,,,,,,,2024-05-07,1,,,,,セイネンヲサポートスルカイ,0
2387,9020001156995,新規,0,2024-05-07,2024-05-07,株式会社ＬＩＦＩＸ,,株式会社,神奈川県,川崎市宮前区,菅生２丁目２６番６号,,14,136,2160015,,,,,,,2024-05-07,1,,,,,リフィックス,0
2390,9020003026032,新規,0,2024-05-07,2024-05-07,合同会社Ｇｅｎ　Ｉｎｔｅｒｎａｔｉｏｎａｌ,,合同会社,神奈川県,横浜市都筑区,葛が谷１０番２－２０３号,,14,118,2240062,,,,,,,2024-05-07,1,,,,,ゲンインターナショナル,0
2391,9020003026040,新規,0,2024-05-07,2024-05-07,ＳＹＯＮ合同会社,,合同会社,神奈川県,川崎市幸区,中幸町３丁目２８エースマンション４０２,,14,132,2120012,,,,,,,2024-05-07,1,,,,,シオン,0
2392,9020003026049,新規,0,2024-05-07,2024-05-07,合同会社ＤＨＹ,,合同会社,神奈川県,横浜市戸塚区,原宿５丁目４３番３－２２０号,,14,110,2450063,,,,,,,2024-05-07,1,,,,,ディーエイチワイ,0
2396,9021003014472,新規,0,2024-05-07,2024-05-07,合同会社桜ファーム,,合同会社,神奈川県,茅ヶ崎市,東海岸北２丁目２番４７号,,14,207,2530053,,,,,,,2024-05-07,1,,,,,サクラファーム,0
2402,9030001160229,新規,0,2024-05-07,2024-05-07,陽気ライフサポート株式会社,,株式会社,埼玉県,川越市,大字菅間７８２番地１,,11,201,3500832,,,,,,,2024-05-07,1,,,,,ヨウキライフサポート,0
2405,9030003024225,新規,0,2024-05-07,2024-05-07,合同会社１２３,,合同会社,埼玉県,戸田市,美女木北３丁目５番地５デュオコート武蔵浦和５０８号室,,11,224,3350038,,,,,,,2024-05-07,1,,,,,ワンツースリー,0
2408,9040003024901,新規,0,2024-05-07,2024-05-07,豊恵合同会社,,合同会社,千葉県,船橋市,飯山満町３丁目１５２１－２８,,12,204,2740822,,,,,,,2024-05-07,1,,,,,トヨエ,0
2411,9060001037069,新規,0,2024-05-07,2024-05-07,Ｇ‐ｍｓ株式会社,,株式会社,栃木県,足利市,大月町４５９番地１,,09,202,3260005,,,,,,,2024-05-07,1,,,,,ジーエムエス,0
2416,9080401027155,新規,0,2024-05-07,2024-05-07,株式会社うるま設備,,株式会社,静岡県,袋井市,新池１０４番地の２１,,22,216,4370043,,,,,,,2024-05-07,1,,,,,ウルマセツビ,0
2419,9090001018685,新規,0,2024-05-07,2024-05-07,株式会社ＧＲＡＮＤＥ,,株式会社,山梨県,甲府市,伊勢１丁目１番１８号エンジェルマンション甲府１２番館１０１,,19,201,4000856,,,,,,,2024-05-07,1,,,,,グランデ,0
2422,9110001038391,新規,0,2024-05-07,2024-05-07,株式会社Ｒｅｃｏｖｅｒｙ,,株式会社,新潟県,上越市,加賀町６番１７号エスポワール加賀２号室,,15,222,9420086,,,,,,,2024-05-07,1,,,,,リカバリー,0
2425,9110003005381,新規,0,2024-05-07,2024-05-07,Ｅａｓｙ　Ｌａｉｆ合同会社,,合同会社,新潟県,新潟市秋葉区,中野２丁目１６番１２号,,15,105,9560805,,,,,,,2024-05-07,1,,,,,イージーライフ,0
2434,9120001264565,新規,0,2024-05-07,2024-05-07,山石捷達株式会社,,株式会社,大阪府,大阪市都島区,中野町４丁目３番６号Ｈ２Ｈ大阪桜之宮邸４Ｅ－１,,27,102,5340027,,,,,,,2024-05-07,1,,,,,ヤマセキショウタツ,0
2435,9120001264598,新規,0,2024-05-07,2024-05-07,Ａｉｆｕｓｉｏｎ株式会社,,株式会社,大阪府,大阪市北区,中津１丁目２番３－５０４号,,27,127,5310071,,,,,,,2024-05-07,1,,,,,アイフュージョン,0
2436,9120001264697,新規,0,2024-05-07,2024-05-07,株式会社オクトパス,,株式会社,大阪府,大阪市中央区,内平野町２丁目３番１－６０３号,,27,128,5400037,,,,,,,2024-05-07,1,,,,,オクトパス,0
2439,9120003026526,新規,0,2024-05-07,2024-05-07,Ｓａｒｄａｒ’ｓ　Ａｕｔｏ　Ｈｕｂ合同会社,,合同会社,大阪府,枚方市,長尾元町７丁目３１番４７号,,27,210,5730163,,,,,,,2024-05-07,1,,,,,サルダールズオートハブ,0
2440,9120003026559,新規,0,2024-05-07,2024-05-07,Ｋ２Ｍ合同会社,,合同会社,大阪府,大阪市中央区,南船場３丁目２番２２号おおきに南船場ビル２０５,,27,128,5420081,,,,,,,2024-05-07,1,,,,,ケイツーエム,0
2444,9120101069518,新規,0,2024-05-07,2024-05-07,株式会社Ｎｉｎｅ　Ｃｏｍｐａｎｙ,,株式会社,大阪府,富田林市,津々山台１丁目１番,,27,214,5840086,,,,,,,2024-05-07,1,,,,,ナインカンパニー,0
2445,9120101069526,新規,0,2024-05-07,2024-05-07,株式会社桂建装,,株式会社,大阪府,泉南市,樽井５丁目２１番２２号,,27,228,5900521,,,,,,,2024-05-07,1,,,,,カツラケンソウ,0
2451,9120901049140,新規,0,2024-05-07,2024-05-07,日経メディア株式会社,,株式会社,大阪府,吹田市,江坂町３丁目２３番２２－２０２号,,27,205,5640063,,,,,,,2024-05-07,1,,,,,ニッケイメディア,0
2454,9120903005166,新規,0,2024-05-07,2024-05-07,ＬＣＰ合同会社,,合同会社,大阪府,豊中市,北条町４丁目５番３－２０８号,,27,203,5610812,,,,,,,2024-05-07,1,,,,,エルシーピー,0
2455,9122001038073,新規,0,2024-05-07,2024-05-07,株式会社Ｍａｔｔｏｒｃｈ,,株式会社,大阪府,東大阪市,鴻池町１丁目２７番２８号リビングアメニティＫ＆Ｔ４０３号室,,27,227,5780972,,,,,,,2024-05-07,1,,,,,マトーチ,0
2456,9122003002878,新規,0,2024-05-07,2024-05-07,合同会社ＧＲＯＷ,,合同会社,大阪府,東大阪市,菱江２丁目５番８号,,27,227,5780984,,,,,,,2024-05-07,1,,,,,グロー,0
2458,9130001076968,新規,0,2024-05-07,2024-05-07,株式会社ｆｏｒｅｓｔ＆ｖｉｌｌａｇｅ,,株式会社,京都府,京都市右京区,京北周山町西丁田２１－３,,26,108,6010251,,,,,,,2024-05-07,1,,,,,フォレストアンドビレッジ,0
2459,9130001076984,新規,0,2024-05-07,2024-05-07,株式会社天樹,,株式会社,京都府,長岡京市,馬場見場走り５番地４４,,26,209,6170828,,,,,,,2024-05-07,1,,,,,テンジュ,0
2460,9130001077009,新規,0,2024-05-07,2024-05-07,株式会社ｍｕｓｕｂｉ,,株式会社,京都府,京都市中京区,聚楽廻松下町３－２３エスポワール円町東１Ｆ,,26,104,6048401,,,,,,,2024-05-07,1,,,,,ムスビ,0
2461,9130003009521,新規,0,2024-05-07,2024-05-07,合同会社ＥＩＫＥＮ,,合同会社,京都府,福知山市,土師新町４丁目６番地,,26,201,6200855,,,,,,,2024-05-07,1,,,,,エイケン,0
2469,9140001134279,新規,0,2024-05-07,2024-05-07,株式会社Ｇｌｏｗ　Ｕｐ,,株式会社,兵庫県,神戸市灘区,上野通３丁目５番９号,,28,102,6570817,,,,,,,2024-05-07,1,,,,,グローアップ,0
2470,9140001134295,新規,0,2024-05-07,2024-05-07,株式会社リブレ,,株式会社,兵庫県,明石市,硯町１丁目７番１０号フィールドギア硯町０４号室,,28,203,6730028,,,,,,,2024-05-07,1,,,,,リブレ,0
2474,9140003020519,新規,0,2024-05-07,2024-05-07,朝日新聞神戸販売合同会社,,合同会社,兵庫県,神戸市垂水区,青山台２丁目１４番１６号,,28,108,6550873,,,,,,,2024-05-07,1,,,,,アサヒシンブンコウベハンバイ,0
2476,9150001027267,新規,0,2024-05-07,2024-05-07,株式会社ＥＬＳ,,株式会社,奈良県,桜井市,大字桜井２３９番地の１,,29,206,6330091,,,,,,,2024-05-07,1,,,,,エルス,0
2477,9160001025897,新規,0,2024-05-07,2024-05-07,株式会社京兼,,株式会社,滋賀県,大津市,浜大津３丁目１番２３－１００５号,,25,201,5200047,,,,,,,2024-05-07,1,,,,,キョウカネ,0
2478,9160003003182,新規,0,2024-05-07,2024-05-07,合同会社ａｓｗｅｌｌ,,合同会社,滋賀県,大津市,萱野浦２２番２０号パークショア瀬田１ＦＡ,,25,201,5202143,,,,,,,2024-05-07,1,,,,,アズウェル,0
2480,9170001018116,新規,0,2024-05-07,2024-05-07,株式会社八百屋さんと福祉,,株式会社,和歌山県,田辺市,稲成町３０７４番地の６,,30,206,6460051,,,,,,,2024-05-07,1,,,,,ヤオヤサントフクシ,0
2490,9180001161229,新規,0,2024-05-07,2024-05-07,株式会社一勲,,株式会社,愛知県,春日井市,出川町５丁目６番地３,,23,206,4870025,,,,,,,2024-05-07,1,,,,,ミコト,0
2494,9180003026710,新規,0,2024-05-07,2024-05-07,合同会社ウェルスフェアネスサポート,,合同会社,愛知県,日進市,米野木町南山８番地４５,,23,230,4700111,,,,,,,2024-05-07,1,,,,,ウェルスフェアネスサポート,0
2500,9190001031315,新規,0,2024-05-07,2024-05-07,株式会社バリズン,,株式会社,三重県,名張市,柳原町３３３４番地,,24,208,5180715,,,,,,,2024-05-07,1,,,,,バリズン,0
2501,9190001031323,新規,0,2024-05-07,2024-05-07,株式会社ＮｅｘＴｒａ．Ｈｏｌｄｉｎｇｓ,,株式会社,三重県,伊勢市,西豊浜町６５５番地１８,,24,203,5150505,,,,,,,2024-05-07,1,,,,,ネクストラホールディングス,0
2504,9200001042475,新規,0,2024-05-07,2024-05-07,株式会社ＳＴＣ,,株式会社,岐阜県,各務原市,那加不動丘２丁目１６９番地１,,21,213,5040838,,,,,,,2024-05-07,1,,,,,エスティーシー,0
2505,9200001042483,新規,0,2024-05-07,2024-05-07,株式会社三和興建,,株式会社,岐阜県,岐阜市,領下５丁目１５番地,,21,201,5008241,,,,,,,2024-05-07,1,,,,,サンワコウケン,0
2508,9210001019737,新規,0,2024-05-07,2024-05-07,株式会社ＮｅｗＬｉｇｈｔ,,株式会社,福井県,福井市,光陽２丁目２１番３号,,18,201,9100026,,,,,,,2024-05-07,1,,,,,ニューライト,0
2512,9240001063162,新規,0,2024-05-07,2024-05-07,株式会社ネイリストノミライ,,株式会社,広島県,福山市,神辺町大字川南１７３８番地１１,,34,207,7202124,,,,,,,2024-05-07,1,,,,,ネイリストノミライ,0
2513,9240001063170,新規,0,2024-05-07,2024-05-07,株式会社Ｎｉｋｏ　ｇａｒｄｅｎ,,株式会社,広島県,福山市,蔵王町１６１番地１６７,,34,207,7210971,,,,,,,2024-05-07,1,,,,,ニコガーデン,0
2514,9240001063187,新規,0,2024-05-07,2024-05-07,株式会社ＧＬＯＲＩＳＥ,,株式会社,広島県,広島市西区,小河内町１丁目２１－１,,34,104,7330025,,,,,,,2024-05-07,1,,,,,グライズ,0
2519,9250003003479,新規,0,2024-05-07,2024-05-07,合同会社クラオカ,,合同会社,山口県,岩国市,麻里布町４丁目６－１２,,35,208,7400018,,,,,,,2024-05-07,1,,,,,クラオカ,0
2521,9260001039029,新規,0,2024-05-07,2024-05-07,株式会社ホリエ薬局,,株式会社,岡山県,総社市,駅前１丁目８番７２号,,33,208,7191136,,,,,,,2024-05-07,1,,,,,ホリエヤッキョク,0
2524,9260003004674,新規,0,2024-05-07,2024-05-07,合同会社涼成,,合同会社,岡山県,倉敷市,連島町鶴新田２１３７番地１１,,33,202,7128006,,,,,,,2024-05-07,1,,,,,リョウセイ,0
2526,9270003001621,新規,0,2024-05-07,2024-05-07,合同会社ＷＥＥＤ,,合同会社,鳥取県,米子市,日下２９３番地,,31,202,6893522,,,,,,,2024-05-07,1,,,,,ウィード,0
2534,9290001105579,新規,0,2024-05-07,2024-05-07,株式会社Ｌｅｆｔ　Ａｎｄ　Ｒｉｇｈｔ,,株式会社,福岡県,福岡市中央区,天神２丁目６番２８号６Ｆ,,40,133,8100001,,,,,,,2024-05-07,1,,,,,レフトアンドライト,0
2542,9290803004714,新規,0,2024-05-07,2024-05-07,合同会社華愛,,合同会社,福岡県,遠賀郡岡垣町,野間４丁目３番１号,,40,383,8114233,,,,,,,2024-05-07,1,,,,,ハナ,0
2547,9330003010351,新規,0,2024-05-07,2024-05-07,合同会社豊岡クリーンサービス,,合同会社,熊本県,合志市,豊岡５１番地１,,43,216,8611115,,,,,,,2024-05-07,1,,,,,トヨオカクリーンサービス,0
2549,9340001026489,新規,0,2024-05-07,2024-05-07,ＣＯＮＫＡ　ｐｌｕｓ株式会社,,株式会社,鹿児島県,鹿児島市,紫原６丁目１番１５号２階,,46,201,8900082,,,,,,,2024-05-07,1,,,,,コンカプラス,0
2553,9350003004632,新規,0,2024-05-07,2024-05-07,合同会社あかりケア,,合同会社,宮崎県,都城市,早水町３４７９番地２,,45,202,8850016,,,,,,,2024-05-07,1,,,,,アカリケア,0
2559,9360003013946,新規,0,2024-05-07,2024-05-07,合同会社あさひ,,合同会社,沖縄県,那覇市,首里石嶺町２丁目２０９番地５,,47,201,9030804,,,,,,,2024-05-07,1,,,,,アサヒ,0
2561,9370003006593,新規,0,2024-05-07,2024-05-07,合同会社クリエイション,,合同会社,宮城県,仙台市泉区,南光台３丁目２３番３３号アーバンヴイラＫ１０１,,04,105,9818003,,,,,,,2024-05-07,1,,,,,クリエイション,0
2573,9430001091680,新規,0,2024-05-07,2024-05-07,Ｐｒｏｓｐｅｒａ　Ｈｏｌｄｉｎｇｓ株式会社,,株式会社,北海道,虻田郡ニセコ町,字近藤７４１番地７６,,01,395,0481542,,,,,,,2024-05-07,1,,,,,プロスペラホールディングス,0
2574,9430001091722,新規,0,2024-05-07,2024-05-07,向井塗装株式会社,,株式会社,北海道,札幌市白石区,東米里２１２４‐２１４,,01,104,0030876,,,,,,,2024-05-07,1,,,,,,0
2575,9430001091755,新規,0,2024-05-07,2024-05-07,株式会社ＰＣＳＫＹ,,株式会社,北海道,札幌市西区,西町南１９丁目１番１８号,,01,107,0630062,,,,,,,2024-05-07,1,,,,,ピーシースカイ,0
2577,9430003016280,新規,0,2024-05-07,2024-05-07,合同会社Ｙｕ‐ｈａｃｋ,,合同会社,北海道,小樽市,松ケ枝１丁目２１－１９,,01,203,0470022,,,,,,,2024-05-07,1,,,,,ユーハック,0
2582,9460103001618,新規,0,2024-05-07,2024-05-07,イルミナートコーポレーション合同会社,,合同会社,北海道,帯広市,清流西２丁目３番地１０,,01,207,0800872,,,,,,,2024-05-07,1,,,,,イルミナートコーポレーション,0
2583,9460105002291,新規,0,2024-05-07,2024-05-07,一般社団法人社会復帰支援プロジェクト,,その他の設立登記法人,北海道,帯広市,東三条南１０丁目１５番地,,01,207,0800803,,,,,,,2024-05-07,1,,,,,シャカイフッキシエンプロジェクト,0
2590,9500001025598,新規,0,2024-05-07,2024-05-07,株式会社月の暉果樹園,,株式会社,愛媛県,八幡浜市,川上町川名津甲９１９番地１,,38,204,7968050,,,,,,,2024-05-07,1,,,,,ツキノカガヤキカジュエン,0
2591,9500001025607,新規,0,2024-05-07,2024-05-07,株式会社浅野建設,,株式会社,愛媛県,宇和島市,吉田町立間尻甲２０１０番地,,38,203,7993710,,,,,,,2024-05-07,1,,,,,アサノケンセツ,0
2592,9500003003239,新規,0,2024-05-07,2024-05-07,合同会社皐月,,合同会社,愛媛県,松山市,北条辻８０４番地７,00134620,38,201,7992430,,,,,,,2024-05-07,1,,,,,サツキ,0
2593,9700150125179,新規,0,2024-05-07,2024-05-07,Ｓｕｐｅｒｂ　Ｆｏｒｔｕｎｅ　Ｌｉｍｉｔｅｄ,,外国会社等,,,,,,,,９／Ｆ，Ｈｉｐ　Ｓｈｉｎｇ　Ｈｏｎｇ　Ｃｅｎｔｒｅ，５５　Ｄｅｓ　Ｖｏｅｕｘ　Ｒｏａｄ　Ｃｅｎｔｒａｌ，Ｃｅｎｔｒａｌ，ｔｈｅ　Ｈｏｎｇ　Ｋｏｎｇ　Ｓｐｅｃｉａｌ　Ａｄｍｉｎｉｓｔｒａｔｉｖｅ　Ｒｅｇｉｏｎ,,,,,,2024-05-07,1,,,,,スパーブフオーチユンリミテツド,0
