sequenceNumber,corporateNumber,process,correct,updateDate,changeDate,name,nameImageId,kind,prefectureName,cityName,streetNumber,addressImageId,prefectureCode,cityCode,postCode,addressOutside,addressOutsideImageId,closeDate,closeCause,successorCorporateNumber,changeCause,assignmentDate,latest,enName,enPrefectureName,enCityName,enAddressOutside,furigana,hihyoji
3,1010001045604,登記記録の閉鎖等,0,2023-02-27,2023-02-21,新呉服橋ビル管理株式会社,,株式会社,東京都,中央区,八重洲１丁目２番１号,,13,102,1030028,,,2023-02-21,清算の結了等,,,2015-10-05,1,,,,,シンゴフクバシビルカンリ,0
4,1010001051395,登記記録の閉鎖等,0,2023-02-27,2023-02-22,株式会社東工,,株式会社,東京都,中央区,銀座２丁目５番５号,,13,102,1040061,,,2023-02-22,合併による解散等,2013201018428,令和５年２月１５日東京都目黒区上目黒三丁目１１番７号株式会社アクアピューネ（2013201018428）に合併し解散,2015-10-05,1,,,,,,0
31,1010705001638,登記記録の閉鎖等,0,2023-02-27,2023-02-22,特定非営利活動法人レ・ザミ・ドゥ・キュルノンスキー・ジャポン,,その他の設立登記法人,東京都,千代田区,九段南１丁目５－６りそな九段ビル５ＦＫＳフロア,,13,101,1020074,,,2023-02-22,清算の結了等,,,2015-10-05,1,,,,,レザミドゥキュルノンスキージャポン,0
36,1010902005219,登記記録の閉鎖等,0,2023-02-27,2023-02-21,有限会社からつ屋,,有限会社,東京都,世田谷区,北烏山８丁目１３番２５号,,13,112,1570061,,,2023-02-21,清算の結了等,,,2015-10-05,1,,,,,カラツヤ,0
39,1011001097296,登記記録の閉鎖等,0,2023-02-27,2023-02-24,株式会社立志塾,,株式会社,東京都,新宿区,新宿３丁目１２番４号新宿Ｎタウンプラザ３０９号,,13,104,1600022,,,2023-02-24,清算の結了等,,,2015-10-05,1,,,,,リッシジュク,0
67,1020002102130,登記記録の閉鎖等,0,2023-02-27,2023-02-22,有限会社澤田建設,,有限会社,神奈川県,川崎市宮前区,野川２６８３番地８,,14,136,2160001,,,2023-02-22,清算の結了等,,,2015-10-05,1,,,,,,0
73,1021002052687,登記記録の閉鎖等,0,2023-02-27,2023-02-22,有限会社南州海工,,有限会社,神奈川県,小田原市,成田５３１番地の７,,14,206,2500862,,,2023-02-22,清算の結了等,,,2015-10-05,1,,,,,,0
88,1030002057043,登記記録の閉鎖等,0,2023-02-27,2023-02-17,有限会社しらい,,有限会社,埼玉県,上尾市,大字畔吉１３３６番地１６,,11,219,3620065,,,2023-02-17,清算の結了等,,,2015-10-05,1,,,,,シライ,0
93,1040001011925,登記記録の閉鎖等,0,2023-02-27,2023-02-22,株式会社ドラコ,,株式会社,千葉県,千葉市中央区,今井２丁目１２番１５号１０６号室,,12,101,2600834,,,2023-02-22,清算の結了等,,,2015-10-05,1,,,,,ドラコ,0
94,1040001017955,登記記録の閉鎖等,0,2023-02-27,2023-02-22,株式会社田代土木,,株式会社,千葉県,船橋市,前原西１丁目２２番１８号,,12,204,2740825,,,2023-02-22,清算の結了等,,,2015-10-05,1,,,,,タシロドボク,0
110,1070002025616,登記記録の閉鎖等,0,2023-02-27,2023-02-17,有限会社モミヤマ電機,,有限会社,群馬県,桐生市,広沢町５丁目１５７０番地の３,,10,203,3760013,,,2023-02-17,清算の結了等,,,2015-10-05,1,,,,,モミヤマデンキ,0
113,1080405000677,登記記録の閉鎖等,0,2023-02-27,2023-02-22,御嶽教浜松大栄支教会,,その他の設立登記法人,静岡県,浜松市中区,鹿谷町３８番１８号,,22,131,4328014,,,2023-02-22,清算の結了等,,,2015-10-05,1,,,,,オンタケキョウハママツダイエイシキョウカイ,0
124,1120001001802,登記記録の閉鎖等,0,2023-02-27,2023-02-16,株式会社合田製作所,,株式会社,大阪府,大阪市鶴見区,今津中３丁目９番３６号,,27,124,5380042,,,2023-02-16,清算の結了等,,,2015-10-05,1,,,,,ゴウダセイサクショ,0
128,1120001121179,登記記録の閉鎖等,0,2023-02-27,2023-02-16,ニホンカイヨー株式会社,,株式会社,大阪府,大阪市北区,大淀南３丁目２番４－４０２号,,27,127,5310075,,,2023-02-16,清算の結了等,,,2015-10-05,1,,,,,ニホンカイヨー,0
141,1120002063833,登記記録の閉鎖等,0,2023-02-27,2023-02-20,有限会社ＤＥＡＲＥＳＴ,,有限会社,大阪府,大阪市西区,北堀江１丁目１７番１号,,27,106,5500014,,,2023-02-20,清算の結了等,,,2015-10-05,1,,,,,ディアレスト,0
151,1140001063626,登記記録の閉鎖等,0,2023-02-27,2023-02-21,丸一屋根産業株式会社,,株式会社,兵庫県,神崎郡福崎町,山崎５６８番地の１１,,28,443,6792211,,,2023-02-21,清算の結了等,,,2015-10-05,1,,,,,マルイチヤネサンギョウ,0
172,1200001026774,登記記録の閉鎖等,0,2023-02-27,2023-02-22,株式会社郡上きのこ,,株式会社,岐阜県,郡上市,高鷲町鮎立２１１２番地１,,21,219,5015304,,,2023-02-22,清算の結了等,,,2015-10-05,1,,,,,グジョウキノコ,0
183,1290001072728,登記記録の閉鎖等,0,2023-02-27,2023-02-21,株式会社さくらの樹,,株式会社,福岡県,福岡市中央区,警固２丁目１２番２３号,,40,133,8100023,,,2023-02-21,清算の結了等,,,2016-02-02,1,,,,,サクラノキ,0
193,1330002002704,登記記録の閉鎖等,0,2023-02-27,2023-02-24,ユニバース有限会社,,有限会社,熊本県,熊本市中央区,水前寺６丁目４１番８号,,43,101,8620950,,,2023-02-24,清算の結了等,,,2015-10-05,1,,,,,ユニバース,0
195,1330003005615,登記記録の閉鎖等,0,2023-02-27,2023-02-21,合同会社Ｔ＆Ｓ,,合同会社,熊本県,人吉市,七日町８７番地４,,43,203,8680034,,,2023-02-21,清算の結了等,,,2015-10-05,1,,,,,ティーアンドエス,0
211,1420001015276,登記記録の閉鎖等,0,2023-02-27,2023-02-20,太陽支援センター株式会社,,株式会社,青森県,上北郡七戸町,字松ケ沢１５８番地,,02,402,0392835,,,2023-02-20,清算の結了等,,,2016-06-16,1,,,,,タイヨウシエンセンター,0
215,1440005000850,登記記録の閉鎖等,0,2023-02-27,2023-02-20,社会福祉法人願応会,,その他の設立登記法人,北海道,上磯郡木古内町,字本町３７９番地,,01,334,0490422,,,2023-02-20,清算の結了等,,,2015-10-05,1,,,,,ガンオウカイ,0
216,1460001005059,登記記録の閉鎖等,0,2023-02-27,2023-02-24,株式会社ＬＥＯ＆ＶＩＲＧＯ,,株式会社,北海道,釧路市,鳥取北９丁目１番２３号,,01,206,0840907,,,2023-02-24,清算の結了等,,,2016-07-14,1,,,,,レオアンドバルゴ,0
218,1460405000110,登記記録の閉鎖等,0,2023-02-27,2023-02-22,歯舞漁業会,,その他の設立登記法人,北海道,根室市,歯舞３丁目２７番地,,01,223,0870163,,,2023-02-22,清算の結了等,,,2023-01-23,1,,,,,ハボマイギョギョウカイ,0
221,1480002001542,登記記録の閉鎖等,0,2023-02-27,2023-02-24,有限会社酒ひろ,,有限会社,徳島県,徳島市,上八万町川北２７４番地,,36,201,7708040,,,2023-02-24,清算の結了等,,,2015-10-05,1,,,,,サケヒロ,0
236,2010003016610,登記記録の閉鎖等,0,2023-02-27,2023-02-20,エヌビービーフーチョウリース合同会社,,合同会社,東京都,中央区,日本橋浜町３丁目３番２号,,13,102,1030007,,,2023-02-20,清算の結了等,,,2015-10-05,1,,,,,エヌビービーフーチョウリース,0
237,2010003016619,登記記録の閉鎖等,0,2023-02-27,2023-02-20,エヌビービーグイリンリース合同会社,,合同会社,東京都,中央区,日本橋浜町３丁目３番２号,,13,102,1030007,,,2023-02-20,清算の結了等,,,2015-10-05,1,,,,,エヌビービーグイリンリース,0
258,2010802005185,登記記録の閉鎖等,0,2023-02-27,2023-02-20,有限会社幸田商行,,有限会社,東京都,大田区,羽田５丁目１８番６号,,13,111,1440043,,,2023-02-20,清算の結了等,,,2015-10-05,1,,,,,,0
266,2011003012194,登記記録の閉鎖等,0,2023-02-27,2023-02-13,松田合同会社,,合同会社,東京都,目黒区,目黒本町６丁目１８－１３ジオ目黒本町４０５号室,,13,110,1520002,,,2023-02-13,清算の結了等,,,2021-01-27,1,,,,,マツダ,0
286,2020001111222,登記記録の閉鎖等,0,2023-02-27,2023-02-20,株式会社ダックスジャパントレード,,株式会社,東京都,町田市,中町３丁目１９番３０号ザ・プレースＩＩ３０１,00122253,13,209,1940021,,,2023-02-20,清算の結了等,,,2015-10-05,1,,,,,ダックスジャパントレード,0
342,2120103002722,登記記録の閉鎖等,0,2023-02-27,2023-02-24,合同会社ＹＳＰＣ,,合同会社,大阪府,堺市堺区,向陵中町２丁３番１９号,,27,141,5900024,,,2023-02-24,清算の結了等,,,2017-04-21,1,,,,,ワイエスピーシー,0
347,2122001018890,登記記録の閉鎖等,0,2023-02-27,2023-02-24,株式会社寿しでん,,株式会社,大阪府,八尾市,志紀町南３丁目１６２番地,,27,212,5810033,,,2023-02-24,清算の結了等,,,2015-10-05,1,,,,,スシデン,0
361,2180001062516,登記記録の閉鎖等,0,2023-02-27,2023-02-20,東海空港株式会社,,株式会社,愛知県,名古屋市千種区,茶屋が坂１丁目６番１８号,,23,101,4640092,,,2023-02-20,清算の結了等,,,2015-10-05,1,,,,,トウカイクウコウ,0
371,2180003022567,登記記録の閉鎖等,0,2023-02-27,2023-02-17,合同会社ＮＡＴＵＲＥＴＨ,,合同会社,愛知県,名古屋市天白区,大根町３３１－３,,23,116,4680024,,,2023-02-17,清算の結了等,,,2021-06-09,1,,,,,ナチュレス,0
382,2230002011375,登記記録の閉鎖等,0,2023-02-27,2023-02-22,有限会社専徒工業,,有限会社,富山県,高岡市,常国５５２番地の１,,16,202,9391251,,,2023-02-22,清算の結了等,,,2015-10-05,1,,,,,セントコウギョウ,0
396,2310002017918,登記記録の閉鎖等,0,2023-02-27,2023-02-22,有限会社興医会,,有限会社,長崎県,島原市,新建２１１６番地,,42,203,8550057,,,2023-02-22,清算の結了等,,,2015-10-05,1,,,,,コウイカイ,0
405,2370001038950,登記記録の閉鎖等,0,2023-02-27,2023-02-20,株式会社カイザー・カンパニー,,株式会社,宮城県,仙台市青葉区,国分町２丁目８番１４号－３階,,04,101,9800803,,,2023-02-20,清算の結了等,,,2015-12-17,1,,,,,カイザーカンパニー,0
406,2370001042028,登記記録の閉鎖等,0,2023-02-27,2023-02-24,株式会社魚問屋丸福,,株式会社,宮城県,仙台市若林区,卸町４丁目３－１,,04,103,9840015,,,2023-02-24,清算の結了等,,,2017-09-06,1,,,,,,0
417,2430001065542,登記記録の閉鎖等,0,2023-02-27,2023-02-24,株式会社Ｙ・Ｈ・Ｓ,,株式会社,北海道,千歳市,梅ヶ丘２丁目１番１０号,,01,224,0660025,,,2023-02-24,清算の結了等,,,2015-10-05,1,,,,,,0
425,2470001016608,登記記録の閉鎖等,0,2023-02-27,2023-02-20,株式会社ＡＲＣ,,株式会社,香川県,丸亀市,飯野町東二８４５番地１,,37,202,7630084,,,2023-02-20,清算の結了等,,,2017-11-17,1,,,,,アーク,0
430,3010001103500,登記記録の閉鎖等,0,2023-02-27,2023-02-20,株式会社輸入通信社,,株式会社,東京都,中央区,八丁堀４丁目１０番２号八丁堀ビル７０１号,,13,102,1040032,,,2023-02-20,清算の結了等,,,2015-10-05,1,,,,,ユニュウツウシンシャ,0
437,3010003016618,登記記録の閉鎖等,0,2023-02-27,2023-02-20,エヌビービーハイコウリース合同会社,,合同会社,東京都,中央区,日本橋浜町３丁目３番２号,,13,102,1030007,,,2023-02-20,清算の結了等,,,2015-10-05,1,,,,,エヌビービーハイコウリース,0
447,3010401157583,登記記録の閉鎖等,0,2023-02-27,2023-02-15,Ｅａｔ　ｉｔ株式会社,,株式会社,東京都,港区,六本木４丁目３番１１号六本木ユニハウス２２３,,13,103,1060032,,,2023-02-15,清算の結了等,,,2021-01-13,1,,,,,イートイット,0
460,3010801010276,登記記録の閉鎖等,0,2023-02-27,2023-02-20,フジタオート工業株式会社,,株式会社,東京都,大田区,上池台３丁目３２番８号,,13,111,1450064,,,2023-02-20,清算の結了等,,,2015-10-05,1,,,,,フジタオートコウギョウ,0
463,3010901000540,登記記録の閉鎖等,0,2023-02-27,2023-02-20,朝日ビル管財株式会社,,株式会社,東京都,目黒区,八雲３丁目７番７号,,13,110,1520023,,,2023-02-20,清算の結了等,,,2015-10-05,1,,,,,アサヒビルカンザイ,0
477,3011601023807,登記記録の閉鎖等,0,2023-02-27,2023-02-21,気明株式会社,,株式会社,東京都,三鷹市,下連雀３丁目４１番１２号ライオンズマンション三鷹第７－３０４号,,13,204,1810013,,,2023-02-21,清算の結了等,,,2019-11-29,1,,,,,キメイ,0
485,3013301009565,登記記録の閉鎖等,0,2023-02-27,2023-02-21,日産不動産株式会社,,株式会社,東京都,豊島区,西池袋１丁目３５番８号,,13,116,1710021,,,2023-02-21,合併による解散等,7010401007149,令和５年２月１日東京都港区新橋三丁目１８番３号第二富士ビル株式会社魚金（7010401007149）に合併し解散,2015-10-05,1,,,,,ニッサンフドウサン,0
486,3013301045833,登記記録の閉鎖等,0,2023-02-27,2023-02-22,株式会社コンタクトビー,,株式会社,東京都,豊島区,長崎２丁目８番１０号,,13,116,1710051,,,2023-02-22,清算の結了等,,,2020-06-26,1,,,,,コンタクトビー,0
489,3020003020065,登記記録の閉鎖等,0,2023-02-27,2023-02-21,Ｎａｄｅｒａ合同会社,,合同会社,神奈川県,横浜市神奈川区,白幡南町５番２１号,,14,102,2210073,,,2023-02-21,清算の結了等,,,2021-06-25,1,,,,,ナデラ,0
507,3040001004506,登記記録の閉鎖等,0,2023-02-27,2023-02-22,千代田テクノ株式会社,,株式会社,千葉県,千葉市若葉区,若松町４２０番地３１,,12,104,2640021,,,2023-02-22,清算の結了等,,,2015-10-05,1,,,,,チヨダテクノ,0
510,3040001051143,登記記録の閉鎖等,0,2023-02-27,2023-02-21,太陽土地開発株式会社,,株式会社,千葉県,袖ケ浦市,奈良輪１５５２番地１,,12,229,2990263,,,2023-02-21,清算の結了等,,,2015-10-05,1,,,,,タイヨウトチカイハツ,0
519,3040002032225,登記記録の閉鎖等,0,2023-02-27,2023-02-21,有限会社安東工業,,有限会社,千葉県,市川市,大和田４丁目１９番１６号,,12,203,2720025,,,2023-02-21,清算の結了等,,,2015-10-05,1,,,,,アンドウコウギョウ,0
525,3050002022860,登記記録の閉鎖等,0,2023-02-27,2023-02-21,有限会社ハンズ,,有限会社,茨城県,つくば市,小野崎７２６番地,,08,220,3050034,,,2023-02-21,清算の結了等,,,2015-10-05,1,,,,,ハンズ,0
540,3120001186848,登記記録の閉鎖等,0,2023-02-27,2023-02-22,株式会社Ｆ－ｐａｒｔｎｅｒ,,株式会社,大阪府,大阪市西淀川区,花川２丁目１３番２２号,,27,113,5550023,,,2023-02-22,清算の結了等,,,2015-10-05,1,,,,,エフパートナー,0
547,3120002039749,登記記録の閉鎖等,0,2023-02-27,2023-02-22,有限会社精華社,,有限会社,大阪府,大阪市阿倍野区,帝塚山１丁目１３番２５号,,27,119,5450037,,,2023-02-22,清算の結了等,,,2015-10-05,1,,,,,セイカシャ,0
557,3120901015189,登記記録の閉鎖等,0,2023-02-27,2023-02-22,メイヤー株式会社,,株式会社,大阪府,吹田市,江坂町１丁目２１番１６号,,27,205,5640063,,,2023-02-22,清算の結了等,,,2015-10-05,1,,,,,メイヤー,0
574,3140002031860,登記記録の閉鎖等,0,2023-02-27,2023-02-24,有限会社菓龍苑,,有限会社,兵庫県,たつの市,龍野町上川原１１３番地,,28,229,6794172,,,2023-02-24,清算の結了等,,,2015-10-05,1,,,,,カリュウエン,0
588,3180001137928,登記記録の閉鎖等,0,2023-02-27,2023-02-15,株式会社ＹＵＬＥＴＩＤＥ,,株式会社,愛知県,名古屋市緑区,鳴海町字矢切１５番地,,23,114,4580801,,,2023-02-15,清算の結了等,,,2019-09-02,1,,,,,ユリタイド,0
593,3180002080383,登記記録の閉鎖等,0,2023-02-27,2023-02-17,有限会社井上工業,,有限会社,愛知県,稲沢市,駅前１丁目１４番１６号,,23,220,4928143,,,2023-02-17,清算の結了等,,,2015-10-05,1,,,,,イノウエコウギョウ,0
599,3240001042774,登記記録の閉鎖等,0,2023-02-27,2023-02-22,株式会社ファースト・アーツ,,株式会社,広島県,福山市,多治米町２丁目１２番５号,,34,207,7200824,,,2023-02-22,清算の結了等,,,2015-10-05,1,,,,,ファーストアーツ,0
603,3260001002512,登記記録の閉鎖等,0,2023-02-27,2023-02-24,株式会社コデラ,,株式会社,岡山県,岡山市北区,表町２丁目２番８１号,,33,101,7000822,,,2023-02-24,清算の結了等,,,2015-10-05,1,,,,,コデラ,0
630,3420001011637,登記記録の閉鎖等,0,2023-02-27,2023-02-20,株式会社鳥谷部興業,,株式会社,青森県,上北郡七戸町,字松ケ沢１５８番地,,02,402,0392835,,,2023-02-20,清算の結了等,,,2015-10-05,1,,,,,トリヤベコウギョウ,0
639,3460302004971,登記記録の閉鎖等,0,2023-02-27,2023-02-21,有限会社オーケー企画,,有限会社,北海道,斜里郡小清水町,字小清水６５２番地,,01,547,0993600,,,2023-02-21,清算の結了等,,,2015-10-05,1,,,,,,0
640,3470001013579,登記記録の閉鎖等,0,2023-02-27,2023-02-20,株式会社ＮＥＸＣＩＡ,,株式会社,香川県,丸亀市,川西町北１３１０番地７,,37,202,7630091,,,2023-02-20,清算の結了等,,,2015-10-05,1,,,,,ネクシア,0
645,3500002008483,登記記録の閉鎖等,0,2023-02-27,2023-02-24,沢辺水産有限会社,,有限会社,愛媛県,伊予郡松前町,大字筒井１０３９番地１,,38,401,7913120,,,2023-02-24,清算の結了等,,,2015-10-05,1,,,,,サワベスイサン,0
662,4010003016609,登記記録の閉鎖等,0,2023-02-27,2023-02-20,エヌビービーチンタオリース合同会社,,合同会社,東京都,中央区,日本橋浜町３丁目３番２号,,13,102,1030007,,,2023-02-20,清算の結了等,,,2015-10-05,1,,,,,エヌビービーチンタオリース,0
692,4011001054906,登記記録の閉鎖等,0,2023-02-27,2023-02-20,株式会社トラベル・ライフ・デザイン,,株式会社,東京都,渋谷区,千駄ヶ谷１丁目２０番６号,,13,113,1510051,,,2023-02-20,清算の結了等,,,2015-10-05,1,,,,,トラベルライフデザイン,0
693,4011001100866,登記記録の閉鎖等,0,2023-02-27,2023-02-21,株式会社セレス,,株式会社,東京都,渋谷区,猿楽町３０番８号,,13,113,1500033,,,2023-02-21,清算の結了等,,,2015-10-05,1,,,,,,0
694,4011001108199,登記記録の閉鎖等,0,2023-02-27,2023-02-21,株式会社オンセ,,株式会社,東京都,渋谷区,代々木４丁目３１番４号,,13,113,1510053,,,2023-02-21,清算の結了等,,,2015-11-13,1,,,,,オンセ,0
766,4060001017793,登記記録の閉鎖等,0,2023-02-27,2023-02-21,株式会社さとう,,株式会社,栃木県,栃木市,岩舟町静５１４４番地５,,09,203,3294307,,,2023-02-21,清算の結了等,,,2015-10-05,1,,,,,サトウ,0
773,4080401024017,登記記録の閉鎖等,0,2023-02-27,2023-02-27,株式会社美建,,株式会社,静岡県,浜松市東区,天龍川町５１番地の１Ｄ,,22,132,4350013,,,2023-02-27,清算の結了等,,,2019-12-04,1,,,,,ビケン,0
786,4120001251592,登記記録の閉鎖等,0,2023-02-27,2023-02-16,株式会社住商,,株式会社,大阪府,大阪市淀川区,宮原５丁目３番４９号（松尾ビル４階）,,27,123,5320003,,,2023-02-16,清算の結了等,,,2023-01-12,1,,,,,,0
798,4120901033413,登記記録の閉鎖等,0,2023-02-27,2023-02-22,株式会社ウイング,,株式会社,大阪府,池田市,室町１番３号井関ビル２Ｆ,,27,204,5630047,,,2023-02-22,清算の結了等,,,2015-10-05,1,,,,,ウイング,0
820,4180002019612,登記記録の閉鎖等,0,2023-02-27,2023-02-21,有限会社麺処かとう,00072960,有限会社,愛知県,名古屋市中川区,八家町３丁目４９番地,,23,110,4540835,,,2023-02-21,清算の結了等,,,2015-10-05,1,,,,,メンドコロカトウ,0
839,4280002008407,登記記録の閉鎖等,0,2023-02-27,2023-02-22,有限会社トーコー,,有限会社,島根県,浜田市,黒川町１０８番地１,,32,202,6970024,,,2023-02-22,清算の結了等,,,2015-10-05,1,,,,,,0
854,4330001022270,登記記録の閉鎖等,0,2023-02-27,2023-02-20,株式会社インプルシード,,株式会社,熊本県,熊本市北区,四方寄町６６５番地１,,43,105,8615515,,,2023-02-20,合併による解散等,1330002019285,令和５年２月２０日熊本県熊本市北区植木町今藤４１３番地１株式会社松岡清掃公社（1330002019285）に合併し解散,2015-11-24,1,,,,,インプルシード,0
858,4370001020741,登記記録の閉鎖等,0,2023-02-27,2023-02-24,株式会社ＹＫリーダーズコンサルティング,,株式会社,宮城県,仙台市青葉区,木町通２丁目２番６－４０１号,,04,101,9800801,,,2023-02-24,清算の結了等,,,2015-10-05,1,,,,,ワイケーリーダーズコンサルティング,0
866,4470001017447,登記記録の閉鎖等,0,2023-02-27,2023-02-20,株式会社ＡＺＮＥＸＴ,,株式会社,香川県,丸亀市,川西町北１３１０番地７,,37,202,7630091,,,2023-02-20,清算の結了等,,,2019-05-17,1,,,,,アズネクスト,0
872,5010001061746,登記記録の閉鎖等,0,2023-02-27,2023-02-20,株式会社ヴィンテージ・クローズ０３２４,,株式会社,東京都,中央区,日本橋蛎殻町１丁目１８番１１号,,13,102,1030014,,,2023-02-20,清算の結了等,,,2015-10-05,1,,,,,ヴィンテージクローズゼロサンニヨン,0
879,5010001136696,登記記録の閉鎖等,0,2023-02-27,2023-01-24,株式会社トラストループ,,株式会社,東京都,豊島区,南長崎２丁目２３番４号,,13,116,1710052,,,2023-01-24,清算の結了等,,,2015-10-05,1,,,,,トラストループ,0
881,5010001154442,登記記録の閉鎖等,0,2023-02-27,2023-02-20,東京貿易株式会社,,株式会社,東京都,中央区,京橋２丁目２番１号,,13,102,1040031,,,2023-02-20,清算の結了等,,,2015-10-05,1,,,,,トウキョウボウエキ,0
888,5010003016608,登記記録の閉鎖等,0,2023-02-27,2023-02-20,エヌビービーチョンジョウリース合同会社,,合同会社,東京都,中央区,日本橋浜町３丁目３番２号,,13,102,1030007,,,2023-02-20,清算の結了等,,,2015-10-05,1,,,,,エヌビービーチョンジョウリース,0
913,5010802014687,登記記録の閉鎖等,0,2023-02-27,2023-02-22,有限会社森正工務店,,有限会社,東京都,大田区,上池台５丁目１番２８号,,13,111,1450064,,,2023-02-22,清算の結了等,,,2015-10-05,1,,,,,モリマサコウムテン,0
915,5010802017599,登記記録の閉鎖等,0,2023-02-27,2023-02-22,有限会社ワカサ精工,,有限会社,東京都,大田区,本羽田１丁目２１番９号,,13,111,1440044,,,2023-02-22,清算の結了等,,,2015-10-05,1,,,,,ワカサセイコウ,0
921,5011105003601,登記記録の閉鎖等,0,2023-02-27,2023-02-16,富士通アドバンストエンジニアリング労働組合,,その他の設立登記法人,神奈川県,川崎市幸区,大宮町１番地５ＪＲ川崎タワー,,14,132,2120014,,,2023-02-16,清算の結了等,,,2015-10-05,1,,,,,フジツウアドバンストエンジニアリング,0
947,5021002004899,登記記録の閉鎖等,0,2023-02-27,2023-02-22,有限会社みやび,,有限会社,神奈川県,藤沢市,小塚４１番１９号,,14,205,2510013,,,2023-02-22,清算の結了等,,,2015-10-05,1,,,,,ミヤビ,0
954,5030002077723,登記記録の閉鎖等,0,2023-02-27,2023-02-20,有限会社プリントハウス,,有限会社,埼玉県,比企郡川島町,大字上狢３８７番地５,,11,346,3500136,,,2023-02-20,清算の結了等,,,2015-10-05,1,,,,,プリントハウス,0
955,5030002085932,登記記録の閉鎖等,0,2023-02-27,2023-02-22,有限会社光伸電機,,有限会社,埼玉県,越谷市,大字向畑８２８番地４,,11,222,3430007,,,2023-02-22,清算の結了等,,,2015-10-05,1,,,,,コウシンデンキ,0
959,5030002125267,登記記録の閉鎖等,0,2023-02-27,2023-02-21,有限会社中島ドライ工場,,有限会社,埼玉県,川越市,田町５番地６,,11,201,3501113,,,2023-02-21,清算の結了等,,,2023-01-25,1,,,,,ナカジマドライコウジョウ,0
989,5080101022575,登記記録の閉鎖等,0,2023-02-27,2023-02-24,株式会社江川経営リサーチ,,株式会社,静岡県,沼津市,我入道江川１５番地の１５,,22,203,4100823,,,2023-02-24,清算の結了等,,,2021-06-08,1,,,,,エガワケイエイリサーチ,0
999,5120001113791,登記記録の閉鎖等,0,2023-02-27,2023-02-22,株式会社マルタ,,株式会社,大阪府,大阪市平野区,加美西１丁目１３番３６号,,27,126,5470005,,,2023-02-22,清算の結了等,,,2015-10-05,1,,,,,マルタ,0
1021,5120105007444,登記記録の閉鎖等,0,2023-02-27,2023-02-24,特定非営利活動法人摂河泉地域文化研究所,,その他の設立登記法人,大阪府,貝塚市,北町２０番１８号,,27,208,5970011,,,2023-02-24,清算の結了等,,,2015-10-05,1,,,,,セッカセンチイキブンカケンキュウショ,0
1028,5140003013121,登記記録の閉鎖等,0,2023-02-27,2023-02-22,合同会社ＦＵＪＩＴＲＡＤＥ,,合同会社,兵庫県,西宮市,屋敷町１７番１０号ブランドール夙川１０１号,,28,204,6620963,,,2023-02-22,清算の結了等,,,2018-07-10,1,,,,,フジトレード,0
1045,5200002024410,登記記録の閉鎖等,0,2023-02-27,2023-02-21,有限会社三宅商店,,有限会社,岐阜県,恵那市,明智町吉良見４８４番地の１,,21,210,5097726,,,2023-02-21,清算の結了等,,,2015-10-05,1,,,,,ミヤケショウテン,0
1048,5230001004716,登記記録の閉鎖等,0,2023-02-27,2023-02-20,株式会社アーク,,株式会社,富山県,中新川郡上市町,法音寺１番地,,16,322,9300353,,,2023-02-20,清算の結了等,,,2015-10-05,1,,,,,,0
1055,5240001027039,登記記録の閉鎖等,0,2023-02-27,2023-02-24,株式会社淳和興産,,株式会社,広島県,江田島市,大柿町小古江甲１８０６番地,,34,215,7372215,,,2023-02-24,清算の結了等,,,2015-10-05,1,,,,,ジュンワコウサン,0
1123,6010802016105,登記記録の閉鎖等,0,2023-02-27,2023-02-20,有限会社美研工房,,有限会社,東京都,大田区,東馬込１丁目１１番９号,,13,111,1430022,,,2023-02-20,清算の結了等,,,2015-10-05,1,,,,,ビケンコウボウ,0
1138,6011005006587,登記記録の閉鎖等,0,2023-02-27,2023-02-16,特定非営利活動法人社会支援研究所,,その他の設立登記法人,東京都,渋谷区,円山町５番４号フィールＡ渋谷１０１２,,13,113,1500044,,,2023-02-16,清算の結了等,,,2015-12-11,1,,,,,シャカイシエンケンキュウジョ,0
1150,6012402004357,登記記録の閉鎖等,0,2023-02-27,2023-02-21,有限会社森田屋,,有限会社,東京都,国分寺市,日吉町３丁目３１番地２４,,13,214,1850032,,,2023-02-21,清算の結了等,,,2015-10-05,1,,,,,モリタヤ,0
1152,6012405004263,登記記録の閉鎖等,0,2023-02-27,2023-02-22,一般社団法人国際禅林美術史料協会,,その他の設立登記法人,東京都,武蔵野市,吉祥寺南町３丁目１６番５号,,13,203,1800003,,,2023-02-22,清算の結了等,,,2018-12-14,1,,,,,コクサイゼンリンビジュツシリョウキョウカイ,0
1210,6120001037726,登記記録の閉鎖等,0,2023-02-27,2023-02-22,株式会社神本組,,株式会社,大阪府,大阪市大正区,三軒家西２丁目１３番７号,,27,108,5510001,,,2023-02-22,清算の結了等,,,2015-10-05,1,,,,,カミモトグミ,0
1240,6140001118499,登記記録の閉鎖等,0,2023-02-27,2023-02-21,Ｊｏｏｍｅｅ　Ｓｏｎｇ株式会社,,株式会社,兵庫県,神戸市中央区,多聞通２丁目２－１６,,28,110,6500015,,,2023-02-21,清算の結了等,,,2020-08-26,1,,,,,ジュミソン,0
1251,6140005022739,登記記録の閉鎖等,0,2023-02-27,2023-02-22,一般社団法人クリーンエネルギー研究検査協会,,その他の設立登記法人,兵庫県,神戸市中央区,日暮通２丁目２番４号第五六甲センタービル２０３号,,28,110,6510077,,,2023-02-22,清算の結了等,,,2016-01-07,1,,,,,クリーンエネルギーケンキュウケンサキョウカイ,0
1262,6180002055985,登記記録の閉鎖等,0,2023-02-27,2023-02-20,有限会社アイエスアミューズ,,有限会社,愛知県,瀬戸市,高根町２丁目２３番地の５,,23,204,4890931,,,2023-02-20,清算の結了等,,,2015-10-05,1,,,,,アイエスアミューズ,0
1274,6230002003204,登記記録の閉鎖等,0,2023-02-27,2023-02-22,有限会社ホンダエレクトロニクス,,有限会社,富山県,富山市,本郷町３７４番地の１４,,16,201,9398045,,,2023-02-22,清算の結了等,,,2015-10-05,1,,,,,ホンダエレクトロニクス,0
1290,6290002040019,登記記録の閉鎖等,0,2023-02-27,2023-02-16,有限会社ふじもと,,有限会社,福岡県,筑紫野市,二日市中央２丁目７番２２号,,40,217,8180072,,,2023-02-16,清算の結了等,,,2015-10-05,1,,,,,フジモト,0
1302,6310002000556,登記記録の閉鎖等,0,2023-02-27,2023-02-27,有限会社いろは本店,,有限会社,長崎県,長崎市,小ケ倉町２丁目１３１番地１,,42,201,8500961,,,2023-02-27,清算の結了等,,,2015-10-05,1,,,,,,0
1310,6370601002864,登記記録の閉鎖等,0,2023-02-27,2023-02-21,水越工業株式会社,,株式会社,宮城県,多賀城市,新田字北２６６番地の３,,04,209,9850854,,,2023-02-21,清算の結了等,,,2015-10-05,1,,,,,ミズコシコウギョウ,0
1312,6380005011569,登記記録の閉鎖等,0,2023-02-27,2023-02-20,二本松セーフティネット協同組合,,その他の設立登記法人,福島県,二本松市,中里４３番地１,,07,210,9640874,,,2023-02-20,清算の結了等,,,2015-11-19,1,,,,,ニホンマツセーフティネット,0
1319,6470001009863,登記記録の閉鎖等,0,2023-02-27,2023-02-22,株式会社観音寺鋳工所,,株式会社,香川県,観音寺市,柞田町甲２３８９番地の１,,37,205,7680040,,,2023-02-22,清算の結了等,,,2015-10-05,1,,,,,カンオンジチュウコウショ,0
1320,6470001016133,登記記録の閉鎖等,0,2023-02-27,2023-02-20,株式会社ＧＡＴＥ,,株式会社,香川県,丸亀市,川西町北１３１０番地７,,37,202,7630091,,,2023-02-20,清算の結了等,,,2017-02-13,1,,,,,ゲート,0
1321,6470001018749,登記記録の閉鎖等,0,2023-02-27,2023-02-24,株式会社ビューティラボジャパン,,株式会社,香川県,高松市,国分寺町新名７５１番地１,,37,201,7690104,,,2023-02-24,清算の結了等,,,2021-10-05,1,,,,,ビューティラボジャパン,0
1343,7010401114374,登記記録の閉鎖等,0,2023-02-27,2023-02-20,株式会社ステイゴールドＳＰＣ,,株式会社,東京都,千代田区,平河町１丁目６番１５号シルスフィア会計事務所内,,13,101,1020093,,,2023-02-20,清算の結了等,,,2015-10-05,1,,,,,ステイゴールドエスピーシー,0
1349,7010501026049,登記記録の閉鎖等,0,2023-02-27,2023-02-24,株式会社ヒポクラテス,,株式会社,東京都,台東区,東上野３丁目３９番５号,,13,106,1100015,,,2023-02-24,清算の結了等,,,2015-10-05,1,,,,,ヒポクラテス,0
1351,7010601053109,登記記録の閉鎖等,0,2023-02-27,2023-02-01,株式会社ＢＭＳホールディングス,,株式会社,東京都,江東区,青海２丁目４番３２号,,13,108,1350064,,,2023-02-01,合併による解散等,5010601040546,令和５年２月１日東京都江東区青海二丁目４番３２号株式会社バイオミメティクスシンパシーズ（5010601040546）に合併し解散,2018-04-04,1,,,,,ビーエムエスホールディングス,0
1366,7011002010120,登記記録の閉鎖等,0,2023-02-27,2023-02-22,有限会社パトス,,有限会社,東京都,東久留米市,浅間町２丁目２９番８号,,13,222,2030012,,,2023-02-22,清算の結了等,,,2015-10-05,1,,,,,パトス,0
1377,7011201023237,登記記録の閉鎖等,0,2023-02-27,2023-02-22,Ｅｆｆｅｃｔｉｖｅ　Ｃｏｎｓｕｌｔｉｎｇ株式会社,,株式会社,東京都,中野区,中野２丁目２８番１号プロスペアー中野３０３,,13,114,1640001,,,2023-02-22,清算の結了等,,,2021-09-14,1,,,,,イフェクティブコンサルティング,0
1380,7011801040664,登記記録の閉鎖等,0,2023-02-27,2023-02-21,ＤＨＰ　Ｓｏｌｕｔｉｏｎ株式会社,,株式会社,東京都,葛飾区,新小岩２丁目１３番５号フレンドリーかわかみ３０２号,,13,122,1240024,,,2023-02-21,清算の結了等,,,2022-05-02,1,,,,,ディエイチピーソリューション,0
1394,7020001139556,登記記録の閉鎖等,0,2023-02-27,2023-02-22,株式会社Ｊ－アタック,,株式会社,神奈川県,横浜市南区,白妙町５丁目６９番地,,14,105,2320023,,,2023-02-22,清算の結了等,,,2021-01-20,1,,,,,ジェイアタック,0
1398,7020003015210,登記記録の閉鎖等,0,2023-02-27,2023-02-22,合同会社マサダ,,合同会社,神奈川県,横浜市金沢区,長浜２丁目２３番１８号,,14,108,2360011,,,2023-02-22,清算の結了等,,,2018-11-19,1,,,,,マサダ,0
1405,7021003008922,登記記録の閉鎖等,0,2023-02-27,2023-02-21,合同会社ＳＮＡＮＤＡＲＤ　ＦＩＬＭＳ,,合同会社,神奈川県,相模原市中央区,上溝４０２８－１,,14,152,2520243,,,2023-02-21,清算の結了等,,,2019-12-06,1,,,,,スナンダードフィルムズ,0
1470,7120903002925,登記記録の閉鎖等,0,2023-02-27,2023-02-20,合同会社悠りんご,,合同会社,大阪府,豊能郡豊能町,川尻３０９番地,,27,321,5630217,,,2023-02-20,清算の結了等,,,2019-08-08,1,,,,,ユウリンゴ,0
1490,7180002057329,登記記録の閉鎖等,0,2023-02-27,2023-02-22,有限会社アイウイッシュ,,有限会社,愛知県,名古屋市中川区,法華西町６４番地の１,,23,110,4540937,,,2023-02-22,清算の結了等,,,2015-10-05,1,,,,,アイウイッシュ,0
1508,7240001025643,登記記録の閉鎖等,0,2023-02-27,2023-02-22,株式会社鎌田幸星堂,,株式会社,広島県,呉市,本通１丁目１番１３号,,34,202,7370045,,,2023-02-22,清算の結了等,,,2015-10-05,1,,,,,カマダコウセイドウ,0
1524,7310002007765,登記記録の閉鎖等,0,2023-02-27,2023-02-24,有限会社ティーエスエル井手,,有限会社,長崎県,西彼杵郡時津町,浦郷２８０番地２,,42,308,8512105,,,2023-02-24,清算の結了等,,,2022-12-14,1,,,,,ティーエスエルイデ,0
1548,7470001014292,登記記録の閉鎖等,0,2023-02-27,2023-02-20,株式会社ＩＴＩＶＥ,,株式会社,香川県,高松市,寿町１丁目４－３高松中央通りビル３階,,37,201,7600023,,,2023-02-20,清算の結了等,,,2015-10-05,1,,,,,アイティブ,0
1556,8010001107843,登記記録の閉鎖等,0,2023-02-27,2023-02-20,株式会社演劇出版社,,株式会社,東京都,千代田区,一ツ橋２丁目３番１号,,13,101,1010003,,,2023-02-20,清算の結了等,,,2015-10-05,1,,,,,エンゲキシュッパンシャ,0
1568,8010003016605,登記記録の閉鎖等,0,2023-02-27,2023-02-20,エヌビービーシバスリース合同会社,,合同会社,東京都,中央区,日本橋浜町３丁目３番２号,,13,102,1030007,,,2023-02-20,清算の結了等,,,2015-10-05,1,,,,,エヌビービーシバスリース,0
1571,8010101009592,登記記録の閉鎖等,0,2023-02-27,2023-02-21,株式会社さんぜコーポレーション,,株式会社,東京都,八王子市,富士見町２２番４号,,13,201,1920044,,,2023-02-21,清算の結了等,,,2015-10-05,1,,,,,サンゼコーポレーション,0
1580,8010401110249,登記記録の閉鎖等,0,2023-02-27,2023-02-10,ＣＯＭＰＡＮＹ　Ｘ株式会社,,株式会社,東京都,港区,西麻布１丁目１０番２号,,13,103,1060031,,,2023-02-10,合併による解散等,3010401053048,令和５年１月３１日東京都港区西麻布一丁目１０番２号ソルト・コンソーシアム株式会社（3010401053048）に合併し解散,2015-10-05,1,,,,,カンパニーエックス,0
1622,8012402012259,登記記録の閉鎖等,0,2023-02-27,2023-02-20,有限会社ヒロ・セラミック,,有限会社,東京都,調布市,仙川町１丁目４番地２３,,13,208,1820002,,,2023-02-20,清算の結了等,,,2015-10-05,1,,,,,,0
1624,8012805002856,登記記録の閉鎖等,0,2023-02-27,2023-02-16,一般社団法人部活動支援協会,,その他の設立登記法人,東京都,中野区,弥生町２丁目５３番３号弥生町リバーサイドマンション７０３,,13,114,1640013,,,2023-02-16,清算の結了等,,,2019-06-12,1,,,,,ブカツドウシエンキョウカイ,0
1627,8013201004926,登記記録の閉鎖等,0,2023-02-27,2023-02-21,株式会社ヒューマンリソース,,株式会社,東京都,世田谷区,下馬１丁目４９番１２号下馬ＭＩＹＡＧＡＷＡビル２Ｆ,,13,112,1540002,,,2023-02-21,清算の結了等,,,2015-10-05,1,,,,,ヒューマンリソース,0
1639,8021001046510,登記記録の閉鎖等,0,2023-02-27,2023-02-17,株式会社カイト,,株式会社,東京都,町田市,小野路町４４２６番地２,,13,209,1950064,,,2023-02-17,清算の結了等,,,2015-10-05,1,,,,,カイト,0
1649,8030002019160,登記記録の閉鎖等,0,2023-02-27,2023-02-15,有限会社Ｍ・Ｋ機販,,有限会社,埼玉県,さいたま市北区,宮原町４丁目１３５番地７,,11,102,3310812,,,2023-02-15,清算の結了等,,,2015-10-05,1,,,,,エムケイキハン,0
1651,8040001024466,登記記録の閉鎖等,0,2023-02-27,2023-02-22,株式会社ウォルテック工芸舎,,株式会社,千葉県,船橋市,南三咲１丁目３５番１２号,,12,204,2740813,,,2023-02-22,清算の結了等,,,2015-10-05,1,,,,,ウォルテックコウゲイシャ,0
1660,8040002036205,登記記録の閉鎖等,0,2023-02-27,2023-02-14,有限会社ファクトリーフォーワン,,有限会社,千葉県,市川市,曽谷６丁目１４番３号,,12,203,2720832,,,2023-02-14,清算の結了等,,,2015-10-05,1,,,,,ファクトリーフォーワン,0
1674,8080005006837,登記記録の閉鎖等,0,2023-02-27,2023-02-24,ＩＴ総合マネジメント協同組合,,その他の設立登記法人,静岡県,静岡市葵区,五番町３番地の１１,,22,101,4200075,,,2023-02-24,清算の結了等,,,2015-12-24,1,,,,,アイティソウゴウマネジメント,0
1701,8120103001090,登記記録の閉鎖等,0,2023-02-27,2023-02-24,合同会社ＭＯＯＮ,,合同会社,大阪府,河内長野市,加賀田２７６７番地の３,,27,216,5860071,,,2023-02-24,清算の結了等,,,2015-10-05,1,,,,,ムーン,0
1709,8130001032658,登記記録の閉鎖等,0,2023-02-27,2023-02-20,株式会社斎藤工務店,,株式会社,京都府,宇治市,五ケ庄福角６０番地の３,,26,204,6110011,,,2023-02-20,清算の結了等,,,2015-10-05,1,,,,,サイトウコウムテン,0
1721,8190002008981,登記記録の閉鎖等,0,2023-02-27,2023-02-16,有限会社勢の国,,有限会社,三重県,伊勢市,古市町１９８番地,,24,203,5160033,,,2023-02-16,清算の結了等,,,2015-10-05,1,,,,,セノクニ,0
1723,8200002004756,登記記録の閉鎖等,0,2023-02-27,2023-02-20,有限会社村橋商店,,有限会社,岐阜県,岐阜市,西川手５丁目５７番地,,21,201,5008258,,,2023-02-20,清算の結了等,,,2015-10-05,1,,,,,ムラハシショウテン,0
1737,8290001057474,登記記録の閉鎖等,0,2023-02-27,2023-02-22,株式会社ＩＦＴ,,株式会社,福岡県,福岡市博多区,博多駅東１丁目１２番５号博多大島ビル５０５,,40,132,8120013,,,2023-02-22,清算の結了等,,,2015-10-05,1,,,,,アイエフティー,0
1804,9010601010990,登記記録の閉鎖等,0,2023-02-27,2023-02-20,スルガ金属株式会社,,株式会社,東京都,墨田区,東駒形４丁目１７番１１号,,13,107,1300005,,,2023-02-20,清算の結了等,,,2015-10-05,1,,,,,スルガキンゾク,0
1857,9030002009895,登記記録の閉鎖等,0,2023-02-27,2023-02-22,有限会社永井通商,,有限会社,埼玉県,さいたま市浦和区,高砂４丁目５番１８号,,11,107,3300063,,,2023-02-22,清算の結了等,,,2015-10-05,1,,,,,ナガイツウショウ,0
1863,9040001105975,登記記録の閉鎖等,0,2023-02-27,2023-02-22,株式会社翔栄,,株式会社,千葉県,市原市,海保２６２１,,12,219,2900266,,,2023-02-22,清算の結了等,,,2018-09-05,1,,,,,ショウエイ,0
1875,9080003001673,登記記録の閉鎖等,0,2023-02-27,2023-02-24,合同会社鈴木テクニカル・サービス,,合同会社,静岡県,静岡市駿河区,石田２丁目１９番１７号,,22,102,4228042,,,2023-02-24,清算の結了等,,,2015-10-05,1,,,,,スズキテクニカルサービス,0
1878,9080402009441,登記記録の閉鎖等,0,2023-02-27,2023-02-24,有限会社ピイエス加工,,有限会社,静岡県,湖西市,太田９９４番地の２,,22,221,4310404,,,2023-02-24,清算の結了等,,,2015-10-05,1,,,,,ピイエスカコウ,0
1892,9120001084567,登記記録の閉鎖等,0,2023-02-27,2023-02-22,株式会社椿屋洋服店,,株式会社,大阪府,大阪市中央区,心斎橋筋２丁目７番５号,,27,128,5420085,,,2023-02-22,清算の結了等,,,2015-10-05,1,,,,,ツバキヤヨウフクテン,0
1893,9120001136335,登記記録の閉鎖等,0,2023-02-27,2023-02-20,株式会社ふるさと賛洋,,株式会社,大阪府,大阪市平野区,背戸口１丁目１０番１９号,,27,126,5470034,,,2023-02-20,清算の結了等,,,2015-10-05,1,,,,,フルサトサンヨウ,0
1901,9120002001760,登記記録の閉鎖等,0,2023-02-27,2023-02-22,大宮倉庫有限会社,,有限会社,大阪府,大阪市西成区,北開１丁目１番２２号,,27,122,5570021,,,2023-02-22,清算の結了等,,,2015-10-05,1,,,,,オオミヤソウコ,0
1902,9120002057332,登記記録の閉鎖等,0,2023-02-27,2023-02-22,有限会社常生会,,有限会社,大阪府,大阪市東住吉区,中野２丁目３番１号,,27,121,5460012,,,2023-02-22,清算の結了等,,,2015-10-05,1,,,,,ジョウセイカイ,0
1907,9120101064782,登記記録の閉鎖等,0,2023-02-27,2023-02-22,インフィニティ株式会社,,株式会社,大阪府,高石市,羽衣５丁目１３番１４号中山建設第１ビル１０２号室,,27,225,5920002,,,2023-02-22,清算の結了等,,,2021-12-14,1,,,,,インフィニティ,0
1916,9140001029652,登記記録の閉鎖等,0,2023-02-27,2023-02-22,株式会社アクティブ,,株式会社,兵庫県,神戸市長田区,大道通４丁目１番７号－１０３,,28,106,6530833,,,2023-02-22,清算の結了等,,,2015-10-05,1,,,,,アクティブ,0
1922,9180001045968,登記記録の閉鎖等,0,2023-02-27,2023-02-24,株式会社西春木材センター,,株式会社,愛知県,北名古屋市,鍜治ケ一色襟２３番地,,23,234,4810037,,,2023-02-24,清算の結了等,,,2015-10-05,1,,,,,ニシハルモクザイセンター,0
1932,9240001059193,登記記録の閉鎖等,0,2023-02-27,2023-02-24,エースプロジェクト株式会社,,株式会社,広島県,広島市佐伯区,五日市町大字下河内５７５番２号,,34,108,7315152,,,2023-02-24,清算の結了等,,,2022-01-13,1,,,,,エースプロジェクト,0
1949,9310001015420,登記記録の閉鎖等,0,2023-02-27,2023-02-27,株式会社ＩＫＥＤＡ不動産,,株式会社,長崎県,諫早市,多良見町化屋１３９３番地９１,,42,204,8590401,,,2023-02-27,清算の結了等,,,2018-03-06,1,,,,,イケダフドウサン,0
