sequenceNumber,corporateNumber,process,correct,updateDate,changeDate,name,nameImageId,kind,prefectureName,cityName,streetNumber,addressImageId,prefectureCode,cityCode,postCode,addressOutside,addressOutsideImageId,closeDate,closeCause,successorCorporateNumber,changeCause,assignmentDate,latest,enName,enPrefectureName,enCityName,enAddressOutside,furigana,hihyoji
6,1010001248330,新規,0,2024-09-13,2024-09-13,株式会社ＬｅＭａｒｇｅ,,株式会社,東京都,中央区,銀座１丁目２２番１１号銀座大竹ビジデンス２Ｆ,,13,102,1040061,,,,,,,2024-09-13,1,,,,,ルマージュ,0
9,1010003044752,新規,0,2024-09-13,2024-09-13,ＬＩＮＫＴＨ合同会社,,合同会社,東京都,中央区,銀座１丁目１２番４号Ｎ＆ＥＢＬＤ．６階,,13,102,1040061,,,,,,,2024-09-13,1,,,,,リンクス,0
10,1010003044868,新規,0,2024-09-13,2024-09-13,スタジオこだち合同会社,,合同会社,東京都,中央区,銀座１丁目１２番４号Ｎ＆ＥＢＬＤ．６Ｆ,,13,102,1040061,,,,,,,2024-09-13,1,,,,,スタジオコダチ,0
12,1010101016315,新規,0,2024-09-13,2024-09-13,株式会社康久,,株式会社,東京都,八王子市,大楽寺町５０５番地１１,,13,201,1930816,,,,,,,2024-09-13,1,,,,,ヤスヒサ,0
25,1010401185066,新規,0,2024-09-13,2024-09-13,株式会社ＣＡＶＩＯＮ,,株式会社,東京都,港区,南青山２丁目２－１５ＷＩＮ青山５３１,,13,103,1070062,,,,,,,2024-09-13,1,,,,,キャビオン,0
27,1010403033413,新規,0,2024-09-13,2024-09-13,合同会社ＨｉＪｏＪｏ　Ｆｕｎｄ４０,,合同会社,東京都,港区,西新橋１丁目７番２号,,13,103,1050003,,,,,,,2024-09-13,1,,,,,ヒジョージョーファンドヨンジュウ,0
30,1010501052901,新規,0,2024-09-13,2024-09-13,ＴＸコンサルティング株式会社,,株式会社,東京都,台東区,浅草１丁目１３－５井門浅草すしや通りビル,,13,106,1110032,,,,,,,2024-09-13,1,,,,,ティーエックスコンサルティング,0
34,1010601065927,新規,0,2024-09-13,2024-09-13,株式会社ＹＯＣＳ,,株式会社,東京都,江東区,有明１丁目４－２０－２３３５,,13,108,1350063,,,,,,,2024-09-13,1,,,,,ヨクス,0
36,1010703007348,新規,0,2024-09-13,2024-09-13,合同会社Ａｃｔ,,合同会社,東京都,品川区,東五反田１丁目１９番８号ハイツ五反田７０４号室,,13,109,1410022,,,,,,,2024-09-13,1,,,,,アクト,0
40,1011001164600,新規,0,2024-09-13,2024-09-13,株式会社Ｖｉｅｅ,,株式会社,東京都,渋谷区,千駄ヶ谷２丁目２９－８さかえビル３０７号室,,13,113,1510051,,,,,,,2024-09-13,1,,,,,ヴィー,0
41,1011001164658,新規,0,2024-09-13,2024-09-13,株式会社Ｈｉｇｈ　Ｂｒｉｄｇｅ,,株式会社,東京都,渋谷区,道玄坂１丁目１０番８号渋谷道玄坂東急ビル２Ｆ‐Ｃ,,13,113,1500043,,,,,,,2024-09-13,1,,,,,ハイブリッジ,0
42,1011003019959,新規,0,2024-09-13,2024-09-13,合同会社ナイト,,合同会社,東京都,渋谷区,神宮前５丁目１７番１５号サンバレー原宿３０１号室,,13,113,1500001,,,,,,,2024-09-13,1,,,,,ナイト,0
43,1011005010668,新規,0,2024-09-13,2024-09-13,一般社団法人日本健康交流中医協会,,その他の設立登記法人,東京都,渋谷区,円山町５番３号ＭＩＥＵＸ渋谷ビル１０階,,13,113,1500044,,,,,,,2024-09-13,1,,,,,ニホンケンコウコウリュウチュウイキョウカイ,0
47,1011101108746,新規,0,2024-09-13,2024-09-13,株式会社ニンバス・インタラクティブ,,株式会社,東京都,新宿区,西新宿８丁目３番３３号パークウェル西新宿ＩＩ６０３号室,00136294,13,104,1600023,,,,,,,2024-09-13,1,,,,,ニンバスインタラクティブ,0
48,1011103014926,新規,0,2024-09-13,2024-09-13,合同会社Ｅｌ　Ｔｅｒｃｅｒｏ,,合同会社,東京都,新宿区,新宿４丁目２番２５号,,13,104,1600022,,,,,,,2024-09-13,1,,,,,エルテルセーロ,0
49,1011201025791,新規,0,2024-09-13,2024-09-13,Ｅｘｃｅｅｄｉｎｇ　Ｔｅｃｈｎｏｌｏｇｙ株式会社,,株式会社,東京都,中野区,南台２丁目２２－７－１０７,,13,114,1640014,,,,,,,2024-09-13,1,,,,,エクシーディングテクノロジー,0
50,1011501031143,新規,0,2024-09-13,2024-09-13,株式会社ＮＡＧＡＴＯ,,株式会社,東京都,荒川区,東日暮里５丁目３２番９号,,13,118,1160014,,,,,,,2024-09-13,1,,,,,ナガト,0
51,1011503006218,新規,0,2024-09-13,2024-09-13,合同会社光翠,,合同会社,東京都,北区,志茂４丁目４８－４－１０７,,13,117,1150042,,,,,,,2024-09-13,1,,,,,コウスイ,0
55,1011701027602,新規,0,2024-09-13,2024-09-13,和光株式会社,,株式会社,東京都,江戸川区,平井５丁目４５番５号渡辺ハイツ１０１,,13,123,1320035,,,,,,,2024-09-13,1,,,,,ワコウ,0
72,1020001159188,新規,0,2024-09-13,2024-09-13,株式会社スマートヴィークル,,株式会社,神奈川県,横浜市旭区,川井宿町９３番地１３,,14,112,2410804,,,,,,,2024-09-13,1,,,,,スマートヴィークル,0
73,1020001159196,新規,0,2024-09-13,2024-09-13,株式会社ａｉｔｏ,,株式会社,神奈川県,川崎市中原区,小杉町３丁目６００,,14,133,2110063,,,,,,,2024-09-13,1,,,,,アイト,0
83,1030001162372,新規,0,2024-09-13,2024-09-13,ＡＳＫホールディングス株式会社,,株式会社,埼玉県,川口市,元郷２丁目１番１－７０８号メイツ川口ウイングコート,,11,203,3320011,,,,,,,2024-09-13,1,,,,,エーエスケーホールディングス,0
84,1030001162471,新規,0,2024-09-13,2024-09-13,イドモ株式会社,,株式会社,埼玉県,春日部市,一ノ割２丁目１番４５号パルトゥ倉田ビル２階,,11,214,3440031,,,,,,,2024-09-13,1,,,,,イドモ,0
85,1030001162521,新規,0,2024-09-13,2024-09-13,ＨＡＹ‐ＹＵＥ株式会社,,株式会社,埼玉県,川口市,西川口１丁目３０番２０－３１１号,,11,203,3320021,,,,,,,2024-09-13,1,,,,,ハイユエ,0
88,1030003025107,新規,0,2024-09-13,2024-09-13,合同会社感謝,,合同会社,埼玉県,蕨市,南町１丁目１６－１２,,11,223,3350003,,,,,,,2024-09-13,1,,,,,カンシャ,0
89,1030003025115,新規,0,2024-09-13,2024-09-13,合同会社ＴＡＳ,,合同会社,埼玉県,入間市,豊岡１丁目８番２－８１１号,,11,225,3580003,,,,,,,2024-09-13,1,,,,,ティーエーエス,0
90,1030003025123,新規,0,2024-09-13,2024-09-13,合同会社藤新工業,,合同会社,埼玉県,さいたま市大宮区,桜木町２丁目３番地大宮マルイ７階,,11,103,3300854,,,,,,,2024-09-13,1,,,,,トウシンコウギョウ,0
98,1040001135402,新規,0,2024-09-13,2024-09-13,株式会社ウェッピー,,株式会社,千葉県,千葉市中央区,中央２丁目５－１千葉中央ツインビル２号館,,12,101,2600013,,,,,,,2024-09-13,1,,,,,ウェッピー,0
105,1040003025816,新規,0,2024-09-13,2024-09-13,合同会社ＡＲＩＳＳＡ,,合同会社,千葉県,流山市,南流山７丁目９―７アリスティオ３０１,,12,220,2700163,,,,,,,2024-09-13,1,,,,,アリッサ,0
108,1060003005246,新規,0,2024-09-13,2024-09-13,宇都宮市道路照明等ＥＳＣＯ事業合同会社,,合同会社,栃木県,宇都宮市,台新田１丁目１４番４号,,09,201,3210104,,,,,,,2024-09-13,1,,,,,ウツノミヤシドウロショウメイトウエスコジギョウ,0
109,1070001042174,新規,0,2024-09-13,2024-09-13,株式会社ヒマラヤ自然食品,,株式会社,群馬県,前橋市,大友町３丁目１４番地１１,,10,201,3710847,,,,,,,2024-09-13,1,,,,,ヒマラヤシゼンショクヒン,0
110,1070003005583,新規,0,2024-09-13,2024-09-13,合同会社Ｓｉｍｐｌｅ　ｄａｙｓ,,合同会社,群馬県,高崎市,金古町１１４２番地,,10,202,3703511,,,,,,,2024-09-13,1,,,,,シンプルデイズ,0
113,1110005017127,新規,0,2024-09-13,2024-09-13,関川村湯沢温泉管理協同組合,,その他の設立登記法人,新潟県,岩船郡関川村,大字湯沢１８６５番地３,,15,581,9593261,,,,,,,2024-09-13,1,,,,,セキカワムラユサワオンセンカンリ,0
125,1120003027531,新規,0,2024-09-13,2024-09-13,合同会社メディカル・コンシェルジュ,,合同会社,大阪府,大阪市中央区,淡路町１丁目６番９号８階,,27,128,5410047,,,,,,,2024-09-13,1,,,,,メディカルコンシェルジュ,0
134,1122001038428,新規,0,2024-09-13,2024-09-13,株式会社ＢＯＬＤ,,株式会社,大阪府,八尾市,恩智北町４丁目５９６番地の８,,27,212,5810882,,,,,,,2024-09-13,1,,,,,ボールド,0
137,1130001077866,新規,0,2024-09-13,2024-09-13,株式会社リストレーション,,株式会社,京都府,京都市中京区,柳馬場通御池下る柳八幡町７５番地６,,26,104,6048101,,,,,,,2024-09-13,1,,,,,リストレーション,0
139,1140001135796,新規,0,2024-09-13,2024-09-13,ＥＮＪＯＹ　ＴＲＡＶＥＬ株式会社,,株式会社,兵庫県,神戸市西区,樫野台３丁目２４番地の６,,28,111,6512275,,,,,,,2024-09-13,1,,,,,エンジョイトラベル,0
164,1220001026203,新規,0,2024-09-13,2024-09-13,Ａｂｅｌｉａ株式会社,,株式会社,石川県,金沢市,兼六元町１５番２８号,,17,201,9200931,,,,,,,2024-09-13,1,,,,,アベリア,0
165,1230001020527,新規,0,2024-09-13,2024-09-13,ＨＹ株式会社,,株式会社,富山県,高岡市,太田辰ノ口４４１３,,16,202,9330133,,,,,,,2024-09-13,1,,,,,エイチワイ,0
171,1250003003560,新規,0,2024-09-13,2024-09-13,合同会社ＲｅｏＳｔａｔ,,合同会社,山口県,下関市,上田中町２丁目９番１９－２０６号クエストコート上田中,,35,201,7500009,,,,,,,2024-09-13,1,,,,,リオスタット,0
177,1290003015800,新規,0,2024-09-13,2024-09-13,合同会社Ｄｕｓｋ　Ｌｉｇｈｔ,,合同会社,福岡県,大牟田市,南船津町４丁目３番地５,,40,202,8360075,,,,,,,2024-09-13,1,,,,,ダスクライト,0
178,1290003015809,新規,0,2024-09-13,2024-09-13,合同会社たきび,,合同会社,福岡県,福岡市博多区,東比恵２丁目１７－２３ローズマンション第１博多１０１２号室,,40,132,8120007,,,,,,,2024-09-13,1,,,,,タキビ,0
180,1290005019485,新規,0,2024-09-13,2024-09-13,Ｍ．Ｐａｒｔｎｅｒｓ税理士法人,,その他の設立登記法人,福岡県,福岡市博多区,博多駅東１丁目１２番１７号,,40,132,8120013,,,,,,,2024-09-13,1,,,,,エムドットパートナーズ,0
183,1310001019206,新規,0,2024-09-13,2024-09-13,株式会社幸麟,,株式会社,長崎県,諫早市,天満町４９番１３号,,42,204,8540006,,,,,,,2024-09-13,1,,,,,コウリン,0
186,1310005008799,新規,0,2024-09-13,2024-09-13,特定非営利活動法人すてきな未来・こどもＣＩＴＹ,,その他の設立登記法人,長崎県,長崎市,三和町３８８－１,,42,201,8500975,,,,,,,2024-09-13,1,,,,,ステキナミライコドモシティ,0
190,1330003010549,新規,0,2024-09-13,2024-09-13,合同会社アグリグレースファクトリー,,合同会社,熊本県,熊本市中央区,花畑町１番１４号Ａ＆Ｍ　ＨＡＮＡＢＡＴＡ３０１号,,43,101,8600806,,,,,,,2024-09-13,1,,,,,アグリグレースファクトリー,0
192,1340001026793,新規,0,2024-09-13,2024-09-13,ＡＰＥＸ　ＪＡＰＡＮ　ＫＡＧＯＳＨＩＭＡ株式会社,,株式会社,鹿児島県,霧島市,国分松木町３２番５号,,46,218,8994325,,,,,,,2024-09-13,1,,,,,アペックスジャパンカゴシマ,0
193,1340003004599,新規,0,2024-09-13,2024-09-13,合同会社みんなのえがお,,合同会社,鹿児島県,鹿児島市,小原町１番２３号,,46,201,8910111,,,,,,,2024-09-13,1,,,,,ミンナノエガオ,0
198,1360001034175,新規,0,2024-09-13,2024-09-13,スポーツコネクト沖縄株式会社,,株式会社,沖縄県,名護市,字宇茂佐１８４－４,,47,209,9050006,,,,,,,2024-09-13,1,,,,,スポーツコネクトオキナワ,0
199,1360001034191,新規,0,2024-09-13,2024-09-13,株式会社ＣＫＫ,,株式会社,沖縄県,うるま市,石川３３１９番地２４,,47,213,9041106,,,,,,,2024-09-13,1,,,,,シーケイケイ,0
201,1360003014290,新規,0,2024-09-13,2024-09-13,Ｐａｃｉｆｉｃ　Ｇｒａｐｐｌｅｒ合同会社,,合同会社,沖縄県,中頭郡北中城村,字安谷屋１９３４番地,,47,327,9012316,,,,,,,2024-09-13,1,,,,,パシフィックグラップラー,0
207,1380001034792,新規,0,2024-09-13,2024-09-13,株式会社日吉商事,00136295,株式会社,福島県,須賀川市,森宿字ウツロ田４３番地３２,,07,207,9620001,,,,,,,2024-09-13,1,,,,,ヒヨシショウジ,0
208,1390001017739,新規,0,2024-09-13,2024-09-13,株式会社あーす・らぼ,,株式会社,山形県,東根市,温泉町２丁目２番２５号,,06,211,9993702,,,,,,,2024-09-13,1,,,,,アースラボ,0
211,1420001018865,新規,0,2024-09-13,2024-09-13,株式会社Ｌｕｃｋ　ｓｕｎ,,株式会社,青森県,五所川原市,字大町５０５番地１２,,02,205,0370063,,,,,,,2024-09-13,1,,,,,ラックサン,0
238,2010001248214,新規,0,2024-09-13,2024-09-13,楽之者洋行株式会社,,株式会社,東京都,中央区,日本橋室町１丁目１１番１２号日本橋水野ビル７階,,13,102,1030022,,,,,,,2024-09-13,1,,,,,ガクシシャヨウコウ,0
239,2010001248230,新規,0,2024-09-13,2024-09-13,ＴＳ株式会社,,株式会社,東京都,千代田区,大手町１丁目６番１号,,13,101,1000004,,,,,,,2024-09-13,1,,,,,ティーエス,0
240,2010001248239,新規,0,2024-09-13,2024-09-13,スターチャージャージャパン株式会社,,株式会社,東京都,千代田区,丸の内１丁目４番１号丸の内永楽ビル２６０５号室,,13,101,1000005,,,,,,,2024-09-13,1,,,,,スターチャージャージャパン,0
241,2010001248255,新規,0,2024-09-13,2024-09-13,丁壬株式会社,,株式会社,東京都,中央区,銀座１丁目１２番４号Ｎ＆ＥＢＬＤＧ．６Ｆ,,13,102,1040061,,,,,,,2024-09-13,1,,,,,テイジン,0
242,2010001248263,新規,0,2024-09-13,2024-09-13,株式会社ＭｉＲａＩ,,株式会社,東京都,中央区,銀座１丁目２２番１１号銀座大竹ビジデンス２Ｆ,,13,102,1040061,,,,,,,2024-09-13,1,,,,,ミライ,0
244,2010101016314,新規,0,2024-09-13,2024-09-13,株式会社Ｋトラスト,,株式会社,東京都,八王子市,長沼町１０５５番地５,,13,201,1920907,,,,,,,2024-09-13,1,,,,,ケートラスト,0
245,2010101016322,新規,0,2024-09-13,2024-09-13,株式会社ＳＵＮ　ＣＬＥＬＩＡ,,株式会社,東京都,八王子市,下柚木２丁目３５番地１８,,13,201,1920372,,,,,,,2024-09-13,1,,,,,サンクレリア,0
247,2010105002302,新規,0,2024-09-13,2024-09-13,労働者協同組合ワーカーズ・コレクティブかみつれ,,その他の設立登記法人,東京都,八王子市,別所１丁目６９番地５,,13,201,1920363,,,,,,,2024-09-13,1,,,,,ワーカーズコレクティブカミツレ,0
250,2010401185065,新規,0,2024-09-13,2024-09-13,ＮＰＳ株式会社,,株式会社,東京都,港区,芝浦１丁目１１－５－５０１,,13,103,1050023,,,,,,,2024-09-13,1,,,,,エヌピーエス,0
253,2010403033412,新規,0,2024-09-13,2024-09-13,合同会社ＨｉＪｏＪｏ　Ｆｕｎｄ３９,,合同会社,東京都,港区,西新橋１丁目７番２号,,13,103,1050003,,,,,,,2024-09-13,1,,,,,ヒジョージョーファンドサンジュウキュウ,0
255,2010501052867,新規,0,2024-09-13,2024-09-13,ＧｉＧｉ株式会社,,株式会社,東京都,台東区,台東３丁目２８－４－１０１－Ｃ,,13,106,1100016,,,,,,,2024-09-13,1,,,,,ジジ,0
257,2010601065934,新規,0,2024-09-13,2024-09-13,イー・エス・エス株式会社,,株式会社,東京都,墨田区,錦糸２丁目１３番７号,,13,107,1300013,,,,,,,2024-09-13,1,,,,,イーエスエス,0
260,2010605004384,新規,0,2024-09-13,2024-09-13,一般社団法人Ｍｙ　ｗｉｌｌパートナーズ,,その他の設立登記法人,東京都,墨田区,横川３丁目１３番１０号,,13,107,1300003,,,,,,,2024-09-13,1,,,,,マイウィルパートナーズ,0
261,2010701046545,新規,0,2024-09-13,2024-09-13,栄進物産株式会社,,株式会社,東京都,品川区,西五反田７丁目２２番１７号ＴＯＣビル４階,,13,109,1410031,,,,,,,2024-09-13,1,,,,,エイシンブッサン,0
263,2010901055981,新規,0,2024-09-13,2024-09-13,株式会社ＢｏＪａｎｇｌｅ,,株式会社,東京都,世田谷区,奥沢１丁目４７番９号,,13,112,1580083,,,,,,,2024-09-13,1,,,,,ボージャングル,0
268,2011001164590,新規,0,2024-09-13,2024-09-13,株式会社アセットリリーフ,,株式会社,東京都,渋谷区,道玄坂１丁目１０番８号渋谷道玄坂東急ビル２Ｆ－Ｃ,,13,113,1500043,,,,,,,2024-09-13,1,,,,,アセットリリーフ,0
269,2011001164599,新規,0,2024-09-13,2024-09-13,株式会社Ｊボンド,,株式会社,東京都,渋谷区,道玄坂１丁目１０番８号渋谷道玄坂東急ビル２Ｆ－Ｃ,,13,113,1500043,,,,,,,2024-09-13,1,,,,,ジェイボンド,0
275,2011101108778,新規,0,2024-09-13,2024-09-13,株式会社ｕｎｅｒｉ,,株式会社,東京都,新宿区,西新宿１丁目４－１１全研プラザＳＰＡＣＥＳ新宿,,13,104,1600023,,,,,,,2024-09-13,1,,,,,ウネリ,0
277,2011105011160,新規,0,2024-09-13,2024-09-13,一般財団法人せこ記念財団,,その他の設立登記法人,東京都,新宿区,西早稲田３丁目１３番５号,,13,104,1690051,,,,,,,2024-09-13,1,,,,,セコキネンザイダン,0
279,2011201025790,新規,0,2024-09-13,2024-09-13,嘉瑞商社株式会社,,株式会社,東京都,中野区,本町４丁目４８番１７号２階,,13,114,1640012,,,,,,,2024-09-13,1,,,,,カズイショウシャ,0
284,2011701027626,新規,0,2024-09-13,2024-09-13,Ｇｅｔｓｕ株式会社,,株式会社,東京都,江戸川区,江戸川６丁目４０番１４－１１７号,,13,123,1340013,,,,,,,2024-09-13,1,,,,,ゲツ,0
292,2013101009510,新規,0,2024-09-13,2024-09-13,株式会社サンエフホーム,,株式会社,東京都,福生市,牛浜９１番地１ユニオンビル３階,,13,218,1970024,,,,,,,2024-09-13,1,,,,,サンエフホーム,0
298,2020001159187,新規,0,2024-09-13,2024-09-13,ケイサン自動車株式会社,,株式会社,神奈川県,横浜市栄区,公田町２６４番地８,,14,115,2470014,,,,,,,2024-09-13,1,,,,,ケイサンジドウシャ,0
304,2021003015007,新規,0,2024-09-13,2024-09-13,合同会社Ｓクオリティ,,合同会社,神奈川県,横須賀市,坂本町１丁目４８番地,,14,201,2380043,,,,,,,2024-09-13,1,,,,,エスクオリティ,0
305,2021003015015,新規,0,2024-09-13,2024-09-13,シグマＭキューブ合同会社,,合同会社,神奈川県,相模原市南区,鵜野森１丁目２８番２１号Ｆ２ー３０５,,14,153,2520301,,,,,,,2024-09-13,1,,,,,シグマエムキューブ,0
307,2021005013181,新規,0,2024-09-13,2024-09-13,特定非営利活動法人Ｒ．Ａ．Ｆ,,その他の設立登記法人,神奈川県,小田原市,東町４丁目１番３７号,,14,206,2500003,,,,,,,2024-09-13,1,,,,,ラフ,0
313,2030001162454,新規,0,2024-09-13,2024-09-13,ｃｏｃｏｐａｌｅｔｔｅ株式会社,,株式会社,埼玉県,さいたま市南区,別所３丁目２０番１０－３号,,11,108,3360021,,,,,,,2024-09-13,1,,,,,ココパレット,0
314,2030001162462,新規,0,2024-09-13,2024-09-13,株式会社ＡＭＥＤ,,株式会社,埼玉県,さいたま市南区,太田窪５丁目８番２０号プチシャトー杉２０２,,11,108,3360015,,,,,,,2024-09-13,1,,,,,アメド,0
315,2030001162470,新規,0,2024-09-13,2024-09-13,株式会社縁和,,株式会社,埼玉県,越谷市,東越谷５丁目９番地４２,,11,222,3430023,,,,,,,2024-09-13,1,,,,,エンワ,0
318,2030003025106,新規,0,2024-09-13,2024-09-13,ＳＫ合同会社,,合同会社,埼玉県,さいたま市西区,湯木町２丁目５番地８,,11,101,3310069,,,,,,,2024-09-13,1,,,,,エスケー,0
319,2030003025114,新規,0,2024-09-13,2024-09-13,合同会社ＮＢＨＭ,,合同会社,埼玉県,川越市,大字的場５９９番地２３,,11,201,3501101,,,,,,,2024-09-13,1,,,,,エヌビーエイチエム,0
324,2040001135376,新規,0,2024-09-13,2024-09-13,株式会社Ｆａｎｔａｓｔｉｃ　Ｃｕｓｔｏｍｓ,,株式会社,千葉県,木更津市,高柳１丁目９番２１号,,12,206,2920014,,,,,,,2024-09-13,1,,,,,ファンタスティックカスタムズ,0
325,2040005022488,新規,0,2024-09-13,2024-09-13,一般社団法人ＴＯＭ,,その他の設立登記法人,千葉県,市川市,塩焼３丁目８番２５－３０１号,,12,203,2720114,,,,,,,2024-09-13,1,,,,,ティーオーエム,0
328,2050001055409,新規,0,2024-09-13,2024-09-13,株式会社タロウ,,株式会社,茨城県,つくば市,吾妻２丁目５番地１,,08,220,3050031,,,,,,,2024-09-13,1,,,,,タロウ,0
330,2060001037488,新規,0,2024-09-13,2024-09-13,すずき板金株式会社,,株式会社,栃木県,栃木市,都賀町家中２１２４番地１,,09,203,3280111,,,,,,,2024-09-13,1,,,,,スズキバンキン,0
333,2080401027442,新規,0,2024-09-13,2024-09-13,アンバーロー株式会社,,株式会社,静岡県,袋井市,神長３６番地の２０,,22,216,4370028,,,,,,,2024-09-13,1,,,,,アンバーロー,0
342,2090001018898,新規,0,2024-09-13,2024-09-13,株式会社ｐｏｎｔｉｉ,,株式会社,山梨県,甲府市,住吉３丁目２番１６号,,19,201,4000851,,,,,,,2024-09-13,1,,,,,ポンティ,0
343,2090003002636,新規,0,2024-09-13,2024-09-13,合同会社ＭＴＫ,,合同会社,山梨県,甲府市,飯田５丁目１７番３４号２００号室,,19,201,4000035,,,,,,,2024-09-13,1,,,,,エムティケイ,0
345,2100001037847,新規,0,2024-09-13,2024-09-13,株式会社マルジュー,,株式会社,長野県,長野市,篠ノ井会２３０番地,,20,201,3888004,,,,,,,2024-09-13,1,,,,,マルジュー,0
351,2110003005512,新規,0,2024-09-13,2024-09-13,合同会社あひるインク,,合同会社,新潟県,新潟市西区,黒鳥５０５５―１,,15,107,9501123,,,,,,,2024-09-13,1,,,,,アヒルインク,0
356,2120001268523,新規,0,2024-09-13,2024-09-13,Ｃｏｃｏ＆アオ株式会社,,株式会社,大阪府,大阪市都島区,都島北通２丁目２２番２１号,,27,102,5340014,,,,,,,2024-09-13,1,,,,,ココアンドアオ,0
357,2120001268531,新規,0,2024-09-13,2024-09-13,株式会社信達,,株式会社,大阪府,大阪市西成区,北津守１丁目５番１５号,,27,122,5570061,,,,,,,2024-09-13,1,,,,,シンタツ,0
358,2120001268548,新規,0,2024-09-13,2024-09-13,株式会社みたか,,株式会社,大阪府,大阪市阿倍野区,松崎町３丁目９番１－５０２号,,27,119,5450053,,,,,,,2024-09-13,1,,,,,ミタカ,0
365,2120903005338,新規,0,2024-09-13,2024-09-13,合同会社ｅｍｐｒｅｓｓ,,合同会社,大阪府,高槻市,宮野町１１番９号,,27,207,5690081,,,,,,,2024-09-13,1,,,,,エンプレス,0
369,2130001077931,新規,0,2024-09-13,2024-09-13,株式会社花喜や,00136300,株式会社,京都府,京都市東山区,三条通白川橋東三丁目夷町１５８番地１階,,26,105,6050000,,,,,,,2024-09-13,1,,,,,ハナキヤ,0
373,2140003021085,新規,0,2024-09-13,2024-09-13,合同会社エスコート,,合同会社,兵庫県,芦屋市,大原町１１番２４号,,28,206,6590092,,,,,,,2024-09-13,1,,,,,エスコート,0
380,2180001163248,新規,0,2024-09-13,2024-09-13,株式会社ＧＯＬＦ　ＳＱＵＡＲＥ,,株式会社,愛知県,名古屋市中区,丸の内３丁目６番１７号グリーンポートビル４Ｆ,,23,106,4600002,,,,,,,2024-09-13,1,,,,,ゴフルスクエア,0
386,2190003004795,新規,0,2024-09-13,2024-09-13,合同会社リブラ,,合同会社,三重県,鈴鹿市,白子駅前１６‐１５,,24,207,5100241,,,,,,,2024-09-13,1,,,,,リブラ,0
387,2210005010161,新規,0,2024-09-13,2024-09-13,医療法人調和会,,その他の設立登記法人,福井県,福井市,大宮２丁目３番３２号,,18,201,9100016,,,,,,,2024-09-13,1,,,,,チョウワカイ,0
389,2220001026202,新規,0,2024-09-13,2024-09-13,ＲＡＹｚＳＰＥＥＤ株式会社,,株式会社,石川県,河北郡津幡町,字加茂い３８番地,,17,361,9290321,,,,,,,2024-09-13,1,,,,,レイスピード,0
392,2230001020526,新規,0,2024-09-13,2024-09-13,株式会社スキルラボ,,株式会社,富山県,富山市,町村１３８番地４Ｄ‐ＢＯＸ町村Ａ１０１,,16,201,9300952,,,,,,,2024-09-13,1,,,,,スキルラボ,0
397,2240001063813,新規,0,2024-09-13,2024-09-13,株式会社ｃｅａｐｔ,,株式会社,広島県,安芸郡府中町,桃山１丁目１－４鵜崎マンション５０６,,34,302,7350026,,,,,,,2024-09-13,1,,,,,セアプト,0
401,2250001020813,新規,0,2024-09-13,2024-09-13,株式会社ビーチブック,,株式会社,山口県,山陽小野田市,日の出３丁目２番１４号１０２,,35,216,7560091,,,,,,,2024-09-13,1,,,,,ビーチブック,0
409,2290001107202,新規,0,2024-09-13,2024-09-13,ＰＬＵＳＳＰＡＣＥ株式会社,,株式会社,福岡県,福岡市中央区,白金１丁目８番３－７０５号,,40,133,8100012,,,,,,,2024-09-13,1,,,,,プラススペース,0
410,2290001107251,新規,0,2024-09-13,2024-09-13,ＴＤＳ　ｓｔｙｌｅ株式会社,,株式会社,福岡県,柳川市,矢留本町５０７番地１,,40,207,8320056,,,,,,,2024-09-13,1,,,,,ティーディーエススタイル,0
412,2290801030883,新規,0,2024-09-13,2024-09-13,株式会社ＡＮ商事,,株式会社,福岡県,直方市,大字赤池１３６番の４,,40,204,8220000,,,,,,,2024-09-13,1,,,,,エーエヌショウジ,0
416,2320003004468,新規,0,2024-09-13,2024-09-13,合同会社巧,,合同会社,大分県,大分市,敷戸南町１５番３号シティパル敷戸Ｂ棟２０１,,44,201,8701105,,,,,,,2024-09-13,1,,,,,タクミ,0
417,2330001032461,新規,0,2024-09-13,2024-09-13,株式会社カボチャファーム,,株式会社,熊本県,熊本市南区,田迎１丁目６番５６－１号,,43,104,8620962,,,,,,,2024-09-13,1,,,,,カボチャファーム,0
440,2430001092652,新規,0,2024-09-13,2024-09-13,株式会社若葉,,株式会社,北海道,札幌市南区,石山一条１丁目１２番６－５０５号,,01,106,0050841,,,,,,,2024-09-13,1,,,,,ワカバ,0
445,2430003016782,新規,0,2024-09-13,2024-09-13,マツイ善作商店合同会社,,合同会社,北海道,札幌市中央区,北二条西１４丁目３－３６,,01,101,0600002,,,,,,,2024-09-13,1,,,,,マツイゼンサクショウテン,0
446,2460103001649,新規,0,2024-09-13,2024-09-13,合同会社松木商事,,合同会社,北海道,広尾郡広尾町,字野塚４線４４番地１４,,01,642,0892561,,,,,,,2024-09-13,1,,,,,マツキショウジ,0
457,3010001248163,新規,0,2024-09-13,2024-09-13,東京子育て不動産株式会社,,株式会社,東京都,文京区,千石１丁目２７番１２号１階,,13,105,1120011,,,,,,,2024-09-13,1,,,,,トウキョウコソダテフドウサン,0
459,3010003044882,新規,0,2024-09-13,2024-09-13,ＦＡＭ　Ｇｒｅｅｎ　Ｐｏｗｅｒ合同会社,,合同会社,東京都,中央区,京橋２丁目１２番２号ＮＥＷＳＸ５階,,13,102,1040031,,,,,,,2024-09-13,1,,,,,エフエーエムグリーンパワー,0
461,3010005038742,新規,0,2024-09-13,2024-09-13,特定非営利活動法人日本福祉医療介護協会,,その他の設立登記法人,東京都,千代田区,永田町２丁目９番６号,,13,101,1000014,,,,,,,2024-09-13,1,,,,,ニホンフクシイリョウカイゴキョウカイ,0
475,3010601065909,新規,0,2024-09-13,2024-09-13,株式会社Ｍａｇｎｉｆｉｃｅｎｔ,,株式会社,東京都,墨田区,両国２丁目１７番１７号両国ダイヤハイツ２０２－Ｌ,,13,107,1300026,,,,,,,2024-09-13,1,,,,,マグニフィセント,0
479,3010801035397,新規,0,2024-09-13,2024-09-13,株式会社山美,,株式会社,東京都,大田区,蒲田本町２丁目２６番１号,,13,111,1440053,,,,,,,2024-09-13,1,,,,,ヤマビ,0
481,3010903009357,新規,0,2024-09-13,2024-09-13,合同会社ＭＩＫＩＲＡ,,合同会社,東京都,世田谷区,砧５丁目１番３－４０３号,,13,112,1570073,,,,,,,2024-09-13,1,,,,,ミキラ,0
496,3011101108760,新規,0,2024-09-13,2024-09-13,三輪接骨院株式会社,,株式会社,東京都,新宿区,住吉町５番７号曙橋ハイム鍋倉４０１,,13,104,1620065,,,,,,,2024-09-13,1,,,,,ミワセッコツイン,0
497,3011101108769,新規,0,2024-09-13,2024-09-13,日本今成開発株式会社,,株式会社,東京都,新宿区,新宿３丁目５番６号６階,,13,104,1600022,,,,,,,2024-09-13,1,,,,,ニホンコンセイカイハツ,0
498,3011101108785,新規,0,2024-09-13,2024-09-13,株式会社Ｄ‐ＲＥＡＬ,,株式会社,東京都,新宿区,歌舞伎町２丁目３０番１４号,,13,104,1600021,,,,,,,2024-09-13,1,,,,,ディーリアル,0
499,3011101108835,新規,0,2024-09-13,2024-09-13,株式会社ＣＡＲＥＥＲ　ＦＯＣＵＳ,,株式会社,東京都,新宿区,東五軒町１－９ＳＢＳ－Ｃ－１号,,13,104,1620813,,,,,,,2024-09-13,1,,,,,キャリアフォーカス,0
509,3011701027609,新規,0,2024-09-13,2024-09-13,株式会社グーニーズ,,株式会社,東京都,江戸川区,北小岩１丁目１８番１号,,13,123,1330051,,,,,,,2024-09-13,1,,,,,グーニーズ,0
519,3020001159194,新規,0,2024-09-13,2024-09-13,サンエーアイ株式会社,,株式会社,神奈川県,横浜市中区,本牧間門４９番１－２号,,14,104,2310825,,,,,,,2024-09-13,1,,,,,サンエーアイ,0
532,3030001162395,新規,0,2024-09-13,2024-09-13,株式会社ＨａｒｕＣｏｎｓｔｒｕｃｔｉｏｎ,,株式会社,埼玉県,所沢市,大字下富８６４番地の２１,,11,208,3590001,,,,,,,2024-09-13,1,,,,,ハルコンストラクション,0
535,3030003025105,新規,0,2024-09-13,2024-09-13,合同会社ｅ‐セレクト,,合同会社,埼玉県,さいたま市西区,大字佐知川７６８番地１１,,11,101,3310064,,,,,,,2024-09-13,1,,,,,イーセレクト,0
536,3030003025113,新規,0,2024-09-13,2024-09-13,地域みらい共創合同会社,,合同会社,埼玉県,所沢市,大字北秋津７２０番地の３ソフィア所沢２１０,,11,208,3590038,,,,,,,2024-09-13,1,,,,,チイキミライキョウソウ,0
537,3030003025121,新規,0,2024-09-13,2024-09-13,渡辺アロマ整体院合同会社,,合同会社,埼玉県,久喜市,本町２丁目４－２０,,11,232,3460005,,,,,,,2024-09-13,1,,,,,ワタナベアロマセイタイイン,0
555,3070003005581,新規,0,2024-09-13,2024-09-13,合同会社ｔｅａｍ　ｔｈｒｅｅ,,合同会社,群馬県,高崎市,下大類町４４６番地２,,10,202,3700034,,,,,,,2024-09-13,1,,,,,チームスリー,0
560,3110001038703,新規,0,2024-09-13,2024-09-13,株式会社ＬＩＢＥＲ,,株式会社,新潟県,長岡市,寺泊夏戸５５番地,,15,202,9402522,,,,,,,2024-09-13,1,,,,,リベル,0
568,3120001268514,新規,0,2024-09-13,2024-09-13,日本築間ダイニング株式会社,,株式会社,大阪府,大阪市中央区,久太郎町３丁目１－６－６Ｆ,,27,128,5410056,,,,,,,2024-09-13,1,,,,,ニホンチクマダイニング,0
569,3120001268539,新規,0,2024-09-13,2024-09-13,株式会社Ｎ・Ｆ・Ｓ,,株式会社,大阪府,大阪市生野区,新今里７丁目７番１５号,,27,116,5440001,,,,,,,2024-09-13,1,,,,,エヌエフエス,0
572,3120003027538,新規,0,2024-09-13,2024-09-13,合同会社ワビサビ,,合同会社,大阪府,大阪市生野区,新今里４丁目３番２１号,,27,116,5440001,,,,,,,2024-09-13,1,,,,,ワビサビ,0
576,3120101070299,新規,0,2024-09-13,2024-09-13,株式会社いちばん,,株式会社,大阪府,岸和田市,春木北浜町１０番２１号,,27,202,5960037,,,,,,,2024-09-13,1,,,,,イチバン,0
582,3120901049773,新規,0,2024-09-13,2024-09-13,株式会社Ｂ．ＳＥＮＳＡＴＩＯＮ,,株式会社,大阪府,豊中市,本町１丁目１１番５０号エールグラン豊中本町１００２,,27,203,5600021,,,,,,,2024-09-13,1,,,,,ビーセンセーション,0
584,3130001077914,新規,0,2024-09-13,2024-09-13,ＳａＮＫＹｕＩＮＫ株式会社,,株式会社,京都府,京都市伏見区,南寝小屋町９２番地,,26,109,6128379,,,,,,,2024-09-13,1,,,,,サンキューインク,0
585,3130001077930,新規,0,2024-09-13,2024-09-13,株式会社橋本電設,,株式会社,京都府,京都市右京区,太秦安井柳通町９番地,,26,108,6168075,,,,,,,2024-09-13,1,,,,,ハシモトデンセツ,0
595,3140003021084,新規,0,2024-09-13,2024-09-13,ジョイフルリバー合同会社,,合同会社,兵庫県,芦屋市,呉川町９番２４－３号,,28,206,6590051,,,,,,,2024-09-13,1,,,,,ジョイフルリバー,0
597,3150003003370,新規,0,2024-09-13,2024-09-13,合同会社ＴＳＮ,,合同会社,奈良県,奈良市,三条川西町２－１－１０７,,29,201,6308125,,,,,,,2024-09-13,1,,,,,ティーエスエヌ,0
610,3180003027334,新規,0,2024-09-13,2024-09-13,合同会社やくも,,合同会社,愛知県,あま市,上萱津矢台４３番地６,,23,237,4901112,,,,,,,2024-09-13,1,,,,,ヤクモ,0
611,3180003027350,新規,0,2024-09-13,2024-09-13,合同会社はるあき,,合同会社,愛知県,一宮市,木曽川町黒田字酉新田東ノ切１８番地６,,23,203,4930001,,,,,,,2024-09-13,1,,,,,ハルアキ,0
613,3180301039048,新規,0,2024-09-13,2024-09-13,ピグリアン株式会社,,株式会社,愛知県,田原市,野田町北瀬古６７番地,,23,231,4413432,,,,,,,2024-09-13,1,,,,,ピグリアン,0
616,3180305009609,新規,0,2024-09-13,2024-09-13,秋桜事業協同組合,,その他の設立登記法人,愛知県,豊田市,前林町丸根４７番地１,,23,211,4730934,,,,,,,2024-09-13,1,,,,,コスモスジギョウ,0
619,3190003004794,新規,0,2024-09-13,2024-09-13,合同会社レインボー,,合同会社,三重県,津市,美杉町八知１４３０番地,,24,201,5153421,,,,,,,2024-09-13,1,,,,,レインボー,0
624,3210005010160,新規,0,2024-09-13,2024-09-13,医療法人志光会,,その他の設立登記法人,福井県,福井市,木田３丁目９０７番地,,18,201,9188105,,,,,,,2024-09-13,1,,,,,シコウカイ,0
625,3220001026201,新規,0,2024-09-13,2024-09-13,株式会社アッシュ工業,,株式会社,石川県,金沢市,鈴見台３丁目１９番３号,,17,201,9201161,,,,,,,2024-09-13,1,,,,,アッシュコウギョウ,0
634,3260001039463,新規,0,2024-09-13,2024-09-13,株式会社ＩＮＮＯＶＡＴＩＯＮ　ＳＴＹＬＥ,,株式会社,岡山県,岡山市中区,平井１丁目１５番６０号,,33,102,7038282,,,,,,,2024-09-13,1,,,,,イノベーションスタイル,0
646,3290001107226,新規,0,2024-09-13,2024-09-13,株式会社Ｊ　ＰＬＡＮ,,株式会社,福岡県,福岡市中央区,大手門２丁目４番１９－８０２号,,40,133,8100074,,,,,,,2024-09-13,1,,,,,ジェイプラン,0
649,3290003015798,新規,0,2024-09-13,2024-09-13,合同会社ひなた,,合同会社,福岡県,糸島市,本１３５７番地１５,,40,230,8191151,,,,,,,2024-09-13,1,,,,,ヒナタ,0
667,3350001019175,新規,0,2024-09-13,2024-09-13,株式会社真栄ホールディングス,,株式会社,宮崎県,西都市,大字三宅２４４５番地１２,,45,208,8810005,,,,,,,2024-09-13,1,,,,,シンエイホールディングス,0
669,3360003014297,新規,0,2024-09-13,2024-09-13,合同会社砂川商会,,合同会社,沖縄県,宮古島市,平良字西仲宗根４８６番地９メゾンとんぼ１０２,,47,214,9060006,,,,,,,2024-09-13,1,,,,,スナカワショウカイ,0
674,3370005010839,新規,0,2024-09-13,2024-09-13,アシストみやぎ協同組合,,その他の設立登記法人,宮城県,登米市,迫町佐沼字中江５丁目８番地６,,04,212,9870511,,,,,,,2024-09-13,1,,,,,アシストミヤギ,0
685,3420001018863,新規,0,2024-09-13,2024-09-13,ＷＡＮＤホールディングス株式会社,,株式会社,青森県,十和田市,大字三本木字野崎２６０番地２,,02,206,0340001,,,,,,,2024-09-13,1,,,,,ワンドホールディングス,0
694,3460103001648,新規,0,2024-09-13,2024-09-13,合同会社藤田商事,,合同会社,北海道,広尾郡広尾町,東二条１２丁目１番地の２,,01,642,0892602,,,,,,,2024-09-13,1,,,,,フジタショウジ,0
695,3470001020377,新規,0,2024-09-13,2024-09-13,株式会社アドバンスＤＳネクスト,,株式会社,香川県,丸亀市,中府町２丁目６番１０号,,37,202,7630033,,,,,,,2024-09-13,1,,,,,アドバンスディーエスネクスト,0
723,4010001247866,新規,0,2024-09-13,2024-09-13,株式会社東行,,株式会社,東京都,中央区,日本橋久松町１３番３号ツイン木下ビル４階Ａ号室,,13,102,1030005,,,,,,,2024-09-13,1,,,,,トウコウ,0
724,4010001248229,新規,0,2024-09-13,2024-09-13,ＴＳ　Ｈｏｌｄｉｎｇｓ株式会社,,株式会社,東京都,千代田区,大手町１丁目６番１号,,13,101,1000004,,,,,,,2024-09-13,1,,,,,ティーエスホールディングス,0
725,4010001248286,新規,0,2024-09-13,2024-09-13,株式会社ユニブリッジスタッフィング,,株式会社,東京都,中央区,日本橋小伝馬町１０－８ウィンド小伝馬町,,13,102,1030001,,,,,,,2024-09-13,1,,,,,ユニブリッジスタッフィング,0
735,4010401185039,新規,0,2024-09-13,2024-09-13,Ｂｌｕｅ　Ｅａｇｌｅ株式会社,,株式会社,東京都,港区,六本木３丁目４番３３号マルマン六本木ビル３階,,13,103,1060032,,,,,,,2024-09-13,1,,,,,ブルーイーグル,0
740,4010601065924,新規,0,2024-09-13,2024-09-13,エアプランナーズジャパン株式会社,,株式会社,東京都,江東区,潮見２丁目８番１０号,,13,108,1350052,,,,,,,2024-09-13,1,,,,,エアプランナーズジャパン,0
745,4010701046551,新規,0,2024-09-13,2024-09-13,Ａｓｉａｎ　Ｌｉｎｋｓ株式会社,,株式会社,東京都,品川区,勝島１丁目４番２０－５１７号,,13,109,1400012,,,,,,,2024-09-13,1,,,,,アジアンリンクス,0
753,4011001164614,新規,0,2024-09-13,2024-09-13,ＲＳビルディング株式会社,,株式会社,東京都,渋谷区,道玄坂１丁目１０番８号渋谷道玄坂東急ビル２Ｆ－Ｃ,,13,113,1500043,,,,,,,2024-09-13,1,,,,,アールエスビルディング,0
754,4011003019989,新規,0,2024-09-13,2024-09-13,合同会社ＥｎｔｅｒＦａｃｅ,,合同会社,東京都,渋谷区,道玄坂１丁目１０番８号渋谷道玄坂東急ビル２Ｆ－Ｃ,,13,113,1500043,,,,,,,2024-09-13,1,,,,,インターフェース,0
765,4011101108776,新規,0,2024-09-13,2024-09-13,株式会社金未来,,株式会社,東京都,新宿区,西新宿８丁目１１－１０星野ビル３Ｆ,,13,104,1600023,,,,,,,2024-09-13,1,,,,,キンミライ,0
767,4011403004500,新規,0,2024-09-13,2024-09-13,春日内装合同会社,,合同会社,東京都,板橋区,西台２丁目２番８－１０１号,,13,119,1750045,,,,,,,2024-09-13,1,,,,,カスガナイソウ,0
769,4011501031149,新規,0,2024-09-13,2024-09-13,株式会社ｒｉｇｈｔ　ｏｖｅｒ,,株式会社,東京都,荒川区,荒川５丁目１１番１５－７０４クオーレ東館,,13,118,1160002,,,,,,,2024-09-13,1,,,,,ライトオーバー,0
771,4011701027624,新規,0,2024-09-13,2024-09-13,大開元株式会社,,株式会社,東京都,江戸川区,江戸川６丁目４０番１４－１１８号,,13,123,1340013,,,,,,,2024-09-13,1,,,,,ダイカイゲン,0
776,4011803006451,新規,0,2024-09-13,2024-09-13,Ｈｉｍａｗａｒｉ　Ｔｅｌｅｃｏｍ合同会社,,合同会社,東京都,葛飾区,西新小岩４丁目２３－５－２階,,13,122,1240025,,,,,,,2024-09-13,1,,,,,ユウドウボウエキ,0
783,4012801023463,新規,0,2024-09-13,2024-09-13,株式会社ニコット,,株式会社,東京都,東大和市,向原６丁目１２０１番地の１１８鎌正第一ビル１０２,,13,220,2070013,,,,,,,2024-09-13,1,,,,,ニコット,0
790,4020001159045,新規,0,2024-09-13,2024-09-13,株式会社単身ボックス引越サービス,,株式会社,神奈川県,川崎市宮前区,平３丁目１６番５号１０１号室,,14,136,2160022,,,,,,,2024-09-13,1,,,,,タンシンボックスヒッコシサービス,0
791,4020001159219,新規,0,2024-09-13,2024-09-13,Ｎａｋａｔｏｍｉ株式会社,,株式会社,神奈川県,川崎市川崎区,港町５番２－１７１０号,,14,131,2100807,,,,,,,2024-09-13,1,,,,,ナカトミ,0
792,4020001159227,新規,0,2024-09-13,2024-09-13,株式会社スリーエム,,株式会社,神奈川県,横浜市中区,弁天通２丁目２９番地森藤ビル,,14,104,2310007,,,,,,,2024-09-13,1,,,,,スリーエム,0
793,4020001159243,新規,0,2024-09-13,2024-09-13,株式会社浩健,,株式会社,神奈川県,横浜市神奈川区,六角橋４丁目９番１７－１号,,14,102,2210802,,,,,,,2024-09-13,1,,,,,コウケン,0
803,4021001083251,新規,0,2024-09-13,2024-09-13,株式会社ポラリス,,株式会社,神奈川県,茅ヶ崎市,中海岸２丁目１０－４－１,,14,207,2530055,,,,,,,2024-09-13,1,,,,,ポラリス,0
809,4030001162452,新規,0,2024-09-13,2024-09-13,ＫＭＫＶ株式会社,,株式会社,埼玉県,志木市,柏町２丁目２５番１６号,,11,228,3530007,,,,,,,2024-09-13,1,,,,,ケーエムケーブイ,0
810,4030001162460,新規,0,2024-09-13,2024-09-13,株式会社心縁,,株式会社,埼玉県,和光市,新倉２丁目２番１号,,11,229,3510115,,,,,,,2024-09-13,1,,,,,ミヨリ,0
811,4030001162477,新規,0,2024-09-13,2024-09-13,株式会社オンデマンドサポート,,株式会社,埼玉県,鴻巣市,筑波２丁目３番１０号,,11,217,3690114,,,,,,,2024-09-13,1,,,,,オンデマンドサポート,0
812,4030001162485,新規,0,2024-09-13,2024-09-13,株式会社三思,,株式会社,埼玉県,志木市,幸町４丁目２２－１５,,11,228,3530005,,,,,,,2024-09-13,1,,,,,サンシ,0
817,4030003025112,新規,0,2024-09-13,2024-09-13,合同会社ＺＡＹＡＮ　ＩＮＴＥＲＮＡＴＩＯＮＡＬ,,合同会社,埼玉県,春日部市,水角１２５－１,,11,214,3440127,,,,,,,2024-09-13,1,,,,,ザヤンインターナショナル,0
819,4030005021844,新規,0,2024-09-13,2024-09-13,一般社団法人花むすび,,その他の設立登記法人,埼玉県,川口市,芝西２丁目２６番２０号,,11,203,3330855,,,,,,,2024-09-13,1,,,,,ハナムスビ,0
823,4040001135408,新規,0,2024-09-13,2024-09-13,株式会社ＩＨ１,,株式会社,千葉県,市川市,平田１丁目１番１号,,12,203,2720031,,,,,,,2024-09-13,1,,,,,アイエッチワン,0
834,4080103003145,新規,0,2024-09-13,2024-09-13,合同会社熊谷商事,,合同会社,静岡県,田方郡函南町,仁田７９５番地の２４,,22,325,4190114,,,,,,,2024-09-13,1,,,,,クマガイショウジ,0
840,4090003002642,新規,0,2024-09-13,2024-09-13,合同会社Ｅｌｅｐｈａｎｔ　Ｔｒｕｎｋ,,合同会社,山梨県,南巨摩郡身延町,大島１４３５番地,,19,365,4092415,,,,,,,2024-09-13,1,,,,,エレファントトランク,0
846,4110001038702,新規,0,2024-09-13,2024-09-13,株式会社ゼロスタイル,,株式会社,新潟県,新潟市東区,材木町１４２１－５,,15,102,9500811,,,,,,,2024-09-13,1,,,,,ゼロスタイル,0
854,4120001268521,新規,0,2024-09-13,2024-09-13,和春山居株式会社,,株式会社,大阪府,大阪市中央区,内本町２丁目１－１９－１１３０室,,27,128,5400026,,,,,,,2024-09-13,1,,,,,ワシュンサンキョ,0
855,4120001268538,新規,0,2024-09-13,2024-09-13,三木株式会社,,株式会社,大阪府,大阪市都島区,毛馬町１丁目２１番３８号,,27,102,5340001,,,,,,,2024-09-13,1,,,,,ミキ,0
856,4120001268562,新規,0,2024-09-13,2024-09-13,株式会社Ｇｒｉｔ,,株式会社,大阪府,大阪市福島区,吉野１丁目１６番１１－９０３号,,27,103,5530006,,,,,,,2024-09-13,1,,,,,グリット,0
857,4120001268645,新規,0,2024-09-13,2024-09-13,株式会社ＫＫ．ＧＧ,,株式会社,大阪府,大阪市阿倍野区,文の里２丁目１０番８号,,27,119,5450004,,,,,,,2024-09-13,1,,,,,ケーケージージー,0
858,4120001268661,新規,0,2024-09-13,2024-09-13,株式会社木＆子,,株式会社,大阪府,大阪市浪速区,浪速東１丁目２番２４－３１５号,,27,111,5560025,,,,,,,2024-09-13,1,,,,,キアンドコ,0
862,4120903005336,新規,0,2024-09-13,2024-09-13,合同会社櫻,,合同会社,大阪府,豊中市,庄内東町１丁目１番１１－５０２号,,27,203,5610831,,,,,,,2024-09-13,1,,,,,サクラ,0
863,4120903005344,新規,0,2024-09-13,2024-09-13,合同会社ＭＹハウジング,,合同会社,大阪府,箕面市,桜井３丁目８番３９号の１,,27,220,5620043,,,,,,,2024-09-13,1,,,,,マイハウジング,0
871,4140001135785,新規,0,2024-09-13,2024-09-13,株式会社Ｋ‐ＳＷＥＬＬ,,株式会社,兵庫県,神戸市垂水区,塩屋北町１丁目２番２号,,28,108,6550863,,,,,,,2024-09-13,1,,,,,ケースウェル,0
872,4140001135793,新規,0,2024-09-13,2024-09-13,株式会社マリン精機製作所,,株式会社,兵庫県,神戸市中央区,多聞通２丁目１番１号,,28,110,6500015,,,,,,,2024-09-13,1,,,,,マリンセイキセイサクショ,0
874,4150005009621,新規,0,2024-09-13,2024-09-13,一般社団法人ｋｏｋｋｏ,,その他の設立登記法人,奈良県,奈良市,西大寺北町４丁目３番８号,,29,201,6310817,,,,,,,2024-09-13,1,,,,,コッコ,0
888,4180003027341,新規,0,2024-09-13,2024-09-13,合同会社ホワイトマリン,,合同会社,愛知県,瀬戸市,共栄通２丁目２６番地,,23,204,4890809,,,,,,,2024-09-13,1,,,,,ホワイトマリン,0
891,4180301039047,新規,0,2024-09-13,2024-09-13,株式会社いまる電設,,株式会社,愛知県,豊橋市,南栄町字空池５３番地１,,23,201,4418107,,,,,,,2024-09-13,1,,,,,イマルデンセツ,0
892,4190001031641,新規,0,2024-09-13,2024-09-13,ＳＯＵ株式会社,,株式会社,三重県,四日市市,川島町４６２９番地１１,,24,202,5120934,,,,,,,2024-09-13,1,,,,,ソウ,0
897,4220001026209,新規,0,2024-09-13,2024-09-13,株式会社ＦＡＰ　ｆａｃｔｏｒｙ,,株式会社,石川県,金沢市,堀川新町５番１号アリマビル３Ｆ,,17,201,9200849,,,,,,,2024-09-13,1,,,,,エフエーピーファクトリー,0
905,4240005015825,新規,0,2024-09-13,2024-09-13,社会保険労務士法人ＪＯＹ,,その他の設立登記法人,広島県,広島市中区,上八丁堀５番２５号中国無電ビル５０１号室,,34,101,7300012,,,,,,,2024-09-13,1,,,,,ジョイ,0
906,4260003004893,新規,0,2024-09-13,2024-09-13,合同会社タイノエライフ,,合同会社,岡山県,岡山市南区,東畦４５６番地１,,33,104,7010211,,,,,,,2024-09-13,1,,,,,タイノエライフ,0
907,4280001009257,新規,0,2024-09-13,2024-09-13,ワンミュージアム株式会社,,株式会社,島根県,松江市,朝日町４８４―１９島根銀行本店ビル１１Ｆ,,32,201,6900003,,,,,,,2024-09-13,1,,,,,ワンミュージアム,0
913,4290001107225,新規,0,2024-09-13,2024-09-13,株式会社コンティニュー,,株式会社,福岡県,福岡市東区,下原３丁目２９番１９号,,40,131,8130002,,,,,,,2024-09-13,1,,,,,コンティニュー,0
914,4290003015822,新規,0,2024-09-13,2024-09-13,合同会社ＫＩＮＤＥＸ,,合同会社,福岡県,福岡市博多区,博多駅前１丁目２３番２号ＰａｒｋＦｒｏｎｔ５Ｆ―Ｂ,,40,132,8120011,,,,,,,2024-09-13,1,,,,,インデックス,0
919,4290801030881,新規,0,2024-09-13,2024-09-13,株式会社ＬＵＭＳ,,株式会社,福岡県,北九州市小倉北区,足原１丁目５番１７号,,40,106,8020043,,,,,,,2024-09-13,1,,,,,ルームス,0
923,4320001020713,新規,0,2024-09-13,2024-09-13,株式会社ＯＷＬ,,株式会社,大分県,由布市,挾間町下市４５２番地スカイハウス２－Ｂ,,44,213,8795504,,,,,,,2024-09-13,1,,,,,アウル,0
925,4330003010554,新規,0,2024-09-13,2024-09-13,合同会社タンコム,,合同会社,熊本県,菊池郡菊陽町,大字津久礼２１８５番地２Ａ－１０２,,43,404,8691101,,,,,,,2024-09-13,1,,,,,タンコム,0
926,4340001026799,新規,0,2024-09-13,2024-09-13,株式会社ＲＨサポート,,株式会社,鹿児島県,鹿児島市,鴨池１丁目３６番１６号,,46,201,8900063,,,,,,,2024-09-13,1,,,,,アールエイチサポート,0
929,4350001019182,新規,0,2024-09-13,2024-09-13,株式会社ＴＥＭＰＡＲ,,株式会社,宮崎県,児湯郡川南町,大字川南１３５７３番地３０,,45,405,8891301,,,,,,,2024-09-13,1,,,,,テンパー,0
933,4360003014296,新規,0,2024-09-13,2024-09-13,ＴＡＮＡＢＯＴＡ希合同会社,,合同会社,沖縄県,那覇市,字大道９２番地５古堅アパート４０１,,47,201,9020066,,,,,,,2024-09-13,1,,,,,タナボタマレ,0
949,4430001092675,新規,0,2024-09-13,2024-09-13,塚原商事株式会社,,株式会社,北海道,札幌市中央区,大通西５丁目８番地,,01,101,0600042,,,,,,,2024-09-13,1,,,,,ツカハラショウジ,0
952,4430003016772,新規,0,2024-09-13,2024-09-13,合同会社プログレスプラン,,合同会社,北海道,札幌市豊平区,旭町３丁目１番１２－２０２号,,01,105,0620911,,,,,,,2024-09-13,1,,,,,プログレスプラン,0
953,4430003016780,新規,0,2024-09-13,2024-09-13,合同会社いつも,,合同会社,北海道,札幌市西区,八軒八条東５丁目５番１２号プランドールＤ号,,01,107,0630868,,,,,,,2024-09-13,1,,,,,イツモ,0
959,4500001025875,新規,0,2024-09-13,2024-09-13,瑞兆株式会社,,株式会社,愛媛県,四国中央市,三島紙屋町５番１号,,38,213,7990402,,,,,,,2024-09-13,1,,,,,ズイチョウ,0
968,5010001248062,新規,0,2024-09-13,2024-09-13,ＡＣＤＣ株式会社,,株式会社,東京都,千代田区,丸の内１丁目８番２号鉄鋼ビルディング４階,,13,101,1000005,,,,,,,2024-09-13,1,,,,,エーシーディーシー,0
969,5010001248228,新規,0,2024-09-13,2024-09-13,ＴＳ　Ｔｏｐ株式会社,,株式会社,東京都,千代田区,大手町１丁目６番１号,,13,101,1000004,,,,,,,2024-09-13,1,,,,,ティーエストップ,0
970,5010001248244,新規,0,2024-09-13,2024-09-13,ＪＰＨ第２号株式会社,,株式会社,東京都,千代田区,霞が関３丁目２番１号,,13,101,1000013,,,,,,,2024-09-13,1,,,,,ジェイピーエイチダイニゴウ,0
972,5010003044880,新規,0,2024-09-13,2024-09-13,合同会社ＢＲＩＤＧＥ,,合同会社,東京都,中央区,東日本橋１丁目３番７号林華ビル２階,,13,102,1030004,,,,,,,2024-09-13,1,,,,,ブリッジ,0
973,5010003044930,新規,0,2024-09-13,2024-09-13,かわせみ総研合同会社,,合同会社,東京都,千代田区,神田和泉町１番地６－１６ヤマトビル４０５,,13,101,1010024,,,,,,,2024-09-13,1,,,,,カワセミソウケン,0
983,5010401185070,新規,0,2024-09-13,2024-09-13,株式会社バイオレットパワー,,株式会社,東京都,港区,三田２丁目７番９－１００２号,,13,103,1080073,,,,,,,2024-09-13,1,,,,,バイオレットパワー,0
984,5010401185112,新規,0,2024-09-13,2024-09-13,株式会社世界一,,株式会社,東京都,港区,西麻布４丁目１番１号,,13,103,1060031,,,,,,,2024-09-13,1,,,,,セカイイチ,0
985,5010401185129,新規,0,2024-09-13,2024-09-13,株式会社のびテック,,株式会社,東京都,港区,南青山２丁目２番１５号ウィン青山９４２,,13,103,1070062,,,,,,,2024-09-13,1,,,,,ノビテック,0
994,5010901055979,新規,0,2024-09-13,2024-09-13,株式会社Ａｌｅｘａｎｄｅｒ　Ｎｏ．,,株式会社,東京都,世田谷区,若林２丁目１９番３号,,13,112,1540023,,,,,,,2024-09-13,1,,,,,アレキサンダーエヌオー,0
995,5010903009355,新規,0,2024-09-13,2024-09-13,大蔵ヒルズ合同会社,,合同会社,東京都,世田谷区,喜多見８丁目１３番７号２０１,,13,112,1570067,,,,,,,2024-09-13,1,,,,,オオクラヒルズ,0
998,5011001164613,新規,0,2024-09-13,2024-09-13,株式会社リュウオウ,,株式会社,東京都,渋谷区,神宮前３丁目２５番１８号ＴＨＥＳＨＡＲＥ２１７号,,13,113,1500001,,,,,,,2024-09-13,1,,,,,リュウオウ,0
999,5011003019988,新規,0,2024-09-13,2024-09-13,ＬＵＣＡＳ合同会社,,合同会社,東京都,渋谷区,幡ヶ谷２丁目１２番９号,,13,113,1510072,,,,,,,2024-09-13,1,,,,,ルーカス,0
1004,5011101108742,新規,0,2024-09-13,2024-09-13,株式会社Ｈ,,株式会社,東京都,新宿区,歌舞伎町２丁目１９番７号新田中ビル４Ｆ－Ｃ,,13,104,1600021,,,,,,,2024-09-13,1,,,,,エイチ,0
1005,5011101108783,新規,0,2024-09-13,2024-09-13,株式会社ＪＭＬ,,株式会社,東京都,新宿区,四谷２丁目１４番地３７嶋ビル６０１,,13,104,1600004,,,,,,,2024-09-13,1,,,,,ジェイエムエル,0
1007,5011103014939,新規,0,2024-09-13,2024-09-13,合同会社Ｉｍｐｒｅｓａ,,合同会社,東京都,新宿区,西新宿３丁目３番１３号西新宿水間ビル２Ｆ,,13,104,1600023,,,,,,,2024-09-13,1,,,,,インプレーザ,0
1011,5011301029986,新規,0,2024-09-13,2024-09-13,明日うらら株式会社,,株式会社,東京都,杉並区,高井戸東４丁目５番１４号,,13,115,1680072,,,,,,,2024-09-13,1,,,,,アシタウララ,0
1017,5011403004499,新規,0,2024-09-13,2024-09-13,合同会社トリノス,,合同会社,東京都,板橋区,向原２丁目２３番８号,,13,119,1730036,,,,,,,2024-09-13,1,,,,,トリノス,0
1019,5011701027598,新規,0,2024-09-13,2024-09-13,Ｌｉｇｈｔ株式会社,,株式会社,東京都,江戸川区,西小岩５丁目１２番１６号ＫＵＲＡＳＳＫＯＩＷＡ・２Ｆ,,13,123,1330057,,,,,,,2024-09-13,1,,,,,ライト,0
1020,5011701027607,新規,0,2024-09-13,2024-09-13,株式会社つばめナレッジ,,株式会社,東京都,江戸川区,一之江８丁目１３番１８―７０４号,,13,123,1320024,,,,,,,2024-09-13,1,,,,,ツバメナレッジ,0
1021,5011701027631,新規,0,2024-09-13,2024-09-13,株式会社ＭＧＵ,,株式会社,東京都,江戸川区,松江２丁目１番１９－６０２号,,13,123,1320025,,,,,,,2024-09-13,1,,,,,エムジーユー,0
1025,5012401042284,新規,0,2024-09-13,2024-09-13,株式会社ＫＯＭＵＧＩ　ＨＯＵＳＥ,,株式会社,東京都,武蔵野市,緑町２丁目４－３８コムギハウス,,13,203,1800012,,,,,,,2024-09-13,1,,,,,コムギハウス,0
1026,5012801023462,新規,0,2024-09-13,2024-09-13,株式会社Ｓｅｒｅｎｔｉｅｒ,,株式会社,東京都,立川市,曙町１丁目２６－９－７０３,00136298,13,202,1900012,,,,,,,2024-09-13,1,,,,,セレンティア,0
1033,5020003026928,新規,0,2024-09-13,2024-09-13,ＣＲＥＡＴＩＶＥ　ＳＴＡＮＤＡＲＤ合同会社,,合同会社,神奈川県,横浜市港北区,鳥山町２２６,,14,109,2220035,,,,,,,2024-09-13,1,,,,,クリエイティブスタンダード,0
1035,5021001083242,新規,0,2024-09-13,2024-09-13,森田株式会社,,株式会社,神奈川県,大和市,草柳１丁目１９番地９田園リビングマート８号室,,14,213,2420026,,,,,,,2024-09-13,1,,,,,モリタ,0
1051,5030001162451,新規,0,2024-09-13,2024-09-13,報徳エンジニアリング株式会社,,株式会社,埼玉県,越谷市,大字船渡３６７番地１０２,,11,222,3430003,,,,,,,2024-09-13,1,,,,,ホウトクエンジニアリング,0
1052,5030001162476,新規,0,2024-09-13,2024-09-13,Ｍ　ｎｏｒｉｓ株式会社,,株式会社,埼玉県,草加市,谷塚上町６３０番地２０４号,,11,221,3400024,,,,,,,2024-09-13,1,,,,,エムノリス,0
1058,5030003025103,新規,0,2024-09-13,2024-09-13,合同会社ワクワクサービス,,合同会社,埼玉県,蕨市,塚越６丁目１９番１２号,,11,223,3350002,,,,,,,2024-09-13,1,,,,,ワクワクサービス,0
1060,5040001135373,新規,0,2024-09-13,2024-09-13,株式会社スパークタイムズ,,株式会社,千葉県,木更津市,瓜倉３１１番地,,12,206,2920007,,,,,,,2024-09-13,1,,,,,スパークタイムズ,0
1061,5040001135407,新規,0,2024-09-13,2024-09-13,石本不動産株式会社,,株式会社,千葉県,習志野市,谷津１丁目１５番２２－３００８号,,12,216,2750026,,,,,,,2024-09-13,1,,,,,イシモトフドウサン,0
1064,5040003025770,新規,0,2024-09-13,2024-09-13,ＦＩＤＡ　ＴＲＡＤＩＮＧ合同会社,,合同会社,千葉県,山武市,埴谷２２７４番地６Ａ,,12,237,2891223,,,,,,,2024-09-13,1,,,,,フィダトレーディング,0
1065,5040003025812,新規,0,2024-09-13,2024-09-13,ソロコレクション合同会社,,合同会社,千葉県,長生郡一宮町,新地甲１７５８番地３,,12,421,2994315,,,,,,,2024-09-13,1,,,,,ソロコレクション,0
1075,5070001042179,新規,0,2024-09-13,2024-09-13,大門屋商事株式会社,,株式会社,群馬県,高崎市,藤塚町１２４番地２,,10,202,3700875,,,,,,,2024-09-13,1,,,,,ダイモンヤショウジ,0
1085,5090003002641,新規,0,2024-09-13,2024-09-13,Ｅｌｅｃｔｒｉｃａｌ　Ｎａｔｕｒｅ合同会社,,合同会社,山梨県,都留市,田野倉９６４－１ラッフィナート２０１,,19,204,4020001,,,,,,,2024-09-13,1,,,,,エレクトリカルネイチャー,0
1088,5110001038701,新規,0,2024-09-13,2024-09-13,株式会社モノ,,株式会社,新潟県,新潟市中央区,天神１丁目１－３プラーカ３Ｂ１Ｆ（ＮＩＮＮＯ３内）,,15,103,9500917,,,,,,,2024-09-13,1,,,,,モノ,0
1090,5110003005518,新規,0,2024-09-13,2024-09-13,合同会社ガレージシブヤ,,合同会社,新潟県,北蒲原郡聖籠町,大字道賀新田１７１９,,15,307,9570112,,,,,,,2024-09-13,1,,,,,ガレージシブヤ,0
1101,5120001268537,新規,0,2024-09-13,2024-09-13,快馬株式会社,,株式会社,大阪府,大阪市城東区,鴫野西５丁目１５番７－３２０号,,27,118,5360014,,,,,,,2024-09-13,1,,,,,カイバ,0
1102,5120001268586,新規,0,2024-09-13,2024-09-13,百事威日本株式会社,,株式会社,大阪府,大阪市中央区,船場中央２丁目２番５号船場センタービル５号館地下一階Ｂ１２９ＲＯＹＡＬＯＦＦＩＣＥ内ＲＯＯＭ・Ｏ,,27,128,5410055,,,,,,,2024-09-13,1,,,,,ヒャクジイニホン,0
1103,5120001268594,新規,0,2024-09-13,2024-09-13,天誠株式会社,,株式会社,大阪府,大阪市天王寺区,勝山４丁目８番８－１０１号,,27,109,5430043,,,,,,,2024-09-13,1,,,,,テンセイ,0
1104,5120001268603,新規,0,2024-09-13,2024-09-13,ＲＥＣＯＶＥＲＹ‐Ｘ株式会社,,株式会社,大阪府,大阪市淀川区,宮原１丁目１９－２３－８２５,,27,123,5320003,,,,,,,2024-09-13,1,,,,,リカバリーエックス,0
1111,5120101070289,新規,0,2024-09-13,2024-09-13,ＪＥＴＳＥＴ株式会社,,株式会社,大阪府,堺市堺区,北清水町２丁１－７,,27,141,5900004,,,,,,,2024-09-13,1,,,,,ジェットセット,0
1116,5130001077937,新規,0,2024-09-13,2024-09-13,株式会社ａ’ＴＲＵＳ　ＡＵＴＯ,,株式会社,京都府,京都市南区,吉祥院西ノ庄東屋敷町１００番地,,26,107,6018311,,,,,,,2024-09-13,1,,,,,アトラスオート,0
1122,5140001135784,新規,0,2024-09-13,2024-09-13,株式会社エバーエボルブ,,株式会社,兵庫県,川辺郡猪名川町,松尾台４丁目５番地６５,,28,301,6660261,,,,,,,2024-09-13,1,,,,,エバーエボルブ,0
1124,5140003021066,新規,0,2024-09-13,2024-09-13,ｉＣｕｒｅソリューション合同会社,,合同会社,兵庫県,神戸市兵庫区,中之島２丁目１番１号イオンモール神戸南１階ｉＣｕｒｅ鍼灸接骨院内,,28,105,6520844,,,,,,,2024-09-13,1,,,,,アイキュアソリューション,0
1127,5150001027568,新規,0,2024-09-13,2024-09-13,株式会社小嶋屋,,株式会社,奈良県,生駒市,小瀬町５６２番地,,29,209,6300223,,,,,,,2024-09-13,1,,,,,コジマヤ,0
1137,5180001163212,新規,0,2024-09-13,2024-09-13,領袖ＲＶ株式会社,,株式会社,愛知県,海部郡飛島村,大字渚５丁目２６番地,,23,427,4901433,,,,,,,2024-09-13,1,,,,,リョウシュウアールブイ,0
1138,5180001163220,新規,0,2024-09-13,2024-09-13,株式会社ＡＬＩＣＥ,,株式会社,愛知県,名古屋市中村区,岩塚町５丁目６０番地,,23,105,4530862,,,,,,,2024-09-13,1,,,,,アリス,0
1148,5200003006507,新規,0,2024-09-13,2024-09-13,合同会社スタスロ,,合同会社,岐阜県,岐阜市,野一色５丁目６番１４号,,21,201,5008226,,,,,,,2024-09-13,1,,,,,スタスロ,0
1150,5210003001837,新規,0,2024-09-13,2024-09-13,にのみや接骨院合同会社,,合同会社,福井県,福井市,文京７丁目１８番２７号,,18,201,9100017,,,,,,,2024-09-13,1,,,,,ニノミヤセッコツイン,0
1151,5210005010159,新規,0,2024-09-13,2024-09-13,医療法人ゆき歯科クリニック,,その他の設立登記法人,福井県,福井市,羽水１丁目１０２番地１,,18,201,9188114,,,,,,,2024-09-13,1,,,,,ユキシカクリニック,0
1152,5220001026208,新規,0,2024-09-13,2024-09-13,株式会社ＳＩＪｐｒｏｊｅｃｔ,,株式会社,石川県,金沢市,此花町５番６号ライフ金沢第１ビル６０１Ａ,,17,201,9200852,,,,,,,2024-09-13,1,,,,,エスアイジェイプロジェクト,0
1153,5220005008879,新規,0,2024-09-13,2024-09-13,一般社団法人のと里山空港飲食事業者協議会,,その他の設立登記法人,石川県,輪島市,マリンタウン６番１,,17,204,9280008,,,,,,,2024-09-13,1,,,,,ノトサトヤマクウコウインショクジギョウシャキョウギカイ,0
1154,5230001020531,新規,0,2024-09-13,2024-09-13,株式会社奥原設備,,株式会社,富山県,高岡市,伏木一宮２丁目１番４３号,,16,202,9330116,,,,,,,2024-09-13,1,,,,,オクハラセツビ,0
1155,5230003002288,新規,0,2024-09-13,2024-09-13,合同会社とおやま,,合同会社,富山県,富山市,中央通り２丁目１‐２０‐１５０６ルシーダタワー,,16,201,9300044,,,,,,,2024-09-13,1,,,,,トオヤマ,0
1162,5260001039461,新規,0,2024-09-13,2024-09-13,株式会社まほら舎,,株式会社,岡山県,倉敷市,吉岡４３４番地３,,33,202,7100842,,,,,,,2024-09-13,1,,,,,マホラヤ,0
1172,5290001107232,新規,0,2024-09-13,2024-09-13,株式会社なじｆａｒｍ,,株式会社,福岡県,久留米市,北野町赤司１４３５番地１,,40,203,8301127,,,,,,,2024-09-13,1,,,,,ナジファーム,0
1173,5290001107257,新規,0,2024-09-13,2024-09-13,アマサズ商事株式会社,,株式会社,福岡県,福岡市博多区,博多駅前３丁目２７番２５－９１４号第二岡部ビル,,40,132,8120011,,,,,,,2024-09-13,1,,,,,アマサズショウジ,0
1174,5290001107265,新規,0,2024-09-13,2024-09-13,Ｈａｎａ　Ｍａｔｅｒｉａｌ　Ｄｅｓｉｇｎ　Ｌａｂｏｒａｔｏｒｙ株式会社,,株式会社,福岡県,八女市,山内１１４１番地１１,,40,210,8340012,,,,,,,2024-09-13,1,,,,,ハナマテリアルデザインラボラトリー,0
1179,5300001013908,新規,0,2024-09-13,2024-09-13,九州テクニカ株式会社,,株式会社,佐賀県,唐津市,和多田西山６番地５０号,,41,202,8470084,,,,,,,2024-09-13,1,,,,,キュウシュウテクニカ,0
1185,5340001026798,新規,0,2024-09-13,2024-09-13,株式会社ＳＡＹＬＯ,,株式会社,鹿児島県,鹿児島市,天保山町１８番１０号１階,,46,201,8900061,,,,,,,2024-09-13,1,,,,,サイロ,0
1187,5350001019181,新規,0,2024-09-13,2024-09-13,香川ランチ株式会社,,株式会社,宮崎県,児湯郡川南町,大字平田３０８７番地１,,45,405,8891302,,,,,,,2024-09-13,1,,,,,カガワランチ,0
1191,5360003014295,新規,0,2024-09-13,2024-09-13,Ｔ＆Ｈ合同会社,,合同会社,沖縄県,宜野湾市,志真志３丁目７番２号,,47,205,9012213,,,,,,,2024-09-13,1,,,,,ティーアンドエイチ,0
1192,5360005007099,新規,0,2024-09-13,2024-09-13,一般社団法人発想,,その他の設立登記法人,沖縄県,那覇市,字国場４１３番地,,47,201,9020075,,,,,,,2024-09-13,1,,,,,ハッソウ,0
1196,5380001034789,新規,0,2024-09-13,2024-09-13,株式会社トランスホーム,,株式会社,福島県,いわき市,小名浜島字島４５番地の１,,07,204,9718125,,,,,,,2024-09-13,1,,,,,トランスホーム,0
1201,5430003016763,新規,0,2024-09-13,2024-09-13,合同会社リベリオン,,合同会社,北海道,札幌市厚別区,厚別南２丁目３番３０号,,01,108,0040022,,,,,,,2024-09-13,1,,,,,リベリオン,0
1202,5430003016788,新規,0,2024-09-13,2024-09-13,ＣＲＥＡ合同会社,,合同会社,北海道,札幌市東区,北五十条東２丁目５番２号,,01,103,0070850,,,,,,,2024-09-13,1,,,,,クレア,0
1205,5480003002180,新規,0,2024-09-13,2024-09-13,合同会社Ｑｕｉｎ,,合同会社,徳島県,徳島市,栄町１丁目６７番地２,,36,201,7700921,,,,,,,2024-09-13,1,,,,,クイン,0
1210,5700150127138,新規,0,2024-09-13,2024-09-12,草咲会,,その他,京都府,京都市北区,上賀茂松本町６５番地２,,26,101,6038052,,,,,,,2024-09-12,1,,,,,ソウシヨウカイ,0
1218,6010001248235,新規,0,2024-09-13,2024-09-13,株式会社ＮＩＯ,,株式会社,東京都,中央区,銀座６丁目１３番９号ｂｉｚｃｕｂｅ,,13,102,1040061,,,,,,,2024-09-13,1,,,,,ニオ,0
1219,6010001248243,新規,0,2024-09-13,2024-09-13,ＪＰＨ第１号株式会社,,株式会社,東京都,千代田区,霞が関３丁目２番１号,,13,101,1000013,,,,,,,2024-09-13,1,,,,,ジェイピーエイチダイイチゴウ,0
1221,6010003044871,新規,0,2024-09-13,2024-09-13,Ｔａｍａｘ　Ｆｉｌｍ　Ｐｒｏｄｕｃｔｉｏｎ合同会社,,合同会社,東京都,中央区,日本橋兜町１７－２兜町第６葉山ビル４Ｆ,,13,102,1030026,,,,,,,2024-09-13,1,,,,,タマックスフィルムプロダクション,0
1222,6010003044888,新規,0,2024-09-13,2024-09-13,ＲｏｏｐｔＤＡＯ合同会社,,合同会社,東京都,千代田区,平河町２丁目５番３号ＮａｇａｔａｃｈｏＧＲｉＤ,,13,101,1020093,,,,,,,2024-09-13,1,,,,,ループトダオ,0
1224,6010101016319,新規,0,2024-09-13,2024-09-13,株式会社ｉｄｅａ,,株式会社,東京都,八王子市,台町３丁目２４番３号,,13,201,1930931,,,,,,,2024-09-13,1,,,,,アイディア,0
1244,6010403033400,新規,0,2024-09-13,2024-09-13,合同会社青山建設,,合同会社,東京都,港区,北青山１丁目３－１アールキューブ青山３Ｆ,,13,103,1070061,,,,,,,2024-09-13,1,,,,,アオヤマケンセツ,0
1245,6010405023531,新規,0,2024-09-13,2024-09-13,一般社団法人Ｍｅｒｃｕｒｙ,,その他の設立登記法人,東京都,港区,南青山５丁目１０番２号第２九曜ビル６Ｆ,,13,103,1070062,,,,,,,2024-09-13,1,,,,,メルクリウス,0
1247,6010601065922,新規,0,2024-09-13,2024-09-13,協栄貿易株式会社,,株式会社,東京都,墨田区,東向島３丁目３６―９クラウンマンション東向島３０１,,13,107,1310032,,,,,,,2024-09-13,1,,,,,キョウエイボウエキ,0
1249,6010701046533,新規,0,2024-09-13,2024-09-13,ＧＹＯＭＵＨＡＣＫ株式会社,,株式会社,東京都,品川区,東五反田１丁目６番３号３階３２７号室,,13,109,1410022,,,,,,,2024-09-13,1,,,,,ギョウムハック,0
1251,6010901055978,新規,0,2024-09-13,2024-09-13,Ｎｉｒｕ＆Ｃｏｍｐａｎｙ株式会社,,株式会社,東京都,世田谷区,中町３丁目２６番１－３０３号,,13,112,1580091,,,,,,,2024-09-13,1,,,,,ニルアンドカンパニー,0
1253,6010903009346,新規,0,2024-09-13,2024-09-13,合同会社Ｎｏｏｒｉ,,合同会社,東京都,世田谷区,野沢１丁目２９番２７号,,13,112,1540003,,,,,,,2024-09-13,1,,,,,ノーリ,0
1260,6011001164620,新規,0,2024-09-13,2024-09-13,Ｘｒｏｗｔｈ株式会社,,株式会社,東京都,渋谷区,渋谷２丁目２４－１２渋谷スクランブルスクエア２６階,,13,113,1500002,,,,,,,2024-09-13,1,,,,,クロース,0
1263,6011003019970,新規,0,2024-09-13,2024-09-13,合同会社まるれ,,合同会社,東京都,目黒区,自由が丘１丁目２番７－１０２号,,13,110,1520035,,,,,,,2024-09-13,1,,,,,マルレ,0
1266,6011101108758,新規,0,2024-09-13,2024-09-13,株式会社Ｃｌｉｐｓｅ,,株式会社,東京都,新宿区,高田馬場３丁目３番２３号シャトレ高田馬場５０３,,13,104,1690075,,,,,,,2024-09-13,1,,,,,クリプス,0
1267,6011101108766,新規,0,2024-09-13,2024-09-13,株式会社ＳＴＡＲ＆ＧＥＡＲ,,株式会社,東京都,新宿区,西新宿３丁目３番１３号西新宿水間ビル２Ｆ,,13,104,1600023,,,,,,,2024-09-13,1,,,,,スターアンドギア,0
1268,6011101108782,新規,0,2024-09-13,2024-09-13,ＹＫエンジニアリング株式会社,,株式会社,東京都,新宿区,西新宿１丁目２５番１号新宿センタービル３１階,,13,104,1600023,,,,,,,2024-09-13,1,,,,,ワイケーエンジニアリング,0
1277,6011301029977,新規,0,2024-09-13,2024-09-13,ふるぷら株式会社,,株式会社,東京都,杉並区,永福３丁目４６番１７号２Ｆ,,13,115,1680064,,,,,,,2024-09-13,1,,,,,フルプラ,0
1286,6012701018446,新規,0,2024-09-13,2024-09-13,株式会社水樹,,株式会社,東京都,小平市,仲町５６５番１,,13,211,1870042,,,,,,,2024-09-13,1,,,,,ミズキ,0
1288,6012703003090,新規,0,2024-09-13,2024-09-13,合同会社Ｒｏｃｋ　ｖａｌｌｅｙ,,合同会社,東京都,東村山市,美住町２丁目２５番地１１１,,13,213,1890023,,,,,,,2024-09-13,1,,,,,ロックバレー,0
1301,6021001083200,新規,0,2024-09-13,2024-09-13,うみねこ株式会社,,株式会社,神奈川県,鎌倉市,鎌倉山３丁目４番２９号,,14,204,2480031,,,,,,,2024-09-13,1,,,,,ウミネコ,0
1302,6021001083225,新規,0,2024-09-13,2024-09-13,株式会社Ｎ＆Ｍ　ｏｎ　ｙｏｕｒ　ｓｉｄｅ,,株式会社,神奈川県,秦野市,渋沢上２丁目６番４５号,,14,211,2591326,,,,,,,2024-09-13,1,,,,,エヌアンドエムオンユアサイド,0
1314,6030001162450,新規,0,2024-09-13,2024-09-13,柏森商事株式会社,,株式会社,埼玉県,鴻巣市,大芦１１８４－５,,11,217,3690137,,,,,,,2024-09-13,1,,,,,カシワモリショウジ,0
1315,6030001162459,新規,0,2024-09-13,2024-09-13,株式会社ＮＲＳ,,株式会社,埼玉県,さいたま市西区,大字飯田１５番地１２,,11,101,3310058,,,,,,,2024-09-13,1,,,,,エヌアールエス,0
1316,6030001162467,新規,0,2024-09-13,2024-09-13,株式会社ターニングポイント,,株式会社,埼玉県,東松山市,五領町１－２０ハウス・ぺネタ２０２号,,11,212,3550031,,,,,,,2024-09-13,1,,,,,ターニングポイント,0
1319,6030003025110,新規,0,2024-09-13,2024-09-13,合同会社寺田和弘ｆｉｌｍ,,合同会社,埼玉県,さいたま市浦和区,常盤４丁目１４番１２－３０４号,,11,107,3300061,,,,,,,2024-09-13,1,,,,,テラダカズヒロフィルム,0
1326,6040001135372,新規,0,2024-09-13,2024-09-13,日本京捷株式会社,,株式会社,千葉県,印西市,大森２５５０－１松本ビル３０１室,,12,231,2701327,,,,,,,2024-09-13,1,,,,,ニホンキョウショウ,0
1327,6040001135406,新規,0,2024-09-13,2024-09-13,株式会社コースト,,株式会社,千葉県,大網白里市,小中１１８０番地７,,12,239,2993246,,,,,,,2024-09-13,1,,,,,コースト,0
1330,6040003025571,新規,0,2024-09-13,2024-09-13,合同会社ＬＥＮＩＳ,,合同会社,千葉県,松戸市,胡録台８６番地の５,,12,207,2710075,,,,,,,2024-09-13,1,,,,,レニス,0
1331,6040003025794,新規,0,2024-09-13,2024-09-13,合同会社ＶＩＮＵ　ＩＮＴＥＲＮＡＴＩＯＮＡＬ,,合同会社,千葉県,鎌ケ谷市,右京塚３番１８号山口コーポＢ棟７０７,,12,224,2730102,,,,,,,2024-09-13,1,,,,,ヴィヌインターナショナル,0
1335,6050001055322,新規,0,2024-09-13,2024-09-13,ＪＡＰＡＮ１０１株式会社,,株式会社,茨城県,筑西市,島８０番地６,,08,227,3080823,,,,,,,2024-09-13,1,,,,,ジャパンワンオーワン,0
1336,6050001055388,新規,0,2024-09-13,2024-09-13,イワシタホールディングス株式会社,,株式会社,茨城県,稲敷市,佐倉１９７３番地３,,08,229,3000508,,,,,,,2024-09-13,1,,,,,イワシタホールディングス,0
1340,6060003005241,新規,0,2024-09-13,2024-09-13,ＭＯＯＮ合同会社,,合同会社,栃木県,佐野市,犬伏新町２０２２－１,,09,204,3270803,,,,,,,2024-09-13,1,,,,,ムン,0
1342,6070001042178,新規,0,2024-09-13,2024-09-13,株式会社Ｂ６,,株式会社,群馬県,高崎市,小八木町１２０２番地１,,10,202,3700071,,,,,,,2024-09-13,1,,,,,ビーシックス,0
1343,6070001042186,新規,0,2024-09-13,2024-09-13,株式会社一華,,株式会社,群馬県,高崎市,連雀町７,,10,202,3700826,,,,,,,2024-09-13,1,,,,,イチカ,0
1362,6120001268503,新規,0,2024-09-13,2024-09-13,株式会社ＭＯＲＥ,,株式会社,大阪府,大阪市北区,西天満６丁目７－４大阪弁護士ビル９０７号室,,27,127,5300047,,,,,,,2024-09-13,1,,,,,モア,0
1363,6120001268528,新規,0,2024-09-13,2024-09-13,株式会社Ｎｅｏ,,株式会社,大阪府,大阪市浪速区,幸町１丁目３－３４ＳＫパレス道頓８０１,,27,111,5560021,,,,,,,2024-09-13,1,,,,,ネオ,0
1369,6120003027535,新規,0,2024-09-13,2024-09-13,合同会社Ｔ．Ｂ．Ｃｏｍｐａｎｙ,,合同会社,大阪府,大阪市西区,北堀江２丁目４番１１号サンライズビル１０Ｆ－３２,,27,106,5500014,,,,,,,2024-09-13,1,,,,,ティービーカンパニー,0
1370,6120003027543,新規,0,2024-09-13,2024-09-13,合同会社北新地商事,,合同会社,大阪府,大阪市北区,曾根崎新地１丁目４番７号小西ビル４０１,,27,127,5300002,,,,,,,2024-09-13,1,,,,,キタシンチショウジ,0
1377,6130001077936,新規,0,2024-09-13,2024-09-13,株式会社エイポックソリューションズ,,株式会社,京都府,京都市下京区,七条通油小路東入大黒町２２７番地,,26,106,6008223,,,,,,,2024-09-13,1,,,,,エイポックソリューションズ,0
1380,6140003021081,新規,0,2024-09-13,2024-09-13,合同会社ファーストステップ,,合同会社,兵庫県,加古郡播磨町,北本荘２丁目７－６,,28,382,6750144,,,,,,,2024-09-13,1,,,,,ファーストステップ,0
1382,6150003003368,新規,0,2024-09-13,2024-09-13,合同会社木子梨,,合同会社,奈良県,奈良市,橋本町３５,,29,201,6308217,,,,,,,2024-09-13,1,,,,,キコリ,0
1386,6160003003284,新規,0,2024-09-13,2024-09-13,合同会社滋賀ブルーライズ,,合同会社,滋賀県,大津市,大江５丁目８番１９号ハウス茶屋Ａ１０１,,25,201,5202141,,,,,,,2024-09-13,1,,,,,シガブルーライズ,0
1388,6170001018309,新規,0,2024-09-13,2024-09-13,株式会社マルサカ,,株式会社,和歌山県,紀の川市,貴志川町長原４５０番地２３,,30,208,6400415,,,,,,,2024-09-13,1,,,,,マルサカ,0
1393,6180001163252,新規,0,2024-09-13,2024-09-13,株式会社Ａｏｂａ,,株式会社,愛知県,稲沢市,重本１丁目９３番地,,23,220,4928261,,,,,,,2024-09-13,1,,,,,アオバ,0
1396,6180003027331,新規,0,2024-09-13,2024-09-13,Ｔ＆Ｌ合同会社,,合同会社,愛知県,名古屋市北区,金城町３丁目１１番地２Ｆ,,23,103,4620047,,,,,,,2024-09-13,1,,,,,ティーアンドエル,0
1398,6180301039045,新規,0,2024-09-13,2024-09-13,株式会社ＯＴＥＭＯＴＯ,,株式会社,愛知県,西尾市,新村町郷東５番地,,23,213,4450002,,,,,,,2024-09-13,1,,,,,オテモト,0
1405,6220001026198,新規,0,2024-09-13,2024-09-13,株式会社かのう,,株式会社,石川県,河北郡津幡町,字庄リ５６番地９,,17,361,9290327,,,,,,,2024-09-13,1,,,,,カノウ,0
1406,6220001026207,新規,0,2024-09-13,2024-09-13,株式会社アルクテラス,,株式会社,石川県,白山市,相木１丁目６番地１,,17,210,9240081,,,,,,,2024-09-13,1,,,,,アルクテラス,0
1408,6240001063818,新規,0,2024-09-13,2024-09-13,株式会社ＲＡＢＩＴＡ,,株式会社,広島県,広島市南区,西蟹屋４丁目１番３６－６０４号,,34,103,7320804,,,,,,,2024-09-13,1,,,,,ラビタ,0
1420,6290001107231,新規,0,2024-09-13,2024-09-13,株式会社サン・フューチャー,,株式会社,福岡県,福岡市東区,若宮１丁目２４番２３号プレジュール・メゾン若宮２０２号,,40,131,8130036,,,,,,,2024-09-13,1,,,,,サンフューチャー,0
1421,6290001107256,新規,0,2024-09-13,2024-09-13,株式会社タカラトラスト,,株式会社,福岡県,久留米市,野中町１１１７番地６,,40,203,8390862,,,,,,,2024-09-13,1,,,,,タカラトラスト,0
1424,6290003015580,新規,0,2024-09-13,2024-09-13,合同会社ＧＩＮ,,合同会社,福岡県,福岡市東区,若宮３丁目２－８コーポ高松１０２号,,40,131,8130036,,,,,,,2024-09-13,1,,,,,ジーアイエヌ,0
1432,6340003004603,新規,0,2024-09-13,2024-09-13,合同会社Ｍｙ０１,,合同会社,鹿児島県,大島郡伊仙町,大字目手久３１３,,46,532,8918113,,,,,,,2024-09-13,1,,,,,マイワン,0
1437,6360001034195,新規,0,2024-09-13,2024-09-13,株式会社ＺＡＩ,,株式会社,沖縄県,那覇市,赤嶺２丁目１１番１５号Ｏ－Ｂ,,47,201,9010154,,,,,,,2024-09-13,1,,,,,ザイ,0
1441,6360005007098,新規,0,2024-09-13,2024-09-13,一般社団法人Ｐａｃｉｆｉｃ　Ｅｎｇｌｉｓｈ　Ｈｏｕｓｅ,,その他の設立登記法人,沖縄県,国頭郡恩納村,字名嘉真２２８８番１７８,,47,311,9040401,,,,,,,2024-09-13,1,,,,,パシフィックイングリッシュハウス,0
1443,6370001051719,新規,0,2024-09-13,2024-09-13,株式会社コキア,,株式会社,宮城県,仙台市宮城野区,榴ケ岡１０５－２Ｓ９０４,,04,102,9830851,,,,,,,2024-09-13,1,,,,,コキア,0
1450,6380003005853,新規,0,2024-09-13,2024-09-13,合同会社ひつじ百貨店,,合同会社,福島県,石川郡玉川村,大字岩法寺字上代１００番地の７,,07,502,9636311,,,,,,,2024-09-13,1,,,,,ヒツジヒャッカテン,0
1454,6430001092640,新規,0,2024-09-13,2024-09-13,株式会社ｈａｆ,,株式会社,北海道,札幌市中央区,南六条西１丁目５番地６．１ビル４階,,01,101,0640806,,,,,,,2024-09-13,1,,,,,エイチエーエフ,0
1455,6430001092649,新規,0,2024-09-13,2024-09-13,アールＧＨ株式会社,,株式会社,北海道,札幌市中央区,南一条西１６丁目１番地３２３春野ビル３Ｆ,,01,101,0600061,,,,,,,2024-09-13,1,,,,,アールジーエイチ,0
1460,6430003016770,新規,0,2024-09-13,2024-09-13,合同会社今井商事,,合同会社,北海道,札幌市白石区,南郷通１０丁目南４番１－７０５号,,01,104,0030022,,,,,,,2024-09-13,1,,,,,イマイショウジ,0
1461,6430005015060,新規,0,2024-09-13,2024-09-13,ＨｉＮＯＤＥ税理士法人,,その他の設立登記法人,北海道,札幌市中央区,北二条西１３丁目１番地１０,,01,101,0600002,,,,,,,2024-09-13,1,,,,,ヒノデ,0
1462,6430005015069,新規,0,2024-09-13,2024-09-13,医療法人社団Ｍｉｎｄｓ,,その他の設立登記法人,北海道,札幌市西区,宮の沢一条１丁目７番１０号ワイビル宮の沢１階,,01,107,0630051,,,,,,,2024-09-13,1,,,,,マインズ,0
1483,7010001248234,新規,0,2024-09-13,2024-09-13,浜木株式会社,,株式会社,東京都,千代田区,神田佐久間町３丁目２８星野ビル５２１号,,13,101,1010025,,,,,,,2024-09-13,1,,,,,ハマキ,0
1484,7010001248242,新規,0,2024-09-13,2024-09-13,ＬＩＴ株式会社,,株式会社,東京都,中央区,入船３丁目１０－７有楽堂ビル４階,,13,102,1040042,,,,,,,2024-09-13,1,,,,,リット,0
1489,7010401185028,新規,0,2024-09-13,2024-09-13,グッたま株式会社,,株式会社,東京都,港区,麻布十番１丁目５－１０第二石原ビル２０３,,13,103,1060045,,,,,,,2024-09-13,1,,,,,グッタマ,0
1490,7010401185069,新規,0,2024-09-13,2024-09-13,株式会社ＫＹＮＯＶＵＳ,,株式会社,東京都,港区,新橋３丁目１９番７号江夏ビル６０２,,13,103,1050004,,,,,,,2024-09-13,1,,,,,キノヴァス,0
1497,7010601065921,新規,0,2024-09-13,2024-09-13,株式会社ＳｙｎａｐＳｔｕｄｉｏ,,株式会社,東京都,墨田区,文花３丁目６番３号クリエイティブハウス文花５０１,,13,107,1310044,,,,,,,2024-09-13,1,,,,,シナプスタジオ,0
1499,7010603011089,新規,0,2024-09-13,2024-09-13,合同会社双葉商事,,合同会社,東京都,墨田区,横川２丁目７番２号,,13,107,1300003,,,,,,,2024-09-13,1,,,,,フタバショウジ,0
1503,7010701046540,新規,0,2024-09-13,2024-09-13,ＭＯＪＡ　ｃｏｍｍｕｎｉｃａｔｉｏｎ株式会社,,株式会社,東京都,品川区,中延３丁目７番２０号,,13,109,1420053,,,,,,,2024-09-13,1,,,,,モジャコミュニケーション,0
1514,7011001164677,新規,0,2024-09-13,2024-09-13,株式会社ｈａｕ,,株式会社,東京都,目黒区,目黒３丁目３番２６号,,13,110,1530063,,,,,,,2024-09-13,1,,,,,ハウ,0
1515,7011003019986,新規,0,2024-09-13,2024-09-13,プレスインフォメーション合同会社,,合同会社,東京都,渋谷区,神南１丁目１１－４ＦＰＧリンクス神南５階,,13,113,1500041,,,,,,,2024-09-13,1,,,,,プレスインフォメーション,0
1517,7011005010670,新規,0,2024-09-13,2024-09-13,医療法人社団松栄会,,その他の設立登記法人,東京都,渋谷区,本町２丁目６番３号ＡＺ渋谷本町１階,,13,113,1510071,,,,,,,2024-09-13,1,,,,,ショウエイカイ,0
1522,7011101108749,新規,0,2024-09-13,2024-09-13,株式会社トーンズマックス,,株式会社,東京都,新宿区,新宿４丁目１番２２号１００６室Ｆ,,13,104,1600022,,,,,,,2024-09-13,1,,,,,トーンズマックス,0
1523,7011101108773,新規,0,2024-09-13,2024-09-13,株式会社ＫＨＮ,,株式会社,東京都,新宿区,西新宿３丁目３番１３号西新宿水間ビル２Ｆ,,13,104,1600023,,,,,,,2024-09-13,1,,,,,ケーエイチエヌ,0
1524,7011103014920,新規,0,2024-09-13,2024-09-13,合同会社涙,,合同会社,東京都,新宿区,西新宿３丁目３番１３号西新宿水間ビル６Ｆ,,13,104,1600023,,,,,,,2024-09-13,1,,,,,ナミダ,0
1532,7011603004446,新規,0,2024-09-13,2024-09-13,レイマネジメント合同会社,,合同会社,東京都,練馬区,富士見台２丁目３９番１７号,,13,120,1770034,,,,,,,2024-09-13,1,,,,,レイマネジメント,0
1533,7011701027621,新規,0,2024-09-13,2024-09-13,株式会社曉,,株式会社,東京都,江戸川区,西小岩４丁目６番２７号,,13,123,1330057,,,,,,,2024-09-13,1,,,,,アカツキ,0
1535,7011801044830,新規,0,2024-09-13,2024-09-13,株式会社盛源,,株式会社,東京都,足立区,梅島３丁目３４－６興和ビル１０１,,13,121,1210816,,,,,,,2024-09-13,1,,,,,,0
1541,7012401042282,新規,0,2024-09-13,2024-09-13,株式会社ｍｕｘ,,株式会社,東京都,調布市,富士見町２丁目２‐６２,,13,208,1820033,,,,,,,2024-09-13,1,,,,,マルチプレクサ,0
1543,7012701018445,新規,0,2024-09-13,2024-09-13,株式会社天照商事,,株式会社,東京都,東村山市,秋津町１丁目１０番地３１,,13,213,1890001,,,,,,,2024-09-13,1,,,,,アマテラスショウジ,0
1554,7020001159216,新規,0,2024-09-13,2024-09-13,リアン株式会社,,株式会社,神奈川県,川崎市宮前区,西野川３丁目３５番３６号,,14,136,2160044,,,,,,,2024-09-13,1,,,,,リアン,0
1555,7020001159232,新規,0,2024-09-13,2024-09-13,株式会社Ｔｏｍ,,株式会社,神奈川県,横浜市都筑区,仲町台５丁目２番２５号ハスミドミトリー２０５,,14,118,2240041,,,,,,,2024-09-13,1,,,,,トム,0
1556,7020001159240,新規,0,2024-09-13,2024-09-13,株式会社Ｂｅｔｔｅｒ　Ｐｌａｎｅｔ,,株式会社,神奈川県,川崎市高津区,諏訪３丁目３番１号レヂデンス吉野３０３,,14,134,2130004,,,,,,,2024-09-13,1,,,,,ベタープラネット,0
1571,7021001083232,新規,0,2024-09-13,2024-09-13,株式会社大生,,株式会社,神奈川県,鎌倉市,山ノ内２５６番地２５,,14,204,2470062,,,,,,,2024-09-13,1,,,,,タイセイ,0
1582,7030001162458,新規,0,2024-09-13,2024-09-13,ギルド株式会社,,株式会社,埼玉県,所沢市,東所沢和田２丁目７番地の１１スターハイツ２０３,,11,208,3590023,,,,,,,2024-09-13,1,,,,,ギルド,0
1583,7030001162466,新規,0,2024-09-13,2024-09-13,株式会社利華産業,,株式会社,埼玉県,草加市,両新田西町３８３－１,,11,221,3400027,,,,,,,2024-09-13,1,,,,,リカサンギョウ,0
1584,7030001162474,新規,0,2024-09-13,2024-09-13,株式会社岩崎屋,00136297,株式会社,埼玉県,川口市,上青木３丁目１８番２５号,,11,203,3330844,,,,,,,2024-09-13,1,,,,,イワサキヤ,0
1585,7030001162482,新規,0,2024-09-13,2024-09-13,ＡＢＰ株式会社,,株式会社,埼玉県,富士見市,関沢３丁目３７－１７,,11,235,3540025,,,,,,,2024-09-13,1,,,,,エービーピー,0
1589,7030003025051,新規,0,2024-09-13,2024-09-13,合同会社ＮｏｖａＮｅｔ,,合同会社,埼玉県,川口市,西川口１丁目３０番８－６０１号プレール・ドゥーク西川口,,11,203,3320021,,,,,,,2024-09-13,1,,,,,ノヴァネット,0
1590,7030003025101,新規,0,2024-09-13,2024-09-13,合同会社ＶＩＶＩ,,合同会社,埼玉県,さいたま市大宮区,仲町２丁目５７番地４階,,11,103,3300845,,,,,,,2024-09-13,1,,,,,ヴィヴィ,0
1594,7040001135405,新規,0,2024-09-13,2024-09-13,株式会社ＲＳ,,株式会社,千葉県,八街市,八街ほ９７３番地１,,12,230,2891115,,,,,,,2024-09-13,1,,,,,アールエス,0
1598,7050001055412,新規,0,2024-09-13,2024-09-13,株式会社もりの薬局,,株式会社,茨城県,取手市,新町１丁目９番１号,,08,217,3020024,,,,,,,2024-09-13,1,,,,,モリノヤッキョク,0
1604,7070001042177,新規,0,2024-09-13,2024-09-13,株式会社Ａ１,,株式会社,群馬県,高崎市,小八木町１２０２番地１,,10,202,3700071,,,,,,,2024-09-13,1,,,,,エーワン,0
1605,7070001042185,新規,0,2024-09-13,2024-09-13,Ｂｒｉｌｌｉａｎｔ　Ｌｉｆｅ株式会社,,株式会社,群馬県,高崎市,元島名町６５５番地４０１号室,,10,202,3700014,,,,,,,2024-09-13,1,,,,,ブリリアントライフ,0
1621,7110001038708,新規,0,2024-09-13,2024-09-13,株式会社Ｇｅｏ・Ｃｏｎ,,株式会社,新潟県,新潟市中央区,愛宕２丁目５番地１６,,15,103,9500944,,,,,,,2024-09-13,1,,,,,ジオコン,0
1629,7120001268568,新規,0,2024-09-13,2024-09-13,千尋株式会社,,株式会社,大阪府,大阪市西成区,天下茶屋東２丁目５番１１号,,27,122,5570011,,,,,,,2024-09-13,1,,,,,チヒロ,0
1630,7120001268576,新規,0,2024-09-13,2024-09-13,株式会社ＤＷ,,株式会社,大阪府,大阪市北区,天満橋２丁目３番１６－７０４号,,27,127,5300042,,,,,,,2024-09-13,1,,,,,ディーダブリュ,0
1631,7120001268584,新規,0,2024-09-13,2024-09-13,株式会社ＳＵＧＡＲ　ＳＡＬＴ,,株式会社,大阪府,大阪市浪速区,日本橋５丁目１２－９－３０５,,27,111,5560005,,,,,,,2024-09-13,1,,,,,シュガーソルト,0
1649,7120903005341,新規,0,2024-09-13,2024-09-13,ＫＮＯＴ　ＣＲＥＡＴＩＶＥ　ＷＯＲＫＳ合同会社,,合同会社,大阪府,豊中市,庄内栄町２丁目２－１３－１,,27,203,5610834,,,,,,,2024-09-13,1,,,,,ノットクリエイティブワークス,0
1651,7122001038439,新規,0,2024-09-13,2024-09-13,株式会社天伸クリーンサービス,,株式会社,大阪府,大東市,泉町２丁目１０番１８号,,27,218,5740024,,,,,,,2024-09-13,1,,,,,テンシンクリーンサービス,0
1657,7130003009861,新規,0,2024-09-13,2024-09-13,合同会社紗紗貴,,合同会社,京都府,京都市左京区,浄土寺西田町８２－２９,,26,103,6068417,,,,,,,2024-09-13,1,,,,,ササキ,0
1663,7140001135790,新規,0,2024-09-13,2024-09-13,東勝株式会社,,株式会社,兵庫県,芦屋市,涼風町２６番１４号１Ｆ,,28,206,6590036,,,,,,,2024-09-13,1,,,,,トウショウ,0
1664,7140001135799,新規,0,2024-09-13,2024-09-13,株式会社１２ｔｒｅｅｓ,,株式会社,兵庫県,西宮市,北六甲台２丁目１９番８号,,28,204,6511413,,,,,,,2024-09-13,1,,,,,トゥエルヴトゥリーズ,0
1674,7180003027330,新規,0,2024-09-13,2024-09-13,サムドゥ合同会社,,合同会社,愛知県,名古屋市南区,岩戸町１２番６号ＡＮＧＥＬＶＩＬＬＡ７０３号,,23,112,4570015,,,,,,,2024-09-13,1,,,,,サムドゥ,0
1676,7180301039052,新規,0,2024-09-13,2024-09-13,株式会社ＮＥＫＳＴ,,株式会社,愛知県,豊田市,井上町７丁目１－１０,,23,211,4700372,,,,,,,2024-09-13,1,,,,,ネクスト,0
1679,7180303006265,新規,0,2024-09-13,2024-09-13,合同会社ＮＯＺＯＭＩ,,合同会社,愛知県,岡崎市,藤川町字北荒古６番地７,,23,202,4443523,,,,,,,2024-09-13,1,,,,,ノゾミ,0
1689,7240001063817,新規,0,2024-09-13,2024-09-13,株式会社Ｌｉｌａ　ｃｏｒｐｏｒａｔｉｏｎ,,株式会社,広島県,広島市安佐南区,安東４丁目２３番９号,,34,105,7310153,,,,,,,2024-09-13,1,,,,,リラコーポレーション,0
1690,7240005015822,新規,0,2024-09-13,2024-09-13,一般社団法人ひとむすび,,その他の設立登記法人,広島県,東広島市,西条中央８丁目１４番４号レジデンスヒルＣ棟２０４号,,34,212,7390025,,,,,,,2024-09-13,1,,,,,ヒトムスビ,0
1691,7250001020800,新規,0,2024-09-13,2024-09-13,星之興産株式会社,,株式会社,山口県,宇部市,大字東岐波４６１７番地３,,35,202,7550241,,,,,,,2024-09-13,1,,,,,ホシノコウサン,0
1693,7250005008949,新規,0,2024-09-13,2024-09-13,一般社団法人ひとつむぎ,,その他の設立登記法人,山口県,下関市,長府才川１丁目５番１８号,,35,201,7520928,,,,,,,2024-09-13,1,,,,,ヒトツムギ,0
1699,7290001107247,新規,0,2024-09-13,2024-09-13,株式会社アジアンソリューションズ,,株式会社,福岡県,福岡市博多区,博多駅前４丁目８番１５号博多凰城ビル８階,,40,132,8120011,,,,,,,2024-09-13,1,,,,,アジアンソリューションズ,0
1700,7290001107263,新規,0,2024-09-13,2024-09-13,株式会社ミチ,,株式会社,福岡県,春日市,紅葉ヶ丘東９丁目８２番地１,,40,218,8160833,,,,,,,2024-09-13,1,,,,,ミチ,0
1703,7290003015803,新規,0,2024-09-13,2024-09-13,麒麟合同会社,,合同会社,福岡県,福岡市南区,大楠１丁目３４番３０－８０２号ロマネスク日赤通り,,40,134,8150082,,,,,,,2024-09-13,1,,,,,キリン,0
1704,7290003015828,新規,0,2024-09-13,2024-09-13,合同会社Ｗｅｌｉｎａアドバイザリー,,合同会社,福岡県,福岡市中央区,薬院３丁目３番２７－７０３号,,40,133,8100022,,,,,,,2024-09-13,1,,,,,ウェリナアドバイザリー,0
1705,7290801030879,新規,0,2024-09-13,2024-09-13,株式会社Ｆａｒｍ　Ｋ,,株式会社,福岡県,直方市,大字下新入１３１番地,,40,204,8220032,,,,,,,2024-09-13,1,,,,,ファームケイ,0
1720,7360003014293,新規,0,2024-09-13,2024-09-13,合同会社万国津梁,,合同会社,沖縄県,豊見城市,字饒波６０番地,,47,212,9010211,,,,,,,2024-09-13,1,,,,,バンコクシンリョウ,0
1724,7380003005852,新規,0,2024-09-13,2024-09-13,合同会社ＰＣＤホーム,,合同会社,福島県,郡山市,七ッ池町８番５号ヴィレッジハウス６０,,07,203,9638831,,,,,,,2024-09-13,1,,,,,ピーシーディーホーム,0
1734,7430005015068,新規,0,2024-09-13,2024-09-13,医療法人辰生会,,その他の設立登記法人,北海道,江別市,上江別西町５３－２３,,01,217,0670063,,,,,,,2024-09-13,1,,,,,シンセイカイ,0
1756,8010001248217,新規,0,2024-09-13,2024-09-13,ＯＮＥプラチナ株式会社,,株式会社,東京都,千代田区,大手町２丁目２番１号,,13,101,1000004,,,,,,,2024-09-13,1,,,,,ワンプラチナ,0
1757,8010001248225,新規,0,2024-09-13,2024-09-13,株式会社ピクゾン,,株式会社,東京都,千代田区,神田多町２丁目６番地２,,13,101,1010046,,,,,,,2024-09-13,1,,,,,ピクゾン,0
1758,8010001248241,新規,0,2024-09-13,2024-09-13,株式会社Ｏｎｅ　Ｄｉｓｈ,,株式会社,東京都,中央区,銀座７丁目１７番２号,,13,102,1040061,,,,,,,2024-09-13,1,,,,,ワンディッシュ,0
1759,8010001248274,新規,0,2024-09-13,2024-09-13,株式会社奥美,,株式会社,東京都,文京区,水道２丁目４番３号日興パレス文京ＰＡＲＴ５・７０４号室,,13,105,1120005,,,,,,,2024-09-13,1,,,,,オミ,0
1765,8010003044878,新規,0,2024-09-13,2024-09-13,合同会社伏見オフィスマネジメント,,合同会社,東京都,千代田区,霞が関３丁目２番５号,,13,101,1000013,,,,,,,2024-09-13,1,,,,,フシミオフィスマネジメント,0
1767,8010005038804,新規,0,2024-09-13,2024-09-13,一般社団法人日本江都同郷総会,,その他の設立登記法人,東京都,中央区,日本橋蛎殻町１丁目１３－１ユニゾ蛎殻町北島ビルＢ１－Ｂ,,13,102,1030014,,,,,,,2024-09-13,1,,,,,ニホンコウトドウキョウカイ,0
1772,8010401185068,新規,0,2024-09-13,2024-09-13,株式会社Ｆｌｏｗｅｒ　Ａｒｋ,,株式会社,東京都,港区,北青山１丁目３番１号アールキューブ青山３階,,13,103,1070061,,,,,,,2024-09-13,1,,,,,フラワーアーク,0
1776,8010403033407,新規,0,2024-09-13,2024-09-13,合同会社コラボス,,合同会社,東京都,港区,北青山１丁目３番１号アールキューブ青山３階,,13,103,1070061,,,,,,,2024-09-13,1,,,,,コラボス,0
1777,8010501052911,新規,0,2024-09-13,2024-09-13,株式会社ムーサ・エフ,,株式会社,東京都,台東区,池之端３丁目４番２０号,,13,106,1100008,,,,,,,2024-09-13,1,,,,,ムーサエフ,0
1783,8010703007341,新規,0,2024-09-13,2024-09-13,あいちぇ合同会社,,合同会社,東京都,品川区,西五反田４丁目９―１４Ｐｏｒｔｏｇｒａｎｄｅかむろ坂６号室,,13,109,1410031,,,,,,,2024-09-13,1,,,,,アイチェ,0
1784,8010901055968,新規,0,2024-09-13,2024-09-13,とのっず株式会社,,株式会社,東京都,世田谷区,代田３丁目２番１２号メゾン・ド・マドリエ３１５,,13,112,1550033,,,,,,,2024-09-13,1,,,,,トノッズ,0
1785,8010901055976,新規,0,2024-09-13,2024-09-13,株式会社Ａ‐ＹＡＲＮ,,株式会社,東京都,世田谷区,野沢４丁目２番１０号野沢ビル２０１号室,,13,112,1540003,,,,,,,2024-09-13,1,,,,,エーヤン,0
1786,8010903009352,新規,0,2024-09-13,2024-09-13,合同会社ＫＩＡＩ,,合同会社,東京都,世田谷区,等々力６丁目９番２４号フリッカ２０１,,13,112,1580082,,,,,,,2024-09-13,1,,,,,キアイ,0
1790,8011001164610,新規,0,2024-09-13,2024-09-13,株式会社ＥＡＺＺＺＹ,,株式会社,東京都,目黒区,八雲５丁目１０－１６パークハイツ八雲３０２,,13,110,1520023,,,,,,,2024-09-13,1,,,,,イージー,0
1795,8011101108748,新規,0,2024-09-13,2024-09-13,貴山商貿株式会社,,株式会社,東京都,新宿区,山吹町３３７番地５都住創山吹町ビル６０４Ｊ,,13,104,1620801,,,,,,,2024-09-13,1,,,,,キヤマショウボウ,0
1796,8011101108772,新規,0,2024-09-13,2024-09-13,株式会社ＡＹＦ,,株式会社,東京都,新宿区,西新宿６丁目５番１号新宿アイランドタワー２階,,13,104,1600023,,,,,,,2024-09-13,1,,,,,エーワイエフ,0
1797,8011101108780,新規,0,2024-09-13,2024-09-13,ヘルス・コンパス株式会社,,株式会社,東京都,新宿区,西新宿３丁目８番４号ＢＡＢＡビル４階,,13,104,1600023,,,,,,,2024-09-13,1,,,,,ヘルスコンパス,0
1799,8011201025769,新規,0,2024-09-13,2024-09-13,株式会社ＥＳ‐ＰＡＣＩＯ,,株式会社,東京都,中野区,弥生町２丁目１４番１０号,,13,114,1640013,,,,,,,2024-09-13,1,,,,,エスパシオ,0
1802,8011303005280,新規,0,2024-09-13,2024-09-13,合同会社ＬＦホールディングス,,合同会社,東京都,杉並区,成田西４丁目６番８号,,13,115,1660016,,,,,,,2024-09-13,1,,,,,エルエフホールディングス,0
1803,8011303005289,新規,0,2024-09-13,2024-09-13,合同会社Ｂｏｓｑｕｅｔ,,合同会社,東京都,杉並区,下高井戸５丁目９番３５号,,13,115,1680073,,,,,,,2024-09-13,1,,,,,ボスケット,0
1807,8011405002358,新規,0,2024-09-13,2024-09-13,医療法人社団櫻水樹会,,その他の設立登記法人,東京都,板橋区,常盤台４丁目２９番１５号,,13,119,1740071,,,,,,,2024-09-13,1,,,,,オウスイジュカイ,0
1811,8011701027604,新規,0,2024-09-13,2024-09-13,株式会社アットヘア,,株式会社,東京都,江戸川区,西葛西５丁目１番１１号,,13,123,1340088,,,,,,,2024-09-13,1,,,,,アットヘア,0
1812,8011701027629,新規,0,2024-09-13,2024-09-13,丸巳設備株式会社,,株式会社,東京都,江戸川区,西小岩２丁目１番２号,,13,123,1330057,,,,,,,2024-09-13,1,,,,,マルミセツビ,0
1813,8011703003966,新規,0,2024-09-13,2024-09-13,お殿水合同会社,,合同会社,東京都,江戸川区,東葛西９丁目１番３－１０９号,,13,123,1340084,,,,,,,2024-09-13,1,,,,,オトノミズ,0
1815,8011705001852,新規,0,2024-09-13,2024-09-13,一般社団法人日本福利厚生振興会,,その他の設立登記法人,東京都,江戸川区,東小岩６丁目６番１０号１０２,,13,123,1330052,,,,,,,2024-09-13,1,,,,,ニホンフクリコウセイシンコウカイ,0
1816,8011801044838,新規,0,2024-09-13,2024-09-13,株式会社五色屋,,株式会社,東京都,葛飾区,堀切１丁目３９番３号,,13,122,1240006,,,,,,,2024-09-13,1,,,,,ゴシキヤ,0
1821,8012403006747,新規,0,2024-09-13,2024-09-13,合同会社ＡＣＴＭＯＲＥ,,合同会社,東京都,調布市,深大寺東町６丁目２８番地３,,13,208,1820012,,,,,,,2024-09-13,1,,,,,アクトモア,0
1823,8012701018444,新規,0,2024-09-13,2024-09-13,株式会社エクセイム,,株式会社,東京都,西東京市,泉町１丁目５番５号,,13,229,2020011,,,,,,,2024-09-13,1,,,,,,0
1837,8020005016544,新規,0,2024-09-13,2024-09-13,一般社団法人ヒロイズム・イノベーション,,その他の設立登記法人,神奈川県,横浜市南区,二葉町１丁目１番地９グランシティ横濱８０５号,,14,105,2320026,,,,,,,2024-09-13,1,,,,,ヒロイズムイノベーション,0
1847,8030001162449,新規,0,2024-09-13,2024-09-13,株式会社Ａｍｉｃａｌ,,株式会社,埼玉県,白岡市,白岡８５９番地８,,11,246,3490218,,,,,,,2024-09-13,1,,,,,アミカル,0
1848,8030001162457,新規,0,2024-09-13,2024-09-13,株式会社順風,,株式会社,埼玉県,川口市,西青木１丁目２５番１６－３号,,11,203,3320035,,,,,,,2024-09-13,1,,,,,ジュンプウ,0
1851,8030003025100,新規,0,2024-09-13,2024-09-13,ｌａｂｅｌ８合同会社,,合同会社,埼玉県,朝霞市,泉水３丁目１４番８０－９０５号,,11,227,3510024,,,,,,,2024-09-13,1,,,,,レーベルエイト,0
1852,8030003025109,新規,0,2024-09-13,2024-09-13,ソダフグループ合同会社,,合同会社,埼玉県,ふじみ野市,大井２９６－２６,,11,245,3560053,,,,,,,2024-09-13,1,,,,,ソダフグループ,0
1853,8030003025117,新規,0,2024-09-13,2024-09-13,ＭＳグローバル合同会社,,合同会社,埼玉県,川口市,朝日６丁目９番２１号,,11,203,3320001,,,,,,,2024-09-13,1,,,,,エムエスグローバル,0
1859,8040001135123,新規,0,2024-09-13,2024-09-13,株式会社谷津,,株式会社,千葉県,松戸市,新松戸南３丁目２５８番地の１５,,12,207,2700035,,,,,,,2024-09-13,1,,,,,ヤツ,0
1861,8040003025792,新規,0,2024-09-13,2024-09-13,Ｓａｒａｎｇ合同会社,,合同会社,千葉県,流山市,西初石５丁目３４－１２,,12,220,2700121,,,,,,,2024-09-13,1,,,,,サラン,0
1864,8050001055411,新規,0,2024-09-13,2024-09-13,株式会社高須製作所,,株式会社,茨城県,つくば市,赤塚５８６番地３,,08,220,3050062,,,,,,,2024-09-13,1,,,,,タカスセイサクショ,0
1870,8070001042184,新規,0,2024-09-13,2024-09-13,ＴＳＵＢＡＳＡ株式会社,,株式会社,群馬県,高崎市,新後閑町４番３号マンションアルス２０２号,,10,202,3700845,,,,,,,2024-09-13,1,,,,,ツバサ,0
1882,8110001038707,新規,0,2024-09-13,2024-09-13,株式会社スリーエコ,,株式会社,新潟県,新潟市東区,中興野一丁目１５番,,15,102,9500803,,,,,,,2024-09-13,1,,,,,スリーエコ,0
1886,8110005017129,新規,0,2024-09-13,2024-09-13,特定非営利活動法人Ｂｒｉｉｄｇｅ．,,その他の設立登記法人,新潟県,新潟市中央区,鳥屋野４丁目１番９号,,15,103,9500951,,,,,,,2024-09-13,1,,,,,ブリッジドット,0
1897,8120001268468,新規,0,2024-09-13,2024-09-13,ダイナテック株式会社,,株式会社,大阪府,大阪市住之江区,御崎８丁目７番８号,,27,125,5590013,,,,,,,2024-09-13,1,,,,,ダイナテック,0
1898,8120001268526,新規,0,2024-09-13,2024-09-13,株式会社オーエス・ワン,,株式会社,大阪府,大阪市中央区,石町１丁目１番１号,,27,128,5400033,,,,,,,2024-09-13,1,,,,,オーエスワン,0
1899,8120001268542,新規,0,2024-09-13,2024-09-13,宜居株式会社,,株式会社,大阪府,大阪市住之江区,北島２丁目８番９号エムテック北島１０５号,,27,125,5590014,,,,,,,2024-09-13,1,,,,,センキョ,0
1900,8120001268550,新規,0,2024-09-13,2024-09-13,震誉株式会社,,株式会社,大阪府,大阪市住吉区,殿辻１丁目２－２６シーズコート住吉２０２－Ｂ,,27,120,5580042,,,,,,,2024-09-13,1,,,,,シンヨ,0
1901,8120001268591,新規,0,2024-09-13,2024-09-13,株式会社ＡＡ,,株式会社,大阪府,大阪市東淀川区,瑞光１丁目２番１１号阪口ビル４０８,,27,114,5330005,,,,,,,2024-09-13,1,,,,,エーシーズ,0
1903,8120003027525,新規,0,2024-09-13,2024-09-13,合同会社あぐり,,合同会社,大阪府,大阪市西成区,山王１丁目７番２７号,,27,122,5570001,,,,,,,2024-09-13,1,,,,,アグリ,0
1904,8120003027541,新規,0,2024-09-13,2024-09-13,合同会社みらいなサービス,,合同会社,大阪府,大阪市北区,堂島浜２丁目２－２８堂島アクシスビル４階ＳＹＮＴＨ内,,27,127,5300004,,,,,,,2024-09-13,1,,,,,ミライナサービス,0
1906,8120903005340,新規,0,2024-09-13,2024-09-13,筒井不動産合同会社,,合同会社,大阪府,高槻市,永楽町８番１３号,,27,207,5690083,,,,,,,2024-09-13,1,,,,,ツツイフドウサン,0
1916,8130003009852,新規,0,2024-09-13,2024-09-13,合同会社ＭＹＴＨ,,合同会社,京都府,京都市上京区,上立売通小川西入下る水落町９４番地１,,26,102,6020058,,,,,,,2024-09-13,1,,,,,ミース,0
1917,8130003009860,新規,0,2024-09-13,2024-09-13,合同会社アリアン,,合同会社,京都府,京都市下京区,七条通油小路東入大黒町２２７番地第２キョートビル４０２,,26,106,6008223,,,,,,,2024-09-13,1,,,,,アリアン,0
1927,8140001135798,新規,0,2024-09-13,2024-09-13,新利国際株式会社,,株式会社,兵庫県,神戸市東灘区,向洋町中１丁目１７アジア・ワン・センター２７Ｆ－１号室,,28,101,6580032,,,,,,,2024-09-13,1,,,,,シンリコクサイ,0
1937,8180001163218,新規,0,2024-09-13,2024-09-13,ＰＡＫＳＥＥＤ株式会社,,株式会社,愛知県,名古屋市西区,則武新町４丁目４番１９号スプリングヒル則武１階１０１号,,23,104,4510051,,,,,,,2024-09-13,1,,,,,パックシード,0
1938,8180001163234,新規,0,2024-09-13,2024-09-13,株式会社Ｓ‐ＬＩＦＥ,,株式会社,愛知県,名古屋市守山区,天子田３丁目８０７Ａ棟,,23,113,4630037,,,,,,,2024-09-13,1,,,,,エスライフ,0
1942,8180301039051,新規,0,2024-09-13,2024-09-13,ＷＥＢＲＥ株式会社,,株式会社,愛知県,豊橋市,老津町字今下４１,,23,201,4413301,,,,,,,2024-09-13,1,,,,,ウェブリ,0
1948,8220001026205,新規,0,2024-09-13,2024-09-13,株式会社ＢＩＧＦＬＡＧ,,株式会社,石川県,金沢市,千木１丁目１０１番地５,,17,201,9200002,,,,,,,2024-09-13,1,,,,,ビッグフラッグ,0
1957,8250003003562,新規,0,2024-09-13,2024-09-13,合同会社ＤＥＶＯＴＥ,,合同会社,山口県,岩国市,門前町１丁目４番１号,,35,208,7400031,,,,,,,2024-09-13,1,,,,,デボウト,0
1961,8260001039459,新規,0,2024-09-13,2024-09-13,山室設備株式会社,,株式会社,岡山県,高梁市,成羽町下原１０２６番地１,,33,209,7160111,,,,,,,2024-09-13,1,,,,,ヤマムロセツビ,0
1974,8330001032464,新規,0,2024-09-13,2024-09-13,株式会社ＨＮＴｃｏｒｐｏｒａｔｉｏｎ,,株式会社,熊本県,熊本市南区,城南町東阿高字一ノ尾１２７９番地１,,43,104,8614225,,,,,,,2024-09-13,1,,,,,エイチエヌティーコーポレーション,0
1979,8370001051725,新規,0,2024-09-13,2024-09-13,株式会社ＯＭテクニカルパーツ,,株式会社,宮城県,亘理郡亘理町,字舘南８５番地１３,,04,361,9892361,,,,,,,2024-09-13,1,,,,,オーエムテクニカルパーツ,0
1988,8410003003983,新規,0,2024-09-13,2024-09-13,合同会社ＡＮ商会,,合同会社,秋田県,秋田市,大住４丁目６番２号,,05,201,0101436,,,,,,,2024-09-13,1,,,,,,0
1991,8420001018867,新規,0,2024-09-13,2024-09-13,株式会社ＴＲＹ　ＨＡＲＤ,,株式会社,青森県,青森市,大字浜田字玉川２１１番地４５,,02,201,0300843,,,,,,,2024-09-13,1,,,,,トライハード,0
1992,8420003002992,新規,0,2024-09-13,2024-09-13,合同会社フェリーチェ,,合同会社,青森県,下北郡大間町,大字大間字中山１５番地５,,02,423,0394601,,,,,,,2024-09-13,1,,,,,フェリーチェ,0
1995,8430003016777,新規,0,2024-09-13,2024-09-13,合同会社Ｈｏｌｏｍｕａ,,合同会社,北海道,札幌市東区,東雁来十三条２丁目３番１１号,,01,103,0070033,,,,,,,2024-09-13,1,,,,,ホロムア,0
1997,8430005015067,新規,0,2024-09-13,2024-09-13,一般財団法人整形外科手術スキルトレーニングセンター,,その他の設立登記法人,北海道,札幌市西区,山の手三条２丁目５番１号,,01,107,0630003,,,,,,,2024-09-13,1,,,,,セイケイゲカシュジュツスキルトレーニングセンター,0
2000,8470003002716,新規,0,2024-09-13,2024-09-13,豊島ＰＰ合同会社,,合同会社,香川県,小豆郡土庄町,豊島家浦３８３７番地５,,37,322,7614661,,,,,,,2024-09-13,1,,,,,テシマピーピー,0
2015,9010001248224,新規,0,2024-09-13,2024-09-13,株式会社ＨＡＳＥ,,株式会社,東京都,中央区,勝どき３丁目１４番１０－３０２号,,13,102,1040054,,,,,,,2024-09-13,1,,,,,ハセ,0
2018,9010003044919,新規,0,2024-09-13,2024-09-13,Ｈｉｍａｗａｒｉ合同会社,,合同会社,東京都,千代田区,丸の内２丁目３番２号郵船ビルディング１階,,13,101,1000005,,,,,,,2024-09-13,1,,,,,ヒマワリ,0
2020,9010005038803,新規,0,2024-09-13,2024-09-13,一般社団法人日本江都総商会,,その他の設立登記法人,東京都,中央区,日本橋蛎殻町１丁目１３－１ユニゾ蛎殻町北島ビルＢ１－Ｂ,,13,102,1030014,,,,,,,2024-09-13,1,,,,,ニホンコウトソウショウカイ,0
2022,9010101016316,新規,0,2024-09-13,2024-09-13,株式会社ＢＵＩＬＤ　Ｓｔｕｄｉｏ,,株式会社,東京都,八王子市,横川町７７２番地１０,,13,201,1930823,,,,,,,2024-09-13,1,,,,,,0
2029,9010601065928,新規,0,2024-09-13,2024-09-13,ＳｋｙＬｉｎｋ株式会社,,株式会社,東京都,江東区,東雲２丁目３番３１号,,13,108,1350062,,,,,,,2024-09-13,1,,,,,スカイリンク,0
2035,9010901055983,新規,0,2024-09-13,2024-09-13,株式会社マツリカ,,株式会社,東京都,世田谷区,玉川３丁目２０番２号マノア玉川第３ビル５０１号室,,13,112,1580094,,,,,,,2024-09-13,1,,,,,マツリカ,0
2036,9010901055991,新規,0,2024-09-13,2024-09-13,株式会社ｆｒａｍｅｅ,,株式会社,東京都,世田谷区,桜上水５丁目５－２６,,13,112,1560045,,,,,,,2024-09-13,1,,,,,フレイミー,0
2044,9011001164592,新規,0,2024-09-13,2024-09-13,イスタナステーション株式会社,,株式会社,東京都,渋谷区,代々木２丁目２３番１号ニューステイトメナー１１０６号,,13,113,1510053,,,,,,,2024-09-13,1,,,,,イスタナステーション,0
2046,9011003019943,新規,0,2024-09-13,2024-09-13,ＡＴ‐ＳＴＲＥＴＣＨ合同会社,,合同会社,東京都,渋谷区,上原１丁目３－９,,13,113,1510064,,,,,,,2024-09-13,1,,,,,エーティーストレッチ,0
2051,9011101108747,新規,0,2024-09-13,2024-09-13,惠慧株式会社,,株式会社,東京都,新宿区,山吹町３３７番地５都住創山吹町ビル６０４Ｉ,00136293,13,104,1620801,,,,,,,2024-09-13,1,,,,,ケイエイ,0
2052,9011101108771,新規,0,2024-09-13,2024-09-13,株式会社ツナグッド,,株式会社,東京都,新宿区,西新宿３丁目３番１３号西新宿水間ビル６階,,13,104,1600023,,,,,,,2024-09-13,1,,,,,ツナグッド,0
2053,9011103014927,新規,0,2024-09-13,2024-09-13,合同会社ロイトシロ,,合同会社,東京都,新宿区,歌舞伎町２丁目４１番３号レオ寿ビル３Ｆ,,13,104,1600021,,,,,,,2024-09-13,1,,,,,ロイトシロ,0
2054,9011303005288,新規,0,2024-09-13,2024-09-13,Ｒｅｃｈａｒｇｅ　Ｐｏｗｅｒ合同会社,,合同会社,東京都,杉並区,和田３丁目６１－８－１００３,,13,115,1660012,,,,,,,2024-09-13,1,,,,,リチャージパワー,0
2055,9011501031144,新規,0,2024-09-13,2024-09-13,株式会社ＬＥＡＰ　ＴＯＫＹＯ,,株式会社,東京都,北区,王子５丁目１番１－１２２７号,,13,117,1140002,,,,,,,2024-09-13,1,,,,,リープトウキョウ,0
2057,9011701027628,新規,0,2024-09-13,2024-09-13,株式会社ＴＨＲＥＥＮＩＮＥ,,株式会社,東京都,江戸川区,東葛西５丁目３８番３号メゾンブランシェ１０３,,13,123,1340084,,,,,,,2024-09-13,1,,,,,スリーナイン,0
2058,9011703003965,新規,0,2024-09-13,2024-09-13,合同会社けろくぼ,,合同会社,東京都,江戸川区,下篠崎町２０番１３号,,13,123,1330064,,,,,,,2024-09-13,1,,,,,ケロクボ,0
2059,9011705001851,新規,0,2024-09-13,2024-09-13,医療法人社団ａＱｕａ,,その他の設立登記法人,東京都,江戸川区,南小岩７丁目２４番２０号ＦＩＲＳＴＡＩ５階ＣＤ区画,00136296,13,123,1330056,,,,,,,2024-09-13,1,,,,,アクア,0
2062,9011801044829,新規,0,2024-09-13,2024-09-13,株式会社ＨＡＮＧ　ＯＵＴ,,株式会社,東京都,葛飾区,金町３丁目４５番２号コートグランパパ１０３,,13,122,1250042,,,,,,,2024-09-13,1,,,,,ハングアウト,0
2076,9020001159156,新規,0,2024-09-13,2024-09-13,株式会社ザ・フレンズ,,株式会社,神奈川県,横浜市西区,花咲町６丁目１４３番地横浜ＭＩＤベースタワーレジデンス８１１号,,14,103,2200022,,,,,,,2024-09-13,1,,,,,ザフレンズ,0
2077,9020001159214,新規,0,2024-09-13,2024-09-13,株式会社ラクシュミー,,株式会社,神奈川県,横浜市神奈川区,鶴屋町２丁目１９番地１シャトー横浜第３ビル３Ｆ,,14,102,2210835,,,,,,,2024-09-13,1,,,,,ラクシュミー,0
2078,9020001159222,新規,0,2024-09-13,2024-09-13,ＳＥＡＳＯＮＡＬ株式会社,,株式会社,神奈川県,横浜市西区,浅間町１丁目４番３号ウィザードビル４０２,,14,103,2200072,,,,,,,2024-09-13,1,,,,,シーズナル,0
2090,9021005013183,新規,0,2024-09-13,2024-09-13,ＮＰＯ法人介護予防・屋外活動支援Ｋ．Ｐ．Ｔ,,その他の設立登記法人,神奈川県,相模原市緑区,下九沢２３７１番地１,,14,151,2520134,,,,,,,2024-09-13,1,,,,,カイゴヨボウオクガイカツドウシエンケーピーティー,0
2093,9030001162448,新規,0,2024-09-13,2024-09-13,株式会社ＫＮＮ,,株式会社,埼玉県,さいたま市大宮区,桜木町２丁目３番地大宮マルイ７階,,11,103,3300854,,,,,,,2024-09-13,1,,,,,ケーエヌエヌ,0
2100,9030003025108,新規,0,2024-09-13,2024-09-13,Ｌｅｖｅｌｉｎ合同会社,,合同会社,埼玉県,さいたま市大宮区,桜木町２丁目３番地大宮マルイ７階,,11,103,3300854,,,,,,,2024-09-13,1,,,,,レベリン,0
2101,9030003025116,新規,0,2024-09-13,2024-09-13,合同会社ＴｏｒｉＤｏｒｉ,,合同会社,埼玉県,春日部市,中央１丁目８－１５春日部セントラル,,11,214,3440067,,,,,,,2024-09-13,1,,,,,トリドリ,0
2110,9040003025791,新規,0,2024-09-13,2024-09-13,奥村佳史養鰻場設立準備合同会社,,合同会社,千葉県,いすみ市,大原１００５９番地５,,12,238,2980004,,,,,,,2024-09-13,1,,,,,オクムラヨシフミヨウマンジョウセツリツジュンビ,0
2112,9050001055419,新規,0,2024-09-13,2024-09-13,株式会社Ｖｅｓｉｃａ　Ｊａｐａｎ,,株式会社,茨城県,つくば市,天王台１丁目１番地１筑波大学医学医療系腎泌尿器外科医学系学系棟５１６室,,08,220,3050006,,,,,,,2024-09-13,1,,,,,ヴェシカジャパン,0
2116,9050005013488,新規,0,2024-09-13,2024-09-13,いばらき竹林整備企業組合,,その他の設立登記法人,茨城県,水戸市,見川５丁目１２７番地の２８１,,08,201,3100912,,,,,,,2024-09-13,1,,,,,イバラキチクリンセイビ,0
2117,9060003005247,新規,0,2024-09-13,2024-09-13,Ｎｉｐｐｏｎ‐ＢＤ　Ｓｏｌｕｔｉｏｎ合同会社,,合同会社,栃木県,小山市,駅東通り２丁目５－２３スキャットハイツ４階４０２号室,,09,208,3230022,,,,,,,2024-09-13,1,,,,,ニッポンビーディーソリューション,0
2122,9080101025005,新規,0,2024-09-13,2024-09-13,株式会社ｓｙｓｔｅｍＲ,,株式会社,静岡県,沼津市,大岡５４５番地の１９,,22,203,4100022,,,,,,,2024-09-13,1,,,,,システムアール,0
2143,9120001268491,新規,0,2024-09-13,2024-09-13,株式会社Ｒｅａｌ　Ｂｒｉｇｈｔｓ,,株式会社,大阪府,大阪市東淀川区,下新庄５丁目１２番９号,,27,114,5330021,,,,,,,2024-09-13,1,,,,,リアルブライツ,0
2144,9120001268509,新規,0,2024-09-13,2024-09-13,湖西株式会社,,株式会社,大阪府,大阪市西成区,天下茶屋２丁目２１－６パインリーフ天下茶屋４１２号室,,27,122,5570014,,,,,,,2024-09-13,1,,,,,コサイ,0
2145,9120001268541,新規,0,2024-09-13,2024-09-13,株式会社東渡,,株式会社,大阪府,大阪市住之江区,安立２丁目７番２号,,27,125,5590003,,,,,,,2024-09-13,1,,,,,トウト,0
2148,9120101070293,新規,0,2024-09-13,2024-09-13,株式会社ＭＩＮＡＷＡ,,株式会社,大阪府,松原市,天美南３丁目１０番１８号,,27,217,5800033,,,,,,,2024-09-13,1,,,,,ミナワ,0
2152,9130001077900,新規,0,2024-09-13,2024-09-13,ミヤコフードサービスグループ株式会社,,株式会社,京都府,城陽市,久世荒内１７７番地の６,,26,207,6100102,,,,,,,2024-09-13,1,,,,,ミヤコフードサービスグループ,0
2153,9130001077925,新規,0,2024-09-13,2024-09-13,飲蘭山房株式会社,,株式会社,京都府,京都市右京区,山ノ内北ノ口町１９－９－４０１,,26,108,6150094,,,,,,,2024-09-13,1,,,,,インランサンボウ,0
2154,9130001077933,新規,0,2024-09-13,2024-09-13,ミゾロテック株式会社,,株式会社,京都府,京都市伏見区,桃山町大島３８番地２桃山南団地３棟５０９号,,26,109,6128006,,,,,,,2024-09-13,1,,,,,ミゾロテック,0
2157,9140001135789,新規,0,2024-09-13,2024-09-13,Ｏｎｅ　ｔｏｎｅ株式会社,,株式会社,兵庫県,たつの市,誉田町片吹１９１番地,,28,229,6794137,,,,,,,2024-09-13,1,,,,,ワントーン,0
2158,9140001135797,新規,0,2024-09-13,2024-09-13,株式会社ＭＡアセットマネジメント,,株式会社,兵庫県,南あわじ市,潮美台１丁目１５番１４号,,28,224,6560521,,,,,,,2024-09-13,1,,,,,エムエーアセットマネジメント,0
2161,9140003021079,新規,0,2024-09-13,2024-09-13,Ｗｉｔｈ　Ｇｒａｔｉｔｕｄｅ合同会社,,合同会社,兵庫県,尼崎市,若王寺１丁目３－１９－５０２,,28,202,6610974,,,,,,,2024-09-13,1,,,,,ウィズグラティテュード,0
2164,9150003003373,新規,0,2024-09-13,2024-09-13,合同会社エアリード,,合同会社,奈良県,天理市,富堂町２１５番地１ビスタコート２０５,,29,204,6320072,,,,,,,2024-09-13,1,,,,,エアリード,0
2176,9180001163209,新規,0,2024-09-13,2024-09-13,株式会社彩生,,株式会社,愛知県,名古屋市守山区,日の後１１０５番地の２,,23,113,4630803,,,,,,,2024-09-13,1,,,,,イロハ,0
2177,9180001163217,新規,0,2024-09-13,2024-09-13,株山工業株式会社,,株式会社,愛知県,日進市,香久山１丁目２７０３番地２,,23,230,4700134,,,,,,,2024-09-13,1,,,,,カブヤマコウギョウ,0
2178,9180001163225,新規,0,2024-09-13,2024-09-13,ＴＣＳ名古屋販売株式会社,,株式会社,愛知県,名古屋市中村区,名駅３丁目４番１０号アルティメイト名駅１ｓｔ２階,,23,105,4500002,,,,,,,2024-09-13,1,,,,,ティーシーエスナゴヤハンバイ,0
2179,9180001163233,新規,0,2024-09-13,2024-09-13,株式会社マイスヴェルク,,株式会社,愛知県,一宮市,多加木２丁目２３番１０号,,23,203,4910837,,,,,,,2024-09-13,1,,,,,マイスヴェルク,0
2180,9180001163266,新規,0,2024-09-13,2024-09-13,株式会社愛子,,株式会社,愛知県,春日井市,中新町１丁目１２番地１宝味美ハイツ５０６号,,23,206,4860956,,,,,,,2024-09-13,1,,,,,アイコ,0
2182,9180003027345,新規,0,2024-09-13,2024-09-13,エスイーエス合同会社,,合同会社,愛知県,名古屋市緑区,亀が洞３丁目１７２１番地,,23,114,4580804,,,,,,,2024-09-13,1,,,,,エスイーエス,0
2185,9180301039050,新規,0,2024-09-13,2024-09-13,株式会社喜助,,株式会社,愛知県,新城市,作手善夫字カイリケ３０番地１６,,23,221,4411403,,,,,,,2024-09-13,1,,,,,キスケ,0
2186,9180303006263,新規,0,2024-09-13,2024-09-13,合同会社リアン,,合同会社,愛知県,豊川市,大木新町通３丁目１２番地,,23,207,4411207,,,,,,,2024-09-13,1,,,,,リアン,0
2188,9190005011981,新規,0,2024-09-13,2024-09-13,一般社団法人全国性知識普及協会,,その他の設立登記法人,三重県,度会郡大紀町,滝原６６９番地２,,24,471,5192703,,,,,,,2024-09-13,1,,,,,ゼンコクセイチシキフキュウキョウカイ,0
2193,9220001026204,新規,0,2024-09-13,2024-09-13,株式会社オフィス・キャム,,株式会社,石川県,加賀市,山代温泉幸町５６番地,,17,206,9220255,,,,,,,2024-09-13,1,,,,,オフィスキャム,0
2194,9220003003837,新規,0,2024-09-13,2024-09-13,合同会社松川秀幸建築設計事務所,,合同会社,石川県,金沢市,菊川２丁目１４番２号,,17,201,9200967,,,,,,,2024-09-13,1,,,,,マツカワヒデユキケンチクセッケイジムショ,0
2196,9230001020528,新規,0,2024-09-13,2024-09-13,株式会社燿,,株式会社,富山県,黒部市,宇奈月温泉３３０番地２２,,16,207,9380282,,,,,,,2024-09-13,1,,,,,カガヤキ,0
2201,9240001063807,新規,0,2024-09-13,2024-09-13,株式会社龍盛貿易,,株式会社,広島県,東広島市,福富町久芳３６９４番地８,,34,212,7392303,,,,,,,2024-09-13,1,,,,,リュウセイボウエキ,0
2219,9290001107212,新規,0,2024-09-13,2024-09-13,株式会社Ｎｅｗ　Ｃｈａｐｔｅｒ,,株式会社,福岡県,福岡市南区,塩原２丁目９番１３－４０３号,,40,134,8150032,,,,,,,2024-09-13,1,,,,,ニューチャプター,0
2220,9290001107229,新規,0,2024-09-13,2024-09-13,ＲＹＡＮ　ＪＡＰＡＮ株式会社,,株式会社,福岡県,福岡市博多区,博多駅前３丁目９－５－８１１,,40,132,8120011,,,,,,,2024-09-13,1,,,,,ライアンジャパン,0
2221,9290001107253,新規,0,2024-09-13,2024-09-13,株式会社星ノ沢,,株式会社,福岡県,福岡市東区,香椎照葉７丁目６番１９号,,40,131,8130017,,,,,,,2024-09-13,1,,,,,ホシノサワ,0
2223,9290005019486,新規,0,2024-09-13,2024-09-13,特定非営利活動法人福岡市障がい者スポーツ協会,,その他の設立登記法人,福岡県,福岡市中央区,荒戸３丁目３番３９号,,40,133,8100062,,,,,,,2024-09-13,1,,,,,,0
2229,9310003004859,新規,0,2024-09-13,2024-09-13,スリーナイン合同会社,,合同会社,長崎県,長崎市,恵美須町４番５号長崎放送第三ビル６階,,42,201,8500056,,,,,,,2024-09-13,1,,,,,スリーナイン,0
2231,9340003004609,新規,0,2024-09-13,2024-09-13,合同会社ｆａｒｍ　ｍｏｆ,,合同会社,鹿児島県,大島郡和泊町,大字国頭１６３３番地１,,46,533,8919101,,,,,,,2024-09-13,1,,,,,ファームモフ,0
2233,9350003004748,新規,0,2024-09-13,2024-09-13,合同会社アジャストメント,,合同会社,宮崎県,宮崎市,大塚台西２丁目２１－１１,,45,201,8802105,,,,,,,2024-09-13,1,,,,,アジャストメント,0
2236,9360001034192,新規,0,2024-09-13,2024-09-13,株式会社スーパーアンダギー,,株式会社,沖縄県,宜野湾市,宇地泊２丁目２１－１８マリンテラスＮａｋａｓｏｎｅ５０１,,47,205,9012227,,,,,,,2024-09-13,1,,,,,スーパーアンダギー,0
2238,9360003014300,新規,0,2024-09-13,2024-09-13,合同会社５５５,,合同会社,沖縄県,浦添市,字経塚５５５番地１,,47,208,9012111,,,,,,,2024-09-13,1,,,,,ゴーゴーゴー,0
2259,9430003016768,新規,0,2024-09-13,2024-09-13,合同会社ＭＯＲＥプロジェクト,,合同会社,北海道,札幌市中央区,北一条東８丁目８４番地２,,01,101,0600031,,,,,,,2024-09-13,1,,,,,モアプロジェクト,0
