sequenceNumber,corporateNumber,process,correct,updateDate,changeDate,name,nameImageId,kind,prefectureName,cityName,streetNumber,addressImageId,prefectureCode,cityCode,postCode,addressOutside,addressOutsideImageId,closeDate,closeCause,successorCorporateNumber,changeCause,assignmentDate,latest,enName,enPrefectureName,enCityName,enAddressOutside,furigana,hihyoji
17,1010501012962,登記記録の閉鎖等,0,2023-07-06,2023-07-03,株式会社マルオカ,,株式会社,東京都,台東区,浅草６丁目４１番１３号,,13,106,1110032,,,2023-07-03,清算の結了等,,,2015-10-05,1,,,,,マルオカ,0
20,1010502020452,登記記録の閉鎖等,0,2023-07-06,2023-07-03,有限会社ＣＩＮＱ,,有限会社,東京都,台東区,上野４丁目７番８号アメ横センタービル２階,,13,106,1100005,,,2023-07-03,清算の結了等,,,2015-10-05,1,,,,,サンク,0
35,1011001144445,登記記録の閉鎖等,0,2023-07-06,2023-06-29,株式会社リップクリップ,,株式会社,東京都,八王子市,大横町１３番６号,,13,201,1920062,,,2023-06-29,清算の結了等,,,2021-12-08,1,,,,,リップクリップ,0
45,1011103011790,登記記録の閉鎖等,0,2023-07-06,2023-07-04,合同会社ジェイ・エス・エフ,,合同会社,東京都,新宿区,下宮比町１番４号,,13,104,1620822,,,2023-07-04,清算の結了等,,,2022-05-27,1,,,,,ジェイエスエフ,0
89,1030001136541,登記記録の閉鎖等,0,2023-07-06,2023-06-19,株式会社Ｃｏｎｎｅｃｔｉｏｎ,,株式会社,埼玉県,川口市,西青木４丁目１番２３号今井ビル１Ｆ,,11,203,3320035,,,2023-06-19,清算の結了等,,,2020-05-21,1,,,,,コネクション,0
119,1100002006298,登記記録の閉鎖等,0,2023-07-06,2023-06-29,有限会社藤澤工務店,,有限会社,長野県,長野市,豊野町豊野１３８６番地の２,,20,201,3891105,,,2023-06-29,清算の結了等,,,2015-10-05,1,,,,,フジサワコウムテン,0
156,1180001110911,登記記録の閉鎖等,0,2023-07-06,2023-06-30,ＲＴＣＣ株式会社,,株式会社,愛知県,名古屋市中区,栄２丁目６番１号,,23,106,4600008,,,2023-06-30,合併による解散等,5180001041871,令和５年６月３０日名古屋市中区東桜二丁目１８番３１号リゾートトラスト株式会社（5180001041871）に合併し解散,2015-10-05,1,,,,,アールティーシーシー,0
164,1200002011049,登記記録の閉鎖等,0,2023-07-06,2023-06-29,有限会社ナカネテキスタイル,,有限会社,岐阜県,羽島市,正木町曲利３２１番地,,21,209,5016227,,,2023-06-29,清算の結了等,,,2015-10-05,1,,,,,ナカネテキスタイル,0
166,1200005010766,登記記録の閉鎖等,0,2023-07-06,2023-06-28,特定非営利活動法人おおむらさきの会,,その他の設立登記法人,岐阜県,下呂市,萩原町古関４０１番地４,,21,220,5092505,,,2023-06-28,清算の結了等,,,2015-10-05,1,,,,,オオムラサキノカイ,0
192,1300002004793,登記記録の閉鎖等,0,2023-07-06,2023-06-27,有限会社ガジェットシステムズ,,有限会社,佐賀県,佐賀市,鍋島町大字八戸１２３０番地１５,,41,201,8400857,,,2023-06-27,清算の結了等,,,2015-10-05,1,,,,,ガジェットシステムズ,0
214,1460101001395,登記記録の閉鎖等,0,2023-07-06,2023-06-28,株式会社長谷川物産,,株式会社,北海道,帯広市,西十条南１丁目１０番地,,01,207,0800020,,,2023-06-28,清算の結了等,,,2019-03-12,1,,,,,ハセガワブッサン,0
240,2010003018061,登記記録の閉鎖等,0,2023-07-06,2023-07-04,合同会社ＥＳ４４,,合同会社,東京都,新宿区,下宮比町１番４号,,13,104,1620822,,,2023-07-04,清算の結了等,,,2015-10-05,1,,,,,イーエスヨンジュウヨン,0
245,2010005027572,登記記録の閉鎖等,0,2023-07-06,2023-06-29,一般社団法人スターク,,その他の設立登記法人,東京都,中央区,日本橋１丁目４番１号日本橋一丁目ビルディング,,13,102,1030027,,,2023-06-29,清算の結了等,,,2017-10-11,1,,,,,スターク,0
264,2010701029013,登記記録の閉鎖等,0,2023-07-06,2023-06-30,株式会社ラボラプロ,,株式会社,東京都,品川区,北品川２丁目９番１３号,,13,109,1400001,,,2023-06-30,清算の結了等,,,2015-10-05,1,,,,,ラボラプロ,0
302,2011801003386,登記記録の閉鎖等,0,2023-07-06,2023-06-19,東部ゴム機材株式会社,,株式会社,東京都,葛飾区,鎌倉１丁目３９番７号,,13,122,1250053,,,2023-06-19,清算の結了等,,,2015-10-05,1,,,,,トウブゴムキザイ,0
319,2020001124595,登記記録の閉鎖等,0,2023-07-06,2023-06-28,Ｋ２株式会社,,株式会社,神奈川県,横浜市青葉区,奈良１丁目６番４－１０７号,,14,117,2270038,,,2023-06-28,清算の結了等,,,2018-01-16,1,,,,,ケーツー,0
320,2020001135106,登記記録の閉鎖等,0,2023-07-06,2023-06-28,株式会社リノディア,,株式会社,神奈川県,横浜市鶴見区,元宮１丁目９番３９号,,14,101,2300004,,,2023-06-28,清算の結了等,,,2020-02-26,1,,,,,リノディア,0
325,2021001051945,登記記録の閉鎖等,0,2023-07-06,2023-06-29,株式会社ハートワン,,株式会社,神奈川県,鎌倉市,今泉２丁目２３番１号,,14,204,2470052,,,2023-06-29,清算の結了等,,,2015-10-05,1,,,,,ハートワン,0
358,2080003002463,登記記録の閉鎖等,0,2023-07-06,2023-06-30,合同会社Ｋｏｏｓｔ　Ｊａｐａｎ,,合同会社,静岡県,静岡市葵区,上土２丁目１３番１４号,,22,101,4200810,,,2023-06-30,清算の結了等,,,2020-08-17,1,,,,,コーストジャパン,0
404,2180001142235,登記記録の閉鎖等,0,2023-07-06,2023-06-30,テクノホーム株式会社,,株式会社,愛知県,春日井市,六軒屋町２丁目１５番地１,,23,206,4860842,,,2023-06-30,清算の結了等,,,2020-08-04,1,,,,,テクノホーム,0
407,2180002040909,登記記録の閉鎖等,0,2023-07-06,2023-06-30,有限会社キクヤ自動車,,有限会社,愛知県,名古屋市西区,二方町４番地の１,,23,104,4520817,,,2023-06-30,清算の結了等,,,2015-10-05,1,,,,,キクヤジドウシャ,0
411,2200001005141,登記記録の閉鎖等,0,2023-07-06,2023-06-30,株式会社丸美内張,,株式会社,岐阜県,岐阜市,金園町９丁目１３番地,,21,201,5008113,,,2023-06-30,清算の結了等,,,2015-10-05,1,,,,,マルミウチバリ,0
421,2200005012282,登記記録の閉鎖等,0,2023-07-06,2023-06-30,特定非営利活動法人ＨＩＲＯＹＡ基金,,その他の設立登記法人,岐阜県,多治見市,脇之島町６丁目３３番地の２１,,21,204,5070826,,,2023-06-30,清算の結了等,,,2015-10-05,1,,,,,ヒロヤキキン,0
453,2320005009795,登記記録の閉鎖等,0,2023-07-06,2023-06-29,ＤＬＨ協同組合,,その他の設立登記法人,大分県,大分市,大字国分字下河原１９４５番地の１,,44,201,8700864,,,2023-06-29,清算の結了等,,,2020-04-27,1,,,,,ディーエルエイチ,0
482,2500002013039,登記記録の閉鎖等,0,2023-07-06,2023-07-03,有限会社伊洋水産,,有限会社,愛媛県,西宇和郡伊方町,二見甲２８１２番地,,38,442,7960422,,,2023-07-03,清算の結了等,,,2015-10-05,1,,,,,,0
495,3010401100535,登記記録の閉鎖等,0,2023-07-06,2023-06-19,株式会社アットユアウイル,,株式会社,千葉県,木更津市,富士見２丁目３番３８号,,12,206,2920831,,,2023-06-19,清算の結了等,,,2015-10-05,1,,,,,アットユアウイル,0
496,3010401113248,登記記録の閉鎖等,0,2023-07-06,2023-07-03,株式会社ファイブテイルズ,,株式会社,東京都,新宿区,新小川町４番１号,,13,104,1620814,,,2023-07-03,合併による解散等,3010401139268,令和５年７月１日東京都新宿区新小川町４番１号株式会社ウィルミナ（3010401139268）に合併し解散,2015-10-05,1,,,,,ファイブテイルズ,0
510,3010501008538,登記記録の閉鎖等,0,2023-07-06,2023-07-04,株式会社東信,,株式会社,東京都,台東区,浅草橋１丁目８番１号,,13,106,1110053,,,2023-07-04,清算の結了等,,,2015-10-05,1,,,,,トウシン,0
512,3010501028932,登記記録の閉鎖等,0,2023-07-06,2023-07-04,株式会社レフォルムス・ドゥ・マリアージュ,,株式会社,東京都,台東区,台東３丁目４０番１０号,,13,106,1100016,,,2023-07-04,清算の結了等,,,2015-10-05,1,,,,,,0
514,3010502022018,登記記録の閉鎖等,0,2023-07-06,2023-07-03,有限会社シアーズ,,有限会社,東京都,台東区,東上野２丁目１０番１２号,,13,106,1100015,,,2023-07-03,清算の結了等,,,2015-10-05,1,,,,,,0
553,3011501019368,登記記録の閉鎖等,0,2023-07-06,2023-06-30,株式会社ティーズガレージ,,株式会社,東京都,北区,西ケ原１丁目５０番６号,,13,117,1140024,,,2023-06-30,清算の結了等,,,2015-10-05,1,,,,,ティーズガレージ,0
561,3011802018754,登記記録の閉鎖等,0,2023-07-06,2023-06-30,有限会社ＵＧＭ,,有限会社,東京都,足立区,梅田７丁目２２番９－３０６号,,13,121,1230851,,,2023-06-30,清算の結了等,,,2015-10-05,1,,,,,ユージーエム,0
571,3020001051228,登記記録の閉鎖等,0,2023-07-06,2023-06-29,株式会社アシッド・ビューティ・サプライ,,株式会社,神奈川県,横浜市青葉区,榎が丘３６番地４,,14,117,2270063,,,2023-06-29,清算の結了等,,,2015-10-05,1,,,,,アシッドビューティサプライ,0
574,3021001030948,登記記録の閉鎖等,0,2023-07-06,2023-06-29,株式会社ルーツ,,株式会社,神奈川県,相模原市中央区,田名塩田２丁目１６番２１－３号,,14,152,2520245,,,2023-06-29,清算の結了等,,,2015-10-05,1,,,,,ルーツ,0
575,3021001033471,登記記録の閉鎖等,0,2023-07-06,2023-06-29,株式会社相模ビルメン,,株式会社,神奈川県,小田原市,新屋２４４番地の５,,14,206,2500856,,,2023-06-29,清算の結了等,,,2015-10-05,1,,,,,,0
576,3021001045434,登記記録の閉鎖等,0,2023-07-06,2023-07-04,株式会社ミライズ,,株式会社,神奈川県,小田原市,城山２丁目１８番３４号,,14,206,2500045,,,2023-07-04,清算の結了等,,,2015-10-05,1,,,,,ミライズ,0
586,3030002082774,登記記録の閉鎖等,0,2023-07-06,2023-06-22,有限会社タク設計事務所,,有限会社,埼玉県,鴻巣市,箕田４１５９番地１１,,11,217,3650062,,,2023-06-22,清算の結了等,,,2015-10-05,1,,,,,タクセッケイジムショ,0
587,3030002094514,登記記録の閉鎖等,0,2023-07-06,2023-06-20,有限会社こだま,,有限会社,埼玉県,入間郡毛呂山町,平山１丁目１２番地２７,,11,326,3500466,,,2023-06-20,清算の結了等,,,2015-10-05,1,,,,,コダマ,0
597,3040002031573,登記記録の閉鎖等,0,2023-07-06,2023-06-16,有限会社ウィンコーポレーション,,有限会社,千葉県,佐倉市,井野１３７２番地４０,,12,212,2850855,,,2023-06-16,清算の結了等,,,2015-10-05,1,,,,,ウィンコーポレーション,0
603,3050002013810,登記記録の閉鎖等,0,2023-07-06,2023-06-28,有限会社マネージメント齋藤,,有限会社,茨城県,土浦市,神立町３６９８番地の４２,,08,203,3000013,,,2023-06-28,清算の結了等,,,2015-10-05,1,,,,,マネージメントサイトウ,0
612,3120001145721,登記記録の閉鎖等,0,2023-07-06,2023-06-28,株式会社エムエスアイ,,株式会社,大阪府,大阪市此花区,春日出北１丁目２番１６号,,27,104,5540021,,,2023-06-28,清算の結了等,,,2015-10-05,1,,,,,エムエスアイ,0
634,3140002018833,登記記録の閉鎖等,0,2023-07-06,2023-06-28,有限会社フカミハウジング,,有限会社,兵庫県,芦屋市,六麓荘町９番２０号,,28,206,6590011,,,2023-06-28,清算の結了等,,,2015-10-05,1,,,,,フカミハウジング,0
666,3250002006959,登記記録の閉鎖等,0,2023-07-06,2023-06-26,有限会社ハーモニーズ,,有限会社,山口県,宇部市,恩田町２丁目３番１号,,35,202,7550023,,,2023-06-26,清算の結了等,,,2015-10-05,1,,,,,ハーモニーズ,0
687,3310001006359,登記記録の閉鎖等,0,2023-07-06,2023-07-03,ハウステンボス観光株式会社,,株式会社,長崎県,佐世保市,ハウステンボス町１番地１,,42,202,8593243,,,2023-07-03,合併による解散等,6310001005886,令和５年７月１日長崎県佐世保市ハウステンボス町１番地１ハウステンボス株式会社（6310001005886）に合併し解散,2015-10-05,1,,,,,ハウステンボスカンコウ,0
719,3480001008297,登記記録の閉鎖等,0,2023-07-06,2023-07-03,株式会社細川屋,,株式会社,徳島県,鳴門市,鳴門町土佐泊浦字高砂１７８番地１,,36,202,7720053,,,2023-07-03,清算の結了等,,,2015-10-05,1,,,,,ホソカワヤ,0
721,3490001009170,登記記録の閉鎖等,0,2023-07-06,2023-06-28,株式会社卓央,,株式会社,高知県,高知市,神田２５３１番地２,,39,201,7808040,,,2023-06-28,清算の結了等,,,2019-01-17,1,,,,,タクオウ,0
759,4010602017627,登記記録の閉鎖等,0,2023-07-06,2023-06-29,有限会社タートル,,有限会社,東京都,江東区,亀戸２丁目２４番３号,,13,108,1360071,,,2023-06-29,清算の結了等,,,2015-10-05,1,,,,,タートル,0
779,4011101079217,登記記録の閉鎖等,0,2023-07-06,2023-07-03,野原ホールディングス株式会社,,株式会社,東京都,新宿区,新宿１丁目１番１１号,,13,104,1600022,,,2023-07-03,合併による解散等,1011101017047,令和５年７月１日東京都新宿区新宿一丁目１番１１号野原グループ株式会社（1011101017047）に合併し解散,2017-01-13,1,,,,,ノハラホールディングス,0
780,4011103009378,登記記録の閉鎖等,0,2023-07-06,2023-07-03,合同会社ジェイ・ヴイ・エム,,合同会社,東京都,新宿区,下宮比町１番４号,,13,104,1620822,,,2023-07-03,清算の結了等,,,2020-01-10,1,,,,,ジェイヴイエム,0
791,4011602001307,登記記録の閉鎖等,0,2023-07-06,2023-06-30,有限会社ウッドハウス,,有限会社,東京都,練馬区,上石神井２丁目３７番３１号,,13,120,1770044,,,2023-06-30,清算の結了等,,,2015-10-05,1,,,,,ウッドハウス,0
799,4020001068907,登記記録の閉鎖等,0,2023-07-06,2023-06-28,株式会社エステム,,株式会社,神奈川県,川崎市中原区,中丸子５３８,,14,133,2110012,,,2023-06-28,清算の結了等,,,2015-10-05,1,,,,,エステム,0
807,4020002049286,登記記録の閉鎖等,0,2023-07-06,2023-06-28,有限会社エム・シー・ジャパン,,有限会社,神奈川県,横浜市磯子区,汐見台１丁目７番地３グランノア汐見台Ａ－４１０,,14,107,2350022,,,2023-06-28,清算の結了等,,,2015-10-05,1,,,,,エムシージャパン,0
810,4020005006433,登記記録の閉鎖等,0,2023-07-06,2023-06-28,特定非営利活動法人クラブハウス二俣川,,その他の設立登記法人,神奈川県,横浜市旭区,中沢１丁目２番５号,,14,112,2410814,,,2023-06-28,清算の結了等,,,2015-10-05,1,,,,,クラブハウスフタマタガワ,0
826,4040001024651,登記記録の閉鎖等,0,2023-07-06,2023-06-20,ネクストライフ株式会社,,株式会社,千葉県,船橋市,高根台３丁目１１番１９号,,12,204,2740065,,,2023-06-20,清算の結了等,,,2015-10-05,1,,,,,ネクストライフ,0
840,4040002030789,登記記録の閉鎖等,0,2023-07-06,2023-06-16,有限会社齋藤新聞店,,有限会社,埼玉県,さいたま市北区,日進町２丁目７５３番地８,,11,102,3310823,,,2023-06-16,清算の結了等,,,2015-10-05,1,,,,,サイトウシンブンテン,0
845,4070001011382,登記記録の閉鎖等,0,2023-07-06,2023-07-03,株式会社クリエイト・キャッツ,,株式会社,群馬県,前橋市,前箱田町５４番地２,,10,201,3710835,,,2023-07-03,清算の結了等,,,2015-10-05,1,,,,,クリエイトキャッツ,0
859,4100002016410,登記記録の閉鎖等,0,2023-07-06,2023-06-29,有限会社ファーム,,有限会社,長野県,上田市,長瀬３０２３－３,,20,203,3860407,,,2023-06-29,清算の結了等,,,2015-10-05,1,,,,,ファーム,0
878,4130001045787,登記記録の閉鎖等,0,2023-07-06,2023-06-28,株式会社ジー・アール・インターナショナル,,株式会社,京都府,京都市下京区,白楽天町５０９・４階,,26,106,6008422,,,2023-06-28,清算の結了等,,,2015-10-05,1,,,,,ジーアールインターナショナル,0
898,4180002052927,登記記録の閉鎖等,0,2023-07-06,2023-06-30,有限会社ジャクソン物流,,有限会社,愛知県,名古屋市緑区,大高台１丁目１２０５番地,,23,114,4598003,,,2023-06-30,清算の結了等,,,2015-10-05,1,,,,,ジャクソンブツリュウ,0
899,4180002057307,登記記録の閉鎖等,0,2023-07-06,2023-06-30,有限会社Ｔ・ＳＴＹＬＥ東海,,有限会社,愛知県,名古屋市緑区,緑花台８１０番地,,23,114,4598005,,,2023-06-30,清算の結了等,,,2015-10-05,1,,,,,ティスタイルトウカイ,0
902,4180002088541,登記記録の閉鎖等,0,2023-07-06,2023-06-30,有限会社東海技術コンサルタント,,有限会社,愛知県,知多市,南巽が丘１丁目３８番地,00073608,23,224,4780013,,,2023-06-30,清算の結了等,,,2015-10-05,1,,,,,トウカイギジュツコンサルタント,0
912,4210001004454,登記記録の閉鎖等,0,2023-07-06,2023-06-28,株式会社吉田久米蔵商店,,株式会社,福井県,福井市,乾徳１丁目１３番２１号,,18,201,9100021,,,2023-06-28,清算の結了等,,,2015-10-05,1,,,,,ヨシダクメゾウショウテン,0
927,4290001076973,登記記録の閉鎖等,0,2023-07-06,2023-07-03,株式会社日本エアーソリューションズ,,株式会社,愛媛県,松山市,余戸東１丁目３番２２号,,38,201,7900044,,,2023-07-03,合併による解散等,3500001003551,令和５年７月１日愛媛県松山市余戸東一丁目３番７号株式会社冨士原冷機（3500001003551）に合併し解散,2017-03-06,1,,,,,ニホンエアソリューションズ,0
941,4330002021767,登記記録の閉鎖等,0,2023-07-06,2023-06-21,有限会社サン設計室,,有限会社,熊本県,荒尾市,蔵満１８９７番地１,,43,204,8640027,,,2023-06-21,清算の結了等,,,2015-10-05,1,,,,,サンセッケイシツ,0
967,4500001022773,登記記録の閉鎖等,0,2023-07-06,2023-07-03,株式会社ＮＳＴＤ,,株式会社,愛媛県,松山市,井門町１３３６番地１,,38,201,7911114,,,2023-07-03,清算の結了等,,,2020-07-08,1,,,,,エヌエスティディ,0
984,5010005030565,登記記録の閉鎖等,0,2023-07-06,2023-06-29,草加開発特定目的会社,,その他の設立登記法人,東京都,中央区,日本橋１丁目４番１号,,13,102,1030027,,,2023-06-29,清算の結了等,,,2019-08-06,1,,,,,ソウカカイハツ,0
999,5010601031842,登記記録の閉鎖等,0,2023-07-06,2023-07-04,三菱ＵＦＪローンビジネス株式会社,,株式会社,東京都,墨田区,江東橋４丁目１１番１号,,13,107,1300022,,,2023-07-04,合併による解散等,9010001016985,令和５年７月１日東京都文京区本郷三丁目１８番１４号三菱ＵＦＪローンビジネス株式会社（9010001016985）に合併し解散,2015-10-05,1,,,,,ミツビシユーエフジェイローンビジネス,0
1010,5011001102060,登記記録の閉鎖等,0,2023-07-06,2023-07-03,株式会社３ミニッツ,,株式会社,東京都,新宿区,西新宿６丁目１８番１号,,13,104,1600023,,,2023-07-03,清算の結了等,,,2015-10-05,1,,,,,スリーミニッツ,0
1027,5011205001777,登記記録の閉鎖等,0,2023-07-06,2023-07-04,一般社団法人葛西臨海・環境教育フォーラム,,その他の設立登記法人,東京都,中野区,中野２丁目３番１３号ＣＤ研究所内,,13,114,1640001,,,2023-07-04,清算の結了等,,,2015-10-05,1,,,,,カサイリンカイカンキョウキョウイクフォーラム,0
1033,5011601000028,登記記録の閉鎖等,0,2023-07-06,2023-07-03,株式会社朝日重機,,株式会社,東京都,板橋区,赤塚新町２丁目１番７号,,13,119,1750093,,,2023-07-03,清算の結了等,,,2015-10-05,1,,,,,アサヒジュウキ,0
1035,5011702017508,登記記録の閉鎖等,0,2023-07-06,2023-07-03,有限会社エスティメイク,,有限会社,東京都,江戸川区,松島４丁目９番３号,,13,123,1320031,,,2023-07-03,清算の結了等,,,2015-10-05,1,,,,,エスティメイク,0
1045,5012702006384,登記記録の閉鎖等,0,2023-07-06,2023-07-03,有限会社学園町ファーマシー,,有限会社,東京都,東久留米市,学園町１丁目１４番２号,,13,222,2030021,,,2023-07-03,清算の結了等,,,2015-10-05,1,,,,,ガクエンチョウファーマシー,0
1061,5030002110698,登記記録の閉鎖等,0,2023-07-06,2023-06-20,有限会社バックオフィス,,有限会社,埼玉県,川口市,南町１丁目６番２６号,,11,203,3320026,,,2023-06-20,清算の結了等,,,2015-10-05,1,,,,,バックオフィス,0
1072,5060001002035,登記記録の閉鎖等,0,2023-07-06,2023-06-27,サームトロン株式会社,,株式会社,栃木県,宇都宮市,元今泉１丁目１９番５号,,09,201,3210954,,,2023-06-27,清算の結了等,,,2015-10-05,1,,,,,サームトロン,0
1077,5070002007296,登記記録の閉鎖等,0,2023-07-06,2023-07-03,有限会社ワイ・ケイ企画,,有限会社,群馬県,前橋市,元総社町１丁目４番地の３,,10,201,3710846,,,2023-07-03,清算の結了等,,,2015-10-05,1,,,,,ワイケイキカク,0
1082,5070005009389,登記記録の閉鎖等,0,2023-07-06,2023-07-03,一般社団法人嬬恋鐵の郷,,その他の設立登記法人,群馬県,吾妻郡嬬恋村,大字鎌原１４１９番地,,10,425,3771524,,,2023-07-03,清算の結了等,,,2017-10-12,1,,,,,,0
1098,5120001244067,登記記録の閉鎖等,0,2023-07-06,2023-06-23,株式会社Ｌｅｓｔ,,株式会社,大阪府,寝屋川市,寝屋１丁目５番１－５０１号,,27,215,5720801,,,2023-06-23,合併による解散等,6120001218706,令和５年６月１８日大阪市西区西本町一丁目９番１６－５０２号株式会社日本プロキャスティング（6120001218706）に合併し解散,2022-02-25,1,,,,,レスト,0
1120,5130002029268,登記記録の閉鎖等,0,2023-07-06,2023-06-26,有限会社亀岡書房,,有限会社,京都府,亀岡市,古世町１丁目２番３７号,,26,206,6210815,,,2023-06-26,清算の結了等,,,2015-10-05,1,,,,,,0
1144,5180302001129,登記記録の閉鎖等,0,2023-07-06,2023-06-23,建築工房オーシマ有限会社,,有限会社,愛知県,岡崎市,矢作町字池田１番地３５３,,23,202,4440943,,,2023-06-23,清算の結了等,,,2015-10-05,1,,,,,ケンチクコウボウオーシマ,0
1151,5200002014163,登記記録の閉鎖等,0,2023-07-06,2023-07-03,有限会社ウィンビッツ,,有限会社,岐阜県,不破郡関ケ原町,大字松尾５６９番地の１,,21,362,5031541,,,2023-07-03,清算の結了等,,,2015-10-05,1,,,,,ウィンビッツ,0
1161,5240002027665,登記記録の閉鎖等,0,2023-07-06,2023-07-03,有限会社佐々木工務店,,有限会社,広島県,東広島市,西条町上三永２５８２番地,,34,212,7390022,,,2023-07-03,清算の結了等,,,2015-10-05,1,,,,,ササキコウムテン,0
1185,5290802002986,登記記録の閉鎖等,0,2023-07-06,2023-07-03,有限会社東興企画,,有限会社,福岡県,北九州市小倉南区,企救丘４丁目５番５号,,40,107,8020981,,,2023-07-03,清算の結了等,,,2015-10-05,1,,,,,トウコウキカク,0
1201,5380003004352,登記記録の閉鎖等,0,2023-07-06,2023-06-29,合同会社ＧＦＭ,,合同会社,福島県,西白河郡西郷村,大字熊倉字折口原１９５番地６,,07,461,9618091,,,2023-06-29,清算の結了等,,,2018-10-30,1,,,,,ジーエフエム,0
1222,5500001015454,登記記録の閉鎖等,0,2023-07-06,2023-07-03,東洋車輛株式会社,,株式会社,愛媛県,宇和島市,伊吹町字下井関１５６５番地の１,,38,203,7980022,,,2023-07-03,合併による解散等,3500001015448,令和５年７月１日愛媛県宇和島市伊吹町字下井関１５４７番地鶴島自動車整備株式会社（3500001015448）に合併し解散,2015-10-05,1,,,,,トウヨウシャリョウ,0
1242,6010001165240,登記記録の閉鎖等,0,2023-07-06,2023-06-30,株式会社電子債権応用技術研究所,,株式会社,東京都,品川区,上大崎２丁目１５番１９号ＭＧ目黒駅前ビルＲ９１４,,13,109,1410021,,,2023-06-30,清算の結了等,,,2015-10-05,1,,,,,デンシサイケンオウヨウギジュツケンキュウジョ,0
1248,6010003017836,登記記録の閉鎖等,0,2023-07-06,2023-07-04,合同会社ＥＳ４３,,合同会社,東京都,新宿区,下宮比町１番４号,,13,104,1620822,,,2023-07-04,清算の結了等,,,2015-10-05,1,,,,,イーエスヨンジュウサン,0
1272,6010902019453,登記記録の閉鎖等,0,2023-07-06,2023-07-03,有限会社グローバルピーイーティー,,有限会社,東京都,世田谷区,桜新町１丁目１６番８号,,13,112,1540015,,,2023-07-03,合併による解散等,7010901027282,令和５年７月１日東京都世田谷区桜新町一丁目１６番８号株式会社平和会（7010901027282）に合併し解散,2015-10-05,1,,,,,グローバルピーイーティー,0
1332,6020005014491,登記記録の閉鎖等,0,2023-07-06,2023-06-28,一般社団法人シトリン財団協会,,その他の設立登記法人,神奈川県,横浜市南区,清水ケ丘２１６番地１７,,14,105,2320007,,,2023-06-28,清算の結了等,,,2020-01-14,1,,,,,シトリンザイダンキョウカイ,0
1333,6021001011706,登記記録の閉鎖等,0,2023-07-06,2023-06-27,神奈川車輌厚木サービス株式会社,,株式会社,神奈川県,相模原市中央区,田名３２６４番地,,14,152,2520244,,,2023-06-27,清算の結了等,,,2015-10-05,1,,,,,カナガワシャリョウアツギサービス,0
1342,6030001084728,登記記録の閉鎖等,0,2023-07-06,2023-06-21,株式会社熊谷緑化建設,,株式会社,埼玉県,熊谷市,石原１１９６番地,,11,202,3600816,,,2023-06-21,清算の結了等,,,2015-10-05,1,,,,,クマガヤリョクカケンセツ,0
1348,6030002039466,登記記録の閉鎖等,0,2023-07-06,2023-06-19,有限会社宝来屋,,有限会社,埼玉県,久喜市,栗橋北２丁目４番１２号,,11,232,3491101,,,2023-06-19,清算の結了等,,,2015-10-05,1,,,,,,0
1355,6040001122528,登記記録の閉鎖等,0,2023-07-06,2023-06-16,株式会社サクマ自動車,,株式会社,千葉県,市原市,青柳２丁目１番地３３,,12,219,2990102,,,2023-06-16,清算の結了等,,,2022-03-07,1,,,,,サクマジドウシャ,0
1365,6040003013824,登記記録の閉鎖等,0,2023-07-06,2023-06-16,ＭＣＴ　ＦＩＴ合同会社,,合同会社,千葉県,千葉市中央区,新千葉３丁目１８番６号,,12,101,2600031,,,2023-06-16,清算の結了等,,,2019-08-09,1,,,,,エムシーティーフィット,0
1378,6080402013751,登記記録の閉鎖等,0,2023-07-06,2023-06-30,有限会社エスペランサ・ジャパン,,有限会社,静岡県,湖西市,新所字沢ノ上４９６２番地の１０,,22,221,4310421,,,2023-06-30,清算の結了等,,,2015-10-05,1,,,,,エスペランサジャパン,0
1415,6160005000164,登記記録の閉鎖等,0,2023-07-06,2023-06-29,一般財団法人滋賀県教育会館,,その他の設立登記法人,滋賀県,大津市,梅林１丁目４番１５号,,25,201,5200051,,,2023-06-29,清算の結了等,,,2015-10-05,1,,,,,シガケンキョウイクカイカン,0
1437,6240002027747,登記記録の閉鎖等,0,2023-07-06,2023-06-26,有限会社松大,,有限会社,広島県,東広島市,黒瀬町兼沢１２１４番地の９,,34,212,7392731,,,2023-06-26,清算の結了等,,,2015-10-05,1,,,,,マツダイ,0
1446,6290002024260,登記記録の閉鎖等,0,2023-07-06,2023-06-29,有限会社アンド・ユー,,有限会社,福岡県,糟屋郡篠栗町,大字高田３８３番地１,,40,342,8112401,,,2023-06-29,清算の結了等,,,2015-10-05,1,,,,,アンドユー,0
1455,6320001013483,登記記録の閉鎖等,0,2023-07-06,2023-07-03,株式会社Ｊ‐ＲＯＡＤ,,株式会社,大分県,別府市,幸町１１２０番地の２,,44,202,8740907,,,2023-07-03,清算の結了等,,,2015-10-05,1,,,,,ジェィロード,0
1474,6430002010080,登記記録の閉鎖等,0,2023-07-06,2023-06-22,有限会社シヤルフエーフ商会,,有限会社,北海道,札幌市中央区,北三条西１７丁目２番地,,01,101,0600003,,,2023-06-22,清算の結了等,,,2015-10-05,1,,,,,シャルフェーフショウカイ,0
1513,7010401131361,登記記録の閉鎖等,0,2023-07-06,2023-06-21,セキュアエイジ株式会社,,株式会社,東京都,港区,虎ノ門１丁目１６番６号,,13,103,1050001,,,2023-06-21,清算の結了等,,,2017-05-15,1,,,,,セキュアエイジ,0
1530,7010902014833,登記記録の閉鎖等,0,2023-07-06,2023-07-03,有限会社美の輪寿司,,有限会社,東京都,世田谷区,世田谷４丁目１番１号,,13,112,1540017,,,2023-07-03,清算の結了等,,,2015-10-05,1,,,,,ミノワズシ,0
1533,7011001029806,登記記録の閉鎖等,0,2023-07-06,2023-06-30,株式会社ジャッキー・チェンインターナショナルファンクラブ,,株式会社,東京都,品川区,西五反田２丁目２４番７号シティコープ西五反田１００１,,13,109,1410031,,,2023-06-30,清算の結了等,,,2015-10-05,1,,,,,ジャッキーチェンインターナショナルファンクラブ,0
1541,7011101011309,登記記録の閉鎖等,0,2023-07-06,2023-07-03,株式会社セブンビル,,株式会社,東京都,新宿区,高田馬場３丁目１２番５号,,13,104,1690075,,,2023-07-03,清算の結了等,,,2015-10-05,1,,,,,セブンビル,0
1542,7011101069330,登記記録の閉鎖等,0,2023-07-06,2023-07-03,野原産業エンジニアリング株式会社,,株式会社,東京都,新宿区,新宿１丁目１番１１号,,13,104,1600022,,,2023-07-03,合併による解散等,1011101017047,令和５年７月１日東京都新宿区新宿一丁目１番１１号野原グループ株式会社（1011101017047）に合併し解散,2015-10-05,1,,,,,ノハラサンギョウエンジニアリング,0
1546,7011202000227,登記記録の閉鎖等,0,2023-07-06,2023-07-04,有限会社あけぼの荘,,有限会社,東京都,中野区,上高田１丁目３９番２３号,,13,114,1640002,,,2023-07-04,清算の結了等,,,2015-10-05,1,,,,,アケボノソウ,0
1559,7012802005813,登記記録の閉鎖等,0,2023-07-06,2023-06-28,有限会社関田牛乳店,,有限会社,東京都,東大和市,狭山４丁目１４４８番地,,13,220,2070003,,,2023-06-28,清算の結了等,,,2015-10-05,1,,,,,セキタギュウニュウテン,0
1563,7013401006582,登記記録の閉鎖等,0,2023-07-06,2023-07-03,株式会社レイ・ソリューション・サービス,,株式会社,東京都,多摩市,関戸１丁目１番地の５ザ・スクエアＢ－１１１５,,13,224,2060011,,,2023-07-03,清算の結了等,,,2015-10-05,1,,,,,レイソリューションサービス,0
1564,7020001049747,登記記録の閉鎖等,0,2023-07-06,2023-06-28,株式会社トキワ住設,,株式会社,神奈川県,横浜市旭区,三反田町１５１番地,,14,112,2410013,,,2023-06-28,清算の結了等,,,2015-10-05,1,,,,,,0
1576,7021002057276,登記記録の閉鎖等,0,2023-07-06,2023-06-29,有限会社神奈川パール,,有限会社,神奈川県,平塚市,公所３２６番地の１２,,14,203,2540906,,,2023-06-29,清算の結了等,,,2015-10-05,1,,,,,,0
1589,7040001049464,登記記録の閉鎖等,0,2023-07-06,2023-06-16,エコエアー株式会社,,株式会社,千葉県,佐倉市,生谷１５６９番地２０,,12,212,2850836,,,2023-06-16,清算の結了等,,,2015-10-05,1,,,,,エコエアー,0
1607,7070002028423,登記記録の閉鎖等,0,2023-07-06,2023-06-30,有限会社大竹建築社,00025817,有限会社,群馬県,太田市,大字龍舞２１６３,,10,205,3730000,,,2023-06-30,清算の結了等,,,2015-10-05,1,,,,,オオタケケンチクシャ,0
1647,7130002032988,登記記録の閉鎖等,0,2023-07-06,2023-06-12,有限会社朝暉酒販,,有限会社,京都府,福知山市,広峯町７０番地の２,,26,201,6200945,,,2023-06-12,清算の結了等,,,2015-10-05,1,,,,,アサヒシュハン,0
1660,7180001094439,登記記録の閉鎖等,0,2023-07-06,2023-06-30,株式会社東海観光東海サービス,,株式会社,愛知県,東海市,荒尾町中切８４番地,,23,222,4760003,,,2023-06-30,清算の結了等,,,2015-10-05,1,,,,,トウカイカンコウトウカイサービス,0
1665,7180002011293,登記記録の閉鎖等,0,2023-07-06,2023-06-30,有限会社二葉商会,,有限会社,愛知県,名古屋市北区,大曽根１丁目５番１０号,,23,103,4620825,,,2023-06-30,清算の結了等,,,2015-10-05,1,,,,,フタバショウカイ,0
1674,7200002008832,登記記録の閉鎖等,0,2023-07-06,2023-06-30,有限会社ジン,,有限会社,岐阜県,岐阜市,柳津町流通センター１丁目１５番地の３,,21,201,5016123,,,2023-06-30,合併による解散等,7200001008081,令和５年６月３０日岐阜県岐阜市柳津町流通センター一丁目１５番地の３株式会社水甚（7200001008081）に合併し解散,2015-10-05,1,,,,,ジン,0
1679,7230002003046,登記記録の閉鎖等,0,2023-07-06,2023-06-30,有限会社富南商会,,有限会社,富山県,富山市,開発１２８番地,,16,201,9398137,,,2023-06-30,清算の結了等,,,2015-10-05,1,,,,,フナンショウカイ,0
1774,8011101059339,登記記録の閉鎖等,0,2023-07-06,2023-07-03,株式会社ウォーターマークホテル長崎,,株式会社,長崎県,佐世保市,ハウステンボス町７番９号,,42,202,8593243,,,2023-07-03,合併による解散等,6310001005886,令和５年７月１日長崎県佐世保市ハウステンボス町１番地１ハウステンボス株式会社（6310001005886）に合併し解散,2015-10-05,1,,,,,ウォーターマークホテルナガサキ,0
1775,8011101079080,登記記録の閉鎖等,0,2023-07-06,2023-07-03,野原住環境株式会社,,株式会社,東京都,新宿区,新宿１丁目１番１１号,,13,104,1600022,,,2023-07-03,合併による解散等,1011101017047,令和５年７月１日東京都新宿区新宿一丁目１番１１号野原グループ株式会社（1011101017047）に合併し解散,2016-12-22,1,,,,,ノハラジュウカンキョウ,0
1787,8011305001518,登記記録の閉鎖等,0,2023-07-06,2023-07-03,特定非営利活動法人わくわくネット,,その他の設立登記法人,東京都,杉並区,阿佐谷北５丁目１５番１号,,13,115,1660001,,,2023-07-03,清算の結了等,,,2015-10-05,1,,,,,ワクワクネット,0
1791,8011501010677,登記記録の閉鎖等,0,2023-07-06,2023-06-30,株式会社ＰＡＰＩＯＮＥＴ,,株式会社,東京都,荒川区,西日暮里３丁目１２番７号,,13,118,1160013,,,2023-06-30,清算の結了等,,,2015-10-05,1,,,,,パピオネット,0
1797,8011701020245,登記記録の閉鎖等,0,2023-07-06,2023-07-03,株式会社三高工業,00108021,株式会社,東京都,江戸川区,東小松川１丁目７番５号,,13,123,1320033,,,2023-07-03,清算の結了等,,,2016-10-06,1,,,,,ミタカコウギョウ,0
1823,8021001009896,登記記録の閉鎖等,0,2023-07-06,2023-06-29,日本プロスパー株式会社,,株式会社,神奈川県,鎌倉市,七里ガ浜東５丁目９番１４号,,14,204,2480025,,,2023-06-29,清算の結了等,,,2015-10-05,1,,,,,ニホンプロスパー,0
1831,8030001063886,登記記録の閉鎖等,0,2023-07-06,2023-06-16,株式会社建通,,株式会社,埼玉県,越谷市,赤山町４丁目９番１号,,11,222,3430807,,,2023-06-16,清算の結了等,,,2015-10-05,1,,,,,ケンツウ,0
1862,8080401005855,登記記録の閉鎖等,0,2023-07-06,2023-06-30,株式会社旅館しまや,,株式会社,静岡県,浜松市中区,鴨江１丁目３５番５号,,22,131,4328023,,,2023-06-30,清算の結了等,,,2015-10-05,1,,,,,リョカンシマヤ,0
1869,8120001017429,登記記録の閉鎖等,0,2023-07-06,2023-06-29,光亜化学工業株式会社,,株式会社,大阪府,大阪市生野区,田島４丁目１１番３３号,,27,116,5440011,,,2023-06-29,清算の結了等,,,2015-10-05,1,,,,,,0
1901,8150001007781,登記記録の閉鎖等,0,2023-07-06,2023-06-30,株式会社ファーマテックソリューションズジャパン,,株式会社,岡山県,岡山市東区,久保１３３番地３,,33,103,7048102,,,2023-06-30,清算の結了等,,,2015-10-05,1,,,,,ファーマテックソリューションズジャパン,0
1946,8430002066930,登記記録の閉鎖等,0,2023-07-06,2023-06-27,有限会社さとう自動車販売,,有限会社,北海道,日高郡新ひだか町,（北海道静内郡静内町山手町四丁目４番７号）,,01,610,0560000,,,2023-06-27,清算の結了等,,,2023-04-12,1,,,,,サトウジドウシャハンバイ,0
1975,9010005023945,登記記録の閉鎖等,0,2023-07-06,2023-06-30,一般社団法人ワイイーエス,,その他の設立登記法人,東京都,千代田区,飯田橋４丁目７番１号結和税理士法人内,,13,101,1020072,,,2023-06-30,清算の結了等,,,2015-10-05,1,,,,,ワイイーエス,0
1992,9010502004522,登記記録の閉鎖等,0,2023-07-06,2023-07-04,有限会社三富,,有限会社,東京都,台東区,入谷１丁目６番１号,,13,106,1100013,,,2023-07-04,清算の結了等,,,2015-10-05,1,,,,,サントミ,0
1993,9010502019974,登記記録の閉鎖等,0,2023-07-06,2023-07-03,有限会社佐藤順,,有限会社,東京都,台東区,根岸４丁目１４番１１号,,13,106,1100003,,,2023-07-03,清算の結了等,,,2015-10-05,1,,,,,,0
2015,9011103011791,登記記録の閉鎖等,0,2023-07-06,2023-07-04,合同会社ジェイ・エス・ジー,,合同会社,東京都,新宿区,下宮比町１番４号,,13,104,1620822,,,2023-07-04,清算の結了等,,,2022-05-27,1,,,,,ジェイエスジー,0
2043,9030002005341,登記記録の閉鎖等,0,2023-07-06,2023-06-12,有限会社三榮,,有限会社,埼玉県,さいたま市浦和区,高砂２丁目２番２１号,,11,107,3300063,,,2023-06-12,清算の結了等,,,2015-10-05,1,,,,,サンエイ,0
2063,9080102001260,登記記録の閉鎖等,0,2023-07-06,2023-06-30,有限会社香陵エンジニアリング,,有限会社,静岡県,沼津市,西沢田２００番地の１,,22,203,4100007,,,2023-06-30,清算の結了等,,,2015-10-05,1,,,,,コウリョウエンジニアリング,0
2070,9100001023840,登記記録の閉鎖等,0,2023-07-06,2023-07-03,株式会社Ａ　Ｐ　Ｉ,,株式会社,東京都,大田区,南千束３丁目２２番１５号,,13,111,1450063,,,2023-07-03,清算の結了等,,,2015-10-05,1,,,,,エーピーアイ,0
2075,9120001244518,登記記録の閉鎖等,0,2023-07-06,2023-06-26,Ｇサービス株式会社,,株式会社,大阪府,大阪市中央区,南船場３丁目７番２７号ＮＬＣ心斎橋ビル４Ｈ号室,,27,128,5420081,,,2023-06-26,清算の結了等,,,2022-03-17,1,,,,,ジーサービス,0
2083,9120101030966,登記記録の閉鎖等,0,2023-07-06,2023-07-03,田中正礦油株式会社,00032355,株式会社,大阪府,富田林市,大字新堂２０７７番地,,27,214,5840091,,,2023-07-03,清算の結了等,,,2015-10-05,1,,,,,タナカマサコウユ,0
2103,9150005003826,登記記録の閉鎖等,0,2023-07-06,2023-07-03,初瀬川水域漁業協同組合,,その他の設立登記法人,奈良県,桜井市,大字初瀬９００番地,,29,206,6330112,,,2023-07-03,清算の結了等,,,2015-10-05,1,,,,,ハセガワスイイキ,0
2142,9290001098393,登記記録の閉鎖等,0,2023-07-06,2023-06-28,株式会社建匠,,株式会社,福岡県,福岡市南区,清水３丁目１６番１２号,,40,134,8150031,,,2023-06-28,清算の結了等,,,2022-07-29,1,,,,,ケンショウ,0
2159,9340005008459,登記記録の閉鎖等,0,2023-07-06,2023-06-30,特定非営利活動法人こいやま八重の会,,その他の設立登記法人,鹿児島県,鹿児島市,花尾町１５７１番地４,,46,201,8911101,,,2023-06-30,清算の結了等,,,2015-10-05,1,,,,,コイヤマヤエノカイ,0
2185,9500002003330,登記記録の閉鎖等,0,2023-07-06,2023-07-04,有限会社新星,,有限会社,愛媛県,松山市,三番町１丁目１番地７,,38,201,7900003,,,2023-07-04,清算の結了等,,,2015-10-05,1,,,,,シンセイ,0
