sequenceNumber,corporateNumber,process,correct,updateDate,changeDate,name,nameImageId,kind,prefectureName,cityName,streetNumber,addressImageId,prefectureCode,cityCode,postCode,addressOutside,addressOutsideImageId,closeDate,closeCause,successorCorporateNumber,changeCause,assignmentDate,latest,enName,enPrefectureName,enCityName,enAddressOutside,furigana,hihyoji
15,1010005036475,新規,0,2023-04-12,2023-04-12,一般社団法人フリーランスベネフィット,,その他の設立登記法人,東京都,中央区,日本橋室町１丁目１１番１２号日本橋水野ビル７階,,13,102,1030022,,,,,,,2023-04-12,1,,,,,フリーランスベネフィット,0
16,1010005036483,新規,0,2023-04-12,2023-04-12,一般社団法人ビジネスアナリティクス研究所,,その他の設立登記法人,東京都,千代田区,九段北４丁目３番２６号,,13,101,1020073,,,,,,,2023-04-12,1,,,,,ビジネスアナリティクスケンキュウジョ,0
17,1010101015580,新規,0,2023-04-12,2023-04-12,株式会社ＣＨＩＬＩＤＯＧ,,株式会社,東京都,八王子市,小宮町７２４番地５,,13,201,1920031,,,,,,,2023-04-12,1,,,,,チリドッグ,0
18,1010105002212,新規,0,2023-04-12,2023-04-12,一般社団法人Ｚｅｕｓ　Ａｃａｄｅｍｙ,,その他の設立登記法人,東京都,八王子市,北野町８３番地７,,13,201,1920906,,,,,,,2023-04-12,1,,,,,ゼウスアカデミー,0
21,1010401173426,新規,0,2023-04-12,2023-04-12,スノーマン株式会社,,株式会社,東京都,港区,新橋２丁目２０－１５新橋駅前ビル１号館４階,,13,103,1050004,,,,,,,2023-04-12,1,,,,,スノーマン,0
22,1010401173616,新規,0,2023-04-12,2023-04-12,ＣｏａＬａｂ株式会社,,株式会社,東京都,港区,麻布十番２丁目２０番７－６０４号,,13,103,1060045,,,,,,,2023-04-12,1,,,,,コアラボ,0
23,1010401173640,新規,0,2023-04-12,2023-04-12,株式会社ｃｒｅｅｄ　ａｎｄ　ｒｉｓｅ,,株式会社,東京都,港区,六本木５丁目１２番１９号クレセンスビル六本木３０２,,13,103,1060032,,,,,,,2023-04-12,1,,,,,クリードアンドライズ,0
24,1010401173649,新規,0,2023-04-12,2023-04-12,株式会社ＨＴＭ,,株式会社,東京都,港区,東新橋２丁目１０－７中銀第２新橋マンシオン７０１室,,13,103,1050021,,,,,,,2023-04-12,1,,,,,エィチティーエム,0
25,1010401173723,新規,0,2023-04-12,2023-04-12,株式会社ＢＫＺ,,株式会社,東京都,港区,浜松町２丁目２番１５号浜松町ダイヤビル２Ｆ,,13,103,1050013,,,,,,,2023-04-12,1,,,,,ビーケーゼット,0
27,1010403029865,新規,0,2023-04-12,2023-04-12,東武アート合同会社,,合同会社,東京都,港区,浜松町２丁目２－１５,,13,103,1050013,,,,,,,2023-04-12,1,,,,,トウブアート,0
28,1010403029881,新規,0,2023-04-12,2023-04-12,合同会社ＧＵＲＵ,,合同会社,東京都,港区,六本木４丁目８番５号和幸ビル２階,,13,103,1060032,,,,,,,2023-04-12,1,,,,,グル,0
30,1010501050194,新規,0,2023-04-12,2023-04-12,株式会社ＩＣＯＮ,,株式会社,東京都,台東区,上野６丁目８番１９号,,13,106,1100005,,,,,,,2023-04-12,1,,,,,アイコン,0
31,1010501050269,新規,0,2023-04-12,2023-04-12,株式会社ＥＲＰ工業,,株式会社,東京都,台東区,台東４丁目３１番１ＡＬビル３０１号,,13,106,1100016,,,,,,,2023-04-12,1,,,,,イーアールピーコウギョウ,0
34,1010701044104,新規,0,2023-04-12,2023-04-12,マーク株式会社,,株式会社,東京都,品川区,大井１丁目４８番３号,,13,109,1400014,,,,,,,2023-04-12,1,,,,,マーク,0
35,1010703006655,新規,0,2023-04-12,2023-04-12,ＭＡＲＣＩＡ合同会社,,合同会社,東京都,品川区,上大崎２丁目２４番１９号,,13,109,1410021,,,,,,,2023-04-12,1,,,,,マルシア,0
36,1010801033849,新規,0,2023-04-12,2023-04-12,株式会社きたやま,,株式会社,東京都,大田区,西糀谷１丁目３０番１０号パールコート糀谷パート１（１０１）,,13,111,1440034,,,,,,,2023-04-12,1,,,,,キタヤマ,0
40,1011003016634,新規,0,2023-04-12,2023-04-12,オニオンガム合同会社,,合同会社,東京都,渋谷区,道玄坂１丁目１０番８号渋谷道玄坂東急ビル２Ｆ－Ｃ,,13,113,1500043,,,,,,,2023-04-12,1,,,,,オニオンガム,0
48,1011301028612,新規,0,2023-04-12,2023-04-12,株式会社ＯＳＮマリンパートナーズ,,株式会社,東京都,杉並区,永福３丁目３２番２号,,13,115,1680064,,,,,,,2023-04-12,1,,,,,オーエスエヌマリンパートナーズ,0
54,1011601026720,新規,0,2023-04-12,2023-04-12,株式会社ＦＬＩＣＫ,,株式会社,東京都,練馬区,西大泉５丁目１６番３９号,,13,120,1780065,,,,,,,2023-04-12,1,,,,,フリック,0
56,1011803005605,新規,0,2023-04-12,2023-04-12,太陽光発電所メンテナンス合同会社,,合同会社,東京都,足立区,西伊興２丁目５番１１号１Ｆ,,13,121,1210824,,,,,,,2023-04-12,1,,,,,タイヨウコウハツデンショメンテナンス,0
57,1012301013397,新規,0,2023-04-12,2023-04-12,東京ステージ株式会社,,株式会社,東京都,町田市,真光寺３丁目２８番地１４,,13,209,1950057,,,,,,,2023-04-12,1,,,,,トウキョウステージ,0
58,1012401040382,新規,0,2023-04-12,2023-04-12,株式会社ＲＩＴＯ,,株式会社,東京都,狛江市,岩戸南３丁目７番２２号,,13,219,2010005,,,,,,,2023-04-12,1,,,,,リトー,0
63,1013301050579,新規,0,2023-04-12,2023-04-12,株式会社ファイブエー,,株式会社,東京都,豊島区,南大塚１丁目６０番２０号,,13,116,1700005,,,,,,,2023-04-12,1,,,,,ファイブエー,0
70,1020001151087,新規,0,2023-04-12,2023-04-12,株式会社藤井建装,,株式会社,神奈川県,横浜市磯子区,磯子３丁目１４番５４号,,14,107,2350016,,,,,,,2023-04-12,1,,,,,フジイケンソウ,0
71,1020001151104,新規,0,2023-04-12,2023-04-12,株式会社ハウスソリューション,,株式会社,神奈川県,横浜市中区,大平町７４番地１１－１０５号,,14,104,2310859,,,,,,,2023-04-12,1,,,,,ハウスソリューション,0
78,1020003023722,新規,0,2023-04-12,2023-04-12,合同会社なかむら,,合同会社,神奈川県,川崎市中原区,上小田中１丁目３７番２－２１７号,,14,133,2110053,,,,,,,2023-04-12,1,,,,,ナカムラ,0
81,1021001078675,新規,0,2023-04-12,2023-04-12,ＳＡＧＡＭＩ　ＴＡＸＩ株式会社,,株式会社,神奈川県,横須賀市,衣笠町４５番１９号,,14,201,2380025,,,,,,,2023-04-12,1,,,,,サガミタクシー,0
90,1030001153297,新規,0,2023-04-12,2023-04-12,株式会社堀川商店,,株式会社,埼玉県,さいたま市桜区,桜田３丁目３番１号,,11,106,3380833,,,,,,,2023-04-12,1,,,,,ホリカワショウテン,0
91,1030001153306,新規,0,2023-04-12,2023-04-12,ＨＬＴホールディングス株式会社,,株式会社,埼玉県,川口市,本町３丁目２番２５－８０７号,,11,203,3320012,,,,,,,2023-04-12,1,,,,,エイチエルティーホールディングス,0
92,1030001153322,新規,0,2023-04-12,2023-04-12,ＤＳＬ株式会社,,株式会社,埼玉県,川口市,本町３丁目６－１３サンライズハイツ２０１,,11,203,3320012,,,,,,,2023-04-12,1,,,,,ディーエスエル,0
93,1030001153330,新規,0,2023-04-12,2023-04-12,エムクレスト株式会社,,株式会社,埼玉県,さいたま市西区,大字西遊馬４５５番地５,,11,101,3310061,,,,,,,2023-04-12,1,,,,,エムクレスト,0
94,1030001153388,新規,0,2023-04-12,2023-04-12,株式会社松友エステート,,株式会社,埼玉県,さいたま市大宮区,下町２丁目４９番地,,11,103,3300844,,,,,,,2023-04-12,1,,,,,マツトモエステート,0
98,1030003021543,新規,0,2023-04-12,2023-04-12,合同会社ダンケン,,合同会社,埼玉県,川越市,大字寺尾８８８番地７,,11,201,3501141,,,,,,,2023-04-12,1,,,,,ダンケン,0
99,1030003021568,新規,0,2023-04-12,2023-04-12,ＨＥＴＥＣＨ合同会社,,合同会社,埼玉県,さいたま市浦和区,常盤１０丁目１６番１３号,,11,107,3300061,,,,,,,2023-04-12,1,,,,,ヘテック,0
103,1040001127903,新規,0,2023-04-12,2023-04-12,株式会社メタモルフォーセス,,株式会社,千葉県,大網白里市,季美の森南５丁目３番地５,,12,239,2993241,,,,,,,2023-04-12,1,,,,,メタモルフォーセス,0
106,1040003022383,新規,0,2023-04-12,2023-04-12,ナギサポート合同会社,,合同会社,千葉県,千葉市美浜区,磯辺５丁目１０番１－５０８号,,12,106,2610012,,,,,,,2023-04-12,1,,,,,ナギサポート,0
107,1040005021929,新規,0,2023-04-12,2023-04-12,アレイマジャパン労働組合,,その他の設立登記法人,千葉県,佐倉市,大作２丁目１１番３号,,12,212,2850802,,,,,,,2023-04-12,1,,,,,アレイマジャパン,0
108,1040005021961,新規,0,2023-04-12,2023-04-12,一般社団法人スマイルこども食堂浦安,,その他の設立登記法人,千葉県,浦安市,富岡２丁目２番１３－５０４号,,12,227,2790021,,,,,,,2023-04-12,1,,,,,スマイルコドモショクドウウラヤス,0
115,1070001040310,新規,0,2023-04-12,2023-04-12,株式会社七二八精機,,株式会社,群馬県,高崎市,吉井町多比良４８１番地３,,10,202,3702115,,,,,,,2023-04-12,1,,,,,ナニワセイキ,0
119,1070003004899,新規,0,2023-04-12,2023-04-12,合同会社マッスルリローデッド,,合同会社,群馬県,前橋市,住吉町２丁目８番１号,,10,201,3710021,,,,,,,2023-04-12,1,,,,,マッスルリローデッド,0
130,1090001018065,新規,0,2023-04-12,2023-04-12,株式会社ＭＳ,,株式会社,山梨県,甲州市,勝沼町勝沼８３２番地３,,19,213,4091316,,,,,,,2023-04-12,1,,,,,エムエス,0
134,1100001036313,新規,0,2023-04-12,2023-04-12,株式会社ｕｎｉｃｏ,,株式会社,長野県,長野市,西和田２丁目１４番１号,,20,201,3810037,,,,,,,2023-04-12,1,,,,,ユニコ,0
137,1110005016913,新規,0,2023-04-12,2023-04-12,一般社団法人ＭｕｒａＳａｋｉ,,その他の設立登記法人,新潟県,新発田市,板山１９９３番地,,15,206,9570344,,,,,,,2023-04-12,1,,,,,ムラサキ,0
144,1120001253889,新規,0,2023-04-12,2023-04-12,株式会社ＴＫＳ,,株式会社,大阪府,大阪市天王寺区,筆ケ崎町６番１２－１４０４号,,27,109,5430027,,,,,,,2023-04-12,1,,,,,ティーケイエス,0
145,1120001253897,新規,0,2023-04-12,2023-04-12,株式会社ＯＳ　ＣＲＡＦＴ,,株式会社,大阪府,大阪市東淀川区,瑞光５丁目８番３８号,,27,114,5330005,,,,,,,2023-04-12,1,,,,,オーエスクラフト,0
146,1120001253914,新規,0,2023-04-12,2023-04-12,株式会社ＲＥＣＲＥＡＲ,,株式会社,大阪府,枚方市,新町２丁目１番１２号１Ｆ,,27,210,5731191,,,,,,,2023-04-12,1,,,,,リクレア,0
147,1120001253930,新規,0,2023-04-12,2023-04-12,エコワンダー株式会社,,株式会社,大阪府,大阪市住吉区,杉本１丁目５番２２－３０１号,,27,120,5580022,,,,,,,2023-04-12,1,,,,,エコワンダー,0
150,1120101067330,新規,0,2023-04-12,2023-04-12,株式会社ａｉｚｕ,,株式会社,大阪府,岸和田市,大町４丁目２５番４－４１０号,,27,202,5960812,,,,,,,2023-04-12,1,,,,,アイズ,0
153,1120901047382,新規,0,2023-04-12,2023-04-12,株式会社シーカーユニット,,株式会社,大阪府,吹田市,五月が丘北１番１７－５０３号,,27,205,5650834,,,,,,,2023-04-12,1,,,,,シーカーユニット,0
164,1130001074054,新規,0,2023-04-12,2023-04-12,幸中株式会社,,株式会社,京都府,福知山市,字長田１３０６番地の２,,26,201,6200000,,,,,,,2023-04-12,1,,,,,コウア,0
173,1140005026538,新規,0,2023-04-12,2023-04-12,一般社団法人ＢｅａｕｔｙＰｌｕｓ,,その他の設立登記法人,兵庫県,姫路市,広峰２丁目１－８,,28,201,6700882,,,,,,,2023-04-12,1,,,,,ビューティープラス,0
183,1180001155709,新規,0,2023-04-12,2023-04-12,株式会社Ｍ＆Ｍソリューションズ,,株式会社,愛知県,春日井市,松河戸町字段下１４００番地,,23,206,4860932,,,,,,,2023-04-12,1,,,,,エムアンドエムソリューションズ,0
184,1180001155799,新規,0,2023-04-12,2023-04-12,株式会社プラセル,,株式会社,愛知県,名古屋市南区,豊１丁目１６番２７号,,23,112,4570863,,,,,,,2023-04-12,1,,,,,プラセル,0
185,1180001155816,新規,0,2023-04-12,2023-04-12,株式会社エスポワール,,株式会社,愛知県,名古屋市瑞穂区,駒場町２丁目１２－４,,23,108,4670807,,,,,,,2023-04-12,1,,,,,エスポワール,0
186,1180001155849,新規,0,2023-04-12,2023-04-12,株式会社石川設計,,株式会社,愛知県,半田市,新池町２丁目２０１番地６,,23,205,4750078,,,,,,,2023-04-12,1,,,,,イシカワセッケイ,0
191,1180301037284,新規,0,2023-04-12,2023-04-12,株式会社とよた園芸,,株式会社,愛知県,豊田市,若林東町上り戸２４番地２,,23,211,4730914,,,,,,,2023-04-12,1,,,,,トヨタエンゲイ,0
192,1180301037292,新規,0,2023-04-12,2023-04-12,株式会社丸弘ペットセンター,,株式会社,愛知県,西尾市,米野町松葉内１５番地,,23,213,4450005,,,,,,,2023-04-12,1,,,,,マルコペットセンター,0
200,1220003003497,新規,0,2023-04-12,2023-04-12,Ｋ＆Ｈ合同会社,,合同会社,石川県,金沢市,片町１丁目８‐２０ＧＡＺＡ片町２Ｆ,,17,201,9200981,,,,,,,2023-04-12,1,,,,,ケーアンドエイチ,0
201,1230001019783,新規,0,2023-04-12,2023-04-12,株式会社天狗商会,,株式会社,富山県,富山市,中島３丁目９番４１号,,16,201,9300801,,,,,,,2023-04-12,1,,,,,テングショウカイ,0
210,1240001061339,新規,0,2023-04-12,2023-04-12,株式会社ＫＯＩ,,株式会社,広島県,広島市西区,己斐本町３丁目１１番１５号７Ｆ,,34,104,7330812,,,,,,,2023-04-12,1,,,,,コイ,0
211,1240001061347,新規,0,2023-04-12,2023-04-12,株式会社幸栄工業,,株式会社,広島県,福山市,松浜町２丁目２番７号,,34,207,7200802,,,,,,,2023-04-12,1,,,,,コウエイコウギョウ,0
212,1240001061355,新規,0,2023-04-12,2023-04-12,株式会社ビルックスコミュニティ,,株式会社,広島県,広島市西区,井口台１丁目１２番２５‐２０３号,,34,104,7330844,,,,,,,2023-04-12,1,,,,,ビルックスコミュニティ,0
215,1240005015555,新規,0,2023-04-12,2023-04-12,医療法人社団仁尾会,,その他の設立登記法人,広島県,尾道市,高須町東新涯二丁目４７７３番地３,,34,205,7290141,,,,,,,2023-04-12,1,,,,,ジンオカイ,0
216,1260001037849,新規,0,2023-04-12,2023-04-12,ＪＡＮ　ＴＲＡＤＩＮＧ株式会社,,株式会社,岡山県,岡山市北区,津島東２丁目９‐２１,,33,101,7000081,,,,,,,2023-04-12,1,,,,,ジャントレーディング,0
220,1290001101148,新規,0,2023-04-12,2023-04-12,株式会社エール,,株式会社,福岡県,大牟田市,樋口町８番地９,,40,202,8360055,,,,,,,2023-04-12,1,,,,,エール,0
221,1290001101156,新規,0,2023-04-12,2023-04-12,株式会社Ｚグループ,,株式会社,福岡県,福岡市東区,多の津４丁目１１番１９号,,40,131,8130034,,,,,,,2023-04-12,1,,,,,ゼットグループ,0
222,1290001101172,新規,0,2023-04-12,2023-04-12,株式会社Ｃｏｌｔｉｖａｒｅ,,株式会社,福岡県,大牟田市,本町３丁目５番地１,,40,202,8360046,,,,,,,2023-04-12,1,,,,,コルティヴァーレ,0
224,1290005018999,新規,0,2023-04-12,2023-04-12,一般社団法人生涯けんこう,,その他の設立登記法人,福岡県,福岡市博多区,那珂３丁目１１番６号ティセブランカ筑紫通り５０１号室,,40,132,8120893,,,,,,,2023-04-12,1,,,,,ショウガイケンコウ,0
234,1320001019675,新規,0,2023-04-12,2023-04-12,株式会社Ｆシステム,,株式会社,大分県,大分市,大字田尻５８３番地４,,44,201,8701143,,,,,,,2023-04-12,1,,,,,エフシステム,0
235,1320001019683,新規,0,2023-04-12,2023-04-12,株式会社ＳＮ,,株式会社,大分県,別府市,大字鶴見４５１４番地の２６,,44,202,8740840,,,,,,,2023-04-12,1,,,,,エスエヌ,0
245,1330003009797,新規,0,2023-04-12,2023-04-12,ＪＡＰＡＮ　ＹＯＵ‐ＴＳＡＩ合同会社,,合同会社,熊本県,菊池郡大津町,大字室１３０４番地４,,43,403,8691235,,,,,,,2023-04-12,1,,,,,ジャパンユーサイ,0
252,1360001031841,新規,0,2023-04-12,2023-04-12,株式会社ＮＯＨＡＲＡ板金,,株式会社,沖縄県,宜野湾市,野嵩３丁目１６番３０号,,47,205,9012203,,,,,,,2023-04-12,1,,,,,,0
253,1370001049817,新規,0,2023-04-12,2023-04-12,株式会社阿部建築,,株式会社,宮城県,石巻市,吉野町２丁目２番２０号コーポマルサＣ棟２０２号,,04,202,9860015,,,,,,,2023-04-12,1,,,,,アベケンチク,0
258,1370005010618,新規,0,2023-04-12,2023-04-12,特定非営利活動法人安心市場さくらっこ,,その他の設立登記法人,宮城県,大崎市,田尻小塩字八ツ沢１番地,,04,215,9894305,,,,,,,2023-04-12,1,,,,,アンシンイチバサクラッコ,0
267,1390003002078,新規,0,2023-04-12,2023-04-12,合同会社ＯＩＲＡ,,合同会社,山形県,天童市,東本町２丁目７番８号１階,,06,210,9940026,,,,,,,2023-04-12,1,,,,,オイラ,0
275,1440001009243,新規,0,2023-04-12,2023-04-12,株式会社ヘルパーステーションよりそい,,株式会社,北海道,北斗市,東浜２丁目１６番２０号,,01,236,0490122,,,,,,,2023-04-12,1,,,,,ヘルパーステーションヨリソイ,0
278,1460301005139,新規,0,2023-04-12,2023-04-12,株式会社Ｍｙ　ＤＲＥＡＭＳ,,株式会社,北海道,北見市,寿町１丁目１番５号,,01,208,0900065,,,,,,,2023-04-12,1,,,,,マイドリームス,0
280,1470001019553,新規,0,2023-04-12,2023-04-12,ｋａｎｅｍｉｔｓｕ　ｅｓｐｏｒｔｓ株式会社,,株式会社,香川県,高松市,中野町２３番１号Ｂ１階,,37,201,7600008,,,,,,,2023-04-12,1,,,,,カネミツイースポーツ,0
281,1480001012061,新規,0,2023-04-12,2023-04-12,株式会社花補佐牧場,,株式会社,徳島県,阿波市,阿波町丸山１１１番地,,36,206,7711703,,,,,,,2023-04-12,1,,,,,ハナフサボクジョウ,0
283,1490001010452,新規,0,2023-04-12,2023-04-12,エバークリーン株式会社,,株式会社,高知県,高知市,江陽町６番１５号一慶ハイツ２０２,,39,201,7800055,,,,,,,2023-04-12,1,,,,,エバークリーン,0
285,1700150115328,新規,0,2023-04-12,2023-04-12,中国能源建設集団山西省電力勘測設計院有限公司,,外国会社等,東京都,台東区,東上野１丁目２番１３号カーニープレイス新御徒町２階Ｇ室,,13,106,1100015,中華人民共和国山西省太原市迎沢区迎沢大街２５５号,,,,,,2023-04-12,1,,,,,チユウゴクノウゲンケンセツシユウダンサンセイシヨウデンリヨクカンソクセツケイインユウゲンコウシ,0
286,1700150115344,新規,0,2023-04-12,2023-04-12,ｅｎｐｉｎｇｓｈｉｂｉｊｉｄｉａｎｚｉｙｏｕｘｉａｎｇｏｎｇｓｉ,,外国会社等,,,,,,,,ｅｎｐｉｎｇｓｈｉｄｏｎｇａｎｈｅｎｇｚｈｏｕｃｕｎｘｉｎＢｑｕ２６ｈａｏｃｈａｎｇｆａｎｇｒｕｎｅｉｘｉａｎｇｘｉｚｈｕａｎｇ１０１ｓｈｉ,,,,,,2023-04-12,1,,,,,エンピンシービージーディエンズーヨウシエンゴンスー,0
287,1700150115352,新規,0,2023-04-12,2023-04-12,Ｓｈｅｎｚｈｅｎｓｈｉ　Ｓａｎｋｅｙａｎｇｓｈｕ　Ｋｅｊｉｙｏｕｘｉａｎｇｏｎｇｓｉ,,外国会社等,,,,,,,,Ｆｕｔｉａｎｑｕ　Ｍｅｉｌｉｎｊｉｅｄａｏ　Ｍｅｉｄｕｓｈｅｑｕ　Ｍｅｉｂｅｉｌｕ７０ｈａｏ　Ｊｉａｘｉｎｙａｎｇｇｕａｎｇｙａｊｕ　Ｂ３０４　Ｓｈｅｎｚｈｅｎｓｈｉ　Ｇｕａｎｇｄｏｎｇｓｈｅｎｇ　５１８０００　ＣＮ,,,,,,2023-04-12,1,,,,,シェンジェンシーサンコーヤンシューコージーヨウシエンゴンスー,0
288,1700150115360,新規,0,2023-04-12,2023-04-12,Ｓｈｅｎｚｈｅｎ　Ａｂｉｓｔａｒ　Ｎｅｔｗｏｒｋ　Ｔｅｃｈｎｏｌｏｇｙ　Ｃｏ．，Ｌｔｄ．,,外国会社等,,,,,,,,Ｒｏｏｍ　３０１，Ｂｕｉｌｄｉｎｇ　６，Ｌｉａｎｃｈｕａｎｇ　Ｔｅｃｈｎｏｌｏｇｙ　Ｐａｒｋ，Ｎｏ．２１，Ｂｕｌａｎ　Ｒｏａｄ，Ｘｉａｌｉｌａｎｇ　Ｃｏｍｍｕｎｉｔｙ，Ｎａｎｗａｎ　Ｓｔｒｅｅｔ，Ｌｏｎｇｇａｎｇ　Ｄｉｓｔｒｉｃｔ，Ｓｈｅｎｚｈｅｎ,,,,,,2023-04-12,1,,,,,シェンジェンシーアービースーダーワンルオコージーヨウシエンゴンスー,0
289,1700150115369,新規,0,2023-04-12,2023-04-12,ｈａｎｇ　ｚｈｏｕ　ｄａ　ｒｅ　ｄｉａｎ　ｚｉ　ｓｈａｎｇ　ｗｕ　ｙｏｕ　ｘｉａｎ　ｇｏｎｇ　ｓｉ,,外国会社等,,,,,,,,ｘｉｘｉｎｇｊｉｅｄａｏ　ｂｉｎｋａｎｇｌｕ　１０１ｈａｏ　７ｚｈｕａｎｇ　２２０７ｓｈｉ　ｈａｎｇｚｈｏｕ　ｂｉｎｊｉａｎｇｑｕ　ｚｈｅｊｉａｎｇ,,,,,,2023-04-12,1,,,,,ハンジヨウダーローデイエンズーシヤンウーヨウシエンゴンスー,0
290,1700150115377,新規,0,2023-04-12,2023-04-12,ＭＹ．Ａｌｐｈａ　Ｍａｎａｇｅｍｅｎｔ　Ｏｖｅｒｓｅａｓ　Ｌｉｍｉｔｅｄ,,外国会社等,東京都,中央区,日本橋３丁目９番１号日本橋三丁目スクエア１１階,,13,102,1030027,中華人民共和国香港特別行政区中環徳輔道中２６號華懋中心２期１８楼,,,,,,2023-04-12,1,,,,,エムワイアルフアマネージメントオーバーシーズリミテツド,0
300,2010001233934,新規,0,2023-04-12,2023-04-12,株式会社ヘイムダル,,株式会社,東京都,中央区,日本橋蛎殻町１丁目１３番１号ユニゾ蛎殻町北島ビルＢ１Ｆ,,13,102,1030014,,,,,,,2023-04-12,1,,,,,ヘイムダル,0
301,2010001234305,新規,0,2023-04-12,2023-04-12,ＬｏｃａｌＸ株式会社,,株式会社,東京都,中央区,銀座１丁目１２番４号Ｎ＆ＥＢＬＤ．６Ｆ,,13,102,1040061,,,,,,,2023-04-12,1,,,,,ローカルエックス,0
302,2010005036490,新規,0,2023-04-12,2023-04-12,一般社団法人ＩＮＩＴ国民発議プロジェクト,,その他の設立登記法人,東京都,文京区,白山１丁目１３番７号アクア白山ビル７１９,,13,105,1130001,,,,,,,2023-04-12,1,,,,,イニットコクミンハツギプロジェクト,0
312,2010401173573,新規,0,2023-04-12,2023-04-12,株式会社Ａｒｇｅｎｔｏ,,株式会社,東京都,港区,芝大門１丁目５番３号,,13,103,1050012,,,,,,,2023-04-12,1,,,,,アルジェント,0
313,2010401173664,新規,0,2023-04-12,2023-04-12,株式会社ブライトマン,,株式会社,東京都,港区,芝浦３丁目１７番１１号天翔田町ビル４０９号室,,13,103,1080023,,,,,,,2023-04-12,1,,,,,ブライトマン,0
314,2010401173680,新規,0,2023-04-12,2023-04-12,株式会社ＨＴＦ,,株式会社,東京都,港区,西麻布２丁目１３番６号ケイズ西麻布７階,,13,103,1060031,,,,,,,2023-04-12,1,,,,,エイチティエフ,0
315,2010403029897,新規,0,2023-04-12,2023-04-12,医学国際機構合同会社,,合同会社,東京都,港区,高輪１丁目４番１０－２３０４号,,13,103,1080074,,,,,,,2023-04-12,1,,,,,イガクコクサイキコウ,0
316,2010403029906,新規,0,2023-04-12,2023-04-12,Ｒ‐ＢＡＮＫ合同会社,,合同会社,東京都,港区,六本木７丁目１２番２号Ｒ７ビルディング,,13,103,1060032,,,,,,,2023-04-12,1,,,,,アールバンク,0
318,2010501050185,新規,0,2023-04-12,2023-04-12,Ｐｉｓｈｏｎ　Ｂｕｓｉｎｅｓｓ　Ｃｏｎｓｕｌｔｉｎｇ　Ｊａｐａｎ株式会社,,株式会社,東京都,台東区,根岸１丁目１－３０ツバセス鶯谷３０５室,,13,106,1100003,,,,,,,2023-04-12,1,,,,,ピションビジネスコンサルティングジャパン,0
331,2010703006654,新規,0,2023-04-12,2023-04-12,合同会社ぶんぶく,,合同会社,東京都,品川区,上大崎２丁目７番２１号パレロワイヤル長者丸１０３号室,,13,109,1410021,,,,,,,2023-04-12,1,,,,,ブンブク,0
332,2010803004500,新規,0,2023-04-12,2023-04-12,合同会社ＣａｍｐｅｒｓＳｅａＳｕｎ,,合同会社,東京都,大田区,東雪谷４丁目１６番１１号,,13,111,1450065,,,,,,,2023-04-12,1,,,,,キャンパーズシーサン,0
342,2011001153610,新規,0,2023-04-12,2023-04-12,ＡＴＯＭ　ＮｅＯ株式会社,,株式会社,東京都,渋谷区,富ヶ谷１丁目３８番５号,,13,113,1510063,,,,,,,2023-04-12,1,,,,,アトムネオ,0
348,2011101102450,新規,0,2023-04-12,2023-04-12,ＴＭＴ川愛株式会社,,株式会社,東京都,新宿区,西新宿７丁目５番５号ｐｌａｚａ西新宿ＵＣＦ４０６,,13,104,1600023,,,,,,,2023-04-12,1,,,,,ティーエムティーセンアイ,0
349,2011101102509,新規,0,2023-04-12,2023-04-12,株式会社２７ｓｔｏｒｙ,,株式会社,東京都,新宿区,西新宿３丁目３番１３号西新宿水間ビル６階,,13,104,1600023,,,,,,,2023-04-12,1,,,,,ニナストーリー,0
351,2011105010625,新規,0,2023-04-12,2023-04-12,特定非営利活動法人リエゾン心理師の会,,その他の設立登記法人,東京都,新宿区,西新宿３丁目３番１３号西新宿水間ビル６階,,13,104,1600023,,,,,,,2023-04-12,1,,,,,リエゾンシンリシノカイ,0
355,2011201024561,新規,0,2023-04-12,2023-04-12,外游株式会社,,株式会社,東京都,中野区,江古田４丁目２５番３号,,13,114,1650022,,,,,,,2023-04-12,1,,,,,ガイユウ,0
363,2011801042211,新規,0,2023-04-12,2023-04-12,株式会社稲穂,,株式会社,東京都,葛飾区,東金町１丁目１２番１２号,,13,122,1250041,,,,,,,2023-04-12,1,,,,,イナホ,0
364,2011803005604,新規,0,2023-04-12,2023-04-12,Ｍｅｌ合同会社,,合同会社,東京都,足立区,平野３丁目２０－１３,,13,121,1210076,,,,,,,2023-04-12,1,,,,,メル,0
370,2012403005936,新規,0,2023-04-12,2023-04-12,Ｙ＆Ｍ　Ｐａｒｔｎｅｒｓ合同会社,,合同会社,東京都,府中市,西原町２丁目２１－２４－２Ｆ,,13,206,1830046,,,,,,,2023-04-12,1,,,,,ワイアンドエムパートナーズ,0
371,2012405004853,新規,0,2023-04-12,2023-04-12,医療法人社団暖心会,,その他の設立登記法人,東京都,調布市,菊野台２丁目５番地２１、１階,,13,208,1820007,,,,,,,2023-04-12,1,,,,,ダンシンカイ,0
372,2012701017583,新規,0,2023-04-12,2023-04-12,日本国際株式会社,,株式会社,東京都,清瀬市,竹丘３丁目１８番１６号,,13,221,2040023,,,,,,,2023-04-12,1,,,,,ニホンコクサイ,0
376,2013301050561,新規,0,2023-04-12,2023-04-12,株式会社ＢＯＹＳＨＥ,,株式会社,東京都,豊島区,西池袋２丁目３６番１－９０４号,,13,116,1710021,,,,,,,2023-04-12,1,,,,,ボーイシー,0
377,2013301050578,新規,0,2023-04-12,2023-04-12,株式会社８５０,,株式会社,東京都,豊島区,高田３丁目５番３号第３布施ビル１Ｆ,,13,116,1710033,,,,,,,2023-04-12,1,,,,,ハッコー,0
392,2030001153305,新規,0,2023-04-12,2023-04-12,株式会社ふよう,,株式会社,埼玉県,所沢市,けやき台１丁目１番地の１コスモシティ新所沢９１３,,11,208,3591118,,,,,,,2023-04-12,1,,,,,フヨウ,0
393,2030001153313,新規,0,2023-04-12,2023-04-12,株式会社ＭＵＵＴＯ,,株式会社,埼玉県,さいたま市南区,根岸５丁目２０番地４号,,11,108,3360024,,,,,,,2023-04-12,1,,,,,ムート,0
394,2030001153370,新規,0,2023-04-12,2023-04-12,株式会社しん,,株式会社,埼玉県,さいたま市見沼区,大和田町１丁目７３７－２,,11,104,3370053,,,,,,,2023-04-12,1,,,,,シン,0
397,2030003021542,新規,0,2023-04-12,2023-04-12,Ｈｏｍｅｈｅａｒｔｓ合同会社,,合同会社,埼玉県,所沢市,けやき台１丁目４３番地の３グラッシェ・リーシェＤ,,11,208,3591118,,,,,,,2023-04-12,1,,,,,ホームハーツ,0
398,2030003021575,新規,0,2023-04-12,2023-04-12,合同会社ブラックスコーピオン,,合同会社,埼玉県,川越市,岸町２丁目２６‐１４,,11,201,3501131,,,,,,,2023-04-12,1,,,,,ブラックスコーピオン,0
403,2040001127885,新規,0,2023-04-12,2023-04-12,株式会社ＭＴステーブル,,株式会社,千葉県,富里市,中沢４７３番地３３,,12,233,2860222,,,,,,,2023-04-12,1,,,,,エムティーステーブル,0
404,2040001127919,新規,0,2023-04-12,2023-04-12,株式会社キッカ,,株式会社,千葉県,流山市,西初石３丁目１０３番地の２,,12,220,2700121,,,,,,,2023-04-12,1,,,,,キッカ,0
408,2040003022366,新規,0,2023-04-12,2023-04-12,合同会社ｙｄ　ｓｈｏｐ,,合同会社,千葉県,野田市,野田８２５番地の５４グリーンヒルアタゴ２０５,,12,208,2780037,,,,,,,2023-04-12,1,,,,,ワイディーショップ,0
409,2040003022374,新規,0,2023-04-12,2023-04-12,ａｎｄ　ｇｒｅｅｎ合同会社,,合同会社,千葉県,柏市,若柴２２７－６柏の葉キャンパス１４７街区Ｄ－２４０４,,12,217,2770871,,,,,,,2023-04-12,1,,,,,,0
410,2040003022382,新規,0,2023-04-12,2023-04-12,合同会社ＫＭＫ,,合同会社,千葉県,市川市,南大野１丁目５番３１号（カーサ・プェンテ１０１号）,,12,203,2720804,,,,,,,2023-04-12,1,,,,,ケーエムケー,0
415,2070001040301,新規,0,2023-04-12,2023-04-12,株式会社ＪＩＬＬ,,株式会社,群馬県,館林市,緑町２丁目２７－１０,,10,207,3740025,,,,,,,2023-04-12,1,,,,,ジル,0
416,2070001040318,新規,0,2023-04-12,2023-04-12,株式会社Ｎａｖｉ,,株式会社,群馬県,伊勢崎市,三室町５３３０番地,,10,204,3792235,,,,,,,2023-04-12,1,,,,,ナビ,0
419,2080001025565,新規,0,2023-04-12,2023-04-12,湯日グリーンファーム株式会社,,株式会社,静岡県,島田市,湯日８９１番地の１,,22,209,4270113,,,,,,,2023-04-12,1,,,,,ユイグリーンファーム,0
424,2080401026428,新規,0,2023-04-12,2023-04-12,株式会社ピクセル・アンド・ペーパー,,株式会社,静岡県,浜松市中区,上島７丁目３番２５号,,22,131,4338122,,,,,,,2023-04-12,1,,,,,ピクセルアンドペーパー,0
429,2100001036320,新規,0,2023-04-12,2023-04-12,丸茂総業株式会社,,株式会社,長野県,茅野市,玉川８８４０番地,,20,214,3910011,,,,,,,2023-04-12,1,,,,,マルモソウギョウ,0
430,2100005012994,新規,0,2023-04-12,2023-04-12,一般社団法人クーリア・サポート,,その他の設立登記法人,長野県,松本市,大字島立４５７２番地,,20,202,3900852,,,,,,,2023-04-12,1,,,,,クーリアサポート,0
431,2110001037433,新規,0,2023-04-12,2023-04-12,アミュージングウェイ株式会社,,株式会社,新潟県,新潟市中央区,女池上山３丁目２０番２８号,,15,103,9500945,,,,,,,2023-04-12,1,,,,,アミュージングウェイ,0
435,2110003005025,新規,0,2023-04-12,2023-04-12,合同会社ＣｈｅｒｉＣｔｉｏｎ,,合同会社,新潟県,上越市,中門前２丁目１番３号,,15,222,9430801,,,,,,,2023-04-12,1,,,,,チェリクション,0
450,2120001253822,新規,0,2023-04-12,2023-04-12,株式会社フレーム・ワークス,,株式会社,大阪府,大阪市阿倍野区,松崎町２丁目１－２８,,27,119,5450053,,,,,,,2023-04-12,1,,,,,フレームワークス,0
451,2120001253896,新規,0,2023-04-12,2023-04-12,株式会社ｉｚｕｔｔｏ,,株式会社,大阪府,大阪市中央区,南船場３丁目８番１４号,,27,128,5420081,,,,,,,2023-04-12,1,,,,,アイズット,0
453,2120003023802,新規,0,2023-04-12,2023-04-12,合同会社Ｓｔａｙ　Ｃｏｎｃｉｅｒｇｅ,,合同会社,大阪府,大阪市生野区,巽南５丁目１－３３－９０２,00130077,27,116,5440015,,,,,,,2023-04-12,1,,,,,ステイコンシェルジュ,0
456,2120101067313,新規,0,2023-04-12,2023-04-12,株式会社ちぎたか,,株式会社,大阪府,松原市,阿保６丁目４番２１号,,27,217,5800043,,,,,,,2023-04-12,1,,,,,チギタカ,0
457,2120101067321,新規,0,2023-04-12,2023-04-12,株式会社匠企画,,株式会社,大阪府,堺市中区,伏尾１８８番地１ルナ・ピエーナ泉北１０６号,,27,142,5998254,,,,,,,2023-04-12,1,,,,,タクミキカク,0
458,2120103005163,新規,0,2023-04-12,2023-04-12,ＡＴＬＡＳ合同会社,,合同会社,大阪府,貝塚市,畠中２丁目１－１０,,27,208,5970072,,,,,,,2023-04-12,1,,,,,アトラス,0
469,2130001074061,新規,0,2023-04-12,2023-04-12,株式会社山晟,,株式会社,京都府,城陽市,久世南垣内１２７番地の８タピエス１０３号室,,26,207,6100102,,,,,,,2023-04-12,1,,,,,ヤマセイ,0
477,2140001129731,新規,0,2023-04-12,2023-04-12,株式会社ニッコーガーデン,,株式会社,兵庫県,朝来市,羽渕１６番地２,,28,225,6793441,,,,,,,2023-04-12,1,,,,,ニッコーガーデン,0
478,2140001129748,新規,0,2023-04-12,2023-04-12,大進貿易株式会社,,株式会社,兵庫県,神戸市東灘区,岡本６丁目９番７号,,28,101,6580072,,,,,,,2023-04-12,1,,,,,ダイシンボウエキ,0
479,2140003018924,新規,0,2023-04-12,2023-04-12,合同会社関西不動商事,,合同会社,兵庫県,尼崎市,崇徳院１丁目２３番地,,28,202,6600071,,,,,,,2023-04-12,1,,,,,カンサイフドウショウジ,0
480,2140003018949,新規,0,2023-04-12,2023-04-12,合同会社ＯＮＥ　ＵＮＤＥＲ,,合同会社,兵庫県,加古川市,東神吉町神吉５４６番地の４,,28,210,6750057,,,,,,,2023-04-12,1,,,,,ワンアンダー,0
481,2140003018957,新規,0,2023-04-12,2023-04-12,合同会社菜ノ花興産,,合同会社,兵庫県,明石市,東沖ノ町３番４１号,,28,203,6730000,,,,,,,2023-04-12,1,,,,,ナノハナコウサン,0
488,2160001024963,新規,0,2023-04-12,2023-04-12,株式会社村山製材所,,株式会社,滋賀県,東近江市,大萩町２５３番地,,25,213,5270174,,,,,,,2023-04-12,1,,,,,ムラヤマセイザイショ,0
489,2160001024971,新規,0,2023-04-12,2023-04-12,ホームメイド株式会社,,株式会社,滋賀県,草津市,北山田町８４１番地,,25,206,5250061,,,,,,,2023-04-12,1,,,,,ホームメイド,0
495,2180001036552,新規,0,2023-04-12,2023-04-12,株式会社サンライン,,株式会社,愛知県,名古屋市中区,千代田５丁目２０番１０号,,23,106,4600012,,,,,,,2023-04-12,1,,,,,サンライン,0
501,2180001155823,新規,0,2023-04-12,2023-04-12,株式会社ソフトアタッチメント,,株式会社,愛知県,名古屋市千種区,内山３丁目２９番１１号－６０３号,,23,101,4640075,,,,,,,2023-04-12,1,,,,,ソフトアタッチメント,0
514,2210003001625,新規,0,2023-04-12,2023-04-12,合同会社福井アリーナプロジェクト,,合同会社,福井県,福井市,栂野町第１５号１番地２,,18,201,9102178,,,,,,,2023-04-12,1,,,,,フクイアリーナプロジェクト,0
517,2220001025344,新規,0,2023-04-12,2023-04-12,株式会社コンサルタントホクリク,,株式会社,石川県,小松市,八幡１０３番地１,,17,203,9230833,,,,,,,2023-04-12,1,,,,,コンサルタントホクリク,0
518,2220001025352,新規,0,2023-04-12,2023-04-12,株式会社レーヴエステート,,株式会社,石川県,能美市,大長野町ル２８番地,,17,211,9231115,,,,,,,2023-04-12,1,,,,,レーヴエステート,0
521,2220003003496,新規,0,2023-04-12,2023-04-12,合同会社リエゾンＫ,,合同会社,石川県,金沢市,南四十万２丁目２４番地２,,17,201,9218134,,,,,,,2023-04-12,1,,,,,リエゾンケー,0
523,2230005009292,新規,0,2023-04-12,2023-04-12,医療法人社団ねづか内科クリニック,,その他の設立登記法人,富山県,黒部市,石田新７３９－１,,16,207,9380057,,,,,,,2023-04-12,1,,,,,ネヅカナイカクリニック,0
524,2240001061338,新規,0,2023-04-12,2023-04-12,株式会社明城,,株式会社,広島県,三原市,館町２丁目１番２１号,,34,204,7230004,,,,,,,2023-04-12,1,,,,,メイジョウ,0
540,2290001101147,新規,0,2023-04-12,2023-04-12,Ｓｈｉｒａ＆ｃｏ．株式会社,,株式会社,福岡県,八女市,高塚５９９番地９,,40,210,8340034,,,,,,,2023-04-12,1,,,,,シラコ,0
541,2290001101163,新規,0,2023-04-12,2023-04-12,ソルスケイプ株式会社,,株式会社,福岡県,福岡市中央区,天神２丁目３番１０号,,40,133,8100001,,,,,,,2023-04-12,1,,,,,ソルスケイプ,0
549,2330001030754,新規,0,2023-04-12,2023-04-12,株式会社ミライリンク,,株式会社,熊本県,熊本市中央区,南熊本３丁目１２番３号,,43,101,8600812,,,,,,,2023-04-12,1,,,,,ミライリンク,0
555,2340001025497,新規,0,2023-04-12,2023-04-12,株式会社ＪＡＭテック,,株式会社,鹿児島県,鹿児島市,伊敷７丁目９番２号,,46,201,8900008,,,,,,,2023-04-12,1,,,,,,0
556,2340005009587,新規,0,2023-04-12,2023-04-12,錦江町ＭＩＲＡＩサポート協同組合,,その他の設立登記法人,鹿児島県,肝属郡錦江町,馬場１０番地１,,46,490,8932303,,,,,,,2023-04-12,1,,,,,キンコウチョウミライサポート,0
564,2360001031799,新規,0,2023-04-12,2023-04-12,株式会社３１０,,株式会社,沖縄県,宮古島市,下地字上地１１０番地,,47,214,9060304,,,,,,,2023-04-12,1,,,,,サトウ,0
568,2360003012871,新規,0,2023-04-12,2023-04-12,合同会社ＫＵＣＯ,,合同会社,沖縄県,うるま市,石川東恩納９７０番地８,,47,213,9041111,,,,,,,2023-04-12,1,,,,,,0
569,2360005006830,新規,0,2023-04-12,2023-04-12,医療法人あおい会,,その他の設立登記法人,沖縄県,豊見城市,字豊崎１番地３２６,,47,212,9010225,,,,,,,2023-04-12,1,,,,,アオイカイ,0
579,2400005008319,新規,0,2023-04-12,2023-04-12,医療法人社団かとうこどもクリニック,,その他の設立登記法人,岩手県,一関市,山目字中野２３番地１－１階,,03,209,0210053,,,,,,,2023-04-12,1,,,,,カトウコドモクリニック,0
581,2410003003782,新規,0,2023-04-12,2023-04-12,合同会社ＲＯＣＫＹ,,合同会社,秋田県,秋田市,大町５丁目２－１２アイパレスビル４０２,,05,201,0100921,,,,,,,2023-04-12,1,,,,,ロッキー,0
585,2430003014893,新規,0,2023-04-12,2023-04-12,合同会社Ｂｌｏｓｓｏｍ,,合同会社,北海道,空知郡奈井江町,字奈井江１８番地９,,01,424,0790300,,,,,,,2023-04-12,1,,,,,ブロッサム,0
586,2430003014919,新規,0,2023-04-12,2023-04-12,ＲＳ３ｂｒｏｔｈｅｒｓ合同会社,,合同会社,北海道,札幌市清田区,平岡二条２丁目４番３号,,01,110,0040872,,,,,,,2023-04-12,1,,,,,アールエススリーブラザーズ,0
587,2430005014693,新規,0,2023-04-12,2023-04-12,特定非営利活動法人北海道バスケットボール,,その他の設立登記法人,北海道,千歳市,幸町６丁目１番地の８フリージア駅前１００３号,,01,224,0660063,,,,,,,2023-04-12,1,,,,,ホッカイドウバスケットボール,0
594,2480001012069,新規,0,2023-04-12,2023-04-12,くらすぴっつ株式会社,,株式会社,徳島県,板野郡藍住町,勝瑞字正喜地２２１番地１アビタシオン勝瑞Ｊ２０１号,,36,403,7711273,,,,,,,2023-04-12,1,,,,,クラスピッツ,0
596,2480005006950,新規,0,2023-04-12,2023-04-12,医療法人萌美会,,その他の設立登記法人,徳島県,徳島市,八万町犬山２３２番１,,36,201,7708070,,,,,,,2023-04-12,1,,,,,ホウビカイ,0
600,2700150022754,新規,0,2023-04-12,2015-10-09,湯之谷けんぽセンター管理組合,,その他,新潟県,魚沼市,湯之谷芋川９１２,,15,225,9460082,,,,,,,2015-10-09,1,,,,,ユノタニケンポセンターカンリクミアイ,0
601,2700150115327,新規,0,2023-04-12,2023-04-12,ＴＴＳ　Ｉｎｔｅｒｎａｔｉｏｎａｌ　ＬＬＣ,,外国会社等,東京都,江戸川区,瑞江１丁目２－３,,13,123,1320011,アメリカ合衆国　カリフォルニア州　アーバイン市　イサベラ２８４,,,,,,2023-04-12,1,,,,,テイーテイーエスインターナシヨナルエルエルシー,0
602,2700150115343,新規,0,2023-04-12,2023-04-12,ｑｉｎｇｄａｏｙｉｚｈｉｊｉａｓｈａｎｇｗｕｚｉｘｕｎｙｏｕｘｉａｎｇｏｎｇｓｉ,,外国会社等,,,,,,,,ｑｉａｎｗａｎｂａｏｓｈｕｉｇａｎｇｑｕ　ｂｅｉｊｉｎｇｌｕ４５ｈａｏ　ｄｏｎｇｂａｎｇｏｎｇｌｏｕｙｉｌｏｕ－７７３（ｓｈａｎｇｗｕｍｉｓｈｕｇｏｎｇｓｉｔｕｏｇｕａｎｄｉｚｈｉ）（Ａ）ｚｉｙｏｕｍａｏｙｉｓｈｉｙａｎｑｕ　ｑｉｎｇｄａｏｐｉａｎｑｕ　ｚｈｏｎｇｇｕｏ（ｓｈａｎｄｏｎｇ）,,,,,,2023-04-12,1,,,,,チンダオイージージャーシャンウーズーシンヨウシエンゴンスー,0
603,2700150115351,新規,0,2023-04-12,2023-04-12,Ｓｈｅｎｚｈｅｎ　Ｓｕｙｏｕ　Ｓｐｏｒｔｓ　Ｇｏｏｄｓ　Ｃｏ．，Ｌｔｄ．,,外国会社等,,,,,,,,３ｒｄ　Ｆｌｏｏｒ，Ｎｏ．１８，Ａｏｂｅｉ　Ｒｏａｄ，Ｈｅｎｇｇａｎｇ　Ｓｔｒｅｅｔ，Ｌｏｎｇｇａｎｇ　Ｄｉｓｔｒｉｃｔ，Ｓｈｅｎｚｈｅｎ,,,,,,2023-04-12,1,,,,,シェンジェンシースーヨウインドンヨンピンヨウシエンゴンスー,0
604,2700150115368,新規,0,2023-04-12,2023-04-12,Ｃａｒｒｙ　ｉｎｔｅｒｎａｔｉｏｎａｌ　Ｌｔｄ,,外国会社等,,,,,,,,Ｌｏｎｇ　Ｇａｎｇ　ＢｕＪｉＪｉｅ　Ｄａｏ　ＸｉＨｕａｎｇＬｕ　２７・４　ＷａｎＨｅＦｅｎ６０３　ＳｈｅｎＺｈｅｎ　ＧｕａｎｇＤｏｎｇ,,,,,,2023-04-12,1,,,,,シエンジエンシーカイルイアーフーシーヨウシエンゴンスー,0
605,2700150115376,新規,0,2023-04-12,2023-04-12,Ｐｓｙｏｎｉｘ　ＬＬＣ,,外国会社等,,,,,,,,４０１　Ｗｅｓｔ　Ａ．Ｓｔｒｅｅｔ，Ｓｕｉｔｅ　２４００，Ｓａｎ　Ｄｉｅｇｏ，ＣＡ　９２１０１,,,,,,2023-04-12,1,,,,,サイオニツクスエルエルシー,0
609,3010001234139,新規,0,2023-04-12,2023-04-12,ＦＬＳ　Ｊａｐａｎ株式会社,,株式会社,東京都,千代田区,平河町２丁目６番１号平河町ビル７階,,13,101,1020093,,,,,,,2023-04-12,1,,,,,エフエルエスジャパン,0
610,3010001234428,新規,0,2023-04-12,2023-04-12,Ｄｅａｄｌｉｎｅ　ＧａｍｅＬａｂ株式会社,,株式会社,東京都,千代田区,神田小川町３丁目２８番１３号ラフィネお茶ノ水１０１０,,13,101,1010052,,,,,,,2023-04-12,1,,,,,デッドラインゲームラボ,0
611,3010001234452,新規,0,2023-04-12,2023-04-12,株式会社ビート,,株式会社,東京都,中央区,銀座１丁目１２番４号Ｎ＆Ｅ・ＢＬＤ．６Ｆ,,13,102,1040061,,,,,,,2023-04-12,1,,,,,ビート,0
615,3010003040262,新規,0,2023-04-12,2023-04-12,Ｍｏｄｅｌ‐ｂａｓｅｄ知財開発合同会社,,合同会社,東京都,中央区,京橋２丁目６番５号,,13,102,1040031,,,,,,,2023-04-12,1,,,,,モデルベースチザイカイハツ,0
616,3010003040312,新規,0,2023-04-12,2023-04-12,ＮＡＮＯ合同会社,,合同会社,東京都,中央区,銀座７丁目１３番２０号銀座ＴＨビル９階７号,,13,102,1040061,,,,,,,2023-04-12,1,,,,,ナノ,0
620,3010005036481,新規,0,2023-04-12,2023-04-12,一般社団法人国際人材投資ラボ,,その他の設立登記法人,東京都,千代田区,内神田１丁目１５番７号,,13,101,1010047,,,,,,,2023-04-12,1,,,,,コクサイジンザイトウシラボ,0
621,3010103002113,新規,0,2023-04-12,2023-04-12,ソーワＴＭアセット合同会社,,合同会社,東京都,八王子市,上柚木３丁目１２－１－３０３,,13,201,1920373,,,,,,,2023-04-12,1,,,,,ソーワティーエムアセット,0
626,3010401173622,新規,0,2023-04-12,2023-04-12,株式会社Ｃｏｍｐａｓｓ,,株式会社,東京都,港区,南青山３丁目５番１号Ｏ＆Ｋ南青山ビル地下１階,,13,103,1070062,,,,,,,2023-04-12,1,,,,,コンパス,0
627,3010401173639,新規,0,2023-04-12,2023-04-12,株式会社ｍａｍａｌａｄｅ,,株式会社,東京都,港区,南青山３丁目１番３６号青山丸竹ビル６Ｆ,,13,103,1070062,,,,,,,2023-04-12,1,,,,,ママレード,0
628,3010401173688,新規,0,2023-04-12,2023-04-12,株式会社千,,株式会社,東京都,港区,白金台４丁目３番１２号,,13,103,1080071,,,,,,,2023-04-12,1,,,,,セン,0
640,3010803004499,新規,0,2023-04-12,2023-04-12,デフト合同会社,,合同会社,東京都,大田区,西蒲田５丁目１２番８号,,13,111,1440051,,,,,,,2023-04-12,1,,,,,デフト,0
650,3011001153700,新規,0,2023-04-12,2023-04-12,株式会社マザーグースコーポレーション,,株式会社,東京都,渋谷区,神宮前２丁目１１番４号,,13,113,1500001,,,,,,,2023-04-12,1,,,,,マザーグースコーポレーション,0
656,3011103012928,新規,0,2023-04-12,2023-04-12,合同会社ＳＥＳＴａＳ,,合同会社,東京都,新宿区,西新宿３丁目３番１３号西新宿水間ビル２Ｆ,,13,104,1600023,,,,,,,2023-04-12,1,,,,,セスタス,0
659,3011201024544,新規,0,2023-04-12,2023-04-12,ＧＯＳＩＴＥ株式会社,,株式会社,東京都,中野区,中央３丁目１－２１パシフィック新中野３０１,,13,114,1640011,,,,,,,2023-04-12,1,,,,,ゴーサイト,0
661,3011203004049,新規,0,2023-04-12,2023-04-12,ＢＡＳＨ合同会社,,合同会社,東京都,中野区,江原町１丁目２３－２２２,,13,114,1650023,,,,,,,2023-04-12,1,,,,,バッシュ,0
667,3011601026719,新規,0,2023-04-12,2023-04-12,松宮自動車株式会社,,株式会社,東京都,練馬区,大泉学園町２丁目２５番１３号,,13,120,1780061,,,,,,,2023-04-12,1,,,,,マツミヤジドウシャ,0
673,3011803005603,新規,0,2023-04-12,2023-04-12,合同会社大谷商店,,合同会社,東京都,葛飾区,金町１丁目２１－１３,,13,122,1250042,,,,,,,2023-04-12,1,,,,,オオタニショウテン,0
676,3012401040389,新規,0,2023-04-12,2023-04-12,株式会社れっくす,,株式会社,東京都,多摩市,東寺方１丁目３番地の２１,,13,224,2060003,,,,,,,2023-04-12,1,,,,,レックス,0
677,3012403005935,新規,0,2023-04-12,2023-04-12,合同会社ｂ．ｃ,,合同会社,東京都,府中市,若松町３丁目２８番地の２０シャルマンマノワール１０２,,13,206,1830005,,,,,,,2023-04-12,1,,,,,ビーシー,0
679,3012701017590,新規,0,2023-04-12,2023-04-12,美倫株式会社,,株式会社,東京都,小平市,鈴木町２丁目１９８－２カエサル花小金井１０３号室,,13,211,1870011,,,,,,,2023-04-12,1,,,,,ミリン,0
685,3013301050569,新規,0,2023-04-12,2023-04-12,株式会社焼鳥どん,,株式会社,東京都,豊島区,西巣鴨３丁目２５番１１号,,13,116,1700001,,,,,,,2023-04-12,1,,,,,ヤキトリドン,0
686,3013301050585,新規,0,2023-04-12,2023-04-12,株式会社シャキン,,株式会社,東京都,豊島区,池袋１丁目１２－１ハニービーＨ室,,13,116,1700014,,,,,,,2023-04-12,1,,,,,シャキン,0
698,3020003023695,新規,0,2023-04-12,2023-04-12,合同会社キッチンストアー,,合同会社,神奈川県,横浜市都筑区,平台９番１１号,,14,118,2240064,,,,,,,2023-04-12,1,,,,,キッチンストアー,0
699,3020003023704,新規,0,2023-04-12,2023-04-12,トップス合同会社,,合同会社,神奈川県,川崎市川崎区,東門前３丁目１番１２号ホワイトストーク叶屋３０１,,14,131,2100812,,,,,,,2023-04-12,1,,,,,トップス,0
700,3020003023729,新規,0,2023-04-12,2023-04-12,合同会社Ｌｅｅｗａｙ,,合同会社,神奈川県,川崎市高津区,新作４丁目５番１０号ジョリメゾン１Ｆ,,14,134,2130014,,,,,,,2023-04-12,1,,,,,リーウェイ,0
709,3021003012969,新規,0,2023-04-12,2023-04-12,合同会社Ｍ’ｓ・ＫｅｉＫｉ,,合同会社,神奈川県,座間市,ひばりが丘５丁目５２番３７号,,14,216,2520003,,,,,,,2023-04-12,1,,,,,エムズケイキ,0
714,3030001153155,新規,0,2023-04-12,2023-04-12,ブルーホーム株式会社,,株式会社,埼玉県,北本市,中丸６丁目１６０番地１,,11,233,3640013,,,,,,,2023-04-12,1,,,,,ブルーホーム,0
715,3030001153279,新規,0,2023-04-12,2023-04-12,ＮＩＰＰＯＮ　ＡＵＴＯ　ＤＥＡＬ株式会社,,株式会社,埼玉県,蕨市,錦町２丁目１４－１１,,11,223,3350005,,,,,,,2023-04-12,1,,,,,ニッポンオートディール,0
716,3030001153287,新規,0,2023-04-12,2023-04-12,株式会社マイズジェイ,,株式会社,埼玉県,朝霞市,岡１丁目１０番７号,,11,227,3510007,,,,,,,2023-04-12,1,,,,,マイズジェイ,0
717,3030001153304,新規,0,2023-04-12,2023-04-12,ＯＨＡＮＡ株式会社,,株式会社,埼玉県,坂戸市,日の出町９番２０号,,11,239,3500225,,,,,,,2023-04-12,1,,,,,オハナ,0
718,3030001153312,新規,0,2023-04-12,2023-04-12,株式会社万代,,株式会社,埼玉県,川口市,江戸袋１丁目１０番１６号,,11,203,3340075,,,,,,,2023-04-12,1,,,,,バンダイ,0
719,3030001153329,新規,0,2023-04-12,2023-04-12,株式会社ＳｈａｒｅＴｏｎ,,株式会社,埼玉県,草加市,草加１丁目１１番６号,,11,221,3400043,,,,,,,2023-04-12,1,,,,,シェアトン,0
724,3030003021541,新規,0,2023-04-12,2023-04-12,山室商社合同会社,,合同会社,埼玉県,児玉郡上里町,大字金久保３５２番地１,,11,385,3690301,,,,,,,2023-04-12,1,,,,,ヤマムロショウシャ,0
725,3030003021558,新規,0,2023-04-12,2023-04-12,順英国際合同会社,,合同会社,埼玉県,さいたま市浦和区,常盤１丁目３－９－３０８,,11,107,3300061,,,,,,,2023-04-12,1,,,,,ジュンエイコクサイ,0
729,3040001127884,新規,0,2023-04-12,2023-04-12,株式会社矢沢美装,,株式会社,千葉県,市川市,欠真間２丁目１６番１－５０９号,,12,203,2720142,,,,,,,2023-04-12,1,,,,,ヤザワビソウ,0
730,3040001127901,新規,0,2023-04-12,2023-04-12,株式会社華紫,,株式会社,千葉県,柏市,豊四季字新木戸５２０番地３１柏豊四季アパート１０３号室,,12,217,2770863,,,,,,,2023-04-12,1,,,,,ハナムラサキ,0
731,3040001127934,新規,0,2023-04-12,2023-04-12,株式会社ＴＫトラスト,,株式会社,千葉県,松戸市,栄町西３丁目１０５８番地の４,,12,207,2710061,,,,,,,2023-04-12,1,,,,,ティーケートラスト,0
732,3040003022373,新規,0,2023-04-12,2023-04-12,ＹＮＧＫ合同会社,,合同会社,千葉県,流山市,江戸川台東３丁目３７番地,,12,220,2700111,,,,,,,2023-04-12,1,,,,,ワイエヌジーケー,0
733,3040003022381,新規,0,2023-04-12,2023-04-12,ＮＴ合同会社,,合同会社,千葉県,千葉市花見川区,花園１丁目５番６号,,12,102,2620025,,,,,,,2023-04-12,1,,,,,エヌティ,0
738,3060001035862,新規,0,2023-04-12,2023-04-12,株式会社樹,,株式会社,栃木県,佐野市,金屋下町１１番地４０,,09,204,3270025,,,,,,,2023-04-12,1,,,,,タツキ,0
739,3060001035870,新規,0,2023-04-12,2023-04-12,株式会社ＦＳＰ,,株式会社,栃木県,小山市,神鳥谷３丁目３番７号,,09,208,3230034,,,,,,,2023-04-12,1,,,,,エフエスピー,0
741,3060005010077,新規,0,2023-04-12,2023-04-12,一般社団法人栃木県ホッケー協会,,その他の設立登記法人,栃木県,日光市,豊田２１９番地７,,09,206,3212414,,,,,,,2023-04-12,1,,,,,トチギケンホッケーキョウカイ,0
743,3070001040317,新規,0,2023-04-12,2023-04-12,株式会社田舎リゾート,,株式会社,群馬県,桐生市,広沢町４丁目２４３０番地,,10,203,3760013,,,,,,,2023-04-12,1,,,,,イナカリゾート,0
744,3080101023914,新規,0,2023-04-12,2023-04-12,株式会社魚八,,株式会社,静岡県,賀茂郡東伊豆町,稲取３７１番地の４,,22,301,4130411,,,,,,,2023-04-12,1,,,,,ウオハチ,0
747,3090001018071,新規,0,2023-04-12,2023-04-12,株式会社ビルド,,株式会社,山梨県,甲府市,大里町４２２－１,,19,201,4000053,,,,,,,2023-04-12,1,,,,,ビルド,0
751,3100005012993,新規,0,2023-04-12,2023-04-12,一般社団法人共に咲く花の会,,その他の設立登記法人,長野県,岡谷市,山手町２丁目１８番地２０号,,20,204,3940041,,,,,,,2023-04-12,1,,,,,トモニサクハナノカイ,0
763,3120001253846,新規,0,2023-04-12,2023-04-12,Ｄ．Ｒ．Ｕｅｎｏｓｏｎｏ株式会社,,株式会社,大阪府,大阪市住吉区,長居西１丁目１２番２７号,,27,120,5580002,,,,,,,2023-04-12,1,,,,,ディーアールウエノソノ,0
764,3120001253887,新規,0,2023-04-12,2023-04-12,新勝株式会社,,株式会社,大阪府,大阪市北区,西天満４丁目１０番１９号ＯＰＳ西天満ビル４０２号,,27,127,5300047,,,,,,,2023-04-12,1,,,,,シンショウ,0
765,3120001253895,新規,0,2023-04-12,2023-04-12,太豊実業株式会社,,株式会社,大阪府,門真市,上島町３番１０号,,27,223,5710071,,,,,,,2023-04-12,1,,,,,タイホウジツギョウ,0
766,3120001253912,新規,0,2023-04-12,2023-04-12,株式会社Ｒｏｎ,,株式会社,大阪府,大阪市北区,梅田１丁目２－２大阪駅前第２ビル１２－１２,,27,127,5300001,,,,,,,2023-04-12,1,,,,,ロン,0
767,3120001253929,新規,0,2023-04-12,2023-04-12,バルテス分割準備株式会社,,株式会社,大阪府,大阪市西区,阿波座１丁目３番１５号,,27,106,5500011,,,,,,,2023-04-12,1,,,,,バルテスブンカツジュンビ,0
772,3120101067312,新規,0,2023-04-12,2023-04-12,株式会社ひととき,,株式会社,大阪府,泉佐野市,上瓦屋６６１番地の２,,27,213,5980001,,,,,,,2023-04-12,1,,,,,ヒトトキ,0
773,3120101067329,新規,0,2023-04-12,2023-04-12,株式会社匠ＢＬＤ,,株式会社,大阪府,堺市美原区,真福寺１０８番地５,,27,147,5870013,,,,,,,2023-04-12,1,,,,,タクミビルド,0
774,3120103005162,新規,0,2023-04-12,2023-04-12,合同会社ナレッジバード,,合同会社,大阪府,高石市,取石２丁目３５番４３号,,27,225,5920013,,,,,,,2023-04-12,1,,,,,ナレッジバード,0
777,3122003002561,新規,0,2023-04-12,2023-04-12,合同会社ＭＩＫＡＴＡ,,合同会社,大阪府,四條畷市,江瀬美町１８番１９号,,27,229,5750034,,,,,,,2023-04-12,1,,,,,ミカタ,0
779,3130003008628,新規,0,2023-04-12,2023-04-12,ＳＳＭビズアドエージェンシー合同会社,,合同会社,京都府,京都市上京区,寺町通石薬師下る染殿町６６５番地３ザ・京都レジデンス御所東２０８,,26,102,6020844,,,,,,,2023-04-12,1,,,,,エスエスエムビズアドエージェンシー,0
780,3130003008652,新規,0,2023-04-12,2023-04-12,合同会社つるよ,,合同会社,京都府,宇治市,宇治戸ノ内４番地,,26,204,6110021,,,,,,,2023-04-12,1,,,,,ツルヨ,0
790,3140001129739,新規,0,2023-04-12,2023-04-12,株式会社晴蓉,,株式会社,兵庫県,尼崎市,神田南通１丁目２１番地,,28,202,6600885,,,,,,,2023-04-12,1,,,,,セイヨウ,0
791,3140001129755,新規,0,2023-04-12,2023-04-12,株式会社ＦＰＪ,,株式会社,兵庫県,神戸市中央区,旭通４丁目１－３シティタワー神戸三宮４５１０号,,28,110,6510095,,,,,,,2023-04-12,1,,,,,エフピージェー,0
794,3140005026569,新規,0,2023-04-12,2023-04-12,一般社団法人日本脳脊髄液漏出症学会,,その他の設立登記法人,兵庫県,明石市,松が丘４丁目１番３２号明舞中央病院内,,28,203,6730862,,,,,,,2023-04-12,1,,,,,ニホンノウセキズイエキロウシュツショウガッカイ,0
801,3170001017544,新規,0,2023-04-12,2023-04-12,株式会社ガーデンエクステリア匠,,株式会社,和歌山県,岩出市,金池４２３－１,,30,209,6496256,,,,,,,2023-04-12,1,,,,,ガーデンエクステリアタクミ,0
807,3180003025098,新規,0,2023-04-12,2023-04-12,合同会社ＫｏａＫｅａ,,合同会社,愛知県,名古屋市瑞穂区,師長町４１番地の３,,23,108,4670061,,,,,,,2023-04-12,1,,,,,コアケア,0
808,3180003025107,新規,0,2023-04-12,2023-04-12,合同会社ワイズワン豊川国府,,合同会社,愛知県,名古屋市中区,栄２丁目３番１号名古屋広小路ビルヂング１７階,,23,106,4600008,,,,,,,2023-04-12,1,,,,,ワイズワントヨカワコウ,0
811,3180301037274,新規,0,2023-04-12,2023-04-12,株式会社キングケアサポート,,株式会社,愛知県,西尾市,下羽角町大繩３５番地１,,23,213,4450012,,,,,,,2023-04-12,1,,,,,キングケアサポート,0
812,3180301037299,新規,0,2023-04-12,2023-04-12,株式会社ＩＢＵＳＨＩ,,株式会社,愛知県,蒲郡市,大塚町小深田４２番１,,23,214,4430013,,,,,,,2023-04-12,1,,,,,イブシ,0
813,3190001030322,新規,0,2023-04-12,2023-04-12,株式会社晴建,,株式会社,三重県,名張市,すずらん台西１番町２４６番地,,24,208,5180406,,,,,,,2023-04-12,1,,,,,ハルケン,0
828,3220005008740,新規,0,2023-04-12,2023-04-12,一般財団法人ほくりくみらい基金,,その他の設立登記法人,石川県,金沢市,兼六元町１５番２８号,,17,201,9200931,,,,,,,2023-04-12,1,,,,,ホクリクミライキキン,0
829,3230003002001,新規,0,2023-04-12,2023-04-12,合同会社ＢｉｚＭａｌＳ,,合同会社,富山県,富山市,経田１２２４番地,,16,201,9398264,,,,,,,2023-04-12,1,,,,,ビズマルズ,0
831,3230005009291,新規,0,2023-04-12,2023-04-12,一般社団法人婚活サポートとやま,,その他の設立登記法人,富山県,富山市,中央通り１丁目６番９号,,16,201,9300044,,,,,,,2023-04-12,1,,,,,コンカツサポートトヤマ,0
848,3290001101162,新規,0,2023-04-12,2023-04-12,株式会社ＺＥＮＣＯＯ,,株式会社,福岡県,福岡市博多区,博多駅南４丁目２番１０号,,40,132,8120016,,,,,,,2023-04-12,1,,,,,ゼンクー,0
851,3290801029454,新規,0,2023-04-12,2023-04-12,株式会社ＳＡＣ　ｓｏｌｕｔｉｏｎ,,株式会社,福岡県,北九州市小倉北区,東篠崎３丁目２番１１－１４０３号,,40,106,8020072,,,,,,,2023-04-12,1,,,,,エスエーシーソリューション,0
856,3310001018354,新規,0,2023-04-12,2023-04-12,株式会社ＭＯＶＥ０１,,株式会社,長崎県,長崎市,元船町９番１８号,,42,201,8500035,,,,,,,2023-04-12,1,,,,,ムーブゼロワン,0
869,3360001031798,新規,0,2023-04-12,2023-04-12,株式会社おきなわフォト,,株式会社,沖縄県,那覇市,牧志２丁目１１番１２号嘉数マンション１階,,47,201,9000013,,,,,,,2023-04-12,1,,,,,オキナワフォト,0
877,3370003006079,新規,0,2023-04-12,2023-04-12,合同会社Ｔ．Ｂｌｉｔｚ,,合同会社,宮城県,仙台市泉区,加茂２丁目２７番８号,,04,105,9813122,,,,,,,2023-04-12,1,,,,,ティーブリッツ,0
878,3370003006087,新規,0,2023-04-12,2023-04-12,アルビープラウド合同会社,,合同会社,宮城県,仙台市青葉区,木町１１番１４号パレス中村１０２,,04,101,9810932,,,,,,,2023-04-12,1,,,,,アルビープラウド,0
886,3400001016209,新規,0,2023-04-12,2023-04-12,株式会社おべんとうや,,株式会社,岩手県,奥州市,前沢字塔ケ崎８７番地５,,03,215,0294207,,,,,,,2023-04-12,1,,,,,オベントウヤ,0
888,3410001013444,新規,0,2023-04-12,2023-04-12,株式会社コスモプロダクト,,株式会社,秋田県,秋田市,向浜１丁目６番４号,,05,201,0101601,,,,,,,2023-04-12,1,,,,,コスモプロダクト,0
890,3430001088815,新規,0,2023-04-12,2023-04-12,株式会社スリーエフネットワーク,,株式会社,北海道,札幌市中央区,南五条西２７丁目１番２０－６０１号,,01,101,0640805,,,,,,,2023-04-12,1,,,,,スリーエフネットワーク,0
891,3430001088880,新規,0,2023-04-12,2023-04-12,株式会社Ｔ．Ｋトータルサービス,,株式会社,北海道,札幌市中央区,北七条西２７丁目３番７－３０５号,,01,101,0600007,,,,,,,2023-04-12,1,,,,,ティケイトータルサービス,0
894,3440001009241,新規,0,2023-04-12,2023-04-12,株式会社ドーテック,,株式会社,北海道,亀田郡七飯町,字大沼町６４３番地１２,,01,337,0411354,,,,,,,2023-04-12,1,,,,,ドーテック,0
901,3480001012068,新規,0,2023-04-12,2023-04-12,株式会社Ｈ＆Ａ　Ｓｅｃｕｒｉｔｙ,,株式会社,徳島県,阿波市,吉野町柿原字原１６９番地１２,,36,206,7711401,,,,,,,2023-04-12,1,,,,,エイチアンドエーセキュリティ,0
908,3700150115342,新規,0,2023-04-12,2023-04-12,Ｑｉｎｇｄａｏ　Ｓｉｋｅｒｕｉｅｒ　Ｄｉａｎｚｉｓｈａｎｇｗｕ　Ｙｏｕｘｉａｎｇｏｎｇｓｉ,,外国会社等,,,,,,,,Ａｌｉｓｈａｎｌｕ　１３８　Ｈａｏ　１　Ｄｏｎｇ　２　Ｄａｎｙｕａｎ　３０２　Ｑｉｎｇｄａｏｓｈｉ　Ｈｕａｎｇｄａｏ　Ｑｕ　Ｚｈｏｎｇｇｕｏ　Ｓｈａｎｄｏｎｇ　Ｓｈｅｎｇ,,,,,,2023-04-12,1,,,,,チンダオスーコールイアーディエンズーシャンウーヨウシエンゴンスー,0
909,3700150115350,新規,0,2023-04-12,2023-04-12,Ｓｈｅｎｚｈｅｎ　Ｋｕａｙｕａｎｈｕｉ　Ｅ－Ｃｏｍｍｅｒｃｅ　Ｃｏ．，Ｌｔｄ．,,外国会社等,,,,,,,,Ｂ９Ａ，Ｂｌｏｃｋ　Ａ　Ｂ　Ｃ　Ｄ　Ｅ，Ｂｕｉｌｄｉｎｇ　３，Ｙｕａｎｙａｎｇ　Ｘｉｎｇａｎｘｉａｎ　Ｒｏｎｇｙｕ　Ｇａｒｄｅｎ（Ｐｈａｓｅ　Ｉ），Ｎｏ．１６，Ｙｉｆｅｎｇ　Ｒｏａｄ，Ｎａｎｌｉａｎ　Ｃｏｍｍｕｎｉｔｙ，Ｌｏｎｇｇａｎｇ　Ｄｉｓｔｒｉｃｔ，Ｓｈｅｎｚｈｅｎ,,,,,,2023-04-12,1,,,,,シェンジェンシークワーユエンフイディエンズーシャンウーヨウシエンゴンスー,0
910,3700150115359,新規,0,2023-04-12,2023-04-12,Ｓｈｅｎｙａｎｇ　Ｅｎｙｏｎｇ　Ｔｒａｄｉｎｇ　Ｃｏ．，Ｌｔｄ．,,外国会社等,,,,,,,,（１－７－８），Ｎｏ．２６５－２，Ｈｕｉｇｏｎｇ　Ｓｔｒｅｅｔ　Ｓｈｅｎｈｅ　ｄｉｓｔｒｉｃｔ，Ｓｈｅｎｙａｎｇ　ｃｉｔｙ　Ｌｉａｏｎｉｎｇ　Ｐｒｏｖｉｎｃｅ　ＣＮ　１１００１３,,,,,,2023-04-12,1,,,,,シェンヤンエンヨンシャンマオヨウシエンゴンスー,0
911,3700150115367,新規,0,2023-04-12,2023-04-12,Ｓｈｉｊｉａｚｈｕａｎｇ　Ｊｕｑｉａｎｇ　Ｔｒａｄｉｎｇ　Ｃｏ．，Ｌｔｄ．,,外国会社等,,,,,,,,Ｒｏｏｍ　Ｎｏ．２０１，Ｕｎｉｔ　４，Ｂｕｉｌｄｉｎｇ　５５．Ｑｉｎｇｙｕａｎ　Ｃｏｍｍｕｎｉｔｙ，Ｎｏ．２７９　Ｑｉｎｇｙｕａｎ　Ｓｔｒｅｅｔ，Ｙｕｈｕａ　Ｄｉｓｔｒｉｃｔ，Ｓｈｉｊｉａｚｈｕａｎｇ，Ｈｅｂｅｉ,,,,,,2023-04-12,1,,,,,シージヤージユワンジーチヤンマオイーヨウシエンゴンスー,0
912,3700150115375,新規,0,2023-04-12,2023-04-12,株式会社スマイルゲートホールディングスメガポート支店,,外国会社等,東京都,千代田区,神田猿楽町２丁目１番１６号シエルブルー猿楽町３階,,13,101,1010064,大韓民国、京畿道城南市盆唐区板橋路３４４、９階,,,,,,2023-04-12,1,,,,,カブシキガイシヤスマイルゲートホールデイングスメガポートシテン,0
924,4010001234377,新規,0,2023-04-12,2023-04-12,カズフィトマ株式会社,,株式会社,東京都,中央区,銀座１丁目２７番８号セントラルビル７０３号,,13,102,1040061,,,,,,,2023-04-12,1,,,,,カズフィトマ,0
925,4010001234451,新規,0,2023-04-12,2023-04-12,株式会社Ｃｈａｍｉｃａｐｉ,,株式会社,東京都,中央区,銀座１丁目２２番１１号銀座大竹ビジデンス２Ｆ,,13,102,1040061,,,,,,,2023-04-12,1,,,,,チャミキャピ,0
926,4010001234492,新規,0,2023-04-12,2023-04-12,株式会社ちょいおでん,,株式会社,東京都,千代田区,岩本町３丁目９番１７号スリーセブンビル４Ｆ,,13,101,1010032,,,,,,,2023-04-12,1,,,,,チョイオデン,0
929,4010003040286,新規,0,2023-04-12,2023-04-12,合同会社ｆａｉｒｙ　ｆｌｏｓｓ,,合同会社,東京都,中央区,銀座１丁目１２番４号Ｎ＆ＥＢＬＤ．７階,,13,102,1040061,,,,,,,2023-04-12,1,,,,,フェアリーフロス,0
930,4010003040303,新規,0,2023-04-12,2023-04-12,合同会社駄菓子屋,,合同会社,東京都,中央区,銀座５丁目１４番１６号銀座アビタシオン８０３,,13,102,1040061,,,,,,,2023-04-12,1,,,,,ダガシヤ,0
931,4010005036489,新規,0,2023-04-12,2023-04-12,一般社団法人コスモヒーリング協会,,その他の設立登記法人,東京都,千代田区,鍛冶町２丁目８番７号光起ビル２Ｆ,,13,101,1010044,,,,,,,2023-04-12,1,,,,,コスモヒーリングキョウカイ,0
932,4010005036506,新規,0,2023-04-12,2023-04-12,一般社団法人日本二酸化塩素工業会,,その他の設立登記法人,東京都,千代田区,神田鍛冶町３丁目３番地大木ビル７Ｆ,,13,101,1010045,,,,,,,2023-04-12,1,,,,,ニホンニサンカエンソコウギョウカイ,0
938,4010401173695,新規,0,2023-04-12,2023-04-12,株式会社ＣＲＪ,,株式会社,東京都,港区,虎ノ門１丁目１１番９ー１３０１号,,13,103,1050001,,,,,,,2023-04-12,1,,,,,シーアールジェイ,0
939,4010403029879,新規,0,2023-04-12,2023-04-12,イノベーター合同会社,,合同会社,東京都,港区,南青山２丁目２番地１５ＷＩＮ青山５３１,,13,103,1070062,,,,,,,2023-04-12,1,,,,,イノベーター,0
940,4010403029887,新規,0,2023-04-12,2023-04-12,合同会社ＮＯＮ,,合同会社,東京都,港区,赤坂６丁目１０番３９号,,13,103,1070052,,,,,,,2023-04-12,1,,,,,ノン,0
951,4010801033846,新規,0,2023-04-12,2023-04-12,株式会社福植プロダクト,,株式会社,東京都,大田区,大森北１丁目７番２号,,13,111,1430016,,,,,,,2023-04-12,1,,,,,フクショクプロダクト,0
955,4010903008093,新規,0,2023-04-12,2023-04-12,Ｂｏｎｓａｉ　Ｒｅｓｅａｒｃｈ合同会社,,合同会社,東京都,世田谷区,尾山台１丁目１０－１８,,13,112,1580086,,,,,,,2023-04-12,1,,,,,ボンサイリサーチ,0
961,4011001153583,新規,0,2023-04-12,2023-04-12,株式会社ホムア,,株式会社,東京都,渋谷区,宇田川町１番１２－３４０７号,,13,113,1500042,,,,,,,2023-04-12,1,,,,,ホムア,0
962,4011001153708,新規,0,2023-04-12,2023-04-12,株式会社バッカリス,,株式会社,東京都,渋谷区,恵比寿西２丁目２０－８,,13,113,1500021,,,,,,,2023-04-12,1,,,,,バッカリス,0
964,4011003016623,新規,0,2023-04-12,2023-04-12,合同会社Ｃｅｔｒｏ,,合同会社,東京都,目黒区,緑が丘１丁目１６－２６,,13,110,1520034,,,,,,,2023-04-12,1,,,,,セトロ,0
965,4011005010021,新規,0,2023-04-12,2023-04-12,社会保険労務士法人ＴＯＳグループ,,その他の設立登記法人,東京都,渋谷区,千駄ヶ谷３丁目１１番８号,,13,113,1510051,,,,,,,2023-04-12,1,,,,,ティーオーエスグループ,0
978,4011105010615,新規,0,2023-04-12,2023-04-12,東京相続弁護士法人,,その他の設立登記法人,東京都,新宿区,新宿２丁目５－１２ＦＯＲＥＣＡＳＴ新宿ＡＶＥＮＵＥ６階,,13,104,1600022,,,,,,,2023-04-12,1,,,,,トウキョウソウゾク,0
983,4011201024568,新規,0,2023-04-12,2023-04-12,エレク株式会社,,株式会社,東京都,中野区,大和町４丁目２０番１０号,,13,114,1650034,,,,,,,2023-04-12,1,,,,,エレク,0
984,4011301028618,新規,0,2023-04-12,2023-04-12,株式会社Ｈｉｇｈ　ｔｏｕｃｈ,,株式会社,東京都,杉並区,西荻北４丁目３１番１１号ミンストレー西荻３０３,,13,115,1670042,,,,,,,2023-04-12,1,,,,,ハイタッチ,0
993,4011601026726,新規,0,2023-04-12,2023-04-12,大泉物産株式会社,,株式会社,東京都,練馬区,南大泉４丁目７番１７号,,13,120,1780064,,,,,,,2023-04-12,1,,,,,オオイズミブッサン,0
998,4011803005602,新規,0,2023-04-12,2023-04-12,ＬＰＩ　ｃｏｎｓｕｌｔｉｎｇ合同会社,,合同会社,東京都,足立区,青井５丁目１２番４１号４Ｆ,,13,121,1210012,,,,,,,2023-04-12,1,,,,,エルピーアイコンサルティング,0
999,4012401040388,新規,0,2023-04-12,2023-04-12,株式会社コスモハウジング,,株式会社,東京都,小金井市,東町４丁目２３番４－３０１号プラザ新小金井,,13,210,1840011,,,,,,,2023-04-12,1,,,,,コスモハウジング,0
1004,4013301050576,新規,0,2023-04-12,2023-04-12,株式会社ｚｕｒａｂｉ,,株式会社,東京都,豊島区,東池袋３丁目２番４号共永ビル６Ｆ,,13,116,1700013,,,,,,,2023-04-12,1,,,,,ヅラビ,0
1005,4013301050592,新規,0,2023-04-12,2023-04-12,誠達國際株式会社,,株式会社,東京都,豊島区,南池袋１丁目１６番１５号ダイヤゲート池袋５階,,13,116,1710022,,,,,,,2023-04-12,1,,,,,セイタツコクサイ,0
1014,4020001151076,新規,0,2023-04-12,2023-04-12,株式会社２ＢＥＥ,,株式会社,神奈川県,川崎市多摩区,登戸２４３２－１ＢｌｕｅｗａｔｅｒＢｕｉｌｄｉｎｇ６Ｆ,,14,135,2140014,,,,,,,2023-04-12,1,,,,,トゥービー,0
1015,4020001151092,新規,0,2023-04-12,2023-04-12,株式会社土屋工業,,株式会社,神奈川県,横浜市鶴見区,下末吉２丁目２４－１４,,14,101,2300012,,,,,,,2023-04-12,1,,,,,ツチヤコウギョウ,0
1016,4020001151118,新規,0,2023-04-12,2023-04-12,株式会社レナトゥス,,株式会社,神奈川県,横浜市鶴見区,鶴見中央３丁目２０番９号鶴見大栄ビル２階,,14,101,2300051,,,,,,,2023-04-12,1,,,,,レナトゥス,0
1018,4020003023736,新規,0,2023-04-12,2023-04-12,合同会社Ｔａｘｉｆｌｙ,,合同会社,神奈川県,川崎市多摩区,東三田２丁目７番６号,,14,135,2140033,,,,,,,2023-04-12,1,,,,,タクシーフライ,0
1021,4021005012784,新規,0,2023-04-12,2023-04-12,医療法人光世,,その他の設立登記法人,神奈川県,伊勢原市,伊勢原３丁目６番２号,,14,214,2591131,,,,,,,2023-04-12,1,,,,,ヒカルヨ,0
1029,4030001153303,新規,0,2023-04-12,2023-04-12,株式会社加藤企画,,株式会社,埼玉県,鴻巣市,下忍３４３７番地２４,,11,217,3690113,,,,,,,2023-04-12,1,,,,,カトウキカク,0
1030,4030001153311,新規,0,2023-04-12,2023-04-12,株式会社創建美社,,株式会社,埼玉県,川越市,清水町１７番地４滝上ビル１階,,11,201,3501145,,,,,,,2023-04-12,1,,,,,ソウケンビシャ,0
1031,4030001153328,新規,0,2023-04-12,2023-04-12,株式会社ベストプレシャス,,株式会社,埼玉県,越谷市,相模町５丁目６６番地３,,11,222,3430823,,,,,,,2023-04-12,1,,,,,ベストプレシャス,0
1032,4030003021549,新規,0,2023-04-12,2023-04-12,合同会社エン,,合同会社,埼玉県,戸田市,中町１丁目６番２号１０５号室,,11,224,3350012,,,,,,,2023-04-12,1,,,,,エン,0
1033,4030003021557,新規,0,2023-04-12,2023-04-12,合同会社ＳＫＰ,,合同会社,埼玉県,八潮市,大字八條２６７３番地３,,11,234,3400801,,,,,,,2023-04-12,1,,,,,エスケーピー,0
1034,4030003021565,新規,0,2023-04-12,2023-04-12,ワンワールド・ジャパン合同会社,,合同会社,埼玉県,狭山市,大字青柳１２４番地の１３８,,11,215,3501301,,,,,,,2023-04-12,1,,,,,ワンワールドジャパン,0
1037,4040001127867,新規,0,2023-04-12,2023-04-12,株式会社ＲＥＪＵＶＥＮＡＴＥ,,株式会社,千葉県,四街道市,四街道１丁目４番８号,,12,228,2840005,,,,,,,2023-04-12,1,,,,,リジュベネイト,0
1038,4040001127883,新規,0,2023-04-12,2023-04-12,株式会社Ｂｅｇｉｎｎｉｎｇ,,株式会社,千葉県,千葉市若葉区,加曽利町１７５１番地３,,12,104,2640017,,,,,,,2023-04-12,1,,,,,ビギニング,0
1039,4040001127933,新規,0,2023-04-12,2023-04-12,株式会社ＢＴＣ,,株式会社,千葉県,千葉市花見川区,幕張町２丁目１２３８－２０５,,12,102,2620032,,,,,,,2023-04-12,1,,,,,ビーティーシー,0
1043,4060001035861,新規,0,2023-04-12,2023-04-12,株式会社ＬＥＳＰＡＲＩＡ,,株式会社,栃木県,足利市,西砂原後町１１９６番地８,,09,202,3260065,,,,,,,2023-04-12,1,,,,,レパリア,0
1049,4070001040316,新規,0,2023-04-12,2023-04-12,株式会社吉勝,,株式会社,群馬県,伊勢崎市,田中島町１４２１番地１５ライヴリ・ツイン１０１,,10,204,3720802,,,,,,,2023-04-12,1,,,,,ヨシカツ,0
1053,4080101023913,新規,0,2023-04-12,2023-04-12,株式会社ＳＩＫ,,株式会社,静岡県,富士宮市,小泉１９６５番地の１０,,22,207,4180022,,,,,,,2023-04-12,1,,,,,エスアイケイ,0
1060,4090001018070,新規,0,2023-04-12,2023-04-12,株式会社湖桜製麺,,株式会社,山梨県,富士吉田市,竜ケ丘２丁目４番４１号,,19,202,4030014,,,,,,,2023-04-12,1,,,,,コザクラセイメン,0
1061,4090003002295,新規,0,2023-04-12,2023-04-12,合同会社Ｍａｋｅｒｓ　Ｇｕｉｌｄ,,合同会社,山梨県,甲府市,大里町１６２４－１０,,19,201,4000053,,,,,,,2023-04-12,1,,,,,メイカーズギルド,0
1062,4100001036319,新規,0,2023-04-12,2023-04-12,株式会社ＦＵＬＧＥＮＳ,,株式会社,長野県,松本市,小屋南１丁目２６番３号,,20,202,3990038,,,,,,,2023-04-12,1,,,,,フルゲンス,0
1066,4100003006971,新規,0,2023-04-12,2023-04-12,合同会社Ｂｌｕｅ　Ｔｒｅｅ,,合同会社,長野県,茅野市,玉川３３８４番地１５,,20,214,3910011,,,,,,,2023-04-12,1,,,,,ブルーツリー,0
1072,4110005016919,新規,0,2023-04-12,2023-04-12,柏崎市商工会,,その他の設立登記法人,新潟県,柏崎市,西山町池浦８７７番地,,15,205,9494123,,,,,,,2023-04-12,1,,,,,カシワザキシ,0
1084,4120001253754,新規,0,2023-04-12,2023-04-12,株式会社ＭＩＣＨＩ,,株式会社,大阪府,大阪市中央区,農人橋１丁目１番２９－１１０８号,,27,128,5400011,,,,,,,2023-04-12,1,,,,,ミチ,0
1085,4120001253820,新規,0,2023-04-12,2023-04-12,株式会社アーリアム,,株式会社,大阪府,大阪市北区,梅田１丁目２番２号大阪駅前第２ビル１２－１２,,27,127,5300001,,,,,,,2023-04-12,1,,,,,アーリアム,0
1086,4120001253853,新規,0,2023-04-12,2023-04-12,株式会社ａｃｔ　ａｒｉｓｅ,,株式会社,大阪府,大阪市西区,新町１丁目８番１号行成ビル９Ｆ,,27,106,5500013,,,,,,,2023-04-12,1,,,,,アクトアライズ,0
1087,4120001253878,新規,0,2023-04-12,2023-04-12,ベノワ株式会社,,株式会社,大阪府,大阪市東住吉区,東田辺２丁目２５番１４－１０２号,,27,121,5460032,,,,,,,2023-04-12,1,,,,,ベノワ,0
1088,4120001253894,新規,0,2023-04-12,2023-04-12,松和株式会社,,株式会社,大阪府,大阪市旭区,清水４丁目４番３０号,,27,117,5350021,,,,,,,2023-04-12,1,,,,,ショウワ,0
1090,4120101067336,新規,0,2023-04-12,2023-04-12,株式会社三新不動産,,株式会社,大阪府,堺市堺区,大浜南町３丁１番６３号,,27,141,5900976,,,,,,,2023-04-12,1,,,,,サンシンフドウサン,0
1091,4120103005161,新規,0,2023-04-12,2023-04-12,あさがおホーム合同会社,,合同会社,大阪府,和泉市,肥子町２丁目６番１４号,,27,219,5940076,,,,,,,2023-04-12,1,,,,,アサガオホーム,0
1094,4120903004585,新規,0,2023-04-12,2023-04-12,合同会社Ｂ．Ｐ．Ｐ,,合同会社,大阪府,箕面市,新稲５丁目１４番１０号（Ｂ号）,,27,220,5620005,,,,,,,2023-04-12,1,,,,,ビーピーピー,0
1096,4120905006448,新規,0,2023-04-12,2023-04-12,一般社団法人フィジオセラピーとメンタルヘルスセラピー理論社会実装研究会,,その他の設立登記法人,大阪府,箕面市,七丁目３番１２号,,27,220,5620000,,,,,,,2023-04-12,1,,,,,フィジオセラピートメンタルヘルスセラピーリロンシャカイジッソウケンキュウカイ,0
1097,4122001036882,新規,0,2023-04-12,2023-04-12,株式会社エスクリエイト,,株式会社,大阪府,東大阪市,荒本新町３番４号,,27,227,5770022,,,,,,,2023-04-12,1,,,,,エスクリエイト,0
1105,4130001074068,新規,0,2023-04-12,2023-04-12,株式会社リノア,,株式会社,京都府,京都市中京区,西洞院通姉小路下る姉西洞院町５４５番地,,26,104,6048273,,,,,,,2023-04-12,1,,,,,リノア,0
1115,4140001129647,新規,0,2023-04-12,2023-04-12,甲南タクシー株式会社,,株式会社,兵庫県,姫路市,豊富町御蔭１１０番地１,,28,201,6792122,,,,,,,2023-04-12,1,,,,,コウナンタクシー,0
1116,4140001129738,新規,0,2023-04-12,2023-04-12,株式会社イワサキ,,株式会社,兵庫県,姫路市,西今宿６丁目４番２－２号,,28,201,6700061,,,,,,,2023-04-12,1,,,,,イワサキ,0
1117,4140001129746,新規,0,2023-04-12,2023-04-12,株式会社てんかむてき,,株式会社,兵庫県,養父市,八鹿町八木５３７番地１,,28,222,6670041,,,,,,,2023-04-12,1,,,,,テンカムテキ,0
1118,4140001129762,新規,0,2023-04-12,2023-04-12,株式会社ウェディナケア,,株式会社,兵庫県,洲本市,物部１丁目１７番６４号,,28,205,6560051,,,,,,,2023-04-12,1,,,,,ウェディナケア,0
1125,4140003018963,新規,0,2023-04-12,2023-04-12,合同会社ＲＯＫＵＭＡＲＵ,,合同会社,兵庫県,神戸市須磨区,青葉町４丁目１番１５－３１号,,28,107,6540038,,,,,,,2023-04-12,1,,,,,ロクマル,0
1129,4140005026576,新規,0,2023-04-12,2023-04-12,一般社団法人ソーシャルクリエイティブラボ,,その他の設立登記法人,兵庫県,西宮市,苦楽園三番町５番１０号,,28,204,6620081,,,,,,,2023-04-12,1,,,,,ソーシャルクリエイティブラボ,0
1147,4180301037281,新規,0,2023-04-12,2023-04-12,株式会社ＢＥＥｓｔ,,株式会社,愛知県,刈谷市,末広町１丁目１４番地１７,,23,210,4480802,,,,,,,2023-04-12,1,,,,,ビースト,0
1149,4190001030313,新規,0,2023-04-12,2023-04-12,株式会社ＣｏｃｏｒｏＢｅｓｔ,,株式会社,三重県,四日市市,三重１丁目２番地メインセンター,,24,202,5120912,,,,,,,2023-04-12,1,,,,,ココロベスト,0
1156,4200001041184,新規,0,2023-04-12,2023-04-12,株式会社葵征会,,株式会社,岐阜県,各務原市,鵜沼各務原町４丁目２９９番地２,,21,213,5090141,,,,,,,2023-04-12,1,,,,,キセイカイ,0
1160,4220001025350,新規,0,2023-04-12,2023-04-12,ＴＳＵＫＵＭＯ　ＳＴＹＬＥ株式会社,,株式会社,石川県,鳳珠郡能登町,字越坂四字８番地,,17,463,9270552,,,,,,,2023-04-12,1,,,,,ツクモスタイル,0
1164,4230003002000,新規,0,2023-04-12,2023-04-12,合同会社グッドワークス,,合同会社,富山県,射水市,東明中町１番地９メゾン東明ＩＩ１０２,00130078,16,211,9330238,,,,,,,2023-04-12,1,,,,,グッドワークス,0
1169,4240001061336,新規,0,2023-04-12,2023-04-12,株式会社明昭工業,,株式会社,広島県,東広島市,西条町寺家４８４５番地１－４０８号,,34,212,7390041,,,,,,,2023-04-12,1,,,,,メイショウコウギョウ,0
1177,4270001008755,新規,0,2023-04-12,2023-04-12,中一＆スマイルカンパニー株式会社,,株式会社,鳥取県,八頭郡若桜町,大字舂米６３５番地１,00130079,31,325,6800700,,,,,,,2023-04-12,1,,,,,ナカイチアンドスマイルカンパニー,0
1180,4290001101161,新規,0,2023-04-12,2023-04-12,株式会社ｗａｎｏｗａ,,株式会社,福岡県,福岡市西区,北原２丁目１５－４８,,40,135,8190379,,,,,,,2023-04-12,1,,,,,ワノワ,0
1184,4290003013776,新規,0,2023-04-12,2023-04-12,合同会社ＫＡＨＯ,,合同会社,福岡県,福岡市東区,香椎照葉６丁目２－５２－４００５,,40,131,8130017,,,,,,,2023-04-12,1,,,,,カホ,0
1186,4290005018988,新規,0,2023-04-12,2023-04-12,一般社団法人Ｗワーケーション協会,,その他の設立登記法人,福岡県,福岡市博多区,博多駅前１丁目２３番１号ＰａｒｋＦｒｏｎｔ博多駅前１丁目５Ｆ－Ｂ,,40,132,8120011,,,,,,,2023-04-12,1,,,,,ダブルワーケーションキョウカイ,0
1189,4290803004388,新規,0,2023-04-12,2023-04-12,合同会社ＴＲＩＰＬＥ．Ｉ,,合同会社,福岡県,直方市,大字山部２４４番地１４‐８０７号,,40,204,8220034,,,,,,,2023-04-12,1,,,,,トリプルドットアイ,0
1191,4310001018361,新規,0,2023-04-12,2023-04-12,株式会社Ｃｌａｎ,,株式会社,長崎県,長崎市,伊良林１丁目８番８号,,42,201,8500802,,,,,,,2023-04-12,1,,,,,クラン,0
1200,4360001031839,新規,0,2023-04-12,2023-04-12,株式会社ａｋａｎｅ電気土木,,株式会社,沖縄県,名護市,大中５丁目４番１１号,,47,209,9050017,,,,,,,2023-04-12,1,,,,,アカネデンキドボク,0
1208,4400001016199,新規,0,2023-04-12,2023-04-12,株式会社サムライキャッスルインベスト,,株式会社,岩手県,盛岡市,津志田南３丁目７番５７号,,03,201,0200839,,,,,,,2023-04-12,1,,,,,サムライキャッスルインベスト,0
1230,4700150115358,新規,0,2023-04-12,2023-04-12,ｙｉｗｕｓｈｉ　ｂｉａｏｙｕｅ　ｍａｏｙｉ　ｙｏｕｘｉａｎｇｏｎｇｓｉ,,外国会社等,,,,,,,,２ｎｄ　Ｆｌｏｏｒ，Ｕｎｉｔ　２，Ｂｕｉｌｄｉｎｇ　７，Ｈｏｕｌｅ　ｄｉｓｔｒｉｃｔ　３　Ｎｉａｎｓａｎｌｉ　ｓｔｒｅｅｔ　Ｙｉｗｕ　Ｚｈｅｊｉａｎｇ　３２２０００　ＣＮ,,,,,,2023-04-12,1,,,,,イーウーシービャオユエマオイーヨウシエンゴンスー,0
1231,4700150115366,新規,0,2023-04-12,2023-04-12,Ｍｅｉｙｏｕｍｅｉ　Ｅｌｅｃｔｒｏｎｉｃｓ　Ｃｏ．，Ｌｔｄ,,外国会社等,,,,,,,,Ｂａｏａｎ　Ｆｕｙｏｎｇ　ｃｈａｍｂｅｒ　ｏｆ　Ｃｏｍｍｅｒｃｅ　Ｉｎｆｏｒｍａｔｉｏｎ　ＣｅｎｔｅｒＡ１００２　ＳｈｅｎＺｈｅｎ　ＧＵＡＮＧ　ＤＯＮＧ　Ｃｈｉｎａ,,,,,,2023-04-12,1,,,,,シエンジエンシーメイヨウメイコージーヨウシエンゴンスー,0
1232,4700150115374,新規,0,2023-04-12,2023-04-12,深セン市卓爾芯電子技術有限公司,,外国会社等,,,,,,,,中国深セン市南山区桃源街道平山社区麗山路６５号平山民企科技園２棟西５０７,,,,,,2023-04-12,1,,,,,シンセンシタクジシンデンシギジユツユウゲンコウシ,0
1239,5010001234426,新規,0,2023-04-12,2023-04-12,プイグ・ジャパン株式会社,,株式会社,東京都,中央区,日本橋室町４丁目３番９号,,13,102,1030022,,,,,,,2023-04-12,1,,,,,プイグジャパン,0
1240,5010001234450,新規,0,2023-04-12,2023-04-12,アルタ株式会社,,株式会社,東京都,中央区,銀座７丁目１３番６号サガミビル２階,,13,102,1040061,,,,,,,2023-04-12,1,,,,,アルタ,0
1241,5010001234467,新規,0,2023-04-12,2023-04-12,ミレニアムアジア株式会社,,株式会社,東京都,千代田区,平河町２丁目１２－２ニュー福井ビル３階,,13,101,1020093,,,,,,,2023-04-12,1,,,,,ミレニアムアジア,0
1244,5010003040293,新規,0,2023-04-12,2023-04-12,プレイシープラス合同会社,,合同会社,東京都,中央区,東日本橋２丁目２８番４号日本橋ＣＥＴビル２階,,13,102,1030004,,,,,,,2023-04-12,1,,,,,プレイシープラス,0
1248,5010105002209,新規,0,2023-04-12,2023-04-12,一般社団法人多摩美術大学校友会,,その他の設立登記法人,東京都,八王子市,鑓水２丁目１７２３番地,,13,201,1920375,,,,,,,2023-04-12,1,,,,,タマビジュツダイガクコウユウカイ,0
1253,5010401173612,新規,0,2023-04-12,2023-04-12,株式会社Ａｒｋ　Ｍ　ｐｒｏｍｏｔｉｏｎ,,株式会社,東京都,港区,南青山３丁目１０－４１ジュエル青山ビル２０２,,13,103,1070062,,,,,,,2023-04-12,1,,,,,アークエムプロモーション,0
1254,5010401173661,新規,0,2023-04-12,2023-04-12,株式会社岩井商会,,株式会社,東京都,港区,東麻布３丁目４番６号ＡＳＴＩＬＥ麻布十番４０２,,13,103,1060044,,,,,,,2023-04-12,1,,,,,イワイショウカイ,0
1255,5010401173703,新規,0,2023-04-12,2023-04-12,株式会社東京ビリビリ団,,株式会社,東京都,港区,麻布十番１丁目４番８号マドモアゼルビル５０１号室,,13,103,1060045,,,,,,,2023-04-12,1,,,,,トウキョウビリビリダン,0
1259,5010403029894,新規,0,2023-04-12,2023-04-12,ウィンクルス合同会社,,合同会社,東京都,港区,赤坂９丁目１番２８号,,13,103,1070052,,,,,,,2023-04-12,1,,,,,ウィンクルス,0
1260,5010403029911,新規,0,2023-04-12,2023-04-12,ＵＲＩＣＯＲＮ合同会社,,合同会社,東京都,港区,南麻布２丁目３番１１‐３２３号,,13,103,1060047,,,,,,,2023-04-12,1,,,,,ユリコーン,0
1265,5010601062887,新規,0,2023-04-12,2023-04-12,東京ポンプ株式会社,,株式会社,東京都,江東区,亀戸４丁目５２－１２ラブリハイツ亀戸３０３,,13,108,1360071,,,,,,,2023-04-12,1,,,,,トウキョウポンプ,0
1270,5010803004506,新規,0,2023-04-12,2023-04-12,ＳＫＹ　ＪＡＰＡＮ合同会社,,合同会社,東京都,大田区,山王２丁目３９番２３－１１０号,,13,111,1430023,,,,,,,2023-04-12,1,,,,,スカイジャパン,0
1273,5010903008068,新規,0,2023-04-12,2023-04-12,ＡＳＸＥＥＤ合同会社,,合同会社,東京都,世田谷区,上馬２丁目３－１２,,13,112,1540011,,,,,,,2023-04-12,1,,,,,アスシード,0
1283,5011001153698,新規,0,2023-04-12,2023-04-12,株式会社ＪＯＩＮ　ＣＯＬＯＲ,,株式会社,東京都,渋谷区,道玄坂１丁目１０番８号渋谷道玄坂東急ビル２Ｆ－Ｃ,,13,113,1500043,,,,,,,2023-04-12,1,,,,,ジョインカラー,0
1284,5011003016614,新規,0,2023-04-12,2023-04-12,合同会社アイディアリアル,,合同会社,東京都,渋谷区,渋谷２丁目１９番地１５号宮益坂ビルディング６０９,,13,113,1500002,,,,,,,2023-04-12,1,,,,,アイディアリアル,0
1285,5011003016622,新規,0,2023-04-12,2023-04-12,合同会社ｃｏｎｔｉｎｕｏ,,合同会社,東京都,渋谷区,道玄坂１丁目１０番８号渋谷道玄坂東急ビル２Ｆ－Ｃ,,13,113,1500043,,,,,,,2023-04-12,1,,,,,コンティニュオ,0
1290,5011101102489,新規,0,2023-04-12,2023-04-12,株式会社ｄｉｓｔｏｒｔｉｏｎ,,株式会社,東京都,新宿区,西新宿４丁目１６番３号－２０５Ｅ,,13,104,1600023,,,,,,,2023-04-12,1,,,,,ディストーション,0
1302,5011803005592,新規,0,2023-04-12,2023-04-12,合同会社三野輪工業,,合同会社,東京都,足立区,六木３丁目３６番３号カーサソレイユ３０２号,,13,121,1210052,,,,,,,2023-04-12,1,,,,,ミノワコウギョウ,0
1303,5012301013385,新規,0,2023-04-12,2023-04-12,株式会社イエミライ,,株式会社,東京都,町田市,中町１丁目４－２町田新産業創造センター,,13,209,1940021,,,,,,,2023-04-12,1,,,,,イエミライ,0
1305,5012405004850,新規,0,2023-04-12,2023-04-12,特定非営利活動法人Ｐｅｎｄｅｍｙデジタル教育ラボ,,その他の設立登記法人,東京都,府中市,幸町１丁目１９番地の１７,,13,206,1830054,,,,,,,2023-04-12,1,,,,,ペンデミーデジタルキョウイクラボ,0
1310,5012805003188,新規,0,2023-04-12,2023-04-12,一般社団法人Ｙｏｕｒ　ｄｏｏｒ,,その他の設立登記法人,東京都,立川市,錦町１丁目４番４号サニービル２階ＣＳ－１６９,,13,202,1900022,,,,,,,2023-04-12,1,,,,,ユアードア,0
1311,5013301050575,新規,0,2023-04-12,2023-04-12,株式会社ｇｕｕｓｃａ,,株式会社,東京都,豊島区,東池袋１丁目１番１０号新新園ビル４階,,13,116,1700013,,,,,,,2023-04-12,1,,,,,グースカ,0
1312,5013301050591,新規,0,2023-04-12,2023-04-12,株式会社秀,,株式会社,東京都,豊島区,南大塚２丁目４１－４大栗ビル２Ｆ,,13,116,1700005,,,,,,,2023-04-12,1,,,,,シュウ,0
1325,5020001151034,新規,0,2023-04-12,2023-04-12,株式会社ｂｅ　ｔｒｅｅ,,株式会社,神奈川県,横浜市青葉区,奈良町２７６２番地１０１,,14,117,2270036,,,,,,,2023-04-12,1,,,,,ビーツリー,0
1326,5020001151083,新規,0,2023-04-12,2023-04-12,株式会社三共営繕,,株式会社,神奈川県,横浜市南区,三春台１２０番地ロイヤルヒルズ１、３０４,,14,105,2320002,,,,,,,2023-04-12,1,,,,,サンキョウエイゼン,0
1327,5020001151091,新規,0,2023-04-12,2023-04-12,ＢＡＳＥ　ＬＡＢ株式会社,,株式会社,神奈川県,川崎市麻生区,王禅寺２４１番地５０,,14,137,2150013,,,,,,,2023-04-12,1,,,,,ベースラボ,0
1328,5020001151109,新規,0,2023-04-12,2023-04-12,株式会社ロン商店,,株式会社,神奈川県,横浜市泉区,上飯田町３８４０番地,,14,116,2450018,,,,,,,2023-04-12,1,,,,,ロンショウテン,0
1335,5020003023710,新規,0,2023-04-12,2023-04-12,合同会社ほのぼの,,合同会社,神奈川県,横浜市西区,北幸２丁目１０番２８号むつみビル３Ｆ,,14,103,2200004,,,,,,,2023-04-12,1,,,,,ホノボノ,0
1337,5020005015929,新規,0,2023-04-12,2023-04-12,労働者協同組合事務局ワーカーズ・コレクティブＪａｍ,,その他の設立登記法人,神奈川県,横浜市港北区,新横浜２丁目８－４オルタナティブ生活館４階,,14,109,2220033,,,,,,,2023-04-12,1,,,,,ジムキョクワーカーズコレクティブジャム,0
1344,5021001078647,新規,0,2023-04-12,2023-04-12,株式会社メイテック分割準備会社,,株式会社,神奈川県,厚木市,森の里青山１５番１号,,14,212,2430123,,,,,,,2023-04-12,1,,,,,メイテックブンカツジュンビガイシャ,0
1345,5021003012959,新規,0,2023-04-12,2023-04-12,合同会社ＹＳＫ,,合同会社,神奈川県,座間市,緑ケ丘４丁目４番３号ミーチェ３０１号,,14,216,2520021,,,,,,,2023-04-12,1,,,,,ワイエスケー,0
1352,5030001153277,新規,0,2023-04-12,2023-04-12,金象株式会社,,株式会社,埼玉県,和光市,南１丁目７番５８号グレイスハイム和光２０５号室,,11,229,3510104,,,,,,,2023-04-12,1,,,,,キンゾウ,0
1353,5030001153285,新規,0,2023-04-12,2023-04-12,ＸＣＬＩＰ株式会社,,株式会社,埼玉県,越谷市,赤山本町３番地２４－１２０１号,,11,222,3430808,,,,,,,2023-04-12,1,,,,,クロスクリップ,0
1354,5030001153302,新規,0,2023-04-12,2023-04-12,株式会社ＳＰＥＳ　ＴＲＵＳＴ,,株式会社,埼玉県,春日部市,六軒町５５３番地１,,11,214,3440012,,,,,,,2023-04-12,1,,,,,スペーストラスト,0
1355,5030001153310,新規,0,2023-04-12,2023-04-12,株式会社Ｍｉｄｆｉｅｌｄ,,株式会社,埼玉県,さいたま市北区,日進町２丁目１８１６－１－３０７,,11,102,3310823,,,,,,,2023-04-12,1,,,,,ミッドフィールド,0
1356,5030001153319,新規,0,2023-04-12,2023-04-12,世豊株式会社,,株式会社,埼玉県,八潮市,大字西袋１３９１番地,,11,234,3400833,,,,,,,2023-04-12,1,,,,,セイホウ,0
1357,5030001153343,新規,0,2023-04-12,2023-04-12,株式会社Ｐａｓｙａｒｉ,,株式会社,埼玉県,熊谷市,弥藤吾１５０６番地,,11,202,3600203,,,,,,,2023-04-12,1,,,,,パシャリ,0
1359,5030005021190,新規,0,2023-04-12,2023-04-12,医療法人光塩会,,その他の設立登記法人,埼玉県,越谷市,大字大道２６８番地,,11,222,3430035,,,,,,,2023-04-12,1,,,,,コウエンカイ,0
1362,5040001127858,新規,0,2023-04-12,2023-04-12,株式会社Ｂａｃｋ　Ｓｔａｇｅ,,株式会社,千葉県,柏市,若柴１７８番地４柏の葉キャンパス１４８街区１パークシティ柏の葉キャンパスザ・ゲートタワーウェスト３６０４,,12,217,2770871,,,,,,,2023-04-12,1,,,,,バックステージ,0
1363,5040001127882,新規,0,2023-04-12,2023-04-12,株式会社稲田興業,,株式会社,千葉県,浦安市,猫実４丁目１８番１９号,,12,227,2790004,,,,,,,2023-04-12,1,,,,,イネダコウギョウ,0
1364,5040001127916,新規,0,2023-04-12,2023-04-12,株式会社天希興業,,株式会社,千葉県,松戸市,竹ケ花西町３１１番地の８,,12,207,2710071,,,,,,,2023-04-12,1,,,,,アマキコウギョウ,0
1365,5040001127924,新規,0,2023-04-12,2023-04-12,株式会社ＨＮＦ,,株式会社,千葉県,流山市,おおたかの森南１丁目２５番地の２パークリーフ６１２,,12,220,2700139,,,,,,,2023-04-12,1,,,,,エイチエヌエフ,0
1366,5040001127932,新規,0,2023-04-12,2023-04-12,株式会社アクト・プラス,,株式会社,千葉県,柏市,大室１丁目２４番地１,,12,217,2770813,,,,,,,2023-04-12,1,,,,,アクトプラス,0
1368,5040003022314,新規,0,2023-04-12,2023-04-12,合同会社ｓａｋｕｙａ,,合同会社,千葉県,柏市,南柏１丁目８番１３－２０１号,,12,217,2770855,,,,,,,2023-04-12,1,,,,,サクヤ,0
1370,5050003007405,新規,0,2023-04-12,2023-04-12,合同会社ＣＡＲＥ　ＬＩＮＫ,,合同会社,茨城県,稲敷市,柴崎字寄居下６０６番１,,08,229,3001412,,,,,,,2023-04-12,1,,,,,ケアリンク,0
1371,5050003007413,新規,0,2023-04-12,2023-04-12,合同会社スカイ,,合同会社,茨城県,土浦市,桜町２丁目８番４号,,08,203,3000037,,,,,,,2023-04-12,1,,,,,スカイ,0
1374,5060001035869,新規,0,2023-04-12,2023-04-12,株式会社Ｔｈｒｅｅ　ｃ　ｆａｃｔ,,株式会社,栃木県,宇都宮市,上戸祭町６６７番地１２,,09,201,3200051,,,,,,,2023-04-12,1,,,,,スリーシーファクト,0
1380,5070005010099,新規,0,2023-04-12,2023-04-12,特定非営利活動法人日本スカンジナビア放射線医学協会,,その他の設立登記法人,群馬県,前橋市,昭和町３丁目３９番２２,,10,201,3710034,,,,,,,2023-04-12,1,,,,,ニホンスカンジナビアホウシャセンイガクキョウカイ,0
1391,5110003005022,新規,0,2023-04-12,2023-04-12,合同会社Ｃａｍ　ｏｎ,,合同会社,新潟県,東蒲原郡阿賀町,津川２４６－１,,15,385,9594402,,,,,,,2023-04-12,1,,,,,カムオン,0
1395,5110005016918,新規,0,2023-04-12,2023-04-12,社会福祉法人慶友はるかぜ福祉会,,その他の設立登記法人,新潟県,小千谷市,大字山谷１６３５番地１００,,15,208,9470043,,,,,,,2023-04-12,1,,,,,ケイユウハルカゼフクシカイ,0
1402,5120001253786,新規,0,2023-04-12,2023-04-12,エレファント株式会社,,株式会社,大阪府,大阪市西淀川区,御幣島４丁目１０番１７号,,27,113,5550012,,,,,,,2023-04-12,1,,,,,エレファント,0
1403,5120001253836,新規,0,2023-04-12,2023-04-12,株式会社エンネクト,,株式会社,大阪府,大阪市中央区,農人橋１丁目４－３１,,27,128,5400011,,,,,,,2023-04-12,1,,,,,エンネクト,0
1404,5120001253852,新規,0,2023-04-12,2023-04-12,株式会社Ｂｉｒｄ４４,,株式会社,大阪府,大阪市東成区,東小橋３丁目１８－２１,,27,115,5370024,,,,,,,2023-04-12,1,,,,,バードヨンヨン,0
1405,5120001253902,新規,0,2023-04-12,2023-04-12,株式会社エイトテック,,株式会社,大阪府,大阪市生野区,生野東４丁目１０－９,,27,116,5440025,,,,,,,2023-04-12,1,,,,,エイトテック,0
1408,5120101067310,新規,0,2023-04-12,2023-04-12,株式会社Ａ‐ＪＡＰＡＮ,,株式会社,大阪府,泉南市,信達市場１７２０番地の１,,27,228,5900504,,,,,,,2023-04-12,1,,,,,エージャパン,0
1409,5120101067335,新規,0,2023-04-12,2023-04-12,株式会社ＴＡＯ,,株式会社,大阪府,堺市西区,上野芝町３丁３番１６－７１１号,,27,144,5938301,,,,,,,2023-04-12,1,,,,,タオ,0
1412,5120103005152,新規,0,2023-04-12,2023-04-12,合同会社リブラボ,,合同会社,大阪府,和泉市,幸２丁目１３番２１号,,27,219,5940005,,,,,,,2023-04-12,1,,,,,リブラボ,0
1413,5120103005169,新規,0,2023-04-12,2023-04-12,合同会社ｉｋｋｉｎｏｍｉ,,合同会社,大阪府,泉北郡忠岡町,忠岡東３丁目１９番２８－２０６号,,27,341,5950805,,,,,,,2023-04-12,1,,,,,イッキノミ,0
1414,5120901047379,新規,0,2023-04-12,2023-04-12,リユースフルプラス株式会社,,株式会社,大阪府,吹田市,原町２丁目５４番１－２０８号,,27,205,5640004,,,,,,,2023-04-12,1,,,,,リユースフルプラス,0
1415,5120901047387,新規,0,2023-04-12,2023-04-12,株式会社Ｍ’ｓコーポレーション,,株式会社,大阪府,豊中市,桜の町３丁目９番４の１号,,27,203,5600054,,,,,,,2023-04-12,1,,,,,エムズコーポレーション,0
1416,5120901047395,新規,0,2023-04-12,2023-04-12,株式会社ヤマシュウ,,株式会社,大阪府,豊中市,服部西町５丁目１７番１６号,,27,203,5610858,,,,,,,2023-04-12,1,,,,,ヤマシュウ,0
1421,5130001074067,新規,0,2023-04-12,2023-04-12,株式会社Ａｍｉｔｙ,,株式会社,京都府,京都市北区,上賀茂津ノ国町８４番地１,,26,101,6038027,,,,,,,2023-04-12,1,,,,,アミティ,0
1425,5130005016734,新規,0,2023-04-12,2023-04-12,一般社団法人イノベーション・キュレーター協会,,その他の設立登記法人,京都府,京都市下京区,室町通綾小路上る鶏鉾町４８０番地オフィスワン四条烏丸１３階,,26,106,6008491,,,,,,,2023-04-12,1,,,,,イノベーションキュレーターキョウカイ,0
1439,5140005026575,新規,0,2023-04-12,2023-04-12,医療法人社団まつば眼科,,その他の設立登記法人,兵庫県,西宮市,甲子園三保町９番１３号,,28,204,6638163,,,,,,,2023-04-12,1,,,,,マツバガンカ,0
1442,5150001026306,新規,0,2023-04-12,2023-04-12,株式会社タケマル,,株式会社,奈良県,磯城郡川西町,大字梅戸９６－１,,29,361,6360203,,,,,,,2023-04-12,1,,,,,タケマル,0
1446,5160003002840,新規,0,2023-04-12,2023-04-12,合同会社オフィスＹ・Ｓ,,合同会社,滋賀県,大津市,南郷４丁目３６番５号,,25,201,5200865,,,,,,,2023-04-12,1,,,,,オフイスワイエス,0
1454,5180003025105,新規,0,2023-04-12,2023-04-12,合同会社ＲＯＵＮＤＵＰ,,合同会社,愛知県,春日井市,上条町２丁目１０６番地,,23,206,4860833,,,,,,,2023-04-12,1,,,,,ラウンドアップ,0
1457,5180301037297,新規,0,2023-04-12,2023-04-12,株式会社ＴＳＵＭＩＫＩ,,株式会社,愛知県,豊橋市,大村町字下河原１１０番地,,23,201,4400081,,,,,,,2023-04-12,1,,,,,ツミキ,0
1458,5180301037306,新規,0,2023-04-12,2023-04-12,ＡＩＴＯＫＵ株式会社,,株式会社,愛知県,西尾市,米津町久手６２番地８,,23,213,4450802,,,,,,,2023-04-12,1,,,,,アイトク,0
1459,5180303005673,新規,0,2023-04-12,2023-04-12,合同会社サンテック,,合同会社,愛知県,西尾市,下町鳥居前５２番地１,,23,213,4450891,,,,,,,2023-04-12,1,,,,,サンテック,0
1460,5190001030320,新規,0,2023-04-12,2023-04-12,株式会社ＩＣＭ,,株式会社,三重県,四日市市,西浦１丁目１－２,,24,202,5100071,,,,,,,2023-04-12,1,,,,,アイシーエム,0
1464,5200001041175,新規,0,2023-04-12,2023-04-12,アトライズ株式会社,,株式会社,岐阜県,安八郡輪之内町,福束１０２２番地,,21,382,5030235,,,,,,,2023-04-12,1,,,,,アトライズ,0
1465,5200001041183,新規,0,2023-04-12,2023-04-12,株式会社ＯＴＨ,,株式会社,岐阜県,関市,関ノ上１丁目７－６,,21,205,5013211,,,,,,,2023-04-12,1,,,,,オーティーエイチ,0
1470,5210003001630,新規,0,2023-04-12,2023-04-12,ＩＲＫ合同会社,,合同会社,福井県,丹生郡越前町,細野第４０号１５番地１,,18,423,9160202,,,,,,,2023-04-12,1,,,,,アイアールケイ,0
1478,5260001037845,新規,0,2023-04-12,2023-04-12,株式会社富侑貴屋,,株式会社,岡山県,岡山市北区,撫川１０５６番地,,33,101,7010164,,,,,,,2023-04-12,1,,,,,フユキヤ,0
1479,5260001037853,新規,0,2023-04-12,2023-04-12,南祥産業株式会社,,株式会社,岡山県,岡山市南区,妹尾１３２１,,33,104,7010205,,,,,,,2023-04-12,1,,,,,ナンショウサンギョウ,0
1488,5290001101160,新規,0,2023-04-12,2023-04-12,株式会社弘竹,,株式会社,福岡県,糟屋郡宇美町,原田１丁目１２－３,,40,341,8112132,,,,,,,2023-04-12,1,,,,,コウチク,0
1490,5290003013759,新規,0,2023-04-12,2023-04-12,合同会社アンドエム,,合同会社,福岡県,福岡市中央区,六本松２丁目１２番８号,,40,133,8100044,,,,,,,2023-04-12,1,,,,,アンドエム,0
1491,5290003013767,新規,0,2023-04-12,2023-04-12,合同会社Ｒａｉｎｂｏｗ　Ｃｏｎｎｅｃｔｉｏｎ,,合同会社,福岡県,糸島市,二丈深江２５７５番地４,,40,230,8191601,,,,,,,2023-04-12,1,,,,,レインボウコネクション,0
1494,5290803004387,新規,0,2023-04-12,2023-04-12,合同会社デンファレ,,合同会社,福岡県,北九州市小倉南区,葛原東３丁目８‐１０,,40,107,8000206,,,,,,,2023-04-12,1,,,,,デンファレ,0
1499,5330003009802,新規,0,2023-04-12,2023-04-12,Ｃｒｅｄｏ・Ｍ合同会社,,合同会社,熊本県,熊本市中央区,南千反畑町７番８号ラ・レジェンダ白川公園８０１号,,43,101,8600842,,,,,,,2023-04-12,1,,,,,クレドエム,0
1511,5360001031838,新規,0,2023-04-12,2023-04-12,株式会社山城内装,,株式会社,沖縄県,浦添市,牧港４丁目２５番５号先田アパート１０６,,47,208,9012131,,,,,,,2023-04-12,1,,,,,ヤマシロナイソウ,0
1512,5360003012877,新規,0,2023-04-12,2023-04-12,ハスノハＬａｂｏ合同会社,,合同会社,沖縄県,石垣市,字登野城５１０番地チャレンジ,,47,207,9070004,,,,,,,2023-04-12,1,,,,,ハスノハラボ,0
1513,5360003012885,新規,0,2023-04-12,2023-04-12,ＧＲ　ＬＡＢＯ合同会社,,合同会社,沖縄県,宜野湾市,大山５丁目１番１０－４０４号,,47,205,9012223,,,,,,,2023-04-12,1,,,,,ジーアールラボ,0
1515,5370003006085,新規,0,2023-04-12,2023-04-12,合同会社杜の日,,合同会社,宮城県,仙台市泉区,高森８丁目９番地の３,,04,105,9813203,,,,,,,2023-04-12,1,,,,,モリノヒ,0
1522,5400001016198,新規,0,2023-04-12,2023-04-12,株式会社Ｌｕｃｉａｕｂｅ,,株式会社,岩手県,花巻市,湯本第１６地割１０５番地,,03,205,0250304,,,,,,,2023-04-12,1,,,,,リュシオーブ,0
1523,5400001016207,新規,0,2023-04-12,2023-04-12,株式会社ＭＲ,,株式会社,岩手県,滝沢市,耳取山９番地３３,,03,216,0200635,,,,,,,2023-04-12,1,,,,,エムアール,0
1534,5420005007844,新規,0,2023-04-12,2023-04-12,弘前市造園協同組合,,その他の設立登記法人,青森県,弘前市,大字五代字田屋敷１３７番地１,,02,202,0361331,,,,,,,2023-04-12,1,,,,,ヒロサキシゾウエン,0
1537,5430001088879,新規,0,2023-04-12,2023-04-12,Ｋｉｋｋｉ株式会社,,株式会社,北海道,札幌市北区,新川八条１７丁目７６９番地５５,,01,102,0010928,,,,,,,2023-04-12,1,,,,,キッキ,0
1538,5430005014682,新規,0,2023-04-12,2023-04-12,特定非営利活動法人つながり,,その他の設立登記法人,北海道,江別市,大麻桜木町３１番地の１６,,01,217,0690846,,,,,,,2023-04-12,1,,,,,ツナガリ,0
1548,5700150115349,新規,0,2023-04-12,2023-04-12,Ｓｈｅｎｚｈｅｎ　Ｓｈｅｃａｉ　Ｅｌｅｃｔｒｏｎｉｃ　Ｔｅｃｈｎｏｌｏｇｙ　Ｃｏ．，Ｌｔｄ．,,外国会社等,,,,,,,,Ｄｉｓｔｒｉｃｔ　Ｃ，Ｂｕｉｌｄｉｎｇ　Ｂ，Ｌｉｎｙｕａｎ　Ｉｎｄｕｓｔｒｉａｌ　Ｚｏｎｅ，Ｈｕａｒｏｎｇ　Ｒｏａｄ，Ｇａｏｆｅｎｇ　Ｃｏｍｍｕｎｉｔｙ，Ｄａｌａｎｇ　Ｓｔｒｅｅｔ，Ｌｏｎｇｈｕａ　Ｄｉｓｔｒｉｃｔ，Ｓｈｅｎｚｈｅｎ　Ｇｕａｎｇｄｏｎｇ,,,,,,2023-04-12,1,,,,,シェンジェンシーショーツァイディエンズーコージーヨウシエンゴンスー,0
1549,5700150115357,新規,0,2023-04-12,2023-04-12,ＳｈｅｎＺｈｅｎ　ＸｉＢｏ　ＫｅＪｉ　Ｙｏｕｘｉａｎ　Ｇｏｎｇｓｉ　Ｌｔｄ,,外国会社等,,,,,,,,ＨｕａＫａｉ　ＤａＳｈａ　６０９　ＳｕｎＧａｎｇ　ＪｉｅＤａｏ　ＳｕｎＧａｎｇ　Ｄｏｎｇ　Ｌｕ　２１２１Ｈａｏ，ＬｕｏＨｕ　ＳｈｅｎＺｈｅｎ　ＧｕａｎｇＤｏｎｇ　５１８０００　ＣＮ,,,,,,2023-04-12,1,,,,,シェンジェンシーシーボーコージーヨウシエンゴンスー,0
1550,5700150115365,新規,0,2023-04-12,2023-04-12,ｓｈｅｎｚｈｅｎｓｈｉ　ｙｏｕｓｈｉｙｉｎｇ　ｋｅｊｉ　ｙｏｕｘｉａｎ　ｇｏｎｇｓｉ,,外国会社等,,,,,,,,Ｙｏｕｓｏｎｇ　ｃｏｍｍｕｎｉｔｙ，Ｌｏｎｇｈｕａ　Ｓｔｒｅｅｔ，Ｌｏｎｇｈｕａ　ｄｉｓｔｒｉｃｔ，Ｓｈｅｎｚｈｅｎ　ｆｌｏｏｒ　６０３　ｂｕｉｌｄｉｎｇ　２　Ｌｉｊｉｎｃｈｅｎｇ　Ｉｎｄｕｓｔｒｉａｌ　Ｐａｒｋ　Ｓｈｅｎｚｈｅｎ　Ｇｕａｎｇｄｏｎｇ　５１８０００　ＣＮ,,,,,,2023-04-12,1,,,,,シェンジェンシーヨウシーインコージーヨウシエンゴンスー,0
1551,5700150115373,新規,0,2023-04-12,2023-04-12,深セン市邁立維科技有限公司,,外国会社等,,,,,,,,中国深セン市南山区桃源街道平山社区麗山路６５号平山民企科技園２棟西５０４,,,,,,2023-04-12,1,,,,,シンセンシマイリツイカギユウゲンコウシ,0
1559,6010001234334,新規,0,2023-04-12,2023-04-12,株式会社ピンドットラボ,,株式会社,東京都,中央区,築地１丁目８－４,,13,102,1040045,,,,,,,2023-04-12,1,,,,,ピンドットラボ,0
1563,6010003040301,新規,0,2023-04-12,2023-04-12,ＭＩＩソリューション合同会社,,合同会社,東京都,中央区,銀座１丁目２２番１１号銀座大竹ビジデンス２Ｆ,,13,102,1040061,,,,,,,2023-04-12,1,,,,,ミイソリューション,0
1570,6010401173272,新規,0,2023-04-12,2023-04-12,株式会社神楽,,株式会社,東京都,港区,南麻布２丁目３－１１－４２５パークホームズ南麻布ザレジデンス,,13,103,1060047,,,,,,,2023-04-12,1,,,,,カグラ,0
1571,6010401173487,新規,0,2023-04-12,2023-04-12,ｆｉｅｒｅ株式会社,,株式会社,東京都,港区,南青山３丁目１番３６号青山丸竹ビル６Ｆ,,13,103,1070062,,,,,,,2023-04-12,1,,,,,フィエール,0
1572,6010401173561,新規,0,2023-04-12,2023-04-12,株式会社ｅｐｏｃｈａｃｅ,,株式会社,東京都,港区,港南２丁目１６番１号品川イーストワンタワー７Ｆ,,13,103,1080075,,,,,,,2023-04-12,1,,,,,エポカス,0
1573,6010401173660,新規,0,2023-04-12,2023-04-12,株式会社ｍｅｌｌｏｗ,,株式会社,東京都,港区,南青山３丁目１番３６号青山丸竹ビル６Ｆ,,13,103,1070062,,,,,,,2023-04-12,1,,,,,メロー,0
1574,6010401173669,新規,0,2023-04-12,2023-04-12,株式会社ｆｂ,,株式会社,東京都,港区,海岸３丁目８番９－５０２,,13,103,1080022,,,,,,,2023-04-12,1,,,,,エフビー,0
1575,6010401173710,新規,0,2023-04-12,2023-04-12,株式会社フクイサウルス,,株式会社,東京都,港区,赤坂２丁目１７番７号赤坂溜池タワー９階,,13,103,1070052,,,,,,,2023-04-12,1,,,,,フクイサウルス,0
1578,6010501050289,新規,0,2023-04-12,2023-04-12,株式会社ＤＤ’ＤＥＥＲ,,株式会社,東京都,台東区,寿３丁目１９－８,,13,106,1110042,,,,,,,2023-04-12,1,,,,,ディーディーアポストロフィーディアー,0
1588,6010801033844,新規,0,2023-04-12,2023-04-12,楽進株式会社,,株式会社,東京都,大田区,蒲田５丁目２８番４号ＥＣＳ第２７ビル３階６号室,,13,111,1440052,,,,,,,2023-04-12,1,,,,,ラクシン,0
1589,6010801033852,新規,0,2023-04-12,2023-04-12,株式会社壽夢ｗｉｔｈ,,株式会社,東京都,大田区,大森本町２丁目６番４号,,13,111,1430011,,,,,,,2023-04-12,1,,,,,コトユメウィズ,0
1591,6010803004505,新規,0,2023-04-12,2023-04-12,海鵬合同会社,,合同会社,東京都,大田区,本羽田２丁目１４番１０－８０５号,,13,111,1440044,,,,,,,2023-04-12,1,,,,,カイホウ,0
1597,6010901052827,新規,0,2023-04-12,2023-04-12,株式会社できた,,株式会社,東京都,世田谷区,太子堂４丁目２２番１２号台所家ビル３階,,13,112,1540004,,,,,,,2023-04-12,1,,,,,デキタ,0
1599,6011001153565,新規,0,2023-04-12,2023-04-12,株式会社ｑｕａｌｉａ,,株式会社,東京都,渋谷区,富ヶ谷１丁目３５番２０号,,13,113,1510063,,,,,,,2023-04-12,1,,,,,クオリア,0
1600,6011001153607,新規,0,2023-04-12,2023-04-12,株式会社ＣＯＺＹ　ＨＯＵＳＥ,,株式会社,東京都,渋谷区,道玄坂２丁目１９番１１号ファブリック渋谷５Ｆ,,13,113,1500043,,,,,,,2023-04-12,1,,,,,コージーハウス,0
1603,6011005010028,新規,0,2023-04-12,2023-04-12,一般社団法人コンセンサス・デザイン推進協議会,,その他の設立登記法人,東京都,渋谷区,恵比寿西１丁目３３番３号光雲閣３０７,,13,113,1500021,,,,,,,2023-04-12,1,,,,,コンセンサスデザインスイシンキョウギカイ,0
1610,6011105010621,新規,0,2023-04-12,2023-04-12,一般社団法人不動産適正取引協会,,その他の設立登記法人,東京都,新宿区,北新宿３丁目４番３号プラザ北新宿３階,,13,104,1690074,,,,,,,2023-04-12,1,,,,,フドウサンテキセイトリヒキキョウカイ,0
1611,6011201024566,新規,0,2023-04-12,2023-04-12,株式会社フィクス,,株式会社,東京都,中野区,東中野４丁目４番１号丸新ビル３階,,13,114,1640003,,,,,,,2023-04-12,1,,,,,フィクス,0
1614,6011301028608,新規,0,2023-04-12,2023-04-12,乙名株式会社,,株式会社,東京都,杉並区,和田１丁目３１番３号,,13,115,1660012,,,,,,,2023-04-12,1,,,,,オトナ,0
1615,6011301028616,新規,0,2023-04-12,2023-04-12,ＩＣＢＭ株式会社,,株式会社,東京都,杉並区,上井草１丁目１９番１９号,,13,115,1670023,,,,,,,2023-04-12,1,,,,,アイシービーエム,0
1620,6011401025042,新規,0,2023-04-12,2023-04-12,株式会社ニューアウェー,,株式会社,東京都,板橋区,大山金井町８－８－９０５,,13,119,1730024,,,,,,,2023-04-12,1,,,,,ニューアウェー,0
1625,6011801042208,新規,0,2023-04-12,2023-04-12,株式会社渡辺建築設計,,株式会社,東京都,足立区,千住３丁目６番地ツオード千住壱番館８０１,,13,121,1200034,,,,,,,2023-04-12,1,,,,,ワタナベケンチクセッケイ,0
1626,6011801042216,新規,0,2023-04-12,2023-04-12,ＫＡＮＡＥ株式会社,,株式会社,東京都,葛飾区,新宿６丁目２番１－１８３１号シティタワー金町タワー棟,,13,122,1250051,,,,,,,2023-04-12,1,,,,,カナエ,0
1627,6011803005600,新規,0,2023-04-12,2023-04-12,合同会社山椒魚,,合同会社,東京都,足立区,東和４丁目１９番１５号ブリッグウッド亀有北綾瀬３０２,,13,121,1200003,,,,,,,2023-04-12,1,,,,,サンショウウオ,0
1630,6012401040403,新規,0,2023-04-12,2023-04-12,フィニウム株式会社,,株式会社,東京都,三鷹市,井の頭５丁目３番４３号,,13,204,1810001,,,,,,,2023-04-12,1,,,,,フィニウム,0
1631,6012403005932,新規,0,2023-04-12,2023-04-12,合同会社Ｍ３,,合同会社,東京都,調布市,多摩川３丁目４１番地３長谷川ビル１０２,,13,208,1820025,,,,,,,2023-04-12,1,,,,,エムスリー,0
1632,6012701017588,新規,0,2023-04-12,2023-04-12,株式会社川辺,,株式会社,東京都,清瀬市,松山１丁目２５番１号,,13,221,2040022,,,,,,,2023-04-12,1,,,,,カワベ,0
1637,6013301050574,新規,0,2023-04-12,2023-04-12,ＫｏｒｏＰｏｃｋｌｅ株式会社,,株式会社,東京都,豊島区,池袋３丁目３４番７号ビジネスパーク池袋２階,,13,116,1710014,,,,,,,2023-04-12,1,,,,,コロポックル,0
1644,6020001151108,新規,0,2023-04-12,2023-04-12,株式会社Ｍａｋｅ,,株式会社,神奈川県,川崎市川崎区,駅前本町１１番地２川崎フロンティアビル４階,,14,131,2100007,,,,,,,2023-04-12,1,,,,,メイク,0
1649,6021003012958,新規,0,2023-04-12,2023-04-12,ＡＭＮＡ　ＩＮＴＥＲＮＡＴＩＯＮＡＬ合同会社,,合同会社,神奈川県,愛甲郡愛川町,中津２１４２番地の８,,14,401,2430303,,,,,,,2023-04-12,1,,,,,アマナインターナショナル,0
1652,6030001153177,新規,0,2023-04-12,2023-04-12,極建設株式会社,,株式会社,埼玉県,入間市,久保稲荷２丁目１番地１４久保稲荷ビル２階,,11,225,3580024,,,,,,,2023-04-12,1,,,,,キワミケンセツ,0
1653,6030001153292,新規,0,2023-04-12,2023-04-12,株式会社ＯＴＮ,,株式会社,埼玉県,富士見市,羽沢２丁目１７番２７号,,11,235,3540033,,,,,,,2023-04-12,1,,,,,オーティーエヌ,0
1654,6030001153301,新規,0,2023-04-12,2023-04-12,株式会社ＳＡＬＴ　ＳＡＶＥＲ,,株式会社,埼玉県,越谷市,東越谷６丁目２５番地,,11,222,3430023,,,,,,,2023-04-12,1,,,,,ソルトセイバー,0
1655,6030001153342,新規,0,2023-04-12,2023-04-12,ＡＰＰＬＥ　ＴＡＬＫ株式会社,,株式会社,埼玉県,白岡市,白岡８５１番地１１,,11,246,3490218,,,,,,,2023-04-12,1,,,,,アップルトーク,0
1656,6030001153359,新規,0,2023-04-12,2023-04-12,ＳＳＣ株式会社,,株式会社,埼玉県,さいたま市北区,大成町４丁目４１６番地１デュオセーヌ大宮２１０,,11,102,3310815,,,,,,,2023-04-12,1,,,,,エスエスシー,0
1660,6030003021547,新規,0,2023-04-12,2023-04-12,ＨｉＨｉ合同会社,,合同会社,埼玉県,熊谷市,曙町３丁目５番地１マトール熊谷パークテラス３０６,,11,202,3600033,,,,,,,2023-04-12,1,,,,,ハイハイ,0
1668,6040001127881,新規,0,2023-04-12,2023-04-12,株式会社Ｓ．Ｈ．ＥＡＲＸ,,株式会社,千葉県,長生郡長生村,七井土１８８０番地８６,,12,423,2994333,,,,,,,2023-04-12,1,,,,,エスエイチアークス,0
1669,6040001127907,新規,0,2023-04-12,2023-04-12,吉川東京株式会社,,株式会社,千葉県,市川市,八幡２丁目９番１５号ブラッサムフォーラム市川,,12,203,2720021,,,,,,,2023-04-12,1,,,,,ヨシガワトウキョウ,0
1670,6040001127931,新規,0,2023-04-12,2023-04-12,ＭＨＫ株式会社,,株式会社,千葉県,市川市,新浜１丁目７番５号（宮前荘２０２号）,,12,203,2720136,,,,,,,2023-04-12,1,,,,,エムエイチケー,0
1675,6050003007412,新規,0,2023-04-12,2023-04-12,ＷＡＬＬＡＮＡ　ＴＲＡＤＩＮＧ合同会社,,合同会社,茨城県,坂東市,幸田１９１６番地１、１０１,,08,228,3060606,,,,,,,2023-04-12,1,,,,,ワラナトレーディング,0
1676,6060003004508,新規,0,2023-04-12,2023-04-12,合同会社ＴＯＯＮＩＳＨＡ　ＴＲＡＤＩＮＧ,,合同会社,栃木県,小山市,駅南町４丁目２５番２７号コーポミルウォーキー１０１号,,09,208,3230822,,,,,,,2023-04-12,1,,,,,トュニシャトレーディング,0
1683,6080101023903,新規,0,2023-04-12,2023-04-12,株式会社ＳＥＡＬＡＮＤ,,株式会社,静岡県,賀茂郡西伊豆町,田子１１０１番地の１２６,,22,306,4103515,,,,,,,2023-04-12,1,,,,,シーランド,0
1691,6090001018069,新規,0,2023-04-12,2023-04-12,談露館株式会社,,株式会社,山梨県,甲府市,丸の内１丁目１９番１６号,,19,201,4000031,,,,,,,2023-04-12,1,,,,,ダンロカン,0
1692,6090005007555,新規,0,2023-04-12,2023-04-12,一般社団法人全国イベント協会,,その他の設立登記法人,山梨県,富士吉田市,上吉田４５７８番地１,,19,202,4030005,,,,,,,2023-04-12,1,,,,,ゼンコクイベントキョウカイ,0
1694,6100001036317,新規,0,2023-04-12,2023-04-12,株式会社ＲＩＤＧＥ　ＳＰＥＣＩＡＬ　ＥＤＵＣＡＴＩＯＮ　ＷＯＲＫＳ,,株式会社,長野県,長野市,篠ノ井杵淵１５７３番地,,20,201,3888019,,,,,,,2023-04-12,1,,,,,リッジスペシャルエデュケーションワークス,0
1703,6120001253843,新規,0,2023-04-12,2023-04-12,株式会社北坂,,株式会社,大阪府,大阪市福島区,福島８丁目１９－１,,27,103,5530003,,,,,,,2023-04-12,1,,,,,キタサカ,0
1704,6120001253851,新規,0,2023-04-12,2023-04-12,株式会社清掃革命,,株式会社,大阪府,枚方市,招提南町３丁目４番８号,,27,210,5731155,,,,,,,2023-04-12,1,,,,,セイソウカクメイ,0
1705,6120001253918,新規,0,2023-04-12,2023-04-12,株式会社ＥＣＬＡＥＴＥ,,株式会社,大阪府,大阪市生野区,小路東３丁目１０番５号,,27,116,5440003,,,,,,,2023-04-12,1,,,,,エクレート,0
1706,6120001253942,新規,0,2023-04-12,2023-04-12,株式会社ＮＡＲＵ,,株式会社,大阪府,大阪市東成区,神路１丁目７番４号,,27,115,5370003,,,,,,,2023-04-12,1,,,,,ナル,0
1710,6120003023798,新規,0,2023-04-12,2023-04-12,ＴＲＹＮＡ合同会社,,合同会社,大阪府,大阪市北区,梅田１丁目２番２号大阪駅前第２ビル１２－１２,,27,127,5300001,,,,,,,2023-04-12,1,,,,,タライナ,0
1712,6120101067326,新規,0,2023-04-12,2023-04-12,スリーグラッド株式会社,,株式会社,大阪府,堺市西区,上野芝町５丁２番１－１０１２号,,27,144,5938301,,,,,,,2023-04-12,1,,,,,スリーグラッド,0
1715,6120903004583,新規,0,2023-04-12,2023-04-12,合同会社ＹＤＮＡ,,合同会社,大阪府,豊中市,上野東３丁目１７番５号,,27,203,5600013,,,,,,,2023-04-12,1,,,,,ワイディエヌエー,0
1719,6122001036880,新規,0,2023-04-12,2023-04-12,株式会社ＫＥＩＴＯ,,株式会社,大阪府,東大阪市,西石切町３丁目２番２９号,,27,227,5798013,,,,,,,2023-04-12,1,,,,,ケイト,0
1737,6140001129736,新規,0,2023-04-12,2023-04-12,株式会社野木工業,,株式会社,兵庫県,川西市,小花１丁目９番１号,,28,217,6660015,,,,,,,2023-04-12,1,,,,,ノギコウギョウ,0
1738,6140001129744,新規,0,2023-04-12,2023-04-12,株式会社樽谷造園,00130075,株式会社,兵庫県,明石市,西明石東町７番地の４０,,28,203,6730009,,,,,,,2023-04-12,1,,,,,タルタニゾウエン,0
1741,6140003018953,新規,0,2023-04-12,2023-04-12,合同会社日文社,,合同会社,兵庫県,たつの市,龍野町中村１２９番地,,28,229,6794126,,,,,,,2023-04-12,1,,,,,ニチブンシャ,0
1742,6140005026566,新規,0,2023-04-12,2023-04-12,医療法人社団高橋歯科醫院,,その他の設立登記法人,兵庫県,神戸市北区,北五葉１丁目７番１０号,,28,109,6511131,,,,,,,2023-04-12,1,,,,,タカハシシカイイン,0
1744,6150003002931,新規,0,2023-04-12,2023-04-12,合同会社アベヤン,,合同会社,奈良県,生駒市,高山町８５３１番地１,,29,209,6300101,,,,,,,2023-04-12,1,,,,,アベヤン,0
1756,6180001155844,新規,0,2023-04-12,2023-04-12,服部電機株式会社,,株式会社,愛知県,名古屋市天白区,野並３丁目１９９番地の１,,23,116,4680045,,,,,,,2023-04-12,1,,,,,ハットリデンキ,0
1762,6180301037255,新規,0,2023-04-12,2023-04-12,株式会社りんごの木,,株式会社,愛知県,岡崎市,井内町字北浦４８番地１ＢＬＵＳ６Ａ号室,,23,202,4440203,,,,,,,2023-04-12,1,,,,,リンゴノキ,0
1763,6180301037296,新規,0,2023-04-12,2023-04-12,三河炭素株式会社,,株式会社,愛知県,碧南市,明石町４９番４,,23,209,4470866,,,,,,,2023-04-12,1,,,,,ミカワタンソ,0
1764,6180301037305,新規,0,2023-04-12,2023-04-12,ブルーム株式会社,,株式会社,愛知県,豊田市,平芝町８丁目２番地５,,23,211,4710065,,,,,,,2023-04-12,1,,,,,ブルーム,0
1768,6190003004296,新規,0,2023-04-12,2023-04-12,ＲＩＳＳ　ＥＮＴＥＲＰＲＩＳＥＳ合同会社,,合同会社,三重県,津市,江戸橋２丁目９０番地４ー２０８,,24,201,5140001,,,,,,,2023-04-12,1,,,,,リスエンタープライセス,0
1769,6200001041182,新規,0,2023-04-12,2023-04-12,株式会社ユウマ,,株式会社,岐阜県,多治見市,市之倉町１丁目２番地の３０６,,21,204,5070814,,,,,,,2023-04-12,1,,,,,ユウマ,0
1776,6240005015559,新規,0,2023-04-12,2023-04-12,あきおおた未来創造協同組合,,その他の設立登記法人,広島県,山県郡安芸太田町,大字戸河内７８４番地１,,34,368,7313810,,,,,,,2023-04-12,1,,,,,アキオオタミライソウゾウ,0
1790,6290001101168,新規,0,2023-04-12,2023-04-12,株式会社ＫＡＴＵＭＩ,,株式会社,福岡県,太宰府市,青葉台４丁目１５－１９,,40,221,8180137,,,,,,,2023-04-12,1,,,,,カツミ,0
1791,6290001101184,新規,0,2023-04-12,2023-04-12,株式会社ＥＥ　Ｃｏｒｐｏｒａｔｉｏｎ　Ｊａｐａｎ,,株式会社,福岡県,福岡市東区,香椎照葉３丁目２番４－１３１５号,,40,131,8130017,,,,,,,2023-04-12,1,,,,,イイコーポレーションジャパン,0
1804,6330001030742,新規,0,2023-04-12,2023-04-12,株式会社エクステリアＫＵＤＯ,,株式会社,熊本県,熊本市東区,上南部２丁目２２番３５－３０２号,,43,102,8618010,,,,,,,2023-04-12,1,,,,,エクステリアクドウ,0
1805,6330001030759,新規,0,2023-04-12,2023-04-12,雫株式会社,,株式会社,熊本県,熊本市東区,桜木４丁目１番２４号,,43,102,8612101,,,,,,,2023-04-12,1,,,,,シズク,0
1807,6330003009801,新規,0,2023-04-12,2023-04-12,ＭＩＭＯ合同会社,,合同会社,熊本県,熊本市中央区,南千反畑町７番８号ラ・レジェンダ白川公園８０１号,,43,101,8600842,,,,,,,2023-04-12,1,,,,,ミモ,0
1808,6330005010641,新規,0,2023-04-12,2023-04-12,一般社団法人阿蘇地区建設業協会,,その他の設立登記法人,熊本県,阿蘇市,一の宮町宮地２３６９番地の６,,43,214,8692612,,,,,,,2023-04-12,1,,,,,アソチクケンセツギョウキョウカイ,0
1820,6360001031779,新規,0,2023-04-12,2023-04-12,株式会社ミント缶ジャパン,,株式会社,沖縄県,那覇市,壺屋１丁目７番１９号,,47,201,9020065,,,,,,,2023-04-12,1,,,,,ミントカンジャパン,0
1822,6370001049804,新規,0,2023-04-12,2023-04-12,株式会社蔵王ドリームファーム,,株式会社,宮城県,刈田郡蔵王町,遠刈田温泉字小妻坂７５番地３１,,04,301,9890916,,,,,,,2023-04-12,1,,,,,ザオウドリームファーム,0
1825,6370003006084,新規,0,2023-04-12,2023-04-12,合同会社ＲＮ,,合同会社,宮城県,仙台市宮城野区,鶴ケ谷東１丁目３番１０‐３号,,04,102,9830826,,,,,,,2023-04-12,1,,,,,アールエヌ,0
1827,6380001033609,新規,0,2023-04-12,2023-04-12,株式会社ｇｉａｙ,,株式会社,福島県,須賀川市,牛袋町１２３番地１,,07,207,9620054,,,,,,,2023-04-12,1,,,,,ジアイ,0
1832,6390001017222,新規,0,2023-04-12,2023-04-12,株式会社ＭＥＴＲＩ　ＴＲＹ　ＦＡＲＭ,,株式会社,山形県,西置賜郡白鷹町,大字荒砥乙３２７番地,,06,402,9920832,,,,,,,2023-04-12,1,,,,,メトリトライファーム,0
1835,6400001016206,新規,0,2023-04-12,2023-04-12,株式会社アクト,,株式会社,岩手県,盛岡市,本宮２丁目２６番８号,,03,201,0200866,,,,,,,2023-04-12,1,,,,,アクト,0
1837,6400005008323,新規,0,2023-04-12,2023-04-12,農事組合法人ファーム石田,,その他の設立登記法人,岩手県,奥州市,水沢字樋渡６５番地,,03,215,0230072,,,,,,,2023-04-12,1,,,,,ファームイシダ,0
1843,6430003014915,新規,0,2023-04-12,2023-04-12,合同会社ＢＡＲＳＥＭ,,合同会社,北海道,札幌市中央区,南十条西１４丁目２番１９号,,01,101,0640810,,,,,,,2023-04-12,1,,,,,バーセム,0
1846,6450001013941,新規,0,2023-04-12,2023-04-12,株式会社大協ホールディングス,,株式会社,北海道,旭川市,豊岡四条７丁目１番２２号,,01,204,0788234,,,,,,,2023-04-12,1,,,,,ダイキョウホールディングス,0
1859,6700150115348,新規,0,2023-04-12,2023-04-12,Ｓｈｅｎｚｈｅｎ　Ｍｅｎｇｑｉｈａｎｇ　Ｅｌｅｃｔｒｏｎｉｃ　Ｔｅｃｈｎｏｌｏｇｙ　Ｃｏ．，Ｌｔｄ．,,外国会社等,,,,,,,,１５Ｈ，Ｂｕｉｌｄｉｎｇ　Ｄ，Ｈｕａｑｉａｎｇ　Ｐｌａｚａ，Ｎｏ．１０１９，Ｈｕａｑｉａｎｇ　Ｎｏｒｔｈ　Ｒｏａｄ，Ｈｕａｈａｎｇ　Ｃｏｍｍｕｎｉｔｙ，Ｈｕａｑｉａｎｇ　Ｎｏｒｔｈ　Ｓｔｒｅｅｔ，Ｆｕｔｉａｎ　Ｄｉｓｔｒｉｃｔ，Ｓｈｅｎｚｈｅｎ,,,,,,2023-04-12,1,,,,,シェンジェンシーモンチーハンディエンズーコージーヨウシエンゴンスー,0
1860,6700150115356,新規,0,2023-04-12,2023-04-12,Ｗｉｓｔ　Ｐｌａｓｔｉｃ　＆　Ｍｅｔａｌ　Ｔｅｃｈｎｏｌｏｇｙ　Ｌｉｍｉｔｅｄ,,外国会社等,,,,,,,,Ｎｏ．１　ｌａｎｅ，ＭｉｎＫａｎｇ　Ｓｔｒｅｅｔ，Ｆｕｚｈｕｓｈａｎ　Ｖｉｌｌａｇｅ，Ｌｉａｏｂｕ　Ｔｏｗｎ　Ｄｏｎｇｇｕａｎ　Ｇｕａｎｇｄｏｎｇ　５２３８００　ＣＮ,,,,,,2023-04-12,1,,,,,ドングワンシーウェイシーウェンフワーコージーヨウシエンゴンスー,0
1861,6700150115364,新規,0,2023-04-12,2023-04-12,Ｃｈａｓｈａｎｇｓｈｉｈｏｎｇｊｉｕｃｈｕａｎｇｙｉｄｉａｎｚｉｓｈａｎｇｗｕ　ｃｏ．，ｌｔｄ,,外国会社等,,,,,,,,ＨＵ　ＮＡＮ　ＳＨＥＮＧ　ＣＨＡＮＧ　ＳＨＡ　ＳＨＩ　ＹＵＥ　ＬＵ　ＱＵ　ＷＡＮＧ　ＹＵＥ　ＪＩＥ　ＤＡＯ　ＤＵ　ＪＵＡＮ　ＬＵ　８５８　ＨＡＯ　ＡＯ　ＫＥ　ＳＩ　ＢＩＮ　ＦＥＮ　ＧＵＡＮＧ　ＣＨＡＮＧ　ＤＩ　１　ＤＯＮＧ　２２１１　ＦＡＮＧ,,,,,,2023-04-12,1,,,,,ジャンシャーシーホンジューチュワンイーディエンズーシャンウーヨウシエンゴンスー,0
1862,6700150115372,新規,0,2023-04-12,2023-04-12,深セン市斯魯耐特科技有限公司,,外国会社等,,,,,,,,中国広東省深セン市宝安区西郷街道宝源路深セン市名優工業産品展示采購中心Ｂ座五楼Ｂ５０５,,,,,,2023-04-12,1,,,,,シンセンシスルナイトカギユウゲンコウシ,0
1873,7010001234366,新規,0,2023-04-12,2023-04-12,よびはく株式会社,,株式会社,東京都,文京区,本郷４丁目１６番６－１２０３号,,13,105,1130033,,,,,,,2023-04-12,1,,,,,ヨビハク,0
1874,7010001234374,新規,0,2023-04-12,2023-04-12,株式会社ＡＧＵＲＩ,,株式会社,東京都,中央区,銀座７丁目１０番６号,,13,102,1040061,,,,,,,2023-04-12,1,,,,,アグリ,0
1875,7010001234416,新規,0,2023-04-12,2023-04-12,株式会社ＲｅＢＩＲＴＨＤＡＹ,,株式会社,東京都,中央区,銀座１丁目２２番１１号銀座大竹ビジデンス２階,,13,102,1040061,,,,,,,2023-04-12,1,,,,,リバースデー,0
1876,7010001234449,新規,0,2023-04-12,2023-04-12,株式会社セムン,,株式会社,東京都,千代田区,西神田３丁目８－５－４０１,,13,101,1010065,,,,,,,2023-04-12,1,,,,,セムン,0
1880,7010003040309,新規,0,2023-04-12,2023-04-12,丸０１太陽光発電合同会社,,合同会社,東京都,中央区,京橋２丁目２番１号京橋エドグラン,,13,102,1040031,,,,,,,2023-04-12,1,,,,,マルゼロイチタイヨウコウハツデン,0
1886,7010101015591,新規,0,2023-04-12,2023-04-12,株式会社Ｋ‐ｓｔｙｌｅ,,株式会社,東京都,八王子市,上柚木１０５１番地４,,13,201,1920373,,,,,,,2023-04-12,1,,,,,ケースタイル,0
1887,7010103002118,新規,0,2023-04-12,2023-04-12,合同会社美ーｏｎｅ,,合同会社,東京都,八王子市,川口町１７５８番地８,,13,201,1930801,,,,,,,2023-04-12,1,,,,,ビーワン,0
1890,7010401173552,新規,0,2023-04-12,2023-04-12,株式会社ＨＯＵＳＥ　ＯＮＥ,,株式会社,東京都,港区,元赤坂１丁目７番１３号,,13,103,1070051,,,,,,,2023-04-12,1,,,,,ハウスワン,0
1891,7010401173651,新規,0,2023-04-12,2023-04-12,株式会社ｂｏｎｄ,,株式会社,東京都,港区,芝５丁目３６番４号札の辻スクエア９Ｆ,,13,103,1080014,,,,,,,2023-04-12,1,,,,,ツナグ,0
1892,7010401173742,新規,0,2023-04-12,2023-04-12,ＩＢＦ株式会社,,株式会社,東京都,港区,新橋６丁目１７番２１号住友不動産御成門駅前ビル１０階,,13,103,1050004,,,,,,,2023-04-12,1,,,,,アイビーエフ,0
1894,7010403029876,新規,0,2023-04-12,2023-04-12,ＣＡＲＮＩＶＡＬ合同会社,,合同会社,東京都,港区,港南４丁目２－７シティタワー品川３９０１,,13,103,1080075,,,,,,,2023-04-12,1,,,,,カーニバル,0
1897,7010501050263,新規,0,2023-04-12,2023-04-12,株式会社小善システムズ,,株式会社,東京都,台東区,松が谷３丁目４番１号,,13,106,1110036,,,,,,,2023-04-12,1,,,,,コゼンシステムズ,0
1898,7010501050296,新規,0,2023-04-12,2023-04-12,コンピュータ・ハイテックホールディングス株式会社,,株式会社,東京都,台東区,東上野３丁目１８番７号,,13,106,1100015,,,,,,,2023-04-12,1,,,,,コンピュータハイテックホールディングス,0
1905,7010803004504,新規,0,2023-04-12,2023-04-12,合同会社佐々木造園,,合同会社,東京都,大田区,鵜の木１丁目１９番１８－１０３号,,13,111,1460091,,,,,,,2023-04-12,1,,,,,ササキゾウエン,0
1907,7010903008082,新規,0,2023-04-12,2023-04-12,合同会社Ａｌｏ,,合同会社,東京都,世田谷区,玉堤１丁目１６番２３号ＫＤＸレジデンス尾山台１０６,,13,112,1580087,,,,,,,2023-04-12,1,,,,,アロ,0
1911,7011001153655,新規,0,2023-04-12,2023-04-12,パトステクノロジー株式会社,,株式会社,東京都,渋谷区,渋谷２丁目１９－１５宮益坂ビルディング６０９,,13,113,1500002,,,,,,,2023-04-12,1,,,,,パトステクノロジー,0
1912,7011001153705,新規,0,2023-04-12,2023-04-12,株式会社ｔｏＲＥＤ,,株式会社,東京都,目黒区,東が丘１丁目６番１号,,13,110,1520021,,,,,,,2023-04-12,1,,,,,トゥーレッド,0
1913,7011005010019,新規,0,2023-04-12,2023-04-12,一般社団法人全国ロジケア協会,,その他の設立登記法人,東京都,渋谷区,道玄坂１丁目１０番８号渋谷道玄坂東急ビル２Ｆ－Ｃ,,13,113,1500043,,,,,,,2023-04-12,1,,,,,ゼンコクロジケアキョウカイ,0
1916,7011101102520,新規,0,2023-04-12,2023-04-12,ダブルＴｏｙａｒ株式会社,,株式会社,東京都,新宿区,西新宿７丁目１番７号新宿ダイカンプラザＡ館６１１号室,,13,104,1600023,,,,,,,2023-04-12,1,,,,,ダブルトーヤ,0
1921,7011201024557,新規,0,2023-04-12,2023-04-12,株式会社ＢｏｏｔＵｐ,,株式会社,東京都,中野区,上鷺宮３丁目１６番５号,,13,114,1650031,,,,,,,2023-04-12,1,,,,,ブートアップ,0
1923,7011301028598,新規,0,2023-04-12,2023-04-12,株式会社Ｏプロ,,株式会社,東京都,杉並区,天沼３丁目２７番３号ユミハウス２０１,,13,115,1670032,,,,,,,2023-04-12,1,,,,,オープロ,0
1935,7011801042215,新規,0,2023-04-12,2023-04-12,株式会社テンショク,,株式会社,東京都,葛飾区,堀切６丁目１番２５号グランデュールヴィラ３０２,,13,122,1240006,,,,,,,2023-04-12,1,,,,,テンショク,0
1938,7011803005599,新規,0,2023-04-12,2023-04-12,元気商事合同会社,,合同会社,東京都,葛飾区,柴又２丁目２番２５号,,13,122,1250052,,,,,,,2023-04-12,1,,,,,ゲンキショウジ,0
1942,7012405004849,新規,0,2023-04-12,2023-04-12,チャレンジドすばる社会保険労務士法人,,その他の設立登記法人,東京都,三鷹市,上連雀１丁目１２番１７号三鷹ビジネスパークＳＯＨＯプラザＡ４０６,,13,204,1810012,,,,,,,2023-04-12,1,,,,,チャレンジドスバル,0
1945,7012801022264,新規,0,2023-04-12,2023-04-12,株式会社今井商事,,株式会社,東京都,昭島市,武蔵野２丁目２０番２４号,,13,207,1960021,,,,,,,2023-04-12,1,,,,,イマイショウジ,0
1950,7013301050573,新規,0,2023-04-12,2023-04-12,株式会社Ｌａ　Ｓｔａｎｔａ,,株式会社,東京都,豊島区,南大塚２丁目１１番１０号ミモザビル３階,,13,116,1700005,,,,,,,2023-04-12,1,,,,,ラサンタ,0
1951,7013303006573,新規,0,2023-04-12,2023-04-12,ｕｎｅｕｎｅ合同会社,,合同会社,東京都,豊島区,駒込１丁目２７番１号エラン・ビルＦ号,,13,116,1700003,,,,,,,2023-04-12,1,,,,,ウネウネ,0
1962,7020001151065,新規,0,2023-04-12,2023-04-12,株式会社うりずん,,株式会社,神奈川県,川崎市川崎区,駅前本町１１番地２川崎フロンティアビル４階,,14,131,2100007,,,,,,,2023-04-12,1,,,,,ウリズン,0
1965,7020003023709,新規,0,2023-04-12,2023-04-12,合同会社エヌグランツ,,合同会社,神奈川県,横浜市戸塚区,品濃町５０３番地４ＬＳ横濱グランガレリア５１０号,,14,110,2440801,,,,,,,2023-04-12,1,,,,,エヌグランツ,0
1968,7021001078678,新規,0,2023-04-12,2023-04-12,株式会社結心,,株式会社,神奈川県,横須賀市,岩戸１丁目９番１２号,,14,201,2390844,,,,,,,2023-04-12,1,,,,,ユウシン,0
1971,7021003012965,新規,0,2023-04-12,2023-04-12,Ｓｔａｒ　Ａｓｓｅｔ　Ａｄｖｉｓｅｒｓ合同会社,,合同会社,神奈川県,相模原市南区,上鶴間本町５丁目３番３２－４０７号,,14,153,2520318,,,,,,,2023-04-12,1,,,,,スターアセットアドバイザーズ,0
1979,7030001153218,新規,0,2023-04-12,2023-04-12,漢恩株式会社,,株式会社,埼玉県,川口市,本蓮１丁目２３番１６号２０１室,,11,203,3340076,,,,,,,2023-04-12,1,,,,,カンオン,0
1980,7030001153300,新規,0,2023-04-12,2023-04-12,株式会社ＴＡＫＡ,,株式会社,埼玉県,川口市,大字安行原２２９１番地の１３,,11,203,3340057,,,,,,,2023-04-12,1,,,,,タカ,0
1982,7030003021554,新規,0,2023-04-12,2023-04-12,合同会社共同管財,,合同会社,埼玉県,さいたま市北区,宮原町３丁目２９番地２,,11,102,3310812,,,,,,,2023-04-12,1,,,,,キョウドウカンザイ,0
1988,7040001127906,新規,0,2023-04-12,2023-04-12,カームマネジメント株式会社,,株式会社,千葉県,鎌ケ谷市,右京塚９番６２号２Ｆ,,12,224,2730102,,,,,,,2023-04-12,1,,,,,カームマネジメント,0
1989,7040001127914,新規,0,2023-04-12,2023-04-12,星友興業株式会社,,株式会社,千葉県,千葉市稲毛区,稲毛３丁目７番７号新富稲毛アパート第一２０２,,12,103,2630034,,,,,,,2023-04-12,1,,,,,セイユウコウギョウ,0
1990,7040001127930,新規,0,2023-04-12,2023-04-12,株式会社ステージ,,株式会社,千葉県,柏市,大井１４６－３８,,12,217,2770902,,,,,,,2023-04-12,1,,,,,ステージ,0
1993,7040003022320,新規,0,2023-04-12,2023-04-12,合同会社Ａｖｉｓ,,合同会社,千葉県,千葉市中央区,千葉寺町６９５－９アーバン千葉寺１０１,,12,101,2600844,,,,,,,2023-04-12,1,,,,,アビス,0
1994,7050003007411,新規,0,2023-04-12,2023-04-12,合同会社ドーナツ・プラネット,,合同会社,茨城県,つくば市,東新井１６番地２号,,08,220,3050033,,,,,,,2023-04-12,1,,,,,ドーナツプラネット,0
2000,7070001040313,新規,0,2023-04-12,2023-04-12,株式会社マツシマ,,株式会社,群馬県,太田市,新田村田町２０９１番地１６,,10,205,3700312,,,,,,,2023-04-12,1,,,,,マツシマ,0
2001,7070001040321,新規,0,2023-04-12,2023-04-12,株式会社ＳＥＴ‐ＵＰ,,株式会社,群馬県,太田市,新野町１３２０番地１,,10,205,3730032,,,,,,,2023-04-12,1,,,,,セットアップ,0
2012,7080103002771,新規,0,2023-04-12,2023-04-12,合同会社バリュークリエーション,,合同会社,静岡県,伊豆の国市,奈古谷２２１２番地の４０４,,22,225,4102132,,,,,,,2023-04-12,1,,,,,バリュークリエーション,0
2020,7090005007554,新規,0,2023-04-12,2023-04-12,一般社団法人山梨山岳案内協会,,その他の設立登記法人,山梨県,南アルプス市,吉田１６６番地２,,19,208,4000304,,,,,,,2023-04-12,1,,,,,ヤマナシサンガクアンナイキョウカイ,0
2022,7100001036316,新規,0,2023-04-12,2023-04-12,株式会社ふくまるくん,,株式会社,長野県,下伊那郡阿智村,駒場４２６番地,,20,407,3950303,,,,,,,2023-04-12,1,,,,,フクマルクン,0
2026,7100003006969,新規,0,2023-04-12,2023-04-12,合同会社ケーズマネージメント,,合同会社,長野県,松本市,城東２丁目３番１号城東マンション１０５,,20,202,3900807,,,,,,,2023-04-12,1,,,,,ケーズマネージメント,0
2037,7120001253850,新規,0,2023-04-12,2023-04-12,オシエス株式会社,,株式会社,大阪府,大阪市西淀川区,姫里１丁目２１－７,,27,113,5550025,,,,,,,2023-04-12,1,,,,,オシエス,0
2038,7120001253891,新規,0,2023-04-12,2023-04-12,株式会社ＣＡＲＥＳＳ,,株式会社,大阪府,大阪市中央区,南本町２丁目１番１号,,27,128,5410054,,,,,,,2023-04-12,1,,,,,カレス,0
2039,7120001253900,新規,0,2023-04-12,2023-04-12,ＬＩＴ　ａｎｄ　ｍｏｒｅ株式会社,,株式会社,大阪府,大阪市天王寺区,上本町６丁目３番３１号うえほんまちハイハイタウン２２２号室,,27,109,5430001,,,,,,,2023-04-12,1,,,,,リットアンドモア,0
2040,7120001253917,新規,0,2023-04-12,2023-04-12,あかりコンサルティング株式会社,,株式会社,大阪府,大阪市西区,新町１丁目４番２６号,,27,106,5500013,,,,,,,2023-04-12,1,,,,,アカリコンサルティング,0
2045,7120005023572,新規,0,2023-04-12,2023-04-12,一般社団法人西日本青島總商会,,その他の設立登記法人,大阪府,大阪市浪速区,下寺２丁目５－６,,27,111,5560001,,,,,,,2023-04-12,1,,,,,ニシニホンチンタオソウショウカイ,0
2048,7120101067317,新規,0,2023-04-12,2023-04-12,株式会社一栄,,株式会社,大阪府,堺市中区,小阪西町６番３０号,,27,142,5998264,,,,,,,2023-04-12,1,,,,,イチエイ,0
2049,7120101067333,新規,0,2023-04-12,2023-04-12,亜旅衛視株式会社,,株式会社,大阪府,泉佐野市,市場東２丁目４番６号,,27,213,5980005,,,,,,,2023-04-12,1,,,,,アリョウエイシ,0
2050,7120901047385,新規,0,2023-04-12,2023-04-12,株式会社Ｙ・Ａ・Ｋ,,株式会社,大阪府,高槻市,日吉台二番町１０番２０号,,27,207,5691022,,,,,,,2023-04-12,1,,,,,ワイエイケイ,0
2051,7120901047393,新規,0,2023-04-12,2023-04-12,株式会社Ｌｅａｄ　Ａｇｅｎｔ,,株式会社,大阪府,吹田市,南正雀１丁目１９番－１１号（２０２）,,27,205,5640012,,,,,,,2023-04-12,1,,,,,リードエージェント,0
2054,7130001074049,新規,0,2023-04-12,2023-04-12,隠岐株式会社,,株式会社,京都府,京都市北区,大北山鏡石町１－１８,,26,101,6038481,,,,,,,2023-04-12,1,,,,,インギ,0
2063,7140001129743,新規,0,2023-04-12,2023-04-12,株式会社アイカー,,株式会社,兵庫県,加古川市,神野町石守６５４番地の６９,,28,210,6750005,,,,,,,2023-04-12,1,,,,,アイカー,0
2074,7180301037262,新規,0,2023-04-12,2023-04-12,新東ＬＳＰＴレーザーピーニング株式会社,,株式会社,愛知県,豊川市,大木町小牧１８０番地１,,23,207,4411205,,,,,,,2023-04-12,1,,,,,シントウエルエスピーティーレーザーピーニング,0
2075,7180301037270,新規,0,2023-04-12,2023-04-12,Ｅｘ技研株式会社,,株式会社,愛知県,刈谷市,南桜町２丁目２７番地刈谷第１東海ビル３Ｆ,,23,210,4480841,,,,,,,2023-04-12,1,,,,,イーエックスギケン,0
2076,7180301037295,新規,0,2023-04-12,2023-04-12,株式会社グリーンピッグ,,株式会社,愛知県,西尾市,吉良町津平小出入１４８番地,,23,213,4440503,,,,,,,2023-04-12,1,,,,,グリーンピッグ,0
2081,7190001030310,新規,0,2023-04-12,2023-04-12,株式会社モノトニーストア,,株式会社,三重県,松阪市,矢津町１７５１番地２,,24,204,5151102,,,,,,,2023-04-12,1,,,,,モノトニーストア,0
2082,7190001030319,新規,0,2023-04-12,2023-04-12,株式会社ヒロ工業,,株式会社,三重県,鈴鹿市,平田本町２丁目２２番３０号,,24,207,5130848,,,,,,,2023-04-12,1,,,,,ヒロコウギョウ,0
2084,7200001041157,新規,0,2023-04-12,2023-04-12,株式会社ＨＤ,,株式会社,岐阜県,多治見市,大畑町５丁目２００番地の１,,21,204,5070818,,,,,,,2023-04-12,1,,,,,エイチディー,0
2091,7230001019786,新規,0,2023-04-12,2023-04-12,ＤＨ株式会社,,株式会社,富山県,富山市,島田６２‐１,,16,201,9398223,,,,,,,2023-04-12,1,,,,,ディーエイチ,0
2092,7230003001998,新規,0,2023-04-12,2023-04-12,合同会社丸匠,,合同会社,富山県,富山市,黒瀬北町１丁目４‐５‐３Ｆ,,16,201,9398216,,,,,,,2023-04-12,1,,,,,マルショウ,0
2095,7240001061300,新規,0,2023-04-12,2023-04-12,サンデングループホールディングス株式会社,,株式会社,広島県,福山市,芦田町大字上有地９５６番地５,,34,207,7201261,,,,,,,2023-04-12,1,,,,,サンデングループホールディングス,0
2100,7280005007543,新規,0,2023-04-12,2023-04-12,特定非営利活動法人ミライビジネスいずも,,その他の設立登記法人,島根県,出雲市,斐川町神氷２５３５番地１０,,32,203,6990613,,,,,,,2023-04-12,1,,,,,ミライビジネスイズモ,0
2104,7290001101134,新規,0,2023-04-12,2023-04-12,株式会社Ｋｉｎｔｓｕｇｉ　Ｔｒａｄｉｎｇ,,株式会社,福岡県,久留米市,宮ノ陣６丁目１６－３６－Ｂ２０５,,40,203,8390801,,,,,,,2023-04-12,1,,,,,キンツギトレーディング,0
2105,7290001101142,新規,0,2023-04-12,2023-04-12,株式会社ＷａＮ　ＤｅｅＫ,,株式会社,福岡県,久留米市,田主丸町田主丸４６５番地３,,40,203,8391233,,,,,,,2023-04-12,1,,,,,ワンディーク,0
2114,7320001019678,新規,0,2023-04-12,2023-04-12,株式会社ＤＣＴ,,株式会社,大分県,大分市,望みが丘３５番地の５,,44,201,8700270,,,,,,,2023-04-12,1,,,,,ディーシーティー,0
2115,7320003004059,新規,0,2023-04-12,2023-04-12,合同会社シーズ,,合同会社,大分県,臼杵市,大字臼杵７２番地の５９,,44,206,8750041,,,,,,,2023-04-12,1,,,,,シーズ,0
2117,7320005010071,新規,0,2023-04-12,2023-04-12,社会福祉法人大分福寿会,,その他の設立登記法人,大分県,大分市,大字横瀬３７０番地,,44,201,8701173,,,,,,,2023-04-12,1,,,,,オオイタフクジュカイ,0
2124,7360001031836,新規,0,2023-04-12,2023-04-12,行星株式会社,,株式会社,沖縄県,那覇市,長田１丁目１３番６０号キャッスルナガタ４０２,,47,201,9020077,,,,,,,2023-04-12,1,,,,,ワクセイ,0
2130,7380001033608,新規,0,2023-04-12,2023-04-12,株式会社優志,,株式会社,福島県,いわき市,小名浜岡小名３丁目９番地の７,,07,204,9718151,,,,,,,2023-04-12,1,,,,,ユウシ,0
2131,7390001017221,新規,0,2023-04-12,2023-04-12,山形バイオガスグリーンエネルギー株式会社,,株式会社,山形県,山形市,高木１番,,06,201,9902346,,,,,,,2023-04-12,1,,,,,ヤマガタバイオガスグリーンエネルギー,0
2135,7400005008322,新規,0,2023-04-12,2023-04-12,特定非営利活動法人ココカラいわて,,その他の設立登記法人,岩手県,盛岡市,乙部２４地割５４番地１６,,03,201,0200403,,,,,,,2023-04-12,1,,,,,ココカライワテ,0
2142,7470001019556,新規,0,2023-04-12,2023-04-12,株式会社エフイー,,株式会社,香川県,仲多度郡まんのう町,四條４０番地,,37,406,7660021,,,,,,,2023-04-12,1,,,,,エフイー,0
2149,7700150015992,新規,0,2023-04-12,2015-10-09,千葉県電気工事工業組合　茂原支部,,その他,千葉県,茂原市,高師４１３－５,,12,210,2970029,,,,,,,2015-10-09,1,,,,,チバケンデンキコウジコウギヨウクミアイモバラシブ,0
2150,7700150115330,新規,0,2023-04-12,2023-04-12,Ｗａｎｇ　Ｔａｋ　Ｃｏｍｐａｎｙ　Ｌｉｍｉｔｅｄ,,外国会社等,神奈川県,足柄下郡箱根町,強羅字向山１３２０－２９９,,14,382,2500408,１５０６－０７，１５ｔｈ　Ｆｌｏｏｒ，Ｎｉｎｅ　Ｑｕｅｅｎ’ｓ　Ｒｏａｄ　Ｃｅｎｔｒａｌ，Ｈｏｎｇ　Ｋｏｎｇ,,,,,,2023-04-12,1,,,,,ワンタツクカンパニーリミテツド,0
2151,7700150115347,新規,0,2023-04-12,2023-04-12,ｄｏｎｇｇｕａｎｌｉｘｉｎｈａｎｇｄｉａｎｚｉｙｏｕｘｉａｎｇｏｎｇｓｉ,,外国会社等,,,,,,,,Ｙｕｃｈｅｎｇｌｕ３２ｈａｏ２ｈａｏｌｏｕ３０３ｓｈｉ，Ｃｈａｎｇ’ａｎｚｈｅｎ，Ｄｏｎｇｇｕａｎｓｈｉ，Ｇｕａｎｇｄｏｎｇｓｈｅｎｇ,,,,,,2023-04-12,1,,,,,ドングワンリーシンハンディエンズーヨウシエンゴンスー,0
2152,7700150115355,新規,0,2023-04-12,2023-04-12,Ｈｕａｃｈｏｎｇ　Ｔｅｃｈｎｏｌｏｇｙ　Ｔｒａｄｅ（Ｃｈａｎｇｚｈｏｕ）Ｃｏ．，ＬＴＤ,,外国会社等,,,,,,,,Ｎｏ．１０５，Ｌｖｃｈａｎｇｔｏｕ，Ｐｕｑｉａｎ　Ｃｏｍｍｕｎｉｔｙ，Ｌａｎｌｉｎｇ　Ｓｔｒｅｅｔ，Ｔｉａｎｎｉｎｇ　Ｄｉｓｔｒｉｃｔ，Ｃｈａｎｇｚｈｏｕ,,,,,,2023-04-12,1,,,,,フワーチョンコージーマオイーチャンジョウヨウシエンゴンスー,0
2153,7700150115363,新規,0,2023-04-12,2023-04-12,Ｋｕｎｎｅｘ　Ｉｎｃｏｒｐｏｒａｔｅｄ,,外国会社等,,,,,,,,Ｎｏ．１７，Ｗｕｑｕａｎ　Ｒｄ．，Ｗｕｇｕ　Ｄｉｓｔ．，Ｎｅｗ　Ｔａｉｐｅｉ　Ｃｉｔｙ　２４８８６，Ｔａｉｗａｎ（Ｒ．Ｏ．Ｃ）,,,,,,2023-04-12,1,,,,,クンハオチーイエグーフェンヨウシエンゴンスー,0
2154,7700150115371,新規,0,2023-04-12,2023-04-12,深セン和季実業有限公司,,外国会社等,,,,,,,,中国深セン市龍華区大浪街道大浪社区上レイ排新村１３棟１０５,,,,,,2023-04-12,1,,,,,シンセンワキジツギヨウユウゲンコウシ,0
2165,8010001234415,新規,0,2023-04-12,2023-04-12,株式会社さくら,,株式会社,東京都,中央区,月島１丁目５番１号－１１１０,,13,102,1040052,,,,,,,2023-04-12,1,,,,,サクラ,0
2166,8010001234423,新規,0,2023-04-12,2023-04-12,株式会社ＢＯＺＵ,,株式会社,東京都,中央区,銀座１丁目１２番４号Ｎ＆ＥＢＬＤ．６Ｆ,,13,102,1040061,,,,,,,2023-04-12,1,,,,,ボウズ,0
2167,8010001234448,新規,0,2023-04-12,2023-04-12,京都医療企画株式会社,,株式会社,東京都,千代田区,飯田橋４丁目４番９号ダイアパレス飯田橋４１０号室,,13,101,1020072,,,,,,,2023-04-12,1,,,,,キョウトイリョウキカク,0
2168,8010003040282,新規,0,2023-04-12,2023-04-12,ＩＮＦＬＥＱＴＩＯＮ　ＪＡＰＡＮ合同会社,,合同会社,東京都,千代田区,霞が関３丁目２番６号東京倶楽部ビルディング１１階,,13,101,1000013,,,,,,,2023-04-12,1,,,,,インフレクションジャパン,0
2169,8010003040324,新規,0,2023-04-12,2023-04-12,合同会社もくもくはりねずみ,,合同会社,東京都,文京区,水道２丁目６番２号,,13,105,1120005,,,,,,,2023-04-12,1,,,,,モクモクハリネズミ,0
2172,8010401173650,新規,0,2023-04-12,2023-04-12,株式会社ＶＥＳＰＥＲ　ＣＬＵＢ,,株式会社,東京都,港区,南青山２丁目４番８号,,13,103,1070062,,,,,,,2023-04-12,1,,,,,ヴェスパークラブ,0
2173,8010401173659,新規,0,2023-04-12,2023-04-12,株式会社ジソウ,,株式会社,東京都,港区,虎ノ門４丁目１番１３号,,13,103,1050001,,,,,,,2023-04-12,1,,,,,ジソウ,0
2174,8010403029850,新規,0,2023-04-12,2023-04-12,合同会社ヤマブキ,,合同会社,東京都,港区,港南２丁目１６番４号品川グランドセントラルタワー８Ｆ,,13,103,1080075,,,,,,,2023-04-12,1,,,,,ヤマブキ,0
2175,8010403029900,新規,0,2023-04-12,2023-04-12,マンガインターナショナル合同会社,,合同会社,東京都,港区,港南１丁目２番７０号１２階,,13,103,1080075,,,,,,,2023-04-12,1,,,,,マンガインターナショナル,0
2176,8010403029925,新規,0,2023-04-12,2023-04-12,品川ウェブ制作所合同会社,,合同会社,東京都,港区,浜松町２丁目２番１５号浜松町ダイヤビル２Ｆ浜松町,,13,103,1050013,,,,,,,2023-04-12,1,,,,,シナガワウェブセイサクショ,0
2179,8010501050246,新規,0,2023-04-12,2023-04-12,株式会社百芸,,株式会社,東京都,台東区,浅草６丁目６－６エスグランド１０１,,13,106,1110032,,,,,,,2023-04-12,1,,,,,ヒャクゲイ,0
2180,8010501050262,新規,0,2023-04-12,2023-04-12,友菱株式会社,,株式会社,東京都,台東区,柳橋１丁目１２番２号ロイヤル浅草橋ビル１階,,13,106,1110052,,,,,,,2023-04-12,1,,,,,ユウリョウ,0
2181,8010501050287,新規,0,2023-04-12,2023-04-12,海洋の心株式会社,,株式会社,東京都,台東区,浅草橋５丁目１番３１号ロッキービル３階,,13,106,1110053,,,,,,,2023-04-12,1,,,,,カイヨウノココロ,0
2182,8010501050295,新規,0,2023-04-12,2023-04-12,茂源株式会社,,株式会社,東京都,台東区,上野３丁目２７－７－２Ｆ,,13,106,1100005,,,,,,,2023-04-12,1,,,,,モゲン,0
2183,8010503006948,新規,0,2023-04-12,2023-04-12,宮本合同会社,,合同会社,東京都,台東区,竜泉２丁目４番４号,,13,106,1100012,,,,,,,2023-04-12,1,,,,,ミヤモト,0
2195,8010903008081,新規,0,2023-04-12,2023-04-12,合同会社Ｐｉｅ　Ｂｉｒｄ　Ｊａｐａｎ,,合同会社,東京都,世田谷区,南烏山３丁目２５番１２号ヌーヴェルイン芦花６０１,,13,112,1570062,,,,,,,2023-04-12,1,,,,,パイバードジャパン,0
2209,8011001153704,新規,0,2023-04-12,2023-04-12,株式会社Ｗ,,株式会社,東京都,渋谷区,千駄ヶ谷５丁目２３番６号グランスイート代々木２０１,,13,113,1510051,,,,,,,2023-04-12,1,,,,,ダブル,0
2212,8011003016529,新規,0,2023-04-12,2023-04-12,インプロバイズ合同会社,,合同会社,東京都,目黒区,大橋１丁目５－１－３２０１,,13,110,1530044,,,,,,,2023-04-12,1,,,,,インプロバイズ,0
2217,8011101102429,新規,0,2023-04-12,2023-04-12,ＯＵＴＳＩＤＥＲ　ＤＥＳＩＧＮ＆ＴＥＣＨ株式会社,,株式会社,東京都,新宿区,高田馬場３丁目１番５号サンパティオ高田馬場３０９号室,,13,104,1690075,,,,,,,2023-04-12,1,,,,,アウトサイダーデザインアンドテック,0
2218,8011101102486,新規,0,2023-04-12,2023-04-12,株式会社ウォルト建装,,株式会社,東京都,新宿区,西新宿３丁目３番１３号西新宿水間ビル６階,,13,104,1600023,,,,,,,2023-04-12,1,,,,,ウォルトケンソウ,0
2222,8011203004052,新規,0,2023-04-12,2023-04-12,合同会社大越,,合同会社,東京都,中野区,野方３丁目２２番８号野方ビル１Ｆ,,13,114,1650027,,,,,,,2023-04-12,1,,,,,ダイエツ,0
2227,8011801042206,新規,0,2023-04-12,2023-04-12,ライフル株式会社,,株式会社,東京都,足立区,関原２丁目４５番１１号,,13,121,1230852,,,,,,,2023-04-12,1,,,,,ライフル,0
2228,8011801042214,新規,0,2023-04-12,2023-04-12,株式会社Ｇｒｏｗ,,株式会社,東京都,葛飾区,立石１丁目３番７号ジョイフルスクエア３０２,,13,122,1240012,,,,,,,2023-04-12,1,,,,,グロー,0
2231,8012401040401,新規,0,2023-04-12,2023-04-12,株式会社ティーエムケイ,,株式会社,東京都,府中市,本町１丁目９番地４１号,,13,206,1830027,,,,,,,2023-04-12,1,,,,,ティーエムケイ,0
2232,8012403005922,新規,0,2023-04-12,2023-04-12,合同会社４７サイクル,,合同会社,東京都,三鷹市,上連雀１丁目２５番２１－５０６号,,13,204,1810012,,,,,,,2023-04-12,1,,,,,シナサイクル,0
2244,8013301050580,新規,0,2023-04-12,2023-04-12,株式会社ＥＳＴ,,株式会社,東京都,豊島区,高田２丁目１２－２０－５０４,,13,116,1710033,,,,,,,2023-04-12,1,,,,,イスト,0
2249,8020001150999,新規,0,2023-04-12,2023-04-12,株式会社相談型救済センター,,株式会社,神奈川県,横浜市青葉区,しらとり台３３－２コアロードＢ２０１,,14,117,2270054,,,,,,,2023-04-12,1,,,,,ソウダンガタキュウサイセンター,0
2250,8020001151089,新規,0,2023-04-12,2023-04-12,株式会社マルサン,,株式会社,神奈川県,川崎市幸区,堀川町５８０番地ソリッドスクエア西館１１階,,14,132,2120013,,,,,,,2023-04-12,1,,,,,マルサン,0
2255,8021001078660,新規,0,2023-04-12,2023-04-12,株式会社ＮＹＣ,,株式会社,神奈川県,中郡二宮町,二宮１１３３番地の５,,14,342,2590123,,,,,,,2023-04-12,1,,,,,エヌワイシー,0
2257,8021005012789,新規,0,2023-04-12,2023-04-12,医療法人社団誠香会,,その他の設立登記法人,神奈川県,相模原市南区,上鶴間本町１丁目３８番３０号小林ビル４階,,14,153,2520318,,,,,,,2023-04-12,1,,,,,セイカカイ,0
2264,8030001153332,新規,0,2023-04-12,2023-04-12,パナピット北部株式会社,,株式会社,埼玉県,熊谷市,拾六間５９６番地１２,,11,202,3600846,,,,,,,2023-04-12,1,,,,,パナピットホクブ,0
2265,8030001153357,新規,0,2023-04-12,2023-04-12,株式会社ｈａｃＫ,,株式会社,埼玉県,桶川市,大字川田谷１３４５番地の１,,11,231,3630027,,,,,,,2023-04-12,1,,,,,ハック,0
2266,8030001153398,新規,0,2023-04-12,2023-04-12,株式会社ユニブレイン,,株式会社,埼玉県,和光市,本町２３番１５‐５０１号ライオンズマンション和光本町,,11,229,3510114,,,,,,,2023-04-12,1,,,,,ユニブレイン,0
2267,8030003021520,新規,0,2023-04-12,2023-04-12,合同会社ＵＰＣ,,合同会社,埼玉県,さいたま市浦和区,高砂３丁目７番２号,,11,107,3300063,,,,,,,2023-04-12,1,,,,,ユーピーシー,0
2268,8030003021545,新規,0,2023-04-12,2023-04-12,Ｆ・Ｕ合同会社,,合同会社,埼玉県,川口市,元郷５丁目２６番１３号グリーンハイツ片野Ａ２０２号,,11,203,3320011,,,,,,,2023-04-12,1,,,,,エフユー,0
2269,8030003021561,新規,0,2023-04-12,2023-04-12,合同会社Ｓｔｏｎｅ　Ｈｉｌｌｓ,,合同会社,埼玉県,和光市,下新倉４丁目１３番６９号,,11,229,3510111,,,,,,,2023-04-12,1,,,,,ストーンヒルズ,0
2277,8040001127789,新規,0,2023-04-12,2023-04-12,株式会社Ｂｅ　ｄａｒｉｎｇ,,株式会社,千葉県,成田市,御所の内１７番地６,,12,211,2860137,,,,,,,2023-04-12,1,,,,,ビーダリング,0
2278,8040001127913,新規,0,2023-04-12,2023-04-12,株式会社ＯＮＥＧＡＩＤＥＬＩＶＥＲＹＣＥＮＴＥＲ,,株式会社,千葉県,香取郡神崎町,四季の丘２７番地７,,12,342,2890204,,,,,,,2023-04-12,1,,,,,オネガイデリバリーセンター,0
2280,8040003022360,新規,0,2023-04-12,2023-04-12,ＤＲＰ合同会社,,合同会社,千葉県,船橋市,海神２丁目１４番１７号,,12,204,2730021,,,,,,,2023-04-12,1,,,,,ディーアールピー,0
2281,8040005021955,新規,0,2023-04-12,2023-04-12,一般社団法人ＭＡＴＳＵＤＯ　ＵＮＩＴＥＤ　Ｂ．Ｃ,,その他の設立登記法人,千葉県,松戸市,常盤平７丁目２０番地の３常盤平けやき通り住宅１０９号,,12,207,2702261,,,,,,,2023-04-12,1,,,,,マツドユナイテッドビーシー,0
2286,8060001035866,新規,0,2023-04-12,2023-04-12,株式会社ＴＫＭ,,株式会社,栃木県,足利市,五十部町１２２４－１－１０１,,09,202,3260843,,,,,,,2023-04-12,1,,,,,ティーケーエム,0
2290,8060003004506,新規,0,2023-04-12,2023-04-12,ＡＢＢＡＳ　ＴＲＡＤＩＮＧ合同会社,,合同会社,栃木県,栃木市,岩舟町新里１３０４番地５１号室,,09,203,3294316,,,,,,,2023-04-12,1,,,,,アバーストレーディング,0
2298,8080003002961,新規,0,2023-04-12,2023-04-12,合同会社Ｒｅ．ｍａｐ,,合同会社,静岡県,静岡市清水区,蒲原神沢２６２番地,,22,103,4213215,,,,,,,2023-04-12,1,,,,,リーマップ,0
2305,8090001018075,新規,0,2023-04-12,2023-04-12,株式会社どうし養魚場,,株式会社,山梨県,南都留郡道志村,７５２０番地,,19,422,4020200,,,,,,,2023-04-12,1,,,,,ドウシヨウギョジョウ,0
2307,8090005007553,新規,0,2023-04-12,2023-04-12,一般社団法人富士五湖研究開発機構,,その他の設立登記法人,山梨県,南都留郡富士河口湖町,小立１１６８,,19,430,4010302,,,,,,,2023-04-12,1,,,,,フジゴコケンキュウカイハツキコウ,0
2313,8100003006968,新規,0,2023-04-12,2023-04-12,合同会社ミーア,,合同会社,長野県,塩尻市,大字宗賀３７２８番地３,,20,215,3996461,,,,,,,2023-04-12,1,,,,,ミーア,0
2320,8110005016915,新規,0,2023-04-12,2023-04-12,一般社団法人ＬｉＡＮ,,その他の設立登記法人,新潟県,新潟市中央区,鏡が岡１番１５号１０,,15,103,9500074,,,,,,,2023-04-12,1,,,,,リアン,0
2327,8120001253890,新規,0,2023-04-12,2023-04-12,株式会社Ｇ’Ｓｔｙｌｅホールディングス,,株式会社,大阪府,大阪市北区,天神橋５丁目７番１０号,,27,127,5300041,,,,,,,2023-04-12,1,,,,,ジースタイルホールディングス,0
2328,8120001253949,新規,0,2023-04-12,2023-04-12,ＡＸＩＺ株式会社,,株式会社,大阪府,大阪市浪速区,敷津西１丁目５番２０号ラフィナート１０２,,27,111,5560015,,,,,,,2023-04-12,1,,,,,アクシズ,0
2333,8120101067324,新規,0,2023-04-12,2023-04-12,株式会社英雄,,株式会社,大阪府,泉佐野市,中庄１０８１番地の１４２,,27,213,5980002,,,,,,,2023-04-12,1,,,,,エイユウ,0
2338,8120901047384,新規,0,2023-04-12,2023-04-12,株式会社ライフエージェントカンパニー,,株式会社,大阪府,箕面市,彩都粟生南２丁目２０番３６号（１０２号）,,27,220,5620028,,,,,,,2023-04-12,1,,,,,ライフエージェントカンパニー,0
2339,8120901047392,新規,0,2023-04-12,2023-04-12,武蔵夢現株式会社,,株式会社,大阪府,摂津市,鳥飼銘木町１番３号３Ｃ,,27,224,5660063,,,,,,,2023-04-12,1,,,,,ムサシムゲン,0
2342,8130001074023,新規,0,2023-04-12,2023-04-12,株式会社ＩＮＳＯＭＮＩＡ　ＥＮＴＥＲＴＡＩＮＭＥＮＴ,,株式会社,京都府,京都市中京区,下丸屋町４０３ＦＩＳビル４１２,,26,104,6040084,,,,,,,2023-04-12,1,,,,,インソムニアエンターテイメント,0
2343,8130001074072,新規,0,2023-04-12,2023-04-12,オフィスピコッツ株式会社,,株式会社,京都府,京都市下京区,玉津島町２９４番地,,26,106,6008427,,,,,,,2023-04-12,1,,,,,オフィスピコッツ,0
2353,8140001129734,新規,0,2023-04-12,2023-04-12,株式会社三栄工業,,株式会社,兵庫県,高砂市,曽根町２９０６番地の１,,28,216,6760082,,,,,,,2023-04-12,1,,,,,サンエイコウギョウ,0
2354,8140001129759,新規,0,2023-04-12,2023-04-12,株式会社Ｋ．Ｋ．Ｇ,,株式会社,兵庫県,神戸市中央区,中山手通１丁目５番７号,,28,110,6500004,,,,,,,2023-04-12,1,,,,,ケイケイジー,0
2360,8160003002846,新規,0,2023-04-12,2023-04-12,合同会社光放舎,,合同会社,滋賀県,草津市,渋川１丁目６番１５号,,25,206,5250026,,,,,,,2023-04-12,1,,,,,コウホウシャ,0
2365,8180001155801,新規,0,2023-04-12,2023-04-12,鄭州ダイヤモンド株式会社,,株式会社,愛知県,名古屋市東区,大幸２丁目３番１２号－５,,23,102,4610043,,,,,,,2023-04-12,1,,,,,テイシュウダイヤモンド,0
2366,8180001155818,新規,0,2023-04-12,2023-04-12,株式会社尾張東部福祉会,,株式会社,愛知県,瀬戸市,西吉田町４７番地,,23,204,4890807,,,,,,,2023-04-12,1,,,,,オワリトウブフクシカイ,0
2370,8180301037294,新規,0,2023-04-12,2023-04-12,山翔株式会社,,株式会社,愛知県,岡崎市,土井町字西社口４番地５,,23,202,4440204,,,,,,,2023-04-12,1,,,,,ヤマショウ,0
2373,8190001030318,新規,0,2023-04-12,2023-04-12,株式会社ＪＹトータルサポート,,株式会社,三重県,四日市市,河原田町字畔道１００７番地の２２,,24,202,5100874,,,,,,,2023-04-12,1,,,,,ジェイワイトータルサポート,0
2375,8200001041123,新規,0,2023-04-12,2023-04-12,株式会社甲ノ宮,,株式会社,岐阜県,安八郡輪之内町,楡俣１２４番地,,21,382,5030201,,,,,,,2023-04-12,1,,,,,コウノミヤ,0
2376,8200001041172,新規,0,2023-04-12,2023-04-12,Ｂａｍｂｉｎｏ株式会社,,株式会社,岐阜県,高山市,相生町５６番地２,,21,203,5060014,,,,,,,2023-04-12,1,,,,,バンビーノ,0
2377,8200003005927,新規,0,2023-04-12,2023-04-12,合同会社ＶｉｄａＬｉｂｒｅ,,合同会社,岐阜県,本巣市,神海９１６番地,,21,218,5011235,,,,,,,2023-04-12,1,,,,,ヴィダリブレ,0
2378,8230003001989,新規,0,2023-04-12,2023-04-12,合同会社ＭＯＴ・かみいち盛り上げ隊,,合同会社,富山県,中新川郡上市町,放士ケ瀬新１１５番地４６,,16,322,9300379,,,,,,,2023-04-12,1,,,,,モットカミイチモリアゲタイ,0
2379,8230003001997,新規,0,2023-04-12,2023-04-12,合同会社オフィスさくら,,合同会社,富山県,小矢部市,平桜６２６０番地,,16,209,9320134,,,,,,,2023-04-12,1,,,,,オフィスサクラ,0
2382,8240003006062,新規,0,2023-04-12,2023-04-12,楽陽貿易合同会社,,合同会社,広島県,福山市,御門町１丁目１１番８－２号,,34,207,7200805,,,,,,,2023-04-12,1,,,,,ラクヨウボウエキ,0
2385,8260001037850,新規,0,2023-04-12,2023-04-12,株式会社オオヤクワリ,,株式会社,岡山県,倉敷市,中庄３５２４番地１,,33,202,7100016,,,,,,,2023-04-12,1,,,,,オオヤクワリ,0
2389,8280003001720,新規,0,2023-04-12,2023-04-12,合同会社ＧＲＩＴ,,合同会社,島根県,出雲市,古志町１０２９番地１,,32,203,6930031,,,,,,,2023-04-12,1,,,,,グリット,0
2394,8290001101133,新規,0,2023-04-12,2023-04-12,大和協同青果株式会社,,株式会社,福岡県,柳川市,大和町中島５２９番地１,,40,207,8390254,,,,,,,2023-04-12,1,,,,,ヤマトキョウドウセイカ,0
2395,8290001101141,新規,0,2023-04-12,2023-04-12,株式会社エーグラウディング,,株式会社,福岡県,八女市,馬場３５６番地１,,40,210,8340023,,,,,,,2023-04-12,1,,,,,エーグラウディング,0
2396,8290001101166,新規,0,2023-04-12,2023-04-12,Ｆコンサル株式会社,,株式会社,福岡県,福岡市西区,野方３丁目２６番１１号,,40,135,8190043,,,,,,,2023-04-12,1,,,,,エフコンサル,0
2401,8290003013756,新規,0,2023-04-12,2023-04-12,合同会社ａｉｎｏ．ｓ,,合同会社,福岡県,福岡市中央区,警固２丁目１３番１７号,,40,133,8100023,,,,,,,2023-04-12,1,,,,,アイノス,0
2402,8290003013772,新規,0,2023-04-12,2023-04-12,合同会社ａｍｅｂａｗｏｒｋｓ,,合同会社,福岡県,福岡市南区,寺塚１丁目１５番３１－２０１号,,40,134,8150074,,,,,,,2023-04-12,1,,,,,アメーバワークス,0
2415,8320001019677,新規,0,2023-04-12,2023-04-12,株式会社ＳＨＩＮＷＡ,,株式会社,大分県,大分市,大字東上野５７番地の１,,44,201,8700306,,,,,,,2023-04-12,1,,,,,シンワ,0
2421,8360001031843,新規,0,2023-04-12,2023-04-12,株式会社ノア,,株式会社,沖縄県,うるま市,字大田３３４,,47,213,9042224,,,,,,,2023-04-12,1,,,,,ノア,0
2423,8360003012874,新規,0,2023-04-12,2023-04-12,合同会社沖縄リフレッシュサービス,,合同会社,沖縄県,宜野湾市,字佐真下５１－６,,47,205,9012216,,,,,,,2023-04-12,1,,,,,オキナワリフレッシュサービス,0
2425,8370001049827,新規,0,2023-04-12,2023-04-12,Ｇｒｏｗ　Ｐｌｕｓ株式会社,,株式会社,宮城県,仙台市宮城野区,名掛丁２０６番地の１９コンフォート宮城野７０３,,04,102,9830864,,,,,,,2023-04-12,1,,,,,グロウプラス,0
2439,8410001013456,新規,0,2023-04-12,2023-04-12,株式会社雄幸,,株式会社,秋田県,横手市,朝日が丘３丁目２８０番地,,05,203,0130055,,,,,,,2023-04-12,1,,,,,ユウコウ,0
2446,8430002066930,新規,0,2023-04-12,2023-04-12,有限会社さとう自動車販売,,有限会社,北海道,日高郡新ひだか町,（北海道静内郡静内町山手町四丁目４番７号）,,01,610,0560000,,,,,,,2023-04-12,1,,,,,サトウジドウシャハンバイ,0
2451,8700150069773,新規,0,2023-04-12,2016-01-18,ユーハウス志賀本通管理組合,,その他,愛知県,名古屋市北区,志賀本通１丁目２２番地,,23,103,4620853,,,,,,,2016-01-18,1,,,,,ユーハウスシガホンドオリカンリクミアイ,0
2452,8700150115346,新規,0,2023-04-12,2023-04-12,Ｓｈｅｎ　ｚｈｅｎ　ｓｈｉ　ｈａｉ　ｔｕ　ｋｅ　ｊｉ　ｙｏｕ　ｘｉａｎ　ｇｏｎｇ　ｓｉ,,外国会社等,,,,,,,,ｆｕｈａｉｊｉｅｄａｏ　ｘｉｎｔｉａｎｓｈｅｑｕ　ｄａｙａｎｇｌｕ　９０－４　ｈａｏ　１　ｃｅｎｇ，Ｂａｏ’ａｎｑｕ，Ｓｈｅｎｚｈｅｎｓｈｉ,,,,,,2023-04-12,1,,,,,シェンジェンシーハイトゥーコージーヨウシエンゴンスー,0
2453,8700150115354,新規,0,2023-04-12,2023-04-12,ＤｏｎｇｇｕａｎｓｈｉＬｉｙｕａｎｄａｄｉａｎｚｉｓｈａｎｇｗｕｙｏｕｘｉａｎｇｏｎｇｓｉ,,外国会社等,,,,,,,,Ｇｕａｎｇｄｏｎｇｓｈｅｎｇｄｏｎｇｇｕａｎｓｈｉｓｈｉｐａｉｚｈｅｎｌｉｒｅｎｌｕ１８０ｈａｏ２０１ｓｈｉ,,,,,,2023-04-12,1,,,,,ドングワンシーリーユエンダーディエンズーシャンウーヨウシエンゴンスー,0
2454,8700150115362,新規,0,2023-04-12,2023-04-12,ＥＲＧＯＧＲＡＤＥ　ＩＮＴＥＲＮＡＴＩＯＮＡＬ　ＣＯ．，ＬＴＤ．,,外国会社等,,,,,,,,１０Ｆ．，Ｎｏ．８９，Ｚｈｏｎｇｃｈｅｎｇ　Ｒｄ．，Ｔｕｃｈｅｎｇ　Ｄｉｓｔ．，Ｎｅｗ　Ｔａｉｐｅｉ　Ｃｉｔｙ　２３６６５８，Ｔａｉｗａｎ（Ｒ．Ｏ．Ｃ）,,,,,,2023-04-12,1,,,,,フォンチョングオジーグーフェンヨウシエンゴンスー,0
2455,8700150115370,新規,0,2023-04-12,2023-04-12,深セン知行道科技有限公司,,外国会社等,,,,,,,,中国深セン市龍華新区大浪街道上横朗新村５５棟６０１,,,,,,2023-04-12,1,,,,,シンセンチコウドウカギユウゲンコウシ,0
2469,9010001234125,新規,0,2023-04-12,2023-04-12,エイティーワングループ株式会社,,株式会社,東京都,中央区,日本橋３丁目２番１４号新槇町ビル別館第一１階,,13,102,1030027,,,,,,,2023-04-12,1,,,,,エイティーワングループ,0
2470,9010001234199,新規,0,2023-04-12,2023-04-12,株式会社アイグリーズ,,株式会社,東京都,中央区,日本橋久松町１２番８号,,13,102,1030005,,,,,,,2023-04-12,1,,,,,アイグリーズ,0
2472,9010003040281,新規,0,2023-04-12,2023-04-12,合同会社あさがお,,合同会社,東京都,千代田区,一ツ橋２丁目６番３号アクシスインベストメントアドバイザーズ株式会社内,,13,101,1010003,,,,,,,2023-04-12,1,,,,,アサガオ,0
2487,9010401173542,新規,0,2023-04-12,2023-04-12,株式会社ＤＸ経営研究所,,株式会社,東京都,港区,白金台２丁目２７番７－４１２号,,13,103,1080071,,,,,,,2023-04-12,1,,,,,ディーエックスケイエイケンキュウジョ,0
2488,9010401173625,新規,0,2023-04-12,2023-04-12,株式会社オータス,,株式会社,東京都,港区,南青山２丁目２番１５号ＷＩＮ青山５３１,,13,103,1070062,,,,,,,2023-04-12,1,,,,,オータス,0
2489,9010401173682,新規,0,2023-04-12,2023-04-12,クラウドセントリック株式会社,,株式会社,東京都,港区,虎ノ門３丁目８番２１号,,13,103,1050001,,,,,,,2023-04-12,1,,,,,クラウドセントリック,0
2490,9010401173708,新規,0,2023-04-12,2023-04-12,株式会社Ｃａｓａ　Ｐｅｒｆｕｍｅ,,株式会社,東京都,港区,三田４丁目１８番１４－１０１号,,13,103,1080073,,,,,,,2023-04-12,1,,,,,カサペルフーメ,0
2491,9010401173716,新規,0,2023-04-12,2023-04-12,ＡＲＴＳ‐１株式会社,,株式会社,東京都,港区,港南１丁目２番７０号品川シーズンテラス,,13,103,1080075,,,,,,,2023-04-12,1,,,,,アーツワン,0
2492,9010401173724,新規,0,2023-04-12,2023-04-12,株式会社リアンｔｏｋｙｏ,,株式会社,東京都,港区,南青山３丁目１４番４号,,13,103,1070062,,,,,,,2023-04-12,1,,,,,リアントウキョウ,0
2498,9010501050294,新規,0,2023-04-12,2023-04-12,Ｈｕｒｒｉｃａｎｅ　Ｓｔｕｄｉｏ株式会社,,株式会社,東京都,台東区,台東１丁目１２番２号モンシャトー秋葉原２０５号室,,13,106,1100016,,,,,,,2023-04-12,1,,,,,ハリケーンスタジオ,0
2502,9010701044105,新規,0,2023-04-12,2023-04-12,未来インタビューコーチング株式会社,,株式会社,東京都,品川区,東品川１丁目１番９号,,13,109,1400002,,,,,,,2023-04-12,1,,,,,ミライインタビューコーチング,0
2516,9011001153661,新規,0,2023-04-12,2023-04-12,ＡＤＪＥＣＴＩＶＥ株式会社,,株式会社,東京都,渋谷区,代官山町８番７号Ｄａｉｗａ代官山ビル１Ｆ－６Ｆ,,13,113,1500034,,,,,,,2023-04-12,1,,,,,アジェクティブ,0
2517,9011001153686,新規,0,2023-04-12,2023-04-12,株式会社Ｐ‐ＦＩＮＤ,,株式会社,東京都,渋谷区,神宮前６丁目２３－４桑野ビル２Ｆ,,13,113,1500001,,,,,,,2023-04-12,1,,,,,ピーファインド,0
2518,9011001153694,新規,0,2023-04-12,2023-04-12,トリオンフ株式会社,,株式会社,東京都,渋谷区,道玄坂１丁目１０番８号渋谷道玄坂東急ビル２Ｆ－Ｃ,,13,113,1500043,,,,,,,2023-04-12,1,,,,,トリオンフ,0
2523,9011101102519,新規,0,2023-04-12,2023-04-12,株式会社ＳＫＹ,,株式会社,東京都,新宿区,北新宿１丁目２３番１９－１０５号,,13,104,1690074,,,,,,,2023-04-12,1,,,,,スカイ,0
2530,9011203004051,新規,0,2023-04-12,2023-04-12,ティー・クリエーション合同会社,,合同会社,東京都,中野区,中野４丁目１－１サンプラザ９Ｆ,,13,114,1640001,,,,,,,2023-04-12,1,,,,,ティークリエーション,0
2533,9011601026713,新規,0,2023-04-12,2023-04-12,株式会社ロジセクター,,株式会社,東京都,練馬区,東大泉７丁目１１番２号,,13,120,1780063,,,,,,,2023-04-12,1,,,,,ロジセクター,0
2536,9011703003437,新規,0,2023-04-12,2023-04-12,合同会社エイト,,合同会社,東京都,江戸川区,南小岩７丁目２８－１１ファーストセントラルマンション２０２,,13,123,1330056,,,,,,,2023-04-12,1,,,,,エイト,0
2541,9011803005597,新規,0,2023-04-12,2023-04-12,ＬＥＧＩＴ合同会社,,合同会社,東京都,足立区,一ツ家２丁目３番６－８０１号,,13,121,1210075,,,,,,,2023-04-12,1,,,,,レジット,0
2556,9020003023707,新規,0,2023-04-12,2023-04-12,００２４合同会社,,合同会社,神奈川県,横浜市港北区,樽町２丁目１－３４－２０１,,14,109,2220001,,,,,,,2023-04-12,1,,,,,ゼロゼロニヨン,0
2566,9030001153298,新規,0,2023-04-12,2023-04-12,株式会社クリアソ,,株式会社,埼玉県,入間市,大字上藤沢４２４番地３６,,11,225,3580013,,,,,,,2023-04-12,1,,,,,クリアソ,0
2567,9030001153307,新規,0,2023-04-12,2023-04-12,株式会社Ｔ‐ＲＥＶＯ,,株式会社,埼玉県,川口市,南鳩ヶ谷２丁目３番地３号,,11,203,3340013,,,,,,,2023-04-12,1,,,,,ティーレボ,0
2568,9030001153331,新規,0,2023-04-12,2023-04-12,ＲＳ国際貿易株式会社,,株式会社,埼玉県,蕨市,中央４丁目１１番１２号,,11,223,3350004,,,,,,,2023-04-12,1,,,,,アールエスコクサイボウエキ,0
2569,9030001153348,新規,0,2023-04-12,2023-04-12,総合サポート株式会社,,株式会社,埼玉県,狭山市,大字南入曽１１５８番地１４,,11,215,3501316,,,,,,,2023-04-12,1,,,,,ソウゴウサポート,0
2570,9030003021544,新規,0,2023-04-12,2023-04-12,合同会社古代工務店,,合同会社,埼玉県,越谷市,大字南荻島１３９番地１７,,11,222,3430804,,,,,,,2023-04-12,1,,,,,コシロコウムテン,0
2571,9030003021552,新規,0,2023-04-12,2023-04-12,ＥＮＩＫＩＹ合同会社,,合同会社,埼玉県,さいたま市北区,植竹町１丁目３３９番地１,,11,102,3310813,,,,,,,2023-04-12,1,,,,,エニキー,0
2572,9030003021560,新規,0,2023-04-12,2023-04-12,合同会社９ＰＲＯＪＥＣＴ,,合同会社,埼玉県,戸田市,氷川町１丁目５‐２６アーク・アムール１０３号室,,11,224,3350027,,,,,,,2023-04-12,1,,,,,ナインプロジェクト,0
2573,9030005021195,新規,0,2023-04-12,2023-04-12,一般社団法人埼玉中小企業家同友会,,その他の設立登記法人,埼玉県,さいたま市中央区,上落合２丁目３番２号新都心ビジネス交流プラザ１０階,,11,105,3380001,,,,,,,2023-04-12,1,,,,,サイタマチュウショウキギョウカドウユウカイ,0
2575,9040001127887,新規,0,2023-04-12,2023-04-12,株式会社月七,,株式会社,千葉県,市川市,大町１２２番地７４,,12,203,2720801,,,,,,,2023-04-12,1,,,,,ツキナ,0
2576,9040001127920,新規,0,2023-04-12,2023-04-12,株式会社丸美ホールディングス,,株式会社,千葉県,船橋市,二和西４丁目８番２０号,,12,204,2740806,,,,,,,2023-04-12,1,,,,,マルミホールディングス,0
2577,9040001127929,新規,0,2023-04-12,2023-04-12,株式会社ＶＩＬＡＤＹ,,株式会社,千葉県,柏市,かやの町２番２８号,,12,217,2770846,,,,,,,2023-04-12,1,,,,,ビレディ,0
2582,9050001052655,新規,0,2023-04-12,2023-04-12,株式会社ＨＯＫＵＳＨＩＮ,,株式会社,茨城県,つくば市,さくらの森２番地２カーサ・フェリーチェさくらの杜,,08,220,3050019,,,,,,,2023-04-12,1,,,,,ホクシン,0
2583,9060001035840,新規,0,2023-04-12,2023-04-12,株式会社Ｈ．Ｒ．Ｓ．Ｓ,,株式会社,栃木県,栃木市,大平町新１０４９番地１０,,09,203,3294425,,,,,,,2023-04-12,1,,,,,エイチアールエスエス,0
2585,9070001040278,新規,0,2023-04-12,2023-04-12,株式会社ＴＨＲＵ,,株式会社,群馬県,高崎市,問屋町西１丁目１番地３－１Ｆ,,10,202,3700007,,,,,,,2023-04-12,1,,,,,スルー,0
2586,9070001040311,新規,0,2023-04-12,2023-04-12,ＧＬＡＳＳ　ＴＲＥＥ株式会社,,株式会社,群馬県,館林市,千代田町７番地１カーサ・ラフィーネ５Ｃ,,10,207,3740028,,,,,,,2023-04-12,1,,,,,グラスツリー,0
2587,9070003004900,新規,0,2023-04-12,2023-04-12,合同会社ウィールフレンド,,合同会社,群馬県,高崎市,緑町３丁目１０番１０－４０１,,10,202,3700073,,,,,,,2023-04-12,1,,,,,ウィールフレンド,0
2590,9080003002960,新規,0,2023-04-12,2023-04-12,合同会社ｗａｌａｃｙ,,合同会社,静岡県,藤枝市,高柳２丁目１３番４１号,,22,214,4260041,,,,,,,2023-04-12,1,,,,,ワラシー,0
2602,9090001018066,新規,0,2023-04-12,2023-04-12,株式会社楽,,株式会社,山梨県,甲斐市,富竹新田１６１７番地１サンホワイトＭ１０１,,19,210,4000113,,,,,,,2023-04-12,1,,,,,ラク,0
2603,9090001018074,新規,0,2023-04-12,2023-04-12,長田緑化株式会社,,株式会社,山梨県,南都留郡山中湖村,平野１９０３番地,,19,425,4010502,,,,,,,2023-04-12,1,,,,,オサダリョクカ,0
2616,9120001253898,新規,0,2023-04-12,2023-04-12,株式会社笑む,,株式会社,大阪府,大阪市旭区,中宮３丁目８番２６号,,27,117,5350003,,,,,,,2023-04-12,1,,,,,エム,0
2617,9120001253907,新規,0,2023-04-12,2023-04-12,株式会社ユニオンドアテック,,株式会社,大阪府,大阪市西区,南堀江２丁目１２番２６号,,27,106,5500015,,,,,,,2023-04-12,1,,,,,ユニオンドアテック,0
2618,9120001253915,新規,0,2023-04-12,2023-04-12,株式会社ＳＧＦ,,株式会社,大阪府,大阪市北区,西天満５丁目１４番３－５０３号,,27,127,5300047,,,,,,,2023-04-12,1,,,,,エスジーエフ,0
2622,9120003023812,新規,0,2023-04-12,2023-04-12,合同会社３Ｂｒｏｓ．ｗｏｒｋｓ,,合同会社,大阪府,大阪市港区,磯路３丁目１０‐１１,,27,107,5520003,,,,,,,2023-04-12,1,,,,,サンブロワークス,0
2625,9120101067273,新規,0,2023-04-12,2023-04-12,株式会社Ｄｅａｒ　Ｋｉｄｓ,,株式会社,大阪府,岸和田市,五軒屋町１８番５号,,27,202,5960055,,,,,,,2023-04-12,1,,,,,ディアキッズ,0
2626,9120101067307,新規,0,2023-04-12,2023-04-12,株式会社山久,,株式会社,大阪府,阪南市,下出３３６番地の４,,27,232,5990202,,,,,,,2023-04-12,1,,,,,ヤマヒサ,0
2636,9130001073998,新規,0,2023-04-12,2023-04-12,株式会社綱久建設,,株式会社,京都府,八幡市,川口浜６０番地の３４,,26,210,6148101,,,,,,,2023-04-12,1,,,,,ツナヒサケンセツ,0
2642,9140001129717,新規,0,2023-04-12,2023-04-12,株式会社一馬商事,,株式会社,兵庫県,揖保郡太子町,蓮常寺３４８番地１,,28,464,6711535,,,,,,,2023-04-12,1,,,,,カズマショウジ,0
2643,9140001129733,新規,0,2023-04-12,2023-04-12,株式会社Ｎ・ＴＥＣサービス,,株式会社,兵庫県,西宮市,山口町名来２丁目９番７号,,28,204,6511411,,,,,,,2023-04-12,1,,,,,エヌテックサービス,0
2644,9140001129774,新規,0,2023-04-12,2023-04-12,株式会社つるや,,株式会社,兵庫県,神戸市北区,鈴蘭台東町１丁目５番９号,,28,109,6511112,,,,,,,2023-04-12,1,,,,,ツルヤ,0
2650,9140003018950,新規,0,2023-04-12,2023-04-12,アーバンアジャスト合同会社,,合同会社,兵庫県,神戸市中央区,浜辺通４丁目１番２３号三宮ベンチャービル２０６号,,28,110,6510083,,,,,,,2023-04-12,1,,,,,アーバンアジャスト,0
2652,9150001026302,新規,0,2023-04-12,2023-04-12,株式会社奈良恋,,株式会社,奈良県,大和高田市,大字市場５１１番地１７,,29,202,6350074,,,,,,,2023-04-12,1,,,,,ナラコイ,0
2654,9160001024965,新規,0,2023-04-12,2023-04-12,株式会社門出,,株式会社,滋賀県,守山市,小島町１６６２番地３,,25,207,5240002,,,,,,,2023-04-12,1,,,,,カドデ,0
2655,9160001024973,新規,0,2023-04-12,2023-04-12,株式会社スタンダードセブン,,株式会社,滋賀県,愛知郡愛荘町,長野１９５６番地７,,25,425,5291303,,,,,,,2023-04-12,1,,,,,,0
2658,9170001017547,新規,0,2023-04-12,2023-04-12,ａｏ　ｐｈｏｔｏｇｒａｐｈｙ株式会社,,株式会社,和歌山県,和歌山市,田尻８１８番地２７,,30,201,6410005,,,,,,,2023-04-12,1,,,,,アオフォトグラフィ,0
2669,9180001155809,新規,0,2023-04-12,2023-04-12,株式会社Ａｌｔｅｒｎａ,,株式会社,愛知県,名古屋市中村区,名駅４丁目２４番５号第２森ビル４０１,,23,105,4500002,,,,,,,2023-04-12,1,,,,,オルタナ,0
2671,9180301037269,新規,0,2023-04-12,2023-04-12,株式会社ヒカリ産業,,株式会社,愛知県,豊橋市,下地町字新道３番地１セジュール下地２０１,,23,201,4400086,,,,,,,2023-04-12,1,,,,,ヒカリサンギョウ,0
2672,9180301037277,新規,0,2023-04-12,2023-04-12,株式会社Ａｍｉｇｏｓ　ｂｕｔｃｈｅｒ’ｓ　ｓｈｏｐ,,株式会社,愛知県,西尾市,羽塚町本郷６８番地５,,23,213,4440316,,,,,,,2023-04-12,1,,,,,アミーゴスバーチャーズショップ,0
2673,9180301037293,新規,0,2023-04-12,2023-04-12,株式会社ＣＥＳＳ,,株式会社,愛知県,豊橋市,東森岡２丁目５番地３,,23,201,4411113,,,,,,,2023-04-12,1,,,,,セス,0
2674,9180301037302,新規,0,2023-04-12,2023-04-12,クリプト・スポーツ株式会社,,株式会社,愛知県,刈谷市,山池町２丁目２０８番地２Ｆ,,23,210,4480036,,,,,,,2023-04-12,1,,,,,クリプトスポーツ,0
2675,9180303005678,新規,0,2023-04-12,2023-04-12,合同会社Ｋｎａｃｋ,,合同会社,愛知県,安城市,桜井町城向１４９番地１,,23,212,4441154,,,,,,,2023-04-12,1,,,,,ナック,0
2679,9190001030309,新規,0,2023-04-12,2023-04-12,株式会社サニークリーンワークス,,株式会社,三重県,津市,長岡町８００番地５６７,,24,201,5140064,,,,,,,2023-04-12,1,,,,,サニークリーンワークス,0
2680,9190001030317,新規,0,2023-04-12,2023-04-12,株式会社Ｍ’ｓ　ｗｏｒｋｓ,,株式会社,三重県,鈴鹿市,池田町１１５６番地９,,24,207,5130032,,,,,,,2023-04-12,1,,,,,エムズワークス,0
2683,9190003004293,新規,0,2023-04-12,2023-04-12,合同会社ｔｅｃｈｎｏ　ｖｉｌｌａｇｅ,,合同会社,三重県,四日市市,河原田町４６８番地１０,,24,202,5100874,,,,,,,2023-04-12,1,,,,,テクノビレッジ,0
2685,9200003005926,新規,0,2023-04-12,2023-04-12,合同会社コスモリンクス,,合同会社,岐阜県,可児市,今渡１６１８番地５６,,21,214,5090207,,,,,,,2023-04-12,1,,,,,コスモリンクス,0
2690,9240001061348,新規,0,2023-04-12,2023-04-12,株式会社須藤工業,,株式会社,広島県,三原市,宮浦６丁目２０番２２－４０１号,,34,204,7230051,,,,,,,2023-04-12,1,,,,,スドウコウギョウ,0
2693,9240003006094,新規,0,2023-04-12,2023-04-12,合同会社ノブグッド,,合同会社,広島県,尾道市,高須町４８９６番地１ビアンカ９０１,,34,205,7290141,,,,,,,2023-04-12,1,,,,,ノブグッド,0
2700,9260003004278,新規,0,2023-04-12,2023-04-12,合同会社うしまどくるうじんぐ,,合同会社,岡山県,岡山市南区,千鳥町１６番１２号,,33,104,7028037,,,,,,,2023-04-12,1,,,,,ウシマドクルウジング,0
2709,9290001101116,新規,0,2023-04-12,2023-04-12,株式会社ＡＲＣ,,株式会社,福岡県,福岡市中央区,警固２丁目１８番１３号オークビルＩ,00130066,40,133,8100023,,,,,,,2023-04-12,1,,,,,アルク,0
2710,9290001101165,新規,0,2023-04-12,2023-04-12,株式会社玉置ＲＥ．Ｆ,,株式会社,福岡県,福岡市東区,多の津５丁目４０番３０号,,40,131,8130034,,,,,,,2023-04-12,1,,,,,タマキアールイードットエフ,0
2711,9290001101181,新規,0,2023-04-12,2023-04-12,株式会社Ｍ＆ＦＵＴＵＲＥ,,株式会社,福岡県,糟屋郡宇美町,光正寺２丁目１４番１７号,,40,341,8112123,,,,,,,2023-04-12,1,,,,,エムアンドフューチャー,0
2718,9290805009645,新規,0,2023-04-12,2023-04-12,クロスウェイブ北九州協同組合,,その他の設立登記法人,福岡県,北九州市八幡西区,穴生２丁目９番１３号,,40,109,8060049,,,,,,,2023-04-12,1,,,,,クロスウェイブキタキュウシュウ,0
2721,9300005007134,新規,0,2023-04-12,2023-04-12,一般社団法人強度行動障害医療学会,,その他の設立登記法人,佐賀県,神埼郡吉野ヶ里町,三津１６０番地独立行政法人国立病院機構肥前精神医療センター内,,41,327,8420104,,,,,,,2023-04-12,1,,,,,キョウドコウドウショウガイイリョウガッカイ,0
2724,9310001018332,新規,0,2023-04-12,2023-04-12,ＲＥ　ＣＯＤＥ株式会社,,株式会社,長崎県,佐世保市,御船町５番８号,,42,202,8570068,,,,,,,2023-04-12,1,,,,,リコード,0
2725,9320001019676,新規,0,2023-04-12,2023-04-12,株式会社アグリード,,株式会社,大分県,宇佐市,大字川部１０６１番地,,44,211,8790452,,,,,,,2023-04-12,1,,,,,アグリード,0
2726,9320003004057,新規,0,2023-04-12,2023-04-12,合同会社ストーンウェーブ,,合同会社,大分県,大分市,南津留６番４号,,44,201,8700937,,,,,,,2023-04-12,1,,,,,ストーンウェーブ,0
2727,9330001030748,新規,0,2023-04-12,2023-04-12,株式会社セルテック,,株式会社,熊本県,菊池市,泗水町永３７１２番地１,,43,210,8611204,,,,,,,2023-04-12,1,,,,,セルテック,0
2728,9330001030756,新規,0,2023-04-12,2023-04-12,Ｌｉｂｅｒｉ株式会社,,株式会社,熊本県,菊池市,泗水町吉富６０９番地１,,43,210,8611201,,,,,,,2023-04-12,1,,,,,リーベリー,0
2730,9330005010647,新規,0,2023-04-12,2023-04-12,農事組合法人球米,,その他の設立登記法人,熊本県,球磨郡球磨村,大字渡乙１６１３番地１,,43,513,8696401,,,,,,,2023-04-12,1,,,,,キュウベイ,0
2734,9360001031842,新規,0,2023-04-12,2023-04-12,株式会社国代,,株式会社,沖縄県,国頭郡金武町,字伊芸７４１番地１、２Ｆ,,47,314,9041202,,,,,,,2023-04-12,1,,,,,クニシロ,0
2739,9370001049826,新規,0,2023-04-12,2023-04-12,東日本冷熱株式会社,,株式会社,宮城県,仙台市太白区,八木山緑町７番３７号マーキュリー青葉２０１,,04,104,9820832,,,,,,,2023-04-12,1,,,,,ヒガシニホンレイネツ,0
2740,9370001049834,新規,0,2023-04-12,2023-04-12,株式会社メディアフィール,,株式会社,宮城県,仙台市青葉区,錦ケ丘１丁目３番地の１,,04,101,9893123,,,,,,,2023-04-12,1,,,,,メディアフィール,0
2741,9370003006073,新規,0,2023-04-12,2023-04-12,合同会社鈴木商会,,合同会社,宮城県,柴田郡川崎町,支倉台１丁目２０番３,,04,324,9891506,,,,,,,2023-04-12,1,,,,,スズキショウカイ,0
2751,9400001016194,新規,0,2023-04-12,2023-04-12,日進ハイデザイン工業株式会社,,株式会社,岩手県,一関市,赤荻字福泉１１８番地５,,03,209,0210041,,,,,,,2023-04-12,1,,,,,ニッシンハイデザインコウギョウ,0
2752,9400001016203,新規,0,2023-04-12,2023-04-12,株式会社町のトレカ屋さん,,株式会社,岩手県,北上市,諏訪町２丁目４－４２,,03,206,0240034,,,,,,,2023-04-12,1,,,,,マチノトレカヤサン,0
2753,9400001016211,新規,0,2023-04-12,2023-04-12,株式会社おやまライフサポート,,株式会社,岩手県,一関市,大手町６番１６号,,03,209,0210884,,,,,,,2023-04-12,1,,,,,オヤマライフサポート,0
2755,9400003003059,新規,0,2023-04-12,2023-04-12,合同会社ミチサポ,,合同会社,岩手県,九戸郡九戸村,大字伊保内第１３地割４７番地,,03,506,0286502,,,,,,,2023-04-12,1,,,,,ミチサポ,0
2756,9410001013455,新規,0,2023-04-12,2023-04-12,株式会社＿成貿易,00130076,株式会社,秋田県,大館市,川口字稲荷堂岱６５番地３,,05,204,0170878,,,,,,,2023-04-12,1,,,,,シンセイボウエキ,0
2758,9420003002703,新規,0,2023-04-12,2023-04-12,豊服合同会社,,合同会社,青森県,十和田市,大字法量字焼山６４番地２２７,,02,206,0340303,,,,,,,2023-04-12,1,,,,,トヨフク,0
2760,9430003014895,新規,0,2023-04-12,2023-04-12,合同会社ポーラベア・デザイン,,合同会社,北海道,札幌市南区,北ノ沢４丁目１番４０号サンシティ藻岩３０５,,01,106,0050832,,,,,,,2023-04-12,1,,,,,ポーラベアデザイン,0
2763,9440001009244,新規,0,2023-04-12,2023-04-12,株式会社クルック,,株式会社,北海道,函館市,船見町２番２８－２０２号,,01,202,0400055,,,,,,,2023-04-12,1,,,,,クルック,0
2778,9700150115345,新規,0,2023-04-12,2023-04-12,Ｚｈｅｎｇｚｈｏｕｓｈｉ　Ｈａｎｄｅｌｅｓｈａｎｇｍａｏｙｏｕｘｉａｎｇｏｎｇｓｉ,,外国会社等,,,,,,,,ｊｉｎｓｈｕｉｑｕｓｈａｋｏｕｌｕ，１ｈａｏ１６ｈａｏｌｏｕ３ｃｅｎｇ３１８ｈａｏ，Ｚｈｅｎｇｚｈｏｕ　Ｈｅｎａｎ,,,,,,2023-04-12,1,,,,,ジョンジョウシーハンダーラーシャンマオヨウシエンゴンスー,0
2779,9700150115353,新規,0,2023-04-12,2023-04-12,Ｓｈａｎｇｈａｉ　Ｎａｎｘｉａｓｏｎｇ　Ｉｎｄｕｓｔｒｉａｌ　Ｃｏ．，Ｌｔｄ,,外国会社等,,,,,,,,２０７ｓｈｉ　６６８ｈａｏ　ｘｉｎｚｈｕａｎｇｏｎｇｌｕ　ｘｉｎｑｉａｏｚｈｅｎ　ｓｏｎｇｊｉａｎｇｑｕ　ｓｈａｎｇｈａｉ,,,,,,2023-04-12,1,,,,,シャンハイナンシャーソンシーイエヨウシエンゴンスー,0
2780,9700150115361,新規,0,2023-04-12,2023-04-12,Ｑｕａｎｚｈｏｕ　Ｎａｕｇｈｔｙ　Ｂｅａｒ　Ｔｒｅａｄｉｎｇ　Ｃｏｍｐａｎｙ　Ｌｉｍｉｔｅｄ,,外国会社等,,,,,,,,Ｎｏ．７，ｗｅｓｔ　ｇａｔｅ，Ｗａｎｇｘｉｎｇ　ｍａｌｌ，Ｎａｎｈｕａｎ　ｒｏａｄ，Ｗｕｓｈｉ　ｃｏｍｍｕｎｉｔ　Ｌｉｃｈｅｎｇ　Ｄｉｓｔｒｉｃｔ　Ｑｕａｎｚｈｏｕ　Ｆｕｊｉａｎ,,,,,,2023-04-12,1,,,,,チュエンジョウワンピーションマオイーヨウシエンゴンスー,0
