sequenceNumber,corporateNumber,process,correct,updateDate,changeDate,name,nameImageId,kind,prefectureName,cityName,streetNumber,addressImageId,prefectureCode,cityCode,postCode,addressOutside,addressOutsideImageId,closeDate,closeCause,successorCorporateNumber,changeCause,assignmentDate,latest,enName,enPrefectureName,enCityName,enAddressOutside,furigana,hihyoji
9,1010001258858,新規,0,2025-09-30,2025-09-30,株式会社ジーオー・ジャパン,,株式会社,東京都,中央区,八丁堀２丁目２７番６号エイケイエス八丁堀ビル２階,,13,102,1040032,,,,,,,2025-09-30,1,,,,,ジーオージャパン,0
13,1010005040717,新規,0,2025-09-30,2025-09-30,一般社団法人ＣＳ,,その他の設立登記法人,東京都,千代田区,丸の内１丁目６番１号,,13,101,1000005,,,,,,,2025-09-30,1,,,,,シーエス,0
16,1010401193143,新規,0,2025-09-30,2025-09-30,株式会社マルティン,,株式会社,東京都,港区,赤坂２丁目２３番１号アークヒルズ・フロントタワーＩｎＣｏｎｔｒｏｌ内,,13,103,1070052,,,,,,,2025-09-30,1,,,,,マルティン,0
17,1010401193382,新規,0,2025-09-30,2025-09-30,株式会社ＵＰＹ,,株式会社,東京都,港区,南青山３丁目１番３６号青山丸竹ビル６Ｆ,,13,103,1070062,,,,,,,2025-09-30,1,,,,,ユピー,0
19,1010405024732,新規,0,2025-09-30,2025-09-30,医療法人社団響光会,,その他の設立登記法人,東京都,港区,芝浦１丁目１４番地７号ソレア１階１０１号室,,13,103,1050023,,,,,,,2025-09-30,1,,,,,キョウコウカイ,0
26,1010801036629,新規,0,2025-09-30,2025-09-30,霖澤株式会社,,株式会社,東京都,大田区,大森北３丁目４番４号ＫＴ大森北ビル４－Ｊ号室,,13,111,1430016,,,,,,,2025-09-30,1,,,,,リンダク,0
28,1010901058143,新規,0,2025-09-30,2025-09-30,ＡＵＣＥＮ株式会社,,株式会社,東京都,世田谷区,成城７丁目２９番２２号,,13,112,1570066,,,,,,,2025-09-30,1,,,,,オウセン,0
33,1011005011187,新規,0,2025-09-30,2025-09-30,一般社団法人幼保分野人材育成協議会,,その他の設立登記法人,東京都,目黒区,中目黒３丁目６番２号,,13,110,1530061,,,,,,,2025-09-30,1,,,,,ヨウホブンヤジンザイイクセイキョウギカイ,0
38,1011101113358,新規,0,2025-09-30,2025-09-30,日新盛グループ株式会社,,株式会社,東京都,新宿区,西新宿５丁目１９番１２号,,13,104,1600023,,,,,,,2025-09-30,1,,,,,ニッシンセイグループ,0
46,1011401027431,新規,0,2025-09-30,2025-09-30,ｔ‐ｄｅｓｉｇｎ株式会社,,株式会社,東京都,板橋区,西台４丁目６－６,,13,119,1750045,,,,,,,2025-09-30,1,,,,,ティーデザイン,0
47,1011501032629,新規,0,2025-09-30,2025-09-30,ＭＩＤＡＳ株式会社,,株式会社,東京都,北区,中里１丁目２１番２号中里ビル１Ｆ,,13,117,1140015,,,,,,,2025-09-30,1,,,,,ミダース,0
48,1011501032645,新規,0,2025-09-30,2025-09-30,株式会社ｍａｕｎａ,,株式会社,東京都,北区,赤羽１丁目１番７号Ｂ１Ｆ,,13,117,1150045,,,,,,,2025-09-30,1,,,,,マウナ,0
53,1011701028773,新規,0,2025-09-30,2025-09-30,株式会社ラビッツ,,株式会社,東京都,江戸川区,平井７丁目２０番１３号２０３,,13,123,1320035,,,,,,,2025-09-30,1,,,,,ラビッツ,0
54,1011701028781,新規,0,2025-09-30,2025-09-30,Ｗａｎ　Ｈａｏ　Ｋａｎｇ株式会社,,株式会社,東京都,江戸川区,東小岩５丁目３７－１２－２１０号,,13,123,1330052,,,,,,,2025-09-30,1,,,,,ワンハオカン,0
55,1011701028798,新規,0,2025-09-30,2025-09-30,株式会社ＡＶＩＹＡＡＮ　ＧＬＯＢＡＬ,,株式会社,東京都,江戸川区,西葛西６丁目１３番１号たかみビル５Ｆ－０３,,13,123,1340088,,,,,,,2025-09-30,1,,,,,アヴィヤーングローバル,0
56,1011703004392,新規,0,2025-09-30,2025-09-30,合同会社Ｓｉｄｒａｔｕｌ　Ｍｕｎｔａｈａ,,合同会社,東京都,江戸川区,松島３丁目１－５松島ユネックスヴィラ２１３,,13,123,1320031,,,,,,,2025-09-30,1,,,,,シドラトゥルムンタハー,0
62,1012403007355,新規,0,2025-09-30,2025-09-30,合同会社ＤＲＷＯＲＫＳ,,合同会社,東京都,狛江市,元和泉１丁目１―２エコルマ２―２０１号,,13,219,2010013,,,,,,,2025-09-30,1,,,,,ディーアールワークス,0
71,1020001164808,新規,0,2025-09-30,2025-09-30,株式会社クレディブル,,株式会社,神奈川県,横浜市保土ケ谷区,狩場町２６番地１コープ保土ヶ谷Ｂ－９１２号,,14,106,2400025,,,,,,,2025-09-30,1,,,,,クレディブル,0
72,1020001164881,新規,0,2025-09-30,2025-09-30,株式会社リバーズ,,株式会社,神奈川県,横浜市瀬谷区,阿久和東４丁目３４番地６,,14,114,2460023,,,,,,,2025-09-30,1,,,,,リバーズ,0
73,1020001165062,新規,0,2025-09-30,2025-09-30,株式会社Ｄｉａｒｙ,,株式会社,神奈川県,横浜市鶴見区,鶴見中央１丁目１７番１４号シーアイマンション鶴見１０１号,,14,101,2300051,,,,,,,2025-09-30,1,,,,,ダイアリー,0
78,1021005013439,新規,0,2025-09-30,2025-09-30,一般社団法人ざまパト,,その他の設立登記法人,神奈川県,座間市,緑ケ丘６丁目２５番１２号,,14,216,2520021,,,,,,,2025-09-30,1,,,,,ザマパト,0
87,1030001168758,新規,0,2025-09-30,2025-09-30,ＳＮＯＶＡ株式会社,,株式会社,埼玉県,さいたま市大宮区,三橋２丁目５３９番地３,,11,103,3300856,,,,,,,2025-09-30,1,,,,,スノーヴァ,0
88,1030001168782,新規,0,2025-09-30,2025-09-30,株式会社パルクールランド,,株式会社,埼玉県,さいたま市見沼区,大字南中野６７５番地１,,11,104,3370042,,,,,,,2025-09-30,1,,,,,パルクールランド,0
89,1030001168799,新規,0,2025-09-30,2025-09-30,株式会社ｄｏｕｓｅｎ,,株式会社,埼玉県,さいたま市南区,辻３丁目７番１０号,00140848,11,108,3360026,,,,,,,2025-09-30,1,,,,,ドウセン,0
90,1030001168808,新規,0,2025-09-30,2025-09-30,株式会社ＮＥＳＴ,,株式会社,埼玉県,川口市,並木３丁目２７番１１斉藤ビル３０６,,11,203,3320034,,,,,,,2025-09-30,1,,,,,ネスト,0
91,1030001168840,新規,0,2025-09-30,2025-09-30,株式会社ラハナズ,,株式会社,埼玉県,川口市,並木３丁目２４番１７号ベルトピア西川口１０２号,,11,203,3320034,,,,,,,2025-09-30,1,,,,,ラハナズ,0
95,1030003027689,新規,0,2025-09-30,2025-09-30,合同会社ＴＯＲＩＣＯ　ＢＡＳＥ,,合同会社,埼玉県,さいたま市桜区,栄和６丁目５番３７－１号,,11,106,3380823,,,,,,,2025-09-30,1,,,,,トリコベース,0
96,1030003027714,新規,0,2025-09-30,2025-09-30,合同会社Ａ．Ｎ　ＧＬＯＢＡＬ　ＴＲＡＤＩＮＧ,,合同会社,埼玉県,幸手市,大字上吉羽４１２－４,,11,240,3400121,,,,,,,2025-09-30,1,,,,,エーエヌグローバルトレーディング,0
97,1030003027739,新規,0,2025-09-30,2025-09-30,クロスブルーム合同会社,,合同会社,埼玉県,さいたま市桜区,田島２丁目３番８号プレディーナ３０４,,11,106,3380837,,,,,,,2025-09-30,1,,,,,クロスブルーム,0
101,1040001140666,新規,0,2025-09-30,2025-09-30,株式会社ＴＯＫＹＯ　ＤＲＥＡＭ,,株式会社,千葉県,市川市,福栄３丁目７番２３－２０６号（ヴィラージュ行徳）,,12,203,2720137,,,,,,,2025-09-30,1,,,,,トウキョウドリーム,0
103,1040003028612,新規,0,2025-09-30,2025-09-30,ＳＵＭＡ合同会社,,合同会社,千葉県,市川市,北方町４丁目１３８２－２,,12,203,2720811,,,,,,,2025-09-30,1,,,,,スマ,0
110,1070003006103,新規,0,2025-09-30,2025-09-30,合同会社あいだのしごと,,合同会社,群馬県,前橋市,千代田町２丁目２－１１ＧＳレジデンス２階ＧＩＴＹ内,,10,201,3710022,,,,,,,2025-09-30,1,,,,,アイダノシゴト,0
114,1080101025805,新規,0,2025-09-30,2025-09-30,株式会社吉祥,,株式会社,静岡県,富士市,吉原２丁目６番８号中村ビル,,22,210,4170051,,,,,,,2025-09-30,1,,,,,キッショウ,0
115,1080401028185,新規,0,2025-09-30,2025-09-30,株式会社有機テクニクス,,株式会社,静岡県,御前崎市,下朝比奈１５３番地の１０６,,22,223,4371605,,,,,,,2025-09-30,1,,,,,ユウキテクニクス,0
117,1090005007741,新規,0,2025-09-30,2025-09-30,一般社団法人日本ＩＫＩＧＡＩデザイン協会,,その他の設立登記法人,山梨県,北杜市,大泉町西井出７５０９番地,,19,209,4091501,,,,,,,2025-09-30,1,,,,,ニホンイキガイデザインキョウカイ,0
132,1120001280090,新規,0,2025-09-30,2025-09-30,宝利株式会社,,株式会社,大阪府,大阪市東成区,玉津２丁目５－１４パシフィック玉津１０７号室,,27,115,5370023,,,,,,,2025-09-30,1,,,,,ホウリ,0
133,1120001280132,新規,0,2025-09-30,2025-09-30,Ｊｐｔｅｎｓｏ株式会社,,株式会社,大阪府,大阪市港区,波除５丁目８番１０号,,27,107,5520001,,,,,,,2025-09-30,1,,,,,ジェイピーテンソ,0
134,1120001280280,新規,0,2025-09-30,2025-09-30,紡ぎプラネット株式会社,,株式会社,大阪府,大阪市生野区,小路３丁目１４番４号,,27,116,5440002,,,,,,,2025-09-30,1,,,,,ツムギプラネット,0
135,1120001280330,新規,0,2025-09-30,2025-09-30,株式会社ＭＮ,,株式会社,大阪府,寝屋川市,日之出町１番５号,,27,215,5720835,,,,,,,2025-09-30,1,,,,,エムエヌ,0
136,1120001280421,新規,0,2025-09-30,2025-09-30,株式会社Ｋｏ＆Ｃｏ,,株式会社,大阪府,大阪市東淀川区,淡路３丁目２番１８号ラフィ－ネ淡路４０２号,,27,114,5330032,,,,,,,2025-09-30,1,,,,,コーアンドコー,0
137,1120001280438,新規,0,2025-09-30,2025-09-30,株式会社ＰＡホールディングス,,株式会社,大阪府,大阪市西区,九条１丁目２０番６号,,27,106,5500027,,,,,,,2025-09-30,1,,,,,ピーエーホールディングス,0
142,1120903005867,新規,0,2025-09-30,2025-09-30,合同会社看護と介護のひまり,,合同会社,大阪府,吹田市,樫切山２１番Ｅ－８１２号,,27,205,5650806,,,,,,,2025-09-30,1,,,,,カンゴトカイゴノヒマリ,0
143,1120903005875,新規,0,2025-09-30,2025-09-30,合同会社ＣＫ,,合同会社,大阪府,豊中市,南桜塚１丁目１５番７号,,27,203,5610882,,,,,,,2025-09-30,1,,,,,シーケイ,0
144,1130001080647,新規,0,2025-09-30,2025-09-30,リモーネ株式会社,,株式会社,京都府,京都市中京区,西ノ京池ノ内町２４番地,,26,104,6048375,,,,,,,2025-09-30,1,,,,,リモーネ,0
145,1130001080663,新規,0,2025-09-30,2025-09-30,株式会社ＡＫＵＡＬＩＳ　ＥＳＴＡＴＥ,,株式会社,京都府,京都市北区,紫野今宮町４７番地１,,26,101,6038243,,,,,,,2025-09-30,1,,,,,アクアリスエステート,0
148,1130003010809,新規,0,2025-09-30,2025-09-30,ＩＮＧＬＩＳＨ　ＳＴＵＤＩＯ合同会社,,合同会社,京都府,京都市中京区,一之船入町３７６番地,,26,104,6040924,,,,,,,2025-09-30,1,,,,,イングリッシュスタジオ,0
149,1130005017463,新規,0,2025-09-30,2025-09-30,特定非営利活動法人創続デザイン研究所,,その他の設立登記法人,京都府,京都市上京区,浄福寺通五辻下る有馬町１９２番地１,,26,102,6028472,,,,,,,2025-09-30,1,,,,,ソウゾクデザインケンキュウショ,0
155,1140001140136,新規,0,2025-09-30,2025-09-30,ペルソナキャピタル株式会社,,株式会社,兵庫県,神戸市灘区,八幡町３丁目３番２４－１０２号,,28,102,6570051,,,,,,,2025-09-30,1,,,,,ペルソナキャピタル,0
156,1140003022621,新規,0,2025-09-30,2025-09-30,合同会社ｎａｋａｓｈｏ,,合同会社,兵庫県,神戸市中央区,京町７８番地三宮京町ビル３階,,28,110,6500034,,,,,,,2025-09-30,1,,,,,ナカショウ,0
157,1140003022638,新規,0,2025-09-30,2025-09-30,合同会社ＵＮＩＯＮ　Ｔｒａｄｅｒｓ,,合同会社,兵庫県,神戸市中央区,生田町２丁目２番５号プレメゾン２Ｂ号室,,28,110,6510092,,,,,,,2025-09-30,1,,,,,ユニオントレーダーズ,0
158,1140003022646,新規,0,2025-09-30,2025-09-30,ＳＨＡＢＢＩＲ　ＳＯＮ’Ｓ　ＴＲＡＤＩＮＧ合同会社,,合同会社,兵庫県,神戸市西区,南別府１丁目６番地の５ローズハイツ２０９号,,28,111,6512116,,,,,,,2025-09-30,1,,,,,シャビールソンズトレーディング,0
161,1150001028421,新規,0,2025-09-30,2025-09-30,株式会社弥栄,,株式会社,奈良県,生駒市,小明町４４７番地２ルミエール生駒３０２号室,,29,209,6300201,,,,,,,2025-09-30,1,,,,,イヤサカ,0
162,1160001027067,新規,0,2025-09-30,2025-09-30,株式会社ユニエル,,株式会社,滋賀県,長浜市,平方町８９０－２ＭＡＩＳＯＮＮａｔｕｒｅ２０２号,,25,203,5260033,,,,,,,2025-09-30,1,,,,,ユニエル,0
173,1180001168776,新規,0,2025-09-30,2025-09-30,株式会社青和測量設計,,株式会社,愛知県,知多郡阿久比町,大字萩字坂南１４番地,,23,441,4702205,,,,,,,2025-09-30,1,,,,,セイワソクリョウセッケイ,0
174,1180001168784,新規,0,2025-09-30,2025-09-30,株式会社ＡＷＪ,,株式会社,愛知県,名古屋市中川区,吉良町１７８番地の４,,23,110,4540874,,,,,,,2025-09-30,1,,,,,エーダブリュジェイ,0
175,1180001168801,新規,0,2025-09-30,2025-09-30,株式会社ｂｏｎｄ,,株式会社,愛知県,名古屋市南区,宝生町４丁目１０番地の５,,23,112,4570828,,,,,,,2025-09-30,1,,,,,ボンド,0
178,1180003029150,新規,0,2025-09-30,2025-09-30,Ｍ．Ａ　ＩＮＴＥＲＮＡＴＩＯＮＡＬ合同会社,,合同会社,愛知県,一宮市,大和町馬引字西出１９番地パビリオン桔梗丘Ａ棟５０６号,,23,203,4910931,,,,,,,2025-09-30,1,,,,,エムエーインターナショナル,0
179,1180005021246,新規,0,2025-09-30,2025-09-30,一般社団法人青年経営者研修塾,,その他の設立登記法人,愛知県,名古屋市瑞穂区,松栄町２丁目４番地の２,,23,108,4670025,,,,,,,2025-09-30,1,,,,,セイネンケイエイシャケンシュウジュク,0
183,1180301040247,新規,0,2025-09-30,2025-09-30,中村造園株式会社,,株式会社,愛知県,豊橋市,西七根町字むつみね台２０番地１６,,23,201,4413202,,,,,,,2025-09-30,1,,,,,ナカムラゾウエン,0
188,1180305009734,新規,0,2025-09-30,2025-09-30,一般社団法人地域音楽芸術の会グルッポフレスコ,,その他の設立登記法人,愛知県,豊橋市,住吉町６５番地の１,,23,201,4400052,,,,,,,2025-09-30,1,,,,,チイキオンガクゲイジュツノカイグルッポフレスコ,0
189,1190003005200,新規,0,2025-09-30,2025-09-30,ｔｏｍｉｇｉ合同会社,,合同会社,三重県,四日市市,東富田町３０番２６号,,24,202,5108006,,,,,,,2025-09-30,1,,,,,トミギ,0
190,1200001044272,新規,0,2025-09-30,2025-09-30,株式会社翔陽,,株式会社,岐阜県,可児市,中恵土２１８４番地３,,21,214,5090202,,,,,,,2025-09-30,1,,,,,ショウヨウ,0
191,1200003007062,新規,0,2025-09-30,2025-09-30,２Ｈ合同会社,,合同会社,岐阜県,岐阜市,寺田９０５,,21,201,5010104,,,,,,,2025-09-30,1,,,,,ツーエイチ,0
199,1240001065554,新規,0,2025-09-30,2025-09-30,株式会社ＦＡＭＺ相続不動産,,株式会社,広島県,広島市中区,舟入町２番２０号,,34,101,7300841,,,,,,,2025-09-30,1,,,,,ファムズソウゾクフドウサン,0
200,1240001065562,新規,0,2025-09-30,2025-09-30,株式会社Ｋｉｙｏｍａｓａ,,株式会社,広島県,広島市中区,鶴見町６番２２号８０１号室,,34,101,7300045,,,,,,,2025-09-30,1,,,,,キヨマサ,0
212,1290003017499,新規,0,2025-09-30,2025-09-30,ＣＵＯＮＧ　ＭＡＮＨ合同会社,,合同会社,福岡県,朝倉市,一木９０４番地１ビレッジハウス甘木一木１棟４０２号,,40,228,8380065,,,,,,,2025-09-30,1,,,,,クオンマン,0
216,1290801031882,新規,0,2025-09-30,2025-09-30,株式会社ＦＲＡＭＥ,,株式会社,福岡県,豊前市,大字八屋４９９番地１,,40,214,8280021,,,,,,,2025-09-30,1,,,,,フレイム,0
219,1310003005096,新規,0,2025-09-30,2025-09-30,合同会社あいギルド,,合同会社,長崎県,佐世保市,若葉町７番３０号,,42,202,8570833,,,,,,,2025-09-30,1,,,,,アイギルド,0
225,1330001033618,新規,0,2025-09-30,2025-09-30,株式会社からあげ日和,,株式会社,熊本県,熊本市南区,並建町２９６番地３,,43,104,8615263,,,,,,,2025-09-30,1,,,,,カラアゲビヨリ,0
226,1340001027676,新規,0,2025-09-30,2025-09-30,株式会社ＲＩＴＣＨ　ＷＩＮ,,株式会社,鹿児島県,鹿児島市,千日町１３番２号吾愛人仏羅多ビル６Ｆ,,46,201,8920843,,,,,,,2025-09-30,1,,,,,リッチウィン,0
227,1340003004962,新規,0,2025-09-30,2025-09-30,合同会社ｐｅａｃｅ,,合同会社,鹿児島県,鹿児島市,加治屋町３番３号ウェーブＩＩ８０３,00140862,46,201,8920846,,,,,,,2025-09-30,1,,,,,ピース,0
230,1360001035818,新規,0,2025-09-30,2025-09-30,株式会社Ｒａｒｅ不動産,,株式会社,沖縄県,中頭郡北谷町,桑江１丁目１３番３１号りっちリゾンＣＨＡＴＡＮ５０２,,47,326,9040103,,,,,,,2025-09-30,1,,,,,レアフドウサン,0
231,1360003015280,新規,0,2025-09-30,2025-09-30,合同会社金城興業,,合同会社,沖縄県,国頭郡本部町,字浦崎５３番地（２－Ｄ）,,47,308,9050217,,,,,,,2025-09-30,1,,,,,キンジョウコウギョウ,0
233,1370003007302,新規,0,2025-09-30,2025-09-30,合同会社ＫＯＨサービス,,合同会社,宮城県,仙台市泉区,紫山１丁目７９－４,,04,105,9813205,,,,,,,2025-09-30,1,,,,,コーサービス,0
243,1420003003188,新規,0,2025-09-30,2025-09-30,合同会社カンパニュール,,合同会社,青森県,青森市,大字安田字近野３６８番地１,,02,201,0380021,,,,,,,2025-09-30,1,,,,,カンパニュール,0
249,1430005015305,新規,0,2025-09-30,2025-09-30,行政書士法人会社の番頭さん,,その他の設立登記法人,北海道,札幌市中央区,大通東４丁目４－４４,,01,101,0600041,,,,,,,2025-09-30,1,,,,,カイシャノバントウサン,0
250,1500001026538,新規,0,2025-09-30,2025-09-30,株式会社２０００ｒｐｍ,,株式会社,愛媛県,松山市,北斎院町７２８番地１７,,38,201,7918031,,,,,,,2025-09-30,1,,,,,ニセンアールピーエム,0
266,2010001258741,新規,0,2025-09-30,2025-09-30,ＫＩＨアドバイザーズジャパン株式会社,,株式会社,東京都,中央区,新川１丁目１７番１８号白鹿茅場町ビル７階,,13,102,1040033,,,,,,,2025-09-30,1,,,,,ケイアイエイチアドバイザーズジャパン,0
269,2010005040716,新規,0,2025-09-30,2025-09-30,ＲＯＬＥＵＰ監査法人,,その他の設立登記法人,東京都,千代田区,丸の内２丁目４番１号丸の内ビルディング２８階,,13,101,1000005,,,,,,,2025-09-30,1,,,,,ロールアップ,0
271,2010401193175,新規,0,2025-09-30,2025-09-30,株式会社ＭＭＥＥＴＴ,,株式会社,東京都,港区,六本木６丁目１７－６ＰＩＡ麻布十番ＩＩＩ７Ｆ,00140863,13,103,1060032,,,,,,,2025-09-30,1,,,,,ミーツ,0
272,2010401193365,新規,0,2025-09-30,2025-09-30,華月株式会社,,株式会社,東京都,港区,南青山２丁目４番１５号４０１号室,,13,103,1070062,,,,,,,2025-09-30,1,,,,,カゲツ,0
276,2010403036051,新規,0,2025-09-30,2025-09-30,合同会社チームドーフ,,合同会社,東京都,港区,南青山３丁目１番３６号,,13,103,1070062,,,,,,,2025-09-30,1,,,,,チームドーフ,0
277,2010403036150,新規,0,2025-09-30,2025-09-30,合同会社Ａｓｃｏｒｄ,,合同会社,東京都,港区,白金２丁目７番３５－５０６号,,13,103,1080072,,,,,,,2025-09-30,1,,,,,アスコード,0
278,2010501054780,新規,0,2025-09-30,2025-09-30,長福株式会社,,株式会社,東京都,台東区,千束３丁目２６番４号,,13,106,1110031,,,,,,,2025-09-30,1,,,,,ナガフク,0
279,2010503007984,新規,0,2025-09-30,2025-09-30,合同会社ＣＭＭＹ　ｓｔｕｄｉｏｓ,,合同会社,東京都,台東区,千束４丁目４３番２－９０５号,,13,106,1110031,,,,,,,2025-09-30,1,,,,,シーエムエムワイストゥーディオ,0
280,2010503008009,新規,0,2025-09-30,2025-09-30,＿安統合合同会社,00140864,合同会社,東京都,台東区,寿１丁目１番１０－５０３号レオパード浅草,,13,106,1110042,,,,,,,2025-09-30,1,,,,,イクアントウゴウ,0
281,2010601068012,新規,0,2025-09-30,2025-09-30,株式会社ＧＯ‐ＫＥＮ　Ｅｎｔｅｒｔａｉｎｍｅｎｔ,,株式会社,東京都,墨田区,京島１丁目１－２－１４０６,,13,107,1310046,,,,,,,2025-09-30,1,,,,,ゴーケンエンターテインメント,0
282,2010601068020,新規,0,2025-09-30,2025-09-30,株式会社ＧＹＭ,,株式会社,東京都,江東区,亀戸１丁目３５－７ウッディビル８Ｆ,,13,108,1360071,,,,,,,2025-09-30,1,,,,,ジム,0
283,2010603011820,新規,0,2025-09-30,2025-09-30,ＭＥＯ合同会社,,合同会社,東京都,江東区,豊洲２丁目５－１パークシティ豊洲Ａ棟１７１８,,13,108,1350061,,,,,,,2025-09-30,1,,,,,エムイーオー,0
286,2010703007933,新規,0,2025-09-30,2025-09-30,合同会社ソレイユ,,合同会社,東京都,品川区,二葉３丁目１１－５ソレイユ二葉１０１,,13,109,1420043,,,,,,,2025-09-30,1,,,,,ソレイユ,0
287,2010801036537,新規,0,2025-09-30,2025-09-30,株式会社東吉,,株式会社,東京都,大田区,萩中１丁目６－９東昇ビル２０３,,13,111,1440047,,,,,,,2025-09-30,1,,,,,ヒガシヨシ,0
289,2010901058150,新規,0,2025-09-30,2025-09-30,株式会社ｎｉｃｏ２５,,株式会社,東京都,世田谷区,下馬１丁目５５番２２号,,13,112,1540002,,,,,,,2025-09-30,1,,,,,ニコニコ,0
301,2011101113092,新規,0,2025-09-30,2025-09-30,株式会社ＭＡＥＭＵＫＩ,,株式会社,東京都,新宿区,西新宿７丁目５－５プラザ西新宿３０９,,13,104,1600023,,,,,,,2025-09-30,1,,,,,マエムキ,0
302,2011101113167,新規,0,2025-09-30,2025-09-30,株式会社ユニゾン・ファシリティーリンクス,,株式会社,東京都,新宿区,荒木町１３番３５号,,13,104,1600007,,,,,,,2025-09-30,1,,,,,ユニゾンファシリティーリンクス,0
303,2011101113274,新規,0,2025-09-30,2025-09-30,株式会社トライ登記業務センター,,株式会社,東京都,新宿区,西新宿７丁目４番４号武蔵ビル３階,,13,104,1600023,,,,,,,2025-09-30,1,,,,,トライトウキギョウムセンター,0
304,2011101113308,新規,0,2025-09-30,2025-09-30,水円株式会社,,株式会社,東京都,新宿区,百人町２丁目５－４土屋ビル２Ｆ　ＬｉｎｋＳｐａｃｅＳ０６,,13,104,1690073,,,,,,,2025-09-30,1,,,,,スイエン,0
312,2011501032628,新規,0,2025-09-30,2025-09-30,Ｃｏｎｎｏｒ株式会社,,株式会社,東京都,荒川区,西日暮里１丁目５９－３－１０６室,,13,118,1160013,,,,,,,2025-09-30,1,,,,,コナー,0
316,2011601029004,新規,0,2025-09-30,2025-09-30,株式会社Ｆｄｃｅ,,株式会社,東京都,練馬区,関町北２丁目２２番１３－５０１号,,13,120,1770051,,,,,,,2025-09-30,1,,,,,エフディーシーイー,0
318,2011703004400,新規,0,2025-09-30,2025-09-30,馨甜合同会社,,合同会社,東京都,江戸川区,東小岩５丁目３７番１２号楽新ビル２０１号,,13,123,1330052,,,,,,,2025-09-30,1,,,,,シンテン,0
323,2011801046831,新規,0,2025-09-30,2025-09-30,Ｈａｐｅｅｆｙ株式会社,,株式会社,東京都,足立区,江北４丁目１８番４号,,13,121,1230872,,,,,,,2025-09-30,1,,,,,ハピーファイ,0
329,2012405005166,新規,0,2025-09-30,2025-09-30,一般社団法人国際政策総研,,その他の設立登記法人,東京都,府中市,分梅町１丁目９－２７,,13,206,1830033,,,,,,,2025-09-30,1,,,,,コクサイセイサクソウケン,0
332,2012801024273,新規,0,2025-09-30,2025-09-30,株式会社ＭＢ　Ｐａｒｔｎｅｒｓ,,株式会社,東京都,武蔵村山市,岸１丁目２番地３,,13,223,2080031,,,,,,,2025-09-30,1,,,,,エムビーパートナーズ,0
341,2020001164897,新規,0,2025-09-30,2025-09-30,株式会社京浜建設,,株式会社,神奈川県,横浜市磯子区,岡村４丁目２５－８ユナイト天神ジェイムス・クラーク１０５号室,,14,107,2350021,,,,,,,2025-09-30,1,,,,,ケイヒンケンセツ,0
342,2020001165094,新規,0,2025-09-30,2025-09-30,ＫＡＭ株式会社,,株式会社,神奈川県,横浜市戸塚区,川上町６３９－１ブレスタージュ東戸塚３０６号室,,14,110,2440805,,,,,,,2025-09-30,1,,,,,ケイエイエム,0
348,2020003029371,新規,0,2025-09-30,2025-09-30,ＴＫＭＴ合同会社,,合同会社,神奈川県,横浜市中区,不老町１丁目２シャトレーイン横浜１００１,,14,104,2310032,,,,,,,2025-09-30,1,,,,,ティーケーエムティー,0
349,2020003029405,新規,0,2025-09-30,2025-09-30,ＲＩＯＮ合同会社,,合同会社,神奈川県,横浜市西区,浜松町５０－５１１,,14,103,2200055,,,,,,,2025-09-30,1,,,,,リオン,0
350,2020003029454,新規,0,2025-09-30,2025-09-30,合同会社川口,,合同会社,神奈川県,川崎市中原区,下小田中４丁目１４番２４号,,14,133,2110041,,,,,,,2025-09-30,1,,,,,カワグチ,0
351,2020003029479,新規,0,2025-09-30,2025-09-30,ライフサイエンスブリッジ合同会社,,合同会社,神奈川県,横浜市南区,高根町１丁目４－４０ＫＹＳオフイス２ＦＡ００４,,14,105,2320022,,,,,,,2025-09-30,1,,,,,ライフサイエンスブリッジ,0
353,2021001086371,新規,0,2025-09-30,2025-09-30,宇和株式会社,,株式会社,神奈川県,相模原市中央区,すすきの町４１番２２号,,14,152,2520213,,,,,,,2025-09-30,1,,,,,ウワ,0
360,2030001168699,新規,0,2025-09-30,2025-09-30,Ｈａｎａｂｉｔ株式会社,,株式会社,埼玉県,さいたま市大宮区,三橋２丁目５３９番地３,,11,103,3300856,,,,,,,2025-09-30,1,,,,,ハナビット,0
361,2030001168823,新規,0,2025-09-30,2025-09-30,株式会社ＣＲＥＷＳ,,株式会社,埼玉県,所沢市,大字城４４４－１,,11,208,3590013,,,,,,,2025-09-30,1,,,,,クルーズ,0
362,2030001168906,新規,0,2025-09-30,2025-09-30,株式会社ｍｕｓｕｂｉ,,株式会社,埼玉県,所沢市,大字山口５０４－５,,11,208,3591145,,,,,,,2025-09-30,1,,,,,ムスビ,0
365,2030003027696,新規,0,2025-09-30,2025-09-30,合同会社ＬＵＮＡ　ＯＮＥ,,合同会社,埼玉県,所沢市,青葉台１３０１番地の１０,,11,208,3591105,,,,,,,2025-09-30,1,,,,,ルナワン,0
366,2030003027721,新規,0,2025-09-30,2025-09-30,ＡＧＰ　Ｂｒｉｄｇｅ合同会社,,合同会社,埼玉県,志木市,柏町２丁目２９番２４号,,11,228,3530007,,,,,,,2025-09-30,1,,,,,エージーピーブリッジ,0
371,2040001140582,新規,0,2025-09-30,2025-09-30,株式会社Ｔｒｉｇｌｕｏｎ,,株式会社,千葉県,柏市,泉町１番２７号Ｓ．Ｉ．Ｎ．第１ビル４階４０４号室,,12,217,2770022,,,,,,,2025-09-30,1,,,,,トリグルオン,0
372,2040001140657,新規,0,2025-09-30,2025-09-30,株式会社ＮＥＯ,,株式会社,千葉県,木更津市,久津間５３４番地６,,12,206,2920004,,,,,,,2025-09-30,1,,,,,ネオ,0
373,2040001140673,新規,0,2025-09-30,2025-09-30,ＩＥＥＴｅＫジャパン株式会社,,株式会社,千葉県,市川市,欠真間２丁目１番２１号,,12,203,2720142,,,,,,,2025-09-30,1,,,,,アイイーテックジャパン,0
375,2040003028644,新規,0,2025-09-30,2025-09-30,ＷＨ　ＩＮＴＥＲＮＡＴＩＯＮＡＬ合同会社,,合同会社,千葉県,野田市,堤台４３３番地の１,,12,208,2780044,,,,,,,2025-09-30,1,,,,,ダブリュエイチインターナショナル,0
376,2040005022876,新規,0,2025-09-30,2025-09-30,新栄パートナー協同組合,,その他の設立登記法人,千葉県,君津市,西坂田１丁目２番１３号,,12,225,2991145,,,,,,,2025-09-30,1,,,,,シンエイパートナー,0
382,2050003009619,新規,0,2025-09-30,2025-09-30,合同会社イデアパートナーズ,,合同会社,茨城県,古河市,東本町１丁目１３番１１－１２０１号,,08,204,3060013,,,,,,,2025-09-30,1,,,,,イデアパートナーズ,0
388,2080001027165,新規,0,2025-09-30,2025-09-30,テラリア株式会社,,株式会社,静岡県,静岡市葵区,田町６丁目４４番地の１２,,22,101,4200068,,,,,,,2025-09-30,1,,,,,テラリア,0
390,2080005007725,新規,0,2025-09-30,2025-09-30,一般社団法人マンション管理組合サポートセンター,,その他の設立登記法人,静岡県,静岡市葵区,栄町２番地５アークビルディング５０２,,22,101,4200859,,,,,,,2025-09-30,1,,,,,マンションカンリクミアイサポートセンター,0
403,2110003005900,新規,0,2025-09-30,2025-09-30,太陽雪合同会社,,合同会社,新潟県,上越市,中郷区江口９７５番地２,,15,222,9492316,,,,,,,2025-09-30,1,,,,,タイヨウユキ,0
408,2120001279917,新規,0,2025-09-30,2025-09-30,吉糯株式会社,,株式会社,大阪府,大阪市中央区,南船場１丁目６番１４号２０１号室,,27,128,5420081,,,,,,,2025-09-30,1,,,,,ヨシノウ,0
409,2120001279925,新規,0,2025-09-30,2025-09-30,ウェスティン株式会社,,株式会社,大阪府,大阪市生野区,田島６丁目２番２８－２０３号,,27,116,5440011,,,,,,,2025-09-30,1,,,,,ウェスティン,0
410,2120001279933,新規,0,2025-09-30,2025-09-30,東匯株式会社,,株式会社,大阪府,大阪市西成区,千本北２丁目３２番２２－３０１号,,27,122,5570053,,,,,,,2025-09-30,1,,,,,トウカイ,0
413,2120003030567,新規,0,2025-09-30,2025-09-30,合同会社Ｏｒｂｉｓ,,合同会社,大阪府,大阪市浪速区,日本橋３丁目４番９－１７０２号,,27,111,5560005,,,,,,,2025-09-30,1,,,,,オルビス,0
414,2120003030831,新規,0,2025-09-30,2025-09-30,合同会社Ｎｏｏｋ　Ｈｏｓｐｉｔａｌｉｔｙ,,合同会社,大阪府,大阪市浪速区,敷津西１丁目９番２６号玄関堂マンション６－Ｄ号,,27,111,5560015,,,,,,,2025-09-30,1,,,,,ヌークホスピタリティ,0
415,2120003030848,新規,0,2025-09-30,2025-09-30,クローバー合同会社,,合同会社,大阪府,大阪市東成区,中本２丁目１０番１６号,,27,115,5370022,,,,,,,2025-09-30,1,,,,,クローバー,0
420,2120901051532,新規,0,2025-09-30,2025-09-30,慧策株式会社,,株式会社,大阪府,吹田市,円山町５０番２０号,,27,205,5640061,,,,,,,2025-09-30,1,,,,,ケイサク,0
421,2120903005858,新規,0,2025-09-30,2025-09-30,合同会社ＮＫＹ　Ｆｏｏｄｓ,,合同会社,大阪府,茨木市,宮島１丁目２番１号加工食品卸売場Ａ棟３階３０５区画,,27,211,5670853,,,,,,,2025-09-30,1,,,,,エヌケイワイフーズ,0
422,2120905006796,新規,0,2025-09-30,2025-09-30,一般社団法人こどものそだち研究所はぐくみの木,,その他の設立登記法人,大阪府,豊中市,東豊中町５丁目２番１４４－５０５号,,27,203,5600003,,,,,,,2025-09-30,1,,,,,コドモノソダチケンキュウショハグクミノキ,0
423,2122001039672,新規,0,2025-09-30,2025-09-30,株式会社安田特殊熔接,,株式会社,大阪府,東大阪市,衣摺６丁目９番２９号,,27,227,5770827,,,,,,,2025-09-30,1,,,,,ヤスダトクシュヨウセツ,0
426,2130001080646,新規,0,2025-09-30,2025-09-30,ＭＳＡ　ＩＮＴＥＲＮＡＴＩＯＮＡＬ株式会社,,株式会社,京都府,綾部市,位田町赤田５４番地,,26,203,6230221,,,,,,,2025-09-30,1,,,,,エムエスエーインターナショナル,0
427,2130003010824,新規,0,2025-09-30,2025-09-30,合同会社Ｂａｓｅ,,合同会社,京都府,亀岡市,千代川町小川１丁目６番７号,,26,206,6210041,,,,,,,2025-09-30,1,,,,,ベイス,0
430,2140001140168,新規,0,2025-09-30,2025-09-30,株式会社グローバル・プランニング,,株式会社,兵庫県,高砂市,米田町米田４１０番地の１,,28,216,6760805,,,,,,,2025-09-30,1,,,,,グローバルプランニング,0
431,2140003022637,新規,0,2025-09-30,2025-09-30,ＧＵＲＡＳＨ合同会社,,合同会社,兵庫県,神戸市中央区,元町通２丁目９番１号元町プラザＢ０３号,,28,110,6500022,,,,,,,2025-09-30,1,,,,,グラス,0
432,2150005009722,新規,0,2025-09-30,2025-09-30,ＮＰＯ法人Ｅｓｓｅｎｔｉａｌ　Ｓｅｅｄ,,その他の設立登記法人,奈良県,奈良市,学園北１丁目４－２,,29,201,6310036,,,,,,,2025-09-30,1,,,,,エッセンシャルシード,0
434,2160001027082,新規,0,2025-09-30,2025-09-30,株式会社ＷＨＩＴＥＳＴＯＮＥ　ＷＯＲＫＳ,,株式会社,滋賀県,甲賀市,土山町頓宮２７６番地３,,25,209,5280231,,,,,,,2025-09-30,1,,,,,ホワイトストーンワークス,0
435,2170005007170,新規,0,2025-09-30,2025-09-30,労働者協同組合Ｍｙｓ,,その他の設立登記法人,和歌山県,伊都郡九度山町,大字河根１１８番地,,30,343,6480111,,,,,,,2025-09-30,1,,,,,ミース,0
441,2180001168759,新規,0,2025-09-30,2025-09-30,昴地所株式会社,,株式会社,愛知県,名古屋市中区,正木４丁目２番９号第１８フクマルビル７０５号室,,23,106,4600024,,,,,,,2025-09-30,1,,,,,スバルチショ,0
442,2180001168775,新規,0,2025-09-30,2025-09-30,壽Ｇｒｏｕｐ株式会社,,株式会社,愛知県,名古屋市港区,当知３丁目５０２番地,,23,111,4550804,,,,,,,2025-09-30,1,,,,,ヒサシグループ,0
443,2180001168783,新規,0,2025-09-30,2025-09-30,株式会社名立不動産,,株式会社,愛知県,瀬戸市,南山町２丁目３８番地の２,,23,204,4890986,,,,,,,2025-09-30,1,,,,,メイリツフドウサン,0
444,2180001168800,新規,0,2025-09-30,2025-09-30,株式会社コネクトラボ,,株式会社,愛知県,名古屋市東区,代官町３９番２２号,,23,102,4610002,,,,,,,2025-09-30,1,,,,,コネクトラボ,0
445,2180001168817,新規,0,2025-09-30,2025-09-30,オフィスＳＫ株式会社,,株式会社,愛知県,名古屋市中村区,名駅３丁目４番１０号,,23,105,4500002,,,,,,,2025-09-30,1,,,,,オフィスエスケー,0
450,2180003029125,新規,0,2025-09-30,2025-09-30,盛和商事合同会社,,合同会社,愛知県,名古屋市熱田区,青池町２丁目２６番地４Ｂ号室,,23,109,4560075,,,,,,,2025-09-30,1,,,,,セイワショウジ,0
452,2180301040246,新規,0,2025-09-30,2025-09-30,ＯＦＦＩＣＥ土屋株式会社,,株式会社,愛知県,岡崎市,稲熊町字２丁目１３８番地,,23,202,4440071,,,,,,,2025-09-30,1,,,,,オフィスツチヤ,0
472,2230001021103,新規,0,2025-09-30,2025-09-30,株式会社かがやきインベスト,,株式会社,富山県,高岡市,中曽根２１１２番地,,16,202,9340092,,,,,,,2025-09-30,1,,,,,カガヤキインベスト,0
474,2240001065545,新規,0,2025-09-30,2025-09-30,セイシン総業株式会社,,株式会社,広島県,広島市中区,舟入町１２番３－１００４号,,34,101,7300841,,,,,,,2025-09-30,1,,,,,セイシンソウギョウ,0
477,2260001040579,新規,0,2025-09-30,2025-09-30,株式会社ライブハウス,,株式会社,岡山県,岡山市北区,津島本町３番８号２１０,,33,101,7000089,,,,,,,2025-09-30,1,,,,,ライブハウス,0
481,2290001111550,新規,0,2025-09-30,2025-09-30,青山黛株式会社,,株式会社,福岡県,福岡市博多区,美野島２丁目２４番１４号－６０３,,40,132,8120017,,,,,,,2025-09-30,1,,,,,アオヤマダイ,0
487,2290003017440,新規,0,2025-09-30,2025-09-30,合同会社ＥＶＥＲＧＲＥＥＮ,,合同会社,福岡県,福岡市博多区,博多駅前１丁目２３番２号ＰａｒｋＦｒｏｎｔ博多駅前一丁目五階Ｂ,,40,132,8120011,,,,,,,2025-09-30,1,,,,,エヴァーグリーン,0
489,2290803005165,新規,0,2025-09-30,2025-09-30,合同会社彩華貿易,,合同会社,福岡県,北九州市若松区,高須北３丁目８－８（Ｂ１０１）,,40,103,8080147,,,,,,,2025-09-30,1,,,,,サイカボウエキ,0
502,2370001053074,新規,0,2025-09-30,2025-09-30,株式会社メイバントレーディング,,株式会社,宮城県,仙台市青葉区,中央３丁目８番３３号Ｔ－ＰＬＵＳ仙台８階,,04,101,9800021,,,,,,,2025-09-30,1,,,,,メイバントレーディング,0
507,2380001035600,新規,0,2025-09-30,2025-09-30,株式会社ＬＳコーポレーション,,株式会社,福島県,郡山市,横塚３丁目１５番９号,,07,203,9638803,,,,,,,2025-09-30,1,,,,,エルエスコーポレーション,0
512,2430001095242,新規,0,2025-09-30,2025-09-30,株式会社ノースタ,,株式会社,北海道,札幌市東区,東苗穂七条３丁目１番１６号,,01,103,0070807,,,,,,,2025-09-30,1,,,,,ノースタ,0
516,2460301005311,新規,0,2025-09-30,2025-09-30,ＶＩＲＫ　ＳＨＯＫＡＩ株式会社,,株式会社,北海道,網走郡美幌町,字美禽１６６番地の７,,01,543,0920002,,,,,,,2025-09-30,1,,,,,ヴィルクショウカイ,0
517,2470001020907,新規,0,2025-09-30,2025-09-30,株式会社エコ物流,,株式会社,香川県,高松市,屋島東町１５７４番地,,37,201,7610111,,,,,,,2025-09-30,1,,,,,エコブツリュウ,0
518,2470005006654,新規,0,2025-09-30,2025-09-30,さくら社会保険労務士法人,,その他の設立登記法人,香川県,高松市,中央町１７番２３号津田ビル２階,,37,201,7600007,,,,,,,2025-09-30,1,,,,,サクラ,0
520,2490001011169,新規,0,2025-09-30,2025-09-30,株式会社夢手希,,株式会社,高知県,高知市,はりまや町２丁目１１番１９号トレジャービルＩＩ２階,00140849,39,201,7800822,,,,,,,2025-09-30,1,,,,,ムテキ,0
524,2500003003600,新規,0,2025-09-30,2025-09-30,合同会社ｅプロジェクト,,合同会社,愛媛県,今治市,東鳥生町１丁目６番３９号,,38,202,7940801,,,,,,,2025-09-30,1,,,,,イープロジェクト,0
536,3010001258897,新規,0,2025-09-30,2025-09-30,株式会社ネコノテ,,株式会社,東京都,文京区,小石川５丁目１３番７号シン１０２,,13,105,1120002,,,,,,,2025-09-30,1,,,,,ネコノテ,0
539,3010003048883,新規,0,2025-09-30,2025-09-30,合同会社ＪＣＬ　Ｏｎｅ,,合同会社,東京都,千代田区,平河町１丁目６番１５号シルスフィア会計事務所内,,13,101,1020093,,,,,,,2025-09-30,1,,,,,ジェイシーエルワン,0
540,3010003048900,新規,0,2025-09-30,2025-09-30,Ｅｘｃｅｌ　Ｐｅａｋ合同会社,,合同会社,東京都,中央区,銀座１丁目２２－１１銀座大竹ビジデンス２Ｆ,,13,102,1040061,,,,,,,2025-09-30,1,,,,,エクセルピーク,0
548,3010401193158,新規,0,2025-09-30,2025-09-30,株式会社Ｖｉａｒｙ,,株式会社,東京都,港区,赤坂６丁目１５－１１,,13,103,1070052,,,,,,,2025-09-30,1,,,,,ヴィアリー,0
549,3010401193281,新規,0,2025-09-30,2025-09-30,オーリスワン株式会社,,株式会社,東京都,港区,浜松町２丁目２番１５号浜松町ダイヤビル２Ｆ,,13,103,1050013,,,,,,,2025-09-30,1,,,,,オーリスワン,0
550,3010401193389,新規,0,2025-09-30,2025-09-30,株式会社Ｂｒｉｌｌｉｇｅｎｔ,,株式会社,東京都,港区,港南４丁目６番８－１６０７号,,13,103,1080075,,,,,,,2025-09-30,1,,,,,ブリリジェント,0
553,3010405024714,新規,0,2025-09-30,2025-09-30,税理士法人グレイス,,その他の設立登記法人,東京都,港区,芝大門１丁目１番３５号サンセルモ大門ビル４階,,13,103,1050012,,,,,,,2025-09-30,1,,,,,グレイス,0
555,3010601068028,新規,0,2025-09-30,2025-09-30,ＫＯＭＯ株式会社,,株式会社,東京都,江東区,豊洲６丁目４番３４号,,13,108,1350061,,,,,,,2025-09-30,1,,,,,コモ,0
569,3011003022606,新規,0,2025-09-30,2025-09-30,合同会社Ｕｐ８,,合同会社,東京都,渋谷区,道玄坂１丁目１０番８号渋谷道玄坂東急ビル２Ｆ－Ｃ,,13,113,1500043,,,,,,,2025-09-30,1,,,,,アップエイト,0
571,3011101113265,新規,0,2025-09-30,2025-09-30,株式会社ＹＯＲＩＳＯＩ,,株式会社,東京都,新宿区,弁天町７９ヒルサイド神楽坂２０１,,13,104,1620851,,,,,,,2025-09-30,1,,,,,ヨリソイ,0
577,3011305003072,新規,0,2025-09-30,2025-09-30,ＡＧＳ行政書士法人,,その他の設立登記法人,東京都,杉並区,高円寺南１丁目６番５号２０５,,13,115,1660003,,,,,,,2025-09-30,1,,,,,エージーエス,0
579,3011501032593,新規,0,2025-09-30,2025-09-30,Ｔ＆Ｚ資産管理プランニング株式会社,,株式会社,東京都,北区,西ケ原３丁目５４－８キングビル２０８,,13,117,1140024,,,,,,,2025-09-30,1,,,,,ティーゼットシサンカンリプランニング,0
581,3011701028763,新規,0,2025-09-30,2025-09-30,株式会社ニシテル,,株式会社,東京都,江戸川区,北小岩６丁目４１番５号,,13,123,1330051,,,,,,,2025-09-30,1,,,,,ニシテル,0
583,3011703004390,新規,0,2025-09-30,2025-09-30,ＰＡＳＳＷＯＲＬＤ合同会社,,合同会社,東京都,江戸川区,平井６丁目３１番５号１Ｆ,,13,123,1320035,,,,,,,2025-09-30,1,,,,,パスワールド,0
587,3012701019100,新規,0,2025-09-30,2025-09-30,株式会社ティーアール・テックス,,株式会社,東京都,東久留米市,下里５丁目１９番１１号,,13,222,2030043,,,,,,,2025-09-30,1,,,,,ティーアールテックス,0
597,3020001164995,新規,0,2025-09-30,2025-09-30,エンジョイ・ミュージック株式会社,,株式会社,神奈川県,横浜市西区,浜松町２８番－３６－５０２,,14,103,2200055,,,,,,,2025-09-30,1,,,,,エンジョイミュージック,0
598,3020001165036,新規,0,2025-09-30,2025-09-30,株式会社Ｎｏｂｕ　Ｗｏｒｌｄ　Ｔｒａｄｉｎｇ,,株式会社,神奈川県,横浜市西区,北幸２丁目１０番４８号むつみビル３階,,14,103,2200004,,,,,,,2025-09-30,1,,,,,ノブワールドトレーディング,0
599,3020001165060,新規,0,2025-09-30,2025-09-30,Ｈｉｔｏｔｏｎａｒｉ　Ｐａｒｔｎｅｒｓ株式会社,,株式会社,神奈川県,横浜市神奈川区,金港町５番地１４クアドリフォリオ８階,,14,102,2210056,,,,,,,2025-09-30,1,,,,,ヒトトナリパートナーズ,0
600,3020003029379,新規,0,2025-09-30,2025-09-30,Ｙ．Ｋ　Ｌｏｐｅｚ合同会社,,合同会社,神奈川県,横浜市神奈川区,松見町４丁目１１１１番地５０藤和妙蓮寺コープ３０４,,14,102,2210005,,,,,,,2025-09-30,1,,,,,ワイケーロペス,0
601,3020003029404,新規,0,2025-09-30,2025-09-30,合同会社舩橋オフィス,,合同会社,神奈川県,横浜市青葉区,松風台３３番地２藤和シティホームズ青葉松風台壱番館６０９号,,14,117,2270067,,,,,,,2025-09-30,1,,,,,フナハシオフィス,0
602,3020005016994,新規,0,2025-09-30,2025-09-30,リズム社会保険労務士法人,,その他の設立登記法人,神奈川県,川崎市中原区,木月２丁目４番３号ＴＦＴビル３階,,14,133,2110025,,,,,,,2025-09-30,1,,,,,リズム,0
605,3021001086370,新規,0,2025-09-30,2025-09-30,株式会社ＳＯＬｓｕｐｐｏｒｔ,,株式会社,神奈川県,茅ヶ崎市,共恵１丁目１８番１号,,14,207,2530056,,,,,,,2025-09-30,1,,,,,エスオーエルサポート,0
606,3021001086437,新規,0,2025-09-30,2025-09-30,株式会社Ｆｏｒｅｓｔ　Ｃａｐｉｔａｌ,,株式会社,神奈川県,足柄下郡湯河原町,城堀２０７番地,,14,384,2590305,,,,,,,2025-09-30,1,,,,,フォレストキャピタル,0
617,3030001168772,新規,0,2025-09-30,2025-09-30,株式会社ぺぺ,,株式会社,埼玉県,坂戸市,にっさい花みず木３丁目１９番地８,,11,239,3500269,,,,,,,2025-09-30,1,,,,,ペペ,0
618,3030001168814,新規,0,2025-09-30,2025-09-30,株式会社ａｖｅｎｉｒ,,株式会社,埼玉県,春日部市,中央１丁目５６番地１６サントル春日部２０３,,11,214,3440067,,,,,,,2025-09-30,1,,,,,アヴニール,0
619,3030001168839,新規,0,2025-09-30,2025-09-30,ＡＳＴＥＲ　ＪＡＰＡＮ株式会社,,株式会社,埼玉県,三郷市,谷口６５７番地４ＬＳヴァーチュオブレジデンス１０５,,11,237,3410042,,,,,,,2025-09-30,1,,,,,アスタージャパン,0
622,3030003027729,新規,0,2025-09-30,2025-09-30,ＡＯＭＩ合同会社,,合同会社,埼玉県,川越市,大字山田１０７番地１０,,11,201,3500822,,,,,,,2025-09-30,1,,,,,アオミ,0
629,3040001140648,新規,0,2025-09-30,2025-09-30,ＥＬＩＴＥ　ＴＲＡＤＩＮＧ株式会社,,株式会社,千葉県,柏市,高柳７６５－２,,12,217,2770941,,,,,,,2025-09-30,1,,,,,エリートトレーディング,0
633,3050001057354,新規,0,2025-09-30,2025-09-30,小川アグリ株式会社,,株式会社,茨城県,つくば市,上郷４０３４番地,,08,220,3002645,,,,,,,2025-09-30,1,,,,,オガワアグリ,0
642,3060003005772,新規,0,2025-09-30,2025-09-30,レスタトテック合同会社,,合同会社,栃木県,那須塩原市,阿波町１１７番地１０６９クライスＡ－２０１号,,09,213,3250073,,,,,,,2025-09-30,1,,,,,レスタトテック,0
644,3080003003568,新規,0,2025-09-30,2025-09-30,合同会社Ｂｉｇ　Ｓｔｏｎｅ,,合同会社,静岡県,静岡市葵区,与一３丁目６番３７号,,22,101,4200949,,,,,,,2025-09-30,1,,,,,ビッグストーン,0
649,3090001019524,新規,0,2025-09-30,2025-09-30,株式会社山梨オールメンテナンス,,株式会社,山梨県,北杜市,高根町村山西割９７４番地,,19,209,4080018,,,,,,,2025-09-30,1,,,,,ヤマナシオールメンテナンス,0
671,3120001280106,新規,0,2025-09-30,2025-09-30,久商株式会社,,株式会社,大阪府,大阪市西成区,岸里東２丁目４番１７号ＥＭＳビル３０１号室,,27,122,5570042,,,,,,,2025-09-30,1,,,,,キュウショウ,0
672,3120001280378,新規,0,2025-09-30,2025-09-30,ＬＡＬＡ　ＢＲＯＴＨＥＲＳ　ＴＲＡＤＩＮＧ株式会社,,株式会社,大阪府,枚方市,枚方元町４－３０－２０６,,27,210,5730052,,,,,,,2025-09-30,1,,,,,ララブラザーズトレーディング,0
673,3120001280535,新規,0,2025-09-30,2025-09-30,株式会社ＡＴＯＭ　ＧＡＬＬＥＲＹ,,株式会社,大阪府,大阪市生野区,中川西１丁目８番６号,,27,116,5440032,,,,,,,2025-09-30,1,,,,,アトムギャラリー,0
683,3120903005873,新規,0,2025-09-30,2025-09-30,合同会社コミュニティワークあぐり,,合同会社,大阪府,茨木市,小川町６番７－３０７号,,27,211,5670873,,,,,,,2025-09-30,1,,,,,コミュニティワークアグリ,0
687,3122001039671,新規,0,2025-09-30,2025-09-30,ＳＴ製作株式会社,,株式会社,大阪府,八尾市,北木の本４丁目２０,,27,212,5810041,,,,,,,2025-09-30,1,,,,,エスティーセイサク,0
694,3140003022628,新規,0,2025-09-30,2025-09-30,ＡＺＡＮ　ＴＲＡＤＩＮＧ合同会社,,合同会社,兵庫県,神戸市長田区,長者町７－９,,28,106,6530866,,,,,,,2025-09-30,1,,,,,アザントレーディング,0
707,3180001168782,新規,0,2025-09-30,2025-09-30,株式会社ＳＰａＲＫ,,株式会社,愛知県,名古屋市東区,代官町２８番３３号（Ｄ’グランセ代官町８１６号）,,23,102,4610002,,,,,,,2025-09-30,1,,,,,スパーク,0
708,3180001168799,新規,0,2025-09-30,2025-09-30,株式会社はかーる,,株式会社,愛知県,春日井市,瑞穂通６丁目２３番地３,,23,206,4860845,,,,,,,2025-09-30,1,,,,,ハカール,0
713,3180301040245,新規,0,2025-09-30,2025-09-30,株式会社ａｎｉｍａｌ　ｈａｐｐｉｎｅｓｓ,,株式会社,愛知県,豊川市,小田渕町４丁目７３番地,,23,207,4420844,,,,,,,2025-09-30,1,,,,,アニマルハピネス,0
716,3190001032566,新規,0,2025-09-30,2025-09-30,鼎＿株式会社,00140850,株式会社,三重県,津市,河芸町東千里９２１番１,,24,201,5100303,,,,,,,2025-09-30,1,,,,,テイキン,0
719,3200001044270,新規,0,2025-09-30,2025-09-30,ＭＨ　ＴＲＡＤＩＮＧ株式会社,,株式会社,岐阜県,岐阜市,黒野９９番地１（ぐりむ・ぎほく５号室）,,21,201,5011131,,,,,,,2025-09-30,1,,,,,エムエイチトレーディング,0
720,3200003007069,新規,0,2025-09-30,2025-09-30,合同会社岐阜県山県市第一蓄電所,,合同会社,岐阜県,各務原市,鵜沼朝日町４丁目２５６の１,,21,213,5090145,,,,,,,2025-09-30,1,,,,,ギフケンヤマガタシダイイチチクデンショ,0
727,3240001065544,新規,0,2025-09-30,2025-09-30,株式会社大西,,株式会社,広島県,尾道市,因島田熊町４３３１番地３,,34,205,7222324,,,,,,,2025-09-30,1,,,,,オオニシ,0
730,3260003005364,新規,0,2025-09-30,2025-09-30,合同会社スライビング,,合同会社,岡山県,岡山市南区,米倉１５１－７,,33,104,7000954,,,,,,,2025-09-30,1,,,,,スライビング,0
731,3260005011518,新規,0,2025-09-30,2025-09-30,一般財団法人土屋教育文化財団,,その他の設立登記法人,岡山県,岡山市北区,表町１丁目５番１号１０階１００３号室,,33,101,7000822,,,,,,,2025-09-30,1,,,,,ツチヤキョウイクブンカザイダン,0
741,3290003017456,新規,0,2025-09-30,2025-09-30,合同会社リリーフトラスト,,合同会社,福岡県,福岡市博多区,博多駅東１丁目１７－２１－６Ｆ,,40,132,8120013,,,,,,,2025-09-30,1,,,,,リリーフトラスト,0
742,3290801031889,新規,0,2025-09-30,2025-09-30,株式会社ｍｕｔｅ,,株式会社,福岡県,行橋市,大橋３丁目６番１１号,,40,213,8240003,,,,,,,2025-09-30,1,,,,,ミュート,0
748,3320003004780,新規,0,2025-09-30,2025-09-30,お結びＤＡＯ合同会社,,合同会社,大分県,宇佐市,大字四日市２８７３番地の８,,44,211,8790471,,,,,,,2025-09-30,1,,,,,オムスビダオ,0
751,3330001033599,新規,0,2025-09-30,2025-09-30,株式会社マリックエンタプライズ,,株式会社,熊本県,熊本市南区,富合町南田尻２２５番地,,43,104,8614155,,,,,,,2025-09-30,1,,,,,マリックエンタプライズ,0
752,3330001033608,新規,0,2025-09-30,2025-09-30,株式会社ＫＡＥＤＥ,,株式会社,熊本県,熊本市南区,近見２丁目１２番２８号,,43,104,8614101,,,,,,,2025-09-30,1,,,,,カエデ,0
753,3330001033616,新規,0,2025-09-30,2025-09-30,株式会社ｍｉｒａｅ,,株式会社,熊本県,人吉市,願成寺町５４３番地１,,43,203,8680022,,,,,,,2025-09-30,1,,,,,ミレ,0
762,3380005013007,新規,0,2025-09-30,2025-09-30,一般社団法人郡山市トランポリン協会,,その他の設立登記法人,福島県,郡山市,三穂田町大谷字新田３番地,,07,203,9630127,,,,,,,2025-09-30,1,,,,,コオリヤマシトランポリンキョウカイ,0
767,3400003003535,新規,0,2025-09-30,2025-09-30,合同会社ＮＡＶＩ,,合同会社,岩手県,花巻市,下幅２４番３０号下幅貸家Ｂ棟,,03,205,0250068,,,,,,,2025-09-30,1,,,,,ナビ,0
771,3430001095282,新規,0,2025-09-30,2025-09-30,創成国際株式会社,,株式会社,北海道,札幌市中央区,南七条西２５丁目１－１６,,01,101,0640807,,,,,,,2025-09-30,1,,,,,ソウセイコクサイ,0
772,3430003018118,新規,0,2025-09-30,2025-09-30,合同会社雪鳥の跡,,合同会社,北海道,札幌市南区,真駒内３３２番地３８３,,01,106,0050861,,,,,,,2025-09-30,1,,,,,ユキドリノアト,0
773,3430003018134,新規,0,2025-09-30,2025-09-30,合同会社ＣＵ,,合同会社,北海道,札幌市東区,北三十四条東１丁目２番３９号ハイツプリンス２０５号,,01,103,0070834,,,,,,,2025-09-30,1,,,,,シーユー,0
774,3460301005310,新規,0,2025-09-30,2025-09-30,ＵＮＩＱＵＥ　ＴＲＡＤＩＮＧ株式会社,,株式会社,北海道,網走郡美幌町,字美禽１６６番地の６,,01,543,0920002,,,,,,,2025-09-30,1,,,,,ユニークトレーディング,0
776,3470003002984,新規,0,2025-09-30,2025-09-30,蓮井久芳合同会社,00140852,合同会社,香川県,木田郡三木町,大字鹿伏８５０番地７,,37,341,7610703,,,,,,,2025-09-30,1,,,,,,0
777,3470005006653,新規,0,2025-09-30,2025-09-30,一般社団法人シェフきっず,,その他の設立登記法人,香川県,高松市,鬼無町鬼無１４４番地２,,37,201,7618026,,,,,,,2025-09-30,1,,,,,シェフキッズ,0
779,3480003002323,新規,0,2025-09-30,2025-09-30,アイキ貿易合同会社,,合同会社,徳島県,阿波市,吉野町西条字庄境５４番地１Ｃ棟,,36,206,7711402,,,,,,,2025-09-30,1,,,,,アイキボウエキ,0
780,3500001026536,新規,0,2025-09-30,2025-09-30,株式会社ＡＹＥ　ＣＨＡＮ,,株式会社,愛媛県,松山市,木屋町２丁目５番地１７武田アーバンハイツ３０３号,,38,201,7900821,,,,,,,2025-09-30,1,,,,,エーチャン,0
788,4010003048890,新規,0,2025-09-30,2025-09-30,ＭＡＡパブ合同会社,,合同会社,東京都,中央区,日本橋兜町９番１号,,13,102,1030026,,,,,,,2025-09-30,1,,,,,エムエーエーパブ,0
790,4010005040714,新規,0,2025-09-30,2025-09-30,一般社団法人多世代まちづくり構想,,その他の設立登記法人,東京都,文京区,本郷２丁目２５番１５号,,13,105,1130033,,,,,,,2025-09-30,1,,,,,,0
797,4010401193223,新規,0,2025-09-30,2025-09-30,株式会社ＥａｒｔｈＬｏｏｍ,,株式会社,東京都,港区,新橋２丁目２０番１５,,13,103,1050004,,,,,,,2025-09-30,1,,,,,アースルーム,0
798,4010401193248,新規,0,2025-09-30,2025-09-30,株式会社ＡｒｃｈｉＤｏｔｓ,,株式会社,東京都,港区,南青山２丁目２－１５Ｗｉｎ青山ビルＵＣＦ６３５,,13,103,1070062,,,,,,,2025-09-30,1,,,,,アーキドット,0
799,4010401193280,新規,0,2025-09-30,2025-09-30,スターシーズデジタル株式会社,,株式会社,東京都,港区,三田１丁目４番２８号三田国際ビル１８０８,,13,103,1080073,,,,,,,2025-09-30,1,,,,,スターシーズデジタル,0
800,4010401193388,新規,0,2025-09-30,2025-09-30,株式会社ＮＴＣＡ,,株式会社,東京都,港区,浜松町２丁目２番１５号浜松町ダイヤビル２Ｆ,,13,103,1050013,,,,,,,2025-09-30,1,,,,,エヌティーシーエー,0
801,4010401193396,新規,0,2025-09-30,2025-09-30,株式会社Ｌｏｎｇ　ｆｏｒ,,株式会社,東京都,港区,六本木３丁目１６番１２号六本木ＫＳビル３階,,13,103,1060032,,,,,,,2025-09-30,1,,,,,ロングフォワ,0
803,4010403036033,新規,0,2025-09-30,2025-09-30,合同会社鴻恵,,合同会社,東京都,港区,新橋２丁目２０番１５号新橋駅前ビル２０８,,13,103,1050004,,,,,,,2025-09-30,1,,,,,コウエイ,0
804,4010403036058,新規,0,2025-09-30,2025-09-30,横浜マネジメント合同会社,,合同会社,東京都,港区,六本木１丁目６番１号泉ガーデンタワー,,13,103,1060032,,,,,,,2025-09-30,1,,,,,ヨコハママネジメント,0
805,4010403036082,新規,0,2025-09-30,2025-09-30,合同会社ＢＵＺＺまーじゃん,,合同会社,東京都,港区,赤坂２丁目１７番７２号赤坂イーデンビル６０１,,13,103,1070052,,,,,,,2025-09-30,1,,,,,バズマージャン,0
806,4010403036157,新規,0,2025-09-30,2025-09-30,合同会社Ｐｌａｔｉｎｕｍ,,合同会社,東京都,港区,元赤坂１丁目１番７－１２０９号株式会社赤坂国際会計内,,13,103,1070051,,,,,,,2025-09-30,1,,,,,プラチナ,0
807,4010405024713,新規,0,2025-09-30,2025-09-30,一般社団法人Ｔｅａｍ　ＬＢ,,その他の設立登記法人,東京都,港区,南青山１丁目１１番３０号,,13,103,1070062,,,,,,,2025-09-30,1,,,,,チームラブリス,0
808,4010501054795,新規,0,2025-09-30,2025-09-30,株式会社もも,,株式会社,東京都,台東区,上野６丁目１６番２１号西入ビル７階,,13,106,1100005,,,,,,,2025-09-30,1,,,,,モモ,0
811,4010801036634,新規,0,2025-09-30,2025-09-30,株式会社Ｔｅｃｈｎｏｌｅａｐ,,株式会社,東京都,大田区,南六郷３丁目１０番１６号,,13,111,1440045,,,,,,,2025-09-30,1,,,,,テクノリープ,0
822,4011001172542,新規,0,2025-09-30,2025-09-30,アルバート・インベント・ジャパン株式会社,,株式会社,東京都,渋谷区,道玄坂１丁目１０番８号渋谷道玄坂東急ビル,,13,113,1500043,,,,,,,2025-09-30,1,,,,,アルバートインベントジャパン,0
829,4011701028795,新規,0,2025-09-30,2025-09-30,ブロード・インベスター株式会社,,株式会社,東京都,江戸川区,平井５丁目４４番６号,,13,123,1320035,,,,,,,2025-09-30,1,,,,,ブロードインベスター,0
832,4011801046805,新規,0,2025-09-30,2025-09-30,フォワードサービス株式会社,,株式会社,東京都,足立区,古千谷本町３丁目７－１８,,13,121,1210832,,,,,,,2025-09-30,1,,,,,フォワードサービス,0
837,4012401043614,新規,0,2025-09-30,2025-09-30,株式会社ＲＤ　Ｔｒａｄｅｒｓ,,株式会社,東京都,府中市,美好町２丁目３３番地の１,,13,206,1830045,,,,,,,2025-09-30,1,,,,,アールディートレーダース,0
838,4012401043622,新規,0,2025-09-30,2025-09-30,株式会社ＮＯＢ,,株式会社,東京都,武蔵野市,吉祥寺本町２丁目４番１４号メディコープビル４階,,13,203,1800004,,,,,,,2025-09-30,1,,,,,エヌオービー,0
840,4012403007352,新規,0,2025-09-30,2025-09-30,合同会社アイエヌジー,,合同会社,東京都,武蔵野市,吉祥寺本町１丁目２２番１１号第２柏栄ビル２階,,13,203,1800004,,,,,,,2025-09-30,1,,,,,アイエヌジー,0
848,4020001164961,新規,0,2025-09-30,2025-09-30,株式会社アミティエコーポレーション,,株式会社,神奈川県,横浜市神奈川区,金港町５－３６,,14,102,2210056,,,,,,,2025-09-30,1,,,,,アミティエコーポレーション,0
854,4021001086337,新規,0,2025-09-30,2025-09-30,株式会社Ｃｌｏｖｅｒ　Ｓａｌｅｓ　Ｊａｐａｎ,,株式会社,神奈川県,横須賀市,岩戸５丁目１１番１０号,,14,201,2390844,,,,,,,2025-09-30,1,,,,,クローバーセールスジャパン,0
863,4030001168697,新規,0,2025-09-30,2025-09-30,株式会社三井住設,,株式会社,埼玉県,さいたま市北区,吉野町２丁目２１４番地８,,11,102,3310811,,,,,,,2025-09-30,1,,,,,ミツイジュウセツ,0
864,4030001168714,新規,0,2025-09-30,2025-09-30,株式会社シーバイマルス,,株式会社,埼玉県,川口市,芝下２丁目７－１７田畑倉庫（奥）,,11,203,3330848,,,,,,,2025-09-30,1,,,,,シーバイマルス,0
865,4030001168739,新規,0,2025-09-30,2025-09-30,株式会社歩インターナショナル,,株式会社,埼玉県,入間市,豊岡１丁目３番２５号半田ビル２階ＫＩＶオフィス入間Ｂ号室,,11,225,3580003,,,,,,,2025-09-30,1,,,,,アユムインターナショナル,0
866,4030001168771,新規,0,2025-09-30,2025-09-30,株式会社武田内装,,株式会社,埼玉県,越谷市,大間野町５丁目１５３番地１２,,11,222,3430844,,,,,,,2025-09-30,1,,,,,タケダナイソウ,0
867,4030001168788,新規,0,2025-09-30,2025-09-30,Ｂ．Ｓ．Ｉ株式会社,,株式会社,埼玉県,上尾市,浅間台２丁目１０番地６タツオビル１階,,11,219,3620073,,,,,,,2025-09-30,1,,,,,ビーエスアイ,0
870,4030003027612,新規,0,2025-09-30,2025-09-30,美サンテ合同会社,,合同会社,埼玉県,さいたま市浦和区,東仲町１５―８―３０２,,11,107,3300056,,,,,,,2025-09-30,1,,,,,ビサンテ,0
871,4040001140630,新規,0,2025-09-30,2025-09-30,ＢＤ　ＧＬＯＢＡＬ株式会社,,株式会社,千葉県,白井市,平塚１８４６番地６,,12,232,2701402,,,,,,,2025-09-30,1,,,,,ビーディーグローバル,0
872,4040003028403,新規,0,2025-09-30,2025-09-30,合同会社トリート,,合同会社,千葉県,市川市,南行徳３丁目１番６号,,12,203,2720138,,,,,,,2025-09-30,1,,,,,トリート,0
873,4040003028618,新規,0,2025-09-30,2025-09-30,ＰＡＫ　ＪＡＰＡＮ　ＴＲＡＤＩＮＧ合同会社,,合同会社,千葉県,柏市,大井２３７０番地２２,,12,217,2770902,,,,,,,2025-09-30,1,,,,,パクジャパントレーディング,0
878,4070001043384,新規,0,2025-09-30,2025-09-30,カルチャーアグリ株式会社,,株式会社,群馬県,高崎市,中里見町３７３番地,,10,202,3703344,,,,,,,2025-09-30,1,,,,,カルチャーアグリ,0
880,4070003006117,新規,0,2025-09-30,2025-09-30,エムアールエス合同会社,,合同会社,群馬県,太田市,大原町８－１アトム物流センター内,,10,205,3792304,,,,,,,2025-09-30,1,,,,,エムアールエス,0
882,4080001027163,新規,0,2025-09-30,2025-09-30,株式会社バン,,株式会社,静岡県,静岡市駿河区,大谷３０００番地の３７,,22,102,4228017,,,,,,,2025-09-30,1,,,,,バン,0
884,4080003003567,新規,0,2025-09-30,2025-09-30,合同会社ｍｏｎｅｔ,,合同会社,静岡県,藤枝市,水上２６６番地の１,,22,214,4260074,,,,,,,2025-09-30,1,,,,,モネット,0
887,4110001039584,新規,0,2025-09-30,2025-09-30,株式会社あそぷら,,株式会社,新潟県,新潟市東区,河渡１丁目７番１号,,15,102,9500024,,,,,,,2025-09-30,1,,,,,アソプラ,0
900,4120001280039,新規,0,2025-09-30,2025-09-30,株式会社Ｉｎｆｉｎｉｔｙ８８,,株式会社,大阪府,大阪市福島区,玉川４丁目４番８号,,27,103,5530004,,,,,,,2025-09-30,1,,,,,インフィニティーエイティエイト,0
901,4120001280071,新規,0,2025-09-30,2025-09-30,卓攸株式会社,,株式会社,大阪府,大阪市北区,松ケ枝町１番４１－２０５号,,27,127,5300037,,,,,,,2025-09-30,1,,,,,タクユウ,0
902,4120001280105,新規,0,2025-09-30,2025-09-30,株式会社ここから一歩,,株式会社,大阪府,大阪市浪速区,日本橋西１丁目２番９号２階,,27,111,5560004,,,,,,,2025-09-30,1,,,,,ココカライッポ,0
903,4120001280121,新規,0,2025-09-30,2025-09-30,株式会社ＷｅＪｏｉｎ投資,,株式会社,大阪府,大阪市浪速区,敷津西２丁目１－１２Ｙｋビルディング８Ｆ,,27,111,5560015,,,,,,,2025-09-30,1,,,,,ウィジョイントウシ,0
904,4120001280419,新規,0,2025-09-30,2025-09-30,アトソルテックジャパン株式会社,,株式会社,大阪府,大阪市北区,末広町３番２１号,,27,127,5300053,,,,,,,2025-09-30,1,,,,,アトソルテックジャパン,0
906,4120003030631,新規,0,2025-09-30,2025-09-30,合同会社エムグループ,,合同会社,大阪府,大阪市中央区,安土町１丁目４番５号本町ビル６階６Ｆ０９号室,,27,128,5410052,,,,,,,2025-09-30,1,,,,,エムグループ,0
909,4120901051539,新規,0,2025-09-30,2025-09-30,Ｇｏｌｄ　Ｈｏｍｅ株式会社,,株式会社,大阪府,吹田市,南吹田３丁目９番１４号Ｄ棟,,27,205,5640043,,,,,,,2025-09-30,1,,,,,ゴールドホーム,0
912,4120903005872,新規,0,2025-09-30,2025-09-30,合同会社Ｙ’ｓ　ｃｏｒｐｏｒａｔｉｏｎ,,合同会社,大阪府,茨木市,南耳原２丁目１１番１号ゆうとりあ２０２号,,27,211,5670004,,,,,,,2025-09-30,1,,,,,ワイズコーポレーション,0
913,4122001039646,新規,0,2025-09-30,2025-09-30,株式会社Ｎｅｏｒｉａ,,株式会社,大阪府,東大阪市,五条町１番８号,,27,227,5798042,,,,,,,2025-09-30,1,,,,,ネオリア,0
916,4130001080611,新規,0,2025-09-30,2025-09-30,株式会社みやび,,株式会社,京都府,京都市下京区,七条通油小路東入大黒町２２７番地第２キョートビル４０２,,26,106,6008223,,,,,,,2025-09-30,1,,,,,ミヤビ,0
917,4130001080652,新規,0,2025-09-30,2025-09-30,株式会社ネクシス,,株式会社,京都府,福知山市,駒場新町３丁目１４６番地の１,,26,201,6200841,,,,,,,2025-09-30,1,,,,,ネクシス,0
920,4140001140133,新規,0,2025-09-30,2025-09-30,株式会社Ｃｒａｆｔ,,株式会社,兵庫県,尼崎市,塚口本町６丁目４番４号,,28,202,6610001,,,,,,,2025-09-30,1,,,,,クラフト,0
921,4140001140166,新規,0,2025-09-30,2025-09-30,株式会社ＳＨＡＦＩＱ　ＥＮＴＥＲＰＲＩＳＥＳ,,株式会社,兵庫県,神戸市西区,神出町勝成１１６番の２４,,28,111,6512301,,,,,,,2025-09-30,1,,,,,シャフィークエンタープライゼス,0
923,4140003022635,新規,0,2025-09-30,2025-09-30,３ｐｉｅｃｅ合同会社,,合同会社,兵庫県,三田市,大原１５８８番地１Ｃ棟１３０８号,,28,219,6691515,,,,,,,2025-09-30,1,,,,,スリーピース,0
925,4140005027640,新規,0,2025-09-30,2025-09-30,一般社団法人ソレナ,,その他の設立登記法人,兵庫県,尼崎市,武庫之荘２丁目３０－１１,,28,202,6610035,,,,,,,2025-09-30,1,,,,,ソレナ,0
926,4150001028419,新規,0,2025-09-30,2025-09-30,株式会社ＭＯＤＡＮＡＴＵＲＡ,,株式会社,奈良県,大和郡山市,丹後庄町１３５－１,,29,203,6391122,,,,,,,2025-09-30,1,,,,,モダナチュラ,0
936,4180001168732,新規,0,2025-09-30,2025-09-30,株式会社スキマメディア,,株式会社,愛知県,名古屋市中村区,名駅３丁目４－１０アルティメイト名駅１ｓｔ２階,,23,105,4500002,,,,,,,2025-09-30,1,,,,,スキマメディア,0
937,4180001168773,新規,0,2025-09-30,2025-09-30,ＪＡＮ‐ＮＡＺＡＲ　ＴＲＡＤＩＮＧ株式会社,,株式会社,愛知県,名古屋市港区,浜１丁目４－１７マリオン港ビル４０２,,23,111,4550036,,,,,,,2025-09-30,1,,,,,ジャンナザールトレーディング,0
938,4180001168781,新規,0,2025-09-30,2025-09-30,株式会社Ｂｅｅ８,,株式会社,愛知県,名古屋市東区,泉３丁目８番１号,,23,102,4610001,,,,,,,2025-09-30,1,,,,,ビーエイト,0
939,4180001168815,新規,0,2025-09-30,2025-09-30,銘航商事株式会社,,株式会社,愛知県,名古屋市南区,観音町５丁目２５番地観音ビル４Ｂ,,23,112,4570845,,,,,,,2025-09-30,1,,,,,メイコウショウジ,0
948,4190001032565,新規,0,2025-09-30,2025-09-30,株式会社ＡＺ・ＴＲＡＤＥＲＳ,,株式会社,三重県,津市,高洲町３４番３０号,,24,201,5140011,,,,,,,2025-09-30,1,,,,,アズトレーダーズ,0
950,4190003005197,新規,0,2025-09-30,2025-09-30,合同会社Ｓ＆Ｋ,,合同会社,三重県,員弁郡東員町,笹尾東１丁目２７番３,,24,324,5110232,,,,,,,2025-09-30,1,,,,,エスアンドケー,0
952,4200001044278,新規,0,2025-09-30,2025-09-30,株式会社みずほ,,株式会社,岐阜県,岐阜市,長良１１４７番地８,,21,201,5020071,,,,,,,2025-09-30,1,,,,,ミズホ,0
953,4200003007068,新規,0,2025-09-30,2025-09-30,ＡＢ　Ｔｒａｄｉｎｇ合同会社,,合同会社,岐阜県,大垣市,興福地町１丁目６６番７,,21,202,5032203,,,,,,,2025-09-30,1,,,,,エービートレーディング,0
961,4240001065551,新規,0,2025-09-30,2025-09-30,サムライド株式会社,,株式会社,広島県,広島市西区,南観音３丁目１番２６号,,34,104,7330035,,,,,,,2025-09-30,1,,,,,サムライド,0
963,4260001040577,新規,0,2025-09-30,2025-09-30,株式会社アンドギーク,,株式会社,岡山県,倉敷市,亀山７９９番地２,,33,202,7100024,,,,,,,2025-09-30,1,,,,,アンドギーク,0
964,4260001040585,新規,0,2025-09-30,2025-09-30,株式会社シビル都市トラスト,,株式会社,岡山県,赤磐市,町苅田５７番地４,,33,213,7012222,,,,,,,2025-09-30,1,,,,,シビルトシトラスト,0
968,4260003005363,新規,0,2025-09-30,2025-09-30,合同会社ＩＳ　ｐｌｕｓ,,合同会社,岡山県,玉野市,胸上１７９８番地,,33,204,7060305,,,,,,,2025-09-30,1,,,,,アイエスプラス,0
975,4290801031888,新規,0,2025-09-30,2025-09-30,株式会社ＴＱ　ＮＥＸＴ,,株式会社,福岡県,直方市,大字山部６１６番地１７７,,40,204,8220034,,,,,,,2025-09-30,1,,,,,ティーキューネクスト,0
980,4330001033615,新規,0,2025-09-30,2025-09-30,株式会社阿蘇よかもん市場,,株式会社,熊本県,阿蘇郡南阿蘇村,大字中松３８９９番地１,,43,433,8691505,,,,,,,2025-09-30,1,,,,,アソヨカモンイチバ,0
982,4330003011239,新規,0,2025-09-30,2025-09-30,合同会社ＪＭ　ＴＲＡＤＩＮＧ,,合同会社,熊本県,荒尾市,菰屋１７３４番地２レーブフラッツ２０１号,,43,204,8640161,,,,,,,2025-09-30,1,,,,,ジェイエムトレーディング,0
988,4350003005032,新規,0,2025-09-30,2025-09-30,合同会社Ｃｏｓｙ　Ｌｉｖｉｎｇ　Ｍｉｙａｚａｋｉ,,合同会社,宮崎県,宮崎市,清武町二丁目４３番地リバティーセトル加納４０２号,,45,201,8800000,,,,,,,2025-09-30,1,,,,,コジーリビングミヤザキ,0
989,4350005006334,新規,0,2025-09-30,2025-09-30,医療法人康成会,,その他の設立登記法人,宮崎県,延岡市,大貫町５丁目１６４６番地１,,45,203,8820803,,,,,,,2025-09-30,1,,,,,コウセイカイ,0
994,4360003015278,新規,0,2025-09-30,2025-09-30,合同会社玉姫産業,,合同会社,沖縄県,名護市,字運天原２８０番地,,47,209,9051634,,,,,,,2025-09-30,1,,,,,タマヒメサンギョウ,0
995,4360003015286,新規,0,2025-09-30,2025-09-30,未来ＳＥＥＤ合同会社,,合同会社,沖縄県,中頭郡嘉手納町,字水釜２０２番地,,47,325,9040204,,,,,,,2025-09-30,1,,,,,ミライシーズ,0
996,4370001053072,新規,0,2025-09-30,2025-09-30,株式会社ミズホ,,株式会社,宮城県,石巻市,小船越字崎山２１番地１,,04,202,9860132,,,,,,,2025-09-30,1,,,,,ミズホ,0
997,4370005011010,新規,0,2025-09-30,2025-09-30,一般社団法人資源循環推進協会,,その他の設立登記法人,宮城県,仙台市太白区,日本平２６番４０号,,04,104,9820221,,,,,,,2025-09-30,1,,,,,シゲンジュンカンスイシンキョウカイ,0
1010,4430001095281,新規,0,2025-09-30,2025-09-30,株式会社ステラ,,株式会社,北海道,苫小牧市,三光町５丁目１７番１２号,,01,213,0530042,,,,,,,2025-09-30,1,,,,,ステラ,0
1013,4430003018125,新規,0,2025-09-30,2025-09-30,ＲＥＨＡＮ合同会社,,合同会社,北海道,札幌市東区,本町二条３丁目３番２０号,,01,103,0650042,,,,,,,2025-09-30,1,,,,,レハン,0
1015,4460001006038,新規,0,2025-09-30,2025-09-30,株式会社ｅｚｏｔｈｉｃａｌ,,株式会社,北海道,釧路市,北大通８丁目１番地,,01,206,0850015,,,,,,,2025-09-30,1,,,,,エゾシカル,0
1016,4460303000886,新規,0,2025-09-30,2025-09-30,ＭＩＡＮ　ＣＯＲＰＯＲＡＴＩＯＮ合同会社,,合同会社,北海道,北見市,東相内町７２番地１９,,01,208,0990878,,,,,,,2025-09-30,1,,,,,ミアンコーポレーション,0
1018,4480001012959,新規,0,2025-09-30,2025-09-30,株式会社シャンフルーヴ,,株式会社,徳島県,徳島市,南二軒屋町２丁目３番３号アーバンビル１階,,36,201,7708063,,,,,,,2025-09-30,1,,,,,シャンフルーヴ,0
1030,5010001258615,新規,0,2025-09-30,2025-09-30,株式会社ＤＡＹＯ　ＪＡＰＡＮ,,株式会社,東京都,中央区,銀座１丁目１２番４号Ｎ＆ＥＢＬＤ．６Ｆ,,13,102,1040061,,,,,,,2025-09-30,1,,,,,ダヨジャパン,0
1031,5010001258805,新規,0,2025-09-30,2025-09-30,宏盛株式会社,,株式会社,東京都,中央区,勝どき３丁目７番６号－３０３,,13,102,1040054,,,,,,,2025-09-30,1,,,,,コウセイ,0
1032,5010001258862,新規,0,2025-09-30,2025-09-30,仁穂株式会社,,株式会社,東京都,中央区,築地４丁目４番１４号ラフィネ東銀座９１０号,,13,102,1040045,,,,,,,2025-09-30,1,,,,,ニホ,0
1049,5010401193172,新規,0,2025-09-30,2025-09-30,ＲＩＣＨ　ＷＯＲＬＤ株式会社,,株式会社,東京都,港区,芝大門２丁目４番４号,,13,103,1050012,,,,,,,2025-09-30,1,,,,,リッチワールド,0
1050,5010401193180,新規,0,2025-09-30,2025-09-30,ＳＨＯＷＡ海外株式会社,,株式会社,東京都,港区,麻布十番３丁目１４番３－６０５号,,13,103,1060045,,,,,,,2025-09-30,1,,,,,ショウワカイガイ,0
1051,5010401193197,新規,0,2025-09-30,2025-09-30,株式会社グロブリ,,株式会社,東京都,港区,六本木７丁目１７－２２－２１０,,13,103,1060032,,,,,,,2025-09-30,1,,,,,グロブリ,0
1052,5010401193222,新規,0,2025-09-30,2025-09-30,株式会社幽玄,,株式会社,東京都,港区,南青山３丁目１番３６号青山丸竹ビル６Ｆ,,13,103,1070062,,,,,,,2025-09-30,1,,,,,ユウゲン,0
1053,5010401193255,新規,0,2025-09-30,2025-09-30,株式会社Ｐｒｅｓｔ　Ｇａｔｅ,,株式会社,東京都,港区,浜松町２丁目２－１５浜松町ダイヤビル２Ｆ,,13,103,1050013,,,,,,,2025-09-30,1,,,,,プレストゲート,0
1054,5010401193354,新規,0,2025-09-30,2025-09-30,ＳＵＮ株式会社,,株式会社,東京都,港区,東麻布１丁目２８番１２号６階Ａ,,13,103,1060044,,,,,,,2025-09-30,1,,,,,サン,0
1055,5010401193412,新規,0,2025-09-30,2025-09-30,Ｂｅｎｅｖｏｌｅｎｔ　ｃｙｃｌｅ株式会社,,株式会社,東京都,港区,赤坂１丁目１４番１５号第３５興和ビル別館Ｂ１,,13,103,1070052,,,,,,,2025-09-30,1,,,,,ベネボラントサイクル,0
1057,5010403036032,新規,0,2025-09-30,2025-09-30,合同会社ＵｐＳｔａｒｔｓ,,合同会社,東京都,港区,南青山３丁目１番３６号青山丸竹ビル６Ｆ,,13,103,1070062,,,,,,,2025-09-30,1,,,,,アップスターツ,0
1058,5010403036057,新規,0,2025-09-30,2025-09-30,横浜インベストメンツ合同会社,,合同会社,東京都,港区,六本木１丁目６番１号泉ガーデンタワー,,13,103,1060032,,,,,,,2025-09-30,1,,,,,ヨコハマインベストメンツ,0
1059,5010405024794,新規,0,2025-09-30,2025-09-30,横浜マネジメント一般社団法人,,その他の設立登記法人,東京都,港区,六本木１丁目６番１号泉ガーデンタワー,,13,103,1060032,,,,,,,2025-09-30,1,,,,,ヨコハママネジメント,0
1060,5010405024811,新規,0,2025-09-30,2025-09-30,ジャパン姫路特定目的会社,,その他の設立登記法人,東京都,港区,虎ノ門３丁目２２番１０－２０１号,,13,103,1050001,,,,,,,2025-09-30,1,,,,,ジャパンヒメジ,0
1062,5010601068026,新規,0,2025-09-30,2025-09-30,什器の設計舎株式会社,,株式会社,東京都,江東区,新大橋２丁目２０番７号,,13,108,1350007,,,,,,,2025-09-30,1,,,,,ジュウキノセッケイシャ,0
1067,5010801036641,新規,0,2025-09-30,2025-09-30,株式会社シカン,,株式会社,東京都,大田区,矢口３丁目２６番１５号,,13,111,1460093,,,,,,,2025-09-30,1,,,,,シカン,0
1068,5010803005561,新規,0,2025-09-30,2025-09-30,ｕｇ合同会社,,合同会社,東京都,大田区,西蒲田７丁目６４番１号ポテトクラブビル３０２号室,,13,111,1440051,,,,,,,2025-09-30,1,,,,,ユージー,0
1080,5011101113362,新規,0,2025-09-30,2025-09-30,得恒国際物流貿易株式会社,,株式会社,東京都,新宿区,上落合１丁目７番１３－１０５号,,13,104,1610034,,,,,,,2025-09-30,1,,,,,トクコウコクサイブツリュウ,0
1086,5011405002410,新規,0,2025-09-30,2025-09-30,一般社団法人しゅうかつ,,その他の設立登記法人,東京都,板橋区,板橋１丁目４３番１０号,,13,119,1730004,,,,,,,2025-09-30,1,,,,,シュウカツ,0
1089,5011703004397,新規,0,2025-09-30,2025-09-30,万啓合同会社,,合同会社,東京都,江戸川区,東小岩５丁目３７番１２号楽新ビル６０２号,,13,123,1330052,,,,,,,2025-09-30,1,,,,,バンケイ,0
1093,5011801046804,新規,0,2025-09-30,2025-09-30,株式会社Ｓｉｍｕｌａｃｒａ,,株式会社,東京都,足立区,西新井３丁目６－３,,13,121,1230841,,,,,,,2025-09-30,1,,,,,シミュラクラ,0
1096,5012301014549,新規,0,2025-09-30,2025-09-30,株式会社レインボー,,株式会社,東京都,町田市,旭町１丁目１２番１７号リアド町田,,13,209,1940023,,,,,,,2025-09-30,1,,,,,レインボー,0
1098,5012403007351,新規,0,2025-09-30,2025-09-30,Ｏｂｉ　ｖｅｎｔｕｒｅ合同会社,,合同会社,東京都,府中市,小柳町２丁目４０－３－１０２,,13,206,1830013,,,,,,,2025-09-30,1,,,,,オビベンチャー,0
1100,5012703003380,新規,0,2025-09-30,2025-09-30,合同会社スマホ,,合同会社,東京都,西東京市,保谷町３丁目１２番３－１０２号,,13,229,2020015,,,,,,,2025-09-30,1,,,,,スマホ,0
1106,5020001164829,新規,0,2025-09-30,2025-09-30,株式会社デネリヤ,,株式会社,神奈川県,横浜市鶴見区,生麦１丁目５番２０号２０３号室,,14,101,2300052,,,,,,,2025-09-30,1,,,,,デネリヤ,0
1108,5020003029435,新規,0,2025-09-30,2025-09-30,Ｖｂｒａｎｄ合同会社,,合同会社,神奈川県,横浜市旭区,市沢町５３５番地１アベニュー２１－１０１号,,14,112,2410014,,,,,,,2025-09-30,1,,,,,ヴィブランド,0
1109,5020003029476,新規,0,2025-09-30,2025-09-30,合同会社ＥＫＴ,,合同会社,神奈川県,横浜市鶴見区,駒岡２丁目１３番２８号プランドール３０６,,14,101,2300071,,,,,,,2025-09-30,1,,,,,イーケーティー,0
1117,5030001168770,新規,0,2025-09-30,2025-09-30,軽舟株式会社,,株式会社,埼玉県,越谷市,東越谷１丁目１番１号共生第一ビル２０７,,11,222,3430023,,,,,,,2025-09-30,1,,,,,ケイシュウ,0
1118,5030001168787,新規,0,2025-09-30,2025-09-30,ＫＡＶＩＳＨ株式会社,,株式会社,埼玉県,桶川市,若宮２丁目１番３号若宮ビル２０１号室,,11,231,3630022,,,,,,,2025-09-30,1,,,,,カビス,0
1119,5030001168795,新規,0,2025-09-30,2025-09-30,株式会社ソイ,,株式会社,埼玉県,さいたま市緑区,大字大門９５０番地１３,,11,109,3360963,,,,,,,2025-09-30,1,,,,,ソイ,0
1120,5030001168845,新規,0,2025-09-30,2025-09-30,ＥＭＪＯＹ　ＧＬＯＢＡＬ株式会社,,株式会社,埼玉県,八潮市,八潮７丁目６－１０－１０２,,11,234,3400815,,,,,,,2025-09-30,1,,,,,エムジョイグローバル,0
1124,5030003027677,新規,0,2025-09-30,2025-09-30,桜循環合同会社,,合同会社,埼玉県,川口市,並木２丁目４０番１５－２０６号,,11,203,3320034,,,,,,,2025-09-30,1,,,,,サクラジュンカン,0
1125,5030003027727,新規,0,2025-09-30,2025-09-30,合同会社ＴＯＲＯＳ工業,,合同会社,埼玉県,越谷市,千間台東１丁目１番地６クオレ千間台４０２号,,11,222,3430042,,,,,,,2025-09-30,1,,,,,トロスコウギョウ,0
1127,5040001140670,新規,0,2025-09-30,2025-09-30,エムレックス商事株式会社,,株式会社,千葉県,山武市,松尾町谷津５３０番地１,,12,237,2891503,,,,,,,2025-09-30,1,,,,,エムレックスショウジ,0
1128,5040001140704,新規,0,2025-09-30,2025-09-30,株式会社Ｓｏｌａｎａ,,株式会社,千葉県,香取郡多古町,十余三３８５－２２５,,12,347,2892306,,,,,,,2025-09-30,1,,,,,ソラーナ,0
1132,5040003028625,新規,0,2025-09-30,2025-09-30,ミライ合同会社,,合同会社,千葉県,佐倉市,上志津字深作１８０７番２７,,12,212,2850846,,,,,,,2025-09-30,1,,,,,ミライ,0
1136,5050001057336,新規,0,2025-09-30,2025-09-30,株式会社Ｇｙｏｕ,,株式会社,茨城県,つくば市,手代木７１６番地１,,08,220,3050834,,,,,,,2025-09-30,1,,,,,ギョウ,0
1140,5050003009590,新規,0,2025-09-30,2025-09-30,ＴＯＡＮ合同会社,,合同会社,茨城県,水戸市,白梅２丁目３番８５号ステイ白梅１０２,,08,201,3100804,,,,,,,2025-09-30,1,,,,,トアン,0
1141,5050003009616,新規,0,2025-09-30,2025-09-30,合同会社周３１４１,,合同会社,茨城県,土浦市,宍塚１９４５－１,,08,203,3000805,,,,,,,2025-09-30,1,,,,,シュウサンイチヨンイチ,0
1142,5050005013707,新規,0,2025-09-30,2025-09-30,一般社団法人ダイカツ,,その他の設立登記法人,茨城県,東茨城郡大洗町,磯浜町１２３７番地,,08,309,3111301,,,,,,,2025-09-30,1,,,,,ダイカツ,0
1147,5070001043367,新規,0,2025-09-30,2025-09-30,ＡＲ　ＩＮＴＥＲＮＡＴＩＯＮＡＬ　ＪＡＰＡＮ株式会社,,株式会社,群馬県,太田市,丸山町１５５２,,10,205,3730018,,,,,,,2025-09-30,1,,,,,エーアールインターナショナルジャパン,0
1150,5080001027162,新規,0,2025-09-30,2025-09-30,株式会社ベストフューチャー,,株式会社,静岡県,牧之原市,菅ケ谷２２０番地１７,,22,226,4210514,,,,,,,2025-09-30,1,,,,,ベストフューチャー,0
1152,5080103003433,新規,0,2025-09-30,2025-09-30,合同会社ＭＱ・ＴＲＡＤＩＮＧ,,合同会社,静岡県,沼津市,足高３７３番地の３,,22,203,4100001,,,,,,,2025-09-30,1,,,,,エムキュートレーディング,0
1159,5080403005352,新規,0,2025-09-30,2025-09-30,うなぎ翠清１８６９合同会社,,合同会社,静岡県,周智郡森町,天宮７３１,,22,461,4370216,,,,,,,2025-09-30,1,,,,,ウナギスイセイイチハチロクキュウ,0
1160,5090003002897,新規,0,2025-09-30,2025-09-30,合同会社フルーツ天国４７,,合同会社,山梨県,北杜市,高根町箕輪３２１９,,19,209,4080012,,,,,,,2025-09-30,1,,,,,フルーツテンゴクヨンジュウナナ,0
1166,5100003008406,新規,0,2025-09-30,2025-09-30,合同会社ネクストライン,,合同会社,長野県,塩尻市,大字広丘吉田５８１－５５,,20,215,3990701,,,,,,,2025-09-30,1,,,,,ネクストライン,0
1169,5110001039583,新規,0,2025-09-30,2025-09-30,株式会社ＥＳＰＡＤＡｓ,,株式会社,新潟県,長岡市,東坂之上町１丁目３番地１２ドルミーパークサイド２０２,,15,202,9400066,,,,,,,2025-09-30,1,,,,,エスパーダス,0
1177,5120001280062,新規,0,2025-09-30,2025-09-30,翔寧南星株式会社,,株式会社,大阪府,大阪市城東区,中浜３丁目２５番１５－２０３号,,27,118,5360024,,,,,,,2025-09-30,1,,,,,ショウネイナンセイ,0
1178,5120001280145,新規,0,2025-09-30,2025-09-30,ユタニ株式会社,,株式会社,大阪府,大阪市港区,港晴４丁目１４－５港晴パールシティビル７Ｆ,,27,107,5520023,,,,,,,2025-09-30,1,,,,,ユタニ,0
1179,5120001280343,新規,0,2025-09-30,2025-09-30,添智株式会社,,株式会社,大阪府,大阪市東住吉区,中野４丁目１番１６号リベラルオリエンテ中野３０１Ｂ,,27,121,5460012,,,,,,,2025-09-30,1,,,,,テンチ,0
1180,5120001280384,新規,0,2025-09-30,2025-09-30,株式会社フジモト,,株式会社,大阪府,大阪市天王寺区,味原町７番７号,,27,109,5430023,,,,,,,2025-09-30,1,,,,,フジモト,0
1181,5120001280392,新規,0,2025-09-30,2025-09-30,ＴＨＥ　ＯＲＩＥＮＴＡＬ　ＴＥＣＨＮＯＬＯＧＹ株式会社,,株式会社,大阪府,大阪市北区,曾根崎２丁目３番５号,,27,127,5300057,,,,,,,2025-09-30,1,,,,,ザオリエンタルテクノロジー,0
1182,5120001280442,新規,0,2025-09-30,2025-09-30,フロンティア株式会社,,株式会社,大阪府,大阪市天王寺区,大道３丁目２番１６－２０１号,,27,109,5430052,,,,,,,2025-09-30,1,,,,,フロンティア,0
1183,5120001280483,新規,0,2025-09-30,2025-09-30,ＳＹＳ株式会社,,株式会社,大阪府,門真市,三ツ島４丁目７番１６号,,27,223,5710015,,,,,,,2025-09-30,1,,,,,エスワイエス,0
1184,5120003030845,新規,0,2025-09-30,2025-09-30,四宮精工合同会社,,合同会社,大阪府,門真市,四宮５丁目１１‐３２,,27,223,5710017,,,,,,,2025-09-30,1,,,,,シノミヤセイコウ,0
1186,5120005025182,新規,0,2025-09-30,2025-09-30,一般社団法人日本サービス事業者協会,,その他の設立登記法人,大阪府,大阪市中央区,南船場１丁目７番８号,,27,128,5420081,,,,,,,2025-09-30,1,,,,,ニホンサービスジギョウシャキョウカイ,0
1189,5120901051538,新規,0,2025-09-30,2025-09-30,株式会社Ｐｅｒｆｕｓｉｏｎ　Ｘ,,株式会社,大阪府,茨木市,彩都あさぎ２丁目８番２１－７０８号,,27,211,5670085,,,,,,,2025-09-30,1,,,,,パーフュージョンエックス,0
1190,5120901051546,新規,0,2025-09-30,2025-09-30,株式会社ｉＶｉｓｉｏｎ,,株式会社,大阪府,摂津市,鳥飼西５丁目４番６号（２０２室）,,27,224,5660072,,,,,,,2025-09-30,1,,,,,アイヴィジョン,0
1192,5122003003319,新規,0,2025-09-30,2025-09-30,合同会社玉英,,合同会社,大阪府,東大阪市,中石切町５丁目１１－３７,,27,227,5798014,,,,,,,2025-09-30,1,,,,,ギョクエイ,0
1194,5130001080651,新規,0,2025-09-30,2025-09-30,ＫＹクリエイト株式会社,,株式会社,京都府,京都市下京区,中堂寺粟田町９３番地ＫＲＰ４号館,,26,106,6008815,,,,,,,2025-09-30,1,,,,,ケーワイクリエイト,0
1199,5140001140140,新規,0,2025-09-30,2025-09-30,株式会社ｇａｍｉｆｉｃｅ,,株式会社,兵庫県,西宮市,石刎町八丁目７番地１０２,,28,204,6620074,,,,,,,2025-09-30,1,,,,,ガミフィス,0
1200,5140001140149,新規,0,2025-09-30,2025-09-30,六花グループ株式会社,,株式会社,兵庫県,神戸市東灘区,本山北町５丁目１９番１３号,,28,101,6580003,,,,,,,2025-09-30,1,,,,,リッカグループ,0
1202,5140003022634,新規,0,2025-09-30,2025-09-30,サビナ合同会社,,合同会社,兵庫県,神戸市長田区,駒ケ林町１丁目１６番１２号,,28,106,6530043,,,,,,,2025-09-30,1,,,,,サビナ,0
1203,5140003022642,新規,0,2025-09-30,2025-09-30,合同会社グロウスサポート,,合同会社,兵庫県,神戸市北区,道場町塩田２８５６－１－２０３,,28,109,6511502,,,,,,,2025-09-30,1,,,,,グロウスサポート,0
1216,5180001168789,新規,0,2025-09-30,2025-09-30,株式会社城山アセットマネジメント,,株式会社,愛知県,愛西市,二子町新田２５０番地,,23,232,4968037,,,,,,,2025-09-30,1,,,,,シロヤマアセットマネジメント,0
1221,5180301040251,新規,0,2025-09-30,2025-09-30,株式会社ＢーＳＰＣ２,,株式会社,愛知県,岡崎市,緑丘１丁目４番地１,,23,202,4440806,,,,,,,2025-09-30,1,,,,,ビーエスピーシーツー,0
1227,5180303006746,新規,0,2025-09-30,2025-09-30,ＲＡＪ　ＩＮＴＥＲＮＡＴＩＯＮＡＬ合同会社,,合同会社,愛知県,岡崎市,上地１丁目３８番地２,,23,202,4440823,,,,,,,2025-09-30,1,,,,,ラズインターナショナル,0
1231,5200001044277,新規,0,2025-09-30,2025-09-30,ＡＲＨＡＭ　ＴＲＡＤＩＮＧ株式会社,,株式会社,岐阜県,美濃加茂市,加茂野町加茂野１番地４８小瀬木マンション４０５号室,,21,211,5050054,,,,,,,2025-09-30,1,,,,,アルハムトレーディング,0
1244,5220005009002,新規,0,2025-09-30,2025-09-30,一般社団法人甲駅食堂,,その他の設立登記法人,石川県,鳳珠郡穴水町,字甲レ字２４８番地,,17,461,9270211,,,,,,,2025-09-30,1,,,,,,0
1247,5230003002511,新規,0,2025-09-30,2025-09-30,合同会社ＡＲＴ,,合同会社,富山県,富山市,月岡西緑町２４０番地,,16,201,9398142,,,,,,,2025-09-30,1,,,,,エーアールティー,0
1250,5240001065559,新規,0,2025-09-30,2025-09-30,株式会社Ｂａｓｅ　Ｏｎｅ,,株式会社,広島県,安芸郡府中町,鶴江１丁目１６番３号,,34,302,7350008,,,,,,,2025-09-30,1,,,,,ベースワン,0
1255,5250003003821,新規,0,2025-09-30,2025-09-30,合同会社かわ西,,合同会社,山口県,周南市,昭和通２丁目２３番地,,35,215,7450013,,,,,,,2025-09-30,1,,,,,カワニシ,0
1257,5260001040584,新規,0,2025-09-30,2025-09-30,株式会社野島測量設計事務所,,株式会社,岡山県,倉敷市,広江１丁目５番８号,,33,202,7128043,,,,,,,2025-09-30,1,,,,,ノジマソクリョウセッケイジムショ,0
1258,5260003005362,新規,0,2025-09-30,2025-09-30,合同会社慈愛,,合同会社,岡山県,岡山市北区,佐山２１０６番地１６,,33,101,7011205,,,,,,,2025-09-30,1,,,,,ジアイ,0
1274,5300001014360,新規,0,2025-09-30,2025-09-30,株式会社Ｓ．Ｋ,,株式会社,佐賀県,杵島郡江北町,大字上小田１０４８番地２,,41,424,8490506,,,,,,,2025-09-30,1,,,,,エスケイ,0
1281,5330001033614,新規,0,2025-09-30,2025-09-30,株式会社レントリア,,株式会社,熊本県,熊本市西区,蓮台寺２丁目８番１号,,43,103,8600055,,,,,,,2025-09-30,1,,,,,レントリア,0
1294,5360003015277,新規,0,2025-09-30,2025-09-30,サクセスツリー合同会社,,合同会社,沖縄県,沖縄市,美里１丁目２８番１７号,,47,211,9042153,,,,,,,2025-09-30,1,,,,,サクセスツリー,0
1302,5380001035597,新規,0,2025-09-30,2025-09-30,株式会社山二,,株式会社,福島県,いわき市,平下神谷字岸前１１３‐４,,07,204,9700101,,,,,,,2025-09-30,1,,,,,ヤマニ,0
1304,5390001018114,新規,0,2025-09-30,2025-09-30,株式会社一休庵,,株式会社,山形県,山形市,下条町２丁目４番２５号,,06,201,9900823,,,,,,,2025-09-30,1,,,,,イッキュウアン,0
1311,5430003018116,新規,0,2025-09-30,2025-09-30,Ｙ＆Ｙ合同会社,,合同会社,北海道,札幌市東区,北十四条東１０丁目３番５号,,01,103,0650014,,,,,,,2025-09-30,1,,,,,ワイアンドワイ,0
1312,5450001014742,新規,0,2025-09-30,2025-09-30,株式会社Ｈｏｐｅ＆Ｈａｎｄｓ,,株式会社,北海道,富良野市,字下御料１９９０番地１６,,01,229,0760017,,,,,,,2025-09-30,1,,,,,ホープアンドハンズ,0
1313,5460301005309,新規,0,2025-09-30,2025-09-30,ＧＨＡＺＩ　ＴＲＡＤＩＮＧ株式会社,,株式会社,北海道,網走郡美幌町,字美禽１６３番地の１,,01,543,0920002,,,,,,,2025-09-30,1,,,,,ガジトレーディング,0
1314,5460303000885,新規,0,2025-09-30,2025-09-30,ＰＵＮＪＡＢ　ＳＨＯＫＡＩ合同会社,,合同会社,北海道,北見市,東相内町７２番地１９,,01,208,0990878,,,,,,,2025-09-30,1,,,,,パンジャブショウカイ,0
1319,5480001012958,新規,0,2025-09-30,2025-09-30,株式会社クスモト,,株式会社,徳島県,板野郡北島町,中村字東中須１番地２１,,36,402,7710203,,,,,,,2025-09-30,1,,,,,クスモト,0
1321,5500001026534,新規,0,2025-09-30,2025-09-30,Ａ　Ｌｉｎｅ株式会社,,株式会社,愛媛県,伊予郡松前町,大字神崎１０６８番地３,,38,401,7913161,,,,,,,2025-09-30,1,,,,,エーライン,0
1334,6010001258465,新規,0,2025-09-30,2025-09-30,株式会社ゆい資産工房,,株式会社,東京都,千代田区,神田錦町１丁目５番地７,,13,101,1010054,,,,,,,2025-09-30,1,,,,,ユイシサンコウボウ,0
1335,6010001258845,新規,0,2025-09-30,2025-09-30,株式会社Ｒｏｉ,,株式会社,東京都,中央区,銀座１丁目２２番１１号銀座大竹ビジデンス２階,,13,102,1040061,,,,,,,2025-09-30,1,,,,,ロイ,0
1336,6010001258861,新規,0,2025-09-30,2025-09-30,株式会社ジーク,,株式会社,東京都,千代田区,内神田１丁目１８番１１－３１４号,,13,101,1010047,,,,,,,2025-09-30,1,,,,,ジーク,0
1338,6010003048864,新規,0,2025-09-30,2025-09-30,合同会社原田曜平,,合同会社,東京都,文京区,本駒込５丁目８番７－２０２号,,13,105,1130021,,,,,,,2025-09-30,1,,,,,ハラダヨウヘイ,0
1339,6010003048889,新規,0,2025-09-30,2025-09-30,ＭＡＡ　ＡＶ合同会社,,合同会社,東京都,中央区,日本橋兜町９番１号,,13,102,1030026,,,,,,,2025-09-30,1,,,,,エムエーエーエーブイ,0
1341,6010005040720,新規,0,2025-09-30,2025-09-30,一般社団法人ＪＣＬ　Ｏｎｅ,,その他の設立登記法人,東京都,千代田区,平河町１丁目６番１５号シルスフィア会計事務所内,,13,101,1020093,,,,,,,2025-09-30,1,,,,,ジェイシーエルワン,0
1349,6010401192990,新規,0,2025-09-30,2025-09-30,株式会社ｃｏｒｅ　ＡＩ,,株式会社,東京都,港区,芝浦１丁目６－４１－２６０７,,13,103,1050023,,,,,,,2025-09-30,1,,,,,コアエーアイ,0
1350,6010401193279,新規,0,2025-09-30,2025-09-30,株式会社経都,,株式会社,東京都,港区,西新橋２丁目８番４号多七ビル３階,,13,103,1050003,,,,,,,2025-09-30,1,,,,,フツ,0
1351,6010401193378,新規,0,2025-09-30,2025-09-30,株式会社Ｍ．Ｓキャピタルマネジメント,,株式会社,東京都,港区,西麻布２丁目２４番３５号,,13,103,1060031,,,,,,,2025-09-30,1,,,,,エムエスキャピタルマネジメント,0
1352,6010401193386,新規,0,2025-09-30,2025-09-30,株式会社ＨｉＡＺ,,株式会社,東京都,港区,東麻布２丁目１４番７号１階,,13,103,1060044,,,,,,,2025-09-30,1,,,,,ハイエイジ,0
1353,6010401193394,新規,0,2025-09-30,2025-09-30,ＳｙｎｃＰｕｌｓｅ株式会社,,株式会社,東京都,港区,白金６丁目２番６号５階,,13,103,1080072,,,,,,,2025-09-30,1,,,,,シンクパルス,0
1355,6010405024744,新規,0,2025-09-30,2025-09-30,一般社団法人恵比寿美容クリニック,,その他の設立登記法人,東京都,港区,赤坂３丁目１３番３号,,13,103,1070052,,,,,,,2025-09-30,1,,,,,エビスビヨウクリニック,0
1356,6010405024793,新規,0,2025-09-30,2025-09-30,横浜インベストメンツ一般社団法人,,その他の設立登記法人,東京都,港区,六本木１丁目６番１号泉ガーデンタワー,,13,103,1060032,,,,,,,2025-09-30,1,,,,,ヨコハマインベストメンツ,0
1357,6010405024810,新規,0,2025-09-30,2025-09-30,ジャパン彦根特定目的会社,,その他の設立登記法人,東京都,港区,虎ノ門３丁目２２番１０－２０１号,,13,103,1050001,,,,,,,2025-09-30,1,,,,,ジャパンヒコネ,0
1358,6010501054802,新規,0,2025-09-30,2025-09-30,百善テクニック株式会社,,株式会社,東京都,台東区,松が谷１丁目４－６ライオンズマンション上野松が谷９０１号室,,13,106,1110036,,,,,,,2025-09-30,1,,,,,ヒャクゼンテクニック,0
1360,6010601068025,新規,0,2025-09-30,2025-09-30,株式会社Ｗｅｌｌ　Ｂｌｏｏｍ,,株式会社,東京都,墨田区,江東橋３丁目１番１０号横井ビル１Ｆ,,13,107,1300022,,,,,,,2025-09-30,1,,,,,ウェルブルーム,0
1365,6010901058147,新規,0,2025-09-30,2025-09-30,株式会社スマートワーク,,株式会社,東京都,世田谷区,太子堂４丁目１８番１５号マガザン三軒茶屋２－３Ｆ－３,,13,112,1540004,,,,,,,2025-09-30,1,,,,,スマートワーク,0
1376,6011401027451,新規,0,2025-09-30,2025-09-30,ＧＡＮＤＡＷＩＮ　ＫＹＡＷ株式会社,,株式会社,東京都,板橋区,赤塚５丁目８番３号,,13,119,1750092,,,,,,,2025-09-30,1,,,,,ガンダウィンチョー,0
1382,6011701028769,新規,0,2025-09-30,2025-09-30,ａｕｔｏｍｉｚｅ株式会社,,株式会社,東京都,江戸川区,西瑞江３丁目１６番７２号,,13,123,1320015,,,,,,,2025-09-30,1,,,,,オートマイズ,0
1383,6011701028777,新規,0,2025-09-30,2025-09-30,株式会社黎,,株式会社,東京都,江戸川区,大杉３丁目４番８号,,13,123,1320022,,,,,,,2025-09-30,1,,,,,レイ,0
1392,6012403007334,新規,0,2025-09-30,2025-09-30,合同会社グーグー,,合同会社,東京都,武蔵野市,境２丁目１０－１,,13,203,1800022,,,,,,,2025-09-30,1,,,,,グーグー,0
1393,6012403007350,新規,0,2025-09-30,2025-09-30,ＰＲＥＥＮＳＵ　ＧＲＯＵＰ合同会社,,合同会社,東京都,狛江市,中和泉５丁目３６－１１エコー狛江１０１,,13,219,2010012,,,,,,,2025-09-30,1,,,,,プレンスグループ,0
1394,6012403007359,新規,0,2025-09-30,2025-09-30,合同会社Ｆｕｋｕｊｕｄｏ,,合同会社,東京都,武蔵野市,吉祥寺東町２丁目３番１３号あかねハイツ２０１,,13,203,1800002,,,,,,,2025-09-30,1,,,,,フクジュドウ,0
1396,6012803003882,新規,0,2025-09-30,2025-09-30,合同会社杉村建築設計事務所,,合同会社,東京都,国分寺市,東元町４丁目１０―２２ぶんじ寮３,,13,214,1850022,,,,,,,2025-09-30,1,,,,,スギムラケンチクセッケイジムショ,0
1412,6020001165033,新規,0,2025-09-30,2025-09-30,株式会社ビーハッピー,,株式会社,神奈川県,横浜市鶴見区,大東町６番地１２,,14,101,2300032,,,,,,,2025-09-30,1,,,,,ビーハッピー,0
1431,6030001168786,新規,0,2025-09-30,2025-09-30,株式会社一心,,株式会社,埼玉県,川口市,赤井３丁目１０番３９号,,11,203,3340073,,,,,,,2025-09-30,1,,,,,イッシン,0
1432,6030001168811,新規,0,2025-09-30,2025-09-30,ルポデザイン株式会社,,株式会社,埼玉県,戸田市,喜沢２丁目２６番地の６６,,11,224,3350013,,,,,,,2025-09-30,1,,,,,ルポデザイン,0
1433,6030001168828,新規,0,2025-09-30,2025-09-30,株式会社ＭｏｋＭｏｋ,,株式会社,埼玉県,草加市,高砂２丁目６－１３徒夢ビル２階,,11,221,3400015,,,,,,,2025-09-30,1,,,,,モクモク,0
1434,6030001168836,新規,0,2025-09-30,2025-09-30,株式会社ＡＲビジネスサポート,,株式会社,埼玉県,熊谷市,弥生２丁目８４番地三電工業ビル４Ｆ,,11,202,3600044,,,,,,,2025-09-30,1,,,,,エーアールビジネスサポート,0
1435,6030001168902,新規,0,2025-09-30,2025-09-30,株式会社ＯＮＥ　ＴＯ　ＯＮＥ,,株式会社,埼玉県,和光市,諏訪４番８号,,11,229,3510102,,,,,,,2025-09-30,1,,,,,ワントゥワン,0
1441,6030003027718,新規,0,2025-09-30,2025-09-30,ＭＡＺＨＡＲ　ＴＲＡＤＩＮＧ合同会社,,合同会社,埼玉県,入間郡毛呂山町,大字市場１２８－１－１０６号室,,11,326,3500434,,,,,,,2025-09-30,1,,,,,マザールトレーディング,0
1442,6030005022279,新規,0,2025-09-30,2025-09-30,一般社団法人フラットランダー,,その他の設立登記法人,埼玉県,さいたま市桜区,大字上大久保６８９番地１（５０８号）,,11,106,3380824,,,,,,,2025-09-30,1,,,,,フラットランダー,0
1445,6040001140637,新規,0,2025-09-30,2025-09-30,株式会社幸栄企画,,株式会社,千葉県,木更津市,請西南３丁目３２番地４,,12,206,2920807,,,,,,,2025-09-30,1,,,,,サイエイキカク,0
1446,6040001140661,新規,0,2025-09-30,2025-09-30,株式会社緑友園,,株式会社,千葉県,浦安市,猫実４丁目５番２６号,,12,227,2790004,,,,,,,2025-09-30,1,,,,,リョクユウエン,0
1448,6040003028640,新規,0,2025-09-30,2025-09-30,ＲＹＵ　ＩＮＴＥＲＮＡＴＩＯＮＡＬ合同会社,,合同会社,千葉県,山武市,実門１４６番地３９,,12,237,2891221,,,,,,,2025-09-30,1,,,,,リュウインターナショナル,0
1452,6070001043382,新規,0,2025-09-30,2025-09-30,株式会社Ｕｎｆｏｌｄ　Ｃｏｒｅ,,株式会社,群馬県,桐生市,新里町新川７１５番地１１ファミリアイマイＪ号室,,10,203,3760121,,,,,,,2025-09-30,1,,,,,アンフォールドコア,0
1454,6080001027161,新規,0,2025-09-30,2025-09-30,静岡山椒株式会社,,株式会社,静岡県,藤枝市,音羽町３丁目２番３１号,,22,214,4260087,,,,,,,2025-09-30,1,,,,,シズオカサンショウ,0
1459,6110001039582,新規,0,2025-09-30,2025-09-30,株式会社中越計算センター,,株式会社,新潟県,長岡市,大山１丁目１３番地１１,,15,202,9402113,,,,,,,2025-09-30,1,,,,,チュウエツケイサンセンター,0
1461,6110003005896,新規,0,2025-09-30,2025-09-30,合同会社フェルメル,,合同会社,新潟県,新潟市中央区,弥生町１番９号,,15,103,9518147,,,,,,,2025-09-30,1,,,,,フェルメル,0
1474,6120001279913,新規,0,2025-09-30,2025-09-30,ＫＩＫＡ株式会社,,株式会社,大阪府,大阪市天王寺区,伶人町２－３１ＳｔａｒＯｆｆｉｃｅ大阪天王寺北４０６号室,,27,109,5430061,,,,,,,2025-09-30,1,,,,,キカ,0
1475,6120001279979,新規,0,2025-09-30,2025-09-30,海嶼星河株式会社,,株式会社,大阪府,大阪市阿倍野区,播磨町１丁目２３－２２－４０３号室,,27,119,5450022,,,,,,,2025-09-30,1,,,,,カイショセイガ,0
1476,6120001280004,新規,0,2025-09-30,2025-09-30,株式会社ＧｏＱロジ,,株式会社,大阪府,大阪市中央区,南久宝寺町４丁目４番７号４階,,27,128,5410058,,,,,,,2025-09-30,1,,,,,ゴクウロジ,0
1477,6120001280094,新規,0,2025-09-30,2025-09-30,ＫＯＫＯ　ＬＯＶＥ株式会社,,株式会社,大阪府,大阪市此花区,春日出北３丁目１３番３７－４０８号,,27,104,5540021,,,,,,,2025-09-30,1,,,,,ココラブ,0
1478,6120001280128,新規,0,2025-09-30,2025-09-30,株式会社ＢＲＩＤＧＥ,,株式会社,大阪府,大阪市東成区,東小橋１丁目１２－１－１ｆ,,27,115,5370024,,,,,,,2025-09-30,1,,,,,ブリッジ,0
1479,6120001280375,新規,0,2025-09-30,2025-09-30,大阪東洋株式会社,,株式会社,大阪府,大阪市天王寺区,大道３丁目２番１６－４０３号,,27,109,5430052,,,,,,,2025-09-30,1,,,,,オオサカトウヨウ,0
1480,6120001280499,新規,0,2025-09-30,2025-09-30,視野君＿株式会社,00140851,株式会社,大阪府,大阪市中央区,瓦屋町２丁目１０番１４号第三天偉ビル３階Ｇ号室,,27,128,5420066,,,,,,,2025-09-30,1,,,,,シヤクンキン,0
1481,6120003030737,新規,0,2025-09-30,2025-09-30,合同会社Ｍ＆Ｃｏ．,,合同会社,大阪府,大阪市北区,梅田１丁目１番３号大阪駅前第３ビル２９階,,27,127,5300001,,,,,,,2025-09-30,1,,,,,エムアンドカンパニー,0
1482,6120003030745,新規,0,2025-09-30,2025-09-30,合同会社タイガー,,合同会社,大阪府,大阪市城東区,成育４丁目２４番３－３０１号,,27,118,5360007,,,,,,,2025-09-30,1,,,,,タイガー,0
1483,6120003030753,新規,0,2025-09-30,2025-09-30,合同会社ＭｏｏｎＬｉｎｅ,,合同会社,大阪府,大阪市生野区,桃谷２丁目９番９号,,27,116,5440034,,,,,,,2025-09-30,1,,,,,ムーンライン,0
1484,6120003030828,新規,0,2025-09-30,2025-09-30,合同会社創,,合同会社,大阪府,大阪市福島区,海老江５丁目２‐２,,27,103,5530001,,,,,,,2025-09-30,1,,,,,ソウ,0
1487,6120103006752,新規,0,2025-09-30,2025-09-30,合同会社ＰＡＷＳ,,合同会社,大阪府,堺市堺区,石津町２丁１番６０－１０３号,,27,141,5900814,,,,,,,2025-09-30,1,,,,,パウズ,0
1492,6120901051537,新規,0,2025-09-30,2025-09-30,日星株式会社,,株式会社,大阪府,豊能郡豊能町,新光風台２丁目２４番地の５,,27,321,5630105,,,,,,,2025-09-30,1,,,,,ニッセイ,0
1493,6120901051545,新規,0,2025-09-30,2025-09-30,リアルコア・パートナーズ株式会社,,株式会社,大阪府,茨木市,高田町１５番２０号,,27,211,5670011,,,,,,,2025-09-30,1,,,,,,0
1496,6122001039677,新規,0,2025-09-30,2025-09-30,株式会社Ｒｏｓｅｔｔｅ十,,株式会社,大阪府,東大阪市,長田西１丁目２番２１号ラ・グランツ１０３号室,,27,227,5770016,,,,,,,2025-09-30,1,,,,,ロゼットプラス,0
1497,6122003003326,新規,0,2025-09-30,2025-09-30,一路合同会社,,合同会社,大阪府,東大阪市,水走１丁目３－４５－２０７室,,27,227,5780921,,,,,,,2025-09-30,1,,,,,イチロ,0
1500,6130001080642,新規,0,2025-09-30,2025-09-30,Ｋｙｏｔｏ　Ｈｅａｒｔ株式会社,,株式会社,京都府,京都市上京区,今出川通大宮東入元伊佐町２８５番地２０３号室,,26,102,6028435,,,,,,,2025-09-30,1,,,,,キョウトハート,0
1503,6140001140131,新規,0,2025-09-30,2025-09-30,株式会社セールスライン,,株式会社,兵庫県,川西市,丸山台２丁目１番地の４９,,28,217,6660152,,,,,,,2025-09-30,1,,,,,セールスライン,0
1504,6140001140156,新規,0,2025-09-30,2025-09-30,ＷＥＮＴシステム株式会社,,株式会社,兵庫県,神戸市垂水区,高丸４丁目３番３３号アーバンヴィレッジ垂水１０１号,,28,108,6550016,,,,,,,2025-09-30,1,,,,,ウエントシステム,0
1505,6140003022641,新規,0,2025-09-30,2025-09-30,Ｃｅｌｅｓｔｅ　Ｃａｐｉｔａｌ合同会社,,合同会社,兵庫県,神戸市須磨区,飛松町３丁目５－２０,,28,107,6540012,,,,,,,2025-09-30,1,,,,,セレステキャピタル,0
1506,6140005027639,新規,0,2025-09-30,2025-09-30,一般社団法人小・中サッカー育成会,,その他の設立登記法人,兵庫県,川西市,大和東５丁目５８番地の４,,28,217,6660111,,,,,,,2025-09-30,1,,,,,ショウチュウサッカーイクセイカイ,0
1509,6160003003615,新規,0,2025-09-30,2025-09-30,合同会社グローエッジ,,合同会社,滋賀県,大津市,別保３丁目３番３５号,,25,201,5200835,,,,,,,2025-09-30,1,,,,,グローエッジ,0
1521,6180001168821,新規,0,2025-09-30,2025-09-30,株式会社万通,,株式会社,愛知県,小牧市,外堀３丁目２４１番地,,23,219,4850039,,,,,,,2025-09-30,1,,,,,マンツウ,0
1523,6180003029121,新規,0,2025-09-30,2025-09-30,ＭＩＲＡＩ　ＮＯＯＲ　ＴＲＡＤＩＮＧ合同会社,,合同会社,愛知県,名古屋市港区,東土古町１丁目１光栄荘１５,,23,111,4550061,,,,,,,2025-09-30,1,,,,,ミライヌールトレーディング,0
1529,6190001032571,新規,0,2025-09-30,2025-09-30,株式会社Ｋ・Ｔブロッサムズ,,株式会社,三重県,四日市市,釆女町１６０５番地１２,,24,202,5100954,,,,,,,2025-09-30,1,,,,,ケイティーブロッサムズ,0
1531,6200001044276,新規,0,2025-09-30,2025-09-30,ＴＯＱＥＥＲ　ＩＮＴＥＲＮＡＴＩＯＮＡＬ株式会社,,株式会社,岐阜県,美濃加茂市,加茂野町加茂野１番地４８小瀬木マンション３０１号室,,21,211,5050054,,,,,,,2025-09-30,1,,,,,トキールインターナショナル,0
1532,6200003007066,新規,0,2025-09-30,2025-09-30,合同会社Ａｎｔｈｅｓｉｏ,,合同会社,岐阜県,岐阜市,福光西３丁目１５番２号,,21,201,5020814,,,,,,,2025-09-30,1,,,,,アンテシオ,0
1543,6260003005361,新規,0,2025-09-30,2025-09-30,合同会社アグリスター,,合同会社,岡山県,岡山市東区,西大寺新地２０３番地９,,33,103,7048122,,,,,,,2025-09-30,1,,,,,アグリスター,0
1550,6290001111480,新規,0,2025-09-30,2025-09-30,株式会社宮本建装,,株式会社,福岡県,福岡市早良区,田隈１丁目３４番２２号,,40,137,8140174,,,,,,,2025-09-30,1,,,,,ミヤモトケンソウ,0
1551,6290001111621,新規,0,2025-09-30,2025-09-30,株式会社日本口福大,,株式会社,福岡県,福岡市東区,香椎浜３丁目３番６号,,40,131,8130016,,,,,,,2025-09-30,1,,,,,ニホンコウフクダイ,0
1553,6290801031886,新規,0,2025-09-30,2025-09-30,株式会社Ｓｋｉｌｌ　Ｋｒａｆｔ,,株式会社,福岡県,遠賀郡水巻町,下二東２丁目１５番１６号,,40,382,8070053,,,,,,,2025-09-30,1,,,,,スキルクラフト,0
1557,6330003011237,新規,0,2025-09-30,2025-09-30,合同会社リラックス,,合同会社,熊本県,熊本市南区,出仲間１丁目６番５号,,43,104,8620963,,,,,,,2025-09-30,1,,,,,リラックス,0
1569,6360003015284,新規,0,2025-09-30,2025-09-30,合同会社ＪＩＮＧＳＨＡＨＮＧＬＩＵ,,合同会社,沖縄県,八重山郡竹富町,字竹富３６３,,47,381,9071101,,,,,,,2025-09-30,1,,,,,ジングシャングリュウ,0
1574,6380003006141,新規,0,2025-09-30,2025-09-30,チャンちゃん合同会社,,合同会社,福島県,会津若松市,米代２丁目２番９号,,07,202,9650875,,,,,,,2025-09-30,1,,,,,チャンチャン,0
1581,6430001095230,新規,0,2025-09-30,2025-09-30,株式会社Ａｉｚａｗａ　Ｔｏｓｏｕ　Ｎｅｏ,,株式会社,北海道,小樽市,望洋台３丁目１番６号,,01,203,0470155,,,,,,,2025-09-30,1,,,,,アイザワトソウネオ,0
1583,6430003018131,新規,0,2025-09-30,2025-09-30,合同会社エフビーシー,,合同会社,北海道,札幌市中央区,北十条西２４丁目３番地,,01,101,0600010,,,,,,,2025-09-30,1,,,,,エフビーシー,0
1584,6430005015325,新規,0,2025-09-30,2025-09-30,一般社団法人環境未来推進機構,,その他の設立登記法人,北海道,札幌市中央区,北一条西９丁目３番１号南大通ビルＮ１－３階,,01,101,0600001,,,,,,,2025-09-30,1,,,,,カンキョウミライスイシンキコウ,0
1602,7010001258927,新規,0,2025-09-30,2025-09-30,株式会社ＫＡＮＵＶＡ,,株式会社,東京都,中央区,銀座１丁目１２－４Ｎ＆ＥＢＬＤ．７階,,13,102,1040061,,,,,,,2025-09-30,1,,,,,カヌーヴァ,0
1612,7010401193245,新規,0,2025-09-30,2025-09-30,ＯＭＯ株式会社,,株式会社,東京都,港区,芝浦４丁目２１番１－１９１３号,,13,103,1080023,,,,,,,2025-09-30,1,,,,,オモ,0
1613,7010401193261,新規,0,2025-09-30,2025-09-30,和田プランニング株式会社,,株式会社,東京都,港区,新橋３丁目９番１０号－５０６号,,13,103,1050004,,,,,,,2025-09-30,1,,,,,ワダプランニング,0
1614,7010401193352,新規,0,2025-09-30,2025-09-30,株式会社レミタス,,株式会社,東京都,港区,六本木３丁目１番３０号Ａ・Ｂビル６階,,13,103,1060032,,,,,,,2025-09-30,1,,,,,レミタス,0
1616,7010403036146,新規,0,2025-09-30,2025-09-30,Ｋｉｎｇ　Ｓｑｕａｒｅ合同会社,,合同会社,東京都,港区,六本木３丁目１６番１２号六本木ＫＳビル５Ｆ,,13,103,1060032,,,,,,,2025-09-30,1,,,,,キングスクエア,0
1619,7010405024792,新規,0,2025-09-30,2025-09-30,横浜インベストメンツ特定目的会社,,その他の設立登記法人,東京都,港区,六本木１丁目６番１号泉ガーデンタワー,,13,103,1060032,,,,,,,2025-09-30,1,,,,,ヨコハマインベストメンツ,0
1620,7010505003639,新規,0,2025-09-30,2025-09-30,医療法人社団幸松会,,その他の設立登記法人,東京都,台東区,浅草１丁目１番１７号増田ビル６階,,13,106,1110032,,,,,,,2025-09-30,1,,,,,コウショウカイ,0
1622,7010601068016,新規,0,2025-09-30,2025-09-30,株式会社マーマル建築設計事務所,,株式会社,東京都,江東区,白河２丁目６番１０号,,13,108,1350021,,,,,,,2025-09-30,1,,,,,マーマルケンチクセッケイジムショ,0
1623,7010601068024,新規,0,2025-09-30,2025-09-30,株式会社ＬＩＮＯ　ｓｔｕｄｉｏ,,株式会社,東京都,江東区,亀戸５丁目１６番５号１５ビル２０１,,13,108,1360071,,,,,,,2025-09-30,1,,,,,リノスタジオ,0
1625,7010803005551,新規,0,2025-09-30,2025-09-30,合同会社エムズプランニング,,合同会社,東京都,大田区,石川町２丁目７番２０－４０３号,,13,111,1450061,,,,,,,2025-09-30,1,,,,,エムズプランニング,0
1627,7010903010278,新規,0,2025-09-30,2025-09-30,合同会社Ｓｍｃ．,,合同会社,東京都,世田谷区,池尻１丁目１１番６号パークサイドマンション池尻４０５,,13,112,1540001,,,,,,,2025-09-30,1,,,,,エスエムシー,0
1640,7011103016413,新規,0,2025-09-30,2025-09-30,Ｈｏｓｈｉ　Ｊａｐａｎ合同会社,,合同会社,東京都,新宿区,西新宿８丁目１１－１０星野ビル３Ｆ,,13,104,1600023,,,,,,,2025-09-30,1,,,,,ホシジャパン,0
1646,7011503006682,新規,0,2025-09-30,2025-09-30,協成産業合同会社,,合同会社,東京都,荒川区,南千住７丁目８－１,,13,118,1160003,,,,,,,2025-09-30,1,,,,,,0
1649,7011801046802,新規,0,2025-09-30,2025-09-30,株式会社ＢＩＧ　ＣＡＴＳ,,株式会社,東京都,葛飾区,青戸７丁目２３番１１号,,13,122,1250062,,,,,,,2025-09-30,1,,,,,ビッグキャッツ,0
1651,7012401043628,新規,0,2025-09-30,2025-09-30,エコ．グローバル株式会社,,株式会社,東京都,府中市,白糸台１丁目２１番地の１－２０２号,,13,206,1830011,,,,,,,2025-09-30,1,,,,,エコグローバル,0
1652,7012403007358,新規,0,2025-09-30,2025-09-30,合同会社東京マルク,,合同会社,東京都,武蔵野市,中町２丁目１３番２０号,,13,203,1800006,,,,,,,2025-09-30,1,,,,,トウキョウマルク,0
1655,7012801024269,新規,0,2025-09-30,2025-09-30,株式会社藤栄会,,株式会社,東京都,国立市,中１丁目７番地の２１,,13,215,1860004,,,,,,,2025-09-30,1,,,,,トウエイカイ,0
1656,7012801024277,新規,0,2025-09-30,2025-09-30,ぶんじエネルギー株式会社,,株式会社,東京都,国分寺市,泉町３丁目３７－３４マージュ西国分寺１Ｆクルミドコーヒー内,,13,214,1850024,,,,,,,2025-09-30,1,,,,,ブンジエネルギー,0
1657,7013101009803,新規,0,2025-09-30,2025-09-30,ケーユー株式会社,,株式会社,東京都,福生市,牛浜６３番地,,13,218,1970024,,,,,,,2025-09-30,1,,,,,ケーユー,0
1662,7020001164901,新規,0,2025-09-30,2025-09-30,株式会社セブンシーズ・トレーディング,,株式会社,神奈川県,横浜市中区,真砂町４丁目４３番地木下商事ビル２階,,14,104,2310016,,,,,,,2025-09-30,1,,,,,セブンシーズトレーディング,0
1669,7030001168760,新規,0,2025-09-30,2025-09-30,碩美株式会社,,株式会社,埼玉県,蕨市,北町１丁目１６番１２－３０５号,,11,223,3350001,,,,,,,2025-09-30,1,,,,,セキビ,0
1670,7030001168819,新規,0,2025-09-30,2025-09-30,株式会社寺田農園,,株式会社,埼玉県,加須市,町屋新田１２６番地,,11,210,3470052,,,,,,,2025-09-30,1,,,,,テラダノウエン,0
1671,7030001168827,新規,0,2025-09-30,2025-09-30,株式会社和誠建装,,株式会社,埼玉県,春日部市,南４丁目８番１８－４号,,11,214,3440064,,,,,,,2025-09-30,1,,,,,ワセイケンソウ,0
1672,7030001168835,新規,0,2025-09-30,2025-09-30,株式会社まごの手ＩＮＮＯＶＡＴＩＯＮ,,株式会社,埼玉県,三郷市,早稲田２丁目６－６メゾンドベールＩ－５０３,00140847,11,237,3410018,,,,,,,2025-09-30,1,,,,,マゴノテイノベーション,0
1673,7030001168892,新規,0,2025-09-30,2025-09-30,株式会社リビングエイド,,株式会社,埼玉県,さいたま市大宮区,桜木町２丁目３番地大宮マルイ７階,,11,103,3300854,,,,,,,2025-09-30,1,,,,,リビングエイド,0
1676,7030003027691,新規,0,2025-09-30,2025-09-30,Ｚ＆Ｚ　ＭＹＡＮＭＡＲ　ＭＡＲＴ合同会社,,合同会社,埼玉県,加須市,柳生２２７１－４,,11,210,3491201,,,,,,,2025-09-30,1,,,,,ゼットアンドゼットミャンマーマート,0
1677,7030003027700,新規,0,2025-09-30,2025-09-30,ＳＵＬＥＨＲＩ　ＴＲＡＤＩＮＧ合同会社,,合同会社,埼玉県,加須市,花崎３丁目１８番６号岩田コーポ２号棟２０２号室,,11,210,3470032,,,,,,,2025-09-30,1,,,,,スレフリトレーディング,0
1678,7030003027725,新規,0,2025-09-30,2025-09-30,合同会社ＢＢＨ　ＳＨＯＫＡＩ,,合同会社,埼玉県,羽生市,大字北袋７９番地１谷島第４３貸家,,11,216,3480028,,,,,,,2025-09-30,1,,,,,ビービーエイチショウカイ,0
1679,7030003027733,新規,0,2025-09-30,2025-09-30,和倉合同会社,,合同会社,埼玉県,春日部市,新方袋１番地５３,,11,214,3440056,,,,,,,2025-09-30,1,,,,,ワクラ,0
1680,7030005022278,新規,0,2025-09-30,2025-09-30,狭山市下水道・道路施設維持管理事業協同組合,,その他の設立登記法人,埼玉県,狭山市,大字堀兼１６９５番地２,,11,215,3501312,,,,,,,2025-09-30,1,,,,,サヤマシゲスイドウドウロシセツイジカンリジギョウ,0
1682,7040001140669,新規,0,2025-09-30,2025-09-30,株式会社ゆうゆう,,株式会社,千葉県,野田市,中戸８６番地１３,,12,208,2700215,,,,,,,2025-09-30,1,,,,,ユウユウ,0
1685,7040003028648,新規,0,2025-09-30,2025-09-30,フィデリス・パートナーズ合同会社,,合同会社,千葉県,浦安市,日の出６丁目２番Ｃ－９０７号アールフォーラム新浦安,,12,227,2790013,,,,,,,2025-09-30,1,,,,,フィデリスパートナーズ,0
1686,7040003028680,新規,0,2025-09-30,2025-09-30,ＴＫＪ合同会社,,合同会社,千葉県,市原市,五井２２０９番地１アヴニール梨の樹２０２号,,12,219,2900056,,,,,,,2025-09-30,1,,,,,ティーケージェー,0
1693,7070001043349,新規,0,2025-09-30,2025-09-30,株式会社ＴＭＪ　ＢＡＳＥ,,株式会社,群馬県,藤岡市,中９２０番地１ＴＭＪ、ＤＡＮＣＥ、ＢＡＳＥ,,10,209,3750005,,,,,,,2025-09-30,1,,,,,ティーエムジェイベース,0
1695,7080001027160,新規,0,2025-09-30,2025-09-30,株式会社ランドマーク,,株式会社,静岡県,藤枝市,田沼３丁目２０番２８号,,22,214,4260061,,,,,,,2025-09-30,1,,,,,ランドマーク,0
1696,7080103003431,新規,0,2025-09-30,2025-09-30,合同会社空,,合同会社,静岡県,三島市,谷田７番地の５,,22,206,4110801,,,,,,,2025-09-30,1,,,,,ソラ,0
1700,7100001038989,新規,0,2025-09-30,2025-09-30,ＫＩＭ　ＤＵＮＧ株式会社,,株式会社,長野県,松本市,平田東３丁目２９－２２,,20,202,3990014,,,,,,,2025-09-30,1,,,,,キムズン,0
1702,7100003008404,新規,0,2025-09-30,2025-09-30,合同会社Ｋｅｅｃｋ,,合同会社,長野県,上伊那郡飯島町,本郷３４４番地,,20,384,3993704,,,,,,,2025-09-30,1,,,,,キーク,0
1719,7120001279978,新規,0,2025-09-30,2025-09-30,裕富通株式会社,,株式会社,大阪府,大阪市阿倍野区,播磨町１丁目２３－２２－４０２号室,,27,119,5450022,,,,,,,2025-09-30,1,,,,,ユウフクツウ,0
1720,7120001280060,新規,0,2025-09-30,2025-09-30,翔睿株式会社,,株式会社,大阪府,大阪市城東区,中浜３丁目２５番１５－３０３号,,27,118,5360024,,,,,,,2025-09-30,1,,,,,ショウエイ,0
1721,7120001280135,新規,0,2025-09-30,2025-09-30,ザ・ウェイ株式会社,,株式会社,大阪府,大阪市西成区,玉出東２丁目３－３３サンフラット５０１,,27,122,5570043,,,,,,,2025-09-30,1,,,,,ザウェイ,0
1725,7120903005878,新規,0,2025-09-30,2025-09-30,合同会社ａｉ,,合同会社,大阪府,高槻市,富田町６丁目１９－１３フレグランスハイツ１０２号,,27,207,5690814,,,,,,,2025-09-30,1,,,,,アイ,0
1728,7130003010803,新規,0,2025-09-30,2025-09-30,合同会社荒賀商会,,合同会社,京都府,長岡京市,今里１丁目５番地４,,26,209,6170814,,,,,,,2025-09-30,1,,,,,アラガショウカイ,0
1729,7130003010811,新規,0,2025-09-30,2025-09-30,栄春商事合同会社,,合同会社,京都府,京都市南区,西九条東比永城町７４番地７,,26,107,6018438,,,,,,,2025-09-30,1,,,,,エイシュンショウジ,0
1732,7140001140147,新規,0,2025-09-30,2025-09-30,拓界株式会社,,株式会社,兵庫県,神戸市垂水区,千代が丘２丁目４番５０－２０５号,,28,108,6550018,,,,,,,2025-09-30,1,,,,,タクカイ,0
1734,7140003022599,新規,0,2025-09-30,2025-09-30,ＫＩＮＧ　ＧＲＯＵＰ合同会社,,合同会社,兵庫県,神崎郡神河町,大河４５９番地の１,,28,446,6793111,,,,,,,2025-09-30,1,,,,,キンググループ,0
1735,7140003022632,新規,0,2025-09-30,2025-09-30,合同会社Ｗｃｕｂｅ,,合同会社,兵庫県,神戸市北区,鈴蘭台南町６丁目１２番４３号,,28,109,6511113,,,,,,,2025-09-30,1,,,,,ダブキューブ,0
1739,7150001028424,新規,0,2025-09-30,2025-09-30,株式会社ツクヨミ,,株式会社,奈良県,桜井市,大字三輪１３３０番地の１,,29,206,6330001,,,,,,,2025-09-30,1,,,,,ツクヨミ,0
1747,7180001168779,新規,0,2025-09-30,2025-09-30,株式会社Ｗｈｉｔｅ　Ｌｏｔｕｓ,,株式会社,愛知県,名古屋市中川区,八熊３丁目１５番１３号,,23,110,4540013,,,,,,,2025-09-30,1,,,,,ホワイトロータス,0
1748,7180001168812,新規,0,2025-09-30,2025-09-30,家風株式会社,,株式会社,愛知県,津島市,神守町字古道４５番地,,23,208,4960005,,,,,,,2025-09-30,1,,,,,カフウ,0
1752,7180003029104,新規,0,2025-09-30,2025-09-30,合同会社ｄｏｃ,,合同会社,愛知県,名古屋市熱田区,波寄町９番１７号,,23,109,4560003,,,,,,,2025-09-30,1,,,,,ドック,0
1753,7180003029120,新規,0,2025-09-30,2025-09-30,ＪＡＮＡＮ　ＪＡＰＡＮ合同会社,,合同会社,愛知県,名古屋市中川区,大当郎３丁目７０３エレガンスハイツＩＩＩ１０２,00140855,23,110,4540943,,,,,,,2025-09-30,1,,,,,ジャナンジャパン,0
1754,7180003029129,新規,0,2025-09-30,2025-09-30,Ｍ．Ｔ．合同会社,,合同会社,愛知県,名古屋市中区,新栄２丁目２７番１３号コーポアイ１Ｆ,,23,106,4600007,,,,,,,2025-09-30,1,,,,,エムティー,0
1759,7180301040241,新規,0,2025-09-30,2025-09-30,株式会社愛彩社,,株式会社,愛知県,蒲郡市,形原町東稲荷２０番地１,,23,214,4430104,,,,,,,2025-09-30,1,,,,,アイサイシャ,0
1762,7180303006736,新規,0,2025-09-30,2025-09-30,合同会社Ｖｅｒｄｅａ,,合同会社,愛知県,岡崎市,六名新町６番地４,,23,202,4440846,,,,,,,2025-09-30,1,,,,,ベルデア,0
1764,7190001032570,新規,0,2025-09-30,2025-09-30,奥田建築株式会社,,株式会社,三重県,津市,一志町片野５９６番地３５,,24,201,5152511,,,,,,,2025-09-30,1,,,,,オクダケンチク,0
1765,7200001044275,新規,0,2025-09-30,2025-09-30,ＯＮＥ　ＦＯＵＲ　ＩＮＴＥＲＮＡＴＩＯＮＡＬ株式会社,,株式会社,岐阜県,美濃加茂市,本郷町１丁目２番地１０若山マンション２０１号室,,21,211,5050027,,,,,,,2025-09-30,1,,,,,ワンフォーインターナショナル,0
1766,7200003007057,新規,0,2025-09-30,2025-09-30,ＳＹＥＤ　ＴＲＡＤＩＮＧ合同会社,,合同会社,岐阜県,土岐市,妻木町１２３番地１,,21,212,5095301,,,,,,,2025-09-30,1,,,,,サイエドトレーディング,0
1767,7210001020325,新規,0,2025-09-30,2025-09-30,泰禾商事株式会社,,株式会社,福井県,福井市,浜別所町１５－１－３階,,18,201,9103134,,,,,,,2025-09-30,1,,,,,タイカショウジ,0
1774,7260003005360,新規,0,2025-09-30,2025-09-30,ＭＧセキュリティ合同会社,,合同会社,岡山県,和気郡和気町,福富２９２番地１,,33,346,7090442,,,,,,,2025-09-30,1,,,,,エムジーセキュリティ,0
1783,7290801031885,新規,0,2025-09-30,2025-09-30,株式会社ヘリオスール,,株式会社,福岡県,北九州市戸畑区,浅生２丁目１２番２０－７０７号,,40,105,8040062,,,,,,,2025-09-30,1,,,,,ヘリオスール,0
1784,7310001019794,新規,0,2025-09-30,2025-09-30,株式会社港山,,株式会社,長崎県,佐世保市,栄町７番５号エクランビル５階,,42,202,8570054,,,,,,,2025-09-30,1,,,,,コウザン,0
1787,7340001027679,新規,0,2025-09-30,2025-09-30,株式会社コーラルパームス奄美,,株式会社,鹿児島県,奄美市,笠利町大字宇宿２５２０番地,,46,222,8940501,,,,,,,2025-09-30,1,,,,,コーラルパームスアマミ,0
1796,7360003015275,新規,0,2025-09-30,2025-09-30,合同会社Ｅｖｅｒｌｉｎｋ　Ｐａｒｔｎｅｒｓ,,合同会社,沖縄県,南城市,大里字仲間１０５０番地２ＳｔａｒＬｉｇｈｔ４０２号室,,47,215,9011206,,,,,,,2025-09-30,1,,,,,エバーリンクパートナーズ,0
1797,7360003015283,新規,0,2025-09-30,2025-09-30,合同会社東,,合同会社,沖縄県,うるま市,勝連平敷屋３７８４番地２２,,47,213,9042314,,,,,,,2025-09-30,1,,,,,アガリ,0
1800,7370003007305,新規,0,2025-09-30,2025-09-30,合同会社シュクル,,合同会社,宮城県,仙台市若林区,霞目２丁目３１番３号,,04,103,9840035,,,,,,,2025-09-30,1,,,,,シュクル,0
1807,7430001095270,新規,0,2025-09-30,2025-09-30,匯誉国際株式会社,,株式会社,北海道,虻田郡ニセコ町,字ニセコ３２７番地７,,01,395,0481511,,,,,,,2025-09-30,1,,,,,カイヨコクサイ,0
1808,7430001095279,新規,0,2025-09-30,2025-09-30,青山コンストラクション株式会社,,株式会社,北海道,札幌市東区,北二十一条東２０丁目４番７号,,01,103,0650021,,,,,,,2025-09-30,1,,,,,アオヤマコンストラクション,0
1810,7430005015308,新規,0,2025-09-30,2025-09-30,医療法人社団こころファミリー歯科,,その他の設立登記法人,北海道,札幌市北区,新琴似一条１２丁目６番５５号,,01,102,0010901,,,,,,,2025-09-30,1,,,,,ココロファミリーシカ,0
1811,7440001009691,新規,0,2025-09-30,2025-09-30,株式会社クオーレ,,株式会社,北海道,北斗市,七重浜１丁目１２番６号サンガーデン七重浜Ｂ棟２０３,,01,236,0490111,,,,,,,2025-09-30,1,,,,,クオーレ,0
1826,8010005040693,新規,0,2025-09-30,2025-09-30,一般社団法人日本華人上場企業協会,,その他の設立登記法人,東京都,中央区,銀座３丁目３番１号ＺＯＥ銀座７Ｆ,,13,102,1040061,,,,,,,2025-09-30,1,,,,,ニホンカジンジョウジョウキギョウキョウカイ,0
1833,8010401193186,新規,0,2025-09-30,2025-09-30,株式会社ＣＵＬＦＩ,,株式会社,東京都,港区,北青山２丁目１２－８,,13,103,1070061,,,,,,,2025-09-30,1,,,,,カルフィ,0
1834,8010401193260,新規,0,2025-09-30,2025-09-30,株式会社ｍａｊｏｔａｅ,,株式会社,東京都,港区,三田１丁目４番１号,,13,103,1080073,,,,,,,2025-09-30,1,,,,,マヨタエ,0
1835,8010401193285,新規,0,2025-09-30,2025-09-30,株式会社芝園薬局,,株式会社,東京都,港区,芝公園２丁目３番３号寺田ビル１階,,13,103,1050011,,,,,,,2025-09-30,1,,,,,シバエンヤッキョク,0
1836,8010401193351,新規,0,2025-09-30,2025-09-30,真実世界株式会社,,株式会社,東京都,港区,虎ノ門３丁目２２－１４－５Ｆ,,13,103,1050001,,,,,,,2025-09-30,1,,,,,シンジツセカイ,0
1837,8010401193368,新規,0,2025-09-30,2025-09-30,株式会社ＩｓｓｕｅＤｏ,,株式会社,東京都,港区,虎ノ門５丁目３番２０号仙石山アネックス４０２号室,,13,103,1050001,,,,,,,2025-09-30,1,,,,,イシュードゥ,0
1838,8010401193384,新規,0,2025-09-30,2025-09-30,成形部材分割準備株式会社,,株式会社,東京都,港区,東新橋１丁目９番１号,,13,103,1050021,,,,,,,2025-09-30,1,,,,,セイケイブザイブンカツジュンビ,0
1839,8010403035543,新規,0,2025-09-30,2025-09-30,合同会社思い出コントロール,,合同会社,東京都,港区,麻布十番１丁目２番７号ラフィネ麻布十番７０１号室,,13,103,1060045,,,,,,,2025-09-30,1,,,,,オモイデコントロール,0
1840,8010403036137,新規,0,2025-09-30,2025-09-30,合同会社シラヌカＥＳＳ,,合同会社,東京都,港区,芝公園１丁目１番１２号芝公園電気ビルディング７Ｆ,,13,103,1050011,,,,,,,2025-09-30,1,,,,,シラヌカイーエスエス,0
1841,8010405024791,新規,0,2025-09-30,2025-09-30,ＷＥ農業協同組合,,その他の設立登記法人,東京都,港区,三田２丁目１４番５号フロイントゥ三田５０８号室,,13,103,1080073,,,,,,,2025-09-30,1,,,,,ウィー,0
1842,8010501054750,新規,0,2025-09-30,2025-09-30,Ｇａｌａｘｙ　Ｄｏｍｅ株式会社,,株式会社,東京都,台東区,千束４丁目１７－１１,,13,106,1110031,,,,,,,2025-09-30,1,,,,,ギャラクシードーム,0
1843,8010503008011,新規,0,2025-09-30,2025-09-30,シゲット合同会社,,合同会社,東京都,台東区,松が谷２丁目３０番１２号,,13,106,1110036,,,,,,,2025-09-30,1,,,,,シゲット,0
1849,8010701048362,新規,0,2025-09-30,2025-09-30,株式会社スズカ,,株式会社,東京都,品川区,東大井３丁目１２番１６－４１８号,,13,109,1400011,,,,,,,2025-09-30,1,,,,,スズカ,0
1854,8010901058161,新規,0,2025-09-30,2025-09-30,株式会社Ｎｅａｔ　Ｃｒａｆｔ,,株式会社,東京都,世田谷区,代田２丁目２８番２号カーサアランチャ２０１,,13,112,1550033,,,,,,,2025-09-30,1,,,,,ニートクラフト,0
1864,8011001172472,新規,0,2025-09-30,2025-09-30,株式会社ＴＡＫＩＢＩＴＯ,,株式会社,東京都,渋谷区,恵比寿西２丁目４番８号ウィンド恵比寿ビル８Ｆ,,13,113,1500021,,,,,,,2025-09-30,1,,,,,タキビト,0
1865,8011001172712,新規,0,2025-09-30,2025-09-30,株式会社ＮＯＮＮＡＭＥ　ＡＲＣＨＩＴＥＣＴＳ,,株式会社,東京都,渋谷区,初台１丁目４０－１２,,13,113,1510061,,,,,,,2025-09-30,1,,,,,,0
1871,8011101113376,新規,0,2025-09-30,2025-09-30,キズキキャリア株式会社,,株式会社,東京都,新宿区,新宿６丁目２８番７号新宿ＥＡＳＴＣＯＵＲＴ２階,,13,104,1600022,,,,,,,2025-09-30,1,,,,,キズキキャリア,0
1883,8011701028775,新規,0,2025-09-30,2025-09-30,株式会社アロンデザイン,,株式会社,東京都,江戸川区,松江２丁目４１番１７号,,13,123,1320025,,,,,,,2025-09-30,1,,,,,アロンデザイン,0
1884,8011701028783,新規,0,2025-09-30,2025-09-30,木子小花株式会社,,株式会社,東京都,江戸川区,東小岩５丁目３７番１２号楽新ビル３０９号,,13,123,1330052,,,,,,,2025-09-30,1,,,,,キココハナ,0
1891,8012401043627,新規,0,2025-09-30,2025-09-30,株式会社Ｆｉｒｓｔ　Ｒｅａｌｔｙ,,株式会社,東京都,武蔵野市,吉祥寺本町１丁目１３番２号白樺ビル５Ｆ,,13,203,1800004,,,,,,,2025-09-30,1,,,,,ファーストリアルティ,0
1902,8020001165007,新規,0,2025-09-30,2025-09-30,株式会社吉兆,,株式会社,神奈川県,横浜市金沢区,瀬戸１６番６号グレイスＡ,,14,108,2360027,,,,,,,2025-09-30,1,,,,,キッチョウ,0
1903,8020001165031,新規,0,2025-09-30,2025-09-30,株式会社七井,,株式会社,神奈川県,横浜市保土ケ谷区,東川島町４０番地３,,14,106,2400041,,,,,,,2025-09-30,1,,,,,ナナイ,0
1904,8020003029399,新規,0,2025-09-30,2025-09-30,合同会社ＭＭＫ,,合同会社,神奈川県,横浜市神奈川区,沢渡５６番２号１０２号室,,14,102,2210844,,,,,,,2025-09-30,1,,,,,エムエムケー,0
1905,8021001086341,新規,0,2025-09-30,2025-09-30,Ｌｉｇａｒ株式会社,,株式会社,神奈川県,茅ヶ崎市,十間坂２丁目８－３４,,14,207,2530045,,,,,,,2025-09-30,1,,,,,リガール,0
1906,8021003016585,新規,0,2025-09-30,2025-09-30,ＳＯＲＡ　ＥＭＰＩＲＥ合同会社,,合同会社,神奈川県,秦野市,下大槻６５５－１０２,,14,211,2570004,,,,,,,2025-09-30,1,,,,,ソラエンパイア,0
1907,8021003016610,新規,0,2025-09-30,2025-09-30,ＨＡ　ＶＥＧＡＮ　ＦＯＯＤ合同会社,,合同会社,神奈川県,横須賀市,池田町２丁目２番２４号サニーヒルズレジデンスＢ棟,,14,201,2390806,,,,,,,2025-09-30,1,,,,,ハーヴィーガンフード,0
1914,8030001168826,新規,0,2025-09-30,2025-09-30,株式会社ＧＯＴＳ,,株式会社,埼玉県,さいたま市大宮区,宮町４丁目１０１番地アートヒルズ１階,,11,103,3300802,,,,,,,2025-09-30,1,,,,,ゴッツ,0
1915,8030001168850,新規,0,2025-09-30,2025-09-30,ＷＯＲＬＤ　ＣＯＲＰＯＲＡＴＩＯＮ株式会社,,株式会社,埼玉県,志木市,中宗岡３丁目７－３６－３０３,,11,228,3530002,,,,,,,2025-09-30,1,,,,,ワールドコーポレーション,0
1919,8030003027658,新規,0,2025-09-30,2025-09-30,Ｔ＆Ｙ合同会社,,合同会社,埼玉県,所沢市,大字南永井８００番地の２,,11,208,3590011,,,,,,,2025-09-30,1,,,,,ティーアンドワイ,0
1920,8030003027666,新規,0,2025-09-30,2025-09-30,信禾商貿合同会社,,合同会社,埼玉県,川口市,末広１丁目３番３１レーベンスクエア川口シルフィア９０２号,,11,203,3320006,,,,,,,2025-09-30,1,,,,,シンガショウボウ,0
1921,8030003027716,新規,0,2025-09-30,2025-09-30,ＵＺＢＥＫ　ＴＲＡＤＥＲＳ合同会社,,合同会社,埼玉県,川口市,桜町３丁目１７－２１サクラ会館１Ｂ,,11,203,3340001,,,,,,,2025-09-30,1,,,,,ウズベクトレーダース,0
1922,8030003027732,新規,0,2025-09-30,2025-09-30,営道育合同会社,,合同会社,埼玉県,草加市,谷塚町９５８番地４リブリ・Ｙａｔｓｕｋａ－３０３号,,11,221,3400023,,,,,,,2025-09-30,1,,,,,エイドウイク,0
1926,8040003028597,新規,0,2025-09-30,2025-09-30,パール・エクスペリエンス合同会社,,合同会社,千葉県,習志野市,藤崎５丁目４－１８,,12,216,2750017,,,,,,,2025-09-30,1,,,,,パールエクスペリエンス,0
1927,8040003028622,新規,0,2025-09-30,2025-09-30,合同会社藤古土建,,合同会社,千葉県,長生郡白子町,南日当９２０番地９,,12,424,2994205,,,,,,,2025-09-30,1,,,,,フジコドケン,0
1928,8040003028630,新規,0,2025-09-30,2025-09-30,ミニトミ合同会社,,合同会社,千葉県,印西市,牧の原４丁目１９番地３７,,12,231,2701331,,,,,,,2025-09-30,1,,,,,ミニトミ,0
1930,8070001043380,新規,0,2025-09-30,2025-09-30,利根ＫＤ株式会社,,株式会社,群馬県,沼田市,下川田町５３０番地,,10,206,3780024,,,,,,,2025-09-30,1,,,,,トネケーディー,0
1939,8100003008403,新規,0,2025-09-30,2025-09-30,合同会社Ｔ‐ＲＩＳＥＪＡＰＡＮ,,合同会社,長野県,松本市,平田東３丁目７番１号,,20,202,3990014,,,,,,,2025-09-30,1,,,,,ティーライズジャパン,0
1952,8120001280076,新規,0,2025-09-30,2025-09-30,旭誠商事株式会社,,株式会社,大阪府,大阪市東住吉区,矢田１丁目２０番１７号ハイツワールド３Ｊ－１号室,,27,121,5460023,,,,,,,2025-09-30,1,,,,,キョクセイショウジ,0
1953,8120001280092,新規,0,2025-09-30,2025-09-30,機馭堂株式会社,,株式会社,大阪府,大阪市西成区,玉出西２丁目８－９－４０７号,,27,122,5570045,,,,,,,2025-09-30,1,,,,,キギョドウ,0
1954,8120001280522,新規,0,2025-09-30,2025-09-30,Ｂｌｉｎｋ株式会社,,株式会社,大阪府,大阪市港区,築港２丁目２番２０号,,27,107,5520021,,,,,,,2025-09-30,1,,,,,ブリンク,0
1955,8120001280547,新規,0,2025-09-30,2025-09-30,株式会社ｂｅｓｔ,,株式会社,大阪府,寝屋川市,高柳１丁目３番５号プレアール寝屋川高柳１０１号,,27,215,5720051,,,,,,,2025-09-30,1,,,,,ベスト,0
1956,8120003030743,新規,0,2025-09-30,2025-09-30,合同会社ＤＲＡＧＯＮ　ＯＮＥ,,合同会社,大阪府,枚方市,東中振１丁目４－１８,,27,210,5730093,,,,,,,2025-09-30,1,,,,,ドラゴンワン,0
1962,8120903005836,新規,0,2025-09-30,2025-09-30,三木アセット＆ソーシャル合同会社,,合同会社,大阪府,茨木市,春日３丁目１１番１４号の２,,27,211,5670031,,,,,,,2025-09-30,1,,,,,ミキアセットアンドソーシャル,0
1963,8120903005877,新規,0,2025-09-30,2025-09-30,Ｔ‐ＡＩ合同会社,,合同会社,大阪府,高槻市,松原町六丁目３番,,27,207,5690086,,,,,,,2025-09-30,1,,,,,ティーエーアイ,0
1964,8122001039667,新規,0,2025-09-30,2025-09-30,株式会社Ｃｈｅｒｉｓｈ　Ｙｏｕ,,株式会社,大阪府,東大阪市,寿町１丁目８番３２号ヴィレクラ３０１号,,27,227,5770837,,,,,,,2025-09-30,1,,,,,チェリッシュユー,0
1969,8130001080624,新規,0,2025-09-30,2025-09-30,株式会社ＪＥＮＯＶＡゲームズ,,株式会社,京都府,京都市山科区,安朱屋敷町２番地２,,26,110,6078004,,,,,,,2025-09-30,1,,,,,ジェノバゲームズ,0
1970,8130003010810,新規,0,2025-09-30,2025-09-30,ＴＲＡＤＥ　ＬＩＮＫ合同会社,,合同会社,京都府,綾部市,位田町田岸４８番地,,26,203,6230221,,,,,,,2025-09-30,1,,,,,トレードリンク,0
1981,8180001168778,新規,0,2025-09-30,2025-09-30,株式会社中川管工,,株式会社,愛知県,瀬戸市,緑町２丁目１５番地,,23,204,4890875,,,,,,,2025-09-30,1,,,,,ナカガワカンコウ,0
1982,8180001168786,新規,0,2025-09-30,2025-09-30,株式会社ＮＥＯＮ　ＣＲＥＡＴＥ,,株式会社,愛知県,名古屋市中区,大須２丁目１４番２７号,,23,106,4600011,,,,,,,2025-09-30,1,,,,,ネオンクリエイト,0
1983,8180001168794,新規,0,2025-09-30,2025-09-30,さわやま工業株式会社,,株式会社,愛知県,江南市,力長町社宮司７３番地,,23,217,4838105,,,,,,,2025-09-30,1,,,,,サワヤマコウギョウ,0
1988,8180301040249,新規,0,2025-09-30,2025-09-30,株式会社チャオ,,株式会社,愛知県,西尾市,一色町味浜東下浜１１番地３,,23,213,4440422,,,,,,,2025-09-30,1,,,,,チャオ,0
1989,8180303006751,新規,0,2025-09-30,2025-09-30,丸文商事合同会社,,合同会社,愛知県,豊田市,高崎町北ノ脇２９番地１２,,23,211,4710048,,,,,,,2025-09-30,1,,,,,マルブンショウジ,0
1992,8200003007056,新規,0,2025-09-30,2025-09-30,ＺＯＨＡＩＢ　ＴＲＡＤＩＮＧ合同会社,,合同会社,岐阜県,多治見市,姫町５丁目１番地１７２,,21,204,5070061,,,,,,,2025-09-30,1,,,,,ゾハイブトレーディング,0
1998,8250003003819,新規,0,2025-09-30,2025-09-30,ムアゴルフ合同会社,,合同会社,山口県,下関市,丸山町４丁目４番３５号,,35,201,7500019,,,,,,,2025-09-30,1,,,,,ムアゴルフ,0
1999,8270001009287,新規,0,2025-09-30,2025-09-30,株式会社Ｒｅｏｌｄｏ,,株式会社,鳥取県,米子市,両三柳２６７２番地,,31,202,6830853,,,,,,,2025-09-30,1,,,,,リオルド,0
2009,8290001111553,新規,0,2025-09-30,2025-09-30,株式会社Ｙｏｕｎｇｅｒ　Ｔｉｇｅｒ　Ｆａｍｉｌｙ,,株式会社,福岡県,糟屋郡粕屋町,大字仲原２５３０－１,,40,349,8112304,,,,,,,2025-09-30,1,,,,,ヤンガータイガーファミリー,0
2013,8290005019834,新規,0,2025-09-30,2025-09-30,一般社団法人福岡県総合型地域スポーツクラブ連絡協議会,,その他の設立登記法人,福岡県,福岡市博多区,博多駅前１丁目２３番２号ＰａｒｋＦｒｏｎｔ博多駅前１丁目５Ｆ－Ｂ,,40,132,8120011,,,,,,,2025-09-30,1,,,,,フクオカケンソウゴウガタチイキスポーツクラブレンラクキョウギカイ,0
2014,8290005019842,新規,0,2025-09-30,2025-09-30,一般社団法人スペース石蕗,,その他の設立登記法人,福岡県,福津市,星ヶ丘２５番１７号,,40,224,8113308,,,,,,,2025-09-30,1,,,,,スペースツワブキ,0
2017,8310001019793,新規,0,2025-09-30,2025-09-30,株式会社藤,,株式会社,長崎県,佐世保市,大潟町２９０番地２７１,,42,202,8580926,,,,,,,2025-09-30,1,,,,,フジ,0
2021,8320001021360,新規,0,2025-09-30,2025-09-30,株式会社ＲＥＭ,,株式会社,大分県,大分市,東津留１丁目６番１１号大分ハイデンス２０７,,44,201,8700934,,,,,,,2025-09-30,1,,,,,アールイーエム,0
2024,8330003011243,新規,0,2025-09-30,2025-09-30,だんだん合同会社,,合同会社,熊本県,八代郡氷川町,鹿野７０８－４,,43,468,8694811,,,,,,,2025-09-30,1,,,,,ダンダン,0
2026,8340001027678,新規,0,2025-09-30,2025-09-30,株式会社シーズン・ラボ,,株式会社,鹿児島県,鹿児島市,西千石町１１番２１号鹿児島ＭＳビル５階,,46,201,8920847,,,,,,,2025-09-30,1,,,,,シーズンラボ,0
2031,8360001035828,新規,0,2025-09-30,2025-09-30,シーセキュア株式会社,,株式会社,沖縄県,那覇市,久茂地３丁目２６番３２号ＹＳＣビル２０２,,47,201,9000015,,,,,,,2025-09-30,1,,,,,シーセキュア,0
2041,8430001095278,新規,0,2025-09-30,2025-09-30,株式会社ＦＥＸＴ,,株式会社,北海道,札幌市中央区,南一条西１６丁目１番地３２３春野ビル３Ｆ,,01,101,0600061,,,,,,,2025-09-30,1,,,,,エフエクスト,0
2042,8430001095286,新規,0,2025-09-30,2025-09-30,株式会社ＲＥ‐ワークス,,株式会社,北海道,札幌市白石区,東札幌六条３丁目１番６０－１１０２号,,01,104,0030006,,,,,,,2025-09-30,1,,,,,リワークス,0
2043,8430001095360,新規,0,2025-09-30,2025-09-30,株式会社味楽カンパニー,,株式会社,北海道,札幌市北区,北二十四条西４丁目１番１７号北２４条ＫＨビル５階左,,01,102,0010024,,,,,,,2025-09-30,1,,,,,ミラクカンパニー,0
2046,8440001009690,新規,0,2025-09-30,2025-09-30,株式会社奥尻ばんえいファーム,,株式会社,北海道,奥尻郡奥尻町,字富里２９８番地１７,,01,367,0431522,,,,,,,2025-09-30,1,,,,,オクシリバンエイファーム,0
2049,8490003002045,新規,0,2025-09-30,2025-09-30,合同会社いのちの環ゆいまーる,,合同会社,高知県,香南市,野市町西野１７３３－４,,39,211,7815232,,,,,,,2025-09-30,1,,,,,イノチノワユイマール,0
2063,9010003048820,新規,0,2025-09-30,2025-09-30,合同会社ＳＰＣ１２,,合同会社,東京都,千代田区,平河町１丁目６番１５号シルスフィア会計事務所内,,13,101,1020093,,,,,,,2025-09-30,1,,,,,エスピーシートゥエルブ,0
2068,9010103002652,新規,0,2025-09-30,2025-09-30,弥勒ＡＩ神道合同会社,,合同会社,東京都,八王子市,子安町１丁目４８番９号２０２号室,,13,201,1920904,,,,,,,2025-09-30,1,,,,,ミロクエーアイシンドウ,0
2074,9010401193185,新規,0,2025-09-30,2025-09-30,株式会社ペアプロ,,株式会社,東京都,港区,芝浦４丁目２１－１,,13,103,1080023,,,,,,,2025-09-30,1,,,,,ペアプロ,0
2075,9010401193276,新規,0,2025-09-30,2025-09-30,株式会社マーズカルチャー・ジャパン・テックメディア,,株式会社,東京都,港区,虎ノ門４丁目１－４０江戸見坂森ビル,,13,103,1050001,,,,,,,2025-09-30,1,,,,,マーズカルチャージャパンテックメディア,0
2076,9010401193359,新規,0,2025-09-30,2025-09-30,Ｍｏｔｏｒ　Ｐｒｏｄｕｃｔｉｏｎ株式会社,,株式会社,東京都,港区,北青山１丁目３番１号アールキューブ青山３階,,13,103,1070061,,,,,,,2025-09-30,1,,,,,モータープロダクション,0
2077,9010401193400,新規,0,2025-09-30,2025-09-30,ホワイト・ブライド株式会社,,株式会社,東京都,港区,南青山４丁目１８番１１号フォレストヒルズイーストウィング２Ｆ,,13,103,1070062,,,,,,,2025-09-30,1,,,,,ホワイトプライド,0
2079,9010403035988,新規,0,2025-09-30,2025-09-30,ソラリス合同会社,,合同会社,東京都,港区,南青山２丁目２番１５号,,13,103,1070062,,,,,,,2025-09-30,1,,,,,ソラリス,0
2080,9010405024824,新規,0,2025-09-30,2025-09-30,一般社団法人Ｐｌａｔｉｎｕｍ,,その他の設立登記法人,東京都,港区,元赤坂１丁目１番７－１２０９号株式会社赤坂国際会計内,,13,103,1070051,,,,,,,2025-09-30,1,,,,,プラチナ,0
2081,9010503008010,新規,0,2025-09-30,2025-09-30,士魂商才合同会社,,合同会社,東京都,台東区,松が谷３丁目１６番６号,,13,106,1110036,,,,,,,2025-09-30,1,,,,,シコンショウサイ,0
2087,9010801036596,新規,0,2025-09-30,2025-09-30,ＨＡＲＵ　ＤＥＳＩＧＮ株式会社,,株式会社,東京都,大田区,上池台５丁目２４番７号ティーズビューエミネンス２０１,,13,111,1450064,,,,,,,2025-09-30,1,,,,,ハルデザイン,0
2091,9010905004846,新規,0,2025-09-30,2025-09-30,一般社団法人風景とコトバ,,その他の設立登記法人,東京都,世田谷区,船橋７丁目８番２号,,13,112,1560055,,,,,,,2025-09-30,1,,,,,フウケイトコトバ,0
2096,9011003022484,新規,0,2025-09-30,2025-09-30,合同会社Ｒｏｋｕｄｅｎａｓｈｉ,,合同会社,東京都,渋谷区,千駄ヶ谷１丁目３１番１０号セシア千駄ヶ谷ビル３階,,13,113,1510051,,,,,,,2025-09-30,1,,,,,ロクデナシ,0
2110,9012401043642,新規,0,2025-09-30,2025-09-30,新田中建機株式会社,,株式会社,東京都,調布市,富士見町４丁目２９番地１５,,13,208,1820033,,,,,,,2025-09-30,1,,,,,シンタナカケンキ,0
2112,9012403007356,新規,0,2025-09-30,2025-09-30,合同会社戸田屋,,合同会社,東京都,武蔵野市,西久保１丁目２９番－１５号,,13,203,1800013,,,,,,,2025-09-30,1,,,,,トダヤ,0
2113,9012701019103,新規,0,2025-09-30,2025-09-30,株式会社ＩＣＯＮＩＱ　Ｉｎｖｅｓｔｍｅｎｔ,,株式会社,東京都,西東京市,田無町５丁目１１－１３－２０８,,13,229,1880011,,,,,,,2025-09-30,1,,,,,アイコニックインベストメント,0
2121,9020001164841,新規,0,2025-09-30,2025-09-30,株式会社かねだい横浜立川,,株式会社,神奈川県,横浜市中区,曙町１丁目５番,,14,104,2310057,,,,,,,2025-09-30,1,,,,,,0
2122,9020001164874,新規,0,2025-09-30,2025-09-30,株式会社ＥＭＳｔｙｌｅ,,株式会社,神奈川県,横浜市緑区,いぶき野２７－１５－１０４,,14,113,2260028,,,,,,,2025-09-30,1,,,,,エムスタイル,0
2123,9020001164882,新規,0,2025-09-30,2025-09-30,株式会社エレクス,,株式会社,神奈川県,川崎市川崎区,台町８番１６－１０３号,,14,131,2100814,,,,,,,2025-09-30,1,,,,,エレクス,0
2128,9021001086266,新規,0,2025-09-30,2025-09-30,株式会社Ｍａｖｒｉｃａ,,株式会社,神奈川県,相模原市緑区,寸沢嵐１１３４番地１１,,14,151,2520176,,,,,,,2025-09-30,1,,,,,マヴリカ,0
2129,9021001086324,新規,0,2025-09-30,2025-09-30,株式会社ルリビカロン,,株式会社,神奈川県,平塚市,八重咲町４番４号,,14,203,2540811,,,,,,,2025-09-30,1,,,,,ルリビカロン,0
2137,9030001168767,新規,0,2025-09-30,2025-09-30,株式会社エバーグリーン,,株式会社,埼玉県,さいたま市岩槻区,大字飯塚１０２０番地３０,,11,110,3390031,,,,,,,2025-09-30,1,,,,,エバーグリーン,0
2138,9030001168817,新規,0,2025-09-30,2025-09-30,金丸株式会社,,株式会社,埼玉県,川口市,並木１丁目３－５－１０４号,,11,203,3320034,,,,,,,2025-09-30,1,,,,,キンマル,0
2139,9030001168825,新規,0,2025-09-30,2025-09-30,ＭＵＳＡ　ＴＲＡＤＥＲＳ株式会社,,株式会社,埼玉県,さいたま市見沼区,大字大谷１５４８番地１９南平台コーポ２０５号室,,11,104,3370014,,,,,,,2025-09-30,1,,,,,ムサトレーダーズ,0
2145,9030003027509,新規,0,2025-09-30,2025-09-30,合同会社ＴＫＫ,,合同会社,埼玉県,桶川市,末広２丁目１１番５号コスモ桶川１０６号,,11,231,3630012,,,,,,,2025-09-30,1,,,,,ティーケーケー,0
2146,9030003027715,新規,0,2025-09-30,2025-09-30,マリクトレーディング合同会社,,合同会社,埼玉県,八潮市,大字鶴ケ曽根８２２－５マチダソウＡ棟１０１号,,11,234,3400802,,,,,,,2025-09-30,1,,,,,マリクトレーディング,0
2150,9040001140543,新規,0,2025-09-30,2025-09-30,株式会社Ｏｈａｎａ　Ｃｏ．,,株式会社,千葉県,木更津市,請西２丁目２５番１９号,,12,206,2920801,,,,,,,2025-09-30,1,,,,,オハナコーポレーション,0
2151,9040001140650,新規,0,2025-09-30,2025-09-30,株式会社Ｏｒｏｖｉａ,,株式会社,千葉県,千葉市花見川区,幕張本郷３丁目２９番１７－１号,,12,102,2620033,,,,,,,2025-09-30,1,,,,,オロヴィア,0
2152,9040001140790,新規,0,2025-09-30,2025-09-30,株式会社はるいと,,株式会社,千葉県,市川市,妙典３丁目１１番２０号,,12,203,2720111,,,,,,,2025-09-30,1,,,,,ハルイト,0
2154,9050001057332,新規,0,2025-09-30,2025-09-30,株式会社ＡＭＩ,,株式会社,茨城県,取手市,取手２丁目１０番１５号ナガタニビル１Ａ,,08,217,3020004,,,,,,,2025-09-30,1,,,,,アミ,0
2158,9070003006120,新規,0,2025-09-30,2025-09-30,ＭＥＥＲＡＮ　Ｇ　ＴＲＡＤＥＲＳ合同会社,,合同会社,群馬県,前橋市,石倉町３丁目１４番地８グリーンハイツ石倉Ａ－２０１,,10,201,3710841,,,,,,,2025-09-30,1,,,,,ミランジトレーダース,0
2162,9080001027167,新規,0,2025-09-30,2025-09-30,瑞豊株式会社,,株式会社,静岡県,静岡市葵区,七間町５番地の１チサンマンション七間町３０１,,22,101,4200035,,,,,,,2025-09-30,1,,,,,ズイホウ,0
2163,9080101025806,新規,0,2025-09-30,2025-09-30,株式会社ＴＡＭＡＲＵ,,株式会社,静岡県,富士市,蓼原２４３番地の１,,22,210,4160931,,,,,,,2025-09-30,1,,,,,タマル,0
2170,9110001039588,新規,0,2025-09-30,2025-09-30,株式会社Ｎｏｎｂｏｘ　Ｖ,,株式会社,新潟県,新潟市東区,紫竹山６－３－５,,15,102,9500000,,,,,,,2025-09-30,1,,,,,ノンボックスヴィ,0
2187,9120001280075,新規,0,2025-09-30,2025-09-30,九州株式会社,,株式会社,大阪府,大阪市大正区,小林西２丁目１５番３－２１０号,,27,108,5510013,,,,,,,2025-09-30,1,,,,,キュウシュウ,0
2188,9120001280091,新規,0,2025-09-30,2025-09-30,博鴻株式会社,,株式会社,大阪府,大阪市東住吉区,湯里５丁目１６番地５号２Ｆ－Ｈ,,27,121,5460013,,,,,,,2025-09-30,1,,,,,ハクコウ,0
2189,9120001280109,新規,0,2025-09-30,2025-09-30,ＨＡＲＩＢＥＥ株式会社,,株式会社,大阪府,大阪市中央区,備後町３丁目１－２レアビル７階,,27,128,5410051,,,,,,,2025-09-30,1,,,,,ハリビー,0
2190,9120001280117,新規,0,2025-09-30,2025-09-30,株式会社マッチモー,,株式会社,大阪府,大阪市住之江区,西住之江１丁目８番２０号カーサフェリーチェ１０２号,,27,125,5590005,,,,,,,2025-09-30,1,,,,,マッチモー,0
2194,9120003030742,新規,0,2025-09-30,2025-09-30,合同会社ＨＡＫＵＳＨＩ,,合同会社,大阪府,枚方市,枚方元町４－７９,,27,210,5730052,,,,,,,2025-09-30,1,,,,,ハクシ,0
2195,9120005025179,新規,0,2025-09-30,2025-09-30,一般社団法人日本語学校経営者協会,,その他の設立登記法人,大阪府,大阪市生野区,巽西３丁目１６番１８－４０１号,,27,116,5440012,,,,,,,2025-09-30,1,,,,,ニホンゴガッコウケイエイシャキョウカイ,0
2202,9120901051468,新規,0,2025-09-30,2025-09-30,株式会社Ｌｉｍｏ,,株式会社,大阪府,吹田市,南吹田１丁目１１－１,,27,205,5640043,,,,,,,2025-09-30,1,,,,,,0
2205,9122003003323,新規,0,2025-09-30,2025-09-30,合同会社ジュール,,合同会社,大阪府,八尾市,南本町１丁目４番１１号メゾン清水４Ｃ号,,27,212,5810081,,,,,,,2025-09-30,1,,,,,ジュール,0
2207,9130001080623,新規,0,2025-09-30,2025-09-30,株式会社ＳＥＮ　ａｕｔｏｓ,,株式会社,京都府,綴喜郡宇治田原町,大字岩山小字畠田７０番地の１,,26,344,6100261,,,,,,,2025-09-30,1,,,,,センオートス,0
2208,9130001080656,新規,0,2025-09-30,2025-09-30,株式会社Ｖｉｋｕｓ,,株式会社,京都府,城陽市,水主塚ノ木１３番地１１,,26,207,6100118,,,,,,,2025-09-30,1,,,,,ヴィクス,0
2214,9140001140137,新規,0,2025-09-30,2025-09-30,マスト株式会社,,株式会社,兵庫県,西宮市,老松町１３番２４－３０３号,,28,204,6620085,,,,,,,2025-09-30,1,,,,,マスト,0
2216,9160001027084,新規,0,2025-09-30,2025-09-30,株式会社トラストワン,,株式会社,滋賀県,彦根市,犬方町８４５番地２３,,25,202,5220236,,,,,,,2025-09-30,1,,,,,トラストワン,0
2222,9180001168802,新規,0,2025-09-30,2025-09-30,ＡＬ　ＮＯＯＲ　ＴＲＡＤＩＮＧ株式会社,,株式会社,愛知県,大府市,共和町茶屋４７番地の４７１,,23,223,4740057,,,,,,,2025-09-30,1,,,,,アルヌールトレーディング,0
2225,9180003029093,新規,0,2025-09-30,2025-09-30,ライスアセットマネジメント合同会社,,合同会社,愛知県,名古屋市北区,金城３丁目６番６号メイツ名城公園１００１号,,23,103,4620847,,,,,,,2025-09-30,1,,,,,ライスアセットマネジメント,0
2226,9180003029102,新規,0,2025-09-30,2025-09-30,合同会社樋口建設工業,,合同会社,愛知県,名古屋市熱田区,新尾頭３丁目１番４号,,23,109,4560018,,,,,,,2025-09-30,1,,,,,ヒグチケンセツコウギョウ,0
2227,9180003029110,新規,0,2025-09-30,2025-09-30,合同会社とぅえるぶ,,合同会社,愛知県,日進市,蟹甲町中屋敷４９９番地３,,23,230,4700122,,,,,,,2025-09-30,1,,,,,トゥエルブ,0
2228,9180003029127,新規,0,2025-09-30,2025-09-30,キシノリタカ合同会社,,合同会社,愛知県,名古屋市西区,那古野２丁目７番１７号,,23,104,4510042,,,,,,,2025-09-30,1,,,,,キシノリタカ,0
2235,9180301040248,新規,0,2025-09-30,2025-09-30,株式会社ＳＡＳ,,株式会社,愛知県,刈谷市,東陽町３丁目５８番地１,,23,210,4480842,,,,,,,2025-09-30,1,,,,,エスエイエス,0
2237,9180303006750,新規,0,2025-09-30,2025-09-30,９７２ＫＭ合同会社,,合同会社,愛知県,知立市,新富１丁目１５,,23,225,4720047,,,,,,,2025-09-30,1,,,,,ナインセイバンテューケーアム,0
2238,9190003005201,新規,0,2025-09-30,2025-09-30,合同会社ＡＩＤ,,合同会社,三重県,三重郡川越町,大字豊田一色２０５番地７,,24,344,5108123,,,,,,,2025-09-30,1,,,,,エイド,0
2240,9200005013803,新規,0,2025-09-30,2025-09-30,一般社団法人三ツ池区事務局,,その他の設立登記法人,岐阜県,各務原市,鵜沼三ツ池町６丁目１６７番地,,21,213,5090146,,,,,,,2025-09-30,1,,,,,ミツイケクジムキョク,0
2242,9220001026939,新規,0,2025-09-30,2025-09-30,株式会社ヨネモリホールディングス,,株式会社,石川県,能美市,灯台笹町８２２番地,,17,211,9231206,,,,,,,2025-09-30,1,,,,,ヨネモリホールディングス,0
2247,9230001021105,新規,0,2025-09-30,2025-09-30,株式会社西村不動産,,株式会社,富山県,富山市,芝園町１丁目６番６号,,16,201,9300097,,,,,,,2025-09-30,1,,,,,ニシムラフドウサン,0
2250,9240003007423,新規,0,2025-09-30,2025-09-30,合同会社ＴＨＥ　ＧＲＥＡＴ　ＲＥＳＩＤＥＮＣＥ,,合同会社,広島県,広島市中区,大手町２丁目２番９号２Ｆ,,34,101,7300051,,,,,,,2025-09-30,1,,,,,ザグレイトレジデンス,0
2252,9260003005359,新規,0,2025-09-30,2025-09-30,Ａｗａｎ　Ａｕｔｏｓ合同会社,,合同会社,岡山県,瀬戸内市,長船町福岡５６０－８,,33,212,7014265,,,,,,,2025-09-30,1,,,,,アワンオートス,0
2253,9270001009286,新規,0,2025-09-30,2025-09-30,株式会社リベルシア,,株式会社,鳥取県,米子市,淀江町佐陀１０７７番地１５,,31,202,6893425,,,,,,,2025-09-30,1,,,,,リベルシア,0
2263,9290801031883,新規,0,2025-09-30,2025-09-30,株式会社リーチラボ,,株式会社,福岡県,行橋市,大字二塚１２番地２,,40,213,8240067,,,,,,,2025-09-30,1,,,,,リーチラボ,0
2266,9320003004783,新規,0,2025-09-30,2025-09-30,合同会社Ｌｉｎｋ‐Ａ,,合同会社,大分県,大分市,大字駄原２０８５番地の３,,44,201,8700100,,,,,,,2025-09-30,1,,,,,リンクエー,0
2268,9330003011234,新規,0,2025-09-30,2025-09-30,ＭＩＡ　ＴＲＡＤＩＮＧ合同会社,,合同会社,熊本県,熊本市北区,龍田弓削１丁目１５－５３,,43,105,8618007,,,,,,,2025-09-30,1,,,,,ミアトレーディング,0
2270,9340005009911,新規,0,2025-09-30,2025-09-30,特定非営利活動法人マイアミ通りまちづくりコネクト,,その他の設立登記法人,鹿児島県,鹿児島市,住吉町１番３号,,46,201,8920823,,,,,,,2025-09-30,1,,,,,マイアミドオリマチヅクリコネクト,0
2274,9360003015281,新規,0,2025-09-30,2025-09-30,ヨシ合同会社,,合同会社,沖縄県,中頭郡北中城村,字島袋２４０番地５,,47,327,9012301,,,,,,,2025-09-30,1,,,,,ヨシ,0
2275,9370001053076,新規,0,2025-09-30,2025-09-30,株式会社ＢｔｏＢ,,株式会社,宮城県,仙台市宮城野区,岩切字洞ノ口９７番地の２,,04,102,9830821,,,,,,,2025-09-30,1,,,,,ビーツービー,0
2276,9370003007303,新規,0,2025-09-30,2025-09-30,合同会社ＳＬＡＮＧ,,合同会社,宮城県,仙台市青葉区,上杉２丁目４番３０－１３０２号,,04,101,9800011,,,,,,,2025-09-30,1,,,,,スラング,0
2290,9430001095260,新規,0,2025-09-30,2025-09-30,株式会社クロスマスターズ,,株式会社,北海道,札幌市手稲区,西宮の沢二条３丁目１１番１４号,,01,109,0060002,,,,,,,2025-09-30,1,,,,,クロスマスターズ,0
2291,9430001095285,新規,0,2025-09-30,2025-09-30,株式会社エイチ,,株式会社,北海道,滝川市,栄町３丁目８番１号,,01,225,0730031,,,,,,,2025-09-30,1,,,,,エイチ,0
2292,9430003018112,新規,0,2025-09-30,2025-09-30,合同会社工藤商事,,合同会社,北海道,登別市,鷲別町６丁目３９番地６,,01,230,0590034,,,,,,,2025-09-30,1,,,,,クドウショウジ,0
2294,9430005015322,新規,0,2025-09-30,2025-09-30,医療法人社団エレガントスマイル,,その他の設立登記法人,北海道,北広島市,北進町１丁目２番６号七番街ビル５階,,01,234,0611132,,,,,,,2025-09-30,1,,,,,エレガントスマイル,0
2296,9480003002326,新規,0,2025-09-30,2025-09-30,モノリンク合同会社,,合同会社,徳島県,吉野川市,山川町諏訪２５７番地２９,,36,205,7793403,,,,,,,2025-09-30,1,,,,,モノリンク,0
