sequenceNumber,corporateNumber,process,correct,updateDate,changeDate,name,nameImageId,kind,prefectureName,cityName,streetNumber,addressImageId,prefectureCode,cityCode,postCode,addressOutside,addressOutsideImageId,closeDate,closeCause,successorCorporateNumber,changeCause,assignmentDate,latest,enName,enPrefectureName,enCityName,enAddressOutside,furigana,hihyoji
15,1010001258098,新規,0,2025-09-03,2025-09-03,ＳｐｒｉｎｇＣａｐｉｔａｌ株式会社,,株式会社,東京都,中央区,銀座７丁目１３番６号サガミビル２階,,13,102,1040061,,,,,,,2025-09-03,1,,,,,スプリングキャピタル,0
16,1010001258148,新規,0,2025-09-03,2025-09-03,株式会社Ｂｒｉｌｌｉａｎｔ,,株式会社,東京都,中央区,日本橋中洲５番１－４０６号,,13,102,1030008,,,,,,,2025-09-03,1,,,,,ブリリアント,0
17,1010001258164,新規,0,2025-09-03,2025-09-03,株式会社ＡＩテロメアサイエンス,,株式会社,東京都,中央区,銀座６丁目１４番５号東武銀座第１ビル,,13,102,1040061,,,,,,,2025-09-03,1,,,,,エーアイテロメアサイエンス,0
21,1010003048588,新規,0,2025-09-03,2025-09-03,合同会社和顔施,,合同会社,東京都,中央区,銀座７丁目１３番２０号銀座ＴＨビル９階,,13,102,1040061,,,,,,,2025-09-03,1,,,,,ワゲンセ,0
23,1010005040618,新規,0,2025-09-03,2025-09-03,一般社団法人Ｄｉｆｙ協会,,その他の設立登記法人,東京都,中央区,日本橋３丁目６番２号,,13,102,1030027,,,,,,,2025-09-03,1,,,,,ディファイキョウカイ,0
24,1010103002643,新規,0,2025-09-03,2025-09-03,合同会社ＳＩＩＴＡＫＥＳＨＯＰ,,合同会社,東京都,八王子市,長沼町１３４－３３４長沼町事務所１階Ｈ号室,,13,201,1920907,,,,,,,2025-09-03,1,,,,,シイタケショップ,0
36,1010903010234,新規,0,2025-09-03,2025-09-03,合同会社アーバンホープ,,合同会社,東京都,世田谷区,船橋５丁目９番３号,,13,112,1560055,,,,,,,2025-09-03,1,,,,,アーバンホープ,0
44,1011001171654,新規,0,2025-09-03,2025-09-03,株式会社Ｒｉｎ,,株式会社,東京都,目黒区,東山１丁目２１番２０‐５０６号上目黒マンション,,13,110,1530043,,,,,,,2025-09-03,1,,,,,リン,0
46,1011003022475,新規,0,2025-09-03,2025-09-03,合同会社おおなみこなみ,,合同会社,東京都,渋谷区,道玄坂１丁目１０番８号渋谷道玄坂東急ビル２Ｆ‐Ｃ,,13,113,1500043,,,,,,,2025-09-03,1,,,,,オオナミコナミ,0
49,1011201026609,新規,0,2025-09-03,2025-09-03,株式会社ｃｏｎｏｈａｎａ,,株式会社,東京都,中野区,若宮１丁目４９－１,,13,114,1650033,,,,,,,2025-09-03,1,,,,,コノハナ,0
50,1011303005700,新規,0,2025-09-03,2025-09-03,合同会社古森商事,,合同会社,東京都,杉並区,今川１丁目８―１４,,13,115,1670035,,,,,,,2025-09-03,1,,,,,コモリショウジ,0
51,1011305003066,新規,0,2025-09-03,2025-09-03,一般社団法人住宅業界ＡＩ活用推進機構,,その他の設立登記法人,東京都,杉並区,阿佐谷南１丁目１８番６号第７スカイビル２０１,,13,115,1660004,,,,,,,2025-09-03,1,,,,,ジュウタクギョウカイエーアイカツヨウスイシンキコウ,0
58,1011603004823,新規,0,2025-09-03,2025-09-03,ＵＣＨＩＤＡ商店合同会社,,合同会社,東京都,練馬区,関町北５丁目１９－２６－２０１,,13,120,1770051,,,,,,,2025-09-03,1,,,,,ウチダショウテン,0
62,1011805003474,新規,0,2025-09-03,2025-09-03,一般社団法人Ａｌｆａｇｉａグループ,,その他の設立登記法人,東京都,葛飾区,宝町１丁目２番９号,,13,122,1240005,,,,,,,2025-09-03,1,,,,,アルファジアグループ,0
69,1012803003854,新規,0,2025-09-03,2025-09-03,合同会社Ｍｉｒｅａ,,合同会社,東京都,昭島市,朝日町４丁目１０－１３,,13,207,1960025,,,,,,,2025-09-03,1,,,,,ミレア,0
70,1013103001482,新規,0,2025-09-03,2025-09-03,合同会社Ｙ・Ｚ,,合同会社,東京都,西多摩郡瑞穂町,大字石畑１５９２番地１２,,13,303,1901211,,,,,,,2025-09-03,1,,,,,ワイジー,0
83,1021003016344,新規,0,2025-09-03,2025-09-03,ＡＩＭＡＲＫ合同会社,,合同会社,神奈川県,厚木市,下川入３０９番５号シンフォニー２０１,,14,212,2430206,,,,,,,2025-09-03,1,,,,,アイマーク,0
84,1021003016526,新規,0,2025-09-03,2025-09-03,グランデ・ナトゥーラ合同会社,,合同会社,神奈川県,足柄上郡山北町,山北９３１番地１２,,14,364,2580113,,,,,,,2025-09-03,1,,,,,グランデナトゥーラ,0
88,1030001168386,新規,0,2025-09-03,2025-09-03,株式会社ＷＥＶＯ,,株式会社,埼玉県,所沢市,小手指町１丁目６番地小手指タワーズディアスカイタワー１３０４,,11,208,3591141,,,,,,,2025-09-03,1,,,,,ウィーボ,0
91,1030003027425,新規,0,2025-09-03,2025-09-03,合同会社クリアストレージ,,合同会社,埼玉県,鴻巣市,鴻巣１１８６－８,,11,217,3650028,,,,,,,2025-09-03,1,,,,,クリアストレージ,0
92,1030003027466,新規,0,2025-09-03,2025-09-03,合同会社フジ,,合同会社,埼玉県,さいたま市岩槻区,西町２丁目２番１４号,,11,110,3390067,,,,,,,2025-09-03,1,,,,,フジ,0
93,1030003027499,新規,0,2025-09-03,2025-09-03,ＢＳＩ合同会社,,合同会社,埼玉県,春日部市,永沼５８５－１,,11,214,3440123,,,,,,,2025-09-03,1,,,,,ビーエスアイ,0
99,1040001139980,新規,0,2025-09-03,2025-09-03,ＴＲＩＰＯＲＴ株式会社,,株式会社,千葉県,松戸市,馬橋３０５８番地マンション南松戸３０１号,,12,207,2710051,,,,,,,2025-09-03,1,,,,,トリポート,0
100,1040001140286,新規,0,2025-09-03,2025-09-03,株式会社ＧｌｏｗＮｅｘｕｓ,,株式会社,千葉県,佐倉市,上志津１０７６番地４４,,12,212,2850846,,,,,,,2025-09-03,1,,,,,グロウネクサス,0
102,1040003028315,新規,0,2025-09-03,2025-09-03,合同会社しばにゃん動画編集,,合同会社,千葉県,船橋市,海神２丁目１０番１８号ＮＳハイム１０４号,,12,204,2730021,,,,,,,2025-09-03,1,,,,,シバニャンドウガヘンシュウ,0
107,1070001043321,新規,0,2025-09-03,2025-09-03,株式会社Ｇｏｏｄ　Ｌｕｃｋ　Ｈｏｍｅ,,株式会社,群馬県,北群馬郡吉岡町,大字北下５９５番地５,,10,345,3703605,,,,,,,2025-09-03,1,,,,,,0
110,1080001027117,新規,0,2025-09-03,2025-09-03,株式会社Ｔｕｒｅｉｓ,,株式会社,静岡県,静岡市清水区,高橋３丁目２番３４号,,22,103,4240041,,,,,,,2025-09-03,1,,,,,トゥレイス,0
111,1080001027125,新規,0,2025-09-03,2025-09-03,大井川ホテルマネジメント株式会社,,株式会社,静岡県,島田市,川根町笹間渡１９５番地の１,,22,209,4280101,,,,,,,2025-09-03,1,,,,,オオイガワホテルマネジメント,0
113,1080401028136,新規,0,2025-09-03,2025-09-03,株式会社ＳＳＷＯＲＫ,,株式会社,静岡県,浜松市中央区,海老塚１丁目９番ハイレジデンス浜松３０５号,,22,138,4328033,,,,,,,2025-09-03,1,,,,,エスエスワーク,0
114,1080401028144,新規,0,2025-09-03,2025-09-03,株式会社二美ビル開発,,株式会社,静岡県,浜松市中央区,青屋町６８６番地の１,,22,138,4350037,,,,,,,2025-09-03,1,,,,,フタミビルカイハツ,0
115,1080401028152,新規,0,2025-09-03,2025-09-03,ＲＥＮＯＭＡ　ＪＡＰＡＮ株式会社,,株式会社,静岡県,浜松市中央区,下石田町１７５０－１ＢＲＡＶＯＥＡＳＴ,,22,138,4350006,,,,,,,2025-09-03,1,,,,,レノマジャパン,0
120,1110001039546,新規,0,2025-09-03,2025-09-03,株式会社タカツカ農園,,株式会社,新潟県,新潟市秋葉区,善道町２丁目１１番２９号,,15,105,9560865,,,,,,,2025-09-03,1,,,,,タカツカノウエン,0
122,1110003005868,新規,0,2025-09-03,2025-09-03,合同会社ゆおも,,合同会社,新潟県,新潟市西区,山田６７８番地１２斉藤貸家２０７号,,15,107,9501101,,,,,,,2025-09-03,1,,,,,ユオモ,0
123,1110003005876,新規,0,2025-09-03,2025-09-03,合同会社ｎｅｓｔ,,合同会社,新潟県,新潟市中央区,南笹口１丁目１－３８コープオリンピア８０８,,15,103,9500912,,,,,,,2025-09-03,1,,,,,ネスト,0
126,1120001279034,新規,0,2025-09-03,2025-09-03,株式会社ＧｅｎｕｉｎｅＤｅｓｉｇｎ,,株式会社,大阪府,大阪市北区,大深町６番３８号,,27,127,5300011,,,,,,,2025-09-03,1,,,,,ジェニュインデザイン,0
127,1120001279257,新規,0,2025-09-03,2025-09-03,のぞみ株式会社,,株式会社,大阪府,大阪市中央区,本町２丁目３番４号,,27,128,5410053,,,,,,,2025-09-03,1,,,,,ノゾミ,0
128,1120001279273,新規,0,2025-09-03,2025-09-03,ＡＫｒｏｓ　Ｃｒｅａｔｉｖｅ　Ｌａｂ株式会社,,株式会社,大阪府,大阪市城東区,古市２丁目９－４９ウィズパークス大阪アクアコート１０５号室,,27,118,5360001,,,,,,,2025-09-03,1,,,,,アクロスクリエイティブラボ,0
129,1120001279281,新規,0,2025-09-03,2025-09-03,株式会社Ｕ‐ｈｏｕｓｅ,,株式会社,大阪府,大阪市都島区,都島本通４丁目１６番１１－５０２号ドリーマー２１,,27,102,5340021,,,,,,,2025-09-03,1,,,,,ユーハウス,0
133,1120003030428,新規,0,2025-09-03,2025-09-03,合同会社ＴｗｉｎＬｉｎｋ,,合同会社,大阪府,大阪市北区,梅田１丁目２番２号大阪駅前第２ビル１２－１２,,27,127,5300001,,,,,,,2025-09-03,1,,,,,ツインリンク,0
134,1120003030444,新規,0,2025-09-03,2025-09-03,合同会社ＢＲＩＤＧＩＸ,,合同会社,大阪府,大阪市生野区,巽中１丁目１２番２４－Ｂ６号,,27,116,5440013,,,,,,,2025-09-03,1,,,,,ブリジックス,0
139,1120103006674,新規,0,2025-09-03,2025-09-03,合同会社ユウシン,,合同会社,大阪府,堺市東区,高松８６番地ヴィスタシア２０７号,,27,143,5998121,,,,,,,2025-09-03,1,,,,,ユウシン,0
147,1140001139839,新規,0,2025-09-03,2025-09-03,株式会社ＶＩＤＡ,,株式会社,兵庫県,宝塚市,安倉南１丁目１７番２０号ハロービズストレージ宝塚安倉南２号室,00140499,28,214,6650823,,,,,,,2025-09-03,1,,,,,ヴィーダ,0
151,1150003003694,新規,0,2025-09-03,2025-09-03,合同会社ＬＬＬ,,合同会社,奈良県,香芝市,上中８４１番地６,,29,210,6390265,,,,,,,2025-09-03,1,,,,,エル,0
154,1180001168371,新規,0,2025-09-03,2025-09-03,株式会社ＡＳＳＯＣｉＡ,,株式会社,愛知県,半田市,柊町３丁目７番地２９,,23,205,4750916,,,,,,,2025-09-03,1,,,,,アソシア,0
155,1180001168454,新規,0,2025-09-03,2025-09-03,株式会社いただきます,,株式会社,愛知県,名古屋市中区,栄４丁目１４番２１号愛旅連ビル１Ｆ,,23,106,4600008,,,,,,,2025-09-03,1,,,,,イタダキマス,0
156,1180001168462,新規,0,2025-09-03,2025-09-03,株式会社Ｋｏｍｉｎｋａ　Ｃｏｌｌｅｃｔｉｖｅ,,株式会社,愛知県,尾張旭市,旭台３丁目２０番地４,,23,226,4880001,,,,,,,2025-09-03,1,,,,,コミンカコレクティブ,0
159,1180003028961,新規,0,2025-09-03,2025-09-03,Ｔ＆Ｂ合同会社,,合同会社,愛知県,名古屋市千種区,吹上１丁目４番８号クレアコート吹上３０２号,,23,101,4640856,,,,,,,2025-09-03,1,,,,,ティーアンドビー,0
162,1180301040172,新規,0,2025-09-03,2025-09-03,株式会社あそぼまい,,株式会社,愛知県,豊田市,緑ケ丘３丁目１番地１,,23,211,4710838,,,,,,,2025-09-03,1,,,,,アソボマイ,0
163,1200001044181,新規,0,2025-09-03,2025-09-03,株式会社ダイカＨＤ,,株式会社,岐阜県,大垣市,宮町１丁目２３番地,,21,202,5030905,,,,,,,2025-09-03,1,,,,,ダイカホールディングス,0
164,1200003006989,新規,0,2025-09-03,2025-09-03,ＳＨＩＡＷＡＳＥ　ＳＵＰＰＯＲＴ　ＨＯＵＳＥ合同会社,,合同会社,岐阜県,美濃加茂市,牧野２２５２－２,,21,211,5050016,,,,,,,2025-09-03,1,,,,,シアワセサポートハウス,0
165,1200003007005,新規,0,2025-09-03,2025-09-03,テクノネスト合同会社,,合同会社,岐阜県,土岐市,土岐ヶ丘４丁目３番地の６４,,21,212,5095127,,,,,,,2025-09-03,1,,,,,テクノネスト,0
171,1220003004108,新規,0,2025-09-03,2025-09-03,Ｃｏｃｏｌｌａｇｅ合同会社,,合同会社,石川県,小松市,那谷町サ４９番地,,17,203,9230336,,,,,,,2025-09-03,1,,,,,ココラージュ,0
173,1230001021062,新規,0,2025-09-03,2025-09-03,株式会社Ｚｕ,,株式会社,富山県,魚津市,上口２丁目１８番５号,,16,204,9370865,,,,,,,2025-09-03,1,,,,,ゼットユー,0
177,1240001065430,新規,0,2025-09-03,2025-09-03,株式会社無垂円,,株式会社,広島県,三次市,三良坂町三良坂５０３６番地３,,34,209,7294304,,,,,,,2025-09-03,1,,,,,ムスイエン,0
178,1240001065447,新規,0,2025-09-03,2025-09-03,景山商事株式会社,,株式会社,広島県,東広島市,西条町下三永１０７３０番地２９２,,34,212,7390023,,,,,,,2025-09-03,1,,,,,カゲヤマショウジ,0
179,1240003007380,新規,0,2025-09-03,2025-09-03,合同会社ＡＳＫワークス,,合同会社,広島県,広島市安佐北区,あさひが丘６丁目９番２４号,,34,106,7313361,,,,,,,2025-09-03,1,,,,,アスクワークス,0
186,1250001021317,新規,0,2025-09-03,2025-09-03,株式会社ぴーまんさいこぅ,,株式会社,山口県,下関市,松屋東町２丁目９番１７号,,35,201,7501123,,,,,,,2025-09-03,1,,,,,ピーマンサイコゥ,0
189,1270001009277,新規,0,2025-09-03,2025-09-03,株式会社ＳＯＬＩＮＸ,,株式会社,鳥取県,岩美郡岩美町,大字浦富１３５８番地５,,31,302,6810003,,,,,,,2025-09-03,1,,,,,ソリンクス,0
190,1280001009499,新規,0,2025-09-03,2025-09-03,株式会社ＭＲＵ,,株式会社,島根県,松江市,東出雲町錦浜５８３番地２３,,32,201,6990109,,,,,,,2025-09-03,1,,,,,エムアールユー,0
197,1290001111394,新規,0,2025-09-03,2025-09-03,レックス株式会社,,株式会社,福岡県,福岡市中央区,唐人町１丁目１２番１８－９０３号,,40,133,8100063,,,,,,,2025-09-03,1,,,,,レックス,0
202,1290801031825,新規,0,2025-09-03,2025-09-03,株式会社Ｋトラスト,,株式会社,福岡県,北九州市小倉南区,徳力３丁目４番１０－２０７号,,40,107,8020974,,,,,,,2025-09-03,1,,,,,ケートラスト,0
205,1330001033543,新規,0,2025-09-03,2025-09-03,株式会社ジェイ・エフ・サービス,,株式会社,熊本県,熊本市北区,弓削５丁目１３番３号,,43,105,8618002,,,,,,,2025-09-03,1,,,,,ジェイエフサービス,0
207,1340001027619,新規,0,2025-09-03,2025-09-03,株式会社重村,,株式会社,鹿児島県,奄美市,名瀬春日町２２番２８号,,46,222,8940013,,,,,,,2025-09-03,1,,,,,シゲムラ,0
209,1340003004938,新規,0,2025-09-03,2025-09-03,合同会社Ｖｉｎｏａ,,合同会社,鹿児島県,鹿児島市,五ヶ別府町２７７８番地３,,46,201,8910101,,,,,,,2025-09-03,1,,,,,ヴィノア,0
210,1340005009902,新規,0,2025-09-03,2025-09-03,一般社団法人自然冷媒推進協議会,,その他の設立登記法人,鹿児島県,鹿児島市,泉町４番６号,,46,201,8920822,,,,,,,2025-09-03,1,,,,,シゼンレイバイスイシンキョウギカイ,0
214,1360001035727,新規,0,2025-09-03,2025-09-03,ブルーウッドパートナーズ株式会社,,株式会社,沖縄県,宮古島市,城辺字比嘉１９１２番地,,47,214,9060104,,,,,,,2025-09-03,1,,,,,ブルーウッドパートナーズ,0
215,1360003015215,新規,0,2025-09-03,2025-09-03,アットマーク合同会社,,合同会社,沖縄県,那覇市,天久２丁目２番３９号ＰｉｎｅＴｒｅｅＨｉｌｌ′ｓマンション３０４,,47,201,9000005,,,,,,,2025-09-03,1,,,,,アットマーク,0
218,1370003007269,新規,0,2025-09-03,2025-09-03,クリーンサービス合同会社,,合同会社,宮城県,仙台市青葉区,東勝山３丁目３３番１０号,,04,101,9810923,,,,,,,2025-09-03,1,,,,,クリーンサービス,0
221,1400001017159,新規,0,2025-09-03,2025-09-03,株式会社中村商事,,株式会社,岩手県,盛岡市,下田字石羽根９９番地８７シェアハウス桜,,03,201,0284134,,,,,,,2025-09-03,1,,,,,ナカムラショウジ,0
224,1410001014262,新規,0,2025-09-03,2025-09-03,株式会社ライスパートナーあきた,,株式会社,秋田県,能代市,二ツ井町飛根字高清水２４２番地１,,05,202,0183122,,,,,,,2025-09-03,1,,,,,ライスパートナーアキタ,0
234,1430001095144,新規,0,2025-09-03,2025-09-03,株式会社ＴＤＣ　ＬＡＢ,,株式会社,北海道,札幌市北区,拓北五条２丁目１２番８号パシャ５・２Ａ号,,01,102,0028065,,,,,,,2025-09-03,1,,,,,ティーディーシーラボ,0
237,1430003018045,新規,0,2025-09-03,2025-09-03,合同会社碧い空,,合同会社,北海道,札幌市手稲区,新発寒七条１丁目２番２３号パレーシャル発寒１０３,,01,109,0060807,,,,,,,2025-09-03,1,,,,,アオイソラ,0
241,1470001020874,新規,0,2025-09-03,2025-09-03,アイケン株式会社,,株式会社,香川県,高松市,牟礼町牟礼３２５９番地１４,,37,201,7610121,,,,,,,2025-09-03,1,,,,,アイケン,0
249,1700150132091,新規,0,2025-09-03,2025-09-03,ＳＵＮＲＩＳＥ　ＲＩＶＥＲ　Ｌｔｄ,,外国会社等,,,,,,,,ＯＭＣ　Ｃｈａｍｂｅｒｓ，ＷｉｃｋｈａｍｓＣａｙ　１，Ｒｏａｄ　Ｔｏｗｎ，Ｔｏｒｔｏｌａ，Ｂｒｉｔｉｓｈ　Ｖｉｒｇｉｎ　Ｉｓｌａｎｄｓ,,,,,,2025-09-03,1,,,,,サンライズリバーリミテツド,0
255,2010001258155,新規,0,2025-09-03,2025-09-03,ＳＭＩＬＥ　ＬＡＮＤ　ＭＥＤＩＣＡＬ　ＧＲＯＵＰ　ＨＯＬＤＩＮＧＳ株式会社,,株式会社,東京都,中央区,銀座１丁目８番１９号１２階,,13,102,1040061,,,,,,,2025-09-03,1,,,,,スマイルランドメディカルグループホールディングス,0
256,2010001258221,新規,0,2025-09-03,2025-09-03,Ｃｏａｓｐｉｒａ株式会社,,株式会社,東京都,千代田区,丸の内１丁目１１番１号パシフィックセンチュリープレイス丸の内１３Ｆ,,13,101,1000005,,,,,,,2025-09-03,1,,,,,コアスピラ,0
260,2010005040600,新規,0,2025-09-03,2025-09-03,一般社団法人国際ＡＬＡ　Ｏｎｅ　Ｈｅａｌｔｈ研究機構,,その他の設立登記法人,東京都,千代田区,麹町６丁目２番６号ＰＭＯ麹町８階,,13,101,1020083,,,,,,,2025-09-03,1,,,,,コクサイアラワンヘルスケンキュウキコウ,0
262,2010103002642,新規,0,2025-09-03,2025-09-03,ｔｂｔ　ａｄｖａｌｕｅ合同会社,,合同会社,東京都,八王子市,千人町１丁目１０番９号ランドシティ西八王子ストリーシア７０５号,,13,201,1930835,,,,,,,2025-09-03,1,,,,,ティービーティーアドバリュー,0
273,2010905004828,新規,0,2025-09-03,2025-09-03,医療法人社団ウィズ矯正歯科クリニック,,その他の設立登記法人,東京都,世田谷区,経堂１丁目２１番２号１階,,13,112,1560052,,,,,,,2025-09-03,1,,,,,ウィズキョウセイシカクリニック,0
279,2011001171760,新規,0,2025-09-03,2025-09-03,日本ＡＩロボティクス株式会社,,株式会社,東京都,渋谷区,恵比寿南３丁目１番１号,,13,113,1500022,,,,,,,2025-09-03,1,,,,,,0
280,2011003022482,新規,0,2025-09-03,2025-09-03,合同会社ＷＯＵＢＥ,,合同会社,東京都,渋谷区,神南１丁目１１‐４ＦＰＧリンクス神南５階,,13,113,1500041,,,,,,,2025-09-03,1,,,,,ウーブ,0
294,2011703004367,新規,0,2025-09-03,2025-09-03,フィナビズ合同会社,,合同会社,東京都,江戸川区,平井５丁目１７番１－２３１３号プラウドタワー平井,,13,123,1320035,,,,,,,2025-09-03,1,,,,,フィナビズ,0
296,2011805003473,新規,0,2025-09-03,2025-09-03,医療法人社団會田会,,その他の設立登記法人,東京都,葛飾区,お花茶屋１丁目２７番２号１階,,13,122,1240003,,,,,,,2025-09-03,1,,,,,アイタカイ,0
300,2012801024216,新規,0,2025-09-03,2025-09-03,Ｔ‐ＣＬＥＡＮ　Ｗｏｒｋｓ株式会社,,株式会社,東京都,日野市,三沢２丁目５０番１,,13,212,1910032,,,,,,,2025-09-03,1,,,,,ティークリーンワークス,0
301,2012803003845,新規,0,2025-09-03,2025-09-03,リッフ合同会社,,合同会社,東京都,日野市,南平７丁目２７－３１,,13,212,1910041,,,,,,,2025-09-03,1,,,,,リッフ,0
315,2020001164641,新規,0,2025-09-03,2025-09-03,株式会社ライズ,,株式会社,神奈川県,川崎市宮前区,馬絹６丁目２４番２４－５０１号,,14,136,2160035,,,,,,,2025-09-03,1,,,,,ライズ,0
316,2020001164699,新規,0,2025-09-03,2025-09-03,Ｓｅｖｅｎ　ＡＲＣ株式会社,,株式会社,神奈川県,横浜市鶴見区,東寺尾２丁目１０番１１号,,14,101,2300077,,,,,,,2025-09-03,1,,,,,セブンアーク,0
317,2020001164724,新規,0,2025-09-03,2025-09-03,株式会社Ｄａｉｆｕｋｕ,,株式会社,神奈川県,横浜市青葉区,荏子田１丁目７番地４０,,14,117,2250005,,,,,,,2025-09-03,1,,,,,ダイフク,0
320,2020003029306,新規,0,2025-09-03,2025-09-03,インスパイアブルー合同会社,,合同会社,神奈川県,川崎市宮前区,有馬２丁目１１‐２７‐１,,14,136,2160003,,,,,,,2025-09-03,1,,,,,インスパイアブルー,0
326,2030001168410,新規,0,2025-09-03,2025-09-03,株式会社若葉はるかぜ動物病院,,株式会社,埼玉県,坂戸市,千代田４丁目９番１５号,,11,239,3500214,,,,,,,2025-09-03,1,,,,,ワカバハルカゼドウブツビョウイン,0
327,2030001168501,新規,0,2025-09-03,2025-09-03,株式会社英管理業務サービス,,株式会社,埼玉県,朝霞市,朝志ケ丘１丁目５番５３―４０１号,,11,227,3510035,,,,,,,2025-09-03,1,,,,,ハナブサカンリギョウムサービス,0
328,2030003027498,新規,0,2025-09-03,2025-09-03,合同会社武蔵政策研究所,,合同会社,埼玉県,さいたま市北区,吉野町２丁目２０８番地３５,,11,102,3310811,,,,,,,2025-09-03,1,,,,,ムサシセイサクケンキュウジョ,0
329,2030003027507,新規,0,2025-09-03,2025-09-03,合同会社ヨコミゾ,,合同会社,埼玉県,さいたま市大宮区,上小町１２０７番地６,,11,103,3300855,,,,,,,2025-09-03,1,,,,,ヨコミゾ,0
337,2040001140260,新規,0,2025-09-03,2025-09-03,株式会社エングレイブアース,,株式会社,千葉県,木更津市,長須賀５７２番地３,,12,206,2920054,,,,,,,2025-09-03,1,,,,,エングレイブアース,0
338,2040001140277,新規,0,2025-09-03,2025-09-03,株式会社聚雫,,株式会社,千葉県,山武郡芝山町,香山新田４９番地３さくら第２倉庫２０３Ａ,,12,409,2891601,,,,,,,2025-09-03,1,,,,,シュウレイ,0
339,2040001140285,新規,0,2025-09-03,2025-09-03,株式会社ナベケン,,株式会社,千葉県,木更津市,中島４３９８番地１１,,12,206,2920008,,,,,,,2025-09-03,1,,,,,ナベケン,0
340,2040001140319,新規,0,2025-09-03,2025-09-03,エナフォワード株式会社,,株式会社,千葉県,市川市,菅野３丁目５番１０号,,12,203,2720824,,,,,,,2025-09-03,1,,,,,エナフォワード,0
341,2040001140327,新規,0,2025-09-03,2025-09-03,Ｅｒｅｓｐｅｃｔ株式会社,,株式会社,千葉県,市川市,鬼高３丁目３２番地２１－３０７号（オアセス市川）,,12,203,2720015,,,,,,,2025-09-03,1,,,,,イーリスペクト,0
342,2040001140351,新規,0,2025-09-03,2025-09-03,株式会社ＲＳＴ,,株式会社,千葉県,野田市,岡田７９０番地７,,12,208,2700223,,,,,,,2025-09-03,1,,,,,アールエスティー,0
345,2040003028223,新規,0,2025-09-03,2025-09-03,合同会社一心,,合同会社,千葉県,野田市,瀬戸２３５－４９,,12,208,2780012,,,,,,,2025-09-03,1,,,,,イッシン,0
346,2040003028396,新規,0,2025-09-03,2025-09-03,合同会社ケービー,,合同会社,千葉県,市川市,新田５丁目８－３,,12,203,2720035,,,,,,,2025-09-03,1,,,,,ケービー,0
347,2040003028405,新規,0,2025-09-03,2025-09-03,合同会社Ａ・Ｍ　ＭＡＬＩＫ　ＴＲＡＤＩＮＧ,,合同会社,千葉県,富里市,御料６７４番地,,12,233,2860211,,,,,,,2025-09-03,1,,,,,エーエムマリックトレーディング,0
352,2060001038544,新規,0,2025-09-03,2025-09-03,株式会社勇大,,株式会社,栃木県,鹿沼市,久野７６６番地３,,09,205,3220303,,,,,,,2025-09-03,1,,,,,ユウダイ,0
353,2060003005724,新規,0,2025-09-03,2025-09-03,合同会社プロスパー,,合同会社,栃木県,宇都宮市,西原１丁目２番１１号タウンハウス西原Ｂ棟１０３号,,09,201,3200862,,,,,,,2025-09-03,1,,,,,プロスパー,0
355,2070001043304,新規,0,2025-09-03,2025-09-03,株式会社青谷興業,,株式会社,群馬県,館林市,美園町９番３６号,,10,207,3740039,,,,,,,2025-09-03,1,,,,,アオタニコウギョウ,0
356,2070001043312,新規,0,2025-09-03,2025-09-03,ＨＥＬＭ　ＦＩＥＬＤ株式会社,,株式会社,群馬県,前橋市,富田町１１２８－３,,10,201,3792161,,,,,,,2025-09-03,1,,,,,,0
357,2080001027124,新規,0,2025-09-03,2025-09-03,株式会社心苑,,株式会社,静岡県,静岡市葵区,上足洗１丁目５番２５－１号,,22,101,4200841,,,,,,,2025-09-03,1,,,,,シンエン,0
359,2100003008367,新規,0,2025-09-03,2025-09-03,ＴＯＮＯ合同会社,,合同会社,長野県,飯山市,大字飯山１１４９２番地３２７,,20,213,3892253,,,,,,,2025-09-03,1,,,,,トノ,0
361,2110001039553,新規,0,2025-09-03,2025-09-03,株式会社ＥｌｉｅＣｏｃｏ,,株式会社,新潟県,三条市,本町１丁目３番３０号ルアナ・ハレ２０２号室,,15,204,9550071,,,,,,,2025-09-03,1,,,,,エリエココ,0
362,2110003005867,新規,0,2025-09-03,2025-09-03,合同会社Ｏ‐ｃｈａｎ　ｃｒｅａｔｅ,,合同会社,新潟県,長岡市,横枕町２０８番地１,,15,202,9401117,,,,,,,2025-09-03,1,,,,,オーチャンクリエート,0
377,2120001279149,新規,0,2025-09-03,2025-09-03,Ｊｕｌａｊｏ　Ｉｎｖｅｓｔｍｅｎｔｓ　Ｊａｐａｎ株式会社,,株式会社,大阪府,大阪市北区,西天満２丁目６番８号堂島ビルヂング６Ｆ新東京国際リーガル内,,27,127,5300047,,,,,,,2025-09-03,1,,,,,ジュラジョインベストメンツジャパン,0
378,2120001279215,新規,0,2025-09-03,2025-09-03,株式会社ＳＳＧ,,株式会社,大阪府,大阪市東住吉区,公園南矢田２丁目３番１４号,,27,121,5460024,,,,,,,2025-09-03,1,,,,,エスエスジー,0
379,2120001279231,新規,0,2025-09-03,2025-09-03,株式会社イル,,株式会社,大阪府,大阪市北区,芝田２丁目８－１１共栄ビル３Ｆ,,27,127,5300012,,,,,,,2025-09-03,1,,,,,イル,0
380,2120001279264,新規,0,2025-09-03,2025-09-03,ＫＢＢ株式会社,,株式会社,大阪府,大阪市浪速区,敷津西１丁目５－２０，１－Ｃ店舗,,27,111,5560015,,,,,,,2025-09-03,1,,,,,ケービービー,0
381,2120001279272,新規,0,2025-09-03,2025-09-03,株式会社灯,,株式会社,大阪府,大阪市中央区,日本橋１丁目１７－１７ピカソ日本一ビル６０４号室,,27,128,5420073,,,,,,,2025-09-03,1,,,,,トモシビ,0
385,2120003030443,新規,0,2025-09-03,2025-09-03,Ｎｅｗ　Ｋａｉｌａｓｈ　Ｐａｒｂａｔ合同会社,,合同会社,大阪府,大阪市淀川区,十三東３丁目７番１２号,,27,123,5320023,,,,,,,2025-09-03,1,,,,,ニューカイラシュパルバト,0
387,2120005025136,新規,0,2025-09-03,2025-09-03,一般社団法人ＢＯＮ　ＭＡＲＣＨＥ,,その他の設立登記法人,大阪府,門真市,栄町４－１１フラットＴ－１Ｆ左,,27,223,5710047,,,,,,,2025-09-03,1,,,,,ボンマルシェ,0
393,2120901051458,新規,0,2025-09-03,2025-09-03,株式会社みらい畑,,株式会社,大阪府,箕面市,瀬川２丁目１５番１３号（３０３号）,,27,220,5620045,,,,,,,2025-09-03,1,,,,,ミライバタケ,0
398,2130001080398,新規,0,2025-09-03,2025-09-03,株式会社ＫＩＭＳ,,株式会社,京都府,京都市下京区,中堂寺庄ノ内町５２番地４Ｍ’ｓ２０４,,26,106,6008814,,,,,,,2025-09-03,1,,,,,キムス,0
401,2130003010725,新規,0,2025-09-03,2025-09-03,合同会社ワトナス,,合同会社,京都府,京都市左京区,一乗寺野田町２番地２ハイツ白川６２０,,26,103,6068165,,,,,,,2025-09-03,1,,,,,ワトナス,0
406,2140001139846,新規,0,2025-09-03,2025-09-03,神港衛生ホールディングス株式会社,,株式会社,兵庫県,神戸市長田区,苅藻島町３丁目１１番２７号,,28,106,6530033,,,,,,,2025-09-03,1,,,,,シンコウエイセイホールディングス,0
407,2140001139870,新規,0,2025-09-03,2025-09-03,株式会社板本設備,,株式会社,兵庫県,伊丹市,寺本１丁目１０４番地１グローバル伊丹昆陽里４０９号,,28,207,6640026,,,,,,,2025-09-03,1,,,,,イタモトセツビ,0
412,2140003022521,新規,0,2025-09-03,2025-09-03,合同会社Ａｍｏｒｅａｋ,,合同会社,兵庫県,加古川市,新神野１丁目１１番１９－１号,,28,210,6750008,,,,,,,2025-09-03,1,,,,,アモリーク,0
417,2160001027025,新規,0,2025-09-03,2025-09-03,株式会社Ａｉｄｏｓ　Ｐａｒｔｎｅｒｓ,,株式会社,滋賀県,大津市,柳が崎３番２号,,25,201,5200022,,,,,,,2025-09-03,1,,,,,アイドスパートナーズ,0
419,2160003003585,新規,0,2025-09-03,2025-09-03,合同会社Ｎｅｗ　Ｆｉｅｌｄｓ,,合同会社,滋賀県,大津市,日吉台３丁目２１番６号,,25,201,5200112,,,,,,,2025-09-03,1,,,,,ニューフィールズ,0
420,2170001018774,新規,0,2025-09-03,2025-09-03,株式会社Ｋ．ｓｔｙｌｅ,,株式会社,和歌山県,岩出市,根来９５０番地の２１,,30,209,6496202,,,,,,,2025-09-03,1,,,,,ケースタイル,0
430,2180001168239,新規,0,2025-09-03,2025-09-03,ＳＨＯＶＵ　ＣＨＩＣ＆ＣＨＯＰ株式会社,,株式会社,愛知県,名古屋市中区,新栄３丁目１４番２号プラハビル３Ｆ,,23,106,4600007,,,,,,,2025-09-03,1,,,,,シューボチックアンドチョップ,0
431,2180001168404,新規,0,2025-09-03,2025-09-03,株式会社ＬＵＤＩＣ　ＤＥＳＩＧＮ,,株式会社,愛知県,半田市,有楽町５丁目１０３番地６,,23,205,4750837,,,,,,,2025-09-03,1,,,,,ルディックデザイン,0
432,2180001168412,新規,0,2025-09-03,2025-09-03,株式会社ｋｅｙｓｔｏｎｅ,,株式会社,愛知県,名古屋市中区,栄４丁目６番３号,,23,106,4600008,,,,,,,2025-09-03,1,,,,,キーストーン,0
433,2180001168429,新規,0,2025-09-03,2025-09-03,ＡＴ株式会社,,株式会社,愛知県,名古屋市熱田区,千年１丁目２６番１号,,23,109,4560054,,,,,,,2025-09-03,1,,,,,エーティ,0
436,2180003028952,新規,0,2025-09-03,2025-09-03,合同会社ＨＯＰＥ　ＩＮＦＩＮＩＴＹ,,合同会社,愛知県,一宮市,中町１丁目５番９号,,23,203,4910913,,,,,,,2025-09-03,1,,,,,ホープインフィニティ,0
437,2180301040163,新規,0,2025-09-03,2025-09-03,株式会社ＡＯＮＥ　ＩＮＴＥＲＮＡＴＩＯＮＡＬ,,株式会社,愛知県,豊田市,小川町１丁目３１番地１,,23,211,4710857,,,,,,,2025-09-03,1,,,,,アワンインターナショナル,0
438,2180303006708,新規,0,2025-09-03,2025-09-03,合同会社井上土地,,合同会社,愛知県,安城市,明治本町１３番１９号,,23,212,4460062,,,,,,,2025-09-03,1,,,,,イノウエトチ,0
439,2180303006716,新規,0,2025-09-03,2025-09-03,合同会社ノースナレッジ,,合同会社,愛知県,知立市,山屋敷町向田１－４,,23,225,4720022,,,,,,,2025-09-03,1,,,,,ノースナレッジ,0
440,2200001044180,新規,0,2025-09-03,2025-09-03,株式会社ティーフォワード,,株式会社,岐阜県,揖斐郡大野町,大字黒野１８２３番地,,21,403,5010521,,,,,,,2025-09-03,1,,,,,ティーフォワード,0
441,2200001044189,新規,0,2025-09-03,2025-09-03,ＩＮＴＥＲＢＲＩＤＧＥ株式会社,,株式会社,岐阜県,美濃加茂市,中部台８丁目１２番地１３,,21,211,5050038,,,,,,,2025-09-03,1,,,,,インターブリッジ,0
453,2220001026904,新規,0,2025-09-03,2025-09-03,株式会社スマイルサイト,,株式会社,石川県,小松市,沖町ツ４７番地,,17,203,9230861,,,,,,,2025-09-03,1,,,,,スマイルサイト,0
456,2220003004107,新規,0,2025-09-03,2025-09-03,リブート珠洲合同会社,,合同会社,石川県,珠洲市,宝立町鵜島ハ字１番地３宝立町第２団地１－２０６,,17,205,9271223,,,,,,,2025-09-03,1,,,,,リブートスズ,0
457,2230001021061,新規,0,2025-09-03,2025-09-03,株式会社フローレンス,,株式会社,富山県,富山市,千石町５丁目３番１２‐８０１号,,16,201,9300066,,,,,,,2025-09-03,1,,,,,フローレンス,0
464,2240001065446,新規,0,2025-09-03,2025-09-03,株式会社カネカ水産,,株式会社,広島県,福山市,内海町ロ３３９７番地１,,34,207,7222632,,,,,,,2025-09-03,1,,,,,カネカスイサン,0
470,2250003003808,新規,0,2025-09-03,2025-09-03,美慧縁合同会社,,合同会社,山口県,宇部市,大字妻崎開作８６８番地２,,35,202,7590204,,,,,,,2025-09-03,1,,,,,ビケイエン,0
473,2260001040513,新規,0,2025-09-03,2025-09-03,株式会社一吉,00140512,株式会社,岡山県,岡山市北区,平和町６番９号,,33,101,7000827,,,,,,,2025-09-03,1,,,,,イチヨシ,0
474,2270001009276,新規,0,2025-09-03,2025-09-03,Ｑｕｅｓｔｉｖｅ　Ｗｏｒｋｓ株式会社,,株式会社,鳥取県,東伯郡三朝町,大字小河内７８９番地１,,31,364,6820157,,,,,,,2025-09-03,1,,,,,クエスティブワークス,0
475,2280001009498,新規,0,2025-09-03,2025-09-03,株式会社はなまる咲かせ隊,,株式会社,島根県,江津市,松川町上津井８４番地,,32,207,6992835,,,,,,,2025-09-03,1,,,,,ハナマルサカセタイ,0
478,2290003017333,新規,0,2025-09-03,2025-09-03,合同会社Ｂｅｅｚｙ,,合同会社,福岡県,福岡市早良区,西新１丁目１１－２７－４１０号,,40,137,8140002,,,,,,,2025-09-03,1,,,,,ビージー,0
483,2290801031824,新規,0,2025-09-03,2025-09-03,株式会社松下建設,,株式会社,福岡県,北九州市八幡西区,上上津役２丁目１３番８号,,40,109,8070072,,,,,,,2025-09-03,1,,,,,マツシタケンセツ,0
486,2300001014339,新規,0,2025-09-03,2025-09-03,株式会社ゼットライズサガ,,株式会社,佐賀県,唐津市,鎮西町名護屋４８９１番地１,,41,202,8470401,,,,,,,2025-09-03,1,,,,,ゼットライズサガ,0
493,2320001021317,新規,0,2025-09-03,2025-09-03,株式会社フウラ,,株式会社,大分県,大分市,大字玉沢６８３番地の４サンパークわさだ中央グラッセ５０４,,44,201,8701155,,,,,,,2025-09-03,1,,,,,フウラ,0
497,2330001033534,新規,0,2025-09-03,2025-09-03,株式会社長野ＡＩ，ＥＴセンター,,株式会社,熊本県,阿蘇郡南阿蘇村,大字長野１１８８番地,,43,433,8691403,,,,,,,2025-09-03,1,,,,,ナガノエーアイイーティーセンター,0
501,2340003004937,新規,0,2025-09-03,2025-09-03,合同会社みつお屋,,合同会社,鹿児島県,出水市,上鯖渕１０２０番地１０,,46,208,8990203,,,,,,,2025-09-03,1,,,,,ミツオヤ,0
503,2350001019713,新規,0,2025-09-03,2025-09-03,株式会社ＬＯＣＡＲＵ,,株式会社,宮崎県,宮崎市,松山２丁目１－１－８０５,,45,201,8800865,,,,,,,2025-09-03,1,,,,,ロカル,0
506,2360001035718,新規,0,2025-09-03,2025-09-03,株式会社義官,,株式会社,沖縄県,島尻郡南風原町,字大名３６７番地８,,47,350,9011101,,,,,,,2025-09-03,1,,,,,ヨシカン,0
507,2360001035734,新規,0,2025-09-03,2025-09-03,Ｄａｉｌｙ　Ｓｐｒｉｎｇ株式会社,,株式会社,沖縄県,中頭郡北谷町,字宮城３番地１２８・Ｓアパート２－Ａ,,47,326,9040113,,,,,,,2025-09-03,1,,,,,デイリースプリング,0
511,2370001052992,新規,0,2025-09-03,2025-09-03,株式会社ＮｅｘｔＳｏｃｉａｌ,,株式会社,宮城県,仙台市宮城野区,平成１丁目１１－１－１０２,,04,102,9830037,,,,,,,2025-09-03,1,,,,,ネクストソーシャル,0
513,2390001018091,新規,0,2025-09-03,2025-09-03,株式会社アーツ,,株式会社,山形県,山形市,松山３丁目１１－１７,,06,201,9902412,,,,,,,2025-09-03,1,,,,,アーツ,0
514,2390001018100,新規,0,2025-09-03,2025-09-03,株式会社ＫＳファーム,,株式会社,山形県,鶴岡市,下小中ろ８７番地,,06,203,9971134,,,,,,,2025-09-03,1,,,,,,0
516,2390005009129,新規,0,2025-09-03,2025-09-03,特定非営利活動法人学童保育みんなの家,,その他の設立登記法人,山形県,鶴岡市,若葉町１番地４８号,,06,203,9970037,,,,,,,2025-09-03,1,,,,,ガクドウホイクミンナノイエ,0
517,2400003003528,新規,0,2025-09-03,2025-09-03,合同会社ｍ．ｂｌｕｅ　ｓｋｙ,,合同会社,岩手県,盛岡市,永井２０地割３３番地３たんぽぽ２号館２０１号,,03,201,0200834,,,,,,,2025-09-03,1,,,,,エムブルースカイ,0
522,2430001095192,新規,0,2025-09-03,2025-09-03,株式会社ＢＭ電設,,株式会社,北海道,札幌市清田区,北野三条５丁目１５番２１号,,01,110,0040863,,,,,,,2025-09-03,1,,,,,ビーエムデンセツ,0
530,2480001012936,新規,0,2025-09-03,2025-09-03,株式会社Ｍｋ技研,,株式会社,徳島県,小松島市,田浦町字大栗１９番地の３,,36,203,7730012,,,,,,,2025-09-03,1,,,,,エムケイギケン,0
541,3010001258146,新規,0,2025-09-03,2025-09-03,経営加速基盤株式会社,,株式会社,東京都,中央区,日本橋２丁目１番１７号丹生ビル７Ｆ,,13,102,1030027,,,,,,,2025-09-03,1,,,,,ケイエイカソクキバン,0
542,3010001258170,新規,0,2025-09-03,2025-09-03,株式会社Ｅ‐ｃｏｍｐａｓｓ,,株式会社,東京都,中央区,日本橋浜町３丁目３番１－１９１３号,,13,102,1030007,,,,,,,2025-09-03,1,,,,,イーコンパス,0
543,3010001258212,新規,0,2025-09-03,2025-09-03,騰飛株式会社,,株式会社,東京都,中央区,晴海３丁目１３番１－３２１０号,,13,102,1040053,,,,,,,2025-09-03,1,,,,,トウヒ,0
544,3010001258261,新規,0,2025-09-03,2025-09-03,株式会社Ａｓｃｅｎｄ,,株式会社,東京都,文京区,小石川４丁目１４番３１－３０８号室,,13,105,1120002,,,,,,,2025-09-03,1,,,,,アセンド,0
549,3010003048586,新規,0,2025-09-03,2025-09-03,ＺＩＴ合同会社,,合同会社,東京都,中央区,日本橋人形町３丁目６番９号ジュサブロー館３階,,13,102,1030013,,,,,,,2025-09-03,1,,,,,ジット,0
550,3010003048603,新規,0,2025-09-03,2025-09-03,Ｂｅｔｔｅｒｗｈｅｎ合同会社,,合同会社,東京都,千代田区,神田須田町２丁目６番地１坂下ビル２階２２０号室,,13,101,1010041,,,,,,,2025-09-03,1,,,,,ベターウェン,0
551,3010401192358,新規,0,2025-09-03,2025-09-03,株式会社Ｆｏｒｇｅ　Ｄｒｉｆｔ,,株式会社,東京都,港区,六本木３丁目１６番１２号六本木ＫＳビル５Ｆ,,13,103,1060032,,,,,,,2025-09-03,1,,,,,フォージドリフト,0
559,3010601067905,新規,0,2025-09-03,2025-09-03,にし株式会社,,株式会社,東京都,墨田区,石原１丁目３２番６－５０１号ネオマイム両国,,13,107,1300011,,,,,,,2025-09-03,1,,,,,ニシ,0
560,3010602010450,新規,0,2025-09-03,2025-09-03,有限会社吾妻商会,,有限会社,東京都,墨田区,菊川１丁目１６番５号,,13,107,1300024,,,,,,,2025-09-03,1,,,,,,0
564,3010901058018,新規,0,2025-09-03,2025-09-03,アイアンメディカルサポート株式会社,,株式会社,東京都,世田谷区,中町１丁目２０番１４号,,13,112,1580091,,,,,,,2025-09-03,1,,,,,アイアンメディカルサポート,0
566,3010903010232,新規,0,2025-09-03,2025-09-03,合同会社時任リサーチ,,合同会社,東京都,世田谷区,下馬１丁目４７番６号ベラヴィータ１０１,,13,112,1540002,,,,,,,2025-09-03,1,,,,,トキトウリサーチ,0
569,3011003022416,新規,0,2025-09-03,2025-09-03,合同会社ＢＡＣＣＯＲＩ,,合同会社,東京都,渋谷区,道玄坂１丁目１０番８号渋谷道玄坂東急ビル２Ｆ－Ｃ,,13,113,1500043,,,,,,,2025-09-03,1,,,,,バッコリ,0
573,3011105011564,新規,0,2025-09-03,2025-09-03,一般社団法人エムコア,,その他の設立登記法人,東京都,新宿区,新宿７丁目１７番１０号３階,,13,104,1600022,,,,,,,2025-09-03,1,,,,,エムコア,0
576,3011301030855,新規,0,2025-09-03,2025-09-03,株式会社ＰＲＩＭＥ　ＴＥＣＨ,,株式会社,東京都,杉並区,下高井戸５丁目５－２０,,13,115,1680073,,,,,,,2025-09-03,1,,,,,プライムテック,0
577,3011601028938,新規,0,2025-09-03,2025-09-03,株式会社Ａ＆Ｓ,,株式会社,東京都,練馬区,西大泉５丁目３７番２号,,13,120,1780065,,,,,,,2025-09-03,1,,,,,エーアンドエス,0
580,3012401043549,新規,0,2025-09-03,2025-09-03,株式会社ＩＣＵ　ｏｆ　ｔｈｅ　Ｆｕｔｕｒｅ,,株式会社,東京都,稲城市,矢野口３１１９番地の５４南山３０街区３１号,,13,225,2060812,,,,,,,2025-09-03,1,,,,,アイシーユーオブザフューチャー,0
591,3013301054842,新規,0,2025-09-03,2025-09-03,千田株式会社,,株式会社,東京都,豊島区,巣鴨３丁目１－１桜並木通りビル５０１,,13,116,1700002,,,,,,,2025-09-03,1,,,,,センダ,0
596,3020001164632,新規,0,2025-09-03,2025-09-03,株式会社蒼総合研究所,,株式会社,神奈川県,横浜市泉区,和泉が丘３丁目１４番１６号,,14,116,2450022,,,,,,,2025-09-03,1,,,,,アオイソウゴウケンキュウジョ,0
597,3020001164649,新規,0,2025-09-03,2025-09-03,株式会社山下商事,,株式会社,神奈川県,川崎市中原区,中丸子１３番地１０,,14,133,2110012,,,,,,,2025-09-03,1,,,,,ヤマシタショウジ,0
598,3020001164707,新規,0,2025-09-03,2025-09-03,ＨｉＧＣＯＲＥ　ＥＮＥＲＧＹ株式会社,,株式会社,神奈川県,横浜市神奈川区,金港町５－１４クアドリフォリオ８階,,14,102,2210056,,,,,,,2025-09-03,1,,,,,ハイコアエナジー,0
601,3020003029214,新規,0,2025-09-03,2025-09-03,合同会社ＬＯＶＥ,,合同会社,神奈川県,横浜市南区,堀ノ内町２丁目１６８－１８－２０１,,14,105,2320042,,,,,,,2025-09-03,1,,,,,,0
602,3020003029255,新規,0,2025-09-03,2025-09-03,合同会社Ｓｕｎｎｙ　ｃｏｌｏｒ,,合同会社,神奈川県,川崎市高津区,久末１６５５－３,,14,134,2130026,,,,,,,2025-09-03,1,,,,,サニーカラー,0
611,3030001168228,新規,0,2025-09-03,2025-09-03,武蔵野総合ホールディングス株式会社,,株式会社,埼玉県,さいたま市中央区,鈴谷２丁目７４８番地１－３０２号,,11,105,3380013,,,,,,,2025-09-03,1,,,,,ムサシノソウゴウホールディングス,0
612,3030001168418,新規,0,2025-09-03,2025-09-03,トライスターデザインワークス株式会社,,株式会社,埼玉県,越谷市,東越谷１丁目８－７,,11,222,3430023,,,,,,,2025-09-03,1,,,,,トライスターデザインワークス,0
613,3030003027506,新規,0,2025-09-03,2025-09-03,合同会社ＭＨＱ,,合同会社,埼玉県,坂戸市,南町３４番７号ＫＩＶオフィス南町Ｂ号室,,11,239,3500233,,,,,,,2025-09-03,1,,,,,エムエイチキュー,0
617,3040001140276,新規,0,2025-09-03,2025-09-03,株式会社ブライゾン,,株式会社,千葉県,市川市,須和田２丁目３４番３１号,,12,203,2720825,,,,,,,2025-09-03,1,,,,,ブライゾン,0
631,3060001038543,新規,0,2025-09-03,2025-09-03,株式会社ＨＥＥＴ,,株式会社,栃木県,足利市,小俣町２４４６番地１５,,09,202,3260141,,,,,,,2025-09-03,1,,,,,ヒート,0
640,3070001043303,新規,0,2025-09-03,2025-09-03,株式会社ベストテックプロ,,株式会社,群馬県,前橋市,総社町２丁目１２番地２５,,10,201,3710853,,,,,,,2025-09-03,1,,,,,ベストテックプロ,0
642,3070003006068,新規,0,2025-09-03,2025-09-03,合同会社明光総業,,合同会社,群馬県,高崎市,上並榎町７５２番地２４,,10,202,3700801,,,,,,,2025-09-03,1,,,,,アキミツソウギョウ,0
644,3080001027123,新規,0,2025-09-03,2025-09-03,株式会社ＨＴ・ＭＩＲＡＩＺ,,株式会社,静岡県,静岡市清水区,三保松原町３１番地の１,,22,103,4240908,,,,,,,2025-09-03,1,,,,,エイチティミライズ,0
650,3100001038910,新規,0,2025-09-03,2025-09-03,株式会社池田薬局,,株式会社,長野県,小県郡青木村,大字田澤１２番地２,,20,349,3861600,,,,,,,2025-09-03,1,,,,,イケダヤッキョク,0
653,3110001039552,新規,0,2025-09-03,2025-09-03,株式会社ライズ,,株式会社,新潟県,三条市,麻布１０番３７号,,15,204,9550034,,,,,,,2025-09-03,1,,,,,ライズ,0
654,3110005017265,新規,0,2025-09-03,2025-09-03,特定非営利活動法人北陸フードバンク推進協議会,,その他の設立登記法人,新潟県,三条市,北新保１丁目２０番１８号,,15,204,9550861,,,,,,,2025-09-03,1,,,,,ホクリクフードバンクスイシンキョウギカイ,0
669,3120001278018,新規,0,2025-09-03,2025-09-03,ＴＲＯＮＧ　ＧＩＡＰ　ＡＵＴＯ株式会社,,株式会社,大阪府,大阪市西成区,花園南１丁目５番３－２０３号,,27,122,5570015,,,,,,,2025-09-03,1,,,,,トロンジャップオート,0
670,3120001279131,新規,0,2025-09-03,2025-09-03,高峰株式会社,,株式会社,大阪府,大阪市西区,北堀江２丁目３番１０－４０３号,,27,106,5500014,,,,,,,2025-09-03,1,,,,,タカミネ,0
671,3120001279239,新規,0,2025-09-03,2025-09-03,Ｍｏｎｏｔｅｃ株式会社,,株式会社,大阪府,大阪市住吉区,杉本２丁目３番８号ハイツ平野１０６号室,,27,120,5580022,,,,,,,2025-09-03,1,,,,,モノテック,0
687,3140001139829,新規,0,2025-09-03,2025-09-03,株式会社Ｍ’Ｓ　ｉｎｖｅｓｔｍｅｎｔ,,株式会社,兵庫県,宝塚市,仁川北３丁目７番１４号ペガサスビル４０２号室,,28,214,6650061,,,,,,,2025-09-03,1,,,,,エムズインベストメント,0
688,3140001139861,新規,0,2025-09-03,2025-09-03,株式会社アクアサポート,,株式会社,兵庫県,たつの市,神岡町東觜崎５６４番地１３,,28,229,6794109,,,,,,,2025-09-03,1,,,,,アクアサポート,0
695,3140003022487,新規,0,2025-09-03,2025-09-03,謙平合同会社,,合同会社,兵庫県,神戸市東灘区,魚崎南町２丁目６－１１－４４０６号室,,28,101,6580025,,,,,,,2025-09-03,1,,,,,ケンペイ,0
696,3140003022512,新規,0,2025-09-03,2025-09-03,合同会社チャンチャン,,合同会社,兵庫県,尼崎市,戸ノ内町６丁目１－１０－２,,28,202,6610961,,,,,,,2025-09-03,1,,,,,チャンチャン,0
697,3140005027617,新規,0,2025-09-03,2025-09-03,一般社団法人Ｂｅｙｏｎｄ　ｔｈｅ　Ｆｉｎａｎｃｅ,,その他の設立登記法人,兵庫県,尼崎市,大島１丁目２１番２号,,28,202,6600076,,,,,,,2025-09-03,1,,,,,ビヨンドザファイナンス,0
700,3160001027032,新規,0,2025-09-03,2025-09-03,株式会社ＴＮＰ仮設,,株式会社,滋賀県,甲賀市,水口町山５９６番地３７,,25,209,5280067,,,,,,,2025-09-03,1,,,,,ティエヌピーカセツ,0
702,3160003003576,新規,0,2025-09-03,2025-09-03,合同会社Ｌｕｍｍｉｕ,,合同会社,滋賀県,湖南市,下田１８２１番地１,,25,211,5203201,,,,,,,2025-09-03,1,,,,,ルミュー,0
704,3170001018773,新規,0,2025-09-03,2025-09-03,ｇｏｔｔａ株式会社,,株式会社,和歌山県,和歌山市,小豆島１２２番地１ハーベストＨＩＲＡＴＡＩＩＩＫ号,00140503,30,201,6496336,,,,,,,2025-09-03,1,,,,,ゴッタ,0
713,3180001168386,新規,0,2025-09-03,2025-09-03,株式会社ＡＣＴＩＶＥ,,株式会社,愛知県,津島市,中地町３丁目１９番地１中惣ビル３Ｄ号,,23,208,4960847,,,,,,,2025-09-03,1,,,,,アクティブ,0
714,3180001168411,新規,0,2025-09-03,2025-09-03,株式会社Ｐｉｎｏ　Ｆｏｒｅｓｔａ,,株式会社,愛知県,名古屋市北区,西志賀町３丁目５１番地の３,,23,103,4620058,,,,,,,2025-09-03,1,,,,,ピノフォレスタ,0
715,3180001168452,新規,0,2025-09-03,2025-09-03,株式会社ＩＵ,,株式会社,愛知県,北名古屋市,弥勒寺西３丁目１０４番地,,23,234,4810032,,,,,,,2025-09-03,1,,,,,アイユー,0
718,3180303006715,新規,0,2025-09-03,2025-09-03,合同会社花結,,合同会社,愛知県,豊田市,若宮町３丁目４０－４０２,,23,211,4710026,,,,,,,2025-09-03,1,,,,,ハナユイ,0
719,3190003005157,新規,0,2025-09-03,2025-09-03,合同会社ＡＭＵＬＥＴ,,合同会社,三重県,津市,河芸町千里ヶ丘６番地１３,,24,201,5100302,,,,,,,2025-09-03,1,,,,,アミュレット,0
720,3200001044196,新規,0,2025-09-03,2025-09-03,株式会社ムラセ冷設,,株式会社,岐阜県,岐阜市,西改田上の町８９番地,,21,201,5011168,,,,,,,2025-09-03,1,,,,,ムラセレイセツ,0
730,3240001065445,新規,0,2025-09-03,2025-09-03,株式会社Ｔｒｉｖｅ　Ｓｅｃｕｒｅ　Ｌａｂ,,株式会社,広島県,広島市南区,京橋町１番７号,,34,103,7320828,,,,,,,2025-09-03,1,,,,,トライブセキュアラボ,0
733,3240003007387,新規,0,2025-09-03,2025-09-03,合同会社柴田事務所,,合同会社,広島県,東広島市,西条町西条５３５－２,,34,212,7390001,,,,,,,2025-09-03,1,,,,,シバタジムショ,0
735,3250001001309,新規,0,2025-09-03,2025-09-03,協和産業株式会社,,株式会社,山口県,山口市,大字黒川１８３番地１,,35,203,7530000,,,,,,,2025-09-03,1,,,,,,0
737,3260001040504,新規,0,2025-09-03,2025-09-03,株式会社ルルスス,,株式会社,岡山県,倉敷市,鳥羽１４番地４,,33,202,7100012,,,,,,,2025-09-03,1,,,,,ルルスス,0
739,3290001111335,新規,0,2025-09-03,2025-09-03,アサヒ販売株式会社,,株式会社,福岡県,久留米市,通東町３３番地,,40,203,8300016,,,,,,,2025-09-03,1,,,,,アサヒハンバイ,0
740,3290001111351,新規,0,2025-09-03,2025-09-03,株式会社ＸｒｏｓＯｎｅ,,株式会社,福岡県,福岡市中央区,六本松２丁目５番１号,,40,133,8100044,,,,,,,2025-09-03,1,,,,,クロスワン,0
741,3290001111376,新規,0,2025-09-03,2025-09-03,株式会社アジア太平洋エデュケーション,,株式会社,福岡県,福岡市博多区,博多駅前２丁目１９番１７号トーカン博多第５ビル３１２号室,,40,132,8120011,,,,,,,2025-09-03,1,,,,,アジアタイヘイヨウエデュケーション,0
742,3290001111392,新規,0,2025-09-03,2025-09-03,ＲｅＨｏｏｍ不動産株式会社,,株式会社,福岡県,福岡市中央区,六本松４丁目３番１１号,,40,133,8100044,,,,,,,2025-09-03,1,,,,,リホームフドウサン,0
743,3290003017324,新規,0,2025-09-03,2025-09-03,ＡｃｃｅｌＢｉｚ合同会社,,合同会社,福岡県,福岡市博多区,須崎町１２番１６号サンシャイン須崎２０６号,,40,132,8120028,,,,,,,2025-09-03,1,,,,,アクセルビズ,0
745,3290801031831,新規,0,2025-09-03,2025-09-03,株式会社Ｃｏｒｅｔｈｉａ,,株式会社,福岡県,北九州市八幡西区,鷹の巣１丁目１番１１号,,40,109,8060047,,,,,,,2025-09-03,1,,,,,コレティア,0
751,3310001019773,新規,0,2025-09-03,2025-09-03,濱口ガス株式会社,00140501,株式会社,長崎県,諫早市,森山町本村１３６８番地１,,42,204,8540203,,,,,,,2025-09-03,1,,,,,ハマグチガス,0
759,3360001035733,新規,0,2025-09-03,2025-09-03,株式会社ＡＲＴＫＡＤＥ,,株式会社,沖縄県,浦添市,仲西１丁目３番地２５・５階５０２の２,,47,208,9012125,,,,,,,2025-09-03,1,,,,,アートケイド,0
760,3360003015213,新規,0,2025-09-03,2025-09-03,合同会社Ｍ　ｓｔｙｌｅ　ｐｌｕｓ,,合同会社,沖縄県,浦添市,宮城２丁目３９番地６,,47,208,9012126,,,,,,,2025-09-03,1,,,,,エムスタイルプラス,0
761,3360003015221,新規,0,2025-09-03,2025-09-03,合同会社サウンズ,,合同会社,沖縄県,宜野湾市,我如古１丁目２５－２５－３０１ＴＮアルカンシェル,,47,205,9012214,,,,,,,2025-09-03,1,,,,,サウンズ,0
766,3380005012999,新規,0,2025-09-03,2025-09-03,一般社団法人ビレジャーズ,,その他の設立登記法人,福島県,田村郡三春町,大字込木字仲ノ内１７８番地,,07,521,9637712,,,,,,,2025-09-03,1,,,,,ビレジャーズ,0
769,3390001018090,新規,0,2025-09-03,2025-09-03,株式会社プログレス・ｇｏｒｉｌｌａ,,株式会社,山形県,山形市,みはらしの丘２丁目６番地２,,06,201,9902317,,,,,,,2025-09-03,1,,,,,ブログレスゴリラ,0
781,3430001095126,新規,0,2025-09-03,2025-09-03,株式会社エナジーラボ,,株式会社,北海道,札幌市白石区,菊水元町一条２丁目１番１２－１０１号,,01,104,0030821,,,,,,,2025-09-03,1,,,,,エナジーラボ,0
783,3450003002714,新規,0,2025-09-03,2025-09-03,合同会社みらい経理サポート,,合同会社,北海道,富良野市,山部南町４番５０号,,01,229,0791565,,,,,,,2025-09-03,1,,,,,ミライケイリサポート,0
784,3460103001739,新規,0,2025-09-03,2025-09-03,合同会社根ざす農業,,合同会社,北海道,河西郡芽室町,東十条７丁目６番地１２グランディスＩＩＤ号室,00140511,01,637,0820020,,,,,,,2025-09-03,1,,,,,ネザスノウギョウ,0
790,3480005007106,新規,0,2025-09-03,2025-09-03,一般社団法人ローカルアップデート,,その他の設立登記法人,徳島県,那賀郡那賀町,和食郷字八幡原２９番地５,,36,368,7715203,,,,,,,2025-09-03,1,,,,,ローカルアップデート,0
794,4010001258161,新規,0,2025-09-03,2025-09-03,ＢｒｉｄｇｅＷｉｓｅ　Ｊａｐａｎ株式会社,,株式会社,東京都,千代田区,丸の内１丁目５番１号新丸の内ビルディング１０階,,13,101,1000005,,,,,,,2025-09-03,1,,,,,ブリッジワイズジャパン,0
795,4010001258178,新規,0,2025-09-03,2025-09-03,株式会社モモプロ,,株式会社,東京都,中央区,銀座１丁目１２番４号Ｎ＆ＥＢＬＤ．６Ｆ,,13,102,1040061,,,,,,,2025-09-03,1,,,,,モモプロ,0
796,4010001258186,新規,0,2025-09-03,2025-09-03,株式会社Ｓｏｌｕｎａｉ,,株式会社,東京都,中央区,銀座１丁目２２番１１号銀座大竹ビジデンス２Ｆ,,13,102,1040061,,,,,,,2025-09-03,1,,,,,ソルナイ,0
798,4010003048569,新規,0,2025-09-03,2025-09-03,ＡＲＫＯＬＬＡＢ合同会社,,合同会社,東京都,千代田区,神田錦町３丁目１５番地錦精社神田ビル天翔オフィス大手町竹橋２階２０７号室,,13,101,1010054,,,,,,,2025-09-03,1,,,,,アークロボ,0
799,4010003048593,新規,0,2025-09-03,2025-09-03,合同会社Ｒプライムキャピタル,,合同会社,東京都,千代田区,鍛冶町２丁目６－２上野ビルディング８階,,13,101,1010044,,,,,,,2025-09-03,1,,,,,アールプライムキャピタル,0
800,4010003048635,新規,0,2025-09-03,2025-09-03,ＯｍｎｉＬａｂｓ合同会社,,合同会社,東京都,中央区,銀座１丁目２２番１１号銀座大竹ビジデンス２Ｆ,,13,102,1040061,,,,,,,2025-09-03,1,,,,,オムニラボ,0
801,4010005040607,新規,0,2025-09-03,2025-09-03,一般社団法人日本栄養歯科協会,,その他の設立登記法人,東京都,中央区,日本橋室町１丁目１１番１２号日本橋水野ビル７階,,13,102,1030022,,,,,,,2025-09-03,1,,,,,ニホンエイヨウシカキョウカイ,0
802,4010101016849,新規,0,2025-09-03,2025-09-03,株式会社ＵＮＩＴＯＷＮ,,株式会社,東京都,八王子市,川口町３０３９番地１,,13,201,1930801,,,,,,,2025-09-03,1,,,,,ユニタウン,0
820,4010903010231,新規,0,2025-09-03,2025-09-03,合同会社Ｌａｚｏ　ｄｅ　Ｐｌａｔａｎｏ,,合同会社,東京都,世田谷区,千歳台２丁目２９番１４号,,13,112,1570071,,,,,,,2025-09-03,1,,,,,ラソデプラタノ,0
825,4011001171791,新規,0,2025-09-03,2025-09-03,ＬＯＸＫＩ　ＪＡＰＡＮ株式会社,,株式会社,東京都,渋谷区,道玄坂１丁目１０番８号渋谷道玄坂東急ビル２Ｆ－Ｃ,,13,113,1500043,,,,,,,2025-09-03,1,,,,,ロッキージャパン,0
829,4011301030838,新規,0,2025-09-03,2025-09-03,株式会社Ｎｅｓｔｌｅ　Ｄｅｓｉｇｎ　Ｏｆｆｉｃｅ．,,株式会社,東京都,杉並区,荻窪５丁目２１番１１号ライフ荻窪２０３,,13,115,1670051,,,,,,,2025-09-03,1,,,,,ネスレデザインオフィス,0
830,4011303005689,新規,0,2025-09-03,2025-09-03,合同会社ロフティ・アイランド,,合同会社,東京都,杉並区,方南２丁目４番２４号,,13,115,1680062,,,,,,,2025-09-03,1,,,,,ロフティアイランド,0
833,4011601028937,新規,0,2025-09-03,2025-09-03,株式会社龍溯,,株式会社,東京都,練馬区,石神井町３丁目３０－２０ＴＫビル２階３号室,,13,120,1770041,,,,,,,2025-09-03,1,,,,,リュウソ,0
834,4011601028953,新規,0,2025-09-03,2025-09-03,株式会社Ｄａｌｖｏｉｃｅ,,株式会社,東京都,練馬区,栄町２番１２号,,13,120,1760006,,,,,,,2025-09-03,1,,,,,ダルボイス,0
835,4011801046664,新規,0,2025-09-03,2025-09-03,株式会社Ｎａｖｉ’ｓ,,株式会社,東京都,葛飾区,東新小岩５丁目２番８号サンファニー新小岩４０１,,13,122,1240023,,,,,,,2025-09-03,1,,,,,ネイヴィス,0
836,4011801046672,新規,0,2025-09-03,2025-09-03,株式会社Ｂｕｓｈｉｄｏ　Ｗｏｒｋｓ,,株式会社,東京都,足立区,江北１丁目３３番６号,,13,121,1230872,,,,,,,2025-09-03,1,,,,,ブシドーワークス,0
839,4012401043548,新規,0,2025-09-03,2025-09-03,株式会社シャンペル,,株式会社,東京都,三鷹市,牟礼６丁目１４番４－３０２号,,13,204,1810002,,,,,,,2025-09-03,1,,,,,シャンペル,0
842,4012703003365,新規,0,2025-09-03,2025-09-03,合同会社ねこのて,,合同会社,東京都,西東京市,向台町６丁目１番２８号,,13,229,1880013,,,,,,,2025-09-03,1,,,,,ネコノテ,0
844,4012801024214,新規,0,2025-09-03,2025-09-03,株式会社ＹＺＡ　Ａｒｃｈｉｔｅｃｔｓ,,株式会社,東京都,日野市,南平２丁目２３－１,,13,212,1910041,,,,,,,2025-09-03,1,,,,,ワイゼットエーアーキテクツ,0
845,4013101009789,新規,0,2025-09-03,2025-09-03,株式会社ハウスサポートＹＭ,,株式会社,東京都,青梅市,友田町４丁目２７８番地１３,,13,205,1980051,,,,,,,2025-09-03,1,,,,,ハウスサポートワイエム,0
847,4013301054866,新規,0,2025-09-03,2025-09-03,株式会社ＭＩリーガルサポート,,株式会社,東京都,豊島区,南池袋２丁目１２－５第３中野ビル６階Ａ号室,,13,116,1710022,,,,,,,2025-09-03,1,,,,,エムアイリーガルサポート,0
857,4020001164565,新規,0,2025-09-03,2025-09-03,株式会社Ｓｅａｒｉａｌ,,株式会社,神奈川県,川崎市中原区,中丸子３４９番地２５,,14,133,2110012,,,,,,,2025-09-03,1,,,,,シーリアル,0
871,4030003027505,新規,0,2025-09-03,2025-09-03,ＭＩＮＨ　ＮＨＡＴ合同会社,,合同会社,埼玉県,入間市,東藤沢３丁目２番１３号ＫＩＶ商会館入間Ｇ号室,,11,225,3580012,,,,,,,2025-09-03,1,,,,,ミンニャット,0
877,4040001140275,新規,0,2025-09-03,2025-09-03,青盈株式会社,,株式会社,千葉県,千葉市稲毛区,作草部町１０２５番地１３作草部コーポ３０５号室,,12,103,2630014,,,,,,,2025-09-03,1,,,,,アオエイ,0
878,4040001140317,新規,0,2025-09-03,2025-09-03,株式会社ポスト,,株式会社,千葉県,八千代市,八千代台北１丁目９番１３号メゾン三京４０１号室,,12,221,2760031,,,,,,,2025-09-03,1,,,,,ポスト,0
884,4060001038542,新規,0,2025-09-03,2025-09-03,株式会社ミマシステム,,株式会社,栃木県,小山市,駅南町６丁目１８番１７号,,09,208,3230822,,,,,,,2025-09-03,1,,,,,ミマシステム,0
886,4060003005730,新規,0,2025-09-03,2025-09-03,合同会社５３Ｍ,,合同会社,栃木県,足利市,田中町９５６番地４,,09,202,3260822,,,,,,,2025-09-03,1,,,,,ファイブスリーエム,0
892,4070001043310,新規,0,2025-09-03,2025-09-03,株式会社山下,,株式会社,群馬県,邑楽郡千代田町,大字赤岩２９３１番地１,,10,523,3700503,,,,,,,2025-09-03,1,,,,,ヤマシタ,0
894,4070003006067,新規,0,2025-09-03,2025-09-03,合同会社ＧＲＩＮＴ,,合同会社,群馬県,高崎市,上中居町１７００番地スターブルＤ号,,10,202,3700851,,,,,,,2025-09-03,1,,,,,グリント,0
897,4100003008365,新規,0,2025-09-03,2025-09-03,合同会社七紬,,合同会社,長野県,松本市,波田６５７９番地,,20,202,3901401,,,,,,,2025-09-03,1,,,,,ナツ,0
899,4110001039535,新規,0,2025-09-03,2025-09-03,インマイドリーム株式会社,,株式会社,新潟県,新潟市中央区,紫竹山１丁目２番１３号,,15,103,9500914,,,,,,,2025-09-03,1,,,,,インマイドリーム,0
918,4120001279221,新規,0,2025-09-03,2025-09-03,君源株式会社,,株式会社,大阪府,大阪市旭区,生江３丁目１－１３－４階,,27,117,5350004,,,,,,,2025-09-03,1,,,,,クンゲン,0
919,4120001279238,新規,0,2025-09-03,2025-09-03,株式会社精干開発,,株式会社,大阪府,大阪市生野区,小路２丁目８－６,,27,116,5440002,,,,,,,2025-09-03,1,,,,,セイケンカイハツ,0
920,4120001279262,新規,0,2025-09-03,2025-09-03,株式会社武士,,株式会社,大阪府,大阪市西区,九条２丁目１３番８号１Ｆ,,27,106,5500027,,,,,,,2025-09-03,1,,,,,ブシ,0
921,4120001279510,新規,0,2025-09-03,2025-09-03,株式会社ほたる,,株式会社,大阪府,守口市,大日町１丁目１５－２６レインボービル２０３号室,,27,209,5700003,,,,,,,2025-09-03,1,,,,,ホタル,0
922,4120003030433,新規,0,2025-09-03,2025-09-03,合同会社ネクスポート・リンクス,,合同会社,大阪府,大阪市旭区,大宮４丁目１８番１６号,,27,117,5350002,,,,,,,2025-09-03,1,,,,,ネクスポートリンクス,0
923,4120003030441,新規,0,2025-09-03,2025-09-03,ＬＡＭ　ＨＩＥＮ　ＪＡＰＡＮ合同会社,,合同会社,大阪府,大阪市西成区,天下茶屋東２丁目７－６六谷天下茶屋東２ハイツ２０２号室,,27,122,5570011,,,,,,,2025-09-03,1,,,,,ラムヒエンジャパン,0
925,4120005025142,新規,0,2025-09-03,2025-09-03,ｓｙｎｃ税理士法人,,その他の設立登記法人,大阪府,大阪市北区,堂島２丁目２番２６号,,27,127,5300003,,,,,,,2025-09-03,1,,,,,シンク,0
927,4120105010060,新規,0,2025-09-03,2025-09-03,阿保ツインサンズ管理組合法人,,その他の設立登記法人,大阪府,松原市,阿保２丁目７５番地の２,,27,217,5800043,,,,,,,2025-09-03,1,,,,,アオツインサンズ,0
928,4120901051464,新規,0,2025-09-03,2025-09-03,サニーバード株式会社,,株式会社,大阪府,吹田市,山田西３丁目５６番１６－１０３号,,27,205,5650824,,,,,,,2025-09-03,1,,,,,サニーバード,0
933,4130003010723,新規,0,2025-09-03,2025-09-03,Ｆｏｕｒｔｈ　Ｐｈａｓｅ合同会社,,合同会社,京都府,長岡京市,友岡西山１７番地,,26,209,6170843,,,,,,,2025-09-03,1,,,,,フォースフェーズ,0
939,4140001139885,新規,0,2025-09-03,2025-09-03,株式会社ＡＹＴ,,株式会社,兵庫県,加古川市,西神吉町鼎２９３番地の２,,28,210,6750047,,,,,,,2025-09-03,1,,,,,エーワイティ,0
948,4150001028360,新規,0,2025-09-03,2025-09-03,株式会社富雄商会,,株式会社,奈良県,奈良市,富雄北１丁目２番２３号,,29,201,6310076,,,,,,,2025-09-03,1,,,,,トミオショウカイ,0
950,4160001027031,新規,0,2025-09-03,2025-09-03,株式会社濱瀬,00140514,株式会社,滋賀県,近江八幡市,船木町１２４３番地２,,25,204,5230084,,,,,,,2025-09-03,1,,,,,ハマセ,0
954,4170001018772,新規,0,2025-09-03,2025-09-03,株式会社インフルエンスラボ,,株式会社,和歌山県,紀の川市,貴志川町井ノ口１０１０番地３０,,30,208,6400424,,,,,,,2025-09-03,1,,,,,インフルエンスラボ,0
956,4170003002287,新規,0,2025-09-03,2025-09-03,合同会社ＹＥＬＬ,,合同会社,和歌山県,和歌山市,鳴神７４６－１プレジール鳴神１０５号室,,30,201,6408303,,,,,,,2025-09-03,1,,,,,エール,0
961,4180001168402,新規,0,2025-09-03,2025-09-03,株式会社Ｒａｐｉｄｏｍ,,株式会社,愛知県,愛西市,大野町郷西２６３番地,,23,232,4960922,,,,,,,2025-09-03,1,,,,,ラピダム,0
962,4180001168435,新規,0,2025-09-03,2025-09-03,株式会社ティーフォース,,株式会社,愛知県,名古屋市北区,喜惣治１丁目３０番地,,23,103,4620065,,,,,,,2025-09-03,1,,,,,ティーフォース,0
963,4180001168451,新規,0,2025-09-03,2025-09-03,株式会社Ｎ．Ｉ．ＳＥＥＫＥＲ,,株式会社,愛知県,名古屋市中村区,名駅３丁目４番１０号アルティメイト名駅１ｓｔ２階,,23,105,4500002,,,,,,,2025-09-03,1,,,,,エヌアイシーカー,0
966,4190001032490,新規,0,2025-09-03,2025-09-03,株式会社エムズシード,,株式会社,三重県,三重郡朝日町,大字柿３０８８番地,,24,343,5108103,,,,,,,2025-09-03,1,,,,,エムズシード,0
967,4190001032508,新規,0,2025-09-03,2025-09-03,株式会社泰西,,株式会社,三重県,四日市市,楠町北五味塚３４７番地,,24,202,5100103,,,,,,,2025-09-03,1,,,,,タイセイ,0
968,4200001044187,新規,0,2025-09-03,2025-09-03,株式会社藤村,,株式会社,岐阜県,多治見市,太平町２丁目２３番地の２,,21,204,5070041,,,,,,,2025-09-03,1,,,,,フジムラ,0
969,4200001044195,新規,0,2025-09-03,2025-09-03,株式会社ＣＶｃｏｍｐａｎｙ,,株式会社,岐阜県,岐阜市,吹上町６丁目４２番地１コーポ若草１階北,,21,201,5008326,,,,,,,2025-09-03,1,,,,,シーブイカンパニー,0
971,4210003001953,新規,0,2025-09-03,2025-09-03,合同会社ＴＡＮＯＬＩ　ＡＵＴＯ,,合同会社,福井県,福井市,江守中２丁目９０７番地ローズハイツ的場２０３,,18,201,9188025,,,,,,,2025-09-03,1,,,,,タノリオート,0
974,4220001026910,新規,0,2025-09-03,2025-09-03,ハセガワ工業株式会社,,株式会社,石川県,能美市,大浜町ム８１番地１８,,17,211,9290122,,,,,,,2025-09-03,1,,,,,ハセガワコウギョウ,0
979,4240001065444,新規,0,2025-09-03,2025-09-03,株式会社やま寿司,,株式会社,広島県,東広島市,志和町志和東４０１１番地１０,,34,212,7390262,,,,,,,2025-09-03,1,,,,,ヤマズシ,0
980,4240001065452,新規,0,2025-09-03,2025-09-03,株式会社アチーブ,,株式会社,広島県,東広島市,黒瀬町宗近柳国１０３９５番地３,,34,212,7392504,,,,,,,2025-09-03,1,,,,,アチーブ,0
981,4240001065460,新規,0,2025-09-03,2025-09-03,株式会社リアンゲート,,株式会社,広島県,安芸郡海田町,石原１４番１号,,34,304,7360004,,,,,,,2025-09-03,1,,,,,リアンゲート,0
988,4250001021314,新規,0,2025-09-03,2025-09-03,しらたきやまグリーンエナジー株式会社,,株式会社,山口県,下関市,豊北町大字粟野字才ヶ瀬１０００１番地３,,35,201,7595101,,,,,,,2025-09-03,1,,,,,シラタキヤマグリーンエナジー,0
991,4260001040503,新規,0,2025-09-03,2025-09-03,株式会社稲谷総建,,株式会社,岡山県,岡山市中区,桑野７２２番地２,,33,102,7028002,,,,,,,2025-09-03,1,,,,,イナヤソウケン,0
997,4290001111251,新規,0,2025-09-03,2025-09-03,株式会社アクアウォッチ,,株式会社,福岡県,福岡市東区,箱崎３丁目１５－１４,,40,131,8120053,,,,,,,2025-09-03,1,,,,,アクアウォッチ,0
998,4290003017323,新規,0,2025-09-03,2025-09-03,合同会社Ｃｅｌｌ,,合同会社,福岡県,福岡市博多区,中洲２丁目３番１－７０３号,,40,132,8100801,,,,,,,2025-09-03,1,,,,,セル,0
1000,4290801031822,新規,0,2025-09-03,2025-09-03,ヒロ創建株式会社,,株式会社,福岡県,北九州市小倉北区,下富野４丁目２０－３１,,40,106,8020023,,,,,,,2025-09-03,1,,,,,ヒロソウケン,0
1001,4290801031830,新規,0,2025-09-03,2025-09-03,株式会社稲積調剤薬局,,株式会社,福岡県,北九州市門司区,稲積１丁目３番２７号,,40,101,8000048,,,,,,,2025-09-03,1,,,,,イナヅミチョウザイヤッキョク,0
1002,4290803005147,新規,0,2025-09-03,2025-09-03,ＳＥＩＡＮ合同会社,,合同会社,福岡県,北九州市小倉北区,大畠３丁目４番２６号内山大畠ビル２０５号,,40,106,8020026,,,,,,,2025-09-03,1,,,,,セイアン,0
1003,4300001014337,新規,0,2025-09-03,2025-09-03,株式会社ＳＹＭ’ｓカンパニー,,株式会社,佐賀県,鳥栖市,弥生が丘２丁目２１２番地,,41,203,8410005,,,,,,,2025-09-03,1,,,,,エスワイエムズカンパニー,0
1007,4310001019772,新規,0,2025-09-03,2025-09-03,株式会社Ｒｅｐａｉｎｔ,,株式会社,長崎県,長崎市,小江原５丁目２６番１１号,,42,201,8511132,,,,,,,2025-09-03,1,,,,,リペイント,0
1010,4320001021307,新規,0,2025-09-03,2025-09-03,株式会社山一,,株式会社,大分県,宇佐市,大字山下１２０４番地,,44,211,8790474,,,,,,,2025-09-03,1,,,,,ヤマイチ,0
1018,4360001035724,新規,0,2025-09-03,2025-09-03,ポーク・ワン株式会社,,株式会社,沖縄県,国頭郡金武町,字金武８０３８番地５０,,47,314,9041201,,,,,,,2025-09-03,1,,,,,ポークワン,0
1020,4360003015195,新規,0,2025-09-03,2025-09-03,玉仲ドレープ合同会社,,合同会社,沖縄県,中頭郡北谷町,字桑江４３７番地５,,47,326,9040103,,,,,,,2025-09-03,1,,,,,タマナカドレープ,0
1021,4360003015212,新規,0,2025-09-03,2025-09-03,合同会社ノーステール,,合同会社,沖縄県,国頭郡今帰仁村,字今泊１７０,,47,306,9050428,,,,,,,2025-09-03,1,,,,,ノーステール,0
1037,4480001012934,新規,0,2025-09-03,2025-09-03,株式会社Ｖｒｅｓｓ,,株式会社,徳島県,徳島市,伊月町５丁目２３番地,,36,201,7700935,,,,,,,2025-09-03,1,,,,,ブレス,0
1038,4480003002314,新規,0,2025-09-03,2025-09-03,合同会社ＧＨ,,合同会社,徳島県,徳島市,伊月町３丁目２８－５－５Ｆ,,36,201,7700935,,,,,,,2025-09-03,1,,,,,,0
1046,4500003003581,新規,0,2025-09-03,2025-09-03,合同会社ぺがさす,,合同会社,愛媛県,南宇和郡愛南町,久良９５８番地１,,38,506,7984353,,,,,,,2025-09-03,1,,,,,ペガサス,0
1054,5010001258152,新規,0,2025-09-03,2025-09-03,株式会社ワイグレース,,株式会社,東京都,中央区,銀座１丁目１２番４号Ｎ＆ＥＢＬＤ．６Ｆ,,13,102,1040061,,,,,,,2025-09-03,1,,,,,ワイグレース,0
1055,5010001258169,新規,0,2025-09-03,2025-09-03,游株式会社,,株式会社,東京都,千代田区,四番町２番地１,,13,101,1020081,,,,,,,2025-09-03,1,,,,,ユウ,0
1056,5010001258219,新規,0,2025-09-03,2025-09-03,株式会社Ｍａｃｔ,,株式会社,東京都,中央区,日本橋室町１丁目１１番１２号日本橋水野ビル７階,,13,102,1030022,,,,,,,2025-09-03,1,,,,,マクト,0
1062,5010005040614,新規,0,2025-09-03,2025-09-03,医療法人社団望躍会,,その他の設立登記法人,東京都,千代田区,九段北１丁目２番１号九段中央ビル２階,,13,101,1020073,,,,,,,2025-09-03,1,,,,,モウヤクカイ,0
1063,5010101016848,新規,0,2025-09-03,2025-09-03,株式会社一寸工房,,株式会社,東京都,八王子市,中野山王１丁目１９番１５号,,13,201,1920042,,,,,,,2025-09-03,1,,,,,イッスンコウボウ,0
1074,5010701048241,新規,0,2025-09-03,2025-09-03,株式会社Ｅｘｐｏｒｔａｌ,,株式会社,東京都,品川区,西五反田３丁目１５番８号２階,,13,109,1410031,,,,,,,2025-09-03,1,,,,,エクスポータル,0
1080,5010901057991,新規,0,2025-09-03,2025-09-03,日交世田谷株式会社,,株式会社,東京都,世田谷区,大蔵１丁目２番１３号,,13,112,1570074,,,,,,,2025-09-03,1,,,,,ニッコウセタガヤ,0
1083,5011001171790,新規,0,2025-09-03,2025-09-03,Ｒｅｇｅｎｅｒａｔｉｖｅ　Ｊａｐａｎ株式会社,,株式会社,東京都,渋谷区,渋谷２丁目１９番１９号ワコー宮益坂ビル５階,,13,113,1500002,,,,,,,2025-09-03,1,,,,,リジェネラティブジャパン,0
1088,5011101113032,新規,0,2025-09-03,2025-09-03,株式会社Ｓｕｎｃｈｉ,,株式会社,東京都,新宿区,四谷４丁目２９－３－１１０６,,13,104,1600004,,,,,,,2025-09-03,1,,,,,サンチ,0
1091,5011303005696,新規,0,2025-09-03,2025-09-03,合同会社ダブルダッシュ,,合同会社,東京都,杉並区,和泉２丁目２６－２９－１０７,,13,115,1680063,,,,,,,2025-09-03,1,,,,,ダブルダッシュ,0
1106,5011803007028,新規,0,2025-09-03,2025-09-03,ＭＯＹＥ合同会社,,合同会社,東京都,足立区,小台１丁目２２番２－７１５号尾久橋スカイハイツ,,13,121,1200046,,,,,,,2025-09-03,1,,,,,モイエ,0
1107,5012401043563,新規,0,2025-09-03,2025-09-03,株式会社フューチャーム,,株式会社,東京都,武蔵野市,吉祥寺本町１丁目３０番１３号ＫＳ１０ビル４階,,13,203,1800004,,,,,,,2025-09-03,1,,,,,フューチャーム,0
1110,5012405005155,新規,0,2025-09-03,2025-09-03,一般社団法人アス町,,その他の設立登記法人,東京都,三鷹市,上連雀５丁目１３番３１号,,13,204,1810012,,,,,,,2025-09-03,1,,,,,アスマチ,0
1114,5013301054857,新規,0,2025-09-03,2025-09-03,株式会社ＨＩＲＯホールディングス,,株式会社,東京都,豊島区,東池袋１丁目３３番４－７０７号,,13,116,1700013,,,,,,,2025-09-03,1,,,,,ヒーローホールディングス,0
1118,5020001164614,新規,0,2025-09-03,2025-09-03,イーワンサポート株式会社,,株式会社,神奈川県,横浜市鶴見区,駒岡４丁目１１番４０号,,14,101,2300071,,,,,,,2025-09-03,1,,,,,イーワンサポート,0
1119,5020001164622,新規,0,2025-09-03,2025-09-03,株式会社ユービナス,,株式会社,神奈川県,横浜市都筑区,勝田町１１６９番地,,14,118,2240034,,,,,,,2025-09-03,1,,,,,ユービナス,0
1124,5021001086146,新規,0,2025-09-03,2025-09-03,ＴＲコーポレーション株式会社,,株式会社,神奈川県,相模原市南区,相模大野６丁目１６番２３号ＹＡＭＡＮＩビル２０１号,,14,153,2520303,,,,,,,2025-09-03,1,,,,,ティーアールコーポレーション,0
1129,5030001168390,新規,0,2025-09-03,2025-09-03,有志ＷＯＲＫＳ株式会社,,株式会社,埼玉県,川越市,大字天沼新田２９７番地３,,11,201,3500806,,,,,,,2025-09-03,1,,,,,,0
1130,5030001168416,新規,0,2025-09-03,2025-09-03,株式会社Ｚ,,株式会社,埼玉県,上尾市,愛宕２丁目１８－１５,,11,219,3620034,,,,,,,2025-09-03,1,,,,,ゼット,0
1133,5030003027495,新規,0,2025-09-03,2025-09-03,合同会社ビルス,,合同会社,埼玉県,さいたま市中央区,八王子２丁目１５番５号,,11,105,3380006,,,,,,,2025-09-03,1,,,,,ビルス,0
1134,5030003027504,新規,0,2025-09-03,2025-09-03,Ｐ＆Ｂ合同会社,,合同会社,埼玉県,鶴ヶ島市,大字鶴ヶ丘６２－２２（２Ｆ）,,11,241,3502204,,,,,,,2025-09-03,1,,,,,ピーアンドビー,0
1135,5030003027512,新規,0,2025-09-03,2025-09-03,合同会社てんてんワークス,,合同会社,埼玉県,深谷市,畠山１８５７番地,,11,218,3691107,,,,,,,2025-09-03,1,,,,,テンテンワークス,0
1136,5030003027529,新規,0,2025-09-03,2025-09-03,合同会社蜻蛉の杜,,合同会社,埼玉県,児玉郡上里町,大字勅使河原１９４２番地１,,11,385,3690311,,,,,,,2025-09-03,1,,,,,トンボノモリ,0
1145,5040001140258,新規,0,2025-09-03,2025-09-03,衆益株式会社,,株式会社,千葉県,市川市,南八幡１丁目９－１３－３０１,,12,203,2720023,,,,,,,2025-09-03,1,,,,,シュウエキ,0
1146,5040001140340,新規,0,2025-09-03,2025-09-03,株式会社ごちジャム,,株式会社,千葉県,市川市,市川南３丁目１３番１７－９１１号,,12,203,2720033,,,,,,,2025-09-03,1,,,,,ゴチジャム,0
1148,5040003028410,新規,0,2025-09-03,2025-09-03,合同会社Ｂ３Ｎｅｘｔ,,合同会社,千葉県,浦安市,今川２丁目１５番３３－２０７号,,12,227,2790022,,,,,,,2025-09-03,1,,,,,ビーネクスト,0
1155,5080001027121,新規,0,2025-09-03,2025-09-03,アンド・コンサルティングファーム株式会社,,株式会社,静岡県,静岡市葵区,呉服町１丁目２０番地呉服町タワー１２０４号,,22,101,4200031,,,,,,,2025-09-03,1,,,,,アンドコンサルティングファーム,0
1156,5080401028149,新規,0,2025-09-03,2025-09-03,株式会社原田工業所　ＨＤ,,株式会社,静岡県,掛川市,篠場１６５番地,,22,213,4360033,,,,,,,2025-09-03,1,,,,,ハラダコウギョウショホールディングス,0
1158,5090001019489,新規,0,2025-09-03,2025-09-03,株式会社エイトカンパニー,,株式会社,山梨県,甲斐市,龍地５５６番地１,,19,210,4000104,,,,,,,2025-09-03,1,,,,,,0
1162,5100001038909,新規,0,2025-09-03,2025-09-03,株式会社おしみファクトリー,,株式会社,長野県,長野市,桜新町８０１番地３０,,20,201,3810013,,,,,,,2025-09-03,1,,,,,オシミファクトリー,0
1164,5100003008364,新規,0,2025-09-03,2025-09-03,合同会社Ｓｍａｒｔ　Ｌｉｆｅ,,合同会社,長野県,茅野市,金沢２２９６番地２,,20,214,3910012,,,,,,,2025-09-03,1,,,,,スマートライフ,0
1165,5100005013387,新規,0,2025-09-03,2025-09-03,一般社団法人上押野営農組合,,その他の設立登記法人,長野県,安曇野市,明科七貴１０５７番地２,,20,220,3997104,,,,,,,2025-09-03,1,,,,,カミオシノエイノウクミアイ,0
1180,5120001279229,新規,0,2025-09-03,2025-09-03,Ｈ２Ｙ株式会社,,株式会社,大阪府,枚方市,養父丘２丁目３番９号,,27,210,5731134,,,,,,,2025-09-03,1,,,,,エイチツーワイ,0
1181,5120001279253,新規,0,2025-09-03,2025-09-03,玖菊株式会社,,株式会社,大阪府,大阪市城東区,関目２丁目１２番２６号,,27,118,5360008,,,,,,,2025-09-03,1,,,,,キュウキク,0
1182,5120001279286,新規,0,2025-09-03,2025-09-03,大福商事株式会社,,株式会社,大阪府,大阪市大正区,三軒家東１丁目１７番３３号（谷村ビル内）,,27,108,5510002,,,,,,,2025-09-03,1,,,,,ダイフクショウジ,0
1186,5120003030515,新規,0,2025-09-03,2025-09-03,合同会社出たら芽,,合同会社,大阪府,大阪市平野区,加美西１丁目１３番３６‐９０１号,,27,126,5470005,,,,,,,2025-09-03,1,,,,,デタラメ,0
1191,5130001080412,新規,0,2025-09-03,2025-09-03,株式会社Ｅｎ‐ｇａｗａ　ＢＡＳＥ京都,,株式会社,京都府,京都市下京区,中堂寺南町１３４番地京都リサーチパーク,,26,106,6008813,,,,,,,2025-09-03,1,,,,,エンガワベースキョウト,0
1199,5140003022527,新規,0,2025-09-03,2025-09-03,フェリシア合同会社,,合同会社,兵庫県,加古川市,志方町西中２２７番地の１,,28,210,6750346,,,,,,,2025-09-03,1,,,,,フェリシア,0
1201,5150001028376,新規,0,2025-09-03,2025-09-03,株式会社満陽設備工業,,株式会社,奈良県,天理市,二階堂上ノ庄町１７番地５,,29,204,6320081,,,,,,,2025-09-03,1,,,,,マンヨウセツビコウギョウ,0
1206,5160001027030,新規,0,2025-09-03,2025-09-03,株式会社ＧＡＲＤＥＮＳ,,株式会社,滋賀県,蒲生郡日野町,大字鎌掛２３１２番地,,25,383,5291631,,,,,,,2025-09-03,1,,,,,ガーデンズ,0
1210,5160003003582,新規,0,2025-09-03,2025-09-03,合同会社ＷＡＴＡＮＡＢＥ,,合同会社,滋賀県,栗東市,綣１丁目１８－３カーサフェリーチェ淡海１Ｆ,,25,208,5203031,,,,,,,2025-09-03,1,,,,,ワタナベ,0
1211,5170001018771,新規,0,2025-09-03,2025-09-03,株式会社大坊農園,,株式会社,和歌山県,田辺市,高雄２丁目２０番２５号,,30,206,6460028,,,,,,,2025-09-03,1,,,,,オオボウノウエン,0
1221,5180001168368,新規,0,2025-09-03,2025-09-03,株式会社ワイエムワイ,,株式会社,愛知県,名古屋市瑞穂区,玉水町２丁目２５番地の６,,23,108,4670046,,,,,,,2025-09-03,1,,,,,ワイエムワイ,0
1222,5180001168467,新規,0,2025-09-03,2025-09-03,渡由製菓株式会社,,株式会社,愛知県,名古屋市西区,天神山町７番１０号,,23,104,4510065,,,,,,,2025-09-03,1,,,,,ワタヨシセイカ,0
1225,5180003028958,新規,0,2025-09-03,2025-09-03,合同会社Ｒｉｐｉｅｎｏ,,合同会社,愛知県,名古屋市中区,金山２丁目１５番２号ステーションプラザ金山２０１,,23,106,4600022,,,,,,,2025-09-03,1,,,,,リピエノ,0
1227,5180301040169,新規,0,2025-09-03,2025-09-03,株式会社ニシオマネジメントラボ,,株式会社,愛知県,西尾市,高畠町４丁目９０番地ＣＩＴＹＢＵＩＬＤ地久３０７号室,,23,213,4450064,,,,,,,2025-09-03,1,,,,,ニシオマネジメントラボ,0
1229,5190001032507,新規,0,2025-09-03,2025-09-03,株式会社ゆいまーる,,株式会社,三重県,四日市市,大字泊村４１１１番地１,,24,202,5100894,,,,,,,2025-09-03,1,,,,,ユイマール,0
1233,5220003004112,新規,0,2025-09-03,2025-09-03,合同会社ＫＩ,,合同会社,石川県,金沢市,石引２丁目８番７号,,17,201,9200935,,,,,,,2025-09-03,1,,,,,ケイアイ,0
1235,5240001065427,新規,0,2025-09-03,2025-09-03,ＩＮＤＩＧＯ　ＷＯＲＫＳ株式会社,,株式会社,広島県,福山市,若松町４番１８号Ａ＆Ｇビル２Ｆ,,34,207,7200034,,,,,,,2025-09-03,1,,,,,インディゴワークス,0
1236,5240001065443,新規,0,2025-09-03,2025-09-03,正進株式会社,,株式会社,広島県,福山市,草戸町５丁目４番１０－４号,,34,207,7200831,,,,,,,2025-09-03,1,,,,,ショウシン,0
1237,5240001065451,新規,0,2025-09-03,2025-09-03,株式会社堀江塗建,,株式会社,広島県,広島市安佐南区,長楽寺３丁目２７番１２号,,34,105,7310143,,,,,,,2025-09-03,1,,,,,ホリエトケン,0
1241,5250001021313,新規,0,2025-09-03,2025-09-03,株式会社ＯＭＳＯＮ．,,株式会社,山口県,下関市,長府満珠町１６番１７号,,35,201,7520947,,,,,,,2025-09-03,1,,,,,オムソン,0
1243,5260001040510,新規,0,2025-09-03,2025-09-03,株式会社アロハパートナーズ,,株式会社,岡山県,玉野市,後閑１番地１４４,,33,204,7060315,,,,,,,2025-09-03,1,,,,,アロハパートナーズ,0
1244,5260001040519,新規,0,2025-09-03,2025-09-03,水木株式会社,,株式会社,岡山県,岡山市中区,湊９６番地１０,,33,102,7038266,,,,,,,2025-09-03,1,,,,,ミズキ,0
1253,5290001111218,新規,0,2025-09-03,2025-09-03,株式会社ひととまち笑顔,,株式会社,福岡県,福岡市東区,香椎駅東４丁目６１番１５号,,40,131,8130012,,,,,,,2025-09-03,1,,,,,ヒトトマチエガオ,0
1254,5290001111226,新規,0,2025-09-03,2025-09-03,株式会社メアレス,,株式会社,福岡県,三潴郡大木町,大字大角１５８９－１Ｃ号,,40,522,8300403,,,,,,,2025-09-03,1,,,,,メアレス,0
1255,5290001111250,新規,0,2025-09-03,2025-09-03,ＳＴＥＥＲＲＡ株式会社,,株式会社,福岡県,福岡市博多区,博多駅前１丁目２３番２号ＰａｒｋＦｒｏｎｔ博多駅前１丁目５Ｆ－Ｂ,,40,132,8120011,,,,,,,2025-09-03,1,,,,,スティーラ,0
1256,5290001111366,新規,0,2025-09-03,2025-09-03,株式会社スペース,,株式会社,福岡県,うきは市,浮羽町東隈上３６１番地６,,40,225,8391403,,,,,,,2025-09-03,1,,,,,スペース,0
1262,5290801031813,新規,0,2025-09-03,2025-09-03,株式会社ＣＬＥＡＲ,,株式会社,福岡県,北九州市小倉南区,朽網西５丁目３９番３号,,40,107,8000233,,,,,,,2025-09-03,1,,,,,クリア,0
1263,5290801031821,新規,0,2025-09-03,2025-09-03,株式会社健心,,株式会社,福岡県,北九州市小倉南区,沼本町１丁目７番３８号,,40,107,8000208,,,,,,,2025-09-03,1,,,,,ケンシン,0
1265,5290803005146,新規,0,2025-09-03,2025-09-03,合同会社食養メディア,,合同会社,福岡県,北九州市小倉南区,横代葉山２８－５,,40,107,8020825,,,,,,,2025-09-03,1,,,,,ショクヨメディア,0
1273,5340001027623,新規,0,2025-09-03,2025-09-03,株式会社大洋ファーム,,株式会社,鹿児島県,南さつま市,金峰町尾下１８０２番地,,46,220,8993403,,,,,,,2025-09-03,1,,,,,タイヨウファーム,0
1280,5360003015211,新規,0,2025-09-03,2025-09-03,合同会社ＩＳＬＡＮＤ　ＢＡＣＫ,,合同会社,沖縄県,豊見城市,字豊崎１番地２２９,,47,212,9010225,,,,,,,2025-09-03,1,,,,,アイランドバック,0
1284,5390001018097,新規,0,2025-09-03,2025-09-03,株式会社小松アグリ,,株式会社,山形県,東村山郡中山町,大字長崎１９７７番地２,,06,302,9900401,,,,,,,2025-09-03,1,,,,,コマツアグリ,0
1285,5390003002438,新規,0,2025-09-03,2025-09-03,合同会社Ｔａｇａ,,合同会社,山形県,鶴岡市,苗津町５番２号,,06,203,9970809,,,,,,,2025-09-03,1,,,,,,0
1289,5430003018041,新規,0,2025-09-03,2025-09-03,合同会社エムエスケイ,,合同会社,北海道,北広島市,西の里東４丁目１０番地２６,,01,234,0611105,,,,,,,2025-09-03,1,,,,,エムエスケイ,0
1290,5430005015284,新規,0,2025-09-03,2025-09-03,特定非営利活動法人萌芽園,,その他の設立登記法人,北海道,札幌市東区,北二十二条東３丁目１番３５号,,01,103,0650022,,,,,,,2025-09-03,1,,,,,ホウガエン,0
1291,5440001009677,新規,0,2025-09-03,2025-09-03,株式会社Ｍａｃｈｉコーポレーション,,株式会社,北海道,函館市,東山町１７５番地１５,,01,202,0410834,,,,,,,2025-09-03,1,,,,,マチコーポレーション,0
1292,5450003002712,新規,0,2025-09-03,2025-09-03,合同会社ｅｕｋｏｔｅ,,合同会社,北海道,旭川市,五条通７丁目１２７８番地の３,,01,204,0700035,,,,,,,2025-09-03,1,,,,,エウコテ,0
1294,5480001012933,新規,0,2025-09-03,2025-09-03,株式会社サンクラ,,株式会社,徳島県,徳島市,南庄町５丁目６１番地の１５,,36,201,7700045,,,,,,,2025-09-03,1,,,,,サンクラ,0
1302,6010001257814,新規,0,2025-09-03,2025-09-03,株式会社ＥｘＳｅｅｄ,,株式会社,東京都,中央区,日本橋兜町９番５号,,13,102,1030026,,,,,,,2025-09-03,1,,,,,エクシード,0
1303,6010001258110,新規,0,2025-09-03,2025-09-03,千葉森林株式会社,,株式会社,東京都,中央区,銀座１丁目１９番１４号銀座ＯＮＥビル６階,,13,102,1040061,,,,,,,2025-09-03,1,,,,,センヨウリンリン,0
1304,6010001258151,新規,0,2025-09-03,2025-09-03,株式会社ＴＭＫＲ,,株式会社,東京都,中央区,日本橋室町４丁目３番９号,,13,102,1030022,,,,,,,2025-09-03,1,,,,,ティーエムケイアール,0
1305,6010003048484,新規,0,2025-09-03,2025-09-03,ＶＩＮＯＷＡ合同会社,,合同会社,東京都,文京区,本郷６丁目２０番１２号２０１,,13,105,1130033,,,,,,,2025-09-03,1,,,,,ビノワ,0
1311,6010005040605,新規,0,2025-09-03,2025-09-03,キャットパートナー一般社団法人,,その他の設立登記法人,東京都,千代田区,九段南３丁目７番７号成和綜合会計事務所内,,13,101,1020074,,,,,,,2025-09-03,1,,,,,キャットパートナー,0
1323,6010703007896,新規,0,2025-09-03,2025-09-03,合同会社ＩｎＲｉｖｅｒ,,合同会社,東京都,品川区,勝島１丁目７番１５－８０４号,,13,109,1400012,,,,,,,2025-09-03,1,,,,,インリバー,0
1331,6010901058015,新規,0,2025-09-03,2025-09-03,株式会社ＭＰ．ｌｉｆｅ,,株式会社,東京都,世田谷区,千歳台２丁目１１番４号,,13,112,1570071,,,,,,,2025-09-03,1,,,,,エムピーライフ,0
1348,6011301030844,新規,0,2025-09-03,2025-09-03,ＭＩＲＡＣＴ株式会社,,株式会社,東京都,杉並区,清水３丁目２６番１７－２０７号,,13,115,1670033,,,,,,,2025-09-03,1,,,,,ミラクト,0
1350,6011401027369,新規,0,2025-09-03,2025-09-03,エイチリンク株式会社,,株式会社,東京都,板橋区,志村１丁目１３番１４号ニューライフ志村坂上２０１,,13,119,1740056,,,,,,,2025-09-03,1,,,,,エイチリンク,0
1355,6012401043538,新規,0,2025-09-03,2025-09-03,株式会社叶家,,株式会社,東京都,武蔵野市,境南町２丁目８番６－２０１号正和ビル,,13,203,1800023,,,,,,,2025-09-03,1,,,,,カノカ,0
1356,6012401043546,新規,0,2025-09-03,2025-09-03,株式会社ｉｌｏ．,,株式会社,東京都,府中市,片町２丁目２２番地の１山二ビル２階,,13,206,1830021,,,,,,,2025-09-03,1,,,,,イロ,0
1357,6012401043554,新規,0,2025-09-03,2025-09-03,トネコボ株式会社,,株式会社,東京都,狛江市,中和泉５丁目２１番１７号,,13,219,2010012,,,,,,,2025-09-03,1,,,,,トネコボ,0
1358,6012403007318,新規,0,2025-09-03,2025-09-03,愛康合同会社,,合同会社,東京都,稲城市,坂浜１０６２番地の５,,13,225,2060822,,,,,,,2025-09-03,1,,,,,アイコウ,0
1361,6012801024204,新規,0,2025-09-03,2025-09-03,ＴＯＷＮ株式会社,,株式会社,東京都,立川市,栄町２丁目３５番地の１,,13,202,1900003,,,,,,,2025-09-03,1,,,,,トウン,0
1362,6012801024212,新規,0,2025-09-03,2025-09-03,ＹＨＣ２株式会社,,株式会社,東京都,東大和市,立野２丁目１番地の１,,13,220,2070021,,,,,,,2025-09-03,1,,,,,ワイエイチシーツー,0
1364,6012805003360,新規,0,2025-09-03,2025-09-03,一般社団法人ジャパンフード＆キッチンカー協会,,その他の設立登記法人,東京都,立川市,栄町３丁目３５番地３４,,13,202,1900003,,,,,,,2025-09-03,1,,,,,ジャパンフードアンドキッチンカーキョウカイ,0
1371,6020001164613,新規,0,2025-09-03,2025-09-03,株式会社中蔵左官,,株式会社,神奈川県,川崎市川崎区,田島町２番１号,,14,131,2100853,,,,,,,2025-09-03,1,,,,,ナカクラサカン,0
1374,6021003016439,新規,0,2025-09-03,2025-09-03,合同会社キャリアアドバンス,,合同会社,神奈川県,横須賀市,日の出町１丁目６番地,,14,201,2380006,,,,,,,2025-09-03,1,,,,,キャリアアドバンス,0
1379,6030001168398,新規,0,2025-09-03,2025-09-03,株式会社ＧＡＷ,,株式会社,埼玉県,久喜市,佐間５３４番地１,,11,232,3491124,,,,,,,2025-09-03,1,,,,,ガウ,0
1380,6030001168407,新規,0,2025-09-03,2025-09-03,柏原株式会社,,株式会社,埼玉県,上尾市,栄町４－３０－１,,11,219,3620033,,,,,,,2025-09-03,1,,,,,カシワバラ,0
1394,6040001140158,新規,0,2025-09-03,2025-09-03,Ｋｉｎｅｔｉｃ　Ｌｉｎｋ株式会社,,株式会社,千葉県,柏市,富里３丁目２－５－２－３１４,,12,217,2770081,,,,,,,2025-09-03,1,,,,,キネティックリンク,0
1395,6040001140232,新規,0,2025-09-03,2025-09-03,株式会社ケイワイエーホールディングス,,株式会社,千葉県,船橋市,滝台１丁目６番１号,,12,204,2740074,,,,,,,2025-09-03,1,,,,,ケイワイエーホールディングス,0
1396,6040001140265,新規,0,2025-09-03,2025-09-03,株式会社Ｔｈｅ　Ｒｉｃｈ,,株式会社,千葉県,松戸市,新松戸４丁目１０５番地の１菊水コーポ３０１号,,12,207,2700034,,,,,,,2025-09-03,1,,,,,ザリッチ,0
1397,6040001140298,新規,0,2025-09-03,2025-09-03,株式会社利久食品,,株式会社,千葉県,柏市,若柴６９－１,,12,217,2770871,,,,,,,2025-09-03,1,,,,,リキュウショクヒン,0
1398,6040001140323,新規,0,2025-09-03,2025-09-03,Ｊ＆Ｃホールディングス株式会社,,株式会社,千葉県,袖ケ浦市,蔵波２９６１番地５９,,12,229,2990243,,,,,,,2025-09-03,1,,,,,ジェイアンドシーホールディングス,0
1401,6040003028343,新規,0,2025-09-03,2025-09-03,テックフューチャー合同会社,,合同会社,千葉県,船橋市,七林町４３６番地２６８,,12,204,2740821,,,,,,,2025-09-03,1,,,,,テックフューチャー,0
1403,6050003009524,新規,0,2025-09-03,2025-09-03,ＨＫＧ　ＧＥＮＥＲＡＬ　ＴＲＡＤＩＮＧ合同会社,,合同会社,茨城県,結城郡八千代町,大字平塚４８０７番地３３９,,08,521,3003561,,,,,,,2025-09-03,1,,,,,エイチケージージェネラルトレーディング,0
1410,6090001019488,新規,0,2025-09-03,2025-09-03,株式会社アビリティラボ,,株式会社,山梨県,中央市,成島２２６４番地６,,19,214,4093815,,,,,,,2025-09-03,1,,,,,アビリティラボ,0
1413,6100001038916,新規,0,2025-09-03,2025-09-03,株式会社Ｎｏｒｔｈ　Ｃｏｍｐａｎｙ,,株式会社,長野県,岡谷市,堀ノ内２丁目１０番１２号,,20,204,3940024,,,,,,,2025-09-03,1,,,,,ノースカンパニー,0
1414,6100003008363,新規,0,2025-09-03,2025-09-03,合同会社ＡＴＲＥ,,合同会社,長野県,長野市,大字東和田８２３番地１２,,20,201,3810038,,,,,,,2025-09-03,1,,,,,アトレー,0
1418,6110001039541,新規,0,2025-09-03,2025-09-03,株式会社モクリ,,株式会社,新潟県,新発田市,佐々木２０５４番地１,,15,206,9570082,,,,,,,2025-09-03,1,,,,,モクリ,0
1421,6110003005871,新規,0,2025-09-03,2025-09-03,合同会社加津己,,合同会社,新潟県,新潟市西区,五十嵐３の町南３番３４号,,15,107,9502175,,,,,,,2025-09-03,1,,,,,カツミ,0
1436,6120001279252,新規,0,2025-09-03,2025-09-03,君和株式会社,,株式会社,大阪府,大阪市淀川区,三津屋北２丁目１１番８号リバーサイド三津屋１０４号室,,27,123,5320032,,,,,,,2025-09-03,1,,,,,クンワ,0
1437,6120001279269,新規,0,2025-09-03,2025-09-03,Ｔ＆Ｇ株式会社,,株式会社,大阪府,大阪市北区,梅田１丁目２番２号大阪駅前第２ビル１２－１２,,27,127,5300001,,,,,,,2025-09-03,1,,,,,ティーアンドジー,0
1438,6120001279302,新規,0,2025-09-03,2025-09-03,Ｊ　ＭＥＴＨＯＤ株式会社,,株式会社,大阪府,大阪市中央区,南船場３丁目１番１６号,,27,128,5420081,,,,,,,2025-09-03,1,,,,,ジェイメソッド,0
1439,6120001279368,新規,0,2025-09-03,2025-09-03,洋跡株式会社,,株式会社,大阪府,大阪市生野区,小路２丁目１１－２３,,27,116,5440002,,,,,,,2025-09-03,1,,,,,ヨウセキ,0
1445,6120003030407,新規,0,2025-09-03,2025-09-03,合同会社ＭＡＲＩ,,合同会社,大阪府,大阪市西成区,聖天下１丁目９－９,,27,122,5570012,,,,,,,2025-09-03,1,,,,,マリ,0
1446,6120003030431,新規,0,2025-09-03,2025-09-03,美凪合同会社,,合同会社,大阪府,大阪市住之江区,南港北２丁目１－１０,,27,125,5590034,,,,,,,2025-09-03,1,,,,,ミナ,0
1448,6120005025132,新規,0,2025-09-03,2025-09-03,一般社団法人日輝国際文化協会,,その他の設立登記法人,大阪府,大阪市中央区,博労町１丁目８番８－７０２号,,27,128,5410059,,,,,,,2025-09-03,1,,,,,ニッキコクサイブンカキョウカイ,0
1451,6120101072342,新規,0,2025-09-03,2025-09-03,株式会社永和,,株式会社,大阪府,羽曳野市,埴生野１０６６番地,,27,222,5830866,,,,,,,2025-09-03,1,,,,,エイワ,0
1452,6120101072359,新規,0,2025-09-03,2025-09-03,株式会社ｍｏｄｅ,,株式会社,大阪府,富田林市,錦織南２丁目１４番２号,,27,214,5840067,,,,,,,2025-09-03,1,,,,,モデ,0
1455,6120905006784,新規,0,2025-09-03,2025-09-03,農事組合法人ピアンタ・ノーマ,,その他の設立登記法人,大阪府,豊能郡能勢町,野間中８６８番地１,,27,322,5630132,,,,,,,2025-09-03,1,,,,,ピアンタノーマ,0
1456,6130001080403,新規,0,2025-09-03,2025-09-03,株式会社ＮＩ　Ｍｅｔａｌ,,株式会社,京都府,京都市東山区,東大路七条下る東瓦町６８３番地４－３Ｆ,,26,105,6050951,,,,,,,2025-09-03,1,,,,,エヌアイメタル,0
1457,6130001080452,新規,0,2025-09-03,2025-09-03,Ｍａｙａｈ　Ｈｏｓｐｉｔａｌｉｔｙ　Ｊａｐａｎ株式会社,,株式会社,京都府,京都市中京区,河原町通二条下る一之船入町３７６クロトビル４Ｆ,,26,104,6040924,,,,,,,2025-09-03,1,,,,,マヤホスピタリティジャパン,0
1463,6140001139867,新規,0,2025-09-03,2025-09-03,河野不動産株式会社,,株式会社,兵庫県,姫路市,白浜町宇佐崎北３丁目２５番地,,28,201,6728013,,,,,,,2025-09-03,1,,,,,コウノフドウサン,0
1470,6150001028375,新規,0,2025-09-03,2025-09-03,株式会社ミライフォース,,株式会社,奈良県,奈良市,三条町４７５松田ビル２階,,29,201,6308244,,,,,,,2025-09-03,1,,,,,ミライフォース,0
1483,6180001168383,新規,0,2025-09-03,2025-09-03,ＥＡＳＹ　ＰＡＲＴＳ株式会社,,株式会社,愛知県,大府市,梶田町５丁目１３３番地の７,,23,223,4740071,,,,,,,2025-09-03,1,,,,,イージーパーツ,0
1484,6180001168441,新規,0,2025-09-03,2025-09-03,株式会社時緯エンジニアリング,,株式会社,愛知県,名古屋市中村区,名駅４丁目４－３８愛知県産業労働センターウィンクあいち１８階,,23,105,4500002,,,,,,,2025-09-03,1,,,,,ジイエンジニアリング,0
1485,6180001168466,新規,0,2025-09-03,2025-09-03,株式会社プロテクトアート,,株式会社,愛知県,名古屋市名東区,高社１丁目２６６番地,,23,115,4650095,,,,,,,2025-09-03,1,,,,,プロテクトアート,0
1492,6180003028957,新規,0,2025-09-03,2025-09-03,合同会社ハートケア,,合同会社,愛知県,一宮市,大赤見字神明前２３６９番地１Ｆｌｏｒｅｓｔａ２０５号,,23,203,4910015,,,,,,,2025-09-03,1,,,,,ハートケア,0
1497,6200003007000,新規,0,2025-09-03,2025-09-03,合同会社ＲＥＩＫＡＩＮＣ,,合同会社,岐阜県,岐阜市,鏡島西２丁目５番２７号,,21,201,5010123,,,,,,,2025-09-03,1,,,,,ロイキン,0
1498,6210003001951,新規,0,2025-09-03,2025-09-03,ＲｅＶＡキャピタル合同会社,,合同会社,福井県,勝山市,毛屋町１２０６番地,,18,206,9110816,,,,,,,2025-09-03,1,,,,,リーヴァキャピタル,0
1504,6220001026900,新規,0,2025-09-03,2025-09-03,株式会社Ｓｏａ,,株式会社,石川県,野々市市,藤平田１丁目４６２番地,,17,212,9218832,,,,,,,2025-09-03,1,,,,,ソア,0
1505,6220001026909,新規,0,2025-09-03,2025-09-03,株式会社鏑木設備設計,,株式会社,石川県,金沢市,畝田東２丁目５２４番地１,,17,201,9200344,,,,,,,2025-09-03,1,,,,,カブラキセツビセッケイ,0
1511,6240001065442,新規,0,2025-09-03,2025-09-03,株式会社三楽,,株式会社,広島県,福山市,日吉台２丁目１５番５－６０８号,,34,207,7210972,,,,,,,2025-09-03,1,,,,,サンラク,0
1512,6240001065450,新規,0,2025-09-03,2025-09-03,株式会社まい菓,,株式会社,広島県,広島市安佐南区,大町東３丁目８番５－２０３号,,34,105,7310124,,,,,,,2025-09-03,1,,,,,マイカ,0
1513,6240001065459,新規,0,2025-09-03,2025-09-03,株式会社ｏｗｎ　ｓｏｉｌ,,株式会社,広島県,広島市南区,翠２丁目２４番２８号,,34,103,7340005,,,,,,,2025-09-03,1,,,,,オウンソイル,0
1520,6260001040492,新規,0,2025-09-03,2025-09-03,株式会社ヤマシタ設備,,株式会社,岡山県,津山市,上之町３１０番地１,,33,203,7080831,,,,,,,2025-09-03,1,,,,,ヤマシタセツビ,0
1522,6270003001789,新規,0,2025-09-03,2025-09-03,合同会社さくら商事,,合同会社,鳥取県,日野郡江府町,大字宮市１６７番地,,31,403,6894421,,,,,,,2025-09-03,1,,,,,サクラショウジ,0
1525,6290003017362,新規,0,2025-09-03,2025-09-03,Ｔ‐Ｍａｉｓｏｎ合同会社,,合同会社,福岡県,福岡市南区,大池２丁目１６番２４―１０１号ヴィルヌーブ大池Ｂ棟,,40,134,8150073,,,,,,,2025-09-03,1,,,,,ティーメゾン,0
1532,6290801031820,新規,0,2025-09-03,2025-09-03,株式会社Ｓ＆Ｋゴルフ,,株式会社,福岡県,京都郡みやこ町,光冨９５－１京都カントリー倶楽部１Ｆ,,40,625,8240115,,,,,,,2025-09-03,1,,,,,エスアンドケーゴルフ,0
1533,6290801031829,新規,0,2025-09-03,2025-09-03,株式会社ケーメック,,株式会社,福岡県,北九州市八幡西区,三ケ森４丁目１０－２Ｆ,,40,109,8070843,,,,,,,2025-09-03,1,,,,,ケーメック,0
1535,6300001014343,新規,0,2025-09-03,2025-09-03,株式会社ＮＳ実業,,株式会社,佐賀県,佐賀市,兵庫町大字渕１５２４Ｄ－Ｔｏｗｎ兵庫１０３,,41,201,8490913,,,,,,,2025-09-03,1,,,,,エヌエスジツギョウ,0
1552,6360001035730,新規,0,2025-09-03,2025-09-03,株式会社Ｍｕｒａｋａｍｉ　Ｆａｒｍ,,株式会社,沖縄県,島尻郡南風原町,字津嘉山１４５２番地４,,47,350,9011117,,,,,,,2025-09-03,1,,,,,ムラカミファーム,0
1553,6360001035739,新規,0,2025-09-03,2025-09-03,Ｓｅｃｏｎｄ株式会社,,株式会社,沖縄県,宜野湾市,普天間２丁目４３番１３号１０１,,47,205,9012202,,,,,,,2025-09-03,1,,,,,セカンド,0
1555,6360003015210,新規,0,2025-09-03,2025-09-03,合同会社コザ工務店,,合同会社,沖縄県,沖縄市,嘉間良１丁目１６番５号,,47,211,9040005,,,,,,,2025-09-03,1,,,,,コザコウムテン,0
1556,6360003015219,新規,0,2025-09-03,2025-09-03,合同会社ＩＮＶＩＣＴＵＳ　ＣＡＰＩＴＡＬ,,合同会社,沖縄県,沖縄市,山内３丁目３番３号２０１,,47,211,9040034,,,,,,,2025-09-03,1,,,,,インビクタスキャピタル,0
1566,6390001018096,新規,0,2025-09-03,2025-09-03,株式会社Ｐｅｓｓ,,株式会社,山形県,天童市,芳賀タウン南２丁目８－２,,06,210,9940083,,,,,,,2025-09-03,1,,,,,ペス,0
1568,6390003002437,新規,0,2025-09-03,2025-09-03,蔵雪合同会社,,合同会社,山形県,上山市,松山３丁目５－４８,,06,207,9993146,,,,,,,2025-09-03,1,,,,,クラユキ,0
1569,6400001017162,新規,0,2025-09-03,2025-09-03,株式会社馬力６９,,株式会社,岩手県,奥州市,水沢南町２番９号,,03,215,0230851,,,,,,,2025-09-03,1,,,,,バリキロクジュウキュウ,0
1577,6430003018024,新規,0,2025-09-03,2025-09-03,合同会社アムリタ,,合同会社,北海道,虻田郡ニセコ町,字ニセコ２８３番地,,01,395,0481511,,,,,,,2025-09-03,1,,,,,アムリタ,0
1578,6440001009676,新規,0,2025-09-03,2025-09-03,株式会社のぶの森,,株式会社,北海道,函館市,富岡町１丁目１４番１６号,,01,202,0410811,,,,,,,2025-09-03,1,,,,,ノブノモリ,0
1579,6440005002801,新規,0,2025-09-03,2025-09-03,一般社団法人ポレポレのお家,,その他の設立登記法人,北海道,北斗市,久根別４丁目２８番３５号,,01,236,0490121,,,,,,,2025-09-03,1,,,,,ポレポレノオウチ,0
1588,6700150132112,新規,0,2025-09-03,2025-09-03,ＡＦＲＯ　ＭＯＴＯ　ＬＡＮＫＡ,,外国会社等,千葉県,大網白里市,細草１４１２番地１３Ａ,,12,239,2993211,スリランカ民主社会主義共和国、キャンディ、アクラナ、マタレロード、Ｎｏ．４３／Ｂ,,,,,,2025-09-03,1,,,,,アフロモトランカ,0
1593,7010001257929,新規,0,2025-09-03,2025-09-03,ルースター株式会社,,株式会社,東京都,中央区,日本橋室町１丁目１１番１２号日本橋水野ビル７階,,13,102,1030022,,,,,,,2025-09-03,1,,,,,ルースター,0
1594,7010001258142,新規,0,2025-09-03,2025-09-03,株式会社近野宏明事務所,,株式会社,東京都,千代田区,霞が関３丁目２番５号霞が関ビルディング１７２０号政策分析ネットワーク内,,13,101,1000013,,,,,,,2025-09-03,1,,,,,コンノヒロアキジムショ,0
1595,7010001258167,新規,0,2025-09-03,2025-09-03,Ａｓｙｍ　Ｎｅｔｗｏｒｋ株式会社,,株式会社,東京都,文京区,白山１丁目６番４－２２５,,13,105,1130001,,,,,,,2025-09-03,1,,,,,アシムネットワーク,0
1596,7010001258217,新規,0,2025-09-03,2025-09-03,株式会社Ｊ‐ＰＬＡＮＴＳ,,株式会社,東京都,千代田区,神田和泉町１番地,,13,101,1010024,,,,,,,2025-09-03,1,,,,,ジェイプランツ,0
1597,7010001258225,新規,0,2025-09-03,2025-09-03,株式会社ひとしお,,株式会社,東京都,中央区,銀座６丁目１６番１１号１階,,13,102,1040061,,,,,,,2025-09-03,1,,,,,ヒトシオ,0
1599,7010003048310,新規,0,2025-09-03,2025-09-03,Ｅ‐ｓｐｉｒａｌ合同会社,,合同会社,東京都,中央区,銀座１丁目１２番４号Ｎ＆ＥＢＬＤ．６Ｆ,,13,102,1040061,,,,,,,2025-09-03,1,,,,,,0
1600,7010003048590,新規,0,2025-09-03,2025-09-03,合同会社デルタミニ,,合同会社,東京都,千代田区,平河町１丁目４－９パークハビオ平河町１２０６,,13,101,1020093,,,,,,,2025-09-03,1,,,,,デルタミニ,0
1601,7010003048616,新規,0,2025-09-03,2025-09-03,ＪＥａｇｌｅ１合同会社,,合同会社,東京都,千代田区,内幸町２丁目２番３号日比谷国際ビル７階,,13,101,1000011,,,,,,,2025-09-03,1,,,,,ジェイイーグルイチ,0
1602,7010005040604,新規,0,2025-09-03,2025-09-03,キャットエナジー一般社団法人,,その他の設立登記法人,東京都,千代田区,九段南３丁目７番７号成和綜合会計事務所内,,13,101,1020074,,,,,,,2025-09-03,1,,,,,キャットエナジー,0
1603,7010005040612,新規,0,2025-09-03,2025-09-03,一般社団法人電気保安協会,,その他の設立登記法人,東京都,千代田区,九段南４丁目８番３５号,,13,101,1020074,,,,,,,2025-09-03,1,,,,,デンキホアンキョウカイ,0
1614,7010605004495,新規,0,2025-09-03,2025-09-03,一般社団法人日本ポーカー振興協議会,,その他の設立登記法人,東京都,江東区,福住１丁目４番９号,,13,108,1350032,,,,,,,2025-09-03,1,,,,,ニホンポーカーシンコウキョウギカイ,0
1620,7010905004831,新規,0,2025-09-03,2025-09-03,医療法人社団林診療所,,その他の設立登記法人,東京都,世田谷区,桜上水４丁目１８番１９号森本ビル２階,,13,112,1560045,,,,,,,2025-09-03,1,,,,,ハヤシシンリョウジョ,0
1623,7011103016363,新規,0,2025-09-03,2025-09-03,ＴＢＥ合同会社,,合同会社,東京都,新宿区,須賀町１０―８ウェリス四ツ谷４０６,,13,104,1600018,,,,,,,2025-09-03,1,,,,,ティービーイー,0
1625,7011105011585,新規,0,2025-09-03,2025-09-03,医療法人社団ルキナ,,その他の設立登記法人,東京都,新宿区,四谷三栄町９番６号四谷三栄町スクエア１階,,13,104,1600008,,,,,,,2025-09-03,1,,,,,ルキナ,0
1631,7011403004828,新規,0,2025-09-03,2025-09-03,合同会社第２４区,,合同会社,東京都,板橋区,弥生町３４－３－３０２,,13,119,1730021,,,,,,,2025-09-03,1,,,,,ダイニジュウヨンク,0
1640,7012401043553,新規,0,2025-09-03,2025-09-03,株式会社８８,,株式会社,東京都,武蔵野市,中町３丁目１６番１２号,,13,203,1800006,,,,,,,2025-09-03,1,,,,,ハチジュウハチ,0
1641,7012403007309,新規,0,2025-09-03,2025-09-03,合同会社ライト,,合同会社,東京都,調布市,布田４丁目４番地６調布イーストサイドコート１０２,,13,208,1820024,,,,,,,2025-09-03,1,,,,,ライト,0
1642,7012801024211,新規,0,2025-09-03,2025-09-03,ＹＨＣ株式会社,,株式会社,東京都,東大和市,立野２丁目１番地の１,,13,220,2070021,,,,,,,2025-09-03,1,,,,,ワイエイチシー,0
1654,7020001164546,新規,0,2025-09-03,2025-09-03,株式会社ＨＹＵＲＩＳＴ,,株式会社,神奈川県,横浜市西区,北幸２丁目１０番４８号むつみビル３階,,14,103,2200004,,,,,,,2025-09-03,1,,,,,ヒューリスト,0
1655,7020001164653,新規,0,2025-09-03,2025-09-03,株式会社ＴＴ　Ｍｕｓｕｂｉ,,株式会社,神奈川県,川崎市多摩区,登戸２７７９－１１－５０３,,14,135,2140014,,,,,,,2025-09-03,1,,,,,ティーティームスビ,0
1660,7020003029284,新規,0,2025-09-03,2025-09-03,ウェブリンクス合同会社,,合同会社,神奈川県,横浜市西区,浅間町１丁目４番３号ウィザードビル４０２,,14,103,2200072,,,,,,,2025-09-03,1,,,,,ウェブリンクス,0
1662,7021001086235,新規,0,2025-09-03,2025-09-03,株式会社ＦｒｅｅＧｏｉｎｇ,,株式会社,神奈川県,厚木市,恩名５丁目１７番１８号,,14,212,2430032,,,,,,,2025-09-03,1,,,,,フリーゴーイング,0
1667,7021003016495,新規,0,2025-09-03,2025-09-03,合同会社プロテクト,,合同会社,神奈川県,相模原市緑区,大山町１番３１－２８０５号,,14,151,2520146,,,,,,,2025-09-03,1,,,,,プロテクト,0
1680,7040001140231,新規,0,2025-09-03,2025-09-03,株式会社ホワイト,,株式会社,千葉県,千葉市中央区,弁天２丁目２１番１号,,12,101,2600045,,,,,,,2025-09-03,1,,,,,ホワイト,0
1681,7040001140297,新規,0,2025-09-03,2025-09-03,株式会社ＴＡＫＵＭＩ,,株式会社,千葉県,香取市,福田５００－２５,,12,236,2870024,,,,,,,2025-09-03,1,,,,,タクミ,0
1684,7050001001845,新規,0,2025-09-03,2025-09-03,株式会社トップグループ岡田,,株式会社,茨城県,水戸市,笠原町６００番地の７４,,08,201,3100852,,,,,,,2025-09-03,1,,,,,トップグループオカダ,0
1692,7060003005728,新規,0,2025-09-03,2025-09-03,合同会社トリエル,,合同会社,栃木県,さくら市,氏家２８４０－１－Ｂ１０２,,09,214,3291311,,,,,,,2025-09-03,1,,,,,トリエル,0
1694,7070001043299,新規,0,2025-09-03,2025-09-03,株式会社ＡＩの鉄人,,株式会社,群馬県,前橋市,南町３丁目５０番地２プラザアン２階Ｄ－５３,,10,201,3710805,,,,,,,2025-09-03,1,,,,,エーアイノテツジン,0
1696,7080005007720,新規,0,2025-09-03,2025-09-03,一般社団法人静岡オールスポーツ・エンターテインメント,,その他の設立登記法人,静岡県,静岡市葵区,常磐町１丁目８番地の６常磐町アイワビル８Ｆ南,,22,101,4200034,,,,,,,2025-09-03,1,,,,,シズオカオールスポーツエンターテインメント,0
1699,7100001038915,新規,0,2025-09-03,2025-09-03,株式会社ライフスタイルサポート,,株式会社,長野県,上伊那郡辰野町,大字伊那富９２３３番地７,,20,382,3990428,,,,,,,2025-09-03,1,,,,,ライフスタイルサポート,0
1700,7100003008362,新規,0,2025-09-03,2025-09-03,合同会社ＲＥＲＡＩＤ,,合同会社,長野県,長野市,柳町６９番地１、１Ａ号室,,20,201,3800805,,,,,,,2025-09-03,1,,,,,リレイド,0
1701,7110001039540,新規,0,2025-09-03,2025-09-03,康べえ株式会社,,株式会社,新潟県,新潟市西区,黒鳥２０８８番地,,15,107,9501123,,,,,,,2025-09-03,1,,,,,ヤスベエ,0
1708,7120001279202,新規,0,2025-09-03,2025-09-03,ＡＫＳＰ株式会社,,株式会社,大阪府,大阪市北区,梅田１丁目２番２号大阪駅前第２ビル１２－１２,,27,127,5300001,,,,,,,2025-09-03,1,,,,,エーケーエスピー,0
1709,7120001279243,新規,0,2025-09-03,2025-09-03,株式会社ホワイトメディカル,,株式会社,大阪府,大阪市北区,天満２丁目１２番３号ヴィレッジリバー南森町４Ａ号室,,27,127,5300043,,,,,,,2025-09-03,1,,,,,ホワイトメディカル,0
1710,7120001279251,新規,0,2025-09-03,2025-09-03,マルヨアセットケア株式会社,,株式会社,大阪府,大阪市生野区,生野東２丁目１１番１４号,,27,116,5440025,,,,,,,2025-09-03,1,,,,,マルヨアセットケア,0
1711,7120001279301,新規,0,2025-09-03,2025-09-03,株式会社Ｍａｘｙ‐Ｓａ,,株式会社,大阪府,大阪市北区,曾根崎新地１丁目７番３号北新地プラザビル４階ＡＢ号室,,27,127,5300002,,,,,,,2025-09-03,1,,,,,マキシーサー,0
1712,7120001279367,新規,0,2025-09-03,2025-09-03,伊涵株式会社,,株式会社,大阪府,大阪市西成区,花園北２丁目７番１１号１０３号室,,27,122,5570016,,,,,,,2025-09-03,1,,,,,イカン,0
1713,7120001279400,新規,0,2025-09-03,2025-09-03,株式会社河内警備組合,,株式会社,大阪府,守口市,日吉町１丁目１番１５号,,27,209,5700081,,,,,,,2025-09-03,1,,,,,カワチケイビクミアイ,0
1719,7120101072341,新規,0,2025-09-03,2025-09-03,株式会社ＬＵＮＡ,,株式会社,大阪府,和泉市,府中町１丁目６番５号３階,,27,219,5940071,,,,,,,2025-09-03,1,,,,,ルナ,0
1720,7120901051461,新規,0,2025-09-03,2025-09-03,株式会社海晴,,株式会社,大阪府,豊中市,豊南町西３丁目６－９,,27,203,5610816,,,,,,,2025-09-03,1,,,,,カイセイ,0
1726,7130001080402,新規,0,2025-09-03,2025-09-03,知以然株式会社,,株式会社,京都府,京都市左京区,大菊町１２０－６,,26,103,6068376,,,,,,,2025-09-03,1,,,,,チイゼン,0
1739,7140001139841,新規,0,2025-09-03,2025-09-03,美代志興業株式会社,,株式会社,兵庫県,尼崎市,神田中通３丁目９４番地,,28,202,6600884,,,,,,,2025-09-03,1,,,,,ミヨシコウギョウ,0
1740,7140001139908,新規,0,2025-09-03,2025-09-03,株式会社まいふぁむ,,株式会社,兵庫県,神戸市中央区,中町通３丁目１－１６－５０２,,28,110,6500027,,,,,,,2025-09-03,1,,,,,マイファム,0
1745,7140003022525,新規,0,2025-09-03,2025-09-03,合同会社ミラクルクリエーション,,合同会社,兵庫県,尼崎市,武庫之荘４丁目７番１号,,28,202,6610035,,,,,,,2025-09-03,1,,,,,ミラクルクリエーション,0
1746,7150001028374,新規,0,2025-09-03,2025-09-03,株式会社徳田造林,00140500,株式会社,奈良県,宇陀郡御杖村,大字神末４０５７番地の１,,29,386,6331301,,,,,,,2025-09-03,1,,,,,トクダゾウリン,0
1749,7160001027029,新規,0,2025-09-03,2025-09-03,株式会社売上向上委員会,,株式会社,滋賀県,蒲生郡日野町,大字鎌掛２３１２番地,,25,383,5291631,,,,,,,2025-09-03,1,,,,,ウリアゲコウジョウイインカイ,0
1750,7160003003589,新規,0,2025-09-03,2025-09-03,合同会社ショコラナビ,,合同会社,滋賀県,守山市,守山６丁目１－１ナチュラルビル２０４,,25,207,5240022,,,,,,,2025-09-03,1,,,,,ショコラナビ,0
1758,7180001168465,新規,0,2025-09-03,2025-09-03,株式会社中村商事,,株式会社,愛知県,海部郡蟹江町,城３丁目４１７番地２Ｆ,,23,425,4970040,,,,,,,2025-09-03,1,,,,,ナカムラショウジ,0
1759,7180001168473,新規,0,2025-09-03,2025-09-03,株式会社ＧＲＩＴ,,株式会社,愛知県,名古屋市中区,栄５丁目１９番４号,,23,106,4600008,,,,,,,2025-09-03,1,,,,,グリット,0
1761,7180003028956,新規,0,2025-09-03,2025-09-03,合同会社アビリティシード,,合同会社,愛知県,名古屋市中村区,中村本町３丁目７０,,23,105,4530828,,,,,,,2025-09-03,1,,,,,アビリティシード,0
1762,7180003028964,新規,0,2025-09-03,2025-09-03,ＳＡＲ誠合同会社,,合同会社,愛知県,名古屋市中川区,助光３丁目３０１番地（エルマスアルト２０１号）,,23,110,4540947,,,,,,,2025-09-03,1,,,,,エスエーアールマコト,0
1765,7180005021208,新規,0,2025-09-03,2025-09-03,一般社団法人Ｃｏ‐Ｉｎｎｏｖａｔｉｏｎ　Ｖａｌｌｅｙ　ａｌｌｉａｎｃｅ,,その他の設立登記法人,愛知県,名古屋市中村区,平池町４丁目６０番地の１２グローバルゲート６Ｆ,,23,105,4530872,,,,,,,2025-09-03,1,,,,,コーイノベーションバレーアライアンス,0
1769,7220001026908,新規,0,2025-09-03,2025-09-03,株式会社Ｒｅｏ,,株式会社,石川県,金沢市,専光寺町ハ２２番地７,,17,201,9200356,,,,,,,2025-09-03,1,,,,,アールイーオー,0
1771,7220003004110,新規,0,2025-09-03,2025-09-03,ライフアシスト合同会社,,合同会社,石川県,羽咋郡宝達志水町,今浜ヘ３８０番地３サンコーポラス押水１号棟４０７号室,,17,386,9291344,,,,,,,2025-09-03,1,,,,,ライフアシスト,0
1774,7240001065425,新規,0,2025-09-03,2025-09-03,株式会社シンラックス,,株式会社,広島県,広島市東区,光町２丁目２番１７－１０１号,,34,102,7320052,,,,,,,2025-09-03,1,,,,,シンラックス,0
1775,7240001065458,新規,0,2025-09-03,2025-09-03,Ｍａｈａｌｏ．Ｎ株式会社,,株式会社,広島県,広島市安佐北区,深川３丁目２７番１３－９号,,34,106,7391751,,,,,,,2025-09-03,1,,,,,マハロドットエヌ,0
1782,7260001040500,新規,0,2025-09-03,2025-09-03,株式会社リビウェル,,株式会社,岡山県,倉敷市,白楽町２０５番地１えとあシティＢ１０１,,33,202,7100824,,,,,,,2025-09-03,1,,,,,リビウェル,0
1785,7280001009502,新規,0,2025-09-03,2025-09-03,株式会社ちどり,,株式会社,島根県,松江市,玉湯町玉造１４０９番地１６,,32,201,6990201,,,,,,,2025-09-03,1,,,,,チドリ,0
1787,7290001111240,新規,0,2025-09-03,2025-09-03,株式会社ＫＩＺＵＮＡＲＴ,,株式会社,福岡県,福岡市博多区,博多駅前１丁目２３番２号ＰａｒｋＦｒｏｎｔ博多駅前１丁目５Ｆ－Ｂ,,40,132,8120011,,,,,,,2025-09-03,1,,,,,キズナート,0
1788,7290001111380,新規,0,2025-09-03,2025-09-03,株式会社セカンドステージ,,株式会社,福岡県,久留米市,国分町１３７１番地４,,40,203,8390863,,,,,,,2025-09-03,1,,,,,セカンドステージ,0
1789,7290003017337,新規,0,2025-09-03,2025-09-03,ＢＩＸＬＵＸ　ＬＬＣビクスルクス合同会社,,合同会社,福岡県,福岡市中央区,大名２丁目９番３５号トウセン天神ビル９階,,40,133,8100041,,,,,,,2025-09-03,1,,,,,ビクスルクス,0
1791,7290801031836,新規,0,2025-09-03,2025-09-03,株式会社ＴＣＫ,,株式会社,福岡県,北九州市八幡西区,堀川町４番１号,,40,109,8070861,,,,,,,2025-09-03,1,,,,,ティーシーケー,0
1796,7320001021295,新規,0,2025-09-03,2025-09-03,ライフドア株式会社,,株式会社,大分県,中津市,大字田尻６２３番地１,,44,203,8790123,,,,,,,2025-09-03,1,,,,,ライフドア,0
1809,7360001035721,新規,0,2025-09-03,2025-09-03,株式会社和自動車,,株式会社,沖縄県,宜野湾市,長田１丁目２０番２４号,,47,205,9012212,,,,,,,2025-09-03,1,,,,,カズジドウシャ,0
1812,7370003007271,新規,0,2025-09-03,2025-09-03,合同会社ＥＱＵＩＮＯＶＡ,,合同会社,宮城県,亘理郡亘理町,逢隈下郡字八ツ入３９－３,00140502,04,361,9892382,,,,,,,2025-09-03,1,,,,,エクィノヴァ,0
1814,7390001018095,新規,0,2025-09-03,2025-09-03,株式会社ＣＡＰ‐ＬＩＮＫ,,株式会社,山形県,山形市,白山３丁目１０番１９号,,06,201,9902446,,,,,,,2025-09-03,1,,,,,キャップリンク,0
1816,7390003002436,新規,0,2025-09-03,2025-09-03,合同会社Ｄｅａｒ　Ｄｉａｒｙ,,合同会社,山形県,酒田市,本町３丁目６番８号,,06,204,9980043,,,,,,,2025-09-03,1,,,,,ディアーダイアリー,0
1821,7430001095122,新規,0,2025-09-03,2025-09-03,株式会社イケスギＨＤ,,株式会社,北海道,千歳市,富士４丁目３番２２号,,01,224,0660039,,,,,,,2025-09-03,1,,,,,イケスギホールディングス,0
1827,7470001020877,新規,0,2025-09-03,2025-09-03,株式会社ＮａｔｕＬｉａ,,株式会社,香川県,高松市,塩屋町２番地５－３０１号,,37,201,7600047,,,,,,,2025-09-03,1,,,,,ナチュリア,0
1833,7700150132111,新規,0,2025-09-03,2025-09-03,ＣＯＭＰＡＬ　ＵＳＡ　ＩＮＤＩＡＮＡ，ＩＮＣ．,,外国会社等,東京都,港区,海岸１丁目２番２０号　汐留ビルディング３階,,13,103,1050022,アメリカ合衆国、インディアナ州、ローガンズポート、テクノロジーウェイ１番地,,,,,,2025-09-03,1,,,,,コンパルユーエスエーインデイアナインク,0
1836,8010001258109,新規,0,2025-09-03,2025-09-03,永源安達株式会社,,株式会社,東京都,千代田区,神田三崎町２丁目－１０－１１（Ｐｅｇビル）６Ｂ－１号室,,13,101,1010061,,,,,,,2025-09-03,1,,,,,エイゲンアンタツ,0
1837,8010001258166,新規,0,2025-09-03,2025-09-03,株式会社ＳｔｒａｔｅｇｙＹｃ,,株式会社,東京都,中央区,月島４丁目１４－１１－９０１,,13,102,1040052,,,,,,,2025-09-03,1,,,,,ストラテジーワイシー,0
1838,8010001258174,新規,0,2025-09-03,2025-09-03,鼎盛国際株式会社,,株式会社,東京都,千代田区,外神田２丁目１番８号スクエア秋葉原１１５号室,,13,101,1010021,,,,,,,2025-09-03,1,,,,,テイサイコクサイ,0
1839,8010001258199,新規,0,2025-09-03,2025-09-03,日本シリカ防水株式会社,,株式会社,東京都,千代田区,神田和泉町１番地４の７,,13,101,1010024,,,,,,,2025-09-03,1,,,,,ニホンシリカボウスイ,0
1840,8010001258224,新規,0,2025-09-03,2025-09-03,株式会社リブロン・キャリアスタート,,株式会社,東京都,中央区,銀座１丁目２２番１１号銀座大竹ビジデンス２階,,13,102,1040061,,,,,,,2025-09-03,1,,,,,リブロンキャリアスタート,0
1861,8010605004494,新規,0,2025-09-03,2025-09-03,医療法人社団ＬＩＭＥ,,その他の設立登記法人,東京都,墨田区,太平１丁目２２番１３号武井ビル１階,,13,107,1300012,,,,,,,2025-09-03,1,,,,,ライム,0
1872,8011003022378,新規,0,2025-09-03,2025-09-03,合同会社メディオヴァリス,,合同会社,東京都,目黒区,碑文谷２丁目９番２１－２０６号パークサイド碑文谷,,13,110,1520003,,,,,,,2025-09-03,1,,,,,メディオヴァリス,0
1879,8011201026593,新規,0,2025-09-03,2025-09-03,四つ葉株式会社,,株式会社,東京都,中野区,大和町１丁目１３番９号ＴＡＳ高円寺レジデンス２０１,,13,114,1650034,,,,,,,2025-09-03,1,,,,,ヨツバ,0
1881,8011401027342,新規,0,2025-09-03,2025-09-03,ＢＳＬバッテリー株式会社,,株式会社,東京都,板橋区,宮本町１７番１３－２０１号,,13,119,1740054,,,,,,,2025-09-03,1,,,,,ビーエスエルバッテリー,0
1887,8011801046693,新規,0,2025-09-03,2025-09-03,株式会社家常総合企画,,株式会社,東京都,足立区,鹿浜２丁目１番１６号プランドル鹿浜３０１,,13,121,1230864,,,,,,,2025-09-03,1,,,,,イエツネソウゴウキカク,0
1892,8012401043536,新規,0,2025-09-03,2025-09-03,駒杏ホームズ株式会社,,株式会社,東京都,武蔵野市,緑町１丁目７番２５号,,13,203,1800012,,,,,,,2025-09-03,1,,,,,コマキョウホームズ,0
1893,8012701019046,新規,0,2025-09-03,2025-09-03,株式会社東京武蔵野会計,,株式会社,東京都,小平市,学園西町２丁目２５番２９号,,13,211,1870045,,,,,,,2025-09-03,1,,,,,トウキョウムサシノカイケイ,0
1894,8013103001484,新規,0,2025-09-03,2025-09-03,合同会社キチリア,,合同会社,東京都,羽村市,小作台１丁目２７番地１０,,13,227,2050001,,,,,,,2025-09-03,1,,,,,キチリア,0
1896,8013301054854,新規,0,2025-09-03,2025-09-03,爵味文化株式会社,,株式会社,東京都,豊島区,池袋本町２丁目７番１号メゾン池袋４１５,,13,116,1700011,,,,,,,2025-09-03,1,,,,,シャクミブンカ,0
1903,8020001164603,新規,0,2025-09-03,2025-09-03,株式会社ＴＲＹ　ＥＸＰＲＥＳＳ,,株式会社,神奈川県,横浜市青葉区,あかね台２丁目３番地５―１０２,,14,117,2270066,,,,,,,2025-09-03,1,,,,,トライエクスプレス,0
1909,8020003029291,新規,0,2025-09-03,2025-09-03,東京宝泉堂合同会社,,合同会社,神奈川県,横浜市南区,高根町１丁目４－４０ＫＹＳオフィス２ＦＡ００２,,14,105,2320022,,,,,,,2025-09-03,1,,,,,トウキョウホウセンドウ,0
1919,8021003016494,新規,0,2025-09-03,2025-09-03,ＢＤＲ　ｉｎｄｕｓｔｒｉｅｓ合同会社,,合同会社,神奈川県,厚木市,中町４丁目１４番１号,,14,212,2430018,,,,,,,2025-09-03,1,,,,,ビーディーアールインダストリーズ,0
1930,8030003027492,新規,0,2025-09-03,2025-09-03,Ｓｍａｒｔ　Ｅａｓｅ合同会社,,合同会社,埼玉県,川越市,霞ケ関東１丁目４番１１号シャルム２階,,11,201,3501103,,,,,,,2025-09-03,1,,,,,スマートイーズ,0
1932,8040001140189,新規,0,2025-09-03,2025-09-03,岡本商事株式会社,,株式会社,千葉県,習志野市,鷺沼２丁目１８番１２－４号,,12,216,2750014,,,,,,,2025-09-03,1,,,,,オカモトショウジ,0
1933,8040001140296,新規,0,2025-09-03,2025-09-03,株式会社メイブライト,,株式会社,千葉県,千葉市花見川区,幕張町４丁目７２２番地マルミヤハイツ１０１号,,12,102,2620032,,,,,,,2025-09-03,1,,,,,メイブライト,0
1934,8040003028374,新規,0,2025-09-03,2025-09-03,ＫＯＩＲＡＬＡ　ＩＮＮＯＶＡＴＩＯＮ合同会社,,合同会社,千葉県,成田市,花崎町８５６番地５,,12,211,2860033,,,,,,,2025-09-03,1,,,,,コイラライノベーション,0
1945,8080001027119,新規,0,2025-09-03,2025-09-03,株式会社日新,,株式会社,静岡県,静岡市葵区,瀬名３丁目３８番２号,,22,101,4200911,,,,,,,2025-09-03,1,,,,,ニッシン,0
1947,8080401028146,新規,0,2025-09-03,2025-09-03,トップハンズ株式会社,,株式会社,静岡県,浜松市中央区,上島３丁目３３番１１号,,22,138,4338122,,,,,,,2025-09-03,1,,,,,トップハンズ,0
1948,8100001038914,新規,0,2025-09-03,2025-09-03,株式会社エムズ・Ａ,,株式会社,長野県,須坂市,大字日滝１４３５番地の２,,20,207,3820902,,,,,,,2025-09-03,1,,,,,エムズエイ,0
1951,8110001039548,新規,0,2025-09-03,2025-09-03,株式会社ＪＫＳ,,株式会社,新潟県,上越市,大字東中島１９４３番地１０６,,15,222,9420036,,,,,,,2025-09-03,1,,,,,ジェーケーエス,0
1966,8120001279226,新規,0,2025-09-03,2025-09-03,株式会社Ｌｉｖｉｒｏ,,株式会社,大阪府,大阪市北区,中津１丁目１３番９号,,27,127,5310071,,,,,,,2025-09-03,1,,,,,リビロ,0
1967,8120001279234,新規,0,2025-09-03,2025-09-03,株式会社ＴＯ　ｃｈａｎｃｅ,,株式会社,大阪府,大阪市大正区,三軒家西３丁目７番３号,,27,108,5510001,,,,,,,2025-09-03,1,,,,,トゥーチャンス,0
1968,8120001279259,新規,0,2025-09-03,2025-09-03,ファーマアライアンス株式会社,,株式会社,大阪府,大阪市中央区,船場中央３丁目２番８号船場センタービル８号館２７１,,27,128,5410055,,,,,,,2025-09-03,1,,,,,ファーマアライアンス,0
1969,8120001279325,新規,0,2025-09-03,2025-09-03,木木夕株式会社,,株式会社,大阪府,大阪市港区,夕凪１丁目１６－２１第４三先ハウス５０１号,,27,107,5520004,,,,,,,2025-09-03,1,,,,,キキユウ,0
1970,8120001279390,新規,0,2025-09-03,2025-09-03,株式会社佐武商店,,株式会社,大阪府,大阪市浪速区,敷津東２丁目３番４号,,27,111,5560012,,,,,,,2025-09-03,1,,,,,サタケショウテン,0
1971,8120001279449,新規,0,2025-09-03,2025-09-03,株式会社Ｔｔｅｃ,,株式会社,大阪府,大阪市西区,本田２丁目１番２９号アリックスビル７０１,,27,106,5500022,,,,,,,2025-09-03,1,,,,,ティーテック,0
1977,8120003030438,新規,0,2025-09-03,2025-09-03,合同会社Ｆｒｏｓｖｉａ,,合同会社,大阪府,大阪市北区,梅田１丁目２番２号大阪駅前第２ビル１２－１２,,27,127,5300001,,,,,,,2025-09-03,1,,,,,フロスヴィア,0
1978,8120003030446,新規,0,2025-09-03,2025-09-03,合同会社Ｐａｄ　Ｌａｂｏ,,合同会社,大阪府,大阪市天王寺区,逢阪１丁目１－１２ｌａｌａｐｌａｃｅ四天王寺夕陽ヶ丘６０４,,27,109,5430062,,,,,,,2025-09-03,1,,,,,パドラボ,0
1981,8120103006668,新規,0,2025-09-03,2025-09-03,合同会社奏まる,,合同会社,大阪府,堺市西区,家原寺町１丁４番５号,,27,144,5938304,,,,,,,2025-09-03,1,,,,,ソウマル,0
1987,8140001139849,新規,0,2025-09-03,2025-09-03,株式会社ＡＸＩＡ,,株式会社,兵庫県,尼崎市,東園田町３丁目７７番地の３０,,28,202,6610953,,,,,,,2025-09-03,1,,,,,アクシア,0
1988,8140001139881,新規,0,2025-09-03,2025-09-03,株式会社大石商事,,株式会社,兵庫県,神戸市兵庫区,出在家町１丁目５番１４号中之島中央ビル２０１,,28,105,6520846,,,,,,,2025-09-03,1,,,,,オオイシショウジ,0
1996,8160001027028,新規,0,2025-09-03,2025-09-03,宏大産業株式会社,,株式会社,滋賀県,大津市,黒津２丁目２４番３号,,25,201,5202279,,,,,,,2025-09-03,1,,,,,コウダイサンギョウ,0
2000,8160003003588,新規,0,2025-09-03,2025-09-03,合同会社あんばよう,,合同会社,滋賀県,大津市,皇子が丘２丁目１０番２５－３３１４号,,25,201,5200025,,,,,,,2025-09-03,1,,,,,アンバヨウ,0
2013,8180001168423,新規,0,2025-09-03,2025-09-03,株式会社鈴三郷不動産,,株式会社,愛知県,尾張旭市,東栄町１丁目１６番地３,,23,226,4880011,,,,,,,2025-09-03,1,,,,,スズサンゴウフドウサン,0
2014,8180001168464,新規,0,2025-09-03,2025-09-03,株式会社Ｙ’Ｓ,,株式会社,愛知県,あま市,七宝町川部佛供田６１番地３,,23,237,4970013,,,,,,,2025-09-03,1,,,,,ワイズ,0
2016,8180003028971,新規,0,2025-09-03,2025-09-03,にっか合同会社,,合同会社,愛知県,名古屋市中村区,亀島２丁目１４番６号,,23,105,4530013,,,,,,,2025-09-03,1,,,,,ニッカ,0
2017,8180301040174,新規,0,2025-09-03,2025-09-03,株式会社よさみファーム,,株式会社,愛知県,刈谷市,半城土西町２丁目３番地６,,23,210,4480816,,,,,,,2025-09-03,1,,,,,ヨサミファーム,0
2021,8220001026898,新規,0,2025-09-03,2025-09-03,株式会社６８,,株式会社,石川県,小松市,古府町亥２２番地,,17,203,9230055,,,,,,,2025-09-03,1,,,,,ロクハチ,0
2029,8230001021064,新規,0,2025-09-03,2025-09-03,株式会社ＴＫＤ,,株式会社,富山県,魚津市,仏田３３１２番地１４,,16,204,9370061,,,,,,,2025-09-03,1,,,,,ティーケーディー,0
2032,8240001065440,新規,0,2025-09-03,2025-09-03,株式会社山口商会,,株式会社,広島県,福山市,神辺町大字川南４２３番地１,,34,207,7202124,,,,,,,2025-09-03,1,,,,,ヤマグチショウカイ,0
2035,8250001021319,新規,0,2025-09-03,2025-09-03,株式会社ｃ‐ｄＯｐｅ,,株式会社,山口県,下関市,王司神田１丁目１０番１９号,,35,201,7520911,,,,,,,2025-09-03,1,,,,,シードープ,0
2038,8280001009501,新規,0,2025-09-03,2025-09-03,株式会社オオツカ設備,,株式会社,島根県,大田市,三瓶町池田９０８番地,,32,205,6940223,,,,,,,2025-09-03,1,,,,,オオツカセツビ,0
2039,8290001111256,新規,0,2025-09-03,2025-09-03,株式会社ヨカッテ,,株式会社,福岡県,福岡市博多区,博多駅前１丁目１５番２０号－４Ｆ,,40,132,8120011,,,,,,,2025-09-03,1,,,,,ヨカッテ,0
2044,8290801031810,新規,0,2025-09-03,2025-09-03,株式会社ＶＩＳＴＡ　ＣＯＮＮＥＣＴ,,株式会社,福岡県,北九州市小倉北区,足原１丁目１３番８号,,40,106,8020043,,,,,,,2025-09-03,1,,,,,ヴィスタコネクト,0
2045,8290801031827,新規,0,2025-09-03,2025-09-03,株式会社エステーラ,,株式会社,福岡県,北九州市小倉南区,朽網西４丁目７番２３号,,40,107,8000233,,,,,,,2025-09-03,1,,,,,エステーラ,0
2046,8290801031835,新規,0,2025-09-03,2025-09-03,株式会社沢田コンサルティング,,株式会社,福岡県,北九州市八幡西区,陣原３丁目２番２３－２０１号,,40,109,8070821,,,,,,,2025-09-03,1,,,,,サワダコンサルティング,0
2048,8310001019777,新規,0,2025-09-03,2025-09-03,株式会社Ｍｅｍｏ　Ｐｌｕｓ,,株式会社,長崎県,諫早市,小川町７３番地１,,42,204,8540053,,,,,,,2025-09-03,1,,,,,メモプラス,0
2053,8330001033545,新規,0,2025-09-03,2025-09-03,株式会社なかむら工業,,株式会社,熊本県,熊本市東区,月出２丁目１番３９－２０５号,,43,102,8620920,,,,,,,2025-09-03,1,,,,,ナカムラコウギョウ,0
2059,8350001019716,新規,0,2025-09-03,2025-09-03,株式会社はまこうファーム,,株式会社,宮崎県,西都市,大字三納１１６４８番地,,45,208,8810101,,,,,,,2025-09-03,1,,,,,ハマコウファーム,0
2063,8360003015209,新規,0,2025-09-03,2025-09-03,合同会社ＵＣＨＩＭＡ,,合同会社,沖縄県,石垣市,字新川２２５９番地９,,47,207,9070024,,,,,,,2025-09-03,1,,,,,ウチマ,0
2064,8360003015217,新規,0,2025-09-03,2025-09-03,合同会社ＴＳＵＭＵＧＩ,,合同会社,沖縄県,中頭郡西原町,字小那覇１６３番地,,47,329,9030103,,,,,,,2025-09-03,1,,,,,ツムギ,0
2077,8390003002435,新規,0,2025-09-03,2025-09-03,合同会社Ｇｒｅｅｎ,,合同会社,山形県,山形市,中桜田１丁目１番１８号,,06,201,9902422,,,,,,,2025-09-03,1,,,,,グリーン,0
2079,8400001017160,新規,0,2025-09-03,2025-09-03,株式会社弥滉,,株式会社,岩手県,盛岡市,東山１丁目１６番１４号,,03,201,0200813,,,,,,,2025-09-03,1,,,,,ヤヒロ,0
2080,8400005008511,新規,0,2025-09-03,2025-09-03,一般社団法人岩手住まいる会,,その他の設立登記法人,岩手県,盛岡市,茶畑１丁目１２番１３号,,03,201,0200822,,,,,,,2025-09-03,1,,,,,,0
2084,8410001014264,新規,0,2025-09-03,2025-09-03,株式会社ＨＭＩ,,株式会社,秋田県,秋田市,保戸野中町５番２号,,05,201,0100905,,,,,,,2025-09-03,1,,,,,エイチエムアイ,0
2087,8420001019246,新規,0,2025-09-03,2025-09-03,株式会社いろは工業,,株式会社,青森県,八戸市,南郷大字島守字林下１５番地,,02,203,0310202,,,,,,,2025-09-03,1,,,,,イロハコウギョウ,0
2094,8430001095105,新規,0,2025-09-03,2025-09-03,株式会社Ｅ‐Ｌｉｎｋ,,株式会社,北海道,札幌市白石区,菊水元町七条１丁目１番１号,,01,104,0030827,,,,,,,2025-09-03,1,,,,,イーリンク,0
2096,8430003018047,新規,0,2025-09-03,2025-09-03,合同会社ＳＯＨＳ,,合同会社,北海道,札幌市北区,北十七条西４丁目１番８－１００１号,,01,102,0010017,,,,,,,2025-09-03,1,,,,,エスオーエイチエス,0
2097,8450001014723,新規,0,2025-09-03,2025-09-03,株式会社ＲＥＬＩＡＢＬＥ,,株式会社,北海道,旭川市,永山十条１１丁目４番４号,,01,204,0798420,,,,,,,2025-09-03,1,,,,,リライアヴル,0
2109,9010001258173,新規,0,2025-09-03,2025-09-03,オニオンテクノロジー株式会社,,株式会社,東京都,千代田区,丸の内１丁目９番２号グランド・トウキョウサウスタワー９階,,13,101,1000005,,,,,,,2025-09-03,1,,,,,オニオンテクノロジー,0
2110,9010001258256,新規,0,2025-09-03,2025-09-03,株式会社ＡＤＲ　ｇｅｎｅｓｉｓ,,株式会社,東京都,千代田区,麹町２丁目３番３号,,13,101,1020083,,,,,,,2025-09-03,1,,,,,エーディーアールジェネシス,0
2111,9010003048589,新規,0,2025-09-03,2025-09-03,有点東西合同会社,,合同会社,東京都,千代田区,神田三崎町２丁目１０－１１（Ｐｅｇビル）４Ｂ－７号室,,13,101,1010061,,,,,,,2025-09-03,1,,,,,ヨウデンドンシ,0
2112,9010003048597,新規,0,2025-09-03,2025-09-03,合同会社銀座カレン日本橋,,合同会社,東京都,中央区,日本橋人形町１丁目１５番６号,,13,102,1030013,,,,,,,2025-09-03,1,,,,,ギンザカレンニホンバシ,0
2113,9010005040619,新規,0,2025-09-03,2025-09-03,司法書士法人リーファ,,その他の設立登記法人,東京都,千代田区,神田駿河台２丁目１番地３４,,13,101,1010062,,,,,,,2025-09-03,1,,,,,リーファ,0
2114,9010101016852,新規,0,2025-09-03,2025-09-03,株式会社安足建設,,株式会社,東京都,八王子市,川口町３６６６番地５,,13,201,1930801,,,,,,,2025-09-03,1,,,,,アンソクケンセツ,0
2120,9010405024650,新規,0,2025-09-03,2025-09-03,一般社団法人安心安全社会推進機構,,その他の設立登記法人,東京都,港区,芝浦４丁目１５番１－９１４号,,13,103,1080023,,,,,,,2025-09-03,1,,,,,アンシンアンゼンシャカイスイシンキコウ,0
2124,9010605004493,新規,0,2025-09-03,2025-09-03,一般社団法人ＪＡＦＢＣ,,その他の設立登記法人,東京都,江東区,毛利１丁目２０番２号パークホームズ錦糸町猿江恩賜公園６０２号室,,13,108,1350001,,,,,,,2025-09-03,1,,,,,ジェーエーエフビーシー,0
2128,9010901058012,新規,0,2025-09-03,2025-09-03,グルーヴ株式会社,,株式会社,東京都,世田谷区,若林１丁目３９番１－１０４号,,13,112,1540023,,,,,,,2025-09-03,1,,,,,グルーヴ,0
2129,9010903010219,新規,0,2025-09-03,2025-09-03,合同会社Ａｉｍｉｎｇ,,合同会社,東京都,世田谷区,南烏山６丁目２７番４―１０２号,,13,112,1570062,,,,,,,2025-09-03,1,,,,,エイミング,0
2130,9010903010235,新規,0,2025-09-03,2025-09-03,合同会社エンパスブリッジ,,合同会社,東京都,世田谷区,野毛３丁目５番１１号,,13,112,1580092,,,,,,,2025-09-03,1,,,,,エンパスブリッジ,0
2135,9011001172273,新規,0,2025-09-03,2025-09-03,アクセスソリューションズ株式会社,,株式会社,東京都,渋谷区,渋谷１丁目１２番２号,,13,113,1500002,,,,,,,2025-09-03,1,,,,,アクセスソリューションズ,0
2136,9011003022402,新規,0,2025-09-03,2025-09-03,合同会社トップ,,合同会社,東京都,渋谷区,神泉町１０番１５号アネックス神泉３０１,,13,113,1500045,,,,,,,2025-09-03,1,,,,,トップ,0
2137,9011003022468,新規,0,2025-09-03,2025-09-03,合同会社ＲＣＰ,,合同会社,東京都,渋谷区,道玄坂１丁目１０番８号渋谷道玄坂東急ビル２Ｆ‐Ｃ,,13,113,1500043,,,,,,,2025-09-03,1,,,,,アールシーピー,0
2144,9011203004811,新規,0,2025-09-03,2025-09-03,合同会社インスペクターサービス,,合同会社,東京都,中野区,本町２丁目４７番３号,,13,114,1640012,,,,,,,2025-09-03,1,,,,,インスペクターサービス,0
2146,9011303005692,新規,0,2025-09-03,2025-09-03,合同会社大蔵流吉次郎狂言会,,合同会社,東京都,杉並区,下高井戸５丁目９－４４,,13,115,1680073,,,,,,,2025-09-03,1,,,,,オオクラリュウキチジロウキョウゲンカイ,0
2152,9012401043543,新規,0,2025-09-03,2025-09-03,株式会社Ｔｒｕｓｔ　Ｖａｌｕｅ,,株式会社,東京都,府中市,浅間町３丁目１８番地１エルフォレスト２１８,,13,206,1830001,,,,,,,2025-09-03,1,,,,,トラストバリュー,0
2156,9012803003839,新規,0,2025-09-03,2025-09-03,合同会社ビタフェリーチェ,,合同会社,東京都,国立市,富士見台３丁目２４番地の１２‐３０２,,13,215,1860003,,,,,,,2025-09-03,1,,,,,ビタフェリーチェ,0
2158,9013301054845,新規,0,2025-09-03,2025-09-03,テラサレ株式会社,,株式会社,東京都,豊島区,目白４丁目３５番１２号,,13,116,1710031,,,,,,,2025-09-03,1,,,,,テラサレ,0
2163,9020001164701,新規,0,2025-09-03,2025-09-03,株式会社あざみ野,,株式会社,神奈川県,横浜市青葉区,あざみ野２丁目２２番地１４,,14,117,2250011,,,,,,,2025-09-03,1,,,,,アザミノ,0
2169,9021001086134,新規,0,2025-09-03,2025-09-03,株式会社マシンテック,,株式会社,神奈川県,厚木市,林２丁目２７－８クレール林２２０１,,14,212,2430816,,,,,,,2025-09-03,1,,,,,マシンテック,0
2170,9021001086150,新規,0,2025-09-03,2025-09-03,株式会社Ｂｅｃａｕｓｅ,,株式会社,神奈川県,平塚市,四之宮１丁目１０番５号アルカディア湘南２１１号室,,14,203,2540014,,,,,,,2025-09-03,1,,,,,ビコーズ,0
2171,9021001086167,新規,0,2025-09-03,2025-09-03,株式会社ｄｏｔ,,株式会社,神奈川県,三浦市,三崎３丁目１６３番地,,14,210,2380243,,,,,,,2025-09-03,1,,,,,ドット,0
2182,9030003027500,新規,0,2025-09-03,2025-09-03,ブレイクスルー合同会社,,合同会社,埼玉県,川口市,大字新井宿９７７番地の１,,11,203,3330826,,,,,,,2025-09-03,1,,,,,ブレイクスルー,0
2185,9040001140270,新規,0,2025-09-03,2025-09-03,エターナルロック株式会社,,株式会社,千葉県,市川市,本北方１丁目１４番２３号,,12,203,2720816,,,,,,,2025-09-03,1,,,,,エターナルロック,0
2187,9040003028365,新規,0,2025-09-03,2025-09-03,合同会社ｖｉｏｒａ,,合同会社,千葉県,流山市,前平井７４番地ベルウッド２０６,,12,220,2700152,,,,,,,2025-09-03,1,,,,,ビオラ,0
2188,9040003028398,新規,0,2025-09-03,2025-09-03,合同会社ひかり,,合同会社,千葉県,千葉市稲毛区,小仲台６丁目２番１３号ビーハイブ１０２号,,12,103,2630043,,,,,,,2025-09-03,1,,,,,ヒカリ,0
2196,9070003006062,新規,0,2025-09-03,2025-09-03,合同会社ＧＹプランニング,,合同会社,群馬県,太田市,東金井町５６８－１,,10,205,3730022,,,,,,,2025-09-03,1,,,,,,0
2198,9080003003546,新規,0,2025-09-03,2025-09-03,合同会社ｓａｍ,,合同会社,静岡県,静岡市清水区,押切８８９番地の８,,22,103,4240008,,,,,,,2025-09-03,1,,,,,サム,0
2199,9080401028145,新規,0,2025-09-03,2025-09-03,株式会社二美ビル中央,,株式会社,静岡県,浜松市中央区,青屋町６８６番地の１,,22,138,4350037,,,,,,,2025-09-03,1,,,,,フタミビルチュウオウ,0
2216,9120001279225,新規,0,2025-09-03,2025-09-03,株式会社ＵＭＨアドバイザリー,,株式会社,大阪府,大阪市中央区,西心斎橋１丁目１番１１号心斎橋西ビル３０６号,,27,128,5420086,,,,,,,2025-09-03,1,,,,,ユーエムエイチアドバイザリー,0
2217,9120001279258,新規,0,2025-09-03,2025-09-03,株式会社ＤＤＤ,,株式会社,大阪府,大阪市都島区,都島北通２丁目２３－２６ファンシー都島６０１号室,,27,102,5340014,,,,,,,2025-09-03,1,,,,,ディーディーディー,0
2218,9120001279299,新規,0,2025-09-03,2025-09-03,Ａｎｃｈｏｒ　Ｇｌｏｂａｌ株式会社,,株式会社,大阪府,大阪市北区,大深町６番３８号グラングリーン大阪北館ＪＡＭＢＡＳＥ６階ＪＡＭ－ＤＥＳＫ,,27,127,5300011,,,,,,,2025-09-03,1,,,,,アンカーグローバル,0
2219,9120001279431,新規,0,2025-09-03,2025-09-03,株式会社川端電業,,株式会社,大阪府,守口市,金田町１丁目２１番２４－１０１号,,27,209,5700011,,,,,,,2025-09-03,1,,,,,カワバタデンギョウ,0
2222,9120003030445,新規,0,2025-09-03,2025-09-03,合同会社ＴＲＡＮ　ＧＩＡ,,合同会社,大阪府,大阪市東住吉区,照ケ丘矢田３丁目１１番９号ＳＡＮハイツＩＩ３０１号,00140513,27,121,5460021,,,,,,,2025-09-03,1,,,,,トランジア,0
2223,9120005025146,新規,0,2025-09-03,2025-09-03,スキルリンクジャパン協同組合,,その他の設立登記法人,大阪府,大阪市浪速区,桜川１丁目２番６号,,27,111,5560022,,,,,,,2025-09-03,1,,,,,スキルリンクジャパン,0
2227,9120103006667,新規,0,2025-09-03,2025-09-03,合同会社ｃｏｔｏｒｉ　ｐｏｎｏ,,合同会社,大阪府,堺市南区,鴨谷台３丁３番５－６０２号,,27,145,5900138,,,,,,,2025-09-03,1,,,,,コトリポノ,0
2230,9120903005835,新規,0,2025-09-03,2025-09-03,ティティ・ライフクリエイツ合同会社,,合同会社,大阪府,豊中市,岡上の町２丁目１番１－８０１号,,27,203,5600023,,,,,,,2025-09-03,1,,,,,ティティライフクリエイツ,0
2234,9130001080391,新規,0,2025-09-03,2025-09-03,乾元星輝株式会社,,株式会社,京都府,京都市左京区,静市市原町４１１番地５,,26,103,6011123,,,,,,,2025-09-03,1,,,,,ケンゲンセイキ,0
2235,9130001080400,新規,0,2025-09-03,2025-09-03,株式会社ヤマシンテック,,株式会社,京都府,京都市山科区,北花山市田町４８－５,,26,110,6078483,,,,,,,2025-09-03,1,,,,,ヤマシンテック,0
2240,9140001139872,新規,0,2025-09-03,2025-09-03,ハイドロエナジー株式会社,,株式会社,兵庫県,神戸市中央区,北野町１丁目１番,,28,110,6500002,,,,,,,2025-09-03,1,,,,,ハイドロエナジー,0
2246,9150001028372,新規,0,2025-09-03,2025-09-03,株式会社Ｅｎｇｌｉｓｈ　Ｍａｓｔｅｒｓ,,株式会社,奈良県,奈良市,鶴舞東町２番１２号,,29,201,6310021,,,,,,,2025-09-03,1,,,,,イングリッシュマスターズ,0
2248,9160003003587,新規,0,2025-09-03,2025-09-03,合同会社フーズ．Ｔ,,合同会社,滋賀県,守山市,播磨田町３０１０番地１フォルティ北村壱番館２０２号,,25,207,5240012,,,,,,,2025-09-03,1,,,,,フーズティー,0
2257,9180001168364,新規,0,2025-09-03,2025-09-03,ワイテル株式会社,,株式会社,愛知県,名古屋市天白区,元植田２丁目１０４番地フレストスクエア元植田６０４号,,23,116,4680009,,,,,,,2025-09-03,1,,,,,ワイテル,0
2258,9180001168389,新規,0,2025-09-03,2025-09-03,株式会社ＪＡＭ久,,株式会社,愛知県,日進市,竹の山４丁目１１１７番地,,23,230,4700136,,,,,,,2025-09-03,1,,,,,ジャムキュー,0
2259,9180001168397,新規,0,2025-09-03,2025-09-03,株式会社Ｗａｖｅ　Ｆｌａｇ　Ｐａｒｔｎｅｒｓ,,株式会社,愛知県,一宮市,冨田字渡所１２１－１－Ｂ５,,23,203,4940018,,,,,,,2025-09-03,1,,,,,ウェイブフラッグパートナーズ,0
2260,9180001168430,新規,0,2025-09-03,2025-09-03,ＹＩＱＩ株式会社,,株式会社,愛知県,名古屋市中区,栄３丁目３５番４７号サン・栄三丁目ビル６０１,,23,106,4600008,,,,,,,2025-09-03,1,,,,,イチ,0
2261,9180001168463,新規,0,2025-09-03,2025-09-03,Ｔｏｔａｌ　Ｂｕｓｉｎｅｓｓ　Ｐａｒｔｎｅｒ株式会社,,株式会社,愛知県,名古屋市昭和区,台町２丁目１１番地,,23,107,4660033,,,,,,,2025-09-03,1,,,,,トータルビジネスパートナー,0
2268,9190001032503,新規,0,2025-09-03,2025-09-03,川北園芸株式会社,,株式会社,三重県,鈴鹿市,上田町５７５番地の１,,24,207,5130018,,,,,,,2025-09-03,1,,,,,カワキタエンゲイ,0
2270,9200001044182,新規,0,2025-09-03,2025-09-03,株式会社ピカピカ,,株式会社,岐阜県,中津川市,茄子川１０６２－１４,,21,206,5099132,,,,,,,2025-09-03,1,,,,,ピカピカ,0
2271,9200003007006,新規,0,2025-09-03,2025-09-03,合同会社ＧＡＬＯＶＩＥ,,合同会社,岐阜県,可児市,下切７９８番地,,21,214,5090245,,,,,,,2025-09-03,1,,,,,ギャロヴィー,0
2274,9220001026906,新規,0,2025-09-03,2025-09-03,株式会社笠島商店,,株式会社,石川県,金沢市,粟崎町２丁目５番地３,,17,201,9200226,,,,,,,2025-09-03,1,,,,,カサシマショウテン,0
2276,9230001021063,新規,0,2025-09-03,2025-09-03,ＡＷＡＩＴＯＫＩ株式会社,,株式会社,富山県,射水市,南太閤山１３丁目１０番地,,16,211,9390364,,,,,,,2025-09-03,1,,,,,アワイトキ,0
2282,9240001065448,新規,0,2025-09-03,2025-09-03,株式会社ＢＶＧ,,株式会社,広島県,広島市安佐南区,伴北７丁目６４番１号,,34,105,7313163,,,,,,,2025-09-03,1,,,,,ビーブイジー,0
2286,9240003007381,新規,0,2025-09-03,2025-09-03,十日市興産合同会社,,合同会社,広島県,広島市中区,十日市町１丁目３番１１号,,34,101,7300805,,,,,,,2025-09-03,1,,,,,トオカイチコウサン,0
2290,9250001021318,新規,0,2025-09-03,2025-09-03,株式会社ＯＫＡＮファイナンス,,株式会社,山口県,下関市,松屋東町２丁目９番１７号,,35,201,7501123,,,,,,,2025-09-03,1,,,,,オカンファイナンス,0
2292,9260001040507,新規,0,2025-09-03,2025-09-03,オートセンター天満株式会社,,株式会社,岡山県,岡山市北区,富原３７８０番地６,,33,101,7011153,,,,,,,2025-09-03,1,,,,,オートセンターテンマ,0
2296,9280001009500,新規,0,2025-09-03,2025-09-03,ドライブショップはしもと株式会社,,株式会社,島根県,松江市,黒田町４２３番地８,,32,201,6900876,,,,,,,2025-09-03,1,,,,,ドライブショップハシモト,0
2299,9290001111239,新規,0,2025-09-03,2025-09-03,Ｎｅｘｄｒｅａｍ株式会社,,株式会社,福岡県,福岡市南区,井尻５丁目２４番１８号Ａｌｉｃｅ２０３,,40,134,8111302,,,,,,,2025-09-03,1,,,,,ネクスドリーム,0
2303,9290003017351,新規,0,2025-09-03,2025-09-03,合同会社慧,,合同会社,福岡県,福岡市南区,井尻３丁目３８番３号,,40,134,8111302,,,,,,,2025-09-03,1,,,,,ケイ,0
2309,9290801031826,新規,0,2025-09-03,2025-09-03,株式会社なつみ不動産,,株式会社,福岡県,北九州市小倉南区,朽網東２丁目２５番１１号（１０１）,,40,107,8000232,,,,,,,2025-09-03,1,,,,,ナツミフドウサン,0
2310,9290801031834,新規,0,2025-09-03,2025-09-03,株式会社新龍,,株式会社,福岡県,北九州市小倉南区,下石田１丁目４番１号,,40,107,8020832,,,,,,,2025-09-03,1,,,,,シンリュウ,0
2313,9310001019768,新規,0,2025-09-03,2025-09-03,株式会社ｏｆｆｉｃｅ．Ｋ,,株式会社,長崎県,諫早市,福田町２１番３０号,,42,204,8540001,,,,,,,2025-09-03,1,,,,,オフィスケー,0
2315,9330001033536,新規,0,2025-09-03,2025-09-03,株式会社ＳＧＩ,,株式会社,熊本県,玉名市,岩崎６２４番地１,,43,206,8650016,,,,,,,2025-09-03,1,,,,,エスジーアイ,0
2322,9360001035728,新規,0,2025-09-03,2025-09-03,ギダワークス株式会社,,株式会社,沖縄県,宜野湾市,字佐真下９１番地,,47,205,9012216,,,,,,,2025-09-03,1,,,,,ギダワークス,0
2324,9360003015208,新規,0,2025-09-03,2025-09-03,合同会社キャッスルプラン,,合同会社,沖縄県,宜野湾市,野嵩１丁目３４番１１号ヒルズ野嵩１０７,,47,205,9012203,,,,,,,2025-09-03,1,,,,,キャッスルプラン,0
2325,9370001053002,新規,0,2025-09-03,2025-09-03,株式会社門馬商事,,株式会社,宮城県,仙台市青葉区,小田原７丁目５番４６‐１０３号,,04,101,9800003,,,,,,,2025-09-03,1,,,,,モンマショウジ,0
2327,9410001014263,新規,0,2025-09-03,2025-09-03,株式会社ＩＳＡホールディングス,,株式会社,秋田県,秋田市,山王６丁目５番９号,,05,201,0100951,,,,,,,2025-09-03,1,,,,,アイエスエーホールディングス,0
2328,9420001019245,新規,0,2025-09-03,2025-09-03,Ｋ‐Ｔｅｃｈ株式会社,,株式会社,青森県,三戸郡三戸町,大字梅内字鬢田２６番地５,,02,441,0390112,,,,,,,2025-09-03,1,,,,,ケーテック,0
2332,9430005015289,新規,0,2025-09-03,2025-09-03,一般社団法人華咲,,その他の設立登記法人,北海道,赤平市,宮下町３丁目１－４９,,01,218,0791151,,,,,,,2025-09-03,1,,,,,ハナサキ,0
2333,9440001009673,新規,0,2025-09-03,2025-09-03,株式会社ＭＩＺＵプラス,,株式会社,北海道,二海郡八雲町,落部２２６番地,,01,346,0492562,,,,,,,2025-09-03,1,,,,,ミズプラス,0
2337,9450001014722,新規,0,2025-09-03,2025-09-03,株式会社ＭＭＳ,,株式会社,北海道,旭川市,東五条４丁目１番３号,,01,204,0700025,,,,,,,2025-09-03,1,,,,,エムエムエス,0
2341,9470003002970,新規,0,2025-09-03,2025-09-03,ＧＩＴＡ　ＦＵＪＩ合同会社,,合同会社,香川県,高松市,田町２番地３岡ビル１Ｆ,,37,201,7600053,,,,,,,2025-09-03,1,,,,,,0
2346,9500001026489,新規,0,2025-09-03,2025-09-03,株式会社Ｔｒｉｎｉｔｙ,,株式会社,愛媛県,松山市,本町３丁目２番地１０,,38,201,7900811,,,,,,,2025-09-03,1,,,,,トリニティ,0
