sequenceNumber,corporateNumber,process,correct,updateDate,changeDate,name,nameImageId,kind,prefectureName,cityName,streetNumber,addressImageId,prefectureCode,cityCode,postCode,addressOutside,addressOutsideImageId,closeDate,closeCause,successorCorporateNumber,changeCause,assignmentDate,latest,enName,enPrefectureName,enCityName,enAddressOutside,furigana,hihyoji
6,1010001253801,新規,0,2025-04-04,2025-04-04,株式会社メンター,,株式会社,東京都,文京区,根津２丁目３０番７号,,13,105,1130031,,,,,,,2025-04-04,1,,,,,メンター,0
7,1010001253818,新規,0,2025-04-04,2025-04-04,華偉商事株式会社,,株式会社,東京都,千代田区,外神田２丁目１０番６号宮本ビル１階,,13,101,1010021,,,,,,,2025-04-04,1,,,,,カイショウジ,0
8,1010003046906,新規,0,2025-04-04,2025-04-04,合同会社トラバント,,合同会社,東京都,中央区,銀座１丁目１２番４号Ｎ＆ＥＢＬＤ．６Ｆ,,13,102,1040061,,,,,,,2025-04-04,1,,,,,トラバント,0
9,1010003046955,新規,0,2025-04-04,2025-04-04,小牧ロジ合同会社,,合同会社,東京都,中央区,銀座１丁目６番１１号アースタックス税理士法人内,,13,102,1040061,,,,,,,2025-04-04,1,,,,,コマキロジ,0
10,1010005039890,新規,0,2025-04-04,2025-04-04,山佐ＤＬＨ１１一般社団法人,,その他の設立登記法人,東京都,千代田区,丸の内１丁目４番１号東京共同会計事務所内,,13,101,1000005,,,,,,,2025-04-04,1,,,,,ヤマサディーエルエイチイレブン,0
12,1010105002336,新規,0,2025-04-04,2025-04-04,一般社団法人明治安田ホーリーズ,,その他の設立登記法人,東京都,八王子市,戸吹町１５０番地,,13,201,1920001,,,,,,,2025-04-04,1,,,,,メイジヤスダホーリーズ,0
17,1010401189249,新規,0,2025-04-04,2025-04-04,株式会社メイスター,,株式会社,東京都,港区,南麻布５丁目１０番３５－９０２号,,13,103,1060047,,,,,,,2025-04-04,1,,,,,メイスター,0
18,1010401189372,新規,0,2025-04-04,2025-04-04,ウィズユー株式会社,,株式会社,東京都,港区,南青山２丁目１５番５号ＦＡＲＯ青山２０３,,13,103,1070062,,,,,,,2025-04-04,1,,,,,ウィズユー,0
19,1010401189455,新規,0,2025-04-04,2025-04-04,株式会社ＩＮＤＸ,,株式会社,東京都,港区,六本木４丁目２番４５号高會堂ビル２Ｆ,00138571,13,103,1060032,,,,,,,2025-04-04,1,,,,,インデックス,0
20,1010401189463,新規,0,2025-04-04,2025-04-04,株式会社Ｍ＆Ｋ,,株式会社,東京都,港区,南麻布１丁目４－８,,13,103,1060047,,,,,,,2025-04-04,1,,,,,エムアンドケー,0
23,1010403034824,新規,0,2025-04-04,2025-04-04,クラシゴト合同会社,,合同会社,東京都,港区,北青山１丁目３番１号アールキューブ青山３階,,13,103,1070061,,,,,,,2025-04-04,1,,,,,クラシゴト,0
24,1010601067056,新規,0,2025-04-04,2025-04-04,オートバックス・プロパティデベロップメンツ株式会社,,株式会社,東京都,江東区,豊洲５丁目６番５２号,,13,108,1350061,,,,,,,2025-04-04,1,,,,,オートバックスプロパティデベロップメンツ,0
25,1010601067064,新規,0,2025-04-04,2025-04-04,夢誠食品株式会社,,株式会社,東京都,墨田区,立花１丁目６番１１号１階,,13,107,1310043,,,,,,,2025-04-04,1,,,,,モンセイショクヒン,0
26,1010603011482,新規,0,2025-04-04,2025-04-04,合同会社くらもち珈琲,,合同会社,東京都,江東区,亀戸３丁目５０番５号,,13,108,1360071,,,,,,,2025-04-04,1,,,,,クラモチコーヒー,0
27,1010701047494,新規,0,2025-04-04,2025-04-04,株式会社ＣＰジャパン,,株式会社,東京都,品川区,西五反田７丁目２４番８号Ｌｉｂｅｒｔｅ’西五反田３０２,,13,109,1410031,,,,,,,2025-04-04,1,,,,,シーピージャパン,0
33,1010903009821,新規,0,2025-04-04,2025-04-04,合同会社Ｄｅｅｐ　Ｉｎｓｉｇｈｔ　Ｃａｐｉｔａｌ,,合同会社,東京都,世田谷区,岡本１丁目２７番８号,,13,112,1570076,,,,,,,2025-04-04,1,,,,,ディープインサイトキャピタル,0
34,1010905004762,新規,0,2025-04-04,2025-04-04,一般社団法人岡原ゼミ,,その他の設立登記法人,東京都,世田谷区,北烏山７丁目２５番８－６０１号,,13,112,1570061,,,,,,,2025-04-04,1,,,,,オカハラゼミ,0
40,1011001168766,新規,0,2025-04-04,2025-04-04,ＥｎＦＦＩＮＩ　ＰＡＲＴＮＥＲＳ株式会社,,株式会社,東京都,目黒区,自由が丘２丁目１６－１２ＲＪ３,,13,110,1520035,,,,,,,2025-04-04,1,,,,,エンフィニパートナーズ,0
41,1011001168774,新規,0,2025-04-04,2025-04-04,柿沼商事株式会社,,株式会社,東京都,目黒区,緑が丘１丁目３番２号,,13,110,1520034,,,,,,,2025-04-04,1,,,,,カキヌマショウジ,0
48,1011201026253,新規,0,2025-04-04,2025-04-04,株式会社ポートラック,,株式会社,東京都,中野区,大和町４丁目４４番１２号,,13,114,1650034,,,,,,,2025-04-04,1,,,,,ポートラック,0
53,1011301030477,新規,0,2025-04-04,2025-04-04,株式会社ル・プチパン・イ・ウ,,株式会社,東京都,杉並区,久我山３丁目３２番１号,,13,115,1680082,,,,,,,2025-04-04,1,,,,,ルプチパンイウ,0
54,1011301030485,新規,0,2025-04-04,2025-04-04,株式会社鮨しゅん輔,,株式会社,東京都,杉並区,阿佐谷南３丁目４４番４号ハイコート阿佐谷Ｂ１Ｆ,,13,115,1660004,,,,,,,2025-04-04,1,,,,,スシシュンスケ,0
55,1011601028543,新規,0,2025-04-04,2025-04-04,長運株式会社,,株式会社,東京都,練馬区,関町北５丁目６番７号関町マンション４０１Ａ,,13,120,1770051,,,,,,,2025-04-04,1,,,,,チョウウン,0
57,1011701028229,新規,0,2025-04-04,2025-04-04,株式会社隼工務店,,株式会社,東京都,江戸川区,松江１丁目１７番１４号,,13,123,1320025,,,,,,,2025-04-04,1,,,,,ハヤブサコウムテン,0
60,1011801045883,新規,0,2025-04-04,2025-04-04,株式会社ＢｅｓｔｉｅｓＴｏｋｙｏ,,株式会社,東京都,葛飾区,新小岩２丁目１５番１０,,13,122,1240024,,,,,,,2025-04-04,1,,,,,ベスティーズトウキョウ,0
61,1011803006776,新規,0,2025-04-04,2025-04-04,合同会社永和,,合同会社,東京都,葛飾区,東新小岩７丁目２５番４号セピアコート２０２,,13,122,1240023,,,,,,,2025-04-04,1,,,,,エイワ,0
63,1012405005101,新規,0,2025-04-04,2025-04-04,一般社団法人グローバルサウスと絵本とサイエンスの会,,その他の設立登記法人,東京都,狛江市,岩戸南２丁目１３番１３号,,13,219,2010005,,,,,,,2025-04-04,1,,,,,グローバルサウストエホントサイエンンスノカイ,0
64,1012703003236,新規,0,2025-04-04,2025-04-04,合同会社アルコ,,合同会社,東京都,西東京市,ひばりが丘４丁目６番Ｍ－２０４号,,13,229,2020001,,,,,,,2025-04-04,1,,,,,アルコ,0
65,1012801023862,新規,0,2025-04-04,2025-04-04,株式会社ざえもん,,株式会社,東京都,東大和市,上北台１丁目９０２番地の１９０,,13,220,2070023,,,,,,,2025-04-04,1,,,,,ザエモン,0
66,1013101009668,新規,0,2025-04-04,2025-04-04,株式会社ＶＥＮＴＯ,,株式会社,東京都,福生市,加美平３丁目１８－３１,,13,218,1970012,,,,,,,2025-04-04,1,,,,,ヴェント,0
72,1020001162200,新規,0,2025-04-04,2025-04-04,株式会社ＣＯＤＥ,,株式会社,神奈川県,横浜市中区,相生町３丁目６１番地泰生ビル３０２号,,14,104,2310012,,,,,,,2025-04-04,1,,,,,コード,0
75,1020005016757,新規,0,2025-04-04,2025-04-04,一般社団法人Ａｏｚｏｒｉｕｍ,,その他の設立登記法人,神奈川県,横浜市都筑区,東山田２丁目３０番２４号,,14,118,2240023,,,,,,,2025-04-04,1,,,,,アオゾリアム,0
76,1020005016798,新規,0,2025-04-04,2025-04-04,医療法人社団有英会,,その他の設立登記法人,神奈川県,横浜市西区,戸部町５丁目１８９番地シュガール戸部町１階,,14,103,2200042,,,,,,,2025-04-04,1,,,,,ユウエイカイ,0
79,1021001084871,新規,0,2025-04-04,2025-04-04,株式会社Ｋ２Ｐｌｕｍｂｉｎｇ,,株式会社,神奈川県,足柄下郡湯河原町,中央４丁目１４番地８,,14,384,2590301,,,,,,,2025-04-04,1,,,,,,0
80,1021001084888,新規,0,2025-04-04,2025-04-04,ＲＥＤ　ｗｏｒｋｓ株式会社,,株式会社,神奈川県,藤沢市,西富２丁目１９番３～２号,,14,205,2510001,,,,,,,2025-04-04,1,,,,,レッドワークス,0
81,1021001084896,新規,0,2025-04-04,2025-04-04,Ｐｒｏｊｅｃｔ．Ｐｉｇａｏ株式会社,,株式会社,神奈川県,足柄下郡箱根町,大平台４６１番地の１,,14,382,2500405,,,,,,,2025-04-04,1,,,,,プロジェクトピガオ,0
83,1021003015817,新規,0,2025-04-04,2025-04-04,合同会社ヒロＩＴ研究所,,合同会社,神奈川県,鎌倉市,岩瀬１丁目２０番３３号,,14,204,2470051,,,,,,,2025-04-04,1,,,,,ヒロアイティーケンキュウジョ,0
84,1021003015825,新規,0,2025-04-04,2025-04-04,Ｇｉｇｌｉｏ　ｄｅｌｌａ　Ｃｏｍｐａｇｎｉａ合同会社,,合同会社,神奈川県,相模原市中央区,富士見２丁目１０番４号,,14,152,2520236,,,,,,,2025-04-04,1,,,,,ジリオデラコンパニーア,0
85,1021003015833,新規,0,2025-04-04,2025-04-04,合同会社八楽,,合同会社,神奈川県,小田原市,浜町３丁目１番４１号,,14,206,2500004,,,,,,,2025-04-04,1,,,,,,0
86,1021005013323,新規,0,2025-04-04,2025-04-04,特定非営利活動法人横須賀ジュニアＦＣ,,その他の設立登記法人,神奈川県,横須賀市,大津町１丁目２１番Ｈ－４０１号,,14,201,2390808,,,,,,,2025-04-04,1,,,,,ヨコスカジュニアエフシー,0
94,1030001165722,新規,0,2025-04-04,2025-04-04,株式会社ＳＡＩＬ,,株式会社,埼玉県,さいたま市大宮区,浅間町１丁目６７番地,,11,103,3300842,,,,,,,2025-04-04,1,,,,,セイル,0
95,1030001165755,新規,0,2025-04-04,2025-04-04,株式会社ＧＵＮＥＳ,,株式会社,埼玉県,川口市,戸塚東３丁目４９番９－１０５号,,11,203,3330802,,,,,,,2025-04-04,1,,,,,グネス,0
100,1040001138108,新規,0,2025-04-04,2025-04-04,株式会社東京ビルコーポレーション,,株式会社,千葉県,船橋市,本中山３丁目１０番１２号,,12,204,2730035,,,,,,,2025-04-04,1,,,,,トウキョウビルコーポレーション,0
103,1040003027218,新規,0,2025-04-04,2025-04-04,アソシアマネジメント合同会社,,合同会社,千葉県,習志野市,谷津１丁目１１－９モードビル３Ｆ,,12,216,2750026,,,,,,,2025-04-04,1,,,,,アソシアマネジメント,0
106,1050001056325,新規,0,2025-04-04,2025-04-04,株式会社Ｋｏｍａｔｓｕ　Ｃｏｍｐａｎｙ,,株式会社,茨城県,神栖市,下幡木３９１９番地２９アヴニールＡ１０２,,08,232,3140131,,,,,,,2025-04-04,1,,,,,コマツカンパニー,0
107,1050001056449,新規,0,2025-04-04,2025-04-04,株式会社Ａファースト,,株式会社,茨城県,鉾田市,梶山２２５２番地１,,08,234,3112104,,,,,,,2025-04-04,1,,,,,エーファースト,0
108,1050003009181,新規,0,2025-04-04,2025-04-04,合同会社ＥＮ,,合同会社,茨城県,下妻市,新堀５２９,,08,210,3040049,,,,,,,2025-04-04,1,,,,,エン,0
109,1060001038082,新規,0,2025-04-04,2025-04-04,株式会社ライト,,株式会社,栃木県,栃木市,大平町西野田２００３番地５,,09,203,3294421,,,,,,,2025-04-04,1,,,,,ライト,0
110,1070001042777,新規,0,2025-04-04,2025-04-04,株式会社ＨＳＧ,,株式会社,群馬県,伊勢崎市,本町１６番地５サンシャイン伊勢崎１Ｆ,,10,204,3720047,,,,,,,2025-04-04,1,,,,,エイチエスジー,0
111,1070001042802,新規,0,2025-04-04,2025-04-04,株式会社アイクリーン,,株式会社,群馬県,館林市,美園町１６番地１やおともビル２０２,,10,207,3740039,,,,,,,2025-04-04,1,,,,,,0
112,1070001042827,新規,0,2025-04-04,2025-04-04,株式会社プラスマイルグループ,,株式会社,群馬県,高崎市,江木町６５３－５,,10,202,3700046,,,,,,,2025-04-04,1,,,,,プラスマイルグループ,0
114,1070005010367,新規,0,2025-04-04,2025-04-04,一般社団法人日本セラピストカレッジ,,その他の設立登記法人,群馬県,太田市,飯塚町８０９番地２,,10,205,3730817,,,,,,,2025-04-04,1,,,,,ニホンセラピストカレッジ,0
121,1100005013317,新規,0,2025-04-04,2025-04-04,一般社団法人南信振興会,,その他の設立登記法人,長野県,飯田市,座光寺４５２０番地１,,20,205,3950001,,,,,,,2025-04-04,1,,,,,ナンシンシンコウカイ,0
124,1110001039158,新規,0,2025-04-04,2025-04-04,金子建築設計室株式会社,,株式会社,新潟県,佐渡市,金井新保乙１０９４番地１,,15,224,9521208,,,,,,,2025-04-04,1,,,,,カネコケンチクセッケイシツ,0
125,1110001039174,新規,0,2025-04-04,2025-04-04,株式会社ＫＯＫＵＡ,,株式会社,新潟県,三条市,金子新田１６９７－１ＫＯＫＵＡ,,15,204,9550814,,,,,,,2025-04-04,1,,,,,コクア,0
139,1120001274159,新規,0,2025-04-04,2025-04-04,株式会社淞作吉品,,株式会社,大阪府,大阪市北区,浮田２丁目１番３－２１０号,,27,127,5300021,,,,,,,2025-04-04,1,,,,,ショウサクキッピン,0
140,1120001274209,新規,0,2025-04-04,2025-04-04,株式会社Ｈｏｍｅ　ｓｔｙｌｅｒ,,株式会社,大阪府,大阪市港区,市岡４丁目５番１０号,,27,107,5520012,,,,,,,2025-04-04,1,,,,,ホームスタイラー,0
144,1120003028868,新規,0,2025-04-04,2025-04-04,合同会社えべっさん,,合同会社,大阪府,大阪市港区,八幡屋２丁目１４番１８号,,27,107,5520014,,,,,,,2025-04-04,1,,,,,エベッサン,0
150,1120101071407,新規,0,2025-04-04,2025-04-04,ヤマタツ株式会社,,株式会社,大阪府,藤井寺市,小山１丁目３番１号,,27,226,5830033,,,,,,,2025-04-04,1,,,,,ヤマタツ,0
151,1120101071415,新規,0,2025-04-04,2025-04-04,株式会社フジオ,,株式会社,大阪府,堺市南区,大庭寺３６１番地１,,27,145,5900153,,,,,,,2025-04-04,1,,,,,フジオ,0
159,1122001039046,新規,0,2025-04-04,2025-04-04,株式会社Ｂｕｄｓ,,株式会社,大阪府,八尾市,跡部本町１丁目４番１６号,,27,212,5810064,,,,,,,2025-04-04,1,,,,,バッズ,0
166,1130005017331,新規,0,2025-04-04,2025-04-04,一般社団法人オフィス無限大,,その他の設立登記法人,京都府,福知山市,字立原１２０番地,,26,201,6200914,,,,,,,2025-04-04,1,,,,,オフィスムゲンダイ,0
174,1150001028000,新規,0,2025-04-04,2025-04-04,株式会社都産業,,株式会社,奈良県,北葛城郡河合町,泉台３丁目２１番２５号,,29,427,6360091,,,,,,,2025-04-04,1,,,,,ミヤコサンギョウ,0
175,1150003003546,新規,0,2025-04-04,2025-04-04,合同会社ＡＳＣＯＳ,,合同会社,奈良県,奈良市,押熊町７５９番地の４,,29,201,6310011,,,,,,,2025-04-04,1,,,,,アスコス,0
177,1170001018552,新規,0,2025-04-04,2025-04-04,亜細亜開拓株式会社,,株式会社,和歌山県,東牟婁郡那智勝浦町,大字下里２３３５番地１,,30,421,6495142,,,,,,,2025-04-04,1,,,,,アジアカイタク,0
188,1180001166136,新規,0,2025-04-04,2025-04-04,株式会社ＮＥＸＴＬＩＧＨＴ,,株式会社,愛知県,東海市,東海町３丁目８番２９号,,23,222,4760015,,,,,,,2025-04-04,1,,,,,ネクストライト,0
189,1180001166144,新規,0,2025-04-04,2025-04-04,株式会社コー・イング,,株式会社,愛知県,名古屋市西区,山木１丁目２２８番地,,23,104,4520833,,,,,,,2025-04-04,1,,,,,コーイング,0
190,1180001166227,新規,0,2025-04-04,2025-04-04,希望不動産株式会社,,株式会社,愛知県,犬山市,字城山７６番地１,,23,215,4840858,,,,,,,2025-04-04,1,,,,,キボウフドウサン,0
194,1180003028235,新規,0,2025-04-04,2025-04-04,合同会社クニマサ,,合同会社,愛知県,名古屋市東区,徳川町１１２,,23,102,4610023,,,,,,,2025-04-04,1,,,,,クニマサ,0
195,1180003028243,新規,0,2025-04-04,2025-04-04,ＮＡＭ合同会社,,合同会社,愛知県,名古屋市中区,栄２丁目１－１０伏見フジビル９Ｆ,,23,106,4600008,,,,,,,2025-04-04,1,,,,,,0
196,1180003028268,新規,0,2025-04-04,2025-04-04,合同会社Ｓ．Ｋトレーディング,,合同会社,愛知県,名古屋市中村区,向島町４丁目２４－１レジデンス向島２０１号,,23,105,4530838,,,,,,,2025-04-04,1,,,,,エスケートレーディング,0
197,1180003028276,新規,0,2025-04-04,2025-04-04,合同会社ゼファンド,,合同会社,愛知県,名古屋市西区,名塚町２丁目６０－１,,23,104,4510081,,,,,,,2025-04-04,1,,,,,ゼファンド,0
198,1180005021015,新規,0,2025-04-04,2025-04-04,一般社団法人くれよんの木,,その他の設立登記法人,愛知県,日進市,藤塚６丁目３２５番地,,23,230,4700117,,,,,,,2025-04-04,1,,,,,クレヨンノキ,0
199,1180005021023,新規,0,2025-04-04,2025-04-04,愛知知多小事業協同組合,,その他の設立登記法人,愛知県,半田市,乙川西ノ宮町１丁目３８番地,,23,205,4750068,,,,,,,2025-04-04,1,,,,,アイチチタ,0
201,1180301039677,新規,0,2025-04-04,2025-04-04,株式会社花酵母ｆａｃｔｏｒｙ,,株式会社,愛知県,碧南市,六軒町４丁目３１番地,,23,209,4470861,,,,,,,2025-04-04,1,,,,,ハナコウボファクトリー,0
204,1190003004986,新規,0,2025-04-04,2025-04-04,合同会社上田,,合同会社,三重県,尾鷲市,上野町１番１３号,,24,209,5193653,,,,,,,2025-04-04,1,,,,,ウエダ,0
206,1200001043596,新規,0,2025-04-04,2025-04-04,株式会社ＪＡ葬祭岐阜,,株式会社,岐阜県,岐阜市,宇佐南４丁目１４番２号,,21,201,5008367,,,,,,,2025-04-04,1,,,,,ジェイエイソウサイギフ,0
207,1200001043605,新規,0,2025-04-04,2025-04-04,ＺＡＭＡＮ　ＢＲＯＴＨＥＲＳ株式会社,,株式会社,岐阜県,各務原市,前渡東町８丁目６３０番地マエドハウスＡ,,21,213,5040922,,,,,,,2025-04-04,1,,,,,ザマンブラザーズ,0
208,1200003006758,新規,0,2025-04-04,2025-04-04,朋誠建設合同会社,,合同会社,岐阜県,瑞穂市,野田新田４０１１番地３,,21,216,5010232,,,,,,,2025-04-04,1,,,,,ホウセイケンセツ,0
212,1210003001907,新規,0,2025-04-04,2025-04-04,ＬＯＴＵＳ　ＬＡＢＯ合同会社,,合同会社,福井県,坂井市,丸岡町八ツ口第４９号４０番地６,,18,210,9100371,,,,,,,2025-04-04,1,,,,,ロータスラボ,0
213,1210005010195,新規,0,2025-04-04,2025-04-04,一般社団法人福三会オレンジネットワーク,,その他の設立登記法人,福井県,敦賀市,藤ケ丘町２０番地の６,,18,202,9140017,,,,,,,2025-04-04,1,,,,,フクミカイオレンジネットワーク,0
215,1220001026590,新規,0,2025-04-04,2025-04-04,タキサン製菓株式会社,,株式会社,石川県,小松市,若杉町ソ１００番地,,17,203,9230832,,,,,,,2025-04-04,1,,,,,タキサンセイカ,0
227,1240001064762,新規,0,2025-04-04,2025-04-04,エヌワークス株式会社,,株式会社,広島県,福山市,神辺町大字川北６４２番地,,34,207,7202123,,,,,,,2025-04-04,1,,,,,エヌワークス,0
229,1250005008995,新規,0,2025-04-04,2025-04-04,特定非営利活動法人ＯＫＡＩ　ＣＬＵＢ,,その他の設立登記法人,山口県,周南市,学園台８４３の４の２番地８号館８２１４研究室,,35,215,7450000,,,,,,,2025-04-04,1,,,,,オカイクラブ,0
231,1260001040084,新規,0,2025-04-04,2025-04-04,株式会社ＴＯＩＲＯ,,株式会社,岡山県,岡山市中区,倉田５１番地,,33,102,7038265,,,,,,,2025-04-04,1,,,,,トイロ,0
232,1260003005127,新規,0,2025-04-04,2025-04-04,おかやま楓合同会社,,合同会社,岡山県,岡山市北区,富田町１丁目５番６号志水ビル３０１号,,33,101,7000816,,,,,,,2025-04-04,1,,,,,オカヤマカエデ,0
235,1280001009391,新規,0,2025-04-04,2025-04-04,株式会社小川板金,,株式会社,島根県,松江市,坂本町９４番地,,32,201,6900813,,,,,,,2025-04-04,1,,,,,オガワバンキン,0
240,1290003016617,新規,0,2025-04-04,2025-04-04,合同会社ランドレア,,合同会社,福岡県,福岡市中央区,大名１丁目９番５２号,,40,133,8100041,,,,,,,2025-04-04,1,,,,,ランドレア,0
241,1290003016641,新規,0,2025-04-04,2025-04-04,合同会社Ｒエステート,,合同会社,福岡県,福岡市早良区,西新２丁目１１番１３－３０６号,,40,137,8140002,,,,,,,2025-04-04,1,,,,,アールエステート,0
251,1320003004626,新規,0,2025-04-04,2025-04-04,合同会社ｋｇｃ,,合同会社,大分県,別府市,内竈３０２０番地１５９,,44,202,8740011,,,,,,,2025-04-04,1,,,,,ケージーシー,0
253,1330001033023,新規,0,2025-04-04,2025-04-04,株式会社ＭＩＴＡＫＥホールディングス,,株式会社,熊本県,熊本市南区,富合町木原１４５２番地１,,43,104,8614153,,,,,,,2025-04-04,1,,,,,ミタケホールディングス,0
256,1340001027247,新規,0,2025-04-04,2025-04-04,株式会社アラテック,,株式会社,鹿児島県,鹿児島市,田上５丁目４０番３号,,46,201,8900034,,,,,,,2025-04-04,1,,,,,アラテック,0
259,1340003004797,新規,0,2025-04-04,2025-04-04,合同会社ナカハラ,,合同会社,鹿児島県,姶良郡湧水町,川添１０３２番地６,,46,452,8996103,,,,,,,2025-04-04,1,,,,,ナカハラ,0
260,1350001019466,新規,0,2025-04-04,2025-04-04,株式会社川越ビニールハウス,,株式会社,宮崎県,宮崎市,大字郡司分丙９７７４番地１４,,45,201,8800924,,,,,,,2025-04-04,1,,,,,カワゴエビニールハウス,0
261,1370001052424,新規,0,2025-04-04,2025-04-04,株式会社ＹＳ,,株式会社,宮城県,本吉郡南三陸町,入谷字桜沢２４５番地２,,04,606,9860782,,,,,,,2025-04-04,1,,,,,ワイエス,0
262,1370001052432,新規,0,2025-04-04,2025-04-04,株式会社大心工業,,株式会社,宮城県,栗原市,栗駒深谷本桐１４番地,,04,213,9895382,,,,,,,2025-04-04,1,,,,,ダイトコウギョウ,0
263,1370001052440,新規,0,2025-04-04,2025-04-04,上杉英会話教室株式会社,,株式会社,宮城県,仙台市青葉区,上杉２丁目１番１０号,,04,101,9800011,,,,,,,2025-04-04,1,,,,,カミスギエイカイワキョウシツ,0
268,1390005009113,新規,0,2025-04-04,2025-04-04,医療法人いしい腎泌尿器科クリニック,,その他の設立登記法人,山形県,山形市,桜田西４丁目１７番４９号,,06,201,9902321,,,,,,,2025-04-04,1,,,,,イシイジンヒニョウキカクリニック,0
274,1400003003421,新規,0,2025-04-04,2025-04-04,合同会社ＵＮＣＬＥ　ＭＯＣＨＩ,,合同会社,岩手県,一関市,三関字日照１１６番地６,,03,209,0210821,,,,,,,2025-04-04,1,,,,,アンクルモチ,0
275,1410001014106,新規,0,2025-04-04,2025-04-04,株式会社ＫＤＫ,,株式会社,秋田県,秋田市,飯島字薬師田３６０番地２,,05,201,0110911,,,,,,,2025-04-04,1,,,,,ケーディーケー,0
276,1410003004071,新規,0,2025-04-04,2025-04-04,合同会社今野工務店,,合同会社,秋田県,能代市,浅内字成合下２１番地３,,05,202,0160179,,,,,,,2025-04-04,1,,,,,イマノコウムテン,0
283,1430001094055,新規,0,2025-04-04,2025-04-04,株式会社ＹＡＫＵＳＨＯ,,株式会社,北海道,札幌市中央区,大通西１８丁目１‐１４藪商事ＢＬＤＧ４階カエルクリエイティブスクエア１８,,01,101,0600042,,,,,,,2025-04-04,1,,,,,ヤクショ,0
286,1450001014580,新規,0,2025-04-04,2025-04-04,株式会社福井塗装,,株式会社,北海道,旭川市,末広五条９丁目８番２６号,,01,204,0718135,,,,,,,2025-04-04,1,,,,,フクイトソウ,0
287,1460101007698,新規,0,2025-04-04,2025-04-04,ノースアグリサポートサービス株式会社,,株式会社,北海道,足寄郡陸別町,字陸別原野基線３２７番地１２０,,01,648,0894300,,,,,,,2025-04-04,1,,,,,ノースアグリサポートサービス,0
292,1490001011005,新規,0,2025-04-04,2025-04-04,株式会社Ｇ．Ｏ,,株式会社,高知県,高知市,梅ノ辻２番４号,,39,201,7808011,,,,,,,2025-04-04,1,,,,,ジーオー,0
295,1700150129831,新規,0,2025-04-04,2025-04-04,ＳＨＯＺＯ　ＬＡＮＫＡ　ＰＲＩＶＡＴＥ　ＬＩＭＩＴＥＤ,,外国会社等,群馬県,太田市,由良町１７０６－２ツインパレス１号館１０３,,10,205,3730036,スリランカ民主社会主義共和国、アクラナ、クルゴダ、１９１／４番,,,,,,2025-04-04,1,,,,,シヨウゾランカプライベートリミテツド,0
300,2010001253701,新規,0,2025-04-04,2025-04-04,通商国際株式会社,,株式会社,東京都,中央区,銀座１丁目１２－４Ｎ＆ＥＢＬＤ．７階,,13,102,1040061,,,,,,,2025-04-04,1,,,,,ツウショウコクサイ,0
301,2010001253841,新規,0,2025-04-04,2025-04-04,株式会社アンジェリカ,,株式会社,東京都,中央区,月島３丁目１３番６号,,13,102,1040052,,,,,,,2025-04-04,1,,,,,アンジェリカ,0
302,2010001253874,新規,0,2025-04-04,2025-04-04,セールスソリューションズ株式会社,,株式会社,東京都,千代田区,神田和泉町１番地６－１６ヤマトビル４０５,,13,101,1010024,,,,,,,2025-04-04,1,,,,,セールスソリューションズ,0
303,2010003046913,新規,0,2025-04-04,2025-04-04,ＭＴ‐ＶＰＰ合同会社,,合同会社,東京都,中央区,京橋２丁目１２番６号ＡＯＪ税理士法人内,,13,102,1040031,,,,,,,2025-04-04,1,,,,,エムティーブイピーピー,0
304,2010003046954,新規,0,2025-04-04,2025-04-04,合同会社エ・バリュー,,合同会社,東京都,文京区,白山２丁目１６番１－１０２号,,13,105,1120001,,,,,,,2025-04-04,1,,,,,エバリュー,0
305,2010101016594,新規,0,2025-04-04,2025-04-04,株式会社ＪＥＰ,,株式会社,東京都,八王子市,打越町１４８１番地２７３,,13,201,1920911,,,,,,,2025-04-04,1,,,,,ジェイイーピー,0
308,2010103002551,新規,0,2025-04-04,2025-04-04,合同会社きりん,,合同会社,東京都,八王子市,寺田町１０５―３,,13,201,1930943,,,,,,,2025-04-04,1,,,,,キリン,0
316,2010601067055,新規,0,2025-04-04,2025-04-04,リリィ株式会社,,株式会社,東京都,江東区,平野２丁目１１番１９－５０１号,,13,108,1350023,,,,,,,2025-04-04,1,,,,,リリィ,0
317,2010601067063,新規,0,2025-04-04,2025-04-04,株式会社ＷＡＴＡＳＩＮＯ,,株式会社,東京都,墨田区,太平４丁目３番１－３０５号,,13,107,1300012,,,,,,,2025-04-04,1,,,,,ワタシノ,0
322,2010903009812,新規,0,2025-04-04,2025-04-04,合同会社ＥＩＴＯ,,合同会社,東京都,世田谷区,上馬４丁目１７番４号アルファ駒沢２階２号室,,13,112,1540011,,,,,,,2025-04-04,1,,,,,エイト,0
325,2011001168699,新規,0,2025-04-04,2025-04-04,株式会社ＫＥＮＺＩ,,株式会社,東京都,渋谷区,道玄坂１丁目１０番８号渋谷道玄坂東急ビル２Ｆ－Ｃ,,13,113,1500043,,,,,,,2025-04-04,1,,,,,ケンジ,0
326,2011001168765,新規,0,2025-04-04,2025-04-04,株式会社ＹＯＵ‐ＢＥＳＴ,,株式会社,東京都,渋谷区,広尾１丁目８番９－２０３号,,13,113,1500012,,,,,,,2025-04-04,1,,,,,ユーベスト,0
327,2011001168773,新規,0,2025-04-04,2025-04-04,株式会社ダンガー,,株式会社,東京都,渋谷区,神南１丁目１１番４号ＦＰＧリンクス神南５階,,13,113,1500041,,,,,,,2025-04-04,1,,,,,ダンガー,0
328,2011101111212,新規,0,2025-04-04,2025-04-04,キャリアアイティー株式会社,,株式会社,東京都,新宿区,西新宿６丁目８番１号住友不動産新宿オークタワー,,13,104,1600023,,,,,,,2025-04-04,1,,,,,キャリアアイティー,0
331,2011201026252,新規,0,2025-04-04,2025-04-04,株式会社ブルドッグ,,株式会社,東京都,中野区,南台２丁目５２番５号８０２,,13,114,1640014,,,,,,,2025-04-04,1,,,,,ブルドッグ,0
332,2011303005492,新規,0,2025-04-04,2025-04-04,合同会社バンドワゴン,,合同会社,東京都,杉並区,阿佐谷北４丁目２１番１２―２０１号サーパス阿佐ヶ谷中杉通り,,13,115,1660001,,,,,,,2025-04-04,1,,,,,バンドワゴン,0
333,2011501031860,新規,0,2025-04-04,2025-04-04,株式会社東辰ＰＬ,,株式会社,東京都,荒川区,西日暮里１丁目６２－５成友ＫＳビル２Ｆ２０１号,,13,118,1160013,,,,,,,2025-04-04,1,,,,,トウシンピーエル,0
334,2011501031893,新規,0,2025-04-04,2025-04-04,東京縁通株式会社,,株式会社,東京都,北区,王子本町１丁目２２番１号２０２号室,,13,117,1140022,,,,,,,2025-04-04,1,,,,,トウキョウエンツウ,0
336,2011703004185,新規,0,2025-04-04,2025-04-04,合同会社ＦＦ,,合同会社,東京都,江戸川区,中央１丁目３番９－１０１号,,13,123,1320021,,,,,,,2025-04-04,1,,,,,エフエフ,0
337,2011801045841,新規,0,2025-04-04,2025-04-04,株式会社ユメックス,,株式会社,東京都,葛飾区,青戸６丁目３７番１４号,,13,122,1250062,,,,,,,2025-04-04,1,,,,,ユメックス,0
338,2011803006759,新規,0,2025-04-04,2025-04-04,舘合同会社,,合同会社,東京都,足立区,千住宮元町２５－８,,13,121,1200043,,,,,,,2025-04-04,1,,,,,ダテ,0
339,2011803006767,新規,0,2025-04-04,2025-04-04,合同会社ディジョンブリッジ,,合同会社,東京都,葛飾区,青戸４丁目２０－４,,13,122,1250062,,,,,,,2025-04-04,1,,,,,ディジョンブリッジ,0
340,2012401042931,新規,0,2025-04-04,2025-04-04,株式会社Ｌ＆Ｍ,,株式会社,東京都,三鷹市,牟礼３丁目９番６－１２１号,,13,204,1810002,,,,,,,2025-04-04,1,,,,,エルアンドエム,0
341,2012703003235,新規,0,2025-04-04,2025-04-04,ＤＯＵＩＴＳＵ合同会社,,合同会社,東京都,清瀬市,元町１丁目１１番２１号フローレス元町２０５号,,13,221,2040021,,,,,,,2025-04-04,1,,,,,ドウイツ,0
342,2013301054018,新規,0,2025-04-04,2025-04-04,株式会社ｏｎｅ　ｂｙ　ｓｔｅｐ,,株式会社,東京都,豊島区,東池袋５丁目７番３号東池袋５丁目ビル１０階ＷＯＲＫＰＬＵＳ内,,13,116,1700013,,,,,,,2025-04-04,1,,,,,ワンバイステップ,0
348,2020003028150,新規,0,2025-04-04,2025-04-04,Ｂｌｕｅ　Ｂｒａｉｎ　Ｃｏｎｎｅｃｔ合同会社,,合同会社,神奈川県,横浜市鶴見区,駒岡５丁目１８番１２号ビエラ２０１,,14,101,2300071,,,,,,,2025-04-04,1,,,,,ブルーブレインコネクト,0
349,2020005016772,新規,0,2025-04-04,2025-04-04,医療法人社団すこやかこども,,その他の設立登記法人,神奈川県,横浜市瀬谷区,三ツ境１番地５ヒルトップ壱番館２階,,14,114,2460022,,,,,,,2025-04-04,1,,,,,スコヤカコドモ,0
354,2021001084854,新規,0,2025-04-04,2025-04-04,株式会社ＫＭ,,株式会社,神奈川県,横須賀市,佐島の丘２丁目１５番１号,,14,201,2400108,,,,,,,2025-04-04,1,,,,,ケイエム,0
356,2021003015816,新規,0,2025-04-04,2025-04-04,合同会社サンテック,,合同会社,神奈川県,藤沢市,遠藤８７４番地の２,,14,205,2520816,,,,,,,2025-04-04,1,,,,,サンテック,0
357,2021005013330,新規,0,2025-04-04,2025-04-04,一般社団法人ナデシコ,,その他の設立登記法人,神奈川県,横須賀市,ハイランド３丁目３番４号,,14,201,2390833,,,,,,,2025-04-04,1,,,,,ナデシコ,0
361,2030001165713,新規,0,2025-04-04,2025-04-04,株式会社エヌエスケアさいたま,,株式会社,埼玉県,春日部市,中央１丁目５７番１２号永島第二ビル５０３号,,11,214,3440067,,,,,,,2025-04-04,1,,,,,エヌエスケアサイタマ,0
362,2030001165721,新規,0,2025-04-04,2025-04-04,株式会社ＢＥＡＮ　ＳＴＡＬＫ’Ｓ,,株式会社,埼玉県,川越市,東田町四丁目３２６番,,11,201,3501114,,,,,,,2025-04-04,1,,,,,ビーンスタークス,0
366,2040001138131,新規,0,2025-04-04,2025-04-04,株式会社シュウホウ,,株式会社,千葉県,千葉市中央区,塩田町８２１－１,,12,101,2600823,,,,,,,2025-04-04,1,,,,,シュウホウ,0
367,2040003027258,新規,0,2025-04-04,2025-04-04,ふぉんりー合同会社,,合同会社,千葉県,流山市,大字東深井３８６番地の２７,,12,220,2700101,,,,,,,2025-04-04,1,,,,,フォンリー,0
369,2050001056431,新規,0,2025-04-04,2025-04-04,株式会社スカイ,,株式会社,茨城県,つくば市,天久保１丁目７番地６パティオ天久保Ｂ棟２０９号室,,08,220,3050005,,,,,,,2025-04-04,1,,,,,スカイ,0
370,2050001056448,新規,0,2025-04-04,2025-04-04,株式会社島田企画,,株式会社,茨城県,水戸市,小林町１１８６番地の６,,08,201,3190325,,,,,,,2025-04-04,1,,,,,シマダキカク,0
371,2050001056456,新規,0,2025-04-04,2025-04-04,ＭＣ２株式会社,,株式会社,茨城県,石岡市,谷向町１２番１４号,,08,205,3150003,,,,,,,2025-04-04,1,,,,,エムシーツー,0
374,2060001038065,新規,0,2025-04-04,2025-04-04,株式会社ゼロ・プラス・メンテナンス,,株式会社,栃木県,真岡市,鬼怒ケ丘１８番７,,09,209,3214367,,,,,,,2025-04-04,1,,,,,ゼロプラスメンテナンス,0
375,2060001038081,新規,0,2025-04-04,2025-04-04,株式会社日央地所,,株式会社,栃木県,河内郡上三川町,しらさぎ１丁目３２番地１０ＳａｉｓｏｎＧａｒｄｅｎｓＢ２０２,,09,301,3290618,,,,,,,2025-04-04,1,,,,,ニチオウジショ,0
377,2080005007683,新規,0,2025-04-04,2025-04-04,特定非営利活動法人結楽,,その他の設立登記法人,静岡県,静岡市清水区,興津中町２００－３,,22,103,4240204,,,,,,,2025-04-04,1,,,,,ユラ,0
382,2080401027847,新規,0,2025-04-04,2025-04-04,ｅｌｌｙ’ｓ　ｒｏｏｍ株式会社,,株式会社,静岡県,袋井市,掛之上１９－２,,22,216,4370029,,,,,,,2025-04-04,1,,,,,エリーズルーム,0
383,2100001038481,新規,0,2025-04-04,2025-04-04,株式会社ずくや,,株式会社,長野県,長野市,大字村山５０３番地２,,20,201,3810011,,,,,,,2025-04-04,1,,,,,ズクヤ,0
386,2110001039173,新規,0,2025-04-04,2025-04-04,ＲＥＰＲＩＳＥ株式会社,,株式会社,新潟県,小千谷市,大字山本４１９番地２,,15,208,9470012,,,,,,,2025-04-04,1,,,,,リプライズ,0
400,2120001274216,新規,0,2025-04-04,2025-04-04,藤花株式会社,,株式会社,大阪府,大阪市中央区,内久宝寺町３丁目１番１４号アザリアビル６０１号室,,27,128,5400013,,,,,,,2025-04-04,1,,,,,トウカ,0
401,2120001274455,新規,0,2025-04-04,2025-04-04,株式会社ＳＫＲ　ＰＲＯＤＵＣＥ,,株式会社,大阪府,大阪市平野区,長吉六反４丁目５番２３号,,27,126,5470012,,,,,,,2025-04-04,1,,,,,エスケイアールプロデュース,0
402,2120001274521,新規,0,2025-04-04,2025-04-04,株式会社ｏｕｒｓ,,株式会社,大阪府,大阪市中央区,南船場１丁目１８番２４号ＡＸＩＳ南船場ビル９０４号室,,27,128,5420081,,,,,,,2025-04-04,1,,,,,ウルス,0
403,2120001274570,新規,0,2025-04-04,2025-04-04,Ｔａｓｋａｌ株式会社,,株式会社,大阪府,大阪市北区,芝田２丁目８番１１号共栄ビル３階,,27,127,5300012,,,,,,,2025-04-04,1,,,,,タスカル,0
407,2120003029031,新規,0,2025-04-04,2025-04-04,合同会社はぐな,,合同会社,大阪府,大阪市城東区,中央１丁目１番４７－４０３号,,27,118,5360005,,,,,,,2025-04-04,1,,,,,ハグナ,0
408,2120003029147,新規,0,2025-04-04,2025-04-04,合同会社ｍｉｎｏ　ｃｏｉｎ,,合同会社,大阪府,大阪市北区,梅田１丁目１－３大阪駅前第３ビル２９階１－１－１号室,,27,127,5300001,,,,,,,2025-04-04,1,,,,,ミノコイン,0
410,2120101071364,新規,0,2025-04-04,2025-04-04,株式会社結和電設,,株式会社,大阪府,松原市,天美北６丁目４５４番地の１４,,27,217,5800031,,,,,,,2025-04-04,1,,,,,ユウワデンセツ,0
411,2120101071406,新規,0,2025-04-04,2025-04-04,株式会社ネクサス,,株式会社,大阪府,堺市東区,大美野１５５番地の１,,27,143,5998126,,,,,,,2025-04-04,1,,,,,ネクサス,0
414,2120103006376,新規,0,2025-04-04,2025-04-04,合同会社にりん,,合同会社,大阪府,高石市,羽衣５丁目１－４３グランドメゾン羽衣伽羅橋４０２,,27,225,5920002,,,,,,,2025-04-04,1,,,,,ニリン,0
419,2122001039037,新規,0,2025-04-04,2025-04-04,株式会社ＮＯＷ　Ｍａｎａｇｅｍｅｎｔ,,株式会社,大阪府,大東市,灰塚６丁目３番２５号,,27,218,5740043,,,,,,,2025-04-04,1,,,,,ナウマネジメント,0
424,2130001079374,新規,0,2025-04-04,2025-04-04,株式会社Ｓｅｌｅｎｄｅ,,株式会社,京都府,京都市下京区,七条通油小路東入大黒町２２７番地第２キョートビル４０２,,26,106,6008223,,,,,,,2025-04-04,1,,,,,セレンデ,0
426,2130005017330,新規,0,2025-04-04,2025-04-04,一般社団法人聖徳保育園,,その他の設立登記法人,京都府,京都市右京区,太秦海正寺町３０番地,,26,108,6168123,,,,,,,2025-04-04,1,,,,,ショウトクホイクエン,0
430,2140001138006,新規,0,2025-04-04,2025-04-04,株式会社ＳＯＴＴＯ,,株式会社,兵庫県,神戸市中央区,磯辺通１丁目１番１８号カサベラ国際プラザビル７０７,,28,110,6510084,,,,,,,2025-04-04,1,,,,,ソット,0
431,2140001138039,新規,0,2025-04-04,2025-04-04,株式会社カケルタンバ,,株式会社,兵庫県,丹波市,柏原町北中１１番地,,28,223,6693306,,,,,,,2025-04-04,1,,,,,カケルタンバ,0
435,2140003021837,新規,0,2025-04-04,2025-04-04,合同会社Ｇｒａｔｉａ,,合同会社,兵庫県,姫路市,御立中７丁目８－１アネシス御立２０１,,28,201,6700073,,,,,,,2025-04-04,1,,,,,グラティア,0
436,2140003021894,新規,0,2025-04-04,2025-04-04,ｒｏｎｗｒｉｔｅｓ．ｃｏｍ合同会社,,合同会社,兵庫県,明石市,朝霧町１丁目１１番１号,,28,203,6730866,,,,,,,2025-04-04,1,,,,,ロンライツドットコム,0
437,2140005027436,新規,0,2025-04-04,2025-04-04,一般社団法人日本総合ヨガ普及協会,,その他の設立登記法人,兵庫県,神戸市中央区,磯辺通１丁目１番１８号カサベラ国際プラザビル７０７号室,,28,110,6510084,,,,,,,2025-04-04,1,,,,,ニホンソウゴウヨガフキュウキョウカイ,0
438,2140005027444,新規,0,2025-04-04,2025-04-04,一般社団法人桜こころ,,その他の設立登記法人,兵庫県,神戸市北区,松が枝町３丁目５８番地２,,28,109,6511232,,,,,,,2025-04-04,1,,,,,サクラココロ,0
439,2150003003545,新規,0,2025-04-04,2025-04-04,セレンディピティ合同会社,,合同会社,奈良県,奈良市,五条西１丁目１６番２６－１号,,29,201,6308034,,,,,,,2025-04-04,1,,,,,セレンディピティ,0
446,2180001166135,新規,0,2025-04-04,2025-04-04,株式会社大和商事,,株式会社,愛知県,名古屋市西区,稲生町７丁目２６番地の１,,23,104,4510012,,,,,,,2025-04-04,1,,,,,ダイワショウジ,0
447,2180001166143,新規,0,2025-04-04,2025-04-04,株式会社イーアンドビー,,株式会社,愛知県,名古屋市東区,泉２丁目１７番１６号,,23,102,4610001,,,,,,,2025-04-04,1,,,,,イーアンドビー,0
448,2180001166192,新規,0,2025-04-04,2025-04-04,株式会社プロベル,,株式会社,愛知県,名古屋市中区,栄２丁目９番３号伏見第一ビル５Ｆ,,23,106,4600008,,,,,,,2025-04-04,1,,,,,プロベル,0
449,2180001166218,新規,0,2025-04-04,2025-04-04,サンユー設備株式会社,,株式会社,愛知県,愛西市,佐屋町新田４９番地４,,23,232,4960901,,,,,,,2025-04-04,1,,,,,サンユーセツビ,0
451,2180003028242,新規,0,2025-04-04,2025-04-04,合同会社シーグース,,合同会社,愛知県,名古屋市天白区,原３丁目１３０５番地の１,,23,116,4680015,,,,,,,2025-04-04,1,,,,,シーグース,0
452,2180003028275,新規,0,2025-04-04,2025-04-04,ＥＹＦカンパニー合同会社,,合同会社,愛知県,稲沢市,稲島１丁目１番地９,,23,220,4928229,,,,,,,2025-04-04,1,,,,,イーワイエフカンパニー,0
453,2180005021014,新規,0,2025-04-04,2025-04-04,一般財団法人美術学生サポート財団,,その他の設立登記法人,愛知県,名古屋市中村区,名駅２丁目４５番１４号,,23,105,4500002,,,,,,,2025-04-04,1,,,,,ビジュツガクセイサポートザイダン,0
454,2180005021022,新規,0,2025-04-04,2025-04-04,一般社団法人こたろう整健術養成学院,,その他の設立登記法人,愛知県,名古屋市守山区,城土町２１９番地,,23,113,4630093,,,,,,,2025-04-04,1,,,,,コタロウセイケンジュツヨウセイガクイン,0
458,2200001043604,新規,0,2025-04-04,2025-04-04,株式会社飛騨高山よしま農園,,株式会社,岐阜県,高山市,３７８番地,,21,203,5060000,,,,,,,2025-04-04,1,,,,,ヒダタカヤマヨシマノウエン,0
460,2200003006757,新規,0,2025-04-04,2025-04-04,ａｎｔ　ｈｕｔ合同会社,,合同会社,岐阜県,大野郡白川村,大字鳩谷４４５番地１,,21,604,5015629,,,,,,,2025-04-04,1,,,,,アントハット,0
461,2210001020115,新規,0,2025-04-04,2025-04-04,ＵＡＣＪ山一アルミ缶リサイクル株式会社,,株式会社,福井県,坂井市,三国町黒目２１－１番地,,18,210,9130037,,,,,,,2025-04-04,1,,,,,ユーエーシージェーヤマイチアルミカンリサイクル,0
464,2220003003991,新規,0,2025-04-04,2025-04-04,合同会社きたなか,,合同会社,石川県,小松市,白山町１４０番地６信開グランドハイツ１１０７,,17,203,9230951,,,,,,,2025-04-04,1,,,,,キタナカ,0
468,2230001020823,新規,0,2025-04-04,2025-04-04,株式会社フェイスワン,,株式会社,富山県,富山市,有沢５０６,,16,201,9300862,,,,,,,2025-04-04,1,,,,,フェイスワン,0
469,2240001064753,新規,0,2025-04-04,2025-04-04,株式会社ホッツッ,,株式会社,広島県,広島市中区,八丁堀１３番１６－６０１号,,34,101,7300013,,,,,,,2025-04-04,1,,,,,ホッツ,0
470,2240003007140,新規,0,2025-04-04,2025-04-04,合同会社ＡＳＩ,,合同会社,広島県,三原市,学園町１－１,,34,204,7230053,,,,,,,2025-04-04,1,,,,,エイエスアイ,0
471,2240005015926,新規,0,2025-04-04,2025-04-04,一般社団法人ＣＹＣＬＥ　ＬＩＦＥ,,その他の設立登記法人,広島県,広島市安佐南区,西原８丁目３９番５－１０２号,,34,105,7310113,,,,,,,2025-04-04,1,,,,,サイクルライフ,0
472,2250001021068,新規,0,2025-04-04,2025-04-04,株式会社レイテック,,株式会社,山口県,周南市,速玉町５番１－１３０３号,,35,215,7450844,,,,,,,2025-04-04,1,,,,,レイテック,0
473,2260001040075,新規,0,2025-04-04,2025-04-04,株式会社ＴＧ,,株式会社,岡山県,総社市,泉５番地３１県営住宅６－３０３,,33,208,7191106,,,,,,,2025-04-04,1,,,,,ティージー,0
477,2290001109529,新規,0,2025-04-04,2025-04-04,Ｒｅ．ＰＬＵＳ株式会社,,株式会社,福岡県,福岡市博多区,竹下２丁目１番３３号,,40,132,8120895,,,,,,,2025-04-04,1,,,,,アールイープラス,0
478,2290801031428,新規,0,2025-04-04,2025-04-04,株式会社ＴＲ１ＤａＹＳ,,株式会社,福岡県,北九州市小倉北区,堺町１丁目９－２０－ナカノビル３Ｆ,,40,106,8020005,,,,,,,2025-04-04,1,,,,,トライデイズ,0
480,2300001014132,新規,0,2025-04-04,2025-04-04,株式会社ＫＧ企画,,株式会社,佐賀県,鳥栖市,儀徳町３００７番地,,41,203,8410066,,,,,,,2025-04-04,1,,,,,ケージーキカク,0
482,2310001019527,新規,0,2025-04-04,2025-04-04,株式会社芦塚調査事務所,00138572,株式会社,長崎県,諫早市,小船越町１１０４番地５,,42,204,8540062,,,,,,,2025-04-04,1,,,,,アシヅカチョウサジムショ,0
483,2310001019535,新規,0,2025-04-04,2025-04-04,株式会社ＩＫＤ,,株式会社,長崎県,長崎市,幸町７－１ＳＴＡＤＩＵＭＣＩＴＹ　ＮＯＲＴＨ　１０Ｆ,,42,201,8500046,,,,,,,2025-04-04,1,,,,,アイケーディー,0
484,2320001021028,新規,0,2025-04-04,2025-04-04,株式会社バク不動産,,株式会社,大分県,大分市,公園通り１丁目１番地の１２,,44,201,8700173,,,,,,,2025-04-04,1,,,,,バクフドウサン,0
486,2320003004625,新規,0,2025-04-04,2025-04-04,合同会社五蘊の風,,合同会社,大分県,日田市,大字日高５５０番地５,,44,204,8770000,,,,,,,2025-04-04,1,,,,,ゴウンノカゼ,0
487,2330001033022,新規,0,2025-04-04,2025-04-04,株式会社アントルメ菓樹Ｒ,,株式会社,熊本県,熊本市東区,東野１丁目５番５号,,43,102,8612106,,,,,,,2025-04-04,1,,,,,アントルメカジュリテール,0
488,2330001033030,新規,0,2025-04-04,2025-04-04,株式会社晨軒,,株式会社,熊本県,熊本市南区,護藤町１５７６番地１９,,43,104,8614117,,,,,,,2025-04-04,1,,,,,シンケン,0
489,2330001033039,新規,0,2025-04-04,2025-04-04,株式会社クレバートレンド,,株式会社,熊本県,熊本市中央区,八王寺町４８番１５－１０３号,,43,101,8600831,,,,,,,2025-04-04,1,,,,,クレバートレンド,0
490,2330001033055,新規,0,2025-04-04,2025-04-04,株式会社ヒカルステップ,,株式会社,熊本県,菊池郡大津町,大字大津１０４４大和弐番館２０３号室,,43,403,8691233,,,,,,,2025-04-04,1,,,,,ヒカルステップ,0
491,2330003010928,新規,0,2025-04-04,2025-04-04,合同会社ステップスアヘッド,,合同会社,熊本県,熊本市南区,城南町さんさん１丁目１５番地２,,43,104,8614206,,,,,,,2025-04-04,1,,,,,ステップスアヘッド,0
494,2340001027221,新規,0,2025-04-04,2025-04-04,株式会社イクロス設計,,株式会社,鹿児島県,鹿児島市,武２丁目１５番１５号,,46,201,8900045,,,,,,,2025-04-04,1,,,,,イクロスセッケイ,0
496,2340003004796,新規,0,2025-04-04,2025-04-04,合同会社ハマスイフレスポ,,合同会社,鹿児島県,鹿児島市,宮之浦町１０８３番地１,,46,201,8911305,,,,,,,2025-04-04,1,,,,,ハマスイフレスポ,0
499,2350001019465,新規,0,2025-04-04,2025-04-04,株式会社実菜豊ファーム,,株式会社,宮崎県,東臼杵郡美郷町,西郷田代１２９８６番地,,45,431,8831101,,,,,,,2025-04-04,1,,,,,ミサトファーム,0
502,2360003014810,新規,0,2025-04-04,2025-04-04,農業生産法人合同会社ＫＡＲＩファーム,,合同会社,沖縄県,宮古島市,城辺字砂川１１５９番地１０,,47,214,9060108,,,,,,,2025-04-04,1,,,,,ノウギョウセイサンホウジンカリファーム,0
505,2380001035204,新規,0,2025-04-04,2025-04-04,川原自動車株式会社,,株式会社,福島県,福島市,南矢野目字柳田前６番地,,07,201,9600112,,,,,,,2025-04-04,1,,,,,カワハラジドウシャ,0
507,2390005009112,新規,0,2025-04-04,2025-04-04,医療法人たからだクリニック,,その他の設立登記法人,山形県,鶴岡市,北茅原町１番２１号,,06,203,9970038,,,,,,,2025-04-04,1,,,,,タカラダクリニック,0
509,2400001016993,新規,0,2025-04-04,2025-04-04,株式会社ｔｓｕｎａｇａｒｕ,,株式会社,岩手県,盛岡市,本宮１丁目２６番６号ハッピーハイツ１号,,03,201,0200866,,,,,,,2025-04-04,1,,,,,ツナガル,0
510,2400003003420,新規,0,2025-04-04,2025-04-04,合同会社テクノガーデン,,合同会社,岩手県,盛岡市,志家町１１－１３岩手県高校教育会館,,03,201,0200883,,,,,,,2025-04-04,1,,,,,テクノガーデン,0
517,2430001094046,新規,0,2025-04-04,2025-04-04,ポルタ・ラボ株式会社,,株式会社,北海道,美唄市,字美唄１４４８番地８２,,01,215,0720000,,,,,,,2025-04-04,1,,,,,ポルタラボ,0
518,2430001094054,新規,0,2025-04-04,2025-04-04,株式会社アベニア,,株式会社,北海道,札幌市豊平区,豊平二条１丁目１－２９ノースランド豊平５１１号室,,01,105,0620902,,,,,,,2025-04-04,1,,,,,アベニア,0
522,2460101007689,新規,0,2025-04-04,2025-04-04,株式会社ナガイ,,株式会社,北海道,河西郡中札内村,大通南６丁目１４番地,,01,638,0891330,,,,,,,2025-04-04,1,,,,,ナガイ,0
527,2490001011004,新規,0,2025-04-04,2025-04-04,株式会社旭ドリームファーム,,株式会社,高知県,南国市,亀岩８５２番地１,,39,204,7830071,,,,,,,2025-04-04,1,,,,,アサヒドリームファーム,0
533,2700150129830,新規,0,2025-04-04,2025-04-04,Ａ．Ｍ．ＡＵＴＯ　ＩＮＴＥＲＮＡＴＩＯＮＡＬ　ＰＲＩＶＡＴＥ　ＬＩＭＩＴＥＤ,,外国会社等,群馬県,太田市,由良町１７０５－６ツインパレス２号館１０３,,10,205,3730036,スリランカ民主社会主義共和国、マラダンカダウェラ、ワタラゥマロード,,,,,,2025-04-04,1,,,,,エエムオートインターナシヨナルプライベートリミテツド,0
540,3010001253790,新規,0,2025-04-04,2025-04-04,株式会社ユニオン・ネクステック,,株式会社,東京都,中央区,晴海１丁目８番８号晴海トリトンスクエアＷ棟１５階,,13,102,1040053,,,,,,,2025-04-04,1,,,,,ユニオンネクステック,0
541,3010001253816,新規,0,2025-04-04,2025-04-04,株式会社ネビュラスペース,,株式会社,東京都,中央区,湊３丁目２番７朝日銀座東ビル,,13,102,1040043,,,,,,,2025-04-04,1,,,,,ネビュラスペース,0
542,3010001253840,新規,0,2025-04-04,2025-04-04,株式会社セイハー,,株式会社,東京都,中央区,勝どき２丁目１５番１－１２０３号,,13,102,1040054,,,,,,,2025-04-04,1,,,,,セイハー,0
543,3010001253915,新規,0,2025-04-04,2025-04-04,クオンタムＡＩ技術株式会社,,株式会社,東京都,千代田区,神田和泉町１番地６―１６ヤマトビル４０５,,13,101,1010024,,,,,,,2025-04-04,1,,,,,クオンタムエーアイギジュツ,0
544,3010003046986,新規,0,2025-04-04,2025-04-04,合同会社ブルーキャピタル,,合同会社,東京都,千代田区,平河町２丁目４番５号,,13,101,1020093,,,,,,,2025-04-04,1,,,,,ブルーキャピタル,0
545,3010005039889,新規,0,2025-04-04,2025-04-04,山佐ネクストＮＤＬＨ一般社団法人,,その他の設立登記法人,東京都,千代田区,丸の内１丁目４番１号東京共同会計事務所内,,13,101,1000005,,,,,,,2025-04-04,1,,,,,ヤマサネクストエヌディーエルエイチ,0
546,3010101016593,新規,0,2025-04-04,2025-04-04,飛龍電気通信株式会社,,株式会社,東京都,八王子市,三崎町４－１１トーネンビル５Ｆ,,13,201,1920084,,,,,,,2025-04-04,1,,,,,ヒリュウデンキツウシン,0
547,3010101016602,新規,0,2025-04-04,2025-04-04,吉原商事株式会社,00138590,株式会社,東京都,八王子市,元横山町２丁目６番３号,,13,201,1920063,,,,,,,2025-04-04,1,,,,,ヨシハラショウジ,0
552,3010403034772,新規,0,2025-04-04,2025-04-04,ＭｉｎａＡＩ合同会社,,合同会社,東京都,港区,北青山１丁目３番１号アールキューブ青山３階,,13,103,1070061,,,,,,,2025-04-04,1,,,,,ミナエーアイ,0
553,3010405024193,新規,0,2025-04-04,2025-04-04,一般社団法人彌榮,,その他の設立登記法人,東京都,港区,南麻布１丁目５番１４－２０６号,,13,103,1060047,,,,,,,2025-04-04,1,,,,,イヤサカ,0
556,3010803005340,新規,0,2025-04-04,2025-04-04,ｋａｌｅ　ｌａｂｏ合同会社,,合同会社,東京都,大田区,南久が原２丁目１８番１５号,,13,111,1460084,,,,,,,2025-04-04,1,,,,,ケールラボ,0
561,3010901057110,新規,0,2025-04-04,2025-04-04,株式会社ＦＩＳＴ,,株式会社,東京都,世田谷区,用賀１丁目４番８号,,13,112,1580097,,,,,,,2025-04-04,1,,,,,フィスト,0
562,3010901057119,新規,0,2025-04-04,2025-04-04,株式会社ＮｏｗＴｅｃｈ,,株式会社,東京都,世田谷区,駒沢５丁目２５番７号,,13,112,1540012,,,,,,,2025-04-04,1,,,,,ナウテック,0
563,3010901057127,新規,0,2025-04-04,2025-04-04,エッジネオ・テック株式会社,,株式会社,東京都,世田谷区,瀬田１丁目２８番２４号,,13,112,1580095,,,,,,,2025-04-04,1,,,,,エッジネオテック,0
564,3010903009811,新規,0,2025-04-04,2025-04-04,合同会社広報の森,,合同会社,東京都,世田谷区,池尻３丁目１８番２６号,,13,112,1540001,,,,,,,2025-04-04,1,,,,,コウホウノモリ,0
569,3011001168772,新規,0,2025-04-04,2025-04-04,株式会社ＫＲＭＲ,,株式会社,東京都,渋谷区,広尾５丁目４番１６号ＥＡＴＰＬＡＹＷＯＲＫＳ３Ｆ,,13,113,1500012,,,,,,,2025-04-04,1,,,,,ケーアールエムアール,0
570,3011001168938,新規,0,2025-04-04,2025-04-04,株式会社Ｌｉｎｔｅｒ,,株式会社,東京都,渋谷区,恵比寿１丁目１５番９号日宝恵比寿ビル４０３,,13,113,1500013,,,,,,,2025-04-04,1,,,,,リンター,0
572,3011003021335,新規,0,2025-04-04,2025-04-04,Ｂｒｉｌｌｉａｎｔ　Ｊａｐａｎ合同会社,,合同会社,東京都,目黒区,東山１丁目４番１３号ＡＳＡ東山ビル,,13,110,1530043,,,,,,,2025-04-04,1,,,,,ブリリアントジャパン,0
575,3011101111203,新規,0,2025-04-04,2025-04-04,株式会社Ｌ＆Ｈ,,株式会社,東京都,新宿区,北新宿１丁目６番６号メゾンジュネス１０４,,13,104,1690074,,,,,,,2025-04-04,1,,,,,エルアンドエイチ,0
576,3011101111293,新規,0,2025-04-04,2025-04-04,株式会社ＫＭＧプロパティマネジメント,,株式会社,東京都,新宿区,四谷坂町８番８号リムテラス四谷ザ・クラス１０２,,13,104,1600002,,,,,,,2025-04-04,1,,,,,ケーエムジープロパティマネジメント,0
578,3011201026251,新規,0,2025-04-04,2025-04-04,株式会社ラビットボックス,,株式会社,東京都,中野区,東中野２丁目２７番１１号レリーフ東中野２０１,,13,114,1640003,,,,,,,2025-04-04,1,,,,,ラビットボックス,0
579,3011601028541,新規,0,2025-04-04,2025-04-04,株式会社ＷＥＬＬ　ＵＰ,,株式会社,東京都,練馬区,東大泉３丁目１６－３２,,13,120,1780063,,,,,,,2025-04-04,1,,,,,ウェルアップ,0
581,3011701028219,新規,0,2025-04-04,2025-04-04,株式会社オネット,,株式会社,東京都,江戸川区,春江町３丁目６番１０号,,13,123,1320003,,,,,,,2025-04-04,1,,,,,オネット,0
585,3011801045898,新規,0,2025-04-04,2025-04-04,株式会社さむりずむ,,株式会社,東京都,葛飾区,亀有１丁目２４番５号,,13,122,1250061,,,,,,,2025-04-04,1,,,,,サムリズム,0
586,3012401042947,新規,0,2025-04-04,2025-04-04,株式会社ペンタグラム,,株式会社,東京都,武蔵野市,吉祥寺南町２丁目１３番４号ユニアスオフィス・ワン３０１,,13,203,1800003,,,,,,,2025-04-04,1,,,,,ペンタグラム,0
588,3012403007056,新規,0,2025-04-04,2025-04-04,リブザライフ合同会社,,合同会社,東京都,三鷹市,下連雀５丁目１番１－１７２号,,13,204,1810013,,,,,,,2025-04-04,1,,,,,リブザライフ,0
590,3012405005099,新規,0,2025-04-04,2025-04-04,一般社団法人日本フェミニストカウンセラー協会,,その他の設立登記法人,東京都,武蔵野市,吉祥寺東町１丁目９番５号,,13,203,1800002,,,,,,,2025-04-04,1,,,,,ニホンフェミニストカウンセラーキョウカイ,0
593,3013301054025,新規,0,2025-04-04,2025-04-04,株式会社ＭＴＳ東京,,株式会社,東京都,豊島区,東池袋２丁目６２番８号ＢＩＧオフィスプラザ池袋１２０６,,13,116,1700013,,,,,,,2025-04-04,1,,,,,エムティエストウキョウ,0
594,3013301054033,新規,0,2025-04-04,2025-04-04,株式会社メディアート,,株式会社,東京都,豊島区,東池袋１丁目３１番１６号菅野ビル４階,,13,116,1700013,,,,,,,2025-04-04,1,,,,,メディアート,0
595,3013301054041,新規,0,2025-04-04,2025-04-04,Ｄｅｖａｎｔ　ｄａ　Ｊａｐａｎ株式会社,,株式会社,東京都,豊島区,巣鴨３丁目３１－２アルカディア篠Ａ館３階,,13,116,1700002,,,,,,,2025-04-04,1,,,,,デヴァンダジャパン,0
598,3020001162058,新規,0,2025-04-04,2025-04-04,サンニートラスト株式会社,,株式会社,神奈川県,横浜市中区,長者町６丁目１０７番１号ジェノヴィア横浜関内スカイガーデン２０１,,14,104,2310033,,,,,,,2025-04-04,1,,,,,サンニートラスト,0
599,3020003028166,新規,0,2025-04-04,2025-04-04,合同会社まぶいワークス,,合同会社,神奈川県,川崎市川崎区,駅前本町１１番地２号４階,,14,131,2100007,,,,,,,2025-04-04,1,,,,,マブイワークス,0
600,3020003028174,新規,0,2025-04-04,2025-04-04,合同会社ＬｉｎｋＦｏｒｗａｒｄ,,合同会社,神奈川県,川崎市麻生区,片平３丁目２番２０号グレースピア１０２,,14,137,2150023,,,,,,,2025-04-04,1,,,,,リンクフォワード,0
601,3020005016763,新規,0,2025-04-04,2025-04-04,医療法人藤花会,,その他の設立登記法人,神奈川県,川崎市川崎区,小田栄２丁目３番１号２階,,14,131,2100843,,,,,,,2025-04-04,1,,,,,トウカカイ,0
604,3021001084853,新規,0,2025-04-04,2025-04-04,株式会社ＭＨ,,株式会社,神奈川県,相模原市南区,鵜野森１丁目４３番６号,,14,153,2520301,,,,,,,2025-04-04,1,,,,,エムエイチ,0
605,3021001084894,新規,0,2025-04-04,2025-04-04,株式会社廣田,,株式会社,神奈川県,小田原市,南町２丁目２番１７－７号,,14,206,2500013,,,,,,,2025-04-04,1,,,,,ヒロタ,0
612,3021003015815,新規,0,2025-04-04,2025-04-04,横須賀船越町開発合同会社,,合同会社,神奈川県,藤沢市,藤沢２２３番地の２,,14,205,2510052,,,,,,,2025-04-04,1,,,,,ヨコスカフナコシチョウカイハツ,0
613,3021003015823,新規,0,2025-04-04,2025-04-04,合同会社海な灯,,合同会社,神奈川県,秦野市,戸川８１４番地の１２,,14,211,2591306,,,,,,,2025-04-04,1,,,,,ミナト,0
614,3021005013321,新規,0,2025-04-04,2025-04-04,特定非営利活動法人親心会,,その他の設立登記法人,神奈川県,大和市,中央７丁目９番２３号,,14,213,2420021,,,,,,,2025-04-04,1,,,,,シンシンカイ,0
622,3030003026466,新規,0,2025-04-04,2025-04-04,合同会社みんなのいばしょでしょ,,合同会社,埼玉県,朝霞市,溝沼５丁目１７－１,,11,227,3510023,,,,,,,2025-04-04,1,,,,,ミンナノイバショデショ,0
625,3040001138130,新規,0,2025-04-04,2025-04-04,株式会社Ｂｌｏｏｍ,,株式会社,千葉県,柏市,中新宿１丁目９番地４号,,12,217,2770066,,,,,,,2025-04-04,1,,,,,ブルーム,0
626,3040003027265,新規,0,2025-04-04,2025-04-04,ＭＩＮＯＲＩ．合同会社,,合同会社,千葉県,野田市,野田６０３ヨネカワビル１０２,,12,208,2780037,,,,,,,2025-04-04,1,,,,,ミノリドット,0
628,3050001056430,新規,0,2025-04-04,2025-04-04,ＪＶポストラン株式会社,,株式会社,茨城県,水戸市,姫子１丁目８４６番地の８サンシャイン姫子Ｃ棟２Ｆ７号,,08,201,3114151,,,,,,,2025-04-04,1,,,,,ジェーブイポストラン,0
629,3050001056455,新規,0,2025-04-04,2025-04-04,株式会社大島組,,株式会社,茨城県,北茨城市,磯原町磯原２１３０番地の５,,08,215,3191541,,,,,,,2025-04-04,1,,,,,オオシマグミ,0
630,3060001038056,新規,0,2025-04-04,2025-04-04,株式会社クリマネ,,株式会社,栃木県,宇都宮市,下田原町１７８０番地１４,,09,201,3291115,,,,,,,2025-04-04,1,,,,,クリマネ,0
632,3080005007682,新規,0,2025-04-04,2025-04-04,社会保険労務士法人みとら経営,,その他の設立登記法人,静岡県,牧之原市,勝俣１９０４番地２,,22,226,4210414,,,,,,,2025-04-04,1,,,,,ミトラケイエイ,0
636,3080403005239,新規,0,2025-04-04,2025-04-04,合同会社Ｃｏｎｎｅｃｔ,,合同会社,静岡県,磐田市,富士見台４番地１、２Ｆ,,22,211,4380088,,,,,,,2025-04-04,1,,,,,コネクト,0
637,3090003002791,新規,0,2025-04-04,2025-04-04,合同会社ＣＲＥＶＡ,,合同会社,山梨県,笛吹市,石和町下平井１３２８番地シティハイツＫ１０３,,19,211,4060027,,,,,,,2025-04-04,1,,,,,クレバ,0
643,3110001039156,新規,0,2025-04-04,2025-04-04,株式会社ユニカ,,株式会社,新潟県,燕市,吉田法花堂７０９番地,,15,213,9590214,,,,,,,2025-04-04,1,,,,,ユニカ,0
644,3110001039164,新規,0,2025-04-04,2025-04-04,株式会社ホットスタッフ長岡,,株式会社,新潟県,長岡市,石動南町１５番地２,,15,202,9402117,,,,,,,2025-04-04,1,,,,,ホットスタッフナガオカ,0
645,3110001039172,新規,0,2025-04-04,2025-04-04,株式会社Ｎ＆Ｍ,,株式会社,新潟県,新発田市,真野原６１８番地４,,15,206,9570233,,,,,,,2025-04-04,1,,,,,エヌアンドエム,0
646,3110003005718,新規,0,2025-04-04,2025-04-04,合同会社信越防災,,合同会社,新潟県,妙高市,大字田口２２８番地２,,15,217,9492106,,,,,,,2025-04-04,1,,,,,シンエツボウサイ,0
655,3120001274157,新規,0,2025-04-04,2025-04-04,神武国際貿易株式会社,,株式会社,大阪府,大阪市東成区,中道４丁目１６番２１－４０２号,,27,115,5370025,,,,,,,2025-04-04,1,,,,,ジンムコクサイボウエキ,0
656,3120001274198,新規,0,2025-04-04,2025-04-04,金熙株式会社,,株式会社,大阪府,大阪市東淀川区,上新庄２丁目４番４４－２０１号,,27,114,5330006,,,,,,,2025-04-04,1,,,,,キンキ,0
658,3120003029022,新規,0,2025-04-04,2025-04-04,泰和貿易合同会社,,合同会社,大阪府,大阪市東住吉区,桑津３丁目１７番２１号,,27,121,5460041,,,,,,,2025-04-04,1,,,,,タイワボウエキ,0
660,3120005024871,新規,0,2025-04-04,2025-04-04,一般社団法人なにわフードバンクしっかり食べや,,その他の設立登記法人,大阪府,大阪市西成区,津守３丁目６番４０号,,27,122,5570062,,,,,,,2025-04-04,1,,,,,ナニワフードバンクシッカリタベヤ,0
663,3120101071347,新規,0,2025-04-04,2025-04-04,株式会社アンドミーナ,,株式会社,大阪府,和泉市,納花町２５２番地,,27,219,5941116,,,,,,,2025-04-04,1,,,,,アンドミーナ,0
664,3120101071371,新規,0,2025-04-04,2025-04-04,Ｌｅｇｅｎｄ　Ｉｎｔｅｒｎａｔｉｏｎａｌ株式会社,,株式会社,大阪府,堺市堺区,陵西通３番９号,,27,141,5900041,,,,,,,2025-04-04,1,,,,,レジェンドインターナショナル,0
665,3120101071405,新規,0,2025-04-04,2025-04-04,株式会社ａｃｈｉｅｖｅ,,株式会社,大阪府,松原市,天美我堂７丁目４８９,,27,217,5800026,,,,,,,2025-04-04,1,,,,,アチーブ,0
666,3120101071413,新規,0,2025-04-04,2025-04-04,株式会社左海壺人,,株式会社,大阪府,堺市中区,毛穴町３４０番地１８,,27,142,5998266,,,,,,,2025-04-04,1,,,,,サカイツボンド,0
667,3120102003860,新規,0,2025-04-04,2025-04-04,有限会社ハイ,,有限会社,兵庫県,西宮市,松園町１０番４８号,,28,204,6620053,,,,,,,2025-04-04,1,,,,,ハイ,0
672,3122001039060,新規,0,2025-04-04,2025-04-04,優興業株式会社,,株式会社,大阪府,東大阪市,加納８丁目２４番２号,,27,227,5780901,,,,,,,2025-04-04,1,,,,,ユウコウギョウ,0
674,3122003003163,新規,0,2025-04-04,2025-04-04,みたけ合同会社,,合同会社,大阪府,東大阪市,菱屋西１丁目１０番２４号２Ｆ,,27,227,5770807,,,,,,,2025-04-04,1,,,,,ミタケ,0
679,3130001079332,新規,0,2025-04-04,2025-04-04,圖師都市開発株式会社,00138575,株式会社,京都府,京都市伏見区,深草飯食山町１番地７,,26,109,6120815,,,,,,,2025-04-04,1,,,,,ズシトシカイハツ,0
680,3130001079365,新規,0,2025-04-04,2025-04-04,ＭＡＳＴＥＲＤＵＣＴ株式会社,,株式会社,京都府,宇治市,木幡平尾１７番地の３３,,26,204,6110002,,,,,,,2025-04-04,1,,,,,マスターダクト,0
685,3140001137989,新規,0,2025-04-04,2025-04-04,株式会社福千工務店,,株式会社,兵庫県,尼崎市,武庫之荘本町２丁目２１－１５－２Ｆ,,28,202,6610031,,,,,,,2025-04-04,1,,,,,フクチコウムテン,0
686,3140001138046,新規,0,2025-04-04,2025-04-04,株式会社ＫＯＢＥ．Ｎｏ．８ＢＡＳＥ,,株式会社,兵庫県,神戸市兵庫区,大同町３丁目４番２号,,28,105,6520062,,,,,,,2025-04-04,1,,,,,コウベナンバーエイトベース,0
688,3140005027435,新規,0,2025-04-04,2025-04-04,社会保険労務士法人安藤・谷口事務所,,その他の設立登記法人,兵庫県,姫路市,京口町９３番地姫路小売酒販会館２Ｆ,,28,201,6700851,,,,,,,2025-04-04,1,,,,,アンドウタニグチジムショ,0
690,3150001027999,新規,0,2025-04-04,2025-04-04,株式会社ＴＡＫＵＭＩ,,株式会社,奈良県,大和郡山市,新町２２９番地２,,29,203,6391054,,,,,,,2025-04-04,1,,,,,タクミ,0
691,3150001028007,新規,0,2025-04-04,2025-04-04,株式会社アートイマージュ,,株式会社,奈良県,生駒市,小明町７９５番地ハイツ５０１,,29,209,6300201,,,,,,,2025-04-04,1,,,,,アートイマージュ,0
696,3160001026637,新規,0,2025-04-04,2025-04-04,株式会社八一九二,,株式会社,滋賀県,大津市,神領３丁目２番２６号,,25,201,5202132,,,,,,,2025-04-04,1,,,,,ハチイチキュウニ,0
698,3170005007145,新規,0,2025-04-04,2025-04-04,和歌山県農業協同組合,,その他の設立登記法人,和歌山県,和歌山市,美園町５丁目１番地の１,,30,201,6408331,,,,,,和歌山市栗栖６４２番地わかやま農業協同組合（3170005000026）と和歌山県海南市大野中７１８番地の１ながみね農業協同組合（4170005001964）と和歌山県紀の川市上野１２番地５紀の里農業協同組合（9170005003056）と和歌山県橋本市高野口町名古曽９２２番地の２紀北川上農業協同組合（8170005004996）と和歌山県有田郡有田川町大字天満４７番地の１ありだ農業協同組合（2170005002477）と和歌山県御坊市湯川町財部６６８番地の１紀州農業協同組合（8170005006340）と和歌山県田辺市朝日ケ丘２４番１７号紀南農業協同組合（4170005004001）と和歌山県東牟婁郡那智勝浦町大字天満１２２番地みくまの農業協同組合（5170005005551）の合併により設立,2025-04-04,1,,,,,ワカヤマケン,0
703,3180001166118,新規,0,2025-04-04,2025-04-04,株式会社杉友,,株式会社,愛知県,名古屋市天白区,原１丁目２００６番地,,23,116,4680015,,,,,,,2025-04-04,1,,,,,スギトモ,0
704,3180001166233,新規,0,2025-04-04,2025-04-04,株式会社市川産業,,株式会社,愛知県,名古屋市守山区,喜多山南１９番４号エフクリフＡ棟２０１,,23,113,4630043,,,,,,,2025-04-04,1,,,,,イチカワサンギョウ,0
711,3180003028241,新規,0,2025-04-04,2025-04-04,合同会社ＲＥＮＡ,,合同会社,愛知県,名古屋市南区,鶴里町１丁目３番地の３,,23,112,4570021,,,,,,,2025-04-04,1,,,,,レナ,0
712,3180003028266,新規,0,2025-04-04,2025-04-04,ルーシッド合同会社,,合同会社,愛知県,名古屋市中村区,名駅４丁目２４番５号第２森ビル４０１,,23,105,4500002,,,,,,,2025-04-04,1,,,,,ルーシッド,0
716,3190001032129,新規,0,2025-04-04,2025-04-04,株式会社Ｙ’ｓライン,,株式会社,三重県,亀山市,辺法寺町９９３番地,,24,210,5190221,,,,,,,2025-04-04,1,,,,,ワイズライン,0
717,3190003004984,新規,0,2025-04-04,2025-04-04,合同会社レトアトータルサービス,,合同会社,三重県,桑名市,大字西方５０９番地,,24,205,5110864,,,,,,,2025-04-04,1,,,,,レトアトータルサービス,0
718,3200001043594,新規,0,2025-04-04,2025-04-04,株式会社サーキット,,株式会社,岐阜県,岐阜市,宇佐南１丁目１３番５号,,21,201,5008367,,,,,,,2025-04-04,1,,,,,サーキット,0
719,3200003006756,新規,0,2025-04-04,2025-04-04,ケイエフ・アカウンティングオフィス合同会社,,合同会社,岐阜県,岐阜市,加納栄町通４丁目１３番地,,21,201,5008455,,,,,,,2025-04-04,1,,,,,ケイエフアカウンティングオフィス,0
721,3210001020114,新規,0,2025-04-04,2025-04-04,株式会社レヴィアンジャパン,,株式会社,福井県,福井市,順化２丁目１２番１５号ｌｅｏｎｂｌｄ１Ｆ・２Ｆ,,18,201,9100023,,,,,,,2025-04-04,1,,,,,レヴィアンジャパン,0
722,3210005010193,新規,0,2025-04-04,2025-04-04,一般社団法人子ども未来創造会議,,その他の設立登記法人,福井県,福井市,文京７丁目１番３７号,,18,201,9100017,,,,,,,2025-04-04,1,,,,,コドモミライソウゾウカイギ,0
723,3220003003990,新規,0,2025-04-04,2025-04-04,Ｐｕｔ　ｏｎ　ｓｍｉｌｅ合同会社,,合同会社,石川県,金沢市,泉野町３丁目１６番３３号,,17,201,9218034,,,,,,,2025-04-04,1,,,,,プットオンスマイル,0
724,3230001020822,新規,0,2025-04-04,2025-04-04,株式会社Ｍｅｅｔ　Ｕｐ,,株式会社,富山県,富山市,東福沢１８１２番地,,16,201,9301281,,,,,,,2025-04-04,1,,,,,ミートアップ,0
725,3230003002406,新規,0,2025-04-04,2025-04-04,合同会社甚,,合同会社,富山県,射水市,戸破３５７７番地,,16,211,9390351,,,,,,,2025-04-04,1,,,,,ジン,0
732,3250001021075,新規,0,2025-04-04,2025-04-04,株式会社永誠,,株式会社,山口県,柳井市,新庄１９５１番地,,35,212,7420033,,,,,,,2025-04-04,1,,,,,エイセイ,0
733,3250001021083,新規,0,2025-04-04,2025-04-04,株式会社岩本金属商会,,株式会社,山口県,宇部市,西平原２丁目４番１７号,,35,202,7550808,,,,,,,2025-04-04,1,,,,,イワモトキンゾクショウカイ,0
740,3290001109610,新規,0,2025-04-04,2025-04-04,株式会社Ｍｅｌｔｉｅｒ,,株式会社,福岡県,福岡市博多区,博多駅前１丁目２３番２号ＰａｒｋＦｒｏｎｔ博多駅前１丁目５Ｆ－Ｂ,,40,132,8120011,,,,,,,2025-04-04,1,,,,,メルティア,0
741,3290001109619,新規,0,2025-04-04,2025-04-04,株式会社コントラバス,,株式会社,福岡県,福岡市南区,老司１丁目２２番３７－４０２号,,40,134,8111346,,,,,,,2025-04-04,1,,,,,コントラバス,0
744,3290003016623,新規,0,2025-04-04,2025-04-04,合同会社Ｈｏｗｄｙ,,合同会社,福岡県,糟屋郡新宮町,上府北２丁目５番１４号,,40,345,8110123,,,,,,,2025-04-04,1,,,,,ハウディ,0
751,3290801031410,新規,0,2025-04-04,2025-04-04,株式会社桑建,,株式会社,福岡県,遠賀郡水巻町,二東３丁目１１番３４号,,40,382,8070054,,,,,,,2025-04-04,1,,,,,クワケン,0
752,3290803005016,新規,0,2025-04-04,2025-04-04,合同会社酒屋あづま,,合同会社,福岡県,行橋市,中央３丁目６番８号,,40,213,8240005,,,,,,,2025-04-04,1,,,,,サカヤアヅマ,0
753,3300001014131,新規,0,2025-04-04,2025-04-04,ワイズメディカルシステム株式会社,,株式会社,佐賀県,佐賀市,本庄町大字本庄５００番地２３,,41,201,8400027,,,,,,,2025-04-04,1,,,,,ワイズメディカルシステム,0
756,3310003004971,新規,0,2025-04-04,2025-04-04,合同会社オフィス勝,,合同会社,長崎県,佐世保市,崎岡町８５３番地５６,,42,202,8593226,,,,,,,2025-04-04,1,,,,,オフィスマサル,0
761,3320005010232,新規,0,2025-04-04,2025-04-04,一般社団法人大分空家活用ラボ,,その他の設立登記法人,大分県,大分市,王子南町５番６号,,44,201,8700007,,,,,,,2025-04-04,1,,,,,オオイタアキヤカツヨウラボ,0
764,3330001033038,新規,0,2025-04-04,2025-04-04,株式会社アルミクラフト,,株式会社,熊本県,玉名市,横島町横島９１７番地１,,43,206,8650072,,,,,,,2025-04-04,1,,,,,アルミクラフト,0
765,3330001033046,新規,0,2025-04-04,2025-04-04,株式会社ＳＧホールディングス,,株式会社,熊本県,菊池郡菊陽町,光の森６丁目１８番地１,,43,404,8691108,,,,,,,2025-04-04,1,,,,,エスジーホールディングス,0
769,3350001019464,新規,0,2025-04-04,2025-04-04,株式会社ラクバル,,株式会社,宮崎県,児湯郡川南町,大字川南１８６５６番地２,,45,405,8891301,,,,,,,2025-04-04,1,,,,,ラクバル,0
771,3370001052447,新規,0,2025-04-04,2025-04-04,ＵＤＫ株式会社,,株式会社,宮城県,仙台市青葉区,二日町１３番１９号,,04,101,9800802,,,,,,,2025-04-04,1,,,,,ユーディーケー,0
774,3390001017943,新規,0,2025-04-04,2025-04-04,株式会社シロッコさがえ,,株式会社,山形県,寒河江市,幸町４番２７号,,06,206,9910035,,,,,,,2025-04-04,1,,,,,シロッコサガエ,0
777,3400001016992,新規,0,2025-04-04,2025-04-04,株式会社藤久工業,,株式会社,岩手県,滝沢市,穴口４３７番地１７,,03,216,0200633,,,,,,,2025-04-04,1,,,,,フジキュウコウギョウ,0
781,3410001014104,新規,0,2025-04-04,2025-04-04,ナニソレイノベーションズ株式会社,,株式会社,秋田県,仙北市,角館町中菅沢９４番地７,,05,215,0140368,,,,,,,2025-04-04,1,,,,,ナニソレイノベーションズ,0
785,3430001094061,新規,0,2025-04-04,2025-04-04,株式会社ＭＫカンパニー,,株式会社,北海道,日高郡新ひだか町,静内旭町１丁目２９番６号,,01,610,0560003,,,,,,,2025-04-04,1,,,,,エムケーカンパニー,0
786,3430001094086,新規,0,2025-04-04,2025-04-04,うきうきテーブル株式会社,,株式会社,北海道,札幌市北区,北九条西４丁目１９番地３キャッスルエルム１０１号,,01,102,0600809,,,,,,,2025-04-04,1,,,,,ウキウキテーブル,0
787,3430005015195,新規,0,2025-04-04,2025-04-04,ＩＭウェルネス一般社団法人,,その他の設立登記法人,北海道,札幌市中央区,南一条西１３丁目４番地５２マーシャルウエストビル２Ｆ　Ｃ・ＷＡＬＫ内,,01,101,0600061,,,,,,,2025-04-04,1,,,,,アイエムウェルネス,0
790,3470001020658,新規,0,2025-04-04,2025-04-04,株式会社オフィスＫ・Ｒ,,株式会社,香川県,高松市,高松町２３５５番地１,,37,201,7610104,,,,,,,2025-04-04,1,,,,,オフィスケイアール,0
793,3490001011003,新規,0,2025-04-04,2025-04-04,株式会社晴,,株式会社,高知県,高知市,役知町１７番２１号岡本ハイツＡ棟２０１,,39,201,7818002,,,,,,,2025-04-04,1,,,,,ハル,0
796,3500005008778,新規,0,2025-04-04,2025-04-04,一般社団法人南吉田地水管理組合,,その他の設立登記法人,愛媛県,松山市,南吉田町１０６８番地,,38,201,7918042,,,,,,,2025-04-04,1,,,,,ミナミヨシダチスイカンリクミアイ,0
804,4010001253724,新規,0,2025-04-04,2025-04-04,株式会社倍笑,,株式会社,東京都,中央区,銀座１丁目１２番４号Ｎ＆ＥＢＬＤ．７階,,13,102,1040061,,,,,,,2025-04-04,1,,,,,バイラフ,0
805,4010005039855,新規,0,2025-04-04,2025-04-04,一般社団法人ＡＳＡＫＵＳＡ,,その他の設立登記法人,東京都,千代田区,霞が関３丁目２番５号,,13,101,1000013,,,,,,,2025-04-04,1,,,,,アサクサ,0
806,4010005039888,新規,0,2025-04-04,2025-04-04,枚方ＯＧＡＡＭ一般社団法人,,その他の設立登記法人,東京都,千代田区,丸の内１丁目４番１号東京共同会計事務所内,,13,101,1000005,,,,,,,2025-04-04,1,,,,,ヒラカタオージーエーエイエム,0
809,4010101016601,新規,0,2025-04-04,2025-04-04,株式会社一心,,株式会社,東京都,八王子市,上壱分方町３９５番地１,,13,201,1930811,,,,,,,2025-04-04,1,,,,,イッシン,0
815,4010403034714,新規,0,2025-04-04,2025-04-04,合同会社２２２,,合同会社,東京都,港区,芝大門２丁目４－５,,13,103,1050012,,,,,,,2025-04-04,1,,,,,トリプルツー,0
824,4010801036007,新規,0,2025-04-04,2025-04-04,株式会社朝日,,株式会社,東京都,大田区,西蒲田１丁目２０番１３号メゾンシンシ３０２,,13,111,1440051,,,,,,,2025-04-04,1,,,,,アサヒ,0
828,4010901057118,新規,0,2025-04-04,2025-04-04,株式会社ＧＯＲａｄＳ,,株式会社,東京都,世田谷区,松原５丁目２３番１１号,,13,112,1560043,,,,,,,2025-04-04,1,,,,,ゴーラッズ,0
829,4010901057126,新規,0,2025-04-04,2025-04-04,株式会社Ｉｃｏｎ,,株式会社,東京都,世田谷区,桜１丁目３１番１１号,,13,112,1560053,,,,,,,2025-04-04,1,,,,,アイコン,0
832,4011001168747,新規,0,2025-04-04,2025-04-04,株式会社ＡＩプラス,,株式会社,東京都,渋谷区,初台１丁目５１－１初台センタービル９階,,13,113,1510061,,,,,,,2025-04-04,1,,,,,エーアイプラス,0
833,4011001168755,新規,0,2025-04-04,2025-04-04,株式会社Ｒｉｓｅ,,株式会社,東京都,目黒区,中央町２丁目１２番１２－１０１号,,13,110,1520001,,,,,,,2025-04-04,1,,,,,ライズ,0
837,4011101111202,新規,0,2025-04-04,2025-04-04,株式会社ストーンキャリア,,株式会社,東京都,新宿区,西新宿１丁目２０番３号,,13,104,1600023,,,,,,,2025-04-04,1,,,,,ストーンキャリア,0
838,4011101111301,新規,0,2025-04-04,2025-04-04,株式会社グリット,,株式会社,東京都,新宿区,若葉３丁目４－４０ＧＲＡＮＰＡＳＥＯ四谷若葉０１０２,,13,104,1600011,,,,,,,2025-04-04,1,,,,,グリット,0
840,4011201026259,新規,0,2025-04-04,2025-04-04,株式会社Ｌｉｎｇ‐ｍｕ,,株式会社,東京都,中野区,中野１丁目５番７号,,13,114,1640001,,,,,,,2025-04-04,1,,,,,リムー,0
841,4011303005490,新規,0,2025-04-04,2025-04-04,合同会社キョウカプロダクション,,合同会社,東京都,杉並区,阿佐谷北２丁目９番１４－３０７号サンフル阿佐ヶ谷プリヴェコート,,13,115,1660001,,,,,,,2025-04-04,1,,,,,キョウカプロダクション,0
842,4011401026983,新規,0,2025-04-04,2025-04-04,株式会社青島塾,,株式会社,東京都,板橋区,成増４丁目１５番８号,,13,119,1750094,,,,,,,2025-04-04,1,,,,,アオシマジュク,0
843,4011501031891,新規,0,2025-04-04,2025-04-04,桑尚絹製品株式会社,,株式会社,東京都,荒川区,南千住３丁目２７－２浅草ビル５０８,,13,118,1160003,,,,,,,2025-04-04,1,,,,,ソウショウキヌセイヒン,0
844,4011601028540,新規,0,2025-04-04,2025-04-04,藍天株式会社,,株式会社,東京都,練馬区,東大泉６丁目４９番８号１０６室,,13,120,1780063,,,,,,,2025-04-04,1,,,,,ランテン,0
845,4011601028557,新規,0,2025-04-04,2025-04-04,株式会社Ｔｒｕｓｔ,,株式会社,東京都,練馬区,大泉町６丁目３－１０－７０１,,13,120,1780062,,,,,,,2025-04-04,1,,,,,トラスト,0
850,4012401042946,新規,0,2025-04-04,2025-04-04,株式会社大貫興業,,株式会社,東京都,府中市,北山町１丁目１番地の５,,13,206,1830041,,,,,,,2025-04-04,1,,,,,オオヌキコウギョウ,0
852,4012701018786,新規,0,2025-04-04,2025-04-04,株式会社エフ・ブレインズ,,株式会社,東京都,清瀬市,中里５丁目６２９番地１１,,13,221,2040003,,,,,,,2025-04-04,1,,,,,エフブレインズ,0
859,4013301054040,新規,0,2025-04-04,2025-04-04,ＧＦＥジャパン株式会社,,株式会社,東京都,豊島区,南池袋２丁目９番１５号フォーディアル南池袋４０３号,,13,116,1710022,,,,,,,2025-04-04,1,,,,,ジーエフイージャパン,0
866,4020001162123,新規,0,2025-04-04,2025-04-04,オレイロシステムエンジニアリング株式会社,,株式会社,神奈川県,横浜市中区,真砂町３丁目２８番地柳下ビルディング７Ｆ,,14,104,2310016,,,,,,,2025-04-04,1,,,,,オレイロシステムエンジニアリング,0
867,4020001162164,新規,0,2025-04-04,2025-04-04,株式会社Ｃｏｒ　ＶＥＴ　ＪＡＰＡＮ,,株式会社,神奈川県,横浜市青葉区,荏田町２４６番地１２ユーコートあざみ野ＩＩ４０１,00138576,14,117,2250013,,,,,,,2025-04-04,1,,,,,コルベットジャパン,0
869,4020003028157,新規,0,2025-04-04,2025-04-04,ＳＳ合同会社,,合同会社,神奈川県,川崎市高津区,久末２００９,,14,134,2130026,,,,,,,2025-04-04,1,,,,,エスエス,0
871,4020005016762,新規,0,2025-04-04,2025-04-04,医療法人隆美会,,その他の設立登記法人,神奈川県,川崎市宮前区,小台１丁目２０番２リバーレ鷺沼３階,,14,136,2160007,,,,,,,2025-04-04,1,,,,,リュウビカイ,0
872,4020005016770,新規,0,2025-04-04,2025-04-04,小林行政書士法人,,その他の設立登記法人,神奈川県,横浜市港北区,新横浜２丁目６番地１３新横浜ステーションビル,,14,109,2220033,,,,,,,2025-04-04,1,,,,,コバヤシ,0
875,4021001084877,新規,0,2025-04-04,2025-04-04,株式会社飯間商事,,株式会社,神奈川県,藤沢市,辻堂２丁目２番６号,,14,205,2510047,,,,,,,2025-04-04,1,,,,,イイマショウジ,0
877,4021003015814,新規,0,2025-04-04,2025-04-04,合同会社ＹＤグループ,,合同会社,神奈川県,横須賀市,若松町１丁目１０番地ヤヨイビル５Ｆ,,14,201,2380007,,,,,,,2025-04-04,1,,,,,ワイディーグループ,0
878,4021003015822,新規,0,2025-04-04,2025-04-04,合同会社精油庭,,合同会社,神奈川県,藤沢市,円行２丁目２６－１２,,14,205,2520805,,,,,,,2025-04-04,1,,,,,セイユテイ,0
884,4030005022099,新規,0,2025-04-04,2025-04-04,医療法人社団浹辰会,,その他の設立登記法人,埼玉県,秩父市,中宮地町４番３０号,,11,207,3680022,,,,,,,2025-04-04,1,,,,,ショウシンカイ,0
895,4050001056438,新規,0,2025-04-04,2025-04-04,株式会社ｄｒａｄｒａ,,株式会社,茨城県,水戸市,新荘２丁目４－２４,,08,201,3100036,,,,,,,2025-04-04,1,,,,,ドラドラ,0
898,4060003005499,新規,0,2025-04-04,2025-04-04,合同会社Ｍ’ｓ　ｉｎｓｕｌａｔｉｏｎ　ｃｏｍｐａｎｙ,,合同会社,栃木県,栃木市,箱森町２４番６３－２号,,09,203,3280075,,,,,,,2025-04-04,1,,,,,エムズインシュレーションカンパニー,0
899,4060005010324,新規,0,2025-04-04,2025-04-04,一般社団法人とちぎスマイルコミュニティ,,その他の設立登記法人,栃木県,栃木市,吹上町１５２７番地１７,,09,203,3280125,,,,,,,2025-04-04,1,,,,,トチギスマイルコミュニティ,0
900,4080001026850,新規,0,2025-04-04,2025-04-04,株式会社ギャザリングプレイス,,株式会社,静岡県,焼津市,栄町３丁目５番２８号,,22,212,4250027,,,,,,,2025-04-04,1,,,,,ギャザリングプレイス,0
901,4080003003427,新規,0,2025-04-04,2025-04-04,合同会社西東クリエイツ,,合同会社,静岡県,島田市,金谷東１丁目１２３５番地の１,,22,209,4280013,,,,,,,2025-04-04,1,,,,,サイトウクリエイツ,0
902,4080005007681,新規,0,2025-04-04,2025-04-04,特定非営利活動法人静岡ＩＤバスケットボール連盟,,その他の設立登記法人,静岡県,藤枝市,高岡３丁目１番１７号,,22,214,4260062,,,,,,,2025-04-04,1,,,,,シズオカアイディバスケットボールレンメイ,0
904,4080401027829,新規,0,2025-04-04,2025-04-04,Ｒｙｏｚｅｎ株式会社,,株式会社,静岡県,磐田市,今之浦１丁目４番地４,,22,211,4380071,,,,,,,2025-04-04,1,,,,,リョウゼン,0
905,4080403005238,新規,0,2025-04-04,2025-04-04,合同会社パッチワーク,,合同会社,静岡県,袋井市,浅羽５番地の１,,22,216,4371101,,,,,,,2025-04-04,1,,,,,パッチワーク,0
911,4110001039163,新規,0,2025-04-04,2025-04-04,株式会社飯田ファーム,,株式会社,新潟県,新潟市西区,赤塚２７６４番地,,15,107,9502261,,,,,,,2025-04-04,1,,,,,イイダファーム,0
914,4110003005717,新規,0,2025-04-04,2025-04-04,合同会社ＷＴＡ,,合同会社,新潟県,南魚沼市,竹俣新田６０番地２・２Ｆ,,15,226,9496406,,,,,,,2025-04-04,1,,,,,ダブリューティーエー,0
919,4120001274197,新規,0,2025-04-04,2025-04-04,櫻阪株式会社,,株式会社,大阪府,大阪市東住吉区,住道矢田１丁目１６番２５－２０２号,,27,121,5460022,,,,,,,2025-04-04,1,,,,,サクラザカ,0
920,4120001274552,新規,0,2025-04-04,2025-04-04,株式会社Ｈｉｎｏｋｕｒａ,,株式会社,大阪府,大阪市北区,天満１丁目６番９号月波ビル,,27,127,5300043,,,,,,,2025-04-04,1,,,,,ヒノクラ,0
921,4120003029087,新規,0,2025-04-04,2025-04-04,合同会社からあげ,,合同会社,大阪府,大阪市浪速区,桜川４丁目１番８－９０２号,,27,111,5560022,,,,,,,2025-04-04,1,,,,,カラアゲ,0
922,4120003029137,新規,0,2025-04-04,2025-04-04,アドメディア合同会社,,合同会社,大阪府,大阪市北区,梅田１丁目２番２号大阪駅前第２ビル１２‐１２,,27,127,5300001,,,,,,,2025-04-04,1,,,,,アドメディア,0
923,4120005024870,新規,0,2025-04-04,2025-04-04,一般社団法人北大阪個人タクシー協会,,その他の設立登記法人,大阪府,大阪市都島区,東野田二丁目３番１１－７０２号,,27,102,5340000,,,,,,,2025-04-04,1,,,,,キタオオサカコジンタクシーキョウカイ,0
925,4120101071404,新規,0,2025-04-04,2025-04-04,ＧＯ　ＳＰＡＣＥ　ＤＡＹ株式会社,,株式会社,大阪府,堺市堺区,海山町１丁７番地２,,27,141,5900982,,,,,,,2025-04-04,1,,,,,ゴースペースデイ,0
926,4120103006366,新規,0,2025-04-04,2025-04-04,緑会合同会社,,合同会社,大阪府,泉大津市,東豊中町１丁目１５番７－２０１号,,27,206,5950021,,,,,,,2025-04-04,1,,,,,ミドリカイ,0
930,4120901050689,新規,0,2025-04-04,2025-04-04,株式会社むすひ,,株式会社,大阪府,豊中市,栗ケ丘町１０番１３号,,27,203,5600016,,,,,,,2025-04-04,1,,,,,ムスヒ,0
931,4120905006712,新規,0,2025-04-04,2025-04-04,一般社団法人身体性総合研究所,,その他の設立登記法人,大阪府,吹田市,山手町３丁目３番３５号関西大学文学部三村尚彦研究室内,,27,205,5640073,,,,,,,2025-04-04,1,,,,,シンタイセイソウゴウケンキュウショ,0
934,4130001079364,新規,0,2025-04-04,2025-04-04,株式会社Ｔ‐Ｓｏｌｕｔｉｏｎ,,株式会社,京都府,京都市西京区,大枝西新林町５丁目１番地１８－１階,,26,111,6101141,,,,,,,2025-04-04,1,,,,,ティーソリューション,0
936,4130003010343,新規,0,2025-04-04,2025-04-04,合同会社ＧＡＲＩＧＯＲＩ,,合同会社,京都府,相楽郡南山城村,大字高尾小字八束尻４８番地１,,26,367,6191422,,,,,,,2025-04-04,1,,,,,ガリゴリ,0
943,4140003021868,新規,0,2025-04-04,2025-04-04,ドットゼグ合同会社,,合同会社,兵庫県,西宮市,城ケ堀町２番１２号,,28,204,6620856,,,,,,,2025-04-04,1,,,,,ドットゼグ,0
944,4140003021876,新規,0,2025-04-04,2025-04-04,えん合同会社,,合同会社,兵庫県,神戸市須磨区,若木町１丁目８番６号,,28,107,6540014,,,,,,,2025-04-04,1,,,,,エン,0
945,4140003021884,新規,0,2025-04-04,2025-04-04,エキゾチックフィールド合同会社,,合同会社,兵庫県,宝塚市,すみれガ丘３丁目１－１－６１１,,28,214,6650847,,,,,,,2025-04-04,1,,,,,エキゾチックフィールド,0
946,4140005027442,新規,0,2025-04-04,2025-04-04,医療法人社団ＴＮＤ,,その他の設立登記法人,兵庫県,伊丹市,鴻池６丁目２番３号,,28,207,6640006,,,,,,,2025-04-04,1,,,,,ティーエヌディー,0
947,4150001028006,新規,0,2025-04-04,2025-04-04,株式会社ＣＯＬＬＩＮＥ,,株式会社,奈良県,奈良市,二条大路南１丁目２番７号,,29,201,6308012,,,,,,,2025-04-04,1,,,,,コリーヌ,0
953,4180001166133,新規,0,2025-04-04,2025-04-04,ＮＯＷＡ工業株式会社,,株式会社,愛知県,愛西市,立石町上１１５番地ＤＵＰＬＥＸ国王１７Ａ１０６号室,,23,232,4968047,,,,,,,2025-04-04,1,,,,,ノワコウギョウ,0
954,4180001166141,新規,0,2025-04-04,2025-04-04,ナインチェ株式会社,,株式会社,愛知県,名古屋市千種区,西山元町２丁目３番地の１,,23,101,4640063,,,,,,,2025-04-04,1,,,,,ナインチェ,0
955,4180001166199,新規,0,2025-04-04,2025-04-04,株式会社天和ソリューション,,株式会社,愛知県,名古屋市中村区,名駅３丁目４番１０号アルティメイト名駅１ｓｔ２階,,23,105,4500002,,,,,,,2025-04-04,1,,,,,テンワソリューション,0
956,4180001166216,新規,0,2025-04-04,2025-04-04,株式会社白兎,,株式会社,愛知県,名古屋市緑区,乗鞍１丁目１８１１番地の６,,23,114,4580004,,,,,,,2025-04-04,1,,,,,ハクト,0
957,4180001166240,新規,0,2025-04-04,2025-04-04,建スマ株式会社,,株式会社,愛知県,一宮市,木曽川町黒田字北宿四の切５９番地１,,23,203,4930001,,,,,,,2025-04-04,1,,,,,ケンスマ,0
958,4180001166257,新規,0,2025-04-04,2025-04-04,株式会社はるひキンダーサポート,,株式会社,愛知県,春日井市,柏井町５丁目３３３番地３,,23,206,4860927,,,,,,,2025-04-04,1,,,,,ハルヒキンダーサポート,0
960,4180003028208,新規,0,2025-04-04,2025-04-04,東力商事合同会社,,合同会社,愛知県,名古屋市中区,新栄２丁目３４番地１２号,,23,106,4600007,,,,,,,2025-04-04,1,,,,,,0
961,4180003028240,新規,0,2025-04-04,2025-04-04,合同会社いとはん,,合同会社,愛知県,一宮市,三条字道東４９番地１ハイツ松寿１０７号,,23,203,4940003,,,,,,,2025-04-04,1,,,,,,0
962,4180003028249,新規,0,2025-04-04,2025-04-04,マルヤス産業合同会社,,合同会社,愛知県,名古屋市守山区,川上町４９番地,,23,113,4630091,,,,,,,2025-04-04,1,,,,,マルヤスサンギョウ,0
963,4180003028257,新規,0,2025-04-04,2025-04-04,柴田潜水合同会社,,合同会社,愛知県,名古屋市南区,元柴田東町４丁目１３番地,,23,112,4570816,,,,,,,2025-04-04,1,,,,,シバタセンスイ,0
964,4180003028265,新規,0,2025-04-04,2025-04-04,合同会社Ｓｐｅｎｄｌｏｅ,,合同会社,愛知県,一宮市,花池１丁目１２番２０号,,23,203,4910914,,,,,,,2025-04-04,1,,,,,スペンドロウ,0
977,4230001020821,新規,0,2025-04-04,2025-04-04,株式会社カーサービス裕,,株式会社,富山県,富山市,赤田８６番地１３,,16,201,9398064,,,,,,,2025-04-04,1,,,,,カーサービスユウ,0
978,4230003002405,新規,0,2025-04-04,2025-04-04,合同会社ＲＩＳＥ,,合同会社,富山県,富山市,長江本町１８番１号,,16,201,9300962,,,,,,,2025-04-04,1,,,,,ライズ,0
981,4240001064727,新規,0,2025-04-04,2025-04-04,株式会社福山テック,,株式会社,広島県,福山市,横尾町２丁目５番１１号,,34,207,7200011,,,,,,,2025-04-04,1,,,,,フクヤマテック,0
982,4240001064768,新規,0,2025-04-04,2025-04-04,株式会社田中彩装,,株式会社,広島県,広島市安芸区,瀬野西３丁目１３番１６号,,34,107,7390313,,,,,,,2025-04-04,1,,,,,タナカサイソウ,0
985,4260001040081,新規,0,2025-04-04,2025-04-04,株式会社清水電機,,株式会社,岡山県,美作市,安蘇５４１番地,,33,215,7070053,,,,,,,2025-04-04,1,,,,,シミズデンキ,0
988,4280001009397,新規,0,2025-04-04,2025-04-04,株式会社鷺浦マリーナ,,株式会社,島根県,出雲市,大社町鷺浦２４４番地１,,32,203,6990761,,,,,,,2025-04-04,1,,,,,サギウラマリーナ,0
989,4280005007653,新規,0,2025-04-04,2025-04-04,一般社団法人ａｓｏｌａｂ,,その他の設立登記法人,島根県,邑智郡川本町,大字川本６３５番地２,,32,441,6960001,,,,,,,2025-04-04,1,,,,,アソラボ,0
990,4290001109510,新規,0,2025-04-04,2025-04-04,株式会社ＢＴＢ,,株式会社,福岡県,福岡市中央区,天神４丁目６－２８天神ファーストビル７階,,40,133,8100001,,,,,,,2025-04-04,1,,,,,,0
991,4290001109543,新規,0,2025-04-04,2025-04-04,株式会社おからラボ,,株式会社,福岡県,糟屋郡新宮町,緑ケ浜３丁目１番１号,,40,345,8110119,,,,,,,2025-04-04,1,,,,,オカララボ,0
993,4290003016622,新規,0,2025-04-04,2025-04-04,合同会社すきすきすてき,,合同会社,福岡県,福岡市中央区,那の川２丁目５番１２－６０２号サニーハイム平尾,,40,133,8100015,,,,,,,2025-04-04,1,,,,,スキスキステキ,0
996,4290801031401,新規,0,2025-04-04,2025-04-04,オーラバブル株式会社,,株式会社,福岡県,京都郡苅田町,鳥越町１番地２８,,40,621,8000304,,,,,,,2025-04-04,1,,,,,オーラバブル,0
997,4290801031426,新規,0,2025-04-04,2025-04-04,ＳＫ　ＪＡＰＡＮ　ＦＯＯＤ　Ｋｉｔｃｈｅｎ株式会社,,株式会社,福岡県,北九州市八幡西区,穴生１丁目５番８－１０１号,,40,109,8060049,,,,,,,2025-04-04,1,,,,,エスケージャパンフードキッチン,0
1003,4310003004979,新規,0,2025-04-04,2025-04-04,合同会社フェンダー,,合同会社,長崎県,五島市,籠淵町２３６３番地１,,42,211,8530041,,,,,,,2025-04-04,1,,,,,フェンダー,0
1006,4330001033012,新規,0,2025-04-04,2025-04-04,ＬｉｎｋＳｅｅｄ株式会社,,株式会社,熊本県,熊本市中央区,中央街４番２２号,,43,101,8600802,,,,,,,2025-04-04,1,,,,,リンクシード,0
1007,4330001033029,新規,0,2025-04-04,2025-04-04,株式会社ＳＰＡＣＥ,,株式会社,熊本県,熊本市東区,長嶺南８丁目２番１１号ディアコートＢ２０３,,43,102,8618039,,,,,,,2025-04-04,1,,,,,スペース,0
1008,4330001033037,新規,0,2025-04-04,2025-04-04,株式会社ＬＥＡ,,株式会社,熊本県,熊本市南区,近見８丁目１１番３０号ラ・ドルチェ２０１,,43,104,8614101,,,,,,,2025-04-04,1,,,,,エルイーエー,0
1009,4330003010926,新規,0,2025-04-04,2025-04-04,合同会社肥後農産,,合同会社,熊本県,熊本市南区,御幸笛田町１３０１番地１,,43,104,8614103,,,,,,,2025-04-04,1,,,,,ヒゴノウサン,0
1014,4350001019463,新規,0,2025-04-04,2025-04-04,株式会社ＭＣＨ,,株式会社,宮崎県,宮崎市,恒久１丁目７番１３号ＭＭイーストビル１０３,,45,201,8800913,,,,,,,2025-04-04,1,,,,,エムシーエイチ,0
1015,4350001019471,新規,0,2025-04-04,2025-04-04,株式会社甲勢工業,,株式会社,宮崎県,日向市,大字財光寺３２５番地１,,45,206,8830021,,,,,,,2025-04-04,1,,,,,コウセイコウギョウ,0
1024,4370001052421,新規,0,2025-04-04,2025-04-04,丸梅プレカット株式会社,,株式会社,宮城県,仙台市若林区,種次字中斎１１９番地,,04,103,9840844,,,,,,,2025-04-04,1,,,,,マルウメプレカット,0
1028,4400001016991,新規,0,2025-04-04,2025-04-04,株式会社食塾,,株式会社,岩手県,盛岡市,本宮２丁目２１番１３号,,03,201,0200866,,,,,,,2025-04-04,1,,,,,ショクジュク,0
1029,4420003003094,新規,0,2025-04-04,2025-04-04,合同会社ＨＫサービス,,合同会社,青森県,八戸市,大字新井田字塩入下３番地２,,02,203,0310813,,,,,,,2025-04-04,1,,,,,エッチケイサービス,0
1030,4430001094077,新規,0,2025-04-04,2025-04-04,株式会社ＣＬＴｍａｔ,,株式会社,北海道,札幌市中央区,大通東４丁目２番地２・５Ａ号室,,01,101,0600041,,,,,,,2025-04-04,1,,,,,シーエルティーマット,0
1031,4430003017473,新規,0,2025-04-04,2025-04-04,合同会社Ｎｅｒｏ．５５,,合同会社,北海道,札幌市中央区,南九条西７丁目２番１２号ブランシャールＮＡＫＡＪＩＭＡ　ＰＡＲＫ　ＦＲＯＮＴ４０３号室,,01,101,0640809,,,,,,,2025-04-04,1,,,,,ネロ,0
1032,4430005015203,新規,0,2025-04-04,2025-04-04,一般財団法人似鳥財団,,その他の設立登記法人,北海道,札幌市北区,新琴似七条１丁目２番３９号,,01,102,0010907,,,,,,,2025-04-04,1,,,,,ニトリザイダン,0
1033,4450001014586,新規,0,2025-04-04,2025-04-04,株式会社さとう屋,,株式会社,北海道,旭川市,豊岡八条６丁目２番１８－２号,,01,204,0788238,,,,,,,2025-04-04,1,,,,,サトウヤ,0
1034,4450003002630,新規,0,2025-04-04,2025-04-04,合同会社Ｎｏｒｄ　Ｓｆｉｄａ,,合同会社,北海道,旭川市,春光六条９丁目２番２５号ビレッチハウス春光３号棟１０４,,01,204,0700876,,,,,,,2025-04-04,1,,,,,ノルドスフィーダ,0
1039,4500003003474,新規,0,2025-04-04,2025-04-04,ＲＥＭＳ合同会社,,合同会社,愛媛県,松山市,西垣生町７７５番地５,,38,201,7918044,,,,,,,2025-04-04,1,,,,,レムズ,0
1044,5010001253756,新規,0,2025-04-04,2025-04-04,株式会社ジオ商事,,株式会社,東京都,中央区,銀座１丁目１２番４号Ｎ＆Ｅ・ＢＬＤ．６Ｆ,,13,102,1040061,,,,,,,2025-04-04,1,,,,,ジオショウジ,0
1045,5010001253764,新規,0,2025-04-04,2025-04-04,株式会社データライド,,株式会社,東京都,千代田区,神田神保町３丁目２５,,13,101,1010051,,,,,,,2025-04-04,1,,,,,データライド,0
1046,5010001253789,新規,0,2025-04-04,2025-04-04,ＱＭ　Ｔｅｃｈｎｏｌｏｇｉｅｓ　Ｊａｐａｎ株式会社,,株式会社,東京都,中央区,日本橋室町４丁目３番９号,,13,102,1030022,,,,,,,2025-04-04,1,,,,,キューエムテクノロジーズジャパン,0
1047,5010001253797,新規,0,2025-04-04,2025-04-04,株式会社ｋｅｙｓｔｏｎｅ,,株式会社,東京都,千代田区,神田東松下町２５番地,,13,101,1010042,,,,,,,2025-04-04,1,,,,,キーストーン,0
1048,5010001253806,新規,0,2025-04-04,2025-04-04,株式会社ＰｌａｎｉｔＡＩ,,株式会社,東京都,千代田区,神田三崎町３丁目４番２号Ｊ－ＳＱＵＡＲＥ水道橋３１７号室,,13,101,1010061,,,,,,,2025-04-04,1,,,,,プラニットエーアイ,0
1049,5010001253830,新規,0,2025-04-04,2025-04-04,ＫＲ　ｌａｂｏ株式会社,,株式会社,東京都,中央区,銀座１丁目１２番４号Ｎ＆Ｅ・ＢＬＤ．６Ｆ,,13,102,1040061,,,,,,,2025-04-04,1,,,,,ケーアールラボ,0
1051,5010003046992,新規,0,2025-04-04,2025-04-04,枚方ＯＧＡＡＭ合同会社,,合同会社,東京都,千代田区,丸の内１丁目４番１号東京共同会計事務所内,,13,101,1000005,,,,,,,2025-04-04,1,,,,,ヒラカタオージーエーエイエム,0
1053,5010103002549,新規,0,2025-04-04,2025-04-04,合同会社ｂｏｗ,,合同会社,東京都,八王子市,越野７２１番地１７,,13,201,1920361,,,,,,,2025-04-04,1,,,,,ボウ,0
1056,5010401189352,新規,0,2025-04-04,2025-04-04,株式会社Ｔｅｒａｆｏｒｍ,,株式会社,東京都,港区,南青山２丁目２番１５号ＷｉｎＡｏｙａｍａビルＵＣＦ６階,,13,103,1070062,,,,,,,2025-04-04,1,,,,,テラフォーム,0
1058,5010501053879,新規,0,2025-04-04,2025-04-04,株式会社Ｃｈｉａｋｉ,,株式会社,東京都,台東区,上野６丁目９番２２号伊藤ビル２Ｆ,,13,106,1100005,,,,,,,2025-04-04,1,,,,,チアキ,0
1060,5010601067011,新規,0,2025-04-04,2025-04-04,株式会社ＹＲ,,株式会社,東京都,江東区,亀戸５丁目３０－９－９０６,,13,108,1360071,,,,,,,2025-04-04,1,,,,,ワイアール,0
1061,5010701047499,新規,0,2025-04-04,2025-04-04,株式会社日々麺処,00138570,株式会社,東京都,品川区,上大崎２丁目１４番９号,,13,109,1410021,,,,,,,2025-04-04,1,,,,,ヒビメンドコロ,0
1062,5010705003746,新規,0,2025-04-04,2025-04-04,ＴＪ行政書士法人,,その他の設立登記法人,東京都,品川区,西五反田４丁目３２番９号,,13,109,1410031,,,,,,,2025-04-04,1,,,,,ティージェイ,0
1065,5010901056903,新規,0,2025-04-04,2025-04-04,株式会社Ｑ　ｐｒｅｓｓ,,株式会社,東京都,世田谷区,大原２丁目１番１４号ヘンミ第２ビル３０１,,13,112,1560041,,,,,,,2025-04-04,1,,,,,キュープレス,0
1066,5010901057117,新規,0,2025-04-04,2025-04-04,株式会社ＹａｐｐＹ,,株式会社,東京都,世田谷区,弦巻４丁目２７番１９号,,13,112,1540016,,,,,,,2025-04-04,1,,,,,ヤッピー,0
1068,5010903009818,新規,0,2025-04-04,2025-04-04,合同会社Ｅｎｄｙ＆Ｃｏ．,,合同会社,東京都,世田谷区,上祖師谷７丁目１２番８号,,13,112,1570065,,,,,,,2025-04-04,1,,,,,エンディアンドコウ,0
1071,5011003021325,新規,0,2025-04-04,2025-04-04,合同会社ＪＯ．,,合同会社,東京都,渋谷区,道玄坂１丁目１７－９ヴィラハイツ道玄坂１階,,13,113,1500043,,,,,,,2025-04-04,1,,,,,ジョードット,0
1072,5011005010929,新規,0,2025-04-04,2025-04-04,ＧＪＣＦ１７特定目的会社,,その他の設立登記法人,東京都,渋谷区,恵比寿１丁目２０番２号７０４号室嶋本公認会計士事務所気付,,13,113,1500013,,,,,,,2025-04-04,1,,,,,ジージェイシーエフセブンティーン,0
1073,5011101111226,新規,0,2025-04-04,2025-04-04,株式会社ＨＡＲＭＯＮＹ,,株式会社,東京都,新宿区,大久保１丁目１６番１５号９０１号室,,13,104,1690072,,,,,,,2025-04-04,1,,,,,ハーモニー,0
1074,5011103015730,新規,0,2025-04-04,2025-04-04,日本森林アセット２号合同会社,,合同会社,東京都,新宿区,西新宿１丁目２３番７号,,13,104,1600023,,,,,,,2025-04-04,1,,,,,ニホンシンリンアセットニゴウ,0
1075,5011203004658,新規,0,2025-04-04,2025-04-04,ＭＯＴＨＥＲ　ＳＨＩＰ　ＡＧＥＮＴ合同会社,,合同会社,東京都,中野区,弥生町４丁目１７－１,,13,114,1640013,,,,,,,2025-04-04,1,,,,,マザーシップエージェント,0
1076,5011303005498,新規,0,2025-04-04,2025-04-04,アジャイルロジック合同会社,,合同会社,東京都,杉並区,浜田山１丁目２８番２３号,,13,115,1680065,,,,,,,2025-04-04,1,,,,,アジャイルロジック,0
1077,5011401026990,新規,0,2025-04-04,2025-04-04,株式会社ＪＣＭ,,株式会社,東京都,板橋区,東山町５２番１８号第一羽賀ビル１Ｆ－２Ｆ,,13,119,1740073,,,,,,,2025-04-04,1,,,,,ジェイシーエム,0
1078,5011405002385,新規,0,2025-04-04,2025-04-04,医療法人社団人と街,,その他の設立登記法人,東京都,板橋区,大山東町２５番１２号松田ビル１階,,13,119,1730014,,,,,,,2025-04-04,1,,,,,ヒトトマチ,0
1079,5011501031890,新規,0,2025-04-04,2025-04-04,株式会社ＡＴＳＵＭＡＲＥ,,株式会社,東京都,荒川区,南千住６丁目２９番１２号,,13,118,1160003,,,,,,,2025-04-04,1,,,,,アツマレ,0
1082,5011603004646,新規,0,2025-04-04,2025-04-04,合同会社小川機械エンジニアリング,,合同会社,東京都,練馬区,関町北５丁目６－１５ハイホーム武蔵関Ａ館５０３号,,13,120,1770051,,,,,,,2025-04-04,1,,,,,オガワキカイエンジニアリング,0
1087,5011801045905,新規,0,2025-04-04,2025-04-04,株式会社Ｆ．Ｄ．ＧＬＯＢＡＬ,,株式会社,東京都,葛飾区,西新小岩４丁目１９番１５号第２ユネックスマンション１０２,,13,122,1240025,,,,,,,2025-04-04,1,,,,,エフディーグローバル,0
1088,5011801045913,新規,0,2025-04-04,2025-04-04,株式会社Ｒｕｔｅｎ,,株式会社,東京都,葛飾区,立石８丁目４０－２,,13,122,1240012,,,,,,,2025-04-04,1,,,,,ルテン,0
1090,5011803006780,新規,0,2025-04-04,2025-04-04,ＷＥＬＴ合同会社,,合同会社,東京都,足立区,加賀１丁目１２－１２,,13,121,1230861,,,,,,,2025-04-04,1,,,,,ウェルト,0
1092,5012801023875,新規,0,2025-04-04,2025-04-04,株式会社スス・アンド・パートナーズ,,株式会社,東京都,昭島市,上川原町３丁目９－６,,13,207,1960011,,,,,,,2025-04-04,1,,,,,ススアンドパートナーズ,0
1099,5020001162106,新規,0,2025-04-04,2025-04-04,株式会社ベイホームズ,,株式会社,神奈川県,横浜市磯子区,滝頭２丁目１０番１８号,,14,107,2350012,,,,,,,2025-04-04,1,,,,,ベイホームズ,0
1100,5020003028156,新規,0,2025-04-04,2025-04-04,合同会社ハルノワ,,合同会社,神奈川県,横浜市緑区,長津田５丁目２－１８－２０３,,14,113,2260027,,,,,,,2025-04-04,1,,,,,ハルノワ,0
1104,5021001084843,新規,0,2025-04-04,2025-04-04,株式会社松本技建,,株式会社,神奈川県,相模原市南区,下溝３２５６番地７,,14,153,2520335,,,,,,,2025-04-04,1,,,,,マツモトギケン,0
1105,5021001084851,新規,0,2025-04-04,2025-04-04,株式会社マクト,,株式会社,神奈川県,横須賀市,日の出町３丁目１２番地ビューティーオーシャンコーポラス１０３号室,,14,201,2380006,,,,,,,2025-04-04,1,,,,,マクト,0
1106,5021001084868,新規,0,2025-04-04,2025-04-04,株式会社ＳｉｌｅｎｔＷｏｒｋ,,株式会社,神奈川県,相模原市緑区,橋本２丁目１４番３号,,14,151,2520143,,,,,,,2025-04-04,1,,,,,サイレントワーク,0
1107,5021001084876,新規,0,2025-04-04,2025-04-04,株式会社フローレス,,株式会社,神奈川県,逗子市,沼間２丁目１１番１０号,,14,208,2490004,,,,,,,2025-04-04,1,,,,,フローレス,0
1110,5021003015821,新規,0,2025-04-04,2025-04-04,錦徳合同会社,,合同会社,神奈川県,相模原市中央区,上矢部５丁目１０番１６号,,14,152,2520201,,,,,,,2025-04-04,1,,,,,キントク,0
1111,5021005013328,新規,0,2025-04-04,2025-04-04,一般社団法人秦野ラグビースクール,,その他の設立登記法人,神奈川県,秦野市,渋沢２丁目１５番４６号エルハイムＡ２０１号,,14,211,2591322,,,,,,,2025-04-04,1,,,,,ハダノラグビースクール,0
1115,5030001165702,新規,0,2025-04-04,2025-04-04,四季彩観光バス株式会社,,株式会社,埼玉県,熊谷市,拾六間９９３番地２,,11,202,3600846,,,,,,,2025-04-04,1,,,,,シキサイカンコウバス,0
1116,5030001165751,新規,0,2025-04-04,2025-04-04,株式会社ＨＯＮＯＲアナー,,株式会社,埼玉県,戸田市,上戸田１丁目１３番５号,,11,224,3350022,,,,,,,2025-04-04,1,,,,,アナーアナー,0
1117,5030001165792,新規,0,2025-04-04,2025-04-04,株式会社トリポ,,株式会社,埼玉県,狭山市,入間川３丁目２番３２号パテラ狭山６０１,,11,215,3501305,,,,,,,2025-04-04,1,,,,,トリポ,0
1121,5040003027263,新規,0,2025-04-04,2025-04-04,イーラウム合同会社,,合同会社,千葉県,千葉市中央区,弁天１丁目１２－１０－３０１,,12,101,2600045,,,,,,,2025-04-04,1,,,,,イーラウム,0
1122,5050001056429,新規,0,2025-04-04,2025-04-04,株式会社Ｓｇｏｌａｂｏ,,株式会社,茨城県,守谷市,松前台７丁目１７番地１８,,08,224,3020102,,,,,,,2025-04-04,1,,,,,エスゴラボ,0
1123,5050001056437,新規,0,2025-04-04,2025-04-04,株式会社Ｓａｋｕｒａ,,株式会社,茨城県,ひたちなか市,大字東石川３３４９－１０,,08,221,3120052,,,,,,,2025-04-04,1,,,,,サクラ,0
1124,5050003009178,新規,0,2025-04-04,2025-04-04,エスペランサ合同会社,,合同会社,茨城県,常総市,水海道森下町４３６０番地,,08,211,3030005,,,,,,,2025-04-04,1,,,,,エスペランサ,0
1127,5060003005498,新規,0,2025-04-04,2025-04-04,合同会社ＳＵＩ,,合同会社,栃木県,那須塩原市,下厚崎２６４番地９９,,09,213,3250025,,,,,,,2025-04-04,1,,,,,スイ,0
1128,5060005010323,新規,0,2025-04-04,2025-04-04,一般社団法人とちぎ立志教育支援プロジェクト,,その他の設立登記法人,栃木県,宇都宮市,日の出２丁目４番１４号,,09,201,3200832,,,,,,,2025-04-04,1,,,,,トチギリッシキョウイクシエンプロジェクト,0
1131,5080001026841,新規,0,2025-04-04,2025-04-04,株式会社ＣＡＬ,,株式会社,静岡県,静岡市駿河区,用宗１丁目３５番２６号,,22,102,4210122,,,,,,,2025-04-04,1,,,,,シーエーエル,0
1143,5100001038470,新規,0,2025-04-04,2025-04-04,Ｖｉｎｔａｇｅ．Ｕｐ株式会社,,株式会社,長野県,飯田市,上郷黒田８３５番地１,,20,205,3950004,,,,,,,2025-04-04,1,,,,,ビンテージアップ,0
1146,5110001039170,新規,0,2025-04-04,2025-04-04,株式会社ＴＯＭＯＳ‐ＹＡ,,株式会社,新潟県,南魚沼郡湯沢町,大字湯沢２８０９,,15,461,9496101,,,,,,,2025-04-04,1,,,,,トモスヤ,0
1154,5120001274080,新規,0,2025-04-04,2025-04-04,Ｖｉｌｌｏｔｅｃｈ　Ｊａｐａｎ株式会社,,株式会社,大阪府,大阪市中央区,安土町２丁目３番１３号大阪国際ビルディング２９階,,27,128,5410052,,,,,,,2025-04-04,1,,,,,ヴィローテックジャパン,0
1155,5120001274122,新規,0,2025-04-04,2025-04-04,スミケン株式会社,,株式会社,大阪府,大阪市住吉区,山之内３丁目２番１７号山野マンション１階,,27,120,5580023,,,,,,,2025-04-04,1,,,,,スミケン,0
1156,5120001274221,新規,0,2025-04-04,2025-04-04,株式会社ＫＹＯＳＯＨ,,株式会社,大阪府,大阪市天王寺区,味原町１１番１３号,,27,109,5430023,,,,,,,2025-04-04,1,,,,,キョーソウ,0
1159,5120003029136,新規,0,2025-04-04,2025-04-04,くさの不動産合同会社,,合同会社,大阪府,大阪市中央区,南本町２丁目５番１３－１１０９号,,27,128,5410054,,,,,,,2025-04-04,1,,,,,クサノフドウサン,0
1163,5120101071403,新規,0,2025-04-04,2025-04-04,株式会社小山工業,,株式会社,大阪府,阪南市,尾崎町８丁目４１番５号,,27,232,5990201,,,,,,,2025-04-04,1,,,,,コヤマコウギョウ,0
1164,5120103006365,新規,0,2025-04-04,2025-04-04,ジャスミン合同会社,,合同会社,大阪府,岸和田市,天神山町２丁目９番６－１０５号,,27,202,5960834,,,,,,,2025-04-04,1,,,,,ジャスミン,0
1166,5120901050688,新規,0,2025-04-04,2025-04-04,株式会社みなか,,株式会社,大阪府,豊中市,栗ケ丘町１０番１３号,,27,203,5600016,,,,,,,2025-04-04,1,,,,,ミナカ,0
1183,5140003021842,新規,0,2025-04-04,2025-04-04,合同会社ＥＮＨＡＮＣＥ,,合同会社,兵庫県,宝塚市,逆瀬台１丁目７－１阪急逆瀬台マンション１０１,,28,214,6650024,,,,,,,2025-04-04,1,,,,,エンハンス,0
1185,5140005027433,新規,0,2025-04-04,2025-04-04,医療法人らしく,,その他の設立登記法人,兵庫県,西宮市,荒木町１６番７号,,28,204,6638025,,,,,,,2025-04-04,1,,,,,ラシク,0
1187,5150003003542,新規,0,2025-04-04,2025-04-04,合同会社ＬＩＬＹ,,合同会社,奈良県,香芝市,下田東３丁目１２３５－４,,29,210,6390232,,,,,,,2025-04-04,1,,,,,リリィ,0
1201,5180001166165,新規,0,2025-04-04,2025-04-04,Ｈｕｍｂｌｅ株式会社,,株式会社,愛知県,名古屋市中川区,野田２丁目１６９番地,,23,110,4540912,,,,,,,2025-04-04,1,,,,,ハンブル,0
1202,5180001166198,新規,0,2025-04-04,2025-04-04,株式会社中井商事,,株式会社,愛知県,名古屋市緑区,大高町字新町４５番地,,23,114,4598001,,,,,,,2025-04-04,1,,,,,ナカイショウジ,0
1203,5180001166207,新規,0,2025-04-04,2025-04-04,株式会社新丸,,株式会社,愛知県,日進市,岩崎台３丁目５２５番地,,23,230,4700135,,,,,,,2025-04-04,1,,,,,シンマル,0
1204,5180001166248,新規,0,2025-04-04,2025-04-04,株式会社Ａｆｔｅｒｇｌｏｗ,,株式会社,愛知県,名古屋市中村区,名駅４丁目２４番地５号第２森ビル４０１,,23,105,4500002,,,,,,,2025-04-04,1,,,,,アフターグロウ,0
1207,5180003028215,新規,0,2025-04-04,2025-04-04,合同会社アマイル,,合同会社,愛知県,一宮市,開明字杁先１２－１マンションフレイグランス３Ｄ,,23,203,4940001,,,,,,,2025-04-04,1,,,,,アマイル,0
1210,5190001032110,新規,0,2025-04-04,2025-04-04,レック株式会社,,株式会社,三重県,津市,船頭町津興３４８７番地,,24,201,5140801,,,,,,,2025-04-04,1,,,,,レック,0
1211,5200003006762,新規,0,2025-04-04,2025-04-04,合同会社Ｒｅドライブ,,合同会社,岐阜県,岐阜市,柳津町北塚５丁目２９番地,,21,201,5016112,,,,,,,2025-04-04,1,,,,,リドライブ,0
1214,5220001026587,新規,0,2025-04-04,2025-04-04,株式会社ＲＩＺＥ,,株式会社,石川県,金沢市,森戸１丁目６７番地,,17,201,9218061,,,,,,,2025-04-04,1,,,,,ライズ,0
1220,5230003002404,新規,0,2025-04-04,2025-04-04,永利商事合同会社,,合同会社,富山県,富山市,文京町１丁目２番地１８,,16,201,9300876,,,,,,,2025-04-04,1,,,,,エイリショウジ,0
1222,5240001064734,新規,0,2025-04-04,2025-04-04,澤田裕輝ホールディングス株式会社,,株式会社,広島県,福山市,北本庄２丁目５番４３－４号,,34,207,7200074,,,,,,,2025-04-04,1,,,,,サワダヒロキホールディングス,0
1225,5250001021073,新規,0,2025-04-04,2025-04-04,株式会社アレタス,,株式会社,山口県,岩国市,錦見２丁目１３番２５号,,35,208,7410061,,,,,,,2025-04-04,1,,,,,アレタス,0
1229,5260001040080,新規,0,2025-04-04,2025-04-04,さん株式会社,,株式会社,岡山県,倉敷市,船穂町船穂１９５３番地の１,,33,202,7100261,,,,,,,2025-04-04,1,,,,,サン,0
1230,5280005007652,新規,0,2025-04-04,2025-04-04,一般社団法人麗齢美容協会,,その他の設立登記法人,島根県,出雲市,大津朝倉１丁目４番地１７,,32,203,6930015,,,,,,,2025-04-04,1,,,,,レイレイビヨウキョウカイ,0
1235,5290001109443,新規,0,2025-04-04,2025-04-04,Ｌｉｍｉｂａｔ　Ｊａｐａｎ株式会社,,株式会社,福岡県,福岡市中央区,白金１丁目１７番３４－１１０２号,,40,133,8100012,,,,,,,2025-04-04,1,,,,,リミバットジャパン,0
1236,5290001109542,新規,0,2025-04-04,2025-04-04,株式会社Ｔｒｕｓｔ　Ｊａｍｓ,,株式会社,福岡県,福岡市中央区,高砂２丁目６番１５－６０２号,,40,133,8100011,,,,,,,2025-04-04,1,,,,,トラストジャムス,0
1237,5290001109583,新規,0,2025-04-04,2025-04-04,株式会社サトケン,,株式会社,福岡県,うきは市,浮羽町西隈上３２５番地４,,40,225,8391404,,,,,,,2025-04-04,1,,,,,サトケン,0
1241,5290003016646,新規,0,2025-04-04,2025-04-04,合同会社ＳＡＮＳ,,合同会社,福岡県,福岡市博多区,博多駅東２丁目１６番１５号,,40,132,8120013,,,,,,,2025-04-04,1,,,,,サンズ,0
1242,5290005019696,新規,0,2025-04-04,2025-04-04,医療法人薬院たけい歯科クリニック,,その他の設立登記法人,福岡県,福岡市中央区,薬院３丁目１１番１８号,,40,133,8100022,,,,,,,2025-04-04,1,,,,,ヤクインタケイシカクリニック,0
1248,5290801031425,新規,0,2025-04-04,2025-04-04,株式会社ＳＨＯＵＦＵＫＵ,,株式会社,福岡県,北九州市八幡西区,星ケ丘１丁目１８番３号,,40,109,8071264,,,,,,,2025-04-04,1,,,,,ショウフク,0
1254,5310001019532,新規,0,2025-04-04,2025-04-04,株式会社九州ワーク長崎本社,,株式会社,長崎県,長崎市,田中町５８８番地３,,42,201,8510134,,,,,,,2025-04-04,1,,,,,キュウシュウワークナガサキホンシャ,0
1257,5320001021025,新規,0,2025-04-04,2025-04-04,株式会社徳寿,,株式会社,大分県,大分市,向原西１丁目３－５西ノ洲ビル１０３号,,44,201,8700905,,,,,,,2025-04-04,1,,,,,トクジュ,0
1258,5320003004614,新規,0,2025-04-04,2025-04-04,合同会社えん,,合同会社,大分県,大分市,南鶴崎２丁目１番１１号,,44,201,8700104,,,,,,,2025-04-04,1,,,,,エン,0
1259,5330001033044,新規,0,2025-04-04,2025-04-04,株式会社Ｓｔｉｃｋ,,株式会社,熊本県,合志市,豊岡２０００地番５９９,,43,216,8611115,,,,,,,2025-04-04,1,,,,,スティック,0
1261,5350001019470,新規,0,2025-04-04,2025-04-04,株式会社牧野工業,,株式会社,宮崎県,延岡市,別府町３９２８番地１,,45,203,8820861,,,,,,,2025-04-04,1,,,,,マキノコウギョウ,0
1262,5360001035013,新規,0,2025-04-04,2025-04-04,株式会社ＩＤＭ,,株式会社,沖縄県,那覇市,牧志３丁目１５番３７－１１７０６号プレミスト牧志タワー国際通り,,47,201,9000013,,,,,,,2025-04-04,1,,,,,アイディーエム,0
1268,5370001052445,新規,0,2025-04-04,2025-04-04,Ｙｅｌｌｏｗ　Ｓｔｕｄｉｏ株式会社,,株式会社,宮城県,仙台市若林区,南小泉２丁目７番１７号,,04,103,9840827,,,,,,,2025-04-04,1,,,,,イエロースタジオ,0
1272,5380001035201,新規,0,2025-04-04,2025-04-04,なつめホールディングス株式会社,,株式会社,福島県,東白川郡棚倉町,大字棚倉字町裏３４番地２,,07,481,9636131,,,,,,,2025-04-04,1,,,,,ナツメホールディングス,0
1282,5420003003093,新規,0,2025-04-04,2025-04-04,合同会社おおたや,,合同会社,青森県,青森市,妙見１丁目３番２号１階右,,02,201,0300121,,,,,,,2025-04-04,1,,,,,オオタヤ,0
1286,5430001094092,新規,0,2025-04-04,2025-04-04,株式会社丸樹組,,株式会社,北海道,札幌市厚別区,厚別中央三条４丁目１８番３４－３０２号,,01,108,0040053,,,,,,,2025-04-04,1,,,,,マルキグミ,0
1289,5450003002638,新規,0,2025-04-04,2025-04-04,合同会社よつば,,合同会社,北海道,旭川市,旭神二条３丁目５番４号,,01,204,0788372,,,,,,,2025-04-04,1,,,,,ヨツバ,0
1290,5460101007694,新規,0,2025-04-04,2025-04-04,株式会社Ｍ・Ｏ,,株式会社,北海道,帯広市,西十条南９丁目２０番地２Ｆｏｒｅｓｔ１０９,,01,207,0800020,,,,,,,2025-04-04,1,,,,,エムオー,0
1296,5500001026220,新規,0,2025-04-04,2025-04-04,株式会社ピットブル,,株式会社,愛媛県,松山市,道後樋又８番５号,,38,201,7900825,,,,,,,2025-04-04,1,,,,,ピットブル,0
1297,5500001026229,新規,0,2025-04-04,2025-04-04,株式会社Ｃｒｅａ　ｌａ　Ｌｕｃｅ四国,,株式会社,愛媛県,松山市,千舟町１丁目１番１号,,38,201,7900011,,,,,,,2025-04-04,1,,,,,クレアラルーチェシコク,0
1298,5700150129828,新規,0,2025-04-04,2025-04-04,Ｆｏｓｈａｎ　Ｍｅｉｎａ　Ｘｉ　Ｅ－ｃｏｍｍｅｒｃｅ　Ｃｏ．．Ｌｔｄ．,,外国会社等,,,,,,,,ｆｏ　ｓｈａｎ　ｓｈｉ　ｃｈａｎ　ｃｈｅｎｇ　ｑｕ　ｚｈａｎｇ　ｃｈａ　ｊｉｅ　ｄａｏ　ｚｈａｎｇ　ｃｈａ　ｓａｎ　ｌｕ　１１　ｈａｏ　ｓａｎ　ｃｈｕａｎｇ　２　ｌｏｕ　ｚｈｉ　ｙｉ　２４３８,,,,,,2025-04-04,1,,,,,ブツサンシミナシデンシショウムユウゲンコウシ,0
1308,6010001253730,新規,0,2025-04-04,2025-04-04,株式会社ドリット,,株式会社,東京都,千代田区,神田錦町３丁目７－２東京堂錦町ビル,,13,101,1010054,,,,,,,2025-04-04,1,,,,,ドリット,0
1309,6010001253755,新規,0,2025-04-04,2025-04-04,株式会社Ｃｈｅｅｒｓ,,株式会社,東京都,中央区,新川２丁目３０番１１号庄田ビル２０２,,13,102,1040033,,,,,,,2025-04-04,1,,,,,チアーズ,0
1310,6010001253796,新規,0,2025-04-04,2025-04-04,株式会社ＩＫＯＲＵ,,株式会社,東京都,中央区,銀座１丁目１９番３号銀座ウイステーリアビル１階,,13,102,1040061,,,,,,,2025-04-04,1,,,,,イコル,0
1311,6010003046950,新規,0,2025-04-04,2025-04-04,合同会社輸徒,,合同会社,東京都,千代田区,神田鍛冶町３丁目５－１５第五古川ビル１０１,,13,101,1010045,,,,,,,2025-04-04,1,,,,,,0
1312,6010003046967,新規,0,2025-04-04,2025-04-04,合同会社Ｆｒｅｅｄｏｍ,,合同会社,東京都,千代田区,神田岩本町１５番１号,,13,101,1010033,,,,,,,2025-04-04,1,,,,,フリーダム,0
1313,6010003046991,新規,0,2025-04-04,2025-04-04,合同会社イーアンドエス,,合同会社,東京都,八丈島八丈町,大賀郷４４１２番地１,,13,401,1001401,,,,,,,2025-04-04,1,,,,,イーアンドエス,0
1315,6010101016599,新規,0,2025-04-04,2025-04-04,株式会社ＳＨＯ,,株式会社,東京都,八王子市,子安町４丁目７番１－３５０３号,,13,201,1920904,,,,,,,2025-04-04,1,,,,,エスエイチオー,0
1321,6010401189392,新規,0,2025-04-04,2025-04-04,株式会社ＡＰ８４,,株式会社,東京都,港区,虎ノ門４丁目１番２８号虎ノ門タワーズオフィス１７階,,13,103,1050001,,,,,,,2025-04-04,1,,,,,エーピーハチジュウヨン,0
1326,6010901057108,新規,0,2025-04-04,2025-04-04,ロイヤルマイナーホテルズ株式会社,,株式会社,東京都,世田谷区,桜新町１丁目３４番６号,,13,112,1540015,,,,,,,2025-04-04,1,,,,,ロイヤルマイナーホテルズ,0
1327,6010901057116,新規,0,2025-04-04,2025-04-04,ピュアアセットマネジメント株式会社,,株式会社,東京都,世田谷区,若林１丁目２０番８－９０３号,,13,112,1540023,,,,,,,2025-04-04,1,,,,,ピュアアセットマネジメント,0
1328,6010901057124,新規,0,2025-04-04,2025-04-04,スター・プラス株式会社,,株式会社,東京都,世田谷区,尾山台３丁目９番１２号５０１,,13,112,1580086,,,,,,,2025-04-04,1,,,,,スタープラス,0
1330,6010903009817,新規,0,2025-04-04,2025-04-04,合同会社ＴＡＫＩＲＡ,,合同会社,東京都,世田谷区,野毛２丁目１５－１８野毛リージェンシー１０４,,13,112,1580092,,,,,,,2025-04-04,1,,,,,タキラ,0
1332,6011001168753,新規,0,2025-04-04,2025-04-04,一翔未来株式会社,,株式会社,東京都,渋谷区,千駄ヶ谷４丁目５－１５－４０３,,13,113,1510051,,,,,,,2025-04-04,1,,,,,イッショウミライ,0
1333,6011001168794,新規,0,2025-04-04,2025-04-04,クリスタルサウンド株式会社,,株式会社,東京都,渋谷区,代官山町１３－８キャッスルマンション代官山５１３号,,13,113,1500034,,,,,,,2025-04-04,1,,,,,クリスタルサウンド,0
1334,6011003021290,新規,0,2025-04-04,2025-04-04,合同会社Ａｄａｂａｎａ,,合同会社,東京都,渋谷区,道玄坂１丁目１０－８渋谷道玄坂東急ビル２Ｆ－Ｃ,,13,113,1500043,,,,,,,2025-04-04,1,,,,,アダバナ,0
1335,6011003021299,新規,0,2025-04-04,2025-04-04,合同会社デジタルブリッジ,,合同会社,東京都,渋谷区,恵比寿南２丁目２４番１０号１０２,,13,113,1500022,,,,,,,2025-04-04,1,,,,,デジタルブリッジ,0
1336,6011005010928,新規,0,2025-04-04,2025-04-04,医療法人社団渋青会,,その他の設立登記法人,東京都,渋谷区,渋谷１丁目８番７号第２７ＳＹビル１０階Ｂ室,,13,113,1500002,,,,,,,2025-04-04,1,,,,,ジュウセイカイ,0
1344,6011401026981,新規,0,2025-04-04,2025-04-04,株式会社ワンドア,,株式会社,東京都,板橋区,中丸町２４－９メイスンビル４Ｆ,,13,119,1730026,,,,,,,2025-04-04,1,,,,,ワンドア,0
1345,6011403004663,新規,0,2025-04-04,2025-04-04,合同会社Ｍａｐｌｅ,,合同会社,東京都,板橋区,成増２丁目３３―７スカイマンション１０２,,13,119,1750094,,,,,,,2025-04-04,1,,,,,メープル,0
1348,6011601028547,新規,0,2025-04-04,2025-04-04,シーズリンク株式会社,,株式会社,東京都,練馬区,関町北４丁目１５番３号,,13,120,1770051,,,,,,,2025-04-04,1,,,,,シーズリンク,0
1349,6011705001887,新規,0,2025-04-04,2025-04-04,一般社団法人水と災害に関するハイレベルパネル,,その他の設立登記法人,東京都,江戸川区,小松川２丁目６番３－８０１号,,13,123,1320034,,,,,,,2025-04-04,1,,,,,ミズトサイガイニカンスルハイレベルパネル,0
1357,6012403007045,新規,0,2025-04-04,2025-04-04,合同会社Ｕ＆Ｋ,,合同会社,東京都,府中市,府中町１丁目２８番地の８Ｐｉｎｏさくら通り１０３,,13,206,1830055,,,,,,,2025-04-04,1,,,,,ウァンク,0
1360,6012801023874,新規,0,2025-04-04,2025-04-04,株式会社アマテラス,,株式会社,東京都,立川市,曙町１丁目２８－１２,00138594,13,202,1900012,,,,,,,2025-04-04,1,,,,,アマテラス,0
1365,6013301054030,新規,0,2025-04-04,2025-04-04,株式会社クラウドテン,,株式会社,東京都,豊島区,池袋２丁目１７－８天翔オフィス池袋西口ＡＮＮＥＸ３１０,,13,116,1710014,,,,,,,2025-04-04,1,,,,,クラウドテン,0
1368,6020001162096,新規,0,2025-04-04,2025-04-04,ｐｉｔｔａｎ株式会社,,株式会社,神奈川県,横浜市神奈川区,片倉２丁目６９番３－１０５号,,14,102,2210865,,,,,,,2025-04-04,1,,,,,ピッタン,0
1377,6021001084867,新規,0,2025-04-04,2025-04-04,株式会社ＳＨＩＳＥＩプロモ,,株式会社,神奈川県,小田原市,早川２丁目５番５号ブルーハイム１０３,,14,206,2500021,,,,,,,2025-04-04,1,,,,,シセイプロモ,0
1378,6021001084875,新規,0,2025-04-04,2025-04-04,株式会社ＭＡＲＳ　ｇｒｏｕｐ,,株式会社,神奈川県,平塚市,山下１丁目３８番５号,,14,203,2540911,,,,,,,2025-04-04,1,,,,,マーズグループ,0
1380,6021003015829,新規,0,2025-04-04,2025-04-04,合同会社ボンド,,合同会社,神奈川県,鎌倉市,大船１丁目１２－１０湘南第５ビル４Ｆ,,14,204,2470056,,,,,,,2025-04-04,1,,,,,ボンド,0
1381,6021003015837,新規,0,2025-04-04,2025-04-04,合同会社工藤工業,,合同会社,神奈川県,相模原市南区,御園４丁目１４番１２号,,14,153,2520317,,,,,,,2025-04-04,1,,,,,クドウコウギョウ,0
1382,6021005013327,新規,0,2025-04-04,2025-04-04,一般社団法人ＢＡＤＶＡＴＩＯＮ,,その他の設立登記法人,神奈川県,相模原市中央区,淵野辺２丁目５番６１―２１２号,,14,152,2520206,,,,,,,2025-04-04,1,,,,,バドベーション,0
1385,6030001165701,新規,0,2025-04-04,2025-04-04,Ｍａｒｕｗａ　Ｍ＆Ｍ株式会社,,株式会社,埼玉県,羽生市,大沼２丁目３０番地３,,11,216,3480016,,,,,,,2025-04-04,1,,,,,マルワエムアンドエム,0
1386,6030001165726,新規,0,2025-04-04,2025-04-04,リルート株式会社,,株式会社,埼玉県,春日部市,東中野１１１３番地２,,11,214,3440114,,,,,,,2025-04-04,1,,,,,リルート,0
1387,6030003026471,新規,0,2025-04-04,2025-04-04,ＨＡＳＨＲＹ合同会社,,合同会社,埼玉県,北本市,本宿２丁目２８番地３,,11,233,3640005,,,,,,,2025-04-04,1,,,,,ハシュリィ,0
1392,6040001138111,新規,0,2025-04-04,2025-04-04,玉山インターナショナル株式会社,,株式会社,千葉県,市川市,湊新田２丁目１番２３号マルヤフラット１０３号,,12,203,2720132,,,,,,,2025-04-04,1,,,,,タマヤマインターナショナル,0
1393,6040003027246,新規,0,2025-04-04,2025-04-04,合同会社ＹＯＬＵＣＫ,,合同会社,千葉県,東金市,菱沼１４３番地３,,12,213,2830016,,,,,,,2025-04-04,1,,,,,ヨラク,0
1394,6040003027254,新規,0,2025-04-04,2025-04-04,Ｉｎｓａｎｉｔｙ　Ｄｒｅａｍ合同会社,,合同会社,千葉県,印西市,小林大門下３丁目１９－１１,,12,231,2701316,,,,,,,2025-04-04,1,,,,,インサニティドリーム,0
1395,6040005022708,新規,0,2025-04-04,2025-04-04,特定非営利活動法人ヘリオス,,その他の設立登記法人,千葉県,柏市,柏１丁目７番１－３０１号パレット柏内,,12,217,2770005,,,,,,,2025-04-04,1,,,,,ヘリオス,0
1396,6050001056428,新規,0,2025-04-04,2025-04-04,株式会社日進自動車,,株式会社,茨城県,日立市,東金沢町１丁目８番５号,,08,202,3160014,,,,,,,2025-04-04,1,,,,,ニッシンジドウシャ,0
1397,6050001056436,新規,0,2025-04-04,2025-04-04,株式会社海浜ひたちなか農園,,株式会社,茨城県,ひたちなか市,湊本町３番１１号,,08,221,3111221,,,,,,,2025-04-04,1,,,,,カイヒンヒタチナカノウエン,0
1401,6050003009177,新規,0,2025-04-04,2025-04-04,合同会社ｓｈｉｎｋａ,,合同会社,茨城県,水戸市,松本町１４―１２,,08,201,3100052,,,,,,,2025-04-04,1,,,,,シンカ,0
1402,6060001038078,新規,0,2025-04-04,2025-04-04,株式会社Ａｂｅｌｉａ,,株式会社,栃木県,宇都宮市,西原町５５０番地３,,09,201,3200826,,,,,,,2025-04-04,1,,,,,アベリア,0
1405,6070001042789,新規,0,2025-04-04,2025-04-04,Ａｒｓ　Ｖｉｔａｌ株式会社,,株式会社,群馬県,沼田市,白沢町上古語父２１５８,,10,206,3780126,,,,,,,2025-04-04,1,,,,,アルスヴィタル,0
1406,6070001042806,新規,0,2025-04-04,2025-04-04,株式会社ヤマダ金融ホールディングス,,株式会社,群馬県,高崎市,栄町１番１号,,10,202,3700841,,,,,,,2025-04-04,1,,,,,ヤマダキンユウホールディングス,0
1409,6070005010370,新規,0,2025-04-04,2025-04-04,医療法人かもめ在宅診療所,,その他の設立登記法人,群馬県,高崎市,北原町６６番地３,,10,202,3703513,,,,,,,2025-04-04,1,,,,,カモメザイタクシンリョウジョ,0
1410,6080001026840,新規,0,2025-04-04,2025-04-04,株式会社ロジュマン,,株式会社,静岡県,榛原郡吉田町,川尻１４７番地の１,,22,424,4210302,,,,,,,2025-04-04,1,,,,,ロジュマン,0
1412,6080101025420,新規,0,2025-04-04,2025-04-04,株式会社ＫＯＣ,,株式会社,静岡県,伊東市,赤沢１８４番地の１エクセルヴィラ伊豆赤沢５１７号室,,22,208,4130233,,,,,,,2025-04-04,1,,,,,ケイオーシー,0
1418,6100003008066,新規,0,2025-04-04,2025-04-04,ＴＯＭＡＴＯＴＯＲＩＮＧＯ合同会社,,合同会社,長野県,小諸市,大字八満字福島３８７－１,,20,208,3840051,,,,,,,2025-04-04,1,,,,,トマトトリンゴ,0
1419,6110001039161,新規,0,2025-04-04,2025-04-04,株式会社Ｓｔｕｄｅｌｉｇｈｔ,,株式会社,新潟県,新潟市西区,小針５丁目１６番８号,,15,107,9502022,,,,,,,2025-04-04,1,,,,,スタデライト,0
1429,6120001274212,新規,0,2025-04-04,2025-04-04,株式会社のぶおＦｉｇｈｔｅｒｓ,,株式会社,大阪府,大阪市西区,新町１丁目２１番８号ライオンズマンション大阪スカイタワー７０２,,27,106,5500013,,,,,,,2025-04-04,1,,,,,ノブオファイターズ,0
1430,6120001274492,新規,0,2025-04-04,2025-04-04,大田株式会社,,株式会社,大阪府,大阪市平野区,平野市町２丁目６番１４号ドリーム平野Ｄ２２,,27,126,5470042,,,,,,,2025-04-04,1,,,,,オオダ,0
1431,6120001274609,新規,0,2025-04-04,2025-04-04,株式会社ＧＲＩＮＤ,,株式会社,大阪府,大阪市北区,梅田１丁目２番２号大阪駅前第２ビル１２－１２,,27,127,5300001,,,,,,,2025-04-04,1,,,,,グラインド,0
1434,6120005024869,新規,0,2025-04-04,2025-04-04,一般社団法人家族法制研究所,,その他の設立登記法人,大阪府,大阪市都島区,都島本通１丁目７番１９号都島楠風ビル４０６号,,27,102,5340021,,,,,,,2025-04-04,1,,,,,カゾクホウセイケンキュウジョ,0
1436,6120101071393,新規,0,2025-04-04,2025-04-04,株式会社ユナイテッド,,株式会社,大阪府,泉佐野市,高松北１丁目８番７５号,,27,213,5980011,,,,,,,2025-04-04,1,,,,,ユナイテッド,0
1437,6120101071402,新規,0,2025-04-04,2025-04-04,株式会社英白商事,,株式会社,大阪府,松原市,天美我堂６丁目１３８番地の２（１０２号）,,27,217,5800026,,,,,,,2025-04-04,1,,,,,エイハクショウジ,0
1440,6120103006356,新規,0,2025-04-04,2025-04-04,合同会社おとのはテラス,,合同会社,大阪府,泉南郡岬町,望海坂１丁目２０－１９,,27,366,5990304,,,,,,,2025-04-04,1,,,,,オトノハテラス,0
1441,6120103006372,新規,0,2025-04-04,2025-04-04,合同会社ＭｅｍｏｒｉＣａ,,合同会社,大阪府,岸和田市,大沢町７６５－３,,27,202,5960114,,,,,,,2025-04-04,1,,,,,メモリカ,0
1444,6120901050679,新規,0,2025-04-04,2025-04-04,株式会社住宅塗装の１１０番,,株式会社,大阪府,箕面市,西小路５丁目５番５号,,27,220,5620003,,,,,,,2025-04-04,1,,,,,ジュウタクトソウノヒャクトウバン,0
1447,6130001079362,新規,0,2025-04-04,2025-04-04,株式会社和仏交流社,,株式会社,京都府,京都市下京区,朱雀宝蔵町４４番地協栄ビル２階京都朱雀スタジオ,,26,106,6008846,,,,,,,2025-04-04,1,,,,,ワフツコウリュウシャ,0
1449,6130003010317,新規,0,2025-04-04,2025-04-04,合同会社ｄｉＶｅｒｓ,,合同会社,京都府,京都市下京区,小稲荷町８５－２Ｇｒａｎｄ－Ｋ京都駅前ビル２０１,,26,106,6008208,,,,,,,2025-04-04,1,,,,,ダイバーズ,0
1450,6130003010341,新規,0,2025-04-04,2025-04-04,ＭＡＣＨＩＳＨＩＧＯＴＯ合同会社,,合同会社,京都府,京都市伏見区,深草越後屋敷町４０－１ソレイユ墨染１階Ｂ号室,,26,109,6128431,,,,,,,2025-04-04,1,,,,,マチシゴト,0
1456,6140001138134,新規,0,2025-04-04,2025-04-04,株式会社あしなが,,株式会社,兵庫県,川西市,滝山町１１番６号,,28,217,6660002,,,,,,,2025-04-04,1,,,,,アシナガ,0
1462,6140003021866,新規,0,2025-04-04,2025-04-04,合同会社ソフィア,,合同会社,兵庫県,神戸市中央区,海岸通５丁目２番２－９０６号,,28,110,6500024,,,,,,,2025-04-04,1,,,,,ソフィア,0
1463,6140003021899,新規,0,2025-04-04,2025-04-04,ヘリタビ合同会社,,合同会社,兵庫県,神戸市兵庫区,御崎本町３丁目２－１２－４Ｆ,,28,105,6520852,,,,,,,2025-04-04,1,,,,,ヘリタビ,0
1466,6150001028004,新規,0,2025-04-04,2025-04-04,ＬＩＳＡ株式会社,,株式会社,奈良県,香芝市,北今市４丁目２３６番地２澤住宅１号,,29,210,6390242,,,,,,,2025-04-04,1,,,,,リサ,0
1468,6170001018556,新規,0,2025-04-04,2025-04-04,株式会社ツジモトコーポレーション,,株式会社,和歌山県,和歌山市,中島２４１番地１７,,30,201,6410006,,,,,,,2025-04-04,1,,,,,ツジモトコーポレーション,0
1476,6180001166107,新規,0,2025-04-04,2025-04-04,株式会社立和,,株式会社,愛知県,名古屋市瑞穂区,洲山町１丁目５５番地の３内堀ビル４０７号室,,23,108,4670066,,,,,,,2025-04-04,1,,,,,リツワ,0
1477,6180001166123,新規,0,2025-04-04,2025-04-04,吉川創造株式会社,,株式会社,愛知県,名古屋市西区,名駅２丁目３４‐１７,,23,104,4510045,,,,,,,2025-04-04,1,,,,,ヨシカワソウゾウ,0
1478,6180001166148,新規,0,2025-04-04,2025-04-04,株式会社リクエストプロ,,株式会社,愛知県,名古屋市中村区,名駅５丁目３１番１０号,,23,105,4500002,,,,,,,2025-04-04,1,,,,,リクエストプロ,0
1479,6180001166222,新規,0,2025-04-04,2025-04-04,株式会社ナゴキャリ,,株式会社,愛知県,名古屋市中区,丸の内３丁目１８番１７号徳三ビル２０１号室,,23,106,4600002,,,,,,,2025-04-04,1,,,,,ナゴキャリ,0
1481,6180005021019,新規,0,2025-04-04,2025-04-04,一般社団法人幸和,,その他の設立登記法人,愛知県,名古屋市守山区,守牧町１１０番地メゾン・ド・エコー４０２号,,23,113,4630073,,,,,,,2025-04-04,1,,,,,コウワ,0
1482,6180005021027,新規,0,2025-04-04,2025-04-04,一般社団法人名古屋労災職業病センター,,その他の設立登記法人,愛知県,名古屋市昭和区,山手通５丁目３３番地１杉浦医院４Ｆ,,23,107,4660815,,,,,,,2025-04-04,1,,,,,ナゴヤロウサイショクギョウビョウセンター,0
1483,6190001032118,新規,0,2025-04-04,2025-04-04,株式会社アトラス貿易,,株式会社,三重県,桑名市,大山田４丁目１６番地１４,,24,205,5110903,,,,,,,2025-04-04,1,,,,,アトラスボウエキ,0
1494,6230003002403,新規,0,2025-04-04,2025-04-04,合同会社ＷＩＮＧＳ,,合同会社,富山県,射水市,太閤山４丁目４３番地,,16,211,9390362,,,,,,,2025-04-04,1,,,,,ウィングス,0
1502,6240005015930,新規,0,2025-04-04,2025-04-04,税理士法人ダブルステップ,,その他の設立登記法人,広島県,福山市,霞町３丁目３番２６－２０１号,,34,207,7200812,,,,,,,2025-04-04,1,,,,,ダブルステップ,0
1509,6250001021080,新規,0,2025-04-04,2025-04-04,Ｒ’ｅ　ｔｅｃ株式会社,,株式会社,山口県,下関市,武久町２丁目８１番１５号,,35,201,7510833,,,,,,,2025-04-04,1,,,,,リテック,0
1510,6260001040063,新規,0,2025-04-04,2025-04-04,株式会社メビウス,,株式会社,岡山県,倉敷市,松島１１２８番地１,,33,202,7010114,,,,,,,2025-04-04,1,,,,,メビウス,0
1516,6280001009395,新規,0,2025-04-04,2025-04-04,株式会社うんなん共創エネルギー,,株式会社,島根県,雲南市,木次町木次２９番地三日市ラボ,,32,209,6991332,,,,,,,2025-04-04,1,,,,,ウンナンキョウソウエネルギー,0
1519,6290001109500,新規,0,2025-04-04,2025-04-04,ＡｔｏＺ株式会社,,株式会社,福岡県,福岡市西区,愛宕１丁目４番１－２０２号,,40,135,8190015,,,,,,,2025-04-04,1,,,,,エートゥーゼット,0
1520,6290005019695,新規,0,2025-04-04,2025-04-04,医療法人福南会,,その他の設立登記法人,福岡県,福岡市城南区,長尾３丁目２７番１号,,40,136,8140123,,,,,,,2025-04-04,1,,,,,フクナンカイ,0
1523,6290801031399,新規,0,2025-04-04,2025-04-04,株式会社ベイズ,,株式会社,福岡県,北九州市小倉南区,津田５丁目２番１号,,40,107,8000242,,,,,,,2025-04-04,1,,,,,ベイズ,0
1525,6290805009821,新規,0,2025-04-04,2025-04-04,社会保険労務士法人北九州ＬＩＣＨＴ,,その他の設立登記法人,福岡県,北九州市小倉北区,田町１５番１－１０１号,,40,106,8030817,,,,,,,2025-04-04,1,,,,,キタキュウシュウリヒト,0
1526,6300001014129,新規,0,2025-04-04,2025-04-04,株式会社エクスプロア通訳翻訳サービス,,株式会社,佐賀県,伊万里市,立花町１２３４番地１６,,41,205,8480027,,,,,,,2025-04-04,1,,,,,エクスプロアツウヤクホンヤクサービス,0
1529,6310003004985,新規,0,2025-04-04,2025-04-04,合同会社ＹＯＫＡＲＡＩ,,合同会社,長崎県,松浦市,星鹿町岳崎免２５２４－２,,42,208,8594744,,,,,,,2025-04-04,1,,,,,ヨカライ,0
1533,6330001033019,新規,0,2025-04-04,2025-04-04,サステナビジョン株式会社,,株式会社,熊本県,熊本市東区,保田窪本町１６－２９,,43,102,8620925,,,,,,,2025-04-04,1,,,,,サステナビジョン,0
1534,6330001033043,新規,0,2025-04-04,2025-04-04,株式会社ｉスクールジュニア,,株式会社,熊本県,熊本市西区,島崎６丁目３番９号,,43,103,8600073,,,,,,,2025-04-04,1,,,,,アイスクールジュニア,0
1535,6330001033051,新規,0,2025-04-04,2025-04-04,株式会社小楠,,株式会社,熊本県,熊本市中央区,上通町８－１７,,43,101,8600845,,,,,,,2025-04-04,1,,,,,ショウナン,0
1537,6330003010924,新規,0,2025-04-04,2025-04-04,合同会社Ｌｉｎｏ,,合同会社,熊本県,上益城郡御船町,大字辺田見１５７８番地３,,43,441,8613206,,,,,,,2025-04-04,1,,,,,リノ,0
1541,6340001027242,新規,0,2025-04-04,2025-04-04,株式会社Ｍ＆Ｓ,,株式会社,鹿児島県,鹿児島市,荒田１丁目４６番７－６０１号,,46,201,8900054,,,,,,,2025-04-04,1,,,,,エムアンドエス,0
1544,6340005009831,新規,0,2025-04-04,2025-04-04,特定非営利活動法人ＯＧＮＡＳラボ,,その他の設立登記法人,鹿児島県,西之表市,古田１１７３番地１,,46,213,8913431,,,,,,,2025-04-04,1,,,,,オグナスラボ,0
1547,6350001019461,新規,0,2025-04-04,2025-04-04,株式会社時任電装,,株式会社,宮崎県,小林市,堤２４１６番地３,,45,205,8860003,,,,,,,2025-04-04,1,,,,,トキトウデンソウ,0
1548,6350003004890,新規,0,2025-04-04,2025-04-04,合同会社トキトウ,,合同会社,宮崎県,都城市,立野町７号９番地２,,45,202,8850035,,,,,,,2025-04-04,1,,,,,トキトウ,0
1549,6360001035020,新規,0,2025-04-04,2025-04-04,ｉｃｈｉｍａｒｉ株式会社,,株式会社,沖縄県,うるま市,石川東恩納６５２番地５,,47,213,9041111,,,,,,,2025-04-04,1,,,,,,0
1558,6430001094050,新規,0,2025-04-04,2025-04-04,カントミント株式会社,,株式会社,北海道,札幌市南区,芸術の森３丁目９１５－１７,,01,106,0050864,,,,,,,2025-04-04,1,,,,,カントミント,0
1561,6460101007693,新規,0,2025-04-04,2025-04-04,株式会社村井ファーム,,株式会社,北海道,中川郡池田町,字東台６１８番地の１,,01,644,0830046,,,,,,,2025-04-04,1,,,,,ムライファーム,0
1562,6460103001703,新規,0,2025-04-04,2025-04-04,合同会社上札内企画,,合同会社,北海道,河西郡中札内村,上札内９９番地,,01,638,0891371,,,,,,,2025-04-04,1,,,,,カミサツナイキカク,0
1565,6490001011009,新規,0,2025-04-04,2025-04-04,株式会社源悦,,株式会社,高知県,須崎市,東古市町２番２号３０２号室,,39,206,7850005,,,,,,,2025-04-04,1,,,,,ゲンエツ,0
1567,6500003003472,新規,0,2025-04-04,2025-04-04,合同会社ＯＦＦＩＣＥ　ＥＮ．,,合同会社,愛媛県,東温市,田窪１８５９番地３,,38,215,7910212,,,,,,,2025-04-04,1,,,,,オフィスエン,0
1568,6700150004781,新規,0,2025-04-04,2015-10-09,国際ロータリー日本事務局,,その他,東京都,港区,三田１丁目４－２８三田国際ビル２４Ｆ,,13,103,1080073,,,,,,,2015-10-09,1,,,,,コクサイロータリーニホンジムキヨク,0
1569,6700150129827,新規,0,2025-04-04,2025-04-04,ＳＨＥＮＺＨＥＮＳＨＩＭＡＮＣＨＥＮＧＭＡＯＹＩＹＯＵＸＩＡＮＧＯＮＧＳＩ,,外国会社等,,,,,,,,ＢＵＪＩＪＩＥＤＡＯＤＯＮＧＦＡＮＧＢＡＮＤＡＯＳＨＥＱＵＪＩＮＧＦＥＮＬＵ４ＨＡＯ，ＪＩＮＧＹＵＡＮ１ＤＯＮＧＣＺＵＯ７Ａ，ＳＨＥＮＺＨＥＮ，ＧＵＡＮＧＤＯＮＧ,,,,,,2025-04-04,1,,,,,シンセンシマンセイボウエキユウゲンコウシ,0
1572,7010001253696,新規,0,2025-04-04,2025-04-04,Ｗａｙｚｉｍ　Ｔｅｃｈｎｏｌｏｇｙ　Ｊａｐａｎ株式会社,,株式会社,東京都,中央区,新川１丁目７番１号天翔日本橋茅場町ビル,,13,102,1040033,,,,,,,2025-04-04,1,,,,,ウェイズィムテクノロジージャパン,0
1573,7010001253746,新規,0,2025-04-04,2025-04-04,株式会社ｅｎｎ,,株式会社,東京都,千代田区,神田須田町１丁目７番８号,,13,101,1010041,,,,,,,2025-04-04,1,,,,,エン,0
1574,7010001253762,新規,0,2025-04-04,2025-04-04,株式会社ＳＴＡＲ,,株式会社,東京都,千代田区,神田駿河台１丁目５番６－１１０号,,13,101,1010062,,,,,,,2025-04-04,1,,,,,スター,0
1575,7010001253804,新規,0,2025-04-04,2025-04-04,アルタス株式会社,,株式会社,東京都,中央区,銀座１丁目１２－４,,13,102,1040061,,,,,,,2025-04-04,1,,,,,アルタス,0
1576,7010001253829,新規,0,2025-04-04,2025-04-04,株式会社クレストヒルズＡＩ,,株式会社,東京都,千代田区,神田三崎町３丁目３番２０号,,13,101,1010061,,,,,,,2025-04-04,1,,,,,クレストヒルズエーアイ,0
1578,7010005039836,新規,0,2025-04-04,2025-04-04,一般社団法人日本ドローン赤外線調査協会,,その他の設立登記法人,東京都,千代田区,鍛冶町２丁目９番６号,,13,101,1010044,,,,,,,2025-04-04,1,,,,,,0
1587,7010401189350,新規,0,2025-04-04,2025-04-04,ＩＣ　Ａｅｒｏ株式会社,,株式会社,東京都,港区,北青山２丁目５番１号,,13,103,1070061,,,,,,,2025-04-04,1,,,,,アイシーエアロ,0
1589,7010403034744,新規,0,2025-04-04,2025-04-04,清桜リンク合同会社,,合同会社,東京都,港区,白金３丁目２番９－６０２号,,13,103,1080072,,,,,,,2025-04-04,1,,,,,セイオウリンク,0
1590,7010403034760,新規,0,2025-04-04,2025-04-04,ＨＵＭＡＮＩＴＹ　ＶＩＳＩＯＮ合同会社,,合同会社,東京都,港区,港南１丁目８－１５Ｗビル２Ｆ,,13,103,1080075,,,,,,,2025-04-04,1,,,,,ヒューマニティビジョン,0
1593,7010405024256,新規,0,2025-04-04,2025-04-04,一般社団法人養鰻管理センター,,その他の設立登記法人,東京都,港区,浜松町２丁目２番１５号,,13,103,1050013,,,,,,,2025-04-04,1,,,,,ヨウマンカンリセンター,0
1594,7010601067067,新規,0,2025-04-04,2025-04-04,株式会社ルリアン,,株式会社,東京都,江東区,牡丹３丁目３２番１０号ウィステリア牡丹１０１,,13,108,1350046,,,,,,,2025-04-04,1,,,,,ルリアン,0
1598,7010801036004,新規,0,2025-04-04,2025-04-04,株式会社Ｂｅｅ　Ｄａｓｈ,,株式会社,東京都,大田区,南馬込６丁目１６番１２－３号,,13,111,1430025,,,,,,,2025-04-04,1,,,,,ビーダッシュ,0
1599,7010901057123,新規,0,2025-04-04,2025-04-04,Ｎａｔｓｕａｌｌｙ株式会社,,株式会社,東京都,世田谷区,玉川１丁目８番１５号アノンテラス二子玉川３０３,,13,112,1580094,,,,,,,2025-04-04,1,,,,,ナツァリー,0
1600,7010901057131,新規,0,2025-04-04,2025-04-04,株式会社ＺａｎＨａｇ,,株式会社,東京都,世田谷区,梅丘１丁目１－２アリビオ梅丘１０２,,13,112,1540022,,,,,,,2025-04-04,1,,,,,ザンハグ,0
1601,7010903009816,新規,0,2025-04-04,2025-04-04,イーサン・アンド・カンパニー合同会社,,合同会社,東京都,世田谷区,等々力８丁目１番５号,,13,112,1580082,,,,,,,2025-04-04,1,,,,,イーサンアンドカンパニー,0
1605,7011001168760,新規,0,2025-04-04,2025-04-04,株式会社ＭＥＴＡＧＲＩＴ,,株式会社,東京都,渋谷区,渋谷２丁目１９番１５号宮益坂ビルディング６０９,,13,113,1500002,,,,,,,2025-04-04,1,,,,,メタグリット,0
1606,7011001168793,新規,0,2025-04-04,2025-04-04,株式会社セレブ,,株式会社,東京都,渋谷区,東３丁目１６番１０号－７０３,,13,113,1500011,,,,,,,2025-04-04,1,,,,,セレブ,0
1607,7011003021323,新規,0,2025-04-04,2025-04-04,フォーティーセブンジャパン合同会社,,合同会社,東京都,目黒区,上目黒２丁目１番１号,,13,110,1530051,,,,,,,2025-04-04,1,,,,,フォーティーセブンジャパン,0
1610,7011101111307,新規,0,2025-04-04,2025-04-04,株式会社パリティック,,株式会社,東京都,新宿区,西新宿３丁目３番１３号西新宿水間ビル２Ｆ,,13,104,1600023,,,,,,,2025-04-04,1,,,,,パリティック,0
1612,7011105011404,新規,0,2025-04-04,2025-04-04,弁護士法人市ヶ谷板橋法律事務所,,その他の設立登記法人,東京都,新宿区,市谷田町２丁目３８番地３シティ市ヶ谷４０２号室,,13,104,1620843,,,,,,,2025-04-04,1,,,,,イチガヤイタバシホウリツジムショ,0
1613,7011203004656,新規,0,2025-04-04,2025-04-04,合同会社廻成,,合同会社,東京都,中野区,東中野２丁目６番５号アプリーレ東中野５０１,,13,114,1640003,,,,,,,2025-04-04,1,,,,,カイセイ,0
1618,7011601028546,新規,0,2025-04-04,2025-04-04,株式会社りん,,株式会社,東京都,練馬区,石神井町２丁目１５番７－６０２号ヴォアール石神井公園,,13,120,1770041,,,,,,,2025-04-04,1,,,,,リン,0
1619,7011603004652,新規,0,2025-04-04,2025-04-04,ＦＣＩメンテナンス合同会社,,合同会社,東京都,練馬区,栄町９番２－３０６号,,13,120,1760006,,,,,,,2025-04-04,1,,,,,エフシーアイメンテナンス,0
1622,7012401042943,新規,0,2025-04-04,2025-04-04,株式会社恵設計,,株式会社,東京都,多摩市,関戸２丁目３０番地の１９,,13,224,2060011,,,,,,,2025-04-04,1,,,,,メグミセッケイ,0
1632,7020003028162,新規,0,2025-04-04,2025-04-04,合同会社フッサポ,,合同会社,神奈川県,横浜市鶴見区,駒岡２丁目１５－４１,,14,101,2300071,,,,,,,2025-04-04,1,,,,,フッサポ,0
1633,7020003028170,新規,0,2025-04-04,2025-04-04,クアトロ合同会社,,合同会社,神奈川県,横浜市西区,浅間町３丁目１７７番地７,,14,103,2200072,,,,,,,2025-04-04,1,,,,,クアトロ,0
1634,7020003028179,新規,0,2025-04-04,2025-04-04,合同会社グロプト,,合同会社,神奈川県,横浜市港北区,新吉田東６丁目３７番２１号,,14,109,2230058,,,,,,,2025-04-04,1,,,,,グロプト,0
1639,7021001084890,新規,0,2025-04-04,2025-04-04,株式会社５１ｔａｉ４９,,株式会社,神奈川県,茅ヶ崎市,中島１１７４番地２,,14,207,2530073,,,,,,,2025-04-04,1,,,,,ゴジュウイッタイヨンジュウキュウ,0
1640,7021001084899,新規,0,2025-04-04,2025-04-04,スタートアップキャリア株式会社,,株式会社,神奈川県,藤沢市,藤沢９７１番地３パール湘南５Ｆ,,14,205,2510052,,,,,,,2025-04-04,1,,,,,スタートアップキャリア,0
1643,7021003015828,新規,0,2025-04-04,2025-04-04,合同会社ｍｏｇａｍｏ,,合同会社,神奈川県,鎌倉市,笹目町１０番１号,,14,204,2480015,,,,,,,2025-04-04,1,,,,,モガモ,0
1644,7021003015836,新規,0,2025-04-04,2025-04-04,合同会社Ｍ＆Ｋホーム,,合同会社,神奈川県,厚木市,長谷１２９１番地,,14,212,2430036,,,,,,,2025-04-04,1,,,,,エムアンドケーホーム,0
1645,7021005013318,新規,0,2025-04-04,2025-04-04,クレセール社会保険労務士法人,,その他の設立登記法人,神奈川県,藤沢市,藤沢５７５番地１０,,14,205,2510052,,,,,,,2025-04-04,1,,,,,クレセール,0
1646,7021005013326,新規,0,2025-04-04,2025-04-04,特定非営利活動法人Ｔｈｅ　ＳＣＣ　Ｓｕｒｆ　Ｔｈｅｒａｐｙ　Ｊａｐａｎ,,その他の設立登記法人,神奈川県,鎌倉市,関谷１５６４番地６,,14,204,2470075,,,,,,,2025-04-04,1,,,,,ザエスシーシーサーフセラピージャパン,0
1651,7030001165675,新規,0,2025-04-04,2025-04-04,株式会社グッドコンフォート,,株式会社,埼玉県,蕨市,塚越５丁目１５番４号,,11,223,3350002,,,,,,,2025-04-04,1,,,,,グッドコンフォート,0
1652,7030001165725,新規,0,2025-04-04,2025-04-04,芳野ＹＭマシナリー株式会社山形工場,,株式会社,埼玉県,戸田市,美女木２丁目２７番地２５,,11,224,3350031,,,,,,,2025-04-04,1,,,,,ヨシノワイエムマシナリーヤマガタコウジョウ,0
1653,7030005022113,新規,0,2025-04-04,2025-04-04,医療法人社団松彩会,,その他の設立登記法人,埼玉県,さいたま市見沼区,大字東新井９番地１,,11,104,3370032,,,,,,,2025-04-04,1,,,,,ショウサイカイ,0
1657,7040001138085,新規,0,2025-04-04,2025-04-04,株式会社ベルウッド,,株式会社,千葉県,市川市,福栄１丁目１番６号,,12,203,2720137,,,,,,,2025-04-04,1,,,,,ベルウッド,0
1658,7040001138093,新規,0,2025-04-04,2025-04-04,株式会社ＥＸｐｌａｎ,,株式会社,千葉県,千葉市花見川区,作新台４丁目４番４－１号,,12,102,2620045,,,,,,,2025-04-04,1,,,,,イーエックスプラン,0
1659,7040001138119,新規,0,2025-04-04,2025-04-04,株式会社ＬＣＲＥＬＡ,,株式会社,千葉県,八千代市,緑が丘１丁目１１０６番地５,,12,221,2760049,,,,,,,2025-04-04,1,,,,,エルクレラ,0
1662,7080001026848,新規,0,2025-04-04,2025-04-04,静岡航空整備株式会社,,株式会社,静岡県,牧之原市,坂口３５２０番地の１１,,22,226,4210411,,,,,,,2025-04-04,1,,,,,シズオカコウクウセイビ,0
1665,7080003003432,新規,0,2025-04-04,2025-04-04,ＰｅＬｅＡｎｕｅ合同会社,,合同会社,静岡県,焼津市,塩津１５３番地の１７,,22,212,4250085,,,,,,,2025-04-04,1,,,,,ペレアヌエ,0
1666,7080005007679,新規,0,2025-04-04,2025-04-04,一般社団法人ＳＡＧＡＲＡ　ＦＣ,,その他の設立登記法人,静岡県,牧之原市,福岡２０８番地１,,22,226,4210521,,,,,,,2025-04-04,1,,,,,サガラエフシー,0
1675,7120001274434,新規,0,2025-04-04,2025-04-04,株式会社ＯＦＦＩＣＥ　ＦＡＮ,,株式会社,大阪府,大阪市中央区,上町１丁目２０番２０号,,27,128,5400005,,,,,,,2025-04-04,1,,,,,オフィスファン,0
1676,7120001274517,新規,0,2025-04-04,2025-04-04,株式会社Ａｅｓｔｈｅｔｉｃｉｓｍ,,株式会社,大阪府,大阪市中央区,安堂寺町２丁目３番８－１２０３号,,27,128,5420061,,,,,,,2025-04-04,1,,,,,エステティシズム,0
1677,7120003029019,新規,0,2025-04-04,2025-04-04,ＣＥＮＴＥＲ　ＯＦ　ＵＮＩＶＥＲＳＥ合同会社,,合同会社,大阪府,大阪市阿倍野区,阪南町３丁目１８番２６号,,27,119,5450021,,,,,,,2025-04-04,1,,,,,センターオブユニバース,0
1678,7120003029142,新規,0,2025-04-04,2025-04-04,合同会社ＳＹｎＣＳ,,合同会社,大阪府,大阪市天王寺区,小橋町１４番５４‐１３０３号,,27,109,5430028,,,,,,,2025-04-04,1,,,,,シンクス,0
1680,7120005024868,新規,0,2025-04-04,2025-04-04,一般社団法人日本園芸療法学会,,その他の設立登記法人,大阪府,大阪市西区,土佐堀１丁目４番８号,,27,106,5500001,,,,,,,2025-04-04,1,,,,,ニホンエンゲイリョウホウガッカイ,0
1683,7120103006363,新規,0,2025-04-04,2025-04-04,合同会社夢来人,,合同会社,大阪府,貝塚市,澤１３５４番地１１,,27,208,5970062,,,,,,,2025-04-04,1,,,,,ムラビト,0
1684,7120103006371,新規,0,2025-04-04,2025-04-04,合同会社Ｆｏｒｅｖｅｒ,,合同会社,大阪府,和泉市,室堂町５番地の１,,27,219,5941101,,,,,,,2025-04-04,1,,,,,フォーエバー,0
1690,7122001038934,新規,0,2025-04-04,2025-04-04,株式会社Ｙ＆Ｗ,,株式会社,大阪府,八尾市,若林町２丁目２６－５－３０１,,27,212,5810038,,,,,,,2025-04-04,1,,,,,ワイアンドダブリュー,0
1691,7122005003819,新規,0,2025-04-04,2025-04-04,一般社団法人Ａｌｉｖｅ,,その他の設立登記法人,大阪府,東大阪市,池島町３丁目１２－３３,,27,227,5798064,,,,,,,2025-04-04,1,,,,,アライブ,0
1696,7130003010340,新規,0,2025-04-04,2025-04-04,合同会社樫,,合同会社,京都府,京都市右京区,太秦安井西裏町１番地,,26,108,6168065,,,,,,,2025-04-04,1,,,,,カタギ,0
1697,7130005017326,新規,0,2025-04-04,2025-04-04,一般社団法人Ｉｎｔｅｒｎａｔｉｏｎａｌ　Ｕｒｕｓｈｉ　Ａｓｓｏｃｉａｔｉｏｎ,,その他の設立登記法人,京都府,京都市下京区,若宮通五条上る布屋町８３番地１,,26,106,6008454,,,,,,,2025-04-04,1,,,,,インターナショナルウルシアソシエーション,0
1704,7140001138067,新規,0,2025-04-04,2025-04-04,株式会社ＳＭＣ,,株式会社,兵庫県,神戸市北区,有野町唐櫃３３３３番地の２,,28,109,6511331,,,,,,,2025-04-04,1,,,,,エスエムシー,0
1705,7140001138100,新規,0,2025-04-04,2025-04-04,三栄産商九州株式会社,,株式会社,兵庫県,神戸市長田区,駒ヶ林南町１番８０号三栄産商ビル,,28,106,6530045,,,,,,,2025-04-04,1,,,,,サンエイサンショウキュウシュウ,0
1708,7140003021865,新規,0,2025-04-04,2025-04-04,合同会社ハルモニア,,合同会社,兵庫県,神戸市中央区,海岸通５丁目２番２－９０６号,,28,110,6500024,,,,,,,2025-04-04,1,,,,,ハルモニア,0
1709,7150001028003,新規,0,2025-04-04,2025-04-04,株式会社稲冨設備,,株式会社,奈良県,生駒市,小倉寺町５７８番地１,,29,209,6300232,,,,,,,2025-04-04,1,,,,,イナトミセツビ,0
1710,7150001028011,新規,0,2025-04-04,2025-04-04,株式会社ＴＭゴルフアカデミー,,株式会社,奈良県,香芝市,磯壁３丁目４０番地１,,29,210,6390236,,,,,,,2025-04-04,1,,,,,ティーエムゴルフアカデミー,0
1711,7150005009684,新規,0,2025-04-04,2025-04-04,一般社団法人光明寺子屋,,その他の設立登記法人,奈良県,吉野郡大淀町,大字下渕８７９番地,,29,442,6380821,,,,,,,2025-04-04,1,,,,,コウミョウテラコヤ,0
1712,7160001026666,新規,0,2025-04-04,2025-04-04,株式会社実来,,株式会社,滋賀県,草津市,平井１丁目４－２４平井テナントＡ,,25,206,5250023,,,,,,,2025-04-04,1,,,,,ミライ,0
1719,7180001166114,新規,0,2025-04-04,2025-04-04,株式会社ひとで,,株式会社,愛知県,名古屋市中区,栄２丁目１６－２１アネシア栄ＴＨＥＣＩＴＹ５０４,,23,106,4600008,,,,,,,2025-04-04,1,,,,,ヒトデ,0
1720,7180001166147,新規,0,2025-04-04,2025-04-04,株式会社カステルム,,株式会社,愛知県,名古屋市中区,新栄３丁目１４番６号,,23,106,4600007,,,,,,,2025-04-04,1,,,,,カステルム,0
1724,7180003028238,新規,0,2025-04-04,2025-04-04,タカフジ合同会社,,合同会社,愛知県,名古屋市千種区,西山元町２丁目３番地の１,,23,101,4640063,,,,,,,2025-04-04,1,,,,,タカフジ,0
1725,7180003028246,新規,0,2025-04-04,2025-04-04,リオハート合同会社,,合同会社,愛知県,春日井市,妙慶町２丁目１４７番地２タウン８８（２０２号）,,23,206,4860928,,,,,,,2025-04-04,1,,,,,リオハート,0
1726,7180003028262,新規,0,2025-04-04,2025-04-04,合同会社ＫＡＷＡＧＯＥ,,合同会社,愛知県,名古屋市中区,丸の内２丁目１６番４号,,23,106,4600002,,,,,,,2025-04-04,1,,,,,カワゴエ,0
1727,7180003028270,新規,0,2025-04-04,2025-04-04,合同会社フリージア,,合同会社,愛知県,名古屋市瑞穂区,宝田町３丁目４番地,,23,108,4670866,,,,,,,2025-04-04,1,,,,,フリージア,0
1728,7180005021018,新規,0,2025-04-04,2025-04-04,一般社団法人淳徳会,,その他の設立登記法人,愛知県,小牧市,小木南２丁目３２番地,,23,219,4850056,,,,,,,2025-04-04,1,,,,,ジュントクカイ,0
1729,7180005021034,新規,0,2025-04-04,2025-04-04,一般社団法人Ｆａｒｍ　ｔｏ　Ｔａｂｌｅ農と食をつなぐ,,その他の設立登記法人,愛知県,大府市,共和町１丁目９番地の１,,23,223,4740061,,,,,,,2025-04-04,1,,,,,ファームトゥーテーブルノウトショクヲツナグ,0
1730,7180005021042,新規,0,2025-04-04,2025-04-04,一般社団法人ひなたのお守り,,その他の設立登記法人,愛知県,名古屋市港区,川間町１丁目１２０番地,,23,111,4550076,,,,,,,2025-04-04,1,,,,,ヒナタノオマモリ,0
1733,7190001032133,新規,0,2025-04-04,2025-04-04,株式会社山本開発,,株式会社,三重県,伊賀市,西之澤２４５５番地の１,,24,216,5191426,,,,,,,2025-04-04,1,,,,,ヤマトカイハツ,0
1736,7200001043582,新規,0,2025-04-04,2025-04-04,株式会社いつもレベルアップ,,株式会社,岐阜県,瑞穂市,稲里８１４番地,,21,216,5010224,,,,,,,2025-04-04,1,,,,,イツモレベルアップ,0
1737,7200003006760,新規,0,2025-04-04,2025-04-04,合同会社河合牧場,,合同会社,岐阜県,関市,上之保１６５４０番地１,,21,205,5013601,,,,,,,2025-04-04,1,,,,,カワイボクジョウ,0
1741,7230001020819,新規,0,2025-04-04,2025-04-04,株式会社桂書房,,株式会社,富山県,富山市,北代３６８３番地１１,,16,201,9300103,,,,,,,2025-04-04,1,,,,,カツラショボウ,0
1743,7230003002402,新規,0,2025-04-04,2025-04-04,合同会社ＶＩＶＩｅｎｄｏ‐ｒｉｃｏ,,合同会社,富山県,富山市,二口町４丁目２‐２ベルパティオＡ,,16,201,9398211,,,,,,,2025-04-04,1,,,,,ヴィヴィアンドリコ,0
1744,7230005009453,新規,0,2025-04-04,2025-04-04,医療法人社団こばやし眼科クリニック,,その他の設立登記法人,富山県,富山市,上袋５３１番地１,,16,201,9398071,,,,,,,2025-04-04,1,,,,,コバヤシガンカクリニック,0
1746,7240001064749,新規,0,2025-04-04,2025-04-04,株式会社クルミワークス,,株式会社,広島県,広島市安芸区,中野２丁目３７番３８号,,34,107,7390321,,,,,,,2025-04-04,1,,,,,クルミワークス,0
1747,7240001064765,新規,0,2025-04-04,2025-04-04,株式会社リスタート,,株式会社,広島県,広島市西区,己斐上１丁目６番２－２０３号,,34,104,7330815,,,,,,,2025-04-04,1,,,,,リスタート,0
1749,7250003003687,新規,0,2025-04-04,2025-04-04,合同会社フタバ工芸社,,合同会社,山口県,下関市,生野町２丁目３０番３－５０１号,,35,201,7510832,,,,,,,2025-04-04,1,,,,,フタバコウゲイシャ,0
1752,7260001040079,新規,0,2025-04-04,2025-04-04,株式会社Ｆａｍｍｉ,,株式会社,岡山県,岡山市北区,問屋町１４番地１０４,,33,101,7000977,,,,,,,2025-04-04,1,,,,,ファミ,0
1757,7290001109508,新規,0,2025-04-04,2025-04-04,株式会社スリーウェイ,,株式会社,福岡県,福津市,渡１５０９番地４１,,40,224,8113307,,,,,,,2025-04-04,1,,,,,スリーウェイ,0
1758,7290001109516,新規,0,2025-04-04,2025-04-04,三嘉株式会社,,株式会社,福岡県,福岡市東区,松島２丁目１－５Ｊ－ＰＬＡＮＺ３０５,,40,131,8120062,,,,,,,2025-04-04,1,,,,,,0
1759,7290001109540,新規,0,2025-04-04,2025-04-04,株式会社Ａ．クローバー,,株式会社,福岡県,福岡市博多区,東光寺町１丁目１番８号３０１号,,40,132,8120896,,,,,,,2025-04-04,1,,,,,エイドットクローバー,0
1763,7290003016628,新規,0,2025-04-04,2025-04-04,合同会社温志,,合同会社,福岡県,福岡市中央区,浄水通１番１８号,,40,133,8100028,,,,,,,2025-04-04,1,,,,,アツコ,0
1764,7290005019703,新規,0,2025-04-04,2025-04-04,一般財団法人八女工業高等学校同窓会奨学財団,,その他の設立登記法人,福岡県,筑後市,大字羽犬塚２９９番地,00138567,40,211,8330003,,,,,,,2025-04-04,1,,,,,ヤメコウギョウコウトウガッコウドウソウカイショウガクザイダン,0
1768,7300003002262,新規,0,2025-04-04,2025-04-04,合同会社ＦｅｅＬ,,合同会社,佐賀県,佐賀市,神園３丁目１番２号,,41,201,8400806,,,,,,,2025-04-04,1,,,,,フィール,0
1771,7320001021031,新規,0,2025-04-04,2025-04-04,株式会社Ａｎｙ‐Ｏｎｅ,,株式会社,大分県,大分市,向原西１丁目３－３９－１西ノ洲ビル２０１－２号室,,44,201,8700905,,,,,,,2025-04-04,1,,,,,エニーワン,0
1772,7330001033034,新規,0,2025-04-04,2025-04-04,株式会社モノファクトリー九州,,株式会社,熊本県,熊本市中央区,桜町４番３号,,43,101,8600805,,,,,,,2025-04-04,1,,,,,モノファクトリーキュウシュウ,0
1773,7330001033042,新規,0,2025-04-04,2025-04-04,株式会社ラストスパート,,株式会社,熊本県,阿蘇市,一の宮町宮地７５番地,,43,214,8692612,,,,,,,2025-04-04,1,,,,,ラストスパート,0
1774,7330001033050,新規,0,2025-04-04,2025-04-04,株式会社みなくち,,株式会社,熊本県,熊本市東区,画図町大字所島１７９番地１６,,43,102,8620946,,,,,,,2025-04-04,1,,,,,ミナクチ,0
1775,7330003010923,新規,0,2025-04-04,2025-04-04,合同会社ＬＥＯ,,合同会社,熊本県,熊本市東区,戸島２丁目４番８６号,,43,102,8618041,,,,,,,2025-04-04,1,,,,,レオ,0
1781,7340003004809,新規,0,2025-04-04,2025-04-04,出水ウィンドファーム合同会社,,合同会社,鹿児島県,出水市,中央町１２５４セレーノＩＩ,00138573,46,208,8990207,,,,,,,2025-04-04,1,,,,,イズミウィンドファーム,0
1782,7350001019460,新規,0,2025-04-04,2025-04-04,株式会社日南ファーム,,株式会社,宮崎県,日南市,北郷町北河内４８２４番地８,,45,204,8892403,,,,,,,2025-04-04,1,,,,,ニチナンファーム,0
1783,7350001019469,新規,0,2025-04-04,2025-04-04,株式会社ＮＡＲＩＭＡＴＳＵ,,株式会社,宮崎県,東諸県郡国富町,大字本庄４０４６番地,,45,382,8801101,,,,,,,2025-04-04,1,,,,,ナリマツ,0
1784,7350005006298,新規,0,2025-04-04,2025-04-04,特定非営利活動法人結びの会明後日,,その他の設立登記法人,宮崎県,都城市,上水流町２３７５番地２,,45,202,8851103,,,,,,,2025-04-04,1,,,,,ムスビノカイアサッテ,0
1787,7360003014814,新規,0,2025-04-04,2025-04-04,ＭＩＲＡＩＪＩＭＡ合同会社,,合同会社,沖縄県,中頭郡嘉手納町,水釜６丁目１６－１,,47,325,9040204,,,,,,,2025-04-04,1,,,,,ミライジマ,0
1789,7370001052410,新規,0,2025-04-04,2025-04-04,株式会社エムエスファーム,,株式会社,宮城県,黒川郡大和町,落合松坂字釜ノ沢５２番地の１,,04,421,9813407,,,,,,,2025-04-04,1,,,,,エムエスファーム,0
1790,7370001052419,新規,0,2025-04-04,2025-04-04,株式会社五勝,,株式会社,宮城県,角田市,岡字東沢３番地１,,04,208,9811524,,,,,,,2025-04-04,1,,,,,ゴショウ,0
1791,7370001052427,新規,0,2025-04-04,2025-04-04,ＴＳ・ＳＴＡＲＳ株式会社,,株式会社,宮城県,仙台市青葉区,西勝山２３番３５号,,04,101,9810953,,,,,,,2025-04-04,1,,,,,ティーエススターズ,0
1792,7370001052451,新規,0,2025-04-04,2025-04-04,株式会社スガワラエンジニアリング,,株式会社,宮城県,多賀城市,笠神２丁目１０番３号,,04,209,9850831,,,,,,,2025-04-04,1,,,,,スガワラエンジニアリング,0
1798,7410001014117,新規,0,2025-04-04,2025-04-04,ヤマダ商事株式会社,,株式会社,秋田県,大仙市,大曲日の出町２丁目１番７号,,05,212,0140063,,,,,,,2025-04-04,1,,,,,ヤマダショウジ,0
1800,7410003004074,新規,0,2025-04-04,2025-04-04,合同会社菅原農園,,合同会社,秋田県,雄勝郡羽後町,田沢字長橋４３番地,,05,463,0121134,,,,,,,2025-04-04,1,,,,,スガワラノウエン,0
1803,7430001094082,新規,0,2025-04-04,2025-04-04,株式会社柴田工業,,株式会社,北海道,小樽市,住ノ江１丁目４番１９号,,01,203,0470014,,,,,,,2025-04-04,1,,,,,シバタコウギョウ,0
1808,7450001014583,新規,0,2025-04-04,2025-04-04,株式会社Ｒｅｂｏｒｎ　Ｍｏｔｏｒ　Ｇａｒａｇｅ,,株式会社,北海道,旭川市,豊岡十一条１丁目１番４号,,01,204,0788241,,,,,,,2025-04-04,1,,,,,リボーンモーターガレージ,0
1811,7460101007692,新規,0,2025-04-04,2025-04-04,北海道未来通信株式会社,,株式会社,北海道,中川郡幕別町,札内みずほ町１６０番地の７２,,01,643,0890554,,,,,,,2025-04-04,1,,,,,ホッカイドウミライツウシン,0
1816,7480001012799,新規,0,2025-04-04,2025-04-04,株式会社福永商店,,株式会社,徳島県,阿波市,阿波町北五味知１６８番地,,36,206,7711704,,,,,,,2025-04-04,1,,,,,フクナガショウテン,0
1820,7500001026219,新規,0,2025-04-04,2025-04-04,松山ジェイコンビシステム株式会社,,株式会社,愛媛県,松山市,一番町１丁目１５番２号松山一番町ビル３階,,38,201,7900001,,,,,,,2025-04-04,1,,,,,マツヤマジェイコンビシステム,0
1822,7700150129826,新規,0,2025-04-04,2025-04-04,ｘｉａｍｅｎｓｈｉｔａｓｉｍａｎｉｙａｓｈａｎｇｍａｏｙｏｕｘｉａｎｇｏｎｇｓｉ,,外国会社等,,,,,,,,Ｒｏｏｍ　７０４－３，８８　Ａｎｌｉｎｇ　２ｎｄ　Ｒｏａｄ，Ｈｕｌｉ　Ｑｕ，Ｘｉａｍｅｎ　Ｃｉｔｙ，Ｆｕｊｉａｎ　Ｐｒｏｖｉｎｃｅ,,,,,,2025-04-04,1,,,,,シャモンシトウシマニアショウボウユウゲンコウシ,0
1827,8010001253729,新規,0,2025-04-04,2025-04-04,あおぞら保証株式会社,,株式会社,東京都,文京区,千駄木３丁目４２番４号,,13,105,1130022,,,,,,,2025-04-04,1,,,,,アオゾラホショウ,0
1828,8010001253753,新規,0,2025-04-04,2025-04-04,株式会社八幡興業,,株式会社,東京都,中央区,月島２丁目１７－１,,13,102,1040052,,,,,,,2025-04-04,1,,,,,,0
1829,8010001253786,新規,0,2025-04-04,2025-04-04,Ｎｏ．１コンサルティングサービス株式会社,,株式会社,東京都,中央区,銀座６丁目１３番９号ＧＩＲＡＣＧＩＮＺＡｂｉｚｃｕｂｅ,,13,102,1040061,,,,,,,2025-04-04,1,,,,,ナンバーワンコンサルティングサービス,0
1830,8010001253811,新規,0,2025-04-04,2025-04-04,株式会社アライザーホールディングス,,株式会社,東京都,中央区,京橋２丁目７番１４号,,13,102,1040031,,,,,,,2025-04-04,1,,,,,アライザーホールディングス,0
1833,8010003046940,新規,0,2025-04-04,2025-04-04,合同会社カレッジーズ,,合同会社,東京都,千代田区,神田須田町１丁目７番８号ＶＯＲＴ秋葉原ＩＶ２Ｆ,00138569,13,101,1010041,,,,,,,2025-04-04,1,,,,,,0
1834,8010003046949,新規,0,2025-04-04,2025-04-04,エコトレード合同会社,,合同会社,東京都,中央区,日本橋室町１丁目１１番１２号日本橋水野ビル７階,,13,102,1030022,,,,,,,2025-04-04,1,,,,,エコトレード,0
1835,8010003046957,新規,0,2025-04-04,2025-04-04,ＣＥＩＳＩＥＣ　Ａｓｓｅｔ　Ｍａｎａｇｅｍｅｎｔ合同会社,,合同会社,東京都,中央区,銀座２丁目１５番２号ＫＲＧｉｎｚａＩＩ７Ｆ,00138568,13,102,1040061,,,,,,,2025-04-04,1,,,,,サイズィクアセットマネジメント,0
1843,8010401189325,新規,0,2025-04-04,2025-04-04,ケアハートガーデン株式会社,,株式会社,東京都,港区,芝公園２丁目４番１号,,13,103,1050011,,,,,,,2025-04-04,1,,,,,ケアハートガーデン,0
1844,8010401189481,新規,0,2025-04-04,2025-04-04,株式会社清水堂,,株式会社,東京都,港区,北青山１丁目３番１号アールキューブ青山３階,,13,103,1070061,,,,,,,2025-04-04,1,,,,,シミズドウ,0
1845,8010403034826,新規,0,2025-04-04,2025-04-04,合同会社ＴＩＥＳ,,合同会社,東京都,港区,南青山２丁目２－１５ＷｉｎＡｏｙａｍａビルＵＣＦ６階,,13,103,1070062,,,,,,,2025-04-04,1,,,,,タイズ,0
1846,8010405024189,新規,0,2025-04-04,2025-04-04,弁護士法人Ｓｕｎｌｉｔ,,その他の設立登記法人,東京都,港区,北青山３丁目６－７青山パラシオタワー１１階,,13,103,1070061,,,,,,,2025-04-04,1,,,,,サンリット,0
1847,8010405024197,新規,0,2025-04-04,2025-04-04,一般社団法人おもいでの記録舎,,その他の設立登記法人,東京都,港区,南青山２丁目２－１５ＷＩＮ青山５３１,,13,103,1070062,,,,,,,2025-04-04,1,,,,,オモイデノキロクシャ,0
1849,8010501053843,新規,0,2025-04-04,2025-04-04,ＳＡＫＵＲＡ　ＴＲＡＤＩＮＧ株式会社,,株式会社,東京都,台東区,台東４丁目２－１０,,13,106,1100016,,,,,,,2025-04-04,1,,,,,サクラトレーディング,0
1850,8010601067074,新規,0,2025-04-04,2025-04-04,ＫＲＴ管財株式会社,,株式会社,東京都,墨田区,太平４丁目１１番４号,,13,107,1300012,,,,,,,2025-04-04,1,,,,,ケーアールティーカンザイ,0
1854,8010701047496,新規,0,2025-04-04,2025-04-04,株式会社Ｙｕｉ　Ａｓｓｅｔ　Ｍａｎａｇｅｍｅｎｔ,,株式会社,東京都,品川区,大井１丁目６番３号,,13,109,1400014,,,,,,,2025-04-04,1,,,,,ユイアセットマネージメント,0
1858,8010801036003,新規,0,2025-04-04,2025-04-04,Ｓｏｕｌ　Ｐｕｎｃｈ１ｓｔ株式会社,,株式会社,東京都,大田区,蒲田七丁目４８番３号大越ビル３階,,13,111,1440000,,,,,,,2025-04-04,1,,,,,ソウルパンチファースト,0
1859,8010801036011,新規,0,2025-04-04,2025-04-04,株式会社ＴＥＮ　ＫＮＯＴ　ＨＯＵＳＥ,,株式会社,東京都,大田区,下丸子４丁目６番３号,,13,111,1460092,,,,,,,2025-04-04,1,,,,,テンノットハウス,0
1862,8010901057122,新規,0,2025-04-04,2025-04-04,株式会社川上祐樹写真事務所,,株式会社,東京都,世田谷区,野沢４丁目１番７－８０５号,,13,112,1540003,,,,,,,2025-04-04,1,,,,,カワカミユウキシャシンジムショ,0
1863,8010901057130,新規,0,2025-04-04,2025-04-04,株式会社ＳＹＮＯＶＡ　ＷＨＩＳＰＥＲ,,株式会社,東京都,世田谷区,三軒茶屋１丁目１５番１４－３０８号,,13,112,1540024,,,,,,,2025-04-04,1,,,,,シノヴァウィスパー,0
1868,8011001168751,新規,0,2025-04-04,2025-04-04,株式会社ＴＲ,,株式会社,東京都,渋谷区,恵比寿３丁目３４番１４号スタイルハウス恵比寿４０１,,13,113,1500013,,,,,,,2025-04-04,1,,,,,ティーアール,0
1869,8011001168801,新規,0,2025-04-04,2025-04-04,株式会社ＡＫＡＩ,,株式会社,東京都,目黒区,柿の木坂１丁目３１番９－２０３号,,13,110,1520022,,,,,,,2025-04-04,1,,,,,アカイ,0
1870,8011003021215,新規,0,2025-04-04,2025-04-04,工藤撮影企画合同会社,,合同会社,東京都,渋谷区,渋谷２丁目１９－１５宮益坂ビルディング６０９,,13,113,1500002,,,,,,,2025-04-04,1,,,,,クドウサツエイキカク,0
1871,8011003021413,新規,0,2025-04-04,2025-04-04,１０Ｐｏｃｋｅｔ合同会社,,合同会社,東京都,渋谷区,道玄坂１丁目１０番８号渋谷道玄坂東急ビル２Ｆ－Ｃ,,13,113,1500043,,,,,,,2025-04-04,1,,,,,テンポケット,0
1874,8011101111198,新規,0,2025-04-04,2025-04-04,株式会社ＴｅｃｈＪｏｕｒｎｅｙ,,株式会社,東京都,新宿区,新宿１丁目３６－２新宿第七葉山ビル３Ｆ,,13,104,1600022,,,,,,,2025-04-04,1,,,,,テックジャーニー,0
1875,8011101111297,新規,0,2025-04-04,2025-04-04,株式会社早稲田ウェルネスラボ,,株式会社,東京都,新宿区,早稲田町十二丁目５番ニュー早稲田ビル７階,,13,104,1620042,,,,,,,2025-04-04,1,,,,,ワセダウェルネスラボ,0
1881,8011301030487,新規,0,2025-04-04,2025-04-04,ＡＯＩ株式会社,,株式会社,東京都,杉並区,阿佐谷北４丁目２８－１１ダイヤマンション５０３,,13,115,1660001,,,,,,,2025-04-04,1,,,,,アオイ,0
1882,8011303005487,新規,0,2025-04-04,2025-04-04,ＭＳＲ合同会社,,合同会社,東京都,杉並区,本天沼２丁目４２番７号,,13,115,1670031,,,,,,,2025-04-04,1,,,,,エムエスアール,0
1884,8011703004188,新規,0,2025-04-04,2025-04-04,合同会社Ｑｕｉｎｄｉｍ,,合同会社,東京都,江戸川区,西瑞江３丁目３４番地４２,,13,123,1320015,,,,,,,2025-04-04,1,,,,,クインディム,0
1896,8012701018782,新規,0,2025-04-04,2025-04-04,ＭＫハウジング株式会社,,株式会社,東京都,西東京市,東町５丁目８番２号,,13,229,2020012,,,,,,,2025-04-04,1,,,,,エムケイハウジング,0
1897,8012705002460,新規,0,2025-04-04,2025-04-04,一般社団法人ＳＣＰ,,その他の設立登記法人,東京都,東村山市,栄町１丁目２番地１－２Ｆ,,13,213,1890013,,,,,,,2025-04-04,1,,,,,エスシーピー,0
1905,8021001084857,新規,0,2025-04-04,2025-04-04,株式会社ｗｉｌｌａｔｅ,,株式会社,神奈川県,厚木市,寿町２丁目１番１８号ＢＩＺｃｏｍｆｏｒｔ本厚木,,14,212,2430003,,,,,,,2025-04-04,1,,,,,ウェルエイト,0
1906,8021001084865,新規,0,2025-04-04,2025-04-04,株式会社ＷＬｉｎｋｓ,,株式会社,神奈川県,厚木市,妻田北３丁目１番１９号,,14,212,2430812,,,,,,,2025-04-04,1,,,,,リンクス,0
1907,8021001084881,新規,0,2025-04-04,2025-04-04,相模開発ホールディングス株式会社,,株式会社,神奈川県,茅ヶ崎市,東海岸四丁目２番２８号,,14,207,2530000,,,,,,,2025-04-04,1,,,,,サガミカイハツホールディングス,0
1908,8021001084898,新規,0,2025-04-04,2025-04-04,株式会社トビタ技建,,株式会社,神奈川県,鎌倉市,津１０５０番地１,,14,204,2480032,,,,,,,2025-04-04,1,,,,,トビタギケン,0
1911,8021003015819,新規,0,2025-04-04,2025-04-04,ＧＲＯＷＴＨ合同会社,,合同会社,神奈川県,鎌倉市,材木座３丁目１６－１７－３,,14,204,2480013,,,,,,,2025-04-04,1,,,,,グロース,0
1915,8030001165699,新規,0,2025-04-04,2025-04-04,株式会社Ｎ’ｓグループ,,株式会社,埼玉県,飯能市,大字唐竹６６－４,,11,209,3570127,,,,,,,2025-04-04,1,,,,,エヌズグループ,0
1916,8030001165708,新規,0,2025-04-04,2025-04-04,株式会社ＩＫＵＭＩ,,株式会社,埼玉県,所沢市,大字中富８４５番地の１０,,11,208,3590002,,,,,,,2025-04-04,1,,,,,イクミ,0
1917,8030001165749,新規,0,2025-04-04,2025-04-04,スカイシード株式会社,,株式会社,埼玉県,越谷市,南越谷４丁目１１－５トラビ南越谷６Ｆ,,11,222,3430845,,,,,,,2025-04-04,1,,,,,スカイシード,0
1918,8030001165831,新規,0,2025-04-04,2025-04-04,株式会社アストラス,,株式会社,埼玉県,蕨市,南町３丁目２５番９号,,11,223,3350003,,,,,,,2025-04-04,1,,,,,アストラス,0
1921,8040001138101,新規,0,2025-04-04,2025-04-04,雅株式会社,,株式会社,千葉県,茂原市,下永吉字柳坪台３４８番地１８,,12,210,2970035,,,,,,,2025-04-04,1,,,,,ミヤビ,0
1922,8040001138126,新規,0,2025-04-04,2025-04-04,ＹＵＫＩ　ＩＮＴＥＲＮＡＴＩＯＮＡＬ株式会社,,株式会社,千葉県,佐倉市,田町４２番地３みのりハイツ１０１,,12,212,2850012,,,,,,,2025-04-04,1,,,,,ユキインターナショナル,0
1928,8050001056426,新規,0,2025-04-04,2025-04-04,株式会社ＮＥＸＴ　ＩＮＮＯＶＡＴＩＯＮ,,株式会社,茨城県,つくば市,柴崎５０１番地２,,08,220,3050004,,,,,,,2025-04-04,1,,,,,ネクストイノベーション,0
1929,8050001056459,新規,0,2025-04-04,2025-04-04,榊フードセーフティ株式会社,,株式会社,茨城県,古河市,錦町１番２２号,,08,204,3060037,,,,,,,2025-04-04,1,,,,,サカキフードセーフティ,0
1933,8050003009175,新規,0,2025-04-04,2025-04-04,合同会社いばらき宇宙天気研究所,,合同会社,茨城県,水戸市,双葉台１丁目１４番地１号,,08,201,3114145,,,,,,,2025-04-04,1,,,,,イバラキウチュウテンキケンキュウジョ,0
1934,8050003009183,新規,0,2025-04-04,2025-04-04,合同会社ナレッジエックス,,合同会社,茨城県,つくば市,みどりの中央５５番地４,,08,220,3050882,,,,,,,2025-04-04,1,,,,,ナレッジエックス,0
1936,8050005013596,新規,0,2025-04-04,2025-04-04,医療法人社団松恵会,,その他の設立登記法人,茨城県,かすみがうら市,宍倉３６２２－４,,08,230,3000121,,,,,,,2025-04-04,1,,,,,ショウケイカイ,0
1937,8060001038076,新規,0,2025-04-04,2025-04-04,株式会社ＴＨＩＮＫＹＡ,,株式会社,栃木県,足利市,若草町２番地１２,,09,202,3260024,,,,,,,2025-04-04,1,,,,,シンキャ,0
1938,8060001038084,新規,0,2025-04-04,2025-04-04,新小山カントリー倶楽部株式会社,,株式会社,栃木県,小山市,大字喜沢１１４０番地,,09,208,3230014,,,,,,,2025-04-04,1,,,,,シンオヤマカントリークラブ,0
1939,8060003005495,新規,0,2025-04-04,2025-04-04,合同会社ツナギ,,合同会社,栃木県,宇都宮市,菊水町５番１６号サーパス明保野公園６０５号室,,09,201,3200844,,,,,,,2025-04-04,1,,,,,ツナギ,0
1941,8070001042795,新規,0,2025-04-04,2025-04-04,株式会社フェイスワークス,,株式会社,群馬県,みどり市,笠懸町鹿３１６１－１１,,10,212,3792313,,,,,,,2025-04-04,1,,,,,フェイスワークス,0
1943,8070005010377,新規,0,2025-04-04,2025-04-04,医療法人社団エタプリ会,,その他の設立登記法人,群馬県,高崎市,通町４４番地ＨＡＪＩＭＥＢＬＤ２階,,10,202,3700053,,,,,,,2025-04-04,1,,,,,エタプリカイ,0
1944,8080005007686,新規,0,2025-04-04,2025-04-04,一般社団法人セイージー,,その他の設立登記法人,静岡県,牧之原市,片浜１２１６番地１,,22,226,4210511,,,,,,,2025-04-04,1,,,,,セイージー,0
1950,8090001019197,新規,0,2025-04-04,2025-04-04,株式会社ＭＡＤＯＫＡ,,株式会社,山梨県,甲府市,大里町３７２７番地４,,19,201,4000053,,,,,,,2025-04-04,1,,,,,マドカ,0
1951,8100003008064,新規,0,2025-04-04,2025-04-04,椰香堂合同会社,,合同会社,長野県,上田市,中央３丁目１４番２３号山田ビル２Ｆ,,20,203,3860012,,,,,,,2025-04-04,1,,,,,ヤコウドウ,0
1953,8110001039176,新規,0,2025-04-04,2025-04-04,株式会社ＳＫＦ新潟,,株式会社,新潟県,新潟市中央区,東大通２丁目２番９－７０８号,,15,103,9500087,,,,,,,2025-04-04,1,,,,,エスケーエフニイガタ,0
1967,8120001274210,新規,0,2025-04-04,2025-04-04,つばめ株式会社,,株式会社,大阪府,大阪市中央区,日本橋１丁目３番６号日本一ビル２０２号室,,27,128,5420073,,,,,,,2025-04-04,1,,,,,ツバメ,0
1968,8120001274227,新規,0,2025-04-04,2025-04-04,ＲＬ　Ｐｒｏｐｅｒｔｙ株式会社,,株式会社,大阪府,大阪市中央区,材木町１－６第１２新興ビル３０５号室,,27,128,5400010,,,,,,,2025-04-04,1,,,,,アールエルプロパティ,0
1970,8120003029018,新規,0,2025-04-04,2025-04-04,合同会社ｆｏｒ　ｙｏｕ,,合同会社,大阪府,大阪市東淀川区,豊里１丁目５番１９号サニーハイツ伍晃５０２号,,27,114,5330013,,,,,,,2025-04-04,1,,,,,フォーユー,0
1971,8120003029026,新規,0,2025-04-04,2025-04-04,合同会社ＹＳ　Ｏｕｔ　ｏｆ　Ｃｉｒｃｌｅ,,合同会社,大阪府,大阪市北区,国分寺１丁目２－３１－１１０６,,27,127,5310064,,,,,,,2025-04-04,1,,,,,ワイエスアウトオブサークル,0
1972,8120005024875,新規,0,2025-04-04,2025-04-04,一般社団法人日本光画会,,その他の設立登記法人,大阪府,大阪市鶴見区,安田４丁目４番１４号,,27,124,5380032,,,,,,,2025-04-04,1,,,,,ニホンコウガカイ,0
1973,8120005024883,新規,0,2025-04-04,2025-04-04,一般社団法人関西テニス協会,,その他の設立登記法人,大阪府,大阪市西区,靱本町２丁目１番１４号靱テニスセンター内,,27,106,5500004,,,,,,,2025-04-04,1,,,,,カンサイテニスキョウカイ,0
1977,8120101071391,新規,0,2025-04-04,2025-04-04,安星株式会社,,株式会社,大阪府,堺市東区,日置荘西町１丁５番１２号,,27,143,5998114,,,,,,,2025-04-04,1,,,,,アンセイ,0
1979,8120103006362,新規,0,2025-04-04,2025-04-04,合同会社Ｎフーズ,,合同会社,大阪府,和泉市,のぞみ野２丁目１３７８番地５,,27,219,5941105,,,,,,,2025-04-04,1,,,,,エヌフーズ,0
1980,8120103006370,新規,0,2025-04-04,2025-04-04,合同会社ＭｙＦａｃｅ,,合同会社,大阪府,和泉市,室堂町５番地の１,,27,219,5941101,,,,,,,2025-04-04,1,,,,,マイフェイス,0
1981,8120103006379,新規,0,2025-04-04,2025-04-04,ＴＯＤＯ合同会社,,合同会社,大阪府,堺市堺区,大仙町４番１２号,,27,141,5900035,,,,,,,2025-04-04,1,,,,,トウドウ,0
1983,8120903005605,新規,0,2025-04-04,2025-04-04,合同会社ＯＲＥＬＡ,,合同会社,大阪府,高槻市,登町１３番５号,,27,207,5690046,,,,,,,2025-04-04,1,,,,,オレラ,0
1984,8122001039056,新規,0,2025-04-04,2025-04-04,株式会社ウイルＶＩＩ,,株式会社,大阪府,東大阪市,徳庵本町１番１３号,,27,227,5770001,,,,,,,2025-04-04,1,,,,,ウイルセブン,0
1988,8130005017333,新規,0,2025-04-04,2025-04-04,一般社団法人Ｓｐｒｉｎｇｅｔ,,その他の設立登記法人,京都府,京都市下京区,西洞院通五条上る八幡町５２７番地１－９０３号,,26,106,6008455,,,,,,,2025-04-04,1,,,,,スプリンゲット,0
1995,8140001138009,新規,0,2025-04-04,2025-04-04,株式会社ＩＧＢ,,株式会社,兵庫県,西宮市,荒木町２１番地１４号,,28,204,6638025,,,,,,,2025-04-04,1,,,,,アイジービー,0
1996,8140005027439,新規,0,2025-04-04,2025-04-04,一般社団法人三田市国際交流協会,,その他の設立登記法人,兵庫県,三田市,横山町９番１号,,28,219,6691534,,,,,,,2025-04-04,1,,,,,サンダシコクサイコウリュウキョウカイ,0
1998,8150001028002,新規,0,2025-04-04,2025-04-04,株式会社Ｒｅ．ｐｌａｙｓ,,株式会社,奈良県,奈良市,二条町１丁目１番６０号,,29,201,6308002,,,,,,,2025-04-04,1,,,,,リプレイス,0
1999,8150001028010,新規,0,2025-04-04,2025-04-04,株式会社Ｌｕｎａ　Ｃｒｅｃｉｅｎｔｅ,,株式会社,奈良県,奈良市,角振町２６いせやビル５１４,,29,201,6308224,,,,,,,2025-04-04,1,,,,,ルナクレシエンテ,0
2001,8170001018554,新規,0,2025-04-04,2025-04-04,サイキ建設株式会社,,株式会社,和歌山県,和歌山市,古屋１２５番地２,,30,201,6408435,,,,,,,2025-04-04,1,,,,,サイキケンセツ,0
2017,8180001166105,新規,0,2025-04-04,2025-04-04,株式会社ＴＭ物流,,株式会社,愛知県,名古屋市北区,上飯田南町５丁目１１６番地ディーズコート１１－４０１,,23,103,4620804,,,,,,,2025-04-04,1,,,,,ティーエムブツリュウ,0
2018,8180001166113,新規,0,2025-04-04,2025-04-04,ｍｅｍｅ株式会社,,株式会社,愛知県,名古屋市緑区,横吹町１４０８,,23,114,4580816,,,,,,,2025-04-04,1,,,,,ミーム,0
2019,8180001166146,新規,0,2025-04-04,2025-04-04,株式会社エスヨン,,株式会社,愛知県,名古屋市南区,赤坪町２１３番地の１,,23,112,4570024,,,,,,,2025-04-04,1,,,,,エスヨン,0
2020,8180001166220,新規,0,2025-04-04,2025-04-04,明邦ビルディング株式会社,,株式会社,愛知県,一宮市,三条字墓北５８番地１,,23,203,4940003,,,,,,,2025-04-04,1,,,,,メイホウビルディング,0
2025,8180003028253,新規,0,2025-04-04,2025-04-04,アサヒ商会合同会社,,合同会社,愛知県,尾張旭市,霞ケ丘町北３７番地５,,23,226,4880847,,,,,,,2025-04-04,1,,,,,アサヒショウカイショウカイ,0
2026,8180005021017,新規,0,2025-04-04,2025-04-04,Ａｔｓｕｔａ社会保険労務士法人,,その他の設立登記法人,愛知県,名古屋市中区,栄１丁目２３番２９号サンハイツ伏見２Ｆ,,23,106,4600008,,,,,,,2025-04-04,1,,,,,アツタ,0
2031,8190001032116,新規,0,2025-04-04,2025-04-04,オフィスデイズ株式会社,,株式会社,三重県,津市,本町１３番３号,,24,201,5140831,,,,,,,2025-04-04,1,,,,,オフィスデイズ,0
2032,8190001032124,新規,0,2025-04-04,2025-04-04,Ｋ‐４ｒｅｓｔ株式会社,,株式会社,三重県,名張市,栄町２９３５番地２２‐４ｒｅｓｔＢＬＤ．,,24,208,5180719,,,,,,,2025-04-04,1,,,,,ケイフォレスト,0
2033,8190001032132,新規,0,2025-04-04,2025-04-04,株式会社ｉｒｉｓ,,株式会社,三重県,四日市市,富田３丁目１５番２７号,,24,202,5108014,,,,,,,2025-04-04,1,,,,,アイリス,0
2035,8200001043581,新規,0,2025-04-04,2025-04-04,株式会社Ｔ‐Ｓｐｈｅｒｅ,,株式会社,岐阜県,多治見市,大畑町５丁目９番地の４０,,21,204,5070818,,,,,,,2025-04-04,1,,,,,ティースフィア,0
2036,8200001043615,新規,0,2025-04-04,2025-04-04,株式会社リインフィット,,株式会社,岐阜県,不破郡垂井町,１１０１‐４ＴＯＮＡＲＩＧＡＫＡＷＡ４,,21,361,5032121,,,,,,,2025-04-04,1,,,,,リインフィット,0
2037,8200003006768,新規,0,2025-04-04,2025-04-04,加納建材合同会社,,合同会社,岐阜県,揖斐郡大野町,大字野１６５９番地７,,21,403,5010504,,,,,,,2025-04-04,1,,,,,カノウケンザイ,0
2040,8220001026592,新規,0,2025-04-04,2025-04-04,株式会社Ｃｈｏｕ　ｃｈｏｕ,,株式会社,石川県,金沢市,中村町２４番１５号,,17,201,9218022,,,,,,,2025-04-04,1,,,,,シュシュ,0
2042,8230001020818,新規,0,2025-04-04,2025-04-04,株式会社ＲＹＯ　ＮＩＳＨＩＯ,,株式会社,富山県,中新川郡立山町,向新庄１０９番地１,,16,323,9300255,,,,,,,2025-04-04,1,,,,,リョウニシオ,0
2043,8230005009452,新規,0,2025-04-04,2025-04-04,一般社団法人スライブ,,その他の設立登記法人,富山県,富山市,豊丘町２９番１７号,,16,201,9318316,,,,,,,2025-04-04,1,,,,,スライブ,0
2045,8240001064748,新規,0,2025-04-04,2025-04-04,ＷＡ・Ｉコンサル株式会社,,株式会社,広島県,尾道市,高須町１４４３番地３－３号,,34,205,7290141,,,,,,,2025-04-04,1,,,,,ワイコンサル,0
2046,8240001064756,新規,0,2025-04-04,2025-04-04,株式会社島田工業,,株式会社,広島県,広島市西区,庚午中１丁目３番３４号,,34,104,7330822,,,,,,,2025-04-04,1,,,,,シマダコウギョウ,0
2047,8240001064772,新規,0,2025-04-04,2025-04-04,株式会社Ｌｏｃａｌ　Ｕｎｉｖｅｒｓｅ,,株式会社,広島県,広島市佐伯区,湯来町大字多田５２０番地,,34,108,7380721,,,,,,,2025-04-04,1,,,,,ローカルユニバース,0
2051,8240005015929,新規,0,2025-04-04,2025-04-04,ＮＰＯ法人玉響,,その他の設立登記法人,広島県,広島市佐伯区,五日市町大字石内甲３９６３番地,,34,108,7315102,,,,,,,2025-04-04,1,,,,,タマユラ,0
2052,8250001021070,新規,0,2025-04-04,2025-04-04,株式会社ＰＬＡＺキャピタル,,株式会社,山口県,岩国市,岩国１丁目１４番２１号,,35,208,7410062,,,,,,,2025-04-04,1,,,,,プラズキャピタル,0
2053,8250001021079,新規,0,2025-04-04,2025-04-04,スリーエフ株式会社,,株式会社,山口県,下関市,一の宮町１丁目３番４０－１２０５号,,35,201,7510806,,,,,,,2025-04-04,1,,,,,スリーエフ,0
2055,8250005008997,新規,0,2025-04-04,2025-04-04,一般社団法人はあとライン,,その他の設立登記法人,山口県,山口市,吉敷中東１丁目１番１号,,35,203,7530813,,,,,,,2025-04-04,1,,,,,ハアトライン,0
2056,8260001040061,新規,0,2025-04-04,2025-04-04,ＬＩＦＥ　ＰＯＲＴ株式会社,,株式会社,岡山県,総社市,井手９６２番地４,,33,208,7191125,,,,,,,2025-04-04,1,,,,,ライフポート,0
2060,8280001009393,新規,0,2025-04-04,2025-04-04,株式会社ＴＯＭＯＳＨＩＢＩ,,株式会社,島根県,松江市,大庭町３５６番地４,,32,201,6900033,,,,,,,2025-04-04,1,,,,,トモシビ,0
2064,8290001109440,新規,0,2025-04-04,2025-04-04,株式会社リレーション,,株式会社,福岡県,福岡市南区,三宅３丁目２３番８号,,40,134,8111344,,,,,,,2025-04-04,1,,,,,リレーション,0
2065,8290001109523,新規,0,2025-04-04,2025-04-04,セムＡＩソリューション株式会社,,株式会社,福岡県,福岡市東区,多の津１丁目１０番８号,,40,131,8130034,,,,,,,2025-04-04,1,,,,,セムエーアイソリューション,0
2067,8290003016627,新規,0,2025-04-04,2025-04-04,カラトラバ合同会社,,合同会社,福岡県,福岡市城南区,荒江１丁目３１番２２－１０２号ハーベスト荒江ＩＩ,00138574,40,136,8140101,,,,,,,2025-04-04,1,,,,,カラトラバ,0
2070,8290801031422,新規,0,2025-04-04,2025-04-04,株式会社山根工業,,株式会社,福岡県,遠賀郡芦屋町,大字山鹿８７２番地８,,40,381,8070141,,,,,,,2025-04-04,1,,,,,ヤマネコウギョウ,0
2072,8290803005011,新規,0,2025-04-04,2025-04-04,萬田グループ合同会社,,合同会社,福岡県,田川市,大字弓削田３０６６番地１,,40,206,8260041,,,,,,,2025-04-04,1,,,,,マンダグループ,0
2073,8300001014135,新規,0,2025-04-04,2025-04-04,モンヴィラージュコンサル株式会社,,株式会社,佐賀県,唐津市,菜畑４０９８番地,,41,202,8470844,,,,,,,2025-04-04,1,,,,,モンヴィラージュコンサル,0
2074,8300003002261,新規,0,2025-04-04,2025-04-04,合同会社Ａｒｒａｎｇｅ,,合同会社,佐賀県,佐賀市,水ヶ江３丁目１０番４号,,41,201,8400054,,,,,,,2025-04-04,1,,,,,アレンジ,0
2075,8310005008842,新規,0,2025-04-04,2025-04-04,特定非営利活動法人りんごの樹,,その他の設立登記法人,長崎県,大村市,協和町７２８番地５,,42,205,8560820,,,,,,,2025-04-04,1,,,,,リンゴノキ,0
2077,8330001033033,新規,0,2025-04-04,2025-04-04,マテリアル技研株式会社,,株式会社,熊本県,熊本市西区,春日５丁目１番１１号,,43,103,8600047,,,,,,,2025-04-04,1,,,,,マテリアルギケン,0
2078,8330001033066,新規,0,2025-04-04,2025-04-04,株式会社ＩＲＯＤＯＲＩ,,株式会社,熊本県,菊池郡菊陽町,光の森３丁目２１番８号,,43,404,8691108,,,,,,,2025-04-04,1,,,,,イロドリ,0
2079,8340001027224,新規,0,2025-04-04,2025-04-04,株式会社Ａ０ＡＩ,,株式会社,鹿児島県,肝属郡錦江町,神川３３０６番地４,,46,490,8932301,,,,,,,2025-04-04,1,,,,,エーゼロエーアイ,0
2080,8340001027232,新規,0,2025-04-04,2025-04-04,株式会社ＦＣ霧島,,株式会社,鹿児島県,霧島市,霧島川北１６２番地６,,46,218,8994204,,,,,,,2025-04-04,1,,,,,エフシーキリシマ,0
2081,8340001027240,新規,0,2025-04-04,2025-04-04,株式会社ゴールデンサークルイノベーション,,株式会社,鹿児島県,霧島市,国分野口西１９番１０－５号,,46,218,8994343,,,,,,,2025-04-04,1,,,,,ゴールデンサークルイノベーション,0
2082,8340005009846,新規,0,2025-04-04,2025-04-04,社会保険労務士法人保崎事務所,00138593,その他の設立登記法人,鹿児島県,鹿児島市,城西１丁目２４番８号,,46,201,8900041,,,,,,,2025-04-04,1,,,,,ヤスザキジムショ,0
2083,8350001019468,新規,0,2025-04-04,2025-04-04,株式会社星倉興業,,株式会社,宮崎県,宮崎市,大字田吉４３０７番地,,45,201,8800911,,,,,,,2025-04-04,1,,,,,ホシクラコウギョウ,0
2084,8350003004889,新規,0,2025-04-04,2025-04-04,合同会社バッカナーレ,,合同会社,宮崎県,都城市,高城町穂満坊３０３６番地３,,45,202,8851202,,,,,,,2025-04-04,1,,,,,バッカナーレ,0
2086,8360003014813,新規,0,2025-04-04,2025-04-04,合同会社ＳＹＵＩ,,合同会社,沖縄県,那覇市,首里久場川町１丁目１１４－９ＡＣｌａｎ首里２０２,,47,201,9030807,,,,,,,2025-04-04,1,,,,,シュイ,0
2089,8370001052418,新規,0,2025-04-04,2025-04-04,株式会社ＮＳａｎｄＳＯＮＳ,,株式会社,宮城県,仙台市若林区,河原町１丁目４番３５号,,04,103,9840816,,,,,,,2025-04-04,1,,,,,エヌエスアンドサンズ,0
2090,8370001052442,新規,0,2025-04-04,2025-04-04,奥田工業株式会社,,株式会社,宮城県,石巻市,流留字三番囲７１番地６,,04,202,9862103,,,,,,,2025-04-04,1,,,,,オクダコウギョウ,0
2092,8370003007015,新規,0,2025-04-04,2025-04-04,合同会社ダイス,,合同会社,宮城県,石巻市,わかば２丁目４番地３,,04,202,9860867,,,,,,,2025-04-04,1,,,,,ダイス,0
2096,8390003002369,新規,0,2025-04-04,2025-04-04,合同会社ハナカネ,,合同会社,山形県,天童市,大字川原子１７０９番地の２,,06,210,9940103,,,,,,,2025-04-04,1,,,,,ハナカネ,0
2097,8400001016996,新規,0,2025-04-04,2025-04-04,栗原ホールディングス株式会社,,株式会社,岩手県,奥州市,水沢真城字南塩加羅６８番地１,,03,215,0230841,,,,,,,2025-04-04,1,,,,,クリハラホールディングス,0
2098,8400003003423,新規,0,2025-04-04,2025-04-04,雪屋地区合同会社,,合同会社,岩手県,九戸郡九戸村,大字雪屋第３地割２８番地,,03,506,0286507,,,,,,,2025-04-04,1,,,,,ユキヤチク,0
2100,8410003004073,新規,0,2025-04-04,2025-04-04,合同会社よしかタンポポプランニング,,合同会社,秋田県,大仙市,協和峰吉川字高見４７番地,,05,212,0192431,,,,,,,2025-04-04,1,,,,,ヨシカタンポポプランニング,0
2103,8430001094065,新規,0,2025-04-04,2025-04-04,株式会社ＭＰ,,株式会社,北海道,札幌市東区,北八条東１９丁目１番３２－３０１号,,01,103,0650008,,,,,,,2025-04-04,1,,,,,エムピー,0
2106,8430003017486,新規,0,2025-04-04,2025-04-04,合同会社やまさ和,,合同会社,北海道,札幌市中央区,南一条西１２丁目４－８５,,01,101,0600061,,,,,,,2025-04-04,1,,,,,ヤマサワ,0
2107,8430005015199,新規,0,2025-04-04,2025-04-04,一般財団法人Ｈｕｔ,,その他の設立登記法人,北海道,石狩郡当別町,ロイズタウン１番１ロイズコンフェクト内,,01,303,0613770,,,,,,,2025-04-04,1,,,,,ハット,0
2108,8460101007691,新規,0,2025-04-04,2025-04-04,株式会社丸正クリーン,,株式会社,北海道,河西郡中札内村,大通北５丁目１４番地,,01,638,0891310,,,,,,,2025-04-04,1,,,,,マルショウクリーン,0
2109,8460103001701,新規,0,2025-04-04,2025-04-04,合同会社アカイシホーム,,合同会社,北海道,広尾郡広尾町,並木通東２丁目１３８番地,,01,642,0892624,,,,,,,2025-04-04,1,,,,,アカイシホーム,0
2114,8490003002004,新規,0,2025-04-04,2025-04-04,合同会社ティーウィスク,,合同会社,高知県,高岡郡佐川町,永野１６６０番地１,,39,402,7891231,,,,,,,2025-04-04,1,,,,,ティーウィスク,0
2116,8500005008781,新規,0,2025-04-04,2025-04-04,一般社団法人西石井土地改良協議会,,その他の設立登記法人,愛媛県,松山市,西石井６丁目６番１８号,,38,201,7900931,,,,,,,2025-04-04,1,,,,,ニシイシイトチカイリョウキョウギカイ,0
2121,9010001253736,新規,0,2025-04-04,2025-04-04,株式会社ＱＷエナジーソリューションズ,,株式会社,東京都,千代田区,九段北４丁目３番２６号,,13,101,1020073,,,,,,,2025-04-04,1,,,,,キューダブリューエナジーソリューションズ,0
2122,9010001253760,新規,0,2025-04-04,2025-04-04,ＲＩＢＳ株式会社,,株式会社,東京都,中央区,日本橋本町２丁目３番１１号,,13,102,1030023,,,,,,,2025-04-04,1,,,,,リブス,0
2123,9010001253802,新規,0,2025-04-04,2025-04-04,株式会社ワイキューブド,,株式会社,東京都,中央区,日本橋蛎殻町１丁目２９番４号日本橋蛎殻町東急ビル５階５０２,,13,102,1030014,,,,,,,2025-04-04,1,,,,,ワイキューブド,0
2124,9010001253810,新規,0,2025-04-04,2025-04-04,株式会社研究紹介ドットコム,,株式会社,東京都,中央区,銀座１丁目１２－４Ｎ＆ＥＢＬＤ．７階,,13,102,1040061,,,,,,,2025-04-04,1,,,,,ケンキュウショウカイドットコム,0
2125,9010001253843,新規,0,2025-04-04,2025-04-04,ディテールＤ株式会社,,株式会社,東京都,中央区,銀座１丁目２２番１１号－２Ｆ,,13,102,1040061,,,,,,,2025-04-04,1,,,,,ディテールデー,0
2126,9010003046948,新規,0,2025-04-04,2025-04-04,ノザカネクスト合同会社,,合同会社,東京都,文京区,本郷４丁目２０番１４号,,13,105,1130033,,,,,,,2025-04-04,1,,,,,ノザカネクスト,0
2127,9010003046964,新規,0,2025-04-04,2025-04-04,芝総合同会社,,合同会社,東京都,中央区,銀座１丁目１２番４号６階,,13,102,1040061,,,,,,,2025-04-04,1,,,,,シバソウ,0
2131,9010101016605,新規,0,2025-04-04,2025-04-04,株式会社横山組,,株式会社,東京都,八王子市,石川町３２２５番地１ラ・リヴィエール２０３,,13,201,1920032,,,,,,,2025-04-04,1,,,,,ヨコヤマグミ,0
2139,9010401189308,新規,0,2025-04-04,2025-04-04,ＪＳＲ株式会社,,株式会社,東京都,港区,西新橋３丁目２４－５レック御成門川名ビル３０１－３０２,,13,103,1050003,,,,,,,2025-04-04,1,,,,,ジェイエスアール,0
2140,9010403034825,新規,0,2025-04-04,2025-04-04,合同会社ＳＥ・アンド・エージェンシー,,合同会社,東京都,港区,浜松町２丁目２番１５号浜松町ダイヤビル２Ｆ,,13,103,1050013,,,,,,,2025-04-04,1,,,,,エスイーアンドエージェンシー,0
2144,9010405024279,新規,0,2025-04-04,2025-04-04,一般社団法人Ｉｎｓｔｉｔｕｔｅ　ｏｆ　Ｔｒａｕｍａ　Ｒｅｃｏｖｅｒｙ,,その他の設立登記法人,東京都,港区,赤坂５丁目４番９号赤坂五丁目ビル２階,,13,103,1070052,,,,,,,2025-04-04,1,,,,,インスティテュートオブトラウマリカバリー,0
2145,9010501053891,新規,0,2025-04-04,2025-04-04,株式会社Ｎｅｒｕｍｏ,,株式会社,東京都,台東区,東上野２丁目１３番２号上野スカイビルＡ１００４,,13,106,1100015,,,,,,,2025-04-04,1,,,,,ネルモ,0
2146,9010601067073,新規,0,2025-04-04,2025-04-04,ＫＲＴアセットマネジメント株式会社,,株式会社,東京都,墨田区,太平４丁目１１番４号,,13,107,1300012,,,,,,,2025-04-04,1,,,,,ケーアールティーアセットマネジメント,0
2147,9010603011483,新規,0,2025-04-04,2025-04-04,ナリタ・フードプレイパーク合同会社,,合同会社,東京都,墨田区,押上２丁目１０番８号２０８号室,,13,107,1310045,,,,,,,2025-04-04,1,,,,,ナリタフードプレイパーク,0
2149,9010901057121,新規,0,2025-04-04,2025-04-04,株式会社フルアウト東京,,株式会社,東京都,世田谷区,中町２丁目１２番３号,,13,112,1580091,,,,,,,2025-04-04,1,,,,,フルアウトトウキョウ,0
2152,9010903009814,新規,0,2025-04-04,2025-04-04,ｌａｎｔｅｒｎ　ｉｎｎ合同会社,,合同会社,東京都,世田谷区,上祖師谷１丁目４１－４－４０６,,13,112,1570065,,,,,,,2025-04-04,1,,,,,ランタンイン,0
2153,9010903009822,新規,0,2025-04-04,2025-04-04,合同会社氏と家臣,,合同会社,東京都,世田谷区,松原１丁目５６番１９－１２０２号,,13,112,1560043,,,,,,,2025-04-04,1,,,,,ウジトカシン,0
2157,9011001168890,新規,0,2025-04-04,2025-04-04,株式会社スロウワールド,,株式会社,東京都,渋谷区,千駄ヶ谷３丁目１５番３号,,13,113,1510051,,,,,,,2025-04-04,1,,,,,スロウワールド,0
2163,9011301030486,新規,0,2025-04-04,2025-04-04,株式会社ムジラ,,株式会社,東京都,杉並区,高円寺南３丁目１－４キングスコート２Ｂ１Ｆ,,13,115,1660003,,,,,,,2025-04-04,1,,,,,ムジラ,0
2164,9011401026979,新規,0,2025-04-04,2025-04-04,株式会社ココアーク,,株式会社,東京都,板橋区,成増４丁目２４番８号,,13,119,1750094,,,,,,,2025-04-04,1,,,,,ココアーク,0
2167,9011501031895,新規,0,2025-04-04,2025-04-04,株式会社Ｐｌａｎ　Ｃ,,株式会社,東京都,北区,中里１丁目２２－５コンシェリア駒込イースト５０１,,13,117,1140015,,,,,,,2025-04-04,1,,,,,プランシー,0
2168,9011601028544,新規,0,2025-04-04,2025-04-04,株式会社ＲｅｓｔＡ,,株式会社,東京都,練馬区,練馬１丁目６番４号ラル練馬１００１,,13,120,1760001,,,,,,,2025-04-04,1,,,,,レスタ,0
2169,9011703004187,新規,0,2025-04-04,2025-04-04,合同会社ささきパートナーズ,,合同会社,東京都,江戸川区,南篠崎町３丁目１番２号渡辺ビル２階ＢＲＩＤＧＥ．ＲＯＯＭ３,,13,123,1330065,,,,,,,2025-04-04,1,,,,,ササキパートナーズ,0
2171,9011801045901,新規,0,2025-04-04,2025-04-04,株式会社ドラゴンズ,,株式会社,東京都,葛飾区,高砂５丁目２２番４号,,13,122,1250054,,,,,,,2025-04-04,1,,,,,ドラゴンズ,0
2173,9012401042933,新規,0,2025-04-04,2025-04-04,柳星張株式会社,,株式会社,東京都,狛江市,東野川１丁目３４番１５－１０２号,,13,219,2010002,,,,,,,2025-04-04,1,,,,,リュウセイチョウ,0
2176,9012801023871,新規,0,2025-04-04,2025-04-04,ふたばホーム株式会社,,株式会社,東京都,東大和市,向原６丁目１１９２番地の８,,13,220,2070013,,,,,,,2025-04-04,1,,,,,フタバホーム,0
2179,9013301054036,新規,0,2025-04-04,2025-04-04,株式会社Ｓｔｅｐ　Ｏｖｅｒ,,株式会社,東京都,豊島区,上池袋４丁目１０－８ソネット上池袋３０１,,13,116,1700012,,,,,,,2025-04-04,1,,,,,ステップオーバー,0
2180,9013303007603,新規,0,2025-04-04,2025-04-04,合同会社ＦＬＡＳＨ,,合同会社,東京都,豊島区,東池袋１丁目３４番５号いちご東池袋ビル６階,,13,116,1700013,,,,,,,2025-04-04,1,,,,,フラッシュ,0
2183,9020001162102,新規,0,2025-04-04,2025-04-04,株式会社Ｕｚｉｅｅｅｅｅ,,株式会社,神奈川県,川崎市川崎区,元木１丁目１１‐１‐７０１,,14,131,2100021,,,,,,,2025-04-04,1,,,,,ウージー,0
2185,9020005016774,新規,0,2025-04-04,2025-04-04,一般社団法人中小規模事業相互支援会,,その他の設立登記法人,神奈川県,横浜市中区,末吉町３丁目６１番地伊勢佐木町レインボーマンション１００７号室,,14,104,2310055,,,,,,,2025-04-04,1,,,,,チュウショウキボジギョウソウゴシエンカイ,0
2186,9020005016799,新規,0,2025-04-04,2025-04-04,医療法人社団颯優会,,その他の設立登記法人,神奈川県,横浜市港北区,日吉本町４丁目１６番２４号パリサンドロ１階１０２号室,,14,109,2230062,,,,,,,2025-04-04,1,,,,,ソウユウカイ,0
2189,9021001084856,新規,0,2025-04-04,2025-04-04,株式会社小林建創,,株式会社,神奈川県,伊勢原市,上粕屋４７８番地の１０,,14,214,2591141,,,,,,,2025-04-04,1,,,,,コバヤシケンソウ,0
2190,9021001084889,新規,0,2025-04-04,2025-04-04,株式会社Ｔａｉｍｅｓ　Ｃｏｎｔｉｎｕｅ,,株式会社,神奈川県,鎌倉市,城廻５２３番地３ガレージハウスＣａｓｔｅｌｌｏＲｏｏｍ３,,14,204,2470074,,,,,,,2025-04-04,1,,,,,タイムズコンテニュー,0
2193,9030001165830,新規,0,2025-04-04,2025-04-04,株式会社若林設備,,株式会社,埼玉県,八潮市,大字大曽根３１６番地１１,,11,234,3400834,,,,,,,2025-04-04,1,,,,,ワカバヤシセツビ,0
2197,9040001138117,新規,0,2025-04-04,2025-04-04,Ｓ．Ｉ　Ｌａｂ株式会社,,株式会社,千葉県,千葉市中央区,中央２丁目５－１千葉中央ツインビル２号館７階,,12,101,2600013,,,,,,,2025-04-04,1,,,,,エスアイラボ,0
2198,9040001138133,新規,0,2025-04-04,2025-04-04,株式会社ＳＴＧ,,株式会社,千葉県,山武郡横芝光町,長倉１２３４番地,,12,410,2891756,,,,,,,2025-04-04,1,,,,,エスティジー,0
2199,9040001138232,新規,0,2025-04-04,2025-04-04,株式会社ＣＯＭＰＡＳＳ,,株式会社,千葉県,千葉市緑区,おゆみ野中央４丁目１８―８―１０２,,12,105,2660032,,,,,,,2025-04-04,1,,,,,コンパス,0
2202,9050001056441,新規,0,2025-04-04,2025-04-04,株式会社比呂樹,,株式会社,茨城県,常陸太田市,山下町１２５６番地,,08,212,3130013,,,,,,,2025-04-04,1,,,,,ヒロキ,0
2203,9050001056458,新規,0,2025-04-04,2025-04-04,株式会社Ｂ＆Ｈ,,株式会社,茨城県,守谷市,小山２５８番地の１,,08,224,3020122,,,,,,,2025-04-04,1,,,,,ビーアンドエイチ,0
2205,9050003009158,新規,0,2025-04-04,2025-04-04,合同会社訪問介護事業所リアナ,,合同会社,茨城県,笠間市,片庭１４１０番地２,,08,216,3091637,,,,,,,2025-04-04,1,,,,,ホウモンカイゴジギョウショリアナ,0
2206,9060001038067,新規,0,2025-04-04,2025-04-04,株式会社ブルー製薬,,株式会社,栃木県,大田原市,中田原２０８８番地３８,,09,210,3240062,,,,,,,2025-04-04,1,,,,,ブルーセイヤク,0
2207,9060001038075,新規,0,2025-04-04,2025-04-04,アルパインテック株式会社,,株式会社,栃木県,那須塩原市,三区町５４０番地３,,09,213,3292745,,,,,,,2025-04-04,1,,,,,アルパインテック,0
2208,9060001038083,新規,0,2025-04-04,2025-04-04,株式会社Ｓ‐ＯＮＥ,,株式会社,栃木県,那須塩原市,西新町１１８番地７９２,,09,213,3250076,,,,,,,2025-04-04,1,,,,,エスワン,0
2209,9060003005494,新規,0,2025-04-04,2025-04-04,Ｆｅｌｉｓ　Ｓｅｒｖａｌ合同会社,,合同会社,栃木県,小山市,城山町１丁目２番１０号,,09,208,3230025,,,,,,,2025-04-04,1,,,,,フェリスサーバル,0
2211,9070001042786,新規,0,2025-04-04,2025-04-04,株式会社高澤造園,00138577,株式会社,群馬県,太田市,新田木崎町１４４４番地２９５,,10,205,3700321,,,,,,,2025-04-04,1,,,,,タカザワゾウエン,0
2213,9070005010368,新規,0,2025-04-04,2025-04-04,医療法人ＭＹＳ,,その他の設立登記法人,群馬県,伊勢崎市,北千木町９３１番地１,,10,204,3720032,,,,,,,2025-04-04,1,,,,,,0
2215,9080001026854,新規,0,2025-04-04,2025-04-04,スウィースト株式会社,,株式会社,静岡県,静岡市駿河区,大谷８３６番地農学総合棟４階プロジェクト実験室,,22,102,4228017,,,,,,,2025-04-04,1,,,,,スウィースト,0
2217,9080105006496,新規,0,2025-04-04,2025-04-04,一般社団法人静岡県空手道連盟,,その他の設立登記法人,静岡県,沼津市,大岡１５９５番地の８,,22,203,4100022,,,,,,,2025-04-04,1,,,,,シズオカケンカラテドウレンメイ,0
2221,9100001038467,新規,0,2025-04-04,2025-04-04,日本損害リサーチ株式会社,,株式会社,長野県,松本市,梓川梓３１５５番地２３,,20,202,3901702,,,,,,,2025-04-04,1,,,,,ニホンソンガイリサーチ,0
2222,9110003005720,新規,0,2025-04-04,2025-04-04,絆あわしま合同会社,,合同会社,新潟県,岩船郡粟島浦村,９４番地２さくらハイツ１０２号室,,15,586,9580061,,,,,,,2025-04-04,1,,,,,キズナアワシマ,0
2227,9120001274614,新規,0,2025-04-04,2025-04-04,三石国際不動産株式会社,,株式会社,大阪府,大阪市北区,本庄西１丁目１－７－１８０５室,,27,127,5310073,,,,,,,2025-04-04,1,,,,,ミツイシコクサイフドウサン,0
2228,9120003029009,新規,0,2025-04-04,2025-04-04,たまや合同会社,,合同会社,大阪府,大阪市淀川区,西中島３丁目１３－６－５Ｆ,,27,123,5320011,,,,,,,2025-04-04,1,,,,,タマヤ,0
2229,9120003029025,新規,0,2025-04-04,2025-04-04,合同会社お恭,,合同会社,大阪府,大阪市北区,堂島１丁目３－４谷安ビル４階４号,,27,127,5300003,,,,,,,2025-04-04,1,,,,,オキョウ,0
2230,9120003029033,新規,0,2025-04-04,2025-04-04,合同会社元氣堂,,合同会社,大阪府,大阪市天王寺区,勝山１丁目１０番１７号グランアッシュ四天王寺夕陽丘２０１号,,27,109,5430043,,,,,,,2025-04-04,1,,,,,ゲンキドウ,0
2231,9120005024882,新規,0,2025-04-04,2025-04-04,一般社団法人やさしい相続相談協会,,その他の設立登記法人,大阪府,守口市,竜田通２丁目５番１２－１０２号,,27,209,5700025,,,,,,,2025-04-04,1,,,,,ヤサシイソウゾクソウダンキョウカイ,0
2232,9120101071382,新規,0,2025-04-04,2025-04-04,株式会社森技建,,株式会社,大阪府,堺市西区,鳳北町８丁４４０番地１エクセル鳳１０６号,,27,144,5938328,,,,,,,2025-04-04,1,,,,,モリギケン,0
2233,9120103006361,新規,0,2025-04-04,2025-04-04,合同会社パインセブン,,合同会社,大阪府,堺市北区,野遠町５２９番地１,,27,146,5918013,,,,,,,2025-04-04,1,,,,,パインセブン,0
2234,9120901050692,新規,0,2025-04-04,2025-04-04,株式会社ｇｉｖｅ,,株式会社,大阪府,豊中市,新千里南町１丁目１番７０－２０１６号,,27,203,5600084,,,,,,,2025-04-04,1,,,,,ギブ,0
2235,9122001039055,新規,0,2025-04-04,2025-04-04,株式会社グッドライフ,,株式会社,大阪府,東大阪市,中鴻池町２丁目４－２６,,27,227,5780975,,,,,,,2025-04-04,1,,,,,グッドライフ,0
2245,9140001137975,新規,0,2025-04-04,2025-04-04,環境サーベ株式会社,,株式会社,兵庫県,神戸市須磨区,清水台１番地の９アルテピアＩＩＩ番街２－４１６号,00138591,28,107,6540123,,,,,,,2025-04-04,1,,,,,カンキョウサーベ,0
2248,9140005027438,新規,0,2025-04-04,2025-04-04,医療法人社団眞琴会,,その他の設立登記法人,兵庫県,宝塚市,口谷東１丁目２０番１２号,,28,214,6650812,,,,,,,2025-04-04,1,,,,,マコトカイ,0
2249,9140005027446,新規,0,2025-04-04,2025-04-04,一般社団法人甲子園浜安全協議会,,その他の設立登記法人,兵庫県,西宮市,甲子園浜１丁目２番１号,,28,204,6638155,,,,,,,2025-04-04,1,,,,,コウシエンハマアンゼンキョウギカイ,0
2251,9150001028001,新規,0,2025-04-04,2025-04-04,株式会社優徳,,株式会社,奈良県,奈良市,六条西３丁目１３番１６号,,29,201,6308044,,,,,,,2025-04-04,1,,,,,ユウトク,0
2252,9150005009682,新規,0,2025-04-04,2025-04-04,一般社団法人日本前庭理学療法学会,,その他の設立登記法人,奈良県,橿原市,四条町８４０番地,,29,205,6340813,,,,,,,2025-04-04,1,,,,,ニホンゼンテイリガクリョウホウガッカイ,0
2257,9170001018553,新規,0,2025-04-04,2025-04-04,株式会社だいけん,,株式会社,和歌山県,和歌山市,畑屋敷端ノ丁３４番１サンブレストビル３Ｆ,,30,201,6408393,,,,,,,2025-04-04,1,,,,,ダイケン,0
2260,9180001166104,新規,0,2025-04-04,2025-04-04,株式会社ライズＯＮＥ,,株式会社,愛知県,知多市,寺本新町１丁目１０番地（グレースマンション寺本４０１）,,23,224,4780063,,,,,,,2025-04-04,1,,,,,ライズワン,0
2261,9180001166120,新規,0,2025-04-04,2025-04-04,株式会社ＥＩＧＨＴ,,株式会社,愛知県,名古屋市千種区,池下１丁目４番８号,,23,101,4640067,,,,,,,2025-04-04,1,,,,,エイト,0
2262,9180001166129,新規,0,2025-04-04,2025-04-04,イノウファーム株式会社,,株式会社,愛知県,半田市,十一号地１８番地の２３,,23,205,4750831,,,,,,,2025-04-04,1,,,,,イノウファーム,0
2263,9180001166137,新規,0,2025-04-04,2025-04-04,株式会社Ｅ‐ＲＩＤＥ,,株式会社,愛知県,名古屋市中川区,野田２丁目４３７番地アクティブ梅村Ｃ号,,23,110,4540912,,,,,,,2025-04-04,1,,,,,イーライド,0
2264,9180001166194,新規,0,2025-04-04,2025-04-04,株式会社Ｈａｎ　Ｌｉｍｅ,,株式会社,愛知県,名古屋市中村区,名駅４丁目２４番５号第２森ビル４０１,,23,105,4500002,,,,,,,2025-04-04,1,,,,,ハンライム,0
2265,9180001166277,新規,0,2025-04-04,2025-04-04,株式会社ＳＡＫＡＫＩ不動産,,株式会社,愛知県,名古屋市名東区,高針荒田２０９番地,,23,115,4650069,,,,,,,2025-04-04,1,,,,,サカキフドウサン,0
2266,9180003028244,新規,0,2025-04-04,2025-04-04,合同会社ｒｅｃｏ‐ｓｔｙｌｅ,,合同会社,愛知県,名古屋市緑区,鳴子町２丁目６８番地ライオンズ鳴子グランヒルフォート,,23,114,4580041,,,,,,,2025-04-04,1,,,,,レコスタイル,0
2267,9180003028260,新規,0,2025-04-04,2025-04-04,合同会社デコ,,合同会社,愛知県,一宮市,大和町苅安賀字伝治越１５番地２,,23,203,4910934,,,,,,,2025-04-04,1,,,,,デコ,0
2268,9190001032115,新規,0,2025-04-04,2025-04-04,リジョナス株式会社,,株式会社,三重県,松阪市,豊原町１１１０番地４,,24,204,5150205,,,,,,,2025-04-04,1,,,,,リジョナス,0
2271,9200001043589,新規,0,2025-04-04,2025-04-04,株式会社輸送サポート,,株式会社,岐阜県,羽島市,足近町直道６６８番地５,,21,209,5016209,,,,,,,2025-04-04,1,,,,,ユソウサポート,0
2272,9200001043597,新規,0,2025-04-04,2025-04-04,Ｄｅｒｉｖｅ株式会社,,株式会社,岐阜県,岐阜市,粟野西６丁目１２２番地,,21,201,5020006,,,,,,,2025-04-04,1,,,,,ディライブ,0
2273,9200001043606,新規,0,2025-04-04,2025-04-04,株式会社武藤基礎工業,,株式会社,岐阜県,郡上市,八幡町那比８１１番地１,,21,219,5014237,,,,,,,2025-04-04,1,,,,,ムトウキソコウギョウ,0
2277,9230001020817,新規,0,2025-04-04,2025-04-04,株式会社アジャスタージャパン,,株式会社,富山県,富山市,綾田町１丁目２番３７号プライムスクエア１０２号,,16,201,9300845,,,,,,,2025-04-04,1,,,,,アジャスタージャパン,0
2278,9230001020825,新規,0,2025-04-04,2025-04-04,ブリッジブック株式会社,,株式会社,富山県,富山市,星井町３丁目４番５‐１号,,16,201,9300065,,,,,,,2025-04-04,1,,,,,ブリッジブック,0
2283,9240001064763,新規,0,2025-04-04,2025-04-04,株式会社プライムゲート,,株式会社,広島県,広島市佐伯区,五日市５丁目３番１６－４０２号,,34,108,7315127,,,,,,,2025-04-04,1,,,,,プライムゲート,0
2286,9250005008996,新規,0,2025-04-04,2025-04-04,一般社団法人山口県空手道連盟,,その他の設立登記法人,山口県,山口市,平井３９１番地１２,,35,203,7530831,,,,,,,2025-04-04,1,,,,,ヤマグチケンカラテドウレンメイ,0
2287,9260001040077,新規,0,2025-04-04,2025-04-04,株式会社サポスル,,株式会社,岡山県,倉敷市,福田町古新田１８７番地１１,,33,202,7128046,,,,,,,2025-04-04,1,,,,,サポスル,0
2289,9270003001729,新規,0,2025-04-04,2025-04-04,Ｓｈｉｒｏ　Ｕｓａｇｉ　Ｌａｂｏ合同会社,,合同会社,鳥取県,倉吉市,新町１丁目２４２４番地４,,31,203,6820861,,,,,,,2025-04-04,1,,,,,シロウサギラボ,0
2290,9280003001934,新規,0,2025-04-04,2025-04-04,合同会社八幡電工,,合同会社,島根県,大田市,仁摩町仁万８８３番地２,,32,205,6992301,,,,,,,2025-04-04,1,,,,,ヤハタデンコウ,0
2292,9290001109489,新規,0,2025-04-04,2025-04-04,株式会社ツザメン,,株式会社,福岡県,うきは市,浮羽町朝田６１－２,,40,225,8391401,,,,,,,2025-04-04,1,,,,,ツザメン,0
2293,9290001109530,新規,0,2025-04-04,2025-04-04,株式会社海苑,,株式会社,福岡県,福岡市中央区,高砂２丁目１６番２４号,,40,133,8100011,,,,,,,2025-04-04,1,,,,,カイエン,0
2296,9290003016626,新規,0,2025-04-04,2025-04-04,ＡｑｕａＷｅｓｔ合同会社,,合同会社,福岡県,福岡市早良区,内野８丁目１８,,40,137,8111123,,,,,,,2025-04-04,1,,,,,アクアウエスト,0
2297,9290005019701,新規,0,2025-04-04,2025-04-04,医療法人聖寶会,,その他の設立登記法人,福岡県,福岡市南区,長住６丁目４番６号,,40,134,8111362,,,,,,,2025-04-04,1,,,,,セイホウカイ,0
2300,9310005008841,新規,0,2025-04-04,2025-04-04,一般社団法人長崎大学アカデミックポート,,その他の設立登記法人,長崎県,長崎市,文教町１番１４号,,42,201,8528131,,,,,,,2025-04-04,1,,,,,ナガサキダイガクアカデミックポート,0
2302,9320001021038,新規,0,2025-04-04,2025-04-04,株式会社Ｇｒｓｓｌａｎｄ,,株式会社,大分県,別府市,大字浜脇６２番地の４,,44,202,8740947,,,,,,,2025-04-04,1,,,,,グラスランド,0
2303,9330001033024,新規,0,2025-04-04,2025-04-04,株式会社ＭＵＤＡ,,株式会社,熊本県,熊本市南区,白藤１丁目２０番１号,,43,104,8614112,,,,,,,2025-04-04,1,,,,,ムーダ,0
2304,9330001033040,新規,0,2025-04-04,2025-04-04,株式会社原農場,,株式会社,熊本県,菊池市,七城町亀尾２０３０番地,,43,210,8611342,,,,,,,2025-04-04,1,,,,,ハラノウジョウ,0
2305,9330001033049,新規,0,2025-04-04,2025-04-04,株式会社オガケン,,株式会社,熊本県,上益城郡益城町,大字広崎８７７番地７,,43,443,8612236,,,,,,,2025-04-04,1,,,,,オガケン,0
2306,9330001033065,新規,0,2025-04-04,2025-04-04,株式会社やまびこ,,株式会社,熊本県,阿蘇郡高森町,大字河原８６７番地,,43,428,8691826,,,,,,,2025-04-04,1,,,,,ヤマビコ,0
2310,9340001027223,新規,0,2025-04-04,2025-04-04,株式会社ベルギージャパン,,株式会社,鹿児島県,鹿児島市,千日町７番１８号コーセイビル４階,,46,201,8920843,,,,,,,2025-04-04,1,,,,,ベルギージャパン,0
2312,9350003004888,新規,0,2025-04-04,2025-04-04,合同会社ＫＭＬｉｎｋｓ,,合同会社,宮崎県,都城市,郡元３丁目１０番地１６,,45,202,8850018,,,,,,,2025-04-04,1,,,,,ケイエムリンクス,0
2313,9350005006296,新規,0,2025-04-04,2025-04-04,一般社団法人のくにラボ,,その他の設立登記法人,宮崎県,都城市,上町５街区１４号梅月堂ビル１Ｆ,,45,202,8850072,,,,,,,2025-04-04,1,,,,,ノクニラボ,0
2314,9360001034985,新規,0,2025-04-04,2025-04-04,Ｅｘｓｕｒｅ　Ｊａｐａｎ株式会社,,株式会社,沖縄県,国頭郡恩納村,字谷茶１９１９－１ＯＩＳＴＩｎｎｏｖａｔｉｏｎＣｏｒｅ,,47,311,9040412,,,,,,,2025-04-04,1,,,,,エクスシュアジャパン,0
2316,9370001052400,新規,0,2025-04-04,2025-04-04,株式会社ブリッジ,,株式会社,宮城県,仙台市青葉区,本町２丁目４番２９号,,04,101,9800014,,,,,,,2025-04-04,1,,,,,ブリッジ,0
2317,9370001052425,新規,0,2025-04-04,2025-04-04,株式会社ブライトアクラス,,株式会社,宮城県,仙台市若林区,中倉２丁目２６番１号,,04,103,9840821,,,,,,,2025-04-04,1,,,,,ブライトアクラス,0
2318,9370001052433,新規,0,2025-04-04,2025-04-04,株式会社常善時,,株式会社,宮城県,仙台市青葉区,立町２７番２１号,,04,101,9800822,,,,,,,2025-04-04,1,,,,,ジョウゼンジ,0
2320,9380001035197,新規,0,2025-04-04,2025-04-04,ＳＧ株式会社,,株式会社,福島県,岩瀬郡鏡石町,蒲之沢町３４３番地,,07,342,9690401,,,,,,,2025-04-04,1,,,,,エスジー,0
2322,9400003003422,新規,0,2025-04-04,2025-04-04,くらしのばんや合同会社,,合同会社,岩手県,大船渡市,末崎町字門之浜２０番地２,,03,203,0220001,,,,,,,2025-04-04,1,,,,,クラシノバンヤ,0
2329,9410001014107,新規,0,2025-04-04,2025-04-04,株式会社高山工業,,株式会社,秋田県,秋田市,牛島東３丁目１番５０号,,05,201,0100062,,,,,,,2025-04-04,1,,,,,タカヤマコウギョウ,0
2331,9410003004080,新規,0,2025-04-04,2025-04-04,ＳＵＮユニット合同会社,,合同会社,秋田県,秋田市,桜ガ丘５丁目３番地１５,,05,201,0100043,,,,,,,2025-04-04,1,,,,,サンユニット,0
2333,9430001094056,新規,0,2025-04-04,2025-04-04,株式会社ＮＡＶＹ,,株式会社,北海道,北広島市,共栄町４丁目１８番地１,,01,234,0611113,,,,,,,2025-04-04,1,,,,,ネイヴィー,0
2334,9430001094114,新規,0,2025-04-04,2025-04-04,株式会社ＡＬ建築工房,,株式会社,北海道,余市郡赤井川村,字池田１７９番地５,,01,409,0460521,,,,,,,2025-04-04,1,,,,,アルケンチクコウボウ,0
2336,9430003017477,新規,0,2025-04-04,2025-04-04,合同会社ｕｎ　Ｗｉｌｌｏｗ,,合同会社,北海道,札幌市中央区,大通西１７丁目２番地１８,,01,101,0600042,,,,,,,2025-04-04,1,,,,,アンウィロー,0
2337,9430005015198,新規,0,2025-04-04,2025-04-04,一般社団法人まおいのはこ,,その他の設立登記法人,北海道,夕張郡長沼町,本町北１丁目１番１号,,01,428,0691333,,,,,,,2025-04-04,1,,,,,マオイノハコ,0
2338,9450001014581,新規,0,2025-04-04,2025-04-04,株式会社Ｓｏｅｌｕ　Ｍａｒｋｅｔｉｎｇ,,株式会社,北海道,旭川市,六条通１７丁目８１番地の３ｇｕｉｌｄ６１７,,01,204,0700036,,,,,,,2025-04-04,1,,,,,ソエルマーケティング,0
2340,9460001005992,新規,0,2025-04-04,2025-04-04,カネイ板垣水産株式会社,,株式会社,北海道,川上郡弟子屈町,川湯温泉６丁目４番１１号,,01,665,0883465,,,,,,,2025-04-04,1,,,,,,0
2342,9460101007690,新規,0,2025-04-04,2025-04-04,株式会社十勝アグリフードファクトリー,,株式会社,北海道,中川郡幕別町,札内暁町２５８番地の８,,01,643,0890531,,,,,,,2025-04-04,1,,,,,トカチアグリフードファクトリー,0
2344,9470001020652,新規,0,2025-04-04,2025-04-04,１１４地域みらいデザイン株式会社,,株式会社,香川県,高松市,亀井町７番地の１５,,37,201,7600050,,,,,,,2025-04-04,1,,,,,ヒャクジュウシチイキミライデザイン,0
2350,9500001026217,新規,0,2025-04-04,2025-04-04,株式会社ゼノライズ,,株式会社,愛媛県,今治市,北高下町１丁目１番７号,,38,202,7940812,,,,,,,2025-04-04,1,,,,,ゼノライズ,0
2351,9500005008780,新規,0,2025-04-04,2025-04-04,一般社団法人居相土地改良協議会,,その他の設立登記法人,愛媛県,松山市,居相４丁目２２番５号,,38,201,7900934,,,,,,,2025-04-04,1,,,,,イアイトチカイリョウキョウギカイ,0
