sequenceNumber,corporateNumber,process,correct,updateDate,changeDate,name,nameImageId,kind,prefectureName,cityName,streetNumber,addressImageId,prefectureCode,cityCode,postCode,addressOutside,addressOutsideImageId,closeDate,closeCause,successorCorporateNumber,changeCause,assignmentDate,latest,enName,enPrefectureName,enCityName,enAddressOutside,furigana,hihyoji
13,1010001238926,登記記録の閉鎖等,0,2025-04-30,2025-04-23,株式会社ＫＭＭ,,株式会社,東京都,千代田区,紀尾井町４番１号ニューオータニガーデンコート８Ｆ税理士法人エクラコンサルティング内,,13,101,1020094,,,2025-04-23,合併による解散等,4010701006398,令和７年４月１日東京都品川区広町一丁目４番２２号株式会社寺岡製作所（4010701006398）に合併し解散,2023-10-05,1,,,,,ケーエムエム,0
17,1010401059682,登記記録の閉鎖等,0,2025-04-30,2025-04-04,三菱電機インフォメーションシステムズ株式会社,,株式会社,東京都,港区,三田３丁目５番１９号,,13,103,1080073,,,2025-04-04,合併による解散等,2010401059681,令和７年４月１日東京都港区芝浦四丁目６番８号三菱電機デジタルイノベーション株式会社（2010401059681）に合併し解散,2015-10-05,1,,,,,ミツビシデンキインフォメーションシステムズ,0
31,1010601016608,登記記録の閉鎖等,0,2025-04-30,2025-04-23,株式会社ヤマロク,,株式会社,東京都,新宿区,納戸町３７番地エスナ市ヶ谷４０４,,13,104,1620837,,,2025-04-23,清算の結了等,,,2015-10-05,1,,,,,ヤマロク,0
33,1010801014064,登記記録の閉鎖等,0,2025-04-30,2025-04-14,ファインテック株式会社,,株式会社,東京都,大田区,東糀谷４丁目９番７号,,13,111,1440033,,,2025-04-14,清算の結了等,,,2015-10-05,1,,,,,ファインテック,0
38,1011001011083,登記記録の閉鎖等,0,2025-04-30,2025-04-24,首都圏瓦斯株式会社,,株式会社,東京都,渋谷区,初台１丁目４４番３号,,13,113,1510061,,,2025-04-24,合併による解散等,9010001098743,令和７年４月１日東京都中央区日本橋堀留町二丁目２番１号株式会社エネアーク関東（9010001098743）に合併し解散,2015-10-05,1,,,,,シュトケンガス,0
73,1011802010804,登記記録の閉鎖等,0,2025-04-30,2025-04-09,有限会社オートサロン動輪,,有限会社,東京都,文京区,千駄木４丁目１番１６－８１０号,,13,105,1130022,,,2025-04-09,清算の結了等,,,2015-10-05,1,,,,,オートサロンドウリン,0
82,1020001091746,登記記録の閉鎖等,0,2025-04-30,2025-04-15,株式会社モータースポーツプレジャー,,株式会社,神奈川県,横浜市鶴見区,駒岡１丁目３０番３号,,14,101,2300071,,,2025-04-15,清算の結了等,,,2015-10-05,1,,,,,モータースポーツプレジャー,0
92,1030001025380,登記記録の閉鎖等,0,2025-04-30,2025-04-24,株式会社富士テクノサプライ,,株式会社,埼玉県,所沢市,小手指町５丁目１６番地の６ドルチェ小手指１０１,,11,208,3591141,,,2025-04-24,清算の結了等,,,2015-10-05,1,,,,,フジテクノサプライ,0
93,1030001043440,登記記録の閉鎖等,0,2025-04-30,2025-04-23,ライフライン株式会社,,株式会社,埼玉県,上尾市,大字中新井５２０番地２２,,11,219,3620052,,,2025-04-23,清算の結了等,,,2015-10-05,1,,,,,ライフライン,0
112,1040001087305,登記記録の閉鎖等,0,2025-04-30,2025-04-11,ハルノ資源技術株式会社,,株式会社,千葉県,船橋市,印内町６６８番地１,,12,204,2730025,,,2025-04-11,清算の結了等,,,2015-10-05,1,,,,,ハルノシゲンギジュツ,0
136,1080101013124,登記記録の閉鎖等,0,2025-04-30,2025-04-21,伊東青果株式会社,,株式会社,静岡県,伊東市,荻７９１番地,,22,208,4140053,,,2025-04-21,清算の結了等,,,2015-10-05,1,,,,,イトウセイカ,0
137,1080101019567,登記記録の閉鎖等,0,2025-04-30,2025-04-22,株式会社カランコエ,,株式会社,静岡県,田方郡函南町,桑原１０４８番地の１,,22,325,4190101,,,2025-04-22,清算の結了等,,,2017-01-16,1,,,,,カランコエ,0
151,1110002004251,登記記録の閉鎖等,0,2025-04-30,2025-04-14,有限会社テクニカルウェーブ,,有限会社,新潟県,新潟市東区,東中野山７丁目１０番２号,,15,102,9500836,,,2025-04-14,清算の結了等,,,2015-10-05,1,,,,,テクニカルウェーブ,0
158,1120001134156,登記記録の閉鎖等,0,2025-04-30,2025-04-10,株式会社カレッジ,,株式会社,大阪府,大阪市福島区,海老江８丁目１２番１５号,,27,103,5530001,,,2025-04-10,清算の結了等,,,2015-10-05,1,,,,,カレッジ,0
159,1120001242108,登記記録の閉鎖等,0,2025-04-30,2025-04-28,イクシィホールディングス株式会社,,株式会社,大阪府,大阪市淀川区,三津屋南１丁目７番９号,,27,123,5320035,,,2025-04-28,清算の結了等,,,2021-11-26,1,,,,,イクシィホールディングス,0
167,1120002027045,登記記録の閉鎖等,0,2025-04-30,2025-04-28,有限会社サークル・ディ・エル,,有限会社,大阪府,大阪市淀川区,西三国１丁目３３番８号,,27,123,5320006,,,2025-04-28,清算の結了等,,,2015-10-05,1,,,,,サークルディエル,0
176,1130001024926,登記記録の閉鎖等,0,2025-04-30,2025-04-23,関西総合建設株式会社,,株式会社,京都府,京都市北区,上賀茂石計町５４番地,,26,101,6038056,,,2025-04-23,清算の結了等,,,2015-10-05,1,,,,,カンサイソウゴウケンセツ,0
190,1140003007580,登記記録の閉鎖等,0,2025-04-30,2025-04-22,合名会社山清商店,,合名会社,兵庫県,西宮市,津門大箇町４番１２号,,28,204,6638243,,,2025-04-22,清算の結了等,,,2015-10-05,1,,,,,ヤマセイショウテン,0
197,1180001062756,登記記録の閉鎖等,0,2025-04-30,2025-04-21,株式会社こころ,,株式会社,愛知県,名古屋市中区,大須３丁目５番４０号,,23,106,4600011,,,2025-04-21,清算の結了等,,,2015-10-05,1,,,,,ココロ,0
200,1180001135421,登記記録の閉鎖等,0,2025-04-30,2025-04-18,株式会社天名,,株式会社,愛知県,名古屋市中川区,中野本町２丁目５７番地,,23,110,4540047,,,2025-04-18,清算の結了等,,,2019-02-07,1,,,,,テンメイ,0
207,1180002016100,登記記録の閉鎖等,0,2025-04-30,2025-04-22,有限会社シヨウ,,有限会社,愛知県,名古屋市東区,徳川１丁目１７番２４号,,23,102,4610025,,,2025-04-22,清算の結了等,,,2015-10-05,1,,,,,ショウ,0
219,1190001026751,登記記録の閉鎖等,0,2025-04-30,2025-04-18,株式会社ＨＡＬ’ｓ,,株式会社,三重県,鈴鹿市,国府町７６７９番地３０,,24,207,5130836,,,2025-04-18,合併による解散等,7190001021020,令和７年４月１８日三重県鈴鹿市国府町７６７８番地４９株式会社ＨＡＬＬテクニカル（7190001021020）に合併し解散,2019-09-24,1,,,,,ハルズ,0
240,1290001054214,登記記録の閉鎖等,0,2025-04-30,2025-04-23,日本イットリウム株式会社,,株式会社,福岡県,大牟田市,大字唐船２０８１番地３９８,,40,202,8360003,,,2025-04-23,合併による解散等,7010701011370,令和７年４月１日東京都品川区大崎一丁目１１番１号三井金属鉱業株式会社（7010701011370）に合併し解散,2015-10-05,1,,,,,ニッポンイットリウム,0
248,1290801000276,登記記録の閉鎖等,0,2025-04-30,2025-04-24,株式会社イーストベリー,,株式会社,福岡県,北九州市小倉北区,末広１丁目１番２１号,,40,106,8020012,,,2025-04-24,清算の結了等,,,2015-10-05,1,,,,,,0
284,1440001002999,登記記録の閉鎖等,0,2025-04-30,2025-04-24,株式会社佐藤工業,,株式会社,北海道,松前郡松前町,字静浦２１１番地の２,,01,331,0491644,,,2025-04-24,清算の結了等,,,2015-10-05,1,,,,,サトウコウギョウ,0
325,2010701036752,登記記録の閉鎖等,0,2025-04-30,2025-04-11,新浩株式会社,,株式会社,千葉県,我孫子市,若松１７４番地の１２,,12,222,2701147,,,2025-04-11,清算の結了等,,,2018-11-20,1,,,,,シンコウ,0
332,2011001002651,登記記録の閉鎖等,0,2025-04-30,2025-04-01,株式会社伊原プロモーション,,株式会社,東京都,渋谷区,代官山町７番８号,,13,113,1500034,,,2025-04-01,清算の結了等,,,2015-10-05,1,,,,,イハラプロモーション,0
343,2011503003239,登記記録の閉鎖等,0,2025-04-30,2025-04-22,合同会社ｐａｒａｓｏｌａ,,合同会社,東京都,北区,豊島２丁目６番３号,,13,117,1140003,,,2025-04-22,清算の結了等,,,2017-04-03,1,,,,,,0
355,2013101001764,登記記録の閉鎖等,0,2025-04-30,2025-04-25,株式会社カタカゴ,,株式会社,東京都,西多摩郡瑞穂町,大字箱根ケ崎７３番地,,13,303,1901221,,,2025-04-25,清算の結了等,,,2015-10-05,1,,,,,カタカゴ,0
360,2013402001562,登記記録の閉鎖等,0,2025-04-30,2025-04-14,有限会社山手,,有限会社,東京都,日野市,日野台２丁目３８番地の７,,13,212,1910003,,,2025-04-14,清算の結了等,,,2015-10-05,1,,,,,,0
361,2013405000925,登記記録の閉鎖等,0,2025-04-30,2025-04-15,公益社団法人学術・文化・産業ネットワーク多摩,,その他の設立登記法人,東京都,日野市,程久保２丁目１番地１号,,13,212,1910042,,,2025-04-15,清算の結了等,,,2015-10-05,1,,,,,ガクジュツブンカサンギョウネットワークタマ,0
367,2020002035271,登記記録の閉鎖等,0,2025-04-30,2025-04-16,有限会社白梅書道会,,有限会社,神奈川県,横浜市港北区,高田西３丁目２６番１号,,14,109,2230066,,,2025-04-16,清算の結了等,,,2015-10-05,1,,,,,ハクバイショドウカイ,0
371,2020005016376,登記記録の閉鎖等,0,2025-04-30,2025-04-23,行政書士法人Ｒｉｃｈｍｏｎｄ　Ｃｏｎｓｕｌｔｉｎｇ,,その他の設立登記法人,神奈川県,横浜市旭区,中希望が丘１６９番３４,,14,112,2410825,,,2025-04-23,清算の結了等,,,2024-04-15,1,,,,,リッチモンドコンサルティング,0
382,2030001066952,登記記録の閉鎖等,0,2025-04-30,2025-04-23,協伸工業株式会社,,株式会社,埼玉県,越谷市,東大沢５丁目１１番地１５,,11,222,3430022,,,2025-04-23,清算の結了等,,,2015-10-05,1,,,,,キョウシンコウギョウ,0
394,2040001060483,登記記録の閉鎖等,0,2025-04-30,2025-04-14,株式会社デツク四四,,株式会社,千葉県,大網白里市,細草８８１番地６１,,12,239,2993211,,,2025-04-14,清算の結了等,,,2015-10-05,1,,,,,デツクヨンジュウヨン,0
396,2040001083749,登記記録の閉鎖等,0,2025-04-30,2025-04-11,株式会社ＮＥＯ６,,株式会社,千葉県,香取郡東庄町,新宿１３８７番地２,,12,349,2890611,,,2025-04-11,清算の結了等,,,2015-10-05,1,,,,,ネオシックス,0
405,2050002023249,登記記録の閉鎖等,0,2025-04-30,2025-04-18,有限会社サムタイム企画,,有限会社,茨城県,つくば市,大曽根２４４番,,08,220,3003253,,,2025-04-18,清算の結了等,,,2015-10-05,1,,,,,サムタイムキカク,0
408,2050003007234,登記記録の閉鎖等,0,2025-04-30,2025-04-18,合同会社悠々スマイル,,合同会社,茨城県,牛久市,中央２丁目１８番地７,,08,219,3001234,,,2025-04-18,清算の結了等,,,2023-02-08,1,,,,,ユウユウスマイル,0
428,2090002013766,登記記録の閉鎖等,0,2025-04-30,2025-04-09,有限会社中村電気,,有限会社,山梨県,韮崎市,藤井町南下條４８２番地,,19,207,4070004,,,2025-04-09,清算の結了等,,,2015-10-05,1,,,,,ナカムラデンキ,0
452,2122001019410,登記記録の閉鎖等,0,2025-04-30,2025-04-25,株式会社トミナガ,,株式会社,大阪府,八尾市,山城町２丁目４番２９号,,27,212,5810801,,,2025-04-25,清算の結了等,,,2015-10-05,1,,,,,トミナガ,0
466,2130002034741,登記記録の閉鎖等,0,2025-04-30,2025-04-23,有限会社吉川水産,,有限会社,京都府,舞鶴市,字下安久２７８番地１,,26,202,6240914,,,2025-04-23,清算の結了等,,,2015-10-05,1,,,,,ヨシカワスイサン,0
484,2180001142350,登記記録の閉鎖等,0,2025-04-30,2025-04-21,株式会社ＮＡＭ　ＴＨＡＮＨ,,株式会社,愛知県,名古屋市天白区,八幡山７３４番地の１,,23,116,4680074,,,2025-04-21,清算の結了等,,,2020-08-13,1,,,,,ナムタン,0
491,2180301038777,登記記録の閉鎖等,0,2025-04-30,2025-04-18,ファースト・リンク株式会社,,株式会社,愛知県,豊橋市,豊清町字茶屋ノ下２番地の２７０,,23,201,4413115,,,2025-04-18,清算の結了等,,,2024-06-28,1,,,,,ファーストリンク,0
505,2240001015293,登記記録の閉鎖等,0,2025-04-30,2025-04-28,株式会社マインズインターナショナル,,株式会社,広島県,広島市安佐南区,伴南５丁目３５－１１,,34,105,7313168,,,2025-04-28,清算の結了等,,,2015-10-05,1,,,,,マインズインターナショナル,0
512,2260001015093,登記記録の閉鎖等,0,2025-04-30,2025-04-23,郵船ロジスティクス中国株式会社,,株式会社,岡山県,倉敷市,昭和２丁目４番６号（倉敷アークスクエア）,,33,202,7100057,,,2025-04-23,合併による解散等,4010401090222,令和７年４月１日東京都品川区東品川四丁目１２番４号郵船ロジスティクス株式会社（4010401090222）に合併し解散,2015-10-05,1,,,,,ユウセンロジスティクスチュウゴク,0
520,2290801023648,登記記録の閉鎖等,0,2025-04-30,2025-04-14,株式会社タック,,株式会社,福岡県,糟屋郡須惠町,大字須恵３００番地５,,40,344,8112100,,,2025-04-14,清算の結了等,,,2017-05-23,1,,,,,タック,0
522,2310001001006,登記記録の閉鎖等,0,2025-04-30,2025-04-25,株式会社大商,,株式会社,長崎県,長崎市,平間町２９３番地１０,,42,201,8510136,,,2025-04-25,清算の結了等,,,2015-10-05,1,,,,,ダイショウ,0
524,2310001019320,登記記録の閉鎖等,0,2025-04-30,2025-04-25,株式会社コスモスパーク,,株式会社,長崎県,諫早市,幸町６７番１８号,,42,204,8540022,,,2025-04-25,清算の結了等,,,2024-11-11,1,,,,,コスモスパーク,0
528,2320202000821,登記記録の閉鎖等,0,2025-04-30,2025-04-14,有限会社エース保険,,有限会社,大分県,臼杵市,大字海添５６番地の１,,44,206,8750042,,,2025-04-14,清算の結了等,,,2015-10-05,1,,,,,エースホケン,0
532,2340001005689,登記記録の閉鎖等,0,2025-04-30,2025-04-24,株式会社トーエン,,株式会社,鹿児島県,鹿児島市,上福元町３７４９番地,,46,201,8910116,,,2025-04-24,合併による解散等,2040001097617,令和７年４月１日千葉県君津市東坂田四丁目３番３号株式会社クレバリーホーム（2040001097617）に合併し解散,2015-10-05,1,,,,,トーエン,0
533,2340001016208,登記記録の閉鎖等,0,2025-04-30,2025-04-21,株式会社Ｈカンパニー,,株式会社,東京都,渋谷区,道玄坂１丁目１６－６二葉ビル８ｂ,,13,113,1500043,,,2025-04-21,清算の結了等,,,2015-10-05,1,,,,,エイチカンパニー,0
538,2350001009499,登記記録の閉鎖等,0,2025-04-30,2025-04-18,扶桑商事株式会社,,株式会社,宮崎県,日南市,吾田東８丁目８番１５号,,45,204,8892541,,,2025-04-18,清算の結了等,,,2015-10-05,1,,,,,フソウショウジ,0
539,2350005004892,登記記録の閉鎖等,0,2025-04-30,2025-04-17,一般社団法人郡司分財産管理組中,,その他の設立登記法人,宮崎県,宮崎市,大字郡司分甲９４５番地３,,45,201,8800924,,,2025-04-17,清算の結了等,,,2015-10-05,1,,,,,グンジブンザイサンカンリクミナカ,0
546,2360002005257,登記記録の閉鎖等,0,2025-04-30,2025-04-16,有限会社ハイツよしわ,,有限会社,沖縄県,那覇市,具志２丁目２番４８号,,47,201,9010146,,,2025-04-16,清算の結了等,,,2015-10-05,1,,,,,ハイツヨシワ,0
549,2380005001508,登記記録の閉鎖等,0,2025-04-30,2025-04-15,医療法人くまだ小児クリニック,,その他の設立登記法人,福島県,伊達市,上台２番地の１,,07,213,9600488,,,2025-04-15,清算の結了等,,,2015-10-05,1,,,,,クマダショウニクリニック,0
553,2420002001885,登記記録の閉鎖等,0,2025-04-30,2025-04-23,有限会社大福商事,,有限会社,青森県,青森市,新町１丁目１５番７号,,02,201,0300801,,,2025-04-23,清算の結了等,,,2015-10-05,1,,,,,ダイフクショウジ,0
559,2430002053447,登記記録の閉鎖等,0,2025-04-30,2025-04-21,有限会社安田総合保険企画,,有限会社,北海道,歌志内市,字文珠１００番地２,,01,227,0730407,,,2025-04-21,清算の結了等,,,2015-10-05,1,,,,,ヤスダソウゴウホケンキカク,0
563,2460101007350,登記記録の閉鎖等,0,2025-04-30,2025-04-25,帯日株式会社,,株式会社,北海道,帯広市,西十七条北１丁目３０番２３号,,01,207,0800047,,,2025-04-25,清算の結了等,,,2023-03-10,1,,,,,オビニチ,0
593,3010601020863,登記記録の閉鎖等,0,2025-04-30,2025-04-22,株式会社ヤギヌマ,,株式会社,東京都,江東区,亀戸８丁目１２番１号,,13,108,1360071,,,2025-04-22,清算の結了等,,,2015-10-05,1,,,,,,0
595,3010602019491,登記記録の閉鎖等,0,2025-04-30,2025-04-21,有限会社勝山金型製作所,,有限会社,東京都,墨田区,墨田３丁目１５番４号,,13,107,1310031,,,2025-04-21,清算の結了等,,,2015-10-05,1,,,,,カツヤマカナガタセイサクショ,0
600,3010702012982,登記記録の閉鎖等,0,2025-04-30,2025-04-04,有限会社あかりホームパーティズ,,有限会社,東京都,品川区,東大井２丁目２２番１２号伊藤ビル１階,,13,109,1400011,,,2025-04-04,清算の結了等,,,2015-10-05,1,,,,,アカリホームパーティズ,0
601,3010703006199,登記記録の閉鎖等,0,2025-04-30,2025-04-03,飯塚市有井太陽光発電合同会社,,合同会社,東京都,港区,虎ノ門３丁目２２番１０－２０１号,,13,103,1050001,,,2025-04-03,清算の結了等,,,2022-04-20,1,,,,,イイヅカシアリイタイヨウコウハツデン,0
604,3010802009235,登記記録の閉鎖等,0,2025-04-30,2025-04-14,有限会社中央螺子製作所,,有限会社,東京都,大田区,中央６丁目１０番５号,,13,111,1430024,,,2025-04-14,清算の結了等,,,2015-10-05,1,,,,,,0
605,3010901011538,登記記録の閉鎖等,0,2025-04-30,2025-04-25,株式会社丸中設計事務所,,株式会社,東京都,世田谷区,南烏山４丁目６番１３号,,13,112,1570062,,,2025-04-25,清算の結了等,,,2015-10-05,1,,,,,マルナカセッケイジムショ,0
608,3011001144055,登記記録の閉鎖等,0,2025-04-30,2025-04-01,株式会社Ｂｅ　Ｔｈｅｏｒｙ,,株式会社,東京都,渋谷区,代官山町２０番９号,,13,113,1500034,,,2025-04-01,清算の結了等,,,2021-11-19,1,,,,,ビーセオリー,0
616,3011101069318,登記記録の閉鎖等,0,2025-04-30,2025-04-07,株式会社Ｓ・Ｋ,,株式会社,東京都,新宿区,箪笥町３４番地ＶＯＲＴ神楽坂Ｉ３階,00130258,13,104,1620833,,,2025-04-07,清算の結了等,,,2015-10-05,1,,,,,,0
628,3011801022014,登記記録の閉鎖等,0,2025-04-30,2025-04-25,株式会社販促,,株式会社,東京都,足立区,中央本町５丁目１３番７号,,13,121,1210011,,,2025-04-25,清算の結了等,,,2015-10-05,1,,,,,ハンソク,0
633,3012802010263,登記記録の閉鎖等,0,2025-04-30,2025-04-16,有限会社ミッション,,有限会社,東京都,昭島市,中神町１２５７番地２２オハナ昭島中神２０８号,,13,207,1960022,,,2025-04-16,清算の結了等,,,2015-10-05,1,,,,,ミッション,0
642,3020001128661,登記記録の閉鎖等,0,2025-04-30,2025-04-02,ＩＡＣ株式会社,,株式会社,神奈川県,横浜市港北区,小机町１５１０番地１,,14,109,2220036,,,2025-04-02,合併による解散等,3020001082272,令和７年４月１日横浜市港北区小机町１５１２番地６株式会社Ｍ＆Ｈ（3020001082272）に合併し解散,2018-11-07,1,,,,,アイエック,0
646,3020002093599,登記記録の閉鎖等,0,2025-04-30,2025-04-15,有限会社山崎技研,00011598,有限会社,神奈川県,川崎市多摩区,菅馬場１丁目１９番２２号,,14,135,2140004,,,2025-04-15,清算の結了等,,,2015-10-05,1,,,,,ヤマザキギケン,0
648,3020005011822,登記記録の閉鎖等,0,2025-04-30,2025-04-09,一般社団法人古物オーディオ協会,,その他の設立登記法人,東京都,豊島区,南池袋３丁目７番８－１８０７,,13,116,1710022,,,2025-04-09,清算の結了等,,,2015-10-05,1,,,,,コブツオーディオキョウカイ,0
658,3030002053321,登記記録の閉鎖等,0,2025-04-30,2025-04-24,有限会社エーピーエムタイヤサービス,,有限会社,埼玉県,上尾市,大字向山２７番地の４,,11,219,3620045,,,2025-04-24,清算の結了等,,,2015-10-05,1,,,,,エーピーエムタイヤサービス,0
662,3030002089472,登記記録の閉鎖等,0,2025-04-30,2025-04-23,有限会社創心,,有限会社,埼玉県,北葛飾郡松伏町,大字松伏３２０８番地４,,11,465,3430111,,,2025-04-23,清算の結了等,,,2015-10-05,1,,,,,ソウシン,0
682,3050005004030,登記記録の閉鎖等,0,2025-04-30,2025-04-17,筑波印刷情報サービスセンター協同組合,,その他の設立登記法人,茨城県,土浦市,大畑５６５番地の２,,08,203,3004111,,,2025-04-17,清算の結了等,,,2015-10-05,1,,,,,ツクバインサツジョウホウサービスセンター,0
687,3070001039796,登記記録の閉鎖等,0,2025-04-30,2025-04-15,株式会社リモデル,,株式会社,群馬県,高崎市,足門町８２２番地２コーポＨＩＲＯ２０３号,,10,202,3703531,,,2025-04-15,清算の結了等,,,2022-11-04,1,,,,,リモデル,0
726,3122001002927,登記記録の閉鎖等,0,2025-04-30,2025-04-21,株式会社三興商会,,株式会社,大阪府,東大阪市,桜町４番１８号,,27,227,5798047,,,2025-04-21,清算の結了等,,,2015-10-05,1,,,,,サンコウショウカイ,0
751,3180001139973,登記記録の閉鎖等,0,2025-04-30,2025-04-15,株式会社ＲＯＵＴＥ２４,,株式会社,愛知県,名古屋市千種区,千種２丁目２４番２号千種タワーヒルズ,,23,101,4640858,,,2025-04-15,清算の結了等,,,2020-02-12,1,,,,,ルートトゥエンティーフォー,0
752,3180001140196,登記記録の閉鎖等,0,2025-04-30,2025-04-18,株式会社フェリーチェ,,株式会社,愛知県,一宮市,高畑町２丁目８番地１,,23,203,4910073,,,2025-04-18,清算の結了等,,,2020-02-26,1,,,,,フェリーチェ,0
755,3180002019877,登記記録の閉鎖等,0,2025-04-30,2025-04-21,有限会社若松設備工業所,,有限会社,愛知県,名古屋市中川区,豊成町１番５－１３０３号,,23,110,4540803,,,2025-04-21,清算の結了等,,,2015-10-05,1,,,,,ワカマツセツビコウギョウショ,0
757,3180002085944,登記記録の閉鎖等,0,2025-04-30,2025-04-18,稲葉有限会社,,有限会社,愛知県,常滑市,新開町２丁目１１５番地,,23,216,4790837,,,2025-04-18,清算の結了等,,,2015-10-05,1,,,,,イナバ,0
761,3180302011690,登記記録の閉鎖等,0,2025-04-30,2025-04-17,有限会社イプシロンデザイン,,有限会社,愛知県,豊川市,八幡町大池２８番地２,,23,207,4420857,,,2025-04-17,清算の結了等,,,2015-10-05,1,,,,,イプシロンデザイン,0
768,3220001012564,登記記録の閉鎖等,0,2025-04-30,2025-04-23,郵船ロジスティクス北陸株式会社,,株式会社,石川県,小松市,長崎町２丁目１１５番地,,17,203,9230004,,,2025-04-23,合併による解散等,4010401090222,令和７年４月１日東京都品川区東品川四丁目１２番４号郵船ロジスティクス株式会社（4010401090222）に合併し解散,2015-10-05,1,,,,,,0
789,3290002047669,登記記録の閉鎖等,0,2025-04-30,2025-04-11,有限会社山口養鶏場,,有限会社,福岡県,八女郡広川町,大字水原１４５７番地,,40,544,8340102,,,2025-04-11,清算の結了等,,,2015-10-05,1,,,,,ヤマグチヨウケイジョウ,0
792,3290802012797,登記記録の閉鎖等,0,2025-04-30,2025-04-17,有限会社鶴亀,,有限会社,福岡県,北九州市八幡東区,荒生田３丁目１番６号,,40,108,8050015,,,2025-04-17,清算の結了等,,,2015-10-05,1,,,,,,0
794,3330002005779,登記記録の閉鎖等,0,2025-04-30,2025-04-18,有限会社西南電気システム,,有限会社,熊本県,熊本市南区,御幸笛田２丁目６番３２号,,43,104,8614172,,,2025-04-18,清算の結了等,,,2015-10-05,1,,,,,,0
804,3380001023991,登記記録の閉鎖等,0,2025-04-30,2025-04-17,ニチイエンジニア株式会社,,株式会社,福島県,いわき市,平六町目１番地の９美良野ビル３階,,07,204,9708051,,,2025-04-17,清算の結了等,,,2015-10-05,1,,,,,ニチイエンジニア,0
813,3410002013195,登記記録の閉鎖等,0,2025-04-30,2025-04-18,有限会社ベーシック,,有限会社,秋田県,横手市,婦気大堤字婦気前２２１番地１,,05,203,0130063,,,2025-04-18,合併による解散等,4410002013260,令和７年４月１８日秋田県横手市婦気大堤字婦気前２２１番地１株式会社横手測量設計（4410002013260）に合併し解散,2015-10-05,1,,,,,ベーシック,0
819,3430002008284,登記記録の閉鎖等,0,2025-04-30,2025-04-21,有限会社榮製作所,,有限会社,北海道,札幌市清田区,北野三条２丁目１２番５号,,01,110,0040863,,,2025-04-21,清算の結了等,,,2015-10-05,1,,,,,サカエセイサクショ,0
822,3430003004984,登記記録の閉鎖等,0,2025-04-30,2025-04-22,合同会社エムケー企画,,合同会社,北海道,札幌市豊平区,西岡二条２丁目５番３号,,01,105,0620032,,,2025-04-22,清算の結了等,,,2015-10-05,1,,,,,エムケーキカク,0
824,3480001006540,登記記録の閉鎖等,0,2025-04-30,2025-04-22,株式会社木内コンサルティングオフィス,,株式会社,徳島県,名西郡石井町,高原字中島４５２番地,,36,341,7793208,,,2025-04-22,清算の結了等,,,2015-10-05,1,,,,,キノウチコンサルティングオフィス,0
830,4010001080706,登記記録の閉鎖等,0,2025-04-30,2025-04-08,品川ファインセラミックス株式会社,,株式会社,東京都,千代田区,大手町２丁目２番１号,,13,101,1000004,,,2025-04-08,合併による解散等,9010001008685,令和７年４月１日東京都千代田区丸の内一丁目７番１２号品川リフラクトリーズ株式会社（9010001008685）に合併し解散,2015-10-05,1,,,,,シナガワファインセラミックス,0
833,4010001147249,登記記録の閉鎖等,0,2025-04-30,2025-04-01,株式会社サイコックス,,株式会社,東京都,港区,新橋５丁目１１番３号,,13,103,1050004,,,2025-04-01,合併による解散等,9010401015273,令和７年４月１日東京都港区新橋五丁目１１番３号住友金属鉱山株式会社（9010401015273）に合併し解散,2015-10-05,1,,,,,サイコックス,0
849,4010601021984,登記記録の閉鎖等,0,2025-04-30,2025-04-23,株式会社デイナイス,,株式会社,東京都,江東区,木場２丁目１番１号,,13,108,1350042,,,2025-04-23,清算の結了等,,,2015-10-05,1,,,,,デイナイス,0
855,4010703006198,登記記録の閉鎖等,0,2025-04-30,2025-04-03,盛岡市大ケ生太陽光発電合同会社,,合同会社,東京都,港区,虎ノ門３丁目２２番１０－２０１号,,13,103,1050001,,,2025-04-03,清算の結了等,,,2022-04-20,1,,,,,モリオカシオオガユウタイヨウコウハツデン,0
860,4010901048166,登記記録の閉鎖等,0,2025-04-30,2025-04-09,株式会社ＳＩＣ,,株式会社,東京都,世田谷区,代沢１丁目２７－３ワコーレ代沢２０１,,13,112,1550032,,,2025-04-09,清算の結了等,,,2021-03-02,1,,,,,エスアイシー,0
861,4010902011024,登記記録の閉鎖等,0,2025-04-30,2025-04-25,有限会社永井商店,,有限会社,東京都,世田谷区,太子堂２丁目７番１１号,,13,112,1540004,,,2025-04-25,清算の結了等,,,2015-10-05,1,,,,,ナガイショウテン,0
862,4010902022376,登記記録の閉鎖等,0,2025-04-30,2025-04-25,有限会社倉科事務所,,有限会社,東京都,世田谷区,成城４丁目３３番３－２０１号,,13,112,1570066,,,2025-04-25,清算の結了等,,,2015-10-05,1,,,,,,0
868,4011001158632,登記記録の閉鎖等,0,2025-04-30,2025-04-22,株式会社深沢フィナンシャル,,株式会社,東京都,目黒区,青葉台３丁目６番２８－３００４号,,13,110,1530042,,,2025-04-22,合併による解散等,3010401185048,令和７年３月３１日東京都港区虎ノ門四丁目１番２８号虎ノ門タワーズオフィス１７階株式会社Ｔｈｅ　Ｃｏｓｍｅｔｉｃｓ　Ｇｒｏｕｐ（3010401185048）に合併し解散,2023-12-05,1,,,,,フカザワフィナンシャル,0
892,4011502006694,登記記録の閉鎖等,0,2025-04-30,2025-04-23,有限会社青山エメロード,,有限会社,東京都,荒川区,荒川６丁目５番地３号,,13,118,1160002,,,2025-04-23,清算の結了等,,,2015-10-05,1,,,,,アオヤマエメロード,0
903,4012701016278,登記記録の閉鎖等,0,2025-04-30,2025-04-24,株式会社カーゴ・スペシャリスト・インク,,株式会社,埼玉県,新座市,新堀１丁目９番５号サンハイツ新堀１０５号室,,11,230,3520032,,,2025-04-24,清算の結了等,,,2021-01-21,1,,,,,カーゴスペシャリストインク,0
912,4020002057768,登記記録の閉鎖等,0,2025-04-30,2025-04-11,有限会社ササノデンキ,,有限会社,神奈川県,横浜市金沢区,六浦南２丁目１６番１３号,,14,108,2360038,,,2025-04-11,清算の結了等,,,2015-10-05,1,,,,,ササノデンキ,0
925,4030002055507,登記記録の閉鎖等,0,2025-04-30,2025-04-24,有限会社絵鳩設備,,有限会社,埼玉県,桶川市,西１丁目１１番１５号,,11,231,3630017,,,2025-04-24,清算の結了等,,,2015-10-05,1,,,,,エバトセツビ,0
930,4040001035913,登記記録の閉鎖等,0,2025-04-30,2025-04-04,株式会社創建エンジニアリング,,株式会社,東京都,文京区,本駒込６丁目１５番８号エルピスビル６０１,,13,105,1130021,,,2025-04-04,清算の結了等,,,2015-10-05,1,,,,,ソウケンエンジニアリング,0
933,4040001073582,登記記録の閉鎖等,0,2025-04-30,2025-04-08,株式会社ツバキマテリアル,,株式会社,千葉県,成田市,横山３４５－３６,,12,211,2870214,,,2025-04-08,清算の結了等,,,2015-10-05,1,,,,,ツバキマテリアル,0
939,4040002061108,登記記録の閉鎖等,0,2025-04-30,2025-04-11,有限会社太洋オートサービス,,有限会社,千葉県,佐倉市,生谷字三拾塚１２１８番１,,12,212,2850836,,,2025-04-11,清算の結了等,,,2015-10-05,1,,,,,,0
941,4050002000865,登記記録の閉鎖等,0,2025-04-30,2025-04-22,有限会社金来屋米菓店,,有限会社,茨城県,水戸市,八幡町７番８号,,08,201,3100065,,,2025-04-22,清算の結了等,,,2015-10-05,1,,,,,カネキヤベイカテン,0
951,4100002004803,登記記録の閉鎖等,0,2025-04-30,2025-04-24,有限会社マネジメントプランニング,,有限会社,長野県,長野市,大字北長池１２７６番３７,,20,201,3810025,,,2025-04-24,清算の結了等,,,2015-10-05,1,,,,,マネジメントプランニング,0
956,4120001029691,登記記録の閉鎖等,0,2025-04-30,2025-04-09,株式会社平石商店,,株式会社,大阪府,大阪市港区,南市岡１丁目１１番５号,,27,107,5520011,,,2025-04-09,清算の結了等,,,2015-10-05,1,,,,,ヒライシショウテン,0
957,4120001033215,登記記録の閉鎖等,0,2025-04-30,2025-04-08,株式会社テヅカ屋,,株式会社,大阪府,大阪市住吉区,南住吉１丁目２５番１１号,,27,120,5580041,,,2025-04-08,清算の結了等,,,2015-10-05,1,,,,,,0
977,4122002011042,登記記録の閉鎖等,0,2025-04-30,2025-04-23,有限会社オフィス・イッセイ,,有限会社,大阪府,大東市,諸福２丁目１番６０号,,27,218,5740044,,,2025-04-23,清算の結了等,,,2015-10-05,1,,,,,オフィスイッセイ,0
987,4140001026712,登記記録の閉鎖等,0,2025-04-30,2025-04-24,株式会社オフィスＴＥＣ,,株式会社,兵庫県,神戸市須磨区,寺田町１丁目２番９号,,28,107,6540025,,,2025-04-24,清算の結了等,,,2015-10-05,1,,,,,オフィステック,0
992,4140001117073,登記記録の閉鎖等,0,2025-04-30,2025-04-23,株式会社ジオット,,株式会社,兵庫県,神戸市北区,鳴子２丁目８番地の１７,,28,109,6511133,,,2025-04-23,清算の結了等,,,2020-04-10,1,,,,,ジオット,0
1006,4180001127894,登記記録の閉鎖等,0,2025-04-30,2025-04-17,ＬＭエージェンシー株式会社,,株式会社,愛知県,名古屋市西区,押切１丁目３番１号,,23,104,4510063,,,2025-04-17,清算の結了等,,,2017-05-22,1,,,,,エルエムエージェンシー,0
1026,4220001000931,登記記録の閉鎖等,0,2025-04-30,2025-04-24,株式会社ジェファ,,株式会社,石川県,金沢市,北安江３丁目１番３８号,,17,201,9200022,,,2025-04-24,清算の結了等,,,2015-10-05,1,,,,,ジェファ,0
1031,4240001045297,登記記録の閉鎖等,0,2025-04-30,2025-04-24,株式会社Ｓ・ＭＵＲＡＫＡＭＩ,,株式会社,広島県,広島市西区,井口台３丁目２９番２１号,,34,104,7330844,,,2025-04-24,清算の結了等,,,2015-10-05,1,,,,,エスムラカミ,0
1032,4240001045900,登記記録の閉鎖等,0,2025-04-30,2025-04-24,株式会社櫓山館,,株式会社,広島県,廿日市市,四季が丘７丁目９番地１３,,34,213,7380036,,,2025-04-24,清算の結了等,,,2015-10-05,1,,,,,,0
1036,4260002028828,登記記録の閉鎖等,0,2025-04-30,2025-04-25,津山解体有限会社,,有限会社,岡山県,津山市,河辺１４９４番地,,33,203,7080842,,,2025-04-25,清算の結了等,,,2015-10-05,1,,,,,ツヤマカイタイ,0
1051,4290002026894,登記記録の閉鎖等,0,2025-04-30,2025-04-11,コージーホーム有限会社,,有限会社,福岡県,福岡市南区,長丘２丁目２６番６０号長丘リーゼントＤ棟３０２号,,40,134,8150075,,,2025-04-11,清算の結了等,,,2015-10-05,1,,,,,コージーホーム,0
1061,4300001007844,登記記録の閉鎖等,0,2025-04-30,2025-04-25,サン機工販売株式会社,,株式会社,佐賀県,杵島郡大町町,大字大町１２８７番地,,41,423,8492101,,,2025-04-25,清算の結了等,,,2015-10-05,1,,,,,サンキコウハンバイ,0
1075,4380002020723,登記記録の閉鎖等,0,2025-04-30,2025-04-16,有限会社ノザキ内装店,,有限会社,福島県,須賀川市,柱田字長井５番地,,07,207,9620302,,,2025-04-16,清算の結了等,,,2015-10-05,1,,,,,ノザキナイソウテン,0
1077,4390003001663,登記記録の閉鎖等,0,2025-04-30,2025-04-16,合同会社プロダクション・リブ,,合同会社,山形県,山形市,南館３丁目２６番１５号ボルツＩＩＩ１０５,00123112,06,201,9902461,,,2025-04-16,清算の結了等,,,2019-10-31,1,,,,,プロダクションリブ,0
1085,4430001039734,登記記録の閉鎖等,0,2025-04-30,2025-04-21,エーワン・キャピタル株式会社,,株式会社,北海道,札幌市中央区,南一条西４丁目１３番地,,01,101,0600061,,,2025-04-21,清算の結了等,,,2015-10-05,1,,,,,エーワンキャピタル,0
1088,4430001048280,登記記録の閉鎖等,0,2025-04-30,2025-04-25,株式会社ＫＯＮＮＯ,,株式会社,北海道,滝川市,栄町２丁目１番１６号,,01,225,0730031,,,2025-04-25,清算の結了等,,,2015-10-05,1,,,,,コンノ,0
1089,4430001056457,登記記録の閉鎖等,0,2025-04-30,2025-04-25,道南観光写真株式会社,,株式会社,北海道,虻田郡洞爺湖町,洞爺湖温泉７８番地,,01,584,0495721,,,2025-04-25,清算の結了等,,,2015-10-05,1,,,,,ドウナンカンコウシャシン,0
1090,4430001061192,登記記録の閉鎖等,0,2025-04-30,2025-04-28,株式会社シーホープ,,株式会社,北海道,小樽市,望洋台１丁目３番２０号,,01,203,0470155,,,2025-04-28,清算の結了等,,,2015-10-05,1,,,,,シーホープ,0
1095,4430002063790,登記記録の閉鎖等,0,2025-04-30,2025-04-17,有限会社緑健農園,,有限会社,北海道,虻田郡洞爺湖町,成香１１９番地の４,,01,584,0495832,,,2025-04-17,清算の結了等,,,2015-10-05,1,,,,,リョクケンノウエン,0
1137,5010801007997,登記記録の閉鎖等,0,2025-04-30,2025-04-14,東洋タングステン株式会社,,株式会社,東京都,大田区,南久が原２丁目８番１３号,,13,111,1460084,,,2025-04-14,清算の結了等,,,2015-10-05,1,,,,,トウヨウタングステン,0
1181,5020001150597,登記記録の閉鎖等,0,2025-04-30,2025-04-16,Ｋサービス株式会社,,株式会社,神奈川県,横浜市南区,宿町１丁目２８番地第二住吉ビルＢ棟１０１,,14,105,2320017,,,2025-04-16,清算の結了等,,,2023-03-13,1,,,,,ケーサービス,0
1183,5020002003333,登記記録の閉鎖等,0,2025-04-30,2025-04-10,有限会社浜一木工所,,有限会社,神奈川県,横浜市港北区,樽町３丁目７番１５－６１３号,,14,109,2220001,,,2025-04-10,清算の結了等,,,2015-10-05,1,,,,,ハマイチモッコウショ,0
1202,5030002051744,登記記録の閉鎖等,0,2025-04-30,2025-04-22,有限会社ナマイ塗装,,有限会社,埼玉県,草加市,西町１１７９番地５,,11,221,3400035,,,2025-04-22,清算の結了等,,,2015-10-05,1,,,,,ナマイトソウ,0
1222,5050002021761,登記記録の閉鎖等,0,2025-04-30,2025-04-18,有限会社ツインクル,,有限会社,茨城県,つくば市,松塚６３０番地,,08,220,3050015,,,2025-04-18,清算の結了等,,,2015-10-05,1,,,,,ツインクル,0
1226,5060002025316,登記記録の閉鎖等,0,2025-04-30,2025-04-22,有限会社今野工務店,,有限会社,栃木県,大田原市,山の手２丁目４番６号,,09,210,3240051,,,2025-04-22,清算の結了等,,,2015-10-05,1,,,,,イマノコウムテン,0
1227,5060005009737,登記記録の閉鎖等,0,2025-04-30,2025-04-04,一般社団法人ＳＵＭ,,その他の設立登記法人,栃木県,芳賀郡茂木町,大字河井８３５番地４,,09,343,3213703,,,2025-04-04,合併による解散等,4060005010282,令和７年４月１日栃木県芳賀郡茂木町大字馬門６４０番地１４一般社団法人Ｓｏｃｉａｌ　Ｕｐ（4060005010282）に合併し解散,2020-04-07,1,,,,,サム,0
1236,5080402017522,登記記録の閉鎖等,0,2025-04-30,2025-04-22,有限会社月茂登,,有限会社,静岡県,掛川市,掛川１０７４番地の１,,22,213,4360079,,,2025-04-22,清算の結了等,,,2015-10-05,1,,,,,ツキモト,0
1244,5110005002843,登記記録の閉鎖等,0,2025-04-30,2025-04-11,巻税務署管内小売酒販組合,,その他の設立登記法人,新潟県,新潟市西蒲区,巻甲２４２８番地４,,15,108,9530041,,,2025-04-11,清算の結了等,,,2015-10-05,1,,,,,マキゼイムショカンナイコウリ,0
1271,5130003002307,登記記録の閉鎖等,0,2025-04-30,2025-04-24,合同会社中西京美堂,,合同会社,京都府,京都市下京区,麩屋町通四条下る八文字町３４４番地,,26,106,6008041,,,2025-04-24,清算の結了等,,,2015-10-05,1,,,,,ナカニシキョウビドウ,0
1281,5140005015652,登記記録の閉鎖等,0,2025-04-30,2025-04-25,特定非営利活動法人役立つ士業協議会,,その他の設立登記法人,大阪府,大阪市福島区,福島７丁目１８番２０号シエリアタワー大阪福島２５０３号,,27,103,5530003,,,2025-04-25,清算の結了等,,,2015-10-05,1,,,,,ヤクダツシギョウキョウギカイ,0
1284,5180001071159,登記記録の閉鎖等,0,2025-04-30,2025-04-18,株式会社たくみ,,株式会社,愛知県,名古屋市天白区,土原５丁目２１５番地の５,,23,116,4680026,,,2025-04-18,清算の結了等,,,2015-10-05,1,,,,,タクミ,0
1286,5180001082841,登記記録の閉鎖等,0,2025-04-30,2025-04-14,株式会社シャイニングビューティ企画,,株式会社,愛知県,一宮市,大和町氏永字北海道７９４番地１１,,23,203,4910923,,,2025-04-14,清算の結了等,,,2015-10-05,1,,,,,シャイニングビューティキカク,0
1287,5180001087287,登記記録の閉鎖等,0,2025-04-30,2025-04-21,株式会社エムシーデータ,,株式会社,愛知県,江南市,小折町桜雲１８７番地,,23,217,4838136,,,2025-04-21,清算の結了等,,,2015-10-05,1,,,,,エムシーデータ,0
1288,5180001153865,登記記録の閉鎖等,0,2025-04-30,2025-04-22,株式会社ＳＴ　ＷＯＲＫＳ,,株式会社,愛知県,名古屋市西区,上堀越町１丁目２２番地の８,,23,104,4510084,,,2025-04-22,清算の結了等,,,2022-11-18,1,,,,,エスティーワークス,0
1305,5210002002605,登記記録の閉鎖等,0,2025-04-30,2025-04-23,有限会社なかむら製菓,,有限会社,福井県,福井市,文京２丁目８番８号,,18,201,9100017,,,2025-04-23,清算の結了等,,,2015-10-05,1,,,,,ナカムラセイカ,0
1306,5220001021191,登記記録の閉鎖等,0,2025-04-30,2025-04-25,株式会社ライデンペール,,株式会社,石川県,白山市,宮永町５９番地３,,17,210,9240017,,,2025-04-25,清算の結了等,,,2016-08-30,1,,,,,,0
1307,5220001023221,登記記録の閉鎖等,0,2025-04-30,2025-04-25,株式会社ＲＡＩＤＥＮＴＳ　ＪＡＰＡＮ,,株式会社,石川県,金沢市,藤江北２丁目３７５番地,,17,201,9200345,,,2025-04-25,清算の結了等,,,2019-11-26,1,,,,,,0
1330,5330001023945,登記記録の閉鎖等,0,2025-04-30,2025-04-17,株式会社藤建工業,,株式会社,熊本県,熊本市北区,龍田陳内３丁目２８番５６号,,43,105,8618005,,,2025-04-17,清算の結了等,,,2017-04-18,1,,,,,トウケンコウギョウ,0
1342,5360003009386,登記記録の閉鎖等,0,2025-04-30,2025-04-15,株式会社ｍａｒｋ’ｓ　ｅｎｇｉｎｅｅｒ,,株式会社,沖縄県,那覇市,古波蔵１丁目３番１６号ブローテ古蔵２０９号,,47,201,9000024,,,2025-04-15,清算の結了等,,,2019-03-04,1,,,,,マークスエンジニア,0
1357,5470002015993,登記記録の閉鎖等,0,2025-04-30,2025-04-23,七宝工業有限会社,,有限会社,香川県,観音寺市,高屋町１１３５番地,,37,205,7680002,,,2025-04-23,清算の結了等,,,2015-10-05,1,,,,,シッポウコウギョウ,0
1361,5490002001637,登記記録の閉鎖等,0,2025-04-30,2025-04-25,有限会社小出鮮魚店,,有限会社,高知県,高知市,本町３丁目１番１６号,,39,201,7800870,,,2025-04-25,清算の結了等,,,2015-10-05,1,,,,,コイデセンギョテン,0
1373,6010401094601,登記記録の閉鎖等,0,2025-04-30,2025-04-03,八洲ビジネスサポート株式会社,,株式会社,東京都,港区,新橋３丁目１番１号,,13,103,1050004,,,2025-04-03,合併による解散等,9010401029819,令和７年４月１日東京都港区新橋三丁目１番１号八洲電機株式会社（9010401029819）に合併し解散,2015-10-05,1,,,,,ヤシマビジネスサポート,0
1379,6010403007742,登記記録の閉鎖等,0,2025-04-30,2025-03-28,ソフトマウンテン合同会社,,合同会社,東京都,港区,赤坂１丁目４番１４号ダイヤモンドビル赤坂５階,,13,103,1070052,,,2025-03-28,清算の結了等,,,2025-02-20,1,,,,,,0
1393,6010701045337,登記記録の閉鎖等,0,2025-04-30,2025-04-16,株式会社ホワイトベリー,,株式会社,東京都,品川区,東五反田５丁目２１－２－２０３,,13,109,1410022,,,2025-04-16,清算の結了等,,,2023-12-27,1,,,,,ホワイトベリー,0
1394,6010703005685,登記記録の閉鎖等,0,2025-04-30,2025-04-07,合同会社Ｓｍｈａｍ,,合同会社,東京都,品川区,西五反田１丁目２６番２号五反田サンハイツ９１１,,13,109,1410031,,,2025-04-07,清算の結了等,,,2021-03-25,1,,,,,スマム,0
1407,6011003005277,登記記録の閉鎖等,0,2025-04-30,2025-04-09,ＡＭＰＬＩＴＵＤＥ　ＪＡＰＡＮ合同会社,,合同会社,東京都,中央区,日本橋茅場町１丁目２番５号日本ビルディング２号館,,13,102,1030025,,,2025-04-09,清算の結了等,,,2015-10-05,1,,,,,アンプリチュードジャパン,0
1420,6011401015217,登記記録の閉鎖等,0,2025-04-30,2025-04-25,株式会社Ｆ　ＷＥＳＴ,,株式会社,東京都,板橋区,大山東町７番２号,,13,119,1730014,,,2025-04-25,清算の結了等,,,2015-10-05,1,,,,,,0
1429,6012401039049,登記記録の閉鎖等,0,2025-04-30,2025-04-11,株式会社ソフィア,,株式会社,東京都,調布市,布田１丁目２６番地１０,,13,208,1820024,,,2025-04-11,清算の結了等,,,2022-04-08,1,,,,,ソフィア,0
1438,6013101004920,登記記録の閉鎖等,0,2025-04-30,2025-04-24,ケーエス樹脂株式会社,,株式会社,東京都,青梅市,今井５丁目２４７７番地４４,,13,205,1980023,,,2025-04-24,清算の結了等,,,2015-10-05,1,,,,,ケーエスジュシ,0
1448,6020002028585,登記記録の閉鎖等,0,2025-04-30,2025-04-15,有限会社横浜整形ビル,,有限会社,神奈川県,横浜市神奈川区,西神奈川２丁目１番地２,,14,102,2210822,,,2025-04-15,清算の結了等,,,2015-10-05,1,,,,,ヨコハマセイケイビル,0
1476,6040003001060,登記記録の閉鎖等,0,2025-04-30,2025-04-11,ＩＡオートサービス合同会社,,合同会社,千葉県,船橋市,八木が谷５丁目１８番２号,,12,204,2740802,,,2025-04-11,清算の結了等,,,2015-10-05,1,,,,,アイエーオートサービス,0
1481,6050001046180,登記記録の閉鎖等,0,2025-04-30,2025-04-24,株式会社ｍｙＫｅｅｐｅｒ,,株式会社,和歌山県,和歌山市,新通５丁目６ユタカビル１Ｆ,,30,201,6408111,,,2025-04-24,合併による解散等,5360001024511,令和７年３月１４日沖縄県中頭郡中城村南上原１１１１番地１株式会社Ａｌｐａｃａ．Ｌａｂ（5360001024511）に合併し解散,2019-06-28,1,,,,,マイキーパー,0
1487,6070001027501,登記記録の閉鎖等,0,2025-04-30,2025-04-24,株式会社ルーチエ,,株式会社,群馬県,高崎市,足門町５２６番地７,,10,202,3703531,,,2025-04-24,清算の結了等,,,2015-10-05,1,,,,,ルーチエ,0
1490,6080101017038,登記記録の閉鎖等,0,2025-04-30,2025-04-21,株式会社伊豆ＦＶ企画,,株式会社,静岡県,伊東市,荻７９１番地,,22,208,4140053,,,2025-04-21,清算の結了等,,,2015-10-05,1,,,,,,0
1491,6080101025081,登記記録の閉鎖等,0,2025-04-30,2025-04-22,株式会社エレクトリンク,,株式会社,静岡県,沼津市,南本郷町１２番８号,,22,203,4100815,,,2025-04-22,清算の結了等,,,2024-10-23,1,,,,,エレクトリンク,0
1495,6080102018621,登記記録の閉鎖等,0,2025-04-30,2025-04-18,有限会社丸高鉄工所,,有限会社,静岡県,熱海市,下多賀１５６６番地の７,,22,205,4130102,,,2025-04-18,清算の結了等,,,2015-10-05,1,,,,,マルタカテッコウジョ,0
1501,6080405000540,登記記録の閉鎖等,0,2025-04-30,2025-04-18,浜松市タクシー無線協同組合,,その他の設立登記法人,静岡県,浜松市中央区,上島１丁目１１番１５号,,22,138,4338122,,,2025-04-18,清算の結了等,,,2015-10-05,1,,,,,ハママツシタクシームセン,0
1517,6120002016860,登記記録の閉鎖等,0,2025-04-30,2025-04-04,有限会社ビート・インターナショナル,,有限会社,大阪府,大阪市住之江区,南港中３丁目９番２５－３０２号,,27,125,5590033,,,2025-04-04,清算の結了等,,,2015-10-05,1,,,,,ビートインターナショナル,0
1523,6120005006454,登記記録の閉鎖等,0,2025-04-30,2025-04-24,大阪呉服専門店協同組合,,その他の設立登記法人,大阪府,大阪市西区,北堀江１丁目１番７号,,27,106,5500014,,,2025-04-24,清算の結了等,,,2015-10-05,1,,,,,オオサカゴフクセンモンテン,0
1535,6122002001702,登記記録の閉鎖等,0,2025-04-30,2025-04-23,有限会社晃勢,,有限会社,大阪府,東大阪市,吉田下島９番２６号,,27,227,5780983,,,2025-04-23,清算の結了等,,,2015-10-05,1,,,,,コウセイ,0
1539,6130001052344,登記記録の閉鎖等,0,2025-04-30,2025-04-23,株式会社ｔｏｐｗａｖｅ,,株式会社,京都府,京都市伏見区,深草大亀谷大山町３０番地２,,26,109,6120847,,,2025-04-23,清算の結了等,,,2015-10-05,1,,,,,トップウェーブ,0
1552,6140001108442,登記記録の閉鎖等,0,2025-04-30,2025-04-22,株式会社ＥＮＤＡ　ＣＯＳＭＥＴＩＣＳ,,株式会社,兵庫県,宝塚市,中筋山手２丁目１０番１号,,28,214,6650875,,,2025-04-22,清算の結了等,,,2017-12-06,1,,,,,エンダコスメティックス,0
1560,6180001057867,登記記録の閉鎖等,0,2025-04-30,2025-04-16,株式会社ファンズ・エンタープライズ,,株式会社,愛知県,名古屋市瑞穂区,白砂町３丁目４８番地,,23,108,4670056,,,2025-04-16,清算の結了等,,,2015-10-05,1,,,,,ファンズエンタープライズ,0
1562,6180001083194,登記記録の閉鎖等,0,2025-04-30,2025-04-18,株式会社東海スタヂオ,,株式会社,愛知県,一宮市,平和１丁目１番３０号,,23,203,4910905,,,2025-04-18,清算の結了等,,,2015-10-05,1,,,,,トウカイスタヂオ,0
1567,6180002044807,登記記録の閉鎖等,0,2025-04-30,2025-04-21,有限会社ゴワ,,有限会社,愛知県,名古屋市北区,如意２丁目６６番２号,,23,103,4620007,,,2025-04-21,清算の結了等,,,2015-10-05,1,,,,,ゴワ,0
1574,6190001004488,登記記録の閉鎖等,0,2025-04-30,2025-04-17,ハロービジョンシステム株式会社,,株式会社,三重県,北牟婁郡紀北町,相賀６５２番地,,24,543,5193406,,,2025-04-17,清算の結了等,,,2015-10-05,1,,,,,ハロービジョンシステム,0
1578,6230001018112,登記記録の閉鎖等,0,2025-04-30,2025-04-17,コアテック株式会社,,株式会社,富山県,富山市,丸の内２丁目２番８－３０２号,,16,201,9300085,,,2025-04-17,清算の結了等,,,2019-12-09,1,,,,,コアテック,0
1583,6240001057844,登記記録の閉鎖等,0,2025-04-30,2025-04-25,株式会社ドラッグアンドドロップ,,株式会社,広島県,広島市安佐南区,大塚西７丁目８－２８,,34,105,7313167,,,2025-04-25,清算の結了等,,,2021-04-20,1,,,,,ドラッグアンドドロップ,0
1619,6370002005698,登記記録の閉鎖等,0,2025-04-30,2025-04-10,有限会社トリオ印刷,,有限会社,宮城県,仙台市若林区,六丁の目中町２５番３３号,,04,103,9840012,,,2025-04-10,清算の結了等,,,2015-10-05,1,,,,,トリオインサツ,0
1628,6390003000622,登記記録の閉鎖等,0,2025-04-30,2025-04-24,合同会社介護サービスはる,,合同会社,山形県,鶴岡市,小国乙４３番地,,06,203,9997316,,,2025-04-24,清算の結了等,,,2015-10-05,1,,,,,カイゴサービスハル,0
1633,6430001065828,登記記録の閉鎖等,0,2025-04-30,2025-04-21,株式会社車好人舎,,株式会社,北海道,札幌市手稲区,曙五条４丁目２番１号,00088880,01,109,0060835,,,2025-04-21,清算の結了等,,,2015-10-05,1,,,,,,0
1642,6470002007858,登記記録の閉鎖等,0,2025-04-30,2025-04-23,有限会社住ま居るエステート,,有限会社,香川県,高松市,高松町４７７番地１０,,37,201,7610104,,,2025-04-23,清算の結了等,,,2015-10-05,1,,,,,スマイルエステート,0
1652,7010401007306,登記記録の閉鎖等,0,2025-04-30,2025-04-16,株式会社カラーマーキングファクトリー,,株式会社,東京都,大田区,大森東１丁目２７番７号,,13,111,1430012,,,2025-04-16,清算の結了等,,,2015-10-05,1,,,,,カラーマーキングファクトリー,0
1668,7010802018026,登記記録の閉鎖等,0,2025-04-30,2025-04-09,有限会社ロゾコンサルティング,,有限会社,東京都,大田区,南六郷１丁目３番１３号,,13,111,1440045,,,2025-04-09,清算の結了等,,,2015-10-05,1,,,,,ロゾコンサルティング,0
1683,7011201022742,登記記録の閉鎖等,0,2025-04-30,2025-04-25,株式会社ＥＭＥＴ　ＬＥ　ＪＯＵＥＴ,,株式会社,東京都,中野区,弥生町１丁目３４番８－２０８号,,13,114,1640013,,,2025-04-25,清算の結了等,,,2021-02-15,1,,,,,エメルジュエ,0
1690,7011302016081,登記記録の閉鎖等,0,2025-04-30,2025-04-24,有限会社ウイズ・リバー,,有限会社,東京都,杉並区,和泉２丁目５番４６号,,13,115,1680063,,,2025-04-24,清算の結了等,,,2015-10-05,1,,,,,ウイズリバー,0
1695,7011702004470,登記記録の閉鎖等,0,2025-04-30,2025-04-21,三和興業有限会社,,有限会社,東京都,江戸川区,北小岩３丁目２６番１６号,,13,123,1330051,,,2025-04-21,清算の結了等,,,2015-10-05,1,,,,,サンワコウギョウ,0
1714,7020002078670,登記記録の閉鎖等,0,2025-04-30,2025-04-15,有限会社エイ・エス・エム,,有限会社,神奈川県,横浜市鶴見区,鶴見中央２丁目１４番２８－６０１号,,14,101,2300051,,,2025-04-15,清算の結了等,,,2015-10-05,1,,,,,エイエスエム,0
1723,7030001023619,登記記録の閉鎖等,0,2025-04-30,2025-04-23,あらい寝具株式会社,,株式会社,埼玉県,所沢市,東住吉９番５号,,11,208,3591124,,,2025-04-23,清算の結了等,,,2015-10-05,1,,,,,アライシング,0
1725,7030001031142,登記記録の閉鎖等,0,2025-04-30,2025-04-24,株式会社トウエン,,株式会社,埼玉県,久喜市,菖蒲町上栢間４０７２番地,,11,232,3460114,,,2025-04-24,清算の結了等,,,2015-10-05,1,,,,,トウエン,0
1731,7030001113758,登記記録の閉鎖等,0,2025-04-30,2025-04-22,株式会社ＢＢプロシス,,株式会社,埼玉県,上尾市,愛宕１丁目７番１０号,,11,219,3620034,,,2025-04-22,清算の結了等,,,2016-04-11,1,,,,,ビービープロシス,0
1737,7030002025952,登記記録の閉鎖等,0,2025-04-30,2025-04-22,進栄精機有限会社,,有限会社,埼玉県,蕨市,中央２丁目１番３４号,,11,223,3350004,,,2025-04-22,清算の結了等,,,2015-10-05,1,,,,,シンエイセイキ,0
1738,7030002026034,登記記録の閉鎖等,0,2025-04-30,2025-04-24,有限会社セキ,,有限会社,埼玉県,蕨市,北町２丁目６番３号,,11,223,3350001,,,2025-04-24,清算の結了等,,,2015-10-05,1,,,,,セキ,0
1751,7040002011002,登記記録の閉鎖等,0,2025-04-30,2025-04-07,有限会社マルセイ,,有限会社,千葉県,千葉市稲毛区,山王町２５０番地の６,,12,103,2630002,,,2025-04-07,清算の結了等,,,2015-10-05,1,,,,,マルセイ,0
1755,7050001000855,登記記録の閉鎖等,0,2025-04-30,2025-04-01,株式会社クリエイティブ・ソフト,,株式会社,茨城県,水戸市,城南１丁目７番５号,,08,201,3100803,,,2025-04-01,合併による解散等,5050001002358,令和７年４月１日茨城県水戸市城南一丁目５番１１号株式会社ユードム（5050001002358）に合併し解散,2015-10-05,1,,,,,クリエイティブソフト,0
1764,7060001018871,登記記録の閉鎖等,0,2025-04-30,2025-04-16,株式会社中央エンジニアリング,,株式会社,栃木県,足利市,福居町１５８５番地,,09,202,3260338,,,2025-04-16,清算の結了等,,,2015-10-05,1,,,,,チュウオウエンジニアリング,0
1770,7080102010536,登記記録の閉鎖等,0,2025-04-30,2025-04-21,有限会社瑞光,,有限会社,静岡県,田方郡函南町,塚本１１９番地の１０,,22,325,4190124,,,2025-04-21,清算の結了等,,,2015-10-05,1,,,,,,0
1774,7110001021795,登記記録の閉鎖等,0,2025-04-30,2025-04-14,ニッカ興産株式会社,,株式会社,新潟県,糸魚川市,大字田海１２番地１,,15,216,9490303,,,2025-04-14,清算の結了等,,,2015-10-05,1,,,,,ニッカコウサン,0
1777,7110005002841,登記記録の閉鎖等,0,2025-04-30,2025-04-11,巻酒販協同組合,,その他の設立登記法人,新潟県,新潟市西蒲区,巻甲２４２８番地４,,15,108,9530041,,,2025-04-11,清算の結了等,,,2015-10-05,1,,,,,マキシュハン,0
1779,7120001045967,登記記録の閉鎖等,0,2025-04-30,2025-04-23,ナガセ研磨機材株式会社,,株式会社,大阪府,大阪市西区,新町１丁目１番１７号,,27,106,5500013,,,2025-04-23,合併による解散等,1010001052996,令和７年４月１日東京都中央区日本橋小舟町１２番１５号ナガセエレックス株式会社（1010001052996）に合併し解散,2015-10-05,1,,,,,ナガセケンマキザイ,0
1780,7120001063457,登記記録の閉鎖等,0,2025-04-30,2025-04-22,侑希株式会社,,株式会社,兵庫県,尼崎市,西難波町４丁目６番３５号,,28,202,6600893,,,2025-04-22,合併による解散等,5140001048846,令和７年４月１８日兵庫県尼崎市西難波町四丁目６番３５号三晃海運株式会社（5140001048846）に合併し解散,2015-10-05,1,,,,,ユウキ,0
1798,7122001037317,登記記録の閉鎖等,0,2025-04-30,2025-04-25,株式会社チョコ,,株式会社,大阪府,東大阪市,衣摺５丁目１７番４号,,27,227,5770827,,,2025-04-25,清算の結了等,,,2023-08-30,1,,,,,チョコ,0
1800,7130001012636,登記記録の閉鎖等,0,2025-04-30,2025-04-23,株式会社京津,,株式会社,京都府,京都市山科区,御陵中内町３８番地７,,26,110,6078414,,,2025-04-23,清算の結了等,,,2015-10-05,1,,,,,ケイシン,0
1810,7160001000530,登記記録の閉鎖等,0,2025-04-30,2025-04-24,株式会社近畿分析センター,,株式会社,滋賀県,大津市,別保１丁目１５番４号,,25,201,5200835,,,2025-04-24,合併による解散等,6010401022933,令和７年４月１日東京都港区芝二丁目２２番１２号ＮＥＣファシリティーズ株式会社（6010401022933）に合併し解散,2015-10-05,1,,,,,キンキブンセキセンター,0
1816,7180001069812,登記記録の閉鎖等,0,2025-04-30,2025-04-22,株式会社山村合同事務所,,株式会社,愛知県,名古屋市千種区,松軒１丁目７番１５号ダイワビル,,23,101,4640084,,,2025-04-22,清算の結了等,,,2015-10-05,1,,,,,ヤマムラゴウドウジムショ,0
1817,7180001069903,登記記録の閉鎖等,0,2025-04-30,2025-04-18,株式会社ｍｏＫＡ建築工房,,株式会社,愛知県,名古屋市名東区,貴船１丁目２６７番地の５,,23,115,4650058,,,2025-04-18,清算の結了等,,,2015-10-05,1,,,,,モカケンチクコウボウ,0
1824,7180002083622,登記記録の閉鎖等,0,2025-04-30,2025-04-16,有限会社タイム,,有限会社,愛知県,半田市,大松町２丁目４３番地,,23,205,4750083,,,2025-04-16,清算の結了等,,,2015-10-05,1,,,,,タイム,0
1829,7180301020540,登記記録の閉鎖等,0,2025-04-30,2025-04-28,ケーシンホーム株式会社,,株式会社,愛知県,みよし市,三好町天王８４番地６,,23,236,4700224,,,2025-04-28,清算の結了等,,,2015-10-05,1,,,,,ケーシンホーム,0
1830,7180302013139,登記記録の閉鎖等,0,2025-04-30,2025-04-21,有限会社幸緑,,有限会社,愛知県,豊川市,久保町向田９番地の１,,23,207,4420856,,,2025-04-21,清算の結了等,,,2015-10-05,1,,,,,コウロク,0
1836,7220002010282,登記記録の閉鎖等,0,2025-04-30,2025-04-25,有限会社いさり,,有限会社,石川県,小松市,安宅新町丁２０番地１,,17,203,9230995,,,2025-04-25,清算の結了等,,,2015-10-05,1,,,,,,0
1860,7300002004053,登記記録の閉鎖等,0,2025-04-30,2025-04-28,有限会社オート・ギャラリー・ウーマン,,有限会社,佐賀県,神埼市,神埼町本告牟田１３６４番地３,,41,210,8420013,,,2025-04-28,清算の結了等,,,2015-10-05,1,,,,,,0
1867,7370001000996,登記記録の閉鎖等,0,2025-04-30,2025-04-23,トヨタホームとうほく株式会社,,株式会社,宮城県,仙台市泉区,泉中央１丁目３３番地の４,,04,105,9813133,,,2025-04-23,合併による解散等,2060001003242,令和７年４月１日栃木県宇都宮市一ノ沢町２５６番地７トヨタウッドユーホーム株式会社（2060001003242）に合併し解散,2015-10-05,1,,,,,トヨタホームトウホク,0
1872,7380002034679,登記記録の閉鎖等,0,2025-04-30,2025-04-14,有限会社大塚建設,,有限会社,福島県,喜多方市,字町西９０４５番地６,,07,208,9660857,,,2025-04-14,清算の結了等,,,2015-10-05,1,,,,,オオツカケンセツ,0
1892,8010001105871,登記記録の閉鎖等,0,2025-04-30,2025-04-01,株式会社ジュパホールディングス,,株式会社,東京都,台東区,上野１丁目３番７号,,13,106,1100005,,,2025-04-01,合併による解散等,9010001018817,令和７年４月１日東京都台東区上野一丁目３番７号株式会社ジュパ（9010001018817）に合併し解散,2015-10-05,1,,,,,ジュパホールディングス,0
1906,8010401002611,登記記録の閉鎖等,0,2025-04-30,2025-03-31,株式会社東京インターナショナルスクール,,株式会社,東京都,目黒区,下目黒２丁目２０番２８号,,13,110,1530064,,,2025-03-31,合併による解散等,6010401095599,令和７年３月２８日東京都目黒区下目黒二丁目２０番２８号株式会社東京インターナショナルスクールグループ（6010401095599）に合併し解散,2015-10-05,1,,,,,トウキョウインターナショナルスクール,0
1908,8010401082190,登記記録の閉鎖等,0,2025-04-30,2025-04-16,株式会社デザインコート,,株式会社,東京都,品川区,旗の台４丁目９番４号,,13,109,1420064,,,2025-04-16,清算の結了等,,,2015-10-05,1,,,,,デザインコート,0
1919,8010502015529,登記記録の閉鎖等,0,2025-04-30,2025-04-04,有限会社ジェイズ・エンタープライズ,,有限会社,東京都,台東区,上野５丁目２２番１号,,13,106,1100005,,,2025-04-04,清算の結了等,,,2015-10-05,1,,,,,ジェイズエンタープライズ,0
1925,8010701032531,登記記録の閉鎖等,0,2025-04-30,2025-04-01,株式会社エフ・コネクト,,株式会社,東京都,渋谷区,南平台町３番８号渋谷ＴＳＫビル４階,,13,113,1500036,,,2025-04-01,合併による解散等,8011001130216,令和７年４月１日東京都渋谷区南平台町３番８号渋谷ＴＳＫビル４階匠Ｌａｕｒｅｎ株式会社（8011001130216）に合併し解散,2016-06-08,1,,,,,エフコネクト,0
1964,8020001019047,登記記録の閉鎖等,0,2025-04-30,2025-04-11,株式会社豊建,,株式会社,神奈川県,横浜市鶴見区,岸谷３丁目３５番１８号,,14,101,2300078,,,2025-04-11,清算の結了等,,,2015-10-05,1,,,,,ホウケン,0
1975,8020002082911,登記記録の閉鎖等,0,2025-04-30,2025-04-15,有限会社伊藤精工,,有限会社,神奈川県,川崎市中原区,小杉陣屋町１丁目２７番２６号,,14,133,2110062,,,2025-04-15,清算の結了等,,,2015-10-05,1,,,,,イトウセイコウ,0
1993,8030002038202,登記記録の閉鎖等,0,2025-04-30,2025-04-22,有限会社精重,,有限会社,埼玉県,久喜市,青毛３丁目１０番地４,,11,232,3460011,,,2025-04-22,清算の結了等,,,2015-10-05,1,,,,,セイジュウ,0
2000,8040001058299,登記記録の閉鎖等,0,2025-04-30,2025-04-11,株式会社太陽サンド,,株式会社,千葉県,千葉市稲毛区,作草部１丁目３１番２１号,,12,103,2630015,,,2025-04-11,清算の結了等,,,2015-10-05,1,,,,,タイヨウサンド,0
2017,8040002083726,登記記録の閉鎖等,0,2025-04-30,2025-04-07,有限会社佐瀬ポンプ商会,,有限会社,千葉県,香取郡多古町,船越１９７７番地,,12,347,2892244,,,2025-04-07,清算の結了等,,,2015-10-05,1,,,,,サセポンプショウカイ,0
2045,8080101001048,登記記録の閉鎖等,0,2025-04-30,2025-04-22,株式会社高瀬製材所,,株式会社,静岡県,沼津市,中沢田４７３番地の１,,22,203,4100006,,,2025-04-22,清算の結了等,,,2015-10-05,1,,,,,タカセセイザイジョ,0
2049,8100001005179,登記記録の閉鎖等,0,2025-04-30,2025-04-25,株式会社リビック長野,,株式会社,長野県,長野市,大字稲葉２７４４番地,,20,201,3800911,,,2025-04-25,合併による解散等,2230001000759,令和７年４月２１日富山市高木２０００番地北日本物産株式会社（2230001000759）に合併し解散,2015-10-05,1,,,,,リビックナガノ,0
2052,8110001013263,登記記録の閉鎖等,0,2025-04-30,2025-04-24,株式会社日立産機中条エンジニアリング,,株式会社,新潟県,胎内市,富岡４６番地１,,15,227,9592608,,,2025-04-24,合併による解散等,3040001014505,令和７年４月１日千葉県習志野市東習志野三丁目１５番１１号株式会社日立産機グリーンテック（3040001014505）に合併し解散,2015-10-05,1,,,,,ヒタチサンキナカジョウエンジニアリング,0
2106,8140001086257,登記記録の閉鎖等,0,2025-04-30,2025-04-22,株式会社はやぶさ調剤薬局,,株式会社,兵庫県,淡路市,久留麻１９０７番地,,28,226,6562311,,,2025-04-22,清算の結了等,,,2015-10-05,1,,,,,ハヤブサチョウザイヤッキョク,0
2125,8180001013034,登記記録の閉鎖等,0,2025-04-30,2025-04-18,ナゴヤ・ホールセール株式会社,,株式会社,愛知県,名古屋市北区,丸新町３３８番地,,23,103,4620063,,,2025-04-18,清算の結了等,,,2015-10-05,1,,,,,ナゴヤホールセール,0
2127,8180001046991,登記記録の閉鎖等,0,2025-04-30,2025-04-21,株式会社富士源,,株式会社,愛知県,西春日井郡豊山町,大字豊場字諏訪２４４番地,,23,342,4800202,,,2025-04-21,清算の結了等,,,2015-10-05,1,,,,,フジゲン,0
2128,8180001052718,登記記録の閉鎖等,0,2025-04-30,2025-04-22,株式会社トリニティフォユー,,株式会社,愛知県,名古屋市中区,栄４丁目１５番２３号,,23,106,4600008,,,2025-04-22,清算の結了等,,,2015-10-05,1,,,,,トリニティフォユー,0
2139,8180002051776,登記記録の閉鎖等,0,2025-04-30,2025-04-11,有限会社小崎商店,00073201,有限会社,愛知県,北名古屋市,二子神明２３番地,,23,234,4810013,,,2025-04-11,清算の結了等,,,2015-10-05,1,,,,,コサキショウテン,0
2140,8180003026661,登記記録の閉鎖等,0,2025-04-30,2025-04-16,ＭＴＭ　Ｃａｒ　Ｅｘｐｅｒｔ合同会社,,合同会社,愛知県,名古屋市守山区,本地が丘１１０１グリーンコーポ白山１０６,,23,113,4630031,,,2025-04-16,清算の結了等,,,2024-04-23,1,,,,,エムティーエムカーエクスパート,0
2145,8190001017174,登記記録の閉鎖等,0,2025-04-30,2025-04-23,株式会社ニュージェイズ,,株式会社,三重県,四日市市,小古曽３丁目２番１５号,,24,202,5100958,,,2025-04-23,合併による解散等,6010701025339,令和７年４月１日東京都品川区大崎一丁目１１番１号株式会社エネックス（6010701025339）に合併し解散,2015-10-05,1,,,,,ニュージェイズ,0
2158,8230002000067,登記記録の閉鎖等,0,2025-04-30,2025-04-25,有限会社アン,,有限会社,富山県,富山市,布市２７８番地,,16,201,9398191,,,2025-04-25,清算の結了等,,,2015-10-05,1,,,,,,0
2187,8340005007172,登記記録の閉鎖等,0,2025-04-30,2025-04-14,農事組合法人ぷらちなファーム,,その他の設立登記法人,鹿児島県,鹿屋市,下祓川町２２６５番地４,,46,203,8930024,,,2025-04-14,清算の結了等,,,2015-10-05,1,,,,,プラチナファーム,0
2195,8360002000293,登記記録の閉鎖等,0,2025-04-30,2025-04-15,有限会社アルティ,,有限会社,沖縄県,那覇市,壺屋１丁目３４番３号,,47,201,9020065,,,2025-04-15,清算の結了等,,,2015-10-05,1,,,,,アルティ,0
2197,8370203000315,登記記録の閉鎖等,0,2025-04-30,2025-04-14,合同会社プロフィックス,,合同会社,宮城県,大崎市,古川大幡字月蔵４６番地７,,04,215,9896114,,,2025-04-14,清算の結了等,,,2015-10-05,1,,,,,プロフィックス,0
2213,8462501000714,登記記録の閉鎖等,0,2025-04-30,2025-04-24,大市市岡商店株式会社,,株式会社,北海道,目梨郡羅臼町,共栄町３番地２,,01,694,0861816,,,2025-04-24,清算の結了等,,,2016-12-06,1,,,,,ダイイチイチオカショウテン,0
2243,9010501046813,登記記録の閉鎖等,0,2025-04-30,2025-04-02,株式会社ハピネットファントム・スタジオ,,株式会社,東京都,台東区,駒形２丁目４番５号,,13,106,1110043,,,2025-04-02,合併による解散等,5010501041693,令和７年４月１日東京都台東区駒形二丁目４番５号株式会社ハピネット・メディアマーケティング（5010501041693）に合併し解散,2021-01-26,1,,,,,ハピネットファントムスタジオ,0
2251,9010701006170,登記記録の閉鎖等,0,2025-04-30,2025-04-14,ティーピーエスシステム株式会社,,株式会社,東京都,大田区,田園調布本町４６番３号,,13,111,1450072,,,2025-04-14,清算の結了等,,,2015-10-05,1,,,,,,0
2256,9010801017712,登記記録の閉鎖等,0,2025-04-30,2025-04-16,株式会社三協,,株式会社,東京都,大田区,蒲田１丁目２番８号,,13,111,1440052,,,2025-04-16,清算の結了等,,,2015-10-05,1,,,,,サンキョウ,0
2260,9010802012811,登記記録の閉鎖等,0,2025-04-30,2025-04-14,有限会社フラット・ワン,,有限会社,東京都,大田区,東矢口３丁目３番３－７０７号,,13,111,1460094,,,2025-04-14,清算の結了等,,,2015-10-05,1,,,,,フラットワン,0
2262,9011001041404,登記記録の閉鎖等,0,2025-04-30,2025-04-22,ディー・キュービック株式会社,,株式会社,東京都,渋谷区,代々木４丁目３０番３号,,13,113,1510053,,,2025-04-22,合併による解散等,6011001029170,令和７年４月１日仙台市青葉区一番町一丁目９番１号キューアンドエー株式会社（6011001029170）に合併し解散,2015-10-05,1,,,,,ディーキュービック,0
2268,9011003015694,登記記録の閉鎖等,0,2025-04-30,2025-04-01,縁パワーマーケティング合同会社,,合同会社,東京都,渋谷区,神宮前６丁目２３番４号桑野ビル２階,,13,113,1500001,,,2025-04-01,清算の結了等,,,2022-11-15,1,,,,,エンパワーマーケティング,0
2270,9011101085474,登記記録の閉鎖等,0,2025-04-30,2025-04-07,晃一郎株式会社,,株式会社,東京都,新宿区,南元町１４番地２,,13,104,1600012,,,2025-04-07,清算の結了等,,,2018-09-27,1,,,,,コウイチロウ,0
2278,9011501015287,登記記録の閉鎖等,0,2025-04-30,2025-04-24,株式会社ギャラクシィ,,株式会社,東京都,北区,滝野川５丁目１１番３号,,13,117,1140023,,,2025-04-24,清算の結了等,,,2015-10-05,1,,,,,ギャラクシィ,0
2290,9012401030351,登記記録の閉鎖等,0,2025-04-30,2025-04-15,株式会社グランリアン,,株式会社,東京都,調布市,布田１丁目１２番６号,,13,208,1820024,,,2025-04-15,清算の結了等,,,2015-10-05,1,,,,,グランリアン,0
2308,9020003023426,登記記録の閉鎖等,0,2025-04-30,2025-04-15,合同会社ｅｍｐａｌｅｔｔｅ,,合同会社,神奈川県,横浜市西区,浅間町１丁目４番地３,,14,103,2200072,,,2025-04-15,清算の結了等,,,2023-03-06,1,,,,,エンパレット,0
2312,9030001052104,登記記録の閉鎖等,0,2025-04-30,2025-04-24,株式会社中川,,株式会社,埼玉県,春日部市,大衾１３番地１,,11,214,3440116,,,2025-04-24,清算の結了等,,,2015-10-05,1,,,,,ナカガワ,0
2319,9030002062556,登記記録の閉鎖等,0,2025-04-30,2025-04-24,有限会社友星社,,有限会社,埼玉県,朝霞市,泉水１丁目７番４３－１３０４号,,11,227,3510024,,,2025-04-24,清算の結了等,,,2015-10-05,1,,,,,ユウセイシャ,0
2320,9030003023292,登記記録の閉鎖等,0,2025-04-30,2025-04-23,合同会社アイリス,,合同会社,埼玉県,深谷市,上野台２４１番地３,,11,218,3660801,,,2025-04-23,清算の結了等,,,2023-12-28,1,,,,,アイリス,0
2324,9040001036907,登記記録の閉鎖等,0,2025-04-30,2025-04-11,株式会社柾谷工務店,,株式会社,千葉県,松戸市,秋山４６１番地１,,12,207,2702223,,,2025-04-11,清算の結了等,,,2015-10-05,1,,,,,マサヤコウムテン,0
2329,9040002003872,登記記録の閉鎖等,0,2025-04-30,2025-04-14,有限会社ケンの市場,,有限会社,千葉県,千葉市若葉区,若松町２１３３番地２,,12,104,2640021,,,2025-04-14,清算の結了等,,,2015-10-05,1,,,,,ケンノイチバ,0
2332,9040002063520,登記記録の閉鎖等,0,2025-04-30,2025-04-11,有限会社土屋産業,,有限会社,千葉県,八街市,四木３０３番地,,12,230,2891122,,,2025-04-11,清算の結了等,,,2015-10-05,1,,,,,ツチヤサンギョウ,0
2339,9070001016501,登記記録の閉鎖等,0,2025-04-30,2025-04-22,株式会社藤生建設,,株式会社,群馬県,みどり市,笠懸町阿左美９８０番地,,10,212,3792311,,,2025-04-22,清算の結了等,,,2015-10-05,1,,,,,,0
2350,9100002015952,登記記録の閉鎖等,0,2025-04-30,2025-04-24,有限会社細谷鋳造所,,有限会社,長野県,東御市,滋野１５６０番地１,,20,219,3890513,,,2025-04-24,清算の結了等,,,2015-10-05,1,,,,,ホソヤチュウゾウジョ,0
2394,9140002054658,登記記録の閉鎖等,0,2025-04-30,2025-04-22,有限会社新和工作所,,有限会社,兵庫県,三田市,下青野４０２番地,,28,219,6691302,,,2025-04-22,清算の結了等,,,2015-10-05,1,,,,,シンワコウサクショ,0
2395,9140002062099,登記記録の閉鎖等,0,2025-04-30,2025-04-21,有限会社フロイント技研,,有限会社,兵庫県,西脇市,和田町２８番地,,28,213,6770052,,,2025-04-21,清算の結了等,,,2015-10-05,1,,,,,フロイントギケン,0
2398,9150001019933,登記記録の閉鎖等,0,2025-04-30,2025-04-22,Ｔａｓｋ　Ｓｈａｒｅ株式会社,,株式会社,東京都,渋谷区,渋谷２丁目１９－１５宮益坂ビルディング６０９,,13,113,1500002,,,2025-04-22,合併による解散等,9011701022208,令和７年４月１日東京都港区港南２－１６－２太陽生命品川ビル２８Ｆ株式会社Ｍｏｎｏｐｏｌｙ（9011701022208）に合併し解散,2015-10-05,1,,,,,タスクシェア,0
2424,9200003005199,登記記録の閉鎖等,0,2025-04-30,2025-04-18,合同会社ストーク,,合同会社,岐阜県,岐阜市,正木南１丁目１２番１７号,,21,201,5020866,,,2025-04-18,清算の結了等,,,2021-05-18,1,,,,,ストーク,0
2465,9360005005487,登記記録の閉鎖等,0,2025-04-30,2025-04-15,一般社団法人沖縄県認知症介護指導者会,,その他の設立登記法人,沖縄県,浦添市,当山２丁目１７番１１号（ケアセンターココロすまいる内）,,47,208,9012104,,,2025-04-15,清算の結了等,,,2016-12-14,1,,,,,オキナワケンニンチショウカイゴシドウシャカイ,0
2467,9380002024389,登記記録の閉鎖等,0,2025-04-30,2025-04-23,有限会社スパジオ,,有限会社,福島県,いわき市,渡辺町田部字渡部３６番地の１６,,07,204,9728334,,,2025-04-23,清算の結了等,,,2015-10-05,1,,,,,スパジオ,0
2472,9430001066600,登記記録の閉鎖等,0,2025-04-30,2025-04-18,Ａｃｏｒｎ株式会社,,株式会社,北海道,札幌市中央区,南二条西７丁目１番地５、２・７ビル２階,,01,101,0600062,,,2025-04-18,清算の結了等,,,2015-10-05,1,,,,,エイコーン,0
