sequenceNumber,corporateNumber,process,correct,updateDate,changeDate,name,nameImageId,kind,prefectureName,cityName,streetNumber,addressImageId,prefectureCode,cityCode,postCode,addressOutside,addressOutsideImageId,closeDate,closeCause,successorCorporateNumber,changeCause,assignmentDate,latest,enName,enPrefectureName,enCityName,enAddressOutside,furigana,hihyoji
11,1010003039876,新規,0,2023-02-20,2023-02-20,合同会社ＭＹＧＫ５号,,合同会社,東京都,千代田区,丸の内３丁目１番１号東京共同会計事務所内,,13,101,1000005,,,,,,,2023-02-20,1,,,,,マイジーケーゴゴウ,0
12,1010005036269,新規,0,2023-02-20,2023-02-20,一般社団法人すごい会社協会,,その他の設立登記法人,東京都,中央区,銀座７丁目１５番１８号銀ビル３Ｆ,,13,102,1040061,,,,,,,2023-02-20,1,,,,,スゴイカイシャキョウカイ,0
15,1010401172452,新規,0,2023-02-20,2023-02-20,ソリッドバッテリー株式会社,,株式会社,東京都,港区,赤坂３丁目９番１８号ＢＩＣ赤坂ビル３階,,13,103,1070052,,,,,,,2023-02-20,1,,,,,ソリッドバッテリー,0
16,1010401172535,新規,0,2023-02-20,2023-02-20,Ｊａｐａｎ　ＳＣ２株式会社,,株式会社,東京都,港区,南青山３丁目８番１４号ＡＵＳＰＩＣＥＯＭＯＴＥＳＡＮＤＯ,,13,103,1070062,,,,,,,2023-02-20,1,,,,,ジャパンエスシーツー,0
17,1010401172618,新規,0,2023-02-20,2023-02-20,株式会社Ｙ＆Ｓ,,株式会社,東京都,港区,浜松町２丁目２番１５号浜松町ダイヤビル２Ｆ,,13,103,1050013,,,,,,,2023-02-20,1,,,,,ワイアンドエス,0
18,1010401172634,新規,0,2023-02-20,2023-02-20,株式会社Ｆ．ｓａｖｅ,,株式会社,東京都,港区,南青山３丁目１番３６号青山丸竹ビル６Ｆ,,13,103,1070062,,,,,,,2023-02-20,1,,,,,エフサーブ,0
22,1010403029089,新規,0,2023-02-20,2023-02-20,Ｇｒｏｗ合同会社,,合同会社,東京都,港区,南麻布３丁目３番３３号Ｂ,,13,103,1060047,,,,,,,2023-02-20,1,,,,,グロー,0
24,1010405021795,新規,0,2023-02-20,2023-02-20,一般社団法人日本ミャンマー青少年仏教会,,その他の設立登記法人,東京都,港区,赤坂４丁目５番１号,,13,103,1070052,,,,,,,2023-02-20,1,,,,,ニホンミャンマーセイショウネンブッキョウカイ,0
25,1010405021845,新規,0,2023-02-20,2023-02-20,名古屋インベストメンツ１一般社団法人,,その他の設立登記法人,東京都,港区,六本木１丁目６番１号泉ガーデンタワー,,13,103,1060032,,,,,,,2023-02-20,1,,,,,ナゴヤインベストメンツワン,0
31,1010601062635,新規,0,2023-02-20,2023-02-20,ＹＯＭＩ　Ｉｎｔｅｒｎａｔｉｏｎａｌ株式会社,,株式会社,東京都,江東区,住吉１丁目２番２１－１０２号,,13,108,1350002,,,,,,,2023-02-20,1,,,,,ヨミインターナショナル,0
49,1011001152654,新規,0,2023-02-20,2023-02-20,ＴＯＳＨＩ　ｍｅｍｏｒｉａｌ株式会社,,株式会社,東京都,渋谷区,道玄坂２丁目１９－３ライオンズマンション道玄坂６０１,,13,113,1500043,,,,,,,2023-02-20,1,,,,,トシメモリアル,0
50,1011001152695,新規,0,2023-02-20,2023-02-20,リーントラベルアド株式会社,,株式会社,東京都,渋谷区,神宮前６丁目２３番４号桑野ビル２Ｆ,,13,113,1500001,,,,,,,2023-02-20,1,,,,,リーントラベルアド,0
51,1011001152720,新規,0,2023-02-20,2023-02-20,株式会社ＹＩ,,株式会社,東京都,渋谷区,道玄坂１丁目１０番８号渋谷道玄坂東急ビル２Ｆ－Ｃ,,13,113,1500043,,,,,,,2023-02-20,1,,,,,ワイアイ,0
68,1011401024916,新規,0,2023-02-20,2023-02-20,嘉霖株式会社,,株式会社,東京都,板橋区,上板橋２丁目２４番６号,,13,119,1740076,,,,,,,2023-02-20,1,,,,,カリン,0
69,1011501028957,新規,0,2023-02-20,2023-02-20,楽星株式会社,,株式会社,東京都,北区,東田端２丁目８番１５号マンションニュー田端１０４号－Ａ,,13,117,1140013,,,,,,,2023-02-20,1,,,,,ラクセイ,0
70,1011501028973,新規,0,2023-02-20,2023-02-20,株式会社三幸,,株式会社,東京都,北区,田端３丁目２４番７号,,13,117,1140014,,,,,,,2023-02-20,1,,,,,サンコウ,0
77,1011601026596,新規,0,2023-02-20,2023-02-20,株式会社アベプラミング,,株式会社,東京都,練馬区,大泉町５丁目１１番２号,,13,120,1780062,,,,,,,2023-02-20,1,,,,,アベプラミング,0
81,1012301013323,新規,0,2023-02-20,2023-02-20,株式会社町環スチール,,株式会社,東京都,町田市,南町田１丁目３番３１号,,13,209,1940005,,,,,,,2023-02-20,1,,,,,マチカンスチール,0
82,1012401040201,新規,0,2023-02-20,2023-02-20,株式会社ＦＲＥＥＤＯＭＺ,,株式会社,東京都,府中市,八幡町２丁目４番地の１７ハウス・イン・ボス府中６０２,,13,206,1830016,,,,,,,2023-02-20,1,,,,,フリーダムズ,0
84,1012403005838,新規,0,2023-02-20,2023-02-20,合同会社Ｍｅｓｓｉａｈ,,合同会社,東京都,調布市,仙川町１丁目３５番地３６,,13,208,1820002,,,,,,,2023-02-20,1,,,,,メシア,0
91,1020003023202,新規,0,2023-02-20,2023-02-20,合同会社小泉商会,,合同会社,神奈川県,横浜市港北区,篠原東２丁目１７－１８,,14,109,2220022,,,,,,,2023-02-20,1,,,,,コイズミショウカイ,0
92,1020003023350,新規,0,2023-02-20,2023-02-20,合同会社ＢＬＵＥ　ＬＩＦＥ,,合同会社,神奈川県,横浜市南区,六ツ川３丁目６－３－３０１,,14,105,2320066,,,,,,,2023-02-20,1,,,,,ブルーライフ,0
96,1030005021145,新規,0,2023-02-20,2023-02-20,一般社団法人アーレスト上尾,,その他の設立登記法人,埼玉県,上尾市,壱丁目北６番地４,,11,219,3620081,,,,,,,2023-02-20,1,,,,,アーレストアゲオ,0
101,1040001127143,新規,0,2023-02-20,2023-02-20,株式会社サイネム,,株式会社,千葉県,市川市,相之川１丁目１６番１４号,,12,203,2720143,,,,,,,2023-02-20,1,,,,,サイネム,0
104,1040003021971,新規,0,2023-02-20,2023-02-20,合同会社双極工業,,合同会社,千葉県,野田市,中戸４７６番地１５,,12,208,2700215,,,,,,,2023-02-20,1,,,,,ソウキョクコウギョウ,0
105,1040003021988,新規,0,2023-02-20,2023-02-20,Ａ．Ｓ．Ｐ．ＴＲＡＤＥ　ＪＡＰＡＮ合同会社,,合同会社,千葉県,佐倉市,生谷９７３－２－２Ｆ－２０１,,12,212,2850836,,,,,,,2023-02-20,1,,,,,エーエスピートレードジャパン,0
106,1040003021996,新規,0,2023-02-20,2023-02-20,合同会社佐々木建設,,合同会社,千葉県,柏市,南逆井４丁目２７番４５号,,12,217,2770043,,,,,,,2023-02-20,1,,,,,ササキケンセツ,0
107,1040005021904,新規,0,2023-02-20,2023-02-20,一般社団法人あかり,,その他の設立登記法人,千葉県,山武市,美杉野１丁目１５番地５,,12,237,2891224,,,,,,,2023-02-20,1,,,,,アカリ,0
114,1060001035716,新規,0,2023-02-20,2023-02-20,株式会社ＷＡＴＡＮＡＢＥ,,株式会社,栃木県,宇都宮市,今泉新町１１１番地７,,09,201,3210961,,,,,,,2023-02-20,1,,,,,ワタナベ,0
118,1070001040137,新規,0,2023-02-20,2023-02-20,株式会社ユーゴーホールディングス,,株式会社,群馬県,高崎市,上大類町４７７番地,,10,202,3700031,,,,,,,2023-02-20,1,,,,,ユーゴーホールディングス,0
124,1090003002249,新規,0,2023-02-20,2023-02-20,合同会社甲斐心,,合同会社,山梨県,北都留郡丹波山村,２６５１番地,,19,443,4090300,,,,,,,2023-02-20,1,,,,,カイシン,0
133,1100003006891,新規,0,2023-02-20,2023-02-20,合同会社平林解体,,合同会社,長野県,千曲市,大字須坂４７９番地１,,20,218,3890811,,,,,,,2023-02-20,1,,,,,ヒラバヤシカイタイ,0
137,1110001037302,新規,0,2023-02-20,2023-02-20,株式会社エムＬＩＮＥ,,株式会社,新潟県,妙高市,月岡１丁目１４番１７号,,15,217,9440003,,,,,,,2023-02-20,1,,,,,エムライン,0
155,1120001252536,新規,0,2023-02-20,2023-02-20,株式会社スマイルホーム,,株式会社,大阪府,大阪市中央区,南久宝寺町１丁目４番１５号ＥＩＫＡビル４０２号室,,27,128,5410058,,,,,,,2023-02-20,1,,,,,スマイルホーム,0
156,1120001252619,新規,0,2023-02-20,2023-02-20,株式会社ＡＭＡＫＵコーポレーション,,株式会社,大阪府,大阪市浪速区,日本橋４丁目８番１６号ＫＵＳ日本橋４０１号室,,27,111,5560005,,,,,,,2023-02-20,1,,,,,アマクコーポレーション,0
157,1120001252643,新規,0,2023-02-20,2023-02-20,株式会社Ｇｏｏｄ　Ｓｕｐｐｏｒｔ,,株式会社,大阪府,大阪市東住吉区,駒川３丁目１４番４号,,27,121,5460043,,,,,,,2023-02-20,1,,,,,グッドサポート,0
158,1120001252651,新規,0,2023-02-20,2023-02-20,Ｂｅａｕｔｉｆｕｌ　Ｓｐｒｉｎｇ　Ｔｒａｄｉｎｇ株式会社,,株式会社,大阪府,大阪市生野区,田島２丁目１３番１４号,,27,116,5440011,,,,,,,2023-02-20,1,,,,,ビューティフルスプリングトレーディング,0
164,1130001073709,新規,0,2023-02-20,2023-02-20,株式会社レイ・プランニング,,株式会社,京都府,木津川市,木津宮ノ堀８９番地１ＳｕｎＧａｒａｇｅ１,,26,214,6190214,,,,,,,2023-02-20,1,,,,,レイプランニング,0
167,1130003008539,新規,0,2023-02-20,2023-02-20,合同会社伸興産業,,合同会社,京都府,綴喜郡宇治田原町,大字南小字上ノ山６番１８,,26,344,6100241,,,,,,,2023-02-20,1,,,,,シンコウサンギョウ,0
174,1140001129170,新規,0,2023-02-20,2023-02-20,株式会社松尾モータープール,,株式会社,兵庫県,尼崎市,食満５丁目２４番１号,,28,202,6610982,,,,,,,2023-02-20,1,,,,,マツオモータープール,0
182,1160001024840,新規,0,2023-02-20,2023-02-20,湖北ハイトラスト株式会社,,株式会社,滋賀県,長浜市,山階町４５５番地３２,,25,203,5260847,,,,,,,2023-02-20,1,,,,,コホクハイトラスト,0
192,1180001155015,新規,0,2023-02-20,2023-02-20,株式会社佐藤工業,,株式会社,愛知県,名古屋市西区,城西町１４７番地グランドゥール城西２０１号,,23,104,4520841,,,,,,,2023-02-20,1,,,,,サトウコウギョウ,0
194,1180003024837,新規,0,2023-02-20,2023-02-20,合同会社ＭｉｕＴｒｉｇｇｅｒ,,合同会社,愛知県,名古屋市中川区,万町２０２番地サンライズ小本２０１号,,23,110,4540872,,,,,,,2023-02-20,1,,,,,ミウトリガー,0
217,1290001100505,新規,0,2023-02-20,2023-02-20,株式会社ＦＷ,,株式会社,福岡県,福岡市博多区,中洲４丁目１－３１マエダビル４階,,40,132,8100801,,,,,,,2023-02-20,1,,,,,エフダブル,0
223,1320001019576,新規,0,2023-02-20,2023-02-20,株式会社マッシュ,,株式会社,大分県,宇佐市,大字下庄１８４番地の２,,44,211,8790152,,,,,,,2023-02-20,1,,,,,マッシュ,0
227,1380001033489,新規,0,2023-02-20,2023-02-20,株式会社フレッシュファームＯＫ,,株式会社,福島県,相馬市,塚ノ町１丁目１番地の７Ｃ－１０４,,07,209,9760015,,,,,,,2023-02-20,1,,,,,フレッシュファームオーケー,0
234,1470001019479,新規,0,2023-02-20,2023-02-20,株式会社ドリームハート,,株式会社,香川県,高松市,川島東町１７９０番地４,,37,201,7610443,,,,,,,2023-02-20,1,,,,,ドリームハート,0
237,1500003002982,新規,0,2023-02-20,2023-02-20,ａ‐ｔｅｃｈ合同会社,,合同会社,愛媛県,松山市,安城寺町４８５－１Ｄ１ファクトリー安城寺３号室,,38,201,7918006,,,,,,,2023-02-20,1,,,,,エーテック,0
240,2010001232746,新規,0,2023-02-20,2023-02-20,ＨｅａｒｔＣｏｒｅ　Ｃａｐｉｔａｌ　Ａｄｖｉｓｏｒｓ株式会社,,株式会社,東京都,千代田区,霞が関３丁目２－５霞が関ビルディング３６階,,13,101,1000013,,,,,,,2023-02-20,1,,,,,ハートコアキャピタルアドバイザーズ,0
241,2010001233026,新規,0,2023-02-20,2023-02-20,株式会社ＦＯＯＤ　ＦＩＥＬＤ　ＣＲＥＡＴＩＶＥ,,株式会社,東京都,文京区,白山４丁目３７番２５号,,13,105,1120001,,,,,,,2023-02-20,1,,,,,フードフィールドクリエイティブ,0
242,2010001233083,新規,0,2023-02-20,2023-02-20,珠洲風力開発株式会社,,株式会社,東京都,千代田区,霞が関３丁目２番５号,,13,101,1000013,,,,,,,2023-02-20,1,,,,,スズフウリョクカイハツ,0
243,2010001233091,新規,0,2023-02-20,2023-02-20,株式会社ＢＣＪ‐６２,,株式会社,東京都,千代田区,丸の内１丁目１番１号パレスビル５階,,13,101,1000005,,,,,,,2023-02-20,1,,,,,ビーシージェイシックスティートゥー,0
244,2010001233174,新規,0,2023-02-20,2023-02-20,ＢＳホールディングス株式会社,,株式会社,東京都,千代田区,大手町２丁目３番２号,,13,101,1000004,,,,,,,2023-02-20,1,,,,,ビーエスホールディングス,0
249,2010003039859,新規,0,2023-02-20,2023-02-20,合同会社オーフィンド,,合同会社,東京都,中央区,佃１丁目１１番３－１０６号,,13,102,1040051,,,,,,,2023-02-20,1,,,,,オーフィンド,0
250,2010003039875,新規,0,2023-02-20,2023-02-20,合同会社ビーターズ,,合同会社,東京都,千代田区,外神田４丁目１４番２号東京タイムズタワー１２０３,,13,101,1010021,,,,,,,2023-02-20,1,,,,,ビーターズ,0
256,2010401172451,新規,0,2023-02-20,2023-02-20,株式会社Ｉ　ＧＲＥＥＮ,,株式会社,東京都,港区,元赤坂１丁目２番７号赤坂Ｋタワー４Ｆ,,13,103,1070051,,,,,,,2023-02-20,1,,,,,アイグリーン,0
260,2010403029542,新規,0,2023-02-20,2023-02-20,ＩＦＸ蓄電所合同会社,,合同会社,東京都,港区,新橋６丁目１７番２１号住友不動産御成門駅前ビル１０階,,13,103,1050004,,,,,,,2023-02-20,1,,,,,アイエフエックスチクデンジョ,0
261,2010403029550,新規,0,2023-02-20,2023-02-20,合同会社ＫＳＩＦ,,合同会社,東京都,港区,西新橋１丁目２番９号メンターキャピタル税理士法人内,,13,103,1050003,,,,,,,2023-02-20,1,,,,,ケイエスアイエフ,0
262,2010403029567,新規,0,2023-02-20,2023-02-20,合同会社ＳＥＥＤ１,,合同会社,東京都,港区,元赤坂１丁目１番７号,,13,103,1070051,,,,,,,2023-02-20,1,,,,,シードワン,0
263,2010403029575,新規,0,2023-02-20,2023-02-20,名古屋インベストメンツ１合同会社,,合同会社,東京都,港区,六本木１丁目６番１号泉ガーデンタワー,,13,103,1060032,,,,,,,2023-02-20,1,,,,,ナゴヤインベストメンツワン,0
264,2010405021844,新規,0,2023-02-20,2023-02-20,名古屋インベストメンツ特定目的会社,,その他の設立登記法人,東京都,港区,六本木１丁目６番１号泉ガーデンタワー,,13,103,1060032,,,,,,,2023-02-20,1,,,,,ナゴヤインベストメンツ,0
279,2010901052574,新規,0,2023-02-20,2023-02-20,株式会社Ｎｅｗｍａｒｋｅｔ,,株式会社,東京都,世田谷区,代田５丁目１－１８下北沢プレイス,,13,112,1550033,,,,,,,2023-02-20,1,,,,,ニューマーケット,0
284,2011001152678,新規,0,2023-02-20,2023-02-20,株式会社Ｃｌｅａｒ　Ｄｒｉｖｅ　Ｉｎｃ．,,株式会社,東京都,渋谷区,道玄坂１丁目２番３号渋谷フクラス１７Ｆ,,13,113,1500043,,,,,,,2023-02-20,1,,,,,クリアドライブインク,0
285,2011001152694,新規,0,2023-02-20,2023-02-20,ＱＩＱＩ‐Ｄｅｓｉｇｎ株式会社,,株式会社,東京都,渋谷区,神宮前５丁目４６番２９号３０２,,13,113,1500001,,,,,,,2023-02-20,1,,,,,キキデザイン,0
295,2011401024915,新規,0,2023-02-20,2023-02-20,株式会社プロシンシア,,株式会社,東京都,板橋区,成増２丁目３５番４号,,13,119,1750094,,,,,,,2023-02-20,1,,,,,プロシンシア,0
296,2011403003909,新規,0,2023-02-20,2023-02-20,Ｖｅｒｔｅｘ　Ｊａｐａｎ合同会社,,合同会社,東京都,板橋区,中丸町５９－５－４０５,,13,119,1730026,,,,,,,2023-02-20,1,,,,,ヴェルテックスジャパン,0
297,2011501028980,新規,0,2023-02-20,2023-02-20,曼の蓮株式会社,,株式会社,東京都,荒川区,南千住３丁目２７－２浅草ビル,,13,118,1160003,,,,,,,2023-02-20,1,,,,,マンノレン,0
298,2011503005490,新規,0,2023-02-20,2023-02-20,ガーデンライフ合同会社,,合同会社,東京都,北区,王子５丁目１－３ザ・ガーデンズ東京王子Ｃ１０５,,13,117,1140002,,,,,,,2023-02-20,1,,,,,ガーデンライフ,0
317,2030001152414,新規,0,2023-02-20,2023-02-20,株式会社タクミ,,株式会社,埼玉県,川口市,領家１丁目２２番１６号鳳マンション５０３,,11,203,3320004,,,,,,,2023-02-20,1,,,,,タクミ,0
318,2030001152471,新規,0,2023-02-20,2023-02-20,ＭＴインターネット株式会社,,株式会社,埼玉県,志木市,館２丁目３番１２－６０４号,,11,228,3530006,,,,,,,2023-02-20,1,,,,,エムティーインターネット,0
319,2030001152488,新規,0,2023-02-20,2023-02-20,株式会社ＳＬＡＶＡ,,株式会社,埼玉県,さいたま市西区,プラザ６番１５号,,11,101,3310063,,,,,,,2023-02-20,1,,,,,スラバ,0
320,2030001152496,新規,0,2023-02-20,2023-02-20,エフェックス株式会社,,株式会社,埼玉県,朝霞市,栄町３丁目５番１５号,,11,227,3510012,,,,,,,2023-02-20,1,,,,,エフェックス,0
330,2050001052422,新規,0,2023-02-20,2023-02-20,株式会社ガーディアン,,株式会社,茨城県,牛久市,南４丁目３７番地５,,08,219,3001222,,,,,,,2023-02-20,1,,,,,ガーディアン,0
352,2110001037301,新規,0,2023-02-20,2023-02-20,ドリームバンク株式会社,,株式会社,新潟県,上越市,板倉区稲増２８番地１,,15,222,9440101,,,,,,,2023-02-20,1,,,,,ドリームバンク,0
364,2120001252618,新規,0,2023-02-20,2023-02-20,アイエムピーホールディングス株式会社,,株式会社,大阪府,大阪市中央区,島之内１丁目１７番１２号長堀橋第２５松屋ビル２Ｆ,,27,128,5420082,,,,,,,2023-02-20,1,,,,,アイエムピーホールディングス,0
365,2120001252626,新規,0,2023-02-20,2023-02-20,株式会社友百合,,株式会社,大阪府,大阪市北区,本庄東１丁目２２番２５号,,27,127,5310074,,,,,,,2023-02-20,1,,,,,トモユリ,0
366,2120001252659,新規,0,2023-02-20,2023-02-20,サンド・テクノロジーズ株式会社,,株式会社,大阪府,大阪市西区,北堀江１丁目１４番２４号,,27,106,5500014,,,,,,,2023-02-20,1,,,,,サンドテクノロジーズ,0
370,2120003023389,新規,0,2023-02-20,2023-02-20,合同会社シンプルニーズ,,合同会社,大阪府,大阪市西区,南堀江４丁目３０番３０－１００１号,,27,106,5500015,,,,,,,2023-02-20,1,,,,,シンプルニーズ,0
372,2120101067008,新規,0,2023-02-20,2023-02-20,株式会社北栄コンクリート,,株式会社,大阪府,和泉市,三林町５４７番地の１,,27,219,5941112,,,,,,,2023-02-20,1,,,,,ホクエイコンクリート,0
376,2120901047150,新規,0,2023-02-20,2023-02-20,株式会社石川設備,,株式会社,大阪府,豊中市,豊南町東２丁目１１番２号,,27,203,5610814,,,,,,,2023-02-20,1,,,,,イシカワセツビ,0
385,2130001073674,新規,0,2023-02-20,2023-02-20,株式会社賢林社,,株式会社,京都府,京田辺市,薪堀切谷８番地３３,,26,211,6100341,,,,,,,2023-02-20,1,,,,,ケイリンシャ,0
394,2140001129161,新規,0,2023-02-20,2023-02-20,株式会社クレストホールディングス,,株式会社,兵庫県,西宮市,池田町１０番２－３０１号,,28,204,6620911,,,,,,,2023-02-20,1,,,,,クレストホールディングス,0
407,2180001155014,新規,0,2023-02-20,2023-02-20,株式会社ＫＬＣ,,株式会社,愛知県,海部郡大治町,大字三本木字西深田３６番地の３５,,23,424,4901142,,,,,,,2023-02-20,1,,,,,ケーエルシー,0
408,2180001155047,新規,0,2023-02-20,2023-02-20,株式会社酒井電設,,株式会社,愛知県,清須市,阿原神門１４１－Ｅ,,23,233,4520901,,,,,,,2023-02-20,1,,,,,サカイデンセツ,0
412,2180003024860,新規,0,2023-02-20,2023-02-20,合同会社ＴＭＧ研究所,,合同会社,愛知県,名古屋市瑞穂区,川澄町４丁目８番３号,,23,108,4670002,,,,,,,2023-02-20,1,,,,,ティーエムジーケンキュウジョ,0
416,2190003004234,新規,0,2023-02-20,2023-02-20,合同会社柏木工務店,,合同会社,三重県,鈴鹿市,末広北１丁目６番２号,,24,207,5130854,,,,,,,2023-02-20,1,,,,,カシワギコウムテン,0
427,2240003006027,新規,0,2023-02-20,2023-02-20,合同会社ＮＬＳ,,合同会社,広島県,広島市安芸区,中野２丁目６２番３号,,34,107,7390321,,,,,,,2023-02-20,1,,,,,エヌエルエス,0
440,2290001100603,新規,0,2023-02-20,2023-02-20,三苫電気株式会社,,株式会社,福岡県,福岡市西区,大字女原３９４番,,40,135,8190376,,,,,,,2023-02-20,1,,,,,ミトマデンキ,0
448,2310003004519,新規,0,2023-02-20,2023-02-20,合同会社ＤＳ．ＪＡＰＡＮ,,合同会社,長崎県,対馬市,厳原町久田４９番地１,,42,209,8170032,,,,,,,2023-02-20,1,,,,,ディーエスジャパン,0
453,2330001030606,新規,0,2023-02-20,2023-02-20,エコライフホーム株式会社,,株式会社,熊本県,熊本市東区,下南部３丁目１１－１２６リブラ久和１０１,,43,102,8618019,,,,,,,2023-02-20,1,,,,,エコライフホーム,0
454,2330003009730,新規,0,2023-02-20,2023-02-20,合同会社ＨＡＮＡ,,合同会社,熊本県,熊本市東区,戸島４丁目１－６０,,43,102,8618041,,,,,,,2023-02-20,1,,,,,ハナ,0
458,2360003012723,新規,0,2023-02-20,2023-02-20,合同会社ＩＺレンタカー,,合同会社,沖縄県,宮古島市,平良字荷川取１２６９－２,,47,214,9060008,,,,,,,2023-02-20,1,,,,,アイゼットレンタカー,0
465,2500003002981,新規,0,2023-02-20,2023-02-20,合同会社百山,,合同会社,愛媛県,松山市,千舟町５丁目３１－７－３階・４階,,38,201,7900011,,,,,,,2023-02-20,1,,,,,ヒャクヤマ,0
466,2500005008580,新規,0,2023-02-20,2023-02-20,一般社団法人しまなみスポーツ・野球振興協会,,その他の設立登記法人,愛媛県,今治市,唐子台東１丁目５番地４,,38,202,7991531,,,,,,,2023-02-20,1,,,,,シマナミスポーツヤキュウシンコウキョウカイ,0
472,3010001233090,新規,0,2023-02-20,2023-02-20,株式会社ＢＣＪ‐６１,,株式会社,東京都,千代田区,丸の内１丁目１番１号パレスビル５階,,13,101,1000005,,,,,,,2023-02-20,1,,,,,ビーシージェイシックスティーワン,0
473,3010001233173,新規,0,2023-02-20,2023-02-20,ＯＰＴＥＣＨ　ＥＮＥＲＧＹ株式会社,,株式会社,東京都,千代田区,大手町２丁目３番２号,,13,101,1000004,,,,,,,2023-02-20,1,,,,,オプテックエナジー,0
479,3010003039800,新規,0,2023-02-20,2023-02-20,合同会社Ｌａｗ　Ｔｒｅｅ,,合同会社,東京都,千代田区,九段南１丁目５番６号りそな九段ビル５Ｆ・ＫＳフロア,,13,101,1020074,,,,,,,2023-02-20,1,,,,,ロウツリー,0
480,3010003039858,新規,0,2023-02-20,2023-02-20,合同会社はやご,,合同会社,東京都,文京区,音羽１丁目３番２－７０１号,,13,105,1120013,,,,,,,2023-02-20,1,,,,,ハヤゴ,0
481,3010003039866,新規,0,2023-02-20,2023-02-20,合同会社ＡＦＴ,,合同会社,東京都,千代田区,丸の内３丁目１番１号東京共同会計事務所内,,13,101,1000005,,,,,,,2023-02-20,1,,,,,エーエフティ,0
490,3010401172517,新規,0,2023-02-20,2023-02-20,株式会社シードホールディングス,,株式会社,東京都,港区,西新橋１丁目１８番６号クロスオフィス内幸町,,13,103,1050003,,,,,,,2023-02-20,1,,,,,シードホールディングス,0
491,3010401172533,新規,0,2023-02-20,2023-02-20,株式会社ムービーハイツ,,株式会社,東京都,港区,新橋３丁目１１番８号オーイズミ新橋第２ビル天翔オフィス新橋赤レンガ通りＡＮＮＥＸ９０４号室,,13,103,1050004,,,,,,,2023-02-20,1,,,,,ムービーハイツ,0
492,3010401172541,新規,0,2023-02-20,2023-02-20,株式会社ｊａｍ,,株式会社,東京都,港区,六本木４丁目１０番１１号八巻ビル１Ｆ,,13,103,1060032,,,,,,,2023-02-20,1,,,,,ジャム,0
493,3010401172558,新規,0,2023-02-20,2023-02-20,株式会社アイパワー,,株式会社,東京都,港区,港南２丁目１６番２号太陽生命品川ビル２８Ｆ－Ｗ０４,,13,103,1080075,,,,,,,2023-02-20,1,,,,,アイパワー,0
495,3010403029541,新規,0,2023-02-20,2023-02-20,Ｇｏｒｅ　Ｓｔｒｅｅｔ　Ｅｎｅｒｇｙ　Ｓｔｏｒａｇｅ　Ｆｕｎｄ　Ｊａｐａｎ合同会社,,合同会社,東京都,港区,新橋６丁目１７番２１号住友不動産御成門駅前ビル１０階,,13,103,1050004,,,,,,,2023-02-20,1,,,,,ゴアストリートエナジーストレージファンドジャパン,0
496,3010403029558,新規,0,2023-02-20,2023-02-20,合同会社エウレカスプリングス,,合同会社,東京都,港区,高輪２丁目１６－４９高輪伊皿子坂ハイツ１０５号室,,13,103,1080074,,,,,,,2023-02-20,1,,,,,エウレカスプリングス,0
503,3010601062625,新規,0,2023-02-20,2023-02-20,ｍｏｃｈｒｏｍｅ株式会社,,株式会社,東京都,江東区,枝川１丁目１番４号コンシェリア豊洲５０１,,13,108,1350051,,,,,,,2023-02-20,1,,,,,モクローム,0
511,3010901052565,新規,0,2023-02-20,2023-02-20,ココロノート株式会社,,株式会社,東京都,世田谷区,野沢３丁目１７番７号,,13,112,1540003,,,,,,,2023-02-20,1,,,,,,0
524,3011201024437,新規,0,2023-02-20,2023-02-20,Ｍ＆Ｈ株式会社,,株式会社,東京都,中野区,中野１丁目６番９－３０２号,,13,114,1640001,,,,,,,2023-02-20,1,,,,,エムアンドエイチ,0
526,3011401024914,新規,0,2023-02-20,2023-02-20,ブライトタウン株式会社,,株式会社,東京都,板橋区,高島平１丁目２２番３号,,13,119,1750082,,,,,,,2023-02-20,1,,,,,ブライトタウン,0
528,3011703003392,新規,0,2023-02-20,2023-02-20,合同会社紬,,合同会社,東京都,江戸川区,東小岩４丁目３３番１９号,,13,123,1330052,,,,,,,2023-02-20,1,,,,,ツムギ,0
539,3020001150343,新規,0,2023-02-20,2023-02-20,株式会社ＰＦＬジャパン,,株式会社,神奈川県,横浜市西区,北幸２丁目１０番地２８むつみビル３Ｆ,,14,103,2200004,,,,,,,2023-02-20,1,,,,,ピーエフエルジャパン,0
540,3020001150351,新規,0,2023-02-20,2023-02-20,株式会社秀心機設,,株式会社,神奈川県,横浜市港北区,小机町９９９番地コスモ市川１０１,,14,109,2220036,,,,,,,2023-02-20,1,,,,,シュウシンキセツ,0
549,3020003023373,新規,0,2023-02-20,2023-02-20,合同会社モノクロ,,合同会社,神奈川県,横浜市中区,福富町東通４１番地１階,,14,104,2310044,,,,,,,2023-02-20,1,,,,,モノクロ,0
557,3030001152504,新規,0,2023-02-20,2023-02-20,株式会社ホワイトカラー,,株式会社,埼玉県,富士見市,西みずほ台２丁目２番地９ＴＭビル５０２,,11,235,3540018,,,,,,,2023-02-20,1,,,,,ホワイトカラー,0
560,3030003021203,新規,0,2023-02-20,2023-02-20,Ｂｌｕｅ　Ｔｏｋｙｏ合同会社,,合同会社,埼玉県,さいたま市大宮区,桜木町１丁目１１番地１５,,11,103,3300854,,,,,,,2023-02-20,1,,,,,ブルートウキョウ,0
561,3030005021143,新規,0,2023-02-20,2023-02-20,行政書士法人そめや事務所,,その他の設立登記法人,埼玉県,所沢市,大字牛沼７１２番地５,,11,208,3590026,,,,,,,2023-02-20,1,,,,,ソメヤジムショ,0
563,3040001127125,新規,0,2023-02-20,2023-02-20,株式会社ステイサム,,株式会社,千葉県,松戸市,東平賀３７０番地１,,12,207,2700003,,,,,,,2023-02-20,1,,,,,ステイサム,0
564,3040001127174,新規,0,2023-02-20,2023-02-20,株式会社ＡＡＭ,,株式会社,千葉県,千葉市緑区,おゆみ野４丁目１７番地２ハックベリーコート１０３号,,12,105,2660031,,,,,,,2023-02-20,1,,,,,エーエーエム,0
566,3040003021994,新規,0,2023-02-20,2023-02-20,ＯＣＥＡＮ　ＮＥＴＷＯＲＫ合同会社,,合同会社,千葉県,館山市,大神宮３９０番地,,12,205,2940233,,,,,,,2023-02-20,1,,,,,オーシャンネットワーク,0
570,3080401026328,新規,0,2023-02-20,2023-02-20,グランディール株式会社,,株式会社,静岡県,磐田市,中泉６３０番地１８磐田駅前ビル３Ｆ,,22,211,4380078,,,,,,,2023-02-20,1,,,,,グランディール,0
597,3120001252583,新規,0,2023-02-20,2023-02-20,近泓株式会社,,株式会社,大阪府,大阪市大正区,三軒家西３丁目４番１６号中山ビル２０４Ｂ,,27,108,5510001,,,,,,,2023-02-20,1,,,,,キンオウ,0
598,3120001252641,新規,0,2023-02-20,2023-02-20,株式会社ＧＯ‐ＧＥＴＴＥＲ,,株式会社,大阪府,大阪市中央区,西心斎橋２丁目１２番９号ティワイティビル２Ｆ,,27,128,5420086,,,,,,,2023-02-20,1,,,,,ゴーゲッター,0
600,3120003023470,新規,0,2023-02-20,2023-02-20,合同会社ＡＴＳＵＳＥ,,合同会社,大阪府,大阪市東淀川区,上新庄３丁目２２－３６,,27,114,5330006,,,,,,,2023-02-20,1,,,,,アツセ,0
608,3120901047133,新規,0,2023-02-20,2023-02-20,株式会社エヌサービス,,株式会社,大阪府,高槻市,塚原２丁目６番５号,,27,207,5691046,,,,,,,2023-02-20,1,,,,,エヌサービス,0
609,3120901047158,新規,0,2023-02-20,2023-02-20,株式会社ＳＴＫ,,株式会社,大阪府,箕面市,森町中１丁目２０番１３号,,27,220,5630257,,,,,,,2023-02-20,1,,,,,エスティケイ,0
610,3122001036710,新規,0,2023-02-20,2023-02-20,株式会社ＭＴｓｐｏｒｔｓ,,株式会社,大阪府,東大阪市,高井田２４番３号,,27,227,5770053,,,,,,,2023-02-20,1,,,,,エムティスポーツ,0
611,3122003002512,新規,0,2023-02-20,2023-02-20,合同会社ＨＯＮＥＳＴＯ,,合同会社,大阪府,大東市,氷野２丁目６番１７号,,27,218,5740062,,,,,,,2023-02-20,1,,,,,オネスト,0
614,3130001073673,新規,0,2023-02-20,2023-02-20,株式会社光世,,株式会社,京都府,京都市山科区,西野大鳥井町１１１番地６０,,26,110,6078355,,,,,,,2023-02-20,1,,,,,コウセイ,0
617,3140001084884,新規,0,2023-02-20,2023-02-20,株式会社マルキ電機商会,,株式会社,兵庫県,洲本市,五色町都志万歳２３番地,,28,205,6561304,,,,,,,2023-02-20,1,,,,,マルキデンキショウカイ,0
618,3140001129128,新規,0,2023-02-20,2023-02-20,ＥｉｎｅＣｏｓｍｅｔｉｃｓ株式会社,,株式会社,兵庫県,加古郡稲美町,六分一４８６,,28,381,6751112,,,,,,,2023-02-20,1,,,,,アイネコスメティクス,0
619,3140001129185,新規,0,2023-02-20,2023-02-20,株式会社セカフィー,,株式会社,兵庫県,神戸市灘区,六甲台町１ー１,,28,102,6570013,,,,,,,2023-02-20,1,,,,,セカフィー,0
627,3180001155046,新規,0,2023-02-20,2023-02-20,ＣＨＡＮＧＥホールディングス株式会社,,株式会社,愛知県,岩倉市,東町藤塚１７５番地,00129501,23,228,4820041,,,,,,,2023-02-20,1,,,,,チェンジホールディングス,0
628,3180001155054,新規,0,2023-02-20,2023-02-20,株式会社フレイトぼっくす,,株式会社,愛知県,名古屋市中村区,則武２丁目１４番１１号,,23,105,4530014,,,,,,,2023-02-20,1,,,,,フレイトボックス,0
630,3180301037118,新規,0,2023-02-20,2023-02-20,フィースト株式会社,,株式会社,愛知県,西尾市,吉良町上横須賀蔵屋敷７４番地１,,23,213,4440521,,,,,,,2023-02-20,1,,,,,フィースト,0
641,3240003006026,新規,0,2023-02-20,2023-02-20,草戸千軒合同会社,,合同会社,広島県,府中市,元町４４５番地１府中商工会議所２階,,34,208,7260003,,,,,,,2023-02-20,1,,,,,クサドセンゲン,0
663,3340001025380,新規,0,2023-02-20,2023-02-20,株式会社ＮＩＳＳＹＯ,,株式会社,鹿児島県,鹿児島市,真砂町１２番１号２,,46,201,8900066,,,,,,,2023-02-20,1,,,,,ニッショウ,0
667,3360003012730,新規,0,2023-02-20,2023-02-20,合同会社ｉ．ｎ．ｉ．ｔ．ｙ．,,合同会社,沖縄県,宜野湾市,真栄原２丁目３番８－１４０３号ミルコマンション真栄原スカイルーク,,47,205,9012215,,,,,,,2023-02-20,1,,,,,アイニティ,0
671,3370001049625,新規,0,2023-02-20,2023-02-20,株式会社Ｌｉｎｋ,,株式会社,宮城県,仙台市泉区,紫山４丁目２０番地の５,,04,105,9813205,,,,,,,2023-02-20,1,,,,,リンク,0
673,3380001033495,新規,0,2023-02-20,2023-02-20,Ｓｋｙ　Ｅａｒｔｈ株式会社,,株式会社,福島県,双葉郡浪江町,大字加倉字下加倉３４５－４,,07,547,9791536,,,,,,,2023-02-20,1,,,,,スカイアース,0
674,3390003002051,新規,0,2023-02-20,2023-02-20,合同会社まもる,,合同会社,山形県,長井市,ままの上７‐３５‐１‐１０１,,06,209,9930001,,,,,,,2023-02-20,1,,,,,マモル,0
681,3470001019477,新規,0,2023-02-20,2023-02-20,株式会社カイ・テック,,株式会社,香川県,高松市,成合町７２０番地１,,37,201,7618081,,,,,,,2023-02-20,1,,,,,カイテック,0
686,3700150114360,新規,0,2023-02-20,2023-02-20,ｚｈｕ　ｈａｉ　ｗｅｉ　ｊｉａ　ｋｅ　ｊｉ　ｙｏｕ　ｘｉａｎ　ｇｏｎｇ　ｓｉ,,外国会社等,,,,,,,,ｚｈｕ　ｈａｉ　ｓｈｉ　ｘｉａｎｇ　ｚｈｏｕ　ｑｕ　ｊｉ　ｄａ　ｊｉｎｇ　ｌｅ　ｌｕ　１０ｈａｏ（ｋｅ　ｙｉ　ｌｏｕ　２、３ｃｅｎｇ）３０７Ｂ,,,,,,2023-02-20,1,,,,,シュカイイカカギユウゲンコウシ,0
696,4010001233016,新規,0,2023-02-20,2023-02-20,株式会社ノット,,株式会社,東京都,中央区,銀座１丁目１２番４号Ｎ＆Ｅ－ＢＬＤ．７,,13,102,1040061,,,,,,,2023-02-20,1,,,,,ノット,0
697,4010001233073,新規,0,2023-02-20,2023-02-20,Ｕｎｌｅａｓｈ　Ｔａｌｅｎｔ株式会社,,株式会社,東京都,中央区,銀座１丁目１２番４号Ｎ＆ＥＢＬＤ．７階,,13,102,1040061,,,,,,,2023-02-20,1,,,,,アンリーシュタレント,0
698,4010001233123,新規,0,2023-02-20,2023-02-20,株式会社アイズ・アセットマネジメント,,株式会社,東京都,千代田区,大手町１丁目５ー１大手町ファーストスクエアＥＡＳＴＴＯＷＥＲ４階,,13,101,1000004,,,,,,,2023-02-20,1,,,,,アイズアセットマネジメント,0
699,4010001233156,新規,0,2023-02-20,2023-02-20,株式会社Ａ,,株式会社,東京都,千代田区,丸の内１丁目１番１号,,13,101,1000005,,,,,,,2023-02-20,1,,,,,エー,0
710,4010401172565,新規,0,2023-02-20,2023-02-20,株式会社Ａ,,株式会社,東京都,港区,海岸２丁目１番１８号２階,,13,103,1050022,,,,,,,2023-02-20,1,,,,,エー,0
711,4010401172623,新規,0,2023-02-20,2023-02-20,株式会社Ｏｎｅ　Ｔｉｍｅ　Ｌｉｆｅ,,株式会社,東京都,港区,白金６丁目１８番１２号プラチナスクエア白金４０１,,13,103,1080072,,,,,,,2023-02-20,1,,,,,ワンタイムライフ,0
715,4010403029549,新規,0,2023-02-20,2023-02-20,ＲＢソーラージニア合同会社,,合同会社,東京都,港区,虎ノ門３丁目２２番１０－２０１号,,13,103,1050001,,,,,,,2023-02-20,1,,,,,アールビーソーラージニア,0
724,4010701043870,新規,0,2023-02-20,2023-02-20,株式会社ＣＨＡＩＲＳ,,株式会社,東京都,品川区,西五反田２丁目２８番４号,,13,109,1410031,,,,,,,2023-02-20,1,,,,,カリス,0
727,4010805003003,新規,0,2023-02-20,2023-02-20,一般社団法人住宅ローン滞納・任意売却支援サポート協会,,その他の設立登記法人,東京都,大田区,東糀谷５丁目１５番２５号,,13,111,1440033,,,,,,,2023-02-20,1,,,,,ジュウタクローンタイノウニンイバイキャクシエンサポートキョウカイ,0
731,4010901052580,新規,0,2023-02-20,2023-02-20,ティーエムコンサルティング株式会社,,株式会社,東京都,世田谷区,下馬６丁目３１番１８号,,13,112,1540002,,,,,,,2023-02-20,1,,,,,ティーエムコンサルティング,0
733,4010903007987,新規,0,2023-02-20,2023-02-20,合同会社ＹＧｆａｍｉｌｙ,,合同会社,東京都,世田谷区,上祖師谷２丁目７－２９,,13,112,1570065,,,,,,,2023-02-20,1,,,,,ワイジーファミリー,0
744,4011001152635,新規,0,2023-02-20,2023-02-20,エイティプリファード株式会社,,株式会社,東京都,渋谷区,広尾１丁目１番３９号恵比寿プライムスクエア２階,,13,113,1500012,,,,,,,2023-02-20,1,,,,,エイティプリファード,0
745,4011001152701,新規,0,2023-02-20,2023-02-20,株式会社Ｇｏｏｄ　Ｌｉｆｅ　Ｗｅｌｌｎｅｓｓ,,株式会社,東京都,渋谷区,上原１丁目１３番３号,,13,113,1510064,,,,,,,2023-02-20,1,,,,,グッドライフウェルネス,0
746,4011001152718,新規,0,2023-02-20,2023-02-20,株式会社メビウスプロ,,株式会社,東京都,目黒区,緑が丘２丁目３番１１号右,,13,110,1520034,,,,,,,2023-02-20,1,,,,,メビウスプロ,0
747,4011001152767,新規,0,2023-02-20,2023-02-20,株式会社Ｃａｒａ,,株式会社,東京都,渋谷区,道玄坂１丁目１０番８号渋谷道玄坂東急ビル２Ｆ－Ｃ,,13,113,1500043,,,,,,,2023-02-20,1,,,,,カラ,0
750,4011005009955,新規,0,2023-02-20,2023-02-20,ミライＨＲ社会保険労務士法人,,その他の設立登記法人,東京都,渋谷区,円山町５番５号Ｎａｖｉ渋谷Ｖ３階,,13,113,1500044,,,,,,,2023-02-20,1,,,,,,0
751,4011101101847,新規,0,2023-02-20,2023-02-20,株式会社カカユ,,株式会社,東京都,新宿区,四谷坂町１２番１４－６０３号,,13,104,1600002,,,,,,,2023-02-20,1,,,,,カカユ,0
752,4011101101871,新規,0,2023-02-20,2023-02-20,株式会社Ｋｕｌｕ,,株式会社,東京都,新宿区,北新宿４丁目８番１６号,,13,104,1690074,,,,,,,2023-02-20,1,,,,,クル,0
755,4011301028469,新規,0,2023-02-20,2023-02-20,株式会社イケダカンパニー,,株式会社,東京都,杉並区,荻窪５丁目１６番１４号カパラビル８階,,13,115,1670051,,,,,,,2023-02-20,1,,,,,イケダカンパニー,0
757,4011501028979,新規,0,2023-02-20,2023-02-20,株式会社ココリノ,,株式会社,東京都,北区,志茂１丁目１５番１０号,,13,117,1150042,,,,,,,2023-02-20,1,,,,,ココリノ,0
766,4012401040207,新規,0,2023-02-20,2023-02-20,株式会社バケネコ,,株式会社,東京都,武蔵野市,中町２丁目２４－１６,,13,203,1800006,,,,,,,2023-02-20,1,,,,,バケネコ,0
785,4030003021202,新規,0,2023-02-20,2023-02-20,合名会社下田タイル店,,合名会社,埼玉県,狭山市,大字水野１０６８番地の２,,11,215,3501317,,,,,,,2023-02-20,1,,,,,シモダタイルテン,0
789,4040001127140,新規,0,2023-02-20,2023-02-20,株式会社アドバンスカンパニー,,株式会社,千葉県,柏市,高柳１３３５番地１０７,,12,217,2770941,,,,,,,2023-02-20,1,,,,,アドバンスカンパニー,0
790,4040001127149,新規,0,2023-02-20,2023-02-20,株式会社ドナモ,,株式会社,千葉県,八千代市,米本２４３６－５３－Ｄ,,12,221,2760015,,,,,,,2023-02-20,1,,,,,ドナモ,0
791,4040001127157,新規,0,2023-02-20,2023-02-20,株式会社クレアーレネクト,,株式会社,千葉県,市川市,東大和田１丁目２３番１７－２０２号,,12,203,2720026,,,,,,,2023-02-20,1,,,,,クレアーレネクト,0
792,4040003021985,新規,0,2023-02-20,2023-02-20,ＪＡＫコーポレーション合同会社,,合同会社,千葉県,八街市,八街い１３５－４３,,12,230,2891143,,,,,,,2023-02-20,1,,,,,ジェイエイケイコーポレーション,0
793,4040003021993,新規,0,2023-02-20,2023-02-20,君悦合同会社,,合同会社,千葉県,市川市,福栄１丁目６番１６－４０２号シティクレスト壱番館,,12,203,2720137,,,,,,,2023-02-20,1,,,,,クンエツ,0
830,4120001252640,新規,0,2023-02-20,2023-02-20,株式会社ＷＯＲＬＤ　ＰＥＡＣＥ,,株式会社,大阪府,大阪市西区,立売堀６丁目２番２１号,,27,106,5500012,,,,,,,2023-02-20,1,,,,,ワールドピース,0
831,4120001252657,新規,0,2023-02-20,2023-02-20,かなめ株式会社,,株式会社,大阪府,大阪市西区,新町１丁目１４番２１－４９１２,,27,106,5500013,,,,,,,2023-02-20,1,,,,,カナメ,0
832,4120001252665,新規,0,2023-02-20,2023-02-20,株式会社ＬＩＮＯ,,株式会社,大阪府,大阪市東成区,中道３丁目１５番１６号毎日東ビル４階,,27,115,5370025,,,,,,,2023-02-20,1,,,,,リノ,0
858,4160001024846,新規,0,2023-02-20,2023-02-20,株式会社坂田農産,,株式会社,滋賀県,蒲生郡日野町,大字西大路１９６３,,25,383,5291628,,,,,,,2023-02-20,1,,,,,サカタノウサン,0
866,4180001155029,新規,0,2023-02-20,2023-02-20,ＬｉｎｋＦｏｒｃｅ株式会社,,株式会社,愛知県,名古屋市西区,那古野２丁目１２－１２名駅アネクスビル３Ｆ,,23,104,4510042,,,,,,,2023-02-20,1,,,,,リンクフォース,0
867,4180001155053,新規,0,2023-02-20,2023-02-20,ニコッテ株式会社,,株式会社,愛知県,名古屋市中川区,柳瀬町１丁目６番地やなせハイツ３０３号,,23,110,4540903,,,,,,,2023-02-20,1,,,,,ニコッテ,0
875,4230001019723,新規,0,2023-02-20,2023-02-20,株式会社ＭＯＭＥＲＡＴＨＳ,,株式会社,富山県,魚津市,木下新１２６－８,,16,204,9370011,,,,,,,2023-02-20,1,,,,,,0
891,4290005018955,新規,0,2023-02-20,2023-02-20,一般社団法人ｙａｇｏｃｏｌｏ,,その他の設立登記法人,福岡県,福津市,津屋崎４丁目３６番３号,,40,224,8113304,,,,,,,2023-02-20,1,,,,,ヤゴコロ,0
896,4320001019581,新規,0,2023-02-20,2023-02-20,下森不動産株式会社,,株式会社,大分県,別府市,光町２１番４号,,44,202,8740930,,,,,,,2023-02-20,1,,,,,シモモリフドウサン,0
902,4350003004298,新規,0,2023-02-20,2023-02-20,合同会社桐将電設,,合同会社,宮崎県,宮崎市,大字浮田１９４番地１０,,45,201,8802104,,,,,,,2023-02-20,1,,,,,キショウデンセツ,0
903,4360001031574,新規,0,2023-02-20,2023-02-20,株式会社ＭＧ商事,,株式会社,沖縄県,那覇市,天久２丁目２１番２３－３０５号マンション和,,47,201,9000005,,,,,,,2023-02-20,1,,,,,エムジーショウジ,0
904,4360001031582,新規,0,2023-02-20,2023-02-20,株式会社ＩＺＵ　ＳＥＥＤ,,株式会社,沖縄県,石垣市,字登野城２番地１０アユタビル２Ｆ－東,,47,207,9070004,,,,,,,2023-02-20,1,,,,,,0
912,4380005012676,新規,0,2023-02-20,2023-02-20,一般社団法人會津ねこ守りの会,,その他の設立登記法人,福島県,大沼郡会津美里町,東尾岐字台６０８７番地２,,07,447,9696232,,,,,,,2023-02-20,1,,,,,アイヅネコモリノカイ,0
919,4420001018160,新規,0,2023-02-20,2023-02-20,株式会社ネクストアップル,,株式会社,青森県,青森市,浪岡大字吉内字東留岡２７番地,,02,201,0381324,,,,,,,2023-02-20,1,,,,,ネクストアップル,0
922,4430001088475,新規,0,2023-02-20,2023-02-20,山田農場株式会社,,株式会社,北海道,虻田郡京極町,字川西１５９番地,,01,399,0440131,,,,,,,2023-02-20,1,,,,,ヤマダノウジョウ,0
927,4450003002300,新規,0,2023-02-20,2023-02-20,合同会社アッピーフレンズ,,合同会社,北海道,空知郡南富良野町,字金山７５６番地,,01,462,0792131,,,,,,,2023-02-20,1,,,,,アッピーフレンズ,0
929,4470001019476,新規,0,2023-02-20,2023-02-20,株式会社トクシンアセット,,株式会社,香川県,仲多度郡多度津町,西港町２９番地４,,37,404,7640017,,,,,,,2023-02-20,1,,,,,トクシンアセット,0
932,4700150114418,新規,0,2023-02-20,2023-02-20,６５オーエムエス・ジャパン・エルエルシー,,外国会社等,東京都,千代田区,丸の内１丁目８番３号丸の内トラストタワー本館２６階,,13,101,1000005,アメリカ合衆国デラウエア州ウィルミントン、オレンジ・ストリート１２０９、ナショナル・レジスタード・エージェント・インク内,,,,,,2023-02-20,1,,,,,シツクステイーフアイブオーエムエスジヤパンエルエルシー,0
938,5010001233056,新規,0,2023-02-20,2023-02-20,ビーパートナー株式会社,,株式会社,東京都,中央区,銀座７丁目１３番２０号銀座ＴＨビル９階,,13,102,1040061,,,,,,,2023-02-20,1,,,,,ビーパートナー,0
939,5010001233064,新規,0,2023-02-20,2023-02-20,ベネフィット企画株式会社,,株式会社,東京都,千代田区,神田錦町３丁目２１番地,,13,101,1010054,,,,,,,2023-02-20,1,,,,,ベネフィットキカク,0
940,5010001233080,新規,0,2023-02-20,2023-02-20,株式会社ＫＴＳ,,株式会社,東京都,中央区,湊２丁目１２番３－２０３号,,13,102,1040043,,,,,,,2023-02-20,1,,,,,ケーティーエス,0
941,5010001233089,新規,0,2023-02-20,2023-02-20,株式会社ＡＴＧＧ,,株式会社,東京都,千代田区,九段南１丁目５番６号りそな九段ビル５階ＫＳフロア,,13,101,1020074,,,,,,,2023-02-20,1,,,,,エーティージージー,0
942,5010001233106,新規,0,2023-02-20,2023-02-20,ＷｅＩｎｖｅｓｔ株式会社,,株式会社,東京都,中央区,日本橋浜町２丁目３７番４－１００２号,,13,102,1030007,,,,,,,2023-02-20,1,,,,,ウィーインベスト,0
943,5010001233122,新規,0,2023-02-20,2023-02-20,株式会社ＳＤキャリアサポート,,株式会社,東京都,千代田区,神田三崎町３丁目４－４,,13,101,1010061,,,,,,,2023-02-20,1,,,,,エスディーキャリアサポート,0
944,5010001233147,新規,0,2023-02-20,2023-02-20,株式会社アンカーマンビジネスコンサルティング,,株式会社,東京都,千代田区,丸の内１丁目８番３号,,13,101,1000005,,,,,,,2023-02-20,1,,,,,アンカーマンビジネスコンサルティング,0
946,5010003039848,新規,0,2023-02-20,2023-02-20,ベベノエル合同会社,,合同会社,東京都,文京区,関口２丁目８番８号,,13,105,1120014,,,,,,,2023-02-20,1,,,,,ベベノエル,0
947,5010003039856,新規,0,2023-02-20,2023-02-20,港北キャピタル合同会社,,合同会社,東京都,千代田区,丸の内３丁目１番１号東京共同会計事務所内,,13,101,1000005,,,,,,,2023-02-20,1,,,,,コウホクキャピタル,0
952,5010401172556,新規,0,2023-02-20,2023-02-20,株式会社大倉デザイン事務所,,株式会社,東京都,港区,白金台３丁目４番２１号,,13,103,1080071,,,,,,,2023-02-20,1,,,,,オオクラデザインジムショ,0
953,5010401172572,新規,0,2023-02-20,2023-02-20,株式会社Ｍ　ＳＴＹＬＥ,,株式会社,東京都,港区,芝浦２丁目９番１－１９１３号,,13,103,1080023,,,,,,,2023-02-20,1,,,,,エムスタイル,0
954,5010401172580,新規,0,2023-02-20,2023-02-20,株式会社福,,株式会社,東京都,港区,南麻布５丁目１４番１４号ＨＩＲＯＯ２３、２Ｆ,,13,103,1060047,,,,,,,2023-02-20,1,,,,,フク,0
955,5010401172597,新規,0,2023-02-20,2023-02-20,Ｐｉ‐ｘｃｅｌｓ株式会社,,株式会社,東京都,港区,虎ノ門１丁目１７番１号虎ノ門ヒルズビジネスタワー,,13,103,1050001,,,,,,,2023-02-20,1,,,,,ピクセルズ,0
958,5010403029548,新規,0,2023-02-20,2023-02-20,ＲＢソーラーボタン合同会社,,合同会社,東京都,港区,虎ノ門３丁目２２番１０－２０１号,,13,103,1050001,,,,,,,2023-02-20,1,,,,,アールビーソーラーボタン,0
959,5010403029556,新規,0,2023-02-20,2023-02-20,Ｌｉｆｅｓｔｙｌｅ　Ｙｏｋｏｈａｍａ合同会社,,合同会社,東京都,港区,六本木１丁目９番１０号アークヒルズ仙石山森タワー４０階,,13,103,1060032,,,,,,,2023-02-20,1,,,,,ライフスタイルヨコハマ,0
960,5010403029564,新規,0,2023-02-20,2023-02-20,Ａｒｏｏｎ合同会社,,合同会社,東京都,港区,六本木６丁目２番３１号,,13,103,1060032,,,,,,,2023-02-20,1,,,,,アルーン,0
961,5010403029572,新規,0,2023-02-20,2023-02-20,合同会社ヴァレッジ・スタジオ,,合同会社,東京都,港区,浜松町２丁目２番１５号浜松町ダイヤビル２Ｆ,,13,103,1050013,,,,,,,2023-02-20,1,,,,,ヴァレッジスタジオ,0
965,5010601062631,新規,0,2023-02-20,2023-02-20,ネクストリート株式会社,,株式会社,東京都,江東区,新砂１丁目６番３５号Ｎビル東陽町３階,,13,108,1360075,,,,,,,2023-02-20,1,,,,,ネクストリート,0
967,5010603010019,新規,0,2023-02-20,2023-02-20,合同会社ｃａｎ’ｔ　ｓｔｏｐ,,合同会社,東京都,江東区,東陽３丁目９番１１号,,13,108,1350016,,,,,,,2023-02-20,1,,,,,キャントストップ,0
990,5011101101862,新規,0,2023-02-20,2023-02-20,株式会社グレイスフル,,株式会社,東京都,新宿区,西新宿３丁目３番１３号西新宿水間ビル６階,,13,104,1600023,,,,,,,2023-02-20,1,,,,,グレイスフル,0
991,5011101101895,新規,0,2023-02-20,2023-02-20,株式会社ＬＵＳＳＯ,,株式会社,東京都,新宿区,大久保３丁目８－３－３４０９,,13,104,1690072,,,,,,,2023-02-20,1,,,,,ルッソ,0
1002,5013301050360,新規,0,2023-02-20,2023-02-20,株式会社勝榮,,株式会社,東京都,豊島区,池袋２丁目４９番－１号高橋乾幸ビル３０２,,13,116,1710014,,,,,,,2023-02-20,1,,,,,ショウエイ,0
1007,5020001150341,新規,0,2023-02-20,2023-02-20,株式会社ＳＴＡＣＫＩＮＧ,,株式会社,神奈川県,横浜市青葉区,奈良５丁目４番地１５サンクレスト緑山５０３,,14,117,2270038,,,,,,,2023-02-20,1,,,,,スタッキング,0
1011,5020003023363,新規,0,2023-02-20,2023-02-20,合同会社ｉｘｉｒａｄｅ,,合同会社,神奈川県,川崎市高津区,子母口４０３番地第６たちばなビル３０６,,14,134,2130023,,,,,,,2023-02-20,1,,,,,イクシレイド,0
1018,5021003012785,新規,0,2023-02-20,2023-02-20,合同会社マユトラウム,,合同会社,神奈川県,茅ヶ崎市,赤羽根３１２２番地１,,14,207,2530001,,,,,,,2023-02-20,1,,,,,マユトラウム,0
1019,5021003012793,新規,0,2023-02-20,2023-02-20,合同会社ＳＮＤ,,合同会社,神奈川県,平塚市,明石町２４―２５―３１３,,14,203,2540042,,,,,,,2023-02-20,1,,,,,エスエヌディ,0
1030,5030003021201,新規,0,2023-02-20,2023-02-20,合同会社７ａｍ,,合同会社,埼玉県,川越市,大字小仙波１０４９番地１,,11,201,3500031,,,,,,,2023-02-20,1,,,,,セブンエーエム,0
1036,5040001127156,新規,0,2023-02-20,2023-02-20,株式会社ＮＪ,,株式会社,千葉県,千葉市緑区,平山町５７１番地１,,12,105,2660002,,,,,,,2023-02-20,1,,,,,エヌジェイ,0
1037,5040001127164,新規,0,2023-02-20,2023-02-20,アスマット株式会社,,株式会社,千葉県,白井市,復１４３９番地の２,,12,232,2701422,,,,,,,2023-02-20,1,,,,,アスマット,0
1038,5040001127180,新規,0,2023-02-20,2023-02-20,株式会社印旛商会,,株式会社,千葉県,印西市,大森７８４番地２,,12,231,2701327,,,,,,,2023-02-20,1,,,,,インバショウカイ,0
1044,5050003007248,新規,0,2023-02-20,2023-02-20,合同会社ラバーテックジャパン,,合同会社,茨城県,取手市,戸頭２丁目１３番２０号,,08,217,3020034,,,,,,,2023-02-20,1,,,,,ラバーテックジャパン,0
1048,5080001025471,新規,0,2023-02-20,2023-02-20,中山建設株式会社,,株式会社,静岡県,焼津市,中新田７５５番地の１５,,22,212,4250068,,,,,,,2023-02-20,1,,,,,ナカヤマケンセツ,0
1059,5090003002253,新規,0,2023-02-20,2023-02-20,合同会社リンク,,合同会社,山梨県,富士吉田市,新西原１丁目７－１２新西原ビル３Ｆ,,19,202,4030017,,,,,,,2023-02-20,1,,,,,リンク,0
1081,5120001252565,新規,0,2023-02-20,2023-02-20,秀水株式会社,,株式会社,大阪府,大阪市天王寺区,寺田町２丁目２番３号Ｍヴィレッヂ寺田町８０３Ｂ,,27,109,5430045,,,,,,,2023-02-20,1,,,,,シュウスイ,0
1082,5120001252573,新規,0,2023-02-20,2023-02-20,ｏｕｍｉ株式会社,,株式会社,大阪府,大阪市大正区,三軒家西３丁目４番１６号中山ビル２０１Ａ,,27,108,5510001,,,,,,,2023-02-20,1,,,,,オウミ,0
1083,5120001252615,新規,0,2023-02-20,2023-02-20,株式会社中垣工業社,,株式会社,大阪府,大阪市此花区,酉島４丁目１番１５－９０３号,,27,104,5540051,,,,,,,2023-02-20,1,,,,,ナカガキコウギョウシャ,0
1090,5120901047156,新規,0,2023-02-20,2023-02-20,株式会社黒木溶接工業,,株式会社,大阪府,摂津市,鳥飼新町２丁目２－２１,,27,224,5660065,,,,,,,2023-02-20,1,,,,,クロキヨウセツコウギョウ,0
1092,5120905006430,新規,0,2023-02-20,2023-02-20,特定非営利活動法人Ｕｎｉｔｙ,,その他の設立登記法人,大阪府,高槻市,東和町３４番１３号,,27,207,5690032,,,,,,,2023-02-20,1,,,,,ユニティー,0
1098,5140001129175,新規,0,2023-02-20,2023-02-20,株式会社こさき福祉法務事務所,,株式会社,兵庫県,尼崎市,御園町２７－３－１００５,,28,202,6600861,,,,,,,2023-02-20,1,,,,,コサキフクシホウムジムショ,0
1099,5140001129183,新規,0,2023-02-20,2023-02-20,株式会社みなみもり,,株式会社,兵庫県,淡路市,志筑３８９番地１－６－Ｄ,,28,226,6562131,,,,,,,2023-02-20,1,,,,,ミナミモリ,0
1107,5180001155028,新規,0,2023-02-20,2023-02-20,Ａ‐ｓｔｙｌｅ株式会社,,株式会社,愛知県,津島市,唐臼町囲外７０番地,,23,208,4960026,,,,,,,2023-02-20,1,,,,,エースタイル,0
1108,5180001155052,新規,0,2023-02-20,2023-02-20,株式会社ダイア,,株式会社,愛知県,名古屋市中村区,名駅３丁目４番１０号アルティメイト名駅１ｓｔ２階,,23,105,4500002,,,,,,,2023-02-20,1,,,,,ダイア,0
1109,5180001155069,新規,0,2023-02-20,2023-02-20,株式会社ＴＣｏｎｎｅｃｔ,,株式会社,愛知県,名古屋市北区,西味鋺２丁目２１３番地,,23,103,4620016,,,,,,,2023-02-20,1,,,,,ティーコネクト,0
1116,5180003024874,新規,0,2023-02-20,2023-02-20,水ノ木合同会社,,合同会社,愛知県,名古屋市中区,錦３丁目１１－１２サン錦ビル地下１階,,23,106,4600003,,,,,,,2023-02-20,1,,,,,ミズノキ,0
1125,5200001040978,新規,0,2023-02-20,2023-02-20,寅家株式会社,,株式会社,岐阜県,下呂市,森１１５１－１,,21,220,5092202,,,,,,,2023-02-20,1,,,,,トラヤ,0
1127,5210001019237,新規,0,2023-02-20,2023-02-20,株式会社中田,,株式会社,福井県,敦賀市,木崎３０号１２番地,,18,202,9140814,,,,,,,2023-02-20,1,,,,,ナカタ,0
1129,5230001019722,新規,0,2023-02-20,2023-02-20,株式会社チカラ,,株式会社,富山県,高岡市,中曽根２３７３番地セントラルパーク牧野２０１号,,16,202,9340092,,,,,,,2023-02-20,1,,,,,チカラ,0
1142,5290001100609,新規,0,2023-02-20,2023-02-20,株式会社住まい不動産,,株式会社,福岡県,筑紫野市,石崎１丁目６番５－１０５号,,40,217,8180068,,,,,,,2023-02-20,1,,,,,スマイフドウサン,0
1143,5290005018954,新規,0,2023-02-20,2023-02-20,一般社団法人みつは,,その他の設立登記法人,福岡県,福岡市南区,向新町２丁目２７番８号,,40,134,8111345,,,,,,,2023-02-20,1,,,,,ミツハ,0
1146,5300001013222,新規,0,2023-02-20,2023-02-20,株式会社みつたけ不動産,,株式会社,佐賀県,唐津市,鏡新開９０番地,,41,202,8470028,,,,,,,2023-02-20,1,,,,,ミツタケフドウサン,0
1147,5310001018278,新規,0,2023-02-20,2023-02-20,株式会社Ｌｕａｎａ,,株式会社,長崎県,佐世保市,日野町９０３－２８,,42,202,8580923,,,,,,,2023-02-20,1,,,,,ルアナ,0
1153,5330003009728,新規,0,2023-02-20,2023-02-20,合同会社Ｅａｒｎｅｓｔ,,合同会社,熊本県,菊池郡菊陽町,新山３丁目８番１号,,43,404,8691109,,,,,,,2023-02-20,1,,,,,アーネスト,0
1155,5350003004297,新規,0,2023-02-20,2023-02-20,合同会社ＡＵＢＥ,,合同会社,宮崎県,宮崎市,大坪東３丁目２０－２９エターナルドリーム２０２,,45,201,8800934,,,,,,,2023-02-20,1,,,,,オーブ,0
1157,5360001031573,新規,0,2023-02-20,2023-02-20,株式会社ＭＬグループ,,株式会社,沖縄県,浦添市,仲間１丁目４番１０号又吉アパート１０２,,47,208,9012103,,,,,,,2023-02-20,1,,,,,エムエルグループ,0
1158,5360003012729,新規,0,2023-02-20,2023-02-20,合同会社丸真,,合同会社,沖縄県,宜野湾市,長田４丁目１７番２号,,47,205,9012212,,,,,,,2023-02-20,1,,,,,マルシン,0
1160,5370001049623,新規,0,2023-02-20,2023-02-20,信合貿易株式会社,,株式会社,宮城県,石巻市,緑町２丁目４番８号,,04,202,9860021,,,,,,,2023-02-20,1,,,,,シンアイボウエキ,0
1164,5380005012675,新規,0,2023-02-20,2023-02-20,一般社団法人やんどりベースＮＩＫＵＹＡ,,その他の設立登記法人,福島県,南会津郡只見町,大字梁取字沖９９６番地の１,,07,367,9680603,,,,,,,2023-02-20,1,,,,,,0
1176,5500001024769,新規,0,2023-02-20,2023-02-20,株式会社Ｗｅｌｌ　ｕｐ,,株式会社,愛媛県,伊予市,下吾川７２番地１,,38,210,7993111,,,,,,,2023-02-20,1,,,,,ウェルアップ,0
1184,6010001233105,新規,0,2023-02-20,2023-02-20,株式会社Ｓｈｉｒａｈａｎａ,,株式会社,東京都,中央区,銀座１丁目１２番４号Ｎ＆ＥＢＬＤ．６Ｆ,,13,102,1040061,,,,,,,2023-02-20,1,,,,,シラハナ,0
1185,6010001233113,新規,0,2023-02-20,2023-02-20,株式会社ＰＥＮ　Ｄｅｓｉｇｎ　Ｊａｐａｎ,,株式会社,東京都,千代田区,神田三崎町２丁目１０番１１号Ｐｅｇビル５Ｂ－５,,13,101,1010061,,,,,,,2023-02-20,1,,,,,ペンデザインジャパン,0
1186,6010001233146,新規,0,2023-02-20,2023-02-20,ＫＭＪ　ｅｎｇｉｎｅｅｒｉｎｇ株式会社,,株式会社,東京都,中央区,日本橋浜町２丁目１１番２－９０３号,,13,102,1030007,,,,,,,2023-02-20,1,,,,,ケイエムジェイエンジニアリング,0
1187,6010001233170,新規,0,2023-02-20,2023-02-20,株式会社傑,,株式会社,東京都,中央区,築地７丁目１２－６－２０１,,13,102,1040045,,,,,,,2023-02-20,1,,,,,ケツ,0
1188,6010001233179,新規,0,2023-02-20,2023-02-20,Ｂｏｄｙ＆Ｓｏｕｌ株式会社,,株式会社,東京都,中央区,築地７丁目１２番６号,,13,102,1040045,,,,,,,2023-02-20,1,,,,,ボディアンドソウル,0
1191,6010005036272,新規,0,2023-02-20,2023-02-20,一般社団法人ＦＩＰＰ１,,その他の設立登記法人,東京都,千代田区,丸の内３丁目１番１号東京共同会計事務所内,,13,101,1000005,,,,,,,2023-02-20,1,,,,,エフアイピィピィワン,0
1196,6010401172605,新規,0,2023-02-20,2023-02-20,株式会社Ｍｏｕｆｌｏｎ,,株式会社,東京都,港区,西麻布４丁目１４番２４号,,13,103,1060031,,,,,,,2023-02-20,1,,,,,ムフロン,0
1197,6010401172613,新規,0,2023-02-20,2023-02-20,株式会社ＲＯＢＵＳＴ　ＳＥＣＵＲＩＴＹ　ＳＥＲＶＩＣＥ,,株式会社,東京都,港区,新橋５丁目３１－２－７０２,,13,103,1050004,,,,,,,2023-02-20,1,,,,,ロブストセキュリティサービス,0
1202,6010403029547,新規,0,2023-02-20,2023-02-20,ＲＢソーラービオラ合同会社,,合同会社,東京都,港区,虎ノ門３丁目２２番１０－２０１号,,13,103,1050001,,,,,,,2023-02-20,1,,,,,アールビーソーラービオラ,0
1203,6010403029555,新規,0,2023-02-20,2023-02-20,Ｌｉｆｅｓｔｙｌｅ７合同会社,,合同会社,東京都,港区,六本木１丁目９番１０号アークヒルズ仙石山森タワー４０階,,13,103,1060032,,,,,,,2023-02-20,1,,,,,ライフスタイルセブン,0
1206,6010405021808,新規,0,2023-02-20,2023-02-20,一般社団法人日本カーボンニュートラル機構,,その他の設立登記法人,東京都,港区,新橋２丁目２０番１５新橋駅前ビル１号館６階,,13,103,1050004,,,,,,,2023-02-20,1,,,,,ニホンカーボンニュートラルキコウ,0
1207,6010405021840,新規,0,2023-02-20,2023-02-20,一般社団法人ＳＥＥＤ１,,その他の設立登記法人,東京都,港区,元赤坂１丁目１番７号,,13,103,1070051,,,,,,,2023-02-20,1,,,,,シードワン,0
1211,6010603010018,新規,0,2023-02-20,2023-02-20,合同会社ＲＩＳＡＫＯ,,合同会社,東京都,墨田区,文花１丁目１８番１３号,,13,107,1310044,,,,,,,2023-02-20,1,,,,,リサコ,0
1214,6010801033687,新規,0,2023-02-20,2023-02-20,株式会社ＧＲＡＮＤＲＥ,,株式会社,東京都,大田区,南馬込３丁目５番１４号カーサ南馬込１０２,,13,111,1430025,,,,,,,2023-02-20,1,,,,,グランドリ,0
1218,6010901052562,新規,0,2023-02-20,2023-02-20,株式会社オーパーツラボ,,株式会社,東京都,世田谷区,等々力５丁目１６番６号,,13,112,1580082,,,,,,,2023-02-20,1,,,,,オーパーツラボ,0
1219,6010903007985,新規,0,2023-02-20,2023-02-20,合同会社大イカ商会,,合同会社,東京都,世田谷区,大蔵３丁目１番６－２０７号,,13,112,1570074,,,,,,,2023-02-20,1,,,,,オオイカショウカイ,0
1229,6011001152682,新規,0,2023-02-20,2023-02-20,ＣＲＯＳＳ株式会社,,株式会社,東京都,渋谷区,東３丁目２５番３号,,13,113,1500011,,,,,,,2023-02-20,1,,,,,クロス,0
1241,6011403003913,新規,0,2023-02-20,2023-02-20,ＮｇｏｃＡｎｈ　ｃａｋｅ合同会社,,合同会社,東京都,板橋区,弥生町６９－３キャッスルマンション大山１Ｆ店舗,,13,119,1730021,,,,,,,2023-02-20,1,,,,,ゴックアンケーキ,0
1242,6011503005487,新規,0,2023-02-20,2023-02-20,ＡＲ　ＩＮＴＥＲＮＡＴＩＯＮＡＬ合同会社,,合同会社,東京都,北区,赤羽２丁目１９番８号伊沢ビル４０２,,13,117,1150045,,,,,,,2023-02-20,1,,,,,エーアールインターナショナル,0
1244,6012401040205,新規,0,2023-02-20,2023-02-20,株式会社ＮＥＷ　ＤＡＹ,,株式会社,東京都,稲城市,大丸１０３５番地の１,,13,225,2060801,,,,,,,2023-02-20,1,,,,,ニューデイ,0
1245,6012701017489,新規,0,2023-02-20,2023-02-20,株式会社Ｆｉｎｅ　Ｗｏｒｋｓ,,株式会社,東京都,東村山市,萩山町４丁目３番地３１,,13,213,1890012,,,,,,,2023-02-20,1,,,,,ファインワークス,0
1251,6020001150357,新規,0,2023-02-20,2023-02-20,株式会社祥瑞商事,,株式会社,神奈川県,横浜市中区,山下町１５０,,14,104,2310023,,,,,,,2023-02-20,1,,,,,ショウズイショウジ,0
1268,6030003021209,新規,0,2023-02-20,2023-02-20,合同会社ファイズトレーディング,,合同会社,埼玉県,日高市,大字高富８４番地１,,11,242,3501223,,,,,,,2023-02-20,1,,,,,ファイズトレーディング,0
1272,6040001127163,新規,0,2023-02-20,2023-02-20,株式会社羽賀建設,,株式会社,千葉県,木更津市,潮見６丁目１１番２号,,12,206,2920834,,,,,,,2023-02-20,1,,,,,ハガケンセツ,0
1275,6040003021934,新規,0,2023-02-20,2023-02-20,合同会社どんなに,,合同会社,千葉県,松戸市,松戸１３０７－１松戸ビル１３階１３０２,,12,207,2710092,,,,,,,2023-02-20,1,,,,,ドンナニ,0
1276,6040003021983,新規,0,2023-02-20,2023-02-20,合同会社万里,,合同会社,千葉県,佐倉市,千成３丁目１４番１４号,,12,212,2850034,,,,,,,2023-02-20,1,,,,,ワンリ,0
1277,6040005021908,新規,0,2023-02-20,2023-02-20,瓏仙院,,その他の設立登記法人,千葉県,松戸市,紙敷字新堀込８５２番地３,,12,207,2702221,,,,,,,2023-02-20,1,,,,,ロウセンイン,0
1278,6050001052419,新規,0,2023-02-20,2023-02-20,ＮＯＯＲ　ＣＯＲＰＯＲＡＴＩＯＮ株式会社,,株式会社,茨城県,神栖市,息栖２０４番地,,08,232,3140133,,,,,,,2023-02-20,1,,,,,ヌールコーポレーション,0
1280,6050005013210,新規,0,2023-02-20,2023-02-20,行政書士法人小嶋法務事務所,,その他の設立登記法人,茨城県,神栖市,土合本町３丁目９８０９番地２５０,,08,232,3140343,,,,,,,2023-02-20,1,,,,,コジマホウムジムショ,0
1284,6080001025470,新規,0,2023-02-20,2023-02-20,株式会社ｍｉｋａｎ,,株式会社,静岡県,牧之原市,細江８６５番地１,,22,226,4210421,,,,,,,2023-02-20,1,,,,,ミカン,0
1302,6100001036168,新規,0,2023-02-20,2023-02-20,株式会社豊明第二発電所,,株式会社,長野県,茅野市,北山５５１３番地２７３,,20,214,3910301,,,,,,,2023-02-20,1,,,,,トヨアケダイニハツデンショ,0
1316,6120001252449,新規,0,2023-02-20,2023-02-20,株式会社Ｃｌｅａｒ,,株式会社,大阪府,大阪市福島区,福島６丁目１８番１８－３０３号,,27,103,5530003,,,,,,,2023-02-20,1,,,,,クリア,0
1317,6120001252572,新規,0,2023-02-20,2023-02-20,依通株式会社,,株式会社,大阪府,大阪市大正区,三軒家西３丁目４番１６号中山ビル２０１Ｂ,,27,108,5510001,,,,,,,2023-02-20,1,,,,,イツウ,0
1318,6120001252606,新規,0,2023-02-20,2023-02-20,生谷ウィテリ株式会社,,株式会社,大阪府,大阪市生野区,新今里３丁目４番１７号ＯＧビル１０３Ｂ,,27,116,5440001,,,,,,,2023-02-20,1,,,,,キコクウィテリ,0
1319,6120001252622,新規,0,2023-02-20,2023-02-20,株式会社ＢＰプロジェクト,,株式会社,大阪府,大阪市北区,梅田１丁目１番３号大阪駅前第３ビル２９階１－１－１号室,,27,127,5300001,,,,,,,2023-02-20,1,,,,,ビーピープロジェクト,0
1320,6120001252647,新規,0,2023-02-20,2023-02-20,株式会社ＳＯＵＮＤ　ＢＡＳＥ,,株式会社,大阪府,寝屋川市,松屋町１番１ー４０１号,,27,215,5720086,,,,,,,2023-02-20,1,,,,,サウンドベース,0
1321,6120001252655,新規,0,2023-02-20,2023-02-20,株式会社オールウェイ,,株式会社,大阪府,大阪市東成区,東小橋２丁目１０番２６号７０６号室,,27,115,5370024,,,,,,,2023-02-20,1,,,,,オールウェイ,0
1324,6120003023468,新規,0,2023-02-20,2023-02-20,合同会社ＣＬＯＴＨＯＶＥＲ,,合同会社,大阪府,大阪市東住吉区,駒川１丁目１５－４－６０２号,,27,121,5460043,,,,,,,2023-02-20,1,,,,,クロスオーバー,0
1331,6130001073687,新規,0,2023-02-20,2023-02-20,株式会社増田美装,,株式会社,京都府,京都市右京区,龍安寺塔ノ下町１６－１１あすなろ館１－Ｃ,,26,108,6168005,,,,,,,2023-02-20,1,,,,,マスダビソウ,0
1332,6130001073712,新規,0,2023-02-20,2023-02-20,株式会社ＩＮＴＥＲＥＮＯ,,株式会社,京都府,京都市右京区,西院乾町５－１,,26,108,6150061,,,,,,,2023-02-20,1,,,,,インテリノ,0
1352,6180001155027,新規,0,2023-02-20,2023-02-20,Ｈｙｕ　Ｈｏｌｄｉｎｇｓ株式会社,,株式会社,愛知県,名古屋市中川区,富田町大字千音寺字諸桑３２２１番地（グランメゾン千音寺１０１号）,,23,110,4540971,,,,,,,2023-02-20,1,,,,,ヒューホールディングス,0
1357,6180003024857,新規,0,2023-02-20,2023-02-20,ｔｏｔｔｏ合同会社,,合同会社,愛知県,稲沢市,西島中町１３５番地,,23,220,4928327,,,,,,,2023-02-20,1,,,,,トット,0
1358,6180003024865,新規,0,2023-02-20,2023-02-20,合同会社ＢＴＦ,,合同会社,愛知県,犬山市,大字上野字午ノ背１４９－１,,23,215,4840077,,,,,,,2023-02-20,1,,,,,ビティエフ,0
1362,6200001040977,新規,0,2023-02-20,2023-02-20,株式会社そらと,,株式会社,岐阜県,岐阜市,尻毛２丁目５１番地８,,21,201,5011147,,,,,,,2023-02-20,1,,,,,ソラト,0
1363,6210001019236,新規,0,2023-02-20,2023-02-20,井上金庫グループホールディングス株式会社,,株式会社,福井県,福井市,西木田３丁目５番１号,,18,201,9188004,,,,,,,2023-02-20,1,,,,,イノウエキンコグループホールディングス,0
1372,6250001019967,新規,0,2023-02-20,2023-02-20,株式会社ステムクリエイト,,株式会社,山口県,宇部市,東琴芝１丁目１０番８号,,35,202,7550034,,,,,,,2023-02-20,1,,,,,ステムクリエイト,0
1374,6260003004207,新規,0,2023-02-20,2023-02-20,合同会社Ｍ‐ＳＴＯＮＥＳ,,合同会社,岡山県,岡山市北区,川入１０６４－１４,,33,101,7010161,,,,,,,2023-02-20,1,,,,,エムストーンズ,0
1375,6270001008729,新規,0,2023-02-20,2023-02-20,株式会社グリーンガーデン,,株式会社,鳥取県,鳥取市,賀露町４０２７番地,,31,201,6800905,,,,,,,2023-02-20,1,,,,,グリーンガーデン,0
1386,6290001100590,新規,0,2023-02-20,2023-02-20,株式会社リノ・リフォーム,,株式会社,福岡県,福岡市早良区,野芥７丁目９番１０号,,40,137,8140171,,,,,,,2023-02-20,1,,,,,リノリフォーム,0
1387,6290001100599,新規,0,2023-02-20,2023-02-20,株式会社アルブル,,株式会社,福岡県,福岡市東区,馬出１丁目１５番２５号,,40,131,8120054,,,,,,,2023-02-20,1,,,,,アルブル,0
1393,6290801029294,新規,0,2023-02-20,2023-02-20,株式会社山商,,株式会社,福岡県,行橋市,大字稲童３２２７番地５,,40,213,8240022,,,,,,,2023-02-20,1,,,,,ヤマショウ,0
1399,6330001030610,新規,0,2023-02-20,2023-02-20,株式会社ＴＯＶ,,株式会社,熊本県,天草市,八幡町８番１２号,,43,215,8630047,,,,,,,2023-02-20,1,,,,,ティーオーヴィ,0
1406,6360003012736,新規,0,2023-02-20,2023-02-20,Ｌｉｖｅｓｃｉｅｎｃｅ合同会社,,合同会社,沖縄県,沖縄市,大里１丁目９番３０号,,47,211,9042163,,,,,,,2023-02-20,1,,,,,リヴサイエンス,0
1407,6380001033492,新規,0,2023-02-20,2023-02-20,株式会社Ｎｅａｒ　Ｓｉｄｅ,,株式会社,福島県,いわき市,勿来町酒井関根４０番地,,07,204,9790142,,,,,,,2023-02-20,1,,,,,ニアサイド,0
1433,7010001233079,新規,0,2023-02-20,2023-02-20,株式会社マナーズエッセンス,,株式会社,東京都,中央区,入船３丁目７番７号ウィンド入船ビル３Ｆ,,13,102,1040042,,,,,,,2023-02-20,1,,,,,マナーズエッセンス,0
1434,7010001233120,新規,0,2023-02-20,2023-02-20,株式会社二八牌,,株式会社,東京都,中央区,銀座１丁目１２－４Ｎ＆ＥＢＬＤ．７階,,13,102,1040061,,,,,,,2023-02-20,1,,,,,ニヤハイ,0
1437,7010005036271,新規,0,2023-02-20,2023-02-20,Ｃｅｎｔｒａｌ　Ｐａｒｋ特定目的会社,,その他の設立登記法人,東京都,千代田区,丸の内３丁目１番１号東京共同会計事務所内,,13,101,1000005,,,,,,,2023-02-20,1,,,,,セントラルパーク,0
1449,7010401172562,新規,0,2023-02-20,2023-02-20,株式会社Ｏｎｅ’ｓ建創,,株式会社,東京都,港区,浜松町１丁目２７番１７号三和ビル４０５,,13,103,1050013,,,,,,,2023-02-20,1,,,,,ワンズケンソウ,0
1450,7010401172579,新規,0,2023-02-20,2023-02-20,株式会社久,,株式会社,東京都,港区,南麻布５丁目１４番１４号ＨＩＲＯＯ２３、２Ｆ,,13,103,1060047,,,,,,,2023-02-20,1,,,,,ヒサ,0
1451,7010401172587,新規,0,2023-02-20,2023-02-20,株式会社Ｒｙｏｂｉ　ＡｌｇｏＴｅｃｈ　Ｃａｐｉｔａｌ,,株式会社,東京都,港区,芝５丁目３３番１号,,13,103,1080014,,,,,,,2023-02-20,1,,,,,リョウビアルゴテクキャピタル,0
1455,7010403029546,新規,0,2023-02-20,2023-02-20,ＲＢソーラーダリア合同会社,,合同会社,東京都,港区,虎ノ門３丁目２２番１０－２０１号,,13,103,1050001,,,,,,,2023-02-20,1,,,,,アールビーソーラーダリア,0
1456,7010403029554,新規,0,2023-02-20,2023-02-20,Ｌｉｆｅｓｔｙｌｅ６合同会社,,合同会社,東京都,港区,六本木１丁目９番１０号アークヒルズ仙石山森タワー４０階,,13,103,1060032,,,,,,,2023-02-20,1,,,,,ライフスタイルシックス,0
1457,7010403029562,新規,0,2023-02-20,2023-02-20,ＡＺＵＫＩ　ＰＡＲＴＮＥＲＳ合同会社,,合同会社,東京都,港区,高輪３丁目２３番１７号品川センタービルディング,,13,103,1080074,,,,,,,2023-02-20,1,,,,,アズキパートナーズ,0
1458,7010405021798,新規,0,2023-02-20,2023-02-20,銀座マロニエ一般社団法人,,その他の設立登記法人,東京都,港区,六本木１丁目６番１号泉ガーデンタワー,,13,103,1060032,,,,,,,2023-02-20,1,,,,,ギンザマロニエ,0
1460,7010503006899,新規,0,2023-02-20,2023-02-20,Ｃ＆Ｔ合同会社,,合同会社,東京都,台東区,元浅草２丁目１１－６稲荷町タワー７０４,,13,106,1110041,,,,,,,2023-02-20,1,,,,,シーアンドティー,0
1462,7010603010017,新規,0,2023-02-20,2023-02-20,Ｋｎｋ　ｅｕｒｏｊａｐａｎ合同会社,,合同会社,東京都,墨田区,緑３丁目６－２エステート両国１０２号室,,13,107,1300021,,,,,,,2023-02-20,1,,,,,カンクユーロジャパン,0
1467,7010901052553,新規,0,2023-02-20,2023-02-20,株式会社ＲｅＲａｎｇｅ,,株式会社,東京都,世田谷区,世田谷４丁目１４番２６－８０１号,,13,112,1540017,,,,,,,2023-02-20,1,,,,,リレンジ,0
1468,7010901052561,新規,0,2023-02-20,2023-02-20,株式会社ＥＴＥＲＮＯ,,株式会社,東京都,世田谷区,代田２丁目２６番１号オンブラージュ代田１０１,,13,112,1550033,,,,,,,2023-02-20,1,,,,,エテルノ,0
1469,7010901052578,新規,0,2023-02-20,2023-02-20,株式会社カートコーポレイトグループ,,株式会社,東京都,世田谷区,池尻２丁目３７番２号,,13,112,1540001,,,,,,,2023-02-20,1,,,,,カートコーポレイトグループ,0
1478,7011001152640,新規,0,2023-02-20,2023-02-20,株式会社Ｅ＆Ｍ,,株式会社,東京都,渋谷区,松濤１丁目７番８号マストライフ松濤スイーツ２０４,,13,113,1500046,,,,,,,2023-02-20,1,,,,,イーアンドエム,0
1479,7011001152681,新規,0,2023-02-20,2023-02-20,株式会社ＢＧ,,株式会社,東京都,渋谷区,恵比寿４丁目５番２３号,,13,113,1500013,,,,,,,2023-02-20,1,,,,,ビージー,0
1480,7011003016265,新規,0,2023-02-20,2023-02-20,合同会社Ｄｉｅｔｚ,,合同会社,東京都,渋谷区,円山町５番４号フィールＡ渋谷４０５,,13,113,1500044,,,,,,,2023-02-20,1,,,,,ディーツ,0
1481,7011003016323,新規,0,2023-02-20,2023-02-20,合同会社ｎｉｎｅ,,合同会社,東京都,渋谷区,桜丘町２３番１７号シティコート桜丘４０８,,13,113,1500031,,,,,,,2023-02-20,1,,,,,ナイン,0
1484,7011101101885,新規,0,2023-02-20,2023-02-20,株式会社シティベーション,,株式会社,東京都,新宿区,新宿２丁目１５－２６第三玉屋ビル６Ｆ,,13,104,1600022,,,,,,,2023-02-20,1,,,,,シティベーション,0
1488,7011301028474,新規,0,2023-02-20,2023-02-20,株式会社ＹＭＴ,,株式会社,東京都,杉並区,成田東１丁目２０番１１号,,13,115,1660015,,,,,,,2023-02-20,1,,,,,ワイエムティー,0
1489,7011601026582,新規,0,2023-02-20,2023-02-20,ＲＡトレーディング株式会社,,株式会社,東京都,練馬区,南田中１丁目１３番３０号,,13,120,1770035,,,,,,,2023-02-20,1,,,,,アールエートレーディング,0
1505,7020001150348,新規,0,2023-02-20,2023-02-20,ライフテンド株式会社,,株式会社,神奈川県,横浜市南区,浦舟町１丁目１番地１１－６０１号,,14,105,2320024,,,,,,,2023-02-20,1,,,,,ライフテンド,0
1510,7021001078257,新規,0,2023-02-20,2023-02-20,株式会社ハナベル,,株式会社,神奈川県,横須賀市,小矢部２丁目２２番３号,,14,201,2380026,,,,,,,2023-02-20,1,,,,,ハナベル,0
1521,7030001152475,新規,0,2023-02-20,2023-02-20,エムアイリペア株式会社,,株式会社,埼玉県,入間市,宮寺２０５２番地１８,,11,225,3580014,,,,,,,2023-02-20,1,,,,,エムアイリペア,0
1525,7030003021224,新規,0,2023-02-20,2023-02-20,合同会社グラン,,合同会社,埼玉県,川越市,新宿町６丁目２４－１９,,11,201,3501124,,,,,,,2023-02-20,1,,,,,グラン,0
1529,7040001127105,新規,0,2023-02-20,2023-02-20,株式会社イノベーション２１,,株式会社,千葉県,柏市,豊四季３８２番地１３,,12,217,2770863,,,,,,,2023-02-20,1,,,,,イノベーションニジュウイチ,0
1530,7040001127154,新規,0,2023-02-20,2023-02-20,株式会社あとなみ,,株式会社,千葉県,鎌ケ谷市,初富２０６番地３２,,12,224,2730121,,,,,,,2023-02-20,1,,,,,アトナミ,0
1531,7040001127170,新規,0,2023-02-20,2023-02-20,株式会社いなり,,株式会社,千葉県,松戸市,野菊野２番地野菊野団地２棟８１２号室,,12,207,2702243,,,,,,,2023-02-20,1,,,,,イナリ,0
1532,7040001127179,新規,0,2023-02-20,2023-02-20,Ｐｏｎｏ株式会社,,株式会社,千葉県,千葉市稲毛区,黒砂４丁目４番７－１号,,12,103,2630042,,,,,,,2023-02-20,1,,,,,ポノ,0
1533,7040003021941,新規,0,2023-02-20,2023-02-20,合同会社免疫バランス研究所,,合同会社,千葉県,柏市,旭町１丁目１４－３－１２０１,,12,217,2770852,,,,,,,2023-02-20,1,,,,,メンエキバランスケンキュウショ,0
1542,7080403004732,新規,0,2023-02-20,2023-02-20,合同会社ワールドトレード,,合同会社,静岡県,浜松市東区,薬新町１８番地の４,,22,132,4350018,,,,,,,2023-02-20,1,,,,,ワールドトレード,0
1572,7120001252571,新規,0,2023-02-20,2023-02-20,溪田株式会社,,株式会社,大阪府,大阪市生野区,巽中１丁目２１番３号博文ビル４０１Ｂ,00129499,27,116,5440013,,,,,,,2023-02-20,1,,,,,ケイデン,0
1582,7120103005084,新規,0,2023-02-20,2023-02-20,三子合同会社,,合同会社,大阪府,堺市東区,菩提町３丁５番地１マンションクレール１０２号,,27,143,5998103,,,,,,,2023-02-20,1,,,,,サンシ,0
1585,7122001036715,新規,0,2023-02-20,2023-02-20,ウィステリア株式会社,,株式会社,大阪府,八尾市,明美町２丁目８－２８明美町ハイツ１０２号室,,27,212,5810087,,,,,,,2023-02-20,1,,,,,ウィステリア,0
1593,7130001073711,新規,0,2023-02-20,2023-02-20,Ｆｏｕｒ　Ｃｒａｆｔ株式会社,,株式会社,京都府,京都市下京区,七条通油小路東入大黒町２２７番地第２キョートビル４０２,,26,106,6008223,,,,,,,2023-02-20,1,,,,,フォークラフト,0
1609,7140001129165,新規,0,2023-02-20,2023-02-20,株式会社アッシャイワゾーノ,,株式会社,兵庫県,芦屋市,岩園町４番９－２号,,28,206,6590013,,,,,,,2023-02-20,1,,,,,アッシャイワゾーノ,0
1610,7140001129173,新規,0,2023-02-20,2023-02-20,ＯＳＰトラスト株式会社,,株式会社,兵庫県,芦屋市,松ノ内町３番８－３号クレインビル芦屋４Ｆ,00129506,28,206,6590094,,,,,,,2023-02-20,1,,,,,オーエスピートラスト,0
1611,7140001129181,新規,0,2023-02-20,2023-02-20,株式会社メインエステート,,株式会社,兵庫県,神戸市中央区,坂口通５丁目３－１２杉原ビル１０４号,,28,110,6510062,,,,,,,2023-02-20,1,,,,,メインエステート,0
1618,7160001024843,新規,0,2023-02-20,2023-02-20,Ｌｕｚ株式会社,,株式会社,滋賀県,大津市,坂本３丁目２９番８号,,25,201,5200113,,,,,,,2023-02-20,1,,,,,ルース,0
1620,7170001017482,新規,0,2023-02-20,2023-02-20,株式会社紀南エステート,,株式会社,和歌山県,田辺市,新庄町３７７番地,,30,206,6460011,,,,,,,2023-02-20,1,,,,,キナンエステート,0
1625,7180001154944,新規,0,2023-02-20,2023-02-20,株式会社ＳＰＣ,,株式会社,愛知県,名古屋市中区,新栄２丁目４５番２６号,,23,106,4600007,,,,,,,2023-02-20,1,,,,,エスピーシー,0
1626,7180001155042,新規,0,2023-02-20,2023-02-20,株式会社リフォームサービス,,株式会社,愛知県,名古屋市西区,平中町４１２番地（サンピア堀込２０２号）,,23,104,4520843,,,,,,,2023-02-20,1,,,,,リフォームサービス,0
1627,7180001155059,新規,0,2023-02-20,2023-02-20,株式会社豊明第一発電所,,株式会社,愛知県,豊明市,沓掛町石根２１番地,,23,229,4701101,,,,,,,2023-02-20,1,,,,,トヨアケダイイチハツデンショ,0
1631,7180003024864,新規,0,2023-02-20,2023-02-20,ｃｏｃｏＬｅｏ合同会社,,合同会社,愛知県,名古屋市中区,錦２丁目１６番４号Ａｋｉｇｉｒｉ　Ｆｕｓｈｉｍｉ,,23,106,4600003,,,,,,,2023-02-20,1,,,,,ココレオ,0
1635,7190003004238,新規,0,2023-02-20,2023-02-20,合同会社Ｈａｐｐｉｎｅｓｓ,,合同会社,三重県,松阪市,中道町３９６番地１１,,24,204,5152115,,,,,,,2023-02-20,1,,,,,ハピネス,0
1638,7220005008729,新規,0,2023-02-20,2023-02-20,天理教法奥金澤分教会,,その他の設立登記法人,石川県,能美市,小長野町イ９番地１,,17,211,9231116,,,,,,,2023-02-20,1,,,,,,0
1640,7230003001973,新規,0,2023-02-20,2023-02-20,ｂｏｕｒｇｅｏｎ合同会社,,合同会社,富山県,氷見市,堀田１３７４番地,,16,205,9350104,,,,,,,2023-02-20,1,,,,,ブールジオン,0
1642,7240005015517,新規,0,2023-02-20,2023-02-20,一般社団法人住環境サポーターズ,,その他の設立登記法人,広島県,広島市安佐北区,落合南１丁目８番１５号ビルアクセス４０３号室,,34,106,7391732,,,,,,,2023-02-20,1,,,,,ジュウカンキョウサポーターズ,0
1644,7250005008800,新規,0,2023-02-20,2023-02-20,特定非営利活動法人Ｇｒａｎｄｉｒ,,その他の設立登記法人,山口県,山口市,下小鯖１０９９２番地１３,,35,203,7530212,,,,,,,2023-02-20,1,,,,,グランディール,0
1645,7260001037661,新規,0,2023-02-20,2023-02-20,株式会社ヒラケン,,株式会社,岡山県,玉野市,田井１丁目８番１７号,,33,204,7060001,,,,,,,2023-02-20,1,,,,,ヒラケン,0
1652,7290001100607,新規,0,2023-02-20,2023-02-20,株式会社ＤＯＣプロジェクト,,株式会社,福岡県,福岡市中央区,西中洲１０番３号,,40,133,8100002,,,,,,,2023-02-20,1,,,,,ディーオーシープロジェクト,0
1653,7290001100615,新規,0,2023-02-20,2023-02-20,株式会社ウェルカム,,株式会社,福岡県,福岡市中央区,薬院３丁目１２番３－１００１号ファシール薬院,,40,133,8100022,,,,,,,2023-02-20,1,,,,,ウェルカム,0
1655,7290003013550,新規,0,2023-02-20,2023-02-20,合同会社ＴＹ,,合同会社,福岡県,福岡市博多区,東比恵３丁目１４－４,,40,132,8120007,,,,,,,2023-02-20,1,,,,,ティーワイ,0
1658,7320003004026,新規,0,2023-02-20,2023-02-20,あおばソーシャルサポート合同会社,,合同会社,大分県,大分市,花津留１丁目１４番２１号ホワイトカーサ１号室,,44,201,8700933,,,,,,,2023-02-20,1,,,,,アオバソーシャルサポート,0
1670,7360003012735,新規,0,2023-02-20,2023-02-20,沖縄ＣＧ合同会社,,合同会社,沖縄県,那覇市,字大道１７２番地,,47,201,9020066,,,,,,,2023-02-20,1,,,,,オキナワシージー,0
1671,7370001049613,新規,0,2023-02-20,2023-02-20,株式会社Ｒｏｕｇｈｔｅｒ,,株式会社,宮城県,気仙沼市,西八幡町３０番地２,,04,205,9880817,,,,,,,2023-02-20,1,,,,,ラフター,0
1678,7430001088464,新規,0,2023-02-20,2023-02-20,株式会社ｍｏｍｏｙａ,,株式会社,北海道,札幌市南区,南沢四条１丁目１－２９,,01,106,0050824,,,,,,,2023-02-20,1,,,,,モモヤ,0
1680,7430003014749,新規,0,2023-02-20,2023-02-20,合同会社シルフィード,,合同会社,北海道,札幌市厚別区,上野幌二条２丁目１９番１５号,,01,108,0040032,,,,,,,2023-02-20,1,,,,,シルフィード,0
1686,7500001024767,新規,0,2023-02-20,2023-02-20,縁文化国際交流株式会社,,株式会社,愛媛県,松山市,高岡町４０８番地８,,38,201,7918036,,,,,,,2023-02-20,1,,,,,エンブンカコクサイコウリュウ,0
1705,8010003039845,新規,0,2023-02-20,2023-02-20,ＩＫフードパートナーズ合同会社,,合同会社,東京都,中央区,日本橋室町２丁目３番１号,,13,102,1030022,,,,,,,2023-02-20,1,,,,,アイケイフードパートナーズ,0
1708,8010005036262,新規,0,2023-02-20,2023-02-20,一般財団法人みちひらき,,その他の設立登記法人,東京都,中央区,銀座８丁目７番１７号コパビル６階,,13,102,1040061,,,,,,,2023-02-20,1,,,,,ミチヒラキ,0
1709,8010005036270,新規,0,2023-02-20,2023-02-20,一般社団法人ＭＲＴＰ,,その他の設立登記法人,東京都,千代田区,丸の内３丁目１番１号東京共同会計事務所内,,13,101,1000005,,,,,,,2023-02-20,1,,,,,エムアールティピー,0
1713,8010401172578,新規,0,2023-02-20,2023-02-20,株式会社Ａｍｉ,,株式会社,東京都,港区,南麻布５丁目１４番１４号ＨＩＲＯＯ２３、２Ｆ,,13,103,1060047,,,,,,,2023-02-20,1,,,,,アミ,0
1716,8010403029553,新規,0,2023-02-20,2023-02-20,Ｌｉｆｅｓｔｙｌｅ５合同会社,,合同会社,東京都,港区,六本木１丁目９番１０号アークヒルズ仙石山森タワー４０階,,13,103,1060032,,,,,,,2023-02-20,1,,,,,ライフスタイルファイブ,0
1717,8010403029561,新規,0,2023-02-20,2023-02-20,ＺＯ　Ｆｕｔｕｒｅ合同会社,,合同会社,東京都,港区,元麻布３丁目１番６号,,13,103,1060046,,,,,,,2023-02-20,1,,,,,ゼオフューチャー,0
1725,8010901052585,新規,0,2023-02-20,2023-02-20,株式会社ＴＫ,,株式会社,東京都,世田谷区,上馬１丁目２番８号,,13,112,1540011,,,,,,,2023-02-20,1,,,,,ティーケー,0
1732,8011001152672,新規,0,2023-02-20,2023-02-20,ＹＭ株式会社,,株式会社,東京都,渋谷区,道玄坂１丁目１０番８号渋谷道玄坂東急ビル２Ｆ－Ｃ,,13,113,1500043,,,,,,,2023-02-20,1,,,,,ワイエム,0
1733,8011001152697,新規,0,2023-02-20,2023-02-20,株式会社ＭｅＭｅｎｔ,,株式会社,東京都,渋谷区,神宮前４丁目１４番１３号ハイシティ表参道１１５号,,13,113,1500001,,,,,,,2023-02-20,1,,,,,メメント,0
1744,8011203004003,新規,0,2023-02-20,2023-02-20,新ＳＯＲＡ合同会社,,合同会社,東京都,中野区,上高田３丁目４０－５,,13,114,1640002,,,,,,,2023-02-20,1,,,,,シンソラ,0
1745,8011203004011,新規,0,2023-02-20,2023-02-20,合同会社いあプロジェクト,,合同会社,東京都,中野区,中野３丁目４５－７トータス中野Ｃ棟２Ｆ,,13,114,1640001,,,,,,,2023-02-20,1,,,,,イアプロジェクト,0
1747,8011303004670,新規,0,2023-02-20,2023-02-20,合同会社オオクラ,,合同会社,東京都,杉並区,和泉３丁目５２番４号グラシアス２Ｆ,,13,115,1680063,,,,,,,2023-02-20,1,,,,,オオクラ,0
1748,8011403003911,新規,0,2023-02-20,2023-02-20,合同会社ＵＯＭＩ,,合同会社,東京都,板橋区,大山東町４５－２,,13,119,1730014,,,,,,,2023-02-20,1,,,,,ウオミ,0
1750,8011501028975,新規,0,2023-02-20,2023-02-20,アールファイブ株式会社,,株式会社,東京都,北区,赤羽西１丁目３３番３－７０２号,,13,117,1150055,,,,,,,2023-02-20,1,,,,,アールファイブ,0
1751,8011503005485,新規,0,2023-02-20,2023-02-20,合同会社ＳＴＹＬＥ,,合同会社,東京都,北区,赤羽３丁目１０番２－１０２号,,13,117,1150045,,,,,,,2023-02-20,1,,,,,スタイル,0
1755,8011801041959,新規,0,2023-02-20,2023-02-20,株式会社Ｙ・Ｍホールディングス,,株式会社,東京都,葛飾区,東金町４丁目４番２号ＢＥＳＴＡ金町１０２,,13,122,1250041,,,,,,,2023-02-20,1,,,,,ワイエムホールディングス,0
1757,8011803005532,新規,0,2023-02-20,2023-02-20,合同会社ｊｕｎｃｔｉｏｎ,,合同会社,東京都,足立区,千住大川町４４－１３,,13,121,1200031,,,,,,,2023-02-20,1,,,,,ジャンクション,0
1759,8012303001781,新規,0,2023-02-20,2023-02-20,合同会社芝ＩＴＣ,,合同会社,東京都,町田市,金井５丁目２２－１,,13,209,1950072,,,,,,,2023-02-20,1,,,,,シバアイティーシー,0
1762,8012405004831,新規,0,2023-02-20,2023-02-20,一般社団法人日本オンラインチャリティ協会,,その他の設立登記法人,東京都,武蔵野市,中町３丁目１８番４号,,13,203,1800006,,,,,,,2023-02-20,1,,,,,ニホンオンラインチャリティキョウカイ,0
1765,8013301050358,新規,0,2023-02-20,2023-02-20,株式会社ＢＣコンサルティング,,株式会社,東京都,豊島区,西池袋５丁目５番２１－６１１号,,13,116,1710021,,,,,,,2023-02-20,1,,,,,ビーシーコンサルティング,0
1776,8020001150355,新規,0,2023-02-20,2023-02-20,株式会社松永工藝社,,株式会社,神奈川県,横浜市中区,長者町３丁目８番地１３ＴＫ関内プラザ７０６,,14,104,2310033,,,,,,,2023-02-20,1,,,,,マツナガコウゲイシャ,0
1798,8040003021957,新規,0,2023-02-20,2023-02-20,らしくつむぐ合同会社,,合同会社,千葉県,袖ケ浦市,久保田１丁目７番地１５,,12,229,2990242,,,,,,,2023-02-20,1,,,,,ラシクツムグ,0
1799,8040003021981,新規,0,2023-02-20,2023-02-20,合同会社３Ｚ,,合同会社,千葉県,富里市,日吉台６丁目１３番６号,,12,233,2860201,,,,,,,2023-02-20,1,,,,,スリーゼット,0
1803,8050003007253,新規,0,2023-02-20,2023-02-20,合同会社ジャパンワークス,,合同会社,茨城県,土浦市,小松３丁目２６番３６号,,08,203,3000823,,,,,,,2023-02-20,1,,,,,ジャパンワークス,0
1832,8120001252620,新規,0,2023-02-20,2023-02-20,株式会社志学,,株式会社,大阪府,大阪市天王寺区,上本町５丁目７番２号ファンターナ上本町５０２号,,27,109,5430001,,,,,,,2023-02-20,1,,,,,シガク,0
1833,8120001252637,新規,0,2023-02-20,2023-02-20,株式会社さくらコンクリート,,株式会社,大阪府,大阪市住之江区,北加賀屋３丁目１番５号,,27,125,5590011,,,,,,,2023-02-20,1,,,,,サクラコンクリート,0
1838,8120003023466,新規,0,2023-02-20,2023-02-20,一帆合同会社,,合同会社,大阪府,大阪市平野区,平野市町１丁目１番９号２０１号室,,27,126,5470042,,,,,,,2023-02-20,1,,,,,イチホ,0
1839,8120003023474,新規,0,2023-02-20,2023-02-20,合同会社ｐｅｒｃｅｎｔ,,合同会社,大阪府,寝屋川市,東香里園町２３番２号,,27,215,5720081,,,,,,,2023-02-20,1,,,,,パーセント,0
1840,8120003023490,新規,0,2023-02-20,2023-02-20,合同会社アクシス,,合同会社,大阪府,大阪市鶴見区,鶴見５丁目５番３９号エルシェ鶴見２０３,,27,124,5380053,,,,,,,2023-02-20,1,,,,,アクシス,0
1842,8120005023480,新規,0,2023-02-20,2023-02-20,一般社団法人伊勢,,その他の設立登記法人,大阪府,大阪市中央区,宗右衛門町２番１３号,,27,128,5420084,,,,,,,2023-02-20,1,,,,,イセ,0
1848,8130003008540,新規,0,2023-02-20,2023-02-20,合同会社コミューン,,合同会社,京都府,京都市下京区,七条通油小路東入大黒町２２７番地第２キョートビル４０２,,26,106,6008223,,,,,,,2023-02-20,1,,,,,コミューン,0
1856,8140001129172,新規,0,2023-02-20,2023-02-20,株式会社コンファム,,株式会社,兵庫県,西宮市,越水町８－２０,,28,204,6620864,,,,,,,2023-02-20,1,,,,,コンファム,0
1859,8160001024842,新規,0,2023-02-20,2023-02-20,株式会社Ｇｙｍ　Ｎｏｂｌｅ,,株式会社,滋賀県,守山市,山賀町２１２番地,,25,207,5240065,,,,,,,2023-02-20,1,,,,,ジムノーブル,0
1868,8180001155041,新規,0,2023-02-20,2023-02-20,株式会社ＬｉＡｃｃｏｍｐａｎｙ,,株式会社,愛知県,名古屋市千種区,若水２丁目３番４号,,23,101,4640071,,,,,,,2023-02-20,1,,,,,リアカンパニー,0
1871,8180303005621,新規,0,2023-02-20,2023-02-20,合同会社Ｄｉｏｐｔｒａ,,合同会社,愛知県,刈谷市,東刈谷町１丁目１５番地２シャトレー東刈谷駅１３０３号,,23,210,4480807,,,,,,,2023-02-20,1,,,,,ディオプトラ,0
1873,8200001040975,新規,0,2023-02-20,2023-02-20,株式会社島,,株式会社,岐阜県,加茂郡坂祝町,酒倉２２２２番地,,21,501,5050074,,,,,,,2023-02-20,1,,,,,シマ,0
1879,8240005015516,新規,0,2023-02-20,2023-02-20,医療法人社団水内歯科医院,,その他の設立登記法人,広島県,広島市南区,松原町３番１－２０４号ＥＫＩＣＩＴＹ　ＨＩＲＯＳＨＩＭＡ　ＥＡＳＴ,,34,103,7320822,,,,,,,2023-02-20,1,,,,,ミズウチシカイイン,0
1884,8260001037660,新規,0,2023-02-20,2023-02-20,サンキューコム株式会社,,株式会社,岡山県,倉敷市,玉島１丁目１１番２２－２０号,,33,202,7138102,,,,,,,2023-02-20,1,,,,,サンキューコム,0
1885,8260003004205,新規,0,2023-02-20,2023-02-20,合同会社Ｋ‐プラント工業,,合同会社,岡山県,浅口市,金光町下竹１２２９番地１,,33,216,7190102,,,,,,,2023-02-20,1,,,,,ケイプラントコウギョウ,0
1891,8290001100614,新規,0,2023-02-20,2023-02-20,株式会社ビルブロ,,株式会社,福岡県,福岡市中央区,赤坂１丁目１５番２７号赤坂ハイツ２Ａ,,40,133,8100042,,,,,,,2023-02-20,1,,,,,ビルブロ,0
1898,8360001031579,新規,0,2023-02-20,2023-02-20,株式会社テルミック沖縄,,株式会社,沖縄県,那覇市,おもろまち１丁目１番２５号リュークスタワー西棟１０１１,,47,201,9000006,,,,,,,2023-02-20,1,,,,,テルミックオキナワ,0
1899,8360001031587,新規,0,2023-02-20,2023-02-20,株式会社Ｉｎ　ｔｏ　ｙｏｕ,,株式会社,沖縄県,沖縄市,桃原２丁目１６番２５号,,47,211,9042164,,,,,,,2023-02-20,1,,,,,イントゥユー,0
1908,8430001088430,新規,0,2023-02-20,2023-02-20,株式会社ＨＡＲＵ,,株式会社,北海道,札幌市西区,西野六条５丁目６番７号,,01,107,0630036,,,,,,,2023-02-20,1,,,,,ハル,0
1909,8430001088463,新規,0,2023-02-20,2023-02-20,株式会社北優,,株式会社,北海道,札幌市東区,北丘珠二条２丁目１－１５,,01,103,0070882,,,,,,,2023-02-20,1,,,,,ホクユウ,0
1911,8460001005770,新規,0,2023-02-20,2023-02-20,株式会社ヒダネ,,株式会社,北海道,釧路市,興津２丁目２７番２号,,01,206,0850811,,,,,,,2023-02-20,1,,,,,ヒダネ,0
1922,9010001233052,新規,0,2023-02-20,2023-02-20,株式会社エクソソーム,,株式会社,東京都,千代田区,二番町５番地２５,,13,101,1020084,,,,,,,2023-02-20,1,,,,,エクソソーム,0
1923,9010001233110,新規,0,2023-02-20,2023-02-20,Ｒｅ．ＭＥＤＩＡ株式会社,,株式会社,東京都,中央区,銀座１丁目２２番１１号銀座大竹ビジデンス２Ｆ,,13,102,1040061,,,,,,,2023-02-20,1,,,,,リメディア,0
1924,9010001233119,新規,0,2023-02-20,2023-02-20,株式会社コスメインターナショナル,,株式会社,東京都,中央区,築地７丁目１２番６号,,13,102,1040045,,,,,,,2023-02-20,1,,,,,コスメインターナショナル,0
1926,9010003039877,新規,0,2023-02-20,2023-02-20,合同会社クロスロード,,合同会社,東京都,千代田区,神田東松下町３７番地２加瀬ビル１３０－６０６号,,13,101,1010042,,,,,,,2023-02-20,1,,,,,クロスロード,0
1942,9010403029560,新規,0,2023-02-20,2023-02-20,ＶＥＮＴＥＮＹ合同会社,,合同会社,東京都,港区,虎ノ門５丁目１２番１３号６階,,13,103,1050001,,,,,,,2023-02-20,1,,,,,ベンテニー,0
1946,9010405021805,新規,0,2023-02-20,2023-02-20,一般社団法人ＪＩＮ　ＬＵＣＫサポーターズ,,その他の設立登記法人,東京都,港区,赤坂９丁目７番１号ミッドタウン・タワー１８階株式会社ＪＩＮ　ＬＵＣＫアセットマネジメント内,,13,103,1070052,,,,,,,2023-02-20,1,,,,,ジンラックサポーターズ,0
1947,9010405021846,新規,0,2023-02-20,2023-02-20,名古屋インベストメンツ２一般社団法人,,その他の設立登記法人,東京都,港区,六本木１丁目６番１号泉ガーデンタワー,,13,103,1060032,,,,,,,2023-02-20,1,,,,,ナゴヤインベストメンツツー,0
1949,9010503006897,新規,0,2023-02-20,2023-02-20,ｐａｓｓｅｒｅｌｌｅ合同会社,,合同会社,東京都,台東区,浅草橋５丁目１番３１号ロッキービル３階,,13,106,1110053,,,,,,,2023-02-20,1,,,,,パスレル,0
1951,9010701043874,新規,0,2023-02-20,2023-02-20,株式会社ＴＢＳＨＤ,,株式会社,東京都,品川区,西五反田１丁目２９番１号,,13,109,1410031,,,,,,,2023-02-20,1,,,,,ティービーエスエイチディー,0
1955,9010901052584,新規,0,2023-02-20,2023-02-20,株式会社ＣＭＣ,,株式会社,東京都,世田谷区,上祖師谷３丁目１７番９号サンフォレストヒルズＢ,,13,112,1570065,,,,,,,2023-02-20,1,,,,,シーエムシー,0
1967,9011003016313,新規,0,2023-02-20,2023-02-20,合同会社アルメ,,合同会社,東京都,渋谷区,恵比寿１丁目１５番９号日宝恵比寿ビル４０３,,13,113,1500013,,,,,,,2023-02-20,1,,,,,アルメ,0
1968,9011003016321,新規,0,2023-02-20,2023-02-20,エイワイプロデュース合同会社,,合同会社,東京都,渋谷区,道玄坂１丁目１０番８号渋谷道玄坂東急ビル２Ｆ－Ｃ,,13,113,1500043,,,,,,,2023-02-20,1,,,,,エイワイプロデュース,0
1970,9011503005484,新規,0,2023-02-20,2023-02-20,ＯＬＯＣ国際コンサルティング合同会社,,合同会社,東京都,荒川区,西尾久７丁目２１－５,,13,118,1160011,,,,,,,2023-02-20,1,,,,,オーエルオーシーコクサイコンサルティング,0
1972,9011601026597,新規,0,2023-02-20,2023-02-20,株式会社ＳＨＯＫＥＮ,,株式会社,東京都,練馬区,旭丘１丁目４８番２号,,13,120,1760005,,,,,,,2023-02-20,1,,,,,ショーケン,0
1979,9011803005531,新規,0,2023-02-20,2023-02-20,合同会社ＩＳＰＧ,,合同会社,東京都,足立区,本木西町１１番１３号,,13,121,1230856,,,,,,,2023-02-20,1,,,,,アイエスピージー,0
1981,9012405004830,新規,0,2023-02-20,2023-02-20,一般社団法人武蔵野編集室猫の手,,その他の設立登記法人,東京都,武蔵野市,中町３丁目１８番４号,,13,203,1800006,,,,,,,2023-02-20,1,,,,,ムサシノヘンシュウシツネコノテ,0
1982,9012803003005,新規,0,2023-02-20,2023-02-20,ＰＨＡＴＢＥＥ合同会社,,合同会社,東京都,国立市,富士見台２丁目８番７号５０２,,13,215,1860003,,,,,,,2023-02-20,1,,,,,ファットビー,0
1995,9030001152473,新規,0,2023-02-20,2023-02-20,プラネット株式会社,,株式会社,埼玉県,行田市,大字前谷４５３番地２,,11,206,3610038,,,,,,,2023-02-20,1,,,,,プラネット,0
1998,9030003021206,新規,0,2023-02-20,2023-02-20,合同会社ＭＩＸ　ＵＰ,,合同会社,埼玉県,川口市,大字東本郷１１９４番地３コーポみねぎし台Ｂ－１０５,,11,203,3340063,,,,,,,2023-02-20,1,,,,,ミックスアップ,0
2003,9040001127160,新規,0,2023-02-20,2023-02-20,ディーディーソリューションズ株式会社,,株式会社,千葉県,市川市,末広２丁目１０番２２－４０３号,,12,203,2720121,,,,,,,2023-02-20,1,,,,,ディーディーソリューションズ,0
2004,9040001127169,新規,0,2023-02-20,2023-02-20,株式会社中村興業,,株式会社,千葉県,船橋市,二和東４丁目８番１３号,,12,204,2740805,,,,,,,2023-02-20,1,,,,,ナカムラコウギョウ,0
2008,9040003021980,新規,0,2023-02-20,2023-02-20,Ｎｅｗ　Ｄｈａｒｍａｓｉｒｉ　Ｅｎｔｅｒｐｒｉｓｅｓ合同会社,,合同会社,千葉県,山武郡芝山町,高田１２１８番地１８,,12,409,2891623,,,,,,,2023-02-20,1,,,,,ニューダルマシリエンタープライズ,0
2009,9040003021989,新規,0,2023-02-20,2023-02-20,ＡＹＵ　ＡＵＴＯ　ＴＲＡＤＩＮＧ合同会社,,合同会社,千葉県,八街市,滝台１６２０番地２,,12,230,2891123,,,,,,,2023-02-20,1,,,,,アユオートトレーディング,0
2010,9050001052416,新規,0,2023-02-20,2023-02-20,株式会社ＩＬＬ,,株式会社,茨城県,つくば市,みどりの南６２番地６－２０１号,,08,220,3050884,,,,,,,2023-02-20,1,,,,,アイル,0
2013,9070003004826,新規,0,2023-02-20,2023-02-20,Ｂｌｕｅ　Ｓｔａｒ　Ｉｎｎｏｖａｔｉｏｎ　Ｊａｐａｎ合同会社,,合同会社,群馬県,邑楽郡大泉町,東小泉２丁目１８番２１号,,10,524,3700513,,,,,,,2023-02-20,1,,,,,ブルースターイノベーションジャパン,0
2032,9100003006892,新規,0,2023-02-20,2023-02-20,滝澤農園合同会社,,合同会社,長野県,須坂市,墨坂２丁目１０番１号,,20,207,3820099,,,,,,,2023-02-20,1,,,,,タキザワノウエン,0
2040,9120003023465,新規,0,2023-02-20,2023-02-20,合同会社麗光,,合同会社,大阪府,大阪市東成区,玉津２丁目１１番７号スタートライン玉津２０１号室,,27,115,5370023,,,,,,,2023-02-20,1,,,,,レイコウ,0
2052,9140001129155,新規,0,2023-02-20,2023-02-20,株式会社三和会,,株式会社,兵庫県,神戸市中央区,磯上通４丁目１－３２ロイヤル磯上ビル４０５,,28,110,6510086,,,,,,,2023-02-20,1,,,,,,0
2053,9140001129196,新規,0,2023-02-20,2023-02-20,芦屋ハート不動産株式会社,,株式会社,兵庫県,芦屋市,呉川町１７番６号,,28,206,6590051,,,,,,,2023-02-20,1,,,,,アシヤハートフドウサン,0
2058,9140003018736,新規,0,2023-02-20,2023-02-20,Ａｎコンサルト合同会社,,合同会社,兵庫県,三田市,狭間が丘５丁目５番地１棟１２０３号,,28,219,6691545,,,,,,,2023-02-20,1,,,,,アンコンサルト,0
2063,9160001024841,新規,0,2023-02-20,2023-02-20,株式会社中村工務店,,株式会社,滋賀県,守山市,水保町１１５４番地２２,,25,207,5240102,,,,,,,2023-02-20,1,,,,,ナカムラコウムテン,0
2073,9180003024821,新規,0,2023-02-20,2023-02-20,合同会社ＴＯＫＩＹＡ,,合同会社,愛知県,名古屋市名東区,つつじが丘１２１番地,,23,115,4650017,,,,,,,2023-02-20,1,,,,,トキヤ,0
2076,9180303005620,新規,0,2023-02-20,2023-02-20,合同会社石川,,合同会社,愛知県,岡崎市,宮地町字柳畑３７番地,,23,202,4440202,,,,,,,2023-02-20,1,,,,,イシカワ,0
2077,9190001030176,新規,0,2023-02-20,2023-02-20,株式会社レーヴェ,,株式会社,三重県,桑名市,筒尾３丁目１０番地２１,,24,205,5110901,,,,,,,2023-02-20,1,,,,,レーヴェ,0
2080,9200003005851,新規,0,2023-02-20,2023-02-20,フラック合同会社,,合同会社,岐阜県,岐阜市,塩町２丁目８番地２,,21,201,5008127,,,,,,,2023-02-20,1,,,,,フラック,0
2085,9240001061109,新規,0,2023-02-20,2023-02-20,キッズプログラミング株式会社,,株式会社,広島県,広島市中区,大手町５丁目１番１号大手町ファーストビル６Ｆ,,34,101,7300051,,,,,,,2023-02-20,1,,,,,キッズプログラミング,0
2096,9290001100605,新規,0,2023-02-20,2023-02-20,株式会社ふくみみ,,株式会社,福岡県,福岡市城南区,片江５丁目１４番２３－１１０号,,40,136,8140142,,,,,,,2023-02-20,1,,,,,フクミミ,0
2097,9290001100613,新規,0,2023-02-20,2023-02-20,株式会社海晟,,株式会社,福岡県,福岡市中央区,高砂２丁目８－１２朝野ビル４階,,40,133,8100011,,,,,,,2023-02-20,1,,,,,カイセイ,0
2108,9320001019577,新規,0,2023-02-20,2023-02-20,株式会社永慶商事,,株式会社,大分県,杵築市,大字猪尾字六反田７５０番地１,,44,210,8730005,,,,,,,2023-02-20,1,,,,,エイケイショウジ,0
2117,9360003012733,新規,0,2023-02-20,2023-02-20,西澤電工ｇｒｏｕｐ合同会社,,合同会社,沖縄県,那覇市,牧志２丁目１７－２７－４０１,,47,201,9000013,,,,,,,2023-02-20,1,,,,,ニシザワデンコウグループ,0
2128,9430001088462,新規,0,2023-02-20,2023-02-20,株式会社ＡＵＴＯ　ＧＯＨ,,株式会社,北海道,札幌市北区,新琴似町７７７－１,,01,102,0010915,,,,,,,2023-02-20,1,,,,,オートゴー,0
2132,9470003002351,新規,0,2023-02-20,2023-02-20,合同会社匠,,合同会社,香川県,丸亀市,今津町５２９番地５,,37,202,7630051,,,,,,,2023-02-20,1,,,,,タクミ,0
