sequenceNumber,corporateNumber,process,correct,updateDate,changeDate,name,nameImageId,kind,prefectureName,cityName,streetNumber,addressImageId,prefectureCode,cityCode,postCode,addressOutside,addressOutsideImageId,closeDate,closeCause,successorCorporateNumber,changeCause,assignmentDate,latest,enName,enPrefectureName,enCityName,enAddressOutside,furigana,hihyoji
5,1010001230775,新規,0,2022-11-14,2022-11-14,海商交易株式会社,,株式会社,東京都,千代田区,四番町４－９ＳＴＫ内,,13,101,1020081,,,,,,,2022-11-14,1,,,,,カイショウコウエキ,0
6,1010001230809,新規,0,2022-11-14,2022-11-14,ＥＭＥＥＴジャパン株式会社,,株式会社,東京都,中央区,日本橋本町３丁目３番６号ワカ末ビル７階,,13,102,1030023,,,,,,,2022-11-14,1,,,,,イミートジャパン,0
7,1010001230817,新規,0,2022-11-14,2022-11-14,Ｚｅｒｏ　Ｄｅｇｒｅｅｓ株式会社,,株式会社,東京都,千代田区,丸の内２丁目３番２号郵船ビルディング１Ｆ,,13,101,1000005,,,,,,,2022-11-14,1,,,,,ゼロディグリーズ,0
11,1010005035774,新規,0,2022-11-14,2022-11-14,ＵＳ・アテーナブルファンド一般社団法人,,その他の設立登記法人,東京都,千代田区,丸の内３丁目１番１号東京共同会計事務所内,,13,101,1000005,,,,,,,2022-11-14,1,,,,,ユーエスアテーナブルファンド,0
12,1010005035782,新規,0,2022-11-14,2022-11-14,東京レジ３０一般社団法人,,その他の設立登記法人,東京都,千代田区,丸の内３丁目１番１号東京共同会計事務所内,,13,101,1000005,,,,,,,2022-11-14,1,,,,,トウキョウレジサーティ,0
26,1010601062131,新規,0,2022-11-14,2022-11-14,株式会社ＧＬクリエーション,,株式会社,東京都,墨田区,業平３丁目４番１２号,,13,107,1300002,,,,,,,2022-11-14,1,,,,,ジーエルクリエーション,0
27,1010601062148,新規,0,2022-11-14,2022-11-14,株式会社エクスドリーム,,株式会社,東京都,墨田区,菊川２丁目５番１８号川口ビル１Ｆ,,13,107,1300024,,,,,,,2022-11-14,1,,,,,エクスドリーム,0
31,1010701043469,新規,0,2022-11-14,2022-11-14,株式会社Ｔａｃｔｏ,,株式会社,東京都,品川区,西品川１丁目１－１大崎ガーデンタワー９階,,13,109,1410033,,,,,,,2022-11-14,1,,,,,タクト,0
47,1011003015677,新規,0,2022-11-14,2022-11-14,ＵＰコンサルティング合同会社,,合同会社,東京都,目黒区,下目黒１丁目４－１３,,13,110,1530064,,,,,,,2022-11-14,1,,,,,アップコンサルティング,0
54,1011101100810,新規,0,2022-11-14,2022-11-14,株式会社ＰＡＮＣＨＡＮ,,株式会社,東京都,新宿区,信濃町１３番地２５,,13,104,1600016,,,,,,,2022-11-14,1,,,,,パンチャン,0
72,1012801021957,新規,0,2022-11-14,2022-11-14,株式会社５５５,,株式会社,東京都,立川市,柴崎町２丁目２番１３号ＦＫＫ柴崎町１Ｆ,,13,202,1900023,,,,,,,2022-11-14,1,,,,,ハハハ,0
81,1020001148991,新規,0,2022-11-14,2022-11-14,株式会社Ｒｅｆｉｎｅ,,株式会社,神奈川県,横浜市旭区,万騎が原５８番地,,14,112,2410836,,,,,,,2022-11-14,1,,,,,リファイン,0
88,1030001150897,新規,0,2022-11-14,2022-11-14,なかなか便利株式会社,,株式会社,埼玉県,上尾市,菅谷６丁目１６８番地４,,11,219,3620003,,,,,,,2022-11-14,1,,,,,ナカナカベンリ,0
89,1030001150988,新規,0,2022-11-14,2022-11-14,株式会社美徳,,株式会社,埼玉県,さいたま市中央区,八王子５丁目１２番２２－１０１号,,11,105,3380006,,,,,,,2022-11-14,1,,,,,ビトク,0
90,1030001151029,新規,0,2022-11-14,2022-11-14,旭川株式会社,,株式会社,埼玉県,久喜市,菖蒲町新堀２０３４－６,,11,232,3460105,,,,,,,2022-11-14,1,,,,,アサヒカワ,0
91,1030001151037,新規,0,2022-11-14,2022-11-14,株式会社航輝,,株式会社,埼玉県,さいたま市大宮区,宮町４丁目６４番地２メディウス大宮６０３,,11,103,3300802,,,,,,,2022-11-14,1,,,,,コウキ,0
92,1030001151061,新規,0,2022-11-14,2022-11-14,株式会社ビックリワーク,,株式会社,埼玉県,川越市,寿町１丁目２２８９番地２－２０２号,,11,201,3501116,,,,,,,2022-11-14,1,,,,,ビックリワーク,0
95,1030003020578,新規,0,2022-11-14,2022-11-14,トライアンフ合同会社,,合同会社,埼玉県,さいたま市南区,根岸３丁目２７番３－２０９号,,11,108,3360024,,,,,,,2022-11-14,1,,,,,トライアンフ,0
99,1040001125840,新規,0,2022-11-14,2022-11-14,２ＦＡＣＥ株式会社,,株式会社,千葉県,船橋市,二和東３丁目９番５１号わおんＲｅｓｉｄｅｎｃｅ,,12,204,2740805,,,,,,,2022-11-14,1,,,,,トゥーフェイス,0
100,1040001125849,新規,0,2022-11-14,2022-11-14,Ｍａｇａｒｉｇａｗａ　Ｏｐｅｒａｔｉｏｎｓ株式会社,,株式会社,千葉県,南房総市,富浦町大津字鍛冶屋沢１０１５番地,,12,234,2992412,,,,,,,2022-11-14,1,,,,,マガリガワオペレーションズ,0
101,1040001125857,新規,0,2022-11-14,2022-11-14,株式会社龍の恵み,,株式会社,千葉県,成田市,小菅５６９番地１,,12,211,2860127,,,,,,,2022-11-14,1,,,,,リュウノメグミ,0
102,1040001125881,新規,0,2022-11-14,2022-11-14,株式会社ＨＡＬＦ　ＴｉＭＥｓ,,株式会社,千葉県,印旛郡酒々井町,上岩橋２１７５番地２,,12,322,2850905,,,,,,,2022-11-14,1,,,,,ハーフタイムス,0
114,1060001035451,新規,0,2022-11-14,2022-11-14,株式会社ＬＡｐｒｉｃｏｔ,,株式会社,栃木県,下都賀郡野木町,大字友沼６４２１－５,,09,364,3290101,,,,,,,2022-11-14,1,,,,,ラプリコット,0
115,1070001039831,新規,0,2022-11-14,2022-11-14,群馬空き家サポート株式会社,,株式会社,群馬県,太田市,東長岡町１４９７番地２,,10,205,3730812,,,,,,,2022-11-14,1,,,,,グンマアキヤサポート,0
118,1080101023643,新規,0,2022-11-14,2022-11-14,株式会社飯塚,,株式会社,静岡県,三島市,萩２６番地,,22,206,4110045,,,,,,,2022-11-14,1,,,,,イイヅカ,0
123,1100001035884,新規,0,2022-11-14,2022-11-14,株式会社ＨＯＴＯＴＯＧＩＳＵ,,株式会社,長野県,長野市,南千歳２丁目５番地５ジャシイビル４－２,,20,201,3800823,,,,,,,2022-11-14,1,,,,,ホトトギス,0
127,1110001037112,新規,0,2022-11-14,2022-11-14,将板金株式会社,,株式会社,新潟県,長岡市,鳥越２１３６番地,,15,202,9402316,,,,,,,2022-11-14,1,,,,,マサバンキン,0
132,1120001250110,新規,0,2022-11-14,2022-11-14,株式会社ＲＫ,,株式会社,大阪府,大阪市天王寺区,玉造元町１０番９－１００４号,,27,109,5430014,,,,,,,2022-11-14,1,,,,,アールケイ,0
133,1120001250234,新規,0,2022-11-14,2022-11-14,株式会社Ｗ３,,株式会社,大阪府,大阪市北区,太融寺町７番１１号フジノビルディングノバ５階,,27,127,5300051,,,,,,,2022-11-14,1,,,,,ダブリュスリー,0
134,1120001250250,新規,0,2022-11-14,2022-11-14,ＬＨプロソリューション株式会社,,株式会社,大阪府,大阪市福島区,吉野５丁目８－２７ベリーウェル福島７０２号,,27,103,5530006,,,,,,,2022-11-14,1,,,,,エルエイチプロソリューション,0
142,1120101066530,新規,0,2022-11-14,2022-11-14,株式会社Ｆａｔｅ,,株式会社,大阪府,羽曳野市,蔵之内２０４番地の３,,27,222,5830863,,,,,,,2022-11-14,1,,,,,フェイト,0
144,1120901046748,新規,0,2022-11-14,2022-11-14,川上株式会社,,株式会社,大阪府,高槻市,柳川町１丁目１番２９－Ｂ２０３号,,27,207,5690853,,,,,,,2022-11-14,1,,,,,カワカミ,0
146,1120903004357,新規,0,2022-11-14,2022-11-14,合同会社創流Ｆａｃｔｏｒｙ,,合同会社,大阪府,豊能郡豊能町,光風台５丁目１５番地の５,,27,321,5630104,,,,,,,2022-11-14,1,,,,,ソウリュウファクトリー,0
154,1130001073056,新規,0,2022-11-14,2022-11-14,ｂｌｕｅ　ｂｌａｃｋ株式会社,,株式会社,京都府,京都市下京区,中堂寺北町３番地１１,,26,106,6008812,,,,,,,2022-11-14,1,,,,,ブルーブラック,0
155,1130003008308,新規,0,2022-11-14,2022-11-14,合同会社Ｂｌｏｏｍ,,合同会社,京都府,京都市伏見区,深草泓ノ壺町１０番地３コーポ清水２０１,,26,109,6128435,,,,,,,2022-11-14,1,,,,,ブルーム,0
156,1130003008316,新規,0,2022-11-14,2022-11-14,合同会社三上商会,,合同会社,京都府,京都市伏見区,淀美豆町４６５番地の２,,26,109,6130916,,,,,,,2022-11-14,1,,,,,ミカミショウカイ,0
165,1140001128081,新規,0,2022-11-14,2022-11-14,ヌプカラボ株式会社,,株式会社,兵庫県,神戸市西区,学園東町１丁目１番地１０１－１１０３号,,28,111,6512102,,,,,,,2022-11-14,1,,,,,ヌプカラボ,0
171,1140003018355,新規,0,2022-11-14,2022-11-14,ｗｒｉｇｈｔｓｔｏｃｋ合同会社,,合同会社,兵庫県,芦屋市,涼風町１４－１５,,28,206,6590036,,,,,,,2022-11-14,1,,,,,ライトストック,0
192,1180003024473,新規,0,2022-11-14,2022-11-14,合同会社ケー・エム・イー,,合同会社,愛知県,名古屋市中村区,中村町５丁目５０番地,,23,105,4530053,,,,,,,2022-11-14,1,,,,,ケーエムイー,0
194,1180303005512,新規,0,2022-11-14,2022-11-14,合同会社Ｂｒｉｄｇｅ,,合同会社,愛知県,岡崎市,大門５丁目２３－８オフィスティーツー２０２,,23,202,4442135,,,,,,,2022-11-14,1,,,,,ブリッジ,0
197,1200001040676,新規,0,2022-11-14,2022-11-14,株式会社名古屋グラフィックスタジオ,,株式会社,岐阜県,各務原市,蘇原月丘町３丁目１７番,,21,213,5040903,,,,,,,2022-11-14,1,,,,,ナゴヤグラフィックスタジオ,0
202,1230001019593,新規,0,2022-11-14,2022-11-14,株式会社ｈｉｇｈｅｓｔ　ｐｏｉｎｔ,,株式会社,富山県,富山市,秋吉１５３番地１４,,16,201,9300953,,,,,,,2022-11-14,1,,,,,ハイエストポイント,0
211,1260001037411,新規,0,2022-11-14,2022-11-14,株式会社リニシア,,株式会社,岡山県,倉敷市,加須山４８６番地１,,33,202,7100026,,,,,,,2022-11-14,1,,,,,リニシア,0
232,1290003013192,新規,0,2022-11-14,2022-11-14,ＮＥＷ　ＣＯＵＮＴＲＹ合同会社,,合同会社,福岡県,嘉麻市,岩崎４３２番地３,,40,227,8200205,,,,,,,2022-11-14,1,,,,,ニューカントリー,0
240,1340001025168,新規,0,2022-11-14,2022-11-14,株式会社コウシン,,株式会社,鹿児島県,いちき串木野市,大里４０４６番地７,,46,219,8992103,,,,,,,2022-11-14,1,,,,,コウシン,0
249,1360001031197,新規,0,2022-11-14,2022-11-14,株式会社ＣＡＶＥ　ＯＫＩＮＡＷＡ,,株式会社,沖縄県,うるま市,石川嘉手苅４７９番地１,,47,213,9041114,,,,,,,2022-11-14,1,,,,,ケイブオキナワ,0
250,1360001031206,新規,0,2022-11-14,2022-11-14,宮里商店株式会社,,株式会社,沖縄県,石垣市,新栄町７番地５宮里ハイツＡ４,,47,207,9070014,,,,,,,2022-11-14,1,,,,,ミヤザトショウテン,0
254,1370001049255,新規,0,2022-11-14,2022-11-14,株式会社ユナイト,,株式会社,宮城県,大崎市,鳴子温泉字和田５番,,04,215,9896712,,,,,,,2022-11-14,1,,,,,ユナイト,0
260,1380005012646,新規,0,2022-11-14,2022-11-14,一般社団法人ＦＤＳ,,その他の設立登記法人,福島県,大沼郡会津美里町,字本郷道上１番地,,07,447,9696164,,,,,,,2022-11-14,1,,,,,エフディーエス,0
263,1420003002603,新規,0,2022-11-14,2022-11-14,Ｓ＆Ｙ・Ｉ合同会社,,合同会社,青森県,八戸市,大字湊町字大沢２８番地３５,,02,203,0310812,,,,,,,2022-11-14,1,,,,,エスアンドワイアイ,0
272,1430003014457,新規,0,2022-11-14,2022-11-14,合同会社エーワイハウジング,,合同会社,北海道,札幌市手稲区,新発寒七条６丁目７番８号,,01,109,0060807,,,,,,,2022-11-14,1,,,,,エーワイハウジング,0
273,1500001024599,新規,0,2022-11-14,2022-11-14,株式会社リンネ,,株式会社,愛媛県,松山市,道後鷺谷町２番２７号,,38,201,7900836,,,,,,,2022-11-14,1,,,,,,0
276,1700150112886,新規,0,2022-11-14,2022-11-14,ＡＬＬＩＳＯＮ　ＣＯ．，ＬＩＭＩＴＥＤ,,外国会社等,,,,,,,,ＦＬＡＴ／ＲＭ　Ｂ５　１／Ｆ　ＭＡＮＮＩＮＧ　ＩＮＤ　ＢＵＩＬＤＩＮＧ　１１６－１１８　ＨＯＷ　ＭＩＮＧ　ＳＴＲＥＥＴ　ＫＷＵＮ　ＴＯＮＧ　Ｈｏｎｇ　Ｋｏｎｇ,,,,,,2022-11-14,1,,,,,オリソンカンパニーリミテツド,0
288,2010001230691,新規,0,2022-11-14,2022-11-14,メタセンシズ株式会社,,株式会社,東京都,中央区,築地４丁目１番９号４階,,13,102,1040045,,,,,,,2022-11-14,1,,,,,メタセンシズ,0
289,2010001230709,新規,0,2022-11-14,2022-11-14,ファーストアイランド株式会社,,株式会社,東京都,千代田区,平河町２丁目７番１０－１６０４号,,13,101,1020093,,,,,,,2022-11-14,1,,,,,ファーストアイランド,0
290,2010001230790,新規,0,2022-11-14,2022-11-14,Ｋｉｗｉｔｈ株式会社,,株式会社,東京都,文京区,本郷４丁目１番３号シャルム‘８０・５０１号室,,13,105,1130033,,,,,,,2022-11-14,1,,,,,キウイズ,0
301,2010005035781,新規,0,2022-11-14,2022-11-14,東京レジ３２一般社団法人,,その他の設立登記法人,東京都,千代田区,丸の内３丁目１番１号東京共同会計事務所内,,13,101,1000005,,,,,,,2022-11-14,1,,,,,トウキョウレジサーティツー,0
311,2010401170819,新規,0,2022-11-14,2022-11-14,株式会社ｎｏｔｏｒｉｏｕｓ,,株式会社,東京都,港区,六本木３丁目１３番１０号六本木幸田ビル９Ｆ,,13,103,1060032,,,,,,,2022-11-14,1,,,,,ノートリアス,0
312,2010405021547,新規,0,2022-11-14,2022-11-14,一般社団法人Ｏｒｔｈｏｆｅｍｍｅ,,その他の設立登記法人,東京都,港区,芝５丁目３１番１５号,,13,103,1080014,,,,,,,2022-11-14,1,,,,,オルトファム,0
329,2011001150814,新規,0,2022-11-14,2022-11-14,ＣＨＡＬＬＥＮＧＥ　ＧＵＩＬＤ株式会社,,株式会社,東京都,渋谷区,道玄坂１丁目１０番８号渋谷道玄坂東急ビル２Ｆ－Ｃ,,13,113,1500043,,,,,,,2022-11-14,1,,,,,チャレンジギルド,0
341,2011101100826,新規,0,2022-11-14,2022-11-14,Ｃｈｉ’ｓ株式会社,,株式会社,東京都,新宿区,西新宿３丁目３番１３号西新宿水間ビル２Ｆ,,13,104,1600023,,,,,,,2022-11-14,1,,,,,チーズ,0
342,2011103012375,新規,0,2022-11-14,2022-11-14,Ａｑｕａｒｉｕｓ合同会社,,合同会社,東京都,新宿区,百人町２丁目１８番１５号,,13,104,1690073,,,,,,,2022-11-14,1,,,,,アクアリウス,0
343,2011201024231,新規,0,2022-11-14,2022-11-14,株式会社純正プロダクション,,株式会社,東京都,中野区,上高田２丁目４３番１１号,,13,114,1640002,,,,,,,2022-11-14,1,,,,,ジュンセイプロダクション,0
355,2020001148925,新規,0,2022-11-14,2022-11-14,株式会社ＫＭホールディングス,,株式会社,神奈川県,横浜市鶴見区,東寺尾１丁目３４番１５号,,14,101,2300077,,,,,,,2022-11-14,1,,,,,ケーエムホールディングス,0
356,2020001148982,新規,0,2022-11-14,2022-11-14,株式会社Ｑｒａｃｅ,,株式会社,神奈川県,横浜市中区,羽衣町１丁目２番地８銀泉関内ビル７Ｆ,,14,104,2310047,,,,,,,2022-11-14,1,,,,,キュレイス,0
357,2020001148990,新規,0,2022-11-14,2022-11-14,ＬＩＳＴＡ商事株式会社,,株式会社,神奈川県,横浜市港北区,新横浜１丁目１１番地１ラント・タチバナ１１０３号,,14,109,2220033,,,,,,,2022-11-14,1,,,,,リスタショウジ,0
367,2021001077412,新規,0,2022-11-14,2022-11-14,株式会社ＧＲＩＶＥ,,株式会社,神奈川県,横須賀市,上町１丁目１番１４号,,14,201,2380017,,,,,,,2022-11-14,1,,,,,グリーブ,0
368,2021001077453,新規,0,2022-11-14,2022-11-14,株式会社ｅｍｏｔｉｏｎ,,株式会社,神奈川県,綾瀬市,早川２９８０番地８,,14,218,2521123,,,,,,,2022-11-14,1,,,,,エモーション,0
370,2021003012383,新規,0,2022-11-14,2022-11-14,合同会社和幸,,合同会社,神奈川県,相模原市中央区,田名５３３８番地３,,14,152,2520244,,,,,,,2022-11-14,1,,,,,ワコウ,0
379,2030001151028,新規,0,2022-11-14,2022-11-14,株式会社Ｈ．Ｓ．Ｅ,,株式会社,埼玉県,春日部市,梅田１丁目７番２５号,,11,214,3440052,,,,,,,2022-11-14,1,,,,,エイチエスイー,0
380,2030001151060,新規,0,2022-11-14,2022-11-14,株式会社ＡＴＴＡＩＮ‐ＧｉＬ,,株式会社,埼玉県,さいたま市大宮区,桜木町２丁目３番地大宮マルイ７階,,11,103,3300854,,,,,,,2022-11-14,1,,,,,アテインギル,0
381,2030001151069,新規,0,2022-11-14,2022-11-14,株式会社ＵＢ　ＴＲＡＤＩＮＧ,,株式会社,埼玉県,春日部市,牛島字熊ノ木２１７番地３マインドハイムソフィアＩＩＩ１０３号室,00128474,11,214,3440004,,,,,,,2022-11-14,1,,,,,ユービートレーディング,0
382,2030001151077,新規,0,2022-11-14,2022-11-14,株式会社Ａ‐ｌｉｆｅ２１,,株式会社,埼玉県,さいたま市大宮区,宮町４丁目１２３番地大栄ツインビルＳ館３Ｆ,,11,103,3300802,,,,,,,2022-11-14,1,,,,,エーライフトゥエンティーワン,0
393,2040001125856,新規,0,2022-11-14,2022-11-14,ＮＡＶＩ株式会社,,株式会社,千葉県,八千代市,勝田台１丁目２５番２号平和荘東棟５号室,,12,221,2760023,,,,,,,2022-11-14,1,,,,,ナヴィ,0
398,2040003021277,新規,0,2022-11-14,2022-11-14,合同会社ラムダ,,合同会社,千葉県,柏市,高南台３丁目１３番地１８サンビレッジ沼南７－２０１号,,12,217,2770942,,,,,,,2022-11-14,1,,,,,ラムダ,0
403,2050001051960,新規,0,2022-11-14,2022-11-14,株式会社こもれびパートナーズ,,株式会社,茨城県,つくば市,観音台１丁目１１番地３０,,08,220,3050856,,,,,,,2022-11-14,1,,,,,コモレビパートナーズ,0
408,2070001039830,新規,0,2022-11-14,2022-11-14,株式会社ＴＨＡＮＡ,,株式会社,群馬県,伊勢崎市,富塚町２６４番地１３,,10,204,3720833,,,,,,,2022-11-14,1,,,,,タナ,0
412,2080001025292,新規,0,2022-11-14,2022-11-14,ベルセル株式会社,,株式会社,静岡県,榛原郡吉田町,川尻１３３７番地の１,,22,424,4210302,,,,,,,2022-11-14,1,,,,,ベルセル,0
416,2080401026155,新規,0,2022-11-14,2022-11-14,株式会社ＴＤＣ,,株式会社,静岡県,磐田市,向笠新屋７４０番地５８,,22,211,4380012,,,,,,,2022-11-14,1,,,,,ティーディーシー,0
417,2090005007526,新規,0,2022-11-14,2022-11-14,一般社団法人山梨県空手道連盟,,その他の設立登記法人,山梨県,西八代郡市川三郷町,下大鳥居５８７番地４,,19,346,4093605,,,,,,,2022-11-14,1,,,,,ヤマナシケンカラテドウレンメイ,0
432,2120001250233,新規,0,2022-11-14,2022-11-14,株式会社Ｉ．Ｓ,,株式会社,大阪府,大阪市北区,野崎町７番１３－１４０１号,,27,127,5300055,,,,,,,2022-11-14,1,,,,,アイエス,0
433,2120001250258,新規,0,2022-11-14,2022-11-14,ＹＡＭＡＴＯ　ＨＯＬＤＩＮＧＳ株式会社,,株式会社,大阪府,大阪市浪速区,桜川２丁目１番９－８０７号,,27,111,5560022,,,,,,,2022-11-14,1,,,,,ヤマトホールディングス,0
434,2120001250349,新規,0,2022-11-14,2022-11-14,東乾株式会社,,株式会社,大阪府,大阪市東住吉区,今林１丁目２番６８号,,27,121,5460001,,,,,,,2022-11-14,1,,,,,トウカン,0
443,2130001073071,新規,0,2022-11-14,2022-11-14,明月株式会社,,株式会社,京都府,宇治市,宇治妙楽１－１宇治橋ビル３階,,26,204,6110021,,,,,,,2022-11-14,1,,,,,メイゲツ,0
445,2130003008307,新規,0,2022-11-14,2022-11-14,合同会社Ｓｔｙｌｅ　Ｐｌｕｓ　Ｏｎｅ,,合同会社,京都府,城陽市,平川指月１０４番地の５,,26,207,6100101,,,,,,,2022-11-14,1,,,,,スタイルプラスワン,0
446,2130003008315,新規,0,2022-11-14,2022-11-14,合同会社オクムラ,,合同会社,京都府,京都市中京区,丸太町通室町東入常真横町１８７番地３Ｆ,,26,104,6040867,,,,,,,2022-11-14,1,,,,,オクムラ,0
458,2140001128072,新規,0,2022-11-14,2022-11-14,黒川郷入ル株式会社,,株式会社,兵庫県,川西市,黒川字中島３４１番地１,,28,217,6660101,,,,,,,2022-11-14,1,,,,,クロカワゴウイル,0
459,2140001128080,新規,0,2022-11-14,2022-11-14,株式会社オールウィン土地建物,,株式会社,兵庫県,高砂市,曽根町２４７１番地の８,,28,216,6760082,,,,,,,2022-11-14,1,,,,,オールウィントチタテモノ,0
467,2180001153835,新規,0,2022-11-14,2022-11-14,株式会社山田総合設備,,株式会社,愛知県,名古屋市天白区,池見２丁目９番地,,23,116,4680067,,,,,,,2022-11-14,1,,,,,ヤマダソウゴウセツビ,0
470,2180002093972,新規,0,2022-11-14,2022-11-14,有限会社サン工業,,有限会社,愛知県,尾張旭市,東山町１丁目１番地の２,,23,226,4880825,,,,,,,2022-11-14,1,,,,,サンコウギョウ,0
473,2180301036822,新規,0,2022-11-14,2022-11-14,株式会社石川マネジメント,,株式会社,愛知県,刈谷市,築地町１丁目３４番地１４,,23,210,4480011,,,,,,,2022-11-14,1,,,,,イシカワマネジメント,0
474,2190001029935,新規,0,2022-11-14,2022-11-14,株式会社ＷｅｓｔｅｒｎＭｏｕｔｈ,,株式会社,三重県,名張市,梅が丘北３番町３６番地,,24,208,5180748,,,,,,,2022-11-14,1,,,,,ウエスタンマウス,0
499,2260001037410,新規,0,2022-11-14,2022-11-14,株式会社山祥,,株式会社,岡山県,岡山市北区,春日町７番地４号,,33,101,7000905,,,,,,,2022-11-14,1,,,,,ヤマショウ,0
500,2280001008822,新規,0,2022-11-14,2022-11-14,株式会社藤花,,株式会社,島根県,安来市,島田１０７７,,32,206,6920000,,,,,,,2022-11-14,1,,,,,トウカ,0
513,2290801029050,新規,0,2022-11-14,2022-11-14,株式会社ＨＩＧＨ　ＢＵＩＬＤ,,株式会社,福岡県,北九州市八幡西区,楠橋西３丁目１５番３号,,40,109,8071145,,,,,,,2022-11-14,1,,,,,ハイビルド,0
519,2340001025175,新規,0,2022-11-14,2022-11-14,株式会社Ｌｕｎｅ,,株式会社,鹿児島県,鹿児島市,西田２丁目４番２２号サンクレール内木２０１号,,46,201,8900046,,,,,,,2022-11-14,1,,,,,,0
520,2340003003963,新規,0,2022-11-14,2022-11-14,合同会社リッキーズ,,合同会社,鹿児島県,鹿児島市,小松原１丁目６２番８号,,46,201,8910114,,,,,,,2022-11-14,1,,,,,リッキーズ,0
525,2360003012450,新規,0,2022-11-14,2022-11-14,合同会社南ぬ島バイオガス発電所,,合同会社,沖縄県,石垣市,字新川４１４番地１信用ビル２階,,47,207,9070024,,,,,,,2022-11-14,1,,,,,パイヌシマバイオガスハツデンショ,0
527,2370001049262,新規,0,2022-11-14,2022-11-14,株式会社Ｒａｇｇａ　Ｌｉｆｅ,,株式会社,宮城県,仙台市青葉区,立町４番１２－７０１号,,04,101,9800822,,,,,,,2022-11-14,1,,,,,ラガライフ,0
528,2380001033224,新規,0,2022-11-14,2022-11-14,株式会社ヴィライナワシロ,,株式会社,福島県,耶麻郡猪苗代町,字葉山７１０５番地,,07,408,9693102,,,,,,,2022-11-14,1,,,,,ヴィライナワシロ,0
529,2380001033257,新規,0,2022-11-14,2022-11-14,株式会社Ａｓａｎｕｍａ,,株式会社,福島県,郡山市,小原田２丁目２８番２０号,,07,203,9638835,,,,,,,2022-11-14,1,,,,,アサヌマ,0
532,2380003005320,新規,0,2022-11-14,2022-11-14,合同会社ＣＲＥＶＩＡ,,合同会社,福島県,いわき市,平下片寄字志多田４８番地,,07,204,9708012,,,,,,,2022-11-14,1,,,,,クレビア,0
545,2430001087850,新規,0,2022-11-14,2022-11-14,株式会社ｃｏｃｏｎｅ,,株式会社,北海道,札幌市中央区,南十一条西１７丁目２番８号サイレンス旭ヶ丘１ＦＡ,,01,101,0640811,,,,,,,2022-11-14,1,,,,,ココネ,0
546,2430003014448,新規,0,2022-11-14,2022-11-14,合同会社ＬＲＡａｓｓｏｃｉａｔｉｏｎ,,合同会社,北海道,伊達市,北黄金町５７番地５,,01,233,0590272,,,,,,,2022-11-14,1,,,,,エルアールエーアソシエーション,0
550,2470003002283,新規,0,2022-11-14,2022-11-14,えんで合同会社,,合同会社,香川県,高松市,サンポート２番１号高松シンボルタワー　タワー棟４・５階情報通信交流館内,,37,201,7600019,,,,,,,2022-11-14,1,,,,,エンデ,0
558,2700150112885,新規,0,2022-11-14,2022-11-14,ＢＤ　ＢＲＯ　ＣＯ．，ＬＴＤ,,外国会社等,,,,,,,,１１Ｆ．，ＮＯ．１１８，ＳＥＣ．５，ＮＡＮＪＩＮＧ　Ｅ．ＲＤ．，ＳＯＮＧＳＨＡＮ　ＤＩＳＴ．，ＴＡＩＰＥＩ,,,,,,2022-11-14,1,,,,,ビーデイーブロカンパニーリミテツド,0
565,3010001230575,新規,0,2022-11-14,2022-11-14,ビクランドテクノロジー株式会社,,株式会社,東京都,千代田区,一番町１０番８号,,13,101,1020082,,,,,,,2022-11-14,1,,,,,,0
567,3010003039008,新規,0,2022-11-14,2022-11-14,Ｏｍｉ・Ｏｍｉ合同会社,,合同会社,東京都,中央区,新川１丁目２９番１１号東映堂ビル４・５Ｆ,,13,102,1040033,,,,,,,2022-11-14,1,,,,,オミオミ,0
568,3010005035780,新規,0,2022-11-14,2022-11-14,東京レジ３３一般社団法人,,その他の設立登記法人,東京都,千代田区,丸の内３丁目１番１号東京共同会計事務所内,,13,101,1000005,,,,,,,2022-11-14,1,,,,,トウキョウレジサーティスリー,0
569,3010005035789,新規,0,2022-11-14,2022-11-14,ＲＢソーラーミレーホールディングス一般社団法人,,その他の設立登記法人,東京都,中央区,八丁堀４丁目２番１０号ＡＯＪ税理士法人内,,13,102,1040032,,,,,,,2022-11-14,1,,,,,アールビーソーラーミレーホールディングス,0
579,3010401170818,新規,0,2022-11-14,2022-11-14,ＲＤマネジメント株式会社,,株式会社,東京都,港区,南青山２丁目２番１５号ウィン青山９４２,,13,103,1070062,,,,,,,2022-11-14,1,,,,,アールディマネジメント,0
580,3010401170850,新規,0,2022-11-14,2022-11-14,Ｌｏｒｅｎｉａ　Ｊａｐａｎ株式会社,,株式会社,東京都,港区,南青山４丁目１７番１３号１０８,,13,103,1070062,,,,,,,2022-11-14,1,,,,,ロレニアジャパン,0
583,3010501049631,新規,0,2022-11-14,2022-11-14,株式会社Ｃａｌｍａ,,株式会社,東京都,台東区,浅草橋４丁目６番４－１２０２号ライオンズフォーシア秋葉原イースト,,13,106,1110053,,,,,,,2022-11-14,1,,,,,カルマ,0
606,3011001150706,新規,0,2022-11-14,2022-11-14,フォーティテュードジャパン株式会社,,株式会社,東京都,渋谷区,円山町５番５号Ｎａｖｉ渋谷Ｖ３階,,13,113,1500044,,,,,,,2022-11-14,1,,,,,フォーティテュードジャパン,0
609,3011005009816,新規,0,2022-11-14,2022-11-14,社会保険労務士法人いい人事,,その他の設立登記法人,東京都,渋谷区,代々木１丁目４番８－６０４号,,13,113,1510053,,,,,,,2022-11-14,1,,,,,イイジンジ,0
610,3011005009824,新規,0,2022-11-14,2022-11-14,一般社団法人ｅ‐Ｄｏｎｕｔｓ研究会,,その他の設立登記法人,東京都,渋谷区,恵比寿南１丁目２０－６第２１荒井ビル４Ｆ,,13,113,1500022,,,,,,,2022-11-14,1,,,,,イードーナツケンキュウカイ,0
619,3011101100825,新規,0,2022-11-14,2022-11-14,ＣＬＲ株式会社,,株式会社,東京都,新宿区,大久保１丁目１１番２号エコロ新宿第５ビル９Ｆ,,13,104,1690072,,,,,,,2022-11-14,1,,,,,シーエルアール,0
623,3011401024690,新規,0,2022-11-14,2022-11-14,株式会社Ｐｉｎｇｔｏｎｅ,,株式会社,東京都,板橋区,大山東町２４番１０号Ｈａｕｓ板橋大山４Ｆ,,13,119,1730014,,,,,,,2022-11-14,1,,,,,ピングトーン,0
637,3013301049925,新規,0,2022-11-14,2022-11-14,東京グループホーム事業株式会社,,株式会社,東京都,豊島区,上池袋３丁目１６番１５－６０１号,,13,116,1700012,,,,,,,2022-11-14,1,,,,,トウキョウグループホームジギョウ,0
648,3020003022730,新規,0,2022-11-14,2022-11-14,Ｌｕｍｉｅｒｅ合同会社,,合同会社,神奈川県,川崎市中原区,中丸子１２２８－３ハーモニーレジデンス武蔵小杉♯００２１１７号室,,14,133,2110012,,,,,,,2022-11-14,1,,,,,,0
651,3021003012374,新規,0,2022-11-14,2022-11-14,合同会社想,,合同会社,神奈川県,茅ヶ崎市,浜竹１丁目１１番２８号,,14,207,2530021,,,,,,,2022-11-14,1,,,,,ソウ,0
652,3021003012382,新規,0,2022-11-14,2022-11-14,Ａ．Ｒａｕｆ　ｉｎｔｅｒｎａｔｉｏｎａｌ合同会社,,合同会社,神奈川県,相模原市中央区,青葉３丁目３２番３号,,14,152,2520224,,,,,,,2022-11-14,1,,,,,エーラウフインターナショナル,0
662,3030001151002,新規,0,2022-11-14,2022-11-14,株式会社琉彩工業,,株式会社,埼玉県,加須市,南篠崎８９６番地３,,11,210,3470017,,,,,,,2022-11-14,1,,,,,リュウサイコウギョウ,0
663,3030001151035,新規,0,2022-11-14,2022-11-14,株式会社アークライズ,,株式会社,埼玉県,川越市,砂新田５丁目１５番地２５,,11,201,3501137,,,,,,,2022-11-14,1,,,,,アークライズ,0
664,3030001151043,新規,0,2022-11-14,2022-11-14,貝越株式会社,,株式会社,埼玉県,草加市,氷川町２１０４番地１７ＶＩＰルーム棟４階４０２号室,,11,221,3400034,,,,,,,2022-11-14,1,,,,,カイゴシ,0
665,3030001151051,新規,0,2022-11-14,2022-11-14,株式会社トータス・プランニング,,株式会社,埼玉県,春日部市,緑町１丁目６番５－１号,,11,214,3440063,,,,,,,2022-11-14,1,,,,,トータスプランニング,0
666,3030001151068,新規,0,2022-11-14,2022-11-14,森興産株式会社,,株式会社,埼玉県,和光市,新倉２丁目１２番１－２０６号　日神パレステージ和光,,11,229,3510115,,,,,,,2022-11-14,1,,,,,モリコウサン,0
667,3030001151076,新規,0,2022-11-14,2022-11-14,株式会社新誠開発,,株式会社,埼玉県,新座市,菅沢２丁目１９１９番１４号,,11,230,3520017,,,,,,,2022-11-14,1,,,,,シンセイカイハツ,0
674,3040001125855,新規,0,2022-11-14,2022-11-14,株式会社リブート,,株式会社,千葉県,船橋市,西船４丁目２６－９富士ビル２階,,12,204,2730031,,,,,,,2022-11-14,1,,,,,リブート,0
675,3040003021276,新規,0,2022-11-14,2022-11-14,ＫＯＢＥ　ＴＲＡＤＩＮＧ合同会社,,合同会社,千葉県,大網白里市,細草３２８番地６－Ｂ,,12,239,2993211,,,,,,,2022-11-14,1,,,,,コウベトレーディング,0
682,3050001051935,新規,0,2022-11-14,2022-11-14,未来ビルテック株式会社,,株式会社,茨城県,水戸市,田野町１２２番地の７,,08,201,3100901,,,,,,,2022-11-14,1,,,,,ミライビルテック,0
683,3060003004295,新規,0,2022-11-14,2022-11-14,ＭＡＬＨＩ　ＴＲＡＤＩＮＧ合同会社,,合同会社,栃木県,小山市,大字喜沢６６７番地４アンビション喜沢１号館１階１０１号室,,09,208,3230014,,,,,,,2022-11-14,1,,,,,マルヒトレーディング,0
696,3090002015761,新規,0,2022-11-14,2022-11-14,有限会社エス・シー,,有限会社,山梨県,甲府市,徳行１丁目６番３６号,,19,201,4000047,,,,,,,2022-11-14,1,,,,,エスシー,0
697,3090003002197,新規,0,2022-11-14,2022-11-14,コネクトアブレス合同会社,,合同会社,山梨県,甲府市,東光寺２丁目１６番１４号,,19,201,4000807,,,,,,,2022-11-14,1,,,,,コネクトアブレス,0
717,3120001250190,新規,0,2022-11-14,2022-11-14,Ｃ＆Ｚ商事株式会社,,株式会社,大阪府,大阪市中央区,島之内２丁目５番５－５０６号,,27,128,5420082,,,,,,,2022-11-14,1,,,,,シーアンドゼットショウジ,0
718,3120001250249,新規,0,2022-11-14,2022-11-14,楽楽株式会社,,株式会社,大阪府,大阪市中央区,松屋町９番２０号ローレルステート松屋町１３０６Ｂ,,27,128,5420067,,,,,,,2022-11-14,1,,,,,ラクラク,0
719,3120001250307,新規,0,2022-11-14,2022-11-14,株式会社プロキスタ大阪,,株式会社,大阪府,大阪市中央区,南船場３丁目１番６号１０３号室,,27,128,5420081,,,,,,,2022-11-14,1,,,,,プロキスタオオサカ,0
720,3120001250331,新規,0,2022-11-14,2022-11-14,杰城株式会社,,株式会社,大阪府,大阪市浪速区,恵美須東１丁目５－１５－２０５号室,,27,111,5560002,,,,,,,2022-11-14,1,,,,,ジーチェン,0
733,3130001072989,新規,0,2022-11-14,2022-11-14,株式会社リンク・ユニティ,,株式会社,京都府,京都市北区,上賀茂藤ノ木町１３番地２,,26,101,6038077,,,,,,,2022-11-14,1,,,,,リンクユニティ,0
734,3130001073046,新規,0,2022-11-14,2022-11-14,株式会社Ｗｏｒｌｄ　Ｔｏｍａｔｏ,,株式会社,京都府,京都市下京区,朱雀宝蔵町４４番地協栄ビル２階京都朱雀スタジオ,,26,106,6008846,,,,,,,2022-11-14,1,,,,,ワールドトマト,0
735,3130001073070,新規,0,2022-11-14,2022-11-14,株式会社壱信建設,,株式会社,京都府,亀岡市,篠町篠下中筋６０番５,,26,206,6210826,,,,,,,2022-11-14,1,,,,,イッシンケンセツ,0
736,3130001073087,新規,0,2022-11-14,2022-11-14,株式会社セライト,,株式会社,京都府,京都市伏見区,向島中島町３４番地,,26,109,6128113,,,,,,,2022-11-14,1,,,,,セライト,0
737,3130003008306,新規,0,2022-11-14,2022-11-14,合同会社さとこ農園,,合同会社,京都府,福知山市,大江町金屋３０４番地,,26,201,6200303,,,,,,,2022-11-14,1,,,,,サトコノウエン,0
742,3140001127998,新規,0,2022-11-14,2022-11-14,株式会社兵庫インフラマネジメント,,株式会社,兵庫県,西脇市,和田町８５５番地の５,,28,213,6770052,,,,,,,2022-11-14,1,,,,,ヒョウゴインフラマネジメント,0
747,3140003018312,新規,0,2022-11-14,2022-11-14,合同会社さみだれ,,合同会社,兵庫県,姫路市,東雲町４丁目２番地２ノースセレナ１０２号,,28,201,6700046,,,,,,,2022-11-14,1,,,,,サミダレ,0
748,3140003018361,新規,0,2022-11-14,2022-11-14,ＩＢＣコンサルティング合同会社,,合同会社,兵庫県,宝塚市,仁川北２丁目１３番４６－４０３号,,28,214,6650061,,,,,,,2022-11-14,1,,,,,アイビーシーコンサルティング,0
750,3160001024649,新規,0,2022-11-14,2022-11-14,株式会社流域デザイン,,株式会社,滋賀県,大津市,雄琴３丁目７番１１号,,25,201,5200101,,,,,,,2022-11-14,1,,,,,リュウイキデザイン,0
751,3170001017379,新規,0,2022-11-14,2022-11-14,ＫＭＳＤ株式会社,,株式会社,和歌山県,和歌山市,北新５丁目７８新栄ビル１階,,30,201,6408002,,,,,,,2022-11-14,1,,,,,ケイエムエスディ,0
758,3180001153768,新規,0,2022-11-14,2022-11-14,株式会社ＭＳＳ,,株式会社,愛知県,名古屋市中区,丸の内３丁目１７－２０,,23,106,4600002,,,,,,,2022-11-14,1,,,,,エムエスエス,0
759,3180001153859,新規,0,2022-11-14,2022-11-14,株式会社イーストウィング,,株式会社,愛知県,長久手市,岩作西島５９番地,,23,238,4801103,,,,,,,2022-11-14,1,,,,,イーストウィング,0
764,3180301036821,新規,0,2022-11-14,2022-11-14,株式会社ｆｒｅｅｗｈｅｅｌｉｎｇ,,株式会社,愛知県,豊橋市,下地町字神田１１８番地１,,23,201,4400084,,,,,,,2022-11-14,1,,,,,フリーウィーリング,0
773,3230001019591,新規,0,2022-11-14,2022-11-14,エムイーテック株式会社,,株式会社,富山県,富山市,鍋田２０番１９号,,16,201,9300831,,,,,,,2022-11-14,1,,,,,エムイーテック,0
782,3260001003782,新規,0,2022-11-14,2022-11-14,善隣ホンダ販売株式会社,,株式会社,岡山県,岡山市南区,新保６７９番地の２５,,33,104,7000945,,,,,,,2022-11-14,1,,,,,ゼンリンホンダハンバイ,0
797,3290803004257,新規,0,2022-11-14,2022-11-14,倉太５５合同会社,,合同会社,福岡県,北九州市小倉北区,篠崎１丁目８番９－３０６号,,40,106,8030861,,,,,,,2022-11-14,1,,,,,クラフトゴーゴー,0
811,3360001031195,新規,0,2022-11-14,2022-11-14,株式会社てぃだカンパニー,,株式会社,沖縄県,浦添市,仲間１丁目１７番１２号,,47,208,9012103,,,,,,,2022-11-14,1,,,,,ティダカンパニー,0
813,3360005006730,新規,0,2022-11-14,2022-11-14,一般社団法人おきなわ多胎ネット,,その他の設立登記法人,沖縄県,浦添市,勢理客２丁目９番８－１０１号ｌａ・ｋｕｌｅａ,,47,208,9012122,,,,,,,2022-11-14,1,,,,,オキナワタタイネット,0
818,3370001049261,新規,0,2022-11-14,2022-11-14,株式会社ラシードモーター,,株式会社,宮城県,刈田郡蔵王町,大字平沢字東長伏内２５番地１５,,04,301,9890831,,,,,,,2022-11-14,1,,,,,ラシードモーター,0
824,3380001033264,新規,0,2022-11-14,2022-11-14,株式会社西村燃料,,株式会社,福島県,いわき市,小名浜字吹松３番地の７,,07,204,9718101,,,,,,,2022-11-14,1,,,,,ニシムラネンリョウ,0
830,3430001087858,新規,0,2022-11-14,2022-11-14,株式会社Ｒｉｎｎ,,株式会社,北海道,札幌市中央区,南七条西１丁目２３番地１－３０５号,,01,101,0640807,,,,,,,2022-11-14,1,,,,,リン,0
849,4010003039080,新規,0,2022-11-14,2022-11-14,合同会社ｈｉｓａｋａｍｏ,,合同会社,東京都,文京区,大塚３丁目２３番４号７Ｆ,,13,105,1120012,,,,,,,2022-11-14,1,,,,,ヒサカモ,0
850,4010003039089,新規,0,2022-11-14,2022-11-14,合同会社カーペディエム,,合同会社,東京都,中央区,日本橋堀留町２丁目４番１４－１２０１号,,13,102,1030012,,,,,,,2022-11-14,1,,,,,カーペディエム,0
854,4010005035788,新規,0,2022-11-14,2022-11-14,ＲＢソーラーピサロホールディングス一般社団法人,,その他の設立登記法人,東京都,中央区,八丁堀４丁目２番１０号ＡＯＪ税理士法人内,,13,102,1040032,,,,,,,2022-11-14,1,,,,,アールビーソーラーピサロホールディングス,0
878,4010903007780,新規,0,2022-11-14,2022-11-14,合同会社ＪＹ　Ｃｏｍｐａｎｙ,,合同会社,東京都,世田谷区,千歳台２丁目２７番３号,,13,112,1570071,,,,,,,2022-11-14,1,,,,,ジェイワイカンパニー,0
888,4011005009815,新規,0,2022-11-14,2022-11-14,一般社団法人Ｃｉｒｃｌｅ　ｏｆ　Ａｒｔｉｓｔｓ　ＨＡ,,その他の設立登記法人,東京都,渋谷区,神宮前６丁目２９番４号原宿ｋｏｍｉｙａビル６階,,13,113,1500001,,,,,,,2022-11-14,1,,,,,サークルオブアーティストエイチエー,0
890,4011101100824,新規,0,2022-11-14,2022-11-14,株式会社ＳＩＤＥ　ＡＦＦＥＣＴ,,株式会社,東京都,新宿区,西落合２丁目１０番１２号,,13,104,1610031,,,,,,,2022-11-14,1,,,,,サイドアフェクト,0
899,4011403003824,新規,0,2022-11-14,2022-11-14,エリーサトレーディング合同会社,,合同会社,東京都,板橋区,高島平７丁目３０番１４号,,13,119,1750082,,,,,,,2022-11-14,1,,,,,エリーサトレーディング,0
903,4011701025784,新規,0,2022-11-14,2022-11-14,株式会社木村ピーシージー,,株式会社,東京都,江戸川区,南小岩３丁目２５番９号,,13,123,1330056,,,,,,,2022-11-14,1,,,,,キムラピーシージー,0
907,4011803005379,新規,0,2022-11-14,2022-11-14,Ｊ．Ｇ合同会社,,合同会社,東京都,足立区,新田３丁目３６―２１―７０２,,13,121,1230865,,,,,,,2022-11-14,1,,,,,ジェイドットジー,0
915,4013305003407,新規,0,2022-11-14,2022-11-14,一般社団法人啓慧心理カウンセリング協会,,その他の設立登記法人,東京都,豊島区,南大塚１丁目５７－３宝森ビル１０１号室,,13,116,1700005,,,,,,,2022-11-14,1,,,,,ケイエシンリカウンセリングキョウカイ,0
936,4021003012373,新規,0,2022-11-14,2022-11-14,合同会社ミケ,,合同会社,神奈川県,茅ヶ崎市,香川４丁目２－５４,,14,207,2530082,,,,,,,2022-11-14,1,,,,,ミケ,0
945,4030001151050,新規,0,2022-11-14,2022-11-14,株式会社Ｍｅｒｃｕｒｙ,,株式会社,埼玉県,戸田市,笹目１丁目１５番地１,,11,224,3350034,,,,,,,2022-11-14,1,,,,,マーキュリー,0
946,4030001151059,新規,0,2022-11-14,2022-11-14,Ｎ＆Ｓグローバルパートナーズ株式会社,,株式会社,埼玉県,川口市,北原台２丁目１３番３０号,,11,203,3330815,,,,,,,2022-11-14,1,,,,,エヌアンドエスグローバルパートナーズ,0
947,4030001151067,新規,0,2022-11-14,2022-11-14,株式会社トミー,,株式会社,埼玉県,志木市,本町５丁目１７番２－９１２号,,11,228,3530004,,,,,,,2022-11-14,1,,,,,トミー,0
950,4030003020567,新規,0,2022-11-14,2022-11-14,合同会社ＦＯＣＵＳ,,合同会社,埼玉県,八潮市,大字鶴ケ曽根７７４－１０,,11,234,3400802,,,,,,,2022-11-14,1,,,,,フォーカス,0
951,4030003020575,新規,0,2022-11-14,2022-11-14,合同会社ｅ．Ｓｔｙｌｅ,,合同会社,埼玉県,狭山市,大字水野６０６番地の２２,,11,215,3501317,,,,,,,2022-11-14,1,,,,,イースタイル,0
959,4040001125854,新規,0,2022-11-14,2022-11-14,株式会社Ｈ＆Ｌ,,株式会社,千葉県,柏市,柏１３１３番地１０コーポ鎌谷２０２号,,12,217,2770005,,,,,,,2022-11-14,1,,,,,エイチアンドエル,0
960,4040001125862,新規,0,2022-11-14,2022-11-14,株式会社ＳＬ．ＪＰＶＮ,,株式会社,千葉県,四街道市,栗山１０５４－１６３,,12,228,2840027,,,,,,,2022-11-14,1,,,,,エスエルジェイピーブイエヌ,0
967,4040003021259,新規,0,2022-11-14,2022-11-14,合同会社ＨＵ,,合同会社,千葉県,千葉市中央区,矢作町９９１番地１７４,,12,101,2600851,,,,,,,2022-11-14,1,,,,,エイチユー,0
968,4040003021267,新規,0,2022-11-14,2022-11-14,ＳｔｅｐＯｎｅ合同会社,,合同会社,千葉県,市川市,東大和田１丁目１４番８号グラース３０５号室,,12,203,2720026,,,,,,,2022-11-14,1,,,,,ステップワン,0
969,4040005021802,新規,0,2022-11-14,2022-11-14,一般社団法人ケーナインスケートボーディング協会,,その他の設立登記法人,千葉県,習志野市,東習志野３丁目１－２３勝音ビル１Ｆ,,12,216,2750001,,,,,,,2022-11-14,1,,,,,ケーナインスケートボーディングキョウカイ,0
975,4070003004707,新規,0,2022-11-14,2022-11-14,ほしの里合同会社,,合同会社,群馬県,館林市,緑町２丁目２３番１号,,10,207,3740025,,,,,,,2022-11-14,1,,,,,ホシノサト,0
980,4080003002899,新規,0,2022-11-14,2022-11-14,Ｍ’ｚ　Ｆａｃｔｏｒｙ合同会社,,合同会社,静岡県,焼津市,三右衛門新田４６７番地,,22,212,4250046,,,,,,,2022-11-14,1,,,,,エムズファクトリー,0
987,4110003004917,新規,0,2022-11-14,2022-11-14,Ｌａｕｎｃｈ　Ｆａｒｍ合同会社,,合同会社,新潟県,新潟市東区,大形本町３丁目２番１８号ガーデンシティハウスＤ２０５号,,15,102,9500813,,,,,,,2022-11-14,1,,,,,ローンチファーム,0
993,4120001250272,新規,0,2022-11-14,2022-11-14,株式会社ＨＧＭｗｏｒｋｓ,,株式会社,大阪府,大阪市北区,堂山町８番１２号１Ｆ,,27,127,5300027,,,,,,,2022-11-14,1,,,,,エイチジーエムワークス,0
994,4120001250314,新規,0,2022-11-14,2022-11-14,許氏株式会社,,株式会社,大阪府,大阪市港区,港晴４丁目１４番５号５Ｆ,,27,107,5520023,,,,,,,2022-11-14,1,,,,,キョシ,0
995,4120001250322,新規,0,2022-11-14,2022-11-14,大阪エネゼ株式会社,,株式会社,大阪府,大阪市淀川区,宮原２丁目１２番１４－６１８号,,27,123,5320003,,,,,,,2022-11-14,1,,,,,オオサカエネゼ,0
1001,4120101066528,新規,0,2022-11-14,2022-11-14,株式会社ＣｒｏｓｓＣａｒｓ,,株式会社,大阪府,堺市美原区,平尾２８２番地,,27,147,5870022,,,,,,,2022-11-14,1,,,,,クロスカーズ,0
1011,4130001073053,新規,0,2022-11-14,2022-11-14,株式会社京,,株式会社,京都府,京都市中京区,東洞院通六角下る御射山町２６０番地ロイヤルプラザビル３Ｄ,,26,104,6048147,,,,,,,2022-11-14,1,,,,,キョウ,0
1012,4130001073061,新規,0,2022-11-14,2022-11-14,株式会社幸和,,株式会社,京都府,久世郡久御山町,佐古外屋敷３１９番地１,,26,322,6130031,,,,,,,2022-11-14,1,,,,,コウワ,0
1014,4130003008305,新規,0,2022-11-14,2022-11-14,合同会社アンパサンド,,合同会社,京都府,京都市下京区,朱雀宝蔵町４４番地協栄ビル２階京都朱雀スタジオ,,26,106,6008846,,,,,,,2022-11-14,1,,,,,アンパサンド,0
1015,4130003008313,新規,0,2022-11-14,2022-11-14,合同会社Ｌａｕｇｈｔｅｒ,,合同会社,京都府,宇治市,開町４８－２３,,26,204,6110026,,,,,,,2022-11-14,1,,,,,ラフター,0
1040,4180003024462,新規,0,2022-11-14,2022-11-14,合同会社ダイハチソアシャイン,,合同会社,愛知県,半田市,有楽町６丁目２１７番地の２,,23,205,4750837,,,,,,,2022-11-14,1,,,,,ダイハチソアシャイン,0
1041,4180005019997,新規,0,2022-11-14,2022-11-14,税理士法人恵方会計,,その他の設立登記法人,愛知県,名古屋市昭和区,恵方町１丁目１２番地,,23,107,4660037,,,,,,,2022-11-14,1,,,,,エホウカイケイ,0
1043,4180301036829,新規,0,2022-11-14,2022-11-14,株式会社ユタケン,,株式会社,愛知県,岡崎市,大門４丁目１１番地４Ｄｅａｍｅｒ大門３０２,,23,202,4442135,,,,,,,2022-11-14,1,,,,,ユタケン,0
1044,4190001029933,新規,0,2022-11-14,2022-11-14,株式会社庭勢,,株式会社,三重県,松阪市,嬉野一志町６５５番地,,24,204,5152305,,,,,,,2022-11-14,1,,,,,ニワセイ,0
1048,4200003005740,新規,0,2022-11-14,2022-11-14,合同会社Ｓｕｎ　Ｓｅａ　Ｅｌｅｖｅｎ,,合同会社,岐阜県,各務原市,蘇原沢上町４丁目２番地７,,21,213,5040827,,,,,,,2022-11-14,1,,,,,サンシーイレブン,0
1052,4230001019590,新規,0,2022-11-14,2022-11-14,株式会社凛那,,株式会社,富山県,富山市,大島１丁目２番地,,16,201,9398025,,,,,,,2022-11-14,1,,,,,リンナ,0
1053,4230005009266,新規,0,2022-11-14,2022-11-14,ＮＰＯ法人みつわ,,その他の設立登記法人,富山県,富山市,千成町２８番１３号,,16,201,9300815,,,,,,,2022-11-14,1,,,,,ミツワ,0
1063,4240001060651,新規,0,2022-11-14,2022-11-14,株式会社ロッキーエイト,,株式会社,広島県,広島市安芸区,中野東２丁目４番３７号,,34,107,7390323,,,,,,,2022-11-14,1,,,,,ロッキーエイト,0
1069,4250001019845,新規,0,2022-11-14,2022-11-14,株式会社ＺＥＲＯ,,株式会社,山口県,下松市,瑞穂町３丁目６番１９号,,35,207,7440075,,,,,,,2022-11-14,1,,,,,ゼロ,0
1070,4250003003178,新規,0,2022-11-14,2022-11-14,合同会社西岡火薬店,,合同会社,山口県,周南市,大字須々万本郷５９２番地の２,,35,215,7450122,,,,,,,2022-11-14,1,,,,,ニシオカカヤクテン,0
1072,4260001037409,新規,0,2022-11-14,2022-11-14,株式会社大竹,,株式会社,岡山県,岡山市北区,清輝橋３丁目８番１３号朝日プラザ岡山サウスフロント２１５号室,,33,101,7000861,,,,,,,2022-11-14,1,,,,,オオタケ,0
1074,4260003004084,新規,0,2022-11-14,2022-11-14,合同会社Ｃｏｔｕ,,合同会社,岡山県,岡山市北区,牟佐２３０－１,,33,101,7012141,,,,,,,2022-11-14,1,,,,,コツ,0
1082,4290801029057,新規,0,2022-11-14,2022-11-14,株式会社ホリカワホールディングス,,株式会社,福岡県,北九州市戸畑区,牧山海岸２番８号,,40,105,8040077,,,,,,,2022-11-14,1,,,,,ホリカワホールディングス,0
1086,4330001030298,新規,0,2022-11-14,2022-11-14,株式会社エルドリック,,株式会社,熊本県,熊本市中央区,国府３丁目８番７６号エスポワールＩ－１０１号,,43,101,8620949,,,,,,,2022-11-14,1,,,,,エルドリック,0
1087,4330001030307,新規,0,2022-11-14,2022-11-14,大迎株式会社,,株式会社,熊本県,熊本市中央区,神水２丁目２番２０号Ｍビル４階,,43,101,8620954,,,,,,,2022-11-14,1,,,,,ダイン,0
1089,4330003009588,新規,0,2022-11-14,2022-11-14,合同会社ＭＴＲ,,合同会社,熊本県,熊本市東区,沼山津３丁目１０番１００号,,43,102,8612102,,,,,,,2022-11-14,1,,,,,エムティーアール,0
1091,4340001025173,新規,0,2022-11-14,2022-11-14,株式会社オーリックリタワーク,,株式会社,鹿児島県,鹿児島市,西別府町２９４１番地２６,,46,201,8900033,,,,,,,2022-11-14,1,,,,,オーリックリタワーク,0
1103,4360003012457,新規,0,2022-11-14,2022-11-14,合同会社アトリエ美Ｌａｌａ,,合同会社,沖縄県,うるま市,字田場１９１３番地８,,47,213,9042213,,,,,,,2022-11-14,1,,,,,アトリエチュララ,0
1106,4370001049260,新規,0,2022-11-14,2022-11-14,株式会社ナナビー,,株式会社,宮城県,仙台市泉区,泉中央４丁目１１番７－９０１号,,04,105,9813133,,,,,,,2022-11-14,1,,,,,ナナビー,0
1111,4380003005319,新規,0,2022-11-14,2022-11-14,合同会社もんも,,合同会社,福島県,伊達郡国見町,大字山崎字小林４番地２１,,07,303,9691771,,,,,,,2022-11-14,1,,,,,,0
1117,4430001087849,新規,0,2022-11-14,2022-11-14,株式会社フードカムイ,,株式会社,北海道,札幌市東区,北五条東１０丁目１６番地４ザ・グランアルト札幌苗穂ステーションタワー１６１１号,,01,103,0650005,,,,,,,2022-11-14,1,,,,,フードカムイ,0
1121,4430003014446,新規,0,2022-11-14,2022-11-14,合同会社ＴＹＭ,,合同会社,北海道,札幌市手稲区,富丘一条６丁目７番３号,,01,109,0060011,,,,,,,2022-11-14,1,,,,,ティーワイエム,0
1122,4430003014454,新規,0,2022-11-14,2022-11-14,合同会社Ａｒｔ　Ｋｉｔ　Ｃｉｒｃｕｓ,,合同会社,北海道,石狩市,花川北三条６丁目１１０番地,,01,235,0613213,,,,,,,2022-11-14,1,,,,,アートキットサーカス,0
1132,4500001024596,新規,0,2022-11-14,2022-11-14,株式会社一進水産,,株式会社,愛媛県,宇和島市,津島町須下７１１番地２,,38,203,7983332,,,,,,,2022-11-14,1,,,,,イッシンスイサン,0
1135,4700150112875,新規,0,2022-11-14,2022-11-14,Ｃｏａｔｅｓ　Ｓｉｇｎｃｏ　Ｐｔｙ　Ｌｉｍｉｔｅｄ,,外国会社等,,,,,,,,３６　Ｄｏｏｄｙ　Ｓｔｒｅｅｔ　Ａｌｅｘａｎｄｒｉａ　ＮＳＷ　２０１５　Ａｕｓｔｒａｌｉａ,,,,,,2022-11-14,1,,,,,コーツサインコピーテイーワイリミテツド,0
1143,5010001230714,新規,0,2022-11-14,2022-11-14,ａｎｄ．ｓｃｅｎｅ株式会社,,株式会社,東京都,文京区,小石川２丁目１１番４号,,13,105,1120002,,,,,,,2022-11-14,1,,,,,アンドドットシーン,0
1144,5010001230730,新規,0,2022-11-14,2022-11-14,株式会社イディアスピティ,,株式会社,東京都,千代田区,隼町２番１２－６０６号,,13,101,1020092,,,,,,,2022-11-14,1,,,,,イディアスピティ,0
1146,5010003039088,新規,0,2022-11-14,2022-11-14,アシスト合同会社,,合同会社,東京都,中央区,銀座１丁目１２番４号Ｎ＆ＥＢＬＤ．６Ｆ,,13,102,1040061,,,,,,,2022-11-14,1,,,,,アシスト,0
1149,5010005035779,新規,0,2022-11-14,2022-11-14,特定非営利活動法人育てる芝生‐イクシバ・プロジェクト,,その他の設立登記法人,東京都,中央区,銀座１丁目２２番１１号２階,,13,102,1040061,,,,,,,2022-11-14,1,,,,,ソダテルシバフイクシバプロジェクト,0
1150,5010005035787,新規,0,2022-11-14,2022-11-14,ＲＢソーラードガホールディングス一般社団法人,,その他の設立登記法人,東京都,中央区,八丁堀４丁目２番１０号ＡＯＪ税理士法人内,,13,102,1040032,,,,,,,2022-11-14,1,,,,,アールビーソーラードガホールディングス,0
1159,5010401170733,新規,0,2022-11-14,2022-11-14,株式会社みなとスポーツマネジメント,,株式会社,東京都,港区,六本木３丁目３番１６号,,13,103,1060032,,,,,,,2022-11-14,1,,,,,ミナトスポーツマネジメント,0
1160,5010401170816,新規,0,2022-11-14,2022-11-14,株式会社ティ・アイ・アイ,,株式会社,東京都,港区,赤坂８丁目６番３３－３０１号,,13,103,1070052,,,,,,,2022-11-14,1,,,,,ティアイアイ,0
1166,5010603009804,新規,0,2022-11-14,2022-11-14,Ｓｍａｒｔ　Ｂｅａｕｔｙ合同会社,,合同会社,東京都,江東区,富岡１丁目２４番２号ＣＩＴＹＣＲＥＡＴＩＯＮ門前仲町２階,,13,108,1350047,,,,,,,2022-11-14,1,,,,,スマートビューティー,0
1176,5011001150621,新規,0,2022-11-14,2022-11-14,株式会社Ｐｉｎｇｙ,,株式会社,東京都,渋谷区,富ヶ谷２丁目５－１０,,13,113,1510063,,,,,,,2022-11-14,1,,,,,ピンギー,0
1177,5011001150811,新規,0,2022-11-14,2022-11-14,株式会社ＣＨＥＥＲｓ,,株式会社,東京都,渋谷区,円山町５番５号Ｎａｖｉ渋谷Ｖ３階,,13,113,1500044,,,,,,,2022-11-14,1,,,,,チアーズ,0
1178,5011001150919,新規,0,2022-11-14,2022-11-14,株式会社Ｓｐｒｉｎｇｓ,,株式会社,東京都,渋谷区,円山町１５番４号近藤ビル６Ｆ,,13,113,1500044,,,,,,,2022-11-14,1,,,,,スプリングス,0
1179,5011003015681,新規,0,2022-11-14,2022-11-14,ｓｉｒｉｓ合同会社,,合同会社,東京都,渋谷区,代々木４丁目４０番１－４０１号,,13,113,1510053,,,,,,,2022-11-14,1,,,,,サイリス,0
1180,5011005009814,新規,0,2022-11-14,2022-11-14,一般財団法人静岡イノベーション奨学事業団,,その他の設立登記法人,東京都,渋谷区,渋谷３丁目１０番１３号,,13,113,1500002,,,,,,,2022-11-14,1,,,,,シズオカイノベーションショウガクジギョウダン,0
1186,5011301028245,新規,0,2022-11-14,2022-11-14,株式会社ベスティ,,株式会社,東京都,杉並区,高円寺南２丁目１０番２１号第９シュヴェルニー３０１,,13,115,1660003,,,,,,,2022-11-14,1,,,,,ベスティ,0
1188,5011403003823,新規,0,2022-11-14,2022-11-14,合同会社ＴＲ　ｗｏｒｋｓ,,合同会社,東京都,板橋区,中台３丁目２７番サンシティＡ棟７０４,,13,119,1740064,,,,,,,2022-11-14,1,,,,,ティーアールワークス,0
1193,5012405004801,新規,0,2022-11-14,2022-11-14,一般財団法人こどもたちの財団,,その他の設立登記法人,東京都,武蔵野市,吉祥寺南町２丁目２番５－６２４,,13,203,1800003,,,,,,,2022-11-14,1,,,,,コドモタチノザイダン,0
1213,5021001077467,新規,0,2022-11-14,2022-11-14,ベイサード株式会社,,株式会社,神奈川県,相模原市南区,大野台１丁目９番４１号,,14,153,2520331,,,,,,,2022-11-14,1,,,,,ベイサード,0
1214,5021003012323,新規,0,2022-11-14,2022-11-14,合同会社Ｐｅｒｃｈｅ,,合同会社,神奈川県,相模原市南区,大野台２丁目２１番１３号,,14,153,2520331,,,,,,,2022-11-14,1,,,,,ペルシュ,0
1215,5021003012380,新規,0,2022-11-14,2022-11-14,合同会社ＳｉｔｅＵ,,合同会社,神奈川県,厚木市,幸町五丁目６番地,,14,212,2430012,,,,,,,2022-11-14,1,,,,,サイトユー,0
1220,5030001150968,新規,0,2022-11-14,2022-11-14,株式会社おだ福,,株式会社,埼玉県,和光市,新倉２丁目１９番７０－３０６号,,11,229,3510115,,,,,,,2022-11-14,1,,,,,オダフク,0
1221,5030001151058,新規,0,2022-11-14,2022-11-14,株式会社Ｓ．Ａ．Ｃ,,株式会社,埼玉県,狭山市,富士見１丁目３番３９号,,11,215,3501306,,,,,,,2022-11-14,1,,,,,エスエーシー,0
1222,5030001151074,新規,0,2022-11-14,2022-11-14,株式会社新聖流通,,株式会社,埼玉県,桶川市,大字川田谷６４２９番地の１,,11,231,3630027,,,,,,,2022-11-14,1,,,,,シンセイリュウツウ,0
1225,5030003020558,新規,0,2022-11-14,2022-11-14,合同会社ＦＵＫＵＭＥＮ,,合同会社,埼玉県,東松山市,あずま町１丁目１７番地１４,,11,212,3550048,,,,,,,2022-11-14,1,,,,,フクメン,0
1226,5030003020574,新規,0,2022-11-14,2022-11-14,合同会社Ｕｒａｎｕｓ,,合同会社,埼玉県,久喜市,南栗橋１０丁目１７番地２２,,11,232,3491117,,,,,,,2022-11-14,1,,,,,ウラヌス,0
1238,5040003021258,新規,0,2022-11-14,2022-11-14,合同会社大和プロパティ,,合同会社,千葉県,千葉市美浜区,稲毛海岸３丁目３番４棟２０１号,,12,106,2610005,,,,,,,2022-11-14,1,,,,,ダイワプロパティ,0
1239,5040003021266,新規,0,2022-11-14,2022-11-14,合同会社芳田屋,,合同会社,千葉県,船橋市,飯山満町２丁目６２７番地４,,12,204,2740822,,,,,,,2022-11-14,1,,,,,ヨシダヤ,0
1250,5090003002195,新規,0,2022-11-14,2022-11-14,合同会社アスランアトラス,,合同会社,山梨県,甲州市,塩山上於曽１８７２番地４塩山駅前ハイツ２０５号,,19,213,4040042,,,,,,,2022-11-14,1,,,,,,0
1252,5100001035880,新規,0,2022-11-14,2022-11-14,株式会社Ｃｏ．Ａｒｃｈｉｔｅｃｔ,,株式会社,長野県,北安曇郡白馬村,大字神城２５５９２番地５,,20,485,3999211,,,,,,,2022-11-14,1,,,,,シーオーアーキテクト,0
1256,5110003004916,新規,0,2022-11-14,2022-11-14,オーダーメイト合同会社,,合同会社,新潟県,新潟市西区,新中浜６丁目２番地１８,,15,107,9502163,,,,,,,2022-11-14,1,,,,,オーダーメイト,0
1270,5120001250172,新規,0,2022-11-14,2022-11-14,株式会社ピーエスライン,,株式会社,大阪府,交野市,星田８丁目２番２号,,27,230,5760016,,,,,,,2022-11-14,1,,,,,ピーエスライン,0
1271,5120001250271,新規,0,2022-11-14,2022-11-14,株式会社Ｗｈｉｐ,,株式会社,大阪府,大阪市住之江区,北島２丁目８番９号エムテック北島２０８号室,,27,125,5590014,,,,,,,2022-11-14,1,,,,,ウィップ,0
1272,5120001250288,新規,0,2022-11-14,2022-11-14,株式会社ＷＡＶＥ,,株式会社,大阪府,寝屋川市,香里新町２２番６号,,27,215,5720085,,,,,,,2022-11-14,1,,,,,ウェイブ,0
1273,5120001250313,新規,0,2022-11-14,2022-11-14,和正株式会社,,株式会社,大阪府,大阪市西成区,鶴見橋１丁目６番１９号塩谷マンション３０５号,,27,122,5570031,,,,,,,2022-11-14,1,,,,,ワセイ,0
1274,5120001250321,新規,0,2022-11-14,2022-11-14,株式会社若水,,株式会社,大阪府,大阪市中央区,島之内２丁目１０番３号,,27,128,5420082,,,,,,,2022-11-14,1,,,,,ワカミズ,0
1277,5120003022875,新規,0,2022-11-14,2022-11-14,合同会社コーチ・コンパス,,合同会社,大阪府,大阪市住之江区,浜口西３丁目６番１０号ＣＡＳＡ住之江３０１,,27,125,5590006,,,,,,,2022-11-14,1,,,,,コーチコンパス,0
1279,5120101066527,新規,0,2022-11-14,2022-11-14,株式会社関西ホリデー,,株式会社,大阪府,羽曳野市,向野３丁目８４番地１,,27,222,5830883,,,,,,,2022-11-14,1,,,,,カンサイホリデー,0
1290,5130001073044,新規,0,2022-11-14,2022-11-14,ＭａｎｄＹ株式会社,,株式会社,京都府,京都市伏見区,小栗栖森本町２０番地１８１,,26,109,6011462,,,,,,,2022-11-14,1,,,,,マンディー,0
1291,5130001073052,新規,0,2022-11-14,2022-11-14,株式会社ＡＫＩコーポレーション,,株式会社,京都府,京都市山科区,西野山欠ノ上町３５番地１６,,26,110,6078302,,,,,,,2022-11-14,1,,,,,アキコーポレーション,0
1292,5130001073060,新規,0,2022-11-14,2022-11-14,株式会社Ｄ＆Ｈ　ＦＯＯＤＳ,,株式会社,京都府,京都市下京区,玉津島町２９４番地,,26,106,6008427,,,,,,,2022-11-14,1,,,,,ディーアンドエイチフーズ,0
1293,5130001073102,新規,0,2022-11-14,2022-11-14,ランダムウォーク株式会社,,株式会社,京都府,京都市伏見区,横大路菅本２番地５０,,26,109,6128251,,,,,,,2022-11-14,1,,,,,ランダムウォーク,0
1296,5130003008304,新規,0,2022-11-14,2022-11-14,合同会社ＶＯＮＴＥＮ,,合同会社,京都府,舞鶴市,字北吸１０３９－１３赤れんがパーク４号棟２階,,26,202,6250080,,,,,,,2022-11-14,1,,,,,ヴォンテン,0
1297,5130003008312,新規,0,2022-11-14,2022-11-14,ｂｅｔｔｅｒ‐ｌｉｆｅ合同会社,,合同会社,京都府,京都市山科区,大宅桟敷２番地２７メゾンルイ３０３,,26,110,6078194,,,,,,,2022-11-14,1,,,,,ベターライフ,0
1310,5140003018343,新規,0,2022-11-14,2022-11-14,合同会社リバーサイド,,合同会社,兵庫県,明石市,大久保町大久保町９４７－７３,,28,203,6740067,,,,,,,2022-11-14,1,,,,,リバーサイド,0
1322,5180001153790,新規,0,2022-11-14,2022-11-14,株式会社ＳＡ．ＧＲＯＷＴＨ,,株式会社,愛知県,弥富市,東末広９丁目５１番地,,23,235,4980063,,,,,,,2022-11-14,1,,,,,エスエーグロウス,0
1327,5180305009409,新規,0,2022-11-14,2022-11-14,一般社団法人医療者教育ｉデザインラボ,,その他の設立登記法人,愛知県,豊橋市,草間町字平南３８番地１,,23,201,4418141,,,,,,,2022-11-14,1,,,,,イリョウシャキョウイクアイデザインラボ,0
1336,5220005008714,新規,0,2022-11-14,2022-11-14,一般社団法人サトヤマカイギ,,その他の設立登記法人,石川県,白山市,白峰ロ１３１与平,,17,210,9202501,,,,,,,2022-11-14,1,,,,,サトヤマカイギ,0
1343,5240001060650,新規,0,2022-11-14,2022-11-14,株式会社ほけんのソムリエ,,株式会社,広島県,広島市西区,井口台３丁目３５番２－１０５号,,34,104,7330844,,,,,,,2022-11-14,1,,,,,ホケンノソムリエ,0
1344,5250001019844,新規,0,2022-11-14,2022-11-14,昌栄電工株式会社,,株式会社,山口県,宇部市,大字小串６５９番地１２,,35,202,7550067,,,,,,,2022-11-14,1,,,,,ショウエイデンコウ,0
1348,5280003001665,新規,0,2022-11-14,2022-11-14,金太郎ファクトリー合同会社,,合同会社,島根県,雲南市,掛合町掛合１０９５番地３,,32,209,6902701,,,,,,,2022-11-14,1,,,,,キンタロウファクトリー,0
1355,5290005018847,新規,0,2022-11-14,2022-11-14,一般社団法人公式モンテッソーリ教育協会,,その他の設立登記法人,福岡県,福岡市東区,香椎照葉３丁目２番３Ｅ棟１３０２,,40,131,8130017,,,,,,,2022-11-14,1,,,,,コウシキモンテッソーリキョウイクキョウカイ,0
1364,5340003003944,新規,0,2022-11-14,2022-11-14,合同会社ＳＷＯＯＳＨ,,合同会社,鹿児島県,鹿児島市,中央町１９番地４０ザ・パークハウス鹿児島中央タワー２１０９号,,46,201,8900053,,,,,,,2022-11-14,1,,,,,スウッシュ,0
1368,5360001031185,新規,0,2022-11-14,2022-11-14,株式会社ビレッジジャパン,,株式会社,沖縄県,石垣市,字大川２８７番地２,,47,207,9070022,,,,,,,2022-11-14,1,,,,,ビレッジジャパン,0
1371,5360003012423,新規,0,2022-11-14,2022-11-14,合同会社ツゥクールＺ,,合同会社,沖縄県,国頭郡東村,字平良８６３番地１,,47,303,9051204,,,,,,,2022-11-14,1,,,,,ツゥクールゼ,0
1375,5370001049251,新規,0,2022-11-14,2022-11-14,スマートプランニング東北株式会社,,株式会社,宮城県,仙台市青葉区,上杉４丁目３番２５号,,04,101,9800011,,,,,,,2022-11-14,1,,,,,スマートプランニングトウホク,0
1379,5380001033262,新規,0,2022-11-14,2022-11-14,ふくしまの株式会社,,株式会社,福島県,郡山市,中町５番１７号,,07,203,9638004,,,,,,,2022-11-14,1,,,,,フクシマノ,0
1388,5430005014600,新規,0,2022-11-14,2022-11-14,一般社団法人野生生物生息域外保全センター,,その他の設立登記法人,北海道,恵庭市,恵み野西５丁目１０番地４,,01,231,0611373,,,,,,,2022-11-14,1,,,,,ヤセイセイブツセイソクイキガイホゼンセンター,0
1396,5480001011919,新規,0,2022-11-14,2022-11-14,株式会社あおば総合アプレイザル,,株式会社,徳島県,徳島市,安宅２丁目９番８号,,36,201,7700863,,,,,,,2022-11-14,1,,,,,アオバソウゴウアプレイザル,0
1397,5480003001892,新規,0,2022-11-14,2022-11-14,合同会社渦巻き庵,,合同会社,徳島県,鳴門市,鳴門町土佐泊浦字土佐泊１１７番,,36,202,7720053,,,,,,,2022-11-14,1,,,,,ウズマキアン,0
1401,5700150112882,新規,0,2022-11-14,2022-11-14,Ｓｈｏｋｚ　Ｈｏｌｄｉｎｇ　Ｌｉｍｉｔｅｄ,,外国会社等,,,,,,,,ＲＭ　２６０３Ａ　２６／Ｆ　ＴＯＷＥＲ　１，ＬＩＰＰＯ　ＣＴＲ　８９　ＱＵＥＥＮＳＷＡＹ，ＡＤＭＩＲＡＬＴＹ．,,,,,,2022-11-14,1,,,,,シヨツクスホールデイングリミテツド,0
1410,6010001230804,新規,0,2022-11-14,2022-11-14,株式会社Ｋ・Ｔ,,株式会社,東京都,文京区,小日向４丁目７番１４号,,13,105,1120006,,,,,,,2022-11-14,1,,,,,ケイティー,0
1415,6010005035786,新規,0,2022-11-14,2022-11-14,ＲＢソーラーモネホールディングス一般社団法人,,その他の設立登記法人,東京都,中央区,八丁堀４丁目２番１０号ＡＯＪ税理士法人内,,13,102,1040032,,,,,,,2022-11-14,1,,,,,アールビーソーラーモネホールディングス,0
1416,6010105002190,新規,0,2022-11-14,2022-11-14,特定非営利活動法人フリースクール＆ワークショップ一河の会,,その他の設立登記法人,東京都,八王子市,下恩方町１０６９－１０,,13,201,1920154,,,,,,,2022-11-14,1,,,,,フリースクールアンドワークショップイチガノカイ,0
1434,6010403028879,新規,0,2022-11-14,2022-11-14,合同会社ＵｐＷａｖｅ,,合同会社,東京都,港区,芝５丁目１５番４号,,13,103,1080014,,,,,,,2022-11-14,1,,,,,アップウェイブ,0
1436,6010405021394,新規,0,2022-11-14,2022-11-14,一般社団法人たびゴト,,その他の設立登記法人,東京都,港区,三田２丁目１５番地４５号慶應義塾大学三田キャンパス研究室棟６３８Ａ,,13,103,1080073,,,,,,,2022-11-14,1,,,,,タビゴト,0
1437,6010405021584,新規,0,2022-11-14,2022-11-14,難波黒門特定目的会社,,その他の設立登記法人,東京都,港区,元赤坂１丁目１番８号株式会社赤坂国際会計内,,13,103,1070051,,,,,,,2022-11-14,1,,,,,ナンバクロモン,0
1442,6010601062143,新規,0,2022-11-14,2022-11-14,株式会社ファイナルコード,,株式会社,東京都,墨田区,向島２丁目１３番４号,,13,107,1310033,,,,,,,2022-11-14,1,,,,,ファイナルコード,0
1443,6010601062151,新規,0,2022-11-14,2022-11-14,思建科学技術株式会社,,株式会社,東京都,墨田区,両国２丁目１７番１７号両国ダイヤハイツ２０２－Ｅ,,13,107,1300026,,,,,,,2022-11-14,1,,,,,シケンカガクギジュツ,0
1462,6011001150918,新規,0,2022-11-14,2022-11-14,株式会社パープルファクトリー,,株式会社,東京都,渋谷区,千駄ヶ谷３丁目１３番２２号,,13,113,1510051,,,,,,,2022-11-14,1,,,,,パープルファクトリー,0
1463,6011001150934,新規,0,2022-11-14,2022-11-14,株式会社エスアンドケー,,株式会社,東京都,目黒区,三田２丁目１５番１０号,,13,110,1530062,,,,,,,2022-11-14,1,,,,,エスアンドケー,0
1465,6011101100797,新規,0,2022-11-14,2022-11-14,高島ホーム株式会社,00128399,株式会社,東京都,新宿区,西新宿７丁目７番２６号,,13,104,1600023,,,,,,,2022-11-14,1,,,,,,0
1468,6011201024228,新規,0,2022-11-14,2022-11-14,ＡＬＵＸＴＥＮ株式会社,,株式会社,東京都,中野区,中央４丁目２６番１０－４０６号,,13,114,1640011,,,,,,,2022-11-14,1,,,,,アルックステン,0
1469,6011301028244,新規,0,2022-11-14,2022-11-14,ＮＡＯ株式会社,,株式会社,東京都,杉並区,高井戸西３丁目７番５号シェソワ２０２,,13,115,1680071,,,,,,,2022-11-14,1,,,,,エヌエーオー,0
1472,6011401024688,新規,0,2022-11-14,2022-11-14,飛鳥国際貿易株式会社,,株式会社,東京都,板橋区,高島平１丁目５番５号リーマ西台クレスト３０５室,,13,119,1750082,,,,,,,2022-11-14,1,,,,,アスカコクサイボウエキ,0
1473,6011501028655,新規,0,2022-11-14,2022-11-14,与声聚来株式会社,,株式会社,東京都,荒川区,町屋３丁目２４番２号面川ビル二階２０１号室,,13,118,1160001,,,,,,,2022-11-14,1,,,,,ヨセイジュライ,0
1474,6011501028663,新規,0,2022-11-14,2022-11-14,龜田建設株式会社,,株式会社,東京都,荒川区,西尾久４丁目１７番７号,,13,118,1160011,,,,,,,2022-11-14,1,,,,,カメダケンセツ,0
1490,6020001148954,新規,0,2022-11-14,2022-11-14,株式会社Ｑｕａｌｉｔｙ　１ｓｔ,,株式会社,神奈川県,川崎市川崎区,江川１丁目５番１－６０３号アーバンライフＩＩＩ,00128464,14,131,2100823,,,,,,,2022-11-14,1,,,,,,0
1494,6021001077466,新規,0,2022-11-14,2022-11-14,株式会社Ｔ‐ｗｏｏｄ,,株式会社,神奈川県,足柄上郡開成町,吉田島１１６８番地３,,14,366,2580021,,,,,,,2022-11-14,1,,,,,ティーウッド,0
1496,6021003012371,新規,0,2022-11-14,2022-11-14,合同会社ＦＰＫ,,合同会社,神奈川県,平塚市,南原１丁目２７－６－１,,14,203,2540065,,,,,,,2022-11-14,1,,,,,エフピーケー,0
1507,6030001151008,新規,0,2022-11-14,2022-11-14,株式会社Ｔ’ｓ,,株式会社,埼玉県,八潮市,大字木曽根１５２６番地６,,11,234,3400813,,,,,,,2022-11-14,1,,,,,ティーズ,0
1518,6040001125860,新規,0,2022-11-14,2022-11-14,株式会社ＡｈａＡｇｅｎｔ,,株式会社,千葉県,市川市,末広２丁目５－９末広２５９－２０Ｅ,,12,203,2720121,,,,,,,2022-11-14,1,,,,,アハエージェント,0
1520,6040003021182,新規,0,2022-11-14,2022-11-14,ＴＨインターナショナル合同会社,,合同会社,千葉県,八千代市,勝田台南１丁目１５－２０,,12,221,2760025,,,,,,,2022-11-14,1,,,,,ティーエイチインターナショナル,0
1521,6040003021265,新規,0,2022-11-14,2022-11-14,ＭＡＳＴＡＲ　ＤＥＳＩＧＮ合同会社,,合同会社,千葉県,習志野市,谷津３丁目１番４３－２１０号,,12,216,2750026,,,,,,,2022-11-14,1,,,,,マスターデザイン,0
1522,6040003021281,新規,0,2022-11-14,2022-11-14,Ｃ・Ｓ・Ｔ・Ｉ・ｏｆｆｉｃｅ合同会社,,合同会社,千葉県,千葉市若葉区,加曽利町７７１番地３,,12,104,2640017,,,,,,,2022-11-14,1,,,,,シーエスティーアイオフィス,0
1529,6050001051940,新規,0,2022-11-14,2022-11-14,株式会社ＩＳＧホールディングス,,株式会社,茨城県,ひたちなか市,柳沢２３６番地の２,,08,221,3111231,,,,,,,2022-11-14,1,,,,,アイエスジーホールディングス,0
1530,6050003007008,新規,0,2022-11-14,2022-11-14,合同会社３３０,,合同会社,茨城県,猿島郡境町,１４１７番地１,,08,546,3060433,,,,,,,2022-11-14,1,,,,,サンサンゼロ,0
1535,6070003004688,新規,0,2022-11-14,2022-11-14,Ｄｉｖｅｒｓｉｔｙ合同会社,,合同会社,群馬県,桐生市,新里町大久保５９２番地３,,10,203,3760133,,,,,,,2022-11-14,1,,,,,ダイバーシティ,0
1536,6080001025297,新規,0,2022-11-14,2022-11-14,株式会社アセット・アンド・インベストメント,,株式会社,静岡県,静岡市清水区,草薙一里山６番２０号,,22,103,4240884,,,,,,,2022-11-14,1,,,,,アセットアンドインベストメント,0
1545,6100005012941,新規,0,2022-11-14,2022-11-14,長野空手アカデミー一般社団法人,,その他の設立登記法人,長野県,小諸市,市町５丁目４番８号,,20,208,3840033,,,,,,,2022-11-14,1,,,,,ナガノカラテアカデミー,0
1561,6120001250295,新規,0,2022-11-14,2022-11-14,株式会社ＴＲＹＯＮＥ,,株式会社,大阪府,大阪市北区,中津１丁目２番２１号中津明大ビル５Ｆ,,27,127,5310071,,,,,,,2022-11-14,1,,,,,トライワン,0
1562,6120001250304,新規,0,2022-11-14,2022-11-14,株式会社ＡＭＥＩＮ,,株式会社,大阪府,大阪市中央区,谷町６丁目５番５号,,27,128,5420012,,,,,,,2022-11-14,1,,,,,アメイン,0
1567,6120101066526,新規,0,2022-11-14,2022-11-14,株式会社ＫＩＲＡＣＯＮＮＥＣＴ,,株式会社,大阪府,堺市中区,東山８２７番地プリメーラ１０１号,,27,142,5998247,,,,,,,2022-11-14,1,,,,,キラコネクト,0
1576,6130003008303,新規,0,2022-11-14,2022-11-14,合同会社ことのは,,合同会社,京都府,宇治市,六地蔵奈良６番地４ヴィラノール３０１号室,,26,204,6110001,,,,,,,2022-11-14,1,,,,,コトノハ,0
1577,6130003008311,新規,0,2022-11-14,2022-11-14,ＲＡＰＨＡＬＩＡ合同会社,,合同会社,京都府,京都市中京区,御池通東洞院東入笹屋町４３６永和御池ビル６０６号,,26,104,6048187,,,,,,,2022-11-14,1,,,,,ラファリエ,0
1584,6140001128036,新規,0,2022-11-14,2022-11-14,株式会社梶谷,,株式会社,兵庫県,西宮市,甲子園八番町５番１０号,,28,204,6638178,,,,,,,2022-11-14,1,,,,,カジタニ,0
1588,6140005026376,新規,0,2022-11-14,2022-11-14,一般社団法人姿勢Ｆｉｒｓｔ協会,,その他の設立登記法人,兵庫県,西宮市,久出ケ谷町１０番４５号,,28,204,6620077,,,,,,,2022-11-14,1,,,,,シセイファーストキョウカイ,0
1591,6170001017376,新規,0,2022-11-14,2022-11-14,Ｍｉｒａｉｓｅ株式会社,,株式会社,和歌山県,和歌山市,狐島６００番地１シマハイツ１０５号,,30,201,6408412,,,,,,,2022-11-14,1,,,,,ミライズ,0
1594,6180001153815,新規,0,2022-11-14,2022-11-14,株式会社五月雨,,株式会社,愛知県,海部郡蟹江町,宝３丁目４２４番地,,23,425,4970030,,,,,,,2022-11-14,1,,,,,サミダレ,0
1614,6240003005891,新規,0,2022-11-14,2022-11-14,合同会社みらい創生会,,合同会社,広島県,福山市,神辺町大字川南７６１番地１,,34,207,7202124,,,,,,,2022-11-14,1,,,,,ミライソウセイカイ,0
1616,6250005008784,新規,0,2022-11-14,2022-11-14,特定非営利活動法人助さん,,その他の設立登記法人,山口県,光市,浅江１丁目１５番３１号,,35,210,7430021,,,,,,,2022-11-14,1,,,,,スケサン,0
1618,6260001037407,新規,0,2022-11-14,2022-11-14,株式会社Ｌｅａｆ,,株式会社,岡山県,久米郡久米南町,下弓削２８０番地１７,,33,663,7093614,,,,,,,2022-11-14,1,,,,,リーフ,0
1620,6270005005532,新規,0,2022-11-14,2022-11-14,一般社団法人Ｙｅａｒｎｉｎｇ　ｆｏｒ　Ｙａｚｕ　Ｐｒｏｊｅｃｔ,,その他の設立登記法人,鳥取県,八頭郡八頭町,見槻中１５４番地２,,31,329,6800404,,,,,,,2022-11-14,1,,,,,ヤーニングフォーヤズプロジェクト,0
1626,6290001099535,新規,0,2022-11-14,2022-11-14,株式会社恵水,,株式会社,福岡県,福岡市中央区,警固２丁目１２番１２－２０８号,,40,133,8100023,,,,,,,2022-11-14,1,,,,,ケイスイ,0
1636,6340001025171,新規,0,2022-11-14,2022-11-14,株式会社フクワ,,株式会社,鹿児島県,鹿児島市,西陵３丁目３９番２８号,,46,201,8900032,,,,,,,2022-11-14,1,,,,,フクワ,0
1638,6370001049259,新規,0,2022-11-14,2022-11-14,株式会社シオン,,株式会社,宮城県,仙台市太白区,袋原字平淵２番地の１２,,04,104,9811102,,,,,,,2022-11-14,1,,,,,シオン,0
1646,6410001013318,新規,0,2022-11-14,2022-11-14,信和不動産株式会社,,株式会社,秋田県,大館市,幸町３番４４号,,05,204,0170847,,,,,,,2022-11-14,1,,,,,,0
1648,6430001087871,新規,0,2022-11-14,2022-11-14,株式会社サッポロライナー,,株式会社,北海道,札幌市北区,篠路四条５丁目３番２０号,,01,102,0028024,,,,,,,2022-11-14,1,,,,,サッポロライナー,0
1659,6700150112873,新規,0,2022-11-14,2022-11-14,Ｓｈｅｎ　Ｚｈｅｎ　Ｓｈｉ　Ｇｕａｎｇ　Ｄｉ　Ｓｈｕ　Ｍａ　Ｋｅ　Ｊｉ　Ｙｏｕ　Ｘｉａｎ　Ｇｏｎｇ　Ｓｉ,,外国会社等,,,,,,,,Ｘｉ　Ｘｉａｎｇ　Ｊｉｅ　Ｄａｏ　Ｇｕ　Ｓｈｕ　Ｓｈｅ　Ｑｕ　Ｘｉｎ　Ｗｕ　Ｙｕａｎ　Ｘｉｎ　Ｃｕｎ　１６　Ｈａｏ　Ｈｏｎｇ　Ｙｕ　Ｄａ　Ｓｈａ　９０１　Ｓｈｉ　Ｓｈｅｎ　Ｚｈｅｎ　Ｇｕａｎｇ　Ｄｏｎｇ,,,,,,2022-11-14,1,,,,,シエンチエンシグアンデイスウマーユウゲンコウシ,0
1660,6700150112881,新規,0,2022-11-14,2022-11-14,Ｓｈｅｎｚｈｅｎ　Ｃｅｉｎｍｅｒ　Ｔｅｃｈｎｏｌｏｇｙ　Ｃｏ．，Ｌｔｄ,,外国会社等,,,,,,,,Ｈｕｉｄｅ　Ｂｕｉｌｄｉｎｇ，Ｂｅｉｚｈａｎ　Ｃｏｍｍｕｎｉｔｙ，Ｍｉｎｚｈｉ　Ｓｔｒｅｅｔ，Ｌｏｎｇｈｕａ　Ｄｉｓｔｒｉｃｔ，Ｓｈｅｎｚｈｅｎ,,,,,,2022-11-14,1,,,,,シエンチエンセインマーテクノロジーカンパニーリミテツド,0
1673,7010003039078,新規,0,2022-11-14,2022-11-14,合同会社タルテナ,,合同会社,東京都,千代田区,外神田６丁目９－９,,13,101,1010021,,,,,,,2022-11-14,1,,,,,タルテナ,0
1689,7010403028894,新規,0,2022-11-14,2022-11-14,ケイアール銀座エムエル合同会社,,合同会社,東京都,港区,西新橋１丁目２２番５号６階,,13,103,1050003,,,,,,,2022-11-14,1,,,,,ケイアールギンザエムエル,0
1695,7010801033439,新規,0,2022-11-14,2022-11-14,Ａｃｔｏｓ株式会社,,株式会社,東京都,大田区,東六郷２丁目４番５号コープ野村東六郷２０６,,13,111,1440046,,,,,,,2022-11-14,1,,,,,アクトス,0
1703,7011001150875,新規,0,2022-11-14,2022-11-14,株式会社ＭＩＳＳＨ,,株式会社,東京都,目黒区,東山３丁目１４番２号東山共同ビル２階,,13,110,1530043,,,,,,,2022-11-14,1,,,,,ミッシュ,0
1715,7011501028662,新規,0,2022-11-14,2022-11-14,株式会社モバイルチケット,,株式会社,東京都,北区,赤羽２丁目２番２－１１０８号,,13,117,1150045,,,,,,,2022-11-14,1,,,,,モバイルチケット,0
1716,7011503005362,新規,0,2022-11-14,2022-11-14,合同会社クリニカルランゲージ,,合同会社,東京都,荒川区,東尾久１丁目１６番７号,,13,118,1160012,,,,,,,2022-11-14,1,,,,,クリニカルランゲージ,0
1720,7011801041547,新規,0,2022-11-14,2022-11-14,株式会社ＳＨＫ,,株式会社,東京都,足立区,西竹の塚１丁目１４番７号サンケイ・ロイヤルコート竹ノ塚２０５号,,13,121,1210822,,,,,,,2022-11-14,1,,,,,エスエイチケイ,0
1729,7021003012370,新規,0,2022-11-14,2022-11-14,ＫＫＹ　Ｈｏｌｄｉｎｇｓ合同会社,,合同会社,神奈川県,相模原市南区,相模大野７丁目３５番２－１４１５,,14,153,2520303,,,,,,,2022-11-14,1,,,,,ケーケーワイホールディングス,0
1736,7030001150958,新規,0,2022-11-14,2022-11-14,株式会社ＢＬＡＣＫ　ＤＩＡＭＯＮＤ,,株式会社,埼玉県,鶴ヶ島市,新町２丁目２５番地１９,,11,241,3502227,,,,,,,2022-11-14,1,,,,,ブラックダイヤモンド,0
1737,7030001151007,新規,0,2022-11-14,2022-11-14,フォーチュナ株式会社,,株式会社,埼玉県,本庄市,けや木１丁目８－６ＭＲＫけや木マンション２階２０１号室,,11,211,3670042,,,,,,,2022-11-14,1,,,,,フォーチュナ,0
1738,7030001151015,新規,0,2022-11-14,2022-11-14,株式会社小川企画,,株式会社,埼玉県,さいたま市桜区,栄和２丁目２２番８号,,11,106,3380823,,,,,,,2022-11-14,1,,,,,オガワキカク,0
1739,7030001151031,新規,0,2022-11-14,2022-11-14,ＤＯＮＡＬＩ株式会社,,株式会社,埼玉県,富士見市,西みずほ台３丁目１１番１０号シャルルみずほ２０４号室,,11,235,3540018,,,,,,,2022-11-14,1,,,,,ドゥナリ,0
1740,7030001151048,新規,0,2022-11-14,2022-11-14,株式会社フィードウィル,,株式会社,埼玉県,川越市,大字的場９４４－２,,11,201,3501101,,,,,,,2022-11-14,1,,,,,フィードウィル,0
1741,7030001151056,新規,0,2022-11-14,2022-11-14,株式会社ワイファミリー,,株式会社,埼玉県,蓮田市,大字南新宿８５０番地,,11,238,3490142,,,,,,,2022-11-14,1,,,,,ワイファミリー,0
1748,7030003020523,新規,0,2022-11-14,2022-11-14,野口商事合同会社,,合同会社,埼玉県,坂戸市,西坂戸４丁目２１番３号,,11,239,3500247,,,,,,,2022-11-14,1,,,,,ノグチショウジ,0
1749,7030003020548,新規,0,2022-11-14,2022-11-14,ＧＸＥ合同会社,,合同会社,埼玉県,和光市,白子１丁目２１番３４号,,11,229,3510101,,,,,,,2022-11-14,1,,,,,ジーエックスイー,0
1750,7030003020556,新規,0,2022-11-14,2022-11-14,ＢＡＲＢＥＲ　ＯＴＡ合同会社,,合同会社,埼玉県,三郷市,中央１丁目２２番地４アーバンパレス三郷中央３０３号,,11,237,3410038,,,,,,,2022-11-14,1,,,,,バーバーオオタ,0
1751,7030003020564,新規,0,2022-11-14,2022-11-14,金耀国際合同会社,,合同会社,埼玉県,東松山市,大字新郷３６６－１,,11,212,3550071,,,,,,,2022-11-14,1,,,,,キンヨウコクサイ,0
1756,7040001125835,新規,0,2022-11-14,2022-11-14,食安礼記株式会社,,株式会社,千葉県,千葉市稲毛区,小深町１０８番地１,,12,103,2630003,,,,,,,2022-11-14,1,,,,,ショクアンレイキ,0
1757,7040003021280,新規,0,2022-11-14,2022-11-14,合同会社塚本電装,,合同会社,千葉県,柏市,篠籠田１４８５番地４５,,12,217,2770862,,,,,,,2022-11-14,1,,,,,ツカモトデンソウ,0
1774,7080403004658,新規,0,2022-11-14,2022-11-14,合同会社Ｎ　ｆｏｒ　Ａｌｌ,,合同会社,静岡県,浜松市中区,泉２丁目４番２８号,,22,131,4338124,,,,,,,2022-11-14,1,,,,,エヌフォーオール,0
1793,7120001250294,新規,0,2022-11-14,2022-11-14,９Ａ株式会社,,株式会社,大阪府,大阪市阿倍野区,阿倍野筋４丁目８番１０号,,27,119,5450052,,,,,,,2022-11-14,1,,,,,ナインエイ,0
1794,7120001250303,新規,0,2022-11-14,2022-11-14,株式会社ＡＴＨＥＴＨ,,株式会社,大阪府,大阪市中央区,南船場４丁目１０番５号南船場ＳＯＨＯビル７０２,,27,128,5420081,,,,,,,2022-11-14,1,,,,,アザス,0
1798,7120003022799,新規,0,2022-11-14,2022-11-14,合同会社ピスタシア,,合同会社,大阪府,寝屋川市,寿町６１－８ニシリク香里ビル３０１,,27,215,5720029,,,,,,,2022-11-14,1,,,,,ピスタシア,0
1805,7120901046742,新規,0,2022-11-14,2022-11-14,株式会社渚美建,,株式会社,大阪府,高槻市,日吉台一番町５番６号,,27,207,5691022,,,,,,,2022-11-14,1,,,,,ナギサビケン,0
1815,7130001073059,新規,0,2022-11-14,2022-11-14,ＳＫＴ株式会社,,株式会社,京都府,向日市,物集女町出口１７番地の５５,,26,208,6170001,,,,,,,2022-11-14,1,,,,,エスケイティー,0
1816,7130001073067,新規,0,2022-11-14,2022-11-14,日本コントラクト株式会社,,株式会社,京都府,京都市右京区,西院乾町７０番地グランドーリア西院５Ｄ,,26,108,6150061,,,,,,,2022-11-14,1,,,,,ニホンコントラクト,0
1817,7130001073083,新規,0,2022-11-14,2022-11-14,株式会社でかいうつわ,,株式会社,京都府,京都市東山区,宮川筋四条下る二丁目宮川筋二丁目２５５番地,,26,105,6050000,,,,,,,2022-11-14,1,,,,,デカイウツワ,0
1818,7130001073100,新規,0,2022-11-14,2022-11-14,株式会社Ｍｏｔｅｌ,,株式会社,京都府,城陽市,枇杷庄西ノ口９番地の１５,,26,207,6100117,,,,,,,2022-11-14,1,,,,,モテル,0
1822,7130003008302,新規,0,2022-11-14,2022-11-14,Ａ＆ＨＦマネジメント合同会社,,合同会社,京都府,京都市左京区,田中大久保町２７番地３,,26,103,6068236,,,,,,,2022-11-14,1,,,,,エイアンドエイチエフマネジメント,0
1823,7130003008310,新規,0,2022-11-14,2022-11-14,合同会社Ｃｏｌｌｅｃｔ　Ｋｙｏｔｏ　Ｐｌｕｓ,,合同会社,京都府,京都市東山区,祇園町北側３２１番地１,,26,105,6050073,,,,,,,2022-11-14,1,,,,,コレクトキョウトプラス,0
1825,7140001128035,新規,0,2022-11-14,2022-11-14,株式会社加藤商店,,株式会社,兵庫県,豊岡市,正法寺５９６番地の１,,28,209,6680063,,,,,,,2022-11-14,1,,,,,カトウショウテン,0
1826,7140001128068,新規,0,2022-11-14,2022-11-14,株式会社繕咲興産,,株式会社,兵庫県,神戸市兵庫区,芦原通２丁目１番２７号神戸木材運輸ビル２Ｆ北１号室,,28,105,6520882,,,,,,,2022-11-14,1,,,,,ゼンショウコウサン,0
1835,7140003018358,新規,0,2022-11-14,2022-11-14,ＮＥＭＵ合同会社,,合同会社,兵庫県,尼崎市,七松町１丁目３番１－１８０６号,,28,202,6600052,,,,,,,2022-11-14,1,,,,,ネム,0
1838,7160001024653,新規,0,2022-11-14,2022-11-14,株式会社アビリティ,,株式会社,滋賀県,東近江市,八日市緑町２９番２２号２Ｆ,,25,213,5270023,,,,,,,2022-11-14,1,,,,,アビリティ,0
1845,7180001153847,新規,0,2022-11-14,2022-11-14,ＫＵＭＡ株式会社,,株式会社,愛知県,瀬戸市,東吉田町３９番地の２５,,23,204,4890806,,,,,,,2022-11-14,1,,,,,ケーユーエムエー,0
1847,7180003024476,新規,0,2022-11-14,2022-11-14,木村合同会社,,合同会社,愛知県,名古屋市中村区,中村町５丁目５０番地,,23,105,4530053,,,,,,,2022-11-14,1,,,,,キムラ,0
1851,7190001029930,新規,0,2022-11-14,2022-11-14,株式会社藤岡商事,,株式会社,三重県,松阪市,京町５１３－１三友ビル２Ｆ,,24,204,5150017,,,,,,,2022-11-14,1,,,,,フジオカショウジ,0
1852,7190005011769,新規,0,2022-11-14,2022-11-14,一般社団法人ＭＣ　ＫＥＮＴＡＵＲＯＳ,,その他の設立登記法人,三重県,四日市市,水沢町１８３番地３青龍寺山之坊,,24,202,5121105,,,,,,,2022-11-14,1,,,,,エムシーケンタウロス,0
1860,7250001019842,新規,0,2022-11-14,2022-11-14,株式会社匠建設,,株式会社,山口県,山口市,吉田２５１２番地１,,35,203,7530841,,,,,,,2022-11-14,1,,,,,タクミケンセツ,0
1878,7290003013162,新規,0,2022-11-14,2022-11-14,合同会社虹・なないろ,,合同会社,福岡県,宗像市,三郎丸４丁目９番２７号,,40,220,8114143,,,,,,,2022-11-14,1,,,,,ニジナナイロ,0
1880,7300003001900,新規,0,2022-11-14,2022-11-14,合同会社Ｒｅｖ　Ｏｖｅｒ,,合同会社,佐賀県,佐賀市,水ヶ江３丁目８番８－１号,,41,201,8400054,,,,,,,2022-11-14,1,,,,,レブオーバー,0
1890,7340001025170,新規,0,2022-11-14,2022-11-14,株式会社ファーストサツマトリア,,株式会社,鹿児島県,鹿児島市,西田３丁目８番２２号第２肝付ビル１０２,,46,201,8900046,,,,,,,2022-11-14,1,,,,,ファーストサツマトリア,0
1891,7340001025179,新規,0,2022-11-14,2022-11-14,株式会社ｕｍ,,株式会社,鹿児島県,鹿児島市,下荒田４丁目５４番３０号さかえハイツ１Ｆ,,46,201,8900056,,,,,,,2022-11-14,1,,,,,ユウエム,0
1901,7430003014451,新規,0,2022-11-14,2022-11-14,合同会社ライフ企画,,合同会社,北海道,札幌市白石区,東札幌二条５丁目３番１５号,,01,104,0030002,,,,,,,2022-11-14,1,,,,,ライフキカク,0
1904,7490005006879,新規,0,2022-11-14,2022-11-14,一般社団法人虹の花,,その他の設立登記法人,高知県,土佐清水市,下ノ加江２７８２－８,,39,209,7870242,,,,,,,2022-11-14,1,,,,,ニジノハナ,0
1906,7500001024593,新規,0,2022-11-14,2022-11-14,株式会社瀬崎組,,株式会社,愛媛県,西条市,古川甲３９４番地１９,,38,206,7930044,,,,,,,2022-11-14,1,,,,,セサキグミ,0
1909,7700150112856,新規,0,2022-11-14,2022-11-14,ＬＡＮＸＥＳＳ　Ｐｅｒｆｏｒｍａｎｃｅ　Ｍａｔｅｒｉａｌｓ　ＨＫ　Ｌｉｍｉｔｅｄ,,外国会社等,東京都,千代田区,丸の内１丁目６番５号,,13,101,1000005,中華人民共和国香港新界白石角香港科學園二期東翼尚湖樓６樓６０７室,,,,,,2022-11-14,1,,,,,ランクセスパフオーマンスマテリアルズエイチケイリミテツド,0
1910,7700150112880,新規,0,2022-11-14,2022-11-14,Ｓｈｅｎｚｈｅｎ　Ｓｈｏｋｚ　Ｃｏ．，Ｌｔｄ,,外国会社等,,,,,,,,１ｓｔ　ｔｏ　４ｔｈ　Ｆｌｏｏｒ，Ｂｕｉｌｄｉｎｇ　２６，Ｓｈａｎｃｈｅｎｇ　Ｉｎｄｕｓｔｒｉａｌ　Ｚｏｎｅ，Ｓｈｉｘｉｎ　Ｃｏｍｍｕｎｉｔｙ，Ｌａｎｇｘｉｎ　Ｃｏｍｍｕｎｉｔｙ，Ｓｈｉｙａｎ　Ｓｔｒｅｅｔ，Ｂａｏａｎ　Ｄｉｓｔｒｉｃｔ，Ｓｈｅｎｚｈｅｎ　Ｐ．Ｒ．　ｏｆ　Ｃｈｉｎａ．,,,,,,2022-11-14,1,,,,,シエンチエンシヨツクスカンパニーリミテツド,0
1917,8010001230744,新規,0,2022-11-14,2022-11-14,株式会社ボーダーレステクノロジー,,株式会社,東京都,千代田区,内神田２丁目１５番９号ＴｈｅＫａｎｄａ２８２,,13,101,1010047,,,,,,,2022-11-14,1,,,,,ボーダーレステクノロジー,0
1918,8010001230793,新規,0,2022-11-14,2022-11-14,株式会社ＬＡＸＥＬ,,株式会社,東京都,文京区,小石川１丁目４番１－４０３号,,13,105,1120002,,,,,,,2022-11-14,1,,,,,ラグゼル,0
1923,8010003039069,新規,0,2022-11-14,2022-11-14,ＰＥ　Ｉｎｖｅｓｔｍｅｎｔｓ　Ｊａｐａｎ合同会社,,合同会社,東京都,中央区,日本橋３丁目９番１号日本橋三丁目スクエア１１階,,13,102,1030027,,,,,,,2022-11-14,1,,,,,ピーイーインベストメンツジャパン,0
1925,8010005035784,新規,0,2022-11-14,2022-11-14,ＯＳＫ１特定目的会社,,その他の設立登記法人,東京都,千代田区,丸の内３丁目１番１号東京共同会計事務所内,,13,101,1000005,,,,,,,2022-11-14,1,,,,,オーエスケイワン,0
1934,8010401170722,新規,0,2022-11-14,2022-11-14,株式会社ＪＵＰｉＴＥＲ,,株式会社,東京都,港区,南青山３丁目１番３６号青山丸竹ビル６Ｆ,,13,103,1070062,,,,,,,2022-11-14,1,,,,,ジュピター,0
1935,8010401170747,新規,0,2022-11-14,2022-11-14,Ｍ‐Ｍａｋｅ株式会社,,株式会社,東京都,港区,南青山３丁目１－３６－６Ｆ,,13,103,1070062,,,,,,,2022-11-14,1,,,,,エムメイク,0
1936,8010401170771,新規,0,2022-11-14,2022-11-14,株式会社ＲＭＮ,,株式会社,東京都,港区,虎ノ門３丁目１９番１５－１１０２号,,13,103,1050001,,,,,,,2022-11-14,1,,,,,アールエムエヌ,0
1942,8010505003357,新規,0,2022-11-14,2022-11-14,やまなみ税理士法人,,その他の設立登記法人,東京都,台東区,蔵前２丁目６番４号マスダヤビル８階,,13,106,1110051,,,,,,,2022-11-14,1,,,,,ヤマナミ,0
1945,8010901051884,新規,0,2022-11-14,2022-11-14,株式会社Ａｒｔｉｓａｎ,,株式会社,東京都,世田谷区,玉川台２丁目１２番１３号リーフロック４０１,,13,112,1580096,,,,,,,2022-11-14,1,,,,,アーティザン,0
1946,8010901051934,新規,0,2022-11-14,2022-11-14,株式会社ＱＲＳ,,株式会社,東京都,世田谷区,奥沢７丁目１８番４号ポルテ自由ヶ丘１０１,,13,112,1580083,,,,,,,2022-11-14,1,,,,,キューアールエス,0
1947,8010901051967,新規,0,2022-11-14,2022-11-14,ＴＨＩＳＩＳ株式会社,,株式会社,東京都,世田谷区,三軒茶屋２丁目１１番２３号,,13,112,1540024,,,,,,,2022-11-14,1,,,,,ディスイズ,0
1950,8010903007777,新規,0,2022-11-14,2022-11-14,日本華渺コンサルディング合同会社,,合同会社,東京都,世田谷区,砧３丁目２８－１６砧プリンスマンション２０６号,,13,112,1570073,,,,,,,2022-11-14,1,,,,,,0
1956,8011001150957,新規,0,2022-11-14,2022-11-14,ファンズ・インベストメント株式会社,,株式会社,東京都,渋谷区,恵比寿西１丁目１０番１１号,,13,113,1500021,,,,,,,2022-11-14,1,,,,,ファンズインベストメント,0
1957,8011003015662,新規,0,2022-11-14,2022-11-14,ＮＡＷ合同会社,,合同会社,東京都,渋谷区,西原３丁目３６番１号アレイム代々木上原２０１,,13,113,1510066,,,,,,,2022-11-14,1,,,,,ナウ,0
1958,8011003015720,新規,0,2022-11-14,2022-11-14,合同会社ｋ‐ｍａｎａｇｅｍｅｎｔ,,合同会社,東京都,渋谷区,松濤１丁目２８番２号ワークコート渋谷松濤,,13,113,1500046,,,,,,,2022-11-14,1,,,,,ケーマネジメント,0
1964,8011101100820,新規,0,2022-11-14,2022-11-14,Ｓｉｏｒｉ株式会社,,株式会社,東京都,新宿区,上落合２丁目２３－１７アマリロ２０３,,13,104,1610034,,,,,,,2022-11-14,1,,,,,シオリ,0
1972,8011401024678,新規,0,2022-11-14,2022-11-14,株式会社金谷塗装工業,,株式会社,東京都,板橋区,赤塚新町１丁目１７番８号アネックスＢ１０３号,,13,119,1750093,,,,,,,2022-11-14,1,,,,,カナヤトソウコウギョウ,0
1973,8011401024686,新規,0,2022-11-14,2022-11-14,奥創紀元株式会社,,株式会社,東京都,板橋区,徳丸１丁目１番１８号マックステーション東武練馬２０３,,13,119,1750083,,,,,,,2022-11-14,1,,,,,オクソウキゲン,0
1976,8011701025780,新規,0,2022-11-14,2022-11-14,株式会社中代土木,,株式会社,東京都,江戸川区,上篠崎２丁目７番１１号,,13,123,1330054,,,,,,,2022-11-14,1,,,,,ナカダイドボク,0
1980,8011801041521,新規,0,2022-11-14,2022-11-14,株式会社Ｓ．Ｏ．Ｇ,,株式会社,東京都,足立区,梅田７丁目２４番５号ハイムササキ１０１,,13,121,1230851,,,,,,,2022-11-14,1,,,,,エスオージー,0
1981,8011803005375,新規,0,2022-11-14,2022-11-14,合同会社Ｅｓｐｏｉｒ,,合同会社,東京都,足立区,鹿浜８丁目２９番地１０,,13,121,1230864,,,,,,,2022-11-14,1,,,,,エスポアール,0
1997,8020001148969,新規,0,2022-11-14,2022-11-14,株式会社Ｋｏｋｕ‐Ｍｕａ,,株式会社,神奈川県,横浜市金沢区,釜利谷南４丁目１１番パークハウス３番館Ｃ棟１１６号,,14,108,2360045,,,,,,,2022-11-14,1,,,,,コクムア,0
2006,8021002019283,新規,0,2022-11-14,2022-11-14,有限会社川商ホーム,,有限会社,神奈川県,相模原市南区,相武台１丁目２５番１４号,,14,153,2520324,,,,,,,2022-11-14,1,,,,,カワショウホーム,0
2017,8030001150882,新規,0,2022-11-14,2022-11-14,株式会社Ａ‐ＥＸＰ,,株式会社,埼玉県,入間市,鍵山３丁目７番３３号３,,11,225,3580004,,,,,,,2022-11-14,1,,,,,エーエクスポ,0
2018,8030001151006,新規,0,2022-11-14,2022-11-14,株式会社あ電,,株式会社,埼玉県,上尾市,中妻１丁目９－１ベルフローラル北上尾４０３,,11,219,3620072,,,,,,,2022-11-14,1,,,,,アデン,0
2019,8030001151030,新規,0,2022-11-14,2022-11-14,株式会社Ｍ．Ｍ　ＴＲＡＤＩＮＧ,,株式会社,埼玉県,春日部市,牛島２３番地６,,11,214,3440004,,,,,,,2022-11-14,1,,,,,エムエムトレーディング,0
2020,8030001151047,新規,0,2022-11-14,2022-11-14,株式会社ＴＨＹ　ＪＡＰＡＮ,,株式会社,埼玉県,蕨市,中央１丁目２８番４号坂本マンション３０５号,,11,223,3350004,,,,,,,2022-11-14,1,,,,,ティエイチワイジャパン,0
2021,8030001151055,新規,0,2022-11-14,2022-11-14,株式会社八坂工芸,,株式会社,埼玉県,草加市,西町４８１番地２（１Ｆ）,,11,221,3400035,,,,,,,2022-11-14,1,,,,,ヤサカコウゲイ,0
2022,8030001151063,新規,0,2022-11-14,2022-11-14,釜の上果樹園株式会社,,株式会社,埼玉県,秩父市,下吉田７２００番地,,11,207,3691503,,,,,,,2022-11-14,1,,,,,カマノウエカジュエン,0
2024,8030003020563,新規,0,2022-11-14,2022-11-14,ＭＴ合同会社,,合同会社,埼玉県,狭山市,新狭山３丁目９番２０星野ビル１０３,,11,215,3501331,,,,,,,2022-11-14,1,,,,,エムティー,0
2034,8040001125834,新規,0,2022-11-14,2022-11-14,株式会社ＬＩＦＥ　ＷＡＶＥＳ,,株式会社,千葉県,千葉市花見川区,横戸町１２４６番地４,,12,102,2620001,,,,,,,2022-11-14,1,,,,,ライフウェイブス,0
2035,8040001125859,新規,0,2022-11-14,2022-11-14,株式会社大和商会,,株式会社,千葉県,松戸市,常盤平６丁目６－１,,12,207,2702261,,,,,,,2022-11-14,1,,,,,ダイワショウカイ,0
2039,8040003021230,新規,0,2022-11-14,2022-11-14,合同会社ＤＥＮＥＴＨ　ＬＡＮＫＡ　ＥＮＴＥＲＰＲＩＳＥＳ,,合同会社,千葉県,白井市,冨士５７番地１４ローゼハイツ２０１号室,,12,232,2701432,,,,,,,2022-11-14,1,,,,,デネットランカエンタープライセス,0
2040,8040003021263,新規,0,2022-11-14,2022-11-14,Ｍａｘ　ａｕｔｏ　ｃｏｒｐｏｒａｔｉｏｎ合同会社,,合同会社,千葉県,野田市,次木１７４番地１リバーサイドコーポＣ１０２,,12,208,2700228,,,,,,,2022-11-14,1,,,,,マックスオートコーポレーション,0
2041,8040003021271,新規,0,2022-11-14,2022-11-14,合同会社智憲工業,,合同会社,千葉県,印西市,別所８６番地,,12,231,2701332,,,,,,,2022-11-14,1,,,,,トモノリコウギョウ,0
2043,8040005021815,新規,0,2022-11-14,2022-11-14,革新的農業事業協同組合,,その他の設立登記法人,千葉県,富津市,長崎３０５番地４,,12,226,2991611,,,,,,,2022-11-14,1,,,,,カクシンテキノウギョウ,0
2051,8080001025295,新規,0,2022-11-14,2022-11-14,株式会社Ｓｈｅ’ｓ　ＬＥＥ,,株式会社,静岡県,静岡市葵区,羽鳥４丁目２４番６０号,,22,101,4211215,,,,,,,2022-11-14,1,,,,,シーズリー,0
2054,8080103002688,新規,0,2022-11-14,2022-11-14,シーエーグロウ合同会社,,合同会社,静岡県,三島市,長伏５５８番地３１１号室,,22,206,4110824,,,,,,,2022-11-14,1,,,,,シーエーグロウ,0
2058,8090001017853,新規,0,2022-11-14,2022-11-14,株式会社ティーアンドアイ,,株式会社,山梨県,甲府市,国玉町９７６番地２コーポヤマト２階Ｂ室,,19,201,4000815,,,,,,,2022-11-14,1,,,,,ティーアンドアイ,0
2065,8110001037114,新規,0,2022-11-14,2022-11-14,株式会社Ｕｎｉｔｅｄ　ａｄｖａｎｃｅ,,株式会社,新潟県,新潟市中央区,上近江２丁目１番９号,,15,103,9500973,,,,,,,2022-11-14,1,,,,,ユナイテッドアドヴァンス,0
2066,8110003004913,新規,0,2022-11-14,2022-11-14,合同会社ＭＡコンサルティング,,合同会社,新潟県,新潟市中央区,美咲町１丁目３２番３－１３０５号,,15,103,9500954,,,,,,,2022-11-14,1,,,,,エムエーコンサルティング,0
2073,8120001250228,新規,0,2022-11-14,2022-11-14,株式会社Ｃｏｃｏ　Ｓｕｎｆｌｏｗｅｒ,,株式会社,大阪府,大阪市中央区,道頓堀１丁目東６番６号デイグラン心斎橋Ｅａｓｔ２０３,,27,128,5420071,,,,,,,2022-11-14,1,,,,,ココサンフラワー,0
2074,8120001250277,新規,0,2022-11-14,2022-11-14,阪東株式会社,,株式会社,大阪府,大阪市西成区,岸里東２丁目２番１１号,,27,122,5570042,,,,,,,2022-11-14,1,,,,,ハントウ,0
2083,8120901046741,新規,0,2022-11-14,2022-11-14,株式会社Ｓ．Ｂ．Ｃ,,株式会社,大阪府,吹田市,千里丘北一丁目２８番ミリカテラスＩＩ街区１５０７号室,00128475,27,205,5650815,,,,,,,2022-11-14,1,,,,,エスビーシー,0
2090,8130001073017,新規,0,2022-11-14,2022-11-14,株式会社ＦＴＩ,,株式会社,京都府,京都市山科区,西野大鳥井町５５番地３２,,26,110,6078355,,,,,,,2022-11-14,1,,,,,エフティーアイ,0
2091,8130001073066,新規,0,2022-11-14,2022-11-14,株式会社ヒーローズ,,株式会社,京都府,相楽郡精華町,大字祝園小字二ノ坪９番地紺屋ビル１０１号,,26,366,6190241,,,,,,,2022-11-14,1,,,,,ヒーローズ,0
2092,8130003008301,新規,0,2022-11-14,2022-11-14,モファイン合同会社,,合同会社,京都府,京都市右京区,太秦宮ノ前町２番地,,26,108,6168183,,,,,,,2022-11-14,1,,,,,モファイン,0
2093,8130003008318,新規,0,2022-11-14,2022-11-14,合同会社ｉＨＡＶＥ,,合同会社,京都府,京都市北区,紫野花ノ坊町３８番地ＰＡＺ北大路Ｄ号室,,26,101,6038302,,,,,,,2022-11-14,1,,,,,アイハブ,0
2104,8180001153656,新規,0,2022-11-14,2022-11-14,株式会社ｈａｖｉｎｇ　ｆｕｎ,,株式会社,愛知県,大府市,桃山町５丁目７０番地,,23,223,4740026,,,,,,,2022-11-14,1,,,,,ハビングファン,0
2111,8180303005514,新規,0,2022-11-14,2022-11-14,合同会社グラッツェ運送,,合同会社,愛知県,岡崎市,大平町字天神前９番地１,,23,202,4440007,,,,,,,2022-11-14,1,,,,,グラッツェウンソウ,0
2124,8280001008817,新規,0,2022-11-14,2022-11-14,株式会社ｓａｌｏｎ　ｂｙ　Ｌ,,株式会社,島根県,浜田市,金城町下来原２３２番地１００,,32,202,6970121,,,,,,,2022-11-14,1,,,,,サロンバイエル,0
2134,8300001013129,新規,0,2022-11-14,2022-11-14,大日開発株式会社,,株式会社,佐賀県,佐賀市,水ヶ江６丁目１１番３６号,,41,201,8400054,,,,,,,2022-11-14,1,,,,,,0
2142,8330005010581,新規,0,2022-11-14,2022-11-14,やまがＢＡＳＥ事業協同組合,,その他の設立登記法人,熊本県,山鹿市,平山５３４６番地１,,43,208,8610556,,,,,,,2022-11-14,1,,,,,ヤマガベース,0
2143,8340003003966,新規,0,2022-11-14,2022-11-14,合同会社霧島フォレストリー,,合同会社,鹿児島県,霧島市,福山町福山６０５１番地２,,46,218,8994501,,,,,,,2022-11-14,1,,,,,キリシマフォレストリー,0
2145,8360001031199,新規,0,2022-11-14,2022-11-14,商工沖縄株式会社,,株式会社,沖縄県,石垣市,美崎町１番地福宝堂ビル５０３,,47,207,9070012,,,,,,,2022-11-14,1,,,,,ショウコウオキナワ,0
2146,8360003012461,新規,0,2022-11-14,2022-11-14,合同会社ＭＯＪＹＡ,,合同会社,沖縄県,宮古島市,上野字宮国１５１４番地２,,47,214,9060203,,,,,,,2022-11-14,1,,,,,モジャ,0
2151,8380005012648,新規,0,2022-11-14,2022-11-14,企業組合かどやな,,その他の設立登記法人,福島県,福島市,飯坂町字横町２０番地の５,,07,201,9600201,,,,,,,2022-11-14,1,,,,,カドヤナ,0
2153,8390003002014,新規,0,2022-11-14,2022-11-14,ＳＩＣ合同会社,,合同会社,山形県,山形市,清住町２丁目４番３５号,,06,201,9900834,,,,,,,2022-11-14,1,,,,,エスアイシー,0
2162,8460003000927,新規,0,2022-11-14,2022-11-14,合同会社エリアントス,,合同会社,北海道,釧路市,共栄大通９丁目１番１４６号共栄パレス４０６,,01,206,0850035,,,,,,,2022-11-14,1,,,,,エリアントス,0
2164,8460301005108,新規,0,2022-11-14,2022-11-14,株式会社ＡＬＰＨＡＳ,,株式会社,北海道,北見市,北進町３丁目１４番２９号,,01,208,0900052,,,,,,,2022-11-14,1,,,,,アルファス,0
2175,9010001230652,新規,0,2022-11-14,2022-11-14,ヴィクトワールレーシング株式会社,,株式会社,東京都,千代田区,神田東松下町４８番ｉｓｍ神田７階,,13,101,1010042,,,,,,,2022-11-14,1,,,,,ヴィクトワールレーシング,0
2176,9010001230776,新規,0,2022-11-14,2022-11-14,ＲＵＮＳＥＭＩ　Ｊａｐａｎ株式会社,,株式会社,東京都,千代田区,丸の内３丁目１番１号国際ビル７Ｆ,,13,101,1000005,,,,,,,2022-11-14,1,,,,,ランセミジャパン,0
2177,9010001230826,新規,0,2022-11-14,2022-11-14,株式会社ＲｅＢｌｕｅ,,株式会社,東京都,千代田区,外神田３丁目６番４号第一勧業信用組合秋葉原ビル５階,,13,101,1010021,,,,,,,2022-11-14,1,,,,,リブルー,0
2181,9010003039076,新規,0,2022-11-14,2022-11-14,Ｆｏｏｄｓ　Ｆｒｏｎｔｅｃｈ　Ｃａｐｉｔａｌ合同会社,,合同会社,東京都,中央区,日本橋兜町５番１号,,13,102,1030026,,,,,,,2022-11-14,1,,,,,フーズフロンテックキャピタル,0
2183,9010005035783,新規,0,2022-11-14,2022-11-14,東京レジ３１一般社団法人,,その他の設立登記法人,東京都,千代田区,丸の内３丁目１番１号東京共同会計事務所内,,13,101,1000005,,,,,,,2022-11-14,1,,,,,トウキョウレジサーティワン,0
2184,9010105002188,新規,0,2022-11-14,2022-11-14,一般社団法人シンカハモニー,,その他の設立登記法人,東京都,八王子市,暁町２丁目４番２２号,,13,201,1920043,,,,,,,2022-11-14,1,,,,,シンカハモニー,0
2192,9010401170663,新規,0,2022-11-14,2022-11-14,株式会社ライズストリート,,株式会社,東京都,港区,元赤坂１丁目２番７号赤坂Ｋタワー４階,,13,103,1070051,,,,,,,2022-11-14,1,,,,,ライズストリート,0
2193,9010401170738,新規,0,2022-11-14,2022-11-14,キャリアピボット株式会社,,株式会社,東京都,港区,新橋１丁目１８番２１号,,13,103,1050004,,,,,,,2022-11-14,1,,,,,キャリアピボット,0
2194,9010401170770,新規,0,2022-11-14,2022-11-14,青山ＰＪ株式会社,,株式会社,東京都,港区,南青山５丁目４番２６号,,13,103,1070062,,,,,,,2022-11-14,1,,,,,アオヤマピージェイ,0
2195,9010401170829,新規,0,2022-11-14,2022-11-14,株式会社ＧｒａｎＤｅａ,,株式会社,東京都,港区,芝４丁目５番地１５－８０３,,13,103,1080014,,,,,,,2022-11-14,1,,,,,グランデア,0
2204,9010601062140,新規,0,2022-11-14,2022-11-14,ＧＯＬＤＥＮ　ＨＯＬＩＤＡＹ株式会社,,株式会社,東京都,江東区,千石１丁目１３番１５－２０４号,,13,108,1350015,,,,,,,2022-11-14,1,,,,,ゴールデンホリデー,0
2205,9010601062149,新規,0,2022-11-14,2022-11-14,株式会社Ｍｉｘ‐ｕｎｉ　ｐｌａｎｎｉｎｇ,,株式会社,東京都,江東区,豊洲５丁目１番１３号,,13,108,1350061,,,,,,,2022-11-14,1,,,,,ミックスユニプランニング,0
2206,9010601062157,新規,0,2022-11-14,2022-11-14,株式会社ハピスタ,,株式会社,東京都,墨田区,墨田２丁目３９番４号,,13,107,1310031,,,,,,,2022-11-14,1,,,,,ハピスタ,0
2211,9010703006417,新規,0,2022-11-14,2022-11-14,パッチワークス合同会社,,合同会社,東京都,品川区,小山７丁目１５―２１プレミール洗足２０２,,13,109,1420062,,,,,,,2022-11-14,1,,,,,パッチワークス,0
2219,9011001150964,新規,0,2022-11-14,2022-11-14,株式会社エムズレストラン,,株式会社,東京都,渋谷区,代々木１丁目２５番５号ＢＩＺＳＭＡＲＴ代々木３３８,,13,113,1510053,,,,,,,2022-11-14,1,,,,,エムズレストラン,0
2229,9011101100828,新規,0,2022-11-14,2022-11-14,株式会社いえらぶクリエイターズ,,株式会社,東京都,新宿区,西新宿２丁目６番１号,,13,104,1600023,,,,,,,2022-11-14,1,,,,,イエラブクリエイターズ,0
2235,9011103012369,新規,0,2022-11-14,2022-11-14,Ａｎｄ　Ａｍｂｉｅｎｃｅ合同会社,,合同会社,東京都,新宿区,市谷台町３－４,,13,104,1620066,,,,,,,2022-11-14,1,,,,,アンドアンビエンス,0
2239,9011401024685,新規,0,2022-11-14,2022-11-14,株式会社諏鵞,,株式会社,東京都,板橋区,若木２丁目２１－３上板橋ダイカンプラザシティＩＩ３０２,00128468,13,119,1740065,,,,,,,2022-11-14,1,,,,,スガ,0
2244,9011601026358,新規,0,2022-11-14,2022-11-14,株式会社ＢＩＧＣＨＯＩ,,株式会社,東京都,練馬区,豊玉北６丁目１６番１３号,,13,120,1760012,,,,,,,2022-11-14,1,,,,,ビッグチョイ,0
2247,9012301013200,新規,0,2022-11-14,2022-11-14,株式会社コネクションループ,,株式会社,東京都,町田市,小川６丁目１０番２４号,,13,209,1940003,,,,,,,2022-11-14,1,,,,,コネクションループ,0
2265,9020001148943,新規,0,2022-11-14,2022-11-14,株式会社５Ｒｅ,,株式会社,神奈川県,横浜市西区,北幸２丁目１０番２８号,,14,103,2200004,,,,,,,2022-11-14,1,,,,,ファイブリー,0
2283,9030001150774,新規,0,2022-11-14,2022-11-14,Ｓ＆Ｋ株式会社,,株式会社,埼玉県,深谷市,武川２９０番地２０２号,,11,218,3691111,,,,,,,2022-11-14,1,,,,,エスアンドケイ,0
2284,9030001150865,新規,0,2022-11-14,2022-11-14,株式会社ＯＭＩＴ,,株式会社,埼玉県,三郷市,早稲田６丁目３０番地３０,,11,237,3410018,,,,,,,2022-11-14,1,,,,,オーエムアイティー,0
2285,9030001151005,新規,0,2022-11-14,2022-11-14,株式会社キズナノート,,株式会社,埼玉県,狭山市,中央２丁目１１番１７号,,11,215,3501308,,,,,,,2022-11-14,1,,,,,キズナノート,0
2286,9030001151054,新規,0,2022-11-14,2022-11-14,株式会社Ｋ‐ＢＲＩＧＨＴ,,株式会社,埼玉県,さいたま市見沼区,東大宮２丁目４９番地１０山根ビル２Ｆ,,11,104,3370051,,,,,,,2022-11-14,1,,,,,ケーブライト,0
2287,9030001151062,新規,0,2022-11-14,2022-11-14,株式会社フクヤス,,株式会社,埼玉県,本庄市,本庄４丁目８番２８号,,11,211,3670051,,,,,,,2022-11-14,1,,,,,フクヤス,0
2290,9030003020570,新規,0,2022-11-14,2022-11-14,Ｍｕｌｔｉ　Ｖｉｓｉｏｎ合同会社,,合同会社,埼玉県,川口市,本町１丁目６番１７号コーポエンドレス２０２号室,,11,203,3320012,,,,,,,2022-11-14,1,,,,,マルチビジョン,0
2297,9040001125841,新規,0,2022-11-14,2022-11-14,株式会社ヴィバ,,株式会社,千葉県,柏市,松葉町５丁目５番地１０棟１０３号,,12,217,2770827,,,,,,,2022-11-14,1,,,,,ヴィバ,0
2300,9040003021262,新規,0,2022-11-14,2022-11-14,合同会社カイ,,合同会社,千葉県,習志野市,谷津５丁目３０番１３号,,12,216,2750026,,,,,,,2022-11-14,1,,,,,カイ,0
2304,9050003007013,新規,0,2022-11-14,2022-11-14,合同会社ＭＨ,,合同会社,茨城県,那珂市,菅谷３４６０番地１,,08,226,3110105,,,,,,,2022-11-14,1,,,,,エムエイチ,0
2313,9070003004710,新規,0,2022-11-14,2022-11-14,合同会社ＴＨＡＮＫＳ,,合同会社,群馬県,館林市,足次町３３０番地の５,,10,207,3740073,,,,,,,2022-11-14,1,,,,,サンクス,0
2314,9080001025294,新規,0,2022-11-14,2022-11-14,株式会社エーエルエー,,株式会社,静岡県,静岡市葵区,吉野町４番７号,,22,101,4200046,,,,,,,2022-11-14,1,,,,,エーエルエー,0
2318,9080403004656,新規,0,2022-11-14,2022-11-14,合同会社メドコ,,合同会社,静岡県,湖西市,新居町新居３２８８番地の１１０,,22,221,4310302,,,,,,,2022-11-14,1,,,,,メドコ,0
2320,9110001037113,新規,0,2022-11-14,2022-11-14,株式会社Ａｙｕｄａ,,株式会社,新潟県,新潟市南区,東萱場４２３番地,,15,106,9501467,,,,,,,2022-11-14,1,,,,,アジューダ,0
2333,9120001250235,新規,0,2022-11-14,2022-11-14,株式会社ＡＲＶＯ,,株式会社,大阪府,寝屋川市,点野５丁目９番９号,,27,215,5720077,,,,,,,2022-11-14,1,,,,,アーヴォ,0
2334,9120001250292,新規,0,2022-11-14,2022-11-14,株式会社ａｂｏｖｅ,,株式会社,大阪府,枚方市,西禁野１丁目３番２８号３０１号室,,27,210,5731192,,,,,,,2022-11-14,1,,,,,アバブ,0
2335,9120001250301,新規,0,2022-11-14,2022-11-14,株式会社ＴＲＩＢＥ　ＤＥＳＩＧＮ,,株式会社,大阪府,大阪市中央区,日本橋１丁目１７番１７－４０２号,,27,128,5420073,,,,,,,2022-11-14,1,,,,,トライブデザイン,0
2336,9120001250326,新規,0,2022-11-14,2022-11-14,康智株式会社,,株式会社,大阪府,大阪市中央区,瓦屋町１丁目１４番１５号,,27,128,5420066,,,,,,,2022-11-14,1,,,,,コウチ,0
2351,9130001072991,新規,0,2022-11-14,2022-11-14,株式会社北苑其昌,,株式会社,京都府,京都市右京区,梅ケ畑奥殿町４０番地１Ｆ,,26,108,6168283,,,,,,,2022-11-14,1,,,,,ホクエンキショウ,0
2352,9130001073049,新規,0,2022-11-14,2022-11-14,株式会社ＭＩプラス,,株式会社,京都府,京都市中京区,御池通東洞院東入笹屋町４３６番地永和御池ビル６０６,,26,104,6048187,,,,,,,2022-11-14,1,,,,,エムアイプラス,0
2353,9130001073057,新規,0,2022-11-14,2022-11-14,株式会社一宇建築,,株式会社,京都府,京都市左京区,岩倉幡枝町６０１番地２８,,26,103,6060015,,,,,,,2022-11-14,1,,,,,イチウケンチク,0
2354,9130001073073,新規,0,2022-11-14,2022-11-14,ｖｉｌｌａｇｅ株式会社,,株式会社,京都府,城陽市,市辺出川原４番地の９,,26,207,6100114,,,,,,,2022-11-14,1,,,,,ビレッジ,0
2355,9130001073081,新規,0,2022-11-14,2022-11-14,株式会社泰華,,株式会社,京都府,京都市中京区,壬生東桧町２３－２,,26,104,6040000,,,,,,,2022-11-14,1,,,,,タイカ,0
2359,9130003008309,新規,0,2022-11-14,2022-11-14,合同会社ＭＩＹＡＢＩ,,合同会社,京都府,京都市北区,衣笠東開キ町１０番３２,,26,101,6038453,,,,,,,2022-11-14,1,,,,,ミヤビ,0
2360,9130005016631,新規,0,2022-11-14,2022-11-14,一般社団法人立葵,,その他の設立登記法人,京都府,京都市下京区,函谷鉾町１０１アーバンネット四条烏丸ビル６階・７階,,26,106,6008009,,,,,,,2022-11-14,1,,,,,タチアオイ,0
2364,9140001128082,新規,0,2022-11-14,2022-11-14,株式会社Ｋ　ｐｌｕｓ,,株式会社,兵庫県,明石市,朝霧台３７８３番地の１１９,,28,203,6730852,,,,,,,2022-11-14,1,,,,,ケープラス,0
2365,9140005026373,新規,0,2022-11-14,2022-11-14,一般社団法人ドローン実務操縦士養成機構,,その他の設立登記法人,兵庫県,姫路市,小利木町３０番地,,28,201,6700022,,,,,,,2022-11-14,1,,,,,ドローンジツムソウジュウシヨウセイキコウ,0
2369,9160003002738,新規,0,2022-11-14,2022-11-14,ＮｅｉＰｉａ合同会社,,合同会社,滋賀県,守山市,梅田町８５－７,,25,207,5240037,,,,,,,2022-11-14,1,,,,,ネイピア,0
2378,9180001153837,新規,0,2022-11-14,2022-11-14,ＣＮ企画株式会社,,株式会社,愛知県,名古屋市名東区,高針原１丁目１０１５番地,,23,115,4650073,,,,,,,2022-11-14,1,,,,,シーエヌキカク,0
2385,9180301036824,新規,0,2022-11-14,2022-11-14,株式会社笑福,,株式会社,愛知県,碧南市,野田町１３番地,,23,209,4470876,,,,,,,2022-11-14,1,,,,,エフク,0
2386,9180303005513,新規,0,2022-11-14,2022-11-14,篠田建築合同会社,,合同会社,愛知県,みよし市,福谷町根浦２７番地２４８,,23,236,4700207,,,,,,,2022-11-14,1,,,,,シノダケンチク,0
2387,9190001029929,新規,0,2022-11-14,2022-11-14,株式会社エヌエヌ,,株式会社,三重県,三重郡朝日町,大字柿２９９７番地,,24,343,5108103,,,,,,,2022-11-14,1,,,,,エヌエヌ,0
2389,9200001040669,新規,0,2022-11-14,2022-11-14,株式会社Ｙ’ｓ．Ｊａｐａｎ,,株式会社,岐阜県,羽島市,竹鼻町飯柄４６１番地３,,21,209,5016233,,,,,,,2022-11-14,1,,,,,ワイズジャパン,0
2409,9260001037404,新規,0,2022-11-14,2022-11-14,株式会社りっち,,株式会社,岡山県,総社市,泉１５番地４４（２階）,,33,208,7191106,,,,,,,2022-11-14,1,,,,,リッチ,0
2418,9290003013144,新規,0,2022-11-14,2022-11-14,合同会社凰琳,,合同会社,福岡県,久留米市,津福今町５９０番地,,40,203,8300061,,,,,,,2022-11-14,1,,,,,オウリン,0
2429,9320001019420,新規,0,2022-11-14,2022-11-14,株式会社真翔,,株式会社,大分県,大分市,大字宮河内９５６番地,,44,201,8700276,,,,,,,2022-11-14,1,,,,,シンショウ,0
2438,9360001031198,新規,0,2022-11-14,2022-11-14,株式会社ＡＮＤＬＩＺ,,株式会社,沖縄県,中頭郡北谷町,字宮城一丁目５１０番地ＳＡＫＵＲＡ・ＨＯＵＳＥ・２Ｆ,,47,326,9040113,,,,,,,2022-11-14,1,,,,,アンドリズ,0
2440,9360003012452,新規,0,2022-11-14,2022-11-14,合同会社Ｃｏｍｅｒ,,合同会社,沖縄県,豊見城市,字座安１８番地２,,47,212,9010221,,,,,,,2022-11-14,1,,,,,コメール,0
2441,9360003012460,新規,0,2022-11-14,2022-11-14,農地所有適格法人合同会社仲盛牧場,,合同会社,沖縄県,八重山郡竹富町,字小浜１９６４番地,,47,381,9071221,,,,,,,2022-11-14,1,,,,,ナカモリボクジョウ,0
2447,9380001033226,新規,0,2022-11-14,2022-11-14,株式会社Ｆｕｋｕｓｈｉｍａ　Ｗａｔｃｈ　Ｃｏｍｐａｎｙ,,株式会社,福島県,南相馬市,小高区東町１丁目４０番地,,07,212,9792121,,,,,,,2022-11-14,1,,,,,フクシマウオッチカンパニー,0
2448,9380003005314,新規,0,2022-11-14,2022-11-14,本多測量合同会社,,合同会社,福島県,本宮市,本宮字小原田１３３番２,,07,214,9691169,,,,,,,2022-11-14,1,,,,,ホンタソクリョウ,0
2449,9380005012647,新規,0,2022-11-14,2022-11-14,米穀販売保管協同組合,,その他の設立登記法人,福島県,郡山市,田村町守山字大町１０番地,,07,203,9631155,,,,,,,2022-11-14,1,,,,,ベイコクハンバイホカン,0
2460,9460102001123,新規,0,2022-11-14,2022-11-14,有限会社こにし,,有限会社,北海道,帯広市,西二十三条北１丁目８番５号,,01,207,0802463,,,,,,,2022-11-14,1,,,,,コニシ,0
2463,9470003002285,新規,0,2022-11-14,2022-11-14,合同会社プレヴナンス,,合同会社,香川県,高松市,春日町４３１番地３５,,37,201,7610101,,,,,,,2022-11-14,1,,,,,プレヴナンス,0
2466,9480001011923,新規,0,2022-11-14,2022-11-14,６０分レンタカー株式会社,,株式会社,徳島県,板野郡藍住町,徳命字前須東８８番地４,,36,403,7711212,,,,,,,2022-11-14,1,,,,,,0
2467,9490005006877,新規,0,2022-11-14,2022-11-14,社会福祉法人友優,,その他の設立登記法人,高知県,四万十市,井沢３８番地１,,39,210,7870150,,,,,,,2022-11-14,1,,,,,ユウユウ,0
2470,9700150112879,新規,0,2022-11-14,2022-11-14,Ｐｒｏｆｅｓｓｉｏｎａｌ　Ａｕｔｏｍａｔｅｄ　Ｔｒａｄｉｎｇ　Ｓｙｓｔｅｍｓ　Ｂ．Ｖ．,,外国会社等,,,,,,,,Ｈｅｒｉｋｅｒｂｅｒｇｗｅｇ　８８，１１０１　ＣＭ　Ａｍｓｔｅｒｄａｍ，Ｔｈｅ　Ｎｅｔｈｅｒｌａｎｄｓ．,,,,,,2022-11-14,1,,,,,プロフエツシヨナルオートメイテイドトレーデイングシステムズビーブイ,0
2471,9700150112887,新規,0,2022-11-14,2022-11-14,Ｓｈｅｎｚｈｅｎ　Ｃｈａｈｕａｓｈｉ　Ｃｈｕａｎｇｙｉ　Ｙｏｕｘｉａｎ　Ｇｏｎｇｓｉ,,外国会社等,,,,,,,,Ｒｏｏｍ　２０１，Ｂｕｉｌｄｉｎｇ　Ａ．Ｎｏ．１，Ｑｉａｎｗａｎ　Ｆｉｒｓｔ　Ｒｏａｄ，Ｑｉａｎｈａｉ　Ｓｈｅｎｚｈｅｎ－ＨｏｎｇＫｏｎｇ　Ｃｏｏｐｅｒａｔｉｏｎ　Ｚｏｎｅ，Ｓｈｅｎｚｈｅｎ　Ｇｕａｎｇｄｏｎｇ,,,,,,2022-11-14,1,,,,,シエンチエンチヤフアシツアンイユウゲンコウシ,0
