sequenceNumber,corporateNumber,process,correct,updateDate,changeDate,name,nameImageId,kind,prefectureName,cityName,streetNumber,addressImageId,prefectureCode,cityCode,postCode,addressOutside,addressOutsideImageId,closeDate,closeCause,successorCorporateNumber,changeCause,assignmentDate,latest,enName,enPrefectureName,enCityName,enAddressOutside,furigana,hihyoji
3,1010002038904,登記記録の閉鎖等,0,2023-03-22,2023-03-15,有限会社谷本会計事務所,,有限会社,東京都,千代田区,九段北３丁目２番２号Ｂ．Ｒロジェ３Ｆ,,13,101,1020073,,,2023-03-15,清算の結了等,,,2015-10-05,1,,,,,タニモトカイケイジムショ,0
4,1010003027303,登記記録の閉鎖等,0,2023-03-22,2023-03-15,合同会社ＩＰレジデンス１,,合同会社,東京都,千代田区,丸の内３丁目１番１号東京共同会計事務所内,,13,101,1000005,,,2023-03-15,清算の結了等,,,2018-04-10,1,,,,,アイピーレジデンスワン,0
5,1010003033623,登記記録の閉鎖等,0,2023-03-22,2023-03-15,合同会社鈴鹿ホールディングス,,合同会社,東京都,中央区,日本橋１丁目４番１号日本橋一丁目ビルディング,,13,102,1030027,,,2023-03-15,清算の結了等,,,2020-11-27,1,,,,,スズカホールディングス,0
52,1011202004464,登記記録の閉鎖等,0,2023-03-22,2023-03-20,中村建物有限会社,,有限会社,東京都,中野区,弥生町４丁目４番１５号,,13,114,1640013,,,2023-03-20,清算の結了等,,,2015-10-05,1,,,,,ナカムラタテモノ,0
62,1011801021224,登記記録の閉鎖等,0,2023-03-22,2023-03-15,東京オートガス株式会社,,株式会社,東京都,文京区,白山１丁目２０番７号,,13,105,1130001,,,2023-03-15,清算の結了等,,,2015-10-05,1,,,,,トウキョウオートガス,0
69,1013201006210,登記記録の閉鎖等,0,2023-03-22,2023-03-13,株式会社ライトスタッフ,,株式会社,東京都,目黒区,鷹番３丁目８番１１号第三エスペランス,,13,110,1520004,,,2023-03-13,清算の結了等,,,2015-10-05,1,,,,,ライトスタッフ,0
76,1020002034258,登記記録の閉鎖等,0,2023-03-22,2023-03-16,新和木工有限会社,,有限会社,神奈川県,横浜市港北区,大曽根３丁目２１－１５ロイヤルコーポ大曽根１０１号,,14,109,2220003,,,2023-03-16,清算の結了等,,,2015-10-05,1,,,,,シンワモッコウ,0
79,1021001065161,登記記録の閉鎖等,0,2023-03-22,2023-03-17,渡辺物流株式会社,,株式会社,神奈川県,相模原市南区,東林間４丁目３６番１３号東林ハイツ１０２,,14,153,2520311,,,2023-03-17,清算の結了等,,,2018-07-04,1,,,,,ワタナベブツリュウ,0
81,1021002052927,登記記録の閉鎖等,0,2023-03-22,2023-03-17,有限会社ふくしまや,,有限会社,神奈川県,小田原市,浜町３丁目１番２７号,,14,206,2500004,,,2023-03-17,清算の結了等,,,2015-10-05,1,,,,,フクシマヤ,0
118,1110002023870,登記記録の閉鎖等,0,2023-03-22,2023-03-17,有限会社タケウチ,,有限会社,新潟県,上越市,三和区下中２６６５番地,,15,222,9430222,,,2023-03-17,清算の結了等,,,2015-10-05,1,,,,,タケウチ,0
139,1120102018588,登記記録の閉鎖等,0,2023-03-22,2023-03-20,旭日建設有限会社,,有限会社,大阪府,藤井寺市,春日丘１丁目４番６号,,27,226,5830026,,,2023-03-20,清算の結了等,,,2015-10-05,1,,,,,,0
149,1140005020879,登記記録の閉鎖等,0,2023-03-22,2023-03-17,ＮＰＯ法人神戸真ぱち,,その他の設立登記法人,兵庫県,神戸市垂水区,潮見が丘１丁目４番５０号中村方,,28,108,6550005,,,2023-03-17,清算の結了等,,,2015-10-05,1,,,,,コウベシンパチ,0
150,1150002010551,登記記録の閉鎖等,0,2023-03-22,2023-03-15,有限会社やすらぎ工房,,有限会社,奈良県,香芝市,磯壁１丁目１０００番地の６,,29,210,6390236,,,2023-03-15,清算の結了等,,,2015-10-05,1,,,,,ヤスラギコウボウ,0
151,1150005003057,登記記録の閉鎖等,0,2023-03-22,2023-03-14,神習教瑞穂支教会,,その他の設立登記法人,奈良県,山辺郡山添村,大字岩屋１７６８番地,,29,322,6302232,,,2023-03-14,清算の結了等,,,2015-10-05,1,,,,,シンシュウキョウミズホシキョウカイ,0
155,1180001133029,登記記録の閉鎖等,0,2023-03-22,2023-03-16,アートエース株式会社,,株式会社,愛知県,名古屋市中区,伊勢山１丁目５番３０号,,23,106,4600026,,,2023-03-16,清算の結了等,,,2018-07-11,1,,,,,アートエース,0
156,1180001134002,登記記録の閉鎖等,0,2023-03-22,2023-03-16,株式会社Ｍ’ｓ　ｅｘｐｒｅｓｓ,,株式会社,愛知県,瀬戸市,原山台８丁目５３番地,,23,204,4890888,,,2023-03-16,清算の結了等,,,2018-10-09,1,,,,,エムズエクスプレス,0
158,1180003000838,登記記録の閉鎖等,0,2023-03-22,2023-03-16,合資会社西垣洋家具木工所,,合資会社,愛知県,名古屋市昭和区,北山町２丁目３２番地,,23,107,4660006,,,2023-03-16,清算の結了等,,,2015-10-05,1,,,,,ニシガキヨウカグモッコウショ,0
172,1230003001269,登記記録の閉鎖等,0,2023-03-22,2023-03-17,合同会社Ｆｒｅｅｄｏｍ・Ｆｌｉｇｈｔ,,合同会社,富山県,富山市,山室荒屋１番地１１２,,16,201,9398022,,,2023-03-17,清算の結了等,,,2018-12-05,1,,,,,フリーダムフライト,0
195,1300002001709,登記記録の閉鎖等,0,2023-03-22,2023-03-20,有限会社エス・ティー建創,,有限会社,佐賀県,佐賀市,久保田町大字徳万２６５番地の１,,41,201,8490201,,,2023-03-20,清算の結了等,,,2015-10-05,1,,,,,エスティーケンソウ,0
207,1370302000874,登記記録の閉鎖等,0,2023-03-22,2023-03-14,有限会社京王工業,,有限会社,宮城県,石巻市,水押１丁目２番３３号,,04,202,9860803,,,2023-03-14,清算の結了等,,,2015-10-05,1,,,,,ケイオウコウギョウ,0
215,1430002028664,登記記録の閉鎖等,0,2023-03-22,2023-03-17,有限会社アースワーク,,有限会社,北海道,札幌市南区,藤野四条８丁目１０番１０号,,01,106,0612284,,,2023-03-17,清算の結了等,,,2015-10-05,1,,,,,アースワーク,0
250,2011001030487,登記記録の閉鎖等,0,2023-03-22,2023-03-13,株式会社アルベイシス,,株式会社,東京都,渋谷区,代官山町２０番２３号東急アパートメント５０６号,,13,113,1500034,,,2023-03-13,清算の結了等,,,2015-10-05,1,,,,,アルベイシス,0
254,2011001137596,登記記録の閉鎖等,0,2023-03-22,2023-03-13,株式会社ＤＥＡＲ,,株式会社,東京都,渋谷区,道玄坂１丁目１６番６号二葉ビル３階,,13,113,1500043,,,2023-03-13,清算の結了等,,,2020-12-23,1,,,,,ディアー,0
264,2011205001747,登記記録の閉鎖等,0,2023-03-22,2023-03-20,特定非営利活動法人バー・アスティエ協会,,その他の設立登記法人,東京都,中野区,白鷺２丁目２９番２号ベルフォーレ白鷺３０１号,,13,114,1650035,,,2023-03-20,清算の結了等,,,2015-10-05,1,,,,,,0
279,2013201019046,登記記録の閉鎖等,0,2023-03-22,2023-03-15,株式会社フェイス損害保険調査,,株式会社,東京都,目黒区,自由が丘２丁目６番１９号自由が丘オークヒル３１１,,13,110,1520035,,,2023-03-15,清算の結了等,,,2015-10-05,1,,,,,フェイスソンガイホケンチョウサ,0
280,2013202013691,登記記録の閉鎖等,0,2023-03-22,2023-03-14,有限会社ポエム音楽出版,,有限会社,東京都,目黒区,大橋１丁目２番１０－１０１１号,,13,110,1530044,,,2023-03-14,清算の結了等,,,2015-10-05,1,,,,,ポエムオンガクシュッパン,0
306,2040002054542,登記記録の閉鎖等,0,2023-03-22,2023-03-15,有限会社如月教育研究所,,有限会社,千葉県,松戸市,上本郷４２９５番地の２,,12,207,2710064,,,2023-03-15,清算の結了等,,,2015-10-05,1,,,,,キサラギキョウイクケンキュウジョ,0
311,2050005011622,登記記録の閉鎖等,0,2023-03-22,2023-03-16,医療法人社団海晴会,,その他の設立登記法人,広島県,福山市,多治米町４丁目２１番１０号,,34,207,7200824,,,2023-03-16,清算の結了等,,,2015-10-05,1,,,,,カイセイカイ,0
312,2060001001997,登記記録の閉鎖等,0,2023-03-22,2023-03-16,サクラ産業株式会社,,株式会社,栃木県,宇都宮市,若草５丁目１４番２６号,,09,201,3200072,,,2023-03-16,清算の結了等,,,2015-10-05,1,,,,,サクラサンギョウ,0
313,2060001002302,登記記録の閉鎖等,0,2023-03-22,2023-03-16,株式会社ジヤパン・エネルギー,,株式会社,栃木県,宇都宮市,若草５丁目１４番２６号,,09,201,3200072,,,2023-03-16,清算の結了等,,,2015-10-05,1,,,,,ジヤパンエネルギー,0
318,2090001010285,登記記録の閉鎖等,0,2023-03-22,2023-03-20,渡辺建設工業株式会社,,株式会社,山梨県,富士吉田市,上吉田東５丁目１５番１０号,,19,202,4030032,,,2023-03-20,清算の結了等,,,2015-10-05,1,,,,,ワタナベケンセツコウギョウ,0
340,2122001025375,登記記録の閉鎖等,0,2023-03-22,2023-03-20,株式会社阿聰華,,株式会社,大阪府,八尾市,黒谷６丁目１３１番地,,27,212,5810873,,,2023-03-20,清算の結了等,,,2015-10-05,1,,,,,アソウカ,0
347,2140001087640,登記記録の閉鎖等,0,2023-03-22,2023-03-17,株式会社ネイク,,株式会社,兵庫県,明石市,大明石町１丁目７番３３号大手ビル３０１号,,28,203,6730891,,,2023-03-17,清算の結了等,,,2015-10-05,1,,,,,ネイク,0
360,2150001022654,登記記録の閉鎖等,0,2023-03-22,2023-03-15,株式会社ホットシー,,株式会社,奈良県,生駒郡三郷町,立野南１丁目１０番２１号,,29,343,6360822,,,2023-03-15,清算の結了等,,,2018-11-30,1,,,,,ホットシー,0
366,2180001135692,登記記録の閉鎖等,0,2023-03-22,2023-03-13,株式会社ＦｉｒｓｔＦｒｏｎｔ,,株式会社,愛知県,稲沢市,祖父江町山崎明島１１２,,23,220,4950002,,,2023-03-13,清算の結了等,,,2019-03-07,1,,,,,ファーストフロント,0
369,2180002019473,登記記録の閉鎖等,0,2023-03-22,2023-03-13,有限会社三杉製作所,,有限会社,愛知県,名古屋市中川区,花塚町１丁目８５番地,00080570,23,110,4540052,,,2023-03-13,清算の結了等,,,2015-10-05,1,,,,,ミスギセイサクショ,0
370,2180002072381,登記記録の閉鎖等,0,2023-03-22,2023-03-16,山石陶器有限会社,,有限会社,愛知県,瀬戸市,品野町３丁目８４番地,,23,204,4801207,,,2023-03-16,清算の結了等,,,2015-10-05,1,,,,,ヤマイシトウキ,0
372,2180301006602,登記記録の閉鎖等,0,2023-03-22,2023-03-10,豊橋トーヨー株式会社,,株式会社,愛知県,豊橋市,大清水町字大清水６４６番地の２,,23,201,4418133,,,2023-03-10,清算の結了等,,,2015-10-05,1,,,,,トヨハシトーヨー,0
381,2230002003018,登記記録の閉鎖等,0,2023-03-22,2023-03-20,有限会社藤の湯,,有限会社,富山県,富山市,蛯町１番９号,,16,201,9300027,,,2023-03-20,清算の結了等,,,2015-10-05,1,,,,,フジノユ,0
385,2240005002057,登記記録の閉鎖等,0,2023-03-22,2023-03-15,広島県すし商生活衛生同業組合,,その他の設立登記法人,広島県,広島市中区,袋町４番１４－５０１号,,34,101,7300036,,,2023-03-15,清算の結了等,,,2015-10-05,1,,,,,ヒロシマケンスシショウ,0
387,2260001031875,登記記録の閉鎖等,0,2023-03-22,2023-03-20,株式会社ＴＡＢＡＩ,,株式会社,岡山県,岡山市北区,大学町４－１４,,33,101,7000906,,,2023-03-20,清算の結了等,,,2018-03-29,1,,,,,タバイ,0
404,2290001083550,登記記録の閉鎖等,0,2023-03-22,2023-03-16,株式会社ライズ・トレーディング,,株式会社,福岡県,福岡市早良区,田村６丁目１６番３４号サンヴィレッジ２０１号,,40,137,8140175,,,2023-03-16,清算の結了等,,,2018-12-07,1,,,,,ライズトレーディング,0
411,2290003006666,登記記録の閉鎖等,0,2023-03-22,2023-03-17,合同会社友社,,合同会社,福岡県,福岡市南区,警弥郷３丁目２４番１３号,,40,134,8111324,,,2023-03-17,清算の結了等,,,2016-09-05,1,,,,,ユウシャ,0
423,2340003000952,登記記録の閉鎖等,0,2023-03-22,2023-03-16,合資会社タカ工業,,合資会社,鹿児島県,奄美市,名瀬小俣町２５番１－１１号,,46,222,8940012,,,2023-03-16,清算の結了等,,,2015-10-05,1,,,,,タカコウギョウ,0
431,2370005001153,登記記録の閉鎖等,0,2023-03-22,2023-03-17,医療法人社団一陽会,,その他の設立登記法人,宮城県,仙台市青葉区,中山４丁目２５番２２号,,04,101,9810952,,,2023-03-17,清算の結了等,,,2015-10-05,1,,,,,イチヨウカイ,0
443,2430002005877,登記記録の閉鎖等,0,2023-03-22,2023-03-15,有限会社金太郎,,有限会社,北海道,札幌市中央区,南一条西７丁目１１番地,,01,101,0600061,,,2023-03-15,清算の結了等,,,2015-10-05,1,,,,,,0
483,3011501001796,登記記録の閉鎖等,0,2023-03-22,2023-03-13,オフィスパートナー株式会社,,株式会社,東京都,北区,浮間２丁目１１番８号,,13,117,1150051,,,2023-03-13,清算の結了等,,,2015-10-05,1,,,,,オフィスパートナー,0
526,3040001085240,登記記録の閉鎖等,0,2023-03-22,2023-03-15,株式会社レスパイトサービスどれみ,,株式会社,千葉県,千葉市中央区,矢作町１４３番地５,,12,101,2600851,,,2023-03-15,清算の結了等,,,2015-10-05,1,,,,,レスパイトサービスドレミ,0
527,3040001095735,登記記録の閉鎖等,0,2023-03-22,2023-03-15,株式会社京葉設備工業,,株式会社,千葉県,松戸市,二十世紀が丘梨元町２８番地の３ペアヒル二十世紀３０３号,,12,207,2710083,,,2023-03-15,清算の結了等,,,2016-06-10,1,,,,,,0
559,3120001036631,登記記録の閉鎖等,0,2023-03-22,2023-03-14,明光産業株式会社,,株式会社,大阪府,大阪市福島区,海老江５丁目２番２号,,27,103,5530001,,,2023-03-14,清算の結了等,,,2015-10-05,1,,,,,,0
560,3120001179141,登記記録の閉鎖等,0,2023-03-22,2023-03-17,株式会社ベルディアン,,株式会社,大阪府,大阪市阿倍野区,旭町１丁目１番１０号竹澤ビル４階６号室,,27,119,5450051,,,2023-03-17,清算の結了等,,,2015-10-05,1,,,,,ベルディアン,0
572,3120101033041,登記記録の閉鎖等,0,2023-03-22,2023-03-20,倉本建設株式会社,,株式会社,大阪府,藤井寺市,春日丘１丁目４番６号,,27,226,5830026,,,2023-03-20,清算の結了等,,,2015-10-05,1,,,,,クラモトケンセツ,0
576,3130001006732,登記記録の閉鎖等,0,2023-03-22,2023-03-14,株式会社大成土木,,株式会社,京都府,京都市左京区,岩倉三宅町５６番地２,,26,103,6060022,,,2023-03-14,合併による解散等,6130001026240,令和５年３月１日京都市左京区岩倉三宅町５７番地１株式会社ランドホーム（6130001026240）に合併し解散,2015-10-05,1,,,,,タイセイドボク,0
597,3180001019399,登記記録の閉鎖等,0,2023-03-22,2023-03-16,株式会社光績,,株式会社,愛知県,名古屋市中川区,馬手町１丁目８番地,,23,110,4540845,,,2023-03-16,清算の結了等,,,2015-10-05,1,,,,,コウセキ,0
606,3180302011848,登記記録の閉鎖等,0,2023-03-22,2023-03-13,有限会社キストン,,有限会社,愛知県,豊橋市,関屋町２２８番地,,23,201,4400891,,,2023-03-13,清算の結了等,,,2015-10-05,1,,,,,キストン,0
608,3180302021368,登記記録の閉鎖等,0,2023-03-22,2023-03-13,有限会社イトウグループ,,有限会社,愛知県,豊田市,千足町神明堂９８４番地９４,,23,211,4710847,,,2023-03-13,清算の結了等,,,2015-10-05,1,,,,,イトウグループ,0
628,3250003002825,登記記録の閉鎖等,0,2023-03-22,2023-03-17,Ｎ’ｓＷＯＲＫＳ合同会社,,合同会社,山口県,下関市,椋野町１丁目１６番６６－５号,,35,201,7510816,,,2023-03-17,清算の結了等,,,2021-05-13,1,,,,,エヌズワークス,0
642,3290002019164,登記記録の閉鎖等,0,2023-03-22,2023-03-17,有限会社シニアネットワークコーポレーション,,有限会社,福岡県,福岡市早良区,南庄３丁目２２番１号,,40,137,8140031,,,2023-03-17,清算の結了等,,,2015-10-05,1,,,,,シニアネットワークコーポレーション,0
679,3450002000751,登記記録の閉鎖等,0,2023-03-22,2023-03-20,有限会社稲華屋,,有限会社,北海道,上川郡鷹栖町,１１線七号,,01,452,0711251,,,2023-03-20,清算の結了等,,,2015-10-05,1,,,,,イナカヤ,0
686,3470002011359,登記記録の閉鎖等,0,2023-03-22,2023-03-20,有限会社岩本設計,,有限会社,香川県,丸亀市,今津町７４７番地５の６０２,,37,202,7630051,,,2023-03-20,清算の結了等,,,2015-10-05,1,,,,,イワモトセッケイ,0
690,3490002010706,登記記録の閉鎖等,0,2023-03-22,2023-03-22,有限会社興和樹脂精器工業所,,有限会社,高知県,高岡郡中土佐町,久礼２４５８番地,,39,401,7891301,,,2023-03-22,清算の結了等,,,2015-10-05,1,,,,,コウワジュシセイキコウギョウショ,0
695,4010001105925,登記記録の閉鎖等,0,2023-03-22,2023-03-20,アラン・エアファイナンス株式会社,,株式会社,岡山県,岡山市南区,福富東２丁目２０番６号,,33,104,7028033,,,2023-03-20,清算の結了等,,,2015-10-05,1,,,,,,0
714,4011001100189,登記記録の閉鎖等,0,2023-03-22,2023-03-14,株式会社ココカラ,,株式会社,東京都,渋谷区,恵比寿４丁目１１番７号,,13,113,1500013,,,2023-03-14,清算の結了等,,,2015-10-05,1,,,,,ココカラ,0
741,4013301042672,登記記録の閉鎖等,0,2023-03-22,2023-03-01,株式会社モバイルサポート,,株式会社,東京都,豊島区,西池袋１丁目４番１０号,,13,116,1710021,,,2023-03-01,合併による解散等,1013301023460,令和５年３月１日東京都豊島区南池袋二丁目９番９号株式会社セールスパートナー（1013301023460）に合併し解散,2018-08-13,1,,,,,モバイルサポート,0
748,4021001071982,登記記録の閉鎖等,0,2023-03-22,2023-03-16,株式会社Ｔｅｃｈｎｏ－Ｄｅｖｅｌｏｐｍｅｎｔ,,株式会社,神奈川県,厚木市,中町４丁目１４番１号,,14,212,2430018,,,2023-03-16,清算の結了等,,,2021-01-28,1,,,,,テクノデベロップメント,0
776,4080401000331,登記記録の閉鎖等,0,2023-03-22,2023-03-20,株式会社アライドー,,株式会社,静岡県,浜松市東区,神立町１０９番地の５,,22,132,4300801,,,2023-03-20,清算の結了等,,,2015-10-05,1,,,,,アライドー,0
777,4080401003648,登記記録の閉鎖等,0,2023-03-22,2023-03-17,株式会社トラヤ,,株式会社,静岡県,浜松市中区,中沢町３番１８号,,22,131,4300904,,,2023-03-17,清算の結了等,,,2015-10-05,1,,,,,トラヤ,0
786,4120001101277,登記記録の閉鎖等,0,2023-03-22,2023-03-17,株式会社フォーチュン・スターズ,,株式会社,大阪府,大阪市東淀川区,東中島１丁目１７番１８号新大阪ビル東館６０１号,,27,114,5330033,,,2023-03-17,清算の結了等,,,2015-10-05,1,,,,,フォーチュンスターズ,0
799,4120003016011,登記記録の閉鎖等,0,2023-03-22,2023-03-16,合同会社ライゾデザイン研究所,,合同会社,大阪府,大阪市都島区,内代町１丁目２番３７－１２０２号,,27,102,5340013,,,2023-03-16,清算の結了等,,,2019-07-23,1,,,,,ライゾデザインケンキュウショ,0
823,4180001126797,登記記録の閉鎖等,0,2023-03-22,2023-03-17,株式会社おすみつき,,株式会社,愛知県,名古屋市天白区,鴻の巣１丁目１６０４番地,,23,116,4680003,,,2023-03-17,清算の結了等,,,2017-03-03,1,,,,,オスミツキ,0
841,4230002014319,登記記録の閉鎖等,0,2023-03-22,2023-03-08,有限会社ケーアイティー,,有限会社,富山県,射水市,布目沢２４３番地の１,,16,211,9390418,,,2023-03-08,清算の結了等,,,2015-10-05,1,,,,,ケーアイティー,0
846,4250001004673,登記記録の閉鎖等,0,2023-03-22,2023-03-13,株式会社秋芳観光ホテル秋芳館,,株式会社,山口県,美祢市,秋芳町秋吉３４５１番地の１,,35,213,7540511,,,2023-03-13,清算の結了等,,,2015-10-05,1,,,,,シュウホウカンコウホテルシュウホウカン,0
847,4250001008947,登記記録の閉鎖等,0,2023-03-22,2023-03-15,スターオイル株式会社,,株式会社,山口県,周南市,河東町２番１９号,,35,215,7450845,,,2023-03-15,清算の結了等,,,2015-10-05,1,,,,,スターオイル,0
853,4290001048634,登記記録の閉鎖等,0,2023-03-22,2023-03-15,株式会社九州画廊,,株式会社,福岡県,久留米市,松ケ枝町１９番地,,40,203,8300043,,,2023-03-15,清算の結了等,,,2015-10-05,1,,,,,キュウシュウガロウ,0
865,4290003009964,登記記録の閉鎖等,0,2023-03-22,2023-03-16,合同会社小石原めだか塾,,合同会社,福岡県,朝倉郡東峰村,大字小石原５９６番地１,,40,448,8381601,,,2023-03-16,清算の結了等,,,2020-06-03,1,,,,,コイシワラメダカジュク,0
887,4370001003473,登記記録の閉鎖等,0,2023-03-22,2023-03-20,株式会社ダイシャリン,,株式会社,宮城県,仙台市若林区,若林５丁目１１番２３号,,04,103,9840826,,,2023-03-20,清算の結了等,,,2015-10-05,1,,,,,ダイシャリン,0
890,4370001048155,登記記録の閉鎖等,0,2023-03-22,2023-03-14,湯浅金属工業株式会社,,株式会社,宮城県,仙台市太白区,郡山字太子堂１番地,,04,104,9820003,,,2023-03-14,清算の結了等,,,2022-02-07,1,,,,,,0
900,4430002010181,登記記録の閉鎖等,0,2023-03-22,2023-03-15,有限会社新和総合プランニング,,有限会社,北海道,札幌市北区,北十三条西２丁目１番２号,,01,102,0010013,,,2023-03-15,清算の結了等,,,2015-10-05,1,,,,,シンワソウゴウプランニング,0
906,4500001019225,登記記録の閉鎖等,0,2023-03-22,2023-03-17,株式会社ＫＭＲＯＡＤ,,株式会社,愛媛県,南宇和郡愛南町,御荘和口３４４番地１,,38,506,7984104,,,2023-03-17,清算の結了等,,,2015-10-05,1,,,,,ケイエムロード,0
908,5010001105924,登記記録の閉鎖等,0,2023-03-22,2023-03-20,ブラスケット・エアファイナンス株式会社,,株式会社,岡山県,岡山市南区,福富東２丁目２０番６号,,33,104,7028033,,,2023-03-20,清算の結了等,,,2015-10-05,1,,,,,,0
909,5010001138164,登記記録の閉鎖等,0,2023-03-22,2023-03-15,株式会社ＳＨＩＰ第２４号,,株式会社,東京都,千代田区,丸の内２丁目７番２号,,13,101,1000005,,,2023-03-15,清算の結了等,,,2015-10-05,1,,,,,エスエイチアイピーダイニジュウヨンゴウ,0
915,5010005013132,登記記録の閉鎖等,0,2023-03-22,2023-03-10,特定非営利活動法人日本肖像権協会,,その他の設立登記法人,東京都,千代田区,神田錦町１丁目２３番地,,13,101,1010054,,,2023-03-10,清算の結了等,,,2015-10-05,1,,,,,ニホンショウゾウケンキョウカイ,0
926,5010401144902,登記記録の閉鎖等,0,2023-03-22,2023-03-08,ＺｅｒｏＨＲ株式会社,,株式会社,東京都,港区,六本木１丁目４番５号,,13,103,1060032,,,2023-03-08,清算の結了等,,,2019-04-10,1,,,,,ゼロエイチアール,0
943,5010801020224,登記記録の閉鎖等,0,2023-03-22,2023-03-13,株式会社ＢＥＡＵ　ＳＯＬＥＩＬ,,株式会社,東京都,大田区,北嶺町３９番１１号,,13,111,1450073,,,2023-03-13,清算の結了等,,,2015-10-05,1,,,,,,0
948,5011001045375,登記記録の閉鎖等,0,2023-03-22,2023-03-13,リトイン株式会社,,株式会社,東京都,杉並区,西荻北５丁目１６番６号,,13,115,1670042,,,2023-03-13,清算の結了等,,,2015-10-05,1,,,,,リトイン,0
1004,5040001043568,登記記録の閉鎖等,0,2023-03-22,2023-03-15,株式会社山崎組,00026590,株式会社,千葉県,印旛郡栄町,大字北辺田２７２番地,,12,329,2701500,,,2023-03-15,清算の結了等,,,2015-10-05,1,,,,,ヤマザキグミ,0
1009,5050001004610,登記記録の閉鎖等,0,2023-03-22,2023-03-15,三菱原子燃料株式会社,,株式会社,茨城県,那珂郡東海村,大字舟石川６２２番地１,,08,341,3191111,,,2023-03-15,合併による解散等,8010401050387,令和５年３月１５日東京都千代田区丸の内三丁目２番３号三菱重工業株式会社（8010401050387）に合併し解散,2015-10-05,1,,,,,ミツビシゲンシネンリョウ,0
1045,5140001100838,登記記録の閉鎖等,0,2023-03-22,2023-03-17,株式会社ウイン教育センター,,株式会社,兵庫県,神戸市中央区,多聞通３丁目２番９号甲南スカイビル２Ｆ,,28,110,6500015,,,2023-03-17,清算の結了等,,,2016-01-29,1,,,,,,0
1057,5180002062909,登記記録の閉鎖等,0,2023-03-22,2023-03-16,有限会社ルーク,,有限会社,愛知県,日進市,岩崎台３丁目１９０５番地,,23,230,4700135,,,2023-03-16,清算の結了等,,,2015-10-05,1,,,,,ルーク,0
1058,5180002086858,登記記録の閉鎖等,0,2023-03-22,2023-03-09,有限会社ズーコム,,有限会社,愛知県,常滑市,金山字汐見坂１５９番地,,23,216,4790003,,,2023-03-09,清算の結了等,,,2015-10-05,1,,,,,ズーコム,0
1069,5200002006383,登記記録の閉鎖等,0,2023-03-22,2023-03-22,有限会社小原鉄工,,有限会社,岐阜県,山県市,岩佐１４７０番地,,21,215,5012259,,,2023-03-22,清算の結了等,,,2015-10-05,1,,,,,オハラテッコウ,0
1086,5290802020121,登記記録の閉鎖等,0,2023-03-22,2023-03-17,有限会社ウエキ,,有限会社,福岡県,直方市,大字植木１０２９番地の３,,40,204,8220031,,,2023-03-17,清算の結了等,,,2015-10-05,1,,,,,ウエキ,0
1089,5300003001877,登記記録の閉鎖等,0,2023-03-22,2023-03-16,合同会社ソクラテス文庫,,合同会社,佐賀県,唐津市,和多田海士町５番１６号,,41,202,8470071,,,2023-03-16,清算の結了等,,,2022-09-05,1,,,,,ソクラテスブンコ,0
1096,5350002000537,登記記録の閉鎖等,0,2023-03-22,2023-03-16,有限会社内海調剤薬局,,有限会社,宮崎県,宮崎市,大字内海９３４番地,,45,201,8892301,,,2023-03-16,清算の結了等,,,2015-10-05,1,,,,,ウチウミチョウザイヤッキョク,0
1101,5370001006252,登記記録の閉鎖等,0,2023-03-22,2023-03-20,株式会社やしま,,株式会社,宮城県,仙台市宮城野区,宮千代１丁目５番地の９,,04,102,9830044,,,2023-03-20,清算の結了等,,,2015-10-05,1,,,,,ヤシマ,0
1120,5470001008577,登記記録の閉鎖等,0,2023-03-22,2023-03-15,合同会社香川県観光開発,,合同会社,香川県,丸亀市,綾歌町栗熊西４０番地１,,37,202,7612405,,,2023-03-15,合併による解散等,4010001188219,令和５年３月１日東京都中央区銀座七丁目１６番２１号大江戸温泉物語ホテルズ＆リゾーツ株式会社（4010001188219）に合併し解散,2015-10-05,1,,,,,カガワケンカンコウカイハツ,0
1133,6010001138163,登記記録の閉鎖等,0,2023-03-22,2023-03-15,株式会社ＳＨＩＰ第２３号,,株式会社,東京都,千代田区,丸の内２丁目７番２号,,13,101,1000005,,,2023-03-15,清算の結了等,,,2015-10-05,1,,,,,エスエイチアイピーダイニジュウサンゴウ,0
1140,6010101003449,登記記録の閉鎖等,0,2023-03-22,2023-03-16,株式会社富士栄住宅,,株式会社,東京都,八王子市,本町２７番１０号,,13,201,1920066,,,2023-03-16,清算の結了等,,,2015-10-05,1,,,,,,0
1152,6010401168818,登記記録の閉鎖等,0,2023-03-22,2023-03-17,株式会社インターキューブホールディングス,,株式会社,東京都,港区,港南２丁目１５番３号,,13,103,1080075,,,2023-03-17,合併による解散等,6010401064463,令和５年３月１０日東京都渋谷区南平台町７番３号株式会社インターキューブ（6010401064463）に合併し解散,2022-08-03,1,,,,,インターキューブホールディングス,0
1199,6013203001766,登記記録の閉鎖等,0,2023-03-22,2023-03-14,株式会社Ｓｅｋｏｈ,,株式会社,東京都,江東区,東雲１丁目９番４２,,13,108,1350062,,,2023-03-14,清算の結了等,,,2015-10-05,1,,,,,セコー,0
1200,6013301028315,登記記録の閉鎖等,0,2023-03-22,2023-03-01,株式会社ＥＰＣ,,株式会社,東京都,豊島区,西池袋１丁目４番１０号,,13,116,1710021,,,2023-03-01,合併による解散等,1013301023460,令和５年３月１日東京都豊島区南池袋二丁目９番９号株式会社セールスパートナー（1013301023460）に合併し解散,2015-10-05,1,,,,,イーピーシー,0
1206,6021002048945,登記記録の閉鎖等,0,2023-03-22,2023-03-15,有限会社丸昭重機,,有限会社,神奈川県,綾瀬市,上土棚中６丁目１番２５号,,14,218,2521113,,,2023-03-15,清算の結了等,,,2015-10-05,1,,,,,マルショウジュウキ,0
1250,6120101044936,登記記録の閉鎖等,0,2023-03-22,2023-03-20,株式会社レック制御,,株式会社,大阪府,岸和田市,田治米町６３番地,,27,202,5960805,,,2023-03-20,清算の結了等,,,2015-10-05,1,,,,,,0
1254,6130005010406,登記記録の閉鎖等,0,2023-03-22,2023-03-16,特定非営利活動法人丹波・みわ,,その他の設立登記法人,京都府,福知山市,三和町寺尾小字権現４番地,,26,201,6201443,,,2023-03-16,清算の結了等,,,2015-10-05,1,,,,,タンバミワ,0
1256,6140001048481,登記記録の閉鎖等,0,2023-03-22,2023-03-16,共生印刷株式会社,,株式会社,兵庫県,尼崎市,南初島町１０番地の１３２,,28,202,6600833,,,2023-03-16,合併による解散等,5140001048482,令和５年２月２０日兵庫県尼崎市南初島町１０番地の１３２株式会社共生社（5140001048482）に合併し解散,2015-10-05,1,,,,,キョウセイインサツ,0
1259,6140001115637,登記記録の閉鎖等,0,2023-03-22,2023-03-14,株式会社Ｌｉｆｅプロジェクト,,株式会社,兵庫県,神戸市垂水区,下畑町字向井４９７番地の１,,28,108,6550861,,,2023-03-14,清算の結了等,,,2019-12-05,1,,,,,ライフプロジェクト,0
1274,6180001129303,登記記録の閉鎖等,0,2023-03-22,2023-03-15,尾東電機設備株式会社,,株式会社,愛知県,春日井市,気噴町北１丁目１４３番地,,23,206,4870015,,,2023-03-15,清算の結了等,,,2017-09-07,1,,,,,ビトウデンキセツビ,0
1289,6190001019387,登記記録の閉鎖等,0,2023-03-22,2023-03-16,株式会社南勢工務店,,株式会社,三重県,伊勢市,御薗町高向１７８９番地３,,24,203,5160805,,,2023-03-16,清算の結了等,,,2015-10-05,1,,,,,ナンセイコウムテン,0
1292,6200001002234,登記記録の閉鎖等,0,2023-03-22,2023-03-20,株式会社サンシビル,,株式会社,岐阜県,岐阜市,芥見町屋１丁目１６９番地,,21,201,5013116,,,2023-03-20,清算の結了等,,,2015-10-05,1,,,,,サンシビル,0
1300,6220002003163,登記記録の閉鎖等,0,2023-03-22,2023-03-17,有限会社永光,,有限会社,石川県,金沢市,東蚊爪町ヌ１９番地５,,17,201,9200209,,,2023-03-17,清算の結了等,,,2015-10-05,1,,,,,エイコウ,0
1312,6240005006293,登記記録の閉鎖等,0,2023-03-22,2023-03-16,協同組合九嶺個人タクシー,,その他の設立登記法人,広島県,呉市,西中央３丁目１９番６号,,34,202,7370811,,,2023-03-16,清算の結了等,,,2015-10-05,1,,,,,クレコジンタクシー,0
1319,6290001087762,登記記録の閉鎖等,0,2023-03-22,2023-03-16,株式会社ライズ運輸,,株式会社,福岡県,宗像市,石丸１丁目７番１０号メゾンドアヤＮｏ．２－２号室,,40,220,8114147,,,2023-03-16,清算の結了等,,,2020-01-14,1,,,,,ライズウンユ,0
1325,6290002016002,登記記録の閉鎖等,0,2023-03-22,2023-03-14,有限会社総合経理指導研究所,,有限会社,福岡県,福岡市中央区,天神３丁目２番１９号天神久保田ビル５０２号,,40,133,8100001,,,2023-03-14,清算の結了等,,,2015-10-05,1,,,,,ソウゴウケイリシドウケンキュウショ,0
1330,6310001016537,登記記録の閉鎖等,0,2023-03-22,2023-03-15,中山興産株式会社,,株式会社,長崎県,対馬市,厳原町天道茂３９３番地,,42,209,8170014,,,2023-03-15,清算の結了等,,,2020-02-06,1,,,,,ナカヤマコウサン,0
1349,6470002018252,登記記録の閉鎖等,0,2023-03-22,2023-03-17,有限会社和田建材,,有限会社,香川県,東かがわ市,西村１４８９番地,,37,207,7692604,,,2023-03-17,清算の結了等,,,2015-10-05,1,,,,,ワダケンザイ,0
1355,7010001105922,登記記録の閉鎖等,0,2023-03-22,2023-03-20,ゴラ・エアファイナンス株式会社,,株式会社,岡山県,岡山市南区,福富東２丁目２０番６号,,33,104,7028033,,,2023-03-20,清算の結了等,,,2015-10-05,1,,,,,,0
1356,7010001144929,登記記録の閉鎖等,0,2023-03-22,2023-03-15,株式会社ＳＨＩＰ第２５号,,株式会社,東京都,千代田区,丸の内２丁目７番２号,,13,101,1000005,,,2023-03-15,清算の結了等,,,2015-10-05,1,,,,,エスエイチアイピーダイニジュウゴゴウ,0
1360,7010003035135,登記記録の閉鎖等,0,2023-03-22,2023-03-15,合同会社メディカル・インベストメント７号,,合同会社,東京都,中央区,日本橋兜町３番１１号三田証券株式会社内,,13,102,1030026,,,2023-03-15,清算の結了等,,,2021-06-23,1,,,,,メディカルインベストメントナナゴウ,0
1405,7011502016055,登記記録の閉鎖等,0,2023-03-22,2023-03-16,有限会社アイランド,,有限会社,東京都,葛飾区,四つ木５丁目１２番５号,,13,122,1240011,,,2023-03-16,清算の結了等,,,2015-10-05,1,,,,,アイランド,0
1429,7021001074272,登記記録の閉鎖等,0,2023-03-22,2023-03-13,株式会社吉田組,00124622,株式会社,神奈川県,厚木市,上依知２１６番地,,14,212,2430801,,,2023-03-13,清算の結了等,,,2021-10-26,1,,,,,ヨシダグミ,0
1444,7030001144068,登記記録の閉鎖等,0,2023-03-22,2023-03-16,久喜環境機材株式会社,,株式会社,埼玉県,久喜市,上町１番１３号,,11,232,3460006,,,2023-03-16,清算の結了等,,,2021-08-31,1,,,,,クキカンキョウキザイ,0
1450,7040001103122,登記記録の閉鎖等,0,2023-03-22,2023-03-16,リンケンサービス株式会社,,株式会社,千葉県,八千代市,大和田１６７番地１１,,12,221,2760045,,,2023-03-16,清算の結了等,,,2018-01-11,1,,,,,リンケンサービス,0
1478,7100003006606,登記記録の閉鎖等,0,2023-03-22,2023-03-17,あいあい合同会社,,合同会社,長野県,北佐久郡軽井沢町,大字長倉１６８９番地１６,,20,321,3890111,,,2023-03-17,清算の結了等,,,2022-06-30,1,,,,,アイアイ,0
1499,7140001094541,登記記録の閉鎖等,0,2023-03-22,2023-03-17,株式会社海瑛,,株式会社,兵庫県,神戸市灘区,摩耶埠頭１番,,28,102,6570854,,,2023-03-17,清算の結了等,,,2015-10-05,1,,,,,カイエイ,0
1504,7150001001686,登記記録の閉鎖等,0,2023-03-22,2023-03-13,株式会社奈良綜合事務センター,,株式会社,奈良県,生駒市,鹿ノ台西２丁目１３番地１２,,29,209,6300114,,,2023-03-13,清算の結了等,,,2015-10-05,1,,,,,ナラソウゴウジムセンター,0
1519,7200002008568,登記記録の閉鎖等,0,2023-03-22,2023-03-22,ドルフィン有限会社,,有限会社,岐阜県,岐阜市,雨踊町５番地１,,21,201,5008337,,,2023-03-22,清算の結了等,,,2015-10-05,1,,,,,ドルフィン,0
1524,7220005005767,登記記録の閉鎖等,0,2023-03-22,2023-03-16,社会福祉法人ひまわり会,,その他の設立登記法人,石川県,羽咋市,松ケ下町松ケ下２番地１,,17,207,9250048,,,2023-03-16,清算の結了等,,,2015-10-05,1,,,,,ヒマワリカイ,0
1525,7240001038934,登記記録の閉鎖等,0,2023-03-22,2023-03-15,株式会社山口建設,,株式会社,広島県,尾道市,瀬戸田町名荷８２０番地の１,,34,205,7222417,,,2023-03-15,清算の結了等,,,2015-10-05,1,,,,,ヤマグチケンセツ,0
1532,7270001003720,登記記録の閉鎖等,0,2023-03-22,2023-03-13,株式会社米子タウンホテル,,株式会社,鳥取県,米子市,明治町２５５番地,,31,202,6830053,,,2023-03-13,清算の結了等,,,2015-10-05,1,,,,,ヨナゴタウンホテル,0
1538,7290002035736,登記記録の閉鎖等,0,2023-03-22,2023-03-13,有限会社商繁社,,有限会社,福岡県,宗像市,須恵１丁目２３番２１号,,40,220,8113405,,,2023-03-13,清算の結了等,,,2015-10-05,1,,,,,ショウハンシャ,0
1552,7360002016241,登記記録の閉鎖等,0,2023-03-22,2023-03-14,有限会社大誉インテリア,,有限会社,沖縄県,浦添市,字沢岻１１１０番地５,,47,208,9012112,,,2023-03-14,清算の結了等,,,2015-10-05,1,,,,,タイヨインテリア,0
1556,7370002020548,登記記録の閉鎖等,0,2023-03-22,2023-03-20,有限会社長谷部設計,,有限会社,宮城県,富谷市,太子堂２丁目１１番１５号,,04,216,9813303,,,2023-03-20,清算の結了等,,,2015-10-05,1,,,,,ハセベセッケイ,0
1574,7430001060159,登記記録の閉鎖等,0,2023-03-22,2023-03-20,株式会社希望の風,,株式会社,北海道,札幌市手稲区,前田十条１５丁目１０番３号,,01,109,0060820,,,2023-03-20,清算の結了等,,,2015-10-05,1,,,,,,0
1575,7430001060299,登記記録の閉鎖等,0,2023-03-22,2023-03-20,株式会社Ｋ＆Ｙ夢企画,,株式会社,北海道,札幌市中央区,南五条西２丁目１番５号中銀ビル１Ｆ,,01,101,0640805,,,2023-03-20,清算の結了等,,,2015-10-05,1,,,,,ケイアンドワイユメキカク,0
1583,7440005002288,登記記録の閉鎖等,0,2023-03-22,2023-03-15,一般社団法人函館銀行協会,,その他の設立登記法人,北海道,函館市,若松町１５番７号,,01,202,0400063,,,2023-03-15,清算の結了等,,,2015-10-05,1,,,,,ハコダテギンコウキョウカイ,0
1585,8010001105921,登記記録の閉鎖等,0,2023-03-22,2023-03-20,ラスリン・エアファイナンス株式会社,,株式会社,岡山県,岡山市南区,福富東２丁目２０番６号,,33,104,7028033,,,2023-03-20,清算の結了等,,,2015-10-05,1,,,,,,0
1590,8010001138161,登記記録の閉鎖等,0,2023-03-22,2023-03-15,株式会社ＳＨＩＰ第２２号,,株式会社,東京都,千代田区,丸の内２丁目７番２号,,13,101,1000005,,,2023-03-15,清算の結了等,,,2015-10-05,1,,,,,エスエイチアイピーダイニジュウニゴウ,0
1606,8010801000669,登記記録の閉鎖等,0,2023-03-22,2023-03-13,株式会社アルゴ,,株式会社,東京都,大田区,大森北５丁目７番１２号,,13,111,1430016,,,2023-03-13,清算の結了等,,,2015-10-05,1,,,,,アルゴ,0
1626,8011101009888,登記記録の閉鎖等,0,2023-03-22,2023-03-16,株式会社シーピーユー,,株式会社,東京都,新宿区,住吉町２番１８－９１１号,,13,104,1620065,,,2023-03-16,清算の結了等,,,2015-10-05,1,,,,,シーピーユー,0
1695,8080002016632,登記記録の閉鎖等,0,2023-03-22,2023-03-20,有限会社村田工務店,,有限会社,静岡県,焼津市,西島１５５番地,,22,212,4210215,,,2023-03-20,清算の結了等,,,2015-10-05,1,,,,,,0
1700,8100001021408,登記記録の閉鎖等,0,2023-03-22,2023-03-09,ＭＴ管財株式会社,,株式会社,東京都,港区,西新橋１丁目２２番１４号１０階,,13,103,1050003,,,2023-03-09,清算の結了等,,,2015-10-05,1,,,,,エムテーカンザイ,0
1705,8120001117427,登記記録の閉鎖等,0,2023-03-22,2023-03-20,スタイルアンドシステム株式会社,,株式会社,大阪府,大阪市中央区,東心斎橋１丁目８番１１－２５０５号,,27,128,5420083,,,2023-03-20,清算の結了等,,,2015-10-05,1,,,,,,0
1719,8122001028026,登記記録の閉鎖等,0,2023-03-22,2023-03-14,株式会社イースペース,,株式会社,京都府,京都市左京区,岩倉花園町４９３番地１０３号,,26,103,6060024,,,2023-03-14,合併による解散等,6130001026240,令和５年３月１日京都市左京区岩倉三宅町５７番地１株式会社ランドホーム（6130001026240）に合併し解散,2015-10-05,1,,,,,イースペース,0
1729,8140002018878,登記記録の閉鎖等,0,2023-03-22,2023-03-20,有限会社ミトス,,有限会社,兵庫県,神戸市東灘区,鴨子ケ原３丁目２８番１２号,,28,101,6580064,,,2023-03-20,清算の結了等,,,2015-10-05,1,,,,,ミトス,0
1744,8160005002613,登記記録の閉鎖等,0,2023-03-22,2023-03-17,南勝寺,,その他の設立登記法人,滋賀県,湖南市,吉永２４６番地,,25,211,5203222,,,2023-03-17,清算の結了等,,,2015-10-05,1,,,,,ナンショウジ,0
1745,8180001097977,登記記録の閉鎖等,0,2023-03-22,2023-03-15,株式会社安井,,株式会社,愛知県,あま市,七宝町鷹居１丁目７４番地,,23,237,4970014,,,2023-03-15,清算の結了等,,,2015-10-05,1,,,,,ヤスイ,0
1756,8200002011141,登記記録の閉鎖等,0,2023-03-22,2023-03-17,有限会社古川商店岐阜,,有限会社,岐阜県,羽島郡岐南町,下印食２８７７番地の８,,21,302,5016018,,,2023-03-17,清算の結了等,,,2015-10-05,1,,,,,フルカワショウテンギフ,0
1773,8250003001252,登記記録の閉鎖等,0,2023-03-22,2023-03-16,合同会社田村組,,合同会社,山口県,宇部市,大字東岐波４６９０番地７,,35,202,7550241,,,2023-03-16,清算の結了等,,,2015-10-05,1,,,,,タムラグミ,0
1789,8310001008895,登記記録の閉鎖等,0,2023-03-22,2023-03-17,株式会社双葉建設,,株式会社,長崎県,大村市,宮小路３丁目２００２番地１０,,42,205,8560807,,,2023-03-17,清算の結了等,,,2015-10-05,1,,,,,フタバケンセツ,0
1828,8480002013639,登記記録の閉鎖等,0,2023-03-22,2023-03-20,有限会社ホウトク,,有限会社,徳島県,阿南市,羽ノ浦町中庄下久保１１番地,,36,204,7791101,,,2023-03-20,清算の結了等,,,2015-10-05,1,,,,,ホウトク,0
1850,9010501012096,登記記録の閉鎖等,0,2023-03-22,2023-03-17,株式会社フジ,,株式会社,東京都,台東区,花川戸１丁目５番２号,,13,106,1110033,,,2023-03-17,清算の結了等,,,2015-10-05,1,,,,,フジ,0
1854,9010503006121,登記記録の閉鎖等,0,2023-03-22,2023-01-27,合同会社Ａｃａｓｉａ,,合同会社,東京都,港区,南青山２丁目２番１５号,,13,103,1070062,,,2023-01-27,清算の結了等,,,2020-12-14,1,,,,,アカシア,0
1872,9011105004760,登記記録の閉鎖等,0,2023-03-22,2023-03-06,特定非営利活動法人ＭＥＭＯＲＯ記憶の銀行,,その他の設立登記法人,東京都,渋谷区,恵比寿２丁目３２番２２号,,13,113,1500013,,,2023-03-06,清算の結了等,,,2015-10-05,1,,,,,メモロキオクノギンコウ,0
1905,9021005010890,登記記録の閉鎖等,0,2023-03-22,2023-03-17,特定非営利活動法人ｍｉｎａｍｏ,,その他の設立登記法人,神奈川県,鎌倉市,岡本１丁目９番２５号エイトパームＢ１０２,,14,204,2470072,,,2023-03-17,清算の結了等,,,2017-03-08,1,,,,,ミナモ,0
1920,9040001077785,登記記録の閉鎖等,0,2023-03-22,2023-03-15,株式会社木巧舎,,株式会社,千葉県,市川市,市川１丁目１７番１０号,,12,203,2720034,,,2023-03-15,清算の結了等,,,2015-10-05,1,,,,,モッコウシャ,0
1922,9040001100217,登記記録の閉鎖等,0,2023-03-22,2023-03-15,株式会社アジアリエイ,,株式会社,千葉県,浦安市,入船１丁目５番２号,,12,227,2790012,,,2023-03-15,合併による解散等,3040001030114,令和５年３月１日千葉県浦安市入船一丁目５番２号株式会社リエイ（3040001030114）に合併し解散,2017-05-19,1,,,,,アジアリエイ,0
1928,9050001033515,登記記録の閉鎖等,0,2023-03-22,2023-03-09,株式会社エーアールエス,,株式会社,茨城県,高萩市,大字安良川６８３番地の１１,,08,214,3180021,,,2023-03-09,清算の結了等,,,2015-10-05,1,,,,,エーアールエス,0
1940,9090005007494,登記記録の閉鎖等,0,2023-03-22,2023-03-15,一般社団法人アモナ,,その他の設立登記法人,山梨県,甲府市,池田２丁目６番３４号,,19,201,4000062,,,2023-03-15,清算の結了等,,,2022-05-20,1,,,,,アモナ,0
1942,9100001033022,登記記録の閉鎖等,0,2023-03-22,2023-03-15,ＴＤコンサルティング株式会社,,株式会社,長野県,松本市,女鳥羽３丁目６番１０号ＳＴＥＬＬＡ２０９,,20,202,3900806,,,2023-03-15,清算の結了等,,,2020-03-24,1,,,,,ティーディーコンサルティング,0
1945,9100005002329,登記記録の閉鎖等,0,2023-03-22,2023-03-16,特定非営利活動法人さみず,,その他の設立登記法人,長野県,上水内郡飯綱町,大字倉井２７４７番地４,,20,590,3891204,,,2023-03-16,清算の結了等,,,2015-10-05,1,,,,,サミズ,0
1948,9120001004021,登記記録の閉鎖等,0,2023-03-22,2023-03-20,株式会社ニシモト,,株式会社,大阪府,大阪市住吉区,東粉浜３丁目１３番２３号,,27,120,5580051,,,2023-03-20,清算の結了等,,,2015-10-05,1,,,,,ニシモト,0
1954,9120001125362,登記記録の閉鎖等,0,2023-03-22,2023-03-16,オリエントスター株式会社,,株式会社,大阪府,大阪市中央区,日本橋１丁目８－８カネヨシビル１Ｆ,,27,128,5420073,,,2023-03-16,清算の結了等,,,2015-10-05,1,,,,,オリエントスター,0
1960,9120001178237,登記記録の閉鎖等,0,2023-03-22,2023-03-17,Ｉ＆Ｃ・ケムテック株式会社,,株式会社,大阪府,大阪市中央区,平野町３丁目４番２号ＮＣビル５階,,27,128,5410046,,,2023-03-17,清算の結了等,,,2015-10-05,1,,,,,アンドケムテック,0
1983,9180001136619,登記記録の閉鎖等,0,2023-03-22,2023-03-17,共栄熱学株式会社,,株式会社,愛知県,北名古屋市,弥勒寺西１丁目１１５番地,,23,234,4810032,,,2023-03-17,清算の結了等,,,2019-05-23,1,,,,,キョウエイネツガク,0
1997,9220001013607,登記記録の閉鎖等,0,2023-03-22,2023-03-16,山中漆器ペット樹脂食器株式会社,,株式会社,石川県,加賀市,山中温泉塚谷町イ２６８番地２,,17,206,9220111,,,2023-03-16,清算の結了等,,,2015-10-05,1,,,,,ヤマナカシッキペットジュシショッキ,0
1998,9220001018564,登記記録の閉鎖等,0,2023-03-22,2023-03-16,株式会社日本グルメレストラン,,株式会社,石川県,白山市,倉光１０丁目１４６番地,,17,210,9240865,,,2023-03-16,合併による解散等,1220001014356,令和５年２月１日石川県白山市横江町３０７番株式会社ループシステム（1220001014356）に合併し解散,2015-10-05,1,,,,,ニホングルメレストラン,0
2005,9240001052470,登記記録の閉鎖等,0,2023-03-22,2023-03-20,株式会社喰旨,,株式会社,広島県,広島市中区,宝町９番８号,,34,101,7300044,,,2023-03-20,清算の結了等,,,2018-03-02,1,,,,,,0
2026,9350002006290,登記記録の閉鎖等,0,2023-03-22,2023-03-15,有限会社工藤商事,,有限会社,宮崎県,宮崎市,高岡町浦之名４５５２番地１５,,45,201,8802323,,,2023-03-15,清算の結了等,,,2015-10-05,1,,,,,クドウショウジ,0
2048,9430001088025,登記記録の閉鎖等,0,2023-03-22,2023-03-15,株式会社カブスル,,株式会社,北海道,札幌市厚別区,厚別北六条５丁目１１番７号,,01,108,0040076,,,2023-03-15,合併による解散等,5011201013586,令和５年３月１４日東京都中野区本町一丁目３２番２号株式会社イード（5011201013586）に合併し解散,2022-12-12,1,,,,,カブスル,0
