sequenceNumber,corporateNumber,process,correct,updateDate,changeDate,name,nameImageId,kind,prefectureName,cityName,streetNumber,addressImageId,prefectureCode,cityCode,postCode,addressOutside,addressOutsideImageId,closeDate,closeCause,successorCorporateNumber,changeCause,assignmentDate,latest,enName,enPrefectureName,enCityName,enAddressOutside,furigana,hihyoji
6,1010001200480,登記記録の閉鎖等,0,2023-06-16,2023-06-14,株式会社ベルワークス,,株式会社,東京都,新宿区,新宿４丁目３番１５号,,13,104,1600022,,,2023-06-14,清算の結了等,,,2019-04-26,1,,,,,ベルワークス,0
9,1010003033796,登記記録の閉鎖等,0,2023-06-16,2023-06-09,合同会社東京レジデンシャル３,,合同会社,東京都,中央区,日本橋１丁目４番１号,,13,102,1030027,,,2023-06-09,清算の結了等,,,2020-12-22,1,,,,,トウキョウレジデンシャルスリー,0
13,1010401109735,登記記録の閉鎖等,0,2023-06-16,2023-06-02,ＪＰＡ第１７号株式会社,,株式会社,東京都,港区,虎ノ門２丁目９番１１号,,13,103,1050001,,,2023-06-02,清算の結了等,,,2015-10-05,1,,,,,ジェイピーエーダイジュウナナ,0
25,1010601000966,登記記録の閉鎖等,0,2023-06-16,2023-06-13,株式会社ウヤマ,,株式会社,東京都,江東区,新大橋３丁目１３番８号,,13,108,1350007,,,2023-06-13,清算の結了等,,,2015-10-05,1,,,,,ウヤマ,0
28,1010702005699,登記記録の閉鎖等,0,2023-06-16,2023-06-13,有限会社利根製作所,,有限会社,東京都,品川区,中延４丁目７番９号,,13,109,1420053,,,2023-06-13,清算の結了等,,,2015-10-05,1,,,,,トネセイサクショ,0
31,1010801017678,登記記録の閉鎖等,0,2023-06-16,2023-06-12,株式会社クローブ,,株式会社,東京都,大田区,山王２丁目３４番１８号,,13,111,1430023,,,2023-06-12,清算の結了等,,,2015-10-05,1,,,,,クローブ,0
70,1011601004098,登記記録の閉鎖等,0,2023-06-16,2023-06-12,株式会社たかつか建築設計事務所,,株式会社,東京都,練馬区,西大泉６丁目１３番４２号,,13,120,1780065,,,2023-06-12,清算の結了等,,,2015-10-05,1,,,,,タカツカケンチクセッケイジムショ,0
78,1011801028657,登記記録の閉鎖等,0,2023-06-16,2023-06-12,株式会社蓮華,,株式会社,東京都,台東区,北上野２丁目１番１３号,,13,106,1100014,,,2023-06-12,清算の結了等,,,2015-10-05,1,,,,,レンカ,0
86,1012801001546,登記記録の閉鎖等,0,2023-06-16,2023-06-09,株式会社マユール,,株式会社,東京都,立川市,曙町２丁目１６番６号テクノビル,00058710,13,202,1900012,,,2023-06-09,清算の結了等,,,2015-10-05,1,,,,,マユール,0
109,1030001054058,登記記録の閉鎖等,0,2023-06-16,2023-05-31,株式会社オクヤマ,,株式会社,埼玉県,さいたま市大宮区,土手町３丁目１６５番地７,,11,103,3300801,,,2023-05-31,清算の結了等,,,2015-10-05,1,,,,,オクヤマ,0
130,1060002003275,登記記録の閉鎖等,0,2023-06-16,2023-06-06,有限会社清原製作所,,有限会社,栃木県,宇都宮市,陽東４丁目１８番５号,,09,201,3210904,,,2023-06-06,清算の結了等,,,2015-10-05,1,,,,,キヨハラセイサクショ,0
137,1070002036373,登記記録の閉鎖等,0,2023-06-16,2023-06-13,有限会社草津フード,,有限会社,群馬県,吾妻郡草津町,大字草津６０７番地の１２,,10,426,3771711,,,2023-06-13,清算の結了等,,,2015-10-05,1,,,,,クサツフード,0
186,1160002010856,登記記録の閉鎖等,0,2023-06-16,2023-06-14,有限会社ミナミイビジネス,,有限会社,滋賀県,東近江市,青葉町３番２５号,,25,213,5270039,,,2023-06-14,清算の結了等,,,2015-10-05,1,,,,,ミナミイビジネス,0
188,1160005004302,登記記録の閉鎖等,0,2023-06-16,2023-06-12,行信寺,,その他の設立登記法人,滋賀県,長浜市,高月町馬上１１８５番地,,25,203,5290223,,,2023-06-12,清算の結了等,,,2015-10-05,1,,,,,ギョウシンジ,0
198,1180001140264,登記記録の閉鎖等,0,2023-06-16,2023-06-13,佑伊不動産株式会社,,株式会社,愛知県,名古屋市南区,内田橋２丁目４番２３号,,23,112,4570862,,,2023-06-13,清算の結了等,,,2020-03-03,1,,,,,ユイフドウサン,0
203,1180002017998,登記記録の閉鎖等,0,2023-06-16,2023-06-12,有限会社小塚フードセンター,,有限会社,愛知県,名古屋市中川区,花池町２丁目３４番地,,23,110,4540902,,,2023-06-12,清算の結了等,,,2015-10-05,1,,,,,コヅカフードセンター,0
211,1190002008245,登記記録の閉鎖等,0,2023-06-16,2023-06-12,有限会社イスズ,,有限会社,三重県,伊勢市,小俣町湯田５１６番地１０,,24,203,5190506,,,2023-06-12,清算の結了等,,,2015-10-05,1,,,,,イスズ,0
214,1200001017831,登記記録の閉鎖等,0,2023-06-16,2023-06-12,株式会社勝野設備,,株式会社,岐阜県,可児市,長洞４９０番地,,21,214,5090254,,,2023-06-12,清算の結了等,,,2015-10-05,1,,,,,カツノセツビ,0
228,1270001006893,登記記録の閉鎖等,0,2023-06-16,2023-06-09,株式会社アテンドプラス,,株式会社,鳥取県,鳥取市,吉方温泉４丁目７２７番地,,31,201,6800841,,,2023-06-09,清算の結了等,,,2016-03-07,1,,,,,アテンドプラス,0
236,1290005016714,登記記録の閉鎖等,0,2023-06-16,2023-06-05,特定非営利活動法人福岡遺品整理協会,,その他の設立登記法人,福岡県,福岡市東区,香椎５丁目１９９６番８７,,40,131,8130011,,,2023-06-05,清算の結了等,,,2017-12-25,1,,,,,フクオカイヒンセイリキョウカイ,0
273,1390005005954,登記記録の閉鎖等,0,2023-06-16,2023-06-12,医療法人社団明山会,,その他の設立登記法人,山形県,東根市,大森２丁目３番６号,,06,211,9993712,,,2023-06-12,合併による解散等,4011405000068,令和５年６月５日東京都板橋区本町３６番３号医療法人財団明理会（4011405000068）に合併し解散,2015-10-05,1,,,,,メイザンカイ,0
278,1410002004221,登記記録の閉鎖等,0,2023-06-16,2023-06-12,有限会社沓澤会計事務所,,有限会社,秋田県,秋田市,楢山南中町６番４号,,05,201,0100022,,,2023-06-12,清算の結了等,,,2015-10-05,1,,,,,クツザワカイケイジムショ,0
286,1490002010229,登記記録の閉鎖等,0,2023-06-16,2023-06-14,有限会社森林環境開発,,有限会社,高知県,吾川郡仁淀川町,土居甲６９２番地１,,39,387,7811606,,,2023-06-14,清算の結了等,,,2015-10-05,1,,,,,シンリンカンキョウカイハツ,0
294,1700150106491,登記記録の閉鎖等,0,2023-06-16,2023-02-28,Ｔａｐ　Ｆｌａｒｅ,,その他,東京都,江戸川区,鹿骨５丁目１８－２,,13,123,1330073,,,2023-02-28,その他の清算の結了等,,,2022-01-05,1,,,,,タツプフレア,0
315,2010401109734,登記記録の閉鎖等,0,2023-06-16,2023-06-02,ＪＰＡ第１６号株式会社,,株式会社,東京都,港区,虎ノ門２丁目９番１１号,,13,103,1050001,,,2023-06-02,清算の結了等,,,2015-10-05,1,,,,,ジェイピーエーダイジュウロクゴウ,0
316,2010401120708,登記記録の閉鎖等,0,2023-06-16,2023-06-02,株式会社ＥＬＬＥＲＥＶＥ,,株式会社,東京都,港区,南青山２丁目２番１５号ウィン青山９４２,,13,103,1070062,,,2023-06-02,清算の結了等,,,2015-10-05,1,,,,,エルレーブ,0
322,2010602031976,登記記録の閉鎖等,0,2023-06-16,2023-06-08,有限会社吉川創工,,有限会社,東京都,江東区,冬木１０番１０号,,13,108,1350041,,,2023-06-08,清算の結了等,,,2015-10-05,1,,,,,ヨシカワソウコウ,0
326,2010901045611,登記記録の閉鎖等,0,2023-06-16,2023-06-14,Ｓｏｌｆｅｇｇｉｏ　Ｐａｒｔｎｅｒｓ株式会社,,株式会社,東京都,世田谷区,奥沢７丁目１２番８号,,13,112,1580083,,,2023-06-14,清算の結了等,,,2020-01-27,1,,,,,ソルフェジオパートナーズ,0
338,2011101048743,登記記録の閉鎖等,0,2023-06-16,2023-06-15,株式会社翔山亭,,株式会社,東京都,新宿区,神楽坂３丁目１番地,,13,104,1620825,,,2023-06-15,清算の結了等,,,2015-10-05,1,,,,,,0
366,2013301035686,登記記録の閉鎖等,0,2023-06-16,2023-06-09,観世株式会社,,株式会社,東京都,豊島区,西池袋４丁目２８番６号,,13,116,1710021,,,2023-06-09,清算の結了等,,,2015-10-05,1,,,,,カンセ,0
378,2021001043216,登記記録の閉鎖等,0,2023-06-16,2023-06-14,株式会社ｅ‐ｃｒｅａｔｅ,,株式会社,徳島県,徳島市,南昭和町５丁目２６番地２中山ビル１番館１０１,,36,201,7700944,,,2023-06-14,清算の結了等,,,2015-10-05,1,,,,,イークリエイト,0
393,2030002021683,登記記録の閉鎖等,0,2023-06-16,2023-05-31,有限会社富士総業,,有限会社,埼玉県,さいたま市岩槻区,大字南下新井４０６番地の１７０,,11,110,3390032,,,2023-05-31,清算の結了等,,,2015-10-05,1,,,,,フジソウギョウ,0
433,2090002012198,登記記録の閉鎖等,0,2023-06-16,2023-06-06,有限会社タイヤショップ富士,,有限会社,山梨県,富士吉田市,下吉田５２５６番地,,19,202,4030004,,,2023-06-06,清算の結了等,,,2015-10-05,1,,,,,タイヤショップフジ,0
435,2100001022023,登記記録の閉鎖等,0,2023-06-16,2023-06-08,株式会社リ・クレアーレ,,株式会社,長野県,伊那市,東春近５５３－１,,20,209,3994432,,,2023-06-08,清算の結了等,,,2015-10-05,1,,,,,リクレアーレ,0
438,2100005012508,登記記録の閉鎖等,0,2023-06-16,2023-06-02,一般社団法人Ｆｉｅｌｄ　Ａｃｔｉｖｉｔｙ＆Ｄｉｓａｓｔｅｒ　Ｍａｎａｇｅｍｅｎｔ,,その他の設立登記法人,長野県,下高井郡山ノ内町,大字平穏７１４８番地丸池ホテル内,,20,561,3810401,,,2023-06-02,清算の結了等,,,2020-01-08,1,,,,,フィールドアクティビティアンドディザスターマネジメント,0
441,2120001138214,登記記録の閉鎖等,0,2023-06-16,2023-06-15,株式会社保険の見直し,,株式会社,大阪府,大阪市北区,天神橋４丁目７番１３号,,27,127,5300041,,,2023-06-15,清算の結了等,,,2015-10-05,1,,,,,ホケンノミナオシ,0
464,2120101006139,登記記録の閉鎖等,0,2023-06-16,2023-06-14,株式会社藤原商店,,株式会社,大阪府,堺市中区,小阪７０２番地,,27,142,5998276,,,2023-06-14,清算の結了等,,,2015-10-05,1,,,,,フジワラショウテン,0
466,2120102019890,登記記録の閉鎖等,0,2023-06-16,2023-06-13,有限会社サムズ,,有限会社,大阪府,河内長野市,楠ケ丘３７番１７号,,27,216,5860039,,,2023-06-13,清算の結了等,,,2015-10-05,1,,,,,サムズ,0
467,2120102021599,登記記録の閉鎖等,0,2023-06-16,2023-06-14,有限会社丸伊石油店,,有限会社,大阪府,岸和田市,中井町２丁目７番７号,,27,202,5960003,,,2023-06-14,清算の結了等,,,2015-10-05,1,,,,,マルイセキユテン,0
474,2130001042811,登記記録の閉鎖等,0,2023-06-16,2023-06-07,吉由織物株式会社,,株式会社,京都府,京丹後市,大宮町河辺２３３２番地,,26,212,6292502,,,2023-06-07,清算の結了等,,,2015-10-05,1,,,,,ヨシヨシオリモノ,0
482,2140001097243,登記記録の閉鎖等,0,2023-06-16,2023-06-14,株式会社グランコスメティックス,,株式会社,大阪府,大阪市西区,南堀江１丁目７番４号マルイト南堀江パロスビル７階,,27,106,5500015,,,2023-06-14,清算の結了等,,,2015-10-05,1,,,,,グランコスメティックス,0
506,2180002060551,登記記録の閉鎖等,0,2023-06-16,2023-06-12,有限会社エムズ,,有限会社,愛知県,名古屋市天白区,中平４丁目１３０７番地,,23,116,4680014,,,2023-06-12,清算の結了等,,,2015-10-05,1,,,,,エムズ,0
518,2190005011146,登記記録の閉鎖等,0,2023-06-16,2023-06-12,農事組合法人曽原新田集落営農組合,,その他の設立登記法人,三重県,松阪市,曽原町１９５３番地,,24,204,5152112,,,2023-06-12,清算の結了等,,,2018-01-19,1,,,,,ソハラシンデンシュウラクエイノウクミアイ,0
524,2240001002077,登記記録の閉鎖等,0,2023-06-16,2023-06-02,関西電機株式会社,,株式会社,広島県,広島市安佐南区,緑井６丁目１４番９号,,34,105,7310103,,,2023-06-02,清算の結了等,,,2023-01-12,1,,,,,カンサイデンキ,0
528,2240002025242,登記記録の閉鎖等,0,2023-06-16,2023-06-14,有限会社Ｍｅｄｉｏｎ,,有限会社,広島県,安芸郡坂町,坂東１丁目２番１５号,,34,309,7314313,,,2023-06-14,清算の結了等,,,2015-10-05,1,,,,,メディオン,0
541,2290002029874,登記記録の閉鎖等,0,2023-06-16,2023-06-12,有限会社ビリオントップ,,有限会社,福岡県,福岡市城南区,東油山４丁目７番２号ロマネスク東油山アンベリールＡ棟１２２１号,,40,136,8140155,,,2023-06-12,清算の結了等,,,2015-10-05,1,,,,,ビリオントップ,0
563,2370002016815,登記記録の閉鎖等,0,2023-06-16,2023-06-14,有限会社マネジメント・インターゼットテクノ,,有限会社,宮城県,仙台市泉区,将監１１丁目２番１９号,,04,105,9813132,,,2023-06-14,清算の結了等,,,2015-10-05,1,,,,,,0
577,2430002000837,登記記録の閉鎖等,0,2023-06-16,2023-06-14,有限会社旭プレート製作所,,有限会社,北海道,札幌市豊平区,月寒西一条１０丁目１番８号,,01,105,0620021,,,2023-06-14,清算の結了等,,,2015-10-05,1,,,,,,0
579,2430005001816,登記記録の閉鎖等,0,2023-06-16,2023-06-01,医療法人社団誠心会,,その他の設立登記法人,北海道,札幌市東区,北十五条東１８丁目５番１５号,,01,103,0650015,,,2023-06-01,合併による解散等,6430005001515,令和５年６月１日札幌市東区北四十九条東十六丁目８番１号医療法人札幌ハートセンター（6430005001515）に合併し解散,2015-10-05,1,,,,,セイシンカイ,0
580,2430005011170,登記記録の閉鎖等,0,2023-06-16,2023-06-14,一般社団法人ウェルフェアサードライフ協会,,その他の設立登記法人,北海道,札幌市東区,北十六条東８丁目１番２号,,01,103,0650016,,,2023-06-14,清算の結了等,,,2015-10-05,1,,,,,,0
594,2700150046506,登記記録の閉鎖等,0,2023-06-16,2022-09-30,榊原営農実行組合,,その他,三重県,津市,榊原町５１０４,,24,201,5141251,,,2022-09-30,その他の清算の結了等,,,2015-10-09,1,,,,,サカキバラエイノウジツコウクミアイ,0
611,3010005014982,登記記録の閉鎖等,0,2023-06-16,2023-06-12,天理教樫立分教会,,その他の設立登記法人,東京都,八丈島八丈町,樫立１８４４番地,,13,401,1001621,,,2023-06-12,合併による解散等,3080105000612,令和５年６月２日静岡県裾野市茶畑２０５番地天理教佐野原大教会（3080105000612）に合併し解散,2015-10-05,1,,,,,テンリキョウカシダテブンキョウカイ,0
617,3010403008000,登記記録の閉鎖等,0,2023-06-16,2023-06-02,合同会社ＣＬＦ第６号,,合同会社,東京都,港区,虎ノ門２丁目９番１１号,,13,103,1050001,,,2023-06-02,清算の結了等,,,2015-10-05,1,,,,,シーエルエフダイロクゴウ,0
629,3010901036989,登記記録の閉鎖等,0,2023-06-16,2023-06-13,株式会社尚ｉｎｇ,,株式会社,東京都,世田谷区,新町２丁目１０－１２－２０１,,13,112,1540014,,,2023-06-13,清算の結了等,,,2015-10-30,1,,,,,ショウイング,0
647,3011301011888,登記記録の閉鎖等,0,2023-06-16,2023-06-08,株式会社酒井プロデュースオフィス,,株式会社,東京都,杉並区,善福寺３丁目２０番２０号,,13,115,1670041,,,2023-06-08,清算の結了等,,,2015-10-05,1,,,,,サカイプロデュースオフィス,0
708,3050003004949,登記記録の閉鎖等,0,2023-06-16,2023-06-09,合同会社光技建,,合同会社,茨城県,下妻市,村岡７１６番地,,08,210,3040824,,,2023-06-09,清算の結了等,,,2019-12-10,1,,,,,ヒカリギケン,0
709,3050005002083,登記記録の閉鎖等,0,2023-06-16,2023-06-12,瓜連農事組合法人,,その他の設立登記法人,茨城県,那珂市,瓜連１３６３番地４,,08,226,3192102,,,2023-06-12,清算の結了等,,,2015-10-05,1,,,,,ウリヅラ,0
718,3080001017289,登記記録の閉鎖等,0,2023-06-16,2023-06-14,イシガミ工業株式会社,,株式会社,静岡県,藤枝市,高洲１丁目８番１７号,,22,214,4260046,,,2023-06-14,清算の結了等,,,2015-10-05,1,,,,,イシガミコウギョウ,0
722,3080401024389,登記記録の閉鎖等,0,2023-06-16,2023-06-13,株式会社Ｈａｎａｂｕｓａ,,株式会社,静岡県,掛川市,和光３丁目３番地の３,,22,213,4360338,,,2023-06-13,清算の結了等,,,2020-07-06,1,,,,,ハナブサ,0
723,3080402000232,登記記録の閉鎖等,0,2023-06-16,2023-06-15,有限会社アイワ設備,,有限会社,静岡県,浜松市中区,和合町２３６番地の１１,,22,131,4338125,,,2023-06-15,清算の結了等,,,2015-10-05,1,,,,,,0
730,3110001015314,登記記録の閉鎖等,0,2023-06-16,2023-06-12,株式会社Ｒｏｃｏ　ｏｎ　ｔｈｅ　ｒｕｎ,,株式会社,新潟県,加茂市,新栄町３番３号,,15,209,9591381,,,2023-06-12,清算の結了等,,,2015-10-05,1,,,,,ロコオンザラン,0
731,3110002005999,登記記録の閉鎖等,0,2023-06-16,2023-06-06,有限会社本田,,有限会社,新潟県,新潟市中央区,古町通５番町５８４番地,,15,103,9518063,,,2023-06-06,清算の結了等,,,2015-10-05,1,,,,,ホンダ,0
760,3130003004890,登記記録の閉鎖等,0,2023-06-16,2023-06-14,ワイズ合同会社,,合同会社,京都府,京都市中京区,西ノ京中御門東町７１－１２,,26,104,6048471,,,2023-06-14,清算の結了等,,,2017-01-11,1,,,,,ワイズ,0
776,3180001018459,登記記録の閉鎖等,0,2023-06-16,2023-06-13,株式会社杉浦,,株式会社,愛知県,名古屋市東区,東大曽根町３０番５号,,23,102,4610022,,,2023-06-13,清算の結了等,,,2015-10-05,1,,,,,スギウラ,0
779,3180001093634,登記記録の閉鎖等,0,2023-06-16,2023-06-08,株式会社メッツォ,,株式会社,愛知県,半田市,昭和町２丁目２８番地,,23,205,4750922,,,2023-06-08,合併による解散等,7180001091997,令和５年６月１日愛知県半田市出口町二丁目２４７番地株式会社プレスト（7180001091997）に合併し解散,2015-10-05,1,,,,,メッツォ,0
782,3180001141921,登記記録の閉鎖等,0,2023-06-16,2023-06-14,株式会社ネオ,,株式会社,愛知県,名古屋市西区,牛島町６番１号名古屋ルーセントタワー（４０階）,,23,104,4510046,,,2023-06-14,清算の結了等,,,2020-07-08,1,,,,,ネオ,0
785,3180002068585,登記記録の閉鎖等,0,2023-06-16,2023-06-13,有限会社イワタ製作所,,有限会社,愛知県,小牧市,大字下末１３４８番地の３,,23,219,4850825,,,2023-06-13,清算の結了等,,,2015-10-05,1,,,,,イワタセイサクジョ,0
812,3260002008401,登記記録の閉鎖等,0,2023-06-16,2023-06-14,有限会社ヒロネジ機工,,有限会社,岡山県,岡山市中区,藤崎４０７番地の１８,,33,102,7028006,,,2023-06-14,清算の結了等,,,2015-10-05,1,,,,,,0
820,3290001067148,登記記録の閉鎖等,0,2023-06-16,2023-06-09,株式会社ＮＬＰ九州,,株式会社,福岡県,福岡市博多区,博多駅前３丁目８番２０号ヤシマ博多駅前ビル４階,,40,132,8120011,,,2023-06-09,清算の結了等,,,2015-10-05,1,,,,,エヌエルピー,0
825,3290803003614,登記記録の閉鎖等,0,2023-06-16,2023-06-14,合同会社リタの家,,合同会社,福岡県,北九州市小倉北区,霧ケ丘２丁目１４番２号,,40,106,8020052,,,2023-06-14,清算の結了等,,,2020-08-27,1,,,,,リタノイエ,0
827,3310001014659,登記記録の閉鎖等,0,2023-06-16,2023-06-12,株式会社上建,,株式会社,長崎県,北松浦郡佐々町,羽須和免２５６番地１３,,42,391,8570341,,,2023-06-12,清算の結了等,,,2017-01-11,1,,,,,ウエケン,0
831,3330001026280,登記記録の閉鎖等,0,2023-06-16,2023-06-12,株式会社ｗｉＮＫ,,株式会社,熊本県,熊本市中央区,下通１丁目１１－１１ＳＡＫＵＲＡＩＮＫＯＵＲＩＮＪＩビル６Ｆ,,43,101,8600807,,,2023-06-12,清算の結了等,,,2019-04-10,1,,,,,ウィンク,0
832,3330003008178,登記記録の閉鎖等,0,2023-06-16,2023-06-08,合同会社Ｋ－４,,合同会社,熊本県,熊本市中央区,九品寺３丁目１５番４号,,43,101,8620976,,,2023-06-08,合併による解散等,5330003005339,令和５年６月１日熊本市中央区九品寺三丁目１５番４号合同会社九品寺六号（5330003005339）に合併し解散,2019-12-04,1,,,,,ケイフォー,0
842,3380001012838,登記記録の閉鎖等,0,2023-06-16,2023-06-12,株式会社コクセイ宝石,,株式会社,福島県,いわき市,平字倉前１０９番地の１０,,07,204,9708026,,,2023-06-12,清算の結了等,,,2015-10-05,1,,,,,コクセイホウセキ,0
849,3420001016058,登記記録の閉鎖等,0,2023-06-16,2023-06-12,ＡＨ環境株式会社,,株式会社,青森県,東津軽郡平内町,大字口広字水須１１番地１１５,,02,301,0393342,,,2023-06-12,清算の結了等,,,2018-02-07,1,,,,,エーエイチカンキョウ,0
854,3460302001671,登記記録の閉鎖等,0,2023-06-16,2023-06-15,有限会社黎紅堂,,有限会社,北海道,北見市,緑町１丁目１番２号,,01,208,0900055,,,2023-06-15,清算の結了等,,,2015-10-05,1,,,,,レイコウドウ,0
855,3470005004913,登記記録の閉鎖等,0,2023-06-16,2023-06-02,協同組合小豆島ショッピングセンター,,その他の設立登記法人,香川県,小豆郡土庄町,淵崎甲２０４６番地５,,37,322,7614121,,,2023-06-02,清算の結了等,,,2015-10-05,1,,,,,,0
856,3490001003413,登記記録の閉鎖等,0,2023-06-16,2023-06-01,株式会社クリーク,,株式会社,高知県,高知市,神田１６７６番地,,39,201,7808040,,,2023-06-01,合併による解散等,8490001004547,令和５年６月１日高知市はりまや町一丁目７番７号４階株式会社クリークレンタリース（8490001004547）に合併し解散,2015-10-05,1,,,,,クリーク,0
870,4010001225707,登記記録の閉鎖等,0,2023-06-16,2023-06-09,株式会社ＭＥＳＨ,,株式会社,東京都,中央区,日本橋室町２丁目３番１号コレド室町２地下１階Ｂ０４,,13,102,1030022,,,2023-06-09,清算の結了等,,,2022-04-11,1,,,,,メッシュ,0
887,4010602026652,登記記録の閉鎖等,0,2023-06-16,2023-06-13,有限会社江東ヘルパーステーシヨン,,有限会社,東京都,江東区,南砂２丁目３７番１０－４０７号,,13,108,1360076,,,2023-06-13,清算の結了等,,,2015-10-05,1,,,,,コウトウヘルパーステーション,0
893,4010901039990,登記記録の閉鎖等,0,2023-06-16,2023-06-01,株式会社Ｐｅｒｉｏｄｓ,,株式会社,埼玉県,さいたま市見沼区,大字蓮沼１４７２番地１８,,11,104,3370015,,,2023-06-01,清算の結了等,,,2017-04-25,1,,,,,ピリオド,0
902,4011001121714,登記記録の閉鎖等,0,2023-06-16,2023-06-07,クリナリーコネクト株式会社,,株式会社,東京都,渋谷区,笹塚２丁目２番５－２０２号,,13,113,1510073,,,2023-06-07,清算の結了等,,,2018-04-17,1,,,,,クリナリーコネクト,0
906,4011003012457,登記記録の閉鎖等,0,2023-06-16,2023-06-08,合同会社Ｓｍｏｏｔｈ,,合同会社,東京都,渋谷区,道玄坂２丁目１０番１０号世界堂ビル２階,,13,113,1500043,,,2023-06-08,清算の結了等,,,2021-03-22,1,,,,,スムース,0
956,4030001062289,登記記録の閉鎖等,0,2023-06-16,2023-05-31,株式会社プロスパ,,株式会社,埼玉県,北本市,大字下石戸下６５８番地２,,11,233,3640023,,,2023-05-31,清算の結了等,,,2015-10-05,1,,,,,プロスパ,0
962,4040001047545,登記記録の閉鎖等,0,2023-06-16,2023-06-09,株式会社ウチダ,,株式会社,千葉県,八街市,朝日字松里２２２番地３,,12,230,2891101,,,2023-06-09,合併による解散等,9010601001197,令和５年６月１日東京都江東区大島三丁目９番２１号株式会社打田製作所（9010601001197）に合併し解散,2015-10-05,1,,,,,ウチダ,0
994,4080102015389,登記記録の閉鎖等,0,2023-06-16,2023-06-08,有限会社ライフエレクトロニクス岳南,,有限会社,静岡県,富士市,吉原２丁目９番２５号,,22,210,4170051,,,2023-06-08,清算の結了等,,,2015-10-05,1,,,,,ライフエレクトロニクスガクナン,0
997,4100002003813,登記記録の閉鎖等,0,2023-06-16,2023-06-08,有限会社中村製作所,,有限会社,長野県,長野市,大字川合新田８０１番地３,,20,201,3800913,,,2023-06-08,清算の結了等,,,2015-10-05,1,,,,,ナカムラセイサクジョ,0
998,4100002026070,登記記録の閉鎖等,0,2023-06-16,2023-06-08,有限会社アルプスビル,,有限会社,長野県,大町市,大町５３９３番地１,,20,212,3980002,,,2023-06-08,清算の結了等,,,2015-10-05,1,,,,,アルプスビル,0
1000,4100005009205,登記記録の閉鎖等,0,2023-06-16,2023-06-01,税理士法人さくら中央会計,,その他の設立登記法人,長野県,上伊那郡宮田村,１５７番地,,20,388,3994301,,,2023-06-01,合併による解散等,3100005002086,令和５年６月１日長野市新田町１５０８番地２明治安田生命長野ビル朝日税理士法人（3100005002086）に合併し解散,2015-10-05,1,,,,,サクラチュウオウカイケイ,0
1025,4130003004659,登記記録の閉鎖等,0,2023-06-16,2023-06-12,合同会社パインズレジデンシャル,,合同会社,京都府,福知山市,字川北２５３番地,,26,201,6200004,,,2023-06-12,合併による解散等,4030003000924,令和５年５月２９日さいたま市浦和区元町三丁目２３番６号株式会社パインズホーム（4030003000924）に合併し解散,2016-05-31,1,,,,,パインズレジデンシャル,0
1048,4180001135880,登記記録の閉鎖等,0,2023-06-16,2023-06-13,株式会社Ｆｎａｖｉ,,株式会社,愛知県,名古屋市西区,名駅２丁目３４－１７セントラル名古屋１１０１,,23,104,4510045,,,2023-06-13,清算の結了等,,,2019-03-28,1,,,,,エフナビ,0
1053,4180002013144,登記記録の閉鎖等,0,2023-06-16,2023-06-13,有限会社飯島化工,,有限会社,愛知県,名古屋市南区,芝町１９７番地の３,,23,112,4570023,,,2023-06-13,清算の結了等,,,2015-10-05,1,,,,,イイジマカコウ,0
1055,4180302017885,登記記録の閉鎖等,0,2023-06-16,2023-06-08,有限会社アサカワ・エンジニアリング,,有限会社,愛知県,刈谷市,半城土中町１丁目１７番地１８,,23,210,4480805,,,2023-06-08,清算の結了等,,,2015-10-05,1,,,,,アサカワエンジニアリング,0
1056,4190001010447,登記記録の閉鎖等,0,2023-06-16,2023-06-12,株式会社日本ショッピングサービス,,株式会社,三重県,松阪市,新町７９９番地,,24,204,5150075,,,2023-06-12,清算の結了等,,,2015-10-05,1,,,,,ニホンショッピングサービス,0
1060,4200002008075,登記記録の閉鎖等,0,2023-06-16,2023-06-12,有限会社山晴屋,,有限会社,岐阜県,各務原市,各務山の前町３丁目２３番地の８,,21,213,5090105,,,2023-06-12,清算の結了等,,,2015-10-05,1,,,,,ヤマハルヤ,0
1075,4260002012261,登記記録の閉鎖等,0,2023-06-16,2023-06-14,有限会社アトラス,,有限会社,岡山県,赤磐市,山陽２丁目６番２５号,,33,213,7090827,,,2023-06-14,清算の結了等,,,2015-10-05,1,,,,,アトラス,0
1086,4290003007638,登記記録の閉鎖等,0,2023-06-16,2023-06-13,合同会社有機,,合同会社,福岡県,福岡市博多区,博多駅中央街５番１１号,,40,132,8120012,,,2023-06-13,清算の結了等,,,2017-11-22,1,,,,,ユウキ,0
1090,4300002002497,登記記録の閉鎖等,0,2023-06-16,2023-06-08,有限会社サネマツ,,有限会社,佐賀県,神埼市,千代田町餘江１４５９番地２,,41,210,8420054,,,2023-06-08,清算の結了等,,,2015-10-05,1,,,,,サネマツ,0
1095,4330002010159,登記記録の閉鎖等,0,2023-06-16,2023-06-12,水野工務店有限会社,,有限会社,熊本県,熊本市南区,川口町４４２１番地１,,43,104,8614123,,,2023-06-12,清算の結了等,,,2015-10-05,1,,,,,ミズノコウムテン,0
1103,4370003004750,登記記録の閉鎖等,0,2023-06-16,2023-06-15,合同会社ＺＥＲＯ,,合同会社,宮城県,仙台市太白区,茂庭字人来田西５３－４,,04,104,9820251,,,2023-06-15,清算の結了等,,,2020-03-11,1,,,,,,0
1129,4700150057237,登記記録の閉鎖等,0,2023-06-16,2023-01-31,東予スタンプ会,,その他,愛媛県,西条市,三津屋１６８－１,,38,206,7991351,,,2023-01-31,その他の清算の結了等,,,2015-10-09,1,,,,,トウヨスタンプカイ,0
1146,5010003034361,登記記録の閉鎖等,0,2023-06-16,2023-06-12,Ｊ＆Ｂ合同会社,,合同会社,東京都,文京区,大塚５丁目１７番６号,,13,105,1120012,,,2023-06-12,清算の結了等,,,2021-03-11,1,,,,,ジェーアンドビー,0
1161,5010801008244,登記記録の閉鎖等,0,2023-06-16,2023-06-09,藤堂インターナショナル株式会社,,株式会社,東京都,大田区,東矢口３丁目３０番１２号,,13,111,1460094,,,2023-06-09,清算の結了等,,,2015-10-05,1,,,,,,0
1168,5010901046441,登記記録の閉鎖等,0,2023-06-16,2023-06-13,株式会社ＮＹＣ,,株式会社,東京都,世田谷区,千歳台６丁目１６番５－４０５号,,13,112,1570071,,,2023-06-13,合併による解散等,4010901036880,令和５年６月１日東京都港区南青山二丁目２番１５－９１４号株式会社吉田企画（4010901036880）に合併し解散,2020-06-19,1,,,,,エヌワイシー,0
1171,5011001095271,登記記録の閉鎖等,0,2023-06-16,2023-06-09,株式会社７ｇｏｇｏ,,株式会社,東京都,渋谷区,宇田川町４０番１号,,13,113,1500042,,,2023-06-09,合併による解散等,4011001034156,令和５年６月１日東京都渋谷区宇田川町４０番１号株式会社サイバーエージェント（4011001034156）に合併し解散,2015-10-05,1,,,,,ナナゴーゴー,0
1172,5011001109403,登記記録の閉鎖等,0,2023-06-16,2023-06-02,トップスター株式会社,,株式会社,東京都,港区,高輪２丁目１３－１,,13,103,1080074,,,2023-06-02,清算の結了等,,,2016-02-08,1,,,,,トップスター,0
1210,5012802010443,登記記録の閉鎖等,0,2023-06-16,2023-06-12,有限会社ＮＡＮＡコーポレーション,,有限会社,東京都,立川市,若葉町１丁目２４番地の９３,,13,202,1900001,,,2023-06-12,清算の結了等,,,2015-10-05,1,,,,,ナナコーポレーション,0
1221,5020002027638,登記記録の閉鎖等,0,2023-06-16,2023-06-12,有限会社日栄,,有限会社,神奈川県,横浜市神奈川区,西神奈川１丁目３番地の６コーポフジ２０３号,,14,102,2210822,,,2023-06-12,清算の結了等,,,2015-10-05,1,,,,,ニチエイ,0
1223,5020002060259,登記記録の閉鎖等,0,2023-06-16,2023-06-08,有限会社いずみ住研,,有限会社,神奈川県,横浜市泉区,和泉町４１９６番地の１７,,14,116,2450016,,,2023-06-08,清算の結了等,,,2015-10-05,1,,,,,イズミジュウケン,0
1234,5030001085124,登記記録の閉鎖等,0,2023-06-16,2023-06-01,株式会社ノダ企画,,株式会社,埼玉県,熊谷市,別府４丁目２２９番地,,11,202,3600856,,,2023-06-01,清算の結了等,,,2015-10-05,1,,,,,ノダキカク,0
1236,5030002012507,登記記録の閉鎖等,0,2023-06-16,2023-06-01,有限会社松正電器,,有限会社,埼玉県,さいたま市桜区,田島４丁目１７番４号,,11,106,3380837,,,2023-06-01,清算の結了等,,,2015-10-05,1,,,,,マツショウデンキ,0
1239,5030002080850,登記記録の閉鎖等,0,2023-06-16,2023-06-01,有限会社平田電機商会,,有限会社,埼玉県,本庄市,千代田１丁目６番２１号,,11,211,3670054,,,2023-06-01,清算の結了等,,,2015-10-05,1,,,,,ヒラタデンキショウカイ,0
1244,5040001035045,登記記録の閉鎖等,0,2023-06-16,2023-06-01,株式会社大橋工務店,,株式会社,千葉県,松戸市,松戸１３２９番地,,12,207,2710092,,,2023-06-01,清算の結了等,,,2015-10-05,1,,,,,オオハシコウムテン,0
1245,5040001071445,登記記録の閉鎖等,0,2023-06-16,2023-06-12,株式会社野田日米パッキン,,株式会社,千葉県,野田市,岩名１２６７番１号,,12,208,2780055,,,2023-06-12,合併による解散等,7011701012581,令和５年６月１日東京都江戸川区西葛西七丁目９番１７号株式会社ニチベイパーツ（7011701012581）に合併し解散,2015-10-05,1,,,,,ノダニチベイパッキン,0
1260,5070001021397,登記記録の閉鎖等,0,2023-06-16,2023-06-09,株式会社テイクシステム,,株式会社,群馬県,太田市,由良町９０７番地６,,10,205,3730036,,,2023-06-09,清算の結了等,,,2015-10-05,1,,,,,テイクシステム,0
1261,5070001024359,登記記録の閉鎖等,0,2023-06-16,2023-06-13,株式会社斉藤商事,,株式会社,群馬県,前橋市,北代田町６７３番地６,,10,201,3710055,,,2023-06-13,清算の結了等,,,2015-10-05,1,,,,,サイトウショウジ,0
1278,5120001217824,登記記録の閉鎖等,0,2023-06-16,2023-06-09,株式会社Ｅ－Ｒｅｓｅａｒｃｈ,,株式会社,大阪府,東大阪市,菱屋西２丁目８番２３号,,27,227,5770807,,,2023-06-09,清算の結了等,,,2018-12-17,1,,,,,,0
1304,5140001055355,登記記録の閉鎖等,0,2023-06-16,2023-06-12,明正堂株式会社,,株式会社,兵庫県,尼崎市,東園田町８丁目１０２番地２,,28,202,6610953,,,2023-06-12,清算の結了等,,,2015-10-05,1,,,,,,0
1318,5150002001638,登記記録の閉鎖等,0,2023-06-16,2023-06-14,有限会社ホーヨー,,有限会社,奈良県,奈良市,南風呂町４番地,,29,201,6308351,,,2023-06-14,清算の結了等,,,2015-10-05,1,,,,,ホーヨー,0
1331,5180001094143,登記記録の閉鎖等,0,2023-06-16,2023-06-14,Ｗｅｓｔ　Ｃｏｒｄ株式会社,,株式会社,愛知県,大府市,長根町２丁目３０７番地,,23,223,4740021,,,2023-06-14,清算の結了等,,,2015-10-05,1,,,,,ウェストコード,0
1340,5180301032769,登記記録の閉鎖等,0,2023-06-16,2023-06-13,株式会社ＴＥ・ＲＡ・ＣＯ,,株式会社,愛知県,岡崎市,柱曙１丁目３番地５発知ビル２Ｆ,,23,202,4440833,,,2023-06-13,合併による解散等,9180001080354,令和５年６月１日愛知県尾張旭市渋川町二丁目８番地１０株式会社名大ＳＫＹ（9180001080354）に合併し解散,2019-07-12,1,,,,,テラコ,0
1344,5190001010446,登記記録の閉鎖等,0,2023-06-16,2023-06-12,株式会社日本レジャーサービスインターナショナル,,株式会社,三重県,松阪市,新町７９９番地,,24,204,5150075,,,2023-06-12,清算の結了等,,,2015-10-05,1,,,,,ニホンレジャーサービスインターナショナル,0
1347,5190002001683,登記記録の閉鎖等,0,2023-06-16,2023-06-14,有限会社横山建具店,,有限会社,三重県,津市,高茶屋小森町字大新田２８９２番地２７３,,24,201,5140817,,,2023-06-14,清算の結了等,,,2015-10-05,1,,,,,ヨコヤマタテグテン,0
1348,5190002012887,登記記録の閉鎖等,0,2023-06-16,2023-06-12,有限会社ユウテック,,有限会社,三重県,伊賀市,三田９０３番地の３,,24,216,5180022,,,2023-06-12,清算の結了等,,,2015-10-05,1,,,,,ユウテック,0
1351,5210005008509,登記記録の閉鎖等,0,2023-06-16,2023-05-29,圓通寺,,その他の設立登記法人,福井県,小浜市,加斗第７８号２番地,,18,204,9170045,,,2023-05-29,合併による解散等,3210005008576,令和５年５月２９日福井県小浜市加斗１７号３０番地松原寺（3210005008576）に合併し解散,2015-10-05,1,,,,,エンツウジ,0
1355,5240001041238,登記記録の閉鎖等,0,2023-06-16,2023-05-31,株式会社三条電機,,株式会社,北海道,札幌市中央区,南七条西２丁目１番３－２０５号,,01,101,0640807,,,2023-05-31,清算の結了等,,,2015-10-05,1,,,,,サンジョウデンキ,0
1358,5240002041105,登記記録の閉鎖等,0,2023-06-16,2023-06-14,有限会社昭和モータース,,有限会社,広島県,福山市,南手城町１丁目２２番１７号,,34,207,7210963,,,2023-06-14,清算の結了等,,,2015-10-05,1,,,,,ショウワモータース,0
1361,5250001018631,登記記録の閉鎖等,0,2023-06-16,2023-06-09,株式会社淺野商店,,株式会社,山口県,山口市,宮野上２９０２番地４,,35,203,7530001,,,2023-06-09,清算の結了等,,,2021-01-06,1,,,,,アサノショウテン,0
1381,5310005001461,登記記録の閉鎖等,0,2023-06-16,2023-06-14,医療法人せとぐち医院,,その他の設立登記法人,長崎県,長崎市,下西山町７番３号,,42,201,8500004,,,2023-06-14,清算の結了等,,,2015-10-05,1,,,,,,0
1383,5320003003723,登記記録の閉鎖等,0,2023-06-16,2023-06-12,ＹＳＣ合同会社,,合同会社,大分県,別府市,新港町２番３６号シーフロントビラ別府２０７号,,44,202,8740923,,,2023-06-12,清算の結了等,,,2022-02-04,1,,,,,ワイエスシー,0
1384,5320005002896,登記記録の閉鎖等,0,2023-06-16,2023-06-02,宝持寺,,その他の設立登記法人,大分県,別府市,天満町７番３０号,,44,202,8740906,,,2023-06-02,合併による解散等,3320005002832,令和５年６月２日大分県別府市大字浜脇３８８１番地の１崇福寺（3320005002832）に合併し解散,2015-10-05,1,,,,,ホウジジ,0
1385,5320005006798,登記記録の閉鎖等,0,2023-06-16,2023-06-14,宗教法人神道大教尺間嶽日田支教会,,その他の設立登記法人,大分県,日田市,大字日高６２７番地の３,,44,204,8770000,,,2023-06-14,清算の結了等,,,2015-10-05,1,,,,,シンドウダイキョウシャクマダケヒタシキョウカイ,0
1402,5370002015987,登記記録の閉鎖等,0,2023-06-16,2023-06-14,有限会社マリンコム,,有限会社,宮城県,仙台市泉区,八乙女中央１丁目２番６－７０７号,,04,105,9813135,,,2023-06-14,清算の結了等,,,2015-10-05,1,,,,,,0
1407,5380002005054,登記記録の閉鎖等,0,2023-06-16,2023-06-13,有限会社佐藤自動車鈑金,,有限会社,福島県,伊達市,田町４６番地１,,07,213,9600463,,,2023-06-13,清算の結了等,,,2015-10-05,1,,,,,サトウジドウシャバンキン,0
1408,5380002026488,登記記録の閉鎖等,0,2023-06-16,2023-06-12,有限会社矢内産業,,有限会社,福島県,いわき市,平赤井字反町２２番地の２７,,07,204,9793131,,,2023-06-12,清算の結了等,,,2015-10-05,1,,,,,ヤナイサンギョウ,0
1413,5380005000969,登記記録の閉鎖等,0,2023-06-16,2023-06-01,雷神神社,,その他の設立登記法人,福島県,福島市,渡利字舘１２３番地１,,07,201,9608141,,,2023-06-01,合併による解散等,5380005000705,令和５年６月１日福島市渡利字舘３２番地春日神社（5380005000705）に合併し解散,2015-10-05,1,,,,,ライジンジンジャ,0
1419,5400005004463,登記記録の閉鎖等,0,2023-06-16,2023-06-09,天理教釜石白浜分教会,,その他の設立登記法人,岩手県,釜石市,大字平田第８地割字蕨野８６番地,,03,211,0260001,,,2023-06-09,合併による解散等,9080105004161,令和５年６月２日静岡県伊東市鎌田字園林２４８番地の１天理教伊東分教会（9080105004161）に合併し解散,2015-10-05,1,,,,,テンリキョウカマイシシラハマブンキョウカイ,0
1423,5420005007571,登記記録の閉鎖等,0,2023-06-16,2023-06-12,特定非営利活動法人心から,,その他の設立登記法人,青森県,青森市,大字油川字大浜１１３番１５号,,02,201,0380059,,,2023-06-12,清算の結了等,,,2018-08-03,1,,,,,ココカラ,0
1427,5430001083525,登記記録の閉鎖等,0,2023-06-16,2023-06-14,株式会社楽市プラス,,株式会社,北海道,札幌市西区,八軒一条西１丁目１番２－９０８号,,01,107,0630841,,,2023-06-14,清算の結了等,,,2021-03-03,1,,,,,ラクイチプラス,0
1436,5450001001939,登記記録の閉鎖等,0,2023-06-16,2023-06-12,鶴巻デンキ株式会社,,株式会社,北海道,旭川市,春光一条９丁目１３番１４号,,01,204,0700871,,,2023-06-12,清算の結了等,,,2015-10-05,1,,,,,ツルマキデンキ,0
1439,5460001000007,登記記録の閉鎖等,0,2023-06-16,2023-06-14,株式会社稲羽産業,,株式会社,北海道,釧路市,愛国東１丁目２９番１４号,,01,206,0850058,,,2023-06-14,清算の結了等,,,2015-10-05,1,,,,,イナバサンギョウ,0
1445,5500002015503,登記記録の閉鎖等,0,2023-06-16,2023-06-14,有限会社ナイスベジタブルファーム,,有限会社,愛媛県,西条市,円海寺２３番地の４,,38,206,7991344,,,2023-06-14,清算の結了等,,,2015-10-05,1,,,,,ナイスベジタブルファーム,0
1463,6010005022479,登記記録の閉鎖等,0,2023-06-16,2023-06-13,一般社団法人Ｐｌｅｎｕｓ米食文化研究所,,その他の設立登記法人,東京都,中央区,日本橋茅場町１丁目７番１号日本橋弥生ビルディング,,13,102,1030025,,,2023-06-13,清算の結了等,,,2015-10-05,1,,,,,プレナスベイショクブンカケンキュウショ,0
1472,6010403007362,登記記録の閉鎖等,0,2023-06-16,2023-06-02,合同会社ＣＪＬ第１号,,合同会社,東京都,港区,虎ノ門２丁目９番１１号,,13,103,1050001,,,2023-06-02,清算の結了等,,,2015-10-05,1,,,,,シージェイエルダイイチゴウ,0
1473,6010403009409,登記記録の閉鎖等,0,2023-06-16,2023-06-02,合同会社ＣＣＥ第１５号,,合同会社,東京都,港区,虎ノ門２丁目９番１１号,,13,103,1050001,,,2023-06-02,清算の結了等,,,2015-10-05,1,,,,,シーシーイーダイジュウゴゴウ,0
1484,6010701005794,登記記録の閉鎖等,0,2023-06-16,2023-06-13,株式会社大和屋,,株式会社,東京都,品川区,小山６丁目６番１９号,,13,109,1420062,,,2023-06-13,清算の結了等,,,2015-10-05,1,,,,,ヤマトヤ,0
1489,6010802005719,登記記録の閉鎖等,0,2023-06-16,2023-06-12,有限会社三栄製作所,00052338,有限会社,東京都,大田区,下丸子４丁目１９番２２号,,13,111,1460092,,,2023-06-12,清算の結了等,,,2015-10-05,1,,,,,サンエイセイサクショ,0
1490,6010802014224,登記記録の閉鎖等,0,2023-06-16,2023-06-12,有限会社みべ薬局,,有限会社,東京都,大田区,東雪谷５丁目３３番１号,,13,111,1450065,,,2023-06-12,清算の結了等,,,2015-10-05,1,,,,,ミベヤッキョク,0
1515,6011602023852,登記記録の閉鎖等,0,2023-06-16,2023-06-08,有限会社アルクスギャラリー,,有限会社,東京都,練馬区,石神井台２丁目９番１５号,,13,120,1770045,,,2023-06-08,清算の結了等,,,2015-10-05,1,,,,,アルクスギャラリー,0
1522,6012302000126,登記記録の閉鎖等,0,2023-06-16,2023-06-14,有限会社アクシス,,有限会社,東京都,町田市,小山町１７１９番地２,,13,209,1940212,,,2023-06-14,清算の結了等,,,2015-10-05,1,,,,,アクシス,0
1531,6013301040402,登記記録の閉鎖等,0,2023-06-16,2023-06-02,株式会社ぐろーえっぐ,,株式会社,東京都,豊島区,南大塚３丁目４２番１３号寺岡ビル３階,,13,116,1700005,,,2023-06-02,合併による解散等,3010001160161,令和５年６月１日東京都豊島区南大塚三丁目４２番１３号寺岡ビル３階株式会社ティータイム（3010001160161）に合併し解散,2017-04-24,1,,,,,グローエッグ,0
1532,6013302017143,登記記録の閉鎖等,0,2023-06-16,2023-06-09,有限会社ヴァルシステムズ,,有限会社,東京都,豊島区,池袋４丁目２７番４号,,13,116,1710014,,,2023-06-09,清算の結了等,,,2015-10-05,1,,,,,ヴァルシステムズ,0
1537,6020002070273,登記記録の閉鎖等,0,2023-06-16,2023-06-05,有限会社ＹＣ戸塚西部,,有限会社,神奈川県,横浜市戸塚区,深谷町１１５番地１８,,14,110,2450067,,,2023-06-05,清算の結了等,,,2015-10-05,1,,,,,ワイシートツカセイブ,0
1557,6030003009658,登記記録の閉鎖等,0,2023-06-16,2023-05-31,合同会社Ｕ・ＴＡ,,合同会社,埼玉県,富士見市,東みずほ台１丁目５番１２号メリーライフみずほ台,,11,235,3540015,,,2023-05-31,清算の結了等,,,2016-12-14,1,,,,,ユーティーエー,0
1567,6070001006190,登記記録の閉鎖等,0,2023-06-16,2023-06-12,株式会社伊藤鍍金工業所,,株式会社,群馬県,高崎市,倉賀野町２６６４番地,,10,202,3701201,,,2023-06-12,合併による解散等,5021001001699,令和５年６月１日神奈川県藤沢市葛原１６９２番地株式会社日東社（5021001001699）に合併し解散,2015-10-05,1,,,,,イトウメッキコウギョウショ,0
1584,6110005014292,登記記録の閉鎖等,0,2023-06-16,2023-06-02,藥王寺,,その他の設立登記法人,新潟県,佐渡市,千種乙５５０番地,,15,224,9521209,,,2023-06-02,合併による解散等,3110005014205,令和５年６月２日新潟県佐渡市千種乙５７１番地観正寺（3110005014205）に合併し解散　,2015-10-05,1,,,,,ヤクオウジ,0
1598,6120005020587,登記記録の閉鎖等,0,2023-06-16,2023-06-09,特定非営利活動法人近代ミュージックアカデミー,,その他の設立登記法人,大阪府,東大阪市,花園東町２丁目１２番３３号,,27,227,5780931,,,2023-06-09,清算の結了等,,,2018-12-14,1,,,,,キンダイミュージックアカデミー,0
1617,6130002016323,登記記録の閉鎖等,0,2023-06-16,2023-06-14,コネック有限会社,,有限会社,京都府,京都市中京区,両替町二条上ル北小路町１０２番地,,26,104,6040000,,,2023-06-14,清算の結了等,,,2015-10-05,1,,,,,コネック,0
1618,6130002032072,登記記録の閉鎖等,0,2023-06-16,2023-06-14,かなや有限会社,,有限会社,京都府,宮津市,字万町６０４番地の１,,26,205,6260022,,,2023-06-14,清算の結了等,,,2015-10-05,1,,,,,カナヤ,0
1632,6180001095909,登記記録の閉鎖等,0,2023-06-16,2023-06-12,株式会社ハッピーリフォーム,,株式会社,愛知県,知多市,巽が丘４丁目２０６番地,00072496,23,224,4780012,,,2023-06-12,清算の結了等,,,2015-10-05,1,,,,,ハッピーリフォーム,0
1633,6180001098886,登記記録の閉鎖等,0,2023-06-16,2023-06-14,株式会社フジエイ,,株式会社,愛知県,愛西市,二子町柳原９６番地５,,23,232,4968030,,,2023-06-14,清算の結了等,,,2015-10-05,1,,,,,フジエイ,0
1654,6220002008393,登記記録の閉鎖等,0,2023-06-16,2023-06-14,有限会社花の園,,有限会社,石川県,野々市市,末松２丁目９０９番地,,17,212,9218836,,,2023-06-14,清算の結了等,,,2015-10-05,1,,,,,ハナノエン,0
1671,6290001041612,登記記録の閉鎖等,0,2023-06-16,2023-06-14,株式会社明和エレクトロン,,株式会社,福岡県,小郡市,小郡２５１８－１,,40,216,8380141,,,2023-06-14,清算の結了等,,,2015-10-05,1,,,,,,0
1684,6290801025855,登記記録の閉鎖等,0,2023-06-16,2023-06-14,株式会社紡ぐ未来,,株式会社,広島県,広島市中区,橋本町９番７号ビル博丈８階,,34,101,7300015,,,2023-06-14,清算の結了等,,,2019-09-10,1,,,,,ツムグミライ,0
1688,6310001016371,登記記録の閉鎖等,0,2023-06-16,2023-06-14,株式会社ＣＲＥＷ,,株式会社,長崎県,長崎市,浜町２番７号西浜町第２ビル６－Ａ,,42,201,8500853,,,2023-06-14,清算の結了等,,,2019-11-05,1,,,,,,0
1691,6330002028075,登記記録の閉鎖等,0,2023-06-16,2023-06-12,有限会社天草菓子販売,,有限会社,熊本県,天草市,浜崎町１１番４１号,,43,215,8630018,,,2023-06-12,清算の結了等,,,2015-10-05,1,,,,,アマクサカシハンバイ,0
1701,6340002016822,登記記録の閉鎖等,0,2023-06-16,2023-06-13,有限会社拓美庭苑,,有限会社,鹿児島県,薩摩川内市,湯島町４２０８番地,,46,215,8991923,,,2023-06-13,清算の結了等,,,2015-10-05,1,,,,,タクミテイエン,0
1715,6370001018115,登記記録の閉鎖等,0,2023-06-16,2023-06-15,株式会社Ｏａｓｉｓ　Ｂｏｄｙｃａｒｅ,,株式会社,宮城県,仙台市青葉区,小田原８丁目１１番６－１０３号,,04,101,9800003,,,2023-06-15,清算の結了等,,,2015-10-05,1,,,,,,0
1716,6370001019550,登記記録の閉鎖等,0,2023-06-16,2023-06-13,株式会社吉光園,,株式会社,宮城県,仙台市太白区,八木山東１丁目１６番１３号,,04,104,9820802,,,2023-06-13,清算の結了等,,,2015-10-05,1,,,,,キッコウエン,0
1738,6700150057961,登記記録の閉鎖等,0,2023-06-16,2022-12-31,しののめ産直市生産組合,,その他,徳島県,三好市,池田町ウヱノ３０５０－１,,36,208,7780001,,,2022-12-31,その他の清算の結了等,,,2015-10-09,1,,,,,シノノメサンチヨクイチセイサンクミアイ,0
1740,6700150095284,登記記録の閉鎖等,0,2023-06-16,2021-09-30,志茂三丁目９番地区防災街区整備事業組合,,その他,東京都,港区,芝浦３丁目９番１号芝浦ルネサイトタワー１７階,,13,103,1080023,,,2021-09-30,その他の清算の結了等,,,2019-07-16,1,,,,,シモサンチヨウメキユウバンチクボウサイガイクセイビジギヨウクミアイ,0
1756,7010401151863,登記記録の閉鎖等,0,2023-06-16,2023-06-02,ホームエスカレーター＆センシング株式会社,,株式会社,東京都,港区,元赤坂１丁目２番７号赤坂Ｋタワー４階,,13,103,1070051,,,2023-06-02,清算の結了等,,,2020-03-25,1,,,,,ホームエスカレーターアンドセンシング,0
1777,7011001138986,登記記録の閉鎖等,0,2023-06-16,2023-06-06,株式会社ＤＲＡＷ,,株式会社,東京都,渋谷区,南平台町１３番１１号南平台ＷＥＳＴ－Ｂ１０１,,13,113,1500036,,,2023-06-06,清算の結了等,,,2021-03-12,1,,,,,ドロウ,0
1815,7020002064316,登記記録の閉鎖等,0,2023-06-16,2023-06-08,有限会社ベルネット,,有限会社,神奈川県,横浜市西区,楠町４番地１０クレストフォルム横浜ＧＷ３０３号,,14,103,2200003,,,2023-06-08,清算の結了等,,,2015-10-05,1,,,,,ベルネット,0
1822,7030002075386,登記記録の閉鎖等,0,2023-06-16,2023-05-31,有限会社矢島商店,,有限会社,埼玉県,川越市,田町３番地９,,11,201,3501113,,,2023-05-31,清算の結了等,,,2015-10-05,1,,,,,ヤジマショウテン,0
1830,7040002068182,登記記録の閉鎖等,0,2023-06-16,2023-05-31,有限会社今関写真,,有限会社,千葉県,袖ケ浦市,福王台３丁目１４番地の７,,12,229,2990261,,,2023-05-31,清算の結了等,,,2023-01-04,1,,,,,イマゼキシャシン,0
1837,7070002011404,登記記録の閉鎖等,0,2023-06-16,2023-06-09,有限会社ニッコー保険センター,,有限会社,群馬県,高崎市,片岡町２丁目１０番地９,,10,202,3700862,,,2023-06-09,清算の結了等,,,2015-10-05,1,,,,,ニッコーホケンセンター,0
1860,7120002015795,登記記録の閉鎖等,0,2023-06-16,2023-06-14,有限会社ハウディ２１,,有限会社,大阪府,大阪市港区,磯路３丁目２４番２５号,,27,107,5520003,,,2023-06-14,清算の結了等,,,2015-10-05,1,,,,,ハウディニジュウイチ,0
1864,7120005022590,登記記録の閉鎖等,0,2023-06-16,2023-06-12,税理士法人江崎総合会計,,その他の設立登記法人,大阪府,大阪市北区,南森町１丁目４番１９号,,27,127,5300054,,,2023-06-12,合併による解散等,5011005003536,令和５年６月１日東京都渋谷区渋谷二丁目１６番５号税理士法人江崎総合会計（5011005003536）に合併し解散,2021-11-08,1,,,,,エザキソウゴウカイケイ,0
1866,7120101041131,登記記録の閉鎖等,0,2023-06-16,2023-06-13,株式会社アド企画設計,,株式会社,大阪府,和泉市,弥生町２丁目２７番７号,,27,219,5940061,,,2023-06-13,清算の結了等,,,2015-10-05,1,,,,,アドキカクセッケイ,0
1898,7150002008466,登記記録の閉鎖等,0,2023-06-16,2023-06-13,有限会社Ｔｐｏｓ,,有限会社,奈良県,磯城郡田原本町,大字平田１６７番地,,29,363,6360241,,,2023-06-13,清算の結了等,,,2015-10-05,1,,,,,ティーポス,0
1903,7170005005269,登記記録の閉鎖等,0,2023-06-16,2023-06-01,社会福祉法人わかば福祉会,,その他の設立登記法人,和歌山県,新宮市,下田２丁目６番４０号,,30,207,6470042,,,2023-06-01,合併による解散等,1170005004004,令和５年６月１日和歌山県西牟婁郡上富田町岩田２４５６番地の１社会福祉法人和歌山県福祉事業団（1170005004004）に合併し解散,2015-10-05,1,,,,,ワカバフクシカイ,0
1910,7180001139185,登記記録の閉鎖等,0,2023-06-16,2023-06-14,株式会社ＯＮＥ,,株式会社,愛知県,名古屋市中区,丸の内３丁目１０番２９号４階,,23,106,4600002,,,2023-06-14,清算の結了等,,,2019-12-10,1,,,,,ワン,0
1922,7200001038905,登記記録の閉鎖等,0,2023-06-16,2023-06-12,株式会社ＡＣＥＳＳ,,株式会社,岐阜県,岐阜市,加納新本町３丁目１番地Ｄ,,21,201,5008463,,,2023-06-12,清算の結了等,,,2021-07-16,1,,,,,エース,0
1926,7220002005332,登記記録の閉鎖等,0,2023-06-16,2023-06-14,有限会社北陸アルファ,,有限会社,石川県,金沢市,大桑町チ１６６番地２,,17,201,9218046,,,2023-06-14,清算の結了等,,,2015-10-05,1,,,,,ホクリクアルファ,0
1952,7320002009414,登記記録の閉鎖等,0,2023-06-16,2023-06-13,有限会社　イーストセブン,,有限会社,大分県,大分市,下郡北３丁目２番１９号,,44,201,8700952,,,2023-06-13,清算の結了等,,,2015-10-05,1,,,,,イーストセブン,0
1954,7330001013746,登記記録の閉鎖等,0,2023-06-16,2023-06-12,南九州ネットリーダー株式会社,,株式会社,熊本県,八代市,本町４丁目４番３０号,,43,202,8660861,,,2023-06-12,清算の結了等,,,2015-10-05,1,,,,,ミナミキュウシュウネットリーダー,0
1956,7340001001122,登記記録の閉鎖等,0,2023-06-16,2023-06-14,株式会社Ａ興産,,株式会社,鹿児島県,鹿児島市,上之園町４番地１０,,46,201,8900052,,,2023-06-14,清算の結了等,,,2015-10-05,1,,,,,エーコウサン,0
1963,7360005002032,登記記録の閉鎖等,0,2023-06-16,2023-06-01,医療法人翔南会,,その他の設立登記法人,沖縄県,沖縄市,山内３丁目１４番２８号,,47,211,9040034,,,2023-06-01,合併による解散等,2360005002004,令和５年６月１日沖縄県沖縄市字登川６１０番地社会医療法人敬愛会（2360005002004）に合併し解散,2015-10-05,1,,,,,ショウナンカイ,0
1967,7370001019830,登記記録の閉鎖等,0,2023-06-16,2023-06-15,アクト・ユナイテッド株式会社,,株式会社,宮城県,仙台市若林区,卸町５丁目２番１０号,,04,103,9840015,,,2023-06-15,清算の結了等,,,2015-10-05,1,,,,,,0
1978,7380005000950,登記記録の閉鎖等,0,2023-06-16,2023-06-01,山神神社,,その他の設立登記法人,福島県,福島市,渡利字南椚森３３番地,,07,201,9608141,,,2023-06-01,合併による解散等,5380005000705,令和５年６月１日福島市渡利字舘３２番地春日神社（5380005000705）に合併し解散,2015-10-05,1,,,,,ヤマノカミ,0
1983,7410002002401,登記記録の閉鎖等,0,2023-06-16,2023-06-12,有限会社高桑土木,,有限会社,秋田県,秋田市,金足追分字海老穴１４０番地,,05,201,0100126,,,2023-06-12,清算の結了等,,,2015-10-05,1,,,,,タカクワドボク,0
1984,7410002002541,登記記録の閉鎖等,0,2023-06-16,2023-06-12,中央商建有限会社,,有限会社,秋田県,秋田市,飯島穀丁１９番２３号,,05,201,0110916,,,2023-06-12,清算の結了等,,,2015-10-05,1,,,,,チュウオウショウケン,0
1992,7460105001923,登記記録の閉鎖等,0,2023-06-16,2023-06-05,一般社団法人ノード,,その他の設立登記法人,北海道,札幌市中央区,南十三条西５丁目１番１２－１１０１号,,01,101,0640913,,,2023-06-05,清算の結了等,,,2015-10-05,1,,,,,ノード,0
1997,7500001001089,登記記録の閉鎖等,0,2023-06-16,2023-06-15,株式会社大野土建,,株式会社,愛媛県,松山市,窪野町２１３９番地,,38,201,7911131,,,2023-06-15,清算の結了等,,,2015-10-05,1,,,,,,0
2019,8010003015391,登記記録の閉鎖等,0,2023-06-16,2023-05-31,合同会社エビアン,,合同会社,東京都,港区,港南２丁目１５番３号,,13,103,1080075,,,2023-05-31,清算の結了等,,,2015-10-05,1,,,,,エビアン,0
2024,8010401157414,登記記録の閉鎖等,0,2023-06-16,2023-06-02,ＳＢＩ　Ｔｒａｎｓｌａｔｉｏｎａｌ　Ｓｕｐｐｏｒｔ株式会社,,株式会社,東京都,港区,六本木１丁目６番１号,,13,103,1060032,,,2023-06-02,清算の結了等,,,2021-01-06,1,,,,,エスビーアイトランスレイショナルサポート,0
2029,8010403020487,登記記録の閉鎖等,0,2023-06-16,2023-05-16,Ｉ’Ｇｒｏｕｐ合同会社,,合同会社,東京都,港区,六本木４丁目３番１１号六本木ユニハウス２２３号,,13,103,1060032,,,2023-05-16,清算の結了等,,,2019-04-04,1,,,,,アイダッシュグループ,0
2037,8010801006609,登記記録の閉鎖等,0,2023-06-16,2023-06-12,株式会社タイセイ,,株式会社,東京都,大田区,上池台３丁目４３番５号ＹＴ１ビル２０１号,,13,111,1450064,,,2023-06-12,清算の結了等,,,2015-10-05,1,,,,,タイセイ,0
2057,8011202005415,登記記録の閉鎖等,0,2023-06-16,2023-06-15,有限会社ペンライト社,,有限会社,東京都,中野区,沼袋１丁目１８番６号,,13,114,1650025,,,2023-06-15,清算の結了等,,,2015-10-05,1,,,,,ペンライトシャ,0
2060,8011505001094,登記記録の閉鎖等,0,2023-06-16,2023-06-12,特定非営利活動法人国際看護福祉協会,,その他の設立登記法人,東京都,北区,滝野川１丁目９３番１６－１２０４号マンションアクロス西巣鴨,,13,117,1140023,,,2023-06-12,清算の結了等,,,2015-10-05,1,,,,,,0
2072,8013301029096,登記記録の閉鎖等,0,2023-06-16,2023-06-15,株式会社ソーレプロモーション,,株式会社,東京都,新宿区,高田馬場３丁目１番５号サンパティオ高田馬場３１７号室,,13,104,1690075,,,2023-06-15,清算の結了等,,,2015-10-05,1,,,,,ソーレプロモーション,0
2100,8070001002758,登記記録の閉鎖等,0,2023-06-16,2023-06-14,文京不動産株式会社,,株式会社,群馬県,前橋市,文京町３丁目１４番１号,,10,201,3710801,,,2023-06-14,清算の結了等,,,2015-10-05,1,,,,,ブンキョウフドウサン,0
2108,8110002002819,登記記録の閉鎖等,0,2023-06-16,2023-06-12,有限会社山東公司,,有限会社,新潟県,新潟市中央区,関屋田町１丁目２３番地,,15,103,9518136,,,2023-06-12,清算の結了等,,,2015-10-05,1,,,,,サントウコンス,0
2116,8120001243883,登記記録の閉鎖等,0,2023-06-16,2023-06-15,株式会社ＶＡＲＩＯＵＳ　ＣＯＬＬＥＣＴ,,株式会社,大阪府,大阪市阿倍野区,阿倍野筋１丁目５番１号あべのルシアス９０５,,27,119,5450052,,,2023-06-15,清算の結了等,,,2022-02-15,1,,,,,ヴェアリアスコレクト,0
2140,8130001072357,登記記録の閉鎖等,0,2023-06-16,2023-06-12,株式会社インクルーシブ,,株式会社,京都府,京都市中京区,天神山町２８０番地４Ｆ－４９,,26,104,6048221,,,2023-06-12,清算の結了等,,,2022-08-05,1,,,,,インクルーシブ,0
2167,8180301033203,登記記録の閉鎖等,0,2023-06-16,2023-06-12,株式会社Ｐａｐｉｌｌｏｎ,,株式会社,愛知県,名古屋市中村区,平池町４丁目６０－１２グローバルゲート１１Ｆ,,23,105,4530872,,,2023-06-12,合併による解散等,7021001010079,令和５年５月１日神奈川県鎌倉市御成町１１番８号株式会社カヤック（7021001010079）に合併し解散,2019-12-06,1,,,,,パピヨン,0
2176,8230002002906,登記記録の閉鎖等,0,2023-06-16,2023-06-14,有限会社ヒロセ自動車販売,,有限会社,富山県,富山市,針原中町４８９番地の１,,16,201,9318431,,,2023-06-14,清算の結了等,,,2015-10-05,1,,,,,ヒロセジドウシャハンバイ,0
2191,8290001093701,登記記録の閉鎖等,0,2023-06-16,2023-06-12,ＡＢＵＵＵ株式会社,,株式会社,福岡県,那珂川市,今光６丁目２３番地,,40,231,8111211,,,2023-06-12,清算の結了等,,,2021-07-01,1,,,,,アブー,0
2230,8430001071741,登記記録の閉鎖等,0,2023-06-16,2023-05-31,株式会社ＢＬＡＮＣ　ＳＵＲＲＥ,,株式会社,北海道,札幌市中央区,北四条西１６丁目１番地３,,01,101,0600004,,,2023-05-31,清算の結了等,,,2016-06-09,1,,,,,ブランシュール,0
2236,8460001001266,登記記録の閉鎖等,0,2023-06-16,2023-06-14,中本興業株式会社,,株式会社,北海道,釧路市,若松町１３番７号,,01,206,0850033,,,2023-06-14,清算の結了等,,,2015-10-05,1,,,,,,0
2243,8500001016961,登記記録の閉鎖等,0,2023-06-16,2023-06-15,株式会社フラワーガーデン,,株式会社,愛媛県,西条市,古川甲３２２番地１２,,38,206,7930044,,,2023-06-15,清算の結了等,,,2015-10-05,1,,,,,フラワーガーデン,0
2247,8700150021271,登記記録の閉鎖等,0,2023-06-16,2023-02-16,まちづくり協議会いき生耀ながわ,,その他,長野県,小県郡長和町,古町４１０－１,,20,350,3860603,,,2023-02-16,その他の清算の結了等,,,2015-10-09,1,,,,,マチヅクリキヨウギカイイキイキナガワ,0
2263,9010401085226,登記記録の閉鎖等,0,2023-06-16,2023-06-02,株式会社日本教育研究出版,,株式会社,東京都,港区,六本木１丁目９番３５号,,13,103,1060032,,,2023-06-02,清算の結了等,,,2015-10-05,1,,,,,,0
2264,9010401128050,登記記録の閉鎖等,0,2023-06-16,2023-06-09,株式会社Ｄｒｅａｍｘｉｎｇ,,株式会社,東京都,渋谷区,神宮前５丁目３９番８号スカーラ神宮前１０２,,13,113,1500001,,,2023-06-09,清算の結了等,,,2016-11-08,1,,,,,ドリームクロッシング,0
2266,9010405019849,登記記録の閉鎖等,0,2023-06-16,2023-06-02,ＲＢソーラーサウスホールディングス一般社団法人,,その他の設立登記法人,東京都,港区,虎ノ門３丁目２２番１０－２０１号,,13,103,1050001,,,2023-06-02,清算の結了等,,,2021-05-28,1,,,,,アールビーソーラーサウスホールディングス,0
2273,9010801021631,登記記録の閉鎖等,0,2023-06-16,2023-06-12,幸輝株式会社,,株式会社,東京都,大田区,下丸子２丁目１４番３－２０４号,,13,111,1460092,,,2023-06-12,清算の結了等,,,2015-10-05,1,,,,,コウキ,0
2307,9011402001205,登記記録の閉鎖等,0,2023-06-16,2023-06-14,有限会社魚鶴,,有限会社,東京都,板橋区,大山東町１７番１０号,,13,119,1730014,,,2023-06-14,清算の結了等,,,2015-10-05,1,,,,,ウオツル,0
2320,9011701005402,登記記録の閉鎖等,0,2023-06-16,2023-06-14,東京美装株式会社,,株式会社,東京都,江戸川区,東小松川４丁目４３番８号,,13,123,1320033,,,2023-06-14,清算の結了等,,,2015-10-05,1,,,,,トウキョウビソウ,0
2340,9020001000146,登記記録の閉鎖等,0,2023-06-16,2023-06-12,京浜家電サービス株式会社,,株式会社,神奈川県,横浜市戸塚区,矢部町１４９９番地１８,,14,110,2440002,,,2023-06-12,清算の結了等,,,2015-10-05,1,,,,,ケイヒンカデンサービス,0
2341,9020001003355,登記記録の閉鎖等,0,2023-06-16,2023-06-08,株式会社メデイカル五大,,株式会社,神奈川県,横浜市港南区,上永谷３丁目１番１３号,,14,111,2330012,,,2023-06-08,清算の結了等,,,2015-10-05,1,,,,,メディカルゴダイ,0
2348,9020001101076,登記記録の閉鎖等,0,2023-06-16,2023-06-12,株式会社エスニコ,,株式会社,神奈川県,横浜市中区,相生町２丁目５２番地,,14,104,2310012,,,2023-06-12,清算の結了等,,,2015-10-05,1,,,,,エスニコ,0
2373,9040001049561,登記記録の閉鎖等,0,2023-06-16,2023-05-30,株式会社オカモト,,株式会社,千葉県,四街道市,大日２１６２番地８,,12,228,2840001,,,2023-05-30,清算の結了等,,,2015-10-05,1,,,,,オカモト,0
2374,9040001078346,登記記録の閉鎖等,0,2023-06-16,2023-06-01,ＳＣシステムズ株式会社,,株式会社,千葉県,千葉市緑区,古市場町５１番地,,12,105,2660026,,,2023-06-01,清算の結了等,,,2015-10-05,1,,,,,エスシーシステムズ,0
2383,9060001031591,登記記録の閉鎖等,0,2023-06-16,2023-06-06,株式会社ＢＵＤ,,株式会社,栃木県,真岡市,下高間木２丁目１１番地４,,09,209,3214335,,,2023-06-06,清算の結了等,,,2019-05-16,1,,,,,バッド,0
2391,9080402019069,登記記録の閉鎖等,0,2023-06-16,2023-06-13,有限会社シミズ美容室,,有限会社,静岡県,御前崎市,池新田５１１５番地の１０,,22,223,4371612,,,2023-06-13,清算の結了等,,,2015-10-05,1,,,,,シミズビヨウシツ,0
2415,9120901008187,登記記録の閉鎖等,0,2023-06-16,2023-06-12,株式会社フジサイクル,,株式会社,大阪府,吹田市,山田東１丁目１番１号,,27,205,5650821,,,2023-06-12,清算の結了等,,,2015-10-05,1,,,,,フジサイクル,0
2416,9120901030307,登記記録の閉鎖等,0,2023-06-16,2023-06-12,テイクエステート株式会社,,株式会社,大阪府,茨木市,宿久庄７丁目１０番１号,,27,211,5670051,,,2023-06-12,清算の結了等,,,2015-10-05,1,,,,,テイクエステート,0
2433,9140003011030,登記記録の閉鎖等,0,2023-06-16,2023-06-12,合同会社パインズキャピタル,,合同会社,兵庫県,尼崎市,栗山町１丁目１０番１１号,,28,202,6610013,,,2023-06-12,合併による解散等,4030003000924,令和５年５月２９日さいたま市浦和区元町三丁目２３番６号株式会社パインズホーム（4030003000924）に合併し解散,2015-11-12,1,,,,,パインズキャピタル,0
2436,9150001001008,登記記録の閉鎖等,0,2023-06-16,2023-06-15,株式会社新和託送,,株式会社,奈良県,奈良市,窪之庄町２７８番地,,29,201,6308431,,,2023-06-15,清算の結了等,,,2015-10-05,1,,,,,,0
2437,9150002007227,登記記録の閉鎖等,0,2023-06-16,2023-06-15,有限会社日本流通,,有限会社,奈良県,宇陀郡御杖村,大字土屋原２３９６番地,,29,386,6331303,,,2023-06-15,清算の結了等,,,2015-10-05,1,,,,,,0
2447,9180001007704,登記記録の閉鎖等,0,2023-06-16,2023-06-06,株式会社綿豊商店,,株式会社,愛知県,名古屋市港区,船頭場２丁目８０６番地,,23,111,4550881,,,2023-06-06,清算の結了等,,,2015-10-05,1,,,,,ワタトヨショウテン,0
2460,9180005011099,登記記録の閉鎖等,0,2023-06-16,2023-06-08,大乗教古知野支教会,,その他の設立登記法人,愛知県,江南市,古知野町花霞２１７番地,,23,217,4838208,,,2023-06-08,合併による解散等,7180005000442,令和５年６月８日名古屋市熱田区外土居町４番７号大乗教会（7180005000442）に合併し解散,2015-10-05,1,,,,,ダイジョウキョウコチノシキョウカイ,0
2479,9280002000433,登記記録の閉鎖等,0,2023-06-16,2023-06-08,有限会社オートボデー島根,,有限会社,島根県,松江市,矢田町２５０番地７４,,32,201,6900021,,,2023-06-08,清算の結了等,,,2015-10-05,1,,,,,オートボデーシマネ,0
2502,9330002026373,登記記録の閉鎖等,0,2023-06-16,2023-06-12,有限会社松高中央レンタカー,,有限会社,熊本県,八代市,永碇町８４２番地の３,,43,202,8660885,,,2023-06-12,清算の結了等,,,2015-10-05,1,,,,,マツタカチュウオウレンタカー,0
2515,9380005000949,登記記録の閉鎖等,0,2023-06-16,2023-06-01,山神神社,,その他の設立登記法人,福島県,福島市,渡利字山ノ神３６番地,,07,201,9608141,,,2023-06-01,合併による解散等,5380005000705,令和５年６月１日福島市渡利字舘３２番地春日神社（5380005000705）に合併し解散,2015-10-05,1,,,,,ヤマガミジンジャ,0
2521,9420002008073,登記記録の閉鎖等,0,2023-06-16,2023-06-12,有限会社ナカイ,,有限会社,青森県,八戸市,大字売市字観音下２４番地の１,,02,203,0310073,,,2023-06-12,清算の結了等,,,2015-10-05,1,,,,,ナカイ,0
2541,9490002011260,登記記録の閉鎖等,0,2023-06-16,2023-06-15,有限会社ケー・アンド・シー,,有限会社,高知県,香美市,土佐山田町西本町１丁目３番地,,39,212,7820032,,,2023-06-15,清算の結了等,,,2015-10-05,1,,,,,ケーアンドシー,0
2544,9500005006826,登記記録の閉鎖等,0,2023-06-16,2023-06-12,特定非営利活動法人ＳａｒｅＮｅｔ,,その他の設立登記法人,愛媛県,宇和島市,和霊元町４丁目２番１２号,,38,203,7980015,,,2023-06-12,清算の結了等,,,2015-10-05,1,,,,,サレネット,0
2545,9700150093228,登記記録の閉鎖等,0,2023-06-16,2022-12-20,恵庭市戸磯南土地区画整理組合,,その他,北海道,恵庭市,相生町２４５番地,,01,231,0611448,,,2022-12-20,その他の清算の結了等,,,2019-03-04,1,,,,,エニワシトイソミナミトチクカクセイリクミアイ,0
2546,9700150093797,登記記録の閉鎖等,0,2023-06-16,2023-01-31,碧海プロモーション,,その他,愛知県,碧南市,若松町１丁目２７３,,23,209,4470836,,,2023-01-31,その他の清算の結了等,,,2019-04-15,1,,,,,ヘキカイプロモーシヨン,0
