sequenceNumber,corporateNumber,process,correct,updateDate,changeDate,name,nameImageId,kind,prefectureName,cityName,streetNumber,addressImageId,prefectureCode,cityCode,postCode,addressOutside,addressOutsideImageId,closeDate,closeCause,successorCorporateNumber,changeCause,assignmentDate,latest,enName,enPrefectureName,enCityName,enAddressOutside,furigana,hihyoji
18,1010001231187,新規,0,2022-12-01,2022-12-01,株式会社ＢＩＺＢＯＮＤ,,株式会社,東京都,中央区,銀座１丁目１２番４号Ｎ＆ＥＢＬＤ．６Ｆ,,13,102,1040061,,,,,,,2022-12-01,1,,,,,ビズボンド,0
19,1010001231195,新規,0,2022-12-01,2022-12-01,四川料理華美株式会社,,株式会社,東京都,中央区,京橋１丁目６番１３号Ｂ１,,13,102,1040031,,,,,,,2022-12-01,1,,,,,シセンリョウリカビ,0
20,1010001231220,新規,0,2022-12-01,2022-12-01,株式会社ＩｎｆｏｓＷａｙ,,株式会社,東京都,千代田区,神田淡路町１丁目９－５天翔御茶ノ水ビル３階３１４号室,,13,101,1010063,,,,,,,2022-12-01,1,,,,,インフォスウェイ,0
21,1010001231237,新規,0,2022-12-01,2022-12-01,株式会社Ｈｅｒｏ　Ｃｏｎｓｕｌｔｉｎｇ,,株式会社,東京都,中央区,日本橋富沢町４番１０号,,13,102,1030006,,,,,,,2022-12-01,1,,,,,ヒーローコンサルティング,0
24,1010005035849,新規,0,2022-12-01,2022-12-01,一般社団法人ヴィレッジシックス,,その他の設立登記法人,東京都,中央区,日本橋１丁目４番１号,,13,102,1030027,,,,,,,2022-12-01,1,,,,,ヴィレッジシックス,0
33,1010401171082,新規,0,2022-12-01,2022-12-01,Ｒｏｏｔ　ｏｆ　Ｔｒｕｓｔ株式会社,,株式会社,東京都,港区,虎ノ門４丁目１番１号神谷町トラストタワー２３Ｆ,,13,103,1050001,,,,,,,2022-12-01,1,,,,,ルートオブトラスト,0
36,1010403029007,新規,0,2022-12-01,2022-12-01,合同会社えびの発電所,,合同会社,東京都,港区,六本木３丁目２番１号,,13,103,1060032,,,,,,,2022-12-01,1,,,,,エビノハツデンショ,0
37,1010403029031,新規,0,2022-12-01,2022-12-01,合同会社栃木第三発電所,,合同会社,東京都,港区,六本木３丁目２番１号,,13,103,1060032,,,,,,,2022-12-01,1,,,,,トチギダイサンハツデンショ,0
38,1010403029056,新規,0,2022-12-01,2022-12-01,ＡＹＲ３Ｂ合同会社,,合同会社,東京都,港区,六本木１丁目９番１０号アークヒルズ仙石山森タワー４０階,,13,103,1060032,,,,,,,2022-12-01,1,,,,,エーワイアールスリービー,0
40,1010601062230,新規,0,2022-12-01,2022-12-01,株式会社コルトレーン,,株式会社,東京都,江東区,塩浜１丁目５番３４－５０２号,,13,108,1350043,,,,,,,2022-12-01,1,,,,,コルトレーン,0
48,1011001151202,新規,0,2022-12-01,2022-12-01,株式会社Ｎ．Ｃｒｅａｔｉｖｅ,,株式会社,東京都,渋谷区,神宮前３丁目２７－２２ル・コタージュビルディング２０１,,13,113,1500001,,,,,,,2022-12-01,1,,,,,エヌクリエイティブ,0
49,1011001151251,新規,0,2022-12-01,2022-12-01,アーキヒューマー株式会社,,株式会社,東京都,渋谷区,道玄坂１丁目１０番８号渋谷道玄坂東急ビル２Ｆ－Ｃ,,13,113,1500043,,,,,,,2022-12-01,1,,,,,アーキヒューマー,0
52,1011003015792,新規,0,2022-12-01,2022-12-01,合同会社ｏｐｅｃｏｄｅ,,合同会社,東京都,渋谷区,円山町８番８号ハーベストハウスＩＩ８０１,00128648,13,113,1500044,,,,,,,2022-12-01,1,,,,,オペコード,0
53,1011005009850,新規,0,2022-12-01,2022-12-01,一般財団法人ＮｏｈＪｅｓｕ認識技術財団,,その他の設立登記法人,東京都,渋谷区,桜丘町２２番６号プライマル渋谷桜丘３０２,,13,113,1500031,,,,,,,2022-12-01,1,,,,,ノジェスニンシキギジュツザイダン,0
56,1011401024734,新規,0,2022-12-01,2022-12-01,ＡＩライフプランニング株式会社,,株式会社,東京都,板橋区,成増１丁目５番２２号３０２号室,,13,119,1750094,,,,,,,2022-12-01,1,,,,,アイライフプランニング,0
72,1013301049968,新規,0,2022-12-01,2022-12-01,株式会社兆麗,,株式会社,東京都,豊島区,巣鴨１丁目１７番３号子野ビル４０４号室,,13,116,1700002,,,,,,,2022-12-01,1,,,,,チョウレイ,0
73,1013301050001,新規,0,2022-12-01,2022-12-01,株式会社ホネスティ,,株式会社,東京都,豊島区,南大塚２丁目１１－１０ミモザビル３階,,13,116,1700005,,,,,,,2022-12-01,1,,,,,ホネスティ,0
82,1020003022815,新規,0,2022-12-01,2022-12-01,イイダ・ジアング・コーポレーション合同会社,,合同会社,神奈川県,横浜市瀬谷区,宮沢１丁目１２番６号,,14,114,2460038,,,,,,,2022-12-01,1,,,,,イイダジアングコーポレーション,0
83,1020003022823,新規,0,2022-12-01,2022-12-01,合同会社ヒトクル,,合同会社,神奈川県,横浜市港北区,新横浜１丁目１１番地１２,,14,109,2220033,,,,,,,2022-12-01,1,,,,,ヒトクル,0
86,1021001077586,新規,0,2022-12-01,2022-12-01,株式会社ＲｅＶｉｌｌａｎｄ,,株式会社,神奈川県,鎌倉市,七里ガ浜東２丁目３２番５号,,14,204,2480025,,,,,,,2022-12-01,1,,,,,リヴィランド,0
90,1021003012434,新規,0,2022-12-01,2022-12-01,Ｏｆｆｉｃｅ　Ｌａｎｏｐｉｒ合同会社,,合同会社,神奈川県,中郡大磯町,西小磯２８６番地の４６,,14,341,2550005,,,,,,,2022-12-01,1,,,,,オフィスラノピア,0
93,1030001151268,新規,0,2022-12-01,2022-12-01,株式会社壮雲建設,,株式会社,埼玉県,鶴ヶ島市,大字中新田１５０１番地５,,11,241,3502226,,,,,,,2022-12-01,1,,,,,ソウウンケンセツ,0
97,1030003020652,新規,0,2022-12-01,2022-12-01,合同会社ひがしの里,,合同会社,埼玉県,朝霞市,泉水１丁目３番３－１００３号,,11,227,3510024,,,,,,,2022-12-01,1,,,,,ヒガシノサト,0
104,1040001126054,新規,0,2022-12-01,2022-12-01,恒昌株式会社,,株式会社,千葉県,習志野市,新栄１丁目１－１７,,12,216,2750005,,,,,,,2022-12-01,1,,,,,コウショウ,0
106,1040003021369,新規,0,2022-12-01,2022-12-01,合同会社ＡＬＴＲＵＩＳＭＯ,,合同会社,千葉県,浦安市,日の出５丁目６－１－１０２,,12,227,2790013,,,,,,,2022-12-01,1,,,,,アルトリズモ,0
107,1040003021377,新規,0,2022-12-01,2022-12-01,合同会社ある,,合同会社,千葉県,流山市,おおたかの森東２丁目１１番２５号,,12,220,2700138,,,,,,,2022-12-01,1,,,,,アル,0
112,1050001052027,新規,0,2022-12-01,2022-12-01,株式会社ｕｐ　ｔｏ,,株式会社,茨城県,行方市,麻生１０５４番地１,,08,233,3113832,,,,,,,2022-12-01,1,,,,,アップトゥ,0
117,1070003004734,新規,0,2022-12-01,2022-12-01,ＫＨＡＬＩＦＡ合同会社,,合同会社,群馬県,高崎市,鶴見町６番地１５,,10,202,3700848,,,,,,,2022-12-01,1,,,,,キャリーファ,0
124,1110001037145,新規,0,2022-12-01,2022-12-01,株式会社ＧＯＳＥＮ総業,,株式会社,新潟県,南魚沼市,東泉田８５３－５,,15,226,9496612,,,,,,,2022-12-01,1,,,,,ゴウセンソウギョウ,0
139,1120001250630,新規,0,2022-12-01,2022-12-01,繽函株式会社,,株式会社,大阪府,大阪市天王寺区,空清町４番１１号杉野ビル５０１,,27,109,5430018,,,,,,,2022-12-01,1,,,,,ヒンカン,0
140,1120001250671,新規,0,2022-12-01,2022-12-01,先匯株式会社,,株式会社,大阪府,大阪市中央区,松屋町９番２０号ローレルステート松屋町１１０５Ａ,,27,128,5420067,,,,,,,2022-12-01,1,,,,,センカイ,0
141,1120001250688,新規,0,2022-12-01,2022-12-01,鳳株式会社,,株式会社,大阪府,大阪市都島区,中野町４丁目５番９号リバーサイドハイツ５０３,,27,102,5340027,,,,,,,2022-12-01,1,,,,,オオトリ,0
142,1120003022986,新規,0,2022-12-01,2022-12-01,Ｋ＆Ｋ合同会社,,合同会社,大阪府,大阪市北区,梅田１丁目２－２大阪駅前第２ビル１２－１２,,27,127,5300001,,,,,,,2022-12-01,1,,,,,ケーアンドケー,0
148,1120901046797,新規,0,2022-12-01,2022-12-01,恵達株式会社,,株式会社,大阪府,吹田市,広芝町４番３４号江坂第一ビル６Ｆ－３８号室,,27,205,5640052,,,,,,,2022-12-01,1,,,,,ケイタツ,0
160,1140001128197,新規,0,2022-12-01,2022-12-01,吉本工業株式会社,,株式会社,兵庫県,姫路市,大津区天神町２丁目１６６番地４,,28,201,6711131,,,,,,,2022-12-01,1,,,,,ヨシモトコウギョウ,0
161,1140001128222,新規,0,2022-12-01,2022-12-01,株式会社ＥＭＩＬＵＣＫ,,株式会社,兵庫県,西宮市,小松東町３丁目３番４３号小松東ビル１階,,28,204,6638123,,,,,,,2022-12-01,1,,,,,エミラック,0
167,1150003002820,新規,0,2022-12-01,2022-12-01,Ｈｏｒｉｚｏｎ合同会社,,合同会社,奈良県,北葛城郡河合町,中山台１丁目２０番地１４,,29,427,6360072,,,,,,,2022-12-01,1,,,,,ホライゾン,0
170,1170001017389,新規,0,2022-12-01,2022-12-01,株式会社鳥山漁具木工製作所,,株式会社,和歌山県,田辺市,江川３番５１号,,30,206,6460054,,,,,,,2022-12-01,1,,,,,トリヤマギョグモッコウセイサクショ,0
176,1180001154017,新規,0,2022-12-01,2022-12-01,株式会社ＰｏＬ,,株式会社,愛知県,名古屋市中区,栄２丁目１５番１６号白川タワービル７Ｆ,,23,106,4600008,,,,,,,2022-12-01,1,,,,,ピーオーエル,0
177,1180003024531,新規,0,2022-12-01,2022-12-01,合同会社ＢｒｉｃｏｌａＬＡＢ,,合同会社,愛知県,名古屋市緑区,鳴海町字母呂後１２１番地の２,,23,114,4580801,,,,,,,2022-12-01,1,,,,,ブリコララボ,0
183,1180301036864,新規,0,2022-12-01,2022-12-01,株式会社十一,,株式会社,愛知県,豊田市,山之手７丁目５５番地,,23,211,4710833,,,,,,,2022-12-01,1,,,,,イレブン,0
184,1180303005520,新規,0,2022-12-01,2022-12-01,広瀬エンジニアリング合同会社,,合同会社,愛知県,豊田市,東広瀬町大屋敷１７番地３,,23,211,4700307,,,,,,,2022-12-01,1,,,,,ヒロセエンジニアリング,0
196,1230003001938,新規,0,2022-12-01,2022-12-01,合同会社ＲＭコーポレーション,,合同会社,富山県,高岡市,井口本江８３１―１８,,16,202,9330807,,,,,,,2022-12-01,1,,,,,アールエムコーポレーション,0
200,1240001060720,新規,0,2022-12-01,2022-12-01,株式会社あねごイノベーションズ,,株式会社,広島県,広島市東区,中山鏡が丘１４番１６号,,34,102,7320022,,,,,,,2022-12-01,1,,,,,アネゴイノベーションズ,0
201,1240001060729,新規,0,2022-12-01,2022-12-01,株式会社ＥＩＳＥＩ,,株式会社,広島県,三次市,十日市中１丁目１０番１７号,,34,209,7280012,,,,,,,2022-12-01,1,,,,,エイセイ,0
219,1290001099705,新規,0,2022-12-01,2022-12-01,株式会社ｍｉｔｕ,,株式会社,福岡県,福岡市中央区,春吉３丁目２３番２２号,,40,133,8100003,,,,,,,2022-12-01,1,,,,,ミツ,0
223,1290003013267,新規,0,2022-12-01,2022-12-01,ＮＡＭ　ＴＩＥＮ合同会社,,合同会社,福岡県,福岡市東区,筥松３丁目１９番６２号,,40,131,8120061,,,,,,,2022-12-01,1,,,,,ナムティエン,0
225,1320001019428,新規,0,2022-12-01,2022-12-01,株式会社Ｆｉｖｅ１ｓｔ,,株式会社,大分県,国東市,安岐町下原１８８８番地１,,44,214,8730231,,,,,,,2022-12-01,1,,,,,ファイブファースト,0
227,1320003003958,新規,0,2022-12-01,2022-12-01,合同会社リトルクラン,,合同会社,大分県,大分市,角子原１丁目２番１４号,,44,201,8700271,,,,,,,2022-12-01,1,,,,,リトルクラン,0
229,1330001030342,新規,0,2022-12-01,2022-12-01,株式会社ＡＩＤＹ,,株式会社,熊本県,熊本市北区,武蔵ケ丘５丁目２４番１６号,,43,105,8618001,,,,,,,2022-12-01,1,,,,,エイディ,0
235,1340001025201,新規,0,2022-12-01,2022-12-01,ＫＮ工業株式会社,,株式会社,鹿児島県,大島郡伊仙町,大字喜念４０７―乙番地,,46,532,8918111,,,,,,,2022-12-01,1,,,,,ケーエヌコウギョウ,0
245,1430003014507,新規,0,2022-12-01,2022-12-01,合同会社ノース・プリックス,,合同会社,北海道,札幌市豊平区,平岸一条２丁目７番３３号,,01,105,0620931,,,,,,,2022-12-01,1,,,,,ノースプリックス,0
246,1440003001495,新規,0,2022-12-01,2022-12-01,ｂｕｆｆ合同会社,,合同会社,北海道,函館市,昭和３丁目３０―２５,,01,202,0410812,,,,,,,2022-12-01,1,,,,,バフ,0
249,1450001013847,新規,0,2022-12-01,2022-12-01,株式会社マツウラ,,株式会社,北海道,旭川市,東旭川南一条８丁目１番１号,,01,204,0788261,,,,,,,2022-12-01,1,,,,,マツウラ,0
253,1480001011939,新規,0,2022-12-01,2022-12-01,株式会社鳶政,,株式会社,徳島県,板野郡藍住町,住吉字乾１１６番地１６,,36,403,7711267,,,,,,,2022-12-01,1,,,,,トビマサ,0
255,1700150111277,新規,0,2022-12-01,2022-12-01,Ｊｉａｎｇｓｕ　Ｈｕａｈｏｎｇｄｅ　Ｔｅｃｈｎｏｌｏｇｙ　Ｄｅｖｅｌｏｐｍｅｎｔ　Ｃｏ．，Ｌｔｄ．,,外国会社等,,,,,,,,Ｒｏｏｍ　９０１　Ｓｏｕｔｈ，Ｎｏ．５　Ｚｈｉｈｕｉ　Ｒｏａｄ，Ｈｕｉｓｈａｎ　ｅｃｏｎｏｍｉｃ　ｄｅｖｅｌｏｐｍｅｎｔ　Ｄｉｓｔｒｉｃｔ，Ｗｕｘｉ　Ｃｉｔｙ，Ｊｉａｎｇｓｕ　Ｐｒｏｖｉｎｃｅ　２１４０００　（Ｃｈｉｎａ）,,,,,,2022-12-01,1,,,,,ジアンスフアホンデテクロレジデイワイオプメンツテカンパニーリミテツド,0
256,1700150113216,新規,0,2022-12-01,2022-12-01,Ｑｏｏｋｋａ　Ｅｎｔｅｒｔａｉｎｍｅｎｔ　Ｌｉｍｉｔｅｄ,,外国会社等,,,,,,,,中華人民共和国香港特別行政区コーズウェイ・ベイ、ハイサン・アベニュー３３、リー・ガーデン・ワン１９階１９０１号,,,,,,2022-12-01,1,,,,,クーカエンターテインメントリミテツド,0
259,2010001231228,新規,0,2022-12-01,2022-12-01,ＲＲＨＯオペレーションズ株式会社,,株式会社,東京都,千代田区,丸の内３丁目１番１号東京共同会計事務所内,,13,101,1000005,,,,,,,2022-12-01,1,,,,,アールアールエイチオーオペレーションズ,0
261,2010003039207,新規,0,2022-12-01,2022-12-01,Ｔｒｕｓｔ合同会社,,合同会社,東京都,文京区,千駄木３丁目２７番９号,,13,105,1130022,,,,,,,2022-12-01,1,,,,,トラスト,0
268,2010401171024,新規,0,2022-12-01,2022-12-01,株式会社ＪＰＮＺ,,株式会社,東京都,港区,白金台３丁目６－１６－４０６,,13,103,1080071,,,,,,,2022-12-01,1,,,,,ジェーピーエヌジー,0
269,2010401171057,新規,0,2022-12-01,2022-12-01,株式会社アベンジャーズ・ジャパン,,株式会社,東京都,港区,南青山２丁目２番１５号,,13,103,1070062,,,,,,,2022-12-01,1,,,,,アベンジャーズジャパン,0
270,2010401171081,新規,0,2022-12-01,2022-12-01,株式会社左京商事,,株式会社,東京都,港区,南青山２丁目２番８号ＤＦＢｕｉｌｄｉｎｇ、５Ｆ,,13,103,1070062,,,,,,,2022-12-01,1,,,,,サキョウショウジ,0
271,2010401171115,新規,0,2022-12-01,2022-12-01,ａｑｕｅｉｌ株式会社,,株式会社,東京都,港区,北青山２丁目７－１３プラセオ青山ビル３Ｆ,,13,103,1070061,,,,,,,2022-12-01,1,,,,,アクイユ,0
273,2010403029006,新規,0,2022-12-01,2022-12-01,合同会社新谷第２発電所,,合同会社,東京都,港区,六本木３丁目２番１号,,13,103,1060032,,,,,,,2022-12-01,1,,,,,シンタニダイニハツデンショ,0
274,2010403029030,新規,0,2022-12-01,2022-12-01,合同会社用山第二発電所,,合同会社,東京都,港区,六本木３丁目２番１号,,13,103,1060032,,,,,,,2022-12-01,1,,,,,モチヤマダイニハツデンショ,0
275,2010403029039,新規,0,2022-12-01,2022-12-01,合同会社ソーラーパーク８号,,合同会社,東京都,港区,六本木３丁目２番１号,,13,103,1060032,,,,,,,2022-12-01,1,,,,,ソーラーパークハチゴウ,0
276,2010403029055,新規,0,2022-12-01,2022-12-01,ＡＹＲ３Ａ合同会社,,合同会社,東京都,港区,六本木１丁目９番１０号アークヒルズ仙石山森タワー４０階,,13,103,1060032,,,,,,,2022-12-01,1,,,,,エーワイアールスリーエー,0
288,2010603009864,新規,0,2022-12-01,2022-12-01,アイ・ティー・エス合同会社,,合同会社,東京都,墨田区,石原４丁目１２番５号,,13,107,1300011,,,,,,,2022-12-01,1,,,,,アイティーエス,0
294,2010903007816,新規,0,2022-12-01,2022-12-01,プラセット合同会社,,合同会社,東京都,世田谷区,桜丘５丁目３番１３号,,13,112,1560054,,,,,,,2022-12-01,1,,,,,プラセット,0
300,2011001151234,新規,0,2022-12-01,2022-12-01,株式会社ジャパンパートナーズ,,株式会社,東京都,渋谷区,松濤１丁目２８－２,,13,113,1500046,,,,,,,2022-12-01,1,,,,,ジャパンパートナーズ,0
310,2011703003311,新規,0,2022-12-01,2022-12-01,エディトリアルストア合同会社,,合同会社,東京都,江戸川区,東葛西２丁目３５番９号,,13,123,1340084,,,,,,,2022-12-01,1,,,,,エディトリアルストア,0
312,2011803005406,新規,0,2022-12-01,2022-12-01,スタージェイド合同会社,,合同会社,東京都,葛飾区,東四つ木３丁目４９番２０号グランウイッシュ四ツ木５０９,,13,122,1240014,,,,,,,2022-12-01,1,,,,,スタージェイド,0
317,2012803002938,新規,0,2022-12-01,2022-12-01,合同会社スタジオ５８,,合同会社,東京都,国分寺市,日吉町１丁目３８番地１０アメニティコウヤマ第５ガーデン３０１,,13,214,1850032,,,,,,,2022-12-01,1,,,,,スタジオゴジュウハチ,0
324,2020001149188,新規,0,2022-12-01,2022-12-01,株式会社ＰｏｃｋｅｔＰｏｒｔ,,株式会社,神奈川県,横浜市中区,相生町３丁目６０泰生ビル３１１号室,,14,104,2310012,,,,,,,2022-12-01,1,,,,,ポケットポート,0
331,2020003022822,新規,0,2022-12-01,2022-12-01,合同会社ヒューマン,,合同会社,神奈川県,川崎市宮前区,菅生４丁目４番３号,,14,136,2160015,,,,,,,2022-12-01,1,,,,,ヒューマン,0
333,2021001077577,新規,0,2022-12-01,2022-12-01,株式会社エコプラン,,株式会社,神奈川県,相模原市南区,西大沼５丁目２０番９号,,14,153,2520332,,,,,,,2022-12-01,1,,,,,エコプラン,0
343,2030001151250,新規,0,2022-12-01,2022-12-01,株式会社越雅,,株式会社,埼玉県,川口市,元郷４丁目２３番１３号,,11,203,3320011,,,,,,,2022-12-01,1,,,,,エツガ,0
345,2030003020619,新規,0,2022-12-01,2022-12-01,合同会社ウェルフェアウェルス,,合同会社,埼玉県,越谷市,大沢３丁目２番１９－１号,,11,222,3430025,,,,,,,2022-12-01,1,,,,,ウェルフェアウェルス,0
361,2050001052026,新規,0,2022-12-01,2022-12-01,ＲＥＧＵＴＳ株式会社,,株式会社,茨城県,取手市,戸頭１０４５番地,,08,217,3020034,,,,,,,2022-12-01,1,,,,,リガッツ,0
362,2050001052034,新規,0,2022-12-01,2022-12-01,株式会社ＬＩＧＨＴＳ,,株式会社,茨城県,取手市,取手２丁目１８番３０号,,08,217,3020004,,,,,,,2022-12-01,1,,,,,ライツ,0
366,2050003007060,新規,0,2022-12-01,2022-12-01,松本リペア機工合同会社,,合同会社,茨城県,鹿嶋市,港ケ丘２丁目４番２６号,,08,222,3140011,,,,,,,2022-12-01,1,,,,,マツモトリペアキコウ,0
372,2080001025318,新規,0,2022-12-01,2022-12-01,日本隆藤産業株式会社,00128641,株式会社,静岡県,島田市,横井２丁目１１番２３号,,22,209,4270024,,,,,,,2022-12-01,1,,,,,ニホンタカトウサンギョウ,0
377,2100001035925,新規,0,2022-12-01,2022-12-01,株式会社Ｍｏｎｔｅｒｅｙ,,株式会社,長野県,塩尻市,大字洗馬２４５１番地１,,20,215,3996462,,,,,,,2022-12-01,1,,,,,モントレイ,0
385,2120001250687,新規,0,2022-12-01,2022-12-01,ナガヤス株式会社,,株式会社,大阪府,大阪市西成区,天下茶屋１丁目１番１６－２０３号,,27,122,5570014,,,,,,,2022-12-01,1,,,,,ナガヤス,0
386,2120001250745,新規,0,2022-12-01,2022-12-01,ＣＯＮＹ　ＴＲＵＳＴ株式会社,,株式会社,大阪府,大阪市西区,安治川２丁目４番９号,,27,106,5500026,,,,,,,2022-12-01,1,,,,,コニートラスト,0
387,2120003022977,新規,0,2022-12-01,2022-12-01,合同会社計画実現ｌａｂ,,合同会社,大阪府,枚方市,東香里南町３７－２１,,27,210,5730074,,,,,,,2022-12-01,1,,,,,ケイカクジツゲンラボ,0
388,2120003022985,新規,0,2022-12-01,2022-12-01,合同会社ｇｌｏｗ　ｕｐ,,合同会社,大阪府,大阪市都島区,高倉町１丁目１４番２５－３０６号,,27,102,5340011,,,,,,,2022-12-01,1,,,,,グローアップ,0
392,2120101066604,新規,0,2022-12-01,2022-12-01,株式会社そらたび,,株式会社,大阪府,岸和田市,磯上町６丁目１４番２２号,,27,202,5960001,,,,,,,2022-12-01,1,,,,,ソラタビ,0
410,2140001128238,新規,0,2022-12-01,2022-12-01,虎株式会社,,株式会社,兵庫県,宝塚市,山本野里１丁目１番５１号,,28,214,6650814,,,,,,,2022-12-01,1,,,,,トラ,0
432,2180301036855,新規,0,2022-12-01,2022-12-01,株式会社竹春不動産,,株式会社,愛知県,刈谷市,恩田町２丁目１５３番地４,,23,210,4480013,,,,,,,2022-12-01,1,,,,,タケハルフドウサン,0
433,2180303005528,新規,0,2022-12-01,2022-12-01,合同会社ＺＡＩＳＨＯ,,合同会社,愛知県,岡崎市,羽根町字小豆坂１９４番地１,,23,202,4440814,,,,,,,2022-12-01,1,,,,,ザイショ,0
447,2260001037451,新規,0,2022-12-01,2022-12-01,宇治郷ホールディングス株式会社,,株式会社,岡山県,岡山市北区,問屋町１４番地１０５,,33,101,7000977,,,,,,,2022-12-01,1,,,,,ウジゴウホールディングス,0
449,2270001008674,新規,0,2022-12-01,2022-12-01,株式会社米子ホールディングス,,株式会社,鳥取県,米子市,永江５０１番地,,31,202,6830014,,,,,,,2022-12-01,1,,,,,ヨナゴホールディングス,0
458,2290001099745,新規,0,2022-12-01,2022-12-01,株式会社マエダ,,株式会社,福岡県,糟屋郡須惠町,大字旅石８９２－４,,40,344,8112221,,,,,,,2022-12-01,1,,,,,マエダ,0
463,2290003013266,新規,0,2022-12-01,2022-12-01,ＳＫＰ合同会社,,合同会社,福岡県,福岡市東区,香椎浜４丁目１番４－２０１号ネクサスワールドポルザンパルク棟４号,,40,131,8130016,,,,,,,2022-12-01,1,,,,,エスケーピー,0
466,2320001019443,新規,0,2022-12-01,2022-12-01,株式会社匠凌,,株式会社,大分県,宇佐市,大字畑田１１９８番地の１Ｌｉｆｅ２－Ａ号,,44,211,8790451,,,,,,,2022-12-01,1,,,,,ショウリョウ,0
471,2330003009607,新規,0,2022-12-01,2022-12-01,合同会社ＬＵＣＯＷＡ,,合同会社,熊本県,熊本市中央区,九品寺３丁目１５番７－７０１号,,43,101,8620976,,,,,,,2022-12-01,1,,,,,ルコワ,0
474,2350001018054,新規,0,2022-12-01,2022-12-01,はっぴーりれー株式会社,,株式会社,宮崎県,北諸県郡三股町,大字宮村２９０９番地１６,,45,341,8891912,,,,,,,2022-12-01,1,,,,,ハッピーリレー,0
475,2360001031262,新規,0,2022-12-01,2022-12-01,株式会社Ｕ,,株式会社,沖縄県,那覇市,松尾２丁目１９番３５フェリーチェ３０５号,,47,201,9000014,,,,,,,2022-12-01,1,,,,,ユー,0
476,2360003012509,新規,0,2022-12-01,2022-12-01,合同会社ツキ,,合同会社,沖縄県,那覇市,真嘉比１丁目６番６－４０５号室,,47,201,9020068,,,,,,,2022-12-01,1,,,,,ツキ,0
486,2380001033298,新規,0,2022-12-01,2022-12-01,日越飼料株式会社,,株式会社,福島県,福島市,三河南町１番２０号コラッセふくしま６階,,07,201,9608053,,,,,,,2022-12-01,1,,,,,,0
495,2430001087958,新規,0,2022-12-01,2022-12-01,株式会社結,,株式会社,北海道,札幌市中央区,南六条西２丁目８番５号フォレストビル４階,,01,101,0640806,,,,,,,2022-12-01,1,,,,,ユイ,0
496,2430001087966,新規,0,2022-12-01,2022-12-01,株式会社Ｏｎｅ,,株式会社,北海道,札幌市中央区,南二条西４丁目１２番６号第２コンタクトオフビル８Ｆ,,01,101,0600062,,,,,,,2022-12-01,1,,,,,ワン,0
507,2700150111276,新規,0,2022-12-01,2022-12-01,深セン莱斯特科技有限公司,,外国会社等,,,,,,,,Ｂ　３０６，Ｃｈｅｎｇｓｈｉｓｈａｎｈａｉ　ｃｅｎｔｅｒ，Ｎｏ．１１　Ｚｈｏｎｇｘｉｎｇ　Ｒｏａｄ，Ｂａｎｔｉａｎ　ｓｔｒｅｅｔ，Ｌｏｎｇｇａｎｇ　Ｄｉｓｔｒｉｃｔ　Ｓｈｅｎｚｈｅｎ　ｇｕａｎｇｄｏｎｇ　Ｃｈｉｎａ,,,,,,2022-12-01,1,,,,,シンセンライステカジユウユウゲンコウシ,0
508,2700150113215,新規,0,2022-12-01,2022-12-01,広州オップライト株式会社,,外国会社等,,,,,,,,中国広東省広州市白雲区嘉禾街新科下村永和東街１５号Ａ棟４楼Ａ４０３房,,,,,,2022-12-01,1,,,,,コウシユウオツプライトカブシキガイシヤ,0
518,3010003039197,新規,0,2022-12-01,2022-12-01,合同会社ダブエンタープライズ,,合同会社,東京都,文京区,小日向２丁目２９番２２号,,13,105,1120006,,,,,,,2022-12-01,1,,,,,ダブエンタープライズ,0
523,3010401171097,新規,0,2022-12-01,2022-12-01,ギャラガーホールディングスジャパン株式会社,,株式会社,東京都,港区,虎ノ門１丁目１０番５号ＫＤＸ虎ノ門一丁目ビル,,13,103,1050001,,,,,,,2022-12-01,1,,,,,ギャラガーホールディングスジャパン,0
525,3010403029005,新規,0,2022-12-01,2022-12-01,合同会社新谷第１発電所,,合同会社,東京都,港区,六本木３丁目２番１号,,13,103,1060032,,,,,,,2022-12-01,1,,,,,シンタニダイイチハツデンショ,0
526,3010403029038,新規,0,2022-12-01,2022-12-01,合同会社深津第三発電所,,合同会社,東京都,港区,六本木３丁目２番１号,,13,103,1060032,,,,,,,2022-12-01,1,,,,,フカツダイサンハツデンショ,0
527,3010403029046,新規,0,2022-12-01,2022-12-01,合同会社若葉区発電所,,合同会社,東京都,港区,六本木３丁目２番１号,,13,103,1060032,,,,,,,2022-12-01,1,,,,,ワカバクハツデンショ,0
528,3010403029054,新規,0,2022-12-01,2022-12-01,ＡＹＲ３Ｈｏｌｄｉｎｇ合同会社,,合同会社,東京都,港区,六本木１丁目９番１０号アークヒルズ仙石山森タワー４０階,,13,103,1060032,,,,,,,2022-12-01,1,,,,,エーワイアールスリーホールディング,0
538,3010601062229,新規,0,2022-12-01,2022-12-01,株式会社Ｍ．Ｊ　ＢＲＩＤＧＥ,,株式会社,東京都,墨田区,亀沢４丁目１９番１７号ＯＧ錦糸町１０１号,,13,107,1300014,,,,,,,2022-12-01,1,,,,,エムジェイブリッジ,0
555,3011001151200,新規,0,2022-12-01,2022-12-01,株式会社日本情報セキュリティ,,株式会社,東京都,渋谷区,道玄坂１丁目１５－３プリメーラ道玄坂６０８号室,,13,113,1500043,,,,,,,2022-12-01,1,,,,,ニホンジョウホウセキュリティ,0
556,3011001151241,新規,0,2022-12-01,2022-12-01,株式会社Ｍｕｒｐｈ,,株式会社,東京都,渋谷区,渋谷２丁目１９－１５宮益坂ビルディング６０９,,13,113,1500002,,,,,,,2022-12-01,1,,,,,マーフ,0
560,3011003015816,新規,0,2022-12-01,2022-12-01,合同会社熊１,,合同会社,東京都,目黒区,上目黒１丁目２３番１号中目黒アリーナ４０５号室,,13,110,1530051,,,,,,,2022-12-01,1,,,,,クマイチ,0
564,3011101100981,新規,0,2022-12-01,2022-12-01,株式会社ＣＰＯＳ,,株式会社,東京都,新宿区,中井２丁目２０－１４,,13,104,1610035,,,,,,,2022-12-01,1,,,,,,0
565,3011101101006,新規,0,2022-12-01,2022-12-01,株式会社ＧＳＫ,,株式会社,東京都,新宿区,荒木町１９－４マイスタイルヴィンテージ四谷荒木町１０８,,13,104,1600007,,,,,,,2022-12-01,1,,,,,ジーエスケー,0
574,3011505002519,新規,0,2022-12-01,2022-12-01,社会福祉法人ソラティオ,,その他の設立登記法人,東京都,荒川区,南千住２丁目８番６号,,13,118,1160003,,,,,,,2022-12-01,1,,,,,ソラティオ,0
576,3011701025827,新規,0,2022-12-01,2022-12-01,Ａｌｉｅｎ　ｍｅａｌｓ株式会社,,株式会社,東京都,江戸川区,春江町５丁目３０番地３９,,13,123,1340003,,,,,,,2022-12-01,1,,,,,エイリアンミールズ,0
578,3011803005405,新規,0,2022-12-01,2022-12-01,ＨＨＪｏｂｓ合同会社,,合同会社,東京都,葛飾区,高砂５丁目６番１５号,,13,122,1250054,,,,,,,2022-12-01,1,,,,,エイチエイチジョブス,0
588,3020001149195,新規,0,2022-12-01,2022-12-01,株式会社ＳＥＥＤＩＳＨ,,株式会社,神奈川県,横浜市中区,相生町２丁目３８佐藤相生ビル１Ｆ,,14,104,2310012,,,,,,,2022-12-01,1,,,,,シーディッシュ,0
589,3020001149204,新規,0,2022-12-01,2022-12-01,株式会社創清,,株式会社,神奈川県,川崎市川崎区,砂子２丁目８番地１シャンボール川崎砂子７０５号,,14,131,2100006,,,,,,,2022-12-01,1,,,,,ソウシン,0
590,3020001149212,新規,0,2022-12-01,2022-12-01,株式会社建,,株式会社,神奈川県,横浜市戸塚区,影取町１８番地９,,14,110,2450064,,,,,,,2022-12-01,1,,,,,タケル,0
593,3021001077592,新規,0,2022-12-01,2022-12-01,株式会社ＮＯＲＩ,,株式会社,神奈川県,厚木市,温水１９００番地,,14,212,2430033,,,,,,,2022-12-01,1,,,,,,0
605,3030001151282,新規,0,2022-12-01,2022-12-01,株式会社Ｔａｔｅｋａ,,株式会社,埼玉県,さいたま市中央区,新都心４番地１２ミツエビル１０２,,11,105,3300081,,,,,,,2022-12-01,1,,,,,タテカ,0
610,3030003020667,新規,0,2022-12-01,2022-12-01,合同会社クリームソーダ,,合同会社,埼玉県,比企郡小川町,大字靭負６４８番地３,,11,343,3550331,,,,,,,2022-12-01,1,,,,,クリームソーダ,0
617,3050001052033,新規,0,2022-12-01,2022-12-01,株式会社アールサポート,,株式会社,茨城県,土浦市,烏山２丁目５３０番地２１０,,08,203,3000836,,,,,,,2022-12-01,1,,,,,アールサポート,0
620,3050003007051,新規,0,2022-12-01,2022-12-01,合同会社Ｃｒａｓｉａ,,合同会社,茨城県,守谷市,百合ケ丘１丁目２３２８番地の１０,,08,224,3020110,,,,,,,2022-12-01,1,,,,,クラシア,0
632,3110001037135,新規,0,2022-12-01,2022-12-01,プライムＹＯＵ株式会社,,株式会社,新潟県,上越市,国府４丁目２番２９号,,15,222,9420082,,,,,,,2022-12-01,1,,,,,プライムユー,0
633,3110001037143,新規,0,2022-12-01,2022-12-01,株式会社ＪＫ商会,,株式会社,新潟県,新発田市,真野原８６１番地３,,15,206,9570233,,,,,,,2022-12-01,1,,,,,ジェイケイショウカイ,0
640,3120001250620,新規,0,2022-12-01,2022-12-01,東方駿株式会社,,株式会社,大阪府,大阪市平野区,平野馬場１丁目５番２５号３０２,,27,126,5470048,,,,,,,2022-12-01,1,,,,,トウホウシュン,0
641,3120001250645,新規,0,2022-12-01,2022-12-01,二師兄国際貿易株式会社,,株式会社,大阪府,大阪市浪速区,恵美須西２丁目８番１８号サンピアユタカ６Ｃ,,27,111,5560003,,,,,,,2022-12-01,1,,,,,ニシアニコクサイボウエキ,0
642,3120001250653,新規,0,2022-12-01,2022-12-01,株式会社ＭＡＧ,,株式会社,大阪府,守口市,馬場町２丁目４番１８－２０２号,,27,209,5700062,,,,,,,2022-12-01,1,,,,,エムエージー,0
643,3120001250678,新規,0,2022-12-01,2022-12-01,株式会社ＷＥＩＳＨＯＰ,,株式会社,大阪府,大阪市港区,市岡元町２丁目６番－１１－１０６号,,27,107,5520002,,,,,,,2022-12-01,1,,,,,ウェーショップ,0
644,3120001250686,新規,0,2022-12-01,2022-12-01,海天株式会社,,株式会社,大阪府,大阪市中央区,東平２丁目２番１０号,,27,128,5420063,,,,,,,2022-12-01,1,,,,,カイテン,0
645,3120001250694,新規,0,2022-12-01,2022-12-01,株式会社コモンセージ,,株式会社,大阪府,大阪市旭区,清水３丁目３４番８号,,27,117,5350021,,,,,,,2022-12-01,1,,,,,コモンセージ,0
647,3120003022976,新規,0,2022-12-01,2022-12-01,合同会社ＹＡＭＡＴＯ企画,,合同会社,大阪府,大阪市中央区,東心斎橋２丁目７番１３号コクボビル１階,,27,128,5420083,,,,,,,2022-12-01,1,,,,,ヤマトキカク,0
649,3120101066611,新規,0,2022-12-01,2022-12-01,株式会社Ｚｉｎｓｅｉ,,株式会社,大阪府,松原市,小川１丁目３番２７号,,27,217,5800002,,,,,,,2022-12-01,1,,,,,ジンセイ,0
662,3140001128187,新規,0,2022-12-01,2022-12-01,ＢＯＮＤ株式会社,,株式会社,兵庫県,姫路市,広畑区西蒲田８１１番地１,,28,201,6711107,,,,,,,2022-12-01,1,,,,,ボンド,0
663,3140001128195,新規,0,2022-12-01,2022-12-01,株式会社ＷＡ‐ＲＡ‐ＺＩ,,株式会社,兵庫県,神戸市西区,森友５丁目３１番地,,28,111,6512132,,,,,,,2022-12-01,1,,,,,ワラジ,0
664,3140001128212,新規,0,2022-12-01,2022-12-01,株式会社ＮＯＶＵＳ,,株式会社,兵庫県,神戸市長田区,戸崎通２丁目８番１２号２Ｆ,,28,106,6530845,,,,,,,2022-12-01,1,,,,,ノウス,0
670,3180001154023,新規,0,2022-12-01,2022-12-01,株式会社門脇商店,,株式会社,愛知県,大府市,共和町３丁目２０番地７,,23,223,4740061,,,,,,,2022-12-01,1,,,,,カドワキショウテン,0
676,3180003024554,新規,0,2022-12-01,2022-12-01,合同会社ヒカリ不動産,,合同会社,愛知県,名古屋市千種区,内山３丁目８－１６トキワビル３Ｆ,,23,101,4640075,,,,,,,2022-12-01,1,,,,,ヒカリフドウサン,0
686,3220001025145,新規,0,2022-12-01,2022-12-01,株式会社ＷＡＫＡＮＡＭＩ,,株式会社,石川県,野々市市,矢作３丁目１３４番地９,,17,212,9218822,,,,,,,2022-12-01,1,,,,,ワカナミ,0
693,3240001060719,新規,0,2022-12-01,2022-12-01,株式会社ＢＥＳＴ,,株式会社,広島県,広島市佐伯区,皆賀３丁目１８番１１－４０２号,,34,108,7315124,,,,,,,2022-12-01,1,,,,,ベスト,0
697,3260001037442,新規,0,2022-12-01,2022-12-01,株式会社マーレ,,株式会社,岡山県,岡山市北区,清輝橋４丁目２－１３,,33,101,7000861,,,,,,,2022-12-01,1,,,,,マーレ,0
698,3260001037450,新規,0,2022-12-01,2022-12-01,ＵＮＩＳＯＮＡｃｔｉｖｅ株式会社,,株式会社,岡山県,岡山市北区,西古松２３５－１１６（３０１号）,,33,101,7000927,,,,,,,2022-12-01,1,,,,,ユニゾンアクティブ,0
699,3270001008673,新規,0,2022-12-01,2022-12-01,株式会社カワカミ住設,,株式会社,鳥取県,米子市,古豊千９１３番地５,,31,202,6893537,,,,,,,2022-12-01,1,,,,,カワカミジュウセツ,0
707,3290001099752,新規,0,2022-12-01,2022-12-01,株式会社Ｅ‐ｂｕｄｄｙ,,株式会社,福岡県,福岡市博多区,神屋町１０番１６－１１０３号ＭＯＤＥＲＮＰＡＬＡＺＺＯ天神北ＩＩ,00128649,40,132,8120022,,,,,,,2022-12-01,1,,,,,イーバディー,0
711,3290003013265,新規,0,2022-12-01,2022-12-01,合同会社ＣＬＡＳＳＹ,,合同会社,福岡県,久留米市,合川町１８番地１６－３０７号,,40,203,8390861,,,,,,,2022-12-01,1,,,,,クラッシー,0
712,3290003013273,新規,0,2022-12-01,2022-12-01,合同会社ＨＧ,,合同会社,福岡県,福岡市博多区,古門戸町８番１０号,,40,132,8120029,,,,,,,2022-12-01,1,,,,,エイチジー,0
716,3330001030332,新規,0,2022-12-01,2022-12-01,リプレシェアホールディングス株式会社,,株式会社,熊本県,熊本市東区,健軍１丁目３７番６号,,43,102,8620911,,,,,,,2022-12-01,1,,,,,リプレシェアホールディングス,0
732,3380001033297,新規,0,2022-12-01,2022-12-01,株式会社森合レコード,,株式会社,福島県,郡山市,安積町長久保２丁目４番地の１６,,07,203,9630105,,,,,,,2022-12-01,1,,,,,モリアイレコード,0
740,3430001087949,新規,0,2022-12-01,2022-12-01,株式会社Ｍｏｂａｙ,,株式会社,北海道,札幌市中央区,南一条西７丁目１２番６号パークアベニュービル３Ｆ,,01,101,0600061,,,,,,,2022-12-01,1,,,,,モベイ,0
741,3430003014505,新規,0,2022-12-01,2022-12-01,合同会社ドウキョウ,,合同会社,北海道,札幌市中央区,南十七条西８丁目２－９,,01,101,0640917,,,,,,,2022-12-01,1,,,,,ドウキョウ,0
743,3470001019361,新規,0,2022-12-01,2022-12-01,うみのまちづくり株式会社,,株式会社,香川県,高松市,瓦町１丁目１２番地２８,,37,201,7600052,,,,,,,2022-12-01,1,,,,,ウミノマチヅクリ,0
758,4010001231135,新規,0,2022-12-01,2022-12-01,株式会社１ｓｔ　ｐｏｓｉｔｉｏｎ,,株式会社,東京都,中央区,月島１丁目３番１４－４０３号,,13,102,1040052,,,,,,,2022-12-01,1,,,,,ファーストポジション,0
759,4010001231192,新規,0,2022-12-01,2022-12-01,ＬｉｖＥｄｇｅ株式会社,,株式会社,東京都,千代田区,麹町３丁目２番地３エヌワンビル４階,,13,101,1020083,,,,,,,2022-12-01,1,,,,,リブエッジ,0
761,4010003039221,新規,0,2022-12-01,2022-12-01,自然エネルギーＳＩＰＰ９合同会社,,合同会社,東京都,文京区,本郷５丁目３３番１０号,,13,105,1130033,,,,,,,2022-12-01,1,,,,,シゼンエネルギーエスアイピーピーキュウ,0
771,4010403028996,新規,0,2022-12-01,2022-12-01,Ｓｔｏｒｙｍａｋｅｒ合同会社,,合同会社,東京都,港区,三田５丁目２番３０－９０１号,,13,103,1080073,,,,,,,2022-12-01,1,,,,,ストーリーメーカー,0
772,4010403029004,新規,0,2022-12-01,2022-12-01,合同会社丸森発電所,,合同会社,東京都,港区,六本木３丁目２番１号,,13,103,1060032,,,,,,,2022-12-01,1,,,,,マルモリハツデンショ,0
773,4010403029012,新規,0,2022-12-01,2022-12-01,合同会社桜川発電所,,合同会社,東京都,港区,六本木３丁目２番１号,,13,103,1060032,,,,,,,2022-12-01,1,,,,,サクラガワハツデンショ,0
774,4010403029029,新規,0,2022-12-01,2022-12-01,合同会社宗像市江口発電所,,合同会社,東京都,港区,六本木３丁目２番１号,,13,103,1060032,,,,,,,2022-12-01,1,,,,,ムナカタシエグチハツデンショ,0
775,4010403029045,新規,0,2022-12-01,2022-12-01,合同会社館山発電所,,合同会社,東京都,港区,六本木３丁目２番１号,,13,103,1060032,,,,,,,2022-12-01,1,,,,,タテヤマハツデンショ,0
782,4010803004366,新規,0,2022-12-01,2022-12-01,合同会社ＴＡＤＩＫＡ　ＰＵＲＩ　ＪＡＹＡ　ＪＡＰＡＮ,,合同会社,東京都,大田区,蒲田４丁目３番８号アービラ京浜蒲田４０４号室,,13,111,1440052,,,,,,,2022-12-01,1,,,,,タデイカプリジャヤジャパン,0
796,4011001151232,新規,0,2022-12-01,2022-12-01,株式会社ＰＧＬ,,株式会社,東京都,渋谷区,東２丁目２５番３号ＧＵＩＬＤＳＨＩＢＵＹＡ５Ｆ,,13,113,1500011,,,,,,,2022-12-01,1,,,,,ピージーエル,0
797,4011003015815,新規,0,2022-12-01,2022-12-01,合同会社Ｓｔａｒ’ｓ　Ｗｏｒｌｄ,,合同会社,東京都,渋谷区,道玄坂１丁目１０番８号渋谷道玄坂東急ビル２Ｆ－Ｃ,,13,113,1500043,,,,,,,2022-12-01,1,,,,,スターズワールド,0
813,4011801041616,新規,0,2022-12-01,2022-12-01,Ｌ＆Ｌ株式会社,,株式会社,東京都,足立区,大谷田４丁目２番１５号イクス北綾瀬１０１,,13,121,1200001,,,,,,,2022-12-01,1,,,,,エルアンドエル,0
817,4012403005711,新規,0,2022-12-01,2022-12-01,ＩＫＥ　ＰＬＵＳ合同会社,,合同会社,東京都,府中市,住吉町１丁目７８番地の４６,,13,206,1830034,,,,,,,2022-12-01,1,,,,,アイケーイープラス,0
818,4012803002928,新規,0,2022-12-01,2022-12-01,合同会社ＳＡＮＢＡＮＫ,,合同会社,東京都,国分寺市,東戸倉２丁目３番地３－１０３号,,13,214,1850002,,,,,,,2022-12-01,1,,,,,サンバンク,0
822,4013303006386,新規,0,2022-12-01,2022-12-01,リンリン商事合同会社,,合同会社,東京都,豊島区,池袋４丁目２５番１号紘亜ビル１階,,13,116,1710014,,,,,,,2022-12-01,1,,,,,リンリンショウジ,0
827,4020001149194,新規,0,2022-12-01,2022-12-01,株式会社アトム,,株式会社,神奈川県,横浜市旭区,四季美台４１－３０,,14,112,2410025,,,,,,,2022-12-01,1,,,,,アトム,0
838,4021001077591,新規,0,2022-12-01,2022-12-01,株式会社野村コンサル,,株式会社,神奈川県,藤沢市,藤沢５４１番地の１９クリオ藤沢七番館３０９号,,14,205,2510052,,,,,,,2022-12-01,1,,,,,ノムラコンサル,0
848,4030003020666,新規,0,2022-12-01,2022-12-01,合同会社カッパ・ワークス,,合同会社,埼玉県,所沢市,西所沢１丁目１８番地の１４メゾンソレイユ１０６,,11,208,3591144,,,,,,,2022-12-01,1,,,,,カッパワークス,0
850,4040001009363,新規,0,2022-12-01,2022-12-01,酒井鉄工株式会社,,株式会社,千葉県,千葉市花見川区,検見川町２丁目５５５番地,,12,102,2620023,,,,,,,2022-12-01,1,,,,,サカイテッコウ,0
855,4040001126043,新規,0,2022-12-01,2022-12-01,株式会社ＡＷＡＤ,,株式会社,千葉県,市川市,柏井町３丁目６０６番地２,,12,203,2720802,,,,,,,2022-12-01,1,,,,,エーワッド,0
857,4040003021374,新規,0,2022-12-01,2022-12-01,合同会社サンセルモネット,,合同会社,千葉県,市原市,五井８８０７番地,,12,219,2900056,,,,,,,2022-12-01,1,,,,,サンセルモネット,0
864,4070003004731,新規,0,2022-12-01,2022-12-01,合同会社Ｖフロンティア,,合同会社,群馬県,渋川市,半田字向畑１７５５番地１９,,10,208,3770004,,,,,,,2022-12-01,1,,,,,ブイフロンティア,0
874,4080403004669,新規,0,2022-12-01,2022-12-01,合同会社ｅｓｔａｆｆ,,合同会社,静岡県,浜松市中区,砂山町３２３番１６号ヴェルメゾン浜松３Ｆ号室,,22,131,4300926,,,,,,,2022-12-01,1,,,,,イースタッフ,0
878,4110001037142,新規,0,2022-12-01,2022-12-01,株式会社弦富工業,,株式会社,新潟県,五泉市,村松乙１５４番地５,,15,218,9591705,,,,,,,2022-12-01,1,,,,,ツルトミコウギョウ,0
889,4120001250644,新規,0,2022-12-01,2022-12-01,株式会社Ｂｌｕｅｂｅｒｒｙ,,株式会社,大阪府,大阪市福島区,鷺洲５丁目１２番２－１４３８号,,27,103,5530002,,,,,,,2022-12-01,1,,,,,ブルーベリー,0
890,4120001250660,新規,0,2022-12-01,2022-12-01,株式会社ワトソン,,株式会社,大阪府,大阪市淀川区,西宮原２丁目６番１６号新大阪コーポビアネーズ５２７室,,27,123,5320004,,,,,,,2022-12-01,1,,,,,ワトソン,0
891,4120001250669,新規,0,2022-12-01,2022-12-01,ミント株式会社,,株式会社,大阪府,大阪市中央区,松屋町９番２０号ローレルステート松屋町６０４Ｂ,,27,128,5420067,,,,,,,2022-12-01,1,,,,,ミント,0
892,4120001250702,新規,0,2022-12-01,2022-12-01,株式会社ＲＡｉＳＥ,,株式会社,大阪府,大阪市福島区,吉野１丁目２１番２３－６０２号,,27,103,5530006,,,,,,,2022-12-01,1,,,,,レイズ,0
893,4120001250751,新規,0,2022-12-01,2022-12-01,株式会社ＲＡＩＳＥ,,株式会社,大阪府,大阪市中央区,東心斎橋１丁目４番１号オリエンタル東心斎橋ビル４階５１５,,27,128,5420083,,,,,,,2022-12-01,1,,,,,レイズ,0
908,4120101066602,新規,0,2022-12-01,2022-12-01,株式会社Ｓ．ｖｉｓｉｏｎ,,株式会社,大阪府,堺市堺区,向陵中町２丁１番９号,,27,141,5900024,,,,,,,2022-12-01,1,,,,,エスドットビジョン,0
909,4120101066610,新規,0,2022-12-01,2022-12-01,株式会社リージャパン,,株式会社,大阪府,貝塚市,地藏堂３４１番地４２,,27,208,5970053,,,,,,,2022-12-01,1,,,,,リージャパン,0
911,4120901046803,新規,0,2022-12-01,2022-12-01,株式会社Ｔ＆Ｙ,,株式会社,大阪府,豊中市,新千里南町２丁目１４番１号,,27,203,5600084,,,,,,,2022-12-01,1,,,,,ティーアンドワイ,0
914,4122001036461,新規,0,2022-12-01,2022-12-01,株式会社フォセット,,株式会社,大阪府,大東市,中楠の里町９番３１号,,27,218,5740006,,,,,,,2022-12-01,1,,,,,フォセット,0
915,4122003002461,新規,0,2022-12-01,2022-12-01,合同会社宮之前開発,,合同会社,大阪府,東大阪市,菱屋西３丁目２－２８－３０７,,27,227,5770807,,,,,,,2022-12-01,1,,,,,ミヤノマエカイハツ,0
917,4130001073210,新規,0,2022-12-01,2022-12-01,株式会社アグリキャピタル,,株式会社,京都府,京都市北区,衣笠東尊上院町１０－２ロイヤルコテージ尊上院１Ｂ号室,,26,101,6038455,,,,,,,2022-12-01,1,,,,,アグリキャピタル,0
918,4130003008354,新規,0,2022-12-01,2022-12-01,合同会社Ｇ‐ＬＩＮＥ,,合同会社,京都府,京都市伏見区,竹田真幡木町５３栗塚ビル２階２００号,00128644,26,109,6128427,,,,,,,2022-12-01,1,,,,,ジーライン,0
927,4140001128211,新規,0,2022-12-01,2022-12-01,神戸リフォーム株式会社,,株式会社,兵庫県,神戸市兵庫区,浜山通３丁目４－５,,28,105,6520871,,,,,,,2022-12-01,1,,,,,コウベリフォーム,0
931,4140003018419,新規,0,2022-12-01,2022-12-01,しらさぎリサイクル合同会社,,合同会社,兵庫県,姫路市,町坪１４１番地５,,28,201,6700984,,,,,,,2022-12-01,1,,,,,シラサギリサイクル,0
941,4180001153998,新規,0,2022-12-01,2022-12-01,株式会社Ｍ,,株式会社,愛知県,稲沢市,祖父江町祖父江高熊４７番地,,23,220,4950001,,,,,,,2022-12-01,1,,,,,エム,0
942,4180001154014,新規,0,2022-12-01,2022-12-01,ＦＥＰ株式会社,,株式会社,愛知県,春日井市,六軒屋町３丁目１４７番地３,,23,206,4860842,,,,,,,2022-12-01,1,,,,,エフイーピー,0
947,4180003024553,新規,0,2022-12-01,2022-12-01,合同会社野田村商会,,合同会社,愛知県,名古屋市中村区,日吉町２５番地ロイジェント日吉１２０４号,,23,105,4530029,,,,,,,2022-12-01,1,,,,,ノダムラショウカイ,0
955,4200001040707,新規,0,2022-12-01,2022-12-01,株式会社ＲＥＶＩ　ＣＲＹＳＴＡＬ,,株式会社,岐阜県,岐阜市,琴塚２丁目８番２９号,,21,201,5008222,,,,,,,2022-12-01,1,,,,,レビクリスタル,0
965,4240001060726,新規,0,2022-12-01,2022-12-01,株式会社リベラリア,,株式会社,広島県,広島市安佐南区,上安１丁目１番８号１Ｆ,,34,105,7310154,,,,,,,2022-12-01,1,,,,,リベラリア,0
966,4240003005910,新規,0,2022-12-01,2022-12-01,合同会社カーサメルシー,,合同会社,広島県,安芸郡熊野町,平谷３丁目４番１３号,,34,307,7314229,,,,,,,2022-12-01,1,,,,,カーサメルシー,0
975,4290001099743,新規,0,2022-12-01,2022-12-01,株式会社碇建設,,株式会社,福岡県,古賀市,薦野２０６５番地１４,,40,223,8113122,,,,,,,2022-12-01,1,,,,,イカリケンセツ,0
978,4330001030348,新規,0,2022-12-01,2022-12-01,株式会社菊丸商会,,株式会社,熊本県,八代市,高下西町１３７９番地１,,43,202,8660072,,,,,,,2022-12-01,1,,,,,キクマルショウカイ,0
980,4330003009555,新規,0,2022-12-01,2022-12-01,合同会社藤建,,合同会社,熊本県,阿蘇市,黒川４０７－２,,43,214,8692225,,,,,,,2022-12-01,1,,,,,トウケン,0
982,4340001025207,新規,0,2022-12-01,2022-12-01,鹿児島アプレーザル株式会社,,株式会社,鹿児島県,鹿児島市,星ヶ峯６丁目３３番地１１,,46,201,8910102,,,,,,,2022-12-01,1,,,,,カゴシマアプレーザル,0
984,4350001018052,新規,0,2022-12-01,2022-12-01,ほうじょうファーム株式会社,,株式会社,宮崎県,東諸県郡綾町,大字北俣２３６５番地１,,45,383,8801302,,,,,,,2022-12-01,1,,,,,ホウジョウファーム,0
994,4380001033296,新規,0,2022-12-01,2022-12-01,株式会社ブレイン,,株式会社,福島県,郡山市,清水台２丁目７番２０号サーパス清水台グランゲート１００２号,,07,203,9638005,,,,,,,2022-12-01,1,,,,,,0
999,4430001087956,新規,0,2022-12-01,2022-12-01,株式会社北の酒場,,株式会社,北海道,札幌市中央区,南七条西４丁目２－５　４Ｆ,,01,101,0640807,,,,,,,2022-12-01,1,,,,,キタノサカバ,0
1000,4430003014504,新規,0,2022-12-01,2022-12-01,合同会社丸広近藤商店,,合同会社,北海道,札幌市豊平区,中の島二条７丁目２番２２号,,01,105,0620922,,,,,,,2022-12-01,1,,,,,マルヒロコンドウショウテン,0
1016,5010001231159,新規,0,2022-12-01,2022-12-01,バイオラボ・ジャパン株式会社,,株式会社,東京都,千代田区,丸の内１丁目１１番１号,,13,101,1000005,,,,,,,2022-12-01,1,,,,,バイオラボジャパン,0
1017,5010001231191,新規,0,2022-12-01,2022-12-01,株式会社ａｄｄ　ｏｎ,,株式会社,東京都,中央区,日本橋人形町１丁目７番４－３０１号,,13,102,1030013,,,,,,,2022-12-01,1,,,,,アドオン,0
1018,5010001231225,新規,0,2022-12-01,2022-12-01,株式会社エムトゥエ,,株式会社,東京都,千代田区,丸の内２丁目３番２号,,13,101,1000005,,,,,,,2022-12-01,1,,,,,エムトゥエ,0
1022,5010003039220,新規,0,2022-12-01,2022-12-01,自然エネルギーＳＩＰＰ８合同会社,,合同会社,東京都,文京区,本郷５丁目３３番１０号,,13,105,1130033,,,,,,,2022-12-01,1,,,,,シゼンエネルギーエスアイピーピーハチ,0
1029,5010403029003,新規,0,2022-12-01,2022-12-01,合同会社ソーラーパーク５号,,合同会社,東京都,港区,六本木３丁目２番１号,,13,103,1060032,,,,,,,2022-12-01,1,,,,,ソーラーパークゴゴウ,0
1030,5010403029011,新規,0,2022-12-01,2022-12-01,合同会社ソーラーパーク６号,,合同会社,東京都,港区,六本木３丁目２番１号,,13,103,1060032,,,,,,,2022-12-01,1,,,,,ソーラーパークロクゴウ,0
1031,5010403029028,新規,0,2022-12-01,2022-12-01,合同会社下台原発電所,,合同会社,東京都,港区,六本木３丁目２番１号,,13,103,1060032,,,,,,,2022-12-01,1,,,,,シモダイハラハツデンショ,0
1032,5010403029036,新規,0,2022-12-01,2022-12-01,合同会社青木発電所,,合同会社,東京都,港区,六本木３丁目２番１号,,13,103,1060032,,,,,,,2022-12-01,1,,,,,アオキハツデンショ,0
1033,5010403029044,新規,0,2022-12-01,2022-12-01,合同会社小山第２発電所,,合同会社,東京都,港区,六本木３丁目２番１号,,13,103,1060032,,,,,,,2022-12-01,1,,,,,オヤマダイニハツデンショ,0
1034,5010403029052,新規,0,2022-12-01,2022-12-01,合同会社Ｌｉｃｈｔ,,合同会社,東京都,港区,芝４丁目３番２－２１６号,,13,103,1080014,,,,,,,2022-12-01,1,,,,,リヒト,0
1055,5011001151198,新規,0,2022-12-01,2022-12-01,株式会社八仙花,,株式会社,東京都,渋谷区,神宮前６丁目２３番４号桑野ビル２Ｆ,,13,113,1500001,,,,,,,2022-12-01,1,,,,,ハッセンカ,0
1056,5011001151248,新規,0,2022-12-01,2022-12-01,株式会社グラセン,,株式会社,東京都,渋谷区,円山町５番５号Ｎａｖｉ渋谷Ｖ３階,,13,113,1500044,,,,,,,2022-12-01,1,,,,,グラセン,0
1068,5012703002589,新規,0,2022-12-01,2022-12-01,合同会社ゴールドシップ,,合同会社,東京都,西東京市,南町６丁目１１番６号シャルマンコート２０１号,,13,229,1880012,,,,,,,2022-12-01,1,,,,,ゴールドシップ,0
1073,5013301049980,新規,0,2022-12-01,2022-12-01,Ｃｅｎｔｅｒ株式会社,,株式会社,東京都,豊島区,池袋３丁目５２－１３ハピネスミツワ１０２号室,,13,116,1710014,,,,,,,2022-12-01,1,,,,,センター,0
1080,5020001149202,新規,0,2022-12-01,2022-12-01,株式会社東邦商会,,株式会社,神奈川県,横浜市磯子区,汐見台２丁目９番地２１,,14,107,2350022,,,,,,,2022-12-01,1,,,,,トウホウショウカイ,0
1082,5021001077574,新規,0,2022-12-01,2022-12-01,株式会社関装,,株式会社,神奈川県,藤沢市,高倉５６９番地の６、２Ｆ,,14,205,2520802,,,,,,,2022-12-01,1,,,,,セキソウ,0
1083,5021001077590,新規,0,2022-12-01,2022-12-01,株式会社ＧＲＡＴＩＡ,,株式会社,神奈川県,大和市,上草柳１７７番地３０コアクレスト上草柳ＩＩ－１０６号,00128651,14,213,2420029,,,,,,,2022-12-01,1,,,,,グラティア,0
1096,5030003020665,新規,0,2022-12-01,2022-12-01,合同会社虎丸,,合同会社,埼玉県,さいたま市桜区,大字下大久保１０９９－３－２０６,,11,106,3380825,,,,,,,2022-12-01,1,,,,,トラマル,0
1100,5040001125969,新規,0,2022-12-01,2022-12-01,株式会社王海,,株式会社,千葉県,松戸市,牧の原２丁目１７番地,,12,207,2702267,,,,,,,2022-12-01,1,,,,,オウカイ,0
1103,5040003021381,新規,0,2022-12-01,2022-12-01,合同会社ゼニスジャパントレーディング,,合同会社,千葉県,千葉市緑区,辺田町１６１番地１８,,12,105,2660007,,,,,,,2022-12-01,1,,,,,ゼニスジャパントレーディング,0
1104,5040005021826,新規,0,2022-12-01,2022-12-01,一般社団法人千葉公園ＹｏｈａＳ振興会,,その他の設立登記法人,千葉県,千葉市中央区,弁天３丁目２番１８号,,12,101,2600045,,,,,,,2022-12-01,1,,,,,チバコウエンヨハスシンコウカイ,0
1107,5050001051974,新規,0,2022-12-01,2022-12-01,ＹＡＭＡＮＩＹＡ　ＳＴＯＣＫＳ株式会社,,株式会社,茨城県,古河市,柳橋１００番地６６,,08,204,3060203,,,,,,,2022-12-01,1,,,,,ヤマニヤストックス,0
1109,5050003007058,新規,0,2022-12-01,2022-12-01,合同会社ＳＩＤＤＩＱＵＩ　ＴＲＡＤＩＮＧ,,合同会社,茨城県,猿島郡境町,大字大歩３１３番地１,,08,546,3060415,,,,,,,2022-12-01,1,,,,,シッディキトレーディング,0
1113,5060001035489,新規,0,2022-12-01,2022-12-01,ＦＵＬＬＭＡＫ株式会社,,株式会社,栃木県,宇都宮市,今泉２丁目７番９号オダコーポＩＩ４０２号室,00128643,09,201,3210966,,,,,,,2022-12-01,1,,,,,フルマック,0
1115,5070001039877,新規,0,2022-12-01,2022-12-01,株式会社クロスオーバー,,株式会社,群馬県,伊勢崎市,中央町５番７８号,,10,204,3720042,,,,,,,2022-12-01,1,,,,,クロスオーバー,0
1118,5080101023664,新規,0,2022-12-01,2022-12-01,ＯＲＤＥＲＭＡＤＥｐｌｕｓ株式会社,,株式会社,静岡県,富士宮市,淀師１８１６番地の２８,,22,207,4180051,,,,,,,2022-12-01,1,,,,,オーダーメイドプラス,0
1129,5110001037141,新規,0,2022-12-01,2022-12-01,株式会社小熊アルゴン,,株式会社,新潟県,長岡市,大沼新田浦３４番地,,15,202,9540201,,,,,,,2022-12-01,1,,,,,オグマアルゴン,0
1140,5120001250635,新規,0,2022-12-01,2022-12-01,株式会社ＭＪＣホールディングス,,株式会社,大阪府,大阪市福島区,福島６丁目４番１０号,,27,103,5530003,,,,,,,2022-12-01,1,,,,,エムジェイシーホールディングス,0
1141,5120001250668,新規,0,2022-12-01,2022-12-01,毓融株式会社,,株式会社,大阪府,大阪市中央区,松屋町９番２０号ローレルステート松屋町１４０５Ｂ,,27,128,5420067,,,,,,,2022-12-01,1,,,,,イクユウ,0
1144,5120003022982,新規,0,2022-12-01,2022-12-01,ＳＨＩＶＡＭ　ＧＲＯＵＰ合同会社,,合同会社,大阪府,大阪市淀川区,塚本２丁目２４番１１号２階,,27,123,5320026,,,,,,,2022-12-01,1,,,,,シバムグループ,0
1145,5120003022990,新規,0,2022-12-01,2022-12-01,合同会社ＲＥＴＥＲＡ,,合同会社,大阪府,大阪市旭区,清水４丁目１０番２４号メゾン寿清水４０３,,27,117,5350021,,,,,,,2022-12-01,1,,,,,リテラ,0
1156,5122003002460,新規,0,2022-12-01,2022-12-01,合同会社ふくよか,,合同会社,大阪府,八尾市,久宝寺６丁目６番１０号－１０１号,,27,212,5810072,,,,,,,2022-12-01,1,,,,,フクヨカ,0
1167,5140001128202,新規,0,2022-12-01,2022-12-01,上柏株式会社,,株式会社,兵庫県,神戸市東灘区,向洋町中６丁目９番地神戸ファッションマートビル内８Ｓー０２,,28,101,6580032,,,,,,,2022-12-01,1,,,,,カミカシワ,0
1169,5140003018418,新規,0,2022-12-01,2022-12-01,合同会社ＫＵＭＵＳＫＹ,,合同会社,兵庫県,西宮市,豊楽町９番１１号,,28,204,6620072,,,,,,,2022-12-01,1,,,,,,0
1170,5150005009439,新規,0,2022-12-01,2022-12-01,一般社団法人幹和会,,その他の設立登記法人,奈良県,奈良市,学園大和町２丁目６７番地,,29,201,6310041,,,,,,,2022-12-01,1,,,,,ミキカズカイ,0
1183,5180001153989,新規,0,2022-12-01,2022-12-01,株式会社リアル住まい,,株式会社,愛知県,一宮市,開明字墓所北２０番地１,,23,203,4940001,,,,,,,2022-12-01,1,,,,,リアルスマイ,0
1184,5180001153997,新規,0,2022-12-01,2022-12-01,株式会社Ｓｈｉｎｋｏ　ａｕｔｏ　ｔｒａｄｉｎｇ,,株式会社,愛知県,名古屋市港区,築三町２丁目７５番地２,,23,111,4550044,,,,,,,2022-12-01,1,,,,,シンコーオートトレーディング,0
1185,5180001154021,新規,0,2022-12-01,2022-12-01,株式会社エフォーネスト,,株式会社,愛知県,名古屋市東区,泉２丁目１２番１１号,,23,102,4610001,,,,,,,2022-12-01,1,,,,,エフォーネスト,0
1193,5180003024536,新規,0,2022-12-01,2022-12-01,合同会社ＤＥ‐ＳＴＡＦＦ,,合同会社,愛知県,名古屋市北区,大曽根３丁目１０番７号,,23,103,4620825,,,,,,,2022-12-01,1,,,,,ディースタッフ,0
1194,5180003024552,新規,0,2022-12-01,2022-12-01,ＴＫＥ合同会社,,合同会社,愛知県,名古屋市昭和区,神村町２丁目３８番地,,23,107,4660802,,,,,,,2022-12-01,1,,,,,ティケーイー,0
1199,5180301036869,新規,0,2022-12-01,2022-12-01,株式会社仁建築,,株式会社,愛知県,西尾市,国森町百々３３番地１,,23,213,4440312,,,,,,,2022-12-01,1,,,,,ジンケンチク,0
1200,5180303005525,新規,0,2022-12-01,2022-12-01,Ｆ．Ｍ　ＡＵＴＯ　ＴＲＡＤＩＮＧ合同会社,,合同会社,愛知県,豊田市,汐見町２丁目１４番地１レクサシオミ２１５,,23,211,4710041,,,,,,,2022-12-01,1,,,,,エフエムオートトレーディング,0
1202,5190001029965,新規,0,2022-12-01,2022-12-01,株式会社日和,,株式会社,三重県,鈴鹿市,十宮２丁目７番１６号,,24,207,5130037,,,,,,,2022-12-01,1,,,,,ヒヨリ,0
1203,5210001019170,新規,0,2022-12-01,2022-12-01,ＡＧＥＮＴ株式会社,,株式会社,福井県,大野市,蕨生第１２５号１０番地,,18,205,9120823,,,,,,,2022-12-01,1,,,,,エージェント,0
1213,5240001060683,新規,0,2022-12-01,2022-12-01,高瑞株式会社,,株式会社,広島県,広島市中区,上八丁堀８－２６メープル八丁堀５０３,,34,101,7300012,,,,,,,2022-12-01,1,,,,,タカミズ,0
1214,5240001060717,新規,0,2022-12-01,2022-12-01,株式会社トリビュート,,株式会社,広島県,安芸郡府中町,本町２丁目９番９号,,34,302,7350006,,,,,,,2022-12-01,1,,,,,トリビュート,0
1215,5240001060725,新規,0,2022-12-01,2022-12-01,株式会社湊心建設,,株式会社,広島県,広島市西区,天満町１９番２６号,,34,104,7330022,,,,,,,2022-12-01,1,,,,,ソウシンケンセツ,0
1217,5250003003185,新規,0,2022-12-01,2022-12-01,合同会社こめかつ,,合同会社,山口県,山口市,米屋町３番２０号,,35,203,7530087,,,,,,,2022-12-01,1,,,,,コメカツ,0
1220,5260003004117,新規,0,2022-12-01,2022-12-01,合同会社ＹＦＣＯ,,合同会社,岡山県,岡山市北区,島田本町１丁目４番３０号,,33,101,7000033,,,,,,,2022-12-01,1,,,,,ワイエフシーオー,0
1223,5290001099742,新規,0,2022-12-01,2022-12-01,株式会社ＮＥＯＳＷＡＧ,,株式会社,福岡県,福岡市早良区,城西１丁目８番２５号,,40,137,8140003,,,,,,,2022-12-01,1,,,,,ネオスワッグ,0
1226,5290803004271,新規,0,2022-12-01,2022-12-01,合同会社Ｃｏｌｏｒｓ,,合同会社,福岡県,田川市,千代町１１番１５号,,40,206,8260031,,,,,,,2022-12-01,1,,,,,カラーズ,0
1231,5310001018146,新規,0,2022-12-01,2022-12-01,株式会社エコロミー,,株式会社,長崎県,諫早市,日の出町３番９号,,42,204,8540002,,,,,,,2022-12-01,1,,,,,エコロミー,0
1240,5340003003985,新規,0,2022-12-01,2022-12-01,合同会社南九リーファー,,合同会社,鹿児島県,鹿児島市,和田３丁目１１番２号,,46,201,8910143,,,,,,,2022-12-01,1,,,,,ナンキュウリーファー,0
1244,5380001033295,新規,0,2022-12-01,2022-12-01,株式会社ナナケン,,株式会社,福島県,郡山市,八山田西２丁目３９９,,07,203,9638053,,,,,,,2022-12-01,1,,,,,,0
1265,5480005006931,新規,0,2022-12-01,2022-12-01,特定非営利活動法人ＸＯＸＯ,,その他の設立登記法人,徳島県,徳島市,沖浜東３丁目６０番地アルファステイツ沖浜２０１,,36,201,7708053,,,,,,,2022-12-01,1,,,,,キッス,0
1267,5500001024629,新規,0,2022-12-01,2022-12-01,株式会社ＯＮＥ,,株式会社,愛媛県,松山市,平井町甲３１２９番地１,,38,201,7910243,,,,,,,2022-12-01,1,,,,,ワン,0
1269,5700150113195,新規,0,2022-12-01,2022-12-01,Ｋ　ＬＩＮＥ　ＭＯＴＯＲＳ,,外国会社等,千葉県,白井市,中２１６番地１３オフィスＢ,,12,232,2701406,スリランカ民主社会主義共和国、中央州、キャンディ地区、ゲリオヤ、ジャンクション、ニューエルピティヤ、４０,,,,,,2022-12-01,1,,,,,ケーラインモータース,0
1283,6010003039203,新規,0,2022-12-01,2022-12-01,合同会社ツミキア,,合同会社,東京都,中央区,銀座７丁目１３番６号サガミビル２階,,13,102,1040061,,,,,,,2022-12-01,1,,,,,ツミキア,0
1292,6010401171086,新規,0,2022-12-01,2022-12-01,大雄株式会社,,株式会社,東京都,港区,芝５丁目１４番１４号,,13,103,1080014,,,,,,,2022-12-01,1,,,,,ダイユウ,0
1294,6010403028994,新規,0,2022-12-01,2022-12-01,合同会社ＡＳＡＧＡＫＥ,,合同会社,東京都,港区,西新橋２丁目１９番５号カザマビル５階,,13,103,1050003,,,,,,,2022-12-01,1,,,,,アサガケ,0
1295,6010403029010,新規,0,2022-12-01,2022-12-01,合同会社奥田青山発電所,,合同会社,東京都,港区,六本木３丁目２番１号,,13,103,1060032,,,,,,,2022-12-01,1,,,,,オクダアオヤマハツデンショ,0
1296,6010403029035,新規,0,2022-12-01,2022-12-01,合同会社小山第１発電所,,合同会社,東京都,港区,六本木３丁目２番１号,,13,103,1060032,,,,,,,2022-12-01,1,,,,,オヤマダイイチハツデンショ,0
1297,6010403029043,新規,0,2022-12-01,2022-12-01,合同会社武子中ノ内発電所,,合同会社,東京都,港区,六本木３丁目２番１号,,13,103,1060032,,,,,,,2022-12-01,1,,,,,タケシナカノウチハツデンショ,0
1311,6010603009869,新規,0,2022-12-01,2022-12-01,Ｍ．Ｔエンジニアリング合同会社,,合同会社,東京都,墨田区,緑１丁目１４番６号シティポート両国２階,,13,107,1300021,,,,,,,2022-12-01,1,,,,,エムティエンジニアリング,0
1333,6011001151189,新規,0,2022-12-01,2022-12-01,株式会社アステルオールラウンダー,,株式会社,東京都,渋谷区,広尾４丁目１番１８－２０７号,,13,113,1500012,,,,,,,2022-12-01,1,,,,,,0
1344,6011101100962,新規,0,2022-12-01,2022-12-01,メディカルリンクジャパン株式会社,,株式会社,東京都,新宿区,北新宿１丁目３０番３２号レジディア北新宿５０１,,13,104,1690074,,,,,,,2022-12-01,1,,,,,メディカルリンクジャパン,0
1347,6011103012446,新規,0,2022-12-01,2022-12-01,ＭＴＳ合同会社,,合同会社,東京都,新宿区,新宿３丁目１２番４号新宿Ｎタウンプラザ３０９,,13,104,1600022,,,,,,,2022-12-01,1,,,,,エムティーエス,0
1349,6011201024252,新規,0,2022-12-01,2022-12-01,株式会社ｇｒａｖｉｔｙ　ｆｒｅｅ,,株式会社,東京都,中野区,新井２丁目７番２号,,13,114,1650026,,,,,,,2022-12-01,1,,,,,グラビティフリー,0
1353,6011403003830,新規,0,2022-12-01,2022-12-01,合同会社吉兵衛商店,,合同会社,東京都,板橋区,高島平２丁目２８番１－２２１号,,13,119,1750082,,,,,,,2022-12-01,1,,,,,キチベエショウテン,0
1357,6011801041614,新規,0,2022-12-01,2022-12-01,フォワード株式会社,,株式会社,東京都,足立区,綾瀬２丁目４３番５－４０１号,,13,121,1200005,,,,,,,2022-12-01,1,,,,,フォワード,0
1363,6012801021993,新規,0,2022-12-01,2022-12-01,ＲＯＸＯＮ株式会社,,株式会社,東京都,立川市,錦町１丁目１５－２０パークアベニュー立川２０７号室,,13,202,1900022,,,,,,,2022-12-01,1,,,,,ロクソン,0
1375,6020001149184,新規,0,2022-12-01,2022-12-01,株式会社ＳＵＺＵＨＩＲＯ,,株式会社,神奈川県,横浜市青葉区,荏田西３丁目１３番地２５,,14,117,2250014,,,,,,,2022-12-01,1,,,,,スズヒロ,0
1376,6020001149192,新規,0,2022-12-01,2022-12-01,呉岳株式会社,,株式会社,神奈川県,川崎市宮前区,有馬７丁目５番１号カープ鷺沼２０２号室,,14,136,2160003,,,,,,,2022-12-01,1,,,,,ゴガク,0
1386,6021005012675,新規,0,2022-12-01,2022-12-01,行政書士法人湘南トラスト,,その他の設立登記法人,神奈川県,鎌倉市,大船３丁目１番５号,,14,204,2470056,,,,,,,2022-12-01,1,,,,,ショウナントラスト,0
1389,6030001151263,新規,0,2022-12-01,2022-12-01,株式会社ビーイング,,株式会社,埼玉県,春日部市,粕壁東１丁目１５番４６－２０３号,,11,214,3440062,,,,,,,2022-12-01,1,,,,,ビーイング,0
1402,6040003021380,新規,0,2022-12-01,2022-12-01,合同会社けろけろカンパニー,,合同会社,千葉県,柏市,若柴１７８番地４柏の葉キャンパス１４８街区２ショップ＆オフィス棟６Ｆ,,12,217,2770871,,,,,,,2022-12-01,1,,,,,ケロケロカンパニー,0
1403,6040005021825,新規,0,2022-12-01,2022-12-01,一般財団法人舞姫財団,,その他の設立登記法人,千葉県,印西市,舞姫１丁目７－８,,12,231,2701608,,,,,,,2022-12-01,1,,,,,,0
1407,6050005013177,新規,0,2022-12-01,2022-12-01,一般社団法人やさび,,その他の設立登記法人,茨城県,石岡市,上青柳７８番,,08,205,3150154,,,,,,,2022-12-01,1,,,,,ヤサビ,0
1409,6080401026184,新規,0,2022-12-01,2022-12-01,株式会社ロタラ,,株式会社,静岡県,浜松市中区,和合町２７２番地の１１,,22,131,4338125,,,,,,,2022-12-01,1,,,,,ロタラ,0
1410,6110001037140,新規,0,2022-12-01,2022-12-01,株式会社Ｑｕｅｔｔａ　Ｄａｔａ,,株式会社,新潟県,長岡市,表町４丁目３番地９,,15,202,9400071,,,,,,,2022-12-01,1,,,,,クエタデータ,0
1411,6110001037149,新規,0,2022-12-01,2022-12-01,株式会社わこう,,株式会社,新潟県,新潟市西蒲区,押付６８３番地１,,15,108,9590425,,,,,,,2022-12-01,1,,,,,ワコウ,0
1427,6120001250667,新規,0,2022-12-01,2022-12-01,サンファイン株式会社,,株式会社,大阪府,大阪市中央区,久太郎町１丁目９番４号,,27,128,5410056,,,,,,,2022-12-01,1,,,,,サンファイン,0
1428,6120001250700,新規,0,2022-12-01,2022-12-01,株式会社ＮＡＯＫＩ,,株式会社,大阪府,大阪市東成区,深江北２丁目９番２６号ウェル・コンフォート深江橋７０５号,,27,115,5370001,,,,,,,2022-12-01,1,,,,,ナオキ,0
1429,6120001250709,新規,0,2022-12-01,2022-12-01,潤物有生株式会社,,株式会社,大阪府,大阪市西成区,長橋１丁目５番２７－２０２号,,27,122,5570025,,,,,,,2022-12-01,1,,,,,ジュンブツユウセイ,0
1431,6120003022949,新規,0,2022-12-01,2022-12-01,合同会社プロジェクト,,合同会社,大阪府,大阪市淀川区,西中島７丁目８番２１号新大阪グランプリビル,,27,123,5320011,,,,,,,2022-12-01,1,,,,,プロジェクト,0
1432,6120003022981,新規,0,2022-12-01,2022-12-01,ＡＫＡＭＩ合同会社,,合同会社,大阪府,大阪市都島区,東野田町５丁目６－７,,27,102,5340024,,,,,,,2022-12-01,1,,,,,アカミ,0
1433,6120005023292,新規,0,2022-12-01,2022-12-01,一般社団法人Ｔｅａｍ　ＭＹＮＤ,,その他の設立登記法人,大阪府,大阪市中央区,心斎橋筋２丁目７－１１日宝ロイヤルビル１階,,27,128,5420085,,,,,,,2022-12-01,1,,,,,チームマインド,0
1437,6130001073217,新規,0,2022-12-01,2022-12-01,株式会社藤林,,株式会社,京都府,京都市北区,上賀茂中ノ坂町３６番地,,26,101,6038024,,,,,,,2022-12-01,1,,,,,フジバヤシ,0
1450,6140001128168,新規,0,2022-12-01,2022-12-01,株式会社Ｍａｒｅ,,株式会社,兵庫県,神戸市中央区,下山手通６丁目１－６－９０２,,28,110,6500011,,,,,,,2022-12-01,1,,,,,マーレ,0
1451,6140001128201,新規,0,2022-12-01,2022-12-01,株式会社ＳＡＲＡ,,株式会社,兵庫県,尼崎市,尾浜町２丁目２８番１４号,,28,202,6610022,,,,,,,2022-12-01,1,,,,,サラ,0
1453,6140003018409,新規,0,2022-12-01,2022-12-01,サンブレス合同会社,,合同会社,兵庫県,西宮市,二見町５番１７号,,28,204,6638111,,,,,,,2022-12-01,1,,,,,サンブレス,0
1457,6170001017392,新規,0,2022-12-01,2022-12-01,株式会社サカモト,,株式会社,和歌山県,和歌山市,中島３９５番地９,,30,201,6410006,,,,,,,2022-12-01,1,,,,,サカモト,0
1458,6170003001799,新規,0,2022-12-01,2022-12-01,それいゆ合同会社,,合同会社,和歌山県,岩出市,桜台６２１番地,,30,209,6496203,,,,,,,2022-12-01,1,,,,,ソレイユ,0
1474,6180001153988,新規,0,2022-12-01,2022-12-01,株式会社ＲＱ,,株式会社,愛知県,名古屋市中区,丸の内２丁目１３番２３号,,23,106,4600002,,,,,,,2022-12-01,1,,,,,アールキュウ,0
1475,6180001153996,新規,0,2022-12-01,2022-12-01,ＵＮＡＧＩホールディングス株式会社,,株式会社,愛知県,名古屋市中区,栄５丁目２６－３９ＧＳ栄ビル３Ｆ,,23,106,4600008,,,,,,,2022-12-01,1,,,,,ウナギホールディングス,0
1476,6180001154004,新規,0,2022-12-01,2022-12-01,株式会社ＡＣＭ,,株式会社,愛知県,名古屋市中区,錦３丁目７番３０号,,23,106,4600003,,,,,,,2022-12-01,1,,,,,エーシーエム,0
1477,6180001154012,新規,0,2022-12-01,2022-12-01,株式会社カードプロ,,株式会社,愛知県,名古屋市中区,千代田４丁目５番２２号ＳＬＡＮＴＷＡＬＬＳ１００２号,,23,106,4600012,,,,,,,2022-12-01,1,,,,,カードプロ,0
1479,6180003024551,新規,0,2022-12-01,2022-12-01,合同会社Ｆｏｕｒ　Ｄｏｏｒｓ,,合同会社,愛知県,名古屋市中村区,鳥居通２丁目２７青山ビル１ＦＢａａｎ　Ｔａｗａｎ,,23,105,4530044,,,,,,,2022-12-01,1,,,,,フォードアーズ,0
1483,6180301036868,新規,0,2022-12-01,2022-12-01,株式会社睦美不動産,,株式会社,愛知県,豊橋市,井原町８７番地１（２０２）,,23,201,4400025,,,,,,,2022-12-01,1,,,,,ムツミフドウサン,0
1493,6230003001941,新規,0,2022-12-01,2022-12-01,合同会社足場パートナー,,合同会社,富山県,富山市,弥生町１丁目２番６号コーポ朝香３０６,,16,201,9300019,,,,,,,2022-12-01,1,,,,,アシバパートナー,0
1503,6240001060724,新規,0,2022-12-01,2022-12-01,グレイスリンク株式会社,,株式会社,広島県,東広島市,西条上市町１番２６－１７号,,34,212,7390006,,,,,,,2022-12-01,1,,,,,グレイスリンク,0
1507,6260001037448,新規,0,2022-12-01,2022-12-01,ひるぜん山楽株式会社,,株式会社,岡山県,倉敷市,向山２１３２番地３,,33,202,7100044,,,,,,,2022-12-01,1,,,,,ヒルゼンサンラク,0
1508,6260003004116,新規,0,2022-12-01,2022-12-01,ルース合同会社,,合同会社,岡山県,岡山市北区,西長瀬１２１８番地７,,33,101,7000965,,,,,,,2022-12-01,1,,,,,ルース,0
1509,6260005011168,新規,0,2022-12-01,2022-12-01,行政書士法人高橋事務所,,その他の設立登記法人,岡山県,岡山市北区,富吉５３０１番地８,,33,101,7011133,,,,,,,2022-12-01,1,,,,,タカハシジムショ,0
1517,6290001099741,新規,0,2022-12-01,2022-12-01,株式会社イデアプロデュース,,株式会社,福岡県,福岡市中央区,梅光園３丁目３番３－９０３号,,40,133,8100035,,,,,,,2022-12-01,1,,,,,イデアプロデュース,0
1521,6290003013270,新規,0,2022-12-01,2022-12-01,合同会社ＪＯＵＲＮＥＹ,,合同会社,福岡県,福岡市中央区,警固１丁目１５番５０号アークタウン１０６号,,40,133,8100023,,,,,,,2022-12-01,1,,,,,ジャーニー,0
1525,6310001018145,新規,0,2022-12-01,2022-12-01,株式会社センテンス,,株式会社,長崎県,長崎市,竿浦町２５２番地１６,,42,201,8500994,,,,,,,2022-12-01,1,,,,,センテンス,0
1533,6330001030346,新規,0,2022-12-01,2022-12-01,株式会社岡島創建,,株式会社,熊本県,熊本市北区,武蔵ケ丘８丁目５番１号－１Ｆ１号,,43,105,8618001,,,,,,,2022-12-01,1,,,,,オカジマソウケン,0
1539,6360003012488,新規,0,2022-12-01,2022-12-01,アルファカズジャパン合同会社,,合同会社,沖縄県,沖縄市,安慶田１丁目２８番２４号,,47,211,9040012,,,,,,,2022-12-01,1,,,,,アルファカズジャパン,0
1552,6430001087954,新規,0,2022-12-01,2022-12-01,株式会社アクティブ,,株式会社,北海道,札幌市豊平区,平岸二条８丁目１番１３号,,01,105,0620932,,,,,,,2022-12-01,1,,,,,アクティブ,0
1559,6700150113194,新規,0,2022-12-01,2022-12-01,ＮＥＴ　ＦＯＯＤ　ＩＭＰＥＸ　ＰＲＩＶＡＴＥ　ＬＩＭＩＴＥＤ,,外国会社等,千葉県,八街市,文違１３１－３１赤尾住宅８Ｃ,,12,230,2891104,スリランカ民主社会主義共和国、コロンボ－１１、第４クロスストリート、Ｎｏ．９５／１／１,,,,,,2022-12-01,1,,,,,ネツトフードインペツクスプライベートリミテツド,0
1569,7010001231181,新規,0,2022-12-01,2022-12-01,株式会社貨月奈,,株式会社,東京都,中央区,銀座５丁目１４－１６,,13,102,1040061,,,,,,,2022-12-01,1,,,,,カルナ,0
1570,7010001231198,新規,0,2022-12-01,2022-12-01,ＮＹＣＩ４株式会社,,株式会社,東京都,中央区,新川１丁目６番１１号,,13,102,1040033,,,,,,,2022-12-01,1,,,,,エヌワイシーアイフォー,0
1571,7010001231215,新規,0,2022-12-01,2022-12-01,ＪＰＸ　ＥＮＥＲＧＹ株式会社,,株式会社,東京都,千代田区,丸の内１丁目１１番１号,,13,101,1000005,,,,,,,2022-12-01,1,,,,,ジェーピーエックスエナジー,0
1572,7010001231248,新規,0,2022-12-01,2022-12-01,株式会社ナンバー０２４,,株式会社,東京都,中央区,京橋３丁目１番１号,,13,102,1040031,,,,,,,2022-12-01,1,,,,,ナンバーゼロニヨン,0
1574,7010003039193,新規,0,2022-12-01,2022-12-01,トークン・ツー合同会社,,合同会社,東京都,千代田区,霞が関３丁目２番５号,,13,101,1000013,,,,,,,2022-12-01,1,,,,,トークンツー,0
1576,7010101015435,新規,0,2022-12-01,2022-12-01,Ｔ＆Ｃ株式会社,,株式会社,東京都,八王子市,鑓水２００３番地４,,13,201,1920375,,,,,,,2022-12-01,1,,,,,ティーアンドシー,0
1581,7010401171085,新規,0,2022-12-01,2022-12-01,株式会社あつまれ森の妖精,,株式会社,東京都,港区,芝公園１丁目１番１２号芝公園電気ビルディング６Ｆ,,13,103,1050011,,,,,,,2022-12-01,1,,,,,アツマレモリノヨウセイ,0
1582,7010401171127,新規,0,2022-12-01,2022-12-01,株式会社Ｏｌｄ　Ｋａｎ,,株式会社,東京都,港区,赤坂７丁目２番６号,,13,103,1070052,,,,,,,2022-12-01,1,,,,,オールドカン,0
1584,7010403028911,新規,0,2022-12-01,2022-12-01,ビジネスコンサルティングパートナーズ合同会社,,合同会社,東京都,港区,南青山３丁目１番３６号青山丸竹ビル６Ｆ,,13,103,1070062,,,,,,,2022-12-01,1,,,,,ビジネスコンサルティングパートナーズ,0
1585,7010403029034,新規,0,2022-12-01,2022-12-01,合同会社そらカシマ発電所,,合同会社,東京都,港区,六本木３丁目２番１号,,13,103,1060032,,,,,,,2022-12-01,1,,,,,ソラカシマハツデンショ,0
1586,7010403029042,新規,0,2022-12-01,2022-12-01,合同会社ソーラーパーク９号,,合同会社,東京都,港区,六本木３丁目２番１号,,13,103,1060032,,,,,,,2022-12-01,1,,,,,ソーラーパークキュウゴウ,0
1595,7010705003455,新規,0,2022-12-01,2022-12-01,一般社団法人日本新食感生グミｐｕｎｅｗ協会,,その他の設立登記法人,東京都,品川区,勝島１丁目３番７－１８０３号,,13,109,1400012,,,,,,,2022-12-01,1,,,,,ニホンシンショッカンナマグミプニュキョウカイ,0
1598,7010803004363,新規,0,2022-12-01,2022-12-01,合同会社ＫＩＰ,,合同会社,東京都,大田区,南馬込１丁目２１番９号,,13,111,1430025,,,,,,,2022-12-01,1,,,,,ケーアイピー,0
1600,7010901052041,新規,0,2022-12-01,2022-12-01,株式会社ＲｅｄＴｒａｃｋ,,株式会社,東京都,世田谷区,上野毛４丁目９番１１号,,13,112,1580093,,,,,,,2022-12-01,1,,,,,レッドトラック,0
1607,7011003015820,新規,0,2022-12-01,2022-12-01,合同会社インナー,,合同会社,東京都,渋谷区,道玄坂１丁目１０番８号渋谷道玄坂東急ビル２Ｆ－Ｃ,,13,113,1500043,,,,,,,2022-12-01,1,,,,,インナー,0
1608,7011005009853,新規,0,2022-12-01,2022-12-01,一般社団法人ＲＥ‐ＷＯＭＡＮ,,その他の設立登記法人,東京都,渋谷区,恵比寿４丁目１０番６号ハーベスト恵比寿３Ｆ,,13,113,1500013,,,,,,,2022-12-01,1,,,,,リウーマン,0
1615,7012301013227,新規,0,2022-12-01,2022-12-01,なないろ住工房株式会社,,株式会社,東京都,町田市,広袴２丁目７番地３４,,13,209,1950056,,,,,,,2022-12-01,1,,,,,ナナイロジュウコウボウ,0
1622,7012803002933,新規,0,2022-12-01,2022-12-01,合同会社アセットハーモニー,,合同会社,東京都,立川市,砂川町７丁目２３―３,,13,202,1900031,,,,,,,2022-12-01,1,,,,,アセットハーモニー,0
1625,7013301050004,新規,0,2022-12-01,2022-12-01,ｍｅｄｙ株式会社,,株式会社,東京都,豊島区,東池袋１丁目３４番５号いちご東池袋ビル６階,,13,116,1700013,,,,,,,2022-12-01,1,,,,,メディー,0
1630,7020001149200,新規,0,2022-12-01,2022-12-01,株式会社ｋａｆｕｕ　ｍｅｄｉｃａｌ,,株式会社,神奈川県,横浜市鶴見区,東寺尾５丁目３番１２号,,14,101,2300077,,,,,,,2022-12-01,1,,,,,カフーメディカル,0
1633,7020003022826,新規,0,2022-12-01,2022-12-01,ローンフィールドコンサルティング合同会社,,合同会社,神奈川県,横浜市中区,山吹町１番地３－１００１号室,,14,104,2310038,,,,,,,2022-12-01,1,,,,,ローンフィールドコンサルティング,0
1635,7021001077548,新規,0,2022-12-01,2022-12-01,株式会社ＢｌｕｅＨｉｌｌ,,株式会社,神奈川県,相模原市南区,下溝６０３番地２４,,14,153,2520335,,,,,,,2022-12-01,1,,,,,ブルーヒル,0
1655,7040001126049,新規,0,2022-12-01,2022-12-01,株式会社Ｇ．Ｋ　ｐｒｏｍｏｔｉｏｎ,,株式会社,千葉県,柏市,大津ケ丘２丁目８番地８,,12,217,2770921,,,,,,,2022-12-01,1,,,,,ジーケープロモーション,0
1656,7040001126057,新規,0,2022-12-01,2022-12-01,株式会社ウッズプラス,,株式会社,千葉県,市川市,妙典５丁目１３番３３号,,12,203,2720111,,,,,,,2022-12-01,1,,,,,ウッズプラス,0
1666,7060003004325,新規,0,2022-12-01,2022-12-01,ＡＹＥＳＨＡ　ＡＳＳＯＣＩＡＴＥ合同会社,,合同会社,栃木県,栃木市,岩舟町畳岡３４０番地,,09,203,3294309,,,,,,,2022-12-01,1,,,,,アイーシャアソシエイト,0
1676,7080005007497,新規,0,2022-12-01,2022-12-01,一般社団法人三保松原３ｒｉｎｇｓプロジェクト,,その他の設立登記法人,静岡県,静岡市清水区,三保１３０３番地の３,,22,103,4240901,,,,,,,2022-12-01,1,,,,,ミホマツバラスリーリングスプロジェクト,0
1678,7080401026183,新規,0,2022-12-01,2022-12-01,株式会社ＴＣシステム,,株式会社,静岡県,浜松市東区,上西町１３４８番地の３,,22,132,4350048,,,,,,,2022-12-01,1,,,,,テイーシーシステム,0
1694,7120001250641,新規,0,2022-12-01,2022-12-01,株式会社Ｒｅ‐ｎｔｏｓ,,株式会社,大阪府,大阪市北区,梅田１丁目１番３号大阪駅前第３ビル２９階１－１－１号室,,27,127,5300001,,,,,,,2022-12-01,1,,,,,レントス,0
1695,7120001250658,新規,0,2022-12-01,2022-12-01,楽土株式会社,,株式会社,大阪府,大阪市東淀川区,東中島１丁目２０－１２ユニゾーン新大阪８１３号室,,27,114,5330033,,,,,,,2022-12-01,1,,,,,ラクド,0
1698,7120003022980,新規,0,2022-12-01,2022-12-01,ＮＶＱ合同会社,,合同会社,大阪府,大阪市西成区,花園北１丁目４番２２号ペントハウス３－１Ｆ－Ａ,,27,122,5570016,,,,,,,2022-12-01,1,,,,,エヌブイキュー,0
1699,7120003022989,新規,0,2022-12-01,2022-12-01,盛羽合同会社,,合同会社,大阪府,大阪市平野区,長吉長原東３丁目７番２３号,,27,126,5470013,,,,,,,2022-12-01,1,,,,,モリハ,0
1702,7120005023317,新規,0,2022-12-01,2022-12-01,さくら行政書士法人,,その他の設立登記法人,大阪府,寝屋川市,昭栄町１７番１３号,,27,215,5720834,,,,,,,2022-12-01,1,,,,,サクラ,0
1705,7120101066608,新規,0,2022-12-01,2022-12-01,株式会社若林商店,,株式会社,大阪府,高石市,取石３丁目９番４３号,,27,225,5920013,,,,,,,2022-12-01,1,,,,,ワカバヤシショウテン,0
1710,7120903004392,新規,0,2022-12-01,2022-12-01,合同会社ＪＳＫ,,合同会社,大阪府,豊中市,蛍池北町三丁目３－１３ループ北町１階,,27,203,5600000,,,,,,,2022-12-01,1,,,,,ジェイエスケイ,0
1711,7122001036450,新規,0,2022-12-01,2022-12-01,株式会社関西ホールディングス,,株式会社,大阪府,東大阪市,中新開２丁目５番１４号,,27,227,5780911,,,,,,,2022-12-01,1,,,,,カンサイホールディングス,0
1712,7122001036459,新規,0,2022-12-01,2022-12-01,株式会社Ｈｏｒｔｅｎｓｉａ,,株式会社,大阪府,八尾市,龍華町１丁目４番１号メガシティタワーズＴＨＥ・ＷＥＳＴ－３７１６,,27,212,5810069,,,,,,,2022-12-01,1,,,,,オルテンシア,0
1713,7122005003653,新規,0,2022-12-01,2022-12-01,ＨＲ支援事業協同組合,,その他の設立登記法人,大阪府,東大阪市,荒本西３丁目２番３２号,,27,227,5770024,,,,,,,2022-12-01,1,,,,,エッチアールシエンジギョウ,0
1719,7130001073190,新規,0,2022-12-01,2022-12-01,株式会社禹辰商事,,株式会社,京都府,亀岡市,曽我部町南条北向田７番地２,,26,206,6210022,,,,,,,2022-12-01,1,,,,,ウシンショウジ,0
1725,7140003018424,新規,0,2022-12-01,2022-12-01,新慧貿易合同会社,,合同会社,兵庫県,加古郡稲美町,草谷２６７番地,,28,381,6751102,,,,,,,2022-12-01,1,,,,,シンケイボウエキ,0
1740,7180003024550,新規,0,2022-12-01,2022-12-01,合同会社エイチエムホーム,,合同会社,愛知県,名古屋市港区,浜２丁目１１番５号,,23,111,4550036,,,,,,,2022-12-01,1,,,,,エイチエムホーム,0
1743,7180301036867,新規,0,2022-12-01,2022-12-01,株式会社ジーズエコー,,株式会社,愛知県,豊橋市,駅前大通１丁目５９番地坂田ビル１Ｆ,,23,201,4400888,,,,,,,2022-12-01,1,,,,,ジーズエコー,0
1745,7190001029963,新規,0,2022-12-01,2022-12-01,株式会社而今堂,,株式会社,三重県,四日市市,ときわ５丁目２番７号,,24,202,5100834,,,,,,,2022-12-01,1,,,,,ジコンドウ,0
1755,7230003001940,新規,0,2022-12-01,2022-12-01,合同会社Ｗｅｓｍｉｌｅ,,合同会社,富山県,砺波市,千保１０７番地５,,16,208,9391305,,,,,,,2022-12-01,1,,,,,ウィースマイル,0
1756,7240001060731,新規,0,2022-12-01,2022-12-01,株式会社ＭＧ　ｇａｒｄｅｎ,,株式会社,広島県,広島市安佐北区,安佐町大字飯室字野原２２８番地,,34,106,7311142,,,,,,,2022-12-01,1,,,,,エムジーガーデン,0
1770,7310001018144,新規,0,2022-12-01,2022-12-01,株式会社ＨＯＯＢ,,株式会社,長崎県,長崎市,諏訪町６番２７号２Ｆ,,42,201,8500873,,,,,,,2022-12-01,1,,,,,フーブ,0
1776,7330001030345,新規,0,2022-12-01,2022-12-01,ＧＥＥＲＭ株式会社,,株式会社,熊本県,球磨郡錦町,大字西２７４２番地,,43,501,8680303,,,,,,,2022-12-01,1,,,,,ヂャーム,0
1779,7340001025212,新規,0,2022-12-01,2022-12-01,株式会社ＥＹＬ,,株式会社,鹿児島県,鹿児島市,坂元町１４番３５号,,46,201,8920862,,,,,,,2022-12-01,1,,,,,イーワイエル,0
1780,7340005009525,新規,0,2022-12-01,2022-12-01,特定非営利活動法人うお泊屋久島,,その他の設立登記法人,鹿児島県,熊毛郡屋久島町,安房２４５７番地２８８,,46,505,8914311,,,,,,,2022-12-01,1,,,,,ウオハクヤクシマ,0
1782,7360001031258,新規,0,2022-12-01,2022-12-01,株式会社アイニクル,,株式会社,沖縄県,石垣市,字白保６３番地,,47,207,9070242,,,,,,,2022-12-01,1,,,,,アイニクル,0
1784,7360003012504,新規,0,2022-12-01,2022-12-01,ａｒｅａ　ｃｏｎｎｅｃｔ合同会社,,合同会社,沖縄県,那覇市,具志２丁目１２番１１号,,47,201,9010146,,,,,,,2022-12-01,1,,,,,エリアコネクト,0
1791,7380001033302,新規,0,2022-12-01,2022-12-01,株式会社雅工業,,株式会社,福島県,いわき市,鹿島町米田字殿作２７番地の１９,,07,204,9718133,,,,,,,2022-12-01,1,,,,,ミヤビコウギョウ,0
1792,7400001016072,新規,0,2022-12-01,2022-12-01,株式会社ＴＳホールディングス,,株式会社,岩手県,盛岡市,上厨川字横長根１０番地,,03,201,0200143,,,,,,,2022-12-01,1,,,,,ティーエスホールディングス,0
1804,7500001024627,新規,0,2022-12-01,2022-12-01,株式会社双海興産,,株式会社,愛媛県,伊予市,双海町大久保甲６４０番地,,38,210,7993311,,,,,,,2022-12-01,1,,,,,フタミコウサン,0
1805,7500003002928,新規,0,2022-12-01,2022-12-01,ＣｕｌｔｉＩ合同会社,,合同会社,愛媛県,今治市,郷本町３丁目３－３６,,38,202,7940823,,,,,,,2022-12-01,1,,,,,カルティ,0
1806,7700150113193,新規,0,2022-12-01,2022-12-01,ＤＹＮＡＭＩＣ　ＭＯＴＯＲＳ　ＰＶＴ　ＬＴＤ,,外国会社等,千葉県,八街市,文違１３１－３１－７Ａ,,12,230,2891104,スリランカ民主社会主義共和国、コロンボ１０、モヒディンマスジドロード、Ｎｏ．１６２／Ａ,,,,,,2022-12-01,1,,,,,ダイナミツクモータースピーヴイテイエルテイデイ,0
1823,8010003039218,新規,0,2022-12-01,2022-12-01,合同会社ＷＢ,,合同会社,東京都,中央区,日本橋１丁目４番１号,,13,102,1030027,,,,,,,2022-12-01,1,,,,,ダブリュービー,0
1825,8010005035850,新規,0,2022-12-01,2022-12-01,一般社団法人ＣＥＲ研究会,,その他の設立登記法人,東京都,文京区,湯島３丁目３１番１号中川ビル４０１号室,,13,105,1130034,,,,,,,2022-12-01,1,,,,,シーイーアールケンキュウカイ,0
1835,8010401171035,新規,0,2022-12-01,2022-12-01,株式会社六本木管理七号,,株式会社,東京都,港区,六本木３丁目２番１号,,13,103,1060032,,,,,,,2022-12-01,1,,,,,ロッポンギカンリナナゴウ,0
1838,8010403028984,新規,0,2022-12-01,2022-12-01,Ｅａｒｎｅｓｔ合同会社,,合同会社,東京都,港区,芝浦４丁目１７番７号,,13,103,1080023,,,,,,,2022-12-01,1,,,,,アーネスト,0
1839,8010403029009,新規,0,2022-12-01,2022-12-01,合同会社笠間大橋発電所,,合同会社,東京都,港区,六本木３丁目２番１号,,13,103,1060032,,,,,,,2022-12-01,1,,,,,カサマオオハシハツデンショ,0
1840,8010403029033,新規,0,2022-12-01,2022-12-01,合同会社滋賀米原発電所,,合同会社,東京都,港区,六本木３丁目２番１号,,13,103,1060032,,,,,,,2022-12-01,1,,,,,シガマイバラハツデンショ,0
1841,8010403029041,新規,0,2022-12-01,2022-12-01,合同会社大子町第１発電所,,合同会社,東京都,港区,六本木３丁目２番１号,,13,103,1060032,,,,,,,2022-12-01,1,,,,,ダイゴマチダイイチハツデンショ,0
1842,8010405021632,新規,0,2022-12-01,2022-12-01,一般社団法人ＡＹＲ３,,その他の設立登記法人,東京都,港区,六本木１丁目９番１０号アークヒルズ仙石山森タワー４０階,,13,103,1060032,,,,,,,2022-12-01,1,,,,,エーワイアールスリー,0
1858,8011001151253,新規,0,2022-12-01,2022-12-01,株式会社ＯＲＣＨＩＤ　ＩＮＴＥＲＮＡＴＩＯＮＡＬＳ,,株式会社,東京都,渋谷区,道玄坂１丁目１０番８号渋谷道玄坂東急ビル２Ｆ－Ｃ,,13,113,1500043,,,,,,,2022-12-01,1,,,,,オーキッドインターナショナル,0
1864,8011003015704,新規,0,2022-12-01,2022-12-01,合同会社フィット・イン,,合同会社,東京都,目黒区,八雲１丁目４番６号,,13,110,1520023,,,,,,,2022-12-01,1,,,,,フィットイン,0
1867,8011101100861,新規,0,2022-12-01,2022-12-01,株式会社ＰＥＲＭＹ,,株式会社,東京都,新宿区,新宿３丁目５番６号キュープラザ新宿三丁目６Ｆ,,13,104,1600022,,,,,,,2022-12-01,1,,,,,パーミー,0
1868,8011101101001,新規,0,2022-12-01,2022-12-01,株式会社ＲＡＲＥ　ＷＩＮＥ,,株式会社,東京都,新宿区,西新宿８丁目８番１３－５０１号,,13,104,1600023,,,,,,,2022-12-01,1,,,,,レアワイン,0
1870,8011201024267,新規,0,2022-12-01,2022-12-01,株式会社Ａｕｌｉｉ,,株式会社,東京都,中野区,中央４丁目７番１５号,,13,114,1640011,,,,,,,2022-12-01,1,,,,,アウリー,0
1872,8011303004588,新規,0,2022-12-01,2022-12-01,ＳＡＫＵＲＡ合同会社,,合同会社,東京都,杉並区,永福４丁目１８番１９号ラ・メゾン永福２－Ａ号室,,13,115,1680064,,,,,,,2022-12-01,1,,,,,サクラ,0
1876,8011701025822,新規,0,2022-12-01,2022-12-01,株式会社ＳＨＰ,,株式会社,東京都,江戸川区,東葛西６丁目１８番１２号,,13,123,1340084,,,,,,,2022-12-01,1,,,,,エスエイチピー,0
1889,8020001149208,新規,0,2022-12-01,2022-12-01,リノアーク株式会社,,株式会社,神奈川県,横浜市青葉区,大場町８６９番地９,,14,117,2250023,,,,,,,2022-12-01,1,,,,,リノアーク,0
1891,8020003022817,新規,0,2022-12-01,2022-12-01,合同会社モスアイズリー,,合同会社,神奈川県,川崎市宮前区,宮前平１丁目４番地１７号,,14,136,2160006,,,,,,,2022-12-01,1,,,,,モスアイズリー,0
1894,8021001077547,新規,0,2022-12-01,2022-12-01,Ｒｅｉｎｖｅｎｔ　ｈｅａｌｔｈ株式会社,,株式会社,神奈川県,鎌倉市,大町１丁目１番１４号,,14,204,2480007,,,,,,,2022-12-01,1,,,,,,0
1904,8030001151286,新規,0,2022-12-01,2022-12-01,株式会社ＩＭ工業,,株式会社,埼玉県,川口市,戸塚東２丁目２５番１２号セザール第２東川口３０２号,,11,203,3330802,,,,,,,2022-12-01,1,,,,,アイエムコウギョウ,0
1916,8040001126056,新規,0,2022-12-01,2022-12-01,株式会社ＦＨ．,,株式会社,千葉県,市川市,北方町４丁目１７２４番地１８,,12,203,2720811,,,,,,,2022-12-01,1,,,,,エフエイチ,0
1920,8050001052029,新規,0,2022-12-01,2022-12-01,株式会社Ｈ＆Ｈ　ＴＲＡＤＩＮＧ,,株式会社,茨城県,筑西市,玉戸１３０９番地５５大吉亭１０２,,08,227,3080847,,,,,,,2022-12-01,1,,,,,エイチアンドエイチトレーディング,0
1931,8070001039874,新規,0,2022-12-01,2022-12-01,株式会社肉匠吉田,,株式会社,群馬県,藤岡市,藤岡２３０７番地４,,10,209,3750024,,,,,,,2022-12-01,1,,,,,ニクショウヨシダ,0
1933,8080001025320,新規,0,2022-12-01,2022-12-01,株式会社遊徒,,株式会社,静岡県,静岡市駿河区,馬渕３丁目１３番８号,,22,102,4228063,,,,,,,2022-12-01,1,,,,,ユウト,0
1954,8120001250335,新規,0,2022-12-01,2022-12-01,常青株式会社,,株式会社,大阪府,大阪市中央区,島之内１丁目１５番９号アイテックスビル５０３,,27,128,5420082,,,,,,,2022-12-01,1,,,,,ジョウセイ,0
1955,8120001250649,新規,0,2022-12-01,2022-12-01,株式会社美手紙,,株式会社,大阪府,寝屋川市,点野３丁目２２－１１,,27,215,5720077,,,,,,,2022-12-01,1,,,,,ビテガミ,0
1956,8120001250665,新規,0,2022-12-01,2022-12-01,株式会社美来,,株式会社,大阪府,大阪市阿倍野区,共立通１丁目１０－１９,,27,119,5450041,,,,,,,2022-12-01,1,,,,,ミライ,0
1957,8120001250673,新規,0,2022-12-01,2022-12-01,百分百スタイル株式会社,,株式会社,大阪府,大阪市城東区,中浜１丁目１７－１４－６Ｂ,,27,118,5360024,,,,,,,2022-12-01,1,,,,,ヒャクブンヒャクスタイル,0
1958,8120001250681,新規,0,2022-12-01,2022-12-01,株式会社ＬＥ　ＴＲＥＦＬＥ　ＪＡＰＡＮ,,株式会社,大阪府,大阪市北区,堂島１丁目４番２０号,,27,127,5300003,,,,,,,2022-12-01,1,,,,,ルトレッフルジャパン,0
1959,8120001250715,新規,0,2022-12-01,2022-12-01,株式会社昇武,,株式会社,大阪府,大阪市天王寺区,寺田町２丁目１番２２号,,27,109,5430045,,,,,,,2022-12-01,1,,,,,ショウブ,0
1964,8120005023316,新規,0,2022-12-01,2022-12-01,一般社団法人なず菜ファミリア,,その他の設立登記法人,大阪府,大阪市港区,築港２丁目１番１９,,27,107,5520021,,,,,,,2022-12-01,1,,,,,ナズナファミリア,0
1970,8120901046799,新規,0,2022-12-01,2022-12-01,株式会社ハイテクノ,,株式会社,大阪府,吹田市,山田西１丁目１番１１号,,27,205,5650824,,,,,,,2022-12-01,1,,,,,ハイテクノ,0
1972,8120905006394,新規,0,2022-12-01,2022-12-01,一般社団法人ＹＯ・ＮＯ・ＨＡ,,その他の設立登記法人,大阪府,豊中市,大黒町３丁目６番４号,,27,203,5610827,,,,,,,2022-12-01,1,,,,,ヨノハ,0
1988,8140003018398,新規,0,2022-12-01,2022-12-01,豊合同会社,,合同会社,兵庫県,姫路市,網干区浜田３９９番地２,,28,201,6711242,,,,,,,2022-12-01,1,,,,,ユタカ,0
1989,8140003018423,新規,0,2022-12-01,2022-12-01,合同会社ＧＲＡＴＩＡ,,合同会社,兵庫県,神戸市中央区,琴ノ緒町４丁目７番６号,,28,110,6510094,,,,,,,2022-12-01,1,,,,,グラティア,0
2002,8180001154010,新規,0,2022-12-01,2022-12-01,金晟株式会社,,株式会社,愛知県,名古屋市中区,大須４丁目１－７１（矢場町中駒ビル４０５号室）,,23,106,4600011,,,,,,,2022-12-01,1,,,,,キンセイ,0
2011,8200001040711,新規,0,2022-12-01,2022-12-01,恒川織物株式会社,,株式会社,岐阜県,岐阜市,金町６丁目２１番地,,21,201,5008842,,,,,,,2022-12-01,1,,,,,ツネカワオリモノ,0
2018,8260001037446,新規,0,2022-12-01,2022-12-01,株式会社ＳＷＡＧＬＡＢ　ＪＡＰＡＮ,,株式会社,岡山県,岡山市北区,表町３丁目５番３２号,,33,101,7000822,,,,,,,2022-12-01,1,,,,,スワッグラボジャパン,0
2019,8260001037454,新規,0,2022-12-01,2022-12-01,株式会社原田屋,,株式会社,岡山県,玉野市,田井１丁目１１番２０号,,33,204,7060001,,,,,,,2022-12-01,1,,,,,ハラダヤ,0
2023,8290001099616,新規,0,2022-12-01,2022-12-01,嘉運国際株式会社,,株式会社,福岡県,福岡市博多区,博多駅東１丁目１番３３号はかた近代ビル７階７ＩＧ５号室,,40,132,8120013,,,,,,,2022-12-01,1,,,,,カウンコクサイ,0
2024,8290001099698,新規,0,2022-12-01,2022-12-01,株式会社ＫＵＢＯマウンテン,,株式会社,福岡県,久留米市,北野町高良２１４０－８,,40,203,8301114,,,,,,,2022-12-01,1,,,,,クボマウンテン,0
2025,8290001099756,新規,0,2022-12-01,2022-12-01,株式会社ＧＯＢ,,株式会社,福岡県,福岡市中央区,長浜２丁目３番３５号２Ｆ,,40,133,8100072,,,,,,,2022-12-01,1,,,,,ジーオービー,0
2026,8290001099764,新規,0,2022-12-01,2022-12-01,株式会社レアプラス,,株式会社,福岡県,飯塚市,南尾６０２－１２,,40,205,8200072,,,,,,,2022-12-01,1,,,,,レアプラス,0
2032,8290003013252,新規,0,2022-12-01,2022-12-01,合同会社福岡錠前設備,,合同会社,福岡県,福岡市博多区,美野島２丁目２１番１９－１０５号,,40,132,8120017,,,,,,,2022-12-01,1,,,,,フクオカジョウマエセツビ,0
2039,8300003001908,新規,0,2022-12-01,2022-12-01,セト合同会社,,合同会社,佐賀県,唐津市,和多田本村７番３７号,,41,202,8470085,,,,,,,2022-12-01,1,,,,,セト,0
2046,8330001030344,新規,0,2022-12-01,2022-12-01,株式会社ナチュレルファーム,,株式会社,熊本県,菊池市,原６４５,,43,210,8611441,,,,,,,2022-12-01,1,,,,,ナチュレルファーム,0
2057,8380001033301,新規,0,2022-12-01,2022-12-01,株式会社Ｇｒｏｗｓ,,株式会社,福島県,郡山市,富久山町久保田字石鼻８２－３スミレハイツ１－２０５,,07,203,9638071,,,,,,,2022-12-01,1,,,,,グロース,0
2073,8700150111717,新規,0,2022-12-01,2022-12-01,ＶａｎｓｏｎｇＴｅｃｈｎｏｌｏｇｙ（ＨｏｎｇＫｏｎｇ）Ｌｉｍｉｔｅｄ,,外国会社等,,,,,,,,Ｒｏｏｍｓ　１３１８－１９，Ｈｏｌｌｙｗｏｏｄ　Ｐｌａｚａ，６１０　Ｎａｔｈａｎ　Ｒｏａｄ，Ｍｏｎｇｋｏｋ，Ｋｏｗｌｏｏｎ，ＨｏｎｇＫｏｎｇ,,,,,,2022-12-01,1,,,,,マンソンテクノロジーホンコンリミテイツド,0
2076,9010001231147,新規,0,2022-12-01,2022-12-01,株式会社ＥＸＦＯＯＤ　ＪＡＰＡＮ,,株式会社,東京都,中央区,銀座７丁目１３番２０号,,13,102,1040061,,,,,,,2022-12-01,1,,,,,エクスフードジャパン,0
2077,9010001231188,新規,0,2022-12-01,2022-12-01,ネクサス株式会社,,株式会社,東京都,中央区,湊２丁目１１番１号シティタワー銀座東９１８,,13,102,1040043,,,,,,,2022-12-01,1,,,,,ネクサス,0
2078,9010001231221,新規,0,2022-12-01,2022-12-01,株式会社Ｔｈｅ　Ｎｏｍａｄ　Ｇｒｏｕｐ,,株式会社,東京都,中央区,日本橋箱崎町２７番９号オフィスヴェラ日本橋箱崎Ｓ－１１８,,13,102,1030015,,,,,,,2022-12-01,1,,,,,ザノーマッドグループ,0
2091,9010401171034,新規,0,2022-12-01,2022-12-01,株式会社六本木管理六号,,株式会社,東京都,港区,六本木３丁目２番１号,,13,103,1060032,,,,,,,2022-12-01,1,,,,,ロッポンギカンリロクゴウ,0
2092,9010401171117,新規,0,2022-12-01,2022-12-01,サステナブルケア株式会社,,株式会社,東京都,港区,北青山３丁目６番７号青山パラシオタワー１１階,,13,103,1070061,,,,,,,2022-12-01,1,,,,,サステナブルケア,0
2093,9010403029008,新規,0,2022-12-01,2022-12-01,合同会社筑西市第２発電所,,合同会社,東京都,港区,六本木３丁目２番１号,,13,103,1060032,,,,,,,2022-12-01,1,,,,,チクセイシダイニハツデンショ,0
2094,9010403029032,新規,0,2022-12-01,2022-12-01,合同会社五戸町発電所,,合同会社,東京都,港区,六本木３丁目２番１号,,13,103,1060032,,,,,,,2022-12-01,1,,,,,ゴノヘマチハツデンショ,0
2095,9010403029040,新規,0,2022-12-01,2022-12-01,合同会社宇治田原町発電所,,合同会社,東京都,港区,六本木３丁目２番１号,,13,103,1060032,,,,,,,2022-12-01,1,,,,,ウジタワラチョウハツデンショ,0
2096,9010403029057,新規,0,2022-12-01,2022-12-01,ＡＹＲ３Ｃ合同会社,,合同会社,東京都,港区,六本木１丁目９番１０号アークヒルズ仙石山森タワー４０階,,13,103,1060032,,,,,,,2022-12-01,1,,,,,エーワイアールスリーシー,0
2097,9010501049700,新規,0,2022-12-01,2022-12-01,株式会社東京リアルター,,株式会社,東京都,台東区,東上野６丁目１８番１９号,,13,106,1100015,,,,,,,2022-12-01,1,,,,,トウキョウリアルター,0
2098,9010503006798,新規,0,2022-12-01,2022-12-01,浅草三丁目合同会社,,合同会社,東京都,台東区,浅草３丁目４番１０号,,13,106,1110032,,,,,,,2022-12-01,1,,,,,アサクササンチョウメ,0
2107,9010703006490,新規,0,2022-12-01,2022-12-01,アース合同会社,,合同会社,東京都,品川区,西五反田８丁目８番１６号,,13,109,1410031,,,,,,,2022-12-01,1,,,,,アース,0
2108,9010802021416,新規,0,2022-12-01,2022-12-01,有限会社大鳥居荘,,有限会社,東京都,大田区,西糀谷３丁目３６番１５号,,13,111,1440034,,,,,,,2022-12-01,1,,,,,オオトリイソウ,0
2109,9010901052064,新規,0,2022-12-01,2022-12-01,ｋｗｏｎ株式会社,,株式会社,東京都,世田谷区,太子堂１丁目１５番１３号,,13,112,1540004,,,,,,,2022-12-01,1,,,,,クォン,0
2121,9011001151211,新規,0,2022-12-01,2022-12-01,株式会社オタクノカガミ,,株式会社,東京都,渋谷区,道玄坂１丁目１０番８号渋谷道玄坂東急ビル２Ｆ－Ｃ,,13,113,1500043,,,,,,,2022-12-01,1,,,,,オタクノカガミ,0
2122,9011001151228,新規,0,2022-12-01,2022-12-01,株式会社ＫＤ　ｇｒａｐｈｉｃ,,株式会社,東京都,渋谷区,神宮前６丁目２３番４号桑野ビル２階,,13,113,1500001,,,,,,,2022-12-01,1,,,,,ケーディーグラフィック,0
2123,9011001151236,新規,0,2022-12-01,2022-12-01,株式会社ＩＭＣ渋谷,,株式会社,東京都,目黒区,青葉台３丁目６－２８,,13,110,1530042,,,,,,,2022-12-01,1,,,,,アイエムシーシブヤ,0
2127,9011003015819,新規,0,2022-12-01,2022-12-01,Ｓａｋｕｒａ　Ｐａｒｔｎｅｒｓ合同会社,,合同会社,東京都,渋谷区,道玄坂１丁目１０番８号渋谷道玄坂東急ビル２Ｆ－Ｃ,,13,113,1500043,,,,,,,2022-12-01,1,,,,,サクラパートナーズ,0
2128,9011101100968,新規,0,2022-12-01,2022-12-01,株式会社ｎｅｘｔ,,株式会社,東京都,新宿区,西早稲田２丁目１８番２３号スカイエスタビル３０４,,13,104,1690051,,,,,,,2022-12-01,1,,,,,ネクスト,0
2134,9011701025821,新規,0,2022-12-01,2022-12-01,株式会社ＬＡＮＯＮ,,株式会社,東京都,江戸川区,一之江７丁目５３－４,,13,123,1320024,,,,,,,2022-12-01,1,,,,,ラノン,0
2143,9020001149198,新規,0,2022-12-01,2022-12-01,株式会社エグゼフ,,株式会社,神奈川県,川崎市高津区,千年新町１９番地５－２Ｆ,,14,134,2130021,,,,,,,2022-12-01,1,,,,,エグゼフ,0
2153,9030001151079,新規,0,2022-12-01,2022-12-01,株式会社新森,,株式会社,埼玉県,秩父市,寺尾３１４１－７,,11,207,3680056,,,,,,,2022-12-01,1,,,,,シンモリ,0
2154,9030001151236,新規,0,2022-12-01,2022-12-01,株式会社ＴＥＡＭ‐ＡＤＶＡＮＣＥ,,株式会社,埼玉県,坂戸市,三光町３８番地７ハイツコスモ２０１号室,,11,239,3500235,,,,,,,2022-12-01,1,,,,,チームアドバンス,0
2155,9030001151252,新規,0,2022-12-01,2022-12-01,金山技研工業株式会社,,株式会社,埼玉県,川口市,青木１丁目６番１－４１０号,,11,203,3320031,,,,,,,2022-12-01,1,,,,,カナヤマギケンコウギョウ,0
2156,9030001151260,新規,0,2022-12-01,2022-12-01,内田車体工業株式会社,,株式会社,埼玉県,大里郡寄居町,大字桜沢８０番地２１,,11,408,3691202,,,,,,,2022-12-01,1,,,,,ウチダシャタイコウギョウ,0
2162,9040001126047,新規,0,2022-12-01,2022-12-01,株式会社Ｌｉｌｙａｇｅ,,株式会社,千葉県,市原市,ちはら台南５丁目１番地２（Ｂ－５０７）,,12,219,2900142,,,,,,,2022-12-01,1,,,,,リリアージュ,0
2163,9040001126055,新規,0,2022-12-01,2022-12-01,Ａ＆Ｍ株式会社,,株式会社,千葉県,八街市,大木８１３番２１,,12,230,2891111,,,,,,,2022-12-01,1,,,,,エーアンドエム,0
2169,9040003021378,新規,0,2022-12-01,2022-12-01,ＬＡＮＫＥＳＨ　ＭＯＴＯＲＳ合同会社,,合同会社,千葉県,千葉市若葉区,北谷津町３０５番地２－３Ｂ区画,,12,104,2650067,,,,,,,2022-12-01,1,,,,,ランケーシモータース,0
2170,9040003021386,新規,0,2022-12-01,2022-12-01,合同会社まもしあ,,合同会社,千葉県,柏市,柏の葉２丁目１９番地２４,,12,217,2770882,,,,,,,2022-12-01,1,,,,,マモシア,0
2184,9080105006298,新規,0,2022-12-01,2022-12-01,特定非営利活動法人絆翔,,その他の設立登記法人,静岡県,伊東市,富戸１１４７番地の８３,,22,208,4130231,,,,,,,2022-12-01,1,,,,,ハント,0
2195,9120001250648,新規,0,2022-12-01,2022-12-01,三民株式会社,,株式会社,大阪府,大阪市生野区,新今里３丁目２番１２－５０１号,,27,116,5440001,,,,,,,2022-12-01,1,,,,,サンミン,0
2196,9120001250656,新規,0,2022-12-01,2022-12-01,株式会社Ｓ．Ｅ．ネットワーク,,株式会社,大阪府,大阪市中央区,高津２丁目４番２１－２１０号おおきに道頓堀ビル,,27,128,5420072,,,,,,,2022-12-01,1,,,,,エスイーネットワーク,0
2197,9120001250664,新規,0,2022-12-01,2022-12-01,ｌｅ‐ＬＩＦＥ株式会社,,株式会社,大阪府,門真市,舟田町２４番２９号,,27,223,5710021,,,,,,,2022-12-01,1,,,,,リライフ,0
2198,9120001250672,新規,0,2022-12-01,2022-12-01,鯉悦株式会社,,株式会社,大阪府,大阪市城東区,中浜１丁目１７－１４－５Ｂ,,27,118,5360024,,,,,,,2022-12-01,1,,,,,コイエツ,0
2199,9120001250714,新規,0,2022-12-01,2022-12-01,株式会社ネクストイノベーション,,株式会社,大阪府,大阪市北区,西天満１丁目２－２３－４０１号,,27,127,5300047,,,,,,,2022-12-01,1,,,,,ネクストイノベーション,0
2200,9120001250722,新規,0,2022-12-01,2022-12-01,株式会社ＥＬＦ‐ｙ,,株式会社,大阪府,大阪市福島区,福島１丁目１番１２号リバーレジデンス堂島４０２号室,,27,103,5530003,,,,,,,2022-12-01,1,,,,,エルフィ,0
2201,9120001250730,新規,0,2022-12-01,2022-12-01,株式会社ＬＡＫＩＡエージェント,,株式会社,大阪府,大阪市中央区,西心斎橋２丁目２番７号御堂筋ジュンアシダビル１０階,,27,128,5420086,,,,,,,2022-12-01,1,,,,,ラキアエージェント,0
2203,9120003022970,新規,0,2022-12-01,2022-12-01,ケイプロ合同会社,,合同会社,大阪府,大阪市北区,梅田１丁目１－３大阪駅前第３ビル２９階１－１－１号室,,27,127,5300001,,,,,,,2022-12-01,1,,,,,ケイプロ,0
2204,9120003022995,新規,0,2022-12-01,2022-12-01,合同会社ＧＬＯＢＡＬ　ＣＡＲＥ,,合同会社,大阪府,大阪市西成区,鶴見橋１丁目９番２１号真奈コーポ１０５号室,,27,122,5570031,,,,,,,2022-12-01,1,,,,,グローバルケア,0
2212,9130001073206,新規,0,2022-12-01,2022-12-01,株式会社アクティブ,,株式会社,京都府,京都市北区,大将軍西町１５７番地２,,26,101,6038331,,,,,,,2022-12-01,1,,,,,アクティブ,0
2221,9140001128173,新規,0,2022-12-01,2022-12-01,株式会社いろはな,,株式会社,兵庫県,神戸市中央区,磯上通６丁目１番１７号,,28,110,6510086,,,,,,,2022-12-01,1,,,,,イロハナ,0
2222,9140001128181,新規,0,2022-12-01,2022-12-01,株式会社雄飛空設,,株式会社,兵庫県,西宮市,老松町１８番５－３１７号,,28,204,6620085,,,,,,,2022-12-01,1,,,,,ユウヒクウセツ,0
2223,9140001128207,新規,0,2022-12-01,2022-12-01,株式会社ＥＴＡ　Ｎｅｔｗｏｒｋ　Ｊａｐａｎ,,株式会社,兵庫県,神戸市北区,有野町有野６６５番地の２,,28,109,6511312,,,,,,,2022-12-01,1,,,,,イーティーエーネットワークジャパン,0
2224,9140001128223,新規,0,2022-12-01,2022-12-01,株式会社Ｌｉｌｉｋｅ,,株式会社,兵庫県,姫路市,飾磨区西浜町３丁目９３番地１サクラメント西浜３０４号,,28,201,6728086,,,,,,,2022-12-01,1,,,,,リライク,0
2233,9180001154018,新規,0,2022-12-01,2022-12-01,株式会社ｓｕｎｒｉｓｅ　ｄｒｅａｍｓ,,株式会社,愛知県,名古屋市中川区,愛知町１４番２２号,,23,110,4540807,,,,,,,2022-12-01,1,,,,,サンライズドリームス,0
2250,9240001060721,新規,0,2022-12-01,2022-12-01,株式会社ＨＴ,,株式会社,広島県,広島市安佐南区,川内２丁目７番１７－２０１号,,34,105,7310102,,,,,,,2022-12-01,1,,,,,エイチティー,0
2254,9260001037453,新規,0,2022-12-01,2022-12-01,株式会社Ｇｏ　ｃｏｒｐｏｒａｔｉｏｎ,,株式会社,岡山県,倉敷市,児島小川９丁目５番９７号,,33,202,7110911,,,,,,,2022-12-01,1,,,,,ゴウコーポレーション,0
2258,9290003013276,新規,0,2022-12-01,2022-12-01,合同会社ＧＲＥＥＮ　ＨＡＷＫ,,合同会社,福岡県,福岡市博多区,吉塚２丁目１番３２－２０３号ＹＳ吉塚駅東ＩＩ,00128650,40,132,8120041,,,,,,,2022-12-01,1,,,,,グリーンホーク,0
2260,9290801029085,新規,0,2022-12-01,2022-12-01,株式会社ＯｐＡｒｔ,,株式会社,福岡県,北九州市八幡西区,黒崎１丁目１１番１３号トシマビル３Ｆ,,40,109,8060021,,,,,,,2022-12-01,1,,,,,オプアート,0
2263,9320001019445,新規,0,2022-12-01,2022-12-01,立石建設工業大分株式会社,,株式会社,大分県,中津市,大字永添２７５１の４１,,44,203,8710162,,,,,,,2022-12-01,1,,,,,タテイシケンセツコウギョウオオイタ,0
2266,9330003009609,新規,0,2022-12-01,2022-12-01,合同会社インフィニティ２,,合同会社,熊本県,熊本市中央区,京町２丁目８番２９号,,43,101,8600078,,,,,,,2022-12-01,1,,,,,インフィニティツー,0
2281,9430001087968,新規,0,2022-12-01,2022-12-01,株式会社ＳＴＡＲＴ　ＲＩＧＨＴ,,株式会社,北海道,札幌市東区,北四十二条東１丁目２－５，アイアール麻生５－２０１号室,,01,103,0070842,,,,,,,2022-12-01,1,,,,,スタートライト,0
2283,9430005014605,新規,0,2022-12-01,2022-12-01,学校法人学びのさと自由が丘学園,,その他の設立登記法人,北海道,夕張郡長沼町,東２線北１５番地,,01,428,0691317,,,,,,,2022-12-01,1,,,,,マナビノサトジユウガオカガクエン,0
2285,9460101007286,新規,0,2022-12-01,2022-12-01,株式会社ＹＯＫＯＴＡ,,株式会社,北海道,帯広市,南の森西１０丁目４番１号,,01,207,0800862,,,,,,,2022-12-01,1,,,,,ヨコタ,0
2290,9700150113217,新規,0,2022-12-01,2022-12-01,ＴＯＤＯＲＯＫＩ　ＩＮＴＥＲＮＡＴＩＯＮＡＬ　ＬＩＭＩＴＥＤ,,外国会社等,東京都,練馬区,錦２丁目１８番１６号,,13,120,1790082,中華人民共和国香港特別行政区ワンチャイ地区クイーンズ・ロード・イースト２１３番地ウーチョンハウス２８階２８０８号,,,,,,2022-12-01,1,,,,,トドロキインターナシヨナルリミテツド,0
