sequenceNumber,corporateNumber,process,correct,updateDate,changeDate,name,nameImageId,kind,prefectureName,cityName,streetNumber,addressImageId,prefectureCode,cityCode,postCode,addressOutside,addressOutsideImageId,closeDate,closeCause,successorCorporateNumber,changeCause,assignmentDate,latest,enName,enPrefectureName,enCityName,enAddressOutside,furigana,hihyoji
10,1010003036238,新規,0,2021-11-10,2021-11-10,合同会社ＶＰＳ,,合同会社,東京都,中央区,八丁堀４丁目２番１０号ＡＯＪ税理士法人内,,13,102,1040032,,,,,,,2021-11-10,1,,,,,ブイピーエス,0
14,1010103001810,新規,0,2021-11-10,2021-11-10,合同会社Ｓｙｒｕｐ,,合同会社,東京都,八王子市,東町１番１号ＤＣ東町ビル３階,,13,201,1920082,,,,,,,2021-11-10,1,,,,,,0
16,1010401163690,新規,0,2021-11-10,2021-11-10,株式会社ＲＩＮ,,株式会社,東京都,港区,南青山２丁目４番１１号ＬＡＮＤ南青山１０２,,13,103,1070062,,,,,,,2021-11-10,1,,,,,リン,0
17,1010401163716,新規,0,2021-11-10,2021-11-10,株式会社Ｗｏｌｖｅｓ,,株式会社,東京都,港区,芝５丁目１３番１３号つるやビル５階,,13,103,1080014,,,,,,,2021-11-10,1,,,,,ウルブス,0
18,1010401163740,新規,0,2021-11-10,2021-11-10,ジャストソリューション株式会社,,株式会社,東京都,港区,赤坂４丁目８番１９号赤坂フロントタウン３階,,13,103,1070052,,,,,,,2021-11-10,1,,,,,ジャストソリューション,0
19,1010401163749,新規,0,2021-11-10,2021-11-10,株式会社放送通信機器,,株式会社,東京都,港区,虎ノ門１丁目３番１号,,13,103,1050001,,,,,,,2021-11-10,1,,,,,ホウソウツウシンキキ,0
20,1010401163757,新規,0,2021-11-10,2021-11-10,株式会社ＪＹＭ,,株式会社,東京都,港区,南青山２丁目２番１５号ウィン青山９４２,,13,103,1070062,,,,,,,2021-11-10,1,,,,,ジム,0
22,1010403026458,新規,0,2021-11-10,2021-11-10,合同会社ユーラス冷水峠風力,,合同会社,東京都,港区,虎ノ門４丁目３番１３号,,13,103,1050001,,,,,,,2021-11-10,1,,,,,ユーラスヒヤミズトウゲフウリョク,0
23,1010405020392,新規,0,2021-11-10,2021-11-10,アプレフ・ジャパン・ツー特定目的会社,,その他の設立登記法人,東京都,港区,虎ノ門３丁目２２番１０－２０１号,,13,103,1050001,,,,,,,2021-11-10,1,,,,,アプレフジャパンツー,0
39,1010903006926,新規,0,2021-11-10,2021-11-10,合同会社エンジェル薬局,,合同会社,東京都,世田谷区,大原２丁目２番９号,,13,112,1560041,,,,,,,2021-11-10,1,,,,,エンジェルヤッキョク,0
53,1011001143785,新規,0,2021-11-10,2021-11-10,株式会社ＦＩＴｐｌｕｓ,,株式会社,東京都,渋谷区,恵比寿西２丁目１７－１７Ｂ１Ｆ,,13,113,1500021,,,,,,,2021-11-10,1,,,,,フィットプラス,0
61,1011101096826,新規,0,2021-11-10,2021-11-10,株式会社ムーンボート,,株式会社,東京都,新宿区,新宿５丁目１８番２０号ルックハイツ新宿８０３,,13,104,1600022,,,,,,,2021-11-10,1,,,,,ムーンボート,0
69,1011501027471,新規,0,2021-11-10,2021-11-10,株式会社Ｆｌｙｉｎｇ　Ｂｉｒｄ,,株式会社,東京都,北区,堀船３丁目１２番１４号,,13,117,1140004,,,,,,,2021-11-10,1,,,,,フライングバード,0
71,1011503004964,新規,0,2021-11-10,2021-11-10,合同会社ＢＩＮＴＥＮ,,合同会社,東京都,北区,西ケ原３丁目３番１１号,,13,117,1140024,,,,,,,2021-11-10,1,,,,,ビンテン,0
73,1011603003437,新規,0,2021-11-10,2021-11-10,合同会社Ｏｐｐｏｒｔｕｎｉｔｙ,,合同会社,東京都,練馬区,南田中３丁目２８番１２号シャリエ練馬高野台ハウス１０１,,13,120,1770035,,,,,,,2021-11-10,1,,,,,オポチュニティ,0
74,1011605002412,新規,0,2021-11-10,2021-11-10,税理士法人東邦,,その他の設立登記法人,東京都,練馬区,豊玉上２丁目１７番６号,,13,120,1760011,,,,,,,2021-11-10,1,,,,,トウホウ,0
101,1020003020793,新規,0,2021-11-10,2021-11-10,合同会社ｂｉｇａ　ｃｏｒｐｏｒａｔｉｏｎ,,合同会社,神奈川県,横浜市磯子区,森３丁目１６番１１号,,14,107,2350023,,,,,,,2021-11-10,1,,,,,ビガコーポレーション,0
106,1021003011080,新規,0,2021-11-10,2021-11-10,合同会社ヤークス,,合同会社,神奈川県,座間市,入谷西５丁目７番６サンハイム座間２０４号室,,14,216,2520029,,,,,,,2021-11-10,1,,,,,ヤークス,0
121,1030001145237,新規,0,2021-11-10,2021-11-10,株式会社ジャパンキコウ,,株式会社,埼玉県,さいたま市西区,大字植田谷本１９番地２０,,11,101,3310053,,,,,,,2021-11-10,1,,,,,ジャパンキコウ,0
122,1030001145286,新規,0,2021-11-10,2021-11-10,株式会社伏竜,,株式会社,埼玉県,草加市,両新田西町３２番地,,11,221,3400027,,,,,,,2021-11-10,1,,,,,フクリュウ,0
127,1030003018300,新規,0,2021-11-10,2021-11-10,合同会社ＡＲＩ,,合同会社,埼玉県,三郷市,采女１丁目６０番地,,11,237,3410011,,,,,,,2021-11-10,1,,,,,アリ,0
138,1050001050121,新規,0,2021-11-10,2021-11-10,株式会社Ｍ．Ｚ．ＴＲＡＤＩＮＧ,,株式会社,茨城県,筑西市,小川１３１０番地２メゾン川島２０２,,08,227,3080857,,,,,,,2021-11-10,1,,,,,エムゼットトレーディング,0
144,1060003003860,新規,0,2021-11-10,2021-11-10,合同会社ユニティー,,合同会社,栃木県,足利市,朝倉町４６０番地２,,09,202,3260823,,,,,,,2021-11-10,1,,,,,ユニティー,0
158,1090001017265,新規,0,2021-11-10,2021-11-10,株式会社ｉｎｎｂｅｔｗｅｅｎ,,株式会社,山梨県,甲府市,伊勢４丁目２３番５号２Ｆ,,19,201,4000856,,,,,,,2021-11-10,1,,,,,インビトウィーン,0
173,1120001241729,新規,0,2021-11-10,2021-11-10,ＴＭ株式会社,,株式会社,大阪府,大阪市生野区,林寺２丁目６番２号,,27,116,5440023,,,,,,,2021-11-10,1,,,,,ティーエム,0
174,1120001241745,新規,0,2021-11-10,2021-11-10,株式会社絆,,株式会社,大阪府,大阪市東淀川区,菅原２丁目３番４－１６号,,27,114,5330022,,,,,,,2021-11-10,1,,,,,キズナ,0
183,1120101064633,新規,0,2021-11-10,2021-11-10,株式会社ＳＫＹエンジニアリング,,株式会社,大阪府,和泉市,はつが野２丁目１１番２号,,27,219,5941106,,,,,,,2021-11-10,1,,,,,スカイエンジニアリング,0
186,1120103004430,新規,0,2021-11-10,2021-11-10,合同会社ふっとスマイル,,合同会社,大阪府,高石市,綾園２丁目６番２０号,,27,225,5920014,,,,,,,2021-11-10,1,,,,,フットスマイル,0
187,1120903003904,新規,0,2021-11-10,2021-11-10,合同会社Ｎａｔｔｙ,,合同会社,大阪府,高槻市,東城山町１番７号,,27,207,5691037,,,,,,,2021-11-10,1,,,,,ナッティ,0
194,1130001070482,新規,0,2021-11-10,2021-11-10,株式会社Ｒｅｐｌｕｓ,,株式会社,京都府,京都市北区,大宮秋葉山１番地８,,26,101,6030000,,,,,,,2021-11-10,1,,,,,リプラス,0
196,1130003007573,新規,0,2021-11-10,2021-11-10,合同会社ＮＮイメージング,,合同会社,京都府,京都市中京区,花立町２７２－８,,26,104,6040003,,,,,,,2021-11-10,1,,,,,エヌエヌイメージング,0
200,1140001123792,新規,0,2021-11-10,2021-11-10,シーエス興産株式会社,,株式会社,兵庫県,芦屋市,岩園町４３番３号,,28,206,6590013,,,,,,,2021-11-10,1,,,,,シーエスコウサン,0
203,1140003016961,新規,0,2021-11-10,2021-11-10,合同会社太子ロジスティクスセンター,,合同会社,兵庫県,姫路市,網干区和久３４４番地１ロワイヤル網干駅前３０５号,,28,201,6711227,,,,,,,2021-11-10,1,,,,,タイシロジスティクスセンター,0
219,1180003023178,新規,0,2021-11-10,2021-11-10,合同会社Ｎ－ｓｔａｇｅ,,合同会社,愛知県,名古屋市中川区,吉津３丁目２７０６アイリス２　１０２,,23,110,4540981,,,,,,,2021-11-10,1,,,,,エヌステージ,0
229,1210001018696,新規,0,2021-11-10,2021-11-10,株式会社Ａｒｂａｌｅｓｔ,,株式会社,福井県,坂井市,丸岡町北横地第１３号２２番地,,18,210,9100374,,,,,,,2021-11-10,1,,,,,アーバレスト,0
255,1260005010991,新規,0,2021-11-10,2021-11-10,岡山建設運輸協同組合,,その他の設立登記法人,岡山県,備前市,佐山５０９６番地,,33,211,7050026,,,,,,,2021-11-10,1,,,,,オカヤマケンセツウンユ,0
256,1280001008559,新規,0,2021-11-10,2021-11-10,株式会社江友布志名事業所,,株式会社,島根県,松江市,玉湯町布志名６３７番地８３,,32,201,6990203,,,,,,,2021-11-10,1,,,,,コウユウフジナジギョウショ,0
263,1290001095241,新規,0,2021-11-10,2021-11-10,株式会社エイト,,株式会社,福岡県,久留米市,大善寺町宮本１６０３番地,,40,203,8300073,,,,,,,2021-11-10,1,,,,,エイト,0
264,1290001095282,新規,0,2021-11-10,2021-11-10,株式会社エス・エージェンシー,,株式会社,福岡県,大牟田市,曙町１－１２－２０５,,40,202,8360852,,,,,,,2021-11-10,1,,,,,エスエージェンシー,0
265,1290001095308,新規,0,2021-11-10,2021-11-10,株式会社悠新,,株式会社,福岡県,福岡市東区,西戸崎５丁目９番５０号,,40,131,8110321,,,,,,,2021-11-10,1,,,,,ユウシン,0
266,1290001095324,新規,0,2021-11-10,2021-11-10,株式会社あぐりポート,,株式会社,福岡県,みやま市,高田町舞鶴６０８番地１,,40,229,8350131,,,,,,,2021-11-10,1,,,,,アグリポート,0
270,1290003011816,新規,0,2021-11-10,2021-11-10,ＨＩＫＡＲＩ　ＦＣ合同会社,,合同会社,福岡県,福岡市博多区,吉塚１丁目１６番７号,,40,132,8120041,,,,,,,2021-11-10,1,,,,,ヒカリエフシー,0
274,1290801027971,新規,0,2021-11-10,2021-11-10,株式会社Ｐоｃо’ｓ,,株式会社,福岡県,北九州市若松区,小石本村町６番２号,,40,103,8080001,,,,,,,2021-11-10,1,,,,,ポコズ,0
285,1360003011536,新規,0,2021-11-10,2021-11-10,合同会社ＭＣＮＹ,,合同会社,沖縄県,沖縄市,山里１丁目１８番６号,,47,211,9040033,,,,,,,2021-11-10,1,,,,,エムシーエヌワイ,0
286,1360003011560,新規,0,2021-11-10,2021-11-10,知花レッカー合同会社,,合同会社,沖縄県,沖縄市,知花５丁目１６番５８号,,47,211,9042143,,,,,,,2021-11-10,1,,,,,,0
288,1360005006550,新規,0,2021-11-10,2021-11-10,税理士法人イグレック会計,,その他の設立登記法人,沖縄県,那覇市,西１丁目５番８号西沖商マンション２０１,,47,201,9000036,,,,,,,2021-11-10,1,,,,,イグレックカイケイ,0
293,1380003005049,新規,0,2021-11-10,2021-11-10,合同会社ＡＨＳＦ,,合同会社,福島県,二本松市,西池１１－２９,,07,210,9640861,,,,,,,2021-11-10,1,,,,,エイエイチエスエフ,0
294,1400001015666,新規,0,2021-11-10,2021-11-10,株式会社Ｓｌａｐｓ,,株式会社,岩手県,盛岡市,東山１丁目４番２０号,,03,201,0200813,,,,,,,2021-11-10,1,,,,,スラップス,0
305,1430003013343,新規,0,2021-11-10,2021-11-10,合同会社ＢＬＯＯＭ,,合同会社,北海道,北広島市,南町３丁目３番地２,,01,234,0611143,,,,,,,2021-11-10,1,,,,,ブルーム,0
312,1500003002719,新規,0,2021-11-10,2021-11-10,合同会社赤富士商店農林水産部,,合同会社,愛媛県,南宇和郡愛南町,僧都２１６９－１,,38,506,7984136,,,,,,,2021-11-10,1,,,,,アカフジショウテンノウリンスイサンブ,0
327,2010401163590,新規,0,2021-11-10,2021-11-10,株式会社メルロジ,,株式会社,東京都,港区,六本木６丁目１０番１号,,13,103,1060032,,,,,,,2021-11-10,1,,,,,メルロジ,0
328,2010401163731,新規,0,2021-11-10,2021-11-10,ＯＲＣＨＩＤ株式会社,,株式会社,東京都,港区,西麻布３丁目１８番４号,,13,103,1060031,,,,,,,2021-11-10,1,,,,,オーキッド,0
329,2010401163748,新規,0,2021-11-10,2021-11-10,株式会社８Ｂｅｅ,,株式会社,東京都,港区,六本木３丁目４番３３号,,13,103,1060032,,,,,,,2021-11-10,1,,,,,エイトビー,0
330,2010401163756,新規,0,2021-11-10,2021-11-10,株式会社全力ボディサポート,,株式会社,東京都,港区,新橋６丁目９番４号,,13,103,1050004,,,,,,,2021-11-10,1,,,,,ゼンリョクボディサポート,0
331,2010401163764,新規,0,2021-11-10,2021-11-10,ＢＦホームズ株式会社,,株式会社,東京都,港区,赤坂１丁目１番１７号,,13,103,1070052,,,,,,,2021-11-10,1,,,,,ビーエフホームズ,0
345,2010901049769,新規,0,2021-11-10,2021-11-10,Ｒｅｐ．株式会社,,株式会社,東京都,世田谷区,下馬６丁目４１－２－２０１,,13,112,1540002,,,,,,,2021-11-10,1,,,,,レップ,0
354,2011001143859,新規,0,2021-11-10,2021-11-10,株式会社ＭａＶｉｅ,,株式会社,東京都,渋谷区,南平台町６番１８－２０１号,,13,113,1500036,,,,,,,2021-11-10,1,,,,,マヴィ,0
355,2011001143925,新規,0,2021-11-10,2021-11-10,株式会社リブライク,,株式会社,東京都,渋谷区,代々木３丁目８番３号ＰＤスペース４Ｆ,,13,113,1510053,,,,,,,2021-11-10,1,,,,,リブライク,0
365,2011101096783,新規,0,2021-11-10,2021-11-10,株式会社ＣｏｄｅＵ,,株式会社,東京都,新宿区,若松町９番４号ＭＨビル１０１号室,,13,104,1620056,,,,,,,2021-11-10,1,,,,,コードユー,0
367,2011103011154,新規,0,2021-11-10,2021-11-10,合同会社シェア村,,合同会社,東京都,新宿区,西新宿３丁目３番１３号西新宿水間ビル６階,,13,104,1600023,,,,,,,2021-11-10,1,,,,,シェアムラ,0
369,2011503004963,新規,0,2021-11-10,2021-11-10,ＭＳ合同会社,,合同会社,東京都,北区,志茂５丁目５番５号レオパレスファイズ４０１号,,13,117,1150042,,,,,,,2021-11-10,1,,,,,,0
370,2011601025523,新規,0,2021-11-10,2021-11-10,株式会社練馬放送,,株式会社,東京都,練馬区,北町８丁目１２番１４号,,13,120,1790081,,,,,,,2021-11-10,1,,,,,ネリマホウソウ,0
371,2011603003436,新規,0,2021-11-10,2021-11-10,合同会社セブンハンドレッド,,合同会社,東京都,練馬区,中村南３丁目２番１２－３０５号,,13,120,1760025,,,,,,,2021-11-10,1,,,,,セブンハンドレッド,0
375,2011801039950,新規,0,2021-11-10,2021-11-10,株式会社ＳＳ　ＴＲＡＤＩＮＧ,,株式会社,東京都,足立区,入谷２丁目２２番１４号,,13,121,1210836,,,,,,,2021-11-10,1,,,,,エスエストレーディング,0
383,2012401038509,新規,0,2021-11-10,2021-11-10,株式会社アクトホーム,,株式会社,東京都,小金井市,緑町５丁目２１番２２号,,13,210,1840003,,,,,,,2021-11-10,1,,,,,アクトホーム,0
386,2012803002640,新規,0,2021-11-10,2021-11-10,合同会社坂杜,,合同会社,東京都,日野市,南平３丁目１３番地の３,,13,212,1910041,,,,,,,2021-11-10,1,,,,,バント,0
387,2012805003067,新規,0,2021-11-10,2021-11-10,行政書士法人ＬｅｇａｌＡｇｅｎｔ,,その他の設立登記法人,東京都,立川市,柏町４丁目５２番地の６シャン・クレール２０１,,13,202,1900004,,,,,,,2021-11-10,1,,,,,リーガルエージェント,0
397,2013303005893,新規,0,2021-11-10,2021-11-10,合同会社大和田デンタルラボ,,合同会社,東京都,豊島区,駒込２丁目３番６号クリニックビル２０１,,13,116,1700003,,,,,,,2021-11-10,1,,,,,オオワダデンタルラボ,0
412,2020003020784,新規,0,2021-11-10,2021-11-10,合同会社ベイスターズ,,合同会社,神奈川県,横浜市西区,浅間町４丁目３３３番地２２フューティバル横浜シティ５０４号,,14,103,2200072,,,,,,,2021-11-10,1,,,,,ベイスターズ,0
413,2020003020801,新規,0,2021-11-10,2021-11-10,ＤＳＧ合同会社,,合同会社,神奈川県,横浜市港北区,箕輪町３丁目１７番７号,,14,109,2230051,,,,,,,2021-11-10,1,,,,,ディーエスジー,0
418,2021003011071,新規,0,2021-11-10,2021-11-10,合同会社ノスリ舎,,合同会社,神奈川県,小田原市,浜町３丁目６－２,,14,206,2500004,,,,,,,2021-11-10,1,,,,,ノスリシャ,0
423,2030001145095,新規,0,2021-11-10,2021-11-10,株式会社ＷＩＮＧ,,株式会社,埼玉県,白岡市,小久喜９５６番地山本ビル３０１,,11,246,3490217,,,,,,,2021-11-10,1,,,,,ウィング,0
424,2030001145285,新規,0,2021-11-10,2021-11-10,アラジン企画株式会社,,株式会社,埼玉県,春日部市,新方袋６６６番地７,,11,214,3440056,,,,,,,2021-11-10,1,,,,,アラジンキカク,0
425,2030001145302,新規,0,2021-11-10,2021-11-10,シンキャピタル建設株式会社,,株式会社,埼玉県,幸手市,東２丁目１２番１４号,,11,240,3400114,,,,,,,2021-11-10,1,,,,,シンキャピタルケンセツ,0
428,2030003018299,新規,0,2021-11-10,2021-11-10,合同会社フレシール,,合同会社,埼玉県,さいたま市緑区,美園４丁目１３番地５ドルフィーノ浦和美園６０６号,,11,109,3360967,,,,,,,2021-11-10,1,,,,,フレシール,0
465,2120001241736,新規,0,2021-11-10,2021-11-10,株式会社ＭＩＤＤＬＥ　ＥＡＳＴ,,株式会社,大阪府,大阪市天王寺区,国分町１３番８号３Ｆ,,27,109,5430044,,,,,,,2021-11-10,1,,,,,ミドルイースト,0
466,2120001241744,新規,0,2021-11-10,2021-11-10,株式会社ＳａｆｅｔｙＬｉｆｅ大阪,,株式会社,大阪府,枚方市,桜丘町５番２－５０２号,,27,210,5730018,,,,,,,2021-11-10,1,,,,,セーフティーライフオオサカ,0
467,2120001241752,新規,0,2021-11-10,2021-11-10,会合株式会社,,株式会社,大阪府,大阪市中央区,道頓堀１丁目１番１４号岡田ビル２階,,27,128,5420071,,,,,,,2021-11-10,1,,,,,カイゴウ,0
481,2130001070507,新規,0,2021-11-10,2021-11-10,株式会社Ｆｉｒｓｔ　Ｃａｐｉｔａｌ,,株式会社,京都府,京都市下京区,京極町４９７番地ＫＹＯＴＯＳＡＭＵＲＡＩＳＯＨＯ３階Ｈ号室,,26,106,6008035,,,,,,,2021-11-10,1,,,,,ファーストキャピタル,0
502,2180001148678,新規,0,2021-11-10,2021-11-10,クーンズ株式会社,,株式会社,愛知県,名古屋市中区,錦３丁目１１番２５号,,23,106,4600003,,,,,,,2021-11-10,1,,,,,クーンズ,0
503,2180001148686,新規,0,2021-11-10,2021-11-10,株式会社ａｐｅｘｙ,,株式会社,愛知県,名古屋市北区,米が瀬町２９ファミーユＡ－１０３,,23,103,4620031,,,,,,,2021-11-10,1,,,,,アペクシー,0
504,2180003023169,新規,0,2021-11-10,2021-11-10,Ｍｙ　ｓｔａｇｅ合資会社,,合資会社,愛知県,名古屋市中川区,松葉町１丁目１３番３号,,23,110,4540818,,,,,,,2021-11-10,1,,,,,マイステージ,0
508,2200001039395,新規,0,2021-11-10,2021-11-10,株式会社寿限向,,株式会社,岐阜県,岐阜市,西川手１０丁目１４２７番地（キャッスルハイツ西川手２０３号室）,,21,201,5008258,,,,,,,2021-11-10,1,,,,,ジュゲム,0
519,2230001019089,新規,0,2021-11-10,2021-11-10,株式会社平尾製作所,,株式会社,富山県,高岡市,中田１番地３,,16,202,9391275,,,,,,,2021-11-10,1,,,,,ヒラオセイサクショ,0
520,2230003001755,新規,0,2021-11-10,2021-11-10,合同会社ＴＷＩＮＳ,,合同会社,富山県,富山市,中冨居新町５番６号,,16,201,9300830,,,,,,,2021-11-10,1,,,,,ツインズ,0
526,2240001058904,新規,0,2021-11-10,2021-11-10,株式会社Ｍａｒｓ　Ｃｏｍｐａｎｙ,,株式会社,広島県,広島市安佐北区,亀山西１丁目２１番３２号,,34,106,7310233,,,,,,,2021-11-10,1,,,,,マーズカンパニー,0
535,2270005005486,新規,0,2021-11-10,2021-11-10,特定非営利活動法人とまり,,その他の設立登記法人,鳥取県,東伯郡湯梨浜町,大字泊７２８番地,,31,370,6890601,,,,,,,2021-11-10,1,,,,,トマリ,0
541,2290001095323,新規,0,2021-11-10,2021-11-10,株式会社ＷＩＮ,,株式会社,福岡県,福岡市早良区,早良２丁目９番１号,,40,137,8111122,,,,,,,2021-11-10,1,,,,,ウィン,0
542,2290001095348,新規,0,2021-11-10,2021-11-10,株式会社Ｌｉｍコーポレーション,,株式会社,福岡県,宗像市,土穴１丁目３番３２－２０４号,,40,220,8114183,,,,,,,2021-11-10,1,,,,,リムコーポレーション,0
545,2290003011807,新規,0,2021-11-10,2021-11-10,合同会社山崎企画,00124818,合同会社,福岡県,大野城市,川久保３丁目１２番３９号,,40,219,8160905,,,,,,,2021-11-10,1,,,,,ヤマサキキカク,0
546,2290005018412,新規,0,2021-11-10,2021-11-10,一般社団法人ＰＯＮＯ　ＨＵＭＡＮ　ＥＮＴＥＲＰＲＩＳＥ,,その他の設立登記法人,福岡県,福岡市中央区,大名１丁目８番２号（１階）,,40,133,8100041,,,,,,,2021-11-10,1,,,,,ポノヒューマンエンタープライズ,0
548,2290805009486,新規,0,2021-11-10,2021-11-10,一般社団法人日本薬学生支援機構,,その他の設立登記法人,福岡県,北九州市小倉北区,竪町２丁目４番１９－５０６号,,40,106,8030818,,,,,,,2021-11-10,1,,,,,ニホンヤクガクセイシエンキコウ,0
566,2430001085359,新規,0,2021-11-10,2021-11-10,株式会社小玉内装,,株式会社,北海道,札幌市清田区,平岡三条３丁目１６番１４号,,01,110,0040873,,,,,,,2021-11-10,1,,,,,コダマナイソウ,0
568,2470001018827,新規,0,2021-11-10,2021-11-10,株式会社アイ・ティ・エム,,株式会社,香川県,高松市,今里町８番地１６,,37,201,7600078,,,,,,,2021-11-10,1,,,,,アイティエム,0
578,3010001222333,新規,0,2021-11-10,2021-11-10,Ｔｅｎｓｏｒ　Ｅｎｅｒｇｙ株式会社,,株式会社,東京都,千代田区,平河町１丁目６－１５ＵＳビル８Ｆ,,13,101,1020093,,,,,,,2021-11-10,1,,,,,テンサーエナジー,0
579,3010001222399,新規,0,2021-11-10,2021-11-10,ＭｙＬａ株式会社,,株式会社,東京都,中央区,八丁堀４丁目１２－２０,,13,102,1040032,,,,,,,2021-11-10,1,,,,,マイラ,0
584,3010003036236,新規,0,2021-11-10,2021-11-10,合同会社みくラボ,,合同会社,東京都,御蔵島村,,,13,382,1001301,,,,,,,2021-11-10,1,,,,,ミクラボ,0
599,3010401163730,新規,0,2021-11-10,2021-11-10,ｍｏｒｐｈｅｕｓ株式会社,,株式会社,東京都,港区,虎ノ門４丁目３番１号城山トラストタワー４階,,13,103,1050001,,,,,,,2021-11-10,1,,,,,モルフェウス,0
600,3010401163763,新規,0,2021-11-10,2021-11-10,ＢＦネット株式会社,,株式会社,東京都,港区,赤坂１丁目１番１７号,,13,103,1070052,,,,,,,2021-11-10,1,,,,,ビーエフネット,0
602,3010403026431,新規,0,2021-11-10,2021-11-10,合同会社ＰＡＲＴＹ　ＩＳＬＡＮＤ,,合同会社,東京都,港区,南青山２丁目２番１５号ＷＩＮ青山５３１,,13,103,1070062,,,,,,,2021-11-10,1,,,,,パーティーアイランド,0
603,3010403026480,新規,0,2021-11-10,2021-11-10,合同会社ＮＥＴ－Ｒ,,合同会社,東京都,港区,南青山２丁目２番１５号,,13,103,1070062,,,,,,,2021-11-10,1,,,,,ネットアール,0
604,3010403026489,新規,0,2021-11-10,2021-11-10,合同会社パルメット,,合同会社,東京都,港区,白金６丁目１５番１４号,,13,103,1080072,,,,,,,2021-11-10,1,,,,,パルメット,0
612,3010603009244,新規,0,2021-11-10,2021-11-10,合同会社河村商店,,合同会社,東京都,江東区,亀戸５丁目１３番２号スクエア三報ビル３階,,13,108,1360071,,,,,,,2021-11-10,1,,,,,カワムラショウテン,0
626,3011001143817,新規,0,2021-11-10,2021-11-10,シュークリームトウキョウ株式会社,,株式会社,東京都,渋谷区,道玄坂１丁目１７番９－６０３号,,13,113,1500043,,,,,,,2021-11-10,1,,,,,シュークリームトウキョウ,0
632,3011501027461,新規,0,2021-11-10,2021-11-10,株式会社ジェンティー,,株式会社,東京都,荒川区,西日暮里６丁目３６番１３号サザンパレス西日暮里１０１号,,13,118,1160013,,,,,,,2021-11-10,1,,,,,ジェンティー,0
670,3021003011070,新規,0,2021-11-10,2021-11-10,Ｌｉｔｔｌｅ　Ａｃｏｒｎｓ合同会社,,合同会社,神奈川県,茅ヶ崎市,中島１１４０番地,,14,207,2530073,,,,,,,2021-11-10,1,,,,,リトルエイコーンズ,0
671,3021003011079,新規,0,2021-11-10,2021-11-10,合同会社Ｔ＆Ｓ,,合同会社,神奈川県,厚木市,中町２丁目１３番１４号サンシャインビル６０２号室,,14,212,2430018,,,,,,,2021-11-10,1,,,,,ティーアンドエス,0
682,3030003018281,新規,0,2021-11-10,2021-11-10,Ｙ’ｓ合同会社,,合同会社,埼玉県,戸田市,川岸１丁目３番５号,,11,224,3350015,,,,,,,2021-11-10,1,,,,,ワイズ,0
683,3030003018298,新規,0,2021-11-10,2021-11-10,合同会社ケーアイベスト,,合同会社,埼玉県,さいたま市南区,鹿手袋２丁目１５番３号,,11,108,3360031,,,,,,,2021-11-10,1,,,,,ケーアイベスト,0
690,3040001120947,新規,0,2021-11-10,2021-11-10,株式会社ピクサポ,,株式会社,千葉県,千葉市中央区,富士見１丁目７番２号富士見ＮＡＭＥＫＩマンション９０３号室,,12,101,2600015,,,,,,,2021-11-10,1,,,,,ピクサポ,0
696,3040005021415,新規,0,2021-11-10,2021-11-10,医療法人社団習仁会,,その他の設立登記法人,千葉県,習志野市,大久保３丁目７番１７号,,12,216,2750011,,,,,,,2021-11-10,1,,,,,シュウジンカイ,0
698,3050001050053,新規,0,2021-11-10,2021-11-10,株式会社Ｄｒｅａｍ　Ｍａｔｃｈ,,株式会社,茨城県,つくば市,島名２３１９番地（諏訪Ｃ１２街区１７）ＲｉｏＧｒａｎｄｅ３０２号,,08,220,3002655,,,,,,,2021-11-10,1,,,,,ドリームマッチ,0
699,3050001050086,新規,0,2021-11-10,2021-11-10,株式会社Ｂｅｓｔ・Ｌｉｆｅ,,株式会社,茨城県,土浦市,下高津３丁目１１番４５号,,08,203,3000812,,,,,,,2021-11-10,1,,,,,ベストライフ,0
701,3060001034294,新規,0,2021-11-10,2021-11-10,株式会社クレセント,,株式会社,栃木県,真岡市,熊倉３丁目１６番地２,,09,209,3214369,,,,,,,2021-11-10,1,,,,,クレセント,0
704,3060003003859,新規,0,2021-11-10,2021-11-10,合同会社Ａｃｃｏｇｌｉｅｎｚａ,,合同会社,栃木県,栃木市,大平町富田２０４番地２,,09,203,3294404,,,,,,,2021-11-10,1,,,,,アッコリエンツァ,0
717,3100001034802,新規,0,2021-11-10,2021-11-10,株式会社木曽谷Ｋｏｕｓａｋｕ．,,株式会社,長野県,木曽郡木曽町,福島５１２２番地,,20,432,3970001,,,,,,,2021-11-10,1,,,,,キソダニコウサク,0
725,3120001241735,新規,0,2021-11-10,2021-11-10,株式会社ＳＡＩＴＯ,,株式会社,大阪府,大阪市天王寺区,国分町１３番８号３Ｆ,,27,109,5430044,,,,,,,2021-11-10,1,,,,,サイトウ,0
726,3120001241776,新規,0,2021-11-10,2021-11-10,泰和国際物流株式会社,,株式会社,大阪府,門真市,四宮３丁目２番３８号,,27,223,5710017,,,,,,,2021-11-10,1,,,,,タイワコクサイブツリュウ,0
765,3140001123790,新規,0,2021-11-10,2021-11-10,アサヒ設備株式会社,,株式会社,兵庫県,丹波市,春日町池尾８９番地,,28,223,6694121,,,,,,,2021-11-10,1,,,,,アサヒセツビ,0
780,3180001148652,新規,0,2021-11-10,2021-11-10,株式会社Ｉ‐ＤＯ,,株式会社,愛知県,瀬戸市,東印所町５７番地,,23,204,4890072,,,,,,,2021-11-10,1,,,,,イドゥー,0
781,3180001148677,新規,0,2021-11-10,2021-11-10,株式会社ミルコ,,株式会社,愛知県,名古屋市千種区,田代町字四観音道西２１番地の２０,,23,101,4640052,,,,,,,2021-11-10,1,,,,,ミルコ,0
789,3180303005155,新規,0,2021-11-10,2021-11-10,合同会社ティエラス,,合同会社,愛知県,田原市,西山町穂波２３１番地,,23,231,4413619,,,,,,,2021-11-10,1,,,,,ティエラス,0
793,3200001039394,新規,0,2021-11-10,2021-11-10,株式会社レジェンド,,株式会社,岐阜県,可児市,広見３丁目４７番地２,,21,214,5090214,,,,,,,2021-11-10,1,,,,,レジェンド,0
802,3230001019071,新規,0,2021-11-10,2021-11-10,ＭＫエンジニアリング株式会社,,株式会社,富山県,氷見市,飯久保２９６番地２３,,16,205,9350112,,,,,,,2021-11-10,1,,,,,エムケーエンジニアリング,0
803,3230001019088,新規,0,2021-11-10,2021-11-10,株式会社ＨＲＤｃｏｎｎｅｃｔｉｏｎ,,株式会社,富山県,射水市,坂東１０９番地２,,16,211,9340057,,,,,,,2021-11-10,1,,,,,エイチアールディコネクション,0
805,3230003001754,新規,0,2021-11-10,2021-11-10,合同会社カンパニュラ,,合同会社,富山県,高岡市,木津１２５６番地４,,16,202,9330857,,,,,,,2021-11-10,1,,,,,カンパニュラ,0
806,3240001058903,新規,0,2021-11-10,2021-11-10,ポコポンソフト株式会社,,株式会社,広島県,広島市南区,宇品神田５丁目２１番１４号花本ビル,,34,103,7340004,,,,,,,2021-11-10,1,,,,,ポコポンソフト,0
807,3240001058911,新規,0,2021-11-10,2021-11-10,株式会社フィールズ,,株式会社,広島県,廿日市市,宮内３４７－１００８,,34,213,7380034,,,,,,,2021-11-10,1,,,,,フィールズ,0
825,3290001095347,新規,0,2021-11-10,2021-11-10,株式会社ＢＲＩＤＧＥ,,株式会社,福岡県,福岡市博多区,豊１丁目９番６４－９０４号,,40,132,8120042,,,,,,,2021-11-10,1,,,,,ブリッジ,0
829,3290803003977,新規,0,2021-11-10,2021-11-10,合同会社晋,,合同会社,福岡県,北九州市八幡東区,上本町１丁目１１番１号,,40,108,8050018,,,,,,,2021-11-10,1,,,,,シン,0
831,3290805009485,新規,0,2021-11-10,2021-11-10,特定非営利活動法人美輪,,その他の設立登記法人,福岡県,遠賀郡岡垣町,大字原７３番地２,,40,383,8114202,,,,,,,2021-11-10,1,,,,,ビワ,0
840,3380001032332,新規,0,2021-11-10,2021-11-10,株式会社遠藤建築,,株式会社,福島県,二本松市,長折字宮久保８番地,,07,210,9640311,,,,,,,2021-11-10,1,,,,,エンドウケンチク,0
841,3380003005047,新規,0,2021-11-10,2021-11-10,合同会社ＷＡＲＡＢＩ,,合同会社,福島県,郡山市,富田町字向舘９５番地の１３,,07,203,9638041,,,,,,,2021-11-10,1,,,,,ワラビ,0
842,3390001016656,新規,0,2021-11-10,2021-11-10,株式会社マル擶,,株式会社,山形県,山形市,大字漆山７４７番地の１,,06,201,9902161,,,,,,,2021-11-10,1,,,,,マルダマ,0
855,3430001085358,新規,0,2021-11-10,2021-11-10,株式会社ノースマテリアル,,株式会社,北海道,札幌市北区,屯田九条６丁目２番１８号,,01,102,0020859,,,,,,,2021-11-10,1,,,,,ノースマテリアル,0
864,3470001018826,新規,0,2021-11-10,2021-11-10,重成工業株式会社,,株式会社,香川県,綾歌郡綾川町,陶３６８６番地,,37,387,7612103,,,,,,,2021-11-10,1,,,,,シゲナリコウギョウ,0
870,3500001023797,新規,0,2021-11-10,2021-11-10,株式会社Ａ,,株式会社,愛媛県,松山市,鷹子町８２６番地,,38,201,7900925,,,,,,,2021-11-10,1,,,,,アイナ,0
877,4010001222381,新規,0,2021-11-10,2021-11-10,霜月株式会社,,株式会社,東京都,中央区,銀座１丁目２２番１１号,,13,102,1040061,,,,,,,2021-11-10,1,,,,,シモツキ,0
883,4010003036235,新規,0,2021-11-10,2021-11-10,合同会社Ｋｒａｂｅｒ,,合同会社,東京都,中央区,日本橋人形町３丁目１番１３－４０２号,,13,102,1030013,,,,,,,2021-11-10,1,,,,,クレーバー,0
884,4010003036251,新規,0,2021-11-10,2021-11-10,合同会社都市施設１号,,合同会社,東京都,千代田区,神田須田町２丁目９番地１,,13,101,1010041,,,,,,,2021-11-10,1,,,,,トシシセツイチゴウ,0
902,4010401163738,新規,0,2021-11-10,2021-11-10,Ｓａｆｅ　Ｔｒａｄｅ　Ｊａｐａｎ株式会社,,株式会社,東京都,港区,南青山４丁目１８番１１号フォレストヒルズイーストウィング２階,,13,103,1070062,,,,,,,2021-11-10,1,,,,,セーフトレードジャパン,0
923,4011003013637,新規,0,2021-11-10,2021-11-10,ぽろみがき合同会社,,合同会社,東京都,渋谷区,富ヶ谷２丁目１４番１号コンシェリア・デュー代々木公園８０８,,13,113,1510063,,,,,,,2021-11-10,1,,,,,ポロミガキ,0
929,4011101096781,新規,0,2021-11-10,2021-11-10,Ｂ－ＧＲＯＵＮＤ株式会社,,株式会社,東京都,新宿区,神楽坂６丁目６７番地,,13,104,1620825,,,,,,,2021-11-10,1,,,,,ビーグランド,0
934,4011103011144,新規,0,2021-11-10,2021-11-10,ＭＡＣＳＴＲＩＢＥ合同会社,,合同会社,東京都,新宿区,大久保２丁目７番５号,,13,104,1690072,,,,,,,2021-11-10,1,,,,,マックストライブ,0
946,4011501027469,新規,0,2021-11-10,2021-11-10,エムアイコンサル株式会社,,株式会社,東京都,北区,田端１丁目９番７号,,13,117,1140014,,,,,,,2021-11-10,1,,,,,エムアイコンサル,0
950,4012301012768,新規,0,2021-11-10,2021-11-10,株式会社ＧＲＩＴ,,株式会社,東京都,町田市,金森東１丁目６番３８号,,13,209,1940015,,,,,,,2021-11-10,1,,,,,グリット,0
955,4012703002350,新規,0,2021-11-10,2021-11-10,合同会社エスケイグットセイルズ,,合同会社,東京都,清瀬市,下清戸１丁目１４２番地２７,,13,221,2040011,,,,,,,2021-11-10,1,,,,,エスケイグットセイルズ,0
956,4012705002282,新規,0,2021-11-10,2021-11-10,一般社団法人きよせ平和と労働会館,,その他の設立登記法人,東京都,清瀬市,松山２丁目６番５号,,13,221,2040022,,,,,,,2021-11-10,1,,,,,キヨセヘイワトロウドウカイカン,0
957,4012801021211,新規,0,2021-11-10,2021-11-10,株式会社ゆえ,,株式会社,東京都,国立市,中１丁目８－９,,13,215,1860004,,,,,,,2021-11-10,1,,,,,ユエ,0
982,4020005015269,新規,0,2021-11-10,2021-11-10,ＮＰＯ法人ビリオンビー,,その他の設立登記法人,神奈川県,横浜市旭区,さちが丘１４８番地４さちが丘ダイカンプラザスポーツメント４１５号,,14,112,2410822,,,,,,,2021-11-10,1,,,,,ビリオンビー,0
989,4021001074449,新規,0,2021-11-10,2021-11-10,カビ取りマイスター株式会社,,株式会社,神奈川県,藤沢市,藤沢８６番地藤沢法人会館ビル５階,,14,205,2510052,,,,,,,2021-11-10,1,,,,,カビトリマイスター,0
1005,4030001145283,新規,0,2021-11-10,2021-11-10,株式会社ＣＣＦ,,株式会社,埼玉県,さいたま市岩槻区,大字裏慈恩寺３９番地２,,11,110,3390002,,,,,,,2021-11-10,1,,,,,シーシーエフ,0
1014,4040001120946,新規,0,2021-11-10,2021-11-10,株式会社Ｎｅｗ　Ｄｅｐａｒｔｕｒｅ,,株式会社,千葉県,八千代市,ゆりのき台５丁目３０番地１１１,,12,221,2760042,,,,,,,2021-11-10,1,,,,,ニューディパーチャー,0
1015,4040001120954,新規,0,2021-11-10,2021-11-10,株式会社ＯＺＴＥＣ,,株式会社,千葉県,柏市,高南台２丁目１３番地２,,12,217,2770942,,,,,,,2021-11-10,1,,,,,オズテック,0
1021,4040005021414,新規,0,2021-11-10,2021-11-10,医療法人社団謝誠会,,その他の設立登記法人,千葉県,千葉市美浜区,高洲３丁目２０番地４５号細谷ビル１０２号室,,12,106,2610004,,,,,,,2021-11-10,1,,,,,シャセイカイ,0
1029,4060001034277,新規,0,2021-11-10,2021-11-10,株式会社サンエス,,株式会社,栃木県,那須塩原市,東三島５丁目９２番地１ツインパルマＡ－３０３号,,09,213,3292751,,,,,,,2021-11-10,1,,,,,サンエス,0
1038,4080101022881,新規,0,2021-11-10,2021-11-10,株式会社コハク,,株式会社,静岡県,伊東市,宇佐美１６６０番地の１２エルメ郷戸２０１号,,22,208,4140001,,,,,,,2021-11-10,1,,,,,コハク,0
1040,4080403004405,新規,0,2021-11-10,2021-11-10,フルティフル合同会社,,合同会社,静岡県,浜松市中区,佐鳴台３丁目４１番２１号クラヴィエヒルＶＰ１０３,,22,131,4328021,,,,,,,2021-11-10,1,,,,,フルティフル,0
1045,4110001036169,新規,0,2021-11-10,2021-11-10,とりやま保険株式会社,,株式会社,新潟県,村上市,山居町２丁目１２番４号,,15,212,9580853,,,,,,,2021-11-10,1,,,,,トリヤマホケン,0
1052,4120001241676,新規,0,2021-11-10,2021-11-10,株式会社がっぱ,,株式会社,大阪府,大阪市福島区,海老江２丁目５番３号ジュネス永和２０５号室,,27,103,5530001,,,,,,,2021-11-10,1,,,,,ガッパ,0
1053,4120001241742,新規,0,2021-11-10,2021-11-10,株式会社マイビット,,株式会社,大阪府,大阪市中央区,東心斎橋１丁目９番２０号３Ｆ,,27,128,5420083,,,,,,,2021-11-10,1,,,,,マイビット,0
1054,4120001241775,新規,0,2021-11-10,2021-11-10,八直興業株式会社,,株式会社,大阪府,枚方市,宇山町２８番２－２０１号,,27,210,5731143,,,,,,,2021-11-10,1,,,,,ヤジキコウギョウ,0
1075,4130001070439,新規,0,2021-11-10,2021-11-10,株式会社カワモト,,株式会社,京都府,京都市下京区,小坂町２番地５,,26,106,6008821,,,,,,,2021-11-10,1,,,,,カワモト,0
1076,4130001070513,新規,0,2021-11-10,2021-11-10,株式会社Ｒ２パートナーズ,,株式会社,京都府,京都市中京区,御池通東洞院東入笹屋町４３６永和御池ビル６０６号,,26,104,6048187,,,,,,,2021-11-10,1,,,,,アールツーパートナーズ,0
1114,4180001148651,新規,0,2021-11-10,2021-11-10,株式会社タイガン,,株式会社,愛知県,名古屋市中川区,法華西町５丁目３７番地の２,,23,110,4540937,,,,,,,2021-11-10,1,,,,,タイガン,0
1118,4180003023183,新規,0,2021-11-10,2021-11-10,合同会社ＫＮＯＴ　Ｎａｔｉｏｎａｌ,,合同会社,愛知県,名古屋市中区,新栄１丁目４－２４パークフラッツ新栄,,23,106,4600007,,,,,,,2021-11-10,1,,,,,ノットナショナル,0
1125,4180301035616,新規,0,2021-11-10,2021-11-10,株式会社ＦＣＴ,,株式会社,愛知県,岡崎市,百々西町１２番地３２,,23,202,4442117,,,,,,,2021-11-10,1,,,,,エフシーティー,0
1143,4230003001753,新規,0,2021-11-10,2021-11-10,合同会社むりせん,,合同会社,富山県,中新川郡立山町,宮路１４３番地,,16,323,9301367,,,,,,,2021-11-10,1,,,,,ムリセン,0
1148,4240001058910,新規,0,2021-11-10,2021-11-10,株式会社利カンパニー,,株式会社,広島県,広島市南区,松川町１番１８－１１０２号,,34,103,7320826,,,,,,,2021-11-10,1,,,,,トシカンパニー,0
1150,4240003005365,新規,0,2021-11-10,2021-11-10,合同会社たにえん,,合同会社,広島県,呉市,西辰川１丁目８番１７号,,34,202,7370809,,,,,,,2021-11-10,1,,,,,タニエン,0
1151,4250001019234,新規,0,2021-11-10,2021-11-10,株式会社リアン,,株式会社,山口県,岩国市,周東町上久原２２０５番地１０,,35,208,7420413,,,,,,,2021-11-10,1,,,,,リアン,0
1161,4290001095305,新規,0,2021-11-10,2021-11-10,株式会社Ｌｅｃｏｌｌｉｅｒ　Ｊａｐａｎ,,株式会社,福岡県,福岡市博多区,下川端町２番１号,,40,132,8120027,,,,,,,2021-11-10,1,,,,,ルコリエジャパン,0
1162,4290003011796,新規,0,2021-11-10,2021-11-10,Ｏｄｄ　Ｅｙｅ合同会社,,合同会社,福岡県,福岡市博多区,博多駅前４丁目１８－１３－８０６,,40,132,8120011,,,,,,,2021-11-10,1,,,,,オッドアイ,0
1163,4290003011813,新規,0,2021-11-10,2021-11-10,合同会社つきうさぎ,,合同会社,福岡県,糟屋郡粕屋町,花ヶ浦２丁目１２－２６,,40,349,8112310,,,,,,,2021-11-10,1,,,,,,0
1179,4360001029610,新規,0,2021-11-10,2021-11-10,Ｓｅｌｅｎｅ＆Ｓｅｌｉｎａ株式会社,,株式会社,沖縄県,浦添市,仲西１丁目３番地２３、５階５０２の１,,47,208,9012125,,,,,,,2021-11-10,1,,,,,セレーネアンドセリーナ,0
1182,4360003011558,新規,0,2021-11-10,2021-11-10,合同会社スリーリーブス,,合同会社,沖縄県,宜野湾市,愛知１丁目２番７号,,47,205,9012206,,,,,,,2021-11-10,1,,,,,スリーリーブス,0
1183,4370001047751,新規,0,2021-11-10,2021-11-10,株式会社広総,,株式会社,宮城県,富谷市,富ケ丘３丁目２２番１４号,,04,216,9813352,,,,,,,2021-11-10,1,,,,,コウソウ,0
1184,4370001047818,新規,0,2021-11-10,2021-11-10,株式会社ＭＯＳ,,株式会社,宮城県,仙台市青葉区,中央４丁目８番８号６０２号室,,04,101,9800021,,,,,,,2021-11-10,1,,,,,モス,0
1192,4410003003582,新規,0,2021-11-10,2021-11-10,合同会社大館税務会計,,合同会社,秋田県,大館市,岩瀬字羽貫谷地山下９３番地２,,05,204,0183501,,,,,,,2021-11-10,1,,,,,オオダテゼイムカイケイ,0
1213,4440001008977,新規,0,2021-11-10,2021-11-10,有立建設株式会社,,株式会社,北海道,函館市,鍛治２丁目２９番１１号,,01,202,0410852,,,,,,,2021-11-10,1,,,,,,0
1220,4470003002075,新規,0,2021-11-10,2021-11-10,合同会社モリグチ機工,,合同会社,香川県,丸亀市,川西町北１２１番地第５矢野荘,,37,202,7630091,,,,,,,2021-11-10,1,,,,,モリグチキコウ,0
1224,4490005006808,新規,0,2021-11-10,2021-11-10,特定非営利活動法人高知県腎臓病患者友の会,,その他の設立登記法人,高知県,高知市,越前町２丁目９番６号坂本ビル１階２号,,39,201,7800928,,,,,,,2021-11-10,1,,,,,コウチケンジンゾウビョウカンジャトモノカイ,0
1236,5010001222389,新規,0,2021-11-10,2021-11-10,ＣＬ株式会社,,株式会社,東京都,中央区,銀座１丁目２２番１１号銀座大竹ビジデンス２階,,13,102,1040061,,,,,,,2021-11-10,1,,,,,シーエル,0
1237,5010001222406,新規,0,2021-11-10,2021-11-10,エスジェイ・モバイルラボジャパン株式会社,,株式会社,東京都,中央区,京橋２丁目２番１号京橋エドグラン２６階,,13,102,1040031,,,,,,,2021-11-10,1,,,,,エスジェイモバイルラボジャパン,0
1241,5010003036250,新規,0,2021-11-10,2021-11-10,合同会社都市開発１号,,合同会社,東京都,千代田区,神田須田町２丁目９番地１,,13,101,1010041,,,,,,,2021-11-10,1,,,,,トシカイハツイチゴウ,0
1244,5010101014950,新規,0,2021-11-10,2021-11-10,株式会社ＭＴＳプラス,,株式会社,東京都,八王子市,東町１１番２号,,13,201,1920082,,,,,,,2021-11-10,1,,,,,,0
1248,5010401163712,新規,0,2021-11-10,2021-11-10,ＭＣＰ３株式会社,,株式会社,東京都,港区,元赤坂１丁目１番８号株式会社赤坂国際会計内,,13,103,1070051,,,,,,,2021-11-10,1,,,,,エムシーピースリー,0
1249,5010401163737,新規,0,2021-11-10,2021-11-10,株式会社トゥインメル,,株式会社,東京都,港区,南青山２丁目２４番１５号株式会社エターナル内,,13,103,1070062,,,,,,,2021-11-10,1,,,,,トゥインメル,0
1250,5010401163761,新規,0,2021-11-10,2021-11-10,ＪＬａｂ　Ｊａｐａｎ株式会社,,株式会社,東京都,港区,麻布十番１丁目１０番１０号,,13,103,1060045,,,,,,,2021-11-10,1,,,,,ジェイラブジャパン,0
1252,5010403026487,新規,0,2021-11-10,2021-11-10,合同会社みずのと,,合同会社,東京都,港区,三田１－２－２１ｚｏｏｍ麻布十番２０５,,13,103,1050000,,,,,,,2021-11-10,1,,,,,ミズノト,0
1255,5010405020406,新規,0,2021-11-10,2021-11-10,ＰＪＣ　Ｈｏｌｄｉｎｇｓ一般社団法人,,その他の設立登記法人,東京都,港区,西新橋１丁目２番９号ＥＰコンサルティングサービス内,,13,103,1050003,,,,,,,2021-11-10,1,,,,,ピージェイシーホールディングス,0
1264,5010701041758,新規,0,2021-11-10,2021-11-10,Ｒｅｃｏｕｔｕｒｅ株式会社,,株式会社,東京都,品川区,北品川５丁目５番１５号,,13,109,1410001,,,,,,,2021-11-10,1,,,,,リクチュール,0
1281,5011101096814,新規,0,2021-11-10,2021-11-10,株式会社Ｗａ．Ｃｏ．,,株式会社,東京都,新宿区,北新宿２丁目１７番１０号,,13,104,1690074,,,,,,,2021-11-10,1,,,,,,0
1282,5011101096822,新規,0,2021-11-10,2021-11-10,株式会社ＣＷ－ＬＩＮＫ,,株式会社,東京都,新宿区,西早稲田２丁目１番２３－６０７号,,13,104,1690051,,,,,,,2021-11-10,1,,,,,シーダブリューリンク,0
1283,5011101096871,新規,0,2021-11-10,2021-11-10,株式会社ＨＯＯ,,株式会社,東京都,新宿区,高田馬場１丁目７番８号若月ビル２階２０２号室,,13,104,1690075,,,,,,,2021-11-10,1,,,,,ホー,0
1284,5011103011135,新規,0,2021-11-10,2021-11-10,合同会社グランジュール,,合同会社,東京都,新宿区,上落合３丁目３３番１５号,,13,104,1610034,,,,,,,2021-11-10,1,,,,,グランジュール,0
1288,5011201023387,新規,0,2021-11-10,2021-11-10,Ｄｏｒｅｃｏｍ　Ｇｌｏｂａｌ株式会社,,株式会社,東京都,中野区,東中野１丁目５７番８号辻沢ビル１階,,13,114,1640003,,,,,,,2021-11-10,1,,,,,ドレコムグローバル,0
1298,5011801039956,新規,0,2021-11-10,2021-11-10,エムケー株式会社,,株式会社,東京都,足立区,竹の塚２丁目８番１０号,,13,121,1210813,,,,,,,2021-11-10,1,,,,,エムケー,0
1300,5012301012767,新規,0,2021-11-10,2021-11-10,株式会社Ｍｗｏｒｋｓ,,株式会社,東京都,町田市,図師町４７２番地１０,,13,209,1940203,,,,,,,2021-11-10,1,,,,,エムワークス,0
1303,5012801021210,新規,0,2021-11-10,2021-11-10,株式会社万病治カイロ,,株式会社,東京都,国分寺市,北町１丁目２４番地７,,13,214,1850001,,,,,,,2021-11-10,1,,,,,マンビョウジカイロ,0
1306,5013301048256,新規,0,2021-11-10,2021-11-10,株式会社ゼット,,株式会社,東京都,豊島区,池袋２丁目６８番８－２０３号,,13,116,1710014,,,,,,,2021-11-10,1,,,,,ゼット,0
1323,5020003020781,新規,0,2021-11-10,2021-11-10,ゴールドコースト合同会社,,合同会社,神奈川県,横浜市鶴見区,北寺尾１丁目１５番４１号,,14,101,2300074,,,,,,,2021-11-10,1,,,,,ゴールドコースト,0
1330,5021003011069,新規,0,2021-11-10,2021-11-10,合同会社あまあい,,合同会社,神奈川県,相模原市中央区,宮下本町３丁目４０番６号３０２,,14,152,2520211,,,,,,,2021-11-10,1,,,,,アマアイ,0
1332,5021005012346,新規,0,2021-11-10,2021-11-10,一般社団法人日本ペット歯みがき普及協会,,その他の設立登記法人,神奈川県,綾瀬市,大上１丁目２８番２６号,,14,218,2521104,,,,,,,2021-11-10,1,,,,,ニホンペットハミガキフキュウキョウカイ,0
1341,5030001145258,新規,0,2021-11-10,2021-11-10,ＯＮＥ　ＳＴＥＰ株式会社,,株式会社,埼玉県,さいたま市北区,吉野町２丁目２８４－３－３０４号,,11,102,3310811,,,,,,,2021-11-10,1,,,,,ワンステップ,0
1342,5030001145266,新規,0,2021-11-10,2021-11-10,ウィードファウスト株式会社,,株式会社,埼玉県,朝霞市,三原３丁目２８番２０号,,11,227,3510025,,,,,,,2021-11-10,1,,,,,ウィードファウスト,0
1347,5030003018214,新規,0,2021-11-10,2021-11-10,合同会社フォーテイション,,合同会社,埼玉県,草加市,八幡町１０５７―７,,11,221,3400006,,,,,,,2021-11-10,1,,,,,フォーティション,0
1353,5040001120945,新規,0,2021-11-10,2021-11-10,ＧＡＭＭＡＴ　ＩＮＴＥＲＮＡＴＩＯＮＡＬ株式会社,,株式会社,千葉県,佐倉市,臼井１１６番地２,,12,212,2850863,,,,,,,2021-11-10,1,,,,,ガマットインターナショナル,0
1354,5040001120953,新規,0,2021-11-10,2021-11-10,株式会社ヒューマンモビリティ,,株式会社,千葉県,香取市,阿玉川１６５,,12,236,2890321,,,,,,,2021-11-10,1,,,,,ヒューマンモビリティ,0
1355,5040005021421,新規,0,2021-11-10,2021-11-10,一般社団法人組合事業サポートセンター,,その他の設立登記法人,千葉県,松戸市,胡録台３６３番地の１６,,12,207,2710075,,,,,,,2021-11-10,1,,,,,クミアイジギョウサポートセンター,0
1364,5060001034284,新規,0,2021-11-10,2021-11-10,株式会社農業振興機構,,株式会社,栃木県,足利市,上渋垂町３６９番地１,,09,202,3260335,,,,,,,2021-11-10,1,,,,,ノウギョウシンコウキコウ,0
1372,5080401025468,新規,0,2021-11-10,2021-11-10,株式会社プラスト,,株式会社,静岡県,浜松市中区,砂山町３２３番地１０、３Ｆ,,22,131,4300926,,,,,,,2021-11-10,1,,,,,プラスト,0
1376,5100005012793,新規,0,2021-11-10,2021-11-10,医療法人社団一藍会,,その他の設立登記法人,長野県,上田市,長瀬３５８４番地２,,20,203,3860407,,,,,,,2021-11-10,1,,,,,イチランカイ,0
1390,5120001241717,新規,0,2021-11-10,2021-11-10,クリスタル不動産株式会社,,株式会社,大阪府,寝屋川市,寿町６１番８号,,27,215,5720029,,,,,,,2021-11-10,1,,,,,クリスタルフドウサン,0
1393,5120003020532,新規,0,2021-11-10,2021-11-10,プラスエイト合同会社,,合同会社,大阪府,大阪市東住吉区,中野２丁目５－３－１０１,,27,121,5460012,,,,,,,2021-11-10,1,,,,,プラスエイト,0
1394,5120005022592,新規,0,2021-11-10,2021-11-10,一般社団法人Ｃｏｒａｌ　Ｓｅａ,,その他の設立登記法人,大阪府,大阪市中央区,備後町３丁目６番２号ＫＦセンタービル,,27,128,5410051,,,,,,,2021-11-10,1,,,,,コーラルシー,0
1395,5120005022601,新規,0,2021-11-10,2021-11-10,一般社団法人ＨＥＣ音楽協会,,その他の設立登記法人,大阪府,大阪市中央区,平野町２丁目２－１２,,27,128,5410046,,,,,,,2021-11-10,1,,,,,エイチイーシーオンガクキョウカイ,0
1396,5120101064638,新規,0,2021-11-10,2021-11-10,株式会社リブクリ,,株式会社,大阪府,堺市西区,浜寺元町６丁９１９番地４,,27,144,5928343,,,,,,,2021-11-10,1,,,,,リブクリ,0
1412,5140001123772,新規,0,2021-11-10,2021-11-10,株式会社ひまわりＳＴＡＴＩＯＮ,,株式会社,兵庫県,加古郡稲美町,和田４６９番地の３５,,28,381,6751125,,,,,,,2021-11-10,1,,,,,ヒマワリステーション,0
1413,5140001123806,新規,0,2021-11-10,2021-11-10,株式会社Ａプランニング,,株式会社,兵庫県,小野市,敷地町９１３－１,,28,218,6751367,,,,,,,2021-11-10,1,,,,,エープランニング,0
1417,5160001023797,新規,0,2021-11-10,2021-11-10,Ｓ．Ｆ株式会社,,株式会社,滋賀県,東近江市,宮川町６５８番地５２,,25,213,5291551,,,,,,,2021-11-10,1,,,,,スマートフォース,0
1436,5180303005153,新規,0,2021-11-10,2021-11-10,合同会社ｗｉｔｈ,,合同会社,愛知県,豊橋市,佐藤２丁目３番地１４,,23,201,4400853,,,,,,,2021-11-10,1,,,,,ウィズ,0
1445,5220001024533,新規,0,2021-11-10,2021-11-10,株式会社ハードベイク,,株式会社,石川県,加賀市,山代温泉カ１００,,17,206,9220242,,,,,,,2021-11-10,1,,,,,ハードベイク,0
1465,5260001036186,新規,0,2021-11-10,2021-11-10,旭ソーラーエナジー株式会社,,株式会社,岡山県,岡山市南区,西市４３３番地４,,33,104,7000953,,,,,,,2021-11-10,1,,,,,アサヒソーラーエナジー,0
1468,5270001008390,新規,0,2021-11-10,2021-11-10,株式会社しとりべ八上姫,,株式会社,鳥取県,鳥取市,源太２４番地２,,31,201,6801133,,,,,,,2021-11-10,1,,,,,シトリベヤカミヒメ,0
1474,5290001095238,新規,0,2021-11-10,2021-11-10,株式会社ロゼ,,株式会社,福岡県,大野城市,川久保１丁目１番１１号コーポ白壁１０２号,,40,219,8160905,,,,,,,2021-11-10,1,,,,,ロゼ,0
1478,5290003011812,新規,0,2021-11-10,2021-11-10,湊坂スタジオ合同会社,,合同会社,福岡県,糟屋郡新宮町,新宮東１丁目１３番１号ピュアフレンドＩ１０１号室,00124820,40,345,8110124,,,,,,,2021-11-10,1,,,,,ミナトザカスタジオ,0
1480,5290801027984,新規,0,2021-11-10,2021-11-10,株式会社アセットプライス,,株式会社,福岡県,北九州市小倉北区,片野新町３丁目２番４１号,,40,106,8020062,,,,,,,2021-11-10,1,,,,,アセットプライス,0
1481,5290803003975,新規,0,2021-11-10,2021-11-10,合同会社ウィスタリア,,合同会社,福岡県,北九州市小倉北区,上富野４丁目７番１７－１０３号,,40,106,8020022,,,,,,,2021-11-10,1,,,,,ウィスタリア,0
1482,5290805009483,新規,0,2021-11-10,2021-11-10,一般社団法人ムスリム・フレンドリー・ジャパン,,その他の設立登記法人,福岡県,北九州市八幡東区,桃園２丁目６番３－９０３号,,40,108,8050068,,,,,,,2021-11-10,1,,,,,ムスリムフレンドリージャパン,0
1484,5300003001745,新規,0,2021-11-10,2021-11-10,ハートフル九州合同会社,,合同会社,佐賀県,唐津市,元石町８番地１,,41,202,8470064,,,,,,,2021-11-10,1,,,,,ハートフルキュウシュウ,0
1497,5340005009361,新規,0,2021-11-10,2021-11-10,一般社団法人ＡМＡМＩＳМ振興協会,,その他の設立登記法人,鹿児島県,奄美市,名瀬矢之脇町１１番１２号,,46,222,8940033,,,,,,,2021-11-10,1,,,,,アマミズムシンコウキョウカイ,0
1498,5350003003968,新規,0,2021-11-10,2021-11-10,合同会社ドクターデリカ,,合同会社,宮崎県,宮崎市,大字恒久４９７２番地,,45,201,8800916,,,,,,,2021-11-10,1,,,,,ドクターデリカ,0
1500,5360003011549,新規,0,2021-11-10,2021-11-10,合同会社伊波酒類研究社,,合同会社,沖縄県,那覇市,寄宮３丁目１８番６－６０５号ライオンズマンション寄宮,,47,201,9020064,,,,,,,2021-11-10,1,,,,,イハシュルイケンキュウシャ,0
1501,5360003011557,新規,0,2021-11-10,2021-11-10,未来サポート合同会社,,合同会社,沖縄県,宮古島市,平良字下里１２０２番地２上地マンション１Ｆ,,47,214,9060013,,,,,,,2021-11-10,1,,,,,ミライサポート,0
1514,5420001017649,新規,0,2021-11-10,2021-11-10,たっこ調剤薬局株式会社,,株式会社,青森県,三戸郡田子町,大字田子字上野ノ下タ９２番地の８,,02,443,0390201,,,,,,,2021-11-10,1,,,,,タッコチョウザイヤッキョク,0
1525,5480003001752,新規,0,2021-11-10,2021-11-10,すまいとしごと合同会社,,合同会社,徳島県,小松島市,坂野町字黒地８番地の７,,36,203,7730023,,,,,,,2021-11-10,1,,,,,スマイシゴト,0
1528,5700150105168,新規,0,2021-11-10,2021-10-08,ＮＨＫから国民を守る党,,その他,群馬県,太田市,藤阿久町４４３－５,,10,205,3730034,,,,,,,2021-10-08,1,,,,,エヌエイチケイカラコクミンヲマモルトウ,0
1534,6010001222231,新規,0,2021-11-10,2021-11-10,株式会社インドラプロダクション,,株式会社,東京都,文京区,湯島３丁目２０番６号５１０グランリビオザレジデンス,,13,105,1130034,,,,,,,2021-11-10,1,,,,,インドラプロダクション,0
1535,6010001222322,新規,0,2021-11-10,2021-11-10,サムライエナジー株式会社,,株式会社,東京都,千代田区,丸の内３丁目３番１号,,13,101,1000005,,,,,,,2021-11-10,1,,,,,サムライエナジー,0
1536,6010001222355,新規,0,2021-11-10,2021-11-10,Ｎｅｕｒｏｎ　Ｍｏｂｉｌｉｔｙ　Ｊａｐａｎ株式会社,,株式会社,東京都,千代田区,霞が関３丁目２番６号東京倶楽部ビルディング１１階,,13,101,1000013,,,,,,,2021-11-10,1,,,,,ニューロンモビリティジャパン,0
1539,6010003036233,新規,0,2021-11-10,2021-11-10,合同会社フェイブ,,合同会社,東京都,中央区,日本橋小網町１８番１６－９０４号,,13,102,1030016,,,,,,,2021-11-10,1,,,,,フェイブ,0
1540,6010003036241,新規,0,2021-11-10,2021-11-10,やしき会計事務所合同会社,,合同会社,東京都,千代田区,九段南１丁目５番６号りそな九段ビル５Ｆ,,13,101,1020074,,,,,,,2021-11-10,1,,,,,ヤシキカイケイジムショ,0
1541,6010003036266,新規,0,2021-11-10,2021-11-10,合同会社Ｌｉｍｉｎａｌ　Ｓｐａｃｅ,,合同会社,東京都,千代田区,神田須田町１丁目３番地９ＰＭＯ神田万世橋５Ｆ,,13,101,1010041,,,,,,,2021-11-10,1,,,,,リミナルスペース,0
1542,6010005034193,新規,0,2021-11-10,2021-11-10,一般財団法人ＮＥＷ　ＶＩＳＩＯＮ　ＧＲＯＵＰ,,その他の設立登記法人,東京都,千代田区,丸の内２丁目３番２号,,13,101,1000005,,,,,,,2021-11-10,1,,,,,ニューヴィジョングループ,0
1552,6010401163653,新規,0,2021-11-10,2021-11-10,株式会社ＴＯＰ　ＯＮＬＹ,,株式会社,東京都,港区,六本木７丁目７番７号トライセブンロッポンギ８階,,13,103,1060032,,,,,,,2021-11-10,1,,,,,トップオンリー,0
1553,6010401163686,新規,0,2021-11-10,2021-11-10,株式会社グラデーション,,株式会社,東京都,港区,浜松町２丁目２番１５号浜松町ダイヤビル２Ｆ,,13,103,1050013,,,,,,,2021-11-10,1,,,,,グラデーション,0
1554,6010401163736,新規,0,2021-11-10,2021-11-10,株式会社Ｊａｐａｎｅｓｅ　Ｅｄｕｃａｔｉｏｎａｌ　Ｅｎｔｅｒｔａｉｎｍｅｎｔ,,株式会社,東京都,港区,南青山２丁目２番１５号,,13,103,1070062,,,,,,,2021-11-10,1,,,,,ジャパニーズエデュケーショナルエンタテインメント,0
1556,6010403026478,新規,0,2021-11-10,2021-11-10,合同会社クリア,,合同会社,東京都,港区,六本木４丁目３番１１－３１９号,,13,103,1060032,,,,,,,2021-11-10,1,,,,,クリア,0
1557,6010403026494,新規,0,2021-11-10,2021-11-10,合同会社バトンタッチ,,合同会社,東京都,港区,南青山２丁目２２番１４－７０２号,,13,103,1070062,,,,,,,2021-11-10,1,,,,,バトンタッチ,0
1559,6010405020371,新規,0,2021-11-10,2021-11-10,一般社団法人資産運用検定協会,,その他の設立登記法人,東京都,港区,芝浦３丁目９番１号芝浦ルネサイトタワー２Ｆ,,13,103,1080023,,,,,,,2021-11-10,1,,,,,シサンウンヨウケンテイキョウカイ,0
1581,6011001143797,新規,0,2021-11-10,2021-11-10,ＢＴＷ株式会社,,株式会社,東京都,渋谷区,千駄ヶ谷３丁目１３番２０－３０２号,,13,113,1510051,,,,,,,2021-11-10,1,,,,,ビーティーダブリュー,0
1582,6011003013676,新規,0,2021-11-10,2021-11-10,Ｏｖｅｒ　ｔｈｅ　Ｍｏｏｎ　Ｒｅｃｏｒｄｓ合同会社,,合同会社,東京都,渋谷区,千駄ヶ谷３丁目５番１６号,,13,113,1510051,,,,,,,2021-11-10,1,,,,,オーバーザムーンレコーズ,0
1583,6011003013692,新規,0,2021-11-10,2021-11-10,サンダルウッド合同会社,,合同会社,東京都,渋谷区,神宮前６丁目２３番４号桑野ビル２階,,13,113,1500001,,,,,,,2021-11-10,1,,,,,サンダルウッド,0
1584,6011003013701,新規,0,2021-11-10,2021-11-10,合同会社メグロコーポレーション,,合同会社,東京都,目黒区,目黒１丁目９番４号,,13,110,1530063,,,,,,,2021-11-10,1,,,,,メグロコーポレーション,0
1587,6011101096714,新規,0,2021-11-10,2021-11-10,株式会社加藤不動産,,株式会社,東京都,新宿区,河田町３番５１－２２１５号,,13,104,1620054,,,,,,,2021-11-10,1,,,,,カトウフドウサン,0
1588,6011101096805,新規,0,2021-11-10,2021-11-10,株式会社ＦＴ－スナン,,株式会社,東京都,新宿区,四谷本塩町４番２５号アトラス四谷本塩町６０３,,13,104,1600003,,,,,,,2021-11-10,1,,,,,エフティースナン,0
1597,6011403003500,新規,0,2021-11-10,2021-11-10,合同会社チップトリック研究所,,合同会社,東京都,板橋区,南常盤台１丁目１１－６レフア南常盤台１０１号室,,13,119,1740072,,,,,,,2021-11-10,1,,,,,チップトリックケンキュウジョ,0
1599,6011501027459,新規,0,2021-11-10,2021-11-10,株式会社ＰＰＣ,,株式会社,東京都,北区,赤羽南１丁目２０番１２－１３０１号,,13,117,1150044,,,,,,,2021-11-10,1,,,,,ピーピーシー,0
1608,6011805003123,新規,0,2021-11-10,2021-11-10,一般社団法人高齢者・障害者・成年後見被害者救済会,,その他の設立登記法人,東京都,足立区,島根１丁目１２番３号,,13,121,1210815,,,,,,,2021-11-10,1,,,,,コウレイシャショウガイシャセイネンコウケンヒガイシャキュウサイカイ,0
1609,6012303001610,新規,0,2021-11-10,2021-11-10,合同会社アール・フォー・エフ,,合同会社,東京都,町田市,相原町１８００番地９５,,13,209,1940211,,,,,,,2021-11-10,1,,,,,アールフォーエフ,0
1614,6013301048255,新規,0,2021-11-10,2021-11-10,株式会社ＮＯＲＡ,,株式会社,東京都,豊島区,東池袋１丁目３４番５号いちご東池袋ビル６Ｆ,,13,116,1700013,,,,,,,2021-11-10,1,,,,,ノラ,0
1616,6013303005898,新規,0,2021-11-10,2021-11-10,ＫＡＫＵＧＯ合同会社,,合同会社,東京都,豊島区,東池袋１丁目３４－５,,13,116,1700013,,,,,,,2021-11-10,1,,,,,カクゴ,0
1622,6020001143856,新規,0,2021-11-10,2021-11-10,株式会社飯田技建,,株式会社,神奈川県,川崎市川崎区,藤崎４丁目２５番１１号,,14,131,2100804,,,,,,,2021-11-10,1,,,,,,0
1623,6020001143864,新規,0,2021-11-10,2021-11-10,株式会社宮田興業,,株式会社,神奈川県,横浜市旭区,善部町５５番地の２,,14,112,2410823,,,,,,,2021-11-10,1,,,,,ミヤタコウギョウ,0
1626,6020003020797,新規,0,2021-11-10,2021-11-10,合同会社カルチャーライフ,,合同会社,神奈川県,横浜市戸塚区,矢部町７７１番地３２サンライズ戸塚３０３,,14,110,2440002,,,,,,,2021-11-10,1,,,,,カルチャーライフ,0
1634,6021003011068,新規,0,2021-11-10,2021-11-10,ＴＭ　Ａｄｖａｎｃｅ合同会社,,合同会社,神奈川県,大和市,福田４０３２番地３,,14,213,2420024,,,,,,,2021-11-10,1,,,,,ティーエムアドバンス,0
1650,6030003018262,新規,0,2021-11-10,2021-11-10,合同会社武正,,合同会社,埼玉県,比企郡嵐山町,大字川島１８６３―１３,,11,342,3550213,,,,,,,2021-11-10,1,,,,,タケマサ,0
1651,6030003018295,新規,0,2021-11-10,2021-11-10,合同会社ブルーム,,合同会社,埼玉県,東松山市,五領町２番地２６コーポ関根１０５号室,,11,212,3550031,,,,,,,2021-11-10,1,,,,,ブルーム,0
1656,6040001120878,新規,0,2021-11-10,2021-11-10,株式会社ＳＥＮＮＩＣＨＩ,,株式会社,千葉県,印西市,大森７７２番地８,,12,231,2701327,,,,,,,2021-11-10,1,,,,,センニチ,0
1657,6040001120944,新規,0,2021-11-10,2021-11-10,株式会社恵比寿組,,株式会社,千葉県,四街道市,大日１９０－１５,,12,228,2840001,,,,,,,2021-11-10,1,,,,,エビスグミ,0
1660,6040003018897,新規,0,2021-11-10,2021-11-10,東日本興業合資会社,,合資会社,千葉県,茂原市,本納２６９２番地,,12,210,2994114,,,,,,,2021-11-10,1,,,,,ヒガシニホンコウギョウ,0
1663,6050001050125,新規,0,2021-11-10,2021-11-10,株式会社０１０３須田ひろかつ,,株式会社,茨城県,水戸市,千波町４２４番地の７,,08,201,3100851,,,,,,,2021-11-10,1,,,,,ゼロイチゼロサンスダヒロカツ,0
1664,6050003006190,新規,0,2021-11-10,2021-11-10,ＨＹｓｅｎｓｅ合同会社,,合同会社,茨城県,常陸太田市,中染町１２９２番地,,08,212,3130212,,,,,,,2021-11-10,1,,,,,ハイセンス,0
1665,6060001034291,新規,0,2021-11-10,2021-11-10,株式会社フルビズ,,株式会社,栃木県,宇都宮市,松原２丁目５番２４号,,09,201,3200041,,,,,,,2021-11-10,1,,,,,フルビズ,0
1687,6110001036183,新規,0,2021-11-10,2021-11-10,株式会社新和商事,,株式会社,新潟県,新潟市西蒲区,旗屋４３６番１,,15,108,9590423,,,,,,,2021-11-10,1,,,,,シンワショウジ,0
1702,6120001241773,新規,0,2021-11-10,2021-11-10,株式会社ソフナー,,株式会社,大阪府,大阪市北区,天神橋３丁目２番２７号田口ビル１階,,27,127,5300041,,,,,,,2021-11-10,1,,,,,ソフナー,0
1706,6120101064629,新規,0,2021-11-10,2021-11-10,アシスト株式会社,,株式会社,大阪府,貝塚市,東山１丁目２０番６号,,27,208,5970046,,,,,,,2021-11-10,1,,,,,アシスト,0
1710,6122003002212,新規,0,2021-11-10,2021-11-10,合同会社名入れｄｅギフト,,合同会社,大阪府,東大阪市,楠根２丁目９番５号,,27,227,5770006,,,,,,,2021-11-10,1,,,,,ナイレデギフト,0
1719,6140001123805,新規,0,2021-11-10,2021-11-10,株式会社ｆｉｒｓｔ,,株式会社,兵庫県,神戸市北区,桜森町１２番地の５,,28,109,6511214,,,,,,,2021-11-10,1,,,,,ファースト,0
1720,6140003016957,新規,0,2021-11-10,2021-11-10,合同会社十人十色,,合同会社,兵庫県,姫路市,香寺町中仁野７０番地１１,,28,201,6792143,,,,,,,2021-11-10,1,,,,,ジュウニントイロ,0
1723,6140005025881,新規,0,2021-11-10,2021-11-10,特定非営利活動法人どうぶつ未来会議,,その他の設立登記法人,兵庫県,神戸市東灘区,住吉山手８丁目１２番９号,,28,101,6580063,,,,,,,2021-11-10,1,,,,,ドウブツミライカイギ,0
1728,6150001025091,新規,0,2021-11-10,2021-11-10,株式会社暁アセットマネジメント,,株式会社,奈良県,大和郡山市,高田町３４５番地１,,29,203,6391132,,,,,,,2021-11-10,1,,,,,アカツキアセットマネジメント,0
1729,6160001023796,新規,0,2021-11-10,2021-11-10,株式会社シンエイ,,株式会社,滋賀県,野洲市,竹生２０８１番地,,25,210,5202363,,,,,,,2021-11-10,1,,,,,シンエイ,0
1739,6180001148633,新規,0,2021-11-10,2021-11-10,つなぐサポート株式会社,,株式会社,愛知県,名古屋市中区,大須１丁目７番１４号パークＩＭビル２Ｆ,,23,106,4600011,,,,,,,2021-11-10,1,,,,,ツナグサポート,0
1746,6180301035614,新規,0,2021-11-10,2021-11-10,一ノ瀬運輸株式会社,,株式会社,愛知県,安城市,古井町一本木１番地１,,23,212,4460025,,,,,,,2021-11-10,1,,,,,イチノセウンユ,0
1749,6190003003819,新規,0,2021-11-10,2021-11-10,合同会社トイロ,,合同会社,三重県,松阪市,中万町１０７番地２,,24,204,5192143,,,,,,,2021-11-10,1,,,,,トイロ,0
1767,6240003005363,新規,0,2021-11-10,2021-11-10,合同会社ブリーズライフ,,合同会社,広島県,東広島市,西条中央６丁目８番２１号３０６,,34,212,7390025,,,,,,,2021-11-10,1,,,,,ブリーズライフ,0
1769,6260001036193,新規,0,2021-11-10,2021-11-10,ファインプラスチック株式会社,,株式会社,岡山県,岡山市中区,円山５２番地１４,,33,102,7038271,,,,,,,2021-11-10,1,,,,,ファインプラスチック,0
1774,6290001095311,新規,0,2021-11-10,2021-11-10,株式会社ＣＲＥＡＤ０１,,株式会社,福岡県,福岡市中央区,天神３丁目９番３３号,,40,133,8100001,,,,,,,2021-11-10,1,,,,,クリードゼロワン,0
1780,6310005008563,新規,0,2021-11-10,2021-11-10,ながさき家電協同組合,,その他の設立登記法人,長崎県,西彼杵郡時津町,浜田郷３８番地６,,42,308,8512102,,,,,,,2021-11-10,1,,,,,ナガサキカデン,0
1791,6360001029583,新規,0,2021-11-10,2021-11-10,株式会社ＬＩＣＯ,,株式会社,沖縄県,豊見城市,字豊崎１番地１０５５,,47,212,9010225,,,,,,,2021-11-10,1,,,,,リコ,0
1796,6380001032313,新規,0,2021-11-10,2021-11-10,株式会社イージス,,株式会社,福島県,福島市,清水町字南裏８５番地の２第７エスエスハイツ１号,,07,201,9608155,,,,,,,2021-11-10,1,,,,,イージス,0
1807,6430001085339,新規,0,2021-11-10,2021-11-10,株式会社Ｆｏｒｃｅ,,株式会社,北海道,札幌市中央区,南七条西１８丁目３番３２－４０３号,,01,101,0640807,,,,,,,2021-11-10,1,,,,,フォース,0
1813,6440003001425,新規,0,2021-11-10,2021-11-10,合同会社Ｎｕｔｓ,,合同会社,北海道,函館市,本町３２番２７号,,01,202,0400011,,,,,,,2021-11-10,1,,,,,ナッツ,0
1822,6700150104813,新規,0,2021-11-10,2021-09-21,ドリームカンパニー,,その他,神奈川県,横浜市鶴見区,鶴見中央４丁目３１－７－５０２,,14,101,2300051,,,,,,,2021-09-21,1,,,,,ドリームカンパニー,0
1829,7010001222387,新規,0,2021-11-10,2021-11-10,株式会社テクノ・ギルド・トウキョウ,,株式会社,東京都,千代田区,飯田橋４丁目８番６号日産ビル２１１号,,13,101,1020072,,,,,,,2021-11-10,1,,,,,テクノギルドトウキョウ,0
1833,7010003036257,新規,0,2021-11-10,2021-11-10,合同会社オルタナ８,,合同会社,東京都,千代田区,丸の内３丁目１番１号東京共同会計事務所内,,13,101,1000005,,,,,,,2021-11-10,1,,,,,オルタナエイト,0
1835,7010005034192,新規,0,2021-11-10,2021-11-10,一般財団法人ＡＶＩＶ　ＥＮＴＥＲＰＲＩＳＥ,,その他の設立登記法人,東京都,千代田区,丸の内２丁目３番２号,,13,101,1000005,,,,,,,2021-11-10,1,,,,,アヴィヴエンタープライズ,0
1836,7010005034201,新規,0,2021-11-10,2021-11-10,一般社団法人オルハチ,,その他の設立登記法人,東京都,千代田区,丸の内３丁目１番１号東京共同会計事務所内,,13,101,1000005,,,,,,,2021-11-10,1,,,,,オルハチ,0
1842,7010401163644,新規,0,2021-11-10,2021-11-10,グリップス・ジャパン・ホールディングス株式会社,,株式会社,東京都,港区,虎ノ門５丁目１１番１号オランダヒルズ森タワーＲｏＰ,,13,103,1050001,,,,,,,2021-11-10,1,,,,,グリップスジャパンホールディングス,0
1843,7010401163710,新規,0,2021-11-10,2021-11-10,株式会社やしまアートアンドリゾート,,株式会社,東京都,港区,南青山５丁目４番３０号,,13,103,1070062,,,,,,,2021-11-10,1,,,,,ヤシマアートアンドリゾート,0
1844,7010401163735,新規,0,2021-11-10,2021-11-10,豊絢株式会社,,株式会社,東京都,港区,浜松町２丁目２番１５号浜松町ダイヤビル２Ｆ,,13,103,1050013,,,,,,,2021-11-10,1,,,,,ホウジュン,0
1847,7010403026477,新規,0,2021-11-10,2021-11-10,ｖｉｔｔｏｒｉａ合同会社,,合同会社,東京都,港区,西麻布４丁目１－１０コンフォリア西麻布３０１,,13,103,1060031,,,,,,,2021-11-10,1,,,,,ヴィットリア,0
1848,7010403026493,新規,0,2021-11-10,2021-11-10,Ｐｉｒａｍａｌ　Ｐｈａｒｍａ　Ｊａｐａｎ合同会社,,合同会社,東京都,港区,赤坂２丁目２３番１号アークヒルズ・フロントタワーＩｎＣｏｎｔｒｏｌ内,,13,103,1070052,,,,,,,2021-11-10,1,,,,,ピラマルファーマジャパン,0
1849,7010501048084,新規,0,2021-11-10,2021-11-10,株式会社ダブルエイト,,株式会社,東京都,台東区,東上野３丁目１５番１４号,,13,106,1100015,,,,,,,2021-11-10,1,,,,,ダブルエイト,0
1853,7010601060179,新規,0,2021-11-10,2021-11-10,デュエット株式会社,,株式会社,東京都,江東区,永代１丁目６番４号プロヴァンス永代３０２,,13,108,1350034,,,,,,,2021-11-10,1,,,,,デュエット,0
1864,7010901049764,新規,0,2021-11-10,2021-11-10,Ｓｕｂｔｒａｃｋ株式会社,,株式会社,東京都,世田谷区,池尻２丁目４番５号,,13,112,1540001,,,,,,,2021-11-10,1,,,,,サブトラック,0
1871,7011001143788,新規,0,2021-11-10,2021-11-10,株式会社チケットティップスＨＲ,,株式会社,東京都,渋谷区,神宮前６丁目２３番４号桑野ビル２階,,13,113,1500001,,,,,,,2021-11-10,1,,,,,チケットティップスエイチアール,0
1872,7011001143904,新規,0,2021-11-10,2021-11-10,株式会社ＳｈＥＥＰ,,株式会社,東京都,目黒区,大岡山２丁目２番７号アランフェス１０６,,13,110,1520033,,,,,,,2021-11-10,1,,,,,シープ,0
1873,7011003013675,新規,0,2021-11-10,2021-11-10,ワイ・アイコンサルティング合同会社,,合同会社,東京都,渋谷区,渋谷３丁目２番１１－４０１号,,13,113,1500002,,,,,,,2021-11-10,1,,,,,ワイアイコンサルティング,0
1874,7011003013691,新規,0,2021-11-10,2021-11-10,和広合同会社,,合同会社,東京都,渋谷区,神宮前５丁目１８番１３号Ｍレジデンス２階,,13,113,1500001,,,,,,,2021-11-10,1,,,,,ワコウ,0
1875,7011003013700,新規,0,2021-11-10,2021-11-10,合同会社オートブラザーズ,,合同会社,東京都,渋谷区,宇田川町６番２０号,,13,113,1500042,,,,,,,2021-11-10,1,,,,,オートブラザーズ,0
1882,7011101096804,新規,0,2021-11-10,2021-11-10,株式会社中央事務所,,株式会社,東京都,新宿区,西新宿２丁目６番１号新宿住友ビル,,13,104,1600023,,,,,,,2021-11-10,1,,,,,チュウオウジムショ,0
1883,7011301027303,新規,0,2021-11-10,2021-11-10,株式会社ＨＡＮＡ企画,,株式会社,東京都,杉並区,西荻南３丁目２５番８号第９０オーナーズビル地下１階,,13,115,1670053,,,,,,,2021-11-10,1,,,,,ハナキカク,0
1884,7011403003499,新規,0,2021-11-10,2021-11-10,あおぞら合同会社,,合同会社,東京都,板橋区,南常盤台１丁目１１－６レフア南常盤台１０１号室,,13,119,1740072,,,,,,,2021-11-10,1,,,,,アオゾラ,0
1898,7012703002348,新規,0,2021-11-10,2021-11-10,ヤクミ合同会社,,合同会社,東京都,東久留米市,南沢１丁目１１－２０,,13,222,2030023,,,,,,,2021-11-10,1,,,,,ヤクミ,0
1912,7020001143855,新規,0,2021-11-10,2021-11-10,株式会社ゴクロス,,株式会社,神奈川県,川崎市川崎区,港町５番３－２０２９号,,14,131,2100807,,,,,,,2021-11-10,1,,,,,ゴクロス,0
1916,7020003020796,新規,0,2021-11-10,2021-11-10,合同会社アイストコーポレーション,,合同会社,神奈川県,横浜市神奈川区,大野町１－８アルテ横浜１８０３,,14,102,2210055,,,,,,,2021-11-10,1,,,,,アイストコーポレーション,0
1926,7021003011067,新規,0,2021-11-10,2021-11-10,ＴＭＲ合同会社,,合同会社,神奈川県,平塚市,高根１番地,,14,203,2540912,,,,,,,2021-11-10,1,,,,,ティーエムアール,0
1932,7030001145289,新規,0,2021-11-10,2021-11-10,株式会社みやび,,株式会社,埼玉県,川口市,大字赤芝新田３２１番地の３,,11,203,3330824,,,,,,,2021-11-10,1,,,,,ミヤビ,0
1933,7030001145297,新規,0,2021-11-10,2021-11-10,丸正土建株式会社,,株式会社,埼玉県,さいたま市北区,日進町１丁目７１０番地１‐６０１,,11,102,3310823,,,,,,,2021-11-10,1,,,,,マルシヨウドケン,0
1935,7030005020620,新規,0,2021-11-10,2021-11-10,特定非営利活動法人Ｊ．Ｊ．Ｎ　Ｓｏｃｉａｌ　Ｃｏｎｔｒｉｂｕｔｉｏｎ,,その他の設立登記法人,埼玉県,入間郡毛呂山町,大字下川原１２７６番地学校法人城西医療学園日本医療科学大学内,,11,326,3500435,,,,,,,2021-11-10,1,,,,,ジェイジェイエヌソーシャルコントリビューション,0
1941,7040003018888,新規,0,2021-11-10,2021-11-10,ＡＫグローバル発展合同会社,,合同会社,千葉県,八千代市,勝田台１丁目２４番地６エメラルドハイツ１０１号,,12,221,2760023,,,,,,,2021-11-10,1,,,,,エーケーグローバルハッテン,0
1945,7050001050124,新規,0,2021-11-10,2021-11-10,株式会社アルト,,株式会社,茨城県,常陸太田市,西宮町１２９２番地トラッド武田２０１号,,08,212,3130011,,,,,,,2021-11-10,1,,,,,アルト,0
1951,7060001034282,新規,0,2021-11-10,2021-11-10,小山エナジーサイクル株式会社,,株式会社,栃木県,小山市,大字塩沢６０９番地,,09,208,3230043,,,,,,,2021-11-10,1,,,,,オヤマエナジーサイクル,0
1957,7080101022912,新規,0,2021-11-10,2021-11-10,株式会社マサキ住設,,株式会社,静岡県,伊東市,玖須美元和田７０４番地,,22,208,4140045,,,,,,,2021-11-10,1,,,,,マサキジュウセツ,0
1967,7110003004617,新規,0,2021-11-10,2021-11-10,合同会社とりかん,,合同会社,新潟県,新潟市中央区,鳥屋野南３丁目１４番２６号,,15,103,9500950,,,,,,,2021-11-10,1,,,,,,0
1974,7120001241756,新規,0,2021-11-10,2021-11-10,株式会社ネクサス,,株式会社,大阪府,大阪市平野区,平野馬場１丁目５番１０－２０５号室,,27,126,5470048,,,,,,,2021-11-10,1,,,,,ネクサス,0
1979,7120101064628,新規,0,2021-11-10,2021-11-10,株式会社ひかり,,株式会社,大阪府,堺市北区,北長尾町１丁３－２８,,27,146,5918043,,,,,,,2021-11-10,1,,,,,ヒカリ,0
1980,7120101064636,新規,0,2021-11-10,2021-11-10,千嶋エンジニアリング株式会社,,株式会社,大阪府,和泉市,内田町３丁目９番３１号,,27,219,5941156,,,,,,,2021-11-10,1,,,,,チシマエンジニアリング,0
1989,7120901045158,新規,0,2021-11-10,2021-11-10,株式会社エムズワン,,株式会社,大阪府,箕面市,外院３丁目１１－１１－４０３,,27,220,5620026,,,,,,,2021-11-10,1,,,,,エムズワン,0
2002,7130001070502,新規,0,2021-11-10,2021-11-10,株式会社ＭＲ　ｏｆｆｉｃｅ,,株式会社,京都府,八幡市,男山泉１８番地６,,26,210,6148366,,,,,,,2021-11-10,1,,,,,エムアールオフィス,0
2009,7140001123738,新規,0,2021-11-10,2021-11-10,株式会社アクアマリン,,株式会社,兵庫県,神戸市北区,花山東町３番２６－３０３号,,28,109,6511204,,,,,,,2021-11-10,1,,,,,アクアマリン,0
2016,7160001023795,新規,0,2021-11-10,2021-11-10,株式会社アール１０,,株式会社,滋賀県,彦根市,旭町９番６号彦根ステーションビル１０３号,,25,202,5220073,,,,,,,2021-11-10,1,,,,,アールテン,0
2027,7180001148590,新規,0,2021-11-10,2021-11-10,株式会社ヤマガホームサービス,,株式会社,愛知県,津島市,下切町字坪之内７７番地１,,23,208,4960029,,,,,,,2021-11-10,1,,,,,ヤマガホームサービス,0
2028,7180001148624,新規,0,2021-11-10,2021-11-10,株式会社ＢＸ,,株式会社,愛知県,名古屋市緑区,鳴海町字前之輪７８番地,,23,114,4580834,,,,,,,2021-11-10,1,,,,,ビーエックス,0
2029,7180001148632,新規,0,2021-11-10,2021-11-10,ＦＦＥコンサルティング株式会社,,株式会社,愛知県,尾張旭市,南原山町赤土２８７番地３三郷ハイツＡ－１０６,,23,226,4880066,,,,,,,2021-11-10,1,,,,,エフエフイーコンサルティング,0
2030,7180001148673,新規,0,2021-11-10,2021-11-10,株式会社Ｙ．ＴＨＲＥＥ,,株式会社,愛知県,名古屋市中川区,十一番町５丁目４７番地の１４,,23,110,4540056,,,,,,,2021-11-10,1,,,,,ワイスリー,0
2036,7180305009258,新規,0,2021-11-10,2021-11-10,一般社団法人泉中学校跡施設利活用地元協議会泉Ｄａｇｅｅｎａ,,その他の設立登記法人,愛知県,田原市,石神町西沖田３０番地３,,23,231,4413611,,,,,,,2021-11-10,1,,,,,イズミチュウガッコウアトシセツリカツヨウジモトキョウギカイイズミダゲーナ,0
2058,7240001058908,新規,0,2021-11-10,2021-11-10,株式会社新興塗装,,株式会社,広島県,広島市安佐北区,三入５丁目８番４１－２号,,34,106,7310211,,,,,,,2021-11-10,1,,,,,シンコウトソウ,0
2064,7250003002937,新規,0,2021-11-10,2021-11-10,合同会社井上管工,,合同会社,山口県,周南市,大字久米３０４番地の１,,35,215,7450801,,,,,,,2021-11-10,1,,,,,イノウエカンコウ,0
2069,7260001036192,新規,0,2021-11-10,2021-11-10,山口建設株式会社,,株式会社,岡山県,岡山市東区,金岡西町９８９番地２,,33,103,7048193,,,,,,,2021-11-10,1,,,,,ヤマグチケンセツ,0
2071,7270001008389,新規,0,2021-11-10,2021-11-10,株式会社ラフォーレ,,株式会社,鳥取県,鳥取市,源太２４番地２,,31,201,6801133,,,,,,,2021-11-10,1,,,,,ラフォーレ,0
2079,7290001095260,新規,0,2021-11-10,2021-11-10,福博計器株式会社,,株式会社,福岡県,福岡市博多区,堅粕３丁目１番１９号,,40,132,8120043,,,,,,,2021-11-10,1,,,,,フクハクケイキ,0
2080,7290001095269,新規,0,2021-11-10,2021-11-10,株式会社Ｆｉｖｅ　Ｓｔａｒ,,株式会社,福岡県,糟屋郡須惠町,大字佐谷１３５３－７,,40,344,8112115,,,,,,,2021-11-10,1,,,,,ファイブスター,0
2081,7290001095310,新規,0,2021-11-10,2021-11-10,株式会社フューチャービズイノベーション,,株式会社,福岡県,福岡市南区,警弥郷３丁目２５番５号,,40,134,8111324,,,,,,,2021-11-10,1,,,,,フューチャービズイノベーション,0
2082,7290001095335,新規,0,2021-11-10,2021-11-10,株式会社２４３６５フリーワークス,,株式会社,福岡県,福岡市博多区,中洲５丁目１－２２博多人形会館松月堂ビル４Ｆ,,40,132,8100801,,,,,,,2021-11-10,1,,,,,ニーヨンサンロクゴフリーワークス,0
2083,7290001095343,新規,0,2021-11-10,2021-11-10,株式会社ハローズアーク,,株式会社,福岡県,春日市,星見ヶ丘３丁目１８５番地,,40,218,8160849,,,,,,,2021-11-10,1,,,,,ハローズアーク,0
2084,7290001095351,新規,0,2021-11-10,2021-11-10,株式会社Ｃａｔａｄ,,株式会社,福岡県,福岡市中央区,天神２丁目３番１０号天神パインクレスト７１９号,,40,133,8100001,,,,,,,2021-11-10,1,,,,,キャタド,0
2091,7290801027966,新規,0,2021-11-10,2021-11-10,株式会社パープル,,株式会社,福岡県,北九州市門司区,大里本町３丁目１４番３７号,,40,101,8000063,,,,,,,2021-11-10,1,,,,,パープル,0
2099,7360003011563,新規,0,2021-11-10,2021-11-10,合同会社太陽工業,,合同会社,沖縄県,国頭郡宜野座村,字松田２６２８番地の２,,47,313,9041301,,,,,,,2021-11-10,1,,,,,タイヨウコウギョウ,0
2115,7410001013011,新規,0,2021-11-10,2021-11-10,株式会社ＳｈｉｎｗａＡＣ,,株式会社,秋田県,秋田市,泉南１丁目１５番２５号新和ビル２階,,05,201,0100918,,,,,,,2021-11-10,1,,,,,シンワエーシー,0
2141,8010001222394,新規,0,2021-11-10,2021-11-10,日本福祉コンサルティンググループ株式会社,,株式会社,東京都,千代田区,麹町４丁目１番４号,,13,101,1020083,,,,,,,2021-11-10,1,,,,,ニホンフクシコンサルティンググループ,0
2142,8010001222403,新規,0,2021-11-10,2021-11-10,日清製粉ウェルナ株式会社,,株式会社,東京都,千代田区,神田錦町１丁目２５番地,,13,101,1010054,,,,,,,2021-11-10,1,,,,,ニッシンセイフンウェルナ,0
2145,8010003036248,新規,0,2021-11-10,2021-11-10,合同会社フラクタルマネージメント,,合同会社,東京都,千代田区,神田三崎町３丁目５－９天翔オフィス水道橋８１３号室,,13,101,1010061,,,,,,,2021-11-10,1,,,,,フラクタルマネージメント,0
2146,8010003036256,新規,0,2021-11-10,2021-11-10,合同会社サポート４１号,,合同会社,東京都,千代田区,丸の内３丁目１番１号東京共同会計事務所内,,13,101,1000005,,,,,,,2021-11-10,1,,,,,サポートヨンジュウイチゴウ,0
2148,8010005034200,新規,0,2021-11-10,2021-11-10,一般社団法人サポートホールディングス４１号,,その他の設立登記法人,東京都,千代田区,丸の内３丁目１番１号東京共同会計事務所内,,13,101,1000005,,,,,,,2021-11-10,1,,,,,サポートホールディングスヨンジュウイチゴウ,0
2155,8010401163668,新規,0,2021-11-10,2021-11-10,株式会社いえオピ,,株式会社,東京都,港区,芝５丁目１２番１５号ＫＮビル２階,,13,103,1080014,,,,,,,2021-11-10,1,,,,,イエオピ,0
2156,8010401163742,新規,0,2021-11-10,2021-11-10,あずきコンシェルジュ株式会社,,株式会社,東京都,港区,虎ノ門４丁目３番１号城山トラストタワー２７階,,13,103,1050001,,,,,,,2021-11-10,1,,,,,アズキコンシェルジュ,0
2157,8010401163750,新規,0,2021-11-10,2021-11-10,株式会社ブラッツ,,株式会社,東京都,港区,南青山５丁目１７番２号シドニービル５０２,,13,103,1070062,,,,,,,2021-11-10,1,,,,,ブラッツ,0
2160,8010403026451,新規,0,2021-11-10,2021-11-10,合同会社表参道キャピタル,,合同会社,東京都,港区,南麻布４丁目５番４８号,,13,103,1060047,,,,,,,2021-11-10,1,,,,,オモテサンドウキャピタル,0
2161,8010403026492,新規,0,2021-11-10,2021-11-10,ｍｉｎｋｓ合同会社,,合同会社,東京都,港区,南青山２丁目２番１５号ウィン青山９４２,,13,103,1070062,,,,,,,2021-11-10,1,,,,,ミンクス,0
2177,8011001143795,新規,0,2021-11-10,2021-11-10,Ｊ’ｓ　Ａｓｓｅｔ　Ｍａｎａｇｅｍｅｎｔ株式会社,,株式会社,東京都,渋谷区,代々木５丁目４６番１０号,,13,113,1510053,,,,,,,2021-11-10,1,,,,,ジェイズアセットマネジメント,0
2178,8011001143820,新規,0,2021-11-10,2021-11-10,株式会社ｐｉｃａｂｉａ,,株式会社,東京都,渋谷区,元代々木町５番４号アサツマビル１０１,,13,113,1510062,,,,,,,2021-11-10,1,,,,,ピカビア,0
2181,8011003013690,新規,0,2021-11-10,2021-11-10,和昇合同会社,,合同会社,東京都,渋谷区,神宮前５丁目１８番１３号Ｍレジデンス２階,,13,113,1500001,,,,,,,2021-11-10,1,,,,,ワショウ,0
2189,8011401023829,新規,0,2021-11-10,2021-11-10,株式会社ホーム・エイト,,株式会社,東京都,板橋区,南町４４番２号,,13,119,1730027,,,,,,,2021-11-10,1,,,,,ホームエイト,0
2196,8011803004864,新規,0,2021-11-10,2021-11-10,ラパロクス合同会社,,合同会社,東京都,葛飾区,高砂７丁目１２番３号ルーテシア高砂Ｂ１０１号室,,13,122,1250054,,,,,,,2021-11-10,1,,,,,,0
2200,8012401038511,新規,0,2021-11-10,2021-11-10,株式会社永和,,株式会社,東京都,府中市,住吉町３丁目６０番２,,13,206,1830034,,,,,,,2021-11-10,1,,,,,エイワ,0
2202,8012405004666,新規,0,2021-11-10,2021-11-10,一般社団法人心花,,その他の設立登記法人,東京都,調布市,八雲台２丁目２２番地１３,,13,208,1820015,,,,,,,2021-11-10,1,,,,,コハナ,0
2204,8012803002643,新規,0,2021-11-10,2021-11-10,合同会社フロンティアワン,,合同会社,東京都,立川市,曙町３丁目７番１４号曙マンション２０２号,,13,202,1900012,,,,,,,2021-11-10,1,,,,,フロンティアワン,0
2207,8013301048253,新規,0,2021-11-10,2021-11-10,株式会社個別進学館,,株式会社,東京都,豊島区,南池袋１丁目１６番１５号,,13,116,1710022,,,,,,,2021-11-10,1,,,,,コベツシンガクカン,0
2213,8020001143846,新規,0,2021-11-10,2021-11-10,株式会社Ｓｕｇａｒ　Ｓｏｕｌ,,株式会社,神奈川県,横浜市港北区,日吉７丁目２番６－１０１号,,14,109,2230061,,,,,,,2021-11-10,1,,,,,シュガーソウル,0
2214,8020001143862,新規,0,2021-11-10,2021-11-10,株式会社Ｒ２,,株式会社,神奈川県,横浜市中区,元町４丁目１６８ＢＩＺｃｏｍｆｏｒｔ横浜元町,,14,104,2310861,,,,,,,2021-11-10,1,,,,,アールツー,0
2216,8020003020779,新規,0,2021-11-10,2021-11-10,合同会社ＲＩＳＥ,,合同会社,神奈川県,横浜市青葉区,たちばな台１丁目９－１７,,14,117,2270046,,,,,,,2021-11-10,1,,,,,ライズ,0
2228,8030001145230,新規,0,2021-11-10,2021-11-10,株式会社ＪＯＳＨＩＡＭ,,株式会社,埼玉県,本庄市,早稲田の杜３丁目１番５号,,11,211,3670030,,,,,,,2021-11-10,1,,,,,ヨシアム,0
2236,8040003018904,新規,0,2021-11-10,2021-11-10,合同会社ＯＲＩＴＯＮＳ,,合同会社,千葉県,流山市,おおたかの森東２丁目６－２,,12,220,2700138,,,,,,,2021-11-10,1,,,,,オリトンズ,0
2237,8040003018912,新規,0,2021-11-10,2021-11-10,合同会社ふっとてっく,,合同会社,千葉県,千葉市稲毛区,稲丘町５番２１号ライオンズマンション稲毛２０５号,,12,103,2630033,,,,,,,2021-11-10,1,,,,,フットテック,0
2241,8050001050073,新規,0,2021-11-10,2021-11-10,株式会社島工,,株式会社,茨城県,結城郡八千代町,大字菅谷５３６番地２,,08,521,3003572,,,,,,,2021-11-10,1,,,,,シマコウ,0
2242,8050001050123,新規,0,2021-11-10,2021-11-10,株式会社ダリア,,株式会社,茨城県,水戸市,千波町１２６番地８,,08,201,3100851,,,,,,,2021-11-10,1,,,,,ダリア,0
2248,8060003003862,新規,0,2021-11-10,2021-11-10,合同会社Ｙ＆Ｒ,,合同会社,栃木県,宇都宮市,上戸祭３丁目８番３０号,,09,201,3200058,,,,,,,2021-11-10,1,,,,,ワイアンドアール,0
2276,8120001241680,新規,0,2021-11-10,2021-11-10,大和株式会社,,株式会社,大阪府,枚方市,山之上２丁目２９番１－２０１号,,27,210,5730047,,,,,,,2021-11-10,1,,,,,ダイワ,0
2277,8120001241706,新規,0,2021-11-10,2021-11-10,日昇株式会社,,株式会社,大阪府,大阪市城東区,蒲生３丁目１５番１２号セザンヌ藤５０５Ａ,,27,118,5360016,,,,,,,2021-11-10,1,,,,,ニッショウ,0
2278,8120001241739,新規,0,2021-11-10,2021-11-10,株式会社ｐｅｔｉｔｅ　ｐｅｒｌｅ,,株式会社,大阪府,大阪市西区,南堀江２丁目３－２０－４０５,,27,106,5500015,,,,,,,2021-11-10,1,,,,,プティットゥペール,0
2279,8120001241755,新規,0,2021-11-10,2021-11-10,正熙株式会社,,株式会社,大阪府,大阪市東成区,東小橋１丁目５番３－９０３号,,27,115,5370024,,,,,,,2021-11-10,1,,,,,セイキ,0
2280,8120001241763,新規,0,2021-11-10,2021-11-10,株式会社マインドシステム,,株式会社,大阪府,大阪市東住吉区,西今川４丁目３３番１３号,,27,121,5460042,,,,,,,2021-11-10,1,,,,,マインドシステム,0
2281,8120001241771,新規,0,2021-11-10,2021-11-10,株式会社イーストウィング,,株式会社,大阪府,門真市,千石西町４番３９－１０号,,27,223,5710014,,,,,,,2021-11-10,1,,,,,イーストウィング,0
2287,8120005022598,新規,0,2021-11-10,2021-11-10,一般社団法人マザーズマインドコーチング協会,,その他の設立登記法人,大阪府,枚方市,東中振２丁目２０番１－１４１５号,,27,210,5730093,,,,,,,2021-11-10,1,,,,,マザーズマインドコーチングキョウカイ,0
2289,8120101064635,新規,0,2021-11-10,2021-11-10,Ｍｉｋｉ株式会社,,株式会社,大阪府,堺市堺区,東雲西町１丁４番２０号ジョイフル堺３０３号,,27,141,5900013,,,,,,,2021-11-10,1,,,,,ミキ,0
2296,8122001035344,新規,0,2021-11-10,2021-11-10,ニライカナイ株式会社,,株式会社,大阪府,八尾市,堤町１丁目４５番地の２２,,27,212,5810832,,,,,,,2021-11-10,1,,,,,ニライカナイ,0
2306,8140003016963,新規,0,2021-11-10,2021-11-10,合同会社ベアホーム,,合同会社,兵庫県,神戸市長田区,上池田１丁目７番８号,,28,106,6530827,,,,,,,2021-11-10,1,,,,,ベアホーム,0
2324,8180303005159,新規,0,2021-11-10,2021-11-10,ＷＥＴ合同会社,,合同会社,愛知県,碧南市,鶴見町４丁目７２番地,,23,209,4470057,,,,,,,2021-11-10,1,,,,,ウェット,0
2343,8240001058907,新規,0,2021-11-10,2021-11-10,株式会社ケーブロック,,株式会社,広島県,広島市安佐北区,亀山南２丁目７０番９号,,34,106,7310232,,,,,,,2021-11-10,1,,,,,ケーブロック,0
2346,8260001036191,新規,0,2021-11-10,2021-11-10,株式会社倉岡設備工業,,株式会社,岡山県,倉敷市,藤戸町藤戸１５０５番地７,,33,202,7100133,,,,,,,2021-11-10,1,,,,,クラオカセツビコウギョウ,0
2358,8300001012691,新規,0,2021-11-10,2021-11-10,株式会社エム・エー技建,,株式会社,佐賀県,鹿島市,大字納富分９４４番地１,,41,207,8491312,,,,,,,2021-11-10,1,,,,,エムエーギケン,0
2363,8340001024262,新規,0,2021-11-10,2021-11-10,株式会社寿建設,,株式会社,鹿児島県,鹿児島市,皆与志町４５４１番地,,46,201,8911206,,,,,,,2021-11-10,1,,,,,コトブキケンセツ,0
2366,8360003011562,新規,0,2021-11-10,2021-11-10,合同会社びーだま,,合同会社,沖縄県,中頭郡中城村,字奥間４１番地４,,47,328,9012412,,,,,,,2021-11-10,1,,,,,ビーダマ,0
2373,8390005008926,新規,0,2021-11-10,2021-11-10,医療法人ブレインクリニック妻沼,,その他の設立登記法人,山形県,山形市,嶋南２丁目７番３号,,06,201,9900886,,,,,,,2021-11-10,1,,,,,ブレインクリニックツマヌマ,0
2377,8420001017646,新規,0,2021-11-10,2021-11-10,株式会社大周,,株式会社,青森県,弘前市,大字親方町１４番地２　４Ｆ－２,,02,202,0368191,,,,,,,2021-11-10,1,,,,,ダイシュウ,0
2382,8430001085304,新規,0,2021-11-10,2021-11-10,株式会社ｓｅｎｎａ　ｐｌａｎｎｉｎｇ　ｏｆｆｉｃｅ,,株式会社,北海道,札幌市中央区,南二条西７丁目９番地６,,01,101,0600062,,,,,,,2021-11-10,1,,,,,セナプランニングオフィス,0
2383,8430001085361,新規,0,2021-11-10,2021-11-10,ラディック株式会社,,株式会社,北海道,北広島市,大曲幸町２丁目６番地５,,01,234,0611278,,,,,,,2021-11-10,1,,,,,ラディック,0
2400,9010005034190,新規,0,2021-11-10,2021-11-10,一般社団法人ＣＯＬＬＥＧＥ　ＣＵＬＩＮＡＩＲＥ　ＤＵ　ＪＡＰＯＮ,,その他の設立登記法人,東京都,千代田区,一番町４番地４２一番町ＩＩビル２階,,13,101,1020082,,,,,,,2021-11-10,1,,,,,コレージュキュリネールデュジャポン,0
2405,9010401163733,新規,0,2021-11-10,2021-11-10,株式会社パスカル,,株式会社,東京都,港区,北青山２丁目１２番４号坂本ビル３階,,13,103,1070061,,,,,,,2021-11-10,1,,,,,パスカル,0
2406,9010401163766,新規,0,2021-11-10,2021-11-10,株式会社Ｐｙｘｉｓ　Ｌａｂ,,株式会社,東京都,港区,南青山２丁目２番１５号,,13,103,1070062,,,,,,,2021-11-10,1,,,,,ピクシスラボ,0
2420,9010601060202,新規,0,2021-11-10,2021-11-10,ＦｅＭインターナショナル株式会社,,株式会社,東京都,墨田区,横網１丁目１０番５号,,13,107,1300015,,,,,,,2021-11-10,1,,,,,フェムインターナショナル,0
2423,9010605004015,新規,0,2021-11-10,2021-11-10,一般社団法人ＤｅｒｕＱｕｉ,,その他の設立登記法人,東京都,墨田区,吾妻橋１丁目６－２－３０７,,13,107,1300001,,,,,,,2021-11-10,1,,,,,デルクイ,0
2440,9011001143910,新規,0,2021-11-10,2021-11-10,Ｐｒｅｓｔｏ　Ｉｎｖｅｓｔｍｅｎｔ　Ｊａｐａｎ株式会社,,株式会社,東京都,渋谷区,南平台町１６番２８号Ｄａｉｗａ渋谷スクエア６階,,13,113,1500036,,,,,,,2021-11-10,1,,,,,プレストインベストメントジャパン,0
2448,9011401023828,新規,0,2021-11-10,2021-11-10,株式会社エム・エイト,,株式会社,東京都,板橋区,南町４４番２号,,13,119,1730027,,,,,,,2021-11-10,1,,,,,エムエイト,0
2453,9011801039960,新規,0,2021-11-10,2021-11-10,株式会社翔建,,株式会社,東京都,足立区,入谷３丁目１３番１４－２０４号,,13,121,1210836,,,,,,,2021-11-10,1,,,,,ショウケン,0
2460,9012401038493,新規,0,2021-11-10,2021-11-10,ＯｐｅｎＡｐｐｓ株式会社,,株式会社,東京都,調布市,西つつじケ丘４丁目１１番地２８号,,13,208,1820006,,,,,,,2021-11-10,1,,,,,オープンアップス,0
2468,9013303005895,新規,0,2021-11-10,2021-11-10,ＪＰ　Ｐｉｓｅｎテクノロジー合同会社,,合同会社,東京都,豊島区,東池袋３丁目２０－９宏和ビル,,13,116,1700013,,,,,,,2021-11-10,1,,,,,ジェイピーピセンテクノロジー,0
2475,9020003020794,新規,0,2021-11-10,2021-11-10,合同会社フシギラボ,,合同会社,神奈川県,横浜市栄区,笠間３丁目４５番Ｂ－９０１号,,14,115,2470006,,,,,,,2021-11-10,1,,,,,フシギラボ,0
2483,9021003011081,新規,0,2021-11-10,2021-11-10,合同会社スカイウィールス,,合同会社,神奈川県,藤沢市,宮原１６６６番地４,,14,205,2520826,,,,,,,2021-11-10,1,,,,,スカイウィールス,0
2491,9030001145147,新規,0,2021-11-10,2021-11-10,国分コンテンツ株式会社,,株式会社,埼玉県,幸手市,大字上吉羽堤外２１００番地２３,,11,240,3400121,,,,,,,2021-11-10,1,,,,,コクブンコンテンツ,0
2492,9030001145287,新規,0,2021-11-10,2021-11-10,株式会社Ｍ’ｓ　Ｃｏｍｐａｎｙ,,株式会社,埼玉県,北葛飾郡松伏町,大字大川戸２４２８番地５,,11,465,3430106,,,,,,,2021-11-10,1,,,,,エムズカンパニー,0
2493,9030001145295,新規,0,2021-11-10,2021-11-10,株式会社ＣＹＰＨＥＲ　ＣＲＥＡＴＩＯＮ,,株式会社,埼玉県,春日部市,南１丁目１４－２８,,11,214,3440064,,,,,,,2021-11-10,1,,,,,サイファークリエイション,0
2498,9030003018292,新規,0,2021-11-10,2021-11-10,合同会社八新青果,,合同会社,埼玉県,入間市,東町４丁目１番５３号,,11,225,3580002,,,,,,,2021-11-10,1,,,,,ハチシンセイカ,0
2499,9030003018301,新規,0,2021-11-10,2021-11-10,合同会社フロアクラフト,,合同会社,埼玉県,戸田市,笹目南町２番１３－１０４号,,11,224,3350035,,,,,,,2021-11-10,1,,,,,フロアクラフト,0
2509,9050003006188,新規,0,2021-11-10,2021-11-10,ＡＤＥＥＬ　ＴＲＡＤＩＮＧ合同会社,,合同会社,茨城県,下妻市,黒駒１０５３番３,,08,210,3040007,,,,,,,2021-11-10,1,,,,,アディールトレーディング,0
2513,9060001034289,新規,0,2021-11-10,2021-11-10,株式会社創都,,株式会社,栃木県,矢板市,片岡２０９６番地７８,,09,211,3291571,,,,,,,2021-11-10,1,,,,,ソウト,0
2517,9060003003861,新規,0,2021-11-10,2021-11-10,合同会社レイル,,合同会社,栃木県,宇都宮市,宝木本町２２５１－５,,09,201,3200075,,,,,,,2021-11-10,1,,,,,レイル,0
2542,9120001241597,新規,0,2021-11-10,2021-11-10,株式会社アクスタート,,株式会社,大阪府,大阪市住之江区,南港中４丁目７番２１棟３１６号室,,27,125,5590033,,,,,,,2021-11-10,1,,,,,アクスタート,0
2543,9120001241770,新規,0,2021-11-10,2021-11-10,Ｒ＆Ｍ株式会社,,株式会社,大阪府,大阪市中央区,高津３丁目１６番１１号オロヒルズ高津３０１,,27,128,5420072,,,,,,,2021-11-10,1,,,,,アルアンドエム,0
2548,9120101064634,新規,0,2021-11-10,2021-11-10,昌谷工業株式会社,,株式会社,大阪府,堺市南区,槇塚台２丁３９番１０－１１０号,,27,145,5900114,,,,,,,2021-11-10,1,,,,,マサヤコウギョウ,0
2567,9140001123728,新規,0,2021-11-10,2021-11-10,株式会社伸洋,,株式会社,兵庫県,加古川市,平岡町高畑３９２番地の３５,,28,210,6750103,,,,,,,2021-11-10,1,,,,,シンヨウ,0
2568,9140001123793,新規,0,2021-11-10,2021-11-10,株式会社ＳＴマネジメント,,株式会社,兵庫県,西宮市,小松町２丁目２番１２号,,28,204,6638127,,,,,,,2021-11-10,1,,,,,エスティーマネジメント,0
2569,9140001123810,新規,0,2021-11-10,2021-11-10,ＫＴストラテジー・アンド・カンパニー株式会社,,株式会社,兵庫県,伊丹市,南野２丁目７番１１－１０２号,,28,207,6640865,,,,,,,2021-11-10,1,,,,,ケーティーストラテジーアンドカンパニー,0
2574,9140005025879,新規,0,2021-11-10,2021-11-10,一般社団法人日本医療アシスタント協会,,その他の設立登記法人,兵庫県,神戸市中央区,八幡通３丁目２番５号,,28,110,6510085,,,,,,,2021-11-10,1,,,,,ニホンイリョウアシスタントキョウカイ,0
2576,9150003002540,新規,0,2021-11-10,2021-11-10,ＩｒｅｘｐｒｅｓｓＪａｐａｎ合同会社,,合同会社,奈良県,磯城郡田原本町,大字阪手７１８番地の２,,29,363,6360247,,,,,,,2021-11-10,1,,,,,アイレックスプレスジャパン,0
2585,9180001148548,新規,0,2021-11-10,2021-11-10,株式会社ＯＩＤＯＮ,,株式会社,愛知県,名古屋市中川区,八熊２丁目１０番５号,,23,110,4540013,,,,,,,2021-11-10,1,,,,,オイドン,0
2586,9180001148647,新規,0,2021-11-10,2021-11-10,株式会社Ｏｎｅ　Ｌｉｆｅ,,株式会社,愛知県,日進市,岩崎町野田５番地１０２,,23,230,4700131,,,,,,,2021-11-10,1,,,,,ワンライフ,0
2589,9180003023170,新規,0,2021-11-10,2021-11-10,合同会社Ａｙｕ,,合同会社,愛知県,名古屋市千種区,唐山町３丁目２８番地コノンコピア東山３０３号,,23,101,4640806,,,,,,,2021-11-10,1,,,,,アユ,0
2597,9190001028831,新規,0,2021-11-10,2021-11-10,株式会社イル,,株式会社,三重県,伊賀市,猪田１１３４番地,,24,216,5180123,,,,,,,2021-11-10,1,,,,,イル,0
2611,9240001058906,新規,0,2021-11-10,2021-11-10,ＴＤＴ株式会社,,株式会社,広島県,広島市佐伯区,五日市中央３丁目１６番１７号,,34,108,7315128,,,,,,,2021-11-10,1,,,,,ティーディーティ,0
2629,9290001095259,新規,0,2021-11-10,2021-11-10,株式会社ＮＯ．１１,,株式会社,福岡県,古賀市,今の庄２丁目１４番３０号,,40,223,8113117,,,,,,,2021-11-10,1,,,,,ナンバーイレブン,0
2630,9290001095283,新規,0,2021-11-10,2021-11-10,株式会社赤司商店,,株式会社,福岡県,福岡市中央区,渡辺通５丁目１１番１号,,40,133,8100004,,,,,,,2021-11-10,1,,,,,アカシショウテン,0
2631,9290001095333,新規,0,2021-11-10,2021-11-10,株式会社ファーストペンギン,,株式会社,福岡県,福津市,中央６丁目１７番６－９０４号,,40,224,8113217,,,,,,,2021-11-10,1,,,,,ファーストペンギン,0
2632,9290001095341,新規,0,2021-11-10,2021-11-10,スクエアコンサルティング株式会社,,株式会社,福岡県,福岡市西区,愛宕２丁目３番１号,,40,135,8190015,,,,,,,2021-11-10,1,,,,,スクエアコンサルティング,0
2633,9290003011791,新規,0,2021-11-10,2021-11-10,福岡せとうち産業医事務所合同会社,,合同会社,福岡県,福岡市城南区,友泉亭１３番３３号,,40,136,8140122,,,,,,,2021-11-10,1,,,,,フクオカセトウチサンギョウイジムショ,0
2634,9290003011809,新規,0,2021-11-10,2021-11-10,ノブヒデインターナショナル合同会社,,合同会社,福岡県,福岡市城南区,片江３丁目４－１３－１０１,,40,136,8140142,,,,,,,2021-11-10,1,,,,,ノブヒデインターナショナル,0
2641,9340001024237,新規,0,2021-11-10,2021-11-10,株式会社みそら,,株式会社,鹿児島県,姶良市,西餅田５９番地３,,46,225,8995431,,,,,,,2021-11-10,1,,,,,ミソラ,0
2642,9340001024261,新規,0,2021-11-10,2021-11-10,株式会社ＺＥＲＯ　ＴＯ　ＯＮＥ,,株式会社,鹿児島県,鹿児島市,上荒田町３３番２０号,,46,201,8900055,,,,,,,2021-11-10,1,,,,,ゼロツーワン,0
2654,9400001015667,新規,0,2021-11-10,2021-11-10,株式会社Ｒ＆ＲＥ,,株式会社,岩手県,盛岡市,八幡町４番１８号,,03,201,0200872,,,,,,,2021-11-10,1,,,,,アールアンドアールイー,0
2662,9430001085360,新規,0,2021-11-10,2021-11-10,株式会社ｐｕｌｔ,,株式会社,北海道,札幌市中央区,南二条西７丁目１番５　２・７ビル２階,,01,101,0600062,,,,,,,2021-11-10,1,,,,,プルト,0
