sequenceNumber,corporateNumber,process,correct,updateDate,changeDate,name,nameImageId,kind,prefectureName,cityName,streetNumber,addressImageId,prefectureCode,cityCode,postCode,addressOutside,addressOutsideImageId,closeDate,closeCause,successorCorporateNumber,changeCause,assignmentDate,latest,enName,enPrefectureName,enCityName,enAddressOutside,furigana,hihyoji
41,1011003010604,登記記録の閉鎖等,0,2023-03-10,2023-03-06,ワーキング・テクノロジーズ合同会社,,合同会社,神奈川県,横浜市中区,桜木町１丁目１０１番地１,,14,104,2310062,,,2023-03-06,清算の結了等,,,2019-12-06,1,,,,,ワーキングテクノロジーズ,0
67,1012701016215,登記記録の閉鎖等,0,2023-03-10,2023-03-06,株式会社ＴＩＥＳ　ＣＯＭＰＡＮＹ,,株式会社,東京都,東久留米市,前沢３丁目１０番３３号アネックス２０６,,13,222,2030032,,,2023-03-06,清算の結了等,,,2020-12-16,1,,,,,タイズカンパニー,0
70,1013303004748,登記記録の閉鎖等,0,2023-03-10,2023-03-02,Ｈｉｌａｌ　Ｊａｐａｎ合同会社,,合同会社,東京都,荒川区,南千住３丁目３１番５－５０１号マノーアール・ドゥ・ソレイユ,,13,118,1160003,,,2023-03-02,清算の結了等,,,2019-07-26,1,,,,,ヒラルジャパン,0
99,1030002104175,登記記録の閉鎖等,0,2023-03-10,2023-03-07,有限会社関口,,有限会社,埼玉県,川口市,芝新町５番１５号,,11,203,3330851,,,2023-03-07,清算の結了等,,,2015-10-05,1,,,,,セキグチ,0
113,1040003014059,登記記録の閉鎖等,0,2023-03-10,2023-03-06,合同会社ＴＩＭＥ　ＬＩＮＥ,,合同会社,千葉県,松戸市,上本郷２７７９番地の４,,12,207,2710064,,,2023-03-06,清算の結了等,,,2019-09-25,1,,,,,タイムライン,0
122,1070001026466,登記記録の閉鎖等,0,2023-03-10,2023-03-07,株式会社インプローブ,,株式会社,群馬県,前橋市,南町２丁目４３番２,,10,201,3710805,,,2023-03-07,合併による解散等,5011101041992,令和５年３月１日東京都千代田区内神田二丁目１１番１号島田ビル４階株式会社アーク（5011101041992）に合併し解散,2015-10-05,1,,,,,インプローブ,0
124,1070001038965,登記記録の閉鎖等,0,2023-03-10,2023-03-02,株式会社Ｒｉｓａ　Ｌｉｆｅ,,株式会社,群馬県,みどり市,笠懸町西鹿田７０９番地２０号,,10,212,3792314,,,2023-03-02,清算の結了等,,,2022-02-21,1,,,,,リサライフ,0
126,1070003003166,登記記録の閉鎖等,0,2023-03-10,2023-03-01,合同会社ティーケイプロパティ,,合同会社,群馬県,高崎市,江木町６５４番地１,,10,202,3700046,,,2023-03-01,合併による解散等,2070001028107,令和５年３月１日群馬県高崎市芝塚町１８７９番地８サンライトビル芝塚１３株式会社ティーケイプロパティ（2070001028107）に合併し解散,2018-05-01,1,,,,,ティーケイプロパティ,0
128,1080101009221,登記記録の閉鎖等,0,2023-03-10,2023-03-08,株式会社ナラハラ,,株式会社,静岡県,富士市,厚原字長沢４１３番地の１,,22,210,4190201,,,2023-03-08,合併による解散等,1010601023455,令和５年３月１日東京都江東区森下二丁目２７番７号株式会社ナラハラ・ニット（1010601023455）に合併し解散,2015-10-05,1,,,,,,0
149,1120001219048,登記記録の閉鎖等,0,2023-03-10,2023-02-28,株式会社ミューズ,,株式会社,大阪府,大阪市中央区,谷町８丁目１番５２－５１４号,,27,128,5420012,,,2023-02-28,清算の結了等,,,2019-02-19,1,,,,,ミューズ,0
187,1180001074215,登記記録の閉鎖等,0,2023-03-10,2023-03-07,ジェス中部株式会社,,株式会社,愛知県,春日井市,上田楽町３４５７番地１３,,23,206,4860801,,,2023-03-07,清算の結了等,,,2015-10-05,1,,,,,ジェスチュウブ,0
188,1180001136444,登記記録の閉鎖等,0,2023-03-10,2023-03-02,株式会社ハウウウッド,,株式会社,愛知県,名古屋市名東区,一社４丁目２６９番地の１,,23,115,4650093,,,2023-03-02,清算の結了等,,,2019-05-09,1,,,,,ハウウウッド,0
194,1180002088734,登記記録の閉鎖等,0,2023-03-10,2023-03-07,カワバタ建築有限会社,,有限会社,愛知県,知多市,岡田美里町１９２番地,,23,224,4780062,,,2023-03-07,清算の結了等,,,2015-10-05,1,,,,,カワバタケンチク,0
213,1280001000714,登記記録の閉鎖等,0,2023-03-10,2023-03-08,株式会社松江名産ホール,,株式会社,島根県,松江市,千鳥町３６番地,,32,201,6900852,,,2023-03-08,清算の結了等,,,2015-10-05,1,,,,,マツエメイサンホール,0
225,1360002019571,登記記録の閉鎖等,0,2023-03-10,2023-03-01,有限会社大光リース,,有限会社,沖縄県,名護市,大西５丁目１番３号,,47,209,9050018,,,2023-03-01,合併による解散等,6360003004551,令和５年３月１日沖縄県名護市東江四丁目２１番１８号株式会社大光（6360003004551）に合併し解散,2015-10-05,1,,,,,ダイコウリース,0
230,1390001017136,登記記録の閉鎖等,0,2023-03-10,2023-03-02,株式会社山形銀行,,株式会社,山形県,山形市,三日町５１６番地、５１７番地,,06,201,9900036,,,2023-03-02,清算の結了等,,,2023-01-16,1,,,,,ヤマガタギンコウ,0
233,1410001007555,登記記録の閉鎖等,0,2023-03-10,2023-03-07,株式会社トラストファーマシー,,株式会社,秋田県,能代市,字袖又３８番地,,05,202,0160163,,,2023-03-07,清算の結了等,,,2015-10-05,1,,,,,,0
254,2010101003279,登記記録の閉鎖等,0,2023-03-10,2023-03-06,原宿ファッション株式会社,,株式会社,東京都,八王子市,千人町２丁目１７番２０号,,13,201,1930835,,,2023-03-06,清算の結了等,,,2015-10-05,1,,,,,ハラジュクファッション,0
262,2010401166164,登記記録の閉鎖等,0,2023-03-10,2023-03-01,サンリン太陽光フィルム技術株式会社,,株式会社,東京都,港区,白金３丁目１番１３号日恵ビル２階,,13,103,1080072,,,2023-03-01,清算の結了等,,,2022-03-15,1,,,,,サンリンタイヨウコウフィルムギジュツ,0
266,2010402022630,登記記録の閉鎖等,0,2023-03-10,2023-02-28,有限会社みちこプロモーション,,有限会社,東京都,港区,赤坂６丁目１３番１３号,,13,103,1070052,,,2023-02-28,清算の結了等,,,2015-10-05,1,,,,,ミチコプロモーション,0
283,2011001125361,登記記録の閉鎖等,0,2023-03-10,2023-03-06,株式会社エスペランス,,株式会社,東京都,渋谷区,渋谷３丁目１番９号ＹＡＺＡＷＡビルＵＣＦ３階,,13,113,1500002,,,2023-03-06,清算の結了等,,,2018-11-27,1,,,,,エスペランス,0
302,2011801035149,登記記録の閉鎖等,0,2023-03-10,2023-03-07,アイテールメディカ株式会社,,株式会社,東京都,葛飾区,西新小岩４丁目４０番１２号,,13,122,1240025,,,2023-03-07,清算の結了等,,,2018-09-06,1,,,,,アイテールメディカ,0
338,2030002088566,登記記録の閉鎖等,0,2023-03-10,2023-03-07,有限会社若林電気工事,,有限会社,埼玉県,越谷市,越ヶ谷４８６３番地,,11,222,3430024,,,2023-03-07,清算の結了等,,,2015-10-05,1,,,,,ワカバヤシデンキコウジ,0
342,2030005016623,登記記録の閉鎖等,0,2023-03-10,2023-03-07,特定非営利活動法人ホッと・ステーション,,その他の設立登記法人,埼玉県,深谷市,普済寺１５３８番地２,,11,218,3690203,,,2023-03-07,清算の結了等,,,2015-10-05,1,,,,,ホットステーション,0
358,2070001012218,登記記録の閉鎖等,0,2023-03-10,2023-03-02,永井産業株式会社,,株式会社,群馬県,富岡市,下高瀬６６番地１,,10,210,3702332,,,2023-03-02,清算の結了等,,,2015-10-05,1,,,,,ナガイサンギョウ,0
365,2090002012636,登記記録の閉鎖等,0,2023-03-10,2023-03-07,有限会社松野屋,,有限会社,山梨県,富士吉田市,大明見１丁目１０番１号,,19,202,4030003,,,2023-03-07,清算の結了等,,,2015-10-05,1,,,,,マツノヤ,0
367,2100001007131,登記記録の閉鎖等,0,2023-03-10,2023-03-07,株式会社建築構造設計エヌエー,,株式会社,長野県,佐久市,御馬寄９２５番地４３,,20,217,3842103,,,2023-03-07,清算の結了等,,,2015-10-05,1,,,,,ケンチクコウゾウセッケイエヌエー,0
376,2120001059237,登記記録の閉鎖等,0,2023-03-10,2023-03-08,株式会社ロック,,株式会社,大阪府,大阪市淀川区,西三国３丁目１３番３号,,27,123,5320006,,,2023-03-08,清算の結了等,,,2015-10-05,1,,,,,ロック,0
397,2120005019567,登記記録の閉鎖等,0,2023-03-10,2023-03-09,一般社団法人ＢＲｉＤＧＥ－Ｊａｐａｎ,,その他の設立登記法人,大阪府,大阪市中央区,北浜東２番１３号,,27,128,5400031,,,2023-03-09,清算の結了等,,,2017-07-06,1,,,,,,0
416,2140001095429,登記記録の閉鎖等,0,2023-03-10,2023-03-06,株式会社リベロワン,,株式会社,兵庫県,加古川市,尾上町池田４８７番地の１４,,28,210,6750023,,,2023-03-06,清算の結了等,,,2015-10-05,1,,,,,リベロワン,0
422,2140003017851,登記記録の閉鎖等,0,2023-03-10,2023-03-03,Ｗａｌｌｏｗ　Ｇｌｅａｍ　Ｊａｐａｎ合同会社,,合同会社,兵庫県,神戸市北区,藤原台北町４丁目２１番１号,,28,109,6511301,,,2023-03-03,清算の結了等,,,2022-06-27,1,,,,,ワローグリームジャパン,0
427,2160005008871,登記記録の閉鎖等,0,2023-03-10,2023-03-09,守山銀座ビル協同組合,,その他の設立登記法人,滋賀県,守山市,守山１丁目６番１号,,25,207,5240022,,,2023-03-09,清算の結了等,,,2015-10-05,1,,,,,モリヤマギンザビル,0
438,2190003002849,登記記録の閉鎖等,0,2023-03-10,2023-03-06,合同会社未来Ｈｏｗｄｙ,,合同会社,三重県,度会郡大紀町,柏野１２２０番地１,,24,471,5192801,,,2023-03-06,清算の結了等,,,2018-01-30,1,,,,,ミライハウディ,0
444,2220001006170,登記記録の閉鎖等,0,2023-03-10,2023-03-09,株式会社森川商会,,株式会社,東京都,中央区,銀座１丁目２２番１１号銀座大竹ビジデンス２階,,13,102,1040061,,,2023-03-09,清算の結了等,,,2015-10-05,1,,,,,,0
494,2420001014269,登記記録の閉鎖等,0,2023-03-10,2023-03-07,セブンハーツ株式会社,,株式会社,青森県,上北郡おいらせ町,中平下長根山１番地８７,,02,412,0392129,,,2023-03-07,清算の結了等,,,2015-10-05,1,,,,,セブンハーツ,0
544,3010901001968,登記記録の閉鎖等,0,2023-03-10,2023-03-08,株式会社エポックプロダクツサービス,,株式会社,東京都,世田谷区,祖師谷６丁目３番１８号,,13,112,1570072,,,2023-03-08,合併による解散等,8011001004196,令和５年２月１日東京都渋谷区東二丁目６番１８号株式会社エポック（8011001004196）に合併し解散,2015-10-05,1,,,,,,0
552,3011001140657,登記記録の閉鎖等,0,2023-03-10,2023-03-06,株式会社ｎ．ｎ,,株式会社,東京都,渋谷区,猿楽町９番８号アーバンパーク代官山Ｉ２０６,00123145,13,113,1500033,,,2023-03-06,清算の結了等,,,2021-05-25,1,,,,,エヌドットエヌ,0
568,3011503001927,登記記録の閉鎖等,0,2023-03-10,2023-03-02,合資会社環境企画研究所,,合資会社,東京都,荒川区,東尾久４丁目８番１４号,,13,118,1160012,,,2023-03-02,清算の結了等,,,2015-10-05,1,,,,,カンキョウキカクケンキュウジョ,0
574,3011801030487,登記記録の閉鎖等,0,2023-03-10,2023-03-07,至株式会社,,株式会社,東京都,足立区,伊興１丁目１６番２号,,13,121,1210823,,,2023-03-07,清算の結了等,,,2015-10-05,1,,,,,イタル,0
579,3012702001206,登記記録の閉鎖等,0,2023-03-10,2023-03-09,有限会社千葉義肢製作所,,有限会社,東京都,小平市,小川町１丁目４３６－１３,,13,211,1870032,,,2023-03-09,清算の結了等,,,2015-10-05,1,,,,,チバギシセイサクショ,0
589,3020001107954,登記記録の閉鎖等,0,2023-03-10,2023-03-07,盛林商事株式会社,,株式会社,神奈川県,川崎市多摩区,長尾６丁目２６番１０号,,14,135,2140023,,,2023-03-07,清算の結了等,,,2015-10-05,1,,,,,セイリンショウジ,0
595,3020005009239,登記記録の閉鎖等,0,2023-03-10,2023-03-07,特定非営利活動法人港北コアラ,,その他の設立登記法人,神奈川県,横浜市港北区,大曽根１丁目５番１－３１号,,14,109,2220003,,,2023-03-07,清算の結了等,,,2015-10-05,1,,,,,コウホクコアラ,0
600,3021001048379,登記記録の閉鎖等,0,2023-03-10,2023-03-06,株式会社プラス・クロ,,株式会社,神奈川県,茅ヶ崎市,富士見町８番１１－３－４０８号,,14,207,2530031,,,2023-03-06,清算の結了等,,,2015-10-05,1,,,,,プラスクロ,0
602,3021001056844,登記記録の閉鎖等,0,2023-03-10,2023-03-06,株式会社ヴァルゴス,,株式会社,神奈川県,中郡大磯町,西小磯１４７３番地８１,,14,341,2550005,,,2023-03-06,清算の結了等,,,2015-10-05,1,,,,,ヴァルゴス,0
606,3030001005455,登記記録の閉鎖等,0,2023-03-10,2023-03-06,株式会社筑波進研,,株式会社,埼玉県,さいたま市浦和区,元町２丁目１７番２４号,,11,107,3300073,,,2023-03-06,合併による解散等,2370001013689,令和５年３月１日仙台市若林区土樋１０４番地株式会社イー・エス・ティ（2370001013689）に合併し解散,2015-10-05,1,,,,,ツクバシンケン,0
615,3030005020236,登記記録の閉鎖等,0,2023-03-10,2023-03-07,一般社団法人波動姿勢協会,,その他の設立登記法人,埼玉県,春日部市,粕壁１丁目９番２７号,,11,214,3440061,,,2023-03-07,清算の結了等,,,2021-01-25,1,,,,,ハドウシセイキョウカイ,0
620,3040002078623,登記記録の閉鎖等,0,2023-03-10,2023-03-03,有限会社米澤薬局,,有限会社,千葉県,大網白里市,南今泉４６０７番地,,12,239,2993202,,,2023-03-03,清算の結了等,,,2015-10-05,1,,,,,ヨネザワヤッキョク,0
640,3100002038703,登記記録の閉鎖等,0,2023-03-10,2023-03-07,有限会社齊藤茶舗,,有限会社,長野県,下伊那郡松川町,元大島３８３９番地５,,20,402,3993303,,,2023-03-07,清算の結了等,,,2015-10-05,1,,,,,サイトウチャホ,0
663,3140005005242,登記記録の閉鎖等,0,2023-03-10,2023-03-07,特定非営利活動法人神戸外国人居留地研究会,,その他の設立登記法人,兵庫県,神戸市中央区,加納町４丁目１０番２３－５０６号,,28,110,6500001,,,2023-03-07,清算の結了等,,,2015-10-05,1,,,,,コウベガイコクジンキョリュウチケンキュウカイ,0
667,3180001123382,登記記録の閉鎖等,0,2023-03-10,2023-03-07,Ｓ・Ｅ株式会社,,株式会社,愛知県,名古屋市東区,泉１丁目５番２６号,,23,102,4610001,,,2023-03-07,清算の結了等,,,2016-05-18,1,,,,,エスイー,0
670,3180002085069,登記記録の閉鎖等,0,2023-03-10,2023-03-07,有限会社ヒューマンポート,,有限会社,愛知県,大府市,長草町上田ノ松４２番地の１,,23,223,4740052,,,2023-03-07,清算の結了等,,,2015-10-05,1,,,,,ヒューマンポート,0
674,3190001023202,登記記録の閉鎖等,0,2023-03-10,2023-03-03,株式会社ファービア,,株式会社,三重県,伊勢市,浦口２丁目９番６号,,24,203,5160062,,,2023-03-03,清算の結了等,,,2015-11-19,1,,,,,ファービア,0
701,3340001011505,登記記録の閉鎖等,0,2023-03-10,2023-03-09,株式会社島田,,株式会社,鹿児島県,鹿児島市,下伊敷３丁目７０番６号,,46,201,8900005,,,2023-03-09,清算の結了等,,,2015-10-05,1,,,,,シマダ,0
743,4010001005233,登記記録の閉鎖等,0,2023-03-10,2023-03-01,東京三同株式会社,,株式会社,岡山県,倉敷市,阿知１丁目７番２－５０２号,,33,202,7100055,,,2023-03-01,合併による解散等,5260001013499,令和５年３月１日岡山県倉敷市阿知一丁目７番２－５０２号三同株式会社（5260001013499）に合併し解散,2015-10-05,1,,,,,トウキョウサンドウ,0
746,4010001201435,登記記録の閉鎖等,0,2023-03-10,2023-03-06,コグニティブ・インサイト株式会社,,株式会社,東京都,中央区,日本橋本町３丁目３－６ワカ末ビル７Ｆ,,13,102,1030023,,,2023-03-06,清算の結了等,,,2019-06-10,1,,,,,コグニティブインサイト,0
750,4010003016419,登記記録の閉鎖等,0,2023-03-10,2023-03-08,エムアイジェイ合同会社,,合同会社,大阪府,大阪市北区,梅田２丁目２番２号ヒルトンプラザウエストタワー１９階,,27,127,5300001,,,2023-03-08,清算の結了等,,,2015-10-05,1,,,,,エムアイジェイ,0
787,4011502003188,登記記録の閉鎖等,0,2023-03-10,2023-03-02,鈴秀運送有限会社,,有限会社,東京都,北区,田端新町１丁目８番６号,,13,117,1140012,,,2023-03-02,清算の結了等,,,2015-10-05,1,,,,,スズヒデウンソウ,0
790,4011801009869,登記記録の閉鎖等,0,2023-03-10,2023-03-07,土屋真商事株式会社,,株式会社,東京都,足立区,皿沼２丁目１７番２号,,13,121,1230862,,,2023-03-07,清算の結了等,,,2015-10-05,1,,,,,ツチヤシンショウジ,0
814,4021003012290,登記記録の閉鎖等,0,2023-03-10,2023-03-07,合同会社ステップアップカンパニー,,合同会社,神奈川県,横須賀市,平作８丁目５番３号,,14,201,2380032,,,2023-03-07,清算の結了等,,,2022-10-25,1,,,,,ステップアップカンパニー,0
824,4040001009223,登記記録の閉鎖等,0,2023-03-10,2023-03-03,株式会社アルバ,,株式会社,千葉県,千葉市稲毛区,稲毛東３丁目１５番１１号稲毛Ｋビル５０１号,,12,103,2630031,,,2023-03-03,清算の結了等,,,2015-10-05,1,,,,,アルバ,0
826,4040001033446,登記記録の閉鎖等,0,2023-03-10,2023-03-03,株式会社カンシンホールディングス,,株式会社,千葉県,船橋市,本中山１丁目６番１５号ゴールドヒルズ１Ｆ,,12,204,2730035,,,2023-03-03,清算の結了等,,,2015-10-05,1,,,,,カンシンホールディングス,0
828,4040001088151,登記記録の閉鎖等,0,2023-03-10,2023-03-06,ｄｏｔ　ｃａｍｐａｎｙ株式会社,,株式会社,千葉県,山武郡横芝光町,屋形５２５５番地１７,,12,410,2891735,,,2023-03-06,清算の結了等,,,2015-10-05,1,,,,,,0
894,4130001022431,登記記録の閉鎖等,0,2023-03-10,2023-03-08,株式会社ブレーンズ,,株式会社,京都府,京都市中京区,錦小路通烏丸西入占出山町３０７番地,,26,104,6048155,,,2023-03-08,清算の結了等,,,2015-10-05,1,,,,,ブレーンズ,0
919,4210002004809,登記記録の閉鎖等,0,2023-03-10,2023-03-08,有限会社ヒラリス,,有限会社,福井県,福井市,鮎川町第９５号２９番地の１,,18,201,9103402,,,2023-03-08,清算の結了等,,,2015-10-05,1,,,,,ヒラリス,0
964,4410001008947,登記記録の閉鎖等,0,2023-03-10,2023-03-08,よねや商事株式会社,,株式会社,秋田県,横手市,横手町字大関越８０番地,,05,203,0130061,,,2023-03-08,合併による解散等,9390001002171,令和５年３月１日山形市あこや町三丁目８番９号株式会社ヤマザワ（9390001002171）に合併し解散,2015-10-05,1,,,,,ヨネヤショウジ,0
969,4430001050014,登記記録の閉鎖等,0,2023-03-10,2023-03-09,エスケー管財株式会社,,株式会社,北海道,小樽市,奥沢１丁目２１番１５号,,01,203,0470013,,,2023-03-09,清算の結了等,,,2015-10-05,1,,,,,エスケーカンザイ,0
975,4430002031095,登記記録の閉鎖等,0,2023-03-10,2023-03-07,有限会社エフイーシステム,,有限会社,北海道,札幌市中央区,北一条西２４丁目２番２１－７０１号,,01,101,0640821,,,2023-03-07,清算の結了等,,,2015-10-05,1,,,,,エフイーシステム,0
976,4440001007005,登記記録の閉鎖等,0,2023-03-10,2023-03-03,株式会社函館やますえ,,株式会社,北海道,函館市,北浜町３番３１号,,01,202,0400078,,,2023-03-03,清算の結了等,,,2015-10-05,1,,,,,ハコダテヤマスエ,0
980,4500005007878,登記記録の閉鎖等,0,2023-03-10,2023-02-22,一般社団法人カーラ・ラボ,,その他の設立登記法人,愛媛県,伊予郡砥部町,宮内１４０４番地１Ｓステージビル２Ｆ,,38,402,7912120,,,2023-02-22,清算の結了等,,,2017-05-09,1,,,,,カーララボ,0
987,5010001136829,登記記録の閉鎖等,0,2023-03-10,2023-03-06,株式会社フォレストメディア,,株式会社,東京都,千代田区,神田三崎町３丁目６番１５号,,13,101,1010061,,,2023-03-06,清算の結了等,,,2015-10-05,1,,,,,フォレストメディア,0
991,5010001182303,登記記録の閉鎖等,0,2023-03-10,2023-03-06,ＢＯＬＤＭＡＮ株式会社,,株式会社,東京都,中央区,日本橋小網町１８番１５号,,13,102,1030016,,,2023-03-06,合併による解散等,3120001090050,令和５年３月１日大阪市中央区久太郎町二丁目２番８号株式会社マルス（3120001090050）に合併し解散,2017-03-24,1,,,,,ボールドマン,0
999,5010101001346,登記記録の閉鎖等,0,2023-03-10,2023-03-06,株式会社サイトー技建,,株式会社,東京都,八王子市,並木町１９番１３号,,13,201,1930831,,,2023-03-06,清算の結了等,,,2015-10-05,1,,,,,サイトーギケン,0
1001,5010401008719,登記記録の閉鎖等,0,2023-03-10,2023-03-01,株式会社クリスタル,,株式会社,東京都,港区,高輪１丁目２３番１２号,,13,103,1080074,,,2023-03-01,清算の結了等,,,2015-10-05,1,,,,,クリスタル,0
1051,5011802014388,登記記録の閉鎖等,0,2023-03-10,2023-03-07,有限会社菅原鉄工,,有限会社,東京都,足立区,西新井４丁目４５番１２号,,13,121,1230841,,,2023-03-07,清算の結了等,,,2015-10-05,1,,,,,スガワラテッコウ,0
1053,5012401017030,登記記録の閉鎖等,0,2023-03-10,2023-03-09,株式会社ブルック,,株式会社,東京都,府中市,白糸台１丁目４６番地の２５,,13,206,1830011,,,2023-03-09,清算の結了等,,,2015-10-05,1,,,,,ブルック,0
1061,5012802010724,登記記録の閉鎖等,0,2023-03-10,2023-03-07,有限会社ｋｏｙａ,,有限会社,埼玉県,日高市,武蔵台７丁目８番地５,,11,242,3501255,,,2023-03-07,清算の結了等,,,2015-10-05,1,,,,,コヤ,0
1068,5020002094604,登記記録の閉鎖等,0,2023-03-10,2023-03-09,有限会社高山,00011613,有限会社,神奈川県,川崎市麻生区,白山１丁目２番２－２０１号,,14,137,2150014,,,2023-03-09,清算の結了等,,,2015-10-05,1,,,,,,0
1077,5030001011303,登記記録の閉鎖等,0,2023-03-10,2023-03-08,株式会社テクニカル・エンタープライズ,,株式会社,埼玉県,さいたま市桜区,西堀４丁目６番１０号,,11,106,3380832,,,2023-03-08,合併による解散等,1110001012362,令和５年３月１日新潟県阿賀野市山倉１９１２番地２共栄エンジニアリング株式会社（1110001012362）に合併し解散,2015-10-05,1,,,,,テクニカルエンタープライズ,0
1087,5040001071486,登記記録の閉鎖等,0,2023-03-10,2023-03-06,株式会社樋口運輸,00019429,株式会社,千葉県,野田市,谷津字越蒔１２７６番地１,,12,208,2780046,,,2023-03-06,清算の結了等,,,2015-10-05,1,,,,,,0
1110,5120001129895,登記記録の閉鎖等,0,2023-03-10,2023-03-08,株式会社ＮＡＧＡＭＩＺＵ,,株式会社,大阪府,大阪市浪速区,元町２丁目２番７号,,27,111,5560016,,,2023-03-08,清算の結了等,,,2015-10-05,1,,,,,ナガミズ,0
1121,5120002028329,登記記録の閉鎖等,0,2023-03-10,2023-03-08,有限会社細川酒店,,有限会社,大阪府,大阪市淀川区,加島３丁目５番２２号,,27,123,5320031,,,2023-03-08,清算の結了等,,,2015-10-05,1,,,,,ホソカワサケテン,0
1140,5130001024245,登記記録の閉鎖等,0,2023-03-10,2023-03-08,近畿保全工事株式会社,,株式会社,京都府,京都市中京区,西ノ京樋ノ口町１１６番地,00125803,26,104,6048424,,,2023-03-08,清算の結了等,,,2022-03-01,1,,,,,キンキホゼンコウジ,0
1162,5190001007541,登記記録の閉鎖等,0,2023-03-10,2023-03-06,長原精工株式会社,,株式会社,三重県,度会郡度会町,長原３４７番地,,24,470,5162115,,,2023-03-06,清算の結了等,,,2015-10-05,1,,,,,ナガハラセイコウ,0
1170,5230002010894,登記記録の閉鎖等,0,2023-03-10,2023-03-09,有限会社川崎左官工業所,,有限会社,富山県,高岡市,守護町２丁目３番３３号,,16,202,9330983,,,2023-03-09,清算の結了等,,,2015-10-05,1,,,,,カワサキサカンコウギョウショ,0
1235,6010001181568,登記記録の閉鎖等,0,2023-03-10,2023-02-20,シェアミル株式会社,,株式会社,東京都,千代田区,有楽町２丁目１０番１号東京交通会館６階６０８,,13,101,1000006,,,2023-02-20,清算の結了等,,,2017-02-22,1,,,,,シェアミル,0
1268,6011001032703,登記記録の閉鎖等,0,2023-03-10,2023-03-01,株式会社グループファイブ,,株式会社,東京都,港区,港南２丁目１６番７－２２１５号,,13,103,1080075,,,2023-03-01,清算の結了等,,,2015-10-05,1,,,,,グループファイブ,0
1269,6011001040648,登記記録の閉鎖等,0,2023-03-10,2023-03-06,株式会社恵比寿ブレーン,,株式会社,東京都,目黒区,青葉台１丁目３０－１１,,13,110,1530042,,,2023-03-06,清算の結了等,,,2015-10-05,1,,,,,エビスブレーン,0
1285,6011303001959,登記記録の閉鎖等,0,2023-03-10,2023-03-03,合同会社ＹＫ,,合同会社,東京都,国分寺市,富士本２丁目２１番地５５,,13,214,1850031,,,2023-03-03,清算の結了等,,,2015-10-05,1,,,,,ワイケイ,0
1289,6011502008400,登記記録の閉鎖等,0,2023-03-10,2023-03-02,有限会社後藤建設,,有限会社,東京都,荒川区,東日暮里６丁目３１番６号,,13,118,1160014,,,2023-03-02,清算の結了等,,,2015-10-05,1,,,,,ゴトウケンセツ,0
1315,6021001047122,登記記録の閉鎖等,0,2023-03-10,2023-03-07,株式会社旅荘三桝家,,株式会社,神奈川県,足柄下郡湯河原町,宮上２６１番地,,14,384,2590314,,,2023-03-07,合併による解散等,4011001039683,令和５年３月１日東京都渋谷区神宮前六丁目１２番２０号株式会社パワーコンサルティングネットワークス（4011001039683）に合併し解散,2015-10-05,1,,,,,,0
1318,6021002039903,登記記録の閉鎖等,0,2023-03-10,2023-03-06,有限会社アーテム,,有限会社,神奈川県,相模原市南区,相模大野３丁目１５番１６号,,14,153,2520303,,,2023-03-06,清算の結了等,,,2015-10-05,1,,,,,アーテム,0
1319,6021002072268,登記記録の閉鎖等,0,2023-03-10,2023-03-06,有限会社富士マネジメント社,,有限会社,神奈川県,三浦郡葉山町,堀内５６０番地４,,14,301,2400112,,,2023-03-06,清算の結了等,,,2015-10-05,1,,,,,フジマネジメントシャ,0
1320,6021003008205,登記記録の閉鎖等,0,2023-03-10,2023-03-06,合同会社サンダース事務所,,合同会社,神奈川県,相模原市南区,当麻８３８番地１,,14,153,2520336,,,2023-03-06,清算の結了等,,,2019-03-01,1,,,,,サンダースジムショ,0
1355,6120001019492,登記記録の閉鎖等,0,2023-03-10,2023-03-08,株式会社伊賀クリーニング,,株式会社,大阪府,大阪市平野区,加美正覚寺２丁目５番４３号,,27,126,5470006,,,2023-03-08,清算の結了等,,,2015-10-05,1,,,,,,0
1373,6120901007299,登記記録の閉鎖等,0,2023-03-10,2023-03-09,株式会社大英,,株式会社,大阪府,吹田市,上山手町２５番１８－３０２号,,27,205,5650841,,,2023-03-09,清算の結了等,,,2015-10-05,1,,,,,ダイエイ,0
1377,6122003000389,登記記録の閉鎖等,0,2023-03-10,2023-03-09,合同会社エム・エス・クリエイト,,合同会社,大阪府,東大阪市,足代２丁目１番２０号永伸ビル３階,,27,227,5770841,,,2023-03-09,清算の結了等,,,2015-10-05,1,,,,,エムエスクリエイト,0
1389,6140002037715,登記記録の閉鎖等,0,2023-03-10,2023-03-07,有限会社杉光,,有限会社,兵庫県,加古郡稲美町,中村１３９３番地の１３,,28,381,6751122,,,2023-03-07,清算の結了等,,,2015-10-05,1,,,,,スギミツ,0
1396,6170002009868,登記記録の閉鎖等,0,2023-03-10,2023-03-09,有限会社キャリーオンメンバーズ,,有限会社,和歌山県,田辺市,たきない町１４番３３号,,30,206,6460015,,,2023-03-09,清算の結了等,,,2015-10-05,1,,,,,キャリーオンメンバーズ,0
1399,6180001076173,登記記録の閉鎖等,0,2023-03-10,2023-03-03,株式会社ティエイチアイ,,株式会社,愛知県,小牧市,大字三ツ渕字南播州１２６３番地,,23,219,4850075,,,2023-03-03,清算の結了等,,,2015-10-05,1,,,,,ティエイチアイ,0
1400,6180001147569,登記記録の閉鎖等,0,2023-03-10,2023-03-08,ＭＯＮＯＬＩＳＩＸマーケティング株式会社,,株式会社,愛知県,名古屋市中区,錦２丁目９番２０号トラスト伏見駅前ビル１階,,23,106,4600003,,,2023-03-08,清算の結了等,,,2021-08-27,1,,,,,モノリシックスマーケティング,0
1403,6180302021101,登記記録の閉鎖等,0,2023-03-10,2023-03-03,有限会社プランニングエル,,有限会社,愛知県,安城市,朝日町９番１５号,,23,212,4460031,,,2023-03-03,清算の結了等,,,2015-10-05,1,,,,,プランニングエル,0
1407,6220001010879,登記記録の閉鎖等,0,2023-03-10,2023-03-06,エートスコンサルティング株式会社,,株式会社,石川県,金沢市,寺地２丁目１７番１号,,17,201,9218178,,,2023-03-06,清算の結了等,,,2015-10-05,1,,,,,エートスコンサルティング,0
1422,6270001002863,登記記録の閉鎖等,0,2023-03-10,2023-03-06,株式会社アイアシスト,,株式会社,鳥取県,鳥取市,今町２丁目２８６番地,,31,201,6800822,,,2023-03-06,清算の結了等,,,2015-10-05,1,,,,,アイアシスト,0
1431,6310001001927,登記記録の閉鎖等,0,2023-03-10,2023-03-06,フルノ九州販売株式会社,,株式会社,長崎県,長崎市,旭町３番１５号,,42,201,8528003,,,2023-03-06,合併による解散等,5140001070263,令和５年３月１日兵庫県西宮市芦原町９番５２号古野電気株式会社（5140001070263）に合併し解散,2015-10-05,1,,,,,フルノキュウシュウハンバイ,0
1442,6380001014146,登記記録の閉鎖等,0,2023-03-10,2023-03-08,渡部土木株式会社,,株式会社,福島県,いわき市,小名浜大原字東田２７番地の３,,07,204,9718111,,,2023-03-08,清算の結了等,,,2015-10-05,1,,,,,ワタベドボク,0
1457,6430001078160,登記記録の閉鎖等,0,2023-03-10,2023-03-06,ＳＰＥＣＩＥＳ株式会社,,株式会社,埼玉県,ふじみ野市,上福岡１丁目４番３－８０１号,,11,245,3560004,,,2023-03-06,清算の結了等,,,2019-01-21,1,,,,,スピーシーズ,0
1494,7010405013127,登記記録の閉鎖等,0,2023-03-10,2023-03-01,一般社団法人再生可能エネルギー協会,,その他の設立登記法人,東京都,港区,六本木７丁目１５番７号,,13,103,1060032,,,2023-03-01,清算の結了等,,,2015-10-05,1,,,,,サイセイカノウエネルギーキョウカイ,0
1495,7010501044471,登記記録の閉鎖等,0,2023-03-10,2023-03-08,アートチェーン株式会社,,株式会社,東京都,台東区,東上野２丁目５番８号,,13,106,1100015,,,2023-03-08,清算の結了等,,,2019-08-06,1,,,,,アートチェーン,0
1507,7011001037775,登記記録の閉鎖等,0,2023-03-10,2023-03-07,ワーク・ワークス株式会社,,株式会社,東京都,渋谷区,松濤１丁目１３番７号クレイン松濤２０２,,13,113,1500046,,,2023-03-07,清算の結了等,,,2015-10-05,1,,,,,ワークワークス,0
1511,7011001140819,登記記録の閉鎖等,0,2023-03-10,2023-03-07,インタネスト株式会社,,株式会社,東京都,目黒区,下目黒５丁目２１番１－４２９号ザ・テラス下目黒,,13,110,1530064,,,2023-03-07,清算の結了等,,,2021-06-04,1,,,,,インタネスト,0
1546,7020001070356,登記記録の閉鎖等,0,2023-03-10,2023-03-08,株式会社八巻工業所,,株式会社,神奈川県,川崎市中原区,木月４丁目５８番７号,,14,133,2110025,,,2023-03-08,清算の結了等,,,2015-10-05,1,,,,,ヤマキコウギョウショ,0
1549,7020001125911,登記記録の閉鎖等,0,2023-03-10,2023-03-09,株式会社聘珍樓,,株式会社,神奈川県,横浜市中区,山下町１５７番地３シダーハウス２階,,14,104,2310023,,,2023-03-09,清算の結了等,,,2018-04-17,1,,,,,ヘイチンロウ,0
1569,7030001011350,登記記録の閉鎖等,0,2023-03-10,2023-03-07,株式会社共設,,株式会社,埼玉県,さいたま市桜区,大字下大久保７６８番地３,,11,106,3380825,,,2023-03-07,清算の結了等,,,2015-10-05,1,,,,,キョウセツ,0
1579,7040001062731,登記記録の閉鎖等,0,2023-03-10,2023-03-06,富士合成工業株式会社,,株式会社,千葉県,匝瑳市,みどり平５番地２,,12,235,2892131,,,2023-03-06,清算の結了等,,,2015-10-05,1,,,,,,0
1586,7040002028459,登記記録の閉鎖等,0,2023-03-10,2023-03-03,株式会社イーテック,,株式会社,千葉県,八千代市,村上１１１３番地１（２街区２２棟４０３号）,,12,221,2760028,,,2023-03-03,清算の結了等,,,2015-10-05,1,,,,,イーテック,0
1591,7040005017368,登記記録の閉鎖等,0,2023-03-10,2023-03-03,ＮＰＯ法人清流保存会・ちょうせい,,その他の設立登記法人,千葉県,長生郡一宮町,一宮２８７４番地,,12,421,2994301,,,2023-03-03,清算の結了等,,,2015-10-05,1,,,,,セイリュウホゾンカイチョウセイ,0
1593,7050002044595,登記記録の閉鎖等,0,2023-03-10,2023-03-07,工房ゆりーこ有限会社,,有限会社,茨城県,結城市,大字結城６２１８番地,,08,207,3070001,,,2023-03-07,清算の結了等,,,2015-10-05,1,,,,,コウボウユリーコ,0
1623,7120102001778,登記記録の閉鎖等,0,2023-03-10,2023-03-09,小島測量有限会社,,有限会社,大阪府,堺市堺区,三条通５番２４号,,27,141,5900046,,,2023-03-09,清算の結了等,,,2015-10-05,1,,,,,コジマソクリョウ,0
1634,7140001074717,登記記録の閉鎖等,0,2023-03-10,2023-03-08,株式会社イジマホールディングス,,株式会社,兵庫県,神戸市中央区,三宮町２丁目２番１号２Ｆ,,28,110,6500021,,,2023-03-08,清算の結了等,,,2015-10-05,1,,,,,イジマホールディングス,0
1660,7240001051482,登記記録の閉鎖等,0,2023-03-10,2023-03-07,株式会社ＳＬＳ広島,,株式会社,広島県,広島市中区,胡町４番２４号,,34,101,7300021,,,2023-03-07,合併による解散等,7350001010584,令和５年３月１日宮崎市千草町１番２２号株式会社Ｌｏｏｐ（7350001010584）に合併し解散,2017-08-02,1,,,,,エスエルエスヒロシマ,0
1666,7260001035517,登記記録の閉鎖等,0,2023-03-10,2023-02-24,株式会社ＦＲＣ,,株式会社,岡山県,倉敷市,老松町２丁目９番６号,,33,202,7100826,,,2023-02-24,清算の結了等,,,2021-05-11,1,,,,,エフアールシー,0
1671,7270001007861,登記記録の閉鎖等,0,2023-03-10,2023-03-07,株式会社ティエイチ,,株式会社,鳥取県,米子市,永江５０１番地,,31,202,6830014,,,2023-03-07,清算の結了等,,,2019-10-24,1,,,,,ティエイチ,0
1679,7290802016893,登記記録の閉鎖等,0,2023-03-10,2023-03-07,第一自動車工業有限会社,,有限会社,福岡県,遠賀郡遠賀町,大字老良３６５番地の１,,40,384,8114311,,,2023-03-07,清算の結了等,,,2015-10-05,1,,,,,ダイイチジドウシャコウギョウ,0
1695,7380002023938,登記記録の閉鎖等,0,2023-03-10,2023-03-07,有限会社常磐エンジニアサービス,,有限会社,福島県,いわき市,常磐下船尾町宮下１２３番地,,07,204,9728312,,,2023-03-07,清算の結了等,,,2015-10-05,1,,,,,ジョウバンエンジニアサービス,0
1710,7470001016900,登記記録の閉鎖等,0,2023-03-10,2023-03-09,ＳＢコンサルティング株式会社,,株式会社,香川県,さぬき市,津田町津田１５５９番２,,37,206,7692401,,,2023-03-09,清算の結了等,,,2018-06-01,1,,,,,エスビーコンサルティング,0
1729,8010001156691,登記記録の閉鎖等,0,2023-03-10,2023-03-06,株式会社シースリー,,株式会社,東京都,千代田区,神田和泉町１番地,,13,101,1010024,,,2023-03-06,清算の結了等,,,2015-10-05,1,,,,,シースリー,0
1733,8010003024285,登記記録の閉鎖等,0,2023-03-10,2023-03-03,ＨＫＲＪ　Ｖｅｎｅｏ合同会社,,合同会社,東京都,千代田区,平河町１丁目６番１５号シルスフィア会計事務所内,,13,101,1020093,,,2023-03-03,清算の結了等,,,2016-10-24,1,,,,,エイチケーアールジェイヴェネオ,0
1742,8010401155236,登記記録の閉鎖等,0,2023-03-10,2023-03-08,ホライズン９株式会社,,株式会社,東京都,港区,西新橋２丁目８番６号,,13,103,1050003,,,2023-03-08,合併による解散等,7012401015263,令和５年３月１日東京都府中市府中町二丁目１０－１０多磨ビル株式会社エスエーティ（7012401015263）に合併し解散,2020-09-16,1,,,,,ホライズンナイン,0
1766,8011101076193,登記記録の閉鎖等,0,2023-03-10,2023-03-07,株式会社ハウスロジコム,,株式会社,東京都,新宿区,西新宿２丁目６番１号,,13,104,1600023,,,2023-03-07,合併による解散等,3030001000431,令和５年３月１日さいたま市中央区円阿弥五丁目８番４０号株式会社ＡＱ　Ｇｒｏｕｐ（3030001000431）に合併し解散,2016-03-08,1,,,,,ハウスロジコム,0
1785,8012401013992,登記記録の閉鎖等,0,2023-03-10,2023-03-09,株式会社ニューセンチュリープランニング,,株式会社,東京都,三鷹市,深大寺２丁目１１番１８号,,13,204,1810016,,,2023-03-09,清算の結了等,,,2015-10-05,1,,,,,ニューセンチュリープランニング,0
1791,8012801008023,登記記録の閉鎖等,0,2023-03-10,2023-03-03,株式会社シュウワ立川北部,,株式会社,東京都,立川市,柏町３丁目２６番地の２ユタカビル１０２号,,13,202,1900004,,,2023-03-03,合併による解散等,3012801020619,令和５年１月３０日東京都立川市柏町三丁目２６番地の２ユタカビル１０２号株式会社とどめ（3012801020619）に合併し解散,2015-10-05,1,,,,,シュウワタチカワホクブ,0
1823,8030001088966,登記記録の閉鎖等,0,2023-03-10,2023-03-02,株式会社アラナミ・スポーツ・ランド,,株式会社,埼玉県,大里郡寄居町,大字寄居１６１１番地１,,11,408,3691203,,,2023-03-02,清算の結了等,,,2015-10-05,1,,,,,アラナミスポーツランド,0
1842,8070002021658,登記記録の閉鎖等,0,2023-03-10,2023-03-09,有限会社エヌワイアール,,有限会社,群馬県,伊勢崎市,豊城町２６７３番地１,,10,204,3720012,,,2023-03-09,清算の結了等,,,2015-10-05,1,,,,,エヌワイアール,0
1860,8120002066160,登記記録の閉鎖等,0,2023-03-10,2023-03-08,有限会社モビーズエステート,,有限会社,大阪府,大阪市城東区,鴫野西５丁目１５番１６号,,27,118,5360014,,,2023-03-08,清算の結了等,,,2015-10-05,1,,,,,,0
1879,8140001043506,登記記録の閉鎖等,0,2023-03-10,2023-03-07,株式会社フジデン,,株式会社,兵庫県,加古川市,平岡町土山４１４番地の１,,28,210,6750104,,,2023-03-07,合併による解散等,2100001015489,令和５年３月１日長野県松本市大字笹賀７１１７番地１トレスエンジニアリング株式会社（2100001015489）に合併し解散,2015-10-05,1,,,,,フジデン,0
1880,8140001075078,登記記録の閉鎖等,0,2023-03-10,2023-03-07,ヒカリ電業株式会社,,株式会社,兵庫県,加東市,大門２９４番地３,,28,228,6731445,,,2023-03-07,合併による解散等,2100001015489,令和５年３月１日長野県松本市大字笹賀７１１７番地１トレスエンジニアリング株式会社（2100001015489）に合併し解散,2015-10-05,1,,,,,ヒカリデンギョウ,0
1923,8330002026416,登記記録の閉鎖等,0,2023-03-10,2023-03-08,有限会社みずほ園芸,,有限会社,熊本県,八代市,郡築十二番町５番地,,43,202,8660001,,,2023-03-08,清算の結了等,,,2015-10-05,1,,,,,ミズホエンゲイ,0
1970,9010003022395,登記記録の閉鎖等,0,2023-03-10,2023-03-03,ＨＫＲＪ　Ｓｏｕｅｉ合同会社,,合同会社,東京都,千代田区,平河町１丁目６番１５号シルスフィア会計事務所内,,13,101,1020093,,,2023-03-03,清算の結了等,,,2015-10-05,1,,,,,エイチケーアールジェイソウエイ,0
1971,9010003025539,登記記録の閉鎖等,0,2023-03-10,2023-03-06,合同会社Ｅｘｃｅｅｄ　Ｗａｖｅ,,合同会社,東京都,文京区,関口１丁目６－９－１Ｆ．２Ｆ,,13,105,1120014,,,2023-03-06,清算の結了等,,,2017-06-21,1,,,,,エクシードウェーブ,0
1974,9010101013676,登記記録の閉鎖等,0,2023-03-10,2023-03-03,朝陽商事株式会社,,株式会社,東京都,八王子市,長房町４５０番地６１,,13,201,1930824,,,2023-03-03,清算の結了等,,,2019-04-09,1,,,,,アサヒショウジ,0
1979,9010401061235,登記記録の閉鎖等,0,2023-03-10,2023-02-28,株式会社ジャパンビデオ,,株式会社,東京都,港区,西新橋３丁目３番３号,,13,103,1050003,,,2023-02-28,合併による解散等,8010401054850,令和５年２月２８日東京都港区西新橋三丁目３番３号株式会社アルネット（8010401054850）に合併し解散,2015-10-05,1,,,,,ジャパンビデオ,0
2002,9011001068257,登記記録の閉鎖等,0,2023-03-10,2023-03-06,株式会社アルファブレーン,,株式会社,東京都,中央区,銀座１丁目２７番８号セントラルビル７０３号,,13,102,1040061,,,2023-03-06,清算の結了等,,,2015-10-05,1,,,,,アルファブレーン,0
2013,9011501016748,登記記録の閉鎖等,0,2023-03-10,2023-03-01,ファイブコム株式会社,,株式会社,東京都,北区,赤羽２丁目３番８－１４０９号,,13,117,1150045,,,2023-03-01,清算の結了等,,,2015-10-05,1,,,,,,0
2048,9021002070483,登記記録の閉鎖等,0,2023-03-10,2023-03-06,有限会社Ｋプランニング,,有限会社,神奈川県,横須賀市,根岸町２丁目２０番５号,,14,201,2390807,,,2023-03-06,清算の結了等,,,2015-10-05,1,,,,,ケープランニンング,0
2065,9040002001364,登記記録の閉鎖等,0,2023-03-10,2023-03-03,有限会社ウェイ,,有限会社,千葉県,千葉市緑区,おゆみ野５丁目１５番地３,,12,105,2660031,,,2023-03-03,清算の結了等,,,2015-10-05,1,,,,,ウェイ,0
2067,9040003007146,登記記録の閉鎖等,0,2023-03-10,2023-03-03,合同会社フラウスウス,,合同会社,千葉県,船橋市,葛飾町２丁目３８９－３－１０１,,12,204,2730032,,,2023-03-03,清算の結了等,,,2015-10-05,1,,,,,フラウスウス,0
2085,9080102009304,登記記録の閉鎖等,0,2023-03-10,2023-03-07,有限会社秋山店創,,有限会社,静岡県,田方郡函南町,塚本８３番地の２,,22,325,4190124,,,2023-03-07,清算の結了等,,,2015-10-05,1,,,,,アキヤマテンソウ,0
2096,9120001061599,登記記録の閉鎖等,0,2023-03-10,2023-03-08,大橋春日通商株式会社,,株式会社,大阪府,大阪市生野区,巽中１丁目１２番２４号コムプラザ巽中Ｂ－２号室,00028342,27,116,5440013,,,2023-03-08,清算の結了等,,,2015-10-05,1,,,,,,0
2098,9120001181307,登記記録の閉鎖等,0,2023-03-10,2023-03-07,株式会社ＰＲＯＴＥＣＴ－７,,株式会社,大阪府,大阪市北区,天神橋３丁目２番１９号,,27,127,5300041,,,2023-03-07,合併による解散等,6120901033519,令和５年３月１日大阪府吹田市朝日が丘町３４番７号株式会社ＰＲＯＴＥＣＴ‐７（6120901033519）に合併し解散,2015-10-05,1,,,,,,0
2111,9120003013417,登記記録の閉鎖等,0,2023-03-10,2023-03-06,合同会社ヒューマン・アイ,,合同会社,大阪府,守口市,馬場町３丁目４番１０号,,27,209,5700062,,,2023-03-06,清算の結了等,,,2017-10-16,1,,,,,ヒューマンアイ,0
2129,9140001099588,登記記録の閉鎖等,0,2023-03-10,2023-03-06,株式会社ディーバ,,株式会社,兵庫県,神戸市中央区,中町通３丁目１番１６号,,28,110,6500027,,,2023-03-06,清算の結了等,,,2015-10-05,1,,,,,ディーバ,0
2159,9250003000823,登記記録の閉鎖等,0,2023-03-10,2023-03-08,新下関通商合同会社,,合同会社,山口県,下関市,楠乃２丁目１３６９番地１,,35,201,7510804,,,2023-03-08,清算の結了等,,,2015-10-05,1,,,,,,0
2162,9270002008106,登記記録の閉鎖等,0,2023-03-10,2023-03-06,有限会社藤林工業,,有限会社,鳥取県,西伯郡日吉津村,大字日吉津４４７番地,,31,384,6893553,,,2023-03-06,清算の結了等,,,2015-10-05,1,,,,,フジバヤシコウギョウ,0
2174,9320005009847,登記記録の閉鎖等,0,2023-03-10,2023-03-03,一般社団法人移住の学校,,その他の設立登記法人,大分県,国東市,国東町治郎丸５９５１番地７,,44,214,8730512,,,2023-03-03,清算の結了等,,,2021-01-18,1,,,,,イジュウノガッコウ,0
2179,9350001010269,登記記録の閉鎖等,0,2023-03-10,2023-03-08,株式会社キャピタル・ワイ,,株式会社,宮崎県,西諸県郡高原町,大字西麓３４２１番地,,45,361,8894412,,,2023-03-08,清算の結了等,,,2015-10-05,1,,,,,キャピタルワイ,0
2180,9350002001151,登記記録の閉鎖等,0,2023-03-10,2023-03-07,有限会社川越商事,,有限会社,宮崎県,宮崎市,田野町甲５１７７番地１,,45,201,8891701,,,2023-03-07,清算の結了等,,,2015-10-05,1,,,,,カワゴエショウジ,0
2181,9350005002601,登記記録の閉鎖等,0,2023-03-10,2023-03-07,中堅生産森林組合,,その他の設立登記法人,宮崎県,東臼杵郡美郷町,西郷山三ケ２１６２番地,,45,431,8831100,,,2023-03-07,清算の結了等,,,2015-10-05,1,,,,,チュウケン,0
