sequenceNumber,corporateNumber,process,correct,updateDate,changeDate,name,nameImageId,kind,prefectureName,cityName,streetNumber,addressImageId,prefectureCode,cityCode,postCode,addressOutside,addressOutsideImageId,closeDate,closeCause,successorCorporateNumber,changeCause,assignmentDate,latest,enName,enPrefectureName,enCityName,enAddressOutside,furigana,hihyoji
1,1010001004106,登記記録の閉鎖等,0,2024-12-05,2024-11-25,株式会社星条商司,,株式会社,東京都,文京区,小石川４丁目１５番６－３０２号,,13,105,1120002,,,2024-11-25,清算の結了等,,,2015-10-05,1,,,,,セイジョウショウジ,0
15,1010003042145,登記記録の閉鎖等,0,2024-12-05,2024-11-25,合同会社ＦＴｇｅｎｅｒａｔｏｒ,,合同会社,東京都,中央区,銀座１丁目１２番４号Ｎ＆ＥＢＬＤ．６Ｆ,,13,102,1040061,,,2024-11-25,清算の結了等,,,2023-11-07,1,,,,,エフティージェネレータ,0
25,1010401152776,登記記録の閉鎖等,0,2024-12-05,2024-12-02,Ｍｔ　Ｆｌａｔ株式会社,,株式会社,東京都,杉並区,下井草５丁目１９－１５金子ビル３階,,13,115,1670022,,,2024-12-02,合併による解散等,8011301026650,令和６年１２月１日東京都杉並区下井草五丁目１９－１５金子ビル３階株式会社ｔｏｐｅｔ（8011301026650）に合併し解散,2020-05-27,1,,,,,エムティフラット,0
29,1010602000073,登記記録の閉鎖等,0,2024-12-05,2024-12-04,有限会社アトリエタミー,,有限会社,東京都,江東区,門前仲町１丁目９番３号,,13,108,1350048,,,2024-12-04,清算の結了等,,,2015-10-05,1,,,,,,0
54,1011801038111,登記記録の閉鎖等,0,2024-12-05,2024-12-04,ＳＰマネジメントジャパン株式会社,,株式会社,東京都,武蔵野市,境４丁目４番２９－１０１号桜橋ハイム,,13,203,1800022,,,2024-12-04,清算の結了等,,,2020-09-17,1,,,,,エスピーマネジメントジャパン,0
58,1012302000221,登記記録の閉鎖等,0,2024-12-05,2024-11-28,有限会社アンツ,,有限会社,東京都,町田市,成瀬台３丁目２８番１２号,,13,209,1940043,,,2024-11-28,清算の結了等,,,2015-10-05,1,,,,,アンツ,0
67,1020001101439,登記記録の閉鎖等,0,2024-12-05,2024-11-25,株式会社開蓮,,株式会社,神奈川県,川崎市宮前区,五所塚２丁目１５番５,,14,136,2160021,,,2024-11-25,清算の結了等,,,2015-10-05,1,,,,,カイレン,0
87,1030002021940,登記記録の閉鎖等,0,2024-12-05,2024-12-02,有限会社友伸モールド,,有限会社,埼玉県,さいたま市岩槻区,加倉１丁目８番１号,,11,110,3390056,,,2024-12-02,清算の結了等,,,2015-10-05,1,,,,,ユウシンモールド,0
89,1030002060856,登記記録の閉鎖等,0,2024-12-05,2024-12-02,有限会社オチアイ,,有限会社,埼玉県,新座市,野火止１丁目１２番２７号,,11,230,3520011,,,2024-12-02,合併による解散等,6011102001573,令和６年１１月２６日東京都新宿区歌舞伎町一丁目３番１１号株式会社梅村（6011102001573）に合併し解散,2015-10-05,1,,,,,オチアイ,0
114,1080001015476,登記記録の閉鎖等,0,2024-12-05,2024-12-02,旧大瀧重工株式会社,,株式会社,静岡県,焼津市,高新田２７７番地の６,,22,212,4210204,,,2024-12-02,清算の結了等,,,2015-10-05,1,,,,,キュウオオタキジュウコウ,0
119,1080401019969,登記記録の閉鎖等,0,2024-12-05,2024-12-02,株式会社ウィステリアフィールド,,株式会社,静岡県,浜松市中央区,小豆餅３丁目２１番１２号,,22,138,4338113,,,2024-12-02,合併による解散等,1080401000664,令和６年１２月１日静岡県浜松市中央区小豆餅三丁目２１番１２号株式会社うなぎ藤田浜松店（1080401000664）に合併し解散,2015-10-05,1,,,,,ウィステリアフィールド,0
123,1110001004021,登記記録の閉鎖等,0,2024-12-05,2024-11-29,新潟日通運輸株式会社,,株式会社,新潟県,新潟市西区,的場流通１丁目３番地１２,,15,107,9502032,,,2024-11-29,清算の結了等,,,2015-10-05,1,,,,,ニイガタニッツウウンユ,0
127,1120001024729,登記記録の閉鎖等,0,2024-12-05,2024-12-02,株式会社シーティー不動産,,株式会社,大阪府,大阪市浪速区,塩草３丁目１番２６号,,27,111,5560024,,,2024-12-02,合併による解散等,3120001039196,令和６年１２月１日大阪市浪速区難波中三丁目６番１５号株式会社シーティー三愛（3120001039196）に合併し解散,2015-10-05,1,,,,,シーティーフドウサン,0
129,1120001052052,登記記録の閉鎖等,0,2024-12-05,2024-12-02,株式会社新大阪自動車,,株式会社,大阪府,大阪市東淀川区,豊里４丁目１０番６号,,27,114,5330013,,,2024-12-02,清算の結了等,,,2015-10-05,1,,,,,シンオオサカジドウシャ,0
175,1140002018570,登記記録の閉鎖等,0,2024-12-05,2024-11-29,有限会社辻電通社,00040688,有限会社,兵庫県,神戸市西区,糀台４丁目１０番地の４７,,28,111,6512273,,,2024-11-29,清算の結了等,,,2015-10-05,1,,,,,ツジデンツウシャ,0
185,1160001021730,登記記録の閉鎖等,0,2024-12-05,2024-12-03,株式会社Ｄｅｅｐ　Ｅｍｏ,,株式会社,滋賀県,草津市,野路７丁目２０番２１号,,25,206,5250059,,,2024-12-03,清算の結了等,,,2019-06-11,1,,,,,ディープエモ,0
187,1160002009824,登記記録の閉鎖等,0,2024-12-05,2024-12-04,有限会社富士機工,,有限会社,滋賀県,東近江市,稲垂町５１８番地,,25,213,5291561,,,2024-12-04,清算の結了等,,,2015-10-05,1,,,,,フジキコウ,0
188,1180001013412,登記記録の閉鎖等,0,2024-12-05,2024-11-29,豊和紙工業株式会社,,株式会社,愛知県,名古屋市北区,西味鋺１丁目８０８番地,,23,103,4620016,,,2024-11-29,清算の結了等,,,2015-10-05,1,,,,,ホウワシコウギョウ,0
190,1180001084420,登記記録の閉鎖等,0,2024-12-05,2024-11-29,株式会社丸康鉄工所,,株式会社,愛知県,一宮市,西萩原字若宮前５０番地の１,,23,203,4940011,,,2024-11-29,清算の結了等,,,2015-10-05,1,,,,,マルヤステッコウショ,0
197,1240001040417,登記記録の閉鎖等,0,2024-12-05,2024-12-02,株式会社セイリョウ大阪,,株式会社,広島県,広島市西区,西観音町１６番１９号,,34,104,7330037,,,2024-12-02,合併による解散等,8240001018489,令和６年１２月１日広島市西区西観音町１６番１９号株式会社セイリョウ（8240001018489）に合併し解散,2015-10-05,1,,,,,セイリョウオオサカ,0
198,1240002002630,登記記録の閉鎖等,0,2024-12-05,2024-12-02,有限会社エムフクマ,,有限会社,広島県,広島市中区,本通３番５号,,34,101,7300035,,,2024-12-02,清算の結了等,,,2015-10-05,1,,,,,,0
212,1290802019233,登記記録の閉鎖等,0,2024-12-05,2024-12-03,有限会社戸田自動車,,有限会社,福岡県,北九州市若松区,大字蜑住９９０番地１１,,40,103,8080122,,,2024-12-03,清算の結了等,,,2015-10-05,1,,,,,トダジドウシャ,0
217,1320002019071,登記記録の閉鎖等,0,2024-12-05,2024-12-02,有限会社小林鮮魚店,,有限会社,大分県,日田市,城町２丁目８番４６号,,44,204,8770004,,,2024-12-02,清算の結了等,,,2015-10-05,1,,,,,コバヤシセンギョテン,0
219,1330001014667,登記記録の閉鎖等,0,2024-12-05,2024-11-29,株式会社裕笑店,,株式会社,熊本県,熊本市北区,山室３丁目３番５号,,43,105,8600084,,,2024-11-29,清算の結了等,,,2015-10-05,1,,,,,ユタカショウテン,0
221,1330002015383,登記記録の閉鎖等,0,2024-12-05,2024-12-02,有限会社アグリーナ,,有限会社,熊本県,熊本市東区,小峯３丁目５番９０号,,43,102,8620933,,,2024-12-02,清算の結了等,,,2015-10-05,1,,,,,アグリーナ,0
227,1350001013378,登記記録の閉鎖等,0,2024-12-05,2024-12-03,株式会社ＲＥＡＬ,,株式会社,宮崎県,都城市,年見町８号７番地,,45,202,8850017,,,2024-12-03,清算の結了等,,,2015-10-05,1,,,,,リアル,0
235,1380002012995,登記記録の閉鎖等,0,2024-12-05,2024-11-22,有限会社吉田酒店,,有限会社,福島県,郡山市,方八町２丁目１９番１９号,,07,203,9638811,,,2024-11-22,清算の結了等,,,2015-10-05,1,,,,,ヨシダサケテン,0
243,1430001039415,登記記録の閉鎖等,0,2024-12-05,2024-12-02,北成水産株式会社,,株式会社,北海道,札幌市中央区,北五条西２７丁目１番２０－１４０１号,,01,101,0640825,,,2024-12-02,清算の結了等,,,2015-10-05,1,,,,,ホクセイスイサン,0
249,1460102006195,登記記録の閉鎖等,0,2024-12-05,2024-12-02,有限会社新町自動車ボデー,,有限会社,北海道,中川郡本別町,新町１４番地７,,01,646,0893324,,,2024-12-02,清算の結了等,,,2015-10-05,1,,,,,シンマチジドウシャボデー,0
258,2010001038870,登記記録の閉鎖等,0,2024-12-05,2024-11-18,株式会社江口商店,,株式会社,東京都,中央区,日本橋浜町１丁目６番５号,,13,102,1030007,,,2024-11-18,清算の結了等,,,2015-10-05,1,,,,,エグチショウテン,0
271,2010005032944,登記記録の閉鎖等,0,2024-12-05,2024-12-02,常総東特定目的会社,,その他の設立登記法人,東京都,港区,元赤坂１丁目１番８号株式会社赤坂国際会計内,,13,103,1070051,,,2024-12-02,清算の結了等,,,2021-02-15,1,,,,,ジョウソウヒガシ,0
274,2010401139442,登記記録の閉鎖等,0,2024-12-05,2024-11-11,株式会社Ｌｉｇｈｔｈｏｕｓｅ,,株式会社,東京都,渋谷区,渋谷２丁目１９－１５宮益坂ビルディング６０９,,13,113,1500002,,,2024-11-11,清算の結了等,,,2018-07-06,1,,,,,ライトハウス,0
278,2010501020766,登記記録の閉鎖等,0,2024-12-05,2024-11-29,株式会社サン・スペース,,株式会社,東京都,台東区,雷門２丁目１９番１７号,,13,106,1110034,,,2024-11-29,清算の結了等,,,2015-10-05,1,,,,,サンスペース,0
317,2012402013808,登記記録の閉鎖等,0,2024-12-05,2024-12-04,有限会社メツセゾン,,有限会社,東京都,狛江市,和泉本町１丁目１０番１号,,13,219,2010003,,,2024-12-04,清算の結了等,,,2015-10-05,1,,,,,メツセゾン,0
329,2021001055756,登記記録の閉鎖等,0,2024-12-05,2024-12-02,丸越工具ホールディングス株式会社,,株式会社,神奈川県,平塚市,平塚２丁目４９番１３号,,14,203,2540052,,,2024-12-02,合併による解散等,4021001037372,令和６年１２月１日神奈川県平塚市平塚二丁目４９番１３号株式会社丸越工具（4021001037372）に合併し解散,2015-10-05,1,,,,,,0
334,2030001072975,登記記録の閉鎖等,0,2024-12-05,2024-12-02,要パック株式会社,,株式会社,埼玉県,越谷市,大字砂原１０５７番地１,,11,222,3430803,,,2024-12-02,清算の結了等,,,2015-10-05,1,,,,,カナメパック,0
357,2110001015372,登記記録の閉鎖等,0,2024-12-05,2024-11-29,株式会社イタヤ,,株式会社,新潟県,南蒲原郡田上町,大字田上丙９１０番地１,,15,361,9591502,,,2024-11-29,清算の結了等,,,2015-10-05,1,,,,,イタヤ,0
359,2120001027276,登記記録の閉鎖等,0,2024-12-05,2024-12-03,株式会社加藤義商店,,株式会社,大阪府,大阪市大正区,泉尾４丁目１３番１３号,,27,108,5510031,,,2024-12-03,清算の結了等,,,2015-10-05,1,,,,,カトウヨシショウテン,0
362,2120001119908,登記記録の閉鎖等,0,2024-12-05,2024-12-02,株式会社シーティー,,株式会社,大阪府,大阪市浪速区,塩草３丁目１番２６号,,27,111,5560024,,,2024-12-02,合併による解散等,3120001039196,令和６年１２月１日大阪市浪速区難波中三丁目６番１５号株式会社シーティー三愛（3120001039196）に合併し解散,2015-10-05,1,,,,,シーティー,0
376,2120102020881,登記記録の閉鎖等,0,2024-12-05,2024-12-02,有限会社大野商店,,有限会社,大阪府,岸和田市,中井町１丁目２０番２５号,,27,202,5960003,,,2024-12-02,清算の結了等,,,2015-10-05,1,,,,,オオノショウテン,0
381,2122001000238,登記記録の閉鎖等,0,2024-12-05,2024-12-03,株式会社朝日螺旋鋲製作所,,株式会社,大阪府,東大阪市,花園本町２丁目１０番２３号,,27,227,5780937,,,2024-12-03,清算の結了等,,,2015-10-05,1,,,,,アサヒラセンビョウセイサクショ,0
392,2130005011416,登記記録の閉鎖等,0,2024-12-05,2024-12-02,特定非営利活動法人二人を結ぶ親の集い,,その他の設立登記法人,京都府,京丹後市,大宮町口大野１８８３番地,,26,212,6292501,,,2024-12-02,清算の結了等,,,2015-10-05,1,,,,,フタリヲムスブオヤノツドイ,0
413,2180003024068,登記記録の閉鎖等,0,2024-12-05,2024-11-29,合同会社Ｂｅａｕｔｙ　Ｓｔｕｄｉｏ　Ｃｉｅｌ,,合同会社,愛知県,名古屋市中川区,元中野町２丁目１４５番地,,23,110,4540048,,,2024-11-29,清算の結了等,,,2022-07-25,1,,,,,ビューティースタジオシエル,0
429,2250001010987,登記記録の閉鎖等,0,2024-12-05,2024-12-03,このみ株式会社,,株式会社,山口県,周南市,桜馬場通１丁目２０番地,,35,215,7450011,,,2024-12-03,清算の結了等,,,2015-10-05,1,,,,,コノミ,0
440,2290801006347,登記記録の閉鎖等,0,2024-12-05,2024-12-03,株式会社西日本セラシステム,,株式会社,福岡県,北九州市小倉北区,霧ケ丘３丁目８番１３号,,40,106,8020052,,,2024-12-03,清算の結了等,,,2015-10-05,1,,,,,ニシニホンセラシステム,0
465,2430003010323,登記記録の閉鎖等,0,2024-12-05,2024-12-02,合同会社アクセスリサーチ,,合同会社,北海道,札幌市南区,南沢四条４丁目８番１７号,,01,106,0050824,,,2024-12-02,合併による解散等,6430003012654,令和６年１２月１日札幌市南区南沢四条四丁目８番１７号合同会社アクセスネオ（6430003012654）に合併し解散,2019-04-08,1,,,,,アクセスリサーチ,0
466,2440001008830,登記記録の閉鎖等,0,2024-12-05,2024-12-02,株式会社Ｎ’ｓリノベーション,,株式会社,北海道,函館市,西桔梗町５８９番地の２７２,,01,202,0410824,,,2024-12-02,清算の結了等,,,2021-02-04,1,,,,,エヌエスリノベーション,0
469,2470002012572,登記記録の閉鎖等,0,2024-12-05,2024-11-29,有限会社かまだ衣料店,,有限会社,香川県,仲多度郡多度津町,仲ノ町７番３２号,,37,404,7640004,,,2024-11-29,清算の結了等,,,2015-10-05,1,,,,,カマダイリョウテン,0
473,2490002010888,登記記録の閉鎖等,0,2024-12-05,2024-12-03,有限会社武田金草堂薬局,,有限会社,高知県,高岡郡四万十町,北琴平町１番５号,,39,412,7860012,,,2024-12-03,清算の結了等,,,2015-10-05,1,,,,,タケダキンソウドウヤッキョク,0
486,3010001155054,登記記録の閉鎖等,0,2024-12-05,2024-11-21,トライディア株式会社,,株式会社,東京都,千代田区,岩本町３丁目２番２－１２０３号,,13,101,1010032,,,2024-11-21,清算の結了等,,,2015-10-05,1,,,,,トライディア,0
488,3010001220535,登記記録の閉鎖等,0,2024-12-05,2024-11-21,ＡｉＭＳ株式会社,,株式会社,東京都,中央区,銀座４丁目１３番１１号松竹倶楽部ビル９階,,13,102,1040061,,,2024-11-21,清算の結了等,,,2021-08-19,1,,,,,アイムス,0
493,3010003041252,登記記録の閉鎖等,0,2024-12-05,2024-11-22,合同会社ｔｏｍａｒｉ,,合同会社,東京都,中央区,日本橋室町１丁目１１番１２号７階,,13,102,1030022,,,2024-11-22,清算の結了等,,,2023-08-03,1,,,,,トマリ,0
494,3010005037331,登記記録の閉鎖等,0,2024-12-05,2024-12-02,エスティヨコハマ一般社団法人,,その他の設立登記法人,東京都,千代田区,丸の内３丁目１番１号東京共同会計事務所内,,13,101,1000005,,,2024-12-02,清算の結了等,,,2023-10-05,1,,,,,エスティヨコハマ,0
495,3010005037521,登記記録の閉鎖等,0,2024-12-05,2024-12-02,エスティコアミ一般社団法人,,その他の設立登記法人,東京都,千代田区,丸の内３丁目１番１号東京共同会計事務所内,,13,101,1000005,,,2024-12-02,清算の結了等,,,2023-11-14,1,,,,,エスティコアミ,0
503,3010403033568,登記記録の閉鎖等,0,2024-12-05,2024-11-26,合同会社ＴＴコーポレーション３,,合同会社,東京都,港区,白金台３丁目２番３４号,,13,103,1080071,,,2024-11-26,合併による解散等,6010403028648,令和６年１１月２６日東京都港区白金台三丁目２番３４号株式会社ＴＴコーポレーション（6010403028648）に合併し解散,2024-10-04,1,,,,,ティーティーコーポレーションスリー,0
544,3020001003146,登記記録の閉鎖等,0,2024-12-05,2024-11-25,東洋石材株式会社,,株式会社,神奈川県,横浜市磯子区,森が丘１丁目２１番１号,,14,107,2350024,,,2024-11-25,清算の結了等,,,2015-10-05,1,,,,,トウヨウセキザイ,0
546,3020001052424,登記記録の閉鎖等,0,2024-12-05,2024-11-28,株式会社Ｗｏｒｌｄ　Ｇｅｍ,,株式会社,神奈川県,横浜市中区,山下町１５０番地更生堂薬局ビル３階,,14,104,2310023,,,2024-11-28,清算の結了等,,,2015-10-05,1,,,,,ワールドジェム,0
559,3020002023110,登記記録の閉鎖等,0,2024-12-05,2024-11-26,有限会社市川印刷,,有限会社,神奈川県,横浜市保土ケ谷区,西谷３丁目４番３号,,14,106,2400054,,,2024-11-26,清算の結了等,,,2015-10-05,1,,,,,イチカワインサツ,0
562,3020002078781,登記記録の閉鎖等,0,2024-12-05,2024-11-25,有限会社関野工業,,有限会社,神奈川県,横浜市鶴見区,矢向３丁目２５番１６号サンエイハイツＩＩ４０２号室,00011369,14,101,2300001,,,2024-11-25,清算の結了等,,,2015-10-05,1,,,,,,0
567,3020005010584,登記記録の閉鎖等,0,2024-12-05,2024-11-25,ＮＰＯ法人フーズマイルぐりぐら,,その他の設立登記法人,神奈川県,横浜市港北区,菊名３丁目１０－４６,,14,109,2220011,,,2024-11-25,清算の結了等,,,2015-10-05,1,,,,,フーズマイルグリグラ,0
580,3030001116954,登記記録の閉鎖等,0,2024-12-05,2024-12-03,暁建設株式会社,,株式会社,埼玉県,新座市,栄５丁目３番４号,,11,230,3520014,,,2024-12-03,清算の結了等,,,2016-10-28,1,,,,,アカツキケンセツ,0
583,3030002084283,登記記録の閉鎖等,0,2024-12-05,2024-12-02,有限会社季節農材,,有限会社,埼玉県,鴻巣市,ひばり野２丁目２３番５号,,11,217,3650031,,,2024-12-02,清算の結了等,,,2015-10-05,1,,,,,トキノウザイ,0
590,3050001033280,登記記録の閉鎖等,0,2024-12-05,2024-11-29,株式会社日本総研,,株式会社,茨城県,筑西市,成田２２２番地の２,,08,227,3080821,,,2024-11-29,清算の結了等,,,2015-10-05,1,,,,,ニホンソウケン,0
598,3060001007366,登記記録の閉鎖等,0,2024-12-05,2024-12-02,株式会社でるでる,,株式会社,栃木県,宇都宮市,宿郷３丁目５番２３号,,09,201,3210945,,,2024-12-02,合併による解散等,4060002003066,令和６年１２月１日栃木県宇都宮市大和二丁目１２番５６号株式会社キング商会（4060002003066）に合併し解散,2015-10-05,1,,,,,デルデル,0
602,3070002028690,登記記録の閉鎖等,0,2024-12-05,2024-11-28,有限会社金子電化サービス,,有限会社,群馬県,太田市,新田市野井町１４番地の５,,10,205,3700314,,,2024-11-28,清算の結了等,,,2015-10-05,1,,,,,カネコデンカサービス,0
605,3080102019374,登記記録の閉鎖等,0,2024-12-05,2024-11-29,稲久商事有限会社,,有限会社,静岡県,伊東市,八幡野６９４番地,,22,208,4130232,,,2024-11-29,清算の結了等,,,2015-10-05,1,,,,,イナキュウショウジ,0
607,3080405006433,登記記録の閉鎖等,0,2024-12-05,2024-11-29,特定非営利活動法人みらいアース,,その他の設立登記法人,静岡県,袋井市,愛野南２丁目３番地の１１クロシュイット１Ｆ,,22,216,4370040,,,2024-11-29,清算の結了等,,,2015-10-05,1,,,,,ミライアース,0
619,3120001132562,登記記録の閉鎖等,0,2024-12-05,2024-12-02,株式会社ワンダーランド,,株式会社,大阪府,大阪市福島区,福島６丁目９番１１号,,27,103,5530003,,,2024-12-02,合併による解散等,7120001145536,令和６年１２月１日大阪市福島区福島六丁目９番１１号株式会社嶋村（7120001145536）に合併し解散,2015-10-05,1,,,,,ワンダーランド,0
622,3120001173672,登記記録の閉鎖等,0,2024-12-05,2024-12-03,株式会社プロビット,,株式会社,大阪府,大阪市中央区,谷町３丁目４番２号,,27,128,5400012,,,2024-12-03,清算の結了等,,,2015-10-05,1,,,,,プロビット,0
625,3120001233658,登記記録の閉鎖等,0,2024-12-05,2024-12-02,エコノハプラス株式会社,,株式会社,大阪府,大阪市西区,新町１丁目６番２３号,,27,106,5500013,,,2024-12-02,合併による解散等,4120001192457,令和６年１２月１日大阪市西区新町一丁目６番２３号エコノハキャリア株式会社（4120001192457）に合併し解散,2020-12-07,1,,,,,エコノハプラス,0
626,3120001240670,登記記録の閉鎖等,0,2024-12-05,2024-12-03,株式会社袴田カンテラフーズ,,株式会社,大阪府,大阪市天王寺区,石ケ辻町７番１３号,00128711,27,109,5430031,,,2024-12-03,合併による解散等,2150001024675,令和６年１１月２７日奈良県生駒市谷田町８５１番地１株式会社大和賛菓（2150001024675）に合併し解散,2021-09-30,1,,,,,ハカマダカンテラフーズ,0
633,3120003010997,登記記録の閉鎖等,0,2024-12-05,2024-12-03,Ｄｏ－Ｓｔｅｐ合同会社,,合同会社,大阪府,大阪市城東区,今福東１丁目９番１６号今福センタービル２階,,27,118,5360002,,,2024-12-03,清算の結了等,,,2015-10-05,1,,,,,ドゥーステップ,0
666,3180001003469,登記記録の閉鎖等,0,2024-12-05,2024-11-29,株式会社今池飲料,,株式会社,愛知県,名古屋市千種区,千種３丁目２７番２３号,,23,101,4640858,,,2024-11-29,清算の結了等,,,2021-04-19,1,,,,,イマイケインリョウ,0
674,3180301035294,登記記録の閉鎖等,0,2024-12-05,2024-11-29,Ｃｏａｔ‐Ｘ　Ｊａｐａｎ株式会社,,株式会社,愛知県,新城市,有海字丸山１番地の２,,23,221,4411317,,,2024-11-29,清算の結了等,,,2021-08-30,1,,,,,コートエックスジャパン,0
683,3230002005756,登記記録の閉鎖等,0,2024-12-05,2024-12-03,有限会社コウブ・アイ,,有限会社,富山県,富山市,石金２丁目４番８号,,16,201,9300966,,,2024-12-03,清算の結了等,,,2015-10-05,1,,,,,コウブアイ,0
690,3250002016116,登記記録の閉鎖等,0,2024-12-05,2024-11-29,有限会社タナカ事務所,,有限会社,山口県,周南市,梅園町２丁目４６番地,,35,215,7450076,,,2024-11-29,清算の結了等,,,2015-10-05,1,,,,,タナカジムショ,0
701,3290801007443,登記記録の閉鎖等,0,2024-12-05,2024-12-03,株式会社思永コミュニティサービス,,株式会社,福岡県,北九州市小倉北区,米町２丁目２番１号,,40,106,8020003,,,2024-12-03,清算の結了等,,,2015-10-05,1,,,,,シエイコミュニティサービス,0
707,3340001026362,登記記録の閉鎖等,0,2024-12-05,2024-12-02,Ｎマネジメント株式会社,,株式会社,鹿児島県,鹿児島市,中央町１９番４０ザ・パークハウス鹿児島中央タワー１６０８,,46,201,8900053,,,2024-12-02,合併による解散等,1340001010905,令和６年１２月１日鹿児島市下荒田二丁目４番７　１Ｆナンエイ商事株式会社（1340001010905）に合併し解散,2024-03-18,1,,,,,エヌマネジメント,0
719,3380002008430,登記記録の閉鎖等,0,2024-12-05,2024-12-03,有限会社大和田板金工業所,,有限会社,福島県,郡山市,田村町御代田字外城６番地の１,,07,203,9631164,,,2024-12-03,清算の結了等,,,2015-10-05,1,,,,,オオワダバンキンコウギョウショ,0
738,3430002055228,登記記録の閉鎖等,0,2024-12-05,2024-11-29,有限会社北海道新聞小泉販売所,,有限会社,北海道,小樽市,松ケ枝１丁目８番２号,,01,203,0470022,,,2024-11-29,清算の結了等,,,2015-10-05,1,,,,,ホッカイドウシンブンコイズミハンバイジョ,0
739,3430005004826,登記記録の閉鎖等,0,2024-12-05,2024-12-02,株式会社チエル,,株式会社,北海道,北広島市,輪厚４３１番地３,,01,234,0611264,,,2024-12-02,合併による解散等,9430001033427,令和６年１１月３０日北海道北広島市輪厚４３１番地３株式会社エルム観光バス（9430001033427）に合併し解散,2015-10-05,1,,,,,チエル,0
743,3470001017448,登記記録の閉鎖等,0,2024-12-05,2024-12-02,株式会社鳥飼企画,,株式会社,香川県,高松市,松縄町１０５０番地１２,,37,201,7600079,,,2024-12-02,清算の結了等,,,2019-05-14,1,,,,,トリカイキカク,0
745,3470002008735,登記記録の閉鎖等,0,2024-12-05,2024-12-02,有限会社天雲建材,,有限会社,香川県,高松市,西宝町１丁目１０番２２号,,37,201,7600004,,,2024-12-02,清算の結了等,,,2015-10-05,1,,,,,テンクモケンザイ,0
746,3470005002108,登記記録の閉鎖等,0,2024-12-05,2024-12-02,特定非営利活動法人香川県料理研究会讃岐倶楽部,,その他の設立登記法人,香川県,高松市,松縄町５０番地２１,,37,201,7600079,,,2024-12-02,清算の結了等,,,2015-10-05,1,,,,,カガワケンリョウリケンキュウカイサヌキクラブ,0
778,4010603007057,登記記録の閉鎖等,0,2024-12-05,2024-12-04,合同会社エムアンドエム,,合同会社,東京都,江東区,北砂３丁目３２番１６号,,13,108,1360073,,,2024-12-04,清算の結了等,,,2018-01-10,1,,,,,,0
780,4010701008519,登記記録の閉鎖等,0,2024-12-05,2024-12-02,株式会社富貴食品,,株式会社,東京都,品川区,東品川２丁目２番２４号,,13,109,1400002,,,2024-12-02,合併による解散等,5010901040353,令和６年１２月１日東京都品川区上大崎一丁目１２番１７号株式会社貴栄（5010901040353）に合併し解散,2015-10-05,1,,,,,フキショクヒン,0
811,4011103012407,登記記録の閉鎖等,0,2024-12-05,2024-11-29,合同会社ジェイ・イー・エー,,合同会社,東京都,新宿区,下宮比町１番４号,,13,104,1620822,,,2024-11-29,清算の結了等,,,2022-11-22,1,,,,,ジェイイーエー,0
826,4012302003345,登記記録の閉鎖等,0,2024-12-05,2024-11-26,有限会社ドリームワン,,有限会社,東京都,町田市,森野５丁目２１番１号,,13,209,1940022,,,2024-11-26,清算の結了等,,,2015-10-05,1,,,,,ドリームワン,0
856,4030001000199,登記記録の閉鎖等,0,2024-12-05,2024-12-02,株式会社さいたま東製作所,,株式会社,埼玉県,さいたま市緑区,大字大門１７５７番地５,,11,109,3360963,,,2024-12-02,清算の結了等,,,2015-10-05,1,,,,,サイタマヒガシセイサクショ,0
865,4030003021904,登記記録の閉鎖等,0,2024-12-05,2024-12-02,合同会社ＥｄｕＩＴ,,合同会社,埼玉県,さいたま市緑区,美園１丁目２６番地１ミルトヴィレッジ１－２０３号,,11,109,3360967,,,2024-12-02,清算の結了等,,,2023-06-09,1,,,,,エデゥット,0
893,4080001025828,登記記録の閉鎖等,0,2024-12-05,2024-12-02,梅屋清兵衛株式会社,,株式会社,静岡県,静岡市駿河区,中原３５４番地スカイヤード中原１０３号,,22,102,4228058,,,2024-12-02,清算の結了等,,,2023-08-31,1,,,,,ウメヤセイベイ,0
895,4080005001081,登記記録の閉鎖等,0,2024-12-05,2024-11-29,静岡米穀販売協同組合,,その他の設立登記法人,静岡県,静岡市葵区,音羽町１４番１１号,,22,101,4200834,,,2024-11-29,清算の結了等,,,2015-10-05,1,,,,,シズオカベイコクハンバイ,0
897,4080102000911,登記記録の閉鎖等,0,2024-12-05,2024-11-29,有限会社カヌキ自動車整備工場,,有限会社,静岡県,沼津市,本郷町１番１６号,,22,203,4100817,,,2024-11-29,清算の結了等,,,2015-10-05,1,,,,,カヌキジドウシャセイビコウジョウ,0
917,4120001137726,登記記録の閉鎖等,0,2024-12-05,2024-12-02,株式会社プライムセールスプロモーション,,株式会社,大阪府,大阪市中央区,北浜２丁目１番９－１５０８号,,27,128,5410041,,,2024-12-02,清算の結了等,,,2015-10-05,1,,,,,プライムセールスプロモーション,0
918,4120001145860,登記記録の閉鎖等,0,2024-12-05,2024-12-02,株式会社京楽,,株式会社,大阪府,大阪市中央区,東心斎橋１丁目６番３０号,,27,128,5420083,,,2024-12-02,清算の結了等,,,2015-10-05,1,,,,,キョウラク,0
942,4140001014683,登記記録の閉鎖等,0,2024-12-05,2024-11-27,日本タクシー株式会社,,株式会社,兵庫県,神戸市兵庫区,松原通５丁目１番９号,,28,105,6520881,,,2024-11-27,清算の結了等,,,2015-10-05,1,,,,,ニホンタクシー,0
964,4180002041327,登記記録の閉鎖等,0,2024-12-05,2024-11-28,有限会社木村製作所,,有限会社,愛知県,名古屋市守山区,小幡北１３５０番地,,23,113,4630008,,,2024-11-28,清算の結了等,,,2015-10-05,1,,,,,キムラセイサクショ,0
976,4240001015176,登記記録の閉鎖等,0,2024-12-05,2024-12-02,株式会社アルフォックス,,株式会社,広島県,広島市中区,中町３番１１号,,34,101,7300037,,,2024-12-02,清算の結了等,,,2015-10-05,1,,,,,アルフォックス,0
987,4320001017313,登記記録の閉鎖等,0,2024-12-05,2024-12-02,株式会社ＴＡＢ,,株式会社,大分県,宇佐市,貴船町２丁目１２番地の１０,,44,211,8720042,,,2024-12-02,清算の結了等,,,2019-10-03,1,,,,,ティーエイビー,0
1003,4380001029559,登記記録の閉鎖等,0,2024-12-05,2024-11-26,株式会社エナジーみらい,,株式会社,福島県,郡山市,富田町字鍛冶田１０番地の１,,07,203,9638041,,,2024-11-26,清算の結了等,,,2018-11-06,1,,,,,エナジーミライ,0
1009,4410003003599,登記記録の閉鎖等,0,2024-12-05,2024-12-02,合同会社畠山建設,,合同会社,秋田県,仙北郡美郷町,六郷東根字上関田１７２番地２,,05,434,0191403,,,2024-12-02,清算の結了等,,,2022-01-07,1,,,,,ハタケヤマケンセツ,0
1010,4420001005472,登記記録の閉鎖等,0,2024-12-05,2024-12-02,株式会社千一ちんだ,,株式会社,青森県,青森市,長島１丁目６番４号,,02,201,0300861,,,2024-12-02,清算の結了等,,,2015-10-05,1,,,,,センイチチンダ,0
1017,4500002021378,登記記録の閉鎖等,0,2024-12-05,2024-12-02,有限会社守屋工業,,有限会社,愛媛県,四国中央市,上柏町９１４番地の４,,38,213,7990412,,,2024-12-02,清算の結了等,,,2015-10-05,1,,,,,モリヤコウギョウ,0
1018,4500005008653,登記記録の閉鎖等,0,2024-12-05,2024-11-28,ＮＰＯ法人しあわせみらいビレッジ,,その他の設立登記法人,愛媛県,松山市,磯河内甲５８８番地,,38,201,7992467,,,2024-11-28,清算の結了等,,,2023-11-15,1,,,,,シアワセミライビレッジ,0
1041,5010401106398,登記記録の閉鎖等,0,2024-12-05,2024-11-08,株式会社ポルトフィーノ,,株式会社,東京都,渋谷区,神宮前５丁目８番１号,,13,113,1500001,,,2024-11-08,清算の結了等,,,2015-10-05,1,,,,,ポルトフィーノ,0
1046,5010405019729,登記記録の閉鎖等,0,2024-12-05,2024-11-19,一般社団法人Ｔｈｉｎｋ　ｔｒｕｅ　ｂｌｕｅ,,その他の設立登記法人,東京都,港区,南麻布５丁目１番３６号,,13,103,1060047,,,2024-11-19,清算の結了等,,,2021-04-27,1,,,,,シンクトゥルーブルー,0
1065,5011402007593,登記記録の閉鎖等,0,2024-12-05,2024-12-02,有限会社平山製作所,,有限会社,東京都,板橋区,大原町３７番２号,,13,119,1740061,,,2024-12-02,清算の結了等,,,2015-10-05,1,,,,,ヒラヤマセイサクショ,0
1068,5011801006576,登記記録の閉鎖等,0,2024-12-05,2024-12-03,株式会社太田工業所,,株式会社,東京都,足立区,花畑６丁目８番２０号,,13,121,1210061,,,2024-12-03,清算の結了等,,,2015-10-05,1,,,,,オオタコウギョウショ,0
1129,5070001026859,登記記録の閉鎖等,0,2024-12-05,2024-12-02,株式会社Ｐｕ’ｕｈｏｎｕａ,,株式会社,群馬県,高崎市,矢島町７４２番地１,,10,202,3700016,,,2024-12-02,合併による解散等,6070001024911,令和６年１２月１日群馬県高崎市浜尻町９４２番１株式会社メディカルサポート（6070001024911）に合併し解散,2015-10-05,1,,,,,プウホヌア,0
1141,5120001002706,登記記録の閉鎖等,0,2024-12-05,2024-12-02,山田金属工業株式会社,,株式会社,大阪府,大阪市鶴見区,放出東１丁目１１番４号,,27,124,5380044,,,2024-12-02,清算の結了等,,,2015-10-05,1,,,,,ヤマダキンゾクコウギョウ,0
1148,5120001244661,登記記録の閉鎖等,0,2024-12-05,2024-12-02,株式会社ランパート,,株式会社,大阪府,大阪市北区,大深町３－４０,,27,127,5300011,,,2024-12-02,清算の結了等,,,2022-03-28,1,,,,,ランパート,0
1153,5120002047122,登記記録の閉鎖等,0,2024-12-05,2024-12-02,有限会社ワンダーランドベーシック,,有限会社,大阪府,大阪市福島区,福島６丁目９番１１号神林堂ビル３Ｆ,,27,103,5530003,,,2024-12-02,合併による解散等,7120001145536,令和６年１２月１日大阪市福島区福島六丁目９番１１号株式会社嶋村（7120001145536）に合併し解散,2015-10-05,1,,,,,ワンダーランドベーシック,0
1163,5120103002810,登記記録の閉鎖等,0,2024-12-05,2024-12-02,合同会社八起,,合同会社,大阪府,泉南郡岬町,淡輪３７４３－２０３,,27,366,5990301,,,2024-12-02,清算の結了等,,,2017-08-09,1,,,,,ヤオキ,0
1170,5122002010480,登記記録の閉鎖等,0,2024-12-05,2024-12-02,有限会社レプロワーク,,有限会社,大阪府,東大阪市,若江東町６丁目４番２５号,,27,227,5780935,,,2024-12-02,清算の結了等,,,2015-10-05,1,,,,,レプロワーク,0
1171,5130001071840,登記記録の閉鎖等,0,2024-12-05,2024-12-03,株式会社宝風,,株式会社,京都府,京丹後市,峰山町杉谷１０７番地の乙コーポラスＴ１０５号,,26,212,6270012,,,2024-12-03,清算の結了等,,,2022-05-27,1,,,,,ホウフウ,0
1185,5180001088252,登記記録の閉鎖等,0,2024-12-05,2024-11-28,株式会社ウィーズ中部,,株式会社,愛知県,一宮市,八町通２丁目６番地１（２階）,,23,203,4910844,,,2024-11-28,合併による解散等,6030001066965,令和６年１１月１日埼玉県北葛飾郡松伏町築比地７９５番地１株式会社ウィーズ（6030001066965）に合併し解散,2015-10-05,1,,,,,ウィーズチュウブ,0
1195,5190002018678,登記記録の閉鎖等,0,2024-12-05,2024-12-02,有限会社金城園,,有限会社,三重県,いなべ市,員弁町大泉新田１０２８番地,,24,214,5110217,,,2024-12-02,清算の結了等,,,2015-10-05,1,,,,,キンジョウエン,0
1204,5220001020763,登記記録の閉鎖等,0,2024-12-05,2024-12-02,株式会社仁智,,株式会社,石川県,金沢市,梅田町イ３９番地１,,17,201,9203111,,,2024-12-02,合併による解散等,6220001002439,令和６年１１月３０日石川県金沢市伏見台一丁目１３番２３号協和道路株式会社（6220001002439）に合併し解散,2016-01-13,1,,,,,ジンチ,0
1206,5230002002710,登記記録の閉鎖等,0,2024-12-05,2024-12-03,有限会社野城工務店,,有限会社,富山県,富山市,中沖７５１番地,,16,201,9300101,,,2024-12-03,清算の結了等,,,2015-10-05,1,,,,,ノジロコウムテン,0
1215,5260001037993,登記記録の閉鎖等,0,2024-12-05,2024-11-26,株式会社ＫＥＴＯＲＵＺ,,株式会社,岡山県,岡山市北区,柳町２丁目１１番２０号,,33,101,7000904,,,2024-11-26,清算の結了等,,,2023-06-07,1,,,,,ケトルズ,0
1229,5320001016727,登記記録の閉鎖等,0,2024-12-05,2024-12-02,藤雄運輸株式会社,,株式会社,佐賀県,鳥栖市,西新町１４２２番地２９３,,41,203,8410074,,,2024-12-02,清算の結了等,,,2018-11-30,1,,,,,フジオウンユ,0
1261,5500002008903,登記記録の閉鎖等,0,2024-12-05,2024-12-03,有限会社教育指導センター,,有限会社,愛媛県,伊予市,灘町２１５番地１スカイフォレスト４０２号,,38,210,7993114,,,2024-12-03,清算の結了等,,,2015-10-05,1,,,,,キョウイクシドウセンター,0
1263,5500005007679,登記記録の閉鎖等,0,2024-12-05,2024-11-28,ＮＰＯ法人ささえあいの会,,その他の設立登記法人,愛媛県,宇和島市,堀端町１番５５号,,38,203,7980050,,,2024-11-28,清算の結了等,,,2015-10-05,1,,,,,ササエアイノカイ,0
1283,6010005030548,登記記録の閉鎖等,0,2024-12-05,2024-12-02,一般社団法人日本ラーメンを世界に広める会,,その他の設立登記法人,東京都,中央区,日本橋本町１丁目１番８号ＫＤＸ新日本橋ビル,,13,102,1030023,,,2024-12-02,清算の結了等,,,2019-08-02,1,,,,,ニホンラーメンヲセカイニヒロメルカイ,0
1286,6010101014768,登記記録の閉鎖等,0,2024-12-05,2024-12-03,株式会社エムディプラス,,株式会社,東京都,八王子市,高倉町５番地５,,13,201,1920033,,,2024-12-03,清算の結了等,,,2021-07-15,1,,,,,エムディプラス,0
1291,6010401106397,登記記録の閉鎖等,0,2024-12-05,2024-11-08,株式会社アリーナコーポレーション,,株式会社,東京都,渋谷区,神宮前５丁目８番１号,,13,113,1500001,,,2024-11-08,清算の結了等,,,2015-10-05,1,,,,,アリーナコーポレーション,0
1316,6011101027264,登記記録の閉鎖等,0,2024-12-05,2024-11-28,北斗警備株式会社,,株式会社,東京都,新宿区,若松町２８番２１号,,13,104,1620056,,,2024-11-28,清算の結了等,,,2015-10-05,1,,,,,ホクトケイビ,0
1322,6012401031006,登記記録の閉鎖等,0,2024-12-05,2024-12-03,株式会社ライノセラス,,株式会社,東京都,武蔵野市,吉祥寺本町１丁目２０番１号吉祥寺永谷シティプラザ１００２,,13,203,1800004,,,2024-12-03,合併による解散等,9011201015488,令和６年１１月１日東京都港区港南一丁目６番３４号品川イースト２階株式会社フーモア（9011201015488）に合併し解散,2016-01-29,1,"RHINOCEROS, Inc.",Tokyo,"1-20-1,  Kichijojinagatani City Plaza1002, Musashino shi Kichijojihoncho",,ライノセラス,0
1335,6020001058955,登記記録の閉鎖等,0,2024-12-05,2024-11-25,株式会社石原土建,,株式会社,神奈川県,横浜市磯子区,岡村３丁目１４番７号,,14,107,2350021,,,2024-11-25,清算の結了等,,,2015-10-05,1,,,,,イシハラドケン,0
1340,6020001113479,登記記録の閉鎖等,0,2024-12-05,2024-11-25,Ｖａｎ．ｉｎｔｅｒｎａｔｉｏｎａｌ株式会社,,株式会社,神奈川県,川崎市中原区,中丸子５５２番地３１,,14,133,2110012,,,2024-11-25,清算の結了等,,,2015-11-09,1,,,,,ヴァンインターナショナル,0
1347,6020002034575,登記記録の閉鎖等,0,2024-12-05,2024-11-26,有限会社高野設計,,有限会社,神奈川県,横浜市港北区,新吉田東６丁目５７番３０－２０１号,,14,109,2230058,,,2024-11-26,清算の結了等,,,2015-10-05,1,,,,,タカノセッケイ,0
1348,6020002058632,登記記録の閉鎖等,0,2024-12-05,2024-11-20,有限会社雄大,,有限会社,神奈川県,横浜市金沢区,釜利谷南２丁目５０番２－２０３号,,14,108,2360045,,,2024-11-20,清算の結了等,,,2015-10-05,1,,,,,ユウダイ,0
1349,6020002065133,登記記録の閉鎖等,0,2024-12-05,2024-11-25,有限会社フレンズ,,有限会社,神奈川県,横浜市青葉区,荏田西３丁目８番地１６,,14,117,2250014,,,2024-11-25,清算の結了等,,,2015-10-05,1,,,,,フレンズ,0
1362,6030001020682,登記記録の閉鎖等,0,2024-12-05,2024-11-29,株式会社穂積製作所,,株式会社,埼玉県,戸田市,美女木北２丁目３番地の６,,11,224,3350038,,,2024-11-29,清算の結了等,,,2015-10-05,1,,,,,ホズミセイサクショ,0
1382,6050002002884,登記記録の閉鎖等,0,2024-12-05,2024-12-02,有限会社タカギカフェ,,有限会社,茨城県,水戸市,谷田町１０９番地の２,,08,201,3100825,,,2024-12-02,清算の結了等,,,2015-10-05,1,,,,,タカギカフェ,0
1388,6080001013079,登記記録の閉鎖等,0,2024-12-05,2024-12-02,島田部品株式会社,,株式会社,静岡県,島田市,７６８５番地の１,,22,209,4270000,,,2024-12-02,清算の結了等,,,2015-10-05,1,,,,,シマダブヒン,0
1392,6110002018536,登記記録の閉鎖等,0,2024-12-05,2024-11-29,有限会社コスモランバー,,有限会社,新潟県,南蒲原郡田上町,大字田上丙８９０番地２７,,15,361,9591502,,,2024-11-29,清算の結了等,,,2015-10-05,1,,,,,コスモランバー,0
1395,6120001132717,登記記録の閉鎖等,0,2024-12-05,2024-12-02,アイテック技研株式会社,,株式会社,大阪府,門真市,柳町５番１－４０１,,27,223,5710041,,,2024-12-02,合併による解散等,8120001157869,令和６年１２月１日大阪府門真市柳町５番１－４０１東洋アイテック株式会社（8120001157869）に合併し解散,2015-10-05,1,,,,,アイテックギケン,0
1396,6120001171608,登記記録の閉鎖等,0,2024-12-05,2024-12-03,株式会社モナーク,,株式会社,大阪府,大阪市大正区,北村３丁目７番２－１０１号,,27,108,5510032,,,2024-12-03,清算の結了等,,,2015-10-05,1,,,,,モナーク,0
1413,6130002002050,登記記録の閉鎖等,0,2024-12-05,2024-12-03,有限会社イワイサキ建築事務所,,有限会社,京都府,京都市上京区,今小路通御前通西入紙屋川町８６３番地の４,,26,102,6028384,,,2024-12-03,清算の結了等,,,2015-10-05,1,,,,,イワイサキケンチクジムショ,0
1430,6160003002501,登記記録の閉鎖等,0,2024-12-05,2024-11-25,ＤＩＳＣＡＭ合同会社,,合同会社,滋賀県,大津市,仰木の里東８丁目５－５,,25,201,5200248,,,2024-11-25,清算の結了等,,,2022-03-08,1,,,,,ディスカム,0
1452,6250001009687,登記記録の閉鎖等,0,2024-12-05,2024-12-02,山本鉄工株式会社,,株式会社,山口県,下松市,潮音町２丁目１７番１２号,,35,207,7440074,,,2024-12-02,清算の結了等,,,2015-10-05,1,,,,,ヤマモトテッコウ,0
1462,6290002023279,登記記録の閉鎖等,0,2024-12-05,2024-12-02,有限会社Ｃｉｇ商事,,有限会社,佐賀県,佐賀市,高木瀬東２丁目２番３７号,,41,201,8490922,,,2024-12-02,合併による解散等,5300001001417,令和６年１２月１日佐賀市唐人二丁目２番１２号中央保険サービス株式会社（5300001001417）に合併し解散,2015-10-05,1,,,,,シーアイジーショウジ,0
1473,6340005005467,登記記録の閉鎖等,0,2024-12-05,2024-11-20,特定非営利活動法人ひよこ会,,その他の設立登記法人,鹿児島県,出水郡長島町,山門野４３５９番地,,46,404,8991211,,,2024-11-20,清算の結了等,,,2015-10-05,1,,,,,ヒヨコカイ,0
1480,6400001001645,登記記録の閉鎖等,0,2024-12-05,2024-11-29,盛岡リフレツシュスポーツ株式会社,,株式会社,岩手県,盛岡市,盛岡駅前北通７番１７号,,03,201,0200033,,,2024-11-29,清算の結了等,,,2015-10-05,1,,,,,モリオカリフレツシュスポーツ,0
1488,6430002042636,登記記録の閉鎖等,0,2024-12-05,2024-11-29,有限会社トーヨー,,有限会社,北海道,札幌市北区,新琴似一条１丁目５番１５号,,01,102,0010901,,,2024-11-29,清算の結了等,,,2015-10-05,1,,,,,トーヨー,0
1492,6470001006282,登記記録の閉鎖等,0,2024-12-05,2024-12-02,株式会社ソウフク,,株式会社,香川県,高松市,一宮町３６１番地８,,37,201,7618084,,,2024-12-02,清算の結了等,,,2015-10-05,1,,,,,ソウフク,0
1509,7010003037932,登記記録の閉鎖等,0,2024-12-05,2024-11-21,合同会社ヨコハマライン２,,合同会社,東京都,千代田区,神田神保町１丁目１１番地さくら綜合事務所内,,13,101,1010051,,,2024-11-21,清算の結了等,,,2022-06-21,1,,,,,ヨコハマラインツー,0
1510,7010005026000,登記記録の閉鎖等,0,2024-12-05,2024-11-29,ＣＫ東品川ホールディング一般社団法人,,その他の設立登記法人,東京都,千代田区,飯田橋４丁目７番１号結和税理士法人内,,13,101,1020072,,,2024-11-29,清算の結了等,,,2016-11-11,1,,,,,シーケーヒガシシナガワホールディング,0
1513,7010005036528,登記記録の閉鎖等,0,2024-12-05,2024-11-29,エム・アール・イー一般社団法人,,その他の設立登記法人,東京都,千代田区,丸の内３丁目１番１号東京共同会計事務所内,,13,101,1000005,,,2024-11-29,清算の結了等,,,2023-04-19,1,,,,,エムアールイー,0
1518,7010401091168,登記記録の閉鎖等,0,2024-12-05,2024-12-02,株式会社グリーン発電大分,,株式会社,大分県,日田市,大字東有田２８１３番地２２,,44,204,8770000,,,2024-12-02,合併による解散等,4320001010251,令和６年１２月１日大分県日田市大字東有田２８１３番地２２日本フォレスト株式会社（4320001010251）に合併し解散,2015-10-05,1,,,,,グリーンハツデンオオイタ,0
1531,7010601014077,登記記録の閉鎖等,0,2024-12-05,2024-12-04,株式会社ニユーライフ,,株式会社,東京都,墨田区,江東橋２丁目５番２号,,13,107,1300022,,,2024-12-04,清算の結了等,,,2015-10-05,1,,,,,ニユーライフ,0
1563,7011302010828,登記記録の閉鎖等,0,2024-12-05,2024-12-02,有限会社エー・エム・コンサルタント,,有限会社,東京都,杉並区,浜田山３丁目２４番１６号,,13,115,1680065,,,2024-12-02,清算の結了等,,,2015-10-05,1,,,,,エーエムコンサルタント,0
1573,7011601005000,登記記録の閉鎖等,0,2024-12-05,2024-11-29,株式会社永田フォト・ラボ,,株式会社,東京都,練馬区,桜台２丁目３４番１０号,,13,120,1760002,,,2024-11-29,清算の結了等,,,2015-10-05,1,,,,,ナガタフォトラボ,0
1577,7011801002441,登記記録の閉鎖等,0,2024-12-05,2024-11-29,セイリュウ株式会社,,株式会社,千葉県,船橋市,三山３丁目２７番７号,,12,204,2740072,,,2024-11-29,清算の結了等,,,2015-10-05,1,,,,,セイリュウ,0
1581,7012401000620,登記記録の閉鎖等,0,2024-12-05,2024-12-04,三昌エポック株式会社,,株式会社,東京都,府中市,南町４丁目４３番地１０６号,,13,206,1830026,,,2024-12-04,清算の結了等,,,2015-10-05,1,,,,,サンショウエポック,0
1586,7012801022586,登記記録の閉鎖等,0,2024-12-05,2024-11-21,ＲＩＮＴＥＣ株式会社,,株式会社,東京都,日野市,大字日野５９７０番地の１２,,13,212,1910012,,,2024-11-21,清算の結了等,,,2023-08-23,1,,,,,リンテック,0
1601,7020002064084,登記記録の閉鎖等,0,2024-12-05,2024-11-25,有限会社輝,,有限会社,神奈川県,横浜市金沢区,並木３丁目７番３－２０２号,,14,108,2360005,,,2024-11-25,清算の結了等,,,2015-10-05,1,,,,,,0
1617,7030002101159,登記記録の閉鎖等,0,2024-12-05,2024-12-02,大利機械有限会社,,有限会社,埼玉県,川口市,上青木西３丁目４番２７号,,11,203,3330845,,,2024-12-02,清算の結了等,,,2015-10-05,1,,,,,オオトシキカイ,0
1619,7030003015515,登記記録の閉鎖等,0,2024-12-05,2024-12-02,合同会社フドケン,,合同会社,埼玉県,越谷市,川柳町１丁目２５４番地１,,11,222,3430827,,,2024-12-02,清算の結了等,,,2020-07-13,1,,,,,フドケン,0
1620,7030005020950,登記記録の閉鎖等,0,2024-12-05,2024-12-02,特定非営利活動法人動物医療健康協会,,その他の設立登記法人,埼玉県,越谷市,千間台西１丁目５番地２ＫＭビル２０２株式会社エクステージ注文住宅設計内,,11,222,3430041,,,2024-12-02,清算の結了等,,,2022-08-04,1,,,,,ドウブツイリョウケンコウキョウカイ,0
1621,7040001023428,登記記録の閉鎖等,0,2024-12-05,2024-11-29,株式会社ＢＩＧ　ＳＴＡＲ,,株式会社,千葉県,船橋市,薬円台６丁目６番６号,,12,204,2740077,,,2024-11-29,清算の結了等,,,2015-10-05,1,,,,,ビッグスター,0
1633,7080002017326,登記記録の閉鎖等,0,2024-12-05,2024-12-02,有限会社臼井産業,,有限会社,静岡県,藤枝市,高柳１丁目６番３０号,,22,214,4260041,,,2024-12-02,清算の結了等,,,2015-10-05,1,,,,,ウスイサンギョウ,0
1643,7100002029434,登記記録の閉鎖等,0,2024-12-05,2024-12-02,有限会社新井塗工所,,有限会社,長野県,諏訪郡富士見町,落合１２６８９番地,,20,362,3990214,,,2024-12-02,清算の結了等,,,2015-10-05,1,,,,,アライトコウジョ,0
1645,7110001008165,登記記録の閉鎖等,0,2024-12-05,2024-11-29,株式会社エヌケー,,株式会社,新潟県,新潟市西区,流通センター３丁目３番地２,,15,107,9502031,,,2024-11-29,清算の結了等,,,2015-10-05,1,,,,,エヌケー,0
1653,7120001261597,登記記録の閉鎖等,0,2024-12-05,2024-12-03,百綜株式会社,,株式会社,大阪府,大阪市都島区,中野町４丁目３番６号Ｈ２Ｈ大阪桜之宮邸３Ｅ－１,,27,102,5340027,,,2024-12-03,清算の結了等,,,2024-01-24,1,,,,,ヒャクソウ,0
1688,7140005007532,登記記録の閉鎖等,0,2024-12-05,2024-12-04,特定非営利活動法人エヌピーオーひょうご農業クラブ,,その他の設立登記法人,兵庫県,相生市,若狭野町寺田１７６番地,,28,208,6780082,,,2024-12-04,清算の結了等,,,2015-10-05,1,,,,,エヌピーオーヒョウゴノウギョウクラブ,0
1694,7180001035723,登記記録の閉鎖等,0,2024-12-05,2024-11-29,株式会社結婚情報センター,,株式会社,愛知県,名古屋市中村区,名駅４丁目７番１号ミッドランドスクエア１０階,,23,105,4500002,,,2024-11-29,清算の結了等,,,2015-10-05,1,,,,,ケッコンジョウホウセンター,0
1695,7180001042447,登記記録の閉鎖等,0,2024-12-05,2024-11-29,株式会社ＯＮＥ,,株式会社,愛知県,名古屋市東区,代官町１６番１７号,,23,102,4610002,,,2024-11-29,合併による解散等,4180001034034,令和６年１１月２９日名古屋市東区代官町１６番１７号株式会社アロン（4180001034034）に合併し解散,2015-10-05,1,,,,,ワン,0
1696,7180001122307,登記記録の閉鎖等,0,2024-12-05,2024-11-28,株式会社ＭＹアピスファーマシー,,株式会社,愛知県,一宮市,八町通２丁目６番地１,,23,203,4910844,,,2024-11-28,合併による解散等,6030001066965,令和６年１１月１日埼玉県北葛飾郡松伏町築比地７９５番地１株式会社ウィーズ（6030001066965）に合併し解散,2016-03-03,1,,,,,マイアピスファーマシー,0
1702,7200001018997,登記記録の閉鎖等,0,2024-12-05,2024-12-04,株式会社鳳本店,,株式会社,岐阜県,関市,小瀬２０７３番地の１,,21,205,5013265,,,2024-12-04,清算の結了等,,,2015-10-05,1,,,,,オオトリホンテン,0
1710,7240001008697,登記記録の閉鎖等,0,2024-12-05,2024-12-02,株式会社猫島商店,,株式会社,広島県,広島市西区,商工センター１丁目１０番２３号,,34,104,7330833,,,2024-12-02,清算の結了等,,,2015-10-05,1,,,,,,0
1717,7250001008721,登記記録の閉鎖等,0,2024-12-05,2024-12-03,株式会社尾上報恩園,,株式会社,山口県,周南市,大字戸田３１４４番地第１,,35,215,7451131,,,2024-12-03,清算の結了等,,,2015-10-05,1,,,,,オノウエホウオンエン,0
1719,7250001012533,登記記録の閉鎖等,0,2024-12-05,2024-12-02,株式会社ひがき,,株式会社,山口県,柳井市,南町３丁目３番６号,,35,212,7420031,,,2024-12-02,清算の結了等,,,2015-10-05,1,,,,,,0
1725,7260005004286,登記記録の閉鎖等,0,2024-12-05,2024-11-29,不動宗,,その他の設立登記法人,岡山県,倉敷市,玉島黒崎８６００番地総本山不動寺内,,33,202,7138126,,,2024-11-29,清算の結了等,,,2015-10-05,1,,,,,フドウシュウ,0
1726,7260005008163,登記記録の閉鎖等,0,2024-12-05,2024-12-03,医療法人康歯会三宅歯科医院,,その他の設立登記法人,岡山県,玉野市,田井３丁目７番８号,,33,204,7060001,,,2024-12-03,清算の結了等,,,2015-10-05,1,,,,,コウシカイミヤケシカイイン,0
1735,7290801009155,登記記録の閉鎖等,0,2024-12-05,2024-12-02,株式会社クワハラ,,株式会社,福岡県,北九州市八幡東区,清田１丁目７番１１号,,40,108,8050034,,,2024-12-02,清算の結了等,,,2015-10-05,1,,,,,クワハラ,0
1746,7350002013099,登記記録の閉鎖等,0,2024-12-05,2024-12-02,有限会社ひかり不動産,,有限会社,宮崎県,延岡市,野地町６丁目２００８番地１,,45,203,8820802,,,2024-12-02,清算の結了等,,,2015-10-05,1,,,,,ヒカリフドウサン,0
1764,7430001075066,登記記録の閉鎖等,0,2024-12-05,2024-11-28,株式会社ＷＥＳＴ・ＥＡＳＴ,,株式会社,北海道,札幌市北区,北八条西１丁目３番地,,01,102,0600808,,,2024-11-28,清算の結了等,,,2017-10-03,1,,,,,ウエストイースト,0
1779,8010001119509,登記記録の閉鎖等,0,2024-12-05,2024-11-21,株式会社夢者修業,,株式会社,東京都,千代田区,岩本町３丁目９番１３号,,13,101,1010032,,,2024-11-21,清算の結了等,,,2015-10-05,1,,,,,ムシャシュギョウ,0
1790,8010102005814,登記記録の閉鎖等,0,2024-12-05,2024-12-04,有限会社日吉電器,,有限会社,東京都,八王子市,楢原町１２７１番地４５,,13,201,1930803,,,2024-12-04,清算の結了等,,,2015-10-05,1,,,,,ヒヨシデンキ,0
1796,8010403014480,登記記録の閉鎖等,0,2024-12-05,2024-12-03,ホフマン・エステート合同会社,,合同会社,神奈川県,鎌倉市,極楽寺３丁目１４番１７－２号,,14,204,2480023,,,2024-12-03,清算の結了等,,,2016-02-29,1,,,,,ホフマンエステート,0
1808,8010903007554,登記記録の閉鎖等,0,2024-12-05,2024-11-29,合同会社ＴＹＳコンサルティング,,合同会社,東京都,世田谷区,船橋４丁目１－１４,,13,112,1560055,,,2024-11-29,清算の結了等,,,2022-08-01,1,,,,,ティーワイエスコンサルティング,0
1809,8011001017446,登記記録の閉鎖等,0,2024-12-05,2024-11-27,株式会社日本アーバック,,株式会社,東京都,渋谷区,笹塚１丁目５６番１０号笹塚総栄ビル５１４号室,,13,113,1510073,,,2024-11-27,清算の結了等,,,2015-10-05,1,,,,,ニホンアーバック,0
1812,8011001099674,登記記録の閉鎖等,0,2024-12-05,2024-11-01,株式会社ダレス,,株式会社,東京都,渋谷区,松濤１丁目５番１－６０２号,,13,113,1500046,,,2024-11-01,清算の結了等,,,2015-10-05,1,,,,,ダレス,0
1822,8011003018863,登記記録の閉鎖等,0,2024-12-05,2024-11-08,合同会社ｓｐｉｒａｌ　ｓｔａｉｒｃａｓｅ,,合同会社,東京都,渋谷区,神宮前６丁目２３番４号桑野ビル２階,,13,113,1500001,,,2024-11-08,清算の結了等,,,2024-05-29,1,,,,,スパイラルステアケース,0
1823,8011101025118,登記記録の閉鎖等,0,2024-12-05,2024-12-02,株式会社グラン・アーデル,,株式会社,東京都,新宿区,新宿３丁目１３番５号,,13,104,1600022,,,2024-12-02,合併による解散等,5011101018371,令和６年１１月２６日東京都新宿区新宿三丁目１３番５号株式会社フォーユー（5011101018371）に合併し解散,2015-10-05,1,,,,,グランアーデル,0
1826,8011102012602,登記記録の閉鎖等,0,2024-12-05,2024-12-02,有限会社三由屋,,有限会社,東京都,新宿区,下落合４丁目２１番２１号,,13,104,1610033,,,2024-12-02,清算の結了等,,,2015-10-05,1,,,,,ミヨシヤ,0
1837,8011501030254,登記記録の閉鎖等,0,2024-12-05,2024-12-02,ＬＩＳＡ株式会社,,株式会社,東京都,荒川区,東日暮里３丁目２８番５号ＣｒｙｓｔａｌＢｕｉｌｄｉｎｇ１階,,13,118,1160014,,,2024-12-02,清算の結了等,,,2024-01-29,1,,,,,リサ,0
1847,8020001011648,登記記録の閉鎖等,0,2024-12-05,2024-11-26,株式会社タクミ電子,,株式会社,神奈川県,横浜市青葉区,新石川４丁目１１番地１,,14,117,2250003,,,2024-11-26,清算の結了等,,,2015-10-05,1,,,,,タクミデンシ,0
1848,8020001043419,登記記録の閉鎖等,0,2024-12-05,2024-11-25,株式会社都筑電脳社,,株式会社,神奈川県,横浜市泉区,中田南３丁目７番５号りんどう中田ビル３Ｆ,,14,116,2450014,,,2024-11-25,清算の結了等,,,2015-10-05,1,,,,,ツヅキデンノウシャ,0
1849,8020001044581,登記記録の閉鎖等,0,2024-12-05,2024-11-25,テクニカルブレーン株式会社,,株式会社,神奈川県,横浜市都筑区,見花山１－３０見花山ビル,,14,118,2240066,,,2024-11-25,清算の結了等,,,2015-10-05,1,,,,,テクニカルブレーン,0
1875,8021003009259,登記記録の閉鎖等,0,2024-12-05,2024-12-03,ＳＥＳＨＣｉｒｃｌｅ合同会社,,合同会社,神奈川県,逗子市,逗子１丁目６番２７号４０２号室,,14,208,2490006,,,2024-12-03,清算の結了等,,,2020-04-08,1,,,,,セッシュサークル,0
1878,8030001105028,登記記録の閉鎖等,0,2024-12-05,2024-12-02,株式会社日本総合企画,,株式会社,大阪府,堺市堺区,南向陽町２丁３番６号,,27,141,5900073,,,2024-12-02,合併による解散等,8140002065037,令和６年１２月１日大阪府堺市堺区南向陽町二丁３番６号株式会社ミツバ商事（8140002065037）に合併し解散,2015-10-05,1,,,,,ニホンソウゴウキカク,0
1905,8090002007300,登記記録の閉鎖等,0,2024-12-05,2024-12-02,有限会社近藤薬局,,有限会社,山梨県,南アルプス市,小笠原３５８番地,,19,208,4000306,,,2024-12-02,清算の結了等,,,2015-10-05,1,,,,,コンドウヤッキョク,0
1908,8120001056253,登記記録の閉鎖等,0,2024-12-05,2024-12-03,摂津紙器株式会社,,株式会社,大阪府,大阪市淀川区,塚本１丁目１５番４号,,27,123,5320026,,,2024-12-03,清算の結了等,,,2015-10-05,1,,,,,セッツシキ,0
1913,8120001244832,登記記録の閉鎖等,0,2024-12-05,2024-12-02,株式会社ＳＯ　ＳＯ,,株式会社,大阪府,大阪市北区,芝田２丁目２番１３号,,27,127,5300012,,,2024-12-02,合併による解散等,4120001242955,令和６年１２月１日大阪市北区芝田二丁目２番１３号株式会社ｕｍ（4120001242955）に合併し解散,2022-04-05,1,,,,,ソウソウ,0
1929,8120101059164,登記記録の閉鎖等,0,2024-12-05,2024-12-02,株式会社ゆう香,,株式会社,大阪府,岸和田市,野田町１丁目７番２１号,,27,202,5960076,,,2024-12-02,合併による解散等,5120101058615,令和６年１２月１日大阪府岸和田市野田町一丁目７番２１号株式会社ノヴェントス（5120101058615）に合併し解散,2018-12-14,1,,,,,ユウコウ,0
1939,8130001052730,登記記録の閉鎖等,0,2024-12-05,2024-12-02,ＭＩＴＡＣ株式会社,,株式会社,京都府,宇治市,伊勢田町砂田６番地の１６２,,26,204,6110043,,,2024-12-02,清算の結了等,,,2015-10-05,1,,,,,マイタック,0
1940,8130001053051,登記記録の閉鎖等,0,2024-12-05,2024-12-03,株式会社ライブラリ,,株式会社,京都府,京都市左京区,修学院中林町３２番地の１６,,26,103,6068085,,,2024-12-03,清算の結了等,,,2015-10-05,1,,,,,ライブラリ,0
1956,8140003010826,登記記録の閉鎖等,0,2024-12-05,2024-11-29,コラボックス合同会社,,合同会社,兵庫県,芦屋市,船戸町５－２６,,28,206,6590093,,,2024-11-29,清算の結了等,,,2015-10-05,1,,,,,コラボックス,0
1959,8160001016096,登記記録の閉鎖等,0,2024-12-05,2024-12-03,エバーテック株式会社,,株式会社,滋賀県,守山市,川田町１８２番地１,,25,207,5240001,,,2024-12-03,清算の結了等,,,2015-10-05,1,,,,,エバーテック,0
1972,8190003003263,登記記録の閉鎖等,0,2024-12-05,2024-12-02,合同会社シグマ・エム事務所,,合同会社,三重県,いなべ市,北勢町向平５６４番地,,24,214,5110412,,,2024-12-02,清算の結了等,,,2019-12-23,1,,,,,シグマエムジムショ,0
1981,8240001020635,登記記録の閉鎖等,0,2024-12-05,2024-12-02,株式会社小柳建設,,株式会社,広島県,広島市安佐北区,落合南７丁目３番３３－１０１号,,34,106,7391732,,,2024-12-02,清算の結了等,,,2015-10-05,1,,,,,コヤナギケンセツ,0
1982,8240001049971,登記記録の閉鎖等,0,2024-12-05,2024-12-02,ＨＴＰディライト株式会社,,株式会社,広島県,広島市西区,観音町７番８号,,34,104,7330031,,,2024-12-02,清算の結了等,,,2016-09-21,1,,,,,エイチティーピーディライト,0
1997,8320001017193,登記記録の閉鎖等,0,2024-12-05,2024-12-03,株式会社大分総合企画,,株式会社,大分県,速見郡日出町,３２３２番地２,,44,341,8791506,,,2024-12-03,清算の結了等,,,2019-07-25,1,,,,,オオイタソウゴウキカク,0
2009,8370002011083,登記記録の閉鎖等,0,2024-12-05,2024-11-28,有限会社サード,,有限会社,宮城県,仙台市太白区,西の平２丁目５番５号,,04,104,9820825,,,2024-11-28,清算の結了等,,,2015-10-05,1,,,,,サード,0
2022,8430001075858,登記記録の閉鎖等,0,2024-12-05,2024-11-28,ＵＬＫＩＭＡＴＥ株式会社,,株式会社,北海道,札幌市中央区,北四条西３丁目１番地,,01,101,0600004,,,2024-11-28,清算の結了等,,,2018-02-06,1,,,,,アルキメイト,0
2029,8440001001458,登記記録の閉鎖等,0,2024-12-05,2024-12-02,株式会社ナカノ,,株式会社,北海道,函館市,大町９番２０号,,01,202,0400052,,,2024-12-02,清算の結了等,,,2015-10-05,1,,,,,ナカノ,0
2060,9010005021668,登記記録の閉鎖等,0,2024-12-05,2024-11-29,ラドゲイト特定目的会社,,その他の設立登記法人,東京都,千代田区,丸の内３丁目１番１号東京共同会計事務所内,,13,101,1000005,,,2024-11-29,清算の結了等,,,2015-10-05,1,,,,,ラドゲイト,0
2061,9010005025058,登記記録の閉鎖等,0,2024-12-05,2024-11-29,北浜ホールディング一般社団法人,,その他の設立登記法人,東京都,千代田区,飯田橋４丁目７番１号結和税理士法人内,,13,101,1020072,,,2024-11-29,清算の結了等,,,2016-03-08,1,,,,,キタハマホールディング,0
2091,9011101085037,登記記録の閉鎖等,0,2024-12-05,2024-11-28,株式会社ワンセクション,,株式会社,東京都,新宿区,歌舞伎町２丁目１番２号ＨＡＮＲＯＫＵビル９Ｆ,,13,104,1600021,,,2024-11-28,清算の結了等,,,2018-08-22,1,,,,,ワンセクション,0
2112,9012402006061,登記記録の閉鎖等,0,2024-12-05,2024-11-25,有限会社久企建築設計事務所,,有限会社,東京都,国立市,富士見台１丁目４４番地２９,,13,215,1860003,,,2024-11-25,清算の結了等,,,2015-10-05,1,,,,,ヒサキケンチクセッケイジムショ,0
2117,9012801017915,登記記録の閉鎖等,0,2024-12-05,2024-11-28,株式会社暁,,株式会社,東京都,新宿区,西新宿７丁目１０番１２号ＫＫＤビル４０２,,13,104,1600023,,,2024-11-28,清算の結了等,,,2017-04-12,1,,,,,アカツキ,0
2135,9021001007008,登記記録の閉鎖等,0,2024-12-05,2024-12-03,株式会社ソフィア,,株式会社,神奈川県,茅ヶ崎市,中海岸１丁目２番４３号,,14,207,2530055,,,2024-12-03,清算の結了等,,,2015-10-05,1,,,,,ソフィア,0
2137,9021001050536,登記記録の閉鎖等,0,2024-12-05,2024-12-03,ニューステージ株式会社,,株式会社,神奈川県,横須賀市,浦賀３丁目１番９号１Ｆ,,14,201,2390822,,,2024-12-03,清算の結了等,,,2015-10-05,1,,,,,ニューステージ,0
2141,9021002023879,登記記録の閉鎖等,0,2024-12-05,2024-12-02,有限会社双葉工業,,有限会社,神奈川県,相模原市緑区,橋本台３丁目５番１２号,,14,151,2520132,,,2024-12-02,清算の結了等,,,2015-10-05,1,,,,,フタバコウギョウ,0
2146,9030001002950,登記記録の閉鎖等,0,2024-12-05,2024-12-02,五洋建設工業株式会社,,株式会社,埼玉県,さいたま市西区,大字内野本郷４８９番地の１６,,11,101,3310045,,,2024-12-02,清算の結了等,,,2015-10-05,1,,,,,ゴヨウケンセツコウギョウ,0
2149,9030001077092,登記記録の閉鎖等,0,2024-12-05,2024-11-29,平和工材株式会社,,株式会社,埼玉県,川口市,東領家５丁目１２番５号,,11,203,3320003,,,2024-11-29,清算の結了等,,,2015-10-05,1,,,,,ヘイワコウザイ,0
2160,9040002088690,登記記録の閉鎖等,0,2024-12-05,2024-11-29,有限会社アサヒメディカルサービス,,有限会社,千葉県,柏市,つくしが丘３丁目１１番１１号,,12,217,2770072,,,2024-11-29,清算の結了等,,,2015-10-05,1,,,,,アサヒメディカルサービス,0
2162,9040002102451,登記記録の閉鎖等,0,2024-12-05,2024-11-29,有限会社渡辺水産,,有限会社,千葉県,勝浦市,吉尾３３８番地１,,12,218,2995242,,,2024-11-29,清算の結了等,,,2015-10-05,1,,,,,ワタナベスイサン,0
2166,9060002016740,登記記録の閉鎖等,0,2024-12-05,2024-12-02,ＫＳエネルギー有限会社,,有限会社,栃木県,日光市,東和町５８番地１,,09,206,3211412,,,2024-12-02,清算の結了等,,,2015-10-05,1,,,,,ケイエスエネルギー,0
2179,9110001014426,登記記録の閉鎖等,0,2024-12-05,2024-12-02,株式会社鶴巻商店,,株式会社,新潟県,三条市,西裏館２丁目９番３０号,,15,204,9550082,,,2024-12-02,清算の結了等,,,2015-10-05,1,,,,,ツルマキショウテン,0
2188,9120001248618,登記記録の閉鎖等,0,2024-12-05,2024-12-02,株式会社トーア,,株式会社,大阪府,大阪市中央区,道修町２丁目１番１０号,,27,128,5410045,,,2024-12-02,合併による解散等,2120001085159,令和６年１２月１日大阪市中央区北浜三丁目５番２９号日本コルマーホールディングス株式会社（2120001085159）に合併し解散,2022-09-05,1,,,,,トーア,0
2198,9120003013549,登記記録の閉鎖等,0,2024-12-05,2024-12-02,ＲＥＶＮＡＳ合同会社,,合同会社,大阪府,大阪市中央区,西心斎橋２丁目１１番９号,,27,128,5420086,,,2024-12-02,清算の結了等,,,2017-11-15,1,,,,,レボナス,0
2212,9130001060807,登記記録の閉鎖等,0,2024-12-05,2024-12-03,株式会社ワイシー・オンデマンド,,株式会社,京都府,京都市西京区,嵐山朝月町１４番地７,,26,111,6160022,,,2024-12-03,清算の結了等,,,2017-10-24,1,,,,,ワイシーオンデマンド,0
2218,9130002024042,登記記録の閉鎖等,0,2024-12-05,2024-12-02,有限会社祇園ケアサービス,00037736,有限会社,京都府,京都市山科区,音羽草田町１８番地,,26,110,6078061,,,2024-12-02,清算の結了等,,,2015-10-05,1,,,,,ギオンケアサービス,0
2237,9190002012371,登記記録の閉鎖等,0,2024-12-05,2024-11-25,有限会社マウント・テン,,有限会社,三重県,伊賀市,上野忍町２５５３番地の２,,24,216,5180854,,,2024-11-25,清算の結了等,,,2015-10-05,1,,,,,,0
2245,9220002008473,登記記録の閉鎖等,0,2024-12-05,2024-12-02,有限会社フレームワーク松下,,有限会社,石川県,金沢市,松島１丁目３３番地,,17,201,9200364,,,2024-12-02,合併による解散等,6220001008717,令和６年１２月１日石川県金沢市松島一丁目３３番地株式会社ＡＰサービスセンター（6220001008717）に合併し解散,2015-10-05,1,,,,,フレームワークマツシタ,0
2250,9240005011019,登記記録の閉鎖等,0,2024-12-05,2024-12-02,医療法人誠和会,,その他の設立登記法人,広島県,尾道市,因島三庄町１６１８番地の１,,34,205,7222322,,,2024-12-02,清算の結了等,,,2015-10-05,1,,,,,セイワカイ,0
2274,9340002006655,登記記録の閉鎖等,0,2024-12-05,2024-12-03,有限会社トップ経営センター,,有限会社,鹿児島県,鹿児島市,下荒田３丁目２４番７号,,46,201,8900056,,,2024-12-03,清算の結了等,,,2015-10-05,1,,,,,トップケイエイセンター,0
2276,9350001010616,登記記録の閉鎖等,0,2024-12-05,2024-12-03,株式会社宮崎商産,,株式会社,宮崎県,児湯郡都農町,大字川北１２１１番地４,,45,406,8891201,,,2024-12-03,清算の結了等,,,2015-10-05,1,,,,,ミヤザキショウサン,0
2297,9470001001999,登記記録の閉鎖等,0,2024-12-05,2024-12-03,株式会社四国屋根工事,,株式会社,香川県,高松市,木太町４０５７番地１,,37,201,7600080,,,2024-12-03,清算の結了等,,,2015-10-05,1,,,,,シコクヤネコウジ,0
2301,9500001016143,登記記録の閉鎖等,0,2024-12-05,2024-12-02,株式会社カメイ保険サービス,,株式会社,愛媛県,大洲市,東大洲１００番地１,,38,207,7950064,,,2024-12-02,清算の結了等,,,2015-10-05,1,,,,,カメイホケンサービス,0
