sequenceNumber,corporateNumber,process,correct,updateDate,changeDate,name,nameImageId,kind,prefectureName,cityName,streetNumber,addressImageId,prefectureCode,cityCode,postCode,addressOutside,addressOutsideImageId,closeDate,closeCause,successorCorporateNumber,changeCause,assignmentDate,latest,enName,enPrefectureName,enCityName,enAddressOutside,furigana,hihyoji
9,1010001237795,新規,0,2023-08-28,2023-08-28,ＭＥＤ　ＩＴＡＬＹ株式会社,,株式会社,東京都,文京区,本郷４丁目１６－６天翔オフィス後楽園５０１,,13,105,1130033,,,,,,,2023-08-28,1,,,,,メッドイタリー,0
10,1010001237837,新規,0,2023-08-28,2023-08-28,株式会社フォレスト,,株式会社,東京都,文京区,小石川３丁目６番１５号,,13,105,1120002,,,,,,,2023-08-28,1,,,,,フォレスト,0
11,1010001238018,新規,0,2023-08-28,2023-08-28,株式会社売上アップサポート,,株式会社,東京都,中央区,東日本橋２丁目２８番４号日本橋ＣＥＴビル２階,,13,102,1030004,,,,,,,2023-08-28,1,,,,,ウリアゲアップサポート,0
12,1010003041510,新規,0,2023-08-28,2023-08-28,合同会社ＢＯＢ　ＴＯＫＹＯ,,合同会社,東京都,千代田区,九段南３丁目８－１３－５０２,,13,101,1020074,,,,,,,2023-08-28,1,,,,,ビーオービートウキョウ,0
13,1010005037176,新規,0,2023-08-28,2023-08-28,一般社団法人ファンドドゥ１５号,,その他の設立登記法人,東京都,千代田区,霞が関３丁目２番５号,,13,101,1000013,,,,,,,2023-08-28,1,,,,,ファンドドゥジュウゴゴウ,0
26,1010401176775,新規,0,2023-08-28,2023-08-28,スマートコネクティッドＨＶＡＣ株式会社,,株式会社,東京都,港区,虎ノ門４丁目３番１号城山トラストタワー２７階,,13,103,1050001,,,,,,,2023-08-28,1,,,,,スマートコネクティッドエイチヴイエーシー,0
27,1010403030798,新規,0,2023-08-28,2023-08-28,パシフィコ・エナジー・ストレージ５号合同会社,,合同会社,東京都,港区,六本木３丁目２番１号六本木グランドタワー,,13,103,1060032,,,,,,,2023-08-28,1,,,,,パシフィコエナジーストレージゴゴウ,0
29,1010505003438,新規,0,2023-08-28,2023-08-28,ファウンデーション一般社団法人,,その他の設立登記法人,東京都,台東区,浅草橋１丁目１２－４東履東峰会館１Ｆ,,13,106,1110053,,,,,,,2023-08-28,1,,,,,ファウンデーション,0
31,1010701044756,新規,0,2023-08-28,2023-08-28,株式会社ＵＰＳＰＩＮ,,株式会社,東京都,品川区,上大崎３丁目１１番１２号,,13,109,1410021,,,,,,,2023-08-28,1,,,,,アップスピン,0
41,1011001156556,新規,0,2023-08-28,2023-08-28,株式会社ＫＰＤ,,株式会社,東京都,目黒区,中根１丁目７番９号,,13,110,1520031,,,,,,,2023-08-28,1,,,,,ケーピーディー,0
42,1011001156630,新規,0,2023-08-28,2023-08-28,Ｆｏｏｄ　Ｃｕｒａｔｅ　Ｌａｂ株式会社,,株式会社,東京都,目黒区,上目黒１丁目５番１０号,,13,110,1530051,,,,,,,2023-08-28,1,,,,,フードキュレートラボ,0
45,1011003017392,新規,0,2023-08-28,2023-08-28,合同会社ｆｅｗｓ,,合同会社,東京都,渋谷区,道玄坂１丁目１０番８号渋谷道玄坂東急ビル２Ｆ－Ｃ,,13,113,1500043,,,,,,,2023-08-28,1,,,,,フィユズ,0
46,1011003017401,新規,0,2023-08-28,2023-08-28,合同会社ハッピーサポート,,合同会社,東京都,渋谷区,神宮前６丁目２３番４号桑野ビル２階,,13,113,1500001,,,,,,,2023-08-28,1,,,,,ハッピーサポート,0
47,1011003017434,新規,0,2023-08-28,2023-08-28,合同会社ＡＮＴＳ,,合同会社,東京都,目黒区,中目黒３丁目３番２１号,,13,110,1530061,,,,,,,2023-08-28,1,,,,,アンツ,0
50,1011101104043,新規,0,2023-08-28,2023-08-28,Ｈｕｉａｉ　Ｌｕ株式会社,,株式会社,東京都,新宿区,百人町２丁目１番４５号赤煉瓦２４３,,13,104,1690073,,,,,,,2023-08-28,1,,,,,フィアイル,0
56,1011301028959,新規,0,2023-08-28,2023-08-28,ＭＲＫ　ＴＲＡＤＩＮＧ株式会社,,株式会社,東京都,杉並区,天沼２丁目５番９号,,13,115,1670032,,,,,,,2023-08-28,1,,,,,マークトレーディング,0
58,1011305002927,新規,0,2023-08-28,2023-08-28,一般社団法人拡大芸術文化研究所,,その他の設立登記法人,東京都,杉並区,松庵１丁目２３番１５西荻ハイホーム６０３号,,13,115,1670054,,,,,,,2023-08-28,1,,,,,カクダイゲイジュツブンカケンキュウジョ,0
61,1011501029699,新規,0,2023-08-28,2023-08-28,株式会社日本科学健康研究所,,株式会社,東京都,荒川区,西日暮里５丁目２７番４－２０４号,,13,118,1160013,,,,,,,2023-08-28,1,,,,,ニホンカガクケンコウケンキュウショ,0
66,1011801042947,新規,0,2023-08-28,2023-08-28,株式会社メディカルフォース足立,,株式会社,東京都,足立区,西新井栄町３丁目５番２０号,,13,121,1230843,,,,,,,2023-08-28,1,,,,,メディカルフォースアダチ,0
73,1013302010441,新規,0,2023-08-28,2023-08-28,有限会社有商,,有限会社,東京都,豊島区,東池袋２丁目６３番１号東池袋パレス７０７,,13,116,1700013,,,,,,,2023-08-28,1,,,,,ユウショウ,0
79,1020003024472,新規,0,2023-08-28,2023-08-28,合同会社Ａｍｂｅｒ,,合同会社,神奈川県,川崎市川崎区,大島５丁目１７番１２号,,14,131,2100834,,,,,,,2023-08-28,1,,,,,アンバー,0
81,1021001079954,新規,0,2023-08-28,2023-08-28,株式会社カーニバル,,株式会社,神奈川県,相模原市中央区,上矢部４丁目２１番５号,,14,152,2520201,,,,,,,2023-08-28,1,,,,,カーニバル,0
89,1030001155509,新規,0,2023-08-28,2023-08-28,吉田商事株式会社,,株式会社,埼玉県,蕨市,南町３丁目２４番６号,,11,223,3350003,,,,,,,2023-08-28,1,,,,,ヨシダショウジ,0
90,1030001155582,新規,0,2023-08-28,2023-08-28,株式会社ＷＩＮＸ,,株式会社,埼玉県,ふじみ野市,上福岡６丁目６番１７号,,11,245,3560004,,,,,,,2023-08-28,1,,,,,ウィンクス,0
91,1030005021368,新規,0,2023-08-28,2023-08-28,一般社団法人ＧＹｇｏｌｆｃｌｕｂ,,その他の設立登記法人,埼玉県,さいたま市南区,別所７丁目２１番１号,,11,108,3360021,,,,,,,2023-08-28,1,,,,,ジーワイゴルフクラブ,0
99,1040001129783,新規,0,2023-08-28,2023-08-28,株式会社ブルーオーシャン,,株式会社,千葉県,長生郡長柄町,皿木１４４番地１,,12,426,2970235,,,,,,,2023-08-28,1,,,,,ブルーオーシャン,0
107,1050001053347,新規,0,2023-08-28,2023-08-28,株式会社ライフシフト・サポート,,株式会社,茨城県,龍ケ崎市,藤ケ丘５丁目３番地１６,,08,208,3010855,,,,,,,2023-08-28,1,,,,,ライフシフトサポート,0
108,1050001053355,新規,0,2023-08-28,2023-08-28,ｂ‐ｅｆｆｅｃｔ株式会社,,株式会社,茨城県,牛久市,ひたち野東４丁目１番地８４,,08,219,3001207,,,,,,,2023-08-28,1,,,,,ビーエフェクト,0
115,1120001257519,新規,0,2023-08-28,2023-08-28,株式会社オフィスＫ,,株式会社,大阪府,大阪市東淀川区,東中島１丁目２０－１２－９０８,,27,114,5330033,,,,,,,2023-08-28,1,,,,,オフィスケー,0
116,1120001257642,新規,0,2023-08-28,2023-08-28,オーヨー実業株式会社,,株式会社,大阪府,大阪市淀川区,西中島４丁目６番４号,,27,123,5320011,,,,,,,2023-08-28,1,,,,,オーヨージツギョウ,0
119,1120103005395,新規,0,2023-08-28,2023-08-28,合同会社ＹＣコンサルティング,,合同会社,大阪府,堺市西区,神野町２丁１２番１ボナール神野３０５号,,27,144,5938308,,,,,,,2023-08-28,1,,,,,ワイシーコンサルティング,0
134,1140001131366,新規,0,2023-08-28,2023-08-28,株式会社アダチホールディングス,,株式会社,兵庫県,神戸市長田区,菅原通１丁目５１番,,28,106,6530015,,,,,,,2023-08-28,1,,,,,アダチホールディングス,0
135,1140001131374,新規,0,2023-08-28,2023-08-28,株式会社スクエア,,株式会社,兵庫県,神戸市東灘区,森南町２丁目１３－３,,28,101,6580011,,,,,,,2023-08-28,1,,,,,スクエア,0
147,1180301037747,新規,0,2023-08-28,2023-08-28,株式会社吉日商事,,株式会社,愛知県,西尾市,巨海町佐円２０番地１,,23,213,4440322,,,,,,,2023-08-28,1,,,,,キチジツショウジ,0
154,1220001025576,新規,0,2023-08-28,2023-08-28,株式会社ＨＢ日本,,株式会社,石川県,河北郡内灘町,字向陽台１丁目１８２ＵＭＥＳＨＩＮビル３階,,17,365,9200272,,,,,,,2023-08-28,1,,,,,エイチビーニッポン,0
164,1290001102798,新規,0,2023-08-28,2023-08-28,株式会社ＭＡＴＳＵＦＵＪＩ,,株式会社,福岡県,柳川市,大和町皿垣開７５０番地,,40,207,8390261,,,,,,,2023-08-28,1,,,,,マツフジ,0
173,1300003002012,新規,0,2023-08-28,2023-08-28,合同会社ＴＥＮ,,合同会社,佐賀県,武雄市,西川登町小田志１８２４４番地１,,41,206,8430000,,,,,,,2023-08-28,1,,,,,ティイーエヌ,0
188,1370001050337,新規,0,2023-08-28,2023-08-28,株式会社デイズ,,株式会社,宮城県,多賀城市,新田字西３５番地の１,,04,209,9850854,,,,,,,2023-08-28,1,,,,,デイズ,0
195,1410001013578,新規,0,2023-08-28,2023-08-28,株式会社ヤマダＫＺ工業,,株式会社,秋田県,湯沢市,清水町２丁目２番１６号,,05,207,0120033,,,,,,,2023-08-28,1,,,,,ヤマダケーゼットコウギョウ,0
217,1700150119353,新規,0,2023-08-28,2023-08-28,Ｓｈｅｎｚｈｅｎ　Ｃｈｅｎｇｔｕｏ　Ｓｉｈａｉ　Ｔｒａｄｉｎｇ　Ｃｏ．，Ｌｔｄ,,外国会社等,,,,,,,,ｌｏｎｇ　ｇａｎｇ　ｑｕ　ｌｏｎｇ　ｇａｎｇ　ｊｉｅ　ｄａｏ　ｎａｎ　ｌｉａｎ　ｓｈｅ　ｑｕ　ｌｏｎｇ　ｇａｎｇ　ｄａ　ｄａｏ（ｌｏｎｇ　ｇａｎｇ　ｄｕａｎ）６０３５　ｈａｏ　ｊｉｎ　ｒｏｎｇ　ｄａ　ｓｈａ　６０１－１　ｓｈｅｎ　ｚｈｅｎ　ｌｏｎｇ　ｇａｎｇ　ｑｕ　ｇｕａｎｇ　ｄｏｎｇ　５１８０００　ＣＮ,,,,,,2023-08-28,1,,,,,シェンジェンシーチョントゥオスーハイマオイーヨウシエンゴンスー,0
218,1700150119361,新規,0,2023-08-28,2023-08-28,ＳＴＡＲ　ＡＮＧＥＬ　ＴＥＣＨＮＯＬＯＧＹ　ＬＩＭＩＴＥＤ,,外国会社等,,,,,,,,ＬＯＣＫＨＡＲＴ　ＲＯＡＤ，ＷＡＮ　ＣＨＡＩ，ＦＬＡＴ／ＲＭ　Ａ　１２／Ｆ　ＺＪ　３００，３００　ＨＯＮＧ　ＫＯＮＧ　ＨＯＮＧ　ＫＯＮＧ　９９９０７７７　ＨＫ,,,,,,2023-08-28,1,,,,,スターアンゲルテクノロジリミテッド,0
219,1700150119378,新規,0,2023-08-28,2023-08-28,Ｓｈｅｎｚｈｅｎｓｈｉ　ｚｈｕｏｘｉｎｇｄｉａｎｚｉ　ｙｏｕｘｉａｎｇｏｎｇｓｉ,,外国会社等,,,,,,,,ＳｈｅｎｚｈｅｎｓｈｉＬｏｎｇｇａｎｇｑｕｂａｎｔｉａｎｊｉｅｄａｏｙａｎｇｍｅｉｓｈｅｑｕｂｕｌｏｎｇｌｕ４５０ｈａｏ１ｄｏｎｇｅｒｃｅｎｇ,,,,,,2023-08-28,1,,,,,シンセンシジオシンデンシユウゲンコウシ,0
220,1700150119386,新規,0,2023-08-28,2023-08-28,Ｓｈｅｎｚｈｅｎｓｈｉ　ＳａｉｗｅｉｙａＳｈａｎｇｍａｏ　ＹｏｕｘｉａｎＧｏｎｇｓｉ,,外国会社等,,,,,,,,ＬｏｎｇｈｕａｘｉｎｑｕＭｉｎｚｈｉｊｉｅｄａｏＷａｎｚｈｏｎｇｃｈｅｎｇ　Ｈｕａｑｉａｏｘｉｎｙｕａｎｅｒｑｉｌｉｕｄｏｎｇ６Ｃ－１４　Ｓｈｅｎｚｈｅｎｓｈｉ,,,,,,2023-08-28,1,,,,,シンセンシサイウェイヤシャンマオユウゲンコウシ,0
221,1700150119394,新規,0,2023-08-28,2023-08-28,ＹＩＣＨＡＮＧＳＨＩＪＩＡＮＧＣＨＥＮＭＡＯＹＩＹＯＵＸＩＡＮＧＯＮＧＳＩ,,外国会社等,,,,,,,,ＹＵＹＡＮＧＢＡＮＳＨＩＣＨＵＸＩＮＭｌＮＳＡＮＺＵ　ＤＡＮＧＹＡＮＧＳＨＩ　ＨＵＢＥＩＳＨＥＮＧ　４４３０００　ＣＮ,,,,,,2023-08-28,1,,,,,イーチャンシージャンチェンマオイーヨウシエンゴンスー,0
222,1700150119403,新規,0,2023-08-28,2023-08-28,山西詩茵商貿有限公司,,外国会社等,,,,,,,,中国運城市塩湖区解州鎮西元上下城壕商業街３７号門面房,,,,,,2023-08-28,1,,,,,サンセイシインショウボウユウゲンコウシ,0
228,2010003041501,新規,0,2023-08-28,2023-08-28,合同会社イチキ,,合同会社,東京都,中央区,銀座１丁目２２－１１銀座大竹ビジデンス２Ｆ,,13,102,1040061,,,,,,,2023-08-28,1,,,,,イチキ,0
229,2010003041518,新規,0,2023-08-28,2023-08-28,ＤＨＦ２合同会社,,合同会社,東京都,千代田区,丸の内３丁目１番１号東京共同会計事務所内,,13,101,1000005,,,,,,,2023-08-28,1,,,,,ディーエイチエフツー,0
232,2010401176353,新規,0,2023-08-28,2023-08-28,株式会社ポテント,,株式会社,東京都,港区,南青山２丁目２番１５号,,13,103,1070062,,,,,,,2023-08-28,1,,,,,ポテント,0
233,2010401176782,新規,0,2023-08-28,2023-08-28,株式会社ジャパンラプソディ,,株式会社,東京都,港区,白金３丁目９番１１号２Ｆ,,13,103,1080072,,,,,,,2023-08-28,1,,,,,ジャパンラプソディ,0
237,2010403030797,新規,0,2023-08-28,2023-08-28,パシフィコ・エナジー・ストレージ４号合同会社,,合同会社,東京都,港区,六本木３丁目２番１号六本木グランドタワー,,13,103,1060032,,,,,,,2023-08-28,1,,,,,パシフィコエナジーストレージヨンゴウ,0
242,2010801034284,新規,0,2023-08-28,2023-08-28,開源株式会社,,株式会社,東京都,大田区,東海３丁目７番３号,,13,111,1430001,,,,,,,2023-08-28,1,,,,,カイゲン,0
252,2011001156605,新規,0,2023-08-28,2023-08-28,株式会社ｌｉｎｋ,,株式会社,東京都,渋谷区,宇田川町３番７号ヒューリック渋谷公園通りビル５Ｆ－７４,,13,113,1500042,,,,,,,2023-08-28,1,,,,,リンク,0
253,2011001156613,新規,0,2023-08-28,2023-08-28,Ｄｅｓｃａｒｔｙ株式会社,,株式会社,東京都,渋谷区,道玄坂１丁目１０番８号渋谷道玄坂東急ビル２Ｆ－Ｃ,,13,113,1500043,,,,,,,2023-08-28,1,,,,,デカルティ,0
255,2011101005430,新規,0,2023-08-28,2023-08-28,株式会社協和魚類,,株式会社,東京都,新宿区,若葉２丁目３番５号,,13,104,1600011,,,,,,,2023-08-28,1,,,,,キョウワギョルイ,0
270,2011703003575,新規,0,2023-08-28,2023-08-28,越智建設合同会社,,合同会社,東京都,江戸川区,大杉４丁目３番１３号,,13,123,1320022,,,,,,,2023-08-28,1,,,,,オチケンセツ,0
275,2012801022590,新規,0,2023-08-28,2023-08-28,株式会社ココカラヒーリング,,株式会社,東京都,国分寺市,本多１丁目９番１４号,,13,214,1850011,,,,,,,2023-08-28,1,,,,,ココカラヒーリング,0
283,2020001153181,新規,0,2023-08-28,2023-08-28,株式会社悠勢興業,,株式会社,神奈川県,横浜市栄区,鍛冶ケ谷２丁目１５番１号,,14,115,2470009,,,,,,,2023-08-28,1,,,,,ユウセイコウギョウ,0
294,2021005012885,新規,0,2023-08-28,2023-08-28,一般社団法人グローバルスポーツマーケティング研究機構,,その他の設立登記法人,神奈川県,藤沢市,鵠沼松が岡３丁目１０番２３－４号,,14,205,2510038,,,,,,,2023-08-28,1,,,,,グローバルスポーツマーケティングケンキュウキコウ,0
315,2060001036291,新規,0,2023-08-28,2023-08-28,株式会社Ｓｌｏｗ　Ｌｉｆｅ,,株式会社,栃木県,小山市,乙女１丁目１５番１号,,09,208,3290214,,,,,,,2023-08-28,1,,,,,スローライフ,0
319,2070001040796,新規,0,2023-08-28,2023-08-28,Ｓｍｉｌｅ　Ｐｒｏｐｅｒｔｉｅｓ株式会社,,株式会社,群馬県,沼田市,白沢町下古語父８４９番地,,10,206,3780127,,,,,,,2023-08-28,1,,,,,スマイルプロパティーズ,0
323,2100003007162,新規,0,2023-08-28,2023-08-28,合同会社Ｏｆｆｉｃｅ　Ｅａｒｔｈ,,合同会社,長野県,北安曇郡白馬村,大字神城２７４２５番地１１０,,20,485,3999211,,,,,,,2023-08-28,1,,,,,オフィスアース,0
338,2120001257550,新規,0,2023-08-28,2023-08-28,株式会社ｆｉｒｅ,,株式会社,大阪府,大阪市北区,堂山町１番２号,,27,127,5300027,,,,,,,2023-08-28,1,,,,,ファイアー,0
339,2120001257633,新規,0,2023-08-28,2023-08-28,晶＿株式会社,00131667,株式会社,大阪府,大阪市西成区,長橋３丁目３番２０号,,27,122,5570025,,,,,,,2023-08-28,1,,,,,ショウキン,0
340,2120001257658,新規,0,2023-08-28,2023-08-28,株式会社吉建組,,株式会社,大阪府,大阪市平野区,西脇２丁目５番１号,,27,126,5470035,,,,,,,2023-08-28,1,,,,,ヨシケングミ,0
347,2120003024775,新規,0,2023-08-28,2023-08-28,合同会社茂右衛門,,合同会社,大阪府,寝屋川市,黒原城内町２２－８五月住宅２０３,,27,215,5720050,,,,,,,2023-08-28,1,,,,,モエモン,0
351,2120101068113,新規,0,2023-08-28,2023-08-28,徳誉株式会社,00131681,株式会社,大阪府,阪南市,舞４丁目２９－１４,,27,232,5990224,,,,,,,2023-08-28,1,,,,,トクヨ,0
368,2140001131365,新規,0,2023-08-28,2023-08-28,株式会社アライブシステックス,,株式会社,兵庫県,神戸市須磨区,大田町４丁目３番１０号５０１,,28,107,6540024,,,,,,,2023-08-28,1,,,,,アライブシステックス,0
369,2140001131373,新規,0,2023-08-28,2023-08-28,株式会社やさしい花,,株式会社,兵庫県,神戸市西区,井吹台東町１丁目４番地５－２０１号,,28,111,6512242,,,,,,,2023-08-28,1,,,,,ヤサシイハナ,0
374,2180001157761,新規,0,2023-08-28,2023-08-28,株式会社フラットＴＡＩＬ,,株式会社,愛知県,名古屋市中区,金山３丁目８番５号スカイカナヤマ７階,,23,106,4600022,,,,,,,2023-08-28,1,,,,,フラットテイル,0
382,2220001025567,新規,0,2023-08-28,2023-08-28,株式会社ブロックバリューマネジメント,,株式会社,石川県,羽咋郡志賀町,若葉台４０番１,,17,384,9250375,,,,,,,2023-08-28,1,,,,,ブロックバリューマネジメント,0
393,2270003001553,新規,0,2023-08-28,2023-08-28,合同会社やまね,,合同会社,鳥取県,八頭郡八頭町,久能寺８９６番地３７,,31,329,6800451,,,,,,,2023-08-28,1,,,,,ヤマネ,0
398,2290001102789,新規,0,2023-08-28,2023-08-28,株式会社リバージュ,,株式会社,福岡県,福岡市博多区,堅粕３丁目３－２,,40,132,8120043,,,,,,,2023-08-28,1,,,,,リバージュ,0
399,2290001102797,新規,0,2023-08-28,2023-08-28,株式会社ＫＣ,,株式会社,福岡県,福岡市博多区,吉塚４丁目６－５０ＷＩＳＴＡＲＩＡ博多東２０３,,40,132,8120041,,,,,,,2023-08-28,1,,,,,ケーシー,0
401,2290003014280,新規,0,2023-08-28,2023-08-28,合同会社チェインズ,,合同会社,福岡県,大野城市,筒井１丁目２０－１４,,40,219,8160931,,,,,,,2023-08-28,1,,,,,チェインズ,0
404,2290005019113,新規,0,2023-08-28,2023-08-28,一般社団法人ふくおかフォスターサポートセンター,,その他の設立登記法人,福岡県,福岡市城南区,別府２丁目１９番１－５０５号,,40,136,8140104,,,,,,,2023-08-28,1,,,,,フクオカフォスターサポートセンター,0
415,2370003006261,新規,0,2023-08-28,2023-08-28,合同会社サンライト東北,,合同会社,宮城県,仙台市青葉区,花京院１丁目４番４７号ＡＬＬＥＬＬ花京院ビル２Ｆ,,04,101,9800013,,,,,,,2023-08-28,1,,,,,サンライトトウホク,0
425,2700150119352,新規,0,2023-08-28,2023-08-28,Ｃｈａｎｇ　ｚｈｏｕ　ｇａｉ　ｚｅ　ｊｉｎ　ｃｈｕ　ｋｏｕ　ｙｏｕ　ｘｉａｎ　ｇｏｎｇ　ｓｉ,,外国会社等,,,,,,,,Ｗｕ　ｊｉｎ　ｇｕｏ　ｊｉａ　ｇａｏ　ｘｉｎ　ｊｉ　ｓｈｕ　ｃｈａｎ　ｙｅ　ｋａｉ　ｆａ　ｑｕ　Ｍａ　ｈａｎｇ　ｇｕａｎｇ　ｄｉａｎ　ｌｕ　１４０　ｈａｏ　ｎａｎ　ｄａ　ｌｏｕ　５　ｌｏｕ　５０１　ｓｈｉ　Ｃｈａｎｇｚｈｏｕ　ｊｉａｎｇｓｕ　２１３１６１　ＣＮ,,,,,,2023-08-28,1,,,,,チャンジョウガイゾージンチューコウヨウシエンゴンスー,0
426,2700150119360,新規,0,2023-08-28,2023-08-28,ｚｈｕｈａｉ　ｃｉｔｙ　ｚｈｏｎｇ　ｋａｉ　ｔｉｙｕ　ｃｅｈｕａ　Ｃｏ．Ｌｔｄ,,外国会社等,,,,,,,,Ｚｈｕｈａｉ　Ｃｉｔｙ　Ｘｉａｎｇｚｈｏｕ　Ｄｉｓｔｒｉｃｔ　Ｘｉｎｇｙｅ　Ｒｏａｄ　ＮＯ．８　１　Ｄａｎｙｕａｎ　６０１　Ｒｏｏｍ,,,,,,2023-08-28,1,,,,,ジューハイシージョンカイティーイーツォーフワーヨウシエンゴンスー,0
427,2700150119369,新規,0,2023-08-28,2023-08-28,Ｓｈａｎｇｈａｉ　ｙｕｎｇｕａｎｇｍａｏｙｉ　ｙｏｕｘｉａｎｇｏｎｇｓｉ,,外国会社等,,,,,,,,ｊｉｎｑｉａｎｇｏｎｇｌｕ３３２９ｈａｏ４ｚｈｕａｎｇ　ｆｅｎｇｘｉａｎｑｕｓｈａｎｇｈａｉｓｈｉ,,,,,,2023-08-28,1,,,,,シャンハイユングゥアンマオイユウゲンコウシ,0
428,2700150119377,新規,0,2023-08-28,2023-08-28,Ｈｕｉｚｈｏｕ　Ｋｕｉｓｈｕｏ　Ｔｒａｄｉｎｇ　Ｃｏ．，Ｌｔｄ．,,外国会社等,,,,,,,,ＪｉｎｇｌｏｎｇＶｉｌｌａｇｅＺｈｅｎｌｏｎｇＴｏｗｎ　３ｒｄＦｌｏｏｒＡｒｅａＢ　Ｂｕｉｌｄｉｎｇ１ＴａｉｍｉｎｇＩｎｄｕｓｔｒｉａｌＺｏｎｅ　Ｈｕｉｚｈｏｕ　Ｈｕｉｙａｎｇ　Ｄｉｓｔｒｉｃｔ,,,,,,2023-08-28,1,,,,,ケイシュウクイシュオトレーディングカンパニーリミテッド,0
429,2700150119385,新規,0,2023-08-28,2023-08-28,Ｓｈｅｎｚｈｅｎ　Ｄｕｄｕ　Ｐｅｔ　ｐｒｏｄｕｃｔｓ　Ｃｏ．，Ｌｔｄ,,外国会社等,,,,,,,,Ｒｏｏｍ６０４　ＴｏｗｅｒＢ　ＹａｎｌｏｒｄＤｒｅａｍＰｌａｚａ　ＨｕｉｌｏｎｇｐｕＣｏｍｍｕｎｉｔｙ　ＬｏｎｇｃｈｅｎｇＳｔｒｅｅｔ　ＬｏｎｇｇａｎｇＤｉｓｔｒｉｃｔ　Ｓｈｅｎｚｈｅｎ,,,,,,2023-08-28,1,,,,,シンセンドウドウペットプロダクツカンパニーリミテッド,0
430,2700150119393,新規,0,2023-08-28,2023-08-28,ｑｕａｎｚｈｏｕｓｈｉ　ｊｉａｊｉｎｇｙｕｎｙｉｍａｏｙｉ　ｙｏｕｘｉａｎｇｏｎｇｓｉ,,外国会社等,,,,,,,,ｆｕｊｉａｎｓｈｅｎｇ　ｑｕａｎｚｈｏｕｓｈｉ　ｓｈｉｓｈｉｓｈｉｌｉｎｇｘｉｕｚｈｅｎ　ｌｉｎｇｓｈａｎｃｕｎｙｉｎｇｂｉｎｎａｎｌｕ５８ｈａｏ,,,,,,2023-08-28,1,,,,,センシュウシジャジンユンイマオイユウゲンコウシ,0
431,2700150119402,新規,0,2023-08-28,2023-08-28,深セン市哲森科技有限公司,,外国会社等,,,,,,,,中国深セン市龍華区民治街道新牛社区中華路３０号三宝工業区Ｃ棟１０２,,,,,,2023-08-28,1,,,,,シンセンシテツシンカギユウゲンコウシ,0
446,3010001237934,新規,0,2023-08-28,2023-08-28,雲曦株式会社,00131668,株式会社,東京都,中央区,晴海２丁目２番４２号パークタワー晴海２３０８,,13,102,1040053,,,,,,,2023-08-28,1,,,,,ウンキ,0
447,3010001237959,新規,0,2023-08-28,2023-08-28,株式会社ＪＫ　ＣＯＲＰ　ＪＡＰＡＮ,,株式会社,東京都,千代田区,麹町１丁目６番１６号半蔵門海和ビル９階（Ｃ／ＯＪｏｏ－ｒｅａｌｅｓｔａｔｅ－ｏｆｆｉｃｅ）,,13,101,1020083,,,,,,,2023-08-28,1,,,,,ジェイケーコープジャパン,0
448,3010001237991,新規,0,2023-08-28,2023-08-28,株式会社丹羽企画,,株式会社,東京都,中央区,日本橋室町１丁目１１番１２号日本橋水野ビル７階,,13,102,1030022,,,,,,,2023-08-28,1,,,,,ニワキカク,0
451,3010003041517,新規,0,2023-08-28,2023-08-28,ブルーアイランドコーヒー合同会社,,合同会社,東京都,中央区,銀座１丁目１２番４号Ｎ＆ＥＢＬＤ．６Ｆ,,13,102,1040061,,,,,,,2023-08-28,1,,,,,ブルーアイランドコーヒー,0
457,3010401176245,新規,0,2023-08-28,2023-08-28,ＲＩＣＨＥＳ株式会社,,株式会社,東京都,港区,六本木６丁目２－３１六本木ヒルズノースタワー１７階,,13,103,1060032,,,,,,,2023-08-28,1,,,,,リッチーズ,0
458,3010401176781,新規,0,2023-08-28,2023-08-28,株式会社ＫＳＧ商事,,株式会社,東京都,港区,赤坂９丁目１－７赤坂レジデンシャルホテル５３８号,,13,103,1070052,,,,,,,2023-08-28,1,,,,,ケーエスジーショウジ,0
459,3010401176798,新規,0,2023-08-28,2023-08-28,株式会社クレスタ,,株式会社,東京都,港区,六本木３丁目３番１５号麻布台ＴＳタワー７０１,,13,103,1060032,,,,,,,2023-08-28,1,,,,,クレスタ,0
460,3010401176807,新規,0,2023-08-28,2023-08-28,株式会社ＡＭＳＳ,,株式会社,東京都,港区,六本木１丁目５番３,,13,103,1060032,,,,,,,2023-08-28,1,,,,,エーエムエスエス,0
461,3010401176815,新規,0,2023-08-28,2023-08-28,株式会社Ｐａｒａｖｅｎｔｕｒｅｓ,,株式会社,東京都,港区,南青山５丁目１１－２４グレイセス２Ｆ,,13,103,1070062,,,,,,,2023-08-28,1,,,,,パラベンチャーズ,0
464,3010403030796,新規,0,2023-08-28,2023-08-28,合同会社ＩＡＴ,,合同会社,東京都,港区,高輪２丁目１３番１号高輪２１３１ビル４号室,,13,103,1080074,,,,,,,2023-08-28,1,,,,,アイエーティー,0
465,3010405022395,新規,0,2023-08-28,2023-08-28,一般社団法人日本デーツ協会,,その他の設立登記法人,東京都,港区,芝１丁目１０番１３号芝日景有楽ビル９０２,,13,103,1050014,,,,,,,2023-08-28,1,,,,,ニホンデーツキョウカイ,0
470,3010601063672,新規,0,2023-08-28,2023-08-28,株式会社勝案,,株式会社,東京都,墨田区,堤通１丁目１４番６－４０６号,,13,107,1310034,,,,,,,2023-08-28,1,,,,,ショウアン,0
473,3010901053679,新規,0,2023-08-28,2023-08-28,ＧＲＥＥＮ　ＢＥＮＥＦＩＴ株式会社,,株式会社,東京都,世田谷区,桜丘４丁目１０番２１号グランドオール桜丘２０４,,13,112,1560054,,,,,,,2023-08-28,1,,,,,グリーンベネフィット,0
475,3010905004521,新規,0,2023-08-28,2023-08-28,一般社団法人シビルプロテクション・リサーチ,,その他の設立登記法人,東京都,世田谷区,祖師谷６丁目１１番５号,,13,112,1570072,,,,,,,2023-08-28,1,,,,,シビルプロテクションリサーチ,0
478,3011001156538,新規,0,2023-08-28,2023-08-28,株式会社プラスアルファ,,株式会社,東京都,渋谷区,道玄坂１丁目１０番８号渋谷道玄坂東急ビル２Ｆ－Ｃ,,13,113,1500043,,,,,,,2023-08-28,1,,,,,プラスアルファ,0
479,3011001156604,新規,0,2023-08-28,2023-08-28,Ｓ１ＺＥＮ　ＰＬＵＳ株式会社,,株式会社,東京都,渋谷区,恵比寿南２丁目２１番２号恵比寿サウスヒル４０２,,13,113,1500022,,,,,,,2023-08-28,1,,,,,シゼンプラス,0
480,3011001156612,新規,0,2023-08-28,2023-08-28,株式会社ＰＢＫｉｄｓ,,株式会社,東京都,目黒区,洗足２丁目２５番６号マハロ目黒洗足１０４,,13,110,1520012,,,,,,,2023-08-28,1,,,,,ピービーキッズ,0
481,3011001156620,新規,0,2023-08-28,2023-08-28,株式会社Ｕｃｈｉｗａ,,株式会社,東京都,渋谷区,道玄坂１丁目１０番８号渋谷道玄坂東急ビル２Ｆ－Ｃ,,13,113,1500043,,,,,,,2023-08-28,1,,,,,ウチワ,0
483,3011003017358,新規,0,2023-08-28,2023-08-28,合同会社神宮ｓｔｙｌｅ　ｓｔｒｅｔｃｈ　ｇｙｍ,,合同会社,東京都,渋谷区,神宮前３丁目４０－１５ＨＣ５ビル２階,,13,113,1500001,,,,,,,2023-08-28,1,,,,,ジングウスタイルストレッチジム,0
484,3011101104124,新規,0,2023-08-28,2023-08-28,株式会社ウエスト・セクション,,株式会社,東京都,新宿区,西新宿３丁目３番１３号２Ｆ,,13,104,1600023,,,,,,,2023-08-28,1,,,,,ウエストセクション,0
485,3011103013422,新規,0,2023-08-28,2023-08-28,モビリティ・コンサルティング合同会社,,合同会社,東京都,新宿区,西新宿３丁目５番３号,,13,104,1600023,,,,,,,2023-08-28,1,,,,,モビリティコンサルティング,0
486,3011203004156,新規,0,2023-08-28,2023-08-28,合同会社ＭｏｎｅｙＨｏｕｓｅ,,合同会社,東京都,中野区,上鷺宮３丁目１０番１２号エクセルコート富士見台２０４,,13,114,1650031,,,,,,,2023-08-28,1,,,,,マネーハウス,0
492,3011701026552,新規,0,2023-08-28,2023-08-28,デルフィノ株式会社,,株式会社,東京都,江戸川区,西小岩５丁目１２番１６号ＫＵＲＡＳＳＫＯＩＷＡ・２Ｄ,,13,123,1330057,,,,,,,2023-08-28,1,,,,,デルフィノ,0
495,3012403006140,新規,0,2023-08-28,2023-08-28,合同会社Ｓｅｃｏｎｄ　Ｓｔｅｐ,,合同会社,東京都,狛江市,中和泉１丁目１５－１４フリーデンハイム２Ｆ,,13,219,2010012,,,,,,,2023-08-28,1,,,,,セカンドステップ,0
506,3020001153180,新規,0,2023-08-28,2023-08-28,株式会社ライド,,株式会社,神奈川県,横浜市金沢区,釜利谷西１丁目３０番９号ポモドーロ１０３,,14,108,2360046,,,,,,,2023-08-28,1,,,,,ライド,0
507,3020001153197,新規,0,2023-08-28,2023-08-28,平野電気工業株式会社,,株式会社,神奈川県,横浜市南区,永田東２丁目３７番１２号レオパレスエレガンテＩＩＩ１０２,00131669,14,105,2320072,,,,,,,2023-08-28,1,,,,,ヒラノデンキコウギョウ,0
515,3021001080027,新規,0,2023-08-28,2023-08-28,株式会社大隈電気総合サービス,,株式会社,神奈川県,秦野市,西田原１０７番地の１１,,14,211,2570027,,,,,,,2023-08-28,1,,,,,オオクマデンキソウゴウサービス,0
516,3021003013488,新規,0,2023-08-28,2023-08-28,日本臨床総合医療合同会社,,合同会社,神奈川県,大和市,中央４丁目４番,,14,213,2420021,,,,,,,2023-08-28,1,,,,,ニホンリンショウソウゴウイリョウ,0
523,3030001155696,新規,0,2023-08-28,2023-08-28,株式会社Ｃｏｎｃｅｎｃｏｒｅ,,株式会社,埼玉県,飯能市,柳町７番１０号ＫＩＶ商会館飯能Ａ号室,,11,209,3570035,,,,,,,2023-08-28,1,,,,,コンセンコア,0
528,3030003022366,新規,0,2023-08-28,2023-08-28,ドラゴール合同会社,,合同会社,埼玉県,川口市,幸町３丁目６番２７号林ビル３０１号,,11,203,3320016,,,,,,,2023-08-28,1,,,,,ドラゴール,0
546,3050003007720,新規,0,2023-08-28,2023-08-28,ＮＩＲＯ　ＬＡＮＫＡ　ＥＮＴＥＲＰＲＩＳＥ合同会社,,合同会社,茨城県,坂東市,猫実１１００番地４,,08,228,3060616,,,,,,,2023-08-28,1,,,,,ニロランカエンタープライズ,0
549,3080001025820,新規,0,2023-08-28,2023-08-28,株式会社ミヨコ,,株式会社,静岡県,静岡市駿河区,下川原６丁目１７番１９号,,22,102,4210113,,,,,,,2023-08-28,1,,,,,ミヨコ,0
554,3080401026682,新規,0,2023-08-28,2023-08-28,シエンライム株式会社,,株式会社,静岡県,浜松市東区,上西町１１５５－１,,22,132,4350048,,,,,,,2023-08-28,1,,,,,シエンライム,0
566,3120001257632,新規,0,2023-08-28,2023-08-28,株式会社ＫＡｒｕｋａｓ,,株式会社,大阪府,大阪市中央区,内久宝寺町２丁目２番２２－２０５号,,27,128,5400013,,,,,,,2023-08-28,1,,,,,カルカス,0
571,3120003024790,新規,0,2023-08-28,2023-08-28,合同会社はやし事務所,,合同会社,大阪府,大阪市西区,土佐堀１丁目６番２０号,,27,106,5500001,,,,,,,2023-08-28,1,,,,,ハヤシジムショ,0
574,3120101068112,新規,0,2023-08-28,2023-08-28,株式会社Ｌｅａｄ　Ｃｏｍｐａｎｙ,,株式会社,大阪府,大阪狭山市,半田４丁目２６６３番地,,27,231,5890011,,,,,,,2023-08-28,1,,,,,リードカンパニー,0
578,3122001037304,新規,0,2023-08-28,2023-08-28,つながりフードサービス株式会社,,株式会社,大阪府,東大阪市,小若江２丁目１１番２１号,,27,227,5770818,,,,,,,2023-08-28,1,,,,,ツナガリフードサービス,0
589,3140001131372,新規,0,2023-08-28,2023-08-28,リマックス株式会社,,株式会社,兵庫県,宍粟市,山崎町須賀沢５６５番地２,,28,227,6712533,,,,,,,2023-08-28,1,,,,,リマックス,0
620,3290001102763,新規,0,2023-08-28,2023-08-28,株式会社ＩＮＡＴＹ,,株式会社,福岡県,福岡市東区,塩浜１丁目３６番２７号,,40,131,8110203,,,,,,,2023-08-28,1,,,,,イナティ,0
621,3290001102796,新規,0,2023-08-28,2023-08-28,株式会社ＧＡＴＥ,,株式会社,福岡県,福岡市中央区,天神２丁目２番１２号Ｔ＆Ｊビルディング７Ｆ,,40,133,8100001,,,,,,,2023-08-28,1,,,,,ゲート,0
623,3290005019137,新規,0,2023-08-28,2023-08-28,一般社団法人Ａ　ｌｕｔｅｎ,,その他の設立登記法人,福岡県,福津市,中央３丁目１番１号ＪＲ福間駅ビル３階Ｑ－ＷｏｒｋｓＦＵＫＵＭＡ,,40,224,8113217,,,,,,,2023-08-28,1,,,,,アルテン,0
638,3360001032466,新規,0,2023-08-28,2023-08-28,株式会社ＮＡＧＯＭＩ,,株式会社,沖縄県,石垣市,浜崎町２丁目５番地８,,47,207,9070013,,,,,,,2023-08-28,1,,,,,ナゴミ,0
645,3420001018376,新規,0,2023-08-28,2023-08-28,株式会社南部ソリューションズ,,株式会社,青森県,八戸市,根城８丁目１１番１１号,,02,203,0391166,,,,,,,2023-08-28,1,,,,,ナンブソリューションズ,0
650,3430001089846,新規,0,2023-08-28,2023-08-28,株式会社ＲＯＢＩＮＳＯＮ,,株式会社,北海道,札幌市中央区,北五条西１１丁目１４番地,,01,101,0600005,,,,,,,2023-08-28,1,,,,,ロビンソン,0
660,3700150042479,新規,0,2023-08-28,2015-10-09,名古屋東労働基準協会,,その他,愛知県,名古屋市瑞穂区,牛巻町８－９渡辺ビル　内,,23,108,4670863,,,,,,,2015-10-09,1,,,,,ナゴヤヒガシロウドウキジユンキヨウカイ,0
661,3700150119351,新規,0,2023-08-28,2023-08-28,Ｃｈａｎｇ　ｚｈｏｕ　ｗｅｉ　ｎｕｏ　ｊｉａ　ｊｕ　ｙｏｎｇ　ｐｉｎ　ｙｏｕ　ｘｉａｎ　ｇｏｎｇ　ｓｉ,,外国会社等,,,,,,,,ｗｕ　ｊｉｎ　ｇｕｏ　ｊｉａ　ｇａｏ　ｘｉｎ　ｊｉ　ｓｈｕ　ｃｈａｎ　ｙｅ　ｋａｉ　ｆａ　ｑｕ　ｍａ　ｈａｎｇ　ｇｕａｎｇ　ｄｉａｎ　ｌｕ　１４０　ｈａｏ　Ｃｈａｎｇｚｈｏｕ　ｊｉａｎｇｓｕ　２１３１６１　ＣＮ,,,,,,2023-08-28,1,,,,,チャンジョウウェイヌオジャージーヨンピンヨウシエンゴンスー,0
662,3700150119368,新規,0,2023-08-28,2023-08-28,Ｃｈｏｎｇｑｉｎｇ　ｍｅｉｍｉｎｇｙａｎｇｋｅｊｉ　ｙｏｕｘｉａｎｇｏｎｇｓｉ,,外国会社等,,,,,,,,ｃｈｏｎｇｑｉｎｇｓｈｉｙｕｂｅｉｑｕｌｏｎｇｓｈａｎｊｉｅｄａｏｑｉｌｏｎｇｌｕ６７ｈａｏｆａｎｇｅＳＯＣ０１ｚｈｕａｎｇ３２－１０　ｃｈｏｎｇｑｉｎｇ,,,,,,2023-08-28,1,,,,,ジュウケイメイミンヤンカギユウゲンコウシ,0
663,3700150119376,新規,0,2023-08-28,2023-08-28,ｓｈｅｎｚｈｅｎｓｈｉ　ａｎｒｕｉｃｈｕａｎｇｄｉａｎｚｉｋｅｊｉ　ｙｏｕｘｉａｎｇｏｎｇｓｉ,,外国会社等,,,,,,,,ＳｈｅｎｚｈｅｎｓｈｉＬｏｎｇｈｕａｑｕＭｉｎｚｈｉｊｉｅｄａｏＭｉｎｌｅｓｈｅｑｕＸｉｎｈｅＷＯＲＬＤ２ｑｉＥｄｏｎｇ１１０９,,,,,,2023-08-28,1,,,,,シンセンシアンルイチワンデンシカギユウゲンコウシ,0
664,3700150119384,新規,0,2023-08-28,2023-08-28,ｓｈｅｎｚｈｅｎｓｈｉ　ｍｅｎｇｔｏｎｇｋｅｊｉ　ｙｏｕｘｉａｎｇｏｎｇｓｉ,,外国会社等,,,,,,,,ｓｈｅｎｚｈｅｎｓｈｉｆｕｔｉａｎｑｕｆｕｔｉａｎｊｉｅｄａｏｇａｎｇｘｉａｓｈｅｑｕｃａｉｔｉａｎｌｕ３０６９ｈａｏｘｉｎｇｈｅｓｈｉｊｉＡｄｏｎｇ１２０５Ｅ１,,,,,,2023-08-28,1,,,,,シンセンシメントンカギユウゲンコウシ,0
665,3700150119392,新規,0,2023-08-28,2023-08-28,ｓｈｅｎｚｈｅｎｓｈｉ　ｚｈａｎｇｗｅｎｃｏｎｇｍａｏｙｉ　ｙｏｕｘｉａｎｇｏｎｇｓｉ,,外国会社等,,,,,,,,ｌｏｎｇｈｕａｘｉｎｑｕｄａｌａｎｇｊｉｅｄａｏ　ｙｕｎｆｅｎｇｌｕ９ｈａｏ６ｌｏｕ６０２　ｓｈｅｎｚｈｅｎ,,,,,,2023-08-28,1,,,,,シンセンシザンウェンツォンマオイユウゲンコウシ,0
666,3700150119401,新規,0,2023-08-28,2023-08-28,天津中天仁合貨運代理有限公司,,外国会社等,,,,,,,,中国天津市和平区承徳道与張自忠路交口西北側港湾中心１１０９,,,,,,2023-08-28,1,,,,,テンシンチュウテンニンゴウカウンダイリユウゲンコウシ,0
669,4010001237933,新規,0,2023-08-28,2023-08-28,令和株式会社,,株式会社,東京都,中央区,日本橋箱崎町３２番地３,,13,102,1030015,,,,,,,2023-08-28,1,,,,,レイワ,0
670,4010001237982,新規,0,2023-08-28,2023-08-28,株式会社ケイオーシー足利,,株式会社,東京都,中央区,東日本橋２丁目１６番７号,,13,102,1030004,,,,,,,2023-08-28,1,,,,,ケイオーシーアシカガ,0
673,4010005037041,新規,0,2023-08-28,2023-08-28,一般社団法人美容医療推進協会,,その他の設立登記法人,東京都,中央区,入船２丁目２番６号,,13,102,1040042,,,,,,,2023-08-28,1,,,,,ビヨウイリョウスイシンキョウカイ,0
688,4010603010325,新規,0,2023-08-28,2023-08-28,合同会社ＴＳ．ｃｏｍｐａｎｙ,,合同会社,東京都,江東区,古石場２丁目１３番１－９１４号,,13,108,1350045,,,,,,,2023-08-28,1,,,,,ティーエスドットカンパニー,0
691,4010801034258,新規,0,2023-08-28,2023-08-28,株式会社ＣｏｎａＬｅｄｇｅ,,株式会社,東京都,大田区,池上７丁目２番７号,,13,111,1460082,,,,,,,2023-08-28,1,,,,,コナレッジ,0
697,4010901053703,新規,0,2023-08-28,2023-08-28,サンテリエ株式会社,,株式会社,東京都,世田谷区,三軒茶屋１丁目３５番２３号スパツィアーレ三軒茶屋５０３,,13,112,1540024,,,,,,,2023-08-28,1,,,,,サンテリエ,0
698,4010903008399,新規,0,2023-08-28,2023-08-28,ＣＵＤＤＬＥＲＳ合同会社,,合同会社,東京都,世田谷区,羽根木１丁目２３番１４号１０２,,13,112,1560042,,,,,,,2023-08-28,1,,,,,カドラーズ,0
699,4010903008416,新規,0,2023-08-28,2023-08-28,合同会社ＨＹパートナーズ,,合同会社,東京都,世田谷区,三宿１丁目１４番８号－２０６三宿バドスクエア,,13,112,1540005,,,,,,,2023-08-28,1,,,,,エイチワイパートナーズ,0
701,4011001156561,新規,0,2023-08-28,2023-08-28,Ｍｉｎｔ　Ｐｒｏｄｕｃｔｉｏｎｓ株式会社,,株式会社,東京都,渋谷区,東１丁目２５番２号,,13,113,1500011,,,,,,,2023-08-28,1,,,,,ミントプロダクションズ,0
702,4011001156586,新規,0,2023-08-28,2023-08-28,株式会社ＭＩＣＨＩＺＵＲＥ,,株式会社,東京都,渋谷区,道玄坂１丁目１０番８号渋谷道玄坂東急ビル２Ｆ－Ｃ,,13,113,1500043,,,,,,,2023-08-28,1,,,,,ミチヅレ,0
703,4011001156611,新規,0,2023-08-28,2023-08-28,株式会社オフィスウエノ,,株式会社,東京都,渋谷区,幡ヶ谷１丁目３０番１号秀和幡ヶ谷レジデンス３１８号,,13,113,1510072,,,,,,,2023-08-28,1,,,,,オフィスウエノ,0
707,4011003017183,新規,0,2023-08-28,2023-08-28,合同会社アドバンス,,合同会社,東京都,渋谷区,渋谷２丁目１９－１５宮益坂ビルディング６０９,,13,113,1500002,,,,,,,2023-08-28,1,,,,,アドバンス,0
731,4020001153188,新規,0,2023-08-28,2023-08-28,株式会社リール,,株式会社,神奈川県,横浜市神奈川区,松見町４丁目９４４番地４９,,14,102,2210005,,,,,,,2023-08-28,1,,,,,リール,0
750,4030001155555,新規,0,2023-08-28,2023-08-28,株式会社タカハウス,,株式会社,埼玉県,春日部市,上蛭田３５番地１リバースプレイスＥＡＳＴ２０５,,11,214,3440046,,,,,,,2023-08-28,1,,,,,タカハウス,0
754,4030003022357,新規,0,2023-08-28,2023-08-28,高橋測量設計合同会社,,合同会社,埼玉県,新座市,北野３丁目１７番３号,,11,230,3520003,,,,,,,2023-08-28,1,,,,,タカハシソクリョウセッケイ,0
755,4030003022365,新規,0,2023-08-28,2023-08-28,合同会社Ｌｕｃｋｓ,,合同会社,埼玉県,入間市,宮寺３１８９－６１,,11,225,3580014,,,,,,,2023-08-28,1,,,,,ラクス,0
756,4030005021357,新規,0,2023-08-28,2023-08-28,一般社団法人埼玉ワーカーズ・コレクティブ連合会,,その他の設立登記法人,埼玉県,さいたま市南区,南浦和２丁目２２番７号２階,,11,108,3360017,,,,,,,2023-08-28,1,,,,,サイタマワーカーズコレクティブレンゴウカイ,0
767,4040003023148,新規,0,2023-08-28,2023-08-28,合同会社なのは,,合同会社,千葉県,市川市,大和田５丁目５－１３－２０２,,12,203,2720025,,,,,,,2023-08-28,1,,,,,ナノハ,0
769,4050001053352,新規,0,2023-08-28,2023-08-28,株式会社Ｌａｋｅｓｉｄｅ　ｒｅｃｏｒｄｓ,,株式会社,茨城県,水戸市,千波町１５１９番地の１１,,08,201,3100851,,,,,,,2023-08-28,1,,,,,レイクサイドレコーズ,0
770,4050001053360,新規,0,2023-08-28,2023-08-28,株式会社リズモ,,株式会社,茨城県,牛久市,女化町５１番地,,08,219,3001214,,,,,,,2023-08-28,1,,,,,リズモ,0
779,4070005010166,新規,0,2023-08-28,2023-08-28,特定非営利活動法人しろはら,,その他の設立登記法人,群馬県,前橋市,富士見町時沢８３６,,10,201,3710104,,,,,,,2023-08-28,1,,,,,シロハラ,0
784,4100001036723,新規,0,2023-08-28,2023-08-28,株式会社二刀流一,,株式会社,長野県,諏訪市,沖田町１丁目３１,,20,206,3920013,,,,,,,2023-08-28,1,,,,,ニトウリュウイチ,0
799,4120001257549,新規,0,2023-08-28,2023-08-28,株式会社ｍｉｓｔ,,株式会社,大阪府,大阪市北区,西天満６丁目４番１６－１２０７号,,27,127,5300047,,,,,,,2023-08-28,1,,,,,ミスト,0
800,4120001257648,新規,0,2023-08-28,2023-08-28,株式会社ｍｆ,,株式会社,大阪府,大阪市中央区,谷町２丁目４番６号,,27,128,5400012,,,,,,,2023-08-28,1,,,,,エムエフ,0
802,4120003024749,新規,0,2023-08-28,2023-08-28,恒順国際合同会社,,合同会社,大阪府,大阪市生野区,中川４丁目２－４ホワイトビル１０１室,,27,116,5440005,,,,,,,2023-08-28,1,,,,,コウジュンコクサイ,0
803,4120003024765,新規,0,2023-08-28,2023-08-28,ＹＥ商事合同会社,,合同会社,大阪府,交野市,私市６丁目３８番１０－６号,,27,230,5760033,,,,,,,2023-08-28,1,,,,,ヨウショウジ,0
808,4120101068111,新規,0,2023-08-28,2023-08-28,株式会社ＹＵ‐ＫＥＮ,,株式会社,大阪府,藤井寺市,道明寺４丁目１０番４号,,27,226,5830012,,,,,,,2023-08-28,1,,,,,ユーケン,0
826,4180001157751,新規,0,2023-08-28,2023-08-28,株式会社ワンジェー,,株式会社,愛知県,愛西市,西條町東善太６４番地,,23,232,4960913,,,,,,,2023-08-28,1,,,,,ワンジェー,0
831,4190001030684,新規,0,2023-08-28,2023-08-28,株式会社ＶＩＶＡ　ＮＹＡＧＯ,,株式会社,三重県,伊勢市,小俣町元町６２３番１,,24,203,5190503,,,,,,,2023-08-28,1,,,,,ビバニャーゴ,0
834,4250003003335,新規,0,2023-08-28,2023-08-28,合同会社アンドモア,,合同会社,山口県,山口市,仁保中郷３６２－１離れ,,35,203,7530302,,,,,,,2023-08-28,1,,,,,アンドモア,0
847,4300003002001,新規,0,2023-08-28,2023-08-28,合同会社ＶｉＶｉ,,合同会社,佐賀県,佐賀市,松原４丁目２番２０－５０４号ロマネスク松原,,41,201,8400831,,,,,,,2023-08-28,1,,,,,,0
874,4430003015378,新規,0,2023-08-28,2023-08-28,Ｒａｆｔ合同会社,,合同会社,北海道,札幌市北区,北十八条西５丁目２番３８－４０４号,,01,102,0010018,,,,,,,2023-08-28,1,,,,,ラフト,0
884,4700150066031,新規,0,2023-08-28,2015-10-09,沖縄県植物防疫協会,,その他,沖縄県,那覇市,泉崎１丁目２番２号,,47,201,9000021,,,,,,,2015-10-09,1,,,,,オキナワケンシヨクブツボウエキキヨウカイ,0
885,4700150119350,新規,0,2023-08-28,2023-08-28,Ｗｕｘｉ　Ｋａｇｕ　Ｅ－ｃｏｍｍｅｒｃｅ　Ｃｏ．，Ｌｔｄ,,外国会社等,,,,,,,,１８－２３０２，Ｈｕｉｇａｎｇ　Ｙｕｌａｎｙｕａｎ　２ｎｄ　Ｄｉｓｔｒｉｃｔ，Ｈｕｉｓｈａｎ　Ｄｉｓｔｒｉｃｔ，Ｗｕｘｉ，Ｃｈｉｎａ,,,,,,2023-08-28,1,,,,,ウーシーカーグーディエンズーシャンウーヨウシエンゴンスー,0
886,4700150119359,新規,0,2023-08-28,2023-08-28,ＧＵＡＮＧ　ＺＨＯＵ　ＨＵＡＲＥ　ＴＲＡＤＩＮＧ　ＣＯ．，ＬＴＤ,,外国会社等,,,,,,,,ＲＯＯＭ　４０５，ＮＯ．１７２　ＨＵＡＳＵＩ　ＲＤ，ＺＨＵＪＩＡＮＧ　ＸＩＮＧＣＨＥＮＧ，ＴＩＡＮＨＥ，ＧＵＡＮＧＺＨＯＵ，ＣＨＩＮＡ,,,,,,2023-08-28,1,,,,,グワンジョウシーフワーローマオイーヨウシエンゴンスー,0
887,4700150119367,新規,0,2023-08-28,2023-08-28,Ｓｈｅｎｚｈｅｎｓｈｉ　ｒｕｉｈｅｎｇｋｅｊｉ　ｙｏｕｘｉａｎｇｏｎｇｓｉ,,外国会社等,,,,,,,,ＮａｎｓｈａｎｑｕＮａｎｓｈａｎｊｉｅｄａｏＬｉｌｉｎｓｈｅｑｕＤｏｎｇｂｉｎｌｕ６ｈａｏ４１７　ＳｈｅｎｚｈｅｎＧｕａｎｇｄｏｎｇ,,,,,,2023-08-28,1,,,,,シンセンシルイヘンカギユウゲンコウシ,0
888,4700150119375,新規,0,2023-08-28,2023-08-28,ｇｕａｎｇｚｈｏｕ　ｇｕａｎｙｕｍａｏｙｉ　ｙｏｕｘｉａｎｇｏｎｇｓｉ,,外国会社等,,,,,,,,Ｒｏｏｍ２２１Ｎｏ．１Ｆｅｎｇｑｉｎｇｙｕａｎ４ｔｈＳｔｒｅｅｔ　ＦｅｎｇｈｕａｎｇＣｉｔｙＹｏｎｇｎｉｎｇＳｔｒｅｅｔ　ＺｅｎｇｃｈｅｎｇＤｉｓｔｒｉｃｔ　Ｇｕａｎｇｚｈｏｕ,,,,,,2023-08-28,1,,,,,コウシュウグゥアンユマオイユウゲンコウシ,0
889,4700150119383,新規,0,2023-08-28,2023-08-28,ｓｈｅｎｚｈｅｎｓｈｉ　ｍｅｎｇｄｏｕｄｏｕｋｅｊｉ　ｙｏｕｘｉａｎｇｏｎｇｓｉ,,外国会社等,,,,,,,,ｆｕｔｉａｎｑｕｆｕｔｉａｎｊｉｅｄａｏｇａｎｇｘｉａｓｈｅｑｕｃａｉｔｉａｎｌｕ３０６９ｈａｏ　ｘｉｎｇｈｅｓｈｉｊｉＡｄｏｎｇ１２０２Ｄ４　Ｓｈｅｎｚｈｅｎ,,,,,,2023-08-28,1,,,,,シンセンシメンドオドオカギユウゲンコウシ,0
890,4700150119391,新規,0,2023-08-28,2023-08-28,ｓｈｅｎｚｈｅｎｓｈｉ　ａｉｔｅｌａｎｋｅｊｉ　ｙｏｕｘｉａｎｇｏｎｇｓｉ,,外国会社等,,,,,,,,ＧｕａｎｇＤｏｎｇＳｈｅｎｇ　ＳｈｅｎＺｈｅｎＳｈｉ　ＬｏｎｇＧａｎｇＱｕ　ＢａｎＴｉａｎＪｉｅＤａｏＹｏｎｇＸｉａｎｇＬｕＺｈｉＤａＤａＳｈａ１００Ｂ,,,,,,2023-08-28,1,,,,,シンセンシアイテランカギユウゲンコウシ,0
891,4700150119400,新規,0,2023-08-28,2023-08-28,Ｃｈａｎｇｓｈａ　Ｙｕｈａｏ　Ｅ－Ｃｏｍｍｅｒｃｅ　Ｃｏｍｐａｎｙ　Ｌｉｍｉｔｅｄ,,外国会社等,,,,,,,,ｄｉｎｇｗａｎｇｔａｉｊｉｅｄａｏｌｉｕｚｈｅｎｇｊｉｅ２５ｈａｏ　ｄｉ０７ｄｏｎｇ２０２８ｓｈｉ　ｃｈａｎｇｓｈａｓｈｉ　ｆｕｒｏｎｇｑｕ　ｈｕｎａｎｓｈｅｎｇ　４１０００５　ＣＮ,,,,,,2023-08-28,1,,,,,ジャンシャーシーイーハオディエンズーシャンウーヨウシエンゴンスー,0
898,5010001237965,新規,0,2023-08-28,2023-08-28,株式会社ＳＡＮＴＡＩＴＳＵ　ＨＯＭＥ,,株式会社,東京都,中央区,日本橋横山町３－１横山町ダイカンプラザ３０３号,,13,102,1030003,,,,,,,2023-08-28,1,,,,,サンタイツホーム,0
899,5010001238014,新規,0,2023-08-28,2023-08-28,Ｕ‐ＰＲＯＪＥＣＴ株式会社,,株式会社,東京都,千代田区,神田三崎町３丁目６番１３号山京中央ビル２階,,13,101,1010061,,,,,,,2023-08-28,1,,,,,ユープロジェクト,0
907,5010401176763,新規,0,2023-08-28,2023-08-28,株式会社きんにくゲームズ,,株式会社,東京都,港区,新橋３丁目１１番８号オーイズミ新橋第２ビル８０２,,13,103,1050004,,,,,,,2023-08-28,1,,,,,,0
908,5010401176788,新規,0,2023-08-28,2023-08-28,株式会社ベルガミア,,株式会社,東京都,港区,北青山１丁目３番１号アールキューブ青山３階,,13,103,1070061,,,,,,,2023-08-28,1,,,,,ベルガミア,0
909,5010401176813,新規,0,2023-08-28,2023-08-28,株式会社ｒｅｂａｓｕ,,株式会社,東京都,港区,南青山３丁目１番３６号青山丸竹ビル６Ｆ,,13,103,1070062,,,,,,,2023-08-28,1,,,,,レバース,0
910,5010401176821,新規,0,2023-08-28,2023-08-28,株式会社格内視覚効果事務所,,株式会社,東京都,港区,麻布十番２丁目１０番１－５０７号,,13,103,1060045,,,,,,,2023-08-28,1,,,,,カクウチシカクコウカジムショ,0
913,5010601063679,新規,0,2023-08-28,2023-08-28,株式会社ふれすか,,株式会社,東京都,墨田区,向島２丁目１０番５号第５安井ビル１階,,13,107,1310033,,,,,,,2023-08-28,1,,,,,フレスカ,0
929,5010803004654,新規,0,2023-08-28,2023-08-28,合同会社みつば,,合同会社,東京都,大田区,山王３丁目２８番１２号,,13,111,1430023,,,,,,,2023-08-28,1,,,,,ミツバ,0
945,5011001156593,新規,0,2023-08-28,2023-08-28,株式会社フリージア,,株式会社,東京都,渋谷区,広尾４丁目１番１２－１１０６号,,13,113,1500012,,,,,,,2023-08-28,1,,,,,フリージア,0
946,5011001156602,新規,0,2023-08-28,2023-08-28,株式会社ＴａｐｉＮａｐｉ　Ｐｌｅａｓｕｒｅ,,株式会社,東京都,渋谷区,西原２丁目３４－９Ｍ’ｓ２Ｆ,,13,113,1510066,,,,,,,2023-08-28,1,,,,,タピナピプレジャー,0
952,5011105010754,新規,0,2023-08-28,2023-08-28,一般社団法人日本ライブアイドル協会,,その他の設立登記法人,東京都,新宿区,新宿２丁目１３－１０エルハイム新宿７０８,,13,104,1600022,,,,,,,2023-08-28,1,,,,,ニホンライブアイドルキョウカイ,0
953,5011205002569,新規,0,2023-08-28,2023-08-28,一般社団法人東京アサミマキアーツ,,その他の設立登記法人,東京都,中野区,中野６丁目２７番１３号,,13,114,1640001,,,,,,,2023-08-28,1,,,,,トウキョウアサミマキアーツ,0
956,5011601027079,新規,0,2023-08-28,2023-08-28,株式会社ＨＡＹＡＢＵＳＡ,,株式会社,東京都,練馬区,富士見台１丁目２６番２８号,,13,120,1770034,,,,,,,2023-08-28,1,,,,,ハヤブサ,0
959,5011701026501,新規,0,2023-08-28,2023-08-28,株式会社Ｈｅａｌｉｎｇ　Ｆｌｏｗｅｒ　Ｐｌｕｓ　ａ,,株式会社,東京都,江戸川区,北葛西１丁目３－２９,,13,123,1340081,,,,,,,2023-08-28,1,,,,,ヒーリングフラワープラスエー,0
961,5011801042951,新規,0,2023-08-28,2023-08-28,株式会社Ｔ＆Ｃ,,株式会社,東京都,足立区,島根３丁目１－１７メゾンＮＡＯＩ２Ｆ,,13,121,1210815,,,,,,,2023-08-28,1,,,,,ティーアンドシー,0
977,5020001153212,新規,0,2023-08-28,2023-08-28,株式会社フジミテクノス,,株式会社,神奈川県,横浜市戸塚区,汲沢５丁目２０番地６,,14,110,2450061,,,,,,,2023-08-28,1,,,,,フジミテクノス,0
982,5020003024428,新規,0,2023-08-28,2023-08-28,１０ＬＤＫ合同会社,,合同会社,神奈川県,横浜市港北区,箕輪町２丁目７―３６・９０５号室,,14,109,2230051,,,,,,,2023-08-28,1,,,,,テンエルディーケー,0
984,5020005016084,新規,0,2023-08-28,2023-08-28,一般社団法人Ｊａｐａｎ　Ｈｏｌｉｓｔｉｃ　Ｆｅｌｌｏｗｓ,,その他の設立登記法人,神奈川県,川崎市中原区,宮内２丁目１２番１３号,,14,133,2110051,,,,,,,2023-08-28,1,,,,,ジャパンホリスティックフェローズ,0
986,5021001079942,新規,0,2023-08-28,2023-08-28,株式会社トーワライフ,,株式会社,神奈川県,横須賀市,根岸町３丁目１番６号,,14,201,2390807,,,,,,,2023-08-28,1,,,,,トーワライフ,0
989,5021003013511,新規,0,2023-08-28,2023-08-28,合同会社金髪的創造集団,,合同会社,神奈川県,鎌倉市,腰越３丁目２６－１ラ・ズール腰越Ａ,,14,204,2480033,,,,,,,2023-08-28,1,,,,,キンパツテキソウゾウシュウダン,0
993,5030001155414,新規,0,2023-08-28,2023-08-28,株式会社キースプラン,,株式会社,埼玉県,日高市,横手２丁目３４番地４,,11,242,3501257,,,,,,,2023-08-28,1,,,,,キースプラン,0
994,5030001155447,新規,0,2023-08-28,2023-08-28,株式会社山啓設備,,株式会社,埼玉県,さいたま市大宮区,天沼町１丁目２００番地８,,11,103,3300834,,,,,,,2023-08-28,1,,,,,サンケイセツビ,0
995,5030001155463,新規,0,2023-08-28,2023-08-28,株式会社大新,,株式会社,埼玉県,熊谷市,村岡４５７番地１,,11,202,3600162,,,,,,,2023-08-28,1,,,,,ダイシン,0
999,5030003022315,新規,0,2023-08-28,2023-08-28,オノプラザ合同会社,,合同会社,埼玉県,狭山市,つつじ野１番７－２０２号,,11,215,3501326,,,,,,,2023-08-28,1,,,,,オノプラザ,0
1008,5040003023139,新規,0,2023-08-28,2023-08-28,合同会社グルｍｅｅｔ,,合同会社,千葉県,茂原市,上林２９３－２４ＧＯＬＤＷＩＮＧ１０６,,12,210,2970019,,,,,,,2023-08-28,1,,,,,グルミート,0
1009,5040003023163,新規,0,2023-08-28,2023-08-28,祖贏合同会社,,合同会社,千葉県,野田市,次木１７８－２６,,12,208,2700228,,,,,,,2023-08-28,1,,,,,ソエイ,0
1010,5040003023171,新規,0,2023-08-28,2023-08-28,波渕商会合同会社,,合同会社,千葉県,市原市,五井４９６８番地,,12,219,2900056,,,,,,,2023-08-28,1,,,,,ハブチショウカイ,0
1015,5050001053351,新規,0,2023-08-28,2023-08-28,株式会社建樹,,株式会社,茨城県,つくば市,中根５９０番地６,,08,220,3050012,,,,,,,2023-08-28,1,,,,,ケンキ,0
1020,5060003004698,新規,0,2023-08-28,2023-08-28,合同会社ＭＩクリエイト,,合同会社,栃木県,下野市,石橋５２８番地１,,09,216,3290511,,,,,,,2023-08-28,1,,,,,エムアイクリエイト,0
1031,5110001037802,新規,0,2023-08-28,2023-08-28,株式会社ＣＯＣＯＲＥ　ＷＯＲＫＳ,,株式会社,新潟県,南蒲原郡田上町,大字田上丙８７６番地１,,15,361,9591502,,,,,,,2023-08-28,1,,,,,ココレワークス,0
1036,5120001257671,新規,0,2023-08-28,2023-08-28,Ｉｍｉｔａｔｉｏｎ　Ｓｅｒｖｉｃｅ株式会社,,株式会社,大阪府,大阪市天王寺区,小橋町１４番７８－６０５号,,27,109,5430028,,,,,,,2023-08-28,1,,,,,イミテーションサービス,0
1039,5120003024789,新規,0,2023-08-28,2023-08-28,合同会社ＴＳＫアセット,,合同会社,大阪府,大阪市東淀川区,豊新１丁目１７番１８号,,27,114,5330014,,,,,,,2023-08-28,1,,,,,ティーエスケー,0
1040,5120003024797,新規,0,2023-08-28,2023-08-28,オープンエア合同会社,,合同会社,大阪府,大阪市西区,北堀江２丁目１５－２ハイネスあみだ池公園３０５,,27,106,5500014,,,,,,,2023-08-28,1,,,,,オープンエア,0
1042,5120101068102,新規,0,2023-08-28,2023-08-28,株式会社コネクトスタイル,,株式会社,大阪府,和泉市,府中町２丁目１番５号,,27,219,5940071,,,,,,,2023-08-28,1,,,,,コネクトスタイル,0
1043,5120101068110,新規,0,2023-08-28,2023-08-28,華世商務株式会社,,株式会社,大阪府,堺市堺区,中安井町３丁４－１１,,27,141,5900063,,,,,,,2023-08-28,1,,,,,カセイショウム,0
1045,5120103005400,新規,0,2023-08-28,2023-08-28,和泉エステート合同会社,,合同会社,大阪府,和泉市,いぶき野３丁目８番４号,,27,219,5940041,,,,,,,2023-08-28,1,,,,,イズミエステート,0
1051,5122001037310,新規,0,2023-08-28,2023-08-28,株式会社メグラス,,株式会社,大阪府,大東市,灰塚６丁目４－１８スプリングサイドＡ１０２,00131671,27,218,5740043,,,,,,,2023-08-28,1,,,,,メグラス,0
1056,5130001075008,新規,0,2023-08-28,2023-08-28,株式会社ｕｎｉｃｏ,,株式会社,京都府,京都市東山区,宮川筋２丁目２５５,,26,105,6050801,,,,,,,2023-08-28,1,,,,,ユニコ,0
1063,5140001131362,新規,0,2023-08-28,2023-08-28,株式会社木ノ花,,株式会社,兵庫県,神戸市長田区,北町２丁目６４番地,,28,106,6530016,,,,,,,2023-08-28,1,,,,,キノハナ,0
1064,5140001131370,新規,0,2023-08-28,2023-08-28,株式会社ナインライブス,,株式会社,兵庫県,神戸市東灘区,魚崎北町３丁目１０番１７号,,28,101,6580082,,,,,,,2023-08-28,1,,,,,ナインライブス,0
1071,5140005026716,新規,0,2023-08-28,2023-08-28,一般社団法人日本ピュアボール連盟,,その他の設立登記法人,兵庫県,宝塚市,野上１丁目１番８号,,28,214,6650022,,,,,,,2023-08-28,1,,,,,ニッポンピュアボールレンメイ,0
1082,5180003025666,新規,0,2023-08-28,2023-08-28,合同会社Ｓｈｏｗ　Ｃａｓｅ,,合同会社,愛知県,名古屋市中区,栄３丁目１２番３２号,,23,106,4600008,,,,,,,2023-08-28,1,,,,,ショーケース,0
1091,5240001062044,新規,0,2023-08-28,2023-08-28,Ｔｈｅ　Ｅａｒｔｈ株式会社,,株式会社,広島県,安芸郡海田町,三迫２丁目１４番８号,,34,304,7360014,,,,,,,2023-08-28,1,,,,,ジアース,0
1092,5240003006271,新規,0,2023-08-28,2023-08-28,合同会社ＫＦＵ,,合同会社,広島県,廿日市市,四季が丘６丁目１５番アコールプラザ２０７,,34,213,7380036,,,,,,,2023-08-28,1,,,,,ケーエフユー,0
1095,5250001020257,新規,0,2023-08-28,2023-08-28,株式会社ＳＴＯオフィス,,株式会社,山口県,下関市,豊浦町大字川棚１５３４番地１４,,35,201,7596301,,,,,,,2023-08-28,1,,,,,エスティーオーオフィス,0
1103,5290001102794,新規,0,2023-08-28,2023-08-28,株式会社ＭＫ．ＡＳＳＥＴ,,株式会社,福岡県,福岡市南区,長丘１丁目１２番９号,,40,134,8150075,,,,,,,2023-08-28,1,,,,,エムケイドットアセット,0
1111,5330001031196,新規,0,2023-08-28,2023-08-28,株式会社カタドル,,株式会社,熊本県,上益城郡嘉島町,大字上島１８９３番地２,,43,442,8613106,,,,,,,2023-08-28,1,,,,,カタドル,0
1113,5340001025841,新規,0,2023-08-28,2023-08-28,株式会社ヤングライオンズ,,株式会社,鹿児島県,霧島市,福山町福山５１３０－１１５,,46,218,8994501,,,,,,,2023-08-28,1,,,,,ヤングライオンズ,0
1121,5420003002780,新規,0,2023-08-28,2023-08-28,合同会社奈良商店,,合同会社,青森県,弘前市,大字三世寺字鳴瀬４０番地６,,02,202,0368312,,,,,,,2023-08-28,1,,,,,ナラショウテン,0
1129,5450003002381,新規,0,2023-08-28,2023-08-28,合同会社みよし屋,,合同会社,北海道,上川郡和寒町,字西町８１番地,,01,464,0980132,,,,,,,2023-08-28,1,,,,,ミヨシヤ,0
1130,5460003000962,新規,0,2023-08-28,2023-08-28,クラウドブレイン合同会社,,合同会社,北海道,釧路市,南大通３丁目１番１０号,,01,206,0850841,,,,,,,2023-08-28,1,,,,,クラウドブレイン,0
1137,5700150119358,新規,0,2023-08-28,2023-08-28,Ｓｈａｎｘｉ　Ｘｉｎｑｉａｎｇ　Ｓｃｉｅｎｃｅ　ａｎｄ　Ｔｒａｄｅ　Ｃｏ．，Ｌｔｄ．,,外国会社等,,,,,,,,Ｒｏｏｍ　１１０３，１１ｔｈ　Ｆｌｏｏｒ，Ｂｌｏｃｋ　Ｂ，Ｂｕｉｌｄｉｎｇ　１，Ｎｏ．３０６，Ｃｈａｎｇｚｈｉ　Ｒｏａｄ，Ｘｕｅｆｕ　Ｉｎｄｕｓｔｒｉａｌ　Ｐａｒｋ，Ｓｈａｎｘｉ　Ｔｒａｎｓｆｏｒｍａｔｉｏｎ　Ｃｏｍｐｒｅｈｅｎｓｉｖｅ　Ｒｅｆｏｒｍ　Ｄｅｍｏｎｓｔｒａｔｉｏｎ　Ｚｏｎｅ,,,,,,2023-08-28,1,,,,,シャンシーシンチャンコーマオヨウシエンゴンスー,0
1138,5700150119366,新規,0,2023-08-28,2023-08-28,ＳＨＥＮＺＨＥＮ　ＨＥＢＥＣＡ　ＴＥＣＨＮＯＬＯＧＩＥＳ　ＣＯ．，ＬＴＤ,,外国会社等,,,,,,,,Ｒｏｏｍ８０７ＰｈａｓｅＩＩ　ＨｕｉｈｅｎｇＢｕｉｌｄｉｎｇＮｏ．１３８ＧａｏｘｉｎＳｏｕｔｈ７ｔｈＲｄ　Ｈｉｇｈ－ｔｅｃｈＺｏｎｅＣｏｍｍｕｎｉｔｙＹｕｅｈａｉ　Ｓｔｒｅｅｔ　ＮａｎｓｈａｎＤｉｓｔｒｉｃｔ　Ｓｈｅｎｚｈｅｎ,00131619,,,,,2023-08-28,1,,,,,シンセンヘベイカテクノロジーズカンパニーリミテッド,0
1139,5700150119374,新規,0,2023-08-28,2023-08-28,ｓｈｅｎｚｈｅｎｓｈｉ　ａｎｙｉｄｉａｎｚｉｓｈａｎｇｗｕ　ｙｏｕｘｉａｎｇｏｎｇｓｉ,,外国会社等,,,,,,,,ＬｏｎｇｈｕａＤｉｓｔｒｉ　ＬｏｎｇｈｕａＳｔｒｅｅｔ　ＹｏｕｓｏｎｇＢｕｌｏｎｇＲｏａｄ　ＮＯ．６６２ＬｉｙｕａｎｄａｓｈａＢ４０２　Ｓｈｅｎｚｈｅｎ,,,,,,2023-08-28,1,,,,,シンセンシアンイデンシショウムユウゲンコウシ,0
1140,5700150119382,新規,0,2023-08-28,2023-08-28,ＳＨＥＮＺＨＥＮ　ＹＵＣＨＯＮＧ　ＴＥＣＨＮＯＬＯＧＹ　ＣＯ．，ＬＴＤ,,外国会社等,,,,,,,,ｆｕｔｉａｎｑｕｈｕａｑｉａｎｇｂｅｉｊｉｅｄａｏｚｈｅｎｘｉｎｇｌｕｈｕａｍｅｉｄａｓｈａ１７０２　ｓｈｅｎｚｈｅｎ,,,,,,2023-08-28,1,,,,,シンセンユツォンテクノロジーカンパニーリミテッド,0
1141,5700150119390,新規,0,2023-08-28,2023-08-28,ｆｏｓｈａｎｓｈｉ　ｑｉａｎｇｈｏｎｇｙａｎｇｙｕａｎｍａｏｙｉ　ｙｏｕｘｉａｎｇｏｎｇｓｉ,,外国会社等,,,,,,,,ｆｏｓｈａｎｓｈｉｓａｎｓｈｕｉｑｕｘｉｎａｎｊｉｅｄａｏｈｅｋｏｕｚｕｏｔｉａｎｍｉｎｙｉｎｇｋａｉｆａｑｕ３２１ｇｕｏｄａｏｐａｎｇ（ｔｕｍｉｎｇ：ｓｈｉｅｒｋｅｎｇｇａｎｇ）ｚｈｉｑｉＣ－７,,,,,,2023-08-28,1,,,,,フツザンシチャンホンヤンユアンマオイユウゲンコウシ,0
1142,5700150119399,新規,0,2023-08-28,2023-08-28,ｈｕｎａｎ　ｎｕｏｔｅｎｇ　ｋｅｊｉｙｏｕｘｉａｎ　ｇｏｎｇｓｉ,,外国会社等,,,,,,,,ｓｈｉｇｕｑｕｓｏｎｇｍｕｊｉｎｇｊｉｋａｉｆａｑｕ　ｓｏｎｇｆｅｎｇｌｕｓａｎｑｉｂｉａｏｚｈｕｎｃｈａｎｇｆａｎｇ３５ｄｏｎｇ　ｈｅｎｇｙａｎｇｓｈｉ　ｈｕｎａｎｓｈｅｎｇ　４２１０００　ＣＮ,,,,,,2023-08-28,1,,,,,フーナンヌオトンコージーヨウシエンゴンスー,0
1150,6010001237956,新規,0,2023-08-28,2023-08-28,ＧｒｅｅｎＶａｌｌｅｙ　Ｉｎｔｅｒｎａｔｉｏｎａｌ株式会社,,株式会社,東京都,千代田区,神田佐久間町３丁目２８番地星野ビル５１５,,13,101,1010025,,,,,,,2023-08-28,1,,,,,グリーンバリーインタナショナル,0
1151,6010001237964,新規,0,2023-08-28,2023-08-28,株式会社Ｂｔｒｅｅ,,株式会社,東京都,千代田区,神田佐久間町１丁目１４番地第２東ビル８階,,13,101,1010025,,,,,,,2023-08-28,1,,,,,ビーツリー,0
1152,6010001237997,新規,0,2023-08-28,2023-08-28,株式会社スコティッシュベンガル,,株式会社,東京都,中央区,銀座１丁目１２番４号,,13,102,1040061,,,,,,,2023-08-28,1,,,,,スコティッシュベンガル,0
1153,6010001238013,新規,0,2023-08-28,2023-08-28,株式会社プラゴサービス,,株式会社,東京都,中央区,銀座８丁目１３番１号,,13,102,1040061,,,,,,,2023-08-28,1,,,,,プラゴサービス,0
1155,6010003041514,新規,0,2023-08-28,2023-08-28,合同会社ＳＢＳ,,合同会社,東京都,中央区,銀座１丁目１２－４Ｎ＆ＥＢＬＤ．６Ｆ,,13,102,1040061,,,,,,,2023-08-28,1,,,,,エスビーエス,0
1159,6010101015790,新規,0,2023-08-28,2023-08-28,株式会社ビクトリーワン,,株式会社,東京都,八王子市,千人町４丁目１２番１５号,,13,201,1930835,,,,,,,2023-08-28,1,,,,,ビクトリーワン,0
1168,6010401176738,新規,0,2023-08-28,2023-08-28,株式会社イーレンエージェンシー,,株式会社,東京都,港区,赤坂２丁目５番８号,,13,103,1070052,,,,,,,2023-08-28,1,,,,,イーレンエージェンシー,0
1172,6010601063678,新規,0,2023-08-28,2023-08-28,ＣＡＮＡＲＩ株式会社,,株式会社,東京都,江東区,新大橋２丁目１２番１８－９０３号,,13,108,1350007,,,,,,,2023-08-28,1,,,,,カナリ,0
1188,6011001156601,新規,0,2023-08-28,2023-08-28,＿言顧問株式会社,00131672,株式会社,東京都,渋谷区,道玄坂１丁目１０番８号,,13,113,1500043,,,,,,,2023-08-28,1,,,,,イクゲンコモン,0
1204,6012403006138,新規,0,2023-08-28,2023-08-28,リーゼライン合同会社,,合同会社,東京都,武蔵野市,吉祥寺本町１丁目３２番９号本橋ビルＢ１Ｆ００４号,,13,203,1800004,,,,,,,2023-08-28,1,,,,,リーゼライン,0
1208,6013101009234,新規,0,2023-08-28,2023-08-28,株式会社和悟,,株式会社,東京都,青梅市,河辺町１０丁目１番地の５ライオンズプラザ河辺駅前１１０３,,13,205,1980036,,,,,,,2023-08-28,1,,,,,ワゴ,0
1211,6013303006748,新規,0,2023-08-28,2023-08-28,合同会社ラクベル,,合同会社,東京都,豊島区,南池袋３丁目１０番１０号メゾンハギ５－３０３号,,13,116,1710022,,,,,,,2023-08-28,1,,,,,ラクベル,0
1217,6020001153178,新規,0,2023-08-28,2023-08-28,株式会社エムトゥビープラス,,株式会社,神奈川県,横浜市神奈川区,沢渡５５番地２０－Ｂ,,14,102,2210844,,,,,,,2023-08-28,1,,,,,エムトゥビープラス,0
1218,6020001153186,新規,0,2023-08-28,2023-08-28,株式会社Ｎ＆Ｙ,,株式会社,神奈川県,横浜市泉区,中田東１丁目３５番１２号,,14,116,2450013,,,,,,,2023-08-28,1,,,,,エヌアンドワイ,0
1222,6020003024419,新規,0,2023-08-28,2023-08-28,合同会社ＡＴａｇ,,合同会社,神奈川県,横浜市旭区,本村町７２番地２２,,14,112,2410024,,,,,,,2023-08-28,1,,,,,エータグ,0
1223,6020003024451,新規,0,2023-08-28,2023-08-28,合同会社Ｎｏｔｉｐ,,合同会社,神奈川県,川崎市高津区,千年７２６,,14,134,2130022,,,,,,,2023-08-28,1,,,,,ノティップ,0
1224,6020003024468,新規,0,2023-08-28,2023-08-28,ＴＴＹＫ合同会社,,合同会社,神奈川県,横浜市都筑区,すみれが丘４３番地１３－３０１号,,14,118,2240013,,,,,,,2023-08-28,1,,,,,ティーティーワイケー,0
1233,6021001080032,新規,0,2023-08-28,2023-08-28,株式会社ルルティック,,株式会社,神奈川県,鎌倉市,小袋谷２丁目１９番２１号,,14,204,2470055,,,,,,,2023-08-28,1,,,,,ルルティック,0
1240,6030001155347,新規,0,2023-08-28,2023-08-28,株式会社Ｙ＆Ｍ,,株式会社,埼玉県,川口市,東領家５丁目１１番地４号サンハイツイワミ１０１,,11,203,3320003,,,,,,,2023-08-28,1,,,,,ワイアンドエム,0
1243,6030003022314,新規,0,2023-08-28,2023-08-28,ＮＴ商事合同会社,,合同会社,埼玉県,熊谷市,三ヶ尻３７２７三ケ尻センター１ＦＡ０１室,,11,202,3600843,,,,,,,2023-08-28,1,,,,,エヌティーショウジ,0
1256,6050001053350,新規,0,2023-08-28,2023-08-28,能登スティールジャパン株式会社,,株式会社,茨城県,つくばみらい市,長渡呂２６３番地１,,08,235,3002345,,,,,,,2023-08-28,1,,,,,ノトスティールジャパン,0
1257,6050001053359,新規,0,2023-08-28,2023-08-28,ＭＥＨＤＩ　ＴＲＡＤＩＮＧ株式会社,,株式会社,茨城県,坂東市,岩井１６１３番地１,,08,228,3060631,,,,,,,2023-08-28,1,,,,,メヘディトレーディング,0
1261,6060001036288,新規,0,2023-08-28,2023-08-28,株式会社Ｎｅｗ　Ｗｉｎｄ,,株式会社,栃木県,小山市,乙女１丁目１５番１号,,09,208,3290214,,,,,,,2023-08-28,1,,,,,ニューウィンド,0
1267,6070001040792,新規,0,2023-08-28,2023-08-28,株式会社大谷タイヤ,,株式会社,群馬県,前橋市,西片貝町５丁目１３番地１２,,10,201,3710013,,,,,,,2023-08-28,1,,,,,オオタニタイヤ,0
1276,6110001037801,新規,0,2023-08-28,2023-08-28,株式会社ＮＡＮＡＨＯＳＨＩ,,株式会社,新潟県,五泉市,中川新１６８０番地１,,15,218,9591632,,,,,,,2023-08-28,1,,,,,ナナホシ,0
1286,6120001257646,新規,0,2023-08-28,2023-08-28,株式会社Ａ２４,,株式会社,大阪府,大阪市旭区,森小路１丁目１４番３０号,,27,117,5350013,,,,,,,2023-08-28,1,,,,,エニシ,0
1287,6120003024788,新規,0,2023-08-28,2023-08-28,合同会社ＳＵＮ,,合同会社,大阪府,大阪市北区,本庄西１丁目１３－１３－４０２,,27,127,5310073,,,,,,,2023-08-28,1,,,,,サン,0
1296,6140001131378,新規,0,2023-08-28,2023-08-28,株式会社シャイン,,株式会社,兵庫県,神戸市東灘区,住吉本町２丁目９番２３号,,28,101,6580051,,,,,,,2023-08-28,1,,,,,シャイン,0
1299,6140003019472,新規,0,2023-08-28,2023-08-28,合同会社すだち,,合同会社,兵庫県,神戸市垂水区,霞ヶ丘５丁目３番３９－２０１号,,28,108,6550039,,,,,,,2023-08-28,1,,,,,スダチ,0
1310,6180003025517,新規,0,2023-08-28,2023-08-28,合同会社ｅ‐ＷＡＶＥ,,合同会社,愛知県,北名古屋市,鍛治ケ一色鍛治前７番地セイントクルーズＩＩ２０１号室,00131683,23,234,4810000,,,,,,,2023-08-28,1,,,,,イーウェーブ,0
1332,6290001102777,新規,0,2023-08-28,2023-08-28,株式会社ＢＩＺＴＥＣＨ,,株式会社,福岡県,久留米市,三潴町高三潴１２６９番地１１,,40,203,8300103,,,,,,,2023-08-28,1,,,,,ビズテック,0
1333,6290003014277,新規,0,2023-08-28,2023-08-28,合同会社ＲＨＮ,,合同会社,福岡県,福岡市東区,和白東１丁目２５番３６号,,40,131,8110214,,,,,,,2023-08-28,1,,,,,アールエイチエヌ,0
1341,6330001031154,新規,0,2023-08-28,2023-08-28,株式会社ワイエスフード,,株式会社,熊本県,熊本市南区,城南町下宮地８９６番地４８,,43,104,8614204,,,,,,,2023-08-28,1,,,,,ワイエスフード,0
1348,6340001025824,新規,0,2023-08-28,2023-08-28,株式会社Ｂａｋｕ,,株式会社,鹿児島県,鹿児島市,西田３丁目１６番１４号城ノ下アパート２０１,,46,201,8900046,,,,,,,2023-08-28,1,,,,,バク,0
1353,6370003006258,新規,0,2023-08-28,2023-08-28,合同会社グリーンエナジー宮城,,合同会社,宮城県,仙台市青葉区,花京院１丁目４番４７号ＡＬＬＥＬＬ花京院ビル２Ｆ,,04,101,9800013,,,,,,,2023-08-28,1,,,,,グリーンエナジーミヤギ,0
1358,6400001016354,新規,0,2023-08-28,2023-08-28,株式会社アイエコ,,株式会社,岩手県,紫波郡紫波町,日詰字丸盛２２２番地１プラス第一ビル２階,,03,321,0283305,,,,,,,2023-08-28,1,,,,,アイエコ,0
1371,6700150119349,新規,0,2023-08-28,2023-08-28,Ｙｕｎｎａｎ　Ｆｅｉｘｉａ　Ｔｒａｄｉｎｇ　Ｃｏ．，Ｌｔｄ．,,外国会社等,,,,,,,,Ｎｏ．１１８，２１８，Ｂｕｉｌｄｉｎｇ　３０，Ｄａｓｈａｎｇｈｕｉ　Ｄｉｓｔｒｉｃｔ　Ｂ，Ｘｉｓｈａｎ　Ｄｉｓｔｒｉｃｔ，Ｋｕｎｍｉｎｇ　Ｃｉｔｙ，Ｙｕｎｎａｎ　Ｐｒｏｖｉｎｃｅ,,,,,,2023-08-28,1,,,,,インナンフェイシャーシャンマオヨウシエンゴンスー,0
1372,6700150119357,新規,0,2023-08-28,2023-08-28,Ｓｈｅｎｚｈｅｎｓｈｉｃｈｕｃｈｕｌｉｎｋｅｊｉｙｏｕｘｉａｎｇｏｎｇｓｉ,,外国会社等,,,,,,,,ＦｕｔｉａｎｑｕＨｕａｑｉａｎｇｂｅｉｌｕ１０７８ｈａｏＸｉａｎｄａｉｚｈｉｃｈｕａｎｇＢｚｕｏ１６Ｂ　Ｓｈｅｎｚｈｅｎ　Ｇｕａｎｇｄｏｎｇ　５１８０００　ＣＮ,,,,,,2023-08-28,1,,,,,シェンジェンシーチューチューリンコージーヨウシエンゴンスー,0
1373,6700150119365,新規,0,2023-08-28,2023-08-28,Ｓｈｅｎｚｈｅｎ　Ｙｕｃｈｅｎｇ　Ｌｉａｎｈｅ　Ｅｌｅｃｔｒｏｎｉｃｓ　Ｃｏ．，Ｌｔｄ,,外国会社等,,,,,,,,Ａ２８０３－１，Ｂｕｉｌｄｉｎｇ　２，ｓｈａｎｈａｉ　Ｍｅｉｙｕ，Ｑｉａｎｈａｉ　Ｒｏａｄ０００９　Ｍｏｏｎ　Ｂａｙ　Ｃｏｍｍｕｎｉｔｙ　Ｎａｎｓｈａｎ　ｓｔｒｅｅｔ　Ｎａｎｓｈａｎ　Ｄｉｓｔｒｉｃｔ　Ｓｈｅｎｚｈｅｎ　Ｃｉｔｙ　ＧｕａｎｇＤｏｎｇ　Ｐｒｏｖｉｎｃｅ,,,,,,2023-08-28,1,,,,,シェンジェンシーイーチョンリエンホーディエンズーヨウシエンゴンスー,0
1374,6700150119373,新規,0,2023-08-28,2023-08-28,ＤｏｎｇＧｕａｎＳｈｉ　ＬａｉＡｎＳｉＭｅｎｇＤｉａｎＺｉＳｈａｎｇＷｕＹｏｕＸｉａｎＧｏｎｇＳｉ,,外国会社等,,,,,,,,ＧｕａｎｇＤｏｎｇＳｈｅｎｇ　ＤｏｎｇＧｕａｎＳｈｉ　ＧｕａｎＣｈｅｎｇＪｉｅＤａｏＤｏｎｇＣｈｅｎｇＬｕ　ＧｕａｎＣｈｅｎｇＤｕａｎ１０３Ｈａｏ１　ＤａｎＹｕａｎ６０２Ｓｈｉ,,,,,,2023-08-28,1,,,,,トンガンシライアンシメンデンシショウムユウゲンコウシ,0
1375,6700150119381,新規,0,2023-08-28,2023-08-28,ＴａｉＹｕａｎＷｅｎＬｉａｎｇＭａｏＹｉＹｏｕＸｉａｎＧｏｎｇＳｉ,,外国会社等,,,,,,,,ＳｈａｎＸｉＺｈｕａｎＸｉｎｇＺｏｎｇＨｅＧａｉＧｅＳｈｉＦａｎＱｕＴａｎｇＨｕａｉＣｈａｎＹｅＹｕａｎＴａｎｇＭｉｎｇＬｕ１９ｈａｏＷｕＴｏｎｇＨｕａＹｕａｎＮａｎＬｏｕ　１ＤａｎＹｕａｎ　５０１Ｓｈｉ,,,,,,2023-08-28,1,,,,,タイゲンウェンリャンマオイユウゲンコウシ,0
1376,6700150119398,新規,0,2023-08-28,2023-08-28,ｇｕａｎｇｚｈｏｕｙａｍａｓｈｕｎｇｕｏｊｉｍａｏｙｉｙｏｕｘｉａｎｇｏｎｇｓｉ,,外国会社等,,,,,,,,ｇｕａｎｇｚｈｏｕｓｈｉｈｕａｎｇｐｕｑｕｈｕａｎｇｐｕｄｏｎｇｌｕ２４０７ｈａｏ３０１　ｇｕａｎｇｚｈｏｕｓｈｉ　ｇｕａｎｇｄｏｎｇｓｈｅｎｇ　５１０７２５　ＣＮ,,,,,,2023-08-28,1,,,,,グワンジョウヤーマーシュングオジーマオイーヨウシエンゴンスー,0
1387,7010003041513,新規,0,2023-08-28,2023-08-28,ＪＡＰＡＮＧＸ合同会社,,合同会社,東京都,中央区,湊１丁目６番１１号,,13,102,1040043,,,,,,,2023-08-28,1,,,,,ジャパンジーエックス,0
1390,7010005037162,新規,0,2023-08-28,2023-08-28,ＮＰＯ法人ＳＡＹｉ,,その他の設立登記法人,東京都,中央区,勝どき４丁目４番－２号－５０３,,13,102,1040054,,,,,,,2023-08-28,1,,,,,セイアイ,0
1398,7010401176803,新規,0,2023-08-28,2023-08-28,株式会社Ｋ＆Ｓコネクトインク,,株式会社,東京都,港区,海岸１丁目２－２０汐留ビルディング３階,,13,103,1050022,,,,,,,2023-08-28,1,,,,,ケーアンドエスコネクトインク,0
1399,7010403030743,新規,0,2023-08-28,2023-08-28,合同会社ココファンド４,,合同会社,東京都,港区,西新橋１丁目２番９号メンターキャピタル税理士法人内,,13,103,1050003,,,,,,,2023-08-28,1,,,,,ココファンドヨン,0
1400,7010403030818,新規,0,2023-08-28,2023-08-28,ＲＥＴＡ合同会社,,合同会社,東京都,港区,六本木７丁目２番２８－６０５号,,13,103,1060032,,,,,,,2023-08-28,1,,,,,レタ,0
1410,7010603010256,新規,0,2023-08-28,2023-08-28,合同会社ＬｉｎｇｕａＳｏｌｕｔｉｏｎ,,合同会社,東京都,墨田区,文花１丁目１８－１３,,13,107,1310044,,,,,,,2023-08-28,1,,,,,リングアソリューション,0
1418,7011001156583,新規,0,2023-08-28,2023-08-28,株式会社ジーズリクルートメント,,株式会社,東京都,渋谷区,渋谷２丁目７番１４号ＶＯＲＴ・ＡＯＹＡＭＡ３０２,,13,113,1500002,,,,,,,2023-08-28,1,,,,,ジーズリクルートメント,0
1421,7011401025405,新規,0,2023-08-28,2023-08-28,株式会社白山人工知能,,株式会社,東京都,板橋区,蓮根２丁目２７番１２号２階３７号室,,13,119,1740046,,,,,,,2023-08-28,1,,,,,ハクサンジンコウチノウ,0
1424,7011501029693,新規,0,2023-08-28,2023-08-28,東雲株式会社,,株式会社,東京都,北区,浮間１丁目７－２３兆豊浮間ビル５０２号室,,13,117,1150051,,,,,,,2023-08-28,1,,,,,シノノメ,0
1425,7011601027077,新規,0,2023-08-28,2023-08-28,株式会社東京サイバーセキュリティ研究所,,株式会社,東京都,練馬区,氷川台３丁目２９番３号,,13,120,1790084,,,,,,,2023-08-28,1,,,,,トウキョウサイバーセキュリティケンキュウジョ,0
1426,7011601027085,新規,0,2023-08-28,2023-08-28,株式会社Ｐａｎｄｅｍｉａ,,株式会社,東京都,練馬区,春日町６丁目１－９,,13,120,1790074,,,,,,,2023-08-28,1,,,,,パンデミア,0
1428,7012303001865,新規,0,2023-08-28,2023-08-28,Ｏｍｏｔｉｏｎ　Ｊａｐａｎ合同会社,,合同会社,東京都,町田市,森野１丁目１１番９号ＭＫＫ３０１,,13,209,1940022,,,,,,,2023-08-28,1,,,,,オモションジャパン,0
1431,7013101009233,新規,0,2023-08-28,2023-08-28,株式会社和蔵,,株式会社,東京都,青梅市,新町５丁目８番地の２３,,13,205,1980024,,,,,,,2023-08-28,1,,,,,ワクラ,0
1439,7020001153185,新規,0,2023-08-28,2023-08-28,株式会社イチイ,,株式会社,神奈川県,川崎市宮前区,南野川２丁目１４番１７号,,14,136,2160042,,,,,,,2023-08-28,1,,,,,イチイ,0
1440,7020001153193,新規,0,2023-08-28,2023-08-28,ＭＭＳ株式会社,,株式会社,神奈川県,横浜市都筑区,東方町５９４番地３,,14,118,2240045,,,,,,,2023-08-28,1,,,,,エムエムエス,0
1453,7030003022313,新規,0,2023-08-28,2023-08-28,合同会社ＥＭＺＥＱ,,合同会社,埼玉県,所沢市,泉町９１１番地の５,,11,208,3591112,,,,,,,2023-08-28,1,,,,,エムゼック,0
1454,7030003022354,新規,0,2023-08-28,2023-08-28,合同会社Ｍ‐Ｓｔｒｅｅｔ,,合同会社,埼玉県,三郷市,彦成３丁目９－２－５０６,,11,237,3410003,,,,,,,2023-08-28,1,,,,,エムストリート,0
1455,7030003022370,新規,0,2023-08-28,2023-08-28,合同会社ＳＡＣ,,合同会社,埼玉県,上尾市,東町１丁目９番５－５号,,11,219,3620031,,,,,,,2023-08-28,1,,,,,エスエーシー,0
1469,7070001040800,新規,0,2023-08-28,2023-08-28,株式会社ヤマト美創,,株式会社,群馬県,北群馬郡榛東村,大字山子田１１５０番地４,,10,344,3703502,,,,,,,2023-08-28,1,,,,,ヤマトビソウ,0
1470,7070003005074,新規,0,2023-08-28,2023-08-28,合同会社ＤＯＭＩＮＩＯ,,合同会社,群馬県,邑楽郡大泉町,坂田４丁目１８番１号,,10,524,3700532,,,,,,,2023-08-28,1,,,,,ドミニオ,0
1483,7110001037800,新規,0,2023-08-28,2023-08-28,株式会社Ｎａｔｕｌｉｆｅ,,株式会社,新潟県,上越市,石橋１丁目５番１１号タウンコート駅南１１１号,,15,222,9420074,,,,,,,2023-08-28,1,,,,,ナチュライフ,0
1498,7120001257174,新規,0,2023-08-28,2023-08-28,株式会社Ｇｌｏｗ,,株式会社,大阪府,大阪市西区,立売堀１丁目１４番２２－１２０３号,,27,106,5500012,,,,,,,2023-08-28,1,,,,,グロウ,0
1513,7140001131369,新規,0,2023-08-28,2023-08-28,株式会社自分自身,,株式会社,兵庫県,南あわじ市,神代地頭方８３３－１,,28,224,6560456,,,,,,,2023-08-28,1,,,,,ジブンジシン,0
1514,7140001131377,新規,0,2023-08-28,2023-08-28,東陽貿易株式会社,,株式会社,兵庫県,姫路市,飾磨区下野田２丁目４５７番地１,,28,201,6728044,,,,,,,2023-08-28,1,,,,,トウヨウボウエキ,0
1518,7140005026714,新規,0,2023-08-28,2023-08-28,日尼協同組合,,その他の設立登記法人,兵庫県,尼崎市,東難波町５丁目８番２６号８Ｂ号室,,28,202,6600892,,,,,,,2023-08-28,1,,,,,ニチニ,0
1520,7150003003045,新規,0,2023-08-28,2023-08-28,合同会社シェルパ,,合同会社,奈良県,香芝市,上中４７２番地６,,29,210,6390265,,,,,,,2023-08-28,1,,,,,シェルパ,0
1521,7160003002970,新規,0,2023-08-28,2023-08-28,合同会社ライオンハーツ,,合同会社,滋賀県,大津市,桜野町１丁目１９番８号－３１０号,,25,201,5200026,,,,,,,2023-08-28,1,,,,,ライオンハーツ,0
1526,7180001157765,新規,0,2023-08-28,2023-08-28,株式会社服部ホールディングス,,株式会社,愛知県,名古屋市中区,丸の内２丁目１８番１号,,23,106,4600002,,,,,,,2023-08-28,1,,,,,ハットリホールディングス,0
1527,7180001157781,新規,0,2023-08-28,2023-08-28,Ｅ‐Ｐｌａｎｎｉｎｇ株式会社,,株式会社,愛知県,名古屋市中区,栄５丁目４番３１,,23,106,4600008,,,,,,,2023-08-28,1,,,,,イープランニング,0
1529,7180003025664,新規,0,2023-08-28,2023-08-28,合同会社賢,,合同会社,愛知県,尾張旭市,長坂町南山２８７４番地８８,,23,226,4880821,,,,,,,2023-08-28,1,,,,,ケン,0
1534,7220003003574,新規,0,2023-08-28,2023-08-28,合同会社ふに,,合同会社,石川県,金沢市,昌永町４番１２号,,17,201,9200846,,,,,,,2023-08-28,1,,,,,フニ,0
1535,7230001019984,新規,0,2023-08-28,2023-08-28,ブリッヂジャパン株式会社,,株式会社,富山県,中新川郡上市町,放士ケ瀬新１８７番地１９,,16,322,9300379,,,,,,,2023-08-28,1,,,,,ブリッヂジャパン,0
1540,7290001102784,新規,0,2023-08-28,2023-08-28,セルピック株式会社,,株式会社,福岡県,福岡市西区,内浜２丁目１７番６号５０２号,,40,135,8190005,,,,,,,2023-08-28,1,,,,,セルピック,0
1541,7290001102792,新規,0,2023-08-28,2023-08-28,株式会社メオ,,株式会社,福岡県,福岡市博多区,築港本町１１番３－８０２号エルスタンザ天神東,,40,132,8120021,,,,,,,2023-08-28,1,,,,,メオ,0
1544,7290801029814,新規,0,2023-08-28,2023-08-28,株式会社ＨｏｍｅＣｒａｆｔ,,株式会社,福岡県,北九州市小倉南区,中曽根４丁目５番３号,,40,107,8000222,,,,,,,2023-08-28,1,,,,,ホームクラフト,0
1545,7310001018573,新規,0,2023-08-28,2023-08-28,丘屋株式会社,,株式会社,長崎県,大村市,諏訪１丁目７１９番地３,,42,205,8560024,,,,,,,2023-08-28,1,,,,,オカヤ,0
1547,7310005008703,新規,0,2023-08-28,2023-08-28,一般社団法人日本フットケア研究機構,,その他の設立登記法人,長崎県,大村市,本町３９２番地１大誠ビル３号,,42,205,8560832,,,,,,,2023-08-28,1,,,,,ニホンフットケアケンキュウキコウ,0
1551,7330003009949,新規,0,2023-08-28,2023-08-28,合同会社安田土建,,合同会社,熊本県,阿蘇郡南阿蘇村,大字立野１５１６番地７,,43,433,8691401,,,,,,,2023-08-28,1,,,,,ヤスダドケン,0
1552,7340005009640,新規,0,2023-08-28,2023-08-28,一般社団法人更生保護会吉福,,その他の設立登記法人,鹿児島県,鹿児島市,下田町５４７番地,,46,201,8920873,,,,,,,2023-08-28,1,,,,,コウセイホゴカイヨシフク,0
1554,7360003013238,新規,0,2023-08-28,2023-08-28,合同会社ラモン,,合同会社,沖縄県,浦添市,沢岻１丁目１７番１９－２０２号室,,47,208,9012112,,,,,,,2023-08-28,1,,,,,ラモン,0
1557,7380001033946,新規,0,2023-08-28,2023-08-28,株式会社ＴＭＳサポート,,株式会社,福島県,郡山市,富久山町八山田字尾池北３番地の９,,07,203,9638051,,,,,,,2023-08-28,1,,,,,ティーエムエスサポート,0
1571,7490005006904,新規,0,2023-08-28,2023-08-28,一般社団法人高知ムスリムファミリーインドネシア,,その他の設立登記法人,高知県,高知市,大谷７９番地１斗南コーポ３０２,,39,201,7800947,,,,,,,2023-08-28,1,,,,,コウチムスリムファミリーインドネシア,0
1573,7700150119356,新規,0,2023-08-28,2023-08-28,ｓｈｅｎｚｈｅｎｓｈｉｋａｅｒｓｈａｎｇｗｕｄｉａｎｚｉｋｅｊｉｙｏｕｘｉａｎｇｏｎｇｓｉ,,外国会社等,,,,,,,,Ｆｕｔｉａｎｑｕｓｈａｔｏｕｊｉｅｄａｏｃｈｅｇｏｎｇｍｉａｏｇｏｎｇｙｅｑｕｔａｉｒａｎｊｉｕｌｕ２１ｈａｏ（ｈｕａｎｇｇｕａｎｋｅｊｉｙｕａｎ）１ｄｏｎｇＪｍｅｎ３ＣｅｎｇＣ１３０３Ｓｈｅｎｚｈｅｎ,,,,,,2023-08-28,1,,,,,シェンジェンシーカーアーシャンウーディエンズーコージーヨウシエンゴンスー,0
1574,7700150119364,新規,0,2023-08-28,2023-08-28,ｓｈｅｎｚｈｅｎｓｈｉｌｉｌｉｈａｏｍａｏｙｉｙｏｕｘｉａｎｇｏｎｇｓｉ,,外国会社等,,,,,,,,ｓｈｅｎｚｈｅｎｓｈｉｌｕｏｈｕｑｕｄｏｎｇｍｅｎｊｉｅｄａｏｃｈｅｎｇｄｏｎｇｓｈｅｑｕｓｈｅｎｎａｎｄｏｎｇｌｕ２０２８ｈａｏｌｕｏｈｕｓｈａｎｇｗｕｚｈｏｎｇｘｉｎ３０１０,,,,,,2023-08-28,1,,,,,シェンジェンシーリーリーハオマオイーヨウシエンゴンスー,0
1575,7700150119372,新規,0,2023-08-28,2023-08-28,ｆｏｓｈａｎｓｈｉ　ｙｏｕｎｕｏｋｅｊｉ　ｙｏｕｘｉａｎｇｏｎｇｓｉ,,外国会社等,,,,,,,,ｄｏｎｇｑｕ２ｚｕｏｓａｎｃｅｎｇ１０ｈａｏｚｈｉ１０ｃｈａｎｃｈｅｎｇｑｕｌａｉｘｉａｎｇｌｕ１０ｈａｏｈｕａｙｉｚｈｕａｎｇｓｈｉｃａｉｌｉａｏｗｕｌｉｕｃｈｅｎｇｎｅｉ　ｆｏｓｈａｎｓｈｉ　ｇｕａｎｇｄｏｎｇｓｈｅｎｇ,,,,,,2023-08-28,1,,,,,フツザンシヨウノカギユウゲンコウシ,0
1576,7700150119380,新規,0,2023-08-28,2023-08-28,ｓｈｅｎｚｈｅｎｓｈｉｄｕｏｌａｎ　ｙｏｕｘｉａｎｇｏｎｇｓｉ,,外国会社等,,,,,,,,ｐｉｇｅｐｉｊｕｙｕａｎｆｕｌｉａｏｗｕｌｉｕｑｕｅｒｑｉｓｉｌｏｕＣｑｕ４Ｃ１０８　ｌｏｎｇｇａｎｇｑｕｐｉｎｇｈｕｊｉｅｄａｏｈｕａｎａｎｄａｄａｏｙｉｈａｏｈｕａｎａｎｇｕｏｊｉ　ｓｈｅｎｚｈｅｎ,,,,,,2023-08-28,1,,,,,シンセンシドオランユウゲンコウシ,0
1577,7700150119389,新規,0,2023-08-28,2023-08-28,Ｓｈｅｎｚｈｅｎｓｈｉ　Ｊｉａｎｓｉｍａｏｙｉ　Ｙｏｕｘｉａｎｇｏｎｇｓｉ,,外国会社等,,,,,,,,ＧｕａｎｇｍｉｎｇｑｕＧｏｎｇｍｉｎｇｊｉｅｄａｏ　Ｓｈａｎｇｃｕｎｓｈｅｑｕｘｉａｎｉａｎ　ＹｏｎｇｓｈｅｎｇＢｕｉｌｄｉｎｇ３０８　Ｓｈｅｎｚｈｅｎ,,,,,,2023-08-28,1,,,,,シンセンシジャンスマオイユウゲンコウシ,0
1578,7700150119397,新規,0,2023-08-28,2023-08-28,ａｎ　ｈｕｉ　ｙｉ　ｏｕ　ｗａｎｇ　ｌｕｏ　ｋｅ　ｊｉ　ｙｏｕ　ｘｉａｎ　ｇｏｎｇ　ｓｉ,,外国会社等,,,,,,,,ｊｉｎｇ　ｊｉ　ｊｉ　ｓｈｕ　ｋａｉ　ｆａ　ｑｕ　ｊｉｎ　ｌｕ　ｌｕ　２３０　ｈａｏ　ｒｏｎｇ　ｋｅ　ｃｈｅｎｇ　ｒｏｎｇ　ｘｉａｎｇ　ｙｕａｎ　１７　ｚｈｕａｎｇ　１４０１　ｓｈｉ　ｈｅ　ｆｅｉ　ｓｈｉ　ａｎ　ｈｕｉ　ｓｈｅｎｇ　２３００００　ＣＮ,,,,,,2023-08-28,1,,,,,アンフイイーオウワンルオコージーヨウシエンゴンスー,0
1586,8010001237995,新規,0,2023-08-28,2023-08-28,株式会社ＶＲＡＩＮＳ,,株式会社,東京都,中央区,銀座１丁目１２番４号Ｎ＆ＥＢＬＤ．６Ｆ,,13,102,1040061,,,,,,,2023-08-28,1,,,,,ヴレインズ,0
1587,8010001238036,新規,0,2023-08-28,2023-08-28,株式会社Ｌｉｎｋ　Ｎｏｓ,,株式会社,東京都,中央区,日本橋室町１丁目１１番１２号日本橋水野ビル７階,,13,102,1030022,,,,,,,2023-08-28,1,,,,,リンクノス,0
1589,8010003041470,新規,0,2023-08-28,2023-08-28,合同会社ジブリール,,合同会社,東京都,中央区,銀座１丁目１２番４号Ｎ＆ＥＢＬＤ．６Ｆ,,13,102,1040061,,,,,,,2023-08-28,1,,,,,ジブリール,0
1590,8010003041512,新規,0,2023-08-28,2023-08-28,合同会社すずらん信用サービス,,合同会社,東京都,千代田区,丸の内３丁目１番１号東京共同会計事務所内,,13,101,1000005,,,,,,,2023-08-28,1,,,,,スズランシンヨウサービス,0
1591,8010005037178,新規,0,2023-08-28,2023-08-28,トレンド一般社団法人,,その他の設立登記法人,東京都,中央区,銀座１丁目６番１１号土志田ビルディング３Ｆ,,13,102,1040061,,,,,,,2023-08-28,1,,,,,トレンド,0
1597,8010401176538,新規,0,2023-08-28,2023-08-28,アンタイ株式会社,,株式会社,東京都,港区,新橋３丁目１５番５号５Ｆ,,13,103,1050004,,,,,,,2023-08-28,1,,,,,アンタイ,0
1598,8010401176793,新規,0,2023-08-28,2023-08-28,株式会社日本産業アドバイザーズ,,株式会社,東京都,港区,赤坂８丁目２－７赤坂新坂パークマンション２０３号,,13,103,1070052,,,,,,,2023-08-28,1,,,,,ニホンサンギョウアドバイザーズ,0
1599,8010403030817,新規,0,2023-08-28,2023-08-28,合同会社ＱｎＴ　Ｈｏｌｄｉｎｇｓ,,合同会社,東京都,港区,元赤坂１丁目１番８号株式会社赤坂国際会計内,,13,103,1070051,,,,,,,2023-08-28,1,,,,,キューアンドティーホールディングス,0
1600,8010405022457,新規,0,2023-08-28,2023-08-28,一般社団法人ＱｎＴ　Ｈｏｌｄｉｎｇｓ,,その他の設立登記法人,東京都,港区,元赤坂１丁目１番８号株式会社赤坂国際会計内,,13,103,1070051,,,,,,,2023-08-28,1,,,,,キューアンドティーホールディングス,0
1602,8010501050948,新規,0,2023-08-28,2023-08-28,ｃｏｃｏ　ｔｉｍｅ株式会社,,株式会社,東京都,台東区,東上野５丁目１７番８－１０１号中銀第２東上野マンシオン,,13,106,1100015,,,,,,,2023-08-28,1,,,,,ココタイム,0
1617,8010903008412,新規,0,2023-08-28,2023-08-28,合同会社ＨＣナビゲーター,,合同会社,東京都,世田谷区,上馬４丁目２２番１２号,,13,112,1540011,,,,,,,2023-08-28,1,,,,,エイチシーナビゲーター,0
1621,8011001156616,新規,0,2023-08-28,2023-08-28,ＹＹＭサービス株式会社,,株式会社,東京都,渋谷区,道玄坂１丁目１６－６二葉ビル８ｂ,,13,113,1500043,,,,,,,2023-08-28,1,,,,,ワイワイエムサービス,0
1624,8011003017386,新規,0,2023-08-28,2023-08-28,ｌｉｍｐＩｎ合同会社,,合同会社,東京都,渋谷区,道玄坂１丁目１０番８号渋谷道玄坂東急ビル２Ｆ－Ｃ,,13,113,1500043,,,,,,,2023-08-28,1,,,,,リンプイン,0
1625,8011005010190,新規,0,2023-08-28,2023-08-28,一般社団法人日本こどもホスピス普及協会,,その他の設立登記法人,東京都,渋谷区,恵比寿西１丁目２１－５ＳｒｅｅｄＥＢＩＳＵ＋ｔ６階,,13,113,1500021,,,,,,,2023-08-28,1,,,,,ニッポンコドモホスピスフキュウキョウカイ,0
1627,8011101104136,新規,0,2023-08-28,2023-08-28,株式会社ＰＬＡＮ・ＬＥＥ,,株式会社,東京都,新宿区,百人町２丁目２０番２３,,13,104,1690073,,,,,,,2023-08-28,1,,,,,プランリー,0
1628,8011101104152,新規,0,2023-08-28,2023-08-28,株式会社エールクラブ,,株式会社,東京都,新宿区,荒木町１０番地３０－４０２号,,13,104,1600007,,,,,,,2023-08-28,1,,,,,エールクラブ,0
1644,8020001153143,新規,0,2023-08-28,2023-08-28,株式会社あさゆうホーム,,株式会社,神奈川県,川崎市川崎区,新川通１０－１２－８０１,,14,131,2100013,,,,,,,2023-08-28,1,,,,,アサユウホーム,0
1645,8020001153192,新規,0,2023-08-28,2023-08-28,株式会社ＢＵＺＺ,,株式会社,神奈川県,横浜市港北区,菊名６丁目１９番１５号齋藤荘２－１０１,,14,109,2220011,,,,,,,2023-08-28,1,,,,,バズ,0
1651,8020003024458,新規,0,2023-08-28,2023-08-28,合同会社Ａ’ｎＧ,,合同会社,神奈川県,横浜市港北区,日吉１丁目２０番３９－４号,,14,109,2230061,,,,,,,2023-08-28,1,,,,,エーアンドジー,0
1652,8020005016098,新規,0,2023-08-28,2023-08-28,一般社団法人蒼,,その他の設立登記法人,神奈川県,横浜市緑区,北八朔町１５９７番地４,,14,113,2260021,,,,,,,2023-08-28,1,,,,,アオ,0
1655,8021001080022,新規,0,2023-08-28,2023-08-28,株式会社リベル,,株式会社,神奈川県,秦野市,曽屋６８７番地３７－６０３,,14,211,2570031,,,,,,,2023-08-28,1,,,,,リベル,0
1656,8021001080039,新規,0,2023-08-28,2023-08-28,株式会社ｔｏｃｏ‐ｔｏｗａ,,株式会社,神奈川県,鎌倉市,極楽寺２丁目１２番１１号,,14,204,2480023,,,,,,,2023-08-28,1,,,,,トコトワ,0
1663,8030001155436,新規,0,2023-08-28,2023-08-28,株式会社ＡＳＫ,,株式会社,埼玉県,越谷市,谷中町１丁目１０６番地２６,,11,222,3430856,,,,,,,2023-08-28,1,,,,,アスク,0
1664,8030001155460,新規,0,2023-08-28,2023-08-28,メリットプラス株式会社,,株式会社,埼玉県,川口市,大字東本郷１３８９番地の３,,11,203,3340063,,,,,,,2023-08-28,1,,,,,メリットプラス,0
1665,8030001155618,新規,0,2023-08-28,2023-08-28,株式会社福武,,株式会社,埼玉県,鶴ヶ島市,富士見５丁目１８ー２３,,11,241,3502201,,,,,,,2023-08-28,1,,,,,フクタケ,0
1677,8040005022103,新規,0,2023-08-28,2023-08-28,一般社団法人相川,,その他の設立登記法人,千葉県,船橋市,本町１丁目１９番１５号,,12,204,2730005,,,,,,,2023-08-28,1,,,,,アイカワ,0
1682,8050001053357,新規,0,2023-08-28,2023-08-28,株式会社踞鳥,,株式会社,茨城県,つくばみらい市,紫峰ヶ丘３丁目３３番地１３,,08,235,3002359,,,,,,,2023-08-28,1,,,,,ツクオ,0
1690,8070001040799,新規,0,2023-08-28,2023-08-28,株式会社ＧＭＣ,,株式会社,群馬県,前橋市,富田町８５４番地５,,10,201,3792161,,,,,,,2023-08-28,1,,,,,ジーエムシー,0
1702,8100003007140,新規,0,2023-08-28,2023-08-28,合同会社２４クリエイトデザイン,,合同会社,長野県,長野市,大字三才６７フォレスタＣ２０３,,20,201,3810081,,,,,,,2023-08-28,1,,,,,トゥエンティーフォークリエイトデザイン,0
1711,8120001257644,新規,0,2023-08-28,2023-08-28,世祺株式会社,,株式会社,大阪府,大阪市東成区,神路４丁目３－１０スターレジデンス新深江２０７号室,,27,115,5370003,,,,,,,2023-08-28,1,,,,,セキ,0
1715,8120003024794,新規,0,2023-08-28,2023-08-28,合同会社ＯＮワークス,,合同会社,大阪府,大阪市住吉区,長居４丁目１２番２１号,,27,120,5580003,,,,,,,2023-08-28,1,,,,,オーエヌワークス,0
1716,8120005023836,新規,0,2023-08-28,2023-08-28,一般財団法人ロート山田育英ファンデーション,,その他の設立登記法人,大阪府,大阪市生野区,巽西１丁目８番１号,00131670,27,116,5440012,,,,,,,2023-08-28,1,,,,,ロートヤマダイクエイファンデーション,0
1718,8120101068108,新規,0,2023-08-28,2023-08-28,くらしクリエイト株式会社,,株式会社,大阪府,松原市,新堂２丁目３２２番２号プロヴァンスイン松原２０１,,27,217,5800015,,,,,,,2023-08-28,1,,,,,クラシクリエイト,0
1729,8130001075013,新規,0,2023-08-28,2023-08-28,ＹＱ国際株式会社,,株式会社,京都府,京都市東山区,大黒町通五条下る袋町３０２番地,,26,105,6050911,,,,,,,2023-08-28,1,,,,,ワイキュウコクサイ,0
1740,8140001131368,新規,0,2023-08-28,2023-08-28,株式会社オオゲツヒメ,,株式会社,兵庫県,明石市,和坂１２番１２号,,28,203,6730012,,,,,,,2023-08-28,1,,,,,オオゲツヒメ,0
1741,8140001131376,新規,0,2023-08-28,2023-08-28,株式会社アンビションエンタープライズ,,株式会社,兵庫県,芦屋市,大原町１６番２６号,,28,206,6590092,,,,,,,2023-08-28,1,,,,,アンビションエンタープライズ,0
1746,8170003001913,新規,0,2023-08-28,2023-08-28,ＮＩＰＰＯＮ　ＹＯＲＫ合同会社,,合同会社,和歌山県,新宮市,神倉２丁目５－１７，２階,,30,207,6470044,,,,,,,2023-08-28,1,,,,,ニッポンヨーク,0
1753,8190001030689,新規,0,2023-08-28,2023-08-28,株式会社ＯＮＥ,,株式会社,三重県,鈴鹿市,弓削１丁目４番３０号ヴィレッジイツオ１０１号室,,24,207,5130842,,,,,,,2023-08-28,1,,,,,ワン,0
1755,8220003003573,新規,0,2023-08-28,2023-08-28,合同会社多川自動車,,合同会社,石川県,金沢市,高尾南３丁目８８番地１,,17,201,9218154,,,,,,,2023-08-28,1,,,,,タガワジドウシャ,0
1760,8240003006269,新規,0,2023-08-28,2023-08-28,合同会社ソライエ,,合同会社,広島県,東広島市,高屋町中島２８４番地３,,34,212,7392125,,,,,,,2023-08-28,1,,,,,ソライエ,0
1771,8260003004403,新規,0,2023-08-28,2023-08-28,飛翔合同会社,,合同会社,岡山県,岡山市北区,辛川市場３０５‐１シドベールＡ２０１,,33,101,7011214,,,,,,,2023-08-28,1,,,,,ヒショウ,0
1777,8290001102668,新規,0,2023-08-28,2023-08-28,株式会社八芳園エリアプロデュース警固,,株式会社,福岡県,福岡市中央区,天神２丁目２番２０号警固神社社務所ビル９階,,40,133,8100001,,,,,,,2023-08-28,1,,,,,ハッポウエンエリアプロデュースケゴ,0
1778,8290001102775,新規,0,2023-08-28,2023-08-28,Ｒａｐｉｄｓ　Ｃｏｍｐａｎｙ株式会社,,株式会社,福岡県,福岡市早良区,室見１丁目３番３号,,40,137,8140015,,,,,,,2023-08-28,1,,,,,ラピッズカンパニー,0
1779,8290003014283,新規,0,2023-08-28,2023-08-28,合同会社Ｚ,,合同会社,福岡県,福岡市博多区,店屋町３番１号店屋町店舗１－Ｃ号室,,40,132,8120025,,,,,,,2023-08-28,1,,,,,ゼット,0
1786,8330001031193,新規,0,2023-08-28,2023-08-28,株式会社ピクセルベアー,,株式会社,熊本県,熊本市北区,植木町広住４１９番地１１,,43,105,8610131,,,,,,,2023-08-28,1,,,,,ピクセルベアー,0
1791,8360001032461,新規,0,2023-08-28,2023-08-28,株式会社ヴィクシオ,,株式会社,沖縄県,浦添市,沢岻１丁目４５番地３号,,47,208,9012112,,,,,,,2023-08-28,1,,,,,ヴィクシオ,0
1796,8380003005554,新規,0,2023-08-28,2023-08-28,合同会社ＩＣＥ,,合同会社,福島県,福島市,鳥谷野字宮畑３９番地の１,,07,201,9608152,,,,,,,2023-08-28,1,,,,,アイシーイー,0
1799,8400005008354,新規,0,2023-08-28,2023-08-28,一般社団法人岩手県キッチンカー協会,,その他の設立登記法人,岩手県,北上市,青柳町２丁目６番４０号,,03,206,0240031,,,,,,,2023-08-28,1,,,,,イワテケンキッチンカーキョウカイ,0
1802,8410003003835,新規,0,2023-08-28,2023-08-28,合同会社フリー麻雀ロンロン,,合同会社,秋田県,秋田市,泉南１丁目１番３号,,05,201,0100918,,,,,,,2023-08-28,1,,,,,フリーマージャンロンロン,0
1811,8480003002013,新規,0,2023-08-28,2023-08-28,合同会社夏空,,合同会社,徳島県,吉野川市,川島町川島２７３番地,,36,205,7793301,,,,,,,2023-08-28,1,,,,,ナツゾラ,0
1814,8700150119355,新規,0,2023-08-28,2023-08-28,ｓｈｅｎｚｈｅｎｓｈｉｈｕｙｉｋｅｊｉｙｏｕｘｉａｎｇｏｎｇｓｉ,,外国会社等,,,,,,,,ｓｈｅｎｚｈｅｎｓｈｉｎａｎｓｈａｎｑｕｙｕｅｈａｉｊｉｅｄａｏｋｅｊｉｙｕａｎｓｈｅｑｕｋｅｙｕａｎｌｕ８ｈａｏｘｕｎｍｅｉｋｅｊｉｇｕａｎｇｃｈａｎｇ３ｈａｏｌｏｕ２００９,,,,,,2023-08-28,1,,,,,シェンジェンシーフーイーコージーヨウシエンゴンスー,0
1815,8700150119363,新規,0,2023-08-28,2023-08-28,Ｙｉｗｕ　Ｚｈａｏｊｉｎ　Ｔｒａｄｅ　Ｃｏ．，Ｌｔｄ,,外国会社等,,,,,,,,Ｎｏ．１１７　Ｑｉｕｓｈｉ　Ｒｏａｄ，Ｂｅｉｙｕａｎ　Ｓｔｒｅｅｔ，Ｙｉｗｕ　ｃｉｔｙ，ｚｈｅｊｉａｎｇｓｈｅｎｇ,,,,,,2023-08-28,1,,,,,イーウーシージャオジンマオイーヨウシエンゴンスー,0
1816,8700150119371,新規,0,2023-08-28,2023-08-28,ｓｈｅｎｚｈｅｎｓｈｉ　ｈａｉｌａｉｘｉｎｇｋｅｊｉ　ｙｏｕｘｉａｎｇｏｎｇｓｉ,,外国会社等,,,,,,,,ｓｈａｎｇｓｈｕｉｇｕｏｊｉｗｅｎｈｕａｃｈｕａｎｇｙｉｙｕａｎＤｄｏｎｇ５０３ｌｏｎｇｇａｎｇｑｕｊｉｈｕａｊｉｅｄａｏｓｈｕｉｊｉｎｇｓｈｅｑｕｂｕｌｏｎｇｌｕ２０８ｈａｏ　ｓｈｅｎｚｈｅｎ,,,,,,2023-08-28,1,,,,,シンセンシハイライシンカギユウゲンコウシ,0
1817,8700150119388,新規,0,2023-08-28,2023-08-28,ｄｏｎｇｇｕａｎｓｈｉ　ｈｕｂａｏｗｕｊｉｎ　ｙｏｕｘｉａｎｇｏｎｇｓｉ,,外国会社等,,,,,,,,ｇｕａｎｇｄｏｎｇｓｈｅｎｇ　ｄｏｎｇｇｕａｎｓｈｉ　ｃｈａｎｇａｎｚｈｅｎｊｉｅｘｉａｎａｎｙｕａｎｂａｘｉａｎｇ２ｈａｏ５０６ｆａｎｇ,,,,,,2023-08-28,1,,,,,トンガンシフバオウジンユウゲンコウシ,0
1818,8700150119396,新規,0,2023-08-28,2023-08-28,Ｔａｉ　Ｙｕａｎ　Ｈｏｎｇ　Ｊｉ　Ｄｉａｎ　Ｚｉ　Ｓｈａｎｇ　Ｗｕ　Ｙｏｕ　Ｘｉａｎ　Ｇｏｎｇ　Ｓｉ,,外国会社等,,,,,,,,１３９ｈａｏｃｈａｎｇｚｈｉｌｕｘｉａｏｄｉａｎｑｕ　ｄａｔａｎｇｚｈｉｎｅｎｇｈｕａｙｕａｎ１８０５ｈａｏ２ｄａｎｙａｕｎ１３ｈａｏｌｏｕ　Ｔａｉｙｕａｎｓｈｉ　Ｓｈａｎｘｉｓｈｅｎｇ　０３００１２　ＣＮ,,,,,,2023-08-28,1,,,,,タイユエンホンジーディエンズーシャンウーヨウシエンゴンスー,0
1827,9010001237986,新規,0,2023-08-28,2023-08-28,株式会社ＤａｔａＰａｒｔｎｅｒｓ,,株式会社,東京都,中央区,晴海２丁目２番４２－６２０号,,13,102,1040053,,,,,,,2023-08-28,1,,,,,データパートナーズ,0
1828,9010001238010,新規,0,2023-08-28,2023-08-28,住まいるバンク株式会社,,株式会社,東京都,中央区,銀座８丁目１３番１号銀座三井ビル２Ｆ,,13,102,1040061,,,,,,,2023-08-28,1,,,,,スマイルバンク,0
1831,9010003041461,新規,0,2023-08-28,2023-08-28,Ｐｒｏｊｅｃｔ　Ｅ　Ｂｅａｕｔｙ　Ｊａｐａｎ合同会社,,合同会社,東京都,中央区,銀座６丁目１３番１６号銀座ＷａｌｌビルＵＣＦ５０１,,13,102,1040061,,,,,,,2023-08-28,1,,,,,プロジェクトイービューティージャパン,0
1832,9010003041511,新規,0,2023-08-28,2023-08-28,合同会社ＫＴＫＲ,,合同会社,東京都,千代田区,神田和泉町１番地６－１６ヤマトビル４０５,,13,101,1010024,,,,,,,2023-08-28,1,,,,,ケイティケイアール,0
1835,9010103002198,新規,0,2023-08-28,2023-08-28,合同会社Ｉ．Ｗ‐ＷＯＲＫＳ,,合同会社,東京都,八王子市,椚田町５０６番地１６,,13,201,1930942,,,,,,,2023-08-28,1,,,,,アイダブリューワークス,0
1839,9010401176776,新規,0,2023-08-28,2023-08-28,Ｃｏｍｂａ　Ｔｅｌｅｃｏｍ　ａｎｄ　Ｉｎｔｅｌｌｉｇｅｎｃｅ株式会社,,株式会社,東京都,港区,北青山１丁目３番１号アールキューブ青山３階,,13,103,1070061,,,,,,,2023-08-28,1,,,,,コンバテレコムアンドインテリジェンス,0
1840,9010401176818,新規,0,2023-08-28,2023-08-28,株式会社リフトオフ,,株式会社,東京都,港区,南青山３丁目１－３６青山丸竹ビル６Ｆ,,13,103,1070062,,,,,,,2023-08-28,1,,,,,リフトオフ,0
1842,9010403030799,新規,0,2023-08-28,2023-08-28,パシフィコ・エナジー・ストレージ６号合同会社,,合同会社,東京都,港区,六本木３丁目２番１号六本木グランドタワー,,13,103,1060032,,,,,,,2023-08-28,1,,,,,パシフィコエナジーストレージロクゴウ,0
1844,9010505003439,新規,0,2023-08-28,2023-08-28,医療法人社団真慶会,,その他の設立登記法人,東京都,台東区,西浅草２丁目２０番１号２階,,13,106,1110035,,,,,,,2023-08-28,1,,,,,シンケイカイ,0
1845,9010601063683,新規,0,2023-08-28,2023-08-28,株式会社サムヒルズ,,株式会社,東京都,江東区,大島３丁目８番７－２２３号,,13,108,1360072,,,,,,,2023-08-28,1,,,,,サムヒルズ,0
1851,9010801034278,新規,0,2023-08-28,2023-08-28,株式会社ファイゲート,,株式会社,東京都,大田区,蒲田４丁目１０番１４号あすとウィズ,,13,111,1440052,,,,,,,2023-08-28,1,,,,,ファイゲート,0
1853,9010901053681,新規,0,2023-08-28,2023-08-28,株式会社ｔａｗａｎ,,株式会社,東京都,世田谷区,弦巻２丁目１２番２６号ジェイパーク駒沢大学ルミナヴェール３０１,,13,112,1540016,,,,,,,2023-08-28,1,,,,,タワン,0
1854,9010901053707,新規,0,2023-08-28,2023-08-28,株式会社宇宙人,,株式会社,東京都,世田谷区,南烏山６丁目４番８号ジェイプライズ４０１,,13,112,1570062,,,,,,,2023-08-28,1,,,,,ウチュウジン,0
1857,9011001156607,新規,0,2023-08-28,2023-08-28,株式会社フジエン,,株式会社,東京都,目黒区,下目黒６丁目６番３号,,13,110,1530064,,,,,,,2023-08-28,1,,,,,フジエン,0
1860,9011003017435,新規,0,2023-08-28,2023-08-28,アルクトデザイン合同会社,,合同会社,東京都,渋谷区,渋谷２丁目１９－１５宮益坂ビルディング６０９,,13,113,1500002,,,,,,,2023-08-28,1,,,,,アルクトデザイン,0
1862,9011103013400,新規,0,2023-08-28,2023-08-28,合同会社ジュリエット音楽教室,,合同会社,東京都,新宿区,西新宿３丁目３番地１３号西新宿水間ビル２Ｆ,,13,104,1600023,,,,,,,2023-08-28,1,,,,,ジュリエットオンガクキョウシツ,0
1867,9011401025394,新規,0,2023-08-28,2023-08-28,ＮＥＯ株式会社,,株式会社,東京都,板橋区,宮本町３５－１０－１０２,,13,119,1740054,,,,,,,2023-08-28,1,,,,,ネオ,0
1870,9011601027083,新規,0,2023-08-28,2023-08-28,イズア株式会社,,株式会社,東京都,練馬区,田柄５丁目３番４号,,13,120,1790073,,,,,,,2023-08-28,1,,,,,イズア,0
1875,9011701026547,新規,0,2023-08-28,2023-08-28,ＦＯ‐Ｔｅｃｈｎｏｌｏｇｉｅｓ株式会社,,株式会社,東京都,江戸川区,中葛西６丁目３番１１号ＫＯＤＡヒルズ中葛西４０２,,13,123,1340083,,,,,,,2023-08-28,1,,,,,エフオーテクノロジーズ,0
1882,9013301051264,新規,0,2023-08-28,2023-08-28,鴻盛昌株式会社,,株式会社,東京都,豊島区,千早２丁目３１番１号,,13,116,1710044,,,,,,,2023-08-28,1,,,,,コウセイショウ,0
1883,9013301051272,新規,0,2023-08-28,2023-08-28,株式会社三協,,株式会社,東京都,豊島区,巣鴨１丁目８番４号小黒ビル２０１号,,13,116,1700002,,,,,,,2023-08-28,1,,,,,サンキョウ,0
1891,9020001153159,新規,0,2023-08-28,2023-08-28,株式会社Ｐｒｉｍｅ,,株式会社,神奈川県,横浜市都筑区,桜並木８番３１号パティオ桜並木Ｃ１０１,,14,118,2240046,,,,,,,2023-08-28,1,,,,,プライム,0
1892,9020001153191,新規,0,2023-08-28,2023-08-28,株式会社松本,,株式会社,神奈川県,横浜市西区,浅間町１丁目４番３号ウィザードビル４０２,,14,103,2200072,,,,,,,2023-08-28,1,,,,,マツモト,0
1893,9020001153209,新規,0,2023-08-28,2023-08-28,ＩＤａａｓ技術研究株式会社,,株式会社,神奈川県,横浜市港北区,日吉本町３丁目７番２号１０１,,14,109,2230062,,,,,,,2023-08-28,1,,,,,アイダースギジュツケンキュウ,0
1899,9030001155369,新規,0,2023-08-28,2023-08-28,株式会社大上自興,,株式会社,埼玉県,比企郡吉見町,大字大串２５５０番地１,,11,347,3550134,,,,,,,2023-08-28,1,,,,,オオウエジコウ,0
1900,9030001155435,新規,0,2023-08-28,2023-08-28,株式会社花いちりん,,株式会社,埼玉県,所沢市,狭山ケ丘１丁目３００３番地の３４カームハイツＢ－１０３,,11,208,3591161,,,,,,,2023-08-28,1,,,,,ハナイチリン,0
1901,9030001155451,新規,0,2023-08-28,2023-08-28,株式会社エムアイシー,,株式会社,埼玉県,志木市,中宗岡３丁目３番１６号,,11,228,3530002,,,,,,,2023-08-28,1,,,,,エムアイシー,0
1902,9030001155468,新規,0,2023-08-28,2023-08-28,ぽぷら訪問看護株式会社,,株式会社,埼玉県,飯能市,大字川寺６３番地１,,11,209,3570044,,,,,,,2023-08-28,1,,,,,ポプラホウモンカンゴ,0
1903,9030001155724,新規,0,2023-08-28,2023-08-28,株式会社東原,,株式会社,埼玉県,本庄市,北堀６６５番地,,11,211,3670031,,,,,,,2023-08-28,1,,,,,トウハラ,0
1914,9040001129801,新規,0,2023-08-28,2023-08-28,株式会社林建設,,株式会社,千葉県,白井市,冨士１３１番地の１サンセリオ白井Ｉ１０３号,00131680,12,232,2701432,,,,,,,2023-08-28,1,,,,,ハヤシケンセツ,0
1920,9050001053348,新規,0,2023-08-28,2023-08-28,株式会社Ｈ２Ｏ,,株式会社,茨城県,水戸市,見川町２５３７－７３,,08,201,3100913,,,,,,,2023-08-28,1,,,,,エイチツーオー,0
1927,9070001040798,新規,0,2023-08-28,2023-08-28,株式会社むーむー,,株式会社,群馬県,高崎市,乗附町８７０番地４,,10,202,3700867,,,,,,,2023-08-28,1,,,,,ムームー,0
1933,9100005013061,新規,0,2023-08-28,2023-08-28,一般社団法人日印友好シャンマタ・シッダ医学協会,,その他の設立登記法人,長野県,茅野市,湖東６４５番地１,,20,214,3910211,,,,,,,2023-08-28,1,,,,,ニチインユウコウシャンマタシッダ,0
1947,9120001257536,新規,0,2023-08-28,2023-08-28,中立株式会社,,株式会社,大阪府,大阪市大正区,三軒家西３丁目４番１６号中山ビル１０１２,,27,108,5510001,,,,,,,2023-08-28,1,,,,,チュウリツ,0
1948,9120001257627,新規,0,2023-08-28,2023-08-28,日進商事株式会社,,株式会社,大阪府,大阪市港区,築町四丁目１０番３０号大寅ビル２０４号,,27,107,5520000,,,,,,,2023-08-28,1,,,,,ニッシンショウジ,0
1949,9120001257676,新規,0,2023-08-28,2023-08-28,株式会社Ｌａｎｄ,,株式会社,大阪府,大阪市浪速区,桜川１丁目１－２８,,27,111,5560022,,,,,,,2023-08-28,1,,,,,ランド,0
1950,9120003024760,新規,0,2023-08-28,2023-08-28,合同会社ｍｍ,,合同会社,大阪府,大阪市中央区,南船場３丁目８番５号,,27,128,5420081,,,,,,,2023-08-28,1,,,,,エムエム,0
1952,9120101068115,新規,0,2023-08-28,2023-08-28,株式会社サブツアー,,株式会社,大阪府,和泉市,尾井町２丁目４番１１－１号,,27,219,5940006,,,,,,,2023-08-28,1,,,,,サブツアー,0
1956,9130001075029,新規,0,2023-08-28,2023-08-28,株式会社Ｊｏｂ　Ｃｏｍｐａｎｙ,,株式会社,京都府,京都市南区,東九条南松ノ木町１２番地２,,26,107,6018023,,,,,,,2023-08-28,1,,,,,ジョブカンパニー,0
1957,9130003008911,新規,0,2023-08-28,2023-08-28,サヴィー京都合同会社,,合同会社,京都府,京都市中京区,蟷螂山町４６１番地,,26,104,6048225,,,,,,,2023-08-28,1,,,,,サヴィーキョウト,0
1962,9140001131367,新規,0,2023-08-28,2023-08-28,株式会社オーアルエス,,株式会社,兵庫県,神戸市東灘区,渦森台２丁目１０番２０４号,,28,101,6580066,,,,,,,2023-08-28,1,,,,,オーアルエス,0
1971,9140005026720,新規,0,2023-08-28,2023-08-28,一般社団法人Ｍｅｅｔ　ａｎｄ　Ｍａｔｅ‐学術・芸術サポート,,その他の設立登記法人,兵庫県,神戸市灘区,篠原中町５丁目５番２７号,,28,102,6570066,,,,,,,2023-08-28,1,,,,,,0
1976,9180003025670,新規,0,2023-08-28,2023-08-28,合同会社リクロス,,合同会社,愛知県,名古屋市港区,入場２丁目５０５番地ソルヴィータＩＩＢ号,00131682,23,111,4550803,,,,,,,2023-08-28,1,,,,,リクロス,0
1981,9180301037748,新規,0,2023-08-28,2023-08-28,株式会社ザ・サードスペース,,株式会社,愛知県,岡崎市,河原町１番地１８山本店舗５号,,23,202,4442118,,,,,,,2023-08-28,1,,,,,ザサードスペース,0
1994,9290001102766,新規,0,2023-08-28,2023-08-28,サジーベリーホールディングス株式会社,,株式会社,福岡県,福岡市博多区,博多駅南２丁目８番３５号,,40,132,8120016,,,,,,,2023-08-28,1,,,,,サジーベリーホールディングス,0
1995,9290001102774,新規,0,2023-08-28,2023-08-28,株式会社ＲＩＳＥ,,株式会社,福岡県,福岡市城南区,友丘３丁目１４番６号,,40,136,8140112,,,,,,,2023-08-28,1,,,,,ライズ,0
1999,9300003002013,新規,0,2023-08-28,2023-08-28,浜松駒場三宿合同会社,,合同会社,佐賀県,鹿島市,大字中村１６２５番地２,,41,207,8491304,,,,,,,2023-08-28,1,,,,,ハママツコマバミシュク,0
2003,9310003004628,新規,0,2023-08-28,2023-08-28,ＩＡＥ合同会社,,合同会社,長崎県,松浦市,志佐町白浜免１２１７番地,,42,208,8594506,,,,,,,2023-08-28,1,,,,,アイエイイー,0
2006,9330001031184,新規,0,2023-08-28,2023-08-28,株式会社トリオ,,株式会社,熊本県,菊池郡大津町,大字杉水３６７３番地３,,43,403,8691236,,,,,,,2023-08-28,1,,,,,トリオ,0
2012,9330003009947,新規,0,2023-08-28,2023-08-28,ｉ．ＭＳ合同会社,,合同会社,熊本県,熊本市東区,健軍１丁目１９－７,,43,102,8620911,,,,,,,2023-08-28,1,,,,,アイエムエス,0
2022,9370003006263,新規,0,2023-08-28,2023-08-28,ｇｏｊｕｋａｌａ合同会社,,合同会社,宮城県,栗原市,若柳字下畑岡内谷川８６番地１,,04,213,9895503,,,,,,,2023-08-28,1,,,,,ゴジュウカラ,0
2025,9380003005553,新規,0,2023-08-28,2023-08-28,合同会社まなわ,,合同会社,福島県,いわき市,好間町上好間字馬場４７番地の２,,07,204,9701153,,,,,,,2023-08-28,1,,,,,マナワ,0
2036,9430005014761,新規,0,2023-08-28,2023-08-28,税理士法人足立会計事務所,,その他の設立登記法人,北海道,小樽市,色内２丁目１７番５号,,01,203,0470031,,,,,,,2023-08-28,1,,,,,アダチカイケイジムショ,0
2040,9700150119354,新規,0,2023-08-28,2023-08-28,Ｓｈｅｎｚｈｅｎｓｈｉ　Ｒｕｉｗａｎｇｄａｄｉａｎｚｉｓｈａｎｇｗｕ　ＣＯ　ＬＴＤ,,外国会社等,,,,,,,,Ｎａｎｓｈａｎｑｕｎａｎｓｈａｎｊｉｅｄａｏｎａｎｘｉｎｌｕ　ＹａｎｇｇｕａｎｇｋｅｃｈｕａｎｇｚｈｏｎｇｘｉｎＡｚｕｏ１９０２　ｓｈｅｎｚｈｅｎ　Ｇｕａｎｇｄｏｎｇ　５１８０００　ＣＮ,,,,,,2023-08-28,1,,,,,シェンジェンシールイワンダーディエンズーシャンウーヨウシエンゴンスー,0
2041,9700150119362,新規,0,2023-08-28,2023-08-28,ｈａｎｇ　ｚｈｏｕ　ｙｕｎ　ｂａｏ　ｘｉｎ　ｘｉ　ｋｅ　ｊｉ　ｙｏｕ　ｘｉａｎ　ｇｏｎｇ　ｓｉ,,外国会社等,,,,,,,,ｂｉｎ　ｊｉａｎｇ　ｑｕ　ｘｉ　ｘｉｎｇ　ｊｉｅ　ｄａｏ　ｇｕａｎ　ｈｅ　ｌｕ　４　ｈａｏ　５　ｈａｏ　ｌｏｕ　１４１　ｓｈｉ　ｈａｎｇｚｈｏｕ　ｚｈｅｊｉａｎｇ　３１００５１　ＣＮ,,,,,,2023-08-28,1,,,,,ハンジョウインバオシンシーコージーヨウシエンゴンスー,0
2042,9700150119370,新規,0,2023-08-28,2023-08-28,ｓｈｅｎｚｈｅｎｓｈｉ　ｙｉｎｇｎｕｏｃｈｕａｎｇｘｉｎｙａｎｆａ　ｙｏｕｘｉａｎｇｏｎｇｓｉ,,外国会社等,,,,,,,,ｓｈｅｎｚｈｅｎｓｈｉｎａｎｓｈａｎｑｕｘｉｌｉｊｉｅｄａｏｘｉｌｉｓｈｅｑｕｄａｓｈｉｙｉｌｕｗａｎｋｅｙｕｎｃｈｅｎｇｓｉｑｉ（ｊｉｚｈｏｎｇｓｈａｎｇｙｅｘｉａｎｇｍｕ）Ａ１１０１Ａ,,,,,,2023-08-28,1,,,,,シンセンシインヌオチワンシンヤンファユウゲンコウシ,0
2043,9700150119379,新規,0,2023-08-28,2023-08-28,Ｄｏｎｇｇｕａｎｓｈｉ　ｆｅｎｇｙｉｎｇｆｕｚｈｕａｎｇ　ｙｏｕｘｉａｎｇｏｎｇｓｉ,,外国会社等,,,,,,,,ｎａｎｃｈｅｎｇｊｉｅｄａｏｈｏｎｇｆｕｌｕ９２ｈａｏ　ｚｈｏｎｇｈｕａｎｃａｉｆｕｇｕａｎｇｃｈａｎｇ８０３Ａｈａｏ　Ｄｏｎｇｇｕａｎ,,,,,,2023-08-28,1,,,,,トンガンシフォンインフクソウユウゲンコウシ,0
2044,9700150119387,新規,0,2023-08-28,2023-08-28,ｂｉｎｚｈｏｕ　ｐｉｎｙｕｅｆａｎｇｚｈｉｋｅｊｉ　ｙｏｕｘｉａｎｇｏｎｇｓｉ,,外国会社等,,,,,,,,ｂｉｎｃｈｅｎｇｑｕ　ｈｕａｎｇｈｅｅｒｌｕｄｏｎｇｓｈｏｕ　ｂｉｎｚｈｏｕｓｈｉ　ｓｈａｎｄｏｎｇｓｈｅｎｇ,,,,,,2023-08-28,1,,,,,ヒンシユウピンユエファンジカギユウゲンコウシ,0
2045,9700150119395,新規,0,2023-08-28,2023-08-28,Ｙｉｗｕｓｈｉｚｕｏｊｕｎｄｉａｎｚｉｓｈａｎｇｗｕｙｏｕｘｉａｎｇｏｎｇｓｉ,,外国会社等,,,,,,,,ｙｉｗｕｓｈｉｂｅｉｙｕａｎｊｉｅｄａｏｌｉｎｇｙｕｎ７ｑｕ６ｄｏｎｇ２ｄａｎｙｕａｎ３０１　ｊｉｎｇｈｕａ　ｚｈｅｊｉａｎｇ　３２２０００　ＣＮ,,,,,,2023-08-28,1,,,,,イーウーシーズオジンディエンズーシャンウーヨウシエンゴンスー,0
