sequenceNumber,corporateNumber,process,correct,updateDate,changeDate,name,nameImageId,kind,prefectureName,cityName,streetNumber,addressImageId,prefectureCode,cityCode,postCode,addressOutside,addressOutsideImageId,closeDate,closeCause,successorCorporateNumber,changeCause,assignmentDate,latest,enName,enPrefectureName,enCityName,enAddressOutside,furigana,hihyoji
12,1010001238372,新規,0,2023-09-12,2023-09-12,株式会社ＥＮｒｉｃｈ,,株式会社,東京都,中央区,銀座６丁目１４番８号銀座石井ビル６階,,13,102,1040061,,,,,,,2023-09-12,1,,,,,エンリッチ,0
13,1010001238406,新規,0,2023-09-12,2023-09-12,平乃食品株式会社,,株式会社,東京都,中央区,銀座１丁目１２番４号Ｎ＆ＥＢＬＤ．６Ｆ,,13,102,1040061,,,,,,,2023-09-12,1,,,,,ヒラノショクヒン,0
14,1010001238439,新規,0,2023-09-12,2023-09-12,金泰国際健康株式会社,,株式会社,東京都,中央区,銀座１丁目１２番４号Ｎ＆ＥＢＬＤ．６Ｆ,,13,102,1040061,,,,,,,2023-09-12,1,,,,,キンタイコクサイケンコウ,0
21,1010003041634,新規,0,2023-09-12,2023-09-12,合同会社ｈｏｇａｒａｋａ,,合同会社,東京都,中央区,銀座１丁目２５番１号,,13,102,1040061,,,,,,,2023-09-12,1,,,,,ホガラカ,0
32,1010105002229,新規,0,2023-09-12,2023-09-12,社会保険労務士法人ＬａｗＦｏｘ,,その他の設立登記法人,東京都,八王子市,久保山町２丁目２６番地７,,13,201,1920023,,,,,,,2023-09-12,1,,,,,ローフォックス,0
40,1010403030897,新規,0,2023-09-12,2023-09-12,Ｍａｌｔａ　ＩＢＬＰ合同会社,,合同会社,東京都,港区,西新橋１丁目１番１号ＥＰコンサルティングサービス内,,13,103,1050003,,,,,,,2023-09-12,1,,,,,マルタアイビーエルピー,0
44,1010501050970,新規,0,2023-09-12,2023-09-12,株式会社このめシステムズ,,株式会社,東京都,台東区,浅草橋１丁目９番１３号Ｂｉｚ－ａｒｋ浅草橋駅前４階,,13,106,1110053,,,,,,,2023-09-12,1,,,,,コノメシステムズ,0
45,1010501051044,新規,0,2023-09-12,2023-09-12,株式会社プルーナプロパティマネジメント,,株式会社,東京都,台東区,浅草橋４丁目９番１０－７０４号,,13,106,1110053,,,,,,,2023-09-12,1,,,,,プルーナプロパティマネジメント,0
50,1010705003535,新規,0,2023-09-12,2023-09-12,一般社団法人ＣｏｎＣｏｍ運営委員会,,その他の設立登記法人,東京都,品川区,東品川５丁目９番６－３０４号,,13,109,1400002,,,,,,,2023-09-12,1,,,,,コンコンウンエイイインカイ,0
56,1011001156936,新規,0,2023-09-12,2023-09-12,深海魚株式会社,,株式会社,東京都,渋谷区,神南１丁目９番４号ＮＣビル７Ｆ・Ｂ,,13,113,1500041,,,,,,,2023-09-12,1,,,,,シンカイギョ,0
59,1011005010214,新規,0,2023-09-12,2023-09-12,医療法人社団胎児クリニクス,,その他の設立登記法人,東京都,渋谷区,代々木２丁目７番５号ｅｘｓｉｄｅ南新宿ｂｌｄｇ．３階,,13,113,1510053,,,,,,,2023-09-12,1,,,,,タイジクリニクス,0
63,1011101104324,新規,0,2023-09-12,2023-09-12,株式会社ｅｖｅｒｙ　ｒｏｌｌ　ｉｓ　ａ　ｓｅｖｅｎ,,株式会社,東京都,新宿区,新宿１丁目２５番１－４０１号,,13,104,1600022,,,,,,,2023-09-12,1,,,,,エブリロールイズアセブン,0
66,1011103013465,新規,0,2023-09-12,2023-09-12,ＣＯＦＦＥＥ　ＲＯＯＴＳ合同会社,,合同会社,東京都,新宿区,神楽坂６丁目２３,,13,104,1620825,,,,,,,2023-09-12,1,,,,,コーヒールーツ,0
70,1011501029740,新規,0,2023-09-12,2023-09-12,神麒国際株式会社,,株式会社,東京都,北区,浮間１丁目７－２３兆豊浮間ビル２０１号室,,13,117,1150051,,,,,,,2023-09-12,1,,,,,シンキコクサイ,0
74,1011801043037,新規,0,2023-09-12,2023-09-12,株式会社ＮｅｗＳｋｅｔｃｈ,,株式会社,東京都,足立区,西綾瀬２丁目２０番１１号エスペランサ２０１,,13,121,1200014,,,,,,,2023-09-12,1,,,,,ニュースケッチ,0
83,1012803003177,新規,0,2023-09-12,2023-09-12,合同会社ＦＬＯＷ,,合同会社,東京都,国分寺市,光町２丁目１０－２４－３０７,,13,214,1850034,,,,,,,2023-09-12,1,,,,,フロウ,0
94,1020003024571,新規,0,2023-09-12,2023-09-12,マグノリアリサーチ＆サービス合同会社,,合同会社,神奈川県,横浜市中区,日本大通７番地,,14,104,2310021,,,,,,,2023-09-12,1,,,,,マグノリアリサーチアンドサービス,0
99,1021001080152,新規,0,2023-09-12,2023-09-12,株式会社Ｂ．Ｃ　ｎｏｂｌｅ,,株式会社,神奈川県,海老名市,中央１丁目１９番２０号１Ａ,,14,215,2430432,,,,,,,2023-09-12,1,,,,,ビーシーノーブル,0
117,1040001130031,新規,0,2023-09-12,2023-09-12,Ｖｉｎｏｔｉ株式会社,,株式会社,千葉県,船橋市,東船橋１丁目３３番１８号,,12,204,2730002,,,,,,,2023-09-12,1,,,,,ヴィノティ,0
118,1040001130056,新規,0,2023-09-12,2023-09-12,アロカヴァ企画株式会社,,株式会社,千葉県,千葉市稲毛区,長沼原町７０３番地,,12,103,2630001,,,,,,,2023-09-12,1,,,,,アロカヴァキカク,0
120,1040003023299,新規,0,2023-09-12,2023-09-12,合同会社ジャックグループ関東,,合同会社,千葉県,佐倉市,王子台６丁目９番地５４,,12,212,2850837,,,,,,,2023-09-12,1,,,,,ジャックグループカントウ,0
121,1040003023308,新規,0,2023-09-12,2023-09-12,ＮＩＰＰＯＮ　ＩＴ　ＨＵＢ合同会社,,合同会社,千葉県,鎌ケ谷市,東中沢３丁目１９－１６,,12,224,2730112,,,,,,,2023-09-12,1,,,,,ニッポンアイティハブ,0
122,1040003023316,新規,0,2023-09-12,2023-09-12,合同会社ＰＵＲＲＰＬＥ,,合同会社,千葉県,市川市,大和田４丁目４番２２号,,12,203,2720025,,,,,,,2023-09-12,1,,,,,パープル,0
124,1050001053405,新規,0,2023-09-12,2023-09-12,株式会社ＹＭＴライン,,株式会社,茨城県,猿島郡境町,大字長井戸１７５番地６,,08,546,3060404,,,,,,,2023-09-12,1,,,,,ワイエムティーライン,0
125,1050001053421,新規,0,2023-09-12,2023-09-12,株式会社ＧＬＰ,,株式会社,茨城県,つくば市,下河原崎６０９番地（高山Ｃ１３街区７）,,08,220,3002662,,,,,,,2023-09-12,1,,,,,ジーエルピー,0
126,1050001053454,新規,0,2023-09-12,2023-09-12,株式会社ＳＫＹレゼル,,株式会社,茨城県,常陸太田市,天神林町１２２５番地の１４１,,08,212,3130049,,,,,,,2023-09-12,1,,,,,スカイレゼル,0
130,1070001040855,新規,0,2023-09-12,2023-09-12,日新工事株式会社,,株式会社,群馬県,高崎市,金古町８８６番地３,,10,202,3703511,,,,,,,2023-09-12,1,,,,,ニッシンコウジ,0
131,1070001040863,新規,0,2023-09-12,2023-09-12,株式会社ＴＥＡＭ．Ｋ十八番,,株式会社,群馬県,吾妻郡中之条町,大字西中之条１６６７番地８,,10,421,3770425,,,,,,,2023-09-12,1,,,,,チームケーオハコ,0
133,1070003005088,新規,0,2023-09-12,2023-09-12,合同会社向日葵,,合同会社,群馬県,渋川市,金井１１３９番地１３,,10,208,3770027,,,,,,,2023-09-12,1,,,,,ヒマワリ,0
134,1070003005096,新規,0,2023-09-12,2023-09-12,合同会社ＡＢ‐ｃｈｉｒｉ,,合同会社,群馬県,高崎市,和田町１０－２,,10,202,3700847,,,,,,,2023-09-12,1,,,,,,0
146,1110001037830,新規,0,2023-09-12,2023-09-12,株式会社ＫＲＡＦＴＭＡＮ,,株式会社,新潟県,新潟市南区,次郎右エ門興野２０６番地,,15,106,9501433,,,,,,,2023-09-12,1,,,,,クラフトマン,0
152,1120001257733,新規,0,2023-09-12,2023-09-12,株式会社Ｓ．Ｋコーポレーション,,株式会社,大阪府,大阪市淀川区,十三東３丁目２７番２１号,,27,123,5320023,,,,,,,2023-09-12,1,,,,,エスケーコーポレーション,0
153,1120001257808,新規,0,2023-09-12,2023-09-12,株式会社ヤマト,,株式会社,大阪府,大阪市中央区,南船場１丁目３番１４号ストークビル南船場８Ｆ,,27,128,5420081,,,,,,,2023-09-12,1,,,,,ヤマト,0
154,1120001257824,新規,0,2023-09-12,2023-09-12,株式会社マルハ,,株式会社,大阪府,大阪市城東区,関目５丁目１５番２５号グランデ・ユウ２０１号室,,27,118,5360008,,,,,,,2023-09-12,1,,,,,マルハ,0
155,1120001257832,新規,0,2023-09-12,2023-09-12,松本株式会社,,株式会社,大阪府,大阪市平野区,平野上町１丁目６番５号－１０３号,,27,126,5470045,,,,,,,2023-09-12,1,,,,,マツモト,0
156,1120001257840,新規,0,2023-09-12,2023-09-12,株式会社カンパニープラス,,株式会社,大阪府,大阪市此花区,朝日２丁目１８番８号３Ｆ－４９５号,,27,104,5540011,,,,,,,2023-09-12,1,,,,,カンパニープラス,0
157,1120001257915,新規,0,2023-09-12,2023-09-12,ＵＤトラックス近畿株式会社,,株式会社,大阪府,大阪市大正区,北恩加島１丁目１４番１９号,,27,108,5510033,,,,,,,2023-09-12,1,,,,,ユーディートラックスキンキ,0
158,1120001258013,新規,0,2023-09-12,2023-09-12,株式会社おおぎ屋,,株式会社,大阪府,大阪市東淀川区,豊新５丁目９番９号マンションサンライズ１階,,27,114,5330014,,,,,,,2023-09-12,1,,,,,オオギヤ,0
160,1120003024834,新規,0,2023-09-12,2023-09-12,合同会社ノースアンビレッジ,,合同会社,大阪府,大阪市北区,中之島３丁目１番８号,,27,127,5300005,,,,,,,2023-09-12,1,,,,,ノースアンビレッジ,0
161,1120003024859,新規,0,2023-09-12,2023-09-12,合同会社ＡＧＧＲＥ,,合同会社,大阪府,大阪市城東区,中央２丁目１４番Ｄ－２５０１号,,27,118,5360005,,,,,,,2023-09-12,1,,,,,アグレ,0
162,1120003024867,新規,0,2023-09-12,2023-09-12,合同会社Ｗｅ　ｍａｋｅ,,合同会社,大阪府,大阪市都島区,片町２丁目６番９号京橋シティハイツ２階,,27,102,5340025,,,,,,,2023-09-12,1,,,,,ウィーメイク,0
173,1120903004828,新規,0,2023-09-12,2023-09-12,クリーンエナジー発電合同会社,,合同会社,大阪府,豊中市,新千里南町２丁目１４番１号,,27,203,5600084,,,,,,,2023-09-12,1,,,,,クリーンエナジーハツデン,0
179,1130001075093,新規,0,2023-09-12,2023-09-12,株式会社琲琲,,株式会社,京都府,京都市上京区,宮垣町９１－１０２,,26,102,6020853,,,,,,,2023-09-12,1,,,,,ヒーヒー,0
180,1130001075184,新規,0,2023-09-12,2023-09-12,Ｓｉｍｐｌｙ　Ｌｉｆｅ株式会社,,株式会社,京都府,京都市下京区,志水町１３８－２－３Ｆ,,26,106,6008241,,,,,,,2023-09-12,1,,,,,シンプリーライフ,0
183,1140001131572,新規,0,2023-09-12,2023-09-12,株式会社丸誠,,株式会社,兵庫県,神戸市西区,竹の台６丁目５番地１－１１０３号,,28,111,6512274,,,,,,,2023-09-12,1,,,,,マルセイ,0
190,1160001025335,新規,0,2023-09-12,2023-09-12,株式会社ＣＳＹフーズ,,株式会社,滋賀県,高島市,安曇川町西万木６４３番地５,,25,212,5201212,,,,,,,2023-09-12,1,,,,,シーエスワイフーズ,0
192,1160005011224,新規,0,2023-09-12,2023-09-12,医療法人堀歯科医院,,その他の設立登記法人,滋賀県,蒲生郡日野町,松尾２丁目２５番地,,25,383,5291601,,,,,,,2023-09-12,1,,,,,ホリシカイイン,0
203,1180001158018,新規,0,2023-09-12,2023-09-12,株式会社青松塗工,,株式会社,愛知県,名古屋市中区,新栄３丁目２２番２１号,,23,106,4600007,,,,,,,2023-09-12,1,,,,,アオマツトコウ,0
214,1200005013521,新規,0,2023-09-12,2023-09-12,医療法人ＡＴＧ,,その他の設立登記法人,岐阜県,土岐市,泉町久尻５１６番地１７,,21,212,5095142,,,,,,,2023-09-12,1,,,,,エーティージー,0
217,1220005008783,新規,0,2023-09-12,2023-09-12,社会福祉法人一歩の会,,その他の設立登記法人,石川県,能美市,宮竹町イ１８０番地３０,,17,211,9231205,,,,,,,2023-09-12,1,,,,,イッポノカイ,0
218,1230001020007,新規,0,2023-09-12,2023-09-12,株式会社富山橋梁工事,,株式会社,富山県,高岡市,出来田７５番地８,,16,202,9330803,,,,,,,2023-09-12,1,,,,,トヤマキョウリョウコウジ,0
220,1240001062114,新規,0,2023-09-12,2023-09-12,株式会社７ＣＯＬＯＲＳ,,株式会社,広島県,広島市安佐北区,落合南４丁目１番９－４０８号,,34,106,7391732,,,,,,,2023-09-12,1,,,,,セブンカラーズ,0
221,1240003006275,新規,0,2023-09-12,2023-09-12,合同会社アローカナ,,合同会社,広島県,福山市,坪生町６丁目１９－１２,,34,207,7210903,,,,,,,2023-09-12,1,,,,,アローカナ,0
223,1250003003346,新規,0,2023-09-12,2023-09-12,ニワシドリ合同会社,,合同会社,山口県,下松市,大字大藤谷４５１番地,,35,207,7440272,,,,,,,2023-09-12,1,,,,,,0
232,1290803004498,新規,0,2023-09-12,2023-09-12,ＡＲＣＡＣＩＮＡ合同会社,,合同会社,福岡県,北九州市若松区,高須東４丁目２番３号,,40,103,8080144,,,,,,,2023-09-12,1,,,,,アルカシナ,0
237,1310001018604,新規,0,2023-09-12,2023-09-12,株式会社ＩＮＤＥＸ　Ｃｏｎｓｔｒｕｃｔｉｏｎ．Ｓｅｒｖｉｃｅｓ,,株式会社,長崎県,佐世保市,山祇町２２－２１,,42,202,8570822,,,,,,,2023-09-12,1,,,,,インデックスコンストラクションサービス,0
240,1320001019997,新規,0,2023-09-12,2023-09-12,Ｇｏ‐Ｏｎ　Ｃｏｍｐａｎｙ株式会社,,株式会社,大分県,大分市,碩田町２丁目２番３０号,,44,201,8700048,,,,,,,2023-09-12,1,,,,,ゴーオンカンパニー,0
249,1360001032542,新規,0,2023-09-12,2023-09-12,株式会社シーパワー,,株式会社,沖縄県,那覇市,松山２丁目９番７号クリスタルビル４Ｂ,,47,201,9000032,,,,,,,2023-09-12,1,,,,,シーパワー,0
258,1430001089930,新規,0,2023-09-12,2023-09-12,Ｒｅｓｏｒｔ　Ｊａｐａｎ株式会社,,株式会社,北海道,虻田郡倶知安町,北三条西２丁目９番地５,,01,400,0440053,,,,,,,2023-09-12,1,,,,,リゾートジャパン,0
259,1440003001545,新規,0,2023-09-12,2023-09-12,合同会社伊藤メディカルグループ,,合同会社,北海道,函館市,柏木町２９－１０,,01,202,0420942,,,,,,,2023-09-12,1,,,,,イトウメディカルグループ,0
260,1460101007434,新規,0,2023-09-12,2023-09-12,株式会社７０８,,株式会社,北海道,帯広市,西二十一条南５丁目２９番地６,,01,207,0802471,,,,,,,2023-09-12,1,,,,,ナナマルハチ,0
261,1460301005171,新規,0,2023-09-12,2023-09-12,株式会社みま農園,,株式会社,北海道,斜里郡斜里町,字川上１８２番地,,01,545,0994143,,,,,,,2023-09-12,1,,,,,ミマノウエン,0
268,1700150120121,新規,0,2023-09-12,2023-09-12,ＳＨＥＮＺＨＥＮＳＨＩＺＨＡＮＹＩＮＫＥＪＩＹＯＵＸＩＡＮＧＯＮＧＳＩ,,外国会社等,,,,,,,,Ｆｉｒｓｔ　Ｆｌｏｏｒ，５ｔｈ　Ｂｕｉｌｄｉｎｇ，Ｘｉｎ　Ｌｉａｎｈｅ　Ｉｎｄｕｓｔｒｉａｌ　Ｚｏｎｅ，Ｈｅｙｉ　Ｗｅｓｔ，Ｓｈａ　Ｊｉｎｇ　Ｓｔｒｅｅｔ，Ｂａｏ　Ａｎ　Ｄｉｓｔｒｉｃｔ，Ｓｈｅｎｚｈｅｎ，Ｃｈｉｎａ,,,,,,2023-09-12,1,,,,,シンセンシザンインカギユウゲンコウシ,0
279,2010001238330,新規,0,2023-09-12,2023-09-12,文飛商事株式会社,,株式会社,東京都,文京区,大塚５丁目８番１２－３０３号,,13,105,1120012,,,,,,,2023-09-12,1,,,,,ブンヒショウジ,0
280,2010001238405,新規,0,2023-09-12,2023-09-12,株式会社シップスノー,,株式会社,東京都,中央区,銀座１丁目２２番１１号銀座大竹ビジデンス２Ｆ,,13,102,1040061,,,,,,,2023-09-12,1,,,,,シップスノー,0
283,2010003041567,新規,0,2023-09-12,2023-09-12,合同会社ＡｖｅｎＣｒｅｗ,,合同会社,東京都,中央区,日本橋室町１丁目１１番１２号日本橋水野ビル７階,,13,102,1030022,,,,,,,2023-09-12,1,,,,,アバンクルー,0
284,2010003041641,新規,0,2023-09-12,2023-09-12,Ｍａｓｕｏｋａ　Ｇｕｍｉ　Ｉｎｄｉａ合同会社,,合同会社,東京都,千代田区,丸の内１丁目８番２号,,13,101,1000005,,,,,,,2023-09-12,1,,,,,マスオカグミインディア,0
285,2010003041666,新規,0,2023-09-12,2023-09-12,合同会社ＦＩＶＥ,,合同会社,東京都,中央区,築地２丁目７－１２・１５山京ビル９０５,,13,102,1040045,,,,,,,2023-09-12,1,,,,,ファイブ,0
290,2010005037258,新規,0,2023-09-12,2023-09-12,一般社団法人那覇旭橋城,,その他の設立登記法人,東京都,千代田区,九段南３丁目７番７号成和綜合会計事務所内,,13,101,1020074,,,,,,,2023-09-12,1,,,,,ナハアサヒバシジョウ,0
296,2010401177062,新規,0,2023-09-12,2023-09-12,なにねの株式会社,,株式会社,東京都,港区,北青山１丁目３－１アールキューブ青山３階,,13,103,1070061,,,,,,,2023-09-12,1,,,,,ナニネノ,0
300,2010403030896,新規,0,2023-09-12,2023-09-12,Ｇｏｚｏ　Ｈｏｌｄｉｎｇｓ合同会社,,合同会社,東京都,港区,西新橋１丁目１番１号ＥＰコンサルティングサービス内,,13,103,1050003,,,,,,,2023-09-12,1,,,,,ゴゾホールディングス,0
305,2010501051027,新規,0,2023-09-12,2023-09-12,株式会社ＭＹＩＮＴ　ＭＹＡＴ　ＴＨＩＲＩ．ＣＯ．ＬＴＤ,,株式会社,東京都,台東区,根岸１丁目３－２１リフレビル３Ｆ,,13,106,1100003,,,,,,,2023-09-12,1,,,,,ミインミャテリ,0
317,2010901053820,新規,0,2023-09-12,2023-09-12,株式会社アクアミナ,,株式会社,東京都,世田谷区,玉川台２丁目２２番５号,,13,112,1580096,,,,,,,2023-09-12,1,,,,,アクアミナ,0
323,2011001156919,新規,0,2023-09-12,2023-09-12,株式会社Ｎａｔｉｏｎａｌ　Ｐａｒｋ　Ｓｅｒｖｉｃｅ,,株式会社,東京都,渋谷区,神宮前１丁目１４番１４号,,13,113,1500001,,,,,,,2023-09-12,1,,,,,ナショナルパークサービス,0
324,2011003017490,新規,0,2023-09-12,2023-09-12,合同会社ＴＲＡＮＤ,,合同会社,東京都,渋谷区,神宮前６丁目２３－４桑野ビル２階,,13,113,1500001,,,,,,,2023-09-12,1,,,,,トランド,0
325,2011003017532,新規,0,2023-09-12,2023-09-12,オペラントデザイン合同会社,,合同会社,東京都,渋谷区,渋谷２丁目１９－１５宮益坂ビルディング６０９,,13,113,1500002,,,,,,,2023-09-12,1,,,,,オペラントデザイン,0
328,2011101104323,新規,0,2023-09-12,2023-09-12,株式会社４０４Ｋ,,株式会社,東京都,新宿区,大久保２丁目３２番１９－２１４号,,13,104,1690072,,,,,,,2023-09-12,1,,,,,ヨンマルヨンケイ,0
329,2011101104331,新規,0,2023-09-12,2023-09-12,株式会社ＹＫＴ,,株式会社,東京都,新宿区,神楽坂６丁目３８中島ビル３０５,,13,104,1620825,,,,,,,2023-09-12,1,,,,,ワイケイティ,0
330,2011103013472,新規,0,2023-09-12,2023-09-12,合同会社ＵＰｇｒａｄｅ,,合同会社,東京都,新宿区,新宿６丁目２７番１号ライオンズガーデン６０４,,13,104,1600022,,,,,,,2023-09-12,1,,,,,アップグレード,0
334,2011201024900,新規,0,2023-09-12,2023-09-12,株式会社ｄｅｅｐｍｅｄｉ　Ｊａｐａｎ,,株式会社,東京都,中野区,野方３丁目１番１４号,,13,114,1650027,,,,,,,2023-09-12,1,,,,,ディープメディジャパン,0
337,2011203004149,新規,0,2023-09-12,2023-09-12,合同会社ＴＨＥ　ＦＩＲＳＴ　ＳＴＥＰ　ＴＯＫＹＯ,,合同会社,東京都,中野区,南台３丁目２－２ｒｅｓｔｕｄｉｏａｐｔ．０３,,13,114,1640014,,,,,,,2023-09-12,1,,,,,ザファーストステップトーキョー,0
353,2011801043028,新規,0,2023-09-12,2023-09-12,株式会社ＳｗｉｍＰｕｒｅ,,株式会社,東京都,葛飾区,東水元２丁目３５番１８号サニーウェル３０１,,13,122,1250033,,,,,,,2023-09-12,1,,,,,スイムピュア,0
355,2012401040984,新規,0,2023-09-12,2023-09-12,株式会社Ｓ・Ｈ・Ａ,,株式会社,東京都,武蔵野市,吉祥寺南町１丁目８番１０号,,13,203,1800003,,,,,,,2023-09-12,1,,,,,エスエイチエー,0
356,2012401040992,新規,0,2023-09-12,2023-09-12,株式会社ＭＥ,,株式会社,東京都,多摩市,一ノ宮２丁目２５番地の１６,,13,224,2060002,,,,,,,2023-09-12,1,,,,,エムイー,0
371,2020001153479,新規,0,2023-09-12,2023-09-12,株式会社インテリアＨ２,,株式会社,神奈川県,横浜市南区,六ツ川１丁目２８３番地,,14,105,2320066,,,,,,,2023-09-12,1,,,,,インテリアエイチツー,0
387,2030003022573,新規,0,2023-09-12,2023-09-12,合同会社オールウインズアドバイザリーサポート,,合同会社,埼玉県,上尾市,大字上尾下９１６番地２４,,11,219,3620025,,,,,,,2023-09-12,1,,,,,オールウインズアドバイザリーサポート,0
390,2040001130030,新規,0,2023-09-12,2023-09-12,Ｃｈａｒｍ　Ｌｉｇｈｔ株式会社,,株式会社,千葉県,船橋市,東船橋１丁目３３番１８号,,12,204,2730002,,,,,,,2023-09-12,1,,,,,チャームライト,0
391,2040001130039,新規,0,2023-09-12,2023-09-12,株式会社みつばち農園,,株式会社,千葉県,佐倉市,西志津８丁目１７番１号,,12,212,2850845,,,,,,,2023-09-12,1,,,,,ミツバチノウエン,0
392,2040001130071,新規,0,2023-09-12,2023-09-12,株式会社Ｎａｎｏ,,株式会社,千葉県,木更津市,八幡台４丁目６番２２号,,12,206,2920814,,,,,,,2023-09-12,1,,,,,ナノ,0
394,2040003023216,新規,0,2023-09-12,2023-09-12,ＪＨ合同会社,,合同会社,千葉県,白井市,根６７－２６フラワーマンション１階１０４号室,,12,232,2701431,,,,,,,2023-09-12,1,,,,,ジェイエイチ,0
395,2040003023257,新規,0,2023-09-12,2023-09-12,合同会社先華,,合同会社,千葉県,市川市,北方町４丁目１７２４番地９,,12,203,2720811,,,,,,,2023-09-12,1,,,,,センカ,0
396,2040003023307,新規,0,2023-09-12,2023-09-12,合同会社ＵＲａＫａｉ．,,合同会社,千葉県,浦安市,堀江４丁目１９番２９号,,12,227,2790041,,,,,,,2023-09-12,1,,,,,ウラカイ,0
397,2040003023315,新規,0,2023-09-12,2023-09-12,Ｎ．Ｅ．Ｃｏｍｐａｎｙ合同会社,,合同会社,千葉県,市川市,市川南４丁目３番１７－４０３号,,12,203,2720033,,,,,,,2023-09-12,1,,,,,エヌイーカンパニー,0
411,2070001040862,新規,0,2023-09-12,2023-09-12,株式会社ネギシ,,株式会社,群馬県,高崎市,高関町３３番地７,,10,202,3700043,,,,,,,2023-09-12,1,,,,,ネギシ,0
412,2070001040870,新規,0,2023-09-12,2023-09-12,株式会社ＦＨＬ．,,株式会社,群馬県,前橋市,朝日町３丁目３１番５号,,10,201,3710014,,,,,,,2023-09-12,1,,,,,エフエイチエル,0
418,2100001036758,新規,0,2023-09-12,2023-09-12,株式会社ＫＧＹ,,株式会社,長野県,北佐久郡御代田町,大字塩野５００番地５５,,20,323,3890201,,,,,,,2023-09-12,1,,,,,ケージーワイ,0
419,2100001036766,新規,0,2023-09-12,2023-09-12,株式会社ＳＯＬＦＥＥＶＡ,,株式会社,長野県,上田市,小泉１１８２番地２,,20,203,3861106,,,,,,,2023-09-12,1,,,,,ソルフィーヴァ,0
431,2120001257864,新規,0,2023-09-12,2023-09-12,株式会社ユニバックシール,,株式会社,大阪府,大阪市生野区,田島６丁目９番１０号,,27,116,5440011,,,,,,,2023-09-12,1,,,,,ユニバックシール,0
432,2120001258004,新規,0,2023-09-12,2023-09-12,ユニソフト株式会社,,株式会社,大阪府,大阪市住吉区,長居２丁目１０番３－２０５号,,27,120,5580003,,,,,,,2023-09-12,1,,,,,ユニソフト,0
434,2120003024841,新規,0,2023-09-12,2023-09-12,合同会社柴藤Ｔ,,合同会社,大阪府,大阪市中央区,高麗橋２丁目５番２号,,27,128,5410043,,,,,,,2023-09-12,1,,,,,シバトウ,0
437,2120101068179,新規,0,2023-09-12,2023-09-12,株式会社Ｒｏａｄ　Ｓｐｉｒｉｔ,,株式会社,大阪府,大阪狭山市,今熊４丁目６６５番地の１０５,,27,231,5890021,,,,,,,2023-09-12,1,,,,,ロードスピリット,0
438,2120101068195,新規,0,2023-09-12,2023-09-12,株式会社クリーン三協,,株式会社,大阪府,阪南市,箱作１３９３,,27,232,5990232,,,,,,,2023-09-12,1,,,,,クリーンサンキョウ,0
442,2120901048033,新規,0,2023-09-12,2023-09-12,株式会社Ｋ’Ｓ　ＦＥＥＬＩＮＧ,,株式会社,大阪府,高槻市,月見町３４番１２号,,27,207,5691122,,,,,,,2023-09-12,1,,,,,ケーズフィーリング,0
443,2120901048058,新規,0,2023-09-12,2023-09-12,株式会社２ｎｄ,,株式会社,大阪府,豊中市,利倉東１丁目１７番７号,,27,203,5610846,,,,,,,2023-09-12,1,,,,,セカンド,0
445,2122001037362,新規,0,2023-09-12,2023-09-12,株式会社ｆｉｎｏ,,株式会社,大阪府,東大阪市,足代１丁目１１番６号ラフィーネクローバーＩＩ３０１号,00131884,27,227,5770841,,,,,,,2023-09-12,1,,,,,フィーノ,0
447,2130001075126,新規,0,2023-09-12,2023-09-12,株式会社ＨＡＱＡ,,株式会社,京都府,京都市左京区,静市市原町７２３番地１－３Ｆ,,26,103,6011123,,,,,,,2023-09-12,1,,,,,ハクア,0
448,2130001075159,新規,0,2023-09-12,2023-09-12,株式会社トミオ,,株式会社,京都府,京都市下京区,富小路通四条下る立売東町１９番地,,26,106,6008005,,,,,,,2023-09-12,1,,,,,トミオ,0
449,2130001075191,新規,0,2023-09-12,2023-09-12,株式会社ベル・プラスチックス京都,,株式会社,京都府,京都市西京区,大枝北沓掛町１丁目５番地３－２１２,,26,111,6101101,,,,,,,2023-09-12,1,,,,,ベルプラスチックスキョウト,0
455,2140001131563,新規,0,2023-09-12,2023-09-12,株式会社Ｃｏｃｏ　Ｌｅ　ｃｉｅｌ＆サバンナメイツ,,株式会社,兵庫県,加古川市,別府町本町１丁目６０番地,,28,210,6750126,,,,,,,2023-09-12,1,,,,,ココルシエルアンドサバンナメイツ,0
456,2140001131571,新規,0,2023-09-12,2023-09-12,Ｅｐｉｃ　Ｌｉｆｅ　Ｄｅｓｉｇｎｓ株式会社,,株式会社,兵庫県,姫路市,西延末２１９番地１,,28,201,6700971,,,,,,,2023-09-12,1,,,,,エピックライフデザイン,0
459,2140003019534,新規,0,2023-09-12,2023-09-12,合同会社中江技研,,合同会社,兵庫県,川西市,東多田２丁目８番１６号２０２,,28,217,6660122,,,,,,,2023-09-12,1,,,,,ナカエギケン,0
460,2150001026705,新規,0,2023-09-12,2023-09-12,株式会社あらんクリエイト,,株式会社,奈良県,奈良市,法華寺町１２６４－６,,29,201,6308001,,,,,,,2023-09-12,1,,,,,,0
461,2150003003041,新規,0,2023-09-12,2023-09-12,合同会社ＬＩＢ‐ＡＭ,,合同会社,奈良県,橿原市,光陽町７９番地の１３,,29,205,6340827,,,,,,,2023-09-12,1,,,,,リブエーエム,0
462,2160001025334,新規,0,2023-09-12,2023-09-12,Ｗｏｒｌｄ　Ｓｕｐｐｏｒｔ株式会社,,株式会社,滋賀県,大津市,平津１丁目２４番３６号,,25,201,5200862,,,,,,,2023-09-12,1,,,,,ワールドサポート,0
473,2180301037804,新規,0,2023-09-12,2023-09-12,株式会社陽翔,,株式会社,愛知県,豊田市,柿本町６丁目１番地８,,23,211,4710855,,,,,,,2023-09-12,1,,,,,ハルト,0
477,2210001019454,新規,0,2023-09-12,2023-09-12,駿泰国際株式会社,,株式会社,福井県,敦賀市,本町１丁目１－１１益田ビル,,18,202,9140051,,,,,,,2023-09-12,1,,,,,シュンタイコクサイ,0
479,2220001025600,新規,0,2023-09-12,2023-09-12,株式会社水乃石,,株式会社,石川県,羽咋郡宝達志水町,敷浪ト６４番２地,,17,386,9291415,,,,,,,2023-09-12,1,,,,,ミズノセキ,0
482,2230001020014,新規,0,2023-09-12,2023-09-12,創瀛産業株式会社,,株式会社,富山県,富山市,上冨居新町２番２４号,,16,201,9300836,,,,,,,2023-09-12,1,,,,,ソウエイサンギョウ,0
483,2240001062121,新規,0,2023-09-12,2023-09-12,株式会社Ｓａｉｌｉｎｇ,,株式会社,広島県,広島市西区,小河内町２丁目１番３０－４－１０２号,,34,104,7330025,,,,,,,2023-09-12,1,,,,,セイリング,0
496,2310001018603,新規,0,2023-09-12,2023-09-12,レンタライズ株式会社,,株式会社,長崎県,西彼杵郡時津町,西時津郷１０００番地２１０,,42,308,8512101,,,,,,,2023-09-12,1,,,,,レンタライズ,0
507,2400001016374,新規,0,2023-09-12,2023-09-12,株式会社アスク興産,,株式会社,岩手県,北上市,九年橋３丁目１９番１８号,,03,206,0240063,,,,,,,2023-09-12,1,,,,,アスクコウサン,0
516,2430001089896,新規,0,2023-09-12,2023-09-12,株式会社ＭＫ　Ｕｎｉｔｅ,,株式会社,北海道,苫小牧市,啓北町１丁目１２番８号,,01,213,0530854,,,,,,,2023-09-12,1,,,,,エムケーユナイト,0
517,2430001089913,新規,0,2023-09-12,2023-09-12,石栗造船所株式会社,,株式会社,北海道,余市郡余市町,港町２０３番地,,01,408,0460024,,,,,,,2023-09-12,1,,,,,イシクリゾウセンジョ,0
522,2470001019791,新規,0,2023-09-12,2023-09-12,株式会社Ｔ＆Ｋ,,株式会社,香川県,高松市,桜町１丁目１６番８－１９０３号アルファタワー桜町,,37,201,7600074,,,,,,,2023-09-12,1,,,,,ティーアンドケイ,0
523,2470001019800,新規,0,2023-09-12,2023-09-12,株式会社ＫＫ　Ｊａｐａｎ,,株式会社,香川県,観音寺市,大野原町丸井５３３番地１,,37,205,7691615,,,,,,,2023-09-12,1,,,,,ケーケージャパン,0
533,2700150120120,新規,0,2023-09-12,2023-09-12,ＣＮＤｓｅｍｉ　Ｃｏ．，Ｌｔｄ,,外国会社等,,,,,,,,５３－５２，Ｊｉｎｗｉｓａｎｄａｎ－ｒｏ，Ｊｉｎｗｉ－ｍｙｅｏｎ，Ｐｙｅｏｎｇｔａｅｋ－ｓｉ，Ｇｙｅｏｎｇｇｉ－ｄｏ，Ｒｅｐｕｂｌｉｃ　ｏｆ　Ｋｏｒｅａ,,,,,,2023-09-12,1,,,,,シーエンディーセミーカンプリリミテッド,0
537,3010001238395,新規,0,2023-09-12,2023-09-12,株式会社ＲＡＺＩＣＡＬ,,株式会社,東京都,千代田区,永田町２丁目４番１１号フレンドビル３Ｆ,,13,101,1000014,,,,,,,2023-09-12,1,,,,,ラジカル,0
538,3010001238437,新規,0,2023-09-12,2023-09-12,株式会社ＺＥＵＳ,,株式会社,東京都,千代田区,外神田２丁目５番１０号神田ＮＳＯビル２階,,13,101,1010021,,,,,,,2023-09-12,1,,,,,ゼウス,0
539,3010001238445,新規,0,2023-09-12,2023-09-12,星球株式会社,,株式会社,東京都,千代田区,神田三崎町２丁目１０番１１号５Ａ－４,,13,101,1010061,,,,,,,2023-09-12,1,,,,,セイキュウ,0
543,3010003041640,新規,0,2023-09-12,2023-09-12,ＨＫ合同会社,,合同会社,東京都,千代田区,有楽町２丁目１０番１号東京交通会館６階,,13,101,1000006,,,,,,,2023-09-12,1,,,,,エイチケイ,0
553,3010401177045,新規,0,2023-09-12,2023-09-12,ザ・プラントホールディングス株式会社,,株式会社,東京都,港区,虎ノ門１丁目１０番５号ＫＤＸ虎ノ門一丁目ビル１１階,,13,103,1050001,,,,,,,2023-09-12,1,,,,,ザプラントホールディングス,0
558,3010501051018,新規,0,2023-09-12,2023-09-12,Ｚｅｐｈｉｒｏ株式会社,,株式会社,東京都,台東区,竜泉３丁目１２番７－１４０３号,,13,106,1100012,,,,,,,2023-09-12,1,,,,,ゼフィーロ,0
559,3010503007158,新規,0,2023-09-12,2023-09-12,合同会社ＳＲＣ,,合同会社,東京都,台東区,上野５丁目１３番１号,,13,106,1100005,,,,,,,2023-09-12,1,,,,,エスアールシ,0
563,3010701044845,新規,0,2023-09-12,2023-09-12,株式会社ＭＳＣ,,株式会社,東京都,品川区,南品川４丁目１５番３号フォーチュン品川１０３,,13,109,1400004,,,,,,,2023-09-12,1,,,,,エムエスシー,0
565,3010801034317,新規,0,2023-09-12,2023-09-12,株式会社ＪＣＳ,,株式会社,東京都,大田区,北千束２丁目４５番６号,,13,111,1450062,,,,,,,2023-09-12,1,,,,,ジェーシーエス,0
566,3010801034325,新規,0,2023-09-12,2023-09-12,株式会社Ｎｕｄｅｓｉｇｎ,,株式会社,東京都,大田区,新蒲田３丁目１０番１０－７号,,13,111,1440054,,,,,,,2023-09-12,1,,,,,ヌデザイン,0
568,3010901053811,新規,0,2023-09-12,2023-09-12,東昌株式会社,,株式会社,東京都,世田谷区,桜上水１丁目１０番２８号－１０,,13,112,1560045,,,,,,,2023-09-12,1,,,,,トウショウ,0
575,3011001156802,新規,0,2023-09-12,2023-09-12,Ｂｅｓｔ　ｖｉｓｉｏｎ株式会社,,株式会社,東京都,渋谷区,千駄ヶ谷４丁目２番８号第二宮庭マンション５０１,,13,113,1510051,,,,,,,2023-09-12,1,,,,,ベストヴィジョン,0
576,3011001156810,新規,0,2023-09-12,2023-09-12,株式会社バッケン,,株式会社,東京都,渋谷区,道玄坂１丁目１０番８号渋谷道玄坂東急ビル２Ｆ－Ｃ,,13,113,1500043,,,,,,,2023-09-12,1,,,,,バッケン,0
577,3011001156819,新規,0,2023-09-12,2023-09-12,株式会社Ｃｌａｆｉｔ　Ｃｏｎｓｕｌｔｉｎｇ,,株式会社,東京都,渋谷区,代々木２丁目２１－３－２Ｆ,,13,113,1510053,,,,,,,2023-09-12,1,,,,,クラフィットコンサルティング,0
578,3011001156835,新規,0,2023-09-12,2023-09-12,株式会社ＲＫソリューション,,株式会社,東京都,渋谷区,幡ヶ谷２丁目７番２号幡ヶ谷ニューセンタービル９階,,13,113,1510072,,,,,,,2023-09-12,1,,,,,アールケーソリューション,0
580,3011003017390,新規,0,2023-09-12,2023-09-12,合同会社Ｍｉｒａｉ　Ｖｉｓｔａ,,合同会社,東京都,渋谷区,円山町５番５号Ｎａｖｉ渋谷Ｖ３階,00131875,13,113,1500044,,,,,,,2023-09-12,1,,,,,ミライビスタ,0
583,3011101104314,新規,0,2023-09-12,2023-09-12,株式会社ｆｏｌｌｏｗ,,株式会社,東京都,新宿区,市谷船河原町１１番地,,13,104,1620826,,,,,,,2023-09-12,1,,,,,フォロー,0
584,3011101104322,新規,0,2023-09-12,2023-09-12,株式会社Ｒｉｎｇｏ,,株式会社,東京都,新宿区,西新宿３丁目３番１３号西新宿水間ビル２Ｆ,,13,104,1600023,,,,,,,2023-09-12,1,,,,,リンゴ,0
591,3011501029755,新規,0,2023-09-12,2023-09-12,牧心株式会社,,株式会社,東京都,北区,東田端２丁目９番１７号２１８号室,,13,117,1140013,,,,,,,2023-09-12,1,,,,,ボクシン,0
593,3011605002542,新規,0,2023-09-12,2023-09-12,医療法人社団順睦会,,その他の設立登記法人,東京都,練馬区,中村北２丁目１８番８号新潟管財４号館１階,,13,120,1760023,,,,,,,2023-09-12,1,,,,,ジュンボクカイ,0
603,3012401040983,新規,0,2023-09-12,2023-09-12,株式会社サーブトラスト,,株式会社,東京都,小金井市,貫井北町３丁目８番１１号（１４）,,13,210,1840015,,,,,,,2023-09-12,1,,,,,サーブトラスト,0
608,3013101009245,新規,0,2023-09-12,2023-09-12,株式会社ＡＩＮＺサービス,,株式会社,東京都,青梅市,今井３丁目２０番地の６,,13,205,1980023,,,,,,,2023-09-12,1,,,,,,0
609,3013305003515,新規,0,2023-09-12,2023-09-12,一般社団法人セールス＆マーケティング研究所,,その他の設立登記法人,東京都,豊島区,南大塚１丁目６０番２０号,,13,116,1700005,,,,,,,2023-09-12,1,,,,,セールスアンドマーケティングケンキュウショ,0
614,3020001153445,新規,0,2023-09-12,2023-09-12,株式会社Ｓｃｕｄｅｒｉａ　ｉｎｔｅｒｎａｔｉｏｎａｌ,,株式会社,神奈川県,横浜市緑区,北八朔町１４００番地３,,14,113,2260021,,,,,,,2023-09-12,1,,,,,スクーデリアインターナショナル,0
615,3020001153453,新規,0,2023-09-12,2023-09-12,株式会社ｏｏｐｓ,,株式会社,神奈川県,横浜市港南区,上大岡東１丁目４７－１６上大岡コーポラスＢ２５２,,14,111,2330001,,,,,,,2023-09-12,1,,,,,ウップス,0
616,3020001153486,新規,0,2023-09-12,2023-09-12,Ａｙｐｈｅｒ株式会社,,株式会社,神奈川県,横浜市中区,桜木町１丁目１０１番地１クロスゲート７階,,14,104,2310062,,,,,,,2023-09-12,1,,,,,アイファー,0
622,3020003024578,新規,0,2023-09-12,2023-09-12,合同会社クラフトウェイブ,,合同会社,神奈川県,横浜市西区,北幸２丁目１０番地４８むつみビル３階,,14,103,2200004,,,,,,,2023-09-12,1,,,,,クラフトウェイブ,0
637,3030001155886,新規,0,2023-09-12,2023-09-12,ピア二十一株式会社,,株式会社,埼玉県,さいたま市大宮区,高鼻町１丁目２０番地１,,11,103,3300803,,,,,,,2023-09-12,1,,,,,ピアニジュウイチ,0
646,3040001130038,新規,0,2023-09-12,2023-09-12,株式会社ワイシーエム,,株式会社,千葉県,千葉市稲毛区,稲毛東４丁目５番１号ウェリス稲毛８３８号,,12,103,2630031,,,,,,,2023-09-12,1,,,,,ワイシーエム,0
647,3040001130062,新規,0,2023-09-12,2023-09-12,株式会社大章,,株式会社,千葉県,千葉市緑区,鎌取町７９２番地,,12,105,2660011,,,,,,,2023-09-12,1,,,,,ダイショウ,0
650,3040003023306,新規,0,2023-09-12,2023-09-12,合同会社魁商,,合同会社,千葉県,千葉市中央区,新千葉１丁目７－２ペリエ＋ｐｌｕｓビル１Ｆ－３Ｆ,,12,101,2600031,,,,,,,2023-09-12,1,,,,,カイショウ,0
651,3040003023314,新規,0,2023-09-12,2023-09-12,合同会社七栄電工,,合同会社,千葉県,富里市,十倉５２６番地８４,,12,233,2860212,,,,,,,2023-09-12,1,,,,,ナナエデンコウ,0
652,3050001053444,新規,0,2023-09-12,2023-09-12,株式会社ＲＡＮＷＡＬＡ　ＭＯＴＯＲＳ,,株式会社,茨城県,猿島郡五霞町,大字元栗橋９１５番地１,,08,542,3060313,,,,,,,2023-09-12,1,,,,,ランワラモータース,0
653,3050001053452,新規,0,2023-09-12,2023-09-12,株式会社ＭＳＫ,,株式会社,茨城県,水戸市,酒門町字千束４３７７,,08,201,3100841,,,,,,,2023-09-12,1,,,,,エムエスケー,0
657,3060001036324,新規,0,2023-09-12,2023-09-12,株式会社明治の森市場,,株式会社,栃木県,那須塩原市,青木２７番地,,09,213,3250103,,,,,,,2023-09-12,1,,,,,メイジノモリイチバ,0
660,3070001040837,新規,0,2023-09-12,2023-09-12,株式会社須藤機械ホールディングス,,株式会社,群馬県,伊勢崎市,曲沢町６８５番地８,,10,204,3792203,,,,,,,2023-09-12,1,,,,,ストウキカイホールディングス,0
661,3070003005094,新規,0,2023-09-12,2023-09-12,ＮＡＴＵＲＡＬ８合同会社,,合同会社,群馬県,太田市,新島町６４５番地１アドホックビル５０１号,,10,205,3730819,,,,,,,2023-09-12,1,,,,,ナチュラルエイト,0
662,3080001025853,新規,0,2023-09-12,2023-09-12,株式会社共成,,株式会社,静岡県,牧之原市,細江１７３１番地,,22,226,4210421,,,,,,,2023-09-12,1,,,,,キョウセイ,0
665,3080105006361,新規,0,2023-09-12,2023-09-12,一般社団法人大成会,,その他の設立登記法人,静岡県,駿東郡清水町,卸団地３７番地,,22,341,4110912,,,,,,,2023-09-12,1,,,,,タイセイカイ,0
670,3080403004868,新規,0,2023-09-12,2023-09-12,ｉＣｒｅａｔｉｏｎｓ合同会社,,合同会社,静岡県,浜松市東区,大島町１５６６－１,,22,132,4313112,,,,,,,2023-09-12,1,,,,,インターナショナルクリエーションズ,0
674,3100001036765,新規,0,2023-09-12,2023-09-12,ＹＵＳＡＹ株式会社,,株式会社,長野県,北佐久郡軽井沢町,大字長倉５３１４－４,,20,321,3890111,,,,,,,2023-09-12,1,,,,,ユーセイ,0
682,3120001257806,新規,0,2023-09-12,2023-09-12,株式会社ディーエイチ,,株式会社,大阪府,大阪市中央区,道頓堀２丁目５番１７号,,27,128,5420071,,,,,,,2023-09-12,1,,,,,ディーエイチ,0
683,3120001257814,新規,0,2023-09-12,2023-09-12,株式会社ココロリッチ,,株式会社,大阪府,大阪市東淀川区,南江口１丁目１番４１号,,27,114,5330003,,,,,,,2023-09-12,1,,,,,ココロリッチ,0
684,3120001257830,新規,0,2023-09-12,2023-09-12,株式会社出屋敷不動産,,株式会社,大阪府,大阪市阿倍野区,松崎町４丁目２番４号,,27,119,5450053,,,,,,,2023-09-12,1,,,,,デヤシキフドウサン,0
685,3120001257871,新規,0,2023-09-12,2023-09-12,Ｓ＆Ｉ　ＪＡＰＡＮ株式会社,,株式会社,大阪府,大阪市西区,北堀江４丁目４番１－８０２号,,27,106,5500014,,,,,,,2023-09-12,1,,,,,エスアンドアイジャパン,0
686,3120001257896,新規,0,2023-09-12,2023-09-12,トラスト建設株式会社,,株式会社,大阪府,大阪市中央区,博労町１丁目２番１号,,27,128,5410059,,,,,,,2023-09-12,1,,,,,トラストケンセツ,0
687,3120001257987,新規,0,2023-09-12,2023-09-12,株式会社ＩＳシステム,,株式会社,大阪府,大阪市北区,曾根崎２丁目８番５号,,27,127,5300057,,,,,,,2023-09-12,1,,,,,アイエスシステム,0
689,3120003024849,新規,0,2023-09-12,2023-09-12,合同会社森管楽器工房,,合同会社,大阪府,大阪市住吉区,万代東１丁目１番１０号,,27,120,5580056,,,,,,,2023-09-12,1,,,,,モリカンガッキコウボウ,0
690,3120003024857,新規,0,2023-09-12,2023-09-12,Ｐｅｌａｄｅｉｒｏ合同会社,,合同会社,大阪府,寝屋川市,御幸東町７番８号,,27,215,5720055,,,,,,,2023-09-12,1,,,,,ペラデイロ,0
693,3120101068178,新規,0,2023-09-12,2023-09-12,株式会社アローズ,,株式会社,大阪府,堺市北区,北花田町４丁９８番地５,,27,146,5918002,,,,,,,2023-09-12,1,,,,,アローズ,0
694,3120101068186,新規,0,2023-09-12,2023-09-12,株式会社中庄緑化,,株式会社,大阪府,泉佐野市,中庄１５１１番地の１３,,27,213,5980002,,,,,,,2023-09-12,1,,,,,ナカショウリョッカ,0
697,3122001037345,新規,0,2023-09-12,2023-09-12,株式会社Ｒａｉｓｅｕｐ　Ｆｉｌｌ,,株式会社,大阪府,八尾市,沼１丁目６８番地の６５朝日プラザシティ八尾南２番館４１４号,,27,212,5810036,,,,,,,2023-09-12,1,,,,,レイズアップフィル,0
698,3122001037361,新規,0,2023-09-12,2023-09-12,株式会社キラットホーム,,株式会社,大阪府,八尾市,南植松町２丁目４２番地の４０,,27,212,5810091,,,,,,,2023-09-12,1,,,,,キラットホーム,0
708,3130005016876,新規,0,2023-09-12,2023-09-12,ＰＣＧ税理士法人,,その他の設立登記法人,京都府,京都市南区,東九条下殿田町４３番地Ｇ２０５,,26,107,6018047,,,,,,,2023-09-12,1,,,,,ピーシージー,0
711,3140001131554,新規,0,2023-09-12,2023-09-12,株式会社Ｓｔｏｋｅ　ｚｏｎｅ,,株式会社,兵庫県,明石市,中崎２丁目４番１－５２３号,,28,203,6730883,,,,,,,2023-09-12,1,,,,,ストークゾーン,0
717,3150001026712,新規,0,2023-09-12,2023-09-12,株式会社ぱる,,株式会社,奈良県,北葛城郡広陵町,馬見北８丁目８番１号,,29,426,6350831,,,,,,,2023-09-12,1,,,,,パル,0
720,3170005007038,新規,0,2023-09-12,2023-09-12,一般社団法人てらす,,その他の設立登記法人,和歌山県,和歌山市,新中島１２７番地３９,,30,201,6410002,,,,,,,2023-09-12,1,,,,,テラス,0
738,3190001004524,新規,0,2023-09-12,2023-09-12,長島造船株式会社,,株式会社,三重県,北牟婁郡紀北町,紀伊長島区長島１８８９番地の１２,,24,543,5193400,,,,,,,2023-09-12,1,,,,,ナガシマゾウセン,0
745,3230001020013,新規,0,2023-09-12,2023-09-12,セブン不動産株式会社,,株式会社,富山県,富山市,永楽町２７番１６号池森ビル１階,,16,201,9300853,,,,,,,2023-09-12,1,,,,,セブンフドウサン,0
746,3230005009333,新規,0,2023-09-12,2023-09-12,特定非営利活動法人ＣＣＳ,,その他の設立登記法人,富山県,富山市,藤木１６３２番地,,16,201,9300936,,,,,,,2023-09-12,1,,,,,シーシーエス,0
747,3240001062112,新規,0,2023-09-12,2023-09-12,株式会社Ａ＆Ｃｏ,,株式会社,広島県,広島市中区,大手町１丁目８番２２号３Ｆ,,34,101,7300051,,,,,,,2023-09-12,1,,,,,エーアンドコー,0
749,3240003006281,新規,0,2023-09-12,2023-09-12,合同会社Ｑｓ,,合同会社,広島県,広島市南区,翠５丁目７番３－３号,,34,103,7340005,,,,,,,2023-09-12,1,,,,,キューズ,0
752,3260003004424,新規,0,2023-09-12,2023-09-12,合同会社采幸,,合同会社,岡山県,津山市,昭和町２丁目１２０番地,,33,203,7080886,,,,,,,2023-09-12,1,,,,,サイコウ,0
757,3290001102920,新規,0,2023-09-12,2023-09-12,株式会社ディグ,,株式会社,福岡県,福岡市中央区,天神１丁目９番１７号福岡天神フコク生命ビル１５階,,40,133,8100001,,,,,,,2023-09-12,1,,,,,ディグ,0
760,3290003014313,新規,0,2023-09-12,2023-09-12,エヌボデー合同会社,,合同会社,福岡県,飯塚市,伊岐須４２８番地,,40,205,8200053,,,,,,,2023-09-12,1,,,,,エヌボデー,0
767,3350001018557,新規,0,2023-09-12,2023-09-12,株式会社イダラボ,,株式会社,宮崎県,東臼杵郡門川町,須賀崎２丁目５,,45,421,8890601,,,,,,,2023-09-12,1,,,,,イダラボ,0
775,3380001033974,新規,0,2023-09-12,2023-09-12,株式会社スタークリエイト,,株式会社,福島県,いわき市,内郷御厩町下能１１番地の１,00131878,07,204,9738402,,,,,,,2023-09-12,1,,,,,スタークリエイト,0
776,3380003005567,新規,0,2023-09-12,2023-09-12,合同会社雅,,合同会社,福島県,南相馬市,原町区北町２４８番地スペースガーデン４－２０２,,07,212,9750018,,,,,,,2023-09-12,1,,,,,ミヤビ,0
782,3430001089912,新規,0,2023-09-12,2023-09-12,株式会社稀翔,,株式会社,北海道,苫小牧市,有珠の沢町３丁目２１番４号,,01,213,0530842,,,,,,,2023-09-12,1,,,,,キショウ,0
783,3430001089961,新規,0,2023-09-12,2023-09-12,株式会社ＡＬＣ,,株式会社,北海道,札幌市白石区,東札幌三条６丁目１－２第一小竹ビル３階,,01,104,0030003,,,,,,,2023-09-12,1,,,,,エーエルシー,0
785,3430003015420,新規,0,2023-09-12,2023-09-12,合同会社プラスエム,,合同会社,北海道,札幌市中央区,南十九条西７丁目３番５－５０５号,,01,101,0640919,,,,,,,2023-09-12,1,,,,,プラスエム,0
786,3430003015437,新規,0,2023-09-12,2023-09-12,合同会社リガーレホームケア,,合同会社,北海道,札幌市白石区,菊水元町六条１丁目６番２１号,,01,104,0030826,,,,,,,2023-09-12,1,,,,,リガーレホームケア,0
788,3440005002762,新規,0,2023-09-12,2023-09-12,一般社団法人にじいろほっかいどう,,その他の設立登記法人,北海道,函館市,湯川町１丁目２１番１０号コーポやつき１号室,,01,202,0420932,,,,,,,2023-09-12,1,,,,,,0
789,3460305001999,新規,0,2023-09-12,2023-09-12,医療法人社団桂友会,,その他の設立登記法人,北海道,網走市,駒場北５丁目８４番地７,,01,211,0930033,,,,,,,2023-09-12,1,,,,,ケイユウカイ,0
796,3490001010590,新規,0,2023-09-12,2023-09-12,イーストクリーニング株式会社,,株式会社,高知県,高知市,比島町２丁目７番２３号,,39,201,7800066,,,,,,,2023-09-12,1,,,,,イーストクリーニング,0
798,3700150115598,新規,0,2023-09-12,2023-09-12,Ａｎｊｏｏ　Ｔｅｃｈｎｏｌｏｇｙ　Ｃｏ．，Ｌｉｍｉｔｅｄ,,外国会社等,,,,,,,,ＦＬＡＴ／ＲＭ　９０３　９／Ｆ　ＲＩＣＫＹ　ＣＴＲ　３６　ＣＨＯＮＧ　ＹＩＰ　ＳＴ　ＫＷＵＮ　ＴＯＮＧ　ＫＯＷＬＯＯＮ　Ｈｏｎｇ　Ｋｏｎｇ　９９９０７７　ＨＫ　　　　,,,,,,2023-09-12,1,,,,,アンジョーテクノロジーカンパニーリミテッド,0
810,4010001238238,新規,0,2023-09-12,2023-09-12,イモトホールディングス株式会社,,株式会社,東京都,中央区,月島３丁目９番９号,,13,102,1040052,,,,,,,2023-09-12,1,,,,,イモトホールディングス,0
811,4010001238428,新規,0,2023-09-12,2023-09-12,株式会社ｔｏｒａｐｉ,,株式会社,東京都,中央区,勝どき６丁目３番１－４７２３号,,13,102,1040054,,,,,,,2023-09-12,1,,,,,トラピ,0
819,4010103002203,新規,0,2023-09-12,2023-09-12,合同会社ドゥマンクレール,,合同会社,東京都,八王子市,台町１丁目２４―２７ドミネ２１台町１階,,13,201,1930931,,,,,,,2023-09-12,1,,,,,ドゥマンクレール,0
836,4010501051033,新規,0,2023-09-12,2023-09-12,株式会社あおき,,株式会社,東京都,台東区,北上野２丁目５番３－５０１号ザ・パークハウス上野プレイス,,13,106,1100014,,,,,,,2023-09-12,1,,,,,アオキ,0
840,4010701044844,新規,0,2023-09-12,2023-09-12,株式会社ｔｏｋｏｒｏ,,株式会社,東京都,品川区,南品川３丁目７－１４イルマーレ１０１,,13,109,1400004,,,,,,,2023-09-12,1,,,,,トコロ,0
841,4010803004671,新規,0,2023-09-12,2023-09-12,コトブキ合同会社,,合同会社,東京都,大田区,山王３丁目３８番１８号,,13,111,1430023,,,,,,,2023-09-12,1,,,,,コトブキ,0
854,4011001156818,新規,0,2023-09-12,2023-09-12,株式会社セカンドステーション,,株式会社,東京都,渋谷区,鉢山町３番２６－３０７号プラウド代官山,,13,113,1500035,,,,,,,2023-09-12,1,,,,,セカンドステーション,0
861,4011101104313,新規,0,2023-09-12,2023-09-12,株式会社ｆｌａｖａ,,株式会社,東京都,新宿区,箪笥町１８番地１パークウェル神楽坂弐番館９０１,,13,104,1620833,,,,,,,2023-09-12,1,,,,,フラバ,0
862,4011101104346,新規,0,2023-09-12,2023-09-12,クレバー株式会社,,株式会社,東京都,新宿区,西新宿３丁目３番１３号西新宿水間ビル６階,,13,104,1600023,,,,,,,2023-09-12,1,,,,,クレバー,0
866,4011203004171,新規,0,2023-09-12,2023-09-12,合同会社タック,,合同会社,東京都,中野区,弥生町１丁目４６番１号,,13,114,1640013,,,,,,,2023-09-12,1,,,,,タック,0
869,4011501029762,新規,0,2023-09-12,2023-09-12,株式会社ケーズプレス,,株式会社,東京都,荒川区,西尾久３丁目２４番５号,,13,118,1160011,,,,,,,2023-09-12,1,,,,,ケーズプレス,0
870,4011801042936,新規,0,2023-09-12,2023-09-12,ＲＫＰ株式会社,,株式会社,東京都,葛飾区,青戸５丁目３１番１７号,,13,122,1250062,,,,,,,2023-09-12,1,,,,,,0
873,4012401040990,新規,0,2023-09-12,2023-09-12,株式会社Ｆｏｒｔｈ,,株式会社,東京都,武蔵野市,吉祥寺本町２丁目１３番４号,,13,203,1800004,,,,,,,2023-09-12,1,,,,,フォース,0
876,4013101009244,新規,0,2023-09-12,2023-09-12,株式会社新生,,株式会社,東京都,あきる野市,二宮１４５６番地,,13,228,1970814,,,,,,,2023-09-12,1,,,,,,0
877,4013301051327,新規,0,2023-09-12,2023-09-12,株式会社Ｂ‐ＲＩＳＥ,,株式会社,東京都,豊島区,駒込１丁目３４番２号,,13,116,1700003,,,,,,,2023-09-12,1,,,,,ビーライズ,0
885,4020001153477,新規,0,2023-09-12,2023-09-12,株式会社ＷＥＮ,,株式会社,神奈川県,横浜市青葉区,美しが丘４丁目１－１１－５０６,,14,117,2250002,,,,,,,2023-09-12,1,,,,,ウェン,0
886,4020001153485,新規,0,2023-09-12,2023-09-12,クライムクレスト株式会社,,株式会社,神奈川県,横浜市西区,南幸２丁目２０番１２号タイヨウビル２１２号室,,14,103,2200005,,,,,,,2023-09-12,1,,,,,クライムクレスト,0
897,4030001155869,新規,0,2023-09-12,2023-09-12,株式会社みどりのもり,,株式会社,埼玉県,川越市,大字砂４２２番地,,11,201,3501133,,,,,,,2023-09-12,1,,,,,ミドリノモリ,0
898,4030001155893,新規,0,2023-09-12,2023-09-12,株式会社イナブング,,株式会社,埼玉県,北足立郡伊奈町,寿４丁目２６番地,,11,301,3620807,,,,,,,2023-09-12,1,,,,,イナブング,0
899,4030001155927,新規,0,2023-09-12,2023-09-12,株式会社ｃｂａ,,株式会社,埼玉県,さいたま市北区,本郷町５８６番地,,11,102,3310802,,,,,,,2023-09-12,1,,,,,シービーエー,0
906,4040001130029,新規,0,2023-09-12,2023-09-12,Ｃｈａｍｐｉｏｎ株式会社,,株式会社,千葉県,船橋市,東船橋１丁目３３番１８号,,12,204,2730002,,,,,,,2023-09-12,1,,,,,チャンピオン,0
907,4040001130053,新規,0,2023-09-12,2023-09-12,株式会社アクセスワン,,株式会社,千葉県,袖ケ浦市,福王台２丁目２１番地１０福王台セントラルハイム２０１号,,12,229,2990261,,,,,,,2023-09-12,1,,,,,アクセスワン,0
909,4040003023296,新規,0,2023-09-12,2023-09-12,合同会社Ｗｈｉｔｅ　Ｂｅａｒｄ,,合同会社,千葉県,柏市,若白毛６７０,,12,217,2701444,,,,,,,2023-09-12,1,,,,,ホワイトビアード,0
910,4040003023313,新規,0,2023-09-12,2023-09-12,ＲＷＳ合同会社,,合同会社,千葉県,袖ケ浦市,袖ケ浦駅前２丁目４８番地１７,,12,229,2990269,,,,,,,2023-09-12,1,,,,,アールダブリュエス,0
911,4050003007785,新規,0,2023-09-12,2023-09-12,合同会社カヴィーシャインターナショナル,,合同会社,茨城県,稲敷郡阿見町,大字島津１８８３番地１６－Ｂ,,08,443,3000311,,,,,,,2023-09-12,1,,,,,カヴィーシャインターナショナル,0
914,4070001040852,新規,0,2023-09-12,2023-09-12,株式会社Ａｋｕｋｅｎ,,株式会社,群馬県,伊勢崎市,境女塚３０１番地５,,10,204,3700121,,,,,,,2023-09-12,1,,,,,アクケン,0
915,4070001040869,新規,0,2023-09-12,2023-09-12,株式会社瀬戸工業,,株式会社,群馬県,前橋市,粕川町深津９１番地１,,10,201,3710215,,,,,,,2023-09-12,1,,,,,セトコウギョウ,0
920,4070003005093,新規,0,2023-09-12,2023-09-12,合同会社ＰＵＬＡＴＨＩＳＩ　ＩＮＴＥＲＮＡＴＩＯＮＡＬ,,合同会社,群馬県,太田市,西新町９０番地３ベルヴューＡ－２０１号,,10,205,3730847,,,,,,,2023-09-12,1,,,,,プラティシインターナショナル,0
924,4080105006360,新規,0,2023-09-12,2023-09-12,一般社団法人沼津地域サポーター,,その他の設立登記法人,静岡県,沼津市,三枚橋町１１番１２号,,22,203,4100037,,,,,,,2023-09-12,1,,,,,ヌマヅチイキサポーター,0
926,4080403004867,新規,0,2023-09-12,2023-09-12,合同会社盛宏,,合同会社,静岡県,浜松市東区,植松町７５番地の１６,,22,132,4300803,,,,,,,2023-09-12,1,,,,,モリヒロ,0
927,4100001036764,新規,0,2023-09-12,2023-09-12,株式会社モーターパーツエージェンシー,,株式会社,長野県,松本市,大字松原３４番地２,,20,202,3990022,,,,,,,2023-09-12,1,,,,,モーターパーツエージェンシー,0
945,4120001257862,新規,0,2023-09-12,2023-09-12,株式会社アイ・テック,,株式会社,大阪府,大阪市平野区,喜連東５丁目１番５号,,27,126,5470021,,,,,,,2023-09-12,1,,,,,アイテック,0
946,4120001257879,新規,0,2023-09-12,2023-09-12,株式会社糸縁,,株式会社,大阪府,大阪市東住吉区,北田辺４丁目７－２,,27,121,5460044,,,,,,,2023-09-12,1,,,,,シエン,0
947,4120001257904,新規,0,2023-09-12,2023-09-12,ＹｏｕｒＴｕｒｎ株式会社,,株式会社,大阪府,大阪市天王寺区,上本町９丁目５番１４号,,27,109,5430001,,,,,,,2023-09-12,1,,,,,ユアターン,0
948,4120001258019,新規,0,2023-09-12,2023-09-12,株式会社オハサン,,株式会社,大阪府,大阪市阿倍野区,松崎町３丁目１３－２３－８０４,,27,119,5450053,,,,,,,2023-09-12,1,,,,,オハサン,0
952,4120003024856,新規,0,2023-09-12,2023-09-12,合同会社クランク,,合同会社,大阪府,大阪市中央区,宗右衛門町７番５号おぐらやビル３階,,27,128,5420084,,,,,,,2023-09-12,1,,,,,クランク,0
960,4122001037360,新規,0,2023-09-12,2023-09-12,株式会社ＫＡＲＨＡ,,株式会社,大阪府,東大阪市,俊徳町２丁目８番１６号,,27,227,5770831,,,,,,,2023-09-12,1,,,,,カルハ,0
961,4122005003706,新規,0,2023-09-12,2023-09-12,一般財団法人加藤育英基金,,その他の設立登記法人,大阪府,東大阪市,長堂１丁目２番１６号,,27,227,5770056,,,,,,,2023-09-12,1,,,,,カトウイクエイキキン,0
962,4130001075157,新規,0,2023-09-12,2023-09-12,株式会社クオーレ,,株式会社,京都府,宇治市,宇治半白６６番地の８,,26,204,6110021,,,,,,,2023-09-12,1,,,,,クオーレ,0
964,4130005016875,新規,0,2023-09-12,2023-09-12,一般社団法人プリマヴェーラ大原野,,その他の設立登記法人,京都府,京都市西京区,大原野灰方町７７９番地１,,26,111,6101132,,,,,,,2023-09-12,1,,,,,プリマヴェーラオオハラノ,0
969,4140001131495,新規,0,2023-09-12,2023-09-12,エヌエスファーマ株式会社,,株式会社,兵庫県,芦屋市,大東町１３番１－１０７号,,28,206,6590023,,,,,,,2023-09-12,1,,,,,エヌエスファーマ,0
970,4140001131553,新規,0,2023-09-12,2023-09-12,松栄水産株式会社,,株式会社,兵庫県,明石市,二見町西二見８２３番地の４,,28,203,6740094,,,,,,,2023-09-12,1,,,,,マツエイスイサン,0
971,4140003019524,新規,0,2023-09-12,2023-09-12,ＵＮＶＩＥ合同会社,,合同会社,兵庫県,明石市,松が丘１丁目９番１６号,,28,203,6730862,,,,,,,2023-09-12,1,,,,,アンヴィ,0
972,4140005026741,新規,0,2023-09-12,2023-09-12,農事組合法人下島営農組合,,その他の設立登記法人,兵庫県,豊岡市,城崎町湯島９１９番地,,28,209,6696101,,,,,,,2023-09-12,1,,,,,シモジマエイノウクミアイ,0
975,4170001017774,新規,0,2023-09-12,2023-09-12,株式会社まるはち,,株式会社,和歌山県,日高郡日高川町,大字江川５４８番地,,30,392,6491442,,,,,,,2023-09-12,1,,,,,マルハチ,0
985,4180301037810,新規,0,2023-09-12,2023-09-12,株式会社ＧＧ,,株式会社,愛知県,豊橋市,大崎町字笠松５４番地,,23,201,4418073,,,,,,,2023-09-12,1,,,,,ジージー,0
987,4180303005831,新規,0,2023-09-12,2023-09-12,合同会社うえにおにくでしたにごはん,,合同会社,愛知県,みよし市,三好町弥栄８３番地６,,23,236,4700224,,,,,,,2023-09-12,1,,,,,ウエニオニクデシタニゴハン,0
988,4200001041713,新規,0,2023-09-12,2023-09-12,株式会社ＤＥＥＰＳ,,株式会社,岐阜県,岐阜市,菅原町２丁目２番地ロイヤル菅原５号,,21,201,5008816,,,,,,,2023-09-12,1,,,,,ディープス,0
991,4210003001697,新規,0,2023-09-12,2023-09-12,Ｔｒｅｅ合同会社,,合同会社,福井県,坂井市,春江町江留下相田９９番地５,,18,210,9190417,,,,,,,2023-09-12,1,,,,,ツリー,0
993,4220001025598,新規,0,2023-09-12,2023-09-12,株式会社ＪＡＫＯホールディングス,,株式会社,石川県,かほく市,白尾タ１６番地１１,,17,209,9291177,,,,,,,2023-09-12,1,,,,,ジャコウホールディングス,0
994,4230003002082,新規,0,2023-09-12,2023-09-12,合同会社ｔ．ｏｆｆｉｃｅ,,合同会社,富山県,砺波市,深江１丁目２８４番地,,16,208,9391331,,,,,,,2023-09-12,1,,,,,ティードットオフィス,0
996,4240001062111,新規,0,2023-09-12,2023-09-12,株式会社Ｍ企画設計,,株式会社,広島県,東広島市,八本松東２丁目１０番１８号,,34,212,7390142,,,,,,,2023-09-12,1,,,,,エムキカクセッケイ,0
997,4240003006306,新規,0,2023-09-12,2023-09-12,合同会社ＭＴＦ,,合同会社,広島県,広島市佐伯区,五日市中央４丁目２番２６－２０９号,,34,108,7315128,,,,,,,2023-09-12,1,,,,,エムティーエフ,0
1001,4250005008860,新規,0,2023-09-12,2023-09-12,一般社団法人西方心支会,,その他の設立登記法人,山口県,下関市,竹崎町２丁目２番－８－５１２号下関コープビル,,35,201,7500025,,,,,,,2023-09-12,1,,,,,セイホウシンシカイ,0
1002,4260001038299,新規,0,2023-09-12,2023-09-12,佐久良環境株式会社,,株式会社,岡山県,岡山市東区,中川町４０６番地１２,,33,103,7048176,,,,,,,2023-09-12,1,,,,,サクラカンキョウ,0
1013,4290001102969,新規,0,2023-09-12,2023-09-12,株式会社ＩＢＪ,,株式会社,福岡県,福岡市博多区,美野島４丁目１番５－８０１号,,40,132,8120017,,,,,,,2023-09-12,1,,,,,アイビージェー,0
1022,4330001031239,新規,0,2023-09-12,2023-09-12,株式会社Ｒｅ　Ｌｏａｄ,,株式会社,熊本県,熊本市南区,平田１丁目７番６号,,43,104,8600826,,,,,,,2023-09-12,1,,,,,リロード,0
1036,4360005006903,新規,0,2023-09-12,2023-09-12,一般社団法人Ｇｒｅｅｎ　Ｈｏｕｓｅ,,その他の設立登記法人,沖縄県,島尻郡八重瀬町,字安里３１５－５,,47,362,9010514,,,,,,,2023-09-12,1,,,,,グリーンハウス,0
1039,4380003005566,新規,0,2023-09-12,2023-09-12,ふくしま洋上風力合同会社,,合同会社,福島県,福島市,松山町２５番地,,07,201,9608228,,,,,,,2023-09-12,1,,,,,フクシマヨウジョウフウリョク,0
1046,4430001089903,新規,0,2023-09-12,2023-09-12,株式会社ＧＯＫＵＲＩ,,株式会社,北海道,札幌市中央区,北一条西１０丁目１－１３,,01,101,0600001,,,,,,,2023-09-12,1,,,,,ゴクリ,0
1053,4470003002488,新規,0,2023-09-12,2023-09-12,瀬戸航空トラベル合同会社,,合同会社,香川県,高松市,宮脇町２丁目１０番６５号シャンボール峰山３０６号室,,37,201,7600005,,,,,,,2023-09-12,1,,,,,セトコウクウトラベル,0
1062,4700150119334,新規,0,2023-09-12,2023-08-25,日本運動器看護学会,,その他,東京都,新宿区,山吹町３５８－５,,13,104,1620801,,,,,,,2023-08-25,1,,,,,ニホンウンドウキカンゴガツカイ,0
1063,4700150120119,新規,0,2023-09-12,2023-09-12,深セン前海高楽科技有限公司,,外国会社等,,,,,,,,中国広東省深セン市前海深港合作区前湾一路１号Ａ棟２０１室（入駐深セン市前海商務秘書有限公司）,,,,,,2023-09-12,1,,,,,シンセンゼンカイコウラクカギユウゲンコウシ,0
1069,5010001238328,新規,0,2023-09-12,2023-09-12,ＢｉｌｌＰａｙ株式会社,,株式会社,東京都,中央区,日本橋２丁目２番３号ＲＩＳＨＥビルＵＣＦ４階,,13,102,1030027,,,,,,,2023-09-12,1,,,,,ビルペイ,0
1070,5010001238377,新規,0,2023-09-12,2023-09-12,株式会社福田商事,,株式会社,東京都,中央区,銀座１丁目２２番１１号銀座大竹ビジデンス２Ｆ,,13,102,1040061,,,,,,,2023-09-12,1,,,,,フクダショウジ,0
1071,5010001238385,新規,0,2023-09-12,2023-09-12,株式会社Ｋ．Ｉ．Ｄ．Ｓ．,,株式会社,東京都,中央区,銀座８丁目１８番３号銀座加藤ビル２階,,13,102,1040061,,,,,,,2023-09-12,1,,,,,キッズ,0
1074,5010003041655,新規,0,2023-09-12,2023-09-12,合同会社Ｃａｌｖｅｒｔ＆Ｃａｌｅｙ,,合同会社,東京都,文京区,向丘２丁目３６番１号Ｂ棟,,13,105,1130023,,,,,,,2023-09-12,1,,,,,カルバートアンドケイリー,0
1088,5010401177002,新規,0,2023-09-12,2023-09-12,株式会社ＧＥＫＩＫＡＲＡ,,株式会社,東京都,港区,北青山１丁目３番１号アールキューブ青山３階,,13,103,1070061,,,,,,,2023-09-12,1,,,,,ゲキカラ,0
1093,5010501051040,新規,0,2023-09-12,2023-09-12,株式会社ｃａｌｌａ,,株式会社,東京都,台東区,下谷２丁目１１番９号八喜ビル１階,,13,106,1100004,,,,,,,2023-09-12,1,,,,,カラ,0
1096,5010601063761,新規,0,2023-09-12,2023-09-12,株式会社ウタージュ,,株式会社,東京都,墨田区,京島１丁目８番８号,,13,107,1310046,,,,,,,2023-09-12,1,,,,,ウタージュ,0
1098,5010701044835,新規,0,2023-09-12,2023-09-12,株式会社ループフォース,,株式会社,東京都,品川区,南品川２丁目２番７号南品川Ｊビル７階,,13,109,1400004,,,,,,,2023-09-12,1,,,,,ループフォース,0
1099,5010701044843,新規,0,2023-09-12,2023-09-12,株式会社Ｍａｚｉｃ　Ｂｏｘ,,株式会社,東京都,品川区,大崎３丁目１６番５号サンハイム大崎２１０号,,13,109,1410032,,,,,,,2023-09-12,1,,,,,マジックボックス,0
1116,5011001156619,新規,0,2023-09-12,2023-09-12,株式会社エボレボ東京,,株式会社,東京都,渋谷区,神泉町７－６芦沢ビルＦ２,,13,113,1500045,,,,,,,2023-09-12,1,,,,,エボレボトウキョウ,0
1117,5011001156833,新規,0,2023-09-12,2023-09-12,株式会社ヤオヨロズ,,株式会社,東京都,渋谷区,渋谷２丁目１９－１５宮益坂ビルディング６０９,,13,113,1500002,,,,,,,2023-09-12,1,,,,,ヤオヨロズ,0
1118,5011001156916,新規,0,2023-09-12,2023-09-12,株式会社バロック,,株式会社,東京都,渋谷区,恵比寿１丁目２４番４号プレミール恵比寿３０３,,13,113,1500013,,,,,,,2023-09-12,1,,,,,バロック,0
1119,5011003017471,新規,0,2023-09-12,2023-09-12,合同会社７８７,,合同会社,東京都,渋谷区,道玄坂１丁目１０番８号渋谷道玄坂東急ビル２Ｆ－Ｃ,,13,113,1500043,,,,,,,2023-09-12,1,,,,,ナナハチナナ,0
1125,5011101104329,新規,0,2023-09-12,2023-09-12,十六株式会社,,株式会社,東京都,新宿区,新宿４丁目３－１２パシフィックワコービル３０２号室,,13,104,1600022,,,,,,,2023-09-12,1,,,,,ジュウロク,0
1132,5011501029761,新規,0,2023-09-12,2023-09-12,佳友株式会社,,株式会社,東京都,荒川区,東日暮里３丁目２８番５号ＣｒｙｓｔａｌＢｕｉｌｄｉｎｇ１階,,13,118,1160014,,,,,,,2023-09-12,1,,,,,ヨシトモ,0
1137,5011705001797,新規,0,2023-09-12,2023-09-12,医療法人社団豊正会,,その他の設立登記法人,東京都,江戸川区,篠崎町６丁目１８番１０号ロイヤルティアラ１０１号室,,13,123,1330061,,,,,,,2023-09-12,1,,,,,ホウセイカイ,0
1138,5011801043033,新規,0,2023-09-12,2023-09-12,株式会社東計エンジニアリング,,株式会社,東京都,足立区,入谷５丁目７番１１号,,13,121,1210836,,,,,,,2023-09-12,1,,,,,トウケイエンジニアリング,0
1141,5011803005824,新規,0,2023-09-12,2023-09-12,Ｙ’ｓマネジメント合同会社,,合同会社,東京都,足立区,花畑１丁目３３－２０,,13,121,1210061,,,,,,,2023-09-12,1,,,,,ワイズマネジメント,0
1144,5012401040973,新規,0,2023-09-12,2023-09-12,株式会社ＢＩＺＡＲＴ,,株式会社,東京都,武蔵野市,吉祥寺東町２丁目３７番１９号,,13,203,1800002,,,,,,,2023-09-12,1,,,,,ビズアート,0
1145,5012403006171,新規,0,2023-09-12,2023-09-12,合同会社はる,,合同会社,東京都,府中市,宮西町３丁目８番地の１－１００３号,,13,206,1830022,,,,,,,2023-09-12,1,,,,,ハル,0
1148,5012701017837,新規,0,2023-09-12,2023-09-12,Ｋ．Ｔ株式会社,,株式会社,東京都,東村山市,諏訪町３丁目９番地１５,,13,213,1890021,,,,,,,2023-09-12,1,,,,,ケーティー,0
1156,5013301051326,新規,0,2023-09-12,2023-09-12,小望商社株式会社,,株式会社,東京都,豊島区,上池袋３丁目４７－９ミツトシビル４－０１号室,,13,116,1700012,,,,,,,2023-09-12,1,,,,,コボウショウシャ,0
1161,5020001153492,新規,0,2023-09-12,2023-09-12,株式会社オーエイチホールディングス,,株式会社,神奈川県,横浜市南区,六ツ川２丁目８７番地４６,,14,105,2320066,,,,,,,2023-09-12,1,,,,,オーエイチホールディングス,0
1162,5020001153501,新規,0,2023-09-12,2023-09-12,株式会社横濱＿季,00131879,株式会社,神奈川県,横浜市中区,末吉町３丁目４２番地クリオ阪東橋１１０５号室,,14,104,2310055,,,,,,,2023-09-12,1,,,,,ヨコハマリンキ,0
1164,5020003024535,新規,0,2023-09-12,2023-09-12,ＳＨＩＫＯＤＯ合同会社,,合同会社,神奈川県,川崎市川崎区,駅前本町１１番地２川崎フロンティアビル４階,,14,131,2100007,,,,,,,2023-09-12,1,,,,,シコウドウ,0
1165,5020003024576,新規,0,2023-09-12,2023-09-12,合同会社ｍａｓｈ,,合同会社,神奈川県,横浜市磯子区,丸山１丁目２７番２－２２９号,,14,107,2350011,,,,,,,2023-09-12,1,,,,,マッシュ,0
1173,5030001155554,新規,0,2023-09-12,2023-09-12,株式会社隣之友,,株式会社,埼玉県,川口市,西青木２丁目９番２号,,11,203,3320035,,,,,,,2023-09-12,1,,,,,トナリノトモ,0
1179,5030003022570,新規,0,2023-09-12,2023-09-12,プロテゴ合同会社,,合同会社,埼玉県,上尾市,大字小泉１０６８番地３８,,11,219,3620063,,,,,,,2023-09-12,1,,,,,プロテゴ,0
1187,5040003023262,新規,0,2023-09-12,2023-09-12,合同会社青雲,,合同会社,千葉県,松戸市,栄町西５丁目１３２５番地の５,,12,207,2710061,,,,,,,2023-09-12,1,,,,,セイウン,0
1188,5040003023295,新規,0,2023-09-12,2023-09-12,合同会社橙叶,,合同会社,千葉県,市川市,曽谷６丁目１３番３号,,12,203,2720832,,,,,,,2023-09-12,1,,,,,トウカ,0
1194,5050001053442,新規,0,2023-09-12,2023-09-12,株式会社エーデル,,株式会社,茨城県,つくばみらい市,市野深５６４番地３,,08,235,3002355,,,,,,,2023-09-12,1,,,,,エーデル,0
1202,5070001040827,新規,0,2023-09-12,2023-09-12,イルカ金属株式会社,,株式会社,群馬県,館林市,小桑原町１２９４番地の８,,10,207,3740037,,,,,,,2023-09-12,1,,,,,イルカキンゾク,0
1206,5070003005092,新規,0,2023-09-12,2023-09-12,合同会社ＴＩＤＡ,,合同会社,群馬県,伊勢崎市,長沼町６７３番地１３ジョリメゾン１０５号室,,10,204,3720855,,,,,,,2023-09-12,1,,,,,,0
1210,5080001025851,新規,0,2023-09-12,2023-09-12,エスダブリューエフグループジャパン株式会社,,株式会社,静岡県,静岡市葵区,音羽町２１番２０号,,22,101,4200834,,,,,,,2023-09-12,1,,,,,エスダブリューエフグループジャパン,0
1217,5100003007176,新規,0,2023-09-12,2023-09-12,合同会社Ｔｏｐｐａｒａｉ,,合同会社,長野県,上伊那郡箕輪町,大字三日町１５１８番地１,,20,383,3994603,,,,,,,2023-09-12,1,,,,,トッパライ,0
1220,5110003005162,新規,0,2023-09-12,2023-09-12,合同会社リブウェルインスティテュート,,合同会社,新潟県,新潟市中央区,水道町２丁目８０８番地,,15,103,9518121,,,,,,,2023-09-12,1,,,,,リブウェルインスティテュート,0
1225,5120001257779,新規,0,2023-09-12,2023-09-12,輝株式会社,,株式会社,大阪府,大阪市生野区,生野西４丁目３番３７号,,27,116,5440024,,,,,,,2023-09-12,1,,,,,カガヤク,0
1226,5120001257812,新規,0,2023-09-12,2023-09-12,株式会社ａｎｄＡ,,株式会社,大阪府,枚方市,長尾東町３丁目１３番５号,,27,210,5730105,,,,,,,2023-09-12,1,,,,,アンドエー,0
1227,5120001257820,新規,0,2023-09-12,2023-09-12,株式会社みやび,,株式会社,大阪府,枚方市,楠葉美咲３丁目２２番２号,,27,210,5731112,,,,,,,2023-09-12,1,,,,,ミヤビ,0
1228,5120001257853,新規,0,2023-09-12,2023-09-12,株式会社アドヴァンス,,株式会社,大阪府,大阪市平野区,加美北１丁目１９番８号,,27,126,5470001,,,,,,,2023-09-12,1,,,,,アドヴァンス,0
1229,5120001257878,新規,0,2023-09-12,2023-09-12,株式会社ＣＲＡＦＴＳＭａｎ　ｃｏ‐ｏｐ,,株式会社,大阪府,大阪市西区,南堀江２丁目４番８－１１０３号,,27,106,5500015,,,,,,,2023-09-12,1,,,,,クラフトマンコープ,0
1230,5120001257886,新規,0,2023-09-12,2023-09-12,株式会社Ｈｙｕ　Ｃｏｍｐａｎｙ,,株式会社,大阪府,大阪市住吉区,遠里小野１丁目７番３号,,27,120,5580032,,,,,,,2023-09-12,1,,,,,ヒューカンパニー,0
1231,5120001257960,新規,0,2023-09-12,2023-09-12,イナモリ電工株式会社,,株式会社,大阪府,大阪市東住吉区,住道矢田５丁目１７番１４号,,27,121,5460022,,,,,,,2023-09-12,1,,,,,イナモリデンコウ,0
1233,5120003024839,新規,0,2023-09-12,2023-09-12,合同会社ＲＪなにわ,,合同会社,大阪府,大阪市西区,江戸堀１丁目１番１１号リニューアブル・ジャパン株式会社内,,27,106,5500002,,,,,,,2023-09-12,1,,,,,アールジェイナニワ,0
1234,5120003024871,新規,0,2023-09-12,2023-09-12,合同会社流星,,合同会社,大阪府,大阪市平野区,平野馬場１丁目５番１０号５０４,,27,126,5470048,,,,,,,2023-09-12,1,,,,,リュウセイ,0
1236,5120101068184,新規,0,2023-09-12,2023-09-12,住吉産業株式会社,,株式会社,大阪府,堺市北区,長曽根町３０７８番地５,,27,146,5918025,,,,,,,2023-09-12,1,,,,,スミヨシサンギョウ,0
1237,5120101068192,新規,0,2023-09-12,2023-09-12,株式会社南工建,,株式会社,大阪府,阪南市,下出５２７番地の４,,27,232,5990202,,,,,,,2023-09-12,1,,,,,ミナミコウケン,0
1238,5120103005425,新規,0,2023-09-12,2023-09-12,三木商事合同会社,,合同会社,大阪府,堺市北区,百舌鳥陵南町３丁４３３,,27,146,5918034,,,,,,,2023-09-12,1,,,,,ミキショウジ,0
1239,5120105009762,新規,0,2023-09-12,2023-09-12,アドア協同組合,,その他の設立登記法人,大阪府,和泉市,府中町２丁目２番７号,,27,219,5940071,,,,,,,2023-09-12,1,,,,,アドア,0
1242,5130001075148,新規,0,2023-09-12,2023-09-12,ミヨシ工業株式会社,,株式会社,京都府,京都市下京区,河原町通正面下る万屋町３４２番地ガーデンコート３０３,,26,106,6008199,,,,,,,2023-09-12,1,,,,,ミヨシコウギョウ,0
1244,5130003008964,新規,0,2023-09-12,2023-09-12,合同会社福本工業,,合同会社,京都府,京都市伏見区,深草大亀谷東寺町６３－１１,,26,109,6120848,,,,,,,2023-09-12,1,,,,,フクモトコウギョウ,0
1245,5130005016874,新規,0,2023-09-12,2023-09-12,一般社団法人未来の子供たち,,その他の設立登記法人,京都府,八幡市,八幡長田２３番地の６１,,26,210,6148072,,,,,,,2023-09-12,1,,,,,ミライノコドモタチ,0
1247,5140003019507,新規,0,2023-09-12,2023-09-12,クアドリフォリオ合同会社,,合同会社,兵庫県,神戸市垂水区,星陵台５丁目２番２５号,,28,108,6550038,,,,,,,2023-09-12,1,,,,,クアドリフォリオ,0
1250,5150001026710,新規,0,2023-09-12,2023-09-12,株式会社トランスポートいつき,,株式会社,奈良県,天理市,田部町１３８番地５,,29,204,6320017,,,,,,,2023-09-12,1,,,,,トランスポートイツキ,0
1269,5180301037801,新規,0,2023-09-12,2023-09-12,株式会社たか瀬,,株式会社,愛知県,碧南市,白砂町３丁目２３番地,,23,209,4470076,,,,,,,2023-09-12,1,,,,,タカセ,0
1271,5180303005830,新規,0,2023-09-12,2023-09-12,ＮＨコンサル合同会社,,合同会社,愛知県,安城市,三河安城町２丁目１３番地１サンハウス三河安城１０Ｂ,,23,212,4460056,,,,,,,2023-09-12,1,,,,,エヌエイチコンサル,0
1278,5240001062119,新規,0,2023-09-12,2023-09-12,株式会社ブライトリー,,株式会社,広島県,広島市安佐南区,伴東８丁目１１番１０号,,34,105,7313164,,,,,,,2023-09-12,1,,,,,ブライトリー,0
1280,5260001038315,新規,0,2023-09-12,2023-09-12,Ｍｉｒｏｉｒ株式会社,,株式会社,岡山県,苫田郡鏡野町,円宗寺２８０,,33,606,7080321,,,,,,,2023-09-12,1,,,,,ミロワ,0
1281,5260003004422,新規,0,2023-09-12,2023-09-12,合名会社Ｉ,,合名会社,岡山県,岡山市北区,野殿東町４番１２－３号,,33,101,7000065,,,,,,,2023-09-12,1,,,,,アイ,0
1288,5290001103000,新規,0,2023-09-12,2023-09-12,ムタはうす株式会社,,株式会社,福岡県,福岡市東区,八田１丁目７番８号,,40,131,8130031,,,,,,,2023-09-12,1,,,,,ムタハウス,0
1292,5300001013461,新規,0,2023-09-12,2023-09-12,株式会社ＷＯＲＫ　ｉｓ　ＰＬＡＹ,,株式会社,佐賀県,鳥栖市,古賀町５３８番地１,,41,203,8410083,,,,,,,2023-09-12,1,,,,,ワークイズプレイ,0
1302,5360003013280,新規,0,2023-09-12,2023-09-12,合同会社Ｋ＆Ｋ,,合同会社,沖縄県,糸満市,字兼城４３４番地ディアフラッツ兼城６１１号,,47,210,9010303,,,,,,,2023-09-12,1,,,,,ケイアンドケイ,0
1309,5370003006283,新規,0,2023-09-12,2023-09-12,合同会社ＪＧＬＯＧＩ,,合同会社,宮城県,仙台市青葉区,中山台２丁目１番地２,,04,101,9893202,,,,,,,2023-09-12,1,,,,,ジェイジーロジ,0
1318,5430001089902,新規,0,2023-09-12,2023-09-12,ＭＩＮＡ　ＫＡＭＵＹ　Ｉｎｔｅｌｌｉｇｅｎｃｅ株式会社,,株式会社,北海道,虻田郡倶知安町,南一条西１丁目３３番地２階,,01,400,0440031,,,,,,,2023-09-12,1,,,,,ミナカムイインテリジェンス,0
1319,5430001089968,新規,0,2023-09-12,2023-09-12,株式会社あいしてる,,株式会社,北海道,札幌市中央区,北三条東６丁目３５６番地６フランＮ３－２０１号,,01,101,0600033,,,,,,,2023-09-12,1,,,,,アイシテル,0
1320,5430003015419,新規,0,2023-09-12,2023-09-12,ユートピア合同会社,,合同会社,北海道,石狩市,花川南十条２丁目９６番地,,01,235,0613210,,,,,,,2023-09-12,1,,,,,ユートピア,0
1325,5480001012207,新規,0,2023-09-12,2023-09-12,ｚｅｅｐａａｒｄ株式会社,,株式会社,徳島県,阿波市,阿波町丸山６８番地,,36,206,7711703,,,,,,,2023-09-12,1,,,,,ゼーパード,0
1326,5490001010589,新規,0,2023-09-12,2023-09-12,株式会社つながりデザイン・ラボ,,株式会社,高知県,香美市,土佐山田町楠目９７２番地１,,39,212,7820051,,,,,,,2023-09-12,1,,,,,ツナガリデザインラボ,0
1330,5700150112750,新規,0,2023-09-12,2022-11-10,オフィス・ユキ,,その他,東京都,中野区,上高田４丁目２０－８,,13,114,1640002,,,,,,,2022-11-10,1,,,,,オフイスユキ,0
1331,5700150120118,新規,0,2023-09-12,2023-09-12,中山市度宏電子有限公司,,外国会社等,,,,,,,,中国中山市東鳳鎮小瀝社区益隆一街二巷（李雄秋商舗首層之二）,00131802,,,,,2023-09-12,1,,,,,チュウザンシドコウデンシユウゲンコウシ,0
1339,6010001238327,新規,0,2023-09-12,2023-09-12,テクタスジャパン株式会社,,株式会社,東京都,千代田区,平河町１丁目６番１５号ＵＳビル８階,,13,101,1020093,,,,,,,2023-09-12,1,,,,,テクタスジャパン,0
1340,6010001238418,新規,0,2023-09-12,2023-09-12,ＣＨＩＰ　ＩＮ　ＳＴＯＣＫ日本株式会社,,株式会社,東京都,中央区,新川２丁目１２－１３松下ビル６Ｆ,,13,102,1040033,,,,,,,2023-09-12,1,,,,,チップインストックジャパン,0
1341,6010001238450,新規,0,2023-09-12,2023-09-12,株式会社リフトアンドインテグレーション,,株式会社,東京都,中央区,新川２丁目９－２－１Ｆ,,13,102,1040033,,,,,,,2023-09-12,1,,,,,リフトアンドインテグレーション,0
1346,6010003041605,新規,0,2023-09-12,2023-09-12,合同会社ＣＥＬ　ＡＮＳＷＥＲ,,合同会社,東京都,中央区,銀座１丁目２２番１１号銀座大竹ビジデンス２Ｆ,,13,102,1040061,,,,,,,2023-09-12,1,,,,,シーイーエルアンサー,0
1347,6010003041646,新規,0,2023-09-12,2023-09-12,合同会社那覇旭橋城,,合同会社,東京都,千代田区,九段南３丁目７番７号成和綜合会計事務所内,,13,101,1020074,,,,,,,2023-09-12,1,,,,,ナハアサヒバシジョウ,0
1348,6010005037246,新規,0,2023-09-12,2023-09-12,医療法人社団良生堂,,その他の設立登記法人,東京都,千代田区,外神田５丁目２番３号アソルティ末広町１階,,13,101,1010021,,,,,,,2023-09-12,1,,,,,リョウセイドウ,0
1349,6010005037262,新規,0,2023-09-12,2023-09-12,表参道一般社団法人,,その他の設立登記法人,東京都,千代田区,神田小川町３丁目２６番８号神田小川町三丁目ビル６階,,13,101,1010052,,,,,,,2023-09-12,1,,,,,オモテサンドウ,0
1360,6010501051031,新規,0,2023-09-12,2023-09-12,Ｎｉｆｔｙ　ｆａｃｔｏｒｙ株式会社,,株式会社,東京都,台東区,三筋１丁目１０－５－６０７,,13,106,1110055,,,,,,,2023-09-12,1,,,,,ニフティファクトリー,0
1368,6010801034322,新規,0,2023-09-12,2023-09-12,ＪＰ　Ｅコマース株式会社,,株式会社,東京都,大田区,中馬込１丁目１６番１９号,,13,111,1430027,,,,,,,2023-09-12,1,,,,,ジェイピーイーコマース,0
1370,6010901053684,新規,0,2023-09-12,2023-09-12,株式会社ＺＥＮＺＥＮ,,株式会社,東京都,世田谷区,野毛３丁目２１番１８－４０２号,,13,112,1580092,,,,,,,2023-09-12,1,,,,,ゼンゼン,0
1371,6010901053809,新規,0,2023-09-12,2023-09-12,株式会社スタディプラス,,株式会社,東京都,世田谷区,南烏山１丁目２番２０号,,13,112,1570062,,,,,,,2023-09-12,1,,,,,スタディプラス,0
1372,6010903008447,新規,0,2023-09-12,2023-09-12,合同会社夢玄円,,合同会社,東京都,世田谷区,瀬田５丁目３８－１２パークハウスＦ１０３号室,,13,112,1580095,,,,,,,2023-09-12,1,,,,,ムゲンエン,0
1380,6011001156824,新規,0,2023-09-12,2023-09-12,株式会社ＰＧファーム,,株式会社,東京都,渋谷区,富ヶ谷１丁目１４番１４号４階,,13,113,1510063,,,,,,,2023-09-12,1,,,,,ピージーファーム,0
1381,6011001156931,新規,0,2023-09-12,2023-09-12,株式会社Ｓｕｎｎｙｓｉｄｅ,,株式会社,東京都,渋谷区,千駄ヶ谷３丁目３５番３号,,13,113,1510051,,,,,,,2023-09-12,1,,,,,サニーサイド,0
1386,6011003017495,新規,0,2023-09-12,2023-09-12,合同会社ハンズアップ,,合同会社,東京都,渋谷区,恵比寿西１丁目３３番６号１Ｆ,,13,113,1500021,,,,,,,2023-09-12,1,,,,,ハンズアップ,0
1387,6011101104328,新規,0,2023-09-12,2023-09-12,ＳＥＮＳＥ　ＥＮＴＥＲＴＡＩＮＭＥＮＴ株式会社,,株式会社,東京都,新宿区,大久保２丁目９番１号ヴィルフォーレ新宿５０６,,13,104,1690072,,,,,,,2023-09-12,1,,,,,センスエンタテインメント,0
1391,6011401025439,新規,0,2023-09-12,2023-09-12,株式会社ＵＣＲＦ,,株式会社,東京都,板橋区,坂下３丁目４番１号,,13,119,1740043,,,,,,,2023-09-12,1,,,,,ユーシーアールエフ,0
1397,6011501029744,新規,0,2023-09-12,2023-09-12,Ｓｕｎｒｉｓｅ　Ｍａｔｅｒｉａｌｓ　Ｔｅｃｈｎｏｌｏｇｙ株式会社,,株式会社,東京都,荒川区,南千住３丁目２７－２浅草ビル５０８,,13,118,1160003,,,,,,,2023-09-12,1,,,,,サンライズマテリアルズテクノロジー,0
1399,6011803005823,新規,0,2023-09-12,2023-09-12,エコパワー合同会社,,合同会社,東京都,足立区,千住曙町３９番５－７０２号,,13,121,1200023,,,,,,,2023-09-12,1,,,,,エコパワー,0
1401,6012301013590,新規,0,2023-09-12,2023-09-12,株式会社ＴＪＫ,,株式会社,東京都,町田市,忠生２丁目２９番地１４,,13,209,1940035,,,,,,,2023-09-12,1,,,,,ティジェイケイ,0
1405,6012801022620,新規,0,2023-09-12,2023-09-12,サファイア声学株式会社,,株式会社,東京都,立川市,羽衣町３丁目３－２３,,13,202,1900021,,,,,,,2023-09-12,1,,,,,サファイアセイガク,0
1406,6012803003180,新規,0,2023-09-12,2023-09-12,合同会社Ｈｆｅｔｙ,,合同会社,東京都,国立市,泉３丁目２２番地の５,,13,215,1860012,,,,,,,2023-09-12,1,,,,,ヘフティ,0
1409,6013103001263,新規,0,2023-09-12,2023-09-12,ＦＯＣＵＳ合同会社,,合同会社,東京都,福生市,大字福生１１５９－１６,,13,218,1970011,,,,,,,2023-09-12,1,,,,,,0
1422,6021001080164,新規,0,2023-09-12,2023-09-12,株式会社小松総建,,株式会社,神奈川県,愛甲郡愛川町,中津１５７８番地の１,,14,401,2430303,,,,,,,2023-09-12,1,,,,,コマツソウケン,0
1430,6030001155941,新規,0,2023-09-12,2023-09-12,株式会社小堀畳店,,株式会社,埼玉県,久喜市,本町１丁目９－６,,11,232,3460005,,,,,,,2023-09-12,1,,,,,コボリタタミテン,0
1431,6030001156064,新規,0,2023-09-12,2023-09-12,株式会社医学アカデミー,,株式会社,埼玉県,川越市,中台元町１丁目１８番地１,,11,201,3501138,,,,,,,2023-09-12,1,,,,,イガクアカデミー,0
1445,6040001130035,新規,0,2023-09-12,2023-09-12,ライトシンク株式会社,,株式会社,千葉県,松戸市,松戸１２４０番地の３エクセル松戸５０２号,,12,207,2710092,,,,,,,2023-09-12,1,,,,,ライトシンク,0
1446,6040001130051,新規,0,2023-09-12,2023-09-12,株式会社大河,,株式会社,千葉県,千葉市花見川区,幕張本郷４丁目１２番１１号,,12,102,2620033,,,,,,,2023-09-12,1,,,,,タイガ,0
1447,6040001130068,新規,0,2023-09-12,2023-09-12,チームダックス株式会社,,株式会社,千葉県,習志野市,東習志野５丁目１９番１５号,,12,216,2750001,,,,,,,2023-09-12,1,,,,,チームダックス,0
1453,6040003023261,新規,0,2023-09-12,2023-09-12,合同会社天天,,合同会社,千葉県,松戸市,栄町西５丁目１３２５番地の５,,12,207,2710061,,,,,,,2023-09-12,1,,,,,テンテン,0
1454,6040003023311,新規,0,2023-09-12,2023-09-12,合同会社山本工業,,合同会社,千葉県,印旛郡酒々井町,墨２６９,,12,322,2850913,,,,,,,2023-09-12,1,,,,,ヤマモトコウギョウ,0
1455,6050001053391,新規,0,2023-09-12,2023-09-12,株式会社つくばグランドホテル,,株式会社,茨城県,つくば市,筑波１０５０番地１,,08,220,3004352,,,,,,,2023-09-12,1,,,,,ツクバグランドホテル,0
1456,6050001053441,新規,0,2023-09-12,2023-09-12,株式会社ＧＬＯＲＹ,,株式会社,茨城県,石岡市,川又７３７番地９,,08,205,3150134,,,,,,,2023-09-12,1,,,,,グローリー,0
1462,6070001040826,新規,0,2023-09-12,2023-09-12,株式会社ワールドハウス,,株式会社,群馬県,前橋市,亀里町１１７７番地,,10,201,3792147,,,,,,,2023-09-12,1,,,,,ワールドハウス,0
1463,6070001040834,新規,0,2023-09-12,2023-09-12,株式会社ワンサポ不動産,,株式会社,群馬県,高崎市,菊地町２９５番地８,,10,202,3700084,,,,,,,2023-09-12,1,,,,,ワンサポフドウサン,0
1464,6070005010172,新規,0,2023-09-12,2023-09-12,一般社団法人情報工学協会,,その他の設立登記法人,群馬県,高崎市,岩押町８番６号,,10,202,3700044,,,,,,,2023-09-12,1,,,,,ジョウホウコウガクキョウカイ,0
1486,6120001257852,新規,0,2023-09-12,2023-09-12,株式会社匠,,株式会社,大阪府,大阪市東淀川区,菅原２丁目９番３１号２Ｂ号,,27,114,5330022,,,,,,,2023-09-12,1,,,,,タクミ,0
1487,6120001257860,新規,0,2023-09-12,2023-09-12,株式会社いかるが,,株式会社,大阪府,大阪市中央区,難波千日前１１番２４号,,27,128,5420075,,,,,,,2023-09-12,1,,,,,イカルガ,0
1488,6120001257885,新規,0,2023-09-12,2023-09-12,株式会社ＷＨＩＴＥ　ＣＯＡＴ,,株式会社,大阪府,大阪市北区,天満２丁目１２番３号ヴィレッジリバー南森町５Ｄ号室,,27,127,5300043,,,,,,,2023-09-12,1,,,,,ホワイトコート,0
1489,6120001257893,新規,0,2023-09-12,2023-09-12,株式会社アイビーフレッシュ,,株式会社,大阪府,大阪市都島区,都島北通２丁目１８番１８－３０６号,,27,102,5340014,,,,,,,2023-09-12,1,,,,,アイビーフレッシュ,0
1490,6120001257976,新規,0,2023-09-12,2023-09-12,株式会社ＥＫＯＬＵ,,株式会社,大阪府,大阪市西成区,橘２丁目７番１６号,,27,122,5570051,,,,,,,2023-09-12,1,,,,,エコル,0
1491,6120001258000,新規,0,2023-09-12,2023-09-12,大龍株式会社,,株式会社,大阪府,大阪市住吉区,長居２丁目１０番３－２０７号,,27,120,5580003,,,,,,,2023-09-12,1,,,,,ダイリュウ,0
1492,6120003024838,新規,0,2023-09-12,2023-09-12,合同会社Ｍ＆Ｔ建装,,合同会社,大阪府,大阪市中央区,島之内２丁目６番１６号,,27,128,5420082,,,,,,,2023-09-12,1,,,,,エムアンドティーケンソウ,0
1493,6120003024846,新規,0,2023-09-12,2023-09-12,合同会社ＳＴＯＲＫ,,合同会社,大阪府,守口市,大宮通１丁目７番８号,,27,209,5700033,,,,,,,2023-09-12,1,,,,,ストーク,0
1500,6120103005424,新規,0,2023-09-12,2023-09-12,合同会社Ｍｅ　ａｎｄ　Ｙｕ,,合同会社,大阪府,堺市東区,北野田１番地６フロントタワー８０７号,,27,143,5998123,,,,,,,2023-09-12,1,,,,,ミーアンドユー,0
1501,6120103005432,新規,0,2023-09-12,2023-09-12,合同会社Ｒｉｔｓｕ,,合同会社,大阪府,岸和田市,稲葉町９６７番地,,27,202,5960103,,,,,,,2023-09-12,1,,,,,リツ,0
1504,6120105009761,新規,0,2023-09-12,2023-09-12,特定非営利活動法人ａｉｒ,,その他の設立登記法人,大阪府,堺市西区,浜寺諏訪森町中１丁８０番地１フジパレス諏訪ノ森ＶＩＩ番館１０１号,00131888,27,144,5928348,,,,,,,2023-09-12,1,,,,,エアー,0
1507,6122001037359,新規,0,2023-09-12,2023-09-12,株式会社リリーフル,,株式会社,大阪府,八尾市,服部川７丁目１０６番地,,27,212,5810865,,,,,,,2023-09-12,1,,,,,リリーフル,0
1509,6130001075139,新規,0,2023-09-12,2023-09-12,株式会社ゆい,,株式会社,京都府,亀岡市,南つつじケ丘桜台４丁目８番１４号,,26,206,6210847,,,,,,,2023-09-12,1,,,,,ユイ,0
1515,6140001131543,新規,0,2023-09-12,2023-09-12,ａｓａｐ　Ｌａｎｇｅ　Ｊａｐａｎ株式会社,,株式会社,兵庫県,神戸市中央区,播磨町４９番地神戸旧居留地平和ビル７階,,28,110,6500036,,,,,,,2023-09-12,1,,,,,エーエスエーピーランゲジャパン,0
1516,6140001131551,新規,0,2023-09-12,2023-09-12,ＲＵＳＹ株式会社,,株式会社,兵庫県,神戸市東灘区,深江北町５丁目６番２１－１０４号,,28,101,6580013,,,,,,,2023-09-12,1,,,,,ルーシ,0
1517,6140001131568,新規,0,2023-09-12,2023-09-12,泉州貿易株式会社,,株式会社,兵庫県,神戸市灘区,水道筋１丁目１９番４号,,28,102,6570831,,,,,,,2023-09-12,1,,,,,センシュウボウエキ,0
1539,6200001041711,新規,0,2023-09-12,2023-09-12,Ｌｉｖｅ＆．株式会社,,株式会社,岐阜県,大垣市,東外側町１丁目１番地７,,21,202,5030903,,,,,,,2023-09-12,1,,,,,リブアンド,0
1548,6240003006304,新規,0,2023-09-12,2023-09-12,ＣＬＴ合同会社,,合同会社,広島県,安芸郡府中町,宮の町４丁目１２番２２号,,34,302,7350005,,,,,,,2023-09-12,1,,,,,,0
1556,6290801029864,新規,0,2023-09-12,2023-09-12,株式会社ＭＹ　ＨＯＭＥ,,株式会社,福岡県,北九州市小倉南区,若園２丁目２５番３－１０２号,,40,107,8020816,,,,,,,2023-09-12,1,,,,,マイホーム,0
1561,6300005007153,新規,0,2023-09-12,2023-09-12,一般社団法人終活支援協会,,その他の設立登記法人,佐賀県,佐賀市,木原３丁目８番２５号,,41,201,8400015,,,,,,,2023-09-12,1,,,,,シュウカツシエンキョウカイ,0
1585,6420003002796,新規,0,2023-09-12,2023-09-12,合同会社丸高興業,00131880,合同会社,青森県,青森市,大字荒川字品川１２６番地９,,02,201,0300111,,,,,,,2023-09-12,1,,,,,マルタカコウギョウ,0
1594,6470005006527,新規,0,2023-09-12,2023-09-12,行政書士法人高松車庫・登録センター,,その他の設立登記法人,香川県,高松市,瀬戸内町１４番１４号,,37,201,7600012,,,,,,,2023-09-12,1,,,,,タカマツシャコトウロクセンター,0
1595,6480001012206,新規,0,2023-09-12,2023-09-12,株式会社労働安全研究所,,株式会社,徳島県,吉野川市,鴨島町鴨島３４９番地,,36,205,7760010,,,,,,,2023-09-12,1,,,,,ロウドウアンゼンケンキュウショ,0
1596,6490001010588,新規,0,2023-09-12,2023-09-12,株式会社セイシン,,株式会社,高知県,高知市,介良４１０番地,,39,201,7815104,,,,,,,2023-09-12,1,,,,,セイシン,0
1601,6700150119340,新規,0,2023-09-12,2023-08-25,福井県ＩＴ産業団体連合会,,その他,福井県,坂井市,丸岡町熊堂３－７－１－１６,,18,210,9100347,,,,,,,2023-08-25,1,,,,,フクイケンアイテイーサンギヨウダンタイレンゴウカイ,0
1602,6700150120117,新規,0,2023-09-12,2023-09-12,ＺＩＭ　Ｉｎｔｅｇｒａｔｅｄ　Ｓｈｉｐｐｉｎｇ　Ｓｅｒｖｉｃｅｓ　Ｌｔｄ．,,外国会社等,,,,,,,,９　Ａｎｄｒｅｉ　Ｓａｋｈａｒｏｖ　Ｓｔ．，Ｐ．Ｏ．Ｂｏｘ　１５０６７，Ｈａｉｆａ，３１９０５００　Ｉｓｒａｅｌ,,,,,,2023-09-12,1,,,,,ジムインテグレイティッドシッピングサービスエルティーディー,0
1612,7010001238326,新規,0,2023-09-12,2023-09-12,ＪＹＲＫ株式会社,,株式会社,東京都,千代田区,神田神保町３丁目１１番地１－５０７,,13,101,1010051,,,,,,,2023-09-12,1,,,,,ジェイワイアールケー,0
1613,7010001238383,新規,0,2023-09-12,2023-09-12,株式会社未来創医療,,株式会社,東京都,中央区,京橋２丁目８番４号オックスフォードビル３０２,,13,102,1040031,,,,,,,2023-09-12,1,,,,,ミライソウイリョウ,0
1614,7010001238409,新規,0,2023-09-12,2023-09-12,株式会社ユーロＥＵ館,,株式会社,東京都,中央区,佃１丁目１１番９－１１０９号,,13,102,1040051,,,,,,,2023-09-12,1,,,,,ユーロイーユーカン,0
1621,7010005037253,新規,0,2023-09-12,2023-09-12,一般社団法人大起,,その他の設立登記法人,東京都,中央区,築地４丁目４番１４号,,13,102,1040045,,,,,,,2023-09-12,1,,,,,タイキ,0
1626,7010401176968,新規,0,2023-09-12,2023-09-12,龍峰株式会社,,株式会社,東京都,港区,南青山２丁目２番１５号ウィン青山３１２号室,,13,103,1070062,,,,,,,2023-09-12,1,,,,,リュウホウ,0
1627,7010401177074,新規,0,2023-09-12,2023-09-12,株式会社ＣＡＲＡＱＵＲＩ．Ｉｎｃ,,株式会社,東京都,港区,高輪２丁目１５－５－４０１,,13,103,1080074,,,,,,,2023-09-12,1,,,,,カラクリ,0
1632,7010501051030,新規,0,2023-09-12,2023-09-12,東京非凡テクノロジー株式会社,,株式会社,東京都,台東区,上野６丁目７番１６号川久保ビル７０８号室,,13,106,1100005,,,,,,,2023-09-12,1,,,,,トウキョウヒボンテクノロジー,0
1634,7010601063768,新規,0,2023-09-12,2023-09-12,株式会社黒姫ホールディングス,,株式会社,東京都,江東区,豊洲６丁目２番３１－３３１１号,,13,108,1350061,,,,,,,2023-09-12,1,,,,,クロヒメホールディングス,0
1635,7010701044833,新規,0,2023-09-12,2023-09-12,株式会社レレレ,,株式会社,東京都,品川区,戸越６丁目１８番５号戸越ＮＫビル,,13,109,1420041,,,,,,,2023-09-12,1,,,,,レレレ,0
1646,7011001156823,新規,0,2023-09-12,2023-09-12,株式会社Ｐ＆Ｓ,,株式会社,東京都,渋谷区,富ヶ谷１丁目１４番１４号スタンフォードアネックスビル３Ｆ,,13,113,1510063,,,,,,,2023-09-12,1,,,,,ピーアンドエス,0
1647,7011001156914,新規,0,2023-09-12,2023-09-12,株式会社エムシーツー,,株式会社,東京都,渋谷区,恵比寿西１丁目３３番６号,,13,113,1500021,,,,,,,2023-09-12,1,,,,,エムシーツー,0
1654,7011101104277,新規,0,2023-09-12,2023-09-12,株式会社ＲＲ,,株式会社,東京都,新宿区,歌舞伎町２丁目４５番１７号,,13,104,1600021,,,,,,,2023-09-12,1,,,,,アールアール,0
1655,7011101104343,新規,0,2023-09-12,2023-09-12,株式会社ドリームオン,,株式会社,東京都,新宿区,百人町２丁目２５番１号,,13,104,1690073,,,,,,,2023-09-12,1,,,,,ドリームオン,0
1656,7011105010777,新規,0,2023-09-12,2023-09-12,一般社団法人雅楽協会,,その他の設立登記法人,東京都,新宿区,西新宿６丁目５番１号新宿アイランドタワー２階,,13,104,1600023,,,,,,,2023-09-12,1,,,,,ガガクキョウカイ,0
1659,7011401025446,新規,0,2023-09-12,2023-09-12,ＴＲＹ　ａｎｄ　ＣＯ株式会社,,株式会社,東京都,板橋区,常盤台３丁目２２番３号,,13,119,1740071,,,,,,,2023-09-12,1,,,,,トライアンドコー,0
1663,7011501029743,新規,0,2023-09-12,2023-09-12,ＴＯＫＥＬＡ株式会社,,株式会社,東京都,荒川区,南千住３丁目２７－２浅草ビル５０８,,13,118,1160003,,,,,,,2023-09-12,1,,,,,トケラ,0
1669,7012401040996,新規,0,2023-09-12,2023-09-12,株式会社Ａｎｄ４．ＰＲＯＪＥＣＴ,,株式会社,東京都,三鷹市,下連雀３丁目３７番２５－３０２号,,13,204,1810013,,,,,,,2023-09-12,1,,,,,アンドフォープロジェクト,0
1670,7012405004898,新規,0,2023-09-12,2023-09-12,医療法人社団博恵会,,その他の設立登記法人,東京都,調布市,仙川町１丁目１４番２２花輪ビル１階,,13,208,1820002,,,,,,,2023-09-12,1,,,,,ハクケイカイ,0
1671,7012701017835,新規,0,2023-09-12,2023-09-12,株式会社ウォルデン,,株式会社,東京都,西東京市,新町１丁目１４番２号,,13,229,2020023,,,,,,,2023-09-12,1,,,,,ウォルデン,0
1675,7020001153458,新規,0,2023-09-12,2023-09-12,株式会社Ｙ’ｓ・ＵＰ,,株式会社,神奈川県,横浜市鶴見区,駒岡４丁目１２番５－３号,,14,101,2300071,,,,,,,2023-09-12,1,,,,,,0
1676,7020001153490,新規,0,2023-09-12,2023-09-12,株式会社横濱ルミエールワイナリー,,株式会社,神奈川県,横浜市中区,南仲通４丁目４９番地,,14,104,2310006,,,,,,,2023-09-12,1,,,,,ヨコハマルミエールワイナリー,0
1681,7020003024533,新規,0,2023-09-12,2023-09-12,合同会社ロコスタイル,,合同会社,神奈川県,横浜市都筑区,池辺町２２３０番地１２,,14,118,2240053,,,,,,,2023-09-12,1,,,,,ロコスタイル,0
1682,7020005016116,新規,0,2023-09-12,2023-09-12,行政書士法人プロシアス総合法務事務所,,その他の設立登記法人,神奈川県,横浜市中区,尾上町１丁目４番地１関内ＳＴビル９階,,14,104,2310015,,,,,,,2023-09-12,1,,,,,,0
1702,7030003022478,新規,0,2023-09-12,2023-09-12,合同会社Ｓ．Ｓ,,合同会社,埼玉県,三郷市,中央１丁目２番地１ザ・ライオンズ三郷中央７１０号,,11,237,3410038,,,,,,,2023-09-12,1,,,,,エスドットエス,0
1703,7030003022569,新規,0,2023-09-12,2023-09-12,ＬＩＭインフィニティ合同会社,,合同会社,埼玉県,さいたま市南区,南浦和３丁目２１番１－４１７号,,11,108,3360017,,,,,,,2023-09-12,1,,,,,エルアイエムインフィニティ,0
1711,7040001130050,新規,0,2023-09-12,2023-09-12,株式会社エムケイホールディングス,,株式会社,千葉県,千葉市中央区,栄町４１番地６ＹＫ１１ビル３階,,12,101,2600016,,,,,,,2023-09-12,1,,,,,エムケイホールディングス,0
1714,7040003023327,新規,0,2023-09-12,2023-09-12,合同会社ＥＳＰＡＤＡ,,合同会社,千葉県,松戸市,日暮５丁目１９５番地,,12,207,2702253,,,,,,,2023-09-12,1,,,,,イスパーダ,0
1715,7050001053424,新規,0,2023-09-12,2023-09-12,ＬＴＹ株式会社,,株式会社,茨城県,神栖市,知手中央４丁目１２番１７号,,08,232,3140112,,,,,,,2023-09-12,1,,,,,エルティワイ,0
1716,7050001053457,新規,0,2023-09-12,2023-09-12,株式会社末廣,00131886,株式会社,茨城県,守谷市,御所ケ丘２丁目１１－２,,08,224,3020119,,,,,,,2023-09-12,1,,,,,スエヒロ,0
1723,7070001040833,新規,0,2023-09-12,2023-09-12,株式会社リビルド．,,株式会社,群馬県,伊勢崎市,西小保方町３８８番地１０,,10,204,3792224,,,,,,,2023-09-12,1,,,,,リビルド,0
1724,7070001040841,新規,0,2023-09-12,2023-09-12,株式会社Ｋ‐Ｄライフ,,株式会社,群馬県,太田市,矢場町２６７６番地１２,,10,205,3730803,,,,,,,2023-09-12,1,,,,,,0
1725,7070001040866,新規,0,2023-09-12,2023-09-12,株式会社フォックス,,株式会社,群馬県,北群馬郡榛東村,大字新井２６５９番地１ロビンＢ１０２,,10,344,3703503,,,,,,,2023-09-12,1,,,,,フォックス,0
1730,7080401026720,新規,0,2023-09-12,2023-09-12,株式会社アスライト,,株式会社,静岡県,浜松市中区,和合町１４５番地の３アルコリバーサイド１０３号室,,22,131,4338125,,,,,,,2023-09-12,1,,,,,アスライト,0
1735,7100001036745,新規,0,2023-09-12,2023-09-12,株式会社ｋｉｃｈｉｎｏ,,株式会社,長野県,岡谷市,長地鎮１丁目５番１１－１号,,20,204,3940087,,,,,,,2023-09-12,1,,,,,キチノ,0
1736,7110001037833,新規,0,2023-09-12,2023-09-12,株式会社吉崎,,株式会社,新潟県,長岡市,十日町１８９６番地,,15,202,9401131,,,,,,,2023-09-12,1,,,,,ヨシザキ,0
1740,7110003005160,新規,0,2023-09-12,2023-09-12,合同会社大地の恵み,,合同会社,新潟県,長岡市,中潟町３３３番地,,15,202,9401135,,,,,,,2023-09-12,1,,,,,ダイチノメグミ,0
1744,7120001059785,新規,0,2023-09-12,2023-09-12,株式会社アイ・ケイ商事,,株式会社,大阪府,大阪市北区,天神橋２丁目２番８－３０２号,,27,127,5300041,,,,,,,2023-09-12,1,,,,,アイケイショウジ,0
1750,7120001257819,新規,0,2023-09-12,2023-09-12,株式会社ＥＣＯＳ,,株式会社,大阪府,大阪市阿倍野区,晴明通１１番１１号,,27,119,5450032,,,,,,,2023-09-12,1,,,,,エコーズ,0
1751,7120001257835,新規,0,2023-09-12,2023-09-12,株式会社神和建設,,株式会社,大阪府,大阪市鶴見区,横堤３丁目７番４号,,27,124,5380052,,,,,,,2023-09-12,1,,,,,シンワケンセツ,0
1752,7120001257918,新規,0,2023-09-12,2023-09-12,株式会社ＵＮＩＯＮ,,株式会社,大阪府,大阪市大正区,小林西１丁目９番１３号,,27,108,5510013,,,,,,,2023-09-12,1,,,,,ユニオン,0
1753,7120001257934,新規,0,2023-09-12,2023-09-12,株式会社エトセトラ,,株式会社,大阪府,大阪市西淀川区,佃３丁目１１番１０号１Ｆ,,27,113,5550001,,,,,,,2023-09-12,1,,,,,エトセトラ,0
1754,7120001257942,新規,0,2023-09-12,2023-09-12,株式会社いとぐち,,株式会社,大阪府,大阪市西区,南堀江２丁目１－１０スターレジデンス南堀江９０２,,27,106,5500015,,,,,,,2023-09-12,1,,,,,イトグチ,0
1755,7120001257959,新規,0,2023-09-12,2023-09-12,株式会社ＭＩＫＡＴＡ　ＥＳＴＡＴＥ,,株式会社,大阪府,大阪市福島区,福島７丁目１４番１８号,,27,103,5530003,,,,,,,2023-09-12,1,,,,,ミカタエステート,0
1763,7120901048037,新規,0,2023-09-12,2023-09-12,株式会社はとあ,,株式会社,大阪府,高槻市,塚原４丁目１３番９号,,27,207,5691046,,,,,,,2023-09-12,1,,,,,ハトア,0
1768,7122001037358,新規,0,2023-09-12,2023-09-12,株式会社のぞみ,,株式会社,大阪府,八尾市,桜ヶ丘１丁目１０番地２,,27,212,5810869,,,,,,,2023-09-12,1,,,,,ノゾミ,0
1769,7122003002665,新規,0,2023-09-12,2023-09-12,ＡＮＡＮ合同会社,,合同会社,大阪府,八尾市,松山町２丁目１２－１２,,27,212,5810088,,,,,,,2023-09-12,1,,,,,アンアン,0
1774,7130001075121,新規,0,2023-09-12,2023-09-12,株式会社ＷＰＲ,,株式会社,京都府,八幡市,八幡女郎花１番地,,26,210,6148077,,,,,,,2023-09-12,1,,,,,ダブリューピーアール,0
1775,7130001075146,新規,0,2023-09-12,2023-09-12,株式会社山本商店龍栄堂,,株式会社,京都府,京都市東山区,清水１丁目２６１番地,,26,105,6050862,,,,,,,2023-09-12,1,,,,,ヤマモトショウテンリュウエイドウ,0
1778,7130003008962,新規,0,2023-09-12,2023-09-12,合同会社ツチノコプロ,,合同会社,京都府,京都市左京区,岩倉西河原町３８番地リラフォート四季彩２０５号,,26,103,6060014,,,,,,,2023-09-12,1,,,,,ツチノコプロ,0
1779,7140001131451,新規,0,2023-09-12,2023-09-12,株式会社ミナティック,,株式会社,兵庫県,三田市,狭間が丘５丁目４番地３棟１０７号,,28,219,6691545,,,,,,,2023-09-12,1,,,,,ミナティック,0
1780,7140001131559,新規,0,2023-09-12,2023-09-12,ランペ株式会社,,株式会社,兵庫県,神戸市垂水区,塩屋北町３丁目５－３,,28,108,6550863,,,,,,,2023-09-12,1,,,,,ランペ,0
1781,7140001131567,新規,0,2023-09-12,2023-09-12,株式会社Ｒａｙ工業,,株式会社,兵庫県,尼崎市,南武庫之荘９丁目１４番４号,,28,202,6610033,,,,,,,2023-09-12,1,,,,,レイコウギョウ,0
1784,7140005026739,新規,0,2023-09-12,2023-09-12,特定非営利活動法人ビジービーク＆テイル,,その他の設立登記法人,兵庫県,尼崎市,立花町３丁目１４番３号シャローム中村２番館３０１号,,28,202,6610025,,,,,,,2023-09-12,1,,,,,ビジービークアンドテイル,0
1785,7160001025338,新規,0,2023-09-12,2023-09-12,サポートアドバンス株式会社,,株式会社,滋賀県,野洲市,三上１９０３番地１２,,25,210,5202323,,,,,,,2023-09-12,1,,,,,サポートアドバンス,0
1786,7160003002987,新規,0,2023-09-12,2023-09-12,合同会社ぼあーと,,合同会社,滋賀県,甲賀市,甲南町希望ケ丘３丁目７番地３,,25,209,5203333,,,,,,,2023-09-12,1,,,,,ボアート,0
1789,7180001157889,新規,0,2023-09-12,2023-09-12,株式会社ＴＤＮ,,株式会社,愛知県,名古屋市中区,新栄１丁目１２番３１号シャインアルファビル３Ｆ,,23,106,4600007,,,,,,,2023-09-12,1,,,,,ティーディーエヌ,0
1794,7180301037799,新規,0,2023-09-12,2023-09-12,株式会社水谷電機,,株式会社,愛知県,岡崎市,宇頭町字山ノ神４４番地１,,23,202,4440905,,,,,,,2023-09-12,1,,,,,ミズタニデンキ,0
1798,7180303005829,新規,0,2023-09-12,2023-09-12,合同会社Ｍ,,合同会社,愛知県,岡崎市,小呂町字２丁目７８番地１,,23,202,4440009,,,,,,,2023-09-12,1,,,,,エム,0
1809,7240001062109,新規,0,2023-09-12,2023-09-12,株式会社ＤＥＬＴＡエステート,,株式会社,広島県,安芸郡府中町,桃山２丁目７番２６号,,34,302,7350026,,,,,,,2023-09-12,1,,,,,デルタエステート,0
1810,7240003006303,新規,0,2023-09-12,2023-09-12,合同会社ＫＯＧＡＭＥ,,合同会社,広島県,広島市東区,尾長西１丁目６番１号グローバル三本松１階Ｅ号,,34,102,7320047,,,,,,,2023-09-12,1,,,,,コガメ,0
1811,7260001038296,新規,0,2023-09-12,2023-09-12,株式会社オートテック,,株式会社,岡山県,倉敷市,日畑４１６番地１,,33,202,7010101,,,,,,,2023-09-12,1,,,,,オートテック,0
1813,7260003004429,新規,0,2023-09-12,2023-09-12,ＪＣ‐ＴＥＣＨ合同会社,,合同会社,岡山県,岡山市東区,政津５３６番地２,,33,103,7048165,,,,,,,2023-09-12,1,,,,,ジェーシーテック,0
1814,7270001008835,新規,0,2023-09-12,2023-09-12,ＫＡＢＡＫＡ株式会社,,株式会社,鳥取県,西伯郡大山町,鈑戸１５４２番地１０８セジュール大山Ａ棟１０５号室,,31,386,6893317,,,,,,,2023-09-12,1,,,,,カバカ,0
1816,7290001102900,新規,0,2023-09-12,2023-09-12,株式会社ＦＣＬ,,株式会社,福岡県,福岡市博多区,美野島３丁目８番１０号,,40,132,8120017,,,,,,,2023-09-12,1,,,,,エフシーエル,0
1819,7290003014342,新規,0,2023-09-12,2023-09-12,合同会社高園運送,,合同会社,福岡県,福岡市中央区,港２丁目２番２４号,,40,133,8100075,,,,,,,2023-09-12,1,,,,,タカゾノウンソウ,0
1823,7300003002023,新規,0,2023-09-12,2023-09-12,ノベル合同会社,,合同会社,佐賀県,佐賀市,水ヶ江２丁目４番５号,,41,201,8400054,,,,,,,2023-09-12,1,,,,,ノベル,0
1827,7310001006891,新規,0,2023-09-12,2023-09-12,株式会社アイネット,,株式会社,長崎県,南松浦郡新上五島町,青方郷１８０６番地６１,,42,411,8574404,,,,,,,2023-09-12,1,,,,,アイネット,0
1828,7310001018598,新規,0,2023-09-12,2023-09-12,三和サービス株式会社,,株式会社,長崎県,南島原市,西有家町須川１１９７番地４６,,42,214,8592212,,,,,,,2023-09-12,1,,,,,サンワサービス,0
1830,7320001020000,新規,0,2023-09-12,2023-09-12,藤野建設株式会社,,株式会社,大分県,中津市,大字大悟法６９６番地,,44,203,8710151,,,,,,,2023-09-12,1,,,,,フジノケンセツ,0
1839,7340003004247,新規,0,2023-09-12,2023-09-12,種子島水産合同会社,,合同会社,鹿児島県,熊毛郡南種子町,島間１５１０番地１,,46,502,8913706,,,,,,,2023-09-12,1,,,,,タネガシマスイサン,0
1848,7380005012748,新規,0,2023-09-12,2023-09-12,一般社団法人ＣＡＰ高等学院,,その他の設立登記法人,福島県,福島市,小倉寺字経塚山２１－５,,07,201,9608142,,,,,,,2023-09-12,1,,,,,キャップコウトウガクイン,0
1850,7420001018406,新規,0,2023-09-12,2023-09-12,株式会社クリーンファーム前田,,株式会社,青森県,五所川原市,金木町神原桜元１９番地１,,02,205,0370206,,,,,,,2023-09-12,1,,,,,クリーンファームマエダ,0
1853,7430001089909,新規,0,2023-09-12,2023-09-12,株式会社健電工業,,株式会社,北海道,札幌市北区,北二十九条西５丁目２番１５号ルミエールＨＩＤＥ１０５号,,01,102,0010029,,,,,,,2023-09-12,1,,,,,タケデンコウギョウ,0
1854,7430001089958,新規,0,2023-09-12,2023-09-12,株式会社ロジ北倉Ｍ＆Ｎ,,株式会社,北海道,札幌市南区,石山一条２丁目８番５－１１１号,,01,106,0050841,,,,,,,2023-09-12,1,,,,,ロジキタクラエムアンドエヌ,0
1858,7470001019804,新規,0,2023-09-12,2023-09-12,株式会社ａｍｕｓａｎｔ,,株式会社,香川県,仲多度郡まんのう町,炭所西１７０８番地,,37,406,7660017,,,,,,,2023-09-12,1,,,,,アミュゾン,0
1863,7700150094145,新規,0,2023-09-12,2019-05-13,全国鉢物類振興プロジェクト協議会,,その他,東京都,中央区,東日本橋３丁目６－１７山一ビル４Ｆ,,13,102,1030004,,,,,,,2019-05-13,1,,,,,ゼンコクハチモノルイシンコウプロジエクトキヨウギカイ,0
1869,8010003041636,新規,0,2023-09-12,2023-09-12,ミッツンジー・アンド・カンパニー合同会社,,合同会社,東京都,千代田区,神田小川町１丁目１１番地ローレルアイ千代田淡路町１１０２号,,13,101,1010052,,,,,,,2023-09-12,1,,,,,ミッツンジーアンドカンパニー,0
1870,8010003041644,新規,0,2023-09-12,2023-09-12,合同会社グリーン信用サービス,,合同会社,東京都,千代田区,丸の内３丁目１番１号東京共同会計事務所内,,13,101,1000005,,,,,,,2023-09-12,1,,,,,グリーンシンヨウサービス,0
1874,8010105002230,新規,0,2023-09-12,2023-09-12,一般社団法人新井クリニック,,その他の設立登記法人,東京都,八王子市,横山町１番９号１０１,,13,201,1920081,,,,,,,2023-09-12,1,,,,,アライクリニック,0
1881,8010401176967,新規,0,2023-09-12,2023-09-12,未末株式会社,,株式会社,東京都,港区,南青山２丁目２番１５号ウィン青山３１２号室,,13,103,1070062,,,,,,,2023-09-12,1,,,,,ミマ,0
1882,8010401177065,新規,0,2023-09-12,2023-09-12,株式会社ＲＩＤＤＥＲ　ＪＡＰＡＮ,,株式会社,東京都,港区,赤坂４丁目８番１９号,,13,103,1070052,,,,,,,2023-09-12,1,,,,,リダージャパン,0
1883,8010401177073,新規,0,2023-09-12,2023-09-12,ＣＣＩ株式会社,,株式会社,東京都,港区,芝５丁目３２－１２シャーメゾンステージ田町３Ｆ,,13,103,1080014,,,,,,,2023-09-12,1,,,,,シーシーアイ,0
1884,8010403030899,新規,0,2023-09-12,2023-09-12,Ａｌｂｕｌａ　ＩＢＬＰ合同会社,,合同会社,東京都,港区,西新橋１丁目１番１号ＥＰコンサルティングサービス内,,13,103,1050003,,,,,,,2023-09-12,1,,,,,,0
1887,8010501051021,新規,0,2023-09-12,2023-09-12,株式会社ＭＨＹＵ,,株式会社,東京都,台東区,元浅草４丁目４番地１６藤和シティホームズ元浅草４０２,,13,106,1110041,,,,,,,2023-09-12,1,,,,,エムエイチワイユー,0
1889,8010703006863,新規,0,2023-09-12,2023-09-12,合同会社Ｓｕｉ,,合同会社,東京都,品川区,東五反田１丁目１８番１３号５Ｆ,,13,109,1410022,,,,,,,2023-09-12,1,,,,,スイ,0
1890,8010801034320,新規,0,2023-09-12,2023-09-12,株式会社３ＳＰ,,株式会社,東京都,大田区,西蒲田１丁目１番１５－６０１号,,13,111,1440051,,,,,,,2023-09-12,1,,,,,スリーエスピー,0
1895,8011001156814,新規,0,2023-09-12,2023-09-12,ＫＫマネジメント株式会社,,株式会社,東京都,渋谷区,猿楽町２４番地７号代官山プラザ８０４号,,13,113,1500033,,,,,,,2023-09-12,1,,,,,ケイケイマネジメント,0
1898,8011003017485,新規,0,2023-09-12,2023-09-12,Ｑｕｉｃｋ　Ｂｒｏｗｎ　Ｆｏｘ合同会社,,合同会社,東京都,渋谷区,神宮前６丁目２３－４桑野ビル２階,,13,113,1500001,,,,,,,2023-09-12,1,,,,,クイックブラウンフォックス,0
1900,8011101104350,新規,0,2023-09-12,2023-09-12,株式会社ＡＲＤＯＲ　ＧＲＯＷ,,株式会社,東京都,新宿区,西新宿３丁目３番１３号西新宿水間ビル２Ｆ,,13,104,1600023,,,,,,,2023-09-12,1,,,,,アーダーグロー,0
1902,8011103013450,新規,0,2023-09-12,2023-09-12,合同会社ＥＩＧＨＴ,,合同会社,東京都,新宿区,神楽坂５丁目３０番地エムティティ神楽坂３０１,,13,104,1620825,,,,,,,2023-09-12,1,,,,,エイト,0
1903,8011103013467,新規,0,2023-09-12,2023-09-12,合同会社ＧＭＳ,,合同会社,東京都,新宿区,袋町２５番地２５市谷逢坂テラス２０６,,13,104,1620828,,,,,,,2023-09-12,1,,,,,ジーエムエス,0
1904,8011103013475,新規,0,2023-09-12,2023-09-12,合同会社アームネット,,合同会社,東京都,新宿区,西新宿６丁目２０番７号,,13,104,1600023,,,,,,,2023-09-12,1,,,,,アームネット,0
1906,8011301028993,新規,0,2023-09-12,2023-09-12,株式会社ＭＧＭ,,株式会社,東京都,杉並区,宮前５丁目２５番１９号ゼルカヴァ杉並２０２,,13,115,1680081,,,,,,,2023-09-12,1,,,,,エムジーエム,0
1907,8011401025445,新規,0,2023-09-12,2023-09-12,株式会社瓦の橋本,,株式会社,東京都,板橋区,小茂根２丁目２２番３号,,13,119,1730037,,,,,,,2023-09-12,1,,,,,カワラノハシモト,0
1914,8011501029742,新規,0,2023-09-12,2023-09-12,雅士古食品薬品株式会社,,株式会社,東京都,荒川区,南千住３丁目２７－２浅草ビル５０８,,13,118,1160003,,,,,,,2023-09-12,1,,,,,カジコショクヒンヤクヒン,0
1922,8011701026589,新規,0,2023-09-12,2023-09-12,株式会社ルール・ブルー,,株式会社,東京都,江戸川区,西瑞江３丁目５番３７号,,13,123,1320015,,,,,,,2023-09-12,1,,,,,ルールブルー,0
1928,8012701017834,新規,0,2023-09-12,2023-09-12,ウィスインテリア株式会社,,株式会社,東京都,清瀬市,中里３丁目８９０－１８,,13,221,2040003,,,,,,,2023-09-12,1,,,,,ウィスインテリア,0
1932,8013301051315,新規,0,2023-09-12,2023-09-12,株式会社ＧｒｏｗｔｈＳｏｆｔ,,株式会社,東京都,豊島区,南池袋１丁目１６番１５号５Ｆ,,13,116,1710022,,,,,,,2023-09-12,1,,,,,グロースソフト,0
1938,8020001153457,新規,0,2023-09-12,2023-09-12,株式会社ＴＦＳ,,株式会社,神奈川県,横浜市港北区,高田東３丁目３２番２５号オランジュ１０４,,14,109,2230065,,,,,,,2023-09-12,1,,,,,ティーエフエス,0
1942,8020003024532,新規,0,2023-09-12,2023-09-12,合同会社ひと,,合同会社,神奈川県,川崎市宮前区,けやき平１０番１－５０７号,,14,136,2160023,,,,,,,2023-09-12,1,,,,,ヒト,0
1943,8020003024573,新規,0,2023-09-12,2023-09-12,合同会社ＯｗｅＹｏｕＯｎｅ　Ｐｒｏｊｅｃｔ,,合同会社,神奈川県,川崎市多摩区,菅４丁目１２番１,,14,135,2140001,,,,,,,2023-09-12,1,,,,,オゥユーワンプロジェクト,0
1966,8030003022436,新規,0,2023-09-12,2023-09-12,ちゅうよう合同会社,,合同会社,埼玉県,幸手市,中５丁目１６番２５号,,11,240,3400115,,,,,,,2023-09-12,1,,,,,チュウヨウ,0
1974,8040001130041,新規,0,2023-09-12,2023-09-12,株式会社アイム,,株式会社,千葉県,松戸市,竹ケ花西町３０６番地の１３,,12,207,2710071,,,,,,,2023-09-12,1,,,,,アイム,0
1976,8040003023301,新規,0,2023-09-12,2023-09-12,合同会社山口商会,,合同会社,千葉県,いすみ市,大原１０２４１番地２,,12,238,2980004,,,,,,,2023-09-12,1,,,,,ヤマグチショウカイ,0
1980,8070003005098,新規,0,2023-09-12,2023-09-12,合同会社Ｌｉｎｘ,,合同会社,群馬県,太田市,藤阿久町５９６番地Ｙｓマンション１０１号,,10,205,3730034,,,,,,,2023-09-12,1,,,,,リンクス,0
1981,8070005010170,新規,0,2023-09-12,2023-09-12,特定非営利活動法人おさるのしっぽ,,その他の設立登記法人,群馬県,前橋市,上小出町３丁目９番地２９,,10,201,3710037,,,,,,,2023-09-12,1,,,,,オサルノシッポ,0
1991,8100001036744,新規,0,2023-09-12,2023-09-12,フローライト株式会社,,株式会社,長野県,上伊那郡南箕輪村,７２４－２５,,20,385,3994511,,,,,,,2023-09-12,1,,,,,フローライト,0
1993,8100003007173,新規,0,2023-09-12,2023-09-12,合同会社ＤｅｅｐＮｏｒｔｈ,,合同会社,長野県,上水内郡信濃町,大字野尻２８３２,,20,583,3891303,,,,,,,2023-09-12,1,,,,,ディープノース,0
2005,8120001257818,新規,0,2023-09-12,2023-09-12,株式会社日本海拓,,株式会社,大阪府,大阪市東住吉区,杭全４丁目５番４号,,27,121,5460002,,,,,,,2023-09-12,1,,,,,ニホンカイタク,0
2006,8120001257834,新規,0,2023-09-12,2023-09-12,株式会社Ｂａｉｎ　ｂｕｔｔｅｒ,,株式会社,大阪府,大阪市中央区,玉造２丁目２８番１６－６０１号,,27,128,5400004,,,,,,,2023-09-12,1,,,,,ベインバター,0
2007,8120001257958,新規,0,2023-09-12,2023-09-12,株式会社ＭＪＣマネジメント,,株式会社,大阪府,大阪市福島区,福島７丁目１４番１８号,,27,103,5530003,,,,,,,2023-09-12,1,,,,,エムジェイシー,0
2008,8120001258007,新規,0,2023-09-12,2023-09-12,株式会社ロハスキーム,,株式会社,大阪府,大阪市北区,梅田１丁目２番２号大阪駅前第２ビル１２－１２,,27,127,5300001,,,,,,,2023-09-12,1,,,,,ロハスキーム,0
2011,8120003024860,新規,0,2023-09-12,2023-09-12,合同会社ライフノート,,合同会社,大阪府,大阪市東淀川区,東中島１丁目１７番５－４４１号,,27,114,5330033,,,,,,,2023-09-12,1,,,,,ライフノート,0
2014,8120101068181,新規,0,2023-09-12,2023-09-12,株式会社拓進,,株式会社,大阪府,泉佐野市,鶴原４９０番地,,27,213,5980071,,,,,,,2023-09-12,1,,,,,タクシン,0
2018,8120901048036,新規,0,2023-09-12,2023-09-12,株式会社ＡＦＦＥＣＴ,,株式会社,大阪府,吹田市,南吹田３丁目２０番４－２０２号,,27,205,5640043,,,,,,,2023-09-12,1,,,,,アフェクト,0
2020,8122001037299,新規,0,2023-09-12,2023-09-12,株式会社ｂｌｏｏｍ,,株式会社,大阪府,東大阪市,若江東町３丁目１番１４号,,27,227,5780935,,,,,,,2023-09-12,1,,,,,ブルーム,0
2021,8122001037357,新規,0,2023-09-12,2023-09-12,株式会社Ｍ＆Ｂ,,株式会社,大阪府,八尾市,久宝園２丁目３１番地の４５,,27,212,5810817,,,,,,,2023-09-12,1,,,,,エムアンドビー,0
2022,8122001037365,新規,0,2023-09-12,2023-09-12,エムエムアール株式会社,,株式会社,大阪府,東大阪市,川俣１丁目１番３１－８０５号,,27,227,5770063,,,,,,,2023-09-12,1,,,,,エムエムアール,0
2026,8130001075161,新規,0,2023-09-12,2023-09-12,株式会社ノコト,,株式会社,京都府,京都市北区,上賀茂岩ケ垣内町６３番地１,,26,101,6038053,,,,,,,2023-09-12,1,,,,,,0
2027,8130001075186,新規,0,2023-09-12,2023-09-12,Ｄｒｅａｍ　Ｆｏｏｄｓ株式会社,,株式会社,京都府,京都市左京区,田中関田町３７番地,,26,103,6068203,,,,,,,2023-09-12,1,,,,,ドリームフーズ,0
2028,8130001075194,新規,0,2023-09-12,2023-09-12,株式会社ブルーホール,,株式会社,京都府,京都市東山区,宮川筋四条下る二丁目宮川筋二丁目２５５番地,,26,105,6050000,,,,,,,2023-09-12,1,,,,,ブルーホール,0
2038,8140001131426,新規,0,2023-09-12,2023-09-12,株式会社イノベーションツールズ,,株式会社,兵庫県,尼崎市,食満２丁目２４番４号,,28,202,6610982,,,,,,,2023-09-12,1,,,,,イノベーションツールズ,0
2039,8140001131566,新規,0,2023-09-12,2023-09-12,株式会社ＳＯＳＩＪＩ,,株式会社,兵庫県,西宮市,今津曙町１２番２６－５０１号,00131885,28,204,6638214,,,,,,,2023-09-12,1,,,,,ソシジ,0
2047,8160001025329,新規,0,2023-09-12,2023-09-12,株式会社フマニタス,,株式会社,滋賀県,大津市,錦織３丁目１２番１３号,,25,201,5200027,,,,,,,2023-09-12,1,,,,,フマニタス,0
2057,8180301037807,新規,0,2023-09-12,2023-09-12,株式会社ＴＫホールディングス,,株式会社,愛知県,豊橋市,牟呂町字西明治１９番地１,,23,201,4418087,,,,,,,2023-09-12,1,,,,,ティーケーホールディングス,0
2070,8240003006302,新規,0,2023-09-12,2023-09-12,アセットシェア合同会社,,合同会社,広島県,福山市,駅家町大字上山守５番地６,,34,207,7201142,,,,,,,2023-09-12,1,,,,,アセットシェア,0
2073,8250003003348,新規,0,2023-09-12,2023-09-12,合同会社高橋商店,,合同会社,山口県,下関市,彦島緑町１０番１６号,,35,201,7500091,,,,,,,2023-09-12,1,,,,,タカハシショウテン,0
2076,8260003004428,新規,0,2023-09-12,2023-09-12,ＧＮ．ｍａｉｎｔｅｎａｎｃｅ合同会社,,合同会社,岡山県,倉敷市,白楽町３２７番地４ブランプレジール,,33,202,7100824,,,,,,,2023-09-12,1,,,,,ジーエヌメンテナンス,0
2077,8260005011273,新規,0,2023-09-12,2023-09-12,一般社団法人ＲＵＣＯ,,その他の設立登記法人,岡山県,岡山市中区,雄町２３１番地１３,,33,102,7038204,,,,,,,2023-09-12,1,,,,,ルコ,0
2085,8290801029870,新規,0,2023-09-12,2023-09-12,ゼロテックファーム株式会社,,株式会社,福岡県,北九州市若松区,中川町３番２号,,40,103,8080025,,,,,,,2023-09-12,1,,,,,ゼロテックファーム,0
2086,8290803004500,新規,0,2023-09-12,2023-09-12,合同会社肉の勉強屋,,合同会社,福岡県,北九州市小倉北区,板櫃町１０番２－５０４号,,40,106,8030824,,,,,,,2023-09-12,1,,,,,ニクノベンキョウヤ,0
2089,8300001013450,新規,0,2023-09-12,2023-09-12,株式会社アージェント・ワン,,株式会社,佐賀県,佐賀市,大財５丁目９番８号,,41,201,8400811,,,,,,,2023-09-12,1,,,,,アージェントワン,0
2090,8300003002022,新規,0,2023-09-12,2023-09-12,合同会社サンライズ,,合同会社,佐賀県,唐津市,千々賀１８９２番地１１,,41,202,8470831,,,,,,,2023-09-12,1,,,,,サンライズ,0
2097,8340005009656,新規,0,2023-09-12,2023-09-12,医療法人結びの樹,,その他の設立登記法人,鹿児島県,鹿児島市,小松原１丁目１２－１,,46,201,8910114,,,,,,,2023-09-12,1,,,,,ムスビノキ,0
2109,8380005012747,新規,0,2023-09-12,2023-09-12,一般社団法人デュアルマスター,,その他の設立登記法人,福島県,喜多方市,字押切南２丁目７５番地,,07,208,9660096,,,,,,,2023-09-12,1,,,,,デュアルマスター,0
2116,8410003003843,新規,0,2023-09-12,2023-09-12,合同会社ｃｈａｎｇｅ,,合同会社,秋田県,鹿角市,花輪字上中島１３１,,05,209,0185201,,,,,,,2023-09-12,1,,,,,チェンジ,0
2118,8420005007866,新規,0,2023-09-12,2023-09-12,一般社団法人青森ソーシャルサポート,,その他の設立登記法人,青森県,青森市,大字新城字山田３０１番地１８,,02,201,0380042,,,,,,,2023-09-12,1,,,,,アオモリソーシャルサポート,0
2122,8430003015399,新規,0,2023-09-12,2023-09-12,合同会社ＫＭＰ,,合同会社,北海道,札幌市中央区,南一条西１３丁目第４１ビッグプラザビルＩ　５階,00131881,01,101,0600061,,,,,,,2023-09-12,1,,,,,ケーエムピー,0
2130,8700150111246,新規,0,2023-09-12,2022-08-15,日本水産工学会,,その他,東京都,新宿区,山吹町３５８－５,,13,104,1620801,,,,,,,2022-08-15,1,,,,,ニホンスイサンコウガクカイ,0
2132,8700150118571,新規,0,2023-09-12,2023-09-12,ＧＬＯＢＥＰＲＯＳＰＥＣＴ　ＬＩＭＩＴＥＤ,,外国会社等,,,,,,,,ＲＭ　１００１，ＮＡＮ　ＯＮ　ＣＯＭＭ　ＢＵＩＬＤＩＮＧ　６９Ａ　ＷＵＨＵ　ＳＴＲＥＥＴ　ＨＵＮＧ　ＨＯＭ　ＫＬ　ＨＯＮＧ　ＫＯＮＧ,,,,,,2023-09-12,1,,,,,グローブプロスペクトリミテツド,0
2133,8700150120123,新規,0,2023-09-12,2023-09-12,Ｙａｎｇ　Ｍｉｎｇ（Ｓｉｎｇａｐｏｒｅ）Ｐｔｅ．Ｌｔｄ,,外国会社等,,,,,,,,１７１　Ｃｈｉｎ　Ｓｗｅｅ　Ｒｏａｄ，♯０８－０１，ＣＥＳ　Ｃｅｎｔｒｅ，Ｓｉｎｇａｐｏｒｅ，１６９８７７,,,,,,2023-09-12,1,,,,,ヤンミンシンガポールピーティーイーリミテッド,0
2141,9010001238134,新規,0,2023-09-12,2023-09-12,Ｓ．Ｓ．Ｓホールディングス株式会社,,株式会社,東京都,文京区,関口３丁目４番１号,,13,105,1120014,,,,,,,2023-09-12,1,,,,,エスエスエスホールディングス,0
2144,9010001238381,新規,0,2023-09-12,2023-09-12,株式会社Ｋａｍｉｌｙ,,株式会社,東京都,中央区,築地１丁目４番８－２０２号（リビオレゾン東銀座）,,13,102,1040045,,,,,,,2023-09-12,1,,,,,カミリ,0
2145,9010001238407,新規,0,2023-09-12,2023-09-12,株式会社卓見,,株式会社,東京都,中央区,銀座１丁目１２番４号Ｎ＆ＥＢＬＤ．６Ｆ,,13,102,1040061,,,,,,,2023-09-12,1,,,,,タクミ,0
2146,9010001238448,新規,0,2023-09-12,2023-09-12,税聯綱日本株式会社,,株式会社,東京都,中央区,晴海１丁目８番５－８１１号室,,13,102,1040053,,,,,,,2023-09-12,1,,,,,ゼイレンコウニッポン,0
2150,9010003041585,新規,0,2023-09-12,2023-09-12,インサイト合同会社,,合同会社,東京都,中央区,銀座１丁目１２－４Ｎ＆ＥＢＬＤ．７階,,13,102,1040061,,,,,,,2023-09-12,1,,,,,インサイト,0
2151,9010003041627,新規,0,2023-09-12,2023-09-12,合同会社ヤオワン,,合同会社,東京都,中央区,月島１丁目５番１号,,13,102,1040052,,,,,,,2023-09-12,1,,,,,ヤオワン,0
2165,9010401176999,新規,0,2023-09-12,2023-09-12,ＭＣ　Ｗｏｒｋｓ株式会社,,株式会社,東京都,港区,港南２丁目１６番１号品川イーストワンタワー７階・８階,,13,103,1080075,,,,,,,2023-09-12,1,,,,,エムシーワークス,0
2166,9010403030898,新規,0,2023-09-12,2023-09-12,Ｂｅｒｎｉｎａ　Ｈｏｌｄｉｎｇｓ合同会社,,合同会社,東京都,港区,西新橋１丁目１番１号ＥＰコンサルティングサービス内,,13,103,1050003,,,,,,,2023-09-12,1,,,,,ベルニナホールディングス,0
2169,9010405022431,新規,0,2023-09-12,2023-09-12,一般財団法人三宅財団,,その他の設立登記法人,東京都,港区,赤坂８丁目５番２７号,,13,103,1070052,,,,,,,2023-09-12,1,,,,,ミヤケザイダン,0
2172,9010501051020,新規,0,2023-09-12,2023-09-12,日新国際サービス株式会社,,株式会社,東京都,台東区,台東１丁目２９－３－３０８号,,13,106,1100016,,,,,,,2023-09-12,1,,,,,ニッシンコクサイサービス,0
2173,9010501051037,新規,0,2023-09-12,2023-09-12,株式会社ブロッサムトレーディング,,株式会社,東京都,台東区,東上野６丁目２３番５号第二雨宮ビル２０２号,,13,106,1100015,,,,,,,2023-09-12,1,,,,,ブロッサムトレーディング,0
2174,9010501051045,新規,0,2023-09-12,2023-09-12,株式会社ファミリートラスト,,株式会社,東京都,台東区,東上野１丁目２５番１２号ＩＴＦＴビル４Ｆ,,13,106,1100015,,,,,,,2023-09-12,1,,,,,ファミリートラスト,0
2177,9010601063766,新規,0,2023-09-12,2023-09-12,株式会社新日光国際,,株式会社,東京都,墨田区,緑３丁目２０番１１－２０２号,,13,107,1300021,,,,,,,2023-09-12,1,,,,,シンニッコウコクサイ,0
2178,9010603010345,新規,0,2023-09-12,2023-09-12,ＯＮＥ　ＳＴＥＰ　ＧＲＯＵＰ合同会社,,合同会社,東京都,墨田区,亀沢１丁目２７－１４－５０１,,13,107,1300014,,,,,,,2023-09-12,1,,,,,ワンステップグループ,0
2194,9011001156854,新規,0,2023-09-12,2023-09-12,株式会社ウィリングパートナー,,株式会社,東京都,目黒区,自由が丘２丁目１８番１３号パークハウス自由が丘３０３,,13,110,1520035,,,,,,,2023-09-12,1,,,,,ウィリングパートナー,0
2195,9011003017501,新規,0,2023-09-12,2023-09-12,合同会社ドラプラ,,合同会社,東京都,渋谷区,幡ヶ谷３丁目５７番２号ＩＮＯＶＥ幡ヶ谷２１０,,13,113,1510072,,,,,,,2023-09-12,1,,,,,ドラプラ,0
2196,9011003017518,新規,0,2023-09-12,2023-09-12,合同会社ｏｆｆｔｏｏｎ,,合同会社,東京都,目黒区,駒場１丁目４番８号谷口ビル３０２,,13,110,1530041,,,,,,,2023-09-12,1,,,,,オフトゥーン,0
2200,9011101104341,新規,0,2023-09-12,2023-09-12,株式会社ウイングス,,株式会社,東京都,新宿区,西新宿７丁目５番８号ＧＯＷＡ西新宿５階,,13,104,1600023,,,,,,,2023-09-12,1,,,,,ウイングス,0
2209,9011801043038,新規,0,2023-09-12,2023-09-12,株式会社Ａｓｔｅｒｓ　ａｇｅｎｃｙ,,株式会社,東京都,足立区,梅田５丁目１８番８号,,13,121,1230851,,,,,,,2023-09-12,1,,,,,エースターズエージェンシー,0
2210,9011803005829,新規,0,2023-09-12,2023-09-12,合同会社Ｗｐｌａｃｅ,,合同会社,東京都,葛飾区,堀切７丁目２４番６号,,13,122,1240006,,,,,,,2023-09-12,1,,,,,ダブルプレイス,0
2212,9012403006168,新規,0,2023-09-12,2023-09-12,合同会社ＳＡＴＯ,,合同会社,東京都,武蔵野市,御殿山１丁目７番１２号,,13,203,1800005,,,,,,,2023-09-12,1,,,,,サトウ,0
2213,9013103001260,新規,0,2023-09-12,2023-09-12,合同会社ＡＲＴの地産地消,,合同会社,東京都,青梅市,千ヶ瀬町６丁目７８８番地の１ハイホーム青梅２０２号,,13,205,1980043,,,,,,,2023-09-12,1,,,,,,0
2216,9020001153407,新規,0,2023-09-12,2023-09-12,株式会社ＤＴＡ,,株式会社,神奈川県,横浜市金沢区,六浦南４丁目２０－２－７１６,,14,108,2360038,,,,,,,2023-09-12,1,,,,,ディティエー,0
2217,9020001153472,新規,0,2023-09-12,2023-09-12,グローバル・ユナイテッド・プロダクション株式会社,,株式会社,神奈川県,横浜市青葉区,美しが丘西３丁目６４番地１９,,14,117,2250001,,,,,,,2023-09-12,1,,,,,グローバルユナイテッドプロダクション,0
2231,9021003013557,新規,0,2023-09-12,2023-09-12,合同会社リビパス,,合同会社,神奈川県,鎌倉市,大船３丁目１６番１７号,,14,204,2470056,,,,,,,2023-09-12,1,,,,,リビパス,0
2239,9030003022542,新規,0,2023-09-12,2023-09-12,合同会社ＳＭＩＣ,,合同会社,埼玉県,三郷市,彦成４丁目３番２－２０２号,,11,237,3410003,,,,,,,2023-09-12,1,,,,,スマイク,0
2245,9040001130024,新規,0,2023-09-12,2023-09-12,株式会社クボタ電気工業,,株式会社,千葉県,八千代市,村上１１１３番地１、１街区３８棟９０１号,,12,221,2760028,,,,,,,2023-09-12,1,,,,,クボタデンキコウギョウ,0
2246,9040001130032,新規,0,2023-09-12,2023-09-12,Ｆｏｕｒ　Ｓｅａｓｏｎｓ　ｉｎｖｅｓｔｍｅｎｔ株式会社,,株式会社,千葉県,船橋市,東船橋１丁目３３番１８号,,12,204,2730002,,,,,,,2023-09-12,1,,,,,フォーシーズンズインベストメント,0
2247,9040001130040,新規,0,2023-09-12,2023-09-12,株式会社山玲重量,,株式会社,千葉県,八千代市,高津４６６番地６,,12,221,2760036,,,,,,,2023-09-12,1,,,,,サンレイジュウリョウ,0
2248,9040001130057,新規,0,2023-09-12,2023-09-12,オープネス株式会社,,株式会社,千葉県,成田市,並木町４１－３サンクレイドル公津の杜６１０,,12,211,2860045,,,,,,,2023-09-12,1,,,,,オープネス,0
2249,9040001130065,新規,0,2023-09-12,2023-09-12,株式会社愛友興業,,株式会社,千葉県,千葉市緑区,越智町７３７－２３２,,12,105,2670055,,,,,,,2023-09-12,1,,,,,アイトモコウギョウ,0
2256,9050001053406,新規,0,2023-09-12,2023-09-12,株式会社恵成,,株式会社,茨城県,古河市,尾崎４７８３番地７,,08,204,3060101,,,,,,,2023-09-12,1,,,,,,0
2259,9050003007780,新規,0,2023-09-12,2023-09-12,合同会社成正,,合同会社,茨城県,かすみがうら市,稲吉東１丁目９番２６号,,08,230,3150053,,,,,,,2023-09-12,1,,,,,ナルマサ,0
2263,9070001040856,新規,0,2023-09-12,2023-09-12,株式会社ＩＳ,,株式会社,群馬県,太田市,新田小金井町１９１７番地１,,10,205,3700303,,,,,,,2023-09-12,1,,,,,アイエス,0
2264,9070001040864,新規,0,2023-09-12,2023-09-12,株式会社ＳＥ‐ＥＮ,,株式会社,群馬県,太田市,只上町４０６５番地２４,,10,205,3730011,,,,,,,2023-09-12,1,,,,,シーン,0
2266,9070003005097,新規,0,2023-09-12,2023-09-12,合同会社ブレーン工房,,合同会社,群馬県,前橋市,国領町１丁目１３番６号,,10,201,3710033,,,,,,,2023-09-12,1,,,,,,0
2272,9080103002885,新規,0,2023-09-12,2023-09-12,ＧＳＯｎｅ合同会社,,合同会社,静岡県,沼津市,下香貫西村１４６０－５,,22,203,4100822,,,,,,,2023-09-12,1,,,,,ジーエスワン,0
2275,9100001036743,新規,0,2023-09-12,2023-09-12,株式会社Ｖａｌｌｅｙ,,株式会社,長野県,茅野市,北山６９２９番地４ハイム八ヶ岳３０２号,,20,214,3910301,,,,,,,2023-09-12,1,,,,,ブァリー,0
2279,9110003005159,新規,0,2023-09-12,2023-09-12,合同会社趙家,,合同会社,新潟県,長岡市,下山４丁目７２番地７、２Ｆ,,15,202,9402115,,,,,,,2023-09-12,1,,,,,チョウヤ,0
2284,9120001257817,新規,0,2023-09-12,2023-09-12,株式会社松永,,株式会社,大阪府,枚方市,山之上東町７番１７号,,27,210,5730041,,,,,,,2023-09-12,1,,,,,マツナガ,0
2285,9120001257825,新規,0,2023-09-12,2023-09-12,西濱履物商店株式会社,,株式会社,大阪府,大阪市住吉区,長居３丁目１１番１５号,,27,120,5580003,,,,,,,2023-09-12,1,,,,,ニシハマハキモノショウテン,0
2286,9120001257833,新規,0,2023-09-12,2023-09-12,株式会社尼崎エステート,,株式会社,大阪府,大阪市阿倍野区,松崎町４丁目２番４号,,27,119,5450053,,,,,,,2023-09-12,1,,,,,アマガサキエステート,0
2287,9120001257858,新規,0,2023-09-12,2023-09-12,株式会社ウォードデザイン,,株式会社,大阪府,大阪市北区,曾根崎新地１丁目１３番２２号７Ｆ,,27,127,5300002,,,,,,,2023-09-12,1,,,,,ウォードデザイン,0
2288,9120001257882,新規,0,2023-09-12,2023-09-12,株式会社濱口商会,00131883,株式会社,大阪府,枚方市,長尾家具町１丁目７－７,,27,210,5730102,,,,,,,2023-09-12,1,,,,,ハマグチショウカイ,0
2289,9120001257899,新規,0,2023-09-12,2023-09-12,フジコーホールディングス株式会社,,株式会社,大阪府,大阪市東成区,東小橋２丁目４番３号,,27,115,5370024,,,,,,,2023-09-12,1,,,,,フジコーホールディングス,0
2290,9120001257916,新規,0,2023-09-12,2023-09-12,株式会社ＨＡＹＡＳＨＩＮ,,株式会社,大阪府,大阪市生野区,巽北３丁目１０番１８号,00131887,27,116,5440004,,,,,,,2023-09-12,1,,,,,ハヤシン,0
2291,9120001257949,新規,0,2023-09-12,2023-09-12,萬齢株式会社,,株式会社,大阪府,大阪市阿倍野区,昭和町５丁目１０番２４号西田辺駅前ビル（Ｒｅ：ＺＯＮＥ西田辺０１）３０２号室,,27,119,5450011,,,,,,,2023-09-12,1,,,,,マンレイ,0
2292,9120001257957,新規,0,2023-09-12,2023-09-12,株式会社亨星,,株式会社,大阪府,大阪市福島区,福島７丁目１４番１８号,,27,103,5530003,,,,,,,2023-09-12,1,,,,,キョウセイ,0
2293,9120001258006,新規,0,2023-09-12,2023-09-12,株式会社ひまわり,,株式会社,大阪府,大阪市浪速区,敷津東３丁目６番９号３Ｆ,,27,111,5560012,,,,,,,2023-09-12,1,,,,,ヒマワリ,0
2294,9120003024851,新規,0,2023-09-12,2023-09-12,ＣＯＣＯＲＯ合同会社,,合同会社,大阪府,交野市,星田９丁目２９番５号,,27,230,5760016,,,,,,,2023-09-12,1,,,,,ココロ,0
2295,9120003024868,新規,0,2023-09-12,2023-09-12,Ｃ　ｄｉｒｅｃｔｉｏｎ合同会社,,合同会社,大阪府,大阪市中央区,平野町４丁目７番８号アベニュー淀屋橋６０６号,,27,128,5410046,,,,,,,2023-09-12,1,,,,,シーディレクション,0
2303,9122001037364,新規,0,2023-09-12,2023-09-12,ＦＯＯＤ　ＮＡＶＩ株式会社,,株式会社,大阪府,大東市,諸福８丁目１番１６号アイズシティ１１１７号,,27,218,5740044,,,,,,,2023-09-12,1,,,,,フードナビ,0
2306,9130001075144,新規,0,2023-09-12,2023-09-12,株式会社Ｍｃｏｒｐｏｒａｔｉｏｎ,,株式会社,京都府,京都市右京区,嵯峨天龍寺瀬戸川町２６番地の２,,26,108,6168376,,,,,,,2023-09-12,1,,,,,エムコーポレーション,0
2307,9130001075152,新規,0,2023-09-12,2023-09-12,株式会社フリークスアンドクリーン,,株式会社,京都府,宇治市,広野町丸山７番地の７,,26,204,6110031,,,,,,,2023-09-12,1,,,,,フリークスアンドクリーン,0
2308,9130001075177,新規,0,2023-09-12,2023-09-12,株式会社藤蔭会,,株式会社,京都府,京都市中京区,新烏丸通竹屋町上る東椹木町１１６番地,,26,104,6040906,,,,,,,2023-09-12,1,,,,,トウインカイ,0
2309,9130001075185,新規,0,2023-09-12,2023-09-12,株式会社ＡｒｃＤｅｓｉｇｎ,,株式会社,京都府,京都市上京区,四町目８０２－４７－２,,26,102,6028112,,,,,,,2023-09-12,1,,,,,アークデザイン,0
2310,9130001075193,新規,0,2023-09-12,2023-09-12,株式会社ｓｔｏｋｅｄ,,株式会社,京都府,京都市左京区,岩倉村松町１２３番地８１,,26,103,6060034,,,,,,,2023-09-12,1,,,,,ストーク,0
2314,9140001131565,新規,0,2023-09-12,2023-09-12,株式会社おトぎばなし,,株式会社,兵庫県,伊丹市,行基町４丁目２３番地の４,,28,207,6640857,,,,,,,2023-09-12,1,,,,,オトギバナシ,0
2317,9140003019503,新規,0,2023-09-12,2023-09-12,合同会社阪本屋,,合同会社,兵庫県,丹波篠山市,立町１０１番地１,,28,221,6692323,,,,,,,2023-09-12,1,,,,,サカモトヤ,0
2318,9140003019536,新規,0,2023-09-12,2023-09-12,合同会社ペンキの樹,,合同会社,兵庫県,神戸市中央区,楠町６丁目２番１号,,28,110,6500017,,,,,,,2023-09-12,1,,,,,ペンキノキ,0
2320,9160001025336,新規,0,2023-09-12,2023-09-12,株式会社ＭｉｉＲｅＣＨＡＮＣＥ,,株式会社,滋賀県,彦根市,地蔵町１９２番地１（１０８号）,,25,202,5220029,,,,,,,2023-09-12,1,,,,,ミレチャンス,0
2329,9180001157912,新規,0,2023-09-12,2023-09-12,株式会社クレールコーポレーション,,株式会社,愛知県,名古屋市東区,泉３丁目３１番１４号,,23,102,4610001,,,,,,,2023-09-12,1,,,,,クレールコーポレーション,0
2330,9180003025704,新規,0,2023-09-12,2023-09-12,合同会社ＷｏｒｋＷｉｔｈ,,合同会社,愛知県,あま市,七宝町沖之島高畑１０番地アネスト七宝１０１号,,23,237,4970001,,,,,,,2023-09-12,1,,,,,ワークウィズ,0
2339,9230001020008,新規,0,2023-09-12,2023-09-12,東京プロ株式会社,,株式会社,富山県,氷見市,上田子東平６９番,,16,205,9350035,,,,,,,2023-09-12,1,,,,,トウキョウプロ,0
2341,9240001062107,新規,0,2023-09-12,2023-09-12,株式会社ポッシブルシード,,株式会社,広島県,広島市中区,三川町９番３号宏和７－３Ｆ,,34,101,7300029,,,,,,,2023-09-12,1,,,,,ポッシブルシード,0
2342,9240001062115,新規,0,2023-09-12,2023-09-12,株式会社源,,株式会社,広島県,安芸郡熊野町,平谷２丁目１３番１３号,,34,307,7314229,,,,,,,2023-09-12,1,,,,,ゲン,0
2344,9250003003347,新規,0,2023-09-12,2023-09-12,ＳＵＩＫＡ合同会社,,合同会社,山口県,下関市,前田２丁目３６番１８号,,35,201,7520997,,,,,,,2023-09-12,1,,,,,スイカ,0
2349,9260003004427,新規,0,2023-09-12,2023-09-12,合同会社ゆる,,合同会社,岡山県,岡山市北区,中山下１丁目１１番１５号新田第１ビル４０２,,33,101,7000821,,,,,,,2023-09-12,1,,,,,ユル,0
2352,9290001102898,新規,0,2023-09-12,2023-09-12,株式会社坂井建具製作所,,株式会社,福岡県,大川市,大字向島２０５２番地９,,40,212,8310005,,,,,,,2023-09-12,1,,,,,サカイタテグセイサクジョ,0
2353,9290001102989,新規,0,2023-09-12,2023-09-12,株式会社ハーベストプランニング,,株式会社,福岡県,福岡市中央区,港２丁目８番２５号,,40,133,8100075,,,,,,,2023-09-12,1,,,,,ハーベストプランニング,0
2354,9290001102997,新規,0,2023-09-12,2023-09-12,株式会社ネクサス開発,,株式会社,福岡県,福岡市西区,内浜２丁目１７番６－２０１号,,40,135,8190005,,,,,,,2023-09-12,1,,,,,ネクサスカイハツ,0
2367,9330003009955,新規,0,2023-09-12,2023-09-12,金森設計合同会社,,合同会社,熊本県,天草市,楠浦町１０４７番地３０,,43,215,8630044,,,,,,,2023-09-12,1,,,,,カナモリセッケイ,0
2372,9340005009655,新規,0,2023-09-12,2023-09-12,特定非営利活動法人ふたつのはな,,その他の設立登記法人,鹿児島県,霧島市,霧島大窪３８９番地４,,46,218,8994203,,,,,,,2023-09-12,1,,,,,,0
2380,9360003013269,新規,0,2023-09-12,2023-09-12,合同会社しゅりんぷりん,,合同会社,沖縄県,那覇市,若狭２丁目３－２１新里ビル１階,,47,201,9000031,,,,,,,2023-09-12,1,,,,,シュリンプリン,0
2386,9370005010684,新規,0,2023-09-12,2023-09-12,一般社団法人Ｔｏｈｏｋｕ　Ｃｕｒｒｙ　Ｕｎｉｏｎ,,その他の設立登記法人,宮城県,仙台市青葉区,作並字鎌倉下原２２番地の１,,04,101,9893431,,,,,,,2023-09-12,1,,,,,トウホクカレーユニオン,0
2405,9430001089948,新規,0,2023-09-12,2023-09-12,株式会社小西牧場,,株式会社,北海道,沙流郡日高町,字厚賀町１４０番地の１６,,01,601,0592243,,,,,,,2023-09-12,1,,,,,コニシボクジョウ,0
2407,9430003015407,新規,0,2023-09-12,2023-09-12,Ｎｏ　Ｂａｄ　Ｄａｙｓ　Ｎｉｓｅｋｏ合同会社,,合同会社,北海道,虻田郡倶知安町,北三条西２丁目２４番地１２,,01,400,0440053,,,,,,,2023-09-12,1,,,,,ノーバッドデイズニセコ,0
2408,9430003015415,新規,0,2023-09-12,2023-09-12,合同会社Ａｚｕ　Ｇａｒｏ,,合同会社,北海道,札幌市北区,北二十八条西１３丁目１番６号,,01,102,0010028,,,,,,,2023-09-12,1,,,,,アズガロ,0
2409,9440003001546,新規,0,2023-09-12,2023-09-12,合同会社ＭＳサービス,,合同会社,北海道,函館市,桔梗町４３５番地１９４,,01,202,0410801,,,,,,,2023-09-12,1,,,,,エムエスサービス,0
2410,9450003002386,新規,0,2023-09-12,2023-09-12,合同会社スコトン社,,合同会社,北海道,礼文郡礼文町,大字船泊村字スコトントマリ７４５－２,,01,517,0971111,,,,,,,2023-09-12,1,,,,,スコトンシャ,0
2415,9480003002020,新規,0,2023-09-12,2023-09-12,ステイ合同会社,,合同会社,徳島県,海部郡牟岐町,大字牟岐浦字出羽島２２番地５,,36,383,7750013,,,,,,,2023-09-12,1,,,,,ステイ,0
2420,9700150118777,新規,0,2023-09-12,2023-08-04,アグリス安八,,その他,岐阜県,安八郡安八町,外善光３３７６,,21,383,5030129,,,,,,,2023-08-04,1,,,,,アグリスアンパチ,0
2421,9700150120122,新規,0,2023-09-12,2023-09-12,ｓｈｅｎｚｈｅｎｓｈｉｑｉｊｉｎｇｋｅｊｉ　ｙｏｕｘｉａｎｇｏｎｇｓｉ,,外国会社等,,,,,,,,ｌｏｎｇｇａｎｇｑｕｎａｎｗａｎｊｉｅｄａｏｓｈａｎｇｌｉｌａｎｇｓｈｅｑｕｓｈａｎｇｌｉｌａｎｇ　ｇａｏａｏｄｕｎｇｏｎｇｙｅｑｕ１０３ｓｈｅｎｚｈｅｎ　Ｃｈｉｎａ,,,,,,2023-09-12,1,,,,,シンセンシチジンカギユウゲンコウシ,0
