sequenceNumber,corporateNumber,process,correct,updateDate,changeDate,name,nameImageId,kind,prefectureName,cityName,streetNumber,addressImageId,prefectureCode,cityCode,postCode,addressOutside,addressOutsideImageId,closeDate,closeCause,successorCorporateNumber,changeCause,assignmentDate,latest,enName,enPrefectureName,enCityName,enAddressOutside,furigana,hihyoji
3,1010001134266,登記記録の閉鎖等,0,2022-08-22,2022-08-18,株式会社美エンタジャパン,,株式会社,東京都,小平市,学園西町１丁目１７番１－１２０８号,,13,211,1870045,,,2022-08-18,清算の結了等,,,2015-10-05,1,,,,,ビエンタジャパン,0
16,1010401041962,登記記録の閉鎖等,0,2022-08-22,2022-08-02,エー・アイ・アソシエイツ株式会社,,株式会社,東京都,港区,芝２丁目５－８,,13,103,1050014,,,2022-08-02,清算の結了等,,,2015-10-05,1,,,,,エーアイアソシエイツ,0
33,1010801028907,登記記録の閉鎖等,0,2022-08-22,2022-08-09,トウアサプライ株式会社,,株式会社,東京都,大田区,南蒲田２丁目１１番１７号,,13,111,1440035,,,2022-08-09,清算の結了等,,,2018-06-22,1,,,,,トウアサプライ,0
36,1010902025670,登記記録の閉鎖等,0,2022-08-22,2022-08-16,有限会社本多音楽事務所,,有限会社,東京都,世田谷区,瀬田５丁目１１番１号,,13,112,1580095,,,2022-08-16,清算の結了等,,,2015-10-05,1,,,,,ホンダオンガクジムショ,0
55,1011102003302,登記記録の閉鎖等,0,2022-08-22,2022-08-18,上貴商會有限会社,,有限会社,東京都,新宿区,西新宿４丁目２５番３号,,13,104,1600023,,,2022-08-18,清算の結了等,,,2015-10-05,1,,,,,カミキショウカイ,0
69,1012401025061,登記記録の閉鎖等,0,2022-08-22,2022-08-17,株式会社ＨＡＴＡＮＯ,,株式会社,東京都,三鷹市,牟礼１丁目５番１６号,,13,204,1810002,,,2022-08-17,合併による解散等,3012401012339,令和４年８月１７日東京都三鷹市牟礼一丁目５番１５号桂建設株式会社（3012401012339）に合併し解散,2015-10-05,1,,,,,ハタノ,0
99,1030001100679,登記記録の閉鎖等,0,2022-08-22,2022-08-18,株式会社リンク,,株式会社,東京都,足立区,六木２丁目６番３－１０１号,,13,121,1210052,,,2022-08-18,清算の結了等,,,2015-10-05,1,,,,,,0
102,1030002001091,登記記録の閉鎖等,0,2022-08-22,2022-08-09,有限会社イザワ薬局,,有限会社,埼玉県,さいたま市南区,南浦和２丁目４１番２号,,11,108,3360017,,,2022-08-09,清算の結了等,,,2015-10-05,1,,,,,イザワヤッキョク,0
108,1030005018769,登記記録の閉鎖等,0,2022-08-22,2022-08-18,一般財団法人太陽育成基金,,その他の設立登記法人,埼玉県,さいたま市南区,辻２丁目３番５号,00111837,11,108,3360026,,,2022-08-18,清算の結了等,,,2017-11-21,1,,,,,タイヨウイクセイキキン,0
113,1040002078014,登記記録の閉鎖等,0,2022-08-22,2022-08-09,有限会社高橋電化工業,00020782,有限会社,千葉県,山武郡九十九里町,田中荒生１４８６番地,,12,403,2830103,,,2022-08-09,清算の結了等,,,2015-10-05,1,,,,,タカハシデンカコウギョウ,0
122,1050001033290,登記記録の閉鎖等,0,2022-08-22,2022-08-17,株式会社すずらん工房結城,,株式会社,茨城県,結城市,大字結城１１３７８番地２,,08,207,3070001,,,2022-08-17,清算の結了等,,,2015-10-05,1,,,,,,0
123,1050001046879,登記記録の閉鎖等,0,2022-08-22,2022-08-05,宮原テック株式会社,,株式会社,茨城県,古河市,西牛谷３１７番地,,08,204,3060233,,,2022-08-05,合併による解散等,6010401028963,令和４年８月１日茨城県古河市西牛谷３１８番地株式会社宮原製作所（6010401028963）に合併し解散,2019-12-06,1,,,,,ミヤハラテック,0
154,1130001040469,登記記録の閉鎖等,0,2022-08-22,2022-08-17,株式会社イトイ,,株式会社,京都府,宮津市,字白柏１２４４番地の６,,26,205,6260011,,,2022-08-17,清算の結了等,,,2015-10-05,1,,,,,イトイ,0
180,1220005007884,登記記録の閉鎖等,0,2022-08-22,2022-08-17,一般社団法人ＪＡＩＳＴ大学院大学調査研究機構,,その他の設立登記法人,石川県,能美市,旭台１丁目１番地国立大学法人北陸先端科学技術大学院大学内,,17,211,9231211,,,2022-08-17,清算の結了等,,,2015-10-05,1,,,,,ジャイストダイガクインダイガクチョウサケンキュウキコウ,0
183,1240001055010,登記記録の閉鎖等,0,2022-08-22,2022-08-19,株式会社トラスパル住宅設備,,株式会社,広島県,広島市西区,己斐上２丁目２７番８号,,34,104,7330815,,,2022-08-19,清算の結了等,,,2019-10-03,1,,,,,トラスパルジュウタクセツビ,0
186,1260001009501,登記記録の閉鎖等,0,2022-08-22,2022-08-19,パルプラン株式会社,,株式会社,岡山県,岡山市北区,下中野７０１番地１０６,,33,101,7000973,,,2022-08-19,清算の結了等,,,2015-10-05,1,,,,,,0
188,1260001020953,登記記録の閉鎖等,0,2022-08-22,2022-08-16,株式会社唐内,,株式会社,岡山県,美作市,尾谷７７２番地１,,33,215,7012601,,,2022-08-16,清算の結了等,,,2015-10-05,1,,,,,トウナイ,0
189,1260002025514,登記記録の閉鎖等,0,2022-08-22,2022-08-19,有限会社横溝建具店,00003779,有限会社,岡山県,浅口市,鴨方町鴨方１１６５番地の１,,33,216,7190243,,,2022-08-19,清算の結了等,,,2015-10-05,1,,,,,ヨコミゾタテグテン,0
190,1270002006059,登記記録の閉鎖等,0,2022-08-22,2022-08-12,有限会社Ｂｉｚサポート,,有限会社,鳥取県,米子市,西福原５丁目２番２２号,,31,202,6830805,,,2022-08-12,合併による解散等,3270001003154,令和４年８月１日鳥取県米子市西福原四丁目１１番３１号株式会社エッグ（3270001003154）に合併し解散,2015-10-05,1,,,,,ビズサポート,0
201,1320002015260,登記記録の閉鎖等,0,2022-08-22,2022-08-19,有限会社久保工務店,,有限会社,大分県,国東市,安岐町馬場９１９番地の４,,44,214,8730211,,,2022-08-19,清算の結了等,,,2015-10-05,1,,,,,クボコウムテン,0
202,1320002018065,登記記録の閉鎖等,0,2022-08-22,2022-08-18,有限会社村田索道,,有限会社,大分県,竹田市,久住町大字有氏２４７４番地,,44,208,8780202,,,2022-08-18,清算の結了等,,,2015-10-05,1,,,,,ムラタサクドウ,0
203,1330003008931,登記記録の閉鎖等,0,2022-08-22,2022-08-15,ＯｃｔＥＦ合同会社,,合同会社,熊本県,天草市,有明町大浦３３３番地２,,43,215,8617203,,,2022-08-15,清算の結了等,,,2021-06-11,1,,,,,オクトエフ,0
216,1420002009178,登記記録の閉鎖等,0,2022-08-22,2022-08-17,有限会社山善田中建業,,有限会社,青森県,八戸市,大字妙字坂中５６番地５,,02,203,0310814,,,2022-08-17,清算の結了等,,,2015-10-05,1,,,,,ヤマゼンタナカケンギョウ,0
249,2010403017563,登記記録の閉鎖等,0,2022-08-22,2022-08-19,合同会社ｕ,,合同会社,東京都,新宿区,新宿３丁目１２番４号新宿Ｎタウンプラザ３０９号,,13,104,1600022,,,2022-08-19,清算の結了等,,,2017-11-10,1,,,,,ユー,0
266,2010903005340,登記記録の閉鎖等,0,2022-08-22,2022-08-08,メルセネール合同会社,,合同会社,東京都,千代田区,九段南１丁目５番６号りそな九段ビル５ＦＫＳフロア,,13,101,1020074,,,2022-08-08,清算の結了等,,,2019-11-14,1,,,,,メルセネール,0
295,2020002086109,登記記録の閉鎖等,0,2022-08-22,2022-08-15,有限会社二四六宅送サービス,,有限会社,神奈川県,川崎市宮前区,南野川１丁目３２番２２－４０７号,,14,136,2160042,,,2022-08-15,清算の結了等,,,2015-10-05,1,,,,,ニイヨンロクタクソウサービス,0
297,2020003019728,登記記録の閉鎖等,0,2022-08-22,2022-08-12,川邊商事合同会社,,合同会社,神奈川県,横浜市戸塚区,原宿２丁目２６番８号,,14,110,2450063,,,2022-08-12,清算の結了等,,,2021-04-30,1,,,,,カワベショウジ,0
310,2030001142571,登記記録の閉鎖等,0,2022-08-22,2022-08-10,株式会社二葉テクノス,,株式会社,埼玉県,川越市,的場新町７番地３４,,11,201,3501107,,,2022-08-10,清算の結了等,,,2021-06-09,1,,,,,フタバテクノス,0
327,2050002038123,登記記録の閉鎖等,0,2022-08-22,2022-08-17,有限会社島屋,,有限会社,茨城県,つくばみらい市,谷井田１２１３番地の８,,08,235,3002337,,,2022-08-17,清算の結了等,,,2015-10-05,1,,,,,シマヤ,0
329,2060001024783,登記記録の閉鎖等,0,2022-08-22,2022-08-15,機械設計中畑株式会社,,株式会社,栃木県,宇都宮市,ゆいの杜６丁目２４番１０号,,09,201,3213226,,,2022-08-15,清算の結了等,,,2015-10-05,1,,,,,キカイセッケイナカハタ,0
358,2140001091295,登記記録の閉鎖等,0,2022-08-22,2022-08-17,株式会社ＰＯＰ－ｉＤ,,株式会社,兵庫県,芦屋市,大東町１番１１－１０２号,,28,206,6590023,,,2022-08-17,清算の結了等,,,2015-10-05,1,,,,,ポップアイディー,0
371,2180002085086,登記記録の閉鎖等,0,2022-08-22,2022-08-17,有限会社富木島産業,,有限会社,愛知県,大府市,共和町４丁目６３番地,,23,223,4740061,,,2022-08-17,清算の結了等,,,2015-10-05,1,,,,,フキシマサンギョウ,0
377,2220002001212,登記記録の閉鎖等,0,2022-08-22,2022-08-18,有限会社岩田修デザイン事務所,,有限会社,石川県,金沢市,円光寺本町１６番１７号,,17,201,9218176,,,2022-08-18,清算の結了等,,,2015-10-05,1,,,,,イワタオサムデザインジムショ,0
381,2270001007841,登記記録の閉鎖等,0,2022-08-22,2022-08-12,株式会社コロンブス,,株式会社,鳥取県,米子市,西福原４丁目１１番３１号,,31,202,6830805,,,2022-08-12,合併による解散等,3270001003154,令和４年８月１日鳥取県米子市西福原四丁目１１番３１号株式会社エッグ（3270001003154）に合併し解散,2019-10-01,1,,,,,コロンブス,0
395,2430001060881,登記記録の閉鎖等,0,2022-08-22,2022-08-08,日特サービス株式会社,,株式会社,北海道,札幌市清田区,北野一条２丁目１番３６号,,01,110,0040861,,,2022-08-08,清算の結了等,,,2015-10-05,1,,,,,ニットクサービス,0
407,2480002014972,登記記録の閉鎖等,0,2022-08-22,2022-08-16,有限会社平野商店,,有限会社,徳島県,美馬市,穴吹町穴吹字井口１１９番地５,,36,207,7770005,,,2022-08-16,清算の結了等,,,2015-10-05,1,,,,,ヒラノショウテン,0
422,3010003028233,登記記録の閉鎖等,0,2022-08-22,2022-08-12,ファームオブフォーシーズンジャパン合同会社,,合同会社,東京都,千代田区,丸の内１丁目１１番１号パシフィックセンチュリープレイス丸の内８階,,13,101,1000005,,,2022-08-12,清算の結了等,,,2018-09-10,1,,,,,ファームオブフォーシーズンジャパン,0
434,3010403019071,登記記録の閉鎖等,0,2022-08-22,2022-08-02,フィールズキャピタル合同会社,,合同会社,東京都,港区,西新橋１丁目２２番１４号６０１,,13,103,1050003,,,2022-08-02,清算の結了等,,,2018-08-07,1,,,,,フィールズキャピタル,0
449,3010701041867,登記記録の閉鎖等,0,2022-08-22,2022-08-18,株式会社ＥｄｏＧｏｌｆ,,株式会社,東京都,品川区,南大井１丁目４番１号,,13,109,1400013,,,2022-08-18,清算の結了等,,,2021-12-03,1,,,,,エドゴルフ,0
455,3011001112094,登記記録の閉鎖等,0,2022-08-22,2022-08-17,株式会社ブルーオーシャン,,株式会社,東京都,渋谷区,幡ヶ谷３丁目３９番１２号澁谷ウェストビル１階,,13,113,1510072,,,2022-08-17,合併による解散等,6030003006713,令和４年７月２９日さいたま市緑区宮本二丁目４番４号インベスターグリーン合同会社（6030003006713）に合併し解散,2016-07-28,1,,,,,ブルーオーシャン,0
460,3011001126838,登記記録の閉鎖等,0,2022-08-22,2022-08-18,ＥＰＳ株式会社,,株式会社,東京都,目黒区,中央町１丁目１９番１４号メディス学芸大学２階２号室,,13,110,1520001,,,2022-08-18,清算の結了等,,,2019-03-06,1,,,,,,0
463,3011003012805,登記記録の閉鎖等,0,2022-08-22,2022-08-18,ＴＥＡＭ　ＰＲＯＭＯＴＩＯＮ合同会社,,合同会社,東京都,渋谷区,神宮前６丁目２３番４号桑野ビル２階,,13,113,1500001,,,2022-08-18,清算の結了等,,,2021-05-26,1,,,,,,0
472,3011201003655,登記記録の閉鎖等,0,2022-08-22,2022-08-09,東京森永牛乳販売株式会社,,株式会社,東京都,中野区,上鷺宮３丁目１２番１０号,,13,114,1650031,,,2022-08-09,清算の結了等,,,2015-10-05,1,,,,,トウキョウモリナガギュウニュウハンバイ,0
474,3011501025093,登記記録の閉鎖等,0,2022-08-22,2022-08-10,ＭＴ株式会社,,株式会社,埼玉県,さいたま市岩槻区,大字飯塚１０２０－３０,,11,110,3390031,,,2022-08-10,清算の結了等,,,2019-09-05,1,,,,,エムティー,0
510,3030003015592,登記記録の閉鎖等,0,2022-08-22,2022-08-08,合同会社ＰＥＡＣＥ　ＡＸＩＳ,,合同会社,埼玉県,さいたま市岩槻区,大字裏慈恩寺２６９番地１２,,11,110,3390002,,,2022-08-08,清算の結了等,,,2020-07-22,1,,,,,ピースアクシス,0
548,3120101027290,登記記録の閉鎖等,0,2022-08-22,2022-08-17,協同ホーム株式会社,,株式会社,大阪府,松原市,東新町１丁目３８番地の２,,27,217,5800024,,,2022-08-17,清算の結了等,,,2015-10-05,1,,,,,キョウドウホーム,0
550,3120901015569,登記記録の閉鎖等,0,2022-08-22,2022-08-18,アドソーテクノ株式会社,,株式会社,大阪府,高槻市,野見町２番３号,,27,207,5690077,,,2022-08-18,清算の結了等,,,2015-10-05,1,,,,,アドソーテクノ,0
562,3150002002084,登記記録の閉鎖等,0,2022-08-22,2022-08-15,有限会社澄コーポレーション,,有限会社,奈良県,奈良市,大宮町３丁目２番４７－７１０号,,29,201,6308115,,,2022-08-15,清算の結了等,,,2015-10-05,1,,,,,スミコーポレーション,0
570,3180003015628,登記記録の閉鎖等,0,2022-08-22,2022-08-16,合資会社ラインＡ,,合資会社,愛知県,海部郡大治町,大字西條字弥勒４９番地,,23,424,4901144,,,2022-08-16,清算の結了等,,,2015-10-05,1,,,,,ラインエー,0
575,3180302020394,登記記録の閉鎖等,0,2022-08-22,2022-08-18,有限会社鬼作,,有限会社,愛知県,高浜市,春日町５丁目１番地４,,23,227,4441334,,,2022-08-18,清算の結了等,,,2015-10-05,1,,,,,オニサク,0
586,3260001030587,登記記録の閉鎖等,0,2022-08-22,2022-08-19,株式会社アテナインク,,株式会社,岡山県,岡山市北区,下中野７０１－１０６,,33,101,7000973,,,2022-08-19,清算の結了等,,,2017-03-10,1,,,,,,0
611,3390001008703,登記記録の閉鎖等,0,2022-08-22,2022-08-16,東亜検査株式会社,,株式会社,山形県,最上郡舟形町,富田３６０番地の１,,06,363,9994603,,,2022-08-16,清算の結了等,,,2015-10-05,1,,,,,トウアケンサ,0
624,3500002008483,登記記録の閉鎖等,0,2022-08-22,2022-08-18,沢辺水産有限会社,,有限会社,愛媛県,伊予郡松前町,大字筒井１０３９番地１,,38,401,7913120,,,2022-08-18,清算の結了等,,,2015-10-05,1,,,,,サワベスイサン,0
633,4010001143537,登記記録の閉鎖等,0,2022-08-22,2022-08-10,イー・ピー・アイ・トラベル株式会社,,株式会社,東京都,千代田区,岩本町２丁目７番１２号ビルックスＮｏ３－３階,,13,101,1010032,,,2022-08-10,清算の結了等,,,2015-10-05,1,,,,,イーピーアイトラベル,0
650,4010602030852,登記記録の閉鎖等,0,2022-08-22,2022-08-01,有限会社ローズロード,,有限会社,東京都,渋谷区,西原２丁目３６番１６号,,13,113,1510066,,,2022-08-01,合併による解散等,5011102017513,令和４年８月１日東京都渋谷区西原二丁目３６番１６号株式会社オフィス広川（5011102017513）に合併し解散,2015-10-05,1,,,,,ローズロード,0
651,4010602031751,登記記録の閉鎖等,0,2022-08-22,2022-08-17,有限会社綜峰,,有限会社,東京都,江東区,三好３丁目１番４－６０６号,,13,108,1350022,,,2022-08-17,清算の結了等,,,2015-10-05,1,,,,,ソウホウ,0
652,4010701009384,登記記録の閉鎖等,0,2022-08-22,2022-08-18,株式会社ＭＮＦ,,株式会社,東京都,品川区,小山４丁目１５番３号,,13,109,1420062,,,2022-08-18,清算の結了等,,,2015-10-05,1,,,,,エムエヌエフ,0
663,4011101067361,登記記録の閉鎖等,0,2022-08-22,2022-08-18,株式会社ＣＯＣＯＬＯ,,株式会社,東京都,新宿区,新宿２丁目１４番６号,,13,104,1600022,,,2022-08-18,清算の結了等,,,2015-10-05,1,,,,,ココロ,0
670,4011201001823,登記記録の閉鎖等,0,2022-08-22,2022-08-03,株式会社コピーセンター,,株式会社,東京都,中野区,若宮３丁目２７番１７号,,13,114,1650033,,,2022-08-03,清算の結了等,,,2015-10-05,1,,,,,コピーセンター,0
680,4011802001874,登記記録の閉鎖等,0,2022-08-22,2022-08-17,有限会社葛二商事,,有限会社,東京都,葛飾区,亀有４丁目４番１６号日神パレステージ２階,,13,122,1250061,,,2022-08-17,清算の結了等,,,2015-10-05,1,,,,,カツニショウジ,0
691,4013302017640,登記記録の閉鎖等,0,2022-08-22,2022-08-19,有限会社リッチライフ,,有限会社,東京都,新宿区,西早稲田１丁目２３－６,,13,104,1690051,,,2022-08-19,清算の結了等,,,2015-10-05,1,,,,,リッチライフ,0
710,4030002057998,登記記録の閉鎖等,0,2022-08-22,2022-08-08,有限会社ピータースポテト,,有限会社,埼玉県,蕨市,中央１丁目１６番４０号コスモ蕨６０８,,11,223,3350004,,,2022-08-08,清算の結了等,,,2015-10-05,1,,,,,ピータースポテト,0
711,4030002101995,登記記録の閉鎖等,0,2022-08-22,2022-08-09,有限会社生蕎麦柳崎店,,有限会社,埼玉県,川口市,柳崎４丁目３番１１号,,11,203,3330861,,,2022-08-09,清算の結了等,,,2015-10-05,1,,,,,キソバヤナギサキテン,0
715,4040001014891,登記記録の閉鎖等,0,2022-08-22,2022-08-10,セイコープレシジョン株式会社,,株式会社,千葉県,松戸市,高塚新田５６３番地,,12,207,2702222,,,2022-08-10,清算の結了等,,,2015-10-05,1,,,,,セイコープレシジョン,0
719,4040005017718,登記記録の閉鎖等,0,2022-08-22,2022-08-08,企業組合ワーカーズあい・惣菜,,その他の設立登記法人,千葉県,柏市,十余二下大塚３８０番地９７,,12,217,2770872,,,2022-08-08,清算の結了等,,,2015-10-05,1,,,,,ワーカーズアイソウザイ,0
722,4050002020120,登記記録の閉鎖等,0,2022-08-22,2022-08-17,有限会社ファッションサロンワタナベ,,有限会社,茨城県,坂東市,辺田１２０１番地の５,,08,228,3060632,,,2022-08-17,清算の結了等,,,2015-10-05,1,,,,,ファッションサロンワタナベ,0
724,4060001014031,登記記録の閉鎖等,0,2022-08-22,2022-08-12,岩崎商事株式会社,,株式会社,栃木県,小山市,大字横倉１８番地８,,09,208,3230813,,,2022-08-12,清算の結了等,,,2015-10-05,1,,,,,イワサキショウジ,0
728,4080402004694,登記記録の閉鎖等,0,2022-08-22,2022-08-18,有限会社竹内工務店,,有限会社,静岡県,浜松市東区,有玉北町４０９番地の１,,22,132,4313121,,,2022-08-18,清算の結了等,,,2015-10-05,1,,,,,タケウチコウムテン,0
732,4110002029551,登記記録の閉鎖等,0,2022-08-22,2022-08-18,有限会社憙廣,00071049,有限会社,新潟県,長岡市,福道町３２５番地１,,15,202,9402053,,,2022-08-18,清算の結了等,,,2015-10-05,1,,,,,ヨシヒロ,0
746,4130001069027,登記記録の閉鎖等,0,2022-08-22,2022-08-18,株式会社岩本機業店,,株式会社,京都府,京都市上京区,仁和寺街道浄福寺西入菱丸町１９２番地,,26,102,6028266,,,2022-08-18,合併による解散等,7160002004761,令和４年８月１５日滋賀県大津市粟津町４番１２号株式会社ウォークオン（7160002004761）に合併し解散,2021-04-05,1,,,,,イワモトキギョウテン,0
751,4140001007704,登記記録の閉鎖等,0,2022-08-22,2022-08-19,株式会社スパイシー,,株式会社,兵庫県,神戸市北区,大原３丁目１７番地１サンシティ神戸北町２番館７０６号,,28,109,6511222,,,2022-08-19,清算の結了等,,,2015-10-05,1,,,,,スパイシー,0
754,4140001040226,登記記録の閉鎖等,0,2022-08-22,2022-08-19,永井瓦工業株式会社,,株式会社,兵庫県,赤穂郡上郡町,上郡６６９番地,,28,481,6781231,,,2022-08-19,清算の結了等,,,2015-10-05,1,,,,,ナガイカワラコウギョウ,0
773,4180005018743,登記記録の閉鎖等,0,2022-08-22,2022-08-18,一般社団法人一宮市薬業組合,,その他の設立登記法人,愛知県,一宮市,千秋町穂積塚本字宮西１３４番地１,,23,203,4910803,,,2022-08-18,清算の結了等,,,2020-04-13,1,,,,,イチノミヤシヤクギョウクミアイ,0
787,4250002017006,登記記録の閉鎖等,0,2022-08-22,2022-08-16,有限会社末富鉄工所,,有限会社,山口県,光市,大字小周防３９８番地の１,,35,210,7430061,,,2022-08-16,清算の結了等,,,2015-10-05,1,,,,,スエトミテッコウジョ,0
789,4260001009151,登記記録の閉鎖等,0,2022-08-22,2022-08-19,株式会社ＵＮＩＴＡ設計室,,株式会社,岡山県,岡山市中区,浜１丁目１９－４１,,33,102,7038256,,,2022-08-19,清算の結了等,,,2015-10-05,1,,,,,ユニタセッケイシツ,0
792,4290002014206,登記記録の閉鎖等,0,2022-08-22,2022-08-10,井村電気土木有限会社,,有限会社,福岡県,福岡市博多区,諸岡２丁目１４番９号,,40,132,8120894,,,2022-08-10,清算の結了等,,,2015-10-05,1,,,,,イムラデンキドボク,0
807,4370003004379,登記記録の閉鎖等,0,2022-08-22,2022-08-12,合同会社エムズブランチ,,合同会社,宮城県,仙台市青葉区,国見５丁目１２番４号,,04,101,9810943,,,2022-08-12,清算の結了等,,,2019-01-25,1,,,,,エムズブランチ,0
813,4400005005207,登記記録の閉鎖等,0,2022-08-22,2022-08-19,特定非営利活動法人みどりと自然を育む会,,その他の設立登記法人,岩手県,盛岡市,山岸４丁目１９番３４号,,03,201,0200004,,,2022-08-19,清算の結了等,,,2015-10-05,1,,,,,ミドリトシゼンヲハグクムカイ,0
835,5010102005676,登記記録の閉鎖等,0,2022-08-22,2022-08-03,有限会社原田製作所,,有限会社,東京都,八王子市,叶谷町１１１１番地の１９,,13,201,1930815,,,2022-08-03,清算の結了等,,,2015-10-05,1,,,,,ハラダセイサクジョ,0
854,5010901033357,登記記録の閉鎖等,0,2022-08-22,2022-08-08,株式会社Ｆｒｅｅｄｏｍ,,株式会社,東京都,世田谷区,駒沢１丁目２番３３号,,13,112,1540012,,,2022-08-08,清算の結了等,,,2015-10-05,1,,,,,フリーダム,0
871,5012401013673,登記記録の閉鎖等,0,2022-08-22,2022-08-19,株式会社日本トラストシステム,,株式会社,東京都,武蔵野市,吉祥寺南町２丁目５番９－２０３号,,13,203,1800003,,,2022-08-19,清算の結了等,,,2015-10-05,1,,,,,ニホントラストシステム,0
881,5020001143576,登記記録の閉鎖等,0,2022-08-22,2022-08-10,株式会社Ｍ－Ｃｏｎｎｅｃｔ,,株式会社,神奈川県,川崎市川崎区,渡田３丁目１７番１４号,,14,131,2100837,,,2022-08-10,清算の結了等,,,2021-10-22,1,,,,,エムコネクト,0
897,5040001016466,登記記録の閉鎖等,0,2022-08-22,2022-08-09,株式会社ｓｅｅｄｓ　ｄｒｅａｍ,,株式会社,千葉県,習志野市,袖ケ浦１丁目２９番１－４０１号,,12,216,2750021,,,2022-08-09,清算の結了等,,,2015-10-05,1,,,,,シーズドリーム,0
911,5040003014352,登記記録の閉鎖等,0,2022-08-22,2022-08-09,合同会社ＴＡＩＳＥＩ興業,,合同会社,千葉県,松戸市,上本郷９０５－５ＫＡＩＮＡＬＵＢＬＤ．２Ｆ,,12,207,2710064,,,2022-08-09,清算の結了等,,,2019-11-11,1,,,,,タイセイコウギョウ,0
919,5080102007336,登記記録の閉鎖等,0,2022-08-22,2022-08-18,有限会社はるみ食堂,,有限会社,静岡県,御殿場市,新橋１９９０番地,,22,215,4120043,,,2022-08-18,清算の結了等,,,2015-10-05,1,,,,,ハルミショクドウ,0
922,5090002007476,登記記録の閉鎖等,0,2022-08-22,2022-08-17,有限会社清栄工業,,有限会社,山梨県,南アルプス市,有野３６５０番地９,,19,208,4000226,,,2022-08-17,清算の結了等,,,2015-10-05,1,,,,,セイエイコウギョウ,0
957,5140002036908,登記記録の閉鎖等,0,2022-08-22,2022-08-17,有限会社アイン,,有限会社,兵庫県,高砂市,神爪１丁目１３番１３号,,28,216,6760808,,,2022-08-17,清算の結了等,,,2015-10-05,1,,,,,アイン,0
961,5170001002908,登記記録の閉鎖等,0,2022-08-22,2022-08-22,フリーステーションインターナショナル株式会社,,株式会社,和歌山県,和歌山市,内原７７４番地の１４,,30,201,6410013,,,2022-08-22,清算の結了等,,,2015-10-05,1,,,,,フリーステーションインターナショナル,0
978,5260001010430,登記記録の閉鎖等,0,2022-08-22,2022-08-19,株式会社ハヤシ　フーズ,,株式会社,岡山県,岡山市北区,万成東町８番２０号,,33,101,7000072,,,2022-08-19,清算の結了等,,,2015-10-05,1,,,,,ハヤシフーズ,0
1018,6010001139442,登記記録の閉鎖等,0,2022-08-22,2022-08-09,株式会社パスコム,,株式会社,埼玉県,所沢市,松葉町８番４号,,11,208,3590044,,,2022-08-09,清算の結了等,,,2015-10-05,1,,,,,パスコム,0
1020,6010001158079,登記記録の閉鎖等,0,2022-08-22,2022-08-05,株式会社グラッド,,株式会社,千葉県,千葉市中央区,新宿２丁目９番７号,,12,101,2600021,,,2022-08-05,清算の結了等,,,2015-10-05,1,,,,,グラッド,0
1023,6010001210525,登記記録の閉鎖等,0,2022-08-22,2022-08-12,プラス・ファイブハンドレッド株式会社,,株式会社,東京都,千代田区,丸の内１丁目８番３号丸の内トラストタワー本館２０階,,13,101,1000005,,,2022-08-12,清算の結了等,,,2020-06-26,1,,,,,プラスファイブハンドレッド,0
1033,6010401050471,登記記録の閉鎖等,0,2022-08-22,2022-08-02,株式会社バンブーピクチャーズ,,株式会社,東京都,港区,南青山５丁目１番１０号５Ｆ,,13,103,1070062,,,2022-08-02,清算の結了等,,,2015-10-05,1,,,,,バンブーピクチャーズ,0
1034,6010401062054,登記記録の閉鎖等,0,2022-08-22,2022-08-03,パリ観光株式会社,,株式会社,東京都,港区,芝５丁目２９番２２号,,13,103,1080014,,,2022-08-03,清算の結了等,,,2015-10-05,1,,,,,,0
1038,6010403015621,登記記録の閉鎖等,0,2022-08-22,2022-08-17,合同会社ライラック,,合同会社,東京都,港区,南青山２丁目２番１５号ウィン青山９４２,,13,103,1070062,,,2022-08-17,合併による解散等,6030003006713,令和４年７月２９日さいたま市緑区宮本二丁目４番４号インベスターグリーン合同会社（6030003006713）に合併し解散,2016-11-21,1,,,,,ライラック,0
1045,6010603007204,登記記録の閉鎖等,0,2022-08-22,2022-08-08,オフィスＥ＆Ｋ合同会社,,合同会社,東京都,江東区,亀戸５丁目１７番１１号,,13,108,1360071,,,2022-08-08,清算の結了等,,,2018-04-06,1,,,,,オフィスイーアンドケー,0
1063,6011103009582,登記記録の閉鎖等,0,2022-08-22,2022-08-18,ＤＣＪＯＹＳ合同会社,,合同会社,東京都,渋谷区,神宮前３丁目２０番１９号,,13,113,1500001,,,2022-08-18,清算の結了等,,,2020-03-26,1,,,,,,0
1070,6011402006735,登記記録の閉鎖等,0,2022-08-22,2022-08-19,有限会社中山紙工,,有限会社,東京都,板橋区,中台１丁目４１番７号,,13,119,1740064,,,2022-08-19,清算の結了等,,,2015-10-05,1,,,,,ナカヤマシコウ,0
1076,6011803002192,登記記録の閉鎖等,0,2022-08-22,2022-08-18,秀合同会社,,合同会社,東京都,足立区,西伊興１丁目１３番１７号,,13,121,1210824,,,2022-08-18,清算の結了等,,,2015-10-05,1,,,,,,0
1078,6012402019669,登記記録の閉鎖等,0,2022-08-22,2022-08-18,有限会社ホームサービス石井,,有限会社,東京都,三鷹市,下連雀５丁目９番５号,,13,204,1810013,,,2022-08-18,清算の結了等,,,2015-10-05,1,,,,,ホームサービスイシイ,0
1084,6013402001311,登記記録の閉鎖等,0,2022-08-22,2022-08-17,有限会社藤島精密,,有限会社,東京都,日野市,新町５丁目４番１６号,,13,212,1910002,,,2022-08-17,清算の結了等,,,2015-10-05,1,,,,,フジシマセイミツ,0
1096,6021001062947,登記記録の閉鎖等,0,2022-08-22,2022-08-19,株式会社湘南通信,,株式会社,神奈川県,足柄上郡中井町,井ノ口２０８６番地の４,,14,361,2590151,,,2022-08-19,清算の結了等,,,2017-08-29,1,,,,,,0
1109,6040001033205,登記記録の閉鎖等,0,2022-08-22,2022-08-18,ＰＲＯＴＥＣＴＩＯＮ株式会社,,株式会社,東京都,墨田区,菊川３丁目１５－２東海ビル２階,,13,107,1300024,,,2022-08-18,清算の結了等,,,2015-10-05,1,,,,,プロテクション,0
1117,6040001111695,登記記録の閉鎖等,0,2022-08-22,2022-08-10,シェルパ株式会社,,株式会社,千葉県,浦安市,日の出５丁目５番１－３１６号パークシティ東京ベイ新浦安Ｃｏｃｏ,,12,227,2790013,,,2022-08-10,清算の結了等,,,2019-12-03,1,,,,,シェルパ,0
1121,6040003001671,登記記録の閉鎖等,0,2022-08-22,2022-08-08,キッズインフィニティ合同会社,,合同会社,千葉県,浦安市,高洲４丁目３番１号,,12,227,2790023,,,2022-08-08,清算の結了等,,,2015-10-05,1,,,,,キッズインフィニティ,0
1136,6120001124978,登記記録の閉鎖等,0,2022-08-22,2022-08-17,株式会社山野広告,,株式会社,大阪府,大阪市中央区,東高麗橋３番１１号９０１,,27,128,5400039,,,2022-08-17,清算の結了等,,,2015-10-05,1,,,,,ヤマノコウコク,0
1180,6190002020583,登記記録の閉鎖等,0,2022-08-22,2022-08-17,有限会社ジョイラック,,有限会社,三重県,四日市市,安島１丁目２番１３号パシフィックビル１階,,24,202,5100075,,,2022-08-17,清算の結了等,,,2015-10-05,1,,,,,ジョイラック,0
1198,6290002037205,登記記録の閉鎖等,0,2022-08-22,2022-08-09,有限会社安河内組,,有限会社,福岡県,糟屋郡宇美町,宇美２丁目１番６号,,40,341,8112101,,,2022-08-09,清算の結了等,,,2015-10-05,1,,,,,ヤウコウチグミ,0
1204,6330001000241,登記記録の閉鎖等,0,2022-08-22,2022-08-15,株式会社アリタ,,株式会社,熊本県,熊本市中央区,本荘４丁目１番３号,,43,101,8600811,,,2022-08-15,清算の結了等,,,2015-10-05,1,,,,,アリタ,0
1264,7010701041599,登記記録の閉鎖等,0,2022-08-22,2022-08-17,株式会社ＯＳＥＲＳ,,株式会社,東京都,品川区,旗の台３丁目１５－１ツバセスＰＡＲＴ９－３３０号室,,13,109,1420064,,,2022-08-17,清算の結了等,,,2021-10-04,1,,,,,オスアーズ,0
1284,7011202000680,登記記録の閉鎖等,0,2022-08-22,2022-08-09,有限会社稲葉建築事務所,,有限会社,東京都,中野区,白鷺３丁目１４番５号,,13,114,1650035,,,2022-08-09,清算の結了等,,,2015-10-05,1,,,,,イナバケンチクジムショ,0
1289,7011601022821,登記記録の閉鎖等,0,2022-08-22,2022-08-17,株式会社クリフシナジー,,株式会社,東京都,目黒区,目黒１丁目４番１６号目黒Ｇビル７階,,13,110,1530063,,,2022-08-17,合併による解散等,1010401084383,令和４年８月１日東京都千代田区麹町二丁目１０番３号株式会社ＢＯＡＳＴ（1010401084383）に合併し解散,2018-09-18,1,,,,,クリフシナジー,0
1295,7012301008508,登記記録の閉鎖等,0,2022-08-22,2022-08-18,ライフエイド大森株式会社,,株式会社,東京都,品川区,南大井６丁目１６番１６号鈴中ビル大森３階,,13,109,1400013,,,2022-08-18,清算の結了等,,,2015-10-05,1,,,,,ライフエイドオオモリ,0
1312,7020002080775,登記記録の閉鎖等,0,2022-08-22,2022-08-04,有限会社寒可江電気工業,,有限会社,神奈川県,川崎市幸区,小向町１１番１号,,14,132,2120003,,,2022-08-04,清算の結了等,,,2015-10-05,1,,,,,サガエデンキコウギョウ,0
1315,7020003018510,登記記録の閉鎖等,0,2022-08-22,2022-08-10,合同会社ｂｅｉｎｇ,,合同会社,神奈川県,横浜市西区,北幸１丁目１１番１号水信ビル７階,,14,103,2200004,,,2022-08-10,清算の結了等,,,2020-09-17,1,,,,,ビーイング,0
1354,7060002018350,登記記録の閉鎖等,0,2022-08-22,2022-08-12,小幡総合建設有限会社,,有限会社,栃木県,芳賀郡茂木町,大字飯１０４１番地２,,09,343,3213626,,,2022-08-12,清算の結了等,,,2015-10-05,1,,,,,オバタソウゴウケンセツ,0
1361,7080401013132,登記記録の閉鎖等,0,2022-08-22,2022-08-19,株式会社スリードリーム,,株式会社,静岡県,浜松市北区,三ヶ日町三ヶ日９４８番地の７,,22,135,4311414,,,2022-08-19,清算の結了等,,,2015-10-05,1,,,,,スリードリーム,0
1367,7120001107635,登記記録の閉鎖等,0,2022-08-22,2022-08-18,株式会社Ｙ＆Ｋ,,株式会社,大阪府,大阪市中央区,東心斎橋２丁目６番１号安達ビル１Ｆ,,27,128,5420083,,,2022-08-18,清算の結了等,,,2015-10-05,1,,,,,ワイアンドケー,0
1377,7120003016990,登記記録の閉鎖等,0,2022-08-22,2022-08-10,合同会社Ｍｉｏｍｉｏ,,合同会社,大阪府,大阪市浪速区,難波中３丁目７番２号新難波ビル,,27,111,5560011,,,2022-08-10,清算の結了等,,,2020-02-18,1,,,,,ミオミオ,0
1392,7140005025253,登記記録の閉鎖等,0,2022-08-22,2022-08-16,特定非営利活動法人神戸オリーブ園,,その他の設立登記法人,兵庫県,神戸市西区,押部谷町高和１１２１番地の１,,28,111,6512204,,,2022-08-16,清算の結了等,,,2020-08-07,1,,,,,コウベオリーブエン,0
1409,7210005009876,登記記録の閉鎖等,0,2022-08-22,2022-08-18,一般社団法人今立担い手ネットワーク,,その他の設立登記法人,福井県,越前市,山室町第５０号６番地の２,,18,209,9150263,,,2022-08-18,清算の結了等,,,2020-04-06,1,,,,,イマダテニナイテネットワーク,0
1414,7270003000988,登記記録の閉鎖等,0,2022-08-22,2022-08-12,合同会社エッグ総研,,合同会社,鳥取県,米子市,西福原５丁目２番２２号,,31,202,6830805,,,2022-08-12,合併による解散等,3270001003154,令和４年８月１日鳥取県米子市西福原四丁目１１番３１号株式会社エッグ（3270001003154）に合併し解散,2017-06-22,1,,,,,エッグソウケン,0
1426,7290001085360,登記記録の閉鎖等,0,2022-08-22,2022-08-09,株式会社玉響,,株式会社,福岡県,福岡市西区,下山門１丁目４番２５号２階,,40,135,8190052,,,2022-08-09,合併による解散等,7290001005707,令和４年８月６日福岡市早良区百道浜三丁目３番１号株式会社ベガ（7290001005707）に合併し解散,2019-06-05,1,,,,,タマヒビキ,0
1452,7430001056529,登記記録の閉鎖等,0,2022-08-22,2022-08-08,株式会社アメリカンファム,,株式会社,北海道,室蘭市,日の出町１丁目１４番８号,,01,205,0500081,,,2022-08-08,清算の結了等,,,2015-10-05,1,,,,,アメリカンファム,0
1489,8010601022789,登記記録の閉鎖等,0,2022-08-22,2022-08-18,株式会社大川企画,,株式会社,東京都,墨田区,押上１丁目４８番１８号－１階,,13,107,1310045,,,2022-08-18,清算の結了等,,,2015-10-05,1,,,,,,0
1494,8010701025106,登記記録の閉鎖等,0,2022-08-22,2022-08-17,株式会社経営管理研究所,,株式会社,東京都,品川区,東五反田２丁目１６番１－３００１号,,13,109,1410022,,,2022-08-17,清算の結了等,,,2015-10-05,1,,,,,ケイエイカンリケンキュウショ,0
1495,8010701037092,登記記録の閉鎖等,0,2022-08-22,2022-08-16,ＪＡＬデジタルエクスペリエンス株式会社,,株式会社,東京都,品川区,東品川２丁目４番１１号,,13,109,1400002,,,2022-08-16,清算の結了等,,,2019-02-08,1,,,,,ジャルデジタルエクスペリエンス,0
1500,8011001097397,登記記録の閉鎖等,0,2022-08-22,2022-08-17,株式会社ケイアンドエス,,株式会社,東京都,渋谷区,千駄ヶ谷３丁目２３番１０号,,13,113,1510051,,,2022-08-17,清算の結了等,,,2015-10-05,1,,,,,ケイアンドエス,0
1508,8011102017543,登記記録の閉鎖等,0,2022-08-22,2022-08-01,有限会社フィットヒューマンライフ,,有限会社,東京都,渋谷区,西原２丁目３６番１６号,,13,113,1510066,,,2022-08-01,合併による解散等,5011102017513,令和４年８月１日東京都渋谷区西原二丁目３６番１６号株式会社オフィス広川（5011102017513）に合併し解散,2015-10-05,1,,,,,フィットヒューマンライフ,0
1544,8021001046601,登記記録の閉鎖等,0,2022-08-22,2022-08-18,株式会社三能,,株式会社,東京都,目黒区,中央町１丁目１９番１４号メディス学芸大学２階２号室,,13,110,1520001,,,2022-08-18,清算の結了等,,,2015-10-05,1,,,,,,0
1549,8030001067796,登記記録の閉鎖等,0,2022-08-22,2022-08-15,株式会社プラスアルファ,,株式会社,千葉県,柏市,柏２丁目１０番２－２７０５号,,12,217,2770005,,,2022-08-15,合併による解散等,3030002092030,令和４年８月１日埼玉県越谷市南越谷四丁目１５番３－１５株式会社新柏日の丸（3030002092030）に合併し解散,2015-10-05,1,,,,,プラスアルファ,0
1560,8040001032659,登記記録の閉鎖等,0,2022-08-22,2022-08-12,株式会社イーストスタッフ,,株式会社,千葉県,市川市,南大野１丁目４６番１－１０３号,,12,203,2720804,,,2022-08-12,清算の結了等,,,2015-10-05,1,,,,,イーストスタッフ,0
1583,8110003004509,登記記録の閉鎖等,0,2022-08-22,2022-08-18,合同会社Ｏｕｒ　Ｄｉｓｃｏｖｅｒｙ,,合同会社,新潟県,新潟市中央区,関新２丁目１－７３新潟ダイカンプラザ遊学館１３０３号,,15,103,9518141,,,2022-08-18,清算の結了等,,,2021-06-15,1,,,,,アワーディスカバリー,0
1585,8120001115959,登記記録の閉鎖等,0,2022-08-22,2022-08-19,株式会社ガイア波動研究所,,株式会社,大阪府,大阪市旭区,赤川４丁目７番５号,,27,117,5350005,,,2022-08-19,清算の結了等,,,2015-10-05,1,,,,,ガイアハドウケンキュウショ,0
1610,8140001115222,登記記録の閉鎖等,0,2022-08-22,2022-08-18,ディメンションバッテリー株式会社,,株式会社,兵庫県,川西市,小花２丁目２２番１１号,,28,217,6660015,,,2022-08-18,清算の結了等,,,2019-10-17,1,,,,,ディメンションバッテリー,0
1613,8140003012979,登記記録の閉鎖等,0,2022-08-22,2022-08-09,ＬＤ合同会社,,合同会社,東京都,中央区,佃１丁目１１番７号スカイライトタワー２５０４,,13,102,1040051,,,2022-08-09,清算の結了等,,,2018-05-09,1,LD LLC,Hyogo,"2-27-409, Nishinomiya shi Shimoyoshihara-cho",,エルディー,0
1622,8180003016076,登記記録の閉鎖等,0,2022-08-22,2022-08-17,エー・アール・イー合同会社,,合同会社,愛知県,名古屋市名東区,梅森坂３丁目５１２番地,,23,115,4650065,,,2022-08-17,清算の結了等,,,2015-10-05,1,,,,,エーアールイー,0
1624,8180005017898,登記記録の閉鎖等,0,2022-08-22,2022-08-19,一般社団法人日本ヘルシーフードコーディネート協会,,その他の設立登記法人,愛知県,名古屋市北区,志賀南通２丁目２番２号,,23,103,4620842,,,2022-08-19,清算の結了等,,,2018-07-09,1,,,,,ニホンヘルシーフードコーディネートキョウカイ,0
1625,8180005019440,登記記録の閉鎖等,0,2022-08-22,2022-08-19,特定非営利活動法人あま福祉総合相談所,,その他の設立登記法人,愛知県,あま市,木田山之越東切４２番地３,,23,237,4901222,,,2022-08-19,清算の結了等,,,2021-09-17,1,,,,,アマフクシソウゴウソウダンジョ,0
1626,8180301024136,登記記録の閉鎖等,0,2022-08-22,2022-08-17,株式会社タイキ,,株式会社,愛知県,新城市,門谷字笠川２５番地,,23,221,4411944,,,2022-08-17,清算の結了等,,,2015-10-05,1,,,,,タイキ,0
1628,8200002000631,登記記録の閉鎖等,0,2022-08-22,2022-08-19,有限会社遠藤鍍金工業所,,有限会社,岐阜県,岐阜市,忠節町４丁目７８番地,,21,201,5008801,,,2022-08-19,清算の結了等,,,2015-10-05,1,,,,,エンドウトキンコウギョウショ,0
1631,8260001015336,登記記録の閉鎖等,0,2022-08-22,2022-08-19,株式会社トゥモロープランニング,,株式会社,岡山県,総社市,中央６丁目９番１０７号,,33,208,7191131,,,2022-08-19,清算の結了等,,,2015-10-05,1,,,,,トゥモロープランニング,0
1633,8260002005237,登記記録の閉鎖等,0,2022-08-22,2022-08-19,シルバーリード岡山有限会社,,有限会社,岡山県,岡山市北区,西辛川１９０番地の２,,33,101,7011213,,,2022-08-19,清算の結了等,,,2015-10-05,1,,,,,シルバーリードオカヤマ,0
1663,8380002000399,登記記録の閉鎖等,0,2022-08-22,2022-08-10,有限会社板垣設備工業所,,有限会社,福島県,福島市,瀬上町字四斗蒔３８番地の１,,07,201,9600101,,,2022-08-10,清算の結了等,,,2015-10-05,1,,,,,イタガキセツビコウギョウショ,0
1664,8380005005759,登記記録の閉鎖等,0,2022-08-22,2022-08-10,医療法人翔洋会,,その他の設立登記法人,福島県,いわき市,小名浜南富岡字富士前４１番地,,07,204,9718112,,,2022-08-10,清算の結了等,,,2015-10-05,1,,,,,ショウヨウカイ,0
1665,8390001013368,登記記録の閉鎖等,0,2022-08-22,2022-08-12,株式会社Ｃａｒｅ美園,,株式会社,山形県,天童市,一日町４丁目２番２３－１０号,,06,210,9940044,,,2022-08-12,清算の結了等,,,2015-10-05,1,,,,,ケアミソノ,0
1696,9010001216750,登記記録の閉鎖等,0,2022-08-22,2022-08-12,ＣＮＥＳＴ　Ｊａｐａｎ株式会社,,株式会社,東京都,千代田区,東神田２丁目６番７号６０８,,13,101,1010031,,,2022-08-12,清算の結了等,,,2021-03-23,1,,,,,シネストジャパン,0
1706,9010402017582,登記記録の閉鎖等,0,2022-08-22,2022-08-01,有限会社ワン・ナイト,,有限会社,東京都,渋谷区,西原２丁目３６番１６号,,13,113,1510066,,,2022-08-01,合併による解散等,5011102017513,令和４年８月１日東京都渋谷区西原二丁目３６番１６号株式会社オフィス広川（5011102017513）に合併し解散,2015-10-05,1,,,,,ワンナイト,0
1707,9010402021056,登記記録の閉鎖等,0,2022-08-22,2022-08-03,有限会社山田ビルディング,,有限会社,東京都,港区,西麻布４丁目７番６号堀田坂ハウス２０３号室,,13,103,1060031,,,2022-08-03,清算の結了等,,,2015-10-05,1,,,,,ヤマダビルディング,0
1725,9010901022694,登記記録の閉鎖等,0,2022-08-22,2022-08-19,株式会社ヒルトップ,,株式会社,東京都,新宿区,歌舞伎町１丁目３番１３号,,13,104,1600021,,,2022-08-19,清算の結了等,,,2015-10-05,1,,,,,ヒルトップ,0
1734,9011201020034,登記記録の閉鎖等,0,2022-08-22,2022-08-08,株式会社千代モデリング,,株式会社,東京都,中野区,本町１丁目９番８号,,13,114,1640012,,,2022-08-08,清算の結了等,,,2017-07-21,1,,,,,,0
1736,9011402008480,登記記録の閉鎖等,0,2022-08-22,2022-08-19,有限会社丸山製作所,,有限会社,東京都,板橋区,東坂下１丁目６番１号,,13,119,1740042,,,2022-08-19,清算の結了等,,,2015-10-05,1,,,,,マルヤマセイサクショ,0
1752,9013302001160,登記記録の閉鎖等,0,2022-08-22,2022-08-18,有限会社魚久商店,,有限会社,東京都,豊島区,南池袋３丁目１５番１０号,,13,116,1710022,,,2022-08-18,清算の結了等,,,2015-10-05,1,,,,,ウオキュウショウテン,0
1763,9030001043375,登記記録の閉鎖等,0,2022-08-22,2022-08-10,株式会社ウエテック研究所,,株式会社,埼玉県,上尾市,大字南５１３番地１,,11,219,3620002,,,2022-08-10,清算の結了等,,,2015-10-05,1,,,,,ウエテックケンキュウジョ,0
1770,9030002039785,登記記録の閉鎖等,0,2022-08-22,2022-08-08,有限会社冨士エンジニアリング,,有限会社,埼玉県,幸手市,大字戸島４２０番地５,,11,240,3400144,,,2022-08-08,清算の結了等,,,2015-10-05,1,,,,,フジエンジニアリング,0
1778,9040005005305,登記記録の閉鎖等,0,2022-08-22,2022-08-08,医療法人社団明象会,,その他の設立登記法人,千葉県,松戸市,常盤平６丁目１９番地の２,,12,207,2702261,,,2022-08-08,清算の結了等,,,2015-10-05,1,,,,,メイショウカイ,0
1781,9050001031147,登記記録の閉鎖等,0,2022-08-22,2022-08-12,株式会社　ＫＥＮコーポレーション,,株式会社,千葉県,流山市,加２丁目８－１１,,12,220,2700176,,,2022-08-12,清算の結了等,,,2015-10-05,1,,,,,ケンコーポレーション,0
1807,9120901038639,登記記録の閉鎖等,0,2022-08-22,2022-08-19,株式会社ジェイアグリ,,株式会社,大阪府,摂津市,鳥飼八町１丁目１番１７号,,27,224,5660061,,,2022-08-19,清算の結了等,,,2017-06-21,1,,,,,ジェイアグリ,0
1831,9180005006363,登記記録の閉鎖等,0,2022-08-22,2022-08-05,特定非営利活動法人健康科学研究所,,その他の設立登記法人,愛知県,名古屋市名東区,上社１丁目１８０５番地,,23,115,4650025,,,2022-08-05,清算の結了等,,,2015-10-05,1,,,,,ケンコウカガクケンキュウジョ,0
1836,9200001002719,登記記録の閉鎖等,0,2022-08-22,2022-08-19,株式会社すぎ山給食センター,,株式会社,岐阜県,岐阜市,鏡島２９９５番地の２,,21,201,5010111,,,2022-08-19,清算の結了等,,,2015-10-05,1,,,,,スギヤマキュウショクセンター,0
1841,9240001007978,登記記録の閉鎖等,0,2022-08-22,2022-08-19,株式会社ナツク映像センター,,株式会社,広島県,広島市中区,羽衣町１－２６,,34,101,7300814,,,2022-08-19,清算の結了等,,,2015-10-05,1,,,,,ナックエイゾウセンター,0
1843,9240005009938,登記記録の閉鎖等,0,2022-08-22,2022-07-25,特定非営利活動法人西日本義歯リサイクルセンター,,その他の設立登記法人,広島県,福山市,神辺町新徳田４３－１,,34,207,7210000,,,2022-07-25,清算の結了等,,,2015-10-05,1,,,,,ニシニホンギシリサイクルセンター,0
1854,9300001006940,登記記録の閉鎖等,0,2022-08-22,2022-08-10,九州重粒子線施設管理株式会社,,株式会社,佐賀県,鳥栖市,原古賀町３０４９番地,,41,203,8410071,,,2022-08-10,清算の結了等,,,2015-10-05,1,,,,,キュウシュウジュウリュウシセンシセツカンリ,0
1860,9330002000444,登記記録の閉鎖等,0,2022-08-22,2022-08-15,株式会社アバンセ,,株式会社,熊本県,熊本市北区,釜尾町９６４番地２,,43,105,8615534,,,2022-08-15,清算の結了等,,,2015-10-05,1,,,,,アバンセ,0
1867,9360002004467,登記記録の閉鎖等,0,2022-08-22,2022-08-18,有限会社やすい商事,,有限会社,兵庫県,宝塚市,武庫川町５番３１－４０４号,,28,214,6650844,,,2022-08-18,清算の結了等,,,2015-10-05,1,,,,,ヤスイショウジ,0
1869,9380005005667,登記記録の閉鎖等,0,2022-08-22,2022-08-10,一般財団法人高月育英会,,その他の設立登記法人,福島県,いわき市,平字高月７番地,,07,204,9708026,,,2022-08-10,清算の結了等,,,2015-10-05,1,,,,,タカツキイクエイカイ,0
1881,9430002046155,登記記録の閉鎖等,0,2022-08-22,2022-08-09,まるは久保商店有限会社,,有限会社,北海道,江別市,対雁１１５番地６１,,01,217,0670033,,,2022-08-09,清算の結了等,,,2015-10-05,1,,,,,マルハクボショウテン,0
