sequenceNumber,corporateNumber,process,correct,updateDate,changeDate,name,nameImageId,kind,prefectureName,cityName,streetNumber,addressImageId,prefectureCode,cityCode,postCode,addressOutside,addressOutsideImageId,closeDate,closeCause,successorCorporateNumber,changeCause,assignmentDate,latest,enName,enPrefectureName,enCityName,enAddressOutside,furigana,hihyoji
2,1010001090897,登記記録の閉鎖等,0,2024-06-19,2024-06-17,株式会社経営管理ナカチ,,株式会社,東京都,千代田区,有楽町１丁目７番１号有楽町電気ビルヂング北館７階,,13,101,1000006,,,2024-06-17,清算の結了等,,,2015-10-05,1,,,,,ケイエイカンリナカチ,0
21,1010402019784,登記記録の閉鎖等,0,2024-06-19,2024-05-27,モデラート・キャピタル有限会社,,有限会社,東京都,港区,新橋２丁目２番９号,,13,103,1050004,,,2024-05-27,清算の結了等,,,2024-03-25,1,,,,,,0
87,1020001137417,登記記録の閉鎖等,0,2024-06-19,2024-06-07,株式会社リクチ漏水調査神奈川,,株式会社,神奈川県,横浜市磯子区,東町１５番３２号モンビル４０６,,14,107,2350005,,,2024-06-07,清算の結了等,,,2020-08-28,1,,,,,リクチロウスイチョウサカナガワ,0
102,1030001110091,登記記録の閉鎖等,0,2024-06-19,2024-06-14,バロクックジャパン株式会社,,株式会社,埼玉県,三郷市,高州２丁目３０７番地１,,11,237,3410037,,,2024-06-14,清算の結了等,,,2015-10-05,1,,,,,バロクックジャパン,0
109,1030005010239,登記記録の閉鎖等,0,2024-06-19,2024-06-13,医療法人社団境医院,,その他の設立登記法人,埼玉県,越谷市,大字下間久里８８６番地６６,,11,222,3430045,,,2024-06-13,清算の結了等,,,2015-10-05,1,,,,,サカイイイン,0
111,1040001001026,登記記録の閉鎖等,0,2024-06-19,2024-06-07,エビス商亊株式会社,,株式会社,千葉県,千葉市中央区,栄町１６番地３,,12,101,2600016,,,2024-06-07,清算の結了等,,,2015-10-05,1,,,,,,0
117,1040002046664,登記記録の閉鎖等,0,2024-06-19,2024-06-07,有限会社ステップ,,有限会社,千葉県,松戸市,三ケ月１４９４番地３０２号,,12,207,2700026,,,2024-06-07,清算の結了等,,,2015-10-05,1,,,,,ステップ,0
129,1070001009132,登記記録の閉鎖等,0,2024-06-19,2024-06-17,株式会社ホームハンズ,,株式会社,群馬県,前橋市,元総社町３９５番地７４,,10,201,3710846,,,2024-06-17,清算の結了等,,,2015-10-05,1,,,,,ホームハンズ,0
138,1110001032897,登記記録の閉鎖等,0,2024-06-19,2024-06-12,株式会社Ｔ．Ｏ．Ｓ,,株式会社,新潟県,新潟市中央区,東大通１丁目１１番１２号パルコミニオンビル７Ｆ,,15,103,9500087,,,2024-06-12,清算の結了等,,,2017-12-26,1,,,,,ティーオーエス,0
165,1122001015344,登記記録の閉鎖等,0,2024-06-19,2024-06-17,佐野工務店株式会社,,株式会社,大阪府,大東市,御供田１丁目１０番１４号,,27,218,5740025,,,2024-06-17,清算の結了等,,,2015-10-05,1,,,,,サノコウムテン,0
166,1130001001850,登記記録の閉鎖等,0,2024-06-19,2024-06-14,細見工業株式会社,,株式会社,京都府,京都市右京区,梅津大縄場町２１番地の１０,,26,108,6150925,,,2024-06-14,清算の結了等,,,2015-10-05,1,,,,,ホソミコウギョウ,0
169,1140001094539,登記記録の閉鎖等,0,2024-06-19,2024-06-13,神戸商材株式会社,,株式会社,兵庫県,神戸市東灘区,住吉宮町３丁目１５－１５－３０３,,28,101,6580053,,,2024-06-13,清算の結了等,,,2015-10-05,1,,,,,コウベショウザイ,0
195,1210002003739,登記記録の閉鎖等,0,2024-06-19,2024-06-17,有限会社山本鉄工所,,有限会社,福井県,福井市,南野津又町第２０号３５番地,,18,201,9102461,,,2024-06-17,清算の結了等,,,2015-10-05,1,,,,,ヤマモトテッコウショ,0
198,1240001040986,登記記録の閉鎖等,0,2024-06-19,2024-05-27,ミライデザイン株式会社,,株式会社,長野県,長野市,柳町４８番４－１００２号,,20,201,3800805,,,2024-05-27,清算の結了等,,,2015-10-05,1,,,,,ミライデザイン,0
224,1330002030127,登記記録の閉鎖等,0,2024-06-19,2024-06-12,有限会社熊日相良販売センター,,有限会社,熊本県,球磨郡相良村,大字川辺９８０番地,,43,510,8680093,,,2024-06-12,清算の結了等,,,2015-10-05,1,,,,,クマニチサガラハンバイセンター,0
232,1370002037267,登記記録の閉鎖等,0,2024-06-19,2024-06-10,有限会社鈴木製氷,,有限会社,宮城県,仙台市青葉区,中江１丁目１６番６号,,04,101,9800001,,,2024-06-10,清算の結了等,,,2024-04-30,1,,,,,スズキセイヒョウ,0
242,1430001013015,登記記録の閉鎖等,0,2024-06-19,2024-06-14,株式会社ケアリンク,,株式会社,北海道,札幌市東区,北三十一条東１丁目１番１号,,01,103,0650031,,,2024-06-14,清算の結了等,,,2015-10-05,1,,,,,ケアリンク,0
252,1460002000249,登記記録の閉鎖等,0,2024-06-19,2024-06-14,有限会社インテリア奥本,,有限会社,北海道,釧路市,鶴ケ岱１丁目１番８号,,01,206,0850821,,,2024-06-14,清算の結了等,,,2015-10-05,1,,,,,インテリアオクモト,0
270,2010401006816,登記記録の閉鎖等,0,2024-06-19,2024-06-05,株式会社環太平洋商事,,株式会社,東京都,港区,新橋２丁目９番１号,,13,103,1050004,,,2024-06-05,清算の結了等,,,2015-10-05,1,,,,,カンタイヘイヨウショウジ,0
276,2010403015765,登記記録の閉鎖等,0,2024-06-19,2024-06-05,アテナ合同会社,,合同会社,東京都,港区,北青山２丁目７番２０号猪瀬ビル２Ｆ,,13,103,1070061,,,2024-06-05,清算の結了等,,,2016-12-16,1,,,,,アテナ,0
324,2020002047234,登記記録の閉鎖等,0,2024-06-19,2024-06-06,有限会社フレッシュミートおかの,,有限会社,神奈川県,横浜市金沢区,谷津町１４８番地,,14,108,2360016,,,2024-06-06,清算の結了等,,,2015-10-05,1,,,,,フレッシュミートオカノ,0
325,2020002103945,登記記録の閉鎖等,0,2024-06-19,2024-06-07,有限会社エアタイトパートナーズ,,有限会社,神奈川県,川崎市麻生区,千代ケ丘８丁目２４番１０号,,14,137,2150005,,,2024-06-07,清算の結了等,,,2015-10-05,1,,,,,エアタイトパートナーズ,0
350,2040005018692,登記記録の閉鎖等,0,2024-06-19,2024-06-07,特定非営利活動法人なごみ,,その他の設立登記法人,千葉県,いすみ市,大原１００９５番地,,12,238,2980004,,,2024-06-07,清算の結了等,,,2015-10-05,1,,,,,ナゴミ,0
353,2050001039031,登記記録の閉鎖等,0,2024-06-19,2024-06-14,シニア・オーシャンズ・メンバーズ株式会社,,株式会社,茨城県,つくば市,南中妻３７０番地２,,08,220,3050065,,,2024-06-14,清算の結了等,,,2015-10-05,1,,,,,シニアオーシャンズメンバーズ,0
357,2060003004775,登記記録の閉鎖等,0,2024-06-19,2024-06-10,Ｊｕｎｉｓ．ＡＬＬ合同会社,,合同会社,栃木県,塩谷郡高根沢町,大字上高根沢３９７５－８,,09,386,3291224,,,2024-06-10,清算の結了等,,,2023-10-24,1,,,,,ジュニスオール,0
408,2170001014939,登記記録の閉鎖等,0,2024-06-19,2024-06-17,株式会社ベストシーン,,株式会社,和歌山県,和歌山市,小松原５丁目３番５号,,30,201,6408265,,,2024-06-17,清算の結了等,,,2017-10-11,1,,,,,ベストシーン,0
410,2180002082983,登記記録の閉鎖等,0,2024-06-19,2024-06-10,有限会社勝川塗装,,有限会社,愛知県,春日井市,細木町２丁目２６番地,,23,206,4860937,,,2024-06-10,清算の結了等,,,2015-10-05,1,,,,,カチカワトソウ,0
414,2190001026560,登記記録の閉鎖等,0,2024-06-19,2024-06-17,株式会社翼グループ,,株式会社,三重県,四日市市,小古曽東１丁目１５２番地の１,,24,202,5100951,,,2024-06-17,清算の結了等,,,2019-07-11,1,,,,,ツバサグループ,0
416,2200001024265,登記記録の閉鎖等,0,2024-06-19,2024-06-17,株式会社ＴＮＣ,,株式会社,岐阜県,恵那市,岩村町飯羽間２６７１番地１,,21,210,5097401,,,2024-06-17,清算の結了等,,,2015-10-05,1,,,,,ティーエヌシー,0
420,2220001004802,登記記録の閉鎖等,0,2024-06-19,2024-06-13,ナカモトエンタープライズ株式会社,,株式会社,石川県,金沢市,西泉３丁目１番地,,17,201,9218043,,,2024-06-13,清算の結了等,,,2015-10-05,1,,,,,ナカモトエンタープライズ,0
443,2290801025339,登記記録の閉鎖等,0,2024-06-19,2024-06-10,株式会社ヤミー,,株式会社,福岡県,北九州市八幡西区,本城東２丁目２番７号,,40,109,8070815,,,2024-06-10,清算の結了等,,,2019-03-12,1,,,,,ヤミー,0
449,2330002006051,登記記録の閉鎖等,0,2024-06-19,2024-06-12,有限会社園田塗装,,有限会社,熊本県,熊本市西区,池田２丁目１９番１２号,,43,103,8600082,,,2024-06-12,清算の結了等,,,2015-10-05,1,,,,,ソノダトソウ,0
457,2360001028457,登記記録の閉鎖等,0,2024-06-19,2024-06-14,株式会社ＡＩＲ,,株式会社,沖縄県,那覇市,久茂地１丁目１番１号９階,,47,201,9000015,,,2024-06-14,清算の結了等,,,2021-03-10,1,,,,,,0
498,2470002000833,登記記録の閉鎖等,0,2024-06-19,2024-06-13,有限会社有朝建設,,有限会社,香川県,高松市,西町８番９号,,37,201,7600003,,,2024-06-13,清算の結了等,,,2015-10-05,1,,,,,アリトモケンセツ,0
504,3010001140725,登記記録の閉鎖等,0,2024-06-19,2024-06-05,株式会社サイレントサービス,,株式会社,東京都,港区,芝浦４丁目１９番１号,,13,103,1080023,,,2024-06-05,清算の結了等,,,2015-10-05,1,,,,,,0
506,3010001188632,登記記録の閉鎖等,0,2024-06-19,2024-05-30,日露実業株式会社,,株式会社,東京都,千代田区,内幸町２丁目２番地１,,13,101,1000011,,,2024-05-30,清算の結了等,,,2017-12-28,1,,,,,ニチロジツギョウ,0
538,3010703005721,登記記録の閉鎖等,0,2024-06-19,2024-06-17,合同会社ＡａｎｄＮ,,合同会社,東京都,品川区,西大井５丁目１０番６号,,13,109,1400015,,,2024-06-17,清算の結了等,,,2021-04-13,1,,,,,エーアンドエヌ,0
539,3010901047697,登記記録の閉鎖等,0,2024-06-19,2024-06-13,株式会社ＫＩＣソリューションズ,,株式会社,東京都,世田谷区,桜丘４丁目１９番３９号フォンターナ桜丘１０３,,13,112,1560054,,,2024-06-13,清算の結了等,,,2020-12-21,1,,,,,ケーアイシーソリューションズ,0
555,3011101074697,登記記録の閉鎖等,0,2024-06-19,2024-06-06,ｆｊコンサルティング株式会社,,株式会社,東京都,千代田区,神田駿河台４丁目３番地,,13,101,1010062,,,2024-06-06,合併による解散等,4011101061083,令和６年６月１日東京都千代田区神田駿河台四丁目３番地ユナイトアンドグロウ株式会社（4011101061083）に合併し解散,2015-10-19,1,,,,,エフジェイコンサルティング,0
575,3011801036162,登記記録の閉鎖等,0,2024-06-19,2024-06-17,株式会社ＧＦＥ,,株式会社,東京都,足立区,綾瀬２丁目２４番８号日興パレス綾瀬８０４,,13,121,1200005,,,2024-06-17,清算の結了等,,,2019-05-22,1,,,,,ジーエフイー,0
596,3021002062214,登記記録の閉鎖等,0,2024-06-19,2024-06-13,有限会社エアーテック,,有限会社,神奈川県,平塚市,纒３１１番地の５９,,14,203,2540901,,,2024-06-13,清算の結了等,,,2015-10-05,1,,,,,エアーテック,0
622,3060002029120,登記記録の閉鎖等,0,2024-06-19,2024-06-11,有限会社ビューティー・イシザキ,,有限会社,栃木県,小山市,乙女３丁目１４番２２号,,09,208,3290214,,,2024-06-11,清算の結了等,,,2015-10-05,1,,,,,ビューティーイシザキ,0
635,3090001001705,登記記録の閉鎖等,0,2024-06-19,2024-06-14,野中綿行株式会社,,株式会社,山梨県,甲府市,武田２丁目１１番１９号,,19,201,4000016,,,2024-06-14,清算の結了等,,,2015-10-05,1,,,,,ノナカメンコウ,0
661,3120002046456,登記記録の閉鎖等,0,2024-06-19,2024-06-17,有限会社エフツー,,有限会社,大阪府,大阪市阿倍野区,天王寺町南３丁目９番１８号,,27,119,5450002,,,2024-06-17,清算の結了等,,,2015-10-05,1,,,,,エフツー,0
688,3180001063918,登記記録の閉鎖等,0,2024-06-19,2024-06-17,株式会社ネクサス,,株式会社,岐阜県,岐阜市,茜部野瀬２丁目１２番地１,,21,201,5008283,,,2024-06-17,清算の結了等,,,2015-10-05,1,,,,,ネクサス,0
692,3180001151235,登記記録の閉鎖等,0,2024-06-19,2024-06-10,株式会社ＭＵＩＴＯＡ,,株式会社,愛知県,名古屋市瑞穂区,新開町２１番４号,,23,108,4670856,,,2024-06-10,清算の結了等,,,2022-05-13,1,,,,,ムイトア,0
696,3180301024314,登記記録の閉鎖等,0,2024-06-19,2024-06-10,株式会社優強リハビリステーション,,株式会社,愛知県,北設楽郡東栄町,大字中設楽字的場２２番地１,,23,562,4490211,,,2024-06-10,清算の結了等,,,2015-10-05,1,,,,,ユウキョウリハビリステーション,0
709,3280002001833,登記記録の閉鎖等,0,2024-06-19,2024-06-18,有限会社久木豆富店,,有限会社,島根県,松江市,石橋町１３番地,,32,201,6900881,,,2024-06-18,清算の結了等,,,2015-10-05,1,,,,,ヒサギトウフテン,0
730,3340005003903,登記記録の閉鎖等,0,2024-06-19,2024-05-22,特定非営利活動法人若竹作業所工房たけん子,,その他の設立登記法人,鹿児島県,薩摩郡さつま町,広瀬５７１７番地,,46,392,8951801,,,2024-05-22,清算の結了等,,,2015-10-05,1,,,,,ワカタケサギョウショコウボウタケンコ,0
740,3380002008315,登記記録の閉鎖等,0,2024-06-19,2024-06-11,有限会社大熊組,,有限会社,福島県,郡山市,富久山町久保田字水神山１３番地の１,,07,203,9638071,,,2024-06-11,清算の結了等,,,2015-10-05,1,,,,,オオクマグミ,0
742,3400602000924,登記記録の閉鎖等,0,2024-06-19,2024-06-07,有限会社菊地酒店,,有限会社,岩手県,奥州市,江刺伊手字口沢１３番地８,,03,215,0231761,,,2024-06-07,清算の結了等,,,2015-10-05,1,,,,,キクチサケテン,0
743,3430001042747,登記記録の閉鎖等,0,2024-06-19,2024-06-14,高橋自動車工業株式会社,00088527,株式会社,北海道,石狩郡当別町,末広１１８番地,,01,303,0610224,,,2024-06-14,清算の結了等,,,2015-10-05,1,,,,,タカハシジドウシャコウギョウ,0
755,3500001004005,登記記録の閉鎖等,0,2024-06-19,2024-06-12,株式会社光石製作所,,株式会社,愛媛県,松山市,南吉田町２１１２番地,,38,201,7918042,,,2024-06-12,清算の結了等,,,2015-10-05,1,,,,,ミツイシセイサクショ,0
786,4010601028055,登記記録の閉鎖等,0,2024-06-19,2024-06-07,セミコンマテリアルズ株式会社,,株式会社,千葉県,鎌ケ谷市,くぬぎ山１丁目１２番２６号,,12,224,2730128,,,2024-06-07,清算の結了等,,,2015-10-05,1,,,,,セミコンマテリアルズ,0
807,4011101050854,登記記録の閉鎖等,0,2024-06-19,2024-06-17,株式会社日本ヴイアイグレイド,,株式会社,東京都,江東区,亀戸６丁目２６番５号,,13,108,1360071,,,2024-06-17,合併による解散等,6010501003924,令和６年５月３１日東京都台東区柳橋二丁目１９番６号コンカレント日本株式会社（6010501003924）に合併し解散,2015-10-05,1,,,,,ニホンヴイアイグレイド,0
815,4011201020682,登記記録の閉鎖等,0,2024-06-19,2024-06-14,アスタリスク株式会社,,株式会社,東京都,中野区,本町５丁目２７番９号,,13,114,1640012,,,2024-06-14,合併による解散等,7050001047698,令和６年６月１日東京都港区浜松町二丁目２番１５号浜松町ダイヤビル２ＦＳＬＴ株式会社（7050001047698）に合併し解散,2018-06-08,1,,,,,アスタリスク,0
835,4013101008840,登記記録の閉鎖等,0,2024-06-19,2024-06-14,株式会社師岡興業,,株式会社,東京都,西多摩郡奥多摩町,川井４２３番地,,13,308,1980102,,,2024-06-14,清算の結了等,,,2022-02-03,1,,,,,モロオカコウギョウ,0
841,4020001003095,登記記録の閉鎖等,0,2024-06-19,2024-06-06,株式会社舘野工務店,,株式会社,神奈川県,横浜市磯子区,磯子２丁目２９番４６号,,14,107,2350016,,,2024-06-06,清算の結了等,,,2015-10-05,1,,,,,タテノコウムテン,0
858,4030001050517,登記記録の閉鎖等,0,2024-06-19,2024-06-14,近藤製本株式会社,,株式会社,埼玉県,新座市,畑中３丁目２番１８号,,11,230,3520012,,,2024-06-14,清算の結了等,,,2015-10-05,1,,,,,コンドウセイホン,0
861,4030001124790,登記記録の閉鎖等,0,2024-06-19,2024-06-14,株式会社日本住宅設備,,株式会社,埼玉県,新座市,野火止８丁目３番２３号,,11,230,3520011,,,2024-06-14,清算の結了等,,,2018-03-22,1,,,,,ニホンジュウタクセツビ,0
862,4030001157493,登記記録の閉鎖等,0,2024-06-19,2024-06-14,松井志木株式会社,,株式会社,埼玉県,志木市,本町６丁目２９番１８号,,11,228,3530004,,,2024-06-14,合併による解散等,8070001008391,令和６年６月１日群馬県高崎市八千代町一丁目６番７号松井産業高崎株式会社（8070001008391）に合併し解散,2023-12-06,1,,,,,マツイシキ,0
879,4070001010293,登記記録の閉鎖等,0,2024-06-19,2024-06-18,株式会社群馬徽章製作所,,株式会社,群馬県,高崎市,新町２１１６番地,,10,202,3701301,,,2024-06-18,清算の結了等,,,2015-10-05,1,,,,,グンマキショウセイサクショ,0
894,4100001025206,登記記録の閉鎖等,0,2024-06-19,2024-06-07,株式会社トーセン,,株式会社,東京都,中央区,勝どき２丁目３－３ウエスト８０１,,13,102,1040054,,,2024-06-07,清算の結了等,,,2015-10-05,1,,,,,トーセン,0
914,4120901005841,登記記録の閉鎖等,0,2024-06-19,2024-06-12,エム・ジー・ティ株式会社,,株式会社,大阪府,吹田市,内本町２丁目１６番１５号,,27,205,5640032,,,2024-06-12,清算の結了等,,,2015-10-05,1,,,,,エムジーティ,0
921,4140001017819,登記記録の閉鎖等,0,2024-06-19,2024-06-14,阪神開発株式会社,,株式会社,兵庫県,神戸市須磨区,高倉台２丁目８番１２号,,28,107,6540081,,,2024-06-14,清算の結了等,,,2015-10-05,1,,,,,ハンシンカイハツ,0
927,4150001009880,登記記録の閉鎖等,0,2024-06-19,2024-06-17,くらもと株式会社,,株式会社,奈良県,宇陀市,榛原萩原２４２９番地,,29,212,6330253,,,2024-06-17,清算の結了等,,,2015-10-05,1,,,,,クラモト,0
941,4230002008171,登記記録の閉鎖等,0,2024-06-19,2024-06-17,有限会社北越運輸建設興業,,有限会社,富山県,黒部市,若栗３６９５番地,,16,207,9380802,,,2024-06-17,清算の結了等,,,2015-10-05,1,,,,,ホクエツウンユケンセツコウギョウ,0
945,4240003002255,登記記録の閉鎖等,0,2024-06-19,2024-06-06,合同会社リハ城北,,合同会社,広島県,福山市,北本庄１丁目１番３号,,34,207,7200074,,,2024-06-06,清算の結了等,,,2015-10-05,1,,,,,,0
961,4310001003974,登記記録の閉鎖等,0,2024-06-19,2024-06-11,株式会社ＧａｒｄｅｎＡｇｅ,,株式会社,長崎県,長崎市,今博多町５８番地,,42,201,8500025,,,2024-06-11,清算の結了等,,,2015-10-05,1,,,,,ガーデンエイジ,0
1028,5010405010753,登記記録の閉鎖等,0,2024-06-19,2024-06-12,特定非営利活動法人ｓｏｐａ．ｊｐ,,その他の設立登記法人,東京都,文京区,向丘１丁目１６－１７－２Ｆ,,13,105,1130023,,,2024-06-12,清算の結了等,,,2015-10-05,1,,,,,ソパドットジェーピー,0
1064,5012402000951,登記記録の閉鎖等,0,2024-06-19,2024-06-12,有限会社ケント,,有限会社,東京都,府中市,北山町２丁目４番地の３,,13,206,1830041,,,2024-06-12,清算の結了等,,,2015-10-05,1,,,,,ケント,0
1070,5020001114370,登記記録の閉鎖等,0,2024-06-19,2024-06-07,株式会社パインプロー,,株式会社,神奈川県,川崎市中原区,西加瀬１４番３４号,,14,133,2110024,,,2024-06-07,清算の結了等,,,2016-01-14,1,,,,,パインプロー,0
1084,5021001081741,登記記録の閉鎖等,0,2024-06-19,2024-06-17,株式会社伊澤電工,,株式会社,神奈川県,平塚市,上平塚１番３８－１号,,14,203,2540055,,,2024-06-17,清算の結了等,,,2024-03-22,1,,,,,イザワデンコウ,0
1142,5130001002432,登記記録の閉鎖等,0,2024-06-19,2024-06-18,浅井石油株式会社,,株式会社,京都府,京都市上京区,千本通今出川上る上善寺町１００番地,,26,102,6028474,,,2024-06-18,清算の結了等,,,2015-10-05,1,,,,,アサイセキユ,0
1145,5140001018015,登記記録の閉鎖等,0,2024-06-19,2024-06-13,山一ゴム工業株式会社,,株式会社,兵庫県,神戸市須磨区,小寺町１丁目１番４０号,,28,107,6540042,,,2024-06-13,清算の結了等,,,2015-10-05,1,,,,,,0
1156,5180301026077,登記記録の閉鎖等,0,2024-06-19,2024-06-07,株式会社本田新聞店,,株式会社,愛知県,安城市,上条町千度１番地１,,23,212,4460023,,,2024-06-07,清算の結了等,,,2015-10-05,1,,,,,ホンダシンブンテン,0
1166,5240001049223,登記記録の閉鎖等,0,2024-06-19,2024-06-14,株式会社シルバー,,株式会社,広島県,広島市佐伯区,美鈴が丘南１丁目１０番１号,,34,108,7315112,,,2024-06-14,清算の結了等,,,2016-04-21,1,,,,,シルバー,0
1172,5250001011644,登記記録の閉鎖等,0,2024-06-19,2024-06-17,株式会社マエヂ,,株式会社,山口県,岩国市,岩国５丁目１番２０号,,35,208,7410062,,,2024-06-17,清算の結了等,,,2015-10-05,1,,,,,マエヂ,0
1174,5260001022343,登記記録の閉鎖等,0,2024-06-19,2024-06-06,玉野街づくり株式会社,,株式会社,岡山県,玉野市,宇野１丁目３８番１号,,33,204,7060011,,,2024-06-06,清算の結了等,,,2015-10-05,1,,,,,タマノマチヅクリ,0
1185,5290801005081,登記記録の閉鎖等,0,2024-06-19,2024-06-10,株式会社粟本組,,株式会社,福岡県,北九州市門司区,稲積２丁目３番８号,,40,101,8000048,,,2024-06-10,清算の結了等,,,2015-10-05,1,,,,,アワモトグミ,0
1186,5290802009619,登記記録の閉鎖等,0,2024-06-19,2024-06-10,有限会社大輪建設,,有限会社,福岡県,北九州市門司区,大字喜多久３５５番地,,40,101,8010812,,,2024-06-10,清算の結了等,,,2015-10-05,1,,,,,ダイワケンセツ,0
1187,5300002006605,登記記録の閉鎖等,0,2024-06-19,2024-06-17,有限会社上田建築,,有限会社,佐賀県,武雄市,山内町大字鳥海８３４８番地１,,41,206,8492302,,,2024-06-17,清算の結了等,,,2015-10-05,1,,,,,ウエダケンチク,0
1201,5380001006111,登記記録の閉鎖等,0,2024-06-19,2024-06-12,日建工業株式会社,,株式会社,福島県,郡山市,字名倉２２番地５,,07,203,9638845,,,2024-06-12,清算の結了等,,,2015-10-05,1,,,,,ニッケンコウギョウ,0
1218,5430001060771,登記記録の閉鎖等,0,2024-06-19,2024-06-12,株式会社ＡＤＳ,,株式会社,東京都,新宿区,四谷２丁目１４番３７号,,13,104,1600004,,,2024-06-12,清算の結了等,,,2015-10-05,1,,,,,エーディーエス,0
1226,5470002000327,登記記録の閉鎖等,0,2024-06-19,2024-06-12,有限会社篠原,,有限会社,香川県,高松市,牟礼町牟礼１３２１番地９,,37,201,7610121,,,2024-06-12,清算の結了等,,,2015-10-05,1,,,,,シノハラ,0
1227,5470002018708,登記記録の閉鎖等,0,2024-06-19,2024-06-11,有限会社レグニー,,有限会社,香川県,東かがわ市,西村１２４５番地,,37,207,7692604,,,2024-06-11,清算の結了等,,,2015-10-05,1,,,,,レグニー,0
1230,5500002016278,登記記録の閉鎖等,0,2024-06-19,2024-06-12,有限会社オチテック,,有限会社,愛媛県,新居浜市,庄内町１丁目２番２４号,,38,205,7920811,,,2024-06-12,清算の結了等,,,2015-10-05,1,,,,,オチテック,0
1232,6010001075919,登記記録の閉鎖等,0,2024-06-19,2024-06-14,株式会社ファルダ・美ラボ,,株式会社,東京都,台東区,台東３丁目１２番地５,,13,106,1100016,,,2024-06-14,清算の結了等,,,2015-10-05,1,,,,,ファルダビラボ,0
1233,6010001086742,登記記録の閉鎖等,0,2024-06-19,2024-06-14,株式会社ウィンパック,,株式会社,東京都,台東区,台東３丁目１２番地５,,13,106,1100016,,,2024-06-14,清算の結了等,,,2015-10-05,1,,,,,ウィンパック,0
1237,6010001142124,登記記録の閉鎖等,0,2024-06-19,2024-06-05,株式会社国際都市鑑定,,株式会社,東京都,中央区,日本橋本石町２丁目１番１号アスパ日本橋オフィス２０８号,,13,102,1030021,,,2024-06-05,清算の結了等,,,2015-10-05,1,,,,,コクサイトシカンテイ,0
1248,6010401170559,登記記録の閉鎖等,0,2024-06-19,2024-06-06,ｏｔｏ株式会社,,株式会社,東京都,港区,南麻布４丁目１２番４号プラチナコート広尾１階,,13,103,1060047,,,2024-06-06,清算の結了等,,,2022-11-17,1,,,,,オト,0
1268,6010701038877,登記記録の閉鎖等,0,2024-06-19,2024-06-13,ウイング株式会社,,株式会社,東京都,品川区,西五反田７丁目２４番９－４０２号,,13,109,1410031,,,2024-06-13,清算の結了等,,,2020-02-13,1,,,,,ウイング,0
1271,6010802016922,登記記録の閉鎖等,0,2024-06-19,2024-06-10,有限会社ビック,,有限会社,東京都,大田区,西蒲田５丁目１９番４号,,13,111,1440051,,,2024-06-10,清算の結了等,,,2015-10-05,1,,,,,ビック,0
1272,6010803002995,登記記録の閉鎖等,0,2024-06-19,2024-06-12,新芽合同会社,,合同会社,東京都,大田区,西蒲田６丁目３７番５－２０３号,,13,111,1440051,,,2024-06-12,清算の結了等,,,2019-05-13,1,,,,,シンメ,0
1300,6011801012474,登記記録の閉鎖等,0,2024-06-19,2024-06-17,株式会社ムトウ,,株式会社,東京都,葛飾区,西亀有４丁目１２番１２号,,13,122,1250002,,,2024-06-17,清算の結了等,,,2015-10-05,1,,,,,ムトウ,0
1306,6012401037481,登記記録の閉鎖等,0,2024-06-19,2024-06-13,日本ＭＡ医薬株式会社,,株式会社,東京都,三鷹市,下連雀３丁目４１番１２－３０４号,,13,204,1810013,,,2024-06-13,清算の結了等,,,2021-02-08,1,,,,,ニホンエムエーイヤク,0
1307,6012402018588,登記記録の閉鎖等,0,2024-06-19,2024-06-12,有限会社川崎工務店,,有限会社,東京都,三鷹市,北野３丁目８番１４号,,13,204,1810003,,,2024-06-12,清算の結了等,,,2015-10-05,1,,,,,カワサキコウムテン,0
1399,6130001056394,登記記録の閉鎖等,0,2024-06-19,2024-06-17,ガーランド株式会社,,株式会社,京都府,京都市伏見区,下鳥羽芹川町４９番地の２６,,26,109,6128391,,,2024-06-17,清算の結了等,,,2015-11-24,1,,,,,,0
1401,6130002016430,登記記録の閉鎖等,0,2024-06-19,2024-06-18,有限会社三条バスユニット,,有限会社,京都府,京都市中京区,西ノ京池ノ内町６番地の５,,26,104,6048375,,,2024-06-18,清算の結了等,,,2015-10-05,1,,,,,サンジョウバスユニット,0
1413,6170005006053,登記記録の閉鎖等,0,2024-06-19,2024-06-13,特定非営利活動法人ＡＣＴ勝動,,その他の設立登記法人,和歌山県,東牟婁郡那智勝浦町,大字勝浦２１６番地１９,,30,421,6495334,,,2024-06-13,清算の結了等,,,2015-10-05,1,,,,,アクトカツドウ,0
1422,6180002000710,登記記録の閉鎖等,0,2024-06-19,2024-06-10,有限会社ジェミニ,,有限会社,愛知県,名古屋市守山区,今尻町８０２番地,,23,113,4630023,,,2024-06-10,清算の結了等,,,2015-10-05,1,,,,,ジェミニ,0
1439,6240002052943,登記記録の閉鎖等,0,2024-06-19,2024-06-14,有限会社石田ビル,,有限会社,広島県,三原市,沼田１丁目１３番２６号,,34,204,7230133,,,2024-06-14,清算の結了等,,,2015-10-05,1,,,,,イシダビル,0
1456,6290802014171,登記記録の閉鎖等,0,2024-06-19,2024-06-10,有限会社サン・エム商会,,有限会社,福岡県,北九州市八幡西区,黒崎２丁目６番９号,,40,109,8060021,,,2024-06-10,清算の結了等,,,2015-10-05,1,,,,,サンエムショウカイ,0
1459,6310002006025,登記記録の閉鎖等,0,2024-06-19,2024-06-17,有限会社吉村海産,,有限会社,長崎県,長崎市,矢の平３丁目６番１４号,,42,201,8500811,,,2024-06-17,清算の結了等,,,2015-10-05,1,,,,,ヨシムラカイサン,0
1481,6400002006981,登記記録の閉鎖等,0,2024-06-19,2024-06-10,有限会社森川モータース,,有限会社,岩手県,紫波郡矢巾町,大字藤沢第６地割９番地４,,03,322,0283602,,,2024-06-10,清算の結了等,,,2015-10-05,1,,,,,,0
1499,6450002002258,登記記録の閉鎖等,0,2024-06-19,2024-06-11,有限会社コダマ旭川,,有限会社,北海道,旭川市,豊岡七条１１丁目１番２０号,,01,204,0788237,,,2024-06-11,清算の結了等,,,2015-10-05,1,,,,,コダマアサヒカワ,0
1500,6470001001218,登記記録の閉鎖等,0,2024-06-19,2024-06-05,株式会社北原商会,,株式会社,香川県,高松市,中山町８１１番地４,,37,201,7618004,,,2024-06-05,清算の結了等,,,2015-10-05,1,,,,,,0
1503,6470002012123,登記記録の閉鎖等,0,2024-06-19,2024-06-12,有限会社ヒコシステムプランニング,,有限会社,香川県,丸亀市,津森町２８０番地３,,37,202,7630052,,,2024-06-12,清算の結了等,,,2015-10-05,1,,,,,ヒコシステムプランニング,0
1505,6490003001016,登記記録の閉鎖等,0,2024-06-19,2024-06-14,合同会社巴七,,合同会社,高知県,高知市,平和町２８番地１２改住２３号,,39,201,7800922,,,2024-06-14,清算の結了等,,,2015-10-27,1,,,,,ハナ,0
1506,6500002022903,登記記録の閉鎖等,0,2024-06-19,2024-06-13,有限会社鶴島メディカルサービス,,有限会社,愛媛県,宇和島市,鶴島町６番２７号,,38,203,7980033,,,2024-06-13,清算の結了等,,,2015-10-05,1,,,,,ツルシマメディカルサービス,0
1537,7010501013798,登記記録の閉鎖等,0,2024-06-19,2024-06-13,株式会社ミヤマ創建,,株式会社,東京都,台東区,浅草５丁目５９番１０号,,13,106,1110032,,,2024-06-13,清算の結了等,,,2015-10-05,1,,,,,ミヤマソウケン,0
1538,7010601002461,登記記録の閉鎖等,0,2024-06-19,2024-06-14,株式会社アオイケ,,株式会社,東京都,江東区,高橋１４番２２号,,13,108,1350005,,,2024-06-14,清算の結了等,,,2015-10-05,1,,,,,アオイケ,0
1584,7020001128187,登記記録の閉鎖等,0,2024-06-19,2024-06-07,慈恵株式会社,,株式会社,神奈川県,横浜市中区,山下町２１５番地２,,14,104,2310023,,,2024-06-07,清算の結了等,,,2018-10-05,1,,,,,ジケイ,0
1592,7020002024971,登記記録の閉鎖等,0,2024-06-19,2024-06-06,有限会社三ツ矢工業社,,有限会社,神奈川県,横浜市保土ケ谷区,今井町１７１番地３,,14,106,2400035,,,2024-06-06,清算の結了等,,,2015-10-05,1,,,,,ミツヤコウギョウシャ,0
1596,7030001090997,登記記録の閉鎖等,0,2024-06-19,2024-06-13,株式会社喜善,,株式会社,埼玉県,秩父市,熊木町４６番１３号,,11,207,3680032,,,2024-06-13,清算の結了等,,,2015-10-05,1,,,,,ヨシゼン,0
1649,7140001059156,登記記録の閉鎖等,0,2024-06-19,2024-06-13,株式会社三和,,株式会社,兵庫県,姫路市,忍町１０６番地,,28,201,6700917,,,2024-06-13,清算の結了等,,,2015-10-05,1,,,,,サンワ,0
1658,7170001014190,登記記録の閉鎖等,0,2024-06-19,2024-06-17,株式会社ＭＲＣ,,株式会社,和歌山県,和歌山市,中之島２０８４ＯＫすまいるＢ,,30,201,6408392,,,2024-06-17,清算の結了等,,,2016-04-01,1,,,,,エムアールシー,0
1659,7180001069135,登記記録の閉鎖等,0,2024-06-19,2024-06-06,株式会社八百龍,,株式会社,愛知県,名古屋市東区,出来町３丁目４番１７号,,23,102,4610032,,,2024-06-06,清算の結了等,,,2015-10-05,1,,,,,ヤオリュウ,0
1660,7180001119006,登記記録の閉鎖等,0,2024-06-19,2024-06-07,株式会社トス・アウトソースサービス,,株式会社,愛知県,名古屋市東区,東桜１丁目３番７号,,23,102,4610005,,,2024-06-07,清算の結了等,,,2015-10-05,1,,,,,トスアウトソースサービス,0
1664,7180002078341,登記記録の閉鎖等,0,2024-06-19,2024-06-07,有限会社平松電機,,有限会社,愛知県,一宮市,明地字中屋敷２３番地,,23,203,4940012,,,2024-06-07,清算の結了等,,,2015-10-05,1,,,,,ヒラマツデンキ,0
1667,7180005017940,登記記録の閉鎖等,0,2024-06-19,2024-06-10,特定非営利活動法人ママンベベ,,その他の設立登記法人,愛知県,名古屋市守山区,守山２丁目１４番１８号２０５,,23,113,4630067,,,2024-06-10,清算の結了等,,,2018-08-15,1,,,,,ママンベベ,0
1673,7190001011153,登記記録の閉鎖等,0,2024-06-19,2024-06-06,株式会社田中組,,株式会社,三重県,松阪市,飯高町森１３８８番地の１,,24,204,5151615,,,2024-06-06,清算の結了等,,,2015-10-05,1,,,,,タナカグミ,0
1685,7260002024080,登記記録の閉鎖等,0,2024-06-19,2024-06-05,有限会社山手モータース,,有限会社,岡山県,総社市,地頭片山１０２番地の５,,33,208,7191163,,,2024-06-05,清算の結了等,,,2015-10-05,1,,,,,ヤマテモータース,0
1701,7290802015499,登記記録の閉鎖等,0,2024-06-19,2024-06-06,有限会社村田建設工業,,有限会社,福岡県,北九州市八幡西区,大膳１丁目１６番３号,,40,109,8070863,,,2024-06-06,合併による解散等,1290801020571,令和６年６月１日北九州市八幡西区大字則松２１７番地１株式会社コマツ（1290801020571）に合併し解散,2015-10-05,1,,,,,ムラタケンセツコウギョウ,0
1708,7300003001116,登記記録の閉鎖等,0,2024-06-19,2024-06-13,合同会社ハレト,,合同会社,佐賀県,神埼郡吉野ヶ里町,吉田２３８６番地１,,41,327,8420031,,,2024-06-13,清算の結了等,,,2015-10-05,1,,,,,,0
1719,7330001012293,登記記録の閉鎖等,0,2024-06-19,2024-06-13,株式会社阿蘇建設会館,,株式会社,熊本県,阿蘇市,一の宮町宮地２３９６番地の６,,43,214,8692612,,,2024-06-13,清算の結了等,,,2015-10-05,1,,,,,アソケンセツカイカン,0
1721,7330001021526,登記記録の閉鎖等,0,2024-06-19,2024-06-12,エクセレント教育株式会社,,株式会社,熊本県,八代市,永碇町７５１番地８,,43,202,8660885,,,2024-06-12,清算の結了等,,,2015-10-05,1,,,,,エクセレントキョウイク,0
1724,7360001010699,登記記録の閉鎖等,0,2024-06-19,2024-06-06,株式会社三和相互銀行,,株式会社,沖縄県,那覇市,牧志町一丁目７７０番地の２０,,47,201,9000000,,,2024-06-06,清算の結了等,,,2015-12-09,1,,,,,サンワソウゴギンコウ,0
1726,7360002000088,登記記録の閉鎖等,0,2024-06-19,2024-06-17,有限会社アーバンキッチン,,有限会社,沖縄県,那覇市,赤嶺１丁目３番地６,,47,201,9010154,,,2024-06-17,清算の結了等,,,2015-10-05,1,,,,,アーバンキッチン,0
1733,7400602001332,登記記録の閉鎖等,0,2024-06-19,2024-06-10,有限会社ワーク企画,,有限会社,岩手県,奥州市,胆沢小山字北笹森５０番地６２,,03,215,0230402,,,2024-06-10,清算の結了等,,,2015-10-05,1,,,,,,0
1744,7430001081114,登記記録の閉鎖等,0,2024-06-19,2024-06-14,ＭＵＳＵＫＡＲＩ株式会社,,株式会社,北海道,札幌市手稲区,星置三条１丁目３３番１６号,,01,109,0060853,,,2024-06-14,清算の結了等,,,2020-03-23,1,,,,,ムスカリ,0
1753,7490002003540,登記記録の閉鎖等,0,2024-06-19,2024-06-17,有限会社土佐防水,,有限会社,高知県,高知市,薊野北町２丁目１９番８－９号,,39,201,7810011,,,2024-06-17,清算の結了等,,,2015-10-05,1,,,,,,0
1756,7500002015542,登記記録の閉鎖等,0,2024-06-19,2024-06-05,有限会社ミキグリーン,,有限会社,愛媛県,西条市,周布６３１番地１,,38,206,7991371,,,2024-06-05,清算の結了等,,,2015-10-05,1,,,,,ミキグリーン,0
1762,8010001165081,登記記録の閉鎖等,0,2024-06-19,2024-06-06,株式会社福屋,,株式会社,東京都,中央区,日本橋箱崎町２７番９号オフィスヴェラ日本橋箱崎,,13,102,1030015,,,2024-06-06,清算の結了等,,,2015-10-05,1,,,,,フクヤ,0
1770,8010005028400,登記記録の閉鎖等,0,2024-06-19,2024-06-10,一般社団法人日本フットアドバイザー協会,,その他の設立登記法人,東京都,中央区,銀座２丁目２番１９号美豊ビル５階,,13,102,1040061,,,2024-06-10,清算の結了等,,,2018-04-18,1,,,,,ニホンフットアドバイザーキョウカイ,0
1781,8010401143579,登記記録の閉鎖等,0,2024-06-19,2024-06-14,株式会社アリトル,,株式会社,群馬県,邑楽郡板倉町,大字岩田８７０番地,,10,521,3740133,,,2024-06-14,清算の結了等,,,2019-02-05,1,,,,,アリトル,0
1790,8010501047259,登記記録の閉鎖等,0,2024-06-19,2024-06-17,株式会社ツクツク,,株式会社,東京都,台東区,入谷２丁目２２番１号,,13,106,1100013,,,2024-06-17,清算の結了等,,,2021-04-26,1,,,,,ツクツク,0
1797,8010702002269,登記記録の閉鎖等,0,2024-06-19,2024-06-18,有限会社巌流,,有限会社,東京都,品川区,八潮５丁目３－１１－４１０,,13,109,1400003,,,2024-06-18,清算の結了等,,,2015-10-05,1,,,,,ガンリュウ,0
1807,8011001135941,登記記録の閉鎖等,0,2024-06-19,2024-06-03,ＳＯＬＩＴ株式会社,,株式会社,東京都,渋谷区,代々木５丁目６７番８号,,13,113,1510053,,,2024-06-03,合併による解散等,3160001020706,令和６年６月１日東京都渋谷区代々木五丁目６７番８号株式会社ｍｏｒｎｉｎｇ　ａｆｔｅｒ　ｃｕｔｔｉｎｇ　ｍｙ　ｈａｉｒ（3160001020706）に合併し解散,2020-09-18,1,,,,,ソリット,0
1819,8011101062813,登記記録の閉鎖等,0,2024-06-19,2024-06-12,株式会社オフィスティー,,株式会社,東京都,新宿区,富久町１－５,,13,104,1620067,,,2024-06-12,清算の結了等,,,2015-10-05,1,,,,,オフィスティー,0
1823,8011102002339,登記記録の閉鎖等,0,2024-06-19,2024-06-12,有限会社エルティー宮川,,有限会社,東京都,新宿区,新宿５丁目７番１４号１０２,,13,104,1600022,,,2024-06-12,清算の結了等,,,2015-10-05,1,,,,,エルティーミヤガワ,0
1836,8012302000330,登記記録の閉鎖等,0,2024-06-19,2024-06-06,有限会社安藤通信機,,有限会社,東京都,町田市,木曽東４丁目４番４４号,,13,209,1940036,,,2024-06-06,清算の結了等,,,2015-10-05,1,,,,,,0
1841,8020001122008,登記記録の閉鎖等,0,2024-06-19,2024-06-07,株式会社ＨＩＲＯＫＩマネージメント,,株式会社,神奈川県,川崎市中原区,上小田中１丁目２０番２６号,,14,133,2110053,,,2024-06-07,清算の結了等,,,2017-06-30,1,,,,,ヒロキマネージメント,0
1861,8030002073505,登記記録の閉鎖等,0,2024-06-19,2024-06-13,有限会社サン設備,,有限会社,埼玉県,川越市,砂新田４丁目１番地４フラワーハイツナイトウ１０２,,11,201,3501137,,,2024-06-13,清算の結了等,,,2015-10-05,1,,,,,サンセツビ,0
1870,8050001023541,登記記録の閉鎖等,0,2024-06-19,2024-06-17,プレビ株式会社,,株式会社,茨城県,日立市,弁天町３丁目１番１６号,,08,202,3170072,,,2024-06-17,合併による解散等,4010801014318,令和６年６月１日東京都港区東新橋一丁目９番１号株式会社ＧＥＮＤＡ　ＧｉＧＯ　Ｅｎｔｅｒｔａｉｎｍｅｎｔ（4010801014318）に合併し解散,2015-10-05,1,,,,,プレビ,0
1879,8080002007598,登記記録の閉鎖等,0,2024-06-19,2024-06-11,有限会社山崎重機,00067459,有限会社,静岡県,静岡市駿河区,青木７３１番地,,22,102,4210134,,,2024-06-11,清算の結了等,,,2015-10-05,1,,,,,ヤマザキジュウキ,0
1893,8120001229949,登記記録の閉鎖等,0,2024-06-19,2024-06-14,株式会社スマイルバディ,,株式会社,大阪府,大阪市淀川区,木川東４丁目１１番１－６０５号,,27,123,5320012,,,2024-06-14,清算の結了等,,,2020-06-25,1,,,,,スマイルバディ,0
1895,8120001246713,登記記録の閉鎖等,0,2024-06-19,2024-06-17,ＳＰＡＮ株式会社,,株式会社,大阪府,大阪市淀川区,田川北２丁目５－３４・Ｂ棟２０２号室,,27,123,5320021,,,2024-06-17,清算の結了等,,,2022-06-17,1,,,,,スパン,0
1901,8120902022106,登記記録の閉鎖等,0,2024-06-19,2024-06-13,モットアール有限会社,,有限会社,大阪府,豊中市,新千里東町３丁目７番１－７１７号,,27,203,5600082,,,2024-06-13,清算の結了等,,,2015-10-05,1,,,,,モットアール,0
1910,8140001068791,登記記録の閉鎖等,0,2024-06-19,2024-06-05,小林興業株式会社,,株式会社,兵庫県,西宮市,甲子園一番町５番２３号,,28,204,6638171,,,2024-06-05,清算の結了等,,,2015-10-05,1,,,,,コバヤシコウギョウ,0
1925,8190002009030,登記記録の閉鎖等,0,2024-06-19,2024-06-12,有限会社大陽電気商会,,有限会社,三重県,伊勢市,一之木３丁目１８番６号,,24,203,5160071,,,2024-06-12,清算の結了等,,,2015-10-05,1,,,,,タイヨウデンキショウカイ,0
1953,8310002020684,登記記録の閉鎖等,0,2024-06-19,2024-06-13,有限会社谷川農場,,有限会社,長崎県,五島市,富江町山下２５３番地,,42,211,8530212,,,2024-06-13,清算の結了等,,,2015-10-05,1,,,,,タニガワノウジョウ,0
1967,8390002016048,登記記録の閉鎖等,0,2024-06-19,2024-06-05,有限会社さらぬま,,有限会社,山形県,西村山郡西川町,大字間沢５９番地１７,,06,322,9900703,,,2024-06-05,清算の結了等,,,2015-10-05,1,,,,,サラヌマ,0
1970,8400002002376,登記記録の閉鎖等,0,2024-06-19,2024-06-05,有限会社長沢画房,,有限会社,岩手県,盛岡市,神明町５番１０号,,03,201,0200884,,,2024-06-05,清算の結了等,,,2015-10-05,1,,,,,ナガサワガボウ,0
1972,8410001006484,登記記録の閉鎖等,0,2024-06-19,2024-06-11,株式会社メルシーサトー,,株式会社,秋田県,北秋田市,脇神字平崎川戸沼９番地２,,05,213,0183454,,,2024-06-11,清算の結了等,,,2015-10-05,1,,,,,メルシーサトウ,0
1975,8430001051685,登記記録の閉鎖等,0,2024-06-19,2024-06-14,宇田建設株式会社,,株式会社,北海道,虻田郡倶知安町,南三条西１丁目１番地,,01,400,0440033,,,2024-06-14,清算の結了等,,,2015-10-05,1,,,,,ウダケンセツ,0
1988,8462501000912,登記記録の閉鎖等,0,2024-06-19,2024-06-12,株式会社クリルム,,株式会社,北海道,標津郡中標津町,大通南２丁目４番地１,,01,692,0861142,,,2024-06-12,清算の結了等,,,2021-11-17,1,,,,,クリルム,0
1993,8500001014494,登記記録の閉鎖等,0,2024-06-19,2024-06-12,株式会社ムラカミエンジニアリング,,株式会社,愛媛県,四国中央市,村松町４９番地３,,38,213,7990401,,,2024-06-12,清算の結了等,,,2015-10-05,1,,,,,ムラカミエンジニアリング,0
2015,9010403026756,登記記録の閉鎖等,0,2024-06-19,2024-06-06,柊合同会社,,合同会社,東京都,港区,西新橋１丁目１番１号ＥＰコンサルティングサービス内,,13,103,1050003,,,2024-06-06,清算の結了等,,,2021-12-21,1,,,,,ヒイラギ,0
2016,9010405016623,登記記録の閉鎖等,0,2024-06-19,2024-06-06,一般社団法人ＨＣＬＥ,,その他の設立登記法人,東京都,港区,赤坂４丁目８番１４号赤坂坂東ビルディング８階,,13,103,1070052,,,2024-06-06,清算の結了等,,,2018-04-12,1,,,,,エイチシーエルイー,0
2017,9010405019931,登記記録の閉鎖等,0,2024-06-19,2024-06-10,スプリングス一般社団法人,,その他の設立登記法人,東京都,中央区,日本橋３丁目９番１号日本橋三丁目スクエア１１階,,13,102,1030027,,,2024-06-10,清算の結了等,,,2021-06-24,1,,,,,スプリングス,0
2036,9011101054743,登記記録の閉鎖等,0,2024-06-19,2024-06-03,ＴＳＲソリューションズ株式会社,,株式会社,東京都,渋谷区,渋谷２丁目２２番３号渋谷東口ビル６階,,13,113,1500002,,,2024-06-03,合併による解散等,3010401080190,令和６年６月１日東京都渋谷区渋谷二丁目２２－３渋谷東口ビル６ＦＴＳＲ株式会社（3010401080190）に合併し解散,2015-10-05,1,,,,,ティーエスアールソリューションズ,0
2040,9011101097809,登記記録の閉鎖等,0,2024-06-19,2024-06-11,永松株式会社,,株式会社,東京都,新宿区,四谷三栄町１５番２号,,13,104,1600008,,,2024-06-11,清算の結了等,,,2022-02-16,1,,,,,ナガマツ,0
2042,9011105005742,登記記録の閉鎖等,0,2024-06-19,2024-06-13,特定非営利活動法人イノベーション・政策研究所,,その他の設立登記法人,東京都,葛飾区,東水元２丁目１８番２号,,13,122,1250033,,,2024-06-13,清算の結了等,,,2015-10-05,1,,,,,イノベーションセイサクケンキュウジョ,0
2044,9011301013788,登記記録の閉鎖等,0,2024-06-19,2024-06-13,株式会社永坂物産,,株式会社,東京都,杉並区,今川１丁目１８番８号,,13,115,1670035,,,2024-06-13,合併による解散等,6010401021084,令和６年６月１日東京都港区麻布永坂町１３番地永坂食品株式会社（6010401021084）に合併し解散,2015-10-05,1,,,,,,0
2051,9011501009198,登記記録の閉鎖等,0,2024-06-19,2024-06-17,ユニ通工業株式会社,,株式会社,東京都,台東区,根岸２丁目１６番１１号,,13,106,1100003,,,2024-06-17,清算の結了等,,,2015-10-05,1,,,,,ユニツウコウギョウ,0
2056,9011802011885,登記記録の閉鎖等,0,2024-06-19,2024-06-14,有限会社協立工業,,有限会社,東京都,足立区,六町１丁目１０番１号,,13,121,1210073,,,2024-06-14,清算の結了等,,,2015-10-05,1,,,,,キョウリツコウギョウ,0
2073,9020002104185,登記記録の閉鎖等,0,2024-06-19,2024-06-07,有限会社小森商店,,有限会社,神奈川県,川崎市川崎区,富士見町二丁目４番１９－１０１号,,14,131,2100000,,,2024-06-07,清算の結了等,,,2015-10-05,1,,,,,コモリショウテン,0
2077,9021001052210,登記記録の閉鎖等,0,2024-06-19,2024-06-17,株式会社ソレイユ,,株式会社,神奈川県,鎌倉市,台２丁目１９番１号,,14,204,2470061,,,2024-06-17,清算の結了等,,,2015-10-05,1,,,,,ソレイユ,0
2081,9021002016486,登記記録の閉鎖等,0,2024-06-19,2024-06-18,有限会社勇元,,有限会社,神奈川県,鎌倉市,浄明寺６丁目１６番２１号,,14,204,2480003,,,2024-06-18,清算の結了等,,,2015-10-05,1,,,,,ユウゲン,0
2082,9021002051244,登記記録の閉鎖等,0,2024-06-19,2024-06-17,有限会社大均商店,00013589,有限会社,神奈川県,小田原市,板橋６４４番地,,14,206,2500034,,,2024-06-17,清算の結了等,,,2015-10-05,1,,,,,ダイキンショウテン,0
2096,9030002097362,登記記録の閉鎖等,0,2024-06-19,2024-06-13,有限会社元祖嵯峨酵素,,有限会社,埼玉県,比企郡小川町,大字大塚７４６番地２,,11,343,3550328,,,2024-06-13,清算の結了等,,,2015-10-05,1,,,,,ガンソサガコウソ,0
2098,9040001025471,登記記録の閉鎖等,0,2024-06-19,2024-06-07,株式会社阿部重機運輸,,株式会社,千葉県,市川市,南行徳４丁目１３番３号,,12,203,2720138,,,2024-06-07,清算の結了等,,,2015-10-05,1,,,,,アベジュウキウンユ,0
2103,9040002011537,登記記録の閉鎖等,0,2024-06-19,2024-06-06,有限会社武蔵野,,有限会社,千葉県,千葉市中央区,都町２丁目１０番１８号,,12,101,2600001,,,2024-06-06,清算の結了等,,,2015-10-05,1,,,,,ムサシノ,0
2105,9040003001198,登記記録の閉鎖等,0,2024-06-19,2024-06-07,合資会社二葉商事,,合資会社,千葉県,市川市,国府台５丁目１５番１５号,,12,203,2720827,,,2024-06-07,清算の結了等,,,2015-10-05,1,,,,,フタバショウジ,0
2107,9050001031246,登記記録の閉鎖等,0,2024-06-19,2024-06-12,株式会社山本興業,,株式会社,茨城県,取手市,光風台３丁目２番１号,,08,217,3001536,,,2024-06-12,清算の結了等,,,2015-10-05,1,,,,,ヤマモトコウギョウ,0
2110,9060005000873,登記記録の閉鎖等,0,2024-06-19,2024-06-10,医療法人社団加瀬医院,,その他の設立登記法人,栃木県,宇都宮市,駒生２丁目２番７号,,09,201,3200066,,,2024-06-10,清算の結了等,,,2015-10-05,1,,,,,カセイイン,0
2116,9080101016053,登記記録の閉鎖等,0,2024-06-19,2024-06-18,株式会社ホリテック,,株式会社,静岡県,伊豆の国市,田京４０７番地の１,,22,225,4102315,,,2024-06-18,清算の結了等,,,2015-10-05,1,,,,,ホリテック,0
2121,9120001071920,登記記録の閉鎖等,0,2024-06-19,2024-06-18,株式会社ラツク建築事務所,,株式会社,大阪府,大阪市北区,天神橋２丁目北１番１０号,,27,127,5300041,,,2024-06-18,清算の結了等,,,2015-10-05,1,,,,,ラツクケンチクジムショ,0
2122,9120001108945,登記記録の閉鎖等,0,2024-06-19,2024-06-17,東丘タクシー株式会社,,株式会社,大阪府,大阪市平野区,加美南２丁目３番３４号,,27,126,5470003,,,2024-06-17,清算の結了等,,,2015-10-05,1,,,,,,0
2132,9120002039652,登記記録の閉鎖等,0,2024-06-19,2024-06-14,有限会社日本カラーミーアシーズン,,有限会社,大阪府,大阪市西成区,津守３丁目２番１４号,,27,122,5570062,,,2024-06-14,清算の結了等,,,2015-10-05,1,,,,,ニホンカラーミーアシーズン,0
2154,9140001093467,登記記録の閉鎖等,0,2024-06-19,2024-06-14,株式会社プラスワン,,株式会社,兵庫県,神戸市兵庫区,中道通１丁目１番７号,,28,105,6520801,,,2024-06-14,清算の結了等,,,2015-10-05,1,,,,,,0
2169,9220003000875,登記記録の閉鎖等,0,2024-06-19,2024-06-13,合資会社エスケー工業,,合資会社,石川県,能美市,湯谷町ト３８番地３,,17,211,9231104,,,2024-06-13,清算の結了等,,,2015-10-05,1,,,,,エスケーコウギョウ,0
2170,9240001025047,登記記録の閉鎖等,0,2024-06-19,2024-06-17,入江興行株式会社,,株式会社,広島県,庄原市,東城町東城１３５番地,,34,210,7295124,,,2024-06-17,清算の結了等,,,2015-10-05,1,,,,,イリエコウギョウ,0
2176,9240002015542,登記記録の閉鎖等,0,2024-06-19,2024-06-17,有限会社松岡設備工業,,有限会社,広島県,広島市安佐北区,安佐町大字久地１０２０６番地１０２,,34,106,7313362,,,2024-06-17,清算の結了等,,,2015-10-05,1,,,,,マツオカセツビコウギョウ,0
2221,9450001008501,登記記録の閉鎖等,0,2024-06-19,2024-06-10,株式会社竹谷製材製柾所,,株式会社,北海道,天塩郡天塩町,字川口１４６６番地,,01,487,0983312,,,2024-06-10,清算の結了等,,,2015-10-05,1,,,,,タケヤセイザイセイマサショ,0
