sequenceNumber,corporateNumber,process,correct,updateDate,changeDate,name,nameImageId,kind,prefectureName,cityName,streetNumber,addressImageId,prefectureCode,cityCode,postCode,addressOutside,addressOutsideImageId,closeDate,closeCause,successorCorporateNumber,changeCause,assignmentDate,latest,enName,enPrefectureName,enCityName,enAddressOutside,furigana,hihyoji
5,1010001228514,新規,0,2022-08-04,2022-08-04,株式会社アイプレックス,,株式会社,東京都,千代田区,東神田１丁目２番２号,,13,101,1010031,,,,,,,2022-08-04,1,,,,,アイプレックス,0
6,1010001228539,新規,0,2022-08-04,2022-08-04,ヒュートレックス株式会社,,株式会社,東京都,千代田区,九段南１丁目５番６号りそな九段ビル５ＦＫＳフロア,,13,101,1020074,,,,,,,2022-08-04,1,,,,,ヒュートレックス,0
7,1010003038291,新規,0,2022-08-04,2022-08-04,合同会社Ｇｒｏｗｒｉｅｎｄｓ,,合同会社,東京都,文京区,目白台２丁目９番５号目白台サンハイツ２０６,,13,105,1120015,,,,,,,2022-08-04,1,,,,,グローレンズ,0
8,1010003038317,新規,0,2022-08-04,2022-08-04,合同会社シラソル,,合同会社,東京都,千代田区,丸の内３丁目１番１号東京共同会計事務所内,,13,101,1000005,,,,,,,2022-08-04,1,,,,,シラソル,0
11,1010005035312,新規,0,2022-08-04,2022-08-04,一般社団法人東京丸の内パートナーシップ,,その他の設立登記法人,東京都,千代田区,丸の内２丁目３番２号郵船ビル１Ｆ,,13,101,1000005,,,,,,,2022-08-04,1,,,,,トウキョウマルノウチパートナーシップ,0
12,1010005035345,新規,0,2022-08-04,2022-08-04,一般社団法人フレート・インベストメントサード,,その他の設立登記法人,東京都,千代田区,六番町２番地８番町Ｍビル３Ｆ,,13,101,1020085,,,,,,,2022-08-04,1,,,,,フレートインベストメントサード,0
13,1010101015283,新規,0,2022-08-04,2022-08-04,株式会社ＬＩＢＥＲＴＡＤ,,株式会社,東京都,八王子市,三崎町４－１１トーネンビル６ＦＢ,,13,201,1920084,,,,,,,2022-08-04,1,,,,,リベルタ,0
25,1010801033171,新規,0,2022-08-04,2022-08-04,株式会社ネオサンライズ,,株式会社,東京都,大田区,羽田３丁目１７番１３号,,13,111,1440043,,,,,,,2022-08-04,1,,,,,ネオサンライズ,0
26,1010803004253,新規,0,2022-08-04,2022-08-04,合同会社ＳＴＡＹ　ＣＬＯＳＥ,,合同会社,東京都,大田区,大森西３丁目４－１６,,13,111,1430015,,,,,,,2022-08-04,1,,,,,ステイクローズ,0
33,1010903007560,新規,0,2022-08-04,2022-08-04,合同会社ＴＨＥＣＡＲＤ,,合同会社,東京都,世田谷区,北沢３丁目２７番１６号ラ・カーサ北沢２０２,,13,112,1550031,,,,,,,2022-08-04,1,,,,,ザカード,0
34,1010903007569,新規,0,2022-08-04,2022-08-04,合同会社Ｔｏｒｃｈ,,合同会社,東京都,世田谷区,経堂５丁目１０番１５号,,13,112,1560052,,,,,,,2022-08-04,1,,,,,トーチ,0
38,1011001149023,新規,0,2022-08-04,2022-08-04,株式会社うぇるなす,,株式会社,東京都,渋谷区,渋谷２丁目１９番１５号宮益坂ビルディング６０９,,13,113,1500002,,,,,,,2022-08-04,1,,,,,ウェルナス,0
41,1011003015099,新規,0,2022-08-04,2022-08-04,ＩＦ　ＹＯＵ　ＷＡＮＴ合同会社,,合同会社,東京都,渋谷区,神宮前６丁目２３－４桑野ビル２Ｆ,,13,113,1500001,,,,,,,2022-08-04,1,,,,,イフユーウォント,0
42,1011003015165,新規,0,2022-08-04,2022-08-04,合同会社Ｎｅｗ　Ｓｔａｔｅ,,合同会社,東京都,渋谷区,千駄ヶ谷５丁目２６番５号（代々木シティホームズ４０８号室）,,13,113,1510051,,,,,,,2022-08-04,1,,,,,ニューステイト,0
46,1011101099754,新規,0,2022-08-04,2022-08-04,株式会社Ａｅｔｈｅｒ,,株式会社,東京都,新宿区,大久保２丁目２１番１０号ジュネス大久保１０２,,13,104,1690072,,,,,,,2022-08-04,1,,,,,アイテル,0
48,1011103012038,新規,0,2022-08-04,2022-08-04,コクボスタジオ合同会社,,合同会社,東京都,新宿区,西新宿３丁目３番１３号,,13,104,1600023,,,,,,,2022-08-04,1,,,,,コクボスタジオ,0
54,1011301028001,新規,0,2022-08-04,2022-08-04,久我山商事株式会社,,株式会社,東京都,杉並区,久我山５丁目２２番１２号,,13,115,1680082,,,,,,,2022-08-04,1,,,,,クガヤマショウジ,0
56,1011303004487,新規,0,2022-08-04,2022-08-04,合同会社グッドフーズ,,合同会社,東京都,杉並区,荻窪１丁目２９番５号,,13,115,1670051,,,,,,,2022-08-04,1,,,,,グッドフーズ,0
60,1011501028362,新規,0,2022-08-04,2022-08-04,株式会社エスケートラスト,,株式会社,東京都,北区,赤羽１丁目６６番５－４０１号,,13,117,1150045,,,,,,,2022-08-04,1,,,,,エスケートラスト,0
64,1011601026150,新規,0,2022-08-04,2022-08-04,株式会社アトリエ・リセルフ,,株式会社,東京都,練馬区,石神井町４丁目１４番８号,,13,120,1770041,,,,,,,2022-08-04,1,,,,,アトリエリセルフ,0
67,1011701025507,新規,0,2022-08-04,2022-08-04,ＳＰＲＡＹ株式会社,,株式会社,東京都,江戸川区,東小岩６丁目３２－２,,13,123,1330052,,,,,,,2022-08-04,1,,,,,,0
69,1011703003213,新規,0,2022-08-04,2022-08-04,合同会社ねこねこプランニング,,合同会社,東京都,江戸川区,松島３丁目２９番１６号,,13,123,1320031,,,,,,,2022-08-04,1,,,,,ネコネコプランニング,0
71,1012301013091,新規,0,2022-08-04,2022-08-04,ウォーターコンサルタンツ株式会社,,株式会社,東京都,町田市,玉川学園８丁目２番１０号,,13,209,1940041,,,,,,,2022-08-04,1,,,,,ウォーターコンサルタンツ,0
72,1012401039499,新規,0,2022-08-04,2022-08-04,株式会社後見サポートいなほ,,株式会社,東京都,多摩市,永山２丁目２３番地の３７,,13,224,2060025,,,,,,,2022-08-04,1,,,,,コウケンサポートイナホ,0
75,1012701017171,新規,0,2022-08-04,2022-08-04,株式会社すまいるヘルプ,,株式会社,東京都,東久留米市,南沢３丁目１０番１８号,,13,222,2030023,,,,,,,2022-08-04,1,,,,,スマイルヘルプ,0
78,1012801021767,新規,0,2022-08-04,2022-08-04,株式会社エーティーライン,,株式会社,東京都,東大和市,芋窪５丁目１１５０番地の２,,13,220,2070033,,,,,,,2022-08-04,1,,,,,エーティーライン,0
85,1013301049464,新規,0,2022-08-04,2022-08-04,ユニバースプロダクション株式会社,,株式会社,東京都,豊島区,東池袋３丁目１１番９号下総屋ビル６０１号室,,13,116,1700013,,,,,,,2022-08-04,1,,,,,ユニバースプロダクション,0
96,1020001147556,新規,0,2022-08-04,2022-08-04,ｔｙａｄ株式会社,,株式会社,神奈川県,横浜市中区,花咲町１丁目４８番３号ロゼ桜木町４０６号,,14,104,2310063,,,,,,,2022-08-04,1,,,,,ティーワイエーディー,0
97,1020001147606,新規,0,2022-08-04,2022-08-04,株式会社ポワント,,株式会社,神奈川県,横浜市鶴見区,下末吉６丁目１番１５号２階,,14,101,2300012,,,,,,,2022-08-04,1,,,,,ポワント,0
98,1020001147622,新規,0,2022-08-04,2022-08-04,株式会社ｌｉｔｔｌｅａｍｕｌｅｔ,,株式会社,神奈川県,横浜市西区,高島２丁目１１番２号スカイメナー横浜５１９,,14,103,2200011,,,,,,,2022-08-04,1,,,,,リトルアミュレット,0
99,1020001147630,新規,0,2022-08-04,2022-08-04,株式会社藤創建,,株式会社,神奈川県,横浜市神奈川区,広台太田町８番地１,,14,102,2210824,,,,,,,2022-08-04,1,,,,,フジソウケン,0
100,1020001147639,新規,0,2022-08-04,2022-08-04,株式会社小倉特殊,,株式会社,神奈川県,横浜市磯子区,岡村１丁目６番５－２号,,14,107,2350021,,,,,,,2022-08-04,1,,,,,オグラトクシュ,0
101,1020001147655,新規,0,2022-08-04,2022-08-04,株式会社ＳＲ２コーポレーション,,株式会社,神奈川県,川崎市中原区,小杉町１丁目４０３番地１０－４０３,,14,133,2110063,,,,,,,2022-08-04,1,,,,,エスアールツーコーポレーション,0
103,1020003022179,新規,0,2022-08-04,2022-08-04,合同会社浜田経営労務相談室,,合同会社,神奈川県,横浜市港北区,篠原西町３２番１７号,,14,109,2220025,,,,,,,2022-08-04,1,,,,,ハマダケイエイロウムソウダンシツ,0
104,1020003022212,新規,0,2022-08-04,2022-08-04,エイチエスコンサルティング合同会社,,合同会社,神奈川県,横浜市中区,宮川町２丁目５５番地１ルリエ横浜宮川町１００３,,14,104,2310065,,,,,,,2022-08-04,1,,,,,エイチエスコンサルティング,0
105,1020005015619,新規,0,2022-08-04,2022-08-04,京急文庫タクシー労働組合,,その他の設立登記法人,神奈川県,横浜市金沢区,福浦２丁目１５番地２号,,14,108,2360004,,,,,,,2022-08-04,1,,,,,ケイキュウブンコタクシー,0
108,1021001076670,新規,0,2022-08-04,2022-08-04,メカニックベース湘南株式会社,,株式会社,神奈川県,平塚市,平塚５丁目２５番１１号ＴＮビル３階,,14,203,2540052,,,,,,,2022-08-04,1,,,,,メカニックベースショウナン,0
118,1030001149485,新規,0,2022-08-04,2022-08-04,株式会社ＹＭＴＫ,,株式会社,埼玉県,越谷市,川柳町２丁目４１０番地,,11,222,3430827,,,,,,,2022-08-04,1,,,,,ワイエムティーケー,0
119,1030001149493,新規,0,2022-08-04,2022-08-04,株式会社Ｌｉｖｅ　Ｂｏｘ,,株式会社,埼玉県,さいたま市南区,辻２丁目３番２７号小山ハイツ２０２,00127423,11,108,3360026,,,,,,,2022-08-04,1,,,,,ライブボックス,0
120,1030001149527,新規,0,2022-08-04,2022-08-04,株式会社オスマン工業,,株式会社,埼玉県,川口市,戸塚２丁目３番２８号,,11,203,3330811,,,,,,,2022-08-04,1,,,,,オスマンコウギョウ,0
126,1040001124537,新規,0,2022-08-04,2022-08-04,ＣＩＳ　Ｍｏｖｉｅ　Ｗｏｒｋｓ株式会社,,株式会社,千葉県,流山市,おおたかの森東４丁目４６番地の１,,12,220,2700138,,,,,,,2022-08-04,1,,,,,シーアイエスムービーワークス,0
127,1040001124594,新規,0,2022-08-04,2022-08-04,株式会社アイ・シー・ティー・ラボ,,株式会社,千葉県,松戸市,三ケ月１２８５番地,,12,207,2700026,,,,,,,2022-08-04,1,,,,,アイシーティーラボ,0
130,1040003020544,新規,0,2022-08-04,2022-08-04,むらた合同会社,,合同会社,千葉県,船橋市,前原東２丁目１６番１０－４０６号,,12,204,2740824,,,,,,,2022-08-04,1,,,,,ムラタ,0
131,1040003020560,新規,0,2022-08-04,2022-08-04,合同会社ヤコミ投資,,合同会社,千葉県,印西市,高花６丁目３２番５号,,12,231,2701342,,,,,,,2022-08-04,1,,,,,ヤコミトウシ,0
134,1050001051508,新規,0,2022-08-04,2022-08-04,Ｒｏｓｅａｎｎ株式会社,,株式会社,茨城県,牛久市,小坂町２１７２－１,,08,219,3001286,,,,,,,2022-08-04,1,,,,,ローズアン,0
135,1050003006749,新規,0,2022-08-04,2022-08-04,合同会社イレブンラインズ,,合同会社,茨城県,稲敷郡阿見町,大字大室５２０－２７,,08,443,3000303,,,,,,,2022-08-04,1,,,,,イレブンラインズ,0
145,1090001017711,新規,0,2022-08-04,2022-08-04,株式会社Ｆ．Ｔ．Ｗ,,株式会社,山梨県,中巨摩郡昭和町,西条新田４０１番地９メゾン山の都Ａ１０１,,19,384,4093865,,,,,,,2022-08-04,1,,,,,エフティーダブリュー,0
147,1100001035579,新規,0,2022-08-04,2022-08-04,株式会社ＭＯＮＯＬＩＴＨ,,株式会社,長野県,千曲市,大字須坂１２番地１,,20,218,3890811,,,,,,,2022-08-04,1,,,,,モノリス,0
148,1100001035587,新規,0,2022-08-04,2022-08-04,株式会社依田工業,,株式会社,長野県,佐久市,長土呂１８５番地１,,20,217,3850021,,,,,,,2022-08-04,1,,,,,ヨダコウギョウ,0
162,1120001247833,新規,0,2022-08-04,2022-08-04,佳佳商事株式会社,,株式会社,大阪府,大阪市西成区,松１丁目５番４号２０４号室,,27,122,5570034,,,,,,,2022-08-04,1,,,,,ジャジャショウジ,0
163,1120001247841,新規,0,2022-08-04,2022-08-04,株式会社ＬＹＫ,,株式会社,大阪府,大阪市西成区,松１丁目５番４号２０３号室,,27,122,5570034,,,,,,,2022-08-04,1,,,,,エルワイケー,0
164,1120001247858,新規,0,2022-08-04,2022-08-04,株式会社ミライエ不動産販売,,株式会社,大阪府,寝屋川市,小路南町１６番６０－２０３号室,,27,215,5720866,,,,,,,2022-08-04,1,,,,,ミライエフドウサンハンバイ,0
165,1120001247899,新規,0,2022-08-04,2022-08-04,株式会社アドナイ・イルエ,,株式会社,大阪府,大阪市生野区,桃谷１丁目１０番１８号ツインコートＭ１Ｆ,,27,116,5440034,,,,,,,2022-08-04,1,,,,,アドナイイルエ,0
166,1120001247908,新規,0,2022-08-04,2022-08-04,ＡＩＯＮ株式会社,,株式会社,大阪府,大阪市浪速区,湊町２丁目２番５－１４１６号,,27,111,5560017,,,,,,,2022-08-04,1,,,,,アイオン,0
167,1120001247924,新規,0,2022-08-04,2022-08-04,株式会社ＰＬＵＳ　ＵＰ,,株式会社,大阪府,大阪市中央区,久太郎町１丁目５番３１号,,27,128,5410056,,,,,,,2022-08-04,1,,,,,プラスアップ,0
168,1120001247932,新規,0,2022-08-04,2022-08-04,ＰＰＦＩＬＭ株式会社,,株式会社,大阪府,大阪市西成区,松２丁目４－２７ライフステージ花園５０４号室,,27,122,5570034,,,,,,,2022-08-04,1,,,,,ピーピーフィルム,0
169,1120001247940,新規,0,2022-08-04,2022-08-04,株式会社セカンドリンク,,株式会社,大阪府,大阪市東成区,神路３丁目１７番２４号,,27,115,5370003,,,,,,,2022-08-04,1,,,,,セカンドリンク,0
170,1120001247949,新規,0,2022-08-04,2022-08-04,株式会社松岡商会,,株式会社,大阪府,寝屋川市,小路北町２３番３９号,,27,215,5720865,,,,,,,2022-08-04,1,,,,,マツオカショウカイ,0
171,1120001247965,新規,0,2022-08-04,2022-08-04,ＡＣＥ株式会社,,株式会社,大阪府,大阪市生野区,林寺２丁目１番２１号１Ｆ,,27,116,5440023,,,,,,,2022-08-04,1,,,,,エース,0
174,1120003022193,新規,0,2022-08-04,2022-08-04,合同会社てくてく福祉会,,合同会社,大阪府,守口市,寺方本通２丁目１５番１１号,,27,209,5700048,,,,,,,2022-08-04,1,,,,,テクテクフクシカイ,0
175,1120003022210,新規,0,2022-08-04,2022-08-04,Ｎｕｓｓｌｉ　Ｊａｐａｎ合同会社,,合同会社,大阪府,大阪市北区,豊崎３丁目１６番１６－１１０１号,,27,127,5310072,,,,,,,2022-08-04,1,,,,,ニュスリジャパン,0
176,1120003022219,新規,0,2022-08-04,2022-08-04,合同会社オンリング,,合同会社,大阪府,大阪市住吉区,大領４丁目５番２５号,,27,120,5580001,,,,,,,2022-08-04,1,,,,,オンリング,0
179,1120901046335,新規,0,2022-08-04,2022-08-04,株式会社Ｃｌｏｖｅｒ　Ｌｉｎｋ,,株式会社,大阪府,高槻市,塚原４丁目７－１,,27,207,5691046,,,,,,,2022-08-04,1,,,,,クローバーリンク,0
187,1130001072314,新規,0,2022-08-04,2022-08-04,株式会社Ｆ＆ｙｏｕ,,株式会社,京都府,宇治市,志津川南組２２番地１,,26,204,6110015,,,,,,,2022-08-04,1,,,,,エフアンドユー,0
191,1140001126960,新規,0,2022-08-04,2022-08-04,肆喜株式会社,,株式会社,兵庫県,神戸市中央区,日暮通４丁目１番６,,28,110,6510077,,,,,,,2022-08-04,1,,,,,シキ,0
192,1140001126969,新規,0,2022-08-04,2022-08-04,株式会社すわやま,,株式会社,兵庫県,神戸市中央区,諏訪山町５番１１号,,28,110,6500006,,,,,,,2022-08-04,1,,,,,スワヤマ,0
193,1140001127018,新規,0,2022-08-04,2022-08-04,ＭＯＳＴ株式会社,,株式会社,兵庫県,神戸市中央区,琴ノ緒町５丁目５－９フューチャービル３階３０２号,,28,110,6510094,,,,,,,2022-08-04,1,,,,,モスト,0
214,1180001152458,新規,0,2022-08-04,2022-08-04,株式会社カイシン建設,,株式会社,愛知県,清須市,西枇杷島町片町１０６番地,,23,233,4520024,,,,,,,2022-08-04,1,,,,,カイシンケンセツ,0
215,1180001152474,新規,0,2022-08-04,2022-08-04,株式会社西松サービス,,株式会社,愛知県,名古屋市緑区,大根山１丁目１９０６番地,,23,114,4598007,,,,,,,2022-08-04,1,,,,,ニシマツサービス,0
221,1180003024110,新規,0,2022-08-04,2022-08-04,合同会社Ｆｕｊｉ　Ｆａｍｉｌｙ,,合同会社,愛知県,名古屋市港区,大西２丁目９９番地,,23,111,4550861,,,,,,,2022-08-04,1,,,,,フジファミリー,0
222,1180003024119,新規,0,2022-08-04,2022-08-04,合同会社なごや子ども発達研究所,,合同会社,愛知県,名古屋市天白区,福池２丁目２６番地の２,,23,116,4680049,,,,,,,2022-08-04,1,,,,,ナゴヤコドモハッタツケンキュウジョ,0
223,1180301036501,新規,0,2022-08-04,2022-08-04,浅井情報技術株式会社,,株式会社,愛知県,額田郡幸田町,大字相見字阿原３２番地,,23,501,4440117,,,,,,,2022-08-04,1,,,,,アサイジョウホウギジュツ,0
224,1180303005413,新規,0,2022-08-04,2022-08-04,合同会社健充,,合同会社,愛知県,高浜市,呉竹町５丁目１番地１５,,23,227,4441336,,,,,,,2022-08-04,1,,,,,ケンジュウ,0
229,1200001040346,新規,0,2022-08-04,2022-08-04,株式会社レプラホーン,,株式会社,岐阜県,高山市,塩屋町１７６７番地１,,21,203,5060813,,,,,,,2022-08-04,1,,,,,レプラホーン,0
235,1220001024974,新規,0,2022-08-04,2022-08-04,株式会社伊藤コンサルタント,,株式会社,石川県,羽咋郡志賀町,高浜町ノ７４番地,,17,384,9250141,,,,,,,2022-08-04,1,,,,,イトウコンサルタント,0
239,1240001060167,新規,0,2022-08-04,2022-08-04,ＶＩＢ株式会社,,株式会社,広島県,福山市,沖野上町４丁目８番２３号,,34,207,7200825,,,,,,,2022-08-04,1,,,,,ヴイアイビー,0
240,1240001060175,新規,0,2022-08-04,2022-08-04,栄建設工業株式会社,,株式会社,広島県,安芸郡海田町,曙町１４番５号,,34,304,7360031,,,,,,,2022-08-04,1,,,,,サカエケンセツコウギョウ,0
241,1240001060183,新規,0,2022-08-04,2022-08-04,株式会社結ｍｏｖｉｅ,,株式会社,広島県,広島市西区,古江東町２５番１９－４０３号,,34,104,7330872,,,,,,,2022-08-04,1,,,,,ユイムービー,0
246,1250001019699,新規,0,2022-08-04,2022-08-04,株式会社ＳＷＩＮＧエンターテインメントアンドコミュニケーションズ,,株式会社,山口県,山口市,吉敷上東２丁目２番１５号,,35,203,7530818,,,,,,,2022-08-04,1,,,,,スイングエンターテインメントアンドコミュニケーションズ,0
247,1260001037106,新規,0,2022-08-04,2022-08-04,梟農園株式会社,,株式会社,岡山県,津山市,河辺６６２番地７,,33,203,7080842,,,,,,,2022-08-04,1,,,,,フクロウノウエン,0
248,1260001037114,新規,0,2022-08-04,2022-08-04,裕真建設株式会社,,株式会社,岡山県,岡山市南区,福島３丁目１４番２８号,,33,104,7028044,,,,,,,2022-08-04,1,,,,,ユウシンケンセツ,0
254,1290001098450,新規,0,2022-08-04,2022-08-04,株式会社Ｓｍｉｌｅｓｈｉｐ,,株式会社,福岡県,福岡市南区,野多目４丁目１４番４７号,,40,134,8111347,,,,,,,2022-08-04,1,,,,,スマイルシップ,0
255,1290001098459,新規,0,2022-08-04,2022-08-04,株式会社ＳＨＯＷ　ＴＩＭＥ,,株式会社,福岡県,飯塚市,北古賀１８０番地４リバーサイド中園Ａ号,,40,205,8200703,,,,,,,2022-08-04,1,,,,,ショータイム,0
256,1290001098483,新規,0,2022-08-04,2022-08-04,株式会社とみおか薬局,,株式会社,福岡県,福岡市東区,水谷２丁目５１番１９号,,40,131,8130041,,,,,,,2022-08-04,1,,,,,トミオカヤッキョク,0
262,1290003012789,新規,0,2022-08-04,2022-08-04,Ｒ＆Ｓ合同会社,,合同会社,福岡県,久留米市,通東町５番地１６富士ビル４０７,,40,203,8300016,,,,,,,2022-08-04,1,,,,,アールアンドエス,0
267,1310001017977,新規,0,2022-08-04,2022-08-04,株式会社ラ・メゾン,,株式会社,長崎県,佐世保市,上原町５７３番地１,,42,202,8593202,,,,,,,2022-08-04,1,,,,,ラメゾン,0
268,1320001019254,新規,0,2022-08-04,2022-08-04,株式会社山之内食品,,株式会社,大分県,佐伯市,大字上岡１６７３番地１,,44,205,8760045,,,,,,,2022-08-04,1,,,,,ヤマノウチショクヒン,0
270,1330001029979,新規,0,2022-08-04,2022-08-04,株式会社えじそんず,,株式会社,熊本県,熊本市南区,馬渡１丁目１６番６－２０１号コアマンションネクステージ平成さくら通り,,43,104,8620968,,,,,,,2022-08-04,1,,,,,エジソンズ,0
271,1330001030004,新規,0,2022-08-04,2022-08-04,株式会社高圧洗科,,株式会社,熊本県,熊本市東区,長嶺南３丁目２番３２号,,43,102,8618039,,,,,,,2022-08-04,1,,,,,コウアツセンカ,0
273,1330003009467,新規,0,2022-08-04,2022-08-04,合同会社Ｍ２,,合同会社,熊本県,熊本市中央区,古川町８番１号コートビレッジアボシ４０１号,,43,101,8600015,,,,,,,2022-08-04,1,,,,,エムツー,0
274,1330005010539,新規,0,2022-08-04,2022-08-04,一般社団法人熊本屋台村,,その他の設立登記法人,熊本県,熊本市中央区,城東町二丁目２２番,,43,101,8600846,,,,,,,2022-08-04,1,,,,,クマモトヤタイムラ,0
277,1340001024946,新規,0,2022-08-04,2022-08-04,ＩＴＣマネジメント株式会社,,株式会社,鹿児島県,鹿児島市,堀江町１番２１号,,46,201,8920824,,,,,,,2022-08-04,1,,,,,アイティシーマネジメント,0
280,1340003003873,新規,0,2022-08-04,2022-08-04,合同会社なぎの木,,合同会社,鹿児島県,姶良市,加治木町反土２７０６番地,,46,225,8995231,,,,,,,2022-08-04,1,,,,,ナギノキ,0
294,1400001015963,新規,0,2022-08-04,2022-08-04,株式会社Ｈ．Ｓ．Ｐ,,株式会社,岩手県,下閉伊郡田野畑村,明戸２２１番地１,,03,484,0288402,,,,,,,2022-08-04,1,,,,,エイチエスピー,0
296,1410001013248,新規,0,2022-08-04,2022-08-04,奥羽車輌株式会社,,株式会社,秋田県,仙北市,角館町上菅沢１８８番地,,05,215,0140369,,,,,,,2022-08-04,1,,,,,オウウシャリョウ,0
300,1430001087208,新規,0,2022-08-04,2022-08-04,株式会社ＤＴＦ,,株式会社,北海道,札幌市東区,東雁来八条４丁目５番８号,,01,103,0070828,,,,,,,2022-08-04,1,,,,,ディティエフ,0
307,1460101007228,新規,0,2022-08-04,2022-08-04,株式会社北海道やさいの王国,,株式会社,北海道,広尾郡大樹町,柏木町１１番地３５,,01,641,0892138,,,,,,,2022-08-04,1,,,,,ホッカイドウヤサイノオウコク,0
308,1460301005089,新規,0,2022-08-04,2022-08-04,株式会社越高商店,,株式会社,北海道,常呂郡訓子府町,仲町１番地,,01,549,0991433,,,,,,,2022-08-04,1,,,,,コシタカショウテン,0
312,1470005006457,新規,0,2022-08-04,2022-08-04,一般社団法人オレンジ音楽協会,,その他の設立登記法人,香川県,さぬき市,鴨部３９１番地,,37,206,7692104,,,,,,,2022-08-04,1,,,,,オレンジオンガクキョウカイ,0
313,1480001011815,新規,0,2022-08-04,2022-08-04,株式会社エス・ワイ企画,,株式会社,徳島県,徳島市,多家良町池谷２１７番地の６,,36,201,7714264,,,,,,,2022-08-04,1,,,,,エスワイキカク,0
314,1490001010246,新規,0,2022-08-04,2022-08-04,株式会社ＴＯＳＡＲＡＫＵ,,株式会社,高知県,高知市,福井町１９７０番地２８,,39,201,7800965,,,,,,,2022-08-04,1,,,,,トサラク,0
318,1700150109973,新規,0,2022-08-04,2022-06-16,日本ウクライナ芸術協会,,その他,神奈川県,横浜市青葉区,しらとり台１７－８０,,14,117,2270054,,,,,,,2022-06-16,1,,,,,ニホンウクライナゲイジユツキヨウカイ,0
319,1700150111005,新規,0,2022-08-04,2022-08-04,ＡＫＡＳＡＫＡ　ＡＵＴＯ　ＴＲＡＤＩＮＧ,,外国会社等,千葉県,佐倉市,大篠塚７７３－Ａ,,12,212,2850806,スリランカ民主社会主義共和国、アンバテナ、マレガマ、Ｎｏ．２５０／Ａ,,,,,,2022-08-04,1,,,,,アカサカオートトレーデイング,0
323,2010001228422,新規,0,2022-08-04,2022-08-04,株式会社アルタノ,,株式会社,東京都,千代田区,有楽町１丁目６番３号日比谷頴川ビル１１０３号室,,13,101,1000006,,,,,,,2022-08-04,1,,,,,アルタノ,0
324,2010001228455,新規,0,2022-08-04,2022-08-04,株式会社コンコーディアグローバル,,株式会社,東京都,中央区,銀座１丁目３番３号Ｇ１ビル７Ｆ,,13,102,1040061,,,,,,,2022-08-04,1,,,,,コンコーディアグローバル,0
325,2010001228488,新規,0,2022-08-04,2022-08-04,株式会社リード,,株式会社,東京都,文京区,小石川２丁目９番３号,,13,105,1120002,,,,,,,2022-08-04,1,,,,,リード,0
326,2010001228538,新規,0,2022-08-04,2022-08-04,ホワイトスタート株式会社,,株式会社,東京都,千代田区,永田町２丁目１７番５号ローレル永田町１０８,,13,101,1000014,,,,,,,2022-08-04,1,,,,,ホワイトスタート,0
327,2010001228554,新規,0,2022-08-04,2022-08-04,株式会社森川商事,,株式会社,東京都,千代田区,麹町４丁目５番地,,13,101,1020083,,,,,,,2022-08-04,1,,,,,モリカワショウジ,0
330,2010003038316,新規,0,2022-08-04,2022-08-04,なごみホールディング合同会社,,合同会社,東京都,千代田区,丸の内３丁目１番１号東京共同会計事務所内,,13,101,1000005,,,,,,,2022-08-04,1,,,,,ナゴミホールディング,0
331,2010003038324,新規,0,2022-08-04,2022-08-04,ＨＩＴＯＴＳＵＭＥ合同会社,,合同会社,東京都,千代田区,六番町４番地５,,13,101,1020085,,,,,,,2022-08-04,1,,,,,ヒトツメ,0
341,2010401168904,新規,0,2022-08-04,2022-08-04,株式会社サウナ東京,,株式会社,東京都,港区,赤坂３丁目１３番４号赤坂三河家ビル１階,,13,103,1070052,,,,,,,2022-08-04,1,,,,,,0
342,2010403028156,新規,0,2022-08-04,2022-08-04,Ａｆｔｅｒ　ｔｈｅ　Ｒａｉｎ合同会社,,合同会社,東京都,港区,芝浦４丁目２０番２－２３０１号,,13,103,1080023,,,,,,,2022-08-04,1,,,,,アフターザレイン,0
343,2010601061603,新規,0,2022-08-04,2022-08-04,株式会社なえどこ,,株式会社,東京都,江東区,新大橋２丁目２－５,,13,108,1350007,,,,,,,2022-08-04,1,,,,,ナエドコ,0
347,2010901051353,新規,0,2022-08-04,2022-08-04,こどもの未来株式会社,,株式会社,東京都,世田谷区,北沢２丁目１１番１５号,,13,112,1550031,,,,,,,2022-08-04,1,,,,,コドモノミライ,0
352,2011001149030,新規,0,2022-08-04,2022-08-04,株式会社プルール,,株式会社,東京都,渋谷区,神宮前５丁目４６番１号,,13,113,1500001,,,,,,,2022-08-04,1,,,,,プルール,0
353,2011001149071,新規,0,2022-08-04,2022-08-04,ケアホルム株式会社,,株式会社,東京都,渋谷区,鶯谷町１３番１号,,13,113,1500032,,,,,,,2022-08-04,1,,,,,ケアホルム,0
354,2011003015098,新規,0,2022-08-04,2022-08-04,合同会社ＪＯＹＯＮＥ,,合同会社,東京都,渋谷区,道玄坂１丁目１０番８号渋谷道玄坂東急ビル２Ｆ－Ｃ,,13,113,1500043,,,,,,,2022-08-04,1,,,,,ジョイワン,0
355,2011003015164,新規,0,2022-08-04,2022-08-04,合同会社イラストエンジン,,合同会社,東京都,渋谷区,神宮前６丁目２３番４号桑野ビル２階,,13,113,1500001,,,,,,,2022-08-04,1,,,,,イラストエンジン,0
356,2011005009692,新規,0,2022-08-04,2022-08-04,一般社団法人日本デジタル起業協会,,その他の設立登記法人,東京都,渋谷区,恵比寿南３丁目９番１６号５階,,13,113,1500022,,,,,,,2022-08-04,1,,,,,ニホンデジタルキギョウキョウカイ,0
366,2011101099753,新規,0,2022-08-04,2022-08-04,ＦｏｕｎｄＮａｔｉｏｎ株式会社,,株式会社,東京都,新宿区,西新宿３丁目３番１３号西新宿水間ビル６階,,13,104,1600023,,,,,,,2022-08-04,1,,,,,ファウンドネイション,0
371,2011301027992,新規,0,2022-08-04,2022-08-04,株式会社セブンセカンド,,株式会社,東京都,杉並区,高井戸東１丁目１番６０号東側事務所,,13,115,1680072,,,,,,,2022-08-04,1,,,,,セブンセカンド,0
372,2011301028000,新規,0,2022-08-04,2022-08-04,株式会社強羅,,株式会社,東京都,杉並区,西荻南４丁目１２番５号,,13,115,1670053,,,,,,,2022-08-04,1,,,,,ゴウラ,0
380,2011801041097,新規,0,2022-08-04,2022-08-04,株式会社オーディープランニング,,株式会社,東京都,葛飾区,東金町１丁目１８番１０号東金町ビル１階,,13,122,1250041,,,,,,,2022-08-04,1,,,,,オーディープランニング,0
381,2011801041106,新規,0,2022-08-04,2022-08-04,みらい株式会社,,株式会社,東京都,葛飾区,小菅３丁目１９番３号,,13,122,1240001,,,,,,,2022-08-04,1,,,,,ミライ,0
384,2012401039498,新規,0,2022-08-04,2022-08-04,株式会社一路,,株式会社,東京都,武蔵野市,吉祥寺本町２丁目８番４号ｉ－ｏｆｆｉｃｅ吉祥寺,,13,203,1800004,,,,,,,2022-08-04,1,,,,,イチロ,0
386,2012403005515,新規,0,2022-08-04,2022-08-04,合同会社Ｈｏｐｅｆｕｌ　Ｐｒｏｊｅｃｔ,,合同会社,東京都,多摩市,鶴牧２丁目２５番地２,,13,224,2060034,,,,,,,2022-08-04,1,,,,,ホープフルプロジェクト,0
397,2020001147638,新規,0,2022-08-04,2022-08-04,弘住ハウス株式会社,,株式会社,神奈川県,横浜市中区,北仲通５丁目５７番地２,,14,104,2310003,,,,,,,2022-08-04,1,,,,,コウジュウハウス,0
406,2021001076661,新規,0,2022-08-04,2022-08-04,株式会社ＮＥＸＵＳ,,株式会社,神奈川県,平塚市,岡崎３９２７番地の９,,14,203,2591212,,,,,,,2022-08-04,1,,,,,ネクサス,0
407,2021001076711,新規,0,2022-08-04,2022-08-04,株式会社Ｕｒｓｕｌａ,,株式会社,神奈川県,相模原市緑区,二本松３丁目１４－２２マハローラ２０２,,14,151,2520137,,,,,,,2022-08-04,1,,,,,アースラ,0
416,2030001149501,新規,0,2022-08-04,2022-08-04,株式会社ＫＡＺ・インターナショナル,,株式会社,埼玉県,北本市,宮内６丁目５２番地１,,11,233,3640002,,,,,,,2022-08-04,1,,,,,カズインターナショナル,0
417,2030003019883,新規,0,2022-08-04,2022-08-04,合同会社ＪＵＵ　ＪＵＵ,,合同会社,埼玉県,春日部市,粕壁東３丁目１６番２号,,11,214,3440062,,,,,,,2022-08-04,1,,,,,ジュージュー,0
418,2030003019909,新規,0,2022-08-04,2022-08-04,合同会社ロジックワーク,,合同会社,埼玉県,羽生市,大字中岩瀬５３９番地１,,11,216,3480046,,,,,,,2022-08-04,1,,,,,ロジックワーク,0
424,2040001124552,新規,0,2022-08-04,2022-08-04,珊瑚株式会社,,株式会社,千葉県,船橋市,北本町２丁目５７番２－２０３号,,12,204,2730864,,,,,,,2022-08-04,1,,,,,サンゴ,0
425,2040001124593,新規,0,2022-08-04,2022-08-04,株式会社ヒュッゲ,,株式会社,千葉県,市川市,大野町１丁目４５９－４,,12,203,2720805,,,,,,,2022-08-04,1,,,,,ヒュッゲ,0
431,2070001039459,新規,0,2022-08-04,2022-08-04,株式会社アシスト,,株式会社,群馬県,伊勢崎市,大正寺町２１８－１株式会社晃和伊勢崎工場２Ｆ,,10,204,3720841,,,,,,,2022-08-04,1,,,,,アシスト,0
432,2070001039467,新規,0,2022-08-04,2022-08-04,株式会社ＳＥＮＳＥ　ＴＡＫＡＳＡＫＩ,,株式会社,群馬県,高崎市,宿横手町１４１番地４,,10,202,3700022,,,,,,,2022-08-04,1,,,,,センスタカサキ,0
434,2080001025111,新規,0,2022-08-04,2022-08-04,株式会社コンフォートプランニング,,株式会社,静岡県,静岡市葵区,駒形通１丁目１番５－２０２号,,22,101,4200042,,,,,,,2022-08-04,1,,,,,コンフォートプランニング,0
437,2090003002140,新規,0,2022-08-04,2022-08-04,合同会社フォレストヴィラ山中湖,,合同会社,山梨県,南都留郡山中湖村,山中３７３－３,,19,425,4010501,,,,,,,2022-08-04,1,,,,,フォレストヴィラヤマナカコ,0
439,2100001035586,新規,0,2022-08-04,2022-08-04,株式会社Ｒｕｌｅｄ　ｌｉｎｅ,,株式会社,長野県,松本市,中央２丁目３番２０号,,20,202,3900811,,,,,,,2022-08-04,1,,,,,ルールドライン,0
448,2120001247634,新規,0,2022-08-04,2022-08-04,株式会社ソキアリアルティ,,株式会社,大阪府,大阪市東淀川区,東中島２丁目９番１５号,,27,114,5330033,,,,,,,2022-08-04,1,,,,,ソキアリアルティ,0
449,2120001247873,新規,0,2022-08-04,2022-08-04,株式会社Ｎｅｘｔ　Ｌｅａｐ,,株式会社,大阪府,大阪市中央区,島之内１丁目１６－２２おおきに長堀橋鰻谷北サニーアパートメント８０４,,27,128,5420082,,,,,,,2022-08-04,1,,,,,ネクストリープ,0
450,2120001247898,新規,0,2022-08-04,2022-08-04,株式会社ＶＯＬＴ,,株式会社,大阪府,守口市,菊水通４丁目９番５号,,27,209,5700032,,,,,,,2022-08-04,1,,,,,ボルト,0
451,2120001247915,新規,0,2022-08-04,2022-08-04,株式会社ＢＢＭリアルエステート,,株式会社,大阪府,大阪市北区,曾根崎新地２丁目６－２３,,27,127,5300002,,,,,,,2022-08-04,1,,,,,ビービーエムリアルエステート,0
452,2120001247923,新規,0,2022-08-04,2022-08-04,株式会社ｓｏｒａｉｒｏ,,株式会社,大阪府,大阪市東淀川区,東淡路４丁目２０番８－２０２号,,27,114,5330023,,,,,,,2022-08-04,1,,,,,ソライロ,0
453,2120001247931,新規,0,2022-08-04,2022-08-04,Ｏｓａｋａ　Ｉｎｄｙ株式会社,,株式会社,大阪府,大阪市平野区,加美正覚寺３丁目２番２０－４０６号,,27,126,5470006,,,,,,,2022-08-04,1,,,,,オーサカインディ,0
454,2120001247956,新規,0,2022-08-04,2022-08-04,株式会社ＫＳＥ　ｐｌｕｓ,,株式会社,大阪府,大阪市中央区,平野町３丁目１番９号,,27,128,5410046,,,,,,,2022-08-04,1,,,,,ケイエスイープラス,0
455,2120001247989,新規,0,2022-08-04,2022-08-04,株式会社ｏｆｆｉｃｅ　ｚｕｃｃｈｉｎｉ,,株式会社,大阪府,大阪市北区,天満２丁目１２－３ヴィレッジリバー南森町４－Ｄ,,27,127,5300043,,,,,,,2022-08-04,1,,,,,オフィスズッキーニ,0
456,2120001247997,新規,0,2022-08-04,2022-08-04,株式会社ベアコネ,,株式会社,大阪府,大阪市東住吉区,南田辺１丁目７番３１号,,27,121,5460033,,,,,,,2022-08-04,1,,,,,ベアコネ,0
458,2120003022218,新規,0,2022-08-04,2022-08-04,合同会社こどものアトリエぶーふーうー,,合同会社,大阪府,大阪市西成区,天神ノ森２丁目６番３５号,,27,122,5570013,,,,,,,2022-08-04,1,,,,,コドモノアトリエブーフーウー,0
462,2120901046334,新規,0,2022-08-04,2022-08-04,株式会社Ｆｒｅｅｓｔｙｌｅ　Ｐｌａｎｅｔｓ,,株式会社,大阪府,吹田市,片山町４丁目５番７号,,27,205,5640082,,,,,,,2022-08-04,1,,,,,フリースタイルプラネッツ,0
465,2122001036141,新規,0,2022-08-04,2022-08-04,誉興業株式会社,,株式会社,大阪府,東大阪市,友井５丁目３番８－２０６号,,27,227,5770816,,,,,,,2022-08-04,1,,,,,ホマレコウギョウ,0
471,2130001072338,新規,0,2022-08-04,2022-08-04,株式会社ＨＯＳＯＯ　ａｒｃｈｉｔｅｃｔｕｒｅ,,株式会社,京都府,京都市上京区,黒門通元誓願寺下る毘沙門町７５２番地,,26,102,6028227,,,,,,,2022-08-04,1,,,,,ホソオアーキテクチャー,0
472,2130003008100,新規,0,2022-08-04,2022-08-04,ＳｋｕｎＰ合同会社,,合同会社,京都府,京都市西京区,山田大吉見町３－２,,26,111,6158236,,,,,,,2022-08-04,1,,,,,スカンプ,0
476,2140001126992,新規,0,2022-08-04,2022-08-04,新海航運株式会社,,株式会社,兵庫県,神戸市中央区,海岸通２丁目２番３号,,28,110,6500024,,,,,,,2022-08-04,1,,,,,シンカイコウウン,0
483,2180001152399,新規,0,2022-08-04,2022-08-04,Ｄｅｆｔ株式会社,,株式会社,愛知県,丹羽郡扶桑町,大字高雄字中海道１２２番地４,,23,362,4800102,,,,,,,2022-08-04,1,,,,,デフト,0
484,2180001152440,新規,0,2022-08-04,2022-08-04,株式会社ＬＩＢＥＲＯ,,株式会社,愛知県,一宮市,浅野字大西１３７番地,,23,203,4910871,,,,,,,2022-08-04,1,,,,,リベロ,0
485,2180001152449,新規,0,2022-08-04,2022-08-04,岩本設備株式会社,,株式会社,愛知県,名古屋市中川区,富田町大字榎津字袋尻４２７番地の２,,23,110,4540953,,,,,,,2022-08-04,1,,,,,イワモトセツビ,0
486,2180001152473,新規,0,2022-08-04,2022-08-04,株式会社ＫＡＡＱ　ＬＯＧＩＳＴＩＣＳ,,株式会社,愛知県,名古屋市名東区,平和が丘５丁目１０９番地（平和ヶ丘ＹＯハウス１０２号）,,23,115,4650097,,,,,,,2022-08-04,1,,,,,カークロジスティックス,0
487,2180001152498,新規,0,2022-08-04,2022-08-04,株式会社ＯＣＴ　ＷＯＲＫＳ．,,株式会社,愛知県,清須市,春日川中３０番地,,23,233,4520962,,,,,,,2022-08-04,1,,,,,オクトワークス,0
488,2180001152507,新規,0,2022-08-04,2022-08-04,株式会社ｃｏｎ　ａｎｉｍａ,,株式会社,愛知県,名古屋市中村区,名駅３丁目２０番２０号名駅錦ビル６Ｆ,,23,105,4500002,,,,,,,2022-08-04,1,,,,,コンアニマ,0
497,2180301036491,新規,0,2022-08-04,2022-08-04,株式会社ＢＡＫＵホールディングス,,株式会社,愛知県,岡崎市,美合町字本郷２９０番地,,23,202,4440802,,,,,,,2022-08-04,1,,,,,バクホールディングス,0
502,2190001029662,新規,0,2022-08-04,2022-08-04,株式会社ＩＺＵＭＩ,,株式会社,三重県,三重郡菰野町,大字潤田３５５番地１,,24,341,5101253,,,,,,,2022-08-04,1,,,,,イズミ,0
508,2200001040337,新規,0,2022-08-04,2022-08-04,Ｙ’ｓクリーンサービス株式会社,,株式会社,岐阜県,美濃加茂市,中部台４丁目６番地２,,21,211,5050038,,,,,,,2022-08-04,1,,,,,ワイズクリーンサービス,0
516,2240005015430,新規,0,2022-08-04,2022-08-04,一般社団法人高度高所作業機構,,その他の設立登記法人,広島県,広島市西区,中広町３丁目１１番５号,,34,104,7330012,,,,,,,2022-08-04,1,,,,,コウドコウショサギョウキコウ,0
519,2260001037113,新規,0,2022-08-04,2022-08-04,株式会社オダカミボディー,,株式会社,岡山県,倉敷市,南畝２丁目８番２５号,,33,202,7128055,,,,,,,2022-08-04,1,,,,,オダカミボディー,0
523,2290001098417,新規,0,2022-08-04,2022-08-04,星洋株式会社,,株式会社,福岡県,福岡市西区,愛宕３丁目４－１２－２０１,,40,135,8190015,,,,,,,2022-08-04,1,,,,,セイヨウ,0
524,2290001098441,新規,0,2022-08-04,2022-08-04,株式会社筑前蒲鉾本舗,,株式会社,福岡県,福津市,西福間３丁目３５番１号,,40,224,8113219,,,,,,,2022-08-04,1,,,,,チクゼンカマボコホンポ,0
525,2290001098458,新規,0,2022-08-04,2022-08-04,株式会社スキロジー,,株式会社,福岡県,福岡市博多区,博多駅前２丁目１９番１７号トーカン博多第５ビル３１２号室,,40,132,8120011,,,,,,,2022-08-04,1,,,,,スキロジー,0
527,2290003012805,新規,0,2022-08-04,2022-08-04,合同会社三佳,,合同会社,福岡県,福岡市博多区,諸岡４丁目３７番２５号,,40,132,8120894,,,,,,,2022-08-04,1,,,,,サンカ,0
530,2320001019253,新規,0,2022-08-04,2022-08-04,株式会社杉田,,株式会社,大分県,大分市,大字森町６６５番地の１,,44,201,8700127,,,,,,,2022-08-04,1,,,,,スギタ,0
532,2330001030003,新規,0,2022-08-04,2022-08-04,株式会社ブレイブワン,,株式会社,熊本県,上益城郡嘉島町,大字鯰２８３３番地３,,43,442,8613101,,,,,,,2022-08-04,1,,,,,ブレイブワン,0
535,2330003009466,新規,0,2022-08-04,2022-08-04,合同会社シンスター,,合同会社,熊本県,八代市,新開町１番４３号,,43,202,8660032,,,,,,,2022-08-04,1,,,,,シンスター,0
542,2370001048891,新規,0,2022-08-04,2022-08-04,株式会社ファーストプロダクション,,株式会社,宮城県,仙台市宮城野区,岩切字余目南１１５番地１,,04,102,9830821,,,,,,,2022-08-04,1,,,,,ファーストプロダクション,0
546,2390001016979,新規,0,2022-08-04,2022-08-04,株式会社ラディッツキャピタルマネジメント,,株式会社,山形県,山形市,緑町３丁目２番４６－１号,,06,201,9900041,,,,,,,2022-08-04,1,,,,,ラディッツキャピタルマネジメント,0
555,2410001013247,新規,0,2022-08-04,2022-08-04,齊藤重建工業株式会社,,株式会社,秋田県,大館市,沼館字神田表１２番地２,,05,204,0170057,,,,,,,2022-08-04,1,,,,,サイトウジュウケンコウギョウ,0
561,2430001087207,新規,0,2022-08-04,2022-08-04,株式会社山口,,株式会社,北海道,夕張郡長沼町,西１線南３番地,,01,428,0691471,,,,,,,2022-08-04,1,,,,,ヤマグチ,0
563,2460301005088,新規,0,2022-08-04,2022-08-04,株式会社アプラス,,株式会社,北海道,北見市,末広町１７３番地９２,,01,208,0900826,,,,,,,2022-08-04,1,,,,,アプラス,0
565,2470001019189,新規,0,2022-08-04,2022-08-04,株式会社ｄｉｌｕｔａ,,株式会社,香川県,丸亀市,今津町１０３番地,,37,202,7630051,,,,,,,2022-08-04,1,,,,,ディルタ,0
566,2470001019197,新規,0,2022-08-04,2022-08-04,株式会社アミ,,株式会社,香川県,高松市,錦町２丁目１０番２１号,,37,201,7600020,,,,,,,2022-08-04,1,,,,,アミ,0
567,2470003002226,新規,0,2022-08-04,2022-08-04,合同会社アロハインベストメント,,合同会社,香川県,高松市,高松町１１２７番地６７,,37,201,7610104,,,,,,,2022-08-04,1,,,,,アロハインベストメント,0
568,2490001010245,新規,0,2022-08-04,2022-08-04,株式会社森建,,株式会社,高知県,安芸郡奈半利町,乙２５９５番地,,39,302,7816402,,,,,,,2022-08-04,1,,,,,モリケン,0
570,2700150111004,新規,0,2022-08-04,2022-08-04,ＴＨＥ　ＩＭＡＧＥ　ＨＯＵＳＥ,,外国会社等,千葉県,八街市,東吉田７２５番地オフィス１４号,,12,230,2891114,スリランカ民主社会主義共和国、ネゴンボ、アドニワサロード、１３,,,,,,2022-08-04,1,,,,,ジイメージハウス,0
575,3010001228314,新規,0,2022-08-04,2022-08-04,Ｖｌｉｇｈｔｕｐ株式会社,,株式会社,東京都,千代田区,丸の内１丁目１１番１号,,13,101,1000005,,,,,,,2022-08-04,1,,,,,ブライトアップ,0
576,3010001228462,新規,0,2022-08-04,2022-08-04,株式会社アルカフォリア,,株式会社,東京都,中央区,銀座１丁目２２番１１号,,13,102,1040061,,,,,,,2022-08-04,1,,,,,アルカフォリア,0
577,3010001228512,新規,0,2022-08-04,2022-08-04,株式会社いな穂,,株式会社,東京都,中央区,築地２丁目１４番１２号,,13,102,1040045,,,,,,,2022-08-04,1,,,,,イナホ,0
578,3010001228529,新規,0,2022-08-04,2022-08-04,株式会社Ｇ‐ｒｏａｄ,,株式会社,東京都,千代田区,九段南１丁目５番６号りそな九段ビル５Ｆ・ＫＳフロア,,13,101,1020074,,,,,,,2022-08-04,1,,,,,ジーロード,0
583,3010003038315,新規,0,2022-08-04,2022-08-04,Ｚｅｒｏ　Ｏｎｅ合同会社,,合同会社,東京都,中央区,銀座７丁目１５番８号タウンハイツ銀座４０６,,13,102,1040061,,,,,,,2022-08-04,1,,,,,ゼロワン,0
584,3010003038323,新規,0,2022-08-04,2022-08-04,合同会社ＩＧＲ,,合同会社,東京都,中央区,築地３丁目９番１０号築地ビル９Ｆ,,13,102,1040045,,,,,,,2022-08-04,1,,,,,アイジーアール,0
587,3010005035343,新規,0,2022-08-04,2022-08-04,一般財団法人マリン・ファウンデーション・トラスト,,その他の設立登記法人,東京都,千代田区,丸の内１丁目６番２号新丸の内センタービルディング２１階,,13,101,1000005,,,,,,,2022-08-04,1,,,,,マリンファウンデーショントラスト,0
617,3010901051344,新規,0,2022-08-04,2022-08-04,株式会社アールダヴァンギャルド,,株式会社,東京都,世田谷区,上野毛１丁目２６番１４号,,13,112,1580093,,,,,,,2022-08-04,1,,,,,アールダヴァンギャルド,0
624,3011001149021,新規,0,2022-08-04,2022-08-04,ガールズエンド株式会社,,株式会社,東京都,目黒区,自由が丘２丁目１６番１２号ＬＣ１Ｆ,,13,110,1520035,,,,,,,2022-08-04,1,,,,,ガールズエンド,0
625,3011001149038,新規,0,2022-08-04,2022-08-04,ＩＭＮＫ株式会社,,株式会社,東京都,渋谷区,広尾５丁目７番３５号広尾コンプレックスビル２Ｆ,,13,113,1500012,,,,,,,2022-08-04,1,,,,,アイエムエヌケー,0
630,3011101099728,新規,0,2022-08-04,2022-08-04,メディウスバンドコスモロギー株式会社,,株式会社,東京都,新宿区,揚場町２番２０号大和ビル３Ｅ,,13,104,1620824,,,,,,,2022-08-04,1,,,,,メディウスバンドコスモロギー,0
631,3011101099744,新規,0,2022-08-04,2022-08-04,株式会社ＡＰＲＩＳ,,株式会社,東京都,新宿区,早稲田鶴巻町５７２番地アルテシモサグラ７０５,,13,104,1620041,,,,,,,2022-08-04,1,,,,,アプリス,0
640,3011501028360,新規,0,2022-08-04,2022-08-04,株式会社Ｎｓ．ｄｒｅ,,株式会社,東京都,荒川区,西日暮里２丁目４９－５－４０１,,13,118,1160013,,,,,,,2022-08-04,1,,,,,ナースドレー,0
642,3011601026157,新規,0,2022-08-04,2022-08-04,株式会社東京地方研究所,,株式会社,東京都,練馬区,貫井４丁目４７番３８号,,13,120,1760021,,,,,,,2022-08-04,1,,,,,トウキョウチホウケンキュウショ,0
643,3011701025505,新規,0,2022-08-04,2022-08-04,株式会社さとう企画,,株式会社,東京都,江戸川区,平井１丁目２番１１－２０４号,,13,123,1320035,,,,,,,2022-08-04,1,,,,,サトウキカク,0
644,3011701025513,新規,0,2022-08-04,2022-08-04,株式会社ひまわり,,株式会社,東京都,江戸川区,西小岩１丁目２９番１４号ホワイトビル３０１,,13,123,1330057,,,,,,,2022-08-04,1,,,,,ヒマワリ,0
645,3011801041096,新規,0,2022-08-04,2022-08-04,池永建設株式会社,,株式会社,東京都,葛飾区,東新小岩３丁目８番５－４０５号,,13,122,1240023,,,,,,,2022-08-04,1,,,,,イケナガケンセツ,0
646,3011801041105,新規,0,2022-08-04,2022-08-04,株式会社Ｔ‐ａｃｔ,,株式会社,東京都,足立区,千住曙町３２－１５,,13,121,1200023,,,,,,,2022-08-04,1,,,,,ティーアクト,0
657,3013301049438,新規,0,2022-08-04,2022-08-04,金木株式会社,,株式会社,東京都,豊島区,池袋本町４丁目３４－４,,13,116,1700011,,,,,,,2022-08-04,1,,,,,カナギ,0
667,3020001147595,新規,0,2022-08-04,2022-08-04,インクション株式会社,,株式会社,神奈川県,横浜市都筑区,川和町２２９５番地１６ブリランテＢ１０１,,14,118,2240057,,,,,,,2022-08-04,1,,,,,インクション,0
668,3020001147661,新規,0,2022-08-04,2022-08-04,株式会社Ａ．Ｐ,,株式会社,神奈川県,川崎市高津区,梶ケ谷３丁目５番地５,,14,134,2130015,,,,,,,2022-08-04,1,,,,,エーピー,0
669,3020001147678,新規,0,2022-08-04,2022-08-04,株式会社ＳＣＡＦＦＯＬＤ,,株式会社,神奈川県,川崎市川崎区,中島３丁目９番１号,,14,131,2100806,,,,,,,2022-08-04,1,,,,,スキャッフォルド,0
670,3020003022219,新規,0,2022-08-04,2022-08-04,合同会社Ｆ・Ｏｒｕｔｏ,,合同会社,神奈川県,横浜市鶴見区,鶴見中央５丁目５番９－４０２号,,14,101,2300051,,,,,,,2022-08-04,1,,,,,エフォルト,0
681,3021001076660,新規,0,2022-08-04,2022-08-04,株式会社ＰＬＡＹＦＵＬ　ＭＡＧ,,株式会社,神奈川県,茅ヶ崎市,出口町８番１３－２号,,14,207,2530028,,,,,,,2022-08-04,1,,,,,プレイフルマグ,0
682,3021001076669,新規,0,2022-08-04,2022-08-04,株式会社森のサラダ,,株式会社,神奈川県,三浦郡葉山町,上山口２３６８番地の１,,14,301,2400115,,,,,,,2022-08-04,1,,,,,モリノサラダ,0
683,3021001076685,新規,0,2022-08-04,2022-08-04,株式会社ＫＳＣ,,株式会社,神奈川県,藤沢市,亀井野１丁目１５番地の２,,14,205,2520813,,,,,,,2022-08-04,1,,,,,ケイエスシー,0
684,3021001076693,新規,0,2022-08-04,2022-08-04,株式会社レイホーム,,株式会社,神奈川県,大和市,福田１６９１番地１１,,14,213,2420024,,,,,,,2022-08-04,1,,,,,レイホーム,0
685,3021001076702,新規,0,2022-08-04,2022-08-04,株式会社トップクラス,,株式会社,神奈川県,平塚市,東真土２丁目１６番１４－１０３号,,14,203,2540018,,,,,,,2022-08-04,1,,,,,トップクラス,0
694,3021003012003,新規,0,2022-08-04,2022-08-04,エボニーアンドアイボリー合同会社,,合同会社,神奈川県,鎌倉市,七里ガ浜東２丁目７番１８－４０２号,,14,204,2480025,,,,,,,2022-08-04,1,,,,,エボニーアンドアイボリー,0
699,3030001149426,新規,0,2022-08-04,2022-08-04,株式会社ジーロコーポレーション,,株式会社,埼玉県,川口市,芝１丁目２３番５－５１１号ルミエール３番館,,11,203,3330866,,,,,,,2022-08-04,1,,,,,,0
700,3030001149467,新規,0,2022-08-04,2022-08-04,株式会社オオゾノ,,株式会社,埼玉県,越谷市,神明町１丁目１４０－４,,11,222,3430805,,,,,,,2022-08-04,1,,,,,オオゾノ,0
701,3030001149517,新規,0,2022-08-04,2022-08-04,縁株式会社,,株式会社,埼玉県,川口市,上青木１丁目３番３９号,,11,203,3330844,,,,,,,2022-08-04,1,,,,,エニシ,0
704,3030003019908,新規,0,2022-08-04,2022-08-04,合同会社ケーブリッジ,,合同会社,埼玉県,入間市,大字下藤沢７２５番地１５,,11,225,3580011,,,,,,,2022-08-04,1,,,,,ケーブリッジ,0
713,3040003020567,新規,0,2022-08-04,2022-08-04,合同会社ハレルヤ,,合同会社,千葉県,松戸市,松戸新田２４番地３－１７号,,12,207,2702241,,,,,,,2022-08-04,1,,,,,ハレルヤ,0
714,3040003020583,新規,0,2022-08-04,2022-08-04,合同会社Ｓ．Ｋ．Ｎファーム,,合同会社,千葉県,袖ケ浦市,奈良輪７９６番地１メロウ・ブリーズ２０２,,12,229,2990263,,,,,,,2022-08-04,1,,,,,エスケーエヌファーム,0
716,3050001051489,新規,0,2022-08-04,2022-08-04,清水物産丸高工務店株式会社,,株式会社,茨城県,稲敷市,清水２０６０番地１,,08,229,3000614,,,,,,,2022-08-04,1,,,,,シミズブッサンマルタカコウムテン,0
718,3060001016854,新規,0,2022-08-04,2022-08-04,栃木住宅建設株式会社,,株式会社,栃木県,栃木市,都賀町升塚１１０番地,,09,203,3280114,,,,,,,2022-08-04,1,,,,,トチギジュウタクケンセツ,0
719,3060001035152,新規,0,2022-08-04,2022-08-04,バディーズ株式会社,,株式会社,栃木県,宇都宮市,インターパーク２丁目４番地１,,09,201,3210118,,,,,,,2022-08-04,1,,,,,バディーズ,0
721,3070001039490,新規,0,2022-08-04,2022-08-04,ＴＶＮ　ＢＲＯＳ株式会社,,株式会社,群馬県,伊勢崎市,曲沢町７６７番地１４,,10,204,3792203,,,,,,,2022-08-04,1,,,,,ティーヴィエヌブロス,0
731,3100001035585,新規,0,2022-08-04,2022-08-04,株式会社シグナス水力発電研究所,,株式会社,長野県,安曇野市,穂高柏原２８７２番地２２,,20,220,3998304,,,,,,,2022-08-04,1,,,,,シグナススイリョクハツデンケンキュウジョ,0
738,3110001036863,新規,0,2022-08-04,2022-08-04,株式会社ＹＯＳＨＩＺＡＷＡ　Ｐｒｅｍｉｕｍ　Ｗｏｒｋｓ新潟,,株式会社,新潟県,新潟市中央区,万代１丁目６番１号,,15,103,9500088,,,,,,,2022-08-04,1,,,,,ヨシザワプレミアムワークスニイガタ,0
740,3110003004835,新規,0,2022-08-04,2022-08-04,合同会社ＧＲＯＷＴＨ,,合同会社,新潟県,新潟市江南区,茗荷谷２６４番地,,15,104,9500114,,,,,,,2022-08-04,1,,,,,グロース,0
747,3120001247781,新規,0,2022-08-04,2022-08-04,ＪＡＳ株式会社,,株式会社,大阪府,大阪市都島区,東野田町４丁目５－２翠連マンション４０６号室,,27,102,5340024,,,,,,,2022-08-04,1,,,,,ジェーエイエス,0
748,3120001247864,新規,0,2022-08-04,2022-08-04,株式会社浜口商店,,株式会社,大阪府,大阪市西区,本田４丁目７番２号,,27,106,5500022,,,,,,,2022-08-04,1,,,,,ハマグチショウテン,0
749,3120001247880,新規,0,2022-08-04,2022-08-04,株式会社トップセレクト,,株式会社,大阪府,守口市,梅園町９番９号,,27,209,5700066,,,,,,,2022-08-04,1,,,,,トップセレクト,0
750,3120001247897,新規,0,2022-08-04,2022-08-04,株式会社ＡＳＥＮＳＥ,,株式会社,大阪府,大阪市中央区,北久宝寺町３丁目６番１号本町南ガーデンシティ７階,,27,128,5410057,,,,,,,2022-08-04,1,,,,,アセンス,0
751,3120001247906,新規,0,2022-08-04,2022-08-04,株式会社小川,,株式会社,大阪府,大阪市西区,江戸堀１丁目２５番２５－９０５号,,27,106,5500002,,,,,,,2022-08-04,1,,,,,オガワ,0
752,3120001247914,新規,0,2022-08-04,2022-08-04,株式会社ＣＰＣ,,株式会社,大阪府,大阪市天王寺区,上本町１丁目１番１８－４１３号,,27,109,5430001,,,,,,,2022-08-04,1,,,,,シーピーシー,0
753,3120001247963,新規,0,2022-08-04,2022-08-04,株式会社プロースト,,株式会社,大阪府,大阪市中央区,平野町３丁目３番７号,,27,128,5410046,,,,,,,2022-08-04,1,,,,,プロースト,0
757,3120101066025,新規,0,2022-08-04,2022-08-04,株式会社金田工業,,株式会社,大阪府,和泉市,幸３丁目１７番６７－２０３号,,27,219,5940005,,,,,,,2022-08-04,1,,,,,カネダコウギョウ,0
767,3130001072337,新規,0,2022-08-04,2022-08-04,株式会社紫永,,株式会社,京都府,舞鶴市,字森９７０番地,,26,202,6250062,,,,,,,2022-08-04,1,,,,,シエイ,0
770,3140001126959,新規,0,2022-08-04,2022-08-04,株式会社Ｋｏｋｏｎａ,,株式会社,兵庫県,姫路市,南町７６番地,,28,201,6700912,,,,,,,2022-08-04,1,,,,,ココナ,0
771,3140001127008,新規,0,2022-08-04,2022-08-04,株式会社スキルワーク,,株式会社,兵庫県,伊丹市,千僧２丁目１６７番地吉井ビル４０１号,,28,207,6640898,,,,,,,2022-08-04,1,,,,,スキルワーク,0
772,3140001127016,新規,0,2022-08-04,2022-08-04,株式会社ＳＡＫＵＲＡ,,株式会社,兵庫県,姫路市,市川橋通１丁目１７番地１－２０１,,28,201,6700825,,,,,,,2022-08-04,1,,,,,サクラ,0
774,3140003017982,新規,0,2022-08-04,2022-08-04,合同会社ＴＹダンスカンパニー,,合同会社,兵庫県,西宮市,宮西町２－１１ラ・レジェール廣瀬６０５号,,28,204,6620976,,,,,,,2022-08-04,1,,,,,ティーワイダンスカンパニー,0
780,3160001024418,新規,0,2022-08-04,2022-08-04,株式会社大心,,株式会社,滋賀県,犬上郡豊郷町,大字高野瀬６５５番地１,,25,441,5291173,,,,,,,2022-08-04,1,,,,,ダイシン,0
791,3180001152415,新規,0,2022-08-04,2022-08-04,株式会社Ｌｉｖｉｔａｅ,,株式会社,愛知県,春日井市,下条町３丁目１２番地１０ドミール２０２号,,23,206,4860923,,,,,,,2022-08-04,1,,,,,リヴィーテ,0
792,3180001152423,新規,0,2022-08-04,2022-08-04,株式会社八建,,株式会社,愛知県,大府市,北崎町島原２５番地の１,,23,223,4740001,,,,,,,2022-08-04,1,,,,,ハチケン,0
793,3180001152456,新規,0,2022-08-04,2022-08-04,株式会社優しい時間,,株式会社,愛知県,名古屋市千種区,竹越２丁目６番１７号,,23,101,4640007,,,,,,,2022-08-04,1,,,,,ヤサシイジカン,0
794,3180001152480,新規,0,2022-08-04,2022-08-04,１７Ｔｒａｄｅ株式会社,,株式会社,愛知県,名古屋市北区,杉栄町５丁目１１９番地の２,,23,103,4620829,,,,,,,2022-08-04,1,,,,,イチナナトレード,0
795,3180001152497,新規,0,2022-08-04,2022-08-04,株式会社ＮＥＸＴスマイル,,株式会社,愛知県,名古屋市千種区,楠元町１丁目４３番地の１,,23,101,4640037,,,,,,,2022-08-04,1,,,,,ネクストスマイル,0
801,3180003024109,新規,0,2022-08-04,2022-08-04,和牛マニア合同会社,,合同会社,愛知県,春日井市,押沢台７丁目９番地１４,,23,206,4870005,,,,,,,2022-08-04,1,,,,,ワギュウマニア,0
807,3190003004051,新規,0,2022-08-04,2022-08-04,Ｐｉｖｏｔ合同会社,,合同会社,三重県,伊勢市,桜木町１１５番地２１,,24,203,5160027,,,,,,,2022-08-04,1,,,,,ピボット,0
814,3210005010045,新規,0,2022-08-04,2022-08-04,多田社会保険労務士法人,,その他の設立登記法人,福井県,福井市,高木中央１丁目２１０９番地フォーラムハウスＣ,,18,201,9100804,,,,,,,2022-08-04,1,,,,,タダ,0
826,3240001060181,新規,0,2022-08-04,2022-08-04,株式会社ガレージ・５５５,,株式会社,広島県,三次市,四拾貫町９４６番地１,,34,209,7280016,,,,,,,2022-08-04,1,,,,,ガレージゴーゴーゴー,0
829,3260001037104,新規,0,2022-08-04,2022-08-04,株式会社新見まちづくりカンパニー,,株式会社,岡山県,新見市,井倉５５０番地１,,33,210,7192551,,,,,,,2022-08-04,1,,,,,ニイミマチヅクリカンパニー,0
830,3260001037112,新規,0,2022-08-04,2022-08-04,株式会社愛繕工業,,株式会社,岡山県,倉敷市,藤戸町天城９９番地,,33,202,7100132,,,,,,,2022-08-04,1,,,,,アイゼンコウギョウ,0
845,3290001098457,新規,0,2022-08-04,2022-08-04,Ｗ・Ｆ・Ｃ株式会社,,株式会社,福岡県,嘉麻市,牛隈１３６２番地１,,40,227,8200301,,,,,,,2022-08-04,1,,,,,ダブルエフシー,0
846,3290001098473,新規,0,2022-08-04,2022-08-04,小室システム株式会社,,株式会社,福岡県,福岡市博多区,博多駅南３丁目５番１８号,,40,132,8120016,,,,,,,2022-08-04,1,,,,,コムロシステム,0
850,3290003012812,新規,0,2022-08-04,2022-08-04,合同会社マウンテン,,合同会社,福岡県,福岡市南区,鶴田４丁目１番１０－１０１１号ロワールマンションやよい坂,,40,134,8111352,,,,,,,2022-08-04,1,,,,,マウンテン,0
864,3330003009473,新規,0,2022-08-04,2022-08-04,合同会社ノアーズ,,合同会社,熊本県,熊本市東区,長嶺南５丁目３番１５３号,,43,102,8618039,,,,,,,2022-08-04,1,,,,,ノアーズ,0
867,3360002007970,新規,0,2022-08-04,2022-08-04,有限会社タカラホーム,,有限会社,沖縄県,豊見城市,字渡橋名１５９番地,,47,212,9010222,,,,,,,2022-08-04,1,,,,,,0
868,3360003012210,新規,0,2022-08-04,2022-08-04,合同会社藤ｇｒｏｗ　ｕｐ,,合同会社,沖縄県,沖縄市,池原２丁目７番１５号,,47,211,9042141,,,,,,,2022-08-04,1,,,,,フジグローアップ,0
872,3370001048882,新規,0,2022-08-04,2022-08-04,株式会社エクサ,,株式会社,宮城県,仙台市青葉区,二日町１６番２－４０２号,,04,101,9800802,,,,,,,2022-08-04,1,,,,,エクサ,0
873,3370001048890,新規,0,2022-08-04,2022-08-04,株式会社福嶋組,,株式会社,宮城県,仙台市青葉区,高松１丁目１０番６０号,,04,101,9810907,,,,,,,2022-08-04,1,,,,,フクシマグミ,0
880,3380001033025,新規,0,2022-08-04,2022-08-04,株式会社てん,,株式会社,福島県,いわき市,平下神谷字宿７８番地,,07,204,9700101,,,,,,,2022-08-04,1,,,,,テン,0
882,3380003005253,新規,0,2022-08-04,2022-08-04,合同会社ミクラ,,合同会社,福島県,いわき市,平塩字宮前２０番地の２,,07,204,9708022,,,,,,,2022-08-04,1,,,,,ミクラ,0
888,3410001013246,新規,0,2022-08-04,2022-08-04,株式会社大和輪業商会,,株式会社,秋田県,湯沢市,横堀字小田中９番地５,,05,207,0190204,,,,,,,2022-08-04,1,,,,,ヤマトリンギョウショウカイ,0
893,3430001087189,新規,0,2022-08-04,2022-08-04,株式会社デザインワークス,,株式会社,北海道,札幌市清田区,平岡八条１丁目７番３２号,,01,110,0040878,,,,,,,2022-08-04,1,,,,,デザインワークス,0
899,3470001019196,新規,0,2022-08-04,2022-08-04,株式会社阿部住建,,株式会社,香川県,高松市,牟礼町大町１０８６番地２,,37,201,7610122,,,,,,,2022-08-04,1,,,,,アベジュウケン,0
901,3470003002225,新規,0,2022-08-04,2022-08-04,合同会社ＵＦＯ,,合同会社,香川県,綾歌郡宇多津町,浜八番丁１３３番地５,,37,386,7690208,,,,,,,2022-08-04,1,,,,,ユーエフオー,0
907,3500001024374,新規,0,2022-08-04,2022-08-04,株式会社ＲＩＤＧＥ,,株式会社,愛媛県,東温市,南方２５４番地３,,38,215,7910301,,,,,,,2022-08-04,1,,,,,リッジ,0
909,3700150111003,新規,0,2022-08-04,2022-08-04,ＳＵＢＲＩ　ＭＵＴＨＴＨＵ　ＲＩＣＥ　ＭＩＬＬ,,外国会社等,千葉県,八街市,東吉田７２５番地オフィス３号,,12,230,2891114,スリランカ民主社会主義共和国、マワディパッリイースト、イスマイルレーン,,,,,,2022-08-04,1,,,,,スブリムストウライスミル,0
919,4010001228478,新規,0,2022-08-04,2022-08-04,株式会社アクアヴェール,,株式会社,東京都,千代田区,富士見１丁目３番１１号富士見デュープレックスＢ‘ｓ４Ｆ,,13,101,1020071,,,,,,,2022-08-04,1,,,,,アクアヴェール,0
920,4010001228528,新規,0,2022-08-04,2022-08-04,株式会社水上会計プラスサポート,,株式会社,東京都,中央区,日本橋茅場町３丁目３番１０号,,13,102,1030025,,,,,,,2022-08-04,1,,,,,ミズカミカイケイプラスサポート,0
921,4010001228536,新規,0,2022-08-04,2022-08-04,株式会社ＦＡＢＳＰＡＣＥ　ＪＡＰＡＮ,,株式会社,東京都,中央区,八丁堀１丁目９番６号吉半八重洲通りビル７階,,13,102,1040032,,,,,,,2022-08-04,1,,,,,ファブスペースジャパン,0
922,4010001228552,新規,0,2022-08-04,2022-08-04,株式会社ライフェンリッチ,,株式会社,東京都,千代田区,丸の内１丁目１１番１号,,13,101,1000005,,,,,,,2022-08-04,1,,,,,ライフェンリッチ,0
923,4010001228560,新規,0,2022-08-04,2022-08-04,株式会社ニククッパ,,株式会社,東京都,中央区,銀座２丁目１０番８号マニエラ銀座ビル４階,,13,102,1040061,,,,,,,2022-08-04,1,,,,,ニククッパ,0
924,4010001228593,新規,0,2022-08-04,2022-08-04,株式会社Ｍｉｘｅｄ　Ｎｕｔｓ,,株式会社,東京都,中央区,銀座１丁目１２－４Ｎ＆ＥＢＬＤ．７階,,13,102,1040061,,,,,,,2022-08-04,1,,,,,ミックスナッツ,0
928,4010003038314,新規,0,2022-08-04,2022-08-04,Ｇｏｌｉａｔｈ合同会社,,合同会社,東京都,中央区,京橋２丁目８番２１号仁大ビル天翔オフィス京橋７４０号室,,13,102,1040031,,,,,,,2022-08-04,1,,,,,ゴリアテ,0
929,4010005035342,新規,0,2022-08-04,2022-08-04,行政書士法人ＷＩＳＥ　ＰＡＲＴＮＥＲ,,その他の設立登記法人,東京都,千代田区,九段南４丁目７番２２号メゾン・ド・シャルー３０５,,13,101,1020074,,,,,,,2022-08-04,1,,,,,ワイズパートナー,0
937,4010501049184,新規,0,2022-08-04,2022-08-04,株式会社ＭＪ,,株式会社,東京都,台東区,上野５丁目１８番７号,,13,106,1100005,,,,,,,2022-08-04,1,,,,,エムジェイ,0
938,4010501049192,新規,0,2022-08-04,2022-08-04,株式会社フロイデ,,株式会社,東京都,台東区,下谷１丁目１１番１５号ソレイユ入谷４階,,13,106,1100004,,,,,,,2022-08-04,1,,,,,フロイデ,0
951,4010801033177,新規,0,2022-08-04,2022-08-04,株式会社ＦｕｌｌＤｉｖｅ,,株式会社,東京都,大田区,上池台１丁目４８番１６号,,13,111,1450064,,,,,,,2022-08-04,1,,,,,フルダイブ,0
953,4010901051343,新規,0,2022-08-04,2022-08-04,株式会社ＭｏｖｅＮｏｗ,,株式会社,東京都,世田谷区,北沢２丁目２２番９号,,13,112,1550031,,,,,,,2022-08-04,1,,,,,ムーブナウ,0
956,4010903007566,新規,0,2022-08-04,2022-08-04,合同会社アリビオ,,合同会社,東京都,世田谷区,奥沢２丁目４８―１８,,13,112,1580083,,,,,,,2022-08-04,1,,,,,アリビオ,0
963,4011001149029,新規,0,2022-08-04,2022-08-04,株式会社プレイワーク,,株式会社,東京都,渋谷区,恵比寿西１丁目３３番６号ＪＰｎｏｉｅ恵比寿西１Ｆ,,13,113,1500021,,,,,,,2022-08-04,1,,,,,プレイワーク,0
964,4011003015154,新規,0,2022-08-04,2022-08-04,合同会社ＴＡＫＥＣＡＲＥ,,合同会社,東京都,渋谷区,恵比寿西１丁目２番１号７０７号室,,13,113,1500021,,,,,,,2022-08-04,1,,,,,テイクケア,0
965,4011005009666,新規,0,2022-08-04,2022-08-04,一般社団法人紘武杖道会,,その他の設立登記法人,東京都,渋谷区,代々木１丁目５４番１１号パルナス代々木５０１,,13,113,1510053,,,,,,,2022-08-04,1,,,,,コウブジョウドウカイ,0
977,4011103012043,新規,0,2022-08-04,2022-08-04,ＳＫＹ　ＬＩＮＫ合同会社,,合同会社,東京都,新宿区,新宿２丁目１２番１３号新宿アントレサロンビル２階,,13,104,1600022,,,,,,,2022-08-04,1,,,,,スカイリンク,0
981,4011301027999,新規,0,2022-08-04,2022-08-04,株式会社アトリエブルーボトル,,株式会社,東京都,杉並区,善福寺１丁目６番１１号,,13,115,1670041,,,,,,,2022-08-04,1,,,,,アトリエブルーボトル,0
986,4011701025512,新規,0,2022-08-04,2022-08-04,株式会社ケア・プアメリア,,株式会社,東京都,江戸川区,東小岩４丁目１２番７号,,13,123,1330052,,,,,,,2022-08-04,1,,,,,ケアプアメリア,0
996,4012401039488,新規,0,2022-08-04,2022-08-04,株式会社ＧＩＶＥ　ＹＯＵ　ＩＮＦＩＮＩＴＹ,,株式会社,東京都,調布市,布田２丁目４３番地２レガーレ調布エスト１Ａ,,13,208,1820024,,,,,,,2022-08-04,1,,,,,ギブユーインフィニティ,0
997,4012701017185,新規,0,2022-08-04,2022-08-04,株式会社武蔵,,株式会社,東京都,小平市,小川町１丁目２４７５番地の４,,13,211,1870032,,,,,,,2022-08-04,1,,,,,ムサシ,0
1001,4013303006254,新規,0,2022-08-04,2022-08-04,合同会社ツジデジタル,,合同会社,東京都,豊島区,高田３丁目４０－３,,13,116,1710033,,,,,,,2022-08-04,1,,,,,ツジデジタル,0
1011,4020001147446,新規,0,2022-08-04,2022-08-04,株式会社Ｂｉｓｔｒｏ,,株式会社,神奈川県,横浜市港北区,綱島西４丁目３－１９,,14,109,2230053,,,,,,,2022-08-04,1,,,,,ビストロ,0
1012,4020001147578,新規,0,2022-08-04,2022-08-04,清水エステート株式会社,,株式会社,神奈川県,川崎市川崎区,伊勢町４番９号,,14,131,2100805,,,,,,,2022-08-04,1,,,,,シミズエステート,0
1013,4020001147603,新規,0,2022-08-04,2022-08-04,株式会社ユアエイド,,株式会社,神奈川県,川崎市麻生区,千代ケ丘６丁目１３番地１０,,14,137,2150005,,,,,,,2022-08-04,1,,,,,ユアエイド,0
1014,4020001147652,新規,0,2022-08-04,2022-08-04,株式会社ビアンサ,,株式会社,神奈川県,横浜市中区,本牧町１丁目２８２番地,,14,104,2310806,,,,,,,2022-08-04,1,,,,,ビアンサ,0
1022,4021001076668,新規,0,2022-08-04,2022-08-04,株式会社Ｋ‐スタイル,,株式会社,神奈川県,座間市,相武台１丁目４１番５号,,14,216,2520011,,,,,,,2022-08-04,1,,,,,ケースタイル,0
1023,4021001076684,新規,0,2022-08-04,2022-08-04,株式会社湘南マシンテクノ,,株式会社,神奈川県,藤沢市,葛原２３１４番地,,14,205,2520822,,,,,,,2022-08-04,1,,,,,ショウナンマシンテクノ,0
1024,4021001076692,新規,0,2022-08-04,2022-08-04,株式会社Ｔ＆Ｔ,,株式会社,神奈川県,大和市,西鶴間２丁目６番１６号,,14,213,2420005,,,,,,,2022-08-04,1,,,,,ティアンドティ,0
1025,4021001076701,新規,0,2022-08-04,2022-08-04,株式会社ブイスリー,,株式会社,神奈川県,茅ヶ崎市,甘沼２００番地１－２２１号グランドヒル,,14,207,2530004,,,,,,,2022-08-04,1,,,,,ブイスリー,0
1039,4030003019907,新規,0,2022-08-04,2022-08-04,合同会社壬寅,,合同会社,埼玉県,さいたま市大宮区,桜木町２丁目３番地大宮マルイ７階,,11,103,3300854,,,,,,,2022-08-04,1,,,,,ジントラ,0
1040,4030003019915,新規,0,2022-08-04,2022-08-04,合同会社まっつん,,合同会社,埼玉県,川口市,柳崎１丁目４番８号,,11,203,3330861,,,,,,,2022-08-04,1,,,,,マッツン,0
1041,4030005020953,新規,0,2022-08-04,2022-08-04,特定非営利活動法人つきぐるみ,,その他の設立登記法人,埼玉県,さいたま市岩槻区,大字柏崎１２２１番地５,,11,110,3390045,,,,,,,2022-08-04,1,,,,,ツキグルミ,0
1046,4050001051488,新規,0,2022-08-04,2022-08-04,常陽産業株式会社,,株式会社,茨城県,鹿嶋市,大字泉川１５６８番地,,08,222,3140015,,,,,,,2022-08-04,1,,,,,ジョウヨウサンギョウ,0
1050,4080001025118,新規,0,2022-08-04,2022-08-04,株式会社シミズトライムホールディングス,,株式会社,静岡県,静岡市清水区,長崎新田４２８番地の１,,22,103,4240064,,,,,,,2022-08-04,1,,,,,シミズトライムホールディングス,0
1052,4080403004594,新規,0,2022-08-04,2022-08-04,合同会社ＮＳサービス,,合同会社,静岡県,浜松市東区,有玉西町８２８番地の１,,22,132,4313123,,,,,,,2022-08-04,1,,,,,エヌエスサービス,0
1053,4090001017717,新規,0,2022-08-04,2022-08-04,季もち株式会社,,株式会社,山梨県,笛吹市,石和町東高橋１０９番地１,,19,211,4060041,,,,,,,2022-08-04,1,,,,,キモチ,0
1058,4110001036862,新規,0,2022-08-04,2022-08-04,大澤総業株式会社,,株式会社,新潟県,新潟市東区,猿ケ馬場２丁目４６３番地７,,15,102,9500835,,,,,,,2022-08-04,1,,,,,オオサワソウギョウ,0
1059,4110001036870,新規,0,2022-08-04,2022-08-04,株式会社アバッリ,,株式会社,新潟県,村上市,碁石４０番地,,15,212,9593941,,,,,,,2022-08-04,1,,,,,アバッリ,0
1062,4110003004834,新規,0,2022-08-04,2022-08-04,合同会社ひいらぎ杢工,,合同会社,新潟県,上越市,三和区神田１２３６番地,,15,222,9420265,,,,,,,2022-08-04,1,,,,,ヒイラギモッコウ,0
1070,4120001247780,新規,0,2022-08-04,2022-08-04,安善株式会社,,株式会社,大阪府,大阪市都島区,東野田町４丁目５－２翠連マンション５０３号室,,27,102,5340024,,,,,,,2022-08-04,1,,,,,アンゼン,0
1071,4120001247822,新規,0,2022-08-04,2022-08-04,株式会社縁Ｊｏｙ,,株式会社,大阪府,大阪市西区,北堀江１丁目９番４号三洋北堀江ビル７０１号室,,27,106,5500014,,,,,,,2022-08-04,1,,,,,エンジョイ,0
1072,4120001247905,新規,0,2022-08-04,2022-08-04,株式会社Ｆ．ｃｈｉｎｏｉｓ,,株式会社,大阪府,大阪市北区,堂島１丁目５番５号,,27,127,5300003,,,,,,,2022-08-04,1,,,,,エフシノワ,0
1073,4120001247913,新規,0,2022-08-04,2022-08-04,株式会社Ｒｅ　ｖｉｓｉｏｎｅ,,株式会社,大阪府,大阪市中央区,南船場２丁目１１番１２号アオヤマビル８Ｆ－Ｂ,,27,128,5420081,,,,,,,2022-08-04,1,,,,,リヴィジョン,0
1074,4120001247987,新規,0,2022-08-04,2022-08-04,株式会社Ｎ・Ｔサービス,,株式会社,大阪府,寝屋川市,成美町５番１７号,,27,215,5720046,,,,,,,2022-08-04,1,,,,,エヌティサービス,0
1080,4120003022208,新規,0,2022-08-04,2022-08-04,合同会社ハナミズキ,,合同会社,大阪府,枚方市,長尾元町３丁目３３番１２号,,27,210,5730163,,,,,,,2022-08-04,1,,,,,ハナミズキ,0
1081,4120003022216,新規,0,2022-08-04,2022-08-04,合同会社ヒーローズ,,合同会社,大阪府,大阪市中央区,瓦町３丁目４－１０日宝御堂ビル６０８,,27,128,5410048,,,,,,,2022-08-04,1,,,,,ヒーローズ,0
1085,4120101066024,新規,0,2022-08-04,2022-08-04,株式会社虎雅,,株式会社,大阪府,堺市西区,菱木４丁１８７８番地１,,27,144,5938315,,,,,,,2022-08-04,1,,,,,,0
1089,4120901046332,新規,0,2022-08-04,2022-08-04,Ｔ．ｂｒｉｄｇｅ株式会社,,株式会社,大阪府,茨木市,島４丁目１１番３０号,,27,211,5670854,,,,,,,2022-08-04,1,,,,,ティードットブリッジ,0
1094,4130001072377,新規,0,2022-08-04,2022-08-04,ティーファミリー株式会社,,株式会社,京都府,京都市右京区,嵯峨北堀町２０－１０２アドニス嵯峨２０１号,,26,108,6168367,,,,,,,2022-08-04,1,,,,,ティーファミリー,0
1098,4130003008107,新規,0,2022-08-04,2022-08-04,合同会社真花久,,合同会社,京都府,京都市伏見区,深草大亀谷万帖敷町８４０番地,,26,109,6120846,,,,,,,2022-08-04,1,,,,,マカク,0
1105,4140001126958,新規,0,2022-08-04,2022-08-04,株式会社昴興産,,株式会社,兵庫県,加古郡稲美町,国岡８２１番地の１,,28,381,6751115,,,,,,,2022-08-04,1,,,,,スバルコウサン,0
1106,4140001126999,新規,0,2022-08-04,2022-08-04,株式会社ＣＦＡ,,株式会社,兵庫県,神戸市中央区,浜辺通４丁目１番２３号三宮ベンチャービル,,28,110,6510083,,,,,,,2022-08-04,1,,,,,シーファ,0
1107,4140001127015,新規,0,2022-08-04,2022-08-04,株式会社かいはつ,,株式会社,兵庫県,姫路市,花田町勅旨１９８番地,,28,201,6710254,,,,,,,2022-08-04,1,,,,,カイハツ,0
1109,4150001025738,新規,0,2022-08-04,2022-08-04,株式会社湯川工業,,株式会社,奈良県,桜井市,大字吉備４７２番地の２２,,29,206,6330065,,,,,,,2022-08-04,1,,,,,ユカワコウギョウ,0
1110,4150003002743,新規,0,2022-08-04,2022-08-04,合同会社前川電気設備,,合同会社,奈良県,生駒郡斑鳩町,神南５丁目１番１５号,,29,344,6360143,,,,,,,2022-08-04,1,,,,,マエガワデンキセツビ,0
1114,4160001024425,新規,0,2022-08-04,2022-08-04,株式会社Ｍｉｙａｍｏｔｏ　Ｇｒｏｕｐ,,株式会社,滋賀県,大津市,日吉台２丁目１９番１２号,,25,201,5200112,,,,,,,2022-08-04,1,,,,,ミヤモトグループ,0
1129,4180001152471,新規,0,2022-08-04,2022-08-04,株式会社Ｒ‐ＯＮＥ,,株式会社,愛知県,名古屋市緑区,有松１０６０番地富田ビル２０６,,23,114,4580924,,,,,,,2022-08-04,1,,,,,アールワン,0
1133,4180003024108,新規,0,2022-08-04,2022-08-04,合同会社ＧＯＭＡ,,合同会社,愛知県,名古屋市名東区,文京台二丁目１０４番地第２柴田ビル１階,,23,115,4650000,,,,,,,2022-08-04,1,,,,,ゴマ,0
1146,4190003004050,新規,0,2022-08-04,2022-08-04,合同会社壱祥,,合同会社,三重県,鈴鹿市,林崎１丁目１４番７号,,24,207,5130058,,,,,,,2022-08-04,1,,,,,イッショウ,0
1152,4220003003338,新規,0,2022-08-04,2022-08-04,リベカ合同会社,,合同会社,石川県,金沢市,泉野町６丁目２番２号,,17,201,9218034,,,,,,,2022-08-04,1,,,,,リベカ,0
1153,4230001019475,新規,0,2022-08-04,2022-08-04,株式会社ＭＯＳＴ,,株式会社,富山県,下新川郡入善町,青木２０２１番地,,16,342,9390643,,,,,,,2022-08-04,1,,,,,モスト,0
1154,4240001060180,新規,0,2022-08-04,2022-08-04,株式会社トップフロアグループ,,株式会社,広島県,広島市中区,東白島町２１番５－３０２号,,34,101,7300004,,,,,,,2022-08-04,1,,,,,トップフロアグループ,0
1156,4250001019688,新規,0,2022-08-04,2022-08-04,株式会社Ｂｅｔｏｙａｍａ,,株式会社,山口県,下関市,秋根本町１丁目７－５第一坂野ビル１０２,,35,201,7510875,,,,,,,2022-08-04,1,,,,,ベトヤマ,0
1157,4260001037111,新規,0,2022-08-04,2022-08-04,エフシーワークス株式会社,,株式会社,岡山県,津山市,小田中１３１４－７,,33,203,7080006,,,,,,,2022-08-04,1,,,,,エフシーワークス,0
1163,4280001008754,新規,0,2022-08-04,2022-08-04,株式会社ベストオート,,株式会社,島根県,出雲市,平田町２４７１番地１,,32,203,6910001,,,,,,,2022-08-04,1,,,,,ベストオート,0
1169,4290001098431,新規,0,2022-08-04,2022-08-04,ｇＭＫホールディングス株式会社,,株式会社,福岡県,福岡市東区,松香台１丁目８番３９号,,40,131,8130004,,,,,,,2022-08-04,1,,,,,ジーエムケーホールディングス,0
1170,4290001098464,新規,0,2022-08-04,2022-08-04,株式会社伊三郎製ぱん,,株式会社,福岡県,久留米市,長門石３丁目１番１８号,,40,203,8300027,,,,,,,2022-08-04,1,,,,,イサブロウセイパン,0
1179,4310001017974,新規,0,2022-08-04,2022-08-04,株式会社Ｍａｋｅ　Ｙｏｕｒ　Ｄａｙ,,株式会社,長崎県,長崎市,伊勢町２番３０－４０２号,,42,201,8500018,,,,,,,2022-08-04,1,,,,,メイクユアデイ,0
1180,4310001017982,新規,0,2022-08-04,2022-08-04,株式会社悠,,株式会社,長崎県,長崎市,毛井首町３４５番地,,42,201,8500976,,,,,,,2022-08-04,1,,,,,ユウ,0
1182,4310003004418,新規,0,2022-08-04,2022-08-04,合同会社ＰａｔｔｅｒｎＢａｓｅｄ,,合同会社,長崎県,長崎市,宿町７０１番地５,,42,201,8510121,,,,,,,2022-08-04,1,,,,,パターンベースド,0
1184,4320003003872,新規,0,2022-08-04,2022-08-04,ＮＯＧＡＭＩ合同会社,,合同会社,大分県,大分市,国分新町３６－１,,44,201,8700869,,,,,,,2022-08-04,1,,,,,ノガミ,0
1191,4340001024943,新規,0,2022-08-04,2022-08-04,ガードライン株式会社,,株式会社,鹿児島県,鹿屋市,名貫町３５４３番地５,,46,203,8930034,,,,,,,2022-08-04,1,,,,,ガードライン,0
1202,4360001030774,新規,0,2022-08-04,2022-08-04,スマイルファシリティマネジメント株式会社,,株式会社,沖縄県,国頭郡宜野座村,字漢那２０２７番地１,,47,313,9041304,,,,,,,2022-08-04,1,,,,,スマイルファシリティマネジメント,0
1203,4360001030782,新規,0,2022-08-04,2022-08-04,ＳＣＫ株式会社,,株式会社,沖縄県,宜野湾市,嘉数４丁目１４番７号,,47,205,9012226,,,,,,,2022-08-04,1,,,,,エスシーケイ,0
1204,4360005006696,新規,0,2022-08-04,2022-08-04,一般社団法人世界琉球協会,,その他の設立登記法人,沖縄県,宜野湾市,我如古３丁目７番１３－５０３号我如古アパート,,47,205,9012214,,,,,,,2022-08-04,1,,,,,セカイリュウキュウキョウカイ,0
1211,4370001048898,新規,0,2022-08-04,2022-08-04,メタル急便株式会社,,株式会社,宮城県,仙台市青葉区,中山５丁目１５番１０－１０５号,,04,101,9810952,,,,,,,2022-08-04,1,,,,,メタルキュウビン,0
1226,4420003002559,新規,0,2022-08-04,2022-08-04,合同会社浜家商事,,合同会社,青森県,上北郡東北町,上北南１丁目２２番地９４,,02,408,0392405,,,,,,,2022-08-04,1,,,,,ハマヤショウジ,0
1239,4500001024373,新規,0,2022-08-04,2022-08-04,株式会社ＡＬＢ,,株式会社,愛媛県,新居浜市,岸の上町２丁目６番３５号,,38,205,7920815,,,,,,,2022-08-04,1,,,,,エーエルビー,0
1243,4700150111002,新規,0,2022-08-04,2022-08-04,ＯＲＩＯＮ　ＭＯＴＯＲＳ,,外国会社等,千葉県,八街市,東吉田７２５番地オフィス２号,,12,230,2891114,スリランカ民主社会主義共和国、ポロンナルワ、ホスピタルジャンクション、タンバラロード、３,,,,,,2022-08-04,1,,,,,オリオンモータース,0
1244,4700150111010,新規,0,2022-08-04,2022-08-04,Ｏｋｉｎａｗａ　Ｅｎｔｅｒｐｒｉｓｅｓ,,外国会社等,千葉県,八街市,山田台４９４番地５－Ｂ,,12,230,2891124,スリランカ民主社会主義共和国、キャンディ、カトゥガストタ、ラナワナロード、ニュータウン、３７,,,,,,2022-08-04,1,,,,,オキナワエンタープライズ,0
1245,4700150111035,新規,0,2022-08-04,2022-08-04,ＡＡＤＨＡＭ　ＭＯＴＯＲ　ＴＲＡＤＩＮＧ　ＰＶＴ　ＬＴＤ,,外国会社等,千葉県,大網白里市,清水字芝９５８－１０－６,,12,239,2993212,スリランカ民主社会主義共和国、ダーガータウン、メインストリート、リバーサイド、Ｎｏ．４５Ａ,,,,,,2022-08-04,1,,,,,アーダムモータートレーデイングプライベートリミテツド,0
1246,4700150111043,新規,0,2022-08-04,2022-08-04,ＳＨＡＮ　ＡＵＴＯ,,外国会社等,千葉県,山武市,和田１１６２番地１ハイツグリーンウッド１０１－１,,12,237,2891334,スリランカ民主社会主義共和国、バドゥッラ、マヒヤンガナロ－ド、１３６Ｃ,,,,,,2022-08-04,1,,,,,シヤンオート,0
1256,5010001228519,新規,0,2022-08-04,2022-08-04,ベネコン株式会社,,株式会社,東京都,千代田区,丸の内２丁目３－２郵船ビルディング１Ｆ,,13,101,1000005,,,,,,,2022-08-04,1,,,,,ベネコン,0
1257,5010001228527,新規,0,2022-08-04,2022-08-04,バーテックス・インベストメント・ソリューションズ株式会社,,株式会社,東京都,千代田区,有楽町１丁目１３番１号,,13,101,1000006,,,,,,,2022-08-04,1,,,,,バーテックスインベストメントソリューションズ,0
1258,5010001228551,新規,0,2022-08-04,2022-08-04,株式会社Ｒｙｏ,,株式会社,東京都,千代田区,東神田１丁目１４番１７－１３０３号,,13,101,1010031,,,,,,,2022-08-04,1,,,,,リョウ,0
1259,5010103001963,新規,0,2022-08-04,2022-08-04,マッチ合同会社,,合同会社,東京都,八王子市,別所２丁目１３コリナス長池４－４０２,,13,201,1920363,,,,,,,2022-08-04,1,,,,,マッチ,0
1267,5010501049191,新規,0,2022-08-04,2022-08-04,株式会社ＨＩＲＯＭＯＴＯ,,株式会社,東京都,台東区,橋場１丁目３０番４号,,13,106,1110023,,,,,,,2022-08-04,1,,,,,ヒロモト,0
1271,5010701043036,新規,0,2022-08-04,2022-08-04,株式会社日本農業土木,,株式会社,東京都,品川区,西五反田１丁目１３番７号マルキビル１０１号室,,13,109,1410031,,,,,,,2022-08-04,1,,,,,ニホンノウギョウドボク,0
1274,5010903007557,新規,0,2022-08-04,2022-08-04,合同会社Ｐｒｏｄｕｃｅ　ａｎｙ　Ｃｏｌｏｕｒ　ＴａＩＺ,,合同会社,東京都,世田谷区,喜多見４丁目７番４３号,,13,112,1570067,,,,,,,2022-08-04,1,,,,,プロデュースエニーカラータイズ,0
1277,5011001148839,新規,0,2022-08-04,2022-08-04,株式会社ｅｋｅｉ　ｌａｂｓ,,株式会社,東京都,渋谷区,神南１丁目１１番３号ＰＯＲＴＡＬＰＯＩＮＴＳＨＩＢＵＹＡ,,13,113,1500041,,,,,,,2022-08-04,1,,,,,エケイラブス,0
1278,5011001148888,新規,0,2022-08-04,2022-08-04,株式会社ＡＢＯＤＥ　ＯＦ　ＳＮＯＷ,,株式会社,東京都,渋谷区,神南１丁目１５番３号神南プラザ６０３,,13,113,1500041,,,,,,,2022-08-04,1,,,,,,0
1279,5011001149036,新規,0,2022-08-04,2022-08-04,ＣＤＣ信用保証株式会社,,株式会社,東京都,渋谷区,恵比寿南２丁目１番８号,,13,113,1500022,,,,,,,2022-08-04,1,,,,,シーディーシーシンヨウホショウ,0
1280,5011003015153,新規,0,2022-08-04,2022-08-04,合同会社マーキット,,合同会社,東京都,渋谷区,道玄坂１丁目１０番８号渋谷道玄坂東急ビル２Ｆ－Ｃ,,13,113,1500043,,,,,,,2022-08-04,1,,,,,マーキット,0
1281,5011003015161,新規,0,2022-08-04,2022-08-04,合同会社ティーボーン,,合同会社,東京都,渋谷区,神宮前６丁目２３番４号桑野ビル２階,,13,113,1500001,,,,,,,2022-08-04,1,,,,,ティーボーン,0
1282,5011005009673,新規,0,2022-08-04,2022-08-04,一般社団法人渋谷の遊び場を考える会,,その他の設立登記法人,東京都,渋谷区,恵比寿２丁目３２番２１号,,13,113,1500013,,,,,,,2022-08-04,1,,,,,,0
1290,5011101099734,新規,0,2022-08-04,2022-08-04,クラコ株式会社,,株式会社,東京都,新宿区,西新宿３丁目３番１３号西新宿水間ビル６階,,13,104,1600023,,,,,,,2022-08-04,1,,,,,クラコ,0
1291,5011101099750,新規,0,2022-08-04,2022-08-04,株式会社リバビレ,,株式会社,東京都,新宿区,西新宿３丁目２番９号ワシントンホテルビル本館２階,,13,104,1600023,,,,,,,2022-08-04,1,,,,,リバビレ,0
1294,5011103012034,新規,0,2022-08-04,2022-08-04,合同会社Ｒａｍｕｎｅ　Ｐｉｃ,,合同会社,東京都,新宿区,西新宿３丁目３番１３号西新宿水間ビル２Ｆ,,13,104,1600023,,,,,,,2022-08-04,1,,,,,ラムネピック,0
1295,5011103012042,新規,0,2022-08-04,2022-08-04,合同会社ＢＥＡＮＥＬ,,合同会社,東京都,新宿区,大京町３番地５パーシモン四谷１０１,,13,104,1600015,,,,,,,2022-08-04,1,,,,,ビーネル,0
1296,5011201024014,新規,0,2022-08-04,2022-08-04,株式会社小春,,株式会社,東京都,中野区,野方１丁目５番３号ヴァンクレール大木１０２,,13,114,1650027,,,,,,,2022-08-04,1,,,,,コハル,0
1297,5011203003890,新規,0,2022-08-04,2022-08-04,海天合同会社,,合同会社,東京都,中野区,本町４丁目４５番９号,,13,114,1640012,,,,,,,2022-08-04,1,,,,,カイテン,0
1304,5012401039495,新規,0,2022-08-04,2022-08-04,株式会社アーバンプロパティマネージメントクルー,,株式会社,東京都,狛江市,元和泉１丁目１番２号エコルマ２‐２０１号,,13,219,2010013,,,,,,,2022-08-04,1,,,,,アーバンプロパティマネージメントクルー,0
1305,5012401039504,新規,0,2022-08-04,2022-08-04,株式会社Ｔ＆Ｍ．Ｉｎｖｅｓｔｍｅｎｔ,,株式会社,東京都,武蔵野市,桜堤２丁目１３番１－８１９号,,13,203,1800021,,,,,,,2022-08-04,1,,,,,ティーアンドエムインベストメント,0
1307,5012701017184,新規,0,2022-08-04,2022-08-04,株式会社Ｃ＆Ｃパートナーズ,,株式会社,東京都,西東京市,住吉町４丁目１７番１３号,,13,229,2020005,,,,,,,2022-08-04,1,,,,,シーアンドシーパートナーズ,0
1308,5012703002507,新規,0,2022-08-04,2022-08-04,合同会社プライムタイムファクトリー,,合同会社,東京都,東村山市,萩山町４丁目７番地１５,,13,213,1890012,,,,,,,2022-08-04,1,,,,,プライムタイムファクトリー,0
1314,5013301049469,新規,0,2022-08-04,2022-08-04,ＰＨＡＭ　ＱＵＹＮＨ関東株式会社,,株式会社,東京都,豊島区,巣鴨３丁目１３番６号,,13,116,1700002,,,,,,,2022-08-04,1,,,,,ファムクインカントウ,0
1327,5020001147577,新規,0,2022-08-04,2022-08-04,株式会社ネクストＫ,,株式会社,神奈川県,横浜市戸塚区,小雀町１９５番地２,,14,110,2440004,,,,,,,2022-08-04,1,,,,,ネクストケイ,0
1328,5020001147651,新規,0,2022-08-04,2022-08-04,株式会社鈴音,,株式会社,神奈川県,横浜市旭区,上川井町３２２２番地,,14,112,2410802,,,,,,,2022-08-04,1,,,,,リンネ,0
1331,5020003022200,新規,0,2022-08-04,2022-08-04,ＨＡＳコンサルティングエステート合同会社,,合同会社,神奈川県,川崎市宮前区,宮前平２丁目５番地２３ルピアコート宮前平５０１,,14,136,2160006,,,,,,,2022-08-04,1,,,,,エッチエーエスコンサルティングエステート,0
1335,5021001076667,新規,0,2022-08-04,2022-08-04,株式会社ＰＬＯＯＦ,,株式会社,神奈川県,相模原市緑区,原宿３丁目７番７号ハイツセカンド１０１,,14,151,2520102,,,,,,,2022-08-04,1,,,,,プルーフ,0
1336,5021001076700,新規,0,2022-08-04,2022-08-04,株式会社トーテック,,株式会社,神奈川県,厚木市,寿町１丁目７番１４号,,14,212,2430003,,,,,,,2022-08-04,1,,,,,トーテック,0
1343,5021003011993,新規,0,2022-08-04,2022-08-04,合同会社ＳｏｌｏｍｏＮ,,合同会社,神奈川県,平塚市,紅谷町２－２４－４０５,,14,203,2540043,,,,,,,2022-08-04,1,,,,,ソロモン,0
1350,5030001149507,新規,0,2022-08-04,2022-08-04,株式会社Ｅｓｐｏｒｔ欅,,株式会社,埼玉県,鶴ヶ島市,大字五味ヶ谷８８番地２６,,11,241,3502202,,,,,,,2022-08-04,1,,,,,エスポートケヤキ,0
1352,5030003019889,新規,0,2022-08-04,2022-08-04,ＪＡＰＡＮＴＩＧＥＲＳ合同会社,,合同会社,埼玉県,東松山市,大字毛塚５７８－１,,11,212,3550064,,,,,,,2022-08-04,1,,,,,ジャパンタイガーズ,0
1354,5030005020952,新規,0,2022-08-04,2022-08-04,一般社団法人在日ベトナム人ゴルフ協会,,その他の設立登記法人,埼玉県,吉川市,中央１丁目４番地１,,11,243,3420061,,,,,,,2022-08-04,1,,,,,ザイニチベトナムジンゴルフキョウカイ,0
1355,5030005020960,新規,0,2022-08-04,2022-08-04,一般社団法人ファボラボ,,その他の設立登記法人,埼玉県,川越市,脇田本町２６番地１０川越クレセントビル２階,,11,201,3501123,,,,,,,2022-08-04,1,,,,,ファボラボ,0
1359,5040001124533,新規,0,2022-08-04,2022-08-04,株式会社セカンドライフ,,株式会社,千葉県,松戸市,稔台４丁目１９番地の５,,12,207,2702231,,,,,,,2022-08-04,1,,,,,セカンドライフ,0
1362,5040003020549,新規,0,2022-08-04,2022-08-04,オーディーエムスクエア合同会社,,合同会社,千葉県,千葉市緑区,平川町１８９４番地２,,12,105,2660004,,,,,,,2022-08-04,1,,,,,オーディーエムスクエア,0
1363,5040003020565,新規,0,2022-08-04,2022-08-04,合同会社ＭＩＲＡＩＯ一級建築士事務所,,合同会社,千葉県,市原市,ちはら台東６丁目１番地６０,,12,219,2900141,,,,,,,2022-08-04,1,,,,,ミライオイッキュウケンチクシジムショ,0
1366,5050001051487,新規,0,2022-08-04,2022-08-04,ＯＨ‐ＢＵＤＤＹ株式会社,,株式会社,茨城県,つくばみらい市,上平柳１１４３番地１,,08,235,3002335,,,,,,,2022-08-04,1,,,,,オーバディ,0
1367,5050001051504,新規,0,2022-08-04,2022-08-04,株式会社インテグラル,,株式会社,茨城県,常総市,相野谷町２６８番地,,08,211,3030002,,,,,,,2022-08-04,1,,,,,インテグラル,0
1369,5050003006745,新規,0,2022-08-04,2022-08-04,ＮＳエンジニアリング合同会社,,合同会社,茨城県,結城市,大字結城１２００４番地７,,08,207,3070001,,,,,,,2022-08-04,1,,,,,エヌエスエンジニアリング,0
1371,5070001039497,新規,0,2022-08-04,2022-08-04,ネオミーファーム株式会社,,株式会社,群馬県,伊勢崎市,下触町８６６番地１リベェルティＤ１０３,,10,204,3792214,,,,,,,2022-08-04,1,,,,,ネオミーファーム,0
1373,5080001025117,新規,0,2022-08-04,2022-08-04,株式会社ＧＥＥＫ’Ｓ　ＤＥＮ,,株式会社,静岡県,藤枝市,大東町５４０番地の２１,,22,214,4260044,,,,,,,2022-08-04,1,,,,,ギークスデン,0
1375,5080101023458,新規,0,2022-08-04,2022-08-04,株式会社エコキャリ,,株式会社,静岡県,富士宮市,大宮町１２番１０号,,22,207,4180066,,,,,,,2022-08-04,1,,,,,エコキャリ,0
1388,5110001036861,新規,0,2022-08-04,2022-08-04,株式会社松永板金工業,,株式会社,新潟県,三条市,嘉坪川１丁目１１番１８号,,15,204,9550056,,,,,,,2022-08-04,1,,,,,マツナガバンキンコウギョウ,0
1401,5120001247739,新規,0,2022-08-04,2022-08-04,川谷株式会社,,株式会社,大阪府,大阪市都島区,東野田町４丁目５－２翠連マンション４０５号室,,27,102,5340024,,,,,,,2022-08-04,1,,,,,センコク,0
1402,5120001247813,新規,0,2022-08-04,2022-08-04,株式会社ウールデザイン,,株式会社,大阪府,大阪市北区,曾根崎新地１丁目５－４,,27,127,5300002,,,,,,,2022-08-04,1,,,,,ウールデザイン,0
1403,5120001247895,新規,0,2022-08-04,2022-08-04,株式会社門間商事,,株式会社,大阪府,枚方市,交北３丁目１番１６－１０４号,,27,210,5731161,,,,,,,2022-08-04,1,,,,,モンマショウジ,0
1404,5120001247904,新規,0,2022-08-04,2022-08-04,株式会社福田建装,,株式会社,大阪府,大阪市東淀川区,下新庄３丁目１０番１３－２０４号,,27,114,5330021,,,,,,,2022-08-04,1,,,,,フクダケンソウ,0
1405,5120001247912,新規,0,2022-08-04,2022-08-04,Ｉｓｈ株式会社,,株式会社,大阪府,大阪市阿倍野区,北畠１丁目２２－１２－３０５,,27,119,5450035,,,,,,,2022-08-04,1,,,,,アイエスエイチ,0
1406,5120001247920,新規,0,2022-08-04,2022-08-04,株式会社縁,,株式会社,大阪府,大阪市天王寺区,東上町３番１７セレッソコート上本町ＥＡＳＴ５１０号,,27,109,5430026,,,,,,,2022-08-04,1,,,,,エン,0
1407,5120001247953,新規,0,2022-08-04,2022-08-04,ＵＳＡＮ株式会社,,株式会社,大阪府,大阪市西淀川区,歌島２丁目１０番５－１１０３号,,27,113,5550021,,,,,,,2022-08-04,1,,,,,ウサン,0
1408,5120001248002,新規,0,2022-08-04,2022-08-04,株式会社ターンフラット,,株式会社,大阪府,大阪市中央区,南久宝寺町２丁目１－２,,27,128,5410058,,,,,,,2022-08-04,1,,,,,ターンフラット,0
1410,5120003022215,新規,0,2022-08-04,2022-08-04,合同会社Ｌａｐｉｓ,,合同会社,大阪府,大阪市西成区,花園南１丁目１３番６号メゾンオーク１０３号,,27,122,5570015,,,,,,,2022-08-04,1,,,,,ラピス,0
1413,5120101065990,新規,0,2022-08-04,2022-08-04,株式会社ハマサキ商会,,株式会社,大阪府,堺市東区,北野田１０８４番地５０５号,,27,143,5998123,,,,,,,2022-08-04,1,,,,,ハマサキショウカイ,0
1416,5122003002394,新規,0,2022-08-04,2022-08-04,わんこ合同会社,,合同会社,大阪府,柏原市,旭ケ丘３丁目１番７８号サンハイツ旭ヶ丘１０１,,27,221,5820026,,,,,,,2022-08-04,1,,,,,ワンコ,0
1420,5130001072335,新規,0,2022-08-04,2022-08-04,家禾株式会社,,株式会社,京都府,京都市東山区,七条通大和大路西入西之門町５５８番,,26,105,6050947,,,,,,,2022-08-04,1,,,,,カワ,0
1421,5130001072384,新規,0,2022-08-04,2022-08-04,株式会社ビスタ,,株式会社,京都府,京都市北区,上賀茂本山２５８番地１０,,26,101,6038047,,,,,,,2022-08-04,1,,,,,ビスタ,0
1431,5140001126940,新規,0,2022-08-04,2022-08-04,リバーグループ株式会社,,株式会社,兵庫県,西宮市,南郷町５番１７号,,28,204,6620038,,,,,,,2022-08-04,1,,,,,リバーグループ,0
1432,5140001126998,新規,0,2022-08-04,2022-08-04,株式会社ライトリーフ,,株式会社,兵庫県,神戸市灘区,船寺通４丁目２番８号,,28,102,6570842,,,,,,,2022-08-04,1,,,,,ライトリーフ,0
1440,5160001024416,新規,0,2022-08-04,2022-08-04,葵株式会社,,株式会社,滋賀県,長浜市,小堀町１９７番地１７,,25,203,5260845,,,,,,,2022-08-04,1,,,,,アオイ,0
1446,5180001152396,新規,0,2022-08-04,2022-08-04,株式会社ＳＣＥＮＥ,,株式会社,愛知県,名古屋市中区,錦２丁目５番３２号,,23,106,4600003,,,,,,,2022-08-04,1,,,,,シーン,0
1447,5180001152446,新規,0,2022-08-04,2022-08-04,株式会社エスポワール,,株式会社,愛知県,名古屋市天白区,土原４丁目３６６番地の１,,23,116,4680026,,,,,,,2022-08-04,1,,,,,エスポワール,0
1448,5180001152454,新規,0,2022-08-04,2022-08-04,株式会社クレスト,,株式会社,愛知県,名古屋市中区,栄５丁目４番１２号,,23,106,4600008,,,,,,,2022-08-04,1,,,,,クレスト,0
1449,5180001152470,新規,0,2022-08-04,2022-08-04,株式会社ＢＵＦＵ,,株式会社,愛知県,名古屋市西区,城西４丁目１１番１８号,,23,104,4510031,,,,,,,2022-08-04,1,,,,,ブフ,0
1450,5180001152504,新規,0,2022-08-04,2022-08-04,株式会社ベアーズホーム,,株式会社,愛知県,丹羽郡扶桑町,大字高木字桜木５３２番地,,23,362,4800107,,,,,,,2022-08-04,1,,,,,ベアーズホーム,0
1456,5200001040342,新規,0,2022-08-04,2022-08-04,株式会社Ｙａｍａｋａｗａ,,株式会社,岐阜県,可児市,広見１７２８番地１,,21,214,5090214,,,,,,,2022-08-04,1,,,,,ヤマカワ,0
1463,5220003003337,新規,0,2022-08-04,2022-08-04,合同会社ｍｉｓｅｎ,,合同会社,石川県,金沢市,東山１丁目２９番６号,,17,201,9200831,,,,,,,2022-08-04,1,,,,,ミセン,0
1464,5220005008689,新規,0,2022-08-04,2022-08-04,一般社団法人日本生活文化研究所,,その他の設立登記法人,石川県,金沢市,長土塀１丁目１６番２号,,17,201,9200867,,,,,,,2022-08-04,1,,,,,ニホンセイカツブンカケンキュウジョ,0
1466,5240001060163,新規,0,2022-08-04,2022-08-04,株式会社ＩＮＤＥＥＤ,,株式会社,広島県,広島市安佐北区,口田２丁目２１番２１号,,34,106,7391734,,,,,,,2022-08-04,1,,,,,インディード,0
1467,5240001060171,新規,0,2022-08-04,2022-08-04,株式会社ＣＬＭ,,株式会社,広島県,福山市,寺町９－１２－３Ｆ,,34,207,7200041,,,,,,,2022-08-04,1,,,,,シーエルエム,0
1471,5250001019695,新規,0,2022-08-04,2022-08-04,＿＿貿易株式会社,00127419,株式会社,山口県,宇部市,大字東須恵１４４８番地４,,35,202,7590206,,,,,,,2022-08-04,1,,,,,シンシンボウエキ,0
1482,5290003012810,新規,0,2022-08-04,2022-08-04,合同会社グッドリフォーム,,合同会社,福岡県,福岡市南区,柏原４丁目８番２９号Ｃ棟,,40,134,8111353,,,,,,,2022-08-04,1,,,,,グッドリフォーム,0
1485,5290005018756,新規,0,2022-08-04,2022-08-04,ＮＰＯ法人アニマルボランティアサポート,,その他の設立登記法人,福岡県,福岡市東区,美和台５丁目１番２２－２０１号ハイカムール・メイプル,,40,131,8110212,,,,,,,2022-08-04,1,,,,,アニマルボランティアサポート,0
1498,5330001029991,新規,0,2022-08-04,2022-08-04,株式会社Ｓｉｅｇ,,株式会社,熊本県,熊本市南区,近見８丁目６－１１アニューエイティ２０２号,,43,104,8614101,,,,,,,2022-08-04,1,,,,,ジーク,0
1500,5360001030765,新規,0,2022-08-04,2022-08-04,株式会社リゾバース,,株式会社,沖縄県,浦添市,牧港１丁目５８番９号１階,,47,208,9012131,,,,,,,2022-08-04,1,,,,,リゾバース,0
1501,5360001030781,新規,0,2022-08-04,2022-08-04,ＯＨ‐Ｓ．ＪＡＰＡＮ株式会社,,株式会社,沖縄県,名護市,港１丁目１４番１号アダンホテル１ＦＡ号室,,47,209,9050014,,,,,,,2022-08-04,1,,,,,オーエイチエスジャパン,0
1505,5370001048906,新規,0,2022-08-04,2022-08-04,株式会社快晴工業,,株式会社,宮城県,東松島市,矢本字上河戸１６１番地４,,04,214,9810503,,,,,,,2022-08-04,1,,,,,カイセイコウギョウ,0
1511,5380003005251,新規,0,2022-08-04,2022-08-04,合同会社私たちの地球会議ホールディングス,,合同会社,福島県,田村郡小野町,大字塩庭字平内１５７－１,,07,522,9633314,,,,,,,2022-08-04,1,,,,,ワタシタチノチキュウカイギホールディングス,0
1518,5420003002558,新規,0,2022-08-04,2022-08-04,合同会社佐々木木工,,合同会社,青森県,上北郡おいらせ町,向山２丁目４８番地２,,02,412,0392151,,,,,,,2022-08-04,1,,,,,ササキモッコウ,0
1523,5430001087195,新規,0,2022-08-04,2022-08-04,株式会社ＳＫ２４,,株式会社,北海道,札幌市中央区,北六条西２０丁目２番２９号２階,,01,101,0600006,,,,,,,2022-08-04,1,,,,,エスケートゥエンティフォー,0
1524,5430001087229,新規,0,2022-08-04,2022-08-04,株式会社ゲートワン,,株式会社,北海道,札幌市白石区,本通１２丁目南２番１９号,,01,104,0030026,,,,,,,2022-08-04,1,,,,,ゲートワン,0
1525,5430003014131,新規,0,2022-08-04,2022-08-04,Ｆｅｅｌｆｒｅｅ合同会社,,合同会社,北海道,虻田郡ニセコ町,字本通１６６番地１,,01,395,0481502,,,,,,,2022-08-04,1,,,,,フィールフリー,0
1526,5430005014526,新規,0,2022-08-04,2022-08-04,無限責任千歳村ターツウシナイ負債整理組合,,その他の設立登記法人,北海道,千歳市,（千歳郡千歳村大字千歳村字ターツウシナイ）,,01,224,0660000,,,,,,,2022-08-04,1,,,,,ムゲンセキニンチトセムラターツウシナイフサイセイリクミアイ,0
1533,5500001024372,新規,0,2022-08-04,2022-08-04,株式会社高井,00127418,株式会社,愛媛県,今治市,中寺３２０番地８,,38,202,7940840,,,,,,,2022-08-04,1,,,,,タカイ,0
1534,5500001024380,新規,0,2022-08-04,2022-08-04,アサヒ環境株式会社,,株式会社,愛媛県,東温市,北野田７４番地２,,38,215,7910215,,,,,,,2022-08-04,1,,,,,アサヒカンキョウ,0
1538,5700150111001,新規,0,2022-08-04,2022-08-04,ｑｉｎｇ　ｄａｏ　ｃｏｎｇ　ｌａｎ　ｍａｏ　ｙｉ　ｙｏｕ　ｘｉａｎ　ｇｏｎｇ　ｓｉ,,外国会社等,,,,,,,,７　ｈａｏ　ｌｏｕ　ｙｉ　ｄａｎ　ｙｕａｎ　５０１　ｓｈｉ，　Ｎａｎｋｏｕｌｕ　６　ｈａｏ，　Ｓｈｉｂｅｉｑｕ，Ｑｉｎｇｄａｏ，Ｓｈａｎｄｏｎｇ,,,,,,2022-08-04,1,,,,,チンダオツオンランボウエイユウゲンカイシヤ,0
1539,5700150111042,新規,0,2022-08-04,2022-08-04,ＳＡＰＰＯＲＯ　ＴＲＡＤＩＮＧ　ＰＲＩＶＡＴＥ　ＬＩＭＩＴＥＤ,,外国会社等,千葉県,山武郡九十九里町,片貝１７６１番地４シェアオフィスＩ号,00127429,12,403,2830104,スリランカ民主社会主義共和国、アクラナ、ペレウェリケティヤ、１２５－１Ｆ,,,,,,2022-08-04,1,,,,,サツポロトレーデイングプライベートリミテツド,0
1546,6010001228526,新規,0,2022-08-04,2022-08-04,株式会社ゴービヨンド,,株式会社,東京都,中央区,日本橋大伝馬町１１番８号５Ｆ,,13,102,1030011,,,,,,,2022-08-04,1,,,,,ゴービヨンド,0
1547,6010001228534,新規,0,2022-08-04,2022-08-04,株式会社ＳＬＯＰＥ,,株式会社,東京都,中央区,日本橋人形町１丁目１５番４号,,13,102,1030013,,,,,,,2022-08-04,1,,,,,スロープ,0
1548,6010001228550,新規,0,2022-08-04,2022-08-04,株式会社セゾンパートナーズ,,株式会社,東京都,文京区,関口１丁目４３番５号,,13,105,1120014,,,,,,,2022-08-04,1,,,,,セゾンパートナーズ,0
1549,6010003038304,新規,0,2022-08-04,2022-08-04,Ｄｉｖｅｒｓｉｔｙ　Ｈｏｌｄｉｎｇｓ合同会社,,合同会社,東京都,中央区,銀座１丁目１２番４号Ｎ＆Ｅ・ＢＬＤ６階,,13,102,1040061,,,,,,,2022-08-04,1,,,,,ダイバーシティーホールディングス,0
1550,6010003038320,新規,0,2022-08-04,2022-08-04,グリーンランド合同会社,,合同会社,東京都,中央区,日本橋２丁目１番１７号丹生ビル２階,,13,102,1030027,,,,,,,2022-08-04,1,,,,,,0
1554,6010101015270,新規,0,2022-08-04,2022-08-04,株式会社Ｌｕｚ,,株式会社,東京都,八王子市,楢原町２７５番地３,,13,201,1930803,,,,,,,2022-08-04,1,,,,,ルス,0
1556,6010103001962,新規,0,2022-08-04,2022-08-04,Ｌ　ｔｒｅａｔ合同会社,,合同会社,東京都,八王子市,四谷町７６３番地６,,13,201,1930813,,,,,,,2022-08-04,1,,,,,エルトリート,0
1579,6010901051366,新規,0,2022-08-04,2022-08-04,オールイヤーズ株式会社,,株式会社,東京都,世田谷区,太子堂２丁目１７－５佐藤ビル３階,,13,112,1540004,,,,,,,2022-08-04,1,,,,,オールイヤーズ,0
1580,6010903007556,新規,0,2022-08-04,2022-08-04,合同会社レッドシャーク,,合同会社,東京都,世田谷区,代沢２丁目２８番４－３０６号,,13,112,1550032,,,,,,,2022-08-04,1,,,,,レッドシャーク,0
1585,6011003015045,新規,0,2022-08-04,2022-08-04,合同会社ＴＨＥ　ＢＯＸ　ＪＡＰＡＮ,,合同会社,東京都,渋谷区,渋谷１丁目１番６号エムエフ青山６０４,,13,113,1500002,,,,,,,2022-08-04,1,,,,,ザボックスジャパン,0
1586,6011003015169,新規,0,2022-08-04,2022-08-04,Ｂインパクト３号合同会社,,合同会社,東京都,渋谷区,渋谷２丁目２４番１２号,,13,113,1500002,,,,,,,2022-08-04,1,,,,,ビーインパクトサンゴウ,0
1591,6011101099758,新規,0,2022-08-04,2022-08-04,第一グループホールディングス株式会社,,株式会社,東京都,新宿区,西新宿７丁目５番２５号,,13,104,1600023,,,,,,,2022-08-04,1,,,,,ダイイチグループホールディングス,0
1598,6011205002502,新規,0,2022-08-04,2022-08-04,土地家屋調査士法人都市工房,,その他の設立登記法人,東京都,中野区,東中野１丁目３０番１５号,,13,114,1640003,,,,,,,2022-08-04,1,,,,,トシコウボウ,0
1600,6011301027997,新規,0,2022-08-04,2022-08-04,株式会社広久企画,,株式会社,東京都,杉並区,井草２丁目１８番７号,,13,115,1670021,,,,,,,2022-08-04,1,,,,,ヒロヒサキカク,0
1605,6011501028358,新規,0,2022-08-04,2022-08-04,株式会社ファイヤームーン,,株式会社,東京都,荒川区,東日暮里３丁目２３番４号,,13,118,1160014,,,,,,,2022-08-04,1,,,,,ファイヤームーン,0
1609,6011701025510,新規,0,2022-08-04,2022-08-04,株式会社ＮＡＺＡ,,株式会社,東京都,江戸川区,北小岩５丁目３６番１号,,13,123,1330051,,,,,,,2022-08-04,1,,,,,ナザ,0
1614,6012403005528,新規,0,2022-08-04,2022-08-04,プロージット合同会社,,合同会社,東京都,府中市,寿町１丁目４番地１７－４階,,13,206,1830056,,,,,,,2022-08-04,1,,,,,プロージット,0
1619,6013303006252,新規,0,2022-08-04,2022-08-04,合同会社ジャストワン,,合同会社,東京都,豊島区,南大塚２丁目１１－１０ミモザビル３Ｆ,,13,116,1700005,,,,,,,2022-08-04,1,,,,,ジャストワン,0
1632,6020003022182,新規,0,2022-08-04,2022-08-04,合同会社ＤＴＪ,,合同会社,神奈川県,川崎市多摩区,菅６丁目４番２４号秋山菅マンション２０５号室,,14,135,2140001,,,,,,,2022-08-04,1,,,,,ディーティージェイ,0
1633,6020005015622,新規,0,2022-08-04,2022-08-04,一般社団法人ｉｎｔｅｌｌｅｔｅ,,その他の設立登記法人,神奈川県,川崎市幸区,小倉１丁目６番５号,,14,132,2120054,,,,,,,2022-08-04,1,,,,,インテリート,0
1639,6021001076674,新規,0,2022-08-04,2022-08-04,生活のデジタル化サポートセンター株式会社,,株式会社,神奈川県,茅ヶ崎市,東海岸北２丁目８番２１号,,14,207,2530053,,,,,,,2022-08-04,1,,,,,セイカツノデジタルカサポートセンター,0
1640,6021001076699,新規,0,2022-08-04,2022-08-04,株式会社ＴＭＣ,,株式会社,神奈川県,相模原市中央区,相模原５丁目９番２号９Ｆ,,14,152,2520231,,,,,,,2022-08-04,1,,,,,ティーエムシー,0
1645,6021005012584,新規,0,2022-08-04,2022-08-04,税理士法人八木会計,,その他の設立登記法人,神奈川県,相模原市緑区,橋本６丁目２７番２号第一間瀬ビル５階,,14,151,2520143,,,,,,,2022-08-04,1,,,,,,0
1652,6030001149431,新規,0,2022-08-04,2022-08-04,株式会社浩東,,株式会社,埼玉県,蕨市,塚越５丁目３６－４,,11,223,3350002,,,,,,,2022-08-04,1,,,,,コウトウ,0
1653,6030001149464,新規,0,2022-08-04,2022-08-04,株式会社のぞみ,,株式会社,埼玉県,さいたま市浦和区,仲町１丁目１４番６号４０６,,11,107,3300062,,,,,,,2022-08-04,1,,,,,ノゾミ,0
1654,6030001149489,新規,0,2022-08-04,2022-08-04,株式会社あい不動産企画,,株式会社,埼玉県,北本市,緑２丁目２７番地,,11,233,3640032,,,,,,,2022-08-04,1,,,,,アイフドウサンキカク,0
1655,6030001149514,新規,0,2022-08-04,2022-08-04,株式会社ＮＳＰ,,株式会社,埼玉県,春日部市,道口蛭田１２番地５,,11,214,3440045,,,,,,,2022-08-04,1,,,,,エヌエスピー,0
1659,6030003019871,新規,0,2022-08-04,2022-08-04,合同会社ＮＶＤ,,合同会社,埼玉県,川口市,西川口１丁目３０番２５－７０１号パインエクセレンス,,11,203,3320021,,,,,,,2022-08-04,1,,,,,エヌヴィーディー,0
1664,6040003020432,新規,0,2022-08-04,2022-08-04,合同会社ガネーシャ,,合同会社,千葉県,四街道市,大日２６８番地２エヴァーグリーン１０２,,12,228,2840001,,,,,,,2022-08-04,1,,,,,ガネーシャ,0
1665,6040003020564,新規,0,2022-08-04,2022-08-04,ＡＢＥ　ＭＯＴＯＲＳ合同会社,,合同会社,千葉県,八街市,沖２０３０番地５,,12,230,2891126,,,,,,,2022-08-04,1,,,,,アベモータース,0
1669,6050001051486,新規,0,2022-08-04,2022-08-04,株式会社片岡不動産,,株式会社,茨城県,つくば市,花畑３丁目３１番地２０,,08,220,3003261,,,,,,,2022-08-04,1,,,,,カタオカフドウサン,0
1670,6050001051503,新規,0,2022-08-04,2022-08-04,株式会社インクリメンタル,,株式会社,茨城県,つくば市,吾妻１丁目１６番地２デュオヒルズつくば吾妻６０９号,,08,220,3050031,,,,,,,2022-08-04,1,,,,,インクリメンタル,0
1675,6070001039513,新規,0,2022-08-04,2022-08-04,みらいネクスト株式会社,,株式会社,群馬県,桐生市,堤町３丁目７番４７号,,10,203,3760042,,,,,,,2022-08-04,1,,,,,ミライネクスト,0
1677,6070005010016,新規,0,2022-08-04,2022-08-04,司法書士法人青い空事務所,,その他の設立登記法人,群馬県,前橋市,西片貝町４丁目２０番地１,,10,201,3710013,,,,,,,2022-08-04,1,,,,,アオイソラジムショ,0
1679,6080001025116,新規,0,2022-08-04,2022-08-04,ＦＵＳＯホールディングス株式会社,,株式会社,静岡県,島田市,三ッ合町１２８５番地の２,,22,209,4270036,,,,,,,2022-08-04,1,,,,,フソウホールディングス,0
1681,6080101023465,新規,0,2022-08-04,2022-08-04,株式会社三井建設,,株式会社,静岡県,熱海市,伊豆山５０１番地,,22,205,4130002,,,,,,,2022-08-04,1,,,,,ミツイケンセツ,0
1687,6100001035590,新規,0,2022-08-04,2022-08-04,株式会社グラミル,,株式会社,長野県,長野市,大字若槻団地３番地２６８,,20,201,3810051,,,,,,,2022-08-04,1,,,,,グラミル,0
1691,6110001036860,新規,0,2022-08-04,2022-08-04,さくら水道株式会社,,株式会社,新潟県,阿賀野市,蒔田６５５番地,,15,223,9591954,,,,,,,2022-08-04,1,,,,,サクラスイドウ,0
1692,6110003004832,新規,0,2022-08-04,2022-08-04,Ａ‐Ｐａｒｔｎｅｒｓ合同会社,,合同会社,新潟県,新潟市西区,青山８丁目２番３３号,,15,107,9502002,,,,,,,2022-08-04,1,,,,,エーパートナーズ,0
1695,6120001247738,新規,0,2022-08-04,2022-08-04,小蜜蜂株式会社,,株式会社,大阪府,大阪市東成区,東小橋１丁目１７－３１グランドハイツ東小橋７０６号室,,27,115,5370024,,,,,,,2022-08-04,1,,,,,コミツバチ,0
1696,6120001247829,新規,0,2022-08-04,2022-08-04,株式会社Ｖｉｃｓｏｌ,,株式会社,大阪府,大阪市東淀川区,東中島１丁目６番１４号新大阪第二日大ビル３０９号,,27,114,5330033,,,,,,,2022-08-04,1,,,,,ビクソル,0
1697,6120001247894,新規,0,2022-08-04,2022-08-04,株式会社ベストソリューション,,株式会社,大阪府,大阪市北区,曾根崎２丁目１６番１９号,,27,127,5300057,,,,,,,2022-08-04,1,,,,,ベストソリューション,0
1698,6120001247903,新規,0,2022-08-04,2022-08-04,Ｆ．Ｗ．Ｍ株式会社,,株式会社,大阪府,大阪市都島区,片町１丁目４番７号カスティーヨ天満橋３０２号,,27,102,5340025,,,,,,,2022-08-04,1,,,,,フォーム,0
1699,6120001247928,新規,0,2022-08-04,2022-08-04,株式会社Ｍｉｍｏｓａ,,株式会社,大阪府,大阪市中央区,北浜３丁目５番２２号オリックス淀屋橋ビル３階３０２号,,27,128,5410041,,,,,,,2022-08-04,1,,,,,ミモザ,0
1700,6120001247985,新規,0,2022-08-04,2022-08-04,韶深株式会社,,株式会社,大阪府,大阪市中央区,南船場１丁目１３－１５長堀三栄プラザ３１５室,,27,128,5420081,,,,,,,2022-08-04,1,,,,,ショウシン,0
1701,6120001247993,新規,0,2022-08-04,2022-08-04,株式会社太政,,株式会社,大阪府,大阪市住之江区,浜口東３丁目１３番１６－２０１号,,27,125,5590002,,,,,,,2022-08-04,1,,,,,タイセイ,0
1703,6120003022206,新規,0,2022-08-04,2022-08-04,合同会社ヤマダ設工,,合同会社,大阪府,交野市,私部１丁目８番１－２０２号,,27,230,5760052,,,,,,,2022-08-04,1,,,,,ヤマダセツコウ,0
1704,6120003022222,新規,0,2022-08-04,2022-08-04,Ｍｒｋｅｙ　ｓｙｓｔｅｍ合同会社,,合同会社,大阪府,大阪市淀川区,宮原１丁目１番１号新大阪阪急ビル３Ｆ,,27,123,5320003,,,,,,,2022-08-04,1,,,,,マーキーシステム,0
1705,6120003022230,新規,0,2022-08-04,2022-08-04,合同会社ＳＷＡＹ,,合同会社,大阪府,大阪市東住吉区,南田辺１丁目９－７コーポ水都１Ｆ１０３号室,,27,121,5460033,,,,,,,2022-08-04,1,,,,,スウェイ,0
1711,6120903004261,新規,0,2022-08-04,2022-08-04,合同会社鈴屋,,合同会社,大阪府,吹田市,津雲台７丁目５番９号２階,,27,205,5650862,,,,,,,2022-08-04,1,,,,,スズヤ,0
1718,6130003008105,新規,0,2022-08-04,2022-08-04,合同会社Ｂｅｍａ,,合同会社,京都府,京都市右京区,西院西矢掛町１８番地,,26,108,6150025,,,,,,,2022-08-04,1,,,,,ビーマ,0
1719,6130005016543,新規,0,2022-08-04,2022-08-04,一般財団法人日本移動式衛生検査所,,その他の設立登記法人,京都府,京都市東山区,今熊野日吉町１２番２,,26,105,6050925,,,,,,,2022-08-04,1,,,,,ニホンイドウシキエイセイケンサショ,0
1727,6140001127013,新規,0,2022-08-04,2022-08-04,株式会社西和電工,,株式会社,兵庫県,加西市,栄町３３８番地,,28,220,6752112,,,,,,,2022-08-04,1,,,,,セイワデンコウ,0
1729,6140003017988,新規,0,2022-08-04,2022-08-04,合同会社春山商店,,合同会社,兵庫県,尼崎市,元浜町５丁目９８番１２号,,28,202,6600085,,,,,,,2022-08-04,1,,,,,ハルヤマショウテン,0
1735,6150005009413,新規,0,2022-08-04,2022-08-04,一般社団法人トリニティプラス,,その他の設立登記法人,奈良県,奈良市,東登美ヶ丘４丁目１６番２号,,29,201,6310002,,,,,,,2022-08-04,1,,,,,トリニティプラス,0
1750,6180001152437,新規,0,2022-08-04,2022-08-04,ドローンプランニング株式会社,,株式会社,愛知県,一宮市,猿海道１丁目８番５号,,23,203,4910838,,,,,,,2022-08-04,1,,,,,ドローンプランニング,0
1751,6180001152445,新規,0,2022-08-04,2022-08-04,株式会社アンティークワン,,株式会社,愛知県,名古屋市天白区,植田西２丁目２１７番地ＳｔｕｄｉｏＡ１－３０２号,,23,116,4680058,,,,,,,2022-08-04,1,,,,,アンティークワン,0
1752,6180001152461,新規,0,2022-08-04,2022-08-04,Ｋ‐ｔｒｅｎｄ　ｊａｐａｎ株式会社,,株式会社,愛知県,名古屋市中区,千代田２丁目１９番７号１Ｆ,,23,106,4600012,,,,,,,2022-08-04,1,,,,,ケイトレンドジャパン,0
1753,6180001152478,新規,0,2022-08-04,2022-08-04,株式会社ＺＥＲＯＳＴＡ,,株式会社,愛知県,名古屋市西区,上名古屋４丁目１２番１４号,,23,104,4510025,,,,,,,2022-08-04,1,,,,,ゼロスタ,0
1756,6180003024106,新規,0,2022-08-04,2022-08-04,合同会社リスタート,,合同会社,愛知県,北名古屋市,井瀬木高畑１３１－１,,23,234,4810014,,,,,,,2022-08-04,1,,,,,リスタート,0
1757,6180301036488,新規,0,2022-08-04,2022-08-04,株式会社リアウィス,,株式会社,愛知県,刈谷市,築地町１丁目２８番地２０,,23,210,4480011,,,,,,,2022-08-04,1,,,,,リアウィス,0
1758,6180301036505,新規,0,2022-08-04,2022-08-04,株式会社エスライフ,,株式会社,愛知県,知立市,鳥居１丁目５番地７,,23,225,4720055,,,,,,,2022-08-04,1,,,,,エスライフ,0
1759,6180301036513,新規,0,2022-08-04,2022-08-04,株式会社かぞくのパンはっぱや,,株式会社,愛知県,西尾市,楠村町北荒子１４番地１,,23,213,4440325,,,,,,,2022-08-04,1,,,,,カゾクノパンハッパヤ,0
1764,6190001029667,新規,0,2022-08-04,2022-08-04,株式会社ＲＩＡ,,株式会社,三重県,亀山市,栄町１４１８番地２１ハイマート栄Ａ２０５号,,24,210,5190111,,,,,,,2022-08-04,1,,,,,リア,0
1766,6200001040341,新規,0,2022-08-04,2022-08-04,株式会社ｍｅｒ,,株式会社,岐阜県,恵那市,武並町藤字花の木２４０３番１５０,,21,210,5097121,,,,,,,2022-08-04,1,,,,,ミラ,0
1769,6220003003328,新規,0,2022-08-04,2022-08-04,小倉合名会社,,合名会社,石川県,白山市,荒屋町に５４番地,,17,210,9202151,,,,,,,2022-08-04,1,,,,,,0
1772,6240001060170,新規,0,2022-08-04,2022-08-04,池田電工株式会社,,株式会社,広島県,三原市,宮浦５丁目１３番７号,,34,204,7230051,,,,,,,2022-08-04,1,,,,,イケダデンコウ,0
1773,6240001060179,新規,0,2022-08-04,2022-08-04,株式会社Ｇ．ＳＴＲＡＣＴ,,株式会社,広島県,広島市南区,向洋新町３丁目１３番１０号,,34,103,7340055,,,,,,,2022-08-04,1,,,,,ジーストラクト,0
1786,6290001098470,新規,0,2022-08-04,2022-08-04,西辰産業株式会社,,株式会社,福岡県,福岡市東区,箱崎７丁目２０番６号,,40,131,8120053,,,,,,,2022-08-04,1,,,,,ニシタツサンギョウ,0
1795,6310003004424,新規,0,2022-08-04,2022-08-04,合同会社潮汐,,合同会社,長崎県,五島市,奥浦町１５３１－１,,42,211,8530053,,,,,,,2022-08-04,1,,,,,チョウセキ,0
1800,6330001029999,新規,0,2022-08-04,2022-08-04,株式会社渡辺総業,,株式会社,熊本県,合志市,幾久富１３１５－１,,43,216,8611112,,,,,,,2022-08-04,1,,,,,ワタナベソウギョウ,0
1801,6330003009470,新規,0,2022-08-04,2022-08-04,合同会社地球の鼓動,,合同会社,熊本県,熊本市中央区,国府２丁目１０番４７号,,43,101,8620949,,,,,,,2022-08-04,1,,,,,チキュウノコドウ,0
1808,6350001017894,新規,0,2022-08-04,2022-08-04,大幸産業株式会社,,株式会社,宮崎県,宮崎市,清武町今泉甲３８２８番地４８,,45,201,8891602,,,,,,,2022-08-04,1,,,,,ダイコウサンギョウ,0
1811,6360001030780,新規,0,2022-08-04,2022-08-04,株式会社Ｔａｍａｋｉ,,株式会社,沖縄県,沖縄市,古謝２丁目１２－２１,,47,211,9042161,,,,,,,2022-08-04,1,,,,,タマキ,0
1814,6370001048888,新規,0,2022-08-04,2022-08-04,庄子ホールディングス株式会社,,株式会社,宮城県,仙台市太白区,泉崎２丁目１１番１３号,,04,104,9820031,,,,,,,2022-08-04,1,,,,,ショウジホールディングス,0
1815,6370001048905,新規,0,2022-08-04,2022-08-04,株式会社カートライス,,株式会社,宮城県,宮城郡利府町,神谷沢字化粧坂６７番地９,,04,406,9810121,,,,,,,2022-08-04,1,,,,,カートライス,0
1820,6380001033022,新規,0,2022-08-04,2022-08-04,株式会社ＩＮ八木林業,,株式会社,福島県,東白川郡塙町,大字那倉字塚野２８番地６,,07,483,9635521,,,,,,,2022-08-04,1,,,,,アイエヌヤギリンギョウ,0
1822,6390001016983,新規,0,2022-08-04,2022-08-04,株式会社薬剤師ベース,,株式会社,山形県,鶴岡市,美咲町１２番３号,,06,203,9970857,,,,,,,2022-08-04,1,,,,,ヤクザイシベース,0
1827,6420001017961,新規,0,2022-08-04,2022-08-04,株式会社リンクホールディングス,,株式会社,青森県,青森市,浜館２丁目１番地１,,02,201,0300947,,,,,,,2022-08-04,1,,,,,リンクホールディングス,0
1832,6430001087194,新規,0,2022-08-04,2022-08-04,雷音株式会社,,株式会社,北海道,札幌市中央区,北三条西４丁目１番地１,,01,101,0600003,,,,,,,2022-08-04,1,,,,,ライオン,0
1840,6450003002232,新規,0,2022-08-04,2022-08-04,合同会社ビギンズ,,合同会社,北海道,旭川市,神楽一条１０丁目１番７号,,01,204,0708001,,,,,,,2022-08-04,1,,,,,ビギンズ,0
1841,6470001019193,新規,0,2022-08-04,2022-08-04,株式会社Ｎ建商,,株式会社,香川県,三豊市,豊中町岡本２９０番地,,37,208,7691507,,,,,,,2022-08-04,1,,,,,エヌケンショウ,0
1842,6470001019202,新規,0,2022-08-04,2022-08-04,株式会社Ｅｎｊｉｇｒａｐｈ,,株式会社,香川県,高松市,木太町４４２４番地１０,,37,201,7600080,,,,,,,2022-08-04,1,,,,,エンジグラフ,0
1852,6700150110539,新規,0,2022-08-04,2022-06-28,女人高野日本遺産協議会,,その他,大阪府,河内長野市,原町１丁目１番１号,,27,216,5860021,,,,,,,2022-06-28,1,,,,,ニヨニンコウヤニホンイサンキヨウギカイ,0
1853,6700150111009,新規,0,2022-08-04,2022-08-04,ＳＨＩＧＡ－ＫＡＮＤＹ　ＭＯＴＯＲＳ　ＰＲＩＶＡＴＥ　ＬＩＭＩＴＥＤ,,外国会社等,千葉県,八街市,文違６０－３４オフイス２号,,12,230,2891104,スリランカ民主社会主義共和国、キャンディ、ヤハラテンナ、カルガラ、Ｎｏ．１２．Ｃ,,,,,,2022-08-04,1,,,,,シガーキヤンデイモータースプライベートリミテツド,0
1854,6700150111041,新規,0,2022-08-04,2022-08-04,ＯＸ－ＢＲＩＤＧＥ　ＮＥＰＡＬ　ＥＤＵＣＡＴＩＯＮ　ＣＯＮＳＵＬＴＡＮＣＹ　ＰＶＴ．ＬＴＤ．,,外国会社等,神奈川県,横浜市神奈川区,子安台１丁目９－１３,,14,102,2210012,ネパール連邦民主共和国カトマンズ郡カトマンズ大都市７番地区チャバヒル,,,,,,2022-08-04,1,,,,,オックスブリッジネパールキョウイクコンサルタントプライベートリミテッド,0
1864,7010001228509,新規,0,2022-08-04,2022-08-04,株式会社グローブエイト,,株式会社,東京都,中央区,銀座６丁目１３番１６号銀座ＷａｌｌビルＵＣＦ５０１,,13,102,1040061,,,,,,,2022-08-04,1,,,,,グローブエイト,0
1865,7010001228558,新規,0,2022-08-04,2022-08-04,株式会社アークウィズコンサルティング,,株式会社,東京都,中央区,銀座１丁目１２番４号Ｎ＆ＥＢＬＤ．６Ｆ,,13,102,1040061,,,,,,,2022-08-04,1,,,,,アークウィズコンサルティング,0
1866,7010005035348,新規,0,2022-08-04,2022-08-04,一般社団法人日本医療防災技術研究所,,その他の設立登記法人,東京都,中央区,銀座６丁目１０番１号,,13,102,1040061,,,,,,,2022-08-04,1,,,,,ニホンイリョウボウサイギジュツケンキュウジョ,0
1867,7010101015278,新規,0,2022-08-04,2022-08-04,ＯＲＩＥＮＴ＆ＰＡＣＩＦＩＣ　ＥＮＴＥＲＰＲＩＳＥ株式会社,,株式会社,東京都,八王子市,大塚４９９番地１,,13,201,1920352,,,,,,,2022-08-04,1,,,,,オリエントアンドパシフィックエンタープライズ,0
1878,7010701043042,新規,0,2022-08-04,2022-08-04,株式会社シンシアメディカルコンサルティング,,株式会社,東京都,品川区,戸越６丁目７番１５号,,13,109,1420041,,,,,,,2022-08-04,1,,,,,シンシアメディカルコンサルティング,0
1882,7010801033174,新規,0,2022-08-04,2022-08-04,株式会社ホーシン,,株式会社,東京都,大田区,中央６丁目１７番８号,,13,111,1430024,,,,,,,2022-08-04,1,,,,,ホーシン,0
1885,7010901051357,新規,0,2022-08-04,2022-08-04,株式会社ＳＵＩ,,株式会社,東京都,世田谷区,代沢５丁目３３番５号,,13,112,1550032,,,,,,,2022-08-04,1,,,,,スイ,0
1886,7010901051365,新規,0,2022-08-04,2022-08-04,株式会社１ｓｔ・インプレッション,,株式会社,東京都,世田谷区,桜３丁目１６番２号,,13,112,1560053,,,,,,,2022-08-04,1,,,,,ファーストインプレッション,0
1887,7010903007563,新規,0,2022-08-04,2022-08-04,合同会社クッシー,,合同会社,東京都,世田谷区,北沢２丁目６－８サンハイツ北沢２０１,,13,112,1550031,,,,,,,2022-08-04,1,,,,,クッシー,0
1894,7011001149026,新規,0,2022-08-04,2022-08-04,株式会社ＮＮアセットマネジメント,,株式会社,東京都,渋谷区,神山町３９番１２号,,13,113,1500047,,,,,,,2022-08-04,1,,,,,エヌエヌアセットマネジメント,0
1895,7011001149059,新規,0,2022-08-04,2022-08-04,株式会社Ｃ４Ｃ　Ｌａｂｓ,,株式会社,東京都,渋谷区,笹塚１丁目６４番８号Ｄａｉｗａ笹塚ビル６階,,13,113,1510073,,,,,,,2022-08-04,1,,,,,シーフォーシーラボ,0
1897,7011003015168,新規,0,2022-08-04,2022-08-04,合同会社ＲＩＭＯＲＵＮＥ,,合同会社,東京都,渋谷区,本町２丁目３５番６号渋谷本町オリエントコートＢ棟１０４,,13,113,1510071,,,,,,,2022-08-04,1,,,,,リモルネ,0
1901,7011101099749,新規,0,2022-08-04,2022-08-04,株式会社Ｏｎｆｌｅｅｋ　Ａｇｅｎｔ,,株式会社,東京都,新宿区,西新宿７丁目１８番１９号新宿税理士ビル第二別館佐竹ビル２２１,,13,104,1600023,,,,,,,2022-08-04,1,,,,,オンフリークエージェント,0
1902,7011101099765,新規,0,2022-08-04,2022-08-04,株式会社ＦＯＲＵＭＹＵ,,株式会社,東京都,新宿区,西新宿３丁目３番１３号西新宿水間ビル６Ｆ,,13,104,1600023,,,,,,,2022-08-04,1,,,,,フォーラミュー,0
1903,7011101099781,新規,0,2022-08-04,2022-08-04,株式会社ＷＩＴＨＹＯＵエンタープライズ,,株式会社,東京都,新宿区,高田馬場４丁目２番９号コスタレイ高田馬場２０２,,13,104,1690075,,,,,,,2022-08-04,1,,,,,ウィズユーエンタープライズ,0
1908,7011103012040,新規,0,2022-08-04,2022-08-04,ＰＳＢ合同会社,,合同会社,東京都,新宿区,下宮比町２番２８号飯田橋ハイタウン８１５号室,,13,104,1620822,,,,,,,2022-08-04,1,,,,,ピーエスビー,0
1909,7011105010348,新規,0,2022-08-04,2022-08-04,一般社団法人農業インフラ新技術協会,,その他の設立登記法人,東京都,新宿区,改代町２６番地１,,13,104,1620802,,,,,,,2022-08-04,1,,,,,ノウギョウインフラシンギジュツキョウカイ,0
1916,7011501028357,新規,0,2022-08-04,2022-08-04,株式会社Ｗｉｎ　ｔｈｒｏｕｇｈ,,株式会社,東京都,北区,滝野川１丁目５４番３号,,13,117,1140023,,,,,,,2022-08-04,1,,,,,ウィンスルー,0
1918,7011703003199,新規,0,2022-08-04,2022-08-04,合同会社Ｅｉｍ,,合同会社,東京都,江戸川区,篠崎町３丁目１８番１６号Ｔ・ＧｅｎＶＩ１０６,00127431,13,123,1330061,,,,,,,2022-08-04,1,,,,,エイム,0
1920,7011801041092,新規,0,2022-08-04,2022-08-04,株式会社ＩＰＲｈｉｎｏ,,株式会社,東京都,足立区,伊興１丁目１４番１４号,,13,121,1210823,,,,,,,2022-08-04,1,,,,,アイピーライノ,0
1923,7012401039493,新規,0,2022-08-04,2022-08-04,株式会社Ｍｓｔｙｌｅ,,株式会社,東京都,稲城市,矢野口６６９番地９,,13,225,2060812,,,,,,,2022-08-04,1,,,,,エムスタイル,0
1924,7012803002850,新規,0,2022-08-04,2022-08-04,合同会社Ｆａｂ・ＣＲＥＡＲＴ,,合同会社,東京都,日野市,平山３丁目２７番地の１４,,13,212,1910043,,,,,,,2022-08-04,1,,,,,ファブクリアート,0
1931,7013301049475,新規,0,2022-08-04,2022-08-04,株式会社エストプラス,,株式会社,東京都,豊島区,池袋本町１丁目１７番４号ウィン池袋２０２,,13,116,1700011,,,,,,,2022-08-04,1,,,,,エストプラス,0
1935,7013303006251,新規,0,2022-08-04,2022-08-04,合同会社永盛,,合同会社,東京都,豊島区,池袋４丁目３４番５号データバンビル４階,,13,116,1710014,,,,,,,2022-08-04,1,,,,,エイセイ,0
1943,7020001147468,新規,0,2022-08-04,2022-08-04,株式会社Ｊ‐ＮＥＸＵＳ,,株式会社,神奈川県,川崎市幸区,幸町１丁目７８０番地３７グランイーグル川崎５０２,,14,132,2120011,,,,,,,2022-08-04,1,,,,,ジェーネクサス,0
1944,7020001147559,新規,0,2022-08-04,2022-08-04,寛政機工株式会社,,株式会社,神奈川県,横浜市鶴見区,寛政町１４番５－１０１号,,14,101,2300034,,,,,,,2022-08-04,1,,,,,カンセイキコウ,0
1945,7020001147641,新規,0,2022-08-04,2022-08-04,株式会社ケアチャンプ,,株式会社,神奈川県,横浜市栄区,東上郷町１番３５号,,14,115,2470021,,,,,,,2022-08-04,1,,,,,ケアチャンプ,0
1951,7021001076673,新規,0,2022-08-04,2022-08-04,株式会社みつ葉,,株式会社,神奈川県,三浦市,初声町下宮田５９９番地,,14,210,2380111,,,,,,,2022-08-04,1,,,,,ミツバ,0
1966,7030001149496,新規,0,2022-08-04,2022-08-04,株式会社Ｇ＆Ｔ　Ｇｅｍ　Ｔｏｐ,,株式会社,埼玉県,さいたま市見沼区,大字小深作３９１番地１５,,11,104,3370005,,,,,,,2022-08-04,1,,,,,ジーアンドティージェムトップ,0
1970,7030003019870,新規,0,2022-08-04,2022-08-04,ＨＴＧｒｏｕｐ合同会社,,合同会社,埼玉県,蕨市,中央５丁目５番１３号,,11,223,3350004,,,,,,,2022-08-04,1,,,,,エッチティグループ,0
1971,7030003019879,新規,0,2022-08-04,2022-08-04,合同会社ＫＢ‐１,,合同会社,埼玉県,越谷市,大字北後谷８１０番地１,,11,222,3430854,,,,,,,2022-08-04,1,,,,,ビーケーワン,0
1972,7030003019895,新規,0,2022-08-04,2022-08-04,ファティリティー合同会社,,合同会社,埼玉県,さいたま市西区,大字指扇１２１２－８,,11,101,3310047,,,,,,,2022-08-04,1,,,,,ファティリティー,0
1974,7030005020942,新規,0,2022-08-04,2022-08-04,特定非営利活動法人桃手スマート・サポート,,その他の設立登記法人,埼玉県,和光市,広沢１番２号,,11,229,3510106,,,,,,,2022-08-04,1,,,,,モモテスマートサポート,0
1975,7030005020950,新規,0,2022-08-04,2022-08-04,特定非営利活動法人動物医療健康協会,,その他の設立登記法人,埼玉県,越谷市,千間台西１丁目５番地２ＫＭビル２０２株式会社エクステージ注文住宅設計内,,11,222,3430041,,,,,,,2022-08-04,1,,,,,ドウブツイリョウケンコウキョウカイ,0
1976,7030005020959,新規,0,2022-08-04,2022-08-04,一般社団法人彩真会,,その他の設立登記法人,埼玉県,さいたま市見沼区,大字南中野５７番地,,11,104,3370042,,,,,,,2022-08-04,1,,,,,サイシンカイ,0
1979,7040001124531,新規,0,2022-08-04,2022-08-04,阿部商事株式会社,,株式会社,千葉県,市川市,相之川１丁目２０番７号ライオンズガーデンシティ南行徳２０６,,12,203,2720143,,,,,,,2022-08-04,1,,,,,アベショウジ,0
1983,7040003020555,新規,0,2022-08-04,2022-08-04,合同会社ｔｒａｆｆａｓ,,合同会社,千葉県,松戸市,小金原９丁目５番地の３７号ラフィネ常盤平１０１号室,,12,207,2700021,,,,,,,2022-08-04,1,,,,,トラファス,0
1987,7050001051485,新規,0,2022-08-04,2022-08-04,株式会社影山設備,,株式会社,茨城県,下妻市,高道祖３０９番地１０３,,08,210,3040031,,,,,,,2022-08-04,1,,,,,カゲヤマセツビ,0
1993,7080003002847,新規,0,2022-08-04,2022-08-04,合同会社サンクチュアリ,,合同会社,静岡県,静岡市駿河区,中島６５２番地の１,,22,102,4228046,,,,,,,2022-08-04,1,,,,,サンクチュアリ,0
2003,7100001035581,新規,0,2022-08-04,2022-08-04,株式会社ｌｅ　ｃｏｃｏｎ,,株式会社,長野県,長野市,川中島町上氷鉋５０１番地３２,,20,201,3812233,,,,,,,2022-08-04,1,,,,,ルココン,0
2007,7110001036868,新規,0,2022-08-04,2022-08-04,ｅ‐ＦＯＬＬＯＷ株式会社,,株式会社,新潟県,新潟市南区,大通黄金５丁目１４番地６,,15,106,9501203,,,,,,,2022-08-04,1,,,,,イーフォロー,0
2010,7110003004831,新規,0,2022-08-04,2022-08-04,ｐａｓ合同会社,,合同会社,新潟県,新潟市中央区,東堀前通５番町４２２番地五泉屋ビル３階,,15,103,9518066,,,,,,,2022-08-04,1,,,,,ピーエーエス,0
2023,7120001247737,新規,0,2022-08-04,2022-08-04,日本銭乃賀株式会社,,株式会社,大阪府,大阪市都島区,東野田町４丁目５－２翠連マンション３１７号室,,27,102,5340024,,,,,,,2022-08-04,1,,,,,ニホンセンノガ,0
2024,7120001247885,新規,0,2022-08-04,2022-08-04,株式会社芦屋トレーディング,,株式会社,大阪府,大阪市北区,樋之口町１番２０－２９０５号,,27,127,5300032,,,,,,,2022-08-04,1,,,,,アシヤトレーディング,0
2025,7120001247893,新規,0,2022-08-04,2022-08-04,株式会社コリドラス,,株式会社,大阪府,大阪市中央区,南船場４丁目１１番１４号山三ビル３Ｆ,,27,128,5420081,,,,,,,2022-08-04,1,,,,,コリドラス,0
2026,7120001247935,新規,0,2022-08-04,2022-08-04,ティーサン管理株式会社,,株式会社,大阪府,枚方市,南楠葉２丁目７－３０－１０１,,27,210,5731105,,,,,,,2022-08-04,1,,,,,ティーサンカンリ,0
2027,7120001247951,新規,0,2022-08-04,2022-08-04,株式会社岡野屋商店,,株式会社,大阪府,大阪市中央区,日本橋２丁目６－１０,,27,128,5420073,,,,,,,2022-08-04,1,,,,,オカノヤショウテン,0
2028,7120001247992,新規,0,2022-08-04,2022-08-04,株式会社田中工業,,株式会社,大阪府,大阪市西成区,津守３丁目１番２－１１０２号,,27,122,5570062,,,,,,,2022-08-04,1,,,,,タナカコウギョウ,0
2036,7120003022205,新規,0,2022-08-04,2022-08-04,合同会社ジィー・ワークス,,合同会社,大阪府,大阪市東成区,大今里南３丁目１２番１８号,,27,115,5370013,,,,,,,2022-08-04,1,,,,,ジィーワークス,0
2037,7120003022213,新規,0,2022-08-04,2022-08-04,合同会社ＡＦＦＬＡＴＵＳ,,合同会社,大阪府,大阪市浪速区,元町１丁目１１番１６－１００９号,,27,111,5560016,,,,,,,2022-08-04,1,,,,,アフレイタス,0
2038,7120003022221,新規,0,2022-08-04,2022-08-04,合同会社福音,,合同会社,大阪府,大阪市住吉区,帝塚山東１丁目４番１８号,,27,120,5580054,,,,,,,2022-08-04,1,,,,,フクイン,0
2049,7130001072366,新規,0,2022-08-04,2022-08-04,株式会社ライフ,,株式会社,京都府,京都市下京区,五坊大宮町９６番６,,26,106,6008385,,,,,,,2022-08-04,1,,,,,ライフ,0
2054,7130003008087,新規,0,2022-08-04,2022-08-04,合同会社ＪＵＬＩＵＳＥＲＶＩＮＧ,,合同会社,京都府,京都市伏見区,桃山与五郎町１番地の１６５,,26,109,6128025,,,,,,,2022-08-04,1,,,,,ジュリアスアービング,0
2060,7140001126963,新規,0,2022-08-04,2022-08-04,株式会社プロスペ,,株式会社,兵庫県,神戸市西区,学園東町２丁目４番地Ｄ－１０６号,,28,111,6512102,,,,,,,2022-08-04,1,,,,,プロスペ,0
2061,7140001126988,新規,0,2022-08-04,2022-08-04,株式会社ワイズ・プロ・ジャパン,,株式会社,兵庫県,神戸市中央区,栄町通５丁目２番１６号,,28,110,6500023,,,,,,,2022-08-04,1,,,,,ワイズプロジャパン,0
2062,7140003018003,新規,0,2022-08-04,2022-08-04,合同会社ｈａｙａｔｏｓｐｅｅｄ,,合同会社,兵庫県,明石市,荷山町２７４６－６,,28,203,6730842,,,,,,,2022-08-04,1,,,,,,0
2064,7150001025743,新規,0,2022-08-04,2022-08-04,ｂｕｄｄｙ　ｃｏｎｓｕｌｔｉｎｇ株式会社,,株式会社,奈良県,奈良市,鹿野園町５３１番地３,,29,201,6308425,,,,,,,2022-08-04,1,,,,,バディコンサルティング,0
2078,7180001152436,新規,0,2022-08-04,2022-08-04,株式会社トラストエイト,,株式会社,愛知県,西春日井郡豊山町,大字豊場字八反１０７番地関連商品棟内,,23,342,4800202,,,,,,,2022-08-04,1,,,,,トラストエイト,0
2079,7180001152444,新規,0,2022-08-04,2022-08-04,株式会社名東労務サポート,,株式会社,愛知県,名古屋市名東区,高社２丁目８０番地佐藤ビル３０１,,23,115,4650095,,,,,,,2022-08-04,1,,,,,メイトウロウムサポート,0
2080,7180001152477,新規,0,2022-08-04,2022-08-04,Ｌｓ３株式会社,,株式会社,愛知県,名古屋市東区,葵３丁目２４番２号,,23,102,4610004,,,,,,,2022-08-04,1,,,,,エルエスサード,0
2089,7180003024088,新規,0,2022-08-04,2022-08-04,例の合同会社,,合同会社,愛知県,名古屋市中村区,岩塚本通２丁目２０パレス中村Ｂ３号,,23,105,4530861,,,,,,,2022-08-04,1,,,,,レイノ,0
2091,7180005019870,新規,0,2022-08-04,2022-08-04,一般社団法人ＬＩＳＯＢＵ,,その他の設立登記法人,愛知県,大府市,若草町２丁目１１６番地,,23,223,4740022,,,,,,,2022-08-04,1,,,,,リソーブ,0
2094,7190001029666,新規,0,2022-08-04,2022-08-04,株式会社ショウエイ,,株式会社,三重県,桑名市,松ノ木３丁目７番地１,,24,205,5110902,,,,,,,2022-08-04,1,,,,,ショウエイ,0
2101,7190003004048,新規,0,2022-08-04,2022-08-04,合同会社ＺＩＮＮＯ,,合同会社,三重県,桑名市,大字和泉３８５番地,,24,205,5110838,,,,,,,2022-08-04,1,,,,,ジンノ,0
2102,7190003004056,新規,0,2022-08-04,2022-08-04,ヒゲニ合同会社,,合同会社,三重県,四日市市,赤水町１５２番地１,,24,202,5121204,,,,,,,2022-08-04,1,,,,,ヒゲニ,0
2103,7200001040349,新規,0,2022-08-04,2022-08-04,株式会社ビルドノート,,株式会社,岐阜県,大垣市,藤江町２丁目４３番地２,,21,202,5030893,,,,,,,2022-08-04,1,,,,,ビルドノート,0
2109,7230001019472,新規,0,2022-08-04,2022-08-04,Ｎｉｃｏｌｄｓｙｓｔｅｍ株式会社,,株式会社,富山県,中新川郡立山町,新堀１２８２番地４,,16,323,9300236,,,,,,,2022-08-04,1,,,,,ニコルドシステム,0
2117,7260001037109,新規,0,2022-08-04,2022-08-04,ＩＢＮリスクマネジメント岡山株式会社,,株式会社,岡山県,岡山市北区,本町６番３６号第一セントラルビル４階,,33,101,7000901,,,,,,,2022-08-04,1,,,,,アイビーエヌリスクマネジメントオカヤマ,0
2122,7290001098437,新規,0,2022-08-04,2022-08-04,株式会社ＡＲＣＨＩ,,株式会社,福岡県,福岡市南区,大池１丁目１０番３－５０５号Ｐｒｉｍａｖｅｒａ大池公園前,,40,134,8150073,,,,,,,2022-08-04,1,,,,,アーチ,0
2125,7290003012809,新規,0,2022-08-04,2022-08-04,合同会社ｍａｙｕ’ｓ　ｋｉｔｃｈｅｎ,,合同会社,福岡県,福岡市早良区,田隈３丁目１７番１０号,,40,137,8140174,,,,,,,2022-08-04,1,,,,,マユズキッチン,0
2130,7310003004423,新規,0,2022-08-04,2022-08-04,スタジオ５１合同会社,,合同会社,長崎県,佐世保市,鹿町町深江７番地１,,42,202,8596142,,,,,,,2022-08-04,1,,,,,スタジオゴジュウイチ,0
2131,7320001019257,新規,0,2022-08-04,2022-08-04,株式会社ＨＡＳＳＯＨ,,株式会社,大分県,大分市,大字松岡８２２８番地の１,,44,201,8700125,,,,,,,2022-08-04,1,,,,,ハッソー,0
2132,7330001030007,新規,0,2022-08-04,2022-08-04,株式会社ウエノ電気産業,,株式会社,熊本県,熊本市北区,鶴羽田３丁目１５番３８号,,43,105,8615517,,,,,,,2022-08-04,1,,,,,ウエノデンキサンギョウ,0
2139,7350001017885,新規,0,2022-08-04,2022-08-04,株式会社松浦牧場,,株式会社,宮崎県,児湯郡新富町,大字新田１６５９７番地２,,45,402,8891406,,,,,,,2022-08-04,1,,,,,マツウラボクジョウ,0
2142,7360003012207,新規,0,2022-08-04,2022-08-04,合同会社謝敷工務店,,合同会社,沖縄県,那覇市,首里山川町１丁目１３９番地７,,47,201,9030825,,,,,,,2022-08-04,1,,,,,ジャシキコウムテン,0
2145,7370001048895,新規,0,2022-08-04,2022-08-04,株式会社エコグループ,,株式会社,宮城県,仙台市太白区,柳生２丁目２５番地の１２,,04,104,9811106,,,,,,,2022-08-04,1,,,,,エコグループ,0
2150,7410001013250,新規,0,2022-08-04,2022-08-04,きのしたペットクリニック株式会社,,株式会社,秋田県,秋田市,将軍野南３丁目１０番３号,,05,201,0110936,,,,,,,2022-08-04,1,,,,,,0
2152,7420001017960,新規,0,2022-08-04,2022-08-04,株式会社アオプロ,,株式会社,青森県,青森市,桜川３丁目３番３号,,02,201,0300945,,,,,,,2022-08-04,1,,,,,アオプロ,0
2159,7430001087268,新規,0,2022-08-04,2022-08-04,株式会社ＴＳＴＭ,,株式会社,北海道,札幌市豊平区,豊平六条３丁目４番３８号コーポひだの２Ｆ,,01,105,0620906,,,,,,,2022-08-04,1,,,,,ティーエスティーエム,0
2163,7430005014516,新規,0,2022-08-04,2022-08-04,特定非営利活動法人尚志館,,その他の設立登記法人,北海道,苫小牧市,美園町４丁目１番３号,,01,213,0530041,,,,,,,2022-08-04,1,,,,,ショウシカン,0
2164,7430005014524,新規,0,2022-08-04,2022-08-04,一般社団法人日中消化器内視鏡医療促進協会,,その他の設立登記法人,北海道,札幌市北区,北二十一条西５丁目１番２号,,01,102,0010021,,,,,,,2022-08-04,1,,,,,ニッチュウショウカキナイシキョウイリョウソクシンキョウカイ,0
2167,7460101007230,新規,0,2022-08-04,2022-08-04,株式会社ビッグアイ,,株式会社,北海道,河東郡音更町,宝来西町北１丁目６番地３,,01,631,0800139,,,,,,,2022-08-04,1,,,,,ビッグアイ,0
2168,7470001019201,新規,0,2022-08-04,2022-08-04,株式会社Ｍ＆Ｉクリエーション,,株式会社,香川県,高松市,仏生山町甲３０００番地１,,37,201,7618078,,,,,,,2022-08-04,1,,,,,エムアンドアイクリエーション,0
2171,7500001024379,新規,0,2022-08-04,2022-08-04,株式会社ＫＯＴＯＨＡ,,株式会社,愛媛県,松山市,古川西３丁目３番１０号,,38,201,7900944,,,,,,,2022-08-04,1,,,,,コトハ,0
2172,7700150111008,新規,0,2022-08-04,2022-08-04,ＭＥＮＤＩＳ　ＭＯＴＯＲＳ＆ＣＯ,,外国会社等,千葉県,八街市,八街ほ６６９－１６,,12,230,2891115,スリランカ民主社会主義共和国、アンバランゴダ、ランドムベ、オラガマロード、Ｎｏ．５１,,,,,,2022-08-04,1,,,,,メンデイスモータースアンドカンパニー,0
2173,7700150111024,新規,0,2022-08-04,2022-08-04,Ｓｅｅｃｏ　Ｌａｎｋａ　Ｐｖｔ　Ｌｔｄ,,外国会社等,茨城県,東茨城郡茨城町,大字奥谷１８２１－３５－１０１,,08,302,3113156,スリランカ民主社会主義共和国、キャンディ、アクラナ、ドダンゴラ、１８７－Ｄ－１,,,,,,2022-08-04,1,,,,,シーコランカピーヴイテイエルテイデイ,0
2181,8010001228499,新規,0,2022-08-04,2022-08-04,株式会社ラグラポ,,株式会社,東京都,中央区,日本橋２丁目１番３号,,13,102,1030027,,,,,,,2022-08-04,1,,,,,ラグラポ,0
2182,8010001228524,新規,0,2022-08-04,2022-08-04,株式会社プリサイス,,株式会社,東京都,千代田区,九段南１丁目５番６号りそな九段ビル５階ＫＳフロア,,13,101,1020074,,,,,,,2022-08-04,1,,,,,プリサイス,0
2183,8010001228532,新規,0,2022-08-04,2022-08-04,ミルフィー株式会社,,株式会社,東京都,中央区,八丁堀４丁目３番５号,,13,102,1040032,,,,,,,2022-08-04,1,,,,,ミルフィー,0
2184,8010001228540,新規,0,2022-08-04,2022-08-04,株式会社スポットライト,,株式会社,東京都,中央区,銀座７丁目１５番８号タウンハイツ銀座４０６,,13,102,1040061,,,,,,,2022-08-04,1,,,,,スポットライト,0
2185,8010001228549,新規,0,2022-08-04,2022-08-04,株式会社ソライズ,,株式会社,東京都,千代田区,神田猿楽町２丁目８－１１,,13,101,1010064,,,,,,,2022-08-04,1,,,,,ソライズ,0
2186,8010001228557,新規,0,2022-08-04,2022-08-04,株式会社アイチューブ,,株式会社,東京都,千代田区,外神田１丁目７番６号ＡＫＩＢＡカルチャーズＺＯＮＥ６Ｆ,,13,101,1010021,,,,,,,2022-08-04,1,,,,,アイチューブ,0
2187,8010003038310,新規,0,2022-08-04,2022-08-04,合同会社ＰＲＩＺＥ,,合同会社,東京都,中央区,銀座１丁目１２番４号Ｎ＆ＥＢＬＤ．６Ｆ,,13,102,1040061,,,,,,,2022-08-04,1,,,,,プライズ,0
2188,8010003038319,新規,0,2022-08-04,2022-08-04,ケルン・インベストメント・マネジメント合同会社,,合同会社,東京都,中央区,新川２丁目２３番８－６０２号,,13,102,1040033,,,,,,,2022-08-04,1,,,,,ケルンインベストメントマネジメント,0
2206,8010801033165,新規,0,2022-08-04,2022-08-04,株式会社ブレイントラスト,,株式会社,東京都,大田区,蒲田５丁目２１－１３ペガサスステーションプラザ蒲田Ｂ２Ｆ,,13,111,1440052,,,,,,,2022-08-04,1,,,,,ブレイントラスト,0
2211,8010901051348,新規,0,2022-08-04,2022-08-04,株式会社ＢＡＲＲＡ,,株式会社,東京都,世田谷区,下馬６丁目２２番８－１０１号,,13,112,1540002,,,,,,,2022-08-04,1,,,,,バーハ,0
2212,8010901051364,新規,0,2022-08-04,2022-08-04,知誠株式会社,,株式会社,東京都,世田谷区,桜上水１丁目２４番２２号ソネット経堂２０３号室,,13,112,1560045,,,,,,,2022-08-04,1,,,,,チセイ,0
2217,8010903007562,新規,0,2022-08-04,2022-08-04,合同会社ＫＳＲ,,合同会社,東京都,世田谷区,野毛２丁目２４番１５号,,13,112,1580092,,,,,,,2022-08-04,1,,,,,ケーエスアール,0
2222,8011001148893,新規,0,2022-08-04,2022-08-04,株式会社Ａｉｇｉｓ,,株式会社,東京都,目黒区,自由が丘３丁目５番３号,,13,110,1520035,,,,,,,2022-08-04,1,,,,,アイギス,0
2223,8011001149025,新規,0,2022-08-04,2022-08-04,株式会社ＫＨＫホールディングス,,株式会社,東京都,渋谷区,渋谷１丁目１０番３号,,13,113,1500002,,,,,,,2022-08-04,1,,,,,ケーエイチケーホールディングス,0
2224,8011001149033,新規,0,2022-08-04,2022-08-04,株式会社ＧＯ,,株式会社,東京都,渋谷区,恵比寿１丁目１５番９号４０３,,13,113,1500013,,,,,,,2022-08-04,1,,,,,ゴー,0
2225,8011001149041,新規,0,2022-08-04,2022-08-04,株式会社レゾーＫ,,株式会社,東京都,渋谷区,本町５丁目２６番２－２０１号,,13,113,1510071,,,,,,,2022-08-04,1,,,,,レゾーケー,0
2226,8011001149066,新規,0,2022-08-04,2022-08-04,ジオメトリ株式会社,,株式会社,東京都,渋谷区,千駄ヶ谷５丁目６番１５号,,13,113,1510051,,,,,,,2022-08-04,1,,,,,ジオメトリ,0
2233,8011003015101,新規,0,2022-08-04,2022-08-04,ピッポロパッぴッポ合同会社,,合同会社,東京都,渋谷区,本町２丁目３－１－２３号,,13,113,1510071,,,,,,,2022-08-04,1,,,,,ピッポロパッピッポ,0
2234,8011003015167,新規,0,2022-08-04,2022-08-04,フォークツールズ合同会社,,合同会社,東京都,渋谷区,渋谷２丁目１０番６号,,13,113,1500002,,,,,,,2022-08-04,1,,,,,フォークツールズ,0
2237,8011101099772,新規,0,2022-08-04,2022-08-04,株式会社角陸パートナーズアカウンティング,,株式会社,東京都,新宿区,西新宿３丁目１番４号第２佐山ビル１０Ｆ,,13,104,1600023,,,,,,,2022-08-04,1,,,,,カドリクパートナーズアカウンティング,0
2238,8011101099780,新規,0,2022-08-04,2022-08-04,成学教育株式会社,,株式会社,東京都,新宿区,新宿２丁目１２番１３号新宿アントレサロンビル２階,,13,104,1600022,,,,,,,2022-08-04,1,,,,,セイガクキョウイク,0
2243,8011601026152,新規,0,2022-08-04,2022-08-04,株式会社オモヰカネ,,株式会社,東京都,練馬区,大泉学園町４丁目２２番２号,,13,120,1780061,,,,,,,2022-08-04,1,,,,,オモイカネ,0
2249,8012301013093,新規,0,2022-08-04,2022-08-04,株式会社グリーンダイバーシティ,,株式会社,東京都,町田市,小山町８９９番地１,,13,209,1940212,,,,,,,2022-08-04,1,,,,,グリーンダイバーシティ,0
2250,8012303001708,新規,0,2022-08-04,2022-08-04,ｅＭａｇｅ　Ｓｙｓｔｅｍｓ合同会社,,合同会社,東京都,町田市,中町１丁目４番２号,,13,209,1940021,,,,,,,2022-08-04,1,,,,,イーメイジシステムズ,0
2253,8012401039492,新規,0,2022-08-04,2022-08-04,株式会社ｌａｉａ,,株式会社,東京都,武蔵野市,吉祥寺本町１丁目１８番２号Ｍ９ビル８Ｆ,,13,203,1800004,,,,,,,2022-08-04,1,,,,,ライア,0
2257,8012703002504,新規,0,2022-08-04,2022-08-04,合同会社緑心,,合同会社,東京都,東久留米市,下里３丁目１７番２２号,,13,222,2030043,,,,,,,2022-08-04,1,,,,,リョクシン,0
2272,8020005015612,新規,0,2022-08-04,2022-08-04,特定非営利活動法人日本弱者男性センター,,その他の設立登記法人,神奈川県,横浜市緑区,長津田４丁目９番６号ホドガヤマンション３０６号,,14,113,2260027,,,,,,,2022-08-04,1,,,,,,0
2273,8020005015620,新規,0,2022-08-04,2022-08-04,一般社団法人Ｂａｒｏｎｅｓｓ,,その他の設立登記法人,神奈川県,横浜市鶴見区,東寺尾東台１５番１４－２号,,14,101,2300018,,,,,,,2022-08-04,1,,,,,バロネス,0
2278,8021001076672,新規,0,2022-08-04,2022-08-04,ＳＵＮＳＰＥＬ株式会社,,株式会社,神奈川県,鎌倉市,七里ガ浜１丁目９番２２号,,14,204,2480026,,,,,,,2022-08-04,1,,,,,サンスペル,0
2279,8021001076680,新規,0,2022-08-04,2022-08-04,株式会社扇設備工業,,株式会社,神奈川県,小田原市,寿町３丁目３番１３号,,14,206,2500002,,,,,,,2022-08-04,1,,,,,オウギセツビコウギョウ,0
2285,8021003012007,新規,0,2022-08-04,2022-08-04,合同会社ＭＯミュージック,,合同会社,神奈川県,鎌倉市,梶原２丁目１５番１３号,,14,204,2470063,,,,,,,2022-08-04,1,,,,,エムオーミュージック,0
2293,8030001149495,新規,0,2022-08-04,2022-08-04,株式会社ＶｘＲＥＤ,,株式会社,埼玉県,さいたま市桜区,大字下大久保９３０－１キャピタルピット２０１,,11,106,3380825,,,,,,,2022-08-04,1,,,,,レッド,0
2295,8030003019911,新規,0,2022-08-04,2022-08-04,合同会社ＳＴＥＰ　ＷＩＬＬ,,合同会社,埼玉県,川口市,本町４丁目３番地１４小峰第一ビル,,11,203,3320012,,,,,,,2022-08-04,1,,,,,ステップウィル,0
2303,8040003020562,新規,0,2022-08-04,2022-08-04,合同会社ＹＡＭＡＭＯＴＯ,,合同会社,千葉県,市川市,新田２丁目３１番１６－３０３号アーバンビュー市川,,12,203,2720035,,,,,,,2022-08-04,1,,,,,ヤマモト,0
2304,8050001051476,新規,0,2022-08-04,2022-08-04,株式会社ＳＨＯＫＥＮ,,株式会社,茨城県,鹿嶋市,大字下津２６５番地２６（メゾンラメールＩＩ－１０２）,00127422,08,222,3140004,,,,,,,2022-08-04,1,,,,,ショーケン,0
2305,8050001051492,新規,0,2022-08-04,2022-08-04,株式会社吉田工業,,株式会社,茨城県,稲敷市,脇川７７２番地,,08,229,3000606,,,,,,,2022-08-04,1,,,,,ヨシダコウギョウ,0
2310,8070001039503,新規,0,2022-08-04,2022-08-04,株式会社薬理創健,,株式会社,群馬県,伊勢崎市,山王町３１７番地７,,10,204,3720831,,,,,,,2022-08-04,1,,,,,ヤクリソウケン,0
2311,8080001025114,新規,0,2022-08-04,2022-08-04,山崎ＲＡ株式会社,,株式会社,静岡県,静岡市駿河区,小鹿７３９番地,,22,102,4228021,,,,,,,2022-08-04,1,,,,,ヤマザキアールエー,0
2313,8080101023463,新規,0,2022-08-04,2022-08-04,株式会社ケイリンク,,株式会社,静岡県,御殿場市,萩原５１番地７,,22,215,4120042,,,,,,,2022-08-04,1,,,,,ケイリンク,0
2323,8090001017713,新規,0,2022-08-04,2022-08-04,株式会社戸塚,,株式会社,山梨県,都留市,夏狩２５３番地,,19,204,4020035,,,,,,,2022-08-04,1,,,,,トツカ,0
2332,8120001247819,新規,0,2022-08-04,2022-08-04,株式会社Ｇｅｒｂｅｒａ,,株式会社,大阪府,大阪市淀川区,西中島３丁目２２番２０号川丸ビル３０１,,27,123,5320011,,,,,,,2022-08-04,1,,,,,ガーベラ,0
2333,8120001247876,新規,0,2022-08-04,2022-08-04,＿程株式会社,00127421,株式会社,大阪府,大阪市東成区,深江北３丁目４番２１号エクラ深江橋１１０Ｃ,,27,115,5370001,,,,,,,2022-08-04,1,,,,,テンテイ,0
2334,8120001247892,新規,0,2022-08-04,2022-08-04,株式会社Ｆライン,,株式会社,大阪府,大阪市東成区,大今里３丁目２０番２２号,,27,115,5370012,,,,,,,2022-08-04,1,,,,,エフライン,0
2335,8120001247934,新規,0,2022-08-04,2022-08-04,株式会社ＲＴＰ,,株式会社,大阪府,大阪市中央区,島之内１丁目２２番２３号堺筋山忠ビル９０２号,,27,128,5420082,,,,,,,2022-08-04,1,,,,,アールティーピー,0
2336,8120001247950,新規,0,2022-08-04,2022-08-04,オーイ貿易株式会社,,株式会社,大阪府,大阪市東淀川区,西淡路２丁目１３番３号,,27,114,5330031,,,,,,,2022-08-04,1,,,,,オーイボウエキ,0
2337,8120001247967,新規,0,2022-08-04,2022-08-04,株式会社ルビー,,株式会社,大阪府,大阪市北区,曾根崎新地１丁目６番１０号,,27,127,5300002,,,,,,,2022-08-04,1,,,,,ルビー,0
2343,8120003022170,新規,0,2022-08-04,2022-08-04,合同会社ＴＡＹＬＯＲ　ＴＤ,,合同会社,大阪府,大阪市生野区,小路２丁目１１番７号エクラ小路２０８号,,27,116,5440002,,,,,,,2022-08-04,1,,,,,テイラーティディ,0
2344,8120003022187,新規,0,2022-08-04,2022-08-04,３６‐ＶｉｅｔＭａｒｔ合同会社,,合同会社,大阪府,大阪市西成区,花園北２丁目１５番３１号,,27,122,5570016,,,,,,,2022-08-04,1,,,,,サーティシックスヴィエットマート,0
2345,8120003022204,新規,0,2022-08-04,2022-08-04,合同会社ファースト,,合同会社,大阪府,大阪市北区,天神橋４丁目６番１９号サンプラザ井上３１１号,,27,127,5300041,,,,,,,2022-08-04,1,,,,,ファースト,0
2346,8120003022220,新規,0,2022-08-04,2022-08-04,合同会社リデラス,,合同会社,大阪府,大阪市中央区,南本町１丁目６番７－１８０７号,,27,128,5410054,,,,,,,2022-08-04,1,,,,,リデラス,0
2347,8120003022229,新規,0,2022-08-04,2022-08-04,合同会社フラットヒル,,合同会社,大阪府,守口市,八雲西町３丁目４番１号,,27,209,5700006,,,,,,,2022-08-04,1,,,,,フラットヒル,0
2351,8120105009611,新規,0,2022-08-04,2022-08-04,一般社団法人日本遊漁水産協会,,その他の設立登記法人,大阪府,泉南郡岬町,淡輪４７７５番地の２,,27,366,5990301,,,,,,,2022-08-04,1,,,,,ニホンユウギョスイサンキョウカイ,0
2356,8130001072324,新規,0,2022-08-04,2022-08-04,定園株式会社,,株式会社,京都府,京都市左京区,一乗寺塚本町９番地,00127420,26,103,6068176,,,,,,,2022-08-04,1,,,,,テイエン,0
2361,8140001126970,新規,0,2022-08-04,2022-08-04,株式会社ＡＮＧＬＥ,,株式会社,兵庫県,神戸市中央区,山本通４丁目１９番１５－４０７号,,28,110,6500003,,,,,,,2022-08-04,1,,,,,アングル,0
2364,8140003018002,新規,0,2022-08-04,2022-08-04,合同会社ＴＹＴカンパニー,,合同会社,兵庫県,加古川市,新神野７丁目１番８－１３号,,28,210,6750008,,,,,,,2022-08-04,1,,,,,ティーワイティーカンパニー,0
2365,8140005026275,新規,0,2022-08-04,2022-08-04,一般社団法人みずほの家,,その他の設立登記法人,兵庫県,丹波篠山市,北新町４８番地２０,,28,221,6692332,,,,,,,2022-08-04,1,,,,,ミズホノイエ,0
2366,8160001024413,新規,0,2022-08-04,2022-08-04,株式会社茂森農園,,株式会社,滋賀県,長浜市,布勢町１６１０番地,,25,203,5260825,,,,,,,2022-08-04,1,,,,,シゲモリノウエン,0
2367,8160001024421,新規,0,2022-08-04,2022-08-04,株式会社カネダ塗装店,,株式会社,滋賀県,高島市,新旭町旭８９３番地２１,,25,212,5201501,,,,,,,2022-08-04,1,,,,,カネダトソウテン,0
2378,8180001152451,新規,0,2022-08-04,2022-08-04,株式会社宮武組,,株式会社,愛知県,名古屋市緑区,大将ケ根１丁目２９１４番地,,23,114,4580822,,,,,,,2022-08-04,1,,,,,ミヤタケグミ,0
2381,8180003024112,新規,0,2022-08-04,2022-08-04,ＮＨＡＴ　ＭＩＮＨ合同会社,,合同会社,愛知県,名古屋市中川区,横堀町３丁目３１番地ジーニアスＩ、４０５号,,23,110,4540021,,,,,,,2022-08-04,1,,,,,ニウットミン,0
2387,8190001029665,新規,0,2022-08-04,2022-08-04,ＴＡＣＫＬＥ株式会社,,株式会社,三重県,津市,白山町二本木５２６番地,,24,201,5152602,,,,,,,2022-08-04,1,,,,,タックル,0
2389,8190003004047,新規,0,2022-08-04,2022-08-04,合同会社Ｅｐｉｌｉｓｓ,,合同会社,三重県,四日市市,西日野町５００５番地１ピュアハイムＡ－２０２,,24,202,5100943,,,,,,,2022-08-04,1,,,,,エピリス,0
2398,8220001024976,新規,0,2022-08-04,2022-08-04,株式会社フジサワビジネスコンサルティング,,株式会社,石川県,金沢市,野田２丁目５１,,17,201,9218107,,,,,,,2022-08-04,1,,,,,フジサワビジネスコンサルティング,0
2415,8280001008759,新規,0,2022-08-04,2022-08-04,株式会社ダイキ自動車,,株式会社,島根県,松江市,東出雲町揖屋２１５２番地１４,,32,201,6990101,,,,,,,2022-08-04,1,,,,,ダイキジドウシャ,0
2418,8290001098477,新規,0,2022-08-04,2022-08-04,株式会社サンタトレンド,,株式会社,福岡県,糟屋郡粕屋町,仲原１丁目１３番１５号,,40,349,8112304,,,,,,,2022-08-04,1,,,,,サンタトレンド,0
2421,8300001013021,新規,0,2022-08-04,2022-08-04,株式会社金剛丸,,株式会社,佐賀県,杵島郡白石町,大字深浦１２５番地５,,41,425,8491207,,,,,,,2022-08-04,1,,,,,コンゴウマル,0
2423,8310001017979,新規,0,2022-08-04,2022-08-04,株式会社長崎保温工業,,株式会社,長崎県,佐世保市,三浦町２０番４号４０６号,,42,202,8570863,,,,,,,2022-08-04,1,,,,,ナガサキホオンコウギョウ,0
2427,8330001029997,新規,0,2022-08-04,2022-08-04,株式会社内村創業,,株式会社,熊本県,菊池郡菊陽町,大字久保田１３５７番地,,43,404,8691103,,,,,,,2022-08-04,1,,,,,ウチムラソウギョウ,0
2434,8340003003875,新規,0,2022-08-04,2022-08-04,合同会社カネユミ建築,,合同会社,鹿児島県,鹿児島市,春山町２２８６番地３,,46,201,8992704,,,,,,,2022-08-04,1,,,,,カネユミケンチク,0
2436,8350001017892,新規,0,2022-08-04,2022-08-04,株式会社インフイニイテイ,,株式会社,宮崎県,延岡市,南町２丁目２番地１１,,45,203,8820822,,,,,,,2022-08-04,1,,,,,インフイニイテイ,0
2439,8360001030770,新規,0,2022-08-04,2022-08-04,株式会社コースト,,株式会社,沖縄県,うるま市,字具志川３０８４番地１,,47,213,9042223,,,,,,,2022-08-04,1,,,,,コースト,0
2440,8360001030779,新規,0,2022-08-04,2022-08-04,株式会社ヨシ,,株式会社,沖縄県,石垣市,字宮良１１７番地グランステージＫＩＮＡ３０３,,47,207,9070243,,,,,,,2022-08-04,1,,,,,ヨシ,0
2442,8360003012206,新規,0,2022-08-04,2022-08-04,合同会社翔総合リフォーム,,合同会社,沖縄県,うるま市,字天願１５７０番地１,,47,213,9042202,,,,,,,2022-08-04,1,,,,,カケルソウゴウリフォーム,0
2443,8370001048894,新規,0,2022-08-04,2022-08-04,株式会社ＳＢＣ,,株式会社,宮城県,仙台市宮城野区,岩切字谷地８番地４－１０２号,,04,102,9830821,,,,,,,2022-08-04,1,,,,,エスビーシー,0
2444,8370001048903,新規,0,2022-08-04,2022-08-04,株式会社サクシードサポート,,株式会社,宮城県,仙台市太白区,長町南３丁目７－６,,04,104,9820012,,,,,,,2022-08-04,1,,,,,サクシードサポート,0
2451,8400001015965,新規,0,2022-08-04,2022-08-04,株式会社南架設,,株式会社,岩手県,奥州市,水沢姉体町字山居前２番地７,,03,215,0230831,,,,,,,2022-08-04,1,,,,,ミナミカセツ,0
2464,8470001019183,新規,0,2022-08-04,2022-08-04,株式会社アマイロ,,株式会社,香川県,東かがわ市,松原６０番地,,37,207,7692702,,,,,,,2022-08-04,1,,,,,アマイロ,0
2469,8500001024378,新規,0,2022-08-04,2022-08-04,株式会社Ｓ‐ＷＩＬＬ,,株式会社,愛媛県,松山市,和泉南５丁目６番７号,,38,201,7900941,,,,,,,2022-08-04,1,,,,,エスウィル,0
2472,8700150111007,新規,0,2022-08-04,2022-08-04,ＮＩＰＰＯＮ　ＮＥＴ　ＥＮＴＥＲＰＲＩＳＥＳ,,外国会社等,千葉県,八街市,朝日２８４－１０－２,,12,230,2891101,スリランカ民主社会主義共和国、アクラナ、ブルゴハテンナ、Ｎｏ．５２／２,,,,,,2022-08-04,1,,,,,ニツポンネツトエンタープライズ,0
2494,9010001228531,新規,0,2022-08-04,2022-08-04,株式会社ｕ,,株式会社,東京都,中央区,銀座１丁目６番６号ＧＩＮＺＡＡＲＲＯＷＳ７Ｆ,,13,102,1040061,,,,,,,2022-08-04,1,,,,,ユー,0
2495,9010001228556,新規,0,2022-08-04,2022-08-04,株式会社ノックトゥーン,,株式会社,東京都,千代田区,外神田３丁目６番１７号フェニックスビル７Ｆ,,13,101,1010021,,,,,,,2022-08-04,1,,,,,ノックトゥーン,0
2496,9010001228564,新規,0,2022-08-04,2022-08-04,株式会社ｙｅｓｊａｐａｎ,,株式会社,東京都,中央区,築地２丁目８番１号,,13,102,1040045,,,,,,,2022-08-04,1,,,,,イエスジャパン,0
2500,9010003038318,新規,0,2022-08-04,2022-08-04,ＩＳＵＺＵ合同会社,,合同会社,東京都,中央区,日本橋茅場町２丁目１７番地９号長尾ビル３Ｆ,,13,102,1030025,,,,,,,2022-08-04,1,,,,,イスズ,0
2509,9010503006674,新規,0,2022-08-04,2022-08-04,合同会社グッドマインドワークス,,合同会社,東京都,台東区,寿１丁目１２番５－３０２号,,13,106,1110042,,,,,,,2022-08-04,1,,,,,グッドマインドワークス,0
2516,9010701043040,新規,0,2022-08-04,2022-08-04,株式会社ＯＲＡＮＧＥ　Ｗｏｒｋｓ,,株式会社,東京都,品川区,上大崎２丁目１５番１９号,,13,109,1410021,,,,,,,2022-08-04,1,,,,,オレンジワークス,0
2527,9010901051330,新規,0,2022-08-04,2022-08-04,株式会社ＣＡＮＡＴＡ,,株式会社,東京都,世田谷区,北沢２丁目２７番９号１Ｆ,,13,112,1550031,,,,,,,2022-08-04,1,,,,,カナタ,0
2528,9010901051347,新規,0,2022-08-04,2022-08-04,株式会社ＳＬＣ,,株式会社,東京都,世田谷区,等々力５丁目３０番１０号,,13,112,1580082,,,,,,,2022-08-04,1,,,,,エスエルシー,0
2531,9010903007561,新規,0,2022-08-04,2022-08-04,合同会社ナラティブプレイス,,合同会社,東京都,世田谷区,砧６丁目２７番１９号笑恵館,,13,112,1570073,,,,,,,2022-08-04,1,,,,,ナラティブプレイスナラ,0
2537,9011001148983,新規,0,2022-08-04,2022-08-04,株式会社ＪＯＧ　Ｊａｐａｎ,,株式会社,東京都,渋谷区,広尾３丁目４番８号ウヴラージュ広尾２０３,,13,113,1500012,,,,,,,2022-08-04,1,,,,,ジェイオージージャパン,0
2538,9011001149032,新規,0,2022-08-04,2022-08-04,株式会社マツミ,,株式会社,東京都,渋谷区,恵比寿１丁目９番１０号ドエリング恵比寿７０２号,,13,113,1500013,,,,,,,2022-08-04,1,,,,,マツミ,0
2539,9011002005523,新規,0,2022-08-04,2022-08-04,有限会社紫光商事,,有限会社,東京都,渋谷区,初台１丁目１番１３号,,13,113,1510061,,,,,,,2022-08-04,1,,,,,シコウショウジ,0
2540,9011003015158,新規,0,2022-08-04,2022-08-04,アールアンド合同会社,,合同会社,東京都,渋谷区,道玄坂１丁目１０番８号渋谷道玄坂東急ビル２Ｆ－Ｃ,,13,113,1500043,,,,,,,2022-08-04,1,,,,,アールアンド,0
2541,9011005009686,新規,0,2022-08-04,2022-08-04,弁理士法人桐朋,,その他の設立登記法人,東京都,渋谷区,代々木２丁目１番１号新宿マインズタワー,,13,113,1510053,,,,,,,2022-08-04,1,,,,,トウホウ,0
2547,9011101099747,新規,0,2022-08-04,2022-08-04,株式会社バルテックコミュニケーションズ,,株式会社,東京都,新宿区,西新宿６丁目２２番１号,,13,104,1600023,,,,,,,2022-08-04,1,,,,,バルテックコミュニケーションズ,0
2550,9011105010346,新規,0,2022-08-04,2022-08-04,弁護士法人東京ＦＡＩＲＷＡＹ法律事務所,,その他の設立登記法人,東京都,新宿区,四谷３丁目７番地６ＮＫ第８ビル５Ｆ,,13,104,1600004,,,,,,,2022-08-04,1,,,,,トウキョウフェアウエイホウリツジムショ,0
2551,9011201024010,新規,0,2022-08-04,2022-08-04,株式会社ラーニング,,株式会社,東京都,中野区,若宮３丁目４７番６号シルクコート鷺宮１０５,,13,114,1650033,,,,,,,2022-08-04,1,,,,,ラーニング,0
2556,9011403003737,新規,0,2022-08-04,2022-08-04,合同会社東京ビジネス,,合同会社,東京都,板橋区,東新町１丁目３５番８号柿木ハウス２０１,,13,119,1740074,,,,,,,2022-08-04,1,,,,,トウキョウビジネス,0
2559,9011603003669,新規,0,2022-08-04,2022-08-04,メディカルアセット合同会社,,合同会社,東京都,練馬区,貫井５丁目２４番１５号,,13,120,1760021,,,,,,,2022-08-04,1,,,,,メディカルアセット,0
2562,9012303001707,新規,0,2022-08-04,2022-08-04,合同会社よいしょ,,合同会社,東京都,町田市,金森東４丁目１番３号,,13,209,1940015,,,,,,,2022-08-04,1,,,,,ヨイショ,0
2563,9012401039491,新規,0,2022-08-04,2022-08-04,株式会社きそば中清,,株式会社,東京都,武蔵野市,吉祥寺本町４丁目４番１５号,,13,203,1800004,,,,,,,2022-08-04,1,,,,,キソバナカセイ,0
2564,9012401039500,新規,0,2022-08-04,2022-08-04,株式会社ＭＵＲＡＳＡＭＥ,,株式会社,東京都,府中市,新町２丁目５１番２６号,,13,206,1830052,,,,,,,2022-08-04,1,,,,,ムラサメ,0
2569,9013301049449,新規,0,2022-08-04,2022-08-04,株式会社Ｓｈｉｎｅ　Ｓｔｅｌｌａ,,株式会社,東京都,豊島区,西池袋１丁目２９番１４－２０４号,,13,116,1710021,,,,,,,2022-08-04,1,,,,,シャインステラ,0
2571,9013303006241,新規,0,2022-08-04,2022-08-04,合同会社ｋｉｔｒａｔ,,合同会社,東京都,豊島区,南大塚２丁目４５番１１号メゾンドールアム６０１号,,13,116,1700005,,,,,,,2022-08-04,1,,,,,キットラット,0
2575,9020001147573,新規,0,2022-08-04,2022-08-04,株式会社ｙ．エフォート,,株式会社,神奈川県,横浜市戸塚区,上矢部町７９６番地１０,,14,110,2450053,,,,,,,2022-08-04,1,,,,,ワイエフォート,0
2576,9020001147648,新規,0,2022-08-04,2022-08-04,株式会社ユウダイ,,株式会社,神奈川県,川崎市高津区,二子１丁目１９番７号ウィステリア玉川１０２,,14,134,2130002,,,,,,,2022-08-04,1,,,,,ユウダイ,0
2586,9021001076663,新規,0,2022-08-04,2022-08-04,株式会社ＴＲＵＮＫ,,株式会社,神奈川県,大和市,林間２丁目１番２５号ルックハイツ南林間１０５,,14,213,2420003,,,,,,,2022-08-04,1,,,,,トランク,0
2587,9021001076696,新規,0,2022-08-04,2022-08-04,株式会社想希建設,,株式会社,神奈川県,厚木市,上落合６７５番地２,,14,212,2430025,,,,,,,2022-08-04,1,,,,,ソウキケンセツ,0
2588,9021001076705,新規,0,2022-08-04,2022-08-04,株式会社ＳＡＴＴＯ,,株式会社,神奈川県,大和市,南林間８丁目２－１０－２,,14,213,2420006,,,,,,,2022-08-04,1,,,,,サット,0
2591,9021003012006,新規,0,2022-08-04,2022-08-04,合同会社Ｇｊａｍ,,合同会社,神奈川県,相模原市緑区,下九沢２１３２番地２５,,14,151,2520134,,,,,,,2022-08-04,1,,,,,ジージャム,0
2592,9021003012014,新規,0,2022-08-04,2022-08-04,合同会社アジール,,合同会社,神奈川県,高座郡寒川町,一之宮１丁目８－１２,,14,321,2530111,,,,,,,2022-08-04,1,,,,,アジール,0
2595,9030001149503,新規,0,2022-08-04,2022-08-04,株式会社ＳＥ．ナンバー,,株式会社,埼玉県,草加市,氷川町１６１番地１３,,11,221,3400034,,,,,,,2022-08-04,1,,,,,エスイーナンバー,0
2596,9030001149528,新規,0,2022-08-04,2022-08-04,株式会社ハイライトクリーン,,株式会社,埼玉県,秩父市,定峰３番地４,,11,207,3680003,,,,,,,2022-08-04,1,,,,,ハイライトクリーン,0
2597,9030001149569,新規,0,2022-08-04,2022-08-04,株式会社スマートテックシステムズ,,株式会社,埼玉県,久喜市,西大輪３７１番地１メイゾン東鷲宮５０２号,,11,232,3400206,,,,,,,2022-08-04,1,,,,,スマートテックシステムズ,0
2599,9030003019927,新規,0,2022-08-04,2022-08-04,光男合同会社,,合同会社,埼玉県,越谷市,大字船渡１７３６番地１,,11,222,3430003,,,,,,,2022-08-04,1,,,,,ヒカルオ,0
2604,9030005020949,新規,0,2022-08-04,2022-08-04,霞ヶ関税理士法人,,その他の設立登記法人,埼玉県,川越市,東田町５番地３３,,11,201,3501114,,,,,,,2022-08-04,1,,,,,カスミガセキ,0
2611,9040001124554,新規,0,2022-08-04,2022-08-04,株式会社雲盛テック,,株式会社,千葉県,松戸市,小根本５１番地２レジデンスユーカリ３０５号室,,12,207,2710073,,,,,,,2022-08-04,1,,,,,ウンセイテック,0
2612,9040001124595,新規,0,2022-08-04,2022-08-04,株式会社建石事務所,,株式会社,千葉県,船橋市,本町７丁目２３番１９号,,12,204,2730005,,,,,,,2022-08-04,1,,,,,タテイシジムショ,0
2615,9040003020561,新規,0,2022-08-04,2022-08-04,日本ＣＡＲ’Ｓ合同会社,,合同会社,千葉県,香取郡多古町,出沼１５６－４６,,12,347,2892301,,,,,,,2022-08-04,1,,,,,ニホンカース,0
2616,9050001051509,新規,0,2022-08-04,2022-08-04,株式会社日環総,,株式会社,茨城県,水戸市,元吉田町２２５番地,,08,201,3100836,,,,,,,2022-08-04,1,,,,,ニッカンソウ,0
2626,9110001036866,新規,0,2022-08-04,2022-08-04,オールエイト株式会社,,株式会社,新潟県,新潟市東区,松崎２丁目１５番８号,,15,102,9500014,,,,,,,2022-08-04,1,,,,,オールエイト,0
2641,9120001247891,新規,0,2022-08-04,2022-08-04,ＪＵＫＥＳＷＥＬＬ株式会社,,株式会社,大阪府,大阪市北区,梅田１丁目１－３大阪駅前第３ビル２９階１－１－１号室,,27,127,5300001,,,,,,,2022-08-04,1,,,,,ジュークスウェル,0
2642,9120001247900,新規,0,2022-08-04,2022-08-04,株式会社ココロミ,,株式会社,大阪府,大阪市東住吉区,西今川１丁目１４番２３号プライムタワー西今川１Ｆ,,27,121,5460042,,,,,,,2022-08-04,1,,,,,ココロミ,0
2643,9120001247933,新規,0,2022-08-04,2022-08-04,ＷＡＶＶ株式会社,,株式会社,大阪府,守口市,南寺方東通４丁目２０番２３号,,27,209,5700043,,,,,,,2022-08-04,1,,,,,ワイフ,0
2644,9120001247941,新規,0,2022-08-04,2022-08-04,株式会社ＣＥＬＩＮＡ．,,株式会社,大阪府,大阪市中央区,西心斎橋１丁目１０番１７号ポポロビル４階Ｓ号,,27,128,5420086,,,,,,,2022-08-04,1,,,,,セリーナ,0
2645,9120001247966,新規,0,2022-08-04,2022-08-04,株式会社金昌,,株式会社,大阪府,門真市,江端町４番１６号,,27,223,5710012,,,,,,,2022-08-04,1,,,,,カネマサ,0
2646,9120001247982,新規,0,2022-08-04,2022-08-04,株式会社ダイヤホーム,,株式会社,大阪府,大阪市東住吉区,駒川２丁目２番５－８０２号,,27,121,5460043,,,,,,,2022-08-04,1,,,,,ダイヤホーム,0
2655,9120101065970,新規,0,2022-08-04,2022-08-04,株式会社ＡＳＴＡＲ,,株式会社,大阪府,堺市東区,西野１１１番地２０・１Ｆ,,27,143,5998125,,,,,,,2022-08-04,1,,,,,アスター,0
2664,9120903004259,新規,0,2022-08-04,2022-08-04,合同会社価値創造,,合同会社,大阪府,高槻市,玉川２丁目１８番３０３号,,27,207,5690857,,,,,,,2022-08-04,1,,,,,カチソウゾウ,0
2667,9130005016540,新規,0,2022-08-04,2022-08-04,一般社団法人日本リボニスト協会,,その他の設立登記法人,京都府,京都市上京区,元百万遍町５４２番地,,26,102,6020953,,,,,,,2022-08-04,1,,,,,ニホンリボニストキョウカイ,0
2672,9140001126961,新規,0,2022-08-04,2022-08-04,株式会社ＴＡＬＯ,,株式会社,兵庫県,伊丹市,伊丹４丁目６番１４号,,28,207,6640846,,,,,,,2022-08-04,1,,,,,タロ,0
2673,9140001126994,新規,0,2022-08-04,2022-08-04,株式会社コムフィー,,株式会社,兵庫県,姫路市,西新町１２５番地,,28,201,6700033,,,,,,,2022-08-04,1,,,,,コムフィー,0
2677,9140003018001,新規,0,2022-08-04,2022-08-04,合同会社シバ,,合同会社,兵庫県,伊丹市,野間５丁目１番７号,,28,207,6640873,,,,,,,2022-08-04,1,,,,,シバ,0
2686,9180001152467,新規,0,2022-08-04,2022-08-04,株式会社アドアストラ,,株式会社,愛知県,名古屋市千種区,田代町字蝮池上１０８番地の１９５,,23,101,4640054,,,,,,,2022-08-04,1,,,,,アドアストラ,0
2687,9180001152517,新規,0,2022-08-04,2022-08-04,株式会社豊和,,株式会社,愛知県,名古屋市中村区,十王町１５番１２号,,23,105,4530035,,,,,,,2022-08-04,1,,,,,ホウワ,0
2695,9180305009371,新規,0,2022-08-04,2022-08-04,一般財団法人東三河スポーツ地域振興財団,,その他の設立登記法人,愛知県,豊橋市,植田町字大膳３９番地の５,,23,201,4418134,,,,,,,2022-08-04,1,,,,,ヒガシミカワスポーツチイキシンコウザイダン,0
2696,9190001029664,新規,0,2022-08-04,2022-08-04,株式会社ｏｆｆｉｉｃｅ．ｋ,,株式会社,三重県,いなべ市,北勢町下平３１５番地,,24,214,5110418,,,,,,,2022-08-04,1,,,,,オフィスケイ,0
2704,9220001024975,新規,0,2022-08-04,2022-08-04,株式会社叶聖,,株式会社,石川県,輪島市,鳳至町石浦町４３番地４,,17,204,9280076,,,,,,,2022-08-04,1,,,,,カノウセイ,0
2707,9240001060184,新規,0,2022-08-04,2022-08-04,株式会社Ｒｅ‐Ｃｌｏｕｄ,,株式会社,広島県,庄原市,中本町１丁目８番１号２Ｆ,,34,210,7270012,,,,,,,2022-08-04,1,,,,,リクラウド,0
2713,9250001019700,新規,0,2022-08-04,2022-08-04,株式会社アイプラント,,株式会社,山口県,宇部市,大字際波２４４５番地５,,35,202,7590207,,,,,,,2022-08-04,1,,,,,アイプラント,0
2720,9260001037115,新規,0,2022-08-04,2022-08-04,株式会社たむら,,株式会社,岡山県,井原市,門田町４３６９番地,,33,207,7150005,,,,,,,2022-08-04,1,,,,,タムラ,0
2722,9290001098468,新規,0,2022-08-04,2022-08-04,株式会社みつば,,株式会社,福岡県,福岡市南区,大橋２丁目２番１７号大橋駅南クリニックビル４階,,40,134,8150033,,,,,,,2022-08-04,1,,,,,ミツバ,0
2723,9290001098484,新規,0,2022-08-04,2022-08-04,株式会社Ｔｓｕｋｕｓｈｉ,,株式会社,福岡県,福岡市西区,姪浜駅南３丁目１５－２４－５０１,,40,135,8190006,,,,,,,2022-08-04,1,,,,,ツクシ,0
2724,9290001098492,新規,0,2022-08-04,2022-08-04,株式会社ＴＯＬＦ,,株式会社,福岡県,福岡市東区,名島３丁目２２番１６号,,40,131,8130043,,,,,,,2022-08-04,1,,,,,トルフ,0
2733,9330001029988,新規,0,2022-08-04,2022-08-04,株式会社Ｍ’ｓテクニカル,,株式会社,熊本県,熊本市南区,八分字町３０６番地９,,43,104,8615253,,,,,,,2022-08-04,1,,,,,エムズテクニカル,0
2738,9330003009476,新規,0,2022-08-04,2022-08-04,合同会社サクラージュ,,合同会社,熊本県,熊本市北区,植木町豊田８３０番地１,,43,105,8610106,,,,,,,2022-08-04,1,,,,,サクラージュ,0
2750,9360003012205,新規,0,2022-08-04,2022-08-04,合同会社Ｇｒａｎｄ　Ｇｒｏｗ　ｕｐ,,合同会社,沖縄県,中頭郡西原町,上原２丁目２９番地の１１スリークロック３－Ｄ,,47,329,9030125,,,,,,,2022-08-04,1,,,,,,0
2760,9400001015964,新規,0,2022-08-04,2022-08-04,株式会社ＴｅＹ,,株式会社,岩手県,岩手郡葛巻町,葛巻第３９地割１５９番地３,,03,302,0285402,,,,,,,2022-08-04,1,,,,,ティーイーワイ,0
2761,9410001013249,新規,0,2022-08-04,2022-08-04,株式会社船建,,株式会社,秋田県,男鹿市,船川港船川字新浜町６０番地３,,05,206,0100511,,,,,,,2022-08-04,1,,,,,フナケン,0
2765,9430001087191,新規,0,2022-08-04,2022-08-04,株式会社マリンサービス,,株式会社,北海道,苫小牧市,永福町２丁目７番７号,,01,213,0530815,,,,,,,2022-08-04,1,,,,,マリンサービス,0
2769,9480001011816,新規,0,2022-08-04,2022-08-04,株式会社Ｘｅｎｏ,,株式会社,徳島県,徳島市,応神町西貞方字小島１０２番地４,,36,201,7711155,,,,,,,2022-08-04,1,,,,,ゼノ,0
2770,9490001010247,新規,0,2022-08-04,2022-08-04,株式会社井上自動車,,株式会社,高知県,吾川郡仁淀川町,見ノ越２２６番地１,,39,387,7811604,,,,,,,2022-08-04,1,,,,,イノウエジドウシャ,0
2772,9500001024377,新規,0,2022-08-04,2022-08-04,友岡株式会社,,株式会社,愛媛県,松山市,中村３丁目２番５１号,,38,201,7900964,,,,,,,2022-08-04,1,,,,,トモオカ,0
2778,9700150109149,新規,0,2022-08-04,2022-05-31,劇団クアトロ,,その他,東京都,江東区,牡丹３丁目１－６－３０４,,13,108,1350046,,,,,,,2022-05-31,1,,,,,ゲキダンクアトロ,0
2779,9700150111006,新規,0,2022-08-04,2022-08-04,Ａｙｙａｎ　Ａｕｔｏ　Ｃｏｒｐｏｒａｔｉｏｎ,,外国会社等,千葉県,八街市,朝日２８４－１０,,12,230,2891101,スリランカ民主社会主義共和国、マーワタガマ、クルネガラロード、Ｎｏ．２７４,,,,,,2022-08-04,1,,,,,アヤンオートコーポレーシヨン,0
2780,9700150111022,新規,0,2022-08-04,2022-08-04,栄土地改良区,,その他,三重県,鈴鹿市,秋永町４４３,,24,207,5100258,,,,,,,2022-08-04,1,,,,,サカエトチカイリヨウク,0
