sequenceNumber,corporateNumber,process,correct,updateDate,changeDate,name,nameImageId,kind,prefectureName,cityName,streetNumber,addressImageId,prefectureCode,cityCode,postCode,addressOutside,addressOutsideImageId,closeDate,closeCause,successorCorporateNumber,changeCause,assignmentDate,latest,enName,enPrefectureName,enCityName,enAddressOutside,furigana,hihyoji
8,1010001223003,新規,0,2021-12-07,2021-12-07,株式会社ＫＵＭＡＤＹ,,株式会社,東京都,文京区,音羽１丁目１６番９号,,13,105,1120013,,,,,,,2021-12-07,1,,,,,クマディ,0
9,1010001223036,新規,0,2021-12-07,2021-12-07,ＦＯＮＴＥＣ　Ｓｏｌｕｔｉｏｎ株式会社,,株式会社,東京都,千代田区,九段南１丁目５－６りそな九段ビル５ＦＫＳフロア,,13,101,1020074,,,,,,,2021-12-07,1,,,,,フォンテックソリューション,0
10,1010003036444,新規,0,2021-12-07,2021-12-07,新日本機構合同会社,,合同会社,東京都,千代田区,麹町４丁目５番地２１紀尾井町ＰＲＥＸ１０階,,13,101,1020083,,,,,,,2021-12-07,1,,,,,シンニホンキコウ,0
11,1010003036469,新規,0,2021-12-07,2021-12-07,合同会社ＡｎｄＹ,,合同会社,東京都,中央区,銀座７丁目１５番８号タウンハイツ銀座４０６,,13,102,1040061,,,,,,,2021-12-07,1,,,,,アンドワイ,0
12,1010003036477,新規,0,2021-12-07,2021-12-07,合同会社Ｒ４Ｃ,,合同会社,東京都,中央区,築地３丁目１番１８号ベルミエ２階,,13,102,1040045,,,,,,,2021-12-07,1,,,,,アールフォーシー,0
15,1010401164202,新規,0,2021-12-07,2021-12-07,ランスコンサルティング株式会社,,株式会社,東京都,港区,浜松町２丁目２番１５号浜松町ダイヤビル２Ｆ,,13,103,1050013,,,,,,,2021-12-07,1,,,,,ランスコンサルティング,0
16,1010401164210,新規,0,2021-12-07,2021-12-07,ＬｉＴＭＵＳ株式会社,,株式会社,東京都,港区,赤坂９丁目７番１号,,13,103,1070052,,,,,,,2021-12-07,1,,,,,リトマス,0
17,1010401164227,新規,0,2021-12-07,2021-12-07,株式会社ＮＯＮ－ＷＡＳＴＥ,,株式会社,東京都,港区,赤坂８丁目５番４０号ＰＥＧＡＳＵＳＡＯＹＡＭＡ２１０,,13,103,1070052,,,,,,,2021-12-07,1,,,,,ノンウエイスト,0
18,1010401164326,新規,0,2021-12-07,2021-12-07,株式会社アーチ,,株式会社,東京都,港区,新橋６丁目１１番８号ＰＯＲＴＯＮＥＳＨＩＭＢＡＳＨＩ,,13,103,1050004,,,,,,,2021-12-07,1,,,,,アーチ,0
20,1010403026656,新規,0,2021-12-07,2021-12-07,ＷＯＲＫＷＡＲＥ合同会社,,合同会社,東京都,港区,赤坂２丁目２１番４号天翔赤坂ＡＮＮＥＸビル２１５号室,,13,103,1070052,,,,,,,2021-12-07,1,,,,,ワークウェア,0
21,1010405020483,新規,0,2021-12-07,2021-12-07,一般社団法人Ｍａｒｂｌｅ１,,その他の設立登記法人,東京都,港区,元麻布３丁目１番６号,,13,103,1060046,,,,,,,2021-12-07,1,,,,,マーブルワン,0
22,1010501048180,新規,0,2021-12-07,2021-12-07,株式会社オキナ商事,,株式会社,東京都,台東区,池之端１丁目１番１号ＭＫ池之端ビル２Ｆ,,13,106,1100008,,,,,,,2021-12-07,1,,,,,オキナショウジ,0
24,1010601060325,新規,0,2021-12-07,2021-12-07,株式会社ＭＳ　ＡＳＳＥＴ　ＭＡＮＡＧＥＭＥＮＴ,,株式会社,東京都,江東区,有明２丁目１番３－２４１３号,,13,108,1350063,,,,,,,2021-12-07,1,,,,,エムエスアセットマネジメント,0
26,1010701041885,新規,0,2021-12-07,2021-12-07,株式会社メディアクラウド,,株式会社,東京都,品川区,西品川１丁目１番１号住友不動産大崎ガーデンタワー９階,,13,109,1410033,,,,,,,2021-12-07,1,,,,,メディアクラウド,0
28,1010703006028,新規,0,2021-12-07,2021-12-07,合同会社Ｇｏｏｄ　Ｂｌｅｓｓ,,合同会社,東京都,品川区,東品川４丁目１１番３６－４２６号,,13,109,1400002,,,,,,,2021-12-07,1,,,,,グッドブレス,0
30,1010801032553,新規,0,2021-12-07,2021-12-07,株式会社あっちこっち商会,,株式会社,東京都,大田区,西糀谷１丁目２２番１９号ピア―チェ・ウチムラパートＸ２０１,,13,111,1440034,,,,,,,2021-12-07,1,,,,,アッチコッチショウカイ,0
37,1010903006991,新規,0,2021-12-07,2021-12-07,合同会社ＩＳＨＯＮＣＨ,,合同会社,東京都,世田谷区,代田５丁目１７番１８号ｅｘａｍ－ｓｈｉｍｏｋｉｔａｚａｗａ１０３,,13,112,1550033,,,,,,,2021-12-07,1,,,,,イションチ,0
44,1011001144296,新規,0,2021-12-07,2021-12-07,株式会社清須物流開発,,株式会社,東京都,渋谷区,代官山町２０番９号,,13,113,1500034,,,,,,,2021-12-07,1,,,,,キヨスブツリュウカイハツ,0
45,1011001144321,新規,0,2021-12-07,2021-12-07,株式会社中錦,,株式会社,東京都,渋谷区,道玄坂１丁目１５番３号プリメーラ道玄坂３０２,,13,113,1500043,,,,,,,2021-12-07,1,,,,,チュウキン,0
46,1011001144395,新規,0,2021-12-07,2021-12-07,株式会社ＥＳＵＪＩ,,株式会社,東京都,渋谷区,恵比寿西１丁目１４番６号６階,,13,113,1500021,,,,,,,2021-12-07,1,,,,,エスジ,0
48,1011003013788,新規,0,2021-12-07,2021-12-07,合同会社ｂｏｎｈｅｕｒ,,合同会社,東京都,渋谷区,渋谷２丁目１９－１５宮益坂ビルディング６０９,,13,113,1500002,,,,,,,2021-12-07,1,,,,,ボヌール,0
49,1011003013813,新規,0,2021-12-07,2021-12-07,合同会社ＰｅａｃｈＳｑｕａｄ,,合同会社,東京都,渋谷区,神宮前６丁目２３－４桑野ビル２階,,13,113,1500001,,,,,,,2021-12-07,1,,,,,ピーチスカッド,0
51,1011005009339,新規,0,2021-12-07,2021-12-07,一般社団法人ヒルソング東京,,その他の設立登記法人,東京都,渋谷区,恵比寿西２丁目１９番９号フランセスビル,,13,113,1500021,,,,,,,2021-12-07,1,,,,,ヒルソングトウキョウ,0
52,1011101097122,新規,0,2021-12-07,2021-12-07,株式会社ＩＧＡ,,株式会社,東京都,新宿区,高田馬場３丁目２１－４,,13,104,1690075,,,,,,,2021-12-07,1,,,,,アイジーエー,0
53,1011101097139,新規,0,2021-12-07,2021-12-07,株式会社ラトゥールマネジメント,,株式会社,東京都,新宿区,西新宿１丁目２５－１新宿センタービル４９階,,13,104,1600023,,,,,,,2021-12-07,1,,,,,ラトゥールマネジメント,0
62,1011503004997,新規,0,2021-12-07,2021-12-07,合同会社Ｍ＆Ｎ　Ｃｏｒｐｏｒａｔｉｏｎ,,合同会社,東京都,北区,赤羽西３丁目１０番２２号,,13,117,1150055,,,,,,,2021-12-07,1,,,,,エムアンドエヌコーポレーション,0
63,1011703003015,新規,0,2021-12-07,2021-12-07,合同会社プロフィットワン,,合同会社,東京都,江戸川区,平井７丁目３４番３７号,,13,123,1320035,,,,,,,2021-12-07,1,,,,,プロフィットワン,0
69,1012301012787,新規,0,2021-12-07,2021-12-07,株式会社ＭＩＹＡＢＩ　ＭＡＲＫ,,株式会社,東京都,町田市,成瀬７丁目９番１４号,,13,209,1940044,,,,,,,2021-12-07,1,,,,,ミヤビマーク,0
70,1012401038617,新規,0,2021-12-07,2021-12-07,株式会社Ｔ．Ｓ．ｂｒａｎｃｈ,,株式会社,東京都,小金井市,桜町３丁目３番５号,,13,210,1840005,,,,,,,2021-12-07,1,,,,,ティーエスブランチ,0
78,1012801021255,新規,0,2021-12-07,2021-12-07,株式会社ｗｉｔｈＴＩＭＥ,,株式会社,東京都,日野市,旭が丘２丁目１２番地の４,,13,212,1910065,,,,,,,2021-12-07,1,,,,,ウィズタイム,0
80,1013301048375,新規,0,2021-12-07,2021-12-07,株式会社ＳｕｑｑｉＲｅｓｅｔ,,株式会社,東京都,豊島区,目白１丁目３番１７－Ｃ棟８０８号,,13,116,1710031,,,,,,,2021-12-07,1,,,,,スッキリセット,0
89,1020003020876,新規,0,2021-12-07,2021-12-07,合同会社あすだち,,合同会社,神奈川県,横浜市保土ケ谷区,今井町４１２番地５ヴィルヌーブ保土ケ谷１０２号,,14,106,2400035,,,,,,,2021-12-07,1,,,,,アスダチ,0
90,1020003020950,新規,0,2021-12-07,2021-12-07,合同会社アメリ,,合同会社,神奈川県,横浜市磯子区,磯子７丁目１５番２－３１８号,,14,107,2350016,,,,,,,2021-12-07,1,,,,,アメリ,0
92,1020005015296,新規,0,2021-12-07,2021-12-07,医療法人社団ヴィンテージ,,その他の設立登記法人,神奈川県,横浜市中区,尾上町５丁目６９番地ＫＩＴ関内ビル８，９階,,14,104,2310015,,,,,,,2021-12-07,1,,,,,ヴィンテージ,0
94,1021005012366,新規,0,2021-12-07,2021-12-07,医療法人社団とばやま歯科クリニック,,その他の設立登記法人,神奈川県,綾瀬市,深谷上２丁目３番１６号,,14,218,2521108,,,,,,,2021-12-07,1,,,,,トバヤマシカクリニック,0
103,1030001145708,新規,0,2021-12-07,2021-12-07,健翔商事株式会社,,株式会社,埼玉県,熊谷市,上川上６番地１,,11,202,3600004,,,,,,,2021-12-07,1,,,,,ケンショウショウジ,0
107,1030003018457,新規,0,2021-12-07,2021-12-07,合同会社アメーラ,,合同会社,埼玉県,川口市,青木５丁目１０番３７号,,11,203,3320031,,,,,,,2021-12-07,1,,,,,アメーラ,0
116,1040001121294,新規,0,2021-12-07,2021-12-07,株式会社須見建設,,株式会社,千葉県,市原市,八幡海岸通２０番地２第１２キャッスルコーポ八幡宿１０２,,12,219,2900067,,,,,,,2021-12-07,1,,,,,スミケンセツ,0
121,1050001050220,新規,0,2021-12-07,2021-12-07,株式会社Ｃｌｏｓｅｒ,,株式会社,茨城県,つくば市,天王台１丁目１番地１産学リエゾン共同研究センター棟２０２,,08,220,3050006,,,,,,,2021-12-07,1,,,,,クローサー,0
127,1060003003893,新規,0,2021-12-07,2021-12-07,日本法務合同会社,,合同会社,栃木県,下都賀郡壬生町,大字壬生丁２１５番地１１,,09,361,3210216,,,,,,,2021-12-07,1,,,,,ニッポンホウム,0
128,1070001038718,新規,0,2021-12-07,2021-12-07,株式会社ＯＮＥ　ＨＯＵＳＩＮＧ,,株式会社,群馬県,伊勢崎市,連取町３３３７番地１,,10,204,3720812,,,,,,,2021-12-07,1,,,,,ワンハウジング,0
134,1080003002695,新規,0,2021-12-07,2021-12-07,ＳｅｔｏｙａＴｅａ合同会社,,合同会社,静岡県,藤枝市,滝沢１３２５番地の１,,22,214,4260134,,,,,,,2021-12-07,1,,,,,セトヤティー,0
138,1110003004630,新規,0,2021-12-07,2021-12-07,合同会社ＫＡＮＡＥＲＵホーム,,合同会社,新潟県,新潟市北区,島見町２５１,,15,101,9503102,,,,,,,2021-12-07,1,,,,,カナエルホーム,0
151,1120001242173,新規,0,2021-12-07,2021-12-07,Ｌｕｍｉｅｒｅ株式会社,,株式会社,大阪府,大阪市城東区,永田３丁目３番２３号,,27,118,5360022,,,,,,,2021-12-07,1,,,,,ルミエール,0
152,1120001242289,新規,0,2021-12-07,2021-12-07,株式会社三恵建設工業,,株式会社,大阪府,大阪市中央区,本町４丁目５番４号ＧＴＣビル５階,,27,128,5410053,,,,,,,2021-12-07,1,,,,,サンケイケンセツコウギョウ,0
153,1120001242330,新規,0,2021-12-07,2021-12-07,株式会社ルミナスワン,,株式会社,大阪府,大阪市住吉区,庭井２丁目２番１－３０１号,,27,120,5580012,,,,,,,2021-12-07,1,,,,,ルミナスワン,0
154,1120001242363,新規,0,2021-12-07,2021-12-07,株式会社ＦＵＴＡＢＡ,,株式会社,大阪府,大阪市中央区,日本橋２丁目１２番２７号,,27,128,5420073,,,,,,,2021-12-07,1,,,,,フタバ,0
155,1120001242371,新規,0,2021-12-07,2021-12-07,マグノリア株式会社,,株式会社,大阪府,大阪市北区,堂島浜２丁目２番２８号堂島アクシスビル４階,,27,127,5300004,,,,,,,2021-12-07,1,,,,,マグノリア,0
159,1120003020726,新規,0,2021-12-07,2021-12-07,合同会社エムケーオー,,合同会社,大阪府,寝屋川市,池田２丁目７番２号,,27,215,5720039,,,,,,,2021-12-07,1,,,,,エムケーオー,0
165,1120101064749,新規,0,2021-12-07,2021-12-07,株式会社ｃｒｅｗ,,株式会社,大阪府,大阪狭山市,今熊１丁目１３３番地の３０,,27,231,5890021,,,,,,,2021-12-07,1,,,,,クルー,0
168,1120901045295,新規,0,2021-12-07,2021-12-07,株式会社エム・アンド・ティー,,株式会社,大阪府,高槻市,松が丘３丁目１４番１８号,,27,207,5691031,,,,,,,2021-12-07,1,,,,,エムアンドティー,0
169,1120901045312,新規,0,2021-12-07,2021-12-07,株式会社ＣＯＭＥＬ,,株式会社,大阪府,茨木市,大住町１０番１０号ラルジュコリーヌ３０２号,,27,211,5670813,,,,,,,2021-12-07,1,,,,,コメル,0
170,1120903003929,新規,0,2021-12-07,2021-12-07,ソクエルジャパン合同会社,,合同会社,大阪府,吹田市,山田東１丁目３１番Ａ－５１８号,,27,205,5650821,,,,,,,2021-12-07,1,,,,,ソクエルジャパン,0
174,1130001070656,新規,0,2021-12-07,2021-12-07,株式会社７ｇｒａｍ,,株式会社,京都府,長岡京市,開田４丁目１－９Ｎ×Ｎ、２Ｆ,,26,209,6170826,,,,,,,2021-12-07,1,,,,,ナナグラム,0
175,1130001070672,新規,0,2021-12-07,2021-12-07,アルダン・ジャパン株式会社,,株式会社,京都府,京都市伏見区,深草藪之内町１８番地１１,,26,109,6120882,,,,,,,2021-12-07,1,,,,,アルダンジャパン,0
180,1140001124114,新規,0,2021-12-07,2021-12-07,株式会社ＸＲ　Ｃｉｔｙ　Ｌａｂ,,株式会社,兵庫県,神戸市中央区,江戸町８５－１ベイ・ウイング神戸ビル１０Ｆ,,28,110,6500033,,,,,,,2021-12-07,1,,,,,エックスアールシティラボ,0
184,1140003017068,新規,0,2021-12-07,2021-12-07,ＡＲＴｉ　Ｆａｂｂ合同会社,,合同会社,兵庫県,川辺郡猪名川町,若葉１丁目８番地１３,,28,301,6660251,,,,,,,2021-12-07,1,,,,,アルティファブ,0
185,1140005025936,新規,0,2021-12-07,2021-12-07,一般社団法人あまはれ福祉会,,その他の設立登記法人,兵庫県,姫路市,御立西１丁目１６番地１号,,28,201,6700074,,,,,,,2021-12-07,1,,,,,アマハレフクシカイ,0
187,1150003002556,新規,0,2021-12-07,2021-12-07,ｅｎをつくる合同会社,,合同会社,奈良県,天理市,小路町５５番地１２,,29,204,6320096,,,,,,,2021-12-07,1,,,,,エンヲツクル,0
189,1170001016894,新規,0,2021-12-07,2021-12-07,株式会社ナカラブ,,株式会社,和歌山県,和歌山市,湊紺屋町２丁目４３番地ソトハマビル２Ｆ,,30,201,6408221,,,,,,,2021-12-07,1,,,,,ナカラブ,0
190,1170001016903,新規,0,2021-12-07,2021-12-07,株式会社Ｓａｎｏ,,株式会社,和歌山県,岩出市,川尻３－１,,30,209,6496231,,,,,,,2021-12-07,1,,,,,サノ,0
197,1180001149000,新規,0,2021-12-07,2021-12-07,フォルテ工業株式会社,,株式会社,愛知県,瀬戸市,八床町１１２番地１９,,23,204,4801206,,,,,,,2021-12-07,1,,,,,フォルテ,0
198,1180001149009,新規,0,2021-12-07,2021-12-07,株式会社ＫＣクリエイト,,株式会社,愛知県,知多郡東浦町,大字生路字前田１１４番地の７,,23,442,4702104,,,,,,,2021-12-07,1,,,,,ケイシークリエイト,0
204,1180003023260,新規,0,2021-12-07,2021-12-07,合同会社ＫＥＶＩＮ,,合同会社,愛知県,名古屋市中村区,向島町３丁目７番地の１,,23,105,4530838,,,,,,,2021-12-07,1,,,,,ケヴィン,0
210,1180301035701,新規,0,2021-12-07,2021-12-07,株式会社サムテックファシリティ,,株式会社,愛知県,安城市,榎前町南榎２０２番地,,23,212,4441214,,,,,,,2021-12-07,1,,,,,サムテックファシリティ,0
222,1210001018721,新規,0,2021-12-07,2021-12-07,株式会社Ｋｕｌｉａ,,株式会社,福井県,越前市,平林町第１２号３５番地１,,18,209,9150044,,,,,,,2021-12-07,1,,,,,クーリア,0
227,1240001059028,新規,0,2021-12-07,2021-12-07,株式会社萌和,,株式会社,広島県,福山市,神辺町大字川南１０９３番地８,,34,207,7202124,,,,,,,2021-12-07,1,,,,,ホウワ,0
240,1260001036289,新規,0,2021-12-07,2021-12-07,株式会社ＨＥＲＡ,,株式会社,岡山県,倉敷市,神田１丁目５番１３号,,33,202,7128061,,,,,,,2021-12-07,1,,,,,ヘーラー,0
248,1290001095662,新規,0,2021-12-07,2021-12-07,株式会社ＴＦＡ,,株式会社,福岡県,小郡市,希みが丘２丁目１１番地１７,,40,216,8380107,,,,,,,2021-12-07,1,,,,,ティーエフエー,0
253,1290801028045,新規,0,2021-12-07,2021-12-07,技昭工業株式会社,,株式会社,福岡県,北九州市八幡西区,楠橋西２丁目９番５４号,,40,109,8071145,,,,,,,2021-12-07,1,,,,,ギショウコウギョウ,0
254,1290801028053,新規,0,2021-12-07,2021-12-07,株式会社イケマ,,株式会社,福岡県,北九州市若松区,赤島町９番１５号,,40,103,8080073,,,,,,,2021-12-07,1,,,,,イケマ,0
259,1310001017622,新規,0,2021-12-07,2021-12-07,株式会社祥栄建設,,株式会社,長崎県,北松浦郡佐々町,神田免１７３番地１,,42,391,8570336,,,,,,,2021-12-07,1,,,,,ショウエイケンセツ,0
268,1320005009953,新規,0,2021-12-07,2021-12-07,ニケ海外研修協同組合,,その他の設立登記法人,大分県,大分市,高城新町７番１４号西部ビル２－１０１号,,44,201,8700156,,,,,,,2021-12-07,1,,,,,ニケカイガイケンシュウ,0
272,1330001029260,新規,0,2021-12-07,2021-12-07,株式会社将生ミュージック,,株式会社,熊本県,熊本市中央区,新市街１３番１４号フタビルＩＩ９階,00125079,43,101,8600803,,,,,,,2021-12-07,1,,,,,ショウセイミュージック,0
275,1340001024319,新規,0,2021-12-07,2021-12-07,株式会社Ｈａｒｔｉｃｅ,,株式会社,鹿児島県,鹿児島市,宇宿４丁目１４番１１－１号,,46,201,8900073,,,,,,,2021-12-07,1,,,,,ハーティス,0
278,1360001029712,新規,0,2021-12-07,2021-12-07,株式会社オキジン,,株式会社,沖縄県,那覇市,若狭２丁目２－１９,,47,201,9000031,,,,,,,2021-12-07,1,,,,,オキジン,0
279,1360001029729,新規,0,2021-12-07,2021-12-07,株式会社クリーンプランＷｉｌｌ,,株式会社,沖縄県,那覇市,長田１丁目１８－１７,,47,201,9020077,,,,,,,2021-12-07,1,,,,,クリーンプランウィル,0
280,1360005006567,新規,0,2021-12-07,2021-12-07,社会福祉法人たこふじ福祉会,,その他の設立登記法人,沖縄県,豊見城市,字高安６６番地,,47,212,9010242,,,,,,,2021-12-07,1,,,,,タコフジフクシカイ,0
283,1370001047903,新規,0,2021-12-07,2021-12-07,株式会社藤建設,,株式会社,宮城県,白石市,田町２丁目２２９番７,,04,206,9890227,,,,,,,2021-12-07,1,,,,,フジケンセツ,0
295,1380001032383,新規,0,2021-12-07,2021-12-07,株式会社ＳＭＥＴＡＬ,,株式会社,福島県,郡山市,日和田町字朝日坦２９番地の１,,07,203,9630534,,,,,,,2021-12-07,1,,,,,エスメタル,0
299,1380003005065,新規,0,2021-12-07,2021-12-07,合同会社溝井商店,,合同会社,福島県,いわき市,錦町宮ノ前８０番地の１,,07,204,9748232,,,,,,,2021-12-07,1,,,,,ミゾイショウテン,0
306,1410001013033,新規,0,2021-12-07,2021-12-07,はかま建設株式会社,,株式会社,秋田県,横手市,大森町袴形字袴形４８番地１９,,05,203,0130502,,,,,,,2021-12-07,1,,,,,ハカマケンセツ,0
309,1430003013426,新規,0,2021-12-07,2021-12-07,エフジェティ合同会社,,合同会社,北海道,札幌市手稲区,富丘二条２丁目７番１３号７１０室,,01,109,0060012,,,,,,,2021-12-07,1,,,,,エフジェティ,0
316,1500001023857,新規,0,2021-12-07,2021-12-07,Ｋオートサービス株式会社,,株式会社,愛媛県,松山市,南江戸５丁目２番１８号,,38,201,7900062,,,,,,,2021-12-07,1,,,,,ケーオートサービス,0
327,2010001222994,新規,0,2021-12-07,2021-12-07,貝印ホールディングス株式会社,,株式会社,東京都,千代田区,岩本町３丁目９番５号,,13,101,1010032,,,,,,,2021-12-07,1,,,,,カイジルシホールディングス,0
328,2010001223043,新規,0,2021-12-07,2021-12-07,株式会社リベルクラフト,,株式会社,東京都,千代田区,内神田３丁目３番１４,,13,101,1010047,,,,,,,2021-12-07,1,,,,,リベルクラフト,0
336,2010401164201,新規,0,2021-12-07,2021-12-07,株式会社インシュアランスジャパン,,株式会社,東京都,港区,六本木６丁目１０番１号六本木ヒルズ森タワー３４階,,13,103,1060032,,,,,,,2021-12-07,1,,,,,インシュアランスジャパン,0
337,2010401164218,新規,0,2021-12-07,2021-12-07,ＴＦインベストメンツ株式会社,,株式会社,東京都,港区,六本木４丁目２番８－５０７号,,13,103,1060032,,,,,,,2021-12-07,1,,,,,ティーエフインベストメンツ,0
338,2010401164242,新規,0,2021-12-07,2021-12-07,株式会社高永,00125078,株式会社,東京都,港区,赤坂１丁目４番４号冨士野ビル５０３,,13,103,1070052,,,,,,,2021-12-07,1,,,,,タカナガ,0
339,2010403026647,新規,0,2021-12-07,2021-12-07,合同会社Ｄｅｅｒ,,合同会社,東京都,港区,高輪４丁目２３番６号ハイホーム高輪７０８,,13,103,1080074,,,,,,,2021-12-07,1,,,,,ディアー,0
340,2010403026655,新規,0,2021-12-07,2021-12-07,ＭＯＣＨＵＣＨＵ　ＰＥＴ合同会社,,合同会社,東京都,港区,三田１丁目３番４０号天翔オフィス麻布十番７１０号室,,13,103,1080073,,,,,,,2021-12-07,1,,,,,モチュチュペット,0
342,2010601060349,新規,0,2021-12-07,2021-12-07,株式会社戦力外通告,,株式会社,東京都,江東区,有明１丁目４－１１－３０２７,,13,108,1350063,,,,,,,2021-12-07,1,,,,,センリョクガイツウコク,0
344,2010603009294,新規,0,2021-12-07,2021-12-07,合同会社太市,,合同会社,東京都,江東区,大島６丁目１４番３－７０１号,,13,108,1360072,,,,,,,2021-12-07,1,,,,,オオイチ,0
345,2010701041884,新規,0,2021-12-07,2021-12-07,株式会社氏家塗装,,株式会社,東京都,品川区,南大井５丁目２１番１－１０６号,,13,109,1400013,,,,,,,2021-12-07,1,,,,,ウジイエトソウ,0
359,2011001144147,新規,0,2021-12-07,2021-12-07,株式会社サイバーコネクト,,株式会社,東京都,渋谷区,東３丁目１４番４号ｕｎｉｔｏＥＢＩＳＵ２０２,,13,113,1500011,,,,,,,2021-12-07,1,,,,,サイバーコネクト,0
365,2011003013795,新規,0,2021-12-07,2021-12-07,Ｈ．Ｅ合同会社,,合同会社,東京都,目黒区,三田１丁目４番３－６１３号,,13,110,1530062,,,,,,,2021-12-07,1,,,,,エイチイー,0
366,2011003013829,新規,0,2021-12-07,2021-12-07,合同会社ポリモルフィック,,合同会社,東京都,渋谷区,神宮前６丁目２３番４号桑野ビル２階,,13,113,1500001,,,,,,,2021-12-07,1,,,,,ポリモルフィック,0
372,2011101097121,新規,0,2021-12-07,2021-12-07,株式会社Ｈ．ＳＲ,,株式会社,東京都,新宿区,神楽坂３丁目６番地金井ビルＢ１,,13,104,1620825,,,,,,,2021-12-07,1,,,,,エイチエスアール,0
373,2011103011237,新規,0,2021-12-07,2021-12-07,合同会社麗乃,,合同会社,東京都,新宿区,上落合３丁目３３番１５号,,13,104,1610034,,,,,,,2021-12-07,1,,,,,レイノ,0
374,2011103011245,新規,0,2021-12-07,2021-12-07,ユウリョウ合同会社,,合同会社,東京都,新宿区,中落合４丁目１２番１５号,,13,104,1610032,,,,,,,2021-12-07,1,,,,,,0
377,2011301027398,新規,0,2021-12-07,2021-12-07,株式会社鶏三,,株式会社,東京都,杉並区,堀ノ内１丁目１３番４－４０４号　サンステージ坂上,,13,115,1660013,,,,,,,2021-12-07,1,,,,,トリサン,0
378,2011303004239,新規,0,2021-12-07,2021-12-07,合同会社ＭｏＭＯ,,合同会社,東京都,杉並区,上井草３丁目１１－１５,,13,115,1670023,,,,,,,2021-12-07,1,,,,,モモ,0
380,2011501027537,新規,0,2021-12-07,2021-12-07,株式会社一住販,,株式会社,東京都,北区,志茂１丁目３番７号コートウエルシモ３０２,,13,117,1150042,,,,,,,2021-12-07,1,,,,,ハジメジュウハン,0
381,2011501027545,新規,0,2021-12-07,2021-12-07,株式会社ＨＳＣ,,株式会社,東京都,北区,中十条２丁目２０番１４号,,13,117,1140032,,,,,,,2021-12-07,1,,,,,エイチエスシー,0
385,2012401038624,新規,0,2021-12-07,2021-12-07,アースプロテクション株式会社,,株式会社,東京都,武蔵野市,吉祥寺南町１丁目１７番１０－２０１号,,13,203,1800003,,,,,,,2021-12-07,1,,,,,アースプロテクション,0
389,2012701016809,新規,0,2021-12-07,2021-12-07,株式会社タケの実,,株式会社,東京都,東村山市,久米川町１丁目４６番地１０,,13,213,1890003,,,,,,,2021-12-07,1,,,,,タケノミ,0
394,2013301048382,新規,0,2021-12-07,2021-12-07,株式会社ＮＡＢＩ,,株式会社,東京都,豊島区,南池袋１丁目１６－１５ダイヤゲート池袋５Ｆ,,13,116,1710022,,,,,,,2021-12-07,1,,,,,ナビ,0
395,2013303005943,新規,0,2021-12-07,2021-12-07,合同会社ＫＥＹ　Ｖ,,合同会社,東京都,豊島区,東池袋１丁目３４番５号いちご東池袋ビル６階,,13,116,1700013,,,,,,,2021-12-07,1,,,,,ケイファイブ,0
399,2020001144239,新規,0,2021-12-07,2021-12-07,株式会社グラッドペイジ,,株式会社,神奈川県,横浜市保土ケ谷区,上菅田町１１１４番地１２７,,14,106,2400051,,,,,,,2021-12-07,1,,,,,グラッドペイジ,0
402,2020003020925,新規,0,2021-12-07,2021-12-07,合同会社ＳＰａｄｅＪａｃｋ,,合同会社,神奈川県,横浜市中区,桜木町１丁目１０１番地１クロスゲート７階,,14,104,2310062,,,,,,,2021-12-07,1,,,,,スペードジャック,0
403,2020003020941,新規,0,2021-12-07,2021-12-07,合同会社Ｌｅａｆ　Ｐｌｕｓ,,合同会社,神奈川県,横浜市中区,本牧緑ケ丘８９番地１クオス横濱山手１０６号室,,14,104,2310832,,,,,,,2021-12-07,1,,,,,リーフプラス,0
408,2021001074673,新規,0,2021-12-07,2021-12-07,桃園電工株式会社,,株式会社,神奈川県,南足柄市,岩原４２７番地,,14,217,2500113,,,,,,,2021-12-07,1,,,,,モモゾノデンコウ,0
414,2030001145707,新規,0,2021-12-07,2021-12-07,株式会社土井工業,,株式会社,埼玉県,上尾市,大字原市１４２３番地２５,,11,219,3620021,,,,,,,2021-12-07,1,,,,,ドイコウギョウ,0
421,2030003018456,新規,0,2021-12-07,2021-12-07,ＡＰＲトレーディング合同会社,,合同会社,埼玉県,草加市,氷川町８１１番地１－３０１号,,11,221,3400034,,,,,,,2021-12-07,1,,,,,エーピーアールトレーディング,0
430,2040003019081,新規,0,2021-12-07,2021-12-07,合同会社ＹＫ　Ｔｅｃｈ,,合同会社,千葉県,千葉市稲毛区,黒砂１丁目５－２,,12,103,2630042,,,,,,,2021-12-07,1,,,,,ワイケーテック,0
434,2050001050260,新規,0,2021-12-07,2021-12-07,株式会社ＱＳコーポレーション,,株式会社,茨城県,水戸市,東野町１４０番地の７,,08,201,3100846,,,,,,,2021-12-07,1,,,,,キューエスコーポレーション,0
442,2070001038717,新規,0,2021-12-07,2021-12-07,株式会社ソウルテック,,株式会社,群馬県,太田市,富沢町１２１番地６,,10,205,3730832,,,,,,,2021-12-07,1,,,,,ソウルテック,0
446,2070003004320,新規,0,2021-12-07,2021-12-07,Ａｕｒ合同会社,,合同会社,群馬県,富岡市,下高瀬３１０番地１,,10,210,3702332,,,,,,,2021-12-07,1,,,,,アウル,0
447,2080001024625,新規,0,2021-12-07,2021-12-07,ＡＯＩホールディングス株式会社,,株式会社,静岡県,静岡市駿河区,東静岡２丁目６番３３号,,22,102,4228019,,,,,,,2021-12-07,1,,,,,アオイホールディングス,0
450,2080101022966,新規,0,2021-12-07,2021-12-07,株式会社サトウテック,,株式会社,静岡県,三島市,富田町２番６号,,22,206,4110836,,,,,,,2021-12-07,1,,,,,サトウテック,0
455,2090003002000,新規,0,2021-12-07,2021-12-07,Ｉｎｄｙｒｉｔｙ合同会社,,合同会社,山梨県,北杜市,小淵沢町上笹尾３３３２番地５１７－Ｂ１,,19,209,4080041,,,,,,,2021-12-07,1,,,,,インディリティ,0
465,2110005016739,新規,0,2021-12-07,2021-12-07,一般社団法人湯沢フィッシングパーク,,その他の設立登記法人,新潟県,南魚沼郡湯沢町,大字土樽６１９１番地５１２,00125071,15,461,9496103,,,,,,,2021-12-07,1,,,,,ユザワフィッシングパーク,0
477,2120001242305,新規,0,2021-12-07,2021-12-07,株式会社ＰＬＵＳ　ＯＮＥ　ＡＬＰＨＡ,,株式会社,大阪府,大阪市中央区,南船場４丁目１０番５号南船場ＳＯＨＯビル７０２号室,,27,128,5420081,,,,,,,2021-12-07,1,,,,,プラスワンアルファ,0
478,2120001242354,新規,0,2021-12-07,2021-12-07,大畑設備株式会社,,株式会社,大阪府,交野市,藤が尾３丁目２番１５号,,27,230,5760022,,,,,,,2021-12-07,1,,,,,オオハタセツビ,0
484,2120003020717,新規,0,2021-12-07,2021-12-07,合同会社ＳＳＳ,,合同会社,大阪府,大阪市中央区,南船場１丁目１７番２６－１３０６号,,27,128,5420081,,,,,,,2021-12-07,1,,,,,スリーエス,0
493,2120101064748,新規,0,2021-12-07,2021-12-07,株式会社Ｃｏｍｏｄｏ,,株式会社,大阪府,和泉市,納花町５４番地の５１,,27,219,5941116,,,,,,,2021-12-07,1,,,,,コモド,0
497,2120901045311,新規,0,2021-12-07,2021-12-07,株式会社ＬＷＬ,,株式会社,大阪府,箕面市,牧落３丁目１１番２号,,27,220,5620004,,,,,,,2021-12-07,1,,,,,ルール,0
510,2130001070647,新規,0,2021-12-07,2021-12-07,株式会社はあと,,株式会社,京都府,京都市西京区,牛ケ瀬奥ノ防町２３番地,,26,111,6158032,,,,,,,2021-12-07,1,,,,,ハアト,0
511,2130001070655,新規,0,2021-12-07,2021-12-07,株式会社テイク,,株式会社,京都府,京都市中京区,堺町通竹屋町下る絹屋町１３６番地ヴェルドール御所４０１,,26,104,6040804,,,,,,,2021-12-07,1,,,,,テイク,0
521,2140001124105,新規,0,2021-12-07,2021-12-07,ＳＳＳ株式会社,,株式会社,兵庫県,豊岡市,江本４３５番地の１,,28,209,6680852,,,,,,,2021-12-07,1,,,,,エスエスエス,0
522,2140001124121,新規,0,2021-12-07,2021-12-07,岩崎重機株式会社,,株式会社,兵庫県,三木市,別所町朝日ケ丘３５番地の１４２,,28,215,6730441,,,,,,,2021-12-07,1,,,,,イワサキジュウキ,0
523,2140003017059,新規,0,2021-12-07,2021-12-07,合同会社ジャムズクラフトオフィス,,合同会社,兵庫県,神戸市中央区,磯辺通４丁目１番２８－１６１３号,,28,110,6510084,,,,,,,2021-12-07,1,,,,,ジャムズクラフトオフィス,0
525,2150001025161,新規,0,2021-12-07,2021-12-07,ＴＭ高岡電機株式会社,,株式会社,奈良県,桜井市,大字吉備３１７番地の１２,,29,206,6330065,,,,,,,2021-12-07,1,,,,,ティエムタカオカデンキ,0
544,2180001148991,新規,0,2021-12-07,2021-12-07,株式会社Ｔｏｐ　Ｄｉｎｉｎｇ,,株式会社,愛知県,大府市,森岡町１丁目１１８番地,,23,223,4740038,,,,,,,2021-12-07,1,,,,,トップダイニング,0
545,2180001149008,新規,0,2021-12-07,2021-12-07,株式会社藤本シール,,株式会社,愛知県,名古屋市港区,東蟹田１８０２番地の３,,23,111,4550886,,,,,,,2021-12-07,1,,,,,フジモトシール,0
546,2180001149032,新規,0,2021-12-07,2021-12-07,ｔｓｕｂｏｉ－ｏｆｆｉｃｅ株式会社,,株式会社,愛知県,名古屋市北区,清水５丁目５番３号名北フロントビル３階,,23,103,4620844,,,,,,,2021-12-07,1,,,,,ツボイオフィス,0
555,2190001028912,新規,0,2021-12-07,2021-12-07,株式会社エムケーテクノ,,株式会社,三重県,津市,河芸町上野５００番地２６,,24,201,5100304,,,,,,,2021-12-07,1,,,,,エムケーテクノ,0
558,2200001039494,新規,0,2021-12-07,2021-12-07,株式会社ニクラボ,,株式会社,岐阜県,高山市,山田町２３４番地２,,21,203,5060058,,,,,,,2021-12-07,1,,,,,ニクラボ,0
559,2200001039503,新規,0,2021-12-07,2021-12-07,株式会社トゥーユー,,株式会社,岐阜県,瑞浪市,明世町戸狩３０８番地の１１,,21,208,5096133,,,,,,,2021-12-07,1,,,,,トゥーユー,0
569,2230001019122,新規,0,2021-12-07,2021-12-07,富山パートナーズ株式会社,,株式会社,富山県,高岡市,駅南１丁目１０番１９号,,16,202,9330871,,,,,,,2021-12-07,1,,,,,トヤマパートナーズ,0
570,2230001019130,新規,0,2021-12-07,2021-12-07,株式会社ヨシキ工業,,株式会社,富山県,下新川郡入善町,下飯野１８３４番地２,,16,342,9390663,,,,,,,2021-12-07,1,,,,,ヨシキコウギョウ,0
576,2240001059027,新規,0,2021-12-07,2021-12-07,株式会社Ｔｒｕｓｔ　ＬＡＢ,,株式会社,広島県,福山市,三吉町３丁目１番１０号３Ｆ,,34,207,7200031,,,,,,,2021-12-07,1,,,,,トラストラボ,0
582,2250002020812,新規,0,2021-12-07,2021-12-07,有限会社恵隆産業,,有限会社,山口県,宇部市,大字藤曲６２番地の２８,,35,202,7550057,,,,,,,2021-12-07,1,,,,,ケイリュウサンギョウ,0
585,2250003002958,新規,0,2021-12-07,2021-12-07,合同会社やまだ設備,,合同会社,山口県,山口市,佐山３３８６番地,,35,203,7540894,,,,,,,2021-12-07,1,,,,,ヤマダセツビ,0
588,2260001036296,新規,0,2021-12-07,2021-12-07,株式会社ＬＡＬコンサルティング,,株式会社,岡山県,岡山市中区,海吉１７６３番地ラソーレウラカミ４０６,,33,102,7038261,,,,,,,2021-12-07,1,,,,,ラブアンドライトコンサルティング,0
599,2290001095661,新規,0,2021-12-07,2021-12-07,株式会社リフォレス,,株式会社,福岡県,糸島市,志摩師吉８１７番地１リッシュハウス伊都アマルフィ１号棟１０１号,,40,230,8191314,,,,,,,2021-12-07,1,,,,,リフォレス,0
602,2290003011906,新規,0,2021-12-07,2021-12-07,合同会社ウチダソーシャルサポート,,合同会社,福岡県,福岡市南区,屋形原２丁目３３番１０号,,40,134,8111351,,,,,,,2021-12-07,1,,,,,ウチダソーシャルサポート,0
613,2310001017621,新規,0,2021-12-07,2021-12-07,株式会社まつもと冷菓商店,,株式会社,長崎県,五島市,籠淵町２３４９番地３,,42,211,8530041,,,,,,,2021-12-07,1,,,,,マツモトレイカショウテン,0
623,2340001024318,新規,0,2021-12-07,2021-12-07,株式会社栗脇Ｈｏｍｅ,,株式会社,鹿児島県,鹿屋市,川西町４２８４番地,,46,203,8930032,,,,,,,2021-12-07,1,,,,,クリワキホーム,0
634,2360003011626,新規,0,2021-12-07,2021-12-07,ひつじいぬこ合同会社,,合同会社,沖縄県,那覇市,首里当蔵町２丁目１５番地７,,47,201,9030812,,,,,,,2021-12-07,1,,,,,ヒツジイヌコ,0
636,2370001047919,新規,0,2021-12-07,2021-12-07,株式会社リノファイヴ,,株式会社,宮城県,仙台市青葉区,一番町１丁目１番８号青葉パークビル５０１Ｂ,,04,101,9800811,,,,,,,2021-12-07,1,,,,,リノファイヴ,0
637,2370005010402,新規,0,2021-12-07,2021-12-07,医療法人仁正会さとう腎臓内科ひ尿器科,,その他の設立登記法人,宮城県,仙台市太白区,長町２丁目９番３１号,,04,104,9820011,,,,,,,2021-12-07,1,,,,,ジンセイカイサトウジンゾウナイカヒニョウキカ,0
646,2380005012505,新規,0,2021-12-07,2021-12-07,社会保険労務士法人真船事務所,,その他の設立登記法人,福島県,西白河郡西郷村,大字小田倉字大平２８４番地７,,07,461,9618061,,,,,,,2021-12-07,1,,,,,マフネジムショ,0
656,2480001011558,新規,0,2021-12-07,2021-12-07,静重株式会社,,株式会社,徳島県,徳島市,応神町古川字東１３６番地の３,,36,201,7711151,,,,,,,2021-12-07,1,,,,,シズシゲ,0
657,2480001011574,新規,0,2021-12-07,2021-12-07,株式会社しいたけの赤井,,株式会社,徳島県,小松島市,立江町字新開１１０番地１,,36,203,7730017,,,,,,,2021-12-07,1,,,,,,0
668,3010001222969,新規,0,2021-12-07,2021-12-07,ＥＧＧＯＲ　ＪＡＰＡＮ株式会社,,株式会社,東京都,中央区,佃２丁目１番２－７１２号,,13,102,1040051,,,,,,,2021-12-07,1,,,,,エガージャパン,0
671,3010101014977,新規,0,2021-12-07,2021-12-07,株式会社市電,,株式会社,東京都,八王子市,横川町７３８番地,,13,201,1930823,,,,,,,2021-12-07,1,,,,,イチデン,0
679,3010403026638,新規,0,2021-12-07,2021-12-07,合同会社ＧＫ,,合同会社,東京都,港区,赤坂６丁目１８番１１号ストーリア赤坂５０８,,13,103,1070052,,,,,,,2021-12-07,1,,,,,ジーケー,0
680,3010403026646,新規,0,2021-12-07,2021-12-07,合同会社Ｏｒｔｕｓ　Ａｄｖｉｓｏｒｓ　Ｊａｐａｎ,,合同会社,東京都,港区,六本木１丁目９番１－７０３号,,13,103,1060032,,,,,,,2021-12-07,1,,,,,オータスアドバイザーズジャパン,0
681,3010403026654,新規,0,2021-12-07,2021-12-07,合同会社リンゴカフェ,,合同会社,東京都,港区,南青山２丁目２―１５,,13,103,1070062,,,,,,,2021-12-07,1,,,,,リンゴカフェ,0
685,3010501048179,新規,0,2021-12-07,2021-12-07,株式会社ＭＭＡ　ＤＥＳＩＧＮ,,株式会社,東京都,台東区,小島２丁目２０番３号,,13,106,1110056,,,,,,,2021-12-07,1,,,,,エムエムエーデザイン,0
686,3010501048187,新規,0,2021-12-07,2021-12-07,株式会社ｅｌａｔｅ,,株式会社,東京都,台東区,上野６丁目８番１９号,,13,106,1100005,,,,,,,2021-12-07,1,,,,,イレイト,0
692,3010701041875,新規,0,2021-12-07,2021-12-07,ＪＶコーポレーション株式会社,,株式会社,東京都,品川区,西五反田１丁目２６番２号五反田サンハイツビル２Ｆ,,13,109,1410031,,,,,,,2021-12-07,1,,,,,ジェイブイコーポレーション,0
693,3010701041883,新規,0,2021-12-07,2021-12-07,株式会社ＳＰＩＣＹ,,株式会社,東京都,品川区,西五反田５丁目４－５,,13,109,1410031,,,,,,,2021-12-07,1,,,,,スパイシー,0
708,3011001144294,新規,0,2021-12-07,2021-12-07,株式会社ＳＴＲＡＩＧＨＴ,,株式会社,東京都,渋谷区,恵比寿西１丁目３４番２５号スマートホーム代官山２１１,,13,113,1500021,,,,,,,2021-12-07,1,,,,,ストレート,0
709,3011001144410,新規,0,2021-12-07,2021-12-07,マッドアテリエ株式会社,,株式会社,東京都,目黒区,自由が丘１丁目１４番２－４０４号,,13,110,1520035,,,,,,,2021-12-07,1,,,,,マッドアテリエ,0
714,3011003013761,新規,0,2021-12-07,2021-12-07,ＤＭＤ合同会社,,合同会社,東京都,渋谷区,神宮前６丁目２９－４,,13,113,1500001,,,,,,,2021-12-07,1,,,,,ディーエムディー,0
715,3011003013836,新規,0,2021-12-07,2021-12-07,リバティヒルズコンサルティング合同会社,,合同会社,東京都,目黒区,自由が丘３丁目３番７号,,13,110,1520035,,,,,,,2021-12-07,1,,,,,リバティヒルズコンサルティング,0
721,3011101097062,新規,0,2021-12-07,2021-12-07,株式会社Ｍ＆Ｋエンターテイメント,,株式会社,東京都,新宿区,新宿３丁目２０番８号,,13,104,1600022,,,,,,,2021-12-07,1,,,,,エムアンドケーエンターテイメント,0
722,3011103011244,新規,0,2021-12-07,2021-12-07,合同会社ｅｎ－ｓｏ,,合同会社,東京都,新宿区,西新宿１丁目１９番１０号三丸ビル２階,,13,104,1600023,,,,,,,2021-12-07,1,,,,,エンソー,0
726,3011303004238,新規,0,2021-12-07,2021-12-07,ＷＩＲＥＤＬＩＮＥ合同会社,,合同会社,東京都,杉並区,高円寺北３丁目５番２３号ホワイトパレス１０６号室,,13,115,1660002,,,,,,,2021-12-07,1,,,,,ワイアードライン,0
729,3011601025588,新規,0,2021-12-07,2021-12-07,竹林商事株式会社,,株式会社,東京都,練馬区,上石神井３丁目２８－１０－４０１,,13,120,1770044,,,,,,,2021-12-07,1,,,,,タケバヤシショウジ,0
733,3011703003013,新規,0,2021-12-07,2021-12-07,合同会社Ｃｏｎｖｅｙ,,合同会社,東京都,江戸川区,松江７丁目２５番９号,,13,123,1320025,,,,,,,2021-12-07,1,,,,,コンベイ,0
736,3011801040040,新規,0,2021-12-07,2021-12-07,株式会社３３ガレージ,,株式会社,東京都,葛飾区,東新小岩８丁目２４番３号,,13,122,1240023,,,,,,,2021-12-07,1,,,,,サンサンガレージ,0
737,3012301012785,新規,0,2021-12-07,2021-12-07,風花東京株式会社,,株式会社,東京都,町田市,南町田３丁目３８番２４号,,13,209,1940005,,,,,,,2021-12-07,1,,,,,カザハナトウキョウ,0
739,3012403005142,新規,0,2021-12-07,2021-12-07,合同会社あじと本店,,合同会社,東京都,武蔵野市,御殿山１丁目５番５号島崎ビル２Ｆ,,13,203,1800005,,,,,,,2021-12-07,1,,,,,アジトホンテン,0
744,3013301048381,新規,0,2021-12-07,2021-12-07,株式会社エビス,,株式会社,東京都,豊島区,池袋２丁目６８番５－８０２号,,13,116,1710014,,,,,,,2021-12-07,1,,,,,エビス,0
745,3013303005942,新規,0,2021-12-07,2021-12-07,合同会社Ｃクリエイト,,合同会社,東京都,豊島区,南長崎２丁目８番３号,,13,116,1710052,,,,,,,2021-12-07,1,,,,,シークリエイト,0
753,3020001144188,新規,0,2021-12-07,2021-12-07,株式会社ＣＧＭ,,株式会社,神奈川県,横浜市中区,北仲通５丁目５７番地２ザ・タワー横浜北仲４２２０号室,,14,104,2310003,,,,,,,2021-12-07,1,,,,,シージーエム,0
754,3020001144213,新規,0,2021-12-07,2021-12-07,株式会社清輝,,株式会社,神奈川県,横浜市中区,麦田町２丁目５９番２号,,14,104,2310849,,,,,,,2021-12-07,1,,,,,セイキ,0
756,3020005015294,新規,0,2021-12-07,2021-12-07,医療法人ＩＤＣ,,その他の設立登記法人,神奈川県,横浜市戸塚区,上倉田町４９８番地１１第五吉本ビル４階Ａ号室,,14,110,2440816,,,,,,,2021-12-07,1,,,,,アイディーシー,0
764,3021001074680,新規,0,2021-12-07,2021-12-07,株式会社ＲＥ　ＲＩＳＥ,,株式会社,神奈川県,大和市,西鶴間２丁目１番１１号,,14,213,2420005,,,,,,,2021-12-07,1,,,,,リライズ,0
765,3021001074697,新規,0,2021-12-07,2021-12-07,株式会社リエンド,,株式会社,神奈川県,茅ヶ崎市,東海岸南１丁目２２番３－３０８号,,14,207,2530054,,,,,,,2021-12-07,1,,,,,リエンド,0
787,3030003018455,新規,0,2021-12-07,2021-12-07,美らくる合同会社,,合同会社,埼玉県,鴻巣市,本町４丁目３－２８駅前ビル２０１,,11,217,3650038,,,,,,,2021-12-07,1,,,,,ミラクル,0
797,3050003006243,新規,0,2021-12-07,2021-12-07,合同会社ＬＩＭＰＩＤ,,合同会社,茨城県,つくば市,酒丸６０７番地,,08,220,3002637,,,,,,,2021-12-07,1,,,,,リンピッド,0
800,3060003003891,新規,0,2021-12-07,2021-12-07,合同会社Ｔａｋａｂｉｓｙａ,,合同会社,栃木県,那須塩原市,東栄２丁目９番１５号,,09,213,3250016,,,,,,,2021-12-07,1,,,,,タカビシャ,0
801,3060005009929,新規,0,2021-12-07,2021-12-07,一般社団法人移動販売協会,,その他の設立登記法人,栃木県,芳賀郡益子町,大字大沢１２５番地１,,09,342,3214104,,,,,,,2021-12-07,1,,,,,イドウハンバイキョウカイ,0
802,3070001038716,新規,0,2021-12-07,2021-12-07,株式会社ＨＡＲＵＭＩ,,株式会社,群馬県,佐波郡玉村町,大字南玉９７９番地１,,10,464,3701111,,,,,,,2021-12-07,1,,,,,ハルミ,0
805,3080001024616,新規,0,2021-12-07,2021-12-07,株式会社野ブタ,,株式会社,静岡県,静岡市駿河区,南町２－２３コーポマックス５Ｄ,,22,102,4228067,,,,,,,2021-12-07,1,,,,,ノブタ,0
806,3080003002693,新規,0,2021-12-07,2021-12-07,Ｅｔｅｒｎａｌ合同会社,,合同会社,静岡県,静岡市葵区,北５丁目２６番２１号,,22,101,4200961,,,,,,,2021-12-07,1,,,,,エターナル,0
814,3110001036252,新規,0,2021-12-07,2021-12-07,株式会社アウトドアタウン,,株式会社,新潟県,東蒲原郡阿賀町,綱木３５０,,15,385,9594601,,,,,,,2021-12-07,1,,,,,アウトドアタウン,0
815,3110003004637,新規,0,2021-12-07,2021-12-07,トウタル・カントロウル合同会社,,合同会社,新潟県,長岡市,曙３丁目３番地１２－２０２,,15,202,9400832,,,,,,,2021-12-07,1,,,,,トウタルカントロウル,0
830,3120001242329,新規,0,2021-12-07,2021-12-07,株式会社ＭＡＨＡＬＯ,,株式会社,大阪府,大阪市中央区,伏見町４丁目２番６号平松ビル２階,,27,128,5410044,,,,,,,2021-12-07,1,,,,,マハロ,0
831,3120001242345,新規,0,2021-12-07,2021-12-07,株式会社夢現,,株式会社,大阪府,大阪市福島区,福島４丁目２番６２号,,27,103,5530003,,,,,,,2021-12-07,1,,,,,ムゲン,0
835,3120003020716,新規,0,2021-12-07,2021-12-07,合同会社ＨＡＥＵＮ　ＯＳＡＫＡ,,合同会社,大阪府,大阪市中央区,本町橋６番１９号本町第２今岡ビル８０４号,,27,128,5400029,,,,,,,2021-12-07,1,,,,,ヘオンオオサカ,0
849,3120901045302,新規,0,2021-12-07,2021-12-07,株式会社ＮＯＯＳ,,株式会社,大阪府,豊中市,北桜塚２丁目１４番９号,,27,203,5600022,,,,,,,2021-12-07,1,,,,,ノース,0
850,3120903003935,新規,0,2021-12-07,2021-12-07,ヨハン医療関連合同会社,,合同会社,大阪府,茨木市,西中条町２－３－９０６,,27,211,5670887,,,,,,,2021-12-07,1,,,,,ヨハンイリョウカンレン,0
858,3130001070670,新規,0,2021-12-07,2021-12-07,株式会社東野ロック,,株式会社,京都府,京都市山科区,東野北井ノ上町８番地３６,,26,110,6078141,,,,,,,2021-12-07,1,,,,,ヒガシノロック,0
860,3130005016331,新規,0,2021-12-07,2021-12-07,一般社団法人Ｔｅｘｔｉｌｅ　Ｕｐｃｙｃｌｅ　Ｐｌａｔｆｏｒｍ,,その他の設立登記法人,京都府,京都市上京区,今出川通烏丸東入上る相国寺門前町６３６,,26,102,6020898,,,,,,,2021-12-07,1,,,,,テキスタイルアップサイクルプラットフォーム,0
868,3140001124104,新規,0,2021-12-07,2021-12-07,株式会社大進テック,,株式会社,兵庫県,姫路市,広畑区西蒲田６０４番地１,,28,201,6711107,,,,,,,2021-12-07,1,,,,,ダイシンテック,0
871,3140003017066,新規,0,2021-12-07,2021-12-07,合同会社ｃｉｅｌ,,合同会社,兵庫県,神戸市長田区,上池田４丁目１０番３号,,28,106,6530827,,,,,,,2021-12-07,1,,,,,シエル,0
873,3140005025934,新規,0,2021-12-07,2021-12-07,医療法人ミント会,,その他の設立登記法人,兵庫県,西宮市,田中町１番６号エビスタ西宮３階,,28,204,6620973,,,,,,,2021-12-07,1,,,,,ミントカイ,0
890,3180001148974,新規,0,2021-12-07,2021-12-07,スマートリハウス株式会社,,株式会社,愛知県,名古屋市中区,大須１丁目３２番４３号,,23,106,4600011,,,,,,,2021-12-07,1,,,,,スマートリハウス,0
891,3180001148982,新規,0,2021-12-07,2021-12-07,東通工アセット株式会社,,株式会社,愛知県,名古屋市名東区,上社４丁目３０１番地,,23,115,4650025,,,,,,,2021-12-07,1,,,,,トウツウコウアセット,0
892,3180001149007,新規,0,2021-12-07,2021-12-07,株式会社福山工業,,株式会社,愛知県,名古屋市中川区,服部４丁目１００７番地の１,,23,110,4540976,,,,,,,2021-12-07,1,,,,,フクヤマコウギョウ,0
893,3180001149015,新規,0,2021-12-07,2021-12-07,株式会社ファシエル,,株式会社,愛知県,名古屋市中区,栄２丁目２番１号,,23,106,4600008,,,,,,,2021-12-07,1,,,,,ファシエル,0
894,3180001149072,新規,0,2021-12-07,2021-12-07,共建株式会社,,株式会社,愛知県,愛知郡東郷町,涼松１丁目２番地１１,,23,302,4700163,,,,,,,2021-12-07,1,,,,,トモケン,0
899,3180003023267,新規,0,2021-12-07,2021-12-07,合同会社ＳＯＣ,,合同会社,愛知県,名古屋市名東区,社が丘２丁目１１１１番地,,23,115,4650051,,,,,,,2021-12-07,1,,,,,エスオーシー,0
906,3180301035690,新規,0,2021-12-07,2021-12-07,株式会社エビフライ,,株式会社,愛知県,みよし市,三好町赤羽根４４番地１,,23,236,4700224,,,,,,,2021-12-07,1,,,,,エビフライ,0
908,3180303005188,新規,0,2021-12-07,2021-12-07,合同会社ＳＵＭＩＬＥ　ｗｏｒｋｓ,,合同会社,愛知県,西尾市,新在家町村北１９番地５,,23,213,4440311,,,,,,,2021-12-07,1,,,,,スミレワークス,0
914,3240001059026,新規,0,2021-12-07,2021-12-07,株式会社コムネット,,株式会社,広島県,廿日市市,宮内３６６６番地１,,34,213,7380034,,,,,,,2021-12-07,1,,,,,コムネット,0
918,3250003002949,新規,0,2021-12-07,2021-12-07,合同会社うさぎの森,,合同会社,山口県,防府市,戎町１丁目９番１７号,,35,206,7470036,,,,,,,2021-12-07,1,,,,,ウサギノモリ,0
919,3250003002957,新規,0,2021-12-07,2021-12-07,合同会社ナカノ技工,,合同会社,山口県,岩国市,玖珂町６０７７番地１,,35,208,7420344,,,,,,,2021-12-07,1,,,,,ナカノギコウ,0
921,3260001036287,新規,0,2021-12-07,2021-12-07,株式会社ＴＲＩＢＥ,,株式会社,岡山県,岡山市北区,大安寺東町６番６－２号,,33,101,7000063,,,,,,,2021-12-07,1,,,,,トライブ,0
932,3290003011888,新規,0,2021-12-07,2021-12-07,ＮＡＥＥＭ　ＦＡＨＥＥＭ　ＴＲＡＤＩＮＧ合同会社,,合同会社,福岡県,福岡市東区,和白３丁目２１番２４号,,40,131,8110202,,,,,,,2021-12-07,1,,,,,ナイームファヒームトレーディング,0
933,3290003011905,新規,0,2021-12-07,2021-12-07,合同会社アレンジ,,合同会社,福岡県,福岡市東区,原田４丁目３１番１８号,,40,131,8120063,,,,,,,2021-12-07,1,,,,,アレンジ,0
935,3290801028027,新規,0,2021-12-07,2021-12-07,田川ＤＸ推進室株式会社,,株式会社,福岡県,田川市,大字伊田２６２１番１号ＪＲ田川伊田駅舎,,40,206,8250002,,,,,,,2021-12-07,1,,,,,タガワディーエックススイシンシツ,0
944,3330001029259,新規,0,2021-12-07,2021-12-07,株式会社ＷＯＬＦＥ,,株式会社,熊本県,熊本市東区,月出１丁目８番１号３１１号室,,43,102,8620920,,,,,,,2021-12-07,1,,,,,ウォルフ,0
946,3330003009151,新規,0,2021-12-07,2021-12-07,合同会社泉雅,,合同会社,熊本県,菊池郡菊陽町,大字原水４９５５番地２６,,43,404,8691102,,,,,,,2021-12-07,1,,,,,センガ,0
950,3350001017451,新規,0,2021-12-07,2021-12-07,株式会社ｗｏｏｄ’ｓ,,株式会社,宮崎県,宮崎市,田野町甲４４３４番地６,,45,201,8891701,,,,,,,2021-12-07,1,,,,,ウッズ,0
955,3370001047918,新規,0,2021-12-07,2021-12-07,株式会社ウィルプレイス,,株式会社,宮城県,仙台市若林区,遠見塚２丁目６番１３号,,04,103,9840823,,,,,,,2021-12-07,1,,,,,ウィルプレイス,0
982,3430001085515,新規,0,2021-12-07,2021-12-07,Ａｘｉｓ　Ｔｅｃｈｎｏｌｏｇｉｅｓ株式会社,,株式会社,北海道,札幌市中央区,円山西町９丁目３番３８号レジデンス円山西町２階,,01,101,0640944,,,,,,,2021-12-07,1,,,,,アクシステクノロジーズ,0
988,3490003001605,新規,0,2021-12-07,2021-12-07,合同会社ＴＫＯカンパニー,,合同会社,高知県,高知市,鵜来巣６番１８号,,39,201,7808083,,,,,,,2021-12-07,1,,,,,ティーケーオーカンパニー,0
992,3700150106085,新規,0,2021-12-07,2021-12-07,滝谷池土地改良区,,その他,岡山県,久米郡美咲町,打穴里１６４４番地１,,33,666,7093704,,,,,,,2021-12-07,1,,,,,タキダニイケトチカイリョウク,0
1005,4010001222976,新規,0,2021-12-07,2021-12-07,株式会社紫翠,,株式会社,東京都,千代田区,有楽町１丁目９番１号,,13,101,1000006,,,,,,,2021-12-07,1,,,,,シスイ,0
1006,4010001223017,新規,0,2021-12-07,2021-12-07,株式会社ニューフィールド,,株式会社,東京都,中央区,銀座４丁目１番先北数寄屋ビル地下１階,,13,102,1040061,,,,,,,2021-12-07,1,,,,,ニューフィールド,0
1010,4010003036466,新規,0,2021-12-07,2021-12-07,合同会社ＮＴ１,,合同会社,東京都,文京区,本郷１丁目１３番４号,,13,105,1130033,,,,,,,2021-12-07,1,,,,,エヌティーワン,0
1011,4010003036482,新規,0,2021-12-07,2021-12-07,Ｄタワー西新宿合同会社,,合同会社,東京都,千代田区,飯田橋４丁目７番１号結和税理士法人内,,13,101,1020072,,,,,,,2021-12-07,1,,,,,ディータワーニシシンジュク,0
1020,4010401164224,新規,0,2021-12-07,2021-12-07,株式会社ＲＥＩＴコンサルティング,,株式会社,東京都,港区,新橋２丁目２０番１５号新橋駅前ビル１号館６階,,13,103,1050004,,,,,,,2021-12-07,1,,,,,リートコンサルティング,0
1021,4010401164249,新規,0,2021-12-07,2021-12-07,ＳＦＧ株式会社,,株式会社,東京都,港区,赤坂４丁目７番６号赤坂ビジネスコート４階,,13,103,1070052,,,,,,,2021-12-07,1,,,,,エスエフジー,0
1033,4010801032559,新規,0,2021-12-07,2021-12-07,株式会社ユタカー縁,,株式会社,東京都,大田区,鵜の木１丁目１５番１８号,,13,111,1460091,,,,,,,2021-12-07,1,,,,,ユタカーエン,0
1034,4010903006997,新規,0,2021-12-07,2021-12-07,ＦＩＥＬＤＷＯＲＫ合同会社,,合同会社,東京都,世田谷区,太子堂３丁目２７番６－Ｂ号,,13,112,1540004,,,,,,,2021-12-07,1,,,,,フィールドワーク,0
1041,4011001143725,新規,0,2021-12-07,2021-12-07,株式会社スエナガ工業,,株式会社,東京都,渋谷区,元代々木町５２番１５号,,13,113,1510062,,,,,,,2021-12-07,1,,,,,,0
1042,4011001144335,新規,0,2021-12-07,2021-12-07,株式会社池田商店,,株式会社,東京都,目黒区,中目黒３丁目６番２号中目黒Ｆ・Ｓビル５階,,13,110,1530061,,,,,,,2021-12-07,1,,,,,イケダショウテン,0
1043,4011001144376,新規,0,2021-12-07,2021-12-07,ｓｌｅｅｋ　Ｔｏｋｙｏ株式会社,,株式会社,東京都,渋谷区,千駄ヶ谷５丁目１６－１６千駄ヶ谷フラワーマンション１１０７,,13,113,1510051,,,,,,,2021-12-07,1,,,,,スリークトウキョウ,0
1049,4011103011243,新規,0,2021-12-07,2021-12-07,合同会社ミミーム,,合同会社,東京都,新宿区,若松町３２番７号,,13,104,1620056,,,,,,,2021-12-07,1,,,,,ミミーム,0
1052,4011205002462,新規,0,2021-12-07,2021-12-07,一般社団法人えぶロケ,,その他の設立登記法人,東京都,中野区,南台４丁目５７番３号,,13,114,1640014,,,,,,,2021-12-07,1,,,,,エブロケ,0
1054,4011303004237,新規,0,2021-12-07,2021-12-07,青香合同会社,,合同会社,東京都,杉並区,高円寺南１丁目２８番３号ライオンズマンション高円寺南６０２,,13,115,1660003,,,,,,,2021-12-07,1,,,,,ショウコウ,0
1058,4011601025587,新規,0,2021-12-07,2021-12-07,Ｔ－ＴＲＥＳ株式会社,,株式会社,東京都,練馬区,大泉町４丁目６番１０号,,13,120,1780062,,,,,,,2021-12-07,1,,,,,ティートレス,0
1059,4011703003020,新規,0,2021-12-07,2021-12-07,合同会社ＦＰカンパニー,,合同会社,東京都,江戸川区,上篠崎４丁目１０番１１号,,13,123,1330054,,,,,,,2021-12-07,1,,,,,エフピーカンパニー,0
1062,4011801040031,新規,0,2021-12-07,2021-12-07,株式会社レイテック,,株式会社,東京都,足立区,関原１丁目１１番７号,,13,121,1230852,,,,,,,2021-12-07,1,,,,,レイテック,0
1067,4012803002655,新規,0,2021-12-07,2021-12-07,合同会社東大和万屋,,合同会社,東京都,東大和市,中央２丁目８４２番地の１９エルフェイム２０７号室,,13,220,2070015,,,,,,,2021-12-07,1,,,,,ヒガシヤマトヨロズヤ,0
1068,4013101008790,新規,0,2021-12-07,2021-12-07,株式会社ＬＯＴＵＳ,,株式会社,東京都,あきる野市,野辺１０４６番地７,,13,228,1970823,,,,,,,2021-12-07,1,,,,,ロータス,0
1069,4013301048380,新規,0,2021-12-07,2021-12-07,株式会社Ｐｏｎｄ,,株式会社,東京都,豊島区,駒込６丁目３５番８号,,13,116,1700003,,,,,,,2021-12-07,1,,,,,ポンド,0
1070,4013303005941,新規,0,2021-12-07,2021-12-07,Ｇｒａｄｉｅｎｔ合同会社,,合同会社,東京都,豊島区,北大塚２丁目２５番２－５０１号,,13,116,1700004,,,,,,,2021-12-07,1,,,,,グレディエント,0
1076,4020001144179,新規,0,2021-12-07,2021-12-07,株式会社ＭＡＣ,,株式会社,神奈川県,川崎市川崎区,旭町２丁目１５番１５号,,14,131,2100808,,,,,,,2021-12-07,1,,,,,エムエイシー,0
1080,4020003020931,新規,0,2021-12-07,2021-12-07,合同会社トゥットベーネ,,合同会社,神奈川県,横浜市金沢区,高舟台２丁目１５－２,,14,108,2360044,,,,,,,2021-12-07,1,,,,,トゥットベーネ,0
1083,4021001074696,新規,0,2021-12-07,2021-12-07,株式会社ＯＭＥＧＡ,,株式会社,神奈川県,綾瀬市,寺尾中４丁目１番２号ベルハウス１０１,,14,218,2521132,,,,,,,2021-12-07,1,,,,,オメガ,0
1085,4021003011160,新規,0,2021-12-07,2021-12-07,太田建設合同会社,,合同会社,神奈川県,海老名市,柏ケ谷４６７番地の５,,14,215,2430402,,,,,,,2021-12-07,1,,,,,オオタケンセツ,0
1101,4030003018405,新規,0,2021-12-07,2021-12-07,合同会社福源,,合同会社,埼玉県,飯能市,山手町１５番１５号,,11,209,3570031,,,,,,,2021-12-07,1,,,,,フクゲン,0
1104,4030005020648,新規,0,2021-12-07,2021-12-07,税理士法人大手会計,,その他の設立登記法人,埼玉県,さいたま市北区,本郷町７８番地１,,11,102,3310802,,,,,,,2021-12-07,1,,,,,オオテカイケイ,0
1113,4050001050250,新規,0,2021-12-07,2021-12-07,株式会社ＤｉｇＨＲ,,株式会社,茨城県,土浦市,桜町４丁目３番１８号,,08,203,3000037,,,,,,,2021-12-07,1,,,,,ディグエイチアール,0
1119,4070001038715,新規,0,2021-12-07,2021-12-07,株式会社しんこうれっど,,株式会社,群馬県,高崎市,吉井町長根１３３７番地３２,,10,202,3702127,,,,,,,2021-12-07,1,,,,,シンコウレッド,0
1122,4080101022964,新規,0,2021-12-07,2021-12-07,株式会社コーセイ,,株式会社,静岡県,沼津市,西熊堂５１４番地の１０,,22,203,4100051,,,,,,,2021-12-07,1,,,,,コーセイ,0
1126,4080401025510,新規,0,2021-12-07,2021-12-07,株式会社ＳＫＤ,,株式会社,静岡県,浜松市南区,倉松町３８８８番地の１,,22,134,4328064,,,,,,,2021-12-07,1,,,,,エスケイディー,0
1128,4090001017304,新規,0,2021-12-07,2021-12-07,株式会社古谷葡萄園,,株式会社,山梨県,甲府市,蓬沢１丁目６番１０号,00125070,19,201,4000827,,,,,,,2021-12-07,1,,,,,フルヤブドウエン,0
1138,4110003004644,新規,0,2021-12-07,2021-12-07,合同会社富貴,,合同会社,新潟県,長岡市,豊１丁目７番１４号,,15,202,9400867,,,,,,,2021-12-07,1,,,,,フウキ,0
1148,4120001242328,新規,0,2021-12-07,2021-12-07,吉祥興業株式会社,,株式会社,大阪府,大阪市浪速区,恵美須東１丁目８番１１号２Ｆ,,27,111,5560002,,,,,,,2021-12-07,1,,,,,キチジョウコウギョウ,0
1149,4120001242336,新規,0,2021-12-07,2021-12-07,ＭＡＸＶＩＳＩＯＮ株式会社,,株式会社,大阪府,大阪市生野区,新今里４丁目２番２０号,,27,116,5440001,,,,,,,2021-12-07,1,,,,,マックスビジョン,0
1159,4120101064746,新規,0,2021-12-07,2021-12-07,株式会社リフォームベース,,株式会社,大阪府,岸和田市,土生町２丁目２７番２８号,,27,202,5960825,,,,,,,2021-12-07,1,,,,,リフォームベース,0
1161,4120103004469,新規,0,2021-12-07,2021-12-07,合同会社プログレ,,合同会社,大阪府,富田林市,大字彼方９３６番地３,,27,214,5840058,,,,,,,2021-12-07,1,,,,,プログレ,0
1164,4120901045301,新規,0,2021-12-07,2021-12-07,株式会社ＪＵＮＫ　ＰＲＯＤＵＣＴＩＯＮＳ,,株式会社,大阪府,吹田市,五月が丘北８－１ＰＬＵＭＶＩＬＬＡＧＥｖｏｌ．２－３０２号室,,27,205,5650834,,,,,,,2021-12-07,1,,,,,ジャンクプロダクションズ,0
1165,4120901045318,新規,0,2021-12-07,2021-12-07,株式会社オフィスＴＡＫＡＮＯ,,株式会社,大阪府,豊中市,新千里東町１丁目４番１号阪急千里中央ビル８階,,27,203,5600082,,,,,,,2021-12-07,1,,,,,オフィスタカノ,0
1181,4140001124061,新規,0,2021-12-07,2021-12-07,ドット株式会社,,株式会社,兵庫県,神戸市垂水区,名谷町１９４９番地の１・１９０３号,,28,108,6550852,,,,,,,2021-12-07,1,,,,,ドット,0
1182,4140001124094,新規,0,2021-12-07,2021-12-07,株式会社キャンプバイブス,,株式会社,兵庫県,多可郡多可町,加美区三谷６６３番地１,,28,365,6791333,,,,,,,2021-12-07,1,,,,,キャンプバイブス,0
1183,4140001124103,新規,0,2021-12-07,2021-12-07,ＢＰリアルティ株式会社,,株式会社,兵庫県,神戸市長田区,細田町２丁目１番２５号,,28,106,6530835,,,,,,,2021-12-07,1,,,,,ビーピーリアルティ,0
1184,4140001124111,新規,0,2021-12-07,2021-12-07,株式会社ＫＡＩＲＯ,,株式会社,兵庫県,洲本市,五色町都志８番地１,,28,205,6561301,,,,,,,2021-12-07,1,,,,,カイロ,0
1186,4140003017040,新規,0,2021-12-07,2021-12-07,合同会社サンライズ,,合同会社,兵庫県,三田市,けやき台５丁目２５番地１４４,,28,219,6691321,,,,,,,2021-12-07,1,,,,,サンライズ,0
1189,4140005025933,新規,0,2021-12-07,2021-12-07,ＮＰＯ法人ふくしぐらし,,その他の設立登記法人,兵庫県,宝塚市,塔の町１番１３号,,28,214,6650073,,,,,,,2021-12-07,1,,,,,エヌピーオーホウジンフクシグラシ,0
1203,4180001148981,新規,0,2021-12-07,2021-12-07,株式会社Ａｉｒ　Ｃｒａｆｔｅ,,株式会社,愛知県,名古屋市北区,大杉１丁目２１番３号,,23,103,4620837,,,,,,,2021-12-07,1,,,,,エアークラフト,0
1204,4180001148998,新規,0,2021-12-07,2021-12-07,株式会社橋本電設,,株式会社,愛知県,海部郡大治町,大字三本木字柳原５３番地,,23,424,4901142,,,,,,,2021-12-07,1,,,,,ハシモトデンセツ,0
1205,4180001149006,新規,0,2021-12-07,2021-12-07,株式会社はなまるウォーターサービス,,株式会社,愛知県,名古屋市昭和区,福原町３丁目２３番地,,23,107,4660803,,,,,,,2021-12-07,1,,,,,ハナマルウォーターサービス,0
1206,4180001149014,新規,0,2021-12-07,2021-12-07,株式会社Ｒａｙ’ｓ,,株式会社,愛知県,北名古屋市,中之郷北９２番地１,,23,234,4810045,,,,,,,2021-12-07,1,,,,,レイズ,0
1207,4180001149030,新規,0,2021-12-07,2021-12-07,株式会社ＳＴＲＡＤ　ＴＡＩＬＯＲ,,株式会社,愛知県,常滑市,大野町２丁目１０９番地の２,,23,216,4790866,,,,,,,2021-12-07,1,,,,,ストラッドテイラー,0
1208,4180001149039,新規,0,2021-12-07,2021-12-07,株式会社ＴｈｒｅｅＧｒａｃｅｓ,,株式会社,愛知県,名古屋市中区,大須３丁目５番１３号ＨＡＳＥ‐ＢＬＤＧ．３階Ｃ号室,,23,106,4600011,,,,,,,2021-12-07,1,,,,,スリーグレーシズ,0
1209,4180001149055,新規,0,2021-12-07,2021-12-07,株式会社ＡＫＴｓ,,株式会社,愛知県,小牧市,大字上末２６２６番地８,,23,219,4850822,,,,,,,2021-12-07,1,,,,,アクトス,0
1214,4180003023266,新規,0,2021-12-07,2021-12-07,合同会社ＨｙｄｒａＮＴ　Ｊａｐａｎ,,合同会社,愛知県,名古屋市守山区,大森八龍２丁目１００５番地,,23,113,4630028,,,,,,,2021-12-07,1,,,,,ハイドラジャパン,0
1215,4180005019543,新規,0,2021-12-07,2021-12-07,一般社団法人ピースフル・ビー,,その他の設立登記法人,愛知県,名古屋市中区,丸の内３丁目５番３５号弁護士ビル１０１号,,23,106,4600002,,,,,,,2021-12-07,1,,,,,ピースフルビー,0
1216,4180301035707,新規,0,2021-12-07,2021-12-07,株式会社アンドマーク,,株式会社,愛知県,安城市,東栄町６丁目５番地７,,23,212,4460007,,,,,,,2021-12-07,1,,,,,アンドマーク,0
1222,4200001039501,新規,0,2021-12-07,2021-12-07,株式会社Ｔｒｅｓｓｅ,,株式会社,岐阜県,不破郡関ケ原町,大字関ケ原２６２９番地の１,,21,362,5031501,,,,,,,2021-12-07,1,,,,,トレス,0
1228,4230001019129,新規,0,2021-12-07,2021-12-07,株式会社モアザン,,株式会社,富山県,滑川市,魚躬２０３番地１,,16,206,9360077,,,,,,,2021-12-07,1,,,,,モアザン,0
1234,4250001019291,新規,0,2021-12-07,2021-12-07,株式会社Ｔ・Ａ・Ｆ,,株式会社,山口県,防府市,大字田島８７８番地の４,,35,206,7470834,,,,,,,2021-12-07,1,,,,,ティーエーエフ,0
1235,4250003002956,新規,0,2021-12-07,2021-12-07,合同会社ＭＭビジネス,,合同会社,山口県,山口市,朝田１３９７番地１,,35,203,7530871,,,,,,,2021-12-07,1,,,,,エムエムビジネス,0
1238,4260001036286,新規,0,2021-12-07,2021-12-07,古川畜産株式会社,,株式会社,岡山県,加賀郡吉備中央町,上竹３６５４番地６５,,33,681,7161131,,,,,,,2021-12-07,1,,,,,フルカワチクサン,0
1241,4280001008580,新規,0,2021-12-07,2021-12-07,ＩＭＡＧＩＮＥＣＯＬＬＥＣＴＩＶＥ株式会社,,株式会社,島根県,松江市,伊勢宮町５０３番地１,,32,201,6900006,,,,,,,2021-12-07,1,,,,,イマジンコレクティブ,0
1248,4290003011887,新規,0,2021-12-07,2021-12-07,合同会社Ｊ＆Ｖ南十字星,,合同会社,福岡県,福岡市東区,原田１丁目４７番２０－７０７号,,40,131,8120063,,,,,,,2021-12-07,1,,,,,ジェイアンドブイミナミジュウジセイ,0
1254,4290801028050,新規,0,2021-12-07,2021-12-07,Ｍａｃｈｉｅｖｅ株式会社,,株式会社,福岡県,北九州市小倉北区,宇佐町１丁目３番３０号,,40,106,8020016,,,,,,,2021-12-07,1,,,,,マチーブ,0
1257,4310003004228,新規,0,2021-12-07,2021-12-07,アーキスタジオ設計合同会社,,合同会社,長崎県,諫早市,原口町６８９番地１１,,42,204,8540046,,,,,,,2021-12-07,1,,,,,アーキスタジオセッケイ,0
1263,4320003003674,新規,0,2021-12-07,2021-12-07,合同会社たつみ,,合同会社,大分県,杵築市,大字片野７３３番地１,,44,210,8730007,,,,,,,2021-12-07,1,,,,,タツミ,0
1265,4330003009159,新規,0,2021-12-07,2021-12-07,ＫＴ５合同会社,,合同会社,熊本県,熊本市南区,薄場１丁目６番７８号,,43,104,8614131,,,,,,,2021-12-07,1,,,,,ケイティーゴ,0
1267,4340001024316,新規,0,2021-12-07,2021-12-07,株式会社ＳＢＢ,,株式会社,鹿児島県,鹿児島市,紫原３丁目２１番２３号シャルマン・ドヌール１０１号,,46,201,8900082,,,,,,,2021-12-07,1,,,,,エスビービー,0
1268,4340005009379,新規,0,2021-12-07,2021-12-07,一般社団法人デンタルエステ協会,,その他の設立登記法人,鹿児島県,鹿児島市,下荒田１丁目２０番４号みちよビル４Ｆ,,46,201,8900056,,,,,,,2021-12-07,1,,,,,デンタルエステキョウカイ,0
1269,4350001017450,新規,0,2021-12-07,2021-12-07,株式会社ＡＫＡ　ＰＲＯＤＵＣＴＩＯＮ,,株式会社,宮崎県,宮崎市,堀川町１９１番地,,45,201,8800873,,,,,,,2021-12-07,1,,,,,エイケイエイプロダクション,0
1270,4350003003985,新規,0,2021-12-07,2021-12-07,合同会社介護事業所こすもす,,合同会社,宮崎県,宮崎市,高洲町２８６番地７,,45,201,8800852,,,,,,,2021-12-07,1,,,,,カイゴジギョウショコスモス,0
1271,4370001047900,新規,0,2021-12-07,2021-12-07,株式会社ＳＥｅＮＯ,,株式会社,宮城県,白石市,鷹巣東３丁目９番３６号,,04,206,9890218,,,,,,,2021-12-07,1,,,,,セェーノ,0
1272,4370005010400,新規,0,2021-12-07,2021-12-07,医療法人夢叶会,,その他の設立登記法人,宮城県,仙台市太白区,長町南２丁目６－５,,04,104,9820012,,,,,,,2021-12-07,1,,,,,ムキョウカイ,0
1280,4400001015688,新規,0,2021-12-07,2021-12-07,株式会社一関ホールディングス,,株式会社,岩手県,一関市,三関字白崎１番地８０,,03,209,0210821,,,,,,,2021-12-07,1,,,,,イチノセキホールディングス,0
1285,4430001085522,新規,0,2021-12-07,2021-12-07,株式会社中村ホールディングス,,株式会社,北海道,苫小牧市,美園町３丁目１４番１８号,,01,213,0530041,,,,,,,2021-12-07,1,,,,,ナカムラホールディングス,0
1295,4490001010045,新規,0,2021-12-07,2021-12-07,株式会社田中設備,,株式会社,高知県,高知市,東城山町１５５番地１４,,39,201,7808036,,,,,,,2021-12-07,1,,,,,タナカセツビ,0
1300,4700150106118,新規,0,2021-12-07,2021-12-07,月桂冠企業年金基金,,その他,京都府,京都市伏見区,南浜町２４７番地,,26,109,6128045,,,,,,,2021-12-07,1,,,,,ゲッケイカンキギョウネンキンキキン,0
1305,5010001222942,新規,0,2021-12-07,2021-12-07,株式会社くるみアセット,,株式会社,東京都,千代田区,飯田橋３丁目１１番１５号ヒキタカ飯田橋ビル８Ｆ,,13,101,1020072,,,,,,,2021-12-07,1,,,,,クルミアセット,0
1306,5010001222967,新規,0,2021-12-07,2021-12-07,株式会社住宅・都市政策推進機構,,株式会社,東京都,千代田区,神田錦町１丁目９番地東京天理ビル,,13,101,1010054,,,,,,,2021-12-07,1,,,,,ジュウタクトシセイサクスイシンキコウ,0
1307,5010001222991,新規,0,2021-12-07,2021-12-07,株式会社ハナプロ,,株式会社,東京都,中央区,銀座１丁目２１番９号,,13,102,1040061,,,,,,,2021-12-07,1,,,,,ハナプロ,0
1308,5010001223016,新規,0,2021-12-07,2021-12-07,ＫＩＫ株式会社,,株式会社,東京都,中央区,晴海３丁目１３番１号ＥＡＳＴ４５１９,,13,102,1040053,,,,,,,2021-12-07,1,,,,,ケーアイケー,0
1309,5010001223040,新規,0,2021-12-07,2021-12-07,株式会社ＴＲＩＥ　Ｍａｒｋｅｔｉｎｇ,,株式会社,東京都,中央区,銀座１丁目２２番１１号銀座大竹ビジデンス２階,,13,102,1040061,,,,,,,2021-12-07,1,,,,,トリエマーケティング,0
1310,5010001223049,新規,0,2021-12-07,2021-12-07,ＺＯＲＩ株式会社,,株式会社,東京都,中央区,銀座１丁目２２番１１号銀座大竹ビジデンス２階,,13,102,1040061,,,,,,,2021-12-07,1,,,,,ゾリ,0
1324,5010401164223,新規,0,2021-12-07,2021-12-07,株式会社Ｑｕａｌｉｔｉｃａ,,株式会社,東京都,港区,南麻布１丁目３番２号エスパステテ２０３,,13,103,1060047,,,,,,,2021-12-07,1,,,,,クオリティカ,0
1329,5010403026628,新規,0,2021-12-07,2021-12-07,合同会社深田商店,,合同会社,東京都,港区,浜松町２丁目２番１５号,,13,103,1050013,,,,,,,2021-12-07,1,,,,,フカダショウテン,0
1330,5010403026636,新規,0,2021-12-07,2021-12-07,２Ｕ　ＥＮＴＥＲＴＡＩＮＭＥＮＴ合同会社,,合同会社,東京都,港区,南青山２丁目２－１５,,13,103,1070062,,,,,,,2021-12-07,1,,,,,トゥーユーエンターテイメント,0
1331,5010403026644,新規,0,2021-12-07,2021-12-07,合同会社マグナインベストメント,,合同会社,東京都,港区,浜松町２丁目２番１５号浜松町ダイヤビル２Ｆ,,13,103,1050013,,,,,,,2021-12-07,1,,,,,マグナインベストメント,0
1332,5010403026669,新規,0,2021-12-07,2021-12-07,合同会社日比谷メズワン,,合同会社,東京都,港区,虎ノ門３丁目１８番１２－５０２号株式会社虎ノ門会計神谷町分室内,,13,103,1050001,,,,,,,2021-12-07,1,,,,,ヒビヤメズワン,0
1338,5010501048185,新規,0,2021-12-07,2021-12-07,株式会社ＫＩＴアカウンティング,,株式会社,東京都,台東区,台東１丁目３８番９号,,13,106,1100016,,,,,,,2021-12-07,1,,,,,ケイアイティーアカウンティング,0
1340,5010503006447,新規,0,2021-12-07,2021-12-07,ＭＹ　Ｂｅｎｔｏ合同会社,,合同会社,東京都,台東区,北上野２丁目１１－１４－１Ｆ,,13,106,1100014,,,,,,,2021-12-07,1,,,,,マイベント,0
1346,5010601060346,新規,0,2021-12-07,2021-12-07,株式会社Ｆｏｏｄ　Ｉｎｎｏｖａｔｉｏｎ,,株式会社,東京都,墨田区,横網２丁目９番８－２０２号メゾンドアミ,,13,107,1300015,,,,,,,2021-12-07,1,,,,,フードイノベーション,0
1347,5010605004019,新規,0,2021-12-07,2021-12-07,ピーピーエフエー・ジャパン・エイト特定目的会社,,その他の設立登記法人,東京都,江東区,亀戸６丁目５６番１５号,,13,108,1360071,,,,,,,2021-12-07,1,,,,,ピーピーエフエージャパンエイト,0
1351,5010701041865,新規,0,2021-12-07,2021-12-07,テックホールディングス株式会社,,株式会社,東京都,品川区,東品川３丁目１５番２０－８０３号,,13,109,1400002,,,,,,,2021-12-07,1,,,,,テックホールディングス,0
1352,5010801032558,新規,0,2021-12-07,2021-12-07,株式会社フードツアーズ,,株式会社,東京都,大田区,上池台５丁目２０番１３号,,13,111,1450064,,,,,,,2021-12-07,1,,,,,フードツアーズ,0
1361,5011001144391,新規,0,2021-12-07,2021-12-07,株式会社グレイス,,株式会社,東京都,渋谷区,渋谷２丁目１９－１５宮益坂ビルディング６０９,,13,113,1500002,,,,,,,2021-12-07,1,,,,,グレイス,0
1362,5011001144400,新規,0,2021-12-07,2021-12-07,つながるＥＡＴ株式会社,,株式会社,東京都,目黒区,目黒２丁目１３番６号パーシブル目黒３０２,,13,110,1530063,,,,,,,2021-12-07,1,,,,,ツナガルイート,0
1363,5011001144409,新規,0,2021-12-07,2021-12-07,株式会社ＬＩＭ－ＣＨＡＩＮ,,株式会社,東京都,渋谷区,代官山町７番２号ＥＶＥＲ２Ｆ,,13,113,1500034,,,,,,,2021-12-07,1,,,,,リムチェイン,0
1364,5011001144441,新規,0,2021-12-07,2021-12-07,株式会社Ｎｅｘｕｓ,,株式会社,東京都,渋谷区,代官山８－１９ＬａＧｒａｃｅ代官山４Ｆ,,13,113,1500000,,,,,,,2021-12-07,1,,,,,ネクサス,0
1368,5011101097127,新規,0,2021-12-07,2021-12-07,株式会社渋谷外語学院,,株式会社,東京都,新宿区,高田馬場１丁目３４番６号,,13,104,1690075,,,,,,,2021-12-07,1,,,,,シブヤガイゴガクイン,0
1370,5011103011250,新規,0,2021-12-07,2021-12-07,合同会社ＣＯＣＯ　ＣＡＦＥ,,合同会社,東京都,新宿区,大久保２丁目１８番１８号ＮＳハイム地下１階Ｂ１－３５室,,13,104,1690072,,,,,,,2021-12-07,1,,,,,,0
1372,5011301027387,新規,0,2021-12-07,2021-12-07,株式会社隆宮建設,,株式会社,東京都,杉並区,上井草２丁目３７番１２号－４０２,,13,115,1670023,,,,,,,2021-12-07,1,,,,,タカミヤケンセツ,0
1375,5011501027542,新規,0,2021-12-07,2021-12-07,ＨＣ　Ｓｈｉｎ株式会社,,株式会社,東京都,北区,中里２丁目１６番６ウエストパークビル１０２号,,13,117,1140015,,,,,,,2021-12-07,1,,,,,エッチシーシン,0
1377,5011701024892,新規,0,2021-12-07,2021-12-07,株式会社アクセル,,株式会社,東京都,江戸川区,南篠崎町２丁目７番４号,,13,123,1330065,,,,,,,2021-12-07,1,,,,,アクセル,0
1382,5012301012783,新規,0,2021-12-07,2021-12-07,日本ハウス工業株式会社,,株式会社,東京都,町田市,玉川学園５丁目１４番２２号,,13,209,1940041,,,,,,,2021-12-07,1,,,,,,0
1385,5012401038621,新規,0,2021-12-07,2021-12-07,株式会社ＫＡＩＴＯ,,株式会社,東京都,多摩市,鶴牧１丁目１７番地,,13,224,2060034,,,,,,,2021-12-07,1,,,,,カイト,0
1386,5012701016814,新規,0,2021-12-07,2021-12-07,株式会社ロータスホーム,,株式会社,東京都,東久留米市,東本町７番３０号,,13,222,2030014,,,,,,,2021-12-07,1,,,,,ロータスホーム,0
1397,5020001144145,新規,0,2021-12-07,2021-12-07,株式会社平井企画,,株式会社,神奈川県,横浜市青葉区,桂台１丁目２０番地３,,14,117,2270034,,,,,,,2021-12-07,1,,,,,ヒライキカク,0
1400,5020003020930,新規,0,2021-12-07,2021-12-07,合同会社ＥＮＥＰＯＴ,,合同会社,神奈川県,横浜市青葉区,あざみ野１丁目３番地３第２金子ハイツＡ,,14,117,2250011,,,,,,,2021-12-07,1,,,,,エネポット,0
1402,5021001074695,新規,0,2021-12-07,2021-12-07,株式会社トーチス,,株式会社,神奈川県,鎌倉市,長谷２丁目１番７号２－Ｂ号室,,14,204,2480016,,,,,,,2021-12-07,1,,,,,トーチス,0
1406,5021003011135,新規,0,2021-12-07,2021-12-07,ｅ－スキル合同会社,,合同会社,神奈川県,相模原市中央区,上矢部３丁目５番３１－１０５号,,14,152,2520201,,,,,,,2021-12-07,1,,,,,イースキル,0
1415,5030001145679,新規,0,2021-12-07,2021-12-07,Ｗａｓｙｕ株式会社,,株式会社,埼玉県,さいたま市中央区,桜丘１丁目８番３号,,11,105,3380005,,,,,,,2021-12-07,1,,,,,ワシュ,0
1416,5030001145729,新規,0,2021-12-07,2021-12-07,株式会社ＤＡＯＮ,,株式会社,埼玉県,川口市,芝中田２丁目１０番２２号,,11,203,3330847,,,,,,,2021-12-07,1,,,,,ダオン,0
1417,5030001145737,新規,0,2021-12-07,2021-12-07,株式会社ＣＳＫ,,株式会社,埼玉県,さいたま市桜区,大字五関４１７番地１,,11,106,3380815,,,,,,,2021-12-07,1,,,,,シーエスケー,0
1426,5040001121241,新規,0,2021-12-07,2021-12-07,ベルウッド株式会社,,株式会社,千葉県,市川市,北方町４丁目２０９４番地ウェルズ北方パート１Ｂ,,12,203,2720811,,,,,,,2021-12-07,1,,,,,ベルウッド,0
1427,5040001121282,新規,0,2021-12-07,2021-12-07,株式会社ライフキャリアｃｉｒｃｌｅ,,株式会社,千葉県,佐倉市,ユーカリが丘４丁目１番１号,,12,212,2850858,,,,,,,2021-12-07,1,,,,,ライフキャリアサークル,0
1448,5110001036250,新規,0,2021-12-07,2021-12-07,株式会社正建,,株式会社,新潟県,長岡市,摂田屋町２６１２番地２,,15,202,9401104,,,,,,,2021-12-07,1,,,,,ショウケン,0
1450,5110003004643,新規,0,2021-12-07,2021-12-07,合同会社オクタゴン,,合同会社,新潟県,上越市,石橋２丁目５－３５,,15,222,9420074,,,,,,,2021-12-07,1,,,,,オクタゴン,0
1466,5120001242343,新規,0,2021-12-07,2021-12-07,株式会社アイリアルティ,,株式会社,大阪府,大阪市此花区,朝日１丁目９番２０号,,27,104,5540011,,,,,,,2021-12-07,1,,,,,アイリアルティ,0
1478,5120101064745,新規,0,2021-12-07,2021-12-07,株式会社グッドサービス,,株式会社,大阪府,藤井寺市,惣社１丁目７番３７号,,27,226,5830005,,,,,,,2021-12-07,1,,,,,グッドサービス,0
1482,5120901045309,新規,0,2021-12-07,2021-12-07,株式会社ピオッジャ,,株式会社,大阪府,高槻市,城南町１丁目６番５号,,27,207,5690056,,,,,,,2021-12-07,1,,,,,ピオッジャ,0
1486,5122001035413,新規,0,2021-12-07,2021-12-07,株式会社Ｌ＆Ａ,,株式会社,大阪府,東大阪市,若江本町１丁目２番４１号Ｔ・Ｋスカイハイツ１Ｆ,,27,227,5780942,,,,,,,2021-12-07,1,,,,,エルアンドエー,0
1491,5130001070669,新規,0,2021-12-07,2021-12-07,株式会社ＳＡＮＤＢＯＸ,,株式会社,京都府,京都市下京区,室町通松原下る元両替町２４５番地１,,26,106,6008436,,,,,,,2021-12-07,1,,,,,サンドボックス,0
1501,5140001124069,新規,0,2021-12-07,2021-12-07,株式会社プレイ,,株式会社,兵庫県,神戸市垂水区,清水が丘３丁目１０番７－３０３号,,28,108,6550031,,,,,,,2021-12-07,1,,,,,プレイ,0
1502,5140001124085,新規,0,2021-12-07,2021-12-07,株式会社Ｈｉｖｅ,,株式会社,兵庫県,加古川市,平岡町新在家６０５番地の３,,28,210,6750101,,,,,,,2021-12-07,1,,,,,ハイブ,0
1503,5140001124102,新規,0,2021-12-07,2021-12-07,株式会社ＬＩＮＫ,,株式会社,兵庫県,小野市,天神町９４６番地の２,,28,218,6751316,,,,,,,2021-12-07,1,,,,,リンク,0
1504,5140001124110,新規,0,2021-12-07,2021-12-07,株式会社ファストテック,,株式会社,兵庫県,三木市,別所町高木６４６番地１,,28,215,6730435,,,,,,,2021-12-07,1,,,,,ファストテック,0
1506,5140003017056,新規,0,2021-12-07,2021-12-07,合同会社ＹＯＳＨＩＤＡ．Ｋ．Ｔ,,合同会社,兵庫県,西宮市,上鳴尾町１９番１６－３０２号,,28,204,6638186,,,,,,,2021-12-07,1,,,,,ヨシダケイティ,0
1507,5140005025940,新規,0,2021-12-07,2021-12-07,医療法人社団とみなが内科クリニック,,その他の設立登記法人,兵庫県,伊丹市,車塚２丁目８４番地２,00125072,28,207,6640872,,,,,,,2021-12-07,1,,,,,トミナガナイカクリニック,0
1509,5150001025150,新規,0,2021-12-07,2021-12-07,株式会社ルネス,,株式会社,奈良県,奈良市,学園新田町３０３２番地の１,,29,201,6310025,,,,,,,2021-12-07,1,,,,,ルネス,0
1510,5150005009356,新規,0,2021-12-07,2021-12-07,医療法人至誠会,,その他の設立登記法人,奈良県,橿原市,醍醐町５０２番地の３４,,29,205,6340072,,,,,,,2021-12-07,1,,,,,シセイカイ,0
1516,5180001148989,新規,0,2021-12-07,2021-12-07,株式会社カロックス,,株式会社,愛知県,春日井市,林島町３丁目５番地１２,,23,206,4860854,,,,,,,2021-12-07,1,,,,,カロックス,0
1517,5180001149046,新規,0,2021-12-07,2021-12-07,株式会社ＵＣＬＩＭＢ,,株式会社,愛知県,名古屋市北区,黒川本通４丁目４３番地山内ビル４０２,,23,103,4620841,,,,,,,2021-12-07,1,,,,,ユークライム,0
1526,5180301035706,新規,0,2021-12-07,2021-12-07,ＥＫＯ企画株式会社,,株式会社,愛知県,刈谷市,寺横町１丁目５８番地２,,23,210,4480846,,,,,,,2021-12-07,1,,,,,エコキカク,0
1535,5200001039500,新規,0,2021-12-07,2021-12-07,株式会社昌和工業,,株式会社,岐阜県,各務原市,那加石山町２丁目５５番２,,21,213,5040044,,,,,,,2021-12-07,1,,,,,ショウワコウギョウ,0
1536,5200001039509,新規,0,2021-12-07,2021-12-07,株式会社さかえ仏具,,株式会社,岐阜県,養老郡養老町,押越字村前１２２８番１,,21,341,5031316,,,,,,,2021-12-07,1,,,,,サカエブツグ,0
1538,5200005013286,新規,0,2021-12-07,2021-12-07,一般社団法人中部地方公営競技運営協議会,,その他の設立登記法人,岐阜県,各務原市,つつじが丘３丁目１１９番地,,21,213,5090131,,,,,,,2021-12-07,1,,,,,チュウブチホウコウエイキョウギウンエイキョウギカイ,0
1543,5240001059032,新規,0,2021-12-07,2021-12-07,株式会社Ｄ,,株式会社,広島県,広島市佐伯区,五日市１丁目１２番１５号,,34,108,7315127,,,,,,,2021-12-07,1,,,,,ディ,0
1545,5240003005397,新規,0,2021-12-07,2021-12-07,合同会社ＳＨＩＲＯ,,合同会社,広島県,広島市南区,東雲２丁目１８番２３号,,34,103,7340022,,,,,,,2021-12-07,1,,,,,シロ,0
1547,5250003002947,新規,0,2021-12-07,2021-12-07,Ｎｏｎａｒｉａ合同会社,,合同会社,山口県,萩市,大字江向３７９－１,,35,204,7580041,,,,,,,2021-12-07,1,,,,,ノナリア,0
1548,5250005008711,新規,0,2021-12-07,2021-12-07,形山パレス管理組合法人,,その他の設立登記法人,山口県,下関市,秋根上町１丁目３番２号,,35,201,7510878,,,,,,,2021-12-07,1,,,,,カタチヤマパレス,0
1549,5260001036293,新規,0,2021-12-07,2021-12-07,一真建設株式会社,,株式会社,岡山県,岡山市南区,大福７０７－２イルサローネ１０６号,,33,104,7010204,,,,,,,2021-12-07,1,,,,,イッシンケンセツ,0
1559,5290001095650,新規,0,2021-12-07,2021-12-07,株式会社ＯＤＥ,,株式会社,福岡県,古賀市,中央２丁目８番３５号,,40,223,8113103,,,,,,,2021-12-07,1,,,,,オード,0
1562,5290003011911,新規,0,2021-12-07,2021-12-07,ＣＫＳＪＡＰＡＮ合同会社,,合同会社,福岡県,福岡市東区,八田１丁目１１番１９－２０２号エブリディハイツ,,40,131,8130031,,,,,,,2021-12-07,1,,,,,シーケーエスジャパン,0
1564,5310003004227,新規,0,2021-12-07,2021-12-07,合同会社クライム,,合同会社,長崎県,諫早市,小長井町井崎２１８番地２,,42,204,8590166,,,,,,,2021-12-07,1,,,,,クライム,0
1571,5330001029240,新規,0,2021-12-07,2021-12-07,ＵｎｉｔｙＳｍｉｌｅ株式会社,,株式会社,熊本県,上益城郡益城町,大字平田２２４０番地１,,43,443,8612212,,,,,,,2021-12-07,1,,,,,ユニティスマイル,0
1572,5330001029257,新規,0,2021-12-07,2021-12-07,Ｒ＆Ｅ株式会社,,株式会社,熊本県,菊池郡大津町,大字杉水３３８３番地２,,43,403,8691236,,,,,,,2021-12-07,1,,,,,アールアンドイー,0
1575,5330003009158,新規,0,2021-12-07,2021-12-07,合同会社リンク・フードサービス,,合同会社,熊本県,熊本市中央区,神水２丁目１３番３２号かわしまビル２階,,43,101,8620954,,,,,,,2021-12-07,1,,,,,リンクフードサービス,0
1577,5340001024315,新規,0,2021-12-07,2021-12-07,株式会社マルフサ,,株式会社,鹿児島県,鹿児島市,吉野町５６１６番地２４,,46,201,8920871,,,,,,,2021-12-07,1,,,,,マルフサ,0
1581,5360001029700,新規,0,2021-12-07,2021-12-07,株式会社いしがきライブストック,,株式会社,沖縄県,石垣市,字大川９９１－６,,47,207,9070022,,,,,,,2021-12-07,1,,,,,イシガキライブストック,0
1584,5360003011623,新規,0,2021-12-07,2021-12-07,合同会社さらさら,,合同会社,沖縄県,中頭郡読谷村,字喜名２２７９番地２２,,47,324,9040302,,,,,,,2021-12-07,1,,,,,サラサラ,0
1586,5370001047916,新規,0,2021-12-07,2021-12-07,株式会社松工業,,株式会社,宮城県,仙台市泉区,北中山１丁目８番地の１６,,04,105,9813215,,,,,,,2021-12-07,1,,,,,マツコウギョウ,0
1588,5370005010399,新規,0,2021-12-07,2021-12-07,医療法人田中クリニック,,その他の設立登記法人,宮城県,仙台市泉区,長命ケ丘２丁目２１番１,,04,105,9813212,,,,,,,2021-12-07,1,,,,,タナカクリニック,0
1589,5370005010408,新規,0,2021-12-07,2021-12-07,医療法人惠久会,,その他の設立登記法人,宮城県,亘理郡山元町,つばめの杜１丁目５番地２,,04,362,9892208,,,,,,,2021-12-07,1,,,,,ケイキュウカイ,0
1591,5380001032388,新規,0,2021-12-07,2021-12-07,株式会社夢乃商人,,株式会社,福島県,郡山市,大槻町字北ノ林６番地の１０,,07,203,9630201,,,,,,,2021-12-07,1,,,,,ユメノショウニン,0
1592,5390001016704,新規,0,2021-12-07,2021-12-07,株式会社工藤農園,,株式会社,山形県,尾花沢市,大字名木沢２３３７番地１５３,,06,212,9994556,,,,,,,2021-12-07,1,,,,,クドウノウエン,0
1597,5420001017673,新規,0,2021-12-07,2021-12-07,大生建設株式会社,,株式会社,青森県,つがる市,稲垣町穂積元神田１１番地１,,02,209,0370103,,,,,,,2021-12-07,1,,,,,オオキケンセツ,0
1607,5440003001434,新規,0,2021-12-07,2021-12-07,ＴｅｒｍｉｎａＬ合同会社,,合同会社,北海道,函館市,花園町２４番７号,,01,202,0410843,,,,,,,2021-12-07,1,,,,,ターミナル,0
1608,5450003002159,新規,0,2021-12-07,2021-12-07,ノーススターモビリティ合同会社,,合同会社,北海道,旭川市,東七条２丁目３番１１号,,01,204,0700027,,,,,,,2021-12-07,1,,,,,ノーススターモビリティ,0
1615,5500003002731,新規,0,2021-12-07,2021-12-07,合同会社ことのは,,合同会社,愛媛県,宇和島市,保田甲７７５番地,,38,203,7980077,,,,,,,2021-12-07,1,,,,,コトノハ,0
1618,5700150105894,新規,0,2021-12-07,2021-11-19,周木ビリ島むらおこし会,,その他,愛媛県,西予市,三瓶町周木１－３２１－１８,,38,214,7960901,,,,,,,2021-11-19,1,,,,,シユウキビリシマムラオコシカイ,0
1619,5700150106117,新規,0,2021-12-07,2021-12-07,ＨＤ　ＥＮＴＥＲＲＩＳＥＳ,,外国会社等,千葉県,我孫子市,青山台４丁目３－７,,12,222,2701175,スリランカ民主社会主義共和国Ｎｏ．７１６／２２クラセワナマワタ、コッタワ、パンニピティヤ,,,,,,2021-12-07,1,,,,,エイチデイエンタープライゼス,0
1628,6010001222990,新規,0,2021-12-07,2021-12-07,株式会社稲垣ビルホールディングス,,株式会社,東京都,中央区,銀座４丁目２番２号,,13,102,1040061,,,,,,,2021-12-07,1,,,,,イナガキビルホールディングス,0
1632,6010003036489,新規,0,2021-12-07,2021-12-07,アライドビジネスクラウド合同会社,,合同会社,東京都,中央区,銀座１丁目１２－４Ｎ＆ＥＢＬＤ．７階,,13,102,1040061,,,,,,,2021-12-07,1,,,,,アライドビジネスクラウド,0
1634,6010101014974,新規,0,2021-12-07,2021-12-07,株式会社ｇｏｉｎｇ－ｔｏ,,株式会社,東京都,八王子市,中野上町４丁目２６番１６号,,13,201,1920041,,,,,,,2021-12-07,1,,,,,ゴーイングトゥ,0
1638,6010401164148,新規,0,2021-12-07,2021-12-07,ロアークスインターナショナル株式会社,,株式会社,東京都,港区,虎ノ門４丁目３番１号城山トラストタワー２７階,,13,103,1050001,,,,,,,2021-12-07,1,,,,,ロアークスインターナショナル,0
1639,6010401164206,新規,0,2021-12-07,2021-12-07,株式会社エイトファミリア,,株式会社,東京都,港区,北青山１丁目２番１８号,,13,103,1070061,,,,,,,2021-12-07,1,,,,,エイトファミリア,0
1640,6010401164239,新規,0,2021-12-07,2021-12-07,株式会社リアライズオートファクトリー,,株式会社,東京都,港区,六本木６丁目１０番１号六本木ヒルズ森タワー３４階,,13,103,1060032,,,,,,,2021-12-07,1,,,,,リアライズオートファクトリー,0
1643,6010501048176,新規,0,2021-12-07,2021-12-07,株式会社ユナイテッドクリエイション,,株式会社,東京都,台東区,東上野４丁目１番８－７０２号,,13,106,1100015,,,,,,,2021-12-07,1,,,,,ユナイテッドクリエイション,0
1646,6010601060337,新規,0,2021-12-07,2021-12-07,株式会社ＤＡＩＳＹＯ,,株式会社,東京都,江東区,東砂３丁目１番１１号,,13,108,1360074,,,,,,,2021-12-07,1,,,,,ダイショウ,0
1647,6010601060345,新規,0,2021-12-07,2021-12-07,株式会社ＯＮＥ,,株式会社,東京都,江東区,豊洲６丁目２番２９－２１１４号,,13,108,1350061,,,,,,,2021-12-07,1,,,,,ワン,0
1648,6010601060353,新規,0,2021-12-07,2021-12-07,株式会社ヴィサイン,,株式会社,東京都,江東区,毛利２丁目８番５－２０４号,,13,108,1350001,,,,,,,2021-12-07,1,,,,,ヴィサイン,0
1649,6010701041880,新規,0,2021-12-07,2021-12-07,株式会社マスダストア,,株式会社,東京都,品川区,小山２丁目６番１６号松林堂ＳＫ第三マンション１０１,,13,109,1420062,,,,,,,2021-12-07,1,,,,,マスダストア,0
1651,6010801032524,新規,0,2021-12-07,2021-12-07,マチダ・ビルマネージメント株式会社,,株式会社,東京都,大田区,南馬込６丁目３０番５号,,13,111,1430025,,,,,,,2021-12-07,1,,,,,マチダビルマネージメント,0
1652,6010801032540,新規,0,2021-12-07,2021-12-07,株式会社ＨＯＮＭＡ,,株式会社,東京都,大田区,大森南４丁目７番１号,,13,111,1430013,,,,,,,2021-12-07,1,,,,,ホンマ,0
1654,6010805002903,新規,0,2021-12-07,2021-12-07,サステナブル税理士法人,,その他の設立登記法人,東京都,大田区,大森北１丁目１番６号,,13,111,1430016,,,,,,,2021-12-07,1,,,,,サステナブル,0
1664,6011001144184,新規,0,2021-12-07,2021-12-07,リーンマーケティング株式会社,,株式会社,東京都,渋谷区,神宮前６丁目２３番４号桑野ビル２階,,13,113,1500001,,,,,,,2021-12-07,1,,,,,リーンマーケティング,0
1665,6011001144341,新規,0,2021-12-07,2021-12-07,株式会社Ｐ．Ｄ．Ｂ,,株式会社,東京都,渋谷区,広尾５丁目４番１２号大成鋼機ビル４階,,13,113,1500012,,,,,,,2021-12-07,1,,,,,ピーディービー,0
1666,6011001144432,新規,0,2021-12-07,2021-12-07,株式会社Ｓｈｉｙｏｈ,,株式会社,東京都,渋谷区,渋谷２丁目１９番１５号宮益坂ビルディング６０９,,13,113,1500002,,,,,,,2021-12-07,1,,,,,シヨウ,0
1667,6011003013833,新規,0,2021-12-07,2021-12-07,Ｇｔｅｃ合同会社,,合同会社,東京都,目黒区,目黒本町１丁目１６番３－３０８号デュオヴェール目黒学芸大学,,13,110,1520002,,,,,,,2021-12-07,1,,,,,ジーテック,0
1676,6011103011241,新規,0,2021-12-07,2021-12-07,ＢＳ　ＭＯＤＥ合同会社,,合同会社,東京都,新宿区,下落合３丁目２０番１号トシマヤビル１階,,13,104,1610033,,,,,,,2021-12-07,1,,,,,ビーエスモード,0
1680,6011201023460,新規,0,2021-12-07,2021-12-07,株式会社ＹＲＣ,,株式会社,東京都,中野区,本町４丁目４２番２号,,13,114,1640012,,,,,,,2021-12-07,1,,,,,ワイアールシー,0
1681,6011203003709,新規,0,2021-12-07,2021-12-07,Ｏｒｅｂｉ合同会社,,合同会社,東京都,中野区,本町３丁目４番２号ルミエール１０２,,13,114,1640012,,,,,,,2021-12-07,1,,,,,オレビ,0
1684,6011301027394,新規,0,2021-12-07,2021-12-07,株式会社ＭｏｈｓＴｅｃ,,株式会社,東京都,杉並区,阿佐谷南３丁目３７番９号バール・アサガヤ３０１,,13,115,1660004,,,,,,,2021-12-07,1,,,,,モーステック,0
1687,6011401023888,新規,0,2021-12-07,2021-12-07,株式会社ＡＰ＆Ｍ,,株式会社,東京都,板橋区,赤塚６丁目１６番１４号,,13,119,1750092,,,,,,,2021-12-07,1,,,,,エーピーアンドエム,0
1689,6011701024891,新規,0,2021-12-07,2021-12-07,株式会社リベルタ,,株式会社,東京都,江戸川区,小松川１丁目２番３－１５０５号,,13,123,1320034,,,,,,,2021-12-07,1,,,,,リベルタ,0
1693,6012301012790,新規,0,2021-12-07,2021-12-07,株式会社佐輝,,株式会社,東京都,町田市,木曽東４丁目３２番３６号,,13,209,1940036,,,,,,,2021-12-07,1,,,,,サコウ,0
1697,6012401038612,新規,0,2021-12-07,2021-12-07,株式会社あじと南口店,,株式会社,東京都,武蔵野市,吉祥寺南町１丁目１番４号三河屋ビル２Ｆ,,13,203,1800003,,,,,,,2021-12-07,1,,,,,アジトミナミグチテン,0
1702,6012701016805,新規,0,2021-12-07,2021-12-07,株式会社たけや,,株式会社,東京都,西東京市,南町４丁目１７番１号,,13,229,1880012,,,,,,,2021-12-07,1,,,,,タケヤ,0
1703,6012701016813,新規,0,2021-12-07,2021-12-07,株式会社Ｐｉｎｅｃｏｎｅ,,株式会社,東京都,小平市,小川町２丁目１９０１番地,,13,211,1870032,,,,,,,2021-12-07,1,,,,,パインコーン,0
1708,6013301048387,新規,0,2021-12-07,2021-12-07,株式会社ベストスタッフ,,株式会社,東京都,豊島区,池袋２丁目５２番３号１２０５,,13,116,1710014,,,,,,,2021-12-07,1,,,,,ベストスタッフ,0
1711,6020001144169,新規,0,2021-12-07,2021-12-07,株式会社涼建,,株式会社,神奈川県,川崎市中原区,中丸子３３７番地３０２,,14,133,2110012,,,,,,,2021-12-07,1,,,,,リョウケン,0
1716,6020003020946,新規,0,2021-12-07,2021-12-07,Ｋｏｋｉａ＆Ｓ合同会社,,合同会社,神奈川県,横浜市緑区,上山１丁目７番１－４０３号,,14,113,2260012,,,,,,,2021-12-07,1,,,,,コキアアンドエス,0
1725,6021001074694,新規,0,2021-12-07,2021-12-07,株式会社ブルーアンドピークス,,株式会社,神奈川県,藤沢市,葛原１８３番地の４,,14,205,2520822,,,,,,,2021-12-07,1,,,,,ブルーアンドピークス,0
1726,6021001074703,新規,0,2021-12-07,2021-12-07,神威電気株式会社,,株式会社,神奈川県,中郡二宮町,百合が丘２丁目８－３,,14,342,2590133,,,,,,,2021-12-07,1,,,,,カムイデンキ,0
1731,6021005012361,新規,0,2021-12-07,2021-12-07,一般社団法人イノベーションアーキテクト,,その他の設立登記法人,神奈川県,小田原市,蓮正寺２４４番地の１５,00125068,14,206,2500865,,,,,,,2021-12-07,1,,,,,イノベーションアーキテクト,0
1737,6030001145612,新規,0,2021-12-07,2021-12-07,株式会社Ｐａｓｔｉｍｅ,,株式会社,埼玉県,さいたま市緑区,原山２丁目２４番１７号,,11,109,3360931,,,,,,,2021-12-07,1,,,,,パスタイム,0
1738,6030001145744,新規,0,2021-12-07,2021-12-07,株式会社ＡＲＱＩＴ,,株式会社,埼玉県,朝霞市,宮戸２丁目１番９０号,,11,227,3510031,,,,,,,2021-12-07,1,,,,,アーキット,0
1742,6030003018378,新規,0,2021-12-07,2021-12-07,佰億合同会社,,合同会社,埼玉県,越谷市,大沢３丁目６－１パルテきたこし１階,,11,222,3430025,,,,,,,2021-12-07,1,,,,,ヒャクオク,0
1743,6030003018452,新規,0,2021-12-07,2021-12-07,合同会社シア,,合同会社,埼玉県,さいたま市北区,東大成町２丁目４６番地メゾン・ド・フルール２０５,,11,102,3310814,,,,,,,2021-12-07,1,,,,,シア,0
1750,6040001121249,新規,0,2021-12-07,2021-12-07,株式会社エクステンション,,株式会社,千葉県,流山市,前ケ崎７１９番地の２南柏スカイハイツＡ－４１１,,12,220,2700144,,,,,,,2021-12-07,1,,,,,エクステンション,0
1751,6040001121265,新規,0,2021-12-07,2021-12-07,株式会社松戸ビルワークス,,株式会社,千葉県,松戸市,二十世紀が丘美野里町７９番地の１,,12,207,2710081,,,,,,,2021-12-07,1,,,,,マツドビルワークス,0
1752,6040001121281,新規,0,2021-12-07,2021-12-07,株式会社アクト,,株式会社,千葉県,茂原市,早野１９７８番地４,,12,210,2970037,,,,,,,2021-12-07,1,,,,,アクト,0
1753,6040003019078,新規,0,2021-12-07,2021-12-07,プレインリビング合同会社,,合同会社,千葉県,白井市,池の上３丁目１番１７号,,12,232,2701425,,,,,,,2021-12-07,1,,,,,プレインリビング,0
1761,6080001024621,新規,0,2021-12-07,2021-12-07,株式会社ヤマサン,,株式会社,静岡県,藤枝市,藤岡２丁目８番４号,,22,214,4260006,,,,,,,2021-12-07,1,,,,,ヤマサン,0
1763,6080101022962,新規,0,2021-12-07,2021-12-07,株式会社Ｈａｌｅｈｉａ,,株式会社,静岡県,沼津市,松長２１番地の１５,,22,203,4100874,,,,,,,2021-12-07,1,,,,,ハレヒア,0
1766,6090001017310,新規,0,2021-12-07,2021-12-07,株式会社大真,,株式会社,山梨県,北杜市,須玉町大蔵８９１番地３,,19,209,4080113,,,,,,,2021-12-07,1,,,,,ダイシン,0
1767,6090003002005,新規,0,2021-12-07,2021-12-07,ＡＢＣ合同会社,,合同会社,山梨県,笛吹市,石和町四日市場１０２２番地１,,19,211,4060032,,,,,,,2021-12-07,1,,,,,エイビーシー,0
1778,6120001242301,新規,0,2021-12-07,2021-12-07,株式会社ＫＣ,,株式会社,大阪府,大阪市阿倍野区,昭和町１丁目５番１号新谷ビル１階,,27,119,5450011,,,,,,,2021-12-07,1,,,,,ケーシー,0
1783,6120003020721,新規,0,2021-12-07,2021-12-07,合同会社ｎｉｃｏ,,合同会社,大阪府,枚方市,津田元町３丁目３４－５,,27,210,5730127,,,,,,,2021-12-07,1,,,,,ニコ,0
1787,6120101064736,新規,0,2021-12-07,2021-12-07,株式会社ｆ．,,株式会社,大阪府,松原市,阿保４丁目１番３７号,,27,217,5800043,,,,,,,2021-12-07,1,,,,,エフ,0
1788,6120101064744,新規,0,2021-12-07,2021-12-07,株式会社Ａｒｃｈｉ’ｔ　Ｎｅｏ　Ｄｅｓｉｇｎ,,株式会社,大阪府,泉大津市,我孫子４０９－１４、２階東号室,,27,206,5950031,,,,,,,2021-12-07,1,,,,,アーキネオデザイン,0
1789,6120103004467,新規,0,2021-12-07,2021-12-07,木田アセットマネジメント合同会社,,合同会社,大阪府,松原市,南新町６丁目３番１０号,,27,217,5800023,,,,,,,2021-12-07,1,,,,,キダアセットマネジメント,0
1798,6130001070651,新規,0,2021-12-07,2021-12-07,華蓬匯＿株式会社,00125083,株式会社,京都府,京都市東山区,大和大路通四条下る博多町１０１番地８ヤマトマンション１階１０２号室,,26,105,6050000,,,,,,,2021-12-07,1,,,,,カホウカイキン,0
1799,6130001070676,新規,0,2021-12-07,2021-12-07,株式会社ひがしやま企画,,株式会社,京都府,京都市左京区,岡崎東福ノ川町１０番地,,26,103,6068321,,,,,,,2021-12-07,1,,,,,ヒガシヤマキカク,0
1801,6140003017047,新規,0,2021-12-07,2021-12-07,合同会社理進,,合同会社,兵庫県,神戸市東灘区,深江北町２丁目８番６号,,28,101,6580013,,,,,,,2021-12-07,1,,,,,リシン,0
1802,6140003017071,新規,0,2021-12-07,2021-12-07,ＭａｉＭａｉ　Ｅｘｐｒｅｓｓ合同会社,,合同会社,兵庫県,神戸市中央区,国香通２丁目２番４－４０２号,,28,110,6510066,,,,,,,2021-12-07,1,,,,,マイマイエクスプレス,0
1804,6150001025133,新規,0,2021-12-07,2021-12-07,株式会社Ｔ．Ｋ工業,,株式会社,奈良県,生駒郡平群町,吉新１丁目６番１４号,,29,342,6360932,,,,,,,2021-12-07,1,,,,,ティーケィコウギョウ,0
1818,6180001149037,新規,0,2021-12-07,2021-12-07,株式会社コンサルティングの森,,株式会社,愛知県,名古屋市千種区,千種通６丁目２７番地の３,,23,101,4640855,,,,,,,2021-12-07,1,,,,,コンサルティングノモリ,0
1819,6180001149045,新規,0,2021-12-07,2021-12-07,株式会社アスカ,,株式会社,愛知県,北名古屋市,沖村天花寺１６９番地,,23,234,4810043,,,,,,,2021-12-07,1,,,,,アスカ,0
1820,6180001149061,新規,0,2021-12-07,2021-12-07,株式会社アンコニュ―,,株式会社,愛知県,名古屋市中区,丸の内３丁目１０番１２号,,23,106,4600002,,,,,,,2021-12-07,1,,,,,アンコニュー,0
1828,6180003023248,新規,0,2021-12-07,2021-12-07,合同会社ハッセン,,合同会社,愛知県,名古屋市瑞穂区,神前町１丁目８１番地の３,,23,108,4670832,,,,,,,2021-12-07,1,,,,,ハッセン,0
1829,6180003023256,新規,0,2021-12-07,2021-12-07,合同会社ＹＹメディアワークス,,合同会社,愛知県,稲沢市,祖父江町祖父江居中１番地３,,23,220,4950001,,,,,,,2021-12-07,1,,,,,ワイワイメディアワークス,0
1830,6180005019541,新規,0,2021-12-07,2021-12-07,一般社団法人予防医学・ホリスティックケア推進センター,,その他の設立登記法人,愛知県,名古屋市西区,牛島町６番１号名古屋ルーセントタワー４０階,,23,104,4510046,,,,,,,2021-12-07,1,,,,,ヨボウイガクホリスティックケアスイシンセンター,0
1831,6180301035705,新規,0,2021-12-07,2021-12-07,グランド不動産センター株式会社,,株式会社,愛知県,岡崎市,明大寺町字銭堤７０番地,,23,202,4440864,,,,,,,2021-12-07,1,,,,,グランドフドウサンセンター,0
1840,6200001039508,新規,0,2021-12-07,2021-12-07,株式会社風越,,株式会社,岐阜県,岐阜市,木田４８５番地,,21,201,5011135,,,,,,,2021-12-07,1,,,,,カザコシ,0
1845,6220001024581,新規,0,2021-12-07,2021-12-07,株式会社オルタナ,,株式会社,石川県,金沢市,泉野町４丁目１６番７号,,17,201,9218034,,,,,,,2021-12-07,1,,,,,オルタナ,0
1849,6230001019127,新規,0,2021-12-07,2021-12-07,株式会社百塚工業,00125075,株式会社,富山県,富山市,水橋辻ヶ堂１２７５番地９,00125076,16,201,9393515,,,,,,,2021-12-07,1,,,,,ヒャクヅカコウギョウ,0
1858,6260001036284,新規,0,2021-12-07,2021-12-07,株式会社結心,,株式会社,岡山県,倉敷市,玉島柏島６０７６番地６７,,33,202,7138123,,,,,,,2021-12-07,1,,,,,ユイシン,0
1863,6290003011910,新規,0,2021-12-07,2021-12-07,ＳＥＪ　ＸＸ合同会社,,合同会社,福岡県,福岡市早良区,百道浜２丁目４番２７号ＡＩビル６Ｆ,,40,137,8140001,,,,,,,2021-12-07,1,,,,,エスイージェートゥエンティ,0
1871,6310003004226,新規,0,2021-12-07,2021-12-07,合同会社ｎａｎｊａｒｏ　ｃｏｍｐａｎｙ,,合同会社,長崎県,五島市,玉之浦町幾久山４３７番地７５,,42,211,8530502,,,,,,,2021-12-07,1,,,,,ナンジャロカンパニー,0
1873,6320001018771,新規,0,2021-12-07,2021-12-07,あさり工業株式会社,,株式会社,大分県,佐伯市,弥生大字門田１８４９番地７,,44,205,8760122,,,,,,,2021-12-07,1,,,,,アサリコウギョウ,0
1877,6330001029256,新規,0,2021-12-07,2021-12-07,株式会社ＮＡＭＩＢＥ,,株式会社,熊本県,八代市,島田町１２４０番地７,,43,202,8660827,,,,,,,2021-12-07,1,,,,,ナミベ,0
1881,6340001024322,新規,0,2021-12-07,2021-12-07,株式会社ＴｒｉＧｏ,,株式会社,鹿児島県,鹿児島市,中央町５番４１号第８トーカンマンション白雲１階,,46,201,8900053,,,,,,,2021-12-07,1,,,,,トリゴ,0
1888,6360003011622,新規,0,2021-12-07,2021-12-07,合同会社マゼンタ,,合同会社,沖縄県,中頭郡読谷村,字伊良皆４１８番地３,,47,324,9040303,,,,,,,2021-12-07,1,,,,,マゼンタ,0
1890,6370003005508,新規,0,2021-12-07,2021-12-07,合同会社トラノデンキ,,合同会社,宮城県,富谷市,とちの木１丁目２１番８号,,04,216,9813312,,,,,,,2021-12-07,1,,,,,トラノデンキ,0
1902,6420002020312,新規,0,2021-12-07,2021-12-07,有限会社奥入瀬ファーム,,有限会社,青森県,十和田市,大字奥瀬字冷水９５番地１,,02,206,0340301,,,,,,,2021-12-07,1,,,,,オイラセファーム,0
1907,6430001085479,新規,0,2021-12-07,2021-12-07,株式会社ライフサポート,,株式会社,北海道,札幌市白石区,南郷通３丁目北４番１４号,,01,104,0030023,,,,,,,2021-12-07,1,,,,,ライフサポート,0
1908,6430001085520,新規,0,2021-12-07,2021-12-07,Ｍ．Ｃ．パートナー株式会社,,株式会社,北海道,札幌市東区,北四十一条東１６丁目１番１－７０５号,,01,103,0070841,,,,,,,2021-12-07,1,,,,,エムシーパートナー,0
1912,6440001008991,新規,0,2021-12-07,2021-12-07,株式会社Ｚｉｏｎ,,株式会社,北海道,函館市,山の手２丁目５４番１２－１号,,01,202,0410836,,,,,,,2021-12-07,1,,,,,シオン,0
1918,6460303000744,新規,0,2021-12-07,2021-12-07,ＥＭＯＩ合同会社,,合同会社,北海道,北見市,常呂町字常呂５１４番地,,01,208,0930210,,,,,,,2021-12-07,1,,,,,エモイ,0
1925,6500001023852,新規,0,2021-12-07,2021-12-07,株式会社祐和工業,,株式会社,愛媛県,今治市,新谷甲１９３８番地１４,,38,202,7940850,,,,,,,2021-12-07,1,,,,,ユウワコウギョウ,0
1927,6700150106116,新規,0,2021-12-07,2021-12-07,富谷市成田二期東土地区画整理組合,,その他,宮城県,富谷市,成田１丁目４番地７５,,04,216,9813341,,,,,,,2021-12-07,1,,,,,トミヤシナリタニキヒガシトチクカクセイリクミアイ,0
1935,7010001222981,新規,0,2021-12-07,2021-12-07,株式会社天河キャピタル,,株式会社,東京都,千代田区,丸の内２丁目３番２号丸の内郵船ビルディング１階,,13,101,1000005,,,,,,,2021-12-07,1,,,,,テンガキャピタル,0
1939,7010003036471,新規,0,2021-12-07,2021-12-07,ＴＭＡグリーンエナジー２０２１合同会社,,合同会社,東京都,千代田区,丸の内１丁目８番２号,,13,101,1000005,,,,,,,2021-12-07,1,,,,,ティーエムエーグリーンエナジーニセンニジュウイチ,0
1942,7010103001821,新規,0,2021-12-07,2021-12-07,合同会社ベンガルサービス,,合同会社,東京都,八王子市,犬目町４７２番地１０,,13,201,1930802,,,,,,,2021-12-07,1,,,,,ベンガルサービス,0
1946,7010401164213,新規,0,2021-12-07,2021-12-07,株式会社全国支援互助会,,株式会社,東京都,港区,西新橋１丁目１８番１２号ＣＯＭＳ虎ノ門５階,,13,103,1050003,,,,,,,2021-12-07,1,,,,,ゼンコクシエンゴジョカイ,0
1947,7010401164279,新規,0,2021-12-07,2021-12-07,株式会社ＢＯＫＵ,,株式会社,東京都,港区,高輪３丁目１４番３３号プラチナハウス高輪９０１,,13,103,1080074,,,,,,,2021-12-07,1,,,,,ボク,0
1951,7010403026675,新規,0,2021-12-07,2021-12-07,合同会社Ｇｅｏ　Ａｓｓｅｔ　Ｍａｎａｇｅｍｅｎｔ,,合同会社,東京都,港区,赤坂４丁目８番１９号赤坂フロントタウン３階,,13,103,1070052,,,,,,,2021-12-07,1,,,,,ゲオアセットマネジメント,0
1962,7010601060336,新規,0,2021-12-07,2021-12-07,株式会社ベルサティーラ,,株式会社,東京都,江東区,豊洲６丁目２番３１－２９１２号,,13,108,1350061,,,,,,,2021-12-07,1,,,,,ベルサティーラ,0
1964,7010701041871,新規,0,2021-12-07,2021-12-07,株式会社Ｓｓａｌｏｎ,,株式会社,東京都,品川区,小山３丁目２番１８―２０１号,,13,109,1420062,,,,,,,2021-12-07,1,,,,,エスサロン,0
1965,7010701041888,新規,0,2021-12-07,2021-12-07,株式会社こだわり塾,,株式会社,東京都,品川区,北品川５丁目５－１５大崎ブライトコア４階,,13,109,1410001,,,,,,,2021-12-07,1,,,,,コダワリジュク,0
1966,7010701041896,新規,0,2021-12-07,2021-12-07,株式会社オーシャンアース,,株式会社,東京都,品川区,平塚１丁目６－１０パークハビオ戸越１４０３号室,,13,109,1420051,,,,,,,2021-12-07,1,,,,,オーシャンアース,0
1970,7010803003976,新規,0,2021-12-07,2021-12-07,合同会社Ｌａｍｐ,,合同会社,東京都,大田区,久が原３丁目１４番３号,,13,111,1460085,,,,,,,2021-12-07,1,,,,,ランプ,0
1972,7010901049954,新規,0,2021-12-07,2021-12-07,株式会社ｗｉｚ　ｌｅｉ,,株式会社,東京都,世田谷区,瀬田１丁目２６番４号レオネクストレインボーヒルズ２０４,,13,112,1580095,,,,,,,2021-12-07,1,,,,,ウィズレイ,0
1978,7011001144340,新規,0,2021-12-07,2021-12-07,株式会社ＥＸＡＭ,,株式会社,東京都,渋谷区,広尾１丁目１５番３号クオリア恵比寿パークフロント６Ｆ,,13,113,1500012,,,,,,,2021-12-07,1,,,,,エクサム,0
1979,7011001144349,新規,0,2021-12-07,2021-12-07,株式会社Ｄｏ　Ｗｅｌｌ,,株式会社,東京都,渋谷区,渋谷２丁目１９－１５宮益坂ビルディング６０９,,13,113,1500002,,,,,,,2021-12-07,1,,,,,ドゥウェル,0
1982,7011003013832,新規,0,2021-12-07,2021-12-07,合同会社ＥＭＭＡ,,合同会社,東京都,目黒区,目黒本町２丁目４番１９号ローグ目黒本町３０３,,13,110,1520002,,,,,,,2021-12-07,1,,,,,エマ,0
1984,7011101097109,新規,0,2021-12-07,2021-12-07,ＣＩＥＮ　ｃｏｒｐｏｒａｔｉｏｎ株式会社,,株式会社,東京都,新宿区,西新宿３丁目３番１３号６Ｆ,,13,104,1600023,,,,,,,2021-12-07,1,,,,,シエンコーポレーション,0
1985,7011101097117,新規,0,2021-12-07,2021-12-07,株式会社アースモア,,株式会社,東京都,新宿区,高田馬場２丁目１番１－３０５号,,13,104,1690075,,,,,,,2021-12-07,1,,,,,アースモア,0
1988,7011301027393,新規,0,2021-12-07,2021-12-07,株式会社ＯＣ,,株式会社,東京都,杉並区,荻窪５丁目２３番１３号コダマビル１０２,,13,115,1670051,,,,,,,2021-12-07,1,,,,,オーシー,0
1994,7011701024890,新規,0,2021-12-07,2021-12-07,株式会社ＴＣＳ,,株式会社,東京都,江戸川区,松江６丁目７－２４,,13,123,1320025,,,,,,,2021-12-07,1,,,,,ティーシーエス,0
1996,7011703003018,新規,0,2021-12-07,2021-12-07,合同会社ＶｉＶｉ,,合同会社,東京都,江戸川区,西葛西５丁目１０番１３号,,13,123,1340088,,,,,,,2021-12-07,1,,,,,ヴィヴィ,0
1998,7011801005312,新規,0,2021-12-07,2021-12-07,株式会社レデイ・バード,,株式会社,東京都,葛飾区,東新小岩６丁目８番１号,,13,122,1240023,,,,,,,2021-12-07,1,,,,,レデイバード,0
2001,7011801040037,新規,0,2021-12-07,2021-12-07,ユニバース株式会社,,株式会社,東京都,足立区,六木３丁目１番７号,,13,121,1210052,,,,,,,2021-12-07,1,,,,,ユニバース,0
2005,7012401038628,新規,0,2021-12-07,2021-12-07,株式会社ＮＯＢＵ　ＦＯＯＤ　ＦＡＣＴＯＲＹ,,株式会社,東京都,調布市,国領町３丁目６番地４４,,13,208,1820022,,,,,,,2021-12-07,1,,,,,ノブフードファクトリー,0
2006,7012701016812,新規,0,2021-12-07,2021-12-07,株式会社行橋園,,株式会社,東京都,西東京市,向台町５丁目６番１０号,,13,229,1880013,,,,,,,2021-12-07,1,,,,,ユキハシエン,0
2009,7013301048378,新規,0,2021-12-07,2021-12-07,株式会社オンリーユー,,株式会社,東京都,豊島区,池袋４丁目２８番５－７０４号,,13,116,1710014,,,,,,,2021-12-07,1,,,,,オンリーユー,0
2010,7013301048386,新規,0,2021-12-07,2021-12-07,株式会社イタリ,,株式会社,東京都,豊島区,池袋２丁目５３番１０号大晃第１６ビル,,13,116,1710014,,,,,,,2021-12-07,1,,,,,イタリ,0
2017,7020001144192,新規,0,2021-12-07,2021-12-07,Ｒ－ＧＲＯＵＰ株式会社,,株式会社,神奈川県,川崎市川崎区,藤崎４丁目１５－１３－２Ｆ,,14,131,2100804,,,,,,,2021-12-07,1,,,,,アールグループ,0
2018,7020001144242,新規,0,2021-12-07,2021-12-07,株式会社ワイエム建装,,株式会社,神奈川県,横浜市神奈川区,斎藤分町３８番２４号,,14,102,2210811,,,,,,,2021-12-07,1,,,,,ワイエムケンソウ,0
2019,7020001144259,新規,0,2021-12-07,2021-12-07,ＮＫ－１株式会社,,株式会社,神奈川県,横浜市西区,南浅間町６番地１９プレールメゾン豊島１０１号,,14,103,2200074,,,,,,,2021-12-07,1,,,,,,0
2021,7020005015290,新規,0,2021-12-07,2021-12-07,一般社団法人日本パラオ青少年セーリングクラブ,,その他の設立登記法人,神奈川県,横浜市金沢区,白帆１番地,,14,108,2360007,,,,,,,2021-12-07,1,,,,,ニホンパラオセイショウネンセーリングクラブ,0
2025,7021001074677,新規,0,2021-12-07,2021-12-07,株式会社ＣＨＯＣＯＬＡＴＥ　ＬＡＢＥＬ,,株式会社,神奈川県,横須賀市,吉井２丁目６番５－６０６号,,14,201,2390804,,,,,,,2021-12-07,1,,,,,チョコレートレーベル,0
2039,7030001145644,新規,0,2021-12-07,2021-12-07,株式会社グリーンフィールド,,株式会社,埼玉県,大里郡寄居町,大字用土４５９９番地７,,11,408,3691201,,,,,,,2021-12-07,1,,,,,グリーンフィールド,0
2040,7030001145727,新規,0,2021-12-07,2021-12-07,ベクターズ株式会社,,株式会社,埼玉県,草加市,神明１丁目１２番６－４０２号,,11,221,3400012,,,,,,,2021-12-07,1,,,,,ベクターズ,0
2045,7030003018451,新規,0,2021-12-07,2021-12-07,合同会社ＴＡＢＵＬＡＲＡＳＡ,,合同会社,埼玉県,熊谷市,上之４１２６番地５,,11,202,3600012,,,,,,,2021-12-07,1,,,,,タブララサ,0
2047,7030005020653,新規,0,2021-12-07,2021-12-07,ＮＰＯ法人はらチョク,,その他の設立登記法人,埼玉県,久喜市,西大輪１９４３番地２,,11,232,3400206,,,,,,,2021-12-07,1,,,,,ハラチョク,0
2053,7040003019077,新規,0,2021-12-07,2021-12-07,合同会社ライデンシャフト,,合同会社,千葉県,浦安市,東野３丁目３－１６－１０１,,12,227,2790042,,,,,,,2021-12-07,1,,,,,ライデンシャフト,0
2057,7050001050264,新規,0,2021-12-07,2021-12-07,株式会社Ｅｎｂｌｏｏｍ,,株式会社,茨城県,つくば市,春日２丁目３５番地２－１０１,,08,220,3050821,,,,,,,2021-12-07,1,,,,,エンブルーム,0
2063,7060001034349,新規,0,2021-12-07,2021-12-07,株式会社シエナ,,株式会社,栃木県,足利市,山下町９８９番地,,09,202,3260846,,,,,,,2021-12-07,1,,,,,シエナ,0
2067,7070001038712,新規,0,2021-12-07,2021-12-07,株式会社ＲａＩｋｕ,,株式会社,群馬県,館林市,城町１１番１１号,,10,207,3740018,,,,,,,2021-12-07,1,,,,,ライク,0
2071,7080101022961,新規,0,2021-12-07,2021-12-07,株式会社真愛,,株式会社,静岡県,富士市,島田町１丁目１３７,,22,210,4170033,,,,,,,2021-12-07,1,,,,,ミノリ,0
2076,7100001034872,新規,0,2021-12-07,2021-12-07,株式会社ＣＫ,,株式会社,長野県,佐久市,小田井３７６番地３,,20,217,3850009,,,,,,,2021-12-07,1,,,,,シーケー,0
2089,7120001242234,新規,0,2021-12-07,2021-12-07,株式会社ＲＯＡＶＥＲ,,株式会社,大阪府,大阪市北区,茶屋町５番２号北大阪茶屋町ビル５階,,27,127,5300013,,,,,,,2021-12-07,1,,,,,ローバー,0
2090,7120001242275,新規,0,2021-12-07,2021-12-07,株式会社凛月,,株式会社,大阪府,大阪市北区,南森町２丁目３番７－５０５号,,27,127,5300054,,,,,,,2021-12-07,1,,,,,リツ,0
2091,7120001242283,新規,0,2021-12-07,2021-12-07,株式会社ＨＡＴＣＨ,,株式会社,大阪府,大阪市中央区,難波５丁目１番６０号なんばスカイオ２７Ｆ,,27,128,5420076,,,,,,,2021-12-07,1,,,,,ハッチ,0
2092,7120001242291,新規,0,2021-12-07,2021-12-07,株式会社パンドラの箱,,株式会社,大阪府,大阪市西区,南堀江２丁目１０－６－２０３,,27,106,5500015,,,,,,,2021-12-07,1,,,,,パンドラノハコ,0
2093,7120001242300,新規,0,2021-12-07,2021-12-07,株式会社ひの,,株式会社,大阪府,大阪市旭区,森小路２丁目１６番１６号,,27,117,5350013,,,,,,,2021-12-07,1,,,,,ヒノ,0
2094,7120001242317,新規,0,2021-12-07,2021-12-07,住空間くらしデザイン株式会社,,株式会社,大阪府,大阪市東住吉区,南田辺３丁目１３番９号,,27,121,5460033,,,,,,,2021-12-07,1,,,,,ジュウクウカンクラシデザイン,0
2095,7120001242333,新規,0,2021-12-07,2021-12-07,ＢＯＮＯ株式会社,,株式会社,大阪府,大阪市浪速区,恵美須西１丁目２番５－４０３号,,27,111,5560003,,,,,,,2021-12-07,1,,,,,ボノー,0
2112,7120901045323,新規,0,2021-12-07,2021-12-07,株式会社辻丑治産,,株式会社,大阪府,高槻市,郡家新町６番２２号,,27,207,5691136,,,,,,,2021-12-07,1,,,,,ツジウシチサン,0
2114,7122001035403,新規,0,2021-12-07,2021-12-07,株式会社Ｇｏｏｆｙ,,株式会社,大阪府,四條畷市,砂１丁目１６番２０号,,27,229,5750001,,,,,,,2021-12-07,1,,,,,グーフィー,0
2119,7130001070667,新規,0,2021-12-07,2021-12-07,株式会社ローカルクリエート,,株式会社,京都府,京都市左京区,吉田中阿達町２８番地６,,26,103,6068306,,,,,,,2021-12-07,1,,,,,ローカルクリエート,0
2120,7130001070675,新規,0,2021-12-07,2021-12-07,株式会社ＴＥＡＭ　ＫＯＩＮＯＢＯＲＩ,,株式会社,京都府,京都市上京区,俵屋町４３０－１,,26,102,6020871,,,,,,,2021-12-07,1,,,,,チームコイノボリ,0
2123,7130003007618,新規,0,2021-12-07,2021-12-07,ＴＮＱ貿易合同会社,,合同会社,京都府,宇治市,大久保町北ノ山６５番地の４,,26,204,6110033,,,,,,,2021-12-07,1,,,,,ティーエヌキューボウエキ,0
2133,7140001124034,新規,0,2021-12-07,2021-12-07,株式会社ＳＹＬＰＨＹＨＯＭＥＳ,,株式会社,兵庫県,神戸市東灘区,向洋町中５丁目１番地５２３号棟１２０７号室,,28,101,6580032,,,,,,,2021-12-07,1,,,,,シルフィホームズ,0
2134,7140001124075,新規,0,2021-12-07,2021-12-07,株式会社コネクト防災,,株式会社,兵庫県,明石市,松の内１丁目２番地の３４,,28,203,6730016,,,,,,,2021-12-07,1,,,,,コネクトボウサイ,0
2135,7140001124083,新規,0,2021-12-07,2021-12-07,株式会社ＴＤＥ,,株式会社,兵庫県,神戸市東灘区,魚崎中町２丁目６番５号,,28,101,6580083,,,,,,,2021-12-07,1,,,,,ティーディーイー,0
2136,7140001124091,新規,0,2021-12-07,2021-12-07,株式会社Ｒｅ’ｕｓｓｉｔｅ,,株式会社,兵庫県,神戸市中央区,二宮町４丁目２１番３－５０５号,,28,110,6510093,,,,,,,2021-12-07,1,,,,,レゥシート,0
2137,7140001124109,新規,0,2021-12-07,2021-12-07,株式会社ＳＴＡＣＫ,,株式会社,兵庫県,尼崎市,富松町１丁目５番１－３０３号,,28,202,6610003,,,,,,,2021-12-07,1,,,,,スタック,0
2139,7140003017070,新規,0,2021-12-07,2021-12-07,ＫＯＫＥＮエンタープライズ合同会社,,合同会社,兵庫県,伊丹市,鴻池１丁目２番１６号,,28,207,6640006,,,,,,,2021-12-07,1,,,,,コーケンエンタープライズ,0
2141,7140005025939,新規,0,2021-12-07,2021-12-07,医療法人あおば西宮北口,,その他の設立登記法人,兵庫県,西宮市,高松町１９番９号プレミスト西宮北口２階,,28,204,6638204,,,,,,,2021-12-07,1,,,,,アオバニシノミヤキタグチ,0
2144,7160001023853,新規,0,2021-12-07,2021-12-07,Ａｃｈｉｅｖｅ株式会社,,株式会社,滋賀県,甲賀市,信楽町長野１２８９番地１１,,25,209,5291851,,,,,,,2021-12-07,1,,,,,アチーブ,0
2145,7170001016897,新規,0,2021-12-07,2021-12-07,株式会社カメ井機材,,株式会社,和歌山県,岩出市,高塚２３４番地の１クローバービル２Ｆ,,30,209,6496223,,,,,,,2021-12-07,1,,,,,カメイキザイ,0
2155,7180001148962,新規,0,2021-12-07,2021-12-07,株式会社Ｓｏｕｔｈ　Ｐａｒｔｎｅｒ,,株式会社,愛知県,稲沢市,小池３丁目２番９号ライベックス小池Ａ－３,,23,220,4928144,,,,,,,2021-12-07,1,,,,,サウスパートナー,0
2156,7180001148987,新規,0,2021-12-07,2021-12-07,株式会社プロテクト,,株式会社,愛知県,東海市,富木島町中屋敷甲２６番地,,23,222,4760011,,,,,,,2021-12-07,1,,,,,プロテクト,0
2157,7180001149036,新規,0,2021-12-07,2021-12-07,株式会社ＳＳＳ,,株式会社,愛知県,名古屋市守山区,白山１丁目９０５番３号サンシャイン白山２Ｅ号室,,23,113,4630032,,,,,,,2021-12-07,1,,,,,スリーエス,0
2163,7180301035704,新規,0,2021-12-07,2021-12-07,キートスプラン株式会社,,株式会社,愛知県,豊橋市,東岩田２丁目８番地３,,23,201,4400033,,,,,,,2021-12-07,1,,,,,,0
2176,7220003003161,新規,0,2021-12-07,2021-12-07,合同会社Ｌｏｏｋ,,合同会社,石川県,金沢市,竪町８６番地１,,17,201,9200997,,,,,,,2021-12-07,1,,,,,ルック,0
2177,7230001019126,新規,0,2021-12-07,2021-12-07,株式会社ディーシック,,株式会社,富山県,富山市,萩原５１０番地,,16,201,9398261,,,,,,,2021-12-07,1,,,,,ディーシック,0
2180,7240001059022,新規,0,2021-12-07,2021-12-07,株式会社モンデンファーム,,株式会社,広島県,福山市,熊野町乙１４１５番地,,34,207,7200411,,,,,,,2021-12-07,1,,,,,モンデンファーム,0
2181,7240001059030,新規,0,2021-12-07,2021-12-07,株式会社國弘電設,,株式会社,広島県,広島市中区,舟入幸町３番２２－１２０２号,,34,101,7300844,,,,,,,2021-12-07,1,,,,,クニヒロデンセツ,0
2184,7240003005395,新規,0,2021-12-07,2021-12-07,前田電工合同会社,,合同会社,広島県,福山市,大門町１丁目２０番６－３０２号,,34,207,7210926,,,,,,,2021-12-07,1,,,,,マエダデンコウ,0
2186,7260001036283,新規,0,2021-12-07,2021-12-07,株式会社Ｋ‐ＲｉｓｅＷｏｒｋｓ,,株式会社,岡山県,苫田郡鏡野町,塚谷６１２番地２３,,33,606,7080365,,,,,,,2021-12-07,1,,,,,ケーライズワークス,0
2187,7260003003736,新規,0,2021-12-07,2021-12-07,タカミヤ・グローバル・トレーディング合同会社,,合同会社,岡山県,倉敷市,玉島勇崎１６３番地８,,33,202,7138125,,,,,,,2021-12-07,1,,,,,タカミヤグローバルトレーディング,0
2191,7280001008578,新規,0,2021-12-07,2021-12-07,株式会社コダマホールディングス,,株式会社,島根県,松江市,富士見町１番地３,,32,201,6900026,,,,,,,2021-12-07,1,,,,,コダマホールディングス,0
2192,7280003001556,新規,0,2021-12-07,2021-12-07,合同会社三島,,合同会社,島根県,松江市,八雲町西岩坂３９９０番地４５,,32,201,6902103,,,,,,,2021-12-07,1,,,,,ミシマ,0
2198,7290003011876,新規,0,2021-12-07,2021-12-07,Ｇａｒｄｅｎ　Ｌｉｐｓ合同会社,,合同会社,福岡県,福岡市博多区,祇園町２－２２ヤグラモンビル３０６号室,,40,132,8120038,,,,,,,2021-12-07,1,,,,,ガーデンリップス,0
2206,7290801028048,新規,0,2021-12-07,2021-12-07,株式会社ＩＳＳＨＩＮ,,株式会社,福岡県,行橋市,大字上稗田１０７－３,,40,213,8240055,,,,,,,2021-12-07,1,,,,,イッシン,0
2210,7310002020974,新規,0,2021-12-07,2021-12-07,有限会社丸善商事,,有限会社,長崎県,諫早市,日の出町２７番２２号,,42,204,8540002,,,,,,,2021-12-07,1,,,,,マルゼンショウジ,0
2219,7340003003645,新規,0,2021-12-07,2021-12-07,合同会社ワーキングチーム,,合同会社,鹿児島県,日置市,東市来町湯田１３５０番地,,46,216,8992201,,,,,,,2021-12-07,1,,,,,ワーキングチーム,0
2221,7350001017456,新規,0,2021-12-07,2021-12-07,株式会社たけ屋,,株式会社,宮崎県,宮崎市,新城町６１番地,,45,201,8800845,,,,,,,2021-12-07,1,,,,,タケヤ,0
2229,7360001029707,新規,0,2021-12-07,2021-12-07,株式会社三和ハウジング,,株式会社,沖縄県,沖縄市,池原３丁目３番２６号１Ｆ,,47,211,9042141,,,,,,,2021-12-07,1,,,,,サンワハウジング,0
2231,7360003011621,新規,0,2021-12-07,2021-12-07,合同会社共生美,,合同会社,沖縄県,宮古島市,平良字下里１３１４番地共和マンション７０３,,47,214,9060013,,,,,,,2021-12-07,1,,,,,キョウセイビ,0
2234,7370001047914,新規,0,2021-12-07,2021-12-07,株式会社鈴木勝店,,株式会社,宮城県,仙台市太白区,袋原４丁目１５番４３号,,04,104,9811102,,,,,,,2021-12-07,1,,,,,スズキショウテン,0
2245,7420003002416,新規,0,2021-12-07,2021-12-07,合同会社こども夢機構,,合同会社,青森県,弘前市,大字藤代４丁目１２番地１,,02,202,0368373,,,,,,,2021-12-07,1,,,,,コドモユメキコウ,0
2252,7430001085486,新規,0,2021-12-07,2021-12-07,株式会社ＴｏｐＲｕｎｎｅｒ,,株式会社,北海道,札幌市手稲区,手稲前田５３６番６０,,01,109,0060829,,,,,,,2021-12-07,1,,,,,トップランナー,0
2253,7430001085511,新規,0,2021-12-07,2021-12-07,株式会社ジェネテス,,株式会社,北海道,札幌市南区,澄川四条３丁目８番５８号,,01,106,0050004,,,,,,,2021-12-07,1,,,,,ジェネテス,0
2258,7440001008990,新規,0,2021-12-07,2021-12-07,株式会社技専,,株式会社,北海道,函館市,本通２丁目２番１号,,01,202,0410851,,,,,,,2021-12-07,1,,,,,ギセン,0
2266,7470001018863,新規,0,2021-12-07,2021-12-07,株式会社直島デザイン研究所,,株式会社,香川県,香川郡直島町,３３３７番地１０,,37,364,7613110,,,,,,,2021-12-07,1,,,,,ナオシマデザインケンキュウショ,0
2273,7480003001767,新規,0,2021-12-07,2021-12-07,合同会社クリアメンテナンス,,合同会社,徳島県,徳島市,上八万町西山１３６８番地,,36,201,7708041,,,,,,,2021-12-07,1,,,,,クリアメンテナンス,0
2284,8010001223005,新規,0,2021-12-07,2021-12-07,株式会社フェンシングパーク,,株式会社,東京都,千代田区,麹町２丁目７番地３,,13,101,1020083,,,,,,,2021-12-07,1,,,,,フェンシングパーク,0
2285,8010001223013,新規,0,2021-12-07,2021-12-07,ＫＡＮＮＡＢＩ株式会社,,株式会社,東京都,文京区,本郷３丁目４番５号,,13,105,1130033,,,,,,,2021-12-07,1,,,,,カンナビ,0
2286,8010001223046,新規,0,2021-12-07,2021-12-07,株式会社Ｓｐｉｌａｖｏ,,株式会社,東京都,千代田区,神田須田町２丁目２５ＧＹＢ秋葉原５階５１０,,13,101,1010041,,,,,,,2021-12-07,1,,,,,スピラボ,0
2288,8010003036487,新規,0,2021-12-07,2021-12-07,安室初翻訳通訳合同会社,,合同会社,東京都,中央区,日本橋兜町１０番２－１４０２号,,13,102,1030026,,,,,,,2021-12-07,1,,,,,アムロハジメホンヤクツウヤク,0
2298,8010401164220,新規,0,2021-12-07,2021-12-07,株式会社アディバル,,株式会社,東京都,港区,浜松町１丁目３番１号,,13,103,1050013,,,,,,,2021-12-07,1,,,,,アディバル,0
2300,8010403026600,新規,0,2021-12-07,2021-12-07,合同会社アキューズ,,合同会社,東京都,港区,浜松町２丁目２番１５号浜松町ダイヤビル２Ｆ,,13,103,1050013,,,,,,,2021-12-07,1,,,,,アキューズ,0
2301,8010403026641,新規,0,2021-12-07,2021-12-07,Ｍａｄｏｋａ合同会社,,合同会社,東京都,港区,浜松町２丁目２番１５号浜松町ダイヤビル２Ｆ,,13,103,1050013,,,,,,,2021-12-07,1,,,,,マドカ,0
2305,8010601060310,新規,0,2021-12-07,2021-12-07,自販機パーク株式会社,,株式会社,東京都,江東区,門前仲町２丁目９番１１号,,13,108,1350048,,,,,,,2021-12-07,1,,,,,ジハンキパーク,0
2308,8010803003975,新規,0,2021-12-07,2021-12-07,合同会社ＴＴＭ,,合同会社,東京都,大田区,西六郷４丁目６－２４コトー多摩川９０６,,13,111,1440056,,,,,,,2021-12-07,1,,,,,ティーティーエム,0
2312,8010901049937,新規,0,2021-12-07,2021-12-07,株式会社１ｓｔ．,,株式会社,東京都,世田谷区,玉川４丁目３番１５－２０２号,,13,112,1580094,,,,,,,2021-12-07,1,,,,,ファースト,0
2313,8010901049945,新規,0,2021-12-07,2021-12-07,株式会社Ｄｉａｎａ,,株式会社,東京都,世田谷区,宇奈根１丁目３４番１５号,,13,112,1570068,,,,,,,2021-12-07,1,,,,,ディアーナ,0
2317,8011001144240,新規,0,2021-12-07,2021-12-07,窓テックスジャパン株式会社,,株式会社,東京都,目黒区,洗足２丁目２４番９号,,13,110,1520012,,,,,,,2021-12-07,1,,,,,マドテックスジャパン,0
2321,8011101097116,新規,0,2021-12-07,2021-12-07,株式会社日商コンサルティブ,,株式会社,東京都,新宿区,西五軒町３－１８セントヒルズ神楽坂１０２,,13,104,1620812,,,,,,,2021-12-07,1,,,,,ニッショウコンサルティブ,0
2322,8011103011248,新規,0,2021-12-07,2021-12-07,合同会社Ｂａｓｋｅｔｂａｌｌ　ｏｆ　Ｊａｐａｎ,,合同会社,東京都,新宿区,西新宿３丁目３番１３号西新宿水間ビル６階,,13,104,1600023,,,,,,,2021-12-07,1,,,,,バスケットボールオブジャパン,0
2325,8011301027392,新規,0,2021-12-07,2021-12-07,株式会社Ｋｏｇａｏ　ｐｌｕｓ,,株式会社,東京都,杉並区,阿佐谷南３丁目３７番１３号大同マンション６０３,,13,115,1660004,,,,,,,2021-12-07,1,,,,,コガオプラス,0
2335,8012401038627,新規,0,2021-12-07,2021-12-07,株式会社パイントラスト,,株式会社,東京都,狛江市,和泉本町１丁目６番９－５０４号,,13,219,2010003,,,,,,,2021-12-07,1,,,,,パイントラスト,0
2338,8012701016803,新規,0,2021-12-07,2021-12-07,株式会社ＹＡＳＵＹＯＳＩ,,株式会社,東京都,東村山市,久米川町４丁目１７番地９,,13,213,1890003,,,,,,,2021-12-07,1,,,,,ヤスヨシ,0
2339,8012701016811,新規,0,2021-12-07,2021-12-07,フェアリークス株式会社,,株式会社,東京都,東村山市,美住町１丁目１９番地１－６１３,,13,213,1890023,,,,,,,2021-12-07,1,,,,,フェアリークス,0
2340,8012801021257,新規,0,2021-12-07,2021-12-07,株式会社旭日内装,,株式会社,東京都,立川市,柴崎町３丁目９番地２４ドゥ・ルーブルデノン２０３,,13,202,1900023,,,,,,,2021-12-07,1,,,,,キョウジツナイソウ,0
2361,8021001074610,新規,0,2021-12-07,2021-12-07,株式会社Ｎｏｅｍａ,,株式会社,神奈川県,海老名市,中央３丁目４番３号,,14,215,2430432,,,,,,,2021-12-07,1,,,,,,0
2362,8021003011157,新規,0,2021-12-07,2021-12-07,合同会社プライマル,,合同会社,神奈川県,相模原市南区,上鶴間本町７丁目３５番２８号,,14,153,2520318,,,,,,,2021-12-07,1,,,,,プライマル,0
2363,8021005012368,新規,0,2021-12-07,2021-12-07,行政書士法人片岡事務所,,その他の設立登記法人,神奈川県,相模原市南区,相模大野７丁目１１番２号リプロ相模大野４階,,14,153,2520303,,,,,,,2021-12-07,1,,,,,カタオカジムショ,0
2368,8030001145676,新規,0,2021-12-07,2021-12-07,株式会社ｉｎ　ｂｌｏｏｍ　Ｈｅａｒｔ,,株式会社,埼玉県,児玉郡美里町,大字沼上２８５番地２,,11,381,3670105,,,,,,,2021-12-07,1,,,,,インブルームハート,0
2369,8030001145734,新規,0,2021-12-07,2021-12-07,ブレインティーザー株式会社,,株式会社,埼玉県,さいたま市見沼区,東大宮４丁目７０番地３レナティス３０５号室,,11,104,3370051,,,,,,,2021-12-07,1,,,,,ブレインティーザー,0
2370,8030001145742,新規,0,2021-12-07,2021-12-07,グリーンゲートイノベーション株式会社,,株式会社,埼玉県,朝霞市,膝折町２丁目３番５１号,,11,227,3510014,,,,,,,2021-12-07,1,,,,,グリーンゲートイノベーション,0
2375,8030003018450,新規,0,2021-12-07,2021-12-07,千代合同会社,,合同会社,埼玉県,児玉郡上里町,大字堤９８０番地１４,,11,385,3690313,,,,,,,2021-12-07,1,,,,,センダイ,0
2381,8040001121263,新規,0,2021-12-07,2021-12-07,株式会社Ｂｕｌｌｇｏｒｉｔｈｍ,,株式会社,千葉県,印西市,草深１０３８番地２５,,12,231,2701337,,,,,,,2021-12-07,1,,,,,ブルゴリズム,0
2383,8040005021451,新規,0,2021-12-07,2021-12-07,一般社団法人京葉人材育成会,,その他の設立登記法人,千葉県,千葉市花見川区,畑町４７７番地１０,,12,102,2620018,,,,,,,2021-12-07,1,,,,,ケイヨウジンザイイクセイカイ,0
2384,8050001050271,新規,0,2021-12-07,2021-12-07,株式会社ＭＩＴＯＬＯＧＩ,,株式会社,茨城県,水戸市,三の丸１丁目１番４２号,,08,201,3100011,,,,,,,2021-12-07,1,,,,,ミトロジ,0
2391,8080101022969,新規,0,2021-12-07,2021-12-07,株式会社ＮＤＤ,,株式会社,静岡県,富士宮市,万野原新田３０４１番地の８,,22,207,4180001,,,,,,,2021-12-07,1,,,,,エヌディーディー,0
2392,8080401025515,新規,0,2021-12-07,2021-12-07,株式会社アウトオブザブルー,,株式会社,静岡県,浜松市西区,大人見町１７５０番地の１１２,,22,133,4311112,,,,,,,2021-12-07,1,,,,,アウトオブザブルー,0
2407,8120001242316,新規,0,2021-12-07,2021-12-07,利亜株式会社,,株式会社,大阪府,大阪市生野区,巽中３丁目１１番４号,00125069,27,116,5440013,,,,,,,2021-12-07,1,,,,,リア,0
2408,8120001242324,新規,0,2021-12-07,2021-12-07,酒井嘉ホールディングス株式会社,,株式会社,大阪府,大阪市東淀川区,西淡路１丁目１６番１３号新大阪ＭＦＤビル１階,,27,114,5330031,,,,,,,2021-12-07,1,,,,,サカイカホールディングス,0
2409,8120001242340,新規,0,2021-12-07,2021-12-07,株式会社ディービルド,,株式会社,大阪府,枚方市,長尾東町３丁目１１－５,,27,210,5730105,,,,,,,2021-12-07,1,,,,,ディービルド,0
2410,8120001242349,新規,0,2021-12-07,2021-12-07,株式会社ＡＲＫ,,株式会社,大阪府,大阪市西区,立売堀４丁目７－１５奥内立売堀ビル３階３０９号室,,27,106,5500012,,,,,,,2021-12-07,1,,,,,アーク,0
2411,8120001242357,新規,0,2021-12-07,2021-12-07,株式会社ＯＮＥ　ＤＥ　ＭＡＹＵ,,株式会社,大阪府,大阪市中央区,上本町西１丁目３番２－８０１号,,27,128,5420062,,,,,,,2021-12-07,1,,,,,ワンドマユ,0
2412,8120001242365,新規,0,2021-12-07,2021-12-07,株式会社ＧＥＴ,,株式会社,大阪府,大阪市中央区,北久宝寺町１丁目５番６号,,27,128,5410057,,,,,,,2021-12-07,1,,,,,ゲット,0
2417,8120003020703,新規,0,2021-12-07,2021-12-07,Ｍ．Ｓ．Ｊ合同会社,,合同会社,大阪府,大阪市西区,江戸堀２丁目１－１江戸堀センタービル９階,,27,106,5500002,,,,,,,2021-12-07,1,,,,,エムエスジェイ,0
2418,8120005022648,新規,0,2021-12-07,2021-12-07,特定非営利活動法人インザベース,,その他の設立登記法人,大阪府,大阪市北区,曾根崎１丁目７番２号曽根崎ＦＵＫＵＥ・ＢＬＤ２０４号,,27,127,5300057,,,,,,,2021-12-07,1,,,,,インザベース,0
2420,8120101064750,新規,0,2021-12-07,2021-12-07,株式会社ファミリー不動産販売,,株式会社,大阪府,藤井寺市,小山６丁目５番５８号,,27,226,5830033,,,,,,,2021-12-07,1,,,,,ファミリーフドウサンハンバイ,0
2424,8120901045289,新規,0,2021-12-07,2021-12-07,株式会社リベット,,株式会社,大阪府,豊中市,利倉２丁目５番１７号,,27,203,5610845,,,,,,,2021-12-07,1,,,,,リベット,0
2425,8120901045306,新規,0,2021-12-07,2021-12-07,Ｊ＆Ｊ株式会社,,株式会社,大阪府,豊中市,蛍池北町一丁目４番２１―２０１号,,27,203,5600000,,,,,,,2021-12-07,1,,,,,ジェイアンドジェイ,0
2426,8120901045314,新規,0,2021-12-07,2021-12-07,株式会社ハウジングエージェント,,株式会社,大阪府,吹田市,山田東４丁目１番１０号,,27,205,5650821,,,,,,,2021-12-07,1,,,,,ハウジングエージェント,0
2434,8130003007617,新規,0,2021-12-07,2021-12-07,合同会社ミライズクリエイト,,合同会社,京都府,向日市,上植野町南開４３－２五十棲ビル１Ｆ,,26,208,6170006,,,,,,,2021-12-07,1,,,,,ミライズクリエイト,0
2436,8140001124066,新規,0,2021-12-07,2021-12-07,株式会社ＮＳＫ,,株式会社,兵庫県,神戸市須磨区,潮見台町５丁目３番５－７１２号,,28,107,6540075,,,,,,,2021-12-07,1,,,,,,0
2437,8140001124090,新規,0,2021-12-07,2021-12-07,株式会社ｔｅｎｅｃｔｉｏｎ,,株式会社,兵庫県,神戸市垂水区,神田町４番１９号垂水会館ビル２Ｆ,,28,108,6550027,,,,,,,2021-12-07,1,,,,,テネクション,0
2438,8140001124108,新規,0,2021-12-07,2021-12-07,株式会社吉永定成,,株式会社,兵庫県,加古川市,尾上町今福３５１番地,,28,210,6750027,,,,,,,2021-12-07,1,,,,,ヨシナガサダナリ,0
2439,8140001124124,新規,0,2021-12-07,2021-12-07,株式会社ｉｚａｎａｍｉ,,株式会社,兵庫県,三田市,三田町２１番９号サンリッチハイツ３０３,,28,219,6691533,,,,,,,2021-12-07,1,,,,,イザナミ,0
2441,8140003017061,新規,0,2021-12-07,2021-12-07,合同会社大塚ｃｏ．,,合同会社,兵庫県,神戸市兵庫区,新開地６丁目２番３－４０７号ライオンズマンション神戸第３,,28,105,6520811,,,,,,,2021-12-07,1,,,,,オオツカシーオードット,0
2444,8150001025148,新規,0,2021-12-07,2021-12-07,株式会社アリエル,,株式会社,奈良県,大和郡山市,下三橋町４００番地８２,,29,203,6391101,,,,,,,2021-12-07,1,,,,,アリエル,0
2448,8160001023852,新規,0,2021-12-07,2021-12-07,株式会社藤雄匠建,,株式会社,滋賀県,守山市,今浜町２６２０番地１１３,,25,207,5240101,,,,,,,2021-12-07,1,,,,,フジオショウケン,0
2449,8160001023860,新規,0,2021-12-07,2021-12-07,株式会社いっぽ,,株式会社,滋賀県,大津市,稲津２丁目１７番５号,,25,201,5202271,,,,,,,2021-12-07,1,,,,,イッポ,0
2450,8160003002441,新規,0,2021-12-07,2021-12-07,ソリッドオフィス合同会社,,合同会社,滋賀県,彦根市,蓮台寺町５０－６７,,25,202,5220232,,,,,,,2021-12-07,1,,,,,ソリッドオフィス,0
2463,8180001149051,新規,0,2021-12-07,2021-12-07,株式会社ラフブライト,,株式会社,愛知県,名古屋市中川区,西中島１丁目７１０番地,,23,110,4540934,,,,,,,2021-12-07,1,,,,,ラフブライト,0
2468,8180003023262,新規,0,2021-12-07,2021-12-07,合同会社コネクトラブ,,合同会社,愛知県,日進市,浅田平子１丁目１２番地,,23,230,4700128,,,,,,,2021-12-07,1,,,,,コネクトラブ,0
2470,8180301035703,新規,0,2021-12-07,2021-12-07,株式会社ＣＩＳ,,株式会社,愛知県,豊橋市,東脇４丁目２２番地５,,23,201,4418083,,,,,,,2021-12-07,1,,,,,シーアイエス,0
2494,8260001036282,新規,0,2021-12-07,2021-12-07,株式会社クラビズヒューマン,,株式会社,岡山県,倉敷市,阿知３丁目１番２号,,33,202,7100055,,,,,,,2021-12-07,1,,,,,クラビズヒューマン,0
2502,8290001095581,新規,0,2021-12-07,2021-12-07,株式会社ＡＳ,,株式会社,福岡県,福岡市中央区,天神５丁目７番３号福岡天神北ビル６階,,40,133,8100001,,,,,,,2021-12-07,1,,,,,エーエス,0
2507,8290003011900,新規,0,2021-12-07,2021-12-07,合同会社レ・セゾンハナダ,,合同会社,福岡県,福津市,日蒔野１丁目９番地の１０,,40,224,8113209,,,,,,,2021-12-07,1,,,,,レセゾンハナダ,0
2508,8290003011909,新規,0,2021-12-07,2021-12-07,ＳＥＪ　ＸＩＸ合同会社,,合同会社,福岡県,福岡市早良区,百道浜２丁目４番２７号ＡＩビル６Ｆ,,40,137,8140001,,,,,,,2021-12-07,1,,,,,エスイージェーナインティーン,0
2513,8300001012733,新規,0,2021-12-07,2021-12-07,株式会社シザーハンズ,,株式会社,佐賀県,佐賀市,南佐賀１丁目６８４－６,,41,201,8400016,,,,,,,2021-12-07,1,,,,,シザーハンズ,0
2514,8300003001759,新規,0,2021-12-07,2021-12-07,合同会社橋口塗装店,,合同会社,佐賀県,武雄市,北方町大字大渡３２５４番地２,,41,206,8492202,,,,,,,2021-12-07,1,,,,,ハシグチトソウテン,0
2516,8320005009947,新規,0,2021-12-07,2021-12-07,無限責任百枝負債整理組合,,その他の設立登記法人,大分県,豊後大野市,三重町,,44,212,8797100,,,,,,,2021-12-07,1,,,,,,0
2517,8330001029262,新規,0,2021-12-07,2021-12-07,株式会社竹内開発,,株式会社,熊本県,上益城郡益城町,大字安永９８６番地３,,43,443,8612231,,,,,,,2021-12-07,1,,,,,タケウチカイハツ,0
2521,8340003003644,新規,0,2021-12-07,2021-12-07,合同会社Ｍｏｋｏ,,合同会社,鹿児島県,鹿児島市,紫原６丁目７番２号,,46,201,8900082,,,,,,,2021-12-07,1,,,,,モコ,0
2523,8360003011620,新規,0,2021-12-07,2021-12-07,合同会社美里動物病院,,合同会社,沖縄県,うるま市,字江洲４５７番地１メイオウビル２階,,47,213,9042244,,,,,,,2021-12-07,1,,,,,ミサトドウブツビョウイン,0
2524,8370001047896,新規,0,2021-12-07,2021-12-07,マルイ建設株式会社,,株式会社,宮城県,石巻市,中島字和泉沢畑二番５５番地,,04,202,9860103,,,,,,,2021-12-07,1,,,,,マルイケンセツ,0
2528,8370005010405,新規,0,2021-12-07,2021-12-07,医療法人瑛真会,,その他の設立登記法人,宮城県,仙台市泉区,泉中央１丁目１５番地の２,,04,105,9813133,,,,,,,2021-12-07,1,,,,,エイシンカイ,0
2538,8380003005067,新規,0,2021-12-07,2021-12-07,合同会社ＨＰＮ,,合同会社,福島県,いわき市,内郷宮町平太郎４９番地の１７,,07,204,9738407,,,,,,,2021-12-07,1,,,,,エイチピーエヌ,0
2540,8400001015701,新規,0,2021-12-07,2021-12-07,株式会社阿部農園,,株式会社,岩手県,一関市,滝沢字駒場１０７番地２,,03,209,0290132,,,,,,,2021-12-07,1,,,,,アベノウエン,0
2541,8400005008197,新規,0,2021-12-07,2021-12-07,医療法人巖桜会,,その他の設立登記法人,岩手県,盛岡市,肴町２－２８,,03,201,0200878,,,,,,,2021-12-07,1,,,,,ガンオウカイ,0
2565,8460101007097,新規,0,2021-12-07,2021-12-07,株式会社ネクスト,,株式会社,北海道,帯広市,西二十二条南３丁目６番５,,01,207,0802472,,,,,,,2021-12-07,1,,,,,ネクスト,0
2566,8460105001600,新規,0,2021-12-07,2021-12-07,広尾町しいたけ生産協同組合,,その他の設立登記法人,北海道,広尾郡広尾町,錦通南４丁目１番地,,01,642,0892626,,,,,,,2021-12-07,1,,,,,ヒロオチョウシイタケセイサン,0
2567,8470003002088,新規,0,2021-12-07,2021-12-07,合同会社ＬＩＮＫＴＨ,,合同会社,香川県,丸亀市,郡家町２９１１番地７,,37,202,7630093,,,,,,,2021-12-07,1,,,,,リンクス,0
2573,8500005008435,新規,0,2021-12-07,2021-12-07,医療法人きほくの里歯科医院,,その他の設立登記法人,愛媛県,北宇和郡鬼北町,大字近永１４１８番地７２,,38,488,7981300,,,,,,,2021-12-07,1,,,,,キホクノサトシカイイン,0
2606,9010001222996,新規,0,2021-12-07,2021-12-07,株式会社郁文堂新社,,株式会社,東京都,文京区,本郷５丁目３０番２１号,,13,105,1130033,,,,,,,2021-12-07,1,,,,,イクブンドウシンシャ,0
2607,9010001223012,新規,0,2021-12-07,2021-12-07,マレグループ株式会社,,株式会社,東京都,文京区,大塚４丁目９番４号,,13,105,1120012,,,,,,,2021-12-07,1,,,,,マレグループ,0
2608,9010001223020,新規,0,2021-12-07,2021-12-07,ＴＥＭＰＯ　ＮＥＴＷＯＲＫ株式会社,,株式会社,東京都,千代田区,丸の内３丁目４番２号,,13,101,1000005,,,,,,,2021-12-07,1,,,,,テンポネットワーク,0
2609,9010001223029,新規,0,2021-12-07,2021-12-07,株式会社スモハピ,,株式会社,東京都,文京区,本郷５丁目１番１６号ＶＯＲＴ本郷２Ｆ,,13,105,1130033,,,,,,,2021-12-07,1,,,,,スモハピ,0
2612,9010003036478,新規,0,2021-12-07,2021-12-07,合同会社トラスト,,合同会社,東京都,中央区,京橋１丁目６番１３号,,13,102,1040031,,,,,,,2021-12-07,1,,,,,トラスト,0
2619,9010401164203,新規,0,2021-12-07,2021-12-07,株式会社クイックケアジョブズ,,株式会社,東京都,港区,赤坂２丁目１１番７号,,13,103,1070052,,,,,,,2021-12-07,1,,,,,クイックケアジョブズ,0
2620,9010403026640,新規,0,2021-12-07,2021-12-07,ＳＯＬ合同会社,,合同会社,東京都,港区,浜松町２丁目２番１５号浜松町ダイヤビル２Ｆ,,13,103,1050013,,,,,,,2021-12-07,1,,,,,ソル,0
2625,9010601060342,新規,0,2021-12-07,2021-12-07,株式会社ライフシオン,,株式会社,東京都,江東区,北砂３丁目４番２－１３０１号,,13,108,1360073,,,,,,,2021-12-07,1,,,,,ライフシオン,0
2638,9010903006992,新規,0,2021-12-07,2021-12-07,合同会社グテ,,合同会社,東京都,世田谷区,奥沢６丁目１３－７,,13,112,1580083,,,,,,,2021-12-07,1,,,,,グテ,0
2639,9010903007000,新規,0,2021-12-07,2021-12-07,Ｌｅｖｅｌ２１合同会社,,合同会社,東京都,世田谷区,三軒茶屋２丁目４６－３レジディア６０２,,13,112,1540024,,,,,,,2021-12-07,1,,,,,レベルトゥウェンティーワン,0
2652,9011001144322,新規,0,2021-12-07,2021-12-07,株式会社ＶＯＲＴＥＸ,,株式会社,東京都,渋谷区,神宮前４丁目２６－２８原宿Ｖ２ビル２Ｆ,,13,113,1500001,,,,,,,2021-12-07,1,,,,,ボルテックス,0
2653,9011001144330,新規,0,2021-12-07,2021-12-07,株式会社ＯＭＯＫＡＪＩ,,株式会社,東京都,渋谷区,松濤１丁目２８－２,,13,113,1500046,,,,,,,2021-12-07,1,,,,,オモカジ,0
2654,9011001144339,新規,0,2021-12-07,2021-12-07,株式会社ナチュール東京,,株式会社,東京都,渋谷区,神宮前６丁目２３番４号桑野ビル２Ｆ,,13,113,1500001,,,,,,,2021-12-07,1,,,,,ナチュールトウキョウ,0
2655,9011001144355,新規,0,2021-12-07,2021-12-07,株式会社遺言執行コンシェルジュ,,株式会社,東京都,渋谷区,宇田川町１番１２号パークコート渋谷ザ・タワー２６Ｆ,,13,113,1500042,,,,,,,2021-12-07,1,,,,,イゴンシッコウコンシェルジュ,0
2656,9011001144413,新規,0,2021-12-07,2021-12-07,株式会社ＲＥＤ,,株式会社,東京都,渋谷区,恵比寿南２丁目１８番６号メゾン・ド・グリシーヌ２０３,,13,113,1500022,,,,,,,2021-12-07,1,,,,,レッド,0
2657,9011005009331,新規,0,2021-12-07,2021-12-07,一般社団法人防災マップ協会,,その他の設立登記法人,東京都,目黒区,目黒本町６丁目１０番８号,,13,110,1520002,,,,,,,2021-12-07,1,,,,,ボウサイマップキョウカイ,0
2658,9011005009348,新規,0,2021-12-07,2021-12-07,広尾税理士法人,,その他の設立登記法人,東京都,渋谷区,恵比寿４丁目１７番３号,,13,113,1500013,,,,,,,2021-12-07,1,,,,,ヒロオ,0
2661,9011101097098,新規,0,2021-12-07,2021-12-07,ドリームラボ株式会社,,株式会社,東京都,新宿区,西新宿７丁目１番７号新宿ダイカンプラザＡ館９１８号,,13,104,1600023,,,,,,,2021-12-07,1,,,,,ドリームラボ,0
2662,9011101097115,新規,0,2021-12-07,2021-12-07,紅＿国際投資株式会社,00125067,株式会社,東京都,新宿区,富久町１６－１０ニューライフ新宿３番館５０１号室,,13,104,1620067,,,,,,,2021-12-07,1,,,,,アカネツコクサイトウシ,0
2663,9011101097123,新規,0,2021-12-07,2021-12-07,株式会社ＳＡＮＫＡ,,株式会社,東京都,新宿区,矢来町６４番地４ＤＥＡＲ神楽坂２階,,13,104,1620805,,,,,,,2021-12-07,1,,,,,サンカ,0
2664,9011103011239,新規,0,2021-12-07,2021-12-07,合同会社ヨルスペ,,合同会社,東京都,新宿区,新宿１丁目１７番５号丁子屋第二ビル４Ｆ,,13,104,1600022,,,,,,,2021-12-07,1,,,,,ヨルスペ,0
2665,9011103011247,新規,0,2021-12-07,2021-12-07,Ａｔｈｌｅｎｔｉａｌ合同会社,,合同会社,東京都,新宿区,西新宿３丁目３番１３号西新宿水間ビル６Ｆ,,13,104,1600023,,,,,,,2021-12-07,1,,,,,アスレンシャル,0
2666,9011201023458,新規,0,2021-12-07,2021-12-07,株式会社ＢＥＩＣＥ,,株式会社,東京都,中野区,中野５丁目２４番１８号クロス・スクエアＮＡＫＡＮＯ７０１,,13,114,1640001,,,,,,,2021-12-07,1,,,,,ベイス,0
2667,9011303004240,新規,0,2021-12-07,2021-12-07,合同会社Ｆｏｒ　Ｋ,,合同会社,東京都,杉並区,阿佐谷南１丁目３３番３０号,,13,115,1660004,,,,,,,2021-12-07,1,,,,,フォアケー,0
2668,9011501027539,新規,0,2021-12-07,2021-12-07,株式会社ワイズフューチャー,,株式会社,東京都,荒川区,町屋５丁目１９－５富島ビル４Ｆ,,13,118,1160001,,,,,,,2021-12-07,1,,,,,ワイズフューチャー,0
2673,9011801040035,新規,0,2021-12-07,2021-12-07,株式会社三五八産業,,株式会社,東京都,足立区,西保木間１丁目１番１号,,13,121,1210812,,,,,,,2021-12-07,1,,,,,サンゴハチサンギョウ,0
2677,9012401038618,新規,0,2021-12-07,2021-12-07,Ｍａｎｇｄａｎｇ株式会社,,株式会社,東京都,武蔵野市,西久保３丁目２番１号アルベルゴ武蔵野６０４号,,13,203,1800013,,,,,,,2021-12-07,1,,,,,マンダン,0
2678,9012401038626,新規,0,2021-12-07,2021-12-07,株式会社ＴＡＫＥＨＡＹＡ,,株式会社,東京都,狛江市,東野川３丁目１３番４号,,13,219,2010002,,,,,,,2021-12-07,1,,,,,タケハヤ,0
2680,9012403005145,新規,0,2021-12-07,2021-12-07,合同会社ガジュマル,,合同会社,東京都,武蔵野市,桜堤１丁目６番２９号,,13,203,1800021,,,,,,,2021-12-07,1,,,,,ガジュマル,0
2684,9013301048376,新規,0,2021-12-07,2021-12-07,株式会社Ｉｍａｇｉｎｅ　Ａｒｃｈｉｔｅｃｔ,,株式会社,東京都,豊島区,南池袋１丁目２１－５第７野萩ビルＢ１Ｆ,,13,116,1710022,,,,,,,2021-12-07,1,,,,,イマジンアーキテクト,0
2685,9013301048392,新規,0,2021-12-07,2021-12-07,株式会社ｂｅＳｏｉｌ,,株式会社,東京都,豊島区,北大塚３丁目２９－６－６０６,,13,116,1700004,,,,,,,2021-12-07,1,,,,,ビーソイル,0
2686,9013305003286,新規,0,2021-12-07,2021-12-07,一般社団法人未来の先生フォーラム,,その他の設立登記法人,東京都,豊島区,目白５丁目４－１－７０２,,13,116,1710031,,,,,,,2021-12-07,1,,,,,ミライノセンセイフォーラム,0
2695,9020001144216,新規,0,2021-12-07,2021-12-07,株式会社Ｒｅｇａｌｏ,,株式会社,神奈川県,横浜市中区,寺久保３４番地１－２０５号,,14,104,2310855,,,,,,,2021-12-07,1,,,,,レガーロ,0
2696,9020001144240,新規,0,2021-12-07,2021-12-07,ＳＡＫＡＫＩコーポレーション株式会社,,株式会社,神奈川県,横浜市中区,石川町１丁目１番地カーサ元町９０５号室,,14,104,2310868,,,,,,,2021-12-07,1,,,,,サカキコーポレーション,0
2697,9020001144257,新規,0,2021-12-07,2021-12-07,株式会社Ｔ＆Ｒ,,株式会社,神奈川県,横浜市神奈川区,三ツ沢中町１４番４－４０４号,,14,102,2210851,,,,,,,2021-12-07,1,,,,,ティーアンドアール,0
2700,9020003020951,新規,0,2021-12-07,2021-12-07,８１合同会社,,合同会社,神奈川県,横浜市緑区,寺山町７１８－１サニープレイス中山４１０号室,,14,113,2260013,,,,,,,2021-12-07,1,,,,,ハチジュウイチ,0
2705,9021001074700,新規,0,2021-12-07,2021-12-07,株式会社ＢＯチャンス,,株式会社,神奈川県,相模原市南区,古淵２丁目１４番２０号,,14,153,2520344,,,,,,,2021-12-07,1,,,,,ビーオーチャンス,0
2706,9021003011131,新規,0,2021-12-07,2021-12-07,合同会社ＳＥＥＤ,,合同会社,神奈川県,小田原市,新屋３３－１北斗館２０５,,14,206,2500856,,,,,,,2021-12-07,1,,,,,シード,0
2708,9021005012367,新規,0,2021-12-07,2021-12-07,医療法人ＳＲＣメディカルグループ,,その他の設立登記法人,神奈川県,茅ヶ崎市,美住町５番４号,,14,207,2530023,,,,,,,2021-12-07,1,,,,,エスアールシーメディカルグループ,0
2719,9030001145650,新規,0,2021-12-07,2021-12-07,古杉左官株式会社,,株式会社,埼玉県,比企郡吉見町,大字南吉見１６３１番地１,,11,347,3550154,,,,,,,2021-12-07,1,,,,,コスギサカン,0
2729,9040001121287,新規,0,2021-12-07,2021-12-07,株式会社幸田,,株式会社,千葉県,松戸市,新松戸北２丁目３番２号ニュー松戸コーポＦ棟１階Ｃ,,12,207,2700032,,,,,,,2021-12-07,1,,,,,コウダ,0
2736,9040003019075,新規,0,2021-12-07,2021-12-07,合同会社ヒューマンサービス,,合同会社,千葉県,千葉市中央区,道場北１丁目９番３－４１０号,,12,101,2600006,,,,,,,2021-12-07,1,,,,,ヒューマンサービス,0
2737,9050001050262,新規,0,2021-12-07,2021-12-07,株式会社ＲｏｏＴｓ,,株式会社,茨城県,土浦市,東並木町３３９７番地,,08,203,3000069,,,,,,,2021-12-07,1,,,,,ルーツ,0
2743,9060001034347,新規,0,2021-12-07,2021-12-07,株式会社相馬建運,,株式会社,栃木県,大田原市,市野沢字荒屋敷１１５６番地２,,09,210,3240006,,,,,,,2021-12-07,1,,,,,ソウマケンウン,0
2747,9070001038719,新規,0,2021-12-07,2021-12-07,株式会社理桜,,株式会社,群馬県,桐生市,相生町１丁目４５５番地２４,,10,203,3760011,,,,,,,2021-12-07,1,,,,,リオ,0
2750,9080101022968,新規,0,2021-12-07,2021-12-07,株式会社学びＬａｂ,,株式会社,静岡県,御殿場市,新橋２０３０番地の４タワーコート御殿場１００６,,22,215,4120043,,,,,,,2021-12-07,1,,,,,マナビラボ,0
2754,9090001017308,新規,0,2021-12-07,2021-12-07,株式会社ＣＹＣＬ,,株式会社,山梨県,南都留郡山中湖村,平野５０８番地の１１３,,19,425,4010502,,,,,,,2021-12-07,1,,,,,サイクル,0
2760,9100005012798,新規,0,2021-12-07,2021-12-07,一般社団法人小布施見にマラソン実行委員会,,その他の設立登記法人,長野県,上高井郡小布施町,大字小布施２４０８番地９,,20,541,3810201,,,,,,,2021-12-07,1,,,,,オブセミニマラソンジッコウイインカイ,0
2778,9120001242323,新規,0,2021-12-07,2021-12-07,株式会社ＫＲＲ企画,,株式会社,大阪府,大阪市淀川区,西中島６丁目３番２４号,,27,123,5320011,,,,,,,2021-12-07,1,,,,,ケイアールキカク,0
2779,9120001242356,新規,0,2021-12-07,2021-12-07,株式会社ＴＥＮ,,株式会社,大阪府,大阪市生野区,桃谷２丁目２４番２５号,,27,116,5440034,,,,,,,2021-12-07,1,,,,,テン,0
2782,9120003020727,新規,0,2021-12-07,2021-12-07,合同会社Ｂ－Ｂｌａｚｅ,,合同会社,大阪府,大阪市東住吉区,今林２丁目９番２号,,27,121,5460001,,,,,,,2021-12-07,1,,,,,ビーブレイズ,0
2783,9120005022647,新規,0,2021-12-07,2021-12-07,一般社団法人Ｆ－ＮＶＣ協会,,その他の設立登記法人,大阪府,大阪市天王寺区,上本町９丁目１番１２号セントファミーユ夕陽丘４０１,,27,109,5430001,,,,,,,2021-12-07,1,,,,,エフエヌヴィシーキョウカイ,0
2784,9120101064741,新規,0,2021-12-07,2021-12-07,株式会社松本工業,,株式会社,大阪府,堺市西区,浜寺石津町東５丁１番３７－１０２号,,27,144,5928335,,,,,,,2021-12-07,1,,,,,マツモトコウギョウ,0
2790,9120901045296,新規,0,2021-12-07,2021-12-07,株式会社アップ・ウエスト,,株式会社,大阪府,茨木市,水尾４丁目２番１５号,,27,211,5670891,,,,,,,2021-12-07,1,,,,,アップウエスト,0
2791,9120901045305,新規,0,2021-12-07,2021-12-07,株式会社ｅｎｇｉｎｅ,,株式会社,大阪府,豊中市,上野西４丁目５番３の３号,,27,203,5600011,,,,,,,2021-12-07,1,,,,,エンジン,0
2808,9140001124065,新規,0,2021-12-07,2021-12-07,株式会社Ａｌｌ　Ｊａｐａｎ　Ｔｏｕｒｉｓｍ　Ａｌｌｉａｎｃｅ,,株式会社,兵庫県,淡路市,岩屋２９４２番地２６,,28,226,6562401,,,,,,,2021-12-07,1,,,,,オールジャパンツーリズムアライアンス,0
2809,9140001124115,新規,0,2021-12-07,2021-12-07,株式会社ＹＵＲＩＳ,,株式会社,兵庫県,西宮市,高塚町２番２２－６０２号,,28,204,6620066,,,,,,,2021-12-07,1,,,,,ユリス,0
2810,9140001124123,新規,0,2021-12-07,2021-12-07,株式会社Ｃｒｏｓｓｂａｒ,,株式会社,兵庫県,西宮市,苦楽園二番町１７番１５号,,28,204,6620082,,,,,,,2021-12-07,1,,,,,クロスバー,0
2812,9140003017060,新規,0,2021-12-07,2021-12-07,合同会社ＨＹＤＲＡＮＧＥＡ,,合同会社,兵庫県,尼崎市,武庫之荘１丁目６番６号５階,,28,202,6610035,,,,,,,2021-12-07,1,,,,,ハイドレンジア,0
2813,9140003017069,新規,0,2021-12-07,2021-12-07,合同会社ＡＭＯＵＲＪＯＹ,,合同会社,兵庫県,高砂市,神爪１丁目１４番２９号ステラ・ポラーレ３０４,,28,216,6760808,,,,,,,2021-12-07,1,,,,,アムールジョイ,0
2814,9140005025929,新規,0,2021-12-07,2021-12-07,一般社団法人Ｆｒｅｅ　Ｇｏｌｆ,,その他の設立登記法人,兵庫県,神戸市灘区,記田町５丁目３番５号,,28,102,6570034,,,,,,,2021-12-07,1,,,,,フリーゴルフ,0
2816,9150001025147,新規,0,2021-12-07,2021-12-07,ＨＡＴ株式会社,,株式会社,奈良県,奈良市,西登美ヶ丘１丁目２９番９号,,29,201,6310006,,,,,,,2021-12-07,1,,,,,ハット,0
2817,9170001016895,新規,0,2021-12-07,2021-12-07,ＡＧＲＥマネジメント株式会社,,株式会社,和歌山県,和歌山市,友田町３丁目８７番地,,30,201,6408342,,,,,,,2021-12-07,1,,,,,エージーアールイーマネジメント,0
2819,9170005006934,新規,0,2021-12-07,2021-12-07,一般社団法人あとりえＥｎｎ,,その他の設立登記法人,和歌山県,和歌山市,雑賀屋町３番地１１０７号,,30,201,6408249,,,,,,,2021-12-07,1,,,,,アトリエエン,0
2827,9180001148993,新規,0,2021-12-07,2021-12-07,株式会社Ｌｉｍｒｅｅ,,株式会社,愛知県,一宮市,多加木４丁目３０番３０号,,23,203,4910837,,,,,,,2021-12-07,1,,,,,リムリー,0
2828,9180001149026,新規,0,2021-12-07,2021-12-07,ＨＡＬＯＮＧ株式会社,,株式会社,愛知県,名古屋市中区,新栄２丁目１番９号雲竜フレックスビル西館７０６号室,,23,106,4600007,,,,,,,2021-12-07,1,,,,,ハロン,0
2829,9180001149034,新規,0,2021-12-07,2021-12-07,株式会社リスク・ラボ,,株式会社,愛知県,名古屋市東区,代官町３５－１６第一富士ビル６Ｆ,,23,102,4610002,,,,,,,2021-12-07,1,,,,,リスクラボ,0
2830,9180001149042,新規,0,2021-12-07,2021-12-07,大橋造船所株式会社,,株式会社,愛知県,半田市,港町１丁目４１番地の３,,23,205,4750823,,,,,,,2021-12-07,1,,,,,オオハシゾウセンジョ,0
2832,9180003023261,新規,0,2021-12-07,2021-12-07,合同会社街のケーキ屋さん,,合同会社,愛知県,名古屋市名東区,若葉台４１８番地,,23,115,4650015,,,,,,,2021-12-07,1,,,,,マチノケーキヤサン,0
2833,9180301035702,新規,0,2021-12-07,2021-12-07,株式会社ココイイ,,株式会社,愛知県,刈谷市,新栄町３丁目３３番地３,,23,210,4480843,,,,,,,2021-12-07,1,,,,,ココイイ,0
2842,9200001039505,新規,0,2021-12-07,2021-12-07,株式会社ＭＵＧＩ,,株式会社,岐阜県,岐阜市,柳津町宮東３丁目１６コネクトビル２Ｆ北室,,21,201,5016111,,,,,,,2021-12-07,1,,,,,ムギ,0
2864,9290001095572,新規,0,2021-12-07,2021-12-07,ＺＩＯＮ株式会社,,株式会社,福岡県,うきは市,浮羽町田篭字竹園１１５１番地６,,40,225,8391414,,,,,,,2021-12-07,1,,,,,ザイオン,0
2868,9290003011866,新規,0,2021-12-07,2021-12-07,合同会社ｉｆ　ａｒｃｈｉｔｅｃｔｓ,,合同会社,福岡県,福岡市早良区,小田部５丁目２５－３－２０５,,40,137,8140032,,,,,,,2021-12-07,1,,,,,イフアーキテクツ,0
2869,9290003011908,新規,0,2021-12-07,2021-12-07,ＳＥＪ　ＸＶＩＩＩ合同会社,,合同会社,福岡県,福岡市早良区,百道浜２丁目４番２７号ＡＩビル６Ｆ,,40,137,8140001,,,,,,,2021-12-07,1,,,,,エスイージェーエイティーン,0
2871,9290801028046,新規,0,2021-12-07,2021-12-07,株式会社第一特殊金属,,株式会社,福岡県,直方市,大字植木１２４５番地１６,,40,204,8220031,,,,,,,2021-12-07,1,,,,,ダイイチトクシュキンゾク,0
2873,9300001012732,新規,0,2021-12-07,2021-12-07,株式会社スタートトゥデイ,,株式会社,佐賀県,佐賀市,南佐賀１丁目６８４－６,,41,201,8400016,,,,,,,2021-12-07,1,,,,,スタートトゥデイ,0
2882,9330001029261,新規,0,2021-12-07,2021-12-07,株式会社将生ブレイン,,株式会社,熊本県,熊本市中央区,新市街１３番１４号フタビルＩＩ９階,00125080,43,101,8600803,,,,,,,2021-12-07,1,,,,,ショウセイブレイン,0
2887,9330003009146,新規,0,2021-12-07,2021-12-07,合同会社ビッグウェイブ,,合同会社,熊本県,熊本市南区,富合町杉島１１６３番地２,,43,104,8614142,,,,,,,2021-12-07,1,,,,,ビッグウェイブ,0
2893,9360005006568,新規,0,2021-12-07,2021-12-07,一般社団法人恩納村マリンレジャー協会,,その他の設立登記法人,沖縄県,国頭郡恩納村,字前兼久１６７番地,,47,311,9040414,,,,,,,2021-12-07,1,,,,,オンナソンマリンレジャーキョウカイ,0
2915,9380003005066,新規,0,2021-12-07,2021-12-07,脇坂合同会社,,合同会社,福島県,相馬市,中村字川沼２４９番地の３,,07,209,9760042,,,,,,,2021-12-07,1,,,,,ワキサカ,0
2920,9400001015700,新規,0,2021-12-07,2021-12-07,株式会社秀和産業,,株式会社,岩手県,久慈市,夏井町早坂第２地割１３番地,,03,207,0280001,,,,,,,2021-12-07,1,,,,,シュウワサンギョウ,0
2923,9410001013034,新規,0,2021-12-07,2021-12-07,船木電気株式会社,,株式会社,秋田県,秋田市,飯島新町２丁目１７番２号,,05,201,0110947,,,,,,,2021-12-07,1,,,,,フナキデンキ,0
2932,9440001008989,新規,0,2021-12-07,2021-12-07,北海道相馬フォレスト株式会社,,株式会社,北海道,亀田郡七飯町,本町７丁目６５７番地,,01,337,0411111,,,,,,,2021-12-07,1,,,,,ホッカイドウソウマフォレスト,0
2936,9460101007096,新規,0,2021-12-07,2021-12-07,株式会社Ｒ　ＩＮＮＯＶＡＴＩＯＮ,,株式会社,北海道,帯広市,西六条南３４丁目５１番地２,,01,207,0800016,,,,,,,2021-12-07,1,,,,,アールイノベーション,0
2937,9700150005653,新規,0,2021-12-07,2015-10-09,在日ベルギー・ルクセンブルグ商工会議所,,その他,東京都,新宿区,荒木町２３－３第１０大鉄ビル５Ｆ,,13,104,1600007,,,,,,,2015-10-09,1,,,,,ザイニチベルギールクセンブルグシヨウコウカイギシヨ,0
