sequenceNumber,corporateNumber,process,correct,updateDate,changeDate,name,nameImageId,kind,prefectureName,cityName,streetNumber,addressImageId,prefectureCode,cityCode,postCode,addressOutside,addressOutsideImageId,closeDate,closeCause,successorCorporateNumber,changeCause,assignmentDate,latest,enName,enPrefectureName,enCityName,enAddressOutside,furigana,hihyoji
11,1010401149335,登記記録の閉鎖等,0,2021-11-25,2021-11-16,Ｋ’Ｓセキュリティ株式会社,,株式会社,東京都,港区,麻布台１丁目７番３号,,13,103,1060041,,,2021-11-16,清算の結了等,,,2019-11-20,1,,,,,ケーズセキュリティ,0
21,1010601033529,登記記録の閉鎖等,0,2021-11-25,2021-11-18,龍山化学株式会社,,株式会社,東京都,墨田区,錦糸３丁目４番１１号,,13,107,1300013,,,2021-11-18,清算の結了等,,,2015-10-05,1,,,,,リュウザンカガク,0
24,1010601042224,登記記録の閉鎖等,0,2021-11-25,2021-11-16,株式会社東京医療システム,,株式会社,東京都,中央区,京橋１丁目３番１号八重洲口大栄ビル５階,,13,102,1040031,,,2021-11-16,清算の結了等,,,2015-10-05,1,,,,,トウキョウイリョウシステム,0
40,1011001073256,登記記録の閉鎖等,0,2021-11-25,2021-11-22,クローバーケアプランニング株式会社,,株式会社,東京都,渋谷区,広尾４丁目１番２５号,,13,113,1500012,,,2021-11-22,清算の結了等,,,2015-10-05,1,,,,,,0
43,1011001121816,登記記録の閉鎖等,0,2021-11-25,2021-11-12,株式会社グロウ,,株式会社,東京都,渋谷区,恵比寿１丁目１５番９号シルク恵比寿４０３,,13,113,1500013,,,2021-11-12,清算の結了等,,,2018-04-24,1,,,,,グロウ,0
71,1020001021034,登記記録の閉鎖等,0,2021-11-25,2021-11-19,株式会社東京技研,,株式会社,神奈川県,横浜市港北区,新吉田東１丁目５２番１７号,,14,109,2230058,,,2021-11-19,清算の結了等,,,2015-10-05,1,,,,,トウキョウギケン,0
74,1020001102445,登記記録の閉鎖等,0,2021-11-25,2021-11-22,株式会社白百合メディカルサービス,,株式会社,神奈川県,横浜市戸塚区,品濃町５４９番地２,,14,110,2440801,,,2021-11-22,清算の結了等,,,2015-10-05,1,,,,,,0
78,1020001130017,登記記録の閉鎖等,0,2021-11-25,2021-11-17,株式会社ミズノインターナショナル,,株式会社,神奈川県,川崎市幸区,中幸町３丁目２６番地２４－１８０２,,14,132,2120012,,,2021-11-17,清算の結了等,,,2019-02-22,1,,,,,ミズノインターナショナル,0
89,1030002034257,登記記録の閉鎖等,0,2021-11-25,2021-11-19,有限会社ビューティサロンヒロセ,,有限会社,埼玉県,狭山市,広瀬２丁目１７番３号,,11,215,3501319,,,2021-11-19,清算の結了等,,,2015-10-05,1,,,,,ビューティサロンヒロセ,0
123,1110001017997,登記記録の閉鎖等,0,2021-11-25,2021-11-01,株式会社カワイ,,株式会社,新潟県,柏崎市,大字下田尻１０２１番地８,,15,205,9451345,,,2021-11-01,合併による解散等,6110001017919,令和３年１１月１日新潟県柏崎市大字下田尻１０２１番地７カワイ塗装株式会社（6110001017919）に合併し解散,2015-10-05,1,,,,,,0
124,1110001026123,登記記録の閉鎖等,0,2021-11-25,2021-11-18,会津新和株式会社,,株式会社,新潟県,南魚沼市,坂戸４８５番地,,15,226,9496611,,,2021-11-18,合併による解散等,3110001026344,令和３年１１月１日新潟県南魚沼市坂戸４８５番地新和コンクリート工業株式会社（3110001026344）に合併し解散,2015-10-05,1,,,,,アイヅシンワ,0
125,1120001009382,登記記録の閉鎖等,0,2021-11-25,2021-11-19,株式会社オフィスイチロクヨン,,株式会社,大阪府,大阪市東住吉区,南田辺１丁目６番１８号,,27,121,5460033,,,2021-11-19,清算の結了等,,,2015-10-05,1,,,,,オフィスイチロクヨン,0
152,1122005003064,登記記録の閉鎖等,0,2021-11-25,2021-11-24,医療法人にしもとこどもクリニック,,その他の設立登記法人,大阪府,四條畷市,楠公２丁目８番２２号,,27,229,5750023,,,2021-11-24,清算の結了等,,,2015-10-05,1,,,,,ニシモトコドモクリニック,0
172,1180001085336,登記記録の閉鎖等,0,2021-11-25,2021-11-22,泰平アットホーム株式会社,,株式会社,愛知県,一宮市,時之島字堂山１番地１０,,23,203,4910002,,,2021-11-22,清算の結了等,,,2015-10-05,1,,,,,タイヘイアットホーム,0
180,1180005018969,登記記録の閉鎖等,0,2021-11-25,2021-11-22,一般社団法人知多ブルーゾーン開発協議会,,その他の設立登記法人,愛知県,名古屋市中区,新栄１丁目１３番地２４アンジュサカエ１Ｆ,,23,106,4600007,,,2021-11-22,清算の結了等,,,2020-10-06,1,,,,,チタブルーゾーンカイハツキョウギカイ,0
203,1240001033718,登記記録の閉鎖等,0,2021-11-25,2021-11-24,株式会社ニック,,株式会社,広島県,福山市,新市町大字宮内４０７番地２,,34,207,7293104,,,2021-11-24,清算の結了等,,,2015-10-05,1,,,,,ニック,0
205,1240002029756,登記記録の閉鎖等,0,2021-11-25,2021-11-22,コダマ電機有限会社,,有限会社,広島県,山県郡安芸太田町,大字上殿１１７番地の１,,34,368,7313664,,,2021-11-22,清算の結了等,,,2015-10-05,1,,,,,コダマデンキ,0
210,1250001013909,登記記録の閉鎖等,0,2021-11-25,2021-11-22,株式会社山口東部工業,,株式会社,山口県,大島郡周防大島町,大字久賀４１６９番地２,,35,305,7422301,,,2021-11-22,清算の結了等,,,2015-10-05,1,,,,,ヤマグチトウブコウギョウ,0
212,1260001020367,登記記録の閉鎖等,0,2021-11-25,2021-11-18,株式会社ケーエムグリーン,,株式会社,岡山県,久米郡美咲町,西川４６３番地２,,33,666,7093404,,,2021-11-18,清算の結了等,,,2015-10-05,1,,,,,ケーエムグリーン,0
213,1260002006654,登記記録の閉鎖等,0,2021-11-25,2021-11-24,有限会社データメイト,,有限会社,岡山県,岡山市北区,学南町３丁目８番２２－３号,,33,101,7000011,,,2021-11-24,清算の結了等,,,2015-10-05,1,,,,,データメイト,0
214,1260002018798,登記記録の閉鎖等,0,2021-11-25,2021-11-24,有限会社自由軒,,有限会社,岡山県,倉敷市,白楽町３０３番地の５,,33,202,7100824,,,2021-11-24,清算の結了等,,,2015-10-05,1,,,,,ジユウケン,0
215,1260002027452,登記記録の閉鎖等,0,2021-11-25,2021-11-22,有限会社コーポ阿新,,有限会社,岡山県,新見市,哲多町本郷２４４番地,,33,210,7180303,,,2021-11-22,清算の結了等,,,2015-10-05,1,,,,,コーポアシン,0
226,1290801021545,登記記録の閉鎖等,0,2021-11-25,2021-11-19,株式会社三翔,,株式会社,福岡県,田川市,大字伊加利２１９３番地２８,,40,206,8250001,,,2021-11-19,清算の結了等,,,2015-10-05,1,,,,,サンショウ,0
248,1410001007778,登記記録の閉鎖等,0,2021-11-25,2021-11-11,株式会社ライフサポート,,株式会社,秋田県,大館市,常盤木町１９番４号,,05,204,0170846,,,2021-11-11,清算の結了等,,,2015-10-05,1,,,,,ライフサポート,0
249,1410005001240,登記記録の閉鎖等,0,2021-11-25,2021-11-22,医療法人水心会,,その他の設立登記法人,秋田県,秋田市,仁井田字中新田７８番地,,05,201,0101423,,,2021-11-22,清算の結了等,,,2015-10-05,1,,,,,スイシンカイ,0
294,2010403019295,登記記録の閉鎖等,0,2021-11-25,2021-11-09,Ｎｏｍａｄ５合同会社,,合同会社,東京都,港区,虎ノ門４丁目１番２８号,,13,103,1050001,,,2021-11-09,清算の結了等,,,2018-09-10,1,,,,,ノマドファイブ,0
301,2010501043354,登記記録の閉鎖等,0,2021-11-25,2021-11-09,株式会社ミラクルプロ,,株式会社,東京都,渋谷区,恵比寿１丁目１９番１９号,,13,113,1500013,,,2021-11-09,清算の結了等,,,2018-11-22,1,,,,,ミラクルプロ,0
329,2011003002848,登記記録の閉鎖等,0,2021-11-25,2021-11-10,株式会社ダイナプティコ,,株式会社,東京都,渋谷区,渋谷１丁目８－６ＶＯＲＴ渋谷宮益坂４階,,13,113,1500002,,,2021-11-10,清算の結了等,,,2015-10-05,1,,,,,ダイナプティコ,0
330,2011003011782,登記記録の閉鎖等,0,2021-11-25,2021-11-10,合同会社プルーフオブカラー,,合同会社,東京都,渋谷区,渋谷３丁目１０番１８－４０７号パークハビオ渋谷,,13,113,1500002,,,2021-11-10,清算の結了等,,,2020-10-21,1,,,,,プルーフオブカラー,0
334,2011105009080,登記記録の閉鎖等,0,2021-11-25,2021-11-22,税理士法人きずな会計,,その他の設立登記法人,東京都,新宿区,大久保３丁目１０番１号ニュータウンオ－クボＡ棟１１０２号,,13,104,1690072,,,2021-11-22,清算の結了等,,,2019-09-30,1,,,,,キズナカイケイ,0
357,2013102001870,登記記録の閉鎖等,0,2021-11-25,2021-11-18,共栄防災有限会社,,有限会社,東京都,あきる野市,草花２８６１番地１,,13,228,1970802,,,2021-11-18,清算の結了等,,,2015-10-05,1,,,,,キョウエイボウサイ,0
376,2021002057446,登記記録の閉鎖等,0,2021-11-25,2021-11-19,有限会社共三加工所,,有限会社,神奈川県,平塚市,御殿２丁目１４番２号,,14,203,2540061,,,2021-11-19,清算の結了等,,,2015-10-05,1,,,,,キョウサンカコウジョ,0
396,2040002066637,登記記録の閉鎖等,0,2021-11-25,2021-11-18,有限会社コハマ開発,,有限会社,千葉県,木更津市,小浜２６５番地,,12,206,2920824,,,2021-11-18,清算の結了等,,,2015-10-05,1,,,,,コハマカイハツ,0
400,2050002025773,登記記録の閉鎖等,0,2021-11-25,2021-11-18,ツナキ有限会社,,有限会社,茨城県,古河市,尾崎５６２８番地,,08,204,3060101,,,2021-11-18,清算の結了等,,,2015-10-05,1,,,,,ツナキ,0
412,2070001005907,登記記録の閉鎖等,0,2021-11-25,2021-11-17,株式会社丸セ紙工,,株式会社,群馬県,前橋市,天川大島町３丁目７６７番地の４,,10,201,3792154,,,2021-11-17,清算の結了等,,,2015-10-05,1,,,,,マルセシコウ,0
417,2080102020960,登記記録の閉鎖等,0,2021-11-25,2021-11-22,有限会社コスモ建装,,有限会社,静岡県,下田市,立野１３０番地の１,,22,219,4150032,,,2021-11-22,清算の結了等,,,2015-10-05,1,,,,,,0
425,2110002018093,登記記録の閉鎖等,0,2021-11-25,2021-11-22,有限会社花里家,,有限会社,新潟県,三条市,東本成寺３０番２６号,,15,204,9550823,,,2021-11-22,清算の結了等,,,2015-10-05,1,,,,,,0
436,2120002037712,登記記録の閉鎖等,0,2021-11-25,2021-11-19,有限会社ヌエボー昌美,,有限会社,大阪府,大阪市中央区,瓦町１丁目５番１０号,,27,128,5410048,,,2021-11-19,清算の結了等,,,2015-10-05,1,,,,,,0
437,2120003012441,登記記録の閉鎖等,0,2021-11-25,2021-11-22,合資会社ヒロ工房,,合資会社,大阪府,大阪市中央区,高津３丁目１５番６号,,27,128,5420072,,,2021-11-22,清算の結了等,,,2017-02-06,1,,,,,ヒロコウボウ,0
441,2120101002856,登記記録の閉鎖等,0,2021-11-25,2021-11-18,株式会社クリック,,株式会社,大阪府,堺市堺区,戎島町４丁４５番地の１,,27,141,5900985,,,2021-11-18,清算の結了等,,,2015-10-05,1,,,,,クリック,0
500,2200001013490,登記記録の閉鎖等,0,2021-11-25,2021-11-24,株式会社岐大エンジニアリング,,株式会社,岐阜県,大垣市,浅草３丁目２０番地１,,21,202,5030947,,,2021-11-24,清算の結了等,,,2015-10-05,1,,,,,ギダイエンジニアリング,0
511,2240002006713,登記記録の閉鎖等,0,2021-11-25,2021-11-22,有限会社さかたプリント,,有限会社,広島県,広島市南区,段原南２丁目１０番９号,,34,103,7320814,,,2021-11-22,清算の結了等,,,2015-10-05,1,,,,,サカタプリント,0
517,2290001024835,登記記録の閉鎖等,0,2021-11-25,2021-11-17,株式会社資源開発,,株式会社,福岡県,福岡市博多区,板付６丁目９番１２号,,40,132,8120888,,,2021-11-17,清算の結了等,,,2015-10-05,1,,,,,シゲンカイハツ,0
522,2290001083625,登記記録の閉鎖等,0,2021-11-25,2021-11-18,株式会社福流,,株式会社,福岡県,福岡市東区,多の津１丁目２０番－１号,,40,131,8130034,,,2021-11-18,清算の結了等,,,2018-12-12,1,,,,,フクリュウ,0
535,2330002019318,登記記録の閉鎖等,0,2021-11-25,2021-11-18,有限会社森田ファーム,,有限会社,熊本県,熊本市北区,植木町田底２３０７番地,,43,105,8610112,,,2021-11-18,清算の結了等,,,2015-10-05,1,,,,,モリタファーム,0
548,2430001016495,登記記録の閉鎖等,0,2021-11-25,2021-11-15,三ツ星鉄工株式会社,,株式会社,北海道,札幌市西区,発寒十七条１４丁目２番１号,,01,107,0630837,,,2021-11-15,清算の結了等,,,2015-10-05,1,,,,,ミツボシテッコウ,0
549,2430001051575,登記記録の閉鎖等,0,2021-11-25,2021-11-18,株式会社ドリームワン北海道,,株式会社,北海道,小樽市,幸２丁目２３番２号,,01,203,0470037,,,2021-11-18,清算の結了等,,,2015-10-05,1,,,,,ドリームワンホッカイドウ,0
551,2430002055419,登記記録の閉鎖等,0,2021-11-25,2021-11-19,有限会社町の,,有限会社,北海道,小樽市,稲穂１丁目１番１号,,01,203,0470032,,,2021-11-19,清算の結了等,,,2015-10-05,1,,,,,マチノ,0
553,2450002002162,登記記録の閉鎖等,0,2021-11-25,2021-11-24,有限会社五条軒,,有限会社,北海道,旭川市,五条通１０丁目右１０号,,01,204,0700035,,,2021-11-24,清算の結了等,,,2015-10-05,1,,,,,ゴジョウケン,0
554,2460002002657,登記記録の閉鎖等,0,2021-11-25,2021-11-22,有限会社北日本フアラオン,,有限会社,北海道,釧路市,星が浦南４丁目１番６号,,01,206,0840913,,,2021-11-22,清算の結了等,,,2015-10-05,1,,,,,キタニホンフアラオン,0
555,2460302000708,登記記録の閉鎖等,0,2021-11-25,2021-11-19,有限会社サンシースカイ,,有限会社,北海道,北見市,美芳町１丁目５番４号,,01,208,0900064,,,2021-11-19,清算の結了等,,,2015-10-05,1,,,,,サンシースカイ,0
568,3010001166670,登記記録の閉鎖等,0,2021-11-25,2021-11-19,ＥＵＳ株式会社,,株式会社,神奈川県,横浜市西区,北幸２丁目９番２３号,,14,103,2200004,,,2021-11-19,清算の結了等,,,2015-10-05,1,,,,,イーユーエス,0
572,3010005012887,登記記録の閉鎖等,0,2021-11-25,2021-11-17,特定非営利活動法人障害者サポートぶんきょう,,その他の設立登記法人,東京都,文京区,本郷１丁目３０番１６－１０３号,,13,105,1130033,,,2021-11-17,清算の結了等,,,2015-10-05,1,,,,,ショウガイシャサポートブンキョウ,0
578,3010401111053,登記記録の閉鎖等,0,2021-11-25,2021-11-16,株式会社ステージ,,株式会社,東京都,港区,赤坂６丁目３番１８号,,13,103,1070052,,,2021-11-16,清算の結了等,,,2015-10-05,1,,,,,,0
586,3010403020137,登記記録の閉鎖等,0,2021-11-25,2021-11-16,札幌ホテルリアルエステート販売合同会社,,合同会社,東京都,港区,元赤坂１丁目１番７号,,13,103,1070051,,,2021-11-16,清算の結了等,,,2019-02-12,1,,,,,サッポロホテルリアルエステートハンバイ,0
589,3010501006137,登記記録の閉鎖等,0,2021-11-25,2021-11-24,杉野商事株式会社,,株式会社,東京都,台東区,三筋２丁目１４番１号,,13,106,1110055,,,2021-11-24,清算の結了等,,,2015-10-05,1,,,,,スギノショウジ,0
594,3010601012051,登記記録の閉鎖等,0,2021-11-25,2021-11-18,三勝工業株式会社,,株式会社,東京都,墨田区,菊川２丁目１８番７－５０１号,,13,107,1300024,,,2021-11-18,清算の結了等,,,2015-10-05,1,,,,,サンショウコウギョウ,0
617,3011002032011,登記記録の閉鎖等,0,2021-11-25,2021-11-12,有限会社フェイスクルー,,有限会社,東京都,渋谷区,恵比寿西２丁目１番８号,,13,113,1500021,,,2021-11-12,清算の結了等,,,2015-10-05,1,,,,,フェイスクルー,0
651,3013202014160,登記記録の閉鎖等,0,2021-11-25,2021-11-09,有限会社フォーシンズセンサ,,有限会社,東京都,目黒区,上目黒２丁目２３番８号,,13,110,1530051,,,2021-11-09,清算の結了等,,,2015-10-05,1,,,,,フォーシンズセンサ,0
655,3013301048002,登記記録の閉鎖等,0,2021-11-25,2021-11-19,病院インフラ株式会社,,株式会社,東京都,豊島区,目白３丁目５番１３号,,13,116,1710031,,,2021-11-19,合併による解散等,3011301026390,令和３年１１月１２日東京都文京区小石川三丁目３０番１１号株式会社エルムスユナイテッド動物病院グループ（3011301026390）に合併し解散,2021-09-15,1,,,,,ビョウインインフラ,0
673,3030002016476,登記記録の閉鎖等,0,2021-11-25,2021-11-19,有限会社フォーエル,,有限会社,千葉県,大網白里市,みどりが丘４丁目３６番地１１,,12,239,2993255,,,2021-11-19,清算の結了等,,,2015-10-05,1,,,,,フォーエル,0
688,3040003007333,登記記録の閉鎖等,0,2021-11-25,2021-11-16,合同会社パルサービス,,合同会社,千葉県,千葉市稲毛区,千草台１丁目１番２２棟３０７号,,12,103,2630013,,,2021-11-16,清算の結了等,,,2015-10-05,1,,,,,パルサービス,0
691,3050001017606,登記記録の閉鎖等,0,2021-11-25,2021-11-19,株式会社アシストつくば,,株式会社,茨城県,つくば市,高見原５丁目５番地８５,,08,220,3001252,,,2021-11-19,清算の結了等,,,2015-10-05,1,,,,,アシストツクバ,0
719,3120001219863,登記記録の閉鎖等,0,2021-11-25,2021-11-16,株式会社ＺＥＮＹ,,株式会社,東京都,港区,六本木４丁目３番１１号六本木ユニハウス２２３,,13,103,1060032,,,2021-11-16,清算の結了等,,,2019-03-27,1,,,,,ゼニー,0
740,3140002003059,登記記録の閉鎖等,0,2021-11-25,2021-11-22,有限会社黒川商店,,有限会社,兵庫県,神戸市灘区,大土平町２丁目４番７号,,28,102,6570014,,,2021-11-22,清算の結了等,,,2015-10-05,1,,,,,クロカワショウテン,0
757,3190001009309,登記記録の閉鎖等,0,2021-11-25,2021-11-22,株式会社大西鉄工所,,株式会社,三重県,名張市,松崎町１４７９番地の２,,24,208,5180722,,,2021-11-22,清算の結了等,,,2015-10-05,1,,,,,オオニシテッコウジョ,0
762,3230002002308,登記記録の閉鎖等,0,2021-11-25,2021-11-19,有限会社東友機工,,有限会社,富山県,富山市,蓮町５丁目７番３８号,00079020,16,201,9318333,,,2021-11-19,清算の結了等,,,2015-10-05,1,,,,,トウユウキコウ,0
767,3240001038038,登記記録の閉鎖等,0,2021-11-25,2021-11-24,株式会社尾道県水魚市場,,株式会社,広島県,尾道市,東尾道７番地２,,34,205,7220051,,,2021-11-24,清算の結了等,,,2015-10-05,1,,,,,,0
777,3250001013279,登記記録の閉鎖等,0,2021-11-25,2021-11-24,株式会社リーブル,,株式会社,山口県,山口市,駅通り１丁目４番１０号ひまわりビル３階,,35,203,7530048,,,2021-11-24,清算の結了等,,,2015-10-05,1,,,,,リーブル,0
808,3330002027138,登記記録の閉鎖等,0,2021-11-25,2021-11-18,有限会社ミズキライン,,有限会社,熊本県,八代市,鼠蔵町２１２３番地の２６,,43,202,8695164,,,2021-11-18,清算の結了等,,,2015-10-05,1,,,,,,0
823,3370001039279,登記記録の閉鎖等,0,2021-11-25,2021-11-18,株式会社トライアングル仙台,,株式会社,宮城県,名取市,上余田字千刈田８４５番地の２６,,04,207,9811222,,,2021-11-18,清算の結了等,,,2016-03-04,1,,,,,トライアングルセンダイ,0
824,3370002000479,登記記録の閉鎖等,0,2021-11-25,2021-11-16,有限会社小野寺デンタルワーク,,有限会社,宮城県,仙台市泉区,将監１丁目２６番５号,,04,105,9813132,,,2021-11-16,清算の結了等,,,2015-10-05,1,,,,,オノデラデンタルワーク,0
827,3370302000914,登記記録の閉鎖等,0,2021-11-25,2021-11-17,有限会社コバルト健商,,有限会社,宮城県,石巻市,のぞみ野２丁目１０番地５,,04,202,9860860,,,2021-11-17,清算の結了等,,,2015-10-05,1,,,,,コバルトケンショウ,0
829,3370801001537,登記記録の閉鎖等,0,2021-11-25,2021-11-18,株式会社仏壇直売センター名取,,株式会社,宮城県,名取市,増田９丁目６番１８号,,04,207,9811224,,,2021-11-18,清算の結了等,,,2015-10-05,1,,,,,,0
866,4010401133220,登記記録の閉鎖等,0,2021-11-25,2021-11-18,株式会社７ｗａｙ,,株式会社,東京都,港区,赤坂９丁目５番地２６号赤坂ハイツビル３０３号室,,13,103,1070052,,,2021-11-18,清算の結了等,,,2017-08-16,1,,,,,セブンウェイ,0
878,4010601037320,登記記録の閉鎖等,0,2021-11-25,2021-11-19,株式会社モネパレット,,株式会社,東京都,江東区,白河１丁目７番１８号,,13,108,1350021,,,2021-11-19,清算の結了等,,,2015-10-05,1,,,,,モネパレット,0
882,4010603007511,登記記録の閉鎖等,0,2021-11-25,2021-11-19,合同会社インクシード,,合同会社,東京都,墨田区,吾妻橋３丁目１番６－６０２号,,13,107,1300001,,,2021-11-19,清算の結了等,,,2018-10-23,1,,,,,インクシード,0
927,4011502008716,登記記録の閉鎖等,0,2021-11-25,2021-11-22,有限会社佐藤建装,,有限会社,東京都,荒川区,西尾久５丁目１７番１号,,13,118,1160011,,,2021-11-22,清算の結了等,,,2015-10-05,1,,,,,サトウケンソウ,0
957,4030001052117,登記記録の閉鎖等,0,2021-11-25,2021-11-19,株式会社ビルガイア,,株式会社,埼玉県,春日部市,内牧４３９３番地１,,11,214,3440051,,,2021-11-19,清算の結了等,,,2015-10-05,1,,,,,ビルガイア,0
963,4030003009809,登記記録の閉鎖等,0,2021-11-25,2021-11-22,洸テクノ合同会社,,合同会社,埼玉県,川口市,大字安行領根岸１０２７番地の１川口根岸パーク・ホームズ弐番館２１１号,,11,203,3330834,,,2021-11-22,清算の結了等,,,2017-01-24,1,,,,,コウテクノ,0
999,4120001111251,登記記録の閉鎖等,0,2021-11-25,2021-11-18,株式会社イーグル・イチハラ,,株式会社,大阪府,大阪市中央区,鎗屋町２丁目２番１１号,,27,128,5400027,,,2021-11-18,清算の結了等,,,2015-10-05,1,,,,,,0
1008,4120002016656,登記記録の閉鎖等,0,2021-11-25,2021-11-18,大長有限会社,,有限会社,大阪府,阪南市,桃の木台６丁目８番２号,,27,232,5990236,,,2021-11-18,清算の結了等,,,2015-10-05,1,,,,,ダイチョウ,0
1048,4180001070517,登記記録の閉鎖等,0,2021-11-25,2021-11-19,ＳＹＮＫＳ株式会社,,株式会社,愛知県,名古屋市中区,新栄２丁目１６番２５号ハイパービル２Ｆ,,23,106,4600007,,,2021-11-19,清算の結了等,,,2015-10-05,1,,,,,シンクス,0
1055,4180002044593,登記記録の閉鎖等,0,2021-11-25,2021-11-22,有限会社ビューティーサロン・マコ,,有限会社,愛知県,名古屋市名東区,高社２丁目２７番地,,23,115,4650095,,,2021-11-22,清算の結了等,,,2015-10-05,1,,,,,ビューティーサロンマコ,0
1076,4230002005870,登記記録の閉鎖等,0,2021-11-25,2021-11-18,有限会社ティ・エイ・エム,,有限会社,富山県,中新川郡上市町,広野字夫見野３１４６番地１,,16,322,9300412,,,2021-11-18,合併による解散等,9230001004786,令和３年１０月３１日富山県中新川郡上市町広野字夫見野３１４６番地１株式会社ＴＡＭ（9230001004786）に合併し解散,2015-10-05,1,,,,,ティエイエム,0
1077,4230002006836,登記記録の閉鎖等,0,2021-11-25,2021-11-19,有限会社八尾観光旅行,,有限会社,富山県,富山市,八尾町黒田３１１番地１７,,16,201,9392304,,,2021-11-19,清算の結了等,,,2015-10-05,1,,,,,,0
1104,4290002045804,登記記録の閉鎖等,0,2021-11-25,2021-11-18,有限会社中野開発,,有限会社,福岡県,飯塚市,柏の森１３番地１２７,,40,205,8200011,,,2021-11-18,清算の結了等,,,2015-10-05,1,,,,,ナカノカイハツ,0
1121,4340005003415,登記記録の閉鎖等,0,2021-11-25,2021-11-22,医療法人弘生会,,その他の設立登記法人,鹿児島県,薩摩川内市,向田本町１７番１４号,,46,215,8950021,,,2021-11-22,清算の結了等,,,2015-10-05,1,,,,,コウセイカイ,0
1134,4470002003917,登記記録の閉鎖等,0,2021-11-25,2021-11-22,有限会社妹尾鉄工所,,有限会社,香川県,高松市,下田井町１６５－４,,37,201,7610313,,,2021-11-22,清算の結了等,,,2015-10-05,1,,,,,セオテッコウショ,0
1139,5010001010389,登記記録の閉鎖等,0,2021-11-25,2021-11-19,株式会社アルト,,株式会社,東京都,千代田区,神田小川町３丁目２番２号,,13,101,1010052,,,2021-11-19,清算の結了等,,,2015-10-05,1,,,,,アルト,0
1154,5010501035976,登記記録の閉鎖等,0,2021-11-25,2021-11-24,蘭亭閣株式会社,,株式会社,東京都,台東区,下谷２丁目２４番５号トキビル２０２,,13,106,1100004,,,2021-11-24,清算の結了等,,,2015-10-05,1,,,,,ランテイカク,0
1232,5030003009808,登記記録の閉鎖等,0,2021-11-25,2021-11-22,鷺谷通信合同会社,,合同会社,埼玉県,坂戸市,大字島田６４３番地,,11,239,3500211,,,2021-11-22,清算の結了等,,,2017-01-24,1,,,,,サギヤツウシン,0
1248,5070001021744,登記記録の閉鎖等,0,2021-11-25,2021-11-19,佐々木メンテナンス工業株式会社,,株式会社,群馬県,館林市,足次町１３２番地の４,,10,207,3740073,,,2021-11-19,清算の結了等,,,2015-10-05,1,,,,,ササキメンテナンスコウギョウ,0
1252,5080002003088,登記記録の閉鎖等,0,2021-11-25,2021-11-22,有限会社静岡コーエイインテリア,,有限会社,静岡県,静岡市葵区,昭府１丁目９番３号,,22,101,4200871,,,2021-11-22,清算の結了等,,,2015-10-05,1,,,,,シズオカコーエイインテリア,0
1295,5120902020129,登記記録の閉鎖等,0,2021-11-25,2021-11-19,有限会社豊産業,,有限会社,大阪府,豊中市,利倉１丁目３番３４号,,27,203,5610845,,,2021-11-19,清算の結了等,,,2015-10-05,1,,,,,ユタカサンギョウ,0
1363,5330002006263,登記記録の閉鎖等,0,2021-11-25,2021-11-19,有限会社大都建設,,有限会社,熊本県,熊本市南区,出仲間４丁目１４番１５号,,43,104,8620963,,,2021-11-19,清算の結了等,,,2015-10-05,1,,,,,ダイトケンセツ,0
1368,5370002002853,登記記録の閉鎖等,0,2021-11-25,2021-11-18,有限会社コア企画,,有限会社,宮城県,仙台市太白区,山田自由ケ丘２９番１８号,,04,104,9820213,,,2021-11-18,清算の結了等,,,2015-10-05,1,,,,,コアキカク,0
1399,6010001083764,登記記録の閉鎖等,0,2021-11-25,2021-11-22,アウン・キャピタル・マネジメント株式会社,,株式会社,東京都,千代田区,一番町２２番地３,,13,101,1020082,,,2021-11-22,清算の結了等,,,2015-10-05,1,,,,,アウンキャピタルマネジメント,0
1412,6010401103493,登記記録の閉鎖等,0,2021-11-25,2021-11-16,株式会社エアハート,,株式会社,東京都,港区,芝大門１丁目４番１０号大蔵ビル３階,,13,103,1050012,,,2021-11-16,清算の結了等,,,2015-10-05,1,,,,,エアハート,0
1420,6010601009326,登記記録の閉鎖等,0,2021-11-25,2021-11-19,内海特殊鋼株式会社,,株式会社,東京都,墨田区,八広４丁目１３番１号,,13,107,1310041,,,2021-11-19,清算の結了等,,,2015-10-05,1,,,,,ウツミトクシュコウ,0
1430,6010903005270,登記記録の閉鎖等,0,2021-11-25,2021-11-22,合同会社ＥＬグループ,,合同会社,東京都,世田谷区,上祖師谷４丁目２５番４号,,13,112,1570065,,,2021-11-22,清算の結了等,,,2019-10-11,1,,,,,イーエルグループ,0
1436,6011001138095,登記記録の閉鎖等,0,2021-11-25,2021-11-16,株式会社クレデウスホールディング,,株式会社,東京都,目黒区,大橋２丁目１６番２９号,,13,110,1530044,,,2021-11-16,清算の結了等,,,2021-01-25,1,,,,,クレデウスホールディング,0
1446,6011501020711,登記記録の閉鎖等,0,2021-11-25,2021-11-09,株式会社ＯＲＰ,,株式会社,東京都,渋谷区,千駄ヶ谷２丁目３４番１２号,,13,113,1510051,,,2021-11-09,清算の結了等,,,2015-10-05,1,,,,,オープ,0
1461,6013105001146,登記記録の閉鎖等,0,2021-11-25,2021-11-18,青梅染色工業協同組合,,その他の設立登記法人,東京都,青梅市,勝沼３丁目９７番地,,13,205,1980041,,,2021-11-18,清算の結了等,,,2015-10-05,1,,,,,オウメセンショクコウギョウ,0
1463,6013201003244,登記記録の閉鎖等,0,2021-11-25,2021-11-16,株式会社総合教育研究所,,株式会社,東京都,目黒区,五本木２丁目２１番４号,,13,110,1530053,,,2021-11-16,清算の結了等,,,2015-10-05,1,,,,,ソウゴウキョウイクケンキュウジョ,0
1480,6020002064655,登記記録の閉鎖等,0,2021-11-25,2021-11-22,有限会社サロン・ド・フルール,,有限会社,神奈川県,横浜市金沢区,町屋町５番１８号ラ・パミール１０２号,,14,108,2360022,,,2021-11-22,清算の結了等,,,2015-10-05,1,,,,,サロンドフルール,0
1490,6030001048443,登記記録の閉鎖等,0,2021-11-25,2021-11-16,クリーンホームズ株式会社,,株式会社,埼玉県,朝霞市,根岸台８丁目６番３３号,,11,227,3510005,,,2021-11-16,清算の結了等,,,2015-10-05,1,,,,,クリーンホームズ,0
1491,6030002070405,登記記録の閉鎖等,0,2021-11-25,2021-11-19,有限会社埼工,,有限会社,埼玉県,北葛飾郡杉戸町,高野台西５丁目１番地２０,,11,464,3450045,,,2021-11-19,清算の結了等,,,2015-10-05,1,,,,,サイコウ,0
1492,6030003009807,登記記録の閉鎖等,0,2021-11-25,2021-11-22,雅通信合同会社,,合同会社,埼玉県,さいたま市浦和区,東仲町１５番１１号,,11,107,3300056,,,2021-11-22,清算の結了等,,,2017-01-24,1,,,,,ミヤビツウシン,0
1537,6122005002994,登記記録の閉鎖等,0,2021-11-25,2021-11-22,特定非営利活動法人げんき,,その他の設立登記法人,大阪府,東大阪市,末広町１５番９号,,27,227,5798055,,,2021-11-22,清算の結了等,,,2015-10-05,1,,,,,ゲンキ,0
1544,6140002034596,登記記録の閉鎖等,0,2021-11-25,2021-11-17,有限会社中道電機,,有限会社,兵庫県,丹波市,山南町小野尻１２０番地の３,,28,223,6693166,,,2021-11-17,清算の結了等,,,2015-10-05,1,,,,,ナカミチデンキ,0
1549,6160001008640,登記記録の閉鎖等,0,2021-11-25,2021-11-22,彦根商店街振興株式会社,,株式会社,滋賀県,彦根市,中央町３番８号,,25,202,5220063,,,2021-11-22,清算の結了等,,,2015-10-05,1,,,,,ヒコネショウテンガイシンコウ,0
1571,6210002007264,登記記録の閉鎖等,0,2021-11-25,2021-11-12,有限会社エフ・エス・テクノサービス,,有限会社,福井県,あわら市,池口５号４６番地,,18,208,9190615,,,2021-11-12,合併による解散等,3210001007169,令和３年１１月１日福井県あわら市池口５号４６番地福伸工業株式会社（3210001007169）に合併し解散,2015-10-05,1,,,,,エフエステクノサービス,0
1579,6260001001775,登記記録の閉鎖等,0,2021-11-25,2021-11-22,関西電子工業株式会社,,株式会社,岡山県,岡山市北区,野田４丁目１６番１１号,,33,101,7000971,,,2021-11-22,清算の結了等,,,2015-10-05,1,,,,,カンサイデンシコウギョウ,0
1590,6280002010311,登記記録の閉鎖等,0,2021-11-25,2021-11-22,有限会社増野教材店,00004780,有限会社,島根県,益田市,あけぼの西町１４番地７,,32,204,6980025,,,2021-11-22,合併による解散等,4280001000934,令和３年１１月２０日島根県松江市宍道町白石８１番地１０株式会社原商（4280001000934）に合併し解散,2015-10-05,1,,,,,マシノキョウザイテン,0
1596,6290001089890,登記記録の閉鎖等,0,2021-11-25,2021-11-18,株式会社ラックロック,,株式会社,福岡県,福岡市博多区,東光１丁目５番３号東峰マンション白鷲３０２号室,,40,132,8120008,,,2021-11-18,清算の結了等,,,2020-08-25,1,,,,,ラックロック,0
1654,7010005013849,登記記録の閉鎖等,0,2021-11-25,2021-11-15,一般社団法人富久司会,,その他の設立登記法人,東京都,中央区,日本橋兜町１番１０号日証館３０５号,,13,102,1030026,,,2021-11-15,清算の結了等,,,2015-10-05,1,,,,,フクシカイ,0
1669,7010502007568,登記記録の閉鎖等,0,2021-11-25,2021-11-24,有限会社蛇骨湯,,有限会社,東京都,台東区,元浅草４丁目３番１１号シュランガ元浅草２０１,,13,106,1110041,,,2021-11-24,清算の結了等,,,2015-10-05,1,,,,,ジャコツユ,0
1689,7011002008577,登記記録の閉鎖等,0,2021-11-25,2021-11-09,有限会社ドタプランニング,,有限会社,東京都,渋谷区,恵比寿南１丁目１３番５号,,13,113,1500022,,,2021-11-09,清算の結了等,,,2015-10-05,1,,,,,ドタプランニング,0
1696,7011103010184,登記記録の閉鎖等,0,2021-11-25,2021-11-22,ＹＭＷサービス合同会社,,合同会社,東京都,新宿区,若葉２丁目１１番地３,,13,104,1600011,,,2021-11-22,清算の結了等,,,2020-11-12,1,,,,,ワイエムダブリューサービス,0
1702,7011302015562,登記記録の閉鎖等,0,2021-11-25,2021-11-19,有限会社サンコー,,有限会社,東京都,杉並区,高井戸西１丁目４番１８号,,13,115,1680071,,,2021-11-19,清算の結了等,,,2015-10-05,1,,,,,,0
1719,7013202007350,登記記録の閉鎖等,0,2021-11-25,2021-11-10,有限会社エムエイチスリー,,有限会社,東京都,目黒区,下目黒６丁目３番１７号,,13,110,1530064,,,2021-11-10,清算の結了等,,,2015-10-05,1,,,,,エムエイチスリー,0
1751,7040001111240,登記記録の閉鎖等,0,2021-11-25,2021-11-18,株式会社Ｃ－ＴＡＫＥ,,株式会社,千葉県,千葉市花見川区,幕張町５丁目４１７－１１０マリンシティ幕張３０３号室,,12,102,2620032,,,2021-11-18,清算の結了等,,,2019-10-25,1,,,,,シーテイク,0
1764,7080102021137,登記記録の閉鎖等,0,2021-11-25,2021-11-22,有限会社松井建設,,有限会社,静岡県,下田市,立野１３０番地の１,,22,219,4150032,,,2021-11-22,清算の結了等,,,2015-10-05,1,,,,,,0
1791,7120102025455,登記記録の閉鎖等,0,2021-11-25,2021-11-18,西村織布有限会社,,有限会社,大阪府,和泉市,井ノ口町８番１０号,,27,219,5940072,,,2021-11-18,清算の結了等,,,2015-10-05,1,,,,,ニシムラショクフ,0
1831,7180302021232,登記記録の閉鎖等,0,2021-11-25,2021-11-22,有限会社秋田自動車,,有限会社,愛知県,豊田市,若林東町木ノ前６８番地５,,23,211,4730914,,,2021-11-22,清算の結了等,,,2015-10-05,1,,,,,アキタジドウシャ,0
1846,7240001049312,登記記録の閉鎖等,0,2021-11-25,2021-11-24,株式会社ＡＲＣＳ,,株式会社,広島県,広島市安佐南区,西原２丁目７番２３－２０６号,,34,105,7310113,,,2021-11-24,清算の結了等,,,2016-05-10,1,,,,,アークス,0
1849,7240002038280,登記記録の閉鎖等,0,2021-11-25,2021-11-24,有限会社細井管工,,有限会社,広島県,大竹市,小方ケ丘３番２号,,34,211,7390628,,,2021-11-24,清算の結了等,,,2015-10-05,1,,,,,ホソイカンコウ,0
1855,7260001002574,登記記録の閉鎖等,0,2021-11-25,2021-11-22,山陽オート株式会社,,株式会社,岡山県,岡山市北区,今６丁目１４番２３号,,33,101,7000975,,,2021-11-22,清算の結了等,,,2015-10-05,1,,,,,サンヨウオート,0
1878,7350002004544,登記記録の閉鎖等,0,2021-11-25,2021-11-19,有限会社皆美内装紙業,,有限会社,宮崎県,宮崎市,橘通西２丁目２番１２号,,45,201,8800001,,,2021-11-19,清算の結了等,,,2015-10-05,1,,,,,ミナミナイソウシギョウ,0
1881,7370001042816,登記記録の閉鎖等,0,2021-11-25,2021-11-17,株式会社広瀬川カンパニー,,株式会社,宮城県,仙台市青葉区,中央２丁目２番１０号仙都会館５階,,04,101,9800021,,,2021-11-17,清算の結了等,,,2018-03-27,1,,,,,ヒロセガワカンパニー,0
1898,7470001012370,登記記録の閉鎖等,0,2021-11-25,2021-11-18,高松観光開発株式会社,,株式会社,香川県,小豆郡小豆島町,池田５５９６番地２３１,,37,324,7614301,,,2021-11-18,清算の結了等,,,2015-10-05,1,,,,,タカマツカンコウカイハツ,0
1903,7500001000784,登記記録の閉鎖等,0,2021-11-25,2021-11-22,株式会社愛媛地域総合研究所,,株式会社,愛媛県,松山市,道後今市２番９号,,38,201,7900845,,,2021-11-22,清算の結了等,,,2015-10-05,1,,,,,エヒメチイキソウゴウケンキュウショ,0
1920,8010401042137,登記記録の閉鎖等,0,2021-11-25,2021-11-17,フォーカスト・コミュニケーションズ株式会社,,株式会社,東京都,港区,新橋５丁目５番１号,,13,103,1050004,,,2021-11-17,清算の結了等,,,2015-10-05,1,,,,,フォーカストコミュニケーションズ,0
1968,8012402002482,登記記録の閉鎖等,0,2021-11-25,2021-11-19,有限会社ホンマクリーニング,,有限会社,東京都,府中市,紅葉丘３丁目３８番地の５７,,13,206,1830004,,,2021-11-19,清算の結了等,,,2015-10-05,1,,,,,,0
1973,8013301011814,登記記録の閉鎖等,0,2021-11-25,2021-11-22,株式会社本橋建築研究所,,株式会社,東京都,豊島区,南池袋２丁目４３番２１号パームス東池袋１０４,,13,116,1710022,,,2021-11-22,清算の結了等,,,2015-10-05,1,,,,,モトハシケンチクケンキュウジョ,0
1995,8030003016082,登記記録の閉鎖等,0,2021-11-25,2021-11-22,信和合同会社,,合同会社,埼玉県,蕨市,塚越５丁目１４番５号,,11,223,3350002,,,2021-11-22,清算の結了等,,,2020-10-27,1,,,,,シンワ,0
1996,8040001063423,登記記録の閉鎖等,0,2021-11-25,2021-11-18,株式会社山崎農園,00019351,株式会社,千葉県,旭市,鎌数２７４０番地２,,12,215,2892505,,,2021-11-18,清算の結了等,,,2015-10-05,1,,,,,ヤマザキノウエン,0
2004,8040002078288,登記記録の閉鎖等,0,2021-11-25,2021-11-18,有限会社京葉工業,,有限会社,千葉県,大網白里市,南玉６３番地,,12,239,2993244,,,2021-11-18,清算の結了等,,,2015-10-05,1,,,,,ケイヨウコウギョウ,0
2020,8070001017698,登記記録の閉鎖等,0,2021-11-25,2021-11-22,株式会社秀栄,,株式会社,群馬県,渋川市,有馬１１５番地２,,10,208,3770005,,,2021-11-22,清算の結了等,,,2015-10-05,1,,,,,シュウエイ,0
2024,8070002014901,登記記録の閉鎖等,0,2021-11-25,2021-11-22,有限会社武井牛乳店,,有限会社,群馬県,安中市,松井田町横川２９９番地,,10,211,3790301,,,2021-11-22,清算の結了等,,,2015-10-05,1,,,,,タケイギュウニュウテン,0
2029,8080102001583,登記記録の閉鎖等,0,2021-11-25,2021-11-22,有限会社静岡ロイズ,,有限会社,静岡県,沼津市,下香貫林ノ下１９３７番地の１３,,22,203,4100822,,,2021-11-22,清算の結了等,,,2015-10-05,1,,,,,シズオカロイズ,0
2036,8100001028840,登記記録の閉鎖等,0,2021-11-25,2021-11-22,株式会社マガモ・トレーディング,,株式会社,長野県,伊那市,中央７０６３番地１４,,20,209,3960015,,,2021-11-22,清算の結了等,,,2015-11-12,1,,,,,マガモトレーディング,0
2038,8100002037592,登記記録の閉鎖等,0,2021-11-25,2021-11-19,有限会社ユコーコンテナサービス,,有限会社,長野県,飯田市,大瀬木２１４番地２,,20,205,3950157,,,2021-11-19,清算の結了等,,,2015-10-05,1,,,,,ユコーコンテナサービス,0
2041,8110001009798,登記記録の閉鎖等,0,2021-11-25,2021-11-19,アールティー開発株式会社,,株式会社,新潟県,新潟市秋葉区,小須戸３６６７番地２,,15,105,9560101,,,2021-11-19,清算の結了等,,,2015-10-05,1,,,,,アールティーカイハツ,0
2042,8110001017446,登記記録の閉鎖等,0,2021-11-25,2021-11-22,遠山タクシー株式会社,,株式会社,新潟県,柏崎市,駅前２丁目２番１号,,15,205,9450055,,,2021-11-22,清算の結了等,,,2015-10-05,1,,,,,,0
2044,8110001028022,登記記録の閉鎖等,0,2021-11-25,2021-11-19,ＭＫ－Ｔｅｃｈ株式会社,,株式会社,新潟県,新潟市北区,木崎２８９６番地５,,15,101,9503304,,,2021-11-19,清算の結了等,,,2015-10-05,1,,,,,エムケーテック,0
2086,8140002032367,登記記録の閉鎖等,0,2021-11-25,2021-11-22,有限会社しんぐコンクリート工業,,有限会社,兵庫県,揖保郡太子町,馬場２７９番地１２,,28,464,6711551,,,2021-11-22,清算の結了等,,,2015-10-05,1,,,,,シングコンクリートコウギョウ,0
2107,8180301015639,登記記録の閉鎖等,0,2021-11-25,2021-11-22,株式会社石川鉄工所,,株式会社,愛知県,高浜市,青木町８丁目３番地５０,,23,227,4441325,,,2021-11-22,清算の結了等,,,2015-10-05,1,,,,,イシカワテッコウジョ,0
2132,8330002019221,登記記録の閉鎖等,0,2021-11-25,2021-11-18,有限会社中山ファーム,,有限会社,熊本県,熊本市北区,植木町轟８０１番地３,,43,105,8610155,,,2021-11-18,清算の結了等,,,2015-10-05,1,,,,,ナカヤマファーム,0
2143,8370102000399,登記記録の閉鎖等,0,2021-11-25,2021-11-18,有限会社高橋自動車鈑金塗装工業,,有限会社,宮城県,柴田郡大河原町,大谷字見城前５７番地の２１,,04,321,9891201,,,2021-11-18,清算の結了等,,,2015-10-05,1,,,,,タカハシジドウシャバンキントソウコウギョウ,0
2162,8480005006490,登記記録の閉鎖等,0,2021-11-25,2021-11-22,一般社団法人阿波椿,,その他の設立登記法人,徳島県,鳴門市,大麻町板東字西山田８番地,,36,202,7790236,,,2021-11-22,清算の結了等,,,2016-06-22,1,,,,,アワツバキ,0
2179,9010003032873,登記記録の閉鎖等,0,2021-11-25,2021-11-18,虎ノ門ソーラー合同会社,,合同会社,東京都,千代田区,麹町２丁目８番地ＭＬＣ麹町ビル４階松本会計事務所内,,13,101,1020083,,,2021-11-18,清算の結了等,,,2020-08-24,1,,,,,トラノモンソーラー,0
2199,9010605003173,登記記録の閉鎖等,0,2021-11-25,2021-10-25,一般社団法人ｐｕｐａ,,その他の設立登記法人,東京都,江東区,潮見１丁目５番２号,,13,108,1350052,,,2021-10-25,清算の結了等,,,2015-12-24,1,,,,,ピューパ,0
2222,9011501007573,登記記録の閉鎖等,0,2021-11-25,2021-11-19,株式会社柘植運送店,,株式会社,東京都,荒川区,南千住３丁目３２番１３号,,13,118,1160003,,,2021-11-19,清算の結了等,,,2015-10-05,1,,,,,,0
2244,9020001085971,登記記録の閉鎖等,0,2021-11-25,2021-11-22,ＧＥＮＣＯ株式会社,,株式会社,神奈川県,川崎市中原区,上小田中５丁目２番４号－９０１,,14,133,2110053,,,2021-11-22,清算の結了等,,,2015-10-05,1,,,,,,0
2261,9030001117212,登記記録の閉鎖等,0,2021-11-25,2021-11-17,株式会社コピレボ,,株式会社,埼玉県,さいたま市南区,曲本５丁目４番２号,,11,108,3360033,,,2021-11-17,清算の結了等,,,2016-11-14,1,,,,,コピレボ,0
2266,9040001031890,登記記録の閉鎖等,0,2021-11-25,2021-11-16,株式会社ＴＭパートナーズ,,株式会社,東京都,港区,三田２丁目３番３４－１３０６号,,13,103,1080073,,,2021-11-16,清算の結了等,,,2015-10-05,1,,,,,ティーエムパートナーズ,0
2286,9080401001275,登記記録の閉鎖等,0,2021-11-25,2021-11-19,カネ村精密工業株式会社,,株式会社,静岡県,浜松市東区,有玉台３丁目１番５号,,22,132,4313126,,,2021-11-19,清算の結了等,,,2015-10-05,1,,,,,カネムラセイミツコウギョウ,0
2310,9120005002013,登記記録の閉鎖等,0,2021-11-25,2021-11-22,宗教法人木曽御嶽本教関西福島教会,00031798,その他の設立登記法人,大阪府,大阪市福島区,福島５丁目６番１１号,,27,103,5530003,,,2021-11-22,清算の結了等,,,2015-10-05,1,,,,,キソオンタケホンキョウカンサイフクシマキョウカイ,0
2339,9170001000841,登記記録の閉鎖等,0,2021-11-25,2021-11-22,北本林業株式会社,,株式会社,和歌山県,和歌山市,島崎町７丁目無番地,,30,201,6408125,,,2021-11-22,清算の結了等,,,2015-10-05,1,,,,,キタモトリンギョウ,0
2388,9350001011804,登記記録の閉鎖等,0,2021-11-25,2021-11-18,介護保険タクシーあい株式会社,,株式会社,宮崎県,日南市,大字平野６２４番地１,,45,204,8870015,,,2021-11-18,清算の結了等,,,2015-10-05,1,,,,,カイゴホケンタクシーアイ,0
2394,9350002012124,登記記録の閉鎖等,0,2021-11-25,2021-11-18,有限会社三和通信,,有限会社,宮崎県,延岡市,恒富町４丁目１２３番地,,45,203,8820836,,,2021-11-18,清算の結了等,,,2015-10-05,1,,,,,サンワツウシン,0
2398,9360001027634,登記記録の閉鎖等,0,2021-11-25,2021-11-18,株式会社アカネ,,株式会社,沖縄県,那覇市,牧志１丁目１３番７号那覇印章ビル２Ｆ,,47,201,9000013,,,2021-11-18,清算の結了等,,,2020-09-09,1,,,,,,0
2434,9460302003910,登記記録の閉鎖等,0,2021-11-25,2021-11-19,有限会社ながはら,,有限会社,北海道,北見市,桜町２丁目５４番地,,01,208,0900804,,,2021-11-19,合併による解散等,7460301000753,令和３年１１月１９日北海道北見市桜町二丁目５４番地株式会社ナガハラ工業（7460301000753）に合併し解散,2015-10-05,1,,,,,ナガハラ,0
